##########################################################
# Query made at 01/13/2020 13:42:12 UTC
# Time interval: from 04/01/2018 00:00  to 05/01/2018 23:59  UTC
##########################################################

##########################################################
# EGLL, London / Heathrow Airport (United Kingdom)
# WMO index: 03772
# Latitude 51-29N. Longitude 000-27W. Altitude 24 m.
##########################################################

###################################
#  METAR/SPECI from EGLL
###################################
201804302350 METAR COR EGLL 302350Z AUTO 27006KT 9999 NCD 05/01 Q1009
                        NOSIG=
201804302320 METAR COR EGLL 302320Z AUTO 28006KT 9999 NCD 05/01 Q1009
                        NOSIG=
201804302250 METAR COR EGLL 302250Z AUTO 28007KT 9999 NCD 05/01 Q1009
                        NOSIG=
201804302220 METAR COR EGLL 302220Z AUTO 28006KT 9999 NCD 05/00 Q1008
                        NOSIG=
201804302150 METAR COR EGLL 302150Z AUTO 30003KT 9999 NCD 07/00 Q1008
                        NOSIG=
201804302120 METAR COR EGLL 302120Z AUTO 30004KT 9999 NCD 07/M00 Q1008
                        NOSIG=
201804302050 METAR COR EGLL 302050Z AUTO 29004KT 9999 NCD 07/00 Q1008
                        NOSIG=
201804302020 METAR COR EGLL 302020Z AUTO 31003KT 9999 NCD 08/01 Q1008
                        NOSIG=
201804301950 METAR COR EGLL 301950Z AUTO 30005KT 9999 NCD 08/00 Q1008
                        NOSIG=
201804301920 METAR COR EGLL 301920Z AUTO 31006KT 9999 NCD 09/00 Q1008
                        NOSIG=
201804301850 METAR COR EGLL 301850Z AUTO 30008KT 9999 NCD 09/00 Q1008
                        NOSIG=
201804301820 METAR COR EGLL 301820Z AUTO 31007KT 9999 NCD 09/01 Q1007
                        NOSIG=
201804301750 METAR COR EGLL 301750Z AUTO 31008KT 280V360 9999 NCD 09/00
                        Q1007 NOSIG=
201804301720 METAR COR EGLL 301720Z AUTO 33008KT 290V010 9999 NCD 09/00
                        Q1007 NOSIG=
201804301650 METAR COR EGLL 301650Z AUTO 32011G24KT 290V360 9999 NCD 09/01
                        Q1007 NOSIG=
201804301620 METAR COR EGLL 301620Z AUTO 32009KT 300V360 9999 FEW049 09/01
                        Q1006 NOSIG=
201804301550 METAR COR EGLL 301550Z AUTO 32007KT 270V350 9999 SCT045 09/02
                        Q1006 NOSIG=
201804301520 METAR COR EGLL 301520Z AUTO 32011KT 300V360 9999 SCT041 09/02
                        Q1006 NOSIG=
201804301450 METAR COR EGLL 301450Z AUTO 33010KT 300V010 9999 FEW045 09/02
                        Q1006 NOSIG=
201804301420 METAR COR EGLL 301420Z AUTO 33010KT 300V020 9999 FEW040 SCT048
                        09/01 Q1006 NOSIG=
201804301350 METAR COR EGLL 301350Z AUTO 35008KT 310V040 9999 NCD 09/02
                        Q1006 NOSIG=
201804301320 METAR COR EGLL 301320Z AUTO 34008KT 310V030 9999 FEW044 08/02
                        Q1006 NOSIG=
201804301250 METAR COR EGLL 301250Z AUTO 35010KT 300V040 9999 FEW032 BKN038
                        08/02 Q1006 NOSIG=
201804301220 METAR COR EGLL 301220Z AUTO 36009G19KT 310V040 9999 -RA FEW022
                        SCT026 OVC032 08/02 Q1006 NOSIG=
201804301150 METAR COR EGLL 301150Z AUTO 36011G23KT 300V040 9999 -RA FEW022
                        SCT027 OVC032 08/02 Q1005 NOSIG=
201804301120 METAR COR EGLL 301120Z AUTO 36012G23KT 330V040 9999 -RA FEW026
                        OVC030 08/03 Q1005 NOSIG=
201804301050 METAR COR EGLL 301050Z AUTO 36013G24KT 320V050 9999 BKN032
                        OVC041 07/03 Q1005 NOSIG=
201804301020 METAR COR EGLL 301020Z AUTO 35010KT 310V040 9999 -RA BKN023
                        OVC031 07/03 Q1005 TEMPO RA=
201804300950 METAR COR EGLL 300950Z AUTO 36012KT 330V030 9999 -RA BKN021
                        BKN026 OVC031 06/03 Q1005 TEMPO RA=
201804300920 METAR COR EGLL 300920Z AUTO 35011G21KT 320V020 9999 -RA BKN021
                        BKN025 OVC032 06/03 Q1005 TEMPO RA=
201804300850 METAR COR EGLL 300850Z AUTO 36011KT 320V030 5000 -RA OVC022
                        06/03 Q1005 TEMPO RA=
201804300820 METAR COR EGLL 300820Z AUTO 35012KT 320V030 9999 -RA BKN022
                        BKN027 OVC032 06/03 Q1005 TEMPO RA=
201804300750 METAR COR EGLL 300750Z AUTO 36012KT 320V040 9999 -RA BKN022
                        OVC042 06/03 Q1005 TEMPO RA=
201804300720 METAR COR EGLL 300720Z AUTO 36013G28KT 320V040 9999 -RA BKN022
                        BKN027 OVC039 06/03 Q1005 TEMPO RA=
201804300650 METAR COR EGLL 300650Z AUTO 36013KT 330V040 9999 -RA BKN022
                        BKN027 OVC042 06/03 Q1005 TEMPO RA=
201804300620 METAR COR EGLL 300620Z AUTO 36012KT 320V020 9999 -RA BKN022
                        BKN031 06/03 Q1004 TEMPO RA=
201804300550 METAR COR EGLL 300550Z AUTO 36012KT 330V030 9999 -RA SCT023
                        SCT027 BKN035 06/03 Q1004 TEMPO RA=
201804300520 METAR COR EGLL 300520Z AUTO 36013G24KT 330V030 9999 -RA SCT022
                        BKN027 OVC038 06/03 Q1004 TEMPO RA=
201804300450 METAR COR EGLL 300450Z AUTO 36011KT 320V040 9999 -RA FEW021
                        BKN026 BKN035 06/03 Q1005 TEMPO RA=
201804300420 METAR COR EGLL 300420Z AUTO 01011KT 9999 -RA SCT023 BKN031
                        BKN040 06/03 Q1005 TEMPO RA=
201804300350 METAR COR EGLL 300350Z AUTO 01012KT 9999 -RA SCT021 BKN027
                        BKN037 06/03 Q1006 TEMPO RA=
201804300320 METAR COR EGLL 300320Z AUTO 01012G22KT 330V060 9999 -RA SCT022
                        BKN029 06/03 Q1006 TEMPO RA=
201804300250 METAR COR EGLL 300250Z AUTO 01012G23KT 320V050 9999 -RA SCT021
                        BKN026 BKN031 06/03 Q1006 TEMPO RA=
201804300220 METAR COR EGLL 300220Z AUTO 01013G26KT 340V040 9999 -RA FEW020///
                        BKN024/// BKN030/// //////TCU 06/03
                        Q1007 TEMPO RA=
201804300150 METAR COR EGLL 300150Z AUTO 01011KT 340V050 9999 -RA FEW021
                        BKN036 OVC044 07/03 Q1007 TEMPO RA=
201804300120 METAR COR EGLL 300120Z AUTO 01011KT 340V040 9999 -RA SCT022///
                        BKN035/// OVC049/// //////TCU 07/03
                        Q1007 TEMPO RA=
201804300050 METAR COR EGLL 300050Z AUTO 01010KT 340V050 9999 -RA SCT023
                        OVC033 07/03 Q1007 TEMPO RA=
201804300020 METAR COR EGLL 300020Z AUTO 01010KT 340V040 9999 SCT024 OVC029
                        07/03 Q1007 TEMPO RA=
201804292350 METAR COR EGLL 292350Z AUTO 02010G23KT 340V060 9999 BKN023
                        OVC031 07/03 Q1008 TEMPO RA=
201804292320 METAR COR EGLL 292320Z AUTO 02010KT 340V050 9999 SCT021 BKN030
                        OVC041 07/03 Q1007 TEMPO RA=
201804292250 METAR COR EGLL 292250Z AUTO 01012KT 340V060 9999 BKN022 OVC041
                        07/03 Q1008 NOSIG=
201804292220 METAR COR EGLL 292220Z AUTO 02011KT 340V060 9999 SCT021 BKN028
                        OVC039 07/03 Q1008 NOSIG=
201804292150 METAR COR EGLL 292150Z AUTO 02011G21KT 290V060 9999 BKN017
                        BKN022 OVC031 07/03 Q1008 TEMPO -RA
                        BKN014=
201804292120 METAR COR EGLL 292120Z AUTO 03010KT 340V060 9999 BKN017 OVC024
                        07/03 Q1009 NOSIG=
201804292050 METAR COR EGLL 292050Z AUTO 03011KT 340V060 9999 BKN018 OVC026
                        07/03 Q1009 NOSIG=
201804292020 METAR COR EGLL 292020Z AUTO 02010G20KT 330V060 9999 BKN018
                        OVC029 07/03 Q1009 NOSIG=
201804291950 METAR COR EGLL 291950Z AUTO 02011G21KT 320V050 9999 BKN013
                        OVC017 07/04 Q1009 TEMPO SCT013 BKN017=
201804291920 METAR COR EGLL 291920Z AUTO 01011KT 340V050 9999 OVC013 07/04
                        Q1010 NOSIG=
201804291850 METAR COR EGLL 291850Z AUTO 01010KT 330V050 9999 OVC014 07/04
                        Q1010 TEMPO BKN016=
201804291820 METAR COR EGLL 291820Z AUTO 02008KT 330V070 9999 OVC014 07/04
                        Q1010 TEMPO BKN016=
201804291750 METAR COR EGLL 291750Z AUTO 03009KT 350V050 9999 OVC015 07/04
                        Q1010 TEMPO BKN012=
201804291720 METAR COR EGLL 291720Z AUTO 03010KT 340V060 9999 OVC016 07/04
                        Q1010 TEMPO OVC014=
201804291650 METAR COR EGLL 291650Z AUTO 02009KT 340V050 9999 BKN015 OVC019
                        07/04 Q1010 NOSIG=
201804291620 METAR COR EGLL 291620Z AUTO 02009KT 340V050 9999 OVC014 07/04
                        Q1010 TEMPO OVC015=
201804291550 METAR COR EGLL 291550Z AUTO 02009KT 340V070 9999 OVC013 07/05
                        Q1010 NOSIG=
201804291520 METAR COR EGLL 291520Z AUTO 03011G23KT 340V060 9999 BKN012
                        OVC016 07/05 Q1010 NOSIG=
201804291450 METAR COR EGLL 291450Z AUTO 02010KT 340V050 9999 OVC012 07/05
                        Q1010 NOSIG=
201804291420 METAR COR EGLL 291420Z AUTO 03009KT 340V060 9999 OVC014 08/05
                        Q1010 TEMPO OVC015=
201804291350 METAR COR EGLL 291350Z AUTO 02009KT 330V050 9999 OVC015 08/05
                        Q1010 NOSIG=
201804291320 METAR COR EGLL 291320Z AUTO 02008KT 330V060 9999 BKN016 OVC022
                        08/04 Q1010 NOSIG=
201804291250 METAR COR EGLL 291250Z AUTO 02010KT 340V050 9999 BKN015 OVC019
                        08/04 Q1010 NOSIG=
201804291220 METAR COR EGLL 291220Z AUTO 02007KT 340V060 9999 OVC013 08/05
                        Q1011 BECMG BKN015=
201804291150 METAR COR EGLL 291150Z AUTO 03009KT 330V080 9999 OVC011 08/05
                        Q1011 NOSIG=
201804291120 METAR COR EGLL 291120Z AUTO 01009KT 340V040 9999 BKN011 OVC016
                        07/05 Q1011 NOSIG=
201804291050 METAR COR EGLL 291050Z AUTO 02007KT 350V060 9999 BKN010 OVC024
                        08/05 Q1011 NOSIG=
201804291020 METAR COR EGLL 291020Z AUTO 03009KT 360V080 8000 -RA BKN010
                        OVC030 07/05 Q1011 NOSIG=
201804290950 METAR COR EGLL 290950Z AUTO 02008KT 340V050 9999 BKN010 OVC017
                        08/05 Q1011 NOSIG=
201804290920 METAR COR EGLL 290920Z AUTO 01007KT 340V040 9999 BKN012 OVC017
                        08/05 Q1012 BECMG BKN015=
201804290850 METAR COR EGLL 290850Z AUTO 02006KT 330V060 9999 BKN014 OVC038
                        08/05 Q1012 BECMG BKN015=
201804290820 METAR COR EGLL 290820Z AUTO 02006KT 340V060 9999 BKN013 OVC033
                        07/05 Q1012 NOSIG=
201804290750 METAR COR EGLL 290750Z AUTO 03005KT 340V060 9999 BKN011 OVC032
                        07/05 Q1012 NOSIG=
201804290720 METAR EGLL 290720Z AUTO 03006KT 350V070 9999 BKN011 BKN016
                        OVC038 07/05 Q1012=
201804290650 METAR COR EGLL 290650Z AUTO 03007KT 350V070 9999 BKN013 OVC041
                        07/05 Q1012 NOSIG=
201804290620 METAR COR EGLL 290620Z AUTO 01006KT 340V040 9999 BKN011 OVC024
                        07/05 Q1012 NOSIG=
201804290550 METAR COR EGLL 290550Z AUTO 03006KT 350V070 9999 BKN010 OVC021
                        07/05 Q1012 TEMPO BKN009=
201804290520 METAR COR EGLL 290520Z AUTO 01005KT 330V040 9999 SCT011 BKN016
                        OVC021 07/05 Q1012 TEMPO BKN009=
201804290450 METAR COR EGLL 290450Z AUTO 02004KT 330V060 9999 OVC011 07/05
                        Q1012 TEMPO BKN009=
201804290420 METAR COR EGLL 290420Z AUTO 01006KT 330V050 9999 BKN011 OVC018
                        07/05 Q1012 TEMPO BKN009=
201804290350 METAR COR EGLL 290350Z AUTO 36005KT 330V030 9999 BKN012 OVC022
                        07/05 Q1012 TEMPO BKN009=
201804290320 METAR COR EGLL 290320Z AUTO 01004KT 330V050 8000 -RA OVC017
                        07/05 Q1012 TEMPO BKN012=
201804290250 METAR COR EGLL 290250Z AUTO 01005KT 330V060 9999 -RA BKN016
                        OVC020 07/06 Q1012 TEMPO BKN012=
201804290220 METAR COR EGLL 290220Z AUTO 02004KT 340V050 9999 -RA BKN017
                        OVC027 07/06 Q1012 TEMPO BKN012=
201804290150 METAR COR EGLL 290150Z AUTO 02005KT 340V060 9999 BKN019 OVC036
                        07/05 Q1012 TEMPO BKN012=
201804290120 METAR COR EGLL 290120Z AUTO 03004KT 340V060 9999 SCT010 OVC036
                        07/05 Q1012 TEMPO BKN009=
201804290050 METAR COR EGLL 290050Z AUTO 03005KT 340V050 9999 SCT021 OVC035
                        07/06 Q1012 TEMPO BKN012=
201804290020 METAR COR EGLL 290020Z AUTO 03005KT 340V060 9999 BKN013 OVC035
                        07/06 Q1012 TEMPO SCT013 BKN035=
201804282350 METAR COR EGLL 282350Z AUTO 03005KT 350V060 9999 FEW012 SCT016
                        BKN021 07/06 Q1013 TEMPO BKN012=
201804282320 METAR COR EGLL 282320Z AUTO 03004KT 350V060 9999 FEW013 SCT021
                        BKN025 07/06 Q1013 TEMPO BKN013=
201804282250 METAR COR EGLL 282250Z AUTO 03005KT 340V070 9999 BKN023 BKN030
                        OVC036 07/06 Q1013 NOSIG=
201804282220 METAR COR EGLL 282220Z AUTO 03004KT 340V060 9999 FEW012 SCT022
                        BKN043 07/06 Q1012 TEMPO BKN012=
201804282150 METAR COR EGLL 282150Z AUTO 02005KT 340V060 9999 FEW012 SCT036
                        08/06 Q1012 TEMPO BKN012=
201804282120 METAR COR EGLL 282120Z AUTO 01005KT 330V050 9999 BKN016 OVC031
                        08/06 Q1013 TEMPO BKN014=
201804282050 METAR COR EGLL 282050Z AUTO 01006KT 330V050 9999 FEW013 SCT018
                        BKN029 08/06 Q1013 TEMPO BKN013=
201804282020 METAR COR EGLL 282020Z AUTO 02005KT 330V060 9999 BKN015 OVC024
                        08/06 Q1013 TEMPO BKN014=
201804281950 METAR COR EGLL 281950Z AUTO 01006KT 340V050 9999 BKN021 OVC028
                        08/06 Q1013 TEMPO BKN014=
201804281920 METAR COR EGLL 281920Z AUTO 02004KT 330V050 9999 FEW011 OVC015
                        08/06 Q1012 TEMPO BKN011=
201804281850 METAR COR EGLL 281850Z AUTO 02005KT 340V050 9999 BKN010 OVC020
                        08/06 Q1012 TEMPO SCT010 BKN020=
201804281820 METAR COR EGLL 281820Z AUTO 36007KT 9999 OVC015 08/06 Q1012
                        TEMPO BKN012=
201804281750 METAR COR EGLL 281750Z AUTO 36007KT 320V030 9999 FEW013 BKN017
                        OVC023 09/06 Q1012 TEMPO BKN012=
201804281720 METAR COR EGLL 281720Z AUTO 36006KT 320V030 9999 OVC012 09/07
                        Q1012 TEMPO SCT012 OVC018=
201804281650 METAR COR EGLL 281650Z AUTO 35005KT 320V030 9999 BKN013 BKN021
                        OVC026 09/07 Q1011 TEMPO SCT013=
201804281620 METAR COR EGLL 281620Z AUTO 36004KT 320V050 9999 SCT015 BKN020
                        OVC028 09/07 Q1011 TEMPO BKN012=
201804281550 METAR COR EGLL 281550Z AUTO 35005KT 300V030 9999 -RA BKN011
                        OVC021 09/07 Q1011 NOSIG=
201804281520 METAR COR EGLL 281520Z AUTO 36006KT 9999 SCT010 BKN014 08/07
                        Q1011 NOSIG=
201804281450 METAR COR EGLL 281450Z AUTO 36006KT 330V040 9000 -RA SCT008
                        BKN012 BKN017 09/07 Q1011 NOSIG=
201804281420 METAR COR EGLL 281420Z AUTO 34004KT 290V030 6000 -RA SCT011
                        OVC015 09/07 Q1011 TEMPO BKN012=
201804281350 METAR COR EGLL 281350Z AUTO 36004KT 320V030 9999 BKN011 OVC020
                        09/07 Q1011 NOSIG=
201804281320 METAR COR EGLL 281320Z AUTO 34005KT 300V030 9999 OVC011 09/07
                        Q1011 NOSIG=
201804281250 METAR COR EGLL 281250Z AUTO 36005KT 320V040 9999 OVC010 09/07
                        Q1011 NOSIG=
201804281220 METAR COR EGLL 281220Z AUTO 35004KT 320V030 9999 OVC011 09/07
                        Q1011 NOSIG=
201804281150 METAR COR EGLL 281150Z AUTO 33005KT 300V010 9999 BKN009 OVC015
                        08/07 Q1011 BECMG SCT009=
201804281120 METAR COR EGLL 281120Z AUTO 36004KT 9999 -RA OVC009 08/07
                        Q1011 BECMG OVC010=
201804281050 METAR COR EGLL 281050Z AUTO 36004KT 310V030 9999 BKN009 OVC014
                        08/07 Q1010 BECMG SCT009=
201804281020 METAR COR EGLL 281020Z AUTO 36004KT 9999 BKN008 OVC015 08/07
                        Q1010 BECMG SCT008=
201804280950 METAR COR EGLL 280950Z AUTO 35006KT 310V040 9999 -RA SCT008
                        OVC011 08/07 Q1010 TEMPO BKN008=
201804280920 METAR COR EGLL 280920Z AUTO 34005KT 300V020 9999 -RA OVC007
                        08/07 Q1010 BECMG SCT008 BKN010=
201804280850 METAR COR EGLL 280850Z AUTO 35005KT 320V030 7000 -RA BKN007///
                        OVC013/// //////TCU 08/07 Q1009 BECMG
                        SCT008=
201804280820 METAR COR EGLL 280820Z AUTO 35004KT 320V040 7000 -RA BKN006
                        OVC010 08/07 Q1009 RERA REDZ BECMG
                        SCT008=
201804280750 METAR COR EGLL 280750Z AUTO 33005KT 290V360 5000 -DZ BKN007
                        OVC011 08/07 Q1009 TEMPO SCT007=
201804280720 METAR COR EGLL 280720Z AUTO 35004KT 310V040 5000 -RADZ OVC006
                        08/07 Q1009 TEMPO 4500 RA=
201804280650 METAR COR EGLL 280650Z AUTO 34005KT 300V050 7000 BKN005///
                        OVC012/// //////TCU 08/07 Q1008 TEMPO
                        RA SCT005=
201804280620 METAR COR EGLL 280620Z AUTO 35005KT 290V030 5000 -RADZ SCT005///
                        BKN008/// OVC015/// //////TCU 08/07
                        Q1008 TEMPO 4500 RA=
201804280550 METAR COR EGLL 280550Z AUTO 35006KT 310V030 7000 OVC006///
                        //////TCU 08/07 Q1007 TEMPO RA=
201804280520 METAR COR EGLL 280520Z AUTO 35005KT 320V030 9000 BKN006///
                        OVC012/// //////CB 08/07 Q1007 TEMPO
                        RA=
201804280450 METAR COR EGLL 280450Z AUTO 32005KT 290V360 9000 OVC007///
                        //////TCU 08/07 Q1006 TEMPO 4000
                        RADZ=
201804280420 METAR COR EGLL 280420Z 33004KT 290V030 9999 BKN007 OVC011
                        08/07 Q1006 TEMPO 4000 RADZ=
201804280350 METAR COR EGLL 280350Z AUTO 36006KT 320V030 9999 -RA BKN008///
                        OVC011/// //////TCU 08/07 Q1006 NOSIG=
201804280320 METAR COR EGLL 280320Z AUTO 35005KT 300V020 9999 -RA BKN007///
                        OVC013/// //////TCU 08/07 Q1006 NOSIG=
201804280250 METAR COR EGLL 280250Z AUTO 35006KT 290V020 8000 -RA OVC006///
                        //////TCU 08/08 Q1005 TEMPO 3000
                        RA=
201804280220 METAR COR EGLL 280220Z AUTO 36007KT 320V030 5000 -RA BKN006///
                        OVC033/// //////TCU 09/08 Q1005 TEMPO
                        3000 RADZ=
201804280150 METAR COR EGLL 280150Z AUTO 35007KT 310V020 8000 -RA BKN006///
                        OVC019/// //////TCU 09/08 Q1005 NOSIG=
201804280120 METAR COR EGLL 280120Z AUTO 34005KT 310V020 3400 -DZ BKN004///
                        OVC011/// //////TCU 10/09 Q1005 REDZ
                        TEMPO BKN008=
201804280050 METAR COR EGLL 280050Z AUTO VRB03KT 2100 -RA SCT004/// BKN009///
                        OVC032/// //////TCU 10/10 Q1005 REDZ
                        NOSIG=
201804280020 METAR COR EGLL 280020Z AUTO 35004KT 320V030 1900 DZ SCT008///
                        BKN011/// BKN016/// //////TCU 10/10
                        Q1005 TEMPO BKN004=
201804272350 METAR COR EGLL 272350Z AUTO 35004KT 2500 BR SCT005/// BKN010///
                        BKN014/// //////TCU 10/10 Q1005 TEMPO
                        3000 RADZ BKN008=
201804272320 METAR COR EGLL 272320Z AUTO 35003KT 2600 BR BKN009/// BKN015///
                        OVC020/// //////TCU 10/10 Q1005 TEMPO
                        4000 RA=
201804272250 METAR COR EGLL 272250Z AUTO VRB02KT 3200 BR OVC006 10/10
                        Q1005 TEMPO 4000 RA=
201804272220 METAR COR EGLL 272220Z AUTO VRB02KT 5000 -RADZ BKN010///
                        //////TCU 10/10 Q1005 TEMPO 3000
                        RADZ=
201804272150 METAR COR EGLL 272150Z AUTO 04004KT 6000 -RA BKN009 BKN016
                        BKN029 11/10 Q1005 TEMPO 4000 RADZ=
201804272120 METAR COR EGLL 272120Z AUTO VRB02KT 9000 -RA FEW009 BKN013
                        BKN021 11/10 Q1004 TEMPO 4000 RADZ
                        BKN009=
201804272050 METAR COR EGLL 272050Z AUTO VRB02KT 6000 -RA FEW007 BKN010
                        BKN017 10/10 Q1004 REDZ TEMPO 4000
                        RADZ=
201804272020 METAR COR EGLL 272020Z AUTO VRB03KT 2300 DZ SCT006/// BKN013///
                        BKN022/// //////TCU 10/10 Q1004 TEMPO
                        4000 RADZ=
201804271950 METAR COR EGLL 271950Z AUTO 09002KT 7000 -RA BKN007/// OVC031///
                        //////TCU 10/09 Q1004 RERA REDZ TEMPO
                        4000 RA=
201804271920 METAR COR EGLL 271920Z AUTO 10004KT 4000 RA SCT005 BKN011
                        11/09 Q1004 REDZ TEMPO 6000 -RA SCT011
                        BKN020=
201804271850 METAR COR EGLL 271850Z AUTO 11005KT 9999 SCT008 BKN040 11/09
                        Q1004 TEMPO RA BKN014=
201804271820 METAR COR EGLL 271820Z AUTO 15007KT 9999 -RA FEW014 SCT023
                        BKN033 11/09 Q1004 TEMPO RA BKN014=
201804271750 METAR COR EGLL 271750Z AUTO 16007KT 9999 -RA BKN034/// //////TCU
                        11/09 Q1004 TEMPO RA=
201804271720 METAR COR EGLL 271720Z AUTO 15009KT 9999 SCT019 SCT026 BKN032
                        11/09 Q1004 TEMPO RA BKN014=
201804271650 METAR EGLL 271650Z AUTO 14008KT 9999 FEW019 SCT024 BKN041
                        11/09 Q1004=
201804271620 METAR COR EGLL 271620Z AUTO 08006KT 9999 SCT017 BKN021 OVC041
                        11/09 Q1004 TEMPO -RA BKN014=
201804271550 METAR COR EGLL 271550Z AUTO 08007KT 9999 FEW019 BKN026 BKN032
                        11/09 Q1004 TEMPO -RA BKN014=
201804271520 METAR COR EGLL 271520Z 09005KT 9999 FEW020 BKN030 11/09 Q1004
                        TEMPO RA=
201804271450 METAR COR EGLL 271450Z 13003KT 9999 FEW015 BKN035 10/08 Q1004
                        TEMPO -RA BKN014=
201804271420 METAR COR EGLL 271420Z 16005KT 120V190 9999 FEW010 SCT020
                        BKN040 10/08 Q1005 TEMPO RA BKNO14=
201804271350 METAR COR EGLL 271350Z 17010KT 7000 -RA FEW020 SCT030 OVC040
                        11/09 Q1005 TEMPO 4000 RA=
201804271320 METAR COR EGLL 271320Z 18013KT 8000 -RA FEW020 SCT030 BKN045
                        11/08 Q1005 TEMPO 4000 RA BKN014=
201804271250 METAR COR EGLL 271250Z 13008KT 9999 -RA FEW020 BKN030 12/08
                        Q1004 TEMPO 4000 RA=
201804271220 METAR COR EGLL 271220Z AUTO 12008KT 090V150 9999 FEW021 SCT027
                        BKN048 12/08 Q1005 TEMPO RA=
201804271150 METAR COR EGLL 271150Z AUTO 12008KT 9999 BKN018 12/09 Q1005
                        TEMPO RA BKN014=
201804271120 METAR COR EGLL 271120Z AUTO 11011KT 9999 BKN017 11/08 Q1005
                        TEMPO RA BKN014=
201804271050 METAR COR EGLL 271050Z AUTO 10011KT 9999 BKN019 10/07 Q1006
                        NOSIG=
201804271020 METAR EGLL 271020Z AUTO 09009KT 9999 FEW048 09/07 Q1006=
201804270950 METAR COR EGLL 270950Z AUTO 09009KT 9999 -RA BKN041/// //////TCU
                        09/06 Q1007 NOSIG=
201804270920 METAR COR EGLL 270920Z AUTO 09010KT 9999 BKN049 09/06 Q1008
                        NOSIG=
201804270850 METAR COR EGLL 270850Z AUTO 09008KT 060V120 9999 BKN049 09/07
                        Q1008 NOSIG=
201804270820 METAR COR EGLL 270820Z AUTO 07007KT 9999 NCD 08/06 Q1008
                        NOSIG=
201804270750 METAR COR EGLL 270750Z AUTO 09010KT 9999 FEW013 BKN048 08/06
                        Q1009 NOSIG=
201804270720 METAR COR EGLL 270720Z AUTO 09007KT 9999 FEW047 08/06 Q1009
                        NOSIG=
201804270650 METAR COR EGLL 270650Z AUTO 08005KT 9999 -RA SCT030/// BKN036///
                        BKN044/// //////TCU 07/06 Q1010 NOSIG=
201804270620 METAR COR EGLL 270620Z AUTO VRB03KT 8000 -RA SCT024/// OVC034///
                        //////TCU 07/06 Q1010 TEMPO RA=
201804270550 METAR COR EGLL 270550Z AUTO 19007KT 9999 -RA FEW026/// OVC033///
                        //////TCU 08/06 Q1011 TEMPO RA=
201804270520 METAR COR EGLL 270520Z AUTO 18006KT 9000 -RA BKN036/// OVC049///
                        //////TCU 08/07 Q1011 TEMPO RA=
201804270450 METAR COR EGLL 270450Z AUTO VRB03KT 9999 -RA SCT037 SCT044
                        08/07 Q1011 TEMPO RA=
201804270420 METAR COR EGLL 270420Z AUTO 16004KT 9999 -RA NCD 08/07 Q1011
                        TEMPO RA=
201804270350 METAR COR EGLL 270350Z AUTO 13003KT 9999 NCD 08/07 Q1011
                        TEMPO RA=
201804270320 METAR COR EGLL 270320Z AUTO 14003KT 9999 -RA SCT049 08/06
                        Q1012 TEMPO RA=
201804270250 METAR COR EGLL 270250Z AUTO 17004KT 9999 NCD 08/06 Q1012
                        NOSIG=
201804270220 METAR COR EGLL 270220Z AUTO 17003KT 9999 NCD 08/06 Q1012
                        NOSIG=
201804270150 METAR COR EGLL 270150Z AUTO 19005KT 9999 NCD 08/06 Q1013
                        NOSIG=
201804270120 METAR COR EGLL 270120Z AUTO 20005KT 9999 NCD 08/06 Q1013
                        NOSIG=
201804270050 METAR COR EGLL 270050Z AUTO 19006KT 9999 NCD 08/06 Q1013
                        NOSIG=
201804270020 METAR COR EGLL 270020Z AUTO 21005KT 9999 NCD 09/06 Q1014
                        NOSIG=
201804262350 METAR COR EGLL 262350Z AUTO 20005KT 9999 NCD 09/06 Q1014
                        NOSIG=
201804262320 METAR COR EGLL 262320Z AUTO 20005KT 9999 NCD 09/06 Q1014
                        NOSIG=
201804262250 METAR COR EGLL 262250Z AUTO 21005KT 9999 NCD 09/06 Q1015
                        NOSIG=
201804262220 METAR COR EGLL 262220Z AUTO 23007KT 9999 NCD 09/06 Q1015
                        NOSIG=
201804262150 METAR COR EGLL 262150Z AUTO 22007KT 9999 NCD 09/06 Q1015
                        NOSIG=
201804262120 METAR COR EGLL 262120Z AUTO 23008KT 9999 NCD 09/06 Q1015
                        NOSIG=
201804262050 METAR COR EGLL 262050Z AUTO 23009KT 9999 NCD 09/06 Q1015
                        NOSIG=
201804262020 METAR COR EGLL 262020Z AUTO 22009KT 9999 NCD 10/06 Q1015
                        NOSIG=
201804261950 METAR COR EGLL 261950Z AUTO 22010KT 180V250 9999 NCD 11/06
                        Q1015 NOSIG=
201804261920 METAR COR EGLL 261920Z AUTO 22010KT 9999 FEW044 11/06 Q1015
                        NOSIG=
201804261850 METAR COR EGLL 261850Z AUTO 22013KT 9999 BKN043 12/06 Q1015
                        NOSIG=
201804261820 METAR COR EGLL 261820Z AUTO 26011KT 9999 NCD 12/02 Q1015
                        NOSIG=
201804261750 METAR COR EGLL 261750Z AUTO 27012KT 9999 NCD 13/02 Q1015
                        NOSIG=
201804261720 METAR COR EGLL 261720Z AUTO 27013KT 9999 NCD 14/02 Q1015
                        NOSIG=
201804261650 METAR COR EGLL 261650Z AUTO 27012KT 9999 NCD 14/01 Q1015
                        NOSIG=
201804261620 METAR COR EGLL 261620Z AUTO 27015KT 9999 NCD 14/01 Q1015
                        NOSIG=
201804261550 METAR COR EGLL 261550Z AUTO 27013KT 9999 NCD 15/00 Q1015
                        NOSIG=
201804261520 METAR COR EGLL 261520Z AUTO 27014KT 9999 NCD 14/01 Q1015
                        NOSIG=
201804261450 METAR COR EGLL 261450Z AUTO 28012KT 9999 NCD 14/03 Q1015
                        NOSIG=
201804261420 METAR COR EGLL 261420Z AUTO 26015KT 9999 NCD 14/02 Q1016
                        NOSIG=
201804261350 METAR COR EGLL 261350Z AUTO 25016KT 9999 NCD 14/03 Q1016
                        NOSIG=
201804261320 METAR COR EGLL 261320Z AUTO 25015KT 9999 FEW043/// //////TCU
                        14/04 Q1016 NOSIG=
201804261250 METAR COR EGLL 261250Z AUTO 26014KT 9999 FEW045 14/05 Q1016
                        NOSIG=
201804261220 METAR COR EGLL 261220Z AUTO 28011KT 9999 -RA FEW047 12/05
                        Q1016 NOSIG=
201804261150 METAR COR EGLL 261150Z 24016KT 210V270 9999 SCT040TCU 13/04
                        Q1016 TEMPO SHRA=
201804261120 METAR COR EGLL 261120Z AUTO 25018KT 9999 NCD 13/05 Q1016
                        TEMPO SHRA=
201804261050 METAR COR EGLL 261050Z AUTO 24014KT 9999 FEW027 11/07 Q1017
                        RERA TEMPO SHRA=
201804261020 METAR COR EGLL 261020Z AUTO 26015KT 9999 -RA SCT038 BKN045
                        11/05 Q1016 TEMPO 4500 SHRA=
201804260950 METAR COR EGLL 260950Z AUTO 27015KT 9999 FEW034 SCT049 12/04
                        Q1016 NOSIG=
201804260920 METAR COR EGLL 260920Z AUTO 25013KT 9999 SCT029 SCT033 BKN041
                        11/05 Q1016 NOSIG=
201804260850 METAR COR EGLL 260850Z AUTO 25014KT 9999 FEW027 BKN031 11/05
                        Q1017 NOSIG=
201804260820 METAR COR EGLL 260820Z AUTO 25013G24KT 9999 SCT024 BKN030
                        BKN036 10/05 Q1017 NOSIG=
201804260750 METAR COR EGLL 260750Z AUTO 25013KT 220V290 9999 SCT022 BKN029
                        10/05 Q1017 NOSIG=
201804260720 METAR COR EGLL 260720Z AUTO 25012KT 9999 NCD 09/06 Q1016
                        NOSIG=
201804260650 METAR COR EGLL 260650Z AUTO 24011KT 9999 NCD 09/05 Q1016
                        NOSIG=
201804260620 METAR COR EGLL 260620Z AUTO 24011KT 9999 NCD 08/05 Q1016
                        NOSIG=
201804260550 METAR COR EGLL 260550Z AUTO 23011KT 9999 NCD 07/05 Q1016
                        NOSIG=
201804260520 METAR COR EGLL 260520Z AUTO 23009KT 9999 NCD 07/05 Q1016
                        NOSIG=
201804260450 METAR COR EGLL 260450Z AUTO 24009KT 9999 NCD 06/05 Q1015
                        NOSIG=
201804260420 METAR COR EGLL 260420Z AUTO 24009KT 9999 NCD 07/05 Q1015
                        NOSIG=
201804260350 METAR COR EGLL 260350Z AUTO 24010KT 9999 NCD 06/05 Q1015
                        NOSIG=
201804260320 METAR COR EGLL 260320Z AUTO 23010KT 9999 NCD 07/05 Q1015
                        NOSIG=
201804260250 METAR COR EGLL 260250Z AUTO 24010KT 9999 NCD 07/05 Q1015
                        NOSIG=
201804260220 METAR COR EGLL 260220Z AUTO 25010KT 9999 NCD 07/05 Q1015
                        NOSIG=
201804260150 METAR COR EGLL 260150Z AUTO 24009KT 9999 NCD 07/05 Q1015
                        NOSIG=
201804260120 METAR COR EGLL 260120Z AUTO 24011KT 9999 NCD 07/05 Q1015
                        NOSIG=
201804260050 METAR COR EGLL 260050Z AUTO 24011KT 9999 NCD 08/05 Q1015
                        NOSIG=
201804260020 METAR COR EGLL 260020Z AUTO 25010KT 9999 NCD 08/05 Q1015
                        NOSIG=
201804252350 METAR COR EGLL 252350Z AUTO 25012KT 9999 NCD 08/05 Q1014
                        NOSIG=
201804252320 METAR COR EGLL 252320Z AUTO 25012KT 9999 NCD 08/05 Q1014
                        NOSIG=
201804252250 METAR COR EGLL 252250Z AUTO 25011KT 9999 NCD 08/05 Q1014
                        NOSIG=
201804252220 METAR COR EGLL 252220Z AUTO 25011KT 9999 NCD 09/05 Q1014
                        NOSIG=
201804252150 METAR COR EGLL 252150Z AUTO 26012KT 9999 NCD 09/04 Q1014
                        NOSIG=
201804252120 METAR COR EGLL 252120Z AUTO 25011KT 9999 NCD 09/04 Q1014
                        NOSIG=
201804252050 METAR COR EGLL 252050Z AUTO 25011KT 9999 NCD 09/04 Q1013
                        NOSIG=
201804252020 METAR COR EGLL 252020Z AUTO 27014KT 9999 NCD 10/04 Q1013
                        NOSIG=
201804251950 METAR COR EGLL 251950Z AUTO 26017KT 9999 NCD 10/03 Q1013
                        NOSIG=
201804251920 METAR COR EGLL 251920Z AUTO 27017KT 9999 NCD 11/03 Q1012
                        NOSIG=
201804251850 METAR COR EGLL 251850Z AUTO 27017KT 9999 FEW048 11/03 Q1012
                        NOSIG=
201804251820 METAR COR EGLL 251820Z AUTO 28018KT 9999 SCT047/// //////CB
                        12/03 Q1012 NOSIG=
201804251750 METAR COR EGLL 251750Z AUTO 24012KT 9999 BKN044/// //////CB
                        13/07 Q1011 NOSIG=
201804251720 METAR COR EGLL 251720Z 24014KT 9999 SCT049 12/06 Q1011 NOSIG=
201804251650 METAR COR EGLL 251650Z AUTO 24015KT 9999 //////CB 13/07 Q1011
                        NOSIG=
201804251620 METAR COR EGLL 251620Z 24016KT 9999 VCSH FEW042TCU SCT049
                        13/05 Q1011 NOSIG=
201804251550 METAR EGLL 251550Z AUTO 23015KT 9999 NCD 14/06 Q1012=
201804251520 METAR COR EGLL 251520Z AUTO 24018KT 9999 SCT039 BKN046 13/07
                        Q1012 NOSIG=
201804251450 METAR COR EGLL 251450Z AUTO 25017KT 9999 SCT045/// //////TCU
                        14/05 Q1012 NOSIG=
201804251420 METAR EGLL 251420Z AUTO 25018KT 9999 SCT041/// //////CB 14/05
                        Q1012=
201804251350 METAR COR EGLL 251350Z AUTO 24016KT 9999 //////CB 14/05 Q1012
                        NOSIG=
201804251320 METAR COR EGLL 251320Z AUTO 25017KT 9999 SCT045/// //////TCU
                        15/06 Q1012 NOSIG=
201804251250 METAR COR EGLL 251250Z AUTO 27010KT 9999 SCT044 13/06 Q1012
                        NOSIG=
201804251220 METAR COR EGLL 251220Z AUTO 28013KT 250V310 9999 //////CB
                        13/06 Q1012 NOSIG=
201804251150 METAR EGLL 251150Z AUTO 27010KT 9999 -RA FEW043/// //////TCU
                        12/08 Q1013=
201804251120 METAR COR EGLL 251120Z AUTO 29013KT 9999 //////CB 14/06 Q1013
                        TEMPO SHRA=
201804251050 METAR COR EGLL 251050Z AUTO 24014KT 9999 FEW039/// SCT048///
                        //////TCU 13/06 Q1013 NOSIG=
201804251020 METAR COR EGLL 251020Z AUTO 27015KT 9999 FEW037/// BKN049///
                        //////TCU 13/05 Q1013 NOSIG=
201804250950 METAR COR EGLL 250950Z AUTO 26015KT 9999 SCT040 12/05 Q1013
                        NOSIG=
201804250920 METAR COR EGLL 250920Z AUTO 27016KT 9999 SCT035 13/05 Q1013
                        NOSIG=
201804250850 METAR COR EGLL 250850Z AUTO 28014KT 9999 SCT028 BKN042 12/06
                        Q1013 NOSIG=
201804250820 METAR COR EGLL 250820Z AUTO 26013KT 9999 SCT022 BKN031 12/07
                        Q1013 NOSIG=
201804250750 METAR COR EGLL 250750Z AUTO 26014KT 9999 FEW018 SCT022 11/08
                        Q1012 NOSIG=
201804250720 METAR COR EGLL 250720Z AUTO 27012KT 9999 FEW017 10/07 Q1012
                        NOSIG=
201804250650 METAR COR EGLL 250650Z AUTO 26011KT 9999 NCD 10/07 Q1012
                        NOSIG=
201804250620 METAR COR EGLL 250620Z AUTO 26009KT 9999 NCD 09/07 Q1012
                        NOSIG=
201804250550 METAR COR EGLL 250550Z AUTO 24009KT 9999 NCD 08/07 Q1011
                        NOSIG=
201804250520 METAR COR EGLL 250520Z AUTO 24009KT 9999 NCD 08/07 Q1011
                        NOSIG=
201804250450 METAR COR EGLL 250450Z AUTO 24008KT 9999 NCD 08/07 Q1011
                        NOSIG=
201804250420 METAR COR EGLL 250420Z AUTO 25008KT 9999 FEW047 08/07 Q1011
                        NOSIG=
201804250350 METAR COR EGLL 250350Z AUTO 26009KT 9999 BKN045 09/07 Q1011
                        NOSIG=
201804250320 METAR COR EGLL 250320Z AUTO 27009KT 9999 SCT045 08/07 Q1011
                        NOSIG=
201804250250 METAR COR EGLL 250250Z AUTO 27009KT 9999 NCD 09/06 Q1010
                        NOSIG=
201804250220 METAR COR EGLL 250220Z AUTO 28010KT 9999 SCT040 09/06 Q1010
                        NOSIG=
201804250150 METAR COR EGLL 250150Z AUTO 27010KT 9999 BKN036 10/07 Q1010
                        NOSIG=
201804250120 METAR COR EGLL 250120Z AUTO 28011KT 9999 FEW025 BKN034 OVC040
                        10/08 Q1010 NOSIG=
201804250050 METAR COR EGLL 250050Z AUTO 28012KT 9999 FEW023 BKN030 11/08
                        Q1010 NOSIG=
201804250020 METAR COR EGLL 250020Z AUTO 28011KT 9999 BKN017 BKN025 10/08
                        Q1009 NOSIG=
201804242350 METAR COR EGLL 242350Z AUTO 28017KT 9999 BKN017 BKN022 OVC037
                        11/08 Q1009 NOSIG=
201804242320 METAR COR EGLL 242320Z AUTO 26015KT 9999 FEW013 SCT018 BKN026
                        12/10 Q1008 NOSIG=
201804242250 METAR COR EGLL 242250Z AUTO 24013KT 6000 -RA BKN012 BKN019
                        OVC040 12/11 Q1008 TEMPO SCT012 BKN030=
201804242220 METAR COR EGLL 242220Z AUTO 23013KT 9999 BKN012 OVC019 12/11
                        Q1008 NOSIG=
201804242150 METAR COR EGLL 242150Z AUTO 22014KT 9999 BKN012 OVC020 12/11
                        Q1008 NOSIG=
201804242120 METAR COR EGLL 242120Z 22015KT 9999 -RA BKN013 OVC042 12/11
                        Q1008 NOSIG=
201804242050 METAR COR EGLL 242050Z AUTO 22015KT 9999 -RA BKN013 OVC019
                        13/11 Q1008 TEMPO RA=
201804242020 METAR COR EGLL 242020Z AUTO 22014KT 9999 -RA BKN015 13/11
                        Q1008 TEMPO RA BKN014=
201804241950 METAR COR EGLL 241950Z AUTO 23014KT 9999 -RA BKN015 BKN020
                        13/10 Q1008 NOSIG=
201804241920 METAR COR EGLL 241920Z AUTO 22014KT 9999 BKN015 BKN021 13/11
                        Q1009 NOSIG=
201804241850 METAR COR EGLL 241850Z AUTO 22015KT 9999 BKN013 BKN024 13/11
                        Q1009 NOSIG=
201804241820 METAR COR EGLL 241820Z AUTO 23016KT 9999 BKN013 14/11 Q1009
                        NOSIG=
201804241750 METAR COR EGLL 241750Z AUTO 22016KT 9999 BKN013 14/11 Q1009
                        NOSIG=
201804241720 METAR COR EGLL 241720Z AUTO 22015G26KT 9999 BKN013 14/11
                        Q1010 NOSIG=
201804241650 METAR COR EGLL 241650Z AUTO 22016KT 9999 -RA OVC013 14/11
                        Q1010 NOSIG=
201804241620 METAR COR EGLL 241620Z AUTO 23016KT 9999 OVC013 14/11 Q1011
                        NOSIG=
201804241550 METAR COR EGLL 241550Z AUTO 22012KT 9999 BKN013 OVC018 14/11
                        Q1011 NOSIG=
201804241520 METAR COR EGLL 241520Z AUTO 21015KT 9999 BKN014 OVC019 14/11
                        Q1011 NOSIG=
201804241450 METAR COR EGLL 241450Z AUTO 23016KT 9999 BKN017 OVC031 15/11
                        Q1012 NOSIG=
201804241420 METAR COR EGLL 241420Z AUTO 22015KT 9999 BKN025 OVC032 16/10
                        Q1012 NOSIG=
201804241350 METAR COR EGLL 241350Z AUTO 21016KT 9999 OVC036 16/06 Q1012
                        NOSIG=
201804241320 METAR COR EGLL 241320Z AUTO 23014G25KT 190V250 9999 BKN043
                        16/04 Q1013 NOSIG=
201804241250 METAR COR EGLL 241250Z AUTO 21012KT 180V250 9999 NCD 17/09
                        Q1013 NOSIG=
201804241220 METAR COR EGLL 241220Z AUTO 23011KT 9999 NCD 16/08 Q1014
                        NOSIG=
201804241150 METAR COR EGLL 241150Z AUTO 21010KT 170V240 9999 NCD 15/08
                        Q1015 NOSIG=
201804241120 METAR COR EGLL 241120Z AUTO 22009KT 160V260 9999 NCD 15/08
                        Q1015 NOSIG=
201804241050 METAR COR EGLL 241050Z AUTO 23007KT 190V260 9999 NCD 14/08
                        Q1015 NOSIG=
201804241020 METAR COR EGLL 241020Z AUTO 24007KT 170V280 9999 NCD 14/08
                        Q1016 NOSIG=
201804240950 METAR COR EGLL 240950Z AUTO 23008KT 190V270 9999 NCD 13/08
                        Q1016 NOSIG=
201804240920 METAR COR EGLL 240920Z AUTO 25008KT 9999 NCD 13/08 Q1016
                        NOSIG=
201804240850 METAR COR EGLL 240850Z AUTO 27011KT 9999 NCD 13/09 Q1016
                        NOSIG=
201804240820 METAR COR EGLL 240820Z AUTO 26013KT 9999 NCD 13/09 Q1016
                        NOSIG=
201804240750 METAR COR EGLL 240750Z AUTO 24011KT 9999 SCT019 13/09 Q1016
                        NOSIG=
201804240720 METAR COR EGLL 240720Z AUTO 26012KT 9999 FEW018 12/09 Q1016
                        NOSIG=
201804240650 METAR COR EGLL 240650Z AUTO 26010KT 9999 NCD 12/09 Q1016
                        NOSIG=
201804240620 METAR COR EGLL 240620Z AUTO 25010KT 9999 NCD 12/09 Q1015
                        NOSIG=
201804240550 METAR COR EGLL 240550Z AUTO 23009KT 9999 NCD 12/09 Q1015
                        NOSIG=
201804240520 METAR COR EGLL 240520Z AUTO 24008KT 9999 NCD 11/09 Q1015
                        NOSIG=
201804240450 METAR COR EGLL 240450Z AUTO 25008KT 9999 SCT024 11/09 Q1015
                        NOSIG=
201804240420 METAR COR EGLL 240420Z AUTO 24007KT 9999 BKN024 11/09 Q1015
                        NOSIG=
201804240350 METAR COR EGLL 240350Z AUTO 24009KT 9999 SCT023 11/09 Q1015
                        NOSIG=
201804240320 METAR COR EGLL 240320Z AUTO 24009KT 9999 NCD 11/09 Q1015
                        NOSIG=
201804240250 METAR COR EGLL 240250Z AUTO 24010KT 9999 SCT025 12/09 Q1015
                        TEMPO BKN012=
201804240220 METAR COR EGLL 240220Z AUTO 24011KT 9999 BKN021 12/09 Q1015
                        TEMPO BKN012=
201804240150 METAR COR EGLL 240150Z AUTO 24010KT 9999 BKN017 BKN021 12/09
                        Q1015 TEMPO BKN012=
201804240120 METAR COR EGLL 240120Z AUTO 24010KT 210V270 9999 OVC017 12/09
                        Q1015 TEMPO BKN012=
201804240050 METAR COR EGLL 240050Z AUTO 23011KT 9999 OVC017 12/08 Q1015
                        TEMPO BKN012=
201804240020 METAR COR EGLL 240020Z AUTO 22011KT 9999 BKN019 12/08 Q1015
                        TEMPO BKN012=
201804232350 METAR COR EGLL 232350Z AUTO 22012KT 9999 OVC020 12/08 Q1015
                        TEMPO BKN012=
201804232320 METAR COR EGLL 232320Z AUTO 23010KT 9999 OVC023 12/08 Q1015
                        NOSIG=
201804232250 METAR COR EGLL 232250Z AUTO 23010KT 9999 BKN027 12/08 Q1016
                        NOSIG=
201804232220 METAR COR EGLL 232220Z AUTO 23010KT 9999 BKN029 12/07 Q1016
                        NOSIG=
201804232150 METAR COR EGLL 232150Z AUTO 24011KT 9999 NCD 12/07 Q1016
                        NOSIG=
201804232120 METAR COR EGLL 232120Z AUTO 23012KT 9999 NCD 12/07 Q1016
                        NOSIG=
201804232050 METAR COR EGLL 232050Z AUTO 23008KT 9999 NCD 12/07 Q1016
                        NOSIG=
201804232020 METAR COR EGLL 232020Z AUTO 24012KT 9999 NCD 13/07 Q1016
                        NOSIG=
201804231950 METAR COR EGLL 231950Z AUTO 24012KT 9999 NCD 13/08 Q1016
                        NOSIG=
201804231920 METAR COR EGLL 231920Z AUTO 23014KT 9999 NCD 13/08 Q1016
                        NOSIG=
201804231850 METAR COR EGLL 231850Z AUTO 24012KT 210V270 9999 NCD 14/08
                        Q1015 NOSIG=
201804231820 METAR COR EGLL 231820Z AUTO 25013KT 9999 NCD 14/07 Q1016
                        NOSIG=
201804231750 METAR COR EGLL 231750Z AUTO 24014KT 9999 NCD 14/07 Q1015
                        NOSIG=
201804231720 METAR COR EGLL 231720Z AUTO 24013KT 9999 NCD 15/07 Q1015
                        NOSIG=
201804231650 METAR COR EGLL 231650Z AUTO 24013KT 9999 NCD 15/07 Q1016
                        NOSIG=
201804231620 METAR COR EGLL 231620Z AUTO 24012KT 9999 NCD 15/06 Q1016
                        NOSIG=
201804231550 METAR COR EGLL 231550Z AUTO 25013KT 9999 FEW043 16/07 Q1016
                        NOSIG=
201804231520 METAR COR EGLL 231520Z AUTO 27016KT 9999 SCT041 15/07 Q1016
                        NOSIG=
201804231450 METAR COR EGLL 231450Z AUTO 24013KT 9999 SCT041 15/07 Q1016
                        NOSIG=
201804231420 METAR COR EGLL 231420Z AUTO 25015KT 9999 BKN041 15/07 Q1016
                        NOSIG=
201804231350 METAR COR EGLL 231350Z AUTO 24015KT 9999 SCT040 16/07 Q1017
                        NOSIG=
201804231320 METAR COR EGLL 231320Z AUTO 25014KT 9999 BKN037 15/07 Q1017
                        NOSIG=
201804231250 METAR COR EGLL 231250Z AUTO 26015KT 9999 BKN038 14/07 Q1017
                        NOSIG=
201804231220 METAR COR EGLL 231220Z AUTO 26013KT 9999 BKN037 14/06 Q1017
                        NOSIG=
201804231150 METAR COR EGLL 231150Z AUTO 26015KT 9999 BKN034 BKN040 14/07
                        Q1017 NOSIG=
201804231120 METAR COR EGLL 231120Z AUTO 25014KT 220V280 9999 BKN032 BKN042
                        14/07 Q1017 NOSIG=
201804231050 METAR COR EGLL 231050Z AUTO 26015KT 9999 BKN030 13/07 Q1017
                        NOSIG=
201804231020 METAR COR EGLL 231020Z AUTO 26013KT 9999 BKN031 13/07 Q1017
                        NOSIG=
201804230950 METAR COR EGLL 230950Z AUTO 26012KT 9999 BKN030 13/07 Q1017
                        NOSIG=
201804230920 METAR COR EGLL 230920Z AUTO 26012KT 9999 FEW024 BKN028 12/07
                        Q1017 NOSIG=
201804230850 METAR COR EGLL 230850Z AUTO 27011KT 9999 FEW025 BKN030 12/08
                        Q1017 NOSIG=
201804230820 METAR COR EGLL 230820Z AUTO 27012KT 9999 SCT021 12/08 Q1017
                        NOSIG=
201804230750 METAR COR EGLL 230750Z AUTO 26011KT 9999 FEW019 11/08 Q1016
                        NOSIG=
201804230720 METAR COR EGLL 230720Z AUTO 26011KT 9999 NCD 11/08 Q1016
                        NOSIG=
201804230650 METAR COR EGLL 230650Z AUTO 27010KT 9999 NCD 10/08 Q1016
                        NOSIG=
201804230620 METAR COR EGLL 230620Z AUTO 25008KT 9999 NCD 09/07 Q1016
                        NOSIG=
201804230550 METAR COR EGLL 230550Z AUTO 23007KT 9999 NCD 08/06 Q1016
                        NOSIG=
201804230520 METAR COR EGLL 230520Z AUTO 22007KT 180V240 9999 NCD 08/06
                        Q1015 NOSIG=
201804230450 METAR COR EGLL 230450Z AUTO 23006KT 9999 NCD 08/06 Q1015
                        NOSIG=
201804230420 METAR COR EGLL 230420Z AUTO 25008KT 9999 NCD 07/06 Q1015
                        NOSIG=
201804230350 METAR COR EGLL 230350Z AUTO 25008KT 9999 NCD 07/06 Q1014
                        NOSIG=
201804230320 METAR COR EGLL 230320Z AUTO 24008KT 9999 NCD 08/06 Q1014
                        NOSIG=
201804230250 METAR COR EGLL 230250Z AUTO 24007KT 9999 NCD 08/06 Q1014
                        NOSIG=
201804230220 METAR COR EGLL 230220Z AUTO 23007KT 9999 NCD 08/06 Q1014
                        NOSIG=
201804230150 METAR COR EGLL 230150Z AUTO 25008KT 9999 NCD 08/06 Q1014
                        NOSIG=
201804230120 METAR COR EGLL 230120Z AUTO 25008KT 9999 NCD 08/06 Q1014
                        NOSIG=
201804230050 METAR COR EGLL 230050Z AUTO 26011KT 9999 NCD 08/06 Q1014
                        NOSIG=
201804230020 METAR COR EGLL 230020Z AUTO 26013KT 9999 NCD 09/06 Q1014
                        NOSIG=
201804222350 METAR COR EGLL 222350Z AUTO 26010KT 9999 NCD 09/06 Q1014
                        NOSIG=
201804222320 METAR COR EGLL 222320Z AUTO 27011KT 9999 NCD 10/06 Q1014
                        NOSIG=
201804222250 METAR COR EGLL 222250Z AUTO 27013KT 9999 NCD 10/06 Q1013
                        NOSIG=
201804222220 METAR COR EGLL 222220Z AUTO 27011KT 9999 NCD 11/08 Q1013
                        NOSIG=
201804222150 METAR COR EGLL 222150Z AUTO 27013KT 9999 NCD 12/09 Q1012
                        NOSIG=
201804222120 METAR COR EGLL 222120Z AUTO 27010KT 9999 NCD 12/09 Q1012
                        NOSIG=
201804222050 METAR COR EGLL 222050Z AUTO 27014KT 9999 NCD 13/09 Q1012=
201804222020 METAR COR EGLL 222020Z AUTO 28011KT 9999 NCD 13/10 Q1011
                        NOSIG=
201804221950 METAR COR EGLL 221950Z AUTO 28010KT 9999 NCD 14/10 Q1011
                        NOSIG=
201804221920 METAR COR EGLL 221920Z AUTO 27012KT 9999 NCD 15/09 Q1011
                        NOSIG=
201804221850 METAR COR EGLL 221850Z AUTO 28011KT 9999 NCD 16/09 Q1010
                        NOSIG=
201804221820 METAR COR EGLL 221820Z AUTO 29012KT 9999 FEW041 16/08 Q1010
                        NOSIG=
201804221750 METAR COR EGLL 221750Z AUTO 28013KT 9999 SCT038 BKN045 18/09
                        Q1009 NOSIG=
201804221720 METAR COR EGLL 221720Z AUTO 27013KT 9999 NCD 18/09 Q1009
                        NOSIG=
201804221650 METAR COR EGLL 221650Z AUTO 28011KT 9999 FEW040 18/09 Q1009
                        NOSIG=
201804221620 METAR COR EGLL 221620Z AUTO 28012KT 9999 BKN043 19/11 Q1008
                        NOSIG=
201804221550 METAR COR EGLL 221550Z AUTO 27013KT 9999 NCD 20/11 Q1008
                        NOSIG=
201804221520 METAR COR EGLL 221520Z AUTO 27014KT 9999 NCD 20/11 Q1008
                        NOSIG=
201804221450 METAR COR EGLL 221450Z AUTO 25013KT 9999 NCD 21/11 Q1008
                        NOSIG=
201804221420 METAR COR EGLL 221420Z AUTO 25013KT 210V290 9999 FEW049 22/12
                        Q1008 NOSIG=
201804221350 METAR COR EGLL 221350Z AUTO 24012KT 9999 SCT049 22/12 Q1008
                        NOSIG=
201804221320 METAR COR EGLL 221320Z AUTO 22010KT 9999 NCD 23/12 Q1008
                        NOSIG=
201804221250 METAR COR EGLL 221250Z AUTO 24011KT 9999 NCD 22/12 Q1008
                        NOSIG=
201804221220 METAR COR EGLL 221220Z AUTO 24010KT 210V270 9999 NCD 22/11
                        Q1008 NOSIG=
201804221150 METAR COR EGLL 221150Z AUTO 22012KT 9999 NCD 22/11 Q1009
                        NOSIG=
201804221120 METAR COR EGLL 221120Z AUTO 21013KT 9999 NCD 21/12 Q1009
                        NOSIG=
201804221050 METAR COR EGLL 221050Z AUTO 23011KT 190V250 9999 NCD 21/13
                        Q1009 NOSIG=
201804221020 METAR COR EGLL 221020Z AUTO 23011KT 9999 NCD 20/13 Q1009
                        NOSIG=
201804220950 METAR COR EGLL 220950Z AUTO 22010KT 190V250 9999 NCD 20/13
                        Q1009 NOSIG=
201804220920 METAR COR EGLL 220920Z AUTO 23010KT 200V260 9999 NCD 19/14
                        Q1009 NOSIG=
201804220850 METAR COR EGLL 220850Z AUTO 23009KT 9999 NCD 19/14 Q1009
                        NOSIG=
201804220820 METAR COR EGLL 220820Z AUTO 22007KT 180V250 9999 NCD 17/14
                        Q1009 NOSIG=
201804220750 METAR COR EGLL 220750Z AUTO 22009KT 9999 NCD 16/13 Q1009
                        NOSIG=
201804220720 METAR COR EGLL 220720Z AUTO 19005KT 160V240 9000 NCD 15/13
                        Q1010 NOSIG=
201804220650 METAR COR EGLL 220650Z AUTO 18006KT 140V230 6000 NCD 15/13
                        Q1010 NOSIG=
201804220620 METAR COR EGLL 220620Z AUTO VRB05KT 5000 HZ NCD 15/13 Q1010
                        NOSIG=
201804220550 METAR COR EGLL 220550Z AUTO 15005KT 110V190 2600 BR NCD 14/13
                        Q1010 BECMG 5000=
201804220520 METAR COR EGLL 220520Z AUTO 13006KT 080V190 2200 BR NCD 14/13
                        Q1010 BECMG 5000=
201804220450 METAR COR EGLL 220450Z 10004KT 3000 HZ NSC 13/12 Q1010 TEMPO
                        5000=
201804220420 METAR COR EGLL 220420Z AUTO 11005KT 3100 BR NCD 14/13 Q1010
                        TEMPO 5000=
201804220350 METAR COR EGLL 220350Z 10003KT 6000 FEW045 13/12 Q1011 NOSIG=
201804220320 METAR COR EGLL 220320Z VRB01KT 9999 NSC 14/13 Q1012 NOSIG=
201804220250 METAR COR EGLL 220250Z VRB05KT 9999 FEW009 SCT045CB 14/13
                        Q1013 NOSIG=
201804220220 METAR COR EGLL 220220Z 12006KT 9999 VCTS SCT040CB 14/13 Q1012
                        TEMPO SHRA=
201804220150 METAR COR EGLL 220150Z AUTO 07003KT 6000 //////CB 14/13 Q1013
                        NOSIG=
201804220120 METAR COR EGLL 220120Z AUTO VRB03KT 9999 NCD 14/13 Q1013
                        NOSIG=
201804220050 METAR COR EGLL 220050Z AUTO 05005KT 9999 NCD 14/14 Q1013
                        NOSIG=
201804220020 METAR COR EGLL 220020Z VRB02KT 9999 -SHRA FEW045CB 15/14
                        Q1014 NOSIG=
201804212350 METAR COR EGLL 212350Z AUTO 03002KT 9000 -RA FEW037/// //////CB
                        14/14 Q1016 TEMPO 4000 SHRA=
201804212320 METAR COR EGLL 212320Z 24010KT 4300 -SHRA SCT017 BKN025 BKN045CB
                        15/14 Q1016 RESHRA TEMPO 7000 SHRA=
201804212250 METAR COR EGLL 212250Z 26016KT 9999 -SHRA VCTS FEW031 SCT045CB
                        17/13 Q1015 TEMPO SHRA=
201804212220 METAR COR EGLL 212220Z 21013KT 9999 -SHRA VCTS SCT047CB 18/12
                        Q1015 TEMPO SHRA=
201804212150 METAR COR EGLL 212150Z 12005KT 050V160 9999 -RA SCT045TCU
                        18/12 Q1014 NOSIG=
201804212120 METAR COR EGLL 212120Z 14007KT 110V170 9999 -SHRA SCT045TCU
                        18/13 Q1015 TEMPO SHRA=
201804212050 METAR COR EGLL 212050Z 19008KT 9999 -SHRA SCT046CB 18/13
                        Q1016 TEMPO SHRA=
201804212020 METAR COR EGLL 212020Z 20011KT 9999 FEW025 SCT046CB 19/13
                        Q1016 TEMPO SHRA=
201804211950 METAR COR EGLL 211950Z 12009KT 9999 SCT040CB 20/13 Q1015
                        TEMPO 7000 SHRA=
201804211920 METAR COR EGLL 211920Z AUTO 11009KT 9999 NCD 19/13 Q1015
                        TEMPO SHRA=
201804211850 METAR COR EGLL 211850Z AUTO 10010KT 9999 NCD 20/13 Q1015
                        TEMPO SHRA=
201804211820 METAR COR EGLL 211820Z AUTO 10006KT 9999 -RA NCD 20/13 Q1016
                        TEMPO SHRA=
201804211750 METAR COR EGLL 211750Z AUTO 10008KT 9999 NCD 21/13 Q1016
                        TEMPO SHRA=
201804211720 METAR COR EGLL 211720Z AUTO 09006KT 9999 NCD 20/14 Q1016
                        TEMPO SHRA=
201804211650 METAR COR EGLL 211650Z AUTO 09008KT 9999 NCD 22/14 Q1016
                        NOSIG=
201804211620 METAR COR EGLL 211620Z AUTO 09003KT 9999 NCD 22/15 Q1017
                        NOSIG=
201804211550 METAR COR EGLL 211550Z AUTO 10004KT 9999 NCD 20/14 Q1018
                        NOSIG=
201804211520 METAR COR EGLL 211520Z AUTO VRB02KT 9999 -RA NCD 21/12 Q1018
                        NOSIG=
201804211450 METAR COR EGLL 211450Z AUTO 16002KT 9999 NCD 22/11 Q1018
                        NOSIG=
201804211420 METAR COR EGLL 211420Z AUTO 23002KT 9999 -RA NCD 21/12 Q1019
                        NOSIG=
201804211350 METAR COR EGLL 211350Z AUTO 22008KT 9999 NCD 22/12 Q1019
                        NOSIG=
201804211320 METAR COR EGLL 211320Z AUTO 20005KT 150V230 9999 NCD 23/12
                        Q1019 NOSIG=
201804211250 METAR COR EGLL 211250Z AUTO 20004KT 140V240 9999 NCD 22/12
                        Q1020 NOSIG=
201804211220 METAR COR EGLL 211220Z AUTO 17007KT 140V220 9999 NCD 23/12
                        Q1020 NOSIG=
201804211150 METAR COR EGLL 211150Z AUTO 14007KT 110V170 9999 NCD 23/11
                        Q1020 NOSIG=
201804211120 METAR COR EGLL 211120Z AUTO 18006KT 130V220 9999 NCD 22/11
                        Q1020 NOSIG=
201804211050 METAR COR EGLL 211050Z AUTO 15005KT 100V210 9999 NCD 22/11
                        Q1021 NOSIG=
201804211020 METAR COR EGLL 211020Z AUTO 13004KT 080V190 9999 NCD 21/12
                        Q1021 NOSIG=
201804210950 METAR COR EGLL 210950Z AUTO 12005KT 080V160 9999 NCD 20/12
                        Q1021 NOSIG=
201804210920 METAR COR EGLL 210920Z AUTO 13005KT 090V160 9000 NCD 18/11
                        Q1022 NOSIG=
201804210850 METAR COR EGLL 210850Z AUTO 10006KT 070V130 9000 NCD 17/11
                        Q1022 NOSIG=
201804210820 METAR COR EGLL 210820Z AUTO 10006KT 9999 NCD 16/11 Q1022
                        NOSIG=
201804210750 METAR COR EGLL 210750Z AUTO 10006KT 9000 NCD 15/11 Q1022
                        NOSIG=
201804210720 METAR COR EGLL 210720Z AUTO 10006KT 8000 NCD 14/10 Q1022
                        NOSIG=
201804210650 METAR COR EGLL 210650Z AUTO 09007KT 7000 NCD 13/10 Q1022
                        NOSIG=
201804210620 METAR COR EGLL 210620Z AUTO 09006KT 6000 NCD 12/10 Q1022
                        NOSIG=
201804210550 METAR COR EGLL 210550Z AUTO 08003KT 5000 HZ NCD 12/09 Q1022
                        NOSIG=
201804210520 METAR COR EGLL 210520Z AUTO 07004KT 5000 HZ NCD 12/09 Q1022
                        NOSIG=
201804210450 METAR COR EGLL 210450Z AUTO 07004KT 5000 HZ NCD 12/09 Q1022
                        NOSIG=
201804210420 METAR COR EGLL 210420Z AUTO 06005KT 6000 NCD 12/09 Q1022
                        NOSIG=
201804210350 METAR COR EGLL 210350Z AUTO 06006KT 7000 NCD 12/09 Q1022
                        NOSIG=
201804210320 METAR COR EGLL 210320Z AUTO 06005KT 7000 NCD 13/09 Q1022
                        NOSIG=
201804210250 METAR COR EGLL 210250Z AUTO 04005KT 8000 NCD 13/10 Q1022
                        NOSIG=
201804210220 METAR COR EGLL 210220Z AUTO 04003KT 9000 NCD 13/10 Q1022
                        NOSIG=
201804210150 METAR COR EGLL 210150Z AUTO 07003KT 8000 NCD 14/10 Q1023
                        NOSIG=
201804210120 METAR COR EGLL 210120Z AUTO 06004KT 8000 NCD 14/10 Q1023
                        NOSIG=
201804210050 METAR COR EGLL 210050Z AUTO 09006KT 8000 NCD 13/10 Q1023
                        NOSIG=
201804210020 METAR COR EGLL 210020Z AUTO 09007KT 9000 NCD 13/10 Q1023
                        NOSIG=
201804202350 METAR COR EGLL 202350Z AUTO 09005KT 8000 NCD 13/10 Q1023
                        NOSIG=
201804202320 METAR COR EGLL 202320Z AUTO 09007KT 6000 NCD 14/11 Q1023
                        NOSIG=
201804202250 METAR COR EGLL 202250Z AUTO 09006KT 6000 NCD 15/11 Q1023
                        NOSIG=
201804202220 METAR COR EGLL 202220Z 10007KT CAVOK 16/12 Q1023 NOSIG=
201804202150 METAR COR EGLL 202150Z AUTO 04004KT 9999 NCD 18/10 Q1023
                        NOSIG=
201804202120 METAR COR EGLL 202120Z AUTO 05004KT 9999 NCD 18/11 Q1023
                        NOSIG=
201804202050 METAR COR EGLL 202050Z AUTO 05004KT 010V080 9999 NCD 19/11
                        Q1023 NOSIG=
201804202020 METAR COR EGLL 202020Z AUTO 01005KT 340V050 9999 NCD 19/11
                        Q1023 NOSIG=
201804201950 METAR COR EGLL 201950Z AUTO 36004KT 9999 NCD 20/11 Q1023
                        NOSIG=
201804201920 METAR COR EGLL 201920Z AUTO 35005KT 320V030 9999 NCD 21/11
                        Q1023 NOSIG=
201804201850 METAR COR EGLL 201850Z AUTO 35005KT 320V020 9999 NCD 22/10
                        Q1022 NOSIG=
201804201820 METAR COR EGLL 201820Z AUTO VRB03KT 9999 NCD 23/10 Q1022
                        NOSIG=
201804201750 METAR COR EGLL 201750Z AUTO 33004KT 280V010 9999 NCD 24/09
                        Q1022 NOSIG=
201804201720 METAR COR EGLL 201720Z AUTO 31005KT 270V040 9999 NCD 23/12
                        Q1022 NOSIG=
201804201650 METAR COR EGLL 201650Z AUTO 30006KT 270V340 9999 NCD 24/12
                        Q1022 NOSIG=
201804201620 METAR COR EGLL 201620Z AUTO 29005KT 210V330 9999 NCD 24/12
                        Q1022 NOSIG=
201804201550 METAR COR EGLL 201550Z AUTO 27006KT 220V310 9999 NCD 25/12
                        Q1022 NOSIG=
201804201520 METAR COR EGLL 201520Z AUTO 31005KT 240V040 9999 NCD 25/10
                        Q1022 NOSIG=
201804201450 METAR COR EGLL 201450Z AUTO 33004KT 270V020 9999 NCD 25/11
                        Q1023 NOSIG=
201804201420 METAR COR EGLL 201420Z AUTO 29006KT 240V360 9999 NCD 24/11
                        Q1023 NOSIG=
201804201350 METAR COR EGLL 201350Z AUTO 26006KT 210V320 9999 NCD 24/12
                        Q1023 NOSIG=
201804201320 METAR COR EGLL 201320Z AUTO 27007KT 220V300 9999 NCD 24/11
                        Q1023 NOSIG=
201804201250 METAR COR EGLL 201250Z AUTO 29004KT 240V350 9999 NCD 24/12
                        Q1023 NOSIG=
201804201220 METAR COR EGLL 201220Z AUTO 28005KT 210V010 9999 NCD 24/12
                        Q1023 NOSIG=
201804201150 METAR COR EGLL 201150Z AUTO 25008KT 220V310 9999 NCD 23/13
                        Q1023 NOSIG=
201804201120 METAR COR EGLL 201120Z AUTO 28005KT 240V330 9999 NCD 22/14
                        Q1024 NOSIG=
201804201050 METAR COR EGLL 201050Z AUTO VRB03KT 9999 NCD 22/14 Q1024
                        NOSIG=
201804201020 METAR COR EGLL 201020Z AUTO VRB03KT 9999 NCD 22/14 Q1024
                        NOSIG=
201804200950 METAR COR EGLL 200950Z AUTO 24004KT 190V310 9999 NCD 20/14
                        Q1024 NOSIG=
201804200920 METAR COR EGLL 200920Z AUTO 23004KT 190V260 9999 NCD 20/13
                        Q1024 NOSIG=
201804200850 METAR COR EGLL 200850Z AUTO VRB03KT 9999 NCD 19/13 Q1024
                        NOSIG=
201804200820 METAR COR EGLL 200820Z AUTO VRB02KT 9999 NCD 17/13 Q1023
                        NOSIG=
201804200750 METAR COR EGLL 200750Z AUTO VRB03KT 9999 NCD 16/12 Q1023
                        NOSIG=
201804200720 METAR COR EGLL 200720Z AUTO 30004KT 270V360 9999 NCD 15/12
                        Q1023 NOSIG=
201804200650 METAR COR EGLL 200650Z AUTO 26004KT 220V280 9999 NCD 14/11
                        Q1023 NOSIG=
201804200620 METAR COR EGLL 200620Z AUTO 27005KT 9999 NCD 13/11 Q1023
                        NOSIG=
201804200550 METAR COR EGLL 200550Z AUTO 30005KT 9999 NCD 13/11 Q1023
                        NOSIG=
201804200520 METAR COR EGLL 200520Z AUTO 29004KT 9999 NCD 12/10 Q1023
                        NOSIG=
201804200450 METAR COR EGLL 200450Z AUTO 27007KT 9999 NCD 10/09 Q1023
                        NOSIG=
201804200420 METAR COR EGLL 200420Z AUTO 28003KT 9999 NCD 12/10 Q1022
                        NOSIG=
201804200350 METAR COR EGLL 200350Z AUTO 21001KT 9999 NCD 13/10 Q1022
                        NOSIG=
201804200320 METAR COR EGLL 200320Z AUTO 21001KT 9999 NCD 13/10 Q1022
                        NOSIG=
201804200250 METAR COR EGLL 200250Z AUTO 21004KT 9999 NCD 13/10 Q1022
                        NOSIG=
201804200220 METAR COR EGLL 200220Z AUTO 24003KT 9999 NCD 13/10 Q1022
                        NOSIG=
201804200150 METAR COR EGLL 200150Z AUTO VRB01KT 9999 NCD 14/11 Q1022
                        NOSIG=
201804200120 METAR COR EGLL 200120Z AUTO 19004KT 9999 NCD 13/10 Q1022
                        NOSIG=
201804200050 METAR COR EGLL 200050Z AUTO 27002KT 9999 NCD 15/11 Q1023
                        NOSIG=
201804200020 METAR COR EGLL 200020Z AUTO 27002KT 9999 NCD 15/11 Q1023
                        NOSIG=
201804192350 METAR COR EGLL 192350Z AUTO 25003KT 9999 NCD 16/10 Q1023
                        NOSIG=
201804192320 METAR COR EGLL 192320Z AUTO 23002KT 9999 NCD 16/10 Q1023
                        NOSIG=
201804192250 METAR COR EGLL 192250Z AUTO 23003KT 9999 NCD 16/10 Q1023
                        NOSIG=
201804192220 METAR COR EGLL 192220Z AUTO 22005KT 9999 NCD 18/10 Q1023
                        NOSIG=
201804192150 METAR COR EGLL 192150Z AUTO 23008KT 190V250 9999 NCD 19/10
                        Q1023 NOSIG=
201804192120 METAR COR EGLL 192120Z AUTO 21008KT 180V250 9999 NCD 20/10
                        Q1023 NOSIG=
201804192050 METAR COR EGLL 192050Z AUTO 21008KT 170V250 9999 NCD 20/10
                        Q1023 NOSIG=
201804192020 METAR COR EGLL 192020Z AUTO 21007KT 9999 NCD 22/08 Q1023
                        NOSIG=
201804191950 METAR COR EGLL 191950Z AUTO 19007KT 150V240 9999 NCD 21/08
                        Q1023 NOSIG=
201804191920 METAR COR EGLL 191920Z AUTO 23008KT 9999 NCD 21/08 Q1022
                        NOSIG=
201804191850 METAR COR EGLL 191850Z AUTO 23009KT 9999 NCD 23/08 Q1022
                        NOSIG=
201804191820 METAR COR EGLL 191820Z AUTO 21009KT 180V250 9999 NCD 24/09
                        Q1022 NOSIG=
201804191750 METAR COR EGLL 191750Z AUTO 23009KT 9999 NCD 26/09 Q1022
                        NOSIG=
201804191720 METAR COR EGLL 191720Z AUTO 26006KT 220V300 9999 NCD 25/10
                        Q1022 NOSIG=
201804191650 METAR COR EGLL 191650Z AUTO VRB03KT 9999 NCD 27/08 Q1022
                        NOSIG=
201804191620 METAR COR EGLL 191620Z AUTO 22007KT 160V250 9999 NCD 27/08
                        Q1022 NOSIG=
201804191550 METAR COR EGLL 191550Z AUTO VRB04KT 9999 NCD 27/07 Q1022
                        NOSIG=
201804191520 METAR COR EGLL 191520Z AUTO VRB03KT 9999 NCD 28/08 Q1022
                        NOSIG=
201804191450 METAR COR EGLL 191450Z AUTO 20007KT 150V260 9999 NCD 28/07
                        Q1022 NOSIG=
201804191420 METAR COR EGLL 191420Z AUTO 21005KT 140V310 9999 NCD 28/07
                        Q1022 NOSIG=
201804191350 METAR COR EGLL 191350Z AUTO 20005KT 130V260 9999 NCD 27/06
                        Q1022 NOSIG=
201804191320 METAR COR EGLL 191320Z AUTO 19006KT 150V220 9999 NCD 27/08
                        Q1023 NOSIG=
201804191250 METAR COR EGLL 191250Z AUTO 23006KT 160V250 9999 NCD 27/09
                        Q1023 NOSIG=
201804191220 METAR COR EGLL 191220Z AUTO 20006KT 140V230 9999 NCD 27/09
                        Q1023 NOSIG=
201804191150 METAR COR EGLL 191150Z AUTO 16004KT 090V240 9999 NCD 26/10
                        Q1023 NOSIG=
201804191120 METAR COR EGLL 191120Z AUTO 15005KT 100V210 9999 NCD 26/11
                        Q1023 NOSIG=
201804191050 METAR COR EGLL 191050Z AUTO VRB03KT 9999 NCD 25/11 Q1023
                        NOSIG=
201804191020 METAR COR EGLL 191020Z AUTO VRB03KT 9999 NCD 25/11 Q1024
                        NOSIG=
201804190950 METAR COR EGLL 190950Z AUTO VRB03KT 9999 NCD 24/11 Q1024
                        NOSIG=
201804190920 METAR COR EGLL 190920Z AUTO VRB02KT 9999 NCD 22/10 Q1024
                        NOSIG=
201804190850 METAR COR EGLL 190850Z AUTO VRB02KT 9999 NCD 21/11 Q1024
                        NOSIG=
201804190820 METAR COR EGLL 190820Z AUTO VRB03KT 9999 NCD 19/12 Q1024
                        NOSIG=
201804190750 METAR COR EGLL 190750Z AUTO VRB02KT 9000 NCD 18/11 Q1024
                        NOSIG=
201804190720 METAR COR EGLL 190720Z AUTO VRB02KT 8000 NCD 16/10 Q1024
                        NOSIG=
201804190650 METAR COR EGLL 190650Z AUTO VRB01KT 8000 NCD 14/10 Q1024
                        NOSIG=
201804190620 METAR COR EGLL 190620Z AUTO VRB03KT 8000 NCD 13/09 Q1024
                        NOSIG=
201804190550 METAR COR EGLL 190550Z AUTO VRB01KT 8000 NCD 12/09 Q1023
                        NOSIG=
201804190520 METAR COR EGLL 190520Z AUTO VRB02KT 8000 NCD 12/09 Q1023
                        NOSIG=
201804190450 METAR COR EGLL 190450Z AUTO 06003KT 8000 NCD 12/09 Q1023
                        NOSIG=
201804190420 METAR COR EGLL 190420Z AUTO 06004KT 9000 NCD 12/09 Q1023
                        NOSIG=
201804190350 METAR COR EGLL 190350Z AUTO 07003KT 9000 NCD 13/09 Q1023
                        NOSIG=
201804190320 METAR COR EGLL 190320Z AUTO 06003KT 9999 NCD 13/09 Q1024
                        NOSIG=
201804190250 METAR COR EGLL 190250Z AUTO 07003KT 9999 NCD 12/09 Q1024
                        NOSIG=
201804190220 METAR COR EGLL 190220Z AUTO 05004KT 010V070 9999 NCD 13/09
                        Q1024 NOSIG=
201804190150 METAR COR EGLL 190150Z AUTO 06004KT 9999 NCD 13/10 Q1024
                        NOSIG=
201804190120 METAR COR EGLL 190120Z AUTO 05003KT 9999 NCD 13/09 Q1024
                        NOSIG=
201804190050 METAR COR EGLL 190050Z AUTO 04004KT 9999 NCD 14/10 Q1024
                        NOSIG=
201804190020 METAR COR EGLL 190020Z AUTO 04004KT 9999 NCD 14/10 Q1024
                        NOSIG=
201804182350 METAR COR EGLL 182350Z AUTO 04004KT 9999 NCD 15/10 Q1025
                        NOSIG=
201804182320 METAR COR EGLL 182320Z AUTO 07004KT 9999 NCD 15/10 Q1025
                        NOSIG=
201804182250 METAR COR EGLL 182250Z AUTO 09004KT 9999 NCD 16/10 Q1025
                        NOSIG=
201804182220 METAR COR EGLL 182220Z AUTO 09006KT 9999 NCD 16/10 Q1024
                        NOSIG=
201804182150 METAR COR EGLL 182150Z AUTO 08007KT 9999 NCD 16/10 Q1024
                        NOSIG=
201804182120 METAR COR EGLL 182120Z AUTO 09008KT 9999 NCD 16/11 Q1025
                        NOSIG=
201804182050 METAR COR EGLL 182050Z AUTO 09008KT 9999 NCD 18/10 Q1025
                        NOSIG=
201804182020 METAR COR EGLL 182020Z AUTO 11008KT 9999 NCD 20/09 Q1025
                        NOSIG=
201804181950 METAR COR EGLL 181950Z AUTO 11009KT 9999 NCD 20/09 Q1025
                        NOSIG=
201804181920 METAR COR EGLL 181920Z AUTO 13009KT 9999 NCD 21/08 Q1025
                        NOSIG=
201804181850 METAR COR EGLL 181850Z AUTO 14010KT 9999 NCD 21/07 Q1025
                        NOSIG=
201804181820 METAR COR EGLL 181820Z AUTO 14012KT 9999 NCD 22/08 Q1025
                        NOSIG=
201804181750 METAR COR EGLL 181750Z AUTO 13011KT 9999 NCD 23/06 Q1025
                        NOSIG=
201804181720 METAR COR EGLL 181720Z AUTO 14011KT 9999 NCD 23/06 Q1025
                        NOSIG=
201804181650 METAR COR EGLL 181650Z AUTO 14012KT 9999 NCD 23/05 Q1025
                        NOSIG=
201804181620 METAR COR EGLL 181620Z AUTO 13012KT 9999 NCD 24/06 Q1025
                        NOSIG=
201804181550 METAR COR EGLL 181550Z AUTO 14011KT 9999 NCD 24/06 Q1025
                        NOSIG=
201804181520 METAR COR EGLL 181520Z AUTO 16011KT 110V180 9999 NCD 24/07
                        Q1026 NOSIG=
201804181450 METAR COR EGLL 181450Z AUTO 16013KT 9999 NCD 24/06 Q1026
                        NOSIG=
201804181420 METAR COR EGLL 181420Z AUTO 15012KT 9999 NCD 24/07 Q1026
                        NOSIG=
201804181350 METAR COR EGLL 181350Z AUTO 17011KT 9999 NCD 24/09 Q1026
                        NOSIG=
201804181320 METAR COR EGLL 181320Z AUTO 14012KT 9999 NCD 24/10 Q1026
                        NOSIG=
201804181250 METAR COR EGLL 181250Z AUTO 15008KT 120V190 9999 NCD 23/11
                        Q1027 NOSIG=
201804181220 METAR COR EGLL 181220Z AUTO 15008KT 9999 NCD 22/13 Q1027
                        NOSIG=
201804181150 METAR COR EGLL 181150Z AUTO 15008KT 120V190 9999 NCD 22/13
                        Q1027 NOSIG=
201804181120 METAR COR EGLL 181120Z AUTO 21008KT 160V250 9999 NCD 21/12
                        Q1028 NOSIG=
201804181050 METAR COR EGLL 181050Z AUTO 20008KT 160V250 9999 NCD 21/13
                        Q1028 NOSIG=
201804181020 METAR COR EGLL 181020Z AUTO 20005KT 130V260 9999 NCD 20/13
                        Q1028 NOSIG=
201804180950 METAR COR EGLL 180950Z AUTO 17006KT 120V230 9999 FEW035 19/12
                        Q1028 NOSIG=
201804180920 METAR COR EGLL 180920Z AUTO 18006KT 140V220 9999 FEW034 18/12
                        Q1028 NOSIG=
201804180850 METAR COR EGLL 180850Z AUTO 18006KT 150V220 9999 FEW036 17/12
                        Q1028 NOSIG=
201804180820 METAR COR EGLL 180820Z AUTO 20006KT 160V240 9999 NCD 16/12
                        Q1028 NOSIG=
201804180750 METAR COR EGLL 180750Z AUTO 15005KT 110V190 9999 NCD 15/11
                        Q1028 NOSIG=
201804180720 METAR COR EGLL 180720Z AUTO 16006KT 100V190 9999 NCD 14/11
                        Q1028 NOSIG=
201804180650 METAR COR EGLL 180650Z AUTO 16005KT 120V260 9999 NCD 13/10
                        Q1028 NOSIG=
201804180620 METAR COR EGLL 180620Z AUTO 15005KT 090V190 9999 NCD 12/10
                        Q1027 NOSIG=
201804180550 METAR COR EGLL 180550Z AUTO 18004KT 090V230 9999 FEW018 11/09
                        Q1027 NOSIG=
201804180520 METAR COR EGLL 180520Z AUTO 19004KT 150V250 9999 SCT021 11/10
                        Q1027 NOSIG=
201804180450 METAR COR EGLL 180450Z AUTO 17003KT 9999 NCD 11/09 Q1026
                        NOSIG=
201804180420 METAR COR EGLL 180420Z AUTO VRB02KT 9999 NCD 11/09 Q1026
                        NOSIG=
201804180350 METAR COR EGLL 180350Z AUTO 16002KT 9999 SCT039 12/09 Q1026
                        NOSIG=
201804180320 METAR COR EGLL 180320Z AUTO VRB03KT 9999 NCD 11/09 Q1026
                        NOSIG=
201804180250 METAR COR EGLL 180250Z AUTO 14004KT 9999 NCD 12/09 Q1026
                        NOSIG=
201804180220 METAR COR EGLL 180220Z AUTO 16003KT 9999 NCD 12/09 Q1025
                        NOSIG=
201804180150 METAR COR EGLL 180150Z AUTO VRB03KT 9999 NCD 12/09 Q1025
                        NOSIG=
201804180120 METAR COR EGLL 180120Z AUTO VRB03KT 9999 NCD 12/09 Q1025
                        NOSIG=
201804180050 METAR COR EGLL 180050Z AUTO VRB03KT 9999 NCD 13/09 Q1025
                        NOSIG=
201804180020 METAR COR EGLL 180020Z AUTO 19002KT 9999 NCD 12/09 Q1025
                        NOSIG=
201804172350 METAR COR EGLL 172350Z AUTO 21006KT 9999 NCD 13/09 Q1025
                        NOSIG=
201804172320 METAR COR EGLL 172320Z AUTO 21007KT 9999 NCD 13/10 Q1025
                        NOSIG=
201804172250 METAR COR EGLL 172250Z AUTO 22005KT 9999 NCD 14/10 Q1024
                        NOSIG=
201804172220 METAR COR EGLL 172220Z AUTO 20007KT 150V240 9999 NCD 14/10
                        Q1024 NOSIG=
201804172150 METAR COR EGLL 172150Z AUTO 21009KT 170V250 9999 NCD 15/10
                        Q1024 NOSIG=
201804172120 METAR COR EGLL 172120Z AUTO 20009KT 150V250 9999 BKN044 16/10
                        Q1024 NOSIG=
201804172050 METAR COR EGLL 172050Z AUTO 20009KT 9999 OVC045 16/10 Q1024
                        NOSIG=
201804172020 METAR COR EGLL 172020Z AUTO 21009KT 190V250 9999 SCT032 OVC047
                        15/11 Q1023 NOSIG=
201804171950 METAR COR EGLL 171950Z AUTO 22011KT 9999 BKN029 16/10 Q1023
                        NOSIG=
201804171920 METAR COR EGLL 171920Z AUTO 21014KT 9999 BKN035 16/10 Q1023
                        NOSIG=
201804171850 METAR COR EGLL 171850Z AUTO 22014KT 9999 BKN034 16/10 Q1022
                        NOSIG=
201804171820 METAR COR EGLL 171820Z AUTO 20011KT 180V250 9999 BKN035 17/10
                        Q1022 NOSIG=
201804171750 METAR COR EGLL 171750Z AUTO 20012G22KT 170V240 9999 BKN036
                        17/10 Q1022 NOSIG=
201804171720 METAR COR EGLL 171720Z AUTO 21012KT 170V240 9999 BKN035 OVC042
                        17/10 Q1021 NOSIG=
201804171650 METAR COR EGLL 171650Z AUTO 20015KT 9999 BKN036 OVC043 17/10
                        Q1021 NOSIG=
201804171620 METAR COR EGLL 171620Z AUTO 20015G28KT 9999 SCT035 OVC046
                        17/10 Q1021 NOSIG=
201804171550 METAR COR EGLL 171550Z AUTO 21016KT 9999 BKN035 OVC044 17/10
                        Q1021 NOSIG=
201804171520 METAR COR EGLL 171520Z AUTO 21016KT 180V240 9999 SCT034 OVC048
                        17/10 Q1021 NOSIG=
201804171450 METAR COR EGLL 171450Z AUTO 21018KT 9999 SCT036 BKN045 17/09
                        Q1021 NOSIG=
201804171420 METAR COR EGLL 171420Z AUTO 20017KT 9999 FEW039 BKN046 18/09
                        Q1020 NOSIG=
201804171350 METAR COR EGLL 171350Z AUTO 21019KT 9999 BKN036 BKN046 19/09
                        Q1020 NOSIG=
201804171320 METAR COR EGLL 171320Z AUTO 21019G29KT 9999 FEW038 18/08
                        Q1020 NOSIG=
201804171250 METAR COR EGLL 171250Z 21017KT 9999 FEW040 18/08 Q1020 NOSIG=
201804171220 METAR COR EGLL 171220Z AUTO 21016G28KT 9999 OVC043 18/08
                        Q1020 NOSIG=
201804171150 METAR COR EGLL 171150Z AUTO 20017KT 9999 BKN049 18/08 Q1019
                        NOSIG=
201804171120 METAR COR EGLL 171120Z AUTO 20016KT 9999 NCD 17/08 Q1019
                        NOSIG=
201804171050 METAR COR EGLL 171050Z AUTO 20014G25KT 9999 OVC045 17/06
                        Q1019 NOSIG=
201804171020 METAR COR EGLL 171020Z AUTO 20015KT 9999 NCD 16/05 Q1019
                        NOSIG=
201804170950 METAR COR EGLL 170950Z AUTO 19014KT 9999 NCD 16/05 Q1019
                        NOSIG=
201804170920 METAR COR EGLL 170920Z AUTO 19015KT 9999 NCD 15/05 Q1019
                        NOSIG=
201804170850 METAR COR EGLL 170850Z AUTO 19013G23KT 9999 NCD 14/05 Q1019
                        NOSIG=
201804170820 METAR COR EGLL 170820Z AUTO 19014KT 9999 NCD 13/05 Q1019
                        NOSIG=
201804170750 METAR COR EGLL 170750Z AUTO 19012G25KT 170V230 9999 NCD 13/05
                        Q1019 NOSIG=
201804170720 METAR COR EGLL 170720Z AUTO 18010KT 9999 NCD 12/06 Q1018
                        NOSIG=
201804170650 METAR COR EGLL 170650Z AUTO 19010KT 9999 NCD 11/06 Q1018
                        NOSIG=
201804170620 METAR COR EGLL 170620Z AUTO 19012KT 9999 NCD 11/05 Q1018
                        NOSIG=
201804170550 METAR COR EGLL 170550Z AUTO 18010KT 160V220 9999 NCD 11/05
                        Q1017 NOSIG=
201804170520 METAR COR EGLL 170520Z AUTO 19009G19KT 160V240 9999 NCD 11/05
                        Q1017 NOSIG=
201804170450 METAR COR EGLL 170450Z AUTO 18006KT 9999 NCD 10/05 Q1017
                        NOSIG=
201804170420 METAR COR EGLL 170420Z AUTO 19006KT 9999 NCD 11/05 Q1017
                        NOSIG=
201804170350 METAR COR EGLL 170350Z AUTO 18008KT 9999 NCD 11/05 Q1017
                        NOSIG=
201804170320 METAR COR EGLL 170320Z AUTO 17008KT 9999 NCD 11/06 Q1017
                        NOSIG=
201804170250 METAR COR EGLL 170250Z AUTO 16007KT 9999 NCD 10/06 Q1017
                        NOSIG=
201804170220 METAR COR EGLL 170220Z AUTO 19006KT 9999 NCD 11/06 Q1017
                        NOSIG=
201804170150 METAR COR EGLL 170150Z AUTO 18007KT 9999 NCD 11/06 Q1017
                        NOSIG=
201804170120 METAR COR EGLL 170120Z AUTO 16008KT 9999 NCD 10/06 Q1017
                        NOSIG=
201804170050 METAR COR EGLL 170050Z AUTO 17009KT 9999 NCD 10/05 Q1017
                        NOSIG=
201804170020 METAR COR EGLL 170020Z AUTO 17010KT 9999 NCD 10/05 Q1017
                        NOSIG=
201804162350 METAR COR EGLL 162350Z AUTO 16011KT 9999 NCD 10/05 Q1017
                        NOSIG=
201804162320 METAR COR EGLL 162320Z AUTO 16008KT 9999 NCD 10/05 Q1017
                        NOSIG=
201804162250 METAR COR EGLL 162250Z AUTO 17008KT 9999 NCD 10/05 Q1017
                        NOSIG=
201804162220 METAR COR EGLL 162220Z AUTO 17007KT 150V220 9999 NCD 10/05
                        Q1017 NOSIG=
201804162150 METAR COR EGLL 162150Z AUTO 18008KT 130V240 9999 NCD 10/04
                        Q1017 NOSIG=
201804162120 METAR COR EGLL 162120Z AUTO 17008KT 130V270 9999 NCD 10/05
                        Q1017 NOSIG=
201804162050 METAR COR EGLL 162050Z AUTO 16007KT 130V230 9999 NCD 11/04
                        Q1017 NOSIG=
201804162020 METAR COR EGLL 162020Z AUTO 16007KT 120V240 9999 NCD 11/04
                        Q1017 NOSIG=
201804161950 METAR COR EGLL 161950Z AUTO 18006KT 140V230 9999 NCD 11/03
                        Q1017 NOSIG=
201804161920 METAR COR EGLL 161920Z AUTO 19008KT 160V250 9999 BKN049 12/03
                        Q1017 NOSIG=
201804161850 METAR COR EGLL 161850Z AUTO 22009KT 9999 BKN049 12/03 Q1017
                        NOSIG=
201804161820 METAR COR EGLL 161820Z AUTO 23012KT 9999 FEW049 12/03 Q1016
                        NOSIG=
201804161750 METAR COR EGLL 161750Z AUTO 23015KT 9999 SCT049 13/03 Q1016
                        NOSIG=
201804161720 METAR COR EGLL 161720Z AUTO 23015KT 9999 NCD 13/03 Q1016
                        NOSIG=
201804161650 METAR COR EGLL 161650Z AUTO 24015KT 9999 SCT048 13/03 Q1016
                        NOSIG=
201804161620 METAR COR EGLL 161620Z AUTO 21014KT 180V240 9999 BKN048 14/03
                        Q1015 NOSIG=
201804161550 METAR COR EGLL 161550Z AUTO 22014KT 9999 NCD 14/03 Q1015
                        NOSIG=
201804161520 METAR COR EGLL 161520Z AUTO 23015KT 9999 SCT048 14/04 Q1015
                        NOSIG=
201804161450 METAR COR EGLL 161450Z AUTO 23014KT 9999 NCD 14/04 Q1015
                        NOSIG=
201804161420 METAR COR EGLL 161420Z AUTO 23015KT 9999 NCD 15/05 Q1015
                        NOSIG=
201804161350 METAR COR EGLL 161350Z AUTO 22013KT 190V250 9999 FEW046 14/05
                        Q1015 NOSIG=
201804161320 METAR COR EGLL 161320Z AUTO 23015KT 9999 OVC046 14/06 Q1015
                        NOSIG=
201804161250 METAR COR EGLL 161250Z AUTO 23013KT 9999 NCD 14/06 Q1015
                        NOSIG=
201804161220 METAR COR EGLL 161220Z AUTO 23012KT 9999 NCD 14/05 Q1014
                        NOSIG=
201804161150 METAR COR EGLL 161150Z AUTO 22012KT 9999 FEW043 OVC049 14/05
                        Q1014 NOSIG=
201804161120 METAR COR EGLL 161120Z AUTO 22011KT 180V250 9999 FEW042 14/06
                        Q1014 NOSIG=
201804161050 METAR COR EGLL 161050Z AUTO 23012KT 200V270 9999 OVC040 13/05
                        Q1014 NOSIG=
201804161020 METAR COR EGLL 161020Z AUTO 23011KT 9999 FEW035 SCT049 13/06
                        Q1014 NOSIG=
201804160950 METAR COR EGLL 160950Z AUTO 23012KT 210V270 9999 BKN042 12/06
                        Q1014 NOSIG=
201804160920 METAR COR EGLL 160920Z AUTO 22013KT 9999 FEW029 SCT039 BKN048
                        12/06 Q1014 NOSIG=
201804160850 METAR COR EGLL 160850Z AUTO 23013KT 9999 SCT023 BKN028 12/07
                        Q1013 NOSIG=
201804160820 METAR COR EGLL 160820Z AUTO 23012KT 9999 FEW022 SCT026 BKN039
                        11/07 Q1013 NOSIG=
201804160750 METAR COR EGLL 160750Z AUTO 23011KT 9999 NCD 11/08 Q1013
                        NOSIG=
201804160720 METAR COR EGLL 160720Z AUTO 23010KT 9999 NCD 10/08 Q1012
                        NOSIG=
201804160650 METAR COR EGLL 160650Z AUTO 22009KT 9999 NCD 09/07 Q1012
                        NOSIG=
201804160620 METAR COR EGLL 160620Z AUTO 21007KT 9999 NCD 09/07 Q1012
                        NOSIG=
201804160550 METAR COR EGLL 160550Z AUTO 22008KT 9000 NCD 08/07 Q1011
                        NOSIG=
201804160520 METAR COR EGLL 160520Z AUTO 20005KT 180V240 9999 NCD 08/07
                        Q1011 NOSIG=
201804160450 METAR COR EGLL 160450Z AUTO 21005KT 9999 NCD 08/07 Q1010
                        NOSIG=
201804160420 METAR COR EGLL 160420Z AUTO 20004KT 9999 NCD 08/07 Q1010
                        NOSIG=
201804160350 METAR COR EGLL 160350Z AUTO 21006KT 9999 NCD 08/07 Q1010
                        NOSIG=
201804160320 METAR COR EGLL 160320Z AUTO 21006KT 9999 FEW037 09/07 Q1010
                        NOSIG=
201804160250 METAR COR EGLL 160250Z AUTO 21005KT 9999 NCD 09/07 Q1010
                        NOSIG=
201804160220 METAR COR EGLL 160220Z AUTO 21006KT 9999 BKN035 09/07 Q1009
                        NOSIG=
201804160150 METAR COR EGLL 160150Z AUTO 21007KT 9999 FEW017 09/07 Q1009
                        NOSIG=
201804160120 METAR COR EGLL 160120Z AUTO 21008KT 9999 SCT018 10/08 Q1009
                        NOSIG=
201804160050 METAR COR EGLL 160050Z AUTO 21008KT 9999 BKN028 10/08 Q1009
                        NOSIG=
201804160020 METAR COR EGLL 160020Z AUTO 21009KT 9999 OVC024 11/08 Q1009
                        NOSIG=
201804152350 METAR COR EGLL 152350Z AUTO 21009KT 9999 BKN023 OVC031 11/08
                        Q1009 NOSIG=
201804152320 METAR COR EGLL 152320Z AUTO 22009KT 9999 SCT021 OVC026 11/08
                        Q1008 NOSIG=
201804152250 METAR COR EGLL 152250Z AUTO 20008KT 9999 BKN025 10/09 Q1008
                        NOSIG=
201804152220 METAR COR EGLL 152220Z AUTO 19007KT 9999 OVC029 10/09 Q1008
                        NOSIG=
201804152150 METAR COR EGLL 152150Z AUTO 20007KT 9999 FEW022 BKN026 OVC035
                        11/08 Q1008 TEMPO BKN012=
201804152120 METAR COR EGLL 152120Z AUTO 19008KT 150V220 9999 SCT019 BKN026
                        11/09 Q1008 TEMPO BKN012=
201804152050 METAR COR EGLL 152050Z AUTO 20007KT 160V230 9999 FEW018 SCT030
                        10/08 Q1008 NOSIG=
201804152020 METAR COR EGLL 152020Z AUTO 21009KT 9999 BKN029 BKN042 11/08
                        Q1008 NOSIG=
201804151950 METAR COR EGLL 151950Z AUTO 20008KT 9999 FEW019 SCT025 BKN031
                        11/09 Q1007 NOSIG=
201804151920 METAR COR EGLL 151920Z AUTO 19008KT 9999 FEW026 11/09 Q1007
                        NOSIG=
201804151850 METAR COR EGLL 151850Z AUTO 19008KT 9999 SCT015 BKN022 BKN040
                        12/10 Q1007 NOSIG=
201804151820 METAR COR EGLL 151820Z AUTO 18010KT 160V230 9999 -RA FEW024
                        SCT045 12/10 Q1007 NOSIG=
201804151750 METAR COR EGLL 151750Z AUTO 19008KT 9999 FEW019 SCT027 12/10
                        Q1007 TEMPO BKN014=
201804151720 METAR COR EGLL 151720Z AUTO 19008G18KT 160V260 9999 FEW023
                        BKN043 12/10 Q1007 TEMPO SHRA BKN012=
201804151650 METAR COR EGLL 151650Z AUTO 18010G20KT 150V220 9999 BKN013
                        BKN045 12/10 Q1007 TEMPO SCT013 BKN045=
201804151620 METAR COR EGLL 151620Z AUTO 18011KT 160V230 9999 -RA SCT015
                        BKN023 BKN041 11/10 Q1007 TEMPO BKN012=
201804151550 METAR COR EGLL 151550Z AUTO 18011KT 9999 -RA SCT018/// BKN028///
                        BKN037/// //////TCU 11/09 Q1007 TEMPO
                        RA BKN014=
201804151520 METAR COR EGLL 151520Z AUTO 19015KT 9999 -RA FEW021/// SCT026///
                        OVC034/// //////TCU 11/09 Q1007 TEMPO
                        RA=
201804151450 METAR COR EGLL 151450Z AUTO 19013KT 9999 -RA SCT029 BKN034
                        13/08 Q1007 TEMPO RA=
201804151420 METAR COR EGLL 151420Z AUTO 16011KT 9999 FEW026 SCT035 BKN043
                        14/08 Q1007 TEMPO RA=
201804151350 METAR COR EGLL 151350Z AUTO 16010KT 130V220 9999 SCT028 BKN037
                        BKN048 14/08 Q1007 NOSIG=
201804151320 METAR COR EGLL 151320Z AUTO 16009KT 120V220 9999 FEW025 15/09
                        Q1008 NOSIG=
201804151250 METAR COR EGLL 151250Z AUTO 20008KT 170V240 9999 FEW023 SCT035
                        14/09 Q1008 NOSIG=
201804151220 METAR COR EGLL 151220Z AUTO 18008KT 150V240 9999 NCD 13/08
                        Q1009 NOSIG=
201804151150 METAR COR EGLL 151150Z AUTO 18008KT 130V250 9999 NCD 14/09
                        Q1009 NOSIG=
201804151120 METAR COR EGLL 151120Z AUTO 15006KT 060V240 9999 NCD 13/09
                        Q1009 NOSIG=
201804151050 METAR COR EGLL 151050Z AUTO 19007KT 120V230 9999 FEW016 13/09
                        Q1009 NOSIG=
201804151020 METAR COR EGLL 151020Z AUTO 19010KT 150V230 9000 BKN013 BKN021
                        12/10 Q1009 TEMPO SCT013 BKN021=
201804150950 METAR COR EGLL 150950Z AUTO 17009KT 120V230 8000 BKN011 BKN015
                        OVC024 13/10 Q1010 TEMPO SCT011 BKN020=
201804150920 METAR COR EGLL 150920Z AUTO 18009KT 140V240 7000 BKN009 OVC015
                        12/10 Q1010 BECMG FEW009 BKN015=
201804150850 METAR COR EGLL 150850Z AUTO 16007KT 6000 BKN008 OVC014 12/10
                        Q1010 BECMG FEW008 BKN014=
201804150820 METAR COR EGLL 150820Z AUTO 15007KT 6000 BKN008 12/10 Q1010
                        BECMG BKN012=
201804150750 METAR COR EGLL 150750Z AUTO 14006KT 4800 HZ BKN007 11/10
                        Q1010 BECMG 6000 BKN010=
201804150720 METAR COR EGLL 150720Z AUTO 15006KT 120V180 4400 HZ OVC006
                        11/10 Q1010 BECMG 6000=
201804150650 METAR COR EGLL 150650Z AUTO 13005KT 3700 HZ OVC006 11/10
                        Q1011 BECMG 6000=
201804150620 METAR COR EGLL 150620Z AUTO 13005KT 100V160 3500 HZ OVC005
                        10/09 Q1011 TEMPO 2500 BKN004=
201804150550 METAR COR EGLL 150550Z AUTO 11004KT 090V160 3200 HZ BKN006
                        11/09 Q1011 TEMPO 2500 BKN004=
201804150520 METAR COR EGLL 150520Z AUTO 09005KT 2800 HZ BKN023 BKN038
                        09/08 Q1011 TEMPO BKN004=
201804150450 METAR COR EGLL 150450Z AUTO 10004KT 3600 HZ NCD 09/08 Q1011
                        TEMPO 2500 BKN004=
201804150420 METAR COR EGLL 150420Z AUTO 07005KT 4600 HZ FEW029 SCT045
                        09/08 Q1011 TEMPO BKN004=
201804150350 METAR COR EGLL 150350Z AUTO 13004KT 6000 SCT020 BKN024 BKN030
                        11/09 Q1012 TEMPO 4000=
201804150320 METAR COR EGLL 150320Z AUTO 10005KT 5000 HZ FEW024 BKN031
                        11/09 Q1012 TEMPO 3000=
201804150250 METAR COR EGLL 150250Z AUTO 10005KT 6000 NCD 10/08 Q1012
                        TEMPO 4000=
201804150220 METAR COR EGLL 150220Z AUTO 11006KT 4700 HZ NCD 10/09 Q1012
                        NOSIG=
201804150150 METAR COR EGLL 150150Z AUTO 09006KT 2600 HZ NCD 10/08 Q1013
                        NOSIG=
201804150120 METAR COR EGLL 150120Z AUTO 09005KT 2700 HZ FEW025 11/09
                        Q1013 NOSIG=
201804150050 METAR EGLL 150050Z AUTO 09006KT 2900 HZ FEW020 SCT031 11/09
                        Q1013=
201804150020 METAR COR EGLL 150020Z AUTO 11005KT 3100 HZ BKN013 OVC025
                        12/10 Q1014 NOSIG=
201804142350 METAR COR EGLL 142350Z AUTO 10005KT 3100 HZ SCT013 BKN021
                        10/09 Q1014 NOSIG=
201804142320 METAR COR EGLL 142320Z AUTO 08005KT 3900 HZ FEW047 12/09
                        Q1014 NOSIG=
201804142250 METAR COR EGLL 142250Z AUTO 09005KT 5000 HZ BKN042 12/09
                        Q1014 BECMG 4000=
201804142220 METAR COR EGLL 142220Z AUTO 09005KT 6000 BKN018 12/09 Q1014
                        BECMG 4500=
201804142150 METAR COR EGLL 142150Z AUTO 13006KT 7000 NCD 12/08 Q1015
                        BECMG 4500=
201804142120 METAR COR EGLL 142120Z AUTO 13006KT 9000 NCD 13/08 Q1015
                        NOSIG=
201804142050 METAR COR EGLL 142050Z AUTO 15006KT 9999 NCD 14/08 Q1015
                        NOSIG=
201804142020 METAR COR EGLL 142020Z AUTO 14005KT 9999 NCD 14/08 Q1015
                        NOSIG=
201804141950 METAR COR EGLL 141950Z AUTO 13005KT 090V170 9999 NCD 15/07
                        Q1015 NOSIG=
201804141920 METAR COR EGLL 141920Z AUTO 16006KT 9999 //////CB 16/07 Q1015
                        NOSIG=
201804141850 METAR COR EGLL 141850Z AUTO 17006KT 9999 //////CB 16/08 Q1014
                        NOSIG=
201804141820 METAR COR EGLL 141820Z AUTO 18008KT 9999 SCT045 16/08 Q1014
                        NOSIG=
201804141750 METAR COR EGLL 141750Z AUTO 16009KT 9999 BKN046/// //////CB
                        17/08 Q1014 NOSIG=
201804141720 METAR EGLL 141720Z AUTO 16005KT 110V230 9999 SCT045/// //////CB
                        17/08 Q1014=
201804141650 METAR COR EGLL 141650Z AUTO 16006KT 9999 FEW046 17/08 Q1015
                        NOSIG=
201804141620 METAR COR EGLL 141620Z AUTO 14007KT 110V190 9999 FEW049 18/08
                        Q1015 NOSIG=
201804141550 METAR COR EGLL 141550Z AUTO 15005KT 090V210 9999 SCT048 18/08
                        Q1015 NOSIG=
201804141520 METAR COR EGLL 141520Z AUTO 17004KT 110V240 9999 NCD 19/08
                        Q1015 NOSIG=
201804141450 METAR COR EGLL 141450Z AUTO VRB03KT 9999 SCT046 19/08 Q1015
                        NOSIG=
201804141420 METAR COR EGLL 141420Z AUTO 13005KT 040V190 9999 SCT045 19/07
                        Q1016 NOSIG=
201804141350 METAR COR EGLL 141350Z AUTO 20006KT 120V250 9999 NCD 18/07
                        Q1016 NOSIG=
201804141320 METAR COR EGLL 141320Z AUTO 21007KT 130V260 9999 NCD 18/08
                        Q1016 NOSIG=
201804141250 METAR COR EGLL 141250Z AUTO VRB05KT 9999 NCD 18/08 Q1017
                        NOSIG=
201804141220 METAR COR EGLL 141220Z AUTO VRB04KT 9999 FEW038 17/08 Q1017
                        NOSIG=
201804141150 METAR COR EGLL 141150Z AUTO 19006KT 110V240 9999 SCT035 16/08
                        Q1017 NOSIG=
201804141120 METAR COR EGLL 141120Z AUTO 20006KT 140V240 9999 FEW034 16/08
                        Q1017 NOSIG=
201804141050 METAR COR EGLL 141050Z AUTO VRB03KT 9999 NCD 15/07 Q1017
                        NOSIG=
201804141020 METAR COR EGLL 141020Z AUTO VRB04KT 9999 NCD 14/08 Q1017
                        NOSIG=
201804140950 METAR COR EGLL 140950Z AUTO VRB03KT 9000 NCD 14/08 Q1017
                        NOSIG=
201804140920 METAR COR EGLL 140920Z AUTO VRB04KT 7000 NCD 13/08 Q1017
                        NOSIG=
201804140850 METAR COR EGLL 140850Z AUTO VRB03KT 5000 HZ NCD 12/09 Q1017
                        NOSIG=
201804140820 METAR COR EGLL 140820Z AUTO 18004KT 120V240 4700 HZ NCD 11/08
                        Q1017 BECMG 6000=
201804140750 METAR COR EGLL 140750Z AUTO VRB03KT 4500 HZ NCD 10/08 Q1017
                        BECMG 6000=
201804140720 METAR COR EGLL 140720Z AUTO VRB03KT 3700 HZ FEW037 09/08
                        Q1017 BECMG 5000=
201804140650 METAR COR EGLL 140650Z AUTO 21005KT 170V250 3800 HZ BKN036
                        09/07 Q1017 BECMG 5000=
201804140620 METAR COR EGLL 140620Z AUTO VRB03KT 3200 HZ BKN037 09/07
                        Q1016 BECMG 5000=
201804140550 METAR COR EGLL 140550Z AUTO 20004KT 180V240 3300 HZ OVC037
                        08/07 Q1016 TEMPO 2000=
201804140520 METAR COR EGLL 140520Z AUTO 18004KT 150V240 3600 HZ BKN038
                        08/07 Q1016 BECMG 2000 BR=
201804140450 METAR COR EGLL 140450Z AUTO VRB03KT 4000 HZ OVC037 08/07
                        Q1016 BECMG 2500 BR=
201804140420 METAR COR EGLL 140420Z AUTO VRB03KT 3900 HZ OVC037 08/07
                        Q1016 BECMG 2500 BR=
201804140350 METAR COR EGLL 140350Z AUTO VRB01KT 4300 HZ OVC038 08/07
                        Q1016 BECMG 2500 BR=
201804140320 METAR COR EGLL 140320Z AUTO 21003KT 4000 HZ OVC038 08/07
                        Q1016 NOSIG=
201804140250 METAR COR EGLL 140250Z AUTO VRB03KT 4200 HZ OVC038 08/07
                        Q1016 NOSIG=
201804140220 METAR COR EGLL 140220Z AUTO 20004KT 4300 HZ OVC038 08/07
                        Q1015 NOSIG=
201804140150 METAR COR EGLL 140150Z AUTO 19003KT 4400 HZ OVC037 08/07
                        Q1015 NOSIG=
201804140120 METAR COR EGLL 140120Z AUTO 19003KT 4500 HZ OVC038 09/07
                        Q1015 NOSIG=
201804140050 METAR COR EGLL 140050Z AUTO 21004KT 4600 HZ OVC037 08/07
                        Q1015 NOSIG=
201804140020 METAR COR EGLL 140020Z AUTO 20005KT 5000 HZ BKN035 OVC042
                        09/07 Q1015 BECMG 4000 BR=
201804132350 METAR COR EGLL 132350Z AUTO 20005KT 5000 HZ BKN036 08/07
                        Q1014 BECMG 4000 BR=
201804132320 METAR COR EGLL 132320Z AUTO 21003KT 5000 HZ SCT035 08/07
                        Q1014 BECMG 4000 BR=
201804132250 METAR COR EGLL 132250Z AUTO 20006KT 6000 BKN035 09/07 Q1014
                        BECMG 4500 HZ=
201804132220 METAR COR EGLL 132220Z AUTO 20005KT 7000 SCT025 BKN035 09/07
                        Q1014 BECMG 4500 HZ=
201804132150 METAR COR EGLL 132150Z AUTO 20005KT 150V230 7000 FEW025 BKN037
                        10/08 Q1014 NOSIG=
201804132120 METAR COR EGLL 132120Z AUTO 21005KT 150V240 7000 BKN037 10/08
                        Q1013 NOSIG=
201804132050 METAR COR EGLL 132050Z AUTO 23005KT 7000 BKN039 10/08 Q1013
                        NOSIG=
201804132020 METAR COR EGLL 132020Z AUTO 23006KT 8000 OVC035 11/08 Q1013
                        NOSIG=
201804131950 METAR COR EGLL 131950Z AUTO 23006KT 200V260 8000 OVC032 11/08
                        Q1012 NOSIG=
201804131920 METAR COR EGLL 131920Z AUTO 24007KT 8000 FEW020 OVC033 11/08
                        Q1012 NOSIG=
201804131850 METAR COR EGLL 131850Z AUTO 23005KT 200V270 9999 OVC034 11/08
                        Q1011 NOSIG=
201804131820 METAR COR EGLL 131820Z AUTO 22006KT 9999 OVC032 11/08 Q1011
                        NOSIG=
201804131750 METAR COR EGLL 131750Z AUTO 22007KT 9999 OVC030 12/08 Q1010
                        NOSIG=
201804131720 METAR COR EGLL 131720Z AUTO 22009KT 190V250 9999 BKN034 12/08
                        Q1010 NOSIG=
201804131650 METAR COR EGLL 131650Z AUTO 23008KT 9999 OVC027 12/07 Q1010
                        NOSIG=
201804131620 METAR COR EGLL 131620Z AUTO 21007KT 180V240 9999 BKN028 OVC032
                        11/07 Q1010 NOSIG=
201804131550 METAR COR EGLL 131550Z AUTO 15006KT 110V210 9999 BKN029 OVC034
                        11/07 Q1010 NOSIG=
201804131520 METAR COR EGLL 131520Z AUTO 18005KT 130V260 9999 OVC024 12/07
                        Q1010 NOSIG=
201804131450 METAR COR EGLL 131450Z AUTO 23006KT 200V270 9999 BKN019 BKN024
                        OVC029 11/08 Q1009 NOSIG=
201804131420 METAR COR EGLL 131420Z AUTO 21005KT 180V250 9999 BKN018 BKN024
                        OVC032 11/08 Q1009 NOSIG=
201804131350 METAR COR EGLL 131350Z AUTO 23007KT 180V270 9999 OVC016 11/08
                        Q1009 NOSIG=
201804131320 METAR COR EGLL 131320Z AUTO 23008KT 200V260 9999 BKN015 OVC029
                        11/08 Q1008 NOSIG=
201804131250 METAR COR EGLL 131250Z AUTO 23008G18KT 190V270 9999 BKN013
                        OVC028 10/07 Q1008 BECMG BKN015=
201804131220 METAR COR EGLL 131220Z AUTO 23007KT 180V260 9000 OVC012 10/07
                        Q1008 NOSIG=
201804131150 METAR COR EGLL 131150Z AUTO 22007KT 180V260 9000 OVC011 09/07
                        Q1008 NOSIG=
201804131120 METAR COR EGLL 131120Z AUTO 24008KT 200V280 9000 OVC010 09/07
                        Q1007 NOSIG=
201804131050 METAR COR EGLL 131050Z AUTO 23007KT 200V270 8000 BKN010 OVC016
                        09/07 Q1007 NOSIG=
201804131020 METAR COR EGLL 131020Z AUTO 25007KT 8000 BKN009 OVC014 09/07
                        Q1007 TEMPO BKN012=
201804130950 METAR COR EGLL 130950Z AUTO 24005KT 200V280 8000 OVC010 08/06
                        Q1007 NOSIG=
201804130920 METAR COR EGLL 130920Z AUTO 25004KT 230V290 9999 BKN011 OVC015
                        08/06 Q1006 NOSIG=
201804130850 METAR COR EGLL 130850Z AUTO 25004KT 9999 BKN010 OVC030 08/06
                        Q1006 NOSIG=
201804130820 METAR COR EGLL 130820Z AUTO 25005KT 9000 SCT009 BKN012 OVC029
                        08/06 Q1006 NOSIG=
201804130750 METAR COR EGLL 130750Z AUTO 26004KT 8000 BKN008 OVC013 07/06
                        Q1005 NOSIG=
201804130720 METAR COR EGLL 130720Z AUTO 25004KT 7000 BKN007 OVC015 07/06
                        Q1005 NOSIG=
201804130650 METAR COR EGLL 130650Z AUTO 27003KT 6000 OVC008 07/06 Q1005
                        BECMG BKN010=
201804130620 METAR COR EGLL 130620Z AUTO 27003KT 6000 BKN007 OVC010 07/06
                        Q1004 NOSIG=
201804130550 METAR COR EGLL 130550Z AUTO 27004KT 6000 BKN007 BKN011 OVC015
                        07/06 Q1004 TEMPO SCT007 BKN011=
201804130520 METAR COR EGLL 130520Z AUTO 27003KT 5000 HZ BKN005 BKN009
                        OVC013 07/06 Q1004 NOSIG=
201804130450 METAR COR EGLL 130450Z AUTO VRB03KT 5000 HZ OVC008 07/06
                        Q1003 TEMPO SCT008 BKN010=
201804130420 METAR COR EGLL 130420Z AUTO VRB01KT 5000 BR BKN006 BKN010
                        OVC020 06/06 Q1003 NOSIG=
201804130350 METAR COR EGLL 130350Z AUTO 30004KT 5000 BR BKN005 OVC012
                        06/06 Q1003 TEMPO SCT005 BKN012=
201804130320 METAR COR EGLL 130320Z AUTO 30004KT 3300 BR BKN004 OVC010
                        06/06 Q1003 RERA TEMPO BKN006=
201804130250 METAR COR EGLL 130250Z AUTO 31005KT 2600 -RA OVC003/// //////TCU
                        06/06 Q1003 RERA REDZ TEMPO 2000
                        RADZ BKN005=
201804130220 METAR COR EGLL 130220Z AUTO 34004KT 3300 RA BKN004 OVC010
                        06/06 Q1003 TEMPO 2000=
201804130150 METAR COR EGLL 130150Z AUTO 01004KT 2400 BR OVC004 07/06
                        Q1003 TEMPO RADZ=
201804130120 METAR COR EGLL 130120Z AUTO 36007KT 3100 BR OVC004 06/06
                        Q1003 TEMPO 2000 RADZ BKN005=
201804130050 METAR COR EGLL 130050Z AUTO 01004KT 4100 BR BKN004 OVC008
                        07/06 Q1003 TEMPO 2000 RADZ BKN005=
201804130020 METAR COR EGLL 130020Z AUTO 02005KT 3500 BR OVC005 07/06
                        Q1003 TEMPO 2000 RADZ BKN004=
201804122350 METAR COR EGLL 122350Z AUTO 01007KT 3800 HZ OVC004 07/06
                        Q1003 TEMPO 5000 HZ BKN005=
201804122320 METAR COR EGLL 122320Z AUTO 01006KT 5000 BR OVC004 07/06
                        Q1003 TEMPO 4000 -RADZ BKN005=
201804122250 METAR COR EGLL 122250Z AUTO 36007KT 4100 BR OVC004 07/06
                        Q1003 TEMPO OVC005=
201804122220 METAR COR EGLL 122220Z AUTO 02006KT 360V060 2300 BR OVC003
                        07/06 Q1003 TEMPO OVC005=
201804122150 METAR COR EGLL 122150Z AUTO 36007KT 320V050 4500 HZ OVC005
                        07/06 Q1003 TEMPO 5000=
201804122120 METAR COR EGLL 122120Z AUTO 03008KT 350V070 5000 HZ OVC005
                        07/06 Q1003 NOSIG=
201804122050 METAR EGLL 122050Z AUTO 02008KT 340V060 3800 BR OVC004 07/06
                        Q1003=
201804122020 METAR EGLL 122020Z AUTO 02008KT 3600 HZ OVC004 07/06 Q1003=
201804121950 METAR COR EGLL 121950Z AUTO 01009KT 4300 HZ OVC005 07/06
                        Q1003 REDZ TEMPO BKN004=
201804121920 METAR COR EGLL 121920Z AUTO 02008KT 350V060 3600 HZ OVC005
                        07/06 Q1003 BECMG OVC004=
201804121850 METAR COR EGLL 121850Z AUTO 02009KT 350V060 6000 OVC006 08/06
                        Q1003 TEMPO 4500 HZ BKN004=
201804121820 METAR EGLL 121820Z AUTO 02009KT 340V060 6000 BKN005 OVC011
                        08/07 Q1003=
201804121750 METAR COR EGLL 121750Z AUTO 01010KT 340V050 3900 HZ OVC004
                        08/07 Q1002 TEMPO 2500 OVC005=
201804121720 METAR COR EGLL 121720Z AUTO 01009KT 340V040 2400 HZ OVC004
                        08/07 Q1002 TEMPO 3000 OVC005=
201804121650 METAR COR EGLL 121650Z AUTO 02009KT 2900 HZ OVC004 09/08
                        Q1002 TEMPO 3200 OVC005=
201804121620 METAR COR EGLL 121620Z AUTO 01009KT 330V050 3100 HZ BKN005
                        09/08 Q1002 TEMPO 2800=
201804121550 METAR COR EGLL 121550Z AUTO 03009KT 350V060 3600 HZ BKN007
                        10/08 Q1002 NOSIG=
201804121520 METAR COR EGLL 121520Z AUTO 01009KT 340V050 2800 HZ OVC005
                        10/08 Q1003 TEMPO 3500=
201804121450 METAR COR EGLL 121450Z 02008KT 340V050 2800 HZ OVC005 10/08
                        Q1003 NOSIG=
201804121420 METAR COR EGLL 121420Z AUTO 03008KT 350V060 2800 HZ OVC006
                        10/09 Q1003 TEMPO 3500=
201804121350 METAR COR EGLL 121350Z AUTO 02008KT 310V060 2900 HZ OVC006
                        10/09 Q1003 BECMG 3500=
201804121320 METAR COR EGLL 121320Z AUTO 01008KT 340V050 3200 HZ OVC006
                        10/09 Q1003 NOSIG=
201804121250 METAR COR EGLL 121250Z AUTO 04009KT 3600 HZ BKN007 OVC012
                        10/08 Q1003 BECMG 5000=
201804121220 METAR COR EGLL 121220Z AUTO 02007KT 340V060 4200 HZ OVC006
                        10/08 Q1003 BECMG 5000=
201804121150 METAR COR EGLL 121150Z AUTO 03008KT 350V070 5000 HZ OVC006
                        09/08 Q1004 NOSIG=
201804121120 METAR COR EGLL 121120Z AUTO 02006KT 340V060 4000 BR OVC005
                        08/08 Q1004 BECMG 5000=
201804121050 METAR COR EGLL 121050Z 04008KT 330V070 2700 BR BKN003 OVC007
                        08/07 Q1004 BECMG 3000 BKN005=
201804121020 METAR COR EGLL 121020Z AUTO 03008KT 350V060 2400 BR OVC003
                        08/07 Q1004 BECMG 3000 OVC005=
201804120950 METAR COR EGLL 120950Z AUTO 02008KT 350V060 3300 -RADZ BKN004
                        OVC007 08/07 Q1004 BECMG OVC005=
201804120920 METAR COR EGLL 120920Z AUTO 02009KT 340V050 2400 BR OVC003
                        07/07 Q1004 BECMG 3000 OVC005=
201804120850 METAR COR EGLL 120850Z AUTO 36008KT 320V060 2600 BR OVC003
                        07/07 Q1004 NOSIG=
201804120820 METAR COR EGLL 120820Z AUTO 02007KT 2300 BR OVC003 07/07
                        Q1004 NOSIG=
201804120750 METAR COR EGLL 120750Z AUTO 02007KT 350V050 2400 BR OVC003
                        07/07 Q1004 NOSIG=
201804120720 METAR COR EGLL 120720Z AUTO 01007KT 340V050 2200 BR OVC002
                        07/07 Q1004 NOSIG=
201804120650 METAR COR EGLL 120650Z 03007KT 1700 BR OVC003 07/07 Q1004=
201804120620 METAR COR EGLL 120620Z AUTO 01008KT 340V050 1500 BR BKN003
                        OVC006 07/07 Q1004 TEMPO SCT003=
201804120550 METAR COR EGLL 120550Z AUTO 36008KT 350V050 1900 BR BKN002
                        OVC006 07/07 Q1004 TEMPO 1200=
201804120520 METAR COR EGLL 120520Z AUTO 36007KT 330V030 1100 R09L/P1500
                        R09R/P1500 BR BKN001 OVC004 07/07
                        Q1004 TEMPO 0700 FG=
201804120450 METAR COR EGLL 120450Z AUTO 01006KT 1100 R09L/P1500 BR OVC002
                        07/07 Q1004 NOSIG=
201804120420 METAR COR EGLL 120420Z 01007KT 1400 R09L/P1500 BR BKN002
                        OVC006 07/07 Q1004 TEMPO 0900 FG=
201804120350 METAR COR EGLL 120350Z 01007KT 1200 R09L/P1500 -RADZ BR OVC002
                        07/07 Q1004 TEMPO 0700 FG BKN001=
201804120320 METAR COR EGLL 120320Z 02008KT 1000 R27R/P1500 -RADZ BR SCT001
                        BKN002 08/08 Q1004 TEMPO 0700 FG
                        BKN001=
201804120250 METAR COR EGLL 120250Z 36009KT 0800 R27R/P1500 -DZ FG BKN001
                        OVC009 08/08 Q1005 TEMPO 0500=
201804120220 METAR EGLL 120220Z 36007KT 0800 R27R/P1500 -RADZ FG OVC001
                        08/08 Q1005 REDZ=
201804120150 METAR EGLL 120150Z 36007KT 0650 R27R/P1500 DZ FG OVC001 09/08
                        Q1005 TEMPO 0500=
201804120120 METAR COR EGLL 120120Z 01006KT 0700 R27R/P1500 FG OVC001
                        09/08 Q1005 NOSIG=
201804120050 METAR COR EGLL 120050Z 01006KT 0700 R27R/P1500 FG OVC001
                        09/08 Q1005 TEMPO 0500=
201804120020 METAR COR EGLL 120020Z 01006KT 0700 R27R/1300 -DZ FG OVC001
                        09/09 Q1005 TEMPO 0500=
201804112350 METAR COR EGLL 112350Z 01005KT 1000 R27R/P1500 -DZ BR OVC002
                        09/09 Q1006 NOSIG=
201804112320 METAR COR EGLL 112320Z 02005KT 1200 R27R/P1500 -DZ BR OVC002
                        09/09 Q1006 NOSIG=
201804112250 METAR COR EGLL 112250Z 01005KT 1200 R27R/P1500 -DZ BR OVC002
                        09/09 Q1006 NOSIG=
201804112220 METAR COR EGLL 112220Z 01005KT 350V070 1000 R09L/P1500 R09R/P1500
                        -DZ BR OVC002 09/09 Q1006 NOSIG=
201804112150 METAR COR EGLL 112150Z AUTO 03005KT 320V070 1000 R09L/P1500
                        R09R/P1500 BR OVC002 09/08 Q1006
                        NOSIG=
201804112120 METAR COR EGLL 112120Z AUTO 04006KT 350V070 1400 R09L/P1500
                        R09R/P1500 BR OVC002 09/08 Q1006
                        TEMPO 1600=
201804112050 METAR COR EGLL 112050Z AUTO 04008KT 360V070 1600 HZ BKN004
                        OVC011 09/08 Q1007 TEMPO 1400 -DZ
                        BR=
201804112020 METAR COR EGLL 112020Z AUTO 06008KT 3600 HZ BKN006 OVC009
                        09/08 Q1007 TEMPO BKN004=
201804111950 METAR COR EGLL 111950Z AUTO 06009KT 3900 HZ OVC006 09/08
                        Q1007 TEMPO BKN004=
201804111920 METAR COR EGLL 111920Z AUTO 05008KT 010V070 3000 HZ OVC005
                        09/08 Q1007 TEMPO BKN004=
201804111850 METAR COR EGLL 111850Z AUTO 03007KT 340V050 3400 HZ BKN005
                        OVC009 09/08 Q1007 TEMPO BKN004=
201804111820 METAR COR EGLL 111820Z AUTO 03008KT 360V070 4500 HZ BKN006
                        OVC009 09/08 Q1006 NOSIG=
201804111750 METAR COR EGLL 111750Z 03007KT 3800 HZ OVC006 09/08 Q1006
                        NOSIG=
201804111720 METAR COR EGLL 111720Z AUTO 02008KT 4000 HZ OVC007 09/08
                        Q1006 NOSIG=
201804111650 METAR COR EGLL 111650Z AUTO 03009KT 350V050 4300 HZ BKN007
                        OVC011 09/08 Q1007 NOSIG=
201804111620 METAR COR EGLL 111620Z AUTO 01009KT 340V060 4600 HZ OVC008
                        09/08 Q1007 NOSIG=
201804111550 METAR COR EGLL 111550Z AUTO 03008KT 5000 HZ OVC009 10/08
                        Q1007 NOSIG=
201804111520 METAR COR EGLL 111520Z AUTO 05006KT 020V080 5000 HZ OVC010
                        10/08 Q1007 BECMG 4000 BR BKN009=
201804111450 METAR COR EGLL 111450Z AUTO 05004KT 010V080 5000 HZ OVC009
                        10/08 Q1007 BECMG 4000 BR=
201804111420 METAR COR EGLL 111420Z AUTO 03005KT 360V060 5000 HZ BKN008
                        OVC011 10/08 Q1007 NOSIG=
201804111350 METAR COR EGLL 111350Z AUTO 04005KT 360V080 5000 HZ OVC008
                        10/08 Q1007 NOSIG=
201804111320 METAR COR EGLL 111320Z AUTO 05006KT 020V080 5000 HZ BKN008
                        OVC016 09/08 Q1008 NOSIG=
201804111250 METAR EGLL 111250Z AUTO 04006KT 010V070 5000 HZ OVC007 09/07
                        Q1008=
201804111220 METAR COR EGLL 111220Z AUTO 04006KT 010V070 6000 OVC007 09/07
                        Q1008 NOSIG=
201804111150 METAR COR EGLL 111150Z AUTO 05006KT 6000 OVC007 08/07 Q1008
                        NOSIG=
201804111120 METAR COR EGLL 111120Z AUTO 04006KT 350V070 6000 OVC007 08/07
                        Q1008 NOSIG=
201804111050 METAR COR EGLL 111050Z AUTO 05006KT 010V080 5000 HZ OVC007
                        08/07 Q1008 NOSIG=
201804111020 METAR COR EGLL 111020Z AUTO 06006KT 030V090 4900 HZ OVC006
                        08/06 Q1008 BECMG 5000=
201804110950 METAR COR EGLL 110950Z AUTO 04006KT 010V080 4200 HZ OVC005
                        07/06 Q1008 BECMG 5000=
201804110920 METAR COR EGLL 110920Z AUTO 05007KT 010V070 4100 HZ OVC005
                        07/06 Q1008 BECMG 5000=
201804110850 METAR COR EGLL 110850Z AUTO 05007KT 010V080 3600 HZ OVC005
                        07/06 Q1007 TEMPO 5000=
201804110820 METAR COR EGLL 110820Z AUTO 04007KT 3000 HZ OVC004 07/06
                        Q1007 NOSIG=
201804110750 METAR COR EGLL 110750Z 02006KT 340V050 2100 BR OVC004 07/07
                        Q1007 NOSIG=
201804110720 METAR COR EGLL 110720Z 02006KT 350V050 3000 HZ BKN005 OVC044
                        08/07 Q1007 TEMPO 5000=
201804110650 METAR COR EGLL 110650Z 04007KT 3100 -DZ SCT005 BKN010 OVC047
                        08/07 Q1007 TEMPO 5000=
201804110620 METAR COR EGLL 110620Z 02006KT 350V060 1800 -RADZ SCT004
                        OVC006 08/08 Q1006 TEMPO BKN004=
201804110550 METAR COR EGLL 110550Z 01006KT 340V040 1600 -RADZ BKN003
                        OVC006 09/08 Q1006 REDZ TEMPO 1400
                        RADZ BKN002=
201804110520 METAR COR EGLL 110520Z AUTO 01005KT 340V040 1200 R09L/P1500
                        R09R/P1500 DZ BKN002 OVC005 09/09
                        Q1006 RERA TEMPO 1500 -RADZ BKN003=
201804110450 METAR COR EGLL 110450Z AUTO 36005KT 330V030 1500 -RADZ BKN003
                        OVC017 09/09 Q1006 TEMPO 2000 BKN006=
201804110420 METAR COR EGLL 110420Z AUTO VRB02KT 1400 R09L/P1500 -RA SCT007
                        BKN012 BKN018 10/09 Q1006 RERA TEMPO
                        BKN007=
201804110350 METAR COR EGLL 110350Z AUTO 05003KT 1600 RA SCT009 BKN012
                        OVC021 10/09 Q1006 REDZ TEMPO -RA
                        BKN009=
201804110320 METAR COR EGLL 110320Z AUTO 06003KT 1700 RADZ BKN005 OVC012
                        10/09 Q1006 TEMPO -RADZ=
201804110250 METAR COR EGLL 110250Z 06003KT 2000 RA BKN005 OVC010 10/09
                        Q1006 REDZ NOSIG=
201804110220 METAR COR EGLL 110220Z AUTO VRB03KT 1500 RA BKN005 10/09
                        Q1006 REDZ TEMPO -RA=
201804110150 METAR COR EGLL 110150Z AUTO 02004KT 350V060 1700 -RA BKN006///
                        BKN045/// //////TCU 10/10 Q1006 TEMPO
                        SCT006 BKN045=
201804110120 METAR COR EGLL 110120Z AUTO 02005KT 340V050 1800 -RA FEW006///
                        BKN044/// //////CB 11/10 Q1006 TEMPO
                        3000 RA=
201804110050 METAR COR EGLL 110050Z AUTO 02003KT 2200 -RA BKN045/// //////TCU
                        11/10 Q1006 REDZ TEMPO 4000 RA=
201804110020 METAR COR EGLL 110020Z AUTO 04005KT 2400 -DZ BKN009/// BKN048///
                        //////TCU 11/10 Q1006 REDZ BECMG
                        4000 SCT012=
201804102350 METAR EGLL 102350Z AUTO 01004KT 300V050 2300 -RA //////TCU
                        11/10 Q1005=
201804102320 METAR COR EGLL 102320Z AUTO 05005KT 2800 -RADZ SCT009///
                        BKN049/// //////TCU 11/10 Q1006 REDZ
                        TEMPO SHRA=
201804102250 METAR COR EGLL 102250Z AUTO 06006KT 3300 HZ NCD 12/10 Q1006
                        TEMPO SHRA=
201804102220 METAR COR EGLL 102220Z AUTO 05005KT 3500 HZ FEW011 12/10
                        Q1006 TEMPO SHRA=
201804102150 METAR COR EGLL 102150Z AUTO 05005KT 030V090 3700 HZ NCD 12/10
                        Q1006 TEMPO SHRA=
201804102120 METAR COR EGLL 102120Z AUTO 05004KT 3800 HZ NCD 12/10 Q1005
                        TEMPO SHRA=
201804102050 METAR COR EGLL 102050Z AUTO 06005KT 3600 -RA SCT048 12/10
                        Q1005 TEMPO RA=
201804102020 METAR COR EGLL 102020Z AUTO 05004KT 3800 HZ NCD 12/10 Q1005
                        NOSIG=
201804101950 METAR COR EGLL 101950Z AUTO 05004KT 3500 HZ NCD 12/10 Q1005
                        TEMPO 6000=
201804101920 METAR COR EGLL 101920Z AUTO 04004KT 010V070 4000 HZ NCD 12/11
                        Q1005 TEMPO 6000=
201804101850 METAR COR EGLL 101850Z AUTO 05006KT 4500 HZ NCD 13/10 Q1004
                        TEMPO 6000=
201804101820 METAR COR EGLL 101820Z AUTO 06006KT 4700 HZ SCT015 13/10
                        Q1004 TEMPO 6000=
201804101750 METAR COR EGLL 101750Z AUTO 06008KT 5000 HZ BKN014 13/10
                        Q1004 TEMPO 4000 SHRA=
201804101720 METAR COR EGLL 101720Z AUTO 06009KT 8000 BKN016 13/10 Q1003
                        NOSIG=
201804101650 METAR COR EGLL 101650Z AUTO 06010KT 9999 BKN021 BKN031 BKN047
                        14/10 Q1003 NOSIG=
201804101620 METAR COR EGLL 101620Z AUTO 07009KT 9999 BKN019 14/10 Q1003
                        NOSIG=
201804101550 METAR COR EGLL 101550Z AUTO 05008KT 9999 BKN017 OVC030 13/10
                        Q1003 TEMPO SHRA=
201804101520 METAR COR EGLL 101520Z AUTO 06008KT 9999 SCT017 BKN028 14/10
                        Q1002 TEMPO SHRA=
201804101450 METAR COR EGLL 101450Z AUTO 07007KT 9000 BKN017 BKN021 OVC028
                        13/10 Q1002 NOSIG=
201804101420 METAR COR EGLL 101420Z AUTO 07007KT 050V110 9000 BKN015 OVC023
                        13/10 Q1002 NOSIG=
201804101350 METAR COR EGLL 101350Z AUTO 07006KT 020V110 7000 BKN013 13/10
                        Q1002 BECMG SCT013 BKN016=
201804101320 METAR COR EGLL 101320Z AUTO 06006KT 020V080 7000 BKN012 13/10
                        Q1002 BECMG SCT012 BKN018=
201804101250 METAR COR EGLL 101250Z AUTO 05005KT 010V080 7000 OVC011 12/10
                        Q1002 TEMPO SCT011 BKN016=
201804101220 METAR COR EGLL 101220Z AUTO 07005KT 030V120 7000 BKN010 12/10
                        Q1002 TEMPO SCT010 BKN015=
201804101150 METAR COR EGLL 101150Z AUTO 06005KT 030V110 6000 OVC009 11/09
                        Q1002 BECMG SCT009 BKN011=
201804101120 METAR COR EGLL 101120Z AUTO 06006KT 6000 OVC007 10/09 Q1002
                        TEMPO SCT008 BKN010=
201804101050 METAR COR EGLL 101050Z AUTO 06006KT 6000 OVC006 10/09 Q1001
                        TEMPO SCT006 BKN010=
201804101020 METAR COR EGLL 101020Z AUTO 07006KT 5000 HZ OVC006 09/08
                        Q1001 NOSIG=
201804100950 METAR COR EGLL 100950Z AUTO 08006KT 040V100 7000 OVC005 09/08
                        Q1001 NOSIG=
201804100920 METAR COR EGLL 100920Z AUTO 05006KT 020V080 7000 OVC005 09/08
                        Q1000 NOSIG=
201804100850 METAR COR EGLL 100850Z AUTO 07006KT 040V110 6000 OVC005 09/08
                        Q1000 NOSIG=
201804100820 METAR COR EGLL 100820Z AUTO 05006KT 010V090 6000 OVC005 09/09
                        Q1000 NOSIG=
201804100750 METAR COR EGLL 100750Z AUTO 06006KT 6000 BKN005 OVC008 09/09
                        Q0999 NOSIG=
201804100720 METAR COR EGLL 100720Z AUTO 06005KT 6000 BKN006 OVC010 09/08
                        Q0999 NOSIG=
201804100650 METAR COR EGLL 100650Z AUTO 07005KT 6000 OVC006 09/08 Q0999
                        NOSIG=
201804100620 METAR COR EGLL 100620Z AUTO 07006KT 040V100 5000 BR OVC005
                        09/09 Q0999 RERA TEMPO BKN004=
201804100550 METAR COR EGLL 100550Z AUTO 06005KT 3600 RA BKN004 OVC010
                        09/09 Q0998 REDZ TEMPO -RADZ=
201804100520 METAR COR EGLL 100520Z AUTO 05005KT 3300 -RADZ BKN004 BKN011
                        OVC029 09/09 Q0998 RERA TEMPO RA=
201804100450 METAR COR EGLL 100450Z 05005KT 2600 RA BKN004 BKN017 OVC047
                        09/09 Q0998 RERA TEMPO -RADZ=
201804100420 METAR COR EGLL 100420Z AUTO 04004KT 2700 RA BKN004/// BKN017///
                        OVC047/// //////TCU 09/08 Q0999 REDZ
                        TEMPO -RADZ=
201804100350 METAR COR EGLL 100350Z AUTO 05003KT 3100 -RADZ BKN003 OVC036
                        09/08 Q0999 NOSIG=
201804100320 METAR COR EGLL 100320Z AUTO 07004KT 2800 -RA BKN003 BKN023
                        OVC032 08/08 Q0999 REDZ TEMPO RADZ=
201804100250 METAR COR EGLL 100250Z AUTO 06005KT 3200 -RADZ OVC003 08/08
                        Q0999 REDZ TEMPO RADZ=
201804100220 METAR COR EGLL 100220Z AUTO 06005KT 2300 DZ OVC003 08/08
                        Q0999 TEMPO -RADZ=
201804100150 METAR COR EGLL 100150Z AUTO 06004KT 2300 DZ BKN003 OVC048
                        09/08 Q1000 TEMPO -RADZ=
201804100120 METAR COR EGLL 100120Z AUTO 06004KT 2800 -RADZ BKN003 08/08
                        Q1000 TEMPO RADZ=
201804100050 METAR COR EGLL 100050Z AUTO 08006KT 3200 -RA BKN003 08/08
                        Q1000 TEMPO RADZ=
201804100020 METAR COR EGLL 100020Z AUTO 09005KT 2900 -RADZ BKN003 09/08
                        Q1001 TEMPO RADZ=
201804092350 METAR COR EGLL 092350Z AUTO 09007KT 3900 -RADZ OVC003 08/08
                        Q1001 TEMPO RADZ=
201804092320 METAR COR EGLL 092320Z AUTO 09008KT 3200 -RA BKN004 09/08
                        Q1001 TEMPO RADZ=
201804092250 METAR COR EGLL 092250Z AUTO 09008KT 2700 -RADZ BKN003 09/09
                        Q1001 RERA TEMPO RADZ=
201804092220 METAR COR EGLL 092220Z AUTO 09007KT 2800 -RA BKN003 09/09
                        Q1001 REDZ TEMPO RADZ=
201804092150 METAR COR EGLL 092150Z AUTO 08006KT 2900 -RADZ BKN003 BKN035
                        09/09 Q1001 TEMPO RADZ=
201804092120 METAR COR EGLL 092120Z AUTO 08007KT 2700 -RA SCT003 SCT031
                        BKN042 09/09 Q1002 RERA TEMPO RA
                        BKN003=
201804092050 METAR COR EGLL 092050Z AUTO 09009KT 2800 -RADZ BKN003 09/09
                        Q1002 REDZ TEMPO RADZ=
201804092020 METAR COR EGLL 092020Z AUTO 09009KT 2600 DZ BKN003 OVC007
                        09/09 Q1002 NOSIG=
201804091950 METAR COR EGLL 091950Z AUTO 09010KT 2900 DZ OVC003 09/09
                        Q1002 NOSIG=
201804091920 METAR COR EGLL 091920Z AUTO 09010KT 2500 DZ BKN003 OVC008
                        09/09 Q1002 NOSIG=
201804091850 METAR COR EGLL 091850Z AUTO 09008KT 2400 -RADZ BKN003 OVC007
                        09/09 Q1003 REDZ TEMPO RADZ=
201804091820 METAR COR EGLL 091820Z AUTO 09008KT 2100 -RADZ OVC003 09/09
                        Q1003 REDZ TEMPO RADZ=
201804091750 METAR COR EGLL 091750Z AUTO 09009KT 2500 -RADZ OVC003 09/09
                        Q1003 TEMPO RADZ=
201804091720 METAR COR EGLL 091720Z AUTO 09008KT 2600 -DZ OVC003 09/09
                        Q1003 TEMPO RADZ=
201804091650 METAR COR EGLL 091650Z AUTO 09008KT 2600 BR OVC003 09/09
                        Q1004 NOSIG=
201804091620 METAR COR EGLL 091620Z AUTO 09008KT 3200 BR OVC003 09/09
                        Q1004 TEMPO DZ=
201804091550 METAR COR EGLL 091550Z AUTO 09008KT 4300 BR OVC004 10/09
                        Q1004 TEMPO DZ=
201804091520 METAR EGLL 091520Z AUTO 09007KT 3500 BR OVC004 10/09 Q1005
                        REDZ=
201804091450 METAR COR EGLL 091450Z 10008KT 2300 DZ OVC004 10/09 Q1005
                        NOSIG=
201804091420 METAR COR EGLL 091420Z 10008KT 2400 -DZ BKN004 09/09 Q1005
                        REDZ=
201804091350 METAR COR EGLL 091350Z 09007KT 2400 -RADZ OVC003 09/09 Q1006
                        REDZ TEMPO RADZ=
201804091320 METAR COR EGLL 091320Z 09008KT 3000 DZ OVC004 09/09 Q1006
                        TEMPO 5000 -DZ BKN005=
201804091250 METAR EGLL 091250Z AUTO 09007KT 5000 BR OVC005 09/09 Q1006=
201804091220 METAR COR EGLL 091220Z AUTO 07006KT 8000 -RA OVC005 09/09
                        Q1007 NOSIG=
201804091150 METAR EGLL 091150Z AUTO 07005KT 7000 -RA BKN005 OVC012 09/09
                        Q1007=
201804091120 METAR COR EGLL 091120Z AUTO 06005KT 4600 -DZ SCT004 OVC007
                        09/09 Q1007 RERA REDZ BECMG 6000
                        NSW=
201804091050 METAR COR EGLL 091050Z AUTO 06005KT 2200 RADZ BKN005 OVC009
                        09/08 Q1008 BECMG 6000 -RADZ=
201804091020 METAR COR EGLL 091020Z AUTO 06007KT 5000 -RADZ OVC005 08/08
                        Q1008 RERA REDZ NOSIG=
201804090950 METAR COR EGLL 090950Z AUTO 06007KT 3500 -RADZ BKN005 BKN008
                        OVC031 08/08 Q1008 REDZ TEMPO RADZ=
201804090920 METAR COR EGLL 090920Z AUTO 05006KT 3200 DZ OVC004 08/08
                        Q1008 BECMG BKN005=
201804090850 METAR COR EGLL 090850Z AUTO 04005KT 3300 -RADZ BKN005 OVC014
                        08/08 Q1009 TEMPO RADZ=
201804090820 METAR COR EGLL 090820Z AUTO 04005KT 4300 -RADZ BKN005 OVC013
                        08/08 Q1009 RERA TEMPO RADZ=
201804090750 METAR COR EGLL 090750Z AUTO 04004KT 3800 RA BKN005 OVC039
                        08/08 Q1009 NOSIG=
201804090720 METAR COR EGLL 090720Z AUTO 04005KT 010V070 3800 RA BKN005
                        OVC015 08/08 Q1009 NOSIG=
201804090650 METAR COR EGLL 090650Z AUTO 04005KT 360V070 4600 -RA BKN005
                        OVC011 08/08 Q1009 NOSIG=
201804090620 METAR COR EGLL 090620Z AUTO 02005KT 330V050 4600 -DZ BKN005
                        OVC013 08/08 Q1009 NOSIG=
201804090550 METAR COR EGLL 090550Z AUTO 04005KT 010V080 3600 -RADZ OVC005
                        08/08 Q1009 TEMPO BKN004=
201804090520 METAR COR EGLL 090520Z AUTO 02004KT 350V060 3200 -RADZ OVC005
                        09/08 Q1009 NOSIG=
201804090450 METAR COR EGLL 090450Z AUTO 04005KT 360V070 3200 -RADZ OVC004
                        09/08 Q1009 REDZ TEMPO BKN005=
201804090420 METAR COR EGLL 090420Z AUTO 03005KT 360V060 2800 -RA OVC005
                        09/08 Q1009 NOSIG=
201804090350 METAR COR EGLL 090350Z AUTO 04004KT 2800 -RADZ OVC005 09/08
                        Q1009 NOSIG=
201804090320 METAR COR EGLL 090320Z AUTO 04004KT 360V070 2700 DZ BKN004
                        OVC007 09/08 Q1009 TEMPO BKN005=
201804090250 METAR COR EGLL 090250Z AUTO 03004KT 360V060 2600 -RADZ OVC004
                        09/08 Q1009 TEMPO BKN006=
201804090220 METAR COR EGLL 090220Z AUTO 03005KT 350V070 2800 BR OVC004
                        09/09 Q1009 TEMPO -RA BKN006=
201804090150 METAR COR EGLL 090150Z AUTO 02005KT 350V060 3300 BR OVC006
                        09/09 Q1010 NOSIG=
201804090120 METAR COR EGLL 090120Z AUTO 02004KT 340V050 3500 BR OVC006
                        09/09 Q1010 NOSIG=
201804090050 METAR COR EGLL 090050Z AUTO VRB02KT 3700 BR BKN006 09/09
                        Q1010 NOSIG=
201804090020 METAR COR EGLL 090020Z AUTO VRB03KT 3700 BR SCT006 09/09
                        Q1010 TEMPO BKN006=
201804082350 METAR COR EGLL 082350Z AUTO 02004KT 340V060 4600 BR SCT007
                        09/09 Q1010 TEMPO BKN007=
201804082320 METAR COR EGLL 082320Z AUTO 02004KT 340V060 4800 -DZ SCT007
                        SCT045 10/09 Q1010 TEMPO BKN007=
201804082250 METAR COR EGLL 082250Z AUTO 03004KT 350V060 4600 -RADZ BKN008
                        10/09 Q1010 NOSIG=
201804082220 METAR COR EGLL 082220Z AUTO VRB03KT 4700 -RADZ SCT008 BKN019
                        BKN031 10/09 Q1010 TEMPO BKN008=
201804082150 METAR COR EGLL 082150Z AUTO 03004KT 350V070 4700 -RADZ FEW008
                        SCT024 10/09 Q1010 RERA TEMPO BKN008=
201804082120 METAR COR EGLL 082120Z AUTO 02005KT 350V060 4200 -RA FEW021
                        SCT031 10/10 Q1010 TEMPO BKN008=
201804082050 METAR COR EGLL 082050Z AUTO 03004KT 360V060 5000 -RA FEW022
                        SCT047 10/10 Q1010 RERA REDZ TEMPO
                        BKN010=
201804082020 METAR COR EGLL 082020Z AUTO 01005KT 340V040 4700 -RADZ SCT011
                        BKN019 BKN039 10/10 Q1010 TEMPO BKN014=
201804081950 METAR COR EGLL 081950Z AUTO 02004KT 340V060 6000 -RA BKN010
                        OVC016 10/10 Q1009 BECMG BKN008=
201804081920 METAR COR EGLL 081920Z AUTO 03005KT 350V060 6000 -RA BKN009
                        OVC013 11/10 Q1009 TEMPO 4000 RA=
201804081850 METAR COR EGLL 081850Z AUTO 02003KT 9000 -RA OVC010 11/10
                        Q1009 TEMPO 4000 RADZ=
201804081820 METAR COR EGLL 081820Z AUTO VRB03KT 9999 -RA BKN013 OVC025
                        11/10 Q1009 TEMPO 4000 RADZ=
201804081750 METAR COR EGLL 081750Z AUTO VRB03KT 8000 -RA BKN011 OVC019
                        11/10 Q1008 TEMPO 4000 RADZ=
201804081720 METAR COR EGLL 081720Z AUTO 04004KT 360V070 8000 -RA BKN008
                        OVC016 11/10 Q1008 TEMPO FEW008 BKN012=
201804081650 METAR COR EGLL 081650Z AUTO 03004KT 350V070 7000 -RA BKN009
                        BKN014 11/11 Q1008 TEMPO 4000 RADZ=
201804081620 METAR COR EGLL 081620Z AUTO 04005KT 350V090 7000 -RA FEW011
                        BKN019 BKN034 11/10 Q1008 TEMPO 4000
                        RADZ=
201804081550 METAR COR EGLL 081550Z AUTO 04004KT 6000 -RA SCT008 OVC016
                        11/10 Q1008 TEMPO 4000 RADZ=
201804081520 METAR COR EGLL 081520Z AUTO VRB03KT 5000 -RA FEW007 BKN013
                        OVC022 11/10 Q1008 TEMPO 4000 RADZ=
201804081450 METAR COR EGLL 081450Z AUTO VRB03KT 5000 -RADZ FEW008 BKN017
                        OVC023 11/10 Q1008 TEMPO 4000 RADZ=
201804081420 METAR COR EGLL 081420Z AUTO VRB03KT 5000 -RADZ SCT008 BKN013
                        OVC023 11/10 Q1008 TEMPO 4000 RADZ=
201804081350 METAR COR EGLL 081350Z AUTO VRB03KT 6000 -RA SCT008 SCT014
                        BKN027 11/10 Q1007 TEMPO 4000 RADZ
                        BKN014=
201804081320 METAR COR EGLL 081320Z AUTO VRB02KT 6000 -RA SCT009 BKN025
                        OVC036 11/10 Q1008 TEMPO 4000 RADZ
                        BKN010=
201804081250 METAR COR EGLL 081250Z AUTO VRB01KT 7000 -RA SCT006 BKN024
                        OVC030 11/10 Q1008 RERA TEMPO BKN014=
201804081220 METAR COR EGLL 081220Z AUTO 30002KT 4200 RA SCT005 BKN010
                        BKN027 10/10 Q1007 TEMPO BKN006=
201804081150 METAR COR EGLL 081150Z AUTO VRB02KT 4000 -RADZ FEW005 BKN016
                        BKN027 10/10 Q1007 TEMPO BKN010=
201804081120 METAR COR EGLL 081120Z AUTO 29003KT 3400 -RA SCT005 BKN009
                        OVC014 10/10 Q1008 RERA REDZ NOSIG=
201804081050 METAR COR EGLL 081050Z AUTO VRB02KT 2900 -RADZ BKN004 BKN008
                        OVC012 10/10 Q1007 REDZ TEMPO 3000
                        RADZ BKN008=
201804081020 METAR COR EGLL 081020Z AUTO 20001KT 3300 -RA BKN005 OVC009
                        10/10 Q1007 NOSIG=
201804080950 METAR COR EGLL 080950Z AUTO 15002KT 3800 BR OVC005 10/10
                        Q1007 NOSIG=
201804080920 METAR COR EGLL 080920Z AUTO VRB02KT 4500 BR OVC005 10/10
                        Q1007 NOSIG=
201804080850 METAR COR EGLL 080850Z AUTO 14004KT 110V210 3700 -RADZ OVC005
                        10/09 Q1007 REDZ NOSIG=
201804080820 METAR COR EGLL 080820Z AUTO VRB03KT 2800 DZ BKN006 OVC009
                        09/09 Q1008 TEMPO 3500 -DZ=
201804080750 METAR COR EGLL 080750Z AUTO VRB03KT 3800 BR OVC005 10/09
                        Q1007 BECMG SCT005 BKN010=
201804080720 METAR COR EGLL 080720Z AUTO 23003KT 3800 -RA BKN004 OVC010
                        09/09 Q1007 BECMG FEW004 BKN010=
201804080650 METAR COR EGLL 080650Z AUTO 22005KT 3400 -RADZ BKN004 OVC011
                        09/09 Q1007 BECMG SCT004 BKN011=
201804080620 METAR COR EGLL 080620Z AUTO 18004KT 140V250 3500 -RADZ BKN005
                        OVC011 09/09 Q1007 RERA REDZ TEMPO
                        BKN004=
201804080550 METAR COR EGLL 080550Z AUTO 16004KT 120V220 3200 DZ BKN006
                        OVC010 09/09 Q1007 TEMPO BKN004=
201804080520 METAR COR EGLL 080520Z AUTO 17003KT 3400 RA BKN007 OVC010
                        09/09 Q1007 REDZ NOSIG=
201804080450 METAR COR EGLL 080450Z AUTO 19005KT 150V240 3900 -RADZ BKN007
                        OVC010 09/09 Q1007 TEMPO BKN004=
201804080420 METAR COR EGLL 080420Z AUTO VRB02KT 4200 -RADZ BKN006 BKN019
                        09/09 Q1007 TEMPO BKN004=
201804080350 METAR COR EGLL 080350Z AUTO 16004KT 4800 -RA BKN020 BKN024
                        09/09 Q1007 RERA TEMPO 6000=
201804080320 METAR COR EGLL 080320Z AUTO 17003KT 6000 -RA SCT007 BKN019
                        09/08 Q1007 TEMPO 4000 BKN006=
201804080250 METAR COR EGLL 080250Z AUTO 20001KT 7000 OVC007 09/09 Q1007
                        TEMPO 4000 -RA=
201804080220 METAR COR EGLL 080220Z AUTO 22003KT 7000 BKN007 09/08 Q1007
                        NOSIG=
201804080150 METAR COR EGLL 080150Z AUTO 19004KT 8000 BKN007 09/08 Q1007
                        NOSIG=
201804080120 METAR COR EGLL 080120Z AUTO 19002KT 8000 BKN008 OVC011 09/09
                        Q1007 NOSIG=
201804080050 METAR COR EGLL 080050Z AUTO 17004KT 7000 BKN009 09/08 Q1007
                        TEMPO SCT009=
201804080020 METAR COR EGLL 080020Z AUTO 21004KT 7000 FEW010 10/09 Q1008
                        NOSIG=
201804072350 METAR COR EGLL 072350Z AUTO 21004KT 7000 SCT049 10/09 Q1008
                        NOSIG=
201804072320 METAR COR EGLL 072320Z AUTO 21005KT 9000 NCD 10/09 Q1008
                        NOSIG=
201804072250 METAR COR EGLL 072250Z AUTO 22005KT 9999 NCD 10/09 Q1008
                        NOSIG=
201804072220 METAR COR EGLL 072220Z AUTO 23006KT 180V260 9999 NCD 10/09
                        Q1008 NOSIG=
201804072150 METAR COR EGLL 072150Z AUTO 23006KT 180V270 8000 NCD 10/09
                        Q1007 NOSIG=
201804072120 METAR COR EGLL 072120Z AUTO 23006KT 180V270 9999 NCD 10/09
                        Q1007 NOSIG=
201804072050 METAR COR EGLL 072050Z AUTO 21009KT 170V250 9999 NCD 11/09
                        Q1008 NOSIG=
201804072020 METAR COR EGLL 072020Z AUTO 21009KT 190V250 9999 NCD 11/09
                        Q1008 NOSIG=
201804071950 METAR COR EGLL 071950Z AUTO 20010KT 180V240 9999 NCD 12/09
                        Q1007 NOSIG=
201804071920 METAR COR EGLL 071920Z AUTO 18009KT 150V250 9000 FEW028 12/09
                        Q1007 NOSIG=
201804071850 METAR COR EGLL 071850Z AUTO 18010G20KT 160V240 9999 SCT027
                        12/09 Q1007 NOSIG=
201804071820 METAR COR EGLL 071820Z AUTO 19012KT 150V240 9999 FEW031 12/09
                        Q1006 NOSIG=
201804071750 METAR COR EGLL 071750Z AUTO 20012KT 170V250 9999 NCD 13/09
                        Q1006 NOSIG=
201804071720 METAR COR EGLL 071720Z AUTO 19009KT 160V240 9999 NCD 14/09
                        Q1005 NOSIG=
201804071650 METAR COR EGLL 071650Z AUTO 21009KT 170V240 9999 NCD 15/09
                        Q1005 NOSIG=
201804071620 METAR COR EGLL 071620Z AUTO 20010KT 160V240 9999 NCD 15/10
                        Q1005 NOSIG=
201804071550 METAR COR EGLL 071550Z AUTO 20010KT 160V240 9999 NCD 15/10
                        Q1005 NOSIG=
201804071520 METAR COR EGLL 071520Z AUTO 20009KT 160V240 9999 FEW026 16/10
                        Q1004 NOSIG=
201804071450 METAR COR EGLL 071450Z AUTO 18011KT 150V220 9999 SCT021 15/10
                        Q1004 NOSIG=
201804071420 METAR COR EGLL 071420Z AUTO 19013KT 170V230 9999 BKN020 15/11
                        Q1004 NOSIG=
201804071350 METAR COR EGLL 071350Z AUTO 19014KT 9999 OVC019 15/10 Q1004
                        NOSIG=
201804071320 METAR COR EGLL 071320Z AUTO 19012KT 160V230 9999 OVC021 15/10
                        Q1004 NOSIG=
201804071250 METAR COR EGLL 071250Z AUTO 19014KT 9999 BKN023 OVC027 15/10
                        Q1004 NOSIG=
201804071220 METAR COR EGLL 071220Z AUTO 18014KT 9999 OVC026 16/10 Q1004
                        NOSIG=
201804071150 METAR COR EGLL 071150Z AUTO 18016KT 9999 BKN031 16/10 Q1004
                        NOSIG=
201804071120 METAR COR EGLL 071120Z AUTO 18015KT 9999 FEW028 SCT033 17/11
                        Q1004 NOSIG=
201804071050 METAR COR EGLL 071050Z AUTO 19015KT 9999 FEW047 17/10 Q1004
                        NOSIG=
201804071020 METAR COR EGLL 071020Z AUTO 19012KT 9999 NCD 17/11 Q1004
                        NOSIG=
201804070950 METAR COR EGLL 070950Z AUTO 16011KT 9999 NCD 15/10 Q1004
                        NOSIG=
201804070920 METAR COR EGLL 070920Z AUTO 16008KT 9999 NCD 14/10 Q1004
                        NOSIG=
201804070850 METAR COR EGLL 070850Z AUTO 16006KT 140V200 9999 NCD 13/09
                        Q1004 NOSIG=
201804070820 METAR COR EGLL 070820Z AUTO 13008KT 9999 NCD 12/08 Q1004
                        NOSIG=
201804070750 METAR COR EGLL 070750Z AUTO 09006KT 9999 NCD 12/08 Q1004
                        NOSIG=
201804070720 METAR COR EGLL 070720Z AUTO 09007KT 9999 NCD 11/08 Q1004
                        NOSIG=
201804070650 METAR COR EGLL 070650Z AUTO 09008KT 9999 NCD 10/07 Q1004
                        NOSIG=
201804070620 METAR COR EGLL 070620Z AUTO 09007KT 9999 NCD 10/07 Q1004
                        NOSIG=
201804070550 METAR COR EGLL 070550Z AUTO 06005KT 9999 NCD 09/07 Q1004
                        NOSIG=
201804070520 METAR COR EGLL 070520Z AUTO 07005KT 9999 NCD 09/07 Q1004
                        NOSIG=
201804070450 METAR COR EGLL 070450Z AUTO 04004KT 9999 NCD 10/07 Q1004
                        NOSIG=
201804070420 METAR COR EGLL 070420Z AUTO 04004KT 9999 NCD 10/07 Q1005
                        NOSIG=
201804070350 METAR COR EGLL 070350Z AUTO 05003KT 9999 NCD 09/07 Q1005
                        NOSIG=
201804070320 METAR COR EGLL 070320Z AUTO 03002KT 9999 NCD 09/07 Q1005
                        NOSIG=
201804070250 METAR COR EGLL 070250Z AUTO 05003KT 9999 NCD 09/06 Q1005
                        NOSIG=
201804070220 METAR COR EGLL 070220Z AUTO 04003KT 9999 NCD 09/06 Q1005
                        NOSIG=
201804070150 METAR COR EGLL 070150Z AUTO 03003KT 9999 NCD 09/06 Q1006
                        NOSIG=
201804070120 METAR COR EGLL 070120Z AUTO 05004KT 9999 NCD 09/06 Q1006
                        NOSIG=
201804070050 METAR COR EGLL 070050Z AUTO 06003KT 9999 NCD 09/06 Q1006
                        NOSIG=
201804070020 METAR COR EGLL 070020Z AUTO VRB02KT 9999 NCD 09/06 Q1006
                        NOSIG=
201804062350 METAR COR EGLL 062350Z AUTO VRB02KT 9999 NCD 09/06 Q1006
                        NOSIG=
201804062320 METAR COR EGLL 062320Z AUTO 09004KT 9999 NCD 09/06 Q1007
                        NOSIG=
201804062250 METAR COR EGLL 062250Z AUTO 09004KT 9999 NCD 09/06 Q1007
                        NOSIG=
201804062220 METAR COR EGLL 062220Z AUTO 12004KT 9999 NCD 10/06 Q1007
                        NOSIG=
201804062150 METAR COR EGLL 062150Z AUTO 12004KT 9999 NCD 10/06 Q1007
                        NOSIG=
201804062120 METAR COR EGLL 062120Z AUTO 13005KT 9999 NCD 10/06 Q1007
                        NOSIG=
201804062050 METAR COR EGLL 062050Z AUTO VRB03KT 9999 NCD 11/06 Q1007
                        NOSIG=
201804062020 METAR COR EGLL 062020Z AUTO 07002KT 9999 NCD 12/06 Q1007
                        NOSIG=
201804061950 METAR COR EGLL 061950Z AUTO 16005KT 9999 NCD 12/06 Q1007
                        NOSIG=
201804061920 METAR COR EGLL 061920Z AUTO 18004KT 9999 NCD 13/06 Q1007
                        NOSIG=
201804061850 METAR COR EGLL 061850Z AUTO 18005KT 9999 NCD 14/06 Q1007
                        NOSIG=
201804061820 METAR COR EGLL 061820Z AUTO 20007KT 9999 NCD 14/06 Q1007
                        NOSIG=
201804061750 METAR COR EGLL 061750Z AUTO 20008KT 9999 NCD 15/06 Q1007
                        NOSIG=
201804061720 METAR COR EGLL 061720Z AUTO 16008KT 9999 NCD 15/06 Q1007
                        NOSIG=
201804061650 METAR COR EGLL 061650Z AUTO 15008KT 9999 NCD 15/06 Q1007
                        NOSIG=
201804061620 METAR COR EGLL 061620Z AUTO 15012KT 9999 NCD 16/06 Q1007
                        NOSIG=
201804061550 METAR COR EGLL 061550Z AUTO 16011KT 9999 NCD 16/06 Q1007
                        NOSIG=
201804061520 METAR COR EGLL 061520Z AUTO 16014KT 9999 NCD 16/05 Q1007
                        NOSIG=
201804061450 METAR COR EGLL 061450Z AUTO 17016KT 9999 NCD 16/05 Q1007
                        NOSIG=
201804061420 METAR COR EGLL 061420Z AUTO 16018KT 130V190 9999 NCD 16/05
                        Q1007 NOSIG=
201804061350 METAR COR EGLL 061350Z AUTO 16016KT 9999 NCD 16/05 Q1008
                        NOSIG=
201804061320 METAR COR EGLL 061320Z AUTO 16017KT 9999 NCD 16/05 Q1008
                        NOSIG=
201804061250 METAR COR EGLL 061250Z AUTO 16016KT 9999 NCD 15/05 Q1008
                        NOSIG=
201804061220 METAR COR EGLL 061220Z AUTO 14017KT 9999 NCD 15/05 Q1009
                        NOSIG=
201804061150 METAR COR EGLL 061150Z AUTO 15013KT 9999 NCD 14/04 Q1009
                        NOSIG=
201804061120 METAR COR EGLL 061120Z AUTO 14015KT 9999 NCD 13/04 Q1010
                        NOSIG=
201804061050 METAR COR EGLL 061050Z AUTO 14014KT 9999 NCD 12/04 Q1010
                        NOSIG=
201804061020 METAR COR EGLL 061020Z AUTO 15014KT 9999 NCD 12/04 Q1011
                        NOSIG=
201804060950 METAR COR EGLL 060950Z AUTO 14014KT 9999 NCD 11/04 Q1011
                        NOSIG=
201804060920 METAR COR EGLL 060920Z AUTO 13009KT 9999 NCD 11/05 Q1012
                        NOSIG=
201804060850 METAR COR EGLL 060850Z AUTO 13009KT 9999 NCD 09/04 Q1012
                        NOSIG=
201804060820 METAR COR EGLL 060820Z AUTO 14011KT 9999 NCD 08/04 Q1012
                        NOSIG=
201804060750 METAR COR EGLL 060750Z AUTO 13011KT 9999 NCD 08/04 Q1012
                        NOSIG=
201804060720 METAR COR EGLL 060720Z AUTO 12009KT 9999 NCD 07/04 Q1013
                        NOSIG=
201804060650 METAR COR EGLL 060650Z AUTO 11008KT 9999 NCD 07/04 Q1013
                        NOSIG=
201804060620 METAR COR EGLL 060620Z AUTO 10008KT 9999 NCD 06/04 Q1013
                        NOSIG=
201804060550 METAR COR EGLL 060550Z AUTO 12011KT 9999 NCD 06/03 Q1013
                        NOSIG=
201804060520 METAR COR EGLL 060520Z AUTO 12009KT 9999 NCD 05/03 Q1014
                        NOSIG=
201804060450 METAR COR EGLL 060450Z AUTO 10008KT 9999 NCD 05/03 Q1014
                        NOSIG=
201804060420 METAR COR EGLL 060420Z AUTO 11009KT 9999 NCD 05/03 Q1014
                        NOSIG=
201804060350 METAR COR EGLL 060350Z AUTO 11010KT 9999 NCD 05/03 Q1014
                        NOSIG=
201804060320 METAR COR EGLL 060320Z AUTO 12011KT 9999 NCD 05/03 Q1015
                        NOSIG=
201804060250 METAR COR EGLL 060250Z AUTO 13009KT 9999 NCD 06/03 Q1015
                        NOSIG=
201804060220 METAR COR EGLL 060220Z AUTO 13008KT 9999 NCD 06/03 Q1016
                        NOSIG=
201804060150 METAR COR EGLL 060150Z AUTO 13010KT 9999 NCD 05/03 Q1016
                        NOSIG=
201804060120 METAR COR EGLL 060120Z AUTO 13009KT 9999 NCD 04/02 Q1016
                        NOSIG=
201804060050 METAR COR EGLL 060050Z AUTO 13008KT 9999 NCD 05/02 Q1017
                        NOSIG=
201804060020 METAR COR EGLL 060020Z AUTO 12008KT 9999 NCD 03/02 Q1017
                        NOSIG=
201804052350 METAR COR EGLL 052350Z AUTO 13006KT 9999 NCD 04/02 Q1017
                        NOSIG=
201804052320 METAR COR EGLL 052320Z AUTO 13006KT 9999 NCD 04/01 Q1018
                        NOSIG=
201804052250 METAR COR EGLL 052250Z AUTO 14006KT 9999 NCD 05/02 Q1018
                        NOSIG=
201804052220 METAR COR EGLL 052220Z AUTO 14007KT 9999 NCD 05/01 Q1018
                        NOSIG=
201804052150 METAR COR EGLL 052150Z AUTO 14007KT 9999 NCD 06/01 Q1018
                        NOSIG=
201804052120 METAR COR EGLL 052120Z AUTO 14008KT 9999 NCD 06/00 Q1018
                        NOSIG=
201804052050 METAR COR EGLL 052050Z AUTO 15009KT 9999 NCD 07/00 Q1018
                        NOSIG=
201804052020 METAR COR EGLL 052020Z AUTO 15008KT 9999 NCD 07/01 Q1018
                        NOSIG=
201804051950 METAR COR EGLL 051950Z AUTO 16009KT 9999 NCD 07/00 Q1018
                        NOSIG=
201804051920 METAR COR EGLL 051920Z AUTO 18009KT 9999 NCD 07/M00 Q1018
                        NOSIG=
201804051850 METAR COR EGLL 051850Z AUTO 18010KT 9999 NCD 08/00 Q1018
                        NOSIG=
201804051820 METAR COR EGLL 051820Z AUTO 18011KT 9999 NCD 09/01 Q1018
                        NOSIG=
201804051750 METAR COR EGLL 051750Z AUTO 18011KT 150V220 9999 NCD 09/01
                        Q1018 NOSIG=
201804051720 METAR COR EGLL 051720Z AUTO 19010KT 160V230 9999 NCD 10/02
                        Q1018 NOSIG=
201804051650 METAR COR EGLL 051650Z AUTO 20011KT 170V240 9999 NCD 11/02
                        Q1017 NOSIG=
201804051620 METAR COR EGLL 051620Z 20012KT 170V240 9999 FEW040 12/01
                        Q1017 NOSIG=
201804051550 METAR COR EGLL 051550Z 19009KT 150V250 9999 FEW040 12/M01
                        Q1018 NOSIG=
201804051520 METAR COR EGLL 051520Z 18005KT 120V240 9999 FEW040 13/M01
                        Q1018 NOSIG=
201804051450 METAR COR EGLL 051450Z AUTO 23008KT 180V290 9999 NCD 13/M02
                        Q1018 NOSIG=
201804051420 METAR COR EGLL 051420Z AUTO 22006KT 130V270 9999 NCD 12/M02
                        Q1018 NOSIG=
201804051350 METAR COR EGLL 051350Z AUTO 19007KT 110V250 9999 NCD 12/M03
                        Q1018 NOSIG=
201804051320 METAR COR EGLL 051320Z 20005KT 140V280 CAVOK 12/M02 Q1018
                        NOSIG=
201804051250 METAR COR EGLL 051250Z AUTO VRB04KT 9999 NCD 11/M02 Q1018
                        NOSIG=
201804051220 METAR COR EGLL 051220Z AUTO VRB03KT 9999 NCD 10/M04 Q1017
                        NOSIG=
201804051150 METAR COR EGLL 051150Z AUTO 22005KT 140V260 9999 NCD 10/M01
                        Q1017 NOSIG=
201804051120 METAR COR EGLL 051120Z AUTO 27004KT 220V330 9999 NCD 09/M00
                        Q1017 NOSIG=
201804051050 METAR COR EGLL 051050Z AUTO 24007KT 210V280 9999 NCD 09/M00
                        Q1017 NOSIG=
201804051020 METAR COR EGLL 051020Z AUTO 24007KT 200V290 9999 NCD 09/00
                        Q1017 NOSIG=
201804050950 METAR COR EGLL 050950Z AUTO 29005KT 220V020 9999 FEW035 08/01
                        Q1016 NOSIG=
201804050920 METAR COR EGLL 050920Z AUTO 34006KT 280V030 9999 NCD 08/00
                        Q1016 NOSIG=
201804050850 METAR COR EGLL 050850Z AUTO 32007KT 9999 NCD 07/M00 Q1015
                        NOSIG=
201804050820 METAR COR EGLL 050820Z AUTO 30008KT 270V340 9999 NCD 07/00
                        Q1015 NOSIG=
201804050750 METAR COR EGLL 050750Z AUTO 31008KT 9999 NCD 06/00 Q1014
                        NOSIG=
201804050720 METAR COR EGLL 050720Z AUTO 32006KT 290V360 9999 NCD 06/01
                        Q1013 NOSIG=
201804050650 METAR COR EGLL 050650Z AUTO 32007KT 280V360 9999 NCD 05/01
                        Q1013 NOSIG=
201804050620 METAR COR EGLL 050620Z AUTO 30005KT 9999 NCD 05/01 Q1012
                        NOSIG=
201804050550 METAR COR EGLL 050550Z AUTO 30006KT 280V340 9999 SCT035 05/01
                        Q1011 NOSIG=
201804050520 METAR COR EGLL 050520Z AUTO 30008KT 270V330 9999 BKN029 05/01
                        Q1010 NOSIG=
201804050450 METAR COR EGLL 050450Z AUTO 31010KT 9999 SCT025 BKN032 05/01
                        Q1010 NOSIG=
201804050420 METAR COR EGLL 050420Z AUTO 31011KT 9999 BKN023 OVC029 05/02
                        Q1009 NOSIG=
201804050350 METAR COR EGLL 050350Z AUTO 30008KT 9999 OVC024 05/02 Q1008
                        NOSIG=
201804050320 METAR COR EGLL 050320Z AUTO 30010KT 9999 SCT023 BKN031 05/02
                        Q1007 NOSIG=
201804050250 METAR COR EGLL 050250Z AUTO 32010KT 9999 FEW024 SCT029 OVC034
                        05/02 Q1006 NOSIG=
201804050220 METAR COR EGLL 050220Z AUTO 30013KT 9999 -RA BKN022 OVC034
                        06/02 Q1005 NOSIG=
201804050150 METAR COR EGLL 050150Z AUTO 31013KT 9999 SCT021 OVC027 06/02
                        Q1004 NOSIG=
201804050120 METAR COR EGLL 050120Z AUTO 28011KT 9999 BKN023 OVC027 07/03
                        Q1003 NOSIG=
201804050050 METAR COR EGLL 050050Z AUTO 27012KT 9999 OVC023 06/03 Q1003
                        NOSIG=
201804050020 METAR COR EGLL 050020Z AUTO 27013KT 9999 BKN024 06/03 Q1002
                        NOSIG=
201804042350 METAR COR EGLL 042350Z AUTO 28014KT 9999 BKN025 OVC029 07/03
                        Q1001 NOSIG=
201804042320 METAR COR EGLL 042320Z AUTO 27015KT 9999 BKN025 07/03 Q1001
                        NOSIG=
201804042250 METAR COR EGLL 042250Z AUTO 27017KT 9999 BKN024 07/03 Q1000
                        NOSIG=
201804042220 METAR COR EGLL 042220Z AUTO 27017KT 9999 OVC021 08/04 Q0999
                        NOSIG=
201804042150 METAR COR EGLL 042150Z AUTO 28015KT 9999 BKN021 OVC028 08/05
                        Q0999 NOSIG=
201804042120 METAR COR EGLL 042120Z AUTO 27019KT 9999 SCT022 BKN027 OVC032
                        09/06 Q0998 TEMPO BKN014=
201804042050 METAR COR EGLL 042050Z 27019KT 9999 SCT018 OVC031 10/07 Q0997
                        TEMPO BKN014=
201804042020 METAR COR EGLL 042020Z 25013KT 9999 BKN017 BKN030 10/08 Q0997
                        TEMPO -SHRA BKN014=
201804041950 METAR COR EGLL 041950Z 24012KT 9999 FEW024 BKN036 10/08 Q0996
                        NOSIG=
201804041920 METAR COR EGLL 041920Z AUTO 24012KT 9999 FEW039 10/08 Q0995
                        NOSIG=
201804041850 METAR COR EGLL 041850Z AUTO 23010KT 9999 NCD 10/08 Q0994
                        NOSIG=
201804041820 METAR COR EGLL 041820Z AUTO 23013KT 9999 BKN047 10/08 Q0994
                        NOSIG=
201804041750 METAR COR EGLL 041750Z AUTO 22014KT 9999 BKN041 10/09 Q0993
                        NOSIG=
201804041720 METAR COR EGLL 041720Z AUTO 22013KT 190V250 9999 -RA SCT014///
                        SCT023/// BKN042/// //////TCU 10/09
                        Q0993 NOSIG=
201804041650 METAR COR EGLL 041650Z AUTO 21015KT 9999 -RA FEW016 BKN034
                        BKN046 10/09 Q0993 TEMPO SHRA=
201804041620 METAR COR EGLL 041620Z AUTO 21015KT 170V240 8000 -RA SCT016
                        BKN023 BKN041 10/09 Q0992 TEMPO 4000
                        SHRA BKN012=
201804041550 METAR COR EGLL 041550Z AUTO 20017KT 170V240 9999 -RA BKN018
                        BKN031 BKN038 11/08 Q0992 TEMPO 4000
                        SHRA BKN012=
201804041520 METAR COR EGLL 041520Z 21018KT 9999 -SHRA FEW017 BKN020 11/08
                        Q0992 TEMPO 4000 SHRA BKN012=
201804041450 METAR COR EGLL 041450Z AUTO 20018KT 9999 -RA BKN018/// BKN026///
                        BKN032/// //////TCU 11/08 Q0992 TEMPO
                        SHRA BKN012=
201804041420 METAR EGLL 041420Z AUTO 19017KT 170V230 9999 -RA SCT019///
                        BKN027/// BKN038/// //////TCU 10/08
                        Q0992=
201804041350 METAR COR EGLL 041350Z AUTO 18014G24KT 9999 SCT021/// BKN025///
                        BKN042/// //////TCU 11/08 Q0992 TEMPO
                        SHRA BKN012=
201804041320 METAR COR EGLL 041320Z AUTO 19015KT 9999 -RA BKN019 OVC043
                        10/08 Q0992 TEMPO SHRA BKN012=
201804041250 METAR COR EGLL 041250Z AUTO 20015KT 8000 -RA BKN017/// OVC043///
                        //////TCU 10/08 Q0992 TEMPO SHRA
                        BKN012=
201804041220 METAR COR EGLL 041220Z AUTO 20018G28KT 9999 -RA BKN019///
                        OVC033/// //////TCU 11/07 Q0992 TEMPO
                        SHRA BKN012=
201804041150 METAR COR EGLL 041150Z AUTO 19019KT 9999 -RA SCT019 BKN027
                        BKN033 11/08 Q0992 TEMPO 4000 SHRA
                        BKN012=
201804041120 METAR COR EGLL 041120Z AUTO 19020G34KT 9999 BKN024/// OVC029///
                        //////TCU 11/07 Q0992 TEMPO 4000
                        SHRA BKN012=
201804041050 METAR COR EGLL 041050Z AUTO 18021G31KT 9999 SCT025 BKN030
                        OVC049 11/06 Q0992 TEMPO 4000 SHRA
                        BKN012=
201804041020 METAR COR EGLL 041020Z AUTO 18018G29KT 9999 BKN025 BKN032
                        OVC048 11/07 Q0992 TEMPO 4000 SHRA
                        BKN012=
201804040950 METAR COR EGLL 040950Z AUTO 18017KT 9999 SCT023 BKN032 BKN043
                        11/07 Q0992 NOSIG=
201804040920 METAR COR EGLL 040920Z AUTO 19020KT 9999 SCT024 SCT029 BKN034
                        11/07 Q0993 NOSIG=
201804040850 METAR COR EGLL 040850Z AUTO 18017KT 150V210 9999 SCT025 SCT030
                        OVC037 11/07 Q0993 NOSIG=
201804040820 METAR COR EGLL 040820Z AUTO 18017G34KT 9999 SCT025 BKN033
                        11/07 Q0992 NOSIG=
201804040750 METAR COR EGLL 040750Z AUTO 17015KT 9999 FEW025 BKN039 11/07
                        Q0992 NOSIG=
201804040720 METAR COR EGLL 040720Z AUTO 17013KT 9999 BKN039 10/08 Q0992
                        NOSIG=
201804040650 METAR COR EGLL 040650Z AUTO 17011KT 9999 SCT042 09/07 Q0993
                        NOSIG=
201804040620 METAR COR EGLL 040620Z AUTO 15010KT 9999 SCT038 09/07 Q0993
                        TEMPO BKN014=
201804040550 METAR COR EGLL 040550Z AUTO 14008KT 9999 FEW021 08/07 Q0993
                        TEMPO BKN012=
201804040520 METAR COR EGLL 040520Z AUTO 14009KT 9999 BKN014 08/07 Q0993
                        TEMPO SCT014=
201804040450 METAR COR EGLL 040450Z AUTO 14010KT 9999 BKN015 BKN021 09/08
                        Q0993 TEMPO BKN012=
201804040420 METAR COR EGLL 040420Z AUTO 14009KT 9999 -RA FEW018 09/08
                        Q0994 NOSIG=
201804040350 METAR COR EGLL 040350Z AUTO 14009KT 9999 -RA SCT039/// //////TCU
                        09/08 Q0994 TEMPO SHRA=
201804040320 METAR COR EGLL 040320Z AUTO 15009KT 9999 -RA SCT041/// //////TCU
                        09/08 Q0994 TEMPO RA=
201804040250 METAR COR EGLL 040250Z AUTO 17011KT 9999 //////CB 09/07 Q0995
                        TEMPO SHRA=
201804040220 METAR COR EGLL 040220Z AUTO 16011KT 9999 -RA NCD 09/07 Q0995
                        TEMPO SHRA=
201804040150 METAR COR EGLL 040150Z AUTO 15007KT 9999 NCD 08/07 Q0995
                        TEMPO SHRA=
201804040120 METAR COR EGLL 040120Z AUTO 15008KT 9999 NCD 08/07 Q0995
                        NOSIG=
201804040050 METAR COR EGLL 040050Z AUTO 14006KT 9999 NCD 07/07 Q0995
                        NOSIG=
201804040020 METAR COR EGLL 040020Z AUTO 13006KT 9999 NCD 07/07 Q0995
                        NOSIG=
201804032350 METAR COR EGLL 032350Z AUTO 14005KT 9999 NCD 08/07 Q0995
                        NOSIG=
201804032320 METAR COR EGLL 032320Z AUTO 14005KT 9999 NCD 08/07 Q0995
                        NOSIG=
201804032250 METAR COR EGLL 032250Z AUTO 13004KT 9999 NCD 08/07 Q0996
                        NOSIG=
201804032220 METAR COR EGLL 032220Z AUTO 16005KT 130V220 9999 NCD 08/07
                        Q0996 NOSIG=
201804032150 METAR COR EGLL 032150Z AUTO 19007KT 150V240 9999 NCD 09/08
                        Q0996 NOSIG=
201804032120 METAR COR EGLL 032120Z AUTO 19008KT 160V250 9999 BKN044 09/08
                        Q0996 NOSIG=
201804032050 METAR COR EGLL 032050Z AUTO 20010KT 170V250 9999 FEW019 09/07
                        Q0996 NOSIG=
201804032020 METAR COR EGLL 032020Z AUTO 21011KT 9999 FEW019 10/07 Q0995
                        NOSIG=
201804031950 METAR COR EGLL 031950Z AUTO 21010KT 190V250 9999 FEW020 10/08
                        Q0995 NOSIG=
201804031920 METAR COR EGLL 031920Z AUTO 22011KT 9999 FEW022 SCT028 10/08
                        Q0995 NOSIG=
201804031850 METAR COR EGLL 031850Z AUTO 21011KT 9999 FEW022 SCT043 11/07
                        Q0995 NOSIG=
201804031820 METAR COR EGLL 031820Z AUTO 21014KT 170V240 9999 FEW025///
                        //////TCU 11/08 Q0995 NOSIG=
201804031750 METAR COR EGLL 031750Z AUTO 21014KT 9999 FEW045/// //////TCU
                        12/08 Q0994 NOSIG=
201804031720 METAR COR EGLL 031720Z AUTO 21011KT 180V250 9999 FEW026 12/08
                        Q0994 NOSIG=
201804031650 METAR COR EGLL 031650Z AUTO 21012KT 9999 SCT028 12/08 Q0994
                        NOSIG=
201804031620 METAR COR EGLL 031620Z AUTO 22013KT 9999 FEW031 12/07 Q0994
                        NOSIG=
201804031550 METAR COR EGLL 031550Z AUTO 23011KT 9999 FEW032 13/07 Q0994
                        NOSIG=
201804031520 METAR COR EGLL 031520Z AUTO 23014KT 9999 SCT027 SCT035 12/07
                        Q0994 NOSIG=
201804031450 METAR COR EGLL 031450Z AUTO 22013G24KT 190V250 9999 SCT029
                        BKN042 13/07 Q0994 NOSIG=
201804031420 METAR COR EGLL 031420Z AUTO 23014KT 9999 FEW031 SCT041 13/07
                        Q0994 NOSIG=
201804031350 METAR COR EGLL 031350Z 22013G24KT 9999 FEW035 13/08 Q0994
                        NOSIG=
201804031320 METAR COR EGLL 031320Z 21016KT 9999 FEW035 BKN040 13/08 Q0994
                        RESHRA NOSIG=
201804031250 METAR COR EGLL 031250Z 22012KT 9999 -SHRA SCT021CB BKN027
                        BKN034 13/09 Q0994 TEMPO SHRA=
201804031220 METAR COR EGLL 031220Z 21014KT 9999 -SHRA SCT022CB BKN030
                        14/09 Q0994 TEMPO SHRA=
201804031150 METAR COR EGLL 031150Z AUTO 21012KT 9999 SCT021 BKN028 BKN038
                        13/09 Q0994 TEMPO SHRA=
201804031120 METAR COR EGLL 031120Z AUTO 20012KT 170V230 9999 SCT018 BKN023
                        BKN033 13/10 Q0994 NOSIG=
201804031050 METAR COR EGLL 031050Z AUTO 21011KT 9999 SCT016 BKN020 BKN027
                        13/10 Q0994 NOSIG=
201804031020 METAR COR EGLL 031020Z AUTO 21012KT 180V240 9999 BKN016 BKN023
                        12/10 Q0994 NOSIG=
201804030950 METAR COR EGLL 030950Z AUTO 20014KT 7000 BKN014 OVC022 12/10
                        Q0994 TEMPO SHRA=
201804030920 METAR COR EGLL 030920Z AUTO 21013KT 9999 BKN014 BKN018 12/10
                        Q0994 TEMPO 4000 SHRA=
201804030850 METAR COR EGLL 030850Z AUTO 20012KT 180V240 9999 BKN013 12/10
                        Q0993 TEMPO 4000 SHRA BKN009=
201804030820 METAR COR EGLL 030820Z AUTO 20010KT 9999 BKN011 BKN016 11/10
                        Q0993 TEMPO SHRA=
201804030750 METAR COR EGLL 030750Z AUTO 20011KT 9999 BKN012 OVC033 11/10
                        Q0993 NOSIG=
201804030720 METAR COR EGLL 030720Z AUTO 19010KT 9999 BKN009 BKN015 OVC021
                        10/10 Q0993 BECMG BKN012=
201804030650 METAR COR EGLL 030650Z AUTO 19010KT 150V210 9999 -RA BKN010
                        OVC017 10/10 Q0993 TEMPO SHRA BKN008=
201804030620 METAR COR EGLL 030620Z AUTO 19008KT 160V220 9999 OVC012 10/10
                        Q0993 TEMPO SHRA BKN008=
201804030550 METAR COR EGLL 030550Z AUTO 20008KT 160V250 9999 BKN012 10/10
                        Q0993 TEMPO SHRA BKN008=
201804030520 METAR COR EGLL 030520Z AUTO 20008KT 9999 OVC010 10/10 Q0993
                        TEMPO SHRA BKN008=
201804030450 METAR COR EGLL 030450Z AUTO 20008KT 9999 -RA SCT010 BKN014
                        OVC029 10/10 Q0993 TEMPO SHRA BKN008=
201804030420 METAR COR EGLL 030420Z AUTO 20009KT 9999 -RA BKN012/// OVC049///
                        //////TCU 10/10 Q0993 TEMPO SHRA
                        BKN008=
201804030350 METAR COR EGLL 030350Z AUTO 19011KT 9999 -RA SCT009 BKN012
                        OVC017 10/10 Q0993 TEMPO SHRA BKN009=
201804030320 METAR COR EGLL 030320Z AUTO 19009KT 7000 -RA SCT007/// BKN011///
                        OVC020/// //////TCU 10/10 Q0993 TEMPO
                        4000 SHRA BKN007=
201804030250 METAR COR EGLL 030250Z AUTO 18009KT 6000 -RA BKN008 OVC016
                        10/10 Q0993 TEMPO 4000 SHRA=
201804030220 METAR COR EGLL 030220Z AUTO 17007KT 6000 -RA FEW007 BKN010
                        BKN016 10/10 Q0993 TEMPO 4000 SHRA=
201804030150 METAR COR EGLL 030150Z AUTO 19009KT 7000 -RA SCT008/// BKN012///
                        //////TCU 10/10 Q0994 TEMPO 4000
                        SHRA=
201804030120 METAR COR EGLL 030120Z AUTO 20009KT 9999 -RA BKN014/// BKN041///
                        //////TCU 10/10 Q0994 TEMPO 4000
                        SHRA=
201804030050 METAR COR EGLL 030050Z AUTO 19009KT 9999 -RA BKN014/// BKN019///
                        //////TCU 10/10 Q0994 TEMPO 4000
                        SHRA=
201804030020 METAR COR EGLL 030020Z AUTO 18006KT 9999 -RA BKN014/// OVC028///
                        //////TCU 10/09 Q0994 TEMPO 4000
                        SHRA=
201804022350 METAR COR EGLL 022350Z AUTO 18009KT 9999 -RA BKN016/// BKN025///
                        BKN033/// //////TCU 10/09 Q0994 TEMPO
                        4000 SHRA=
201804022320 METAR COR EGLL 022320Z AUTO 20008KT 9999 -RA BKN016/// BKN026///
                        BKN038/// //////TCU 10/09 Q0995 TEMPO
                        4000 SHRA=
201804022250 METAR COR EGLL 022250Z AUTO 20010KT 9999 BKN009/// BKN024///
                        BKN034/// //////TCU 10/09 Q0995 TEMPO
                        4000 SHRA=
201804022220 METAR COR EGLL 022220Z AUTO 20008KT 9999 BKN008 OVC014 10/10
                        Q0995 TEMPO 3000 SHRA=
201804022150 METAR COR EGLL 022150Z AUTO 21007KT 150V250 9999 OVC010 10/10
                        Q0995 TEMPO 3000 SHRA BKN008=
201804022120 METAR COR EGLL 022120Z AUTO 20008KT 160V250 9999 BKN009 OVC013
                        10/09 Q0995 TEMPO 3000 +SHRA=
201804022050 METAR COR EGLL 022050Z AUTO 20009KT 170V240 9999 BKN010 10/09
                        Q0995 TEMPO 4000 SHRA BKN008=
201804022020 METAR COR EGLL 022020Z AUTO 20010KT 170V250 9999 SCT013 10/09
                        Q0995 TEMPO BKN012=
201804021950 METAR COR EGLL 021950Z AUTO 19009KT 160V250 9999 FEW037 10/09
                        Q0995 NOSIG=
201804021920 METAR COR EGLL 021920Z AUTO 19008KT 150V240 9999 SCT013 10/09
                        Q0995 TEMPO BKN012=
201804021850 METAR COR EGLL 021850Z AUTO 19009KT 160V230 9999 FEW014 SCT020
                        10/09 Q0994 TEMPO 4000 SHRA BKN008=
201804021820 METAR COR EGLL 021820Z AUTO 19010KT 160V250 9999 BKN009 OVC014
                        10/09 Q0995 TEMPO SCT009 BKN014=
201804021750 METAR COR EGLL 021750Z AUTO 19011KT 160V230 9999 OVC009 10/09
                        Q0995 TEMPO BKN013=
201804021720 METAR COR EGLL 021720Z AUTO 20009KT 160V240 9999 BKN009 OVC013
                        10/09 Q0995 TEMPO SCT009 BKN013=
201804021650 METAR COR EGLL 021650Z AUTO 18011KT 150V220 9999 OVC009 10/09
                        Q0995 TEMPO BKN011=
201804021620 METAR COR EGLL 021620Z AUTO 19010KT 150V250 9999 BKN010 OVC045
                        10/09 Q0995 NOSIG=
201804021550 METAR COR EGLL 021550Z AUTO 19011KT 160V230 9999 BKN012 OVC035
                        10/09 Q0995 BECMG SCT012 BKN018=
201804021520 METAR COR EGLL 021520Z AUTO 18011KT 160V240 9999 BKN012 OVC031
                        10/09 Q0996 BECMG SCT012 BKN018=
201804021450 METAR COR EGLL 021450Z AUTO 19010KT 160V240 9999 BKN010 10/09
                        Q0996 TEMPO SCT010 BKN015=
201804021420 METAR COR EGLL 021420Z AUTO 18010KT 150V240 9999 -RA SCT006
                        BKN010 OVC048 09/09 Q0996 TEMPO BKN008=
201804021350 METAR COR EGLL 021350Z 18010KT 6000 -RA BKN007 OVC011 09/08
                        Q0997 TEMPO SCT007 BKN011=
201804021320 METAR COR EGLL 021320Z 19010KT 7000 -RA BKN008 OVC012 09/08
                        Q0997 BECMG SCT008 BKN012=
201804021250 METAR COR EGLL 021250Z 18011KT 8000 -RA SCT007 OVC011 09/08
                        Q0997 NOSIG=
201804021220 METAR COR EGLL 021220Z 17009KT 100V210 9999 -RA BKN011 09/09
                        Q0997 NOSIG=
201804021150 METAR COR EGLL 021150Z 15010KT 9999 -RA SCT011 SCT030 BKN049
                        09/08 Q0997 TEMPO BKN011=
201804021120 METAR COR EGLL 021120Z 16011KT 130V210 9999 -RA FEW015 SCT039
                        09/08 Q0998 TEMPO RA BKN014=
201804021050 METAR COR EGLL 021050Z AUTO 17012KT 9999 -RA FEW035 SCT042
                        10/08 Q0998 TEMPO RA BKN014=
201804021020 METAR EGLL 021020Z AUTO 18011KT 9999 -RA NCD 10/08 Q0999=
201804020950 METAR COR EGLL 020950Z AUTO 19012KT 170V230 9999 -RA SCT017
                        10/08 Q0999 TEMPO RA BKN014=
201804020920 METAR COR EGLL 020920Z AUTO 16009KT 130V190 9999 -RA FEW049
                        10/08 Q0999 NOSIG=
201804020850 METAR COR EGLL 020850Z AUTO 16009KT 9999 FEW049 09/08 Q1000
                        TEMPO RA=
201804020820 METAR COR EGLL 020820Z AUTO 16008KT 9999 -RA SCT040 BKN048
                        08/08 Q1000 TEMPO RA=
201804020750 METAR COR EGLL 020750Z AUTO 16008KT 9999 -RA NCD 08/07 Q1000
                        TEMPO RA=
201804020720 METAR COR EGLL 020720Z AUTO 16008KT 9999 -RA NCD 08/07 Q1001
                        TEMPO RA=
201804020650 METAR COR EGLL 020650Z AUTO 16006KT 9999 -RA OVC048 07/07
                        Q1001 TEMPO RA=
201804020620 METAR COR EGLL 020620Z AUTO 16007KT 9999 -RA FEW010 BKN041
                        07/07 Q1001 TEMPO BKN010=
201804020550 METAR COR EGLL 020550Z AUTO 17008KT 9999 SCT010 BKN034 OVC041
                        07/07 Q1001 NOSIG=
201804020520 METAR COR EGLL 020520Z AUTO 16009KT 9999 SCT011 BKN037 OVC044
                        07/07 Q1001 TEMPO 6000 -RA BKN012=
201804020450 METAR COR EGLL 020450Z AUTO 16010KT 9999 -RA SCT006 BKN011
                        OVC019 07/07 Q1002 TEMPO OVC018=
201804020420 METAR COR EGLL 020420Z AUTO 15008KT 8000 -RA BKN006/// BKN010///
                        OVC021/// //////TCU 07/06 Q1002 RERA
                        TEMPO BKN014=
201804020350 METAR COR EGLL 020350Z AUTO 14008KT 4900 RA BKN006/// OVC011///
                        //////TCU 06/06 Q1003 TEMPO 6000=
201804020320 METAR COR EGLL 020320Z AUTO 13008KT 4500 RA BKN006/// BKN009///
                        OVC016/// //////TCU 06/06 Q1004 TEMPO
                        6000=
201804020250 METAR COR EGLL 020250Z 12007KT 6000 -RA BKN007 OVC011 05/05
                        Q1004 RERA TEMPO 4000 RA=
201804020220 METAR COR EGLL 020220Z AUTO 12005KT 090V160 4800 RA BKN007///
                        OVC011/// //////TCU 05/05 Q1005 TEMPO
                        6000 -RA=
201804020150 METAR COR EGLL 020150Z AUTO 11009KT 5000 -RA OVC009/// //////TCU
                        05/04 Q1006 TEMPO 4000 RA=
201804020120 METAR COR EGLL 020120Z AUTO 10007KT 6000 -RA OVC010/// //////CB
                        04/04 Q1006 NOSIG=
201804020050 METAR COR EGLL 020050Z AUTO 09008KT 7000 -RA BKN012/// OVC025///
                        //////CB 04/04 Q1007 TEMPO 4000 RA
                        BKN008=
201804020020 METAR COR EGLL 020020Z AUTO 09008KT 8000 -RA BKN014/// OVC028///
                        //////TCU 04/04 Q1008 TEMPO 4000
                        RA BKN008=
201804012350 METAR COR EGLL 012350Z AUTO 10008KT 5000 -RA BKN014/// OVC030///
                        //////TCU 04/03 Q1008 TEMPO 4000
                        RA BKN008=
201804012320 METAR COR EGLL 012320Z AUTO 10008KT 6000 -RA BKN013/// OVC030///
                        //////TCU 04/03 Q1009 TEMPO 4000
                        RA=
201804012250 METAR COR EGLL 012250Z 10008KT 6000 -RA BKN015 OVC032 04/03
                        Q1009 RERA TEMPO BKN014=
201804012220 METAR COR EGLL 012220Z 11007KT 090V150 4400 RA FEW012 BKN017
                        OVC022 04/03 Q1010 TEMPO 6000 -RA
                        BKN014=
201804012150 METAR COR EGLL 012150Z 15010KT 6000 -RA BKN012 OVC026 04/03
                        Q1010 RERA NOSIG=
201804012120 METAR COR EGLL 012120Z 17011KT 5000 -RA SCT014 BKN019 OVC026
                        05/03 Q1011 RERA TEMPO BKN014=
201804012050 METAR COR EGLL 012050Z 17008KT 6000 -RA FEW019 BKN025 OVC029
                        06/03 Q1011 NOSIG=
201804012020 METAR COR EGLL 012020Z AUTO 15007KT 9999 -RA SCT026 BKN034
                        OVC045 07/02 Q1011 TEMPO 6000=
201804011950 METAR COR EGLL 011950Z AUTO 13005KT 9999 BKN048 06/02 Q1011
                        NOSIG=
201804011920 METAR COR EGLL 011920Z AUTO 13004KT 070V170 9999 NCD 07/01
                        Q1011 NOSIG=
201804011850 METAR COR EGLL 011850Z AUTO 13005KT 100V180 9999 NCD 07/01
                        Q1011 NOSIG=
201804011820 METAR COR EGLL 011820Z AUTO 13005KT 090V230 9999 NCD 07/01
                        Q1011 NOSIG=
201804011750 METAR COR EGLL 011750Z AUTO 12005KT 090V170 9999 NCD 07/01
                        Q1011 NOSIG=
201804011720 METAR COR EGLL 011720Z AUTO 14005KT 110V190 9999 FEW041 07/01
                        Q1011 NOSIG=
201804011650 METAR COR EGLL 011650Z AUTO 19004KT 100V240 9999 FEW034 BKN041
                        08/01 Q1012 NOSIG=
201804011620 METAR COR EGLL 011620Z AUTO VRB03KT 9999 BKN034 08/00 Q1012
                        NOSIG=
201804011550 METAR COR EGLL 011550Z AUTO VRB02KT 9999 BKN039 08/01 Q1012
                        NOSIG=
201804011520 METAR COR EGLL 011520Z AUTO VRB02KT 9999 BKN032 08/01 Q1012
                        NOSIG=
201804011450 METAR COR EGLL 011450Z AUTO VRB03KT 9999 OVC032 08/01 Q1012
                        NOSIG=
201804011420 METAR COR EGLL 011420Z AUTO VRB03KT 9999 OVC033 08/01 Q1013
                        NOSIG=
201804011350 METAR COR EGLL 011350Z AUTO VRB03KT 9999 OVC035 07/01 Q1013
                        NOSIG=
201804011320 METAR COR EGLL 011320Z AUTO 27004KT 230V320 9999 OVC033 07/01
                        Q1013 NOSIG=
201804011250 METAR COR EGLL 011250Z AUTO 30004KT 260V340 9999 OVC032 07/01
                        Q1013 NOSIG=
201804011220 METAR COR EGLL 011220Z AUTO 29004KT 270V340 9999 OVC032 07/01
                        Q1013 NOSIG=
201804011150 METAR COR EGLL 011150Z AUTO 28004KT 240V310 9999 OVC029 07/00
                        Q1013 NOSIG=
201804011120 METAR COR EGLL 011120Z AUTO VRB03KT 9999 OVC027 07/01 Q1013
                        NOSIG=
201804011050 METAR COR EGLL 011050Z AUTO 35004KT 300V050 9999 SCT022 BKN033
                        07/02 Q1013 NOSIG=
201804011020 METAR COR EGLL 011020Z AUTO 32004KT 290V010 9999 FEW021 OVC036
                        07/02 Q1013 NOSIG=
201804010950 METAR COR EGLL 010950Z AUTO 33005KT 290V020 9999 FEW020 OVC038
                        06/02 Q1012 NOSIG=
201804010920 METAR COR EGLL 010920Z AUTO 33005KT 300V020 9999 FEW018 OVC037
                        06/02 Q1012 NOSIG=
201804010850 METAR COR EGLL 010850Z AUTO 32004KT 270V360 9999 SCT016 OVC037
                        05/02 Q1012 NOSIG=
201804010820 METAR COR EGLL 010820Z AUTO 32006KT 290V350 9999 SCT017 OVC036
                        05/02 Q1012 NOSIG=
201804010750 METAR COR EGLL 010750Z AUTO 31006KT 280V360 9999 BKN016 OVC037
                        05/02 Q1012 NOSIG=
201804010720 METAR COR EGLL 010720Z AUTO 33004KT 290V030 9999 SCT017 OVC037
                        05/02 Q1011 NOSIG=
201804010650 METAR COR EGLL 010650Z AUTO 32004KT 290V010 9999 BKN018 OVC038
                        04/02 Q1011 NOSIG=
201804010620 METAR COR EGLL 010620Z AUTO 31004KT 9999 BKN018 OVC037 04/02
                        Q1011 NOSIG=
201804010550 METAR COR EGLL 010550Z AUTO 31005KT 9999 OVC017 04/02 Q1010
                        NOSIG=
201804010520 METAR COR EGLL 010520Z AUTO 32005KT 280V350 9999 OVC016 04/02
                        Q1010 NOSIG=
201804010450 METAR COR EGLL 010450Z AUTO 32006KT 9999 BKN016 OVC036 04/02
                        Q1009 NOSIG=
201804010420 METAR COR EGLL 010420Z AUTO 32006KT 270V010 9999 BKN015 OVC038
                        04/02 Q1009 NOSIG=
201804010350 METAR COR EGLL 010350Z AUTO 32006KT 280V360 9999 OVC015 04/02
                        Q1009 NOSIG=
201804010320 METAR COR EGLL 010320Z AUTO 32006KT 9999 BKN015 OVC024 04/02
                        Q1009 TEMPO BKN014=
201804010250 METAR COR EGLL 010250Z AUTO 31005KT 9999 BKN017 OVC041 04/02
                        Q1008 NOSIG=
201804010220 METAR COR EGLL 010220Z AUTO 31008KT 9999 OVC017 04/02 Q1008
                        NOSIG=
201804010150 METAR COR EGLL 010150Z AUTO 31008KT 9999 OVC015 04/02 Q1008
                        NOSIG=
201804010120 METAR COR EGLL 010120Z 31007KT 9999 OVC015 05/02 Q1008 TEMPO
                        BKN014=
201804010050 METAR COR EGLL 010050Z 31007KT 9999 OVC015 05/02 Q1007 NOSIG=
201804010020 METAR COR EGLL 010020Z 32007KT 9999 BKN015 OVC036 05/02 Q1007
                        NOSIG=

</pre>

</body>
</html>
