##########################################################
# Query made at 01/13/2020 12:25:44 UTC
# Time interval: from 04/01/2016 00:00  to 05/01/2016 23:59  UTC
##########################################################

##########################################################
# EGLL, London / Heathrow Airport (United Kingdom)
# WMO index: 03772
# Latitude 51-29N. Longitude 000-27W. Altitude 24 m.
##########################################################

###################################
#  METAR/SPECI from EGLL
###################################
201604302350 METAR COR EGLL 302350Z AUTO VRB02KT 9999 NCD 05/02 Q1027
                        NOSIG=
201604302320 METAR COR EGLL 302320Z AUTO 27004KT 9999 NCD 04/02 Q1027
                        NOSIG=
201604302250 METAR COR EGLL 302250Z AUTO 27005KT 9999 NCD 05/02 Q1027
                        NOSIG=
201604302220 METAR COR EGLL 302220Z AUTO 27006KT 9999 NCD 07/02 Q1027
                        NOSIG=
201604302150 METAR COR EGLL 302150Z AUTO 27005KT 9999 NCD 07/02 Q1027
                        NOSIG=
201604302120 METAR COR EGLL 302120Z AUTO 27006KT 9999 NCD 08/02 Q1027
                        NOSIG=
201604302050 METAR COR EGLL 302050Z AUTO 30004KT 9999 NCD 08/02 Q1026
                        NOSIG=
201604302020 METAR COR EGLL 302020Z AUTO 28005KT 9999 NCD 09/01 Q1026
                        NOSIG=
201604301950 METAR COR EGLL 301950Z AUTO VRB03KT 9999 NCD 10/M00 Q1025
                        NOSIG=
201604301920 METAR COR EGLL 301920Z AUTO 32004KT 9999 NCD 10/M01 Q1025
                        NOSIG=
201604301850 METAR COR EGLL 301850Z AUTO 30005KT 9999 NCD 10/M01 Q1024
                        NOSIG=
201604301820 METAR COR EGLL 301820Z AUTO 31006KT 280V340 9999 FEW048 11/M00
                        Q1024 NOSIG=
201604301750 METAR COR EGLL 301750Z AUTO 32006KT 290V010 9999 NCD 11/M00
                        Q1024 NOSIG=
201604301720 METAR COR EGLL 301720Z AUTO 32007KT 300V360 9999 FEW040 12/00
                        Q1024 TEMPO SHRA=
201604301650 METAR COR EGLL 301650Z 32007KT 9999 FEW022TCU 11/00 Q1023
                        TEMPO SHRA=
201604301620 METAR COR EGLL 301620Z 35008KT 300V020 9999 VCSH FEW020 12/M01
                        Q1023 TEMPO SHRA=
201604301550 METAR COR EGLL 301550Z 36008KT 320V030 9999 VCSH SCT027CB
                        11/00 Q1023 TEMPO SHRA=
201604301520 METAR COR EGLL 301520Z 34012KT 310V020 9999 VCSH FEW015CB
                        11/01 Q1023 TEMPO SHRA=
201604301450 METAR COR EGLL 301450Z AUTO 29007G17KT 230V010 9999 //////CB
                        14/M02 Q1022 TEMPO SHRA=
201604301420 METAR COR EGLL 301420Z AUTO VRB03KT 9999 FEW034/// BKN043///
                        //////CB 13/01 Q1022 TEMPO SHRA=
201604301350 METAR COR EGLL 301350Z AUTO VRB02KT 9999 FEW034 13/01 Q1022
                        TEMPO SHRA=
201604301320 METAR COR EGLL 301320Z AUTO VRB04KT 9999 FEW031/// BKN049///
                        //////TCU 12/01 Q1022 TEMPO SHRA=
201604301250 METAR COR EGLL 301250Z 24011KT 9999 VCSH FEW015TCU 09/01
                        Q1022 RESHRA TEMPO SHRA=
201604301220 METAR COR EGLL 301220Z 27010KT 230V300 9999 VCSH FEW025TCU
                        12/M00 Q1021 TEMPO SHRA=
201604301150 METAR COR EGLL 301150Z AUTO 28007KT 250V340 9999 //////TCU
                        12/M00 Q1021 TEMPO SHRA=
201604301120 METAR COR EGLL 301120Z AUTO 30007KT 250V340 9999 BKN047 11/M01
                        Q1021 NOSIG=
201604301050 METAR COR EGLL 301050Z AUTO 30008KT 260V350 9999 NCD 11/M01
                        Q1021 NOSIG=
201604301020 METAR COR EGLL 301020Z AUTO 30007KT 240V010 9999 SCT045 11/M02
                        Q1021 NOSIG=
201604300950 METAR COR EGLL 300950Z AUTO 33006KT 290V040 9999 SCT038 10/M01
                        Q1021 NOSIG=
201604300920 METAR COR EGLL 300920Z AUTO 31006KT 260V340 9999 SCT033 10/02
                        Q1021 NOSIG=
201604300850 METAR COR EGLL 300850Z AUTO 32006KT 290V010 9999 FEW025 09/02
                        Q1021 NOSIG=
201604300820 METAR COR EGLL 300820Z AUTO 34005KT 290V040 9999 NCD 09/03
                        Q1021 NOSIG=
201604300750 METAR COR EGLL 300750Z AUTO 33004KT 280V030 9999 NCD 08/03
                        Q1021 NOSIG=
201604300720 METAR COR EGLL 300720Z AUTO VRB03KT 9999 NCD 06/02 Q1020
                        NOSIG=
201604300650 METAR COR EGLL 300650Z AUTO 29005KT 260V330 9999 NCD 05/01
                        Q1020 NOSIG=
201604300620 METAR COR EGLL 300620Z AUTO 29004KT 9999 NCD 04/01 Q1020
                        NOSIG=
201604300550 METAR COR EGLL 300550Z AUTO 28004KT 9999 NCD 03/00 Q1019
                        NOSIG=
201604300520 METAR COR EGLL 300520Z AUTO 29004KT 9999 NCD 03/00 Q1019
                        NOSIG=
201604300450 METAR COR EGLL 300450Z AUTO 30003KT 9999 NCD 02/00 Q1018
                        NOSIG=
201604300420 METAR COR EGLL 300420Z AUTO 28004KT 9999 NCD 02/M00 Q1018
                        NOSIG=
201604300350 METAR COR EGLL 300350Z AUTO 27005KT 9999 NCD 02/00 Q1018
                        NOSIG=
201604300320 METAR COR EGLL 300320Z AUTO 28004KT 9999 NCD 02/M00 Q1018
                        NOSIG=
201604300250 METAR COR EGLL 300250Z AUTO VRB02KT 9999 NCD 02/00 Q1017
                        NOSIG=
201604300220 METAR COR EGLL 300220Z AUTO 29003KT 9999 NCD 02/00 Q1017
                        NOSIG=
201604300150 METAR COR EGLL 300150Z AUTO 29004KT 9999 NCD 02/00 Q1017
                        NOSIG=
201604300120 METAR COR EGLL 300120Z AUTO 29006KT 9999 NCD 04/00 Q1017
                        NOSIG=
201604300050 METAR COR EGLL 300050Z AUTO 30004KT 9999 NCD 04/00 Q1016
                        NOSIG=
201604300020 METAR COR EGLL 300020Z AUTO 29004KT 9999 NCD 04/00 Q1016
                        NOSIG=
201604292350 METAR COR EGLL 292350Z AUTO 31004KT 9999 NCD 05/01 Q1016
                        NOSIG=
201604292320 METAR COR EGLL 292320Z AUTO 31005KT 9999 NCD 05/00 Q1016
                        NOSIG=
201604292250 METAR COR EGLL 292250Z AUTO 29004KT 9999 NCD 06/01 Q1015
                        NOSIG=
201604292220 METAR COR EGLL 292220Z AUTO 30004KT 9999 NCD 07/00 Q1015
                        NOSIG=
201604292150 METAR COR EGLL 292150Z AUTO 31005KT 9999 NCD 08/00 Q1015
                        NOSIG=
201604292120 METAR COR EGLL 292120Z AUTO 30004KT 9999 NCD 08/00 Q1014
                        NOSIG=
201604292050 METAR COR EGLL 292050Z AUTO 31004KT 9999 NCD 08/00 Q1014
                        NOSIG=
201604292020 METAR COR EGLL 292020Z AUTO 32004KT 9999 NCD 09/01 Q1014
                        NOSIG=
201604291950 METAR COR EGLL 291950Z AUTO 30005KT 9999 FEW041 09/01 Q1013
                        NOSIG=
201604291920 METAR COR EGLL 291920Z 29006KT 9999 VCSH FEW032TCU 09/00
                        Q1013 NOSIG=
201604291850 METAR COR EGLL 291850Z AUTO 27008KT 9999 NCD 09/01 Q1012
                        NOSIG=
201604291820 METAR COR EGLL 291820Z AUTO 27010KT 9999 FEW040 09/00 Q1012
                        NOSIG=
201604291750 METAR COR EGLL 291750Z AUTO 27014KT 9999 FEW043 09/01 Q1012
                        NOSIG=
201604291720 METAR COR EGLL 291720Z AUTO 25011KT 9999 FEW030/// //////TCU
                        10/M02 Q1012 TEMPO SHRA=
201604291650 METAR COR EGLL 291650Z AUTO 27013KT 9999 FEW037 10/00 Q1011
                        NOSIG=
201604291620 METAR COR EGLL 291620Z 27013KT 9999 FEW008CB 11/01 Q1011
                        NOSIG=
201604291550 METAR COR EGLL 291550Z 29016KT 9999 VCSH FEW008CB SCT020
                        10/01 Q1011 NOSIG=
201604291520 METAR COR EGLL 291520Z AUTO 27015KT 9999 NCD 11/00 Q1011
                        TEMPO SHRA=
201604291450 METAR COR EGLL 291450Z AUTO 29011KT 9999 //////CB 09/01 Q1011
                        TEMPO SHRA=
201604291420 METAR COR EGLL 291420Z AUTO 30018KT 9999 BKN045/// //////TCU
                        11/M00 Q1011 NOSIG=
201604291350 METAR COR EGLL 291350Z AUTO 24016KT 9999 FEW032/// //////CB
                        11/02 Q1010 NOSIG=
201604291320 METAR COR EGLL 291320Z 27018KT 9999 VCSH SCT030CB SCT046
                        10/01 Q1010 TEMPO SHRA=
201604291250 METAR COR EGLL 291250Z 28013KT 250V340 9999 BKN030TCU 09/02
                        Q1010 NOSIG=
201604291220 METAR COR EGLL 291220Z 25011KT 9999 FEW012TCU 09/03 Q1010
                        RESHRA TEMPO SHRA=
201604291150 METAR COR EGLL 291150Z 24016KT 9999 6000N VCSH SCT036TCU
                        SCT042CB 10/02 Q1010 TEMPO SHGS=
201604291120 METAR COR EGLL 291120Z AUTO 25016KT 9999 BKN038 11/00 Q1010
                        TEMPO SHRA=
201604291050 METAR COR EGLL 291050Z AUTO 27014KT 230V290 9999 FEW013///
                        BKN033/// //////TCU 09/01 Q1010 NOSIG=
201604291020 METAR COR EGLL 291020Z AUTO 26017KT 9999 BKN041 10/M00 Q1010
                        NOSIG=
201604290950 METAR COR EGLL 290950Z AUTO 26015KT 230V290 9999 BKN038 10/M00
                        Q1010 NOSIG=
201604290920 METAR COR EGLL 290920Z AUTO 25016KT 9999 SCT035 09/00 Q1010
                        NOSIG=
201604290850 METAR COR EGLL 290850Z AUTO 26014G24KT 9999 FEW028 08/00
                        Q1010 NOSIG=
201604290820 METAR COR EGLL 290820Z AUTO 25014KT 9999 FEW028 07/01 Q1010
                        NOSIG=
201604290750 METAR COR EGLL 290750Z AUTO 25013KT 9999 FEW027 07/01 Q1010
                        NOSIG=
201604290720 METAR COR EGLL 290720Z AUTO 24013KT 9999 FEW028 06/01 Q1010
                        NOSIG=
201604290650 METAR COR EGLL 290650Z AUTO 23013KT 9999 NCD 06/01 Q1009
                        NOSIG=
201604290620 METAR COR EGLL 290620Z AUTO 23012KT 9999 NCD 05/M00 Q1009
                        NOSIG=
201604290550 METAR COR EGLL 290550Z AUTO 24013G23KT 9999 NCD 05/M01 Q1009
                        NOSIG=
201604290520 METAR COR EGLL 290520Z AUTO 25012KT 9999 NCD 05/M00 Q1009
                        NOSIG=
201604290450 METAR COR EGLL 290450Z AUTO 24011KT 9999 NCD 05/00 Q1009
                        NOSIG=
201604290420 METAR COR EGLL 290420Z AUTO 24010KT 9999 NCD 05/01 Q1009
                        NOSIG=
201604290350 METAR COR EGLL 290350Z AUTO 25010KT 9999 NCD 06/01 Q1009
                        NOSIG=
201604290320 METAR COR EGLL 290320Z AUTO 25011KT 9999 NCD 06/01 Q1009
                        NOSIG=
201604290250 METAR COR EGLL 290250Z AUTO 25011KT 9999 NCD 06/02 Q1009
                        NOSIG=
201604290220 METAR COR EGLL 290220Z AUTO 25012KT 9999 NCD 06/02 Q1009
                        NOSIG=
201604290150 METAR COR EGLL 290150Z AUTO 25010KT 9999 NCD 07/03 Q1009
                        NOSIG=
201604290120 METAR COR EGLL 290120Z AUTO 24011KT 9999 NCD 07/04 Q1009
                        NOSIG=
201604290050 METAR COR EGLL 290050Z AUTO 25009KT 9999 FEW040 07/04 Q1009
                        NOSIG=
201604290020 METAR COR EGLL 290020Z AUTO 26016KT 9999 -RA SCT013/// BKN026///
                        //////TCU 06/02 Q1009 RERA NOSIG=
201604282350 METAR COR EGLL 282350Z AUTO 25010KT 9999 -RA BKN024/// //////TCU
                        07/05 Q1009 NOSIG=
201604282320 METAR COR EGLL 282320Z AUTO 24012KT 9999 SCT030/// BKN042///
                        //////TCU 08/05 Q1009 NOSIG=
201604282250 METAR COR EGLL 282250Z AUTO 25015KT 9000 -RA BKN017/// //////TCU
                        08/05 Q1009 NOSIG=
201604282220 METAR COR EGLL 282220Z AUTO 24011KT 9999 -RA BKN019/// BKN036///
                        //////CB 09/05 Q1009 TEMPO 4000 TSRA
                        BKN014=
201604282150 METAR COR EGLL 282150Z AUTO 23013KT 9999 FEW025/// //////CB
                        08/05 Q1009 TEMPO 4000 +SHRA BKN014CB=
201604282120 METAR COR EGLL 282120Z AUTO 22012KT 9999 FEW030/// SCT040///
                        //////TCU 08/05 Q1009 TEMPO SHRA=
201604282050 METAR COR EGLL 282050Z AUTO 22013KT 9999 FEW019 08/05 Q1009
                        RESHRA TEMPO SHRA=
201604282020 METAR COR EGLL 282020Z 22012KT 9999 5000S SHRA FEW018 SCT025
                        BKN039 09/04 Q1010 TEMPO NSW=
201604281950 METAR COR EGLL 281950Z AUTO 22015KT 9999 SCT028 BKN044 09/04
                        Q1010 NOSIG=
201604281920 METAR COR EGLL 281920Z AUTO 22013KT 9999 -RA BKN030 09/03
                        Q1010 NOSIG=
201604281850 METAR COR EGLL 281850Z AUTO 22014KT 9999 BKN031 10/02 Q1010
                        NOSIG=
201604281820 METAR EGLL 281820Z AUTO 21015G26KT 9999 BKN036 10/01 Q1010
                        NOSIG=
201604281750 METAR COR EGLL 281750Z AUTO 22016KT 9999 BKN036 10/02 Q1011
                        TEMPO SHRA=
201604281720 METAR COR EGLL 281720Z AUTO 22017G27KT 9999 SCT035 11/02
                        Q1011 TEMPO SHRA=
201604281650 METAR COR EGLL 281650Z AUTO 21015KT 9999 SCT038 11/02 Q1011
                        NOSIG=
201604281620 METAR COR EGLL 281620Z AUTO 21014G24KT 9999 SCT038 10/01
                        Q1011 NOSIG=
201604281550 METAR COR EGLL 281550Z AUTO 22015KT 9999 BKN040 11/01 Q1012
                        NOSIG=
201604281520 METAR COR EGLL 281520Z AUTO 22015KT 9999 BKN041 11/01 Q1012
                        NOSIG=
201604281450 METAR COR EGLL 281450Z AUTO 22016KT 9999 BKN044 11/M00 Q1012
                        NOSIG=
201604281420 METAR COR EGLL 281420Z AUTO 23015KT 200V260 9999 NCD 12/M02
                        Q1012 NOSIG=
201604281350 METAR COR EGLL 281350Z AUTO 24015KT 9999 NCD 12/M03 Q1013
                        NOSIG=
201604281320 METAR COR EGLL 281320Z AUTO 24013KT 9999 NCD 12/M03 Q1013
                        NOSIG=
201604281250 METAR COR EGLL 281250Z AUTO 24012KT 9999 NCD 12/M04 Q1013
                        NOSIG=
201604281220 METAR COR EGLL 281220Z AUTO 24013KT 9999 NCD 10/M03 Q1013
                        NOSIG=
201604281150 METAR COR EGLL 281150Z AUTO 27013KT 240V300 9999 NCD 10/M03
                        Q1014 NOSIG=
201604281120 METAR COR EGLL 281120Z AUTO 27011KT 9999 NCD 10/M03 Q1014
                        NOSIG=
201604281050 METAR COR EGLL 281050Z AUTO 26009KT 220V290 9999 NCD 10/M03
                        Q1014 NOSIG=
201604281020 METAR COR EGLL 281020Z AUTO 26011KT 230V300 9999 NCD 09/M04
                        Q1015 NOSIG=
201604280950 METAR COR EGLL 280950Z AUTO 26008KT 230V300 9999 NCD 09/M03
                        Q1015 NOSIG=
201604280920 METAR COR EGLL 280920Z AUTO 27009KT 230V320 9999 NCD 08/M03
                        Q1015 NOSIG=
201604280850 METAR COR EGLL 280850Z AUTO 28008KT 240V320 9999 NCD 07/M02
                        Q1015 NOSIG=
201604280820 METAR COR EGLL 280820Z AUTO 26006KT 9999 NCD 06/M00 Q1015
                        NOSIG=
201604280750 METAR COR EGLL 280750Z AUTO 25006KT 210V280 9999 NCD 06/00
                        Q1015 NOSIG=
201604280720 METAR COR EGLL 280720Z AUTO 28005KT 9999 NCD 04/01 Q1015
                        NOSIG=
201604280650 METAR COR EGLL 280650Z AUTO 27006KT 9999 NCD 04/01 Q1015
                        NOSIG=
201604280620 METAR COR EGLL 280620Z AUTO 27006KT 9999 NCD 03/01 Q1015
                        NOSIG=
201604280550 METAR COR EGLL 280550Z AUTO 27005KT 9999 NCD 02/00 Q1015
                        NOSIG=
201604280520 METAR COR EGLL 280520Z AUTO 27005KT 8000 NCD 01/M01 Q1015
                        NOSIG=
201604280450 METAR COR EGLL 280450Z AUTO 27006KT 8000 NCD 01/M00 Q1015
                        NOSIG=
201604280420 METAR COR EGLL 280420Z 26005KT 8000 NSC 01/M00 Q1014 NOSIG=
201604280350 METAR EGLL 280350Z 27005KT 9000 NSC 01/M00 Q1014=
201604280320 METAR COR EGLL 280320Z AUTO 26003KT 4300 HZ NCD 02/00 Q1014
                        TEMPO 8000=
201604280250 METAR COR EGLL 280250Z AUTO 27004KT 7000 NCD 01/M00 Q1014
                        NOSIG=
201604280220 METAR COR EGLL 280220Z AUTO 28004KT 9999 NCD 01/M00 Q1014
                        NOSIG=
201604280150 METAR COR EGLL 280150Z AUTO 31003KT 9999 NCD 02/00 Q1014
                        NOSIG=
201604280120 METAR COR EGLL 280120Z AUTO 30003KT 9000 NCD 02/00 Q1014
                        TEMPO=
201604280050 METAR COR EGLL 280050Z AUTO 30002KT 9999 FEW015 03/01 Q1014
                        NOSIG=
201604280020 METAR COR EGLL 280020Z AUTO 30005KT 9999 NCD 03/01 Q1014
                        NOSIG=
201604272350 METAR EGLL 272350Z AUTO 30005KT 9999 NCD 04/01 Q1014=
201604272320 METAR EGLL 272320Z AUTO 31003KT 9999 NCD 04/01 Q1014=
201604272250 METAR COR EGLL 272250Z AUTO VRB03KT 9999 -RA OVC040 05/01
                        Q1014 NOSIG=
201604272220 METAR COR EGLL 272220Z AUTO 36005KT 330V030 9999 -RASN OVC038
                        05/01 Q1014 TEMPO SHRA=
201604272150 METAR COR EGLL 272150Z AUTO 34005KT 300V020 9999 -RA FEW032
                        BKN042 06/01 Q1014 TEMPO SHRA=
201604272120 METAR COR EGLL 272120Z AUTO 33008KT 9999 -RA FEW031/// //////TCU
                        06/01 Q1014 TEMPO SHRA=
201604272050 METAR COR EGLL 272050Z AUTO 30005KT 280V360 9999 SCT034///
                        //////TCU 07/00 Q1014 TEMPO SHRA=
201604272020 METAR COR EGLL 272020Z AUTO 30009KT 9999 BKN049/// //////TCU
                        06/00 Q1013 TEMPO SHRA=
201604271950 METAR COR EGLL 271950Z AUTO 30008KT 9999 FEW041/// //////TCU
                        07/M00 Q1013 TEMPO SHRA=
201604271920 METAR COR EGLL 271920Z 33007KT 9999 VCSH FEW020CB 08/M01
                        Q1013 TEMPO SHRA=
201604271850 METAR COR EGLL 271850Z AUTO 31007KT 9999 //////TCU 09/M02
                        Q1012 TEMPO SHRA=
201604271820 METAR COR EGLL 271820Z AUTO 31007KT 9999 //////TCU 09/M03
                        Q1012 TEMPO SHRA=
201604271750 METAR COR EGLL 271750Z AUTO 30005KT 270V340 9999 NCD 09/M01
                        Q1012 TEMPO SHRA=
201604271720 METAR COR EGLL 271720Z AUTO 34006KT 300V020 9999 FEW029///
                        //////TCU 09/M01 Q1012 TEMPO SHRA=
201604271650 METAR COR EGLL 271650Z AUTO 32014KT 9999 FEW016/// SCT032///
                        //////TCU 09/M01 Q1012 TEMPO SHRA=
201604271620 METAR COR EGLL 271620Z 31004KT 230V360 9999 VCSH SCT060CB
                        11/M05 Q1012 TEMPO SHRA=
201604271550 METAR COR EGLL 271550Z 22005KT 160V300 9999 VCSH SCT050CB
                        11/M05 Q1012 TEMPO SHRA=
201604271520 METAR COR EGLL 271520Z VRB05KT 9999 FEW015CB SCT049 10/M04
                        Q1012 TEMPO SHRA=
201604271450 METAR COR EGLL 271450Z 30004KT 250V010 9999 VCSH FEW015CB
                        SCT034 SCT049 10/M03 Q1012 TEMPO
                        SHRA=
201604271420 METAR COR EGLL 271420Z 21004KT 120V270 9999 SCT040CB 11/M03
                        Q1012 TEMPO SHRA=
201604271350 METAR COR EGLL 271350Z 19006KT 150V270 9999 VCSH FEW013CB
                        SCT030 10/M03 Q1012 TEMPO SHRA=
201604271320 METAR COR EGLL 271320Z 27014KT 9999 -SHRA SCT013CB SCT033
                        09/M02 Q1012 TEMPO SHRA=
201604271250 METAR COR EGLL 271250Z 33007KT 270V010 9999 VCSH SCT050CB
                        11/M02 Q1012 TEMPO SHRA=
201604271220 METAR COR EGLL 271220Z AUTO 28007KT 230V320 9999 NCD 11/M03
                        Q1012 TEMPO SHRA=
201604271150 METAR COR EGLL 271150Z AUTO 30005KT 250V010 9999 BKN047 08/M03
                        Q1012 TEMPO SHRA=
201604271120 METAR COR EGLL 271120Z AUTO 31005KT 260V020 9999 SCT045 09/M03
                        Q1012 TEMPO SHRA=
201604271050 METAR COR EGLL 271050Z AUTO 34007KT 300V030 9999 BKN044 09/M02
                        Q1012 NOSIG=
201604271020 METAR COR EGLL 271020Z AUTO 31006KT 280V360 9999 BKN040 09/M02
                        Q1012 NOSIG=
201604270950 METAR COR EGLL 270950Z AUTO VRB05KT 9999 SCT034 08/M02 Q1012
                        NOSIG=
201604270920 METAR COR EGLL 270920Z AUTO 01005KT 320V070 9999 SCT029 SCT047
                        08/M00 Q1012 NOSIG=
201604270850 METAR COR EGLL 270850Z AUTO 31006KT 270V010 9999 FEW027 07/00
                        Q1012 NOSIG=
201604270820 METAR COR EGLL 270820Z AUTO 30005KT 260V360 9999 FEW023 06/01
                        Q1012 NOSIG=
201604270750 METAR COR EGLL 270750Z AUTO 34006KT 290V030 9999 NCD 06/01
                        Q1012 NOSIG=
201604270720 METAR COR EGLL 270720Z AUTO 32007KT 9999 NCD 05/00 Q1012
                        NOSIG=
201604270650 METAR COR EGLL 270650Z AUTO 30006KT 270V340 9999 NCD 04/00
                        Q1012 NOSIG=
201604270620 METAR COR EGLL 270620Z AUTO 30007KT 9999 NCD 03/00 Q1012
                        NOSIG=
201604270550 METAR COR EGLL 270550Z AUTO 29006KT 9999 NCD 02/00 Q1012
                        NOSIG=
201604270520 METAR COR EGLL 270520Z AUTO 30007KT 9999 NCD 01/M00 Q1012
                        NOSIG=
201604270450 METAR COR EGLL 270450Z AUTO 28006KT 9999 FEW038 01/M00 Q1012
                        NOSIG=
201604270420 METAR COR EGLL 270420Z AUTO 29006KT 9999 NCD 01/M01 Q1011
                        NOSIG=
201604270350 METAR COR EGLL 270350Z AUTO 28004KT 9999 NCD 01/M01 Q1011
                        NOSIG=
201604270320 METAR COR EGLL 270320Z AUTO 29006KT 9999 NCD 02/M00 Q1011
                        NOSIG=
201604270250 METAR COR EGLL 270250Z AUTO 29006KT 9999 NCD 02/M00 Q1011
                        NOSIG=
201604270220 METAR COR EGLL 270220Z AUTO 30005KT 9999 NCD 02/M00 Q1011
                        NOSIG=
201604270150 METAR COR EGLL 270150Z AUTO 30005KT 9999 NCD 02/M00 Q1011
                        NOSIG=
201604270120 METAR COR EGLL 270120Z AUTO 30004KT 9999 NCD 03/M00 Q1011
                        NOSIG=
201604270050 METAR COR EGLL 270050Z AUTO 31006KT 9999 NCD 03/00 Q1011
                        NOSIG=
201604270020 METAR COR EGLL 270020Z AUTO 31007KT 9999 NCD 03/00 Q1011
                        NOSIG=
201604262350 METAR COR EGLL 262350Z AUTO 31008KT 9999 NCD 03/00 Q1010
                        NOSIG=
201604262320 METAR EGLL 262320Z AUTO 30006KT 9999 NCD 03/M00 Q1010 NOSIG=
201604262250 METAR COR EGLL 262250Z AUTO 30007KT 9999 NCD 03/00 Q1010
                        NOSIG=
201604262220 METAR COR EGLL 262220Z AUTO 30007KT 9999 NCD 04/00 Q1010
                        NOSIG=
201604262150 METAR COR EGLL 262150Z AUTO 30007KT 9999 NCD 04/00 Q1010
                        NOSIG=
201604262120 METAR COR EGLL 262120Z AUTO 31006KT 9999 NCD 04/M00 Q1010
                        NOSIG=
201604262050 METAR COR EGLL 262050Z AUTO 31007KT 9999 NCD 05/M00 Q1010
                        NOSIG=
201604262020 METAR COR EGLL 262020Z AUTO 30008KT 9999 NCD 05/M01 Q1010
                        NOSIG=
201604261950 METAR COR EGLL 261950Z 29006KT CAVOK 05/M00 Q1009 NOSIG=
201604261920 METAR COR EGLL 261920Z 31006KT 9999 FEW048CB 05/M00 Q1009
                        NOSIG=
201604261850 METAR COR EGLL 261850Z 31009KT 9999 FEW030CB 06/M00 Q1009
                        NOSIG=
201604261820 METAR COR EGLL 261820Z 31011KT 280V350 9999 FEW027CB 07/M00
                        Q1009 TEMPO SHRA=
201604261750 METAR COR EGLL 261750Z 34010KT 300V020 9999 VCSH FEW015CB
                        SCT030 08/M01 Q1009 TEMPO SHRA=
201604261720 METAR COR EGLL 261720Z 32008KT 290V020 9999 -SHRA FEW015CB
                        SCT040 07/M01 Q1008 TEMPO SHRA=
201604261650 METAR COR EGLL 261650Z 29012KT 260V350 9999 -SHRA SCT015CB
                        SCT040TCU 09/M04 Q1008 TEMPO 4800
                        +SHRA SHGS BKN014CB=
201604261620 METAR COR EGLL 261620Z 29014KT 9999 VCSH SCT025CB SCT040
                        09/M03 Q1008 TEMPO SHRA SHGS=
201604261550 METAR COR EGLL 261550Z 30012KT 9999 -SHRA SCT017CB SCT041
                        08/M03 Q1008 TEMPO SHRA SHGS=
201604261520 METAR COR EGLL 261520Z 31011KT 9999 VCSH SCT015CB SCT040
                        08/M02 Q1008 TEMPO SHRA SHGS=
201604261450 METAR COR EGLL 261450Z 01007KT 340V040 9999 VCSH SCT013CB
                        BKN049TCU 08/M00 Q1007 TEMPO SHRA=
201604261420 METAR COR EGLL 261420Z 33006KT 300V030 9999 VCSH SCT023CB
                        08/M02 Q1007 RESHGS TEMPO SHRA=
201604261350 METAR COR EGLL 261350Z 34008KT 310V040 9999 VCSH SCT023CB
                        10/M03 Q1007 TEMPO SHRA=
201604261320 METAR COR EGLL 261320Z 33010KT 290V010 9999 VCSH FEW023CB
                        10/M04 Q1007 TEMPO SHRA=
201604261250 METAR COR EGLL 261250Z 31011KT 280V340 9999 VCSH FEW023CB
                        SCT049 09/M03 Q1008 TEMPO SHRA=
201604261220 METAR COR EGLL 261220Z 31011KT 9999 -SHRA FEW023 SCT040CB
                        08/M02 Q1008 TEMPO SHRA=
201604261150 METAR COR EGLL 261150Z AUTO 32010KT 290V350 9999 BKN044 09/M02
                        Q1008 TEMPO SHRA=
201604261120 METAR COR EGLL 261120Z AUTO 32011KT 9999 BKN042 09/M02 Q1008
                        TEMPO SHRA=
201604261050 METAR COR EGLL 261050Z AUTO 32010G20KT 290V020 9999 SCT036
                        08/M02 Q1008 TEMPO SHRA=
201604261020 METAR COR EGLL 261020Z AUTO 31010KT 270V350 9999 BKN035 07/M01
                        Q1008 TEMPO SHRA=
201604260950 METAR COR EGLL 260950Z AUTO 31010KT 9999 BKN032 07/M01 Q1008
                        NOSIG=
201604260920 METAR COR EGLL 260920Z AUTO 32011KT 290V360 9999 SCT030 07/M01
                        Q1008 NOSIG=
201604260850 METAR COR EGLL 260850Z AUTO 34009KT 310V020 9999 FEW030 07/M01
                        Q1008 NOSIG=
201604260820 METAR COR EGLL 260820Z AUTO 33009KT 300V020 9999 FEW030 06/M01
                        Q1008 NOSIG=
201604260750 METAR COR EGLL 260750Z AUTO 33011KT 290V020 9999 NCD 05/M02
                        Q1008 NOSIG=
201604260720 METAR COR EGLL 260720Z AUTO 32010KT 9999 FEW047 05/M02 Q1008
                        NOSIG=
201604260650 METAR COR EGLL 260650Z AUTO 32008KT 290V350 9999 NCD 04/M02
                        Q1008 NOSIG=
201604260620 METAR COR EGLL 260620Z AUTO 31008KT 9999 NCD 04/M02 Q1007
                        NOSIG=
201604260550 METAR COR EGLL 260550Z AUTO 29007KT 9999 NCD 03/M02 Q1007
                        NOSIG=
201604260520 METAR COR EGLL 260520Z AUTO 28007KT 9999 NCD 02/M01 Q1007
                        NOSIG=
201604260450 METAR COR EGLL 260450Z AUTO 29007KT 9999 NCD 02/M02 Q1007
                        NOSIG=
201604260420 METAR COR EGLL 260420Z AUTO 29005KT 9999 NCD 03/M01 Q1007
                        NOSIG=
201604260350 METAR COR EGLL 260350Z AUTO 29005KT 9999 NCD 03/M01 Q1007
                        NOSIG=
201604260320 METAR COR EGLL 260320Z AUTO 29007KT 9999 NCD 02/M00 Q1007
                        NOSIG=
201604260250 METAR COR EGLL 260250Z AUTO 29007KT 9999 NCD 03/01 Q1007
                        NOSIG=
201604260220 METAR COR EGLL 260220Z AUTO 29006KT 9999 NCD 02/00 Q1007
                        NOSIG=
201604260150 METAR COR EGLL 260150Z AUTO 29008KT 9999 NCD 03/01 Q1007
                        NOSIG=
201604260120 METAR COR EGLL 260120Z AUTO 28008KT 9999 NCD 03/01 Q1008
                        NOSIG=
201604260050 METAR COR EGLL 260050Z AUTO 28009KT 9999 NCD 04/01 Q1008
                        NOSIG=
201604260020 METAR COR EGLL 260020Z AUTO 27008KT 9999 NCD 04/01 Q1008
                        NOSIG=
201604252350 METAR COR EGLL 252350Z AUTO 27008KT 9999 NCD 04/01 Q1008
                        NOSIG=
201604252320 METAR COR EGLL 252320Z AUTO 27007KT 9999 NCD 04/02 Q1008
                        NOSIG=
201604252250 METAR COR EGLL 252250Z AUTO 27008KT 9999 NCD 04/02 Q1008
                        NOSIG=
201604252220 METAR COR EGLL 252220Z AUTO 28005KT 9999 -RA NCD 04/02 Q1008
                        NOSIG=
201604252150 METAR COR EGLL 252150Z AUTO 33003KT 9999 NCD 04/02 Q1009
                        NOSIG=
201604252120 METAR COR EGLL 252120Z AUTO VRB03KT 9999 NCD 04/02 Q1009
                        NOSIG=
201604252050 METAR COR EGLL 252050Z AUTO VRB03KT 9999 FEW026 04/02 Q1009
                        NOSIG=
201604252020 METAR COR EGLL 252020Z AUTO 02005KT 340V060 9999 -RA FEW010
                        BKN025 04/02 Q1009 NOSIG=
201604251950 METAR COR EGLL 251950Z AUTO 06005KT 020V090 9999 -RA FEW010
                        BKN027 OVC043 04/02 Q1009 NOSIG=
201604251920 METAR COR EGLL 251920Z AUTO 05006KT 010V070 9999 -RA SCT011
                        BKN044 05/02 Q1008 TEMPO RA BKN012=
201604251850 METAR COR EGLL 251850Z AUTO 02009KT 350V070 9999 -RA BKN017
                        07/04 Q1008 NOSIG=
201604251820 METAR COR EGLL 251820Z AUTO 02007KT 340V060 9999 NCD 07/03
                        Q1007 NOSIG=
201604251750 METAR COR EGLL 251750Z AUTO 03009KT 9999 NCD 08/03 Q1007
                        NOSIG=
201604251720 METAR COR EGLL 251720Z AUTO 03011KT 360V070 9999 BKN042 10/04
                        Q1006 TEMPO SHRA=
201604251650 METAR COR EGLL 251650Z AUTO 33010KT 300V020 9999 BKN040 12/02
                        Q1006 TEMPO SHRA=
201604251620 METAR COR EGLL 251620Z AUTO 31010KT 280V350 9999 BKN031///
                        //////TCU 11/05 Q1006 NOSIG=
201604251550 METAR COR EGLL 251550Z 28011KT 9999 VCSH FEW042CB 11/06 Q1006
                        TEMPO SHRA=
201604251520 METAR COR EGLL 251520Z 31010KT 9999 VCSH FEW015CB SCT019
                        11/07 Q1006 TEMPO SHRA=
201604251450 METAR COR EGLL 251450Z 33013KT 290V360 9999 8000NE -SHRA
                        FEW018CB SCT026 BKN041 11/05 Q1007
                        TEMPO SHRA=
201604251420 METAR COR EGLL 251420Z 31009KT 270V350 9999 -SHRA FEW020CB
                        BKN029 10/05 Q1007 RESHRA TEMPO SHRA=
201604251350 METAR COR EGLL 251350Z AUTO 29012KT 9999 BKN033 OVC048 11/04
                        Q1007 NOSIG=
201604251320 METAR COR EGLL 251320Z AUTO 28013KT 9999 FEW021 10/05 Q1008
                        NOSIG=
201604251250 METAR COR EGLL 251250Z AUTO 29008KT 260V330 9999 -RA FEW018
                        BKN032 10/04 Q1008 NOSIG=
201604251220 METAR COR EGLL 251220Z AUTO 28011KT 9999 SCT034 OVC048 11/03
                        Q1008 NOSIG=
201604251150 METAR COR EGLL 251150Z AUTO 28011KT 9999 SCT031 OVC048 11/03
                        Q1008 NOSIG=
201604251120 METAR COR EGLL 251120Z AUTO 28013KT 9999 FEW028 OVC048 11/04
                        Q1009 NOSIG=
201604251050 METAR COR EGLL 251050Z AUTO 29012KT 9999 SCT026 11/04 Q1009
                        NOSIG=
201604251020 METAR COR EGLL 251020Z AUTO 28012KT 9999 FEW025 10/04 Q1010
                        NOSIG=
201604250950 METAR EGLL 250950Z AUTO 29012KT 9999 BKN025/// 10/04 Q1010=
201604250920 METAR COR EGLL 250920Z AUTO 29013KT 9999 BKN025 10/04 Q1010
                        NOSIG=
201604250850 METAR COR EGLL 250850Z AUTO 28012KT 9999 SCT025 10/04 Q1011
                        NOSIG=
201604250820 METAR COR EGLL 250820Z AUTO 27012KT 9999 NCD 09/05 Q1011
                        NOSIG=
201604250750 METAR COR EGLL 250750Z AUTO 27011KT 9999 NCD 08/05 Q1011
                        NOSIG=
201604250720 METAR COR EGLL 250720Z AUTO 26010KT 9999 NCD 08/05 Q1012
                        NOSIG=
201604250650 METAR COR EGLL 250650Z AUTO 27013KT 9999 NCD 07/05 Q1012
                        NOSIG=
201604250620 METAR COR EGLL 250620Z AUTO 26010KT 9999 NCD 07/04 Q1012
                        NOSIG=
201604250550 METAR COR EGLL 250550Z AUTO 26010KT 9999 NCD 07/03 Q1013
                        NOSIG=
201604250520 METAR COR EGLL 250520Z AUTO 25011KT 9999 OVC041 07/03 Q1013
                        NOSIG=
201604250450 METAR COR EGLL 250450Z AUTO 26008KT 9999 FEW044 07/02 Q1014
                        NOSIG=
201604250420 METAR COR EGLL 250420Z AUTO 25008KT 9999 NCD 06/03 Q1014
                        NOSIG=
201604250350 METAR COR EGLL 250350Z AUTO 27006KT 9999 NCD 06/03 Q1015
                        NOSIG=
201604250320 METAR COR EGLL 250320Z AUTO 27007KT 9999 NCD 06/03 Q1015
                        NOSIG=
201604250250 METAR COR EGLL 250250Z AUTO 27007KT 9999 NCD 06/03 Q1016
                        NOSIG=
201604250220 METAR COR EGLL 250220Z AUTO 27007KT 9999 NCD 06/04 Q1016
                        NOSIG=
201604250150 METAR COR EGLL 250150Z AUTO 28006KT 9999 NCD 06/03 Q1016
                        NOSIG=
201604250120 METAR COR EGLL 250120Z AUTO 27006KT 9999 NCD 05/03 Q1017
                        NOSIG=
201604250050 METAR COR EGLL 250050Z AUTO 27006KT 9999 NCD 05/03 Q1017
                        NOSIG=
201604250020 METAR COR EGLL 250020Z AUTO 27007KT 9999 FEW032 06/04 Q1017
                        NOSIG=
201604242350 METAR COR EGLL 242350Z AUTO 27006KT 9999 NCD 06/04 Q1018
                        NOSIG=
201604242320 METAR COR EGLL 242320Z AUTO 28006KT 9999 FEW038 07/04 Q1018
                        NOSIG=
201604242250 METAR COR EGLL 242250Z AUTO 28005KT 9999 BKN039 07/04 Q1018
                        NOSIG=
201604242220 METAR COR EGLL 242220Z AUTO 27007KT 9999 NCD 07/04 Q1018
                        NOSIG=
201604242150 METAR COR EGLL 242150Z AUTO 28006KT 9999 NCD 07/04 Q1019
                        NOSIG=
201604242120 METAR COR EGLL 242120Z AUTO 28005KT 9999 FEW048 07/04 Q1019
                        NOSIG=
201604242050 METAR COR EGLL 242050Z AUTO 29005KT 9999 SCT047 08/04 Q1019
                        NOSIG=
201604242020 METAR COR EGLL 242020Z AUTO 29005KT 9999 -RA BKN039 08/04
                        Q1019 NOSIG=
201604241950 METAR COR EGLL 241950Z AUTO 28007KT 240V310 9999 FEW037 07/04
                        Q1019 NOSIG=
201604241920 METAR COR EGLL 241920Z AUTO 30005KT 9999 -RA BKN041 08/03
                        Q1019 NOSIG=
201604241850 METAR COR EGLL 241850Z AUTO 29006KT 9999 BKN042 08/03 Q1019
                        NOSIG=
201604241820 METAR COR EGLL 241820Z AUTO 31007KT 9999 OVC044 09/02 Q1019
                        NOSIG=
201604241750 METAR COR EGLL 241750Z AUTO 31006KT 270V340 9999 -RA FEW034
                        OVC048 09/02 Q1019 NOSIG=
201604241720 METAR COR EGLL 241720Z AUTO 31007KT 9999 FEW036 09/01 Q1019
                        NOSIG=
201604241650 METAR COR EGLL 241650Z AUTO 31006KT 9999 BKN045 09/01 Q1019
                        NOSIG=
201604241620 METAR COR EGLL 241620Z AUTO 33006KT 300V020 9999 OVC039 09/00
                        Q1020 NOSIG=
201604241550 METAR COR EGLL 241550Z AUTO 32008KT 290V360 9999 OVC040 09/M01
                        Q1020 NOSIG=
201604241520 METAR COR EGLL 241520Z AUTO 32009KT 290V360 9999 BKN045 09/M02
                        Q1020 NOSIG=
201604241450 METAR COR EGLL 241450Z AUTO 33009KT 9999 NCD 10/M03 Q1020
                        NOSIG=
201604241420 METAR COR EGLL 241420Z AUTO 33006KT 290V020 9999 NCD 10/M02
                        Q1020 NOSIG=
201604241350 METAR COR EGLL 241350Z AUTO 36009KT 330V040 9999 OVC048 10/M02
                        Q1020 NOSIG=
201604241320 METAR COR EGLL 241320Z AUTO 34009KT 300V010 9999 BKN047 10/M02
                        Q1020 NOSIG=
201604241250 METAR COR EGLL 241250Z AUTO 33008KT 290V050 9999 BKN047 10/M02
                        Q1020 NOSIG=
201604241220 METAR COR EGLL 241220Z AUTO 33009KT 290V010 9999 BKN048 10/M02
                        Q1020 NOSIG=
201604241150 METAR COR EGLL 241150Z AUTO 33010KT 290V360 9999 BKN046 09/M03
                        Q1020 NOSIG=
201604241120 METAR COR EGLL 241120Z AUTO 34009KT 280V020 9999 BKN042 09/M02
                        Q1021 NOSIG=
201604241050 METAR COR EGLL 241050Z AUTO 33010KT 9999 BKN041 08/M03 Q1021
                        NOSIG=
201604241020 METAR COR EGLL 241020Z AUTO 34008KT 300V030 9999 BKN041 09/M02
                        Q1021 NOSIG=
201604240950 METAR COR EGLL 240950Z AUTO 36009KT 320V040 9999 SCT034 BKN049
                        08/M01 Q1021 NOSIG=
201604240920 METAR COR EGLL 240920Z AUTO 34009KT 9999 FEW026 BKN037 07/M01
                        Q1021 NOSIG=
201604240850 METAR COR EGLL 240850Z AUTO 01009KT 9999 SCT022 07/01 Q1021
                        NOSIG=
201604240820 METAR COR EGLL 240820Z AUTO 35008KT 310V030 9999 SCT016 06/01
                        Q1021 NOSIG=
201604240750 METAR COR EGLL 240750Z AUTO 36005KT 320V030 9999 FEW013 05/02
                        Q1021 NOSIG=
201604240720 METAR COR EGLL 240720Z AUTO 36006KT 330V030 9999 -RA FEW011
                        OVC043 04/01 Q1021 NOSIG=
201604240650 METAR COR EGLL 240650Z AUTO 36004KT 320V050 9999 -RA OVC033
                        03/01 Q1021 NOSIG=
201604240620 METAR COR EGLL 240620Z AUTO 01005KT 340V040 9999 -RA FEW012
                        OVC024 03/01 Q1020 NOSIG=
201604240550 METAR COR EGLL 240550Z AUTO 03006KT 9999 -RA BKN010 OVC022
                        04/02 Q1020 BECMG SCT010 BKN022=
201604240520 METAR COR EGLL 240520Z AUTO 04007KT 010V070 9999 -RA BKN010
                        04/02 Q1020 BECMG SCT010 BKN016=
201604240450 METAR COR EGLL 240450Z AUTO 04006KT 360V070 9999 -RA OVC017
                        05/02 Q1019 TEMPO BKN014=
201604240420 METAR COR EGLL 240420Z AUTO VRB03KT 9999 -RA BKN020 BKN040
                        06/02 Q1019 TEMPO BKN014=
201604240350 METAR COR EGLL 240350Z AUTO 33004KT 9999 SCT023 06/01 Q1019
                        TEMPO -RA BKN014=
201604240320 METAR COR EGLL 240320Z AUTO 32004KT 290V360 9999 BKN024 06/01
                        Q1019 TEMPO -RA BKN014=
201604240250 METAR COR EGLL 240250Z AUTO 32004KT 290V350 9999 FEW026 06/01
                        Q1020 NOSIG=
201604240220 METAR COR EGLL 240220Z AUTO 33004KT 310V030 9999 NCD 06/01
                        Q1020 NOSIG=
201604240150 METAR COR EGLL 240150Z AUTO 32004KT 290V360 9999 NCD 06/01
                        Q1020 NOSIG=
201604240120 METAR COR EGLL 240120Z AUTO 30005KT 9999 NCD 06/00 Q1020
                        NOSIG=
201604240050 METAR COR EGLL 240050Z AUTO 29004KT 9999 NCD 06/00 Q1020
                        NOSIG=
201604240020 METAR COR EGLL 240020Z AUTO 32004KT 290V350 9999 NCD 06/00
                        Q1020 NOSIG=
201604232350 METAR COR EGLL 232350Z AUTO VRB02KT 9999 NCD 06/M00 Q1020
                        NOSIG=
201604232320 METAR COR EGLL 232320Z AUTO VRB03KT 9999 NCD 06/00 Q1021
                        NOSIG=
201604232250 METAR COR EGLL 232250Z AUTO 31004KT 9999 NCD 05/00 Q1021
                        NOSIG=
201604232220 METAR COR EGLL 232220Z AUTO 29005KT 9999 NCD 05/M00 Q1021
                        NOSIG=
201604232150 METAR COR EGLL 232150Z AUTO 29005KT 9999 NCD 07/M01 Q1021
                        NOSIG=
201604232120 METAR COR EGLL 232120Z AUTO 29004KT 9999 NCD 08/M02 Q1021
                        NOSIG=
201604232050 METAR COR EGLL 232050Z AUTO VRB02KT 9999 NCD 08/M03 Q1021
                        NOSIG=
201604232020 METAR COR EGLL 232020Z AUTO 32003KT 9999 NCD 09/M04 Q1021
                        NOSIG=
201604231950 METAR COR EGLL 231950Z AUTO VRB03KT 9999 NCD 09/M04 Q1021
                        NOSIG=
201604231920 METAR COR EGLL 231920Z AUTO VRB03KT 9999 NCD 09/M03 Q1021
                        NOSIG=
201604231850 METAR COR EGLL 231850Z AUTO 35004KT 300V040 9999 NCD 09/M03
                        Q1021 NOSIG=
201604231820 METAR COR EGLL 231820Z AUTO 34006KT 300V030 9999 NCD 10/M02
                        Q1021 NOSIG=
201604231750 METAR COR EGLL 231750Z AUTO 36005KT 320V050 9999 NCD 09/M02
                        Q1021 NOSIG=
201604231720 METAR COR EGLL 231720Z AUTO 01005KT 330V060 9999 NCD 09/M02
                        Q1021 NOSIG=
201604231650 METAR COR EGLL 231650Z AUTO 03006KT 340V090 9999 SCT048 10/M01
                        Q1020 NOSIG=
201604231620 METAR COR EGLL 231620Z AUTO 04006KT 340V080 9999 NCD 10/M00
                        Q1020 NOSIG=
201604231550 METAR COR EGLL 231550Z AUTO 04005KT 350V090 9999 NCD 10/M02
                        Q1020 NOSIG=
201604231520 METAR COR EGLL 231520Z AUTO 01006KT 330V060 9999 BKN045 09/M01
                        Q1020 NOSIG=
201604231450 METAR COR EGLL 231450Z AUTO 03009KT 340V060 9999 NCD 09/M01
                        Q1020 NOSIG=
201604231420 METAR COR EGLL 231420Z AUTO 36009KT 330V030 9999 FEW048 10/M02
                        Q1021 NOSIG=
201604231350 METAR COR EGLL 231350Z AUTO 01009KT 320V040 9999 FEW039 SCT047
                        10/M03 Q1021 NOSIG=
201604231320 METAR COR EGLL 231320Z AUTO 02010KT 340V050 9999 FEW046 11/M01
                        Q1021 NOSIG=
201604231250 METAR COR EGLL 231250Z AUTO 35009KT 310V020 9999 SCT043 10/M00
                        Q1021 NOSIG=
201604231220 METAR COR EGLL 231220Z AUTO 01007KT 340V050 9999 FEW040 10/00
                        Q1021 NOSIG=
201604231150 METAR COR EGLL 231150Z AUTO 35009KT 290V030 9999 FEW036 10/01
                        Q1021 NOSIG=
201604231120 METAR COR EGLL 231120Z AUTO 03009KT 330V080 9999 FEW036 09/01
                        Q1021 NOSIG=
201604231050 METAR COR EGLL 231050Z AUTO 01008KT 320V040 9999 FEW033 BKN048
                        08/01 Q1021 NOSIG=
201604231020 METAR COR EGLL 231020Z AUTO 02008KT 330V060 9999 FEW028 BKN047
                        09/02 Q1021 NOSIG=
201604230950 METAR COR EGLL 230950Z AUTO 01009KT 340V050 9999 FEW025 09/02
                        Q1021 NOSIG=
201604230920 METAR COR EGLL 230920Z AUTO 36009KT 330V030 9999 BKN020 08/03
                        Q1021 NOSIG=
201604230850 METAR COR EGLL 230850Z AUTO 02008KT 340V060 9999 BKN018 07/03
                        Q1020 NOSIG=
201604230820 METAR COR EGLL 230820Z AUTO 03008KT 350V060 9999 SCT015 07/03
                        Q1020 NOSIG=
201604230750 METAR COR EGLL 230750Z AUTO 36008KT 320V030 9999 FEW015 BKN047
                        07/03 Q1020 NOSIG=
201604230720 METAR COR EGLL 230720Z AUTO 36008KT 330V030 9999 FEW026 06/03
                        Q1020 NOSIG=
201604230650 METAR COR EGLL 230650Z AUTO 36008KT 9999 NCD 05/03 Q1020
                        NOSIG=
201604230620 METAR COR EGLL 230620Z AUTO 01006KT 340V040 9999 NCD 04/03
                        Q1020 NOSIG=
201604230550 METAR COR EGLL 230550Z AUTO 36005KT 320V030 9999 FEW047 04/02
                        Q1020 NOSIG=
201604230520 METAR COR EGLL 230520Z AUTO 36005KT 9999 NCD 03/02 Q1020
                        NOSIG=
201604230450 METAR COR EGLL 230450Z AUTO 35004KT 9999 FEW020 03/02 Q1020
                        NOSIG=
201604230420 METAR COR EGLL 230420Z AUTO 36005KT 9999 FEW048 04/02 Q1019
                        NOSIG=
201604230350 METAR COR EGLL 230350Z AUTO 36004KT 330V040 9999 SCT043 04/02
                        Q1019 NOSIG=
201604230320 METAR COR EGLL 230320Z AUTO 36005KT 9999 NCD 04/02 Q1019
                        NOSIG=
201604230250 METAR COR EGLL 230250Z AUTO 01006KT 9999 FEW042 05/03 Q1019
                        NOSIG=
201604230220 METAR COR EGLL 230220Z AUTO 01006KT 9999 BKN038 05/03 Q1019
                        NOSIG=
201604230150 METAR COR EGLL 230150Z AUTO 01004KT 9999 NCD 05/04 Q1020
                        NOSIG=
201604230120 METAR COR EGLL 230120Z AUTO 36004KT 9999 NCD 05/04 Q1020
                        NOSIG=
201604230050 METAR COR EGLL 230050Z AUTO 36004KT 9999 NCD 06/04 Q1020
                        NOSIG=
201604230020 METAR COR EGLL 230020Z AUTO 02004KT 9999 NCD 06/04 Q1020
                        NOSIG=
201604222350 METAR COR EGLL 222350Z AUTO 05005KT 9999 SCT014 06/04 Q1020
                        NOSIG=
201604222320 METAR COR EGLL 222320Z AUTO 04007KT 350V080 9000 -RA BKN010
                        BKN023 06/05 Q1020 BECMG FEW015 BKN050=
201604222250 METAR COR EGLL 222250Z AUTO 04004KT 010V070 9999 -RA BKN011
                        OVC023 06/04 Q1020 BECMG SCT025=
201604222220 METAR COR EGLL 222220Z AUTO 05005KT 9999 -RA BKN016 OVC043
                        06/04 Q1020 NOSIG=
201604222150 METAR COR EGLL 222150Z AUTO 06006KT 9999 -RA SCT016 BKN034
                        06/04 Q1020 NOSIG=
201604222120 METAR COR EGLL 222120Z AUTO 06012KT 9999 -RA FEW008 BKN016
                        OVC031 06/04 Q1020 TEMPO BKN012=
201604222050 METAR COR EGLL 222050Z AUTO 06008KT 9000 -RA BKN009 BKN023
                        07/05 Q1020 BECMG SCT012 BKN025=
201604222020 METAR COR EGLL 222020Z AUTO 06009KT 9999 -RA BKN008/// //////TCU
                        07/05 Q1020 BECMG SCT012 BKN025=
201604221950 METAR COR EGLL 221950Z AUTO 06007KT 9999 -RA BKN009 07/06
                        Q1020 TEMPO BKN012=
201604221920 METAR COR EGLL 221920Z AUTO 06008KT 030V090 9999 -RA FEW010
                        BKN022 BKN039 07/06 Q1019 TEMPO BKN012=
201604221850 METAR COR EGLL 221850Z 06009KT 9000 -RA FEW007 SCT010 BKN027
                        08/06 Q1019 TEMPO BKN012=
201604221820 METAR COR EGLL 221820Z AUTO 07006KT 9999 -RA FEW013 BKN044
                        08/06 Q1019 TEMPO RADZ BKN010=
201604221750 METAR COR EGLL 221750Z AUTO 06007KT 8000 -RA FEW008 BKN027
                        OVC046 08/07 Q1019 TEMPO BKN008=
201604221720 METAR COR EGLL 221720Z AUTO 06008KT 9999 -RA SCT009 BKN020
                        OVC036 09/07 Q1019 TEMPO BKN009=
201604221650 METAR COR EGLL 221650Z AUTO 06009KT 8000 -RA BKN009 OVC022
                        09/07 Q1019 TEMPO BKN010=
201604221620 METAR COR EGLL 221620Z AUTO 08008KT 8000 -RA BKN012 09/07
                        Q1019 TEMPO BKN015=
201604221550 METAR COR EGLL 221550Z AUTO 08007KT 9000 -RA BKN014 10/07
                        Q1019 TEMPO BKN016=
201604221520 METAR COR EGLL 221520Z AUTO 09008KT 9999 -RA BKN017 10/07
                        Q1020 TEMPO BKN014=
201604221450 METAR COR EGLL 221450Z AUTO 10007KT 9999 -RA OVC019 10/07
                        Q1020 TEMPO BKN014=
201604221420 METAR COR EGLL 221420Z AUTO 07007KT 9999 -RA BKN022 10/07
                        Q1020 TEMPO BKN014=
201604221350 METAR COR EGLL 221350Z AUTO 06007KT 9999 -RA BKN019 OVC041
                        11/07 Q1020 TEMPO BKN014=
201604221320 METAR COR EGLL 221320Z AUTO 06009KT 9999 -RA FEW014 BKN024
                        11/07 Q1020 TEMPO BKN014=
201604221250 METAR COR EGLL 221250Z AUTO 06008KT 020V090 9999 -RA BKN025
                        11/06 Q1021 NOSIG=
201604221220 METAR COR EGLL 221220Z AUTO 07008KT 9999 OVC024 11/05 Q1021
                        NOSIG=
201604221150 METAR COR EGLL 221150Z AUTO 08010KT 9999 -RA BKN022 11/06
                        Q1021 NOSIG=
201604221120 METAR COR EGLL 221120Z AUTO 07009KT 9999 -RA BKN014 11/06
                        Q1021 BECMG SCT016=
201604221050 METAR COR EGLL 221050Z AUTO 07009KT 9999 BKN022 10/05 Q1022
                        NOSIG=
201604221020 METAR COR EGLL 221020Z AUTO 08010KT 9999 -RA BKN021 10/05
                        Q1022 NOSIG=
201604220950 METAR COR EGLL 220950Z AUTO 07010KT 9999 BKN020 10/05 Q1022
                        NOSIG=
201604220920 METAR COR EGLL 220920Z AUTO 08010KT 9999 BKN018 10/05 Q1022
                        NOSIG=
201604220850 METAR COR EGLL 220850Z AUTO 07010KT 9999 BKN018 09/05 Q1022
                        NOSIG=
201604220820 METAR COR EGLL 220820Z AUTO 07010KT 9999 SCT017 09/05 Q1022
                        NOSIG=
201604220750 METAR COR EGLL 220750Z AUTO 07009KT 9999 FEW045 08/04 Q1022
                        NOSIG=
201604220720 METAR COR EGLL 220720Z AUTO 06008KT 9999 NCD 08/03 Q1022
                        NOSIG=
201604220650 METAR COR EGLL 220650Z AUTO 06010KT 9999 NCD 08/02 Q1022
                        NOSIG=
201604220620 METAR COR EGLL 220620Z AUTO 06009KT 9999 NCD 08/02 Q1022
                        NOSIG=
201604220550 METAR COR EGLL 220550Z AUTO 06009KT 020V080 9999 NCD 08/02
                        Q1022 NOSIG=
201604220520 METAR COR EGLL 220520Z AUTO 06008KT 9999 NCD 08/02 Q1022
                        NOSIG=
201604220450 METAR COR EGLL 220450Z AUTO 06007KT 9999 NCD 08/01 Q1022
                        NOSIG=
201604220420 METAR COR EGLL 220420Z AUTO 06007KT 9999 NCD 08/01 Q1022
                        NOSIG=
201604220350 METAR COR EGLL 220350Z AUTO 06008KT 9999 NCD 08/02 Q1022
                        NOSIG=
201604220320 METAR COR EGLL 220320Z AUTO 06007KT 9999 NCD 09/01 Q1022
                        NOSIG=
201604220250 METAR COR EGLL 220250Z AUTO 06008KT 9999 NCD 09/02 Q1022
                        NOSIG=
201604220220 METAR COR EGLL 220220Z AUTO 06008KT 9999 NCD 09/02 Q1022
                        NOSIG=
201604220150 METAR COR EGLL 220150Z AUTO 06011KT 9999 NCD 09/02 Q1022
                        NOSIG=
201604220120 METAR EGLL 220120Z AUTO 06012KT 9999 NCD 09/02 Q1022=
201604220050 METAR COR EGLL 220050Z AUTO 06011KT 9999 NCD 09/03 Q1023
                        NOSIG=
201604220020 METAR COR EGLL 220020Z AUTO 06010KT 9999 NCD 09/03 Q1023
                        NOSIG=
201604212350 METAR COR EGLL 212350Z AUTO 06010KT 9999 NCD 09/03 Q1023
                        NOSIG=
201604212320 METAR COR EGLL 212320Z AUTO 06008KT 9999 NCD 09/03 Q1023
                        NOSIG=
201604212250 METAR COR EGLL 212250Z AUTO 06008KT 9999 NCD 09/03 Q1023
                        NOSIG=
201604212220 METAR COR EGLL 212220Z AUTO 06008KT 9999 NCD 10/02 Q1023
                        NOSIG=
201604212150 METAR COR EGLL 212150Z AUTO 06008KT 9999 NCD 10/00 Q1023
                        NOSIG=
201604212120 METAR COR EGLL 212120Z AUTO 06007KT 9999 NCD 10/M00 Q1023
                        NOSIG=
201604212050 METAR COR EGLL 212050Z AUTO 06010KT 9999 NCD 11/00 Q1023
                        NOSIG=
201604212020 METAR COR EGLL 212020Z AUTO 06008KT 9999 NCD 11/00 Q1023
                        NOSIG=
201604211950 METAR COR EGLL 211950Z AUTO 06010KT 9999 NCD 12/02 Q1022
                        NOSIG=
201604211920 METAR COR EGLL 211920Z AUTO 07009KT 9999 NCD 12/01 Q1022
                        NOSIG=
201604211850 METAR COR EGLL 211850Z AUTO 06010KT 9999 NCD 12/02 Q1022
                        NOSIG=
201604211820 METAR COR EGLL 211820Z AUTO 07009KT 9999 NCD 13/02 Q1021
                        NOSIG=
201604211750 METAR COR EGLL 211750Z AUTO 07009KT 9999 NCD 13/03 Q1021
                        NOSIG=
201604211720 METAR COR EGLL 211720Z AUTO 08010KT 9999 NCD 14/04 Q1021
                        NOSIG=
201604211650 METAR COR EGLL 211650Z AUTO 07010KT 9999 NCD 14/03 Q1021
                        NOSIG=
201604211620 METAR COR EGLL 211620Z AUTO 07010KT 9999 NCD 15/03 Q1021
                        NOSIG=
201604211550 METAR COR EGLL 211550Z AUTO 07010KT 030V100 9999 NCD 15/03
                        Q1022 NOSIG=
201604211520 METAR COR EGLL 211520Z AUTO 07011KT 9999 NCD 16/03 Q1022
                        NOSIG=
201604211450 METAR COR EGLL 211450Z AUTO 08011KT 9999 NCD 15/03 Q1022
                        NOSIG=
201604211420 METAR COR EGLL 211420Z AUTO 06011KT 9999 NCD 16/04 Q1022
                        NOSIG=
201604211350 METAR COR EGLL 211350Z AUTO 08012KT 9999 NCD 16/05 Q1022
                        NOSIG=
201604211320 METAR COR EGLL 211320Z AUTO 07012KT 9999 NCD 16/05 Q1022
                        NOSIG=
201604211250 METAR COR EGLL 211250Z AUTO 09014KT 9999 NCD 15/04 Q1023
                        NOSIG=
201604211220 METAR COR EGLL 211220Z AUTO 07013KT 9999 NCD 16/05 Q1023
                        NOSIG=
201604211150 METAR COR EGLL 211150Z AUTO 09015KT 9999 NCD 15/04 Q1023
                        NOSIG=
201604211120 METAR COR EGLL 211120Z AUTO 09013KT 9999 NCD 15/05 Q1023
                        NOSIG=
201604211050 METAR COR EGLL 211050Z AUTO 08010KT 9999 NCD 14/05 Q1024
                        NOSIG=
201604211020 METAR COR EGLL 211020Z AUTO 09012KT 9999 NCD 13/06 Q1024
                        NOSIG=
201604210950 METAR COR EGLL 210950Z AUTO 08010KT 9999 NCD 12/07 Q1024
                        NOSIG=
201604210920 METAR COR EGLL 210920Z AUTO 06009KT 9999 NCD 11/06 Q1024
                        NOSIG=
201604210850 METAR COR EGLL 210850Z AUTO 08008KT 9000 NCD 10/07 Q1024
                        NOSIG=
201604210820 METAR COR EGLL 210820Z AUTO 06010KT 9000 NCD 10/06 Q1024
                        NOSIG=
201604210750 METAR COR EGLL 210750Z AUTO 07008KT 9000 FEW013 09/06 Q1024
                        NOSIG=
201604210720 METAR COR EGLL 210720Z AUTO 07011KT 9000 SCT010 09/06 Q1024
                        NOSIG=
201604210650 METAR EGLL 210650Z AUTO 07011KT 8000 BKN008 08/06 Q1024=
201604210620 METAR COR EGLL 210620Z AUTO 07011KT 8000 FEW009 08/06 Q1024
                        NOSIG=
201604210550 METAR COR EGLL 210550Z AUTO 07013KT 7000 NCD 07/06 Q1024
                        NOSIG=
201604210520 METAR COR EGLL 210520Z AUTO 07009KT 7000 NCD 07/05 Q1024
                        NOSIG=
201604210450 METAR COR EGLL 210450Z AUTO 06009KT 7000 NCD 07/05 Q1024
                        NOSIG=
201604210420 METAR COR EGLL 210420Z AUTO 06008KT 7000 NCD 07/05 Q1024
                        NOSIG=
201604210350 METAR COR EGLL 210350Z AUTO 06008KT 8000 NCD 06/05 Q1025
                        NOSIG=
201604210320 METAR COR EGLL 210320Z AUTO 05006KT 9000 NCD 06/04 Q1025
                        NOSIG=
201604210250 METAR COR EGLL 210250Z AUTO 05005KT 9999 NCD 06/04 Q1026
                        NOSIG=
201604210220 METAR COR EGLL 210220Z AUTO 05005KT 9999 NCD 06/04 Q1026
                        NOSIG=
201604210150 METAR COR EGLL 210150Z AUTO 05006KT 9999 NCD 06/04 Q1026
                        NOSIG=
201604210120 METAR COR EGLL 210120Z AUTO 05004KT 9999 NCD 06/04 Q1026
                        NOSIG=
201604210050 METAR COR EGLL 210050Z AUTO 06005KT 9999 NCD 06/04 Q1026
                        NOSIG=
201604210020 METAR COR EGLL 210020Z AUTO 06007KT 9999 NCD 06/04 Q1027
                        NOSIG=
201604202350 METAR COR EGLL 202350Z AUTO 07007KT 9999 NCD 07/04 Q1027
                        NOSIG=
201604202320 METAR COR EGLL 202320Z AUTO 06008KT 9999 NCD 07/04 Q1027
                        NOSIG=
201604202250 METAR COR EGLL 202250Z AUTO 06007KT 9999 NCD 07/04 Q1027
                        NOSIG=
201604202220 METAR COR EGLL 202220Z AUTO 06010KT 9999 NCD 07/03 Q1027
                        NOSIG=
201604202150 METAR COR EGLL 202150Z AUTO 06010KT 9999 NCD 07/03 Q1027
                        NOSIG=
201604202120 METAR COR EGLL 202120Z AUTO 08009KT 9999 NCD 08/03 Q1028
                        NOSIG=
201604202050 METAR COR EGLL 202050Z AUTO 07010KT 9999 NCD 08/03 Q1028
                        NOSIG=
201604202020 METAR COR EGLL 202020Z AUTO 07009KT 9999 NCD 09/03 Q1027
                        NOSIG=
201604201950 METAR COR EGLL 201950Z AUTO 07011KT 9999 NCD 09/01 Q1027
                        NOSIG=
201604201920 METAR COR EGLL 201920Z AUTO 07010KT 9999 NCD 09/00 Q1027
                        NOSIG=
201604201850 METAR COR EGLL 201850Z AUTO 07010KT 9999 NCD 10/01 Q1027
                        NOSIG=
201604201820 METAR EGLL 201820Z AUTO 07011KT 9999 NCD 11/01 Q1027=
201604201750 METAR COR EGLL 201750Z AUTO 08013KT 9999 NCD 12/01 Q1027
                        NOSIG=
201604201720 METAR COR EGLL 201720Z AUTO 07013KT 9999 NCD 12/02 Q1027
                        NOSIG=
201604201650 METAR COR EGLL 201650Z AUTO 08011KT 9999 NCD 13/02 Q1027
                        NOSIG=
201604201620 METAR COR EGLL 201620Z AUTO 08012KT 9999 NCD 13/02 Q1028
                        NOSIG=
201604201550 METAR COR EGLL 201550Z AUTO 10012KT 9999 NCD 14/02 Q1028
                        NOSIG=
201604201520 METAR COR EGLL 201520Z AUTO 10012KT 9999 NCD 14/03 Q1028
                        NOSIG=
201604201450 METAR COR EGLL 201450Z AUTO 10013KT 9999 NCD 14/02 Q1029
                        NOSIG=
201604201420 METAR COR EGLL 201420Z AUTO 11014KT 9999 NCD 14/02 Q1029
                        NOSIG=
201604201350 METAR COR EGLL 201350Z AUTO 11013KT 9999 NCD 14/02 Q1029
                        NOSIG=
201604201320 METAR COR EGLL 201320Z AUTO 10012KT 9999 NCD 14/02 Q1029
                        NOSIG=
201604201250 METAR COR EGLL 201250Z AUTO 08012KT 9999 NCD 14/03 Q1030
                        NOSIG=
201604201220 METAR COR EGLL 201220Z AUTO 10013KT 060V130 9999 NCD 13/03
                        Q1030 NOSIG=
201604201150 METAR COR EGLL 201150Z AUTO 10013KT 9999 NCD 14/04 Q1030
                        NOSIG=
201604201120 METAR COR EGLL 201120Z AUTO 10012KT 9999 NCD 13/04 Q1030
                        NOSIG=
201604201050 METAR COR EGLL 201050Z AUTO 09011KT 060V120 9999 NCD 13/03
                        Q1030 NOSIG=
201604201020 METAR COR EGLL 201020Z AUTO 10012KT 9999 NCD 12/04 Q1030
                        NOSIG=
201604200950 METAR COR EGLL 200950Z AUTO 07010KT 9999 NCD 11/03 Q1031
                        NOSIG=
201604200920 METAR COR EGLL 200920Z AUTO 06011KT 9999 NCD 11/04 Q1031
                        NOSIG=
201604200850 METAR COR EGLL 200850Z AUTO 09012KT 9999 FEW024 10/04 Q1031
                        NOSIG=
201604200820 METAR COR EGLL 200820Z AUTO 09011KT 9999 NCD 09/04 Q1031
                        NOSIG=
201604200750 METAR COR EGLL 200750Z AUTO 09012KT 9999 FEW016 09/04 Q1031
                        NOSIG=
201604200720 METAR COR EGLL 200720Z AUTO 07006KT 030V110 9999 FEW016 08/05
                        Q1031 NOSIG=
201604200650 METAR COR EGLL 200650Z AUTO 06005KT 9999 NCD 07/05 Q1031
                        NOSIG=
201604200620 METAR COR EGLL 200620Z AUTO 05004KT 9999 NCD 06/04 Q1031
                        NOSIG=
201604200550 METAR COR EGLL 200550Z AUTO 05004KT 9999 NCD 05/03 Q1031
                        NOSIG=
201604200520 METAR COR EGLL 200520Z AUTO 06004KT 9999 NCD 04/02 Q1031
                        NOSIG=
201604200450 METAR COR EGLL 200450Z AUTO 05004KT 9999 NCD 04/03 Q1031
                        NOSIG=
201604200420 METAR COR EGLL 200420Z AUTO 04004KT 9999 NCD 04/02 Q1031
                        NOSIG=
201604200350 METAR COR EGLL 200350Z AUTO 06003KT 9999 NCD 04/02 Q1031
                        NOSIG=
201604200320 METAR COR EGLL 200320Z AUTO 06005KT 9999 NCD 05/03 Q1031
                        NOSIG=
201604200250 METAR COR EGLL 200250Z AUTO 07005KT 9999 NCD 05/03 Q1031
                        NOSIG=
201604200220 METAR COR EGLL 200220Z AUTO 07005KT 9999 NCD 05/03 Q1031
                        NOSIG=
201604200150 METAR COR EGLL 200150Z AUTO 06006KT 9999 NCD 06/03 Q1030
                        NOSIG=
201604200120 METAR COR EGLL 200120Z AUTO 06007KT 9999 NCD 07/04 Q1030
                        NOSIG=
201604200050 METAR COR EGLL 200050Z AUTO 06005KT 9999 NCD 06/03 Q1031
                        NOSIG=
201604200020 METAR COR EGLL 200020Z AUTO 06005KT 9999 NCD 06/03 Q1031
                        NOSIG=
201604192350 METAR COR EGLL 192350Z AUTO 07005KT 9999 NCD 07/04 Q1031
                        NOSIG=
201604192320 METAR COR EGLL 192320Z AUTO 08005KT 9999 NCD 07/04 Q1031
                        NOSIG=
201604192250 METAR COR EGLL 192250Z AUTO 09008KT 9999 NCD 08/04 Q1031
                        NOSIG=
201604192220 METAR COR EGLL 192220Z AUTO 09011KT 9999 NCD 08/05 Q1031
                        NOSIG=
201604192150 METAR COR EGLL 192150Z AUTO 10011KT 9999 NCD 08/05 Q1031
                        NOSIG=
201604192120 METAR COR EGLL 192120Z AUTO 09012KT 9999 NCD 08/05 Q1031
                        NOSIG=
201604192050 METAR COR EGLL 192050Z AUTO 09012KT 9999 NCD 09/04 Q1030
                        NOSIG=
201604192020 METAR COR EGLL 192020Z AUTO 09012KT 9999 NCD 10/03 Q1030
                        NOSIG=
201604191950 METAR COR EGLL 191950Z AUTO 09011KT 9999 NCD 11/03 Q1030
                        NOSIG=
201604191920 METAR COR EGLL 191920Z AUTO 09012KT 9999 NCD 11/03 Q1029
                        NOSIG=
201604191850 METAR COR EGLL 191850Z AUTO 06008KT 9999 NCD 13/01 Q1028
                        NOSIG=
201604191820 METAR COR EGLL 191820Z AUTO 06007KT 9999 NCD 13/01 Q1028
                        NOSIG=
201604191750 METAR COR EGLL 191750Z AUTO 06007KT 9999 NCD 14/01 Q1028
                        NOSIG=
201604191720 METAR COR EGLL 191720Z AUTO 07007KT 9999 NCD 14/01 Q1028
                        NOSIG=
201604191650 METAR COR EGLL 191650Z AUTO 06006KT 020V110 9999 NCD 15/01
                        Q1028 NOSIG=
201604191620 METAR COR EGLL 191620Z AUTO 05005KT 350V110 9999 NCD 15/01
                        Q1028 NOSIG=
201604191550 METAR COR EGLL 191550Z AUTO 08004KT 020V140 9999 NCD 15/01
                        Q1028 NOSIG=
201604191520 METAR COR EGLL 191520Z AUTO 04006KT 340V090 9999 NCD 15/01
                        Q1028 NOSIG=
201604191450 METAR COR EGLL 191450Z AUTO 08005KT 040V140 9999 NCD 15/01
                        Q1028 NOSIG=
201604191420 METAR COR EGLL 191420Z AUTO 04007KT 340V070 9999 NCD 15/02
                        Q1028 NOSIG=
201604191350 METAR COR EGLL 191350Z AUTO 03007KT 340V070 9999 NCD 15/02
                        Q1028 NOSIG=
201604191320 METAR COR EGLL 191320Z AUTO 34005KT 290V090 9999 BKN049 14/02
                        Q1028 NOSIG=
201604191250 METAR COR EGLL 191250Z AUTO 32004KT 240V020 9999 SCT047 15/02
                        Q1028 NOSIG=
201604191220 METAR COR EGLL 191220Z AUTO 36004KT 300V080 9999 BKN046 14/02
                        Q1029 NOSIG=
201604191150 METAR COR EGLL 191150Z AUTO VRB03KT 9999 FEW045 14/02 Q1029
                        NOSIG=
201604191120 METAR EGLL 191120Z AUTO 34004KT 290V040 9999 BKN044 13/02
                        Q1029=
201604191050 METAR COR EGLL 191050Z AUTO 35007KT 260V030 9999 OVC044 13/02
                        Q1029 NOSIG=
201604191020 METAR COR EGLL 191020Z AUTO 36005KT 290V080 9999 BKN043 13/02
                        Q1028 NOSIG=
201604190950 METAR COR EGLL 190950Z AUTO 36007KT 320V040 9999 BKN041 12/02
                        Q1028 NOSIG=
201604190920 METAR COR EGLL 190920Z AUTO 33004KT 290V040 9999 BKN035 13/02
                        Q1028 NOSIG=
201604190850 METAR COR EGLL 190850Z AUTO VRB03KT 9999 BKN048 12/04 Q1028
                        NOSIG=
201604190820 METAR COR EGLL 190820Z AUTO 04004KT 330V090 9999 FEW020 OVC049
                        11/05 Q1028 NOSIG=
201604190750 METAR COR EGLL 190750Z AUTO 36004KT 330V050 9999 OVC048 11/06
                        Q1028 NOSIG=
201604190720 METAR COR EGLL 190720Z AUTO 35004KT 310V030 9999 OVC047 10/06
                        Q1028 NOSIG=
201604190650 METAR COR EGLL 190650Z AUTO VRB03KT 9999 OVC048 10/06 Q1027
                        NOSIG=
201604190620 METAR COR EGLL 190620Z AUTO 30004KT 9999 OVC046 10/06 Q1027
                        NOSIG=
201604190550 METAR COR EGLL 190550Z AUTO VRB02KT 9999 OVC049 09/06 Q1027
                        NOSIG=
201604190520 METAR COR EGLL 190520Z AUTO 28003KT 9999 OVC045 09/06 Q1026
                        NOSIG=
201604190450 METAR COR EGLL 190450Z AUTO 30003KT 9999 OVC049 09/06 Q1026
                        NOSIG=
201604190420 METAR COR EGLL 190420Z AUTO 29003KT 9999 OVC047 09/06 Q1026
                        NOSIG=
201604190350 METAR COR EGLL 190350Z AUTO 29005KT 9999 OVC049 09/06 Q1026
                        NOSIG=
201604190320 METAR COR EGLL 190320Z AUTO 29005KT 9999 OVC049 08/06 Q1026
                        NOSIG=
201604190250 METAR COR EGLL 190250Z AUTO 27006KT 9999 OVC048 09/06 Q1026
                        NOSIG=
201604190220 METAR COR EGLL 190220Z AUTO 28005KT 9999 OVC046 09/06 Q1026
                        NOSIG=
201604190150 METAR COR EGLL 190150Z AUTO 27007KT 9999 OVC045 09/05 Q1026
                        NOSIG=
201604190120 METAR COR EGLL 190120Z AUTO 27007KT 9999 OVC048 09/05 Q1026
                        NOSIG=
201604190050 METAR COR EGLL 190050Z AUTO 27007KT 9999 OVC048 09/05 Q1026
                        NOSIG=
201604190020 METAR COR EGLL 190020Z AUTO 27007KT 9999 OVC049 09/05 Q1026
                        NOSIG=
201604182350 METAR COR EGLL 182350Z AUTO 27008KT 9999 OVC049 09/05 Q1026
                        NOSIG=
201604182320 METAR COR EGLL 182320Z AUTO 27008KT 9999 OVC048 10/05 Q1025
                        NOSIG=
201604182250 METAR COR EGLL 182250Z AUTO 27007KT 9999 OVC047 10/05 Q1025
                        NOSIG=
201604182220 METAR COR EGLL 182220Z AUTO 27010KT 9999 OVC048 10/05 Q1025
                        NOSIG=
201604182150 METAR COR EGLL 182150Z AUTO 27011KT 9999 OVC047 10/05 Q1025
                        NOSIG=
201604182120 METAR COR EGLL 182120Z AUTO 27010KT 9999 OVC046 10/05 Q1024
                        NOSIG=
201604182050 METAR COR EGLL 182050Z AUTO 28008KT 9999 OVC037 11/05 Q1024
                        NOSIG=
201604182020 METAR COR EGLL 182020Z AUTO 26009KT 9999 OVC037 11/04 Q1024
                        NOSIG=
201604181950 METAR COR EGLL 181950Z AUTO 25008KT 9999 OVC037 11/04 Q1024
                        NOSIG=
201604181920 METAR COR EGLL 181920Z AUTO 25009KT 9999 OVC038 11/04 Q1023
                        NOSIG=
201604181850 METAR COR EGLL 181850Z AUTO 27010KT 9999 OVC040 11/04 Q1023
                        NOSIG=
201604181820 METAR COR EGLL 181820Z AUTO 26010KT 9999 OVC043 11/04 Q1023
                        NOSIG=
201604181750 METAR COR EGLL 181750Z AUTO 26010KT 9999 OVC042 11/03 Q1023
                        NOSIG=
201604181720 METAR COR EGLL 181720Z AUTO 26011KT 9999 OVC044 12/03 Q1022
                        NOSIG=
201604181650 METAR COR EGLL 181650Z AUTO 27012KT 9999 OVC038 12/04 Q1022
                        NOSIG=
201604181620 METAR COR EGLL 181620Z AUTO 27012KT 9999 OVC039 12/03 Q1022
                        NOSIG=
201604181550 METAR COR EGLL 181550Z AUTO 26013KT 9999 BKN040 12/03 Q1022
                        NOSIG=
201604181520 METAR EGLL 181520Z AUTO 27013KT 9999 BKN038 12/03 Q1022=
201604181450 METAR COR EGLL 181450Z AUTO 26014KT 9999 OVC037 12/03 Q1022
                        NOSIG=
201604181420 METAR COR EGLL 181420Z AUTO 26015KT 9999 OVC036 12/03 Q1022
                        NOSIG=
201604181350 METAR COR EGLL 181350Z AUTO 27012KT 9999 BKN038 12/02 Q1022
                        NOSIG=
201604181320 METAR COR EGLL 181320Z AUTO 26013KT 9999 OVC036 12/03 Q1022
                        NOSIG=
201604181250 METAR COR EGLL 181250Z AUTO 27011KT 9999 OVC032 11/03 Q1022
                        NOSIG=
201604181220 METAR COR EGLL 181220Z AUTO 27012KT 9999 OVC032 11/03 Q1022
                        NOSIG=
201604181150 METAR COR EGLL 181150Z AUTO 27012KT 9999 OVC031 11/03 Q1022
                        NOSIG=
201604181120 METAR COR EGLL 181120Z AUTO 28011KT 240V310 9999 OVC031 10/03
                        Q1022 NOSIG=
201604181050 METAR COR EGLL 181050Z AUTO 27014KT 9999 OVC031 10/03 Q1022
                        NOSIG=
201604181020 METAR COR EGLL 181020Z AUTO 28011KT 9999 OVC030 10/03 Q1022
                        NOSIG=
201604180950 METAR COR EGLL 180950Z AUTO 27014KT 9999 BKN030 10/03 Q1022
                        NOSIG=
201604180920 METAR COR EGLL 180920Z AUTO 26011KT 9999 FEW029 10/03 Q1022
                        NOSIG=
201604180850 METAR COR EGLL 180850Z AUTO 26010KT 9999 SCT043 09/03 Q1022
                        NOSIG=
201604180820 METAR COR EGLL 180820Z AUTO 26010KT 220V300 9999 SCT044 09/02
                        Q1022 NOSIG=
201604180750 METAR COR EGLL 180750Z AUTO 26009KT 9999 NCD 08/02 Q1022
                        NOSIG=
201604180720 METAR COR EGLL 180720Z AUTO 24008KT 9999 NCD 07/02 Q1021
                        NOSIG=
201604180650 METAR COR EGLL 180650Z AUTO 24007KT 200V260 9999 NCD 06/02
                        Q1021 NOSIG=
201604180620 METAR COR EGLL 180620Z AUTO 25006KT 9999 NCD 05/02 Q1021
                        NOSIG=
201604180550 METAR COR EGLL 180550Z AUTO 25005KT 9999 NCD 05/02 Q1021
                        NOSIG=
201604180520 METAR COR EGLL 180520Z AUTO 21005KT 170V250 9999 NCD 04/01
                        Q1021 NOSIG=
201604180450 METAR COR EGLL 180450Z AUTO 25006KT 9999 NCD 03/01 Q1021
                        NOSIG=
201604180420 METAR COR EGLL 180420Z AUTO 27005KT 9999 NCD 04/01 Q1021
                        NOSIG=
201604180350 METAR EGLL 180350Z AUTO 27004KT 9999 NCD 03/00 Q1021=
201604180320 METAR COR EGLL 180320Z AUTO VRB02KT 9999 NCD 03/00 Q1020
                        NOSIG=
201604180250 METAR COR EGLL 180250Z AUTO 24005KT 9999 NCD 04/00 Q1020
                        NOSIG=
201604180220 METAR COR EGLL 180220Z AUTO 26006KT 9999 NCD 04/00 Q1020
                        NOSIG=
201604180150 METAR COR EGLL 180150Z AUTO 26005KT 9999 NCD 04/00 Q1020
                        NOSIG=
201604180120 METAR COR EGLL 180120Z AUTO 26006KT 9999 NCD 04/M01 Q1020
                        NOSIG=
201604180050 METAR COR EGLL 180050Z AUTO 26004KT 9999 NCD 05/M01 Q1020
                        NOSIG=
201604180020 METAR COR EGLL 180020Z AUTO 24005KT 9999 NCD 05/M01 Q1020
                        NOSIG=
201604172350 METAR COR EGLL 172350Z AUTO 21005KT 190V250 9999 NCD 05/M01
                        Q1020 NOSIG=
201604172320 METAR COR EGLL 172320Z AUTO 23004KT 9999 NCD 06/M01 Q1020
                        NOSIG=
201604172250 METAR COR EGLL 172250Z AUTO 25005KT 9999 NCD 06/M01 Q1020
                        NOSIG=
201604172220 METAR COR EGLL 172220Z AUTO 22006KT 9999 NCD 06/M00 Q1020
                        NOSIG=
201604172150 METAR COR EGLL 172150Z AUTO 22005KT 9999 NCD 07/00 Q1020
                        NOSIG=
201604172120 METAR COR EGLL 172120Z AUTO 22005KT 9999 NCD 08/00 Q1019
                        NOSIG=
201604172050 METAR COR EGLL 172050Z AUTO VRB03KT 9999 NCD 08/M01 Q1019
                        NOSIG=
201604172020 METAR COR EGLL 172020Z AUTO 31002KT 9999 NCD 09/M03 Q1019
                        NOSIG=
201604171950 METAR COR EGLL 171950Z AUTO 31002KT 9999 NCD 10/M03 Q1019
                        NOSIG=
201604171920 METAR COR EGLL 171920Z AUTO 30003KT 9999 NCD 10/M04 Q1018
                        NOSIG=
201604171850 METAR COR EGLL 171850Z AUTO 30004KT 9999 NCD 10/M03 Q1018
                        NOSIG=
201604171820 METAR COR EGLL 171820Z AUTO 29006KT 9999 NCD 10/M02 Q1018
                        NOSIG=
201604171750 METAR COR EGLL 171750Z AUTO 29005KT 9999 NCD 11/M03 Q1018
                        NOSIG=
201604171720 METAR COR EGLL 171720Z AUTO 27005KT 230V330 9999 NCD 11/M02
                        Q1018 NOSIG=
201604171650 METAR COR EGLL 171650Z AUTO 27004KT 240V310 9999 NCD 11/M03
                        Q1018 NOSIG=
201604171620 METAR COR EGLL 171620Z AUTO 29004KT 9999 NCD 10/M04 Q1017
                        NOSIG=
201604171550 METAR COR EGLL 171550Z AUTO 27005KT 220V290 9999 NCD 11/M03
                        Q1017 NOSIG=
201604171520 METAR COR EGLL 171520Z AUTO 31006KT 290V350 9999 NCD 11/M02
                        Q1017 NOSIG=
201604171450 METAR COR EGLL 171450Z AUTO 31006KT 280V350 9999 NCD 11/M03
                        Q1017 NOSIG=
201604171420 METAR COR EGLL 171420Z AUTO 32006KT 200V010 9999 NCD 11/M01
                        Q1017 NOSIG=
201604171350 METAR COR EGLL 171350Z AUTO VRB02KT 9999 NCD 10/M01 Q1017
                        NOSIG=
201604171320 METAR COR EGLL 171320Z AUTO 30006KT 260V340 9999 FEW045 10/M01
                        Q1017 NOSIG=
201604171250 METAR COR EGLL 171250Z AUTO 36006KT 310V050 9999 BKN043 11/M00
                        Q1017 NOSIG=
201604171220 METAR COR EGLL 171220Z AUTO 33006KT 280V030 9999 SCT043 10/00
                        Q1017 NOSIG=
201604171150 METAR COR EGLL 171150Z AUTO 32007KT 280V360 9999 BKN041 11/00
                        Q1017 NOSIG=
201604171120 METAR COR EGLL 171120Z AUTO 32007KT 300V010 9999 SCT040 10/M00
                        Q1016 NOSIG=
201604171050 METAR COR EGLL 171050Z AUTO 31008KT 9999 SCT037 09/00 Q1016
                        NOSIG=
201604171020 METAR COR EGLL 171020Z AUTO 36006KT 290V040 9999 BKN033 09/00
                        Q1016 NOSIG=
201604170950 METAR COR EGLL 170950Z AUTO 32007KT 270V040 9999 SCT028 08/01
                        Q1016 NOSIG=
201604170920 METAR COR EGLL 170920Z AUTO 33004KT 270V030 9999 SCT025 07/01
                        Q1016 NOSIG=
201604170850 METAR COR EGLL 170850Z AUTO VRB03KT 9999 FEW019 07/01 Q1015
                        NOSIG=
201604170820 METAR COR EGLL 170820Z AUTO VRB03KT 9999 NCD 06/02 Q1015
                        NOSIG=
201604170750 METAR COR EGLL 170750Z AUTO VRB02KT 9999 NCD 05/01 Q1015
                        NOSIG=
201604170720 METAR COR EGLL 170720Z AUTO 30004KT 260V360 9999 NCD 04/01
                        Q1015 NOSIG=
201604170650 METAR COR EGLL 170650Z AUTO 28004KT 9999 NCD 03/01 Q1014
                        NOSIG=
201604170620 METAR COR EGLL 170620Z AUTO 28005KT 9000 NCD 02/01 Q1014
                        NOSIG=
201604170550 METAR COR EGLL 170550Z AUTO 28004KT 9999 NCD 02/00 Q1013
                        NOSIG=
201604170520 METAR COR EGLL 170520Z AUTO 27003KT 9999 NCD 01/M00 Q1013
                        NOSIG=
201604170450 METAR COR EGLL 170450Z AUTO 27003KT 9999 NCD 01/M00 Q1013
                        NOSIG=
201604170420 METAR COR EGLL 170420Z AUTO 29004KT 9999 NCD 01/M01 Q1013
                        NOSIG=
201604170350 METAR COR EGLL 170350Z AUTO 29004KT 9999 NCD 01/M01 Q1012
                        NOSIG=
201604170320 METAR COR EGLL 170320Z AUTO 29003KT 9999 NCD 01/M01 Q1012
                        NOSIG=
201604170250 METAR COR EGLL 170250Z AUTO 31003KT 9999 NCD 02/M00 Q1012
                        NOSIG=
201604170220 METAR COR EGLL 170220Z AUTO 31004KT 9999 NCD 02/M00 Q1012
                        NOSIG=
201604170150 METAR COR EGLL 170150Z AUTO VRB03KT 9999 NCD 01/M00 Q1012
                        NOSIG=
201604170120 METAR COR EGLL 170120Z AUTO 29005KT 9999 NCD 02/M00 Q1011
                        NOSIG=
201604170050 METAR COR EGLL 170050Z 28005KT 9999 NCD 03/01 Q1011 NOSIG=
201604170020 METAR COR EGLL 170020Z 29002KT 9999 NCD 02/00 Q1011 NOSIG=
201604162350 METAR COR EGLL 162350Z 31003KT 9999 NCD 03/01 Q1011 NOSIG=
201604162320 METAR COR EGLL 162320Z 35004KT 9999 FEW045 03/01 Q1011 NOSIG=
201604162220 METAR COR EGLL 162220Z AUTO 36005KT 9999 FEW030/// //////TCU
                        05/01 Q1011 NOSIG=
201604162150 METAR COR EGLL 162150Z AUTO VRB03KT 9999 NCD 05/01 Q1010
                        NOSIG=
201604162120 METAR COR EGLL 162120Z AUTO VRB03KT 9999 NCD 06/01 Q1010
                        NOSIG=
201604162050 METAR COR EGLL 162050Z AUTO 36003KT 9999 NCD 06/01 Q1009
                        NOSIG=
201604162020 METAR COR EGLL 162020Z AUTO VRB02KT 9999 NCD 06/01 Q1009
                        NOSIG=
201604161950 METAR COR EGLL 161950Z AUTO 36003KT 9999 NCD 07/01 Q1009
                        NOSIG=
201604161920 METAR COR EGLL 161920Z AUTO VRB03KT 9999 FEW032 07/01 Q1008
                        NOSIG=
201604161850 METAR COR EGLL 161850Z AUTO 36005KT 320V020 9999 -RA FEW019
                        BKN042 07/01 Q1008 NOSIG=
201604161820 METAR COR EGLL 161820Z AUTO 36010KT 9999 -RA SCT043 08/00
                        Q1007 NOSIG=
201604161750 METAR COR EGLL 161750Z AUTO 34005KT 290V030 9999 SCT046 09/M02
                        Q1007 TEMPO SHRA=
201604161720 METAR COR EGLL 161720Z AUTO 34005KT 280V020 9999 FEW043 09/M02
                        Q1007 TEMPO SHRA=
201604161650 METAR COR EGLL 161650Z AUTO 36005KT 330V040 9999 FEW037 09/M02
                        Q1007 TEMPO SHRA=
201604161620 METAR COR EGLL 161620Z AUTO 32005KT 270V060 9999 NCD 09/00
                        Q1007 TEMPO SHRA=
201604161550 METAR COR EGLL 161550Z AUTO 34006KT 300V010 9999 FEW033 08/M00
                        Q1006 TEMPO SHRA=
201604161520 METAR COR EGLL 161520Z AUTO 32005KT 280V020 9999 OVC049 08/02
                        Q1006 NOSIG=
201604161450 METAR COR EGLL 161450Z AUTO 32005KT 290V020 9999 -RA SCT023
                        OVC037 07/01 Q1006 NOSIG=
201604161420 METAR COR EGLL 161420Z AUTO 35006KT 310V020 9999 SCT025 BKN034
                        08/01 Q1006 NOSIG=
201604161350 METAR COR EGLL 161350Z AUTO 33008KT 300V020 9999 -RA BKN024
                        07/01 Q1006 NOSIG=
201604161320 METAR COR EGLL 161320Z AUTO 36007KT 300V050 9999 -RA SCT017
                        BKN046 07/02 Q1006 NOSIG=
201604161250 METAR COR EGLL 161250Z AUTO 35006KT 320V020 9999 -RA BKN015
                        OVC046 06/02 Q1006 NOSIG=
201604161220 METAR COR EGLL 161220Z AUTO 34006KT 300V030 9999 -RA BKN015
                        OVC045 06/02 Q1005 NOSIG=
201604161150 METAR COR EGLL 161150Z AUTO 35007KT 310V040 9999 -RA BKN017
                        06/02 Q1005 NOSIG=
201604161120 METAR COR EGLL 161120Z AUTO 35008KT 310V030 9999 -RA BKN014
                        OVC041 06/03 Q1005 BECMG BKN018=
201604161050 METAR COR EGLL 161050Z AUTO 33008KT 300V010 9999 -RA BKN013///
                        //////TCU 06/03 Q1004 BECMG BKN016=
201604161020 METAR COR EGLL 161020Z AUTO 34008KT 300V040 9999 -RA BKN011///
                        OVC023/// //////TCU 06/02 Q1004 TEMPO
                        RA=
201604160950 METAR COR EGLL 160950Z AUTO 34007KT 310V020 9999 -RA BKN011///
                        BKN024/// //////TCU 05/02 Q1004 TEMPO
                        RA=
201604160920 METAR COR EGLL 160920Z AUTO 34007KT 9999 BKN013/// //////TCU
                        06/02 Q1003 TEMPO RA=
201604160850 METAR COR EGLL 160850Z AUTO 35007KT 320V030 9999 -RA SCT015///
                        BKN039/// //////TCU 06/02 Q1003 TEMPO
                        RA BKN014=
201604160820 METAR COR EGLL 160820Z AUTO 35007KT 310V020 9999 -RA BKN008///
                        BKN018/// //////TCU 05/03 Q1002 TEMPO
                        RA SCT008 BKN010=
201604160750 METAR COR EGLL 160750Z AUTO 29006KT 7000 -RA BKN008 OVC037
                        06/04 Q1002 TEMPO RA SCT008 BKN010=
201604160720 METAR COR EGLL 160720Z AUTO 30005KT 9000 -RA BKN010 06/04
                        Q1002 TEMPO RA=
201604160650 METAR COR EGLL 160650Z AUTO 29007KT 9999 -RA BKN014 06/03
                        Q1002 TEMPO RA=
201604160620 METAR COR EGLL 160620Z AUTO 28006KT 9999 BKN011 05/03 Q1001
                        TEMPO SCT011 BKN020=
201604160550 METAR COR EGLL 160550Z AUTO 28005KT 9999 FEW010 SCT024 05/03
                        Q1001 TEMPO BKN012=
201604160520 METAR COR EGLL 160520Z AUTO 29004KT 9999 SCT011 BKN049 05/03
                        Q1001 TEMPO BKN012=
201604160450 METAR COR EGLL 160450Z AUTO 30004KT 9999 BKN009 05/03 Q1000
                        TEMPO BKN012=
201604160420 METAR COR EGLL 160420Z AUTO 29004KT 9999 FEW013 05/02 Q1000
                        TEMPO BKN012=
201604160350 METAR COR EGLL 160350Z AUTO 31005KT 9999 BKN012 05/03 Q1000
                        TEMPO BKN015=
201604160320 METAR COR EGLL 160320Z 31005KT 280V020 9999 FEW012 BKN015
                        05/03 Q1000 TEMPO BKN012=
201604160250 METAR COR EGLL 160250Z 31006KT 9999 FEW013 BKN017 06/03 Q1000
                        TEMPO BKN012=
201604160220 METAR COR EGLL 160220Z AUTO 31005KT 9999 BKN011 06/04 Q1000
                        TEMPO BKN015=
201604160150 METAR COR EGLL 160150Z AUTO 30007KT 9999 BKN010 OVC020 06/04
                        Q0999 TEMPO BKN015=
201604160120 METAR EGLL 160120Z AUTO 30008KT 9999 BKN011 07/05 Q0999=
201604160050 METAR COR EGLL 160050Z AUTO 31006KT 280V350 9999 BKN011 07/05
                        Q0999 TEMPO SCT012=
201604160020 METAR EGLL 160020Z AUTO 30007KT 9999 BKN009 07/05 Q0999=
201604152350 METAR COR EGLL 152350Z AUTO 29008KT 9999 SCT008 BKN019 08/06
                        Q0999 TEMPO BKN014=
201604152320 METAR COR EGLL 152320Z 28009KT 7000 SCT008 BKN018 08/07 Q0999
                        TEMPO BKN014=
201604152250 METAR COR EGLL 152250Z 25009KT 6000 -SHRA FEW006 BKN015 BKN022
                        09/07 Q0999 TEMPO BKN012=
201604152220 METAR COR EGLL 152220Z 27007KT 9000 FEW008 SCT010 BKN018
                        09/07 Q0999 TEMPO SHRA BKN010=
201604152150 METAR COR EGLL 152150Z 27005KT 9999 FEW007 BKN010 BKN028
                        09/07 Q0999 TEMPO SHRA=
201604152120 METAR COR EGLL 152120Z AUTO 28006KT 9999 SCT007 BKN034 09/07
                        Q0999 TEMPO SHRA BKN012=
201604152050 METAR EGLL 152050Z AUTO 31005KT 280V340 9999 BKN008 09/07
                        Q0999=
201604152020 METAR EGLL 152020Z AUTO 31007KT 9999 BKN011 OVC049 10/08
                        Q0998=
201604151950 METAR COR EGLL 151950Z AUTO 31005KT 290V350 9999 FEW008 BKN031
                        OVC047 10/08 Q0998 TEMPO SHRA BKN012=
201604151920 METAR COR EGLL 151920Z AUTO 32005KT 300V360 9999 SCT008 BKN031
                        10/08 Q0998 TEMPO SHRA BKN012=
201604151850 METAR COR EGLL 151850Z AUTO 34004KT 300V020 9999 -RA FEW009
                        BKN021 10/08 Q0997 NOSIG=
201604151820 METAR COR EGLL 151820Z AUTO 36005KT 330V030 9999 -RA FEW007
                        BKN032 OVC047 10/08 Q0997 NOSIG=
201604151750 METAR COR EGLL 151750Z AUTO 36005KT 310V050 9999 -RA BKN032
                        10/09 Q0997 NOSIG=
201604151720 METAR COR EGLL 151720Z AUTO 03004KT 350V060 9999 -RA OVC024
                        10/08 Q0997 TEMPO RA BKN014=
201604151650 METAR COR EGLL 151650Z AUTO 04006KT 7000 -RA OVC016 09/08
                        Q0997 TEMPO RA BKN012=
201604151620 METAR COR EGLL 151620Z AUTO 04006KT 360V060 7000 -RA OVC008///
                        //////CB 10/08 Q0997 TEMPO SCT008
                        BKN012=
201604151550 METAR COR EGLL 151550Z AUTO 36007KT 8000 -RA BKN005/// //////CB
                        11/09 Q0998 RERA TEMPO RA SCT005
                        BKN010=
201604151520 METAR COR EGLL 151520Z AUTO 20008KT 170V250 4400 RA BKN005///
                        BKN017/// //////CB 11/09 Q0998 RERA
                        REDZ TEMPO 6000 -RA BKN010=
201604151450 METAR COR EGLL 151450Z AUTO 18009KT 140V220 9999 -RA BKN005///
                        BKN024/// //////CB 11/09 Q0998 TEMPO
                        SCT005 BKN010=
201604151420 METAR COR EGLL 151420Z AUTO 22006KT 170V240 9999 -RA BKN008///
                        //////CB 12/10 Q0999 TEMPO RA BKN012=
201604151350 METAR COR EGLL 151350Z AUTO 24005KT 140V280 9000 -RA SCT007///
                        BKN016/// OVC041/// //////CB 11/10
                        Q0999 TEMPO RA BKN007=
201604151320 METAR COR EGLL 151320Z AUTO 23008KT 200V280 9999 -RA SCT007///
                        BKN018/// //////CB 11/09 Q0999 TEMPO
                        RA BKN012=
201604151250 METAR EGLL 151250Z AUTO 24006KT 170V280 9000 -RA BKN006///
                        BKN020/// //////CB 11/09 Q1000 TEMPO
                        RA SCT006 BKN010=
201604151220 METAR COR EGLL 151220Z AUTO VRB03KT 9000 -RA BKN006/// //////CB
                        10/09 Q1000 RERA TEMPO 4500 RA SCT006
                        BKN010=
201604151150 METAR COR EGLL 151150Z AUTO VRB02KT 1500 +RA BKN008/// OVC022///
                        //////CB 11/09 Q1000 BECMG 6000 RA
                        SCT008 BKN022=
201604151120 METAR COR EGLL 151120Z AUTO VRB03KT 9999 -RA SCT014/// BKN027///
                        //////CB 11/09 Q1001 TEMPO 4000 TSRA
                        BKN014CB=
201604151050 METAR COR EGLL 151050Z AUTO 31004KT 270V330 7000 -RA BKN014///
                        //////CB 11/08 Q1001 RERA TEMPO 4500
                        RA=
201604151020 METAR COR EGLL 151020Z AUTO VRB03KT 2900 +RA BKN014/// BKN025///
                        //////CB 12/08 Q1001 TEMPO 9999 NSW
                        SCT014=
201604150950 METAR COR EGLL 150950Z AUTO 28005KT 190V310 9999 SCT014///
                        BKN032/// //////TCU 14/10 Q1001 TEMPO
                        SHRA BKN014=
201604150920 METAR COR EGLL 150920Z AUTO VRB04KT 9999 SCT011 12/09 Q1001
                        TEMPO SHRA BKN011=
201604150850 METAR COR EGLL 150850Z AUTO 23006KT 150V270 9999 BKN007 BKN044
                        11/09 Q1002 BECMG SCT007=
201604150820 METAR COR EGLL 150820Z AUTO 24004KT 160V310 9000 -RA SCT005
                        SCT016 BKN031 10/09 Q1002 TEMPO SHRA
                        BKN008=
201604150750 METAR COR EGLL 150750Z AUTO VRB02KT 8000 -RA BKN005 OVC037
                        10/09 Q1002 BECMG SCT005 BKN030=
201604150720 METAR COR EGLL 150720Z AUTO VRB03KT 9000 BKN005 BKN020 OVC034
                        10/09 Q1002 BECMG SCT005 BKN020=
201604150650 METAR COR EGLL 150650Z AUTO VRB03KT 9999 BKN006 09/08 Q1002
                        BECMG SCT006 BKN010=
201604150620 METAR COR EGLL 150620Z AUTO VRB03KT 9000 -RA BKN005 09/08
                        Q1002 TEMPO 4500 RADZ=
201604150550 METAR COR EGLL 150550Z AUTO VRB01KT 8000 -RA BKN005 09/08
                        Q1002 RERA TEMPO 4000 DZ SCT006 BKN010=
201604150520 METAR COR EGLL 150520Z AUTO VRB02KT 4400 RA SCT006 BKN018
                        09/08 Q1002 REDZ TEMPO 5000 -RA BKN006=
201604150450 METAR COR EGLL 150450Z AUTO VRB03KT 9999 -RA SCT008 BKN027
                        09/08 Q1002 TEMPO SHRA BKN008=
201604150420 METAR COR EGLL 150420Z AUTO VRB03KT 9999 -RA FEW009 BKN031
                        09/08 Q1002 TEMPO SHRA BKN010=
201604150350 METAR COR EGLL 150350Z AUTO 10002KT 9999 -RA FEW009 BKN032
                        09/08 Q1002 TEMPO BKN007=
201604150320 METAR COR EGLL 150320Z AUTO VRB02KT 9999 -RA FEW018 BKN033
                        09/08 Q1003 TEMPO BKN007=
201604150250 METAR COR EGLL 150250Z AUTO 12001KT 9999 -RA SCT014/// OVC035///
                        //////TCU 09/08 Q1003 TEMPO RA BKN014=
201604150220 METAR COR EGLL 150220Z AUTO VRB02KT 9999 -RA OVC037 09/08
                        Q1003 TEMPO RA=
201604150150 METAR COR EGLL 150150Z AUTO 07002KT 9999 -RA BKN043 09/08
                        Q1004 TEMPO RA=
201604150120 METAR COR EGLL 150120Z AUTO 04002KT 9999 -RA FEW026 SCT039
                        09/08 Q1004 TEMPO RA=
201604150050 METAR COR EGLL 150050Z AUTO 08001KT 9999 -RA BKN026 OVC047
                        09/08 Q1004 TEMPO RA BKN012=
201604150020 METAR COR EGLL 150020Z AUTO 09002KT 9999 -RA FEW012 BKN033
                        09/08 Q1005 TEMPO RA BKN012=
201604142350 METAR COR EGLL 142350Z AUTO VRB02KT 9999 -RA FEW034 OVC040
                        09/08 Q1005 TEMPO RA BKN014=
201604142320 METAR COR EGLL 142320Z AUTO 10002KT 9999 -RA OVC046 10/08
                        Q1005 TEMPO RA=
201604142250 METAR COR EGLL 142250Z AUTO 11003KT 9999 -RA FEW040 10/08
                        Q1005 TEMPO RA=
201604142220 METAR COR EGLL 142220Z AUTO 15003KT 9999 -RA BKN036 10/08
                        Q1006 TEMPO RA=
201604142150 METAR COR EGLL 142150Z AUTO 18005KT 150V220 9999 -RA SCT022
                        BKN037 10/07 Q1006 TEMPO RA=
201604142120 METAR COR EGLL 142120Z AUTO 18009KT 9999 -RA BKN037 11/07
                        Q1006 TEMPO RA BKN014=
201604142050 METAR COR EGLL 142050Z AUTO 18010KT 140V200 9999 -RA BKN042
                        11/06 Q1007 TEMPO RA BKN014=
201604142020 METAR COR EGLL 142020Z AUTO 17006KT 110V260 9999 SCT032 BKN049
                        12/05 Q1007 TEMPO RA BKN014=
201604141950 METAR COR EGLL 141950Z AUTO 18009KT 9999 FEW033 12/05 Q1007
                        TEMPO RA BKN014=
201604141920 METAR COR EGLL 141920Z AUTO 18006KT 130V210 9999 NCD 12/05
                        Q1007 TEMPO RA BKN014=
201604141850 METAR COR EGLL 141850Z AUTO 19007KT 160V220 9999 NCD 13/05
                        Q1007 NOSIG=
201604141820 METAR COR EGLL 141820Z AUTO 19009KT 170V230 9999 NCD 13/04
                        Q1007 BECMG RA=
201604141750 METAR COR EGLL 141750Z AUTO 20010KT 9999 NCD 14/05 Q1007
                        NOSIG=
201604141720 METAR EGLL 141720Z AUTO 18011KT 9999 NCD 14/04 Q1007 NOSIG=
201604141650 METAR COR EGLL 141650Z AUTO 17010KT 140V210 9999 FEW043 15/04
                        Q1007 NOSIG=
201604141620 METAR COR EGLL 141620Z AUTO 17010KT 9999 FEW045 16/04 Q1007
                        NOSIG=
201604141550 METAR COR EGLL 141550Z AUTO 17011KT 9999 NCD 16/05 Q1008
                        NOSIG=
201604141520 METAR COR EGLL 141520Z AUTO 19010G24KT 170V230 9999 FEW049
                        16/05 Q1008 NOSIG=
201604141450 METAR EGLL 141450Z AUTO 19010KT 160V270 9999 NCD 16/05 Q1008=
201604141420 METAR COR EGLL 141420Z AUTO 16007KT 110V200 9999 //////CB
                        16/06 Q1008 TEMPO SHRA=
201604141350 METAR COR EGLL 141350Z AUTO 18010KT 140V230 9999 NCD 16/05
                        Q1009 TEMPO SHRA=
201604141320 METAR COR EGLL 141320Z AUTO 16009KT 130V230 9999 //////TCU
                        15/05 Q1009 TEMPO SHRA=
201604141250 METAR COR EGLL 141250Z AUTO 17008KT 130V230 9999 SCT043///
                        //////CB 16/05 Q1009 TEMPO SHRA=
201604141220 METAR COR EGLL 141220Z AUTO 17005KT 120V240 9999 BKN043 15/05
                        Q1010 NOSIG=
201604141150 METAR COR EGLL 141150Z AUTO 13006KT 070V240 9999 SCT040 16/06
                        Q1010 NOSIG=
201604141120 METAR COR EGLL 141120Z AUTO 17004KT 090V250 9999 BKN039 15/05
                        Q1010 NOSIG=
201604141050 METAR COR EGLL 141050Z AUTO VRB04KT 9999 FEW038 15/06 Q1010
                        NOSIG=
201604141020 METAR COR EGLL 141020Z AUTO VRB03KT 9999 NCD 14/06 Q1011
                        NOSIG=
201604140950 METAR COR EGLL 140950Z AUTO VRB03KT 9999 NCD 13/06 Q1011
                        NOSIG=
201604140920 METAR COR EGLL 140920Z AUTO 20004KT 130V260 9999 NCD 13/05
                        Q1011 NOSIG=
201604140850 METAR COR EGLL 140850Z AUTO VRB03KT 9999 -RA FEW014 12/07
                        Q1011 NOSIG=
201604140820 METAR COR EGLL 140820Z AUTO VRB02KT 9999 NCD 11/06 Q1011
                        TEMPO SHRA=
201604140750 METAR COR EGLL 140750Z AUTO 22004KT 180V260 9999 NCD 10/06
                        Q1011 NOSIG=
201604140720 METAR COR EGLL 140720Z AUTO 20004KT 170V260 9999 NCD 09/06
                        Q1011 NOSIG=
201604140650 METAR COR EGLL 140650Z AUTO VRB02KT 9999 NCD 08/06 Q1010
                        NOSIG=
201604140620 METAR COR EGLL 140620Z AUTO 25004KT 220V290 9999 NCD 08/05
                        Q1010 NOSIG=
201604140550 METAR COR EGLL 140550Z AUTO 20004KT 140V260 9999 NCD 08/05
                        Q1010 NOSIG=
201604140520 METAR COR EGLL 140520Z AUTO 21006KT 170V260 9000 NCD 08/05
                        Q1010 NOSIG=
201604140450 METAR COR EGLL 140450Z AUTO 22005KT 9999 NCD 08/05 Q1010
                        NOSIG=
201604140420 METAR COR EGLL 140420Z AUTO 21007KT 190V310 9999 NCD 08/05
                        Q1010 NOSIG=
201604140350 METAR COR EGLL 140350Z AUTO 21006KT 9999 NCD 08/05 Q1010
                        NOSIG=
201604140320 METAR COR EGLL 140320Z AUTO 20005KT 9999 NCD 08/06 Q1010
                        NOSIG=
201604140250 METAR COR EGLL 140250Z AUTO 21005KT 9999 NCD 08/06 Q1010
                        NOSIG=
201604140220 METAR COR EGLL 140220Z AUTO 20004KT 9999 NCD 09/06 Q1010
                        NOSIG=
201604140150 METAR COR EGLL 140150Z AUTO 20006KT 9999 NCD 09/06 Q1010
                        NOSIG=
201604140120 METAR COR EGLL 140120Z AUTO 18006KT 9999 NCD 10/06 Q1010
                        NOSIG=
201604140050 METAR COR EGLL 140050Z AUTO 16004KT 9999 NCD 10/06 Q1010
                        NOSIG=
201604140020 METAR COR EGLL 140020Z AUTO 17004KT 9999 NCD 10/06 Q1011
                        NOSIG=
201604132350 METAR COR EGLL 132350Z AUTO 20004KT 9999 //////TCU 11/06
                        Q1010 NOSIG=
201604132320 METAR COR EGLL 132320Z VRB02KT CAVOK 11/06 Q1010 NOSIG=
201604132250 METAR COR EGLL 132250Z AUTO 17003KT 9999 //////CB 11/07 Q1010
                        NOSIG=
201604132220 METAR COR EGLL 132220Z AUTO 19005KT 9999 -RA NCD 11/07 Q1010
                        NOSIG=
201604132150 METAR COR EGLL 132150Z AUTO 25003KT 9999 -RA NCD 12/06 Q1010
                        NOSIG=
201604132120 METAR COR EGLL 132120Z AUTO 26004KT 220V290 9999 NCD 13/06
                        Q1010 NOSIG=
201604132050 METAR COR EGLL 132050Z AUTO 27005KT 9999 -RA NCD 13/05 Q1010
                        NOSIG=
201604132020 METAR COR EGLL 132020Z AUTO 22008KT 9999 -RA NCD 12/05 Q1010
                        NOSIG=
201604131950 METAR COR EGLL 131950Z AUTO 20006KT 170V240 9999 NCD 12/05
                        Q1009 NOSIG=
201604131920 METAR COR EGLL 131920Z AUTO 19009KT 150V240 9999 NCD 12/05
                        Q1009 TEMPO SHRA=
201604131850 METAR COR EGLL 131850Z AUTO 20011KT 9999 //////CB 13/05 Q1009
                        TEMPO SHRA=
201604131820 METAR COR EGLL 131820Z AUTO VRB03KT 9999 //////TCU 14/04
                        Q1009 TEMPO SHRA=
201604131750 METAR COR EGLL 131750Z AUTO 16004KT 130V230 9999 //////CB
                        15/04 Q1008 TEMPO SHRA=
201604131720 METAR COR EGLL 131720Z AUTO 18007KT 120V210 9999 //////CB
                        15/03 Q1008 TEMPO SHRA=
201604131650 METAR COR EGLL 131650Z AUTO 18008KT 9999 NCD 15/03 Q1008
                        TEMPO SHRA=
201604131620 METAR COR EGLL 131620Z AUTO VRB03KT 9999 NCD 17/03 Q1008
                        TEMPO SHRA=
201604131550 METAR COR EGLL 131550Z AUTO 30005KT 270V340 9999 NCD 16/03
                        Q1008 NOSIG=
201604131520 METAR COR EGLL 131520Z AUTO 30007KT 9999 NCD 16/03 Q1008
                        NOSIG=
201604131450 METAR COR EGLL 131450Z AUTO 29006KT 250V330 9999 NCD 16/01
                        Q1008 NOSIG=
201604131420 METAR COR EGLL 131420Z AUTO VRB06KT 9999 NCD 17/01 Q1008
                        NOSIG=
201604131350 METAR COR EGLL 131350Z AUTO 25008KT 150V320 9999 NCD 18/02
                        Q1008 NOSIG=
201604131320 METAR COR EGLL 131320Z AUTO 27007KT 200V320 9999 NCD 17/02
                        Q1008 NOSIG=
201604131250 METAR COR EGLL 131250Z AUTO 27007KT 220V320 9999 NCD 17/03
                        Q1008 NOSIG=
201604131220 METAR COR EGLL 131220Z AUTO VRB03KT 9999 NCD 16/01 Q1008
                        NOSIG=
201604131150 METAR COR EGLL 131150Z AUTO 26007KT 180V330 9999 NCD 15/02
                        Q1008 NOSIG=
201604131120 METAR COR EGLL 131120Z AUTO 23004KT 150V310 9999 NCD 16/02
                        Q1008 NOSIG=
201604131050 METAR COR EGLL 131050Z AUTO VRB03KT 9999 NCD 15/01 Q1008
                        NOSIG=
201604131020 METAR COR EGLL 131020Z AUTO 24005KT 180V290 9999 NCD 14/02
                        Q1008 NOSIG=
201604130950 METAR COR EGLL 130950Z AUTO 19004KT 110V260 9999 NCD 13/06
                        Q1008 NOSIG=
201604130920 METAR COR EGLL 130920Z AUTO VRB03KT 9999 NCD 12/06 Q1008
                        NOSIG=
201604130850 METAR COR EGLL 130850Z AUTO 25004KT 210V310 9999 NCD 11/06
                        Q1008 NOSIG=
201604130820 METAR COR EGLL 130820Z AUTO VRB02KT 9999 NCD 10/06 Q1008
                        NOSIG=
201604130750 METAR COR EGLL 130750Z AUTO VRB02KT 9999 NCD 10/05 Q1007
                        NOSIG=
201604130720 METAR COR EGLL 130720Z AUTO VRB03KT 9999 NCD 09/06 Q1007
                        NOSIG=
201604130650 METAR COR EGLL 130650Z AUTO VRB03KT 9999 NCD 07/05 Q1007
                        NOSIG=
201604130620 METAR COR EGLL 130620Z AUTO 01001KT 9999 NCD 06/04 Q1007
                        NOSIG=
201604130550 METAR COR EGLL 130550Z AUTO VRB01KT 9999 NCD 06/04 Q1007
                        NOSIG=
201604130520 METAR COR EGLL 130520Z AUTO 36002KT 9999 NCD 05/04 Q1007
                        NOSIG=
201604130450 METAR COR EGLL 130450Z AUTO 30001KT 8000 NCD 05/04 Q1007
                        NOSIG=
201604130420 METAR COR EGLL 130420Z AUTO 35002KT 9999 NCD 05/04 Q1007
                        NOSIG=
201604130350 METAR COR EGLL 130350Z AUTO VRB02KT 9999 NCD 05/04 Q1007
                        NOSIG=
201604130320 METAR COR EGLL 130320Z AUTO 19003KT 9999 NCD 06/04 Q1007
                        NOSIG=
201604130250 METAR COR EGLL 130250Z AUTO VRB01KT 9000 NCD 06/04 Q1007
                        NOSIG=
201604130220 METAR COR EGLL 130220Z AUTO 17002KT 9999 NCD 06/04 Q1007
                        NOSIG=
201604130150 METAR COR EGLL 130150Z AUTO 22003KT 9999 NCD 07/05 Q1007
                        NOSIG=
201604130120 METAR COR EGLL 130120Z AUTO 19001KT 9999 NCD 07/05 Q1007
                        NOSIG=
201604130050 METAR COR EGLL 130050Z AUTO VRB01KT 9999 NCD 07/05 Q1007
                        NOSIG=
201604130020 METAR COR EGLL 130020Z AUTO 16004KT 9999 NCD 07/05 Q1007
                        NOSIG=
201604122350 METAR COR EGLL 122350Z AUTO 17002KT 9999 NCD 08/05 Q1007
                        NOSIG=
201604122320 METAR COR EGLL 122320Z AUTO 19002KT 9999 NCD 08/05 Q1007
                        NOSIG=
201604122250 METAR COR EGLL 122250Z AUTO 26003KT 9999 NCD 08/05 Q1007
                        NOSIG=
201604122220 METAR COR EGLL 122220Z AUTO 22004KT 9999 NCD 09/05 Q1007
                        NOSIG=
201604122150 METAR COR EGLL 122150Z AUTO 21005KT 9999 NCD 10/05 Q1007
                        NOSIG=
201604122120 METAR COR EGLL 122120Z AUTO 21006KT 9999 NCD 10/05 Q1007
                        NOSIG=
201604122050 METAR COR EGLL 122050Z AUTO 20007KT 150V240 9999 NCD 11/04
                        Q1007 NOSIG=
201604122020 METAR COR EGLL 122020Z AUTO 18007KT 120V220 9999 NCD 11/04
                        Q1006 NOSIG=
201604121950 METAR COR EGLL 121950Z AUTO 20007KT 160V220 9999 NCD 12/04
                        Q1006 NOSIG=
201604121920 METAR COR EGLL 121920Z AUTO 19008KT 150V240 9999 NCD 13/04
                        Q1006 NOSIG=
201604121850 METAR COR EGLL 121850Z AUTO 19008KT 9999 //////TCU 13/04
                        Q1006 NOSIG=
201604121820 METAR COR EGLL 121820Z AUTO 19008KT 160V240 9999 NCD 14/04
                        Q1005 NOSIG=
201604121750 METAR COR EGLL 121750Z AUTO 18009KT 110V210 9999 NCD 15/03
                        Q1005 NOSIG=
201604121720 METAR COR EGLL 121720Z AUTO 19009KT 150V230 9999 NCD 15/03
                        Q1005 NOSIG=
201604121650 METAR COR EGLL 121650Z AUTO 20009KT 160V220 9999 NCD 16/03
                        Q1005 NOSIG=
201604121620 METAR EGLL 121620Z AUTO 20009KT 160V230 9999 NCD 16/03 Q1006=
201604121550 METAR EGLL 121550Z AUTO 21009G19KT 180V250 9999 NCD 17/03
                        Q1006=
201604121520 METAR COR EGLL 121520Z AUTO 22008KT 180V250 9999 NCD 16/02
                        Q1006 NOSIG=
201604121450 METAR COR EGLL 121450Z AUTO 23009KT 200V260 9999 NCD 17/02
                        Q1006 NOSIG=
201604121420 METAR COR EGLL 121420Z AUTO 20009KT 170V240 9999 NCD 16/02
                        Q1006 NOSIG=
201604121350 METAR COR EGLL 121350Z AUTO 21011G21KT 180V240 9999 NCD 17/03
                        Q1006 NOSIG=
201604121320 METAR COR EGLL 121320Z AUTO 24012KT 9999 SCT049/// //////CB
                        17/03 Q1006 TEMPO SHRA=
201604121250 METAR COR EGLL 121250Z AUTO 23010KT 9999 -RA SCT047/// //////CB
                        15/05 Q1006 TEMPO SHRA=
201604121220 METAR COR EGLL 121220Z AUTO 23008KT 190V270 9999 BKN037 15/04
                        Q1006 TEMPO SHRA=
201604121150 METAR COR EGLL 121150Z AUTO 26008KT 210V290 9999 SCT039 16/06
                        Q1006 NOSIG=
201604121120 METAR COR EGLL 121120Z AUTO 24008KT 140V320 9999 FEW031 15/06
                        Q1006 NOSIG=
201604121050 METAR COR EGLL 121050Z AUTO 22006KT 160V290 9999 FEW031 15/07
                        Q1006 NOSIG=
201604121020 METAR COR EGLL 121020Z AUTO 22006KT 160V260 9999 NCD 14/06
                        Q1007 NOSIG=
201604120950 METAR COR EGLL 120950Z AUTO 21006KT 150V250 9999 NCD 13/07
                        Q1007 NOSIG=
201604120920 METAR COR EGLL 120920Z AUTO 22005KT 150V280 9999 NCD 12/07
                        Q1007 NOSIG=
201604120850 METAR COR EGLL 120850Z AUTO 19006KT 150V260 9999 NCD 11/07
                        Q1007 NOSIG=
201604120820 METAR COR EGLL 120820Z AUTO 21005KT 180V260 9999 NCD 09/07
                        Q1007 NOSIG=
201604120750 METAR COR EGLL 120750Z AUTO 24005KT 200V300 9999 NCD 09/06
                        Q1007 NOSIG=
201604120720 METAR COR EGLL 120720Z AUTO 26004KT 230V300 9999 NCD 08/06
                        Q1007 NOSIG=
201604120650 METAR COR EGLL 120650Z AUTO 23007KT 190V250 9999 NCD 07/06
                        Q1007 NOSIG=
201604120620 METAR COR EGLL 120620Z AUTO 22005KT 190V260 9999 NCD 07/06
                        Q1007 NOSIG=
201604120550 METAR COR EGLL 120550Z AUTO 22006KT 9999 NCD 07/06 Q1007
                        NOSIG=
201604120520 METAR COR EGLL 120520Z AUTO 22006KT 180V260 9999 NCD 08/06
                        Q1006 NOSIG=
201604120450 METAR COR EGLL 120450Z AUTO 22005KT 9999 NCD 08/06 Q1006
                        NOSIG=
201604120420 METAR COR EGLL 120420Z AUTO 22005KT 180V250 9999 NCD 08/07
                        Q1006 NOSIG=
201604120350 METAR COR EGLL 120350Z AUTO 21004KT 180V250 9999 FEW036 08/07
                        Q1006 NOSIG=
201604120320 METAR COR EGLL 120320Z AUTO 21004KT 9999 FEW034 08/07 Q1006
                        NOSIG=
201604120250 METAR COR EGLL 120250Z AUTO 21004KT 9999 -RA SCT033 08/07
                        Q1006 NOSIG=
201604120220 METAR COR EGLL 120220Z AUTO 21005KT 9999 -RA FEW033 BKN045
                        08/07 Q1006 NOSIG=
201604120150 METAR COR EGLL 120150Z AUTO 21005KT 9999 -RA BKN038 09/07
                        Q1007 NOSIG=
201604120120 METAR COR EGLL 120120Z AUTO 22004KT 9999 -RA SCT033 OVC042
                        09/08 Q1007 NOSIG=
201604120050 METAR COR EGLL 120050Z AUTO 20004KT 9999 -RA OVC034 09/08
                        Q1007 NOSIG=
201604120020 METAR COR EGLL 120020Z AUTO 20006KT 9999 -RA BKN031 09/08
                        Q1007 NOSIG=
201604112350 METAR COR EGLL 112350Z AUTO 23005KT 9999 BKN029 09/08 Q1007
                        NOSIG=
201604112320 METAR COR EGLL 112320Z AUTO 23005KT 9999 SCT022 09/08 Q1007
                        NOSIG=
201604112250 METAR COR EGLL 112250Z AUTO 22005KT 9999 NCD 09/08 Q1007
                        NOSIG=
201604112220 METAR COR EGLL 112220Z AUTO 24005KT 9999 NCD 10/08 Q1007
                        NOSIG=
201604112150 METAR COR EGLL 112150Z AUTO 22004KT 9999 FEW022 10/08 Q1007
                        NOSIG=
201604112120 METAR COR EGLL 112120Z AUTO 22005KT 9999 SCT020 10/08 Q1007
                        NOSIG=
201604112050 METAR COR EGLL 112050Z AUTO 23008KT 9999 BKN020 11/08 Q1006
                        NOSIG=
201604112020 METAR COR EGLL 112020Z AUTO 22006KT 190V260 9999 BKN019 11/09
                        Q1006 NOSIG=
201604111950 METAR COR EGLL 111950Z AUTO 23005KT 200V270 7000 SCT022 11/09
                        Q1006 TEMPO 4000 BR=
201604111920 METAR COR EGLL 111920Z AUTO VRB02KT 5000 HZ FEW025 11/08
                        Q1006 BECMG 4000 BR=
201604111850 METAR COR EGLL 111850Z 31003KT 9000 FEW024 12/08 Q1006 NOSIG=
201604111820 METAR COR EGLL 111820Z 28004KT 9999 FEW021 12/09 Q1006 NOSIG=
201604111750 METAR COR EGLL 111750Z AUTO VRB03KT 7000 SCT014 13/09 Q1005
                        NOSIG=
201604111720 METAR COR EGLL 111720Z AUTO 22004KT 180V260 9999 SCT012 BKN040
                        13/10 Q1006 NOSIG=
201604111650 METAR COR EGLL 111650Z AUTO 21004KT 160V240 8000 SCT011 BKN021
                        13/10 Q1006 NOSIG=
201604111620 METAR COR EGLL 111620Z VRB03KT 7000 SCT009 BKN012 12/10 Q1006
                        NOSIG=
201604111550 METAR COR EGLL 111550Z 22005KT 180V250 5000 HZ FEW005 BKN009
                        12/10 Q1006 BECMG BKN012=
201604111520 METAR COR EGLL 111520Z AUTO 23005KT 4800 -RA BKN007/// BKN019///
                        BKN040/// //////TCU 12/10 Q1006 RERA
                        BECMG SCT007=
201604111450 METAR COR EGLL 111450Z AUTO 23007KT 4400 RA FEW006/// BKN026///
                        OVC045/// //////TCU 11/10 Q1006 BECMG
                        6000 NSW=
201604111420 METAR COR EGLL 111420Z AUTO 22008KT 4400 RA FEW012/// BKN028///
                        OVC042/// //////TCU 12/10 Q1006 BECMG
                        6000 NSW=
201604111350 METAR COR EGLL 111350Z AUTO 21007KT 6000 -RA FEW024 BKN030
                        12/10 Q1006 TEMPO RA=
201604111320 METAR COR EGLL 111320Z AUTO 19005KT 8000 -RA BKN028/// OVC045///
                        //////TCU 13/09 Q1005 TEMPO RA=
201604111250 METAR COR EGLL 111250Z AUTO 17005KT 150V210 9000 -RA OVC026
                        14/08 Q1005 TEMPO RA=
201604111220 METAR COR EGLL 111220Z AUTO 12004KT 040V150 9999 OVC027 14/08
                        Q1005 NOSIG=
201604111150 METAR COR EGLL 111150Z AUTO 12005KT 080V190 9999 BKN026 14/08
                        Q1005 NOSIG=
201604111120 METAR COR EGLL 111120Z AUTO 10006KT 060V120 9999 BKN027 14/08
                        Q1005 NOSIG=
201604111050 METAR COR EGLL 111050Z AUTO 10006KT 060V140 9999 FEW025 13/08
                        Q1005 NOSIG=
201604111020 METAR COR EGLL 111020Z AUTO 09008KT 9999 FEW027 13/08 Q1005
                        NOSIG=
201604110950 METAR COR EGLL 110950Z AUTO 10009KT 9999 NCD 14/08 Q1005
                        NOSIG=
201604110920 METAR COR EGLL 110920Z AUTO 09010KT 050V110 9999 FEW024 13/08
                        Q1005 NOSIG=
201604110850 METAR COR EGLL 110850Z AUTO 08008KT 9999 NCD 12/08 Q1005
                        NOSIG=
201604110820 METAR COR EGLL 110820Z AUTO 06008KT 9999 NCD 12/07 Q1005
                        NOSIG=
201604110750 METAR COR EGLL 110750Z AUTO 08009KT 9000 NCD 12/08 Q1005
                        NOSIG=
201604110720 METAR COR EGLL 110720Z AUTO 09008KT 8000 NCD 11/07 Q1005
                        NOSIG=
201604110650 METAR COR EGLL 110650Z AUTO 10005KT 8000 NCD 11/07 Q1005
                        NOSIG=
201604110620 METAR COR EGLL 110620Z AUTO 08005KT 8000 NCD 10/07 Q1005
                        NOSIG=
201604110550 METAR COR EGLL 110550Z AUTO 05007KT 8000 NCD 10/07 Q1005
                        NOSIG=
201604110520 METAR COR EGLL 110520Z AUTO 06007KT 7000 NCD 10/07 Q1005
                        NOSIG=
201604110450 METAR COR EGLL 110450Z AUTO 05004KT 6000 NCD 10/07 Q1005
                        NOSIG=
201604110420 METAR COR EGLL 110420Z AUTO 06005KT 030V090 6000 NCD 10/07
                        Q1005 NOSIG=
201604110350 METAR COR EGLL 110350Z AUTO 07008KT 6000 NCD 10/07 Q1005
                        NOSIG=
201604110320 METAR COR EGLL 110320Z AUTO 07007KT 6000 NCD 09/08 Q1005
                        NOSIG=
201604110250 METAR COR EGLL 110250Z AUTO 07007KT 7000 -RA NCD 10/08 Q1005
                        NOSIG=
201604110220 METAR COR EGLL 110220Z AUTO 06009KT 7000 NCD 10/08 Q1005
                        NOSIG=
201604110150 METAR COR EGLL 110150Z AUTO 07007KT 6000 NCD 10/08 Q1005
                        NOSIG=
201604110120 METAR COR EGLL 110120Z AUTO 07009KT 7000 NCD 10/08 Q1006
                        NOSIG=
201604110050 METAR COR EGLL 110050Z AUTO 06007KT 8000 -RA NCD 10/08 Q1006
                        NOSIG=
201604110020 METAR COR EGLL 110020Z AUTO 06005KT 7000 -RA NCD 10/08 Q1007
                        NOSIG=
201604102350 METAR COR EGLL 102350Z AUTO 07005KT 8000 -RA SCT044 09/08
                        Q1007 TEMPO RA=
201604102320 METAR COR EGLL 102320Z AUTO 06005KT 8000 -RA OVC043 09/07
                        Q1007 NOSIG=
201604102250 METAR COR EGLL 102250Z AUTO 06007KT 9999 -RA OVC045 09/07
                        Q1007 TEMPO RA=
201604102220 METAR COR EGLL 102220Z AUTO 08006KT 9999 -RA OVC047/// //////TCU
                        09/07 Q1007 TEMPO RA=
201604102150 METAR COR EGLL 102150Z AUTO 09010KT 9999 -RA BKN040 09/06
                        Q1007 TEMPO SHRA=
201604102120 METAR COR EGLL 102120Z AUTO 09009KT 9999 //////TCU 09/05
                        Q1007 TEMPO SHRA=
201604102050 METAR COR EGLL 102050Z AUTO 09013KT 9999 NCD 09/04 Q1006
                        TEMPO SHRA=
201604102020 METAR COR EGLL 102020Z AUTO 08015KT 9999 NCD 09/04 Q1006
                        TEMPO SHRA=
201604101950 METAR COR EGLL 101950Z AUTO 08015KT 9999 NCD 09/04 Q1006
                        TEMPO SHRA=
201604101920 METAR COR EGLL 101920Z AUTO 09015KT 9999 NCD 09/04 Q1006
                        NOSIG=
201604101850 METAR COR EGLL 101850Z AUTO 08014KT 9999 NCD 09/03 Q1006
                        TEMPO SHRA=
201604101820 METAR COR EGLL 101820Z AUTO 08012KT 9999 NCD 10/03 Q1006
                        TEMPO SHRA=
201604101750 METAR COR EGLL 101750Z AUTO 10016KT 9999 NCD 10/03 Q1006
                        TEMPO SHRA=
201604101720 METAR COR EGLL 101720Z AUTO 11018KT 9999 NCD 10/03 Q1006
                        NOSIG=
201604101650 METAR COR EGLL 101650Z AUTO 09018KT 9999 NCD 11/03 Q1006
                        NOSIG=
201604101620 METAR COR EGLL 101620Z AUTO 09016KT 9999 NCD 12/03 Q1006
                        NOSIG=
201604101550 METAR COR EGLL 101550Z AUTO 09016KT 9999 NCD 11/03 Q1006
                        NOSIG=
201604101520 METAR COR EGLL 101520Z AUTO 09014KT 9999 NCD 12/02 Q1006
                        NOSIG=
201604101450 METAR COR EGLL 101450Z AUTO 08014KT 9999 NCD 12/M00 Q1006
                        NOSIG=
201604101420 METAR COR EGLL 101420Z AUTO 11016KT 9999 NCD 13/M04 Q1006
                        NOSIG=
201604101350 METAR COR EGLL 101350Z AUTO 11015KT 9999 NCD 13/M03 Q1007
                        NOSIG=
201604101320 METAR COR EGLL 101320Z AUTO 11014KT 070V140 9999 NCD 13/M00
                        Q1007 NOSIG=
201604101250 METAR COR EGLL 101250Z AUTO 11014KT 9999 SCT049 12/01 Q1008
                        NOSIG=
201604101220 METAR COR EGLL 101220Z AUTO 12013KT 100V160 9999 NCD 12/M01
                        Q1008 NOSIG=
201604101150 METAR COR EGLL 101150Z AUTO 13014KT 090V160 9999 NCD 12/M00
                        Q1008 NOSIG=
201604101120 METAR COR EGLL 101120Z AUTO 11015KT 9999 FEW049 12/01 Q1007
                        NOSIG=
201604101050 METAR COR EGLL 101050Z AUTO 12012KT 9999 FEW048 12/00 Q1008
                        NOSIG=
201604101020 METAR COR EGLL 101020Z AUTO 12012KT 100V160 9999 NCD 11/00
                        Q1008 NOSIG=
201604100950 METAR COR EGLL 100950Z AUTO 13012KT 9999 NCD 11/00 Q1008
                        NOSIG=
201604100920 METAR COR EGLL 100920Z AUTO 13013KT 9999 NCD 11/M00 Q1008
                        NOSIG=
201604100850 METAR COR EGLL 100850Z AUTO 12012KT 9999 NCD 10/M00 Q1008
                        NOSIG=
201604100820 METAR COR EGLL 100820Z AUTO 12011KT 9999 NCD 09/02 Q1008
                        NOSIG=
201604100750 METAR COR EGLL 100750Z AUTO 14009KT 9999 NCD 08/03 Q1008
                        NOSIG=
201604100720 METAR COR EGLL 100720Z AUTO 12008KT 9999 NCD 06/02 Q1008
                        NOSIG=
201604100650 METAR COR EGLL 100650Z AUTO 10006KT 9999 NCD 04/02 Q1008
                        NOSIG=
201604100620 METAR COR EGLL 100620Z AUTO 11005KT 9999 NCD 02/00 Q1008
                        NOSIG=
201604100550 METAR COR EGLL 100550Z AUTO 08004KT 9999 NCD 02/00 Q1008
                        NOSIG=
201604100520 METAR COR EGLL 100520Z AUTO 06003KT 9999 NCD 01/M00 Q1008
                        NOSIG=
201604100450 METAR COR EGLL 100450Z AUTO 08003KT 9999 NCD 01/M00 Q1007
                        NOSIG=
201604100420 METAR COR EGLL 100420Z AUTO 10005KT 9999 NCD 00/M01 Q1007
                        NOSIG=
201604100350 METAR COR EGLL 100350Z AUTO VRB02KT 9999 FEW031 01/00 Q1007
                        NOSIG=
201604100320 METAR COR EGLL 100320Z AUTO 10003KT 9999 NCD 01/M00 Q1007
                        NOSIG=
201604100250 METAR COR EGLL 100250Z AUTO 08002KT 9999 NCD 01/M00 Q1007
                        NOSIG=
201604100220 METAR COR EGLL 100220Z AUTO 04001KT 9999 NCD 02/01 Q1007
                        NOSIG=
201604100150 METAR COR EGLL 100150Z AUTO 15001KT 9999 NCD 03/01 Q1007
                        NOSIG=
201604100120 METAR COR EGLL 100120Z AUTO 15003KT 9999 NCD 03/01 Q1007
                        NOSIG=
201604100050 METAR COR EGLL 100050Z AUTO 19002KT 9999 NCD 04/01 Q1007
                        NOSIG=
201604100020 METAR COR EGLL 100020Z AUTO 16003KT 9999 NCD 03/01 Q1006
                        NOSIG=
201604092350 METAR COR EGLL 092350Z AUTO 17002KT 9999 NCD 03/01 Q1006
                        NOSIG=
201604092320 METAR COR EGLL 092320Z AUTO 17004KT 9999 NCD 04/02 Q1006
                        NOSIG=
201604092250 METAR COR EGLL 092250Z AUTO 18004KT 9999 NCD 04/02 Q1006
                        NOSIG=
201604092220 METAR COR EGLL 092220Z AUTO 21005KT 180V250 9999 NCD 05/02
                        Q1006 NOSIG=
201604092150 METAR COR EGLL 092150Z AUTO 23007KT 180V250 9999 NCD 05/02
                        Q1006 NOSIG=
201604092120 METAR COR EGLL 092120Z AUTO 23007KT 200V260 9999 NCD 05/02
                        Q1005 NOSIG=
201604092050 METAR COR EGLL 092050Z AUTO 25005KT 9999 NCD 05/02 Q1005
                        NOSIG=
201604092020 METAR COR EGLL 092020Z AUTO 26005KT 9999 NCD 06/02 Q1005
                        NOSIG=
201604091950 METAR COR EGLL 091950Z AUTO 27006KT 9999 NCD 06/02 Q1005
                        NOSIG=
201604091920 METAR COR EGLL 091920Z AUTO 26007KT 9999 NCD 06/02 Q1004
                        NOSIG=
201604091850 METAR COR EGLL 091850Z AUTO 26008KT 9999 FEW034 06/02 Q1004
                        NOSIG=
201604091820 METAR COR EGLL 091820Z AUTO 25011KT 9999 BKN034 07/03 Q1004
                        TEMPO SHRA=
201604091750 METAR COR EGLL 091750Z AUTO 27011KT 9999 -RA FEW015 BKN020
                        OVC040 06/03 Q1003 TEMPO SHRA=
201604091720 METAR COR EGLL 091720Z AUTO 26012KT 9999 -RA FEW022/// BKN029///
                        BKN049/// //////TCU 09/03 Q1003 NOSIG=
201604091650 METAR COR EGLL 091650Z AUTO 28013KT 9999 BKN034/// //////TCU
                        10/03 Q1002 TEMPO SHRA=
201604091620 METAR COR EGLL 091620Z AUTO 20012KT 170V240 9999 FEW033///
                        //////TCU 11/03 Q1002 NOSIG=
201604091550 METAR COR EGLL 091550Z AUTO 20012KT 170V240 9999 SCT030///
                        SCT047/// //////CB 10/02 Q1002 NOSIG=
201604091520 METAR COR EGLL 091520Z AUTO 20011KT 170V240 9999 FEW032 10/03
                        Q1001 NOSIG=
201604091450 METAR COR EGLL 091450Z 20011KT 170V240 9999 FEW028 10/03
                        Q1001 NOSIG=
201604091420 METAR COR EGLL 091420Z AUTO 22010KT 180V250 9999 FEW037 11/03
                        Q1001 NOSIG=
201604091350 METAR COR EGLL 091350Z AUTO 21007KT 140V290 9999 -RA BKN037///
                        //////TCU 10/02 Q1001 TEMPO SHRA=
201604091320 METAR COR EGLL 091320Z AUTO 18011KT 150V210 9999 -RA BKN041
                        10/02 Q1001 TEMPO SHRA=
201604091250 METAR COR EGLL 091250Z AUTO 22004KT 130V300 9999 BKN043 12/01
                        Q1001 TEMPO SHRA=
201604091220 METAR COR EGLL 091220Z AUTO 18007KT 140V220 9999 SCT038 11/02
                        Q1001 TEMPO SHRA=
201604091150 METAR COR EGLL 091150Z AUTO 23005KT 190V270 9999 SCT039 10/02
                        Q1002 NOSIG=
201604091120 METAR COR EGLL 091120Z AUTO 24007KT 190V270 9999 BKN036 10/02
                        Q1002 NOSIG=
201604091050 METAR COR EGLL 091050Z AUTO 26006KT 230V330 9999 FEW034 10/02
                        Q1002 NOSIG=
201604091020 METAR COR EGLL 091020Z AUTO 26007KT 230V290 9999 FEW025 09/02
                        Q1002 NOSIG=
201604090950 METAR COR EGLL 090950Z AUTO 25008KT 220V290 9999 FEW019 09/04
                        Q1002 NOSIG=
201604090920 METAR COR EGLL 090920Z AUTO 24007KT 200V270 9999 SCT013 BKN049
                        08/05 Q1002 NOSIG=
201604090850 METAR COR EGLL 090850Z AUTO 24008KT 9999 FEW012 OVC044 08/05
                        Q1002 NOSIG=
201604090820 METAR COR EGLL 090820Z AUTO 22008KT 190V260 9999 FEW009 OVC036
                        07/05 Q1002 NOSIG=
201604090750 METAR COR EGLL 090750Z AUTO 21007KT 9999 FEW008/// OVC030///
                        //////TCU 07/05 Q1002 NOSIG=
201604090720 METAR COR EGLL 090720Z AUTO 22005KT 190V260 9999 -RA OVC028///
                        //////TCU 07/05 Q1002 NOSIG=
201604090650 METAR COR EGLL 090650Z AUTO 27006KT 9999 -RA BKN025/// //////TCU
                        07/05 Q1002 NOSIG=
201604090620 METAR COR EGLL 090620Z 27008KT 9000 -RA FEW008 BKN025 06/05
                        Q1002 NOSIG=
201604090550 METAR COR EGLL 090550Z 25013KT 7000 -RADZ FEW005 SCT008 BKN010
                        08/07 Q1002 TEMPO 4000 RADZ BKN008=
201604090520 METAR COR EGLL 090520Z 18013KT 6000 -RADZ OVC008 08/07 Q1002
                        TEMPO 4000 RADZ SCT008 BKN012=
201604090450 METAR COR EGLL 090450Z 18013KT 160V220 9999 FEW008 BKN012
                        08/06 Q1002 TEMPO 4000 RADZ BKN008=
201604090420 METAR COR EGLL 090420Z AUTO 18012G23KT 090V200 9999 BKN008
                        08/06 Q1002 TEMPO 4000 RADZ=
201604090350 METAR COR EGLL 090350Z AUTO 18012KT 9999 OVC009 08/06 Q1003
                        TEMPO RA BKN012=
201604090320 METAR COR EGLL 090320Z AUTO 18012KT 9000 OVC011 08/06 Q1003
                        TEMPO RA BKN008=
201604090250 METAR EGLL 090250Z AUTO 19011KT 9999 -RA OVC011 08/06 Q1004=
201604090220 METAR COR EGLL 090220Z AUTO 18013KT 8000 -RA OVC013 08/05
                        Q1004 TEMPO RA BKN008=
201604090150 METAR COR EGLL 090150Z AUTO 19009KT 9999 FEW014 BKN021 OVC041
                        08/05 Q1005 TEMPO BKN014=
201604090120 METAR EGLL 090120Z AUTO 19009KT 9999 OVC013 08/05 Q1005=
201604090050 METAR EGLL 090050Z AUTO 18007KT 9999 OVC013 08/05 Q1006=
201604090020 METAR COR EGLL 090020Z AUTO 18008KT 9999 BKN017 08/05 Q1006
                        TEMPO BKN014=
201604082350 METAR COR EGLL 082350Z AUTO 18007KT 9999 FEW016 07/05 Q1006
                        TEMPO BKN014=
201604082320 METAR COR EGLL 082320Z AUTO 19007KT 9999 NCD 07/04 Q1007
                        NOSIG=
201604082250 METAR COR EGLL 082250Z AUTO 20008KT 9999 NCD 08/04 Q1007
                        NOSIG=
201604082220 METAR COR EGLL 082220Z AUTO 20009KT 9999 NCD 08/04 Q1008
                        NOSIG=
201604082150 METAR COR EGLL 082150Z AUTO 21009KT 180V250 9999 NCD 08/04
                        Q1008 NOSIG=
201604082120 METAR COR EGLL 082120Z AUTO 21010KT 170V250 9999 NCD 08/04
                        Q1008 NOSIG=
201604082050 METAR COR EGLL 082050Z AUTO 21010KT 180V250 9999 NCD 09/05
                        Q1008 NOSIG=
201604082020 METAR COR EGLL 082020Z AUTO 20010KT 160V250 9999 NCD 09/05
                        Q1008 NOSIG=
201604081950 METAR COR EGLL 081950Z AUTO 18008KT 140V230 9999 NCD 09/05
                        Q1009 NOSIG=
201604081920 METAR COR EGLL 081920Z AUTO 19009KT 160V240 9999 NCD 10/05
                        Q1009 NOSIG=
201604081850 METAR COR EGLL 081850Z AUTO 18009KT 150V220 9999 FEW044 10/05
                        Q1009 NOSIG=
201604081820 METAR COR EGLL 081820Z AUTO 19010KT 160V230 9999 NCD 11/05
                        Q1009 NOSIG=
201604081750 METAR COR EGLL 081750Z AUTO 24009KT 9999 FEW036 12/04 Q1009
                        NOSIG=
201604081720 METAR COR EGLL 081720Z AUTO 25009KT 9999 FEW047 12/04 Q1009
                        NOSIG=
201604081650 METAR COR EGLL 081650Z AUTO 26009KT 9999 FEW038 12/04 Q1009
                        NOSIG=
201604081620 METAR COR EGLL 081620Z AUTO 23010KT 9999 FEW035 12/04 Q1010
                        NOSIG=
201604081550 METAR COR EGLL 081550Z AUTO 23009KT 180V250 9999 FEW042 12/04
                        Q1010 NOSIG=
201604081520 METAR COR EGLL 081520Z AUTO 22008KT 9999 FEW040 13/04 Q1010
                        NOSIG=
201604081450 METAR COR EGLL 081450Z AUTO 23006KT 200V280 9999 FEW037 14/04
                        Q1010 NOSIG=
201604081420 METAR COR EGLL 081420Z AUTO 26006KT 230V310 9999 SCT036 13/04
                        Q1011 TEMPO SHRA=
201604081350 METAR COR EGLL 081350Z AUTO 21006KT 130V280 9999 FEW038 13/04
                        Q1011 TEMPO SHRA=
201604081320 METAR COR EGLL 081320Z AUTO 22005KT 120V280 9999 SCT037 13/04
                        Q1011 TEMPO SHRA=
201604081250 METAR COR EGLL 081250Z AUTO VRB02KT 9999 FEW033 12/03 Q1012
                        NOSIG=
201604081220 METAR EGLL 081220Z AUTO 35004KT 300V030 9999 BKN026 12/05
                        Q1012 NOSIG=
201604081150 METAR COR EGLL 081150Z AUTO VRB02KT 9999 BKN027 OVC039 13/05
                        Q1012 NOSIG=
201604081120 METAR COR EGLL 081120Z AUTO 35004KT 270V040 9999 BKN023 BKN039
                        11/05 Q1012 NOSIG=
201604081050 METAR COR EGLL 081050Z AUTO VRB02KT 9999 BKN021 11/06 Q1012
                        NOSIG=
201604081020 METAR COR EGLL 081020Z AUTO 28004KT 230V340 9999 FEW019 BKN049
                        10/05 Q1013 NOSIG=
201604080950 METAR COR EGLL 080950Z AUTO 30005KT 250V350 9999 FEW015 BKN038
                        10/06 Q1013 NOSIG=
201604080920 METAR COR EGLL 080920Z 26005KT 210V280 9999 FEW012 BKN018
                        09/06 Q1013 NOSIG=
201604080850 METAR COR EGLL 080850Z AUTO 29004KT 250V340 9999 SCT010 BKN038
                        09/06 Q1013 NOSIG=
201604080820 METAR COR EGLL 080820Z AUTO 29004KT 260V350 9999 BKN010 BKN035
                        08/06 Q1013 BECMG SCT015=
201604080750 METAR COR EGLL 080750Z AUTO 29005KT 9999 FEW010 OVC038 08/06
                        Q1013 TEMPO BKN014=
201604080720 METAR COR EGLL 080720Z AUTO 26005KT 9999 BKN037 07/06 Q1013
                        NOSIG=
201604080650 METAR COR EGLL 080650Z AUTO 26005KT 9999 OVC035 07/05 Q1013
                        NOSIG=
201604080620 METAR COR EGLL 080620Z AUTO 27004KT 9999 OVC036 06/05 Q1013
                        NOSIG=
201604080550 METAR COR EGLL 080550Z AUTO 28005KT 9999 OVC034 06/04 Q1013
                        NOSIG=
201604080520 METAR COR EGLL 080520Z AUTO 29005KT 9999 BKN036 05/04 Q1012
                        NOSIG=
201604080450 METAR EGLL 080450Z AUTO 29004KT 9999 BKN024 05/04 Q1012=
201604080420 METAR COR EGLL 080420Z AUTO 27007KT 9999 OVC030 05/04 Q1012
                        NOSIG=
201604080350 METAR COR EGLL 080350Z AUTO 27007KT 9999 BKN023 04/03 Q1012
                        NOSIG=
201604080320 METAR COR EGLL 080320Z AUTO 28005KT 9999 FEW027 04/03 Q1012
                        NOSIG=
201604080250 METAR COR EGLL 080250Z AUTO 27007KT 9999 NCD 04/03 Q1012
                        NOSIG=
201604080220 METAR COR EGLL 080220Z AUTO 28007KT 9999 NCD 03/03 Q1012
                        NOSIG=
201604080150 METAR COR EGLL 080150Z AUTO 28007KT 9999 NCD 04/03 Q1012
                        NOSIG=
201604080120 METAR COR EGLL 080120Z AUTO 27006KT 9999 NCD 04/03 Q1012
                        NOSIG=
201604080050 METAR COR EGLL 080050Z AUTO 28007KT 9999 NCD 04/03 Q1013
                        NOSIG=
201604080020 METAR COR EGLL 080020Z AUTO 28007KT 9999 NCD 05/04 Q1013
                        NOSIG=
201604072350 METAR COR EGLL 072350Z AUTO 28005KT 9999 NCD 05/04 Q1013
                        NOSIG=
201604072320 METAR COR EGLL 072320Z AUTO 29006KT 9999 NCD 05/04 Q1013
                        NOSIG=
201604072250 METAR COR EGLL 072250Z AUTO 27007KT 9999 NCD 06/04 Q1013
                        NOSIG=
201604072220 METAR COR EGLL 072220Z AUTO 28009KT 9999 NCD 07/05 Q1013
                        NOSIG=
201604072150 METAR COR EGLL 072150Z AUTO 27011KT 9999 NCD 08/06 Q1012
                        NOSIG=
201604072120 METAR COR EGLL 072120Z AUTO 26010KT 9999 NCD 08/06 Q1012
                        NOSIG=
201604072050 METAR COR EGLL 072050Z AUTO 24009KT 9999 FEW043 07/05 Q1012
                        NOSIG=
201604072020 METAR COR EGLL 072020Z AUTO 25008KT 9999 OVC048 08/05 Q1012
                        NOSIG=
201604071950 METAR COR EGLL 071950Z 27006KT 9999 -SHRA BKN045CB 07/05
                        Q1012 RESHRA TEMPO SHRA=
201604071920 METAR COR EGLL 071920Z 32007KT 270V030 6000 SHRA SCT010CB
                        BKN020 07/05 Q1012 BECMG NSW=
201604071850 METAR COR EGLL 071850Z 35007KT 300V030 9999 6000NE VCSH BKN032CB
                        09/06 Q1011 TEMPO SHRA=
201604071820 METAR COR EGLL 071820Z 30006KT 9999 BKN042CB 09/05 Q1011
                        TEMPO SHRA=
201604071750 METAR COR EGLL 071750Z 29009KT 9999 VCSH SCT028CB BKN045
                        08/05 Q1010 TEMPO SHRA=
201604071720 METAR COR EGLL 071720Z 29011KT 9999 6000SE -SHRA BKN024CB
                        08/06 Q1010 TEMPO SHRA=
201604071650 METAR COR EGLL 071650Z 27015KT 9999 5000NW -SHRA BKN027CB
                        09/06 Q1010 TEMPO 4000 +SHRA=
201604071620 METAR COR EGLL 071620Z AUTO 29010KT 260V320 9999 -RA FEW010///
                        SCT015/// BKN039/// //////CB 09/06
                        Q1009 RERA REDZ TEMPO 4000 +TSRA=
201604071550 METAR COR EGLL 071550Z AUTO 30013KT 270V330 9999 -RA BKN022///
                        BKN038/// //////CB 10/06 Q1009 TEMPO
                        4000 +TSRA=
201604071520 METAR COR EGLL 071520Z 27012KT 9999 SCT028CB 12/06 Q1009
                        TEMPO 4000 +SHRA=
201604071450 METAR COR EGLL 071450Z AUTO 28009KT 9999 BKN019 11/06 Q1009
                        TEMPO SHRA=
201604071420 METAR COR EGLL 071420Z 29009KT 9999 BKN022TCU 10/06 Q1009
                        TEMPO SHRA=
201604071350 METAR COR EGLL 071350Z 28010KT 9999 BKN022TCU 09/06 Q1009
                        TEMPO SHRA BKN014=
201604071320 METAR COR EGLL 071320Z 29009KT 9999 BKN019TCU 09/06 Q1009
                        TEMPO SHRA BKN014=
201604071250 METAR COR EGLL 071250Z 26012KT 9999 -RA FEW013 BKN017 08/05
                        Q1009 TEMPO SHRA BKN014=
201604071220 METAR COR EGLL 071220Z AUTO 27014KT 5000 -RADZ BKN015///
                        //////TCU 08/05 Q1009 TEMPO SHRA
                        BKN014=
201604071150 METAR COR EGLL 071150Z AUTO 27014KT 9999 -RA BKN015 08/05
                        Q1009 TEMPO SHRA BKN014=
201604071120 METAR COR EGLL 071120Z AUTO 26014KT 9999 -RA OVC017 08/04
                        Q1009 TEMPO SHRA BKN014=
201604071050 METAR COR EGLL 071050Z AUTO 26013KT 9999 -RA BKN019 08/04
                        Q1009 TEMPO RA BKN014=
201604071020 METAR COR EGLL 071020Z AUTO 26015KT 9999 -RA BKN020 OVC036
                        08/04 Q1008 TEMPO RA BKN014=
201604070950 METAR COR EGLL 070950Z AUTO 26015KT 9000 -RA OVC017/// //////TCU
                        08/04 Q1008 TEMPO RA BKN014=
201604070920 METAR COR EGLL 070920Z AUTO 26014KT 9999 BKN025 08/02 Q1008
                        TEMPO RA BKN014=
201604070850 METAR COR EGLL 070850Z AUTO 26013KT 9999 -RA BKN025 OVC040
                        08/02 Q1008 TEMPO RA BKN014=
201604070820 METAR COR EGLL 070820Z AUTO 26012KT 9999 -RA BKN024 07/03
                        Q1008 TEMPO RA BKN014=
201604070750 METAR COR EGLL 070750Z AUTO 26012KT 9999 FEW024 07/02 Q1008
                        TEMPO RA=
201604070720 METAR COR EGLL 070720Z AUTO 25012KT 9999 BKN028 06/02 Q1008
                        NOSIG=
201604070650 METAR COR EGLL 070650Z AUTO 24010KT 9999 BKN035 06/02 Q1008
                        NOSIG=
201604070620 METAR COR EGLL 070620Z AUTO 24011KT 9999 OVC035 06/02 Q1008
                        NOSIG=
201604070550 METAR COR EGLL 070550Z AUTO 23010KT 9999 OVC034 05/02 Q1008
                        NOSIG=
201604070520 METAR COR EGLL 070520Z AUTO 22010KT 9999 OVC036 05/02 Q1008
                        NOSIG=
201604070450 METAR COR EGLL 070450Z AUTO 22007KT 9999 BKN036 05/02 Q1007
                        NOSIG=
201604070420 METAR COR EGLL 070420Z AUTO 22008KT 9999 FEW041 04/01 Q1007
                        NOSIG=
201604070350 METAR COR EGLL 070350Z AUTO 22007KT 9999 SCT039 05/01 Q1007
                        NOSIG=
201604070320 METAR COR EGLL 070320Z AUTO 25009KT 9999 BKN038 05/01 Q1007
                        NOSIG=
201604070250 METAR COR EGLL 070250Z AUTO 25011KT 9999 FEW039 05/02 Q1007
                        NOSIG=
201604070220 METAR COR EGLL 070220Z AUTO 24011KT 9999 NCD 06/02 Q1007
                        NOSIG=
201604070150 METAR COR EGLL 070150Z AUTO 24011KT 9999 FEW040 05/02 Q1007
                        NOSIG=
201604070120 METAR COR EGLL 070120Z AUTO 24009KT 9999 NCD 06/01 Q1007
                        NOSIG=
201604070050 METAR COR EGLL 070050Z AUTO 25010KT 9999 NCD 06/02 Q1007
                        NOSIG=
201604070020 METAR COR EGLL 070020Z AUTO 25013KT 9999 NCD 06/02 Q1007
                        NOSIG=
201604062350 METAR COR EGLL 062350Z AUTO 25012KT 9999 NCD 06/02 Q1007
                        NOSIG=
201604062320 METAR COR EGLL 062320Z AUTO 25011KT 9999 NCD 06/02 Q1007
                        NOSIG=
201604062250 METAR COR EGLL 062250Z AUTO 24010KT 9999 NCD 07/02 Q1007
                        NOSIG=
201604062220 METAR COR EGLL 062220Z AUTO 25012KT 9999 NCD 07/02 Q1007
                        NOSIG=
201604062150 METAR COR EGLL 062150Z AUTO 26014KT 9999 NCD 07/02 Q1007
                        NOSIG=
201604062120 METAR COR EGLL 062120Z AUTO 26019KT 9999 NCD 07/02 Q1007
                        NOSIG=
201604062050 METAR COR EGLL 062050Z AUTO 25018KT 9999 NCD 08/02 Q1007
                        NOSIG=
201604062020 METAR COR EGLL 062020Z AUTO 26018KT 9999 NCD 08/01 Q1007
                        NOSIG=
201604061950 METAR COR EGLL 061950Z AUTO 26018KT 9999 NCD 08/01 Q1007
                        NOSIG=
201604061920 METAR COR EGLL 061920Z AUTO 26018KT 9999 NCD 08/01 Q1007
                        NOSIG=
201604061850 METAR COR EGLL 061850Z AUTO 26017KT 9999 NCD 08/00 Q1007
                        NOSIG=
201604061820 METAR COR EGLL 061820Z AUTO 27018KT 9999 NCD 09/01 Q1007
                        NOSIG=
201604061750 METAR COR EGLL 061750Z AUTO 26018KT 9999 FEW043 09/01 Q1007
                        NOSIG=
201604061720 METAR COR EGLL 061720Z AUTO 26016KT 9999 //////TCU 09/01
                        Q1007 NOSIG=
201604061650 METAR COR EGLL 061650Z AUTO 27025KT 9999 SCT041 10/00 Q1006
                        NOSIG=
201604061620 METAR COR EGLL 061620Z AUTO 27020G31KT 9999 //////CB 11/M00
                        Q1006 NOSIG=
201604061550 METAR COR EGLL 061550Z AUTO 26023KT 9999 FEW044/// //////TCU
                        12/01 Q1006 NOSIG=
201604061520 METAR COR EGLL 061520Z AUTO 26022KT 9999 NCD 11/01 Q1006
                        NOSIG=
201604061450 METAR COR EGLL 061450Z AUTO 26019KT 9999 FEW020 SCT040 10/02
                        Q1006 NOSIG=
201604061420 METAR COR EGLL 061420Z AUTO 27024KT 9999 -RA BKN038 10/01
                        Q1006 NOSIG=
201604061350 METAR COR EGLL 061350Z AUTO 27016KT 9999 SCT031 BKN045 11/04
                        Q1006 NOSIG=
201604061320 METAR COR EGLL 061320Z AUTO 28016KT 9999 BKN028 12/06 Q1006
                        TEMPO 4000 SHRA=
201604061250 METAR COR EGLL 061250Z AUTO 25022KT 9999 -RA FEW018/// BKN034///
                        //////CB 10/06 Q1006 RERA NOSIG=
201604061220 METAR COR EGLL 061220Z AUTO 25015KT 9999 BKN035/// //////TCU
                        12/04 Q1005 TEMPO SHRA=
201604061150 METAR COR EGLL 061150Z AUTO 27014KT 9999 -RA FEW023 BKN044
                        12/05 Q1006 TEMPO SHRA=
201604061120 METAR COR EGLL 061120Z AUTO 26018G28KT 7000 -RA FEW023 BKN032
                        OVC047 12/04 Q1006 TEMPO SHRA=
201604061050 METAR COR EGLL 061050Z AUTO 27015KT 9999 BKN040 13/03 Q1006
                        TEMPO SHRA=
201604061020 METAR COR EGLL 061020Z AUTO 28014G24KT 240V320 9999 FEW044
                        12/04 Q1006 TEMPO SHRA=
201604060950 METAR COR EGLL 060950Z AUTO 26013KT 9999 NCD 11/05 Q1006
                        TEMPO SHRA=
201604060920 METAR COR EGLL 060920Z AUTO 24014KT 9999 BKN038 10/06 Q1006
                        TEMPO SHRA=
201604060850 METAR COR EGLL 060850Z 25014KT 9999 FEW008 BKN039 10/07 Q1006
                        TEMPO SHRA=
201604060820 METAR EGLL 060820Z AUTO 22013KT 4400 -RADZ BKN005 OVC015
                        09/08 Q1007=
201604060750 METAR EGLL 060750Z AUTO 22013KT 7000 BKN006 09/07 Q1007=
201604060720 METAR EGLL 060720Z AUTO 22014KT 9000 BKN008 08/07 Q1007=
201604060650 METAR COR EGLL 060650Z AUTO 22012KT 5000 -RA SCT010 BKN020
                        08/06 Q1007 TEMPO BKN014=
201604060620 METAR COR EGLL 060620Z AUTO 22010KT 9999 FEW014 BKN029 08/06
                        Q1007 TEMPO BKN014=
201604060550 METAR COR EGLL 060550Z AUTO 21011KT 9999 SCT016 BKN038 08/04
                        Q1008 TEMPO BKN014=
201604060520 METAR COR EGLL 060520Z AUTO 20011KT 9999 BKN040 07/04 Q1008
                        NOSIG=
201604060450 METAR COR EGLL 060450Z AUTO 21010KT 9999 FEW035 SCT042 07/04
                        Q1008 NOSIG=
201604060420 METAR COR EGLL 060420Z AUTO 21010KT 9999 OVC033 06/04 Q1009
                        NOSIG=
201604060350 METAR COR EGLL 060350Z AUTO 22010KT 9999 SCT034 06/04 Q1009
                        NOSIG=
201604060320 METAR COR EGLL 060320Z AUTO 22008KT 9999 NCD 06/04 Q1009
                        NOSIG=
201604060250 METAR COR EGLL 060250Z AUTO 24009KT 9999 NCD 06/03 Q1010
                        NOSIG=
201604060220 METAR COR EGLL 060220Z AUTO 22007KT 9999 NCD 06/03 Q1010
                        NOSIG=
201604060150 METAR COR EGLL 060150Z AUTO 22006KT 9999 NCD 06/03 Q1010
                        NOSIG=
201604060120 METAR COR EGLL 060120Z AUTO 23007KT 9999 NCD 06/02 Q1010
                        NOSIG=
201604060050 METAR COR EGLL 060050Z AUTO 22007KT 9999 NCD 06/01 Q1010
                        NOSIG=
201604060020 METAR COR EGLL 060020Z AUTO 23008KT 9999 NCD 07/01 Q1011
                        NOSIG=
201604052350 METAR COR EGLL 052350Z AUTO 24007KT 9999 NCD 07/01 Q1011
                        NOSIG=
201604052320 METAR COR EGLL 052320Z AUTO 24007KT 9999 NCD 08/02 Q1011
                        NOSIG=
201604052250 METAR COR EGLL 052250Z AUTO 24007KT 9999 NCD 08/02 Q1011
                        NOSIG=
201604052220 METAR COR EGLL 052220Z AUTO 25010KT 9999 NCD 09/02 Q1011
                        NOSIG=
201604052150 METAR COR EGLL 052150Z AUTO 26011KT 9999 NCD 10/03 Q1011
                        NOSIG=
201604052120 METAR COR EGLL 052120Z AUTO 25010KT 9999 NCD 10/03 Q1011
                        NOSIG=
201604052050 METAR COR EGLL 052050Z AUTO 28009KT 9999 NCD 09/03 Q1011
                        NOSIG=
201604052020 METAR COR EGLL 052020Z AUTO 27010KT 9999 NCD 10/03 Q1010
                        NOSIG=
201604051950 METAR COR EGLL 051950Z AUTO 28009KT 9999 NCD 11/03 Q1010
                        NOSIG=
201604051920 METAR COR EGLL 051920Z AUTO 29009KT 9999 NCD 12/02 Q1010
                        NOSIG=
201604051850 METAR COR EGLL 051850Z AUTO 29005KT 9999 NCD 12/02 Q1009
                        NOSIG=
201604051820 METAR COR EGLL 051820Z AUTO 31006KT 9999 NCD 13/01 Q1009
                        NOSIG=
201604051750 METAR COR EGLL 051750Z AUTO 30006KT 9999 NCD 13/01 Q1009
                        NOSIG=
201604051720 METAR COR EGLL 051720Z AUTO 30007KT 9999 NCD 14/01 Q1008
                        NOSIG=
201604051650 METAR COR EGLL 051650Z AUTO 31009KT 9999 NCD 13/02 Q1008
                        NOSIG=
201604051620 METAR COR EGLL 051620Z AUTO 28012KT 9999 NCD 14/02 Q1008
                        NOSIG=
201604051550 METAR COR EGLL 051550Z AUTO 29011KT 250V330 9999 NCD 14/01
                        Q1008 NOSIG=
201604051520 METAR COR EGLL 051520Z AUTO 30010KT 9999 NCD 14/01 Q1008
                        NOSIG=
201604051450 METAR COR EGLL 051450Z AUTO 29010KT 260V320 9999 NCD 15/03
                        Q1008 NOSIG=
201604051420 METAR COR EGLL 051420Z AUTO 28012KT 9999 //////TCU 14/02
                        Q1007 NOSIG=
201604051350 METAR COR EGLL 051350Z AUTO 28013KT 9999 FEW045/// //////CB
                        13/03 Q1007 NOSIG=
201604051320 METAR COR EGLL 051320Z AUTO 26011KT 9999 FEW043 13/04 Q1007
                        NOSIG=
201604051250 METAR COR EGLL 051250Z AUTO 28011KT 9999 FEW042 15/04 Q1007
                        NOSIG=
201604051220 METAR COR EGLL 051220Z AUTO 25009KT 230V290 9999 FEW042 14/05
                        Q1007 NOSIG=
201604051150 METAR COR EGLL 051150Z AUTO 27012KT 9999 FEW035 13/05 Q1007
                        NOSIG=
201604051120 METAR COR EGLL 051120Z AUTO 26009KT 210V300 9999 SCT029 13/05
                        Q1007 NOSIG=
201604051050 METAR COR EGLL 051050Z AUTO 26008KT 9999 SCT027 13/06 Q1007
                        NOSIG=
201604051020 METAR EGLL 051020Z AUTO 26008KT 9999 FEW021 12/06 Q1007=
201604050950 METAR COR EGLL 050950Z AUTO 26008KT 220V280 9999 SCT020 11/06
                        Q1007 NOSIG=
201604050920 METAR COR EGLL 050920Z AUTO 28007KT 240V320 9999 FEW019 11/06
                        Q1007 NOSIG=
201604050850 METAR COR EGLL 050850Z AUTO 28007KT 9999 NCD 11/06 Q1007
                        NOSIG=
201604050820 METAR COR EGLL 050820Z AUTO 29008KT 9999 NCD 10/06 Q1007
                        NOSIG=
201604050750 METAR COR EGLL 050750Z AUTO 28007KT 9999 NCD 09/06 Q1006
                        NOSIG=
201604050720 METAR COR EGLL 050720Z AUTO 28007KT 9999 NCD 08/06 Q1006
                        NOSIG=
201604050650 METAR COR EGLL 050650Z AUTO 27005KT 9000 NCD 08/06 Q1006
                        NOSIG=
201604050620 METAR COR EGLL 050620Z AUTO 28007KT 5000 HZ NCD 07/06 Q1006
                        NOSIG=
201604050550 METAR COR EGLL 050550Z AUTO 26005KT 6000 FEW008 07/06 Q1005
                        NOSIG=
201604050520 METAR COR EGLL 050520Z AUTO 26006KT 7000 FEW007 08/06 Q1005
                        NOSIG=
201604050450 METAR COR EGLL 050450Z AUTO 24005KT 7000 FEW007 08/07 Q1005
                        TEMPO BKN007=
201604050420 METAR COR EGLL 050420Z AUTO 23004KT 200V260 8000 FEW010 08/07
                        Q1004 TEMPO BKN008=
201604050350 METAR COR EGLL 050350Z AUTO 22004KT 9000 FEW007 08/07 Q1004
                        TEMPO BKN012=
201604050320 METAR COR EGLL 050320Z AUTO 21004KT 9000 SCT007 08/07 Q1004
                        NOSIG=
201604050250 METAR COR EGLL 050250Z AUTO 21005KT 9999 FEW008 08/07 Q1004
                        TEMPO BKN008=
201604050220 METAR COR EGLL 050220Z AUTO 21004KT 9999 NCD 08/07 Q1004
                        NOSIG=
201604050150 METAR COR EGLL 050150Z AUTO 21005KT 9999 NCD 08/07 Q1004
                        NOSIG=
201604050120 METAR COR EGLL 050120Z AUTO 20005KT 9999 FEW012 09/07 Q1004
                        NOSIG=
201604050050 METAR COR EGLL 050050Z AUTO 18006KT 9999 BKN009 09/07 Q1004
                        BECMG BKN012=
201604050020 METAR COR EGLL 050020Z AUTO 19005KT 9999 BKN009 09/07 Q1004
                        BECMG BKN012=
201604042350 METAR COR EGLL 042350Z AUTO 20006KT 9999 BKN010 09/07 Q1004
                        BECMG FEW010=
201604042320 METAR COR EGLL 042320Z AUTO 22005KT 190V260 9999 SCT010 SCT030
                        09/07 Q1004 NOSIG=
201604042250 METAR COR EGLL 042250Z AUTO 22006KT 9999 FEW011 09/07 Q1004
                        NOSIG=
201604042220 METAR COR EGLL 042220Z AUTO 19010KT 170V240 9999 NCD 09/07
                        Q1004 NOSIG=
201604042150 METAR COR EGLL 042150Z AUTO 20009KT 150V250 9999 OVC047 09/07
                        Q1004 NOSIG=
201604042120 METAR COR EGLL 042120Z AUTO 19009KT 150V250 9999 NCD 09/06
                        Q1003 NOSIG=
201604042050 METAR COR EGLL 042050Z AUTO 19009KT 150V260 9999 NCD 09/06
                        Q1003 NOSIG=
201604042020 METAR COR EGLL 042020Z AUTO 18007KT 150V240 9999 NCD 09/06
                        Q1003 NOSIG=
201604041950 METAR COR EGLL 041950Z AUTO 18008KT 9999 NCD 09/06 Q1003
                        NOSIG=
201604041920 METAR COR EGLL 041920Z AUTO 19009KT 150V240 9999 BKN043 10/05
                        Q1003 NOSIG=
201604041850 METAR COR EGLL 041850Z AUTO 19010KT 160V230 9999 NCD 11/05
                        Q1002 NOSIG=
201604041820 METAR COR EGLL 041820Z AUTO 19009KT 170V240 9999 SCT027 SCT042
                        11/07 Q1002 NOSIG=
201604041750 METAR COR EGLL 041750Z AUTO 18012KT 160V230 9999 SCT026 BKN039
                        12/07 Q1002 NOSIG=
201604041720 METAR COR EGLL 041720Z AUTO 17010G20KT 150V230 9999 SCT019///
                        BKN045/// //////CB 12/07 Q1002 NOSIG=
201604041650 METAR COR EGLL 041650Z AUTO 18012KT 150V240 9999 BKN018 11/07
                        Q1001 NOSIG=
201604041620 METAR COR EGLL 041620Z AUTO 17012KT 140V220 9999 BKN019///
                        //////CB 12/08 Q1001 NOSIG=
201604041550 METAR COR EGLL 041550Z AUTO 19012KT 160V230 9999 FEW017///
                        //////CB 12/08 Q1001 NOSIG=
201604041520 METAR COR EGLL 041520Z AUTO 18013KT 9999 -RA SCT020/// BKN034///
                        //////TCU 12/08 Q1001 NOSIG=
201604041450 METAR COR EGLL 041450Z AUTO 19012KT 170V230 9999 -RA BKN022///
                        BKN037/// //////TCU 12/07 Q1001 TEMPO
                        SHRA=
201604041420 METAR COR EGLL 041420Z AUTO 18010KT 140V240 9999 BKN020 12/07
                        Q1002 TEMPO SHRA=
201604041350 METAR COR EGLL 041350Z AUTO 20011KT 9999 BKN020 12/07 Q1002
                        NOSIG=
201604041320 METAR COR EGLL 041320Z AUTO 16012KT 150V210 9999 BKN018 12/07
                        Q1002 NOSIG=
201604041250 METAR COR EGLL 041250Z AUTO 17013KT 9999 -RA BKN020 OVC048
                        12/07 Q1002 NOSIG=
201604041220 METAR COR EGLL 041220Z AUTO 18012G23KT 130V260 9999 -RA BKN021
                        BKN036 12/06 Q1002 NOSIG=
201604041150 METAR COR EGLL 041150Z AUTO 18015KT 9999 BKN020 12/07 Q1002
                        TEMPO SHRA=
201604041120 METAR COR EGLL 041120Z AUTO 18013G24KT 140V200 9999 SCT022
                        BKN036 12/06 Q1002 TEMPO SHRA=
201604041050 METAR COR EGLL 041050Z AUTO 17011KT 140V220 9999 BKN021 13/06
                        Q1002 TEMPO SHRA=
201604041020 METAR COR EGLL 041020Z AUTO 16010KT 130V200 9999 -RA BKN020
                        BKN036 12/07 Q1002 TEMPO SHRA=
201604040950 METAR COR EGLL 040950Z AUTO 15012KT 9999 BKN018 BKN036 12/07
                        Q1002 TEMPO SHRA=
201604040920 METAR COR EGLL 040920Z AUTO 17011KT 130V210 9999 FEW015 12/07
                        Q1002 NOSIG=
201604040850 METAR COR EGLL 040850Z AUTO 19010KT 160V230 9999 SCT013 BKN049
                        11/07 Q1002 NOSIG=
201604040820 METAR COR EGLL 040820Z AUTO 17007KT 110V220 9999 BKN012 10/07
                        Q1002 BECMG FEW012=
201604040750 METAR COR EGLL 040750Z AUTO 16008KT 9999 BKN013 09/07 Q1002
                        BECMG FEW013=
201604040720 METAR COR EGLL 040720Z AUTO 16007KT 100V200 9999 FEW043 09/07
                        Q1002 NOSIG=
201604040650 METAR COR EGLL 040650Z AUTO 16006KT 120V190 9999 NCD 09/07
                        Q1002 NOSIG=
201604040620 METAR COR EGLL 040620Z AUTO 18007KT 140V220 9999 FEW013 09/07
                        Q1001 NOSIG=
201604040550 METAR COR EGLL 040550Z AUTO 18007KT 130V230 9999 SCT012 09/07
                        Q1001 TEMPO BKN012=
201604040520 METAR COR EGLL 040520Z AUTO 18007KT 9999 FEW012 09/07 Q1001
                        NOSIG=
201604040450 METAR COR EGLL 040450Z AUTO 18006KT 9999 NCD 09/07 Q1001
                        TEMPO BKN012=
201604040420 METAR COR EGLL 040420Z AUTO 18007KT 9999 SCT032 09/07 Q1001
                        TEMPO BKN012=
201604040350 METAR COR EGLL 040350Z AUTO 18008KT 9999 FEW014 09/07 Q1001
                        TEMPO BKN012=
201604040320 METAR COR EGLL 040320Z AUTO 17005KT 9999 FEW038 09/07 Q1002
                        NOSIG=
201604040250 METAR COR EGLL 040250Z AUTO 18006KT 9999 BKN034 10/08 Q1002
                        NOSIG=
201604040220 METAR COR EGLL 040220Z AUTO 19006KT 9999 BKN041 10/08 Q1002
                        NOSIG=
201604040150 METAR COR EGLL 040150Z AUTO 16006KT 9999 FEW031 OVC049 10/08
                        Q1002 NOSIG=
201604040120 METAR COR EGLL 040120Z AUTO 17006KT 9999 -RA NCD 10/08 Q1002
                        NOSIG=
201604040050 METAR COR EGLL 040050Z AUTO 17005KT 9000 NCD 10/09 Q1002
                        NOSIG=
201604040020 METAR COR EGLL 040020Z AUTO 20007KT 9000 FEW028 BKN043 10/09
                        Q1002 NOSIG=
201604032350 METAR COR EGLL 032350Z AUTO 15004KT 9999 NCD 09/08 Q1002
                        TEMPO BKN012=
201604032320 METAR COR EGLL 032320Z AUTO 17004KT 9999 FEW016 10/08 Q1002
                        TEMPO BKN012=
201604032250 METAR COR EGLL 032250Z AUTO 20007KT 9999 BKN012 11/09 Q1002
                        TEMPO SCT012=
201604032220 METAR COR EGLL 032220Z AUTO 18006KT 9999 BKN015 11/09 Q1002
                        TEMPO BKN012=
201604032150 METAR COR EGLL 032150Z AUTO 18007KT 9999 FEW018 BKN041 11/09
                        Q1003 NOSIG=
201604032120 METAR COR EGLL 032120Z AUTO 15008KT 9999 BKN044 11/09 Q1003
                        NOSIG=
201604032050 METAR COR EGLL 032050Z AUTO 17007KT 9999 NCD 12/09 Q1003
                        TEMPO SHRA=
201604032020 METAR COR EGLL 032020Z AUTO 16008KT 140V210 9999 BKN048 12/09
                        Q1003 TEMPO SHRA=
201604031950 METAR COR EGLL 031950Z AUTO 14007KT 9999 -RA BKN045 12/10
                        Q1003 TEMPO SHRA=
201604031920 METAR COR EGLL 031920Z AUTO 12009KT 9999 BKN046 12/10 Q1003
                        NOSIG=
201604031850 METAR COR EGLL 031850Z 11009KT 9999 8000NE -SHRA FEW013 SCT035CB
                        12/10 Q1002 NOSIG=
201604031820 METAR COR EGLL 031820Z 11007KT 9999 4000SE VCTS VCSH BKN042CB
                        14/07 Q1002 TEMPO 4000 TSRA=
201604031750 METAR COR EGLL 031750Z AUTO 10008KT 9999 NCD 15/06 Q1002
                        TEMPO TSRA=
201604031720 METAR COR EGLL 031720Z AUTO 10007KT 9999 FEW043 15/06 Q1003
                        TEMPO SHRA=
201604031650 METAR COR EGLL 031650Z AUTO 12010KT 9999 FEW042 15/05 Q1003
                        TEMPO SHRA=
201604031620 METAR COR EGLL 031620Z AUTO 13009KT 9999 NCD 15/06 Q1003
                        TEMPO SHRA=
201604031550 METAR COR EGLL 031550Z AUTO 13007KT 9999 NCD 16/07 Q1004
                        NOSIG=
201604031520 METAR COR EGLL 031520Z AUTO 12006KT 9999 FEW047 15/07 Q1004
                        NOSIG=
201604031450 METAR COR EGLL 031450Z AUTO 13007KT 9999 NCD 14/06 Q1004
                        NOSIG=
201604031420 METAR COR EGLL 031420Z AUTO 13006KT 090V150 9999 NCD 15/06
                        Q1005 NOSIG=
201604031350 METAR COR EGLL 031350Z AUTO 15005KT 100V220 9999 NCD 14/06
                        Q1005 NOSIG=
201604031320 METAR COR EGLL 031320Z AUTO 18006KT 120V240 9999 NCD 14/06
                        Q1005 NOSIG=
201604031250 METAR COR EGLL 031250Z AUTO 16008KT 120V270 9999 NCD 14/05
                        Q1006 NOSIG=
201604031220 METAR COR EGLL 031220Z AUTO 16009KT 130V230 9999 FEW028 14/06
                        Q1006 NOSIG=
201604031150 METAR COR EGLL 031150Z AUTO 16010KT 130V230 9999 FEW025 14/07
                        Q1006 NOSIG=
201604031120 METAR COR EGLL 031120Z AUTO 14008KT 110V200 9999 SCT023 13/07
                        Q1006 NOSIG=
201604031050 METAR COR EGLL 031050Z AUTO 16009KT 130V260 9999 SCT019 13/08
                        Q1007 NOSIG=
201604031020 METAR COR EGLL 031020Z AUTO 18008KT 130V220 9999 BKN016 11/07
                        Q1007 NOSIG=
201604030950 METAR COR EGLL 030950Z AUTO 17009KT 130V240 9000 BKN013 11/07
                        Q1007 BECMG SCT013=
201604030920 METAR COR EGLL 030920Z AUTO 15008KT 110V200 8000 SCT012 11/07
                        Q1007 NOSIG=
201604030850 METAR COR EGLL 030850Z AUTO 19007KT 130V240 8000 SCT010 10/08
                        Q1007 NOSIG=
201604030820 METAR COR EGLL 030820Z AUTO 19008KT 150V220 7000 BKN009 10/07
                        Q1007 BECMG FEW009=
201604030750 METAR COR EGLL 030750Z AUTO 18009KT 160V240 6000 FEW009 09/07
                        Q1007 NOSIG=
201604030720 METAR COR EGLL 030720Z AUTO 18008KT 150V240 5000 HZ NCD 08/07
                        Q1007 NOSIG=
201604030650 METAR COR EGLL 030650Z AUTO 18008KT 150V220 4800 HZ FEW007
                        07/06 Q1007 BECMG 5000=
201604030620 METAR COR EGLL 030620Z AUTO 16008KT 4400 HZ FEW011 07/06
                        Q1007 BECMG 5000=
201604030550 METAR COR EGLL 030550Z AUTO 17007KT 120V200 3900 HZ FEW010
                        07/07 Q1006 BECMG 5000=
201604030520 METAR COR EGLL 030520Z AUTO 16007KT 120V200 3800 HZ NCD 07/07
                        Q1006 BECMG 5000=
201604030450 METAR COR EGLL 030450Z AUTO 17005KT 3900 HZ FEW010 07/06
                        Q1006 TEMPO 5000 BKN006=
201604030420 METAR COR EGLL 030420Z 19006KT 4500 HZ SCT010 07/06 Q1006
                        TEMPO 5000 BKN006=
201604030350 METAR COR EGLL 030350Z 21006KT 5000 HZ FEW008 SCT010 BKN037
                        08/07 Q1006 TEMPO 4000 BKN006=
201604030320 METAR COR EGLL 030320Z 21006KT 4700 HZ SCT009 BKN034 08/07
                        Q1006 TEMPO 6000 NSW BKN006=
201604030250 METAR COR EGLL 030250Z 21006KT 3000 -RADZ SCT006 BKN028 08/07
                        Q1006 TEMPO 5000 BKN006=
201604030220 METAR COR EGLL 030220Z 19006KT 3000 HZ SCT010 BKN032 08/07
                        Q1005 TEMPO 5000 BKN006=
201604030150 METAR COR EGLL 030150Z 18005KT 2400 -RADZ FEW005 SCT010 BKN033
                        08/07 Q1006 BECMG 4000 BR=
201604030120 METAR COR EGLL 030120Z 17004KT 1500 -RADZ SCT004 SCT008 08/07
                        Q1006 BECMG 3000 BR=
201604030050 METAR COR EGLL 030050Z 16004KT 1500 -DZ FEW003 BKN006 08/07
                        Q1006 REDZ NOSIG=
201604030020 METAR COR EGLL 030020Z AUTO 14004KT 1400 R09L/P1500 R09R/P1500
                        DZ BKN003 OVC012 08/07 Q1006 BECMG
                        3000 NSW BKN005=
201604022350 METAR COR EGLL 022350Z AUTO 14004KT 2200 HZ OVC005 08/07
                        Q1007 NOSIG=
201604022320 METAR COR EGLL 022320Z AUTO 10006KT 2100 HZ BKN005 08/07
                        Q1007 RERA REDZ NOSIG=
201604022250 METAR COR EGLL 022250Z AUTO 10005KT 1900 DZ OVC006 08/07
                        Q1007 NOSIG=
201604022220 METAR EGLL 022220Z AUTO 10006KT 2000 -RADZ BKN006 08/07 Q1007
                        REDZ=
201604022150 METAR COR EGLL 022150Z AUTO 10005KT 2100 -RADZ SCT008 OVC018
                        08/07 Q1007 REDZ TEMPO RADZ BKN008=
201604022120 METAR COR EGLL 022120Z 09005KT 2600 -RA BKN022 08/07 Q1008
                        TEMPO 5000 NSW BKN012=
201604022050 METAR COR EGLL 022050Z 10006KT 3100 -RA FEW011 SCT026 BKN030
                        08/07 Q1008 TEMPO 5000 RA BKN009=
201604022020 METAR COR EGLL 022020Z 10005KT 5000 2400E -RADZ HZ FEW009
                        BKN023 BKN028 08/06 Q1009 RERA TEMPO
                        4000 RADZ HZ=
201604021950 METAR COR EGLL 021950Z 13005KT 5000 RA HZ BKN025 BKN032 08/06
                        Q1009 TEMPO 4000 RADZ HZ=
201604021920 METAR COR EGLL 021920Z AUTO 14006KT 6000 -RA BKN025 08/06
                        Q1009 TEMPO 4000 RADZ HZ=
201604021850 METAR COR EGLL 021850Z AUTO 14007KT 7000 -RA OVC046 08/05
                        Q1009 TEMPO 4000 RADZ HZ=
201604021820 METAR COR EGLL 021820Z AUTO 15009KT 9000 -RA NCD 09/05 Q1010
                        TEMPO RA=
201604021750 METAR COR EGLL 021750Z AUTO 15009KT 9999 -RA NCD 10/03 Q1009
                        TEMPO RA=
201604021720 METAR COR EGLL 021720Z AUTO 14010KT 9999 -RA NCD 10/04 Q1009
                        TEMPO RA=
201604021650 METAR COR EGLL 021650Z AUTO 16008KT 9999 -RA NCD 11/02 Q1009
                        TEMPO RA=
201604021620 METAR COR EGLL 021620Z AUTO 15009KT 9999 NCD 13/00 Q1009
                        NOSIG=
201604021550 METAR EGLL 021550Z AUTO 14006KT 9999 NCD 13/M02 Q1009=
201604021520 METAR COR EGLL 021520Z AUTO 17009KT 9999 NCD 13/M01 Q1010
                        NOSIG=
201604021450 METAR COR EGLL 021450Z AUTO 15006KT 110V220 9999 NCD 14/M00
                        Q1010 NOSIG=
201604021420 METAR COR EGLL 021420Z AUTO 16008KT 130V210 9999 NCD 14/M01
                        Q1011 NOSIG=
201604021350 METAR COR EGLL 021350Z AUTO 17008KT 130V240 9999 NCD 14/M02
                        Q1011 NOSIG=
201604021320 METAR COR EGLL 021320Z AUTO 18010KT 130V250 9999 NCD 14/M01
                        Q1012 NOSIG=
201604021250 METAR COR EGLL 021250Z AUTO 16010KT 130V210 9999 NCD 14/00
                        Q1012 NOSIG=
201604021220 METAR COR EGLL 021220Z AUTO 17011KT 140V230 9999 NCD 14/00
                        Q1012 NOSIG=
201604021150 METAR COR EGLL 021150Z AUTO 18011KT 140V240 9999 FEW048 14/02
                        Q1013 NOSIG=
201604021120 METAR COR EGLL 021120Z AUTO 17013KT 140V230 9999 NCD 14/01
                        Q1013 NOSIG=
201604021050 METAR COR EGLL 021050Z AUTO 20011KT 170V250 9999 NCD 14/02
                        Q1013 NOSIG=
201604021020 METAR COR EGLL 021020Z AUTO 19012KT 160V240 9999 NCD 13/02
                        Q1014 NOSIG=
201604020950 METAR COR EGLL 020950Z AUTO 19011KT 160V250 9999 NCD 13/02
                        Q1014 NOSIG=
201604020920 METAR COR EGLL 020920Z AUTO 19012KT 150V230 9999 NCD 12/01
                        Q1014 NOSIG=
201604020850 METAR COR EGLL 020850Z AUTO 20012KT 160V240 9999 NCD 12/01
                        Q1014 NOSIG=
201604020820 METAR COR EGLL 020820Z AUTO 18008KT 150V230 9999 NCD 11/03
                        Q1014 NOSIG=
201604020750 METAR COR EGLL 020750Z AUTO 17010KT 140V220 9999 NCD 10/05
                        Q1014 NOSIG=
201604020720 METAR COR EGLL 020720Z AUTO 18009KT 150V220 9999 NCD 10/05
                        Q1014 NOSIG=
201604020650 METAR EGLL 020650Z AUTO 18007KT 140V220 9999 NCD 09/05 Q1014=
201604020620 METAR COR EGLL 020620Z AUTO 15006KT 110V210 9999 NCD 08/05
                        Q1014 NOSIG=
201604020550 METAR COR EGLL 020550Z AUTO 16007KT 120V210 9999 NCD 08/04
                        Q1014 NOSIG=
201604020520 METAR COR EGLL 020520Z AUTO 16008KT 130V200 9999 NCD 08/04
                        Q1014 NOSIG=
201604020450 METAR COR EGLL 020450Z AUTO 15007KT 9999 NCD 08/04 Q1014
                        NOSIG=
201604020420 METAR COR EGLL 020420Z AUTO 16008KT 9999 NCD 08/04 Q1014
                        NOSIG=
201604020350 METAR COR EGLL 020350Z AUTO 17007KT 9999 NCD 09/03 Q1014
                        NOSIG=
201604020320 METAR COR EGLL 020320Z AUTO 18006KT 9999 NCD 09/03 Q1014
                        NOSIG=
201604020250 METAR COR EGLL 020250Z AUTO 18005KT 9999 NCD 08/03 Q1014
                        NOSIG=
201604020220 METAR COR EGLL 020220Z AUTO 17005KT 9999 NCD 08/03 Q1015
                        NOSIG=
201604020150 METAR COR EGLL 020150Z AUTO 16004KT 9999 NCD 08/02 Q1015
                        NOSIG=
201604020120 METAR COR EGLL 020120Z AUTO 17005KT 9999 NCD 08/03 Q1015
                        NOSIG=
201604020050 METAR COR EGLL 020050Z AUTO 18007KT 9999 NCD 08/03 Q1015
                        NOSIG=
201604020020 METAR COR EGLL 020020Z AUTO 17007KT 9999 NCD 08/03 Q1016
                        NOSIG=
201604012350 METAR COR EGLL 012350Z AUTO 16006KT 9999 NCD 08/03 Q1016
                        NOSIG=
201604012320 METAR COR EGLL 012320Z AUTO 16005KT 9999 NCD 08/04 Q1016
                        NOSIG=
201604012250 METAR COR EGLL 012250Z AUTO 15007KT 9999 NCD 08/04 Q1016
                        NOSIG=
201604012220 METAR COR EGLL 012220Z AUTO 16007KT 9999 NCD 08/04 Q1016
                        NOSIG=
201604012150 METAR COR EGLL 012150Z AUTO 15007KT 9999 NCD 08/04 Q1017
                        NOSIG=
201604012120 METAR COR EGLL 012120Z AUTO 15007KT 9999 NCD 09/04 Q1017
                        NOSIG=
201604012050 METAR COR EGLL 012050Z AUTO 16009KT 130V210 9999 NCD 09/03
                        Q1017 NOSIG=
201604012020 METAR COR EGLL 012020Z AUTO 17009KT 150V220 9999 NCD 09/03
                        Q1017 NOSIG=
201604011950 METAR COR EGLL 011950Z AUTO 18012KT 9999 NCD 09/02 Q1017
                        NOSIG=
201604011920 METAR COR EGLL 011920Z AUTO 19011KT 9999 NCD 10/01 Q1017
                        NOSIG=
201604011850 METAR COR EGLL 011850Z AUTO 20011KT 9999 NCD 10/01 Q1017
                        NOSIG=
201604011820 METAR COR EGLL 011820Z AUTO 20012KT 9999 NCD 10/01 Q1017
                        NOSIG=
201604011750 METAR COR EGLL 011750Z AUTO 20011KT 9999 NCD 11/01 Q1017
                        NOSIG=
201604011720 METAR COR EGLL 011720Z AUTO 19012KT 9999 NCD 11/01 Q1017
                        NOSIG=
201604011650 METAR COR EGLL 011650Z AUTO 20012KT 9999 NCD 11/01 Q1017
                        NOSIG=
201604011620 METAR COR EGLL 011620Z AUTO 19014KT 9999 NCD 12/00 Q1017
                        NOSIG=
201604011550 METAR COR EGLL 011550Z AUTO 18014KT 9999 FEW035 12/03 Q1017
                        NOSIG=
201604011520 METAR COR EGLL 011520Z AUTO 19014KT 9999 SCT034 12/03 Q1018
                        NOSIG=
201604011450 METAR COR EGLL 011450Z AUTO 19014KT 170V240 9999 FEW034 12/04
                        Q1018 NOSIG=
201604011420 METAR COR EGLL 011420Z AUTO 19015KT 9999 FEW034 12/03 Q1018
                        NOSIG=
201604011350 METAR COR EGLL 011350Z AUTO 19014KT 9999 FEW033 SCT047 12/03
                        Q1018 NOSIG=
201604011320 METAR COR EGLL 011320Z AUTO 19013KT 160V230 9999 SCT035 12/03
                        Q1019 NOSIG=
201604011250 METAR COR EGLL 011250Z AUTO 19013KT 160V230 9999 SCT035 13/03
                        Q1019 NOSIG=
201604011220 METAR COR EGLL 011220Z AUTO 20013KT 170V240 9999 SCT034 SCT048
                        12/03 Q1019 NOSIG=
201604011150 METAR COR EGLL 011150Z AUTO 20013KT 160V250 9999 BKN033 12/04
                        Q1020 NOSIG=
201604011120 METAR COR EGLL 011120Z AUTO 20011KT 170V230 9999 FEW028 11/04
                        Q1020 NOSIG=
201604011050 METAR COR EGLL 011050Z AUTO 19011KT 160V240 9999 NCD 12/05
                        Q1020 NOSIG=
201604011020 METAR COR EGLL 011020Z AUTO 19011KT 9999 NCD 11/04 Q1020
                        NOSIG=
201604010950 METAR COR EGLL 010950Z AUTO 21011KT 170V240 9999 NCD 11/03
                        Q1020 NOSIG=
201604010920 METAR COR EGLL 010920Z AUTO 18008KT 140V250 9999 NCD 10/03
                        Q1020 NOSIG=
201604010850 METAR COR EGLL 010850Z AUTO 18008KT 140V220 9999 NCD 09/02
                        Q1020 NOSIG=
201604010820 METAR COR EGLL 010820Z AUTO 17007KT 140V230 9999 NCD 07/02
                        Q1020 NOSIG=
201604010750 METAR COR EGLL 010750Z AUTO 17006KT 130V240 9999 NCD 06/03
                        Q1020 NOSIG=
201604010720 METAR COR EGLL 010720Z AUTO 16006KT 120V210 9999 NCD 04/03
                        Q1020 NOSIG=
201604010650 METAR COR EGLL 010650Z AUTO VRB03KT 8000 NCD 02/01 Q1020
                        NOSIG=
201604010620 METAR COR EGLL 010620Z AUTO VRB02KT 9000 NCD 02/01 Q1020
                        NOSIG=
201604010550 METAR COR EGLL 010550Z AUTO VRB02KT 9000 NCD 02/01 Q1020
                        NOSIG=
201604010520 METAR COR EGLL 010520Z AUTO VRB03KT 9000 NCD 02/01 Q1020
                        NOSIG=
201604010450 METAR COR EGLL 010450Z AUTO 10002KT 9999 NCD 01/00 Q1020
                        NOSIG=
201604010420 METAR COR EGLL 010420Z AUTO 11002KT 8000 NCD 01/00 Q1020
                        NOSIG=
201604010350 METAR COR EGLL 010350Z AUTO VRB02KT 7000 NCD 02/01 Q1020
                        NOSIG=
201604010320 METAR COR EGLL 010320Z AUTO 00000KT 8000 NCD 02/01 Q1020
                        NOSIG=
201604010250 METAR COR EGLL 010250Z AUTO VRB01KT 5000 HZ NCD 03/01 Q1020
                        NOSIG=
201604010220 METAR COR EGLL 010220Z AUTO 07002KT 9000 NCD 02/01 Q1020
                        NOSIG=
201604010150 METAR COR EGLL 010150Z AUTO VRB01KT 9999 NCD 03/01 Q1020
                        NOSIG=
201604010120 METAR COR EGLL 010120Z AUTO 18001KT 7000 NCD 03/02 Q1020
                        NOSIG=
201604010050 METAR COR EGLL 010050Z AUTO VRB01KT 9999 NCD 03/01 Q1020
                        NOSIG=
201604010020 METAR COR EGLL 010020Z AUTO 09001KT 9999 NCD 04/02 Q1019
                        NOSIG=

</pre>

</body>
</html>
