##########################################################
# Query made at 01/13/2020 14:20:38 UTC
# Time interval: from 04/01/2019 00:00  to 05/01/2019 23:59  UTC
##########################################################

##########################################################
# EGLL, London / Heathrow Airport (United Kingdom)
# WMO index: 03772
# Latitude 51-29N. Longitude 000-27W. Altitude 24 m.
##########################################################

###################################
#  METAR/SPECI from EGLL
###################################
201904302350 METAR COR EGLL 302350Z AUTO 18004KT 9999 NCD 09/06 Q1021
                        NOSIG=
201904302320 METAR COR EGLL 302320Z AUTO 18006KT 9999 NCD 09/07 Q1022
                        NOSIG=
201904302250 METAR COR EGLL 302250Z AUTO 18007KT 9999 BKN035 10/07 Q1022
                        NOSIG=
201904302220 METAR COR EGLL 302220Z AUTO 17008KT 9999 BKN032 10/07 Q1022
                        NOSIG=
201904302150 METAR COR EGLL 302150Z AUTO 16009KT 9999 SCT029 11/07 Q1022
                        NOSIG=
201904302120 METAR COR EGLL 302120Z AUTO 15009KT 9999 NCD 11/08 Q1022
                        NOSIG=
201904302050 METAR COR EGLL 302050Z AUTO 14007KT 9999 NCD 12/08 Q1022
                        NOSIG=
201904302020 METAR COR EGLL 302020Z AUTO 11009KT 9999 NCD 13/07 Q1022
                        NOSIG=
201904301950 METAR COR EGLL 301950Z AUTO 12008KT 9999 NCD 14/07 Q1022
                        NOSIG=
201904301920 METAR COR EGLL 301920Z AUTO 11007KT 080V160 9999 NCD 14/06
                        Q1021 NOSIG=
201904301850 METAR COR EGLL 301850Z AUTO 09006KT 9999 NCD 15/06 Q1021
                        NOSIG=
201904301820 METAR COR EGLL 301820Z AUTO 09004KT 060V160 9999 NCD 17/04
                        Q1021 NOSIG=
201904301750 METAR COR EGLL 301750Z AUTO VRB02KT 9999 NCD 18/05 Q1021
                        NOSIG=
201904301720 METAR COR EGLL 301720Z AUTO VRB02KT 9999 NCD 18/05 Q1022
                        NOSIG=
201904301650 METAR COR EGLL 301650Z AUTO VRB03KT 9999 NCD 17/05 Q1022
                        NOSIG=
201904301620 METAR COR EGLL 301620Z AUTO 07004KT 020V110 9999 NCD 17/05
                        Q1022 NOSIG=
201904301550 METAR COR EGLL 301550Z AUTO VRB03KT 9999 BKN049 17/05 Q1022
                        NOSIG=
201904301520 METAR COR EGLL 301520Z AUTO VRB02KT 9999 SCT048 17/05 Q1023
                        NOSIG=
201904301450 METAR COR EGLL 301450Z AUTO 03004KT 290V070 9999 SCT045 17/05
                        Q1023 NOSIG=
201904301420 METAR COR EGLL 301420Z AUTO VRB03KT 9999 FEW045 16/05 Q1023
                        NOSIG=
201904301350 METAR COR EGLL 301350Z AUTO VRB02KT 9999 BKN043 17/06 Q1024
                        NOSIG=
201904301320 METAR COR EGLL 301320Z AUTO 03004KT 350V070 9999 BKN041 16/05
                        Q1024 NOSIG=
201904301250 METAR COR EGLL 301250Z AUTO VRB03KT 9999 BKN038 16/06 Q1024
                        NOSIG=
201904301220 METAR COR EGLL 301220Z AUTO 13004KT 070V190 9999 BKN037 17/05
                        Q1025 NOSIG=
201904301150 METAR COR EGLL 301150Z AUTO 19005KT 140V230 9999 BKN035 15/06
                        Q1025 NOSIG=
201904301120 METAR COR EGLL 301120Z AUTO VRB03KT 9999 BKN033 14/06 Q1025
                        NOSIG=
201904301050 METAR COR EGLL 301050Z AUTO VRB03KT 9999 BKN031 15/07 Q1025
                        NOSIG=
201904301020 METAR COR EGLL 301020Z AUTO VRB02KT 9999 SCT026 14/06 Q1026
                        NOSIG=
201904300950 METAR COR EGLL 300950Z AUTO VRB03KT 9999 FEW024 13/07 Q1026
                        NOSIG=
201904300920 METAR COR EGLL 300920Z AUTO 10004KT 010V170 9999 NCD 12/06
                        Q1026 NOSIG=
201904300850 METAR COR EGLL 300850Z AUTO VRB03KT 9999 NCD 11/06 Q1026
                        NOSIG=
201904300820 METAR COR EGLL 300820Z AUTO VRB03KT 9999 FEW012 10/06 Q1026
                        TEMPO BKN012=
201904300750 METAR COR EGLL 300750Z AUTO 14004KT 100V180 9999 BKN009 09/06
                        Q1026 BECMG SCT010=
201904300720 METAR COR EGLL 300720Z AUTO VRB03KT 9999 BKN008 09/07 Q1026
                        BECMG SCT010=
201904300650 METAR COR EGLL 300650Z AUTO 15004KT 110V180 8000 BKN008 08/06
                        Q1026 BECMG SCT010=
201904300620 METAR COR EGLL 300620Z AUTO 18005KT 4700 HZ OVC009 08/06
                        Q1026 BECMG 8000 NSW SCT010=
201904300550 METAR COR EGLL 300550Z AUTO 10005KT 3800 HZ BKN007 OVC012
                        08/06 Q1026 BECMG 8000 SCT007=
201904300520 METAR COR EGLL 300520Z AUTO 12005KT 7000 BKN006 OVC009 08/07
                        Q1026 NOSIG=
201904300450 METAR COR EGLL 300450Z AUTO 14005KT 3900 HZ BKN007 08/07
                        Q1026 BECMG 8000 NSW=
201904300420 METAR COR EGLL 300420Z 09004KT 3000 BR BKN007 07/06 Q1026
                        NOSIG=
201904300350 METAR COR EGLL 300350Z 07003KT 3000 HZ FEW009 05/04 Q1025
                        TEMPO BKN009=
201904300320 METAR COR EGLL 300320Z 04001KT 3000 HZ NSC 07/06 Q1026 NOSIG=
201904300250 METAR COR EGLL 300250Z AUTO 07002KT 2500 HZ NCD 07/06 Q1026
                        NOSIG=
201904300220 METAR COR EGLL 300220Z AUTO 09004KT 3400 HZ NCD 07/06 Q1026
                        NOSIG=
201904300150 METAR COR EGLL 300150Z AUTO 09005KT 3400 HZ NCD 07/06 Q1026
                        NOSIG=
201904300120 METAR COR EGLL 300120Z AUTO 08004KT 3200 HZ NCD 07/06 Q1026
                        NOSIG=
201904300050 METAR COR EGLL 300050Z AUTO 08003KT 3900 HZ NCD 08/06 Q1026
                        TEMPO 5000=
201904300020 METAR COR EGLL 300020Z 08004KT 7000 NSC 07/05 Q1026 NOSIG=
201904292350 METAR COR EGLL 292350Z 10006KT 7000 SCT044 09/06 Q1026 NOSIG=
201904292320 METAR COR EGLL 292320Z AUTO 10007KT 8000 OVC043 10/07 Q1026
                        NOSIG=
201904292250 METAR COR EGLL 292250Z AUTO 11010KT 9000 OVC044 10/06 Q1026
                        NOSIG=
201904292220 METAR COR EGLL 292220Z AUTO 10008KT 9999 OVC045 10/05 Q1026
                        NOSIG=
201904292150 METAR COR EGLL 292150Z AUTO 09008KT 9999 OVC044 11/06 Q1026
                        NOSIG=
201904292120 METAR COR EGLL 292120Z AUTO 10009KT 9999 OVC043 11/06 Q1026
                        NOSIG=
201904292050 METAR COR EGLL 292050Z AUTO 10009KT 9999 OVC045 12/07 Q1026
                        NOSIG=
201904292020 METAR COR EGLL 292020Z AUTO 10006KT 9999 BKN046 12/07 Q1026
                        NOSIG=
201904291950 METAR COR EGLL 291950Z AUTO 07005KT 9999 BKN049 12/06 Q1026
                        NOSIG=
201904291920 METAR COR EGLL 291920Z AUTO 07005KT 9999 NCD 13/06 Q1026
                        NOSIG=
201904291850 METAR COR EGLL 291850Z AUTO 07005KT 9999 BKN048 13/06 Q1025
                        NOSIG=
201904291820 METAR COR EGLL 291820Z AUTO 07006KT 9999 OVC042 14/06 Q1025
                        NOSIG=
201904291750 METAR COR EGLL 291750Z AUTO 06005KT 9999 OVC041 14/06 Q1025
                        NOSIG=
201904291720 METAR EGLL 291720Z AUTO 05005KT 9999 BKN043 14/06 Q1025=
201904291650 METAR EGLL 291650Z AUTO 05005KT 030V090 9999 OVC043 14/06
                        Q1025=
201904291620 METAR COR EGLL 291620Z AUTO 04005KT 9999 BKN041 OVC049 14/05
                        Q1025 NOSIG=
201904291550 METAR COR EGLL 291550Z AUTO 08005KT 020V130 9999 BKN043 15/05
                        Q1025 NOSIG=
201904291520 METAR COR EGLL 291520Z AUTO 07005KT 030V110 9999 BKN041 14/05
                        Q1025 NOSIG=
201904291450 METAR COR EGLL 291450Z AUTO 15005KT 100V220 9999 FEW040 BKN047
                        15/05 Q1026 NOSIG=
201904291420 METAR COR EGLL 291420Z AUTO 15004KT 120V200 9999 BKN043 14/05
                        Q1026 NOSIG=
201904291350 METAR COR EGLL 291350Z AUTO 19005KT 140V280 9999 BKN040 14/05
                        Q1026 NOSIG=
201904291320 METAR COR EGLL 291320Z AUTO 14006KT 9999 BKN034 OVC043 13/05
                        Q1026 NOSIG=
201904291250 METAR COR EGLL 291250Z AUTO 12005KT 080V170 9999 SCT034 OVC041
                        13/05 Q1026 NOSIG=
201904291220 METAR COR EGLL 291220Z AUTO 06005KT 010V100 9999 OVC031 12/05
                        Q1026 NOSIG=
201904291150 METAR COR EGLL 291150Z AUTO 06006KT 010V110 9999 BKN030 12/06
                        Q1026 NOSIG=
201904291120 METAR COR EGLL 291120Z AUTO 08005KT 050V140 9999 BKN028 OVC037
                        12/06 Q1027 NOSIG=
201904291050 METAR COR EGLL 291050Z AUTO 08005KT 030V120 9999 BKN027 OVC035
                        12/06 Q1027 NOSIG=
201904291020 METAR COR EGLL 291020Z AUTO 06005KT 350V110 9999 BKN022 11/06
                        Q1027 NOSIG=
201904290950 METAR COR EGLL 290950Z AUTO 05004KT 350V120 9999 SCT018 BKN026
                        11/06 Q1027 NOSIG=
201904290920 METAR COR EGLL 290920Z 05006KT 020V110 9999 BKN015 11/07
                        Q1027 NOSIG=
201904290850 METAR COR EGLL 290850Z AUTO 05006KT 330V090 9999 SCT012 BKN020
                        10/07 Q1026 NOSIG=
201904290820 METAR COR EGLL 290820Z AUTO 04005KT 010V090 9999 FEW009 09/07
                        Q1026 NOSIG=
201904290750 METAR COR EGLL 290750Z AUTO 04005KT 9999 BKN006 08/07 Q1026
                        BECMG FEW030=
201904290720 METAR COR EGLL 290720Z VRB03KT 6000 FEW004 BKN006 08/06 Q1026
                        BECMG SCT006=
201904290650 METAR COR EGLL 290650Z VRB03KT 5000 HZ FEW004 OVC006 07/06
                        Q1026 BECMG SCT006=
201904290620 METAR COR EGLL 290620Z AUTO 06006KT 6000 OVC005 07/05 Q1026
                        BECMG SCT005=
201904290550 METAR COR EGLL 290550Z AUTO 04004KT 9000 BKN006 06/05 Q1026
                        TEMPO SCT006=
201904290520 METAR COR EGLL 290520Z AUTO 04004KT 9000 NCD 06/04 Q1025
                        NOSIG=
201904290450 METAR COR EGLL 290450Z AUTO 02003KT 9999 NCD 06/04 Q1025
                        NOSIG=
201904290420 METAR COR EGLL 290420Z AUTO 01003KT 9999 NCD 06/05 Q1025
                        NOSIG=
201904290350 METAR COR EGLL 290350Z AUTO 01004KT 9999 NCD 06/05 Q1025
                        NOSIG=
201904290320 METAR COR EGLL 290320Z AUTO 01004KT 9999 NCD 07/05 Q1025
                        NOSIG=
201904290250 METAR COR EGLL 290250Z AUTO VRB02KT 9999 NCD 07/05 Q1025
                        NOSIG=
201904290220 METAR COR EGLL 290220Z AUTO 36003KT 9999 NCD 07/05 Q1025
                        NOSIG=
201904290150 METAR COR EGLL 290150Z AUTO 02003KT 9999 NCD 08/05 Q1025
                        NOSIG=
201904290120 METAR COR EGLL 290120Z AUTO VRB03KT 9999 NCD 08/05 Q1025
                        NOSIG=
201904290050 METAR COR EGLL 290050Z AUTO VRB03KT 9999 NCD 08/05 Q1025
                        NOSIG=
201904290020 METAR COR EGLL 290020Z AUTO 04003KT 9999 NCD 09/06 Q1025
                        NOSIG=
201904282350 METAR COR EGLL 282350Z AUTO 36003KT 9999 NCD 09/06 Q1025
                        NOSIG=
201904282320 METAR COR EGLL 282320Z AUTO VRB03KT 9999 NCD 09/06 Q1024
                        NOSIG=
201904282250 METAR COR EGLL 282250Z AUTO 36003KT 9999 NCD 10/06 Q1024
                        NOSIG=
201904282220 METAR COR EGLL 282220Z AUTO VRB02KT 9999 NCD 10/06 Q1024
                        NOSIG=
201904282150 METAR COR EGLL 282150Z AUTO VRB03KT 9999 NCD 10/06 Q1024
                        NOSIG=
201904282120 METAR COR EGLL 282120Z AUTO 04003KT 9999 NCD 10/06 Q1024
                        NOSIG=
201904282050 METAR COR EGLL 282050Z AUTO VRB03KT 9999 NCD 11/05 Q1024
                        NOSIG=
201904282020 METAR COR EGLL 282020Z AUTO VRB03KT 9999 NCD 11/05 Q1023
                        NOSIG=
201904281950 METAR COR EGLL 281950Z AUTO VRB03KT 9999 NCD 11/05 Q1023
                        NOSIG=
201904281920 METAR COR EGLL 281920Z AUTO 04004KT 360V070 9999 NCD 12/05
                        Q1023 NOSIG=
201904281850 METAR COR EGLL 281850Z AUTO 02005KT 340V060 9999 NCD 13/05
                        Q1023 NOSIG=
201904281820 METAR COR EGLL 281820Z AUTO 36006KT 320V020 9999 NCD 13/04
                        Q1022 NOSIG=
201904281750 METAR COR EGLL 281750Z AUTO 01005KT 340V040 9999 NCD 13/04
                        Q1022 NOSIG=
201904281720 METAR COR EGLL 281720Z AUTO 03007KT 340V050 9999 OVC046 13/04
                        Q1022 NOSIG=
201904281650 METAR COR EGLL 281650Z AUTO 33006KT 290V010 9999 NCD 14/04
                        Q1022 NOSIG=
201904281620 METAR COR EGLL 281620Z AUTO 35008KT 310V030 9999 FEW044 14/04
                        Q1021 NOSIG=
201904281550 METAR COR EGLL 281550Z AUTO 01007KT 320V050 9999 FEW044 14/04
                        Q1021 NOSIG=
201904281520 METAR COR EGLL 281520Z AUTO 36008KT 300V050 9999 BKN042 14/04
                        Q1021 NOSIG=
201904281450 METAR COR EGLL 281450Z AUTO 01008KT 330V040 9999 FEW043 14/04
                        Q1021 NOSIG=
201904281420 METAR COR EGLL 281420Z AUTO 01008KT 320V040 9999 FEW040 14/04
                        Q1021 NOSIG=
201904281350 METAR COR EGLL 281350Z AUTO 33008KT 300V030 9999 SCT032 BKN043
                        13/05 Q1021 NOSIG=
201904281320 METAR COR EGLL 281320Z AUTO 31009KT 290V350 9999 FEW041 13/06
                        Q1021 NOSIG=
201904281250 METAR COR EGLL 281250Z AUTO 31010KT 9999 NCD 13/06 Q1020
                        NOSIG=
201904281220 METAR COR EGLL 281220Z AUTO 30010KT 9999 SCT037 BKN045 12/05
                        Q1020 NOSIG=
201904281150 METAR COR EGLL 281150Z AUTO 31010KT 280V340 9999 FEW042 13/05
                        Q1020 NOSIG=
201904281120 METAR COR EGLL 281120Z AUTO 31009KT 280V340 9999 FEW034 BKN041
                        12/04 Q1020 NOSIG=
201904281050 METAR COR EGLL 281050Z AUTO 30009KT 270V330 9999 SCT031 SCT038
                        BKN045 12/04 Q1020 NOSIG=
201904281020 METAR COR EGLL 281020Z AUTO 30009KT 9999 SCT030 BKN046 12/05
                        Q1020 NOSIG=
201904280950 METAR COR EGLL 280950Z AUTO 30011KT 9999 SCT032 BKN048 11/05
                        Q1020 NOSIG=
201904280920 METAR COR EGLL 280920Z AUTO 31009KT 280V350 9999 SCT023 BKN044
                        11/06 Q1020 NOSIG=
201904280850 METAR COR EGLL 280850Z AUTO 30009KT 9999 SCT022 BKN028 OVC040
                        10/05 Q1020 NOSIG=
201904280820 METAR COR EGLL 280820Z AUTO 30010KT 9999 SCT022 BKN028 BKN033
                        09/05 Q1019 NOSIG=
201904280750 METAR COR EGLL 280750Z AUTO 29009KT 9999 BKN022 OVC027 09/04
                        Q1019 NOSIG=
201904280720 METAR COR EGLL 280720Z AUTO 30011KT 9999 SCT023 BKN027 09/04
                        Q1019 NOSIG=
201904280650 METAR COR EGLL 280650Z AUTO 30008KT 260V340 9999 BKN022 09/04
                        Q1019 NOSIG=
201904280620 METAR COR EGLL 280620Z AUTO 30007KT 9999 BKN023 08/04 Q1018
                        NOSIG=
201904280550 METAR COR EGLL 280550Z AUTO 30011KT 9999 BKN024 08/03 Q1018
                        NOSIG=
201904280520 METAR COR EGLL 280520Z AUTO 29012G22KT 9999 BKN026 08/03
                        Q1018 NOSIG=
201904280450 METAR COR EGLL 280450Z AUTO 30012KT 9999 BKN028 OVC043 08/02
                        Q1017 NOSIG=
201904280420 METAR COR EGLL 280420Z AUTO 29011KT 9999 OVC031 08/02 Q1017
                        NOSIG=
201904280350 METAR COR EGLL 280350Z AUTO 29010KT 9999 BKN032 08/02 Q1017
                        NOSIG=
201904280320 METAR COR EGLL 280320Z AUTO 29010KT 9999 OVC035 08/02 Q1017
                        NOSIG=
201904280250 METAR COR EGLL 280250Z AUTO 29012G22KT 260V330 9999 -RA BKN036///
                        //////TCU 08/02 Q1016 NOSIG=
201904280220 METAR COR EGLL 280220Z AUTO 27012KT 9999 //////TCU 08/02
                        Q1016 NOSIG=
201904280150 METAR COR EGLL 280150Z AUTO 27010KT 9999 -RA FEW038/// SCT047///
                        //////TCU 08/02 Q1016 NOSIG=
201904280120 METAR COR EGLL 280120Z AUTO 26013KT 9999 NCD 08/02 Q1016
                        NOSIG=
201904280050 METAR COR EGLL 280050Z AUTO 26012KT 9999 NCD 07/02 Q1016
                        NOSIG=
201904280020 METAR COR EGLL 280020Z AUTO 26011KT 9999 NCD 07/02 Q1016
                        NOSIG=
201904272350 METAR COR EGLL 272350Z AUTO 27010KT 9999 SCT042 08/02 Q1016
                        NOSIG=
201904272320 METAR EGLL 272320Z AUTO 27011KT 9999 -RA SCT043 08/02 Q1016=
201904272250 METAR COR EGLL 272250Z AUTO 27012KT 9999 NCD 08/02 Q1016
                        NOSIG=
201904272220 METAR COR EGLL 272220Z AUTO 27012KT 9999 NCD 08/03 Q1015
                        NOSIG=
201904272150 METAR COR EGLL 272150Z AUTO 27012KT 9999 NCD 09/03 Q1015
                        NOSIG=
201904272120 METAR EGLL 272120Z AUTO 28013KT 9999 NCD 09/03 Q1015=
201904272050 METAR COR EGLL 272050Z AUTO 27013KT 9999 BKN041 BKN049 09/03
                        Q1015 NOSIG=
201904272020 METAR COR EGLL 272020Z AUTO 27013KT 9999 SCT047 09/02 Q1015
                        NOSIG=
201904271950 METAR COR EGLL 271950Z AUTO 27013KT 9999 -RA SCT038 OVC045
                        09/04 Q1014 NOSIG=
201904271920 METAR COR EGLL 271920Z AUTO 25015KT 9999 NCD 10/03 Q1014
                        NOSIG=
201904271850 METAR COR EGLL 271850Z AUTO 26014KT 9999 NCD 10/03 Q1013
                        NOSIG=
201904271820 METAR COR EGLL 271820Z AUTO 27016KT 9999 NCD 11/03 Q1013
                        NOSIG=
201904271750 METAR COR EGLL 271750Z AUTO 27017KT 9999 -RA FEW043 11/03
                        Q1013 NOSIG=
201904271720 METAR COR EGLL 271720Z AUTO 26020KT 9999 NCD 11/02 Q1012
                        NOSIG=
201904271650 METAR COR EGLL 271650Z AUTO 27018KT 9999 FEW046 11/02 Q1012
                        NOSIG=
201904271620 METAR COR EGLL 271620Z AUTO 27020KT 9999 FEW049 12/02 Q1012
                        NOSIG=
201904271550 METAR COR EGLL 271550Z AUTO 26022KT 9999 NCD 12/02 Q1011
                        NOSIG=
201904271520 METAR COR EGLL 271520Z AUTO 28020KT 9999 NCD 12/M01 Q1011
                        NOSIG=
201904271450 METAR COR EGLL 271450Z AUTO 27022G32KT 9999 NCD 12/01 Q1011
                        NOSIG=
201904271420 METAR COR EGLL 271420Z AUTO 27021KT 9999 NCD 12/01 Q1011
                        NOSIG=
201904271350 METAR COR EGLL 271350Z AUTO 27022KT 9999 NCD 13/01 Q1010
                        NOSIG=
201904271320 METAR COR EGLL 271320Z AUTO 27026KT 9999 NCD 12/00 Q1010
                        NOSIG=
201904271250 METAR COR EGLL 271250Z AUTO 27022G33KT 9999 NCD 11/00 Q1010
                        NOSIG=
201904271220 METAR COR EGLL 271220Z AUTO 27021KT 9999 NCD 11/00 Q1010
                        NOSIG=
201904271150 METAR COR EGLL 271150Z AUTO 28022G32KT 9999 BKN046 11/01
                        Q1010 NOSIG=
201904271120 METAR COR EGLL 271120Z AUTO 28024G38KT 9999 BKN041 11/01
                        Q1009 NOSIG=
201904271050 METAR COR EGLL 271050Z AUTO 27027KT 9999 -RA BKN040 11/02
                        Q1009 NOSIG=
201904271020 METAR COR EGLL 271020Z AUTO 27023G33KT 9999 BKN041 11/02
                        Q1009 NOSIG=
201904270950 METAR COR EGLL 270950Z AUTO 27025G36KT 9999 BKN039 11/03
                        Q1008 NOSIG=
201904270920 METAR COR EGLL 270920Z AUTO 26024G34KT 9999 OVC038 10/02
                        Q1008 NOSIG=
201904270850 METAR COR EGLL 270850Z AUTO 26022KT 9999 BKN035 OVC049 09/03
                        Q1008 NOSIG=
201904270820 METAR COR EGLL 270820Z AUTO 25019G30KT 9999 BKN030 OVC038
                        09/04 Q1007 NOSIG=
201904270750 METAR COR EGLL 270750Z AUTO 25019KT 9999 -RA SCT025 OVC030
                        08/05 Q1007 NOSIG=
201904270720 METAR COR EGLL 270720Z AUTO 24019KT 9999 -RA BKN023 OVC038
                        07/05 Q1007 NOSIG=
201904270650 METAR COR EGLL 270650Z AUTO 25022KT 9999 -RA SCT025 BKN029
                        BKN033 08/04 Q1006 TEMPO RA=
201904270620 METAR COR EGLL 270620Z AUTO 25021KT 9999 -RA BKN025 08/04
                        Q1006 NOSIG=
201904270550 METAR COR EGLL 270550Z AUTO 24019KT 9999 BKN027 08/04 Q1006
                        NOSIG=
201904270520 METAR COR EGLL 270520Z AUTO 24021G31KT 9999 BKN029 OVC036
                        08/03 Q1005 NOSIG=
201904270450 METAR COR EGLL 270450Z AUTO 22018KT 9999 BKN035 BKN045 08/03
                        Q1005 TEMPO RA=
201904270420 METAR COR EGLL 270420Z AUTO 22015KT 9999 SCT036 BKN044 08/03
                        Q1006 TEMPO RA=
201904270350 METAR COR EGLL 270350Z AUTO 22016KT 9999 SCT038 08/03 Q1006
                        TEMPO RA=
201904270320 METAR COR EGLL 270320Z AUTO 21014KT 9999 NCD 08/04 Q1006
                        TEMPO RA=
201904270250 METAR COR EGLL 270250Z AUTO 23014KT 9999 NCD 08/03 Q1006
                        NOSIG=
201904270220 METAR COR EGLL 270220Z AUTO 22015KT 9999 FEW034 08/04 Q1006
                        NOSIG=
201904270150 METAR COR EGLL 270150Z AUTO 23014KT 9999 FEW030 SCT036 08/05
                        Q1007 NOSIG=
201904270120 METAR COR EGLL 270120Z AUTO 22010KT 9999 BKN033 09/06 Q1007
                        NOSIG=
201904270050 METAR COR EGLL 270050Z AUTO 22013KT 9999 NCD 09/06 Q1007
                        NOSIG=
201904270020 METAR COR EGLL 270020Z AUTO 22013KT 9999 SCT022 BKN028 BKN040
                        09/07 Q1007 NOSIG=
201904262350 METAR COR EGLL 262350Z AUTO 21013KT 9999 BKN032/// //////TCU
                        10/08 Q1007 NOSIG=
201904262320 METAR COR EGLL 262320Z AUTO 20014KT 9999 -RA SCT011/// SCT017///
                        BKN036/// //////TCU 10/09 Q1007 TEMPO
                        RA=
201904262250 METAR COR EGLL 262250Z AUTO 19014KT 6000 -RA BKN009 BKN016
                        OVC021 09/08 Q1008 TEMPO RA=
201904262220 METAR COR EGLL 262220Z AUTO 19016KT 9999 -RA SCT013 BKN018
                        10/08 Q1008 TEMPO SHRA BKN009=
201904262150 METAR COR EGLL 262150Z AUTO 20016KT 9999 -RA BKN018 10/07
                        Q1009 NOSIG=
201904262120 METAR COR EGLL 262120Z AUTO 20014KT 9999 BKN023 OVC044 10/06
                        Q1009 NOSIG=
201904262050 METAR COR EGLL 262050Z AUTO 21013KT 9999 -RA SCT026 11/05
                        Q1010 NOSIG=
201904262020 METAR COR EGLL 262020Z AUTO 22014KT 9999 FEW037 10/05 Q1010
                        NOSIG=
201904261950 METAR COR EGLL 261950Z AUTO 21012KT 9999 FEW039/// //////TCU
                        11/04 Q1010 TEMPO SHRA=
201904261920 METAR COR EGLL 261920Z AUTO 22015KT 9999 NCD 11/05 Q1010
                        NOSIG=
201904261850 METAR COR EGLL 261850Z AUTO 21015KT 9999 SCT042 12/05 Q1010
                        NOSIG=
201904261820 METAR COR EGLL 261820Z AUTO 21015KT 9999 FEW048 13/06 Q1010
                        NOSIG=
201904261750 METAR COR EGLL 261750Z AUTO 21016KT 9999 NCD 13/06 Q1010
                        NOSIG=
201904261720 METAR COR EGLL 261720Z AUTO 21013KT 9999 FEW029 SCT040 13/08
                        Q1010 NOSIG=
201904261650 METAR COR EGLL 261650Z AUTO 23008KT 190V250 9999 SCT026 BKN033
                        BKN043 13/07 Q1010 NOSIG=
201904261620 METAR COR EGLL 261620Z AUTO 23012KT 9999 BKN028/// BKN038///
                        //////TCU 13/07 Q1010 NOSIG=
201904261550 METAR COR EGLL 261550Z AUTO 22012KT 9999 -RA SCT026 BKN032
                        13/07 Q1010 NOSIG=
201904261520 METAR COR EGLL 261520Z AUTO 20012G22KT 9999 BKN027/// OVC040///
                        //////TCU 13/09 Q1010 NOSIG=
201904261450 METAR COR EGLL 261450Z 20013KT 9999 -SHRA SCT026TCU BKN032
                        13/09 Q1010 TEMPO SHRA=
201904261420 METAR COR EGLL 261420Z AUTO 22016KT 9999 -RA BKN034/// BKN045///
                        //////TCU 14/07 Q1010 NOSIG=
201904261350 METAR COR EGLL 261350Z AUTO 21016KT 170V240 9999 SCT042 15/05
                        Q1010 NOSIG=
201904261320 METAR COR EGLL 261320Z AUTO 21014KT 180V250 9999 SCT042 16/05
                        Q1009 NOSIG=
201904261250 METAR COR EGLL 261250Z AUTO 21014KT 9999 FEW041 SCT049 17/05
                        Q1009 NOSIG=
201904261220 METAR COR EGLL 261220Z AUTO 21013KT 9999 FEW039 17/06 Q1010
                        NOSIG=
201904261150 METAR COR EGLL 261150Z AUTO 20013KT 9999 SCT036 15/06 Q1010
                        NOSIG=
201904261120 METAR COR EGLL 261120Z AUTO 20014KT 170V240 9999 FEW034 15/06
                        Q1010 NOSIG=
201904261050 METAR COR EGLL 261050Z AUTO 21012KT 170V250 9999 FEW031 15/07
                        Q1010 NOSIG=
201904261020 METAR COR EGLL 261020Z AUTO 19011KT 160V230 9999 FEW037 14/07
                        Q1010 NOSIG=
201904260950 METAR COR EGLL 260950Z AUTO 19011KT 160V230 9999 FEW028 14/07
                        Q1010 NOSIG=
201904260920 METAR COR EGLL 260920Z AUTO 21010KT 180V250 9999 FEW024 13/08
                        Q1010 NOSIG=
201904260850 METAR COR EGLL 260850Z AUTO 19011KT 160V250 9999 FEW022 SCT029
                        BKN044 13/08 Q1010 NOSIG=
201904260820 METAR COR EGLL 260820Z AUTO 21009KT 180V240 9999 SCT016 BKN022
                        BKN028 12/08 Q1010 TEMPO BKN014=
201904260750 METAR COR EGLL 260750Z AUTO 19009KT 170V240 9999 SCT013 SCT018
                        11/08 Q1009 TEMPO BKN014=
201904260720 METAR COR EGLL 260720Z AUTO 21007KT 170V250 9999 FEW014 11/09
                        Q1009 NOSIG=
201904260650 METAR COR EGLL 260650Z AUTO 18007KT 150V230 9999 FEW015 BKN049
                        10/08 Q1009 NOSIG=
201904260620 METAR EGLL 260620Z AUTO 17006KT 130V210 9999 NCD 09/07 Q1009=
201904260550 METAR COR EGLL 260550Z 15006KT 100V210 CAVOK 08/07 Q1008
                        TEMPO 7000 SHRA=
201904260520 METAR COR EGLL 260520Z AUTO VRB03KT 6000 NCD 07/06 Q1008
                        NOSIG=
201904260450 METAR COR EGLL 260450Z VRB03KT 8000 NSC 07/06 Q1008 NOSIG=
201904260420 METAR COR EGLL 260420Z AUTO VRB02KT 7000 FEW004 07/06 Q1008
                        NOSIG=
201904260350 METAR COR EGLL 260350Z VRB01KT CAVOK 07/06 Q1007 NOSIG=
201904260320 METAR COR EGLL 260320Z 17001KT 8000 NSC 07/06 Q1007 NOSIG=
201904260250 METAR COR EGLL 260250Z AUTO 15002KT 9999 NCD 07/06 Q1007
                        NOSIG=
201904260220 METAR COR EGLL 260220Z AUTO 15002KT 9999 NCD 08/06 Q1007
                        NOSIG=
201904260150 METAR COR EGLL 260150Z AUTO 16003KT 9999 NCD 08/07 Q1007
                        NOSIG=
201904260120 METAR COR EGLL 260120Z AUTO 16004KT 9999 NCD 08/07 Q1006
                        NOSIG=
201904260050 METAR COR EGLL 260050Z AUTO 19003KT 9999 NCD 08/07 Q1006
                        NOSIG=
201904260020 METAR COR EGLL 260020Z AUTO 18004KT 9999 NCD 08/07 Q1006
                        NOSIG=
201904252350 METAR COR EGLL 252350Z AUTO 17005KT 9999 NCD 09/07 Q1006
                        NOSIG=
201904252320 METAR COR EGLL 252320Z AUTO 19007KT 9999 NCD 09/07 Q1006
                        NOSIG=
201904252250 METAR COR EGLL 252250Z AUTO 18007KT 9999 NCD 09/07 Q1006
                        NOSIG=
201904252220 METAR COR EGLL 252220Z AUTO 17007KT 9999 NCD 10/07 Q1005
                        NOSIG=
201904252150 METAR COR EGLL 252150Z AUTO 17009KT 150V220 9999 NCD 10/07
                        Q1005 NOSIG=
201904252120 METAR COR EGLL 252120Z AUTO 17009KT 130V200 9999 BKN049 11/07
                        Q1005 NOSIG=
201904252050 METAR COR EGLL 252050Z AUTO 16008KT 130V200 9999 NCD 11/07
                        Q1004 NOSIG=
201904252020 METAR COR EGLL 252020Z AUTO 16009KT 120V200 9999 NCD 11/06
                        Q1004 NOSIG=
201904251950 METAR COR EGLL 251950Z AUTO 20010KT 170V240 9999 NCD 11/06
                        Q1003 NOSIG=
201904251920 METAR COR EGLL 251920Z AUTO 18010KT 9999 NCD 12/06 Q1003
                        NOSIG=
201904251850 METAR COR EGLL 251850Z AUTO 18011KT 120V210 9999 NCD 12/05
                        Q1003 NOSIG=
201904251820 METAR COR EGLL 251820Z AUTO 19011KT 9999 NCD 13/05 Q1002
                        NOSIG=
201904251750 METAR COR EGLL 251750Z AUTO 19014KT 9999 NCD 13/05 Q1002
                        NOSIG=
201904251720 METAR COR EGLL 251720Z AUTO 19014KT 9999 NCD 13/05 Q1002
                        NOSIG=
201904251650 METAR COR EGLL 251650Z AUTO 18013KT 150V210 9999 FEW045 14/04
                        Q1001 NOSIG=
201904251620 METAR COR EGLL 251620Z AUTO 20013KT 150V240 9999 SCT044 15/04
                        Q1001 NOSIG=
201904251550 METAR COR EGLL 251550Z AUTO 21015KT 9999 BKN044 15/04 Q1000
                        NOSIG=
201904251520 METAR COR EGLL 251520Z AUTO 21014KT 170V240 9999 FEW046 16/04
                        Q1000 NOSIG=
201904251450 METAR COR EGLL 251450Z AUTO 20015KT 9999 FEW047 15/04 Q1000
                        NOSIG=
201904251420 METAR COR EGLL 251420Z AUTO 21016KT 170V230 9999 SCT044 15/04
                        Q1000 NOSIG=
201904251350 METAR COR EGLL 251350Z AUTO 19017KT 170V240 9999 SCT042 16/05
                        Q0999 NOSIG=
201904251320 METAR COR EGLL 251320Z AUTO 21015KT 9999 FEW041 SCT048 16/05
                        Q0999 NOSIG=
201904251250 METAR COR EGLL 251250Z AUTO 19018KT 9999 SCT040 15/05 Q0999
                        NOSIG=
201904251220 METAR COR EGLL 251220Z AUTO 18016KT 150V230 9999 SCT041 SCT049
                        15/05 Q0998 NOSIG=
201904251150 METAR COR EGLL 251150Z AUTO 18016KT 160V220 9999 FEW038 15/06
                        Q0998 NOSIG=
201904251120 METAR COR EGLL 251120Z AUTO 17014KT 9999 SCT033 SCT044 14/07
                        Q0998 TEMPO SHRA=
201904251050 METAR COR EGLL 251050Z AUTO 17014KT 9999 SCT030/// BKN039///
                        //////CB 14/06 Q0998 TEMPO SHRA=
201904251020 METAR COR EGLL 251020Z AUTO 18013KT 150V220 9999 FEW023 SCT043
                        15/08 Q0998 TEMPO SHRA=
201904250950 METAR COR EGLL 250950Z AUTO 20013KT 170V230 9999 BKN024///
                        BKN038/// //////TCU 13/07 Q0998 TEMPO
                        SHRA=
201904250920 METAR COR EGLL 250920Z AUTO 20015KT 9999 -RA SCT025/// BKN048///
                        //////TCU 13/08 Q0998 TEMPO SHRA=
201904250850 METAR COR EGLL 250850Z AUTO 19013KT 160V230 9999 SCT027 BKN042
                        13/07 Q0997 TEMPO SHRA=
201904250820 METAR COR EGLL 250820Z AUTO 18011KT 9999 FEW025 SCT044 13/07
                        Q0997 NOSIG=
201904250750 METAR COR EGLL 250750Z AUTO 18011KT 9999 SCT022 SCT028 BKN037
                        13/08 Q0997 NOSIG=
201904250720 METAR COR EGLL 250720Z AUTO 18013KT 9999 SCT020 SCT025 BKN031
                        12/08 Q0997 NOSIG=
201904250650 METAR COR EGLL 250650Z AUTO 16011KT 9999 SCT020 BKN035 12/08
                        Q0996 NOSIG=
201904250620 METAR COR EGLL 250620Z AUTO 16011KT 9999 FEW030 12/08 Q0996
                        NOSIG=
201904250550 METAR COR EGLL 250550Z AUTO 15010KT 9999 FEW022 SCT037 11/08
                        Q0996 NOSIG=
201904250520 METAR COR EGLL 250520Z AUTO 15010KT 9999 -RA FEW018 BKN023
                        BKN030 11/08 Q0995 NOSIG=
201904250450 METAR COR EGLL 250450Z AUTO 13011KT 9999 SCT016 BKN021 BKN029
                        11/08 Q0995 TEMPO SHRA BKN014=
201904250420 METAR COR EGLL 250420Z AUTO 14011KT 9999 BKN016 OVC031 11/08
                        Q0995 TEMPO SHRA BKN014=
201904250350 METAR COR EGLL 250350Z AUTO 13012KT 9999 SCT017 BKN021 BKN030
                        11/08 Q0995 TEMPO SHRA BKN014=
201904250320 METAR COR EGLL 250320Z AUTO 13011KT 9999 FEW018 BKN036 11/08
                        Q0996 TEMPO SHRA=
201904250250 METAR COR EGLL 250250Z AUTO 12013KT 9999 BKN031 BKN039 BKN046
                        10/08 Q0996 TEMPO SHRA=
201904250220 METAR COR EGLL 250220Z AUTO 12012KT 9999 -RA SCT041 BKN049
                        10/08 Q0996 NOSIG=
201904250150 METAR COR EGLL 250150Z AUTO 13011KT 9999 BKN049 11/07 Q0996
                        TEMPO SHRA=
201904250120 METAR COR EGLL 250120Z AUTO 13010KT 9999 BKN045 10/07 Q0996
                        NOSIG=
201904250050 METAR COR EGLL 250050Z AUTO 13008KT 9999 NCD 10/07 Q0997
                        NOSIG=
201904250020 METAR COR EGLL 250020Z AUTO 13011KT 9999 NCD 10/06 Q0997
                        NOSIG=
201904242350 METAR COR EGLL 242350Z AUTO 12007KT 9999 NCD 09/06 Q0997
                        NOSIG=
201904242320 METAR COR EGLL 242320Z AUTO 13006KT 9999 NCD 09/06 Q0997
                        NOSIG=
201904242250 METAR COR EGLL 242250Z AUTO 13007KT 9999 NCD 09/06 Q0997
                        NOSIG=
201904242220 METAR COR EGLL 242220Z AUTO 13006KT 9999 NCD 09/06 Q0997
                        NOSIG=
201904242150 METAR COR EGLL 242150Z AUTO 16008KT 130V200 9999 NCD 10/06
                        Q0997 NOSIG=
201904242120 METAR COR EGLL 242120Z AUTO 18008KT 150V230 9999 NCD 10/06
                        Q0998 NOSIG=
201904242050 METAR COR EGLL 242050Z AUTO 17010KT 9999 NCD 11/06 Q0998
                        NOSIG=
201904242020 METAR COR EGLL 242020Z AUTO 15007KT 120V190 9999 NCD 11/06
                        Q0997 NOSIG=
201904241950 METAR COR EGLL 241950Z AUTO 15009KT 9999 NCD 11/07 Q0997
                        NOSIG=
201904241920 METAR COR EGLL 241920Z AUTO 16010KT 9999 FEW025 12/07 Q0997
                        NOSIG=
201904241850 METAR COR EGLL 241850Z AUTO 19010KT 9999 NCD 12/06 Q0996
                        TEMPO SHRA=
201904241820 METAR COR EGLL 241820Z AUTO 18012G23KT 9999 NCD 13/07 Q0996
                        TEMPO SHRA=
201904241750 METAR COR EGLL 241750Z AUTO 19011KT 9999 FEW033 13/06 Q0996
                        TEMPO SHRA=
201904241720 METAR COR EGLL 241720Z AUTO 19012KT 9999 FEW033 13/06 Q0996
                        TEMPO SHRA=
201904241650 METAR COR EGLL 241650Z AUTO 21013KT 9999 NCD 14/05 Q0996
                        NOSIG=
201904241620 METAR COR EGLL 241620Z AUTO 22016KT 9999 NCD 14/05 Q0995
                        NOSIG=
201904241550 METAR COR EGLL 241550Z AUTO 22016G26KT 9999 SCT036 14/05
                        Q0995 TEMPO 7000 SHRA=
201904241520 METAR COR EGLL 241520Z AUTO 22015G25KT 9999 BKN029 14/07
                        Q0995 TEMPO 7000 SHRA=
201904241450 METAR COR EGLL 241450Z AUTO 19017KT 9999 BKN026 BKN033 14/08
                        Q0994 TEMPO 7000 SHRA=
201904241420 METAR COR EGLL 241420Z AUTO 20016G26KT 9999 BKN024 BKN032
                        15/09 Q0994 NOSIG=
201904241350 METAR COR EGLL 241350Z AUTO 22016KT 9999 BKN023 16/10 Q0993
                        NOSIG=
201904241320 METAR COR EGLL 241320Z AUTO 20018KT 9999 FEW017 SCT023 BKN028
                        15/10 Q0993 NOSIG=
201904241250 METAR COR EGLL 241250Z AUTO 19016KT 9999 SCT022 BKN028 16/11
                        Q0992 NOSIG=
201904241220 METAR COR EGLL 241220Z AUTO 17015KT 9999 SCT018 BKN023 BKN030
                        16/12 Q0992 NOSIG=
201904241150 METAR COR EGLL 241150Z AUTO 15011KT 9999 BKN016 OVC032 16/12
                        Q0992 NOSIG=
201904241120 METAR COR EGLL 241120Z AUTO 15011KT 9999 BKN016 OVC021 16/13
                        Q0992 NOSIG=
201904241050 METAR COR EGLL 241050Z AUTO 13010KT 9999 BKN022/// BKN033///
                        BKN049/// //////CB 16/13 Q0992 RESHRA
                        NOSIG=
201904241020 METAR COR EGLL 241020Z 13012KT 7000 -SHRA BKN035TCU BKN042
                        17/11 Q0991 NOSIG=
201904240950 METAR COR EGLL 240950Z AUTO 10008KT 9999 BKN044 18/11 Q0991
                        NOSIG=
201904240920 METAR COR EGLL 240920Z AUTO 08007KT 9999 NCD 17/11 Q0992
                        NOSIG=
201904240850 METAR COR EGLL 240850Z AUTO 09007KT 9999 NCD 16/10 Q0992
                        NOSIG=
201904240820 METAR COR EGLL 240820Z AUTO 10005KT 9000 FEW044 15/10 Q0992
                        NOSIG=
201904240750 METAR COR EGLL 240750Z AUTO 10004KT 7000 NCD 15/10 Q0992
                        NOSIG=
201904240720 METAR COR EGLL 240720Z AUTO 09004KT 060V120 6000 NCD 14/10
                        Q0992 NOSIG=
201904240650 METAR COR EGLL 240650Z AUTO 08004KT 5000 HZ SCT048 13/09
                        Q0992 NOSIG=
201904240620 METAR COR EGLL 240620Z AUTO 09003KT 5000 HZ NCD 12/08 Q0993
                        NOSIG=
201904240550 METAR COR EGLL 240550Z 14004KT 5000 HZ NSC 12/08 Q0992 NOSIG=
201904240520 METAR COR EGLL 240520Z 13004KT 5000 HZ NSC 12/08 Q0992 NOSIG=
201904240450 METAR COR EGLL 240450Z 10004KT 5000 HZ NSC 10/08 Q0992 NOSIG=
201904240420 METAR COR EGLL 240420Z AUTO 11003KT 5000 HZ NCD 11/08 Q0992
                        NOSIG=
201904240350 METAR COR EGLL 240350Z AUTO 04004KT 010V100 6000 NCD 12/08
                        Q0993 NOSIG=
201904240320 METAR COR EGLL 240320Z 10005KT 6000 NSC 11/08 Q0993 NOSIG=
201904240250 METAR COR EGLL 240250Z 09005KT 6000 NSC 11/08 Q0993 NOSIG=
201904240220 METAR COR EGLL 240220Z AUTO 13004KT 7000 NCD 12/08 Q0993
                        NOSIG=
201904240150 METAR COR EGLL 240150Z AUTO 11003KT 9000 NCD 12/07 Q0993
                        NOSIG=
201904240120 METAR COR EGLL 240120Z AUTO 06002KT 9000 NCD 12/07 Q0994
                        NOSIG=
201904240050 METAR COR EGLL 240050Z AUTO 07002KT 9999 NCD 12/07 Q0994
                        NOSIG=
201904240020 METAR COR EGLL 240020Z AUTO VRB02KT 9999 NCD 12/07 Q0994
                        NOSIG=
201904232350 METAR COR EGLL 232350Z AUTO 05002KT 9999 NCD 13/07 Q0994
                        NOSIG=
201904232320 METAR COR EGLL 232320Z AUTO VRB02KT 9999 NCD 13/07 Q0994
                        NOSIG=
201904232250 METAR COR EGLL 232250Z AUTO VRB02KT 9999 NCD 13/07 Q0995
                        NOSIG=
201904232220 METAR COR EGLL 232220Z AUTO 07003KT 9999 NCD 13/07 Q0995
                        NOSIG=
201904232150 METAR COR EGLL 232150Z AUTO VRB02KT 9999 NCD 14/06 Q0995
                        NOSIG=
201904232120 METAR COR EGLL 232120Z AUTO 06003KT 9999 NCD 14/06 Q0995
                        NOSIG=
201904232050 METAR COR EGLL 232050Z AUTO 08003KT 9999 NCD 12/06 Q0995
                        NOSIG=
201904232020 METAR COR EGLL 232020Z AUTO 11006KT 9999 NCD 14/06 Q0996
                        NOSIG=
201904231950 METAR COR EGLL 231950Z AUTO 08005KT 9999 NCD 15/06 Q0996
                        NOSIG=
201904231920 METAR COR EGLL 231920Z AUTO 07004KT 9999 NCD 15/06 Q0995
                        NOSIG=
201904231850 METAR COR EGLL 231850Z AUTO 07006KT 9999 NCD 16/06 Q0995
                        NOSIG=
201904231820 METAR COR EGLL 231820Z AUTO 08009KT 9999 NCD 16/06 Q0995
                        NOSIG=
201904231750 METAR COR EGLL 231750Z AUTO 07007KT 9999 NCD 17/07 Q0995
                        NOSIG=
201904231720 METAR COR EGLL 231720Z AUTO 07007KT 9999 NCD 18/07 Q0995
                        NOSIG=
201904231650 METAR COR EGLL 231650Z AUTO 07008KT 9999 NCD 18/08 Q0995
                        NOSIG=
201904231620 METAR COR EGLL 231620Z AUTO 09008KT 9999 NCD 19/06 Q0995
                        NOSIG=
201904231550 METAR COR EGLL 231550Z AUTO 07008KT 9999 NCD 19/08 Q0995
                        NOSIG=
201904231520 METAR COR EGLL 231520Z AUTO 07008KT 9999 NCD 19/07 Q0996
                        NOSIG=
201904231450 METAR COR EGLL 231450Z AUTO 07009KT 9999 NCD 20/08 Q0996
                        NOSIG=
201904231420 METAR COR EGLL 231420Z AUTO 07009KT 9999 NCD 20/09 Q0996
                        NOSIG=
201904231350 METAR COR EGLL 231350Z AUTO 07009KT 9999 NCD 21/07 Q0996
                        NOSIG=
201904231320 METAR COR EGLL 231320Z AUTO 06008KT 9999 NCD 21/08 Q0996
                        NOSIG=
201904231250 METAR COR EGLL 231250Z AUTO 08008KT 040V110 9999 NCD 21/09
                        Q0996 NOSIG=
201904231220 METAR COR EGLL 231220Z AUTO 08008KT 050V110 9999 NCD 21/09
                        Q0996 NOSIG=
201904231150 METAR COR EGLL 231150Z AUTO 07005KT 010V100 9999 NCD 20/08
                        Q0997 NOSIG=
201904231120 METAR COR EGLL 231120Z AUTO 06005KT 010V110 9999 NCD 19/08
                        Q0997 NOSIG=
201904231050 METAR COR EGLL 231050Z AUTO 06004KT 010V100 9999 NCD 19/08
                        Q0997 NOSIG=
201904231020 METAR COR EGLL 231020Z AUTO 05005KT 020V100 9999 NCD 18/08
                        Q0997 NOSIG=
201904230950 METAR COR EGLL 230950Z AUTO 04004KT 360V090 9999 NCD 17/09
                        Q0997 NOSIG=
201904230920 METAR COR EGLL 230920Z AUTO 06004KT 020V100 9999 NCD 16/09
                        Q0998 NOSIG=
201904230850 METAR COR EGLL 230850Z AUTO 07004KT 040V110 9999 NCD 16/09
                        Q0998 NOSIG=
201904230820 METAR COR EGLL 230820Z AUTO 06004KT 010V090 9999 NCD 15/09
                        Q0998 NOSIG=
201904230750 METAR COR EGLL 230750Z AUTO 06005KT 9999 NCD 14/08 Q0998
                        NOSIG=
201904230720 METAR COR EGLL 230720Z AUTO 07004KT 020V110 9999 NCD 13/08
                        Q0998 NOSIG=
201904230650 METAR COR EGLL 230650Z AUTO VRB02KT 9999 NCD 13/07 Q0998
                        NOSIG=
201904230620 METAR COR EGLL 230620Z AUTO 06004KT 9999 NCD 13/07 Q0998
                        NOSIG=
201904230550 METAR COR EGLL 230550Z AUTO 05004KT 9999 NCD 13/06 Q0998
                        NOSIG=
201904230520 METAR COR EGLL 230520Z AUTO 05003KT 9999 NCD 13/06 Q0998
                        NOSIG=
201904230450 METAR COR EGLL 230450Z AUTO 05005KT 9999 NCD 13/06 Q0998
                        NOSIG=
201904230420 METAR COR EGLL 230420Z AUTO 04004KT 9999 NCD 13/07 Q0998
                        NOSIG=
201904230350 METAR COR EGLL 230350Z AUTO VRB03KT 9000 NCD 13/07 Q0998
                        NOSIG=
201904230320 METAR COR EGLL 230320Z AUTO 04003KT 9000 NCD 13/08 Q0999
                        NOSIG=
201904230250 METAR COR EGLL 230250Z AUTO 04004KT 8000 NCD 13/08 Q0999
                        NOSIG=
201904230220 METAR COR EGLL 230220Z AUTO 04004KT 8000 NCD 13/09 Q0999
                        NOSIG=
201904230150 METAR COR EGLL 230150Z AUTO 01003KT 8000 NCD 13/09 Q1000
                        NOSIG=
201904230120 METAR COR EGLL 230120Z AUTO 02001KT 8000 NCD 14/09 Q1000
                        NOSIG=
201904230050 METAR COR EGLL 230050Z AUTO VRB02KT 8000 NCD 14/08 Q1000
                        NOSIG=
201904230020 METAR COR EGLL 230020Z AUTO 03002KT 8000 NCD 15/08 Q1000
                        NOSIG=
201904222350 METAR COR EGLL 222350Z AUTO 06003KT 8000 NCD 16/08 Q1001
                        NOSIG=
201904222320 METAR COR EGLL 222320Z AUTO 04004KT 9999 NCD 16/08 Q1001
                        NOSIG=
201904222250 METAR COR EGLL 222250Z AUTO 02003KT 9999 NCD 17/08 Q1001
                        NOSIG=
201904222220 METAR COR EGLL 222220Z AUTO 04002KT 9999 NCD 18/07 Q1001
                        NOSIG=
201904222150 METAR COR EGLL 222150Z AUTO 06002KT 9999 NCD 18/06 Q1002
                        NOSIG=
201904222120 METAR COR EGLL 222120Z AUTO 09002KT 9999 NCD 17/07 Q1002
                        NOSIG=
201904222050 METAR COR EGLL 222050Z AUTO 12003KT 9999 NCD 19/07 Q1002
                        NOSIG=
201904222020 METAR COR EGLL 222020Z AUTO 16005KT 9999 NCD 19/06 Q1002
                        NOSIG=
201904221950 METAR COR EGLL 221950Z AUTO 16005KT 9999 NCD 20/06 Q1002
                        NOSIG=
201904221920 METAR COR EGLL 221920Z AUTO 15006KT 9999 NCD 20/06 Q1002
                        NOSIG=
201904221850 METAR COR EGLL 221850Z AUTO 15006KT 9999 NCD 21/06 Q1002
                        NOSIG=
201904221820 METAR COR EGLL 221820Z AUTO 18008KT 9999 NCD 21/05 Q1002
                        NOSIG=
201904221750 METAR COR EGLL 221750Z AUTO 18010KT 9999 NCD 21/05 Q1002
                        NOSIG=
201904221720 METAR COR EGLL 221720Z AUTO 20009KT 9999 NCD 22/05 Q1002
                        NOSIG=
201904221650 METAR COR EGLL 221650Z AUTO 16011KT 9999 NCD 23/02 Q1002
                        NOSIG=
201904221620 METAR COR EGLL 221620Z AUTO 14009KT 9999 NCD 24/03 Q1002
                        NOSIG=
201904221550 METAR COR EGLL 221550Z AUTO 09012KT 9999 NCD 23/08 Q1002
                        NOSIG=
201904221520 METAR COR EGLL 221520Z AUTO 08010KT 030V110 9999 NCD 23/07
                        Q1002 NOSIG=
201904221450 METAR COR EGLL 221450Z AUTO 08010KT 9999 NCD 24/06 Q1002
                        NOSIG=
201904221420 METAR COR EGLL 221420Z AUTO 11010KT 9999 NCD 24/07 Q1003
                        NOSIG=
201904221350 METAR COR EGLL 221350Z AUTO 10009KT 070V130 9999 NCD 24/06
                        Q1003 NOSIG=
201904221320 METAR COR EGLL 221320Z AUTO 10011KT 9999 NCD 24/06 Q1003
                        NOSIG=
201904221250 METAR COR EGLL 221250Z AUTO 09008KT 070V140 9999 NCD 24/07
                        Q1004 NOSIG=
201904221220 METAR COR EGLL 221220Z AUTO 09007KT 9999 NCD 24/08 Q1004
                        NOSIG=
201904221150 METAR COR EGLL 221150Z AUTO 10006KT 040V140 9999 NCD 23/09
                        Q1005 NOSIG=
201904221120 METAR COR EGLL 221120Z 10006KT 060V120 9999 NSC 20/09 Q1005
                        NOSIG=
201904221050 METAR COR EGLL 221050Z 11007KT CAVOK 19/08 Q1006 NOSIG=
201904221020 METAR COR EGLL 221020Z 09008KT CAVOK 20/08 Q1006 NOSIG=
201904220950 METAR COR EGLL 220950Z 08007KT 050V110 CAVOK 19/07 Q1006
                        NOSIG=
201904220920 METAR COR EGLL 220920Z 08006KT 040V110 CAVOK 17/07 Q1007
                        NOSIG=
201904220850 METAR COR EGLL 220850Z 09004KT 060V140 9999 NSC 15/07 Q1007
                        NOSIG=
201904220820 METAR COR EGLL 220820Z AUTO 06005KT 030V120 9000 NCD 14/06
                        Q1007 NOSIG=
201904220750 METAR COR EGLL 220750Z AUTO 06004KT 030V090 9999 NCD 12/06
                        Q1008 NOSIG=
201904220720 METAR COR EGLL 220720Z AUTO 04004KT 9000 NCD 10/05 Q1008
                        NOSIG=
201904220650 METAR COR EGLL 220650Z AUTO 05003KT 9000 NCD 10/04 Q1008
                        NOSIG=
201904220620 METAR COR EGLL 220620Z AUTO VRB03KT 9000 NCD 09/04 Q1009
                        NOSIG=
201904220550 METAR COR EGLL 220550Z AUTO VRB03KT 9000 NCD 09/03 Q1009
                        NOSIG=
201904220520 METAR COR EGLL 220520Z AUTO VRB02KT 9000 NCD 09/03 Q1009
                        NOSIG=
201904220450 METAR COR EGLL 220450Z AUTO 01003KT 9999 NCD 09/02 Q1009
                        NOSIG=
201904220420 METAR COR EGLL 220420Z AUTO VRB03KT 9999 NCD 09/02 Q1010
                        NOSIG=
201904220350 METAR COR EGLL 220350Z AUTO 03003KT 9999 NCD 10/02 Q1010
                        NOSIG=
201904220320 METAR COR EGLL 220320Z AUTO 04003KT 9999 NCD 10/02 Q1010
                        NOSIG=
201904220250 METAR COR EGLL 220250Z AUTO 04003KT 9999 NCD 10/02 Q1011
                        NOSIG=
201904220220 METAR COR EGLL 220220Z AUTO 05002KT 9999 NCD 11/02 Q1011
                        NOSIG=
201904220150 METAR COR EGLL 220150Z AUTO 07003KT 9999 NCD 10/02 Q1012
                        NOSIG=
201904220120 METAR COR EGLL 220120Z AUTO 04004KT 010V080 9999 NCD 11/02
                        Q1012 NOSIG=
201904220050 METAR COR EGLL 220050Z AUTO 06004KT 9999 NCD 12/01 Q1012
                        NOSIG=
201904220020 METAR COR EGLL 220020Z AUTO 07005KT 9999 NCD 13/01 Q1013
                        NOSIG=
201904212350 METAR COR EGLL 212350Z AUTO 08006KT 9999 NCD 13/01 Q1013
                        NOSIG=
201904212320 METAR COR EGLL 212320Z AUTO 09007KT 9999 NCD 13/01 Q1014
                        NOSIG=
201904212250 METAR COR EGLL 212250Z AUTO 10006KT 9999 NCD 11/01 Q1014
                        NOSIG=
201904212220 METAR COR EGLL 212220Z AUTO 09007KT 9999 NCD 11/01 Q1014
                        NOSIG=
201904212150 METAR COR EGLL 212150Z AUTO 08005KT 9999 NCD 13/01 Q1014
                        NOSIG=
201904212120 METAR COR EGLL 212120Z AUTO 09007KT 9999 NCD 13/01 Q1015
                        NOSIG=
201904212050 METAR COR EGLL 212050Z AUTO 10007KT 9999 NCD 14/01 Q1015
                        NOSIG=
201904212020 METAR COR EGLL 212020Z AUTO 09007KT 9999 NCD 15/01 Q1015
                        NOSIG=
201904211950 METAR COR EGLL 211950Z AUTO 09007KT 9999 NCD 16/01 Q1015
                        NOSIG=
201904211920 METAR COR EGLL 211920Z AUTO 09007KT 9999 NCD 16/01 Q1015
                        NOSIG=
201904211850 METAR COR EGLL 211850Z AUTO 08007KT 9999 NCD 17/01 Q1015
                        NOSIG=
201904211820 METAR COR EGLL 211820Z AUTO 09011KT 9999 NCD 18/02 Q1015
                        NOSIG=
201904211750 METAR COR EGLL 211750Z AUTO 09011KT 9999 NCD 19/03 Q1015
                        NOSIG=
201904211720 METAR COR EGLL 211720Z AUTO 09009KT 9999 NCD 21/03 Q1015
                        NOSIG=
201904211650 METAR COR EGLL 211650Z AUTO 09010KT 9999 NCD 21/05 Q1016
                        NOSIG=
201904211620 METAR COR EGLL 211620Z AUTO 08010KT 9999 NCD 22/05 Q1016
                        NOSIG=
201904211550 METAR COR EGLL 211550Z AUTO 06007KT 020V090 9999 NCD 23/06
                        Q1016 NOSIG=
201904211520 METAR COR EGLL 211520Z AUTO 08008KT 9999 NCD 23/05 Q1017
                        NOSIG=
201904211450 METAR COR EGLL 211450Z AUTO 07006KT 030V120 9999 NCD 24/04
                        Q1017 NOSIG=
201904211420 METAR COR EGLL 211420Z AUTO 10006KT 050V140 9999 NCD 23/05
                        Q1018 NOSIG=
201904211350 METAR COR EGLL 211350Z AUTO VRB03KT 9999 NCD 23/04 Q1018
                        NOSIG=
201904211320 METAR COR EGLL 211320Z AUTO 08005KT 350V120 9999 NCD 24/04
                        Q1018 NOSIG=
201904211250 METAR COR EGLL 211250Z AUTO 09006KT 030V190 9999 NCD 23/04
                        Q1019 NOSIG=
201904211220 METAR COR EGLL 211220Z AUTO 11008KT 070V150 9999 NCD 23/05
                        Q1019 NOSIG=
201904211150 METAR COR EGLL 211150Z AUTO 12006KT 090V180 9999 NCD 23/05
                        Q1020 NOSIG=
201904211120 METAR COR EGLL 211120Z AUTO 07005KT 030V120 9999 NCD 22/06
                        Q1020 NOSIG=
201904211050 METAR COR EGLL 211050Z AUTO VRB03KT 9999 NCD 21/06 Q1021
                        NOSIG=
201904211020 METAR COR EGLL 211020Z AUTO VRB03KT 9999 NCD 20/07 Q1021
                        NOSIG=
201904210950 METAR COR EGLL 210950Z AUTO VRB02KT 9999 NCD 19/07 Q1021
                        NOSIG=
201904210920 METAR COR EGLL 210920Z AUTO VRB02KT 9999 NCD 18/08 Q1022
                        NOSIG=
201904210850 METAR COR EGLL 210850Z AUTO VRB03KT 9999 NCD 16/07 Q1022
                        NOSIG=
201904210820 METAR COR EGLL 210820Z AUTO VRB02KT 9999 NCD 15/07 Q1022
                        NOSIG=
201904210750 METAR COR EGLL 210750Z AUTO VRB03KT 9999 NCD 14/07 Q1023
                        NOSIG=
201904210720 METAR COR EGLL 210720Z AUTO 04004KT 9999 NCD 13/06 Q1023
                        NOSIG=
201904210650 METAR COR EGLL 210650Z AUTO VRB03KT 9999 NCD 11/06 Q1023
                        NOSIG=
201904210620 METAR COR EGLL 210620Z AUTO VRB02KT 9999 NCD 10/05 Q1023
                        NOSIG=
201904210550 METAR COR EGLL 210550Z AUTO 02003KT 9999 NCD 09/05 Q1023
                        NOSIG=
201904210520 METAR COR EGLL 210520Z AUTO 36003KT 9999 NCD 06/04 Q1024
                        NOSIG=
201904210450 METAR COR EGLL 210450Z AUTO 36003KT 9999 NCD 05/03 Q1024
                        NOSIG=
201904210420 METAR COR EGLL 210420Z AUTO 36002KT 9999 NCD 06/04 Q1024
                        NOSIG=
201904210350 METAR COR EGLL 210350Z AUTO VRB02KT 9999 NCD 07/04 Q1024
                        NOSIG=
201904210320 METAR COR EGLL 210320Z AUTO 01003KT 9999 NCD 09/05 Q1024
                        NOSIG=
201904210250 METAR COR EGLL 210250Z AUTO 34002KT 9999 NCD 08/05 Q1024
                        NOSIG=
201904210220 METAR COR EGLL 210220Z AUTO VRB02KT 9999 NCD 09/05 Q1025
                        NOSIG=
201904210150 METAR COR EGLL 210150Z AUTO 35004KT 9999 NCD 10/06 Q1025
                        NOSIG=
201904210120 METAR COR EGLL 210120Z AUTO 34003KT 9999 NCD 09/06 Q1026
                        NOSIG=
201904210050 METAR COR EGLL 210050Z AUTO 36001KT 9999 NCD 09/06 Q1026
                        NOSIG=
201904210020 METAR COR EGLL 210020Z AUTO VRB01KT 9999 NCD 09/05 Q1026
                        NOSIG=
201904202350 METAR COR EGLL 202350Z AUTO 03002KT 9999 NCD 11/05 Q1027
                        NOSIG=
201904202320 METAR COR EGLL 202320Z AUTO 09001KT 9999 NCD 14/05 Q1027
                        NOSIG=
201904202250 METAR COR EGLL 202250Z AUTO 10002KT 9999 NCD 14/04 Q1027
                        NOSIG=
201904202220 METAR COR EGLL 202220Z AUTO 06002KT 9999 NCD 15/04 Q1028
                        NOSIG=
201904202150 METAR COR EGLL 202150Z AUTO 09005KT 9999 NCD 15/04 Q1028
                        NOSIG=
201904202120 METAR COR EGLL 202120Z AUTO 10006KT 9999 NCD 14/04 Q1028
                        NOSIG=
201904202050 METAR COR EGLL 202050Z AUTO 10007KT 9999 NCD 15/05 Q1028
                        NOSIG=
201904202020 METAR COR EGLL 202020Z AUTO 10007KT 9999 NCD 15/05 Q1028
                        NOSIG=
201904201950 METAR COR EGLL 201950Z AUTO 09008KT 9999 NCD 17/04 Q1027
                        NOSIG=
201904201920 METAR COR EGLL 201920Z AUTO 10007KT 9999 NCD 18/05 Q1027
                        NOSIG=
201904201850 METAR COR EGLL 201850Z AUTO 11010KT 9999 NCD 20/04 Q1027
                        NOSIG=
201904201820 METAR COR EGLL 201820Z AUTO 10008KT 9999 NCD 21/05 Q1027
                        NOSIG=
201904201750 METAR COR EGLL 201750Z AUTO 05006KT 9999 NCD 23/04 Q1027
                        NOSIG=
201904201720 METAR COR EGLL 201720Z AUTO 06005KT 030V090 9999 NCD 23/04
                        Q1027 NOSIG=
201904201650 METAR COR EGLL 201650Z AUTO 05007KT 360V080 9999 NCD 23/05
                        Q1027 NOSIG=
201904201620 METAR COR EGLL 201620Z AUTO 03006KT 320V090 9999 NCD 24/04
                        Q1027 NOSIG=
201904201550 METAR COR EGLL 201550Z AUTO 08006KT 050V130 9999 NCD 24/05
                        Q1028 NOSIG=
201904201520 METAR COR EGLL 201520Z AUTO VRB03KT 9999 NCD 24/06 Q1028
                        NOSIG=
201904201450 METAR COR EGLL 201450Z AUTO 09007KT 020V130 9999 NCD 24/05
                        Q1028 NOSIG=
201904201420 METAR COR EGLL 201420Z AUTO 08005KT 030V110 9999 NCD 24/06
                        Q1028 NOSIG=
201904201350 METAR COR EGLL 201350Z AUTO 11006KT 070V150 9999 NCD 24/07
                        Q1029 NOSIG=
201904201320 METAR COR EGLL 201320Z AUTO 08005KT 040V130 9999 NCD 24/05
                        Q1029 NOSIG=
201904201250 METAR COR EGLL 201250Z AUTO 08007KT 040V120 9999 NCD 23/06
                        Q1029 NOSIG=
201904201220 METAR COR EGLL 201220Z AUTO 04007KT 340V080 9999 NCD 23/07
                        Q1030 NOSIG=
201904201150 METAR COR EGLL 201150Z AUTO 06006KT 020V100 9999 NCD 22/08
                        Q1030 NOSIG=
201904201120 METAR COR EGLL 201120Z AUTO 04005KT 340V110 9999 NCD 22/08
                        Q1030 NOSIG=
201904201050 METAR COR EGLL 201050Z AUTO 03005KT 350V080 9999 NCD 21/08
                        Q1031 NOSIG=
201904201020 METAR COR EGLL 201020Z AUTO 05006KT 330V090 9999 NCD 20/07
                        Q1031 NOSIG=
201904200950 METAR COR EGLL 200950Z AUTO 03006KT 330V080 9999 NCD 19/07
                        Q1031 NOSIG=
201904200920 METAR COR EGLL 200920Z AUTO 05007KT 020V110 9999 NCD 18/08
                        Q1031 NOSIG=
201904200850 METAR COR EGLL 200850Z AUTO 03004KT 330V060 9999 NCD 17/08
                        Q1031 NOSIG=
201904200820 METAR COR EGLL 200820Z AUTO 05004KT 340V090 9999 NCD 15/08
                        Q1031 NOSIG=
201904200750 METAR COR EGLL 200750Z AUTO VRB02KT 9999 NCD 14/07 Q1031
                        NOSIG=
201904200720 METAR COR EGLL 200720Z AUTO VRB03KT 8000 NCD 12/07 Q1031
                        NOSIG=
201904200650 METAR COR EGLL 200650Z AUTO 04004KT 330V070 8000 NCD 11/07
                        Q1031 NOSIG=
201904200620 METAR COR EGLL 200620Z AUTO VRB03KT 8000 NCD 10/06 Q1031
                        NOSIG=
201904200550 METAR COR EGLL 200550Z AUTO VRB02KT 7000 NCD 09/06 Q1031
                        NOSIG=
201904200520 METAR COR EGLL 200520Z AUTO VRB03KT 8000 NCD 09/06 Q1031
                        NOSIG=
201904200450 METAR COR EGLL 200450Z AUTO VRB02KT 8000 NCD 09/06 Q1031
                        NOSIG=
201904200420 METAR COR EGLL 200420Z AUTO VRB03KT 8000 NCD 10/06 Q1031
                        NOSIG=
201904200350 METAR COR EGLL 200350Z AUTO VRB03KT 9000 NCD 10/06 Q1031
                        NOSIG=
201904200320 METAR COR EGLL 200320Z AUTO 32002KT 9000 NCD 09/07 Q1031
                        NOSIG=
201904200250 METAR COR EGLL 200250Z AUTO VRB03KT 9000 NCD 10/07 Q1031
                        NOSIG=
201904200220 METAR COR EGLL 200220Z AUTO 36003KT 9999 NCD 11/07 Q1031
                        NOSIG=
201904200150 METAR COR EGLL 200150Z AUTO 35004KT 9999 NCD 11/07 Q1031
                        NOSIG=
201904200120 METAR COR EGLL 200120Z AUTO 35004KT 9999 NCD 11/07 Q1031
                        NOSIG=
201904200050 METAR COR EGLL 200050Z AUTO 02003KT 9999 NCD 12/07 Q1031
                        NOSIG=
201904200020 METAR COR EGLL 200020Z AUTO 34004KT 9999 NCD 12/06 Q1031
                        NOSIG=
201904192350 METAR COR EGLL 192350Z AUTO 35002KT 9999 NCD 13/05 Q1031
                        NOSIG=
201904192320 METAR COR EGLL 192320Z AUTO 03003KT 9999 NCD 13/05 Q1031
                        NOSIG=
201904192250 METAR COR EGLL 192250Z AUTO VRB02KT 9999 NCD 14/05 Q1031
                        NOSIG=
201904192220 METAR COR EGLL 192220Z AUTO 02002KT 9999 NCD 14/05 Q1031
                        NOSIG=
201904192150 METAR COR EGLL 192150Z AUTO VRB02KT 9999 NCD 15/05 Q1031
                        NOSIG=
201904192120 METAR COR EGLL 192120Z AUTO 08002KT 9999 NCD 15/05 Q1030
                        NOSIG=
201904192050 METAR COR EGLL 192050Z AUTO 04003KT 9999 NCD 17/04 Q1030
                        NOSIG=
201904192020 METAR COR EGLL 192020Z AUTO 07003KT 9999 NCD 17/04 Q1030
                        NOSIG=
201904191950 METAR COR EGLL 191950Z AUTO 10004KT 9999 NCD 15/04 Q1030
                        NOSIG=
201904191920 METAR COR EGLL 191920Z AUTO 10006KT 9999 NCD 16/04 Q1030
                        NOSIG=
201904191850 METAR COR EGLL 191850Z AUTO 10006KT 9999 NCD 17/05 Q1029
                        NOSIG=
201904191820 METAR COR EGLL 191820Z AUTO 09009KT 9999 NCD 19/05 Q1029
                        NOSIG=
201904191750 METAR COR EGLL 191750Z AUTO 10009KT 9999 NCD 20/05 Q1029
                        NOSIG=
201904191720 METAR COR EGLL 191720Z AUTO 09010KT 9999 NCD 21/03 Q1028
                        NOSIG=
201904191650 METAR COR EGLL 191650Z AUTO 10010KT 060V130 9999 NCD 22/04
                        Q1028 NOSIG=
201904191620 METAR COR EGLL 191620Z AUTO 09010KT 060V130 9999 NCD 22/05
                        Q1028 NOSIG=
201904191550 METAR COR EGLL 191550Z AUTO 09007KT 050V120 9999 NCD 23/04
                        Q1028 NOSIG=
201904191520 METAR COR EGLL 191520Z AUTO 07007KT 020V110 9999 NCD 23/04
                        Q1028 NOSIG=
201904191450 METAR COR EGLL 191450Z AUTO 06008KT 010V090 9999 NCD 23/04
                        Q1028 NOSIG=
201904191420 METAR COR EGLL 191420Z AUTO 07007KT 030V120 9999 NCD 23/06
                        Q1028 NOSIG=
201904191350 METAR COR EGLL 191350Z AUTO 08008KT 040V110 9999 NCD 23/06
                        Q1028 NOSIG=
201904191320 METAR COR EGLL 191320Z AUTO 07009KT 030V100 9999 NCD 23/06
                        Q1028 NOSIG=
201904191250 METAR COR EGLL 191250Z AUTO 05007KT 010V100 9999 NCD 22/06
                        Q1028 NOSIG=
201904191220 METAR COR EGLL 191220Z AUTO 07009KT 030V110 9999 NCD 22/07
                        Q1028 NOSIG=
201904191150 METAR COR EGLL 191150Z AUTO 06007KT 010V110 9999 NCD 21/07
                        Q1028 NOSIG=
201904191120 METAR COR EGLL 191120Z AUTO 06008KT 010V090 9999 NCD 21/07
                        Q1028 NOSIG=
201904191050 METAR COR EGLL 191050Z AUTO 06008KT 010V080 9999 NCD 20/08
                        Q1028 NOSIG=
201904191020 METAR COR EGLL 191020Z AUTO 05006KT 010V080 9999 NCD 19/08
                        Q1028 NOSIG=
201904190950 METAR COR EGLL 190950Z AUTO 05006KT 010V080 9999 NCD 17/07
                        Q1028 NOSIG=
201904190920 METAR COR EGLL 190920Z AUTO 05005KT 350V090 9999 NCD 16/07
                        Q1028 NOSIG=
201904190850 METAR COR EGLL 190850Z AUTO 04005KT 010V070 9999 NCD 15/07
                        Q1028 NOSIG=
201904190820 METAR COR EGLL 190820Z AUTO 04004KT 010V080 9999 NCD 14/07
                        Q1028 NOSIG=
201904190750 METAR COR EGLL 190750Z AUTO 04006KT 010V070 9999 NCD 13/07
                        Q1028 NOSIG=
201904190720 METAR COR EGLL 190720Z AUTO 05007KT 020V080 9000 NCD 12/06
                        Q1028 NOSIG=
201904190650 METAR COR EGLL 190650Z AUTO 04005KT 010V070 9000 NCD 11/06
                        Q1028 NOSIG=
201904190620 METAR COR EGLL 190620Z AUTO 03004KT 330V060 8000 NCD 10/06
                        Q1028 NOSIG=
201904190550 METAR COR EGLL 190550Z AUTO 02004KT 350V060 8000 NCD 09/06
                        Q1027 NOSIG=
201904190520 METAR COR EGLL 190520Z AUTO 01004KT 8000 NCD 09/05 Q1027
                        NOSIG=
201904190450 METAR COR EGLL 190450Z AUTO 01004KT 9000 NCD 09/05 Q1027
                        NOSIG=
201904190420 METAR COR EGLL 190420Z AUTO 01004KT 9999 NCD 09/05 Q1026
                        NOSIG=
201904190350 METAR COR EGLL 190350Z AUTO VRB02KT 9999 NCD 10/05 Q1026
                        NOSIG=
201904190320 METAR COR EGLL 190320Z AUTO 05005KT 9999 NCD 10/05 Q1026
                        NOSIG=
201904190250 METAR COR EGLL 190250Z AUTO 05004KT 9999 NCD 10/05 Q1026
                        NOSIG=
201904190220 METAR COR EGLL 190220Z AUTO 05005KT 9999 NCD 10/05 Q1026
                        NOSIG=
201904190150 METAR COR EGLL 190150Z AUTO 04004KT 9999 NCD 10/05 Q1026
                        NOSIG=
201904190120 METAR COR EGLL 190120Z AUTO 05006KT 9999 NCD 11/06 Q1026
                        NOSIG=
201904190050 METAR COR EGLL 190050Z AUTO 05004KT 9999 NCD 11/06 Q1026
                        NOSIG=
201904190020 METAR COR EGLL 190020Z AUTO 03003KT 9999 NCD 12/06 Q1026
                        NOSIG=
201904182350 METAR COR EGLL 182350Z AUTO 04004KT 9999 NCD 12/06 Q1026
                        NOSIG=
201904182320 METAR COR EGLL 182320Z AUTO 04004KT 9999 NCD 13/05 Q1026
                        NOSIG=
201904182250 METAR COR EGLL 182250Z AUTO 05005KT 9999 NCD 13/05 Q1026
                        NOSIG=
201904182220 METAR COR EGLL 182220Z AUTO 05005KT 9999 NCD 13/05 Q1026
                        NOSIG=
201904182150 METAR COR EGLL 182150Z AUTO 05005KT 9999 NCD 14/05 Q1026
                        NOSIG=
201904182120 METAR COR EGLL 182120Z AUTO 06005KT 9999 NCD 14/05 Q1025
                        NOSIG=
201904182050 METAR COR EGLL 182050Z AUTO 06006KT 9999 NCD 15/05 Q1025
                        NOSIG=
201904182020 METAR COR EGLL 182020Z AUTO 06008KT 9999 NCD 16/05 Q1025
                        NOSIG=
201904181950 METAR COR EGLL 181950Z AUTO 07006KT 9999 NCD 16/05 Q1025
                        NOSIG=
201904181920 METAR COR EGLL 181920Z AUTO 07006KT 9999 NCD 16/05 Q1024
                        NOSIG=
201904181850 METAR COR EGLL 181850Z AUTO 08006KT 9999 NCD 16/05 Q1024
                        NOSIG=
201904181820 METAR COR EGLL 181820Z AUTO 09009KT 9999 NCD 17/05 Q1024
                        NOSIG=
201904181750 METAR COR EGLL 181750Z AUTO 08010KT 9999 NCD 18/05 Q1023
                        NOSIG=
201904181720 METAR COR EGLL 181720Z AUTO 09014KT 9999 NCD 19/04 Q1023
                        NOSIG=
201904181650 METAR COR EGLL 181650Z AUTO 09011KT 9999 NCD 19/03 Q1023
                        NOSIG=
201904181620 METAR COR EGLL 181620Z AUTO 10012KT 9999 NCD 19/05 Q1023
                        NOSIG=
201904181550 METAR COR EGLL 181550Z AUTO 10011KT 9999 NCD 19/05 Q1022
                        NOSIG=
201904181520 METAR COR EGLL 181520Z AUTO 10014KT 9999 NCD 20/05 Q1022
                        NOSIG=
201904181450 METAR COR EGLL 181450Z AUTO 10013KT 9999 NCD 20/06 Q1022
                        NOSIG=
201904181420 METAR COR EGLL 181420Z AUTO 10013KT 9999 NCD 21/07 Q1022
                        NOSIG=
201904181350 METAR COR EGLL 181350Z AUTO 10012KT 9999 NCD 21/07 Q1022
                        NOSIG=
201904181320 METAR COR EGLL 181320Z AUTO 09013KT 9999 NCD 20/08 Q1022
                        NOSIG=
201904181250 METAR COR EGLL 181250Z AUTO 10014KT 9999 NCD 19/09 Q1023
                        NOSIG=
201904181220 METAR COR EGLL 181220Z AUTO 10014KT 9999 NCD 19/10 Q1023
                        NOSIG=
201904181150 METAR COR EGLL 181150Z AUTO 08012KT 9999 NCD 19/10 Q1023
                        NOSIG=
201904181120 METAR COR EGLL 181120Z AUTO 10011KT 9999 NCD 19/10 Q1023
                        NOSIG=
201904181050 METAR COR EGLL 181050Z AUTO 08007KT 040V120 8000 NCD 18/10
                        Q1023 NOSIG=
201904181020 METAR COR EGLL 181020Z AUTO 07008KT 030V100 7000 NCD 17/10
                        Q1023 NOSIG=
201904180950 METAR COR EGLL 180950Z AUTO 08008KT 7000 NCD 17/10 Q1023
                        NOSIG=
201904180920 METAR COR EGLL 180920Z 09008KT 6000 NSC 15/10 Q1023 NOSIG=
201904180850 METAR COR EGLL 180850Z 07009KT 5000 HZ NSC 14/09 Q1023 NOSIG=
201904180820 METAR COR EGLL 180820Z 07007KT 040V100 3800 HZ NSC 12/09
                        Q1023 BECMG 5000=
201904180750 METAR COR EGLL 180750Z 06006KT 020V090 2500 HZ NSC 11/09
                        Q1023 BECMG 5000=
201904180720 METAR COR EGLL 180720Z 06006KT 2000 HZ NSC 10/08 Q1023 BECMG
                        3000=
201904180650 METAR COR EGLL 180650Z 06006KT 1800 HZ NSC 09/08 Q1023 BECMG
                        3000=
201904180620 METAR COR EGLL 180620Z 06005KT 1600 HZ NSC 08/07 Q1023 TEMPO
                        3000=
201904180550 METAR COR EGLL 180550Z 06004KT 1600 HZ FEW005 08/07 Q1023
                        BECMG 5000 HZ=
201904180520 METAR COR EGLL 180520Z 04005KT 1600 HZ NSC 08/07 Q1022 BECMG
                        5000 HZ=
201904180450 METAR COR EGLL 180450Z 05005KT 1500 BR FEW004 08/07 Q1022
                        NOSIG=
201904180420 METAR COR EGLL 180420Z 05004KT 1500 BR SCT004 08/07 Q1022
                        TEMPO BKN004=
201904180350 METAR COR EGLL 180350Z 05003KT 1600 HZ BKN005 08/07 Q1022
                        NOSIG=
201904180320 METAR COR EGLL 180320Z 09003KT 1600 HZ FEW005 08/07 Q1022
                        BECMG BKN005=
201904180250 METAR COR EGLL 180250Z 07004KT 1600 HZ NSC 09/07 Q1022 NOSIG=
201904180220 METAR COR EGLL 180220Z 07004KT 1800 HZ NSC 09/07 Q1022 NOSIG=
201904180150 METAR COR EGLL 180150Z 06003KT 1800 HZ NSC 09/07 Q1022 NOSIG=
201904180120 METAR COR EGLL 180120Z 07005KT 2000 HZ NSC 09/08 Q1022 NOSIG=
201904180050 METAR COR EGLL 180050Z 07005KT 2000 HZ NSC 09/08 Q1022 NOSIG=
201904180020 METAR COR EGLL 180020Z 07006KT 2200 HZ NSC 10/08 Q1022 NOSIG=
201904172350 METAR COR EGLL 172350Z 07007KT 2500 HZ NSC 10/08 Q1022 NOSIG=
201904172320 METAR COR EGLL 172320Z 07006KT 2500 HZ NSC 10/08 Q1022 NOSIG=
201904172250 METAR COR EGLL 172250Z 07005KT 3000 HZ NSC 10/08 Q1022 NOSIG=
201904172220 METAR COR EGLL 172220Z 09008KT 3500 HZ NSC 11/08 Q1022 NOSIG=
201904172150 METAR COR EGLL 172150Z 10009KT 4500 HZ NSC 11/08 Q1021 NOSIG=
201904172120 METAR EGLL 172120Z 10008KT 6000 NSC 11/08 Q1021=
201904172050 METAR COR EGLL 172050Z AUTO 10006KT 8000 NCD 12/07 Q1021
                        NOSIG=
201904172020 METAR COR EGLL 172020Z AUTO 11006KT 9000 NCD 14/07 Q1021
                        NOSIG=
201904171950 METAR COR EGLL 171950Z AUTO 12008KT 9000 NCD 14/07 Q1020
                        NOSIG=
201904171920 METAR COR EGLL 171920Z AUTO 12010KT 9000 NCD 15/07 Q1020
                        NOSIG=
201904171850 METAR COR EGLL 171850Z AUTO 12011KT 8000 NCD 15/08 Q1020
                        NOSIG=
201904171820 METAR COR EGLL 171820Z AUTO 12011KT 7000 NCD 16/08 Q1019
                        NOSIG=
201904171750 METAR COR EGLL 171750Z AUTO 12011KT 7000 FEW043 17/08 Q1019
                        NOSIG=
201904171720 METAR COR EGLL 171720Z AUTO 09009KT 8000 NCD 17/08 Q1019
                        NOSIG=
201904171650 METAR COR EGLL 171650Z AUTO 10009KT 8000 NCD 17/08 Q1019
                        NOSIG=
201904171620 METAR COR EGLL 171620Z AUTO 10008KT 060V150 9000 NCD 18/08
                        Q1018 NOSIG=
201904171550 METAR COR EGLL 171550Z AUTO 12007KT 070V170 9000 NCD 19/07
                        Q1018 NOSIG=
201904171520 METAR COR EGLL 171520Z AUTO 11006KT 080V170 9000 NCD 18/07
                        Q1019 NOSIG=
201904171450 METAR COR EGLL 171450Z AUTO VRB03KT 9000 NCD 18/07 Q1019
                        NOSIG=
201904171420 METAR COR EGLL 171420Z AUTO 08004KT 030V150 9000 NCD 19/07
                        Q1019 NOSIG=
201904171350 METAR COR EGLL 171350Z AUTO 11004KT 060V160 9000 NCD 18/07
                        Q1019 NOSIG=
201904171320 METAR COR EGLL 171320Z AUTO VRB01KT 8000 NCD 18/07 Q1019
                        NOSIG=
201904171250 METAR EGLL 171250Z AUTO 08005KT 030V140 7000 NCD 18/07 Q1019=
201904171220 METAR COR EGLL 171220Z AUTO VRB03KT 8000 NCD 17/08 Q1019
                        NOSIG=
201904171150 METAR COR EGLL 171150Z AUTO VRB03KT 7000 NCD 16/07 Q1019
                        NOSIG=
201904171120 METAR COR EGLL 171120Z AUTO VRB02KT 8000 NCD 15/07 Q1020
                        NOSIG=
201904171050 METAR COR EGLL 171050Z AUTO VRB03KT 7000 NCD 14/08 Q1020
                        NOSIG=
201904171020 METAR COR EGLL 171020Z AUTO VRB02KT 7000 NCD 13/08 Q1020
                        NOSIG=
201904170950 METAR COR EGLL 170950Z AUTO VRB03KT 7000 NCD 12/07 Q1020
                        NOSIG=
201904170920 METAR COR EGLL 170920Z AUTO VRB03KT 6000 NCD 11/07 Q1020
                        NOSIG=
201904170850 METAR COR EGLL 170850Z AUTO VRB03KT 6000 NCD 10/07 Q1020
                        NOSIG=
201904170820 METAR COR EGLL 170820Z AUTO 05004KT 330V100 5000 HZ NCD 09/06
                        Q1020 NOSIG=
201904170750 METAR COR EGLL 170750Z AUTO 36005KT 320V030 5000 HZ NCD 08/06
                        Q1020 NOSIG=
201904170720 METAR COR EGLL 170720Z 36004KT 5000 HZ NSC 08/06 Q1019 NOSIG=
201904170650 METAR COR EGLL 170650Z VRB03KT 5000 HZ NSC 08/06 Q1019 NOSIG=
201904170620 METAR COR EGLL 170620Z AUTO VRB03KT 4300 HZ NCD 07/05 Q1019
                        TEMPO 5000=
201904170550 METAR COR EGLL 170550Z AUTO 03005KT 4500 HZ NCD 07/05 Q1019
                        TEMPO 5000=
201904170520 METAR COR EGLL 170520Z AUTO 02003KT 4900 HZ NCD 07/05 Q1019
                        TEMPO 5000=
201904170450 METAR COR EGLL 170450Z AUTO 36003KT 4800 HZ NCD 07/05 Q1019
                        TEMPO 5000=
201904170420 METAR COR EGLL 170420Z AUTO 01003KT 5000 HZ NCD 08/05 Q1018
                        TEMPO 4000=
201904170350 METAR COR EGLL 170350Z AUTO 02002KT 5000 HZ NCD 08/06 Q1018
                        TEMPO 4000=
201904170320 METAR COR EGLL 170320Z AUTO 04004KT 5000 HZ NCD 08/06 Q1018
                        TEMPO 4000=
201904170250 METAR COR EGLL 170250Z AUTO 04003KT 3200 HZ NCD 09/08 Q1018
                        NOSIG=
201904170220 METAR COR EGLL 170220Z AUTO 04002KT 3400 HZ NCD 10/08 Q1018
                        NOSIG=
201904170150 METAR COR EGLL 170150Z AUTO 29002KT 3400 HZ NCD 10/08 Q1018
                        NOSIG=
201904170120 METAR COR EGLL 170120Z AUTO 32003KT 3400 HZ NCD 09/08 Q1018
                        NOSIG=
201904170050 METAR COR EGLL 170050Z 29002KT 3600 HZ NSC 10/08 Q1018 NOSIG=
201904170020 METAR COR EGLL 170020Z VRB01KT 4200 HZ NSC 10/08 Q1018 NOSIG=
201904162350 METAR COR EGLL 162350Z 36001KT 4500 HZ NSC 10/08 Q1018 NOSIG=
201904162320 METAR COR EGLL 162320Z 08002KT 4600 HZ NSC 11/08 Q1018 NOSIG=
201904162250 METAR COR EGLL 162250Z VRB02KT 4800 HZ NSC 11/08 Q1018 NOSIG=
201904162220 METAR COR EGLL 162220Z AUTO 32002KT 4900 HZ NCD 10/08 Q1018
                        NOSIG=
201904162150 METAR COR EGLL 162150Z AUTO VRB03KT 5000 HZ NCD 11/08 Q1018
                        BECMG 4000 BR=
201904162120 METAR COR EGLL 162120Z AUTO 31004KT 5000 HZ NCD 11/08 Q1018
                        BECMG 4000 BR=
201904162050 METAR COR EGLL 162050Z AUTO 30003KT 6000 NCD 11/08 Q1018
                        NOSIG=
201904162020 METAR COR EGLL 162020Z AUTO VRB02KT 6000 NCD 11/08 Q1018
                        NOSIG=
201904161950 METAR COR EGLL 161950Z AUTO VRB03KT 6000 NCD 12/08 Q1017
                        NOSIG=
201904161920 METAR COR EGLL 161920Z AUTO 36004KT 320V040 7000 NCD 12/09
                        Q1017 NOSIG=
201904161850 METAR COR EGLL 161850Z AUTO VRB03KT 7000 NCD 12/09 Q1017
                        NOSIG=
201904161820 METAR COR EGLL 161820Z AUTO VRB03KT 7000 NCD 12/09 Q1016
                        NOSIG=
201904161750 METAR COR EGLL 161750Z AUTO 01005KT 330V040 7000 NCD 12/09
                        Q1016 NOSIG=
201904161720 METAR COR EGLL 161720Z AUTO 01005KT 340V050 8000 NCD 13/08
                        Q1016 NOSIG=
201904161650 METAR COR EGLL 161650Z AUTO 33004KT 290V020 8000 NCD 13/08
                        Q1016 NOSIG=
201904161620 METAR COR EGLL 161620Z AUTO 30005KT 280V350 9000 -RA SCT040
                        13/08 Q1015 NOSIG=
201904161550 METAR COR EGLL 161550Z 30007KT 7000 SCT040 13/09 Q1015 NOSIG=
201904161520 METAR COR EGLL 161520Z 31008KT 6000 FEW034 14/09 Q1015 NOSIG=
201904161450 METAR COR EGLL 161450Z 28009KT 5000 -RA FEW022 SCT030 BKN040
                        14/09 Q1015 NOSIG=
201904161420 METAR COR EGLL 161420Z 27012KT 5000 -RA FEW036 14/09 Q1015
                        NOSIG=
201904161350 METAR COR EGLL 161350Z AUTO 27010KT 6000 SCT039 14/08 Q1015
                        NOSIG=
201904161320 METAR COR EGLL 161320Z AUTO VRB02KT 8000 NCD 16/07 Q1015
                        NOSIG=
201904161250 METAR COR EGLL 161250Z AUTO VRB03KT 8000 NCD 16/08 Q1015
                        NOSIG=
201904161220 METAR COR EGLL 161220Z AUTO VRB03KT 8000 NCD 15/07 Q1015
                        NOSIG=
201904161150 METAR COR EGLL 161150Z AUTO 35004KT 310V030 7000 NCD 15/08
                        Q1014 NOSIG=
201904161120 METAR COR EGLL 161120Z AUTO 35005KT 330V030 6000 NCD 14/08
                        Q1015 NOSIG=
201904161050 METAR COR EGLL 161050Z AUTO VRB03KT 6000 NCD 13/07 Q1015
                        NOSIG=
201904161020 METAR COR EGLL 161020Z AUTO VRB03KT 6000 NCD 13/07 Q1015
                        NOSIG=
201904160950 METAR COR EGLL 160950Z AUTO VRB02KT 5000 HZ NCD 13/08 Q1015
                        NOSIG=
201904160920 METAR COR EGLL 160920Z AUTO VRB03KT 5000 HZ NCD 12/07 Q1015
                        NOSIG=
201904160850 METAR COR EGLL 160850Z AUTO VRB03KT 4600 HZ NCD 11/07 Q1015
                        BECMG 5000=
201904160820 METAR COR EGLL 160820Z AUTO VRB02KT 4400 HZ NCD 11/07 Q1014
                        BECMG 5000=
201904160750 METAR COR EGLL 160750Z AUTO VRB02KT 4100 HZ NCD 10/07 Q1014
                        BECMG 5000=
201904160720 METAR COR EGLL 160720Z AUTO VRB02KT 3800 HZ NCD 09/07 Q1014
                        BECMG 5000 BR=
201904160650 METAR COR EGLL 160650Z AUTO VRB02KT 3300 HZ NCD 08/06 Q1014
                        BECMG 5000=
201904160620 METAR COR EGLL 160620Z AUTO VRB02KT 3400 HZ NCD 07/05 Q1014
                        NOSIG=
201904160550 METAR COR EGLL 160550Z AUTO 01003KT 3700 HZ NCD 07/05 Q1014
                        NOSIG=
201904160520 METAR COR EGLL 160520Z AUTO 36002KT 3700 HZ NCD 07/05 Q1013
                        NOSIG=
201904160450 METAR COR EGLL 160450Z AUTO VRB02KT 3700 HZ NCD 07/04 Q1013
                        NOSIG=
201904160420 METAR COR EGLL 160420Z AUTO 03003KT 3900 HZ NCD 07/05 Q1013
                        NOSIG=
201904160350 METAR COR EGLL 160350Z AUTO 04004KT 4200 HZ NCD 07/04 Q1013
                        NOSIG=
201904160320 METAR COR EGLL 160320Z AUTO 04004KT 4600 HZ NCD 07/04 Q1013
                        NOSIG=
201904160250 METAR COR EGLL 160250Z AUTO 04003KT 4600 HZ NCD 07/04 Q1013
                        NOSIG=
201904160220 METAR COR EGLL 160220Z AUTO VRB02KT 4800 HZ NCD 07/04 Q1014
                        NOSIG=
201904160150 METAR COR EGLL 160150Z AUTO 04003KT 4900 HZ NCD 07/04 Q1014
                        NOSIG=
201904160120 METAR COR EGLL 160120Z AUTO 04003KT 5000 HZ NCD 07/04 Q1014
                        TEMPO 4000 BR=
201904160050 METAR COR EGLL 160050Z AUTO 04003KT 5000 HZ NCD 08/04 Q1014
                        NOSIG=
201904160020 METAR COR EGLL 160020Z AUTO 04004KT 6000 NCD 08/04 Q1014
                        NOSIG=
201904152350 METAR COR EGLL 152350Z AUTO 06005KT 6000 NCD 08/04 Q1015
                        NOSIG=
201904152320 METAR COR EGLL 152320Z AUTO VRB03KT 6000 NCD 08/04 Q1015
                        NOSIG=
201904152250 METAR COR EGLL 152250Z AUTO 06005KT 6000 NCD 09/04 Q1015
                        NOSIG=
201904152220 METAR COR EGLL 152220Z AUTO 07004KT 050V110 7000 NCD 09/04
                        Q1015 NOSIG=
201904152150 METAR COR EGLL 152150Z AUTO 09006KT 8000 NCD 09/04 Q1015
                        NOSIG=
201904152120 METAR COR EGLL 152120Z AUTO 09009KT 8000 NCD 09/04 Q1015
                        NOSIG=
201904152050 METAR COR EGLL 152050Z AUTO 09009KT 9000 NCD 09/04 Q1015
                        NOSIG=
201904152020 METAR COR EGLL 152020Z AUTO 08006KT 9000 NCD 09/04 Q1015
                        NOSIG=
201904151950 METAR COR EGLL 151950Z AUTO 09011KT 9999 NCD 09/04 Q1016
                        NOSIG=
201904151920 METAR COR EGLL 151920Z AUTO 09010KT 9999 NCD 09/03 Q1016
                        NOSIG=
201904151850 METAR COR EGLL 151850Z AUTO 10011KT 9000 NCD 09/04 Q1016
                        NOSIG=
201904151820 METAR COR EGLL 151820Z AUTO 10011KT 9999 NCD 09/04 Q1015
                        NOSIG=
201904151750 METAR COR EGLL 151750Z AUTO 09013KT 9999 NCD 10/04 Q1016
                        NOSIG=
201904151720 METAR COR EGLL 151720Z AUTO 10013KT 9999 NCD 11/03 Q1016
                        NOSIG=
201904151650 METAR COR EGLL 151650Z AUTO 10012KT 9999 NCD 11/03 Q1016
                        NOSIG=
201904151620 METAR COR EGLL 151620Z AUTO 08013KT 9999 NCD 11/02 Q1016
                        NOSIG=
201904151550 METAR COR EGLL 151550Z AUTO 09013KT 9999 NCD 12/02 Q1016
                        NOSIG=
201904151520 METAR COR EGLL 151520Z AUTO 09014KT 9999 NCD 13/03 Q1016
                        NOSIG=
201904151450 METAR COR EGLL 151450Z AUTO 10013KT 9999 NCD 13/04 Q1017
                        NOSIG=
201904151420 METAR COR EGLL 151420Z AUTO 09014KT 9999 NCD 13/04 Q1017
                        NOSIG=
201904151350 METAR COR EGLL 151350Z AUTO 09014KT 9999 NCD 14/03 Q1017
                        NOSIG=
201904151320 METAR COR EGLL 151320Z AUTO 11015KT 9999 NCD 14/M01 Q1018
                        NOSIG=
201904151250 METAR COR EGLL 151250Z AUTO 12014KT 090V160 9999 NCD 14/M00
                        Q1018 NOSIG=
201904151220 METAR COR EGLL 151220Z AUTO 11013KT 080V140 9999 NCD 14/02
                        Q1019 NOSIG=
201904151150 METAR COR EGLL 151150Z AUTO 11015KT 9999 NCD 14/02 Q1019
                        NOSIG=
201904151120 METAR COR EGLL 151120Z AUTO 12013KT 9999 NCD 13/02 Q1020
                        NOSIG=
201904151050 METAR COR EGLL 151050Z AUTO 12017KT 9999 NCD 13/01 Q1020
                        NOSIG=
201904151020 METAR COR EGLL 151020Z AUTO 11015KT 9999 NCD 13/01 Q1021
                        NOSIG=
201904150950 METAR COR EGLL 150950Z AUTO 12015KT 9999 NCD 12/01 Q1021
                        NOSIG=
201904150920 METAR COR EGLL 150920Z AUTO 11017KT 9999 NCD 11/01 Q1021
                        NOSIG=
201904150850 METAR COR EGLL 150850Z AUTO 12014KT 9999 NCD 10/01 Q1022
                        NOSIG=
201904150820 METAR COR EGLL 150820Z AUTO 12016KT 9999 NCD 09/01 Q1022
                        NOSIG=
201904150750 METAR COR EGLL 150750Z AUTO 12011KT 9999 NCD 08/01 Q1022
                        NOSIG=
201904150720 METAR COR EGLL 150720Z AUTO 11010KT 9999 NCD 08/02 Q1022
                        NOSIG=
201904150650 METAR COR EGLL 150650Z AUTO 11010KT 9000 NCD 07/01 Q1023
                        NOSIG=
201904150620 METAR COR EGLL 150620Z AUTO 09008KT 9000 NCD 06/02 Q1023
                        NOSIG=
201904150550 METAR COR EGLL 150550Z AUTO 10008KT 8000 NCD 06/02 Q1023
                        NOSIG=
201904150520 METAR COR EGLL 150520Z AUTO 10007KT 7000 NCD 06/02 Q1023
                        NOSIG=
201904150450 METAR COR EGLL 150450Z AUTO 10006KT 7000 NCD 05/02 Q1023
                        NOSIG=
201904150420 METAR COR EGLL 150420Z AUTO 07003KT 6000 NCD 05/02 Q1023
                        NOSIG=
201904150350 METAR COR EGLL 150350Z AUTO 06004KT 6000 NCD 04/02 Q1023
                        NOSIG=
201904150320 METAR COR EGLL 150320Z AUTO 06005KT 6000 NCD 04/02 Q1023
                        NOSIG=
201904150250 METAR COR EGLL 150250Z AUTO 06005KT 6000 NCD 04/02 Q1024
                        NOSIG=
201904150220 METAR COR EGLL 150220Z AUTO 07004KT 6000 NCD 04/02 Q1024
                        NOSIG=
201904150150 METAR COR EGLL 150150Z AUTO 09006KT 6000 NCD 03/01 Q1024
                        NOSIG=
201904150120 METAR COR EGLL 150120Z AUTO 10006KT 6000 NCD 04/02 Q1025
                        NOSIG=
201904150050 METAR COR EGLL 150050Z AUTO 09006KT 7000 NCD 05/02 Q1025
                        NOSIG=
201904150020 METAR COR EGLL 150020Z AUTO 09008KT 7000 NCD 05/02 Q1025
                        NOSIG=
201904142350 METAR COR EGLL 142350Z AUTO 10007KT 7000 NCD 05/02 Q1025
                        NOSIG=
201904142320 METAR COR EGLL 142320Z AUTO 10009KT 6000 NCD 04/01 Q1025
                        NOSIG=
201904142250 METAR COR EGLL 142250Z AUTO 10009KT 7000 NCD 04/01 Q1025
                        NOSIG=
201904142220 METAR COR EGLL 142220Z AUTO 10008KT 7000 NCD 04/01 Q1025
                        NOSIG=
201904142150 METAR COR EGLL 142150Z AUTO 10009KT 7000 NCD 05/01 Q1026
                        NOSIG=
201904142120 METAR COR EGLL 142120Z AUTO 10009KT 8000 NCD 05/01 Q1026
                        NOSIG=
201904142050 METAR COR EGLL 142050Z AUTO 10010KT 8000 NCD 05/01 Q1026
                        NOSIG=
201904142020 METAR COR EGLL 142020Z AUTO 10010KT 9000 NCD 05/01 Q1025
                        NOSIG=
201904141950 METAR COR EGLL 141950Z AUTO 10009KT 9999 NCD 06/00 Q1025
                        NOSIG=
201904141920 METAR COR EGLL 141920Z AUTO 10011KT 9999 NCD 06/M00 Q1025
                        NOSIG=
201904141850 METAR COR EGLL 141850Z AUTO 10010KT 9999 NCD 07/M01 Q1025
                        NOSIG=
201904141820 METAR COR EGLL 141820Z AUTO 10012KT 9999 NCD 07/M02 Q1025
                        NOSIG=
201904141750 METAR COR EGLL 141750Z AUTO 09013KT 9999 NCD 07/M02 Q1025
                        NOSIG=
201904141720 METAR COR EGLL 141720Z AUTO 10012KT 070V130 9999 NCD 08/M02
                        Q1024 NOSIG=
201904141650 METAR COR EGLL 141650Z AUTO 10012KT 9999 NCD 08/M03 Q1024
                        NOSIG=
201904141620 METAR COR EGLL 141620Z AUTO 11013KT 9999 NCD 09/M01 Q1024
                        NOSIG=
201904141550 METAR COR EGLL 141550Z AUTO 11011KT 9999 NCD 09/M02 Q1024
                        NOSIG=
201904141520 METAR COR EGLL 141520Z AUTO 09011KT 9999 NCD 09/M03 Q1024
                        NOSIG=
201904141450 METAR COR EGLL 141450Z AUTO 11009KT 060V140 9999 NCD 09/M04
                        Q1025 NOSIG=
201904141420 METAR COR EGLL 141420Z AUTO 10010KT 9999 NCD 10/M03 Q1025
                        NOSIG=
201904141350 METAR COR EGLL 141350Z AUTO 11008KT 9999 NCD 09/M03 Q1025
                        NOSIG=
201904141320 METAR COR EGLL 141320Z AUTO 10010KT 9999 NCD 09/M04 Q1025
                        NOSIG=
201904141250 METAR COR EGLL 141250Z AUTO 12011KT 9999 NCD 10/M03 Q1024
                        NOSIG=
201904141220 METAR COR EGLL 141220Z AUTO 09011KT 040V120 9999 NCD 09/M02
                        Q1024 NOSIG=
201904141150 METAR COR EGLL 141150Z AUTO 11010KT 080V140 9999 NCD 08/M02
                        Q1025 NOSIG=
201904141120 METAR COR EGLL 141120Z AUTO 10012KT 9999 SCT047 09/M01 Q1025
                        NOSIG=
201904141050 METAR COR EGLL 141050Z AUTO 10011KT 060V130 9999 FEW040 SCT049
                        08/M01 Q1025 NOSIG=
201904141020 METAR COR EGLL 141020Z AUTO 11011KT 9999 SCT034 08/00 Q1025
                        NOSIG=
201904140950 METAR COR EGLL 140950Z AUTO 10011KT 9999 BKN030 07/00 Q1026
                        NOSIG=
201904140920 METAR COR EGLL 140920Z AUTO 09008KT 050V120 9999 NCD 07/01
                        Q1026 NOSIG=
201904140850 METAR COR EGLL 140850Z AUTO 07005KT 040V100 9999 FEW043 06/02
                        Q1026 NOSIG=
201904140820 METAR COR EGLL 140820Z AUTO 09008KT 9999 -RA SCT041 BKN047
                        04/00 Q1026 NOSIG=
201904140750 METAR COR EGLL 140750Z AUTO 07005KT 9999 BKN042 04/M00 Q1026
                        NOSIG=
201904140720 METAR COR EGLL 140720Z AUTO 05005KT 9999 NCD 03/M00 Q1026
                        NOSIG=
201904140650 METAR COR EGLL 140650Z AUTO 04004KT 9999 NCD 02/M01 Q1026
                        NOSIG=
201904140620 METAR COR EGLL 140620Z AUTO VRB02KT 9999 NCD 01/M01 Q1026
                        NOSIG=
201904140550 METAR COR EGLL 140550Z AUTO 35003KT 9999 NCD 00/M02 Q1025
                        NOSIG=
201904140520 METAR COR EGLL 140520Z AUTO VRB02KT 9999 NCD 00/M02 Q1025
                        NOSIG=
201904140450 METAR COR EGLL 140450Z AUTO VRB02KT 9999 NCD 00/M02 Q1025
                        NOSIG=
201904140420 METAR COR EGLL 140420Z AUTO VRB02KT 9999 NCD 00/M02 Q1025
                        NOSIG=
201904140350 METAR COR EGLL 140350Z AUTO 03003KT 9999 NCD 01/M02 Q1025
                        NOSIG=
201904140320 METAR COR EGLL 140320Z AUTO 04004KT 9999 NCD 01/M02 Q1025
                        NOSIG=
201904140250 METAR COR EGLL 140250Z AUTO VRB02KT 9999 NCD M00/M03 Q1026
                        NOSIG=
201904140220 METAR COR EGLL 140220Z AUTO 04003KT 9999 NCD 01/M02 Q1025=
201904140150 METAR COR EGLL 140150Z AUTO 04004KT 9999 NCD 01/M02 Q1026
                        NOSIG=
201904140120 METAR COR EGLL 140120Z AUTO 03003KT 9999 NCD 02/M02 Q1026
                        NOSIG=
201904140050 METAR COR EGLL 140050Z AUTO 04003KT 9999 NCD 02/M02 Q1026
                        NOSIG=
201904140020 METAR COR EGLL 140020Z AUTO 04003KT 9999 NCD 02/M02 Q1026
                        NOSIG=
201904132350 METAR COR EGLL 132350Z AUTO 05003KT 9999 NCD 03/M02 Q1026
                        NOSIG=
201904132320 METAR COR EGLL 132320Z AUTO 06004KT 9999 NCD 03/M02 Q1026
                        NOSIG=
201904132250 METAR COR EGLL 132250Z AUTO 07005KT 9999 NCD 03/M01 Q1026
                        NOSIG=
201904132220 METAR COR EGLL 132220Z AUTO 07006KT 9999 NCD 04/M01 Q1026
                        NOSIG=
201904132150 METAR COR EGLL 132150Z AUTO 07008KT 9999 NCD 04/M02 Q1026
                        NOSIG=
201904132120 METAR COR EGLL 132120Z AUTO 08008KT 9999 NCD 04/M01 Q1026
                        NOSIG=
201904132050 METAR COR EGLL 132050Z AUTO 08007KT 9999 NCD 04/M01 Q1026
                        NOSIG=
201904132020 METAR COR EGLL 132020Z AUTO 10008KT 9999 NCD 05/M01 Q1026
                        NOSIG=
201904131950 METAR COR EGLL 131950Z AUTO 10007KT 9999 NCD 04/M01 Q1026
                        NOSIG=
201904131920 METAR COR EGLL 131920Z AUTO 11008KT 9999 FEW042 06/M02 Q1026
                        NOSIG=
201904131850 METAR COR EGLL 131850Z AUTO 08008KT 9999 NCD 06/M01 Q1026
                        NOSIG=
201904131820 METAR COR EGLL 131820Z AUTO 08008KT 9999 NCD 06/M00 Q1026
                        NOSIG=
201904131750 METAR COR EGLL 131750Z AUTO 07010KT 9999 FEW048 07/M01 Q1026
                        NOSIG=
201904131720 METAR COR EGLL 131720Z AUTO 08008KT 010V110 9999 BKN049 08/M02
                        Q1026 NOSIG=
201904131650 METAR COR EGLL 131650Z AUTO 07008KT 040V110 9999 BKN046 08/M02
                        Q1026 NOSIG=
201904131620 METAR COR EGLL 131620Z AUTO 08006KT 050V110 9999 NCD 09/M01
                        Q1026 NOSIG=
201904131550 METAR COR EGLL 131550Z AUTO 09007KT 030V140 9999 NCD 09/M01
                        Q1026 NOSIG=
201904131520 METAR COR EGLL 131520Z AUTO 06008KT 9999 FEW045 08/00 Q1026
                        NOSIG=
201904131450 METAR COR EGLL 131450Z AUTO 09006KT 050V130 9999 FEW049 06/02
                        Q1027 NOSIG=
201904131420 METAR COR EGLL 131420Z 06008KT 9999 VCSH FEW018 SCT037 BKN049
                        06/03 Q1027 NOSIG=
201904131350 METAR COR EGLL 131350Z AUTO 06012KT 9999 -RA FEW018/// SCT026///
                        BKN032/// //////TCU 07/02 Q1027 NOSIG=
201904131320 METAR COR EGLL 131320Z AUTO 13007KT 100V170 9999 SCT032 BKN045
                        10/01 Q1027 NOSIG=
201904131250 METAR COR EGLL 131250Z AUTO 10005KT 050V140 9999 SCT030 SCT042
                        BKN049 08/02 Q1028 NOSIG=
201904131220 METAR COR EGLL 131220Z AUTO 12005KT 080V160 9999 SCT035 BKN044
                        07/01 Q1028 NOSIG=
201904131150 METAR COR EGLL 131150Z AUTO 10012KT 9000 -RA BKN034 07/M00
                        Q1027 NOSIG=
201904131120 METAR COR EGLL 131120Z AUTO 11006KT 070V170 9999 SCT036 BKN043
                        08/00 Q1027 NOSIG=
201904131050 METAR COR EGLL 131050Z AUTO 11006KT 060V170 9999 SCT031 SCT043
                        09/01 Q1027 NOSIG=
201904131020 METAR COR EGLL 131020Z AUTO 09008KT 060V130 9999 SCT032 BKN046
                        08/01 Q1028 NOSIG=
201904130950 METAR COR EGLL 130950Z AUTO 10007KT 9999 -RA BKN032 06/01
                        Q1028 NOSIG=
201904130920 METAR COR EGLL 130920Z AUTO 09006KT 9999 -RA BKN035 BKN049
                        06/01 Q1028 NOSIG=
201904130850 METAR COR EGLL 130850Z AUTO 08005KT 040V120 9999 NCD 07/01
                        Q1028 NOSIG=
201904130820 METAR COR EGLL 130820Z AUTO 07006KT 040V110 9999 FEW038 05/01
                        Q1028 NOSIG=
201904130750 METAR COR EGLL 130750Z AUTO 06004KT 030V100 9999 NCD 05/00
                        Q1028 NOSIG=
201904130720 METAR COR EGLL 130720Z AUTO 07005KT 020V090 9999 FEW035 04/M00
                        Q1028 NOSIG=
201904130650 METAR COR EGLL 130650Z AUTO 04005KT 360V080 9999 NCD 03/M01
                        Q1028 NOSIG=
201904130620 METAR COR EGLL 130620Z AUTO 05004KT 9999 NCD 02/M01 Q1028
                        NOSIG=
201904130550 METAR COR EGLL 130550Z AUTO VRB03KT 9999 NCD 01/M02 Q1028
                        NOSIG=
201904130520 METAR COR EGLL 130520Z AUTO 01003KT 9999 NCD 01/M02 Q1027
                        NOSIG=
201904130450 METAR COR EGLL 130450Z AUTO 01003KT 9999 NCD 01/M02 Q1028
                        NOSIG=
201904130420 METAR COR EGLL 130420Z AUTO VRB03KT 9999 NCD 01/M02 Q1028
                        NOSIG=
201904130350 METAR COR EGLL 130350Z AUTO 04004KT 9999 NCD 02/M01 Q1028
                        NOSIG=
201904130320 METAR COR EGLL 130320Z AUTO 04005KT 9999 NCD 02/M01 Q1028
                        NOSIG=
201904130250 METAR COR EGLL 130250Z AUTO 05004KT 9999 NCD 02/M01 Q1028
                        NOSIG=
201904130220 METAR COR EGLL 130220Z AUTO 05004KT 9999 NCD 03/M00 Q1028
                        NOSIG=
201904130150 METAR COR EGLL 130150Z AUTO 04005KT 9999 NCD 03/M00 Q1027
                        NOSIG=
201904130120 METAR COR EGLL 130120Z AUTO 04004KT 9999 NCD 04/00 Q1027
                        NOSIG=
201904130050 METAR COR EGLL 130050Z AUTO 05004KT 9999 NCD 04/00 Q1027
                        NOSIG=
201904130020 METAR COR EGLL 130020Z AUTO 06006KT 9999 NCD 05/00 Q1027
                        NOSIG=
201904122350 METAR COR EGLL 122350Z AUTO 06006KT 9999 NCD 05/01 Q1027
                        NOSIG=
201904122320 METAR COR EGLL 122320Z AUTO 06006KT 9999 NCD 05/00 Q1027
                        NOSIG=
201904122250 METAR COR EGLL 122250Z AUTO 07007KT 9999 NCD 06/00 Q1027
                        NOSIG=
201904122220 METAR COR EGLL 122220Z AUTO 07007KT 9999 NCD 07/M01 Q1027
                        NOSIG=
201904122150 METAR COR EGLL 122150Z AUTO 08007KT 9999 NCD 07/M01 Q1027
                        NOSIG=
201904122120 METAR COR EGLL 122120Z AUTO 08007KT 9999 FEW042 07/M01 Q1027
                        NOSIG=
201904122050 METAR COR EGLL 122050Z AUTO 08007KT 9999 BKN040 07/M01 Q1027
                        NOSIG=
201904122020 METAR COR EGLL 122020Z AUTO 10007KT 9999 BKN041 07/M00 Q1027
                        NOSIG=
201904121950 METAR COR EGLL 121950Z AUTO 11006KT 070V130 9999 BKN043 08/M00
                        Q1027 NOSIG=
201904121920 METAR COR EGLL 121920Z AUTO 12007KT 9999 BKN043 08/M01 Q1027
                        NOSIG=
201904121850 METAR COR EGLL 121850Z AUTO 11007KT 9999 BKN042 08/M00 Q1026
                        NOSIG=
201904121820 METAR COR EGLL 121820Z AUTO 11008KT 9999 BKN045 08/M00 Q1026
                        NOSIG=
201904121750 METAR COR EGLL 121750Z AUTO 10008KT 9999 BKN045 08/00 Q1026
                        NOSIG=
201904121720 METAR COR EGLL 121720Z AUTO 11008KT 9999 BKN044 08/00 Q1026
                        NOSIG=
201904121650 METAR COR EGLL 121650Z AUTO 10009KT 9999 BKN048 09/00 Q1026
                        NOSIG=
201904121620 METAR COR EGLL 121620Z AUTO 07006KT 030V100 9999 FEW047 09/M01
                        Q1026 NOSIG=
201904121550 METAR COR EGLL 121550Z AUTO 07008KT 9999 SCT045 09/00 Q1026
                        NOSIG=
201904121520 METAR COR EGLL 121520Z AUTO 09008KT 9999 BKN047 09/01 Q1026
                        NOSIG=
201904121450 METAR COR EGLL 121450Z AUTO 07008KT 040V100 9999 OVC048 10/M01
                        Q1026 NOSIG=
201904121420 METAR COR EGLL 121420Z AUTO 08008KT 040V110 9999 BKN049 10/M00
                        Q1026 NOSIG=
201904121350 METAR COR EGLL 121350Z AUTO 07007KT 9999 NCD 10/M00 Q1026
                        NOSIG=
201904121320 METAR COR EGLL 121320Z AUTO 08006KT 030V130 9999 NCD 10/M01
                        Q1026 NOSIG=
201904121250 METAR COR EGLL 121250Z AUTO 10006KT 050V140 9999 OVC045 10/M00
                        Q1026 NOSIG=
201904121220 METAR COR EGLL 121220Z AUTO 07006KT 040V110 9999 BKN043 10/00
                        Q1027 NOSIG=
201904121150 METAR COR EGLL 121150Z AUTO 10006KT 070V130 9999 BKN042 09/01
                        Q1027 NOSIG=
201904121120 METAR COR EGLL 121120Z AUTO 06006KT 020V130 9999 BKN042 10/00
                        Q1027 NOSIG=
201904121050 METAR COR EGLL 121050Z AUTO 04006KT 350V110 9999 BKN039 BKN047
                        09/01 Q1027 NOSIG=
201904121020 METAR COR EGLL 121020Z AUTO 07005KT 350V130 9999 BKN038 10/01
                        Q1027 NOSIG=
201904120950 METAR COR EGLL 120950Z AUTO 09007KT 020V130 9999 SCT038 09/00
                        Q1027 NOSIG=
201904120920 METAR COR EGLL 120920Z AUTO 05008KT 020V090 9999 BKN036 08/M00
                        Q1027 NOSIG=
201904120850 METAR COR EGLL 120850Z AUTO 04007KT 350V090 9999 SCT035 07/00
                        Q1027 NOSIG=
201904120820 METAR COR EGLL 120820Z AUTO 05005KT 360V090 9999 OVC035 06/00
                        Q1027 NOSIG=
201904120750 METAR COR EGLL 120750Z AUTO 04004KT 020V080 9999 OVC033 05/M00
                        Q1027 NOSIG=
201904120720 METAR COR EGLL 120720Z AUTO 05004KT 020V080 9999 SCT034 04/M00
                        Q1027 NOSIG=
201904120650 METAR COR EGLL 120650Z AUTO 04004KT 010V080 9999 NCD 03/M01
                        Q1027 NOSIG=
201904120620 METAR COR EGLL 120620Z AUTO VRB02KT 9999 NCD 02/M01 Q1027
                        NOSIG=
201904120550 METAR COR EGLL 120550Z AUTO VRB02KT 9999 NCD 01/M02 Q1027
                        NOSIG=
201904120520 METAR COR EGLL 120520Z AUTO 01003KT 9999 NCD 01/M02 Q1027
                        NOSIG=
201904120450 METAR COR EGLL 120450Z AUTO VRB02KT 9999 NCD 01/M02 Q1027
                        NOSIG=
201904120420 METAR COR EGLL 120420Z AUTO VRB02KT 9999 NCD 02/M02 Q1027
                        NOSIG=
201904120350 METAR COR EGLL 120350Z AUTO VRB02KT 9999 NCD 02/M01 Q1027
                        NOSIG=
201904120320 METAR COR EGLL 120320Z AUTO 04004KT 9999 NCD 02/M02 Q1027
                        NOSIG=
201904120250 METAR COR EGLL 120250Z AUTO 04003KT 9999 NCD 02/M01 Q1027
                        NOSIG=
201904120220 METAR COR EGLL 120220Z AUTO VRB03KT 9999 NCD 02/M01 Q1027
                        NOSIG=
201904120150 METAR COR EGLL 120150Z AUTO 03003KT 9999 NCD 03/M01 Q1027
                        NOSIG=
201904120120 METAR COR EGLL 120120Z AUTO 03002KT 9999 NCD 03/M01 Q1027
                        NOSIG=
201904120050 METAR COR EGLL 120050Z AUTO 04004KT 9999 NCD 04/M01 Q1027
                        NOSIG=
201904120020 METAR COR EGLL 120020Z AUTO 05004KT 9999 NCD 04/M01 Q1027
                        NOSIG=
201904112350 METAR COR EGLL 112350Z AUTO VRB03KT 9999 NCD 04/M01 Q1027
                        NOSIG=
201904112320 METAR COR EGLL 112320Z AUTO 06005KT 9999 NCD 04/M01 Q1027
                        NOSIG=
201904112250 METAR COR EGLL 112250Z AUTO 07003KT 9999 NCD 04/M01 Q1027
                        NOSIG=
201904112220 METAR COR EGLL 112220Z AUTO 08004KT 9999 NCD 03/M01 Q1027
                        NOSIG=
201904112150 METAR COR EGLL 112150Z AUTO 10006KT 9999 NCD 05/M00 Q1027
                        NOSIG=
201904112120 METAR COR EGLL 112120Z AUTO 10007KT 9999 NCD 05/M00 Q1027
                        NOSIG=
201904112050 METAR COR EGLL 112050Z AUTO 11007KT 9999 NCD 06/M00 Q1027
                        NOSIG=
201904112020 METAR COR EGLL 112020Z AUTO 11007KT 9999 NCD 06/M01 Q1027
                        NOSIG=
201904111950 METAR COR EGLL 111950Z AUTO 11008KT 9999 NCD 07/M00 Q1026
                        NOSIG=
201904111920 METAR COR EGLL 111920Z AUTO 11011KT 9999 NCD 08/00 Q1026
                        NOSIG=
201904111850 METAR COR EGLL 111850Z AUTO 10010KT 9999 NCD 07/01 Q1026
                        NOSIG=
201904111820 METAR COR EGLL 111820Z AUTO 10010KT 9999 NCD 09/01 Q1025
                        NOSIG=
201904111750 METAR COR EGLL 111750Z AUTO 08006KT 040V130 9999 NCD 11/M00
                        Q1025 NOSIG=
201904111720 METAR COR EGLL 111720Z AUTO 07005KT 020V100 9999 NCD 11/M00
                        Q1025 NOSIG=
201904111650 METAR COR EGLL 111650Z AUTO 06005KT 010V140 9999 NCD 11/M00
                        Q1025 NOSIG=
201904111620 METAR COR EGLL 111620Z AUTO 04006KT 350V080 9999 NCD 11/01
                        Q1025 NOSIG=
201904111550 METAR COR EGLL 111550Z AUTO 06006KT 010V100 9999 NCD 12/00
                        Q1025 NOSIG=
201904111520 METAR COR EGLL 111520Z AUTO 07007KT 010V130 9999 NCD 12/00
                        Q1025 NOSIG=
201904111450 METAR COR EGLL 111450Z AUTO 10006KT 030V150 9999 NCD 12/00
                        Q1025 NOSIG=
201904111420 METAR COR EGLL 111420Z AUTO 08006KT 050V140 9999 NCD 11/01
                        Q1025 NOSIG=
201904111350 METAR COR EGLL 111350Z AUTO 05007KT 010V100 9999 NCD 11/01
                        Q1026 NOSIG=
201904111320 METAR COR EGLL 111320Z AUTO 07007KT 030V150 9999 NCD 11/00
                        Q1026 NOSIG=
201904111250 METAR COR EGLL 111250Z AUTO 09007KT 010V140 9999 NCD 11/01
                        Q1026 NOSIG=
201904111220 METAR COR EGLL 111220Z AUTO 07008KT 030V110 9999 NCD 11/01
                        Q1026 NOSIG=
201904111150 METAR COR EGLL 111150Z AUTO 10008KT 060V130 9999 NCD 10/00
                        Q1026 NOSIG=
201904111120 METAR COR EGLL 111120Z AUTO 07008KT 040V130 9999 FEW039 10/00
                        Q1026 NOSIG=
201904111050 METAR COR EGLL 111050Z AUTO 09010KT 9999 FEW038 09/M00 Q1026
                        NOSIG=
201904111020 METAR COR EGLL 111020Z AUTO 09010KT 9999 SCT037 09/M00 Q1026
                        NOSIG=
201904110950 METAR COR EGLL 110950Z AUTO 07009KT 020V100 9999 FEW036 08/00
                        Q1026 NOSIG=
201904110920 METAR COR EGLL 110920Z AUTO 06010KT 020V090 9999 FEW034 07/M01
                        Q1026 NOSIG=
201904110850 METAR COR EGLL 110850Z AUTO 06009KT 030V100 9999 FEW033 07/M01
                        Q1026 NOSIG=
201904110820 METAR COR EGLL 110820Z AUTO 05008KT 9999 NCD 07/M00 Q1026
                        NOSIG=
201904110750 METAR COR EGLL 110750Z AUTO 06007KT 9999 NCD 06/M01 Q1026
                        NOSIG=
201904110720 METAR COR EGLL 110720Z AUTO 04004KT 360V070 9999 NCD 04/M01
                        Q1026 NOSIG=
201904110650 METAR COR EGLL 110650Z AUTO 03004KT 350V060 9999 NCD 03/M01
                        Q1026 NOSIG=
201904110620 METAR COR EGLL 110620Z AUTO 36004KT 9999 NCD 02/M01 Q1025
                        NOSIG=
201904110550 METAR COR EGLL 110550Z AUTO VRB02KT 9999 NCD 02/M02 Q1025
                        NOSIG=
201904110520 METAR COR EGLL 110520Z AUTO VRB02KT 9999 NCD 02/M02 Q1025
                        NOSIG=
201904110450 METAR COR EGLL 110450Z AUTO VRB01KT 9999 NCD 02/M02 Q1025
                        NOSIG=
201904110420 METAR COR EGLL 110420Z AUTO 02004KT 9999 NCD 02/M02 Q1025
                        NOSIG=
201904110350 METAR COR EGLL 110350Z AUTO VRB03KT 9999 NCD 02/M02 Q1025
                        NOSIG=
201904110320 METAR COR EGLL 110320Z AUTO 36004KT 9999 NCD 02/M02 Q1025
                        NOSIG=
201904110250 METAR COR EGLL 110250Z AUTO 04004KT 360V070 9999 NCD 02/M02
                        Q1025 NOSIG=
201904110220 METAR COR EGLL 110220Z AUTO 04006KT 9999 NCD 02/M02 Q1025
                        NOSIG=
201904110150 METAR COR EGLL 110150Z AUTO 04005KT 010V090 9999 NCD 03/M01
                        Q1024 NOSIG=
201904110120 METAR COR EGLL 110120Z AUTO 05004KT 020V090 9999 NCD 03/M01
                        Q1025 NOSIG=
201904110050 METAR COR EGLL 110050Z AUTO 01005KT 9999 NCD 03/M01 Q1025
                        NOSIG=
201904110020 METAR COR EGLL 110020Z AUTO 04004KT 350V080 9999 NCD 03/M01
                        Q1024 NOSIG=
201904102350 METAR COR EGLL 102350Z AUTO 01004KT 340V050 9999 NCD 03/M01
                        Q1024 NOSIG=
201904102320 METAR COR EGLL 102320Z AUTO 03005KT 360V060 9999 NCD 04/M01
                        Q1024 NOSIG=
201904102250 METAR COR EGLL 102250Z AUTO 04006KT 9999 NCD 04/M01 Q1024
                        NOSIG=
201904102220 METAR COR EGLL 102220Z AUTO 05005KT 9999 NCD 05/M01 Q1024
                        NOSIG=
201904102150 METAR COR EGLL 102150Z AUTO 06008KT 9999 NCD 05/M01 Q1024
                        NOSIG=
201904102120 METAR COR EGLL 102120Z AUTO 07009KT 9999 NCD 05/M01 Q1023
                        NOSIG=
201904102050 METAR COR EGLL 102050Z AUTO 07009KT 9999 NCD 06/M01 Q1023
                        NOSIG=
201904102020 METAR COR EGLL 102020Z AUTO 07009KT 9999 NCD 07/M01 Q1023
                        NOSIG=
201904101950 METAR COR EGLL 101950Z AUTO 07010KT 9999 NCD 07/M00 Q1023
                        NOSIG=
201904101920 METAR COR EGLL 101920Z AUTO 06007KT 030V100 9999 NCD 08/M00
                        Q1022 NOSIG=
201904101850 METAR COR EGLL 101850Z AUTO 06008KT 020V090 9999 NCD 08/00
                        Q1022 NOSIG=
201904101820 METAR COR EGLL 101820Z AUTO 07010KT 9999 NCD 09/00 Q1021
                        NOSIG=
201904101750 METAR COR EGLL 101750Z AUTO 05009KT 010V090 9999 NCD 10/00
                        Q1021 NOSIG=
201904101720 METAR COR EGLL 101720Z AUTO 06009KT 030V090 9999 NCD 11/01
                        Q1021 NOSIG=
201904101650 METAR COR EGLL 101650Z AUTO 05011KT 9999 NCD 11/00 Q1020
                        NOSIG=
201904101620 METAR COR EGLL 101620Z AUTO 05010KT 010V100 9999 NCD 11/00
                        Q1020 NOSIG=
201904101550 METAR COR EGLL 101550Z AUTO 05010KT 010V080 9999 NCD 12/02
                        Q1020 NOSIG=
201904101520 METAR COR EGLL 101520Z AUTO 06009KT 010V090 9999 NCD 12/02
                        Q1020 NOSIG=
201904101450 METAR COR EGLL 101450Z AUTO 06011KT 020V090 9999 NCD 12/02
                        Q1020 NOSIG=
201904101420 METAR COR EGLL 101420Z AUTO 04009KT 360V080 9999 NCD 12/02
                        Q1019 NOSIG=
201904101350 METAR COR EGLL 101350Z AUTO 07011KT 9999 NCD 13/02 Q1019
                        NOSIG=
201904101320 METAR COR EGLL 101320Z AUTO 06010KT 020V100 9999 NCD 12/01
                        Q1020 NOSIG=
201904101250 METAR COR EGLL 101250Z AUTO 05011KT 010V080 9999 NCD 12/01
                        Q1020 NOSIG=
201904101220 METAR COR EGLL 101220Z AUTO 06010KT 020V080 9999 NCD 12/01
                        Q1020 NOSIG=
201904101150 METAR COR EGLL 101150Z AUTO 07011KT 9999 NCD 11/01 Q1020
                        NOSIG=
201904101120 METAR COR EGLL 101120Z AUTO 06011KT 020V090 9999 NCD 11/02
                        Q1020 NOSIG=
201904101050 METAR COR EGLL 101050Z AUTO 07011KT 040V110 9999 FEW040 10/02
                        Q1020 NOSIG=
201904101020 METAR COR EGLL 101020Z AUTO 07011KT 020V100 9999 FEW036 10/02
                        Q1020 NOSIG=
201904100950 METAR COR EGLL 100950Z AUTO 07012KT 040V100 9999 BKN032 09/02
                        Q1019 NOSIG=
201904100920 METAR COR EGLL 100920Z AUTO 06012KT 020V080 9999 BKN030 09/02
                        Q1019 NOSIG=
201904100850 METAR COR EGLL 100850Z AUTO 06011KT 9999 NCD 09/02 Q1019
                        NOSIG=
201904100820 METAR COR EGLL 100820Z AUTO 06013KT 9999 NCD 08/02 Q1019
                        NOSIG=
201904100750 METAR COR EGLL 100750Z AUTO 05009KT 020V080 9999 NCD 07/03
                        Q1018 NOSIG=
201904100720 METAR COR EGLL 100720Z AUTO 05009KT 9999 NCD 06/03 Q1018
                        NOSIG=
201904100650 METAR COR EGLL 100650Z AUTO 04007KT 360V080 9999 NCD 06/03
                        Q1018 NOSIG=
201904100620 METAR COR EGLL 100620Z AUTO 03006KT 340V050 9999 NCD 05/03
                        Q1018 NOSIG=
201904100550 METAR COR EGLL 100550Z AUTO 03005KT 360V060 9999 FEW016 05/03
                        Q1018 NOSIG=
201904100520 METAR COR EGLL 100520Z AUTO 04006KT 360V070 9999 BKN016 05/03
                        Q1017 NOSIG=
201904100450 METAR COR EGLL 100450Z AUTO 04007KT 010V070 9999 OVC016 06/03
                        Q1017 NOSIG=
201904100420 METAR COR EGLL 100420Z AUTO 04006KT 010V070 9999 OVC015 06/03
                        Q1017 NOSIG=
201904100350 METAR COR EGLL 100350Z AUTO 04007KT 360V070 9999 OVC015 06/04
                        Q1017 NOSIG=
201904100320 METAR COR EGLL 100320Z AUTO 04006KT 010V090 9999 OVC015 06/04
                        Q1017 NOSIG=
201904100250 METAR COR EGLL 100250Z AUTO 05007KT 9999 OVC016 07/04 Q1017
                        NOSIG=
201904100220 METAR COR EGLL 100220Z AUTO 04008KT 9999 OVC016 07/04 Q1017
                        NOSIG=
201904100150 METAR COR EGLL 100150Z AUTO 05009KT 9999 OVC016 07/04 Q1017
                        NOSIG=
201904100120 METAR COR EGLL 100120Z AUTO 05007KT 9999 OVC016 07/04 Q1017
                        NOSIG=
201904100050 METAR COR EGLL 100050Z AUTO 05008KT 9999 OVC016 07/04 Q1016
                        NOSIG=
201904100020 METAR COR EGLL 100020Z AUTO 06008KT 9999 BKN017 OVC022 07/04
                        Q1016 NOSIG=
201904092350 METAR COR EGLL 092350Z AUTO 05007KT 9999 OVC017 07/04 Q1016
                        NOSIG=
201904092320 METAR COR EGLL 092320Z AUTO 05005KT 010V090 9999 OVC019 07/04
                        Q1016 NOSIG=
201904092250 METAR COR EGLL 092250Z AUTO 04006KT 010V070 9999 BKN020 07/04
                        Q1016 NOSIG=
201904092220 METAR COR EGLL 092220Z AUTO 04005KT 360V070 9999 FEW020 07/03
                        Q1016 NOSIG=
201904092150 METAR COR EGLL 092150Z AUTO 05006KT 9999 NCD 07/03 Q1016
                        NOSIG=
201904092120 METAR COR EGLL 092120Z AUTO 05007KT 020V080 9999 NCD 07/03
                        Q1016 NOSIG=
201904092050 METAR COR EGLL 092050Z AUTO 04007KT 010V080 9999 NCD 08/03
                        Q1016 NOSIG=
201904092020 METAR COR EGLL 092020Z AUTO 05010KT 9999 FEW027 08/03 Q1016
                        NOSIG=
201904091950 METAR COR EGLL 091950Z AUTO 05009KT 020V080 9999 NCD 08/03
                        Q1016 NOSIG=
201904091920 METAR COR EGLL 091920Z AUTO 05010KT 9999 SCT029 09/04 Q1015
                        NOSIG=
201904091850 METAR COR EGLL 091850Z AUTO 06010KT 9999 SCT032 09/04 Q1015
                        NOSIG=
201904091820 METAR COR EGLL 091820Z AUTO 06007KT 9999 NCD 10/04 Q1015
                        NOSIG=
201904091750 METAR COR EGLL 091750Z AUTO 06009KT 020V090 9999 NCD 11/04
                        Q1014 NOSIG=
201904091720 METAR COR EGLL 091720Z AUTO 05008KT 9999 NCD 11/05 Q1014
                        NOSIG=
201904091650 METAR COR EGLL 091650Z AUTO 05009KT 020V080 9999 NCD 11/05
                        Q1014 NOSIG=
201904091620 METAR COR EGLL 091620Z AUTO 04009KT 010V080 9999 SCT034 11/07
                        Q1014 NOSIG=
201904091550 METAR COR EGLL 091550Z AUTO 05007KT 360V070 9999 BKN031 11/07
                        Q1014 NOSIG=
201904091520 METAR COR EGLL 091520Z AUTO 36004KT 320V060 9000 FEW034 11/09
                        Q1014 NOSIG=
201904091450 METAR COR EGLL 091450Z AUTO 02004KT 350V060 7000 NCD 10/08
                        Q1014 NOSIG=
201904091420 METAR COR EGLL 091420Z AUTO 05004KT 020V080 6000 -RA FEW031
                        SCT039 09/08 Q1014 RERA NOSIG=
201904091350 METAR COR EGLL 091350Z AUTO 05006KT 7000 -RA BKN039 BKN046
                        09/08 Q1014=
201904091320 METAR COR EGLL 091320Z AUTO 04005KT 360V070 6000 -RA SCT020
                        BKN042 09/08 Q1014 NOSIG=
201904091250 METAR COR EGLL 091250Z AUTO 06008KT 5000 -RADZ BKN012 OVC016
                        09/08 Q1014 TEMPO 4000=
201904091220 METAR COR EGLL 091220Z AUTO 05008KT 020V080 6000 -RA BKN010
                        OVC015 09/08 Q1014 TEMPO 4000 BKN008=
201904091150 METAR COR EGLL 091150Z AUTO 06007KT 020V090 5000 -DZ BKN011
                        OVC016 09/08 Q1014 TEMPO 4000 BKN008=
201904091120 METAR COR EGLL 091120Z AUTO 05008KT 010V080 5000 -DZ OVC010
                        09/08 Q1014 TEMPO 4000 BKN008=
201904091050 METAR COR EGLL 091050Z AUTO 05007KT 010V080 5000 -RADZ BKN008
                        OVC012 09/08 Q1014 TEMPO 4000=
201904091020 METAR COR EGLL 091020Z AUTO 04006KT 360V080 3500 -RADZ OVC005
                        09/08 Q1014 NOSIG=
201904090950 METAR COR EGLL 090950Z AUTO 03005KT 360V070 2300 -RADZ OVC004
                        09/08 Q1014 TEMPO 3000 OVC005=
201904090920 METAR COR EGLL 090920Z AUTO 04006KT 350V070 2500 BR BKN004
                        OVC007 08/08 Q1014 BECMG 3500 BKN005=
201904090850 METAR COR EGLL 090850Z AUTO 05007KT 010V080 3700 BR OVC005
                        09/08 Q1014 NOSIG=
201904090820 METAR COR EGLL 090820Z 05006KT 3500 BR BKN005 OVC007 08/08
                        Q1014 NOSIG=
201904090750 METAR COR EGLL 090750Z 05006KT 010V090 2800 BR BKN004 OVC008
                        08/08 Q1014 BECMG 3500 BKN005=
201904090720 METAR COR EGLL 090720Z 03006KT 350V060 3500 BR SCT004 BKN005
                        08/08 Q1013 TEMPO 2500 BKN004=
201904090650 METAR COR EGLL 090650Z 04006KT 360V070 2000 BR FEW002 SCT003
                        OVC004 08/08 Q1013 BECMG 3000 BKN005=
201904090620 METAR COR EGLL 090620Z 03004KT 340V060 1500 BR FEW002 BKN003
                        OVC008 08/08 Q1013 TEMPO 1200 -DZ
                        BKN002=
201904090550 METAR COR EGLL 090550Z 03004KT 330V060 2500 BR BKN003 BKN006
                        08/08 Q1013 BECMG FEW003 BKN006=
201904090520 METAR COR EGLL 090520Z 03004KT 340V070 1600 -DZ BR BKN003
                        BKN007 08/08 Q1013 BECMG BKN007=
201904090450 METAR COR EGLL 090450Z 05006KT 1500 -DZ BR SCT002 BKN004
                        08/08 Q1013 TEMPO BKN006=
201904090420 METAR COR EGLL 090420Z 06006KT 1700 BR BKN004 OVC006 09/09
                        Q1013 TEMPO BKN006=
201904090350 METAR COR EGLL 090350Z 07005KT 2500 -RADZ BKN004 OVC007 09/09
                        Q1012 TEMPO FEW004 BKN008=
201904090320 METAR COR EGLL 090320Z VRB03KT 2000 -RADZ BR BKN003 OVC006
                        10/09 Q1012 NOSIG=
201904090250 METAR COR EGLL 090250Z VRB03KT 1800 -RADZ BR BKN004 10/09
                        Q1012 TEMPO FEW004=
201904090220 METAR COR EGLL 090220Z VRB03KT 1800 -RADZ FEW006 SCT043 10/10
                        Q1012 NOSIG=
201904090150 METAR COR EGLL 090150Z VRB01KT 1800 -RA FEW006 SCT010 OVC047
                        10/10 Q1012 RERA NOSIG=
201904090120 METAR COR EGLL 090120Z 34004KT 260V080 1600 RA SCT009TCU
                        BKN024 BKN036 10/10 Q1012 TEMPO BKN006=
201904090050 METAR COR EGLL 090050Z AUTO 06003KT 1700 BR SCT006/// BKN027///
                        //////CB 10/10 Q1012 TEMPO BKN006=
201904090020 METAR COR EGLL 090020Z AUTO VRB03KT 1600 -RA FEW033/// SCT041///
                        //////TCU 10/10 Q1012 RERA TEMPO
                        SHRA=
201904082350 METAR COR EGLL 082350Z AUTO 04004KT 320V080 2300 -RA BKN029///
                        OVC046/// //////CB 10/10 Q1012 RERA
                        TEMPO SHRA=
201904082320 METAR COR EGLL 082320Z AUTO 05003KT 3000 -RA BKN032 BKN047
                        10/09 Q1012 TEMPO SHRA=
201904082250 METAR COR EGLL 082250Z AUTO 01001KT 3400 HZ BKN046/// //////CB
                        10/09 Q1012 TEMPO SHRA=
201904082220 METAR COR EGLL 082220Z AUTO VRB02KT 3500 HZ SCT045/// //////TCU
                        11/09 Q1012 TEMPO SHRA=
201904082150 METAR COR EGLL 082150Z AUTO 05003KT 4300 -RA FEW043/// //////TCU
                        11/09 Q1012 RERA TEMPO 6000=
201904082120 METAR COR EGLL 082120Z AUTO 04003KT 4500 -RA //////CB 12/08
                        Q1012 RERA TEMPO 6000=
201904082050 METAR COR EGLL 082050Z AUTO 07003KT 5000 -RA //////TCU 12/09
                        Q1012 TEMPO 6000=
201904082020 METAR COR EGLL 082020Z AUTO VRB02KT 6000 //////TCU 12/09
                        Q1012 TEMPO 4000 SHRA=
201904081950 METAR COR EGLL 081950Z AUTO VRB03KT 6000 NCD 11/08 Q1011
                        TEMPO 4000 SHRA=
201904081920 METAR COR EGLL 081920Z AUTO 05003KT 6000 NCD 12/08 Q1011
                        NOSIG=
201904081850 METAR COR EGLL 081850Z AUTO 05002KT 7000 NCD 12/08 Q1011
                        NOSIG=
201904081820 METAR COR EGLL 081820Z AUTO 06003KT 7000 NCD 12/08 Q1011
                        NOSIG=
201904081750 METAR COR EGLL 081750Z AUTO VRB02KT 7000 NCD 12/09 Q1011
                        NOSIG=
201904081720 METAR COR EGLL 081720Z AUTO VRB03KT 7000 NCD 13/08 Q1011
                        NOSIG=
201904081650 METAR COR EGLL 081650Z AUTO VRB02KT 7000 NCD 12/08 Q1011
                        NOSIG=
201904081620 METAR COR EGLL 081620Z AUTO VRB03KT 7000 NCD 12/09 Q1011
                        NOSIG=
201904081550 METAR COR EGLL 081550Z AUTO VRB03KT 6000 BKN016 12/09 Q1011
                        NOSIG=
201904081520 METAR COR EGLL 081520Z AUTO 33003KT 6000 OVC015 13/09 Q1011
                        NOSIG=
201904081450 METAR COR EGLL 081450Z AUTO VRB03KT 6000 OVC013 12/09 Q1011
                        BECMG BKN015=
201904081420 METAR COR EGLL 081420Z AUTO VRB03KT 5000 HZ OVC014 11/09
                        Q1011 BECMG BKN015=
201904081350 METAR COR EGLL 081350Z AUTO 31004KT 280V350 5000 HZ OVC013
                        11/08 Q1011 BECMG BKN015=
201904081320 METAR COR EGLL 081320Z AUTO VRB03KT 5000 HZ OVC012 11/08
                        Q1011 BECMG BKN015=
201904081250 METAR COR EGLL 081250Z AUTO VRB02KT 5000 HZ OVC012 11/08
                        Q1011 NOSIG=
201904081220 METAR COR EGLL 081220Z AUTO VRB02KT 5000 HZ OVC011 11/08
                        Q1011 NOSIG=
201904081150 METAR COR EGLL 081150Z AUTO VRB03KT 5000 HZ OVC010 10/08
                        Q1011 NOSIG=
201904081120 METAR COR EGLL 081120Z AUTO VRB03KT 5000 HZ OVC009 10/08
                        Q1011 BECMG BKN010=
201904081050 METAR COR EGLL 081050Z AUTO VRB03KT 4400 HZ BKN007 10/08
                        Q1011 BECMG 5000=
201904081020 METAR COR EGLL 081020Z AUTO VRB02KT 3900 HZ BKN007 OVC011
                        10/08 Q1011 BECMG 5000=
201904080950 METAR COR EGLL 080950Z AUTO VRB02KT 4000 HZ BKN006 OVC009
                        09/08 Q1011 BECMG 5000=
201904080920 METAR COR EGLL 080920Z AUTO VRB02KT 3300 HZ BKN005/// OVC009///
                        //////TCU 09/08 Q1011 NOSIG=
201904080850 METAR COR EGLL 080850Z AUTO VRB03KT 3300 HZ BKN006 OVC012
                        09/08 Q1011 TEMPO RA=
201904080820 METAR COR EGLL 080820Z VRB02KT 3500 HZ OVC006 08/08 Q1011
                        TEMPO RA=
201904080750 METAR COR EGLL 080750Z VRB01KT 3500 -RADZ BKN006 OVC010 08/07
                        Q1011 TEMPO RA=
201904080720 METAR COR EGLL 080720Z VRB01KT 3500 BR OVC006 08/07 Q1011
                        NOSIG=
201904080650 METAR COR EGLL 080650Z VRB02KT 3500 BR BKN005 OVC010 08/07
                        Q1011 NOSIG=
201904080620 METAR COR EGLL 080620Z AUTO VRB02KT 1800 BR OVC004 08/07
                        Q1011 TEMPO BKN006=
201904080550 METAR COR EGLL 080550Z AUTO VRB02KT 2200 BR OVC004 08/07
                        Q1010 TEMPO BKN006=
201904080520 METAR COR EGLL 080520Z AUTO VRB03KT 2300 BR OVC004 08/07
                        Q1010 RERA REDZ TEMPO BKN006=
201904080450 METAR COR EGLL 080450Z AUTO VRB03KT 2000 -RA BKN003 OVC007
                        07/07 Q1010 RERA TEMPO BKN005=
201904080420 METAR COR EGLL 080420Z AUTO VRB03KT 2400 RA BKN004 OVC007
                        08/07 Q1010 TEMPO BKN006=
201904080350 METAR COR EGLL 080350Z AUTO 36004KT 320V040 2400 -RA OVC004
                        08/07 Q1010 TEMPO BKN006=
201904080320 METAR COR EGLL 080320Z AUTO 04004KT 2700 BR OVC004 08/07
                        Q1010 TEMPO BKN006=
201904080250 METAR COR EGLL 080250Z AUTO VRB03KT 2600 BR BKN005 OVC008
                        08/07 Q1010 RERA REDZ TEMPO BKN004=
201904080220 METAR COR EGLL 080220Z AUTO 36004KT 330V030 2800 RADZ OVC005
                        08/07 Q1010 TEMPO BKN004=
201904080150 METAR COR EGLL 080150Z AUTO 33005KT 300V020 2100 BR BKN004
                        OVC008 08/07 Q1010 TEMPO BKN006=
201904080120 METAR COR EGLL 080120Z AUTO 35004KT 320V030 2200 BR SCT005
                        OVC008 08/08 Q1010 TEMPO BKN004=
201904080050 METAR COR EGLL 080050Z AUTO 36004KT 320V050 1700 BR BKN003
                        OVC011 08/08 Q1010 TEMPO BKN005=
201904080020 METAR COR EGLL 080020Z AUTO VRB03KT 1600 BR OVC005 08/08
                        Q1010 TEMPO BKN004=
201904072350 METAR COR EGLL 072350Z VRB03KT 1700 BR BKN005 OVC011 08/08
                        Q1010 TEMPO 2000 BKN004=
201904072320 METAR COR EGLL 072320Z VRB03KT 1700 BR OVC005 08/08 Q1010
                        NOSIG=
201904072250 METAR COR EGLL 072250Z AUTO 05005KT 2300 HZ OVC005 09/08
                        Q1010 NOSIG=
201904072220 METAR COR EGLL 072220Z AUTO 06005KT 2200 HZ OVC005 09/08
                        Q1010 NOSIG=
201904072150 METAR COR EGLL 072150Z AUTO 05004KT 2800 HZ BKN006 OVC009
                        10/08 Q1010 NOSIG=
201904072120 METAR COR EGLL 072120Z AUTO 01005KT 3400 HZ OVC007 10/09
                        Q1010 TEMPO 2500=
201904072050 METAR COR EGLL 072050Z AUTO 01005KT 330V050 3700 HZ BKN007
                        OVC011 10/09 Q1010 NOSIG=
201904072020 METAR COR EGLL 072020Z AUTO 04004KT 340V070 4200 HZ OVC008
                        10/09 Q1010 NOSIG=
201904071950 METAR COR EGLL 071950Z AUTO 01004KT 330V070 4400 HZ BKN009
                        OVC012 11/09 Q1010 NOSIG=
201904071920 METAR COR EGLL 071920Z AUTO VRB03KT 4000 HZ OVC009 11/09
                        Q1010 NOSIG=
201904071850 METAR COR EGLL 071850Z AUTO 04004KT 010V100 4600 HZ OVC010
                        11/09 Q1009 BECMG BKN008=
201904071820 METAR COR EGLL 071820Z AUTO 36004KT 330V040 5000 HZ OVC010
                        11/09 Q1009 BECMG BKN008=
201904071750 METAR COR EGLL 071750Z AUTO 01005KT 330V050 5000 HZ BKN010
                        11/09 Q1009 BECMG 4000 BKN008=
201904071720 METAR COR EGLL 071720Z AUTO 36004KT 5000 HZ NCD 11/09 Q1009
                        TEMPO 4000 BKN010=
201904071650 METAR COR EGLL 071650Z AUTO VRB03KT 5000 HZ SCT010 BKN048
                        11/09 Q1009 TEMPO 4000 BKN008=
201904071620 METAR COR EGLL 071620Z 01005KT 6000 SCT012 BKN038 11/09 Q1009
                        TEMPO BKN012=
201904071550 METAR COR EGLL 071550Z AUTO 36005KT 330V040 5000 HZ BKN011
                        BKN040 11/09 Q1009 TEMPO 4500=
201904071520 METAR COR EGLL 071520Z AUTO 02005KT 330V070 4300 -DZ OVC013
                        11/09 Q1009 TEMPO 5000=
201904071450 METAR COR EGLL 071450Z 03005KT 350V050 5000 HZ OVC013 11/09
                        Q1009 TEMPO 4000 SHRA=
201904071420 METAR COR EGLL 071420Z AUTO VRB03KT 4200 HZ OVC012 11/09
                        Q1009 BECMG 5000=
201904071350 METAR COR EGLL 071350Z AUTO 35004KT 300V030 3600 HZ OVC011
                        11/09 Q1009 BECMG 5000=
201904071320 METAR COR EGLL 071320Z AUTO 01004KT 340V050 3400 HZ OVC010
                        11/09 Q1009 BECMG 5000=
201904071250 METAR EGLL 071250Z AUTO 02005KT 320V080 4000 HZ OVC010 11/09
                        Q1009=
201904071220 METAR COR EGLL 071220Z AUTO 35004KT 300V050 3300 HZ OVC010
                        11/09 Q1008 BECMG 5000=
201904071150 METAR COR EGLL 071150Z AUTO 03006KT 350V060 2900 HZ OVC009
                        11/09 Q1008 BECMG 5000 BKN010=
201904071120 METAR COR EGLL 071120Z AUTO 05005KT 350V080 2700 HZ OVC008
                        10/09 Q1009 BECMG 3500 BKN010=
201904071050 METAR COR EGLL 071050Z AUTO 05005KT 010V080 2500 HZ OVC006
                        10/08 Q1009 BECMG 3500 BKN010=
201904071020 METAR COR EGLL 071020Z AUTO 03004KT 340V080 2200 HZ OVC005
                        09/08 Q1009 BECMG 3000=
201904070950 METAR COR EGLL 070950Z AUTO 02004KT 360V070 2200 HZ OVC004
                        08/08 Q1009 BECMG 3000 BKN006=
201904070920 METAR COR EGLL 070920Z AUTO 05005KT 020V080 2300 HZ OVC005
                        08/07 Q1008 BECMG 3000=
201904070850 METAR COR EGLL 070850Z AUTO 03005KT 2300 HZ OVC005 08/07
                        Q1008 BECMG 3000=
201904070820 METAR COR EGLL 070820Z AUTO 06006KT 2500 HZ OVC006 08/07
                        Q1008 BECMG 3500=
201904070750 METAR COR EGLL 070750Z AUTO 06005KT 020V100 2500 HZ OVC006
                        07/07 Q1008 BECMG 3500=
201904070720 METAR COR EGLL 070720Z AUTO 06006KT 030V090 2400 BR OVC005
                        07/07 Q1008 BECMG 3500 HZ=
201904070650 METAR COR EGLL 070650Z AUTO 06005KT 020V080 2400 BR OVC005
                        07/06 Q1008 BECMG 3500 HZ=
201904070620 METAR COR EGLL 070620Z AUTO 06005KT 020V090 2700 HZ OVC006
                        07/06 Q1007 BECMG 3500=
201904070550 METAR COR EGLL 070550Z AUTO 05005KT 010V080 2700 BR OVC005
                        07/06 Q1007 TEMPO BKN004=
201904070520 METAR COR EGLL 070520Z AUTO 06006KT 2400 BR OVC005 07/06
                        Q1007 TEMPO BKN004=
201904070450 METAR COR EGLL 070450Z AUTO 05007KT 3000 BR OVC005 07/06
                        Q1007 TEMPO BKN004=
201904070420 METAR COR EGLL 070420Z AUTO 05007KT 3300 BR OVC005 07/06
                        Q1006 TEMPO BKN004=
201904070350 METAR COR EGLL 070350Z AUTO 06007KT 3700 HZ OVC006 07/06
                        Q1006 NOSIG=
201904070320 METAR COR EGLL 070320Z AUTO 05004KT 020V080 4300 HZ BKN007
                        07/06 Q1006 NOSIG=
201904070250 METAR COR EGLL 070250Z AUTO 06004KT 030V090 4300 HZ SCT009
                        06/06 Q1006 TEMPO BKN009=
201904070220 METAR COR EGLL 070220Z AUTO 05005KT 5000 HZ FEW009 06/06
                        Q1006 TEMPO 4500 BR BKN009=
201904070150 METAR COR EGLL 070150Z AUTO 04004KT 4900 HZ NCD 06/05 Q1006
                        TEMPO BKN009=
201904070120 METAR COR EGLL 070120Z AUTO 05004KT 6000 NCD 07/06 Q1006
                        TEMPO 4500 BR BKN009=
201904070050 METAR COR EGLL 070050Z AUTO 05005KT 6000 SCT010 07/06 Q1006
                        TEMPO 4500 BR BKN009=
201904070020 METAR COR EGLL 070020Z AUTO 04005KT 6000 FEW017 07/06 Q1006
                        TEMPO BKN010=
201904062350 METAR COR EGLL 062350Z AUTO 06006KT 7000 NCD 07/06 Q1006
                        TEMPO BKN010=
201904062320 METAR COR EGLL 062320Z AUTO 05005KT 7000 NCD 07/06 Q1006
                        TEMPO BKN010=
201904062250 METAR COR EGLL 062250Z AUTO 05004KT 7000 NCD 07/06 Q1006
                        TEMPO BKN010=
201904062220 METAR COR EGLL 062220Z AUTO 05005KT 8000 NCD 07/06 Q1006
                        TEMPO BKN010=
201904062150 METAR COR EGLL 062150Z AUTO 05005KT 9000 NCD 08/06 Q1006
                        TEMPO BKN010=
201904062120 METAR COR EGLL 062120Z AUTO 06005KT 9999 SCT013 08/06 Q1006
                        TEMPO BKN013=
201904062050 METAR COR EGLL 062050Z AUTO 06006KT 020V090 9000 BKN014 BKN019
                        08/06 Q1006 TEMPO SCT014 BKN019=
201904062020 METAR COR EGLL 062020Z AUTO 06007KT 9999 SCT014 BKN019 BKN031
                        09/06 Q1006 TEMPO BKN014=
201904061950 METAR COR EGLL 061950Z AUTO 06007KT 9999 BKN014 OVC034 09/06
                        Q1006 TEMPO SCT014 BKN018=
201904061920 METAR COR EGLL 061920Z AUTO 06009KT 9999 SCT015 BKN021 OVC034
                        09/06 Q1006 TEMPO BKN010=
201904061850 METAR COR EGLL 061850Z AUTO 07008KT 9999 BKN019 BKN027 OVC034
                        09/06 Q1006 TEMPO BKN010=
201904061820 METAR COR EGLL 061820Z AUTO 06007KT 9999 SCT021 BKN025 OVC033
                        09/06 Q1006 NOSIG=
201904061750 METAR COR EGLL 061750Z AUTO 06008KT 9999 BKN019 OVC025 10/06
                        Q1005 NOSIG=
201904061720 METAR COR EGLL 061720Z AUTO 07009KT 9999 BKN019 OVC037 10/06
                        Q1005 NOSIG=
201904061650 METAR COR EGLL 061650Z AUTO 07009KT 9999 BKN019 OVC038 10/06
                        Q1005 NOSIG=
201904061620 METAR COR EGLL 061620Z AUTO 06008KT 9999 BKN018 OVC024 10/06
                        Q1005 NOSIG=
201904061550 METAR COR EGLL 061550Z AUTO 06009KT 020V080 9999 OVC019 10/06
                        Q1005 NOSIG=
201904061520 METAR COR EGLL 061520Z AUTO 06009KT 9999 BKN018 OVC023 10/06
                        Q1005 TEMPO BKN014=
201904061450 METAR COR EGLL 061450Z AUTO 06009KT 9999 OVC016 09/06 Q1005
                        TEMPO BKN014=
201904061420 METAR COR EGLL 061420Z AUTO 06008KT 9999 OVC014 09/06 Q1005
                        TEMPO BKN016=
201904061350 METAR COR EGLL 061350Z AUTO 06009KT 020V080 9999 OVC013 09/07
                        Q1005 NOSIG=
201904061320 METAR COR EGLL 061320Z AUTO 06009KT 020V080 9999 BKN015 OVC020
                        09/06 Q1005 NOSIG=
201904061250 METAR COR EGLL 061250Z AUTO 06010KT 9999 BKN016 OVC021 09/06
                        Q1005 TEMPO BKN014=
201904061220 METAR COR EGLL 061220Z AUTO 06008KT 9999 BKN020 BKN025 OVC037
                        10/06 Q1005 NOSIG=
201904061150 METAR COR EGLL 061150Z AUTO 06008KT 010V080 9999 BKN024 BKN029
                        OVC036 11/06 Q1005 NOSIG=
201904061120 METAR COR EGLL 061120Z AUTO 06009KT 9999 BKN025 11/06 Q1005
                        NOSIG=
201904061050 METAR COR EGLL 061050Z AUTO 05009KT 9999 SCT024 BKN029 11/06
                        Q1005 NOSIG=
201904061020 METAR COR EGLL 061020Z AUTO 07008KT 030V100 9999 BKN022 BKN027
                        10/06 Q1005 NOSIG=
201904060950 METAR COR EGLL 060950Z AUTO 05009KT 010V080 9999 SCT020 BKN024
                        10/06 Q1006 NOSIG=
201904060920 METAR COR EGLL 060920Z AUTO 06009KT 9999 BKN018 10/06 Q1006
                        NOSIG=
201904060850 METAR COR EGLL 060850Z AUTO 06008KT 9999 BKN016 09/06 Q1006
                        NOSIG=
201904060820 METAR COR EGLL 060820Z AUTO 05007KT 9000 BKN015 BKN019 09/06
                        Q1006 NOSIG=
201904060750 METAR COR EGLL 060750Z AUTO 05007KT 010V080 9000 OVC012 08/06
                        Q1006 BECMG BKN018=
201904060720 METAR COR EGLL 060720Z AUTO 06007KT 020V080 9000 OVC013 08/06
                        Q1005 BECMG BKN018=
201904060650 METAR COR EGLL 060650Z AUTO 06007KT 7000 OVC012 08/06 Q1005
                        BECMG BKN018=
201904060620 METAR COR EGLL 060620Z AUTO 05004KT 020V080 7000 OVC011 07/06
                        Q1005 NOSIG=
201904060550 METAR COR EGLL 060550Z AUTO 04005KT 6000 BKN012 06/05 Q1005
                        NOSIG=
201904060520 METAR COR EGLL 060520Z AUTO 05005KT 6000 BKN009 06/05 Q1005
                        TEMPO SCT009 BKN011=
201904060450 METAR COR EGLL 060450Z AUTO 06007KT 6000 BKN009 BKN012 06/05
                        Q1005 TEMPO SCT009 BKN012=
201904060420 METAR EGLL 060420Z AUTO 06007KT 7000 BKN011 06/05 Q1005=
201904060350 METAR COR EGLL 060350Z AUTO 07007KT 7000 BKN012 07/05 Q1005
                        NOSIG=
201904060320 METAR COR EGLL 060320Z AUTO 07007KT 7000 BKN012 07/06 Q1005
                        TEMPO SCT012=
201904060250 METAR COR EGLL 060250Z AUTO 06007KT 7000 SCT013 07/06 Q1005
                        TEMPO BKN013=
201904060220 METAR COR EGLL 060220Z AUTO 07007KT 7000 BKN013 08/06 Q1005
                        TEMPO SCT013=
201904060150 METAR COR EGLL 060150Z AUTO 08010KT 8000 SCT013 08/06 Q1005
                        TEMPO BKN013=
201904060120 METAR COR EGLL 060120Z AUTO 07007KT 8000 SCT013 08/06 Q1005
                        TEMPO BKN013=
201904060050 METAR COR EGLL 060050Z AUTO 07007KT 7000 FEW014 08/06 Q1004
                        TEMPO BKN014=
201904060020 METAR COR EGLL 060020Z AUTO 07008KT 8000 NCD 08/06 Q1004
                        NOSIG=
201904052350 METAR COR EGLL 052350Z AUTO 08010KT 8000 NCD 08/05 Q1004
                        NOSIG=
201904052320 METAR COR EGLL 052320Z AUTO 08010KT 8000 NCD 08/05 Q1004
                        NOSIG=
201904052250 METAR COR EGLL 052250Z AUTO 08008KT 8000 NCD 08/05 Q1005
                        NOSIG=
201904052220 METAR COR EGLL 052220Z AUTO 09009KT 8000 NCD 09/05 Q1005
                        NOSIG=
201904052150 METAR COR EGLL 052150Z AUTO 09011KT 7000 NCD 09/05 Q1004
                        NOSIG=
201904052120 METAR COR EGLL 052120Z AUTO 09011KT 7000 NCD 09/05 Q1004
                        NOSIG=
201904052050 METAR COR EGLL 052050Z AUTO 09011KT 9000 NCD 09/05 Q1004
                        NOSIG=
201904052020 METAR COR EGLL 052020Z AUTO 09012KT 9999 NCD 09/04 Q1004
                        NOSIG=
201904051950 METAR COR EGLL 051950Z AUTO 10013KT 9999 NCD 10/04 Q1004
                        NOSIG=
201904051920 METAR COR EGLL 051920Z AUTO 09012KT 9999 NCD 10/03 Q1004
                        NOSIG=
201904051850 METAR COR EGLL 051850Z AUTO 09012KT 9999 NCD 10/02 Q1003
                        NOSIG=
201904051820 METAR COR EGLL 051820Z AUTO 09011KT 9999 NCD 10/03 Q1003
                        NOSIG=
201904051750 METAR COR EGLL 051750Z AUTO 09011KT 9999 NCD 11/03 Q1003
                        NOSIG=
201904051720 METAR COR EGLL 051720Z AUTO 10011KT 9999 NCD 11/M01 Q1003
                        NOSIG=
201904051650 METAR COR EGLL 051650Z AUTO 11012KT 9999 NCD 11/M01 Q1003
                        NOSIG=
201904051620 METAR COR EGLL 051620Z AUTO 12012KT 9999 NCD 12/M02 Q1003
                        NOSIG=
201904051550 METAR COR EGLL 051550Z AUTO 12012KT 9999 NCD 12/M00 Q1003
                        NOSIG=
201904051520 METAR COR EGLL 051520Z AUTO 14009KT 110V170 9999 NCD 12/M01
                        Q1003 NOSIG=
201904051450 METAR COR EGLL 051450Z AUTO 16012KT 9999 NCD 13/M00 Q1003
                        NOSIG=
201904051420 METAR COR EGLL 051420Z AUTO 16011KT 9999 NCD 13/M00 Q1003
                        NOSIG=
201904051350 METAR COR EGLL 051350Z AUTO 15012KT 9999 NCD 14/00 Q1003
                        NOSIG=
201904051320 METAR COR EGLL 051320Z AUTO 15014KT 9999 NCD 13/00 Q1003
                        NOSIG=
201904051250 METAR COR EGLL 051250Z AUTO 15013KT 9999 NCD 13/02 Q1003
                        NOSIG=
201904051220 METAR COR EGLL 051220Z AUTO 16013KT 9999 SCT047 13/02 Q1003
                        NOSIG=
201904051150 METAR COR EGLL 051150Z AUTO 14015KT 9999 FEW049 13/03 Q1002
                        NOSIG=
201904051120 METAR COR EGLL 051120Z AUTO 15015KT 9999 NCD 12/03 Q1002
                        NOSIG=
201904051050 METAR COR EGLL 051050Z AUTO 15014KT 9999 NCD 12/03 Q1002
                        NOSIG=
201904051020 METAR COR EGLL 051020Z AUTO 15015KT 9999 BKN049 11/03 Q1002
                        NOSIG=
201904050950 METAR COR EGLL 050950Z AUTO 14012KT 9999 BKN044 11/04 Q1002
                        NOSIG=
201904050920 METAR COR EGLL 050920Z AUTO 14011KT 9999 BKN044 11/04 Q1002
                        NOSIG=
201904050850 METAR COR EGLL 050850Z AUTO 13012KT 9999 FEW046 10/04 Q1002
                        NOSIG=
201904050820 METAR COR EGLL 050820Z AUTO 14011KT 9999 NCD 10/04 Q1001
                        NOSIG=
201904050750 METAR COR EGLL 050750Z 14011KT 9999 SCT046 10/04 Q1001 NOSIG=
201904050720 METAR COR EGLL 050720Z AUTO 12011KT 9999 BKN046 08/04 Q1001
                        NOSIG=
201904050650 METAR COR EGLL 050650Z AUTO 12011KT 9999 -RA FEW044 07/04
                        Q1001 NOSIG=
201904050620 METAR COR EGLL 050620Z AUTO 11010KT 9999 SCT048 07/03 Q1000
                        NOSIG=
201904050550 METAR COR EGLL 050550Z AUTO 11011KT 9999 NCD 06/03 Q1000
                        NOSIG=
201904050520 METAR COR EGLL 050520Z AUTO 10010KT 9999 BKN048 06/03 Q1000
                        NOSIG=
201904050450 METAR COR EGLL 050450Z AUTO 11011KT 9999 NCD 06/03 Q1000
                        NOSIG=
201904050420 METAR COR EGLL 050420Z AUTO 11010KT 9999 NCD 06/03 Q0999
                        NOSIG=
201904050350 METAR COR EGLL 050350Z AUTO 11011KT 9999 NCD 06/03 Q0999
                        NOSIG=
201904050320 METAR COR EGLL 050320Z AUTO 11009KT 9999 NCD 06/03 Q0999
                        NOSIG=
201904050250 METAR COR EGLL 050250Z AUTO 10009KT 9999 NCD 06/03 Q0999
                        NOSIG=
201904050220 METAR COR EGLL 050220Z AUTO 11010KT 9999 NCD 06/03 Q0999
                        NOSIG=
201904050150 METAR COR EGLL 050150Z AUTO 11009KT 9999 NCD 06/03 Q0999
                        NOSIG=
201904050120 METAR COR EGLL 050120Z AUTO 12012KT 9999 NCD 07/03 Q0999
                        NOSIG=
201904050050 METAR COR EGLL 050050Z AUTO 12010KT 9999 NCD 07/03 Q0999
                        NOSIG=
201904050020 METAR COR EGLL 050020Z AUTO 13009KT 9999 NCD 08/03 Q0999
                        NOSIG=
201904042350 METAR COR EGLL 042350Z AUTO 14008KT 9999 -RA FEW048 08/04
                        Q0999 NOSIG=
201904042320 METAR COR EGLL 042320Z AUTO 13007KT 9999 //////TCU 08/04
                        Q0999 NOSIG=
201904042250 METAR COR EGLL 042250Z AUTO 12009KT 9999 SCT046 07/04 Q0999
                        NOSIG=
201904042220 METAR COR EGLL 042220Z AUTO 12008KT 9999 FEW048/// //////TCU
                        06/04 Q0998 NOSIG=
201904042150 METAR COR EGLL 042150Z AUTO 11007KT 9999 FEW034/// SCT045///
                        //////CB 06/04 Q0998 NOSIG=
201904042120 METAR COR EGLL 042120Z AUTO 14011KT 9999 -RA SCT029/// BKN044///
                        //////CB 07/04 Q0998 RESHRA NOSIG=
201904042050 METAR COR EGLL 042050Z 13011KT 9999 VCSH SCT045CB 08/03 Q0998
                        TEMPO SHRA=
201904042020 METAR COR EGLL 042020Z AUTO 12011KT 9999 NCD 08/03 Q0997
                        TEMPO SHRA=
201904041950 METAR COR EGLL 041950Z AUTO 12011KT 9999 SCT048/// //////TCU
                        08/03 Q0997 NOSIG=
201904041920 METAR COR EGLL 041920Z AUTO 13010KT 110V180 9999 BKN049 08/03
                        Q0997 NOSIG=
201904041850 METAR COR EGLL 041850Z AUTO 15011KT 9999 SCT043 07/03 Q0997
                        TEMPO SHRA=
201904041820 METAR COR EGLL 041820Z AUTO 16015KT 9999 -RA SCT027 BKN037
                        BKN045 08/04 Q0996 TEMPO SHRA=
201904041750 METAR COR EGLL 041750Z AUTO 17017KT 9999 -RA SCT029/// BKN036///
                        BKN045/// //////CB 08/03 Q0996 TEMPO
                        SHRA=
201904041720 METAR COR EGLL 041720Z AUTO 16017KT 9999 FEW033/// SCT042///
                        BKN048/// //////TCU 09/03 Q0996 TEMPO
                        SHRA=
201904041650 METAR COR EGLL 041650Z AUTO 15015KT 9999 SCT033 BKN044 09/03
                        Q0995 TEMPO SHRA=
201904041620 METAR COR EGLL 041620Z AUTO 18013KT 9999 -RA FEW028 SCT034
                        08/03 Q0995 TEMPO SHRA=
201904041550 METAR COR EGLL 041550Z AUTO 16016KT 9999 -RA SCT030 SCT040
                        OVC047 08/03 Q0995 TEMPO SHRA=
201904041520 METAR COR EGLL 041520Z AUTO 16014KT 9999 BKN029 OVC045 08/03
                        Q0994 TEMPO SHRA=
201904041450 METAR COR EGLL 041450Z AUTO 16015KT 9999 -RA FEW030 BKN037
                        08/04 Q0994 TEMPO SHRA=
201904041420 METAR COR EGLL 041420Z AUTO 17014KT 9999 BKN030 BKN047 09/03
                        Q0994 TEMPO SHRA=
201904041350 METAR COR EGLL 041350Z AUTO 17014KT 9999 SCT029 BKN035 08/03
                        Q0994 TEMPO SHRA=
201904041320 METAR COR EGLL 041320Z AUTO 16018KT 9999 SCT024 BKN029 OVC039
                        08/04 Q0994 TEMPO SHRA=
201904041250 METAR COR EGLL 041250Z AUTO 15018KT 8000 -RA BKN022 BKN031
                        OVC044 08/04 Q0994 TEMPO SHRA=
201904041220 METAR COR EGLL 041220Z AUTO 16019KT 9999 SCT028/// BKN034///
                        OVC045/// //////TCU 08/04 Q0994 TEMPO
                        SHRA=
201904041150 METAR COR EGLL 041150Z AUTO 16015KT 9999 SCT027 BKN036 08/04
                        Q0993 TEMPO SHRA=
201904041120 METAR COR EGLL 041120Z AUTO 16014KT 9999 -RA BKN024/// OVC043///
                        //////TCU 08/04 Q0993 TEMPO SHRA=
201904041050 METAR COR EGLL 041050Z AUTO 15015KT 9999 SCT020/// BKN029///
                        BKN043/// //////TCU 08/05 Q0993 TEMPO
                        SHRA=
201904041020 METAR COR EGLL 041020Z AUTO 16013KT 9999 -RA BKN018/// BKN026///
                        OVC044/// //////TCU 07/04 Q0993 TEMPO
                        SHRA=
201904040950 METAR COR EGLL 040950Z AUTO 13014KT 9999 SCT037/// BKN048///
                        //////TCU 07/04 Q0993 TEMPO SHRA=
201904040920 METAR COR EGLL 040920Z AUTO 14014KT 9999 FEW019/// SCT044///
                        //////TCU 07/04 Q0993 TEMPO SHRA=
201904040850 METAR COR EGLL 040850Z AUTO 13013KT 9999 FEW026 06/04 Q0993
                        TEMPO SHRA=
201904040820 METAR COR EGLL 040820Z AUTO 12011KT 9999 SCT026 BKN039 05/03
                        Q0993 NOSIG=
201904040750 METAR COR EGLL 040750Z AUTO 13011KT 9999 -RA SCT024 BKN032
                        BKN047 04/03 Q0993 TEMPO SHRA=
201904040720 METAR COR EGLL 040720Z AUTO 16011KT 9000 -RA BKN013/// BKN020///
                        //////TCU 04/02 Q0994 TEMPO SHRA=
201904040650 METAR COR EGLL 040650Z AUTO 13007KT 9999 FEW021 SCT034 BKN043
                        04/03 Q0993 RERA TEMPO SHRA=
201904040620 METAR COR EGLL 040620Z AUTO 14007KT 9999 -RA FEW040 SCT048
                        03/02 Q0993 TEMPO SHRA=
201904040550 METAR COR EGLL 040550Z AUTO 13007KT 9999 -RA SCT029 SCT038
                        03/01 Q0994 TEMPO SHRA BKN014=
201904040520 METAR COR EGLL 040520Z AUTO 12007KT 9999 NCD 02/01 Q0993
                        TEMPO SHRA BKN014=
201904040450 METAR COR EGLL 040450Z AUTO 12006KT 9999 NCD 01/00 Q0993
                        TEMPO SHRA=
201904040420 METAR COR EGLL 040420Z AUTO 13006KT 9999 NCD 01/00 Q0993
                        TEMPO SHRA=
201904040350 METAR COR EGLL 040350Z AUTO 13007KT 9999 NCD 01/00 Q0994
                        NOSIG=
201904040320 METAR COR EGLL 040320Z AUTO 12006KT 9999 BKN035 02/01 Q0994
                        NOSIG=
201904040250 METAR COR EGLL 040250Z AUTO 14006KT 9999 BKN032 BKN045 02/01
                        Q0994 NOSIG=
201904040220 METAR COR EGLL 040220Z AUTO 13006KT 9999 SCT033 BKN048 01/00
                        Q0995 NOSIG=
201904040150 METAR COR EGLL 040150Z AUTO 14005KT 9999 NCD 02/00 Q0995
                        NOSIG=
201904040120 METAR COR EGLL 040120Z AUTO 14006KT 9999 BKN032 03/01 Q0995
                        NOSIG=
201904040050 METAR COR EGLL 040050Z AUTO 13006KT 9999 BKN034 02/00 Q0995
                        NOSIG=
201904040020 METAR COR EGLL 040020Z AUTO 14005KT 9999 FEW037 02/00 Q0996
                        NOSIG=
201904032350 METAR COR EGLL 032350Z AUTO 13005KT 9999 NCD 01/M00 Q0996
                        NOSIG=
201904032320 METAR COR EGLL 032320Z AUTO 14004KT 9999 NCD 02/00 Q0996
                        NOSIG=
201904032250 METAR COR EGLL 032250Z AUTO 11004KT 9999 NCD 01/M00 Q0997
                        NOSIG=
201904032220 METAR COR EGLL 032220Z AUTO 14004KT 110V220 9999 NCD 01/00
                        Q0997 NOSIG=
201904032150 METAR COR EGLL 032150Z AUTO VRB03KT 9999 NCD 02/00 Q0997
                        NOSIG=
201904032120 METAR COR EGLL 032120Z AUTO 18004KT 120V290 9999 NCD 02/M01
                        Q0997 NOSIG=
201904032050 METAR COR EGLL 032050Z AUTO 17004KT 140V250 9999 NCD 02/M00
                        Q0997 NOSIG=
201904032020 METAR COR EGLL 032020Z AUTO 21005KT 160V260 9999 NCD 04/01
                        Q0998 NOSIG=
201904031950 METAR COR EGLL 031950Z AUTO 23007KT 9999 NCD 04/01 Q0998
                        NOSIG=
201904031920 METAR COR EGLL 031920Z AUTO 21006KT 180V260 9999 NCD 04/00
                        Q0997 NOSIG=
201904031850 METAR COR EGLL 031850Z AUTO 22007KT 9999 NCD 05/00 Q0997
                        NOSIG=
201904031820 METAR COR EGLL 031820Z AUTO 22006KT 170V260 9999 NCD 05/00
                        Q0997 NOSIG=
201904031750 METAR COR EGLL 031750Z AUTO 27007KT 9999 NCD 06/01 Q0997
                        TEMPO SHRA=
201904031720 METAR COR EGLL 031720Z 27009KT 9999 SCT040CB 06/01 Q0997
                        TEMPO SHRA=
201904031650 METAR COR EGLL 031650Z 24010KT 9999 VCSH SCT043CB 07/00 Q0997
                        TEMPO SHRA=
201904031620 METAR COR EGLL 031620Z 25014KT 9999 VCSH FEW035 BKN040CB
                        07/00 Q0997 TEMPO SHRA=
201904031550 METAR COR EGLL 031550Z 28009KT 9999 VCSH FEW035 BKN040CB
                        08/M02 Q0997 TEMPO SHRA=
201904031520 METAR COR EGLL 031520Z AUTO 27004KT 160V320 9999 NCD 10/M02
                        Q0997 TEMPO SHRA=
201904031450 METAR COR EGLL 031450Z AUTO VRB03KT 9999 //////CB 09/M02
                        Q0997 TEMPO SHRA=
201904031420 METAR COR EGLL 031420Z AUTO 31004KT 260V350 9999 //////CB
                        08/M02 Q0997 TEMPO SHRA=
201904031350 METAR COR EGLL 031350Z VRB03KT 9999 VCSH FEW030CB SCT048
                        08/M01 Q0998 TEMPO SHRA=
201904031320 METAR COR EGLL 031320Z 29004KT 230V350 9999 VCSH FEW025CB
                        SCT045 09/01 Q0998 TEMPO SHRA=
201904031250 METAR COR EGLL 031250Z AUTO 30004KT 250V350 9999 FEW045 08/02
                        Q0998 TEMPO SHRA=
201904031220 METAR COR EGLL 031220Z AUTO 36004KT 270V050 9999 -RA SCT025
                        BKN044 06/01 Q0999 TEMPO SHRA=
201904031150 METAR COR EGLL 031150Z AUTO 32004KT 270V030 9999 -RA FEW030
                        SCT040 BKN048 06/00 Q0999 RESHGS
                        TEMPO SHRA=
201904031120 METAR COR EGLL 031120Z 34006KT 300V030 9999 SHGS SCT023 BKN036CB
                        08/02 Q0999 TEMPO NSW=
201904031050 METAR COR EGLL 031050Z AUTO 30004KT 240V350 9999 SCT021 BKN026
                        06/02 Q0999 TEMPO SHRA=
201904031020 METAR COR EGLL 031020Z AUTO 32004KT 280V020 9999 SCT018 BKN023
                        BKN028 06/02 Q0999 TEMPO SHRA=
201904030950 METAR COR EGLL 030950Z AUTO 25004KT 190V310 9999 BKN015 BKN021
                        05/02 Q0999 TEMPO SHRA=
201904030920 METAR COR EGLL 030920Z AUTO 27005KT 9999 SCT010 SCT014 05/03
                        Q0999 NOSIG=
201904030850 METAR COR EGLL 030850Z AUTO 29004KT 250V350 9000 SCT011 05/03
                        Q0999 NOSIG=
201904030820 METAR COR EGLL 030820Z AUTO VRB03KT 9999 FEW012 04/02 Q0999
                        NOSIG=
201904030750 METAR COR EGLL 030750Z AUTO 27004KT 220V300 7000 SCT031 03/02
                        Q1000 NOSIG=
201904030720 METAR COR EGLL 030720Z AUTO VRB02KT 6000 FEW032 03/02 Q0999
                        NOSIG=
201904030650 METAR COR EGLL 030650Z AUTO 28004KT 5000 HZ BKN029 02/01
                        Q0999 NOSIG=
201904030620 METAR COR EGLL 030620Z AUTO VRB02KT 6000 BKN028 OVC032 03/02
                        Q0999 NOSIG=
201904030550 METAR COR EGLL 030550Z AUTO VRB01KT 5000 BR OVC027 02/02
                        Q0999 TEMPO 4000 BR=
201904030520 METAR COR EGLL 030520Z AUTO VRB01KT 6000 BKN026 02/02 Q0999
                        TEMPO 4000 BR=
201904030450 METAR COR EGLL 030450Z AUTO 30003KT 5000 BR BKN023 01/01
                        Q0999 TEMPO 4000=
201904030420 METAR COR EGLL 030420Z VRB01KT 4500 BR BKN020 02/02 Q0999
                        NOSIG=
201904030350 METAR COR EGLL 030350Z VRB01KT 5000 BR NSC 02/01 Q1000 TEMPO
                        4000=
201904030320 METAR COR EGLL 030320Z AUTO 27002KT 4900 BR FEW038 02/01
                        Q1000 NOSIG=
201904030250 METAR COR EGLL 030250Z AUTO VRB02KT 7000 BKN036 02/01 Q1000
                        NOSIG=
201904030220 METAR COR EGLL 030220Z AUTO VRB01KT 7000 SCT034 02/02 Q1000
                        NOSIG=
201904030150 METAR COR EGLL 030150Z AUTO 30003KT 9000 BKN032 02/02 Q1000
                        NOSIG=
201904030120 METAR COR EGLL 030120Z AUTO 27006KT 7000 BKN032 02/01 Q1001
                        NOSIG=
201904030050 METAR COR EGLL 030050Z AUTO 26003KT 7000 FEW032 02/02 Q1001
                        NOSIG=
201904030020 METAR COR EGLL 030020Z AUTO 28005KT 9999 SCT028 02/01 Q1001
                        NOSIG=
201904022350 METAR COR EGLL 022350Z AUTO 28004KT 9999 BKN026 03/02 Q1001
                        NOSIG=
201904022320 METAR COR EGLL 022320Z AUTO 26004KT 9999 BKN024 03/02 Q1001
                        NOSIG=
201904022250 METAR COR EGLL 022250Z AUTO 28005KT 9999 BKN022 03/02 Q1001
                        NOSIG=
201904022220 METAR COR EGLL 022220Z AUTO 28005KT 9999 SCT022 BKN030 04/02
                        Q1002 NOSIG=
201904022150 METAR COR EGLL 022150Z AUTO 28005KT 9999 SCT022 BKN028 04/03
                        Q1002 NOSIG=
201904022120 METAR COR EGLL 022120Z AUTO 29005KT 9999 //////TCU 04/03
                        Q1002 NOSIG=
201904022050 METAR COR EGLL 022050Z AUTO VRB03KT 9999 -RA SCT016/// SCT032///
                        //////CB 04/02 Q1002 RERA NOSIG=
201904022020 METAR COR EGLL 022020Z AUTO 26013KT 3400 +RA BKN015/// BKN021///
                        BKN026/// //////CB 04/03 Q1002 TEMPO
                        6000 -SHRA=
201904021950 METAR COR EGLL 021950Z AUTO 24007KT 190V300 9999 -RA FEW020///
                        SCT032/// BKN041/// //////TCU 06/02
                        Q1002 TEMPO SHRAGS=
201904021920 METAR COR EGLL 021920Z AUTO 07004KT 9999 BKN046/// //////TCU
                        05/01 Q1002 TEMPO SHRAGS=
201904021850 METAR COR EGLL 021850Z AUTO VRB03KT 9999 SCT040 06/01 Q1002
                        TEMPO SHRAGS=
201904021820 METAR COR EGLL 021820Z AUTO VRB03KT 9999 //////TCU 06/01
                        Q1002 TEMPO SHGS=
201904021750 METAR COR EGLL 021750Z AUTO 36004KT 320V040 9999 FEW030///
                        SCT042/// BKN049/// //////TCU 06/01
                        Q1002 NOSIG=
201904021720 METAR COR EGLL 021720Z AUTO 21007KT 190V270 9999 SCT035///
                        //////CB 07/03 Q1001 NOSIG=
201904021650 METAR COR EGLL 021650Z AUTO 22010KT 9999 //////CB 08/03 Q1002
                        TEMPO SHRAGS=
201904021620 METAR COR EGLL 021620Z AUTO 24010KT 9999 NCD 08/02 Q1002
                        NOSIG=
201904021550 METAR COR EGLL 021550Z AUTO 25008KT 9999 SCT039/// BKN046///
                        //////TCU 07/02 Q1002 NOSIG=
201904021520 METAR COR EGLL 021520Z AUTO 31005KT 270V350 9999 -RA SCT030///
                        BKN044/// //////CB 07/02 Q1002 NOSIG=
201904021450 METAR COR EGLL 021450Z AUTO 26012KT 9999 SCT028 SCT036 BKN042
                        09/03 Q1002 TEMPO 4000 SHGS BKN020CB=
201904021420 METAR COR EGLL 021420Z AUTO 28009KT 250V310 9999 FEW021 SCT028
                        BKN039 09/04 Q1002 TEMPO SHGS=
201904021350 METAR COR EGLL 021350Z AUTO 28008KT 240V320 9999 SCT020 08/04
                        Q1003 TEMPO SHGS=
201904021320 METAR COR EGLL 021320Z AUTO 29008KT 9999 -RA SCT017 BKN025
                        BKN047 08/05 Q1003 TEMPO SHRA=
201904021250 METAR COR EGLL 021250Z AUTO 31010KT 270V350 9999 -RA BKN016
                        BKN027 BKN045 07/05 Q1003 NOSIG=
201904021220 METAR COR EGLL 021220Z AUTO 30010KT 9999 -RA SCT011/// BKN015///
                        OVC043/// //////TCU 07/05 Q1003 NOSIG=
201904021150 METAR COR EGLL 021150Z AUTO 29007KT 9000 -RA SCT011/// BKN017///
                        OVC023/// //////TCU 06/05 Q1003 NOSIG=
201904021120 METAR COR EGLL 021120Z AUTO 30009KT 4900 -RA SCT010/// BKN015///
                        OVC049/// //////TCU 06/04 Q1004 TEMPO
                        6000 RA BKN012=
201904021050 METAR COR EGLL 021050Z AUTO 28010KT 2400 -RADZ SCT007///
                        BKN011/// OVC031/// //////TCU 06/05
                        Q1004 RERA REDZ TEMPO 6000 RA BKN008=
201904021020 METAR COR EGLL 021020Z AUTO 27008KT 3200 -RADZ SCT008 BKN013
                        OVC018 06/06 Q1004 TEMPO 5000 RA
                        BKN008=
201904020950 METAR COR EGLL 020950Z AUTO 30005KT 270V340 6000 -RA SCT006
                        SCT013 BKN017 07/06 Q1004 TEMPO 4000
                        RA BKN008=
201904020920 METAR COR EGLL 020920Z AUTO 30005KT 260V330 2100 DZ SCT005///
                        BKN008/// OVC015/// 07/06 Q1004 TEMPO
                        3500 RA=
201904020850 METAR COR EGLL 020850Z AUTO 28005KT 3700 HZ BKN009 OVC015
                        07/06 Q1004 TEMPO RA SCT009=
201904020820 METAR COR EGLL 020820Z AUTO 25007KT 3500 HZ BKN009 BKN017
                        OVC027 08/06 Q1004 TEMPO RA BKN008=
201904020750 METAR COR EGLL 020750Z AUTO 22008KT 190V250 3200 HZ BKN027
                        BKN041 08/06 Q1004 TEMPO RA BKN012=
201904020720 METAR COR EGLL 020720Z AUTO 21006KT 180V240 3400 HZ FEW027
                        07/06 Q1004 TEMPO RA BKN012=
201904020650 METAR COR EGLL 020650Z AUTO 22006KT 190V250 4400 HZ NCD 06/05
                        Q1005 BECMG 5000=
201904020620 METAR COR EGLL 020620Z AUTO 21007KT 180V250 5000 HZ NCD 05/04
                        Q1005 NOSIG=
201904020550 METAR COR EGLL 020550Z AUTO 22007KT 190V280 5000 HZ BKN019
                        05/04 Q1006 NOSIG=
201904020520 METAR COR EGLL 020520Z AUTO 21005KT 190V260 5000 BR NCD 04/03
                        Q1006 NOSIG=
201904020450 METAR COR EGLL 020450Z AUTO 21004KT 4800 BR NCD 04/03 Q1006
                        NOSIG=
201904020420 METAR COR EGLL 020420Z AUTO 23005KT 3200 BR NCD 03/03 Q1007
                        NOSIG=
201904020350 METAR COR EGLL 020350Z AUTO 19003KT 1900 BR NCD 04/03 Q1007
                        NOSIG=
201904020320 METAR COR EGLL 020320Z AUTO VRB03KT 1900 BR NCD 04/03 Q1008
                        NOSIG=
201904020250 METAR COR EGLL 020250Z AUTO 19003KT 2800 HZ NCD 05/04 Q1008
                        NOSIG=
201904020220 METAR COR EGLL 020220Z AUTO 18004KT 4700 HZ NCD 05/04 Q1009
                        TEMPO 5000=
201904020150 METAR COR EGLL 020150Z AUTO VRB02KT 5000 HZ NCD 05/04 Q1009
                        BECMG 4000 BR=
201904020120 METAR COR EGLL 020120Z AUTO 14003KT 6000 NCD 04/03 Q1009
                        NOSIG=
201904020050 METAR COR EGLL 020050Z AUTO 13002KT 7000 NCD 05/04 Q1010
                        NOSIG=
201904020020 METAR COR EGLL 020020Z AUTO 16002KT 6000 NCD 06/05 Q1011
                        NOSIG=
201904012350 METAR COR EGLL 012350Z AUTO 20002KT 8000 NCD 06/05 Q1011
                        NOSIG=
201904012320 METAR COR EGLL 012320Z AUTO 12004KT 8000 NCD 06/04 Q1012
                        NOSIG=
201904012250 METAR COR EGLL 012250Z AUTO 11003KT 9999 NCD 06/04 Q1012
                        NOSIG=
201904012220 METAR COR EGLL 012220Z AUTO 11004KT 9999 NCD 06/04 Q1013
                        NOSIG=
201904012150 METAR COR EGLL 012150Z AUTO 13004KT 9999 NCD 06/04 Q1013
                        NOSIG=
201904012120 METAR COR EGLL 012120Z AUTO 10004KT 9999 NCD 06/04 Q1014
                        NOSIG=
201904012050 METAR COR EGLL 012050Z AUTO 10005KT 9999 NCD 07/03 Q1014
                        NOSIG=
201904012020 METAR COR EGLL 012020Z AUTO 10006KT 9999 NCD 07/03 Q1014
                        NOSIG=
201904011950 METAR COR EGLL 011950Z AUTO 12006KT 9999 NCD 08/03 Q1015
                        NOSIG=
201904011920 METAR COR EGLL 011920Z AUTO 10006KT 9999 NCD 08/03 Q1015
                        NOSIG=
201904011850 METAR COR EGLL 011850Z AUTO 10008KT 9999 NCD 09/03 Q1015
                        NOSIG=
201904011820 METAR COR EGLL 011820Z AUTO 10008KT 9999 NCD 10/03 Q1015
                        NOSIG=
201904011750 METAR COR EGLL 011750Z AUTO 10008KT 9999 NCD 11/03 Q1015
                        NOSIG=
201904011720 METAR COR EGLL 011720Z AUTO 10007KT 9999 NCD 12/03 Q1015
                        NOSIG=
201904011650 METAR COR EGLL 011650Z AUTO 10007KT 9999 NCD 13/03 Q1015
                        NOSIG=
201904011620 METAR COR EGLL 011620Z AUTO 10007KT 060V130 9999 NCD 13/03
                        Q1016 NOSIG=
201904011550 METAR COR EGLL 011550Z AUTO 08006KT 040V120 9999 NCD 14/03
                        Q1016 NOSIG=
201904011520 METAR COR EGLL 011520Z AUTO 09008KT 9999 NCD 14/04 Q1017
                        NOSIG=
201904011450 METAR COR EGLL 011450Z AUTO 10008KT 9999 NCD 14/03 Q1017
                        NOSIG=
201904011420 METAR COR EGLL 011420Z AUTO 09008KT 040V120 9999 NCD 14/04
                        Q1018 NOSIG=
201904011350 METAR COR EGLL 011350Z AUTO 10009KT 070V130 9999 NCD 14/04
                        Q1018 NOSIG=
201904011320 METAR COR EGLL 011320Z AUTO 09010KT 9999 NCD 13/04 Q1019
                        NOSIG=
201904011250 METAR COR EGLL 011250Z AUTO 09009KT 040V140 9999 NCD 13/04
                        Q1019 NOSIG=
201904011220 METAR COR EGLL 011220Z AUTO 10010KT 060V140 9999 NCD 16/04
                        Q1020 NOSIG=
201904011150 METAR COR EGLL 011150Z AUTO 07010KT 9999 NCD 13/04 Q1020
                        NOSIG=
201904011120 METAR COR EGLL 011120Z AUTO 08010KT 050V120 9999 NCD 13/04
                        Q1021 NOSIG=
201904011050 METAR COR EGLL 011050Z AUTO 07009KT 030V100 9999 NCD 11/03
                        Q1021 NOSIG=
201904011020 METAR COR EGLL 011020Z AUTO 07010KT 9999 NCD 11/04 Q1022
                        NOSIG=
201904010950 METAR COR EGLL 010950Z AUTO 07008KT 030V110 9999 NCD 10/04
                        Q1022 NOSIG=
201904010920 METAR COR EGLL 010920Z AUTO 07008KT 9999 NCD 09/04 Q1022
                        NOSIG=
201904010850 METAR COR EGLL 010850Z AUTO 07007KT 030V090 9999 NCD 08/04
                        Q1023 NOSIG=
201904010820 METAR COR EGLL 010820Z AUTO 07009KT 9999 NCD 07/04 Q1023
                        NOSIG=
201904010750 METAR EGLL 010750Z AUTO 06006KT 020V090 9999 NCD 06/03 Q1023=
201904010720 METAR COR EGLL 010720Z AUTO 05006KT 010V070 9999 NCD 05/03
                        Q1023 NOSIG=
201904010650 METAR COR EGLL 010650Z AUTO 04006KT 9999 NCD 04/03 Q1023
                        NOSIG=
201904010620 METAR COR EGLL 010620Z AUTO 05005KT 9999 NCD 04/02 Q1023
                        NOSIG=
201904010550 METAR COR EGLL 010550Z AUTO 05005KT 9999 NCD 04/02 Q1023
                        NOSIG=
201904010520 METAR COR EGLL 010520Z AUTO 05005KT 9999 NCD 04/02 Q1023
                        NOSIG=
201904010450 METAR COR EGLL 010450Z AUTO 05006KT 9999 NCD 04/02 Q1023
                        NOSIG=
201904010420 METAR COR EGLL 010420Z AUTO 04006KT 9999 NCD 04/02 Q1024
                        NOSIG=
201904010350 METAR COR EGLL 010350Z AUTO 04006KT 9999 FEW016 04/02 Q1024
                        NOSIG=
201904010320 METAR COR EGLL 010320Z AUTO 04005KT 9999 SCT016 04/02 Q1024
                        NOSIG=
201904010250 METAR COR EGLL 010250Z AUTO 04005KT 9999 BKN017 04/02 Q1024
                        NOSIG=
201904010220 METAR COR EGLL 010220Z AUTO 04005KT 9999 BKN017 05/03 Q1024
                        NOSIG=
201904010150 METAR COR EGLL 010150Z AUTO 05005KT 9999 BKN017 05/03 Q1024
                        NOSIG=
201904010120 METAR COR EGLL 010120Z AUTO 05005KT 010V080 9999 OVC017 06/03
                        Q1025 NOSIG=
201904010050 METAR COR EGLL 010050Z AUTO 05006KT 9999 OVC018 06/03 Q1025
                        NOSIG=
201904010020 METAR COR EGLL 010020Z AUTO 05006KT 9999 OVC018 06/02 Q1025
                        NOSIG=

</pre>

</body>
</html>
