##########################################################
# Query made at 12/24/2012 13:52:09 UTC
# Time interval: from 04/01/2012 00:00  to 05/01/2012 23:59  UTC
##########################################################

##########################################################
# EGLL, London / Heathrow Airport (United Kingdom)
# WMO index: 03772
# Latitude 51-29N. Longitude 000-27W. Altitude 24 m.
##########################################################

###################################
#  METAR/SPECI from EGLL
###################################
201204302350 METAR COR EGLL 302350Z 06011KT 9999 FEW032 13/10 Q1013 NOSIG=
201204302320 METAR COR EGLL 302320Z 05009KT 9999 FEW041 13/10 Q1013 NOSIG=
201204302250 METAR COR EGLL 302250Z 05009KT 9999 FEW041 13/10 Q1013 NOSIG=
201204302220 METAR COR EGLL 302220Z 05006KT 9999 -RA NSC 13/10 Q1014 NOSIG=
201204302150 METAR COR EGLL 302150Z 06005KT 040V100 9999 -RA FEW040 13/10
                        Q1014 NOSIG=
201204302120 METAR COR EGLL 302120Z 07005KT 040V100 9999 FEW040 13/10
                        Q1015 RESHRA NOSIG=
201204302050 METAR COR EGLL 302050Z 09011KT 9999 -RA SCT046 13/10 Q1015
                        NOSIG=
201204302020 METAR COR EGLL 302020Z 09015KT CAVOK 14/09 Q1014 NOSIG=
201204301950 METAR COR EGLL 301950Z 07009KT CAVOK 14/08 Q1014 NOSIG=
201204301920 METAR COR EGLL 301920Z 08015KT 9999 FEW031 15/09 Q1014 NOSIG=
201204301850 METAR COR EGLL 301850Z 07013KT 9999 FEW042 16/08 Q1014 NOSIG=
201204301820 METAR COR EGLL 301820Z 07012KT CAVOK 16/08 Q1014 NOSIG=
201204301750 METAR COR EGLL 301750Z 08012KT CAVOK 16/08 Q1014 NOSIG=
201204301720 METAR COR EGLL 301720Z 09013KT 9999 FEW040 17/08 Q1014 NOSIG=
201204301650 METAR EGLL 301650Z 08013KT 9999 FEW040 17/08 Q1013=
201204301620 METAR COR EGLL 301620Z 09015KT 9999 FEW040 17/08 Q1014 NOSIG=
201204301550 METAR COR EGLL 301550Z 09015KT 9999 FEW046 17/08 Q1014 NOSIG=
201204301520 METAR EGLL 301520Z 09014KT 9999 FEW045 17/08 Q1014=
201204301450 METAR COR EGLL 301450Z 09012KT 9999 FEW044 17/08 Q1014 NOSIG=
201204301420 METAR EGLL 301420Z 09015KT 9999 FEW044 17/07 Q1013=
201204301350 METAR COR EGLL 301350Z 12013KT CAVOK 19/06 Q1013 NOSIG=
201204301320 METAR COR EGLL 301320Z 13013KT 060V180 CAVOK 19/05 Q1013
                        NOSIG=
201204301250 METAR COR EGLL 301250Z 15011KT 9999 FEW048 18/04 Q1013 NOSIG=
201204301220 METAR COR EGLL 301220Z 12010KT CAVOK 17/05 Q1013 NOSIG=
201204301150 METAR COR EGLL 301150Z 13012KT 090V150 9999 FEW048 17/04
                        Q1013 NOSIG=
201204301120 METAR COR EGLL 301120Z 14012KT 090V160 9999 FEW044 17/05
                        Q1013 NOSIG=
201204301050 METAR COR EGLL 301050Z 12011KT 100V160 9999 FEW046 16/05
                        Q1013 NOSIG=
201204301020 METAR COR EGLL 301020Z 13013KT 9999 FEW041 16/05 Q1014 NOSIG=
201204300950 METAR COR EGLL 300950Z 13013KT 9999 FEW040 15/05 Q1014 NOSIG=
201204300920 METAR COR EGLL 300920Z 15014KT 9999 SCT037 15/06 Q1013 NOSIG=
201204300850 METAR COR EGLL 300850Z 14014KT 9999 SCT035 14/05 Q1013 NOSIG=
201204300820 METAR COR EGLL 300820Z 14015KT 9999 FEW030 12/05 Q1013 NOSIG=
201204300750 METAR COR EGLL 300750Z 15013KT 9999 FEW029 12/06 Q1012 NOSIG=
201204300720 METAR EGLL 300720Z 13014KT 9999 FEW027 11/06 Q1012=
201204300650 METAR COR EGLL 300650Z 13012KT 9999 FEW025 11/06 Q1011 NOSIG=
201204300620 METAR COR EGLL 300620Z 12011KT 9999 FEW016 10/06 Q1011 NOSIG=
201204300550 METAR COR EGLL 300550Z 12012KT 9999 FEW035 09/05 Q1010 NOSIG=
201204300520 METAR COR EGLL 300520Z 12012KT 9999 FEW035 09/05 Q1010 NOSIG=
201204300450 METAR EGLL 300450Z 12013KT CAVOK 09/05 Q1009=
201204300420 METAR COR EGLL 300420Z 14012KT 9999 FEW035 09/05 Q1009 NOSIG=
201204300350 METAR COR EGLL 300350Z 14011KT 9999 FEW035 09/05 Q1009 NOSIG=
201204300320 METAR COR EGLL 300320Z 14011KT 9999 FEW035 10/05 Q1008 NOSIG=
201204300250 METAR COR EGLL 300250Z 14012G22KT 9999 FEW030 SCT038 10/05
                        Q1008 NOSIG=
201204300220 METAR COR EGLL 300220Z 14013KT 9999 FEW047 10/05 Q1008 NOSIG=
201204300150 METAR COR EGLL 300150Z 14011KT 9999 SCT046 10/05 Q1008 NOSIG=
201204300120 METAR EGLL 300120Z AUTO 15012KT 9999 NCD 10/05 Q1007=
201204300050 METAR EGLL 300050Z AUTO 14013KT 9999 NCD 10/05 Q1007=
201204300020 METAR EGLL 300020Z AUTO 13011KT 9999 FEW047/// 10/06 Q1007=
201204292350 METAR COR EGLL 292350Z 14011KT 9999 FEW038 10/05 Q1007 NOSIG=
201204292320 METAR COR EGLL 292320Z 14012KT 9999 SCT044 11/05 Q1006 NOSIG=
201204292250 METAR COR EGLL 292250Z 14012KT CAVOK 10/05 Q1006 NOSIG=
201204292220 METAR COR EGLL 292220Z 14012KT CAVOK 10/05 Q1006 NOSIG=
201204292150 METAR COR EGLL 292150Z 15012KT CAVOK 11/05 Q1006 NOSIG=
201204292120 METAR COR EGLL 292120Z 14014KT CAVOK 11/05 Q1006 NOSIG=
201204292050 METAR COR EGLL 292050Z 14011KT 9999 SCT046 11/06 Q1006 NOSIG=
201204292020 METAR COR EGLL 292020Z 13011KT 9999 SCT040 11/06 Q1005 NOSIG=
201204291950 METAR COR EGLL 291950Z 14011KT 9999 SCT049 11/06 Q1005 NOSIG=
201204291920 METAR COR EGLL 291920Z 12010KT 9999 SCT035 10/06 Q1005 NOSIG=
201204291850 METAR COR EGLL 291850Z 11007KT 9999 VCSH SCT040 11/07 Q1004
                        NOSIG=
201204291820 METAR COR EGLL 291820Z 16010KT 9999 SCT037 11/07 Q1004 NOSIG=
201204291750 METAR COR EGLL 291750Z 16015KT 9999 SCT034 12/07 Q1004 NOSIG=
201204291720 METAR COR EGLL 291720Z 15014KT 9999 FEW023 SCT040 12/08 Q1003
                        NOSIG=
201204291650 METAR COR EGLL 291650Z 16012KT 9999 FEW015 12/08 Q1003 RERA
                        NOSIG=
201204291620 METAR COR EGLL 291620Z 19018KT 9999 4000SE -SHRA FEW015CB
                        SCT027 BKN034 13/08 Q1003 RERA TEMPO
                        SHRA=
201204291550 METAR COR EGLL 291550Z 15012KT 9999 VCSH SCT034 BKN041 14/08
                        Q1002 NOSIG=
201204291520 METAR COR EGLL 291520Z 15011KT 9999 BKN037 14/08 Q1002 NOSIG=
201204291450 METAR COR EGLL 291450Z 12010KT 9999 SCT030 BKN036 14/09 Q1001
                        NOSIG=
201204291420 METAR COR EGLL 291420Z 09009KT 9999 SCT031 13/11 Q1002 NOSIG=
201204291350 METAR COR EGLL 291350Z 08011KT 9999 FEW012 BKN023 12/10 Q1002
                        NOSIG=
201204291320 METAR COR EGLL 291320Z 09010KT 9999 VCSH FEW008 BKN016 11/10
                        Q1002 NOSIG=
201204291250 METAR COR EGLL 291250Z 08010KT 2500 -RADZ BKN006 10/09 Q1001
                        BECMG 6000 NSW BKN012=
201204291220 METAR COR EGLL 291220Z 06013KT 4500 -RADZ BKN005 BKN010 09/08
                        Q1001 BECMG 7000 BKN010=
201204291150 METAR COR EGLL 291150Z 07019G29KT 3600 -RADZ BKN006 09/08
                        Q1001 RERA BECMG 6000 BKN010=
201204291120 METAR COR EGLL 291120Z 06018G29KT 3500 -RA BKN006 09/07 Q1000
                        BECMG 6000=
201204291050 METAR COR EGLL 291050Z 06020KT 3500 RA SCT006 BKN007 08/07
                        Q1001 BECMG 6000=
201204291020 METAR COR EGLL 291020Z 05020KT 9999 -RA FEW007 BKN008 08/07
                        Q1001 TEMPO 05020G30KT=
201204290950 METAR COR EGLL 290950Z 05019G29KT 9999 -RA FEW007 BKN008
                        08/07 Q1001 NOSIG=
201204290920 METAR COR EGLL 290920Z 04021G33KT 9000 -RA BKN008 08/06 Q1002
                        NOSIG=
201204290850 METAR COR EGLL 290850Z 04020G30KT 9999 -RA BKN009 08/06 Q1002
                        NOSIG=
201204290820 METAR COR EGLL 290820Z 04025KT 9999 -RA BKN009 BKN015 07/06
                        Q1002 NOSIG=
201204290750 METAR COR EGLL 290750Z 04025KT 9999 -RA SCT009 BKN011 07/06
                        Q1002 TEMPO BKN009=
201204290720 METAR COR EGLL 290720Z 05025G37KT 9000 RA FEW008 BKN010 07/05
                        Q1003 TEMPO BKN008=
201204290650 METAR COR EGLL 290650Z 04020G30KT 9000 RA SCT009 BKN010 07/05
                        Q1004 TEMPO BKN009=
201204290620 METAR COR EGLL 290620Z 05014KT 7000 RA FEW009 BKN011 07/05
                        Q1005 TEMPO 04018G28KT=
201204290550 METAR COR EGLL 290550Z 05012KT 8000 RA FEW008 BKN010 06/05
                        Q1005 TEMPO 04018G30KT BKN008=
201204290520 METAR COR EGLL 290520Z 05013KT 6000 RA FEW008 BKN010 06/05
                        Q1005 TEMPO 04018G30KT BKN007=
201204290450 METAR COR EGLL 290450Z 05013KT 010V080 9999 -RA FEW008 BKN010
                        06/05 Q1005 TEMPO 04018G30KT RA BKN007=
201204290420 METAR COR EGLL 290420Z 05013G25KT 9999 -RA FEW008 BKN010
                        06/05 Q1006 RERA TEMPO 4500 RA BKN007=
201204290350 METAR COR EGLL 290350Z 05013KT 7000 RA FEW007 BKN010 BKN018
                        06/05 Q1006 TEMPO 04018G32KT 4500
                        BKN008=
201204290320 METAR COR EGLL 290320Z 05013KT 9999 RA FEW005 BKN010 BKN018
                        06/05 Q1006 TEMPO 04018G32KT 4500
                        BKN008=
201204290250 METAR COR EGLL 290250Z 05013G23KT 010V070 9999 RA FEW005
                        SCT009 BKN010 06/05 Q1006 TEMPO 04018G33KT
                        4500 BKN008=
201204290220 METAR COR EGLL 290220Z 05013KT 7000 RA SCT009 BKN010 06/05
                        Q1007 TEMPO 04018G30KT 4500 BKN008=
201204290150 METAR COR EGLL 290150Z 05013KT 360V080 5000 RA SCT009 BKN011
                        06/04 Q1008 TEMPO 03017G28KT BKN008=
201204290120 METAR EGLL 290120Z AUTO 04013G24KT 350V070 8000 DZ FEW010///
                        BKN013/// 06/04 Q1008=
201204290050 METAR EGLL 290050Z AUTO 04012KT 360V070 6000 -RA BKN008///
                        BKN016/// 06/04 Q1009 RERA=
201204290020 METAR EGLL 290020Z AUTO 04012G22KT 6000 +DZ FEW010/// OVC014///
                        06/04 Q1010=
201204282350 METAR COR EGLL 282350Z 05010KT 9999 -RA BKN012 BKN018 06/04
                        Q1011 TEMPO 03017G28KT RA BKN009=
201204282320 METAR COR EGLL 282320Z 05011KT 010V080 9999 -RA BKN012 BKN018
                        06/04 Q1011 RERA TEMPO 03018G32KT
                        RA BKN008=
201204282250 METAR COR EGLL 282250Z 05011KT 020V080 9999 -RA FEW009 BKN012
                        BKN018 06/04 Q1011 TEMPO 03018G32KT
                        RA BKN008=
201204282220 METAR COR EGLL 282220Z 04013KT 010V070 9999 -RA FEW008 BKN010
                        BKN014 06/04 Q1012 TEMPO 03018G32KT
                        RA BKN008=
201204282150 METAR COR EGLL 282150Z 04012KT 360V070 9999 -RA FEW008 BKN010
                        BKN014 06/04 Q1012 TEMPO 03016G28KT
                        RA BKN008=
201204282120 METAR COR EGLL 282120Z 04013KT 9999 -RA BKN010 BKN014 06/04
                        Q1012 TEMPO 03016G28KT RA BKN008=
201204282050 METAR COR EGLL 282050Z 03012G22KT 360V070 9000 -RA BKN010
                        BKN014 06/04 Q1013 TEMPO 03018G32KT
                        RA BKN008=
201204282020 METAR COR EGLL 282020Z 03012KT 350V060 9000 -RA BKN010 BKN015
                        06/04 Q1013 TEMPO 03015G25KT RA BKN008=
201204281950 METAR COR EGLL 281950Z 03012KT 9999 -RA BKN012 BKN016 07/05
                        Q1013 TEMPO 03015G25KT RA BKN009=
201204281920 METAR COR EGLL 281920Z 04011KT 010V080 9999 -RA BKN013 SCT016
                        07/05 Q1013 TEMPO 03016G26KT RA BKN009=
201204281850 METAR COR EGLL 281850Z 04013KT 360V070 9999 -RADZ BKN012
                        BKN017 07/05 Q1014 TEMPO 03016G26KT
                        RA BKN009=
201204281820 METAR COR EGLL 281820Z 04013KT 360V070 9000 -RADZ BKN011
                        BKN017 07/05 Q1014 TEMPO 03016G26KT
                        BKN009=
201204281750 METAR COR EGLL 281750Z 04012KT 9999 -RADZ BKN012 BKN017 08/06
                        Q1014 RERA REDZ TEMPO 04018G30KT=
201204281720 METAR COR EGLL 281720Z 04010KT 9000 -RADZ BKN010 BKN016 08/06
                        Q1015 RERA REDZ TEMPO 05018G30KT
                        BKN007=
201204281650 METAR COR EGLL 281650Z 05011KT 9000 RADZ BKN011 BKN018 09/07
                        Q1015 TEMPO 04018G30KT BKN008=
201204281620 METAR COR EGLL 281620Z 05012KT 7000 -RADZ SCT011 BKN019 09/07
                        Q1015 TEMPO 05015G25KT BKN008=
201204281550 METAR COR EGLL 281550Z 05010KT 010V070 6000 RADZ BKN009 BKN017
                        09/07 Q1015 TEMPO 04015G25KT NSW
                        SCT010 BKN020=
201204281520 METAR COR EGLL 281520Z 05009KT 010V080 6000 -RADZ SCT009
                        BKN018 09/07 Q1015 TEMPO 05015G25KT
                        4000 RADZ BKN008=
201204281450 METAR COR EGLL 281450Z 04009KT 360V090 9999 -RA SCT013 BKN022
                        09/07 Q1016 TEMPO 04015G25KT BKN012=
201204281420 METAR COR EGLL 281420Z 05009KT 010V080 9999 -RA SCT013 BKN019
                        09/07 Q1015 TEMPO 04015G25KT=
201204281350 METAR COR EGLL 281350Z 04011KT 010V070 9999 -RA SCT012 BKN017
                        10/07 Q1015 TEMPO 04015G25KT=
201204281320 METAR COR EGLL 281320Z 04009KT 360V080 9999 -RA SCT009 BKN014
                        09/07 Q1016 TEMPO 04015G25KT SCT012
                        BKN020=
201204281250 METAR COR EGLL 281250Z 04009KT 360V080 9999 -RA SCT009 BKN014
                        09/07 Q1016 TEMPO 04015G25KT SCT012
                        BKN020=
201204281220 METAR COR EGLL 281220Z 03007KT 350V070 9999 -RA FEW008 BKN012
                        09/07 Q1016 TEMPO SCT012 BKN018=
201204281150 METAR COR EGLL 281150Z 03008KT 360V070 9000 RA SCT008 BKN012
                        09/08 Q1016 TEMPO NSW SCT012 BKN018=
201204281120 METAR COR EGLL 281120Z 02007KT 330V050 6000 RADZ FEW008 SCT011
                        BKN016 09/08 Q1016 TEMPO BKN012=
201204281050 METAR COR EGLL 281050Z 02008KT 340V060 7000 -RA SCT008 BKN010
                        10/08 Q1016 BECMG SCT010 BKN016=
201204281020 METAR COR EGLL 281020Z 02006KT 350V060 7000 -RA SCT007 BKN013
                        10/08 Q1016 TEMPO SCT010 BKN015=
201204280950 METAR COR EGLL 280950Z 03007KT 350V060 6000 -DZ SCT007 BKN013
                        09/08 Q1016 TEMPO BKN007=
201204280920 METAR COR EGLL 280920Z 03006KT 350V070 6000 -RA FEW007 BKN008
                        09/08 Q1016 RERA TEMPO SCT007 BKN015=
201204280850 METAR COR EGLL 280850Z 03007KT 360V060 5000 -RA FEW007 BKN008
                        09/08 Q1015 TEMPO 3500 RADZ=
201204280820 METAR COR EGLL 280820Z 03006KT 360V060 6000 -RA FEW008 SCT011
                        BKN014 09/08 Q1015 TEMPO BKN008=
201204280750 METAR COR EGLL 280750Z 05007KT 7000 -RA SCT006 BKN007 09/08
                        Q1016 TEMPO 4000 RA=
201204280720 METAR COR EGLL 280720Z 04006KT 340V080 4000 -RADZ FEW005
                        OVC006 09/07 Q1015 TEMPO 2000=
201204280650 METAR COR EGLL 280650Z 05005KT 360V080 6000 -RA FEW005 OVC006
                        09/07 Q1015 TEMPO 4000 RA=
201204280620 METAR COR EGLL 280620Z 04007KT 6000 -RA FEW004 OVC006 09/07
                        Q1014 TEMPO 4000 RA=
201204280550 METAR COR EGLL 280550Z 04007KT 360V090 6000 -RA SCT005 OVC006
                        08/07 Q1014 TEMPO 4000 RA BKN005=
201204280520 METAR COR EGLL 280520Z 04007KT 010V070 6000 -RA OVC005 08/07
                        Q1015 TEMPO 4000 RA SCT002 BKN004=
201204280450 METAR COR EGLL 280450Z 05007KT 010V070 7000 -RA OVC007 09/07
                        Q1015 TEMPO 4000 RA=
201204280420 METAR COR EGLL 280420Z 04006KT 360V070 7000 -RA FEW007 BKN008
                        09/07 Q1015 TEMPO 4000 RA=
201204280350 METAR COR EGLL 280350Z 03007KT 360V070 9000 SCT010 09/07
                        Q1015 TEMPO 4000 -RADZ BR BKN008=
201204280320 METAR COR EGLL 280320Z 03007KT 360V070 8000 SCT008 09/07
                        Q1014 TEMPO 4000 -RADZ BR BKN009=
201204280250 METAR EGLL 280250Z AUTO 04006KT 7000 -DZ FEW006/// 09/07
                        Q1014=
201204280220 METAR COR EGLL 280220Z 05005KT 010V080 8000 FEW010 09/08
                        Q1015 TEMPO 4000 -RADZ BR BKN009=
201204280150 METAR COR EGLL 280150Z 04006KT 010V070 7000 FEW010 09/08
                        Q1015 TEMPO 4000 -RADZ BR BKN009=
201204280120 METAR EGLL 280120Z AUTO 04005KT 8000 NCD 09/08 Q1015=
201204280050 METAR EGLL 280050Z AUTO 03004KT 360V060 9000 NCD 10/08 Q1015=
201204280020 METAR EGLL 280020Z AUTO 04004KT 360V060 9000 NCD 10/08 Q1015=
201204272350 METAR EGLL 272350Z 04004KT CAVOK 10/08 Q1015=
201204272320 METAR EGLL 272320Z 04004KT CAVOK 09/07 Q1015=
201204272250 METAR COR EGLL 272250Z 04004KT CAVOK 10/07 Q1015 NOSIG=
201204272220 METAR COR EGLL 272220Z 06004KT CAVOK 10/07 Q1015 NOSIG=
201204272150 METAR COR EGLL 272150Z 04004KT 9999 FEW030 11/07 Q1015 NOSIG=
201204272120 METAR COR EGLL 272120Z 05004KT 9999 FEW030 11/07 Q1015 NOSIG=
201204272050 METAR COR EGLL 272050Z 04005KT 9999 SCT032 11/07 Q1014 NOSIG=
201204272020 METAR COR EGLL 272020Z VRB03KT 9999 FEW040 12/05 Q1014 NOSIG=
201204271950 METAR COR EGLL 271950Z 19006KT 140V260 9999 FEW040 12/05
                        Q1014 NOSIG=
201204271920 METAR COR EGLL 271920Z 19006KT 160V240 9999 SCT046 12/06
                        Q1013 NOSIG=
201204271850 METAR COR EGLL 271850Z 23008KT 9999 FEW045 13/05 Q1013 NOSIG=
201204271820 METAR COR EGLL 271820Z 24009KT 9999 FEW045 14/05 Q1013 NOSIG=
201204271750 METAR COR EGLL 271750Z 22008KT 180V250 9999 SCT042 14/05
                        Q1013 NOSIG=
201204271720 METAR COR EGLL 271720Z 22008KT 180V260 9999 SCT042 14/05
                        Q1012 NOSIG=
201204271650 METAR COR EGLL 271650Z 23009KT 170V260 9999 FEW040 SCT047
                        14/06 Q1012 NOSIG=
201204271620 METAR COR EGLL 271620Z 21011KT 180V250 9999 FEW037 SCT048
                        14/06 Q1012 NOSIG=
201204271550 METAR COR EGLL 271550Z 21012KT 170V250 9999 SCT030 SCT040
                        15/07 Q1012 NOSIG=
201204271520 METAR COR EGLL 271520Z 21012KT 170V250 9999 SCT030 SCT038
                        14/07 Q1012 NOSIG=
201204271450 METAR COR EGLL 271450Z 20011KT 170V240 9999 SCT036CB 14/09
                        Q1012 NOSIG=
201204271420 METAR COR EGLL 271420Z 20012KT 180V240 9999 FEW010 SCT024CB
                        13/08 Q1012 NOSIG=
201204271350 METAR COR EGLL 271350Z 22009KT 180V240 9999 VCSH SCT016CB
                        SCT033 13/09 Q1012 NOSIG=
201204271320 METAR COR EGLL 271320Z 21008KT 9999 -SHRA SCT016CB SCT030
                        11/09 Q1011 RERA NOSIG=
201204271250 METAR COR EGLL 271250Z 25011KT 9000 VCSH SCT018CB BKN030CB
                        12/08 Q1011 TEMPO 4500 SHRA BKN014CB=
201204271220 METAR COR EGLL 271220Z 20012KT 5000 SHRA BKN017CB 13/08 Q1011
                        BECMG 9999 NSW=
201204271150 METAR COR EGLL 271150Z 20012KT 170V240 9999 VCSH FEW021 SCT031CB
                        13/09 Q1011 NOSIG=
201204271120 METAR COR EGLL 271120Z 20013KT 9000 VCSH FEW019 BKN022CB
                        13/08 Q1010 NOSIG=
201204271050 METAR COR EGLL 271050Z 20013KT 9999 SCT024CB SCT039 12/08
                        Q1010 NOSIG=
201204271020 METAR COR EGLL 271020Z 20011KT 9999 SCT022CB 12/08 Q1010
                        NOSIG=
201204270950 METAR COR EGLL 270950Z 20010KT 9999 VCSH SCT043CB BKN048CB
                        11/08 Q1010 NOSIG=
201204270920 METAR COR EGLL 270920Z 22009KT 9000 VCSH FEW011 SCT023CB
                        BKN028CB 11/08 Q1010 RERA NOSIG=
201204270850 METAR COR EGLL 270850Z 21009KT 180V290 7000 SHRA FEW011 BKN024CB
                        10/08 Q1010 TEMPO NSW=
201204270820 METAR COR EGLL 270820Z 21008KT 9999 6000SE VCSH FEW029 SCT036CB
                        10/08 Q1009 RESHRA NOSIG=
201204270750 METAR COR EGLL 270750Z 22010KT 190V250 9999 5000S SHRA FEW022
                        SCT029CB 10/08 Q1009 TEMPO 3500 +SHRA
                        BKN014CB=
201204270720 METAR COR EGLL 270720Z 23012KT 9999 6000SW VCSH FEW022 SCT033CB
                        10/07 Q1009 RESHRA TEMPO 3500 +SHRA
                        BKN014CB=
201204270650 METAR COR EGLL 270650Z 23011KT 9000 4000SE SHRA SCT024CB
                        SCT035 09/07 Q1008 TEMPO 9999 -SHRA=
201204270620 METAR COR EGLL 270620Z 22008KT 180V250 9999 5000SW VCSH SCT018CB
                        10/07 Q1008 TEMPO 4000 +SHRA BKN014CB=
201204270550 METAR COR EGLL 270550Z 21009KT 190V260 9999 FEW017 BKN020
                        10/06 Q1007 TEMPO SHRA=
201204270520 METAR COR EGLL 270520Z 20010KT 9999 FEW019 SCT031 09/06 Q1007
                        TEMPO SHRA=
201204270450 METAR COR EGLL 270450Z 21008KT 9999 SCT019 09/06 Q1007 NOSIG=
201204270420 METAR COR EGLL 270420Z 20009KT 9999 SCT021 09/06 Q1006 TEMPO
                        SHRA=
201204270350 METAR COR EGLL 270350Z 21008KT 9999 FEW020 10/07 Q1006 TEMPO
                        SHRA=
201204270320 METAR COR EGLL 270320Z 22011KT 9999 FEW020 10/06 Q1006 TEMPO
                        SHRA BKN014=
201204270250 METAR COR EGLL 270250Z 22011KT 9999 FEW020 10/06 Q1006 NOSIG=
201204270220 METAR COR EGLL 270220Z 22011KT 9999 FEW020 10/06 Q1005 NOSIG=
201204270150 METAR COR EGLL 270150Z 21009KT 9999 FEW023 10/06 Q1005 NOSIG=
201204270120 METAR EGLL 270120Z AUTO 22010KT 9999 BKN021/// 10/06 Q1005=
201204270050 METAR EGLL 270050Z AUTO 23013KT 9999 BKN022/// 10/06 Q1004=
201204270020 METAR EGLL 270020Z AUTO 22010KT 9999 FEW021/// BKN026///
                        10/06 Q1004=
201204262350 METAR COR EGLL 262350Z 22012G22KT 9999 FEW022 BKN029 10/06
                        Q1004 NOSIG=
201204262320 METAR COR EGLL 262320Z 22011KT 9999 FEW022 SCT027 10/06 Q1004
                        NOSIG=
201204262250 METAR COR EGLL 262250Z 22013KT 9999 SCT023 10/06 Q1003 NOSIG=
201204262220 METAR COR EGLL 262220Z 22014G24KT 9999 SCT023 10/06 Q1003
                        NOSIG=
201204262150 METAR COR EGLL 262150Z 23016KT 9999 BKN022 11/06 Q1003 NOSIG=
201204262120 METAR COR EGLL 262120Z 23018G29KT 9999 FEW023 SCT027 11/06
                        Q1003 BECMG 21012KT=
201204262050 METAR COR EGLL 262050Z 22015G25KT 9999 FEW027 SCT032 11/06
                        Q1002 NOSIG=
201204262020 METAR COR EGLL 262020Z 21013KT 9999 FEW027 SCT034 11/06 Q1002
                        NOSIG=
201204261950 METAR COR EGLL 261950Z 21011KT 180V250 9999 FEW031 SCT037
                        11/05 Q1001 NOSIG=
201204261920 METAR COR EGLL 261920Z 22015KT 9999 FEW033 SCT044 11/05 Q1001
                        NOSIG=
201204261850 METAR COR EGLL 261850Z 22015KT 9999 FEW030 SCT039 12/05 Q1000
                        NOSIG=
201204261820 METAR COR EGLL 261820Z 22017KT 9999 FEW037 12/05 Q1000 NOSIG=
201204261750 METAR COR EGLL 261750Z 23021KT 9999 SCT036 13/05 Q1000 NOSIG=
201204261720 METAR COR EGLL 261720Z 21017KT 9999 SCT037 SCT044 13/04 Q0999
                        NOSIG=
201204261650 METAR EGLL 261650Z 22020G34KT 9999 FEW036 SCT040 14/05 Q0999=
201204261620 METAR COR EGLL 261620Z 22018G30KT 190V250 9999 FEW032 SCT038
                        13/05 Q0998 NOSIG=
201204261550 METAR COR EGLL 261550Z 23022G32KT 9999 SCT032CB SCT038 14/06
                        Q0998 NOSIG=
201204261520 METAR COR EGLL 261520Z 22025G37KT 9999 SCT036CB SCT043 14/05
                        Q0998 NOSIG=
201204261450 METAR COR EGLL 261450Z 22020G37KT 9999 FEW036 SCT042CB 14/06
                        Q0997 NOSIG=
201204261420 METAR COR EGLL 261420Z 22020G35KT 9999 FEW036 SCT040 14/05
                        Q0997 NOSIG=
201204261350 METAR COR EGLL 261350Z 22022G33KT 9999 SCT033CB SCT040 14/05
                        Q0997 NOSIG=
201204261320 METAR COR EGLL 261320Z 22023G36KT 9999 SCT028CB SCT043 14/07
                        Q0996 TEMPO 4500 SHRA=
201204261250 METAR COR EGLL 261250Z 21018G29KT 9999 SCT028CB SCT047 13/07
                        Q0996 NOSIG=
201204261220 METAR COR EGLL 261220Z 22022G36KT 9999 FEW022 SCT030 13/08
                        Q0995 NOSIG=
201204261150 METAR COR EGLL 261150Z 22018KT 9999 SCT022 SCT030 12/08 Q0995
                        RESHRA NOSIG=
201204261120 METAR COR EGLL 261120Z 22018KT 6000 2700SW SHRA SCT022 SCT027
                        11/08 Q0995 BECMG 9999 NSW=
201204261050 METAR COR EGLL 261050Z 20017G30KT 9999 VCSH SCT020 SCT025
                        13/07 Q0994 TEMPO 4500 +SHRA BKN014CB=
201204261020 METAR COR EGLL 261020Z 21015G26KT 9999 FEW020 SCT025 12/08
                        Q0994 TEMPO SHRA=
201204260950 METAR COR EGLL 260950Z 22017G27KT 9999 SCT022 12/07 Q0993
                        NOSIG=
201204260920 METAR EGLL 260920Z 21014G26KT 9999 SCT022 SCT048 11/07 Q0993=
201204260850 METAR COR EGLL 260850Z 20015KT 9999 FEW016 SCT024 11/07 Q0992
                        TEMPO 4500 +SHRA BKN014CB=
201204260820 METAR COR EGLL 260820Z 21015G27KT 160V240 9999 FEW018 SCT020
                        11/07 Q0992 NOSIG=
201204260750 METAR COR EGLL 260750Z 20014KT 9999 VCSH SCT020 SCT042 10/07
                        Q0992 NOSIG=
201204260720 METAR COR EGLL 260720Z 20012KT 9999 VCSH FEW015 SCT035 09/07
                        Q0991 TEMPO SHRA=
201204260650 METAR COR EGLL 260650Z 20012KT 180V250 9999 VCSH FEW015 SCT034
                        09/07 Q0990 NOSIG=
201204260620 METAR COR EGLL 260620Z 21012KT 9999 -RA SCT015 SCT034 BKN042
                        09/07 Q0990 RERA TEMPO SHRA BKN014=
201204260550 METAR COR EGLL 260550Z 21012KT 9999 RA SCT015 BKN023 09/07
                        Q0989 TEMPO NSW=
201204260520 METAR COR EGLL 260520Z 22009KT 9999 FEW018 SCT024 09/07 Q0989
                        TEMPO 20016G28KT 4000 SHRA BKN014CB=
201204260450 METAR COR EGLL 260450Z 21011KT 9999 FEW018 SCT030 09/07 Q0988
                        TEMPO 20016G28KT 4000 SHRA BKN012=
201204260420 METAR COR EGLL 260420Z 21010KT 9999 SCT018 BKN043 09/07 Q0987
                        TEMPO SHRA=
201204260350 METAR COR EGLL 260350Z 22012KT 9999 FEW020 BKN044 09/07 Q0986
                        TEMPO SHRA=
201204260320 METAR COR EGLL 260320Z 20014KT 9999 SCT014 SCT020 09/07 Q0985
                        NOSIG=
201204260250 METAR COR EGLL 260250Z 19016KT 9999 FEW011 SCT014 09/07 Q0984
                        RERA NOSIG=
201204260220 METAR COR EGLL 260220Z 17011KT 9000 -SHRA SCT014 BKN022 09/07
                        Q0984 TEMPO SHRA=
201204260150 METAR COR EGLL 260150Z 18010KT 9999 -SHRA SCT018 BKN022 09/07
                        Q0985 TEMPO SHRA=
201204260120 METAR EGLL 260120Z AUTO 18010KT 9000 -RA SCT018/// SCT024///
                        09/07 Q0985 RERA=
201204260050 METAR EGLL 260050Z AUTO 20010KT 9999 RA FEW019/// SCT035///
                        09/07 Q0985 RERA=
201204260020 METAR EGLL 260020Z AUTO 20016KT 160V230 7000 RA FEW015///
                        BKN018/// BKN027/// 10/07 Q0984=
201204252350 METAR COR EGLL 252350Z 18014KT 8000 -SHRA SCT020 BKN025 10/07
                        Q0984 TEMPO SHRA=
201204252320 METAR COR EGLL 252320Z 18012KT 9000 -SHRA FEW015 SCT020 BKN027
                        10/07 Q0984 TEMPO 7000 SHRA=
201204252250 METAR COR EGLL 252250Z 18014KT 9999 BKN023 BKN029 11/07 Q0984
                        TEMPO 6000 SHRA=
201204252220 METAR COR EGLL 252220Z 19015KT 160V240 9999 BKN022 BKN026
                        11/07 Q0984 TEMPO SHRA=
201204252150 METAR COR EGLL 252150Z 18013KT 160V230 9999 FEW019 SCT022
                        BKN026 10/07 Q0984 TEMPO SHRA=
201204252120 METAR EGLL 252120Z 18014KT 160V230 9999 FEW021 BKN026 10/07
                        Q0984=
201204252050 METAR COR EGLL 252050Z 19014KT 160V220 9999 BKN022 10/07
                        Q0984 NOSIG=
201204252020 METAR COR EGLL 252020Z 18013KT 150V240 9999 SCT022 SCT030
                        10/06 Q0984 NOSIG=
201204251950 METAR COR EGLL 251950Z 19014KT 160V230 9999 SCT022 SCT030
                        10/07 Q0984 NOSIG=
201204251920 METAR COR EGLL 251920Z 18015G25KT 150V230 9999 FEW019 SCT025
                        10/07 Q0983 TEMPO 4000 +SHRA=
201204251850 METAR COR EGLL 251850Z 18016KT 9999 SCT022 11/07 Q0983 TEMPO
                        4000 +SHRA=
201204251820 METAR COR EGLL 251820Z 18017G27KT 160V220 9999 -SHRA FEW020
                        SCT026 11/07 Q0983 21020G30KT 4000
                        TSRA SHRA BKN014CB=
201204251750 METAR COR EGLL 251750Z 19019KT 9999 FEW018 SCT038 11/07 Q0982
                        TEMPO 21020G30KT 4000 TSRA SHRA BKN014CB=
201204251720 METAR EGLL 251720Z 19019G31KT 9999 -SHRA FEW018 SCT034 BKN040
                        12/07 Q0982=
201204251650 METAR COR EGLL 251650Z 17015KT 9999 VCSH FEW020 BKN048 12/07
                        Q0982 TEMPO 21015G30KT 4000 TSRA
                        SHRA BKN014CB=
201204251620 METAR COR EGLL 251620Z 17015KT 9999 -SHRA FEW028 SCT048 12/08
                        Q0982 NOSIG=
201204251550 METAR COR EGLL 251550Z 17014KT 9999 -SHRA SCT033 SCT042 12/09
                        Q0983 TEMPO 19015G28KT 3000 TSRA
                        +SHRA BKN014CB=
201204251520 METAR COR EGLL 251520Z 17012KT 9999 -SHRA SCT033 SCT046 12/09
                        Q0983 TEMPO 19015G28KT 3000 TSRAGR
                        +SHRA BKN014CB=
201204251450 METAR COR EGLL 251450Z 15011KT 9999 VCSH SCT024 SCT041 11/09
                        Q0983 RESHRA NOSIG=
201204251420 METAR COR EGLL 251420Z 16013KT 9999 VCSH SCT021CB SCT032
                        11/09 Q0983 RESHRA TEMPO 4000 TSRAGR
                        BKN014CB=
201204251350 METAR COR EGLL 251350Z 15012KT 9999 6000SW SHRA SCT015CB
                        SCT033 11/08 Q0983 TEMPO 19022G36KT
                        3000 +TSRAGR BKN014CB=
201204251320 METAR COR EGLL 251320Z 14009KT 9999 -SHRA SCT022 SCT039 10/07
                        Q0984 RESHRA TEMPO 19022G36KT 3000
                        +TSRAGR BKN014CB=
201204251250 METAR COR EGLL 251250Z 17007KT 9999 SCT020 SCT034 09/07 Q0984
                        RETS RESHRA TEMPO 18022G36KT 3000
                        +TSRAGR BKN014CB=
201204251220 METAR COR EGLL 251220Z 17012KT 9999 4000SW -SHRA VCTS SCT030CB
                        SCT042 09/06 Q0984 TEMPO 18022G36KT
                        3000 +TSRAGR BKN014CB=
201204251150 METAR EGLL 251150Z 20012KT 8000 3500NW -SHRA FEW019 BKN030
                        09/07 Q0984 RESHRA=
201204251120 METAR COR EGLL 251120Z 17019KT 9999 4000SW VCSH FEW011 SCT018
                        BKN027 11/08 Q0984 TEMPO 18022G36KT
                        3000 +TSRAGR BKN014CB=
201204251050 METAR COR EGLL 251050Z 16015KT 9999 BKN011 BKN018 09/07 Q0984
                        RERA TEMPO 18022G36KT 3000 +TSRAGR
                        BKN014CB=
201204251020 METAR COR EGLL 251020Z 15013KT 7000 RA SCT011 BKN013 09/07
                        Q0984 BECMG NSW SCT014=
201204250950 METAR COR EGLL 250950Z 13015KT 7000 RA SCT013 BKN016 08/07
                        Q0985 BECMG 15014G28KT NSW=
201204250920 METAR COR EGLL 250920Z 13014KT 9999 -RA BKN013 BKN021 08/06
                        Q0985 RERA BECMG 15014G28KT NSW SCT014=
201204250850 METAR COR EGLL 250850Z 12015KT 9999 RA BKN014 BKN018 07/06
                        Q0986 BECMG 17013G28KT NSW SCT014=
201204250820 METAR COR EGLL 250820Z 12016KT 9999 RA BKN014 BKN018 07/05
                        Q0987 RERA TEMPO 14016G30KT 4000
                        +RA=
201204250750 METAR COR EGLL 250750Z 12014KT 9999 -RA SCT015 BKN018 07/05
                        Q0988 TEMPO 16015G30KT 4000 +RA BKN012=
201204250720 METAR COR EGLL 250720Z 12016KT 9999 -RA BKN015 BKN020 06/04
                        Q0988 RERA TEMPO 15016G30KT BKN014=
201204250650 METAR COR EGLL 250650Z 12015KT 9999 RA BKN015 BKN023 06/04
                        Q0989 TEMPO 15016G30KT BKN012=
201204250620 METAR COR EGLL 250620Z 14015G26KT 110V170 9999 RA SCT012
                        BKN020 07/04 Q0990 RERA TEMPO BKN012=
201204250550 METAR COR EGLL 250550Z 14017KT 8000 RA SCT012 BKN020 07/05
                        Q0990 TEMPO BKN012=
201204250520 METAR COR EGLL 250520Z 13014KT 8000 RA SCT020 BKN025 08/06
                        Q0990 RERA TEMPO BKN014=
201204250450 METAR COR EGLL 250450Z 12013KT 8000 -RA BKN014 08/06 Q0991
                        TEMPO SCT014=
201204250420 METAR COR EGLL 250420Z 12011KT 9999 SCT014 08/06 Q0992 NOSIG=
201204250350 METAR COR EGLL 250350Z 12013KT 9999 FEW017 SCT026 08/06 Q0992
                        NOSIG=
201204250320 METAR COR EGLL 250320Z 11010KT 9999 FEW033 SCT041 08/06 Q0993
                        NOSIG=
201204250250 METAR COR EGLL 250250Z 12010KT 9999 -RA FEW012 SCT045 07/06
                        Q0994 NOSIG=
201204250220 METAR COR EGLL 250220Z 12009KT CAVOK 07/05 Q0995 NOSIG=
201204250150 METAR COR EGLL 250150Z 10007KT CAVOK 06/05 Q0995 NOSIG=
201204250120 METAR EGLL 250120Z AUTO 11006KT 9999 NCD 07/05 Q0996=
201204250050 METAR EGLL 250050Z AUTO 15007KT 9999 NCD 07/05 Q0997=
201204250020 METAR EGLL 250020Z AUTO 15005KT 9999 NCD 06/04 Q0997=
201204242350 METAR COR EGLL 242350Z 16005KT CAVOK 06/04 Q0997 NOSIG=
201204242320 METAR COR EGLL 242320Z 16004KT CAVOK 06/04 Q0998 NOSIG=
201204242250 METAR COR EGLL 242250Z 17005KT 160V220 CAVOK 07/04 Q0998
                        NOSIG=
201204242220 METAR COR EGLL 242220Z 19005KT 160V230 CAVOK 07/04 Q0998
                        NOSIG=
201204242150 METAR COR EGLL 242150Z 21006G16KT 160V250 CAVOK 07/04 Q0999
                        NOSIG=
201204242120 METAR COR EGLL 242120Z 21006KT 160V260 CAVOK 08/04 Q0999
                        NOSIG=
201204242050 METAR COR EGLL 242050Z 23007KT CAVOK 08/04 Q0999 NOSIG=
201204242020 METAR COR EGLL 242020Z 22008KT 190V260 CAVOK 09/04 Q0999
                        NOSIG=
201204241950 METAR COR EGLL 241950Z 23009KT CAVOK 10/04 Q0999 NOSIG=
201204241920 METAR COR EGLL 241920Z 23007KT CAVOK 11/03 Q0999 NOSIG=
201204241850 METAR COR EGLL 241850Z 28006KT CAVOK 11/03 Q0999 NOSIG=
201204241820 METAR COR EGLL 241820Z 28008KT CAVOK 11/04 Q0999 NOSIG=
201204241750 METAR COR EGLL 241750Z 28011KT CAVOK 11/04 Q0999 NOSIG=
201204241720 METAR COR EGLL 241720Z 29006KT CAVOK 12/01 Q0999 NOSIG=
201204241650 METAR COR EGLL 241650Z 29007KT 250V320 9999 SCT040 13/01
                        Q0999 NOSIG=
201204241620 METAR COR EGLL 241620Z 31004KT 250V360 9999 SCT040 13/01
                        Q0999 TEMPO SHRA=
201204241550 METAR COR EGLL 241550Z 27009KT CAVOK 14/01 Q0999 TEMPO SHRA=
201204241520 METAR COR EGLL 241520Z 30007KT 270V340 9999 FEW044CB 13/02
                        Q0999 TEMPO SHRA=
201204241450 METAR COR EGLL 241450Z 31008KT 280V340 9999 FEW041CB SCT046
                        12/02 Q0999 TEMPO SHRA=
201204241420 METAR COR EGLL 241420Z 29010KT 260V330 9999 SCT039 12/02
                        Q0999 TEMPO SHRA=
201204241350 METAR COR EGLL 241350Z 31005KT 260V350 CAVOK 12/03 Q0999
                        TEMPO SHRA=
201204241320 METAR COR EGLL 241320Z 34005KT 280V020 9999 -SHRA SCT036
                        SCT041 11/03 Q0999 TEMPO SHRA=
201204241250 METAR COR EGLL 241250Z 31006KT 9999 FEW044 11/03 Q0999 TEMPO
                        SHRA=
201204241220 METAR COR EGLL 241220Z 34006KT 300V020 9999 SCT030 BKN036
                        12/03 Q0999 NOSIG=
201204241150 METAR COR EGLL 241150Z 33008KT 300V010 9999 SCT033 BKN045
                        11/03 Q0999 NOSIG=
201204241120 METAR COR EGLL 241120Z 35008KT 290V030 9999 FEW030 SCT037
                        12/02 Q0998 NOSIG=
201204241050 METAR COR EGLL 241050Z 34008KT 290V020 9999 SCT032 11/03
                        Q0998 NOSIG=
201204241020 METAR COR EGLL 241020Z 34008KT 310V010 9999 SCT028 10/03
                        Q0998 NOSIG=
201204240950 METAR COR EGLL 240950Z 32007KT 290V010 9000 -DZ FEW025 BKN034
                        BKN047 09/04 Q0998 NOSIG=
201204240920 METAR COR EGLL 240920Z 33008KT 300V010 9000 -DZ FEW024 BKN042
                        08/03 Q0998 NOSIG=
201204240850 METAR COR EGLL 240850Z 32011KT 290V350 9999 FEW020 BKN048
                        08/03 Q0998 NOSIG=
201204240820 METAR COR EGLL 240820Z 33010KT 300V010 9999 FEW020 SCT025
                        BKN038 08/04 Q0997 NOSIG=
201204240750 METAR COR EGLL 240750Z 33009KT 300V360 9999 FEW018 BKN035
                        08/04 Q0997 NOSIG=
201204240720 METAR COR EGLL 240720Z 33009KT 300V020 9999 FEW018 BKN030
                        08/04 Q0997 NOSIG=
201204240650 METAR COR EGLL 240650Z 35008KT 300V030 9999 FEW018 SCT030
                        08/04 Q0996 NOSIG=
201204240620 METAR COR EGLL 240620Z 34007KT 300V020 9999 -RA SCT018 BKN021
                        08/05 Q0996 TEMPO BKN012=
201204240550 METAR COR EGLL 240550Z 34007KT 300V010 9999 SCT013 BKN019
                        07/05 Q0996 TEMPO BKN012=
201204240520 METAR COR EGLL 240520Z 35005KT 310V030 9999 BKN015 07/05
                        Q0995 TEMPO BKN012=
201204240450 METAR COR EGLL 240450Z 36007KT 330V040 9999 SCT012 BKN019
                        07/05 Q0995 TEMPO BKN010=
201204240420 METAR COR EGLL 240420Z 34006KT 310V010 9999 BKN011 07/05
                        Q0995 TEMPO SCT012 BKN025=
201204240350 METAR COR EGLL 240350Z 36007KT 320V030 9999 SCT014 BKN019
                        07/05 Q0994 TEMPO BKN012=
201204240320 METAR COR EGLL 240320Z 35007KT 320V020 9000 -RA SCT011 BKN019
                        07/05 Q0994 TEMPO BKN008=
201204240250 METAR COR EGLL 240250Z 36007KT 9000 -RA BKN009 BKN015 07/05
                        Q0994 TEMPO SCT012 BKN020=
201204240220 METAR COR EGLL 240220Z 36006KT 320V030 8000 -RA SCT010 BKN015
                        07/05 Q0994 TEMPO SCT007 BKN012=
201204240150 METAR COR EGLL 240150Z 36007KT 320V030 8000 -RA SCT010 BKN017
                        07/05 Q0994 TEMPO SCT007 BKN012=
201204240120 METAR EGLL 240120Z AUTO 36007KT 330V030 9999 -RA BKN009///
                        BKN014/// 07/06 Q0993=
201204240050 METAR EGLL 240050Z AUTO 36007KT 330V030 9999 -RA OVC008///
                        07/06 Q0993=
201204240020 METAR EGLL 240020Z AUTO 01008KT 9000 -RA SCT009/// BKN014///
                        07/06 Q0993=
201204232350 METAR COR EGLL 232350Z 01008KT 8000 -RA BKN009 07/06 Q0993
                        RERA BECMG SCT007 BKN014=
201204232320 METAR COR EGLL 232320Z 01006KT 340V040 8000 -RA BKN009 07/06
                        Q0993 TEMPO SCT007 BKN015=
201204232250 METAR COR EGLL 232250Z 02005KT 330V050 9999 BKN010 08/06
                        Q0992 TEMPO SCT007 BKN025=
201204232220 METAR COR EGLL 232220Z 02006KT 330V050 9999 SCT009 BKN015
                        08/06 Q0992 TEMPO SCT007 BKN012=
201204232150 METAR COR EGLL 232150Z 02006KT 340V070 9999 SCT009 BKN019
                        08/06 Q0992 TEMPO SCT007 BKN012=
201204232120 METAR COR EGLL 232120Z 03007KT 350V070 9000 BKN008 07/06
                        Q0992 TEMPO SCT008 BKN020=
201204232050 METAR COR EGLL 232050Z 04006KT 360V090 9999 BKN009 08/06
                        Q0991 TEMPO BKN012=
201204232020 METAR COR EGLL 232020Z 03007KT 350V070 9999 SCT010 BKN025
                        08/06 Q0991 TEMPO BKN010=
201204231950 METAR COR EGLL 231950Z 04006KT 010V070 9999 SCT014 BKN026
                        08/06 Q0991 TEMPO BKN011=
201204231920 METAR COR EGLL 231920Z 05006KT 010V080 9999 SCT016 BKN023
                        08/06 Q0991 NOSIG=
201204231850 METAR COR EGLL 231850Z 04006KT 010V070 9999 SCT012 BKN021
                        08/06 Q0990 NOSIG=
201204231820 METAR COR EGLL 231820Z 05007KT 010V080 9999 FEW013 SCT023
                        BKN026 08/06 Q0990 NOSIG=
201204231750 METAR COR EGLL 231750Z 06007KT 020V080 9999 FEW012 SCT020
                        BKN031 08/06 Q0990 NOSIG=
201204231720 METAR COR EGLL 231720Z 07008KT 9999 -RA FEW010 BKN013 08/05
                        Q0990 NOSIG=
201204231650 METAR COR EGLL 231650Z 07009KT 9999 -RA SCT013 BKN022 08/06
                        Q0990 TEMPO BKN013=
201204231620 METAR COR EGLL 231620Z 07009KT 9999 -RA FEW021 BKN023 BKN032
                        08/06 Q0990 NOSIG=
201204231550 METAR EGLL 231550Z 08012KT 9999 SCT016 BKN024 08/05 Q0990=
201204231520 METAR COR EGLL 231520Z 09012KT 9999 SCT018 BKN021 08/05 Q0990
                        NOSIG=
201204231450 METAR COR EGLL 231450Z 09010KT 9999 SCT018 BKN021 BKN031
                        08/05 Q0991 NOSIG=
201204231420 METAR COR EGLL 231420Z 10011KT 9000 -RA BKN014 BKN020 08/05
                        Q0991 NOSIG=
201204231350 METAR COR EGLL 231350Z 11012KT 9999 -RA SCT015 BKN023 08/05
                        Q0991 TEMPO BKN014=
201204231320 METAR COR EGLL 231320Z 12014KT 9999 -RA SCT014 SCT017 08/05
                        Q0992 TEMPO BKN014=
201204231250 METAR COR EGLL 231250Z 12011KT 9999 -RA SCT016 BKN020 08/05
                        Q0992 TEMPO RA BKN014=
201204231220 METAR COR EGLL 231220Z 12018KT 9999 -RA SCT015 BKN022 08/05
                        Q0992 RERA TEMPO RA BKN014=
201204231150 METAR COR EGLL 231150Z 12014KT 9999 -RA SCT016 SCT025 08/05
                        Q0993 RERA NOSIG=
201204231120 METAR COR EGLL 231120Z 11012KT 9999 -RA SCT016 BKN021 08/05
                        Q0993 TEMPO RA=
201204231050 METAR COR EGLL 231050Z 13010KT 090V160 9999 -RA FEW019 SCT025
                        BKN036 08/05 Q0993 TEMPO RA=
201204231020 METAR COR EGLL 231020Z 14012KT 9999 -RA SCT020 BKN029 08/06
                        Q0994 TEMPO RA=
201204230950 METAR COR EGLL 230950Z 16012KT 110V180 8000 -RA BKN020 BKN027
                        08/05 Q0994 RERA TEMPO RA=
201204230920 METAR COR EGLL 230920Z 13010KT 100V160 9999 VCSH FEW017 BKN027
                        BKN048 10/05 Q0995 NOSIG=
201204230850 METAR COR EGLL 230850Z 12015KT 9999 FEW020 BKN027 10/04 Q0995
                        NOSIG=
201204230820 METAR COR EGLL 230820Z 14012KT 9999 SCT018 SCT027 09/05 Q0996
                        NOSIG=
201204230750 METAR COR EGLL 230750Z 16011KT 9999 SCT018 09/05 Q0996 NOSIG=
201204230720 METAR COR EGLL 230720Z 15010KT 9999 FEW027 09/05 Q0997 NOSIG=
201204230650 METAR COR EGLL 230650Z 16007KT 9999 FEW027 08/05 Q0997 NOSIG=
201204230620 METAR COR EGLL 230620Z 15007KT 9999 FEW029 07/04 Q0998 NOSIG=
201204230550 METAR COR EGLL 230550Z 15006KT 9999 FEW029 06/04 Q0998 NOSIG=
201204230520 METAR COR EGLL 230520Z 16005KT CAVOK 06/04 Q0998 NOSIG=
201204230450 METAR COR EGLL 230450Z 17004KT CAVOK 06/04 Q0999 NOSIG=
201204230420 METAR COR EGLL 230420Z 21006KT 180V260 CAVOK 07/04 Q0999
                        NOSIG=
201204230350 METAR COR EGLL 230350Z 21006KT 170V260 9999 FEW040 07/05
                        Q1000 NOSIG=
201204230320 METAR COR EGLL 230320Z 21006KT CAVOK 07/05 Q1000 NOSIG=
201204230250 METAR EGLL 230250Z AUTO 22006KT 9999 NCD 07/05 Q1000=
201204230220 METAR COR EGLL 230220Z 21005KT 9999 BKN046 07/05 Q1001 NOSIG=
201204230150 METAR COR EGLL 230150Z 22007KT 9999 FEW040 07/05 Q1001 NOSIG=
201204230120 METAR EGLL 230120Z AUTO 23008KT 9999 SCT042/// 07/05 Q1001=
201204230050 METAR EGLL 230050Z AUTO 23006KT 9999 FEW040/// 06/05 Q1002=
201204230020 METAR EGLL 230020Z AUTO 23009KT 9999 FEW027/// BKN047///
                        07/05 Q1002=
201204222350 METAR COR EGLL 222350Z 23007KT 9999 FEW030 07/05 Q1002 NOSIG=
201204222320 METAR COR EGLL 222320Z 23007KT 9999 FEW022 07/05 Q1002 NOSIG=
201204222250 METAR COR EGLL 222250Z 24009KT 9999 BKN023 08/05 Q1002 NOSIG=
201204222220 METAR COR EGLL 222220Z 25011KT 9999 BKN023 08/06 Q1002 NOSIG=
201204222150 METAR COR EGLL 222150Z 24009KT 9999 SCT025 08/06 Q1003 NOSIG=
201204222120 METAR COR EGLL 222120Z 24008KT 9999 SCT013 08/06 Q1003 NOSIG=
201204222050 METAR COR EGLL 222050Z 27006KT 220V340 9999 -SHRA SCT009
                        SCT020 08/06 Q1003 NOSIG=
201204222020 METAR COR EGLL 222020Z 21009KT 9999 -SHRA FEW022CB BKN031
                        08/06 Q1003 NOSIG=
201204221950 METAR COR EGLL 221950Z 22010KT 9999 -SHRA FEW030 BKN035 08/06
                        Q1003 NOSIG=
201204221920 METAR COR EGLL 221920Z 23013KT 9999 VCSH FEW020CB SCT036
                        BKN045 09/06 Q1002 TEMPO SHRA=
201204221850 METAR COR EGLL 221850Z 24012KT 9000 -SHRA BKN018CB BKN032
                        09/06 Q1002 RERA NOSIG=
201204221820 METAR COR EGLL 221820Z 25012KT 9999 -SHRA SCT022CB BKN035
                        10/05 Q1002 TEMPO SHRA=
201204221750 METAR COR EGLL 221750Z 25012KT 9999 VCSH SCT022CB BKN027
                        10/06 Q1002 TEMPO SHRA=
201204221720 METAR COR EGLL 221720Z 24013KT 9999 VCSH SCT020 11/06 Q1002
                        TEMPO SHRA=
201204221650 METAR COR EGLL 221650Z 23013KT 9999 FEW013 10/06 Q1002 TEMPO
                        SHRA=
201204221620 METAR COR EGLL 221620Z 22011KT 9999 FEW013 SCT036CB 09/06
                        Q1002 NOSIG=
201204221550 METAR COR EGLL 221550Z 23012KT 9999 VCSH FEW012 SCT035CB
                        SCT041 09/06 Q1002 RERA NOSIG=
201204221520 METAR COR EGLL 221520Z 23012KT 9999 -SHRA SCT021 BKN032CB
                        09/06 Q1003 RERA NOSIG=
201204221450 METAR COR EGLL 221450Z 24011KT 9999 -SHRA BKN032CB 10/06
                        Q1003 TEMPO SHRA=
201204221420 METAR COR EGLL 221420Z 26016KT 9999 -SHRA FEW025 BKN039CB
                        10/05 Q1003 RERA TEMPO SHRA=
201204221350 METAR COR EGLL 221350Z 26015KT 9999 -SHRA BKN042CB 14/00
                        Q1002 TEMPO TSRA=
201204221320 METAR COR EGLL 221320Z 24016KT 9999 FEW042TCU SCT048CB 15/02
                        Q1002 TEMPO SHRA=
201204221250 METAR COR EGLL 221250Z 25014KT 9999 VCSH FEW042TCU SCT048CB
                        15/02 Q1002 NOSIG=
201204221220 METAR COR EGLL 221220Z 24011KT 180V270 9999 VCSH FEW036TCU
                        SCT042CB 14/02 Q1002 NOSIG=
201204221150 METAR COR EGLL 221150Z 23014KT 9999 VCSH FEW035TCU SCT041CB
                        14/04 Q1002 NOSIG=
201204221120 METAR COR EGLL 221120Z 24013KT 9999 FEW030CB SCT036TCU 13/03
                        Q1003 NOSIG=
201204221050 METAR COR EGLL 221050Z 27012KT 240V300 9999 FEW029CB SCT036CB
                        12/05 Q1003 NOSIG=
201204221020 METAR COR EGLL 221020Z 26011KT 9999 SCT025TCU 12/05 Q1003
                        NOSIG=
201204220950 METAR COR EGLL 220950Z 27012KT 9999 FEW024 12/05 Q1003 NOSIG=
201204220920 METAR COR EGLL 220920Z 26011KT 9999 FEW020 11/05 Q1003 NOSIG=
201204220850 METAR COR EGLL 220850Z 26010KT 9999 FEW018 10/05 Q1003 NOSIG=
201204220820 METAR COR EGLL 220820Z 27010KT 9999 FEW018 09/05 Q1003 NOSIG=
201204220750 METAR COR EGLL 220750Z 24008KT 200V280 9999 FEW020CB 09/05
                        Q1003 NOSIG=
201204220720 METAR COR EGLL 220720Z 23008KT 9999 FEW030CB 07/04 Q1003
                        NOSIG=
201204220650 METAR COR EGLL 220650Z 22007KT 9999 FEW030CB 06/04 Q1002
                        NOSIG=
201204220620 METAR COR EGLL 220620Z 22007KT 9999 FEW030CB 05/03 Q1002
                        NOSIG=
201204220550 METAR COR EGLL 220550Z 23007KT 200V260 9999 FEW030CB 05/03
                        Q1002 NOSIG=
201204220520 METAR COR EGLL 220520Z 23008KT 9999 FEW010CB 04/03 Q1002
                        NOSIG=
201204220450 METAR COR EGLL 220450Z 22006KT CAVOK 04/03 Q1002 NOSIG=
201204220420 METAR COR EGLL 220420Z 21006KT CAVOK 04/03 Q1002 NOSIG=
201204220350 METAR COR EGLL 220350Z 23006KT CAVOK 05/03 Q1002 NOSIG=
201204220320 METAR COR EGLL 220320Z 24007KT CAVOK 05/03 Q1002 NOSIG=
201204220250 METAR EGLL 220250Z AUTO 22006KT 9999 NCD 05/03 Q1002=
201204220220 METAR COR EGLL 220220Z 22005KT CAVOK 06/03 Q1002 NOSIG=
201204220150 METAR COR EGLL 220150Z 25007KT CAVOK 06/03 Q1002 NOSIG=
201204220120 METAR EGLL 220120Z AUTO 27007KT 9999 NCD 06/04 Q1002=
201204220050 METAR EGLL 220050Z AUTO 28007KT 9999 NCD 07/04 Q1002=
201204220020 METAR EGLL 220020Z AUTO 27006KT 9999 NCD 07/03 Q1002=
201204212350 METAR COR EGLL 212350Z 27007KT CAVOK 07/03 Q1002 NOSIG=
201204212320 METAR COR EGLL 212320Z 27008KT CAVOK 06/03 Q1002 NOSIG=
201204212250 METAR COR EGLL 212250Z 27008KT CAVOK 07/04 Q1002 NOSIG=
201204212220 METAR COR EGLL 212220Z 27010KT CAVOK 07/04 Q1002 NOSIG=
201204212150 METAR COR EGLL 212150Z 27008KT CAVOK 08/04 Q1002 NOSIG=
201204212120 METAR COR EGLL 212120Z 28007KT 9999 FEW024 08/04 Q1001 NOSIG=
201204212050 METAR COR EGLL 212050Z 28007KT 9999 SCT025CB 09/04 Q1001
                        NOSIG=
201204212020 METAR COR EGLL 212020Z 28007KT 9999 SCT032CB 09/04 Q1001
                        NOSIG=
201204211950 METAR COR EGLL 211950Z 32006KT 280V350 9999 VCSH FEW026CB
                        SCT039 BKN045 09/04 Q1001 NOSIG=
201204211920 METAR COR EGLL 211920Z 25010KT 9999 VCSH FEW025 SCT032CB
                        09/04 Q1000 NOSIG=
201204211850 METAR COR EGLL 211850Z 28008KT 9999 VCSH FEW025 SCT039CB
                        09/04 Q1000 TEMPO SHRA=
201204211820 METAR COR EGLL 211820Z 27012KT 9999 VCSH FEW025 SCT039CB
                        09/04 Q1000 TEMPO SHRA=
201204211750 METAR COR EGLL 211750Z 28008KT 250V310 9999 SHRA FEW025 BKN032CB
                        09/03 Q0999 NOSIG=
201204211720 METAR COR EGLL 211720Z 28019KT 9999 VCSH FEW025 SCT032CB
                        11/03 Q0999 TEMPO SHRA=
201204211650 METAR COR EGLL 211650Z 27015KT 9999 VCSH SCT028CB 11/03 Q0999
                        TEMPO SHRA=
201204211620 METAR COR EGLL 211620Z 27018KT 9999 VCSH SCT032CB 10/03 Q0998
                        TEMPO SHRA=
201204211550 METAR COR EGLL 211550Z 27015KT 240V300 9999 VCSH FEW025CB
                        SCT036 13/02 Q0998 TEMPO SHRA=
201204211520 METAR COR EGLL 211520Z 26017KT 9999 VCSH SCT040CB 11/03 Q0998
                        TEMPO SHRA=
201204211450 METAR COR EGLL 211450Z 27014KT 9999 VCSH FEW040 SCT048CB
                        13/02 Q0997 TEMPO SHRA=
201204211420 METAR COR EGLL 211420Z 24004KT 180V300 9999 VCSH FEW032 SCT046
                        12/02 Q0997 NOSIG=
201204211350 METAR COR EGLL 211350Z 26009KT 9999 VCSH SCT032 12/03 Q0997
                        NOSIG=
201204211320 METAR COR EGLL 211320Z 26011KT 9999 VCSH SCT036 BKN046 11/03
                        Q0997 NOSIG=
201204211250 METAR COR EGLL 211250Z 28010KT 9999 VCSH SCT041 BKN046 11/02
                        Q0997 TEMPO SHRA=
201204211220 METAR COR EGLL 211220Z 29010KT 9999 VCSH FEW040 SCT048 12/02
                        Q0997 TEMPO SHRA=
201204211150 METAR COR EGLL 211150Z 27010KT 9999 SCT042 12/02 Q0997 NOSIG=
201204211120 METAR COR EGLL 211120Z 27009KT 240V300 9999 SCT039 11/02
                        Q0997 TEMPO SHRA=
201204211050 METAR COR EGLL 211050Z 26011KT 230V290 9999 FEW032 BKN042
                        10/03 Q0997 TEMPO SHRA=
201204211020 METAR COR EGLL 211020Z 28007KT 250V320 9999 FEW028 SCT035CB
                        10/03 Q0996 TEMPO SHRA=
201204210950 METAR COR EGLL 210950Z 27007KT 220V300 9999 FEW029 SCT033CB
                        10/03 Q0996 TEMPO SHRA=
201204210920 METAR EGLL 210920Z 26007KT 230V290 9999 FEW021 09/04 Q0996
                        NOSIG=
201204210850 METAR COR EGLL 210850Z 27007KT 230V310 9999 FEW020 08/04
                        Q0996 NOSIG=
201204210820 METAR COR EGLL 210820Z 28006KT 250V320 9999 FEW041 08/03
                        Q0996 NOSIG=
201204210750 METAR COR EGLL 210750Z 27008KT 9999 FEW020 SCT041 07/03 Q0996
                        NOSIG=
201204210720 METAR COR EGLL 210720Z 27007KT 9999 -SHRA FEW020 SCT030 06/03
                        Q0996 NOSIG=
201204210650 METAR COR EGLL 210650Z 27005KT 240V300 9999 VCSH SCT038 SCT046
                        05/03 Q0995 NOSIG=
201204210620 METAR COR EGLL 210620Z 27005KT 9999 FEW048 04/02 Q0995 NOSIG=
201204210550 METAR COR EGLL 210550Z 25006KT 9999 FEW046 03/02 Q0995 NOSIG=
201204210520 METAR COR EGLL 210520Z 25005KT 200V270 9999 FEW046 04/02
                        Q0995 NOSIG=
201204210450 METAR COR EGLL 210450Z 26005KT 9999 FEW046 03/02 Q0995 NOSIG=
201204210420 METAR COR EGLL 210420Z 27005KT 220V280 CAVOK 04/02 Q0994
                        NOSIG=
201204210350 METAR COR EGLL 210350Z 25005KT CAVOK 04/02 Q0994 NOSIG=
201204210320 METAR COR EGLL 210320Z 24005KT CAVOK 04/02 Q0995 NOSIG=
201204210250 METAR EGLL 210250Z AUTO 24007KT 9999 NCD 05/02 Q0995=
201204210220 METAR COR EGLL 210220Z 24007KT CAVOK 05/02 Q0995 NOSIG=
201204210150 METAR COR EGLL 210150Z 24007KT CAVOK 06/03 Q0995 NOSIG=
201204210120 METAR EGLL 210120Z AUTO 25007KT 9999 NCD 06/03 Q0995=
201204210050 METAR EGLL 210050Z AUTO 23008KT 9999 SCT040/// SCT048///
                        06/03 Q0995=
201204210020 METAR EGLL 210020Z AUTO 25008KT 9999 FEW021/// 06/03 Q0995=
201204202350 METAR COR EGLL 202350Z 26009KT 9999 FEW022 SCT040 07/03 Q0995
                        NOSIG=
201204202320 METAR COR EGLL 202320Z 25009KT 9999 SCT030 SCT040 07/03 Q0995
                        NOSIG=
201204202250 METAR COR EGLL 202250Z 25010KT 9999 SCT030 BKN038 07/03 Q0995
                        NOSIG=
201204202220 METAR COR EGLL 202220Z 25010KT 9999 FEW035 07/03 Q0995 NOSIG=
201204202150 METAR COR EGLL 202150Z 24010KT 9999 SCT040 07/04 Q0995 NOSIG=
201204202120 METAR COR EGLL 202120Z 24010KT 9999 FEW040 07/04 Q0995 NOSIG=
201204202050 METAR COR EGLL 202050Z 22008KT CAVOK 07/05 Q0995 NOSIG=
201204202020 METAR COR EGLL 202020Z 21008KT CAVOK 07/05 Q0994 NOSIG=
201204201950 METAR COR EGLL 201950Z 19007KT 170V250 CAVOK 07/05 Q0994
                        NOSIG=
201204201920 METAR COR EGLL 201920Z 20006G18KT 170V250 9999 FEW030 08/05
                        Q0994 NOSIG=
201204201850 METAR COR EGLL 201850Z 21005KT 170V240 9999 FEW022 08/05
                        Q0994 NOSIG=
201204201820 METAR COR EGLL 201820Z 18006KT 150V250 9999 FEW023 SCT030
                        08/05 Q0994 TEMPO 4500 SHRA=
201204201750 METAR COR EGLL 201750Z 00000KT 9999 FEW022 SCT030 09/05 Q0994
                        NOSIG=
201204201720 METAR COR EGLL 201720Z 30004KT 270V330 9999 FEW030CB 09/05
                        Q0994 NOSIG=
201204201650 METAR COR EGLL 201650Z 31005KT 280V340 9999 VCSH FEW030CB
                        SCT038 08/05 Q0994 NOSIG=
201204201620 METAR COR EGLL 201620Z 27013KT 9999 4000E -SHRA SCT022CB
                        BKN032 08/05 Q0994 RERA TEMPO TSGR=
201204201550 METAR COR EGLL 201550Z 21008KT 9999 VCSH SCT022CB SCT038
                        11/04 Q0993 TEMPO SHRA=
201204201520 METAR COR EGLL 201520Z 22007KT 180V240 9999 SCT022CB SCT033
                        11/05 Q0993 TEMPO SHRA=
201204201450 METAR COR EGLL 201450Z 23009KT 9999 VCSH SCT022CB SCT037
                        10/06 Q0994 TEMPO SHRA=
201204201420 METAR COR EGLL 201420Z 23015KT 9999 VCSH BKN015CB 09/05 Q0994
                        TEMPO 4000 +SHRA=
201204201350 METAR COR EGLL 201350Z 16009KT 110V230 9999 VCSH FEW015CB
                        SCT045TCU 10/06 Q0994 TEMPO 4000
                        +SHRA=
201204201320 METAR COR EGLL 201320Z 13006KT 100V180 9999 BKN015CB 08/06
                        Q0994 TEMPO SHRA=
201204201250 METAR COR EGLL 201250Z 25015KT 4000 SHRA BKN017CB BKN030
                        07/05 Q0994 TEMPO VRB15G25KT 2500
                        TSGR BKN014CB=
201204201220 METAR COR EGLL 201220Z 29005KT 260V330 9999 4000W SHRA SCT017CB
                        BKN029 07/04 Q0994 RETS TEMPO NSW=
201204201150 METAR COR EGLL 201150Z 29007KT 9999 -SHRA FEW012 BKN025CB
                        11/04 Q0993 TEMPO 4000 TSRA BKN014CB=
201204201120 METAR COR EGLL 201120Z 27012KT 9999 VCSH FEW012 SCT030CB
                        10/05 Q0993 TEMPO 4000 TSRA BKN014CB=
201204201050 METAR COR EGLL 201050Z 23009KT 190V270 9999 VCSH SCT035CB
                        12/04 Q0993 TEMPO 4000 TSRA=
201204201020 METAR COR EGLL 201020Z 26008KT 220V290 9999 SCT031 SCT037
                        12/04 Q0993 TEMPO 4000 TSRA=
201204200950 METAR COR EGLL 200950Z 24010KT 210V280 9999 SCT028 12/05
                        Q0993 TEMPO SHRA=
201204200920 METAR COR EGLL 200920Z 26008KT 220V280 9999 FEW020 11/05
                        Q0993 TEMPO SHRA=
201204200850 METAR COR EGLL 200850Z 28008KT 9999 FEW048 10/06 Q0993 NOSIG=
201204200820 METAR COR EGLL 200820Z 28009KT 9999 FEW049 09/06 Q0993 NOSIG=
201204200750 METAR COR EGLL 200750Z 27007KT 9999 FEW049 08/05 Q0993 NOSIG=
201204200720 METAR COR EGLL 200720Z 27007KT CAVOK 08/05 Q0993 NOSIG=
201204200650 METAR COR EGLL 200650Z 27007KT 8000 FEW049 07/04 Q0993 NOSIG=
201204200620 METAR COR EGLL 200620Z 27007KT 7000 NSC 06/04 Q0993 NOSIG=
201204200550 METAR COR EGLL 200550Z 27005KT 7000 NSC 05/04 Q0993 NOSIG=
201204200520 METAR COR EGLL 200520Z 27005KT 7000 NSC 05/03 Q0992 NOSIG=
201204200450 METAR COR EGLL 200450Z 27005KT 7000 NSC 04/03 Q0992 NOSIG=
201204200420 METAR COR EGLL 200420Z 27007KT 8000 NSC 05/03 Q0992 NOSIG=
201204200350 METAR COR EGLL 200350Z 27008KT 8000 NSC 05/03 Q0992 NOSIG=
201204200320 METAR COR EGLL 200320Z 28006KT 8000 NSC 05/04 Q0992 NOSIG=
201204200250 METAR COR EGLL 200250Z 26006KT 8000 NSC 06/04 Q0991 NOSIG=
201204200220 METAR COR EGLL 200220Z 26007KT 9000 NSC 06/05 Q0991 NOSIG=
201204200150 METAR COR EGLL 200150Z AUTO 25006KT 9999 FEW025/// 07/05
                        Q0991=
201204200120 METAR EGLL 200120Z AUTO 27007KT 9999 FEW033/// 07/05 Q0991=
201204200050 METAR EGLL 200050Z AUTO 28006KT 9999 SCT040/// 06/05 Q0991=
201204200020 METAR EGLL 200020Z 27008KT 9999 FEW049 06/04 Q0991=
201204192350 METAR EGLL 192350Z 28009KT 9999 FEW030 06/05 Q0991=
201204192320 METAR EGLL 192320Z 27009KT 9999 SCT030 07/05 Q0990=
201204192250 METAR COR EGLL 192250Z 27009KT 9999 SCT020 BKN030 07/05 Q0990
                        NOSIG=
201204192220 METAR COR EGLL 192220Z 28009KT 9999 FEW025 07/05 Q0990 NOSIG=
201204192150 METAR COR EGLL 192150Z 27008KT 9999 FEW040 08/06 Q0990 NOSIG=
201204192120 METAR COR EGLL 192120Z 27007KT 9999 FEW020 SCT040 08/06 Q0989
                        NOSIG=
201204192050 METAR COR EGLL 192050Z 28007KT 9999 SCT022 BKN041 09/06 Q0989
                        NOSIG=
201204192020 METAR COR EGLL 192020Z 27007KT 9999 FEW023 SCT030 BKN045
                        09/06 Q0989 NOSIG=
201204191950 METAR COR EGLL 191950Z 28008KT 9999 FEW022 BKN040 08/06 Q0989
                        NOSIG=
201204191920 METAR COR EGLL 191920Z 26007KT 9999 FEW015CB SCT048 08/06
                        Q0988 RESHRA NOSIG=
201204191850 METAR COR EGLL 191850Z 28005KT 9999 SCT015CB SCT045 08/05
                        Q0988 RESHRA NOSIG=
201204191820 METAR COR EGLL 191820Z 31008KT 9999 SHRA SCT015CB SCT046
                        09/06 Q0988 BECMG NSW=
201204191750 METAR COR EGLL 191750Z 27010KT 9999 SCT018CB 10/06 Q0987
                        TEMPO 4000 +SHRA BKN014CB=
201204191720 METAR COR EGLL 191720Z 29008KT 9999 FEW018CB 10/06 Q0987
                        NOSIG=
201204191650 METAR COR EGLL 191650Z 29005KT 9999 VCSH FEW016CB SCT038
                        09/06 Q0987 NOSIG=
201204191620 METAR COR EGLL 191620Z 34005KT 280V020 9999 -SHRA SCT016CB
                        BKN030 09/05 Q0987 NOSIG=
201204191550 METAR COR EGLL 191550Z 28012KT 9999 VCSH SCT016CB 12/07 Q0986
                        TEMPO 3500 TSRA BKN014CB=
201204191520 METAR COR EGLL 191520Z 27010KT 9999 FEW016CB SCT044 10/06
                        Q0986 TEMPO 3500 TSRA BKN014CB=
201204191450 METAR COR EGLL 191450Z 28010KT 9999 VCSH FEW014CB SCT036
                        10/06 Q0986 TEMPO 3500 TSRA BKN014CB=
201204191420 METAR COR EGLL 191420Z 26010KT 9999 VCSH FEW016CB SCT036
                        08/06 Q0986 TEMPO 3500 TSRA BKN014CB=
201204191350 METAR COR EGLL 191350Z 26011KT 9999 -SHRA SCT015CB SCT036
                        08/06 Q0986 RESHRA NOSIG=
201204191320 METAR COR EGLL 191320Z 27008KT 9999 -SHRA SCT015CB BKN033
                        09/06 Q0986 RESHRA TEMPO 3500 +SHRA
                        BKN014CB=
201204191250 METAR COR EGLL 191250Z 30010KT 7000 -SHRA SCT016CB BKN033
                        10/05 Q0985 TEMPO 28015G25KT 3500
                        +SHRA BKN014CB=
201204191220 METAR COR EGLL 191220Z 27012KT 9999 VCSH FEW019 SCT030CB
                        12/07 Q0985 TEMPO 28015G26KT 3500
                        +SHRA BKN014CB=
201204191150 METAR COR EGLL 191150Z 27010KT 9999 VCSH FEW008 SCT019CB
                        BKN032 09/06 Q0985 TEMPO 4000 +SHRA
                        BKN014CB=
201204191120 METAR COR EGLL 191120Z 27014KT 9999 4500SW -SHRA FEW010 BKN029CB
                        09/06 Q0985 NOSIG=
201204191050 METAR COR EGLL 191050Z 27011KT 9000 SCT022 BKN033 08/06 Q0984
                        NOSIG=
201204191020 METAR COR EGLL 191020Z 27013KT 8000 -SHRA SCT014 BKN035 09/06
                        Q0984 TEMPO 4000 +SHRA BKN014CB=
201204190950 METAR COR EGLL 190950Z 26011KT 9999 SCT015 BKN046 09/07 Q0984
                        TEMPO 4000 +SHRA BKN014CB=
201204190920 METAR COR EGLL 190920Z 27009KT 9999 SCT008 BKN010 08/06 Q0984
                        BECMG SCT012 BKN020=
201204190850 METAR COR EGLL 190850Z 27009KT 9000 -RA SCT008 BKN010 07/06
                        Q0983 BECMG SCT012 BKN020=
201204190820 METAR COR EGLL 190820Z 27010KT 9999 BKN008 07/05 Q0983 BECMG
                        SCT008 BKN015=
201204190750 METAR COR EGLL 190750Z 27010KT 9000 -RADZ BKN009 06/05 Q0983
                        BECMG SCT012 BKN018=
201204190720 METAR COR EGLL 190720Z 27011KT 9999 BKN012 06/04 Q0982 BECMG
                        SCT012 BKN018=
201204190650 METAR COR EGLL 190650Z 27012KT 9999 BKN011 06/04 Q0982 BECMG
                        SCT012 BKN018=
201204190620 METAR COR EGLL 190620Z 27010KT 9999 SCT010 BKN015 BKN034
                        06/05 Q0982 TEMPO BKN012=
201204190550 METAR COR EGLL 190550Z 28011KT 9999 BKN013 06/05 Q0981 TEMPO
                        BKN009=
201204190520 METAR COR EGLL 190520Z 28011KT 9999 FEW009 BKN013 07/05 Q0981
                        TEMPO BKN009=
201204190450 METAR COR EGLL 190450Z 28009KT 9999 FEW011 BKN022 07/05 Q0981
                        TEMPO BKN009=
201204190420 METAR COR EGLL 190420Z 27011KT 9999 FEW010 BKN014 07/05 Q0981
                        TEMPO BKN009=
201204190350 METAR COR EGLL 190350Z 28012KT 9000 FEW009 BKN014 07/05 Q0981
                        TEMPO BKN006=
201204190320 METAR COR EGLL 190320Z 28011KT 5000 -RA SCT006 BKN011 07/05
                        Q0980 TEMPO BKN006=
201204190250 METAR COR EGLL 190250Z 27012KT 5000 HZ FEW006 SCT008 BKN011
                        07/06 Q0980 TEMPO BKN006=
201204190220 METAR COR EGLL 190220Z 27013KT 5000 -RA SCT008 BKN011 07/06
                        Q0980 TEMPO BKN006=
201204190150 METAR COR EGLL 190150Z 26011KT 7000 FEW009 BKN011 07/06 Q0980
                        TEMPO BKN006=
201204190120 METAR EGLL 190120Z AUTO 26012KT 4900 -RA OVC008/// 07/06
                        Q0980=
201204190050 METAR EGLL 190050Z AUTO 26011KT 4000 -RA FEW009/// BKN012///
                        07/06 Q0980=
201204190020 METAR COR EGLL 190020Z AUTO 27012KT 6000 OVC010/// 07/06
                        Q0979=
201204182350 METAR COR EGLL 182350Z 27013KT 6000 -RA FEW009 BKN012 07/06
                        Q0979 TEMPO BKN007=
201204182320 METAR COR EGLL 182320Z 27011KT 7000 -RA FEW007 BKN014 08/06
                        Q0979 TEMPO FEW004 BKN006=
201204182250 METAR COR EGLL 182250Z 27009KT 8000 -RA FEW007 SCT026 BKN034
                        07/06 Q0979 TEMPO BKN007=
201204182220 METAR COR EGLL 182220Z 28008KT 9999 BKN009 BKN032 08/06 Q0979
                        TEMPO SCT009 BKN014=
201204182150 METAR COR EGLL 182150Z 28008KT 9999 FEW006 BKN010 08/06 Q0978
                        NOSIG=
201204182120 METAR COR EGLL 182120Z 28009KT 9999 -RA FEW006 BKN012 08/06
                        Q0978 NOSIG=
201204182050 METAR COR EGLL 182050Z 29005KT 8000 -RA FEW007CB SCT014CB
                        BKN018CB 09/07 Q0978 RESHRA TEMPO
                        SHRA BKN012=
201204182020 METAR COR EGLL 182020Z 30005KT 8000 SHRA FEW007CB SCT010CB
                        BKN031CB 08/07 Q0978 TEMPO 4000 +SHRA
                        BKN014CB=
201204181950 METAR EGLL 181950Z 27005KT 9000 SHRA FEW007CB SCT010CB BKN028CB
                        08/06 Q0977=
201204181920 METAR COR EGLL 181920Z 20004KT 9000 SHRA FEW010CB SCT023CB
                        BKN040CB 08/06 Q0977 TEMPO 4000 +SHRA
                        BKN014CB=
201204181850 METAR COR EGLL 181850Z 21006KT 9999 FEW011CB SCT030CB BKN043CB
                        08/06 Q0977 TEMPO 4000 +SHRA BKN014CB=
201204181820 METAR COR EGLL 181820Z 19009KT 150V230 9000 VCSH FEW013CB
                        SCT019CB BKN035CB 09/06 Q0976 TEMPO
                        4000 +SHRA BKN014CB=
201204181750 METAR COR EGLL 181750Z 18008KT 150V210 8000 SHRA FEW014CB
                        SCT036CB BKN044CB 09/06 Q0976 TEMPO
                        4000 +SHRA BKN014CB=
201204181720 METAR COR EGLL 181720Z 18010KT 150V240 9000 SHRA FEW013CB
                        SCT028CB BKN035CB 09/06 Q0976 TEMPO
                        4000 +SHRA BKN014CB=
201204181650 METAR COR EGLL 181650Z 18009KT 150V210 9999 SCT015CB BKN035
                        10/07 Q0976 TEMPO 4000 +SHRA BKN014CB=
201204181620 METAR COR EGLL 181620Z 17014KT 9999 -SHRA SCT019CB SCT032
                        10/06 Q0976 TEMPO 4000 +SHRA BKN014CB=
201204181550 METAR COR EGLL 181550Z 18013KT 7000 SHRA SCT019CB SCT029CB
                        10/07 Q0976 TEMPO 4000 +SHRA BKN014CB=
201204181520 METAR COR EGLL 181520Z 17012G22KT 9999 SHRA SCT017CB SCT029CB
                        10/07 Q0976 TEMPO 4000 +SHRA BKN014CB=
201204181450 METAR COR EGLL 181450Z 18013KT 9999 -SHRA SCT018CB SCT030
                        10/07 Q0977 TEMPO 4000 +SHRA BKN014CB=
201204181420 METAR COR EGLL 181420Z 18014KT 9999 -SHRA SCT016CB SCT030
                        10/06 Q0977 TEMPO 4000 +SHRA BKN014CB=
201204181350 METAR COR EGLL 181350Z 17015KT 150V230 9999 VCSH FEW025CB
                        SCT032CB 11/06 Q0977 TEMPO 4000 +SHRA
                        BKN014CB=
201204181320 METAR COR EGLL 181320Z 16016KT 130V210 9999 FEW021CB SCT028CB
                        SCT035CB 11/06 Q0977 TEMPO 4000 +SHRA
                        BKN014CB=
201204181250 METAR COR EGLL 181250Z 18012KT 130V240 9999 -SHRA FEW016CB
                        BKN020 10/07 Q0977 RESHRA TEMPO 4000
                        +SHRA BKN014CB=
201204181220 METAR COR EGLL 181220Z 20012KT 170V230 9999 -SHRA FEW016
                        BKN020 10/07 Q0978 RESHRA TEMPO 4000
                        +SHRA BKN014CB=
201204181150 METAR COR EGLL 181150Z 17011KT 130V220 9999 -RA BKN015 10/08
                        Q0978 RERA TEMPO 4000 +SHRA BKN012CB=
201204181120 METAR COR EGLL 181120Z 17014KT 140V230 9000 RA FEW016 BKN025
                        09/06 Q0978 TEMPO 4000 +SHRA BKN014CB=
201204181050 METAR COR EGLL 181050Z 17015KT 140V230 9999 BKN017 10/06
                        Q0978 TEMPO 4000 +SHRA BKN014CB=
201204181020 METAR COR EGLL 181020Z 16014KT 140V200 9999 SCT015 BKN022
                        09/06 Q0979 TEMPO 4000 +SHRA BKN014CB=
201204180950 METAR COR EGLL 180950Z 16013KT 130V230 9999 FEW011 BKN015
                        09/06 Q0979 TEMPO 4000 +SHRA=
201204180920 METAR COR EGLL 180920Z 16014KT 140V210 9999 -RA SCT011 BKN014
                        08/06 Q0980 TEMPO 4000 +SHRA=
201204180850 METAR COR EGLL 180850Z 16013KT 140V220 9999 BKN011 08/06
                        Q0980 TEMPO 4000 RA=
201204180820 METAR EGLL 180820Z 16014KT 120V230 8000 -RA BKN013 BKN020
                        08/06 Q0980=
201204180750 METAR COR EGLL 180750Z 16016KT 140V210 6000 -RA FEW012 BKN014
                        BKN020 07/05 Q0981 TEMPO 4000 +RA=
201204180720 METAR COR EGLL 180720Z 16014KT 130V190 8000 -RA BKN015 BKN020
                        07/05 Q0982 TEMPO 17016G30KT 4000
                        +RA BKN012=
201204180650 METAR COR EGLL 180650Z 17014G25KT 9999 -RA SCT017 BKN020
                        BKN024 07/05 Q0982 RERA TEMPO 4000
                        +RA BKN014=
201204180620 METAR EGLL 180620Z 16014KT 130V190 9000 RA BKN016 BKN025
                        07/05 Q0983=
201204180550 METAR COR EGLL 180550Z 15012G22KT 130V190 9999 -RA FEW010
                        BKN025 07/04 Q0983 TEMPO 17020G32KT
                        4000 +RA BKN014=
201204180520 METAR COR EGLL 180520Z 15011KT 120V190 9999 SCT020 SCT043
                        07/04 Q0984 TEMPO 17018G30KT SHRA=
201204180450 METAR COR EGLL 180450Z 16012KT 9999 SCT022 SCT041 06/04 Q0985
                        TEMPO 17016G30KT SHRA=
201204180420 METAR COR EGLL 180420Z 18012KT 9999 SCT032 06/03 Q0985 TEMPO
                        17016G30KT SHRA=
201204180350 METAR COR EGLL 180350Z 18013KT 9999 FEW028 06/03 Q0986 TEMPO
                        17018G28KT SHRA=
201204180320 METAR COR EGLL 180320Z 17011KT 9999 VCSH FEW025 07/04 Q0987
                        TEMPO 17015G28KT SHRA=
201204180250 METAR COR EGLL 180250Z 16011KT 9999 FEW022 SCT030 06/04 Q0988
                        TEMPO 17015G25KT SHRA=
201204180220 METAR COR EGLL 180220Z 16009KT 9999 FEW045 06/04 Q0989 TEMPO
                        SHRA=
201204180150 METAR COR EGLL 180150Z 19008KT 9999 FEW041 06/04 Q0989 TEMPO
                        SHRA=
201204180120 METAR EGLL 180120Z AUTO 19011KT 9999 -RA SCT024/// 06/04
                        Q0990 RERA=
201204180050 METAR EGLL 180050Z AUTO 19011KT 9999 NCD 06/04 Q0990=
201204180020 METAR EGLL 180020Z AUTO 18010KT 9999 FEW022/// 06/03 Q0991=
201204172350 METAR COR EGLL 172350Z 18007KT 9999 FEW041 06/03 Q0992 NOSIG=
201204172320 METAR COR EGLL 172320Z 21008KT CAVOK 06/03 Q0992 NOSIG=
201204172250 METAR COR EGLL 172250Z 21008KT CAVOK 06/03 Q0993 NOSIG=
201204172220 METAR COR EGLL 172220Z 21008KT 9999 FEW048 06/03 Q0993 NOSIG=
201204172150 METAR COR EGLL 172150Z 21009KT CAVOK 06/03 Q0994 NOSIG=
201204172120 METAR COR EGLL 172120Z 21009KT 180V240 CAVOK 07/03 Q0994
                        NOSIG=
201204172050 METAR COR EGLL 172050Z 20009KT CAVOK 06/03 Q0994 NOSIG=
201204172020 METAR COR EGLL 172020Z 20009KT CAVOK 06/03 Q0995 NOSIG=
201204171950 METAR COR EGLL 171950Z 21007KT CAVOK 07/04 Q0995 NOSIG=
201204171920 METAR COR EGLL 171920Z 22008G19KT 190V260 CAVOK 06/04 Q0995
                        NOSIG=
201204171850 METAR COR EGLL 171850Z 24009KT 9999 FEW019 06/03 Q0995 RESHRA
                        NOSIG=
201204171820 METAR COR EGLL 171820Z 27018KT 9000 4000E SHRA FEW011 BKN023CB
                        07/03 Q0996 BECMG 9999 NSW=
201204171750 METAR COR EGLL 171750Z 28010KT 9999 FEW029CB SCT044 09/04
                        Q0996 TEMPO 28015G28KT 4000 TSGR
                        SHRA BKN014CB=
201204171720 METAR COR EGLL 171720Z 24008KT 9999 VCSH SCT029CB SCT038
                        09/04 Q0996 TEMPO 4000 TSGR SHRA
                        BKN014CB=
201204171650 METAR COR EGLL 171650Z 27011KT 9999 VCSH SCT033CB 10/05 Q0996
                        TEMPO 4000 TSGR SHRA BKN014CB=
201204171620 METAR COR EGLL 171620Z 28017KT 9999 SCT035CB 09/05 Q0997
                        NOSIG=
201204171550 METAR COR EGLL 171550Z 22011KT 9999 FEW019 SCT035CB 10/05
                        Q0997 TEMPO SHRA=
201204171520 METAR COR EGLL 171520Z 25021KT 9000 SHRA BKN014CB BKN025CB
                        08/04 Q0997 BECMG NSW SCT025CB=
201204171450 METAR COR EGLL 171450Z 26015KT CAVOK 13/01 Q0997 TEMPO 4000
                        SHRA TSGR BKN012CB=
201204171420 METAR EGLL 171420Z 25017KT CAVOK 13/01 Q0997=
201204171350 METAR COR EGLL 171350Z 27018KT 9999 FEW049 13/01 Q0998 NOSIG=
201204171320 METAR COR EGLL 171320Z 25019KT 9999 FEW047 14/01 Q0998 NOSIG=
201204171250 METAR COR EGLL 171250Z 26021KT 9999 FEW040 13/03 Q0998 NOSIG=
201204171220 METAR COR EGLL 171220Z 26020KT 9999 FEW020TCU 13/07 Q0998
                        NOSIG=
201204171150 METAR COR EGLL 171150Z 27015KT 9999 FEW020TCU SCT035 09/04
                        Q0999 RESHRA NOSIG=
201204171120 METAR COR EGLL 171120Z 28013KT 9999 VCSH FEW026 BKN035 12/05
                        Q0998 TEMPO SHRA=
201204171050 METAR COR EGLL 171050Z 27018KT 9999 SCT025 BKN033 12/06 Q0999
                        NOSIG=
201204171020 METAR EGLL 171020Z 28016KT 9999 SCT019 BKN024 11/06 Q0999=
201204170950 METAR COR EGLL 170950Z 25014KT 210V280 9999 FEW009 SCT015
                        BKN021 10/08 Q0999 NOSIG=
201204170920 METAR COR EGLL 170920Z 20011KT 9999 -RA FEW007 SCT009 BKN017
                        09/07 Q0999 BECMG 26010KT=
201204170850 METAR COR EGLL 170850Z 20014KT 180V240 9999 -RA BKN009 08/06
                        Q0999 BECMG 26010KT NSW SCT013 BKN020=
201204170820 METAR COR EGLL 170820Z 19016KT 9999 -RA BKN010 08/06 Q1000
                        BECMG 26010KT NSW SCT010 BKN030=
201204170750 METAR COR EGLL 170750Z 19014KT 9999 RA BKN010 07/05 Q1001
                        TEMPO 19015G30KT 4000 RA BKN009=
201204170720 METAR COR EGLL 170720Z 18015KT 160V220 9999 -RA BKN012 07/05
                        Q1001 TEMPO 19020G30KT 4000 RA BKN009=
201204170650 METAR COR EGLL 170650Z 18015KT 9999 RA BKN012 06/04 Q1002
                        TEMPO 19020G30KT 4000 RA BKN009=
201204170620 METAR COR EGLL 170620Z 19017KT 8000 -RA BKN018 07/03 Q1003
                        TEMPO 19020G30KT 4000 RA BKN009=
201204170550 METAR COR EGLL 170550Z 18017KT 9999 FEW020 BKN035 07/02 Q1004
                        TEMPO 18020G30KT RA=
201204170520 METAR COR EGLL 170520Z 19015KT 170V230 9999 -RA BKN027 07/02
                        Q1005 TEMPO 18020G30KT RA=
201204170450 METAR COR EGLL 170450Z 17015KT 9999 -RA FEW024 07/01 Q1006
                        TEMPO 18020G30KT RA=
201204170420 METAR COR EGLL 170420Z 17015KT 9999 SCT049 07/00 Q1007 TEMPO
                        18020G30KT RA=
201204170350 METAR COR EGLL 170350Z 18014KT 9999 FEW049 07/00 Q1008 TEMPO
                        18020G30KT RA=
201204170320 METAR COR EGLL 170320Z 17012KT 9999 FEW049 06/M01 Q1009 TEMPO
                        18018G28KT RA=
201204170250 METAR COR EGLL 170250Z 17011KT 9999 FEW039 06/M01 Q1011 TEMPO
                        18018G28KT=
201204170220 METAR COR EGLL 170220Z 17009KT 9999 FEW039 06/M01 Q1012 NOSIG=
201204170150 METAR COR EGLL 170150Z 17010KT 9999 FEW042 05/M01 Q1013 NOSIG=
201204170120 METAR EGLL 170120Z AUTO 17011KT 9999 NCD 05/M01 Q1014=
201204170050 METAR EGLL 170050Z AUTO 17010KT 9999 NCD 05/M02 Q1015=
201204170020 METAR EGLL 170020Z AUTO 17009KT 9999 NCD 05/M02 Q1016=
201204162350 METAR COR EGLL 162350Z 18010KT CAVOK 05/M02 Q1017 NOSIG=
201204162320 METAR COR EGLL 162320Z 19009KT 170V230 CAVOK 05/M01 Q1018
                        NOSIG=
201204162250 METAR COR EGLL 162250Z 19009KT CAVOK 05/M01 Q1018 NOSIG=
201204162220 METAR COR EGLL 162220Z 20009KT CAVOK 06/M01 Q1019 NOSIG=
201204162150 METAR COR EGLL 162150Z 20009KT CAVOK 06/M01 Q1019 NOSIG=
201204162120 METAR COR EGLL 162120Z 19009KT CAVOK 06/M01 Q1020 NOSIG=
201204162050 METAR COR EGLL 162050Z 19008KT CAVOK 06/M01 Q1020 NOSIG=
201204162020 METAR COR EGLL 162020Z 20007KT CAVOK 06/M02 Q1020 NOSIG=
201204161950 METAR COR EGLL 161950Z 21008KT 180V250 CAVOK 07/M02 Q1021
                        NOSIG=
201204161920 METAR COR EGLL 161920Z 22010KT CAVOK 08/M02 Q1021 NOSIG=
201204161850 METAR COR EGLL 161850Z 22010KT CAVOK 08/M02 Q1021 NOSIG=
201204161820 METAR COR EGLL 161820Z 22010KT 190V260 CAVOK 09/M03 Q1021
                        NOSIG=
201204161750 METAR COR EGLL 161750Z 21011KT CAVOK 10/M02 Q1022 NOSIG=
201204161720 METAR COR EGLL 161720Z 22008KT 190V260 CAVOK 11/M05 Q1022
                        NOSIG=
201204161650 METAR COR EGLL 161650Z 22006KT 170V270 CAVOK 10/M05 Q1022
                        NOSIG=
201204161620 METAR COR EGLL 161620Z VRB07KT CAVOK 10/M05 Q1023 NOSIG=
201204161550 METAR COR EGLL 161550Z 21007KT 150V240 CAVOK 11/M05 Q1023
                        NOSIG=
201204161520 METAR COR EGLL 161520Z 23005KT 170V250 CAVOK 10/M06 Q1023
                        NOSIG=
201204161450 METAR COR EGLL 161450Z 27005KT 220V320 CAVOK 10/M06 Q1024
                        NOSIG=
201204161420 METAR COR EGLL 161420Z 23007KT 190V270 CAVOK 11/M05 Q1024
                        NOSIG=
201204161350 METAR EGLL 161350Z 24007KT 190V310 CAVOK 11/M06 Q1024=
201204161320 METAR COR EGLL 161320Z VRB04KT CAVOK 12/M05 Q1025 NOSIG=
201204161250 METAR EGLL 161250Z 23008KT 140V270 CAVOK 11/M05 Q1025=
201204161220 METAR COR EGLL 161220Z 24006KT 190V300 CAVOK 10/M05 Q1025
                        NOSIG=
201204161150 METAR COR EGLL 161150Z 29004KT 230V010 CAVOK 09/M05 Q1026
                        NOSIG=
201204161120 METAR COR EGLL 161120Z VRB03KT CAVOK 09/M04 Q1026 NOSIG=
201204161050 METAR COR EGLL 161050Z VRB04KT CAVOK 10/M04 Q1026 NOSIG=
201204161020 METAR EGLL 161020Z 06004KT 010V140 CAVOK 09/M04 Q1026=
201204160950 METAR COR EGLL 160950Z VRB05KT 9999 FEW046 09/M04 Q1026 NOSIG=
201204160920 METAR COR EGLL 160920Z 06004KT 350V170 9999 FEW044 08/M03
                        Q1027 NOSIG=
201204160850 METAR COR EGLL 160850Z VRB04KT CAVOK 07/M03 Q1027 NOSIG=
201204160820 METAR COR EGLL 160820Z 35004KT 310V040 CAVOK 07/M02 Q1027
                        NOSIG=
201204160750 METAR COR EGLL 160750Z VRB03KT CAVOK 05/M01 Q1027 NOSIG=
201204160720 METAR COR EGLL 160720Z VRB03KT CAVOK 04/M01 Q1027 NOSIG=
201204160650 METAR COR EGLL 160650Z VRB03KT CAVOK 03/M01 Q1027 NOSIG=
201204160620 METAR COR EGLL 160620Z 32004KT CAVOK 02/M02 Q1027 NOSIG=
201204160550 METAR COR EGLL 160550Z 32003KT CAVOK 02/M02 Q1026 NOSIG=
201204160520 METAR COR EGLL 160520Z 35003KT CAVOK 01/M02 Q1026 NOSIG=
201204160450 METAR COR EGLL 160450Z VRB03KT CAVOK 00/M02 Q1026 NOSIG=
201204160420 METAR COR EGLL 160420Z VRB03KT CAVOK 01/M02 Q1026 NOSIG=
201204160350 METAR EGLL 160350Z 35004KT 9999 FEW020 01/M02 Q1026=
201204160320 METAR COR EGLL 160320Z 35003KT CAVOK 01/M02 Q1026 NOSIG=
201204160250 METAR EGLL 160250Z 31004KT CAVOK 01/M02 Q1026=
201204160220 METAR COR EGLL 160220Z 29003KT CAVOK 02/M01 Q1026 NOSIG=
201204160150 METAR EGLL 160150Z VRB03KT CAVOK 02/M01 Q1026=
201204160120 METAR EGLL 160120Z AUTO VRB03KT 9999 NCD 02/M01 Q1026=
201204160050 METAR EGLL 160050Z AUTO VRB03KT 9999 NCD 02/M01 Q1026=
201204160020 METAR EGLL 160020Z AUTO VRB03KT 9999 NCD 03/M00 Q1026=
201204152350 METAR COR EGLL 152350Z VRB03KT CAVOK 03/M00 Q1026 NOSIG=
201204152320 METAR COR EGLL 152320Z VRB02KT CAVOK 03/M00 Q1026 NOSIG=
201204152250 METAR COR EGLL 152250Z 35004KT 330V050 CAVOK 04/M00 Q1026
                        NOSIG=
201204152220 METAR COR EGLL 152220Z 01004KT 320V060 CAVOK 04/M00 Q1026
                        NOSIG=
201204152150 METAR COR EGLL 152150Z 03005KT 350V060 CAVOK 04/M00 Q1026
                        NOSIG=
201204152120 METAR COR EGLL 152120Z 02006KT 340V060 9999 FEW020 05/M00
                        Q1026 NOSIG=
201204152050 METAR COR EGLL 152050Z 36005KT 340V050 CAVOK 05/00 Q1025
                        NOSIG=
201204152020 METAR COR EGLL 152020Z 36006KT 9999 FEW024 06/00 Q1025 NOSIG=
201204151950 METAR COR EGLL 151950Z 01005KT 330V060 9999 FEW024 06/M00
                        Q1024 NOSIG=
201204151920 METAR COR EGLL 151920Z 01007KT 350V050 9999 FEW024 07/00
                        Q1024 NOSIG=
201204151850 METAR COR EGLL 151850Z 02008KT 330V050 9999 FEW024 07/00
                        Q1024 NOSIG=
201204151820 METAR COR EGLL 151820Z 01008KT 330V050 9999 FEW024 07/01
                        Q1023 NOSIG=
201204151750 METAR COR EGLL 151750Z 01008KT 330V040 9999 FEW024 07/01
                        Q1023 NOSIG=
201204151720 METAR COR EGLL 151720Z 36009KT 310V030 9999 VCSH FEW020 SCT043
                        07/00 Q1023 NOSIG=
201204151650 METAR COR EGLL 151650Z 03008KT 360V080 9999 FEW032 07/01
                        Q1022 NOSIG=
201204151620 METAR COR EGLL 151620Z 01009KT 330V040 9999 FEW029 FEW035CB
                        08/01 Q1022 NOSIG=
201204151550 METAR COR EGLL 151550Z 01008KT 340V050 9999 FEW035CB SCT046
                        08/00 Q1022 NOSIG=
201204151520 METAR COR EGLL 151520Z 01012KT 9999 FEW020CB SCT043 09/M01
                        Q1022 TEMPO SHRAGS=
201204151450 METAR COR EGLL 151450Z 36011KT 310V030 9999 FEW043 10/M01
                        Q1021 TEMPO SHRAGS=
201204151420 METAR COR EGLL 151420Z 36011KT 9999 FEW047 09/M03 Q1021 NOSIG=
201204151350 METAR COR EGLL 151350Z 35010KT 290V020 CAVOK 10/M02 Q1021
                        NOSIG=
201204151320 METAR COR EGLL 151320Z 02009KT 320V050 CAVOK 10/M04 Q1021
                        NOSIG=
201204151250 METAR COR EGLL 151250Z 36009KT 330V030 CAVOK 09/M04 Q1021
                        NOSIG=
201204151220 METAR COR EGLL 151220Z 36010KT 320V050 CAVOK 09/M04 Q1021
                        NOSIG=
201204151150 METAR COR EGLL 151150Z 36010KT 330V050 9999 FEW049 09/M05
                        Q1020 NOSIG=
201204151120 METAR COR EGLL 151120Z 36011KT 9999 SCT049 09/M04 Q1020 NOSIG=
201204151050 METAR COR EGLL 151050Z 36011KT 340V050 9999 SCT046 08/M04
                        Q1020 NOSIG=
201204151020 METAR COR EGLL 151020Z 01010KT 330V060 9999 SCT048 09/M03
                        Q1020 NOSIG=
201204150950 METAR EGLL 150950Z 04012KT 360V060 9999 SCT040 08/M02 Q1020=
201204150920 METAR COR EGLL 150920Z 03009KT 350V060 9999 FEW031 08/M01
                        Q1020 NOSIG=
201204150850 METAR COR EGLL 150850Z 02009G19KT 340V060 9999 FEW034 08/M00
                        Q1020 NOSIG=
201204150820 METAR COR EGLL 150820Z 02011KT 340V050 9999 FEW028 07/M00
                        Q1019 NOSIG=
201204150750 METAR COR EGLL 150750Z 01009KT 340V050 CAVOK 06/M00 Q1019
                        NOSIG=
201204150720 METAR COR EGLL 150720Z 01009KT 330V040 CAVOK 05/M00 Q1019
                        NOSIG=
201204150650 METAR COR EGLL 150650Z 36009KT 320V020 CAVOK 04/M00 Q1019
                        NOSIG=
201204150620 METAR COR EGLL 150620Z 36007KT CAVOK 03/M00 Q1018 NOSIG=
201204150550 METAR COR EGLL 150550Z 36008KT CAVOK 03/M00 Q1018 NOSIG=
201204150520 METAR COR EGLL 150520Z 36008KT 9999 FEW049 03/M00 Q1017 NOSIG=
201204150450 METAR COR EGLL 150450Z 36007KT 330V030 9999 FEW049 03/M00
                        Q1017 NOSIG=
201204150420 METAR COR EGLL 150420Z 36006KT 320V030 CAVOK 03/00 Q1016
                        NOSIG=
201204150350 METAR COR EGLL 150350Z 36005KT 320V030 CAVOK 03/00 Q1016
                        NOSIG=
201204150320 METAR COR EGLL 150320Z 36006KT CAVOK 03/00 Q1016 NOSIG=
201204150250 METAR COR EGLL 150250Z 36005KT 330V030 CAVOK 03/00 Q1016
                        NOSIG=
201204150220 METAR COR EGLL 150220Z 01006KT 340V050 CAVOK 04/01 Q1015
                        NOSIG=
201204150150 METAR COR EGLL 150150Z 36006KT 340V040 CAVOK 04/01 Q1015
                        NOSIG=
201204150120 METAR EGLL 150120Z AUTO 02007KT 340V060 9999 NCD 04/01 Q1015=
201204150050 METAR EGLL 150050Z AUTO 01007KT 330V040 9999 NCD 04/01 Q1014=
201204150020 METAR EGLL 150020Z AUTO 01005KT 340V060 9999 NCD 04/01 Q1014=
201204142350 METAR COR EGLL 142350Z 02006KT 350V060 CAVOK 05/01 Q1014
                        NOSIG=
201204142320 METAR COR EGLL 142320Z 01005KT 340V050 9999 FEW022 05/01
                        Q1014 NOSIG=
201204142250 METAR COR EGLL 142250Z 02006KT 350V060 9999 FEW022 05/02
                        Q1014 NOSIG=
201204142220 METAR COR EGLL 142220Z 02006KT 340V050 9999 FEW040 06/02
                        Q1013 NOSIG=
201204142150 METAR COR EGLL 142150Z 03006KT 350V060 9999 FEW040 06/02
                        Q1013 NOSIG=
201204142120 METAR COR EGLL 142120Z 03009KT 9999 FEW029 06/02 Q1013 NOSIG=
201204142050 METAR COR EGLL 142050Z 02007KT 350V050 9999 FEW025 07/02
                        Q1012 NOSIG=
201204142020 METAR COR EGLL 142020Z 02007KT 340V050 9999 FEW049 07/02
                        Q1012 NOSIG=
201204141950 METAR COR EGLL 141950Z 02007KT 340V050 9999 FEW049 08/02
                        Q1012 NOSIG=
201204141920 METAR COR EGLL 141920Z 03007KT 350V060 9999 FEW030 08/02
                        Q1011 NOSIG=
201204141850 METAR COR EGLL 141850Z 01007KT 340V050 9999 FEW045 09/01
                        Q1010 NOSIG=
201204141820 METAR COR EGLL 141820Z 02008KT 340V050 9999 FEW045 10/02
                        Q1010 NOSIG=
201204141750 METAR COR EGLL 141750Z 03008KT 360V070 9999 FEW045 10/M00
                        Q1009 NOSIG=
201204141720 METAR COR EGLL 141720Z 03006KT 340V070 9999 FEW048 11/M01
                        Q1009 NOSIG=
201204141650 METAR COR EGLL 141650Z 01007KT 330V050 9999 FEW048 11/M01
                        Q1009 NOSIG=
201204141620 METAR COR EGLL 141620Z 03008KT 360V070 CAVOK 11/M01 Q1008
                        NOSIG=
201204141550 METAR COR EGLL 141550Z 03010KT 9999 FEW048 12/M02 Q1008 NOSIG=
201204141520 METAR COR EGLL 141520Z 02009KT 340V050 9999 FEW048 12/M01
                        Q1008 NOSIG=
201204141450 METAR COR EGLL 141450Z 02007KT 350V060 9999 FEW048 12/M01
                        Q1008 NOSIG=
201204141420 METAR COR EGLL 141420Z 03009KT 9999 FEW049 12/M01 Q1008 NOSIG=
201204141350 METAR COR EGLL 141350Z 02009KT 320V070 9999 BKN046 11/M00
                        Q1008 NOSIG=
201204141320 METAR COR EGLL 141320Z 02007KT 330V050 9999 SCT047 11/M01
                        Q1008 NOSIG=
201204141250 METAR COR EGLL 141250Z 03008KT 340V080 9999 BKN047 11/01
                        Q1008 NOSIG=
201204141220 METAR COR EGLL 141220Z 02007KT 330V090 9999 SCT048 12/M00
                        Q1008 NOSIG=
201204141150 METAR COR EGLL 141150Z 05008KT 020V090 9999 SCT041 11/M00
                        Q1008 NOSIG=
201204141120 METAR COR EGLL 141120Z 03008KT 350V070 9999 FEW038 11/01
                        Q1008 NOSIG=
201204141050 METAR COR EGLL 141050Z VRB07KT 9999 FEW034 10/01 Q1008 NOSIG=
201204141020 METAR COR EGLL 141020Z 04008KT 360V070 9999 FEW034 10/01
                        Q1008 NOSIG=
201204140950 METAR COR EGLL 140950Z 05007KT 9999 FEW030 09/02 Q1008 NOSIG=
201204140920 METAR COR EGLL 140920Z 05007KT 010V080 9999 FEW027 09/02
                        Q1008 NOSIG=
201204140850 METAR COR EGLL 140850Z 05007KT 360V090 9999 FEW019 08/02
                        Q1008 NOSIG=
201204140820 METAR COR EGLL 140820Z 06009KT 9999 SCT019 08/03 Q1007 NOSIG=
201204140750 METAR COR EGLL 140750Z 05008KT 020V080 9999 SCT015 07/04
                        Q1007 NOSIG=
201204140720 METAR COR EGLL 140720Z 06006KT 020V090 9999 FEW011 SCT039
                        07/04 Q1007 NOSIG=
201204140650 METAR COR EGLL 140650Z 05006KT 020V080 9000 FEW012 SCT035
                        06/04 Q1007 NOSIG=
201204140620 METAR COR EGLL 140620Z 05007KT 8000 FEW012 06/04 Q1006 TEMPO
                        BKN009=
201204140550 METAR COR EGLL 140550Z 07007KT 8000 FEW011 06/04 Q1006 NOSIG=
201204140520 METAR COR EGLL 140520Z 07006KT 8000 FEW011 BKN045 06/04 Q1006
                        NOSIG=
201204140450 METAR COR EGLL 140450Z 06008KT 8000 FEW011 SCT039 07/04 Q1005
                        NOSIG=
201204140420 METAR COR EGLL 140420Z 06007KT 8000 FEW039 SCT048 07/05 Q1005
                        NOSIG=
201204140350 METAR COR EGLL 140350Z 06008KT 7000 FEW009 SCT041 07/05 Q1005
                        NOSIG=
201204140320 METAR COR EGLL 140320Z 06008KT 7000 NSC 07/05 Q1005 NOSIG=
201204140250 METAR COR EGLL 140250Z 04005KT 7000 SCT044 07/05 Q1005 NOSIG=
201204140220 METAR COR EGLL 140220Z 07005KT 8000 SCT045 07/05 Q1005 NOSIG=
201204140150 METAR COR EGLL 140150Z 08004KT 7000 NSC 07/05 Q1005 NOSIG=
201204140120 METAR EGLL 140120Z AUTO 07004KT 4200 HZ NCD 07/06 Q1005=
201204140050 METAR EGLL 140050Z AUTO 08005KT 3800 -DZ SCT047/// 07/05
                        Q1005=
201204140020 METAR EGLL 140020Z AUTO 06005KT 4400 HZ FEW048/// 07/05 Q1005=
201204132350 METAR COR EGLL 132350Z VRB03KT 8000 BKN046 07/05 Q1005 NOSIG=
201204132320 METAR COR EGLL 132320Z 07004KT 030V100 9000 FEW049 07/04
                        Q1005 NOSIG=
201204132250 METAR COR EGLL 132250Z 09004KT CAVOK 07/04 Q1005 NOSIG=
201204132220 METAR COR EGLL 132220Z 09004KT CAVOK 06/03 Q1005 NOSIG=
201204132150 METAR COR EGLL 132150Z VRB05KT 9999 FEW049 08/03 Q1005 NOSIG=
201204132120 METAR COR EGLL 132120Z 18005G15KT 100V240 9999 SCT049 08/03
                        Q1005 NOSIG=
201204132050 METAR COR EGLL 132050Z 28003KT 9999 BKN046 10/03 Q1005 NOSIG=
201204132020 METAR COR EGLL 132020Z 30004KT 9999 -SHRA BKN046 10/03 Q1005
                        NOSIG=
201204131950 METAR COR EGLL 131950Z 30005KT 9999 -SHRA BKN046 10/03 Q1005
                        NOSIG=
201204131920 METAR COR EGLL 131920Z 29006KT 9999 VCSH BKN048 10/03 Q1004
                        NOSIG=
201204131850 METAR COR EGLL 131850Z 25007KT 210V280 9999 BKN048 10/02
                        Q1004 NOSIG=
201204131820 METAR COR EGLL 131820Z 23009KT 9999 SCT049 11/01 Q1004 NOSIG=
201204131750 METAR COR EGLL 131750Z VRB03KT 9999 SCT044 12/01 Q1004 NOSIG=
201204131720 METAR COR EGLL 131720Z 17004KT 100V240 9999 FEW044 12/01
                        Q1004 NOSIG=
201204131650 METAR COR EGLL 131650Z 18006KT 110V250 9999 FEW040 12/01
                        Q1004 NOSIG=
201204131620 METAR COR EGLL 131620Z 18005KT 130V260 9999 FEW040 12/02
                        Q1004 NOSIG=
201204131550 METAR COR EGLL 131550Z 17007KT 110V230 9999 VCSH FEW048 12/02
                        Q1004 NOSIG=
201204131520 METAR EGLL 131520Z 16009KT 130V230 9999 BKN048 13/03 Q1004=
201204131450 METAR COR EGLL 131450Z VRB02KT 9999 FEW020 SCT049 12/02 Q1004
                        NOSIG=
201204131420 METAR COR EGLL 131420Z VRB05KT 9999 VCSH FEW045CB 13/01 Q1004
                        NOSIG=
201204131350 METAR COR EGLL 131350Z VRB03KT 9999 VCSH FEW045 13/02 Q1004
                        NOSIG=
201204131320 METAR COR EGLL 131320Z 20004KT 090V260 9999 VCSH SCT042 12/02
                        Q1005 TEMPO 4500 SHRA=
201204131250 METAR COR EGLL 131250Z VRB02KT 9999 BKN041 12/01 Q1005 NOSIG=
201204131220 METAR COR EGLL 131220Z VRB05KT 9999 BKN045 12/02 Q1005 NOSIG=
201204131150 METAR COR EGLL 131150Z 11005KT 020V160 9999 SCT030 SCT034
                        12/03 Q1005 NOSIG=
201204131120 METAR COR EGLL 131120Z VRB03KT 9999 BKN026 11/04 Q1005 NOSIG=
201204131050 METAR COR EGLL 131050Z 13005KT 060V180 9999 FEW025 10/04
                        Q1005 NOSIG=
201204131020 METAR COR EGLL 131020Z 06005KT 010V100 9999 SCT024 10/04
                        Q1006 NOSIG=
201204130950 METAR COR EGLL 130950Z 12006KT 060V150 9000 FEW013 09/04
                        Q1006 NOSIG=
201204130920 METAR COR EGLL 130920Z VRB02KT 8000 FEW013 08/04 Q1006 NOSIG=
201204130850 METAR COR EGLL 130850Z 08004KT 040V170 7000 SCT010 07/04
                        Q1006 NOSIG=
201204130820 METAR COR EGLL 130820Z VRB03KT 3800 BR SCT006 SCT008 06/04
                        Q1006 BECMG 9999 NSW SCT022=
201204130750 METAR COR EGLL 130750Z 01004KT 340V050 1700 BR SCT001 BKN003
                        04/03 Q1006 BECMG 3500 SCT003 BKN004=
201204130720 METAR COR EGLL 130720Z VRB03KT 0400 R27R/0450 R27L/0800 FG
                        OVC001 03/03 Q1006 BECMG 1500 BR
                        SCT001 BKN003=
201204130650 METAR COR EGLL 130650Z 01004KT 330V050 0400 R27R/0450 R27L/0750
                        FG OVC001 03/02 Q1006 TEMPO 1000
                        VCFG=
201204130620 METAR COR EGLL 130620Z 35004KT 4400 BR FEW003 04/03 Q1005
                        TEMPO 2000 BKN003=
201204130550 METAR COR EGLL 130550Z 31002KT 4300 BR NSC 04/03 Q1005 BECMG
                        7000 NSW=
201204130520 METAR COR EGLL 130520Z 30003KT 3200 BR NSC 03/02 Q1005 BECMG
                        5000 HZ=
201204130450 METAR COR EGLL 130450Z 29003KT 2700 BR NSC 02/01 Q1005 BECMG
                        4000 BR=
201204130420 METAR COR EGLL 130420Z 29003KT 4000 1900SW BR NSC 03/02 Q1005
                        NOSIG=
201204130350 METAR COR EGLL 130350Z 29003KT 3900 BR NSC 03/02 Q1005 NOSIG=
201204130320 METAR COR EGLL 130320Z 30002KT 4000 BR NSC 04/02 Q1005 NOSIG=
201204130250 METAR COR EGLL 130250Z 00000KT 6000 NSC 04/03 Q1005 TEMPO
                        4000 MIFG BR=
201204130220 METAR COR EGLL 130220Z 00000KT 6000 NSC 04/03 Q1005 TEMPO
                        4000 BR MIFG=
201204130150 METAR COR EGLL 130150Z 07004KT 7000 NSC 04/02 Q1005 TEMPO
                        4000 BR=
201204130120 METAR EGLL 130120Z AUTO VRB03KT 9000 NCD 05/03 Q1005=
201204130050 METAR EGLL 130050Z AUTO 35004KT 9999 NCD 06/03 Q1005=
201204130020 METAR EGLL 130020Z AUTO 32004KT 9999 FEW032/// 06/04 Q1005=
201204122350 METAR COR EGLL 122350Z 30004KT CAVOK 05/03 Q1005 NOSIG=
201204122320 METAR COR EGLL 122320Z 28003KT CAVOK 05/04 Q1005 NOSIG=
201204122250 METAR COR EGLL 122250Z VRB02KT 9999 FEW040 06/04 Q1005 NOSIG=
201204122220 METAR COR EGLL 122220Z VRB03KT 9999 FEW035 SCT043 06/04 Q1005
                        NOSIG=
201204122150 METAR COR EGLL 122150Z 00000KT 9999 FEW037 SCT045 07/05 Q1005
                        NOSIG=
201204122120 METAR COR EGLL 122120Z 23005KT 190V270 9999 FEW043 07/05
                        Q1005 NOSIG=
201204122050 METAR COR EGLL 122050Z 20006KT 150V260 CAVOK 07/05 Q1005
                        NOSIG=
201204122020 METAR COR EGLL 122020Z 19005KT 140V230 9999 FEW045 07/05
                        Q1004 NOSIG=
201204121950 METAR COR EGLL 121950Z 20005KT 160V260 9999 SCT046 08/05
                        Q1004 NOSIG=
201204121920 METAR COR EGLL 121920Z 21005KT 170V290 9999 SCT036 08/05
                        Q1004 NOSIG=
201204121850 METAR COR EGLL 121850Z 20005KT 150V260 9999 SCT028 09/05
                        Q1004 NOSIG=
201204121820 METAR COR EGLL 121820Z 18006KT 130V230 9999 SCT046 09/05
                        Q1004 NOSIG=
201204121750 METAR COR EGLL 121750Z VRB05KT 9999 SCT045 09/06 Q1004 NOSIG=
201204121720 METAR COR EGLL 121720Z 01004KT 330V050 9999 FEW035 11/04
                        Q1003 NOSIG=
201204121650 METAR COR EGLL 121650Z 36005KT 330V050 9999 FEW025CB 11/04
                        Q1003 NOSIG=
201204121620 METAR COR EGLL 121620Z VRB03KT 9999 SCT027CB SCT039 10/06
                        Q1003 RERA RETS NOSIG=
201204121550 METAR COR EGLL 121550Z 21004KT 130V300 9999 TSRA FEW013 BKN025CB
                        10/04 Q1003 NOSIG=
201204121520 METAR COR EGLL 121520Z VRB04KT 9999 -SHRA SCT012 SCT030CB
                        12/06 Q1003 RETS TEMPO TSGR=
201204121450 METAR COR EGLL 121450Z VRB02KT 9999 -SHRA FEW032 BKN038 11/03
                        Q1003 RERA TEMPO TSRA=
201204121420 METAR COR EGLL 121420Z VRB03KT 9999 SCT039 12/03 Q1003 TEMPO
                        SHRA=
201204121350 METAR COR EGLL 121350Z VRB04KT 9999 SCT041 13/03 Q1003 NOSIG=
201204121320 METAR COR EGLL 121320Z 31005KT 270V040 9999 SCT035 13/03
                        Q1003 NOSIG=
201204121250 METAR COR EGLL 121250Z 28008KT 9999 VCSH FEW011 SCT032 10/04
                        Q1003 NOSIG=
201204121220 METAR COR EGLL 121220Z 30012KT 9999 VCSH FEW030 BKN035 11/03
                        Q1003 TEMPO SHRA=
201204121150 METAR COR EGLL 121150Z 25007KT 220V290 9999 SCT025 12/03
                        Q1003 TEMPO SHRA=
201204121120 METAR COR EGLL 121120Z 28007KT 250V330 9999 SCT025 11/04
                        Q1003 NOSIG=
201204121050 METAR COR EGLL 121050Z 27007KT 230V310 9999 SCT025 11/04
                        Q1003 NOSIG=
201204121020 METAR COR EGLL 121020Z 27008KT 230V290 9999 FEW022 SCT026
                        11/05 Q1003 NOSIG=
201204120950 METAR COR EGLL 120950Z 27007KT 240V300 9999 SCT025 BKN038
                        10/04 Q1003 NOSIG=
201204120920 METAR COR EGLL 120920Z 24005KT 190V360 9999 FEW020 SCT038
                        10/04 Q1003 NOSIG=
201204120850 METAR COR EGLL 120850Z 24005KT 210V280 9999 FEW040 09/04
                        Q1003 NOSIG=
201204120820 METAR EGLL 120820Z 27004KT 210V310 9999 FEW040 08/04 Q1003
                        NOSIG=
201204120750 METAR COR EGLL 120750Z 24005KT 170V280 9999 FEW040 07/04
                        Q1003 NOSIG=
201204120720 METAR COR EGLL 120720Z 23004KT 200V270 9999 FEW038 06/03
                        Q1003 NOSIG=
201204120650 METAR COR EGLL 120650Z 18005KT 120V220 9999 VCSH SCT042 05/03
                        Q1002 NOSIG=
201204120620 METAR COR EGLL 120620Z VRB03KT 9999 VCSH BKN042 05/03 Q1002
                        NOSIG=
201204120550 METAR COR EGLL 120550Z 28004KT 9999 VCSH FEW037 BKN042 05/03
                        Q1002 TEMPO SHRA=
201204120520 METAR COR EGLL 120520Z 28004KT 240V300 9999 FEW046 04/03
                        Q1002 TEMPO SHRA=
201204120450 METAR COR EGLL 120450Z 27004KT 220V300 9999 FEW049 04/03
                        Q1002 NOSIG=
201204120420 METAR COR EGLL 120420Z 26004KT CAVOK 04/02 Q1002 NOSIG=
201204120350 METAR COR EGLL 120350Z 25002KT CAVOK 04/02 Q1002 NOSIG=
201204120320 METAR COR EGLL 120320Z 27003KT CAVOK 04/02 Q1002 NOSIG=
201204120250 METAR COR EGLL 120250Z 28004KT CAVOK 03/01 Q1002 NOSIG=
201204120220 METAR COR EGLL 120220Z 31003KT CAVOK 04/03 Q1001 NOSIG=
201204120150 METAR COR EGLL 120150Z 28005KT 9999 FEW049 04/02 Q1001 NOSIG=
201204120120 METAR EGLL 120120Z AUTO 27005KT 9999 NCD 04/02 Q1002=
201204120050 METAR EGLL 120050Z AUTO 31003KT 9999 NCD 05/02 Q1002=
201204120020 METAR EGLL 120020Z AUTO 30005KT 9999 NCD 05/03 Q1001=
201204112350 METAR EGLL 112350Z 30005KT CAVOK 05/03 Q1001=
201204112320 METAR EGLL 112320Z 29006KT CAVOK 06/03 Q1001=
201204112250 METAR COR EGLL 112250Z 28005KT 9999 FEW044 06/03 Q1001 NOSIG=
201204112220 METAR COR EGLL 112220Z 29006KT 9999 SCT043 07/04 Q1001 NOSIG=
201204112150 METAR COR EGLL 112150Z 29006KT 9999 SCT043 08/04 Q1001 NOSIG=
201204112120 METAR COR EGLL 112120Z 29006KT 9999 FEW039 08/04 Q1001 NOSIG=
201204112050 METAR COR EGLL 112050Z 28006KT 9999 SCT049 08/04 Q1001 NOSIG=
201204112020 METAR COR EGLL 112020Z 27007KT 9999 SCT049 09/04 Q1001 NOSIG=
201204111950 METAR EGLL 111950Z 29004KT 9999 SCT047 09/04 Q1000=
201204111920 METAR COR EGLL 111920Z 29005KT 9999 SCT048 09/03 Q1000 NOSIG=
201204111850 METAR COR EGLL 111850Z 30005KT 9999 VCSH SCT049 09/03 Q0999
                        NOSIG=
201204111820 METAR EGLL 111820Z 29007KT 9999 VCSH SCT049CB 10/02 Q0999=
201204111750 METAR COR EGLL 111750Z 32010KT 9999 VCSH SCT042CB 10/02 Q0999
                        TEMPO SHRA=
201204111720 METAR COR EGLL 111720Z 33013KT 9999 VCSH SCT044CB 12/01 Q0998
                        TEMPO 4000 +SHRA=
201204111650 METAR COR EGLL 111650Z 29005KT 260V360 9999 VCSH SCT048CB
                        13/00 Q0997 TEMPO 4000 +SHRA=
201204111620 METAR EGLL 111620Z 30006KT 260V350 9999 VCSH SCT047CB 14/01
                        Q0997=
201204111550 METAR COR EGLL 111550Z 30006KT 270V340 9999 VCSH SCT049CB
                        13/01 Q0997 TEMPO 4000 +SHRA=
201204111520 METAR COR EGLL 111520Z 27008KT 240V310 9999 VCSH SCT044CB
                        13/00 Q0997 NOSIG=
201204111450 METAR COR EGLL 111450Z 31007KT 270V360 9999 VCSH SCT044CB
                        13/00 Q0997 NOSIG=
201204111420 METAR COR EGLL 111420Z 30009KT 260V330 9999 VCSH SCT040CB
                        12/00 Q0997 NOSIG=
201204111350 METAR COR EGLL 111350Z 31007KT 260V020 9999 VCSH SCT049CB
                        13/01 Q0997 NOSIG=
201204111320 METAR EGLL 111320Z 31008KT 9999 VCSH SCT048CB 12/01 Q0997=
201204111250 METAR COR EGLL 111250Z 25007KT 210V290 9999 VCSH SCT040CB
                        SCT047CB 13/01 Q0997 NOSIG=
201204111220 METAR COR EGLL 111220Z 31006KT 270V340 9999 VCSH SCT041CB
                        13/02 Q0997 NOSIG=
201204111150 METAR COR EGLL 111150Z 28008KT 230V320 9999 SCT039CB 12/02
                        Q0997 NOSIG=
201204111120 METAR COR EGLL 111120Z 28007KT 240V340 9999 SCT033 12/03
                        Q0997 NOSIG=
201204111050 METAR COR EGLL 111050Z 29005KT 230V330 9999 SCT029 11/03
                        Q0997 NOSIG=
201204111020 METAR COR EGLL 111020Z 28006KT 240V310 9999 SCT028 10/03
                        Q0997 NOSIG=
201204110950 METAR COR EGLL 110950Z 28006KT 250V310 9999 FEW022 SCT042
                        10/04 Q0997 NOSIG=
201204110920 METAR COR EGLL 110920Z 24004KT 200V280 9999 FEW020 SCT030
                        09/04 Q0997 RESHRA NOSIG=
201204110850 METAR COR EGLL 110850Z 27006KT 9999 -SHRA FEW018 SCT026 08/04
                        Q0997 NOSIG=
201204110820 METAR COR EGLL 110820Z 25006KT 220V300 9999 FEW028 SCT044
                        08/04 Q0996 NOSIG=
201204110750 METAR COR EGLL 110750Z 27005KT 9999 SCT043 07/03 Q0996 NOSIG=
201204110720 METAR COR EGLL 110720Z VRB03KT 9999 FEW047 06/03 Q0996 NOSIG=
201204110650 METAR COR EGLL 110650Z 26005KT 210V290 CAVOK 05/03 Q0996
                        NOSIG=
201204110620 METAR COR EGLL 110620Z 21004KT 150V240 CAVOK 04/02 Q0996
                        NOSIG=
201204110550 METAR COR EGLL 110550Z 21005KT CAVOK 03/01 Q0995 NOSIG=
201204110520 METAR COR EGLL 110520Z 21004KT 170V250 CAVOK 03/01 Q0995
                        NOSIG=
201204110450 METAR COR EGLL 110450Z 21005KT 160V240 CAVOK 03/01 Q0995
                        NOSIG=
201204110420 METAR COR EGLL 110420Z 20004KT 170V230 CAVOK 03/01 Q0995
                        NOSIG=
201204110350 METAR COR EGLL 110350Z 20003KT CAVOK 03/01 Q0995 NOSIG=
201204110320 METAR EGLL 110320Z 21004KT CAVOK 04/02 Q0995=
201204110250 METAR COR EGLL 110250Z 22004KT CAVOK 04/02 Q0995 NOSIG=
201204110220 METAR COR EGLL 110220Z 22004KT CAVOK 04/01 Q0995 NOSIG=
201204110150 METAR COR EGLL 110150Z 19004KT CAVOK 04/02 Q0994 NOSIG=
201204110120 METAR EGLL 110120Z AUTO 23004KT 9999 NCD 04/02 Q0994=
201204110050 METAR EGLL 110050Z AUTO 23004KT 9999 NCD 05/02 Q0994=
201204110020 METAR EGLL 110020Z AUTO 22005KT 9999 NCD 05/02 Q0994=
201204102350 METAR COR EGLL 102350Z 22006KT CAVOK 05/02 Q0994 NOSIG=
201204102320 METAR COR EGLL 102320Z 24008KT CAVOK 06/02 Q0994 NOSIG=
201204102250 METAR COR EGLL 102250Z 24008KT CAVOK 06/02 Q0994 NOSIG=
201204102220 METAR COR EGLL 102220Z 24009KT CAVOK 06/03 Q0994 NOSIG=
201204102150 METAR COR EGLL 102150Z 24010KT CAVOK 07/03 Q0994 NOSIG=
201204102120 METAR COR EGLL 102120Z 24010KT CAVOK 07/03 Q0993 NOSIG=
201204102050 METAR COR EGLL 102050Z 24010KT 9999 FEW030 08/03 Q0993 NOSIG=
201204102020 METAR COR EGLL 102020Z 28007KT 9999 FEW033 09/03 Q0993 NOSIG=
201204101950 METAR COR EGLL 101950Z 25009KT 220V280 9999 FEW033 SCT042
                        09/03 Q0993 NOSIG=
201204101920 METAR COR EGLL 101920Z 29006KT 260V320 9999 SCT035 09/03
                        Q0992=
201204101850 METAR COR EGLL 101850Z 25008KT 210V290 9999 VCSH FEW046CB
                        10/02 Q0992 NOSIG=
201204101820 METAR COR EGLL 101820Z 25012KT 9999 FEW030CB 10/03 Q0991
                        NOSIG=
201204101750 METAR COR EGLL 101750Z 25012KT CAVOK 11/02 Q0991 NOSIG=
201204101720 METAR COR EGLL 101720Z 24012KT 200V270 9999 FEW040CB 11/01
                        Q0991 NOSIG=
201204101650 METAR COR EGLL 101650Z 25013KT 9999 FEW030CB 11/01 Q0991
                        NOSIG=
201204101620 METAR COR EGLL 101620Z 27015KT 9999 SCT045 11/02 Q0991 NOSIG=
201204101550 METAR COR EGLL 101550Z 28009KT 9999 SCT042 10/04 Q0991 RESHRA
                        NOSIG=
201204101520 METAR COR EGLL 101520Z 30007KT 270V330 9999 VCSH SCT042 12/02
                        Q0990 TEMPO 25015G25KT SHRA=
201204101450 METAR COR EGLL 101450Z 23010KT 180V280 9999 FEW048 12/03
                        Q0990 TEMPO 25015G25KT SHRA=
201204101420 METAR COR EGLL 101420Z 26009KT 220V300 9999 FEW021 SCT048
                        10/04 Q0990 NOSIG=
201204101350 METAR COR EGLL 101350Z 26013KT 9999 SHRA SCT049CB 13/M00
                        Q0990 BECMG NSW=
201204101320 METAR COR EGLL 101320Z 23013KT 190V260 9999 FEW048 14/01
                        Q0990 TEMPO SHRA=
201204101250 METAR COR EGLL 101250Z 24015KT 9999 SCT048 13/01 Q0990 NOSIG=
201204101220 METAR COR EGLL 101220Z 22013KT 9999 SCT045 13/01 Q0990 NOSIG=
201204101150 METAR COR EGLL 101150Z 26013KT 9999 BKN043 13/02 Q0990 NOSIG=
201204101120 METAR COR EGLL 101120Z 25013KT 9999 BKN042 11/02 Q0990 NOSIG=
201204101050 METAR COR EGLL 101050Z 25013KT 220V280 9999 BKN041 11/02
                        Q0990 NOSIG=
201204101020 METAR COR EGLL 101020Z 25013KT 9999 SCT038 BKN043 11/02 Q0990
                        NOSIG=
201204100950 METAR COR EGLL 100950Z 25014KT 9999 SCT035 11/02 Q0990 NOSIG=
201204100920 METAR COR EGLL 100920Z 26013KT 9999 FEW031 10/02 Q0990 NOSIG=
201204100850 METAR COR EGLL 100850Z 26013KT 9999 FEW029 10/03 Q0990 NOSIG=
201204100820 METAR COR EGLL 100820Z 24013KT 9999 FEW024 09/03 Q0990 NOSIG=
201204100750 METAR COR EGLL 100750Z 24012KT 9999 SCT022 08/03 Q0990 NOSIG=
201204100720 METAR COR EGLL 100720Z 24013KT CAVOK 08/03 Q0990 NOSIG=
201204100650 METAR COR EGLL 100650Z 24014KT CAVOK 07/03 Q0989 NOSIG=
201204100620 METAR COR EGLL 100620Z 24012KT CAVOK 06/03 Q0989 NOSIG=
201204100550 METAR COR EGLL 100550Z 23012KT CAVOK 06/03 Q0989 NOSIG=
201204100520 METAR COR EGLL 100520Z 23011KT CAVOK 05/03 Q0989 NOSIG=
201204100450 METAR COR EGLL 100450Z 23011KT CAVOK 06/03 Q0989 NOSIG=
201204100420 METAR COR EGLL 100420Z 23011KT CAVOK 06/03 Q0988 NOSIG=
201204100350 METAR COR EGLL 100350Z 24011KT CAVOK 06/03 Q0988 NOSIG=
201204100320 METAR COR EGLL 100320Z 24011KT CAVOK 07/03 Q0988 NOSIG=
201204100250 METAR COR EGLL 100250Z 24013KT 9999 FEW023 08/04 Q0988 NOSIG=
201204100220 METAR COR EGLL 100220Z 26015KT 9999 FEW023 08/04 Q0988 NOSIG=
201204100150 METAR COR EGLL 100150Z 26018KT 9999 FEW035 09/04 Q0987 NOSIG=
201204100120 METAR EGLL 100120Z AUTO 26018KT 9999 FEW042/// 09/05 Q0987=
201204100050 METAR EGLL 100050Z AUTO 25014KT 9999 FEW035/// SCT042///
                        10/06 Q0987=
201204100020 METAR EGLL 100020Z AUTO 23014KT 9999 -DZ SCT013/// BKN020///
                        10/08 Q0987=
201204092350 METAR COR EGLL 092350Z 22013KT 9999 FEW016 SCT026 10/08 Q0986
                        TEMPO RA BKN014=
201204092320 METAR COR EGLL 092320Z 22011KT 9999 SCT016 SCT025 10/08 Q0986
                        TEMPO RA BKN010=
201204092250 METAR COR EGLL 092250Z 22013KT 9999 FEW009 SCT014 BKN020
                        10/09 Q0986 TEMPO BKN014=
201204092220 METAR COR EGLL 092220Z 22013KT 190V260 9999 -RA SCT009 BKN016
                        10/09 Q0986 TEMPO BKN012=
201204092150 METAR COR EGLL 092150Z 21012KT 180V240 8000 -RA FEW008 BKN010
                        10/09 Q0987 BECMG SCT010 BKN018=
201204092120 METAR COR EGLL 092120Z 21013KT 9000 -RA FEW008 BKN011 10/09
                        Q0987 TEMPO RA BKN008=
201204092050 METAR COR EGLL 092050Z 21014KT 9999 -RA SCT009 BKN011 10/09
                        Q0987 TEMPO RA BKN008=
201204092020 METAR COR EGLL 092020Z 20012KT 180V250 9999 -RA SCT008 BKN012
                        10/09 Q0988 RERA TEMPO RA BKN008=
201204091950 METAR COR EGLL 091950Z 21012KT 9999 RA FEW008 SCT009 BKN011
                        10/09 Q0989 TEMPO BKN008=
201204091920 METAR COR EGLL 091920Z 21012KT 180V250 9999 -RA FEW012 BKN018
                        10/09 Q0989 RERA TEMPO RA SCT008
                        BKN010=
201204091850 METAR COR EGLL 091850Z 21013KT 180V240 9999 RA SCT009 BKN012
                        10/09 Q0989 TEMPO BKN008=
201204091820 METAR COR EGLL 091820Z 21013KT 8000 -RA FEW008 BKN011 10/09
                        Q0990 TEMPO RA BKN008=
201204091750 METAR COR EGLL 091750Z 22014G25KT 9999 -RA FEW009 BKN012
                        10/09 Q0990 TEMPO RA BKN009=
201204091720 METAR COR EGLL 091720Z 22013G23KT 9999 -RA SCT010 BKN013
                        10/08 Q0990 TEMPO SCT013 BKN015=
201204091650 METAR COR EGLL 091650Z 21013KT 9999 -RA BKN012 BKN017 10/09
                        Q0991 TEMPO BKN012=
201204091620 METAR COR EGLL 091620Z 22015KT 180V240 9999 -RA SCT010 BKN014
                        10/08 Q0991 TEMPO SCT014 BKN020=
201204091550 METAR COR EGLL 091550Z 22017G30KT 9999 -RA FEW011 SCT013
                        BKN017 11/09 Q0992 TEMPO BKN012=
201204091520 METAR COR EGLL 091520Z 22015KT 9999 -RA BKN013 11/08 Q0992
                        TEMPO SCT013 BKN018=
201204091450 METAR COR EGLL 091450Z 23015G27KT 190V260 9999 -RA SCT012
                        BKN016 11/09 Q0993 TEMPO BKN012=
201204091420 METAR COR EGLL 091420Z 22013G23KT 9999 -RA SCT012 BKN017
                        11/09 Q0993 TEMPO BKN012=
201204091350 METAR COR EGLL 091350Z 22015KT 9999 -RA SCT012 BKN015 11/09
                        Q0994 TEMPO BKN012=
201204091320 METAR COR EGLL 091320Z 22015KT 9999 -RA SCT014 BKN017 11/09
                        Q0995 TEMPO BKN014=
201204091250 METAR COR EGLL 091250Z 23016KT 9999 -RA SCT014 BKN022 11/09
                        Q0995 TEMPO BKN014=
201204091220 METAR COR EGLL 091220Z 22013KT 9999 -RA BKN013 BKN022 11/09
                        Q0996 TEMPO SCT012 BKN022=
201204091150 METAR COR EGLL 091150Z 23014KT 9999 -RA BKN014 BKN021 11/09
                        Q0996 TEMPO SCT014 BKN022=
201204091120 METAR COR EGLL 091120Z 22014KT 9999 -RA SCT018 BKN023 11/08
                        Q0997 TEMPO BKN014=
201204091050 METAR COR EGLL 091050Z 23014KT 9999 -RA BKN016 BKN026 10/08
                        Q0997 TEMPO BKN014=
201204091020 METAR COR EGLL 091020Z 22011KT 9999 -RA SCT011 BKN021 10/08
                        Q0998 TEMPO BKN012=
201204090950 METAR COR EGLL 090950Z 22011KT 9999 -RA FEW011 SCT014 BKN022
                        10/08 Q0998 TEMPO BKN014=
201204090920 METAR COR EGLL 090920Z 22013KT 9999 -RA SCT014 BKN023 10/08
                        Q0999 TEMPO BKN014=
201204090850 METAR COR EGLL 090850Z 22012KT 9999 -RA BKN013 BKN030 10/08
                        Q0999 TEMPO SCT013=
201204090820 METAR COR EGLL 090820Z 22012KT 9999 -RA SCT014 BKN038 09/07
                        Q0999 TEMPO BKN012=
201204090750 METAR COR EGLL 090750Z 22011KT 9999 -RA SCT014 BKN026 09/07
                        Q1000 TEMPO BKN012=
201204090720 METAR COR EGLL 090720Z 23013KT 9999 -RA SCT014 BKN027 09/07
                        Q1000 TEMPO BKN012=
201204090650 METAR COR EGLL 090650Z 23013KT 9999 -RA FEW014 SCT021 BKN040
                        09/07 Q1001 TEMPO BKN010=
201204090620 METAR EGLL 090620Z 23012KT 9999 -RA SCT013 BKN041 09/07 Q1001
                        BECMG BKN014=
201204090550 METAR COR EGLL 090550Z 23011KT 9999 -RA SCT044 09/07 Q1002
                        BECMG BKN014=
201204090520 METAR COR EGLL 090520Z 23011KT 9999 -RA FEW019 09/07 Q1002
                        BECMG BKN014=
201204090450 METAR COR EGLL 090450Z 24011KT 9999 -RA FEW019 09/06 Q1002
                        BECMG BKN012=
201204090420 METAR COR EGLL 090420Z 23010KT 9999 -RA FEW016 SCT040 08/06
                        Q1003 BECMG BKN012=
201204090350 METAR COR EGLL 090350Z 23011KT 9999 -RA FEW014 BKN040 08/06
                        Q1003 BECMG BKN012=
201204090320 METAR COR EGLL 090320Z 24010KT 9999 -RA FEW016 SCT035 BKN046
                        09/06 Q1004 TEMPO BKN012=
201204090250 METAR COR EGLL 090250Z 23010KT 9999 FEW026 09/06 Q1004 TEMPO
                        BKN014=
201204090220 METAR COR EGLL 090220Z 24009KT 9999 FEW018 09/06 Q1005 NOSIG=
201204090150 METAR COR EGLL 090150Z 25011KT 9999 -RA BKN047 09/06 Q1005
                        NOSIG=
201204090120 METAR EGLL 090120Z NIL=
201204090050 METAR EGLL 090050Z NIL=
201204090020 METAR EGLL 090020Z NIL=
201204082350 METAR COR EGLL 082350Z 25009KT 9999 -RA FEW018 09/06 Q1007
                        NOSIG=
201204082320 METAR COR EGLL 082320Z 25009KT 9999 FEW018 09/06 Q1007 NOSIG=
201204082250 METAR COR EGLL 082250Z 26009KT 9999 FEW020 09/06 Q1008 NOSIG=
201204082220 METAR COR EGLL 082220Z 27009KT 9999 FEW021 10/06 Q1008 NOSIG=
201204082150 METAR COR EGLL 082150Z 27010KT 9999 FEW023 10/06 Q1008 NOSIG=
201204082120 METAR COR EGLL 082120Z 26012KT CAVOK 11/06 Q1008 NOSIG=
201204082050 METAR COR EGLL 082050Z 27010KT 9999 FEW025 11/06 Q1008 NOSIG=
201204082020 METAR COR EGLL 082020Z 26011KT 9999 FEW028 11/06 Q1008 NOSIG=
201204081950 METAR COR EGLL 081950Z 27012KT 9999 FEW026 11/06 Q1009 NOSIG=
201204081920 METAR COR EGLL 081920Z 26012KT 9999 FEW048 12/06 Q1009 NOSIG=
201204081850 METAR COR EGLL 081850Z 27012KT 9999 FEW048 13/06 Q1009 NOSIG=
201204081820 METAR COR EGLL 081820Z 28013KT 9999 SCT049 13/07 Q1009 NOSIG=
201204081750 METAR COR EGLL 081750Z 27010KT 9999 FEW046 14/07 Q1009 NOSIG=
201204081720 METAR COR EGLL 081720Z 27011KT 9999 SCT035 SCT042 14/08 Q1009
                        NOSIG=
201204081650 METAR COR EGLL 081650Z 25010KT 9999 FEW031 BKN042 14/08 Q1010
                        NOSIG=
201204081620 METAR COR EGLL 081620Z 25010KT 9999 FEW027 BKN038 14/08 Q1010
                        RESHRA NOSIG=
201204081550 METAR COR EGLL 081550Z 25012KT 9999 VCSH FEW025 BKN038 14/08
                        Q1010 NOSIG=
201204081520 METAR COR EGLL 081520Z 25010KT 9999 FEW026 BKN042 14/08 Q1010
                        NOSIG=
201204081450 METAR COR EGLL 081450Z 25009KT 9999 SCT026 SCT033 BKN043
                        13/08 Q1011 NOSIG=
201204081420 METAR COR EGLL 081420Z 24008KT 200V260 9999 FEW027 SCT036
                        BKN046 13/08 Q1011 NOSIG=
201204081350 METAR COR EGLL 081350Z 28008KT 9999 FEW023 BKN033 13/08 Q1012
                        NOSIG=
201204081320 METAR COR EGLL 081320Z 27011KT 9999 SCT025 BKN031 13/08 Q1012
                        NOSIG=
201204081250 METAR COR EGLL 081250Z 28010KT 9999 SCT020 SCT038 13/08 Q1012
                        NOSIG=
201204081220 METAR COR EGLL 081220Z 29007KT 9999 FEW020 BKN028 12/08 Q1012
                        NOSIG=
201204081150 METAR COR EGLL 081150Z 28010KT 260V320 9999 SCT018 SCT023
                        BKN040 12/08 Q1013 NOSIG=
201204081120 METAR COR EGLL 081120Z 29007KT 9000 VCSH FEW014 BKN022 11/08
                        Q1013 RESHRA NOSIG=
201204081050 METAR COR EGLL 081050Z 28006KT 9999 SCT016 BKN020 11/08 Q1013
                        NOSIG=
201204081020 METAR COR EGLL 081020Z 28007KT 9999 FEW011 SCT017 BKN021
                        11/08 Q1013 NOSIG=
201204080950 METAR EGLL 080950Z 28007KT 250V320 9000 SCT010 BKN018 BKN024
                        11/08 Q1013=
201204080920 METAR COR EGLL 080920Z 27007KT 7000 SCT007 BKN011 10/08 Q1013
                        BECMG SCT010 BKN018=
201204080850 METAR COR EGLL 080850Z 27009KT 3800 -DZ FEW004 SCT005 BKN008
                        09/08 Q1013 BECMG 7000 NSW SCT010
                        BKN014=
201204080820 METAR COR EGLL 080820Z 27008KT 3000 -DZ FEW004 SCT005 BKN007
                        09/08 Q1014 BECMG 6000 NSW SCT007
                        BKN012=
201204080750 METAR COR EGLL 080750Z 27007KT 3500 BR FEW004 SCT006 BKN008
                        08/07 Q1014 BECMG 6000 NSW SCT008
                        BKN012=
201204080720 METAR COR EGLL 080720Z 25007KT 210V270 2500 -DZ FEW003 SCT004
                        BKN006 08/07 Q1014 BECMG 4500 SCT005
                        BKN010=
201204080650 METAR COR EGLL 080650Z 24006KT 2000 -RADZ FEW002 SCT003 BKN005
                        07/06 Q1014 BECMG 4000 SCT004 BKN008=
201204080620 METAR COR EGLL 080620Z 22006KT 1700 -RADZ FEW002 SCT003 BKN004
                        07/06 Q1014 BECMG 3500 SCT005 BKN008=
201204080550 METAR COR EGLL 080550Z 22006KT 2000 -DZ FEW002 SCT003 BKN005
                        07/06 Q1014 REDZ TEMPO 5000 BKN003=
201204080520 METAR COR EGLL 080520Z 21006KT 2000 DZ BKN003 SCT009 07/06
                        Q1014 REDZ TEMPO 6000 -DZ BKN005=
201204080450 METAR COR EGLL 080450Z 21005KT 4400 -DZ FEW005 BKN007 07/05
                        Q1014 RERA TEMPO BKN004=
201204080420 METAR COR EGLL 080420Z 21005KT 5000 -DZ BKN010 07/05 Q1014
                        RERA TEMPO 2000 DZ BKN004=
201204080350 METAR COR EGLL 080350Z 20005KT 6000 RA BKN013 07/05 Q1014
                        TEMPO 2000 DZ BKN005=
201204080320 METAR COR EGLL 080320Z 20004KT 9000 -RA BKN017 07/04 Q1014
                        BECMG SCT007 BKN012=
201204080250 METAR COR EGLL 080250Z 21005KT 9999 -RA BKN021 07/04 Q1014
                        BECMG BKN012=
201204080220 METAR COR EGLL 080220Z 22005KT 9999 -RA BKN024 07/04 Q1015
                        BECMG BKN012=
201204080150 METAR COR EGLL 080150Z 21004KT 9999 -RA BKN026 07/04 Q1015
                        BECMG BKN012=
201204080120 METAR EGLL 080120Z AUTO 21005KT 9999 -DZ BKN031/// 08/03
                        Q1015=
201204080050 METAR EGLL 080050Z AUTO 22004KT 9999 BKN031/// 08/03 Q1015=
201204080020 METAR EGLL 080020Z AUTO 23004KT 9999 OVC033/// 08/03 Q1015=
201204072350 METAR COR EGLL 072350Z 27003KT 9999 BKN033 08/02 Q1015 NOSIG=
201204072320 METAR COR EGLL 072320Z 00000KT 9999 BKN035 08/02 Q1016 NOSIG=
201204072250 METAR COR EGLL 072250Z 36002KT 9999 BKN038 08/02 Q1016 NOSIG=
201204072220 METAR COR EGLL 072220Z 36003KT 9999 BKN040 08/02 Q1015 NOSIG=
201204072150 METAR COR EGLL 072150Z 35002KT CAVOK 08/02 Q1015 NOSIG=
201204072120 METAR COR EGLL 072120Z VRB03KT CAVOK 08/02 Q1015 NOSIG=
201204072050 METAR COR EGLL 072050Z VRB02KT CAVOK 08/02 Q1015 NOSIG=
201204072020 METAR COR EGLL 072020Z 35003KT CAVOK 08/02 Q1015 NOSIG=
201204071950 METAR COR EGLL 071950Z 33003KT CAVOK 08/02 Q1015 NOSIG=
201204071920 METAR COR EGLL 071920Z 05003KT CAVOK 08/02 Q1015 NOSIG=
201204071850 METAR COR EGLL 071850Z 36004KT CAVOK 08/02 Q1014 NOSIG=
201204071820 METAR COR EGLL 071820Z 36004KT 340V040 9999 FEW036 SCT047
                        09/02 Q1014 NOSIG=
201204071750 METAR COR EGLL 071750Z 02005KT 350V050 9999 SCT027 SCT034
                        09/02 Q1014 NOSIG=
201204071720 METAR COR EGLL 071720Z 01005KT 340V040 9999 FEW027 SCT039
                        09/03 Q1014 NOSIG=
201204071650 METAR COR EGLL 071650Z 02006KT 350V060 9999 BKN035 09/03
                        Q1014 NOSIG=
201204071620 METAR COR EGLL 071620Z 02006KT 340V060 9999 SCT034 09/03
                        Q1013 NOSIG=
201204071550 METAR COR EGLL 071550Z 03007KT 330V060 9999 FEW027 SCT035
                        09/03 Q1013 NOSIG=
201204071520 METAR EGLL 071520Z 03007KT 340V060 9999 FEW028 BKN042 10/02
                        Q1013=
201204071450 METAR COR EGLL 071450Z 03008KT 350V060 9999 BKN035 10/03
                        Q1013 NOSIG=
201204071420 METAR COR EGLL 071420Z 03008KT 340V060 9999 -SHRA BKN033
                        10/03 Q1013 NOSIG=
201204071350 METAR COR EGLL 071350Z 02007KT 330V060 9999 SCT034 BKN038
                        11/03 Q1013 NOSIG=
201204071320 METAR COR EGLL 071320Z 02006KT 340V050 9999 FEW031 BKN034
                        11/03 Q1012 NOSIG=
201204071250 METAR COR EGLL 071250Z 01006KT 330V050 9999 -SHRA FEW027
                        BKN031 11/04 Q1012 NOSIG=
201204071220 METAR COR EGLL 071220Z 02005KT 320V130 9999 FEW027 BKN031
                        11/04 Q1013 NOSIG=
201204071150 METAR COR EGLL 071150Z 36006KT 9999 BKN022 10/04 Q1013 NOSIG=
201204071120 METAR COR EGLL 071120Z 03005KT 340V070 9999 FEW019 BKN028
                        10/05 Q1013 NOSIG=
201204071050 METAR COR EGLL 071050Z 03008KT 9999 FEW014 BKN020 09/05 Q1013
                        NOSIG=
201204071020 METAR COR EGLL 071020Z 03004KT 330V070 9999 SCT018 BKN023
                        10/05 Q1012 NOSIG=
201204070950 METAR COR EGLL 070950Z 03006KT 360V070 9999 BKN016 BKN037
                        10/06 Q1012 NOSIG=
201204070920 METAR COR EGLL 070920Z 03006KT 360V070 9999 FEW014 BKN016
                        09/05 Q1012 NOSIG=
201204070850 METAR COR EGLL 070850Z 06007KT 9999 SCT014 BKN018 10/06 Q1012
                        TEMPO BKN012=
201204070820 METAR COR EGLL 070820Z 05005KT 030V090 9999 FEW011 BKN017
                        10/06 Q1012 TEMPO BKN012=
201204070750 METAR COR EGLL 070750Z 02005KT 340V050 9000 SCT011 BKN017
                        09/06 Q1011 TEMPO BKN012=
201204070720 METAR COR EGLL 070720Z 01004KT 7000 FEW009 BKN010 09/07 Q1011
                        TEMPO BKN007=
201204070650 METAR COR EGLL 070650Z VRB03KT 7000 FEW008 BKN015 09/07 Q1011
                        TEMPO BKN008=
201204070620 METAR COR EGLL 070620Z VRB03KT 8000 FEW007 BKN014 08/07 Q1011
                        TEMPO BKN008=
201204070550 METAR COR EGLL 070550Z VRB03KT 7000 FEW008 BKN014 08/06 Q1010
                        NOSIG=
201204070520 METAR COR EGLL 070520Z VRB03KT 8000 SCT005 BKN009 08/06 Q1010
                        NOSIG=
201204070450 METAR COR EGLL 070450Z 29005KT 8000 SCT006 BKN009 07/06 Q1010
                        NOSIG=
201204070420 METAR COR EGLL 070420Z 29005KT 7000 FEW005 BKN008 07/06 Q1010
                        NOSIG=
201204070350 METAR COR EGLL 070350Z 28005KT 6000 SCT005 BKN013 07/06 Q1010
                        NOSIG=
201204070320 METAR COR EGLL 070320Z 29005KT 5000 -DZ SCT005 BKN013 07/06
                        Q1010 NOSIG=
201204070250 METAR COR EGLL 070250Z 27006KT 4000 -RADZ FEW004 SCT007 BKN013
                        07/06 Q1010 TEMPO BKN007=
201204070220 METAR COR EGLL 070220Z 30005KT 5000 HZ FEW004 SCT009 BKN011
                        07/06 Q1010 TEMPO BKN008=
201204070150 METAR COR EGLL 070150Z 30006KT 9999 OVC012 08/05 Q1010 NOSIG=
201204070120 METAR EGLL 070120Z AUTO 32005KT 9999 BKN014/// 08/05 Q1010=
201204070050 METAR EGLL 070050Z AUTO 29004KT 9999 FEW016/// BKN020///
                        09/04 Q1011=
201204070020 METAR EGLL 070020Z AUTO 32005KT 9999 SCT021/// BKN025///
                        09/04 Q1011=
201204062350 METAR COR EGLL 062350Z 31005KT 9999 BKN029 09/04 Q1011 NOSIG=
201204062320 METAR COR EGLL 062320Z 30005KT 9999 SCT030 09/04 Q1011 NOSIG=
201204062250 METAR COR EGLL 062250Z 29005KT 9999 SCT031 09/04 Q1011 NOSIG=
201204062220 METAR COR EGLL 062220Z 30005KT 9999 BKN029 BKN033 09/04 Q1011
                        NOSIG=
201204062150 METAR COR EGLL 062150Z 29006KT 9999 BKN030 10/04 Q1011 NOSIG=
201204062120 METAR COR EGLL 062120Z 30005KT 9999 BKN035 10/03 Q1012 NOSIG=
201204062050 METAR COR EGLL 062050Z 30004KT 9999 BKN034 10/03 Q1012 NOSIG=
201204062020 METAR COR EGLL 062020Z 30004KT 9999 SCT037 BKN042 10/03 Q1012
                        NOSIG=
201204061950 METAR COR EGLL 061950Z 31005KT 280V340 9999 BKN042 10/03
                        Q1012 NOSIG=
201204061920 METAR COR EGLL 061920Z 31006KT 9999 BKN042 10/03 Q1012 NOSIG=
201204061850 METAR COR EGLL 061850Z 31006KT 9999 BKN043 10/03 Q1012 NOSIG=
201204061820 METAR COR EGLL 061820Z 31007KT 9999 FEW037 BKN043 10/03 Q1012
                        NOSIG=
201204061750 METAR COR EGLL 061750Z 32006KT 9999 FEW038 BKN043 10/02 Q1012
                        NOSIG=
201204061720 METAR COR EGLL 061720Z 30008KT 9999 FEW037 BKN043 10/02 Q1012
                        NOSIG=
201204061650 METAR COR EGLL 061650Z 32008KT 280V350 9999 FEW040 BKN044
                        11/02 Q1013 NOSIG=
201204061620 METAR COR EGLL 061620Z 30009KT 9999 FEW040 BKN043 11/02 Q1013
                        NOSIG=
201204061550 METAR COR EGLL 061550Z 32008KT 290V350 9999 FEW036 BKN043
                        11/02 Q1013 NOSIG=
201204061520 METAR COR EGLL 061520Z 31007KT 280V340 9999 SCT036 BKN040
                        11/02 Q1013 NOSIG=
201204061450 METAR COR EGLL 061450Z 30009KT 9999 FEW037 BKN041 11/02 Q1013
                        NOSIG=
201204061420 METAR COR EGLL 061420Z 34009KT 310V020 9999 BKN037 12/02
                        Q1014 NOSIG=
201204061350 METAR COR EGLL 061350Z 34008KT 290V030 9999 SCT044 13/02
                        Q1014 NOSIG=
201204061320 METAR COR EGLL 061320Z 34004KT 290V020 9999 BKN046 12/01
                        Q1014 NOSIG=
201204061250 METAR COR EGLL 061250Z 34007KT 310V040 9999 SCT039 12/01
                        Q1015 NOSIG=
201204061220 METAR COR EGLL 061220Z VRB04KT 9999 SCT039 11/01 Q1015 NOSIG=
201204061150 METAR COR EGLL 061150Z VRB06KT 9999 FEW044 11/00 Q1016 NOSIG=
201204061120 METAR COR EGLL 061120Z 35006KT 310V030 9999 FEW048 11/M01
                        Q1016 NOSIG=
201204061050 METAR COR EGLL 061050Z 34006KT 290V030 9999 FEW044 10/M01
                        Q1016 NOSIG=
201204061020 METAR COR EGLL 061020Z 35005KT 300V050 CAVOK 09/M00 Q1017
                        NOSIG=
201204060950 METAR COR EGLL 060950Z VRB03KT CAVOK 08/M00 Q1017 NOSIG=
201204060920 METAR COR EGLL 060920Z VRB03KT CAVOK 07/M01 Q1017 NOSIG=
201204060850 METAR COR EGLL 060850Z 29004KT 240V360 CAVOK 06/M01 Q1018
                        NOSIG=
201204060820 METAR COR EGLL 060820Z 28004KT CAVOK 05/M02 Q1018 NOSIG=
201204060750 METAR COR EGLL 060750Z VRB03KT CAVOK 04/M02 Q1018 NOSIG=
201204060720 METAR COR EGLL 060720Z VRB03KT CAVOK 03/M02 Q1018 NOSIG=
201204060650 METAR COR EGLL 060650Z 33003KT CAVOK 02/M03 Q1018 NOSIG=
201204060620 METAR COR EGLL 060620Z 35004KT CAVOK 01/M03 Q1018 NOSIG=
201204060550 METAR COR EGLL 060550Z 34003KT CAVOK 01/M03 Q1018 NOSIG=
201204060520 METAR COR EGLL 060520Z 35003KT CAVOK 00/M03 Q1018 NOSIG=
201204060450 METAR COR EGLL 060450Z 35004KT CAVOK M00/M03 Q1018 NOSIG=
201204060420 METAR COR EGLL 060420Z 35003KT CAVOK 00/M03 Q1019 NOSIG=
201204060350 METAR COR EGLL 060350Z 36003KT CAVOK 00/M03 Q1019 NOSIG=
201204060320 METAR COR EGLL 060320Z 35003KT CAVOK 00/M03 Q1019 NOSIG=
201204060250 METAR COR EGLL 060250Z 35003KT CAVOK 01/M02 Q1019 NOSIG=
201204060220 METAR COR EGLL 060220Z 35003KT CAVOK 01/M02 Q1019 NOSIG=
201204060150 METAR COR EGLL 060150Z 36003KT CAVOK 01/M02 Q1020 NOSIG=
201204060120 METAR EGLL 060120Z AUTO 35004KT 9999 NCD 01/M02 Q1020=
201204060050 METAR EGLL 060050Z AUTO 36003KT 9999 NCD 02/M01 Q1020=
201204060020 METAR EGLL 060020Z AUTO 35003KT 9999 NCD 02/M01 Q1020=
201204052350 METAR COR EGLL 052350Z VRB03KT CAVOK 03/M01 Q1020 NOSIG=
201204052320 METAR COR EGLL 052320Z 36003KT CAVOK 03/M01 Q1020 NOSIG=
201204052250 METAR COR EGLL 052250Z VRB02KT CAVOK 04/M00 Q1020 NOSIG=
201204052220 METAR COR EGLL 052220Z 03004KT 350V060 CAVOK 04/M00 Q1020
                        NOSIG=
201204052150 METAR COR EGLL 052150Z 04005KT CAVOK 05/M00 Q1020 NOSIG=
201204052120 METAR COR EGLL 052120Z 05004KT CAVOK 06/M00 Q1020 NOSIG=
201204052050 METAR COR EGLL 052050Z 06004KT CAVOK 06/M00 Q1020 NOSIG=
201204052020 METAR COR EGLL 052020Z 06007KT CAVOK 06/M00 Q1020 NOSIG=
201204051950 METAR COR EGLL 051950Z 06006KT CAVOK 07/M00 Q1020 NOSIG=
201204051920 METAR COR EGLL 051920Z 05005KT 010V080 9999 FEW037 07/M00
                        Q1020 NOSIG=
201204051850 METAR COR EGLL 051850Z 05006KT 010V080 9999 FEW037 08/M00
                        Q1019 NOSIG=
201204051820 METAR COR EGLL 051820Z 05007KT 9999 BKN038 08/M00 Q1019 NOSIG=
201204051750 METAR COR EGLL 051750Z 07008KT 9999 BKN038 09/00 Q1019 NOSIG=
201204051720 METAR COR EGLL 051720Z 06007KT 9999 BKN037 09/01 Q1019 NOSIG=
201204051650 METAR COR EGLL 051650Z 06007KT 360V080 9999 BKN038 09/01
                        Q1019 NOSIG=
201204051620 METAR COR EGLL 051620Z 06008KT 9999 BKN035 09/01 Q1019 NOSIG=
201204051550 METAR COR EGLL 051550Z 06008KT 020V090 9999 BKN032 09/01
                        Q1019 NOSIG=
201204051520 METAR EGLL 051520Z AUTO 07009KT 9999 OVC031/// 09/02 Q1019=
201204051450 METAR COR EGLL 051450Z 07009KT 040V100 9999 FEW029 BKN033
                        09/02 Q1019 NOSIG=
201204051420 METAR COR EGLL 051420Z 07008KT 9999 BKN032 08/02 Q1020 NOSIG=
201204051350 METAR COR EGLL 051350Z 06010KT 9999 BKN026 08/02 Q1020 NOSIG=
201204051320 METAR COR EGLL 051320Z 06009KT 020V090 9999 BKN026 08/02
                        Q1020 NOSIG=
201204051250 METAR COR EGLL 051250Z 05008KT 9999 BKN023 08/02 Q1020 NOSIG=
201204051220 METAR COR EGLL 051220Z 06010KT 9999 BKN023 08/02 Q1020 NOSIG=
201204051150 METAR COR EGLL 051150Z 05009KT 010V080 9999 BKN023 08/02
                        Q1020 NOSIG=
201204051120 METAR COR EGLL 051120Z 06010KT 9999 BKN022 07/03 Q1020 NOSIG=
201204051050 METAR COR EGLL 051050Z 07010KT 9000 BKN020 08/03 Q1020 NOSIG=
201204051020 METAR COR EGLL 051020Z 07011KT 9000 BKN019 08/03 Q1020 NOSIG=
201204050950 METAR COR EGLL 050950Z 06011KT 9000 BKN017 07/03 Q1020 NOSIG=
201204050920 METAR COR EGLL 050920Z 06010KT 7000 BKN014 07/03 Q1019 BECMG
                        SCT014 BKN025=
201204050850 METAR COR EGLL 050850Z 06011KT 7000 OVC013 07/04 Q1019 BECMG
                        SCT014 BKN025=
201204050820 METAR COR EGLL 050820Z 06009KT 7000 OVC013 07/04 Q1019 BECMG
                        SCT014 BKN025=
201204050750 METAR COR EGLL 050750Z 06009KT 7000 OVC013 07/04 Q1019 BECMG
                        SCT014 BKN025=
201204050720 METAR COR EGLL 050720Z 06009KT 7000 OVC012 07/04 Q1018 TEMPO
                        4000 -RADZ BKN008=
201204050650 METAR COR EGLL 050650Z 06009KT 7000 OVC012 07/04 Q1018 TEMPO
                        4500 -RADZ BKN008=
201204050620 METAR COR EGLL 050620Z 06008KT 020V090 7000 BKN012 06/04
                        Q1018 TEMPO 4000 -RADZ BKN008=
201204050550 METAR COR EGLL 050550Z 06008KT 020V090 7000 BKN011 06/04
                        Q1018 TEMPO 4000 -RA BKN008=
201204050520 METAR COR EGLL 050520Z 05009KT 8000 BKN013 06/04 Q1017 TEMPO
                        4000 -RA BKN008=
201204050450 METAR COR EGLL 050450Z 05009KT 010V080 9000 BKN012 06/04
                        Q1017 TEMPO 4000 -RA BKN008=
201204050420 METAR COR EGLL 050420Z 05009KT 010V090 9000 BKN010 06/04
                        Q1017 TEMPO 4000 -RA BKN008=
201204050350 METAR COR EGLL 050350Z 05009KT 010V070 8000 -RADZ BKN009
                        06/04 Q1017 TEMPO NSW SCT008 BKN012=
201204050320 METAR COR EGLL 050320Z 04009KT 010V070 8000 -RADZ BKN010
                        06/05 Q1016 TEMPO -RA BKN008=
201204050250 METAR COR EGLL 050250Z 05008KT 360V080 8000 BKN012 BKN020
                        07/04 Q1016 TEMPO -RA BKN008=
201204050220 METAR COR EGLL 050220Z 05007KT 020V080 8000 BKN011 BKN020
                        07/05 Q1016 TEMPO BKN008=
201204050150 METAR EGLL 050150Z 04007KT 360V080 9000 SCT013 OVC024 07/04
                        Q1016=
201204050120 METAR EGLL 050120Z AUTO 05008KT 7000 BKN010/// BKN018///
                        07/04 Q1016=
201204050050 METAR EGLL 050050Z AUTO 05008KT 7000 SCT013/// SCT017///
                        BKN031/// 07/05 Q1016=
201204050020 METAR EGLL 050020Z AUTO 05007KT 7000 OVC012/// 07/04 Q1016=
201204042350 METAR COR EGLL 042350Z 06006KT 020V090 9000 FEW014 SCT034
                        07/04 Q1016 BECMG BKN014=
201204042320 METAR COR EGLL 042320Z 05005KT 010V080 9000 FEW016 SCT037
                        07/04 Q1016 BECMG BKN014=
201204042250 METAR COR EGLL 042250Z 05006KT 9000 FEW017 07/04 Q1015 BECMG
                        BKN014=
201204042220 METAR COR EGLL 042220Z 06006KT 8000 FEW016 SCT031 07/04 Q1015
                        BECMG BKN014=
201204042150 METAR COR EGLL 042150Z 07007KT 8000 FEW015 SCT035 07/04 Q1015
                        BECMG BKN014=
201204042120 METAR COR EGLL 042120Z 07008KT 9000 FEW024 SCT030 07/03 Q1014
                        NOSIG=
201204042050 METAR COR EGLL 042050Z 06010KT 8000 FEW036 07/03 Q1014 NOSIG=
201204042020 METAR COR EGLL 042020Z 07012KT 8000 NSC 07/04 Q1013 NOSIG=
201204041950 METAR COR EGLL 041950Z 07009KT 9999 FEW036 08/02 Q1013 NOSIG=
201204041920 METAR COR EGLL 041920Z 08010KT 9999 FEW033 08/02 Q1012 NOSIG=
201204041850 METAR COR EGLL 041850Z 06006KT 9999 VCSH SCT035 08/03 Q1012
                        NOSIG=
201204041820 METAR COR EGLL 041820Z VRB03KT 9999 VCSH SCT039 08/02 Q1011
                        NOSIG=
201204041750 METAR EGLL 041750Z 06007KT 9999 -SHRA FEW032 SCT040 08/02
                        Q1011=
201204041720 METAR COR EGLL 041720Z 12007KT 070V170 9999 VCSH SCT024 BKN044
                        09/02 Q1010 NOSIG=
201204041650 METAR COR EGLL 041650Z 07007KT 9999 VCSH BKN044 09/01 Q1010
                        NOSIG=
201204041620 METAR COR EGLL 041620Z 05004KT 360V090 9999 VCSH FEW040 10/01
                        Q1010 NOSIG=
201204041550 METAR COR EGLL 041550Z 09004KT 9999 VCSH FEW024 09/01 Q1009
                        NOSIG=
201204041520 METAR COR EGLL 041520Z 10007KT 060V130 9999 FEW049 09/01
                        Q1009 NOSIG=
201204041450 METAR COR EGLL 041450Z 12005KT 9999 VCSH FEW049 09/01 Q1009
                        NOSIG=
201204041420 METAR COR EGLL 041420Z 10007KT 9999 VCSH FEW049 09/01 Q1009
                        NOSIG=
201204041350 METAR COR EGLL 041350Z 12004KT 070V160 9999 FEW049 09/01
                        Q1008 NOSIG=
201204041320 METAR COR EGLL 041320Z 13005KT 090V160 9999 FEW049 09/01
                        Q1008 NOSIG=
201204041250 METAR COR EGLL 041250Z 14006KT 9999 FEW043 BKN049 09/01 Q1008
                        NOSIG=
201204041220 METAR COR EGLL 041220Z 13007KT 070V160 9999 VCSH FEW040 BKN043
                        09/00 Q1008 NOSIG=
201204041150 METAR COR EGLL 041150Z 10007KT 050V140 9999 SCT040 SCT045
                        09/M00 Q1007 NOSIG=
201204041120 METAR COR EGLL 041120Z VRB04KT 9999 BKN040 10/M00 Q1007 NOSIG=
201204041050 METAR COR EGLL 041050Z VRB03KT 9999 SCT044 09/00 Q1007 NOSIG=
201204041020 METAR COR EGLL 041020Z 14004KT 100V200 9999 FEW032 SCT039
                        08/00 Q1007 NOSIG=
201204040950 METAR EGLL 040950Z 09004KT 050V130 9999 FEW024 SCT029 08/01
                        Q1006=
201204040920 METAR COR EGLL 040920Z 16004KT 140V210 9999 SCT017 08/03
                        Q1006 NOSIG=
201204040850 METAR COR EGLL 040850Z 12004KT 050V170 9999 FEW036 07/03
                        Q1005 NOSIG=
201204040820 METAR COR EGLL 040820Z VRB03KT 9999 FEW036 06/03 Q1005 NOSIG=
201204040750 METAR COR EGLL 040750Z 00000KT 9999 FEW037 05/02 Q1005 NOSIG=
201204040720 METAR COR EGLL 040720Z VRB03KT 9999 FEW037 04/02 Q1004 NOSIG=
201204040650 METAR COR EGLL 040650Z VRB03KT 9999 FEW035 04/01 Q1004 NOSIG=
201204040620 METAR COR EGLL 040620Z 28005KT 9999 FEW035 03/01 Q1003 NOSIG=
201204040550 METAR COR EGLL 040550Z 25005KT 210V270 9999 FEW035 03/01
                        Q1003 NOSIG=
201204040520 METAR COR EGLL 040520Z 25007KT 9999 FEW049 03/02 Q1003 NOSIG=
201204040450 METAR COR EGLL 040450Z 22006KT 9999 FEW040 03/02 Q1002 NOSIG=
201204040420 METAR COR EGLL 040420Z 21004KT 9999 FEW040 04/02 Q1002 NOSIG=
201204040350 METAR COR EGLL 040350Z 25004KT 9999 FEW040 04/02 Q1002 NOSIG=
201204040320 METAR COR EGLL 040320Z 26006KT 9999 FEW022 05/03 Q1002 NOSIG=
201204040250 METAR COR EGLL 040250Z 25006KT 9999 FEW022 05/03 Q1002 NOSIG=
201204040220 METAR COR EGLL 040220Z 28004KT 9999 BKN041 06/03 Q1002 NOSIG=
201204040150 METAR COR EGLL 040150Z 26006KT 9999 FEW012 SCT034 BKN035
                        06/04 Q1002 NOSIG=
201204040120 METAR EGLL 040120Z AUTO 28004KT 9999 FEW027/// BKN033///
                        06/04 Q1002=
201204040050 METAR EGLL 040050Z AUTO 28004KT 9999 -DZ FEW026/// BKN031///
                        06/04 Q1002=
201204040020 METAR EGLL 040020Z AUTO 29004KT 9999 -RA SCT027/// BKN031///
                        06/03 Q1002=
201204032350 METAR EGLL 032350Z 30005KT 9999 BKN030 BKN041 06/04 Q1002
                        RESHRA=
201204032320 METAR COR EGLL 032320Z 29008KT 9999 SHRA BKN029 07/04 Q1002
                        BECMG -SHRA=
201204032250 METAR COR EGLL 032250Z 30007KT 9999 -SHRA SCT024 BKN035 07/05
                        Q1001 RESHRA TEMPO 4000 SHRA=
201204032220 METAR COR EGLL 032220Z 30008KT 8000 SHRA SCT009 BKN019 07/06
                        Q1001 TEMPO 4000 SHRA=
201204032150 METAR COR EGLL 032150Z 24006KT 190V280 8000 SHRA SCT010 BKN035
                        08/06 Q1001 TEMPO 4000 SHRA=
201204032120 METAR COR EGLL 032120Z 28004KT 9999 -SHRA SCT028 BKN034 BKN038
                        09/06 Q1001 TEMPO 4000 SHRA=
201204032050 METAR COR EGLL 032050Z 28006KT 9999 -SHRA BKN022 09/06 Q1001
                        TEMPO 4000 SHRA=
201204032020 METAR COR EGLL 032020Z 28007KT 9999 -SHRA FEW013 SCT030 09/06
                        Q1001 TEMPO 4000 SHRA=
201204031950 METAR COR EGLL 031950Z 25006KT 220V280 9999 -SHRA SCT018
                        SCT035 09/06 Q1001 TEMPO 4000 SHRA=
201204031920 METAR COR EGLL 031920Z VRB03KT 9999 -SHRA FEW024 BKN031 09/06
                        Q1001 TEMPO 4000 SHRA=
201204031850 METAR COR EGLL 031850Z VRB02KT 9999 SCT036 BKN045 10/05 Q1001
                        TEMPO 4000 +SHRA=
201204031820 METAR COR EGLL 031820Z 00000KT 9999 FEW038 BKN045 10/05 Q1001
                        NOSIG=
201204031750 METAR COR EGLL 031750Z VRB03KT 9999 VCSH FEW035 SCT041 10/06
                        Q1001 NOSIG=
201204031720 METAR COR EGLL 031720Z 30010KT 270V330 9999 -SHRA FEW035CB
                        BKN041 11/05 Q1001 NOSIG=
201204031650 METAR COR EGLL 031650Z 21008KT 9999 VCSH FEW040CB 12/02 Q1000
                        NOSIG=
201204031620 METAR COR EGLL 031620Z 26011KT 9999 VCSH FEW040 13/03 Q1000
                        NOSIG=
201204031550 METAR COR EGLL 031550Z 26011KT 9999 SCT039 13/04 Q1000 NOSIG=
201204031520 METAR EGLL 031520Z 22007KT 190V250 9999 SCT039 SCT046 13/04
                        Q1001 NOSIG=
201204031450 METAR COR EGLL 031450Z 23008KT 200V260 9999 SCT041 13/04
                        Q1001 NOSIG=
201204031420 METAR COR EGLL 031420Z 24009KT 190V270 9999 SCT040 14/04
                        Q1001 NOSIG=
201204031350 METAR COR EGLL 031350Z 27009KT 9999 SCT038 13/04 Q1002 NOSIG=
201204031320 METAR COR EGLL 031320Z 26010KT 9999 SCT037 14/04 Q1002 NOSIG=
201204031250 METAR COR EGLL 031250Z 25011KT 9999 SCT039 13/04 Q1002 NOSIG=
201204031220 METAR COR EGLL 031220Z 27009KT 9999 SCT040 14/03 Q1002 NOSIG=
201204031150 METAR COR EGLL 031150Z 29007KT 250V310 9999 SCT032 SCT040
                        14/04 Q1003 NOSIG=
201204031120 METAR COR EGLL 031120Z 28006KT 220V320 9999 FEW030 SCT040
                        13/04 Q1003 NOSIG=
201204031050 METAR COR EGLL 031050Z 28008KT 260V320 9999 SCT033 13/05
                        Q1003 NOSIG=
201204031020 METAR COR EGLL 031020Z 26010KT 210V280 9999 SCT027 12/05
                        Q1004 NOSIG=
201204030950 METAR COR EGLL 030950Z 30007KT 270V330 9999 SCT040 12/05
                        Q1004 NOSIG=
201204030920 METAR COR EGLL 030920Z 25007KT 210V290 9999 FEW040 11/05
                        Q1004 NOSIG=
201204030850 METAR EGLL 030850Z 25006KT 210V280 9999 FEW040 10/05 Q1004=
201204030820 METAR COR EGLL 030820Z 26005KT 220V330 9000 FEW020 09/05
                        Q1004 NOSIG=
201204030750 METAR COR EGLL 030750Z 30004KT 8000 NSC 08/04 Q1004 NOSIG=
201204030720 METAR COR EGLL 030720Z VRB03KT 8000 NSC 07/04 Q1004 NOSIG=
201204030650 METAR COR EGLL 030650Z VRB03KT 8000 NSC 06/03 Q1004 NOSIG=
201204030620 METAR COR EGLL 030620Z 29005KT 7000 NSC 06/03 Q1004 NOSIG=
201204030550 METAR COR EGLL 030550Z 30002KT 7000 NSC 04/02 Q1004 NOSIG=
201204030520 METAR COR EGLL 030520Z 29003KT 7000 NSC 04/02 Q1004 NOSIG=
201204030450 METAR COR EGLL 030450Z 27003KT 8000 NSC 04/02 Q1004 NOSIG=
201204030420 METAR COR EGLL 030420Z 32002KT 8000 NSC 04/02 Q1004 NOSIG=
201204030350 METAR COR EGLL 030350Z 28004KT 8000 NSC 04/02 Q1005 NOSIG=
201204030320 METAR COR EGLL 030320Z 30003KT 9000 NSC 04/02 Q1005 NOSIG=
201204030250 METAR COR EGLL 030250Z 31004KT 9000 NSC 04/01 Q1005 NOSIG=
201204030220 METAR COR EGLL 030220Z 31002KT CAVOK 06/02 Q1005 NOSIG=
201204030150 METAR COR EGLL 030150Z 30003KT CAVOK 04/02 Q1006 NOSIG=
201204030120 METAR EGLL 030120Z AUTO 29004KT 9999 NCD 07/02 Q1006=
201204030050 METAR EGLL 030050Z AUTO 30002KT 9999 NCD 07/02 Q1006=
201204030020 METAR EGLL 030020Z AUTO 31002KT 9999 NCD 08/03 Q1006=
201204022350 METAR COR EGLL 022350Z 35002KT CAVOK 08/03 Q1006 NOSIG=
201204022320 METAR COR EGLL 022320Z VRB02KT CAVOK 08/03 Q1006 NOSIG=
201204022250 METAR COR EGLL 022250Z 35003KT CAVOK 09/03 Q1006 NOSIG=
201204022220 METAR COR EGLL 022220Z VRB02KT CAVOK 10/03 Q1006 NOSIG=
201204022150 METAR COR EGLL 022150Z 36004KT 330V030 CAVOK 11/03 Q1007
                        NOSIG=
201204022120 METAR COR EGLL 022120Z 01004KT 330V050 CAVOK 11/03 Q1007
                        NOSIG=
201204022050 METAR COR EGLL 022050Z 36004KT 330V060 CAVOK 11/03 Q1007
                        NOSIG=
201204022020 METAR COR EGLL 022020Z 36004KT CAVOK 11/01 Q1007 NOSIG=
201204021950 METAR COR EGLL 021950Z 35003KT CAVOK 12/00 Q1007 NOSIG=
201204021920 METAR EGLL 021920Z AUTO VRB02KT 9999 NCD 12/00 Q1007=
201204021850 METAR COR EGLL 021850Z 33003KT CAVOK 13/00 Q1007 NOSIG=
201204021820 METAR COR EGLL 021820Z VRB03KT CAVOK 13/00 Q1007 NOSIG=
201204021750 METAR COR EGLL 021750Z 33004KT CAVOK 13/00 Q1007 NOSIG=
201204021720 METAR COR EGLL 021720Z 32005KT 300V360 CAVOK 14/00 Q1007
                        NOSIG=
201204021650 METAR EGLL 021650Z 31006KT 280V350 CAVOK 14/01 Q1007=
201204021620 METAR COR EGLL 021620Z 29004KT 200V360 CAVOK 14/01 Q1007
                        NOSIG=
201204021550 METAR COR EGLL 021550Z 29007KT 260V330 CAVOK 14/01 Q1007
                        NOSIG=
201204021520 METAR COR EGLL 021520Z 35006KT 300V030 CAVOK 15/01 Q1008
                        NOSIG=
201204021450 METAR COR EGLL 021450Z 31005KT 260V050 CAVOK 15/01 Q1008
                        NOSIG=
201204021420 METAR COR EGLL 021420Z 32006KT 270V030 9999 SCT049 14/00
                        Q1009 NOSIG=
201204021350 METAR COR EGLL 021350Z 29007KT 220V340 9999 FEW049 15/01
                        Q1009 NOSIG=
201204021320 METAR COR EGLL 021320Z 29005KT 200V340 9999 FEW049 15/01
                        Q1010 NOSIG=
201204021250 METAR COR EGLL 021250Z 26007G17KT 210V300 9999 FEW045 14/01
                        Q1010 NOSIG=
201204021220 METAR COR EGLL 021220Z 27007KT 220V320 9999 FEW044 14/01
                        Q1010 NOSIG=
201204021150 METAR COR EGLL 021150Z 31005KT 250V360 9999 SCT036 13/02
                        Q1011 NOSIG=
201204021120 METAR COR EGLL 021120Z VRB05KT 9999 FEW036 13/03 Q1011 NOSIG=
201204021050 METAR EGLL 021050Z VRB05KT 9999 FEW036 12/03 Q1012=
201204021020 METAR EGLL 021020Z VRB03KT 9999 FEW032 12/03 Q1012=
201204020950 METAR COR EGLL 020950Z VRB03KT CAVOK 11/03 Q1012 NOSIG=
201204020920 METAR COR EGLL 020920Z VRB02KT CAVOK 10/04 Q1012 NOSIG=
201204020850 METAR EGLL 020850Z VRB02KT CAVOK 09/03 Q1013=
201204020820 METAR COR EGLL 020820Z VRB03KT CAVOK 08/03 Q1013 NOSIG=
201204020750 METAR COR EGLL 020750Z 32002KT CAVOK 06/02 Q1013 NOSIG=
201204020720 METAR COR EGLL 020720Z VRB02KT CAVOK 06/02 Q1013 NOSIG=
201204020650 METAR COR EGLL 020650Z 33002KT CAVOK 04/01 Q1013 NOSIG=
201204020620 METAR COR EGLL 020620Z 31003KT CAVOK 05/01 Q1013 NOSIG=
201204020550 METAR COR EGLL 020550Z 32002KT CAVOK 05/01 Q1013 NOSIG=
201204020520 METAR COR EGLL 020520Z 31002KT CAVOK 05/01 Q1013 NOSIG=
201204020450 METAR COR EGLL 020450Z 31003KT CAVOK 05/01 Q1014 NOSIG=
201204020420 METAR COR EGLL 020420Z 31003KT CAVOK 04/00 Q1014 NOSIG=
201204020350 METAR COR EGLL 020350Z 31003KT CAVOK 03/M00 Q1014 NOSIG=
201204020320 METAR COR EGLL 020320Z 30003KT CAVOK 03/M00 Q1014 NOSIG=
201204020250 METAR COR EGLL 020250Z 28003KT CAVOK 04/00 Q1014 NOSIG=
201204020220 METAR COR EGLL 020220Z 29005KT CAVOK 04/01 Q1015 NOSIG=
201204020150 METAR COR EGLL 020150Z 26002KT 9999 FEW049 04/01 Q1015 NOSIG=
201204020120 METAR EGLL 020120Z AUTO 21003KT 9999 NCD 05/01 Q1015=
201204020050 METAR EGLL 020050Z AUTO VRB02KT 9999 NCD 05/01 Q1016=
201204020020 METAR EGLL 020020Z AUTO 28004KT 9999 NCD 06/01 Q1016=
201204012350 METAR COR EGLL 012350Z 00000KT CAVOK 06/01 Q1016 NOSIG=
201204012320 METAR COR EGLL 012320Z 00000KT CAVOK 06/00 Q1016 NOSIG=
201204012250 METAR COR EGLL 012250Z 20004KT 180V250 CAVOK 07/01 Q1016
                        NOSIG=
201204012220 METAR COR EGLL 012220Z 26002KT CAVOK 08/02 Q1016 NOSIG=
201204012150 METAR COR EGLL 012150Z 34003KT CAVOK 08/00 Q1016 NOSIG=
201204012120 METAR COR EGLL 012120Z 36002KT CAVOK 10/00 Q1016 NOSIG=
201204012050 METAR COR EGLL 012050Z 35003KT CAVOK 11/00 Q1017 NOSIG=
201204012020 METAR COR EGLL 012020Z 35003KT CAVOK 11/M00 Q1017 NOSIG=
201204011950 METAR COR EGLL 011950Z 35003KT CAVOK 11/M00 Q1017 NOSIG=
201204011920 METAR COR EGLL 011920Z 35003KT CAVOK 11/M01 Q1017 NOSIG=
201204011850 METAR COR EGLL 011850Z VRB03KT CAVOK 11/M02 Q1017 NOSIG=
201204011820 METAR COR EGLL 011820Z 32003KT CAVOK 12/M02 Q1017 NOSIG=
201204011750 METAR COR EGLL 011750Z VRB03KT CAVOK 12/M02 Q1017 NOSIG=
201204011720 METAR COR EGLL 011720Z 35004KT 300V040 CAVOK 12/M03 Q1017
                        NOSIG=
201204011650 METAR COR EGLL 011650Z 36004KT 330V040 CAVOK 13/M03 Q1017
                        NOSIG=
201204011620 METAR COR EGLL 011620Z 36004KT 330V030 CAVOK 13/M03 Q1018
                        NOSIG=
201204011550 METAR COR EGLL 011550Z 01004KT 300V070 CAVOK 13/M03 Q1018
                        NOSIG=
201204011520 METAR COR EGLL 011520Z VRB03KT CAVOK 13/M02 Q1018 NOSIG=
201204011450 METAR COR EGLL 011450Z VRB03KT CAVOK 13/M02 Q1019 NOSIG=
201204011420 METAR COR EGLL 011420Z VRB03KT CAVOK 12/M02 Q1019 NOSIG=
201204011350 METAR COR EGLL 011350Z 04004KT 330V130 CAVOK 12/M02 Q1019
                        NOSIG=
201204011320 METAR COR EGLL 011320Z VRB04KT CAVOK 12/M02 Q1020 NOSIG=
201204011250 METAR COR EGLL 011250Z VRB04KT CAVOK 11/M02 Q1020 NOSIG=
201204011220 METAR COR EGLL 011220Z 34004KT 270V060 CAVOK 11/M01 Q1021
                        NOSIG=
201204011150 METAR COR EGLL 011150Z VRB02KT 9999 FEW036 10/M01 Q1021 NOSIG=
201204011120 METAR COR EGLL 011120Z VRB03KT 9999 FEW036 10/M01 Q1022 NOSIG=
201204011050 METAR COR EGLL 011050Z VRB03KT 9999 FEW034 09/M00 Q1022 NOSIG=
201204011020 METAR COR EGLL 011020Z VRB03KT 9999 FEW030 09/M00 Q1022 NOSIG=
201204010950 METAR COR EGLL 010950Z VRB03KT 9999 SCT029 08/01 Q1023 NOSIG=
201204010920 METAR COR EGLL 010920Z 05004KT 320V110 9999 SCT026 07/01
                        Q1023 NOSIG=
201204010850 METAR COR EGLL 010850Z 06004KT 020V090 9999 FEW020 06/01
                        Q1023 NOSIG=
201204010820 METAR EGLL 010820Z VRB03KT CAVOK 05/01 Q1023=
201204010750 METAR COR EGLL 010750Z 01004KT 280V040 CAVOK 04/01 Q1023
                        NOSIG=
201204010720 METAR COR EGLL 010720Z 36005KT CAVOK 03/M00 Q1023 NOSIG=
201204010650 METAR COR EGLL 010650Z 36004KT CAVOK 03/M00 Q1023 NOSIG=
201204010620 METAR COR EGLL 010620Z 36004KT CAVOK 02/M01 Q1023 NOSIG=
201204010550 METAR COR EGLL 010550Z 35004KT CAVOK 02/M01 Q1023 NOSIG=
201204010520 METAR COR EGLL 010520Z 36003KT CAVOK 02/M01 Q1023 NOSIG=
201204010450 METAR COR EGLL 010450Z 36003KT CAVOK 02/M01 Q1023 NOSIG=
201204010420 METAR COR EGLL 010420Z 36003KT CAVOK 02/M00 Q1023 NOSIG=
201204010350 METAR COR EGLL 010350Z 35003KT CAVOK 02/M00 Q1023 NOSIG=
201204010320 METAR COR EGLL 010320Z 35003KT CAVOK 03/M00 Q1023 NOSIG=
201204010250 METAR COR EGLL 010250Z 36004KT CAVOK 03/M00 Q1023 NOSIG=
201204010220 METAR COR EGLL 010220Z 36004KT CAVOK 03/M00 Q1023 NOSIG=
201204010150 METAR COR EGLL 010150Z 36003KT CAVOK 03/M01 Q1024 NOSIG=
201204010120 METAR EGLL 010120Z AUTO VRB03KT 9999 NCD 04/M01 Q1024=
201204010050 METAR EGLL 010050Z AUTO VRB03KT 9999 NCD 04/M00 Q1024=
201204010020 METAR EGLL 010020Z AUTO 35004KT 9999 FEW040/// 04/00 Q1023=
