##########################################################
# Query made at 12/27/2012 10:38:28 UTC
# Time interval: from 04/01/2009 00:00  to 05/01/2009 23:59  UTC
##########################################################

##########################################################
# EGLL, London / Heathrow Airport (United Kingdom)
# WMO index: 03772
# Latitude 51-29N. Longitude 000-27W. Altitude 24 m.
##########################################################

###################################
#  METAR/SPECI from EGLL
###################################
200904302350 METAR COR EGLL 302350Z VRB02KT CAVOK 11/09 Q1021 NOSIG=
200904302320 METAR COR EGLL 302320Z 13003KT CAVOK 11/09 Q1021 NOSIG=
200904302250 METAR COR EGLL 302250Z 13003KT CAVOK 11/09 Q1020 NOSIG=
200904302220 METAR COR EGLL 302220Z 14003KT CAVOK 12/09 Q1020 NOSIG=
200904302150 METAR COR EGLL 302150Z 17005KT 100V260 CAVOK 13/09 Q1020
                        NOSIG=
200904302120 METAR COR EGLL 302120Z 18004KT 110V270 CAVOK 13/09 Q1020
                        NOSIG=
200904302050 METAR COR EGLL 302050Z VRB05KT CAVOK 14/09 Q1019 NOSIG=
200904302020 METAR COR EGLL 302020Z 18005KT 130V240 CAVOK 14/09 Q1019
                        NOSIG=
200904301950 METAR COR EGLL 301950Z 17006KT 120V250 9999 FEW024 SCT030
                        14/09 Q1019 NOSIG=
200904301920 METAR COR EGLL 301920Z 16006KT 130V240 9999 SCT024 SCT028
                        14/09 Q1018 NOSIG=
200904301850 METAR COR EGLL 301850Z 16007KT 110V220 9999 SCT024 SCT031
                        15/10 Q1018 NOSIG=
200904301820 METAR COR EGLL 301820Z 18007KT 150V230 9999 SCT026 SCT033
                        15/09 Q1017 NOSIG=
200904301750 METAR COR EGLL 301750Z 18007KT 140V240 9999 SCT025 SCT033
                        16/10 Q1017 NOSIG=
200904301720 METAR COR EGLL 301720Z 18008KT 160V220 9999 SCT025 SCT031
                        16/09 Q1017 NOSIG=
200904301650 METAR COR EGLL 301650Z 16008KT 120V240 9999 SCT026 SCT030
                        16/09 Q1017 NOSIG=
200904301620 METAR COR EGLL 301620Z 20010KT 170V240 9999 SCT026 SCT040
                        16/09 Q1017 NOSIG=
200904301550 METAR COR EGLL 301550Z 17009KT 120V230 9999 FEW030 BKN042
                        16/09 Q1016 NOSIG=
200904301520 METAR COR EGLL 301520Z 18011KT 150V220 9999 BKN040 15/08
                        Q1016 NOSIG=
200904301450 METAR COR EGLL 301450Z 19011KT 160V230 9999 SCT035 BKN040
                        15/08 Q1016 NOSIG=
200904301420 METAR COR EGLL 301420Z 19012KT 9999 FEW036 BKN041 16/08 Q1016
                        NOSIG=
200904301350 METAR COR EGLL 301350Z 17012KT 9999 SCT033 BKN037 BKN043
                        16/08 Q1016 NOSIG=
200904301320 METAR COR EGLL 301320Z 20010KT 9999 BKN030 16/09 Q1016 NOSIG=
200904301250 METAR COR EGLL 301250Z 18011KT 9999 SCT030 BKN034 15/08 Q1015
                        NOSIG=
200904301220 METAR COR EGLL 301220Z 18010KT 9999 SCT032 16/08 Q1015 NOSIG=
200904301150 METAR COR EGLL 301150Z 18010KT 9999 SCT035 15/09 Q1015 NOSIG=
200904301120 METAR COR EGLL 301120Z 17012KT 9999 BKN031 15/09 Q1015 NOSIG=
200904301050 METAR COR EGLL 301050Z 17011KT 140V230 9999 BKN027 16/09
                        Q1015 NOSIG=
200904301020 METAR COR EGLL 301020Z 17012KT 9999 SCT029 15/09 Q1015 NOSIG=
200904300950 METAR COR EGLL 300950Z 16011KT 9999 SCT021 15/10 Q1015 NOSIG=
200904300920 METAR COR EGLL 300920Z 18009KT 9999 SCT015 SCT021 14/09 Q1015
                        NOSIG=
200904300850 METAR COR EGLL 300850Z 17009KT 9999 BKN015 13/10 Q1015 NOSIG=
200904300820 METAR COR EGLL 300820Z 15009KT 9999 BKN013 13/09 Q1014 BECMG
                        BKN016=
200904300750 METAR COR EGLL 300750Z 16008KT 9999 FEW048 12/09 Q1014 NOSIG=
200904300720 METAR EGLL 300720Z 15009KT 9999 FEW013 12/09 Q1014 NOSIG=
200904300650 METAR COR EGLL 300650Z 16007KT 9999 FEW025 12/08 Q1014 NOSIG=
200904300620 METAR COR EGLL 300620Z 16007KT 9999 FEW025 11/07 Q1014 NOSIG=
200904300550 METAR COR EGLL 300550Z 14006KT 080V180 9999 BKN043 11/07
                        Q1014 NOSIG=
200904300520 METAR COR EGLL 300520Z 13008KT 9999 FEW043 BKN048 10/07 Q1014
                        NOSIG=
200904300450 METAR COR EGLL 300450Z 15006KT 9999 SCT033 BKN042 10/07 Q1014
                        NOSIG=
200904300420 METAR COR EGLL 300420Z 14007KT 9999 BKN029 10/07 Q1014 NOSIG=
200904300350 METAR COR EGLL 300350Z 15006KT 9999 BKN027 10/07 Q1014 NOSIG=
200904300320 METAR COR EGLL 300320Z 15007KT 9999 BKN025 10/07 Q1014 NOSIG=
200904300250 METAR COR EGLL 300250Z 14005KT 9999 BKN026 10/06 Q1014 NOSIG=
200904300220 METAR COR EGLL 300220Z 17005KT 9999 BKN022 10/06 Q1014 NOSIG=
200904300150 METAR COR EGLL 300150Z 16005KT 9999 SCT023 SCT034 09/06 Q1014
                        NOSIG=
200904300120 METAR COR EGLL 300120Z 15004KT 9999 FEW027 BKN043 09/06 Q1014
                        NOSIG=
200904300050 METAR COR EGLL 300050Z 18003KT 9999 FEW040 BKN046 08/06 Q1014
                        NOSIG=
200904300020 METAR COR EGLL 300020Z 17005KT 9999 SCT046 08/06 Q1014 TEMPO
                        RA=
200904292350 METAR COR EGLL 292350Z 15005KT 9999 FEW048 08/05 Q1014 NOSIG=
200904292320 METAR COR EGLL 292320Z 15005KT CAVOK 08/05 Q1014 NOSIG=
200904292250 METAR COR EGLL 292250Z 18005KT CAVOK 08/05 Q1014 NOSIG=
200904292220 METAR COR EGLL 292220Z 18007KT CAVOK 08/05 Q1014 NOSIG=
200904292150 METAR COR EGLL 292150Z 17007KT 130V220 CAVOK 09/04 Q1013
                        NOSIG=
200904292120 METAR COR EGLL 292120Z 19009KT 140V240 CAVOK 09/03 Q1013
                        NOSIG=
200904292050 METAR COR EGLL 292050Z 18008KT 160V230 CAVOK 10/03 Q1013
                        NOSIG=
200904292020 METAR COR EGLL 292020Z 19009KT 9999 FEW043 11/02 Q1013 NOSIG=
200904291950 METAR COR EGLL 291950Z 19010KT 150V240 9999 FEW043 12/01
                        Q1013 NOSIG=
200904291920 METAR COR EGLL 291920Z 19010KT 160V230 CAVOK 12/02 Q1012
                        NOSIG=
200904291850 METAR COR EGLL 291850Z 19011KT 160V220 CAVOK 14/02 Q1012
                        NOSIG=
200904291820 METAR COR EGLL 291820Z 20010KT 170V240 9999 FEW043 15/03
                        Q1011 NOSIG=
200904291750 METAR COR EGLL 291750Z 21011KT 170V250 9999 FEW043 15/03
                        Q1011 NOSIG=
200904291720 METAR COR EGLL 291720Z 20011KT 160V240 9999 FEW046 15/05
                        Q1011 NOSIG=
200904291650 METAR COR EGLL 291650Z 18012KT 150V220 9999 FEW045 16/04
                        Q1011 NOSIG=
200904291620 METAR COR EGLL 291620Z 18010KT 140V230 CAVOK 16/04 Q1011
                        NOSIG=
200904291550 METAR COR EGLL 291550Z 20009KT 160V240 CAVOK 16/03 Q1010
                        NOSIG=
200904291520 METAR COR EGLL 291520Z 19010KT 150V240 9999 FEW048 17/04
                        Q1010 NOSIG=
200904291450 METAR COR EGLL 291450Z 19009KT 150V240 9999 FEW047 17/04
                        Q1010 NOSIG=
200904291420 METAR COR EGLL 291420Z 19009KT 140V250 9999 FEW047 17/05
                        Q1010 NOSIG=
200904291350 METAR COR EGLL 291350Z 20009KT 160V240 9999 FEW045 16/04
                        Q1010 NOSIG=
200904291320 METAR COR EGLL 291320Z 21008KT 160V250 9999 FEW046 15/05
                        Q1010 NOSIG=
200904291250 METAR COR EGLL 291250Z VRB08KT CAVOK 17/04 Q1010 NOSIG=
200904291220 METAR COR EGLL 291220Z VRB05KT 9999 SCT049 16/03 Q1010 NOSIG=
200904291150 METAR COR EGLL 291150Z 19008KT 130V240 9999 SCT041 16/04
                        Q1009 NOSIG=
200904291120 METAR COR EGLL 291120Z 15006KT 080V210 9999 SCT039 14/05
                        Q1009 NOSIG=
200904291050 METAR COR EGLL 291050Z 22006KT 180V260 9999 SCT037 15/06
                        Q1009 NOSIG=
200904291020 METAR COR EGLL 291020Z VRB04G14KT 9999 FEW036 15/05 Q1009
                        NOSIG=
200904290950 METAR COR EGLL 290950Z 22007KT 170V290 9999 FEW031 14/05
                        Q1009 NOSIG=
200904290920 METAR COR EGLL 290920Z 17006KT 130V290 9999 FEW032 13/05
                        Q1009 NOSIG=
200904290850 METAR COR EGLL 290850Z 16005KT 110V220 9999 FEW024 12/06
                        Q1009 NOSIG=
200904290820 METAR COR EGLL 290820Z 14005KT 090V180 CAVOK 11/06 Q1008
                        NOSIG=
200904290750 METAR COR EGLL 290750Z VRB02KT CAVOK 10/06 Q1008 NOSIG=
200904290720 METAR COR EGLL 290720Z VRB02KT CAVOK 09/06 Q1008 NOSIG=
200904290650 METAR COR EGLL 290650Z VRB03KT 8000 1700SW PRFG NSC 07/05
                        Q1008 NOSIG=
200904290620 METAR COR EGLL 290620Z VRB02KT 9000 2000S VCFG NSC 06/04
                        Q1007 BECMG 9999 NSW=
200904290550 METAR COR EGLL 290550Z 00000KT 9000 VCFG NSC 06/04 Q1007
                        NOSIG=
200904290520 METAR COR EGLL 290520Z 35002KT 8000 VCFG NSC 05/04 Q1007
                        NOSIG=
200904290450 METAR COR EGLL 290450Z 00000KT 8000 VCFG NSC 04/03 Q1007
                        TEMPO 2000=
200904290420 METAR COR EGLL 290420Z 00000KT 8000 VCFG NSC 04/03 Q1006
                        TEMPO 0800 BCFG=
200904290350 METAR COR EGLL 290350Z 00000KT 8000 2000SW BCFG NSC 03/03
                        Q1006 TEMPO 0800 BCFG=
200904290320 METAR COR EGLL 290320Z 00000KT CAVOK 04/03 Q1006 NOSIG=
200904290250 METAR COR EGLL 290250Z 00000KT CAVOK 04/03 Q1006 NOSIG=
200904290220 METAR COR EGLL 290220Z 12003KT CAVOK 04/03 Q1005 NOSIG=
200904290150 METAR COR EGLL 290150Z 00000KT CAVOK 05/04 Q1005 NOSIG=
200904290120 METAR COR EGLL 290120Z 00000KT CAVOK 05/04 Q1005 NOSIG=
200904290050 METAR COR EGLL 290050Z VRB02KT CAVOK 06/04 Q1005 NOSIG=
200904290020 METAR COR EGLL 290020Z 17003KT CAVOK 06/05 Q1005 NOSIG=
200904282350 METAR COR EGLL 282350Z 15003KT 9999 FEW046 06/05 Q1005 NOSIG=
200904282320 METAR COR EGLL 282320Z 00000KT 9999 SCT035 06/05 Q1005 NOSIG=
200904282250 METAR COR EGLL 282250Z 00000KT CAVOK 06/04 Q1005 NOSIG=
200904282220 METAR COR EGLL 282220Z 00000KT 9999 FEW040 07/04 Q1004 NOSIG=
200904282150 METAR COR EGLL 282150Z 00000KT 9999 FEW040 08/05 Q1004 NOSIG=
200904282120 METAR COR EGLL 282120Z 31002KT CAVOK 09/04 Q1004 NOSIG=
200904282050 METAR COR EGLL 282050Z 30003KT CAVOK 08/04 Q1004 NOSIG=
200904282020 METAR COR EGLL 282020Z 25004KT 210V290 CAVOK 09/04 Q1003
                        NOSIG=
200904281950 METAR COR EGLL 281950Z 18003KT CAVOK 10/04 Q1003 NOSIG=
200904281920 METAR COR EGLL 281920Z 13004KT 9999 FEW030 09/05 Q1003 NOSIG=
200904281850 METAR COR EGLL 281850Z 09004KT 9999 FEW030CB 10/05 Q1002
                        NOSIG=
200904281820 METAR COR EGLL 281820Z 13002KT 9999 FEW025 FEW028CB 11/04
                        Q1002 NOSIG=
200904281750 METAR COR EGLL 281750Z 11005KT 9999 FEW022 FEW028CB 12/05
                        Q1002 NOSIG=
200904281720 METAR COR EGLL 281720Z 10005KT 9999 FEW020 FEW028TCU 11/04
                        Q1002 NOSIG=
200904281650 METAR COR EGLL 281650Z 07005KT 9999 FEW032TCU 12/05 Q1002
                        NOSIG=
200904281620 METAR COR EGLL 281620Z 07004KT 010V110 9999 FEW035 12/04
                        Q1002 NOSIG=
200904281550 METAR COR EGLL 281550Z VRB03KT 9999 -SHRA FEW035 11/04 Q1002
                        TEMPO SHRA=
200904281520 METAR COR EGLL 281520Z 09007KT 060V130 9999 -SHRA FEW043
                        10/05 Q1002 TEMPO SHRA=
200904281450 METAR COR EGLL 281450Z 13007KT 100V200 9999 VCSH FEW045 10/05
                        Q1002 TEMPO SHRA=
200904281420 METAR COR EGLL 281420Z 13011KT 080V180 9999 VCSH FEW032 11/05
                        Q1001 TEMPO SHRA=
200904281350 METAR COR EGLL 281350Z VRB03KT 9999 SCT036 12/03 Q1001 TEMPO
                        SHRA=
200904281320 METAR COR EGLL 281320Z VRB02KT 9999 -RA SCT037 BKN045 12/04
                        Q1001 TEMPO SHRA=
200904281250 METAR COR EGLL 281250Z VRB03KT 9999 SCT037 SCT045 12/02 Q1001
                        TEMPO 7000 SHRA=
200904281220 METAR COR EGLL 281220Z 32004KT 240V010 9999 SCT035 12/03
                        Q1001 NOSIG=
200904281150 METAR COR EGLL 281150Z 26004KT 150V320 9999 SCT031 13/05
                        Q1001 NOSIG=
200904281120 METAR COR EGLL 281120Z VRB04KT 9999 SCT030 13/04 Q1001 NOSIG=
200904281050 METAR COR EGLL 281050Z VRB04KT 9999 SCT027 12/05 Q1001 NOSIG=
200904281020 METAR COR EGLL 281020Z VRB03KT 9999 FEW010 SCT032 10/06 Q1001
                        NOSIG=
200904280950 METAR COR EGLL 280950Z VRB04KT 9999 SCT008 09/06 Q1001 NOSIG=
200904280920 METAR COR EGLL 280920Z VRB02KT 7000 BKN006 08/06 Q1001 BECMG
                        SCT025=
200904280850 METAR COR EGLL 280850Z VRB03KT 2500 BR BKN003 07/05 Q1001
                        BECMG 7000 NSW SCT008=
200904280820 METAR COR EGLL 280820Z VRB02KT 1200 R27R/P1500 R27L/P1500
                        BR BKN002 06/05 Q1001 BECMG 6000
                        NSW FEW005=
200904280750 METAR COR EGLL 280750Z VRB02KT 1000 R27R/1000 R27L/P1500
                        BR BKN002 05/05 Q1000 BECMG 6000
                        NSW FEW005=
200904280720 METAR COR EGLL 280720Z VRB02KT 0300 R27R/0750 R27L/P1500
                        FG VV/// 04/04 Q1000 BECMG 3000 BR
                        FEW005=
200904280650 METAR COR EGLL 280650Z VRB03KT 0250 R27R/0750 R27L/1300 FG
                        VV/// 04/03 Q1000 BECMG 3000 BR FEW005=
200904280620 METAR COR EGLL 280620Z 27004KT 0250 R27R/1000 R27L/0275 FG
                        VV/// 03/03 Q0999 BECMG 3000 BR=
200904280550 METAR COR EGLL 280550Z VRB02KT 0250 R27R/0650 R27L/0800 FG
                        VV/// 02/02 Q0999 BECMG 1500=
200904280520 METAR COR EGLL 280520Z VRB03KT 0150 R27R/0500 R27L/0375 FG
                        VV/// 02/02 Q0999 TEMPO 0500=
200904280450 METAR COR EGLL 280450Z 29004KT 0150 R27L/0550 FG VV/// 02/02
                        Q0999 TEMPO 0500 FG=
200904280420 METAR COR EGLL 280420Z 29003KT 0150 R27L/0500 FG VV/// 02/02
                        Q0999 TEMPO 0400=
200904280350 METAR COR EGLL 280350Z 32002KT 4000 0200N R27L/P1500 PRFG
                        NSC 04/03 Q0999 TEMPO 0400=
200904280320 METAR COR EGLL 280320Z 28004KT 5000 1900NW PRFG NSC 04/04
                        Q0998 TEMPO 0700 PRFG=
200904280250 METAR EGLL 280250Z 00000KT 8000 NSC 04/04 Q0998=
200904280220 METAR COR EGLL 280220Z 27002KT 9999 FEW010 04/04 Q0998 TEMPO
                        3000=
200904280150 METAR COR EGLL 280150Z 00000KT CAVOK 05/04 Q0998 TEMPO 3000
                        BR=
200904280120 METAR COR EGLL 280120Z 27002KT CAVOK 04/03 Q0998 TEMPO 3000
                        BR=
200904280050 METAR COR EGLL 280050Z 23003KT 9999 SCT028 05/04 Q0998 NOSIG=
200904280020 METAR COR EGLL 280020Z 26005KT 9999 BKN024 05/04 Q0998 NOSIG=
200904272350 METAR COR EGLL 272350Z 27003KT CAVOK 05/04 Q0997 NOSIG=
200904272320 METAR COR EGLL 272320Z 21003KT CAVOK 06/05 Q0997 NOSIG=
200904272250 METAR COR EGLL 272250Z 21004KT CAVOK 06/05 Q0997 NOSIG=
200904272220 METAR EGLL 272220Z 19003KT CAVOK 06/05 Q0997=
200904272150 METAR COR EGLL 272150Z VRB06KT CAVOK 06/05 Q0997 NOSIG=
200904272120 METAR COR EGLL 272120Z 20004KT 150V300 9999 FEW040 06/05
                        Q0997 NOSIG=
200904272050 METAR COR EGLL 272050Z 00000KT 9999 FEW040 07/05 Q0997 NOSIG=
200904272020 METAR COR EGLL 272020Z VRB02KT 9999 -RA FEW026CB 07/05 Q0997
                        NOSIG=
200904271950 METAR COR EGLL 271950Z 30005KT 9999 -SHRA FEW015 FEW026CB
                        BKN035 07/05 Q0997 NOSIG=
200904271920 METAR COR EGLL 271920Z 21004KT 160V250 9999 VCSH FEW025CB
                        BKN048 08/06 Q0996 NOSIG=
200904271850 METAR COR EGLL 271850Z 21004KT 180V250 9999 FEW033 SCT037
                        08/06 Q0996 NOSIG=
200904271820 METAR COR EGLL 271820Z VRB03KT 9999 FEW024 08/06 Q0995 NOSIG=
200904271750 METAR COR EGLL 271750Z VRB02KT 9999 FEW017 SCT027 08/06 Q0995
                        NOSIG=
200904271720 METAR COR EGLL 271720Z 27009KT 9999 7000NW -RA SCT017 BKN027
                        08/06 Q0995 NOSIG=
200904271650 METAR COR EGLL 271650Z 26013KT 220V280 9999 VCSH SCT018 SCT027
                        10/06 Q0995 NOSIG=
200904271620 METAR COR EGLL 271620Z 18011KT 160V220 9999 FEW018 SCT024
                        10/06 Q0995 NOSIG=
200904271550 METAR EGLL 271550Z 18009KT 170V240 9999 SCT019 SCT046 10/07
                        Q0995=
200904271520 METAR COR EGLL 271520Z 19010KT 160V240 9999 SCT018 SCT037
                        10/07 Q0995 NOSIG=
200904271450 METAR COR EGLL 271450Z 20010KT 160V250 9999 SCT014 SCT029
                        10/07 Q0995 NOSIG=
200904271420 METAR COR EGLL 271420Z 21009KT 170V240 9999 FEW014 SCT022
                        10/07 Q0995 NOSIG=
200904271350 METAR COR EGLL 271350Z 21008KT 180V240 9999 -RA SCT012 SCT020
                        09/07 Q0995 NOSIG=
200904271320 METAR COR EGLL 271320Z 22009KT 9999 -RA FEW011 BKN040 09/07
                        Q0995 NOSIG=
200904271250 METAR EGLL 271250Z 23011KT 9999 -RA FEW012 BKN039 09/07 Q0995=
200904271220 METAR COR EGLL 271220Z 25012KT 9999 -RA SCT014 BKN035 09/07
                        Q0995 NOSIG=
200904271150 METAR COR EGLL 271150Z 27012KT 9999 -RA FEW017 BKN026 09/07
                        Q0994 RERA NOSIG=
200904271120 METAR COR EGLL 271120Z 19016KT 9999 -RA SCT014 BKN023 10/08
                        Q0994 TEMPO 19018G28KT RA BKN014=
200904271050 METAR COR EGLL 271050Z 18016KT 9999 7000SW -RA SCT014 SCT030
                        10/08 Q0994 TEMPO 19018G28KT RA BKN014=
200904271020 METAR COR EGLL 271020Z 18014KT 9999 -RA SCT013 SCT026 10/08
                        Q0995 RERA TEMPO 19015G25KT RA BKN012=
200904270950 METAR COR EGLL 270950Z 19013KT 9999 RA SCT018 BKN031 10/08
                        Q0995 TEMPO 19015G25KT BKN014=
200904270920 METAR COR EGLL 270920Z 20013KT 9999 RA SCT020 BKN038 10/08
                        Q0996 TEMPO 20015G25KT BKN014=
200904270850 METAR COR EGLL 270850Z 18010KT 130V230 9000 RA SCT009 BKN015
                        10/09 Q0996 TEMPO BKN009=
200904270820 METAR COR EGLL 270820Z 16010KT 9999 -RA BKN009 BKN036 10/08
                        Q0996 TEMPO BKN012=
200904270750 METAR COR EGLL 270750Z 17010KT 9999 -RA BKN009 09/08 Q0996
                        TEMPO BKN011=
200904270720 METAR COR EGLL 270720Z 18012KT 9999 8000W -RA SCT009 BKN013
                        09/07 Q0997 BECMG BKN008=
200904270650 METAR COR EGLL 270650Z 19010KT 9999 FEW012 SCT019 09/07 Q0997
                        BECMG BKN010=
200904270620 METAR COR EGLL 270620Z 20008G18KT 160V270 9999 -RA FEW012
                        SCT048 09/06 Q0998 TEMPO BKN012=
200904270550 METAR EGLL 270550Z 19008G18KT 150V250 CAVOK 08/06 Q0998=
200904270520 METAR COR EGLL 270520Z 18007KT 140V230 CAVOK 07/05 Q0998
                        NOSIG=
200904270450 METAR EGLL 270450Z 20005KT 160V250 CAVOK 07/05 Q0999=
200904270420 METAR COR EGLL 270420Z 19004KT 160V250 9999 SCT032 07/05
                        Q0999 NOSIG=
200904270350 METAR COR EGLL 270350Z 16004KT 9999 FEW040 06/04 Q0999 NOSIG=
200904270320 METAR COR EGLL 270320Z 18003KT 9999 FEW039 07/04 Q1000 NOSIG=
200904270250 METAR COR EGLL 270250Z 16004KT CAVOK 07/04 Q1000 NOSIG=
200904270220 METAR COR EGLL 270220Z 17004KT CAVOK 07/04 Q1001 NOSIG=
200904270150 METAR COR EGLL 270150Z 22004KT 9999 FEW038 08/04 Q1001 NOSIG=
200904270120 METAR COR EGLL 270120Z 25006KT 9999 BKN036 08/04 Q1001 NOSIG=
200904270050 METAR COR EGLL 270050Z 23005KT 9999 SCT037 08/04 Q1002 NOSIG=
200904270020 METAR COR EGLL 270020Z 21003KT 9999 FEW040 08/04 Q1002 NOSIG=
200904262350 METAR COR EGLL 262350Z 21003KT CAVOK 08/04 Q1002 NOSIG=
200904262320 METAR COR EGLL 262320Z 21004KT CAVOK 09/05 Q1003 NOSIG=
200904262250 METAR COR EGLL 262250Z 19004KT CAVOK 09/05 Q1003 NOSIG=
200904262220 METAR COR EGLL 262220Z 22004KT CAVOK 10/05 Q1003 NOSIG=
200904262150 METAR EGLL 262150Z 23005KT 200V260 CAVOK 10/05 Q1003=
200904262120 METAR COR EGLL 262120Z 21006KT CAVOK 11/05 Q1004 NOSIG=
200904262050 METAR COR EGLL 262050Z 21006KT CAVOK 12/05 Q1004 NOSIG=
200904262020 METAR COR EGLL 262020Z 19006KT 140V230 CAVOK 12/04 Q1004
                        NOSIG=
200904261950 METAR COR EGLL 261950Z 19007KT 150V230 CAVOK 12/04 Q1004
                        NOSIG=
200904261920 METAR COR EGLL 261920Z VRB08KT CAVOK 12/04 Q1005 NOSIG=
200904261850 METAR COR EGLL 261850Z 19010KT 170V230 CAVOK 13/03 Q1005
                        NOSIG=
200904261820 METAR COR EGLL 261820Z 20009KT 170V240 CAVOK 14/03 Q1005
                        NOSIG=
200904261750 METAR COR EGLL 261750Z 20010KT 170V240 CAVOK 14/03 Q1005
                        NOSIG=
200904261720 METAR COR EGLL 261720Z 19011KT CAVOK 15/02 Q1005 NOSIG=
200904261650 METAR COR EGLL 261650Z 20009KT 160V230 CAVOK 16/M01 Q1005
                        NOSIG=
200904261620 METAR COR EGLL 261620Z 20010KT CAVOK 16/M03 Q1005 NOSIG=
200904261550 METAR COR EGLL 261550Z 20010KT 170V230 CAVOK 16/M02 Q1005
                        NOSIG=
200904261520 METAR COR EGLL 261520Z 20011KT 170V250 CAVOK 17/M01 Q1005
                        NOSIG=
200904261450 METAR COR EGLL 261450Z 21011KT 160V250 CAVOK 17/00 Q1005
                        NOSIG=
200904261420 METAR COR EGLL 261420Z 22011KT 180V250 CAVOK 17/M00 Q1006
                        NOSIG=
200904261350 METAR COR EGLL 261350Z 17008G20KT 100V260 CAVOK 17/00 Q1006
                        NOSIG=
200904261320 METAR COR EGLL 261320Z 15010KT 120V200 CAVOK 17/00 Q1006
                        NOSIG=
200904261250 METAR COR EGLL 261250Z 19010KT 150V240 CAVOK 17/01 Q1006
                        NOSIG=
200904261220 METAR COR EGLL 261220Z 19011KT CAVOK 17/01 Q1007 NOSIG=
200904261150 METAR COR EGLL 261150Z 19008KT 130V240 9999 FEW049 16/02
                        Q1007 NOSIG=
200904261120 METAR COR EGLL 261120Z 17010KT 9999 FEW048 16/03 Q1008 NOSIG=
200904261050 METAR COR EGLL 261050Z 20008KT 160V240 9999 SCT041 15/03
                        Q1008 NOSIG=
200904261020 METAR COR EGLL 261020Z 19007KT 140V230 9999 SCT043 14/04
                        Q1008 NOSIG=
200904260950 METAR COR EGLL 260950Z 16009KT 9999 FEW039 15/04 Q1008 NOSIG=
200904260920 METAR COR EGLL 260920Z 16006KT 120V210 9999 FEW032 14/06
                        Q1009 NOSIG=
200904260850 METAR COR EGLL 260850Z 16005KT 060V200 9999 FEW028 14/06
                        Q1009 NOSIG=
200904260820 METAR COR EGLL 260820Z 16004KT 110V190 CAVOK 13/06 Q1009
                        NOSIG=
200904260750 METAR COR EGLL 260750Z 14004KT 110V200 CAVOK 12/06 Q1009
                        NOSIG=
200904260720 METAR COR EGLL 260720Z VRB03KT CAVOK 10/05 Q1009 NOSIG=
200904260650 METAR COR EGLL 260650Z 11004KT 080V160 CAVOK 09/05 Q1009
                        NOSIG=
200904260620 METAR COR EGLL 260620Z 10005KT CAVOK 07/05 Q1009 NOSIG=
200904260550 METAR EGLL 260550Z 08003KT CAVOK 06/04 Q1009=
200904260520 METAR COR EGLL 260520Z 07003KT CAVOK 05/03 Q1009 NOSIG=
200904260450 METAR COR EGLL 260450Z VRB03KT CAVOK 05/03 Q1009 NOSIG=
200904260420 METAR COR EGLL 260420Z VRB02KT CAVOK 06/04 Q1009 NOSIG=
200904260350 METAR COR EGLL 260350Z 13004KT CAVOK 05/04 Q1009 NOSIG=
200904260320 METAR COR EGLL 260320Z 15004KT CAVOK 06/04 Q1009 NOSIG=
200904260250 METAR COR EGLL 260250Z 16003KT CAVOK 06/04 Q1010 NOSIG=
200904260220 METAR COR EGLL 260220Z 12004KT CAVOK 06/04 Q1010 NOSIG=
200904260150 METAR COR EGLL 260150Z 11002KT CAVOK 05/03 Q1010 NOSIG=
200904260120 METAR COR EGLL 260120Z 17003KT CAVOK 07/04 Q1010 NOSIG=
200904260050 METAR COR EGLL 260050Z 17004KT 140V210 CAVOK 06/04 Q1010
                        NOSIG=
200904260020 METAR COR EGLL 260020Z 17003KT CAVOK 07/04 Q1010 NOSIG=
200904252350 METAR COR EGLL 252350Z 16005KT CAVOK 07/04 Q1010 NOSIG=
200904252320 METAR COR EGLL 252320Z 16003KT CAVOK 08/04 Q1011 NOSIG=
200904252250 METAR COR EGLL 252250Z 16004KT CAVOK 08/04 Q1011 NOSIG=
200904252220 METAR COR EGLL 252220Z 15005KT CAVOK 09/04 Q1011 NOSIG=
200904252150 METAR COR EGLL 252150Z 14006KT CAVOK 08/03 Q1010 NOSIG=
200904252120 METAR COR EGLL 252120Z 16006KT 110V200 CAVOK 10/03 Q1010
                        NOSIG=
200904252050 METAR COR EGLL 252050Z 15005KT 120V180 CAVOK 10/03 Q1010
                        NOSIG=
200904252020 METAR COR EGLL 252020Z 15006KT 130V200 CAVOK 10/03 Q1010
                        NOSIG=
200904251950 METAR COR EGLL 251950Z 17007KT 140V210 CAVOK 11/03 Q1010
                        NOSIG=
200904251920 METAR COR EGLL 251920Z 17009KT 130V200 CAVOK 12/03 Q1010
                        NOSIG=
200904251850 METAR COR EGLL 251850Z 18009KT 9999 FEW045 12/02 Q1009 NOSIG=
200904251820 METAR COR EGLL 251820Z VRB10KT CAVOK 13/02 Q1009 NOSIG=
200904251750 METAR COR EGLL 251750Z 20012KT 180V240 CAVOK 13/01 Q1009
                        NOSIG=
200904251720 METAR COR EGLL 251720Z 19014KT 9999 FEW049 13/02 Q1009 NOSIG=
200904251650 METAR EGLL 251650Z 18013KT 140V230 CAVOK 14/01 Q1009=
200904251620 METAR COR EGLL 251620Z 19013KT CAVOK 14/01 Q1008 NOSIG=
200904251550 METAR COR EGLL 251550Z 18013KT 9999 BKN048 14/02 Q1008 NOSIG=
200904251520 METAR EGLL 251520Z 20014KT 150V230 9999 SCT047 15/02 Q1008=
200904251450 METAR COR EGLL 251450Z 19014KT 9999 SCT047 14/02 Q1008 NOSIG=
200904251420 METAR COR EGLL 251420Z 19016KT 170V240 9999 SCT044 15/04
                        Q1008 NOSIG=
200904251350 METAR COR EGLL 251350Z 19015KT 9999 SCT044 15/03 Q1007 NOSIG=
200904251320 METAR COR EGLL 251320Z 18016KT 9999 SCT044 15/03 Q1007 NOSIG=
200904251250 METAR COR EGLL 251250Z 21011KT 180V250 9999 BKN045 15/03
                        Q1007 NOSIG=
200904251220 METAR COR EGLL 251220Z 23014KT 9999 SCT043 14/04 Q1007 NOSIG=
200904251150 METAR COR EGLL 251150Z 22014KT 190V260 9999 SCT037 15/03
                        Q1007 NOSIG=
200904251120 METAR COR EGLL 251120Z 23016G26KT 9999 FEW033 13/05 Q1007
                        NOSIG=
200904251050 METAR COR EGLL 251050Z 22012KT 9999 FEW034 14/05 Q1006 NOSIG=
200904251020 METAR COR EGLL 251020Z 20012KT 170V240 9999 FEW032 SCT041
                        13/05 Q1006 NOSIG=
200904250950 METAR EGLL 250950Z 21012KT 170V250 9999 SCT024 SCT040 12/06
                        Q1006=
200904250920 METAR COR EGLL 250920Z 21012KT 9999 FEW022 SCT042 12/06 Q1006
                        NOSIG=
200904250850 METAR EGLL 250850Z 20010KT 160V240 9999 FEW019 SCT024 12/07
                        Q1005=
200904250820 METAR COR EGLL 250820Z 20009KT 160V240 9999 SCT013 11/08
                        Q1005 NOSIG=
200904250750 METAR COR EGLL 250750Z 21006KT 150V250 9999 FEW015 11/08
                        Q1005 NOSIG=
200904250720 METAR COR EGLL 250720Z 19009KT 160V230 9999 -RA FEW014 SCT045
                        10/08 Q1005 TEMPO BKN014=
200904250650 METAR COR EGLL 250650Z 21005KT 180V250 9999 -RA FEW019 SCT040
                        11/08 Q1004 TEMPO RA=
200904250620 METAR COR EGLL 250620Z 19006KT 150V220 9999 8000NW -SHRA
                        SCT024 SCT037 11/07 Q1004 TEMPO RA=
200904250550 METAR COR EGLL 250550Z 16010KT 9999 -SHRA FEW025 11/05 Q1004
                        TEMPO RA=
200904250520 METAR COR EGLL 250520Z 15010KT CAVOK 11/04 Q1004 NOSIG=
200904250450 METAR COR EGLL 250450Z 13010KT CAVOK 11/04 Q1003 NOSIG=
200904250420 METAR COR EGLL 250420Z 13009KT CAVOK 12/04 Q1003 NOSIG=
200904250350 METAR COR EGLL 250350Z 11011KT CAVOK 10/04 Q1003 NOSIG=
200904250320 METAR COR EGLL 250320Z 11011KT CAVOK 11/04 Q1004 NOSIG=
200904250250 METAR COR EGLL 250250Z 10009KT CAVOK 11/04 Q1004 NOSIG=
200904250220 METAR COR EGLL 250220Z 10010KT CAVOK 11/04 Q1005 NOSIG=
200904250150 METAR COR EGLL 250150Z 10009KT CAVOK 12/03 Q1005 NOSIG=
200904250120 METAR COR EGLL 250120Z 11011KT CAVOK 12/04 Q1006 NOSIG=
200904250050 METAR COR EGLL 250050Z 12009KT CAVOK 13/04 Q1006 NOSIG=
200904250020 METAR EGLL 250020Z 12010KT CAVOK 13/04 Q1006=
200904242350 METAR COR EGLL 242350Z 11012KT CAVOK 12/04 Q1007 NOSIG=
200904242320 METAR COR EGLL 242320Z 10009KT CAVOK 12/04 Q1007 NOSIG=
200904242250 METAR COR EGLL 242250Z 10010KT CAVOK 12/04 Q1008 NOSIG=
200904242220 METAR COR EGLL 242220Z 10010KT CAVOK 12/04 Q1008 NOSIG=
200904242150 METAR COR EGLL 242150Z 10009KT CAVOK 12/05 Q1009 NOSIG=
200904242120 METAR COR EGLL 242120Z 10010KT CAVOK 13/05 Q1009 NOSIG=
200904242050 METAR COR EGLL 242050Z 10009KT CAVOK 13/04 Q1010 NOSIG=
200904242020 METAR COR EGLL 242020Z 10009KT CAVOK 13/04 Q1010 NOSIG=
200904241950 METAR COR EGLL 241950Z 11009KT CAVOK 13/04 Q1010 NOSIG=
200904241920 METAR COR EGLL 241920Z 11010KT CAVOK 14/03 Q1010 NOSIG=
200904241850 METAR COR EGLL 241850Z 12012KT CAVOK 15/02 Q1010 NOSIG=
200904241820 METAR COR EGLL 241820Z 13011KT CAVOK 16/03 Q1010 NOSIG=
200904241750 METAR COR EGLL 241750Z 14011KT CAVOK 16/03 Q1011 NOSIG=
200904241720 METAR COR EGLL 241720Z 14013KT CAVOK 16/03 Q1011 NOSIG=
200904241650 METAR COR EGLL 241650Z 13012KT CAVOK 17/04 Q1011 NOSIG=
200904241620 METAR COR EGLL 241620Z 16013KT CAVOK 18/03 Q1011 NOSIG=
200904241550 METAR COR EGLL 241550Z 14015KT CAVOK 18/03 Q1012 NOSIG=
200904241520 METAR COR EGLL 241520Z 15013KT CAVOK 18/02 Q1012 NOSIG=
200904241450 METAR COR EGLL 241450Z 15014KT CAVOK 19/02 Q1012 NOSIG=
200904241420 METAR COR EGLL 241420Z 16013KT CAVOK 19/01 Q1013 NOSIG=
200904241350 METAR COR EGLL 241350Z 15013KT CAVOK 19/02 Q1013 NOSIG=
200904241320 METAR COR EGLL 241320Z 16014KT CAVOK 19/01 Q1014 NOSIG=
200904241250 METAR COR EGLL 241250Z 14011KT 110V170 CAVOK 19/02 Q1014
                        NOSIG=
200904241220 METAR COR EGLL 241220Z 15013KT CAVOK 18/03 Q1014 NOSIG=
200904241150 METAR COR EGLL 241150Z 15014KT 120V180 CAVOK 17/03 Q1015
                        NOSIG=
200904241120 METAR COR EGLL 241120Z 13016KT CAVOK 18/04 Q1015 NOSIG=
200904241050 METAR COR EGLL 241050Z 16013KT CAVOK 17/05 Q1016 NOSIG=
200904241020 METAR COR EGLL 241020Z 16015KT CAVOK 17/05 Q1016 NOSIG=
200904240950 METAR COR EGLL 240950Z 14015KT CAVOK 16/06 Q1016 NOSIG=
200904240920 METAR COR EGLL 240920Z 16014KT CAVOK 16/06 Q1017 NOSIG=
200904240850 METAR COR EGLL 240850Z 16013KT CAVOK 15/07 Q1017 NOSIG=
200904240820 METAR EGLL 240820Z 15012KT CAVOK 14/07 Q1017=
200904240750 METAR COR EGLL 240750Z 15011KT CAVOK 13/07 Q1017 NOSIG=
200904240720 METAR COR EGLL 240720Z 14010KT CAVOK 12/06 Q1017 NOSIG=
200904240650 METAR COR EGLL 240650Z 14010KT 9000 NSC 11/06 Q1017 NOSIG=
200904240620 METAR COR EGLL 240620Z 12009KT 9000 NSC 10/06 Q1017 NOSIG=
200904240550 METAR COR EGLL 240550Z 13008KT 9000 NSC 10/06 Q1017 NOSIG=
200904240520 METAR COR EGLL 240520Z 13007KT 9000 NSC 09/05 Q1018 NOSIG=
200904240450 METAR COR EGLL 240450Z 13008KT 9000 NSC 09/05 Q1018 NOSIG=
200904240420 METAR COR EGLL 240420Z 12008KT 9000 NSC 09/05 Q1018 NOSIG=
200904240350 METAR COR EGLL 240350Z 12008KT CAVOK 10/05 Q1018 NOSIG=
200904240320 METAR COR EGLL 240320Z 13006KT CAVOK 10/05 Q1018 NOSIG=
200904240250 METAR COR EGLL 240250Z 13007KT CAVOK 09/04 Q1018 NOSIG=
200904240220 METAR COR EGLL 240220Z 12006KT CAVOK 08/04 Q1019 NOSIG=
200904240150 METAR COR EGLL 240150Z 12004KT CAVOK 09/04 Q1019 NOSIG=
200904240120 METAR COR EGLL 240120Z 11006KT CAVOK 09/04 Q1019 NOSIG=
200904240050 METAR COR EGLL 240050Z 11006KT CAVOK 09/04 Q1019 NOSIG=
200904240020 METAR EGLL 240020Z NIL=
200904232350 METAR EGLL 232350Z NIL=
200904232320 METAR COR EGLL 232320Z 11010KT CAVOK 10/05 Q1020 NOSIG=
200904232250 METAR COR EGLL 232250Z 12010KT CAVOK 11/05 Q1020 NOSIG=
200904232220 METAR COR EGLL 232220Z 11009KT CAVOK 10/04 Q1020 NOSIG=
200904232150 METAR COR EGLL 232150Z 10008KT CAVOK 10/04 Q1020 NOSIG=
200904232120 METAR COR EGLL 232120Z 11008KT CAVOK 11/04 Q1020 NOSIG=
200904232050 METAR COR EGLL 232050Z 12006KT CAVOK 11/04 Q1021 NOSIG=
200904232020 METAR COR EGLL 232020Z 13007KT 090V160 CAVOK 12/04 Q1021
                        NOSIG=
200904231950 METAR COR EGLL 231950Z 16006KT 130V210 CAVOK 13/04 Q1021
                        NOSIG=
200904231920 METAR COR EGLL 231920Z 15007KT 110V210 CAVOK 14/04 Q1021
                        NOSIG=
200904231850 METAR COR EGLL 231850Z 18008KT 060V230 CAVOK 14/04 Q1021
                        NOSIG=
200904231820 METAR COR EGLL 231820Z 19008KT 150V240 CAVOK 15/04 Q1021
                        NOSIG=
200904231750 METAR COR EGLL 231750Z 18009KT CAVOK 15/03 Q1021 NOSIG=
200904231720 METAR COR EGLL 231720Z 18011KT CAVOK 15/02 Q1021 NOSIG=
200904231650 METAR COR EGLL 231650Z 17011KT 130V190 CAVOK 16/04 Q1021
                        NOSIG=
200904231620 METAR COR EGLL 231620Z 18010G20KT 150V220 CAVOK 16/04 Q1021
                        NOSIG=
200904231550 METAR COR EGLL 231550Z 20011KT CAVOK 17/05 Q1021 NOSIG=
200904231520 METAR COR EGLL 231520Z 19010KT CAVOK 18/06 Q1021 NOSIG=
200904231450 METAR COR EGLL 231450Z 18010KT 150V220 CAVOK 18/06 Q1022
                        NOSIG=
200904231420 METAR EGLL 231420Z 18011G22KT 120V220 CAVOK 18/06 Q1022=
200904231350 METAR COR EGLL 231350Z 18011KT 130V240 CAVOK 18/06 Q1022
                        NOSIG=
200904231320 METAR COR EGLL 231320Z 20009KT 160V240 9999 FEW040 18/06
                        Q1022 NOSIG=
200904231250 METAR COR EGLL 231250Z 20010KT 180V240 9999 FEW040 19/07
                        Q1022 NOSIG=
200904231220 METAR COR EGLL 231220Z 19010KT 140V240 CAVOK 18/08 Q1023
                        NOSIG=
200904231150 METAR COR EGLL 231150Z 18008KT 120V230 CAVOK 17/08 Q1023
                        NOSIG=
200904231120 METAR COR EGLL 231120Z 19009KT 150V230 CAVOK 17/07 Q1023
                        NOSIG=
200904231050 METAR COR EGLL 231050Z 20010KT 160V250 CAVOK 16/07 Q1024
                        NOSIG=
200904231020 METAR COR EGLL 231020Z 19010KT 170V230 CAVOK 15/06 Q1024
                        NOSIG=
200904230950 METAR COR EGLL 230950Z 18010KT 150V230 CAVOK 15/07 Q1024
                        NOSIG=
200904230920 METAR COR EGLL 230920Z 20007KT 160V250 CAVOK 14/08 Q1024
                        NOSIG=
200904230850 METAR COR EGLL 230850Z 21007KT 160V260 8000 NSC 13/08 Q1024
                        NOSIG=
200904230820 METAR COR EGLL 230820Z 20007G17KT 140V240 7000 NSC 12/09
                        Q1024 NOSIG=
200904230750 METAR COR EGLL 230750Z 21005KT 180V240 6000 NSC 11/08 Q1024
                        NOSIG=
200904230720 METAR COR EGLL 230720Z 21007KT 4600 HZ NSC 10/08 Q1024 BECMG
                        6000 NSW=
200904230650 METAR COR EGLL 230650Z 22006KT 180V250 3900 HZ NSC 10/08
                        Q1024 BECMG 6000 NSW=
200904230620 METAR COR EGLL 230620Z 20005KT 170V240 4000 HZ NSC 09/07
                        Q1023 BECMG CAVOK=
200904230550 METAR COR EGLL 230550Z 18004KT 140V220 4000 HZ NSC 09/07
                        Q1023 BECMG 6000 NSW=
200904230520 METAR COR EGLL 230520Z VRB04KT 4800 HZ NSC 09/07 Q1023 BECMG
                        6000 NSW=
200904230450 METAR COR EGLL 230450Z VRB03KT 6000 NSC 09/07 Q1023 NOSIG=
200904230420 METAR COR EGLL 230420Z 20004KT 130V250 7000 NSC 08/06 Q1023
                        NOSIG=
200904230350 METAR COR EGLL 230350Z VRB03KT 7000 NSC 09/07 Q1023 NOSIG=
200904230320 METAR COR EGLL 230320Z 18003KT 7000 NSC 09/07 Q1023 NOSIG=
200904230250 METAR COR EGLL 230250Z 22004KT 8000 NSC 09/07 Q1023 NOSIG=
200904230220 METAR COR EGLL 230220Z 21003KT 9000 NSC 10/07 Q1024 NOSIG=
200904230150 METAR COR EGLL 230150Z 22005KT CAVOK 10/07 Q1024 NOSIG=
200904230120 METAR COR EGLL 230120Z 20005KT CAVOK 10/07 Q1024 NOSIG=
200904230050 METAR COR EGLL 230050Z 21004KT CAVOK 11/07 Q1024 NOSIG=
200904230020 METAR COR EGLL 230020Z 20004KT CAVOK 11/07 Q1024 NOSIG=
200904222350 METAR COR EGLL 222350Z 21003KT CAVOK 11/07 Q1024 NOSIG=
200904222320 METAR COR EGLL 222320Z 18005KT CAVOK 11/08 Q1024 NOSIG=
200904222250 METAR COR EGLL 222250Z 20004KT CAVOK 12/08 Q1024 NOSIG=
200904222220 METAR COR EGLL 222220Z 24004KT CAVOK 12/08 Q1024 NOSIG=
200904222150 METAR COR EGLL 222150Z 26005KT CAVOK 13/08 Q1024 NOSIG=
200904222120 METAR COR EGLL 222120Z 26005KT CAVOK 13/08 Q1024 NOSIG=
200904222050 METAR COR EGLL 222050Z 27006KT CAVOK 14/07 Q1024 NOSIG=
200904222020 METAR COR EGLL 222020Z 25009KT CAVOK 15/08 Q1024 NOSIG=
200904221950 METAR COR EGLL 221950Z 26009KT CAVOK 16/06 Q1024 NOSIG=
200904221920 METAR COR EGLL 221920Z 27009KT CAVOK 16/06 Q1024 NOSIG=
200904221850 METAR COR EGLL 221850Z 27008KT CAVOK 17/05 Q1024 NOSIG=
200904221820 METAR COR EGLL 221820Z 28004KT 250V310 CAVOK 17/05 Q1024
                        NOSIG=
200904221750 METAR COR EGLL 221750Z 26005KT 180V340 CAVOK 18/05 Q1024
                        NOSIG=
200904221720 METAR COR EGLL 221720Z 28005KT 250V320 CAVOK 18/05 Q1024
                        NOSIG=
200904221650 METAR COR EGLL 221650Z 28004KT 210V330 CAVOK 18/05 Q1024
                        NOSIG=
200904221620 METAR COR EGLL 221620Z 29006KT 250V340 CAVOK 18/05 Q1024
                        NOSIG=
200904221550 METAR COR EGLL 221550Z VRB04KT CAVOK 19/04 Q1024 NOSIG=
200904221520 METAR COR EGLL 221520Z VRB04KT CAVOK 19/04 Q1025 NOSIG=
200904221450 METAR COR EGLL 221450Z VRB04KT CAVOK 19/04 Q1025 NOSIG=
200904221420 METAR COR EGLL 221420Z 31004KT 230V030 CAVOK 19/03 Q1025
                        NOSIG=
200904221350 METAR COR EGLL 221350Z 28006KT 220V360 CAVOK 19/03 Q1025
                        NOSIG=
200904221320 METAR COR EGLL 221320Z 26005KT 200V330 CAVOK 18/02 Q1026
                        NOSIG=
200904221250 METAR COR EGLL 221250Z 26007KT 170V290 CAVOK 18/02 Q1026
                        NOSIG=
200904221220 METAR COR EGLL 221220Z 24007KT 190V310 CAVOK 17/02 Q1026
                        NOSIG=
200904221150 METAR COR EGLL 221150Z VRB03KT CAVOK 17/05 Q1027 NOSIG=
200904221120 METAR COR EGLL 221120Z VRB02KT CAVOK 17/04 Q1027 NOSIG=
200904221050 METAR COR EGLL 221050Z 01004KT 270V060 CAVOK 16/05 Q1027
                        NOSIG=
200904221020 METAR COR EGLL 221020Z VRB03KT CAVOK 16/05 Q1027 NOSIG=
200904220950 METAR COR EGLL 220950Z VRB03KT CAVOK 15/06 Q1027 NOSIG=
200904220920 METAR COR EGLL 220920Z 15004KT 080V220 CAVOK 14/06 Q1027
                        NOSIG=
200904220850 METAR COR EGLL 220850Z 06004KT 330V120 CAVOK 13/06 Q1027
                        NOSIG=
200904220820 METAR COR EGLL 220820Z 06005KT 010V100 CAVOK 12/06 Q1028
                        NOSIG=
200904220750 METAR COR EGLL 220750Z 06004KT 030V090 CAVOK 12/07 Q1028
                        NOSIG=
200904220720 METAR COR EGLL 220720Z VRB03KT CAVOK 11/06 Q1028 NOSIG=
200904220650 METAR COR EGLL 220650Z VRB02KT 9000 NSC 10/06 Q1028 NOSIG=
200904220620 METAR COR EGLL 220620Z VRB02KT 8000 NSC 09/06 Q1028 NOSIG=
200904220550 METAR COR EGLL 220550Z 00000KT 8000 VCFG NSC 09/06 Q1028
                        NOSIG=
200904220520 METAR COR EGLL 220520Z 31003KT 7000 NSC 09/06 Q1028 NOSIG=
200904220450 METAR COR EGLL 220450Z 31004KT 7000 NSC 08/06 Q1028 NOSIG=
200904220420 METAR COR EGLL 220420Z 30004KT 7000 NSC 08/06 Q1028 NOSIG=
200904220350 METAR COR EGLL 220350Z 28003KT 8000 NSC 08/06 Q1028 NOSIG=
200904220320 METAR COR EGLL 220320Z 27003KT 8000 NSC 09/06 Q1028 NOSIG=
200904220250 METAR COR EGLL 220250Z 00000KT 8000 NSC 10/07 Q1028 NOSIG=
200904220220 METAR COR EGLL 220220Z 31002KT CAVOK 10/07 Q1028 NOSIG=
200904220150 METAR COR EGLL 220150Z 00000KT CAVOK 10/07 Q1028 NOSIG=
200904220120 METAR COR EGLL 220120Z 30003KT CAVOK 10/07 Q1028 NOSIG=
200904220050 METAR COR EGLL 220050Z 27004KT CAVOK 11/07 Q1028 NOSIG=
200904220020 METAR EGLL 220020Z NIL=
200904212350 METAR COR EGLL 212350Z VRB03KT CAVOK 12/08 Q1028 NOSIG=
200904212320 METAR COR EGLL 212320Z VRB02KT CAVOK 12/08 Q1028 NOSIG=
200904212250 METAR COR EGLL 212250Z 33004KT 300V020 CAVOK 13/08 Q1027
                        NOSIG=
200904212220 METAR COR EGLL 212220Z 33004KT 300V360 CAVOK 13/08 Q1027
                        NOSIG=
200904212150 METAR COR EGLL 212150Z 34005KT 300V010 CAVOK 14/08 Q1027
                        NOSIG=
200904212120 METAR COR EGLL 212120Z 33006KT 300V010 CAVOK 15/08 Q1027
                        NOSIG=
200904212050 METAR COR EGLL 212050Z 32005KT 290V350 CAVOK 16/08 Q1027
                        NOSIG=
200904212020 METAR COR EGLL 212020Z 30005KT CAVOK 16/07 Q1027 NOSIG=
200904211950 METAR COR EGLL 211950Z 30004KT CAVOK 17/07 Q1026 NOSIG=
200904211920 METAR COR EGLL 211920Z 31005KT CAVOK 17/06 Q1026 NOSIG=
200904211850 METAR COR EGLL 211850Z 32006KT 290V360 9999 FEW048 17/05
                        Q1026 NOSIG=
200904211820 METAR COR EGLL 211820Z 31007KT CAVOK 18/01 Q1026 NOSIG=
200904211750 METAR COR EGLL 211750Z 31007KT CAVOK 19/02 Q1025 NOSIG=
200904211720 METAR COR EGLL 211720Z 30008KT CAVOK 19/03 Q1025 NOSIG=
200904211650 METAR COR EGLL 211650Z 30006KT CAVOK 19/03 Q1025 NOSIG=
200904211620 METAR COR EGLL 211620Z 27008KT 230V350 CAVOK 19/02 Q1025
                        NOSIG=
200904211550 METAR COR EGLL 211550Z 28008KT 240V310 CAVOK 20/01 Q1025
                        NOSIG=
200904211520 METAR COR EGLL 211520Z 28010KT 250V310 CAVOK 20/03 Q1025
                        NOSIG=
200904211450 METAR COR EGLL 211450Z 27007KT 230V350 CAVOK 20/05 Q1025
                        NOSIG=
200904211420 METAR COR EGLL 211420Z 27010KT 230V310 CAVOK 20/05 Q1026
                        NOSIG=
200904211350 METAR COR EGLL 211350Z 27010KT CAVOK 20/05 Q1026 NOSIG=
200904211320 METAR COR EGLL 211320Z 28010KT CAVOK 20/06 Q1026 NOSIG=
200904211250 METAR COR EGLL 211250Z 28008KT 250V330 9999 FEW048 20/06
                        Q1026 NOSIG=
200904211220 METAR COR EGLL 211220Z 31007KT 250V350 9999 FEW048 19/07
                        Q1026 NOSIG=
200904211150 METAR COR EGLL 211150Z 27009KT 9999 FEW048 19/07 Q1026 NOSIG=
200904211120 METAR COR EGLL 211120Z 26008KT 220V320 9999 FEW040 18/06
                        Q1026 NOSIG=
200904211050 METAR COR EGLL 211050Z 28005KT 240V360 8000 NSC 18/08 Q1026
                        NOSIG=
200904211020 METAR COR EGLL 211020Z 29004KT 230V010 9000 NSC 17/07 Q1027
                        NOSIG=
200904210950 METAR COR EGLL 210950Z VRB03KT 9000 NSC 16/07 Q1027 NOSIG=
200904210920 METAR COR EGLL 210920Z VRB03KT 8000 NSC 15/07 Q1027 NOSIG=
200904210850 METAR COR EGLL 210850Z VRB02KT 9000 NSC 14/07 Q1027 NOSIG=
200904210820 METAR COR EGLL 210820Z VRB03KT CAVOK 13/06 Q1027 NOSIG=
200904210750 METAR COR EGLL 210750Z VRB02KT 9999 VCFG NSC 12/05 Q1027
                        NOSIG=
200904210720 METAR COR EGLL 210720Z VRB02KT 9999 VCFG NSC 11/06 Q1027
                        NOSIG=
200904210650 METAR COR EGLL 210650Z 07002KT 9999 VCFG NSC 10/06 Q1027
                        NOSIG=
200904210620 METAR COR EGLL 210620Z VRB02KT 9999 VCFG NSC 09/05 Q1027
                        NOSIG=
200904210550 METAR COR EGLL 210550Z 00000KT 9999 VCFG NSC 07/04 Q1027
                        NOSIG=
200904210520 METAR COR EGLL 210520Z 00000KT 9999 VCFG NSC 07/04 Q1027
                        TEMPO 4000=
200904210450 METAR EGLL 210450Z 00000KT 9999 VCFG NSC 07/04 Q1027=
200904210420 METAR COR EGLL 210420Z 00000KT 9999 7000W VCFG NSC 07/04
                        Q1027 TEMPO 4000=
200904210350 METAR COR EGLL 210350Z 00000KT CAVOK 07/04 Q1027 NOSIG=
200904210320 METAR COR EGLL 210320Z 35002KT CAVOK 07/04 Q1027 NOSIG=
200904210250 METAR COR EGLL 210250Z 36002KT CAVOK 08/05 Q1027 NOSIG=
200904210220 METAR COR EGLL 210220Z 34003KT CAVOK 08/04 Q1027 NOSIG=
200904210150 METAR COR EGLL 210150Z 36002KT CAVOK 08/03 Q1027 NOSIG=
200904210120 METAR COR EGLL 210120Z 06002KT CAVOK 09/04 Q1027 NOSIG=
200904210050 METAR COR EGLL 210050Z 06003KT CAVOK 09/05 Q1027 NOSIG=
200904210020 METAR COR EGLL 210020Z 08002KT CAVOK 10/05 Q1027 NOSIG=
200904202350 METAR COR EGLL 202350Z 08002KT CAVOK 10/06 Q1027 NOSIG=
200904202320 METAR COR EGLL 202320Z 08003KT CAVOK 10/06 Q1027 NOSIG=
200904202250 METAR COR EGLL 202250Z 08003KT CAVOK 10/07 Q1027 NOSIG=
200904202220 METAR COR EGLL 202220Z 09004KT CAVOK 11/07 Q1027 NOSIG=
200904202150 METAR COR EGLL 202150Z 06004KT CAVOK 13/06 Q1027 NOSIG=
200904202120 METAR COR EGLL 202120Z 04004KT CAVOK 14/06 Q1027 NOSIG=
200904202050 METAR COR EGLL 202050Z 03003KT CAVOK 14/05 Q1027 NOSIG=
200904202020 METAR COR EGLL 202020Z 04003KT CAVOK 14/06 Q1027 NOSIG=
200904201950 METAR COR EGLL 201950Z 05003KT CAVOK 14/06 Q1027 NOSIG=
200904201920 METAR COR EGLL 201920Z 04004KT CAVOK 15/05 Q1026 NOSIG=
200904201850 METAR COR EGLL 201850Z 03004KT CAVOK 16/05 Q1026 NOSIG=
200904201820 METAR COR EGLL 201820Z 03005KT CAVOK 16/05 Q1026 NOSIG=
200904201750 METAR COR EGLL 201750Z 01005KT 320V060 CAVOK 17/05 Q1026
                        NOSIG=
200904201720 METAR COR EGLL 201720Z 36004KT 320V040 CAVOK 17/05 Q1026
                        NOSIG=
200904201650 METAR COR EGLL 201650Z 36006KT 330V040 CAVOK 18/05 Q1026
                        NOSIG=
200904201620 METAR COR EGLL 201620Z 04005KT 340V110 CAVOK 18/06 Q1026
                        NOSIG=
200904201550 METAR COR EGLL 201550Z 04006KT 340V080 CAVOK 18/06 Q1026
                        NOSIG=
200904201520 METAR EGLL 201520Z 02004KT 330V060 CAVOK 17/05 Q1026=
200904201450 METAR COR EGLL 201450Z VRB03KT CAVOK 18/05 Q1027 NOSIG=
200904201420 METAR COR EGLL 201420Z VRB03KT CAVOK 17/06 Q1027 NOSIG=
200904201350 METAR COR EGLL 201350Z VRB04KT CAVOK 18/06 Q1027 NOSIG=
200904201320 METAR COR EGLL 201320Z 32004KT 260V020 CAVOK 18/06 Q1027
                        NOSIG=
200904201250 METAR COR EGLL 201250Z 08005KT 030V130 CAVOK 17/06 Q1027
                        NOSIG=
200904201220 METAR COR EGLL 201220Z VRB03KT CAVOK 17/07 Q1027 NOSIG=
200904201150 METAR COR EGLL 201150Z 05004KT 310V100 CAVOK 16/07 Q1027
                        NOSIG=
200904201120 METAR COR EGLL 201120Z 04004KT 360V120 CAVOK 16/07 Q1028
                        NOSIG=
200904201050 METAR COR EGLL 201050Z 01004KT 290V110 CAVOK 14/07 Q1028
                        NOSIG=
200904201020 METAR COR EGLL 201020Z 03005KT 360V070 CAVOK 13/07 Q1028
                        NOSIG=
200904200950 METAR COR EGLL 200950Z 06004KT 010V110 CAVOK 12/07 Q1028
                        NOSIG=
200904200920 METAR COR EGLL 200920Z 02004KT 310V100 CAVOK 11/07 Q1028
                        NOSIG=
200904200850 METAR COR EGLL 200850Z 36004KT 310V060 CAVOK 10/06 Q1028
                        NOSIG=
200904200820 METAR COR EGLL 200820Z VRB03KT 8000 NSC 09/06 Q1028 NOSIG=
200904200750 METAR COR EGLL 200750Z 36005KT 5000 BR FEW004 07/06 Q1028
                        NOSIG=
200904200720 METAR COR EGLL 200720Z 35004KT 320V040 5000 BR FEW003 07/06
                        Q1028 NOSIG=
200904200650 METAR COR EGLL 200650Z VRB03KT 2500 BR FEW001 SCT002 06/05
                        Q1028 BECMG 5000=
200904200620 METAR COR EGLL 200620Z VRB03KT 0800 R09L/P1500 R09R/P1500
                        FG BKN001 05/05 Q1028 BECMG 4000
                        BR SCT005=
200904200550 METAR COR EGLL 200550Z 36005KT 0600 R09L/0700 R09R/0600 FG
                        BKN001 04/04 Q1028 TEMPO 1500 VCFG
                        SCT001=
200904200520 METAR COR EGLL 200520Z 35004KT 310V010 4500 1000N R09L/0450
                        R09R/P1500 PRFG NSC 05/04 Q1027 TEMPO
                        0300 PRFG BKN001=
200904200450 METAR COR EGLL 200450Z 35003KT 6000 NSC 05/04 Q1027 TEMPO
                        3000 VCFG=
200904200420 METAR COR EGLL 200420Z 35003KT 6000 NSC 05/04 Q1027 TEMPO
                        4000 BR=
200904200350 METAR COR EGLL 200350Z VRB03KT 7000 NSC 06/04 Q1027 TEMPO
                        4000=
200904200320 METAR COR EGLL 200320Z VRB03KT 8000 NSC 06/04 Q1027 NOSIG=
200904200250 METAR COR EGLL 200250Z 35004KT 9000 NSC 06/05 Q1026 NOSIG=
200904200220 METAR COR EGLL 200220Z 36004KT 330V050 9000 NSC 06/05 Q1026
                        NOSIG=
200904200150 METAR COR EGLL 200150Z 36005KT 9000 NSC 07/05 Q1026 NOSIG=
200904200120 METAR COR EGLL 200120Z 36004KT CAVOK 07/05 Q1027 NOSIG=
200904200050 METAR COR EGLL 200050Z 03004KT 360V070 CAVOK 07/05 Q1027
                        NOSIG=
200904200020 METAR COR EGLL 200020Z VRB03KT CAVOK 07/05 Q1027 NOSIG=
200904192350 METAR COR EGLL 192350Z 35004KT CAVOK 08/06 Q1027 NOSIG=
200904192320 METAR COR EGLL 192320Z VRB03KT CAVOK 08/06 Q1027 NOSIG=
200904192250 METAR COR EGLL 192250Z VRB03KT CAVOK 09/06 Q1026 NOSIG=
200904192220 METAR COR EGLL 192220Z 36004KT CAVOK 09/06 Q1026 NOSIG=
200904192150 METAR COR EGLL 192150Z 01004KT 340V050 CAVOK 10/06 Q1026
                        NOSIG=
200904192120 METAR COR EGLL 192120Z 02005KT 350V050 CAVOK 10/07 Q1026
                        NOSIG=
200904192050 METAR COR EGLL 192050Z 02006KT 350V050 CAVOK 11/07 Q1026
                        NOSIG=
200904192020 METAR COR EGLL 192020Z 02007KT CAVOK 12/07 Q1025 NOSIG=
200904191950 METAR COR EGLL 191950Z 36007KT 330V040 9999 SCT035 12/07
                        Q1025 NOSIG=
200904191920 METAR COR EGLL 191920Z 35007KT 330V030 9999 SCT036 14/07
                        Q1025 NOSIG=
200904191850 METAR COR EGLL 191850Z 02006KT 340V050 9999 SCT039 15/07
                        Q1024 NOSIG=
200904191820 METAR COR EGLL 191820Z 03008KT 010V070 9999 SCT041 SCT049
                        15/07 Q1024 NOSIG=
200904191750 METAR COR EGLL 191750Z 04006KT 010V080 9999 BKN042 15/07
                        Q1024 NOSIG=
200904191720 METAR COR EGLL 191720Z 03006KT 330V080 9999 SCT043 SCT047
                        16/07 Q1024 NOSIG=
200904191650 METAR COR EGLL 191650Z 05006KT 010V080 9999 SCT046 16/06
                        Q1023 NOSIG=
200904191620 METAR COR EGLL 191620Z 08008KT 040V110 9999 SCT041 SCT046
                        16/07 Q1023 NOSIG=
200904191550 METAR COR EGLL 191550Z 04007KT 360V090 9999 SCT041 SCT046
                        16/07 Q1023 NOSIG=
200904191520 METAR COR EGLL 191520Z 04008KT 350V080 9999 BKN040 16/07
                        Q1023 NOSIG=
200904191450 METAR EGLL 191450Z 05007KT 360V080 9999 FEW038 16/07 Q1023=
200904191420 METAR COR EGLL 191420Z 02006KT 330V100 9999 FEW036 16/08
                        Q1023 NOSIG=
200904191350 METAR EGLL 191350Z 05007KT 340V090 9999 FEW034 15/07 Q1024=
200904191320 METAR EGLL 191320Z 02007KT 330V070 9999 FEW033 15/07 Q1024=
200904191250 METAR EGLL 191250Z 03008KT 350V070 9999 FEW033 15/07 Q1024=
200904191220 METAR COR EGLL 191220Z 04008KT 350V080 9999 FEW028 14/07
                        Q1024 NOSIG=
200904191150 METAR COR EGLL 191150Z 05008KT 350V080 9999 FEW028 13/06
                        Q1024 NOSIG=
200904191120 METAR COR EGLL 191120Z 01008KT 330V040 9999 FEW024 13/06
                        Q1024 NOSIG=
200904191050 METAR COR EGLL 191050Z 03006KT 320V080 9999 FEW023 12/06
                        Q1024 NOSIG=
200904191020 METAR COR EGLL 191020Z 01008KT 330V050 9999 FEW022 12/06
                        Q1024 NOSIG=
200904190950 METAR COR EGLL 190950Z 05008KT 360V080 9999 SCT019 11/05
                        Q1024 NOSIG=
200904190920 METAR COR EGLL 190920Z 04008KT 360V080 9999 SCT021 10/05
                        Q1024 NOSIG=
200904190850 METAR COR EGLL 190850Z 01007KT 350V050 9999 SCT016 10/05
                        Q1024 NOSIG=
200904190820 METAR COR EGLL 190820Z 02007KT 340V070 9999 SCT014 09/05
                        Q1024 NOSIG=
200904190750 METAR COR EGLL 190750Z 01007KT 340V040 9999 SCT013 08/05
                        Q1024 NOSIG=
200904190720 METAR COR EGLL 190720Z 02008KT 350V060 9999 SCT012 07/05
                        Q1024 NOSIG=
200904190650 METAR COR EGLL 190650Z 03007KT 320V060 9999 SCT011 07/04
                        Q1023 TEMPO BKN011=
200904190620 METAR COR EGLL 190620Z 36006KT 340V040 9999 BKN011 06/04
                        Q1023 TEMPO FEW011=
200904190550 METAR COR EGLL 190550Z 01004KT 340V060 9999 FEW011 06/04
                        Q1023 NOSIG=
200904190520 METAR COR EGLL 190520Z VRB03KT 9999 FEW012 05/03 Q1023 NOSIG=
200904190450 METAR COR EGLL 190450Z VRB03KT 9999 FEW013 04/03 Q1023 NOSIG=
200904190420 METAR COR EGLL 190420Z VRB03KT 9999 FEW012 05/03 Q1023 NOSIG=
200904190350 METAR COR EGLL 190350Z 36004KT 310V040 CAVOK 05/03 Q1022
                        NOSIG=
200904190320 METAR COR EGLL 190320Z 01004KT 330V050 CAVOK 05/03 Q1022
                        NOSIG=
200904190250 METAR COR EGLL 190250Z 02005KT 350V060 CAVOK 05/03 Q1022
                        NOSIG=
200904190220 METAR COR EGLL 190220Z 02004KT CAVOK 05/04 Q1022 NOSIG=
200904190150 METAR COR EGLL 190150Z 02005KT 340V050 CAVOK 06/04 Q1022
                        NOSIG=
200904190120 METAR COR EGLL 190120Z 02006KT 350V050 CAVOK 06/04 Q1023
                        NOSIG=
200904190050 METAR COR EGLL 190050Z 02005KT 330V060 CAVOK 06/04 Q1023
                        NOSIG=
200904190020 METAR COR EGLL 190020Z 02005KT 320V060 CAVOK 06/04 Q1023
                        NOSIG=
200904182350 METAR COR EGLL 182350Z 35004KT CAVOK 06/04 Q1023 NOSIG=
200904182320 METAR COR EGLL 182320Z 36004KT 330V040 CAVOK 07/04 Q1022
                        NOSIG=
200904182250 METAR COR EGLL 182250Z 02006KT 350V050 9999 FEW013 07/05
                        Q1022 NOSIG=
200904182220 METAR COR EGLL 182220Z 02006KT 340V050 9999 FEW012 07/05
                        Q1022 NOSIG=
200904182150 METAR COR EGLL 182150Z 02006KT 340V050 CAVOK 08/05 Q1022
                        NOSIG=
200904182120 METAR COR EGLL 182120Z 01006KT 340V050 CAVOK 09/06 Q1022
                        NOSIG=
200904182050 METAR COR EGLL 182050Z 36006KT 330V040 CAVOK 09/06 Q1021
                        NOSIG=
200904182020 METAR COR EGLL 182020Z 01008KT 350V050 CAVOK 11/05 Q1021
                        NOSIG=
200904181950 METAR COR EGLL 181950Z 05007KT CAVOK 12/03 Q1020 NOSIG=
200904181920 METAR COR EGLL 181920Z 05007KT CAVOK 13/03 Q1020 NOSIG=
200904181850 METAR COR EGLL 181850Z 06010KT CAVOK 14/02 Q1019 NOSIG=
200904181820 METAR COR EGLL 181820Z 05007KT 010V070 CAVOK 14/03 Q1019
                        NOSIG=
200904181750 METAR COR EGLL 181750Z 05010KT 020V080 CAVOK 15/03 Q1019
                        NOSIG=
200904181720 METAR COR EGLL 181720Z 05009KT 020V080 CAVOK 15/03 Q1019
                        NOSIG=
200904181650 METAR COR EGLL 181650Z 06011KT CAVOK 16/02 Q1018 NOSIG=
200904181620 METAR COR EGLL 181620Z 06009KT CAVOK 16/03 Q1018 NOSIG=
200904181550 METAR COR EGLL 181550Z 06009KT 030V090 9999 FEW049 16/03
                        Q1018 NOSIG=
200904181520 METAR COR EGLL 181520Z 05009KT 010V080 CAVOK 16/05 Q1018
                        NOSIG=
200904181450 METAR COR EGLL 181450Z 06011KT 9999 FEW049 16/05 Q1018 NOSIG=
200904181420 METAR COR EGLL 181420Z 06010KT 020V080 9999 FEW046 16/05
                        Q1018 NOSIG=
200904181350 METAR COR EGLL 181350Z 02008KT 330V060 9999 SCT043 15/05
                        Q1018 NOSIG=
200904181320 METAR COR EGLL 181320Z 05008KT 010V080 9999 SCT043 15/06
                        Q1017 NOSIG=
200904181250 METAR COR EGLL 181250Z 04009KT 360V090 9999 SCT037 15/06
                        Q1017 NOSIG=
200904181220 METAR COR EGLL 181220Z 04009KT 360V080 9999 SCT034 14/06
                        Q1017 NOSIG=
200904181150 METAR COR EGLL 181150Z 05010KT 010V090 9999 FEW033 14/07
                        Q1017 NOSIG=
200904181120 METAR COR EGLL 181120Z 06011KT 020V080 9999 FEW029 14/07
                        Q1017 NOSIG=
200904181050 METAR COR EGLL 181050Z 04009KT 350V070 9999 SCT027 13/07
                        Q1017 NOSIG=
200904181020 METAR COR EGLL 181020Z 04009KT 360V070 9999 SCT025 12/07
                        Q1017 NOSIG=
200904180950 METAR COR EGLL 180950Z 03008KT 340V070 9999 SCT019 12/07
                        Q1017 NOSIG=
200904180920 METAR EGLL 180920Z 03009KT 360V070 9999 SCT016 11/07 Q1017=
200904180850 METAR COR EGLL 180850Z 03007KT 340V070 9000 SCT014 10/06
                        Q1017 NOSIG=
200904180820 METAR COR EGLL 180820Z 02007KT 9000 BKN012 09/06 Q1016 BECMG
                        BKN015=
200904180750 METAR COR EGLL 180750Z 03007KT 360V060 9000 BKN011 08/06
                        Q1016 BECMG BKN015=
200904180720 METAR COR EGLL 180720Z 02006KT 340V060 9000 SCT010 07/05
                        Q1016 NOSIG=
200904180650 METAR COR EGLL 180650Z 02007KT 350V050 9000 FEW009 07/05
                        Q1016 NOSIG=
200904180620 METAR COR EGLL 180620Z 01006KT 340V040 8000 NSC 06/04 Q1015
                        NOSIG=
200904180550 METAR COR EGLL 180550Z 36006KT 340V040 8000 NSC 05/04 Q1015
                        NOSIG=
200904180520 METAR COR EGLL 180520Z 01005KT 320V050 9000 NSC 05/04 Q1015
                        NOSIG=
200904180450 METAR COR EGLL 180450Z 02005KT 340V060 9000 NSC 05/04 Q1014
                        NOSIG=
200904180420 METAR COR EGLL 180420Z 01004KT 310V040 9000 NSC 05/04 Q1014
                        NOSIG=
200904180350 METAR COR EGLL 180350Z 03005KT 340V060 9000 NSC 05/04 Q1014
                        NOSIG=
200904180320 METAR COR EGLL 180320Z 03005KT 340V060 9000 NSC 06/04 Q1014
                        NOSIG=
200904180250 METAR COR EGLL 180250Z 02006KT 330V060 CAVOK 06/04 Q1014
                        NOSIG=
200904180220 METAR COR EGLL 180220Z 02005KT 340V060 CAVOK 07/04 Q1014
                        NOSIG=
200904180150 METAR COR EGLL 180150Z 02006KT 9000 NSC 07/05 Q1014 NOSIG=
200904180120 METAR COR EGLL 180120Z 02007KT 340V050 9000 FEW012 07/05
                        Q1014 NOSIG=
200904180050 METAR COR EGLL 180050Z 01006KT 340V050 9000 FEW012 07/06
                        Q1014 NOSIG=
200904180020 METAR COR EGLL 180020Z 02006KT 340V060 7000 FEW014 SCT045
                        08/06 Q1014 NOSIG=
200904172350 METAR COR EGLL 172350Z 01005KT 340V040 8000 FEW015 08/06
                        Q1014 NOSIG=
200904172320 METAR COR EGLL 172320Z 36006KT 9000 FEW015 08/06 Q1014 NOSIG=
200904172250 METAR COR EGLL 172250Z 02005KT 330V050 7000 FEW018 09/07
                        Q1014 NOSIG=
200904172220 METAR COR EGLL 172220Z 02005KT 340V050 7000 FEW018 10/08
                        Q1013 NOSIG=
200904172150 METAR COR EGLL 172150Z 36006KT 330V050 7000 NSC 10/08 Q1013
                        NOSIG=
200904172120 METAR COR EGLL 172120Z 35004KT 6000 -RA NSC 10/08 Q1013 NOSIG=
200904172050 METAR COR EGLL 172050Z VRB03KT 8000 -RA NSC 10/08 Q1013 NOSIG=
200904172020 METAR COR EGLL 172020Z 06004KT 7000 -RA FEW010 10/08 Q1012
                        NOSIG=
200904171950 METAR COR EGLL 171950Z 05005KT 8000 -RA SCT047 11/08 Q1012
                        NOSIG=
200904171920 METAR COR EGLL 171920Z VRB02KT 2900 -RA FEW011 SCT021 11/10
                        Q1012 TEMPO BKN011=
200904171850 METAR COR EGLL 171850Z 32003KT 3100 -RA FEW010 11/10 Q1012
                        TEMPO BKN010=
200904171820 METAR COR EGLL 171820Z 31004KT 3000 -RA SCT007 SCT040 11/10
                        Q1011 TEMPO BKN010=
200904171750 METAR COR EGLL 171750Z 31004KT 280V360 2600 RA FEW013 BKN015
                        11/10 Q1011 TEMPO BKN010=
200904171720 METAR COR EGLL 171720Z 29005KT 2800 RA SCT008 SCT019 11/10
                        Q1011 TEMPO BKN010=
200904171650 METAR COR EGLL 171650Z 28005KT 3000 -RA FEW008 BKN012 11/10
                        Q1011 NOSIG=
200904171620 METAR COR EGLL 171620Z 29005KT 4000 -RA FEW010 BKN014 11/09
                        Q1011 TEMPO BKN012=
200904171550 METAR COR EGLL 171550Z 30005KT 4200 -RA SCT012 SCT021 11/09
                        Q1011 TEMPO 6000 BKN012=
200904171520 METAR COR EGLL 171520Z 29005KT 3800 HZ SCT008 SCT030 11/09
                        Q1011 BECMG 5000 BKN012=
200904171450 METAR COR EGLL 171450Z 33004KT 290V010 3700 HZ OVC008 11/09
                        Q1011 NOSIG=
200904171420 METAR COR EGLL 171420Z 34004KT 300V010 4000 HZ BKN008 10/09
                        Q1011 NOSIG=
200904171350 METAR COR EGLL 171350Z 31005KT 280V350 4300 HZ BKN011 11/08
                        Q1011 NOSIG=
200904171320 METAR COR EGLL 171320Z 33004KT 290V030 4000 HZ BKN008 11/08
                        Q1011 NOSIG=
200904171250 METAR COR EGLL 171250Z 36005KT 300V030 4400 HZ OVC008 11/09
                        Q1011 NOSIG=
200904171220 METAR COR EGLL 171220Z 33005KT 300V040 4500 HZ BKN008 11/08
                        Q1010 TEMPO 6000=
200904171150 METAR COR EGLL 171150Z 31006KT 4500 HZ BKN007 BKN010 11/08
                        Q1010 TEMPO 6000=
200904171120 METAR COR EGLL 171120Z 31004KT 290V350 4500 HZ BKN008 BKN012
                        10/08 Q1010 BECMG 6000=
200904171050 METAR COR EGLL 171050Z 34004KT 300V020 5000 HZ BKN008 10/08
                        Q1010 NOSIG=
200904171020 METAR COR EGLL 171020Z 31005KT 270V340 6000 BKN008 10/08
                        Q1010 NOSIG=
200904170950 METAR COR EGLL 170950Z 31007KT 270V340 6000 BKN006 10/08
                        Q1010 NOSIG=
200904170920 METAR COR EGLL 170920Z 28008KT 6000 -RA SCT005 BKN008 09/08
                        Q1010 TEMPO BKN010=
200904170850 METAR COR EGLL 170850Z 27005KT 6000 -RA BKN010 09/08 Q1010
                        TEMPO BKN008=
200904170820 METAR COR EGLL 170820Z 28005KT 6000 BKN008 BKN013 09/08 Q1010
                        TEMPO 4500 -RA=
200904170750 METAR COR EGLL 170750Z 27004KT 230V300 4900 -RA SCT006 BKN010
                        09/08 Q1010 TEMPO BKN006=
200904170720 METAR COR EGLL 170720Z 27005KT 4000 -RA SCT006 BKN012 09/08
                        Q1009 TEMPO RA BKN006=
200904170650 METAR COR EGLL 170650Z 29006KT 6000 -RA FEW007 SCT019 09/07
                        Q1009 RERA TEMPO BKN007=
200904170620 METAR COR EGLL 170620Z 29004KT 270V330 4700 RA SCT007 09/07
                        Q1008 TEMPO BKN007=
200904170550 METAR COR EGLL 170550Z 28005KT 4400 -RA FEW006 SCT017 BKN027
                        09/07 Q1008 BECMG BKN012=
200904170520 METAR COR EGLL 170520Z 32004KT 4900 -RA FEW005 BKN013 08/07
                        Q1008 NOSIG=
200904170450 METAR COR EGLL 170450Z 34004KT 300V010 3800 -RA FEW005 BKN011
                        08/07 Q1008 TEMPO BKN006=
200904170420 METAR COR EGLL 170420Z 31004KT 290V350 3500 -RA SCT005 BKN008
                        08/07 Q1008 NOSIG=
200904170350 METAR COR EGLL 170350Z 29004KT 4100 -DZ SCT006 SCT048 09/07
                        Q1008 BECMG BKN008=
200904170320 METAR COR EGLL 170320Z VRB03KT 4300 DZ FEW006 BKN010 09/07
                        Q1008 NOSIG=
200904170250 METAR COR EGLL 170250Z 35004KT 4700 DZ BKN010 BKN044 09/08
                        Q1008 TEMPO 6000=
200904170220 METAR COR EGLL 170220Z 35005KT 5000 DZ BKN012 09/08 Q1008
                        NOSIG=
200904170150 METAR COR EGLL 170150Z 36004KT 320V040 6000 DZ BKN009 09/08
                        Q1008 NOSIG=
200904170120 METAR EGLL 170120Z AUTO 03005KT 360V060 5000NDV OVC010///
                        09/08 Q1008=
200904170050 METAR EGLL 170050Z AUTO 01007KT 6000NDV -RA OVC007/// 10/08
                        Q1008=
200904170020 METAR EGLL 170020Z AUTO 36004KT 330V040 5000NDV SCT007///
                        SCT012/// 10/08 Q1008=
200904162350 METAR COR EGLL 162350Z VRB03KT 3800 HZ FEW009 SCT011 10/08
                        Q1008 BECMG BKN012=
200904162320 METAR COR EGLL 162320Z 36004KT 320V040 3500 HZ FEW010 SCT041
                        10/09 Q1008 BECMG BKN012=
200904162250 METAR COR EGLL 162250Z 36004KT 320V050 3000 -RA BKN031 10/09
                        Q1008 RERA BECMG BKN012=
200904162220 METAR COR EGLL 162220Z 35004KT 320V020 2400 -RA FEW005 BKN031
                        10/09 Q1008 BECMG BKN012=
200904162150 METAR COR EGLL 162150Z 01004KT 310V050 2400 RA SCT006 BKN012
                        11/10 Q1008 NOSIG=
200904162120 METAR COR EGLL 162120Z 35004KT 320V020 2800 -RA SCT008 BKN023
                        11/10 Q1008 RERA NOSIG=
200904162050 METAR COR EGLL 162050Z 35005KT 320V020 4000 -RADZ FEW010
                        BKN021 11/09 Q1008 NOSIG=
200904162020 METAR COR EGLL 162020Z 02005KT 340V050 4400 -RA BR FEW012
                        BKN022 11/09 Q1008 NOSIG=
200904161950 METAR COR EGLL 161950Z 02005KT 340V050 5000 HZ FEW012 BKN018
                        12/09 Q1008 NOSIG=
200904161920 METAR COR EGLL 161920Z 03006KT 360V060 5000 -RA FEW012 SCT031
                        12/10 Q1007 NOSIG=
200904161850 METAR COR EGLL 161850Z 01005KT 340V050 5000 HZ FEW009 SCT036
                        12/10 Q1007 NOSIG=
200904161820 METAR COR EGLL 161820Z 02004KT 330V050 6000 FEW012 12/10
                        Q1007 NOSIG=
200904161750 METAR COR EGLL 161750Z 02006KT 5000 HZ NSC 12/10 Q1007 NOSIG=
200904161720 METAR COR EGLL 161720Z 01004KT 330V080 5000 -RA FEW012 13/10
                        Q1007 TEMPO RA=
200904161650 METAR COR EGLL 161650Z 05005KT 020V080 9999 FEW012 13/09
                        Q1007 NOSIG=
200904161620 METAR EGLL 161620Z 05005KT 020V080 9999 FEW012 13/10 Q1007=
200904161550 METAR COR EGLL 161550Z 05004KT 010V080 9999 FEW030 13/10
                        Q1007 NOSIG=
200904161520 METAR COR EGLL 161520Z VRB03KT 9999 FEW030 13/10 Q1006 NOSIG=
200904161450 METAR COR EGLL 161450Z 07005KT 9999 FEW030 13/10 Q1006 TEMPO
                        RA=
200904161420 METAR COR EGLL 161420Z 05005KT 360V090 9999 -RA NSC 13/10
                        Q1006 TEMPO RA=
200904161350 METAR COR EGLL 161350Z 04006KT 360V070 9999 -RA FEW048 13/10
                        Q1006 TEMPO RA=
200904161320 METAR EGLL 161320Z 04007KT 360V080 9999 FEW018 14/10 Q1006=
200904161250 METAR COR EGLL 161250Z 03006KT 360V060 9999 FEW018 14/11
                        Q1006 NOSIG=
200904161220 METAR COR EGLL 161220Z 06006KT 020V090 9999 FEW018 14/10
                        Q1007 NOSIG=
200904161150 METAR COR EGLL 161150Z 07006KT 9999 VCSH FEW020CB 14/10 Q1007
                        TEMPO SHRA=
200904161120 METAR COR EGLL 161120Z 09006KT 9999 -RA FEW013CB 13/10 Q1007
                        TEMPO RA=
200904161050 METAR EGLL 161050Z 09007KT 9999 -RA FEW016 SCT048 13/10 Q1007=
200904161020 METAR COR EGLL 161020Z 11006KT 9999 -RA FEW013 SCT043 13/10
                        Q1007 TEMPO RA=
200904160950 METAR COR EGLL 160950Z 11005KT 9999 FEW028 13/11 Q1007 TEMPO
                        RA=
200904160920 METAR COR EGLL 160920Z VRB03KT 9999 VCSH FEW013 14/11 Q1007
                        TEMPO RA=
200904160850 METAR COR EGLL 160850Z VRB03KT 9999 FEW016 13/11 Q1007 TEMPO
                        RA=
200904160820 METAR COR EGLL 160820Z 09004KT 9999 FEW014 12/11 Q1007 NOSIG=
200904160750 METAR COR EGLL 160750Z 07004KT 9999 5000N -SHRA FEW013 12/10
                        Q1007 NOSIG=
200904160720 METAR COR EGLL 160720Z 07003KT 9000 -SHRA FEW031 SCT043 12/10
                        Q1006 NOSIG=
200904160650 METAR COR EGLL 160650Z 09004KT 9999 -RA FEW021 12/10 Q1006
                        NOSIG=
200904160620 METAR COR EGLL 160620Z 00000KT CAVOK 12/09 Q1006 NOSIG=
200904160550 METAR COR EGLL 160550Z 15002KT CAVOK 12/09 Q1005 NOSIG=
200904160520 METAR COR EGLL 160520Z 19003KT CAVOK 12/09 Q1005 NOSIG=
200904160450 METAR COR EGLL 160450Z 19005KT 9999 FEW028 12/09 Q1005 NOSIG=
200904160420 METAR COR EGLL 160420Z 18005KT 9999 FEW028 13/09 Q1006 NOSIG=
200904160350 METAR COR EGLL 160350Z 14006KT 9999 FEW027 13/09 Q1005 NOSIG=
200904160320 METAR COR EGLL 160320Z 11007KT CAVOK 14/09 Q1005 NOSIG=
200904160250 METAR COR EGLL 160250Z 11008KT 9999 SCT040 14/09 Q1005 NOSIG=
200904160220 METAR COR EGLL 160220Z 11008KT 9999 BKN049 14/09 Q1005 NOSIG=
200904160150 METAR COR EGLL 160150Z 10006KT CAVOK 14/09 Q1005 NOSIG=
200904160120 METAR EGLL 160120Z AUTO 09008KT 9999NDV NCD 14/09 Q1005=
200904160050 METAR EGLL 160050Z AUTO 10012KT 9999NDV NCD 15/09 Q1005=
200904160020 METAR EGLL 160020Z AUTO 09012KT 9999NDV NCD 15/09 Q1005=
200904152350 METAR COR EGLL 152350Z 09010KT 5000 HZ NSC 14/09 Q1005 NOSIG=
200904152320 METAR COR EGLL 152320Z 08009KT 5000 HZ NSC 14/09 Q1005 NOSIG=
200904152250 METAR COR EGLL 152250Z 10007KT 4600 HZ NSC 13/10 Q1005 BECMG
                        6000=
200904152220 METAR COR EGLL 152220Z 07008KT 040V110 6000 VCTS FEW037CB
                        14/10 Q1005 BECMG NSW=
200904152150 METAR COR EGLL 152150Z 09009KT 5000 SHRA FEW012 SCT035 15/09
                        Q1005 BECMG NSW=
200904152120 METAR COR EGLL 152120Z 06008KT 7000 NSC 15/09 Q1004 NOSIG=
200904152050 METAR COR EGLL 152050Z 06008KT 7000 NSC 16/09 Q1004 NOSIG=
200904152020 METAR COR EGLL 152020Z 07007KT 7000 NSC 15/09 Q1004 NOSIG=
200904151950 METAR COR EGLL 151950Z 07007KT 6000 NSC 15/09 Q1004 NOSIG=
200904151920 METAR COR EGLL 151920Z 08007KT 6000 FEW030 16/10 Q1004 NOSIG=
200904151850 METAR COR EGLL 151850Z 08008KT 6000 NSC 17/10 Q1004 NOSIG=
200904151820 METAR COR EGLL 151820Z 08010KT 6000 NSC 18/10 Q1004 NOSIG=
200904151750 METAR COR EGLL 151750Z 08009KT 6000 NSC 19/11 Q1004 NOSIG=
200904151720 METAR COR EGLL 151720Z 08010KT 6000 NSC 19/11 Q1004 NOSIG=
200904151650 METAR COR EGLL 151650Z 09009KT 6000 NSC 19/11 Q1004 NOSIG=
200904151620 METAR COR EGLL 151620Z 09011KT 6000 NSC 19/12 Q1004 NOSIG=
200904151550 METAR COR EGLL 151550Z 09013KT 6000 NSC 19/12 Q1004 NOSIG=
200904151520 METAR COR EGLL 151520Z 09013KT 6000 NSC 19/11 Q1003 NOSIG=
200904151450 METAR COR EGLL 151450Z 09015KT 5000 HZ NSC 20/12 Q1003 NOSIG=
200904151420 METAR EGLL 151420Z 09016KT 5000 HZ NSC 20/12 Q1003=
200904151350 METAR EGLL 151350Z 09014KT 6000 NSC 20/11 Q1004=
200904151320 METAR COR EGLL 151320Z 08016KT 5000 HZ NSC 19/11 Q1004 NOSIG=
200904151250 METAR COR EGLL 151250Z 09014KT 4900 HZ NSC 19/11 Q1004 BECMG
                        6000 NSW=
200904151220 METAR COR EGLL 151220Z 06012KT 4200 HZ FEW028 19/12 Q1004
                        BECMG 6000 NSW=
200904151150 METAR COR EGLL 151150Z 07011KT 4100 HZ FEW024 18/12 Q1004
                        BECMG 6000=
200904151120 METAR COR EGLL 151120Z 09013KT 4100 HZ FEW020 17/12 Q1005
                        BECMG 6000=
200904151050 METAR COR EGLL 151050Z 08011KT 3900 HZ SCT016 16/12 Q1005
                        BECMG 5000=
200904151020 METAR COR EGLL 151020Z 06008KT 010V090 2900 HZ BKN013 15/12
                        Q1005 BECMG 5000 SCT013=
200904150950 METAR COR EGLL 150950Z 07009KT 2900 HZ BKN012 14/11 Q1005
                        BECMG 5000=
200904150920 METAR COR EGLL 150920Z 07010KT 2900 HZ BKN011 13/10 Q1005
                        BECMG 5000=
200904150850 METAR COR EGLL 150850Z 06010KT 3800 HZ BKN009 12/10 Q1006
                        BECMG 6000 BKN012=
200904150820 METAR COR EGLL 150820Z 06008KT 3500 HZ BKN009 11/09 Q1006
                        BECMG 6000 BKN012=
200904150750 METAR COR EGLL 150750Z 06009KT 3700 BR BKN010 11/09 Q1006
                        BECMG 5000 HZ=
200904150720 METAR COR EGLL 150720Z 06007KT 4200 BR BKN010 11/09 Q1006
                        TEMPO BKN008=
200904150650 METAR COR EGLL 150650Z 06008KT 3900 -RA OVC010 10/08 Q1006
                        TEMPO BKN008=
200904150620 METAR COR EGLL 150620Z 05006KT 010V100 4200 HZ BKN010 10/08
                        Q1006 TEMPO BKN008=
200904150550 METAR COR EGLL 150550Z 06007KT 4400 BR SCT013 10/08 Q1006
                        TEMPO BKN012=
200904150520 METAR COR EGLL 150520Z 05006KT 4200 BR NSC 10/08 Q1006 NOSIG=
200904150450 METAR COR EGLL 150450Z 06006KT 5000 -SHRA FEW017 10/08 Q1007
                        TEMPO 4000 BR=
200904150420 METAR COR EGLL 150420Z 08006KT 5000 BR FEW017 10/08 Q1007
                        TEMPO 4000 +SHRA=
200904150350 METAR COR EGLL 150350Z 07005KT 6000 FEW016 10/07 Q1007 TEMPO
                        4000 +SHRA=
200904150320 METAR COR EGLL 150320Z 09008KT 050V130 6000 NSC 10/07 Q1007
                        TEMPO 4000 SHRA=
200904150250 METAR COR EGLL 150250Z 06010KT 8000 NSC 11/07 Q1007 NOSIG=
200904150220 METAR COR EGLL 150220Z 06009KT 020V080 7000 NSC 11/08 Q1007
                        NOSIG=
200904150150 METAR COR EGLL 150150Z 06006KT 6000 NSC 11/08 Q1007 NOSIG=
200904150120 METAR COR EGLL 150120Z 06007KT 6000 NSC 11/09 Q1007 TEMPO
                        SHRA=
200904150050 METAR COR EGLL 150050Z 05006KT 6000 NSC 11/09 Q1008 NOSIG=
200904150020 METAR COR EGLL 150020Z 07010KT 6000 NSC 11/09 Q1008 NOSIG=
200904142350 METAR COR EGLL 142350Z 07009KT 6000 NSC 11/09 Q1008 NOSIG=
200904142320 METAR COR EGLL 142320Z 06010KT 6000 NSC 11/09 Q1008 NOSIG=
200904142250 METAR COR EGLL 142250Z 08009KT 6000 NSC 11/09 Q1009 NOSIG=
200904142220 METAR COR EGLL 142220Z 07007KT 6000 -SHRA FEW024 12/09 Q1009
                        NOSIG=
200904142150 METAR COR EGLL 142150Z 06007KT 6000 -SHRA FEW023 12/10 Q1009
                        TEMPO 4000 +SHRA=
200904142120 METAR COR EGLL 142120Z 07008KT 7000 FEW044 12/09 Q1009 RERA
                        TEMPO 4000 +SHRA=
200904142050 METAR COR EGLL 142050Z 09007KT 8000 NSC 13/08 Q1009 TEMPO
                        SHRA=
200904142020 METAR COR EGLL 142020Z 08008KT 9000 NSC 13/08 Q1009 TEMPO
                        SHRA=
200904141950 METAR COR EGLL 141950Z 09009KT CAVOK 13/08 Q1009 TEMPO SHRA=
200904141920 METAR COR EGLL 141920Z 09008KT CAVOK 13/08 Q1009 NOSIG=
200904141850 METAR COR EGLL 141850Z 09010KT 9999 FEW033 14/08 Q1009 NOSIG=
200904141820 METAR COR EGLL 141820Z 09010KT 9999 FEW032 14/08 Q1008 NOSIG=
200904141750 METAR COR EGLL 141750Z 09010KT CAVOK 15/08 Q1008 NOSIG=
200904141720 METAR COR EGLL 141720Z 08011KT CAVOK 15/08 Q1008 NOSIG=
200904141650 METAR EGLL 141650Z 09011KT 9000 FEW030 16/10 Q1008=
200904141620 METAR COR EGLL 141620Z 09011KT 9000 FEW029 16/11 Q1008 NOSIG=
200904141550 METAR COR EGLL 141550Z 12007KT 080V170 9999 FEW038 17/09
                        Q1008 NOSIG=
200904141520 METAR COR EGLL 141520Z 13006KT 100V180 9999 FEW040 17/09
                        Q1008 NOSIG=
200904141450 METAR COR EGLL 141450Z 11007KT 9999 FEW038 17/09 Q1009 NOSIG=
200904141420 METAR COR EGLL 141420Z 13006KT 090V170 9999 FEW039 17/08
                        Q1009 NOSIG=
200904141350 METAR COR EGLL 141350Z 13008KT 9999 FEW043 17/08 Q1009 NOSIG=
200904141320 METAR COR EGLL 141320Z 14006KT 090V180 CAVOK 17/08 Q1009
                        NOSIG=
200904141250 METAR COR EGLL 141250Z 16008KT 9999 FEW037 17/08 Q1009 NOSIG=
200904141220 METAR COR EGLL 141220Z 16008KT 9999 FEW037 16/07 Q1009 NOSIG=
200904141150 METAR COR EGLL 141150Z 17007KT 9999 FEW037 17/07 Q1009 NOSIG=
200904141120 METAR COR EGLL 141120Z 16007KT 130V200 9999 FEW038 16/07
                        Q1009 NOSIG=
200904141050 METAR COR EGLL 141050Z 17007KT 130V200 9999 FEW037 16/07
                        Q1009 NOSIG=
200904141020 METAR COR EGLL 141020Z 14007KT 110V170 9999 FEW030 16/07
                        Q1009 NOSIG=
200904140950 METAR COR EGLL 140950Z 15006KT CAVOK 16/07 Q1009 NOSIG=
200904140920 METAR COR EGLL 140920Z 15004KT 120V180 CAVOK 15/07 Q1009
                        NOSIG=
200904140850 METAR COR EGLL 140850Z 15004KT 060V200 CAVOK 14/08 Q1009
                        NOSIG=
200904140820 METAR COR EGLL 140820Z VRB03KT CAVOK 13/08 Q1009 NOSIG=
200904140750 METAR COR EGLL 140750Z 16004KT 8000 NSC 12/08 Q1009 NOSIG=
200904140720 METAR COR EGLL 140720Z VRB03KT 9000 NSC 11/08 Q1009 NOSIG=
200904140650 METAR COR EGLL 140650Z 09005KT 8000 NSC 10/08 Q1009 NOSIG=
200904140620 METAR COR EGLL 140620Z 08003KT 8000 NSC 09/07 Q1009 NOSIG=
200904140550 METAR COR EGLL 140550Z 09005KT CAVOK 08/06 Q1009 NOSIG=
200904140520 METAR COR EGLL 140520Z 09004KT CAVOK 08/06 Q1009 NOSIG=
200904140450 METAR COR EGLL 140450Z 09006KT 9000 NSC 08/06 Q1009 NOSIG=
200904140420 METAR COR EGLL 140420Z 08003KT 9999 FEW048 08/06 Q1009 NOSIG=
200904140350 METAR COR EGLL 140350Z 08003KT 9999 FEW048 09/06 Q1009 NOSIG=
200904140320 METAR EGLL 140320Z 07004KT 9999 FEW026 BKN049 09/06 Q1009=
200904140250 METAR COR EGLL 140250Z 06004KT 9999 SCT025 BKN032 10/06 Q1009
                        NOSIG=
200904140220 METAR COR EGLL 140220Z 08004KT 9999 BKN033 09/06 Q1009 NOSIG=
200904140150 METAR COR EGLL 140150Z 10003KT 9999 BKN034 09/06 Q1009 NOSIG=
200904140120 METAR COR EGLL 140120Z 09004KT 9999 BKN036 09/06 Q1009 NOSIG=
200904140050 METAR COR EGLL 140050Z 06003KT 9999 SCT036 BKN046 08/05 Q1009
                        NOSIG=
200904140020 METAR COR EGLL 140020Z 08003KT 9999 FEW039 BKN045 08/04 Q1009
                        NOSIG=
200904132350 METAR COR EGLL 132350Z 08003KT 9999 FEW042 07/04 Q1010 NOSIG=
200904132320 METAR COR EGLL 132320Z 15003KT 9999 FEW049 08/04 Q1010 NOSIG=
200904132250 METAR COR EGLL 132250Z 00000KT CAVOK 08/04 Q1009 NOSIG=
200904132220 METAR COR EGLL 132220Z 16002KT CAVOK 09/04 Q1010 NOSIG=
200904132150 METAR COR EGLL 132150Z 21005KT 170V260 CAVOK 09/04 Q1010
                        NOSIG=
200904132120 METAR COR EGLL 132120Z 20007KT 180V240 CAVOK 10/04 Q1009
                        NOSIG=
200904132050 METAR COR EGLL 132050Z 19005KT 160V250 CAVOK 10/04 Q1009
                        NOSIG=
200904132020 METAR COR EGLL 132020Z 19006KT 130V250 CAVOK 11/04 Q1009
                        NOSIG=
200904131950 METAR COR EGLL 131950Z 20007KT 150V240 CAVOK 12/04 Q1009
                        NOSIG=
200904131920 METAR EGLL 131920Z 19007KT 170V230 CAVOK 12/04 Q1009=
200904131850 METAR COR EGLL 131850Z 20009KT 170V240 CAVOK 14/04 Q1009
                        NOSIG=
200904131820 METAR EGLL 131820Z 19009KT 160V240 CAVOK 14/04 Q1009=
200904131750 METAR COR EGLL 131750Z 21010KT CAVOK 15/04 Q1008 NOSIG=
200904131720 METAR COR EGLL 131720Z 19009KT 160V230 CAVOK 16/04 Q1008
                        NOSIG=
200904131650 METAR COR EGLL 131650Z 19007KT 140V230 CAVOK 16/03 Q1009
                        NOSIG=
200904131620 METAR COR EGLL 131620Z 19008KT 160V230 9999 FEW049 16/04
                        Q1009 NOSIG=
200904131550 METAR COR EGLL 131550Z 21007KT 150V250 9999 SCT049 17/05
                        Q1009 NOSIG=
200904131520 METAR COR EGLL 131520Z 23006KT 180V290 9999 SCT049 17/05
                        Q1009 NOSIG=
200904131450 METAR COR EGLL 131450Z 21008KT 120V240 9999 BKN048 17/05
                        Q1009 NOSIG=
200904131420 METAR COR EGLL 131420Z 19006G20KT 110V270 9999 SCT039 BKN047
                        16/06 Q1010 NOSIG=
200904131350 METAR COR EGLL 131350Z 16004KT 090V230 9999 FEW039 17/07
                        Q1010 NOSIG=
200904131320 METAR COR EGLL 131320Z VRB04KT 9999 SCT045 16/07 Q1010 NOSIG=
200904131250 METAR COR EGLL 131250Z 16004KT 090V230 9999 FEW032 BKN046
                        15/07 Q1011 NOSIG=
200904131220 METAR COR EGLL 131220Z 23006KT 190V260 9999 SCT032 BKN048
                        15/07 Q1011 NOSIG=
200904131150 METAR COR EGLL 131150Z VRB03KT 9999 SCT030 SCT045 15/07 Q1011
                        NOSIG=
200904131120 METAR COR EGLL 131120Z 27005KT 210V330 9999 SCT036 14/08
                        Q1011 NOSIG=
200904131050 METAR COR EGLL 131050Z 25004KT 180V320 9999 FEW022 14/08
                        Q1011 NOSIG=
200904131020 METAR COR EGLL 131020Z VRB03KT 8000 FEW022 14/08 Q1012 NOSIG=
200904130950 METAR COR EGLL 130950Z VRB03KT 7000 FEW015 13/09 Q1012 NOSIG=
200904130920 METAR COR EGLL 130920Z VRB03KT 7000 FEW012 SCT020 13/08 Q1012
                        NOSIG=
200904130850 METAR COR EGLL 130850Z VRB03KT 5000 BR FEW009 SCT018 12/09
                        Q1012 NOSIG=
200904130820 METAR COR EGLL 130820Z 27004KT 240V310 5000 BR FEW006 SCT008
                        BKN018 11/09 Q1012 NOSIG=
200904130750 METAR COR EGLL 130750Z VRB03KT 3500 BR SCT008 SCT012 BKN018
                        11/09 Q1012 BECMG 6000=
200904130720 METAR COR EGLL 130720Z VRB02KT 3300 BR SCT008 SCT013 BKN017
                        11/09 Q1012 NOSIG=
200904130650 METAR COR EGLL 130650Z VRB02KT 3200 BR FEW008 SCT010 BKN019
                        10/09 Q1012 NOSIG=
200904130620 METAR COR EGLL 130620Z 28003KT 3000 BR FEW008 SCT012 BKN020
                        10/09 Q1012 TEMPO BKN007=
200904130550 METAR COR EGLL 130550Z VRB02KT 3000 BR SCT013 BKN019 10/09
                        Q1012 TEMPO BKN007=
200904130520 METAR COR EGLL 130520Z 29002KT 3200 BR FEW007 SCT012 BKN017
                        10/09 Q1012 TEMPO BKN007=
200904130450 METAR EGLL 130450Z 29002KT 2600 BR BKN010 BKN017 10/09 Q1012=
200904130420 METAR COR EGLL 130420Z 32002KT 2700 BR SCT008 SCT012 BKN020
                        10/09 Q1012 TEMPO BKN007=
200904130350 METAR COR EGLL 130350Z 30003KT 2300 BR SCT004 BKN007 BKN021
                        10/09 Q1012 NOSIG=
200904130320 METAR COR EGLL 130320Z 31004KT 1800 BR SCT003 BKN007 10/09
                        Q1012 NOSIG=
200904130250 METAR COR EGLL 130250Z VRB03KT 2000 BR BKN007 10/09 Q1012
                        NOSIG=
200904130220 METAR COR EGLL 130220Z 30004KT 2100 BR FEW006 BKN009 10/09
                        Q1013 NOSIG=
200904130150 METAR COR EGLL 130150Z 29005KT 2300 BR SCT009 BKN012 10/09
                        Q1013 TEMPO BKN009=
200904130120 METAR COR EGLL 130120Z 29004KT 2000 BR SCT008 BKN012 10/09
                        Q1013 TEMPO BKN008=
200904130050 METAR COR EGLL 130050Z 32004KT 2500 BR BKN008 10/09 Q1013
                        TEMPO SCT008=
200904130020 METAR COR EGLL 130020Z 31002KT 2600 BR FEW008 10/09 Q1013
                        NOSIG=
200904122350 METAR COR EGLL 122350Z 00000KT 3200 BR FEW048 10/09 Q1013
                        NOSIG=
200904122320 METAR COR EGLL 122320Z 00000KT 3200 BR FEW046 10/09 Q1013
                        NOSIG=
200904122250 METAR COR EGLL 122250Z VRB02KT 3500 BR FEW008 10/09 Q1014
                        NOSIG=
200904122220 METAR COR EGLL 122220Z 32003KT 3700 HZ FEW008 SCT012 10/09
                        Q1014 NOSIG=
200904122150 METAR COR EGLL 122150Z 03003KT 4200 HZ FEW018 11/09 Q1014
                        NOSIG=
200904122120 METAR COR EGLL 122120Z 35003KT 4300 HZ SCT012 11/09 Q1014
                        NOSIG=
200904122050 METAR COR EGLL 122050Z 32003KT 5000 HZ SCT015 BKN036 12/09
                        Q1014 NOSIG=
200904122020 METAR COR EGLL 122020Z VRB03KT 6000 BKN011 BKN026 12/09 Q1014
                        TEMPO SCT012=
200904121950 METAR COR EGLL 121950Z 33003KT 6000 BKN011 12/10 Q1014 NOSIG=
200904121920 METAR COR EGLL 121920Z 35003KT 6000 OVC011 12/10 Q1014 NOSIG=
200904121850 METAR COR EGLL 121850Z 35004KT 6000 OVC011 12/10 Q1014 NOSIG=
200904121820 METAR COR EGLL 121820Z 35003KT 6000 OVC011 12/10 Q1014 NOSIG=
200904121750 METAR COR EGLL 121750Z 36004KT 6000 OVC012 12/10 Q1014 NOSIG=
200904121720 METAR COR EGLL 121720Z VRB03KT 6000 BKN012 12/10 Q1014 NOSIG=
200904121650 METAR COR EGLL 121650Z 36003KT 6000 OVC012 12/10 Q1014 NOSIG=
200904121620 METAR COR EGLL 121620Z VRB03KT 7000 OVC012 12/10 Q1014 NOSIG=
200904121550 METAR COR EGLL 121550Z 31003KT 7000 OVC012 12/09 Q1014 NOSIG=
200904121520 METAR COR EGLL 121520Z VRB02KT 7000 OVC012 12/10 Q1014 NOSIG=
200904121450 METAR COR EGLL 121450Z VRB02KT 7000 OVC011 12/10 Q1014 NOSIG=
200904121420 METAR COR EGLL 121420Z VRB02KT 7000 OVC011 12/10 Q1014 TEMPO
                        SCT012=
200904121350 METAR COR EGLL 121350Z VRB03KT 6000 BKN010 12/10 Q1014 TEMPO
                        SCT012 BKN020=
200904121320 METAR COR EGLL 121320Z VRB03KT 5000 HZ BKN009 12/10 Q1015
                        BECMG BKN012=
200904121250 METAR COR EGLL 121250Z 03004KT 360V070 4300 BR BKN008 12/09
                        Q1015 BECMG 5000=
200904121220 METAR COR EGLL 121220Z 03004KT 350V080 4100 HZ BKN007 11/09
                        Q1015 BECMG 5000=
200904121150 METAR COR EGLL 121150Z 36004KT 290V050 3500 HZ SCT006 BKN009
                        11/09 Q1015 BECMG 5000 BKN010=
200904121120 METAR COR EGLL 121120Z 01004KT 330V050 3000 BR BKN006 11/09
                        Q1014 BECMG 5000 HZ=
200904121050 METAR COR EGLL 121050Z 02004KT 350V060 3300 BR BKN006 10/09
                        Q1014 BECMG 5000 HZ=
200904121020 METAR COR EGLL 121020Z 01004KT 340V060 4200 BR SCT005 BKN006
                        10/09 Q1014 BECMG 5000=
200904120950 METAR COR EGLL 120950Z 36005KT 330V040 4200 BR BKN005 10/09
                        Q1014 BECMG 5000 HZ=
200904120920 METAR COR EGLL 120920Z 35005KT 320V020 3200 BR BKN005 10/09
                        Q1014 NOSIG=
200904120850 METAR COR EGLL 120850Z 01004KT 310V060 3000 BR SCT003 BKN005
                        10/09 Q1014 NOSIG=
200904120820 METAR COR EGLL 120820Z 01005KT 330V040 3000 BR SCT003 BKN005
                        10/09 Q1014 NOSIG=
200904120750 METAR COR EGLL 120750Z 36005KT 300V020 2000 BR SCT003 BKN004
                        09/09 Q1014 BECMG 3000 BKN005=
200904120720 METAR COR EGLL 120720Z 02004KT 320V050 1200 R27L/P1500 R27R/P1500
                        BR BKN002 09/09 Q1014 BECMG 2000
                        BKN003=
200904120650 METAR COR EGLL 120650Z 02005KT 340V060 1200 BR BKN003 09/09
                        Q1013 TEMPO 2000=
200904120620 METAR COR EGLL 120620Z 02005KT 340V050 2800 BR BKN004 09/08
                        Q1013 BECMG BKN005=
200904120550 METAR COR EGLL 120550Z 02004KT 350V060 2800 BR BKN004 09/08
                        Q1013 NOSIG=
200904120520 METAR COR EGLL 120520Z 02004KT 350V050 3200 BR BKN004 09/08
                        Q1013 TEMPO SCT005=
200904120450 METAR COR EGLL 120450Z VRB03KT 3400 BR BKN004 09/08 Q1013
                        TEMPO SCT005=
200904120420 METAR EGLL 120420Z VRB03KT 4200 BR BKN004 09/08 Q1013=
200904120350 METAR COR EGLL 120350Z VRB03KT 4700 BR BKN005 09/08 Q1012
                        TEMPO BKN004=
200904120320 METAR COR EGLL 120320Z 35003KT 4600 BR BKN005 BKN011 09/09
                        Q1012 TEMPO BKN004=
200904120250 METAR COR EGLL 120250Z VRB03KT 4500 BR BKN004 BKN014 09/09
                        Q1012 TEMPO SCT004=
200904120220 METAR COR EGLL 120220Z 03004KT 340V080 3600 BR SCT005 BKN015
                        09/09 Q1012 TEMPO BKN005=
200904120150 METAR COR EGLL 120150Z 05004KT 010V080 3800 BR SCT004 BKN021
                        09/09 Q1012 TEMPO BKN004=
200904120120 METAR COR EGLL 120120Z 04005KT 3300 BR FEW004 BKN026 09/09
                        Q1012 TEMPO BKN004=
200904120050 METAR COR EGLL 120050Z 35004KT 2500 -DZRA BKN004 BKN014 OVC030
                        10/09 Q1012 TEMPO SCT004=
200904120020 METAR COR EGLL 120020Z 35004KT 2000 -DZRA SCT004 BKN007 BKN014
                        10/09 Q1012 NOSIG=
200904112350 METAR COR EGLL 112350Z 35003KT 2200 -DZRA BKN004 BKN012 10/09
                        Q1012 TEMPO BKN007=
200904112320 METAR COR EGLL 112320Z 35003KT 2000 -DZRA SCT005 BKN010 10/09
                        Q1012 TEMPO BKN005=
200904112250 METAR COR EGLL 112250Z VRB03KT 2400 -RADZ FEW004 BKN009 BKN030
                        10/09 Q1012 RERA NOSIG=
200904112220 METAR COR EGLL 112220Z 34004KT 300V360 2000 RADZ BKN006 10/09
                        Q1012 NOSIG=
200904112150 METAR COR EGLL 112150Z VRB03KT 2900 -RADZ BKN007 BKN030 11/09
                        Q1012 NOSIG=
200904112120 METAR COR EGLL 112120Z VRB03KT 4000 -RA FEW009 OVC030 11/09
                        Q1012 TEMPO 6000 BKN012=
200904112050 METAR COR EGLL 112050Z VRB03KT 7000 -RA OVC029 11/09 Q1012
                        TEMPO 4500 RA BKN012=
200904112020 METAR COR EGLL 112020Z 36004KT 9999 BKN031 11/09 Q1012 BECMG
                        BKN014=
200904111950 METAR COR EGLL 111950Z 35004KT 310V020 9999 SCT027 11/09
                        Q1011 NOSIG=
200904111920 METAR COR EGLL 111920Z 36004KT 330V040 9999 SCT028 11/09
                        Q1011 NOSIG=
200904111850 METAR COR EGLL 111850Z 36004KT 9999 FEW015 BKN028 11/09 Q1011
                        TEMPO BKN014=
200904111820 METAR COR EGLL 111820Z 36004KT 330V050 9999 FEW015 SCT017
                        BKN028 11/09 Q1011 TEMPO -RADZ BKN014=
200904111750 METAR COR EGLL 111750Z VRB03KT 9999 FEW015 BKN028 11/09 Q1010
                        NOSIG=
200904111720 METAR COR EGLL 111720Z 01004KT 330V050 9999 FEW012 BKN022
                        11/09 Q1010 TEMPO -RADZ BKN012=
200904111650 METAR COR EGLL 111650Z 36004KT 310V040 9999 FEW012 BKN022
                        11/09 Q1010 TEMPO -RADZ BKN012=
200904111620 METAR COR EGLL 111620Z 35004KT 320V020 9999 -RA SCT011 BKN013
                        11/09 Q1010 NOSIG=
200904111550 METAR COR EGLL 111550Z 35004KT 9000 -RA SCT012 OVC016 12/09
                        Q1010 TEMPO BKN012=
200904111520 METAR COR EGLL 111520Z 36004KT 310V030 9999 SCT012 BKN016
                        11/09 Q1010 TEMPO BKN012=
200904111450 METAR EGLL 111450Z 36004KT 320V040 9999 SCT011 BKN016 11/09
                        Q1010=
200904111420 METAR COR EGLL 111420Z 36005KT 330V040 9999 SCT012 BKN016
                        11/09 Q1009 TEMPO BKN012=
200904111350 METAR COR EGLL 111350Z 36005KT 310V030 9999 SCT010 BKN015
                        11/09 Q1009 TEMPO -RADZ BKN010=
200904111320 METAR COR EGLL 111320Z 35005KT 310V030 9999 FEW010 SCT015
                        BKN020 11/09 Q1009 TEMPO BKN010=
200904111250 METAR COR EGLL 111250Z 35005KT 310V020 8000 -RA SCT009 BKN017
                        11/09 Q1009 TEMPO BKN012=
200904111220 METAR COR EGLL 111220Z 34004KT 310V040 7000 -RA FEW008 BKN013
                        10/09 Q1009 TEMPO BKN009=
200904111150 METAR COR EGLL 111150Z 32006KT 280V350 9999 BKN009 BKN020
                        11/09 Q1008 TEMPO SCT009=
200904111120 METAR COR EGLL 111120Z 35005KT 310V040 9000 SCT009 BKN013
                        11/09 Q1008 TEMPO BKN009=
200904111050 METAR COR EGLL 111050Z VRB03KT 9000 SCT007 BKN019 10/09 Q1008
                        TEMPO BKN007=
200904111020 METAR COR EGLL 111020Z 35004KT 300V010 6000 SCT005 BKN012
                        10/09 Q1008 TEMPO BKN008=
200904110950 METAR COR EGLL 110950Z 34005KT 310V020 6000 SCT005 BKN018
                        10/09 Q1008 TEMPO BKN008=
200904110920 METAR COR EGLL 110920Z 36005KT 320V030 4000 -DZ SCT004 BKN016
                        10/09 Q1008 TEMPO BKN007=
200904110850 METAR COR EGLL 110850Z 34004KT 300V020 3000 DZ SCT004 BKN018
                        10/09 Q1007 TEMPO BKN007=
200904110820 METAR COR EGLL 110820Z 32004KT 280V350 2600 DZ SCT003 BKN006
                        BKN024 09/09 Q1007 BECMG 5000 -DZ=
200904110750 METAR COR EGLL 110750Z 34004KT 300V010 3000 -RA BKN004 BKN015
                        09/09 Q1007 BECMG 5000 BKN008=
200904110720 METAR COR EGLL 110720Z VRB03KT 3000 DZ BKN004 BKN008 09/09
                        Q1006 BECMG 5000 -DZ SCT005 BKN008=
200904110650 METAR COR EGLL 110650Z VRB03KT 3900 -RA BKN003 BKN018 09/08
                        Q1006 BECMG 5000 BKN005=
200904110620 METAR COR EGLL 110620Z VRB03KT 3000 -RA BKN004 BKN024 09/08
                        Q1006 BECMG 5000 SCT005=
200904110550 METAR COR EGLL 110550Z VRB03KT 3200 -RA BKN004 BKN023 09/08
                        Q1006 BECMG 5000 BKN008=
200904110520 METAR COR EGLL 110520Z VRB03KT 3200 -RA FEW003 BKN024 09/08
                        Q1006 REDZ RERA BECMG 5000=
200904110450 METAR COR EGLL 110450Z 31004KT 3200 DZRA SCT004 BKN014 09/08
                        Q1006 RERA BECMG 5000 -RA=
200904110420 METAR COR EGLL 110420Z 32003KT 3200 DZ SCT004 BKN013 09/08
                        Q1006 BECMG 5000=
200904110350 METAR COR EGLL 110350Z VRB03KT 4500 DZ SCT004 BKN014 09/08
                        Q1005 BECMG 6000=
200904110320 METAR COR EGLL 110320Z VRB03KT 8000 -DZ FEW008 OVC014 09/08
                        Q1005 TEMPO BKN016=
200904110250 METAR COR EGLL 110250Z 35003KT 8000 -RA BKN012 BKN017 09/08
                        Q1005 TEMPO BKN015=
200904110220 METAR COR EGLL 110220Z VRB03KT 7000 BKN015 09/08 Q1005 NOSIG=
200904110150 METAR COR EGLL 110150Z 35004KT 310V030 6000 BKN012 09/08
                        Q1005 TEMPO BKN009=
200904110120 METAR COR EGLL 110120Z 33005KT 290V360 4000 -RA FEW005 BKN015
                        BKN027 10/09 Q1005 BECMG 6000=
200904110050 METAR COR EGLL 110050Z 26003KT 3500 BR SCT005 BKN027 10/09
                        Q1005 TEMPO BKN005=
200904110020 METAR COR EGLL 110020Z 27006KT 2800 -RA SCT004 SCT013 10/09
                        Q1005 TEMPO BKN004=
200904102350 METAR COR EGLL 102350Z 21004KT 3000 -DZ FEW002 SCT008 BKN014
                        10/10 Q1005 TEMPO BKN004=
200904102320 METAR COR EGLL 102320Z 19005KT 3000 -DZ SCT002 BKN009 10/10
                        Q1005 TEMPO BKN004=
200904102250 METAR EGLL 102250Z 17004KT 2500 DZ FEW003 SCT007 10/10 Q1005=
200904102220 METAR COR EGLL 102220Z 15004KT 4100 DZ SCT007 BKN019 11/10
                        Q1005 TEMPO 6000 BKN007=
200904102150 METAR COR EGLL 102150Z 14006KT 9000 -DZ BKN007 OVC038 11/10
                        Q1004 TEMPO SCT008=
200904102120 METAR COR EGLL 102120Z 16004KT 100V200 9999 FEW007 11/10
                        Q1004 NOSIG=
200904102050 METAR COR EGLL 102050Z 16004KT 120V200 9000 SCT007 11/10
                        Q1004 TEMPO BKN007=
200904102020 METAR COR EGLL 102020Z 17005KT 120V260 9000 -RA FEW009 SCT040
                        11/10 Q1004 TEMPO BKN008=
200904101950 METAR COR EGLL 101950Z 18004KT 130V220 9999 FEW008 11/10
                        Q1004 TEMPO BKN008=
200904101920 METAR COR EGLL 101920Z 16005KT 110V190 9999 FEW032 11/10
                        Q1003 NOSIG=
200904101850 METAR COR EGLL 101850Z 17005KT 120V250 9999 FEW032 11/10
                        Q1003 NOSIG=
200904101820 METAR COR EGLL 101820Z 18008KT 150V210 9999 FEW012 11/10
                        Q1003 NOSIG=
200904101750 METAR COR EGLL 101750Z 18007KT 150V220 9999 SCT010 SCT022
                        12/10 Q1003 NOSIG=
200904101720 METAR COR EGLL 101720Z 20008KT 9999 -RA FEW008 SCT010 BKN024
                        12/10 Q1003 TEMPO BKN010=
200904101650 METAR EGLL 101650Z 18008KT 150V220 9999 VCSH SCT007 BKN010
                        BKN027 12/10 Q1002=
200904101620 METAR COR EGLL 101620Z 15007KT 120V190 9999 -RA FEW008 BKN010
                        BKN022 12/10 Q1002 NOSIG=
200904101550 METAR COR EGLL 101550Z 17006KT 110V280 8000 -RA SCT009 SCT015
                        12/11 Q1002 TEMPO BKN010=
200904101520 METAR COR EGLL 101520Z 15006KT 8000 -RA FEW007 SCT010 BKN013
                        12/10 Q1002 TEMPO 4500 RA=
200904101450 METAR COR EGLL 101450Z 17006KT 140V210 7000 -RA FEW007 BKN010
                        12/11 Q1002 RERA TEMPO 4500 RA=
200904101420 METAR COR EGLL 101420Z 18006KT 9000 -RA SCT007 BKN010 12/11
                        Q1002 TEMPO 4500 RA=
200904101350 METAR COR EGLL 101350Z 22006KT 180V260 8000 -RA FEW008 BKN012
                        12/10 Q1002 TEMPO 4500 RA=
200904101320 METAR COR EGLL 101320Z 19006KT 150V260 9999 -RA BKN010 12/10
                        Q1002 TEMPO RA=
200904101250 METAR COR EGLL 101250Z 18005KT 110V250 9999 -RA BKN010 BKN024
                        12/10 Q1002 TEMPO RA=
200904101220 METAR COR EGLL 101220Z 18007KT 140V240 9999 -RA SCT011 12/10
                        Q1002 TEMPO BKN010=
200904101150 METAR COR EGLL 101150Z 18009KT 130V230 9999 -RA FEW013 SCT019
                        BKN025 12/10 Q1003 TEMPO BKN012=
200904101120 METAR COR EGLL 101120Z 20009KT 150V240 9999 -RA FEW009 BKN020
                        12/10 Q1003 TEMPO BKN012=
200904101050 METAR EGLL 101050Z 17008KT 140V230 9999 -RA SCT009 BKN013
                        12/10 Q1003=
200904101020 METAR COR EGLL 101020Z 18009KT 160V230 9999 -RA FEW010 BKN015
                        12/10 Q1002 TEMPO BKN012=
200904100950 METAR COR EGLL 100950Z 17008KT 130V230 9999 -RA FEW025 12/09
                        Q1002 NOSIG=
200904100920 METAR COR EGLL 100920Z 17008KT 130V230 CAVOK 13/09 Q1002
                        NOSIG=
200904100850 METAR COR EGLL 100850Z 16006KT 100V220 9999 FEW027 12/09
                        Q1002 NOSIG=
200904100820 METAR COR EGLL 100820Z 15006KT 120V260 9999 -RA SCT047 12/09
                        Q1002 NOSIG=
200904100750 METAR COR EGLL 100750Z 19006KT 160V240 9999 FEW035 12/08
                        Q1002 NOSIG=
200904100720 METAR COR EGLL 100720Z 14004KT 090V210 CAVOK 12/09 Q1002
                        NOSIG=
200904100650 METAR COR EGLL 100650Z 16005KT 120V220 9999 -RA NSC 11/09
                        Q1003 NOSIG=
200904100620 METAR COR EGLL 100620Z 17004KT 140V220 CAVOK 11/08 Q1002
                        NOSIG=
200904100550 METAR COR EGLL 100550Z 21006KT CAVOK 11/08 Q1002 NOSIG=
200904100520 METAR COR EGLL 100520Z VRB06KT CAVOK 11/08 Q1002 NOSIG=
200904100450 METAR EGLL 100450Z 19006KT CAVOK 11/08 Q1002=
200904100420 METAR COR EGLL 100420Z 18006KT CAVOK 12/08 Q1002 NOSIG=
200904100350 METAR COR EGLL 100350Z 15005KT CAVOK 12/08 Q1002 NOSIG=
200904100320 METAR COR EGLL 100320Z 14007KT CAVOK 12/08 Q1002 NOSIG=
200904100250 METAR COR EGLL 100250Z 15005KT CAVOK 12/08 Q1002 NOSIG=
200904100220 METAR COR EGLL 100220Z 14004KT CAVOK 13/09 Q1002 NOSIG=
200904100150 METAR COR EGLL 100150Z 17004KT CAVOK 13/09 Q1002 NOSIG=
200904100120 METAR COR EGLL 100120Z 14006KT CAVOK 13/09 Q1002 NOSIG=
200904100050 METAR COR EGLL 100050Z 14007KT CAVOK 13/09 Q1003 NOSIG=
200904100020 METAR COR EGLL 100020Z 13010KT CAVOK 14/09 Q1003 NOSIG=
200904092350 METAR COR EGLL 092350Z 13010KT CAVOK 14/09 Q1003 NOSIG=
200904092320 METAR COR EGLL 092320Z 12008KT CAVOK 14/09 Q1003 NOSIG=
200904092250 METAR COR EGLL 092250Z 11007KT CAVOK 13/09 Q1004 NOSIG=
200904092220 METAR COR EGLL 092220Z 11008KT CAVOK 13/09 Q1004 NOSIG=
200904092150 METAR COR EGLL 092150Z 11009KT CAVOK 13/09 Q1005 NOSIG=
200904092120 METAR COR EGLL 092120Z 11008KT CAVOK 12/09 Q1005 NOSIG=
200904092050 METAR COR EGLL 092050Z 11009KT CAVOK 12/09 Q1005 NOSIG=
200904092020 METAR COR EGLL 092020Z 11011KT CAVOK 12/09 Q1006 NOSIG=
200904091950 METAR COR EGLL 091950Z 12010KT CAVOK 13/09 Q1006 NOSIG=
200904091920 METAR COR EGLL 091920Z 13009KT 9999 FEW045 13/09 Q1006 NOSIG=
200904091850 METAR COR EGLL 091850Z 14009KT 9999 FEW044 14/09 Q1006 NOSIG=
200904091820 METAR EGLL 091820Z 15010KT 9999 FEW047 14/09 Q1006=
200904091750 METAR COR EGLL 091750Z 16011KT 9999 FEW030 15/09 Q1006 NOSIG=
200904091720 METAR COR EGLL 091720Z 17013KT 9999 FEW028 15/09 Q1006 NOSIG=
200904091650 METAR COR EGLL 091650Z 18015KT 9999 FEW026 SCT030 15/09 Q1007
                        NOSIG=
200904091620 METAR COR EGLL 091620Z 17013KT 9999 SCT024 SCT033 15/09 Q1007
                        NOSIG=
200904091550 METAR COR EGLL 091550Z 17013KT 9999 SCT023 BKN034 15/09 Q1007
                        NOSIG=
200904091520 METAR COR EGLL 091520Z 15012KT 9999 SCT016 BKN028 15/10 Q1007
                        NOSIG=
200904091450 METAR COR EGLL 091450Z 16011KT 9999 SCT013 BKN024 14/10 Q1008
                        NOSIG=
200904091420 METAR COR EGLL 091420Z 18012KT 140V220 9999 SCT013 BKN017
                        14/10 Q1008 NOSIG=
200904091350 METAR COR EGLL 091350Z 19012KT 160V230 9999 FEW011 SCT013
                        BKN020 14/10 Q1009 NOSIG=
200904091320 METAR COR EGLL 091320Z 18012KT 150V220 8000 -RA BKN011 13/11
                        Q1009 TEMPO SCT015=
200904091250 METAR COR EGLL 091250Z 19014KT 170V230 9999 BKN012 13/11
                        Q1009 TEMPO SCT015=
200904091220 METAR COR EGLL 091220Z 19014KT 9999 BKN012 13/10 Q1009 NOSIG=
200904091150 METAR COR EGLL 091150Z 18015KT 160V220 9999 BKN011 13/11
                        Q1009 NOSIG=
200904091120 METAR EGLL 091120Z 17014KT 150V220 9999 BKN008 13/11 Q1009=
200904091050 METAR COR EGLL 091050Z 17012KT 150V230 9999 BKN009 13/11
                        Q1009 NOSIG=
200904091020 METAR COR EGLL 091020Z 18011KT 150V230 9999 FEW008 BKN009
                        13/11 Q1010 NOSIG=
200904090950 METAR COR EGLL 090950Z 18013KT 160V220 9999 BKN009 14/11
                        Q1010 TEMPO 4000 -DZ=
200904090920 METAR COR EGLL 090920Z 19012KT 160V230 9999 BKN008 BKN012
                        14/11 Q1010 TEMPO 4000 -DZ=
200904090850 METAR COR EGLL 090850Z 19012KT 160V230 9999 BKN008 BKN011
                        13/11 Q1010 TEMPO 4000 -DZ=
200904090820 METAR COR EGLL 090820Z 20012KT 170V240 8000 FEW007 BKN013
                        13/11 Q1010 TEMPO 4000 -RADZ BKN006=
200904090750 METAR COR EGLL 090750Z 18010KT 160V230 9000 FEW006 BKN008
                        13/11 Q1010 TEMPO 4000 -RADZ=
200904090720 METAR COR EGLL 090720Z 19011KT 160V230 9000 FEW006 BKN007
                        12/11 Q1010 TEMPO 4000 -RADZ=
200904090650 METAR COR EGLL 090650Z 18009KT 160V230 9999 BKN007 12/11
                        Q1009 TEMPO 4000 -RADZ=
200904090620 METAR COR EGLL 090620Z 18009KT 160V230 9999 BKN005 12/11
                        Q1009 NOSIG=
200904090550 METAR COR EGLL 090550Z 19010KT 170V230 8000 BKN005 12/10
                        Q1009 TEMPO 4000 RADZ=
200904090520 METAR COR EGLL 090520Z 18006KT 130V210 9999 BKN005 11/10
                        Q1009 NOSIG=
200904090450 METAR COR EGLL 090450Z 16006KT 9999 BKN006 10/09 Q1009 NOSIG=
200904090420 METAR COR EGLL 090420Z 16007KT 9999 BKN005 10/09 Q1009 NOSIG=
200904090350 METAR COR EGLL 090350Z 15007KT 5000 BR BKN004 09/08 Q1010
                        TEMPO 3000=
200904090320 METAR COR EGLL 090320Z 16007KT 9999 BKN006 BKN008 09/08 Q1010
                        NOSIG=
200904090250 METAR COR EGLL 090250Z 15007KT 9999 OVC008 09/07 Q1010 NOSIG=
200904090220 METAR COR EGLL 090220Z 15008KT 9999 BKN009 09/07 Q1010 NOSIG=
200904090150 METAR COR EGLL 090150Z 15006KT 9999 BKN010 09/07 Q1010 TEMPO
                        BKN008=
200904090120 METAR COR EGLL 090120Z 15005KT 9999 -RA BKN014 08/06 Q1011
                        TEMPO BKN007=
200904090050 METAR COR EGLL 090050Z 16006KT 9999 SCT040 08/06 Q1011 NOSIG=
200904090020 METAR COR EGLL 090020Z 15005KT 9999 BKN042 08/06 Q1011 NOSIG=
200904082350 METAR COR EGLL 082350Z 17005KT 9999 FEW044 08/05 Q1012 NOSIG=
200904082320 METAR COR EGLL 082320Z 18005KT CAVOK 08/04 Q1011 NOSIG=
200904082250 METAR COR EGLL 082250Z 18004KT CAVOK 08/04 Q1011 NOSIG=
200904082220 METAR COR EGLL 082220Z 16005KT CAVOK 08/04 Q1011 NOSIG=
200904082150 METAR COR EGLL 082150Z 17006KT CAVOK 09/05 Q1011 NOSIG=
200904082120 METAR COR EGLL 082120Z 19007KT 150V220 CAVOK 10/05 Q1011
                        NOSIG=
200904082050 METAR COR EGLL 082050Z 20008KT CAVOK 10/05 Q1011 NOSIG=
200904082020 METAR COR EGLL 082020Z 20009KT CAVOK 11/05 Q1011 NOSIG=
200904081950 METAR COR EGLL 081950Z 21008KT 180V260 CAVOK 11/06 Q1011
                        NOSIG=
200904081920 METAR COR EGLL 081920Z 22011KT 190V250 CAVOK 12/06 Q1010
                        NOSIG=
200904081850 METAR COR EGLL 081850Z 22010KT CAVOK 13/06 Q1010 NOSIG=
200904081820 METAR COR EGLL 081820Z 22010KT CAVOK 14/06 Q1009 NOSIG=
200904081750 METAR COR EGLL 081750Z 24011KT CAVOK 15/02 Q1009 NOSIG=
200904081720 METAR COR EGLL 081720Z 26013KT CAVOK 15/02 Q1009 NOSIG=
200904081650 METAR COR EGLL 081650Z 26011KT CAVOK 15/02 Q1009 NOSIG=
200904081620 METAR COR EGLL 081620Z 27015KT CAVOK 15/02 Q1008 NOSIG=
200904081550 METAR COR EGLL 081550Z 26015KT CAVOK 16/02 Q1008 NOSIG=
200904081520 METAR COR EGLL 081520Z 25014KT CAVOK 16/03 Q1008 NOSIG=
200904081450 METAR COR EGLL 081450Z 26015KT CAVOK 16/03 Q1008 NOSIG=
200904081420 METAR COR EGLL 081420Z 27013KT 9999 FEW049 16/03 Q1008 NOSIG=
200904081350 METAR COR EGLL 081350Z 26016KT 9999 FEW049 14/03 Q1008 NOSIG=
200904081320 METAR COR EGLL 081320Z 26015KT 9999 FEW046 13/03 Q1008 NOSIG=
200904081250 METAR COR EGLL 081250Z 25018KT 9999 SCT045 14/03 Q1007 NOSIG=
200904081220 METAR COR EGLL 081220Z 26017KT 9999 SCT040 14/03 Q1007 NOSIG=
200904081150 METAR COR EGLL 081150Z 26015KT 9999 SCT040 15/04 Q1007 NOSIG=
200904081120 METAR COR EGLL 081120Z 25016G27KT 9999 SCT040 14/04 Q1007
                        NOSIG=
200904081050 METAR COR EGLL 081050Z 27015KT 9999 FEW040 13/04 Q1006 NOSIG=
200904081020 METAR COR EGLL 081020Z 26015KT 9999 FEW030 13/04 Q1006 NOSIG=
200904080950 METAR COR EGLL 080950Z 26013KT 9999 FEW028 12/04 Q1006 NOSIG=
200904080920 METAR COR EGLL 080920Z 26015KT 9999 SCT028 12/05 Q1005 NOSIG=
200904080850 METAR COR EGLL 080850Z 26015KT 9999 SCT029 11/05 Q1005 NOSIG=
200904080820 METAR COR EGLL 080820Z 25015KT 9999 SCT024 11/05 Q1004 NOSIG=
200904080750 METAR EGLL 080750Z 25013KT 9999 FEW020 10/05 Q1004=
200904080720 METAR COR EGLL 080720Z 24013KT 9999 FEW030 10/06 Q1004 NOSIG=
200904080650 METAR COR EGLL 080650Z 25013KT 9999 FEW022 SCT030 09/06 Q1003
                        NOSIG=
200904080620 METAR COR EGLL 080620Z 27016KT 9999 FEW016 SCT023 09/06 Q1003
                        NOSIG=
200904080550 METAR COR EGLL 080550Z 27015KT 9999 FEW007 BKN013 10/09 Q1002
                        BECMG BKN020=
200904080520 METAR COR EGLL 080520Z 22009KT 9999 6000E -DZ BKN006 BKN010
                        10/09 Q1001 BECMG BKN020=
200904080450 METAR COR EGLL 080450Z 20012KT 6000 -RADZ BKN007 BKN012 09/08
                        Q1001 BECMG SCT015=
200904080420 METAR COR EGLL 080420Z 19014KT 8000 -RA SCT007 BKN013 09/08
                        Q1001 BECMG SCT015=
200904080350 METAR COR EGLL 080350Z 20016KT 5000 -RADZ SCT009 BKN015 09/08
                        Q1001 TEMPO 20018G28KT 4000 BKN009=
200904080320 METAR COR EGLL 080320Z 19018KT 9999 -RA BKN011 BKN020 09/07
                        Q1001 TEMPO 19019G29KT=
200904080250 METAR COR EGLL 080250Z 19017KT 9999 -RA BKN012 BKN019 09/07
                        Q1001 TEMPO 29019G29KT=
200904080220 METAR COR EGLL 080220Z 19018KT 9999 -RA BKN015 09/07 Q1002
                        TEMPO 29019G29KT BKN014=
200904080150 METAR COR EGLL 080150Z 19018KT 9999 -DZ FEW018 SCT025 10/06
                        Q1002 TEMPO 29019G29KT=
200904080120 METAR COR EGLL 080120Z 20018KT 9999 FEW027 10/05 Q1003 TEMPO
                        19019G29KT=
200904080050 METAR EGLL 080050Z NIL=
200904080020 METAR COR EGLL 080020Z 19015KT CAVOK 10/05 Q1004 NOSIG=
200904072350 METAR COR EGLL 072350Z 18012KT CAVOK 10/05 Q1005 NOSIG=
200904072320 METAR COR EGLL 072320Z 18013KT CAVOK 09/05 Q1005 NOSIG=
200904072250 METAR COR EGLL 072250Z 17010KT CAVOK 09/05 Q1006 NOSIG=
200904072220 METAR COR EGLL 072220Z 17010KT CAVOK 09/05 Q1006 NOSIG=
200904072150 METAR COR EGLL 072150Z 17012KT CAVOK 09/05 Q1007 NOSIG=
200904072120 METAR COR EGLL 072120Z 17010KT 9999 FEW043 09/05 Q1007 NOSIG=
200904072050 METAR COR EGLL 072050Z 17011KT 9999 FEW042 09/05 Q1008 NOSIG=
200904072020 METAR COR EGLL 072020Z 17012KT 150V230 9999 SCT049 09/04
                        Q1008 NOSIG=
200904071950 METAR COR EGLL 071950Z 18011KT CAVOK 09/03 Q1008 NOSIG=
200904071920 METAR COR EGLL 071920Z 19013KT CAVOK 10/03 Q1008 NOSIG=
200904071850 METAR COR EGLL 071850Z 19013KT 9999 FEW030 10/04 Q1008 NOSIG=
200904071820 METAR COR EGLL 071820Z 20011KT 9999 FEW037 11/03 Q1008 NOSIG=
200904071750 METAR COR EGLL 071750Z 21011KT 9999 FEW038 12/03 Q1008 NOSIG=
200904071720 METAR COR EGLL 071720Z 22015KT 9999 FEW041 12/02 Q1008 NOSIG=
200904071650 METAR COR EGLL 071650Z 22014KT 9999 SCT046 13/02 Q1008 NOSIG=
200904071620 METAR COR EGLL 071620Z 22014KT 9999 SCT046 13/02 Q1008 NOSIG=
200904071550 METAR COR EGLL 071550Z 22016KT 9999 SCT046 14/02 Q1008 NOSIG=
200904071520 METAR COR EGLL 071520Z 22015KT 180V250 9999 SCT046 14/01
                        Q1008 NOSIG=
200904071450 METAR COR EGLL 071450Z 22016KT 9999 SCT047 15/02 Q1008 NOSIG=
200904071420 METAR COR EGLL 071420Z 21014KT 9999 BKN046 14/02 Q1008 NOSIG=
200904071350 METAR COR EGLL 071350Z 21014KT 180V250 9999 SCT044 14/03
                        Q1008 NOSIG=
200904071320 METAR COR EGLL 071320Z 20013G24KT 170V250 9999 SCT047 15/03
                        Q1008 NOSIG=
200904071250 METAR COR EGLL 071250Z 22014KT 9999 SCT045 14/03 Q1008 NOSIG=
200904071220 METAR COR EGLL 071220Z 25012KT 9999 SCT045 15/02 Q1008 NOSIG=
200904071150 METAR COR EGLL 071150Z 25012KT 9999 SCT043 13/02 Q1008 NOSIG=
200904071120 METAR COR EGLL 071120Z 25013KT 210V270 9999 SCT039 13/02
                        Q1008 NOSIG=
200904071050 METAR COR EGLL 071050Z 25013KT 9999 SCT038 13/03 Q1008 NOSIG=
200904071020 METAR COR EGLL 071020Z 26013KT 9999 SCT031 SCT036 13/04 Q1008
                        NOSIG=
200904070950 METAR COR EGLL 070950Z 24014KT 9999 SCT025 SCT031 11/04 Q1008
                        NOSIG=
200904070920 METAR COR EGLL 070920Z 24013KT 9999 SCT023 SCT030 11/05 Q1008
                        NOSIG=
200904070850 METAR COR EGLL 070850Z 22011G22KT 9999 FEW022 SCT030 10/05
                        Q1008 NOSIG=
200904070820 METAR COR EGLL 070820Z 23010KT 9999 FEW015 SCT028 10/06 Q1007
                        NOSIG=
200904070750 METAR COR EGLL 070750Z 23010KT 9999 BKN030 09/06 Q1007 NOSIG=
200904070720 METAR COR EGLL 070720Z 22008KT 9999 FEW022 SCT026 09/06 Q1007
                        NOSIG=
200904070650 METAR COR EGLL 070650Z 21008KT 9999 FEW022 SCT028 09/06 Q1007
                        NOSIG=
200904070620 METAR COR EGLL 070620Z 24009KT 9999 FEW014 SCT021 08/06 Q1006
                        NOSIG=
200904070550 METAR COR EGLL 070550Z 23010KT 9999 FEW022 08/06 Q1006 NOSIG=
200904070520 METAR COR EGLL 070520Z 21007KT 180V250 9999 SCT018 08/06
                        Q1006 NOSIG=
200904070450 METAR COR EGLL 070450Z 21005KT 9999 SCT015 08/06 Q1005 NOSIG=
200904070420 METAR COR EGLL 070420Z 20006KT 9999 BKN039 08/06 Q1005 NOSIG=
200904070350 METAR COR EGLL 070350Z 20006KT 9999 BKN042 09/06 Q1005 NOSIG=
200904070320 METAR COR EGLL 070320Z 20005KT 9999 FEW024 SCT040 08/06 Q1005
                        NOSIG=
200904070250 METAR COR EGLL 070250Z 21006KT CAVOK 08/06 Q1005 NOSIG=
200904070220 METAR COR EGLL 070220Z 21006KT CAVOK 09/06 Q1005 NOSIG=
200904070150 METAR COR EGLL 070150Z 25009KT 9999 SCT015 09/06 Q1005 NOSIG=
200904070120 METAR COR EGLL 070120Z 25009KT 9999 SCT015 10/07 Q1005 NOSIG=
200904070050 METAR EGLL 070050Z 23010KT 9999 SCT014 10/07 Q1005=
200904070020 METAR COR EGLL 070020Z 22008KT 9999 SCT014 10/08 Q1005 NOSIG=
200904062350 METAR COR EGLL 062350Z 22009KT 9999 SCT012 11/08 Q1005 NOSIG=
200904062320 METAR COR EGLL 062320Z 23010KT 9999 FEW014 SCT024 11/08 Q1005
                        NOSIG=
200904062250 METAR COR EGLL 062250Z 22010KT 9999 SCT015 BKN046 12/07 Q1004
                        TEMPO -RADZ BKN014=
200904062220 METAR COR EGLL 062220Z 21008KT 9999 BKN020 12/07 Q1004 NOSIG=
200904062150 METAR COR EGLL 062150Z 21007KT 170V240 9000 FEW024 BKN046
                        12/07 Q1005 NOSIG=
200904062120 METAR COR EGLL 062120Z 22008KT 9000 FEW042 12/06 Q1005 NOSIG=
200904062050 METAR COR EGLL 062050Z 19007KT 170V240 9999 FEW047 12/06
                        Q1005 NOSIG=
200904062020 METAR COR EGLL 062020Z 18007KT 160V220 9999 FEW049 13/06
                        Q1005 NOSIG=
200904061950 METAR COR EGLL 061950Z 19010KT CAVOK 13/06 Q1005 NOSIG=
200904061920 METAR COR EGLL 061920Z 18009KT 140V220 CAVOK 13/05 Q1005
                        NOSIG=
200904061850 METAR COR EGLL 061850Z 17007KT 110V230 CAVOK 14/05 Q1005
                        NOSIG=
200904061820 METAR COR EGLL 061820Z 19009KT 160V230 9999 SCT042 14/05
                        Q1005 NOSIG=
200904061750 METAR COR EGLL 061750Z 17010KT 130V230 9999 SCT045 15/05
                        Q1005 NOSIG=
200904061720 METAR COR EGLL 061720Z 19009KT CAVOK 15/05 Q1005 NOSIG=
200904061650 METAR COR EGLL 061650Z 19012KT CAVOK 15/05 Q1005 NOSIG=
200904061620 METAR COR EGLL 061620Z 19013KT 150V220 CAVOK 15/04 Q1005
                        NOSIG=
200904061550 METAR COR EGLL 061550Z 17015KT CAVOK 16/05 Q1006 NOSIG=
200904061520 METAR EGLL 061520Z 18018KT CAVOK 16/05 Q1006=
200904061450 METAR COR EGLL 061450Z 17014KT CAVOK 17/04 Q1006 NOSIG=
200904061420 METAR COR EGLL 061420Z 17014KT CAVOK 17/04 Q1006 NOSIG=
200904061350 METAR COR EGLL 061350Z 17013KT 140V200 9999 SCT048 17/05
                        Q1007 NOSIG=
200904061320 METAR COR EGLL 061320Z 16013KT 9999 SCT042 17/06 Q1007 NOSIG=
200904061250 METAR COR EGLL 061250Z 15012KT 9999 FEW043 17/06 Q1008 NOSIG=
200904061220 METAR COR EGLL 061220Z 15013KT 9999 FEW041 17/06 Q1008 NOSIG=
200904061150 METAR COR EGLL 061150Z 16010KT 9999 FEW040 17/07 Q1008 NOSIG=
200904061120 METAR COR EGLL 061120Z 17010KT 120V180 9000 FEW036 16/07
                        Q1009 NOSIG=
200904061050 METAR COR EGLL 061050Z 15010KT CAVOK 16/07 Q1010 NOSIG=
200904061020 METAR COR EGLL 061020Z 17008KT 130V190 8000 NSC 15/07 Q1010
                        NOSIG=
200904060950 METAR COR EGLL 060950Z 15009KT 8000 NSC 15/07 Q1011 NOSIG=
200904060920 METAR COR EGLL 060920Z 16007KT 7000 NSC 14/07 Q1011 NOSIG=
200904060850 METAR COR EGLL 060850Z 14006KT 7000 NSC 13/06 Q1011 NOSIG=
200904060820 METAR COR EGLL 060820Z 14005KT 7000 NSC 12/06 Q1012 NOSIG=
200904060750 METAR COR EGLL 060750Z 14006KT 6000 NSC 11/06 Q1012 NOSIG=
200904060720 METAR COR EGLL 060720Z 10004KT 6000 NSC 10/06 Q1012 NOSIG=
200904060650 METAR COR EGLL 060650Z 09005KT 4200 HZ NSC 09/06 Q1012 BECMG
                        5000=
200904060620 METAR COR EGLL 060620Z 09005KT 4000 HZ NSC 08/06 Q1013 BECMG
                        5000=
200904060550 METAR COR EGLL 060550Z 09005KT 4000 HZ NSC 08/06 Q1013 BECMG
                        5000=
200904060520 METAR COR EGLL 060520Z 09005KT 4200 HZ NSC 08/06 Q1013 TEMPO
                        5000=
200904060450 METAR COR EGLL 060450Z 09005KT 7000 FEW035 08/05 Q1013 NOSIG=
200904060420 METAR COR EGLL 060420Z 10006KT 8000 FEW045 08/05 Q1014 NOSIG=
200904060350 METAR COR EGLL 060350Z 09006KT 9000 FEW043 08/04 Q1014 NOSIG=
200904060320 METAR COR EGLL 060320Z 09005KT 9000 FEW035 SCT046 08/05 Q1015
                        NOSIG=
200904060250 METAR COR EGLL 060250Z 08004KT 9000 FEW039 SCT048 08/05 Q1015
                        NOSIG=
200904060220 METAR COR EGLL 060220Z 09003KT 9999 BKN043 08/05 Q1016 NOSIG=
200904060150 METAR COR EGLL 060150Z VRB03KT 9999 -RA FEW045 08/04 Q1016
                        NOSIG=
200904060120 METAR COR EGLL 060120Z 15004KT 9999 DZ NSC 09/03 Q1017 NOSIG=
200904060050 METAR COR EGLL 060050Z 14004KT CAVOK 09/02 Q1017 NOSIG=
200904060020 METAR EGLL 060020Z 14004KT CAVOK 09/02 Q1017=
200904052350 METAR COR EGLL 052350Z 13006KT CAVOK 09/04 Q1018 NOSIG=
200904052320 METAR COR EGLL 052320Z 12004KT CAVOK 09/04 Q1018 NOSIG=
200904052250 METAR COR EGLL 052250Z 12005KT CAVOK 09/04 Q1018 NOSIG=
200904052220 METAR COR EGLL 052220Z 11005KT CAVOK 09/04 Q1018 NOSIG=
200904052150 METAR COR EGLL 052150Z 11004KT CAVOK 09/03 Q1018 NOSIG=
200904052120 METAR COR EGLL 052120Z 13006KT CAVOK 09/03 Q1019 NOSIG=
200904052050 METAR COR EGLL 052050Z 15006KT CAVOK 10/02 Q1019 NOSIG=
200904052020 METAR COR EGLL 052020Z 15006KT CAVOK 10/02 Q1019 NOSIG=
200904051950 METAR COR EGLL 051950Z 15006KT 9999 SCT039 11/03 Q1019 NOSIG=
200904051920 METAR COR EGLL 051920Z 10008KT 9999 FEW042 SCT049 11/05 Q1019
                        NOSIG=
200904051850 METAR EGLL 051850Z AUTO 10007KT 9999NDV OVC045/// 12/05 Q1019=
200904051820 METAR COR EGLL 051820Z 10006KT 9999 FEW048 12/04 Q1019 NOSIG=
200904051750 METAR COR EGLL 051750Z 09008KT 9999 FEW040 13/05 Q1019 NOSIG=
200904051720 METAR COR EGLL 051720Z 09008KT 9999 FEW049 13/05 Q1019 NOSIG=
200904051650 METAR COR EGLL 051650Z 08007KT 040V110 9999 SCT044 14/04
                        Q1020 NOSIG=
200904051620 METAR COR EGLL 051620Z 09006KT 050V120 9999 FEW047 15/03
                        Q1020 NOSIG=
200904051550 METAR COR EGLL 051550Z 08005KT 360V160 9999 FEW049 15/04
                        Q1020 NOSIG=
200904051520 METAR COR EGLL 051520Z 08004KT 010V120 9999 FEW049 14/03
                        Q1020 NOSIG=
200904051450 METAR COR EGLL 051450Z VRB02KT 9999 FEW049 14/02 Q1021 NOSIG=
200904051420 METAR COR EGLL 051420Z 09004KT 050V140 9999 BKN049 14/02
                        Q1021 NOSIG=
200904051350 METAR COR EGLL 051350Z 15004KT 090V190 CAVOK 14/02 Q1022
                        NOSIG=
200904051320 METAR COR EGLL 051320Z 16005KT 9999 FEW047 14/03 Q1022 NOSIG=
200904051250 METAR COR EGLL 051250Z VRB03KT 9999 SCT046 14/03 Q1022 NOSIG=
200904051220 METAR COR EGLL 051220Z 15005KT 130V200 9999 BKN043 14/03
                        Q1023 NOSIG=
200904051150 METAR COR EGLL 051150Z 17004KT 120V240 9999 BKN040 14/03
                        Q1023 NOSIG=
200904051120 METAR COR EGLL 051120Z VRB04KT 9999 SCT040 14/04 Q1024 NOSIG=
200904051050 METAR COR EGLL 051050Z 13007KT 090V160 9999 FEW048 14/04
                        Q1024 NOSIG=
200904051020 METAR COR EGLL 051020Z 14007KT 110V180 9999 FEW048 13/04
                        Q1024 NOSIG=
200904050950 METAR COR EGLL 050950Z 12008KT 9999 SCT048 13/03 Q1024 NOSIG=
200904050920 METAR COR EGLL 050920Z 11007KT 070V150 CAVOK 12/04 Q1024
                        NOSIG=
200904050850 METAR COR EGLL 050850Z 10006KT 040V150 CAVOK 12/03 Q1024
                        NOSIG=
200904050820 METAR COR EGLL 050820Z 08005KT 040V130 CAVOK 11/03 Q1024
                        NOSIG=
200904050750 METAR COR EGLL 050750Z 06004KT CAVOK 09/03 Q1024 NOSIG=
200904050720 METAR COR EGLL 050720Z VRB03KT CAVOK 09/03 Q1024 NOSIG=
200904050650 METAR COR EGLL 050650Z 06003KT CAVOK 08/03 Q1024 NOSIG=
200904050620 METAR COR EGLL 050620Z VRB03KT CAVOK 07/03 Q1024 NOSIG=
200904050550 METAR COR EGLL 050550Z VRB02KT CAVOK 07/03 Q1024 NOSIG=
200904050520 METAR COR EGLL 050520Z 34003KT CAVOK 08/03 Q1024 NOSIG=
200904050450 METAR EGLL 050450Z 35003KT CAVOK 08/03 Q1024=
200904050420 METAR EGLL 050420Z VRB02KT 9999 FEW048 08/03 Q1024=
200904050350 METAR COR EGLL 050350Z 00000KT CAVOK 08/04 Q1024 NOSIG=
200904050320 METAR COR EGLL 050320Z VRB02KT CAVOK 08/03 Q1024 NOSIG=
200904050250 METAR EGLL 050250Z 34002KT CAVOK 08/03 Q1024=
200904050220 METAR COR EGLL 050220Z VRB02KT CAVOK 08/03 Q1024 NOSIG=
200904050150 METAR COR EGLL 050150Z 34002KT CAVOK 08/03 Q1024 NOSIG=
200904050120 METAR COR EGLL 050120Z 35003KT CAVOK 08/03 Q1024 NOSIG=
200904050050 METAR COR EGLL 050050Z VRB02KT CAVOK 09/03 Q1024 NOSIG=
200904050020 METAR COR EGLL 050020Z VRB03KT CAVOK 09/03 Q1024 NOSIG=
200904042350 METAR COR EGLL 042350Z VRB02KT CAVOK 09/03 Q1023 NOSIG=
200904042320 METAR COR EGLL 042320Z VRB03KT CAVOK 09/03 Q1023 NOSIG=
200904042250 METAR COR EGLL 042250Z 34003KT CAVOK 10/03 Q1023 NOSIG=
200904042220 METAR COR EGLL 042220Z 32004KT CAVOK 11/03 Q1023 NOSIG=
200904042150 METAR COR EGLL 042150Z 31004KT 9999 FEW049 11/03 Q1023 NOSIG=
200904042120 METAR COR EGLL 042120Z 29005KT CAVOK 10/03 Q1022 NOSIG=
200904042050 METAR COR EGLL 042050Z 28007KT CAVOK 10/02 Q1022 NOSIG=
200904042020 METAR COR EGLL 042020Z 27009KT 9999 FEW048 12/01 Q1022 NOSIG=
200904041950 METAR COR EGLL 041950Z 27009KT CAVOK 12/01 Q1022 NOSIG=
200904041920 METAR COR EGLL 041920Z AUTO 27008KT 9999NDV NCD 12/00 Q1021
                        NOSIG=
200904041850 METAR COR EGLL 041850Z 27008KT CAVOK 12/01 Q1021 NOSIG=
200904041820 METAR COR EGLL 041820Z 27010KT CAVOK 11/01 Q1020 NOSIG=
200904041750 METAR COR EGLL 041750Z 28011KT CAVOK 13/00 Q1020 NOSIG=
200904041720 METAR COR EGLL 041720Z 28012KT CAVOK 14/01 Q1020 NOSIG=
200904041650 METAR COR EGLL 041650Z 27014KT CAVOK 14/01 Q1020 NOSIG=
200904041620 METAR COR EGLL 041620Z 26016KT CAVOK 15/M00 Q1019 NOSIG=
200904041550 METAR COR EGLL 041550Z 27013KT 250V320 CAVOK 16/01 Q1019
                        NOSIG=
200904041520 METAR COR EGLL 041520Z 27013KT CAVOK 16/02 Q1019 NOSIG=
200904041450 METAR COR EGLL 041450Z 27011KT 220V310 CAVOK 16/01 Q1019
                        NOSIG=
200904041420 METAR COR EGLL 041420Z 28011KT CAVOK 16/01 Q1018 NOSIG=
200904041350 METAR COR EGLL 041350Z 27011KT CAVOK 17/02 Q1018 NOSIG=
200904041320 METAR COR EGLL 041320Z 28010G21KT 230V310 CAVOK 16/02 Q1018
                        NOSIG=
200904041250 METAR COR EGLL 041250Z 27010KT 230V300 CAVOK 16/03 Q1018
                        NOSIG=
200904041220 METAR COR EGLL 041220Z 27011KT 9999 FEW032 16/03 Q1018 NOSIG=
200904041150 METAR COR EGLL 041150Z 28010KT 9999 FEW032 16/04 Q1018 NOSIG=
200904041120 METAR COR EGLL 041120Z 27011KT 230V300 9999 FEW032 15/04
                        Q1018 NOSIG=
200904041050 METAR COR EGLL 041050Z 25010KT 9999 FEW022 SCT026 14/06 Q1018
                        NOSIG=
200904041020 METAR EGLL 041020Z 25008KT 220V300 9999 SCT022 SCT025 13/08
                        Q1018=
200904040950 METAR COR EGLL 040950Z 26009KT 230V300 9999 FEW016 BKN022
                        12/08 Q1018 NOSIG=
200904040920 METAR COR EGLL 040920Z 24008KT 200V280 7000 FEW011 SCT013
                        BKN018 11/08 Q1018 NOSIG=
200904040850 METAR COR EGLL 040850Z 22007KT 4000 HZ FEW008 BKN012 11/08
                        Q1017 BECMG 9999 NSW SCT018=
200904040820 METAR COR EGLL 040820Z 21007KT 190V260 2900 BR FEW007 SCT008
                        BKN011 10/08 Q1017 BECMG 6000 NSW
                        BKN015=
200904040750 METAR COR EGLL 040750Z 22008KT 2700 -DZ FEW007 BKN008 09/08
                        Q1017 BECMG 4000 SCT009 BKN015=
200904040720 METAR COR EGLL 040720Z 20008KT 2900 -DZ BKN008 09/07 Q1016
                        BECMG 4000=
200904040650 METAR COR EGLL 040650Z 21007KT 2900 BR FEW008 OVC009 09/07
                        Q1016 BECMG 4000=
200904040620 METAR COR EGLL 040620Z 21007KT 180V250 3200 BR OVC009 08/06
                        Q1016 NOSIG=
200904040550 METAR COR EGLL 040550Z 22008KT 190V270 3900 BR OVC010 08/06
                        Q1016 BECMG BKN007=
200904040520 METAR COR EGLL 040520Z 21007KT 150V240 4100 BR OVC011 08/05
                        Q1016 BECMG BKN008=
200904040450 METAR COR EGLL 040450Z 22008KT 4500 BR OVC012 08/05 Q1015
                        NOSIG=
200904040420 METAR EGLL 040420Z 21007KT 4800 HZ BKN015 08/05 Q1015=
200904040350 METAR COR EGLL 040350Z 22007KT 4800 HZ BKN016 08/04 Q1015
                        BECMG BKN012=
200904040320 METAR COR EGLL 040320Z 21006KT 4800 HZ BKN019 08/04 Q1015
                        TEMPO BKN012=
200904040250 METAR COR EGLL 040250Z 23010KT 4800 HZ BKN020 09/04 Q1015
                        TEMPO BKN012=
200904040220 METAR COR EGLL 040220Z 23013KT 3400 BR SCT010 BKN017 09/05
                        Q1015 TEMPO BKN010=
200904040150 METAR COR EGLL 040150Z 20007KT 160V230 2800 BR SCT008 BKN010
                        09/07 Q1015 NOSIG=
200904040120 METAR COR EGLL 040120Z 21006KT 2800 HZ BKN009 09/07 Q1016
                        BECMG BKN012=
200904040050 METAR COR EGLL 040050Z 21006KT 2500 HZ OVC008 08/06 Q1016
                        BECMG BKN010=
200904040020 METAR COR EGLL 040020Z 22009KT 2300 HZ OVC006 08/06 Q1016
                        NOSIG=
200904032350 METAR COR EGLL 032350Z 24011KT 1900 HZ OVC006 08/06 Q1016
                        NOSIG=
200904032320 METAR COR EGLL 032320Z 21008KT 1600 HZ OVC005 08/07 Q1016
                        NOSIG=
200904032250 METAR COR EGLL 032250Z 20008KT 1600 HZ BKN005 08/07 Q1016
                        NOSIG=
200904032220 METAR COR EGLL 032220Z 19008KT 160V240 1500 R27L/P1500 R27R/P1500
                        HZ BKN005 08/07 Q1016 NOSIG=
200904032150 METAR COR EGLL 032150Z 20009KT 160V250 1500 HZ OVC005 08/06
                        Q1016 NOSIG=
200904032120 METAR COR EGLL 032120Z 18006KT 130V240 2500 HZ BKN006 SCT040
                        08/06 Q1016 NOSIG=
200904032050 METAR COR EGLL 032050Z 18007KT 140V240 3000 HZ NSC 08/06
                        Q1016 BECMG BKN006=
200904032020 METAR COR EGLL 032020Z 20008KT 160V240 3000 HZ NSC 08/06
                        Q1016 NOSIG=
200904031950 METAR COR EGLL 031950Z 19009KT 150V230 3000 HZ NSC 09/07
                        Q1016 NOSIG=
200904031920 METAR EGLL 031920Z 19009KT 150V250 3000 HZ NSC 10/07 Q1016=
200904031850 METAR COR EGLL 031850Z 18008KT 140V240 3400 HZ NSC 10/07
                        Q1015 NOSIG=
200904031820 METAR COR EGLL 031820Z 19008KT 140V240 4700 HZ NSC 11/07
                        Q1015 NOSIG=
200904031750 METAR COR EGLL 031750Z 18007KT 140V260 4700 HZ NSC 12/07
                        Q1015 NOSIG=
200904031720 METAR COR EGLL 031720Z 18007KT 130V220 5000 HZ NSC 13/07
                        Q1015 NOSIG=
200904031650 METAR COR EGLL 031650Z 19006KT 150V240 5000 HZ NSC 13/07
                        Q1015 NOSIG=
200904031620 METAR EGLL 031620Z 21005KT 140V260 5000 HZ NSC 13/07 Q1015=
200904031550 METAR COR EGLL 031550Z 20006KT 160V240 5000 HZ NSC 13/07
                        Q1016 NOSIG=
200904031520 METAR COR EGLL 031520Z VRB05KT 5000 HZ NSC 13/07 Q1016 NOSIG=
200904031450 METAR COR EGLL 031450Z VRB04KT 5000 HZ NSC 12/07 Q1016 NOSIG=
200904031420 METAR COR EGLL 031420Z VRB04KT 5000 HZ NSC 12/07 Q1016 NOSIG=
200904031350 METAR COR EGLL 031350Z 24005KT 190V300 5000 HZ FEW032 11/06
                        Q1017 NOSIG=
200904031320 METAR COR EGLL 031320Z 20004KT 140V250 5000 HZ FEW013 11/06
                        Q1017 NOSIG=
200904031250 METAR COR EGLL 031250Z 21004KT 140V320 4700 HZ BKN012 10/06
                        Q1017 BECMG 6000 NSW SCT014=
200904031220 METAR COR EGLL 031220Z 23004KT 180V290 4000 HZ BKN011 09/05
                        Q1018 BECMG 6000 NSW SCT013=
200904031150 METAR COR EGLL 031150Z VRB03KT 4000 HZ FEW008 OVC010 09/05
                        Q1018 BECMG 6000 SCT013=
200904031120 METAR COR EGLL 031120Z VRB02KT 4000 BR SCT008 BKN010 08/05
                        Q1018 BECMG 5000 HZ SCT013=
200904031050 METAR COR EGLL 031050Z VRB02KT 3700 HZ SCT006 BKN008 08/05
                        Q1018 BECMG 5000 SCT012=
200904031020 METAR COR EGLL 031020Z VRB03KT 3500 BR SCT005 OVC006 07/05
                        Q1018 BECMG 5000 HZ SCT012=
200904030950 METAR COR EGLL 030950Z VRB03KT 3500 BR SCT004 OVC005 06/05
                        Q1018 BECMG 5000 HZ BKN010=
200904030920 METAR COR EGLL 030920Z 35004KT 300V010 2800 BR SCT003 BKN004
                        06/05 Q1018 BECMG 4000 BKN006=
200904030850 METAR COR EGLL 030850Z VRB02KT 2500 BR FEW002 SCT003 BKN004
                        06/05 Q1018 BECMG 3000 BKN005=
200904030820 METAR COR EGLL 030820Z VRB03KT 2500 BR SCT002 OVC003 05/05
                        Q1018 BECMG 3000=
200904030750 METAR COR EGLL 030750Z VRB03KT 2000 BR BKN002 05/05 Q1018
                        BECMG 3000=
200904030720 METAR COR EGLL 030720Z 35004KT 310V020 1800 BR FEW001 BKN002
                        05/04 Q1018 BECMG 3000=
200904030650 METAR COR EGLL 030650Z 06005KT 030V090 1600 BR FEW001 BKN002
                        05/04 Q1018 BECMG 3000=
200904030620 METAR COR EGLL 030620Z 05005KT 1300 R09L/P1500 R09R/P1500
                        BR FEW001 BKN002 05/04 Q1018 BECMG
                        1800=
200904030550 METAR COR EGLL 030550Z 02004KT 320V070 1500 R09L/P1500 R09R/P1500
                        BR FEW001 BKN002 05/04 Q1018 NOSIG=
200904030520 METAR COR EGLL 030520Z VRB03KT 1300 R09L/P1500 R09R/P1500
                        BR BKN002 05/04 Q1018 NOSIG=
200904030450 METAR COR EGLL 030450Z 04004KT 310V070 1500 BR BKN002 05/04
                        Q1018 TEMPO 1400=
200904030420 METAR COR EGLL 030420Z 05004KT 020V080 1600 BR BKN002 05/04
                        Q1018 TEMPO 1400=
200904030350 METAR COR EGLL 030350Z 04005KT 350V070 1800 BR FEW002 BKN003
                        06/05 Q1018 TEMPO 1400 BKN002=
200904030320 METAR COR EGLL 030320Z 04005KT 360V080 1600 BR FEW002 BKN003
                        06/05 Q1018 TEMPO 1400 BKN002=
200904030250 METAR COR EGLL 030250Z 02005KT 340V070 1800 BR FEW002 BKN003
                        06/05 Q1018 TEMPO 1400 BKN002=
200904030220 METAR COR EGLL 030220Z 02007KT 2100 BR BKN003 06/05 Q1018
                        NOSIG=
200904030150 METAR COR EGLL 030150Z 04008KT 2100 BR BKN003 06/05 Q1018
                        BECMG 1400=
200904030120 METAR COR EGLL 030120Z 02007KT 2400 BR BKN004 06/05 Q1019
                        TEMPO 1400=
200904030050 METAR COR EGLL 030050Z 02007KT 2500 BR BKN005 07/05 Q1019
                        TEMPO 1400=
200904030020 METAR COR EGLL 030020Z 01007KT 2600 BR BKN005 07/05 Q1019
                        TEMPO 1400=
200904022350 METAR COR EGLL 022350Z 01008KT 2700 BR BKN005 07/05 Q1019
                        TEMPO 1400=
200904022320 METAR COR EGLL 022320Z 01008KT 2900 BR FEW006 07/05 Q1019
                        TEMPO 1400=
200904022250 METAR COR EGLL 022250Z 01007KT 3200 BR NSC 07/05 Q1019 TEMPO
                        1400=
200904022220 METAR COR EGLL 022220Z 36005KT 330V030 3500 BR NSC 07/06
                        Q1019 TEMPO 1400=
200904022150 METAR COR EGLL 022150Z 02005KT 340V060 3800 BR NSC 08/06
                        Q1019 BECMG 1400=
200904022120 METAR COR EGLL 022120Z 01006KT 4700 BR NSC 09/06 Q1019 NOSIG=
200904022050 METAR COR EGLL 022050Z 02006KT 5000 HZ NSC 09/07 Q1019 BECMG
                        4000 BR=
200904022020 METAR COR EGLL 022020Z 02007KT 350V050 6000 NSC 10/07 Q1019
                        BECMG 4000 BR=
200904021950 METAR COR EGLL 021950Z 02006KT 330V050 8000 NSC 12/07 Q1019
                        NOSIG=
200904021920 METAR COR EGLL 021920Z 02006KT 360V060 8000 NSC 13/06 Q1018
                        NOSIG=
200904021850 METAR COR EGLL 021850Z 02006KT 320V050 9000 NSC 13/06 Q1018
                        NOSIG=
200904021820 METAR COR EGLL 021820Z 04006KT 010V070 CAVOK 14/05 Q1018
                        NOSIG=
200904021750 METAR COR EGLL 021750Z 04006KT 360V070 CAVOK 15/06 Q1018
                        NOSIG=
200904021720 METAR COR EGLL 021720Z 04007KT CAVOK 15/06 Q1018 NOSIG=
200904021650 METAR EGLL 021650Z 03007KT 360V060 CAVOK 15/06 Q1018=
200904021620 METAR COR EGLL 021620Z 04008KT 360V090 9000 NSC 16/07 Q1018
                        NOSIG=
200904021550 METAR EGLL 021550Z 04008KT 360V080 9000 NSC 16/07 Q1018=
200904021520 METAR COR EGLL 021520Z 03007KT 350V070 8000 NSC 16/08 Q1019
                        NOSIG=
200904021450 METAR COR EGLL 021450Z 03008KT 340V090 9000 NSC 16/07 Q1019
                        NOSIG=
200904021420 METAR COR EGLL 021420Z 05007KT 360V090 9000 NSC 15/07 Q1019
                        NOSIG=
200904021350 METAR COR EGLL 021350Z 05008KT 360V080 9000 NSC 15/07 Q1020
                        NOSIG=
200904021320 METAR COR EGLL 021320Z 05007KT 350V100 8000 NSC 13/07 Q1020
                        NOSIG=
200904021250 METAR COR EGLL 021250Z 04008KT 310V070 7000 NSC 13/07 Q1020
                        NOSIG=
200904021220 METAR COR EGLL 021220Z 04006KT 360V090 7000 SCT017 12/06
                        Q1021 NOSIG=
200904021150 METAR COR EGLL 021150Z 04007KT 350V080 6000 BKN016 11/06
                        Q1021 NOSIG=
200904021120 METAR COR EGLL 021120Z 04006KT 360V080 6000 BKN013 10/06
                        Q1021 BECMG SCT015=
200904021050 METAR COR EGLL 021050Z 03007KT 360V060 6000 BKN012 10/06
                        Q1021 NOSIG=
200904021020 METAR COR EGLL 021020Z 05007KT 010V080 6000 BKN011 09/06
                        Q1021 NOSIG=
200904020950 METAR COR EGLL 020950Z 07009KT 5000 HZ BKN011 09/06 Q1021
                        NOSIG=
200904020920 METAR COR EGLL 020920Z 06008KT 5000 HZ BKN010 09/06 Q1021
                        NOSIG=
200904020850 METAR COR EGLL 020850Z 07007KT 5000 HZ BKN009 09/06 Q1021
                        BECMG BKN012=
200904020820 METAR COR EGLL 020820Z 05006KT 4800 HZ SCT007 BKN010 09/07
                        Q1021 BECMG 6000 NSW=
200904020750 METAR COR EGLL 020750Z 04005KT 010V080 4800 HZ SCT007 BKN009
                        08/07 Q1021 BECMG 6000 NSW=
200904020720 METAR COR EGLL 020720Z 05006KT 010V080 4800 BR BKN006 08/06
                        Q1021 BECMG 6000 NSW=
200904020650 METAR COR EGLL 020650Z 06008KT 3900 BR BKN006 08/06 Q1021
                        BECMG 6000 NSW=
200904020620 METAR COR EGLL 020620Z 06007KT 4000 BR BKN005 08/06 Q1021
                        BECMG 6000 NSW=
200904020550 METAR COR EGLL 020550Z 06008KT 4700 BR BKN005 08/06 Q1021
                        BECMG 6000 NSW=
200904020520 METAR COR EGLL 020520Z 06008KT 4800 BR BKN006 08/06 Q1021
                        TEMPO 6000 NSW=
200904020450 METAR COR EGLL 020450Z 05007KT 020V090 6000 BKN008 08/06
                        Q1020 NOSIG=
200904020420 METAR COR EGLL 020420Z 06007KT 6000 BKN008 08/06 Q1021 NOSIG=
200904020350 METAR COR EGLL 020350Z 06007KT 7000 BKN008 08/06 Q1021 NOSIG=
200904020320 METAR COR EGLL 020320Z 06008KT 8000 BKN009 08/06 Q1021 NOSIG=
200904020250 METAR COR EGLL 020250Z 06007KT 8000 BKN011 08/06 Q1021 TEMPO
                        BKN009=
200904020220 METAR EGLL 020220Z 06006KT 9000 OVC011 08/06 Q1021=
200904020150 METAR COR EGLL 020150Z 05005KT 010V070 9999 BKN012 08/06
                        Q1021 TEMPO BKN008=
200904020120 METAR COR EGLL 020120Z 04006KT 9999 BKN012 08/06 Q1022 TEMPO
                        BKN008=
200904020050 METAR COR EGLL 020050Z 04005KT 9999 SCT013 BKN036 08/05 Q1022
                        NOSIG=
200904020020 METAR COR EGLL 020020Z 04005KT 9999 FEW013 08/05 Q1022 NOSIG=
200904012350 METAR COR EGLL 012350Z 05005KT CAVOK 08/05 Q1022 NOSIG=
200904012320 METAR COR EGLL 012320Z 04005KT CAVOK 09/05 Q1022 NOSIG=
200904012250 METAR COR EGLL 012250Z 04005KT CAVOK 09/05 Q1022 NOSIG=
200904012220 METAR COR EGLL 012220Z 06006KT 030V090 CAVOK 09/05 Q1022
                        NOSIG=
200904012150 METAR COR EGLL 012150Z 06007KT CAVOK 10/05 Q1022 NOSIG=
200904012120 METAR COR EGLL 012120Z 06008KT CAVOK 10/05 Q1022 NOSIG=
200904012050 METAR COR EGLL 012050Z 06008KT CAVOK 11/05 Q1022 NOSIG=
200904012020 METAR COR EGLL 012020Z 06010KT 9999 FEW032 11/05 Q1022 NOSIG=
200904011950 METAR COR EGLL 011950Z 06011KT 9999 FEW032 12/05 Q1022 NOSIG=
200904011920 METAR COR EGLL 011920Z 05009KT 010V080 9999 FEW037 12/05
                        Q1022 NOSIG=
200904011850 METAR COR EGLL 011850Z 06011KT 9999 SCT040 13/05 Q1021 NOSIG=
200904011820 METAR COR EGLL 011820Z 06010KT 9999 SCT042 14/05 Q1021 NOSIG=
200904011750 METAR COR EGLL 011750Z 07010KT 9999 BKN045 14/05 Q1021 NOSIG=
200904011720 METAR COR EGLL 011720Z 06011KT 9999 FEW048 14/04 Q1021 NOSIG=
200904011650 METAR EGLL 011650Z 06012KT 030V090 9999 FEW048 15/04 Q1021=
200904011620 METAR COR EGLL 011620Z 06011KT 9999 FEW048 16/04 Q1021 NOSIG=
200904011550 METAR COR EGLL 011550Z 06010KT 9999 SCT048 16/04 Q1021 NOSIG=
200904011520 METAR COR EGLL 011520Z 07010KT 030V100 9999 SCT049 16/04
                        Q1021 NOSIG=
200904011450 METAR EGLL 011450Z 06010KT 9999 SCT048 16/04 Q1021 NOSIG=
200904011420 METAR COR EGLL 011420Z 07011KT 9999 BKN047 16/04 Q1022 NOSIG=
200904011350 METAR COR EGLL 011350Z 07011KT 030V100 9999 BKN045 15/04
                        Q1022 NOSIG=
200904011320 METAR COR EGLL 011320Z 07012KT 9999 BKN046 15/05 Q1022 NOSIG=
200904011250 METAR COR EGLL 011250Z 08010KT 9999 SCT040 SCT045 14/05 Q1023
                        NOSIG=
200904011220 METAR COR EGLL 011220Z 07010KT 030V110 9999 SCT040 SCT049
                        15/05 Q1023 NOSIG=
200904011150 METAR COR EGLL 011150Z 08011KT 9999 SCT045 14/05 Q1023 NOSIG=
200904011120 METAR COR EGLL 011120Z 07010KT 040V100 9999 SCT038 13/05
                        Q1023 NOSIG=
200904011050 METAR COR EGLL 011050Z 06009KT 9999 FEW034 13/05 Q1023 NOSIG=
200904011020 METAR COR EGLL 011020Z 06008KT 010V090 9999 FEW032 13/05
                        Q1024 NOSIG=
200904010950 METAR COR EGLL 010950Z 06009KT 9999 FEW030 13/05 Q1024 NOSIG=
200904010920 METAR COR EGLL 010920Z 09008KT 9999 FEW028 12/05 Q1024 NOSIG=
200904010850 METAR COR EGLL 010850Z 08008KT CAVOK 11/05 Q1023 NOSIG=
200904010820 METAR COR EGLL 010820Z 07005KT CAVOK 10/05 Q1023 NOSIG=
200904010750 METAR COR EGLL 010750Z 04004KT 010V080 CAVOK 09/04 Q1023
                        NOSIG=
200904010720 METAR EGLL 010720Z 35002KT CAVOK 07/04 Q1023=
200904010650 METAR COR EGLL 010650Z 35002KT CAVOK 06/03 Q1023 NOSIG=
200904010620 METAR COR EGLL 010620Z 00000KT CAVOK 05/03 Q1023 NOSIG=
200904010550 METAR COR EGLL 010550Z 00000KT 9999 FEW030 04/02 Q1023 NOSIG=
200904010520 METAR COR EGLL 010520Z VRB02KT 9999 FEW030 04/02 Q1023 NOSIG=
200904010450 METAR COR EGLL 010450Z 36003KT CAVOK 05/02 Q1022 NOSIG=
200904010420 METAR COR EGLL 010420Z 36003KT CAVOK 05/03 Q1022 NOSIG=
200904010350 METAR COR EGLL 010350Z VRB02KT 9999 FEW027 05/03 Q1022 NOSIG=
200904010320 METAR COR EGLL 010320Z 01002KT CAVOK 04/02 Q1022 NOSIG=
200904010250 METAR COR EGLL 010250Z 36002KT CAVOK 05/02 Q1022 NOSIG=
200904010220 METAR COR EGLL 010220Z 35003KT CAVOK 06/03 Q1023 NOSIG=
200904010150 METAR COR EGLL 010150Z 36002KT CAVOK 06/03 Q1023 NOSIG=
200904010120 METAR COR EGLL 010120Z 03003KT CAVOK 07/03 Q1023 NOSIG=
200904010050 METAR COR EGLL 010050Z 02002KT CAVOK 07/04 Q1023 NOSIG=
200904010020 METAR COR EGLL 010020Z 36003KT CAVOK 07/04 Q1023 NOSIG=

# No short TAF reports from EGLL in databse.

###################################
#  large TAF from EGLL
###################################
200905012257 TAF EGLL 012257Z 0200/0306 24006KT 9999 SCT030
                      PROB40 0200/0207 8000 BKN014
                      PROB30 0202/0206 4000 BR BKN006
                      PROB30 TEMPO 0302/0306 7000 SHRA=
200905011657 TAF EGLL 011657Z 0118/0224 22010KT 9999 SCT025 BKN040
                      BECMG 0121/0124 8000 BKN010
                      PROB30 0200/0205 3000 -RADZ BR BKN004
                      BECMG 0205/0208 28008KT 9999 SCT020=
200905011057 TAF EGLL 011057Z 0112/0218 21010KT 9999 SCT040
                      BECMG 0121/0124 8000 BKN010
                      PROB30 0200/0205 3000 RADZ BR BKN004
                      BECMG 0205/0208 27008KT 9999 SCT020=
200905010503 TAF EGLL 010503Z 0106/0212 VRB04KT 9999 FEW045
                      PROB30 0106/0108 8000
                      BECMG 0110/0113 24010KT
                      BECMG 0121/0124 8000 BKN010
                      PROB30 0200/0205 BKN004
                      BECMG 0204/0207 9999 FEW010=
200904302257 TAF EGLL 302257Z 0100/0206 15005KT 9999 FEW040
                      PROB40 0103/0107 4000 BR
                      BECMG 0110/0113 24010KT
                      BECMG 0121/0124 8000 BKN010
                      PROB30 TEMPO 0200/0205 BKN005
                      BECMG 0204/0206 9999 SCT010=
200904301703 TAF EGLL 301703Z 3018/0124 17007KT 9999 SCT030
                      BECMG 3022/0101 8000
                      PROB40 0103/0108 3000 BR BKN005
                      BECMG 0106/0109 9999
                      TEMPO 0107/0109 BKN012
                      BECMG 0111/0114 23010KT
                      BECMG 0121/0124 8000 BKN010=
200904301102 TAF EGLL 301102Z 3012/0118 17009KT 9999 SCT030
                      TEMPO 3012/3020 6000 SHRA
                      BECMG 3022/0101 8000
                      PROB40 0103/0108 4000 BR BKN005
                      BECMG 0106/0109 9999
                      TEMPO 0107/0109 BKN010
                      BECMG 0112/0115 23010KT=
200904300502 TAF EGLL 300502Z 3006/0112 17008KT 9999 BKN030
                      PROB40 TEMPO 3006/3012 7000 RA BKN014
                      TEMPO 3012/3019 6000 SHRA
                      PROB40 0103/0108 4000 BR BKN005=
200904292301 TAF EGLL 292301Z 3000/0106 18008KT CAVOK
                      BECMG 3000/3003 BKN020
                      TEMPO 3001/3024 8000 -RA -SHRA BKN014
                      PROB30 TEMPO 3006/3012 4000 RADZ BKN008
                      PROB40 0102/0106 8000=
200904291703 TAF EGLL 291703Z 2918/3024 18007KT 9999 FEW045
                      BECMG 3005/3008 7000 -RA BKN012
                      PROB40 3008/3011 4000 RADZ +RA BKN008
                      BECMG 3010/3012 9999 NSW SCT020 BKN040
                      PROB30 TEMPO 3013/3020 17015G25KT 5000 +SHRA
                       BKN014
                      BECMG 3020/3022 7000=
200904291055 TAF EGLL 291055Z 2912/3018 18007KT 9999 FEW035
                      BECMG 3005/3008 7000 -RA BKN012
                      PROB40 3008/3018 4000 RADZ +RA BKN008=
200904290503 TAF EGLL 290503Z 2906/3012 19007KT 5000 BR FEW035
                      PROB30 2906/2907 0700 BCFG
                      BECMG 2906/2909 9999 NSW
                      BECMG 3004/3007 5000 -RADZ BKN012
                      TEMPO 3006/3012 3000 RADZ BKN008=
200904290408 TAF AMD EGLL 290408Z 2904/3006 VRB04KT 5000 BR FEW035
                      PROB40 2904/2908 0500 BCFG BKN000
                      BECMG 2907/2909 9999 NSW
                      BECMG 2909/2912 21010KT
                      BECMG 3003/3006 4000 -RADZ BKN008=
200904282302 TAF EGLL 282302Z 2900/3006 VRB04KT 9999 FEW035
                      BECMG 2901/2904 5000 BR
                      PROB30 2904/2907 1200 MIFG
                      BECMG 2907/2909 9999 NSW
                      BECMG 2909/2912 21010KT
                      BECMG 3003/3006 4000 -RADZ BKN008=
200904282300 TAF AMD EGLL 290408Z 2904/3006 VRB04KT 5000 BR FEW035
                      PROB40 2904/2908 0500 BCFG BKN000
                      BECMG 2907/2909 9999 NSW
                      BECMG 2909/2912 21010KT
                      BECMG 3003/3006 4000 -RADZ BKN008=
200904281655 TAF EGLL 281655Z 2818/2924 VRB05KT 9999 SCT045
                      PROB30 TEMPO 2818/2820 6000 SHRA TSRA
                      BECMG 2900/2903 4000 BR
                      PROB30 2903/2907 1200 MIFG
                      BECMG 2907/2909 9999 NSW
                      BECMG 2912/2915 21010KT=
200904281100 TAF EGLL 281100Z 2812/2918 VRB05KT 9999 SCT030
                      TEMPO 2812/2820 7000 SHRA
                      PROB30 TEMPO 2813/2819 3000 +SHRA +TSRA
                      BECMG 2900/2903 4000 BR
                      PROB30 2903/2907 0500 FG VV///
                      BECMG 2907/2909 9999 NSW
                      BECMG 2912/2915 21010KT=
200904280857 TAF AMD EGLL 280857Z 2808/2912 VRB05KT 2500 BR BKN003
                      BECMG 2809/2811 9999 NSW SCT025
                      TEMPO 2810/2820 7000 SHRA
                      PROB30 TEMPO 2812/2819 4000 +SHRA +TSRA
                      BECMG 2900/2903 5000 BR
                      PROB40 2903/2907 0500 FG BKN000
                      BECMG 2907/2909 9999 NSW=
200904280504 TAF EGLL 280504Z 2806/2912 VRB05KT 0300 FG BKN000
                      BECMG 2806/2809 9999 NSW BKN012
                      BECMG 2809/2811 SCT025
                      TEMPO 2810/2820 7000 SHRA
                      PROB30 TEMPO 2812/2819 4000 +SHRA +TSRA
                      BECMG 2900/2903 5000 BR
                      PROB40 2903/2907 0500 FG BKN000
                      BECMG 2907/2909 9999 NSW=
200904280431 TAF AMD EGLL 280431Z 2804/2906 VRB05KT 0200 FG BKN000
                      PROB30 TEMPO 2804/2807 3000 VCFG FEW002
                      BECMG 2807/2809 9999 SCT020
                      TEMPO 2810/2820 7000 SHRA
                      PROB30 TEMPO 2812/2819 4000 +SHRA +TSRA
                      BECMG 2900/2903 7000
                      PROB40 2903/2906 1200 MIFG=
200904280128 TAF AMD EGLL 280128Z 2801/2906 VRB05KT 9999 SCT030
                      BECMG 2801/2803 6000
                      TEMPO 2802/2808 3000 BR
                      PROB30 TEMPO 2802/2807 0700 BCFG BKN001
                      BECMG 2807/2809 9999
                      TEMPO 2810/2820 7000 SHRA
                      PROB30 TEMPO 2812/2819 4000 +SHRA +TSRA
                      BECMG 2900/2903 7000
                      PROB40 2903/2906 1200 MIFG=
200904272300 TAF AMD EGLL 280431Z 2804/2906 VRB05KT 0200 FG BKN000
                      PROB30 TEMPO 2804/2807 3000 VCFG FEW002
                      BECMG 2807/2809 9999 SCT020
                      TEMPO 2810/2820 7000 SHRA
                      PROB30 TEMPO 2812/2819 4000 +SHRA +TSRA
                      BECMG 2900/2903 7000
                      PROB40 2903/2906 1200 MIFG=
200904271704 TAF EGLL 271704Z 2718/2824 VRB05KT 9999 SCT030
                      PROB30 TEMPO 2718/2721 7000 SHRA
                      PROB40 2802/2809 3000 BR BKN004
                      PROB30 TEMPO 2804/2807 1200 BKN001
                      TEMPO 2810/2819 7000 SHRA
                      PROB30 TEMPO 2812/2818 4000 +SHRA +TSRA=
200904271200 TAF AMD EGLL 271200Z 2712/2818 25008KT 8000 RA SCT030
                      TEMPO 2712/2714 4000 +RA BKN008
                      BECMG 2714/2716 9999 NSW
                      PROB30 TEMPO 2716/2811 7000 SHRA
                      TEMPO 2804/2809 BKN008
                      TEMPO 2811/2818 7000 SHRA
                      PROB30 TEMPO 2812/2818 4000 +SHRA +TSRA=
200904271103 TAF EGLL 271103Z 2712/2818 19014KT 8000 RA SCT030
                      TEMPO 2712/2714 19016G27KT 4000 +RA BKN008
                       BECMG 2714/2716 25006KT 9999 NSW
                      PROB30 TEMPO 2716/2811 7000 SHRA
                      TEMPO 2804/2809 BKN008
                      TEMPO 2811/2818 7000 SHRA
                      PROB30 TEMPO 2812/2818 4000 +SHRA +TSRA=
200904270501 TAF EGLL 270501Z 2706/2812 18010KT 9999 SCT012
                      BECMG 2706/2709 19017G27KT 7000 RA BKN012
                       TEMPO 2708/2714 3000 +RA RADZ BKN008
                      BECMG 2713/2716 25007KT 9999 NSW FEW012 BKN030
                       PROB40
                      TEMPO 2716/2812 4000 SHRA BKN010=
200904262305 TAF EGLL 262305Z 2700/2806 19007KT 9999 FEW040
                      PROB30 2703/2707 7000 BKN010
                      BECMG 2707/2709 19017G27KT 7000 RA BKN012
                       TEMPO 2708/2714 3000 +RA RADZ BKN008
                      BECMG 2712/2715 25007KT 9999 NSW FEW012 BKN030
                       PROB40 2715/2806 4000 RA BKN010=
200904261700 TAF EGLL 261700Z 2618/2724 20007KT 9999 FEW040
                      PROB30 TEMPO 2622/2702 7000 SHRA
                      PROB30 2702/2707 7000
                      BECMG 2707/2709 8000 -RA
                      TEMPO 2708/2713 19015G25KT 4500 RA BKN012
                       BECMG 2713/2715 9999 NSW
                      PROB30 TEMPO 2715/2719 7000 SHRA=
200904261107 TAF EGLL 261107Z 2612/2718 18007KT 9999 FEW045
                      PROB30 TEMPO 2618/2702 7000 SHRA
                      PROB30 2702/2707 5000 HZ
                      BECMG 2707/2709 8000 -RA
                      TEMPO 2708/2713 19015G25KT 4500 RA BKN014
                       BECMG 2712/2715 9999 NSW=
200904260500 TAF EGLL 260500Z 2606/2712 15004KT 9999 FEW035
                      PROB30 2606/2608 5000 HZ
                      BECMG 2709/2711 8000 -RA
                      PROB30 2710/2712 BKN014=
200904252256 TAF EGLL 252256Z 2600/2706 14004KT 9999 FEW035
                      BECMG 2600/2603 8000
                      PROB30 2603/2607 4000 BR
                      BECMG 2607/2610 9999=
200904251659 TAF EGLL 251659Z 2518/2624 16007KT 9999 SCT030
                      BECMG 2600/2603 8000
                      PROB30 2603/2607 4000 BR
                      BECMG 2607/2610 9999=
200904251059 TAF EGLL 251059Z 2512/2618 21012KT 9999 SCT030
                      BECMG 2520/2523 15005KT
                      BECMG 2600/2603 8000
                      PROB30 2603/2607 4000 BR
                      BECMG 2607/2610 9999=
200904250458 TAF EGLL 250458Z 2506/2612 11010KT 9999 SCT040
                      PROB40 2506/2509 7000 RA
                      BECMG 2508/2512 21014KT
                      BECMG 2518/2522 14005KT
                      BECMG 2600/2603 8000
                      PROB30 2603/2607 4000 BR
                      BECMG 2607/2610 9999=
200904242258 TAF EGLL 242258Z 2500/2606 11010KT CAVOK
                      PROB40 2506/2509 7000 RA BKN020
                      BECMG 2508/2512 21015G25KT
                      BECMG 2518/2522 16007KT
                      BECMG 2600/2603 8000
                      PROB30 2603/2606 4000 BR=
200904241702 TAF EGLL 241702Z 2418/2524 13012KT CAVOK
                      PROB40 2507/2510 7000 RA BKN020
                      BECMG 2508/2512 21015G25KT
                      BECMG 2518/2522 14007KT=
200904241059 TAF EGLL 241059Z 2412/2518 15015G25KT CAVOK
                      BECMG 2418/2420 13012KT
                      PROB40 TEMPO 2507/2510 7000 SHRA BKN020
                      BECMG 2509/2513 21015G25KT=
200904240457 TAF EGLL 240457Z 2406/2512 12009KT CAVOK
                      PROB30 2406/2408 8000
                      PROB30 TEMPO 2413/2420 14015G25KT
                      PROB40 TEMPO 2507/2510 7000 SHRA BKN020
                      BECMG 2509/2512 23014KT=
200904232256 TAF EGLL 232256Z 2400/2506 12007KT CAVOK
                      PROB30 2404/2408 8000
                      PROB30 TEMPO 2413/2420 14015G25KT=
200904231701 TAF EGLL 231701Z 2318/2424 14006KT CAVOK
                      PROB30 2405/2408 9000
                      PROB40 TEMPO 2413/2418 14015G25KT=
200904231055 TAF EGLL 231055Z 2312/2418 19010KT 9999 FEW035
                      BECMG 2317/2320 13005KT
                      PROB30 2405/2408 9000=
200904230459 TAF EGLL 230459Z 2306/2412 VRB04KT 6000 NSC
                      PROB30 2306/2308 4000 BR
                      BECMG 2307/2310 17010KT CAVOK=
200904222305 TAF EGLL 222305Z 2300/2406 23004KT CAVOK
                      BECMG 2302/2305 8000
                      PROB30 2304/2308 4000 BR BKN004
                      BECMG 2308/2311 17010KT CAVOK=
200904221657 TAF EGLL 221657Z 2218/2324 VRB05KT CAVOK
                      BECMG 2300/2303 7000
                      PROB40 2303/2308 4000 BR BKN004
                      BECMG 2308/2311 17010KT CAVOK=
200904221056 TAF EGLL 221056Z 2212/2318 VRB05KT CAVOK
                      BECMG 2300/2303 7000
                      PROB40 2303/2308 4000 BR BKN004
                      BECMG 2308/2311 17010KT CAVOK=
200904220503 TAF EGLL 220503Z 2206/2312 34005KT 7000 NSC
                      BECMG 2206/2208 CAVOK
                      BECMG 2300/2303 7000
                      PROB30 2303/2308 3000 BR BKN004
                      BECMG 2308/2311 17010KT CAVOK=
200904212256 TAF EGLL 212256Z 2200/2306 35005KT CAVOK
                      PROB30 2203/2208 7000
                      BECMG 2300/2303 7000
                      PROB30 2303/2306 4000 BR=
200904211700 TAF EGLL 211700Z 2118/2224 28010KT 9999 FEW040
                      BECMG 2121/2124 VRB05KT
                      PROB40 2202/2209 7000=
200904211057 TAF EGLL 211057Z 2112/2218 29007KT 9999 FEW040
                      PROB30 TEMPO 2112/2115 8000
                      PROB40 2202/2209 7000=
200904210500 TAF EGLL 210500Z 2106/2212 29005KT 8000 FEW035
                      PROB40 2106/2108 4000 BR
                      BECMG 2107/2110 9999
                      BECMG 2200/2203 8000=
200904202257 TAF EGLL 202257Z 2100/2206 09005KT 9999 FEW035
                      BECMG 2100/2103 8000
                      PROB30 2104/2107 4000 HZ
                      BECMG 2107/2110 9999
                      BECMG 2200/2203 8000=
200904201700 TAF EGLL 201700Z 2018/2124 03003KT CAVOK
                      BECMG 2023/2102 8000
                      PROB30 2104/2107 4000 HZ
                      BECMG 2107/2110 CAVOK=
200904201101 TAF EGLL 201101Z 2012/2118 02005KT 9999 FEW040
                      BECMG 2023/2102 8000
                      PROB30 2104/2107 4000 HZ
                      BECMG 2107/2110 9999=
200904200525 TAF AMD EGLL 200525Z 2006/2112 01006KT 4000 VCFG FEW030
                      TEMPO 2006/2008 0300 PRFG BKN001
                      BECMG 2008/2010 9999 NSW
                      BECMG 2100/2103 8000
                      TEMPO 2103/2108 4000 BR=
200904200502 TAF EGLL 200502Z 2006/2112 01006KT 6000 FEW030
                      TEMPO 2006/2008 3000 VCFG BKN004
                      BECMG 2008/2010 9999
                      BECMG 2100/2103 8000
                      TEMPO 2103/2108 4000 BR=
200904192255 TAF EGLL 192255Z 2000/2106 02006KT 9999 FEW030
                      BECMG 2001/2004 8000
                      PROB30 2004/2008 3000 BR BKN004
                      BECMG 2008/2010 9999
                      BECMG 2100/2103 8000
                      PROB30 2103/2106 4000 BR=
200904191656 TAF EGLL 191656Z 1918/2024 04007KT 9999 FEW030
                      BECMG 2001/2004 8000
                      PROB40 2004/2008 3000 BR BKN004
                      BECMG 2008/2010 9999=
200904191100 TAF EGLL 191100Z 1912/2018 04008KT 9999 FEW025
                      BECMG 2001/2004 8000
                      PROB30 2005/2008 3000 BR BKN004
                      BECMG 2008/2010 9999=
200904190502 TAF EGLL 190502Z 1906/2012 04010KT 9999 FEW030
                      PROB40 TEMPO 1906/1908 7000 BKN008
                      BECMG 1918/1921 6000
                      PROB30 TEMPO 2000/2007 3000 BR
                      BECMG 2008/2010 9999=
200904182301 TAF EGLL 182301Z 1900/2006 04010KT 9999 FEW030
                      BECMG 1900/1903 8000
                      BECMG 1907/1910 9999
                      BECMG 1918/1921 6000
                      PROB30 TEMPO 2000/2006 3000 BR=
200904181650 TAF EGLL 181650Z 1818/1924 04010KT 9999 FEW030
                      BECMG 1900/1903 8000
                      BECMG 1907/1910 9999=
200904181101 TAF EGLL 181101Z 1812/1918 04010KT 9999 SCT025
                      TEMPO 1903/1909 8000 BKN010=
200904180757 TAF AMD EGLL 180757Z 1808/1912 04008KT 9000 BKN011
                      BECMG 1808/1811 9999 SCT020
                      BECMG 1902/1904 5000 BR BKN010
                      PROB30 TEMPO 1904/1907 BKN004
                      BECMG 1908/1911 9999 NSW SCT015=
200904180502 TAF EGLL 180502Z 1806/1912 04008KT 9999 SCT025
                      PROB40 1806/1808 7000
                      BECMG 1902/1904 5000 BR BKN010
                      PROB30 TEMPO 1904/1907 BKN004
                      BECMG 1908/1911 9999 NSW SCT015=
200904172259 TAF EGLL 172259Z 1800/1906 04008KT 6000 SCT025
                      TEMPO 1800/1805 9999
                      BECMG 1805/1808 9999
                      PROB30 TEMPO 1902/1906 5000 BR BKN010=
200904172002 TAF AMD EGLL 172002Z 1720/1824 05010KT 6000 SCT018
                      PROB40 TEMPO 1720/1723 4000 RA BKN010
                      TEMPO 1722/1806 9999
                      BECMG 1806/1809 9999=
200904171805 TAF AMD EGLL 171805Z 1718/1824 34007KT 3000 -RA SCT012 BKN018
                      TEMPO 1718/1722 RA BKN010
                      BECMG 1718/1721 05010KT
                      BECMG 1721/1724 6000
                      BECMG 1806/1809 9999=
200904171703 TAF EGLL 171703Z 1718/1824 34007KT 7000 HZ SCT012
                      TEMPO 1718/1722 4000 RA BKN012
                      BECMG 1718/1721 05010KT
                      BECMG 1806/1809 9999=
200904171511 TAF AMD EGLL 171511Z 1715/1818 34007KT 4000 -RA BKN008
                      BECMG 1716/1720 7000 NSW BKN012
                      BECMG 1717/1720 05010KT
                      BECMG 1722/1802 9999 SCT020=
200904171212 TAF AMD EGLL 171212Z 1712/1818 32007KT 4500 HZ BKN008
                      BECMG 1712/1715 7000 NSW BKN012
                      PROB40 TEMPO 1715/1722 4000 RA BKN008
                      BECMG 1717/1720 05010KT
                      BECMG 1722/1802 9999 SCT020=
200904171121 TAF COR EGLL 171121Z 1712/1818 32007KT 8000 BKN008
                      BECMG 1712/1715 BKN012
                      PROB40 TEMPO 1715/1722 4000 RA BKN008
                      BECMG 1717/1720 05010KT
                      BECMG 1722/1802 9999 SCT020=
200904171104 TAF EGLL 171104Z 1712/1818 32007KT 8000 BKN008
                      BECMG 1712/1715 BKN012
                      PROB40 TEMPO 1715/1722 4000 RA BKN008 1717/1720
                       05010KT
                      BECMG 1722/1802 9999 SCT020=
200904170557 TAF AMD EGLL 170557Z 1706/1812 32007KT 6000 -RA BKN015
                      PROB40 1706/1712 3000 RA BR BKN006
                      BECMG 1712/1715 9999 NSW SCT025
                      BECMG 1718/1721 04010KT
                      TEMPO 1718/1724 6000 RA BKN014=
200904170456 TAF EGLL 170456Z 1706/1812 32007KT 6000 -RA BKN012
                      PROB40 1706/1712 3000 RA BR BKN006
                      BECMG 1712/1715 9999 NSW SCT025
                      BECMG 1718/1721 04010KT
                      TEMPO 1718/1724 6000 RA BKN014=
200904170154 TAF AMD EGLL 170154Z 1701/1806 VRB05KT 6000 -RADZ BKN012
                      PROB40 1701/1713 3000 RA BR BKN006
                      PROB30 TEMPO 1701/1703 SCT015
                      BECMG 1712/1715 9999 NSW SCT025
                      BECMG 1715/1718 04010KT
                      TEMPO 1719/1802 6000 RA BKN014=
200904162300 TAF AMD EGLL 170154Z 1701/1806 VRB05KT 6000 -RADZ BKN012
                      PROB40 1701/1713 3000 RA BR BKN006
                      PROB30 TEMPO 1701/1703 SCT015
                      BECMG 1712/1715 9999 NSW SCT025
                      BECMG 1715/1718 04010KT
                      TEMPO 1719/1802 6000 RA BKN014=
200904162257 TAF EGLL 162257Z 1700/1806 VRB05KT 4000 -RADZ BR BKN012
                      PROB40 1700/1713 RA BKN006
                      PROB30 TEMPO 1700/1703 SCT015
                      BECMG 1712/1715 9999 NSW SCT025
                      BECMG 1715/1718 04010KT
                      TEMPO 1719/1802 6000 RA BKN014=
200904162055 TAF AMD EGLL 162055Z 1620/1724 VRB03KT 6000 BKN025
                      PROB30 TEMPO 1620/1622 4000 BR SHRA
                      BECMG 1622/1701 4000 RA BR BKN012
                      PROB30 1700/1718 BKN006
                      BECMG 1718/1721 04010KT 9999 NSW SCT020=
200904161705 TAF EGLL 161705Z 1618/1724 VRB03KT 9999 FEW045
                      PROB30 TEMPO 1618/1622 5000 +SHRA
                      BECMG 1622/1701 5000 RA BKN012
                      PROB30 1700/1718 3000 +RA BR BKN006
                      BECMG 1718/1721 04010KT 9999 NSW SCT020=
200904161104 TAF EGLL 161104Z 1612/1718 VRB03KT 9999 FEW045
                      PROB30 TEMPO 1612/1620 7000 SHRA
                      BECMG 1620/1624 7000 RA BKN014
                      PROB30 1700/1718 4000 +RA BR BKN008=
200904160456 TAF EGLL 160456Z 1606/1712 14006KT 9999 FEW045
                      PROB30 TEMPO 1610/1621 7000 SHRA
                      BECMG 1617/1620 25010KT
                      BECMG 1621/1624 7000 RA BKN014
                      PROB30 TEMPO 1700/1712 4000 +RA BKN008=
200904160318 TAF AMD EGLL 160318Z 1603/1706 10008KT 9999 FEW045
                      PROB30 TEMPO 1603/1605 7000 SHRA
                      BECMG 1611/1615 7000 RA BKN014
                      PROB30 TEMPO 1612/1706 4000 +RA BKN008
                      BECMG 1615/1618 24010KT=
200904152300 TAF AMD EGLL 160318Z 1603/1706 10008KT 9999 FEW045
                      PROB30 TEMPO 1603/1605 7000 SHRA
                      BECMG 1611/1615 7000 RA BKN014
                      PROB30 TEMPO 1612/1706 4000 +RA BKN008
                      BECMG 1615/1618 24010KT=
200904152257 TAF EGLL 152257Z 1600/1706 09010KT 7000 FEW045
                      BECMG 1600/1603 VRB05KT 9999
                      TEMPO 1600/1605 3000 SHRA TSRA
                      BECMG 1611/1615 7000 RA BKN014
                      PROB30 TEMPO 1612/1706 4000 +RA BKN008
                      BECMG 1615/1618 24010KT=
200904151706 TAF EGLL 151706Z 1518/1624 08010KT 7000 FEW045
                      PROB40 1518/1613 9999
                      PROB30 TEMPO 1518/1609 +TSRA
                      BECMG 1609/1611 16010KT
                      BECMG 1612/1616 RA BKN014
                      PROB30 TEMPO 1612/1624 4000 +RA BKN008
                      BECMG 1616/1619 22008KT=
200904151059 TAF EGLL 151059Z 1512/1618 06010KT 4500 HZ SCT020
                      BECMG 1512/1514 7000 NSW
                      TEMPO 1513/1519 09015G25KT
                      PROB30 TEMPO 1516/1610 4000 +SHRA +TSRA BR
                       BECMG 1610/1613 16010KT 9999=
200904150943 TAF AMD EGLL 150943Z 1509/1612 07008KT 3000 HZ BKN009
                      BECMG 1510/1513 6000 NSW SCT020
                      PROB30 1512/1520 9999
                      PROB30 TEMPO 1513/1517 3000 +TSRA
                      TEMPO 1514/1518 10015G25KT
                      PROB40 TEMPO 1522/1612 4000 +SHRA +TSRA=
200904150505 TAF EGLL 150505Z 1506/1612 07008KT 6000 FEW025
                      PROB30 1506/1509 3000 BR BKN008
                      PROB30 1511/1520 9999
                      PROB30 TEMPO 1513/1517 3000 +TSRA
                      TEMPO 1514/1518 10015G25KT
                      PROB40 TEMPO 1522/1612 4000 +SHRA +TSRA=
200904142303 TAF EGLL 142303Z 1500/1606 07007KT 7000 FEW025
                      PROB30 TEMPO 1500/1504 4000 +SHRA +TSRA
                      PROB40 1504/1509 3000 BR BKN008
                      PROB30 1511/1520 9999
                      TEMPO 1513/1518 10015G25KT
                      PROB40 TEMPO 1600/1604 4000 +SHRA +TSRA=
200904142120 TAF AMD EGLL 142120Z 1421/1524 08006KT 8000 FEW025
                      PROB30 TEMPO 1421/1504 4000 +SHRA +TSRA
                      PROB40 1504/1509 3000 BR BKN008
                      PROB30 1511/1520 9999=
200904141659 TAF EGLL 141659Z 1418/1524 08006KT 9999 SCT030
                      PROB40 TEMPO 1418/1506 SHRA
                      BECMG 1418/1422 7000
                      PROB30 TEMPO 1421/1501 4000 +SHRA
                      BECMG 1500/1503 BKN007
                      PROB40 1500/1508 3000 BR BKN004
                      BECMG 1508/1511 FEW020
                      PROB30 1511/1520 9999=
200904141104 TAF EGLL 141104Z 1412/1518 13006KT 9999 SCT030
                      PROB40 TEMPO 1412/1506 SHRA
                      BECMG 1418/1422 07010KT 7000
                      PROB30 TEMPO 1421/1500 +SHRA
                      BECMG 1500/1503 BKN007
                      PROB40 1500/1508 3000 BR BKN004
                      BECMG 1508/1511 FEW020
                      PROB30 1511/1518 9999=
200904140504 TAF EGLL 140504Z 1406/1512 13006KT 9999 SCT030
                      TEMPO 1406/1409 8000
                      TEMPO 1412/1506 7000 SHRA
                      BECMG 1418/1421 07010KT
                      PROB30 TEMPO 1421/1503 +TSRA
                      BECMG 1500/1503 6000 BKN007
                      PROB40 1500/1508 3000 BR BKN004
                      BECMG 1508/1511 FEW020=
200904132302 TAF EGLL 132302Z 1400/1506 17005KT 9999 SCT040
                      TEMPO 1403/1409 8000
                      PROB30 1403/1408 4000 BR BKN007
                      PROB40 TEMPO 1412/1506 7000 SHRA
                      BECMG 1418/1421 08010KT
                      PROB30 TEMPO 1421/1503 +TSRA
                      BECMG 1500/1503 6000
                      PROB40 1503/1506 3000 BR BKN004=
200904131656 TAF EGLL 131656Z 1318/1424 17005KT 9999 SCT040
                      BECMG 1321/1324 8000
                      PROB30 1403/1408 4000 BR BKN007
                      BECMG 1408/1411 9999
                      PROB30 TEMPO 1412/1424 7000 SHRA
                      BECMG 1418/1421 08010KT=
200904131057 TAF EGLL 131057Z 1312/1418 VRB05KT 9999 SCT015
                      PROB30 TEMPO 1312/1314 8000
                      BECMG 1321/1324 8000
                      PROB30 1403/1408 4000 BR BKN007
                      BECMG 1408/1411 9999
                      PROB30 TEMPO 1412/1418 7000 SHRA=
200904130735 TAF AMD EGLL 130735Z 1307/1412 VRB04KT 3000 BR SCT015
                      TEMPO 1307/1310 BKN005
                      BECMG 1310/1312 8000 NSW
                      BECMG 1312/1314 9999
                      BECMG 1321/1324 8000
                      PROB30 TEMPO 1403/1408 4000 BR BKN007
                      BECMG 1408/1411 9999=
200904130503 TAF EGLL 130503Z 1306/1412 VRB04KT 2000 BR BKN010
                      TEMPO 1306/1310 BKN005
                      PROB30 1306/1308 1200 BKN002
                      BECMG 1310/1312 8000 NSW SCT015
                      BECMG 1312/1314 9999
                      BECMG 1321/1324 8000
                      PROB30 TEMPO 1403/1408 4000 BR BKN007
                      BECMG 1408/1411 9999=
200904122301 TAF EGLL 122301Z 1300/1406 VRB04KT 3000 BR SCT012
                      TEMPO 1300/1303 BKN008
                      BECMG 1303/1306 BKN004
                      PROB40 1305/1308 1000 BKN001
                      BECMG 1308/1310 BKN006
                      BECMG 1310/1312 8000 NSW SCT015
                      BECMG 1312/1314 9999
                      BECMG 1321/1324 8000=
200904122103 TAF AMD EGLL 122103Z 1221/1324 VRB04KT 6000 SCT012 BKN025
                      PROB40 TEMPO 1221/1223 4000 HZ BKN012
                      BECMG 1223/1303 3000 BR BKN008
                      BECMG 1303/1306 BKN004
                      PROB40 1305/1308 1000 BKN001
                      BECMG 1308/1310 BKN006
                      BECMG 1310/1312 8000 NSW SCT015
                      BECMG 1312/1314 9999
                      BECMG 1321/1324 8000=
200904121701 TAF EGLL 121701Z 1218/1324 VRB04KT 6000 OVC012
                      BECMG 1223/1303 3000 BR BKN008
                      BECMG 1303/1306 BKN004
                      PROB40 1305/1308 1000 BKN001
                      BECMG 1308/1310 BKN006
                      BECMG 1310/1312 8000 NSW SCT015
                      BECMG 1312/1314 9999
                      BECMG 1321/1324 8000=
200904121444 TAF AMD EGLL 121444Z 1214/1318 36005KT 8000 OVC011
                      TEMPO 1215/1224 SCT012 BKN020
                      PROB40 1219/1224 4000 HZ
                      BECMG 1300/1303 3000 BR BKN008
                      BECMG 1302/1305 BKN004
                      PROB40 1305/1308 1000 BKN001
                      BECMG 1307/1309 BKN006
                      BECMG 1309/1311 8000 NSW SCT015
                      BECMG 1311/1313 9999=
200904121106 TAF EGLL 121106Z 1212/1318 36005KT 4000 BR BKN008
                      BECMG 1212/1214 6000 NSW SCT012 BKN020
                      TEMPO 1219/1224 4000 HZ BKN010
                      BECMG 1300/1303 3000 BR BKN008
                      BECMG 1302/1305 BKN004
                      PROB40 1305/1308 1000 BKN001
                      BECMG 1307/1309 BKN006
                      BECMG 1309/1311 8000 NSW SCT015
                      BECMG 1311/1313 9999=
200904120504 TAF EGLL 120504Z 1206/1312 02005KT 3000 -RA BKN007
                      TEMPO 1206/1209 BKN004
                      PROB30 TEMPO 1206/1208 5000 SCT007
                      BECMG 1208/1211 7000 NSW BKN010
                      BECMG 1211/1214 9999 BKN016
                      BECMG 1219/1222 7000 BKN012
                      PROB40 1222/1306 3000 BR BKN004
                      BECMG 1307/1310 9999 SCT020=
200904120207 TAF AMD EGLL 120207Z 1202/1306 36005KT 3000 BR BKN007
                      TEMPO 1202/1211 -RADZ BKN004
                      PROB40 TEMPO 1202/1208 5000 SCT007
                      BECMG 1208/1211 7000 NSW BKN010
                      BECMG 1211/1214 9999 BKN016
                      BECMG 1221/1224 7000
                      PROB40 1300/1306 3000 BR BKN004=
200904112304 TAF EGLL 112304Z 1200/1306 36005KT 3000 BR BKN007
                      TEMPO 1200/1211 -RADZ BKN004
                      BECMG 1208/1211 7000 NSW BKN010
                      BECMG 1211/1214 9999 BKN016
                      BECMG 1221/1224 7000
                      PROB40 1300/1306 3000 BR BKN004=
200904112300 TAF AMD EGLL 120207Z 1202/1306 36005KT 3000 BR BKN007
                      TEMPO 1202/1211 -RADZ BKN004
                      PROB40 TEMPO 1202/1208 5000 SCT007
                      BECMG 1208/1211 7000 NSW BKN010
                      BECMG 1211/1214 9999 BKN016
                      BECMG 1221/1224 7000
                      PROB40 1300/1306 3000 BR BKN004=
200904111702 TAF EGLL 111702Z 1118/1224 36005KT 9999 SCT010 BKN018
                      BECMG 1118/1121 7000 BKN010
                      TEMPO 1121/1211 3000 -RADZ BR BKN005
                      BECMG 1211/1214 9999 BKN020
                      BECMG 1221/1224 7000=
200904111105 TAF EGLL 111105Z 1112/1218 35005KT 8000 SCT008 BKN018
                      TEMPO 1112/1211 4000 -RADZ BKN007
                      PROB40 TEMPO 1112/1120 9999
                      BECMG 1211/1214 9999=
200904110849 TAF AMD EGLL 110849Z 1108/1212 33005KT 2500 -DZ BKN005
                      BECMG 1109/1112 7000 NSW SCT008 BKN015
                      TEMPO 1112/1211 4000 -RADZ BKN007=
200904110652 TAF COR EGLL 110652Z 1106/1212 33005KT 4000 DZ BKN004
                      TEMPO 1106/1107 BKN009
                      BECMG 1106/1109 7000 -RA
                      BECMG 1109/1111 9999
                      PROB30 1121/1207 6000=
200904110635 TAF AMD EGLL 110635Z 1106/1212 33005KT 4000 DZ BKN004 1106/1107
                       BKN009
                      BECMG 1106/1109 7000 -RA
                      BECMG 1109/1111 9999
                      PROB30 1121/1207 6000=
200904110503 TAF EGLL 110503Z 1106/1212 33005KT 4000 DZ BKN012
                      PROB30 TEMPO 1106/1107 BKN009
                      BECMG 1106/1109 7000 -RA BKN018
                      BECMG 1109/1111 9999
                      PROB30 1121/1207 7000=
200904102256 TAF EGLL 102256Z 1100/1206 31005KT 6000 -RA BKN015
                      TEMPO 1100/1109 3000 RADZ BKN008
                      PROB30 1100/1107 BKN004
                      BECMG 1111/1114 9999
                      PROB30 1121/1206 7000=
200904101704 TAF EGLL 101704Z 1018/1124 19006KT 8000 -RA BKN010
                      TEMPO 1018/1109 3000 RADZ BKN008
                      PROB30 TEMPO 1018/1021 9999 NSW BKN015
                      PROB30 TEMPO 1100/1106 BKN004
                      BECMG 1102/1105 34010KT
                      BECMG 1111/1114 9999 NSW SCT015 BKN035=
200904101105 TAF EGLL 101105Z 1012/1118 18008KT 9999 -RA SCT012 BKN030
                      TEMPO 1012/1015 7000 RA BKN012
                      BECMG 1015/1018 5000 -RADZ BR BKN012
                      TEMPO 1015/1109 3000 RADZ BKN008
                      PROB30 TEMPO 1100/1106 BKN004
                      BECMG 1109/1112 9999 NSW SCT015 BKN035=
200904100505 TAF EGLL 100505Z 1006/1112 19007KT 9999 SCT045
                      PROB40 TEMPO 1006/1015 7000 RA BKN014
                      BECMG 1015/1018 5000 -RADZ BR BKN014
                      PROB40 1015/1024 3000 RADZ BKN008
                      BECMG 1100/1103 4000 BKN008
                      PROB30 1100/1106 1400 RADZ BKN004
                      BECMG 1110/1112 9999 NSW SCT020=
200904092258 TAF EGLL 092258Z 1000/1106 15010KT 9999 SCT045
                      PROB40 TEMPO 1006/1015 7000 -RA BKN014
                      BECMG 1015/1018 5000 -RADZ BKN014
                      PROB40 1015/1024 3000 RADZ BKN008
                      BECMG 1100/1103 4000 BKN008
                      PROB30 1100/1106 1400 RADZ BR BKN004=
200904091657 TAF EGLL 091657Z 0918/1024 15010KT 9999 FEW018 BKN040
                      TEMPO 1006/1024 7000 -RA BKN012
                      PROB40 TEMPO 1009/1024 4000 RA BKN009=
200904091101 TAF EGLL 091101Z 0912/1018 16012KT 9999 BKN012
                      PROB40 TEMPO 0912/0914 4000 -RADZ BKN007
                       BECMG 0914/0917 SCT015
                      PROB40 1003/1006 7000
                      TEMPO 1006/1018 7000 -RA BKN012
                      PROB40 TEMPO 1009/1018 4000 RA BKN009=
200904090520 TAF COR EGLL 090520Z 0906/1012 16008KT 9999 BKN008
                      PROB40 0906/0911 4000 -RADZ BKN003
                      BECMG 0914/0917 SCT025
                      PROB40 1003/1006 7000
                      TEMPO 1006/1012 7000 -RA BKN014
                      PROB40 1008/1012 4000 RA BKN009=
200904090456 TAF EGLL 090456Z 0906/1012 16008KT 9999 BKN008
                      PROB40 0906/0911 4000 -RADZ BKN003
                      BECMG 0912/0915 9999
                      BECMG 0914/0917 SCT025
                      PROB40 1003/1006 7000
                      TEMPO 1006/1012 7000 -RA BKN014
                      PROB40 1008/1012 4000 RA BKN009=
200904090324 TAF AMD EGLL 090324Z 0903/1006 17008KT 9999 BKN008
                      BECMG 0903/0906 7000
                      PROB40 0903/0910 4000 -RADZ BKN004
                      BECMG 0911/0914 9999
                      BECMG 0914/0917 SCT025
                      PROB40 1000/1006 7000=
200904082303 TAF EGLL 082303Z 0900/1006 17008KT 9999 FEW040
                      BECMG 0900/0903 7000 BKN012
                      PROB40 0902/0910 4000 -RADZ BKN004
                      BECMG 0911/0914 9999
                      BECMG 0914/0917 SCT025
                      PROB40 1000/1006 7000=
200904082300 TAF AMD EGLL 090324Z 0903/1006 17008KT 9999 BKN008
                      BECMG 0903/0906 7000
                      PROB40 0903/0910 4000 -RADZ BKN004
                      BECMG 0911/0914 9999
                      BECMG 0914/0917 SCT025
                      PROB40 1000/1006 7000=
200904081700 TAF EGLL 081700Z 0818/0924 27013KT 9999 FEW030
                      BECMG 0823/0902 17010KT
                      BECMG 0901/0904 7000 BKN012
                      PROB40 0903/0910 3000 -RADZ BKN006
                      BECMG 0910/0913 9999 SCT025
                      BECMG 0919/0922 11010KT=
200904081054 TAF EGLL 081054Z 0812/0918 27013KT 9999 SCT030
                      BECMG 0823/0902 17010KT 7000
                      BECMG 0901/0904 BKN012
                      PROB40 0903/0910 3000 -RADZ BKN006
                      BECMG 0910/0912 9999 SCT025=
200904080511 TAF EGLL 080511Z 0806/0912 18017G27KT 9999 SCT030
                      BECMG 0806/0808 27013KT
                      TEMPO 0806/0807 8000 -RA BKN014
                      BECMG 0823/0902 17010KT 7000
                      BECMG 0901/0904 BKN012
                      PROB40 0903/0910 3000 -RADZ BKN006=
200904072257 TAF EGLL 072257Z 0800/0906 17012KT 9999 SCT040
                      BECMG 0800/0803 18019G29KT
                      PROB40 0801/0807 8000 -RA BKN014
                      PROB30 TEMPO 0803/0806 4000 RA BKN009
                      BECMG 0807/0809 27012KT
                      BECMG 0821/0901 17008KT 7000
                      BECMG 0901/0904 BKN010
                      PROB40 0903/0906 3000 -RADZ BKN005=
200904071658 TAF EGLL 071658Z 0718/0824 20013KT 9999 SCT035
                      BECMG 0800/0804 18019G29KT 8000 -RA BKN014
                       TEMPO 0803/0807 4000 RA BKN009
                      BECMG 0807/0809 27012KT 9999 FEW030
                      BECMG 0821/0823 VRB05KT=
200904071101 TAF EGLL 071101Z 0712/0818 22010KT 9999 SCT035
                      BECMG 0801/0804 18018G28KT 8000 -RA BKN014
                       TEMPO 0803/0807 4000 RA BKN009
                      BECMG 0807/0809 27012KT 9999 NSW FEW030=
200904070502 TAF EGLL 070502Z 0706/0812 22010KT 9999 SCT025
                      BECMG 0800/0803 18018G28KT 8000 -RA BKN014
                       TEMPO 0803/0806 4000 RA BKN009
                      BECMG 0806/0808 27012KT 9999 NSW FEW030=
200904062304 TAF EGLL 062304Z 0700/0806 21010KT 9999 SCT020
                      PROB30 TEMPO 0700/0706 8000 -DZ BKN012
                      PROB30 TEMPO 0712/0717 23015G25KT
                      BECMG 0800/0803 18018G28KT 8000 -RA BKN014
                       TEMPO 0803/0806 4000 RA BKN009=
200904061656 TAF EGLL 061656Z 0618/0724 18013KT 9999 SCT040
                      PROB40 0623/0706 7000 -RA BKN012
                      BECMG 0707/0710 24012KT
                      PROB30 TEMPO 0711/0716 23015G25KT 7000 SHRA
                       BECMG 0721/0724 18012KT=
200904061057 TAF EGLL 061057Z 0612/0718 18013KT 9999 FEW035
                      PROB40 TEMPO 0623/0706 7000 -RA BKN012
                      BECMG 0707/0710 24012KT
                      PROB30 TEMPO 0711/0716 23015G25KT 7000 SHRA=
200904061004 TAF AMD EGLL 061004Z 0610/0712 17013KT 8000 FEW035
                      BECMG 0610/0613 9999
                      PROB40 TEMPO 0623/0707 7000 -RA BKN012
                      BECMG 0707/0710 24010KT=
200904060553 TAF AMD EGLL 060553Z 0606/0712 10007KT 4000 HZ FEW035
                      BECMG 0607/0610 9999 NSW
                      BECMG 0610/0613 18012KT
                      PROB40 TEMPO 0623/0707 7000 -RA BKN012
                      BECMG 0707/0710 24010KT=
200904060500 TAF EGLL 060500Z 0606/0712 10007KT 7000 FEW035
                      BECMG 0607/0609 9999
                      BECMG 0610/0613 18012KT
                      PROB40 TEMPO 0623/0707 7000 -RA BKN012
                      BECMG 0707/0710 24010KT=
200904052301 TAF EGLL 052301Z 0600/0706 14008KT 9999 FEW030
                      PROB40 0601/0608 8000
                      PROB40 TEMPO 0623/0703 7000 RA BKN011
                      PROB40 0704/0706 8000=
200904051656 TAF EGLL 051656Z 0518/0624 13005KT 9999 FEW040
                      BECMG 0523/0602 8000
                      PROB30 0602/0607 4000 BR
                      BECMG 0607/0610 9999
                      PROB30 TEMPO 0615/0622 17015G25KT
                      PROB40 0619/0624 7000 RA BKN014
                      PROB30 0621/0624 BKN008=
200904051056 TAF EGLL 051056Z 0512/0618 14007KT 9999 SCT045
                      BECMG 0601/0604 8000
                      PROB30 0604/0607 4000 BR
                      BECMG 0607/0610 9999=
200904050450 TAF EGLL 050450Z 0506/0612 09006KT 9999 FEW040
                      BECMG 0601/0604 8000
                      PROB30 0604/0607 4000 BR
                      BECMG 0607/0609 9999=
200904042252 TAF EGLL 042252Z 0500/0606 02005KT 9999 FEW040
                      PROB40 0505/0508 8000
                      BECMG 0507/0510 13010KT
                      PROB40 0600/0606 8000=
200904041657 TAF EGLL 041657Z 0418/0524 27010KT 9999 FEW030
                      PROB40 0505/0508 8000
                      BECMG 0507/0510 VRB05KT
                      BECMG 0514/0517 14010KT=
200904041052 TAF EGLL 041052Z 0412/0518 26010KT 9999 FEW030
                      BECMG 0504/0506 8000
                      BECMG 0507/0510 VRB04KT 9999=
200904040454 TAF EGLL 040454Z 0406/0512 21008KT 4000 BR BKN012
                      TEMPO 0406/0410 RA BKN006
                      BECMG 0409/0412 27010KT 9999 NSW SCT020
                      BECMG 0421/0424 VRB04KT
                      TEMPO 0500/0507 8000=
200904032303 TAF EGLL 032303Z 0400/0506 21009KT 2000 BR BKN005
                      PROB40 TEMPO 0402/0409 BKN015
                      PROB30 0406/0408 RA
                      BECMG 0409/0412 27010KT 9999 NSW SCT020=
200904031856 TAF AMD EGLL 031856Z 0318/0424 22005KT 3000 HZ NSC
                      BECMG 0321/0324 BKN008
                      PROB30 TEMPO 0322/0402 BKN004
                      TEMPO 0404/0410 BKN015
                      PROB30 0406/0408 RA
                      BECMG 0409/0411 9999 NSW SCT020=
200904031700 TAF EGLL 031700Z 0318/0424 22005KT 5000 HZ NSC
                      BECMG 0321/0324 BKN008
                      TEMPO 0322/0409 4000 BR
                      PROB30 TEMPO 0322/0402 BKN004
                      TEMPO 0404/0410 BKN015
                      PROB30 0406/0408 RA
                      BECMG 0409/0411 9999 SCT020=
200904031222 TAF AMD EGLL 031222Z 0312/0418 VRB04KT 4000 HZ BKN012
                      BECMG 0312/0314 6000 NSW SCT015
                      PROB30 0314/0319 9999
                      BECMG 0321/0324 BKN007
                      TEMPO 0322/0408 4000 BR
                      PROB30 TEMPO 0322/0402 BKN003
                      BECMG 0403/0406 BKN013
                      PROB30 TEMPO 0405/0407 RA
                      BECMG 0408/0410 27010KT 9999 SCT020=
200904031057 TAF EGLL 031057Z 0312/0418 VRB04KT 7000 BKN012
                      BECMG 0312/0314 SCT015
                      PROB30 0314/0319 9999
                      BECMG 0321/0324 BKN007
                      TEMPO 0322/0408 4000 BR
                      PROB30 TEMPO 0322/0402 BKN003
                      BECMG 0403/0406 BKN013
                      PROB30 TEMPO 0405/0407 RA
                      BECMG 0408/0410 27010KT 9999 SCT020=
200904030454 TAF EGLL 030454Z 0306/0412 VRB05KT 1400 BR BKN002
                      BECMG 0306/0309 4000 BKN005
                      BECMG 0310/0313 8000 NSW SCT015
                      PROB30 0313/0318 9999
                      PROB30 0400/0410 4000 BR RADZ BKN010
                      BECMG 0403/0406 20010KT
                      BECMG 0410/0412 30010KT 9999=
200904030303 TAF AMD EGLL 030303Z 0303/0406 VRB05KT 2000 BR BKN005
                      PROB40 0303/0309 1200 BKN002
                      BECMG 0310/0313 8000 NSW SCT015
                      PROB30 0313/0318 9999
                      PROB30 0400/0406 4000 BR BKN010=
200904022300 TAF AMD EGLL 030303Z 0303/0406 VRB05KT 2000 BR BKN005
                      PROB40 0303/0309 1200 BKN002
                      BECMG 0310/0313 8000 NSW SCT015
                      PROB30 0313/0318 9999
                      PROB30 0400/0406 4000 BR BKN010=
200904022258 TAF EGLL 022258Z 0300/0406 VRB05KT 4000 BR FEW005
                      PROB40 0300/0309 1400 BKN003
                      BECMG 0310/0313 8000 NSW SCT015
                      PROB30 0313/0318 9999
                      PROB30 0400/0406 4000 BR BKN010=
200904021808 TAF AMD EGLL 021808Z 0218/0324 03007KT 9999 FEW015
                      BECMG 0218/0221 7000
                      BECMG 0221/0224 4000 BR BKN008
                      PROB30 TEMPO 0300/0309 BKN003
                      BECMG 0310/0313 8000 NSW SCT015
                      PROB30 TEMPO 0313/0318 9999=
200904021656 TAF EGLL 021656Z 0218/0324 03007KT 7000 FEW015
                      BECMG 0221/0224 4000 BR BKN008
                      PROB30 TEMPO 0300/0309 BKN003
                      BECMG 0310/0313 8000 NSW SCT015
                      PROB30 TEMPO 0313/0318 9999=
200904021234 TAF AMD EGLL 021234Z 0212/0318 07010KT 7000 SCT018
                      TEMPO 0213/0220 9999
                      TEMPO 0222/0309 4000 BR BKN007
                      PROB30 TEMPO 0300/0309 BKN003
                      BECMG 0310/0313 9999 SCT015=
200904021119 TAF COR EGLL 021119Z 0212/0318 07010KT 7000 BKN012
                      TEMPO 0214/0220 9999 BKN016
                      TEMPO 0222/0309 4000 BR BKN007
                      PROB30 TEMPO 0300/0309 BKN003
                      BECMG 0310/0313 9999 SCT015=
200904021102 TAF EGLL 021102Z 0212/0318 07010KT 7000 BKN012
                      TEMPO 0214/0220 9999 BKN016
                      TEMPO 0222/0309 4000 BR BKN007
                      PROB30 TEMPO 0300/0309 BKN003 0310/0313 9999
                       SCT015=
200904020830 TAF AMD EGLL 020830Z 0208/0312 05008KT 7000 BKN010
                      TEMPO 0208/0210 4500 BR BKN007
                      BECMG 0209/0212 9999 SCT020
                      BECMG 0300/0304 7000
                      PROB30 0302/0308 4000 BR BKN008
                      BECMG 0308/0311 9999=
200904020458 TAF EGLL 020458Z 0206/0312 05008KT 7000 BKN009
                      PROB30 0206/0208 3000 BR BKN004
                      BECMG 0208/0211 9999 SCT020
                      BECMG 0300/0304 7000
                      PROB30 0302/0308 4000 BR BKN008
                      BECMG 0308/0311 9999=
200904020125 TAF AMD EGLL 020125Z 0201/0306 05008KT 9999 BKN011
                      BECMG 0201/0204 6000
                      PROB40 0202/0208 3000 BR BKN005
                      BECMG 0208/0211 9999 SCT025
                      BECMG 0300/0304 7000=
200904012300 TAF AMD EGLL 020125Z 0201/0306 05008KT 9999 BKN011
                      BECMG 0201/0204 6000
                      PROB40 0202/0208 3000 BR BKN005
                      BECMG 0208/0211 9999 SCT025
                      BECMG 0300/0304 7000=
200904012257 TAF EGLL 012257Z 0200/0306 05008KT 9999 FEW025
                      BECMG 0200/0204 6000
                      PROB40 0204/0208 3000 BR BKN005
                      BECMG 0208/0211 9999
                      BECMG 0300/0304 7000=
200904011635 TAF EGLL 011635Z 0118/0224 05008KT 9999 FEW025
                      BECMG 0123/0202 6000
                      TEMPO 0203/0210 BKN008
                      PROB40 0204/0208 3000 BR BKN003
                      BECMG 0209/0212 9999
                      PROB30 0221/0224 8000=
200904011035 TAF EGLL 011035Z 0112/0218 08010KT 9999 FEW030
                      BECMG 0123/0202 6000
                      BECMG 0203/0206 3000 BR BKN003
                      BECMG 0206/0209 6000 NSW BKN008
                      BECMG 0209/0212 9999 SCT015
                      TEMPO 0212/0218 8000 TAF=
200904010500 TAF EGLL 010500Z 0106/0212 VRB04KT 9999 SCT045
                      PROB40 0106/0109 8000
                      PROB30 0106/0108 4000 BR
                      BECMG 0108/0111 06010KT
                      BECMG 0123/0202 6000
                      BECMG 0203/0206 3000 BR BKN003
                      BECMG 0206/0209 6000 NSW BKN008
                      BECMG 0209/0212 9999 SCT015=
