##########################################################
# Query made at 01/13/2020 13:00:33 UTC
# Time interval: from 04/01/2017 00:00  to 05/01/2017 23:59  UTC
##########################################################

##########################################################
# EGLL, London / Heathrow Airport (United Kingdom)
# WMO index: 03772
# Latitude 51-29N. Longitude 000-27W. Altitude 24 m.
##########################################################

###################################
#  METAR/SPECI from EGLL
###################################
201704302350 METAR COR EGLL 302350Z AUTO 16007KT 9999 -RA BKN011 BKN027
                        OVC048 10/09 Q0999 TEMPO FEW014 SCT024=
201704302320 METAR COR EGLL 302320Z AUTO 15004KT 9999 -RA FEW015 10/08
                        Q0999 TEMPO BKN014=
201704302250 METAR COR EGLL 302250Z AUTO 16011KT 9999 -RA SCT013 BKN024
                        11/09 Q0999 NOSIG=
201704302220 METAR COR EGLL 302220Z AUTO 13010KT 9999 -RA BKN014 12/09
                        Q0999 TEMPO FEW014 BKN020=
201704302150 METAR COR EGLL 302150Z AUTO 12012KT 9999 -RA SCT017 OVC032
                        12/09 Q0999 NOSIG=
201704302120 METAR COR EGLL 302120Z AUTO 13008KT 9999 -RA FEW020 SCT031
                        12/09 Q0998 NOSIG=
201704302050 METAR COR EGLL 302050Z AUTO 12008KT 9999 -RA SCT044 12/09
                        Q0998 NOSIG=
201704302020 METAR COR EGLL 302020Z AUTO 12009KT 9999 OVC040 13/08 Q0998
                        NOSIG=
201704301950 METAR COR EGLL 301950Z AUTO 12010KT 9999 -RA NCD 13/08 Q0998
                        NOSIG=
201704301920 METAR COR EGLL 301920Z AUTO 14012KT 9999 SCT033 14/07 Q0998
                        NOSIG=
201704301850 METAR COR EGLL 301850Z AUTO 15013KT 9999 BKN036 14/06 Q0998
                        NOSIG=
201704301820 METAR COR EGLL 301820Z AUTO 13010KT 9999 OVC049 15/03 Q0998
                        NOSIG=
201704301750 METAR COR EGLL 301750Z AUTO 12011KT 9999 OVC049 15/03 Q0998
                        TEMPO RA=
201704301720 METAR COR EGLL 301720Z AUTO 12009KT 9999 NCD 15/04 Q0998
                        TEMPO RA=
201704301650 METAR COR EGLL 301650Z AUTO 12011KT 9999 NCD 15/04 Q0998
                        NOSIG=
201704301620 METAR COR EGLL 301620Z AUTO 12009KT 9999 NCD 15/04 Q0998
                        NOSIG=
201704301550 METAR COR EGLL 301550Z AUTO 13011KT 9999 FEW026 BKN048 15/04
                        Q0999 NOSIG=
201704301520 METAR COR EGLL 301520Z AUTO 14014KT 9999 FEW028 15/04 Q0999
                        NOSIG=
201704301450 METAR COR EGLL 301450Z AUTO 14015KT 9999 NCD 15/04 Q0999
                        NOSIG=
201704301420 METAR COR EGLL 301420Z AUTO 14014KT 9999 NCD 17/03 Q0999
                        NOSIG=
201704301350 METAR COR EGLL 301350Z AUTO 13014KT 9999 NCD 17/04 Q0999
                        NOSIG=
201704301320 METAR COR EGLL 301320Z AUTO 13014KT 9999 NCD 16/04 Q0999
                        NOSIG=
201704301250 METAR COR EGLL 301250Z AUTO 12015KT 9999 NCD 17/04 Q0999
                        NOSIG=
201704301220 METAR COR EGLL 301220Z AUTO 12017KT 9999 NCD 16/03 Q0999
                        NOSIG=
201704301150 METAR COR EGLL 301150Z AUTO 11017KT 9999 NCD 17/03 Q1000
                        NOSIG=
201704301120 METAR COR EGLL 301120Z AUTO 11017KT 9999 NCD 17/03 Q1000
                        NOSIG=
201704301050 METAR COR EGLL 301050Z AUTO 11019KT 9999 NCD 17/02 Q1000
                        NOSIG=
201704301020 METAR COR EGLL 301020Z AUTO 09014KT 060V120 9999 NCD 16/03
                        Q1001 NOSIG=
201704300950 METAR COR EGLL 300950Z AUTO 10016KT 9999 NCD 16/02 Q1001
                        NOSIG=
201704300920 METAR COR EGLL 300920Z AUTO 11016KT 9999 NCD 16/03 Q1002
                        NOSIG=
201704300850 METAR COR EGLL 300850Z AUTO 10013KT 9999 NCD 15/03 Q1002
                        NOSIG=
201704300820 METAR COR EGLL 300820Z AUTO 10013KT 9999 NCD 14/04 Q1003
                        NOSIG=
201704300750 METAR COR EGLL 300750Z AUTO 10013KT 9999 NCD 13/04 Q1003
                        NOSIG=
201704300720 METAR COR EGLL 300720Z AUTO 10011KT 9999 NCD 12/04 Q1004
                        NOSIG=
201704300650 METAR COR EGLL 300650Z AUTO 10010KT 9999 NCD 11/04 Q1004
                        NOSIG=
201704300620 METAR COR EGLL 300620Z AUTO 10010KT 9999 NCD 11/04 Q1005
                        NOSIG=
201704300550 METAR COR EGLL 300550Z AUTO 10009KT 9999 NCD 10/03 Q1005
                        NOSIG=
201704300520 METAR COR EGLL 300520Z AUTO 09008KT 9999 NCD 09/03 Q1005
                        NOSIG=
201704300450 METAR COR EGLL 300450Z AUTO 09007KT 9999 NCD 09/03 Q1005
                        NOSIG=
201704300420 METAR COR EGLL 300420Z AUTO 09009KT 9999 NCD 09/03 Q1006
                        NOSIG=
201704300350 METAR COR EGLL 300350Z AUTO 10009KT 9999 NCD 10/03 Q1006
                        NOSIG=
201704300320 METAR COR EGLL 300320Z AUTO 10009KT 9999 NCD 10/03 Q1007
                        NOSIG=
201704300250 METAR COR EGLL 300250Z AUTO 10013KT 9999 NCD 10/03 Q1007
                        NOSIG=
201704300220 METAR COR EGLL 300220Z AUTO 11012KT 9999 NCD 11/03 Q1007
                        NOSIG=
201704300150 METAR COR EGLL 300150Z AUTO 11014KT 9999 NCD 11/03 Q1008
                        NOSIG=
201704300120 METAR COR EGLL 300120Z AUTO 12016KT 9999 NCD 11/03 Q1008
                        NOSIG=
201704300050 METAR COR EGLL 300050Z AUTO 12015KT 9999 NCD 12/03 Q1009
                        NOSIG=
201704300020 METAR COR EGLL 300020Z AUTO 12017KT 9999 NCD 12/03 Q1009
                        NOSIG=
201704292350 METAR COR EGLL 292350Z AUTO 12014KT 9999 NCD 12/03 Q1009
                        NOSIG=
201704292320 METAR COR EGLL 292320Z AUTO 12013KT 9999 NCD 12/03 Q1009
                        NOSIG=
201704292250 METAR COR EGLL 292250Z AUTO 12012KT 9999 NCD 12/03 Q1010
                        NOSIG=
201704292220 METAR COR EGLL 292220Z AUTO 11012KT 9999 NCD 12/04 Q1010
                        NOSIG=
201704292150 METAR COR EGLL 292150Z AUTO 11012KT 9999 NCD 12/04 Q1010
                        NOSIG=
201704292120 METAR COR EGLL 292120Z AUTO 11012KT 9999 NCD 12/04 Q1010
                        NOSIG=
201704292050 METAR COR EGLL 292050Z AUTO 11011KT 9999 NCD 12/04 Q1011
                        NOSIG=
201704292020 METAR COR EGLL 292020Z AUTO 12012KT 9999 NCD 13/03 Q1011
                        NOSIG=
201704291950 METAR COR EGLL 291950Z AUTO 11010KT 9999 NCD 12/03 Q1011
                        NOSIG=
201704291920 METAR COR EGLL 291920Z AUTO 12011KT 9999 NCD 13/03 Q1011
                        NOSIG=
201704291850 METAR COR EGLL 291850Z AUTO 13009KT 9999 NCD 13/02 Q1011
                        NOSIG=
201704291820 METAR COR EGLL 291820Z AUTO 14010KT 9999 NCD 14/02 Q1011
                        NOSIG=
201704291750 METAR COR EGLL 291750Z AUTO 14010KT 9999 NCD 14/03 Q1011
                        NOSIG=
201704291720 METAR COR EGLL 291720Z AUTO 15011KT 9999 NCD 14/03 Q1012
                        NOSIG=
201704291650 METAR COR EGLL 291650Z AUTO 15009KT 9999 NCD 15/03 Q1012
                        NOSIG=
201704291620 METAR COR EGLL 291620Z AUTO 17010KT 9999 BKN048 14/03 Q1012
                        NOSIG=
201704291550 METAR COR EGLL 291550Z AUTO 15009KT 9999 NCD 15/03 Q1013
                        NOSIG=
201704291520 METAR COR EGLL 291520Z AUTO 15010KT 9999 BKN048 14/03 Q1013
                        NOSIG=
201704291450 METAR COR EGLL 291450Z AUTO 18009KT 130V220 9999 BKN048 16/03
                        Q1013 NOSIG=
201704291420 METAR COR EGLL 291420Z AUTO 16009KT 120V200 9999 OVC041 15/03
                        Q1014 NOSIG=
201704291350 METAR COR EGLL 291350Z AUTO 15008KT 110V230 9999 OVC038 14/04
                        Q1014 NOSIG=
201704291320 METAR COR EGLL 291320Z AUTO 16005KT 100V230 9999 BKN034 13/05
                        Q1015 NOSIG=
201704291250 METAR COR EGLL 291250Z AUTO 14008KT 120V200 9999 SCT030 13/05
                        Q1015 NOSIG=
201704291220 METAR COR EGLL 291220Z AUTO 22005KT 170V270 9999 SCT030 OVC044
                        13/06 Q1015 NOSIG=
201704291150 METAR COR EGLL 291150Z AUTO 22008KT 170V250 9999 BKN035 12/06
                        Q1015 NOSIG=
201704291120 METAR COR EGLL 291120Z AUTO 22007KT 140V250 9999 OVC044 12/06
                        Q1015 NOSIG=
201704291050 METAR COR EGLL 291050Z AUTO 23008KT 190V260 9999 FEW028 OVC047
                        12/06 Q1016 NOSIG=
201704291020 METAR COR EGLL 291020Z AUTO 20006KT 150V240 9999 NCD 12/05
                        Q1016 NOSIG=
201704290950 METAR COR EGLL 290950Z AUTO 21007KT 150V250 9999 OVC049 11/05
                        Q1016 NOSIG=
201704290920 METAR COR EGLL 290920Z AUTO 22005KT 160V300 9999 OVC048 11/04
                        Q1016 NOSIG=
201704290850 METAR COR EGLL 290850Z AUTO 27004KT 200V330 9999 OVC048 10/04
                        Q1016 NOSIG=
201704290820 METAR COR EGLL 290820Z AUTO VRB03KT 9999 OVC049 09/04 Q1016
                        NOSIG=
201704290750 METAR COR EGLL 290750Z AUTO 19004KT 110V260 9999 OVC048 08/04
                        Q1017 NOSIG=
201704290720 METAR COR EGLL 290720Z AUTO VRB03KT 9999 OVC049 08/05 Q1017
                        NOSIG=
201704290650 METAR COR EGLL 290650Z AUTO 19004KT 140V240 9999 NCD 08/05
                        Q1017 NOSIG=
201704290620 METAR COR EGLL 290620Z AUTO VRB03KT 9999 OVC049 07/05 Q1017
                        NOSIG=
201704290550 METAR COR EGLL 290550Z AUTO VRB03KT 9999 NCD 07/05 Q1016
                        NOSIG=
201704290520 METAR COR EGLL 290520Z AUTO VRB03KT 9999 NCD 06/04 Q1016
                        NOSIG=
201704290450 METAR COR EGLL 290450Z AUTO VRB01KT 9999 OVC048 06/04 Q1016
                        NOSIG=
201704290420 METAR COR EGLL 290420Z AUTO VRB02KT 9999 BKN048 06/04 Q1016
                        NOSIG=
201704290350 METAR COR EGLL 290350Z AUTO 25003KT 9999 FEW049 06/04 Q1016
                        NOSIG=
201704290320 METAR COR EGLL 290320Z AUTO 27004KT 9999 NCD 06/04 Q1016
                        NOSIG=
201704290250 METAR COR EGLL 290250Z AUTO 27004KT 9999 FEW046 06/03 Q1016
                        NOSIG=
201704290220 METAR COR EGLL 290220Z AUTO 28004KT 9999 FEW045 06/04 Q1016
                        NOSIG=
201704290150 METAR COR EGLL 290150Z AUTO 28003KT 9999 FEW046 07/04 Q1016
                        NOSIG=
201704290120 METAR COR EGLL 290120Z AUTO 27004KT 9999 SCT043 08/04 Q1016
                        NOSIG=
201704290050 METAR COR EGLL 290050Z AUTO 27005KT 9999 FEW042 08/04 Q1016
                        NOSIG=
201704290020 METAR COR EGLL 290020Z AUTO 27005KT 9999 FEW033 BKN040 09/05
                        Q1016 NOSIG=
201704282350 METAR COR EGLL 282350Z AUTO 28007KT 9999 FEW031 BKN040 09/06
                        Q1017 NOSIG=
201704282320 METAR COR EGLL 282320Z AUTO 29007KT 9999 BKN036 10/06 Q1017
                        NOSIG=
201704282250 METAR COR EGLL 282250Z AUTO 26005KT 9999 BKN036 11/06 Q1017
                        NOSIG=
201704282220 METAR COR EGLL 282220Z AUTO 22007KT 9999 BKN038 11/06 Q1017
                        NOSIG=
201704282150 METAR COR EGLL 282150Z AUTO 23005KT 9999 BKN035 12/06 Q1017
                        NOSIG=
201704282120 METAR COR EGLL 282120Z AUTO VRB02KT 9999 OVC036 12/06 Q1017
                        NOSIG=
201704282050 METAR COR EGLL 282050Z AUTO VRB01KT 9999 BKN042 12/05 Q1017
                        NOSIG=
201704282020 METAR COR EGLL 282020Z AUTO VRB01KT 9999 BKN045 13/05 Q1017
                        NOSIG=
201704281950 METAR COR EGLL 281950Z AUTO 30003KT 9999 SCT048 12/05 Q1016
                        NOSIG=
201704281920 METAR COR EGLL 281920Z AUTO VRB01KT 9999 FEW047 13/05 Q1016
                        NOSIG=
201704281850 METAR COR EGLL 281850Z AUTO VRB03KT 9999 FEW036 BKN048 13/05
                        Q1016 NOSIG=
201704281820 METAR COR EGLL 281820Z AUTO 30004KT 270V340 9999 BKN044 12/05
                        Q1016 NOSIG=
201704281750 METAR COR EGLL 281750Z AUTO 29005KT 9999 BKN042 12/05 Q1016
                        NOSIG=
201704281720 METAR COR EGLL 281720Z AUTO 28006KT 9999 OVC041 13/05 Q1016
                        NOSIG=
201704281650 METAR COR EGLL 281650Z AUTO 26006KT 220V280 9999 BKN043 13/04
                        Q1016 NOSIG=
201704281620 METAR COR EGLL 281620Z AUTO 31004KT 240V040 9999 FEW045 14/04
                        Q1016 NOSIG=
201704281550 METAR COR EGLL 281550Z AUTO VRB02KT 9999 FEW041 14/04 Q1016
                        NOSIG=
201704281520 METAR COR EGLL 281520Z AUTO VRB03KT 9999 FEW039 14/04 Q1016
                        NOSIG=
201704281450 METAR EGLL 281450Z AUTO 24004KT 170V340 9999 NCD 14/05 Q1016=
201704281420 METAR COR EGLL 281420Z AUTO VRB03KT 9999 SCT034 13/05 Q1017
                        NOSIG=
201704281350 METAR COR EGLL 281350Z AUTO VRB03KT 9999 BKN030 12/05 Q1017
                        NOSIG=
201704281320 METAR COR EGLL 281320Z AUTO 29005KT 230V330 9999 FEW031 BKN047
                        13/05 Q1017 NOSIG=
201704281250 METAR COR EGLL 281250Z AUTO VRB05KT 9999 FEW041 12/06 Q1017
                        NOSIG=
201704281220 METAR COR EGLL 281220Z AUTO 26006KT 220V310 9999 BKN038 11/06
                        Q1017 NOSIG=
201704281150 METAR COR EGLL 281150Z AUTO 27004KT 9999 -RA BKN024 10/05
                        Q1017 NOSIG=
201704281120 METAR COR EGLL 281120Z AUTO VRB03KT 9999 -RA OVC026 10/05
                        Q1017 NOSIG=
201704281050 METAR COR EGLL 281050Z AUTO VRB03KT 9999 BKN027 11/04 Q1017
                        NOSIG=
201704281020 METAR COR EGLL 281020Z AUTO VRB02KT 9999 -RA BKN026 OVC041
                        10/04 Q1017 NOSIG=
201704280950 METAR COR EGLL 280950Z AUTO 33004KT 260V030 9999 BKN021 10/04
                        Q1017 NOSIG=
201704280920 METAR COR EGLL 280920Z AUTO 34004KT 300V020 9999 -RA BKN020
                        09/05 Q1017 NOSIG=
201704280850 METAR COR EGLL 280850Z AUTO 34004KT 280V040 9999 BKN016 OVC031
                        09/05 Q1017 NOSIG=
201704280820 METAR COR EGLL 280820Z AUTO 34004KT 310V020 9999 BKN010 10/06
                        Q1017 BECMG SCT018=
201704280750 METAR COR EGLL 280750Z AUTO 34004KT 310V030 9000 -RA BKN010
                        OVC034 09/06 Q1017 BECMG FEW013=
201704280720 METAR COR EGLL 280720Z AUTO 34004KT 300V020 9999 BKN011 OVC034
                        09/06 Q1017 BECMG FEW012=
201704280650 METAR COR EGLL 280650Z AUTO VRB03KT 9999 FEW009 BKN035 BKN049
                        08/06 Q1017 TEMPO BKN012=
201704280620 METAR COR EGLL 280620Z AUTO 30004KT 280V350 9999 BKN047 08/06
                        Q1017 TEMPO BKN012=
201704280550 METAR COR EGLL 280550Z AUTO 30004KT 270V340 9999 BKN044 08/06
                        Q1017 NOSIG=
201704280520 METAR COR EGLL 280520Z AUTO 30003KT 9999 SCT009 BKN045 08/06
                        Q1017 TEMPO BKN012=
201704280450 METAR COR EGLL 280450Z AUTO 30003KT 9999 BKN010 OVC042 08/06
                        Q1016 TEMPO SCT012 OVC042=
201704280420 METAR COR EGLL 280420Z AUTO 30003KT 9999 FEW010 OVC031 08/06
                        Q1016 TEMPO BKN012=
201704280350 METAR COR EGLL 280350Z AUTO 29004KT 9999 -RA BKN012 BKN026
                        08/06 Q1016 TEMPO SCT012 BKN026=
201704280320 METAR COR EGLL 280320Z AUTO 30003KT 9999 BKN012 BKN025 08/06
                        Q1016 TEMPO SCT012 BKN025=
201704280250 METAR COR EGLL 280250Z AUTO 30003KT 9999 -RA SCT015 SCT040
                        BKN048 08/06 Q1016 TEMPO BKN014=
201704280220 METAR COR EGLL 280220Z AUTO 28005KT 9999 FEW015 08/05 Q1016
                        TEMPO -RA BKN012=
201704280150 METAR COR EGLL 280150Z AUTO 29005KT 9999 BKN016 08/05 Q1016
                        TEMPO -RA BKN012=
201704280120 METAR COR EGLL 280120Z AUTO 28005KT 9999 FEW023 07/05 Q1017
                        TEMPO BKN014=
201704280050 METAR COR EGLL 280050Z AUTO 30005KT 260V330 9999 FEW040 08/05
                        Q1017 NOSIG=
201704280020 METAR COR EGLL 280020Z AUTO 29006KT 9999 SCT034 08/05 Q1017
                        NOSIG=
201704272350 METAR COR EGLL 272350Z AUTO 29006KT 9999 SCT032 08/05 Q1017
                        NOSIG=
201704272320 METAR COR EGLL 272320Z AUTO 29005KT 9999 SCT034 08/06 Q1017
                        NOSIG=
201704272250 METAR COR EGLL 272250Z AUTO 28005KT 9999 BKN029 08/06 Q1017
                        NOSIG=
201704272220 METAR COR EGLL 272220Z AUTO 29005KT 9999 SCT037 08/06 Q1017
                        NOSIG=
201704272150 METAR COR EGLL 272150Z AUTO 29007KT 9999 FEW028 08/06 Q1017
                        NOSIG=
201704272120 METAR COR EGLL 272120Z AUTO 27007KT 9999 BKN041 09/06 Q1017
                        NOSIG=
201704272050 METAR COR EGLL 272050Z AUTO 27007KT 9999 BKN038 09/06 Q1017
                        NOSIG=
201704272020 METAR COR EGLL 272020Z AUTO 27007KT 9999 FEW038 09/06 Q1017
                        NOSIG=
201704271950 METAR COR EGLL 271950Z AUTO 26008KT 9999 SCT033 08/06 Q1017
                        NOSIG=
201704271920 METAR COR EGLL 271920Z AUTO 27008KT 9999 FEW039 09/06 Q1017
                        NOSIG=
201704271850 METAR COR EGLL 271850Z AUTO 26009KT 9999 -RA BKN047 09/06
                        Q1017 NOSIG=
201704271820 METAR COR EGLL 271820Z AUTO 26009KT 9999 -RA BKN044 09/06
                        Q1017 NOSIG=
201704271750 METAR COR EGLL 271750Z AUTO 27007KT 9999 FEW025 OVC040 09/06
                        Q1017 NOSIG=
201704271720 METAR COR EGLL 271720Z AUTO 29009KT 9999 -RA BKN023 10/05
                        Q1017 NOSIG=
201704271650 METAR COR EGLL 271650Z AUTO 29007KT 250V360 9999 -RA OVC031
                        10/05 Q1017 NOSIG=
201704271620 METAR COR EGLL 271620Z AUTO 26009KT 9999 OVC032 10/03 Q1017
                        NOSIG=
201704271550 METAR COR EGLL 271550Z AUTO 27007KT 240V320 9999 -RA BKN032
                        10/04 Q1017 NOSIG=
201704271520 METAR COR EGLL 271520Z AUTO 29010KT 9999 -RA BKN032 11/03
                        Q1018 NOSIG=
201704271450 METAR COR EGLL 271450Z AUTO 28010KT 9999 -RA SCT031 SCT038
                        10/03 Q1018 NOSIG=
201704271420 METAR EGLL 271420Z AUTO 28010KT 9999 -RA OVC036 10/02 Q1018=
201704271350 METAR COR EGLL 271350Z AUTO 29009KT 250V340 9999 OVC036 11/02
                        Q1018 NOSIG=
201704271320 METAR COR EGLL 271320Z AUTO 31009KT 9999 -RA BKN030 OVC046
                        11/02 Q1018 NOSIG=
201704271250 METAR COR EGLL 271250Z AUTO 30010KT 280V340 9999 OVC036 11/00
                        Q1018 NOSIG=
201704271220 METAR COR EGLL 271220Z AUTO 28009KT 250V310 9999 OVC042 10/00
                        Q1019 NOSIG=
201704271150 METAR COR EGLL 271150Z AUTO 31007KT 270V350 9999 BKN043 10/M00
                        Q1019 NOSIG=
201704271120 METAR COR EGLL 271120Z AUTO 29008KT 260V330 9999 BKN040 10/M01
                        Q1019 NOSIG=
201704271050 METAR COR EGLL 271050Z AUTO 30009KT 270V350 9999 BKN040 10/M01
                        Q1019 NOSIG=
201704271020 METAR COR EGLL 271020Z AUTO 29009KT 260V320 9999 BKN044 10/M02
                        Q1020 NOSIG=
201704270950 METAR COR EGLL 270950Z AUTO 30009KT 280V360 9999 FEW037 10/M01
                        Q1020 NOSIG=
201704270920 METAR COR EGLL 270920Z AUTO 29007KT 260V320 9999 SCT038 09/01
                        Q1020 NOSIG=
201704270850 METAR COR EGLL 270850Z AUTO 27008KT 9999 NCD 08/02 Q1020
                        NOSIG=
201704270820 METAR COR EGLL 270820Z AUTO 29007KT 250V330 9999 NCD 07/02
                        Q1020 NOSIG=
201704270750 METAR COR EGLL 270750Z AUTO 28005KT 230V310 9999 NCD 06/02
                        Q1020 NOSIG=
201704270720 METAR COR EGLL 270720Z AUTO 28004KT 240V320 9999 NCD 05/02
                        Q1020 NOSIG=
201704270650 METAR COR EGLL 270650Z AUTO 27005KT 9999 NCD 04/02 Q1020
                        NOSIG=
201704270620 METAR EGLL 270620Z AUTO 28005KT 7000 NCD 03/02 Q1020=
201704270550 METAR COR EGLL 270550Z AUTO 28004KT 7000 NCD 02/01 Q1020
                        NOSIG=
201704270520 METAR COR EGLL 270520Z AUTO 28005KT 8000 NCD 01/00 Q1020
                        NOSIG=
201704270450 METAR COR EGLL 270450Z AUTO 28003KT 9000 NCD 01/00 Q1020
                        NOSIG=
201704270420 METAR COR EGLL 270420Z AUTO 27003KT 8000 NCD 01/00 Q1020
                        NOSIG=
201704270350 METAR COR EGLL 270350Z AUTO 26005KT 9000 NCD 01/00 Q1020
                        NOSIG=
201704270320 METAR COR EGLL 270320Z AUTO 27004KT 9999 NCD 01/M00 Q1020
                        NOSIG=
201704270250 METAR COR EGLL 270250Z AUTO 31003KT 9999 NCD 01/M00 Q1020
                        NOSIG=
201704270220 METAR COR EGLL 270220Z AUTO 30003KT 9999 NCD 02/00 Q1020
                        NOSIG=
201704270150 METAR COR EGLL 270150Z AUTO 33002KT 9999 NCD 03/01 Q1020
                        NOSIG=
201704270120 METAR COR EGLL 270120Z AUTO 31003KT 9999 NCD 03/01 Q1021
                        NOSIG=
201704270050 METAR COR EGLL 270050Z AUTO VRB02KT 9999 NCD 03/01 Q1021
                        NOSIG=
201704270020 METAR COR EGLL 270020Z AUTO VRB03KT 9999 NCD 03/01 Q1021
                        NOSIG=
201704262350 METAR COR EGLL 262350Z AUTO 31002KT 9999 NCD 03/01 Q1021
                        NOSIG=
201704262320 METAR COR EGLL 262320Z AUTO VRB02KT 9999 NCD 04/01 Q1021
                        NOSIG=
201704262250 METAR COR EGLL 262250Z AUTO VRB02KT 9999 NCD 04/01 Q1021
                        NOSIG=
201704262220 METAR COR EGLL 262220Z AUTO VRB02KT 8000 NCD 05/01 Q1021
                        NOSIG=
201704262150 METAR COR EGLL 262150Z AUTO VRB03KT 9999 NCD 05/01 Q1021
                        NOSIG=
201704262120 METAR COR EGLL 262120Z AUTO VRB03KT 9999 NCD 06/01 Q1021
                        NOSIG=
201704262050 METAR COR EGLL 262050Z AUTO 36005KT 320V030 9999 NCD 06/01
                        Q1021 NOSIG=
201704262020 METAR COR EGLL 262020Z AUTO 35004KT 310V020 9999 NCD 06/01
                        Q1020 NOSIG=
201704261950 METAR COR EGLL 261950Z AUTO VRB03KT 9999 NCD 06/01 Q1020
                        NOSIG=
201704261920 METAR COR EGLL 261920Z AUTO 01004KT 330V050 9999 NCD 07/01
                        Q1020 NOSIG=
201704261850 METAR COR EGLL 261850Z AUTO 05007KT 360V070 9999 FEW031 07/01
                        Q1020 NOSIG=
201704261820 METAR COR EGLL 261820Z AUTO 35005KT 270V030 9999 SCT034///
                        //////TCU 07/01 Q1019 NOSIG=
201704261750 METAR COR EGLL 261750Z AUTO 34005KT 310V020 9999 FEW036 08/01
                        Q1019 NOSIG=
201704261720 METAR COR EGLL 261720Z AUTO 02009KT 340V050 9999 NCD 08/01
                        Q1019 NOSIG=
201704261650 METAR EGLL 261650Z AUTO 01009KT 350V060 9999 FEW031/// //////CB
                        08/02 Q1019 NOSIG=
201704261620 METAR COR EGLL 261620Z AUTO 02011KT 340V050 9999 FEW035 09/01
                        Q1019 NOSIG=
201704261550 METAR COR EGLL 261550Z AUTO 03009KT 330V070 9999 FEW031///
                        //////CB 09/02 Q1018 NOSIG=
201704261520 METAR COR EGLL 261520Z AUTO 03008KT 350V080 9999 FEW027///
                        BKN036/// //////CB 08/03 Q1018 TEMPO
                        SHRA=
201704261450 METAR COR EGLL 261450Z AUTO 07006KT 030V110 9999 -RA FEW019///
                        SCT034/// BKN047/// //////CB 07/03
                        Q1018 TEMPO SHRA=
201704261420 METAR COR EGLL 261420Z AUTO 34005KT 290V030 9999 -RA FEW013///
                        BKN041/// //////CB 07/03 Q1018 TEMPO
                        SHRA=
201704261350 METAR COR EGLL 261350Z AUTO 02007KT 330V070 9999 //////CB
                        11/M00 Q1018 TEMPO SHRA=
201704261320 METAR COR EGLL 261320Z AUTO 33008KT 300V030 9999 FEW034///
                        //////CB 10/01 Q1018 TEMPO SHRA=
201704261250 METAR COR EGLL 261250Z AUTO 33007KT 300V020 9999 FEW009///
                        SCT036/// //////TCU 07/03 Q1018 TEMPO
                        SHRA=
201704261220 METAR COR EGLL 261220Z AUTO 01010KT 340V050 9999 -RA FEW022///
                        BKN033/// //////CB 08/01 Q1018 TEMPO
                        SHRA=
201704261150 METAR COR EGLL 261150Z AUTO 33011G23KT 280V020 9999 -RA SCT032
                        09/00 Q1018 TEMPO SHRA=
201704261120 METAR COR EGLL 261120Z AUTO 33009KT 9999 -RA FEW014/// SCT034///
                        //////TCU 10/00 Q1018 TEMPO SHRA=
201704261050 METAR COR EGLL 261050Z AUTO 03009KT 340V050 9999 -RA SCT033
                        BKN045 09/00 Q1018 TEMPO SHRA=
201704261020 METAR COR EGLL 261020Z AUTO 36009KT 320V030 9999 -RA FEW031
                        BKN043 08/M00 Q1018 NOSIG=
201704260950 METAR COR EGLL 260950Z AUTO 01010KT 320V060 9999 BKN028 09/00
                        Q1018 NOSIG=
201704260920 METAR COR EGLL 260920Z AUTO 36008KT 310V030 9999 BKN024 08/01
                        Q1018 NOSIG=
201704260850 METAR COR EGLL 260850Z AUTO 36009KT 320V040 9999 OVC021 07/01
                        Q1018 NOSIG=
201704260820 METAR COR EGLL 260820Z AUTO 01007KT 330V060 9999 BKN018 06/02
                        Q1018 NOSIG=
201704260750 METAR COR EGLL 260750Z AUTO 36007KT 310V050 9999 BKN016 06/02
                        Q1017 NOSIG=
201704260720 METAR COR EGLL 260720Z AUTO 36008KT 330V040 9999 BKN015 05/02
                        Q1017 NOSIG=
201704260650 METAR COR EGLL 260650Z AUTO 36007KT 320V050 9999 BKN015 05/02
                        Q1017 NOSIG=
201704260620 METAR COR EGLL 260620Z AUTO 35006KT 310V030 9999 BKN014 04/02
                        Q1017 BECMG SCT016=
201704260550 METAR COR EGLL 260550Z AUTO 36004KT 310V030 9999 BKN014 04/01
                        Q1017 BECMG SCT016=
201704260520 METAR COR EGLL 260520Z AUTO 36006KT 320V030 9999 OVC013 03/01
                        Q1016 NOSIG=
201704260450 METAR COR EGLL 260450Z AUTO 34005KT 310V010 9999 BKN012 03/01
                        Q1016 NOSIG=
201704260420 METAR COR EGLL 260420Z AUTO 35005KT 310V030 9999 OVC012 03/01
                        Q1016 TEMPO BKN015=
201704260350 METAR COR EGLL 260350Z AUTO 35004KT 310V040 9999 BKN013 03/01
                        Q1016 TEMPO SCT013=
201704260320 METAR COR EGLL 260320Z AUTO VRB03KT 9999 FEW013 SCT027 03/01
                        Q1016 NOSIG=
201704260250 METAR COR EGLL 260250Z AUTO 34004KT 290V020 9999 NCD 03/01
                        Q1016 NOSIG=
201704260220 METAR COR EGLL 260220Z AUTO 34006KT 300V010 9999 NCD 03/01
                        Q1016 NOSIG=
201704260150 METAR COR EGLL 260150Z AUTO 33005KT 300V020 9999 NCD 03/01
                        Q1016 NOSIG=
201704260120 METAR COR EGLL 260120Z AUTO 34004KT 270V040 9999 NCD 03/01
                        Q1016 NOSIG=
201704260050 METAR COR EGLL 260050Z AUTO VRB02KT 9999 NCD 03/01 Q1016
                        NOSIG=
201704260020 METAR COR EGLL 260020Z AUTO 32004KT 290V030 9999 FEW026 03/01
                        Q1016 NOSIG=
201704252350 METAR COR EGLL 252350Z AUTO 32005KT 9999 NCD 03/01 Q1016
                        NOSIG=
201704252320 METAR COR EGLL 252320Z AUTO 33004KT 300V030 9999 NCD 03/01
                        Q1016 NOSIG=
201704252250 METAR COR EGLL 252250Z AUTO 32006KT 290V010 9999 NCD 03/01
                        Q1016 NOSIG=
201704252220 METAR COR EGLL 252220Z AUTO 32004KT 270V360 9999 NCD 04/01
                        Q1016 NOSIG=
201704252150 METAR EGLL 252150Z AUTO 33004KT 290V020 9999 NCD 04/02 Q1016=
201704252120 METAR COR EGLL 252120Z AUTO 32005KT 300V360 9999 NCD 04/01
                        Q1015 NOSIG=
201704252050 METAR COR EGLL 252050Z AUTO 32004KT 9999 NCD 04/01 Q1015
                        NOSIG=
201704252020 METAR COR EGLL 252020Z AUTO 33006KT 290V350 9999 NCD 05/01
                        Q1015 NOSIG=
201704251950 METAR COR EGLL 251950Z AUTO 32005KT 300V360 9999 NCD 05/01
                        Q1015 NOSIG=
201704251920 METAR COR EGLL 251920Z AUTO 33005KT 300V020 9999 NCD 06/01
                        Q1014 NOSIG=
201704251850 METAR COR EGLL 251850Z AUTO 35006KT 310V030 9999 FEW022 SCT048
                        06/02 Q1014 NOSIG=
201704251820 METAR COR EGLL 251820Z AUTO 02007KT 330V060 9999 -RA FEW019///
                        SCT040/// //////TCU 06/02 Q1014 NOSIG=
201704251750 METAR COR EGLL 251750Z AUTO 02011KT 340V060 9999 FEW020 SCT045
                        09/M01 Q1013 NOSIG=
201704251720 METAR COR EGLL 251720Z AUTO 32004KT 250V040 9999 FEW044 09/M03
                        Q1013 TEMPO SHRA=
201704251650 METAR COR EGLL 251650Z AUTO 35006KT 310V040 9999 NCD 10/M03
                        Q1013 TEMPO SHRA=
201704251620 METAR COR EGLL 251620Z AUTO 33007KT 300V020 9999 //////TCU
                        10/M03 Q1013 NOSIG=
201704251550 METAR COR EGLL 251550Z AUTO 31011KT 9999 NCD 10/M03 Q1013
                        NOSIG=
201704251520 METAR COR EGLL 251520Z AUTO 34005KT 290V050 9999 NCD 11/M06
                        Q1013 NOSIG=
201704251450 METAR COR EGLL 251450Z AUTO 36007KT 310V040 9999 NCD 10/M06
                        Q1013 NOSIG=
201704251420 METAR COR EGLL 251420Z AUTO 30009KT 260V340 9999 NCD 12/M05
                        Q1013 NOSIG=
201704251350 METAR COR EGLL 251350Z AUTO 01008KT 310V050 9999 NCD 11/M06
                        Q1014 NOSIG=
201704251320 METAR COR EGLL 251320Z AUTO 32008KT 290V360 9999 NCD 09/M06
                        Q1014 NOSIG=
201704251250 METAR COR EGLL 251250Z AUTO 34008KT 260V050 9999 NCD 09/M06
                        Q1014 NOSIG=
201704251220 METAR COR EGLL 251220Z AUTO 34008KT 300V030 9999 NCD 09/M06
                        Q1014 NOSIG=
201704251150 METAR COR EGLL 251150Z AUTO 34006KT 260V030 9999 NCD 10/M06
                        Q1014 NOSIG=
201704251120 METAR COR EGLL 251120Z AUTO 35007KT 290V030 9999 NCD 09/M05
                        Q1014 NOSIG=
201704251050 METAR COR EGLL 251050Z AUTO 31007KT 250V350 9999 NCD 09/M05
                        Q1014 NOSIG=
201704251020 METAR COR EGLL 251020Z AUTO 35008KT 300V030 9999 SCT048 08/M05
                        Q1014 NOSIG=
201704250950 METAR COR EGLL 250950Z AUTO 36008G18KT 300V050 9999 FEW044
                        08/M05 Q1014 NOSIG=
201704250920 METAR COR EGLL 250920Z AUTO 36007KT 300V030 9999 FEW041 07/M04
                        Q1014 NOSIG=
201704250850 METAR COR EGLL 250850Z AUTO 35006KT 300V050 9999 FEW038 07/M03
                        Q1014 NOSIG=
201704250820 METAR COR EGLL 250820Z AUTO 35006KT 290V030 9999 NCD 06/M02
                        Q1014 NOSIG=
201704250750 METAR COR EGLL 250750Z AUTO 34006KT 290V030 9999 FEW026 05/M01
                        Q1014 NOSIG=
201704250720 METAR COR EGLL 250720Z AUTO 32007KT 280V010 9999 NCD 05/M01
                        Q1014 NOSIG=
201704250650 METAR COR EGLL 250650Z AUTO 32008KT 9999 NCD 04/M02 Q1014
                        NOSIG=
201704250620 METAR COR EGLL 250620Z AUTO 31008KT 270V340 9999 FEW036 03/M02
                        Q1014 NOSIG=
201704250550 METAR COR EGLL 250550Z AUTO 29008KT 9999 BKN035 03/M03 Q1013
                        NOSIG=
201704250520 METAR COR EGLL 250520Z AUTO 28008KT 9999 OVC034 02/M03 Q1013
                        NOSIG=
201704250450 METAR COR EGLL 250450Z AUTO 27009KT 9999 BKN030 02/M03 Q1013
                        NOSIG=
201704250420 METAR COR EGLL 250420Z AUTO 27008KT 9999 NCD 01/M03 Q1013
                        NOSIG=
201704250350 METAR COR EGLL 250350Z AUTO 27007KT 9999 NCD 01/M03 Q1013
                        NOSIG=
201704250320 METAR COR EGLL 250320Z AUTO 29006KT 9999 NCD 01/M03 Q1013
                        NOSIG=
201704250250 METAR COR EGLL 250250Z AUTO 29006KT 9999 NCD 03/M03 Q1013
                        NOSIG=
201704250220 METAR COR EGLL 250220Z AUTO 30006KT 9999 NCD 03/M03 Q1013
                        NOSIG=
201704250150 METAR COR EGLL 250150Z AUTO 29007KT 9999 NCD 03/M03 Q1013
                        NOSIG=
201704250120 METAR COR EGLL 250120Z AUTO 30007KT 9999 NCD 03/M03 Q1013
                        NOSIG=
201704250050 METAR COR EGLL 250050Z AUTO 29006KT 9999 NCD 04/M04 Q1013
                        NOSIG=
201704250020 METAR COR EGLL 250020Z AUTO 29007KT 9999 NCD 04/M04 Q1013
                        NOSIG=
201704242350 METAR COR EGLL 242350Z AUTO 30008KT 260V330 9999 NCD 05/M04
                        Q1014 NOSIG=
201704242320 METAR COR EGLL 242320Z AUTO 31009KT 9999 NCD 05/M05 Q1014
                        NOSIG=
201704242250 METAR COR EGLL 242250Z AUTO 30009KT 9999 NCD 06/M05 Q1014
                        NOSIG=
201704242220 METAR COR EGLL 242220Z AUTO 32010KT 9999 NCD 06/M06 Q1013
                        NOSIG=
201704242150 METAR COR EGLL 242150Z AUTO 31009KT 9999 NCD 07/M05 Q1013
                        NOSIG=
201704242120 METAR COR EGLL 242120Z AUTO 32007KT 280V050 9999 NCD 09/M03
                        Q1013 NOSIG=
201704242050 METAR COR EGLL 242050Z AUTO 32006KT 280V360 9999 NCD 09/M02
                        Q1013 NOSIG=
201704242020 METAR COR EGLL 242020Z AUTO 31010KT 270V330 9999 NCD 09/M02
                        Q1013 NOSIG=
201704241950 METAR COR EGLL 241950Z AUTO 31011KT 9999 NCD 10/00 Q1013
                        NOSIG=
201704241920 METAR COR EGLL 241920Z AUTO 31009KT 290V360 9999 OVC043 10/02
                        Q1012 NOSIG=
201704241850 METAR COR EGLL 241850Z AUTO 31009KT 9999 OVC044 11/05 Q1012
                        NOSIG=
201704241820 METAR COR EGLL 241820Z AUTO 32008KT 290V010 9999 OVC039 11/05
                        Q1012 NOSIG=
201704241750 METAR COR EGLL 241750Z AUTO 32006KT 260V020 9999 BKN031 10/06
                        Q1012 NOSIG=
201704241720 METAR COR EGLL 241720Z AUTO 32010KT 300V360 9999 -RA BKN026
                        12/06 Q1012 TEMPO SHRA=
201704241650 METAR COR EGLL 241650Z AUTO 26012KT 9999 FEW035 12/06 Q1012
                        TEMPO SHRA=
201704241620 METAR COR EGLL 241620Z AUTO 27013KT 9999 OVC044 13/07 Q1012
                        TEMPO SHRA=
201704241550 METAR COR EGLL 241550Z AUTO 26011KT 9999 FEW029 13/07 Q1012
                        TEMPO SHRA=
201704241520 METAR COR EGLL 241520Z AUTO 27012KT 9999 NCD 13/07 Q1013
                        NOSIG=
201704241450 METAR COR EGLL 241450Z AUTO 27009KT 9999 -RA BKN038 12/07
                        Q1013 NOSIG=
201704241420 METAR COR EGLL 241420Z AUTO 30010KT 9999 -RA BKN026 12/08
                        Q1014 NOSIG=
201704241350 METAR COR EGLL 241350Z AUTO 27011KT 9999 FEW029 SCT041 14/08
                        Q1014 NOSIG=
201704241320 METAR COR EGLL 241320Z AUTO 28008KT 9999 BKN041 12/08 Q1014
                        NOSIG=
201704241250 METAR COR EGLL 241250Z AUTO 27009KT 9999 NCD 13/09 Q1015
                        NOSIG=
201704241220 METAR COR EGLL 241220Z AUTO 30006KT 9999 -RA SCT022 BKN041
                        12/09 Q1015 NOSIG=
201704241150 METAR COR EGLL 241150Z AUTO 28010KT 250V310 8000 -RA SCT023
                        OVC038 12/08 Q1016 NOSIG=
201704241120 METAR COR EGLL 241120Z AUTO 27009KT 9999 FEW027 13/07 Q1016
                        NOSIG=
201704241050 METAR COR EGLL 241050Z AUTO 28008KT 9999 FEW040 13/07 Q1016
                        NOSIG=
201704241020 METAR COR EGLL 241020Z AUTO 28009KT 9999 BKN041 12/07 Q1017
                        NOSIG=
201704240950 METAR COR EGLL 240950Z AUTO 29008KT 9999 -RA BKN036 12/07
                        Q1017 NOSIG=
201704240920 METAR COR EGLL 240920Z AUTO 28010KT 9999 FEW038 12/06 Q1017
                        NOSIG=
201704240850 METAR COR EGLL 240850Z AUTO 29007KT 9999 SCT038 12/06 Q1017
                        NOSIG=
201704240820 METAR COR EGLL 240820Z AUTO 30006KT 250V350 9999 NCD 12/07
                        Q1017 NOSIG=
201704240750 METAR COR EGLL 240750Z AUTO 27007KT 9999 NCD 11/06 Q1018
                        NOSIG=
201704240720 METAR COR EGLL 240720Z AUTO 27005KT 240V300 9999 NCD 10/06
                        Q1018 NOSIG=
201704240650 METAR COR EGLL 240650Z AUTO 28006KT 9999 NCD 09/06 Q1018
                        NOSIG=
201704240620 METAR COR EGLL 240620Z AUTO 29005KT 9999 NCD 08/06 Q1018
                        NOSIG=
201704240550 METAR COR EGLL 240550Z AUTO 28006KT 9999 NCD 07/05 Q1018
                        NOSIG=
201704240520 METAR COR EGLL 240520Z AUTO 27004KT 9999 NCD 06/05 Q1018
                        NOSIG=
201704240450 METAR COR EGLL 240450Z AUTO 26004KT 9999 FEW048 06/05 Q1019
                        NOSIG=
201704240420 METAR COR EGLL 240420Z AUTO 28005KT 9999 SCT044 07/05 Q1019
                        NOSIG=
201704240350 METAR COR EGLL 240350Z AUTO 27005KT 9999 BKN042 07/06 Q1019
                        NOSIG=
201704240320 METAR COR EGLL 240320Z AUTO 27006KT 9999 BKN044 08/06 Q1019
                        NOSIG=
201704240250 METAR COR EGLL 240250Z AUTO 22002KT 9999 BKN049 08/06 Q1019
                        NOSIG=
201704240220 METAR COR EGLL 240220Z AUTO 22002KT 9999 NCD 08/06 Q1020
                        NOSIG=
201704240150 METAR COR EGLL 240150Z AUTO 20004KT 9000 NCD 08/06 Q1020
                        NOSIG=
201704240120 METAR COR EGLL 240120Z AUTO 23003KT 8000 NCD 08/06 Q1020
                        NOSIG=
201704240050 METAR COR EGLL 240050Z AUTO 25005KT 7000 FEW040 08/06 Q1021
                        NOSIG=
201704240020 METAR COR EGLL 240020Z AUTO 23006KT 8000 NCD 09/07 Q1021
                        NOSIG=
201704232350 METAR COR EGLL 232350Z AUTO 22003KT 7000 NCD 09/07 Q1021
                        NOSIG=
201704232320 METAR EGLL 232320Z AUTO 22005KT 7000 NCD 09/07 Q1021=
201704232250 METAR COR EGLL 232250Z AUTO 20005KT 7000 BKN047 09/07 Q1022
                        NOSIG=
201704232220 METAR COR EGLL 232220Z AUTO 20007KT 8000 NCD 09/07 Q1022
                        NOSIG=
201704232150 METAR COR EGLL 232150Z AUTO 20008KT 170V250 8000 NCD 09/07
                        Q1022 NOSIG=
201704232120 METAR COR EGLL 232120Z AUTO 20009KT 160V250 9999 NCD 10/07
                        Q1022 NOSIG=
201704232050 METAR COR EGLL 232050Z AUTO 20009KT 160V240 9999 NCD 10/07
                        Q1023 NOSIG=
201704232020 METAR COR EGLL 232020Z AUTO 20009KT 180V250 9999 NCD 11/07
                        Q1023 NOSIG=
201704231950 METAR COR EGLL 231950Z AUTO 20009KT 9999 NCD 12/07 Q1023
                        NOSIG=
201704231920 METAR COR EGLL 231920Z AUTO 27005KT 220V290 9999 NCD 13/03
                        Q1023 NOSIG=
201704231850 METAR COR EGLL 231850Z AUTO 27007KT 9999 NCD 14/03 Q1023
                        NOSIG=
201704231820 METAR COR EGLL 231820Z AUTO 31003KT 9999 NCD 14/03 Q1023
                        NOSIG=
201704231750 METAR COR EGLL 231750Z AUTO 30004KT 270V330 9999 NCD 15/03
                        Q1023 NOSIG=
201704231720 METAR COR EGLL 231720Z AUTO 31006KT 260V360 9999 NCD 15/03
                        Q1023 NOSIG=
201704231650 METAR COR EGLL 231650Z AUTO 30007KT 9999 NCD 15/03 Q1023
                        NOSIG=
201704231620 METAR COR EGLL 231620Z AUTO 28009KT 240V320 9999 NCD 15/03
                        Q1024 NOSIG=
201704231550 METAR COR EGLL 231550Z AUTO 27008KT 230V300 9999 SCT049 16/03
                        Q1024 NOSIG=
201704231520 METAR COR EGLL 231520Z AUTO 30007KT 260V360 9999 NCD 16/03
                        Q1024 NOSIG=
201704231450 METAR COR EGLL 231450Z AUTO 28008KT 190V340 9999 FEW048 16/02
                        Q1024 NOSIG=
201704231420 METAR COR EGLL 231420Z AUTO 31009KT 270V340 9999 SCT045 16/03
                        Q1025 NOSIG=
201704231350 METAR COR EGLL 231350Z AUTO 27009KT 240V300 9999 NCD 16/03
                        Q1025 NOSIG=
201704231320 METAR COR EGLL 231320Z AUTO VRB07KT 9999 BKN045 16/03 Q1025
                        NOSIG=
201704231250 METAR COR EGLL 231250Z AUTO 21004KT 150V330 9999 FEW045 15/03
                        Q1025 NOSIG=
201704231220 METAR COR EGLL 231220Z AUTO VRB02KT 9999 SCT041 14/05 Q1026
                        NOSIG=
201704231150 METAR COR EGLL 231150Z AUTO 21006KT 170V250 9999 FEW032 BKN045
                        13/05 Q1026 NOSIG=
201704231120 METAR COR EGLL 231120Z AUTO VRB04KT 9999 BKN037 13/05 Q1027
                        NOSIG=
201704231050 METAR COR EGLL 231050Z AUTO 28007KT 240V310 9999 BKN026 BKN041
                        12/06 Q1027 NOSIG=
201704231020 METAR COR EGLL 231020Z AUTO 20006KT 160V260 9999 BKN035 14/06
                        Q1027 NOSIG=
201704230950 METAR COR EGLL 230950Z 23008KT 200V270 9999 FEW021 12/06
                        Q1027 NOSIG=
201704230920 METAR COR EGLL 230920Z 17005KT 120V240 9999 FEW020 SCT022
                        12/06 Q1027 NOSIG=
201704230850 METAR COR EGLL 230850Z 19006KT 130V230 9999 FEW020 SCT038
                        11/06 Q1028 NOSIG=
201704230820 METAR COR EGLL 230820Z 18006KT 130V240 9999 SCT019 SCT025
                        10/05 Q1028 NOSIG=
201704230750 METAR COR EGLL 230750Z 15004KT 080V200 9999 SCT024 BKN038
                        09/04 Q1028 NOSIG=
201704230720 METAR COR EGLL 230720Z 12005KT 100V170 9999 SCT021 SCT028
                        09/04 Q1028 NOSIG=
201704230650 METAR COR EGLL 230650Z 12005KT 090V150 9999 SCT020 BKN026
                        09/04 Q1028 NOSIG=
201704230620 METAR COR EGLL 230620Z VRB03KT 9999 SCT022 BKN026 08/03 Q1027
                        NOSIG=
201704230550 METAR COR EGLL 230550Z 15004KT 100V210 9999 SCT021 BKN034
                        08/03 Q1027 NOSIG=
201704230520 METAR COR EGLL 230520Z 14005KT 090V170 9999 SCT021 BKN039
                        08/03 Q1027 NOSIG=
201704230450 METAR COR EGLL 230450Z 14004KT 100V160 9999 BKN022 08/03
                        Q1027 NOSIG=
201704230420 METAR COR EGLL 230420Z 13006KT 9999 BKN021 08/03 Q1028 NOSIG=
201704230350 METAR COR EGLL 230350Z 12007KT 9999 BKN021 08/04 Q1028 NOSIG=
201704230320 METAR COR EGLL 230320Z 12007KT 9999 BKN022 08/04 Q1028 NOSIG=
201704230250 METAR COR EGLL 230250Z 12009KT 9999 BKN022 08/05 Q1028 NOSIG=
201704230220 METAR COR EGLL 230220Z 12009KT 9999 BKN022 08/05 Q1028 NOSIG=
201704230150 METAR COR EGLL 230150Z AUTO 11007KT 9999 OVC020 08/05 Q1028
                        NOSIG=
201704230120 METAR COR EGLL 230120Z AUTO 13008KT 9999 OVC019 08/05 Q1028
                        NOSIG=
201704230050 METAR COR EGLL 230050Z AUTO 14008KT 9999 OVC019 09/05 Q1028
                        BECMG SCT025=
201704230020 METAR COR EGLL 230020Z AUTO 13007KT 9999 BKN016 08/06 Q1028
                        TEMPO SCT016=
201704222350 METAR COR EGLL 222350Z AUTO 13006KT 9999 BKN013 07/06 Q1028
                        BECMG BKN016=
201704222320 METAR COR EGLL 222320Z AUTO 11007KT 9999 NCD 07/05 Q1028
                        NOSIG=
201704222250 METAR EGLL 222250Z AUTO 07004KT 9999 NCD 07/05 Q1028=
201704222220 METAR COR EGLL 222220Z AUTO VRB03KT 9999 NCD 09/05 Q1028
                        NOSIG=
201704222150 METAR COR EGLL 222150Z AUTO 08005KT 9999 NCD 09/05 Q1028
                        NOSIG=
201704222120 METAR COR EGLL 222120Z AUTO 09009KT 9999 NCD 09/06 Q1028
                        NOSIG=
201704222050 METAR COR EGLL 222050Z AUTO 09011KT 9999 NCD 10/05 Q1028
                        NOSIG=
201704222020 METAR COR EGLL 222020Z AUTO 04006KT 9999 NCD 12/04 Q1027
                        NOSIG=
201704221950 METAR COR EGLL 221950Z AUTO 36004KT 320V050 9999 NCD 13/01
                        Q1027 NOSIG=
201704221920 METAR COR EGLL 221920Z AUTO VRB02KT 9999 NCD 14/01 Q1027
                        NOSIG=
201704221850 METAR COR EGLL 221850Z AUTO VRB03KT 9999 NCD 14/01 Q1027
                        NOSIG=
201704221820 METAR COR EGLL 221820Z AUTO 36005KT 310V030 9999 NCD 15/01
                        Q1027 NOSIG=
201704221750 METAR COR EGLL 221750Z AUTO 36005KT 330V040 9999 NCD 15/01
                        Q1027 NOSIG=
201704221720 METAR COR EGLL 221720Z AUTO VRB03KT 9999 NCD 15/01 Q1027
                        NOSIG=
201704221650 METAR COR EGLL 221650Z AUTO 35005KT 300V030 9999 NCD 15/02
                        Q1027 NOSIG=
201704221620 METAR COR EGLL 221620Z AUTO 33005KT 300V010 9999 NCD 15/01
                        Q1027 NOSIG=
201704221550 METAR COR EGLL 221550Z AUTO VRB02KT 9999 NCD 15/03 Q1027
                        NOSIG=
201704221520 METAR COR EGLL 221520Z AUTO 08005KT 9999 BKN048 14/04 Q1027
                        NOSIG=
201704221450 METAR COR EGLL 221450Z AUTO VRB03KT 9999 SCT049 16/03 Q1027
                        NOSIG=
201704221420 METAR COR EGLL 221420Z AUTO 07004KT 020V130 9999 BKN045 14/03
                        Q1027 NOSIG=
201704221350 METAR COR EGLL 221350Z AUTO VRB03KT 9999 BKN045 16/04 Q1028
                        NOSIG=
201704221320 METAR COR EGLL 221320Z AUTO 09005KT 340V130 9999 SCT037 14/06
                        Q1028 NOSIG=
201704221250 METAR COR EGLL 221250Z AUTO 05005KT 330V090 9999 BKN035 14/05
                        Q1028 NOSIG=
201704221220 METAR COR EGLL 221220Z AUTO 09004KT 360V130 9999 BKN027 13/06
                        Q1028 NOSIG=
201704221150 METAR COR EGLL 221150Z AUTO 36005KT 310V070 9999 BKN027 14/06
                        Q1029 NOSIG=
201704221120 METAR COR EGLL 221120Z AUTO 05005KT 360V110 9999 SCT023 13/06
                        Q1029 NOSIG=
201704221050 METAR COR EGLL 221050Z AUTO 03005KT 320V070 9999 SCT019 BKN035
                        13/07 Q1030 NOSIG=
201704221020 METAR COR EGLL 221020Z AUTO 36005KT 320V070 9999 BKN016 11/07
                        Q1030 NOSIG=
201704220950 METAR COR EGLL 220950Z AUTO 35006KT 280V060 9999 BKN015 11/07
                        Q1030 NOSIG=
201704220920 METAR COR EGLL 220920Z AUTO 35006KT 320V030 9999 BKN017 11/06
                        Q1029 NOSIG=
201704220850 METAR COR EGLL 220850Z AUTO 34006KT 300V030 9999 FEW016///
                        SCT017/// BKN027/// 10/06 Q1029 NOSIG=
201704220820 METAR COR EGLL 220820Z 34005KT 310V050 9999 FEW016 SCT017
                        BKN027 10/06 Q1029 NOSIG=
201704220750 METAR COR EGLL 220750Z 35006KT 300V030 9999 FEW019 SCT023
                        BKN027 10/05 Q1029 NOSIG=
201704220720 METAR COR EGLL 220720Z AUTO 32007KT 300V360 9999 BKN026 10/05
                        Q1029 NOSIG=
201704220650 METAR COR EGLL 220650Z AUTO 32007KT 280V350 9999 BKN028 10/05
                        Q1029 NOSIG=
201704220620 METAR COR EGLL 220620Z AUTO 32005KT 290V020 9999 FEW035 09/05
                        Q1029 NOSIG=
201704220550 METAR COR EGLL 220550Z AUTO 32006KT 290V350 9999 SCT033 10/05
                        Q1029 NOSIG=
201704220520 METAR COR EGLL 220520Z AUTO 32005KT 290V360 9999 SCT034 09/05
                        Q1029 NOSIG=
201704220450 METAR COR EGLL 220450Z AUTO 33004KT 280V010 9999 NCD 09/06
                        Q1029 NOSIG=
201704220420 METAR COR EGLL 220420Z AUTO VRB02KT 9999 NCD 09/06 Q1028
                        NOSIG=
201704220350 METAR COR EGLL 220350Z AUTO VRB02KT 9999 NCD 09/06 Q1028
                        NOSIG=
201704220320 METAR COR EGLL 220320Z AUTO 30004KT 9999 NCD 10/06 Q1028
                        NOSIG=
201704220250 METAR COR EGLL 220250Z AUTO 30005KT 270V340 9999 NCD 11/07
                        Q1028 NOSIG=
201704220220 METAR COR EGLL 220220Z AUTO 30005KT 9999 NCD 11/07 Q1029
                        NOSIG=
201704220150 METAR COR EGLL 220150Z AUTO 31004KT 9999 NCD 11/06 Q1029
                        NOSIG=
201704220120 METAR COR EGLL 220120Z AUTO 30005KT 9999 NCD 11/06 Q1029
                        NOSIG=
201704220050 METAR COR EGLL 220050Z AUTO 31004KT 9999 NCD 12/07 Q1029
                        NOSIG=
201704220020 METAR COR EGLL 220020Z AUTO 30005KT 9999 OVC046 12/06 Q1029
                        NOSIG=
201704212350 METAR COR EGLL 212350Z AUTO 29005KT 9999 OVC046 12/06 Q1029
                        NOSIG=
201704212320 METAR COR EGLL 212320Z AUTO 30006KT 9999 OVC048 12/06 Q1029
                        NOSIG=
201704212250 METAR COR EGLL 212250Z AUTO 30006KT 9999 NCD 12/06 Q1029
                        NOSIG=
201704212220 METAR COR EGLL 212220Z AUTO 29005KT 9999 OVC044 12/06 Q1030
                        NOSIG=
201704212150 METAR COR EGLL 212150Z AUTO 29005KT 9999 OVC048 13/06 Q1030
                        NOSIG=
201704212120 METAR COR EGLL 212120Z AUTO 31005KT 9999 OVC045 13/06 Q1030
                        NOSIG=
201704212050 METAR COR EGLL 212050Z AUTO 31005KT 9999 OVC047 13/06 Q1030
                        NOSIG=
201704212020 METAR COR EGLL 212020Z AUTO 30004KT 9999 OVC047 13/06 Q1030
                        NOSIG=
201704211950 METAR COR EGLL 211950Z AUTO 33005KT 9999 OVC047 13/06 Q1030
                        NOSIG=
201704211920 METAR COR EGLL 211920Z AUTO 31005KT 9999 NCD 13/06 Q1030
                        NOSIG=
201704211850 METAR COR EGLL 211850Z AUTO 31005KT 9999 OVC048 13/06 Q1030
                        NOSIG=
201704211820 METAR COR EGLL 211820Z AUTO 31006KT 9999 OVC046 14/06 Q1030
                        NOSIG=
201704211750 METAR COR EGLL 211750Z AUTO 32006KT 290V010 9999 BKN039 14/06
                        Q1030 NOSIG=
201704211720 METAR COR EGLL 211720Z AUTO 30006KT 9999 OVC049 14/06 Q1030
                        NOSIG=
201704211650 METAR COR EGLL 211650Z AUTO 29006KT 260V330 9999 OVC046 14/05
                        Q1030 NOSIG=
201704211620 METAR EGLL 211620Z AUTO 30007KT 9999 OVC044 14/06 Q1030=
201704211550 METAR COR EGLL 211550Z AUTO 30007KT 9999 OVC040 15/06 Q1030
                        NOSIG=
201704211520 METAR COR EGLL 211520Z AUTO 30008KT 9999 OVC039 15/06 Q1030
                        NOSIG=
201704211450 METAR COR EGLL 211450Z AUTO 31008KT 270V340 9999 OVC041 15/06
                        Q1030 NOSIG=
201704211420 METAR COR EGLL 211420Z AUTO 31008KT 280V340 9999 OVC042 15/06
                        Q1031 NOSIG=
201704211350 METAR COR EGLL 211350Z AUTO 30008KT 9999 OVC043 15/05 Q1031
                        NOSIG=
201704211320 METAR COR EGLL 211320Z AUTO 31008KT 280V360 9999 OVC044 15/05
                        Q1031 NOSIG=
201704211250 METAR COR EGLL 211250Z AUTO 30008KT 270V330 9999 OVC045 16/05
                        Q1031 NOSIG=
201704211220 METAR COR EGLL 211220Z AUTO 30009KT 9999 OVC042 16/05 Q1031
                        NOSIG=
201704211150 METAR COR EGLL 211150Z AUTO 30007KT 270V350 9999 OVC040 15/06
                        Q1032 NOSIG=
201704211120 METAR COR EGLL 211120Z AUTO 29007KT 270V330 9999 BKN033 15/07
                        Q1032 NOSIG=
201704211050 METAR COR EGLL 211050Z AUTO 29007KT 260V340 9999 SCT030 OVC046
                        15/08 Q1032 NOSIG=
201704211020 METAR COR EGLL 211020Z AUTO 29006KT 9999 NCD 14/09 Q1033
                        NOSIG=
201704210950 METAR COR EGLL 210950Z AUTO 30005KT 260V340 9999 NCD 13/08
                        Q1033 NOSIG=
201704210920 METAR COR EGLL 210920Z AUTO 29006KT 260V320 9999 OVC049 12/08
                        Q1033 NOSIG=
201704210850 METAR COR EGLL 210850Z AUTO 27006KT 9999 OVC046 12/08 Q1033
                        NOSIG=
201704210820 METAR COR EGLL 210820Z AUTO 28005KT 9999 OVC046 11/08 Q1033
                        NOSIG=
201704210750 METAR COR EGLL 210750Z AUTO 30004KT 9999 OVC046 11/08 Q1033
                        NOSIG=
201704210720 METAR COR EGLL 210720Z AUTO 28005KT 9999 OVC044 10/08 Q1033
                        NOSIG=
201704210650 METAR COR EGLL 210650Z AUTO 27005KT 9999 OVC045 10/07 Q1033
                        NOSIG=
201704210620 METAR COR EGLL 210620Z AUTO 28005KT 9999 OVC045 10/07 Q1033
                        NOSIG=
201704210550 METAR COR EGLL 210550Z AUTO 27004KT 9999 BKN046 09/07 Q1032
                        NOSIG=
201704210520 METAR COR EGLL 210520Z AUTO 28006KT 9999 SCT048 08/06 Q1032
                        NOSIG=
201704210450 METAR COR EGLL 210450Z AUTO 27003KT 9999 SCT047 08/06 Q1032
                        NOSIG=
201704210420 METAR COR EGLL 210420Z AUTO 26004KT 9000 SCT049 09/07 Q1032
                        NOSIG=
201704210350 METAR COR EGLL 210350Z AUTO 26004KT 7000 SCT048 08/07 Q1033
                        TEMPO 4800 BR=
201704210320 METAR COR EGLL 210320Z AUTO 27006KT 5000 HZ NCD 09/08 Q1033
                        TEMPO 4200 BR=
201704210250 METAR COR EGLL 210250Z AUTO 26004KT 4300 HZ NCD 09/08 Q1033
                        BECMG 6000 NSW=
201704210220 METAR COR EGLL 210220Z AUTO 25004KT 2800 BR NCD 09/08 Q1033
                        BECMG 6000 NSW=
201704210150 METAR COR EGLL 210150Z AUTO 27003KT 2600 BR NCD 09/08 Q1033
                        BECMG 6000 NSW=
201704210120 METAR COR EGLL 210120Z AUTO 30003KT 3500 BR NCD 09/08 Q1033
                        NOSIG=
201704210050 METAR COR EGLL 210050Z AUTO 31002KT 4100 HZ NCD 09/08 Q1033
                        NOSIG=
201704210020 METAR COR EGLL 210020Z AUTO 31003KT 5000 HZ NCD 10/09 Q1033
                        NOSIG=
201704202350 METAR COR EGLL 202350Z AUTO 29004KT 6000 NCD 09/08 Q1034
                        NOSIG=
201704202320 METAR COR EGLL 202320Z AUTO 29003KT 6000 FEW037 10/09 Q1034
                        NOSIG=
201704202250 METAR COR EGLL 202250Z AUTO 27005KT 7000 BKN036 11/09 Q1034
                        NOSIG=
201704202220 METAR COR EGLL 202220Z AUTO 27006KT 7000 BKN038 12/10 Q1034
                        NOSIG=
201704202150 METAR COR EGLL 202150Z AUTO 28005KT 9000 FEW037 12/10 Q1034
                        NOSIG=
201704202120 METAR COR EGLL 202120Z AUTO 28005KT 9999 FEW040 12/10 Q1034
                        NOSIG=
201704202050 METAR COR EGLL 202050Z AUTO 28004KT 9999 NCD 12/10 Q1034
                        NOSIG=
201704202020 METAR COR EGLL 202020Z AUTO 28005KT 9999 NCD 12/10 Q1034
                        NOSIG=
201704201950 METAR COR EGLL 201950Z AUTO 28003KT 9999 NCD 12/10 Q1034
                        NOSIG=
201704201920 METAR COR EGLL 201920Z AUTO 28004KT 9999 BKN043 12/10 Q1034
                        NOSIG=
201704201850 METAR COR EGLL 201850Z AUTO 31004KT 9999 OVC036 12/10 Q1034
                        NOSIG=
201704201820 METAR COR EGLL 201820Z AUTO VRB02KT 9999 SCT019 OVC032 12/09
                        Q1034 NOSIG=
201704201750 METAR COR EGLL 201750Z AUTO 31005KT 280V350 9999 -RA BKN020
                        OVC036 14/08 Q1034 NOSIG=
201704201720 METAR COR EGLL 201720Z AUTO 29004KT 250V340 9999 SCT026 BKN044
                        14/08 Q1034 NOSIG=
201704201650 METAR COR EGLL 201650Z AUTO 26005KT 200V310 9999 BKN025 14/08
                        Q1034 NOSIG=
201704201620 METAR COR EGLL 201620Z AUTO 28006KT 240V310 9999 BKN023 14/08
                        Q1034 NOSIG=
201704201550 METAR COR EGLL 201550Z AUTO 28005KT 250V320 9999 BKN023 14/08
                        Q1034 NOSIG=
201704201520 METAR COR EGLL 201520Z AUTO 27008KT 230V300 9999 FEW022 BKN037
                        14/08 Q1034 NOSIG=
201704201450 METAR COR EGLL 201450Z AUTO 27009KT 250V310 9999 BKN022 14/08
                        Q1035 NOSIG=
201704201420 METAR COR EGLL 201420Z AUTO 28010KT 250V320 9999 SCT024 SCT032
                        14/08 Q1035 NOSIG=
201704201350 METAR COR EGLL 201350Z AUTO 29008KT 250V340 9999 OVC033 14/07
                        Q1035 NOSIG=
201704201320 METAR COR EGLL 201320Z AUTO 29008KT 260V320 9999 OVC035 14/07
                        Q1035 NOSIG=
201704201250 METAR COR EGLL 201250Z AUTO 28008KT 230V330 9999 OVC030 14/06
                        Q1035 NOSIG=
201704201220 METAR COR EGLL 201220Z AUTO 24007KT 200V270 9999 BKN031 14/05
                        Q1036 NOSIG=
201704201150 METAR COR EGLL 201150Z AUTO 27007KT 230V310 9999 OVC044 13/05
                        Q1036 NOSIG=
201704201120 METAR COR EGLL 201120Z AUTO 26007KT 220V310 9999 OVC044 13/05
                        Q1036 NOSIG=
201704201050 METAR COR EGLL 201050Z AUTO 26008KT 200V280 9999 OVC046 13/05
                        Q1036 NOSIG=
201704201020 METAR COR EGLL 201020Z AUTO 26008KT 220V290 9999 OVC047 12/04
                        Q1036 NOSIG=
201704200950 METAR COR EGLL 200950Z AUTO 23008KT 200V280 9999 OVC048 12/04
                        Q1036 NOSIG=
201704200920 METAR COR EGLL 200920Z AUTO 25008KT 190V290 9999 NCD 12/04
                        Q1036 NOSIG=
201704200850 METAR COR EGLL 200850Z AUTO 26009KT 9999 NCD 11/04 Q1037
                        NOSIG=
201704200820 METAR EGLL 200820Z AUTO 22006KT 180V250 9999 NCD 10/03 Q1037=
201704200750 METAR COR EGLL 200750Z AUTO 22009KT 9999 NCD 09/02 Q1037
                        NOSIG=
201704200720 METAR COR EGLL 200720Z AUTO 23007KT 190V260 9999 NCD 08/02
                        Q1037 NOSIG=
201704200650 METAR COR EGLL 200650Z AUTO 21006KT 9999 NCD 07/02 Q1037
                        NOSIG=
201704200620 METAR COR EGLL 200620Z AUTO 22007KT 190V260 9999 BKN049 07/02
                        Q1037 NOSIG=
201704200550 METAR COR EGLL 200550Z AUTO 21006KT 180V240 9999 BKN048 06/02
                        Q1037 NOSIG=
201704200520 METAR COR EGLL 200520Z AUTO 21006KT 180V250 9999 OVC047 06/01
                        Q1037 NOSIG=
201704200450 METAR COR EGLL 200450Z AUTO 22005KT 9999 SCT047 06/01 Q1037
                        NOSIG=
201704200420 METAR COR EGLL 200420Z AUTO 22005KT 9999 NCD 06/01 Q1037
                        NOSIG=
201704200350 METAR COR EGLL 200350Z AUTO 21006KT 9999 NCD 07/01 Q1037
                        NOSIG=
201704200320 METAR COR EGLL 200320Z AUTO 22006KT 9999 NCD 07/01 Q1037
                        NOSIG=
201704200250 METAR COR EGLL 200250Z AUTO 22005KT 9999 NCD 07/01 Q1037
                        NOSIG=
201704200220 METAR COR EGLL 200220Z AUTO 22004KT 180V240 9999 NCD 07/01
                        Q1037 NOSIG=
201704200150 METAR COR EGLL 200150Z AUTO 21006KT 9999 NCD 07/01 Q1037
                        NOSIG=
201704200120 METAR COR EGLL 200120Z AUTO 21005KT 9999 NCD 07/01 Q1037
                        NOSIG=
201704200050 METAR COR EGLL 200050Z AUTO 19005KT 9999 NCD 07/01 Q1037
                        NOSIG=
201704200020 METAR COR EGLL 200020Z AUTO 18007KT 9999 NCD 07/01 Q1037
                        NOSIG=
201704192350 METAR COR EGLL 192350Z AUTO 18007KT 9999 NCD 07/01 Q1037
                        NOSIG=
201704192320 METAR COR EGLL 192320Z AUTO 18007KT 9999 NCD 07/01 Q1037
                        NOSIG=
201704192250 METAR COR EGLL 192250Z AUTO 17007KT 9999 NCD 07/02 Q1037
                        NOSIG=
201704192220 METAR COR EGLL 192220Z AUTO 19008KT 9999 NCD 08/02 Q1037
                        NOSIG=
201704192150 METAR COR EGLL 192150Z AUTO 19007KT 9999 NCD 08/02 Q1037
                        NOSIG=
201704192120 METAR COR EGLL 192120Z AUTO 18007KT 9999 NCD 08/01 Q1037
                        NOSIG=
201704192050 METAR COR EGLL 192050Z AUTO 18008KT 9999 NCD 08/01 Q1037
                        NOSIG=
201704192020 METAR COR EGLL 192020Z AUTO 18010KT 9999 NCD 08/02 Q1037
                        NOSIG=
201704191950 METAR COR EGLL 191950Z AUTO 18008KT 9999 NCD 09/02 Q1036
                        NOSIG=
201704191920 METAR COR EGLL 191920Z AUTO 18009KT 9999 NCD 10/02 Q1036
                        NOSIG=
201704191850 METAR COR EGLL 191850Z AUTO VRB03KT 9999 NCD 12/M03 Q1035
                        NOSIG=
201704191820 METAR COR EGLL 191820Z AUTO VRB02KT 9999 NCD 12/M04 Q1035
                        NOSIG=
201704191750 METAR COR EGLL 191750Z AUTO VRB03KT 9999 NCD 13/M03 Q1035
                        NOSIG=
201704191720 METAR COR EGLL 191720Z AUTO VRB02KT 9999 NCD 13/M03 Q1035
                        NOSIG=
201704191650 METAR COR EGLL 191650Z AUTO VRB05KT 9999 NCD 13/M04 Q1035
                        NOSIG=
201704191620 METAR COR EGLL 191620Z AUTO VRB03KT 9999 NCD 13/M04 Q1035
                        NOSIG=
201704191550 METAR COR EGLL 191550Z AUTO VRB02KT 9999 NCD 14/M04 Q1035
                        NOSIG=
201704191520 METAR COR EGLL 191520Z AUTO VRB04KT 9999 NCD 14/M03 Q1036
                        NOSIG=
201704191450 METAR COR EGLL 191450Z AUTO 26004KT 210V360 9999 NCD 14/M03
                        Q1036 NOSIG=
201704191420 METAR COR EGLL 191420Z AUTO VRB03KT 9999 NCD 14/M03 Q1036
                        NOSIG=
201704191350 METAR COR EGLL 191350Z AUTO VRB05KT 9999 NCD 14/M03 Q1036
                        NOSIG=
201704191320 METAR COR EGLL 191320Z AUTO 11005KT 050V150 9999 NCD 13/M03
                        Q1036 NOSIG=
201704191250 METAR COR EGLL 191250Z AUTO 16004KT 090V240 9999 NCD 13/M02
                        Q1037 NOSIG=
201704191220 METAR COR EGLL 191220Z AUTO 05004KT 340V140 9999 NCD 12/M01
                        Q1037 NOSIG=
201704191150 METAR COR EGLL 191150Z AUTO 10005KT 060V140 9999 FEW047 12/M01
                        Q1037 NOSIG=
201704191120 METAR COR EGLL 191120Z AUTO 06004KT 360V100 9999 SCT044 11/M00
                        Q1037 NOSIG=
201704191050 METAR COR EGLL 191050Z AUTO 05005KT 340V120 9999 FEW042 11/M00
                        Q1037 NOSIG=
201704191020 METAR COR EGLL 191020Z AUTO 11005KT 030V160 9999 FEW040 11/M00
                        Q1037 NOSIG=
201704190950 METAR COR EGLL 190950Z AUTO 12005KT 070V180 9999 FEW039 10/01
                        Q1037 NOSIG=
201704190920 METAR COR EGLL 190920Z AUTO 11004KT 040V180 9999 FEW036 10/01
                        Q1037 NOSIG=
201704190850 METAR COR EGLL 190850Z AUTO 08005KT 040V130 9999 FEW035 09/01
                        Q1037 NOSIG=
201704190820 METAR COR EGLL 190820Z AUTO 11004KT 060V150 9999 NCD 09/01
                        Q1037 NOSIG=
201704190750 METAR COR EGLL 190750Z AUTO 10004KT 050V140 9999 NCD 08/01
                        Q1037 NOSIG=
201704190720 METAR COR EGLL 190720Z AUTO VRB03KT 9999 NCD 07/01 Q1037
                        NOSIG=
201704190650 METAR COR EGLL 190650Z AUTO VRB02KT 9999 NCD 06/01 Q1037
                        NOSIG=
201704190620 METAR COR EGLL 190620Z AUTO VRB03KT 9999 NCD 05/01 Q1036
                        NOSIG=
201704190550 METAR COR EGLL 190550Z AUTO 04004KT 9999 NCD 04/01 Q1036=
201704190520 METAR COR EGLL 190520Z AUTO 03004KT 9999 NCD 03/01 Q1036
                        NOSIG=
201704190450 METAR COR EGLL 190450Z AUTO 03004KT 9999 NCD 03/01 Q1036
                        NOSIG=
201704190420 METAR COR EGLL 190420Z AUTO 03003KT 9999 NCD 03/01 Q1036
                        NOSIG=
201704190350 METAR COR EGLL 190350Z AUTO VRB03KT 9999 NCD 04/01 Q1036
                        NOSIG=
201704190320 METAR COR EGLL 190320Z AUTO 04004KT 9999 NCD 04/01 Q1035
                        NOSIG=
201704190250 METAR COR EGLL 190250Z AUTO 04005KT 9999 NCD 05/01 Q1035
                        NOSIG=
201704190220 METAR COR EGLL 190220Z AUTO 04004KT 9999 NCD 05/01 Q1035
                        NOSIG=
201704190150 METAR COR EGLL 190150Z AUTO 05004KT 9999 NCD 06/01 Q1035
                        NOSIG=
201704190120 METAR COR EGLL 190120Z AUTO 05004KT 010V080 9999 NCD 06/01
                        Q1035 NOSIG=
201704190050 METAR COR EGLL 190050Z AUTO 06006KT 9999 NCD 06/02 Q1036
                        NOSIG=
201704190020 METAR COR EGLL 190020Z AUTO 06004KT 9999 NCD 06/02 Q1036
                        NOSIG=
201704182350 METAR COR EGLL 182350Z AUTO 06005KT 9999 NCD 06/02 Q1035
                        NOSIG=
201704182320 METAR COR EGLL 182320Z AUTO 06006KT 9999 NCD 06/02 Q1035
                        NOSIG=
201704182250 METAR COR EGLL 182250Z AUTO 06007KT 9999 NCD 07/02 Q1035
                        NOSIG=
201704182220 METAR COR EGLL 182220Z AUTO 06009KT 9999 NCD 07/02 Q1035
                        NOSIG=
201704182150 METAR COR EGLL 182150Z AUTO 06007KT 9999 NCD 08/01 Q1034
                        NOSIG=
201704182120 METAR COR EGLL 182120Z AUTO 04006KT 350V070 9999 NCD 08/01
                        Q1034 NOSIG=
201704182050 METAR COR EGLL 182050Z AUTO 02005KT 340V050 9999 FEW041 08/02
                        Q1034 NOSIG=
201704182020 METAR COR EGLL 182020Z AUTO 01005KT 340V060 9999 NCD 08/01
                        Q1034 NOSIG=
201704181950 METAR COR EGLL 181950Z AUTO 01004KT 350V050 9999 NCD 09/01
                        Q1034 NOSIG=
201704181920 METAR COR EGLL 181920Z AUTO 03005KT 350V060 9999 NCD 09/00
                        Q1033 NOSIG=
201704181850 METAR COR EGLL 181850Z AUTO 02005KT 340V050 9999 NCD 10/00
                        Q1033 NOSIG=
201704181820 METAR COR EGLL 181820Z AUTO 02007KT 330V050 9999 NCD 11/M00
                        Q1033 NOSIG=
201704181750 METAR COR EGLL 181750Z AUTO 02006KT 320V060 9999 NCD 11/M02
                        Q1032 NOSIG=
201704181720 METAR COR EGLL 181720Z AUTO 03008KT 350V060 9999 NCD 11/M02
                        Q1032 NOSIG=
201704181650 METAR COR EGLL 181650Z AUTO 02008KT 340V050 9999 NCD 12/M02
                        Q1032 NOSIG=
201704181620 METAR COR EGLL 181620Z AUTO 05007KT 360V080 9999 NCD 12/M03
                        Q1032 NOSIG=
201704181550 METAR COR EGLL 181550Z AUTO 35007KT 320V050 9999 NCD 13/M03
                        Q1032 NOSIG=
201704181520 METAR COR EGLL 181520Z AUTO 35007KT 270V040 9999 NCD 12/M03
                        Q1032 NOSIG=
201704181450 METAR COR EGLL 181450Z AUTO 02008KT 320V070 9999 NCD 13/M02
                        Q1032 NOSIG=
201704181420 METAR COR EGLL 181420Z AUTO 03009KT 330V080 9999 NCD 12/M02
                        Q1032 NOSIG=
201704181350 METAR COR EGLL 181350Z AUTO 02009KT 330V070 9999 NCD 12/M02
                        Q1031 NOSIG=
201704181320 METAR COR EGLL 181320Z AUTO 06007KT 360V090 9999 NCD 12/M02
                        Q1031 NOSIG=
201704181250 METAR COR EGLL 181250Z AUTO 02007KT 320V070 9999 NCD 12/M01
                        Q1031 NOSIG=
201704181220 METAR COR EGLL 181220Z AUTO 03008KT 320V080 9999 FEW049 12/M01
                        Q1032 NOSIG=
201704181150 METAR COR EGLL 181150Z AUTO 04009KT 350V080 9999 SCT044 12/M01
                        Q1032 NOSIG=
201704181120 METAR COR EGLL 181120Z AUTO 01007KT 310V060 9999 BKN042 11/M00
                        Q1032 NOSIG=
201704181050 METAR COR EGLL 181050Z AUTO 01008KT 330V050 9999 SCT039 10/M00
                        Q1031 NOSIG=
201704181020 METAR COR EGLL 181020Z AUTO 04009KT 010V080 9999 FEW036 10/00
                        Q1031 NOSIG=
201704180950 METAR COR EGLL 180950Z AUTO 01009KT 330V040 9999 FEW035 10/01
                        Q1031 NOSIG=
201704180920 METAR COR EGLL 180920Z AUTO 02011KT 340V070 9999 FEW035 09/00
                        Q1031 NOSIG=
201704180850 METAR COR EGLL 180850Z AUTO 03010KT 360V070 9999 FEW034 08/00
                        Q1031 NOSIG=
201704180820 METAR COR EGLL 180820Z AUTO 02009KT 340V050 9999 NCD 08/M00
                        Q1031 NOSIG=
201704180750 METAR COR EGLL 180750Z AUTO 03010KT 350V060 9999 NCD 07/00
                        Q1031 NOSIG=
201704180720 METAR COR EGLL 180720Z AUTO 03008KT 350V070 9999 NCD 07/00
                        Q1030 NOSIG=
201704180650 METAR COR EGLL 180650Z AUTO 02008KT 340V060 9999 NCD 06/00
                        Q1030 NOSIG=
201704180620 METAR COR EGLL 180620Z AUTO 03009KT 340V060 9999 NCD 06/00
                        Q1030 NOSIG=
201704180550 METAR COR EGLL 180550Z AUTO 03009KT 360V060 9999 FEW019 06/00
                        Q1029 NOSIG=
201704180520 METAR COR EGLL 180520Z AUTO 03007KT 340V060 9999 NCD 05/02
                        Q1029 NOSIG=
201704180450 METAR COR EGLL 180450Z AUTO 03007KT 350V060 9999 NCD 05/02
                        Q1028 NOSIG=
201704180420 METAR COR EGLL 180420Z AUTO 03006KT 360V060 9999 NCD 05/02
                        Q1028 TEMPO BKN014=
201704180350 METAR COR EGLL 180350Z AUTO 03004KT 330V070 9999 NCD 05/02
                        Q1028 TEMPO BKN014=
201704180320 METAR COR EGLL 180320Z AUTO VRB03KT 9999 NCD 05/02 Q1027
                        NOSIG=
201704180250 METAR COR EGLL 180250Z AUTO VRB03KT 9999 NCD 05/02 Q1027
                        NOSIG=
201704180220 METAR COR EGLL 180220Z AUTO 34003KT 9999 NCD 05/02 Q1027
                        NOSIG=
201704180150 METAR COR EGLL 180150Z AUTO VRB02KT 9999 NCD 05/03 Q1027
                        NOSIG=
201704180120 METAR COR EGLL 180120Z AUTO 34004KT 9999 NCD 05/02 Q1027
                        NOSIG=
201704180050 METAR COR EGLL 180050Z AUTO VRB02KT 9999 NCD 06/03 Q1027
                        NOSIG=
201704180020 METAR COR EGLL 180020Z AUTO 36003KT 9999 NCD 06/03 Q1027
                        NOSIG=
201704172350 METAR COR EGLL 172350Z AUTO 36004KT 9000 NCD 06/03 Q1027
                        NOSIG=
201704172320 METAR COR EGLL 172320Z AUTO VRB03KT 9999 NCD 07/03 Q1026
                        NOSIG=
201704172250 METAR COR EGLL 172250Z AUTO VRB02KT 9999 NCD 08/03 Q1026
                        NOSIG=
201704172220 METAR COR EGLL 172220Z AUTO VRB03KT 9999 NCD 09/03 Q1026
                        NOSIG=
201704172150 METAR COR EGLL 172150Z AUTO 36004KT 320V020 9999 NCD 09/03
                        Q1026 NOSIG=
201704172120 METAR COR EGLL 172120Z AUTO VRB03KT 9999 NCD 10/03 Q1026
                        NOSIG=
201704172050 METAR COR EGLL 172050Z AUTO VRB03KT 9999 FEW047 10/03 Q1026
                        NOSIG=
201704172020 METAR COR EGLL 172020Z AUTO VRB03KT 9999 NCD 10/03 Q1026
                        NOSIG=
201704171950 METAR COR EGLL 171950Z AUTO 36004KT 320V030 9999 NCD 10/02
                        Q1025 NOSIG=
201704171920 METAR COR EGLL 171920Z AUTO 36004KT 320V040 9999 NCD 11/02
                        Q1025 NOSIG=
201704171850 METAR EGLL 171850Z AUTO 36005KT 330V030 9999 NCD 11/03 Q1025=
201704171820 METAR COR EGLL 171820Z AUTO 35004KT 320V030 9999 NCD 11/03
                        Q1024 NOSIG=
201704171750 METAR COR EGLL 171750Z AUTO 36005KT 300V030 9999 FEW035 11/03
                        Q1024 NOSIG=
201704171720 METAR COR EGLL 171720Z AUTO 36004KT 320V040 9999 FEW035 BKN046
                        11/03 Q1024 NOSIG=
201704171650 METAR COR EGLL 171650Z AUTO 02005KT 350V060 9999 FEW034 BKN046
                        11/03 Q1024 NOSIG=
201704171620 METAR COR EGLL 171620Z AUTO 36005KT 300V050 9999 FEW033 SCT046
                        11/04 Q1024 NOSIG=
201704171550 METAR EGLL 171550Z AUTO 02004KT 320V060 9999 FEW034 BKN044
                        12/04 Q1024=
201704171520 METAR COR EGLL 171520Z AUTO 02005KT 300V050 9999 FEW033 BKN041
                        12/04 Q1024 NOSIG=
201704171450 METAR COR EGLL 171450Z AUTO 03005KT 330V080 9999 BKN032 11/04
                        Q1024 NOSIG=
201704171420 METAR COR EGLL 171420Z AUTO VRB03KT 9999 BKN030 BKN045 12/04
                        Q1024 NOSIG=
201704171350 METAR COR EGLL 171350Z AUTO 06005KT 010V100 9999 SCT028 BKN040
                        12/05 Q1024 NOSIG=
201704171320 METAR COR EGLL 171320Z AUTO 02005KT 320V070 9999 OVC031 11/05
                        Q1024 NOSIG=
201704171250 METAR COR EGLL 171250Z AUTO 34004KT 280V030 9999 BKN031 11/04
                        Q1024 NOSIG=
201704171220 METAR COR EGLL 171220Z AUTO 01004KT 310V110 9999 BKN028 11/04
                        Q1024 NOSIG=
201704171150 METAR COR EGLL 171150Z AUTO 35005KT 310V040 9999 BKN027 11/04
                        Q1023 NOSIG=
201704171120 METAR COR EGLL 171120Z AUTO 02004KT 320V060 9999 OVC027 10/04
                        Q1023 NOSIG=
201704171050 METAR COR EGLL 171050Z AUTO 06005KT 020V090 9999 OVC025 10/04
                        Q1023 NOSIG=
201704171020 METAR COR EGLL 171020Z AUTO 03005KT 350V070 9999 BKN022 10/04
                        Q1023 NOSIG=
201704170950 METAR COR EGLL 170950Z AUTO 04005KT 360V070 9999 BKN019 09/04
                        Q1023 NOSIG=
201704170920 METAR COR EGLL 170920Z AUTO 03006KT 340V080 9999 FEW018 OVC024
                        09/05 Q1023 NOSIG=
201704170850 METAR COR EGLL 170850Z AUTO 01005KT 320V050 9999 BKN013 09/06
                        Q1023 BECMG BKN027=
201704170820 METAR COR EGLL 170820Z AUTO 01005KT 330V050 9999 OVC013 08/06
                        Q1022 TEMPO SCT014 BKN020=
201704170750 METAR COR EGLL 170750Z AUTO 01005KT 340V060 9999 BKN014 08/06
                        Q1022 TEMPO FEW014 BKN018=
201704170720 METAR COR EGLL 170720Z AUTO 03005KT 340V080 9999 SCT015 08/06
                        Q1022 NOSIG=
201704170650 METAR COR EGLL 170650Z AUTO 04005KT 010V080 9999 FEW013 08/05
                        Q1022 NOSIG=
201704170620 METAR EGLL 170620Z AUTO 02006KT 340V060 9999 FEW017 08/06
                        Q1021=
201704170550 METAR COR EGLL 170550Z AUTO 03005KT 320V070 9999 BKN008 BKN032
                        08/07 Q1021 BECMG SCT012=
201704170520 METAR COR EGLL 170520Z AUTO 34005KT 310V030 8000 -RA SCT012
                        BKN033 08/07 Q1020 TEMPO BKN008=
201704170450 METAR COR EGLL 170450Z AUTO 33005KT 290V360 9999 SCT020 BKN036
                        09/06 Q1020 TEMPO BKN012=
201704170420 METAR COR EGLL 170420Z AUTO 32006KT 9999 BKN020 09/07 Q1020
                        TEMPO BKN012=
201704170350 METAR COR EGLL 170350Z AUTO 32006KT 290V350 9999 FEW032 09/07
                        Q1020 TEMPO BKN012=
201704170320 METAR COR EGLL 170320Z AUTO 31006KT 9999 NCD 09/07 Q1019
                        TEMPO BKN012=
201704170250 METAR COR EGLL 170250Z AUTO 32005KT 290V350 9999 NCD 09/07
                        Q1019 TEMPO BKN012=
201704170220 METAR COR EGLL 170220Z AUTO 31005KT 280V350 9999 FEW023 09/07
                        Q1019 TEMPO BKN012=
201704170150 METAR COR EGLL 170150Z AUTO 29004KT 9999 BKN020 09/08 Q1019
                        NOSIG=
201704170120 METAR COR EGLL 170120Z AUTO 29004KT 260V330 9999 SCT026 09/08
                        Q1019 NOSIG=
201704170050 METAR COR EGLL 170050Z AUTO 28007KT 9999 NCD 09/08 Q1019
                        NOSIG=
201704170020 METAR COR EGLL 170020Z AUTO 27007KT 9999 OVC042 09/08 Q1019
                        NOSIG=
201704162350 METAR COR EGLL 162350Z AUTO 28007KT 9999 -RA BKN034 OVC049
                        09/07 Q1020 NOSIG=
201704162320 METAR COR EGLL 162320Z AUTO 31012KT 270V340 7000 -RA FEW011///
                        BKN023/// //////CB 10/08 Q1020 TEMPO
                        4000 RADZ BKN012=
201704162250 METAR COR EGLL 162250Z AUTO 28009KT 9999 FEW014/// //////TCU
                        10/08 Q1020 TEMPO 4000 RADZ BKN012=
201704162220 METAR COR EGLL 162220Z AUTO 27010KT 9999 SCT017 11/08 Q1020
                        TEMPO SHRA=
201704162150 METAR COR EGLL 162150Z AUTO 26010KT 9999 NCD 11/08 Q1020
                        TEMPO SHRA=
201704162120 METAR COR EGLL 162120Z AUTO 26011KT 9999 NCD 11/08 Q1020
                        NOSIG=
201704162050 METAR COR EGLL 162050Z AUTO 27009KT 9999 FEW020 11/08 Q1020
                        NOSIG=
201704162020 METAR COR EGLL 162020Z AUTO 27010KT 9999 FEW023 12/08 Q1020
                        NOSIG=
201704161950 METAR COR EGLL 161950Z AUTO 27009KT 9999 SCT024 BKN036 12/08
                        Q1020 NOSIG=
201704161920 METAR COR EGLL 161920Z AUTO 26010KT 9999 -RA FEW026 BKN044
                        13/07 Q1020 NOSIG=
201704161850 METAR COR EGLL 161850Z AUTO 27011KT 9999 FEW029 SCT042 12/07
                        Q1020 NOSIG=
201704161820 METAR COR EGLL 161820Z AUTO 27012KT 9999 FEW029 13/07 Q1020
                        NOSIG=
201704161750 METAR COR EGLL 161750Z AUTO 28012KT 9999 FEW043 13/07 Q1020
                        NOSIG=
201704161720 METAR COR EGLL 161720Z AUTO 28012KT 9999 BKN036 13/07 Q1020
                        NOSIG=
201704161650 METAR COR EGLL 161650Z AUTO 27014KT 9999 BKN034 14/07 Q1021
                        NOSIG=
201704161620 METAR COR EGLL 161620Z AUTO 28010KT 9999 FEW022 OVC037 13/07
                        Q1021 NOSIG=
201704161550 METAR COR EGLL 161550Z AUTO 27011KT 9999 BKN036 14/06 Q1021
                        NOSIG=
201704161520 METAR COR EGLL 161520Z AUTO 27014KT 9999 SCT035 14/05 Q1021
                        NOSIG=
201704161450 METAR COR EGLL 161450Z AUTO 28012KT 9999 FEW025 BKN041 15/05
                        Q1021 NOSIG=
201704161420 METAR COR EGLL 161420Z AUTO 27013KT 9999 BKN044 14/04 Q1021
                        NOSIG=
201704161350 METAR COR EGLL 161350Z AUTO 27013KT 9999 SCT046 15/04 Q1022
                        NOSIG=
201704161320 METAR COR EGLL 161320Z AUTO 29011KT 260V320 9999 FEW044 14/04
                        Q1022 NOSIG=
201704161250 METAR COR EGLL 161250Z AUTO 28012KT 9999 BKN044 14/03 Q1022
                        NOSIG=
201704161220 METAR COR EGLL 161220Z AUTO 29010KT 9999 SCT044 15/03 Q1022
                        NOSIG=
201704161150 METAR COR EGLL 161150Z AUTO 27012KT 9999 BKN042 14/03 Q1022
                        NOSIG=
201704161120 METAR COR EGLL 161120Z AUTO 29012KT 260V320 9999 SCT041 14/03
                        Q1023 NOSIG=
201704161050 METAR COR EGLL 161050Z AUTO 29010KT 260V330 9999 BKN041 13/03
                        Q1023 NOSIG=
201704161020 METAR COR EGLL 161020Z AUTO 29011KT 9999 BKN038 12/03 Q1023
                        NOSIG=
201704160950 METAR COR EGLL 160950Z AUTO 29010KT 9999 SCT039 12/03 Q1023
                        NOSIG=
201704160920 METAR COR EGLL 160920Z AUTO 31007KT 9999 SCT037 12/03 Q1023
                        NOSIG=
201704160850 METAR COR EGLL 160850Z AUTO 30007KT 260V340 9999 FEW031 11/04
                        Q1023 NOSIG=
201704160820 METAR COR EGLL 160820Z AUTO 30006KT 260V330 9999 NCD 10/04
                        Q1023 NOSIG=
201704160750 METAR COR EGLL 160750Z AUTO 26008KT 9999 NCD 08/05 Q1023
                        NOSIG=
201704160720 METAR COR EGLL 160720Z AUTO 27007KT 9999 NCD 08/04 Q1023
                        NOSIG=
201704160650 METAR COR EGLL 160650Z AUTO 27008KT 9999 NCD 08/04 Q1023
                        NOSIG=
201704160620 METAR COR EGLL 160620Z AUTO 28007KT 9999 NCD 07/04 Q1023
                        NOSIG=
201704160550 METAR COR EGLL 160550Z AUTO 27008KT 9999 NCD 07/04 Q1023
                        NOSIG=
201704160520 METAR COR EGLL 160520Z AUTO 27007KT 9999 NCD 07/03 Q1023
                        NOSIG=
201704160450 METAR COR EGLL 160450Z AUTO 28007KT 9999 NCD 07/03 Q1023
                        NOSIG=
201704160420 METAR COR EGLL 160420Z AUTO 27007KT 9999 NCD 07/03 Q1022
                        NOSIG=
201704160350 METAR COR EGLL 160350Z AUTO 27007KT 9999 NCD 07/03 Q1022
                        NOSIG=
201704160320 METAR COR EGLL 160320Z AUTO 27007KT 9999 NCD 07/03 Q1022
                        NOSIG=
201704160250 METAR COR EGLL 160250Z AUTO 28006KT 9999 NCD 07/03 Q1022
                        NOSIG=
201704160220 METAR COR EGLL 160220Z AUTO 27007KT 9999 NCD 06/03 Q1022
                        NOSIG=
201704160150 METAR COR EGLL 160150Z AUTO 27007KT 9999 NCD 05/02 Q1022
                        NOSIG=
201704160120 METAR COR EGLL 160120Z AUTO 27008KT 9999 NCD 06/02 Q1022
                        NOSIG=
201704160050 METAR COR EGLL 160050Z AUTO 27007KT 9999 NCD 06/02 Q1022
                        NOSIG=
201704160020 METAR COR EGLL 160020Z AUTO 29005KT 9999 NCD 07/02 Q1022
                        NOSIG=
201704152350 METAR COR EGLL 152350Z AUTO 28006KT 9999 NCD 07/02 Q1022
                        NOSIG=
201704152320 METAR COR EGLL 152320Z AUTO 28006KT 9999 NCD 08/02 Q1022
                        NOSIG=
201704152250 METAR COR EGLL 152250Z AUTO 31005KT 9999 NCD 08/01 Q1022
                        NOSIG=
201704152220 METAR COR EGLL 152220Z AUTO 29005KT 9999 NCD 08/01 Q1022
                        NOSIG=
201704152150 METAR COR EGLL 152150Z AUTO 29005KT 9999 NCD 09/01 Q1021
                        NOSIG=
201704152120 METAR COR EGLL 152120Z AUTO 29006KT 9999 NCD 10/01 Q1021
                        NOSIG=
201704152050 METAR COR EGLL 152050Z AUTO 29006KT 9999 NCD 10/01 Q1021
                        NOSIG=
201704152020 METAR COR EGLL 152020Z AUTO 29006KT 9999 NCD 11/01 Q1021
                        NOSIG=
201704151950 METAR COR EGLL 151950Z AUTO 29006KT 9999 NCD 11/00 Q1020
                        NOSIG=
201704151920 METAR COR EGLL 151920Z AUTO 30005KT 9999 NCD 12/00 Q1020
                        NOSIG=
201704151850 METAR COR EGLL 151850Z AUTO 30007KT 9999 NCD 12/00 Q1020
                        NOSIG=
201704151820 METAR COR EGLL 151820Z AUTO 29010KT 9999 NCD 13/00 Q1019
                        NOSIG=
201704151750 METAR COR EGLL 151750Z AUTO 29011KT 9999 NCD 13/00 Q1019
                        NOSIG=
201704151720 METAR COR EGLL 151720Z AUTO 30011KT 9999 NCD 13/01 Q1019
                        NOSIG=
201704151650 METAR COR EGLL 151650Z AUTO 30011KT 9999 NCD 13/00 Q1019
                        NOSIG=
201704151620 METAR COR EGLL 151620Z AUTO 30010KT 9999 NCD 14/00 Q1018
                        NOSIG=
201704151550 METAR COR EGLL 151550Z AUTO 30011KT 270V340 9999 NCD 15/01
                        Q1018 NOSIG=
201704151520 METAR COR EGLL 151520Z AUTO 30010KT 270V340 9999 NCD 15/01
                        Q1018 NOSIG=
201704151450 METAR COR EGLL 151450Z AUTO 28010KT 250V320 9999 NCD 15/01
                        Q1018 NOSIG=
201704151420 METAR COR EGLL 151420Z AUTO 28013G24KT 240V330 9999 NCD 15/01
                        Q1019 NOSIG=
201704151350 METAR COR EGLL 151350Z AUTO 28011KT 250V320 9999 NCD 14/01
                        Q1019 NOSIG=
201704151320 METAR COR EGLL 151320Z AUTO 28011KT 260V320 9999 NCD 14/01
                        Q1019 NOSIG=
201704151250 METAR COR EGLL 151250Z AUTO 29009KT 260V350 9999 BKN049 14/01
                        Q1019 NOSIG=
201704151220 METAR COR EGLL 151220Z AUTO 29011KT 270V330 9999 SCT047 13/01
                        Q1019 NOSIG=
201704151150 METAR COR EGLL 151150Z AUTO 29010KT 260V330 9999 SCT045 12/01
                        Q1019 NOSIG=
201704151120 METAR COR EGLL 151120Z AUTO 30009KT 9999 BKN046 12/01 Q1019
                        NOSIG=
201704151050 METAR COR EGLL 151050Z AUTO 29011KT 270V330 9999 SCT048 12/01
                        Q1019 NOSIG=
201704151020 METAR COR EGLL 151020Z AUTO 30011KT 260V340 9999 SCT048 12/00
                        Q1019 NOSIG=
201704150950 METAR COR EGLL 150950Z AUTO 30009KT 270V350 9999 FEW032 11/02
                        Q1019 NOSIG=
201704150920 METAR COR EGLL 150920Z AUTO 32008KT 290V360 9999 FEW049 11/04
                        Q1018 NOSIG=
201704150850 METAR COR EGLL 150850Z AUTO 33009KT 300V010 9999 NCD 11/04
                        Q1018 NOSIG=
201704150820 METAR COR EGLL 150820Z AUTO 33006KT 300V010 9999 FEW023 OVC048
                        10/05 Q1018 NOSIG=
201704150750 METAR COR EGLL 150750Z AUTO 31008KT 9999 SCT024 OVC044 11/06
                        Q1018 NOSIG=
201704150720 METAR COR EGLL 150720Z AUTO 30007KT 9999 FEW022 OVC049 11/07
                        Q1017 NOSIG=
201704150650 METAR COR EGLL 150650Z AUTO 30008KT 9999 FEW017 11/07 Q1017
                        NOSIG=
201704150620 METAR COR EGLL 150620Z AUTO 28008KT 9999 SCT016 10/08 Q1017
                        NOSIG=
201704150550 METAR COR EGLL 150550Z 28007KT 9999 SCT015 BKN028 10/09 Q1016
                        NOSIG=
201704150520 METAR COR EGLL 150520Z AUTO 29007KT 9999 SCT013 10/09 Q1016
                        NOSIG NOSIG=
201704150450 METAR COR EGLL 150450Z AUTO 27007KT 9999 FEW016 10/09 Q1016
                        NOSIG=
201704150420 METAR COR EGLL 150420Z AUTO 27006KT 9999 NCD 09/09 Q1016
                        NOSIG=
201704150350 METAR COR EGLL 150350Z AUTO 28006KT 9999 FEW013 09/08 Q1016
                        NOSIG=
201704150320 METAR COR EGLL 150320Z AUTO 27006KT 9999 NCD 10/09 Q1016
                        NOSIG=
201704150250 METAR COR EGLL 150250Z AUTO 27007KT 9999 FEW013 BKN042 10/09
                        Q1016 NOSIG=
201704150220 METAR COR EGLL 150220Z AUTO 27009KT 9999 FEW013 10/09 Q1016
                        NOSIG=
201704150150 METAR COR EGLL 150150Z AUTO 27010KT 9999 SCT015 10/09 Q1016
                        NOSIG=
201704150120 METAR COR EGLL 150120Z AUTO 26010KT 9999 BKN015 11/08 Q1016
                        NOSIG=
201704150050 METAR COR EGLL 150050Z AUTO 26012KT 9999 BKN014 11/08 Q1016
                        NOSIG=
201704150020 METAR COR EGLL 150020Z AUTO 26012KT 9999 BKN015 11/08 Q1016
                        TEMPO BKN014=
201704142350 METAR EGLL 142350Z AUTO 25012KT 9999 BKN015 11/08 Q1015=
201704142320 METAR COR EGLL 142320Z AUTO 26010KT 9999 OVC016 11/08 Q1015
                        TEMPO BKN014=
201704142250 METAR COR EGLL 142250Z AUTO 25010KT 9999 OVC016 11/09 Q1015
                        TEMPO BKN014=
201704142220 METAR COR EGLL 142220Z AUTO 25011KT 9999 BKN018 11/09 Q1015
                        TEMPO BKN014=
201704142150 METAR COR EGLL 142150Z AUTO 25011KT 9999 -RA SCT020 12/09
                        Q1016 NOSIG=
201704142120 METAR COR EGLL 142120Z AUTO 25012KT 9999 -RA FEW021 BKN035
                        12/09 Q1016 TEMPO BKN014=
201704142050 METAR COR EGLL 142050Z AUTO 25013KT 9999 -RA BKN023 12/08
                        Q1016 TEMPO BKN014=
201704142020 METAR COR EGLL 142020Z AUTO 25013KT 9999 -RA BKN025 13/08
                        Q1016 TEMPO BKN014=
201704141950 METAR COR EGLL 141950Z AUTO 24011KT 9999 BKN025 13/07 Q1016
                        TEMPO BKN014=
201704141920 METAR COR EGLL 141920Z AUTO 24011KT 9999 BKN028 13/07 Q1015
                        NOSIG=
201704141850 METAR COR EGLL 141850Z AUTO 24012KT 9999 OVC030 14/07 Q1015
                        NOSIG=
201704141820 METAR COR EGLL 141820Z AUTO 25011KT 9999 OVC032 14/07 Q1015
                        NOSIG=
201704141750 METAR COR EGLL 141750Z AUTO 25012KT 9999 OVC033 14/07 Q1015
                        NOSIG=
201704141720 METAR COR EGLL 141720Z AUTO 25012KT 9999 BKN033 14/07 Q1015
                        NOSIG=
201704141650 METAR COR EGLL 141650Z AUTO 25012KT 9999 SCT033 14/07 Q1015
                        NOSIG=
201704141620 METAR COR EGLL 141620Z AUTO 24010KT 9999 BKN033 15/07 Q1015
                        NOSIG=
201704141550 METAR COR EGLL 141550Z AUTO 27012KT 9999 OVC034 14/07 Q1016
                        NOSIG=
201704141520 METAR COR EGLL 141520Z AUTO 24013KT 9999 BKN034 14/07 Q1016
                        NOSIG=
201704141450 METAR COR EGLL 141450Z AUTO 26013KT 9999 OVC033 14/07 Q1016
                        NOSIG=
201704141420 METAR COR EGLL 141420Z AUTO 26010KT 230V290 9999 OVC033 14/07
                        Q1016 NOSIG=
201704141350 METAR COR EGLL 141350Z AUTO 26015KT 9999 OVC032 14/06 Q1016
                        NOSIG=
201704141320 METAR COR EGLL 141320Z AUTO 25012KT 9999 OVC030 14/06 Q1017
                        NOSIG=
201704141250 METAR COR EGLL 141250Z AUTO 24012KT 9999 OVC029 14/07 Q1017
                        NOSIG=
201704141220 METAR COR EGLL 141220Z AUTO 25012KT 9999 OVC026 13/07 Q1017
                        NOSIG=
201704141150 METAR COR EGLL 141150Z AUTO 24011KT 9999 BKN024 OVC042 14/07
                        Q1017 NOSIG=
201704141120 METAR COR EGLL 141120Z AUTO 27012KT 9999 BKN026 OVC039 13/06
                        Q1017 NOSIG=
201704141050 METAR COR EGLL 141050Z AUTO 25008KT 190V290 9999 BKN027 12/05
                        Q1017 NOSIG=
201704141020 METAR COR EGLL 141020Z AUTO 24010KT 9999 OVC034 12/05 Q1018
                        NOSIG=
201704140950 METAR COR EGLL 140950Z AUTO 26009KT 9999 OVC039 11/05 Q1018
                        NOSIG=
201704140920 METAR COR EGLL 140920Z AUTO 26010KT 9999 OVC039 11/04 Q1018
                        NOSIG=
201704140850 METAR COR EGLL 140850Z AUTO 25009KT 9999 OVC040 11/03 Q1018
                        NOSIG=
201704140820 METAR COR EGLL 140820Z AUTO 27010KT 9999 OVC043 10/03 Q1018
                        NOSIG=
201704140750 METAR COR EGLL 140750Z AUTO 27009KT 9999 NCD 09/03 Q1018
                        NOSIG=
201704140720 METAR COR EGLL 140720Z AUTO 29007KT 9999 NCD 09/03 Q1018
                        NOSIG=
201704140650 METAR COR EGLL 140650Z AUTO 27005KT 9999 NCD 09/03 Q1018
                        NOSIG=
201704140620 METAR COR EGLL 140620Z AUTO 28006KT 9999 NCD 08/03 Q1018
                        NOSIG=
201704140550 METAR COR EGLL 140550Z AUTO 28006KT 9999 NCD 07/03 Q1018
                        NOSIG=
201704140520 METAR COR EGLL 140520Z AUTO 27006KT 9999 FEW048 06/03 Q1017
                        NOSIG=
201704140450 METAR COR EGLL 140450Z AUTO 27006KT 9999 BKN044 07/03 Q1017
                        NOSIG=
201704140420 METAR COR EGLL 140420Z AUTO 27005KT 9999 OVC044 08/03 Q1017
                        NOSIG=
201704140350 METAR COR EGLL 140350Z AUTO 29005KT 9999 OVC044 09/04 Q1017
                        NOSIG=
201704140320 METAR COR EGLL 140320Z AUTO 29006KT 9999 OVC044 09/04 Q1017
                        NOSIG=
201704140250 METAR COR EGLL 140250Z AUTO 29006KT 9999 OVC044 09/03 Q1017
                        NOSIG=
201704140220 METAR COR EGLL 140220Z AUTO 30005KT 9999 OVC044 09/04 Q1017
                        NOSIG=
201704140150 METAR COR EGLL 140150Z AUTO 30005KT 9999 OVC043 10/04 Q1017
                        NOSIG=
201704140120 METAR COR EGLL 140120Z AUTO 29005KT 9999 OVC043 10/03 Q1017
                        NOSIG=
201704140050 METAR COR EGLL 140050Z AUTO 28006KT 9999 OVC043 10/03 Q1018
                        NOSIG=
201704140020 METAR COR EGLL 140020Z AUTO 27005KT 9999 OVC044 10/03 Q1018
                        NOSIG=
201704132350 METAR COR EGLL 132350Z AUTO 27004KT 9999 OVC044 10/03 Q1018
                        NOSIG=
201704132320 METAR COR EGLL 132320Z AUTO 27003KT 9999 OVC045 10/03 Q1018
                        NOSIG=
201704132250 METAR COR EGLL 132250Z AUTO 29004KT 9999 OVC043 10/03 Q1018
                        NOSIG=
201704132220 METAR COR EGLL 132220Z AUTO 27005KT 9999 OVC045 11/02 Q1018
                        NOSIG=
201704132150 METAR COR EGLL 132150Z AUTO 28005KT 9999 OVC045 11/02 Q1018
                        NOSIG=
201704132120 METAR COR EGLL 132120Z AUTO 29004KT 270V330 9999 OVC045 11/02
                        Q1018 NOSIG=
201704132050 METAR COR EGLL 132050Z AUTO 31004KT 9999 OVC046 11/02 Q1018
                        NOSIG=
201704132020 METAR COR EGLL 132020Z AUTO 29004KT 9999 OVC046 12/01 Q1018
                        NOSIG=
201704131950 METAR COR EGLL 131950Z AUTO 30005KT 9999 OVC046 12/02 Q1018
                        NOSIG=
201704131920 METAR COR EGLL 131920Z AUTO 31004KT 9999 OVC045 12/02 Q1018
                        NOSIG=
201704131850 METAR COR EGLL 131850Z AUTO 31005KT 9999 OVC047 12/02 Q1018
                        NOSIG=
201704131820 METAR COR EGLL 131820Z AUTO 32006KT 9999 OVC049 12/02 Q1018
                        NOSIG=
201704131750 METAR COR EGLL 131750Z AUTO 33005KT 280V040 9999 OVC048 12/02
                        Q1018 NOSIG=
201704131720 METAR COR EGLL 131720Z AUTO 35005KT 310V030 9999 OVC046 13/02
                        Q1018 NOSIG=
201704131650 METAR COR EGLL 131650Z AUTO 32006KT 290V360 9999 BKN046 13/02
                        Q1017 NOSIG=
201704131620 METAR COR EGLL 131620Z AUTO 30007KT 270V340 9999 BKN047 13/02
                        Q1017 NOSIG=
201704131550 METAR COR EGLL 131550Z AUTO 28009KT 250V310 9999 NCD 13/02
                        Q1017 NOSIG=
201704131520 METAR COR EGLL 131520Z AUTO 27008KT 240V300 9999 BKN046 13/03
                        Q1017 NOSIG=
201704131450 METAR COR EGLL 131450Z AUTO 30007KT 250V360 9999 BKN045 13/02
                        Q1018 NOSIG=
201704131420 METAR COR EGLL 131420Z AUTO 25009KT 220V290 9999 FEW046 13/03
                        Q1018 NOSIG=
201704131350 METAR COR EGLL 131350Z AUTO 28008KT 250V350 9999 SCT043 14/02
                        Q1018 NOSIG=
201704131320 METAR COR EGLL 131320Z AUTO 28005KT 230V330 9999 BKN046 14/02
                        Q1018 NOSIG=
201704131250 METAR COR EGLL 131250Z AUTO 29007KT 250V340 9999 OVC047 13/02
                        Q1018 NOSIG=
201704131220 METAR COR EGLL 131220Z AUTO 31007KT 270V350 9999 BKN047 12/01
                        Q1019 NOSIG=
201704131150 METAR COR EGLL 131150Z AUTO 30008KT 270V340 9999 OVC045 12/02
                        Q1019 NOSIG=
201704131120 METAR COR EGLL 131120Z AUTO 29008KT 270V340 9999 OVC045 12/02
                        Q1019 NOSIG=
201704131050 METAR COR EGLL 131050Z AUTO 29008KT 260V340 9999 OVC041 11/02
                        Q1019 NOSIG=
201704131020 METAR COR EGLL 131020Z AUTO 29009KT 9999 OVC039 11/02 Q1019
                        NOSIG=
201704130950 METAR COR EGLL 130950Z AUTO 31006KT 280V360 9999 BKN036 11/02
                        Q1019 NOSIG=
201704130920 METAR COR EGLL 130920Z AUTO 30008KT 270V330 9999 BKN034 11/03
                        Q1019 NOSIG=
201704130850 METAR COR EGLL 130850Z AUTO 29009KT 9999 SCT029 10/03 Q1019
                        NOSIG=
201704130820 METAR COR EGLL 130820Z AUTO 30008KT 270V360 9999 NCD 10/04
                        Q1019 NOSIG=
201704130750 METAR COR EGLL 130750Z AUTO 31008KT 270V340 9999 NCD 10/04
                        Q1019 NOSIG=
201704130720 METAR COR EGLL 130720Z AUTO 29007KT 270V330 9999 NCD 09/04
                        Q1019 NOSIG=
201704130650 METAR COR EGLL 130650Z AUTO 30005KT 270V330 9999 FEW042 09/04
                        Q1019 NOSIG=
201704130620 METAR COR EGLL 130620Z AUTO 31003KT 9999 SCT041 08/04 Q1019
                        NOSIG=
201704130550 METAR COR EGLL 130550Z AUTO VRB03KT 9999 NCD 08/04 Q1018
                        NOSIG=
201704130520 METAR COR EGLL 130520Z AUTO 30003KT 9999 NCD 07/04 Q1018
                        NOSIG=
201704130450 METAR COR EGLL 130450Z AUTO 28005KT 9999 NCD 05/03 Q1018
                        NOSIG=
201704130420 METAR COR EGLL 130420Z AUTO 29004KT 9999 NCD 06/04 Q1018
                        NOSIG=
201704130350 METAR COR EGLL 130350Z AUTO VRB03KT 9999 NCD 06/03 Q1018
                        NOSIG=
201704130320 METAR COR EGLL 130320Z AUTO 29004KT 9999 NCD 06/03 Q1018
                        NOSIG=
201704130250 METAR COR EGLL 130250Z AUTO 30005KT 9999 NCD 08/04 Q1018
                        NOSIG=
201704130220 METAR COR EGLL 130220Z AUTO 28005KT 9999 NCD 07/04 Q1018
                        NOSIG=
201704130150 METAR COR EGLL 130150Z AUTO 29003KT 9999 NCD 08/04 Q1018
                        NOSIG=
201704130120 METAR COR EGLL 130120Z AUTO 29004KT 9999 FEW039 07/04 Q1018
                        NOSIG=
201704130050 METAR COR EGLL 130050Z AUTO 31003KT 9999 FEW039 09/04 Q1018
                        NOSIG=
201704130020 METAR COR EGLL 130020Z AUTO 31005KT 9999 NCD 10/03 Q1018
                        NOSIG=
201704122350 METAR COR EGLL 122350Z AUTO 30008KT 9999 FEW037 10/03 Q1018
                        NOSIG=
201704122320 METAR COR EGLL 122320Z AUTO 31006KT 9999 FEW033 OVC045 11/04
                        Q1018 NOSIG=
201704122250 METAR COR EGLL 122250Z AUTO 32007KT 290V360 9999 BKN027 11/05
                        Q1018 NOSIG=
201704122220 METAR COR EGLL 122220Z AUTO 34008KT 310V030 9999 BKN024 12/06
                        Q1018 NOSIG=
201704122150 METAR COR EGLL 122150Z AUTO 31005KT 9999 BKN026 13/07 Q1018
                        NOSIG=
201704122120 METAR COR EGLL 122120Z AUTO 29006KT 9999 SCT030 BKN042 13/07
                        Q1018 NOSIG=
201704122050 METAR COR EGLL 122050Z AUTO 30008KT 9999 SCT031 13/07 Q1017
                        NOSIG=
201704122020 METAR COR EGLL 122020Z AUTO 29008KT 9999 BKN031 OVC046 13/07
                        Q1017 NOSIG=
201704121950 METAR COR EGLL 121950Z AUTO 30008KT 260V340 9999 BKN043 13/06
                        Q1017 NOSIG=
201704121920 METAR COR EGLL 121920Z AUTO 30010KT 9999 FEW036 14/06 Q1017
                        NOSIG=
201704121850 METAR COR EGLL 121850Z AUTO 30010KT 9999 BKN036 15/07 Q1017
                        NOSIG=
201704121820 METAR COR EGLL 121820Z AUTO 28012KT 9999 OVC037 15/07 Q1016
                        NOSIG=
201704121750 METAR COR EGLL 121750Z AUTO 27010KT 9999 BKN040 15/06 Q1016
                        NOSIG=
201704121720 METAR COR EGLL 121720Z AUTO 28012KT 9999 OVC042 15/06 Q1016
                        NOSIG=
201704121650 METAR COR EGLL 121650Z AUTO 29010KT 260V320 9999 OVC042 15/06
                        Q1016 NOSIG=
201704121620 METAR COR EGLL 121620Z AUTO 29012KT 9999 BKN044 16/06 Q1016
                        NOSIG=
201704121550 METAR COR EGLL 121550Z AUTO 28014KT 9999 SCT043 17/06 Q1016
                        NOSIG=
201704121520 METAR COR EGLL 121520Z AUTO 28012KT 9999 FEW043 16/06 Q1017
                        NOSIG=
201704121450 METAR COR EGLL 121450Z AUTO 28013KT 250V310 9999 FEW044 16/05
                        Q1017 NOSIG=
201704121420 METAR COR EGLL 121420Z AUTO 28014KT 9999 NCD 16/05 Q1017
                        NOSIG=
201704121350 METAR COR EGLL 121350Z AUTO 28013KT 250V320 9999 NCD 16/06
                        Q1017 NOSIG=
201704121320 METAR COR EGLL 121320Z AUTO 27013KT 9999 FEW040 16/06 Q1018
                        NOSIG=
201704121250 METAR COR EGLL 121250Z AUTO 29012KT 260V320 9999 SCT035 15/06
                        Q1018 NOSIG=
201704121220 METAR EGLL 121220Z AUTO 29012KT 260V320 9999 SCT034 15/06
                        Q1018=
201704121150 METAR COR EGLL 121150Z AUTO 28015KT 9999 SCT034 15/06 Q1018
                        NOSIG=
201704121120 METAR COR EGLL 121120Z AUTO 28014KT 9999 BKN030 14/06 Q1019
                        NOSIG=
201704121050 METAR COR EGLL 121050Z AUTO 27013KT 9999 BKN026 13/06 Q1019
                        NOSIG=
201704121020 METAR COR EGLL 121020Z AUTO 26013KT 9999 OVC025 12/06 Q1019
                        NOSIG=
201704120950 METAR COR EGLL 120950Z AUTO 27012KT 9999 BKN023 12/06 Q1019
                        NOSIG=
201704120920 METAR COR EGLL 120920Z AUTO 27012KT 9999 BKN020 12/06 Q1019
                        NOSIG=
201704120850 METAR COR EGLL 120850Z AUTO 26010KT 9999 BKN020 11/06 Q1019
                        NOSIG=
201704120820 METAR COR EGLL 120820Z AUTO 26010KT 9999 OVC021 10/06 Q1019
                        NOSIG=
201704120750 METAR COR EGLL 120750Z AUTO 26010KT 9999 OVC020 10/06 Q1020
                        NOSIG=
201704120720 METAR COR EGLL 120720Z AUTO 25009KT 9999 OVC019 09/06 Q1020
                        NOSIG=
201704120650 METAR COR EGLL 120650Z AUTO 26008KT 9999 OVC019 09/06 Q1020
                        NOSIG=
201704120620 METAR COR EGLL 120620Z AUTO 28008KT 9999 OVC018 08/05 Q1020
                        NOSIG=
201704120550 METAR COR EGLL 120550Z AUTO 26007KT 9999 FEW021 07/05 Q1020
                        NOSIG=
201704120520 METAR COR EGLL 120520Z AUTO 25007KT 9999 NCD 07/05 Q1020
                        NOSIG=
201704120450 METAR COR EGLL 120450Z AUTO 24008KT 9999 NCD 07/05 Q1021
                        NOSIG=
201704120420 METAR COR EGLL 120420Z AUTO 26008KT 9999 FEW020 06/05 Q1021
                        NOSIG=
201704120350 METAR COR EGLL 120350Z AUTO 25008KT 9999 NCD 07/05 Q1021
                        NOSIG=
201704120320 METAR COR EGLL 120320Z AUTO 24008KT 9999 NCD 07/05 Q1021
                        NOSIG=
201704120250 METAR COR EGLL 120250Z AUTO 25008KT 9999 NCD 07/05 Q1021
                        NOSIG=
201704120220 METAR COR EGLL 120220Z AUTO 25008KT 9999 NCD 07/05 Q1022
                        NOSIG=
201704120150 METAR COR EGLL 120150Z AUTO 25008KT 9999 NCD 07/05 Q1022
                        NOSIG=
201704120120 METAR COR EGLL 120120Z AUTO 25009KT 9999 NCD 07/05 Q1022
                        NOSIG=
201704120050 METAR COR EGLL 120050Z AUTO 26008KT 9999 NCD 07/05 Q1023
                        NOSIG=
201704120020 METAR COR EGLL 120020Z AUTO 26008KT 9999 NCD 08/05 Q1023
                        NOSIG=
201704112350 METAR COR EGLL 112350Z AUTO 25008KT 9999 NCD 09/05 Q1023
                        NOSIG=
201704112320 METAR COR EGLL 112320Z AUTO 25008KT 9999 NCD 09/05 Q1023
                        NOSIG=
201704112250 METAR COR EGLL 112250Z AUTO 25009KT 9999 NCD 10/05 Q1024
                        NOSIG=
201704112220 METAR COR EGLL 112220Z AUTO 25010KT 9999 NCD 10/04 Q1024
                        NOSIG=
201704112150 METAR COR EGLL 112150Z AUTO 25010KT 9999 NCD 11/04 Q1024
                        NOSIG=
201704112120 METAR COR EGLL 112120Z AUTO 26011KT 9999 NCD 11/04 Q1024
                        NOSIG=
201704112050 METAR EGLL 112050Z AUTO 26010KT 9999 NCD 12/03 Q1024=
201704112020 METAR COR EGLL 112020Z AUTO 25010KT 9999 NCD 12/03 Q1024
                        NOSIG=
201704111950 METAR COR EGLL 111950Z AUTO 27009KT 9999 NCD 13/03 Q1024
                        NOSIG=
201704111920 METAR COR EGLL 111920Z AUTO 25009KT 9999 NCD 13/04 Q1024
                        NOSIG=
201704111850 METAR COR EGLL 111850Z AUTO 25011KT 9999 NCD 14/05 Q1024
                        NOSIG=
201704111820 METAR COR EGLL 111820Z AUTO 25010KT 9999 NCD 14/05 Q1024
                        NOSIG=
201704111750 METAR COR EGLL 111750Z AUTO 26011KT 230V290 9999 FEW043 15/05
                        Q1025 NOSIG=
201704111720 METAR COR EGLL 111720Z AUTO 26010KT 9999 NCD 15/05 Q1025
                        NOSIG=
201704111650 METAR COR EGLL 111650Z AUTO 26010KT 9999 NCD 15/05 Q1025
                        NOSIG=
201704111620 METAR COR EGLL 111620Z AUTO 27011KT 9999 FEW044 15/05 Q1025
                        NOSIG=
201704111550 METAR COR EGLL 111550Z AUTO 26009KT 9999 NCD 16/05 Q1025
                        NOSIG=
201704111520 METAR COR EGLL 111520Z AUTO 27011KT 9999 NCD 16/05 Q1026
                        NOSIG=
201704111450 METAR COR EGLL 111450Z AUTO 28009KT 9999 NCD 15/05 Q1026
                        NOSIG=
201704111420 METAR COR EGLL 111420Z AUTO 26009KT 230V290 9999 NCD 15/05
                        Q1027 NOSIG=
201704111350 METAR COR EGLL 111350Z AUTO 27009KT 230V310 9999 FEW041 15/04
                        Q1027 NOSIG=
201704111320 METAR COR EGLL 111320Z AUTO 28009KT 240V320 9999 NCD 15/04
                        Q1027 NOSIG=
201704111250 METAR EGLL 111250Z AUTO 26010KT 230V300 9999 FEW042 15/04
                        Q1028=
201704111220 METAR COR EGLL 111220Z AUTO 31007KT 270V030 9999 SCT039 14/04
                        Q1028 NOSIG=
201704111150 METAR COR EGLL 111150Z AUTO VRB04KT 9999 FEW039 13/03 Q1028
                        NOSIG=
201704111120 METAR COR EGLL 111120Z AUTO 29008KT 250V330 9999 FEW039 13/03
                        Q1028 NOSIG=
201704111050 METAR COR EGLL 111050Z AUTO 29007KT 250V330 9999 NCD 12/03
                        Q1029 NOSIG=
201704111020 METAR COR EGLL 111020Z AUTO VRB03KT 9999 NCD 11/04 Q1029
                        NOSIG=
201704110950 METAR COR EGLL 110950Z AUTO 30006KT 270V350 9999 NCD 11/04
                        Q1029 NOSIG=
201704110920 METAR COR EGLL 110920Z AUTO 34006KT 290V030 9999 NCD 10/04
                        Q1029 NOSIG=
201704110850 METAR COR EGLL 110850Z AUTO 33007KT 300V020 9999 FEW026 10/04
                        Q1029 NOSIG=
201704110820 METAR COR EGLL 110820Z AUTO 31007KT 280V010 9999 NCD 09/04
                        Q1029 NOSIG=
201704110750 METAR COR EGLL 110750Z AUTO 31005KT 270V020 9999 NCD 09/04
                        Q1029 NOSIG=
201704110720 METAR COR EGLL 110720Z AUTO 30006KT 9999 NCD 08/04 Q1029
                        NOSIG=
201704110650 METAR COR EGLL 110650Z AUTO 29005KT 9999 NCD 07/04 Q1029
                        NOSIG=
201704110620 METAR COR EGLL 110620Z AUTO 29005KT 9999 NCD 07/04 Q1029
                        NOSIG=
201704110550 METAR COR EGLL 110550Z AUTO 28004KT 9999 NCD 07/03 Q1028
                        NOSIG=
201704110520 METAR COR EGLL 110520Z AUTO 29004KT 9999 NCD 06/03 Q1028
                        NOSIG=
201704110450 METAR COR EGLL 110450Z AUTO 29004KT 9999 NCD 05/03 Q1028
                        NOSIG=
201704110420 METAR COR EGLL 110420Z AUTO 28004KT 9999 NCD 05/03 Q1028
                        NOSIG=
201704110350 METAR COR EGLL 110350Z AUTO 29004KT 9999 NCD 06/03 Q1028
                        NOSIG=
201704110320 METAR COR EGLL 110320Z AUTO 28005KT 9999 NCD 06/03 Q1028
                        NOSIG=
201704110250 METAR COR EGLL 110250Z AUTO 28004KT 9999 NCD 06/03 Q1028
                        NOSIG=
201704110220 METAR COR EGLL 110220Z AUTO 29004KT 9999 NCD 06/03 Q1028
                        NOSIG=
201704110150 METAR COR EGLL 110150Z AUTO 30003KT 9999 NCD 08/03 Q1028
                        NOSIG=
201704110120 METAR COR EGLL 110120Z AUTO 29004KT 9999 NCD 08/03 Q1027
                        NOSIG=
201704110050 METAR COR EGLL 110050Z AUTO 29004KT 9999 NCD 08/03 Q1028
                        NOSIG=
201704110020 METAR COR EGLL 110020Z AUTO 29004KT 9999 NCD 09/03 Q1028
                        NOSIG=
201704102350 METAR COR EGLL 102350Z AUTO 30004KT 9999 NCD 09/03 Q1028
                        NOSIG=
201704102320 METAR COR EGLL 102320Z AUTO 31003KT 9999 NCD 09/02 Q1028
                        NOSIG=
201704102250 METAR COR EGLL 102250Z AUTO 31004KT 280V350 9999 NCD 09/02
                        Q1028 NOSIG=
201704102220 METAR COR EGLL 102220Z AUTO 32004KT 9999 NCD 09/02 Q1028
                        NOSIG=
201704102150 METAR COR EGLL 102150Z AUTO 32003KT 9999 NCD 10/02 Q1028
                        NOSIG=
201704102120 METAR COR EGLL 102120Z AUTO 33004KT 300V360 9999 NCD 11/02
                        Q1028 NOSIG=
201704102050 METAR COR EGLL 102050Z AUTO VRB03KT 9999 NCD 11/02 Q1028
                        NOSIG=
201704102020 METAR COR EGLL 102020Z AUTO VRB03KT 9999 NCD 11/02 Q1027
                        NOSIG=
201704101950 METAR COR EGLL 101950Z AUTO 34004KT 310V020 9999 NCD 12/02
                        Q1027 NOSIG=
201704101920 METAR COR EGLL 101920Z AUTO 33005KT 290V010 9999 NCD 12/02
                        Q1027 NOSIG=
201704101850 METAR COR EGLL 101850Z AUTO 33004KT 300V040 9999 BKN047 13/01
                        Q1027 NOSIG=
201704101820 METAR COR EGLL 101820Z AUTO 33005KT 300V020 9999 OVC046 13/02
                        Q1027 NOSIG=
201704101750 METAR COR EGLL 101750Z AUTO 35004KT 300V040 9999 BKN046 13/02
                        Q1026 NOSIG=
201704101720 METAR COR EGLL 101720Z AUTO 32007KT 290V350 9999 NCD 13/02
                        Q1026 NOSIG=
201704101650 METAR COR EGLL 101650Z AUTO 31008KT 9999 BKN048 13/02 Q1026
                        NOSIG=
201704101620 METAR COR EGLL 101620Z AUTO 31007KT 290V360 9999 BKN045 13/02
                        Q1027 NOSIG=
201704101550 METAR COR EGLL 101550Z AUTO 34005KT 300V050 9999 OVC043 13/02
                        Q1026 NOSIG=
201704101520 METAR COR EGLL 101520Z AUTO 29009KT 260V340 9999 BKN045 13/03
                        Q1026 NOSIG=
201704101450 METAR COR EGLL 101450Z AUTO 30009KT 9999 BKN044 13/02 Q1026
                        NOSIG=
201704101420 METAR COR EGLL 101420Z AUTO 30008KT 260V010 9999 BKN043 13/02
                        Q1026 NOSIG=
201704101350 METAR COR EGLL 101350Z AUTO 31007KT 280V030 9999 OVC039 12/03
                        Q1027 NOSIG=
201704101320 METAR COR EGLL 101320Z AUTO 31009KT 280V340 9999 BKN038 12/03
                        Q1027 NOSIG=
201704101250 METAR COR EGLL 101250Z AUTO 34006KT 290V030 9999 BKN041 13/03
                        Q1027 NOSIG=
201704101220 METAR COR EGLL 101220Z AUTO 32009KT 280V350 9999 BKN038 13/03
                        Q1027 NOSIG=
201704101150 METAR COR EGLL 101150Z AUTO 33007KT 290V020 9999 BKN038 12/03
                        Q1026 NOSIG=
201704101120 METAR COR EGLL 101120Z AUTO 30007KT 270V030 9999 BKN037 12/03
                        Q1026 NOSIG=
201704101050 METAR COR EGLL 101050Z AUTO 30008KT 270V350 9999 BKN037 12/03
                        Q1026 NOSIG=
201704101020 METAR COR EGLL 101020Z AUTO 33008KT 290V050 9999 SCT036 12/03
                        Q1026 NOSIG=
201704100950 METAR COR EGLL 100950Z AUTO 33008KT 280V010 9999 FEW036 12/03
                        Q1026 NOSIG=
201704100920 METAR COR EGLL 100920Z AUTO 32010KT 290V350 9999 FEW032 11/03
                        Q1026 NOSIG=
201704100850 METAR COR EGLL 100850Z AUTO 32007KT 280V010 9999 FEW033 11/03
                        Q1026 NOSIG=
201704100820 METAR COR EGLL 100820Z AUTO 33009KT 290V010 9999 FEW033 11/03
                        Q1026 NOSIG=
201704100750 METAR COR EGLL 100750Z AUTO 32009KT 280V360 9999 NCD 10/03
                        Q1026 NOSIG=
201704100720 METAR COR EGLL 100720Z AUTO 32008KT 300V020 9999 NCD 10/04
                        Q1025 NOSIG=
201704100650 METAR COR EGLL 100650Z AUTO 33007KT 300V040 9999 NCD 09/03
                        Q1025 NOSIG=
201704100620 METAR EGLL 100620Z AUTO 33004KT 290V360 9999 SCT021 09/04
                        Q1025=
201704100550 METAR COR EGLL 100550Z AUTO 36005KT 310V030 9999 BKN017 09/05
                        Q1024 NOSIG=
201704100520 METAR COR EGLL 100520Z AUTO VRB03KT 9999 SCT018 09/06 Q1024
                        NOSIG=
201704100450 METAR COR EGLL 100450Z AUTO 29003KT 9999 BKN031 09/06 Q1023
                        NOSIG=
201704100420 METAR COR EGLL 100420Z AUTO 29004KT 9999 OVC022 10/07 Q1023
                        NOSIG=
201704100350 METAR COR EGLL 100350Z AUTO 29006KT 9999 BKN020 09/07 Q1023
                        NOSIG=
201704100320 METAR COR EGLL 100320Z AUTO 28007KT 9999 SCT026 08/06 Q1022
                        NOSIG=
201704100250 METAR COR EGLL 100250Z AUTO 29007KT 9999 NCD 09/06 Q1022
                        NOSIG=
201704100220 METAR COR EGLL 100220Z AUTO 27007KT 9999 NCD 09/06 Q1022
                        NOSIG=
201704100150 METAR COR EGLL 100150Z AUTO 29004KT 9999 FEW029 10/06 Q1022
                        NOSIG=
201704100120 METAR COR EGLL 100120Z AUTO 30005KT 9999 NCD 11/06 Q1022
                        NOSIG=
201704100050 METAR COR EGLL 100050Z AUTO 30005KT 9999 NCD 11/06 Q1022
                        NOSIG=
201704100020 METAR COR EGLL 100020Z AUTO 30006KT 9999 NCD 11/06 Q1022
                        NOSIG=
201704092350 METAR COR EGLL 092350Z AUTO 30006KT 9999 NCD 12/06 Q1021
                        NOSIG=
201704092320 METAR COR EGLL 092320Z AUTO 30008KT 280V340 9999 NCD 12/07
                        Q1021 NOSIG=
201704092250 METAR COR EGLL 092250Z AUTO 31006KT 9999 NCD 12/07 Q1021
                        NOSIG=
201704092220 METAR COR EGLL 092220Z AUTO 30006KT 9999 NCD 12/08 Q1021
                        NOSIG=
201704092150 METAR COR EGLL 092150Z AUTO 28007KT 9999 NCD 12/08 Q1020
                        NOSIG=
201704092120 METAR COR EGLL 092120Z AUTO 28010KT 9999 NCD 12/09 Q1020
                        NOSIG=
201704092050 METAR COR EGLL 092050Z AUTO 27015KT 9999 NCD 13/09 Q1020
                        NOSIG=
201704092020 METAR COR EGLL 092020Z AUTO 28016KT 9000 NCD 14/10 Q1020
                        NOSIG=
201704091950 METAR COR EGLL 091950Z AUTO 29014KT 9000 NCD 15/10 Q1019
                        NOSIG=
201704091920 METAR COR EGLL 091920Z AUTO 23011KT 9999 NCD 18/06 Q1018
                        BECMG 29012KT=
201704091850 METAR COR EGLL 091850Z AUTO 22012KT 9999 NCD 19/06 Q1018
                        BECMG 28012KT=
201704091820 METAR COR EGLL 091820Z AUTO 22011KT 9999 NCD 19/05 Q1018
                        BECMG 28012KT=
201704091750 METAR COR EGLL 091750Z AUTO 23014KT 9999 NCD 21/03 Q1018
                        BECMG 29010KT=
201704091720 METAR COR EGLL 091720Z AUTO 23011KT 9999 NCD 22/05 Q1018
                        NOSIG=
201704091650 METAR COR EGLL 091650Z AUTO 22014KT 190V250 9999 NCD 23/06
                        Q1018 NOSIG=
201704091620 METAR COR EGLL 091620Z AUTO 21013KT 180V250 9999 NCD 23/07
                        Q1018 NOSIG=
201704091550 METAR COR EGLL 091550Z AUTO 20015KT 180V240 9999 NCD 24/09
                        Q1018 NOSIG=
201704091520 METAR COR EGLL 091520Z AUTO 19014KT 170V230 9999 NCD 24/08
                        Q1018 NOSIG=
201704091450 METAR COR EGLL 091450Z AUTO 19015KT 160V240 9999 NCD 24/06
                        Q1018 NOSIG=
201704091420 METAR COR EGLL 091420Z AUTO 20015KT 160V240 9999 NCD 24/06
                        Q1019 NOSIG=
201704091350 METAR COR EGLL 091350Z AUTO 19016KT 9999 NCD 25/06 Q1019
                        NOSIG=
201704091320 METAR COR EGLL 091320Z AUTO 19013KT 170V250 9999 NCD 24/07
                        Q1019 NOSIG=
201704091250 METAR COR EGLL 091250Z AUTO 19013G23KT 9999 NCD 24/07 Q1019
                        NOSIG=
201704091220 METAR COR EGLL 091220Z AUTO 20012KT 180V240 9999 NCD 24/08
                        Q1020 NOSIG=
201704091150 METAR COR EGLL 091150Z AUTO 19009KT 160V230 9999 NCD 23/09
                        Q1020 NOSIG=
201704091120 METAR COR EGLL 091120Z AUTO 19011KT 160V230 9999 NCD 23/09
                        Q1020 NOSIG=
201704091050 METAR COR EGLL 091050Z AUTO 17005G15KT 100V250 9999 NCD 22/10
                        Q1021 NOSIG=
201704091020 METAR COR EGLL 091020Z AUTO 15006KT 090V190 9999 NCD 20/10
                        Q1021 NOSIG=
201704090950 METAR COR EGLL 090950Z AUTO 15005KT 110V200 9000 NCD 19/09
                        Q1021 NOSIG=
201704090920 METAR COR EGLL 090920Z AUTO 15006KT 100V230 9000 NCD 18/09
                        Q1021 NOSIG=
201704090850 METAR COR EGLL 090850Z AUTO 17004KT 110V240 8000 NCD 16/08
                        Q1021 NOSIG=
201704090820 METAR COR EGLL 090820Z AUTO VRB03KT 7000 NCD 15/08 Q1021
                        NOSIG=
201704090750 METAR COR EGLL 090750Z AUTO VRB04KT 7000 NCD 14/08 Q1021
                        NOSIG=
201704090720 METAR COR EGLL 090720Z AUTO 15004KT 100V210 6000 NCD 12/07
                        Q1021 NOSIG=
201704090650 METAR COR EGLL 090650Z AUTO 14004KT 090V190 5000 HZ NCD 11/07
                        Q1021 NOSIG=
201704090620 METAR EGLL 090620Z AUTO VRB03KT 5000 HZ NCD 09/06 Q1021=
201704090550 METAR COR EGLL 090550Z AUTO 13004KT 100V200 5000 HZ NCD 08/06
                        Q1021 TEMPO 4800=
201704090520 METAR COR EGLL 090520Z AUTO 14006KT 090V190 4400 HZ NCD 07/05
                        Q1021 BECMG 6000=
201704090450 METAR COR EGLL 090450Z AUTO 14005KT 040V190 5000 HZ NCD 08/06
                        Q1021 TEMPO 4500=
201704090420 METAR COR EGLL 090420Z AUTO 14005KT 130V200 5000 HZ NCD 09/06
                        Q1021 TEMPO 4500=
201704090350 METAR COR EGLL 090350Z AUTO 14005KT 5000 HZ NCD 08/06 Q1021
                        TEMPO 4500=
201704090320 METAR COR EGLL 090320Z AUTO 13004KT 5000 HZ NCD 08/06 Q1021
                        TEMPO 4500=
201704090250 METAR COR EGLL 090250Z AUTO VRB03KT 6000 NCD 07/06 Q1021
                        NOSIG=
201704090220 METAR COR EGLL 090220Z AUTO 05001KT 6000 NCD 08/06 Q1021
                        NOSIG=
201704090150 METAR COR EGLL 090150Z AUTO 07002KT 7000 NCD 08/06 Q1021
                        NOSIG=
201704090120 METAR COR EGLL 090120Z AUTO 08003KT 7000 NCD 09/06 Q1021
                        NOSIG=
201704090050 METAR COR EGLL 090050Z AUTO 08003KT 7000 NCD 09/06 Q1022
                        NOSIG=
201704090020 METAR COR EGLL 090020Z AUTO 08002KT 8000 NCD 09/06 Q1022
                        NOSIG=
201704082350 METAR COR EGLL 082350Z AUTO 10004KT 7000 NCD 09/06 Q1022
                        NOSIG=
201704082320 METAR COR EGLL 082320Z AUTO 09003KT 8000 NCD 11/06 Q1022
                        NOSIG=
201704082250 METAR COR EGLL 082250Z AUTO 11003KT 7000 NCD 10/07 Q1022
                        NOSIG=
201704082220 METAR COR EGLL 082220Z AUTO 14003KT 7000 NCD 11/07 Q1022
                        NOSIG=
201704082150 METAR COR EGLL 082150Z AUTO 18004KT 110V270 8000 NCD 11/07
                        Q1022 NOSIG=
201704082120 METAR COR EGLL 082120Z AUTO 19005KT 130V240 9000 NCD 12/07
                        Q1022 NOSIG=
201704082050 METAR COR EGLL 082050Z AUTO VRB05KT 9999 NCD 12/07 Q1022
                        NOSIG=
201704082020 METAR COR EGLL 082020Z AUTO 18006KT 140V260 9999 NCD 14/07
                        Q1022 NOSIG=
201704081950 METAR COR EGLL 081950Z AUTO 18007KT 160V240 9999 NCD 14/07
                        Q1022 NOSIG=
201704081920 METAR COR EGLL 081920Z AUTO 20007KT 160V240 9999 NCD 15/07
                        Q1022 NOSIG=
201704081850 METAR COR EGLL 081850Z AUTO 20008KT 180V250 9999 NCD 16/07
                        Q1021 NOSIG=
201704081820 METAR COR EGLL 081820Z AUTO 21008KT 160V240 9999 NCD 17/07
                        Q1021 NOSIG=
201704081750 METAR COR EGLL 081750Z AUTO 20009KT 170V250 9999 NCD 18/07
                        Q1021 NOSIG=
201704081720 METAR COR EGLL 081720Z AUTO 21009KT 180V250 9999 NCD 19/07
                        Q1021 NOSIG=
201704081650 METAR COR EGLL 081650Z AUTO 20009KT 160V240 9999 NCD 19/07
                        Q1022 NOSIG=
201704081620 METAR COR EGLL 081620Z AUTO 23008KT 9999 NCD 20/07 Q1022
                        NOSIG=
201704081550 METAR COR EGLL 081550Z AUTO 22007KT 180V260 9999 NCD 20/06
                        Q1022 NOSIG=
201704081520 METAR COR EGLL 081520Z AUTO 22008KT 9999 NCD 21/05 Q1022
                        NOSIG=
201704081450 METAR COR EGLL 081450Z AUTO 21007KT 150V260 9999 NCD 21/05
                        Q1022 NOSIG=
201704081420 METAR COR EGLL 081420Z AUTO 22006KT 190V280 9999 NCD 20/05
                        Q1022 NOSIG=
201704081350 METAR COR EGLL 081350Z AUTO 21006KT 180V250 9999 NCD 20/04
                        Q1023 NOSIG=
201704081320 METAR COR EGLL 081320Z AUTO 21007KT 180V250 9999 NCD 20/04
                        Q1023 NOSIG=
201704081250 METAR COR EGLL 081250Z AUTO 23006KT 210V270 9999 NCD 19/04
                        Q1023 NOSIG=
201704081220 METAR COR EGLL 081220Z AUTO 20005KT 130V260 9999 NCD 19/04
                        Q1023 NOSIG=
201704081150 METAR COR EGLL 081150Z AUTO 20005KT 120V250 9999 NCD 18/05
                        Q1024 NOSIG=
201704081120 METAR COR EGLL 081120Z AUTO 17006KT 130V260 9999 NCD 17/04
                        Q1024 NOSIG=
201704081050 METAR COR EGLL 081050Z AUTO 19006KT 140V240 9999 NCD 17/06
                        Q1024 NOSIG=
201704081020 METAR COR EGLL 081020Z AUTO 21006KT 160V260 9999 NCD 16/06
                        Q1025 NOSIG=
201704080950 METAR COR EGLL 080950Z AUTO 17005KT 060V230 9999 NCD 14/06
                        Q1025 NOSIG=
201704080920 METAR COR EGLL 080920Z 20005KT 160V240 CAVOK 13/06 Q1025
                        NOSIG=
201704080850 METAR COR EGLL 080850Z AUTO 17006KT 150V220 9000 NCD 12/07
                        Q1025 NOSIG=
201704080820 METAR COR EGLL 080820Z AUTO VRB03KT 6000 NCD 11/08 Q1025
                        NOSIG=
201704080750 METAR COR EGLL 080750Z AUTO VRB03KT 5000 HZ NCD 10/07 Q1025
                        NOSIG=
201704080720 METAR COR EGLL 080720Z AUTO VRB01KT 5000 HZ NCD 09/07 Q1025
                        NOSIG=
201704080650 METAR COR EGLL 080650Z AUTO VRB01KT 5000 HZ NCD 08/07 Q1025
                        NOSIG=
201704080620 METAR COR EGLL 080620Z AUTO 02001KT 5000 BR NCD 06/06 Q1025
                        TEMPO 4500=
201704080550 METAR COR EGLL 080550Z VRB03KT 5000 BR NSC 05/05 Q1024 TEMPO
                        4800=
201704080520 METAR COR EGLL 080520Z VRB03KT 4600 BR NSC 05/04 Q1024 TEMPO
                        6000=
201704080450 METAR COR EGLL 080450Z 19004KT 160V260 5000 BR NSC 05/05
                        Q1024 TEMPO 3500=
201704080420 METAR COR EGLL 080420Z AUTO VRB02KT 6000 NCD 06/05 Q1024
                        TEMPO 3500 BR=
201704080350 METAR COR EGLL 080350Z AUTO 05001KT 7000 NCD 06/05 Q1024
                        TEMPO 4800 BR=
201704080320 METAR COR EGLL 080320Z AUTO 06002KT 7000 NCD 06/05 Q1024
                        TEMPO 4800 BR=
201704080250 METAR COR EGLL 080250Z AUTO 03001KT 6000 NCD 06/05 Q1024
                        TEMPO 4800 BR=
201704080220 METAR COR EGLL 080220Z AUTO 03001KT 7000 NCD 07/05 Q1024
                        NOSIG=
201704080150 METAR COR EGLL 080150Z AUTO 02002KT 8000 NCD 07/05 Q1025
                        NOSIG=
201704080120 METAR COR EGLL 080120Z AUTO 35001KT 7000 NCD 08/05 Q1025
                        NOSIG=
201704080050 METAR EGLL 080050Z AUTO 35001KT 7000 NCD 08/05 Q1025=
201704080020 METAR EGLL 080020Z AUTO VRB01KT 9000 NCD 09/06 Q1025=
201704072350 METAR COR EGLL 072350Z AUTO VRB01KT 9999 NCD 10/06 Q1025
                        NOSIG=
201704072320 METAR COR EGLL 072320Z AUTO VRB02KT 9999 NCD 10/06 Q1025
                        NOSIG=
201704072250 METAR COR EGLL 072250Z AUTO 03003KT 9999 NCD 11/06 Q1025
                        NOSIG=
201704072220 METAR COR EGLL 072220Z AUTO 04004KT 9999 NCD 11/06 Q1025
                        NOSIG=
201704072150 METAR COR EGLL 072150Z AUTO 04004KT 9999 NCD 12/06 Q1026
                        NOSIG=
201704072120 METAR COR EGLL 072120Z AUTO 04004KT 9999 NCD 12/06 Q1026
                        NOSIG=
201704072050 METAR COR EGLL 072050Z AUTO 04004KT 9999 NCD 12/06 Q1026
                        NOSIG=
201704072020 METAR COR EGLL 072020Z AUTO 05003KT 9999 NCD 13/06 Q1026
                        NOSIG=
201704071950 METAR COR EGLL 071950Z AUTO 05004KT 9999 NCD 13/06 Q1026
                        NOSIG=
201704071920 METAR COR EGLL 071920Z AUTO 05005KT 9999 NCD 13/07 Q1025
                        NOSIG=
201704071850 METAR COR EGLL 071850Z AUTO 36004KT 330V040 9999 NCD 14/07
                        Q1025 NOSIG=
201704071820 METAR COR EGLL 071820Z AUTO 36004KT 330V030 9999 NCD 15/07
                        Q1025 NOSIG=
201704071750 METAR COR EGLL 071750Z AUTO 36004KT 320V040 9999 NCD 15/07
                        Q1025 NOSIG=
201704071720 METAR COR EGLL 071720Z AUTO 36004KT 320V040 9999 NCD 16/07
                        Q1025 NOSIG=
201704071650 METAR COR EGLL 071650Z AUTO 34006KT 310V020 9999 NCD 16/07
                        Q1025 NOSIG=
201704071620 METAR COR EGLL 071620Z AUTO 32004KT 250V010 9999 NCD 17/07
                        Q1025 NOSIG=
201704071550 METAR COR EGLL 071550Z AUTO 35004KT 280V040 9999 NCD 17/07
                        Q1025 NOSIG=
201704071520 METAR COR EGLL 071520Z AUTO 30004KT 240V360 9999 NCD 18/06
                        Q1025 NOSIG=
201704071450 METAR COR EGLL 071450Z AUTO 31005KT 270V350 9999 NCD 17/06
                        Q1025 NOSIG=
201704071420 METAR COR EGLL 071420Z AUTO 24007KT 210V320 9999 NCD 17/07
                        Q1026 NOSIG=
201704071350 METAR COR EGLL 071350Z AUTO 24006KT 210V280 9999 NCD 17/06
                        Q1026 NOSIG=
201704071320 METAR COR EGLL 071320Z AUTO 29006KT 220V350 9999 NCD 16/06
                        Q1026 NOSIG=
201704071250 METAR COR EGLL 071250Z AUTO VRB05KT 9999 NCD 16/07 Q1027
                        NOSIG=
201704071220 METAR COR EGLL 071220Z AUTO VRB04KT 9999 NCD 15/07 Q1027
                        NOSIG=
201704071150 METAR COR EGLL 071150Z AUTO VRB03KT 9999 NCD 15/07 Q1027
                        NOSIG=
201704071120 METAR COR EGLL 071120Z AUTO 32004KT 260V010 9999 FEW029 14/06
                        Q1028 NOSIG=
201704071050 METAR COR EGLL 071050Z AUTO VRB03KT 9999 FEW028 14/06 Q1028
                        NOSIG=
201704071020 METAR COR EGLL 071020Z AUTO VRB02KT 9999 FEW027 13/06 Q1028
                        NOSIG=
201704070950 METAR COR EGLL 070950Z AUTO 32004KT 260V010 9999 FEW026 12/06
                        Q1028 NOSIG=
201704070920 METAR COR EGLL 070920Z AUTO VRB02KT 9999 NCD 12/05 Q1028
                        NOSIG=
201704070850 METAR COR EGLL 070850Z AUTO VRB03KT 9999 NCD 11/05 Q1028
                        NOSIG=
201704070820 METAR COR EGLL 070820Z AUTO VRB02KT 9999 NCD 10/05 Q1028
                        NOSIG=
201704070750 METAR COR EGLL 070750Z AUTO VRB03KT 9999 NCD 09/05 Q1028
                        NOSIG=
201704070720 METAR COR EGLL 070720Z AUTO VRB03KT 9999 NCD 09/04 Q1028
                        NOSIG=
201704070650 METAR COR EGLL 070650Z AUTO 31003KT 8000 NCD 08/04 Q1028
                        NOSIG=
201704070620 METAR COR EGLL 070620Z AUTO 32003KT 7000 NCD 07/04 Q1028
                        NOSIG=
201704070550 METAR COR EGLL 070550Z 31003KT 8000 NSC 07/04 Q1028 NOSIG=
201704070520 METAR COR EGLL 070520Z VRB02KT 8000 NSC 07/04 Q1028 NOSIG=
201704070450 METAR COR EGLL 070450Z 32001KT 9999 NSC 07/04 Q1028 NOSIG=
201704070420 METAR COR EGLL 070420Z AUTO 31002KT 9999 NCD 07/04 Q1028
                        NOSIG=
201704070350 METAR COR EGLL 070350Z AUTO 29003KT 8000 NCD 06/03 Q1028
                        NOSIG=
201704070320 METAR COR EGLL 070320Z AUTO 30003KT 9999 NCD 07/04 Q1028
                        NOSIG=
201704070250 METAR COR EGLL 070250Z AUTO 30002KT 9999 NCD 07/04 Q1028
                        NOSIG=
201704070220 METAR COR EGLL 070220Z AUTO 31002KT 9999 NCD 08/04 Q1028
                        NOSIG=
201704070150 METAR COR EGLL 070150Z AUTO VRB02KT 9999 NCD 08/04 Q1029
                        NOSIG=
201704070120 METAR COR EGLL 070120Z AUTO VRB02KT 9999 NCD 08/05 Q1029
                        NOSIG=
201704070050 METAR COR EGLL 070050Z AUTO VRB02KT 9999 NCD 08/05 Q1029
                        NOSIG=
201704070020 METAR COR EGLL 070020Z AUTO VRB03KT 9999 NCD 09/05 Q1029
                        NOSIG=
201704062350 METAR COR EGLL 062350Z AUTO VRB02KT 9999 NCD 09/06 Q1029
                        NOSIG=
201704062320 METAR COR EGLL 062320Z AUTO VRB02KT 9999 NCD 10/06 Q1029
                        NOSIG=
201704062250 METAR COR EGLL 062250Z AUTO VRB02KT 9999 NCD 10/06 Q1029
                        NOSIG=
201704062220 METAR COR EGLL 062220Z AUTO VRB02KT 9999 NCD 11/06 Q1029
                        NOSIG=
201704062150 METAR COR EGLL 062150Z AUTO VRB02KT 9999 NCD 12/06 Q1029
                        NOSIG=
201704062120 METAR COR EGLL 062120Z AUTO VRB02KT 9999 NCD 13/06 Q1029
                        NOSIG=
201704062050 METAR COR EGLL 062050Z AUTO VRB02KT 9999 NCD 13/07 Q1029
                        NOSIG=
201704062020 METAR COR EGLL 062020Z AUTO VRB03KT 9999 NCD 13/07 Q1029
                        NOSIG=
201704061950 METAR COR EGLL 061950Z AUTO VRB03KT 9999 NCD 14/06 Q1029
                        NOSIG=
201704061920 METAR COR EGLL 061920Z AUTO 31006KT 9999 NCD 14/06 Q1029
                        NOSIG=
201704061850 METAR COR EGLL 061850Z AUTO 31005KT 9999 NCD 14/06 Q1028
                        NOSIG=
201704061820 METAR COR EGLL 061820Z AUTO 30006KT 9999 NCD 14/06 Q1028
                        NOSIG=
201704061750 METAR COR EGLL 061750Z AUTO 28007KT 250V310 9999 NCD 15/07
                        Q1028 NOSIG=
201704061720 METAR COR EGLL 061720Z AUTO 27008KT 9999 NCD 16/06 Q1029
                        NOSIG=
201704061650 METAR COR EGLL 061650Z AUTO 27007KT 240V310 9999 NCD 16/06
                        Q1029 NOSIG=
201704061620 METAR COR EGLL 061620Z AUTO 26006KT 220V290 9999 NCD 17/06
                        Q1029 NOSIG=
201704061550 METAR COR EGLL 061550Z AUTO 27006KT 190V310 9999 NCD 17/05
                        Q1029 NOSIG=
201704061520 METAR COR EGLL 061520Z AUTO VRB03KT 9999 NCD 17/06 Q1029
                        NOSIG=
201704061450 METAR COR EGLL 061450Z AUTO VRB04KT 9999 NCD 17/06 Q1029
                        NOSIG=
201704061420 METAR EGLL 061420Z AUTO VRB04KT 9999 NCD 17/05 Q1030=
201704061350 METAR COR EGLL 061350Z AUTO VRB03KT 9999 NCD 17/05 Q1030
                        NOSIG=
201704061320 METAR COR EGLL 061320Z AUTO VRB05KT 9999 NCD 16/06 Q1030
                        NOSIG=
201704061250 METAR COR EGLL 061250Z AUTO VRB03KT 9999 FEW038 15/05 Q1031
                        NOSIG=
201704061220 METAR COR EGLL 061220Z AUTO 29004KT 220V030 9999 NCD 15/06
                        Q1031 NOSIG=
201704061150 METAR COR EGLL 061150Z AUTO 25004KT 200V350 9999 NCD 15/05
                        Q1031 NOSIG=
201704061120 METAR COR EGLL 061120Z AUTO 29004KT 220V330 9999 NCD 14/05
                        Q1031 NOSIG=
201704061050 METAR COR EGLL 061050Z AUTO 26004KT 170V320 9999 NCD 14/05
                        Q1032 NOSIG=
201704061020 METAR COR EGLL 061020Z AUTO VRB03KT 9999 NCD 13/06 Q1032
                        NOSIG=
201704060950 METAR COR EGLL 060950Z AUTO VRB02KT 9999 NCD 13/06 Q1032
                        NOSIG=
201704060920 METAR COR EGLL 060920Z VRB03KT CAVOK 12/06 Q1032 NOSIG=
201704060850 METAR COR EGLL 060850Z AUTO VRB03KT 9999 NCD 11/06 Q1032
                        NOSIG=
201704060820 METAR COR EGLL 060820Z AUTO VRB02KT 9999 NCD 10/05 Q1032
                        NOSIG=
201704060750 METAR COR EGLL 060750Z AUTO VRB02KT 9999 NCD 09/05 Q1032
                        NOSIG=
201704060720 METAR COR EGLL 060720Z AUTO VRB02KT 9999 NCD 09/05 Q1032
                        NOSIG=
201704060650 METAR COR EGLL 060650Z AUTO 34001KT 9999 NCD 08/04 Q1032
                        NOSIG=
201704060620 METAR COR EGLL 060620Z AUTO VRB02KT 9999 NCD 07/04 Q1032
                        NOSIG=
201704060550 METAR COR EGLL 060550Z AUTO VRB02KT 9999 NCD 07/04 Q1031
                        NOSIG=
201704060520 METAR COR EGLL 060520Z AUTO 36003KT 9999 SCT044 06/04 Q1031
                        NOSIG=
201704060450 METAR COR EGLL 060450Z AUTO VRB01KT 9999 FEW042 06/04 Q1031
                        NOSIG=
201704060420 METAR COR EGLL 060420Z AUTO VRB02KT 9999 BKN042 07/04 Q1031
                        NOSIG=
201704060350 METAR COR EGLL 060350Z AUTO VRB03KT 9999 OVC042 07/04 Q1031
                        NOSIG=
201704060320 METAR COR EGLL 060320Z AUTO 36002KT 9999 OVC040 07/04 Q1031
                        NOSIG=
201704060250 METAR COR EGLL 060250Z AUTO VRB01KT 9999 OVC040 07/04 Q1031
                        NOSIG=
201704060220 METAR COR EGLL 060220Z AUTO 29002KT 9999 BKN041 07/04 Q1031
                        NOSIG=
201704060150 METAR COR EGLL 060150Z AUTO 27003KT 9999 SCT042 07/04 Q1031
                        NOSIG=
201704060120 METAR COR EGLL 060120Z AUTO VRB02KT 9999 NCD 07/04 Q1031
                        NOSIG=
201704060050 METAR COR EGLL 060050Z AUTO 26003KT 9999 NCD 07/04 Q1031
                        NOSIG=
201704060020 METAR COR EGLL 060020Z AUTO VRB02KT 9999 NCD 08/04 Q1031
                        NOSIG=
201704052350 METAR COR EGLL 052350Z AUTO VRB03KT 9999 NCD 08/04 Q1031
                        NOSIG=
201704052320 METAR COR EGLL 052320Z AUTO 32004KT 290V040 9999 NCD 08/04
                        Q1031 NOSIG=
201704052250 METAR COR EGLL 052250Z AUTO 34005KT 300V040 9999 NCD 09/04
                        Q1031 NOSIG=
201704052220 METAR COR EGLL 052220Z AUTO 35004KT 300V050 9999 NCD 09/04
                        Q1031 NOSIG=
201704052150 METAR COR EGLL 052150Z AUTO 33004KT 290V360 9999 NCD 09/04
                        Q1031 NOSIG=
201704052120 METAR COR EGLL 052120Z AUTO 32005KT 290V360 9999 NCD 10/04
                        Q1031 NOSIG=
201704052050 METAR COR EGLL 052050Z AUTO 33005KT 300V020 9999 NCD 11/04
                        Q1031 NOSIG=
201704052020 METAR COR EGLL 052020Z AUTO 33004KT 290V040 9999 NCD 11/04
                        Q1031 NOSIG=
201704051950 METAR COR EGLL 051950Z AUTO 33005KT 290V010 9999 NCD 11/04
                        Q1031 NOSIG=
201704051920 METAR COR EGLL 051920Z AUTO 33005KT 9999 NCD 12/04 Q1031
                        NOSIG=
201704051850 METAR COR EGLL 051850Z AUTO 33007KT 310V010 9999 NCD 12/04
                        Q1031 NOSIG=
201704051820 METAR COR EGLL 051820Z AUTO 34007KT 300V030 9999 SCT041 13/04
                        Q1030 NOSIG=
201704051750 METAR COR EGLL 051750Z AUTO 34007KT 310V020 9999 FEW041 13/04
                        Q1030 NOSIG=
201704051720 METAR COR EGLL 051720Z AUTO 35006KT 310V040 9999 BKN042 14/04
                        Q1030 NOSIG=
201704051650 METAR COR EGLL 051650Z AUTO 33006KT 290V350 9999 SCT042 14/04
                        Q1029 NOSIG=
201704051620 METAR COR EGLL 051620Z AUTO 31007KT 270V360 9999 SCT041 14/05
                        Q1030 NOSIG=
201704051550 METAR COR EGLL 051550Z AUTO 33006KT 290V010 9999 SCT040 14/05
                        Q1030 NOSIG=
201704051520 METAR COR EGLL 051520Z AUTO 34007KT 300V050 9999 BKN040 14/05
                        Q1030 NOSIG=
201704051450 METAR COR EGLL 051450Z AUTO 36006KT 310V040 9999 SCT041 14/05
                        Q1030 NOSIG=
201704051420 METAR COR EGLL 051420Z AUTO 35008KT 280V040 9999 BKN041 15/05
                        Q1030 NOSIG=
201704051350 METAR COR EGLL 051350Z AUTO 36007KT 310V060 9999 SCT040 15/05
                        Q1030 NOSIG=
201704051320 METAR COR EGLL 051320Z AUTO 35007KT 290V040 9999 SCT036 14/05
                        Q1031 NOSIG=
201704051250 METAR COR EGLL 051250Z AUTO VRB06KT 9999 BKN035 14/05 Q1031
                        NOSIG=
201704051220 METAR COR EGLL 051220Z AUTO 35005KT 300V050 9999 BKN034 14/05
                        Q1031 NOSIG=
201704051150 METAR COR EGLL 051150Z AUTO 35006KT 300V040 9999 BKN032 13/04
                        Q1031 NOSIG=
201704051120 METAR COR EGLL 051120Z AUTO 34007KT 300V030 9999 BKN031 12/04
                        Q1031 NOSIG=
201704051050 METAR COR EGLL 051050Z AUTO 34005KT 280V070 9999 BKN028 12/05
                        Q1031 NOSIG=
201704051020 METAR COR EGLL 051020Z AUTO 34006KT 300V030 9999 BKN026 11/05
                        Q1031 NOSIG=
201704050950 METAR COR EGLL 050950Z AUTO 34007KT 300V030 9999 SCT027 11/05
                        Q1032 NOSIG=
201704050920 METAR COR EGLL 050920Z AUTO 35007KT 310V050 9999 SCT027 11/04
                        Q1032 NOSIG=
201704050850 METAR COR EGLL 050850Z AUTO 35007KT 290V040 9999 FEW024 10/05
                        Q1032 NOSIG=
201704050820 METAR COR EGLL 050820Z AUTO 34006KT 290V030 9999 NCD 10/05
                        Q1032 NOSIG=
201704050750 METAR COR EGLL 050750Z AUTO 32005KT 290V350 9999 NCD 09/04
                        Q1032 NOSIG=
201704050720 METAR COR EGLL 050720Z AUTO 33004KT 280V360 9999 NCD 08/04
                        Q1032 NOSIG=
201704050650 METAR COR EGLL 050650Z AUTO 33005KT 290V010 9999 NCD 07/04
                        Q1031 NOSIG=
201704050620 METAR COR EGLL 050620Z AUTO 32004KT 300V360 9999 NCD 06/04
                        Q1031 NOSIG=
201704050550 METAR COR EGLL 050550Z AUTO 33004KT 300V010 9999 NCD 06/03
                        Q1031 NOSIG=
201704050520 METAR COR EGLL 050520Z AUTO 33004KT 300V020 9999 NCD 06/03
                        Q1031 NOSIG=
201704050450 METAR COR EGLL 050450Z AUTO VRB03KT 9999 NCD 06/03 Q1031
                        NOSIG=
201704050420 METAR COR EGLL 050420Z AUTO 31003KT 9999 FEW038 06/03 Q1030
                        NOSIG=
201704050350 METAR COR EGLL 050350Z AUTO 32005KT 9999 FEW035 06/03 Q1030
                        NOSIG=
201704050320 METAR COR EGLL 050320Z AUTO 32005KT 9999 BKN036 07/04 Q1030
                        NOSIG=
201704050250 METAR COR EGLL 050250Z AUTO 32006KT 270V350 9999 BKN038 07/04
                        Q1030 NOSIG=
201704050220 METAR COR EGLL 050220Z AUTO 31004KT 280V340 9999 BKN036 07/04
                        Q1030 NOSIG=
201704050150 METAR COR EGLL 050150Z AUTO VRB03KT 9999 FEW035 07/04 Q1030
                        NOSIG=
201704050120 METAR COR EGLL 050120Z AUTO 30004KT 9999 FEW045 07/04 Q1030
                        NOSIG=
201704050050 METAR COR EGLL 050050Z AUTO 27003KT 9999 NCD 08/05 Q1030
                        NOSIG=
201704050020 METAR COR EGLL 050020Z AUTO 29005KT 9999 SCT016 09/05 Q1030
                        NOSIG=
201704042350 METAR COR EGLL 042350Z AUTO 30005KT 9999 FEW011 OVC017 10/07
                        Q1030 NOSIG=
201704042320 METAR COR EGLL 042320Z VRB03KT 9000 SCT010 BKN021 10/08 Q1030
                        NOSIG=
201704042250 METAR COR EGLL 042250Z VRB02KT 9000 BKN012 10/08 Q1030 BECMG
                        9999 SCT030=
201704042220 METAR COR EGLL 042220Z AUTO VRB03KT 9999 FEW010 BKN019 10/08
                        Q1030 NOSIG=
201704042150 METAR COR EGLL 042150Z AUTO 35004KT 320V030 9999 FEW013 11/08
                        Q1030 NOSIG=
201704042120 METAR COR EGLL 042120Z 03006KT 350V060 9999 FEW012 BKN021
                        11/09 Q1029 NOSIG=
201704042050 METAR COR EGLL 042050Z AUTO 03006KT 330V070 9999 BKN010 BKN022
                        11/09 Q1029 TEMPO FEW010=
201704042020 METAR COR EGLL 042020Z AUTO 01008KT 340V040 9999 SCT011 BKN022
                        12/09 Q1029 TEMPO BKN011=
201704041950 METAR COR EGLL 041950Z AUTO 36007KT 320V040 9999 BKN012 12/10
                        Q1029 BECMG FEW012 BKN035=
201704041920 METAR COR EGLL 041920Z AUTO 36006KT 320V040 9999 OVC015 13/10
                        Q1028 TEMPO BKN012=
201704041850 METAR COR EGLL 041850Z AUTO 36006KT 310V030 9999 OVC018 13/09
                        Q1028 NOSIG=
201704041820 METAR COR EGLL 041820Z AUTO 36004KT 320V050 9999 BKN020 13/09
                        Q1027 NOSIG=
201704041750 METAR COR EGLL 041750Z AUTO 36006KT 310V040 9999 BKN022 BKN039
                        13/09 Q1027 NOSIG=
201704041720 METAR COR EGLL 041720Z AUTO 35006KT 300V020 9999 BKN038 14/09
                        Q1027 NOSIG=
201704041650 METAR COR EGLL 041650Z 36005KT 310V040 9999 FEW022 SCT029
                        14/09 Q1027 NOSIG=
201704041620 METAR COR EGLL 041620Z 34006KT 310V030 9999 FEW021 BKN029
                        14/10 Q1027 NOSIG=
201704041550 METAR COR EGLL 041550Z 35005KT 300V020 9999 FEW022 BKN033
                        14/10 Q1026 NOSIG=
201704041520 METAR COR EGLL 041520Z 34005KT 300V030 9999 FEW018 BKN026
                        14/10 Q1026 NOSIG=
201704041450 METAR COR EGLL 041450Z 32008KT 300V030 9999 FEW019 BKN025
                        14/10 Q1026 NOSIG=
201704041420 METAR COR EGLL 041420Z 35004KT 320V030 9999 FEW023 BKN027
                        14/09 Q1026 NOSIG=
201704041350 METAR COR EGLL 041350Z 03004KT 320V090 9999 FEW027 BKN043
                        15/10 Q1026 NOSIG=
201704041320 METAR COR EGLL 041320Z VRB03KT 9999 FEW025 BKN032 14/09 Q1026
                        NOSIG=
201704041250 METAR COR EGLL 041250Z VRB03KT 9999 FEW024 BKN027 14/09 Q1026
                        NOSIG=
201704041220 METAR COR EGLL 041220Z VRB03KT 9999 FEW022 BKN025 14/09 Q1026
                        NOSIG=
201704041150 METAR COR EGLL 041150Z 34005KT 290V050 9999 FEW019 BKN025
                        14/09 Q1026 NOSIG=
201704041120 METAR COR EGLL 041120Z 34005KT 300V040 9999 FEW018 BKN022
                        13/09 Q1026 NOSIG=
201704041050 METAR COR EGLL 041050Z 34004KT 280V050 9999 FEW017 SCT021
                        BKN022 13/09 Q1026 NOSIG=
201704041020 METAR COR EGLL 041020Z 35005KT 320V030 9999 FEW015 BKN021
                        13/09 Q1026 NOSIG=
201704040950 METAR COR EGLL 040950Z 33004KT 290V010 9999 FEW015 BKN020
                        13/09 Q1025 NOSIG=
201704040920 METAR COR EGLL 040920Z 29005KT 230V310 9999 FEW010 BKN015
                        13/10 Q1025 TEMPO BKN012=
201704040850 METAR COR EGLL 040850Z VRB03KT 9999 FEW008 SCT019 BKN022
                        12/10 Q1025 TEMPO BKN012=
201704040820 METAR COR EGLL 040820Z VRB03KT 8000 FEW008 SCT019 BKN024
                        12/10 Q1025 TEMPO BKN012=
201704040750 METAR COR EGLL 040750Z VRB03KT 5000 -RADZ HZ SCT007 SCT012
                        BKN013 11/10 Q1025 TEMPO 4000 BKN009=
201704040720 METAR COR EGLL 040720Z VRB02KT 7000 SCT007 SCT010 BKN014
                        11/09 Q1024 NOSIG=
201704040650 METAR COR EGLL 040650Z VRB02KT 7000 FEW006 SCT007 BKN009
                        10/09 Q1024 TEMPO FEW008 BKN012=
201704040620 METAR COR EGLL 040620Z VRB02KT 7000 FEW006 SCT009 BKN010
                        10/09 Q1024 TEMPO BKN007=
201704040550 METAR COR EGLL 040550Z 22004KT 6000 FEW006 BKN010 10/09 Q1023
                        TEMPO 4000 -DZ BKN004=
201704040520 METAR COR EGLL 040520Z 22005KT 190V250 6000 OVC009 10/09
                        Q1023 TEMPO BKN004=
201704040450 METAR COR EGLL 040450Z 20004KT 180V260 6000 OVC009 10/09
                        Q1023 TEMPO BKN004=
201704040420 METAR COR EGLL 040420Z 19005KT 110V250 6000 OVC010 10/08
                        Q1023 TEMPO BKN007=
201704040350 METAR COR EGLL 040350Z AUTO 21005KT 6000 OVC010 10/08 Q1023
                        TEMPO BKN007=
201704040320 METAR COR EGLL 040320Z AUTO 21004KT 6000 OVC011 09/08 Q1023
                        TEMPO RA BKN008=
201704040250 METAR COR EGLL 040250Z AUTO 18004KT 5000 HZ OVC011 09/08
                        Q1023 TEMPO BKN008=
201704040220 METAR COR EGLL 040220Z AUTO 21005KT 6000 -RA BKN011 BKN026
                        09/08 Q1023 TEMPO BKN008=
201704040150 METAR COR EGLL 040150Z AUTO 20006KT 7000 -RA SCT011 BKN032
                        10/08 Q1023 TEMPO BKN008=
201704040120 METAR COR EGLL 040120Z AUTO 21006KT 9000 OVC012 10/07 Q1023
                        TEMPO BKN008=
201704040050 METAR COR EGLL 040050Z AUTO 22007KT 9000 OVC013 09/07 Q1023
                        TEMPO BKN008=
201704040020 METAR COR EGLL 040020Z AUTO 21006KT 9000 BKN012 09/07 Q1023
                        TEMPO SCT012=
201704032350 METAR COR EGLL 032350Z AUTO 20007KT 9999 SCT013 09/07 Q1024
                        TEMPO BKN013=
201704032320 METAR COR EGLL 032320Z AUTO 22007KT 9999 BKN013 09/07 Q1024
                        TEMPO SCT013=
201704032250 METAR COR EGLL 032250Z AUTO 23010KT 9999 NCD 09/06 Q1024
                        TEMPO BKN010=
201704032220 METAR COR EGLL 032220Z AUTO 22011KT 9999 NCD 09/07 Q1024
                        TEMPO BKN010=
201704032150 METAR COR EGLL 032150Z AUTO 22010KT 180V250 9999 NCD 09/07
                        Q1024 TEMPO BKN010=
201704032120 METAR COR EGLL 032120Z AUTO 22011KT 180V250 9999 NCD 09/06
                        Q1024 NOSIG=
201704032050 METAR COR EGLL 032050Z AUTO 22010KT 9999 NCD 10/06 Q1024
                        NOSIG=
201704032020 METAR COR EGLL 032020Z AUTO 22010G21KT 190V260 9999 NCD 11/07
                        Q1024 NOSIG=
201704031950 METAR COR EGLL 031950Z AUTO 22010KT 9999 NCD 11/07 Q1024
                        NOSIG=
201704031920 METAR COR EGLL 031920Z AUTO 21009KT 9999 NCD 12/07 Q1024
                        NOSIG=
201704031850 METAR COR EGLL 031850Z AUTO 21011KT 180V240 9999 NCD 13/06
                        Q1023 NOSIG=
201704031820 METAR COR EGLL 031820Z AUTO 22010KT 9999 NCD 14/06 Q1023
                        NOSIG=
201704031750 METAR COR EGLL 031750Z AUTO 22011KT 9999 FEW039 14/06 Q1023
                        NOSIG=
201704031720 METAR COR EGLL 031720Z AUTO 22012KT 9999 FEW040 15/06 Q1023
                        NOSIG=
201704031650 METAR COR EGLL 031650Z AUTO 22012KT 9999 SCT042 15/06 Q1023
                        NOSIG=
201704031620 METAR COR EGLL 031620Z AUTO 23013KT 200V260 9999 SCT045 16/05
                        Q1024 NOSIG=
201704031550 METAR COR EGLL 031550Z AUTO 23014KT 9999 SCT047 16/05 Q1024
                        NOSIG=
201704031520 METAR COR EGLL 031520Z AUTO 23013KT 9999 SCT048 17/05 Q1024
                        NOSIG=
201704031450 METAR COR EGLL 031450Z AUTO 22013KT 180V240 9999 SCT039 17/04
                        Q1024 NOSIG=
201704031420 METAR COR EGLL 031420Z AUTO 19009KT 150V230 9999 FEW040 17/07
                        Q1024 NOSIG=
201704031350 METAR COR EGLL 031350Z AUTO 20011G21KT 9999 SCT037 17/08
                        Q1024 NOSIG=
201704031320 METAR COR EGLL 031320Z AUTO 19011KT 150V210 9999 SCT035 16/08
                        Q1025 NOSIG=
201704031250 METAR COR EGLL 031250Z AUTO 20009KT 160V230 9999 FEW032 SCT047
                        16/08 Q1025 NOSIG=
201704031220 METAR COR EGLL 031220Z AUTO 18010G23KT 140V210 9999 NCD 16/08
                        Q1025 NOSIG=
201704031150 METAR COR EGLL 031150Z AUTO 19011KT 9999 NCD 15/07 Q1025
                        NOSIG=
201704031120 METAR COR EGLL 031120Z AUTO 19011KT 9999 NCD 15/07 Q1025
                        NOSIG=
201704031050 METAR COR EGLL 031050Z AUTO 19012G22KT 160V230 9999 NCD 15/06
                        Q1026 NOSIG=
201704031020 METAR COR EGLL 031020Z AUTO 20009KT 160V230 9999 NCD 15/07
                        Q1026 NOSIG=
201704030950 METAR COR EGLL 030950Z AUTO 21008KT 160V260 9999 NCD 14/07
                        Q1026 NOSIG=
201704030920 METAR COR EGLL 030920Z AUTO 22007KT 180V240 9999 NCD 13/08
                        Q1026 NOSIG=
201704030850 METAR COR EGLL 030850Z AUTO VRB02KT 9999 NCD 12/07 Q1026
                        NOSIG=
201704030820 METAR COR EGLL 030820Z AUTO 16004KT 140V210 9000 NCD 10/07
                        Q1026 NOSIG=
201704030750 METAR COR EGLL 030750Z VRB03KT 6000 NSC 08/06 Q1026 NOSIG=
201704030720 METAR COR EGLL 030720Z VRB02KT 6000 2500N VCFG NSC 07/06
                        Q1026 BECMG 9999 NSW=
201704030650 METAR COR EGLL 030650Z VRB02KT 6000 1000N R27R/P1500 R27L/P1500
                        PRFG NSC 06/05 Q1026 BECMG 9999 NSW=
201704030620 METAR COR EGLL 030620Z 09002KT 6000 0500N R27R/0250 R27L/P1500
                        PRFG NSC 06/05 Q1026 NOSIG=
201704030550 METAR COR EGLL 030550Z 05002KT 6000 0800N R27R/0300 BR PRFG
                        NSC 06/05 Q1026 TEMPO 0400 FG BKN000=
201704030520 METAR COR EGLL 030520Z AUTO VRB03KT 6000 NCD 06/05 Q1026
                        TEMPO 0500 FG BKN000=
201704030450 METAR COR EGLL 030450Z AUTO 05002KT 9999 NCD 05/04 Q1026
                        TEMPO 4000 BR=
201704030420 METAR COR EGLL 030420Z AUTO 00000KT 9999 NCD 05/04 Q1026
                        TEMPO 4000 BR=
201704030350 METAR COR EGLL 030350Z AUTO VRB02KT 9999 NCD 05/04 Q1026
                        NOSIG=
201704030320 METAR COR EGLL 030320Z AUTO 07002KT 9999 NCD 05/04 Q1026
                        NOSIG=
201704030250 METAR COR EGLL 030250Z AUTO 06002KT 6000 NCD 06/04 Q1026
                        TEMPO 4000 BR=
201704030220 METAR COR EGLL 030220Z AUTO 06002KT 6000 NCD 05/04 Q1026
                        TEMPO 4000 BR=
201704030150 METAR COR EGLL 030150Z AUTO 00000KT 9999 NCD 07/05 Q1026
                        NOSIG=
201704030120 METAR COR EGLL 030120Z AUTO 02001KT 9999 NCD 07/05 Q1026
                        NOSIG=
201704030050 METAR COR EGLL 030050Z AUTO 03001KT 9999 NCD 07/04 Q1026
                        NOSIG=
201704030020 METAR COR EGLL 030020Z AUTO VRB01KT 6000 NCD 09/05 Q1026
                        NOSIG=
201704022350 METAR COR EGLL 022350Z AUTO 02001KT 9999 NCD 08/05 Q1026
                        NOSIG=
201704022320 METAR COR EGLL 022320Z AUTO 07001KT 9999 NCD 09/05 Q1026
                        NOSIG=
201704022250 METAR COR EGLL 022250Z AUTO 00000KT 9999 NCD 09/05 Q1026
                        NOSIG=
201704022220 METAR COR EGLL 022220Z AUTO 07001KT 9999 NCD 09/05 Q1026
                        NOSIG=
201704022150 METAR COR EGLL 022150Z AUTO 08002KT 9999 NCD 12/05 Q1026
                        NOSIG=
201704022120 METAR COR EGLL 022120Z AUTO 07002KT 9999 NCD 12/05 Q1026
                        NOSIG=
201704022050 METAR COR EGLL 022050Z AUTO 07002KT 9999 NCD 12/05 Q1026
                        NOSIG=
201704022020 METAR COR EGLL 022020Z AUTO 02003KT 9999 NCD 13/05 Q1025
                        NOSIG=
201704021950 METAR COR EGLL 021950Z AUTO VRB03KT 9999 NCD 13/05 Q1025
                        NOSIG=
201704021920 METAR COR EGLL 021920Z AUTO VRB02KT 9999 NCD 13/05 Q1025
                        NOSIG=
201704021850 METAR COR EGLL 021850Z AUTO 33004KT 9999 NCD 13/06 Q1025
                        NOSIG=
201704021820 METAR COR EGLL 021820Z AUTO VRB03KT 9999 NCD 14/05 Q1024
                        NOSIG=
201704021750 METAR COR EGLL 021750Z AUTO 29007KT 9999 NCD 14/05 Q1024
                        NOSIG=
201704021720 METAR COR EGLL 021720Z AUTO 28006KT 9999 FEW046 15/05 Q1024
                        NOSIG=
201704021650 METAR COR EGLL 021650Z AUTO 27006KT 230V300 9999 FEW045 15/05
                        Q1024 NOSIG=
201704021620 METAR COR EGLL 021620Z AUTO 30004KT 240V030 9999 FEW044 16/05
                        Q1023 NOSIG=
201704021550 METAR COR EGLL 021550Z AUTO 25006KT 200V300 9999 SCT042 16/05
                        Q1023 NOSIG=
201704021520 METAR COR EGLL 021520Z AUTO VRB04KT 9999 BKN041 16/06 Q1023
                        NOSIG=
201704021450 METAR COR EGLL 021450Z AUTO VRB03KT 9999 BKN039 16/06 Q1023
                        NOSIG=
201704021420 METAR COR EGLL 021420Z AUTO 01004KT 250V040 9999 BKN036 15/06
                        Q1023 NOSIG=
201704021350 METAR COR EGLL 021350Z AUTO 28005KT 240V360 9999 SCT034 15/06
                        Q1023 NOSIG=
201704021320 METAR COR EGLL 021320Z AUTO 27005KT 190V330 9999 FEW032 14/06
                        Q1023 NOSIG=
201704021250 METAR COR EGLL 021250Z AUTO 29006KT 230V340 9999 BKN031 14/06
                        Q1023 NOSIG=
201704021220 METAR COR EGLL 021220Z AUTO 29004KT 230V330 9999 SCT028 13/07
                        Q1023 NOSIG=
201704021150 METAR COR EGLL 021150Z AUTO VRB05KT 9999 BKN027 13/06 Q1023
                        NOSIG=
201704021120 METAR COR EGLL 021120Z AUTO 34004KT 280V040 9999 SCT026 13/06
                        Q1023 NOSIG=
201704021050 METAR COR EGLL 021050Z AUTO 30005KT 230V010 9999 BKN022 13/07
                        Q1023 NOSIG=
201704021020 METAR COR EGLL 021020Z 30004KT 250V050 9999 SCT021 12/07
                        Q1022 NOSIG=
201704020950 METAR COR EGLL 020950Z 32004KT 270V020 9999 FEW019 SCT021
                        12/07 Q1022 NOSIG=
201704020920 METAR COR EGLL 020920Z 32005KT 280V020 9999 SCT018 10/06
                        Q1022 NOSIG=
201704020850 METAR COR EGLL 020850Z AUTO 34005KT 280V030 9999 SCT014 10/06
                        Q1022 NOSIG=
201704020820 METAR COR EGLL 020820Z AUTO 32006KT 270V350 9999 FEW013 09/06
                        Q1022 NOSIG=
201704020750 METAR COR EGLL 020750Z AUTO 32005KT 290V360 9999 FEW010 09/06
                        Q1021 NOSIG=
201704020720 METAR COR EGLL 020720Z AUTO 32006KT 280V360 9999 SCT010 08/06
                        Q1021 NOSIG=
201704020650 METAR COR EGLL 020650Z AUTO VRB03KT 9999 NCD 08/06 Q1020
                        NOSIG=
201704020620 METAR COR EGLL 020620Z AUTO VRB03KT 9999 NCD 07/06 Q1020
                        NOSIG=
201704020550 METAR COR EGLL 020550Z AUTO 32004KT 290V350 9999 NCD 08/06
                        Q1019 NOSIG=
201704020520 METAR COR EGLL 020520Z AUTO VRB03KT 9999 NCD 08/06 Q1019
                        NOSIG=
201704020450 METAR COR EGLL 020450Z 30004KT CAVOK 07/06 Q1018 NOSIG=
201704020420 METAR COR EGLL 020420Z AUTO VRB02KT 9999 NCD 08/06 Q1018
                        NOSIG=
201704020350 METAR COR EGLL 020350Z AUTO 29003KT 9999 NCD 07/06 Q1017
                        NOSIG=
201704020320 METAR COR EGLL 020320Z AUTO 30003KT 9999 NCD 07/06 Q1017
                        NOSIG=
201704020250 METAR COR EGLL 020250Z AUTO 28004KT 9999 NCD 06/05 Q1017
                        NOSIG=
201704020220 METAR COR EGLL 020220Z AUTO 27003KT 9999 NCD 07/06 Q1016
                        NOSIG=
201704020150 METAR COR EGLL 020150Z AUTO 27002KT 9999 NCD 08/06 Q1016
                        NOSIG=
201704020120 METAR COR EGLL 020120Z AUTO VRB02KT 9999 NCD 07/06 Q1016
                        NOSIG=
201704020050 METAR COR EGLL 020050Z AUTO 30004KT 9999 NCD 07/06 Q1016
                        NOSIG=
201704020020 METAR COR EGLL 020020Z AUTO 29003KT 9999 NCD 08/07 Q1015
                        NOSIG=
201704012350 METAR COR EGLL 012350Z AUTO 27004KT 9999 FEW047 08/07 Q1015
                        NOSIG=
201704012320 METAR COR EGLL 012320Z AUTO 29005KT 9999 NCD 09/06 Q1015
                        NOSIG=
201704012250 METAR COR EGLL 012250Z AUTO 27005KT 9999 NCD 08/06 Q1014
                        NOSIG=
201704012220 METAR COR EGLL 012220Z AUTO 27005KT 9999 NCD 10/07 Q1014
                        NOSIG=
201704012150 METAR COR EGLL 012150Z AUTO 22004KT 9999 NCD 10/07 Q1014
                        NOSIG=
201704012120 METAR COR EGLL 012120Z AUTO VRB03KT 9999 SCT045 11/07 Q1013
                        NOSIG=
201704012050 METAR COR EGLL 012050Z AUTO 21005KT 9999 BKN041 11/07 Q1013
                        NOSIG=
201704012020 METAR COR EGLL 012020Z AUTO VRB03KT 9999 SCT046 12/07 Q1013
                        NOSIG=
201704011950 METAR COR EGLL 011950Z AUTO VRB02KT 9999 FEW046 11/07 Q1013
                        NOSIG=
201704011920 METAR COR EGLL 011920Z AUTO 24006KT 9999 NCD 12/07 Q1012
                        NOSIG=
201704011850 METAR COR EGLL 011850Z AUTO 24007KT 9999 NCD 12/07 Q1012
                        NOSIG=
201704011820 METAR COR EGLL 011820Z AUTO 24007KT 9999 NCD 13/07 Q1011
                        TEMPO SHRA=
201704011750 METAR COR EGLL 011750Z AUTO 24008KT 9999 NCD 13/08 Q1011
                        TEMPO 4000 +SHRA=
201704011720 METAR COR EGLL 011720Z AUTO 23010KT 9999 NCD 13/07 Q1011
                        TEMPO SHRA=
201704011650 METAR COR EGLL 011650Z AUTO 23011KT 9999 //////CB 14/07 Q1010
                        TEMPO SHRA=
201704011620 METAR COR EGLL 011620Z AUTO 22009KT 9999 //////CB 15/07 Q1010
                        TEMPO SHRA=
201704011550 METAR COR EGLL 011550Z AUTO 22010KT 9999 //////CB 14/06 Q1010
                        TEMPO SHRA=
201704011520 METAR COR EGLL 011520Z AUTO 22010KT 9999 FEW037 15/07 Q1010
                        TEMPO SHRA=
201704011450 METAR COR EGLL 011450Z AUTO 23008KT 9999 NCD 15/07 Q1010
                        TEMPO SHRA=
201704011420 METAR COR EGLL 011420Z AUTO 22010KT 9999 NCD 14/07 Q1010
                        TEMPO 4000 +SHRA=
201704011350 METAR COR EGLL 011350Z AUTO 23011KT 190V260 9999 FEW025 13/07
                        Q1010 TEMPO 4000 +SHRA=
201704011320 METAR COR EGLL 011320Z AUTO 24012KT 9999 -RA BKN044 13/07
                        Q1010 TEMPO 4000 +SHRA=
201704011250 METAR COR EGLL 011250Z AUTO 25012KT 9999 NCD 14/05 Q1009
                        TEMPO 4000 +SHRA=
201704011220 METAR COR EGLL 011220Z AUTO 26011KT 220V290 9999 BKN042 14/06
                        Q1009 TEMPO 4000 +SHRA=
201704011150 METAR COR EGLL 011150Z AUTO 25011KT 9999 BKN042 15/06 Q1009
                        TEMPO SHRA=
201704011120 METAR COR EGLL 011120Z AUTO 26012KT 9999 BKN036 15/06 Q1009
                        TEMPO SHRA=
201704011050 METAR COR EGLL 011050Z AUTO 26013KT 9999 BKN033 14/06 Q1009
                        TEMPO SHRA=
201704011020 METAR COR EGLL 011020Z AUTO 23012KT 9999 SCT028 BKN044 14/07
                        Q1009 NOSIG=
201704010950 METAR COR EGLL 010950Z AUTO 24013KT 9999 BKN023 BKN039 14/08
                        Q1009 NOSIG=
201704010920 METAR COR EGLL 010920Z AUTO 22010G20KT 190V250 9999 FEW013
                        SCT019 BKN035 12/09 Q1009 NOSIG=
201704010850 METAR COR EGLL 010850Z 23009KT 180V260 9999 BKN022 11/09
                        Q1009 NOSIG=
201704010820 METAR COR EGLL 010820Z 22007KT 190V250 9999 BKN020 10/09
                        Q1009 NOSIG=
201704010750 METAR COR EGLL 010750Z 21011KT 8000 -SHRA SCT019 BKN038 10/08
                        Q1008 NOSIG=
201704010720 METAR COR EGLL 010720Z 21010KT 9999 -RA BKN017 11/08 Q1008
                        TEMPO BKN014=
201704010650 METAR COR EGLL 010650Z 20010KT 9999 BKN019 10/08 Q1008 NOSIG=
201704010620 METAR COR EGLL 010620Z 18010KT 150V210 9999 BKN023 10/08
                        Q1007 NOSIG=
201704010550 METAR COR EGLL 010550Z 19010KT 150V230 9999 -RA SCT016 BKN039
                        10/08 Q1007 NOSIG=
201704010520 METAR COR EGLL 010520Z 18009KT 9999 FEW018 BKN041 10/07 Q1007
                        TEMPO BKN014=
201704010450 METAR COR EGLL 010450Z 19010KT 9999 FEW016 BKN026 10/07 Q1007
                        TEMPO BKN014=
201704010420 METAR COR EGLL 010420Z 19009KT 9999 SCT018 SCT023 10/07 Q1007
                        TEMPO BKN014=
201704010350 METAR COR EGLL 010350Z 20010KT 9999 FEW018 SCT024 10/07 Q1007
                        NOSIG=
201704010320 METAR COR EGLL 010320Z 21009KT 9999 FEW017 SCT022 10/07 Q1007
                        NOSIG=
201704010250 METAR COR EGLL 010250Z 19010KT 9999 FEW016 BKN022 10/07 Q1007
                        TEMPO BKN014=
201704010220 METAR COR EGLL 010220Z AUTO 15008KT 9999 OVC019 10/07 Q1007
                        TEMPO BKN014=
201704010150 METAR COR EGLL 010150Z AUTO 15007KT 9999 BKN020 10/07 Q1007
                        NOSIG=
201704010120 METAR COR EGLL 010120Z AUTO 16010KT 9999 SCT026 09/07 Q1007
                        NOSIG=
201704010050 METAR COR EGLL 010050Z AUTO 15008KT 9999 NCD 09/07 Q1008
                        NOSIG=
201704010020 METAR COR EGLL 010020Z AUTO 15008KT 9999 NCD 09/07 Q1008
                        NOSIG=

</pre>

</body>
</html>
