##########################################################
# Query made at 12/31/2014 10:43:00 UTC
# Time interval: from 04/01/2014 00:00  to 05/01/2014 23:59  UTC
##########################################################

##########################################################
# EGLL, London / Heathrow Airport (United Kingdom)
# WMO index: 03772
# Latitude 51-29N. Longitude 000-27W. Altitude 24 m.
##########################################################

###################################
#  METAR/SPECI from EGLL
###################################
201404302350 METAR COR EGLL 302350Z 23006KT 8000 NSC 10/08 Q1012 TEMPO
                        BKN012=
201404302320 METAR COR EGLL 302320Z 22006KT 8000 NSC 11/08 Q1012 NOSIG=
201404302250 METAR COR EGLL 302250Z 22006KT 7000 NSC 11/08 Q1012 NOSIG=
201404302220 METAR COR EGLL 302220Z 21006KT 7000 NSC 11/08 Q1012 NOSIG=
201404302150 METAR COR EGLL 302150Z 21007KT CAVOK 11/09 Q1012 NOSIG=
201404302120 METAR COR EGLL 302120Z 19007KT CAVOK 11/08 Q1012 NOSIG=
201404302050 METAR COR EGLL 302050Z 19007KT CAVOK 12/08 Q1012 NOSIG=
201404302020 METAR COR EGLL 302020Z 21008KT 170V230 CAVOK 12/08 Q1012
                        NOSIG=
201404301950 METAR COR EGLL 301950Z 22008KT CAVOK 13/08 Q1012 NOSIG=
201404301920 METAR COR EGLL 301920Z 23009KT 190V260 CAVOK 14/08 Q1011
                        NOSIG=
201404301850 METAR COR EGLL 301850Z 23010KT CAVOK 15/08 Q1011 NOSIG=
201404301820 METAR COR EGLL 301820Z 23011KT CAVOK 15/07 Q1011 NOSIG=
201404301750 METAR EGLL 301750Z AUTO 23012KT 9999 NCD 17/07 Q1011=
201404301720 METAR COR EGLL 301720Z 23010KT 190V260 CAVOK 18/06 Q1011
                        NOSIG=
201404301650 METAR COR EGLL 301650Z 21011KT 180V240 CAVOK 17/06 Q1011
                        NOSIG=
201404301620 METAR COR EGLL 301620Z 21011KT CAVOK 18/06 Q1011 NOSIG=
201404301550 METAR COR EGLL 301550Z 22011KT 170V250 9999 FEW048 18/06
                        Q1011 NOSIG=
201404301520 METAR COR EGLL 301520Z 20011KT 170V240 9999 FEW049 19/06
                        Q1011 NOSIG=
201404301450 METAR COR EGLL 301450Z 20010KT 170V230 9999 FEW049 19/08
                        Q1012 NOSIG=
201404301420 METAR COR EGLL 301420Z 19008KT 150V250 9999 FEW049 19/08
                        Q1012 NOSIG=
201404301350 METAR COR EGLL 301350Z 22007KT 180V280 9999 FEW048 19/07
                        Q1012 NOSIG=
201404301320 METAR COR EGLL 301320Z VRB06KT 9999 FEW047 19/07 Q1012 NOSIG=
201404301250 METAR EGLL 301250Z AUTO VRB05KT 9999 FEW046 19/07 Q1012=
201404301220 METAR COR EGLL 301220Z 20007KT 150V270 9999 FEW041 18/08
                        Q1013 NOSIG=
201404301150 METAR COR EGLL 301150Z 21006KT 120V270 9999 FEW037 18/08
                        Q1013 NOSIG=
201404301120 METAR COR EGLL 301120Z VRB05KT 9999 FEW036 17/08 Q1013 NOSIG=
201404301050 METAR COR EGLL 301050Z VRB05KT 9999 FEW024 17/09 Q1013 NOSIG=
201404301020 METAR COR EGLL 301020Z VRB05KT 9999 FEW020 16/10 Q1013 NOSIG=
201404300950 METAR COR EGLL 300950Z 23005KT 180V290 6000 FEW012 14/10
                        Q1013 NOSIG=
201404300920 METAR COR EGLL 300920Z 19004KT 130V240 4500 HZ FEW003 13/10
                        Q1014 BECMG 7000 NSW=
201404300850 METAR COR EGLL 300850Z 22005KT 170V280 3500 BR FEW003 10/10
                        Q1014 BECMG 7000 NSW=
201404300820 METAR COR EGLL 300820Z 21004KT 170V340 1400 0800SW R27L/1000
                        R27R/P1500 BR BCFG SCT001 SCT002
                        09/08 Q1014 BECMG 4000 BR=
201404300750 METAR COR EGLL 300750Z 20005KT 150V250 0800 R27L/1000 R27R/P1500
                        BCFG SCT001 SCT002 08/08 Q1014 BECMG
                        4000 BR=
201404300720 METAR COR EGLL 300720Z 21004KT 140V260 0500 R27L/1400 R27R/P1500
                        FG SCT001 SCT002 08/07 Q1013 BECMG
                        4000 BR=
201404300650 METAR COR EGLL 300650Z VRB03KT 0300 R27L/0750 R27R/1400 FG
                        BKN001 07/07 Q1013 BECMG 4000 BR
                        SCT002=
201404300620 METAR COR EGLL 300620Z 20005KT 0200 R27L/0325 R27R/P1500
                        FG BKN001 07/06 Q1013 BECMG 4000
                        BR SCT002=
201404300550 METAR COR EGLL 300550Z VRB03KT 2500 0700S R27L/0275 R27R/P1500
                        BR PRFG FEW001 07/06 Q1013 TEMPO
                        0600 BCFG SCT001 BKN002=
201404300520 METAR COR EGLL 300520Z VRB03KT 3000 0800S R27L/0800 R27R/P1500
                        BR PRFG FEW008 06/05 Q1013 TEMPO
                        0700 BCFG SCT001 BKN002=
201404300450 METAR COR EGLL 300450Z 00000KT 4800 BR FEW008 08/07 Q1013
                        NOSIG=
201404300420 METAR COR EGLL 300420Z VRB02KT 4800 BR NSC 08/07 Q1012 NOSIG=
201404300350 METAR COR EGLL 300350Z 35002KT 5000 BR NSC 08/07 Q1012 TEMPO
                        3500=
201404300320 METAR COR EGLL 300320Z 00000KT 6000 NSC 08/07 Q1012 BECMG
                        3500 BR=
201404300250 METAR COR EGLL 300250Z 02002KT 6000 NSC 08/07 Q1012 BECMG
                        3500 BR=
201404300220 METAR COR EGLL 300220Z 00000KT 6000 NSC 08/07 Q1013 BECMG
                        3500 BR=
201404300150 METAR COR EGLL 300150Z 36004KT 7000 NSC 09/07 Q1013 BECMG
                        4500 HZ=
201404300120 METAR EGLL 300120Z AUTO 01002KT 2500 HZ NCD 09/07 Q1013=
201404300050 METAR EGLL 300050Z AUTO 08002KT 4900 HZ NCD 09/08 Q1013=
201404300020 METAR EGLL 300020Z AUTO VRB02KT 2400 BR NCD 09/08 Q1013=
201404292350 METAR COR EGLL 292350Z 00000KT 6000 NSC 09/08 Q1013 BECMG
                        4500 HZ=
201404292320 METAR COR EGLL 292320Z VRB02KT 7000 NSC 10/08 Q1013 BECMG
                        4500=
201404292250 METAR COR EGLL 292250Z VRB02KT 6000 NSC 11/09 Q1013 BECMG
                        4500 HZ=
201404292220 METAR COR EGLL 292220Z 10003KT 7000 NSC 11/09 Q1013 NOSIG=
201404292150 METAR COR EGLL 292150Z 11003KT 7000 NSC 11/09 Q1013 NOSIG=
201404292120 METAR COR EGLL 292120Z 12004KT 7000 BKN025 11/09 Q1013 NOSIG=
201404292050 METAR COR EGLL 292050Z 11004KT 9999 SCT028 12/08 Q1013 NOSIG=
201404292020 METAR COR EGLL 292020Z 15004KT 9999 FEW040 13/08 Q1012 NOSIG=
201404291950 METAR COR EGLL 291950Z 10003KT 9999 FEW035 13/08 Q1012 NOSIG=
201404291920 METAR COR EGLL 291920Z 11006KT 9999 FEW035 13/08 Q1012 NOSIG=
201404291850 METAR COR EGLL 291850Z 11007KT 9999 FEW035 14/08 Q1012 NOSIG=
201404291820 METAR COR EGLL 291820Z 12008KT 9999 FEW034 15/07 Q1012 NOSIG=
201404291750 METAR COR EGLL 291750Z 11008KT 9999 FEW035CB 16/08 Q1012
                        NOSIG=
201404291720 METAR COR EGLL 291720Z 10008KT 9999 FEW035CB 16/08 Q1011
                        NOSIG=
201404291650 METAR COR EGLL 291650Z 09007KT 060V120 9999 FEW035CB 16/08
                        Q1011 NOSIG=
201404291620 METAR COR EGLL 291620Z 10007KT 060V130 9999 FEW035CB 16/09
                        Q1011 NOSIG=
201404291550 METAR COR EGLL 291550Z 08009KT 050V110 9999 SCT033CB FEW040TCU
                        16/09 Q1011 TEMPO SHRA=
201404291520 METAR COR EGLL 291520Z 09009KT 9999 SCT031CB FEW040TCU 16/10
                        Q1011 TEMPO SHRA=
201404291450 METAR COR EGLL 291450Z 10010KT 9999 FEW030CB 16/09 Q1011
                        TEMPO SHRA=
201404291420 METAR COR EGLL 291420Z 07007KT 030V090 9999 FEW033CB 16/09
                        Q1011 TEMPO SHRA=
201404291350 METAR COR EGLL 291350Z 07008KT 030V100 9999 FEW035CB 16/09
                        Q1012 TEMPO SHRA=
201404291320 METAR COR EGLL 291320Z 08008KT 9999 SCT030 SCT044 15/09 Q1012
                        TEMPO SHRA=
201404291250 METAR COR EGLL 291250Z 07009KT 9999 -SHRA SCT028 SCT032 15/09
                        Q1012 TEMPO SHRA=
201404291220 METAR COR EGLL 291220Z 07009KT 030V100 9999 VCSH SCT025 SCT031
                        16/09 Q1012 TEMPO SHRA=
201404291150 METAR COR EGLL 291150Z 06007KT 9999 SCT029 SCT036 16/09 Q1012
                        TEMPO SHRA=
201404291120 METAR COR EGLL 291120Z 05009KT 030V090 9999 SCT023 SCT037
                        15/10 Q1012 TEMPO SHRA=
201404291050 METAR COR EGLL 291050Z 06009KT 8000 FEW018 SCT022 15/10 Q1012
                        TEMPO SHRA=
201404291020 METAR COR EGLL 291020Z 05008KT 020V080 7000 SCT019 SCT025
                        15/10 Q1012 NOSIG=
201404290950 METAR COR EGLL 290950Z 08008KT 8000 SCT018 SCT022 15/11 Q1013
                        NOSIG=
201404290920 METAR COR EGLL 290920Z 06007KT 7000 SCT017 SCT021 14/10 Q1013
                        NOSIG=
201404290850 METAR COR EGLL 290850Z 06006KT 030V100 6000 SCT014 BKN020
                        13/10 Q1013 NOSIG=
201404290820 METAR COR EGLL 290820Z 06005KT 020V090 5000 BR SCT008 BKN014
                        13/10 Q1013 BECMG NSW SCT018=
201404290750 METAR EGLL 290750Z 06005KT 030V110 4200 BR SCT008 BKN011
                        12/10 Q1013=
201404290720 METAR COR EGLL 290720Z 05005KT 010V080 3500 BR SCT008 BKN009
                        11/09 Q1013 BECMG 6000 NSW SCT009=
201404290650 METAR COR EGLL 290650Z 05005KT 010V080 3100 BR SCT007 BKN009
                        11/09 Q1012 BECMG 6000 NSW SCT009
                        BKN011=
201404290620 METAR COR EGLL 290620Z 05004KT 340V080 2800 BR SCT007 BKN009
                        11/09 Q1012 BECMG 5000 BR SCT009
                        BKN011=
201404290550 METAR COR EGLL 290550Z 05004KT 2500 BR SCT007 OVC009 11/09
                        Q1012 BECMG 5000 BR SCT009 BKN011=
201404290520 METAR COR EGLL 290520Z VRB03KT 2500 BR OVC006 10/09 Q1012
                        BECMG 5000 SCT007 BKN010=
201404290450 METAR COR EGLL 290450Z 05004KT 010V070 2500 BR BKN005 10/09
                        Q1012 NOSIG=
201404290420 METAR COR EGLL 290420Z 04003KT 2500 BR BKN005 10/09 Q1012
                        NOSIG=
201404290350 METAR COR EGLL 290350Z 05004KT 2500 BR BKN005 10/09 Q1012
                        TEMPO 5000=
201404290320 METAR COR EGLL 290320Z 07004KT 2500 BR BKN004 09/08 Q1012
                        TEMPO SCT004 BKN006=
201404290250 METAR COR EGLL 290250Z 06004KT 4000 BR NSC 09/08 Q1012 TEMPO
                        BKN005=
201404290150 METAR COR EGLL 290150Z 02003KT 7000 NSC 09/08 Q1013 TEMPO
                        3500 BR BKN005=
201404290120 METAR EGLL 290120Z AUTO 05002KT 3000 HZ NCD 09/08 Q1013=
201404290050 METAR EGLL 290050Z AUTO 09003KT 4000 HZ NCD 09/08 Q1013=
201404290020 METAR EGLL 290020Z AUTO 08002KT 6000 NCD 10/09 Q1013=
201404282350 METAR COR EGLL 282350Z 08003KT 8000 NSC 10/09 Q1013 TEMPO
                        4000 BR BKN006=
201404282320 METAR COR EGLL 282320Z 06002KT CAVOK 10/09 Q1013 NOSIG=
201404282250 METAR COR EGLL 282250Z 07002KT CAVOK 10/09 Q1013 NOSIG=
201404282220 METAR COR EGLL 282220Z 14002KT CAVOK 11/09 Q1013 NOSIG=
201404282150 METAR COR EGLL 282150Z 20003KT CAVOK 11/09 Q1013 NOSIG=
201404282120 METAR COR EGLL 282120Z 22004KT 160V240 CAVOK 12/10 Q1013
                        NOSIG=
201404282050 METAR COR EGLL 282050Z 21005KT 9999 FEW035 12/10 Q1013 NOSIG=
201404282020 METAR COR EGLL 282020Z 19007KT 9999 SCT034 BKN045 13/10 Q1013
                        NOSIG=
201404281950 METAR COR EGLL 281950Z 19006KT 9999 SCT028 SCT040 13/10 Q1012
                        NOSIG=
201404281920 METAR COR EGLL 281920Z 22008KT 9999 SCT031 13/10 Q1012 NOSIG=
201404281850 METAR COR EGLL 281850Z 12005KT 090V200 9999 SCT035CB 14/09
                        Q1012 NOSIG=
201404281820 METAR COR EGLL 281820Z 10007KT 9999 FEW040CB 15/07 Q1012
                        NOSIG=
201404281750 METAR COR EGLL 281750Z 10008KT 9999 VCSH FEW040CB 15/06 Q1012
                        NOSIG=
201404281720 METAR COR EGLL 281720Z 12010KT 9999 VCSH FEW040CB 15/06 Q1011
                        NOSIG=
201404281650 METAR COR EGLL 281650Z 10011KT 9999 FEW040 16/06 Q1011 NOSIG=
201404281620 METAR COR EGLL 281620Z 09011KT 070V130 9999 SCT044 16/07
                        Q1011 NOSIG=
201404281550 METAR COR EGLL 281550Z 07010KT 9999 FEW040 17/07 Q1011 NOSIG=
201404281520 METAR COR EGLL 281520Z 08009KT 9999 FEW048 17/07 Q1011 NOSIG=
201404281450 METAR COR EGLL 281450Z 09008KT 050V130 9999 FEW040 17/07
                        Q1011 NOSIG=
201404281420 METAR COR EGLL 281420Z 09008KT 050V110 9999 SCT040 17/07
                        Q1011 NOSIG=
201404281350 METAR COR EGLL 281350Z 07009KT 020V100 9999 SCT037CB 16/08
                        Q1011 NOSIG=
201404281320 METAR COR EGLL 281320Z 06008KT 9999 SCT030CB 17/08 Q1011
                        NOSIG=
201404281250 METAR COR EGLL 281250Z 05009KT 020V080 9999 VCSH SCT030CB
                        16/09 Q1011 NOSIG=
201404281220 METAR COR EGLL 281220Z 05008KT 9999 VCSH FEW020 FEW025CB
                        SCT034 16/09 Q1011 TEMPO SHRA=
201404281150 METAR COR EGLL 281150Z 06007KT 010V090 9999 VCSH FEW020 SCT027
                        15/09 Q1011 TEMPO SHRA=
201404281120 METAR COR EGLL 281120Z 04007KT 350V070 9999 SCT020 15/10
                        Q1011 TEMPO SHRA=
201404281050 METAR COR EGLL 281050Z 04005KT 340V070 9999 FEW018 14/10
                        Q1011 TEMPO SHRA=
201404281020 METAR COR EGLL 281020Z 06006KT 020V080 9000 SCT020 14/10
                        Q1010 TEMPO SHRA=
201404280950 METAR COR EGLL 280950Z 05006KT 360V100 8000 SCT015 SCT019
                        14/10 Q1010 TEMPO SHRA=
201404280920 METAR COR EGLL 280920Z 06006KT 030V100 6000 FEW012 SCT019
                        BKN026 13/10 Q1010 NOSIG=
201404280850 METAR COR EGLL 280850Z 05006KT 020V080 5000 HZ FEW012 SCT019
                        BKN025 13/10 Q1010 NOSIG=
201404280820 METAR COR EGLL 280820Z 04006KT 4500 HZ SCT009 BKN010 12/09
                        Q1010 BECMG 8000 SCT010 BKN035=
201404280750 METAR COR EGLL 280750Z 04007KT 350V070 4000 HZ FEW008 SCT009
                        BKN010 11/09 Q1010 BECMG 8000 SCT010
                        BKN035=
201404280720 METAR COR EGLL 280720Z 04006KT 360V070 3500 HZ OVC006 10/09
                        Q1010 BECMG 6000 SCT007 BKN012=
201404280650 METAR COR EGLL 280650Z 03005KT 350V060 3100 HZ BKN005 OVC006
                        10/09 Q1010 BECMG 5000 SCT007 BKN010=
201404280620 METAR COR EGLL 280620Z 03005KT 3400 HZ SCT005 OVC006 10/09
                        Q1009 BECMG 5000 SCT006 BKN010=
201404280550 METAR COR EGLL 280550Z 04006KT 3800 HZ OVC007 10/09 Q1009
                        BECMG 5000=
201404280520 METAR COR EGLL 280520Z 02006KT 350V060 4500 HZ BKN008 10/08
                        Q1009 TEMPO 6000 NSW SCT008 BKN012=
201404280450 METAR COR EGLL 280450Z 03005KT 350V070 4500 HZ BKN008 10/08
                        Q1008 TEMPO 6000 NSW SCT008 BKN012=
201404280420 METAR COR EGLL 280420Z 03006KT 350V060 5000 HZ BKN008 10/08
                        Q1008 TEMPO 4000=
201404280350 METAR COR EGLL 280350Z 03005KT 350V060 7000 BKN010 10/08
                        Q1008 TEMPO 4500 HZ BKN008=
201404280320 METAR COR EGLL 280320Z 03004KT 340V060 8000 FEW011 SCT024
                        10/08 Q1008 TEMPO 4500 HZ BKN008=
201404280250 METAR COR EGLL 280250Z 03004KT 350V050 8000 SCT019 SCT029
                        10/08 Q1008 TEMPO BKN008=
201404280220 METAR COR EGLL 280220Z 01004KT 330V060 8000 SCT024 SCT029
                        10/08 Q1008 NOSIG=
201404280150 METAR COR EGLL 280150Z 03004KT 350V060 8000 SCT023 10/08
                        Q1008 NOSIG=
201404280120 METAR EGLL 280120Z AUTO 04004KT 360V070 8000 NCD 10/08 Q1008=
201404280050 METAR EGLL 280050Z AUTO VRB03KT 8000 NCD 10/08 Q1008=
201404280020 METAR EGLL 280020Z AUTO 35004KT 7000 NCD 10/08 Q1008=
201404272350 METAR COR EGLL 272350Z 03004KT 8000 SCT015 11/08 Q1008 TEMPO
                        BKN012=
201404272320 METAR COR EGLL 272320Z 05004KT 020V090 9000 SCT017 SCT033
                        11/08 Q1008 TEMPO BKN012=
201404272250 METAR COR EGLL 272250Z 06006KT 9999 FEW023 BKN033 12/08 Q1007
                        NOSIG=
201404272220 METAR COR EGLL 272220Z 06007KT 9999 SCT019 BKN029 12/09 Q1007
                        TEMPO BKN014=
201404272150 METAR COR EGLL 272150Z 06008KT 9999 SCT017 SCT028 12/09 Q1007
                        TEMPO BKN014=
201404272120 METAR COR EGLL 272120Z 06007KT 9999 FEW020 SCT028 12/09 Q1007
                        NOSIG=
201404272050 METAR COR EGLL 272050Z 06010KT 9999 SCT019 12/08 Q1006 NOSIG=
201404272020 METAR COR EGLL 272020Z 06009KT 9999 BKN019 12/09 Q1006 NOSIG=
201404271950 METAR COR EGLL 271950Z 07007KT 9999 SCT020TCU SCT026 12/08
                        Q1006 NOSIG=
201404271920 METAR COR EGLL 271920Z 07006KT 9999 FEW025TCU 12/08 Q1006
                        NOSIG=
201404271850 METAR COR EGLL 271850Z 07007KT 9999 FEW032 12/07 Q1005 NOSIG=
201404271820 METAR COR EGLL 271820Z 06006KT 9999 FEW035CB 12/08 Q1005
                        TEMPO SHRA=
201404271750 METAR COR EGLL 271750Z 10009KT 9999 VCSH FEW030TCU FEW035CB
                        12/09 Q1005 NOSIG=
201404271720 METAR COR EGLL 271720Z 09013KT 9999 FEW035CB 13/08 Q1005
                        NOSIG=
201404271650 METAR COR EGLL 271650Z 09012KT 9999 VCSH FEW035CB 13/07 Q1004
                        NOSIG=
201404271620 METAR COR EGLL 271620Z 10012KT 9999 VCSH FEW035CB 14/07 Q1004
                        NOSIG=
201404271550 METAR COR EGLL 271550Z 09010KT 9999 SCT035 14/07 Q1004 NOSIG=
201404271520 METAR COR EGLL 271520Z 09011KT 9999 SCT037 14/07 Q1003 NOSIG=
201404271450 METAR COR EGLL 271450Z 10011KT 9999 SCT035 14/07 Q1003 TEMPO
                        SHRA=
201404271420 METAR COR EGLL 271420Z 10008KT 9999 SCT034 15/07 Q1003 NOSIG=
201404271350 METAR COR EGLL 271350Z 09008KT 9999 SCT030 14/07 Q1003 NOSIG=
201404271320 METAR COR EGLL 271320Z 11010KT 9999 SCT030 14/07 Q1003 NOSIG=
201404271250 METAR COR EGLL 271250Z 10009KT 060V130 9999 FEW024 SCT048
                        14/08 Q1003 NOSIG=
201404271220 METAR COR EGLL 271220Z 12011KT 9999 FEW035 BKN049 13/07 Q1003
                        NOSIG=
201404271150 METAR COR EGLL 271150Z 10010KT 9999 SCT031 SCT040 13/07 Q1003
                        NOSIG=
201404271120 METAR COR EGLL 271120Z 12009KT 090V150 9999 FEW030 BKN043
                        13/07 Q1003 NOSIG=
201404271050 METAR COR EGLL 271050Z 12010KT 9999 SCT030 SCT048 13/07 Q1002
                        NOSIG=
201404271020 METAR EGLL 271020Z 11011KT 9999 FEW020 SCT040 13/07 Q1002=
201404270950 METAR COR EGLL 270950Z 12011KT 9999 FEW015 BKN022 12/08 Q1002
                        NOSIG=
201404270920 METAR COR EGLL 270920Z 13009KT 090V160 9999 BKN017 13/09
                        Q1002 NOSIG=
201404270850 METAR COR EGLL 270850Z 12011KT 9999 FEW013 SCT020 12/09 Q1002
                        TEMPO BKN014=
201404270820 METAR COR EGLL 270820Z 11012KT 9999 FEW011 SCT040 11/09 Q1002
                        TEMPO BKN012=
201404270750 METAR COR EGLL 270750Z 10010KT 9999 FEW009 SCT038 10/09 Q1001
                        TEMPO SHRA BKN012=
201404270720 METAR COR EGLL 270720Z 10010KT 9999 -RA FEW008 SCT030 10/09
                        Q1001 NOSIG=
201404270650 METAR COR EGLL 270650Z 10010KT 9999 -RA BKN010 10/08 Q1001
                        TEMPO SCT012=
201404270620 METAR COR EGLL 270620Z 11010KT 9000 -RA BKN012 10/08 Q1001
                        TEMPO SCT012=
201404270550 METAR COR EGLL 270550Z 10010KT 9999 -RA BKN012 10/08 Q1001
                        TEMPO RA=
201404270520 METAR COR EGLL 270520Z 10009KT 9999 FEW011 BKN014 10/08 Q1001
                        TEMPO RA=
201404270450 METAR COR EGLL 270450Z 10009KT 9999 -RA FEW012 BKN014 10/08
                        Q1001 NOSIG=
201404270420 METAR COR EGLL 270420Z 09009KT 9999 -RA FEW013 BKN016 09/07
                        Q1001 TEMPO RA BKN014=
201404270350 METAR COR EGLL 270350Z 09008KT 9999 SCT018 10/07 Q1001 TEMPO
                        -RA BKN014=
201404270320 METAR COR EGLL 270320Z 10010KT 9999 FEW035 09/07 Q1001 NOSIG=
201404270250 METAR COR EGLL 270250Z 10010KT 9999 FEW034 09/06 Q1001 NOSIG=
201404270220 METAR COR EGLL 270220Z 09010KT 9999 FEW023 09/06 Q1001 NOSIG=
201404270150 METAR COR EGLL 270150Z 10009KT CAVOK 09/06 Q1001 NOSIG=
201404270120 METAR EGLL 270120Z AUTO 11009KT 9999 NCD 10/06 Q1001=
201404270050 METAR EGLL 270050Z AUTO 10007KT 9999 NCD 10/06 Q1002=
201404270020 METAR EGLL 270020Z AUTO 11008KT 9999 SCT048 09/06 Q1002=
201404262350 METAR COR EGLL 262350Z 11009KT 9999 FEW031 SCT044 09/06 Q1002
                        NOSIG=
201404262320 METAR COR EGLL 262320Z 11010KT 9999 FEW044 SCT048 09/05 Q1002
                        NOSIG=
201404262250 METAR COR EGLL 262250Z 12010KT CAVOK 10/05 Q1003 NOSIG=
201404262220 METAR COR EGLL 262220Z 13011KT CAVOK 10/05 Q1003 NOSIG=
201404262150 METAR COR EGLL 262150Z 13010KT 9999 FEW046 10/05 Q1003 NOSIG=
201404262120 METAR COR EGLL 262120Z 13010KT 9999 FEW046 10/06 Q1003 NOSIG=
201404262050 METAR COR EGLL 262050Z 13009KT CAVOK 11/06 Q1003 NOSIG=
201404262020 METAR COR EGLL 262020Z 13010KT CAVOK 11/06 Q1003 NOSIG=
201404261950 METAR COR EGLL 261950Z 15010KT CAVOK 11/05 Q1003 NOSIG=
201404261920 METAR COR EGLL 261920Z 14009KT 9999 FEW047 12/05 Q1003 NOSIG=
201404261850 METAR COR EGLL 261850Z 16011KT 9999 FEW049 12/05 Q1003 NOSIG=
201404261820 METAR COR EGLL 261820Z 17012KT 9999 FEW049 13/05 Q1003 NOSIG=
201404261750 METAR COR EGLL 261750Z 16011KT 9999 FEW035 13/05 Q1003 NOSIG=
201404261720 METAR COR EGLL 261720Z 15012KT 9999 FEW035 13/07 Q1003 NOSIG=
201404261650 METAR COR EGLL 261650Z 18016KT 9999 VCSH SCT033 14/06 Q1003
                        NOSIG=
201404261620 METAR COR EGLL 261620Z 17013KT 150V210 9999 VCSH SCT032 14/06
                        Q1003 TEMPO SHRA=
201404261550 METAR COR EGLL 261550Z 17016KT 140V230 9999 VCSH FEW019 SCT034
                        14/07 Q1004 RESHRA TEMPO SHRA=
201404261520 METAR COR EGLL 261520Z 15013KT 120V220 9999 VCSH SCT042 15/06
                        Q1003 TEMPO SHRA=
201404261450 METAR COR EGLL 261450Z 17016KT 140V230 9999 VCSH SCT044 15/05
                        Q1003 NOSIG=
201404261420 METAR COR EGLL 261420Z 19018KT 150V220 9999 FEW040 SCT045
                        16/05 Q1004 NOSIG=
201404261350 METAR COR EGLL 261350Z 19015KT 160V220 9999 FEW020 SCT039
                        15/06 Q1004 RESHRA NOSIG=
201404261320 METAR COR EGLL 261320Z 20014KT 9999 SHRA FEW020 SCT040 15/06
                        Q1004 BECMG NSW=
201404261250 METAR COR EGLL 261250Z 19017G28KT 9999 SCT035 15/07 Q1004
                        NOSIG=
201404261220 METAR COR EGLL 261220Z 18016KT 140V220 9999 FEW033 SCT037
                        15/06 Q1004 NOSIG=
201404261150 METAR COR EGLL 261150Z 18015G25KT 9999 BKN030 14/07 Q1004
                        NOSIG=
201404261120 METAR COR EGLL 261120Z 19013G27KT 9999 -SHRA SCT027 14/08
                        Q1004 NOSIG=
201404261050 METAR COR EGLL 261050Z 18015KT 9999 FEW026 SCT049 14/06 Q1004
                        TEMPO SHRA=
201404261020 METAR COR EGLL 261020Z 18014G25KT 9999 SCT024 SCT030 13/08
                        Q1005 NOSIG=
201404260950 METAR COR EGLL 260950Z 17015KT 9999 BKN023 13/08 Q1005 NOSIG=
201404260920 METAR COR EGLL 260920Z 18013G25KT 9999 SCT019 13/08 Q1005
                        NOSIG=
201404260850 METAR COR EGLL 260850Z 18013KT 9999 SCT016 13/09 Q1005 NOSIG=
201404260820 METAR COR EGLL 260820Z 18010KT 9999 SCT010 12/09 Q1005 NOSIG=
201404260750 METAR COR EGLL 260750Z 18012KT 9999 SCT010 12/09 Q1004 NOSIG=
201404260720 METAR COR EGLL 260720Z 18012KT 9999 SCT012 11/09 Q1004 NOSIG=
201404260650 METAR COR EGLL 260650Z 17011KT 9999 -RA BKN010 10/09 Q1004
                        BECMG SCT012=
201404260620 METAR COR EGLL 260620Z 17011KT 9999 -RA BKN009 BKN017 10/09
                        Q1004 REDZ BECMG SCT012=
201404260550 METAR COR EGLL 260550Z 16012KT 9999 DZ BKN009 10/09 Q1004
                        BECMG NSW FEW030=
201404260520 METAR COR EGLL 260520Z 16013KT 9000 -RA SCT009 BKN016 10/08
                        Q1004 TEMPO RA BKN012=
201404260450 METAR COR EGLL 260450Z 16012KT 9999 -RA SCT014 SCT020 BKN024
                        10/08 Q1005 TEMPO RA BKN012=
201404260420 METAR COR EGLL 260420Z 16012KT 9999 -RA SCT020 10/08 Q1005
                        TEMPO RA BKN014=
201404260350 METAR COR EGLL 260350Z 15009KT CAVOK 10/08 Q1005 BECMG RA
                        SCT015 BKN030=
201404260320 METAR COR EGLL 260320Z 14009KT CAVOK 10/08 Q1006 BECMG SCT015
                        BKN030=
201404260250 METAR COR EGLL 260250Z 15009KT CAVOK 10/08 Q1006 NOSIG=
201404260220 METAR COR EGLL 260220Z 16009KT 6000 NSC 09/08 Q1006 NOSIG=
201404260150 METAR COR EGLL 260150Z 15009KT 6000 NSC 09/08 Q1007 NOSIG=
201404260120 METAR EGLL 260120Z AUTO 13008KT 2800 HZ NCD 08/07 Q1007=
201404260050 METAR EGLL 260050Z AUTO 14007KT 3400 HZ NCD 08/08 Q1008=
201404260020 METAR EGLL 260020Z AUTO 15007KT 3100 BR NCD 08/07 Q1008=
201404252350 METAR COR EGLL 252350Z 17005KT 6000 NSC 08/07 Q1008 NOSIG=
201404252320 METAR COR EGLL 252320Z 17006KT 6000 NSC 08/07 Q1009 NOSIG=
201404252250 METAR COR EGLL 252250Z 15006KT 6000 NSC 08/07 Q1009 NOSIG=
201404252220 METAR COR EGLL 252220Z 18005KT 140V240 7000 NSC 08/08 Q1009
                        NOSIG=
201404252150 METAR COR EGLL 252150Z 19006KT 140V240 7000 NSC 09/08 Q1009
                        NOSIG=
201404252120 METAR COR EGLL 252120Z 21007KT 160V250 9999 FEW013 09/08
                        Q1010 NOSIG=
201404252050 METAR COR EGLL 252050Z 22008KT 190V260 9999 FEW014 09/08
                        Q1010 NOSIG=
201404252020 METAR COR EGLL 252020Z 22008KT 180V250 9999 FEW010 10/08
                        Q1010 NOSIG=
201404251950 METAR COR EGLL 251950Z 23008KT 190V260 9999 FEW009 10/09
                        Q1010 NOSIG=
201404251920 METAR COR EGLL 251920Z 24010KT 9999 FEW008 SCT010 10/09 Q1009
                        NOSIG=
201404251850 METAR COR EGLL 251850Z 26009KT 9999 FEW008 SCT012 11/09 Q1009
                        NOSIG=
201404251820 METAR COR EGLL 251820Z 26012KT 9999 FEW006 BKN010 11/09 Q1009
                        BECMG SCT015=
201404251750 METAR COR EGLL 251750Z 26011KT 9999 FEW006 BKN009 10/09 Q1009
                        BECMG SCT009 BKN015=
201404251720 METAR COR EGLL 251720Z 27013KT 6000 -RA SCT005 BKN014 10/09
                        Q1009 BECMG BKN016=
201404251650 METAR COR EGLL 251650Z 27013KT 5000 -RA FEW006 SCT018 BKN020
                        10/09 Q1009 RERA TEMPO 4500 RA BKN008=
201404251620 METAR COR EGLL 251620Z 26014KT 6000 RA SCT007 BKN009 OVC022
                        10/09 Q1009 TEMPO 4000=
201404251550 METAR COR EGLL 251550Z 27013KT 5000 -RA SCT003 BKN004 OVC005
                        10/09 Q1009 TEMPO 4000 RA=
201404251520 METAR COR EGLL 251520Z 25011KT 7000 -RA SCT003 BKN004 OVC006
                        11/10 Q1009 TEMPO 4000 RA SCT004
                        OVC006=
201404251450 METAR COR EGLL 251450Z 26007KT 4000 -RA SCT003 BKN004CB OVC005
                        12/11 Q1009 TEMPO RA=
201404251420 METAR COR EGLL 251420Z 30004KT 3800 -RA BKN004TCU OVC005
                        12/11 Q1009 TEMPO SHRA=
201404251350 METAR COR EGLL 251350Z 31004KT 290V350 3100 -RA BKN003 OVC005
                        12/11 Q1009 TEMPO RA SCT003 OVC005=
201404251320 METAR COR EGLL 251320Z 31004KT 290V350 2700 -RA OVC003 11/11
                        Q1010 TEMPO RA BKN005=
201404251250 METAR COR EGLL 251250Z 32004KT 300V360 2800 -RA OVC003 11/10
                        Q1010 TEMPO RA=
201404251220 METAR COR EGLL 251220Z 35004KT 320V030 2800 -RA OVC003 11/10
                        Q1010 TEMPO RA=
201404251150 METAR COR EGLL 251150Z 35005KT 320V020 3400 -RA OVC003 11/10
                        Q1011 NOSIG=
201404251120 METAR COR EGLL 251120Z 34004KT 300V030 3800 HZ OVC004 11/10
                        Q1011 BECMG 6000 NSW BKN005=
201404251050 METAR COR EGLL 251050Z 36005KT 330V030 3800 -RA OVC004 11/10
                        Q1011 BECMG 6000 NSW BKN006=
201404251020 METAR COR EGLL 251020Z 36005KT 330V050 3500 -RA OVC004 11/10
                        Q1012 BECMG 6000 NSW BKN006=
201404250950 METAR COR EGLL 250950Z 36004KT 330V050 3100 -RA FEW004 OVC005
                        10/09 Q1012 BECMG 6000 NSW=
201404250920 METAR COR EGLL 250920Z 36005KT 4000 -RA OVC004 10/09 Q1012
                        BECMG 6000 NSW BKN006=
201404250850 METAR COR EGLL 250850Z 36005KT 5000 -RA OVC005 10/09 Q1012
                        REDZ TEMPO 4500=
201404250820 METAR COR EGLL 250820Z 36005KT 330V040 4000 -RA OVC004 09/09
                        Q1013 BECMG 6000 NSW BKN006=
201404250750 METAR COR EGLL 250750Z 01005KT 330V050 3400 HZ OVC004CB 09/08
                        Q1013 BECMG 6000 NSW BKN006=
201404250720 METAR COR EGLL 250720Z 03007KT 350V060 4500 HZ OVC005CB 09/08
                        Q1013 BECMG 6000 NSW=
201404250650 METAR COR EGLL 250650Z 03006KT 330V080 5000 -RADZ OVC005
                        09/08 Q1013 NOSIG=
201404250620 METAR COR EGLL 250620Z 02006KT 330V060 4500 -RADZ OVC006
                        09/08 Q1013 TEMPO RA=
201404250550 METAR COR EGLL 250550Z 02006KT 5000 -RADZ BKN007 10/08 Q1013
                        TEMPO 4000 RA=
201404250520 METAR COR EGLL 250520Z 03006KT 340V060 4600 HZ FEW010 09/08
                        Q1013 BECMG BKN007=
201404250450 METAR COR EGLL 250450Z 03005KT 350V080 5000 HZ NSC 10/08
                        Q1013 BECMG BKN007=
201404250420 METAR COR EGLL 250420Z 36005KT 330V050 6000 NSC 10/08 Q1013
                        TEMPO 4800 HZ BKN006=
201404250350 METAR COR EGLL 250350Z 36004KT 6000 NSC 10/08 Q1013 BECMG
                        BKN006=
201404250320 METAR COR EGLL 250320Z 02004KT 350V060 6000 NSC 09/08 Q1013
                        NOSIG=
201404250250 METAR COR EGLL 250250Z VRB03KT 7000 NSC 09/08 Q1014 NOSIG=
201404250220 METAR COR EGLL 250220Z 03004KT 340V070 7000 NSC 09/08 Q1014
                        NOSIG=
201404250150 METAR COR EGLL 250150Z VRB02KT 7000 NSC 09/08 Q1014 NOSIG=
201404250120 METAR EGLL 250120Z AUTO 01004KT 340V050 8000 NCD 10/08 Q1015=
201404250050 METAR EGLL 250050Z AUTO 36003KT 8000 NCD 10/08 Q1015=
201404250020 METAR EGLL 250020Z AUTO VRB03KT 9999 NCD 11/08 Q1015=
201404242350 METAR COR EGLL 242350Z 03004KT CAVOK 11/08 Q1016 NOSIG=
201404242320 METAR COR EGLL 242320Z 05005KT CAVOK 11/08 Q1016 NOSIG=
201404242250 METAR COR EGLL 242250Z 05005KT CAVOK 12/09 Q1016 NOSIG=
201404242220 METAR COR EGLL 242220Z 05004KT CAVOK 12/09 Q1016 NOSIG=
201404242150 METAR COR EGLL 242150Z 06004KT CAVOK 12/09 Q1016 NOSIG=
201404242120 METAR COR EGLL 242120Z 08006KT CAVOK 12/08 Q1016 NOSIG=
201404242050 METAR COR EGLL 242050Z 09006KT 050V110 9999 FEW042 13/09
                        Q1016 NOSIG=
201404242020 METAR COR EGLL 242020Z 03003KT 9999 FEW037 14/10 Q1016 NOSIG=
201404241950 METAR COR EGLL 241950Z 03004KT 9999 FEW037 14/09 Q1016 NOSIG=
201404241920 METAR COR EGLL 241920Z 03005KT 350V060 9999 FEW048 14/10
                        Q1016 NOSIG=
201404241850 METAR COR EGLL 241850Z 04005KT 9999 FEW042 15/10 Q1016 NOSIG=
201404241820 METAR COR EGLL 241820Z 04006KT 9999 VCSH FEW040 15/09 Q1016
                        NOSIG=
201404241750 METAR COR EGLL 241750Z 07008KT 9999 VCSH FEW037 16/08 Q1016
                        NOSIG=
201404241720 METAR COR EGLL 241720Z 03004KT 340V090 9999 FEW049 17/06
                        Q1016 TEMPO SHRA=
201404241650 METAR COR EGLL 241650Z VRB03KT CAVOK 17/06 Q1017 NOSIG=
201404241620 METAR COR EGLL 241620Z 06005KT 010V090 9999 FEW048 17/07
                        Q1017 NOSIG=
201404241550 METAR COR EGLL 241550Z 04005KT 350V080 9999 FEW045 17/06
                        Q1017 NOSIG=
201404241520 METAR COR EGLL 241520Z VRB03KT 9999 FEW045 17/08 Q1017 NOSIG=
201404241450 METAR EGLL 241450Z 05004KT 350V090 9999 FEW048 17/07 Q1017=
201404241420 METAR COR EGLL 241420Z 34004KT 270V040 9999 FEW048 16/07
                        Q1018 NOSIG=
201404241350 METAR COR EGLL 241350Z VRB03KT 9999 FEW043 16/07 Q1018 NOSIG=
201404241320 METAR COR EGLL 241320Z VRB03KT 9999 FEW042 16/07 Q1018 NOSIG=
201404241250 METAR COR EGLL 241250Z VRB03KT 9999 SCT041 17/07 Q1019 NOSIG=
201404241220 METAR COR EGLL 241220Z VRB02KT 9999 FEW034 16/07 Q1019 NOSIG=
201404241150 METAR COR EGLL 241150Z VRB03KT 9999 FEW034 16/07 Q1019 NOSIG=
201404241120 METAR COR EGLL 241120Z VRB02KT 9999 FEW033 16/08 Q1019 NOSIG=
201404241050 METAR COR EGLL 241050Z VRB02KT 9999 FEW030 16/08 Q1019 NOSIG=
201404241020 METAR COR EGLL 241020Z VRB03KT 9999 FEW030 15/08 Q1020 NOSIG=
201404240950 METAR COR EGLL 240950Z VRB02KT 9999 SCT029 14/08 Q1020 NOSIG=
201404240920 METAR COR EGLL 240920Z VRB03KT 9999 SCT022 15/09 Q1020 NOSIG=
201404240850 METAR COR EGLL 240850Z 24004KT 200V280 9999 FEW014 SCT024
                        13/09 Q1020 NOSIG=
201404240820 METAR COR EGLL 240820Z VRB03KT 9999 FEW015 SCT020 13/09 Q1020
                        NOSIG=
201404240750 METAR COR EGLL 240750Z 25004KT 200V290 9999 FEW011 SCT015
                        11/09 Q1020 NOSIG=
201404240720 METAR COR EGLL 240720Z VRB02KT 9999 FEW007 SCT008 12/09 Q1020
                        NOSIG=
201404240650 METAR COR EGLL 240650Z VRB03KT 9999 FEW008 11/10 Q1020 NOSIG=
201404240620 METAR COR EGLL 240620Z 23005KT 170V280 7000 FEW008 11/10
                        Q1020 TEMPO BKN009=
201404240550 METAR COR EGLL 240550Z 22005KT 160V260 6000 FEW008 SCT020
                        BKN030 11/10 Q1020 BKN009=
201404240520 METAR COR EGLL 240520Z 22005KT 7000 FEW008 BKN025 11/09 Q1020
                        TEMPO BKN009=
201404240450 METAR COR EGLL 240450Z VRB02KT 9000 FEW008 BKN014 10/09 Q1020
                        TEMPO BKN008=
201404240420 METAR COR EGLL 240420Z 15002KT 8000 FEW008 SCT022 10/09 Q1020
                        TEMPO BKN009=
201404240350 METAR COR EGLL 240350Z 16003KT 9999 FEW008 SCT020 BKN028
                        10/09 Q1020 TEMPO BKN009=
201404240320 METAR COR EGLL 240320Z 20003KT 9999 FEW008 SCT020 BKN031
                        11/09 Q1020 TEMPO BKN009=
201404240250 METAR COR EGLL 240250Z 17003KT 9999 FEW008 SCT020 BKN029
                        11/10 Q1020 TEMPO BKN010=
201404240220 METAR COR EGLL 240220Z 20003KT 9999 FEW008 BKN029 11/10 Q1020
                        TEMPO BKN010=
201404240150 METAR COR EGLL 240150Z 16003KT 9999 FEW008 BKN037 11/10 Q1020
                        TEMPO BKN010=
201404240120 METAR EGLL 240120Z AUTO 18004KT 8000 BKN039 11/10 Q1020=
201404240050 METAR EGLL 240050Z AUTO 18004KT 8000 OVC035 11/10 Q1020=
201404240020 METAR EGLL 240020Z AUTO 18004KT 9000 FEW031 SCT039 11/10
                        Q1020=
201404232350 METAR COR EGLL 232350Z 19005KT 9999 FEW010 SCT028 11/10 Q1020
                        TEMPO BKN012=
201404232320 METAR COR EGLL 232320Z 18005KT 9999 FEW010 SCT019 11/10 Q1020
                        TEMPO BKN012=
201404232250 METAR COR EGLL 232250Z 18004KT 9999 FEW008 SCT038 11/10 Q1019
                        TEMPO BKN012=
201404232220 METAR COR EGLL 232220Z 18004KT 9000 FEW008 11/10 Q1019 TEMPO
                        BKN012=
201404232150 METAR COR EGLL 232150Z 18005KT 150V210 8000 -RA FEW005 SCT008
                        BKN032 11/10 Q1019 TEMPO BKN010=
201404232120 METAR COR EGLL 232120Z 19006KT 150V260 8000 -RA FEW010 SCT018
                        BKN030 11/10 Q1019 TEMPO BKN012=
201404232050 METAR COR EGLL 232050Z 18006KT 130V270 9000 -RA FEW008 SCT027
                        11/10 Q1019 NOSIG=
201404232020 METAR COR EGLL 232020Z 17005KT 140V240 9000 -RA FEW008 SCT031
                        11/10 Q1019 NOSIG=
201404231950 METAR COR EGLL 231950Z 17006KT 130V250 9999 -RA FEW010 SCT041
                        12/10 Q1019 NOSIG=
201404231920 METAR COR EGLL 231920Z 17007KT 140V230 9999 -RA FEW010 BKN042
                        12/10 Q1019 NOSIG=
201404231850 METAR COR EGLL 231850Z 18007KT 140V230 9999 -RA FEW012 BKN045
                        12/10 Q1019 NOSIG=
201404231820 METAR COR EGLL 231820Z 18007KT 150V220 8000 -RA FEW012 BKN045
                        12/10 Q1018 NOSIG=
201404231750 METAR COR EGLL 231750Z 18008KT 9999 -RA FEW012 SCT037 BKN043
                        12/10 Q1018 NOSIG=
201404231720 METAR COR EGLL 231720Z 20008KT 9000 -RA SCT044 13/10 Q1018
                        TEMPO RA=
201404231650 METAR COR EGLL 231650Z 18010KT 8000 -RA SCT037 13/10 Q1018
                        NOSIG=
201404231620 METAR COR EGLL 231620Z 18009KT 9999 -RA SCT028 14/09 Q1017
                        NOSIG=
201404231550 METAR COR EGLL 231550Z 18009KT 150V220 9999 FEW032 15/08
                        Q1017 NOSIG=
201404231520 METAR COR EGLL 231520Z 18009KT 9999 FEW036 15/08 Q1017 NOSIG=
201404231450 METAR COR EGLL 231450Z 17009KT 130V200 9999 FEW034 15/08
                        Q1018 NOSIG=
201404231420 METAR COR EGLL 231420Z 18009KT 9999 FEW021 16/08 Q1018 NOSIG=
201404231350 METAR COR EGLL 231350Z 17010KT 9999 FEW023 15/07 Q1018 NOSIG=
201404231320 METAR COR EGLL 231320Z 18013KT 9999 FEW032 15/06 Q1018 NOSIG=
201404231250 METAR COR EGLL 231250Z 16011KT 9999 FEW032 15/07 Q1018 NOSIG=
201404231220 METAR COR EGLL 231220Z 19010KT 150V220 9999 FEW038 15/07
                        Q1017 NOSIG=
201404231150 METAR COR EGLL 231150Z 19011KT 9999 FEW038 16/07 Q1017 NOSIG=
201404231120 METAR COR EGLL 231120Z 18012KT 9999 FEW039 16/07 Q1017 NOSIG=
201404231050 METAR COR EGLL 231050Z 18011KT 9999 FEW035 15/07 Q1017 NOSIG=
201404231020 METAR COR EGLL 231020Z 17012KT 9999 FEW036 15/08 Q1017 NOSIG=
201404230950 METAR COR EGLL 230950Z 19011KT 9999 FEW025 16/09 Q1017 NOSIG=
201404230920 METAR COR EGLL 230920Z 17011KT 9999 FEW020 15/10 Q1017 NOSIG=
201404230850 METAR COR EGLL 230850Z 16010KT 9999 FEW036 14/09 Q1017 NOSIG=
201404230820 METAR COR EGLL 230820Z 16012KT 9999 FEW036 13/09 Q1017 NOSIG=
201404230750 METAR COR EGLL 230750Z 17008KT 9999 FEW047 12/09 Q1017 NOSIG=
201404230720 METAR COR EGLL 230720Z 15006KT 120V180 CAVOK 11/09 Q1017
                        NOSIG=
201404230650 METAR COR EGLL 230650Z 13004KT 090V160 9000 NSC 10/09 Q1017
                        NOSIG=
201404230620 METAR COR EGLL 230620Z 09003KT 9000 NSC 09/08 Q1016 NOSIG=
201404230550 METAR COR EGLL 230550Z 13004KT 9000 NSC 07/06 Q1016 NOSIG=
201404230520 METAR COR EGLL 230520Z 14004KT 9000 NSC 07/06 Q1016 NOSIG=
201404230450 METAR COR EGLL 230450Z 10003KT 8000 NSC 07/06 Q1016 TEMPO
                        4000 BR=
201404230420 METAR COR EGLL 230420Z VRB02KT 7000 NSC 07/06 Q1015 TEMPO
                        4000 BR=
201404230350 METAR COR EGLL 230350Z 10004KT 9000 NSC 06/06 Q1016 TEMPO
                        4000 BR=
201404230320 METAR COR EGLL 230320Z 09003KT 9000 NSC 06/06 Q1016 NOSIG=
201404230250 METAR EGLL 230250Z 13002KT 9000 FEW005 07/07 Q1016=
201404230220 METAR COR EGLL 230220Z 14002KT 8000 FEW005 08/07 Q1016 NOSIG=
201404230150 METAR COR EGLL 230150Z 16003KT 8000 NSC 08/07 Q1016 NOSIG=
201404222350 METAR COR EGLL 222350Z 19007KT CAVOK 09/08 Q1015 NOSIG=
201404222320 METAR COR EGLL 222320Z 19007KT CAVOK 10/08 Q1015 NOSIG=
201404222250 METAR COR EGLL 222250Z 18006KT CAVOK 10/08 Q1014 NOSIG=
201404222220 METAR COR EGLL 222220Z 18007KT CAVOK 10/09 Q1014 NOSIG=
201404222150 METAR COR EGLL 222150Z 19007KT 9999 FEW020 10/08 Q1014 NOSIG=
201404222120 METAR COR EGLL 222120Z 17006KT 140V230 9999 FEW020 10/09
                        Q1013 NOSIG=
201404222050 METAR COR EGLL 222050Z 18006KT 150V240 CAVOK 11/09 Q1013
                        NOSIG=
201404222020 METAR COR EGLL 222020Z 19007KT 170V240 9999 FEW016 11/09
                        Q1013 NOSIG=
201404221950 METAR COR EGLL 221950Z 18007KT 120V230 9999 FEW038 SCT048
                        11/09 Q1012 NOSIG=
201404221920 METAR COR EGLL 221920Z 19008KT 150V240 9999 7000NE VCSH FEW017
                        SCT021 12/10 Q1012 NOSIG=
201404221850 METAR COR EGLL 221850Z 20010KT 170V240 9999 VCSH FEW019 BKN021
                        13/08 Q1012 NOSIG=
201404221820 METAR COR EGLL 221820Z 20011KT 170V250 9999 SCT025 BKN031
                        13/08 Q1011 NOSIG=
201404221750 METAR COR EGLL 221750Z 21010G22KT 9999 FEW025 BKN039 14/08
                        Q1011 NOSIG=
201404221720 METAR COR EGLL 221720Z 20012KT 9999 SCT038 BKN043 14/08 Q1010
                        NOSIG=
201404221650 METAR COR EGLL 221650Z 21010KT 170V240 9999 SCT028 BKN041
                        14/08 Q1010 NOSIG=
201404221620 METAR COR EGLL 221620Z 22010KT 180V250 9999 SCT030 15/08
                        Q1010 NOSIG=
201404221550 METAR COR EGLL 221550Z 22011KT 9999 SCT030 15/08 Q1010 NOSIG=
201404221520 METAR COR EGLL 221520Z 21013KT 9999 SCT030 15/08 Q1009 NOSIG=
201404221450 METAR COR EGLL 221450Z 21011KT 170V260 9999 SCT029 15/08
                        Q1009 NOSIG=
201404221420 METAR COR EGLL 221420Z 23011KT 200V260 9999 FEW035 15/08
                        Q1009 NOSIG=
201404221350 METAR COR EGLL 221350Z 21011G22KT 9999 -SHRA FEW021 SCT032
                        15/08 Q1009 NOSIG=
201404221320 METAR COR EGLL 221320Z 22011KT 9999 FEW022 SCT031 15/08 Q1009
                        TEMPO SHRA=
201404221250 METAR COR EGLL 221250Z 24011KT 9999 SCT028 15/08 Q1009 NOSIG=
201404221220 METAR COR EGLL 221220Z 23012KT 9999 SCT023 15/09 Q1008 NOSIG=
201404221150 METAR COR EGLL 221150Z 23010KT 9999 SCT036 SCT046 14/09 Q1008
                        NOSIG=
201404221120 METAR COR EGLL 221120Z 22010KT 9999 SCT016 SCT033 13/10 Q1008
                        NOSIG=
201404221050 METAR COR EGLL 221050Z 19009KT 9999 BKN016 BKN029 13/10 Q1008
                        NOSIG=
201404221020 METAR COR EGLL 221020Z 21009KT 180V240 9999 SCT010 BKN014
                        12/10 Q1008 BECMG SCT020=
201404220950 METAR COR EGLL 220950Z 22007KT 190V250 9999 SCT009 SCT018
                        12/10 Q1007 NOSIG=
201404220920 METAR COR EGLL 220920Z 24008KT 9999 SCT007 BKN011 11/10 Q1007
                        BECMG SCT015=
201404220850 METAR COR EGLL 220850Z 23007KT 7000 SCT006 BKN009 11/10 Q1006
                        BECMG BKN012=
201404220820 METAR COR EGLL 220820Z 23008KT 3500 BR SCT005 BKN009 11/10
                        Q1006 BECMG BKN010=
201404220750 METAR COR EGLL 220750Z 22006KT 180V250 2500 -DZ BR FEW004
                        BKN006 11/10 Q1006 NOSIG=
201404220720 METAR COR EGLL 220720Z VRB03KT 2500 -DZ BKN004 11/10 Q1005
                        BECMG BKN006=
201404220650 METAR COR EGLL 220650Z 11005KT 2700 -DZ SCT004 BKN010 11/10
                        Q1005 TEMPO BKN006=
201404220620 METAR COR EGLL 220620Z 11004KT 070V160 2600 -DZ BKN005 BKN008
                        11/10 Q1005 TEMPO RADZ=
201404220550 METAR COR EGLL 220550Z VRB03KT 2300 -DZ BKN004 BKN007 10/09
                        Q1005 TEMPO RADZ=
201404220520 METAR COR EGLL 220520Z VRB02KT 2500 -DZ OVC004 10/09 Q1004
                        TEMPO RADZ=
201404220450 METAR COR EGLL 220450Z VRB02KT 2700 -DZ OVC004 10/09 Q1004
                        TEMPO RADZ=
201404220420 METAR COR EGLL 220420Z VRB02KT 3000 BR BKN004 BKN007 10/09
                        Q1004 TEMPO RADZ=
201404220350 METAR COR EGLL 220350Z VRB03KT 3500 BR BKN005 BKN008 10/09
                        Q1004 TEMPO RA BKN004=
201404220320 METAR COR EGLL 220320Z VRB03KT 3500 BR BKN004 BKN008 10/09
                        Q1004 NOSIG=
201404220250 METAR COR EGLL 220250Z 00000KT 2500 BR SCT004 SCT006 10/09
                        Q1004 BECMG BKN004=
201404220220 METAR COR EGLL 220220Z VRB02KT 3000 BR SCT003 SCT006 OVC010
                        10/09 Q1005 TEMPO BKN004=
201404220150 METAR COR EGLL 220150Z 04003KT 3000 -RA FEW004 BKN010 10/09
                        Q1005 REDZ TEMPO BKN005=
201404220120 METAR EGLL 220120Z AUTO 02003KT 2600 RA BKN006/// //////TCU
                        10/09 Q1005 RERA=
201404220050 METAR EGLL 220050Z AUTO 02004KT 340V060 2300 RA OVC005///
                        //////TCU 10/09 Q1005 REDZ=
201404220020 METAR EGLL 220020Z AUTO VRB05G16KT 2100 RA BKN007/// //////TCU
                        10/09 Q1005 REDZ=
201404212350 METAR COR EGLL 212350Z 01006KT 2500 -RADZ FEW005 BKN008 BKN010
                        10/09 Q1005 RERA TEMPO RADZ=
201404212320 METAR COR EGLL 212320Z 36004KT 320V020 3500 RA BKN006 OVC010
                        10/10 Q1005 NOSIG=
201404212250 METAR COR EGLL 212250Z 02004KT 330V060 3500 RA SCT004 OVC010
                        11/10 Q1005 REDZ TEMPO BKN006=
201404212220 METAR COR EGLL 212220Z VRB03KT 4000 -RADZ FEW008 SCT014 BKN020
                        11/10 Q1005 RERA BECMG BKN010=
201404212150 METAR COR EGLL 212150Z 32004KT 6000 RA BKN020 12/10 Q1005
                        BECMG BKN012=
201404212120 METAR COR EGLL 212120Z 34002KT 9000 RA SCT032CB 12/10 Q1005
                        RERA NOSIG=
201404212050 METAR COR EGLL 212050Z 12004KT 8000 RA SCT032CB 12/10 Q1005
                        NOSIG=
201404212020 METAR COR EGLL 212020Z 05006KT 5000 RA SCT025CB SCT030 13/11
                        Q1005 NOSIG=
201404211950 METAR COR EGLL 211950Z 04005KT 360V060 7000 RA SCT030CB BKN046
                        13/11 Q1005 NOSIG=
201404211920 METAR COR EGLL 211920Z 02004KT 340V050 5000 -RA BKN043CB
                        14/11 Q1005 TEMPO 4000 RA=
201404211850 METAR COR EGLL 211850Z 31004KT 9000 -RA FEW044 14/11 Q1004
                        TEMPO 4000 SHRA=
201404211820 METAR COR EGLL 211820Z 25005KT 210V290 9999 SCT035CB 14/10
                        Q1004 RESHRA RERA TEMPO 4000 +SHRA=
201404211750 METAR EGLL 211750Z VRB03KT 4500 +RA BKN014CB BKN044 14/11
                        Q1005 RESHRA=
201404211720 METAR COR EGLL 211720Z 29006KT 9999 6000N VCSH SCT050CB 15/10
                        Q1004 TEMPO SHRA=
201404211650 METAR COR EGLL 211650Z 30004KT 9999 FEW047 16/10 Q1004 TEMPO
                        SHRA=
201404211620 METAR COR EGLL 211620Z 32004KT 9999 FEW028 16/10 Q1004 NOSIG=
201404211550 METAR COR EGLL 211550Z 32007KT 9999 VCSH NSC 17/10 Q1004
                        NOSIG=
201404211520 METAR COR EGLL 211520Z 31008KT 9999 VCSH FEW042CB 17/11 Q1004
                        NOSIG=
201404211450 METAR COR EGLL 211450Z 31006KT 9999 FEW042CB 17/11 Q1004
                        NOSIG=
201404211420 METAR COR EGLL 211420Z 30006KT 9999 FEW042 17/11 Q1005 NOSIG=
201404211350 METAR COR EGLL 211350Z 35005KT 320V020 9999 FEW028CB 16/11
                        Q1005 RERA TEMPO 4800 +SHRA=
201404211320 METAR COR EGLL 211320Z 31006KT 9999 4000N RA VCTS SCT017CB
                        16/10 Q1005 BECMG NSW=
201404211250 METAR COR EGLL 211250Z 35004KT 320V030 9999 FEW024 SCT039CB
                        16/11 Q1005 NOSIG=
201404211220 METAR COR EGLL 211220Z 03004KT 280V080 9999 -SHRA BKN046CB
                        18/07 Q1005 TEMPO 5000 SHRA=
201404211150 METAR COR EGLL 211150Z 31005KT 240V010 CAVOK 19/07 Q1005
                        NOSIG=
201404211120 METAR COR EGLL 211120Z VRB03KT CAVOK 18/06 Q1005 NOSIG=
201404211050 METAR COR EGLL 211050Z VRB03KT CAVOK 18/07 Q1006 NOSIG=
201404211020 METAR COR EGLL 211020Z VRB03KT CAVOK 17/08 Q1006 NOSIG=
201404210950 METAR COR EGLL 210950Z VRB02KT CAVOK 15/08 Q1006 NOSIG=
201404210920 METAR COR EGLL 210920Z 00000KT 9000 NSC 14/08 Q1006 NOSIG=
201404210850 METAR COR EGLL 210850Z VRB02KT 9000 NSC 14/08 Q1006 NOSIG=
201404210820 METAR COR EGLL 210820Z VRB03KT 8000 NSC 13/08 Q1006 NOSIG=
201404210750 METAR COR EGLL 210750Z VRB03KT 6000 NSC 11/08 Q1006 NOSIG=
201404210720 METAR COR EGLL 210720Z VRB03KT 6000 NSC 09/07 Q1006 NOSIG=
201404210650 METAR COR EGLL 210650Z VRB02KT 4800 HZ NSC 08/07 Q1006 BECMG
                        9000=
201404210620 METAR COR EGLL 210620Z 36003KT 3900 HZ VCFG NSC 06/05 Q1006
                        BECMG 6000 NSW=
201404210550 METAR COR EGLL 210550Z 01003KT 3000 BR VCFG NSC 06/05 Q1006
                        BECMG 5000 HZ=
201404210520 METAR COR EGLL 210520Z VRB03KT 6000 R09L/1300 VCFG NSC 05/05
                        Q1006 TEMPO 4000 BR=
201404210450 METAR COR EGLL 210450Z 01002KT 5000 BR VCFG NSC 05/05 Q1006
                        TEMPO 2500 BR=
201404210420 METAR COR EGLL 210420Z 36004KT 3400 BR BCFG NSC 05/05 Q1006
                        NOSIG=
201404210350 METAR COR EGLL 210350Z 35003KT 2600 BR BCFG NSC 05/05 Q1006
                        TEMPO 1200=
201404210320 METAR COR EGLL 210320Z 00000KT 2100 R09R/1400 BR BCFG NSC
                        06/05 Q1006 TEMPO 0800 FG=
201404210250 METAR COR EGLL 210250Z 00000KT 2400 BR BCFG NSC 06/05 Q1006
                        BECMG 1200=
201404210220 METAR COR EGLL 210220Z 03002KT 2200 BR BCFG NSC 06/05 Q1006
                        BECMG 1200=
201404210150 METAR COR EGLL 210150Z 04003KT 2000 BR BCFG NSC 07/06 Q1006
                        TEMPO 1200=
201404210120 METAR COR EGLL 210120Z 00000KT 2000 BCFG NSC 07/06 Q1006
                        TEMPO 1200=
201404210050 METAR COR EGLL 210050Z 10003KT 3000 BR NSC 07/06 Q1006 TEMPO
                        1200 MIFG=
201404210020 METAR COR EGLL 210020Z 07004KT 4000 BR NSC 07/06 Q1006 NOSIG=
201404202350 METAR COR EGLL 202350Z 07005KT 5000 HZ NSC 07/06 Q1006 BECMG
                        3500 BR=
201404202320 METAR COR EGLL 202320Z 07005KT 5000 HZ NSC 07/06 Q1005 BECMG
                        3500 BR=
201404202250 METAR COR EGLL 202250Z 07005KT 5000 HZ NSC 09/07 Q1005 BECMG
                        4000 BR=
201404202220 METAR COR EGLL 202220Z 06007KT 4000 HZ NSC 08/07 Q1005 NOSIG=
201404202150 METAR COR EGLL 202150Z 06004KT 5000 HZ NSC 09/07 Q1005 BECMG
                        4500 BR=
201404202120 METAR COR EGLL 202120Z 06005KT 6000 NSC 10/08 Q1005 TEMPO
                        4800 HZ=
201404202050 METAR COR EGLL 202050Z 07005KT 6000 NSC 09/08 Q1005 TEMPO
                        4800 HZ=
201404202020 METAR COR EGLL 202020Z 07005KT 7000 NSC 10/08 Q1005 TEMPO
                        4500 BR=
201404201950 METAR COR EGLL 201950Z 07006KT 7000 NSC 10/08 Q1004 NOSIG=
201404201920 METAR COR EGLL 201920Z 06005KT 8000 NSC 09/07 Q1004 NOSIG=
201404201850 METAR COR EGLL 201850Z 08003KT 8000 NSC 10/08 Q1004 NOSIG=
201404201820 METAR COR EGLL 201820Z 10006KT 8000 NSC 11/08 Q1004 NOSIG=
201404201750 METAR COR EGLL 201750Z 12007KT 8000 NSC 11/08 Q1004 NOSIG=
201404201720 METAR COR EGLL 201720Z 12007KT 8000 NSC 11/09 Q1003 NOSIG=
201404201650 METAR COR EGLL 201650Z 12005KT 7000 FEW021 SCT049 11/09 Q1003
                        NOSIG=
201404201620 METAR COR EGLL 201620Z 12008KT 5000 -RA SCT028 BKN040 11/09
                        Q1003 RERA BECMG 9999 NSW=
201404201550 METAR COR EGLL 201550Z 09009KT 2300 -RA SCT007 BKN009 11/10
                        Q1003 RERA BECMG 7000 NSW BKN030=
201404201520 METAR COR EGLL 201520Z 07010KT 3100 RA BKN012 BKN036 12/10
                        Q1003 TEMPO +RA=
201404201450 METAR COR EGLL 201450Z 07013KT 4400 -RA SCT011 BKN015 12/10
                        Q1003 TEMPO +RA BKN008=
201404201420 METAR COR EGLL 201420Z 07011KT 4200 -RA SCT013 BKN016 13/11
                        Q1003 TEMPO +RA BKN008=
201404201350 METAR COR EGLL 201350Z 08010KT 4300 -RA BKN013 13/11 Q1003
                        RERA TEMPO RA=
201404201320 METAR COR EGLL 201320Z 07011KT 5000 -RA BKN012 13/11 Q1003
                        TEMPO 4000 RA=
201404201250 METAR COR EGLL 201250Z 06011KT 5000 -RA FEW012 BKN014 BKN017
                        13/11 Q1004 TEMPO 4000 RA=
201404201220 METAR COR EGLL 201220Z 06011G21KT 4800 -RA FEW013 BKN016
                        BKN018 13/11 Q1004 TEMPO RA BKN014=
201404201150 METAR COR EGLL 201150Z 06010KT 5000 -RA BKN016 BKN020 14/11
                        Q1004 TEMPO 4000 RA=
201404201120 METAR COR EGLL 201120Z 07008KT 040V110 4800 HZ SCT014 BKN016
                        BKN021CB 13/11 Q1005 BECMG 6000 NSW=
201404201050 METAR COR EGLL 201050Z 04008KT 3700 -RA FEW009 SCT014 FEW015CB
                        BKN017 12/11 Q1005 BECMG 6000 NSW=
201404201020 METAR EGLL 201020Z 04009KT 360V060 3600 -RA FEW009 SCT014
                        FEW014CB BKN015 12/10 Q1005=
201404200950 METAR COR EGLL 200950Z 04008KT 010V070 6000 -RA BKN014 BKN017CB
                        12/09 Q1006 BECMG FEW014 BKN017=
201404200920 METAR COR EGLL 200920Z 04008KT 010V080 6000 -RA SCT011 BKN015
                        11/09 Q1006 TEMPO 4000 +SHRA BKN009=
201404200850 METAR EGLL 200850Z 05009KT 010V070 6000 BKN010 BKN012 11/08
                        Q1007=
201404200820 METAR COR EGLL 200820Z 05009KT 360V080 6000 SCT009 BKN010
                        11/08 Q1007 TEMPO RA BKN009=
201404200750 METAR COR EGLL 200750Z 04008KT 010V070 6000 SCT009 BKN010
                        10/08 Q1007 TEMPO BKN009=
201404200720 METAR COR EGLL 200720Z 05008KT 6000 SCT009 BKN010 10/07 Q1008
                        TEMPO BKN009=
201404200650 METAR COR EGLL 200650Z 05008KT 6000 SCT009 BKN010 10/07 Q1008
                        TEMPO BKN009=
201404200620 METAR COR EGLL 200620Z 04008KT 360V070 6000 FEW008 SCT009
                        BKN010 09/07 Q1008 TEMPO BKN009=
201404200550 METAR COR EGLL 200550Z 03007KT 360V070 6000 SCT008 BKN009
                        09/07 Q1008 TEMPO BKN010=
201404200520 METAR COR EGLL 200520Z 03006KT 360V070 7000 BKN009 09/07
                        Q1009 TEMPO BKN010=
201404200450 METAR COR EGLL 200450Z 05007KT 010V080 6000 BKN009 09/07
                        Q1009 TEMPO BKN010=
201404200420 METAR COR EGLL 200420Z 04008KT 360V060 7000 BKN009 09/07
                        Q1009 NOSIG=
201404200350 METAR COR EGLL 200350Z 04006KT 360V070 7000 BKN009 09/06
                        Q1010 NOSIG=
201404200320 METAR COR EGLL 200320Z 05006KT 010V080 8000 BKN009 09/06
                        Q1011 NOSIG=
201404200250 METAR COR EGLL 200250Z 05004KT 010V100 8000 BKN009 08/06
                        Q1011 NOSIG=
201404200220 METAR COR EGLL 200220Z VRB04KT 8000 BKN009 08/06 Q1011 NOSIG=
201404200150 METAR COR EGLL 200150Z 02004KT 320V080 8000 BKN010 07/05
                        Q1012 TEMPO BKN009=
201404200120 METAR EGLL 200120Z AUTO 03005KT 350V070 9999 OVC010 07/05
                        Q1013=
201404200050 METAR EGLL 200050Z AUTO 02005KT 340V050 9999 BKN012 07/05
                        Q1013=
201404200020 METAR EGLL 200020Z AUTO 02006KT 9999 OVC014 07/05 Q1014=
201404192350 METAR COR EGLL 192350Z 04005KT 9999 FEW016 07/04 Q1014 NOSIG=
201404192320 METAR COR EGLL 192320Z 04006KT CAVOK 07/04 Q1015 NOSIG=
201404192250 METAR COR EGLL 192250Z 04005KT CAVOK 08/04 Q1015 NOSIG=
201404192220 METAR COR EGLL 192220Z 03006KT CAVOK 08/04 Q1015 NOSIG=
201404192150 METAR COR EGLL 192150Z 05006KT 020V080 CAVOK 08/04 Q1016
                        NOSIG=
201404192120 METAR COR EGLL 192120Z 06006KT 020V080 CAVOK 08/04 Q1016
                        NOSIG=
201404192050 METAR COR EGLL 192050Z 06008KT 9999 FEW025 09/04 Q1016 NOSIG=
201404192020 METAR COR EGLL 192020Z 08010KT 9999 FEW025 09/04 Q1016 NOSIG=
201404191950 METAR COR EGLL 191950Z 08010KT 9999 SCT027 10/04 Q1016 NOSIG=
201404191920 METAR COR EGLL 191920Z 08011KT 9999 SCT034 11/04 Q1016 NOSIG=
201404191850 METAR COR EGLL 191850Z 08009KT 9999 SCT043 11/03 Q1016 NOSIG=
201404191820 METAR COR EGLL 191820Z 07011KT 9999 FEW043 12/02 Q1016 NOSIG=
201404191750 METAR COR EGLL 191750Z 08012KT 9999 FEW046 12/02 Q1016 NOSIG=
201404191720 METAR COR EGLL 191720Z 08011KT 050V110 9999 FEW045 12/02
                        Q1016 NOSIG=
201404191650 METAR COR EGLL 191650Z 07010KT 9999 FEW045 13/03 Q1016 NOSIG=
201404191620 METAR COR EGLL 191620Z 07010KT 020V100 9999 SCT046 13/02
                        Q1016 NOSIG=
201404191550 METAR COR EGLL 191550Z 08011KT 040V100 9999 SCT044 14/03
                        Q1016 NOSIG=
201404191520 METAR COR EGLL 191520Z 07012KT 9999 BKN045 13/04 Q1016 NOSIG=
201404191450 METAR EGLL 191450Z 08010KT 9999 BKN043 13/03 Q1017=
201404191420 METAR COR EGLL 191420Z 07009KT 040V120 9999 SCT041 14/03
                        Q1017 NOSIG=
201404191350 METAR COR EGLL 191350Z 08011KT 9999 BKN039 12/04 Q1017 NOSIG=
201404191320 METAR COR EGLL 191320Z 08010KT 040V110 9999 BKN042 12/03
                        Q1017 NOSIG=
201404191250 METAR EGLL 191250Z 10011KT 9999 BKN042 12/03 Q1017=
201404191220 METAR COR EGLL 191220Z 07009KT 020V100 9999 BKN043 12/02
                        Q1018 NOSIG=
201404191150 METAR COR EGLL 191150Z 06009KT 9999 BKN043 12/02 Q1018 NOSIG=
201404191120 METAR COR EGLL 191120Z 08011KT 050V120 9999 BKN044 12/02
                        Q1018 NOSIG=
201404191050 METAR COR EGLL 191050Z 09010KT 050V110 9999 SCT040 11/02
                        Q1018 NOSIG=
201404191020 METAR EGLL 191020Z 07007KT 320V120 9999 SCT040 11/02 Q1019=
201404190950 METAR COR EGLL 190950Z 06010KT 020V110 9999 SCT036 10/01
                        Q1019 NOSIG=
201404190920 METAR COR EGLL 190920Z 06007KT 360V100 9999 BKN034 10/02
                        Q1019 NOSIG=
201404190850 METAR COR EGLL 190850Z 06009KT 020V090 9999 BKN033 09/02
                        Q1019 NOSIG=
201404190820 METAR COR EGLL 190820Z 06008KT 020V080 9999 SCT035 09/02
                        Q1019 NOSIG=
201404190750 METAR COR EGLL 190750Z 05008KT 010V070 9999 SCT031 08/01
                        Q1019 NOSIG=
201404190720 METAR COR EGLL 190720Z 05008KT 020V080 9999 FEW028 08/01
                        Q1019 NOSIG=
201404190650 METAR COR EGLL 190650Z 04008KT 360V090 9999 FEW036 07/01
                        Q1019 NOSIG=
201404190620 METAR COR EGLL 190620Z 04004KT 340V070 9999 SCT035 06/01
                        Q1019 NOSIG=
201404190550 METAR COR EGLL 190550Z 04004KT 350V070 9999 BKN034 06/01
                        Q1019 NOSIG=
201404190520 METAR COR EGLL 190520Z 01005KT 340V040 9999 BKN035 05/01
                        Q1019 NOSIG=
201404190450 METAR COR EGLL 190450Z 35004KT 9999 BKN034 05/01 Q1019 NOSIG=
201404190420 METAR COR EGLL 190420Z 35004KT 9999 BKN036 05/01 Q1019 NOSIG=
201404190350 METAR COR EGLL 190350Z VRB03KT 9999 SCT036 04/01 Q1019 NOSIG=
201404190320 METAR COR EGLL 190320Z 01003KT 9999 FEW033 04/01 Q1019 NOSIG=
201404190250 METAR COR EGLL 190250Z 01003KT 9999 FEW033 04/01 Q1019 NOSIG=
201404190220 METAR EGLL 190220Z 36004KT CAVOK 04/01 Q1020=
201404190150 METAR COR EGLL 190150Z VRB03KT CAVOK 05/01 Q1020 NOSIG=
201404190120 METAR EGLL 190120Z AUTO 03003KT 9999 FEW037 05/01 Q1020=
201404190050 METAR EGLL 190050Z AUTO 36003KT 9999 NCD 05/01 Q1020=
201404190020 METAR EGLL 190020Z AUTO VRB02KT 9999 NCD 06/01 Q1021=
201404182350 METAR COR EGLL 182350Z VRB03KT CAVOK 06/01 Q1021 NOSIG=
201404182320 METAR COR EGLL 182320Z 04004KT CAVOK 06/02 Q1021 NOSIG=
201404182250 METAR COR EGLL 182250Z 05003KT CAVOK 07/01 Q1021 NOSIG=
201404182220 METAR COR EGLL 182220Z 07004KT CAVOK 07/02 Q1021 NOSIG=
201404182150 METAR COR EGLL 182150Z 05005KT CAVOK 07/02 Q1021 NOSIG=
201404182120 METAR COR EGLL 182120Z 04005KT CAVOK 07/02 Q1021 NOSIG=
201404182050 METAR COR EGLL 182050Z 04005KT 010V080 CAVOK 08/02 Q1021
                        NOSIG=
201404182020 METAR COR EGLL 182020Z 05006KT 010V070 CAVOK 08/02 Q1021
                        NOSIG=
201404181950 METAR COR EGLL 181950Z 05009KT CAVOK 09/02 Q1021 NOSIG=
201404181920 METAR COR EGLL 181920Z 04006KT 010V080 CAVOK 09/02 Q1021
                        NOSIG=
201404181850 METAR COR EGLL 181850Z 05007KT 010V080 CAVOK 10/02 Q1021
                        NOSIG=
201404181820 METAR COR EGLL 181820Z 03008KT 360V060 CAVOK 10/02 Q1021
                        NOSIG=
201404181750 METAR COR EGLL 181750Z 05007KT 9999 FEW042 11/01 Q1020 NOSIG=
201404181720 METAR COR EGLL 181720Z 05008KT 010V080 9999 BKN049 11/01
                        Q1020 NOSIG=
201404181650 METAR COR EGLL 181650Z 02005KT 320V080 9999 SCT048 12/01
                        Q1020 NOSIG=
201404181620 METAR COR EGLL 181620Z 04006KT 360V080 9999 SCT047 12/01
                        Q1021 NOSIG=
201404181550 METAR COR EGLL 181550Z 05010KT 9999 OVC046 12/01 Q1021 NOSIG=
201404181520 METAR COR EGLL 181520Z 03005KT 340V100 9999 SCT047 12/01
                        Q1021 NOSIG=
201404181450 METAR COR EGLL 181450Z 02008KT 340V050 9999 SCT049 12/01
                        Q1021 NOSIG=
201404181420 METAR COR EGLL 181420Z 02007KT 330V070 9999 SCT044 BKN049
                        11/01 Q1021 NOSIG=
201404181350 METAR COR EGLL 181350Z 05008KT 010V080 9999 SCT044 12/01
                        Q1021 NOSIG=
201404181320 METAR COR EGLL 181320Z 01007KT 330V080 9999 SCT048 13/01
                        Q1022 NOSIG=
201404181250 METAR COR EGLL 181250Z 03009KT 350V060 9999 BKN049 11/00
                        Q1021 NOSIG=
201404181220 METAR COR EGLL 181220Z 04007KT 350V080 9999 BKN047 12/00
                        Q1021 NOSIG=
201404181150 METAR COR EGLL 181150Z 03008KT 340V070 9999 BKN044 11/00
                        Q1021 NOSIG=
201404181120 METAR COR EGLL 181120Z 03008KT 350V060 9999 SCT046 12/M00
                        Q1021 NOSIG=
201404181050 METAR COR EGLL 181050Z 02009KT 330V070 9999 SCT043 11/01
                        Q1021 NOSIG=
201404181020 METAR COR EGLL 181020Z 02008KT 330V070 9999 FEW043 11/01
                        Q1021 NOSIG=
201404180950 METAR COR EGLL 180950Z 36007KT 9999 FEW038 11/01 Q1021 NOSIG=
201404180920 METAR COR EGLL 180920Z 01009KT 340V050 9999 FEW036 10/01
                        Q1021 NOSIG=
201404180850 METAR COR EGLL 180850Z 04008KT 360V080 9999 FEW028 10/01
                        Q1021 NOSIG=
201404180820 METAR COR EGLL 180820Z 04007KT 010V070 9999 FEW040 09/03
                        Q1021 NOSIG=
201404180750 METAR COR EGLL 180750Z 04008KT 9999 FEW040 09/03 Q1021 NOSIG=
201404180720 METAR COR EGLL 180720Z 03007KT 9999 FEW040 08/03 Q1021 NOSIG=
201404180650 METAR COR EGLL 180650Z 03008KT 9999 FEW040 07/03 Q1020 NOSIG=
201404180620 METAR COR EGLL 180620Z 02006KT 340V060 CAVOK 07/03 Q1020
                        NOSIG=
201404180550 METAR COR EGLL 180550Z 01006KT CAVOK 06/03 Q1020 NOSIG=
201404180520 METAR COR EGLL 180520Z 01006KT 340V040 CAVOK 06/03 Q1020
                        NOSIG=
201404180450 METAR COR EGLL 180450Z 36006KT CAVOK 06/02 Q1019 NOSIG=
201404180420 METAR COR EGLL 180420Z 36006KT CAVOK 06/03 Q1019 NOSIG=
201404180350 METAR COR EGLL 180350Z 35005KT 320V030 CAVOK 06/03 Q1019
                        NOSIG=
201404180320 METAR COR EGLL 180320Z 34004KT 300V030 CAVOK 07/03 Q1019
                        NOSIG=
201404180250 METAR COR EGLL 180250Z 35005KT 320V020 9999 FEW043 07/03
                        Q1019 NOSIG=
201404180220 METAR COR EGLL 180220Z 34004KT 300V020 CAVOK 07/03 Q1019
                        NOSIG=
201404180150 METAR COR EGLL 180150Z 33005KT CAVOK 08/03 Q1019 NOSIG=
201404180120 METAR EGLL 180120Z AUTO 34005KT 300V010 9999 NCD 08/03 Q1019=
201404180050 METAR EGLL 180050Z AUTO 34006KT 300V040 9999 FEW025 09/04
                        Q1019=
201404180020 METAR EGLL 180020Z AUTO 34006KT 300V020 9999 FEW030 10/05
                        Q1019=
201404172350 METAR COR EGLL 172350Z 32004KT 290V350 9999 FEW024 10/05
                        Q1019 NOSIG=
201404172320 METAR COR EGLL 172320Z 31006KT CAVOK 11/05 Q1019 NOSIG=
201404172250 METAR COR EGLL 172250Z 30006KT CAVOK 11/05 Q1019 NOSIG=
201404172220 METAR COR EGLL 172220Z 30006KT CAVOK 11/05 Q1019 NOSIG=
201404172150 METAR COR EGLL 172150Z 31006KT CAVOK 12/05 Q1019 NOSIG=
201404172120 METAR COR EGLL 172120Z 31006KT CAVOK 12/05 Q1019 NOSIG=
201404172050 METAR EGLL 172050Z 32005KT 290V360 CAVOK 13/06 Q1019=
201404172020 METAR EGLL 172020Z 35007KT 310V030 9999 FEW033 SCT045 13/06
                        Q1018=
201404171950 METAR COR EGLL 171950Z 33007KT 9999 SCT031 SCT035 13/06 Q1018
                        NOSIG=
201404171920 METAR COR EGLL 171920Z 32008KT 9999 SCT035 SCT038 14/06 Q1018
                        NOSIG=
201404171850 METAR COR EGLL 171850Z 31007KT 9999 SCT035 SCT042 14/06 Q1018
                        NOSIG=
201404171820 METAR COR EGLL 171820Z 31008KT 9999 SCT037 SCT040 14/06 Q1018
                        NOSIG=
201404171750 METAR COR EGLL 171750Z 32010KT 9999 SCT037 15/07 Q1017 NOSIG=
201404171720 METAR COR EGLL 171720Z 32009KT 9999 SCT038 15/07 Q1017 NOSIG=
201404171650 METAR COR EGLL 171650Z 31009KT 9999 FEW035 15/07 Q1018 NOSIG=
201404171620 METAR COR EGLL 171620Z 32008KT 9999 SCT035 15/07 Q1017 NOSIG=
201404171550 METAR COR EGLL 171550Z 30008KT 9999 FEW040 15/07 Q1017 NOSIG=
201404171520 METAR COR EGLL 171520Z 30008KT 9999 FEW040 16/07 Q1018 NOSIG=
201404171450 METAR COR EGLL 171450Z 30009KT 9999 SCT040 16/07 Q1018 NOSIG=
201404171420 METAR COR EGLL 171420Z 28011KT 260V330 CAVOK 16/06 Q1018
                        NOSIG=
201404171350 METAR COR EGLL 171350Z 29010KT CAVOK 16/06 Q1018 NOSIG=
201404171320 METAR COR EGLL 171320Z 31008KT CAVOK 16/05 Q1018 NOSIG=
201404171250 METAR COR EGLL 171250Z 29011KT CAVOK 16/05 Q1018 NOSIG=
201404171220 METAR COR EGLL 171220Z 27011KT 250V310 CAVOK 16/04 Q1018
                        NOSIG=
201404171150 METAR COR EGLL 171150Z 27009KT CAVOK 17/04 Q1019 NOSIG=
201404171120 METAR COR EGLL 171120Z 25010KT CAVOK 17/04 Q1019 NOSIG=
201404171050 METAR COR EGLL 171050Z 28010KT 230V310 CAVOK 16/04 Q1020
                        NOSIG=
201404171020 METAR COR EGLL 171020Z 27011KT 240V310 CAVOK 15/05 Q1020
                        NOSIG=
201404170950 METAR COR EGLL 170950Z 27011KT CAVOK 14/05 Q1021 NOSIG=
201404170920 METAR COR EGLL 170920Z 27010KT CAVOK 14/05 Q1021 NOSIG=
201404170850 METAR COR EGLL 170850Z 26008KT CAVOK 13/06 Q1021 NOSIG=
201404170820 METAR COR EGLL 170820Z 26007KT 220V310 CAVOK 12/06 Q1021
                        NOSIG=
201404170750 METAR COR EGLL 170750Z 25006KT 210V280 CAVOK 11/06 Q1021
                        NOSIG=
201404170720 METAR COR EGLL 170720Z 22006KT 180V260 CAVOK 09/05 Q1021
                        NOSIG=
201404170650 METAR COR EGLL 170650Z 25006KT 210V270 CAVOK 08/04 Q1021
                        NOSIG=
201404170620 METAR COR EGLL 170620Z 29004KT CAVOK 07/04 Q1022 NOSIG=
201404170550 METAR COR EGLL 170550Z 26006KT CAVOK 07/04 Q1021 NOSIG=
201404170520 METAR COR EGLL 170520Z 27005KT 220V290 CAVOK 06/03 Q1021
                        NOSIG=
201404170450 METAR COR EGLL 170450Z 27004KT CAVOK 07/03 Q1021 NOSIG=
201404170420 METAR COR EGLL 170420Z 00000KT CAVOK 06/03 Q1021 NOSIG=
201404170350 METAR COR EGLL 170350Z 19003KT CAVOK 06/03 Q1021 NOSIG=
201404170320 METAR COR EGLL 170320Z VRB03KT CAVOK 07/02 Q1022 NOSIG=
201404170250 METAR COR EGLL 170250Z 21004KT CAVOK 07/02 Q1022 NOSIG=
201404170220 METAR COR EGLL 170220Z 22004KT 200V270 CAVOK 06/02 Q1023
                        NOSIG=
201404170150 METAR COR EGLL 170150Z 28004KT CAVOK 06/02 Q1023 NOSIG=
201404170120 METAR EGLL 170120Z AUTO VRB03KT 9999 NCD 07/02 Q1023=
201404170050 METAR EGLL 170050Z AUTO 15004KT 9999 NCD 07/02 Q1023=
201404170020 METAR EGLL 170020Z AUTO 17004KT 9999 NCD 07/02 Q1024=
201404162350 METAR COR EGLL 162350Z 15003KT CAVOK 08/01 Q1024 NOSIG=
201404162320 METAR COR EGLL 162320Z 18002KT CAVOK 08/01 Q1024 NOSIG=
201404162250 METAR COR EGLL 162250Z 16004KT CAVOK 09/01 Q1024 NOSIG=
201404162220 METAR COR EGLL 162220Z 18003KT CAVOK 09/01 Q1024 NOSIG=
201404162150 METAR COR EGLL 162150Z 16005KT CAVOK 09/01 Q1024 NOSIG=
201404162120 METAR COR EGLL 162120Z 16006KT 130V190 CAVOK 10/M00 Q1025
                        NOSIG=
201404162050 METAR COR EGLL 162050Z 16006KT 120V190 CAVOK 10/M02 Q1025
                        NOSIG=
201404162020 METAR COR EGLL 162020Z 15006KT 110V190 CAVOK 11/M03 Q1025
                        NOSIG=
201404161950 METAR COR EGLL 161950Z 15007KT 120V180 CAVOK 12/M05 Q1025
                        NOSIG=
201404161920 METAR COR EGLL 161920Z 16008KT 130V190 CAVOK 13/M06 Q1025
                        NOSIG=
201404161850 METAR COR EGLL 161850Z 18009KT 160V240 CAVOK 13/M06 Q1025
                        NOSIG=
201404161820 METAR COR EGLL 161820Z 20009KT 160V240 CAVOK 14/M04 Q1025
                        NOSIG=
201404161750 METAR COR EGLL 161750Z 21009KT CAVOK 15/M04 Q1025 NOSIG=
201404161720 METAR COR EGLL 161720Z 21008KT 170V240 CAVOK 16/M01 Q1025
                        NOSIG=
201404161650 METAR COR EGLL 161650Z 18006KT 140V240 CAVOK 16/M00 Q1025
                        NOSIG=
201404161620 METAR COR EGLL 161620Z 22007KT 140V260 CAVOK 17/00 Q1025
                        NOSIG=
201404161550 METAR COR EGLL 161550Z 20008KT 170V230 CAVOK 17/01 Q1025
                        NOSIG=
201404161520 METAR COR EGLL 161520Z 21008KT CAVOK 17/03 Q1025 NOSIG=
201404161450 METAR COR EGLL 161450Z 17007KT 130V210 CAVOK 17/03 Q1026
                        NOSIG=
201404161420 METAR COR EGLL 161420Z VRB06KT CAVOK 17/04 Q1026 NOSIG=
201404161350 METAR COR EGLL 161350Z 18007KT 140V210 CAVOK 16/04 Q1026
                        NOSIG=
201404161320 METAR COR EGLL 161320Z 17007KT 130V200 CAVOK 16/04 Q1027
                        NOSIG=
201404161250 METAR COR EGLL 161250Z 15006KT 070V200 CAVOK 16/04 Q1027
                        NOSIG=
201404161220 METAR COR EGLL 161220Z 12007KT 080V150 CAVOK 15/04 Q1027
                        NOSIG=
201404161150 METAR COR EGLL 161150Z 15007KT 120V190 CAVOK 14/04 Q1028
                        NOSIG=
201404161120 METAR COR EGLL 161120Z 18006KT 100V220 CAVOK 14/04 Q1028
                        NOSIG=
201404161050 METAR COR EGLL 161050Z 13007KT 080V180 CAVOK 13/04 Q1028
                        NOSIG=
201404161020 METAR COR EGLL 161020Z 15007KT 130V210 CAVOK 12/04 Q1029
                        NOSIG=
201404160950 METAR COR EGLL 160950Z 14008KT 110V190 CAVOK 11/03 Q1029
                        NOSIG=
201404160920 METAR COR EGLL 160920Z 15009KT CAVOK 11/04 Q1029 NOSIG=
201404160850 METAR COR EGLL 160850Z 14009KT 100V190 9999 FEW021 10/04
                        Q1029 NOSIG=
201404160820 METAR COR EGLL 160820Z 15008KT 9999 FEW022 09/04 Q1029 NOSIG=
201404160750 METAR COR EGLL 160750Z 13007KT 9999 FEW020 09/04 Q1030 NOSIG=
201404160720 METAR COR EGLL 160720Z 12006KT CAVOK 08/04 Q1029 NOSIG=
201404160650 METAR COR EGLL 160650Z 11005KT 080V140 CAVOK 07/03 Q1029
                        NOSIG=
201404160620 METAR COR EGLL 160620Z 09005KT CAVOK 05/03 Q1029 NOSIG=
201404160550 METAR COR EGLL 160550Z 08004KT CAVOK 04/01 Q1029 NOSIG=
201404160520 METAR COR EGLL 160520Z 08004KT 9999 FEW020 04/02 Q1029 NOSIG=
201404160450 METAR COR EGLL 160450Z 08003KT 9999 FEW020 04/01 Q1029 NOSIG=
201404160420 METAR COR EGLL 160420Z 07004KT 9999 FEW020 04/01 Q1029 NOSIG=
201404160350 METAR COR EGLL 160350Z 08003KT CAVOK 04/01 Q1029 NOSIG=
201404160320 METAR COR EGLL 160320Z 08003KT CAVOK 04/01 Q1029 NOSIG=
201404160250 METAR EGLL 160250Z AUTO 09004KT 9999 NCD 04/01 Q1029=
201404160220 METAR COR EGLL 160220Z 09004KT CAVOK 04/01 Q1029 NOSIG=
201404160150 METAR COR EGLL 160150Z 08003KT CAVOK 04/01 Q1029 NOSIG=
201404160120 METAR EGLL 160120Z AUTO 08002KT 9999 NCD 05/01 Q1030=
201404160050 METAR EGLL 160050Z AUTO 09004KT 9999 NCD 05/02 Q1030=
201404160020 METAR EGLL 160020Z AUTO 11004KT 9999 NCD 05/02 Q1030=
201404152350 METAR COR EGLL 152350Z 11005KT CAVOK 05/02 Q1030 NOSIG=
201404152320 METAR COR EGLL 152320Z 10005KT CAVOK 05/01 Q1030 NOSIG=
201404152250 METAR COR EGLL 152250Z 11006KT CAVOK 05/02 Q1030 NOSIG=
201404152220 METAR COR EGLL 152220Z 11007KT CAVOK 05/02 Q1030 NOSIG=
201404152150 METAR COR EGLL 152150Z 11008KT CAVOK 06/02 Q1030 NOSIG=
201404152120 METAR COR EGLL 152120Z 10009KT CAVOK 07/02 Q1030 NOSIG=
201404152050 METAR COR EGLL 152050Z 10011KT CAVOK 07/02 Q1030 NOSIG=
201404152020 METAR COR EGLL 152020Z 11010KT CAVOK 08/02 Q1030 NOSIG=
201404151950 METAR COR EGLL 151950Z 11009KT CAVOK 09/03 Q1029 NOSIG=
201404151920 METAR COR EGLL 151920Z 09010KT CAVOK 09/03 Q1029 NOSIG=
201404151850 METAR COR EGLL 151850Z 10009KT CAVOK 10/03 Q1029 NOSIG=
201404151820 METAR COR EGLL 151820Z 10011KT CAVOK 11/03 Q1029 NOSIG=
201404151750 METAR COR EGLL 151750Z 10011KT CAVOK 12/03 Q1029 NOSIG=
201404151720 METAR COR EGLL 151720Z 09008KT CAVOK 13/03 Q1029 NOSIG=
201404151650 METAR COR EGLL 151650Z 06006KT 020V100 CAVOK 14/02 Q1029
                        NOSIG=
201404151620 METAR COR EGLL 151620Z 08006KT 040V120 CAVOK 14/00 Q1029
                        NOSIG=
201404151550 METAR COR EGLL 151550Z 08007KT 030V110 CAVOK 14/00 Q1029
                        NOSIG=
201404151520 METAR COR EGLL 151520Z 08008KT 020V130 CAVOK 14/01 Q1029
                        NOSIG=
201404151450 METAR EGLL 151450Z 09009KT 050V130 CAVOK 14/01 Q1030=
201404151420 METAR COR EGLL 151420Z 09010KT 060V120 CAVOK 14/01 Q1030
                        NOSIG=
201404151350 METAR COR EGLL 151350Z 08009KT CAVOK 14/01 Q1030 NOSIG=
201404151320 METAR COR EGLL 151320Z 07007KT 350V140 9999 FEW048 14/01
                        Q1030 NOSIG=
201404151250 METAR COR EGLL 151250Z 10008KT 020V140 CAVOK 14/01 Q1030
                        NOSIG=
201404151220 METAR COR EGLL 151220Z 08005KT 360V170 9999 FEW048 13/01
                        Q1031 NOSIG=
201404151150 METAR COR EGLL 151150Z 07004KT 360V120 9999 FEW044 13/02
                        Q1031 NOSIG=
201404151120 METAR COR EGLL 151120Z 04005KT 350V110 9999 FEW040 12/02
                        Q1031 NOSIG=
201404151050 METAR COR EGLL 151050Z 08006KT 340V120 9999 FEW032 12/03
                        Q1031 NOSIG=
201404151020 METAR COR EGLL 151020Z 09006KT 040V130 9999 FEW032 11/02
                        Q1031 NOSIG=
201404150950 METAR COR EGLL 150950Z 08007KT 040V120 9999 FEW032 11/03
                        Q1031 NOSIG=
201404150920 METAR COR EGLL 150920Z 07007KT 010V100 9999 FEW032 10/02
                        Q1031 NOSIG=
201404150850 METAR COR EGLL 150850Z 06008KT CAVOK 10/02 Q1031 NOSIG=
201404150820 METAR COR EGLL 150820Z 06009KT CAVOK 09/03 Q1031 NOSIG=
201404150750 METAR COR EGLL 150750Z 05006KT CAVOK 08/03 Q1030 NOSIG=
201404150720 METAR COR EGLL 150720Z 06006KT CAVOK 08/03 Q1030 NOSIG=
201404150650 METAR COR EGLL 150650Z 04004KT 010V080 CAVOK 07/02 Q1030
                        NOSIG=
201404150620 METAR COR EGLL 150620Z 04005KT CAVOK 06/02 Q1030 NOSIG=
201404150550 METAR COR EGLL 150550Z 04003KT CAVOK 05/01 Q1030 NOSIG=
201404150520 METAR COR EGLL 150520Z 04004KT CAVOK 04/01 Q1030 NOSIG=
201404150450 METAR COR EGLL 150450Z 01003KT CAVOK 04/01 Q1030 NOSIG=
201404150420 METAR COR EGLL 150420Z 36004KT CAVOK 04/01 Q1030 NOSIG=
201404150350 METAR COR EGLL 150350Z 36004KT CAVOK 05/01 Q1029 NOSIG=
201404150320 METAR COR EGLL 150320Z 01003KT CAVOK 05/01 Q1029 NOSIG=
201404150250 METAR COR EGLL 150250Z 36004KT CAVOK 05/01 Q1029 NOSIG=
201404150220 METAR COR EGLL 150220Z 01003KT CAVOK 06/01 Q1029 NOSIG=
201404150150 METAR COR EGLL 150150Z 36003KT CAVOK 06/01 Q1029 NOSIG=
201404150120 METAR EGLL 150120Z AUTO 01002KT 9999 NCD 07/02 Q1029=
201404150050 METAR EGLL 150050Z AUTO 04004KT 9999 NCD 07/02 Q1029=
201404150020 METAR EGLL 150020Z AUTO 03003KT 9999 NCD 07/02 Q1029=
201404142350 METAR COR EGLL 142350Z 04004KT CAVOK 07/02 Q1029 NOSIG=
201404142320 METAR COR EGLL 142320Z 06004KT CAVOK 08/04 Q1028 NOSIG=
201404142250 METAR COR EGLL 142250Z 07005KT 9999 FEW023 08/04 Q1028 NOSIG=
201404142220 METAR COR EGLL 142220Z 07008KT 9999 FEW048 09/05 Q1028 NOSIG=
201404142150 METAR COR EGLL 142150Z 07007KT CAVOK 10/05 Q1028 NOSIG=
201404142120 METAR COR EGLL 142120Z 06006KT CAVOK 11/02 Q1028 NOSIG=
201404142050 METAR COR EGLL 142050Z 05005KT CAVOK 11/02 Q1027 NOSIG=
201404142020 METAR COR EGLL 142020Z 05006KT CAVOK 12/02 Q1027 NOSIG=
201404141950 METAR COR EGLL 141950Z 05006KT CAVOK 12/01 Q1026 NOSIG=
201404141920 METAR COR EGLL 141920Z 03004KT 340V060 CAVOK 13/01 Q1026
                        NOSIG=
201404141850 METAR COR EGLL 141850Z 03005KT 350V060 CAVOK 14/01 Q1026
                        NOSIG=
201404141820 METAR COR EGLL 141820Z 04005KT 360V060 CAVOK 14/01 Q1026
                        NOSIG=
201404141750 METAR COR EGLL 141750Z 35006KT 290V020 CAVOK 15/01 Q1025
                        NOSIG=
201404141720 METAR COR EGLL 141720Z 35006KT 310V020 CAVOK 15/00 Q1025
                        NOSIG=
201404141650 METAR COR EGLL 141650Z 33007KT 250V020 CAVOK 15/00 Q1025
                        NOSIG=
201404141620 METAR COR EGLL 141620Z 33006KT 300V030 CAVOK 15/00 Q1025
                        NOSIG=
201404141550 METAR COR EGLL 141550Z 36007KT 330V050 CAVOK 15/01 Q1025
                        NOSIG=
201404141520 METAR COR EGLL 141520Z 36008KT 320V040 CAVOK 16/01 Q1025
                        NOSIG=
201404141450 METAR COR EGLL 141450Z 32008KT 280V010 CAVOK 16/02 Q1025
                        NOSIG=
201404141420 METAR COR EGLL 141420Z 35008KT 310V030 CAVOK 15/01 Q1025
                        NOSIG=
201404141350 METAR COR EGLL 141350Z 32010KT CAVOK 15/02 Q1025 NOSIG=
201404141320 METAR COR EGLL 141320Z 36008KT 330V050 9999 FEW048 15/01
                        Q1025 NOSIG=
201404141250 METAR COR EGLL 141250Z 34007KT 280V030 9999 FEW047 15/03
                        Q1025 NOSIG=
201404141220 METAR COR EGLL 141220Z 35007KT 300V050 9999 FEW047 15/03
                        Q1025 NOSIG=
201404141150 METAR COR EGLL 141150Z 31009KT 280V350 9999 FEW047 14/03
                        Q1025 NOSIG=
201404141120 METAR COR EGLL 141120Z 34007KT 290V040 9999 FEW042 14/03
                        Q1025 NOSIG=
201404141050 METAR COR EGLL 141050Z 33009KT 290V010 9999 FEW040 13/03
                        Q1025 NOSIG=
201404141020 METAR COR EGLL 141020Z 33007KT 290V010 9999 FEW038 13/04
                        Q1025 NOSIG=
201404140950 METAR COR EGLL 140950Z 34009KT 290V020 9999 FEW037 12/03
                        Q1025 NOSIG=
201404140920 METAR COR EGLL 140920Z 33008KT 300V020 9999 FEW032 12/03
                        Q1025 NOSIG=
201404140850 METAR COR EGLL 140850Z 33011KT 290V360 9999 FEW032 11/03
                        Q1025 NOSIG=
201404140820 METAR COR EGLL 140820Z 32009KT 290V020 9999 FEW020 11/03
                        Q1024 NOSIG=
201404140750 METAR COR EGLL 140750Z 32009KT 290V350 9999 FEW020 10/04
                        Q1024 NOSIG=
201404140720 METAR COR EGLL 140720Z 32007KT CAVOK 09/04 Q1024 NOSIG=
201404140650 METAR COR EGLL 140650Z 30007KT CAVOK 08/04 Q1024 NOSIG=
201404140620 METAR COR EGLL 140620Z 31006KT CAVOK 08/05 Q1024 NOSIG=
201404140550 METAR COR EGLL 140550Z 30005KT CAVOK 08/05 Q1023 NOSIG=
201404140520 METAR COR EGLL 140520Z 29006KT CAVOK 07/05 Q1023 NOSIG=
201404140450 METAR COR EGLL 140450Z 29007KT CAVOK 07/04 Q1023 NOSIG=
201404140420 METAR COR EGLL 140420Z 30006KT 9999 FEW041 07/04 Q1022 NOSIG=
201404140350 METAR COR EGLL 140350Z 29005KT 9999 FEW047 06/04 Q1022 NOSIG=
201404140320 METAR COR EGLL 140320Z 28007KT 9999 FEW047 06/04 Q1022 NOSIG=
201404140250 METAR COR EGLL 140250Z 27006KT 9999 FEW047 06/04 Q1022 NOSIG=
201404140220 METAR COR EGLL 140220Z 27008KT CAVOK 07/04 Q1022 NOSIG=
201404140150 METAR COR EGLL 140150Z 27009KT 9999 FEW044 07/05 Q1022 NOSIG=
201404140120 METAR EGLL 140120Z AUTO 27009KT 9999 NCD 07/05 Q1022=
201404140050 METAR EGLL 140050Z AUTO 28009KT 9999 NCD 07/05 Q1022=
201404140020 METAR EGLL 140020Z AUTO 27007KT 9999 NCD 08/05 Q1022=
201404132350 METAR COR EGLL 132350Z 28007KT CAVOK 08/05 Q1022 NOSIG=
201404132320 METAR COR EGLL 132320Z 28010KT CAVOK 09/05 Q1022 NOSIG=
201404132250 METAR COR EGLL 132250Z 29007KT CAVOK 09/06 Q1022 NOSIG=
201404132220 METAR COR EGLL 132220Z 29008KT CAVOK 10/06 Q1022 NOSIG=
201404132150 METAR COR EGLL 132150Z 28012KT CAVOK 10/06 Q1021 NOSIG=
201404132120 METAR COR EGLL 132120Z 28011KT CAVOK 11/06 Q1021 NOSIG=
201404132050 METAR COR EGLL 132050Z 27014KT CAVOK 12/06 Q1021 NOSIG=
201404132020 METAR COR EGLL 132020Z 27014KT CAVOK 12/06 Q1021 NOSIG=
201404131950 METAR COR EGLL 131950Z 26013KT CAVOK 13/06 Q1021 NOSIG=
201404131920 METAR COR EGLL 131920Z 27012KT CAVOK 14/06 Q1020 NOSIG=
201404131850 METAR COR EGLL 131850Z 27011KT CAVOK 14/05 Q1020 NOSIG=
201404131820 METAR COR EGLL 131820Z 27012KT CAVOK 14/05 Q1020 NOSIG=
201404131750 METAR COR EGLL 131750Z 27012KT CAVOK 15/05 Q1020 NOSIG=
201404131720 METAR COR EGLL 131720Z 27013KT 9999 FEW040 15/05 Q1021 NOSIG=
201404131650 METAR COR EGLL 131650Z 28011KT 9999 FEW044 15/05 Q1021 NOSIG=
201404131620 METAR COR EGLL 131620Z 26012KT 9999 FEW044 16/05 Q1021 NOSIG=
201404131550 METAR COR EGLL 131550Z 29009KT 9999 FEW044 16/05 Q1021 NOSIG=
201404131520 METAR COR EGLL 131520Z 26012KT 9999 FEW042 16/05 Q1021 NOSIG=
201404131450 METAR COR EGLL 131450Z 27011KT 9999 FEW042 15/05 Q1021 NOSIG=
201404131420 METAR COR EGLL 131420Z 27010KT 240V320 9999 FEW042 15/05
                        Q1022 NOSIG=
201404131350 METAR COR EGLL 131350Z 26010KT 9999 FEW043 15/05 Q1022 NOSIG=
201404131320 METAR COR EGLL 131320Z 27011KT 9999 FEW041 15/04 Q1022 NOSIG=
201404131250 METAR COR EGLL 131250Z 26010KT 220V300 9999 FEW043 14/04
                        Q1022 NOSIG=
201404131220 METAR COR EGLL 131220Z 27009KT 250V310 9999 FEW043 14/04
                        Q1022 NOSIG=
201404131150 METAR COR EGLL 131150Z 29008KT 260V360 9999 FEW043 14/03
                        Q1023 NOSIG=
201404131120 METAR COR EGLL 131120Z 31008KT 250V350 9999 FEW040 13/03
                        Q1023 NOSIG=
201404131050 METAR COR EGLL 131050Z 30007KT 220V350 9999 FEW040 13/03
                        Q1023 NOSIG=
201404131020 METAR COR EGLL 131020Z 32005KT 260V030 9999 FEW038 12/03
                        Q1023 NOSIG=
201404130950 METAR COR EGLL 130950Z 31005KT 260V030 9999 FEW036 12/03
                        Q1023 NOSIG=
201404130920 METAR COR EGLL 130920Z 30008KT 260V360 9999 FEW036 11/03
                        Q1023 NOSIG=
201404130850 METAR COR EGLL 130850Z 31008KT 270V340 9999 FEW034 11/03
                        Q1023 NOSIG=
201404130820 METAR COR EGLL 130820Z 31008KT 9999 FEW030 11/02 Q1023 NOSIG=
201404130750 METAR COR EGLL 130750Z 32006KT 290V360 9999 FEW030 10/02
                        Q1023 NOSIG=
201404130720 METAR COR EGLL 130720Z 32005KT 290V360 9999 FEW040 10/03
                        Q1023 NOSIG=
201404130650 METAR COR EGLL 130650Z 31004KT 9999 FEW040 09/03 Q1023 NOSIG=
201404130620 METAR COR EGLL 130620Z 31003KT 9999 FEW035 09/04 Q1023 NOSIG=
201404130550 METAR COR EGLL 130550Z 31004KT 9999 FEW035 09/05 Q1022 NOSIG=
201404130520 METAR COR EGLL 130520Z 31004KT 9999 FEW036 09/05 Q1022 NOSIG=
201404130450 METAR COR EGLL 130450Z 29004KT 9000 FEW038 SCT048 09/07 Q1021
                        TEMPO 4500 BR=
201404130420 METAR COR EGLL 130420Z 30004KT 9000 FEW037 BKN042 08/07 Q1021
                        NOSIG=
201404130350 METAR COR EGLL 130350Z 29005KT 9000 SCT013 BKN043 09/08 Q1020
                        TEMPO BKN013=
201404130320 METAR COR EGLL 130320Z 27007KT 9000 FEW010 SCT013 09/08 Q1020
                        TEMPO BKN013=
201404130250 METAR COR EGLL 130250Z 26007KT 9999 FEW011 BKN013 10/08 Q1020
                        TEMPO SCT012=
201404130220 METAR COR EGLL 130220Z 27006KT 9999 BKN012 10/08 Q1020 TEMPO
                        SCT012=
201404130150 METAR COR EGLL 130150Z 26008KT 9999 SCT012 09/08 Q1020 TEMPO
                        BKN014=
201404130120 METAR COR EGLL 130120Z 26007KT 9999 BKN014 10/08 Q1020 TEMPO
                        SCT014=
201404130020 METAR COR EGLL 130020Z 25008KT 9999 FEW014 09/08 Q1020 TEMPO
                        BKN014=
201404122350 METAR COR EGLL 122350Z AUTO 26009KT 9999 SCT013 09/07 Q1020=
201404122320 METAR COR EGLL 122320Z 27007KT CAVOK 09/07 Q1020 NOSIG=
201404122250 METAR COR EGLL 122250Z 27009KT CAVOK 10/07 Q1020 NOSIG=
201404122220 METAR COR EGLL 122220Z 25009KT CAVOK 10/07 Q1019 NOSIG=
201404122150 METAR COR EGLL 122150Z 27009KT CAVOK 10/07 Q1019 NOSIG=
201404122120 METAR COR EGLL 122120Z 27011KT CAVOK 10/07 Q1019 NOSIG=
201404122050 METAR COR EGLL 122050Z 27011KT CAVOK 10/06 Q1019 NOSIG=
201404122020 METAR COR EGLL 122020Z 27009KT 9999 FEW039 11/06 Q1019 NOSIG=
201404121950 METAR COR EGLL 121950Z 26008KT 9999 FEW041 11/06 Q1019 NOSIG=
201404121920 METAR COR EGLL 121920Z 27011KT 9999 FEW037 11/06 Q1019 NOSIG=
201404121850 METAR COR EGLL 121850Z 26009KT 9999 FEW034 11/06 Q1018 NOSIG=
201404121820 METAR COR EGLL 121820Z 27013KT 9999 FEW031 11/06 Q1018 NOSIG=
201404121750 METAR COR EGLL 121750Z 27015KT 9999 FEW030 12/06 Q1018 NOSIG=
201404121720 METAR COR EGLL 121720Z 27014KT 9999 FEW032 12/05 Q1018 NOSIG=
201404121650 METAR COR EGLL 121650Z 27015KT 9999 FEW033 13/05 Q1018 NOSIG=
201404121620 METAR EGLL 121620Z 29014KT 9999 FEW033 13/05 Q1018=
201404121550 METAR COR EGLL 121550Z 28012KT 9999 FEW036 13/05 Q1017 NOSIG=
201404121520 METAR COR EGLL 121520Z 27014KT 9999 FEW037 13/05 Q1017 NOSIG=
201404121450 METAR COR EGLL 121450Z 26015KT 9999 FEW037 14/05 Q1018 NOSIG=
201404121420 METAR COR EGLL 121420Z 27015KT 9999 FEW038 14/05 Q1018 NOSIG=
201404121350 METAR COR EGLL 121350Z 26014KT 9999 FEW035 13/05 Q1018 NOSIG=
201404121320 METAR COR EGLL 121320Z 28015KT 9999 FEW036 14/05 Q1018 NOSIG=
201404121250 METAR COR EGLL 121250Z 25015KT 9999 FEW033 14/05 Q1018 NOSIG=
201404121220 METAR COR EGLL 121220Z 26015KT 9999 FEW033 13/05 Q1018 NOSIG=
201404121150 METAR COR EGLL 121150Z 25013KT 9999 FEW033 14/05 Q1018 NOSIG=
201404121120 METAR COR EGLL 121120Z 28010KT 9999 FEW033 14/05 Q1019 NOSIG=
201404121050 METAR COR EGLL 121050Z 27010KT 9999 FEW046 12/06 Q1019 NOSIG=
201404121020 METAR COR EGLL 121020Z 26010KT 230V290 CAVOK 12/05 Q1019
                        NOSIG=
201404120950 METAR COR EGLL 120950Z 25010KT CAVOK 12/04 Q1019 NOSIG=
201404120920 METAR COR EGLL 120920Z 27010KT CAVOK 11/04 Q1020 NOSIG=
201404120850 METAR COR EGLL 120850Z 27010KT CAVOK 11/05 Q1020 NOSIG=
201404120820 METAR COR EGLL 120820Z 28009KT CAVOK 11/05 Q1020 NOSIG=
201404120750 METAR COR EGLL 120750Z 27009KT CAVOK 11/05 Q1020 NOSIG=
201404120720 METAR COR EGLL 120720Z 24005KT 200V280 CAVOK 10/05 Q1019
                        NOSIG=
201404120650 METAR COR EGLL 120650Z 20006KT CAVOK 08/05 Q1019 NOSIG=
201404120620 METAR COR EGLL 120620Z 20005KT 160V230 CAVOK 07/04 Q1019
                        NOSIG=
201404120550 METAR COR EGLL 120550Z 21005KT CAVOK 07/04 Q1019 NOSIG=
201404120520 METAR COR EGLL 120520Z 21004KT 170V260 CAVOK 07/04 Q1019
                        NOSIG=
201404120450 METAR COR EGLL 120450Z 19004KT CAVOK 07/04 Q1019 NOSIG=
201404120420 METAR COR EGLL 120420Z VRB02KT CAVOK 07/05 Q1019 NOSIG=
201404120350 METAR COR EGLL 120350Z VRB02KT CAVOK 07/05 Q1019 NOSIG=
201404120320 METAR COR EGLL 120320Z 28003KT CAVOK 07/05 Q1020 NOSIG=
201404120250 METAR COR EGLL 120250Z 28004KT CAVOK 07/05 Q1020 NOSIG=
201404120220 METAR COR EGLL 120220Z 26004KT CAVOK 07/04 Q1020 NOSIG=
201404120150 METAR COR EGLL 120150Z 28004KT CAVOK 07/03 Q1020 NOSIG=
201404120120 METAR COR EGLL 120120Z AUTO 00000KT 9999 NCD 08/04 Q1020
                        NOSIG=
201404120050 METAR EGLL 120050Z AUTO 00000KT 9999 NCD 08/04 Q1021=
201404120020 METAR EGLL 120020Z AUTO 00000KT 9999 NCD 09/04 Q1021=
201404112350 METAR COR EGLL 112350Z 00000KT CAVOK 09/04 Q1021 NOSIG=
201404112320 METAR COR EGLL 112320Z 32002KT CAVOK 10/03 Q1021 NOSIG=
201404112250 METAR COR EGLL 112250Z 10002KT CAVOK 10/03 Q1021 NOSIG=
201404112220 METAR COR EGLL 112220Z 36003KT CAVOK 11/03 Q1021 NOSIG=
201404112150 METAR COR EGLL 112150Z 35003KT CAVOK 12/03 Q1021 NOSIG=
201404112120 METAR COR EGLL 112120Z 36003KT CAVOK 12/03 Q1022 NOSIG=
201404112050 METAR COR EGLL 112050Z 36002KT CAVOK 13/03 Q1022 NOSIG=
201404112020 METAR COR EGLL 112020Z 35003KT CAVOK 13/03 Q1022 NOSIG=
201404111950 METAR COR EGLL 111950Z 36003KT CAVOK 13/03 Q1022 NOSIG=
201404111920 METAR COR EGLL 111920Z 31003KT CAVOK 14/03 Q1021 NOSIG=
201404111850 METAR COR EGLL 111850Z VRB02KT CAVOK 14/02 Q1021 NOSIG=
201404111820 METAR COR EGLL 111820Z 33005KT CAVOK 14/03 Q1021 NOSIG=
201404111750 METAR COR EGLL 111750Z 31005KT CAVOK 15/02 Q1021 NOSIG=
201404111720 METAR COR EGLL 111720Z VRB03KT CAVOK 15/02 Q1021 NOSIG=
201404111650 METAR COR EGLL 111650Z 36004KT CAVOK 15/02 Q1021 NOSIG=
201404111620 METAR COR EGLL 111620Z 32006KT CAVOK 15/03 Q1021 NOSIG=
201404111550 METAR COR EGLL 111550Z 30005KT 270V010 CAVOK 15/03 Q1021
                        NOSIG=
201404111520 METAR COR EGLL 111520Z 34005KT 260V040 CAVOK 15/02 Q1021
                        NOSIG=
201404111450 METAR COR EGLL 111450Z 30004KT 240V360 CAVOK 15/02 Q1022
                        NOSIG=
201404111420 METAR COR EGLL 111420Z VRB03KT CAVOK 15/02 Q1022 NOSIG=
201404111350 METAR COR EGLL 111350Z 36005KT 310V060 CAVOK 15/02 Q1022
                        NOSIG=
201404111320 METAR COR EGLL 111320Z 01004KT 330V070 CAVOK 15/03 Q1022
                        NOSIG=
201404111250 METAR COR EGLL 111250Z VRB03KT 9999 FEW048 15/03 Q1022 NOSIG=
201404111220 METAR COR EGLL 111220Z 34006KT 280V070 9999 SCT047 16/04
                        Q1022 NOSIG=
201404111150 METAR COR EGLL 111150Z 04005KT 320V090 9999 FEW042 15/05
                        Q1022 NOSIG=
201404111120 METAR COR EGLL 111120Z 35006KT 320V040 9999 FEW040 14/04
                        Q1022 NOSIG=
201404111050 METAR COR EGLL 111050Z 36007KT 320V030 9999 FEW040 14/04
                        Q1023 NOSIG=
201404111020 METAR COR EGLL 111020Z 36007KT 310V030 9999 FEW040 13/04
                        Q1023 NOSIG=
201404110950 METAR COR EGLL 110950Z 01006KT 330V060 9999 FEW040 13/05
                        Q1022 NOSIG=
201404110920 METAR COR EGLL 110920Z 03006KT 350V090 9999 FEW040 12/05
                        Q1022 NOSIG=
201404110850 METAR COR EGLL 110850Z 03005KT 350V060 CAVOK 11/05 Q1022
                        NOSIG=
201404110820 METAR COR EGLL 110820Z 01006KT 340V040 CAVOK 11/05 Q1022
                        NOSIG=
201404110750 METAR EGLL 110750Z 02006KT 350V060 CAVOK 11/05 Q1022=
201404110720 METAR COR EGLL 110720Z VRB03KT 9999 FEW045 11/05 Q1022 NOSIG=
201404110650 METAR COR EGLL 110650Z 01005KT 9999 FEW040 10/05 Q1022 NOSIG=
201404110620 METAR COR EGLL 110620Z 01004KT 340V050 CAVOK 10/05 Q1022
                        NOSIG=
201404110550 METAR COR EGLL 110550Z 36004KT 320V030 CAVOK 10/05 Q1021
                        NOSIG=
201404110520 METAR COR EGLL 110520Z 36004KT 330V030 CAVOK 10/05 Q1021
                        NOSIG=
201404110450 METAR COR EGLL 110450Z VRB03KT CAVOK 10/05 Q1021 NOSIG=
201404110420 METAR COR EGLL 110420Z VRB03KT CAVOK 10/05 Q1021 NOSIG=
201404110350 METAR COR EGLL 110350Z VRB03KT CAVOK 10/05 Q1020 NOSIG=
201404110320 METAR COR EGLL 110320Z 32004KT CAVOK 10/05 Q1020 NOSIG=
201404110250 METAR COR EGLL 110250Z 30004KT CAVOK 11/05 Q1020 NOSIG=
201404110220 METAR COR EGLL 110220Z 31003KT CAVOK 11/05 Q1021 NOSIG=
201404110150 METAR COR EGLL 110150Z 30004KT CAVOK 11/05 Q1021 NOSIG=
201404110120 METAR EGLL 110120Z AUTO VRB02KT 9999 NCD 11/05 Q1020=
201404110050 METAR EGLL 110050Z AUTO 36003KT 9999 NCD 11/05 Q1020=
201404110020 METAR EGLL 110020Z AUTO 36004KT 9999 NCD 11/05 Q1021=
201404102350 METAR COR EGLL 102350Z 36003KT CAVOK 12/05 Q1021 NOSIG=
201404102320 METAR COR EGLL 102320Z 35004KT CAVOK 12/05 Q1021 NOSIG=
201404102250 METAR COR EGLL 102250Z VRB03KT CAVOK 12/05 Q1021 NOSIG=
201404102220 METAR COR EGLL 102220Z 35004KT 310V020 CAVOK 13/05 Q1021
                        NOSIG=
201404102150 METAR COR EGLL 102150Z VRB03KT CAVOK 13/05 Q1021 NOSIG=
201404102120 METAR COR EGLL 102120Z VRB03KT CAVOK 13/05 Q1021 NOSIG=
201404102050 METAR COR EGLL 102050Z 31004KT CAVOK 13/05 Q1021 NOSIG=
201404102020 METAR COR EGLL 102020Z 31003KT CAVOK 13/05 Q1021 NOSIG=
201404101950 METAR COR EGLL 101950Z 31004KT CAVOK 13/05 Q1021 NOSIG=
201404101920 METAR COR EGLL 101920Z 32004KT CAVOK 13/05 Q1021 NOSIG=
201404101850 METAR COR EGLL 101850Z 32004KT 280V350 CAVOK 13/05 Q1021
                        NOSIG=
201404101820 METAR COR EGLL 101820Z 30006KT CAVOK 13/05 Q1020 NOSIG=
201404101750 METAR COR EGLL 101750Z 31006KT 9999 FEW043 14/05 Q1020 NOSIG=
201404101720 METAR COR EGLL 101720Z 30008KT CAVOK 14/05 Q1020 NOSIG=
201404101650 METAR COR EGLL 101650Z 28008KT CAVOK 14/04 Q1020 NOSIG=
201404101620 METAR COR EGLL 101620Z 28008KT 9999 FEW049 14/05 Q1020 NOSIG=
201404101550 METAR COR EGLL 101550Z 27009KT 9999 FEW049 15/04 Q1020 NOSIG=
201404101520 METAR COR EGLL 101520Z 30007KT 9999 FEW049 15/04 Q1021 NOSIG=
201404101450 METAR COR EGLL 101450Z 27010KT 9999 FEW048 16/04 Q1021 NOSIG=
201404101420 METAR COR EGLL 101420Z 28006KT 240V320 9999 FEW048 15/03
                        Q1021 NOSIG=
201404101350 METAR COR EGLL 101350Z 27006KT 220V340 9999 FEW047 16/05
                        Q1021 NOSIG=
201404101320 METAR COR EGLL 101320Z 29006KT 240V360 9999 FEW045 16/04
                        Q1022 NOSIG=
201404101250 METAR COR EGLL 101250Z 30006KT 240V350 9999 FEW045 15/04
                        Q1022 NOSIG=
201404101220 METAR COR EGLL 101220Z 28006KT 240V320 9999 FEW043 15/04
                        Q1022 NOSIG=
201404101150 METAR COR EGLL 101150Z 27007KT 240V310 9999 FEW044 15/04
                        Q1022 NOSIG=
201404101120 METAR COR EGLL 101120Z 27005KT 210V340 9999 FEW038 14/05
                        Q1023 NOSIG=
201404101050 METAR COR EGLL 101050Z 24007KT 200V280 9999 FEW036 14/05
                        Q1023 NOSIG=
201404101020 METAR COR EGLL 101020Z 27005KT 220V320 9999 FEW036 13/04
                        Q1023 NOSIG=
201404100950 METAR COR EGLL 100950Z 25005KT 210V290 9999 FEW036 13/04
                        Q1023 NOSIG=
201404100920 METAR COR EGLL 100920Z 23004KT 170V300 9999 FEW028 12/05
                        Q1023 NOSIG=
201404100850 METAR COR EGLL 100850Z VRB03KT CAVOK 11/06 Q1023 NOSIG=
201404100820 METAR COR EGLL 100820Z 23004KT CAVOK 11/06 Q1024 NOSIG=
201404100750 METAR COR EGLL 100750Z VRB03KT 9999 FEW035 09/06 Q1024 NOSIG=
201404100720 METAR COR EGLL 100720Z 27004KT 9999 SCT035 08/06 Q1024 NOSIG=
201404100650 METAR COR EGLL 100650Z 27004KT 9000 BKN036 08/06 Q1024 NOSIG=
201404100620 METAR COR EGLL 100620Z 28004KT 9000 BKN039 08/06 Q1024 NOSIG=
201404100550 METAR COR EGLL 100550Z 27005KT 9000 FEW033 BKN040 08/06 Q1023
                        NOSIG=
201404100520 METAR COR EGLL 100520Z 27005KT 9000 FEW034 BKN040 07/06 Q1023
                        NOSIG=
201404100450 METAR COR EGLL 100450Z 25005KT 9999 BKN040 07/06 Q1023 NOSIG=
201404100420 METAR COR EGLL 100420Z 26005KT 9999 BKN040 07/05 Q1023 NOSIG=
201404100350 METAR COR EGLL 100350Z 27005KT 9999 BKN039 07/05 Q1023 NOSIG=
201404100320 METAR COR EGLL 100320Z 27005KT 9999 BKN038 08/05 Q1023 NOSIG=
201404100250 METAR COR EGLL 100250Z 27005KT 9999 BKN040 08/05 Q1024 NOSIG=
201404100220 METAR COR EGLL 100220Z 27006KT 9999 BKN040 08/05 Q1024 NOSIG=
201404100150 METAR COR EGLL 100150Z 27005KT 9999 BKN040 08/05 Q1024 NOSIG=
201404100120 METAR EGLL 100120Z AUTO 27004KT 9999 OVC040 09/05 Q1024=
201404100050 METAR EGLL 100050Z AUTO 27006KT 9999 BKN039 09/05 Q1024=
201404100020 METAR EGLL 100020Z AUTO 27006KT 9999 SCT039 09/05 Q1024=
201404092350 METAR COR EGLL 092350Z 27005KT 9999 SCT040 09/05 Q1024 NOSIG=
201404092320 METAR COR EGLL 092320Z 28005KT CAVOK 10/05 Q1024 NOSIG=
201404092250 METAR COR EGLL 092250Z 28007KT CAVOK 10/05 Q1024 NOSIG=
201404092220 METAR COR EGLL 092220Z 28007KT CAVOK 11/06 Q1024 NOSIG=
201404092150 METAR COR EGLL 092150Z 27007KT CAVOK 10/06 Q1025 NOSIG=
201404092120 METAR COR EGLL 092120Z 27009KT CAVOK 11/05 Q1025 NOSIG=
201404092050 METAR COR EGLL 092050Z 28009KT CAVOK 12/06 Q1025 NOSIG=
201404092020 METAR COR EGLL 092020Z 27011KT 9999 FEW037 12/06 Q1025 NOSIG=
201404091950 METAR COR EGLL 091950Z 27009KT 9999 SCT038 13/06 Q1024 NOSIG=
201404091920 METAR COR EGLL 091920Z 25010KT 9999 SCT040 14/06 Q1024 NOSIG=
201404091850 METAR COR EGLL 091850Z 25010KT 9999 BKN041 14/06 Q1024 NOSIG=
201404091820 METAR COR EGLL 091820Z 26009KT 9999 BKN042 14/06 Q1024 NOSIG=
201404091750 METAR COR EGLL 091750Z 27012KT 9999 BKN040 14/06 Q1024 NOSIG=
201404091720 METAR COR EGLL 091720Z 27011KT 9999 SCT040 14/07 Q1024 NOSIG=
201404091650 METAR COR EGLL 091650Z 27012KT 9999 SCT042 15/07 Q1024 NOSIG=
201404091620 METAR COR EGLL 091620Z 27011KT 9999 SCT042 16/07 Q1024 NOSIG=
201404091550 METAR COR EGLL 091550Z 26010KT 9999 SCT043 16/07 Q1024 NOSIG=
201404091520 METAR COR EGLL 091520Z 25011KT 9999 SCT041 17/06 Q1024 NOSIG=
201404091450 METAR COR EGLL 091450Z 27008KT 230V310 9999 FEW042 16/06
                        Q1025 NOSIG=
201404091420 METAR COR EGLL 091420Z 27009KT 250V320 9999 FEW041 17/06
                        Q1025 NOSIG=
201404091350 METAR COR EGLL 091350Z 26007KT 220V320 9999 FEW042 16/06
                        Q1025 NOSIG=
201404091320 METAR COR EGLL 091320Z 27008KT 240V300 9999 FEW040 15/05
                        Q1025 NOSIG=
201404091250 METAR COR EGLL 091250Z 24010KT 9999 FEW040 16/05 Q1025 NOSIG=
201404091220 METAR COR EGLL 091220Z 28008KT 240V320 9999 FEW036 16/06
                        Q1026 NOSIG=
201404091150 METAR COR EGLL 091150Z 24007KT 200V290 9999 FEW036 15/06
                        Q1026 NOSIG=
201404091120 METAR EGLL 091120Z 30006KT 260V330 9999 SCT035 15/06 Q1026=
201404091050 METAR COR EGLL 091050Z 24006KT 180V300 9999 FEW030 14/06
                        Q1026 NOSIG=
201404091020 METAR COR EGLL 091020Z 25007KT 220V290 9999 FEW024 13/06
                        Q1027 NOSIG=
201404090950 METAR COR EGLL 090950Z 26005KT 220V330 9999 FEW024 13/06
                        Q1027 NOSIG=
201404090920 METAR COR EGLL 090920Z 26006KT 220V310 CAVOK 12/07 Q1027
                        NOSIG=
201404090850 METAR COR EGLL 090850Z 26005KT 220V320 CAVOK 11/07 Q1027
                        NOSIG=
201404090820 METAR COR EGLL 090820Z 26007KT 230V290 CAVOK 09/07 Q1027
                        NOSIG=
201404090750 METAR COR EGLL 090750Z 27005KT 8000 FEW005 08/06 Q1027 NOSIG=
201404090720 METAR COR EGLL 090720Z 25005KT 220V290 7000 FEW005 07/06
                        Q1026 NOSIG=
201404090650 METAR COR EGLL 090650Z 25005KT 7000 NSC 06/05 Q1026 NOSIG=
201404090620 METAR COR EGLL 090620Z 25006KT 6000 FEW005 06/05 Q1026 NOSIG=
201404090550 METAR COR EGLL 090550Z 24006KT 210V270 7000 FEW006 05/04
                        Q1026 TEMPO BKN007=
201404090520 METAR COR EGLL 090520Z 26007KT 6000 FEW006 05/04 Q1026 TEMPO
                        BKN007=
201404090450 METAR COR EGLL 090450Z 26008KT 6000 SCT005 SCT006 06/05 Q1026
                        TEMPO 4000 BR BKN004=
201404090420 METAR COR EGLL 090420Z 24006KT 210V280 6000 FEW004 BKN005
                        05/04 Q1026 TEMPO 4000 BR=
201404090350 METAR COR EGLL 090350Z 25006KT 9000 NSC 05/04 Q1026 TEMPO
                        BKN005=
201404090320 METAR COR EGLL 090320Z 25006KT CAVOK 06/04 Q1026 TEMPO BKN005=
201404090250 METAR COR EGLL 090250Z 22004KT CAVOK 06/04 Q1026 TEMPO BKN005=
201404090220 METAR COR EGLL 090220Z 24005KT CAVOK 06/04 Q1026 NOSIG=
201404090150 METAR COR EGLL 090150Z 25007KT CAVOK 07/05 Q1026 NOSIG=
201404090120 METAR EGLL 090120Z AUTO 27006KT 9999 NCD 06/04 Q1026=
201404090050 METAR EGLL 090050Z AUTO 27005KT 9999 NCD 06/04 Q1026=
201404090020 METAR EGLL 090020Z AUTO 28005KT 9999 NCD 06/04 Q1026=
201404082350 METAR COR EGLL 082350Z 27007KT CAVOK 06/04 Q1026 NOSIG=
201404082320 METAR COR EGLL 082320Z 27008KT CAVOK 07/04 Q1026 NOSIG=
201404082250 METAR COR EGLL 082250Z 27010KT CAVOK 07/05 Q1026 NOSIG=
201404082220 METAR COR EGLL 082220Z 27009KT CAVOK 08/05 Q1025 NOSIG=
201404082150 METAR COR EGLL 082150Z 27007KT CAVOK 09/05 Q1025 NOSIG=
201404082120 METAR COR EGLL 082120Z 27012KT CAVOK 09/05 Q1025 NOSIG=
201404082050 METAR COR EGLL 082050Z 27011KT CAVOK 10/05 Q1025 NOSIG=
201404082020 METAR COR EGLL 082020Z 28009KT CAVOK 09/04 Q1025 NOSIG=
201404081950 METAR COR EGLL 081950Z 28007KT CAVOK 10/03 Q1024 NOSIG=
201404081920 METAR COR EGLL 081920Z 28007KT CAVOK 10/02 Q1024 NOSIG=
201404081850 METAR COR EGLL 081850Z 29007KT CAVOK 12/01 Q1023 NOSIG=
201404081820 METAR COR EGLL 081820Z 30008KT CAVOK 12/01 Q1023 NOSIG=
201404081750 METAR COR EGLL 081750Z 30010KT CAVOK 13/00 Q1023 NOSIG=
201404081720 METAR COR EGLL 081720Z 28012KT CAVOK 13/01 Q1022 NOSIG=
201404081650 METAR COR EGLL 081650Z 30009KT 280V340 CAVOK 13/01 Q1022
                        NOSIG=
201404081620 METAR COR EGLL 081620Z 28013KT CAVOK 14/02 Q1021 NOSIG=
201404081550 METAR COR EGLL 081550Z 30013KT CAVOK 13/01 Q1021 NOSIG=
201404081520 METAR COR EGLL 081520Z 29012KT 9999 FEW049 14/02 Q1021 NOSIG=
201404081450 METAR COR EGLL 081450Z 28017KT 9999 FEW048 14/02 Q1020 NOSIG=
201404081420 METAR COR EGLL 081420Z 28013KT 9999 FEW048 13/02 Q1020 NOSIG=
201404081350 METAR COR EGLL 081350Z 28019KT 9999 SCT047 13/02 Q1020 NOSIG=
201404081320 METAR COR EGLL 081320Z 29014KT 260V320 9999 FEW047 12/02
                        Q1020 NOSIG=
201404081250 METAR COR EGLL 081250Z 28016KT 9999 FEW047 12/02 Q1020 NOSIG=
201404081220 METAR COR EGLL 081220Z 27021KT 9999 FEW047 13/02 Q1019 NOSIG=
201404081150 METAR COR EGLL 081150Z 27017KT 9999 SCT049 12/03 Q1019 NOSIG=
201404081120 METAR COR EGLL 081120Z 28013KT 9999 SCT043 11/03 Q1019 NOSIG=
201404081050 METAR COR EGLL 081050Z 28015KT 9999 SCT037 11/03 Q1019 NOSIG=
201404081020 METAR COR EGLL 081020Z 27016KT 9999 SCT035 SCT041 10/03 Q1018
                        NOSIG=
201404080950 METAR COR EGLL 080950Z 28016KT 9999 SCT035 BKN040 10/03 Q1018
                        NOSIG=
201404080920 METAR EGLL 080920Z 27017KT 9999 FEW032 SCT035 10/04 Q1018=
201404080850 METAR COR EGLL 080850Z 27017KT 9999 SCT030 10/04 Q1017 NOSIG=
201404080820 METAR COR EGLL 080820Z 27015KT 9999 FEW028 08/04 Q1017 NOSIG=
201404080750 METAR COR EGLL 080750Z 26014KT 9999 FEW016 08/04 Q1017 NOSIG=
201404080720 METAR COR EGLL 080720Z 26015KT CAVOK 08/03 Q1016 NOSIG=
201404080650 METAR COR EGLL 080650Z 25014KT CAVOK 07/03 Q1015 NOSIG=
201404080620 METAR COR EGLL 080620Z 25012KT CAVOK 06/03 Q1015 NOSIG=
201404080550 METAR COR EGLL 080550Z 25012KT CAVOK 06/03 Q1014 NOSIG=
201404080520 METAR COR EGLL 080520Z 25013KT CAVOK 06/03 Q1014 NOSIG=
201404080450 METAR COR EGLL 080450Z 26011KT CAVOK 06/03 Q1013 NOSIG=
201404080420 METAR COR EGLL 080420Z 26012KT CAVOK 07/04 Q1013 NOSIG=
201404080350 METAR COR EGLL 080350Z 25012KT 9999 FEW024 07/04 Q1012 NOSIG=
201404080320 METAR COR EGLL 080320Z 25012KT 9999 SCT025 08/05 Q1012 NOSIG=
201404080250 METAR COR EGLL 080250Z 25012KT 9999 FEW027 07/05 Q1012 NOSIG=
201404080220 METAR COR EGLL 080220Z 25012KT 9999 FEW025 08/05 Q1012 NOSIG=
201404080150 METAR COR EGLL 080150Z 25012KT 9999 FEW025 08/05 Q1011 NOSIG=
201404080120 METAR EGLL 080120Z AUTO 25011KT 9999 NCD 08/05 Q1011=
201404080050 METAR EGLL 080050Z AUTO 24011KT 9999 FEW022 08/06 Q1011=
201404080020 METAR EGLL 080020Z AUTO 24010KT 9999 FEW026 08/06 Q1010=
201404072350 METAR COR EGLL 072350Z 24010KT 9999 FEW047 08/06 Q1010 NOSIG=
201404072320 METAR COR EGLL 072320Z 25009KT 9999 FEW048 08/06 Q1010 NOSIG=
201404072250 METAR COR EGLL 072250Z 26011KT CAVOK 08/06 Q1010 NOSIG=
201404072220 METAR COR EGLL 072220Z 25012KT 9999 FEW018 09/06 Q1009 NOSIG=
201404072150 METAR COR EGLL 072150Z 26013KT 9999 FEW015 09/06 Q1009 NOSIG=
201404072120 METAR COR EGLL 072120Z 27016KT 9999 FEW015 SCT019 10/08 Q1008
                        NOSIG=
201404072050 METAR COR EGLL 072050Z 27013KT 9999 FEW017 SCT040 10/08 Q1008
                        NOSIG=
201404072020 METAR COR EGLL 072020Z 27016KT 9999 FEW018 SCT033 11/09 Q1007
                        NOSIG=
201404071950 METAR COR EGLL 071950Z 27014KT 9999 -RA FEW015 SCT034 11/09
                        Q1006 NOSIG=
201404071920 METAR COR EGLL 071920Z 27015KT 9999 -RA FEW012 SCT020 11/09
                        Q1005 NOSIG=
201404071850 METAR COR EGLL 071850Z 26013KT 8000 -RA SCT012 SCT020 12/10
                        Q1005 RERA BECMG NSW=
201404071820 METAR COR EGLL 071820Z 22011KT 9999 SCT010 SCT014 13/12 Q1004
                        RERA TEMPO RA BKN014=
201404071750 METAR COR EGLL 071750Z 22011KT 7000 -RA FEW009 BKN013 13/12
                        Q1004 RERA BECMG SCT020=
201404071720 METAR COR EGLL 071720Z 21010KT 9000 -RA FEW009 SCT014 BKN018
                        13/12 Q1004 TEMPO 4000 RA BKN009=
201404071650 METAR COR EGLL 071650Z 20010KT 9999 SCT008 BKN010 13/12 Q1004
                        TEMPO 4000 RA BKN008=
201404071620 METAR COR EGLL 071620Z 21010KT 180V250 9999 FEW006 SCT008
                        BKN010 13/12 Q1005 TEMPO 4000 RA
                        BKN008=
201404071550 METAR COR EGLL 071550Z 21011KT 170V250 9999 FEW007 SCT008
                        BKN011 13/12 Q1005 TEMPO BKN009=
201404071520 METAR COR EGLL 071520Z 20012KT 170V240 8000 FEW006 SCT008
                        BKN011 13/12 Q1005 TEMPO BKN008=
201404071450 METAR COR EGLL 071450Z 20013KT 170V240 9000 FEW006 BKN009
                        13/12 Q1006 TEMPO BKN012=
201404071420 METAR COR EGLL 071420Z 20013KT 180V240 7000 -RA FEW009 BKN011
                        14/12 Q1006 NOSIG=
201404071350 METAR COR EGLL 071350Z 19013KT 9999 FEW009 BKN011 14/12 Q1006
                        NOSIG=
201404071320 METAR COR EGLL 071320Z 20012KT 6000 -RA FEW009 BKN014 14/12
                        Q1007 NOSIG=
201404071250 METAR COR EGLL 071250Z 19012KT 170V240 9000 -RA SCT011 BKN018
                        14/12 Q1007 TEMPO BKN010=
201404071220 METAR COR EGLL 071220Z 20011G23KT 140V220 9000 -RA FEW014
                        BKN017 14/12 Q1008 TEMPO BKN014=
201404071150 METAR COR EGLL 071150Z 19011KT 150V210 9999 SCT014 BKN018
                        14/12 Q1008 TEMPO BKN014=
201404071120 METAR COR EGLL 071120Z 19010KT 160V230 9999 SCT014 BKN019
                        14/12 Q1008 TEMPO BKN013=
201404071050 METAR COR EGLL 071050Z 19011KT 9999 SCT015 BKN022 14/12 Q1009
                        NOSIG=
201404071020 METAR COR EGLL 071020Z 19012KT 9999 -RA FEW013 SCT022 BKN037
                        14/12 Q1009 NOSIG=
201404070950 METAR COR EGLL 070950Z 19012KT 9999 SCT012 BKN035 14/11 Q1009
                        TEMPO BKN012=
201404070920 METAR COR EGLL 070920Z 18014KT 9999 SCT011 SCT015 BKN032
                        14/12 Q1009 NOSIG=
201404070850 METAR COR EGLL 070850Z 19013KT 9999 SCT010 SCT015 BKN035
                        13/11 Q1010 TEMPO BKN010=
201404070820 METAR COR EGLL 070820Z 19012KT 9999 SCT012 BKN015 13/11 Q1010
                        NOSIG=
201404070750 METAR COR EGLL 070750Z 19013KT 160V230 9999 SCT011 BKN015
                        13/11 Q1010 TEMPO BKN009=
201404070720 METAR COR EGLL 070720Z 18012KT 9999 FEW009 SCT014 BKN018
                        13/11 Q1010 NOSIG=
201404070650 METAR COR EGLL 070650Z 19013KT 9999 SCT009 BKN012 13/11 Q1010
                        TEMPO BKN009=
201404070620 METAR COR EGLL 070620Z 19013G23KT 160V240 9999 -RA SCT009
                        BKN012 12/11 Q1010 TEMPO 4800 RA
                        BKN009=
201404070550 METAR COR EGLL 070550Z 19013KT 9999 -RA SCT009 BKN012 12/11
                        Q1011 TEMPO 4800 RA BKN009=
201404070520 METAR COR EGLL 070520Z 19013KT 9999 -RA BKN013 13/11 Q1011
                        TEMPO 4800 RA BKN009=
201404070450 METAR COR EGLL 070450Z 19012KT 9999 SCT014 SCT020 13/11 Q1011
                        TEMPO RA BKN014=
201404070420 METAR COR EGLL 070420Z 20011KT 9999 SCT016 BKN022 13/11 Q1011
                        BECMG RA BKN012=
201404070350 METAR COR EGLL 070350Z 20011KT 9999 SCT015 BKN020 13/11 Q1011
                        BECMG RA BKN014=
201404070320 METAR COR EGLL 070320Z 20010KT 9999 BKN015 13/11 Q1011 TEMPO
                        RA BKN012=
201404070250 METAR COR EGLL 070250Z 21011KT 9999 FEW012 BKN022 13/11 Q1011
                        TEMPO BKN012=
201404070220 METAR COR EGLL 070220Z 20009KT 9999 SCT013 BKN015 13/11 Q1012
                        TEMPO BKN013=
201404070150 METAR COR EGLL 070150Z 20009KT 9999 BKN018 13/11 Q1012 TEMPO
                        BKN012=
201404070120 METAR EGLL 070120Z AUTO 21010KT 9999 FEW013 BKN029 BKN036
                        13/11 Q1012=
201404070050 METAR EGLL 070050Z AUTO 21012KT 9999 BKN014 13/11 Q1013=
201404070020 METAR EGLL 070020Z AUTO 21011KT 9999 BKN014 13/11 Q1013=
201404062350 METAR COR EGLL 062350Z 21013KT 9999 SCT010 BKN016 14/11 Q1013
                        TEMPO BKN010=
201404062320 METAR COR EGLL 062320Z 21011KT 9999 SCT010 BKN022 14/11 Q1013
                        TEMPO BKN010=
201404062250 METAR COR EGLL 062250Z 21014KT 9999 BKN011 14/11 Q1013 TEMPO
                        BKN009=
201404062220 METAR COR EGLL 062220Z 21013KT 9999 BKN010 13/12 Q1013 TEMPO
                        BKN009=
201404062150 METAR COR EGLL 062150Z 21011KT 9999 SCT008 BKN012 13/12 Q1013
                        TEMPO BKN008=
201404062120 METAR COR EGLL 062120Z 21010KT 9999 FEW008 BKN009 13/12 Q1013
                        NOSIG=
201404062050 METAR EGLL 062050Z 21010KT 9999 FEW009 BKN011 13/12 Q1013=
201404062020 METAR COR EGLL 062020Z 22010KT 9999 FEW007 BKN010 13/12 Q1013
                        TEMPO BKN008=
201404061950 METAR COR EGLL 061950Z 21013G23KT 9999 -RA FEW009 BKN011
                        13/12 Q1013 NOSIG=
201404061920 METAR COR EGLL 061920Z 21011KT 9999 -RA FEW009 BKN012 13/12
                        Q1013 NOSIG=
201404061850 METAR COR EGLL 061850Z 21010KT 9999 -RA FEW009 BKN012 13/12
                        Q1013 NOSIG=
201404061820 METAR COR EGLL 061820Z 22011KT 9000 -RA FEW009 SCT012 BKN014
                        13/12 Q1013 NOSIG=
201404061750 METAR COR EGLL 061750Z 22013KT 9000 -RA SCT010 BKN014 14/12
                        Q1013 NOSIG=
201404061720 METAR COR EGLL 061720Z 21011KT 9999 SCT010 BKN013 14/12 Q1013
                        NOSIG=
201404061650 METAR COR EGLL 061650Z 22014KT 9999 -RA BKN010 14/12 Q1013
                        NOSIG=
201404061620 METAR COR EGLL 061620Z 21012KT 9000 SCT010 BKN014 14/12 Q1012
                        TEMPO SCT014=
201404061550 METAR COR EGLL 061550Z 22015KT 5000 HZ SCT013 BKN015 15/12
                        Q1012 TEMPO -DZRA BKN012=
201404061520 METAR COR EGLL 061520Z 22016KT 9999 FEW013 BKN016 15/12 Q1012
                        TEMPO BKN014=
201404061450 METAR COR EGLL 061450Z 22016G26KT 9999 BKN019 15/11 Q1012
                        TEMPO BKN014=
201404061420 METAR COR EGLL 061420Z 22013KT 9999 SCT017 BKN020 15/11 Q1012
                        TEMPO BKN014=
201404061350 METAR COR EGLL 061350Z 22013G23KT 9999 SCT015 BKN017 15/12
                        Q1013 TEMPO BKN014=
201404061320 METAR COR EGLL 061320Z 23014KT 190V250 9999 SCT013 BKN015
                        15/12 Q1013 TEMPO BKN014=
201404061250 METAR COR EGLL 061250Z 23013KT 9999 BKN013 15/12 Q1013 TEMPO
                        SCT013 BKN015=
201404061220 METAR COR EGLL 061220Z 22013KT 9999 BKN012 14/12 Q1013 TEMPO
                        SCT012 BKN015=
201404061150 METAR COR EGLL 061150Z 22016KT 9999 BKN011 14/12 Q1013 NOSIG=
201404061120 METAR COR EGLL 061120Z 22015G25KT 9999 BKN011 14/12 Q1013
                        NOSIG=
201404061050 METAR COR EGLL 061050Z 22016KT 9999 BKN011 14/12 Q1013 NOSIG=
201404061020 METAR COR EGLL 061020Z 22016G26KT 9999 FEW008 BKN011 14/12
                        Q1013 NOSIG=
201404060950 METAR COR EGLL 060950Z 22014KT 9999 SCT008 BKN010 14/12 Q1013
                        NOSIG=
201404060920 METAR COR EGLL 060920Z 22012KT 9999 SCT009 BKN011 14/12 Q1012
                        NOSIG=
201404060850 METAR COR EGLL 060850Z 21010G20KT 180V240 9999 SCT007 BKN011
                        13/12 Q1012 NOSIG=
201404060820 METAR COR EGLL 060820Z 20010KT 170V250 9999 SCT007 BKN009
                        13/12 Q1012 BECMG BKN011=
201404060750 METAR COR EGLL 060750Z 20010KT 180V240 9999 -RA SCT007 BKN009
                        13/12 Q1012 BECMG BKN011=
201404060720 METAR COR EGLL 060720Z 21009KT 180V240 9999 -RA SCT007 OVC009
                        13/12 Q1012 BECMG SCT009 BKN012=
201404060650 METAR COR EGLL 060650Z 22011KT 9999 -RA SCT007 OVC009 13/12
                        Q1012 TEMPO 4000 RA=
201404060620 METAR COR EGLL 060620Z 22011KT 9999 FEW006 OVC008 13/12 Q1012
                        NOSIG=
201404060550 METAR COR EGLL 060550Z 21010KT 9999 FEW004 BKN008 13/12 Q1012
                        NOSIG=
201404060520 METAR COR EGLL 060520Z 21008KT 170V230 7000 OVC005 13/12
                        Q1012 NOSIG=
201404060450 METAR COR EGLL 060450Z 21009KT 9999 FEW005 BKN006 13/12 Q1012
                        NOSIG=
201404060420 METAR COR EGLL 060420Z 21010KT 7000 BKN005 13/12 Q1012 NOSIG=
201404060350 METAR COR EGLL 060350Z 21011KT 9999 OVC007 13/12 Q1012 NOSIG=
201404060320 METAR COR EGLL 060320Z 21009KT 9999 BKN008 13/12 Q1012 TEMPO
                        SCT008 BKN012=
201404060250 METAR COR EGLL 060250Z 20010KT 9999 BKN008 13/12 Q1012 NOSIG=
201404060220 METAR COR EGLL 060220Z 19008KT 9000 -RA OVC006 13/12 Q1012
                        NOSIG=
201404060150 METAR COR EGLL 060150Z 21007KT 6000 -DZ BKN006 13/12 Q1013
                        RERA NOSIG=
201404060120 METAR EGLL 060120Z AUTO 20009KT 8000 RA BKN006/// //////TCU
                        13/12 Q1013=
201404060050 METAR EGLL 060050Z AUTO 21008KT 7000 DZ OVC005 13/12 Q1013=
201404060020 METAR EGLL 060020Z AUTO 20009KT 5000 -RA BKN006 13/12 Q1013
                        REDZ=
201404052350 METAR COR EGLL 052350Z 21010KT 9999 -DZ BKN008 13/12 Q1013
                        TEMPO RADZ=
201404052320 METAR COR EGLL 052320Z 20012KT 9999 BKN009 13/11 Q1013 NOSIG=
201404052250 METAR COR EGLL 052250Z 21010KT 9999 BKN008 13/11 Q1014 NOSIG=
201404052220 METAR COR EGLL 052220Z 21008KT 9999 BKN008 13/11 Q1014 NOSIG=
201404052150 METAR COR EGLL 052150Z 22008KT 9999 BKN008 13/11 Q1014 NOSIG=
201404052120 METAR COR EGLL 052120Z 20010KT 9999 BKN009 13/11 Q1014 NOSIG=
201404052050 METAR COR EGLL 052050Z 21008KT 9999 FEW008 BKN010 14/11 Q1014
                        BECMG BKN008=
201404052020 METAR COR EGLL 052020Z 22010KT 9999 BKN010 14/11 Q1014 BECMG
                        BKN009=
201404051950 METAR COR EGLL 051950Z 21009KT 9999 BKN010 14/11 Q1014 BECMG
                        BKN009=
201404051920 METAR COR EGLL 051920Z 21009KT 9999 BKN011 14/11 Q1013 BECMG
                        BKN009=
201404051850 METAR COR EGLL 051850Z 21010KT 9999 BKN011 14/11 Q1013 BECMG
                        BKN009=
201404051820 METAR COR EGLL 051820Z 20012KT 9999 BKN012 14/11 Q1013 TEMPO
                        BKN009=
201404051750 METAR COR EGLL 051750Z 19012KT 9999 BKN011 14/11 Q1013 NOSIG=
201404051720 METAR COR EGLL 051720Z 20011G21KT 9999 BKN015 14/11 Q1013
                        BECMG BKN009=
201404051650 METAR COR EGLL 051650Z 20011G21KT 160V250 9999 BKN014 15/11
                        Q1013 BECMG BKN009=
201404051620 METAR COR EGLL 051620Z 21011KT 170V240 9999 BKN016 14/11
                        Q1013 BECMG BKN009=
201404051550 METAR COR EGLL 051550Z 20011G21KT 9999 BKN017 14/11 Q1013
                        BECMG BKN009=
201404051520 METAR COR EGLL 051520Z 19011KT 150V210 9999 SCT013 BKN017
                        14/11 Q1013 BECMG BKN009=
201404051450 METAR COR EGLL 051450Z 20011KT 160V220 9999 BKN011 14/11
                        Q1014 BECMG BKN009=
201404051420 METAR COR EGLL 051420Z 19013KT 9999 SCT012 BKN017 14/10 Q1014
                        BECMG BKN012=
201404051350 METAR COR EGLL 051350Z 20013KT 9999 SCT014 BKN017 14/11 Q1014
                        BECMG BKN014=
201404051320 METAR COR EGLL 051320Z 19014G27KT 9999 BKN014 14/10 Q1014
                        TEMPO BKN009=
201404051250 METAR COR EGLL 051250Z 20013KT 9999 BKN016 14/10 Q1014 BECMG
                        BKN014=
201404051220 METAR COR EGLL 051220Z 21013KT 170V240 9999 BKN017 14/10
                        Q1014 BECMG BKN014=
201404051150 METAR COR EGLL 051150Z 21011KT 170V250 9999 BKN019 14/10
                        Q1014 TEMPO BKN014=
201404051120 METAR COR EGLL 051120Z 21012KT 180V240 9999 BKN020 15/10
                        Q1014 TEMPO BKN014=
201404051050 METAR COR EGLL 051050Z 19011KT 160V250 9999 BKN021 14/09
                        Q1014 TEMPO BKN014=
201404051020 METAR COR EGLL 051020Z 20013KT 9999 SCT022 15/09 Q1014 TEMPO
                        BKN012=
201404050950 METAR COR EGLL 050950Z 21012KT 170V250 9999 FEW023 14/08
                        Q1014 NOSIG=
201404050920 METAR COR EGLL 050920Z 17005KT 120V220 9999 FEW010 12/09
                        Q1014 NOSIG=
201404050850 METAR COR EGLL 050850Z 16007KT 130V230 9999 FEW010 11/09
                        Q1014 NOSIG=
201404050820 METAR COR EGLL 050820Z 16006KT 120V220 9999 SCT040 10/08
                        Q1014 NOSIG=
201404050750 METAR COR EGLL 050750Z VRB04KT 9000 SCT040 SCT047 09/08 Q1014
                        NOSIG=
201404050720 METAR COR EGLL 050720Z 17004KT 100V230 6000 FEW006 BKN045
                        08/07 Q1014 NOSIG=
201404050650 METAR COR EGLL 050650Z 20004KT 140V250 3500 1600SW BR FEW002
                        SCT003 07/07 Q1013 BECMG 6000 NSW=
201404050620 METAR COR EGLL 050620Z 19005KT 150V240 1500 0800SE R27L/1300
                        R27R/P1500 BR PRFG SCT001 SCT002
                        07/06 Q1013 BECMG 4000 BR BKN006=
201404050550 METAR COR EGLL 050550Z 21006KT 180V240 0800 R27L/1200 R27R/P1500
                        FG BKN001 06/06 Q1013 BECMG 1500
                        BR SCT001=
201404050520 METAR COR EGLL 050520Z 21004KT 160V240 5000 1800S BR SCT001
                        BKN049 06/05 Q1013 TEMPO 3000 BR=
201404050450 METAR COR EGLL 050450Z 20005KT 4900 2000S BR PRFG FEW003
                        SCT049 06/05 Q1013 TEMPO 0800 BCFG
                        BKN002=
201404050420 METAR COR EGLL 050420Z 18003KT 4900 BR NSC 06/05 Q1013 TEMPO
                        BKN003=
201404050350 METAR COR EGLL 050350Z 17003KT 4600 BR NSC 06/05 Q1013 TEMPO
                        BKN003=
201404050320 METAR COR EGLL 050320Z 19003KT 4200 BR NSC 06/05 Q1013 TEMPO
                        BKN003=
201404050250 METAR COR EGLL 050250Z 17003KT 3500 BR FEW004 06/06 Q1013
                        TEMPO BKN004=
201404050220 METAR COR EGLL 050220Z 20004KT 4600 HZ SCT004 07/06 Q1013
                        TEMPO BKN004=
201404050150 METAR COR EGLL 050150Z 17004KT 6000 BKN004 07/06 Q1013 TEMPO
                        SCT004=
201404050120 METAR EGLL 050120Z AUTO 23005KT 9999 NCD 07/06 Q1013=
201404050050 METAR EGLL 050050Z AUTO 20004KT 9999 NCD 08/06 Q1013=
201404050020 METAR EGLL 050020Z AUTO 18004KT 9999 NCD 08/06 Q1013=
201404042350 METAR COR EGLL 042350Z 20005KT CAVOK 08/06 Q1012 NOSIG=
201404042320 METAR COR EGLL 042320Z 21004KT 180V240 CAVOK 09/07 Q1012
                        NOSIG=
201404042250 METAR COR EGLL 042250Z 18004KT CAVOK 09/07 Q1012 NOSIG=
201404042220 METAR COR EGLL 042220Z 21005KT CAVOK 10/07 Q1012 NOSIG=
201404042150 METAR COR EGLL 042150Z 21006KT CAVOK 10/07 Q1012 NOSIG=
201404042120 METAR COR EGLL 042120Z 22007KT CAVOK 11/07 Q1012 NOSIG=
201404042050 METAR COR EGLL 042050Z 21007KT CAVOK 11/07 Q1011 NOSIG=
201404042020 METAR COR EGLL 042020Z 22009KT 9999 FEW048 12/07 Q1011 NOSIG=
201404041950 METAR COR EGLL 041950Z 21007KT 9999 FEW034 SCT048 13/08 Q1011
                        NOSIG=
201404041920 METAR COR EGLL 041920Z 22006KT 9999 FEW034 13/07 Q1011 NOSIG=
201404041850 METAR COR EGLL 041850Z 23007KT 9999 FEW034 SCT049 13/07 Q1010
                        NOSIG=
201404041820 METAR COR EGLL 041820Z 25005KT 210V290 9999 SCT044 SCT048
                        14/06 Q1010 NOSIG=
201404041750 METAR COR EGLL 041750Z 26007KT 220V300 9999 SCT042 SCT047
                        14/06 Q1010 NOSIG=
201404041720 METAR COR EGLL 041720Z 26008KT 230V290 9999 FEW037 BKN042
                        15/07 Q1010 NOSIG=
201404041650 METAR COR EGLL 041650Z 27009KT 240V300 9999 BKN040 14/07
                        Q1010 NOSIG=
201404041620 METAR COR EGLL 041620Z 26008KT 230V290 9999 BKN038 14/07
                        Q1010 NOSIG=
201404041550 METAR COR EGLL 041550Z 27010KT 9999 FEW036 BKN040 14/06 Q1010
                        NOSIG=
201404041520 METAR COR EGLL 041520Z 26010KT 9999 BKN036 14/07 Q1010 NOSIG=
201404041450 METAR COR EGLL 041450Z 27012KT 9999 BKN037 14/06 Q1009 NOSIG=
201404041420 METAR COR EGLL 041420Z 27011KT 9999 BKN036 14/07 Q1009 NOSIG=
201404041350 METAR COR EGLL 041350Z 26011KT 230V300 9999 BKN036 14/07
                        Q1009 NOSIG=
201404041320 METAR COR EGLL 041320Z 28010KT 9999 BKN032 15/07 Q1009 NOSIG=
201404041250 METAR COR EGLL 041250Z 27008KT 240V310 9999 BKN032 15/08
                        Q1009 NOSIG=
201404041220 METAR EGLL 041220Z 25009KT 9999 BKN030 15/08 Q1009=
201404041150 METAR COR EGLL 041150Z 28008KT 240V300 9999 BKN029 15/08
                        Q1008 NOSIG=
201404041120 METAR COR EGLL 041120Z 26009KT 210V290 9999 SCT024 14/08
                        Q1008 NOSIG=
201404041050 METAR COR EGLL 041050Z 25008KT 230V290 9999 SCT029 14/08
                        Q1008 NOSIG=
201404041020 METAR COR EGLL 041020Z 29008KT 260V320 9999 SCT029 13/08
                        Q1008 NOSIG=
201404040950 METAR COR EGLL 040950Z 27010KT 9999 BKN026 13/08 Q1008 NOSIG=
201404040920 METAR COR EGLL 040920Z 27011KT 9999 BKN026 12/08 Q1008 NOSIG=
201404040850 METAR COR EGLL 040850Z 27010KT 9999 FEW025 SCT027 12/08 Q1007
                        NOSIG=
201404040820 METAR COR EGLL 040820Z 27012KT 9999 BKN023 12/08 Q1007 NOSIG=
201404040750 METAR COR EGLL 040750Z 26013KT 9999 FEW014 BKN020 12/08 Q1007
                        NOSIG=
201404040720 METAR COR EGLL 040720Z 25012KT 6000 FEW012 BKN014 12/09 Q1007
                        BECMG FEW014 BKN030=
201404040650 METAR COR EGLL 040650Z 26010KT 5000 HZ BKN011 12/09 Q1006
                        BECMG SCT013=
201404040620 METAR COR EGLL 040620Z 25010KT 4700 HZ FEW011 BKN014 12/09
                        Q1006 TEMPO 5000 HZ SCT014=
201404040550 METAR COR EGLL 040550Z 25008KT 3700 HZ SCT013 BKN014 12/09
                        Q1006 TEMPO SCT013 BKN020=
201404040520 METAR COR EGLL 040520Z 26008KT 3300 HZ FEW009 SCT011 BKN016
                        12/09 Q1005 TEMPO BKN012=
201404040450 METAR COR EGLL 040450Z 27010KT 4000 HZ SCT011 BKN014 12/09
                        Q1005 TEMPO SCT011 BKN020=
201404040420 METAR COR EGLL 040420Z 27008KT 4000 HZ SCT015 BKN029 11/09
                        Q1005 NOSIG=
201404040350 METAR COR EGLL 040350Z 27010KT 4000 HZ SCT014 BKN021 12/09
                        Q1005 TEMPO BKN012=
201404040320 METAR COR EGLL 040320Z 26010KT 4000 HZ SCT010 BKN013 12/09
                        Q1004 TEMPO BKN007=
201404040250 METAR COR EGLL 040250Z 27011KT 4200 HZ SCT011 BKN015 12/09
                        Q1004 TEMPO BKN006=
201404040220 METAR COR EGLL 040220Z 27010KT 4200 HZ SCT009 BKN016 12/09
                        Q1004 TEMPO BKN006=
201404040150 METAR COR EGLL 040150Z 27010KT 4000 HZ FEW008 SCT009 BKN011
                        12/10 Q1004 TEMPO BKN006=
201404040120 METAR EGLL 040120Z AUTO 26008KT 2900 HZ OVC008 12/10 Q1003=
201404040050 METAR EGLL 040050Z AUTO 26008KT 2300 HZ OVC008 12/10 Q1003=
201404040020 METAR EGLL 040020Z AUTO 25006KT 3100 HZ OVC009 12/10 Q1003=
201404032350 METAR COR EGLL 032350Z 22006KT 3400 HZ BKN010 12/10 Q1002
                        TEMPO BKN006=
201404032320 METAR COR EGLL 032320Z 22005KT 3500 HZ FEW024 SCT030 BKN035
                        12/09 Q1002 BECMG BKN010=
201404032250 METAR COR EGLL 032250Z 19005KT 3800 HZ SCT015 BKN022 12/09
                        Q1002 BECMG BKN010=
201404032220 METAR COR EGLL 032220Z 20006KT 3800 HZ BKN015 BKN021 12/09
                        Q1002 BECMG BKN010=
201404032150 METAR COR EGLL 032150Z 20006KT 4200 HZ SCT011 BKN027 12/09
                        Q1002 BECMG SCT008 BKN010=
201404032120 METAR COR EGLL 032120Z 18007KT 4500 HZ SCT011 BKN031 12/09
                        Q1002 BECMG SCT008 BKN010=
201404032050 METAR COR EGLL 032050Z 18008KT 4500 HZ BKN011 12/09 Q1001
                        TEMPO BKN008=
201404032020 METAR COR EGLL 032020Z 17009KT 5000 HZ BKN012 12/09 Q1001
                        TEMPO FEW012=
201404031950 METAR COR EGLL 031950Z 15007KT 6000 SCT020 12/09 Q1001 NOSIG=
201404031920 METAR COR EGLL 031920Z 14009KT 7000 FEW020 BKN026 13/09 Q1001
                        NOSIG=
201404031850 METAR COR EGLL 031850Z 12008KT 8000 BKN022 14/10 Q1000 NOSIG=
201404031820 METAR COR EGLL 031820Z 12009KT 9999 FEW028 BKN036 15/10 Q1000
                        NOSIG=
201404031750 METAR COR EGLL 031750Z 13007KT 9999 BKN040 15/10 Q1000 NOSIG=
201404031720 METAR COR EGLL 031720Z 12010KT 9999 SCT033 BKN041 15/10 Q1000
                        NOSIG=
201404031650 METAR COR EGLL 031650Z 16008KT 9999 SCT043 SCT046 16/10 Q1000
                        NOSIG=
201404031620 METAR COR EGLL 031620Z 16009KT 9999 FEW026 BKN048 16/11 Q0999
                        NOSIG=
201404031550 METAR COR EGLL 031550Z 14009KT 110V170 9999 BKN043 17/10
                        Q0999 NOSIG=
201404031520 METAR COR EGLL 031520Z 15010KT 9999 BKN033 17/10 Q0999 NOSIG=
201404031450 METAR COR EGLL 031450Z 15012KT 9999 FEW036 18/10 Q0999 NOSIG=
201404031420 METAR COR EGLL 031420Z 14010KT 9999 FEW036 18/10 Q0999 NOSIG=
201404031350 METAR COR EGLL 031350Z 11007KT 080V140 9999 SCT035 SCT040
                        18/10 Q0999 NOSIG=
201404031320 METAR COR EGLL 031320Z 09008KT 9999 SCT041 18/11 Q0999 NOSIG=
201404031250 METAR COR EGLL 031250Z 11009KT 080V140 8000 NSC 17/11 Q0999
                        NOSIG=
201404031220 METAR COR EGLL 031220Z 10008KT 070V130 7000 NSC 17/10 Q0999
                        NOSIG=
201404031150 METAR COR EGLL 031150Z 07007KT 6000 NSC 17/11 Q0999 NOSIG=
201404031120 METAR COR EGLL 031120Z 07008KT 5000 HZ NSC 16/11 Q0999 NOSIG=
201404031050 METAR COR EGLL 031050Z 07007KT 4700 HZ NSC 15/10 Q0999 BECMG
                        6000 NSW=
201404031020 METAR COR EGLL 031020Z 07008KT 4600 HZ NSC 14/10 Q0999 BECMG
                        6000 NSW=
201404030950 METAR COR EGLL 030950Z 06007KT 3900 HZ NSC 14/10 Q0999 NOSIG=
201404030920 METAR COR EGLL 030920Z 04007KT 3500 HZ NSC 14/10 Q0999 NOSIG=
201404030850 METAR COR EGLL 030850Z 03005KT 350V060 3500 HZ NSC 13/10
                        Q0999 NOSIG=
201404030820 METAR COR EGLL 030820Z 04006KT 3400 HZ NSC 12/10 Q0999 NOSIG=
201404030750 METAR COR EGLL 030750Z 04004KT 360V060 3400 HZ NSC 12/10
                        Q0999 NOSIG=
201404030720 METAR COR EGLL 030720Z 05005KT 3200 HZ NSC 12/10 Q1000 NOSIG=
201404030650 METAR COR EGLL 030650Z VRB03KT 3200 HZ NSC 11/09 Q1000 NOSIG=
201404030620 METAR COR EGLL 030620Z 06005KT 3000 HZ NSC 11/09 Q1000 NOSIG=
201404030550 METAR COR EGLL 030550Z 07005KT 040V110 3200 HZ NSC 11/09
                        Q0999 NOSIG=
201404030520 METAR COR EGLL 030520Z 02004KT 3200 HZ NSC 11/09 Q0999 NOSIG=
201404030450 METAR COR EGLL 030450Z 03004KT 3800 HZ NSC 11/09 Q0999 NOSIG=
201404030420 METAR COR EGLL 030420Z VRB02KT 4000 HZ NSC 12/09 Q0999 NOSIG=
201404030350 METAR COR EGLL 030350Z 05004KT 4200 HZ NSC 12/09 Q0999 NOSIG=
201404030320 METAR COR EGLL 030320Z 07005KT 4000 HZ NSC 12/09 Q1000 NOSIG=
201404030250 METAR COR EGLL 030250Z 05004KT 4200 HZ NSC 12/09 Q1000 NOSIG=
201404030220 METAR COR EGLL 030220Z 05005KT 4400 HZ NSC 13/09 Q1000 NOSIG=
201404030150 METAR COR EGLL 030150Z 05005KT 4500 HZ NSC 12/10 Q1000 NOSIG=
201404030120 METAR EGLL 030120Z AUTO 06004KT 3700 HZ NCD 12/10 Q1001=
201404030050 METAR EGLL 030050Z AUTO 07005KT 3700 HZ NCD 12/09 Q1001=
201404030020 METAR EGLL 030020Z AUTO 06004KT 3700 HZ NCD 12/09 Q1001=
201404022350 METAR COR EGLL 022350Z 08004KT 4500 HZ NSC 13/10 Q1001 NOSIG=
201404022320 METAR COR EGLL 022320Z 09006KT 4300 HZ NSC 13/10 Q1001 NOSIG=
201404022250 METAR COR EGLL 022250Z 09008KT 5000 HZ NSC 13/10 Q1001 BECMG
                        4000=
201404022220 METAR COR EGLL 022220Z 09006KT 6000 NSC 13/10 Q1001 BECMG
                        4500 HZ=
201404022150 METAR COR EGLL 022150Z 09008KT 6000 NSC 13/10 Q1001 BECMG
                        4500 HZ=
201404022120 METAR COR EGLL 022120Z 09008KT 6000 NSC 14/10 Q1001 BECMG
                        4500 HZ=
201404022050 METAR COR EGLL 022050Z 09009KT 6000 FEW048 14/10 Q1001 BECMG
                        4500 HZ=
201404022020 METAR COR EGLL 022020Z 09008KT 6000 NSC 14/10 Q1001 NOSIG=
201404021950 METAR COR EGLL 021950Z 09008KT 6000 NSC 14/10 Q1001 NOSIG=
201404021920 METAR COR EGLL 021920Z 08011KT 6000 NSC 14/10 Q1001 NOSIG=
201404021850 METAR COR EGLL 021850Z 09011KT 6000 NSC 14/10 Q1001 NOSIG=
201404021820 METAR COR EGLL 021820Z 11010KT 6000 NSC 15/10 Q1001 NOSIG=
201404021750 METAR COR EGLL 021750Z 11010KT 7000 NSC 16/10 Q1001 NOSIG=
201404021720 METAR COR EGLL 021720Z 10011KT 7000 NSC 16/10 Q1001 NOSIG=
201404021650 METAR COR EGLL 021650Z 10011KT 8000 NSC 16/10 Q1000 NOSIG=
201404021620 METAR COR EGLL 021620Z 09013KT 9000 NSC 17/10 Q1000 NOSIG=
201404021550 METAR COR EGLL 021550Z 09011KT 9000 NSC 18/10 Q1001 NOSIG=
201404021520 METAR COR EGLL 021520Z 09010KT 9000 NSC 18/10 Q1001 NOSIG=
201404021450 METAR COR EGLL 021450Z 09009KT 9000 FEW025 19/11 Q1002 NOSIG=
201404021420 METAR COR EGLL 021420Z 08008KT 9000 FEW024 18/11 Q1002 NOSIG=
201404021350 METAR EGLL 021350Z 09009KT 8000 NSC 18/11 Q1002=
201404021320 METAR COR EGLL 021320Z 09010KT 8000 NSC 19/11 Q1003 NOSIG=
201404021250 METAR COR EGLL 021250Z 09012KT 9000 NSC 18/10 Q1003 NOSIG=
201404021220 METAR COR EGLL 021220Z 09010KT 9000 NSC 18/11 Q1003 NOSIG=
201404021150 METAR COR EGLL 021150Z 08009KT 9000 NSC 17/10 Q1003 NOSIG=
201404021120 METAR COR EGLL 021120Z 07008KT 9000 NSC 17/10 Q1004 NOSIG=
201404021050 METAR COR EGLL 021050Z 09010KT 9000 NSC 17/10 Q1004 NOSIG=
201404021020 METAR COR EGLL 021020Z 09010KT 8000 NSC 17/11 Q1004 NOSIG=
201404020950 METAR COR EGLL 020950Z 09011KT 9000 NSC 16/10 Q1004 NOSIG=
201404020920 METAR COR EGLL 020920Z 09011KT 9000 NSC 15/10 Q1004 NOSIG=
201404020850 METAR COR EGLL 020850Z 09011KT 9000 NSC 15/10 Q1004 NOSIG=
201404020820 METAR COR EGLL 020820Z 08010KT 7000 NSC 13/09 Q1004 NOSIG=
201404020750 METAR COR EGLL 020750Z 09009KT 7000 NSC 12/09 Q1005 NOSIG=
201404020720 METAR COR EGLL 020720Z 08007KT 6000 NSC 11/09 Q1005 NOSIG=
201404020650 METAR COR EGLL 020650Z 08007KT 6000 NSC 11/08 Q1005 NOSIG=
201404020620 METAR COR EGLL 020620Z 08005KT 6000 NSC 11/08 Q1005 NOSIG=
201404020550 METAR COR EGLL 020550Z 08008KT 6000 NSC 11/08 Q1005 NOSIG=
201404020520 METAR COR EGLL 020520Z 09009KT 6000 NSC 11/08 Q1005 TEMPO
                        4800 HZ=
201404020450 METAR COR EGLL 020450Z 08006KT 6000 NSC 11/08 Q1005 TEMPO
                        4800 HZ=
201404020420 METAR COR EGLL 020420Z 07005KT 8000 NSC 11/08 Q1006 NOSIG=
201404020350 METAR EGLL 020350Z AUTO 07004KT 8000 NCD 10/08 Q1006=
201404020320 METAR COR EGLL 020320Z 06005KT 7000 NSC 11/08 Q1006 NOSIG=
201404020250 METAR COR EGLL 020250Z 07005KT 8000 NSC 11/08 Q1006 NOSIG=
201404020220 METAR EGLL 020220Z AUTO 07006KT 9999 NCD 12/08 Q1006=
201404020150 METAR EGLL 020150Z AUTO 06006KT 9000 NCD 12/08 Q1007=
201404020120 METAR EGLL 020120Z AUTO 07004KT 8000 NCD 11/08 Q1007=
201404020050 METAR COR EGLL 020050Z 08004KT 8000 NSC 11/08 Q1007 NOSIG=
201404020020 METAR EGLL 020020Z 09005KT 7000 NSC 11/09 Q1007=
201404012350 METAR COR EGLL 012350Z 08005KT 8000 NSC 13/09 Q1008 NOSIG=
201404012320 METAR COR EGLL 012320Z 07004KT 8000 NSC 13/09 Q1008 NOSIG=
201404012250 METAR COR EGLL 012250Z 06004KT 8000 NSC 12/09 Q1008 NOSIG=
201404012220 METAR COR EGLL 012220Z 08005KT 8000 NSC 12/09 Q1008 NOSIG=
201404012150 METAR COR EGLL 012150Z 09007KT 8000 NSC 13/09 Q1008 NOSIG=
201404012120 METAR EGLL 012120Z 09006KT 9000 NSC 13/09 Q1008=
201404012050 METAR COR EGLL 012050Z 09006KT CAVOK 14/09 Q1008 NOSIG=
201404012020 METAR COR EGLL 012020Z 08005KT CAVOK 14/09 Q1009 NOSIG=
201404011950 METAR COR EGLL 011950Z 09005KT 070V140 CAVOK 15/09 Q1009
                        NOSIG=
201404011920 METAR COR EGLL 011920Z 06005KT CAVOK 17/09 Q1008 NOSIG=
201404011850 METAR COR EGLL 011850Z 05004KT CAVOK 17/08 Q1008 NOSIG=
201404011820 METAR COR EGLL 011820Z VRB02KT CAVOK 18/08 Q1008 NOSIG=
201404011750 METAR COR EGLL 011750Z VRB02KT CAVOK 18/09 Q1008 NOSIG=
201404011720 METAR COR EGLL 011720Z VRB03KT CAVOK 18/09 Q1008 NOSIG=
201404011650 METAR COR EGLL 011650Z VRB02KT CAVOK 18/09 Q1008 NOSIG=
201404011620 METAR COR EGLL 011620Z VRB02KT CAVOK 19/09 Q1008 NOSIG=
201404011550 METAR COR EGLL 011550Z VRB02KT 9999 FEW034 19/09 Q1009 NOSIG=
201404011520 METAR COR EGLL 011520Z VRB02KT 9999 FEW034 18/09 Q1009 NOSIG=
201404011450 METAR COR EGLL 011450Z VRB02KT 9999 FEW032 18/09 Q1009 NOSIG=
201404011420 METAR COR EGLL 011420Z VRB02KT 9999 FEW032 18/09 Q1010 NOSIG=
201404011350 METAR COR EGLL 011350Z VRB02KT 9999 FEW028 16/10 Q1010 NOSIG=
201404011320 METAR COR EGLL 011320Z VRB03KT 9999 FEW010 15/11 Q1010 NOSIG=
201404011250 METAR COR EGLL 011250Z 28004KT 240V340 8000 FEW008 14/11
                        Q1011 NOSIG=
201404011220 METAR COR EGLL 011220Z 29004KT 240V360 6000 SCT008 14/11
                        Q1011 NOSIG=
201404011150 METAR COR EGLL 011150Z 33004KT 270V020 4900 HZ SCT007 BKN009
                        13/11 Q1011 BECMG 9999 NSW FEW009=
201404011120 METAR COR EGLL 011120Z VRB02KT 3600 HZ SCT004 BKN005 11/10
                        Q1011 BECMG 5000 FEW005=
201404011050 METAR COR EGLL 011050Z VRB03KT 2500 BR SCT004 BKN006 11/11
                        Q1012 BECMG 5000 HZ FEW006=
201404011020 METAR COR EGLL 011020Z VRB03KT 1500 BR SCT002 BKN003 11/10
                        Q1012 BECMG 5000 FEW006=
201404010950 METAR COR EGLL 010950Z VRB03KT 1400 0750SW R27L/P1500 R27R/P1500
                        BR SCT002 BKN003 10/10 Q1012 BECMG
                        5000 BKN005=
201404010920 METAR COR EGLL 010920Z VRB03KT 0800 R27L/0700 R27R/1100 FG
                        SCT001 BKN002 10/09 Q1012 BECMG 2000
                        BR=
201404010850 METAR COR EGLL 010850Z VRB02KT 0500 R27L/1100 R27R/0400 FG
                        BKN001 10/09 Q1012 BECMG 2000 BR
                        BKN003=
201404010820 METAR COR EGLL 010820Z VRB03KT 0300 R27L/0325 R27R/0350 FG
                        SCT000 BKN001 09/09 Q1011 BECMG 2000
                        BR BKN003=
201404010750 METAR COR EGLL 010750Z 30003KT 0150 R27L/0300 R27R/0275 FG
                        SCT000 BKN001 09/08 Q1011 BECMG 2000
                        BR BKN003=
201404010720 METAR COR EGLL 010720Z 29004KT 250V320 0200 R27L/0375 R27R/0300
                        FG BKN001 08/08 Q1011 BECMG 2000
                        BR BKN003=
201404010650 METAR COR EGLL 010650Z 29003KT 0200 R27L/0200 FG BKN000 08/08
                        Q1011 BECMG 2000 BR BKN003=
201404010620 METAR EGLL 010620Z 31004KT 0300 R27L/0375 R27R/P1500 FG BKN001
                        07/07 Q1011=
201404010550 METAR COR EGLL 010550Z 27004KT 220V290 2000 0500S R27L/0300
                        R27R/P1500 BCFG NSC 07/06 Q1011 BECMG
                        5000 HZ=
201404010520 METAR COR EGLL 010520Z VRB02KT 1900 0500S R27L/0375 R27R/0250
                        FG NSC 07/07 Q1011 BECMG 2500 BR=
201404010450 METAR COR EGLL 010450Z 00000KT 5000 2000S R27L/0175 BCFG
                        NSC 08/07 Q1011 TEMPO 1500 BR=
201404010420 METAR COR EGLL 010420Z 00000KT 6000 VCFG NSC 09/08 Q1011
                        TEMPO 1500 BR=
201404010350 METAR COR EGLL 010350Z 00000KT 7000 VCFG NSC 09/09 Q1011
                        TEMPO 1800 BR=
201404010320 METAR COR EGLL 010320Z 00000KT 7000 BCFG NSC 09/09 Q1011
                        TEMPO 2500 BR=
201404010250 METAR COR EGLL 010250Z 00000KT 7000 NSC 10/09 Q1011 BECMG
                        4500 BR=
201404010220 METAR COR EGLL 010220Z VRB02KT 6000 SCT027 10/09 Q1011 TEMPO
                        4500 BR=
201404010150 METAR COR EGLL 010150Z VRB02KT 7000 BKN025 11/09 Q1011 TEMPO
                        4500 BR=
201404010120 METAR EGLL 010120Z AUTO 35002KT 7000 NCD 11/10 Q1011=
201404010050 METAR EGLL 010050Z AUTO VRB02KT 6000 NCD 11/10 Q1011=
201404010020 METAR EGLL 010020Z AUTO VRB03KT 9000 //////TCU 11/10 Q1011=

</pre>

</body>
</html>
