##########################################################
# Query made at 12/27/2012 09:34:14 UTC
# Time interval: from 04/01/2010 00:00  to 05/01/2010 23:59  UTC
##########################################################

##########################################################
# EGLL, London / Heathrow Airport (United Kingdom)
# WMO index: 03772
# Latitude 51-29N. Longitude 000-27W. Altitude 24 m.
##########################################################

###################################
#  METAR/SPECI from EGLL
###################################
201004302350 METAR COR EGLL 302350Z 25006KT 9999 FEW018 BKN029 10/09 Q1009
                        NOSIG=
201004302320 METAR COR EGLL 302320Z 24007KT 9999 FEW022 BKN026 10/09 Q1009
                        RESHRA NOSIG=
201004302250 METAR COR EGLL 302250Z 23008KT 6000 SHRA FEW015 SCT018 BKN040
                        10/09 Q1009 BECMG 9999 NSW=
201004302220 METAR COR EGLL 302220Z 24010KT 9999 FEW020 SCT025 10/09 Q1009
                        TEMPO SHRA=
201004302150 METAR COR EGLL 302150Z 23010KT 200V260 9999 FEW026 11/09
                        Q1009 RESHRA TEMPO 5000 SHRA=
201004302120 METAR COR EGLL 302120Z 24011KT 7000 SHRA FEW019 SCT030 BKN048
                        11/09 Q1009 TEMPO 5000 BKN014=
201004302050 METAR COR EGLL 302050Z 25009KT 200V270 7000 SHRA FEW016CB
                        SCT019 BKN027 11/10 Q1009 TEMPO 5000
                        SHRA BKN014=
201004302020 METAR COR EGLL 302020Z 23009KT 180V250 9999 -SHRA SCT022
                        BKN027 12/10 Q1009 TEMPO SHRA=
201004301950 METAR COR EGLL 301950Z 24009KT 190V260 9999 -SHRA SCT020
                        BKN034 11/10 Q1009 TEMPO SHRA=
201004301920 METAR COR EGLL 301920Z 26010KT 9999 -SHRA SCT022 SCT028 11/10
                        Q1009 TEMPO SHRA=
201004301850 METAR COR EGLL 301850Z 26016KT 9999 -SHRA FEW025CB SCT045
                        12/09 Q1009 RERA TEMPO SHRA=
201004301820 METAR COR EGLL 301820Z 26012KT 9999 VCSH SCT030CB SCT038
                        13/08 Q1008 TEMPO SHRA=
201004301750 METAR COR EGLL 301750Z 25016KT 9999 SCT034CB BKN041 14/07
                        Q1008 NOSIG=
201004301720 METAR COR EGLL 301720Z 24015KT 9999 -SHRA SCT039CB BKN041
                        14/07 Q1008 TEMPO SHRA=
201004301650 METAR COR EGLL 301650Z 22014G24KT 9999 SCT039 BKN049 15/07
                        Q1008 TEMPO SHRA=
201004301620 METAR COR EGLL 301620Z 22014KT 9999 SCT037 SCT047 15/07 Q1008
                        TEMPO 24015G28KT SHRA=
201004301550 METAR COR EGLL 301550Z 23013KT 9999 SCT029 SCT045 15/08 Q1008
                        TEMPO 25015G25KT SHRA=
201004301520 METAR COR EGLL 301520Z 20010KT 180V240 9999 FEW027CB SCT029
                        15/09 Q1009 TEMPO SHRA=
201004301450 METAR COR EGLL 301450Z 20011KT 160V250 9999 VCSH FEW027CB
                        SCT032 SCT042 14/09 Q1009 TEMPO 25015G25KT
                        SHRA=
201004301420 METAR COR EGLL 301420Z 22011KT 180V250 9999 VCSH FEW023CB
                        SCT039 SCT049 14/08 Q1010 TEMPO 25015G25KT
                        SHRA=
201004301350 METAR COR EGLL 301350Z 22014KT 9999 VCSH FEW020CB SCT032
                        BKN037 14/08 Q1010 TEMPO 25017G27KT
                        SHRA=
201004301320 METAR COR EGLL 301320Z 23011KT 9999 -SHRA SCT020CB SCT037
                        14/07 Q1010 TEMPO 25015G25KT SHRA=
201004301250 METAR COR EGLL 301250Z 24012KT 9999 -SHRA SCT032 SCT039 13/07
                        Q1010 TEMPO 25015G25KT SHRA=
201004301220 METAR COR EGLL 301220Z 24013KT 9999 FEW033 BKN043 13/07 Q1010
                        TEMPO 27015G25KT=
201004301150 METAR COR EGLL 301150Z 24013KT 9999 FEW038 BKN046 14/06 Q1010
                        TEMPO 27018G28KT=
201004301120 METAR COR EGLL 301120Z 25014KT 9999 FEW032 SCT044 14/06 Q1010
                        TEMPO 27018G28KT=
201004301050 METAR COR EGLL 301050Z 25015KT 9999 FEW037 SCT043 15/07 Q1010
                        TEMPO 27018G28KT=
201004301020 METAR COR EGLL 301020Z 27016KT 9999 FEW032 SCT038 14/06 Q1010
                        TEMPO 27018G28KT=
201004300950 METAR COR EGLL 300950Z 24013KT 9999 FEW026 SCT033 14/07 Q1010
                        TEMPO 25015G25KT=
201004300920 METAR COR EGLL 300920Z 25012KT 9999 FEW023 SCT028 13/07 Q1010
                        NOSIG=
201004300850 METAR COR EGLL 300850Z 25013KT 9999 SCT019 13/08 Q1010 NOSIG=
201004300820 METAR COR EGLL 300820Z 26012KT 9999 SCT018 12/08 Q1010 NOSIG=
201004300750 METAR COR EGLL 300750Z 26014KT 9999 SCT017 11/08 Q1010 NOSIG=
201004300720 METAR COR EGLL 300720Z 26011KT 9999 SCT014 10/08 Q1010 NOSIG=
201004300650 METAR COR EGLL 300650Z 25012KT 9999 FEW011 10/08 Q1010 NOSIG=
201004300620 METAR COR EGLL 300620Z 24011KT 9999 FEW010 09/07 Q1010 NOSIG=
201004300550 METAR COR EGLL 300550Z 24010KT 9999 FEW016 08/07 Q1009 NOSIG=
201004300520 METAR COR EGLL 300520Z 25009KT 9999 FEW020 08/06 Q1009 NOSIG=
201004300450 METAR COR EGLL 300450Z 26011KT 9999 FEW016 07/06 Q1009 NOSIG=
201004300420 METAR COR EGLL 300420Z 27009KT CAVOK 07/06 Q1009 NOSIG=
201004300350 METAR EGLL 300350Z 26010KT CAVOK 08/06 Q1009=
201004300320 METAR COR EGLL 300320Z 26009KT 9999 FEW015 08/06 Q1009 NOSIG=
201004300250 METAR EGLL 300250Z 27009KT CAVOK 09/07 Q1008=
201004300220 METAR COR EGLL 300220Z 28012KT 9999 BKN042 09/07 Q1008 NOSIG=
201004300150 METAR COR EGLL 300150Z 29011KT 9999 FEW009 SCT035 BKN041
                        10/07 Q1008 NOSIG=
201004300120 METAR COR EGLL 300120Z 28011KT 9999 FEW008 BKN012 10/09 Q1008
                        TEMPO SCT012=
201004300050 METAR COR EGLL 300050Z 28011KT 9999 BKN020 10/09 Q1008 NOSIG=
201004300020 METAR COR EGLL 300020Z 28010KT 8000 -RA FEW005 SCT012 BKN030
                        11/10 Q1007 NOSIG=
201004292350 METAR COR EGLL 292350Z 29010KT 4500 -RA SCT008 SCT015 12/11
                        Q1007 BECMG 7000=
201004292320 METAR COR EGLL 292320Z 29007KT 6000 FEW007 SCT010 BKN030
                        13/11 Q1007 NOSIG=
201004292250 METAR COR EGLL 292250Z 28007KT 9000 FEW007 SCT010 BKN025
                        13/12 Q1007 NOSIG=
201004292220 METAR COR EGLL 292220Z 29010KT 6000 -RA SCT007 SCT013 13/12
                        Q1006 TEMPO BKN012=
201004292150 METAR COR EGLL 292150Z 25009KT 5000 -RA FEW008 SCT012 BKN033
                        14/13 Q1006 RERA TEMPO RADZ BKN010=
201004292120 METAR COR EGLL 292120Z 26011KT 7000 -RA BKN033 14/12 Q1006
                        TEMPO RADZ BKN010=
201004292050 METAR COR EGLL 292050Z 27012KT 6000 -DZ BKN034 14/12 Q1007
                        TEMPO RADZ BKN010=
201004292020 METAR COR EGLL 292020Z 27008KT 9999 BKN042 15/12 Q1007 NOSIG=
201004291950 METAR EGLL 291950Z 29004KT 9999 FEW040 SCT046 15/12 Q1006=
201004291920 METAR COR EGLL 291920Z 27007KT 9999 SCT045 15/12 Q1007 NOSIG=
201004291850 METAR COR EGLL 291850Z 28006KT CAVOK 15/12 Q1007 NOSIG=
201004291820 METAR COR EGLL 291820Z 26004KT 210V320 CAVOK 16/12 Q1007
                        NOSIG=
201004291750 METAR COR EGLL 291750Z VRB03KT CAVOK 17/11 Q1007 NOSIG=
201004291720 METAR COR EGLL 291720Z VRB03KT CAVOK 17/11 Q1007 NOSIG=
201004291650 METAR COR EGLL 291650Z VRB02KT CAVOK 16/11 Q1007 NOSIG=
201004291620 METAR COR EGLL 291620Z VRB02KT CAVOK 16/11 Q1008 NOSIG=
201004291550 METAR COR EGLL 291550Z VRB03KT CAVOK 16/11 Q1008 NOSIG=
201004291520 METAR COR EGLL 291520Z 35004KT CAVOK 16/11 Q1008 NOSIG=
201004291450 METAR COR EGLL 291450Z 03005KT 350V070 CAVOK 16/11 Q1009
                        NOSIG=
201004291420 METAR COR EGLL 291420Z VRB03KT 9999 FEW046 16/12 Q1009 NOSIG=
201004291350 METAR COR EGLL 291350Z 30005KT 260V350 9999 -RA FEW018 SCT028
                        16/12 Q1010 TEMPO RA=
201004291320 METAR COR EGLL 291320Z 29008KT 9999 -RA BKN028 17/11 Q1011
                        TEMPO RA=
201004291250 METAR COR EGLL 291250Z 27007KT 9999 SCT029 17/11 Q1010 TEMPO
                        RA=
201004291220 METAR COR EGLL 291220Z 29005KT 250V330 9999 FEW030 BKN048
                        17/11 Q1010 NOSIG=
201004291150 METAR COR EGLL 291150Z 28006KT 9999 BKN040 17/11 Q1011 TEMPO
                        RA=
201004291120 METAR COR EGLL 291120Z 28005KT 220V310 9999 FEW047 17/11
                        Q1011 TEMPO RA=
201004291050 METAR COR EGLL 291050Z 25005KT 210V290 CAVOK 17/11 Q1011
                        TEMPO RA=
201004291020 METAR COR EGLL 291020Z 26006KT CAVOK 16/11 Q1011 TEMPO RA=
201004290950 METAR COR EGLL 290950Z VRB03KT CAVOK 15/10 Q1011 TEMPO RA=
201004290920 METAR COR EGLL 290920Z 27005KT 220V300 CAVOK 15/10 Q1012
                        NOSIG=
201004290850 METAR COR EGLL 290850Z 23005KT 200V260 CAVOK 14/10 Q1012
                        NOSIG=
201004290820 METAR COR EGLL 290820Z 25004KT 190V300 CAVOK 14/09 Q1012
                        NOSIG=
201004290750 METAR COR EGLL 290750Z VRB03KT 9000 NSC 14/09 Q1012 NOSIG=
201004290720 METAR COR EGLL 290720Z 25005KT 210V280 8000 NSC 13/09 Q1013
                        NOSIG=
201004290650 METAR COR EGLL 290650Z 28005KT CAVOK 12/08 Q1013 NOSIG=
201004290620 METAR COR EGLL 290620Z VRB02KT CAVOK 12/08 Q1012 NOSIG=
201004290550 METAR COR EGLL 290550Z 27004KT CAVOK 11/08 Q1012 NOSIG=
201004290520 METAR COR EGLL 290520Z 25006KT CAVOK 10/08 Q1013 NOSIG=
201004290450 METAR EGLL 290450Z 23003KT CAVOK 10/07 Q1013=
201004290420 METAR EGLL 290420Z 00000KT CAVOK 10/08 Q1013=
201004290350 METAR COR EGLL 290350Z 28004KT CAVOK 11/08 Q1013 NOSIG=
201004290320 METAR COR EGLL 290320Z 25005KT CAVOK 11/08 Q1013 NOSIG=
201004290250 METAR COR EGLL 290250Z 22007KT CAVOK 12/08 Q1013 NOSIG=
201004290220 METAR COR EGLL 290220Z 22005KT CAVOK 12/08 Q1013 NOSIG=
201004290150 METAR COR EGLL 290150Z 00000KT CAVOK 12/07 Q1014 NOSIG=
201004290120 METAR COR EGLL 290120Z 28004KT CAVOK 11/08 Q1014 NOSIG=
201004290050 METAR COR EGLL 290050Z 27004KT CAVOK 12/08 Q1015 NOSIG=
201004290020 METAR COR EGLL 290020Z 19003KT CAVOK 13/08 Q1015 NOSIG=
201004282350 METAR COR EGLL 282350Z 17004KT CAVOK 13/08 Q1015 NOSIG=
201004282320 METAR COR EGLL 282320Z 18005KT CAVOK 13/08 Q1015 NOSIG=
201004282250 METAR COR EGLL 282250Z 18005KT CAVOK 13/08 Q1015 NOSIG=
201004282220 METAR COR EGLL 282220Z 20006KT CAVOK 13/08 Q1015 NOSIG=
201004282150 METAR COR EGLL 282150Z 20008KT 160V250 CAVOK 14/08 Q1016
                        NOSIG=
201004282120 METAR COR EGLL 282120Z 20006KT 140V250 CAVOK 15/08 Q1016
                        NOSIG=
201004282050 METAR COR EGLL 282050Z 18007KT 150V240 CAVOK 15/07 Q1016
                        NOSIG=
201004282020 METAR COR EGLL 282020Z 19007KT 160V240 CAVOK 16/07 Q1016
                        NOSIG=
201004281950 METAR COR EGLL 281950Z 19007KT 160V240 CAVOK 16/07 Q1016
                        NOSIG=
201004281920 METAR COR EGLL 281920Z 20009KT 170V240 CAVOK 17/07 Q1016
                        NOSIG=
201004281850 METAR COR EGLL 281850Z 19009KT 160V230 CAVOK 17/07 Q1016
                        NOSIG=
201004281820 METAR COR EGLL 281820Z 19009KT 150V230 CAVOK 18/07 Q1017
                        NOSIG=
201004281750 METAR COR EGLL 281750Z 19011KT 170V230 CAVOK 18/07 Q1017
                        NOSIG=
201004281720 METAR COR EGLL 281720Z 19011KT 160V240 CAVOK 19/07 Q1017
                        NOSIG=
201004281650 METAR COR EGLL 281650Z 20010KT 160V240 CAVOK 19/07 Q1017
                        NOSIG=
201004281620 METAR COR EGLL 281620Z 20011KT 170V240 CAVOK 19/06 Q1017
                        NOSIG=
201004281550 METAR COR EGLL 281550Z 19012KT 150V240 CAVOK 20/05 Q1018
                        NOSIG=
201004281520 METAR COR EGLL 281520Z 19013KT 160V220 CAVOK 20/05 Q1018
                        NOSIG=
201004281450 METAR COR EGLL 281450Z 19012KT 160V230 CAVOK 21/06 Q1018
                        NOSIG=
201004281420 METAR COR EGLL 281420Z 17011KT 120V220 CAVOK 21/07 Q1019
                        NOSIG=
201004281350 METAR COR EGLL 281350Z 20012KT CAVOK 20/06 Q1019 NOSIG=
201004281320 METAR COR EGLL 281320Z 19014KT 180V250 CAVOK 21/07 Q1019
                        NOSIG=
201004281250 METAR COR EGLL 281250Z 20011KT 180V240 CAVOK 20/08 Q1020
                        NOSIG=
201004281220 METAR COR EGLL 281220Z 19013KT 170V240 CAVOK 20/07 Q1020
                        NOSIG=
201004281150 METAR COR EGLL 281150Z 19013KT CAVOK 20/08 Q1020 NOSIG=
201004281120 METAR COR EGLL 281120Z 20012G22KT CAVOK 20/08 Q1021 NOSIG=
201004281050 METAR COR EGLL 281050Z 20009KT 170V240 CAVOK 19/08 Q1021
                        NOSIG=
201004281020 METAR COR EGLL 281020Z 21010KT 170V260 CAVOK 19/08 Q1021
                        NOSIG=
201004280950 METAR COR EGLL 280950Z 18009KT CAVOK 18/08 Q1021 NOSIG=
201004280920 METAR COR EGLL 280920Z 20009KT 150V250 CAVOK 17/08 Q1021
                        NOSIG=
201004280850 METAR COR EGLL 280850Z 18008KT 130V210 CAVOK 16/09 Q1022
                        NOSIG=
201004280820 METAR COR EGLL 280820Z 19007KT CAVOK 15/09 Q1022 NOSIG=
201004280750 METAR COR EGLL 280750Z 18005KT 140V220 CAVOK 14/08 Q1022
                        NOSIG=
201004280720 METAR COR EGLL 280720Z 15004KT 110V250 CAVOK 12/08 Q1022
                        NOSIG=
201004280650 METAR COR EGLL 280650Z 14005KT 110V180 CAVOK 11/08 Q1022
                        NOSIG=
201004280620 METAR COR EGLL 280620Z VRB03KT 9000 NSC 10/07 Q1023 NOSIG=
201004280550 METAR COR EGLL 280550Z 22004KT 170V280 CAVOK 09/07 Q1023
                        NOSIG=
201004280520 METAR COR EGLL 280520Z 15004KT 100V200 CAVOK 09/07 Q1023
                        NOSIG=
201004280450 METAR COR EGLL 280450Z 19002KT CAVOK 09/07 Q1023 NOSIG=
201004280420 METAR COR EGLL 280420Z 19004KT CAVOK 08/06 Q1023 NOSIG=
201004280350 METAR COR EGLL 280350Z 21002KT CAVOK 08/06 Q1023 NOSIG=
201004280320 METAR COR EGLL 280320Z 18002KT CAVOK 09/06 Q1023 NOSIG=
201004280250 METAR COR EGLL 280250Z 19002KT CAVOK 10/07 Q1024 NOSIG=
201004280220 METAR COR EGLL 280220Z 15003KT CAVOK 09/06 Q1024 NOSIG=
201004280150 METAR COR EGLL 280150Z 00000KT CAVOK 10/07 Q1024 NOSIG=
201004280120 METAR COR EGLL 280120Z 14003KT CAVOK 10/07 Q1025 NOSIG=
201004280050 METAR COR EGLL 280050Z 16003KT CAVOK 10/07 Q1025 NOSIG=
201004280020 METAR COR EGLL 280020Z 17002KT CAVOK 10/07 Q1025 NOSIG=
201004272350 METAR COR EGLL 272350Z 16004KT CAVOK 11/07 Q1026 NOSIG=
201004272320 METAR COR EGLL 272320Z 22005KT CAVOK 10/07 Q1026 NOSIG=
201004272250 METAR COR EGLL 272250Z 22005KT CAVOK 12/07 Q1026 NOSIG=
201004272220 METAR COR EGLL 272220Z 20006KT CAVOK 12/07 Q1026 NOSIG=
201004272150 METAR COR EGLL 272150Z 19006KT 160V250 CAVOK 13/08 Q1026
                        NOSIG=
201004272120 METAR COR EGLL 272120Z 19007KT 130V240 CAVOK 13/08 Q1026
                        NOSIG=
201004272050 METAR COR EGLL 272050Z 20009KT 160V250 CAVOK 14/07 Q1026
                        NOSIG=
201004272020 METAR COR EGLL 272020Z 19009KT 150V250 CAVOK 15/07 Q1026
                        NOSIG=
201004271950 METAR COR EGLL 271950Z 20008KT 160V240 CAVOK 15/06 Q1026
                        NOSIG=
201004271920 METAR COR EGLL 271920Z 20009KT CAVOK 16/05 Q1026 NOSIG=
201004271850 METAR COR EGLL 271850Z 20009KT 170V260 CAVOK 17/05 Q1025
                        NOSIG=
201004271820 METAR COR EGLL 271820Z 20008KT 180V240 CAVOK 18/06 Q1025
                        NOSIG=
201004271750 METAR COR EGLL 271750Z 20009KT 180V240 CAVOK 19/06 Q1025
                        NOSIG=
201004271720 METAR COR EGLL 271720Z 19010KT 170V230 CAVOK 19/07 Q1026
                        NOSIG=
201004271650 METAR COR EGLL 271650Z 20010KT 180V250 CAVOK 19/08 Q1026
                        NOSIG=
201004271620 METAR COR EGLL 271620Z 20012G22KT 170V240 CAVOK 19/07 Q1026
                        NOSIG=
201004271550 METAR COR EGLL 271550Z 18011KT 160V230 CAVOK 19/07 Q1026
                        NOSIG=
201004271520 METAR COR EGLL 271520Z 18011KT 130V240 CAVOK 19/07 Q1026
                        NOSIG=
201004271450 METAR COR EGLL 271450Z 19008KT 150V250 CAVOK 20/07 Q1026
                        NOSIG=
201004271420 METAR COR EGLL 271420Z 18009KT 140V230 CAVOK 20/07 Q1026
                        NOSIG=
201004271350 METAR COR EGLL 271350Z 18006KT 130V250 CAVOK 20/07 Q1027
                        NOSIG=
201004271320 METAR COR EGLL 271320Z VRB04KT CAVOK 20/07 Q1027 NOSIG=
201004271250 METAR COR EGLL 271250Z VRB03KT CAVOK 20/07 Q1027 NOSIG=
201004271220 METAR COR EGLL 271220Z VRB05G17KT 9999 FEW049 20/06 Q1028
                        NOSIG=
201004271150 METAR COR EGLL 271150Z 20005KT 140V250 9999 FEW048 19/07
                        Q1028 NOSIG=
201004271120 METAR COR EGLL 271120Z VRB04KT 9999 FEW048 19/07 Q1028 NOSIG=
201004271050 METAR COR EGLL 271050Z VRB03KT 9999 FEW048 18/07 Q1028 NOSIG=
201004271020 METAR COR EGLL 271020Z 17005KT 100V270 9999 FEW048 18/07
                        Q1028 NOSIG=
201004270950 METAR COR EGLL 270950Z VRB04KT CAVOK 17/07 Q1028 NOSIG=
201004270920 METAR COR EGLL 270920Z VRB04KT CAVOK 17/08 Q1028 NOSIG=
201004270850 METAR COR EGLL 270850Z 14005KT 100V180 CAVOK 16/08 Q1028
                        NOSIG=
201004270820 METAR COR EGLL 270820Z 14004KT 080V180 CAVOK 15/08 Q1028
                        NOSIG=
201004270750 METAR COR EGLL 270750Z 09005KT 050V150 CAVOK 13/08 Q1028
                        NOSIG=
201004270720 METAR COR EGLL 270720Z VRB03KT CAVOK 12/08 Q1028 NOSIG=
201004270650 METAR COR EGLL 270650Z VRB03KT CAVOK 10/07 Q1028 NOSIG=
201004270620 METAR COR EGLL 270620Z VRB02KT CAVOK 09/07 Q1028 NOSIG=
201004270550 METAR COR EGLL 270550Z VRB02KT CAVOK 08/07 Q1028 NOSIG=
201004270520 METAR COR EGLL 270520Z 30003KT CAVOK 07/06 Q1028 NOSIG=
201004270450 METAR COR EGLL 270450Z 31003KT CAVOK 07/06 Q1027 NOSIG=
201004270420 METAR COR EGLL 270420Z 32004KT CAVOK 07/07 Q1027 NOSIG=
201004270350 METAR COR EGLL 270350Z 31004KT 8000 NSC 08/06 Q1027 NOSIG=
201004270320 METAR COR EGLL 270320Z 28004KT 9000 NSC 07/06 Q1028 NOSIG=
201004270250 METAR COR EGLL 270250Z 29003KT CAVOK 08/07 Q1028 NOSIG=
201004270220 METAR COR EGLL 270220Z 30003KT CAVOK 08/07 Q1028 NOSIG=
201004270150 METAR COR EGLL 270150Z 32003KT CAVOK 09/07 Q1028 NOSIG=
201004270120 METAR COR EGLL 270120Z VRB03KT CAVOK 09/07 Q1028 NOSIG=
201004270050 METAR COR EGLL 270050Z 28003KT CAVOK 10/08 Q1028 NOSIG=
201004270020 METAR COR EGLL 270020Z 29004KT CAVOK 10/08 Q1028 NOSIG=
201004262350 METAR COR EGLL 262350Z 28004KT CAVOK 10/08 Q1027 NOSIG=
201004262320 METAR COR EGLL 262320Z 28004KT CAVOK 11/08 Q1027 NOSIG=
201004262250 METAR COR EGLL 262250Z 27007KT CAVOK 10/07 Q1027 NOSIG=
201004262220 METAR COR EGLL 262220Z 28007KT CAVOK 11/08 Q1027 NOSIG=
201004262150 METAR COR EGLL 262150Z 28007KT CAVOK 12/08 Q1027 NOSIG=
201004262120 METAR COR EGLL 262120Z 29005KT CAVOK 12/08 Q1027 NOSIG=
201004262050 METAR COR EGLL 262050Z 30004KT CAVOK 13/08 Q1027 NOSIG=
201004262020 METAR COR EGLL 262020Z 29003KT CAVOK 14/08 Q1027 NOSIG=
201004261950 METAR COR EGLL 261950Z 31004KT CAVOK 15/08 Q1027 NOSIG=
201004261920 METAR COR EGLL 261920Z 30005KT CAVOK 15/08 Q1026 NOSIG=
201004261850 METAR COR EGLL 261850Z 29006KT CAVOK 16/08 Q1026 NOSIG=
201004261820 METAR COR EGLL 261820Z 28008KT 9999 FEW048 16/08 Q1026 NOSIG=
201004261750 METAR COR EGLL 261750Z 28008KT 9999 FEW048 17/08 Q1026 NOSIG=
201004261720 METAR COR EGLL 261720Z 27011KT 9999 FEW046 18/07 Q1026 NOSIG=
201004261650 METAR COR EGLL 261650Z 27010KT CAVOK 17/08 Q1025 NOSIG=
201004261620 METAR COR EGLL 261620Z 27009KT 9999 FEW040 17/08 Q1025 NOSIG=
201004261550 METAR COR EGLL 261550Z 29008KT 9999 FEW042 17/08 Q1025 NOSIG=
201004261520 METAR COR EGLL 261520Z 27010KT 9999 FEW043 17/07 Q1025 NOSIG=
201004261450 METAR COR EGLL 261450Z 26012KT 9999 FEW040 18/08 Q1025 NOSIG=
201004261420 METAR COR EGLL 261420Z 28007KT 9999 FEW034 17/08 Q1025 NOSIG=
201004261350 METAR COR EGLL 261350Z 27008KT 9999 SCT034 17/08 Q1025 NOSIG=
201004261320 METAR COR EGLL 261320Z 23007KT 180V280 9999 FEW025 BKN030
                        18/09 Q1025 NOSIG=
201004261250 METAR COR EGLL 261250Z 25007KT 220V280 9999 FEW024 BKN030
                        18/10 Q1025 NOSIG=
201004261220 METAR COR EGLL 261220Z 25007KT 170V300 9999 FEW023 SCT031
                        16/09 Q1025 NOSIG=
201004261150 METAR COR EGLL 261150Z 26008KT 9999 SCT019 BKN032 15/10 Q1026
                        NOSIG=
201004261120 METAR COR EGLL 261120Z 26009KT 9999 SCT018 BKN025 14/10 Q1026
                        NOSIG=
201004261050 METAR COR EGLL 261050Z 26008KT 220V290 9999 FEW019 BKN028
                        14/10 Q1026 NOSIG=
201004261020 METAR COR EGLL 261020Z 25008KT 210V290 9999 FEW016 BKN022
                        13/09 Q1026 NOSIG=
201004260950 METAR COR EGLL 260950Z 26007KT 220V290 9999 FEW014 BKN022
                        12/09 Q1025 NOSIG=
201004260920 METAR COR EGLL 260920Z 25008KT 9999 FEW015 BKN021 12/09 Q1025
                        NOSIG=
201004260850 METAR COR EGLL 260850Z 26008KT 9999 FEW016 BKN019 12/09 Q1025
                        NOSIG=
201004260820 METAR COR EGLL 260820Z 26009KT 9999 FEW015 BKN018 12/09 Q1025
                        NOSIG=
201004260750 METAR COR EGLL 260750Z 27009KT 9999 FEW016 BKN025 11/09 Q1025
                        NOSIG=
201004260720 METAR COR EGLL 260720Z 24008KT 9999 SCT017 BKN025 11/09 Q1025
                        NOSIG=
201004260650 METAR COR EGLL 260650Z 23008KT 9999 SCT019 BKN024 11/09 Q1024
                        NOSIG=
201004260620 METAR COR EGLL 260620Z 22007KT 9999 BKN026 10/08 Q1024 NOSIG=
201004260550 METAR COR EGLL 260550Z 22008KT 9999 BKN023 10/08 Q1024 NOSIG=
201004260520 METAR COR EGLL 260520Z 24008KT 9999 BKN026 10/08 Q1024 NOSIG=
201004260450 METAR COR EGLL 260450Z 24008KT 9999 BKN028 09/08 Q1024 NOSIG=
201004260420 METAR COR EGLL 260420Z 24006KT 9999 BKN028 09/08 Q1024 NOSIG=
201004260350 METAR COR EGLL 260350Z 20004KT 9999 FEW012 08/07 Q1023 TEMPO
                        BKN012=
201004260320 METAR COR EGLL 260320Z 21005KT CAVOK 08/07 Q1023 NOSIG=
201004260250 METAR COR EGLL 260250Z 23005KT 9999 BKN012 09/08 Q1023 TEMPO
                        FEW012=
201004260220 METAR COR EGLL 260220Z 20004KT 9999 FEW012 08/07 Q1023 NOSIG=
201004260150 METAR COR EGLL 260150Z 25006KT 9999 FEW012 08/07 Q1023 NOSIG=
201004260120 METAR COR EGLL 260120Z 27006KT CAVOK 09/08 Q1023 NOSIG=
201004260050 METAR COR EGLL 260050Z 25008KT CAVOK 08/07 Q1023 NOSIG=
201004260020 METAR COR EGLL 260020Z 25007KT CAVOK 09/07 Q1023 NOSIG=
201004252350 METAR COR EGLL 252350Z 25009KT CAVOK 09/08 Q1023 NOSIG=
201004252320 METAR COR EGLL 252320Z 26009KT CAVOK 10/08 Q1023 NOSIG=
201004252250 METAR COR EGLL 252250Z 24008KT CAVOK 10/08 Q1023 NOSIG=
201004252220 METAR COR EGLL 252220Z 24007KT CAVOK 10/08 Q1023 NOSIG=
201004252150 METAR COR EGLL 252150Z 24009KT CAVOK 11/09 Q1022 NOSIG=
201004252120 METAR COR EGLL 252120Z 25011KT CAVOK 11/09 Q1022 NOSIG=
201004252050 METAR COR EGLL 252050Z 24010KT CAVOK 12/09 Q1022 NOSIG=
201004252020 METAR EGLL 252020Z 23011KT CAVOK 13/09 Q1022=
201004251950 METAR COR EGLL 251950Z 23011KT CAVOK 13/10 Q1022 NOSIG=
201004251920 METAR COR EGLL 251920Z 24011KT CAVOK 13/10 Q1021 NOSIG=
201004251850 METAR COR EGLL 251850Z 24010KT 9999 FEW040 13/10 Q1021 NOSIG=
201004251820 METAR COR EGLL 251820Z 25011KT 9999 FEW045 13/10 Q1021 NOSIG=
201004251750 METAR EGLL 251750Z 24011KT 9999 VCSH FEW045 14/11 Q1021=
201004251720 METAR COR EGLL 251720Z 25013KT 9999 7000NE -SHRA SCT030 SCT040
                        14/11 Q1021 NOSIG=
201004251650 METAR COR EGLL 251650Z 23015KT 9999 FEW030 16/09 Q1020 NOSIG=
201004251620 METAR EGLL 251620Z 23014KT 9999 FEW033 17/09 Q1020=
201004251550 METAR EGLL 251550Z 23014KT 9999 FEW034 SCT040 18/09 Q1019=
201004251520 METAR EGLL 251520Z 22013KT 9999 SCT039 18/09 Q1019=
201004251450 METAR EGLL 251450Z 22011KT 9999 FEW033 SCT041 18/09 Q1019=
201004251420 METAR EGLL 251420Z 22011KT 180V260 9999 FEW043 18/09 Q1019=
201004251350 METAR EGLL 251350Z 23011KT 200V270 9999 FEW036 18/10 Q1020=
201004251320 METAR COR EGLL 251320Z 24010KT 180V270 9999 FEW029 BKN049
                        17/10 Q1020 NOSIG=
201004251250 METAR COR EGLL 251250Z 24010KT 9999 SCT027 17/10 Q1020 NOSIG=
201004251220 METAR COR EGLL 251220Z 24010KT 210V280 9999 SCT024 SCT030
                        16/10 Q1020 NOSIG=
201004251150 METAR COR EGLL 251150Z 22011KT 200V260 9999 SCT019 SCT027
                        15/11 Q1020 NOSIG=
201004251120 METAR COR EGLL 251120Z 24011KT 9999 SCT015 BKN019 13/11 Q1020
                        NOSIG=
201004251050 METAR COR EGLL 251050Z 24008KT 190V270 9999 BKN011 14/11
                        Q1020 BECMG SCT020=
201004251020 METAR COR EGLL 251020Z 22009KT 9000 SCT010 BKN014 13/12 Q1020
                        BECMG SCT020=
201004250950 METAR COR EGLL 250950Z 22007KT 170V260 6000 BKN010 13/11
                        Q1020 BECMG SCT010=
201004250920 METAR COR EGLL 250920Z 22006KT 180V250 3000 BR FEW007 SCT022
                        12/10 Q1020 RERA REDZ BECMG 7000
                        NSW=
201004250850 METAR COR EGLL 250850Z 23006KT 2300 RADZ FEW009 SCT029 11/10
                        Q1020 BECMG 7000 NSW=
201004250820 METAR COR EGLL 250820Z 22005KT 180V260 5000 -RA FEW017 SCT048
                        12/09 Q1019 NOSIG=
201004250750 METAR COR EGLL 250750Z 21006KT 170V250 6000 SCT020 11/07
                        Q1019 NOSIG=
201004250720 METAR COR EGLL 250720Z 25006KT 5000 RA FEW046 11/07 Q1019
                        TEMPO BKN012=
201004250650 METAR COR EGLL 250650Z 25005KT 200V290 8000 NSC 12/05 Q1019
                        TEMPO 4000 RA BKN012=
201004250620 METAR COR EGLL 250620Z 29004KT 9000 NSC 12/05 Q1018 TEMPO
                        4500 RA BKN012=
201004250550 METAR COR EGLL 250550Z VRB02KT 8000 NSC 12/06 Q1018 NOSIG=
201004250520 METAR EGLL 250520Z 27003KT 9000 NSC 11/06 Q1018=
201004250450 METAR COR EGLL 250450Z 29002KT 8000 NSC 11/05 Q1018 NOSIG=
201004250420 METAR COR EGLL 250420Z 30002KT 9000 NSC 11/05 Q1018 NOSIG=
201004250350 METAR COR EGLL 250350Z 03002KT CAVOK 12/04 Q1018 NOSIG=
201004250320 METAR COR EGLL 250320Z 31004KT CAVOK 11/04 Q1018 NOSIG=
201004250250 METAR COR EGLL 250250Z VRB03KT CAVOK 11/04 Q1018 NOSIG=
201004250220 METAR COR EGLL 250220Z 00000KT CAVOK 12/04 Q1018 NOSIG=
201004250150 METAR COR EGLL 250150Z VRB02KT CAVOK 12/04 Q1018 NOSIG=
201004250120 METAR COR EGLL 250120Z 07004KT 8000 NSC 12/03 Q1018 NOSIG=
201004250050 METAR COR EGLL 250050Z 08002KT 9000 -RA NSC 13/02 Q1018 NOSIG=
201004250020 METAR COR EGLL 250020Z 00000KT CAVOK 13/00 Q1019 NOSIG=
201004242350 METAR COR EGLL 242350Z 09003KT CAVOK 13/01 Q1019 NOSIG=
201004242320 METAR COR EGLL 242320Z 08003KT CAVOK 12/01 Q1019 NOSIG=
201004242250 METAR COR EGLL 242250Z 10004KT CAVOK 13/00 Q1019 NOSIG=
201004242220 METAR COR EGLL 242220Z 10004KT CAVOK 13/M00 Q1019 NOSIG=
201004242150 METAR COR EGLL 242150Z 12004KT 080V180 CAVOK 13/M01 Q1019
                        NOSIG=
201004242120 METAR COR EGLL 242120Z 13006KT CAVOK 14/M02 Q1019 NOSIG=
201004242050 METAR COR EGLL 242050Z 14006KT 110V170 CAVOK 14/M01 Q1018
                        NOSIG=
201004242020 METAR COR EGLL 242020Z 18007KT 150V230 CAVOK 15/M01 Q1018
                        NOSIG=
201004241950 METAR COR EGLL 241950Z 19008KT CAVOK 15/00 Q1018 NOSIG=
201004241920 METAR COR EGLL 241920Z 20006KT CAVOK 16/M00 Q1018 NOSIG=
201004241850 METAR COR EGLL 241850Z 21007KT CAVOK 17/M00 Q1018 NOSIG=
201004241820 METAR COR EGLL 241820Z 21007KT CAVOK 17/M00 Q1018 NOSIG=
201004241750 METAR COR EGLL 241750Z 21007KT CAVOK 18/M00 Q1017 NOSIG=
201004241720 METAR COR EGLL 241720Z 21007KT CAVOK 18/M00 Q1017 NOSIG=
201004241650 METAR COR EGLL 241650Z 21008KT CAVOK 19/M00 Q1017 NOSIG=
201004241620 METAR COR EGLL 241620Z 20008KT CAVOK 19/00 Q1017 NOSIG=
201004241550 METAR COR EGLL 241550Z 21009KT CAVOK 19/M00 Q1017 NOSIG=
201004241520 METAR COR EGLL 241520Z 21009KT 170V240 CAVOK 20/01 Q1017
                        NOSIG=
201004241450 METAR COR EGLL 241450Z 20010KT CAVOK 20/00 Q1017 NOSIG=
201004241420 METAR COR EGLL 241420Z 19008KT 160V240 CAVOK 20/01 Q1018
                        NOSIG=
201004241350 METAR COR EGLL 241350Z 17007KT 140V200 CAVOK 20/01 Q1018
                        NOSIG=
201004241320 METAR COR EGLL 241320Z 17008KT 100V250 CAVOK 20/01 Q1018
                        NOSIG=
201004241250 METAR COR EGLL 241250Z 15008KT 100V200 CAVOK 20/02 Q1018
                        NOSIG=
201004241220 METAR COR EGLL 241220Z 16009KT 120V190 CAVOK 19/01 Q1018
                        NOSIG=
201004241150 METAR COR EGLL 241150Z 17007KT 080V220 CAVOK 19/02 Q1018
                        NOSIG=
201004241120 METAR COR EGLL 241120Z 15008KT CAVOK 19/02 Q1018 NOSIG=
201004241050 METAR COR EGLL 241050Z 14008KT 100V200 CAVOK 18/02 Q1018
                        NOSIG=
201004241020 METAR COR EGLL 241020Z 14007KT 100V180 CAVOK 17/03 Q1019
                        NOSIG=
201004240950 METAR COR EGLL 240950Z 15006KT CAVOK 15/02 Q1019 NOSIG=
201004240920 METAR COR EGLL 240920Z 16006KT 120V190 CAVOK 14/02 Q1019
                        NOSIG=
201004240850 METAR COR EGLL 240850Z 13005KT 090V160 CAVOK 13/02 Q1019
                        NOSIG=
201004240820 METAR COR EGLL 240820Z 11004KT 080V160 CAVOK 12/02 Q1019
                        NOSIG=
201004240750 METAR COR EGLL 240750Z 09004KT CAVOK 10/02 Q1019 NOSIG=
201004240720 METAR COR EGLL 240720Z 07004KT 040V100 CAVOK 09/02 Q1018
                        NOSIG=
201004240650 METAR COR EGLL 240650Z VRB03KT CAVOK 07/02 Q1018 NOSIG=
201004240620 METAR COR EGLL 240620Z VRB03KT CAVOK 06/02 Q1018 NOSIG=
201004240550 METAR COR EGLL 240550Z VRB03KT CAVOK 05/01 Q1018 NOSIG=
201004240520 METAR COR EGLL 240520Z 09003KT CAVOK 05/01 Q1018 NOSIG=
201004240450 METAR COR EGLL 240450Z 36002KT CAVOK 05/02 Q1018 NOSIG=
201004240420 METAR COR EGLL 240420Z 04002KT CAVOK 05/M00 Q1018 NOSIG=
201004240350 METAR COR EGLL 240350Z 06002KT CAVOK 07/M01 Q1018 NOSIG=
201004240320 METAR COR EGLL 240320Z 08003KT CAVOK 06/M01 Q1018 NOSIG=
201004240250 METAR COR EGLL 240250Z 09004KT CAVOK 06/M01 Q1018 NOSIG=
201004240220 METAR COR EGLL 240220Z 09004KT CAVOK 06/M01 Q1018 NOSIG=
201004240150 METAR COR EGLL 240150Z 09003KT CAVOK 06/M00 Q1018 NOSIG=
201004240120 METAR COR EGLL 240120Z 09004KT CAVOK 07/00 Q1018 NOSIG=
201004240050 METAR COR EGLL 240050Z 11003KT CAVOK 07/00 Q1018 NOSIG=
201004240020 METAR COR EGLL 240020Z 10004KT CAVOK 07/01 Q1018 NOSIG=
201004232350 METAR COR EGLL 232350Z 07003KT CAVOK 09/00 Q1018 NOSIG=
201004232320 METAR COR EGLL 232320Z 07002KT CAVOK 08/00 Q1018 NOSIG=
201004232250 METAR COR EGLL 232250Z 11004KT CAVOK 09/01 Q1017 NOSIG=
201004232220 METAR COR EGLL 232220Z 10005KT CAVOK 08/01 Q1017 NOSIG=
201004232150 METAR COR EGLL 232150Z 10006KT CAVOK 09/01 Q1017 NOSIG=
201004232120 METAR COR EGLL 232120Z 11005KT CAVOK 11/01 Q1017 NOSIG=
201004232050 METAR COR EGLL 232050Z 11006KT CAVOK 11/01 Q1017 NOSIG=
201004232020 METAR COR EGLL 232020Z 11009KT CAVOK 12/01 Q1017 NOSIG=
201004231950 METAR COR EGLL 231950Z 10008KT CAVOK 12/01 Q1016 NOSIG=
201004231920 METAR COR EGLL 231920Z 10012KT CAVOK 13/01 Q1016 NOSIG=
201004231850 METAR COR EGLL 231850Z 10010KT CAVOK 13/02 Q1015 NOSIG=
201004231820 METAR COR EGLL 231820Z 10010KT CAVOK 15/03 Q1015 NOSIG=
201004231750 METAR COR EGLL 231750Z 11009KT CAVOK 16/02 Q1015 NOSIG=
201004231720 METAR COR EGLL 231720Z 13004KT 050V200 CAVOK 17/M02 Q1015
                        NOSIG=
201004231650 METAR COR EGLL 231650Z VRB03KT CAVOK 17/M02 Q1015 NOSIG=
201004231620 METAR COR EGLL 231620Z 22005KT 120V260 CAVOK 17/M01 Q1015
                        NOSIG=
201004231550 METAR COR EGLL 231550Z 15004KT 060V180 CAVOK 17/M01 Q1015
                        NOSIG=
201004231520 METAR COR EGLL 231520Z VRB03KT CAVOK 17/M01 Q1016 NOSIG=
201004231450 METAR COR EGLL 231450Z 19006KT 140V310 CAVOK 17/M00 Q1016
                        NOSIG=
201004231420 METAR COR EGLL 231420Z 26004KT 190V300 CAVOK 17/00 Q1016
                        NOSIG=
201004231350 METAR COR EGLL 231350Z VRB04KT CAVOK 17/M00 Q1016 NOSIG=
201004231320 METAR COR EGLL 231320Z VRB06KT CAVOK 16/M01 Q1016 NOSIG=
201004231250 METAR COR EGLL 231250Z 17006KT 140V230 CAVOK 16/M00 Q1016
                        NOSIG=
201004231220 METAR COR EGLL 231220Z 15006KT 110V200 CAVOK 15/M01 Q1016
                        NOSIG=
201004231150 METAR COR EGLL 231150Z 17004KT 110V220 CAVOK 15/M01 Q1016
                        NOSIG=
201004231120 METAR COR EGLL 231120Z 13005KT 080V200 CAVOK 15/M01 Q1017
                        NOSIG=
201004231050 METAR COR EGLL 231050Z 08007KT 050V110 CAVOK 14/M01 Q1017
                        NOSIG=
201004231020 METAR COR EGLL 231020Z 13006KT 090V190 CAVOK 14/M02 Q1017
                        NOSIG=
201004230950 METAR COR EGLL 230950Z 10005KT 030V140 CAVOK 13/M02 Q1017
                        NOSIG=
201004230920 METAR COR EGLL 230920Z 13004KT 080V180 CAVOK 12/M03 Q1017
                        NOSIG=
201004230850 METAR COR EGLL 230850Z VRB02KT CAVOK 11/M04 Q1017 NOSIG=
201004230820 METAR COR EGLL 230820Z VRB03KT CAVOK 11/M02 Q1017 NOSIG=
201004230750 METAR COR EGLL 230750Z 11004KT 080V150 CAVOK 10/M01 Q1017
                        NOSIG=
201004230720 METAR COR EGLL 230720Z VRB03KT CAVOK 08/01 Q1017 NOSIG=
201004230650 METAR COR EGLL 230650Z 08003KT CAVOK 07/01 Q1017 NOSIG=
201004230620 METAR COR EGLL 230620Z 09002KT CAVOK 05/01 Q1017 NOSIG=
201004230550 METAR COR EGLL 230550Z 00000KT CAVOK 03/01 Q1017 NOSIG=
201004230520 METAR COR EGLL 230520Z 01002KT CAVOK 04/01 Q1017 NOSIG=
201004230450 METAR COR EGLL 230450Z 00000KT CAVOK 03/01 Q1016 NOSIG=
201004230420 METAR COR EGLL 230420Z 00000KT CAVOK 03/00 Q1016 NOSIG=
201004230350 METAR COR EGLL 230350Z 00000KT CAVOK 05/01 Q1016 NOSIG=
201004230320 METAR COR EGLL 230320Z 36003KT CAVOK 05/01 Q1016 NOSIG=
201004230250 METAR COR EGLL 230250Z 01002KT CAVOK 05/00 Q1016 NOSIG=
201004230220 METAR COR EGLL 230220Z 35004KT CAVOK 05/00 Q1016 NOSIG=
201004230150 METAR COR EGLL 230150Z 33002KT CAVOK 05/01 Q1016 NOSIG=
201004230120 METAR COR EGLL 230120Z 36002KT CAVOK 06/M00 Q1016 NOSIG=
201004230050 METAR COR EGLL 230050Z 00000KT CAVOK 07/M01 Q1017 NOSIG=
201004230020 METAR COR EGLL 230020Z 00000KT CAVOK 07/M01 Q1017 NOSIG=
201004222350 METAR COR EGLL 222350Z 00000KT CAVOK 06/M01 Q1017 NOSIG=
201004222320 METAR COR EGLL 222320Z 00000KT CAVOK 07/M02 Q1017 NOSIG=
201004222250 METAR COR EGLL 222250Z 09002KT CAVOK 07/M02 Q1017 NOSIG=
201004222220 METAR COR EGLL 222220Z 09005KT CAVOK 06/M02 Q1017 NOSIG=
201004222150 METAR COR EGLL 222150Z 12006KT CAVOK 08/M02 Q1017 NOSIG=
201004222120 METAR COR EGLL 222120Z 11007KT CAVOK 09/M02 Q1017 NOSIG=
201004222050 METAR COR EGLL 222050Z 12006KT CAVOK 09/M03 Q1017 NOSIG=
201004222020 METAR COR EGLL 222020Z 12007KT CAVOK 10/M03 Q1017 NOSIG=
201004221950 METAR COR EGLL 221950Z 12009KT CAVOK 10/M01 Q1017 NOSIG=
201004221920 METAR COR EGLL 221920Z 12009KT CAVOK 11/M00 Q1016 NOSIG=
201004221850 METAR COR EGLL 221850Z 10007KT CAVOK 11/00 Q1016 NOSIG=
201004221820 METAR COR EGLL 221820Z 12007KT CAVOK 12/M00 Q1016 NOSIG=
201004221750 METAR COR EGLL 221750Z 09006KT 060V130 CAVOK 13/M01 Q1016
                        NOSIG=
201004221720 METAR COR EGLL 221720Z 09005KT 030V130 CAVOK 13/M03 Q1016
                        NOSIG=
201004221650 METAR COR EGLL 221650Z 05005KT 010V090 CAVOK 14/M02 Q1016
                        NOSIG=
201004221620 METAR COR EGLL 221620Z 09007KT 050V130 CAVOK 14/M03 Q1016
                        NOSIG=
201004221550 METAR COR EGLL 221550Z 07006KT 020V100 CAVOK 14/M02 Q1016
                        NOSIG=
201004221520 METAR COR EGLL 221520Z 08006KT 360V130 CAVOK 14/M02 Q1016
                        NOSIG=
201004221450 METAR COR EGLL 221450Z 11005KT 010V180 CAVOK 14/M02 Q1017
                        NOSIG=
201004221420 METAR COR EGLL 221420Z 09005KT 010V150 CAVOK 14/M02 Q1017
                        NOSIG=
201004221350 METAR COR EGLL 221350Z 10008KT 360V140 CAVOK 13/M03 Q1017
                        NOSIG=
201004221320 METAR COR EGLL 221320Z 07008KT 020V110 CAVOK 13/M03 Q1018
                        NOSIG=
201004221250 METAR COR EGLL 221250Z VRB05KT CAVOK 13/M02 Q1018 NOSIG=
201004221220 METAR COR EGLL 221220Z 07006KT 010V140 CAVOK 13/M02 Q1018
                        NOSIG=
201004221150 METAR COR EGLL 221150Z 06006KT 010V130 CAVOK 12/M02 Q1018
                        NOSIG=
201004221120 METAR COR EGLL 221120Z 05005KT 310V110 CAVOK 12/M03 Q1019
                        NOSIG=
201004221050 METAR COR EGLL 221050Z 07006KT 350V130 CAVOK 12/M02 Q1019
                        NOSIG=
201004221020 METAR COR EGLL 221020Z VRB05KT 9999 FEW048 11/M01 Q1019 NOSIG=
201004220950 METAR COR EGLL 220950Z 08004KT 350V130 9999 SCT041 11/01
                        Q1020 NOSIG=
201004220920 METAR COR EGLL 220920Z VRB03KT 9999 FEW030 09/01 Q1020 NOSIG=
201004220850 METAR COR EGLL 220850Z VRB03KT 9999 FEW030 09/01 Q1020 NOSIG=
201004220820 METAR COR EGLL 220820Z 07004KT 340V140 9999 FEW030 09/02
                        Q1020 NOSIG=
201004220750 METAR COR EGLL 220750Z VRB02KT CAVOK 08/01 Q1020 NOSIG=
201004220720 METAR COR EGLL 220720Z VRB02KT CAVOK 08/02 Q1020 NOSIG=
201004220650 METAR COR EGLL 220650Z VRB03KT CAVOK 07/03 Q1020 NOSIG=
201004220620 METAR COR EGLL 220620Z 08003KT CAVOK 06/02 Q1020 NOSIG=
201004220550 METAR COR EGLL 220550Z 07002KT CAVOK 04/02 Q1020 NOSIG=
201004220520 METAR COR EGLL 220520Z 07003KT CAVOK 03/01 Q1020 NOSIG=
201004220450 METAR COR EGLL 220450Z 07003KT CAVOK 04/02 Q1020 NOSIG=
201004220420 METAR COR EGLL 220420Z 07002KT CAVOK 04/02 Q1020 NOSIG=
201004220350 METAR COR EGLL 220350Z 00000KT CAVOK 04/02 Q1020 NOSIG=
201004220320 METAR COR EGLL 220320Z 00000KT CAVOK 05/02 Q1020 NOSIG=
201004220250 METAR COR EGLL 220250Z 00000KT CAVOK 05/02 Q1021 NOSIG=
201004220220 METAR COR EGLL 220220Z 16002KT CAVOK 05/02 Q1021 NOSIG=
201004220150 METAR COR EGLL 220150Z 16002KT CAVOK 05/02 Q1021 NOSIG=
201004220120 METAR COR EGLL 220120Z 13003KT CAVOK 05/02 Q1021 NOSIG=
201004220050 METAR COR EGLL 220050Z 13004KT CAVOK 05/02 Q1021 NOSIG=
201004220020 METAR COR EGLL 220020Z 12005KT CAVOK 05/02 Q1021 NOSIG=
201004212350 METAR COR EGLL 212350Z 11005KT CAVOK 06/02 Q1021 NOSIG=
201004212320 METAR COR EGLL 212320Z 09006KT CAVOK 05/02 Q1021 NOSIG=
201004212250 METAR COR EGLL 212250Z 10007KT CAVOK 06/03 Q1021 NOSIG=
201004212220 METAR COR EGLL 212220Z 08008KT CAVOK 07/03 Q1021 NOSIG=
201004212150 METAR COR EGLL 212150Z 09008KT CAVOK 07/03 Q1021 NOSIG=
201004212120 METAR COR EGLL 212120Z 10009KT CAVOK 07/03 Q1021 NOSIG=
201004212050 METAR COR EGLL 212050Z 09009KT CAVOK 08/M01 Q1021 NOSIG=
201004212020 METAR COR EGLL 212020Z 04005KT CAVOK 09/M03 Q1021 NOSIG=
201004211950 METAR COR EGLL 211950Z 05006KT 010V080 CAVOK 09/M03 Q1021
                        NOSIG=
201004211920 METAR COR EGLL 211920Z 04006KT CAVOK 10/M03 Q1020 NOSIG=
201004211850 METAR COR EGLL 211850Z 04006KT 350V070 CAVOK 10/M03 Q1020
                        NOSIG=
201004211820 METAR COR EGLL 211820Z 05006KT CAVOK 11/M03 Q1020 NOSIG=
201004211750 METAR COR EGLL 211750Z 02006KT CAVOK 11/M04 Q1020 NOSIG=
201004211720 METAR COR EGLL 211720Z 01005KT 320V060 CAVOK 12/M04 Q1020
                        NOSIG=
201004211650 METAR COR EGLL 211650Z 01006KT 310V080 CAVOK 12/M03 Q1020
                        NOSIG=
201004211620 METAR COR EGLL 211620Z 01007KT 300V060 CAVOK 12/M04 Q1020
                        NOSIG=
201004211550 METAR COR EGLL 211550Z 06005KT 320V140 CAVOK 13/M04 Q1020
                        NOSIG=
201004211520 METAR COR EGLL 211520Z 34006KT 290V040 CAVOK 13/M04 Q1020
                        NOSIG=
201004211450 METAR COR EGLL 211450Z VRB04KT CAVOK 12/M04 Q1020 NOSIG=
201004211420 METAR COR EGLL 211420Z 31006KT 280V020 CAVOK 13/M03 Q1020
                        NOSIG=
201004211350 METAR COR EGLL 211350Z 34007KT 290V050 CAVOK 12/M03 Q1020
                        NOSIG=
201004211320 METAR COR EGLL 211320Z 02005KT 250V070 CAVOK 12/M03 Q1020
                        NOSIG=
201004211250 METAR COR EGLL 211250Z 34006KT 260V050 CAVOK 12/M03 Q1020
                        NOSIG=
201004211220 METAR COR EGLL 211220Z VRB06KT 9999 FEW049 11/M02 Q1021 NOSIG=
201004211150 METAR COR EGLL 211150Z 36006KT 260V070 9999 FEW049 11/M02
                        Q1021 NOSIG=
201004211120 METAR COR EGLL 211120Z VRB06KT 9999 FEW049 11/M02 Q1021 NOSIG=
201004211050 METAR COR EGLL 211050Z 35006KT 280V090 9999 FEW044 10/M02
                        Q1021 NOSIG=
201004211020 METAR COR EGLL 211020Z 35006KT 290V050 9999 FEW044 10/M02
                        Q1021 NOSIG=
201004210950 METAR COR EGLL 210950Z 33007KT 280V010 9999 FEW040 09/M02
                        Q1021 NOSIG=
201004210920 METAR COR EGLL 210920Z 34007KT 290V030 9999 FEW032 09/M01
                        Q1021 NOSIG=
201004210850 METAR COR EGLL 210850Z 35008KT 310V020 9999 FEW032 08/M01
                        Q1021 NOSIG=
201004210820 METAR COR EGLL 210820Z 35008KT 310V030 CAVOK 07/M00 Q1021
                        NOSIG=
201004210750 METAR COR EGLL 210750Z 33008KT 300V010 CAVOK 06/M00 Q1021
                        NOSIG=
201004210720 METAR COR EGLL 210720Z 33007KT 310V010 CAVOK 06/M00 Q1021
                        NOSIG=
201004210650 METAR COR EGLL 210650Z 32009KT 300V010 CAVOK 05/M00 Q1021
                        NOSIG=
201004210620 METAR COR EGLL 210620Z 31006KT 280V350 CAVOK 04/M00 Q1021
                        NOSIG=
201004210550 METAR COR EGLL 210550Z 30006KT CAVOK 03/M01 Q1021 NOSIG=
201004210520 METAR COR EGLL 210520Z 31005KT CAVOK 03/M01 Q1020 NOSIG=
201004210450 METAR EGLL 210450Z 29005KT CAVOK 03/M01 Q1020=
201004210420 METAR EGLL 210420Z 29005KT CAVOK 03/M01 Q1020=
201004210350 METAR COR EGLL 210350Z 31005KT 280V350 CAVOK 03/M01 Q1020
                        NOSIG=
201004210320 METAR COR EGLL 210320Z 30005KT CAVOK 04/M01 Q1020 NOSIG=
201004210250 METAR EGLL 210250Z 29006KT CAVOK 04/M01 Q1020=
201004210220 METAR COR EGLL 210220Z 29005KT CAVOK 04/M01 Q1020 NOSIG=
201004210150 METAR COR EGLL 210150Z 29005KT CAVOK 05/M02 Q1020 NOSIG=
201004210120 METAR COR EGLL 210120Z 28005KT CAVOK 05/M02 Q1021 NOSIG=
201004210050 METAR COR EGLL 210050Z 30004KT 280V340 CAVOK 05/M02 Q1021
                        NOSIG=
201004210020 METAR COR EGLL 210020Z 31004KT CAVOK 06/M02 Q1021 NOSIG=
201004202350 METAR COR EGLL 202350Z 31006KT 280V340 CAVOK 07/M02 Q1021
                        NOSIG=
201004202320 METAR COR EGLL 202320Z 32005KT 300V360 CAVOK 07/M02 Q1021
                        NOSIG=
201004202250 METAR COR EGLL 202250Z 32006KT CAVOK 07/M02 Q1021 NOSIG=
201004202220 METAR COR EGLL 202220Z 33006KT 290V360 CAVOK 08/M02 Q1021
                        NOSIG=
201004202150 METAR COR EGLL 202150Z 33006KT 280V360 CAVOK 08/M02 Q1021
                        NOSIG=
201004202120 METAR COR EGLL 202120Z 34007KT 300V020 CAVOK 09/M01 Q1021
                        NOSIG=
201004202050 METAR COR EGLL 202050Z 35007KT CAVOK 09/M01 Q1021 NOSIG=
201004202020 METAR COR EGLL 202020Z 35008KT 320V020 CAVOK 09/M01 Q1020
                        NOSIG=
201004201950 METAR COR EGLL 201950Z 35007KT 310V020 CAVOK 10/M01 Q1020
                        NOSIG=
201004201920 METAR COR EGLL 201920Z 36006KT 320V040 CAVOK 11/M00 Q1019
                        NOSIG=
201004201850 METAR COR EGLL 201850Z 35005KT 320V020 CAVOK 12/M01 Q1019
                        NOSIG=
201004201820 METAR EGLL 201820Z 34005KT 290V020 CAVOK 13/M01 Q1019=
201004201750 METAR COR EGLL 201750Z 31006KT 280V340 CAVOK 13/M01 Q1019
                        NOSIG=
201004201720 METAR COR EGLL 201720Z 30009KT 270V330 CAVOK 13/M01 Q1019
                        NOSIG=
201004201650 METAR COR EGLL 201650Z 32008KT 280V020 CAVOK 14/M01 Q1018
                        NOSIG=
201004201620 METAR COR EGLL 201620Z 30009KT 270V340 CAVOK 14/M01 Q1018
                        NOSIG=
201004201550 METAR COR EGLL 201550Z 32008KT 290V010 CAVOK 13/M01 Q1019
                        NOSIG=
201004201520 METAR COR EGLL 201520Z 31008KT 240V010 CAVOK 14/M01 Q1019
                        NOSIG=
201004201450 METAR COR EGLL 201450Z 30009KT 270V010 CAVOK 13/M01 Q1019
                        NOSIG=
201004201420 METAR COR EGLL 201420Z 29010KT CAVOK 14/M00 Q1019 NOSIG=
201004201350 METAR COR EGLL 201350Z 31009KT CAVOK 13/00 Q1019 NOSIG=
201004201320 METAR COR EGLL 201320Z 29010KT 270V330 9999 FEW049 12/M01
                        Q1019 NOSIG=
201004201250 METAR COR EGLL 201250Z 29011KT 260V320 9999 SCT048 13/00
                        Q1019 NOSIG=
201004201220 METAR COR EGLL 201220Z 29011KT 270V340 9999 SCT048 12/00
                        Q1019 NOSIG=
201004201150 METAR COR EGLL 201150Z 30011KT 260V340 9999 SCT047 13/01
                        Q1019 NOSIG=
201004201120 METAR COR EGLL 201120Z 31009KT 9999 SCT046 12/00 Q1019 NOSIG=
201004201050 METAR COR EGLL 201050Z 30009KT 270V340 9999 SCT046 12/00
                        Q1019 NOSIG=
201004201020 METAR COR EGLL 201020Z 30010KT 270V350 9999 SCT041 12/00
                        Q1019 NOSIG=
201004200950 METAR COR EGLL 200950Z 30010KT 270V340 9999 FEW039 11/01
                        Q1019 NOSIG=
201004200920 METAR COR EGLL 200920Z 32010KT 280V010 9999 FEW042 11/01
                        Q1019 NOSIG=
201004200850 METAR COR EGLL 200850Z 31010KT 280V350 9999 FEW038 11/01
                        Q1019 NOSIG=
201004200820 METAR COR EGLL 200820Z 28008KT 9999 FEW036 09/00 Q1019 NOSIG=
201004200750 METAR COR EGLL 200750Z 29008KT CAVOK 09/01 Q1019 NOSIG=
201004200720 METAR COR EGLL 200720Z 30008KT CAVOK 08/00 Q1018 NOSIG=
201004200650 METAR COR EGLL 200650Z 30007KT CAVOK 07/00 Q1018 NOSIG=
201004200620 METAR COR EGLL 200620Z 30005KT CAVOK 06/00 Q1018 NOSIG=
201004200550 METAR COR EGLL 200550Z 30005KT CAVOK 05/01 Q1018 NOSIG=
201004200520 METAR COR EGLL 200520Z 30004KT CAVOK 05/00 Q1017 NOSIG=
201004200450 METAR COR EGLL 200450Z 30005KT CAVOK 05/01 Q1017 NOSIG=
201004200420 METAR COR EGLL 200420Z 31005KT CAVOK 06/02 Q1017 NOSIG=
201004200350 METAR COR EGLL 200350Z 31004KT 9000 FEW049 06/03 Q1017 NOSIG=
201004200320 METAR COR EGLL 200320Z 32006KT 7000 FEW049 07/04 Q1017 NOSIG=
201004200250 METAR COR EGLL 200250Z 31007KT 7000 FEW049 07/05 Q1017 NOSIG=
201004200220 METAR COR EGLL 200220Z 32006KT CAVOK 07/04 Q1017 NOSIG=
201004200150 METAR COR EGLL 200150Z VRB03KT CAVOK 07/04 Q1017 NOSIG=
201004200120 METAR COR EGLL 200120Z 32005KT 9999 FEW049 07/05 Q1016 NOSIG=
201004200050 METAR COR EGLL 200050Z 34005KT 310V010 9999 FEW048 08/05
                        Q1016 NOSIG=
201004200020 METAR COR EGLL 200020Z 34004KT 310V010 9999 BKN047 08/06
                        Q1016 NOSIG=
201004192350 METAR COR EGLL 192350Z 34006KT 9999 FEW046 09/06 Q1016 NOSIG=
201004192320 METAR COR EGLL 192320Z 35005KT CAVOK 09/06 Q1016 NOSIG=
201004192250 METAR COR EGLL 192250Z 31004KT 7000 NSC 09/06 Q1016 NOSIG=
201004192220 METAR COR EGLL 192220Z 22005KT 8000 FEW046 10/06 Q1016 NOSIG=
201004192150 METAR COR EGLL 192150Z 19004KT 170V240 8000 FEW046 10/05
                        Q1016 NOSIG=
201004192120 METAR COR EGLL 192120Z 20005KT 140V220 8000 SCT046 11/06
                        Q1016 NOSIG=
201004192050 METAR COR EGLL 192050Z 21004KT 9000 SCT047 12/06 Q1016 NOSIG=
201004192020 METAR COR EGLL 192020Z 12006KT 9000 FEW040 11/06 Q1016 NOSIG=
201004191950 METAR COR EGLL 191950Z 06005KT 020V090 CAVOK 13/06 Q1015
                        NOSIG=
201004191920 METAR COR EGLL 191920Z VRB05KT 9999 -RA NSC 13/07 Q1015 NOSIG=
201004191850 METAR COR EGLL 191850Z VRB06KT CAVOK 14/03 Q1015 NOSIG=
201004191820 METAR COR EGLL 191820Z 24007KT 210V270 CAVOK 15/02 Q1015
                        NOSIG=
201004191750 METAR COR EGLL 191750Z 21007KT CAVOK 16/02 Q1015 NOSIG=
201004191720 METAR COR EGLL 191720Z 19007KT CAVOK 16/03 Q1015 NOSIG=
201004191650 METAR COR EGLL 191650Z 20006KT CAVOK 17/03 Q1015 NOSIG=
201004191620 METAR COR EGLL 191620Z 18008KT CAVOK 17/03 Q1015 NOSIG=
201004191550 METAR COR EGLL 191550Z 20006KT 170V250 CAVOK 16/03 Q1015
                        NOSIG=
201004191520 METAR COR EGLL 191520Z 21007KT 180V250 CAVOK 16/04 Q1015
                        NOSIG=
201004191450 METAR COR EGLL 191450Z 21007KT 150V240 CAVOK 16/04 Q1016
                        NOSIG=
201004191420 METAR COR EGLL 191420Z 22005KT 170V280 CAVOK 16/04 Q1016
                        NOSIG=
201004191350 METAR COR EGLL 191350Z 19005KT 130V260 CAVOK 16/04 Q1016
                        NOSIG=
201004191320 METAR COR EGLL 191320Z 19008KT 160V230 CAVOK 16/03 Q1016
                        NOSIG=
201004191250 METAR COR EGLL 191250Z VRB04KT CAVOK 16/03 Q1016 NOSIG=
201004191220 METAR COR EGLL 191220Z 15005KT 090V190 CAVOK 17/04 Q1017
                        NOSIG=
201004191150 METAR COR EGLL 191150Z 19006KT 130V230 CAVOK 16/04 Q1017
                        NOSIG=
201004191120 METAR COR EGLL 191120Z VRB07KT CAVOK 15/04 Q1017 NOSIG=
201004191050 METAR COR EGLL 191050Z 13006KT 070V190 CAVOK 14/04 Q1017
                        NOSIG=
201004191020 METAR COR EGLL 191020Z 12005KT 080V190 CAVOK 13/04 Q1017
                        NOSIG=
201004190950 METAR COR EGLL 190950Z 11006KT 060V160 CAVOK 13/04 Q1017
                        NOSIG=
201004190920 METAR COR EGLL 190920Z 12006KT 070V150 CAVOK 12/04 Q1017
                        NOSIG=
201004190850 METAR COR EGLL 190850Z 10006KT 070V130 CAVOK 11/05 Q1017
                        NOSIG=
201004190820 METAR COR EGLL 190820Z 11007KT CAVOK 10/04 Q1018 NOSIG=
201004190750 METAR COR EGLL 190750Z 08006KT CAVOK 09/04 Q1018 NOSIG=
201004190720 METAR COR EGLL 190720Z 11005KT CAVOK 09/05 Q1018 NOSIG=
201004190650 METAR COR EGLL 190650Z 10005KT CAVOK 08/05 Q1017 NOSIG=
201004190620 METAR COR EGLL 190620Z 10006KT CAVOK 08/05 Q1017 NOSIG=
201004190550 METAR COR EGLL 190550Z 10006KT CAVOK 08/05 Q1017 NOSIG=
201004190520 METAR COR EGLL 190520Z 10007KT CAVOK 08/05 Q1017 NOSIG=
201004190450 METAR COR EGLL 190450Z 09005KT CAVOK 08/05 Q1017 NOSIG=
201004190420 METAR COR EGLL 190420Z 09005KT CAVOK 08/05 Q1017 NOSIG=
201004190350 METAR COR EGLL 190350Z 09005KT CAVOK 08/05 Q1017 NOSIG=
201004190320 METAR COR EGLL 190320Z 09006KT CAVOK 08/04 Q1017 NOSIG=
201004190250 METAR COR EGLL 190250Z 09005KT CAVOK 08/04 Q1017 NOSIG=
201004190220 METAR COR EGLL 190220Z 10006KT CAVOK 08/03 Q1017 NOSIG=
201004190150 METAR COR EGLL 190150Z 10006KT CAVOK 07/03 Q1017 NOSIG=
201004190120 METAR COR EGLL 190120Z 08004KT CAVOK 07/02 Q1017 NOSIG=
201004190050 METAR COR EGLL 190050Z 10007KT CAVOK 07/02 Q1017 NOSIG=
201004190020 METAR COR EGLL 190020Z 10007KT CAVOK 07/02 Q1017 NOSIG=
201004182350 METAR COR EGLL 182350Z 09007KT CAVOK 09/02 Q1016 NOSIG=
201004182320 METAR COR EGLL 182320Z 09007KT CAVOK 09/02 Q1016 NOSIG=
201004182250 METAR COR EGLL 182250Z 10007KT CAVOK 09/02 Q1016 NOSIG=
201004182220 METAR COR EGLL 182220Z 10008KT CAVOK 09/02 Q1016 NOSIG=
201004182150 METAR COR EGLL 182150Z 09010KT CAVOK 09/02 Q1016 NOSIG=
201004182120 METAR COR EGLL 182120Z 09012KT CAVOK 10/02 Q1016 NOSIG=
201004182050 METAR COR EGLL 182050Z 09012KT CAVOK 10/02 Q1016 NOSIG=
201004182020 METAR COR EGLL 182020Z 08011KT CAVOK 11/03 Q1016 NOSIG=
201004181950 METAR COR EGLL 181950Z 09014KT CAVOK 11/03 Q1015 NOSIG=
201004181920 METAR COR EGLL 181920Z 09013KT CAVOK 13/03 Q1014 NOSIG=
201004181850 METAR COR EGLL 181850Z 09013KT CAVOK 14/02 Q1014 NOSIG=
201004181820 METAR COR EGLL 181820Z 04006KT 350V090 CAVOK 17/02 Q1013
                        NOSIG=
201004181750 METAR COR EGLL 181750Z 36005KT 330V040 CAVOK 17/01 Q1013
                        NOSIG=
201004181720 METAR COR EGLL 181720Z 35005KT 290V070 CAVOK 18/02 Q1013
                        NOSIG=
201004181650 METAR COR EGLL 181650Z VRB02KT CAVOK 18/01 Q1013 NOSIG=
201004181620 METAR COR EGLL 181620Z 27005KT 230V030 CAVOK 19/01 Q1013
                        NOSIG=
201004181550 METAR COR EGLL 181550Z 19004KT 140V280 CAVOK 18/01 Q1013
                        NOSIG=
201004181520 METAR COR EGLL 181520Z VRB03KT CAVOK 18/00 Q1014 NOSIG=
201004181450 METAR COR EGLL 181450Z VRB03KT CAVOK 19/00 Q1014 NOSIG=
201004181420 METAR COR EGLL 181420Z 20005KT 140V250 CAVOK 18/01 Q1014
                        NOSIG=
201004181350 METAR COR EGLL 181350Z VRB03KT CAVOK 18/01 Q1014 NOSIG=
201004181320 METAR COR EGLL 181320Z VRB05KT CAVOK 18/00 Q1014 NOSIG=
201004181250 METAR COR EGLL 181250Z 21004KT 130V250 CAVOK 18/02 Q1014
                        NOSIG=
201004181220 METAR COR EGLL 181220Z VRB03KT CAVOK 17/02 Q1014 NOSIG=
201004181150 METAR COR EGLL 181150Z 26004KT 200V300 CAVOK 16/02 Q1014
                        NOSIG=
201004181120 METAR COR EGLL 181120Z VRB03KT CAVOK 16/02 Q1015 NOSIG=
201004181050 METAR COR EGLL 181050Z VRB03KT CAVOK 16/04 Q1015 NOSIG=
201004181020 METAR COR EGLL 181020Z VRB03KT CAVOK 15/03 Q1015 NOSIG=
201004180950 METAR COR EGLL 180950Z VRB02KT CAVOK 14/04 Q1015 NOSIG=
201004180920 METAR COR EGLL 180920Z VRB02KT CAVOK 12/04 Q1015 NOSIG=
201004180850 METAR COR EGLL 180850Z VRB02KT CAVOK 11/04 Q1015 NOSIG=
201004180820 METAR COR EGLL 180820Z VRB02KT CAVOK 10/04 Q1015 NOSIG=
201004180750 METAR COR EGLL 180750Z VRB02KT 9000 NSC 08/04 Q1015 NOSIG=
201004180720 METAR COR EGLL 180720Z 00000KT 9000 NSC 07/04 Q1015 NOSIG=
201004180650 METAR COR EGLL 180650Z 00000KT 9000 NSC 06/04 Q1015 NOSIG=
201004180620 METAR COR EGLL 180620Z 00000KT 9000 NSC 05/03 Q1015 NOSIG=
201004180550 METAR COR EGLL 180550Z 00000KT 9000 NSC 04/03 Q1015 NOSIG=
201004180520 METAR COR EGLL 180520Z 21002KT 7000 NSC 04/03 Q1015 NOSIG=
201004180450 METAR COR EGLL 180450Z 17003KT 7000 NSC 04/02 Q1015 NOSIG=
201004180420 METAR COR EGLL 180420Z 00000KT 9000 NSC 04/03 Q1015 NOSIG=
201004180350 METAR COR EGLL 180350Z 00000KT CAVOK 05/03 Q1015 NOSIG=
201004180320 METAR COR EGLL 180320Z 17003KT CAVOK 05/03 Q1016 NOSIG=
201004180250 METAR COR EGLL 180250Z 17003KT CAVOK 05/03 Q1016 NOSIG=
201004180220 METAR COR EGLL 180220Z 17002KT CAVOK 06/03 Q1016 NOSIG=
201004180150 METAR COR EGLL 180150Z 00000KT CAVOK 06/03 Q1016 NOSIG=
201004180120 METAR COR EGLL 180120Z 00000KT CAVOK 06/03 Q1016 NOSIG=
201004180050 METAR COR EGLL 180050Z 00000KT CAVOK 07/03 Q1017 NOSIG=
201004180020 METAR COR EGLL 180020Z 00000KT CAVOK 08/03 Q1017 NOSIG=
201004172350 METAR COR EGLL 172350Z 19003KT CAVOK 07/03 Q1017 NOSIG=
201004172320 METAR COR EGLL 172320Z 24002KT CAVOK 08/03 Q1017 NOSIG=
201004172250 METAR COR EGLL 172250Z 24002KT CAVOK 08/03 Q1017 NOSIG=
201004172220 METAR COR EGLL 172220Z 23004KT CAVOK 09/03 Q1017 NOSIG=
201004172150 METAR COR EGLL 172150Z 18005KT CAVOK 09/03 Q1017 NOSIG=
201004172120 METAR COR EGLL 172120Z 17004KT CAVOK 10/03 Q1017 NOSIG=
201004172050 METAR COR EGLL 172050Z 17005KT CAVOK 10/04 Q1017 NOSIG=
201004172020 METAR COR EGLL 172020Z 18006KT CAVOK 11/04 Q1017 NOSIG=
201004171950 METAR COR EGLL 171950Z 18006KT 110V220 CAVOK 12/03 Q1017
                        NOSIG=
201004171920 METAR COR EGLL 171920Z 31003KT CAVOK 14/M01 Q1017 NOSIG=
201004171850 METAR COR EGLL 171850Z 32004KT CAVOK 15/M01 Q1017 NOSIG=
201004171820 METAR COR EGLL 171820Z 28004KT CAVOK 15/M01 Q1017 NOSIG=
201004171750 METAR COR EGLL 171750Z VRB02KT CAVOK 16/M01 Q1017 NOSIG=
201004171720 METAR COR EGLL 171720Z VRB02KT CAVOK 16/M01 Q1018 NOSIG=
201004171650 METAR COR EGLL 171650Z VRB03KT CAVOK 17/M01 Q1018 NOSIG=
201004171620 METAR COR EGLL 171620Z 21004KT 160V260 CAVOK 17/M01 Q1018
                        NOSIG=
201004171550 METAR COR EGLL 171550Z VRB03KT CAVOK 17/M00 Q1019 NOSIG=
201004171520 METAR COR EGLL 171520Z VRB03KT CAVOK 16/M01 Q1019 NOSIG=
201004171450 METAR COR EGLL 171450Z VRB03KT CAVOK 16/M01 Q1020 NOSIG=
201004171420 METAR COR EGLL 171420Z VRB03KT CAVOK 16/M01 Q1020 NOSIG=
201004171350 METAR COR EGLL 171350Z VRB03KT CAVOK 16/M01 Q1021 NOSIG=
201004171320 METAR COR EGLL 171320Z 13004KT 070V210 CAVOK 15/M01 Q1021
                        NOSIG=
201004171250 METAR COR EGLL 171250Z 18004KT 140V250 CAVOK 15/M02 Q1021
                        NOSIG=
201004171220 METAR COR EGLL 171220Z VRB03KT CAVOK 14/M01 Q1022 NOSIG=
201004171150 METAR COR EGLL 171150Z VRB03KT CAVOK 14/M00 Q1022 NOSIG=
201004171120 METAR COR EGLL 171120Z VRB03KT CAVOK 13/00 Q1022 NOSIG=
201004171050 METAR COR EGLL 171050Z VRB03KT CAVOK 12/M00 Q1023 NOSIG=
201004171020 METAR COR EGLL 171020Z VRB03KT CAVOK 12/M01 Q1023 NOSIG=
201004170950 METAR COR EGLL 170950Z VRB03KT CAVOK 11/01 Q1024 NOSIG=
201004170920 METAR COR EGLL 170920Z VRB02KT CAVOK 10/02 Q1024 NOSIG=
201004170850 METAR COR EGLL 170850Z VRB02KT CAVOK 09/03 Q1024 NOSIG=
201004170820 METAR COR EGLL 170820Z VRB02KT CAVOK 08/04 Q1024 NOSIG=
201004170750 METAR COR EGLL 170750Z 00000KT 8000 NSC 07/04 Q1024 NOSIG=
201004170720 METAR COR EGLL 170720Z 00000KT 7000 NSC 06/04 Q1024 NOSIG=
201004170650 METAR COR EGLL 170650Z VRB02KT 7000 VCFG SCT004 05/04 Q1024
                        TEMPO 2000=
201004170620 METAR COR EGLL 170620Z 28002KT 8000 VCFG BKN005 03/02 Q1025
                        TEMPO 2000=
201004170550 METAR COR EGLL 170550Z 35003KT 7000 VCFG FEW005 02/01 Q1025
                        NOSIG=
201004170520 METAR COR EGLL 170520Z 35003KT 7000 FEW005 02/02 Q1025 NOSIG=
201004170450 METAR COR EGLL 170450Z 00000KT 7000 FEW006 03/02 Q1025 NOSIG=
201004170420 METAR COR EGLL 170420Z 00000KT 8000 FEW006 03/02 Q1025 TEMPO
                        BKN006=
201004170350 METAR COR EGLL 170350Z 00000KT 9000 BKN007 02/02 Q1025 BECMG
                        SCT007=
201004170320 METAR COR EGLL 170320Z 00000KT 9000 SCT008 02/01 Q1026 NOSIG=
201004170250 METAR COR EGLL 170250Z 01002KT 9000 NSC 04/02 Q1026 NOSIG=
201004170220 METAR COR EGLL 170220Z 00000KT 8000 NSC 04/02 Q1026 NOSIG=
201004170150 METAR COR EGLL 170150Z VRB02KT CAVOK 05/03 Q1026 NOSIG=
201004170120 METAR COR EGLL 170120Z 00000KT CAVOK 04/03 Q1026 NOSIG=
201004170050 METAR COR EGLL 170050Z 00000KT CAVOK 04/03 Q1026 NOSIG=
201004170020 METAR COR EGLL 170020Z 00000KT CAVOK 06/04 Q1026 NOSIG=
201004162350 METAR COR EGLL 162350Z 06003KT CAVOK 06/03 Q1026 NOSIG=
201004162320 METAR COR EGLL 162320Z 07003KT CAVOK 06/03 Q1027 NOSIG=
201004162250 METAR COR EGLL 162250Z 08003KT CAVOK 06/03 Q1027 NOSIG=
201004162220 METAR COR EGLL 162220Z 10004KT CAVOK 06/03 Q1027 NOSIG=
201004162150 METAR COR EGLL 162150Z 10004KT CAVOK 06/03 Q1027 NOSIG=
201004162120 METAR COR EGLL 162120Z 11006KT CAVOK 07/04 Q1027 NOSIG=
201004162050 METAR COR EGLL 162050Z 10006KT CAVOK 07/04 Q1027 NOSIG=
201004162020 METAR COR EGLL 162020Z 10008KT CAVOK 08/04 Q1027 NOSIG=
201004161950 METAR COR EGLL 161950Z 10007KT CAVOK 08/04 Q1027 NOSIG=
201004161920 METAR COR EGLL 161920Z 09008KT CAVOK 09/04 Q1026 NOSIG=
201004161850 METAR COR EGLL 161850Z 10009KT 9999 FEW042 10/04 Q1026 NOSIG=
201004161820 METAR COR EGLL 161820Z 10010KT 9999 FEW049 12/02 Q1026 NOSIG=
201004161750 METAR COR EGLL 161750Z 06008KT 9999 FEW049 13/02 Q1026 NOSIG=
201004161720 METAR COR EGLL 161720Z 06007KT 030V090 9999 FEW049 13/02
                        Q1026 NOSIG=
201004161650 METAR COR EGLL 161650Z 03007KT 350V070 9999 FEW048 14/02
                        Q1026 NOSIG=
201004161620 METAR COR EGLL 161620Z 06008KT 010V080 9999 FEW048 14/02
                        Q1026 NOSIG=
201004161550 METAR COR EGLL 161550Z 05007KT 010V120 9999 FEW048 14/02
                        Q1026 NOSIG=
201004161520 METAR COR EGLL 161520Z 05009KT 010V080 9999 FEW048 14/02
                        Q1027 NOSIG=
201004161450 METAR COR EGLL 161450Z 02008KT 340V060 9999 FEW046 14/02
                        Q1027 NOSIG=
201004161420 METAR COR EGLL 161420Z 04008KT 350V090 9999 FEW046 14/02
                        Q1027 NOSIG=
201004161350 METAR COR EGLL 161350Z 06011KT 9999 FEW042 13/03 Q1027 NOSIG=
201004161320 METAR COR EGLL 161320Z 05009KT 010V080 9999 BKN040 12/03
                        Q1028 NOSIG=
201004161250 METAR COR EGLL 161250Z 02009KT 350V060 9999 BKN037 12/03
                        Q1028 NOSIG=
201004161220 METAR COR EGLL 161220Z 04009KT 360V080 9999 BKN040 11/02
                        Q1028 NOSIG=
201004161150 METAR COR EGLL 161150Z 06012KT 020V090 9999 BKN039 11/02
                        Q1028 NOSIG=
201004161120 METAR COR EGLL 161120Z 06010KT 9999 BKN035 11/02 Q1028 NOSIG=
201004161050 METAR COR EGLL 161050Z 07010KT 030V100 9999 BKN036 10/02
                        Q1028 NOSIG=
201004161020 METAR COR EGLL 161020Z 06010KT 020V090 9999 BKN037 10/02
                        Q1028 NOSIG=
201004160950 METAR COR EGLL 160950Z 05009KT 010V080 9999 SCT029 BKN035
                        09/02 Q1028 NOSIG=
201004160920 METAR COR EGLL 160920Z 04008KT 9999 FEW031 SCT036 09/02 Q1028
                        NOSIG=
201004160850 METAR COR EGLL 160850Z 05008KT 360V080 9999 FEW025 10/03
                        Q1028 NOSIG=
201004160820 METAR COR EGLL 160820Z 06009KT 030V090 9999 FEW025 09/03
                        Q1028 NOSIG=
201004160750 METAR COR EGLL 160750Z 05008KT 020V080 CAVOK 08/03 Q1028
                        NOSIG=
201004160720 METAR COR EGLL 160720Z 04007KT 350V070 9999 SCT013 07/04
                        Q1028 TEMPO BKN013=
201004160650 METAR COR EGLL 160650Z 04005KT 360V070 9999 BKN011 07/04
                        Q1028 BECMG SCT018=
201004160620 METAR COR EGLL 160620Z 02007KT 330V050 9999 BKN011 06/04
                        Q1028 BECMG SCT018=
201004160550 METAR COR EGLL 160550Z 01005KT 340V050 9999 FEW034 06/04
                        Q1027 TEMPO BKN012=
201004160520 METAR COR EGLL 160520Z 01004KT 340V040 9999 BKN030 07/04
                        Q1027 TEMPO BKN012=
201004160450 METAR COR EGLL 160450Z 03004KT 340V070 9999 FEW024 BKN030
                        06/04 Q1027 TEMPO BKN012=
201004160420 METAR COR EGLL 160420Z VRB03KT 9999 BKN033 06/03 Q1027 TEMPO
                        BKN012=
201004160350 METAR COR EGLL 160350Z VRB03KT 9999 BKN033 05/02 Q1027 TEMPO
                        BKN012=
201004160320 METAR COR EGLL 160320Z VRB03KT 9999 SCT032 05/02 Q1027 NOSIG=
201004160250 METAR COR EGLL 160250Z 03004KT 360V070 CAVOK 05/02 Q1027
                        NOSIG=
201004160220 METAR COR EGLL 160220Z 04004KT 9999 BKN024 06/02 Q1027 NOSIG=
201004160150 METAR COR EGLL 160150Z 05004KT 010V080 9999 BKN025 06/02
                        Q1027 NOSIG=
201004160120 METAR COR EGLL 160120Z 04003KT 9999 BKN026 06/02 Q1027 NOSIG=
201004160050 METAR COR EGLL 160050Z 04004KT 9999 BKN026 05/01 Q1027 NOSIG=
201004160020 METAR COR EGLL 160020Z 04004KT 9999 BKN025 06/02 Q1027 NOSIG=
201004152350 METAR COR EGLL 152350Z 04004KT 9999 SCT025 05/02 Q1027 NOSIG=
201004152320 METAR COR EGLL 152320Z 04006KT 010V070 CAVOK 06/02 Q1026
                        BECMG BKN025=
201004152250 METAR COR EGLL 152250Z 03006KT 360V070 CAVOK 06/02 Q1026
                        BECMG BKN030=
201004152220 METAR COR EGLL 152220Z 03006KT CAVOK 06/02 Q1026 BECMG BKN030=
201004152150 METAR COR EGLL 152150Z 02007KT 350V060 CAVOK 07/02 Q1026
                        BECMG BKN030=
201004152120 METAR COR EGLL 152120Z 03007KT 350V060 CAVOK 07/03 Q1026
                        BECMG BKN030=
201004152050 METAR COR EGLL 152050Z 02008KT 9999 FEW038 07/03 Q1026 NOSIG=
201004152020 METAR COR EGLL 152020Z 02009KT 9999 SCT041 08/03 Q1025 NOSIG=
201004151950 METAR COR EGLL 151950Z 02009KT 340V060 CAVOK 09/03 Q1025
                        BECMG BKN030=
201004151920 METAR COR EGLL 151920Z 02009KT 330V050 9999 FEW029 10/04
                        Q1024 NOSIG=
201004151850 METAR COR EGLL 151850Z 02008KT 350V050 9999 FEW045 10/03
                        Q1024 NOSIG=
201004151820 METAR COR EGLL 151820Z 03009KT CAVOK 11/03 Q1024 NOSIG=
201004151750 METAR COR EGLL 151750Z 03009KT 350V070 9999 FEW040 12/03
                        Q1023 NOSIG=
201004151720 METAR COR EGLL 151720Z 02008KT 350V050 9999 FEW040 12/03
                        Q1023 NOSIG=
201004151650 METAR COR EGLL 151650Z 03010KT 360V070 9999 FEW040 13/03
                        Q1023 NOSIG=
201004151620 METAR COR EGLL 151620Z 01010KT 340V060 9999 FEW044 13/03
                        Q1023 NOSIG=
201004151550 METAR COR EGLL 151550Z 04009KT 360V070 9999 FEW044 13/03
                        Q1023 NOSIG=
201004151520 METAR COR EGLL 151520Z 04008KT 010V080 9999 FEW041 SCT044
                        13/03 Q1023 NOSIG=
201004151450 METAR COR EGLL 151450Z 01009KT 330V060 9999 SCT047 13/03
                        Q1023 NOSIG=
201004151420 METAR COR EGLL 151420Z 06009KT 9999 SCT048 14/02 Q1023 NOSIG=
201004151350 METAR COR EGLL 151350Z 05010KT 020V080 9999 SCT043 13/02
                        Q1023 NOSIG=
201004151320 METAR COR EGLL 151320Z 03010KT 340V090 9999 SCT043 14/03
                        Q1023 NOSIG=
201004151250 METAR COR EGLL 151250Z 05008KT 360V100 9999 SCT038 13/03
                        Q1023 NOSIG=
201004151220 METAR COR EGLL 151220Z 06008KT 010V080 9999 FEW038 13/03
                        Q1023 NOSIG=
201004151150 METAR COR EGLL 151150Z 05009KT 020V080 9999 SCT034 13/03
                        Q1023 NOSIG=
201004151120 METAR COR EGLL 151120Z 02009KT 330V070 9999 FEW035 11/03
                        Q1024 NOSIG=
201004151050 METAR COR EGLL 151050Z 04009KT 360V080 9999 FEW029 12/03
                        Q1024 NOSIG=
201004151020 METAR COR EGLL 151020Z 05008KT 020V080 9999 FEW025 11/04
                        Q1024 NOSIG=
201004150950 METAR COR EGLL 150950Z 03008KT 350V070 9999 FEW021 10/04
                        Q1024 NOSIG=
201004150920 METAR COR EGLL 150920Z 03009KT 340V050 9999 FEW020 09/04
                        Q1024 NOSIG=
201004150850 METAR COR EGLL 150850Z 02008KT 330V050 9999 SCT018 09/04
                        Q1024 NOSIG=
201004150820 METAR COR EGLL 150820Z 03007KT 9999 SCT016 08/04 Q1023 NOSIG=
201004150750 METAR COR EGLL 150750Z 03008KT 350V060 9999 BKN014 07/04
                        Q1023 BECMG SCT014=
201004150720 METAR COR EGLL 150720Z 04007KT 010V080 9999 BKN015 07/04
                        Q1023 NOSIG=
201004150650 METAR COR EGLL 150650Z 03009KT 360V070 9999 SCT012 06/04
                        Q1023 NOSIG=
201004150620 METAR COR EGLL 150620Z 03006KT 360V070 9999 BKN012 06/03
                        Q1023 TEMPO BKN008=
201004150550 METAR COR EGLL 150550Z 03006KT 350V070 9999 BKN012 05/03
                        Q1022 TEMPO BKN008=
201004150520 METAR COR EGLL 150520Z 03006KT 360V070 9999 SCT011 05/03
                        Q1022 TEMPO BKN008=
201004150450 METAR COR EGLL 150450Z 02006KT 360V060 9999 SCT012 05/03
                        Q1022 TEMPO BKN008=
201004150420 METAR COR EGLL 150420Z 36005KT 9999 FEW010 05/03 Q1022 TEMPO
                        BKN008=
201004150350 METAR COR EGLL 150350Z 03007KT 360V060 9999 FEW010 05/03
                        Q1022 TEMPO BKN008=
201004150320 METAR COR EGLL 150320Z 02006KT 340V050 9999 FEW010 05/03
                        Q1022 TEMPO BKN008=
201004150250 METAR COR EGLL 150250Z 01007KT 340V050 9000 FEW010 05/03
                        Q1022 TEMPO BKN008=
201004150220 METAR COR EGLL 150220Z 36007KT 9000 FEW010 05/03 Q1022 TEMPO
                        BKN008=
201004150150 METAR COR EGLL 150150Z 03005KT 360V070 9000 FEW009 05/03
                        Q1022 TEMPO BKN008=
201004150120 METAR COR EGLL 150120Z 02005KT 340V050 8000 NSC 05/03 Q1022
                        TEMPO BKN008=
201004150050 METAR COR EGLL 150050Z 02005KT 340V050 8000 NSC 05/03 Q1022
                        TEMPO BKN008=
201004150020 METAR COR EGLL 150020Z 02006KT 330V050 CAVOK 05/04 Q1022
                        NOSIG=
201004142350 METAR COR EGLL 142350Z 02006KT CAVOK 06/04 Q1022 NOSIG=
201004142320 METAR COR EGLL 142320Z 36006KT 340V040 CAVOK 06/04 Q1022
                        NOSIG=
201004142250 METAR COR EGLL 142250Z 36004KT 320V030 9000 NSC 07/04 Q1022
                        NOSIG=
201004142220 METAR COR EGLL 142220Z 02006KT CAVOK 07/04 Q1022 NOSIG=
201004142150 METAR COR EGLL 142150Z 02005KT 340V060 CAVOK 08/04 Q1022
                        NOSIG=
201004142120 METAR COR EGLL 142120Z 04005KT 360V070 9000 FEW033 09/04
                        Q1022 NOSIG=
201004142050 METAR COR EGLL 142050Z 04005KT 9000 FEW040 09/04 Q1022 NOSIG=
201004142020 METAR COR EGLL 142020Z 05005KT 020V080 CAVOK 10/04 Q1021
                        NOSIG=
201004141950 METAR COR EGLL 141950Z 06007KT CAVOK 10/04 Q1021 NOSIG=
201004141920 METAR COR EGLL 141920Z 06007KT 9999 FEW041 10/03 Q1021 NOSIG=
201004141850 METAR COR EGLL 141850Z 05006KT 9999 FEW045 11/02 Q1021 NOSIG=
201004141820 METAR COR EGLL 141820Z 08007KT 9999 FEW040 11/02 Q1020 NOSIG=
201004141750 METAR COR EGLL 141750Z 06008KT 030V100 9999 FEW045 12/01
                        Q1020 NOSIG=
201004141720 METAR COR EGLL 141720Z 05007KT 010V080 9999 FEW045 12/02
                        Q1020 NOSIG=
201004141650 METAR COR EGLL 141650Z 06009KT 030V090 9999 FEW036 12/03
                        Q1020 NOSIG=
201004141620 METAR COR EGLL 141620Z 06008KT 9999 SCT036 12/03 Q1020 NOSIG=
201004141550 METAR COR EGLL 141550Z 05007KT 010V090 9999 SCT028 SCT033
                        11/04 Q1021 NOSIG=
201004141520 METAR COR EGLL 141520Z 05006KT 020V090 9999 SCT024 BKN035
                        11/04 Q1021 NOSIG=
201004141450 METAR COR EGLL 141450Z 04007KT 350V070 9999 BKN024 BKN028
                        10/04 Q1021 NOSIG=
201004141420 METAR COR EGLL 141420Z 07009KT 9999 BKN025 10/04 Q1021 NOSIG=
201004141350 METAR COR EGLL 141350Z 06008KT 020V090 9999 BKN024 BKN028
                        10/04 Q1021 NOSIG=
201004141320 METAR COR EGLL 141320Z 06009KT 9999 BKN027 10/04 Q1021 NOSIG=
201004141250 METAR COR EGLL 141250Z 07010KT 9999 BKN028 10/03 Q1021 NOSIG=
201004141220 METAR COR EGLL 141220Z 04007KT 9999 BKN027 09/03 Q1021 NOSIG=
201004141150 METAR COR EGLL 141150Z 06009KT 9999 BKN020 09/04 Q1021 NOSIG=
201004141120 METAR COR EGLL 141120Z 06008KT 9999 BKN020 08/03 Q1021 NOSIG=
201004141050 METAR COR EGLL 141050Z 08008KT 9999 BKN024 09/03 Q1021 NOSIG=
201004141020 METAR COR EGLL 141020Z 04008KT 010V080 9999 BKN024 08/03
                        Q1021 NOSIG=
201004140950 METAR COR EGLL 140950Z 06010KT 9999 BKN025 08/03 Q1021 NOSIG=
201004140920 METAR COR EGLL 140920Z 04008KT 9999 FEW025 BKN028 08/03 Q1021
                        NOSIG=
201004140850 METAR COR EGLL 140850Z 05008KT 010V080 9999 SCT020 BKN028
                        08/04 Q1021 NOSIG=
201004140820 METAR COR EGLL 140820Z 03007KT 9999 FEW016 SCT020 BKN029
                        08/04 Q1021 NOSIG=
201004140750 METAR COR EGLL 140750Z 04005KT 340V100 9999 FEW015 SCT020
                        BKN030 08/04 Q1021 NOSIG=
201004140720 METAR COR EGLL 140720Z 02007KT 9999 FEW014 SCT020 BKN030
                        08/04 Q1020 NOSIG=
201004140650 METAR COR EGLL 140650Z 02005KT 360V060 9999 FEW020 BKN030
                        07/04 Q1020 NOSIG=
201004140620 METAR COR EGLL 140620Z 01006KT 330V040 9999 FEW015 BKN034
                        07/04 Q1020 NOSIG=
201004140550 METAR COR EGLL 140550Z 36005KT 9999 FEW016 BKN035 07/04 Q1020
                        NOSIG=
201004140520 METAR COR EGLL 140520Z 36006KT 340V040 9999 FEW016 BKN034
                        07/03 Q1020 NOSIG=
201004140450 METAR COR EGLL 140450Z 36007KT 330V060 9999 FEW017 BKN035
                        07/03 Q1021 NOSIG=
201004140420 METAR COR EGLL 140420Z 36006KT 300V030 9999 BKN036 07/03
                        Q1021 NOSIG=
201004140350 METAR COR EGLL 140350Z 36006KT 9999 BKN037 07/03 Q1021 NOSIG=
201004140320 METAR COR EGLL 140320Z 36006KT 330V030 9999 BKN037 07/02
                        Q1021 NOSIG=
201004140250 METAR COR EGLL 140250Z 35006KT 310V020 9999 FEW023 BKN037
                        07/02 Q1021 NOSIG=
201004140220 METAR COR EGLL 140220Z 36007KT 330V040 9999 FEW023 BKN037
                        07/02 Q1021 NOSIG=
201004140150 METAR COR EGLL 140150Z 02006KT 340V040 9999 BKN034 07/01
                        Q1022 NOSIG=
201004140120 METAR COR EGLL 140120Z 02005KT 340V060 9999 SCT030 BKN034
                        07/01 Q1022 NOSIG=
201004140050 METAR COR EGLL 140050Z 03007KT 350V060 9999 BKN030 07/01
                        Q1022 NOSIG=
201004140020 METAR EGLL 140020Z 03007KT 360V060 9999 SCT028 BKN038 07/01
                        Q1023=
201004132350 METAR COR EGLL 132350Z 04008KT 360V070 9999 FEW025 BKN035
                        07/02 Q1023 NOSIG=
201004132320 METAR COR EGLL 132320Z 03010KT 360V060 9999 FEW026 BKN039
                        08/01 Q1023 NOSIG=
201004132250 METAR COR EGLL 132250Z 02008KT 9999 FEW033 BKN043 08/02 Q1023
                        NOSIG=
201004132220 METAR COR EGLL 132220Z 02009KT 340V060 9999 SCT028 BKN045
                        08/02 Q1023 NOSIG=
201004132150 METAR COR EGLL 132150Z 02011KT 340V050 9999 SCT024 BKN048
                        08/02 Q1023 NOSIG=
201004132120 METAR COR EGLL 132120Z 02009KT 9999 FEW026 BKN044 08/03 Q1023
                        NOSIG=
201004132050 METAR COR EGLL 132050Z 02011KT 350V060 9999 FEW023 BKN047
                        08/03 Q1023 NOSIG=
201004132020 METAR COR EGLL 132020Z 02009KT 340V100 9999 FEW017 BKN046
                        09/04 Q1023 NOSIG=
201004131950 METAR COR EGLL 131950Z 02010KT 340V050 9999 SCT032 09/04
                        Q1023 NOSIG=
201004131920 METAR COR EGLL 131920Z 03010KT 9999 SCT033 09/04 Q1023 NOSIG=
201004131850 METAR COR EGLL 131850Z 03011KT CAVOK 10/03 Q1022 BECMG BKN022=
201004131820 METAR COR EGLL 131820Z 02011KT CAVOK 11/M02 Q1022 NOSIG=
201004131750 METAR COR EGLL 131750Z 03011KT 360V060 CAVOK 12/M01 Q1022
                        NOSIG=
201004131720 METAR COR EGLL 131720Z 02010KT 320V070 CAVOK 13/M01 Q1022
                        NOSIG=
201004131650 METAR COR EGLL 131650Z 02010KT 350V050 CAVOK 13/M01 Q1022
                        NOSIG=
201004131620 METAR COR EGLL 131620Z 02010KT 330V060 CAVOK 13/M00 Q1022
                        NOSIG=
201004131550 METAR COR EGLL 131550Z 02011KT 340V070 CAVOK 14/02 Q1022
                        NOSIG=
201004131520 METAR COR EGLL 131520Z 03009KT 360V060 CAVOK 14/M01 Q1022
                        NOSIG=
201004131450 METAR COR EGLL 131450Z 03009KT 350V060 9999 FEW040 15/00
                        Q1023 NOSIG=
201004131420 METAR COR EGLL 131420Z 02010KT 350V080 CAVOK 15/00 Q1023
                        NOSIG=
201004131350 METAR COR EGLL 131350Z 02009KT 340V070 CAVOK 15/01 Q1023
                        NOSIG=
201004131320 METAR COR EGLL 131320Z 03009KT 330V070 CAVOK 15/01 Q1023
                        NOSIG=
201004131250 METAR COR EGLL 131250Z 04009KT 320V100 CAVOK 15/01 Q1024
                        NOSIG=
201004131220 METAR COR EGLL 131220Z 05009KT 340V080 CAVOK 15/02 Q1024
                        NOSIG=
201004131150 METAR COR EGLL 131150Z 03010KT 9999 FEW048 14/02 Q1024 NOSIG=
201004131120 METAR COR EGLL 131120Z 04009KT 010V080 9999 FEW040 13/03
                        Q1024 NOSIG=
201004131050 METAR COR EGLL 131050Z 02010KT 340V060 CAVOK 13/03 Q1024
                        NOSIG=
201004131020 METAR COR EGLL 131020Z 03011KT 360V070 CAVOK 12/03 Q1025
                        NOSIG=
201004130950 METAR COR EGLL 130950Z 03010KT 350V070 CAVOK 11/03 Q1025
                        NOSIG=
201004130920 METAR COR EGLL 130920Z 03010KT 350V080 CAVOK 11/03 Q1025
                        NOSIG=
201004130850 METAR COR EGLL 130850Z 04009KT 360V080 CAVOK 10/04 Q1025
                        NOSIG=
201004130820 METAR COR EGLL 130820Z 03007KT 350V070 CAVOK 09/03 Q1025
                        NOSIG=
201004130750 METAR COR EGLL 130750Z 03007KT 350V070 9999 FEW016 08/03
                        Q1025 NOSIG=
201004130720 METAR COR EGLL 130720Z 02009KT 340V040 9999 FEW012 07/04
                        Q1025 NOSIG=
201004130650 METAR COR EGLL 130650Z 02008KT 340V040 9000 FEW010 06/04
                        Q1025 NOSIG=
201004130620 METAR COR EGLL 130620Z 02007KT 9000 NSC 06/04 Q1025 NOSIG=
201004130550 METAR COR EGLL 130550Z 36007KT 330V050 8000 FEW010 05/03
                        Q1025 NOSIG=
201004130520 METAR COR EGLL 130520Z 36007KT 340V040 7000 NSC 05/03 Q1025
                        NOSIG=
201004130450 METAR COR EGLL 130450Z 36005KT 330V040 8000 FEW011 05/03
                        Q1025 NOSIG=
201004130420 METAR COR EGLL 130420Z 01004KT 330V060 9000 FEW013 05/03
                        Q1025 NOSIG=
201004130350 METAR COR EGLL 130350Z 36004KT 330V050 9000 NSC 05/03 Q1025
                        NOSIG=
201004130320 METAR COR EGLL 130320Z 36005KT CAVOK 05/03 Q1025 NOSIG=
201004130250 METAR EGLL 130250Z NIL=
201004130220 METAR COR EGLL 130220Z 03004KT 340V070 CAVOK 05/03 Q1025
                        NOSIG=
201004130150 METAR COR EGLL 130150Z 02007KT 340V050 CAVOK 05/03 Q1025
                        NOSIG=
201004130120 METAR COR EGLL 130120Z 02008KT 350V060 CAVOK 05/03 Q1025
                        NOSIG=
201004130050 METAR COR EGLL 130050Z 01007KT 350V050 CAVOK 05/03 Q1025
                        NOSIG=
201004130020 METAR COR EGLL 130020Z 02008KT 350V060 CAVOK 06/03 Q1025
                        NOSIG=
201004122350 METAR COR EGLL 122350Z 03007KT 350V050 CAVOK 06/03 Q1025
                        NOSIG=
201004122320 METAR COR EGLL 122320Z 03008KT CAVOK 06/03 Q1025 NOSIG=
201004122250 METAR COR EGLL 122250Z 02007KT 350V060 CAVOK 06/04 Q1025
                        NOSIG=
201004122220 METAR COR EGLL 122220Z 03007KT 340V050 CAVOK 07/04 Q1025
                        NOSIG=
201004122150 METAR COR EGLL 122150Z 02009KT 350V060 CAVOK 08/04 Q1025
                        NOSIG=
201004122120 METAR COR EGLL 122120Z 02007KT 340V060 CAVOK 08/04 Q1025
                        NOSIG=
201004122050 METAR COR EGLL 122050Z 02009KT 330V040 CAVOK 09/05 Q1025
                        NOSIG=
201004122020 METAR COR EGLL 122020Z 02007KT 340V070 CAVOK 09/05 Q1025
                        NOSIG=
201004121950 METAR COR EGLL 121950Z 01006KT 330V050 CAVOK 10/05 Q1025
                        NOSIG=
201004121920 METAR COR EGLL 121920Z 01007KT 330V040 CAVOK 10/05 Q1025
                        NOSIG=
201004121850 METAR COR EGLL 121850Z 02008KT 340V050 9999 FEW048 11/04
                        Q1025 NOSIG=
201004121820 METAR COR EGLL 121820Z 01007KT 350V050 9999 FEW034 12/04
                        Q1025 NOSIG=
201004121750 METAR COR EGLL 121750Z 03011KT 9999 FEW036 12/04 Q1025 NOSIG=
201004121720 METAR COR EGLL 121720Z 02008KT 350V060 9999 FEW036 13/04
                        Q1025 NOSIG=
201004121650 METAR COR EGLL 121650Z 02010KT 340V040 9999 SCT038 13/05
                        Q1025 NOSIG=
201004121620 METAR COR EGLL 121620Z 02009KT 340V060 9999 SCT040 14/05
                        Q1025 NOSIG=
201004121550 METAR COR EGLL 121550Z 03008KT 360V070 9999 FEW040 SCT046
                        13/05 Q1025 NOSIG=
201004121520 METAR COR EGLL 121520Z 04008KT 360V070 9999 BKN039 BKN049TCU
                        13/05 Q1025 NOSIG=
201004121450 METAR COR EGLL 121450Z 03011KT 340V080 9999 BKN036 13/05
                        Q1025 NOSIG=
201004121420 METAR COR EGLL 121420Z 03009KT 350V060 9999 FEW035 SCT047
                        14/05 Q1026 NOSIG=
201004121350 METAR COR EGLL 121350Z 04008KT 010V080 9999 SCT033 SCT046
                        13/05 Q1026 NOSIG=
201004121320 METAR COR EGLL 121320Z 03010KT 350V070 9999 FEW034 SCT038
                        BKN044 13/05 Q1026 NOSIG=
201004121250 METAR COR EGLL 121250Z 03010KT 360V070 9999 SCT033 BKN037
                        13/05 Q1026 NOSIG=
201004121220 METAR COR EGLL 121220Z 04009KT 360V090 9999 SCT034 SCT045
                        13/05 Q1027 NOSIG=
201004121150 METAR COR EGLL 121150Z 03010KT 340V070 9999 SCT030 SCT037
                        14/05 Q1027 NOSIG=
201004121120 METAR COR EGLL 121120Z 05009KT 360V080 9999 FEW025 SCT032
                        12/05 Q1027 NOSIG=
201004121050 METAR COR EGLL 121050Z 03008KT 350V110 9999 FEW024 12/05
                        Q1028 NOSIG=
201004121020 METAR COR EGLL 121020Z 02008KT 330V050 9999 SCT020 SCT025
                        10/04 Q1028 NOSIG=
201004120950 METAR COR EGLL 120950Z 04009KT 360V080 9999 SCT024 10/04
                        Q1028 NOSIG=
201004120920 METAR COR EGLL 120920Z 02009KT 340V050 9999 SCT026 10/03
                        Q1028 NOSIG=
201004120850 METAR COR EGLL 120850Z 03008KT 350V070 9999 FEW021 09/03
                        Q1028 NOSIG=
201004120820 METAR COR EGLL 120820Z 02009KT 350V050 9999 SCT020 07/02
                        Q1028 NOSIG=
201004120750 METAR COR EGLL 120750Z 04009KT 360V070 9999 BKN020 07/02
                        Q1028 NOSIG=
201004120720 METAR COR EGLL 120720Z 04007KT 010V070 9999 FEW020 BKN023
                        07/02 Q1028 NOSIG=
201004120650 METAR COR EGLL 120650Z 04008KT 360V070 9999 FEW020 BKN025
                        07/02 Q1028 NOSIG=
201004120620 METAR COR EGLL 120620Z 04006KT 360V090 9999 BKN023 07/02
                        Q1028 NOSIG=
201004120550 METAR COR EGLL 120550Z 04007KT 350V080 9999 BKN024 07/03
                        Q1028 NOSIG=
201004120520 METAR COR EGLL 120520Z 03007KT 010V070 9999 FEW016 BKN028
                        07/03 Q1028 NOSIG=
201004120450 METAR COR EGLL 120450Z 03008KT 360V060 9999 FEW018 BKN028
                        07/03 Q1028 NOSIG=
201004120420 METAR COR EGLL 120420Z 04007KT 350V070 9999 BKN031 07/03
                        Q1028 NOSIG=
201004120350 METAR COR EGLL 120350Z 04008KT 360V080 9999 BKN035 06/03
                        Q1028 NOSIG=
201004120320 METAR COR EGLL 120320Z 04006KT 360V070 9999 BKN037 06/03
                        Q1028 NOSIG=
201004120250 METAR COR EGLL 120250Z 04007KT 9999 FEW018 BKN038 06/03 Q1028
                        NOSIG=
201004120220 METAR COR EGLL 120220Z 05007KT 010V090 9999 BKN017 BKN039
                        07/03 Q1028 NOSIG=
201004120150 METAR COR EGLL 120150Z 04007KT 010V070 9999 SCT017 BKN038
                        07/03 Q1028 NOSIG=
201004120120 METAR COR EGLL 120120Z 05007KT 020V080 9999 BKN017 BKN026
                        07/03 Q1028 NOSIG=
201004120050 METAR COR EGLL 120050Z 04007KT 010V070 9999 SCT020 BKN036
                        07/03 Q1028 NOSIG=
201004120020 METAR COR EGLL 120020Z 05007KT 010V080 9999 FEW017 OVC035
                        07/03 Q1028 TEMPO BKN014=
201004112350 METAR COR EGLL 112350Z 05008KT 360V080 9999 FEW016 BKN033
                        07/03 Q1028 TEMPO BKN013=
201004112320 METAR COR EGLL 112320Z 05009KT 010V080 9999 BKN015 07/03
                        Q1028 TEMPO BKN013=
201004112250 METAR COR EGLL 112250Z 05010KT 9999 BKN017 07/03 Q1028 TEMPO
                        BKN014=
201004112220 METAR COR EGLL 112220Z 06011KT 9999 BKN019 07/03 Q1028 TEMPO
                        BKN014=
201004112150 METAR COR EGLL 112150Z 05011KT 010V080 9999 BKN020 07/03
                        Q1028 BECMG BKN014=
201004112120 METAR COR EGLL 112120Z 06012KT 9999 BKN020 08/03 Q1028 BECMG
                        BKN014=
201004112050 METAR COR EGLL 112050Z 06011KT 9999 BKN023 08/03 Q1028 NOSIG=
201004112020 METAR COR EGLL 112020Z 07012KT 9999 BKN026 08/03 Q1028 NOSIG=
201004111950 METAR COR EGLL 111950Z 07012KT 9999 SCT028 09/03 Q1028 NOSIG=
201004111920 METAR COR EGLL 111920Z 06009KT 9999 FEW040 10/02 Q1027 NOSIG=
201004111850 METAR COR EGLL 111850Z 05012KT 9999 FEW043 10/01 Q1027 NOSIG=
201004111820 METAR COR EGLL 111820Z 05009KT 9999 FEW049 11/01 Q1027 NOSIG=
201004111750 METAR COR EGLL 111750Z 05012KT 9999 SCT049 11/00 Q1027 NOSIG=
201004111720 METAR COR EGLL 111720Z 05010KT 9999 FEW048 12/M00 Q1027 NOSIG=
201004111650 METAR COR EGLL 111650Z 05011KT 9999 FEW048 12/00 Q1027 NOSIG=
201004111620 METAR COR EGLL 111620Z 06012KT 9999 SCT048 13/01 Q1027 NOSIG=
201004111550 METAR COR EGLL 111550Z 05012KT 360V080 9999 SCT049 13/01
                        Q1027 NOSIG=
201004111520 METAR COR EGLL 111520Z 06013KT 9999 SCT046 14/01 Q1027 NOSIG=
201004111450 METAR COR EGLL 111450Z 05011KT 350V080 9999 SCT045 14/02
                        Q1027 NOSIG=
201004111420 METAR COR EGLL 111420Z 05011KT 020V090 9999 FEW049 14/02
                        Q1028 NOSIG=
201004111350 METAR COR EGLL 111350Z 06012KT CAVOK 14/01 Q1028 NOSIG=
201004111320 METAR COR EGLL 111320Z 07012KT CAVOK 14/01 Q1028 NOSIG=
201004111250 METAR COR EGLL 111250Z 05009KT 010V090 9999 FEW048 14/01
                        Q1028 NOSIG=
201004111220 METAR COR EGLL 111220Z 06010KT 010V090 CAVOK 14/01 Q1029
                        NOSIG=
201004111150 METAR COR EGLL 111150Z 05009KT 360V080 9999 FEW042 13/01
                        Q1029 NOSIG=
201004111120 METAR COR EGLL 111120Z 04007KT 350V090 9999 FEW042 13/02
                        Q1029 NOSIG=
201004111050 METAR COR EGLL 111050Z 05008KT 020V090 9999 FEW040 12/02
                        Q1029 NOSIG=
201004111020 METAR COR EGLL 111020Z 06009KT CAVOK 11/02 Q1030 NOSIG=
201004110950 METAR COR EGLL 110950Z 06006KT 030V090 CAVOK 10/02 Q1030
                        NOSIG=
201004110920 METAR COR EGLL 110920Z 05007KT 010V080 CAVOK 10/03 Q1030
                        NOSIG=
201004110850 METAR COR EGLL 110850Z 04005KT 360V080 CAVOK 09/03 Q1030
                        NOSIG=
201004110820 METAR EGLL 110820Z 04006KT 360V090 9999 FEW013 08/04 Q1030=
201004110750 METAR COR EGLL 110750Z 05006KT 9999 FEW013 07/04 Q1030 NOSIG=
201004110720 METAR COR EGLL 110720Z 07007KT 9999 FEW013 06/03 Q1030 TEMPO
                        BKN014=
201004110650 METAR COR EGLL 110650Z 06008KT 020V090 9999 FEW013 06/03
                        Q1030 TEMPO BKN014=
201004110620 METAR COR EGLL 110620Z 06006KT 9999 FEW014 06/03 Q1030 TEMPO
                        BKN012=
201004110550 METAR COR EGLL 110550Z 05005KT CAVOK 06/02 Q1030 TEMPO BKN012=
201004110520 METAR COR EGLL 110520Z 05005KT 010V070 CAVOK 06/02 Q1030
                        BECMG BKN010=
201004110450 METAR COR EGLL 110450Z 05006KT CAVOK 06/02 Q1030 BECMG BKN010=
201004110420 METAR COR EGLL 110420Z 05005KT 010V080 CAVOK 06/02 Q1030
                        NOSIG=
201004110350 METAR COR EGLL 110350Z 04006KT 010V080 CAVOK 07/01 Q1030
                        NOSIG=
201004110320 METAR COR EGLL 110320Z 04006KT 010V070 CAVOK 07/01 Q1030
                        NOSIG=
201004110250 METAR COR EGLL 110250Z 04006KT 010V070 CAVOK 07/01 Q1030
                        NOSIG=
201004110220 METAR COR EGLL 110220Z 04005KT CAVOK 08/02 Q1031 NOSIG=
201004110150 METAR COR EGLL 110150Z 04006KT CAVOK 08/02 Q1031 NOSIG=
201004110120 METAR COR EGLL 110120Z 04005KT CAVOK 08/03 Q1031 NOSIG=
201004110050 METAR COR EGLL 110050Z 04004KT CAVOK 08/02 Q1031 NOSIG=
201004110020 METAR COR EGLL 110020Z 04003KT CAVOK 08/03 Q1031 NOSIG=
201004102350 METAR COR EGLL 102350Z VRB03KT CAVOK 09/03 Q1031 NOSIG=
201004102320 METAR COR EGLL 102320Z 03003KT CAVOK 08/02 Q1031 NOSIG=
201004102250 METAR COR EGLL 102250Z VRB02KT CAVOK 09/02 Q1031 NOSIG=
201004102220 METAR COR EGLL 102220Z 09002KT CAVOK 09/02 Q1032 NOSIG=
201004102150 METAR COR EGLL 102150Z 09004KT CAVOK 09/02 Q1032 NOSIG=
201004102120 METAR COR EGLL 102120Z 10004KT CAVOK 08/02 Q1032 NOSIG=
201004102050 METAR COR EGLL 102050Z 10006KT CAVOK 09/03 Q1032 NOSIG=
201004102020 METAR COR EGLL 102020Z 10006KT CAVOK 09/03 Q1032 NOSIG=
201004101950 METAR COR EGLL 101950Z 10008KT CAVOK 10/03 Q1032 NOSIG=
201004101920 METAR COR EGLL 101920Z 11008KT CAVOK 10/03 Q1032 NOSIG=
201004101850 METAR COR EGLL 101850Z 11009KT CAVOK 11/04 Q1031 NOSIG=
201004101820 METAR COR EGLL 101820Z 11010KT CAVOK 12/05 Q1031 NOSIG=
201004101750 METAR COR EGLL 101750Z 10009KT CAVOK 13/05 Q1031 NOSIG=
201004101720 METAR COR EGLL 101720Z 09010KT 9999 FEW046 14/06 Q1031 NOSIG=
201004101650 METAR COR EGLL 101650Z 08008KT 050V110 CAVOK 15/06 Q1031
                        NOSIG=
201004101620 METAR COR EGLL 101620Z 08009KT CAVOK 16/06 Q1031 NOSIG=
201004101550 METAR COR EGLL 101550Z 06010KT CAVOK 16/04 Q1031 NOSIG=
201004101520 METAR COR EGLL 101520Z 04009KT 010V070 CAVOK 17/04 Q1031
                        NOSIG=
201004101450 METAR COR EGLL 101450Z 05008KT 010V090 CAVOK 17/05 Q1032
                        NOSIG=
201004101420 METAR COR EGLL 101420Z 05007KT 010V090 CAVOK 17/05 Q1032
                        NOSIG=
201004101350 METAR COR EGLL 101350Z 07008KT 020V100 CAVOK 17/04 Q1032
                        NOSIG=
201004101320 METAR COR EGLL 101320Z 02007KT 310V080 9999 FEW049 16/05
                        Q1033 NOSIG=
201004101250 METAR COR EGLL 101250Z 04007KT 340V080 9999 FEW049 17/05
                        Q1033 NOSIG=
201004101220 METAR COR EGLL 101220Z 05007KT 350V110 9999 FEW042 16/05
                        Q1033 NOSIG=
201004101150 METAR COR EGLL 101150Z 04006KT 350V090 9999 FEW044 15/05
                        Q1033 NOSIG=
201004101120 METAR COR EGLL 101120Z 04007KT 360V090 9999 FEW044 16/05
                        Q1034 NOSIG=
201004101050 METAR COR EGLL 101050Z 08008KT 050V110 9999 FEW040 15/05
                        Q1034 NOSIG=
201004101020 METAR COR EGLL 101020Z 10008KT CAVOK 15/05 Q1034 NOSIG=
201004100950 METAR COR EGLL 100950Z 08007KT CAVOK 14/05 Q1034 NOSIG=
201004100920 METAR COR EGLL 100920Z 08006KT 040V100 CAVOK 14/05 Q1034
                        NOSIG=
201004100850 METAR COR EGLL 100850Z 08005KT 030V120 CAVOK 13/07 Q1034
                        NOSIG=
201004100820 METAR COR EGLL 100820Z 05004KT 360V120 CAVOK 12/06 Q1034
                        NOSIG=
201004100750 METAR COR EGLL 100750Z VRB03KT CAVOK 11/06 Q1034 NOSIG=
201004100720 METAR COR EGLL 100720Z 03003KT CAVOK 10/06 Q1034 NOSIG=
201004100650 METAR COR EGLL 100650Z VRB02KT CAVOK 10/06 Q1034 NOSIG=
201004100620 METAR COR EGLL 100620Z 03003KT CAVOK 09/05 Q1034 NOSIG=
201004100550 METAR COR EGLL 100550Z 04003KT CAVOK 08/05 Q1034 NOSIG=
201004100520 METAR COR EGLL 100520Z 04003KT CAVOK 08/05 Q1034 NOSIG=
201004100450 METAR COR EGLL 100450Z 03004KT CAVOK 08/04 Q1034 NOSIG=
201004100420 METAR COR EGLL 100420Z 03003KT CAVOK 08/05 Q1034 NOSIG=
201004100350 METAR COR EGLL 100350Z 04002KT CAVOK 09/05 Q1034 NOSIG=
201004100320 METAR COR EGLL 100320Z 04003KT CAVOK 08/05 Q1034 NOSIG=
201004100250 METAR COR EGLL 100250Z 05003KT CAVOK 08/05 Q1034 NOSIG=
201004100220 METAR COR EGLL 100220Z 06002KT CAVOK 09/05 Q1034 NOSIG=
201004100150 METAR COR EGLL 100150Z 04004KT CAVOK 10/05 Q1034 NOSIG=
201004100120 METAR COR EGLL 100120Z 04004KT CAVOK 09/05 Q1034 NOSIG=
201004100050 METAR COR EGLL 100050Z 05005KT CAVOK 10/05 Q1034 NOSIG=
201004100020 METAR COR EGLL 100020Z 06004KT CAVOK 10/06 Q1034 NOSIG=
201004092350 METAR COR EGLL 092350Z 07005KT CAVOK 10/06 Q1034 NOSIG=
201004092320 METAR COR EGLL 092320Z 07006KT CAVOK 11/06 Q1034 NOSIG=
201004092250 METAR COR EGLL 092250Z 08006KT CAVOK 12/06 Q1033 NOSIG=
201004092220 METAR COR EGLL 092220Z 06005KT CAVOK 14/06 Q1033 NOSIG=
201004092150 METAR COR EGLL 092150Z 04003KT CAVOK 14/05 Q1033 NOSIG=
201004092120 METAR COR EGLL 092120Z 06006KT CAVOK 15/05 Q1033 NOSIG=
201004092050 METAR COR EGLL 092050Z 05003KT CAVOK 15/05 Q1033 NOSIG=
201004092020 METAR COR EGLL 092020Z 04004KT CAVOK 16/03 Q1033 NOSIG=
201004091950 METAR EGLL 091950Z VRB03KT CAVOK 16/02 Q1033 NOSIG=
201004091920 METAR COR EGLL 091920Z VRB03KT CAVOK 16/02 Q1033 NOSIG=
201004091850 METAR COR EGLL 091850Z VRB03KT CAVOK 16/02 Q1033 NOSIG=
201004091820 METAR COR EGLL 091820Z 36004KT CAVOK 17/02 Q1032 NOSIG=
201004091750 METAR COR EGLL 091750Z 36004KT 320V060 CAVOK 17/02 Q1032
                        NOSIG=
201004091720 METAR COR EGLL 091720Z VRB03KT CAVOK 17/02 Q1032 NOSIG=
201004091650 METAR COR EGLL 091650Z 35004KT 300V030 CAVOK 17/03 Q1032
                        NOSIG=
201004091620 METAR COR EGLL 091620Z 03004KT 340V090 CAVOK 18/03 Q1032
                        NOSIG=
201004091550 METAR COR EGLL 091550Z 23005KT 180V270 CAVOK 18/01 Q1033
                        NOSIG=
201004091520 METAR COR EGLL 091520Z 31005KT 270V090 CAVOK 17/02 Q1033
                        NOSIG=
201004091450 METAR COR EGLL 091450Z 29006KT CAVOK 17/03 Q1033 NOSIG=
201004091420 METAR COR EGLL 091420Z VRB03KT CAVOK 17/02 Q1033 NOSIG=
201004091350 METAR COR EGLL 091350Z VRB06KT CAVOK 17/03 Q1033 NOSIG=
201004091320 METAR EGLL 091320Z 31006KT 270V360 CAVOK 18/03 Q1033=
201004091250 METAR COR EGLL 091250Z 29005KT 230V330 CAVOK 18/03 Q1033
                        NOSIG=
201004091220 METAR COR EGLL 091220Z 28005KT 220V330 CAVOK 17/03 Q1034
                        NOSIG=
201004091150 METAR COR EGLL 091150Z VRB06KT CAVOK 17/03 Q1034 NOSIG=
201004091120 METAR COR EGLL 091120Z 28006KT 220V030 CAVOK 16/03 Q1034
                        NOSIG=
201004091050 METAR COR EGLL 091050Z VRB05KT CAVOK 16/03 Q1034 NOSIG=
201004091020 METAR COR EGLL 091020Z VRB02KT 9999 FEW040 15/05 Q1034 NOSIG=
201004090950 METAR COR EGLL 090950Z VRB02KT 9999 FEW036 14/05 Q1034 NOSIG=
201004090920 METAR COR EGLL 090920Z VRB03KT 9999 FEW032 13/05 Q1034 NOSIG=
201004090850 METAR COR EGLL 090850Z VRB02KT CAVOK 12/05 Q1034 NOSIG=
201004090820 METAR COR EGLL 090820Z VRB02KT CAVOK 11/04 Q1034 NOSIG=
201004090750 METAR COR EGLL 090750Z VRB03KT CAVOK 09/04 Q1034 NOSIG=
201004090720 METAR COR EGLL 090720Z VRB03KT 9999 FEW049 08/03 Q1034 NOSIG=
201004090650 METAR COR EGLL 090650Z 31003KT 9999 FEW049 08/03 Q1034 NOSIG=
201004090620 METAR COR EGLL 090620Z 28003KT 9999 FEW049 07/03 Q1033 NOSIG=
201004090550 METAR COR EGLL 090550Z 29003KT CAVOK 06/03 Q1033 NOSIG=
201004090520 METAR COR EGLL 090520Z 32002KT CAVOK 05/03 Q1033 NOSIG=
201004090450 METAR COR EGLL 090450Z VRB02KT CAVOK 05/02 Q1033 NOSIG=
201004090420 METAR COR EGLL 090420Z 00000KT CAVOK 05/02 Q1033 NOSIG=
201004090350 METAR COR EGLL 090350Z 28002KT CAVOK 06/03 Q1033 NOSIG=
201004090320 METAR COR EGLL 090320Z 27002KT CAVOK 06/03 Q1033 NOSIG=
201004090250 METAR COR EGLL 090250Z 29002KT CAVOK 06/03 Q1033 NOSIG=
201004090220 METAR COR EGLL 090220Z 29002KT CAVOK 07/03 Q1033 NOSIG=
201004090150 METAR COR EGLL 090150Z VRB03KT CAVOK 07/03 Q1033 NOSIG=
201004090120 METAR COR EGLL 090120Z 30003KT CAVOK 06/03 Q1033 NOSIG=
201004090050 METAR COR EGLL 090050Z 29003KT CAVOK 07/03 Q1032 NOSIG=
201004090020 METAR COR EGLL 090020Z 27003KT CAVOK 08/03 Q1032 NOSIG=
201004082350 METAR COR EGLL 082350Z VRB03KT CAVOK 09/03 Q1032 NOSIG=
201004082320 METAR EGLL 082320Z 19002KT CAVOK 09/04 Q1032=
201004082250 METAR COR EGLL 082250Z 00000KT CAVOK 09/04 Q1032 NOSIG=
201004082220 METAR COR EGLL 082220Z 29003KT CAVOK 11/03 Q1032 NOSIG=
201004082150 METAR COR EGLL 082150Z 33002KT CAVOK 14/03 Q1032 NOSIG=
201004082120 METAR COR EGLL 082120Z 34002KT CAVOK 14/02 Q1032 NOSIG=
201004082050 METAR COR EGLL 082050Z 34002KT CAVOK 14/02 Q1032 NOSIG=
201004082020 METAR COR EGLL 082020Z 32003KT CAVOK 14/02 Q1032 NOSIG=
201004081950 METAR COR EGLL 081950Z 34002KT CAVOK 14/02 Q1032 NOSIG=
201004081920 METAR COR EGLL 081920Z 34002KT CAVOK 14/02 Q1032 NOSIG=
201004081850 METAR COR EGLL 081850Z 36003KT CAVOK 15/02 Q1031 NOSIG=
201004081820 METAR COR EGLL 081820Z VRB03KT CAVOK 15/02 Q1031 NOSIG=
201004081750 METAR COR EGLL 081750Z 35004KT 320V020 CAVOK 16/01 Q1031
                        NOSIG=
201004081720 METAR COR EGLL 081720Z 35006KT 300V020 CAVOK 15/02 Q1031
                        NOSIG=
201004081650 METAR COR EGLL 081650Z 03005KT 330V070 CAVOK 16/02 Q1031
                        NOSIG=
201004081620 METAR COR EGLL 081620Z 02005KT 310V080 CAVOK 16/02 Q1030
                        NOSIG=
201004081550 METAR COR EGLL 081550Z VRB04KT CAVOK 16/02 Q1030 NOSIG=
201004081520 METAR COR EGLL 081520Z 33004KT 270V040 CAVOK 16/02 Q1030
                        NOSIG=
201004081450 METAR COR EGLL 081450Z 33004KT 250V060 CAVOK 16/02 Q1031
                        NOSIG=
201004081420 METAR COR EGLL 081420Z VRB04KT 9999 FEW049 16/02 Q1031 NOSIG=
201004081350 METAR COR EGLL 081350Z 32005KT 260V050 9999 FEW049 15/03
                        Q1031 NOSIG=
201004081320 METAR COR EGLL 081320Z VRB05KT 9999 FEW047 15/03 Q1031 NOSIG=
201004081250 METAR COR EGLL 081250Z 32007KT 270V020 9999 FEW049 15/03
                        Q1031 NOSIG=
201004081220 METAR COR EGLL 081220Z 34006KT 290V030 9999 FEW049 15/02
                        Q1031 NOSIG=
201004081150 METAR COR EGLL 081150Z VRB05KT 9999 FEW045 14/02 Q1031 NOSIG=
201004081120 METAR COR EGLL 081120Z 34006KT 280V050 9999 FEW044 14/02
                        Q1031 NOSIG=
201004081050 METAR COR EGLL 081050Z 35006KT 300V030 9999 FEW040 13/02
                        Q1031 NOSIG=
201004081020 METAR COR EGLL 081020Z 31006KT 280V020 9999 FEW036 12/03
                        Q1031 NOSIG=
201004080950 METAR COR EGLL 080950Z 32005KT 280V350 9999 FEW040 12/02
                        Q1031 NOSIG=
201004080920 METAR COR EGLL 080920Z 34004KT 290V040 CAVOK 11/03 Q1031
                        NOSIG=
201004080850 METAR COR EGLL 080850Z 35004KT 300V030 CAVOK 10/03 Q1031
                        NOSIG=
201004080820 METAR COR EGLL 080820Z VRB03KT CAVOK 08/03 Q1030 NOSIG=
201004080750 METAR COR EGLL 080750Z 00000KT CAVOK 07/03 Q1030 NOSIG=
201004080720 METAR COR EGLL 080720Z VRB03KT CAVOK 06/02 Q1030 NOSIG=
201004080650 METAR COR EGLL 080650Z 28003KT CAVOK 06/02 Q1030 NOSIG=
201004080620 METAR COR EGLL 080620Z VRB03KT CAVOK 05/02 Q1029 NOSIG=
201004080550 METAR COR EGLL 080550Z 29003KT CAVOK 05/02 Q1029 NOSIG=
201004080520 METAR COR EGLL 080520Z 31004KT CAVOK 04/02 Q1028 NOSIG=
201004080450 METAR COR EGLL 080450Z 29005KT CAVOK 04/02 Q1028 NOSIG=
201004080420 METAR COR EGLL 080420Z 30003KT CAVOK 04/01 Q1028 NOSIG=
201004080350 METAR COR EGLL 080350Z 30003KT CAVOK 04/01 Q1028 NOSIG=
201004080320 METAR COR EGLL 080320Z 28003KT CAVOK 03/01 Q1027 NOSIG=
201004080250 METAR COR EGLL 080250Z 27003KT CAVOK 04/01 Q1027 NOSIG=
201004080220 METAR COR EGLL 080220Z 29003KT CAVOK 04/01 Q1027 NOSIG=
201004080150 METAR COR EGLL 080150Z 28004KT CAVOK 05/02 Q1026 NOSIG=
201004080120 METAR COR EGLL 080120Z VRB02KT CAVOK 06/02 Q1026 NOSIG=
201004080050 METAR COR EGLL 080050Z 31004KT 280V350 CAVOK 06/02 Q1026
                        NOSIG=
201004080020 METAR COR EGLL 080020Z VRB03KT CAVOK 06/02 Q1026 NOSIG=
201004072350 METAR COR EGLL 072350Z 32006KT CAVOK 07/02 Q1026 NOSIG=
201004072320 METAR COR EGLL 072320Z 32005KT CAVOK 07/02 Q1025 NOSIG=
201004072250 METAR COR EGLL 072250Z 31006KT 280V020 CAVOK 08/02 Q1025
                        NOSIG=
201004072220 METAR COR EGLL 072220Z 31005KT 280V350 CAVOK 08/03 Q1025
                        NOSIG=
201004072150 METAR COR EGLL 072150Z 31004KT CAVOK 10/05 Q1024 NOSIG=
201004072120 METAR COR EGLL 072120Z 30004KT 9999 SCT045 10/06 Q1024 NOSIG=
201004072050 METAR COR EGLL 072050Z 30004KT 9999 SCT033 10/06 Q1024 NOSIG=
201004072020 METAR COR EGLL 072020Z VRB03KT 9999 FEW034 10/06 Q1023 NOSIG=
201004071950 METAR COR EGLL 071950Z 35005KT 320V020 9999 FEW043 11/05
                        Q1023 NOSIG=
201004071920 METAR EGLL 071920Z VRB03KT 9999 -RA BKN041 11/05 Q1023=
201004071850 METAR COR EGLL 071850Z 34003KT 9999 BKN040 11/05 Q1022 NOSIG=
201004071820 METAR COR EGLL 071820Z VRB03KT 9999 BKN038 11/05 Q1022 NOSIG=
201004071750 METAR COR EGLL 071750Z 35005KT 320V030 9999 FEW049 10/05
                        Q1021 NOSIG=
201004071720 METAR COR EGLL 071720Z 36005KT 330V030 CAVOK 10/06 Q1021
                        NOSIG=
201004071650 METAR COR EGLL 071650Z 36006KT 330V030 9999 FEW028 10/06
                        Q1020 NOSIG=
201004071620 METAR COR EGLL 071620Z 36007KT 9999 FEW028 11/06 Q1020 NOSIG=
201004071550 METAR EGLL 071550Z 35007KT 310V020 9999 SCT035 SCT048 11/06
                        Q1020=
201004071520 METAR COR EGLL 071520Z 34007KT 310V020 9999 FEW018 BKN035
                        10/06 Q1019 NOSIG=
201004071450 METAR COR EGLL 071450Z 35007KT 310V040 9999 FEW018 SCT025
                        BKN032 11/07 Q1019 NOSIG=
201004071420 METAR COR EGLL 071420Z 33008KT 300V360 9999 -RA SCT025 SCT030
                        10/07 Q1019 NOSIG=
201004071350 METAR COR EGLL 071350Z 32008KT 300V010 9999 -RA BKN021 10/07
                        Q1019 NOSIG=
201004071320 METAR COR EGLL 071320Z 32008KT 290V360 9000 -DZ BKN020 10/07
                        Q1018 NOSIG=
201004071250 METAR COR EGLL 071250Z 32007KT 9000 -RA BKN017 11/07 Q1018
                        NOSIG=
201004071220 METAR COR EGLL 071220Z 32007KT 9999 -RA BKN018 11/07 Q1018
                        NOSIG=
201004071150 METAR COR EGLL 071150Z 34005KT 300V040 9999 -RA BKN017 11/07
                        Q1017 NOSIG=
201004071120 METAR COR EGLL 071120Z 35006KT 320V020 9000 -RA BKN015 10/07
                        Q1017 TEMPO BKN013=
201004071050 METAR COR EGLL 071050Z 35005KT 320V030 8000 -RA BKN013 10/07
                        Q1017 NOSIG=
201004071020 METAR COR EGLL 071020Z 32006KT 8000 BKN015 10/07 Q1017 NOSIG=
201004070950 METAR COR EGLL 070950Z 32006KT 290V360 9999 FEW015 10/07
                        Q1017 NOSIG=
201004070920 METAR COR EGLL 070920Z 32005KT 280V360 CAVOK 10/06 Q1016
                        NOSIG=
201004070850 METAR COR EGLL 070850Z 32005KT 280V350 9000 NSC 10/06 Q1016
                        NOSIG=
201004070820 METAR COR EGLL 070820Z 30005KT 9000 -RA NSC 09/06 Q1016 NOSIG=
201004070750 METAR COR EGLL 070750Z 29008KT 9999 -RA NSC 09/06 Q1016 NOSIG=
201004070720 METAR COR EGLL 070720Z 27006KT CAVOK 09/06 Q1015 NOSIG=
201004070650 METAR COR EGLL 070650Z 26005KT CAVOK 09/06 Q1015 NOSIG=
201004070620 METAR EGLL 070620Z VRB02KT 9999 -DZ NSC 09/05 Q1014=
201004070550 METAR COR EGLL 070550Z VRB03KT CAVOK 08/05 Q1014 NOSIG=
201004070520 METAR COR EGLL 070520Z 32003KT CAVOK 09/05 Q1014 NOSIG=
201004070450 METAR COR EGLL 070450Z 30004KT CAVOK 08/05 Q1013 NOSIG=
201004070420 METAR COR EGLL 070420Z VRB03KT CAVOK 09/05 Q1013 NOSIG=
201004070350 METAR COR EGLL 070350Z 28003KT CAVOK 08/05 Q1013 NOSIG=
201004070320 METAR COR EGLL 070320Z 27004KT CAVOK 08/04 Q1013 NOSIG=
201004070250 METAR COR EGLL 070250Z 27005KT CAVOK 09/05 Q1013 NOSIG=
201004070220 METAR COR EGLL 070220Z 19003KT CAVOK 09/04 Q1012 NOSIG=
201004070150 METAR COR EGLL 070150Z 19002KT CAVOK 09/04 Q1012 NOSIG=
201004070120 METAR COR EGLL 070120Z 20003KT CAVOK 10/05 Q1012 NOSIG=
201004070050 METAR COR EGLL 070050Z 00000KT CAVOK 09/04 Q1012 NOSIG=
201004070020 METAR COR EGLL 070020Z 16002KT CAVOK 10/04 Q1012 NOSIG=
201004062350 METAR COR EGLL 062350Z 13004KT CAVOK 09/04 Q1012 NOSIG=
201004062320 METAR COR EGLL 062320Z 10003KT CAVOK 10/04 Q1012 NOSIG=
201004062250 METAR COR EGLL 062250Z 08003KT CAVOK 10/04 Q1012 NOSIG=
201004062220 METAR COR EGLL 062220Z 11004KT CAVOK 11/04 Q1012 NOSIG=
201004062150 METAR COR EGLL 062150Z 09004KT CAVOK 11/04 Q1012 NOSIG=
201004062120 METAR COR EGLL 062120Z 11005KT 090V150 CAVOK 11/04 Q1012
                        NOSIG=
201004062050 METAR COR EGLL 062050Z 12006KT 090V180 CAVOK 11/04 Q1012
                        NOSIG=
201004062020 METAR COR EGLL 062020Z 12007KT 090V160 CAVOK 11/04 Q1012
                        NOSIG=
201004061950 METAR COR EGLL 061950Z 11008KT 090V160 CAVOK 12/04 Q1012
                        NOSIG=
201004061920 METAR COR EGLL 061920Z 11008KT CAVOK 12/04 Q1012 NOSIG=
201004061850 METAR COR EGLL 061850Z 13007KT CAVOK 13/04 Q1012 NOSIG=
201004061820 METAR COR EGLL 061820Z 15007KT 080V230 CAVOK 14/04 Q1012
                        NOSIG=
201004061750 METAR COR EGLL 061750Z 16010KT CAVOK 14/03 Q1012 NOSIG=
201004061720 METAR COR EGLL 061720Z 16009G20KT 120V180 CAVOK 15/03 Q1012
                        NOSIG=
201004061650 METAR COR EGLL 061650Z 18012KT 160V220 CAVOK 15/02 Q1012
                        NOSIG=
201004061620 METAR COR EGLL 061620Z 18012G23KT CAVOK 15/02 Q1012 NOSIG=
201004061550 METAR EGLL 061550Z 17015KT CAVOK 15/01 Q1012=
201004061520 METAR COR EGLL 061520Z 16015KT 120V180 CAVOK 15/02 Q1013
                        NOSIG=
201004061450 METAR COR EGLL 061450Z 17014KT CAVOK 15/03 Q1013 NOSIG=
201004061420 METAR COR EGLL 061420Z 17013KT CAVOK 16/03 Q1013 NOSIG=
201004061350 METAR COR EGLL 061350Z 18012KT 140V220 CAVOK 16/04 Q1014
                        NOSIG=
201004061320 METAR COR EGLL 061320Z 17014KT 140V230 CAVOK 16/04 Q1014
                        NOSIG=
201004061250 METAR COR EGLL 061250Z 17014KT 140V230 CAVOK 15/05 Q1014
                        NOSIG=
201004061220 METAR COR EGLL 061220Z 19015KT 160V230 CAVOK 15/04 Q1014
                        NOSIG=
201004061150 METAR COR EGLL 061150Z 19016KT 150V230 CAVOK 15/04 Q1015
                        NOSIG=
201004061120 METAR COR EGLL 061120Z 19016KT CAVOK 15/04 Q1015 NOSIG=
201004061050 METAR COR EGLL 061050Z 18016KT 150V240 9999 FEW040 15/04
                        Q1015 NOSIG=
201004061020 METAR COR EGLL 061020Z 17015KT 140V230 9999 FEW040 14/04
                        Q1016 NOSIG=
201004060950 METAR COR EGLL 060950Z 18017KT CAVOK 14/04 Q1016 TEMPO 18018G28KT=
201004060920 METAR COR EGLL 060920Z 19017KT CAVOK 13/04 Q1016 TEMPO 19018G28KT=
201004060850 METAR COR EGLL 060850Z 18012KT CAVOK 12/05 Q1016 NOSIG=
201004060820 METAR COR EGLL 060820Z 17012KT 140V220 CAVOK 11/05 Q1017
                        NOSIG=
201004060750 METAR COR EGLL 060750Z 17010KT 150V220 CAVOK 10/05 Q1017
                        NOSIG=
201004060720 METAR COR EGLL 060720Z 16010KT 140V210 CAVOK 09/05 Q1017
                        NOSIG=
201004060650 METAR COR EGLL 060650Z 17009KT 140V210 CAVOK 08/05 Q1017
                        NOSIG=
201004060620 METAR EGLL 060620Z 15007KT 130V200 CAVOK 07/05 Q1017=
201004060550 METAR COR EGLL 060550Z 14008KT 110V180 CAVOK 07/04 Q1018
                        NOSIG=
201004060520 METAR COR EGLL 060520Z 14007KT 080V170 CAVOK 06/03 Q1018
                        NOSIG=
201004060450 METAR COR EGLL 060450Z 16005KT CAVOK 06/04 Q1018 NOSIG=
201004060420 METAR COR EGLL 060420Z 17005KT CAVOK 07/04 Q1018 NOSIG=
201004060350 METAR COR EGLL 060350Z 18005KT CAVOK 07/04 Q1018 NOSIG=
201004060320 METAR COR EGLL 060320Z 17006KT CAVOK 08/04 Q1018 NOSIG=
201004060250 METAR COR EGLL 060250Z 17008KT 9999 FEW039 08/04 Q1019 NOSIG=
201004060220 METAR COR EGLL 060220Z 16008KT CAVOK 09/04 Q1019 NOSIG=
201004060150 METAR COR EGLL 060150Z 16007KT CAVOK 09/05 Q1019 NOSIG=
201004060120 METAR COR EGLL 060120Z 17006KT 9999 BKN048 10/05 Q1020 NOSIG=
201004060050 METAR COR EGLL 060050Z 18007KT 9999 BKN048 10/05 Q1020 NOSIG=
201004060020 METAR COR EGLL 060020Z 18006KT 9999 BKN048 10/05 Q1020 NOSIG=
201004052350 METAR COR EGLL 052350Z 17005KT 9999 BKN048 10/05 Q1020 NOSIG=
201004052320 METAR COR EGLL 052320Z 18007KT 9999 BKN047 10/05 Q1021 NOSIG=
201004052250 METAR COR EGLL 052250Z 19008KT 9999 BKN048 10/05 Q1021 NOSIG=
201004052220 METAR COR EGLL 052220Z 18008KT 9999 FEW036 09/05 Q1021 NOSIG=
201004052150 METAR COR EGLL 052150Z 18008KT CAVOK 09/05 Q1021 NOSIG=
201004052120 METAR COR EGLL 052120Z 18008KT 9999 FEW041 09/05 Q1021 NOSIG=
201004052050 METAR COR EGLL 052050Z 18010KT 9999 FEW040 10/05 Q1021 NOSIG=
201004052020 METAR COR EGLL 052020Z 18009KT CAVOK 10/05 Q1021 NOSIG=
201004051950 METAR COR EGLL 051950Z 19009KT CAVOK 10/04 Q1021 NOSIG=
201004051920 METAR COR EGLL 051920Z 20010KT CAVOK 10/04 Q1021 NOSIG=
201004051850 METAR COR EGLL 051850Z 20012KT 9999 FEW040 10/04 Q1021 NOSIG=
201004051820 METAR COR EGLL 051820Z 20012KT 170V230 9999 SCT040 11/04
                        Q1021 NOSIG=
201004051750 METAR COR EGLL 051750Z 22013KT 9999 FEW038 SCT042 12/03 Q1021
                        BECMG 16010KT=
201004051720 METAR COR EGLL 051720Z 23018KT 9999 SCT037 12/04 Q1021 BECMG
                        17014KT=
201004051650 METAR COR EGLL 051650Z 23019KT 9999 FEW038 SCT045 13/04 Q1021
                        TEMPO 23020G32KT=
201004051620 METAR COR EGLL 051620Z 23017KT 9999 FEW035 SCT042 13/04 Q1021
                        TEMPO 23020G30KT=
201004051550 METAR COR EGLL 051550Z 21015KT 9999 SCT037 13/04 Q1021 TEMPO
                        23018G30KT=
201004051520 METAR COR EGLL 051520Z 22017KT 9999 SCT037 13/04 Q1021 TEMPO
                        23020G30KT=
201004051450 METAR COR EGLL 051450Z 22017KT 9999 SCT037 SCT045 14/04 Q1021
                        TEMPO 23020G30KT=
201004051420 METAR COR EGLL 051420Z 22014KT 9999 BKN038 13/04 Q1021 TEMPO
                        23018G28KT=
201004051350 METAR COR EGLL 051350Z 22015KT 9999 FEW031 BKN036 14/05 Q1021
                        TEMPO 23018G28KT=
201004051320 METAR COR EGLL 051320Z 24015KT 9999 FEW031 BKN041 12/05 Q1022
                        TEMPO 25017G28KT=
201004051250 METAR COR EGLL 051250Z 23014KT 9999 FEW030 BKN044 12/05 Q1022
                        TEMPO 23018G28KT=
201004051220 METAR COR EGLL 051220Z 22013KT 9999 SCT030 SCT039 12/05 Q1022
                        TEMPO TEMPO 23018G28KT=
201004051150 METAR COR EGLL 051150Z 22015KT 9999 SCT031 SCT042 12/05 Q1022
                        TEMPO 23018G28KT=
201004051120 METAR COR EGLL 051120Z 21013KT 180V250 9999 FEW021 SCT024
                        11/06 Q1022 TEMPO 23018G28KT=
201004051050 METAR COR EGLL 051050Z 20011KT 180V240 9999 SCT017 BKN022
                        10/06 Q1022 TEMPO 23018G28KT=
201004051020 METAR EGLL 051020Z AUTO 22010KT 9999NDV SCT018/// BKN022///
                        10/06 Q1022=
201004050950 METAR EGLL 050950Z AUTO 21012KT 170V250 9999NDV SCT017///
                        BKN044/// 10/06 Q1022=
201004050920 METAR COR EGLL 050920Z 20012KT 170V250 9999 VCSH SCT016 SCT046
                        09/06 Q1022 BECMG 22015G25KT=
201004050850 METAR COR EGLL 050850Z 20012KT 180V240 9999 FEW017 BKN043
                        09/06 Q1022 BECMG 22015G25KT=
201004050820 METAR COR EGLL 050820Z 18012KT 150V230 9999 FEW018 SCT043
                        08/05 Q1022 NOSIG=
201004050750 METAR COR EGLL 050750Z 19011KT 9999 -SHRA FEW034 SCT039 08/05
                        Q1022 TEMPO BKN013=
201004050720 METAR COR EGLL 050720Z 20010KT 9999 SCT045 07/05 Q1022 TEMPO
                        BKN013=
201004050650 METAR COR EGLL 050650Z 19010KT 160V230 9999 FEW042 07/04
                        Q1021 NOSIG=
201004050620 METAR COR EGLL 050620Z 19009KT 9999 FEW017 06/04 Q1021 NOSIG=
201004050550 METAR COR EGLL 050550Z 19008KT 170V280 CAVOK 06/03 Q1021
                        NOSIG=
201004050520 METAR COR EGLL 050520Z 18008KT 150V230 9999 FEW043 05/02
                        Q1021 NOSIG=
201004050450 METAR COR EGLL 050450Z 19007KT 9999 FEW041 05/01 Q1021 NOSIG=
201004050420 METAR COR EGLL 050420Z 19006KT CAVOK 05/01 Q1021 NOSIG=
201004050350 METAR COR EGLL 050350Z 18006KT 9999 FEW035 05/01 Q1021 NOSIG=
201004050320 METAR COR EGLL 050320Z 20006KT CAVOK 05/00 Q1021 NOSIG=
201004050250 METAR COR EGLL 050250Z 22005KT CAVOK 04/00 Q1021 NOSIG=
201004050220 METAR COR EGLL 050220Z 21005KT CAVOK 04/00 Q1022 NOSIG=
201004050150 METAR COR EGLL 050150Z 22005KT CAVOK 04/00 Q1022 NOSIG=
201004050120 METAR COR EGLL 050120Z 21004KT CAVOK 04/00 Q1022 NOSIG=
201004050050 METAR COR EGLL 050050Z 21004KT CAVOK 04/00 Q1021 NOSIG=
201004050020 METAR COR EGLL 050020Z 22006KT CAVOK 04/M00 Q1021 NOSIG=
201004042350 METAR COR EGLL 042350Z 23005KT CAVOK 04/M00 Q1021 NOSIG=
201004042320 METAR COR EGLL 042320Z 24007KT CAVOK 05/M00 Q1021 NOSIG=
201004042250 METAR COR EGLL 042250Z 24006KT CAVOK 05/M00 Q1021 NOSIG=
201004042220 METAR COR EGLL 042220Z 25008KT CAVOK 06/M00 Q1020 NOSIG=
201004042150 METAR COR EGLL 042150Z 26010KT CAVOK 06/M01 Q1020 NOSIG=
201004042120 METAR COR EGLL 042120Z 26011KT CAVOK 06/M00 Q1020 NOSIG=
201004042050 METAR COR EGLL 042050Z 26013KT CAVOK 07/01 Q1019 NOSIG=
201004042020 METAR COR EGLL 042020Z 27010KT CAVOK 07/01 Q1019 NOSIG=
201004041950 METAR COR EGLL 041950Z 27012KT CAVOK 08/01 Q1019 NOSIG=
201004041920 METAR COR EGLL 041920Z 27012KT CAVOK 07/01 Q1018 NOSIG=
201004041850 METAR COR EGLL 041850Z 27014KT CAVOK 08/01 Q1018 NOSIG=
201004041820 METAR COR EGLL 041820Z 28010KT CAVOK 09/M01 Q1017 NOSIG=
201004041750 METAR COR EGLL 041750Z 28010KT CAVOK 10/M01 Q1016 NOSIG=
201004041720 METAR COR EGLL 041720Z 29008KT CAVOK 11/M01 Q1016 NOSIG=
201004041650 METAR COR EGLL 041650Z 29011KT CAVOK 11/M02 Q1016 NOSIG=
201004041620 METAR COR EGLL 041620Z 30012KT 270V340 CAVOK 11/M02 Q1015
                        NOSIG=
201004041550 METAR COR EGLL 041550Z 30011KT CAVOK 11/M02 Q1015 NOSIG=
201004041520 METAR COR EGLL 041520Z 28011KT CAVOK 11/M02 Q1015 NOSIG=
201004041450 METAR COR EGLL 041450Z 31008KT 9999 VCSH NSC 11/M00 Q1014
                        NOSIG=
201004041420 METAR COR EGLL 041420Z 28013KT 9999 FEW048 10/M01 Q1014 NOSIG=
201004041350 METAR COR EGLL 041350Z 28014KT 250V320 9999 FEW048 12/00
                        Q1014 NOSIG=
201004041320 METAR COR EGLL 041320Z 29010KT 9999 FEW046 11/00 Q1013 NOSIG=
201004041250 METAR COR EGLL 041250Z 28010KT 250V330 9999 SCT044 11/01
                        Q1013 NOSIG=
201004041220 METAR COR EGLL 041220Z 30009KT 270V330 9999 SCT044 10/M00
                        Q1013 NOSIG=
201004041150 METAR COR EGLL 041150Z 28012KT 9999 SCT033 09/01 Q1012 NOSIG=
201004041120 METAR COR EGLL 041120Z 30009KT 270V340 9999 FEW030 SCT043
                        09/02 Q1012 NOSIG=
201004041050 METAR COR EGLL 041050Z 30009KT 9999 FEW029 SCT047 09/03 Q1011
                        NOSIG=
201004041020 METAR COR EGLL 041020Z 30009KT 280V350 9999 FEW025 SCT036
                        09/03 Q1011 NOSIG=
201004040950 METAR COR EGLL 040950Z 30010KT 9999 SCT023 SCT032 08/02 Q1011
                        NOSIG=
201004040920 METAR COR EGLL 040920Z 31010KT 9999 SCT018 SCT025 08/03 Q1010
                        NOSIG=
201004040850 METAR COR EGLL 040850Z 31013KT 280V340 9999 SCT019 SCT024
                        08/04 Q1010 NOSIG=
201004040820 METAR COR EGLL 040820Z 30009KT 9999 FEW017 SCT022 07/03 Q1009
                        NOSIG=
201004040750 METAR COR EGLL 040750Z 30009KT 9999 FEW015 SCT020 06/03 Q1009
                        NOSIG=
201004040720 METAR COR EGLL 040720Z 30008KT 9999 FEW016 SCT028 06/04 Q1008
                        NOSIG=
201004040650 METAR COR EGLL 040650Z 30007KT 9999 FEW013 SCT028 06/04 Q1007
                        NOSIG=
201004040620 METAR COR EGLL 040620Z 30008KT 9999 -RA FEW013 SCT027 06/04
                        Q1007 NOSIG=
201004040550 METAR COR EGLL 040550Z 30008KT 9000 -RA SCT040 06/04 Q1006
                        TEMPO RA BKN014=
201004040520 METAR COR EGLL 040520Z 30007KT 8000 SCT025 BKN041 06/03 Q1005
                        TEMPO RA BKN014=
201004040450 METAR COR EGLL 040450Z 32006KT 9999 BKN040 06/03 Q1005 TEMPO
                        RA BKN014=
201004040420 METAR COR EGLL 040420Z 32007KT 290V350 9999 SCT023 06/04
                        Q1004 NOSIG=
201004040350 METAR COR EGLL 040350Z 33008KT 290V010 9999 BKN015 BKN045
                        06/04 Q1004 NOSIG=
201004040320 METAR COR EGLL 040320Z 33008KT 9999 FEW013 SCT036 06/04 Q1003
                        RERA NOSIG=
201004040250 METAR COR EGLL 040250Z 33007KT 9999 -RA SCT035 06/04 Q1003
                        NOSIG=
201004040220 METAR COR EGLL 040220Z 34004KT 310V010 9999 -RA BKN020 07/05
                        Q1002 TEMPO RA BKN014=
201004040150 METAR COR EGLL 040150Z 34004KT 310V020 9000 -RA BKN016 07/05
                        Q1002 RERA TEMPO RA BKN014=
201004040120 METAR COR EGLL 040120Z VRB03KT 9999 -RA BKN016 07/05 Q1002
                        TEMPO RA BKN014=
201004040050 METAR COR EGLL 040050Z 35002KT 9999 -RA SCT013 BKN031 06/05
                        Q1001 TEMPO RA BKN013=
201004040020 METAR COR EGLL 040020Z VRB03KT 9999 -RA FEW024 BKN034 06/04
                        Q1001 TEMPO RA=
201004032350 METAR COR EGLL 032350Z 09005KT 070V130 9999 -RA FEW010 BKN039
                        06/04 Q1001 TEMPO RA=
201004032320 METAR COR EGLL 032320Z 08008KT 9999 -RA FEW023 SCT047 07/04
                        Q1000 TEMPO RA=
201004032250 METAR COR EGLL 032250Z 09008KT 9999 FEW018 BKN022 08/04 Q1000
                        TEMPO SHRA=
201004032220 METAR COR EGLL 032220Z 07005KT 9999 SCT024 08/04 Q1000 TEMPO
                        SHRA=
201004032150 METAR COR EGLL 032150Z 07007KT 9999 SCT024 09/04 Q1000 TEMPO
                        SHRA=
201004032120 METAR COR EGLL 032120Z 07006KT 9999 FEW028 SCT039 09/04 Q1000
                        TEMPO SHRA=
201004032050 METAR COR EGLL 032050Z 07006KT 9999 FEW043 09/03 Q1000 TEMPO
                        SHRA=
201004032020 METAR COR EGLL 032020Z 08008KT 9999 FEW043 09/03 Q1000 NOSIG=
201004031950 METAR COR EGLL 031950Z 09007KT 9999 SCT041 09/03 Q0999 NOSIG=
201004031920 METAR COR EGLL 031920Z 07005KT 9999 FEW045 09/03 Q0999 NOSIG=
201004031850 METAR COR EGLL 031850Z 06004KT 9999 FEW046 08/03 Q0999 NOSIG=
201004031820 METAR COR EGLL 031820Z 09005KT CAVOK 09/03 Q0999 NOSIG=
201004031750 METAR COR EGLL 031750Z 10005KT CAVOK 10/03 Q0999 NOSIG=
201004031720 METAR COR EGLL 031720Z 14005KT 100V160 CAVOK 10/03 Q0999
                        NOSIG=
201004031650 METAR COR EGLL 031650Z 15007KT 9999 FEW047 10/03 Q0999 NOSIG=
201004031620 METAR COR EGLL 031620Z 16009KT 9999 FEW035 SCT047 10/02 Q0999
                        NOSIG=
201004031550 METAR COR EGLL 031550Z 16010KT 9999 FEW043 11/02 Q0999 TEMPO
                        SHRA=
201004031520 METAR COR EGLL 031520Z 16011KT 9999 FEW047 11/02 Q0999 TEMPO
                        SHRA=
201004031450 METAR COR EGLL 031450Z 15010KT 9999 SCT041 11/02 Q0999 TEMPO
                        SHRA=
201004031420 METAR COR EGLL 031420Z 16010KT 9999 SCT040 11/02 Q1000 NOSIG=
201004031350 METAR COR EGLL 031350Z 15009KT 100V190 9999 FEW036 SCT045
                        11/03 Q1000 TEMPO SHRA=
201004031320 METAR COR EGLL 031320Z 16007KT 100V190 9999 FEW036 SCT045
                        10/03 Q1000 TEMPO SHRA=
201004031250 METAR COR EGLL 031250Z 16008KT 130V220 9999 FEW028 10/02
                        Q1000 TEMPO SHRA=
201004031220 METAR COR EGLL 031220Z 19009KT 150V250 9999 SCT030 10/03
                        Q1000 TEMPO SHRA=
201004031150 METAR COR EGLL 031150Z 19009KT 160V230 9999 SCT035 10/02
                        Q1000 NOSIG=
201004031120 METAR COR EGLL 031120Z 19010KT 140V210 9999 FEW028 SCT032
                        10/02 Q1001 NOSIG=
201004031050 METAR COR EGLL 031050Z 21008G18KT 170V250 9999 SCT028 SCT044
                        10/05 Q1001 NOSIG=
201004031020 METAR COR EGLL 031020Z 20009KT 180V250 9999 FEW021 SCT035
                        09/04 Q1001 NOSIG=
201004030950 METAR COR EGLL 030950Z 20008KT 180V240 9999 FEW022 SCT030
                        08/05 Q1001 NOSIG=
201004030920 METAR COR EGLL 030920Z 21009KT 180V240 9999 FEW016 SCT038
                        08/05 Q1001 NOSIG=
201004030850 METAR COR EGLL 030850Z 21008KT 9999 -SHRA SCT024 BKN042 07/04
                        Q1001 NOSIG=
201004030820 METAR COR EGLL 030820Z 18006KT 9999 SCT023 SCT037 06/04 Q1001
                        NOSIG=
201004030750 METAR COR EGLL 030750Z 18008KT 140V210 9999 FEW033 SCT039
                        05/03 Q1001 NOSIG=
201004030720 METAR COR EGLL 030720Z 16009KT 130V210 9999 FEW021CB SCT038
                        05/03 Q1001 NOSIG=
201004030650 METAR COR EGLL 030650Z 17008G19KT 130V190 9999 -SHRA FEW021CB
                        05/02 Q1000 NOSIG=
201004030620 METAR COR EGLL 030620Z 18011KT 150V230 9999 8000E FEW021CB
                        SCT046 05/03 Q1000 NOSIG=
201004030550 METAR COR EGLL 030550Z 17008KT 150V240 9999 -SHRA FEW015
                        SCT029 04/03 Q1001 NOSIG=
201004030520 METAR COR EGLL 030520Z 20005KT 160V260 9999 -SHRA FEW020
                        BKN035 04/03 Q1000 NOSIG=
201004030450 METAR COR EGLL 030450Z 22004KT 9999 VCSH SCT011CB SCT025
                        04/03 Q1000 TEMPO SHRA=
201004030420 METAR COR EGLL 030420Z 24010KT 8000 SHRA VCTS SCT016CB BKN020
                        05/03 Q1000 TEMPO TSRA=
201004030350 METAR COR EGLL 030350Z 23009KT 9000 -SHRA SCT015 SCT025 05/03
                        Q1000 RESHRA TEMPO SHRA BKN012=
201004030320 METAR COR EGLL 030320Z 20004KT 9999 -SHRA SCT017 SCT022 05/04
                        Q1000 TEMPO SHRA=
201004030250 METAR COR EGLL 030250Z 19006KT 9000 -SHRA BKN018 05/04 Q1000
                        TEMPO SHRA=
201004030220 METAR COR EGLL 030220Z 20005KT 9999 BKN018 05/03 Q1000 TEMPO
                        SHRA=
201004030150 METAR COR EGLL 030150Z 19009KT 9999 SCT019 05/03 Q1000 TEMPO
                        SHRA=
201004030120 METAR COR EGLL 030120Z 18007KT 9999 FEW020 05/04 Q1000 TEMPO
                        SHRA=
201004030050 METAR COR EGLL 030050Z 22011KT 8000 SHRA FEW017 SCT026 06/04
                        Q1001 BECMG NSW=
201004030020 METAR COR EGLL 030020Z 18008KT 9999 FEW022 05/03 Q1000 TEMPO
                        SHRA=
201004022350 METAR COR EGLL 022350Z 17006KT 9999 SCT024 05/03 Q1000 TEMPO
                        SHRA=
201004022320 METAR COR EGLL 022320Z 18007KT 9999 FEW040 05/03 Q1001 TEMPO
                        SHRA=
201004022250 METAR COR EGLL 022250Z 18008KT CAVOK 05/03 Q1001 NOSIG=
201004022220 METAR COR EGLL 022220Z 19009KT 170V230 9999 SCT034 06/04
                        Q1001 RESHRA NOSIG=
201004022150 METAR COR EGLL 022150Z 19011G22KT 160V240 9999 SCT027 SCT035
                        06/04 Q1001 TEMPO SHRA=
201004022120 METAR COR EGLL 022120Z 19010KT 160V240 9999 FEW027 SCT036
                        07/04 Q1001 TEMPO SHRA=
201004022050 METAR COR EGLL 022050Z 21012G25KT 9999 -RA FEW015 SCT032
                        07/04 Q1001 TEMPO SHRA=
201004022020 METAR COR EGLL 022020Z 18009KT 150V230 9999 FEW040 07/04
                        Q1001 TEMPO SHRA=
201004021950 METAR COR EGLL 021950Z 18009KT 150V220 9999 FEW029 08/04
                        Q1000 TEMPO SHRA=
201004021920 METAR COR EGLL 021920Z 19009KT 160V240 CAVOK 08/04 Q1000
                        NOSIG=
201004021850 METAR COR EGLL 021850Z 20010KT 170V230 9999 FEW029 08/04
                        Q1000 NOSIG=
201004021820 METAR COR EGLL 021820Z 20013KT 160V230 9999 FEW030 09/04
                        Q1000 NOSIG=
201004021750 METAR COR EGLL 021750Z 22013KT 9999 FEW034 10/03 Q1000 NOSIG=
201004021720 METAR COR EGLL 021720Z 21014KT 180V240 9999 FEW045 10/03
                        Q1000 NOSIG=
201004021650 METAR COR EGLL 021650Z 19014KT 180V240 9999 FEW032 SCT035
                        10/04 Q0999 NOSIG=
201004021620 METAR COR EGLL 021620Z 19013KT 160V240 9999 VCSH SCT037 10/04
                        Q0999 TEMPO SHRA=
201004021550 METAR EGLL 021550Z 19013KT 170V230 9999 FEW034 10/04 Q1000=
201004021520 METAR COR EGLL 021520Z 21013KT 9999 FEW038 SCT046 11/04 Q1000
                        TEMPO SHRA=
201004021450 METAR COR EGLL 021450Z 22014KT 9999 SCT026 10/04 Q1000 NOSIG=
201004021420 METAR COR EGLL 021420Z 22014KT 9999 FEW023 10/05 Q1000 NOSIG=
201004021350 METAR COR EGLL 021350Z 22015KT 9999 FEW024 BKN030 08/05 Q1000
                        NOSIG=
201004021320 METAR COR EGLL 021320Z 18015KT 9999 7000NE -RA FEW011 SCT017
                        BKN022 07/06 Q0999 NOSIG=
201004021250 METAR COR EGLL 021250Z 13015KT 9999 -RA SCT014 BKN016 07/05
                        Q1000 RERA TEMPO SHRA=
201004021220 METAR COR EGLL 021220Z 14015KT 9000 SHRA SCT017 BKN022 07/05
                        Q1001 TEMPO BKN014=
201004021150 METAR COR EGLL 021150Z 16018KT 9000 SHRA FEW012 SCT018 BKN021
                        08/05 Q1001 NOSIG=
201004021120 METAR COR EGLL 021120Z 16016KT 9999 -RA SCT023 SCT027 09/04
                        Q1001 NOSIG=
201004021050 METAR COR EGLL 021050Z 16014KT 9999 SCT024 SCT027 09/04 Q1002
                        BECMG RA BKN014=
201004021020 METAR COR EGLL 021020Z 15014KT 9999 SCT018 BKN022 09/05 Q1002
                        BECMG RA=
201004020950 METAR COR EGLL 020950Z 16013KT 9999 FEW015 BKN017 BKN022
                        09/05 Q1003 BECMG RA=
201004020920 METAR COR EGLL 020920Z 16011KT 9999 SCT017 BKN020 08/05 Q1003
                        BECMG RA=
201004020850 METAR COR EGLL 020850Z 16010KT 9999 SCT014 BKN022 08/05 Q1003
                        BECMG RA=
201004020820 METAR COR EGLL 020820Z 16012KT 130V200 9999 SCT016 BKN021
                        08/05 Q1004 NOSIG=
201004020750 METAR COR EGLL 020750Z 16010KT 120V220 9999 FEW012 BKN015
                        07/05 Q1004 TEMPO BKN014=
201004020720 METAR COR EGLL 020720Z 17010KT 130V220 9999 FEW014 BKN016
                        07/05 Q1004 NOSIG=
201004020650 METAR COR EGLL 020650Z 15008KT 110V180 9999 BKN012 06/04
                        Q1004 NOSIG=
201004020620 METAR COR EGLL 020620Z 17009KT 9999 FEW016 06/04 Q1004 NOSIG=
201004020550 METAR COR EGLL 020550Z 18009KT 130V220 9999 BKN030 06/04
                        Q1005 NOSIG=
201004020520 METAR COR EGLL 020520Z 17008KT 100V230 9000 -RA FEW012 SCT030
                        06/04 Q1005 NOSIG=
201004020450 METAR COR EGLL 020450Z 17008KT 9999 -SHRA FEW018 SCT030 06/04
                        Q1005 NOSIG=
201004020420 METAR COR EGLL 020420Z 18008KT 9999 -SHRA SCT035 06/04 Q1005
                        NOSIG=
201004020350 METAR COR EGLL 020350Z 18007KT 9999 -SHRA SCT022 06/04 Q1006
                        NOSIG=
201004020320 METAR COR EGLL 020320Z 18008KT 9999 FEW018 SCT038 06/04 Q1006
                        NOSIG=
201004020250 METAR COR EGLL 020250Z 17008KT 9999 FEW018 SCT033 06/03 Q1006
                        NOSIG=
201004020220 METAR COR EGLL 020220Z 20007KT 9999 SCT022 06/03 Q1007 NOSIG=
201004020150 METAR COR EGLL 020150Z 20009KT 9999 -SHRA SCT024 06/03 Q1007
                        TEMPO SHRA=
201004020120 METAR COR EGLL 020120Z 19006KT 9999 FEW036 06/03 Q1007 TEMPO
                        SHRA=
201004020050 METAR COR EGLL 020050Z 18006KT CAVOK 06/02 Q1008 TEMPO SHRA=
201004020020 METAR COR EGLL 020020Z 19006KT CAVOK 06/02 Q1008 TEMPO SHRA=
201004012350 METAR COR EGLL 012350Z 18005KT CAVOK 06/01 Q1008 NOSIG=
201004012320 METAR COR EGLL 012320Z 18006KT CAVOK 06/02 Q1008 TEMPO RADZ=
201004012250 METAR COR EGLL 012250Z 18006KT CAVOK 06/02 Q1008 TEMPO RADZ=
201004012220 METAR COR EGLL 012220Z 18009KT 130V240 CAVOK 06/02 Q1009
                        TEMPO SHRA=
201004012150 METAR COR EGLL 012150Z 17009KT 140V230 CAVOK 06/02 Q1009
                        TEMPO SHRA=
201004012120 METAR COR EGLL 012120Z 18010KT 150V230 CAVOK 06/02 Q1009
                        TEMPO SHRA=
201004012050 METAR COR EGLL 012050Z 19010KT 160V230 CAVOK 06/02 Q1009
                        NOSIG=
201004012020 METAR COR EGLL 012020Z 20010KT CAVOK 06/02 Q1010 NOSIG=
201004011950 METAR COR EGLL 011950Z 21010KT CAVOK 06/02 Q1010 NOSIG=
201004011920 METAR COR EGLL 011920Z 21011KT CAVOK 07/01 Q1010 NOSIG=
201004011850 METAR COR EGLL 011850Z 21010KT CAVOK 07/01 Q1009 NOSIG=
201004011820 METAR COR EGLL 011820Z 22011KT 9999 FEW037 07/01 Q1009 NOSIG=
201004011750 METAR COR EGLL 011750Z 22011KT 180V250 9999 FEW037 SCT042
                        08/02 Q1009 NOSIG=
201004011720 METAR COR EGLL 011720Z 19009KT 160V220 9999 FEW036 06/04
                        Q1009 NOSIG=
201004011650 METAR COR EGLL 011650Z 22009KT 190V250 CAVOK 06/03 Q1009
                        NOSIG=
201004011620 METAR COR EGLL 011620Z 25011KT 8000 VCTS VCSH FEW011 SCT015CB
                        06/03 Q1009 RETS RESHRA TEMPO SHRA=
201004011550 METAR COR EGLL 011550Z 28020G30KT 6000 2000E TSRAGS SCT010
                        SCT024 BKN041CB 05/02 Q1010 TEMPO
                        4000 BKN012=
201004011520 METAR COR EGLL 011520Z 27008KT 9999 VCSH FEW010 BKN030CB
                        06/03 Q1009 TEMPO SHRA=
201004011450 METAR COR EGLL 011450Z 27018KT 9999 -SHRA FEW010CB SCT045
                        06/03 Q1010 RERA TEMPO SHRA=
201004011420 METAR COR EGLL 011420Z 25010KT 200V280 9999 VCSH FEW023CB
                        SCT041 09/01 Q1009 TEMPO SHRA=
201004011350 METAR COR EGLL 011350Z 24016KT 9999 VCSH BKN046 10/M01 Q1009
                        TEMPO SHRA=
201004011320 METAR EGLL 011320Z 24014G24KT 9999 FEW038 SCT045 09/M01 Q1009=
201004011250 METAR COR EGLL 011250Z 24016KT 9999 7000NE -SHRA FEW035 SCT043
                        09/M01 Q1009 TEMPO SHRA=
201004011220 METAR COR EGLL 011220Z 25015KT 9999 SCT043 09/M01 Q1009 NOSIG=
201004011150 METAR COR EGLL 011150Z 25015KT 9999 SCT046 09/M01 Q1009 NOSIG=
201004011120 METAR COR EGLL 011120Z 25016KT 9999 SCT048 09/M02 Q1009 NOSIG=
201004011050 METAR COR EGLL 011050Z 26015KT 9999 SCT045 09/M03 Q1009 NOSIG=
201004011020 METAR COR EGLL 011020Z 26015KT 9999 FEW040 09/M02 Q1009 NOSIG=
201004010950 METAR COR EGLL 010950Z 27015KT 9999 FEW035 08/M01 Q1009 NOSIG=
201004010920 METAR COR EGLL 010920Z 27013KT 9999 FEW020 07/M00 Q1008 NOSIG=
201004010850 METAR COR EGLL 010850Z 27015KT 9999 FEW020 06/M00 Q1008 NOSIG=
201004010820 METAR COR EGLL 010820Z 27015KT 9999 FEW020 05/00 Q1007 NOSIG=
201004010750 METAR COR EGLL 010750Z 27014KT CAVOK 05/M00 Q1007 NOSIG=
201004010720 METAR COR EGLL 010720Z 27013KT CAVOK 04/M00 Q1007 NOSIG=
201004010650 METAR COR EGLL 010650Z 26013KT CAVOK 03/M01 Q1006 NOSIG=
201004010620 METAR COR EGLL 010620Z 27013KT CAVOK 03/M01 Q1006 NOSIG=
201004010550 METAR COR EGLL 010550Z 26012KT CAVOK 03/M01 Q1005 NOSIG=
201004010520 METAR EGLL 010520Z NIL=
201004010450 METAR COR EGLL 010450Z 27012KT CAVOK 03/M01 Q1004 NOSIG=
201004010420 METAR COR EGLL 010420Z 26014KT CAVOK 03/M01 Q1004 NOSIG=
201004010350 METAR COR EGLL 010350Z 26014KT CAVOK 03/M01 Q1004 NOSIG=
201004010320 METAR COR EGLL 010320Z 26014KT CAVOK 03/M01 Q1003 NOSIG=
201004010250 METAR COR EGLL 010250Z 27011KT CAVOK 03/M01 Q1003 NOSIG=
201004010220 METAR COR EGLL 010220Z 27013KT CAVOK 03/M01 Q1003 NOSIG=
201004010150 METAR COR EGLL 010150Z 27014KT CAVOK 03/M01 Q1003 NOSIG=
201004010120 METAR COR EGLL 010120Z 26013KT CAVOK 03/M01 Q1003 NOSIG=
201004010050 METAR COR EGLL 010050Z 26013KT CAVOK 03/M01 Q1002 NOSIG=
201004010020 METAR COR EGLL 010020Z 27012KT CAVOK 03/M01 Q1002 NOSIG=

# No short TAF reports from EGLL in databse.

###################################
#  large TAF from EGLL
###################################
201005012256 TAF EGLL 012256Z 0200/0306 VRB04KT 9999 BKN025
                      PROB30 TEMPO 0200/0206 3000 +SHRA TSRA BKN014CB
                       TEMPO 0200/0215 BKN008
                      BECMG 0206/0209 6000 -RA BKN014
                      TEMPO 0206/0215 3000 RA
                      BECMG 0207/0210 02015KT
                      BECMG 0214/0217 9999 NSW FEW014 SCT025=
201005012157 TAF AMD EGLL 012157Z 0122/0224 25006KT 9999 BKN025
                      TEMPO 0122/0201 7000 SHRA
                      PROB30 TEMPO 0122/0201 3000 +SHRA TSRA BKN014CB
                       BECMG 0201/0204 6000 -RA BKN014
                      TEMPO 0200/0215 3000 RA BKN008
                      BECMG 0207/0210 02015KT
                      BECMG 0213/0216 9999 NSW FEW014 SCT025=
201005011704 TAF EGLL 011704Z 0118/0224 25006KT 9999 BKN025
                      TEMPO 0118/0124 7000 SHRA
                      PROB30 TEMPO 0118/0124 3000 +SHRA BKN014CB
                       BECMG 0200/0203 6000 -RA BKN014
                      TEMPO 0200/0215 3000 RA BKN008
                      BECMG 0207/0210 02015KT
                      BECMG 0213/0216 9999 NSW FEW014 SCT025=
201005011059 TAF EGLL 011059Z 0112/0218 25005KT 9999 SCT025
                      TEMPO 0112/0124 7000 SHRA
                      PROB30 TEMPO 0118/0124 3000 +SHRA BKN014CB
                       BECMG 0200/0203 6000 RA BKN014
                      TEMPO 0203/0212 BKN008
                      BECMG 0207/0210 02012KT
                      BECMG 0211/0214 9999 NSW FEW014=
201005010503 TAF EGLL 010503Z 0106/0212 23010KT 9999 FEW012 SCT045
                      TEMPO 0108/0120 7000 SHRA
                      PROB40 TEMPO 0112/0119 3000 TSRA BKN014CB
                       BECMG 0120/0123 17006KT
                      TEMPO 0123/0206 7000 RA BKN010
                      BECMG 0206/0209 04010KT 7000 RA BKN014
                      PROB30 TEMPO 0209/0212 3000 +RA BKN009=
201004302303 TAF EGLL 302303Z 0100/0206 23010KT 9999 FEW032 SCT045
                      TEMPO 0100/0102 5000 SHRA BKN014
                      TEMPO 0110/0120 7000 SHRA
                      BECMG 0114/0117 VRB05KT
                      PROB30 TEMPO 0115/0119 4000 TSRA BKN014CB
                       BECMG 0203/0206 04010KT 6000 RA BKN010=
201004301658 TAF EGLL 301658Z 3018/0124 23010KT 9999 FEW032 SCT045
                      TEMPO 3018/3021 6000 SHRA
                      TEMPO 3021/0102 5000 SHRA SCT008 BKN014
                      PROB40 0102/0109 9000 BKN008
                      BECMG 0114/0117 VRB05KT
                      PROB30 TEMPO 0115/0121 4000 TSRA BKN014CB
                       BECMG 0121/0124 3000 +RA BKN006=
201004301056 TAF EGLL 301056Z 3012/0118 25012KT 9999 FEW032 SCT045
                      TEMPO 3012/3019 26015G25KT
                      PROB30 TEMPO 3015/3021 7000 SHRA
                      TEMPO 3021/0102 5000 SHRA BKN014
                      PROB40 0102/0109 9000 BKN008
                      BECMG 0114/0117 VRB05KT
                      PROB30 TEMPO 0115/0118 4000 TSRA BKN014CB=
201004300501 TAF EGLL 300501Z 3006/0112 25008KT 9999 SCT018
                      PROB30 TEMPO 3014/3019 7000 SHRA BKN014=
201004300004 TAF AMD EGLL 300004Z 3000/0106 25008KT 9999 SCT018
                      TEMPO 3000/3006 7000 -RA BKN012
                      PROB30 TEMPO 3000/3003 4000 BR
                      TEMPO 3014/3019 7000 -SHRA RA BKN014=
201004292300 TAF AMD EGLL 300004Z 3000/0106 25008KT 9999 SCT018
                      TEMPO 3000/3006 7000 -RA BKN012
                      PROB30 TEMPO 3000/3003 4000 BR
                      TEMPO 3014/3019 7000 -SHRA RA BKN014=
201004292253 TAF EGLL 292253Z 3000/0106 25008KT 9999 SCT018
                      TEMPO 3000/3006 7000 -RA BKN012
                      TEMPO 3014/3019 7000 -SHRA RA BKN014=
201004291658 TAF EGLL 291658Z 2918/3024 VRB05KT 9999 SCT040
                      BECMG 2918/2921 26010KT BKN010
                      TEMPO 2922/2924 7000 RA BKN008
                      TEMPO 3000/3003 SCT015
                      BECMG 3003/3006 SCT020
                      TEMPO 3014/3018 7000 SHRA=
201004291057 TAF EGLL 291057Z 2912/3018 VRB05KT 9999 SCT040
                      TEMPO 2912/2924 7000 RA
                      PROB30 TEMPO 2913/2915 +RA
                      BECMG 2918/2921 26010KT BKN010
                      TEMPO 3000/3003 SCT015
                      BECMG 3003/3006 SCT020
                      TEMPO 3014/3018 7000 SHRA=
201004290500 TAF EGLL 290500Z 2906/3012 VRB05KT 8000 SCT040
                      BECMG 2907/2909 9999
                      TEMPO 2913/2924 7000 RA
                      BECMG 2920/2923 26010KT BKN010
                      TEMPO 3000/3007 SCT015
                      BECMG 3007/3009 SCT020=
201004282257 TAF EGLL 282257Z 2900/3006 19005KT CAVOK
                      PROB30 2903/2907 8000
                      PROB40 TEMPO 2912/2924 8000 RA
                      BECMG 2917/2920 25010KT BKN040
                      BECMG 2920/2923 BKN010
                      TEMPO 3001/3006 SCT018=
201004281657 TAF EGLL 281657Z 2818/2924 18010KT 9999 FEW045
                      PROB40 2901/2907 7000
                      BECMG 2902/2905 24007KT
                      TEMPO 2911/2924 7000 RA
                      PROB40 TEMPO 2920/2924 BKN010=
201004281058 TAF EGLL 281058Z 2812/2918 20010KT 9999 FEW045
                      PROB40 2901/2907 7000
                      BECMG 2910/2912 26007KT
                      PROB40 TEMPO 2915/2918 7000 -RA=
201004280458 TAF EGLL 280458Z 2806/2912 19008KT 9999 FEW045
                      PROB40 2901/2907 7000=
201004272257 TAF EGLL 272257Z 2800/2906 19007KT 9999 FEW045
                      PROB30 2802/2807 8000
                      PROB40 2901/2906 7000=
201004271657 TAF EGLL 271657Z 2718/2824 18007KT 9999 FEW045
                      PROB30 2802/2807 8000=
201004271055 TAF EGLL 271055Z 2712/2818 18007KT 9999 FEW045
                      PROB30 2802/2807 8000=
201004270457 TAF EGLL 270457Z 2706/2812 VRB05KT 9999 FEW040
                      PROB30 TEMPO 2706/2708 8000
                      BECMG 2712/2715 21010KT
                      BECMG 2800/2803 VRB05KT
                      PROB30 2802/2806 8000
                      BECMG 2809/2812 20013KT=
201004262300 TAF EGLL 262300Z 2700/2806 28007KT 9999 FEW040
                      PROB40 2702/2708 7000
                      BECMG 2712/2715 21010KT
                      BECMG 2800/2803 15005KT
                      PROB30 2802/2806 8000=
201004261657 TAF EGLL 261657Z 2618/2724 25005KT 9999 FEW040
                      BECMG 2700/2703 7000
                      PROB30 2701/2708 3000 BR
                      BECMG 2707/2710 9999=
201004261056 TAF EGLL 261056Z 2612/2718 25007KT 9999 SCT025
                      PROB30 2701/2708 3000 BR BKN004=
201004260501 TAF EGLL 260501Z 2606/2712 25008KT 9999 FEW015 SCT025
                      TEMPO 2606/2608 6000 BKN012
                      PROB40 2701/2709 3000 BR BKN004=
201004252301 TAF EGLL 252301Z 2600/2706 23008KT 9999 FEW015 SCT025
                      PROB40 2601/2609 6000 BKN009
                      TEMPO 2701/2706 6000 BKN009=
201004251657 TAF EGLL 251657Z 2518/2624 25012KT 9999 SCT020
                      PROB40 TEMPO 2518/2520 5000 SHRA
                      TEMPO 2601/2608 6000 BKN009=
201004251058 TAF EGLL 251058Z 2512/2618 24012KT 9999 SCT020
                      PROB40 TEMPO 2513/2519 7000 SHRA
                      TEMPO 2600/2609 8000 BKN009=
201004251027 TAF AMD EGLL 251027Z 2510/2612 21010KT 8000 BKN014
                      BECMG 2510/2512 9999 SCT020
                      PROB40 TEMPO 2513/2519 7000 SHRA
                      TEMPO 2600/2609 8000 BKN009=
201004250854 TAF AMD EGLL 250854Z 2509/2612 21010KT 7000 -RA FEW012 SCT030
                      TEMPO 2509/2510 3000 RADZ BKN009
                      BECMG 2510/2512 9999 NSW
                      PROB40 TEMPO 2513/2519 7000 SHRA
                      TEMPO 2600/2609 8000 BKN009=
201004250458 TAF EGLL 250458Z 2506/2612 21010KT 9999 FEW012 SCT030
                      TEMPO 2506/2510 5000 RADZ BKN009
                      PROB40 TEMPO 2513/2519 7000 SHRA
                      TEMPO 2600/2609 8000 BKN009=
201004242302 TAF EGLL 242302Z 2500/2606 16006KT CAVOK
                      PROB30 2500/2505 8000
                      BECMG 2505/2508 22010KT 8000 -RA FEW012 BKN030
                       TEMPO 2507/2510 BKN008
                      BECMG 2509/2512 9999 NSW
                      PROB40 TEMPO 2514/2519 7000 SHRA
                      TEMPO 2600/2606 8000 BKN010=
201004241658 TAF EGLL 241658Z 2418/2524 15006KT CAVOK
                      PROB30 2418/2505 8000
                      BECMG 2505/2508 22010KT 8000 -RA FEW012 BKN030
                       TEMPO 2507/2511 BKN008
                      BECMG 2510/2513 9999 NSW
                      PROB40 TEMPO 2514/2519 7000 SHRA=
201004241056 TAF EGLL 241056Z 2412/2518 08005KT CAVOK
                      BECMG 2505/2508 22010KT 8000 -RA FEW012 BKN030
                       TEMPO 2508/2511 BKN008
                      BECMG 2510/2512 9999 NSW
                      PROB30 TEMPO 2514/2518 7000 SHRA=
201004240458 TAF EGLL 240458Z 2406/2512 08005KT CAVOK
                      BECMG 2504/2507 22010KT 8000 -RA FEW012 BKN030
                       TEMPO 2508/2511 BKN008
                      BECMG 2510/2512 9999 NSW=
201004232256 TAF EGLL 232256Z 2400/2506 11005KT CAVOK
                      BECMG 2503/2506 21010KT 8000 -RA BKN030=
201004231659 TAF EGLL 231659Z 2318/2424 14005KT CAVOK=
201004231059 TAF EGLL 231059Z 2312/2418 14006KT CAVOK=
201004230456 TAF EGLL 230456Z 2306/2412 12005KT CAVOK=
201004222256 TAF EGLL 222256Z 2300/2406 10005KT CAVOK
                      PROB30 2303/2307 6000=
201004221654 TAF EGLL 221654Z 2218/2324 09005KT CAVOK
                      PROB30 2304/2307 8000=
201004221057 TAF EGLL 221057Z 2212/2318 09005KT CAVOK
                      PROB30 2304/2307 9000=
201004220500 TAF EGLL 220500Z 2206/2312 09005KT CAVOK
                      PROB30 2304/2307 9000=
201004212300 TAF EGLL 212300Z 2200/2306 08008KT CAVOK
                      PROB40 2203/2207 3000 BR
                      PROB30 2304/2306 9000=
201004211656 TAF EGLL 211656Z 2118/2224 VRB05KT CAVOK
                      PROB30 2202/2207 6000
                      BECMG 2215/2218 08010KT=
201004211056 TAF EGLL 211056Z 2112/2218 01010KT CAVOK
                      BECMG 2119/2122 VRB04KT
                      PROB30 2202/2207 7000=
201004210500 TAF EGLL 210500Z 2106/2212 30005KT CAVOK
                      PROB40 2200/2206 6000=
201004202257 TAF EGLL 202257Z 2100/2206 VRB05KT CAVOK
                      PROB30 TEMPO 2111/2118 BKN045
                      TEMPO 2117/2121 05010KT
                      PROB30 2200/2206 7000=
201004201657 TAF EGLL 201657Z 2018/2124 31010KT CAVOK
                      BECMG 2022/2101 VRB05KT
                      PROB40 TEMPO 2111/2118 BKN045
                      BECMG 2119/2122 05010KT=
201004201056 TAF EGLL 201056Z 2012/2118 32013KT 9999 SCT040
                      BECMG 2022/2101 VRB05KT
                      BECMG 2115/2118 03010KT=
201004200458 TAF EGLL 200458Z 2006/2112 34005KT 9999 FEW045
                      BECMG 2007/2010 28013KT
                      BECMG 2020/2023 34006KT=
201004200325 TAF AMD EGLL 200325Z 2003/2106 34005KT 7000 FEW045
                      BECMG 2004/2007 9999
                      BECMG 2007/2010 28013KT
                      BECMG 2020/2023 34006KT=
201004192300 TAF AMD EGLL 200325Z 2003/2106 34005KT 7000 FEW045
                      BECMG 2004/2007 9999
                      BECMG 2007/2010 28013KT
                      BECMG 2020/2023 34006KT=
201004192125 TAF AMD EGLL 192125Z 1921/2024 VRB05KT 8000 FEW045
                      BECMG 2006/2009 28013KT 9999
                      BECMG 2020/2023 34006KT=
201004191703 TAF EGLL 191703Z 1918/2024 19010KT 9999 FEW045
                      PROB30 TEMPO 1918/1920 7000 SHRA
                      BECMG 2000/2003 34005KT
                      BECMG 2006/2009 28013KT
                      BECMG 2020/2023 34006KT=
201004191059 TAF EGLL 191059Z 1912/2018 16010KT 9999 FEW045
                      PROB30 TEMPO 1914/1920 7000 SHRA
                      BECMG 2000/2003 34005KT
                      BECMG 2006/2009 28013KT=
201004190504 TAF EGLL 190504Z 1906/2012 09006KT CAVOK
                      PROB30 1906/1908 6000
                      PROB30 TEMPO 1914/1920 7000 SHRA BKN025
                      BECMG 2000/2003 34010KT
                      BECMG 2006/2009 28013KT=
201004182256 TAF EGLL 182256Z 1900/2006 09008KT CAVOK
                      PROB30 1903/1908 6000
                      PROB30 TEMPO 1914/1920 7000 SHRA BKN025
                      BECMG 1918/1921 33010KT
                      BECMG 2003/2006 27006KT=
201004181701 TAF EGLL 181701Z 1818/1924 VRB03KT CAVOK
                      PROB30 1903/1908 6000 BKN005
                      PROB40 TEMPO 1914/1920 7000 SHRA BKN025CB=
201004181100 TAF EGLL 181100Z 1812/1918 VRB03KT CAVOK
                      PROB30 1903/1908 6000 BKN010
                      PROB40 TEMPO 1913/1918 7000 SHRA BKN025=
201004180455 TAF EGLL 180455Z 1806/1912 VRB04KT 9000 NSC
                      BECMG 1806/1809 CAVOK
                      PROB30 1903/1909 6000 BKN010=
201004172258 TAF EGLL 172258Z 1800/1906 VRB04KT CAVOK
                      PROB40 1803/1808 2000 BR
                      TEMPO 1817/1906 BKN045=
201004171655 TAF EGLL 171655Z 1718/1824 VRB05KT CAVOK
                      BECMG 1801/1804 7000
                      BECMG 1807/1809 CAVOK
                      TEMPO 1817/1824 BKN045=
201004171102 TAF EGLL 171102Z 1712/1818 VRB03KT CAVOK
                      BECMG 1800/1803 7000
                      PROB30 1804/1807 2000 BR MIFG
                      BECMG 1807/1809 CAVOK=
201004170624 TAF AMD EGLL 170624Z 1706/1812 VRB04KT 9000 BKN005
                      BECMG 1706/1709 CAVOK
                      PROB40 1706/1708 2000 MIFG BKN004=
201004170504 TAF EGLL 170504Z 1706/1812 10004KT 9000 FEW007
                      BECMG 1706/1709 CAVOK=
201004170400 TAF AMD EGLL 170400Z 1704/1806 10004KT 9000 BKN007
                      BECMG 1704/1707 CAVOK=
201004162300 TAF AMD EGLL 170400Z 1704/1806 10004KT 9000 BKN007
                      BECMG 1704/1707 CAVOK=
201004162256 TAF EGLL 162256Z 1700/1806 10004KT CAVOK
                      PROB30 1703/1707 5000 BR=
201004161700 TAF EGLL 161700Z 1618/1724 04010KT FEW048
                      BECMG 1620/1623 VRB04KT
                      PROB40 1700/1707 4000 BR
                      PROB30 1721/1724 7000=
201004161101 TAF EGLL 161101Z 1612/1718 05010KT 9999 BKN038
                      BECMG 1620/1623 VRB04KT
                      PROB40 1701/1708 4000 BR=
201004160458 TAF EGLL 160458Z 1606/1712 02010KT 9999 FEW025 SCT040
                      PROB40 1606/1608 8000 BKN009
                      BECMG 1623/1702 VRB04KT 6000
                      PROB30 1703/1708 4000 BR
                      BECMG 1708/1711 CAVOK=
201004152257 TAF EGLL 152257Z 1600/1706 03008KT 9999 FEW018 BKN030
                      TEMPO 1601/1608 BKN014
                      PROB40 TEMPO 1602/1608 6000 BKN008
                      BECMG 1617/1620 CAVOK
                      BECMG 1623/1702 6000
                      PROB30 1702/1706 4000 BR=
201004151656 TAF EGLL 151656Z 1518/1624 03010KT 9999 FEW044
                      PROB40 1523/1608 7000 BKN014=
201004151101 TAF EGLL 151101Z 1512/1618 04009KT 9999 FEW045
                      BECMG 1523/1602 BKN014
                      TEMPO 1602/1607 SCT014
                      BECMG 1607/1610 SCT018=
201004150656 TAF AMD EGLL 150656Z 1506/1612 03009KT 9999 SCT012
                      PROB40 1506/1509 4000 HZ BKN007
                      BECMG 1523/1602 BKN014
                      PROB30 TEMPO 1602/1607 6000 -DZ BKN009
                      BECMG 1607/1609 SCT018=
201004150459 TAF EGLL 150459Z 1506/1612 03009KT 7000 SCT010
                      PROB40 1506/1509 4000 HZ BKN007
                      BECMG 1508/1511 CAVOK
                      BECMG 1523/1602 BKN014
                      PROB30 TEMPO 1602/1607 6000 -DZ BKN009
                      BECMG 1607/1609 SCT018=
201004142256 TAF EGLL 142256Z 1500/1606 05005KT 7000 NSC
                      PROB40 1500/1508 4000 HZ BKN007
                      BECMG 1508/1511 CAVOK
                      BECMG 1522/1601 BKN014
                      PROB30 TEMPO 1601/1606 6000 -DZ BKN009=
201004142113 TAF AMD EGLL 142113Z 1421/1524 05008KT 8000 NSC
                      PROB40 1503/1508 4000 HZ BKN009
                      BECMG 1508/1511 CAVOK
                      BECMG 1521/1524 BKN014=
201004141701 TAF EGLL 141701Z 1418/1524 05008KT 9999 SCT030
                      PROB40 1503/1508 7000 BKN012
                      BECMG 1521/1524 BKN014=
201004141056 TAF EGLL 141056Z 1412/1518 05008KT 9999 BKN025
                      PROB40 1503/1508 7000 BKN012=
201004140500 TAF EGLL 140500Z 1406/1512 04009KT 9999 BKN030
                      PROB40 1502/1507 7000 BKN014=
201004132300 TAF EGLL 132300Z 1400/1506 03009KT 9999 SCT028
                      PROB30 1404/1407 BKN014=
201004131704 TAF EGLL 131704Z 1318/1424 02010KT CAVOK
                      BECMG 1318/1321 BKN022
                      PROB30 1322/1410 BKN013=
201004131055 TAF EGLL 131055Z 1312/1418 02010KT CAVOK
                      BECMG 1320/1323 BKN022
                      PROB30 1322/1402 BKN013=
201004130500 TAF EGLL 130500Z 1306/1412 02010KT 8000 NSC
                      BECMG 1306/1308 9999
                      BECMG 1320/1323 BKN022
                      PROB30 1322/1401 BKN013=
201004122305 TAF EGLL 122305Z 1300/1406 02008KT CAVOK
                      PROB30 1302/1306 6000
                      BECMG 1321/1324 BKN022
                      PROB30 1323/1402 BKN013=
201004121657 TAF EGLL 121657Z 1218/1324 04009KT 9999 SCT030
                      PROB30 1300/1308 9000=
201004121058 TAF EGLL 121058Z 1212/1318 04009KT 9999 SCT030
                      PROB30 TEMPO 1212/1218 8000 -SHRA
                      PROB30 1300/1308 9000=
201004120502 TAF EGLL 120502Z 1206/1312 04009KT 9999 SCT030
                      PROB30 TEMPO 1212/1218 8000 -SHRA
                      PROB30 1300/1308 9000=
201004112301 TAF EGLL 112301Z 1200/1306 05010KT 9999 SCT020
                      PROB40 1200/1204 BKN012
                      PROB30 TEMPO 1213/1218 8000 -SHRA
                      PROB30 1300/1306 9000=
201004112209 TAF AMD EGLL 112209Z 1122/1224 04009KT 9999 SCT020
                      BECMG 1122/1124 BKN012
                      PROB40 1200/1209 FEW012 BKN020
                      BECMG 1209/1212 SCT022=
201004111703 TAF EGLL 111703Z 1118/1224 04009KT 9999 FEW040
                      BECMG 1120/1122 BKN012
                      PROB30 TEMPO 1122/1124 7000 -RADZ
                      PROB40 1200/1209 FEW012 BKN020
                      BECMG 1209/1212 SCT022=
201004111100 TAF EGLL 111100Z 1112/1218 04009KT 9999 FEW035
                      BECMG 1120/1122 BKN012
                      PROB40 1200/1209 FEW012 BKN020
                      BECMG 1209/1212 SCT022=
201004110503 TAF EGLL 110503Z 1106/1212 06008KT 9000 BKN010
                      BECMG 1106/1109 9999 FEW035
                      BECMG 1120/1123 BKN012
                      PROB40 1203/1206 SCT018
                      BECMG 1206/1209 SCT035=
201004102303 TAF EGLL 102303Z 1100/1206 08005KT CAVOK
                      PROB30 1104/1108 9000 BKN010
                      BECMG 1121/1124 BKN012
                      PROB40 1203/1206 SCT018=
201004101700 TAF EGLL 101700Z 1018/1124 06008KT CAVOK
                      PROB30 1102/1107 6000 BKN008
                      BECMG 1121/1124 BKN012=
201004101100 TAF EGLL 101100Z 1012/1118 07008KT CAVOK
                      PROB40 1102/1107 6000 BKN008=
201004100457 TAF EGLL 100457Z 1006/1112 07007KT CAVOK
                      PROB40 1013/1018 BKN045
                      PROB30 1104/1107 9000 BKN007=
201004092259 TAF EGLL 092259Z 1000/1106 07007KT CAVOK
                      PROB40 1013/1018 BKN045
                      PROB30 1104/1106 9000 BKN007=
201004091657 TAF EGLL 091657Z 0918/1024 VRB03KT CAVOK
                      BECMG 1010/1013 06010KT
                      PROB40 1013/1018 BKN040=
201004091100 TAF EGLL 091100Z 0912/1018 VRB03KT CAVOK
                      BECMG 1010/1013 06010KT=
201004090459 TAF EGLL 090459Z 0906/1012 VRB03KT CAVOK=
201004082257 TAF EGLL 082257Z 0900/1006 VRB03KT CAVOK
                      PROB30 0906/0908 8000=
201004081658 TAF EGLL 081658Z 0818/0924 34007KT CAVOK
                      PROB30 0904/0908 8000
                      BECMG 0913/0916 BKN045=
201004081055 TAF EGLL 081055Z 0812/0918 34007KT 9999 SCT040
                      PROB30 0900/0908 8000=
201004080458 TAF EGLL 080458Z 0806/0912 33007KT 9999 SCT040
                      PROB30 0900/0908 8000=
201004072256 TAF EGLL 072256Z 0800/0906 32007KT 9999 SCT040
                      PROB30 0900/0906 8000=
201004071653 TAF EGLL 071653Z 0718/0824 34008KT 9999 SCT040
                      PROB30 0822/0824 8000=
201004071052 TAF EGLL 071052Z 0712/0818 32010KT 9999 SCT040
                      PROB30 TEMPO 0712/0716 7000 -RA BKN012
                      PROB30 TEMPO 0716/0719 7000 SHRA=
201004070500 TAF EGLL 070500Z 0706/0812 26005KT 9999 SCT040
                      BECMG 0709/0712 32010KT
                      TEMPO 0711/0716 6000 -RA BKN012
                      PROB30 TEMPO 0716/0720 7000 SHRA=
201004062300 TAF EGLL 062300Z 0700/0806 12004KT 9999 SCT040
                      BECMG 0709/0712 32010KT
                      TEMPO 0711/0715 6000 -RA BKN012
                      PROB30 TEMPO 0715/0719 7000 SHRA=
201004061704 TAF EGLL 061704Z 0618/0724 17012KT 9999 FEW035
                      BECMG 0623/0702 VRB05KT
                      BECMG 0709/0712 35010KT
                      PROB30 TEMPO 0710/0716 8000 -RA BKN014=
201004061102 TAF EGLL 061102Z 0612/0718 19015KT 9999 FEW035
                      PROB40 TEMPO 0612/0616 18017G27KT
                      BECMG 0619/0622 VRB05KT
                      TEMPO 0706/0714 8000 -RA
                      PROB30 TEMPO 0708/0713 BKN014
                      BECMG 0709/0712 34010KT=
201004060457 TAF EGLL 060457Z 0606/0712 17010KT 9999 FEW045
                      PROB40 TEMPO 0609/0616 18015G25KT
                      BECMG 0620/0623 VRB05KT
                      BECMG 0705/0708 36010KT
                      PROB30 TEMPO 0709/0712 9000 -RA BKN014=
201004052257 TAF EGLL 052257Z 0600/0706 18010KT 9999 SCT045
                      TEMPO 0609/0617 18015G25KT
                      BECMG 0620/0623 VRB05KT
                      BECMG 0703/0706 34010KT
                      PROB30 TEMPO 0703/0706 6000 -RA BKN014=
201004051656 TAF EGLL 051656Z 0518/0624 22014KT 9999 FEW025 SCT040
                      BECMG 0519/0521 16010KT
                      TEMPO 0610/0617 18015G25KT
                      BECMG 0618/0621 VRB05KT=
201004051056 TAF EGLL 051056Z 0512/0618 22015KT 9999 FEW022 BKN040
                      TEMPO 0512/0518 23020G30KT
                      PROB40 TEMPO 0513/0520 CAVOK
                      BECMG 0518/0520 16012KT
                      TEMPO 0610/0618 18018G28KT=
201004050503 TAF EGLL 050503Z 0506/0612 20012KT 9999 SCT040
                      PROB30 0506/0509 -RA BKN012
                      BECMG 0508/0511 22018G30KT
                      BECMG 0517/0520 18010KT
                      TEMPO 0610/0612 18017G27KT=
201004042256 TAF EGLL 042256Z 0500/0606 20008KT 9999 FEW040
                      PROB30 0506/0509 -RA BKN012
                      BECMG 0508/0511 22018G30KT
                      BECMG 0517/0520 18010KT=
201004041701 TAF EGLL 041701Z 0418/0524 29010KT 9999 SCT040
                      BECMG 0423/0502 22008KT
                      PROB40 TEMPO 0505/0509 -RA BKN014
                      BECMG 0508/0510 22018G30KT
                      BECMG 0517/0519 20010KT=
201004041054 TAF EGLL 041054Z 0412/0518 30010KT 9999 SCT030
                      TEMPO 0412/0416 31015G25KT
                      BECMG 0423/0502 22007KT
                      PROB30 TEMPO 0505/0509 -RA BKN014
                      BECMG 0508/0510 22018G30KT=
201004040500 TAF EGLL 040500Z 0406/0512 31010KT 9999 SCT025
                      TEMPO 0406/0409 6000 RA BKN014
                      TEMPO 0409/0418 31016G26KT
                      BECMG 0418/0421 22006KT
                      PROB40 TEMPO 0503/0509 8000 -RA BKN014
                      BECMG 0506/0509 22016G26KT=
201004032259 TAF EGLL 032259Z 0400/0506 03008KT 9999 FEW018 SCT025
                      TEMPO 0400/0409 6000 RA BKN014
                      BECMG 0401/0404 32012KT
                      TEMPO 0409/0418 31016G26KT
                      BECMG 0416/0419 24008KT
                      TEMPO 0503/0506 6000 RA BKN014=
201004031657 TAF EGLL 031657Z 0318/0424 13007KT 9999 FEW022 SCT040
                      TEMPO 0319/0406 6000 RA SHRA
                      PROB40 TEMPO 0320/0404 3000 +RA TSRA SCT007
                       BKN014CB
                      BECMG 0406/0408 32012KT BKN010
                      BECMG 0408/0411 30016G27KT SCT030
                      BECMG 0415/0418 28010KT
                      BECMG 0421/0424 22007KT=
201004031056 TAF EGLL 031056Z 0312/0418 21009KT 9999 FEW018 SCT030
                      TEMPO 0312/0319 6000 SHRA
                      PROB40 TEMPO 0312/0319 3500 +SHRA TSGS BKN014CB
                       BECMG 0315/0318 14012KT
                      TEMPO 0319/0406 6000 RA BKN014
                      PROB30 TEMPO 0321/0404 3000 +RA TSRA BKN008
                       BKN014CB
                      BECMG 0406/0409 31014KT BKN012
                      BECMG 0409/0412 32017G27KT SCT025
                      BECMG 0416/0418 27012KT=
201004030500 TAF EGLL 030500Z 0306/0412 19009KT 9999 FEW012 SCT025
                      TEMPO 0306/0318 7000 SHRA
                      PROB30 TEMPO 0306/0318 4000 +SHRA SHGS BKN014CB
                       BECMG 0315/0318 09010KT
                      BECMG 0319/0322 03010KT 6000 RA BKN014
                      BECMG 0322/0401 33015KT 9999 NSW SCT025=
201004030429 TAF AMD EGLL 030429Z 0304/0406 19009KT 9999 SCT028
                      TEMPO 0304/0308 7000 SHRA
                      PROB30 TEMPO 0304/0307 4000 +TSRA BKN012CB
                       PROB30
                      TEMPO 0308/0318 4000 +SHRA SHGS BKN014CB
                       BECMG 0315/0318 09010KT
                      BECMG 0319/0322 03010KT 6000 RA BKN014
                      BECMG 0322/0401 33015KT 9999 NSW=
201004022302 TAF EGLL 022302Z 0300/0406 19009KT 9999 SCT028
                      TEMPO 0300/0308 7000 SHRA BKN012
                      PROB30 TEMPO 0308/0318 4000 +SHRA SHGS BKN014CB
                       BECMG 0315/0318 09010KT
                      BECMG 0319/0322 03010KT 6000 RA BKN014
                      BECMG 0322/0401 33015KT 9999 NSW=
201004022300 TAF AMD EGLL 030429Z 0304/0406 19009KT 9999 SCT028
                      TEMPO 0304/0308 7000 SHRA
                      PROB30 TEMPO 0304/0307 4000 +TSRA BKN012CB
                       PROB30
                      TEMPO 0308/0318 4000 +SHRA SHGS BKN014CB
                       BECMG 0315/0318 09010KT
                      BECMG 0319/0322 03010KT 6000 RA BKN014
                      BECMG 0322/0401 33015KT 9999 NSW=
201004021659 TAF EGLL 021659Z 0218/0324 21010KT 9999 SCT025
                      TEMPO 0218/0318 7000 SHRA
                      PROB30 TEMPO 0308/0318 +SHRA SHGS BKN014CB
                       BECMG 0315/0317 15012KT
                      PROB40 0318/0321 07008KT 6000 RA BKN014=
201004021058 TAF EGLL 021058Z 0212/0318 15015G25KT 9000 RA FEW010 BKN014
                      PROB30 0212/0213 4000 BKN009
                      BECMG 0213/0215 21010KT 9999 NSW FEW012 SCT025
                       TEMPO 0218/0318 7000 SHRA
                      PROB30 TEMPO 0308/0318 +SHRA SHGS BKN014CB
                       BECMG 0314/0316 11012KT=
201004020506 TAF EGLL 020506Z 0206/0312 17008KT 9999 FEW014 SCT030
                      PROB40 TEMPO 0206/0210 6000 RADZ BKN010
                      BECMG 0210/0213 15015G25KT 5000 RA BKN014
                       BECMG 0213/0216 21010KT 9999 NSW FEW012
                       SCT025
                      TEMPO 0218/0312 7000 SHRA
                      PROB30 TEMPO 0308/0312 4000 +TSRA SHGS BKN014CB=
201004012257 TAF EGLL 012257Z 0200/0306 17008KT 9999 SCT030
                      TEMPO 0200/0210 6000 RADZ BKN010
                      BECMG 0210/0213 15015G25KT 5000 RA BKN014
                       BECMG 0213/0216 21010KT 9999 NSW FEW012
                       SCT025
                      PROB30 TEMPO 0218/0306 7000 SHRA BKN014=
201004012229 TAF AMD EGLL 012229Z 0122/0224 20008KT 9999 SCT025
                      TEMPO 0122/0124 7000 SHRA
                      PROB30 TEMPO 0202/0209 7000 -RADZ BKN012
                       BECMG 0210/0212 15017G27KT 9000 RA BKN014
                       BECMG 0214/0216 17008KT 9999 NSW SCT020
                       TEMPO 0216/0224 19015G25KT 4000 +SHRA BKN014CB=
201004012125 TAF AMD EGLL 012125Z 0121/0224 25012KT 9999 SCT025
                      TEMPO 0121/0124 7000 SHRA
                      PROB30 TEMPO 0202/0209 7000 -RADZ BKN012
                       BECMG 0210/0212 15017G27KT 9000 RA BKN014
                       BECMG 0214/0216 17008KT 9999 NSW SCT020
                       TEMPO 0216/0224 19015G25KT 4000 +SHRA BKN014CB=
201004011700 TAF EGLL 011700Z 0118/0224 25012KT 9999 SCT025
                      PROB30 TEMPO 0118/0121 5000 SHRA -SHRAGS
                       PROB30
                      TEMPO 0202/0209 7000 -RADZ BKN012
                      BECMG 0210/0212 15017G27KT 9000 RA BKN014
                       BECMG 0214/0216 17008KT 9999 NSW SCT020
                       TEMPO 0216/0224 19015G25KT 4000 +SHRA BKN014CB=
201004011603 TAF AMD EGLL 011603Z 0116/0218 25015G25KT 9999 SCT025
                      PROB30 TEMPO 0116/0121 4000 +SHRA TSRAGS
                       BKN012
                      BECMG 0117/0120 20008KT
                      PROB30 TEMPO 0202/0209 7000 -RADZ BKN012
                       BECMG 0209/0211 15017G27KT 9000 RA BKN014
                       BECMG 0213/0215 17008KT 9999 NSW SCT020
                       TEMPO 0216/0218 19015G25KT 4000 +SHRA BKN014CB=
201004011102 TAF EGLL 011102Z 0112/0218 25015G25KT 9999 SCT025
                      PROB30 TEMPO 0112/0121 5000 SHRA -SHRAGS
                       BECMG 0116/0120 20008KT
                      PROB30 TEMPO 0202/0209 7000 -RADZ BKN012
                       BECMG 0209/0211 15017G27KT 9000 RA BKN014
                       BECMG 0213/0215 17008KT 9999 NSW SCT020
                       TEMPO 0216/0218 19015G25KT 4000 +SHRA BKN014CB=
201004010454 TAF EGLL 010454Z 0106/0212 26014KT 9999 SCT025
                      TEMPO 0110/0124 8000 -SHRA BKN014
                      PROB30 TEMPO 0113/0119 25015G25KT SHRAGS
                       BECMG 0117/0120 20008KT
                      PROB30 TEMPO 0202/0212 7000 -RADZ BKN012
                       BECMG 0208/0211 15017G27KT
                      TEMPO 0210/0212 RA=
