##########################################################
# Query made at 12/27/2012 10:46:49 UTC
# Time interval: from 04/01/2008 00:00  to 05/01/2008 23:59  UTC
##########################################################

##########################################################
# EGLL, London / Heathrow Airport (United Kingdom)
# WMO index: 03772
# Latitude 51-29N. Longitude 000-27W. Altitude 24 m.
##########################################################

###################################
#  METAR/SPECI from EGLL
###################################
200804302350 METAR EGLL 302350Z 24013KT 9999 FEW015 BKN040 08/06 Q0999
                        TEMPO SHRA=
200804302320 METAR EGLL 302320Z 24012KT 9999 FEW012 BKN037 08/06 Q0999=
200804302250 METAR EGLL 302250Z 24013KT 9999 FEW015 BKN037 08/06 Q0998
                        NOSIG=
200804302220 METAR EGLL 302220Z 23013KT 9999 FEW012 BKN038 08/06 Q0997
                        NOSIG=
200804302150 METAR EGLL 302150Z 24014KT 9999 FEW029 BKN038 08/06 Q0997
                        NOSIG=
200804302120 METAR COR EGLL 302120Z 23014KT 9999 FEW008 SCT037 BKN045
                        09/06 Q0997 NOSIG=
200804302050 METAR COR EGLL 302050Z 22010KT 9999 FEW038 SCT042 08/07 Q0996
                        NOSIG=
200804302020 METAR COR EGLL 302020Z 23010KT 200V260 9999 -RA BKN033 BKN040
                        09/06 Q0996 NOSIG=
200804301950 METAR COR EGLL 301950Z 25012KT 9999 -RA FEW010 SCT029 BKN037
                        08/06 Q0995 NOSIG=
200804301920 METAR COR EGLL 301920Z 26010KT 7000 -RA FEW010 SCT014 BKN033
                        09/07 Q0994 NOSIG=
200804301850 METAR COR EGLL 301850Z 27007KT 9999 5000NW -RA FEW014 SCT016
                        BKN024 09/07 Q0994 RERA TEMPO SHRA=
200804301820 METAR COR EGLL 301820Z 22007KT 170V260 7000 -RA SCT014 SCT033
                        09/07 Q0993 TEMPO SHRA BKN018CB=
200804301750 METAR EGLL 301750Z 21007KT 170V250 9999 FEW020 SCT034 BKN040
                        09/07 Q0993 TEMPO SHRA BKN018CB=
200804301720 METAR COR EGLL 301720Z 24008KT 200V280 9999 -RA FEW020 SCT037CB
                        09/07 Q0992 RERA TEMPO SHRA BKN018CB=
200804301650 METAR COR EGLL 301650Z 26013KT 4800 SHRA FEW016 SCT025 08/06
                        Q0992 TEMPO TSRA BKN018CB=
200804301620 METAR COR EGLL 301620Z 20009KT 170V240 9999 VCSH FEW020 SCT035CB
                        11/06 Q0992 TEMPO 4000 +SHRA BKN018CB=
200804301550 METAR EGLL 301550Z 23009KT 200V260 9999 VCSH FEW019 FEW020CB
                        SCT037 10/06 Q0991 TEMPO SHRA BKN018CB=
200804301520 METAR COR EGLL 301520Z 22008KT 180V260 9999 SHRA FEW016 SCT037
                        BKN044 10/07 Q0991 TEMPO 4000 SHRA
                        BKN020CB=
200804301450 METAR COR EGLL 301450Z 21008KT 180V260 9999 FEW016 SCT038
                        10/07 Q0991 TEMPO SHRA BKN018CB=
200804301420 METAR EGLL 301420Z 22009KT 190V260 9999 -RA FEW010 SCT045
                        08/06 Q0990 TEMPO SHRA BKN018CB=
200804301350 METAR COR EGLL 301350Z 23012KT 9999 -RA FEW026 SCT033 08/06
                        Q0990 TEMPO SHRA BKN018CB=
200804301320 METAR COR EGLL 301320Z 23014KT 9999 -RA SCT008 SCT020CB BKN034
                        08/06 Q0989 TEMPO 4000 SHRA=
200804301250 METAR COR EGLL 301250Z 22014KT 9999 -RA SCT006 BKN020CB 08/06
                        Q0989 TEMPO 4000 SHRA=
200804301220 METAR COR EGLL 301220Z 22012KT 7000 -RA BKN010 BKN023CB 08/06
                        Q0988 TEMPO 4000 SHRA=
200804301150 METAR EGLL 301150Z 22011KT 9999 -RA FEW015 BKN021CB 09/06
                        Q0987 TEMPO 4000 SHRA=
200804301120 METAR EGLL 301120Z 25008KT 9999 FEW018 SCT023CB BKN035 10/06
                        Q0987=
200804301050 METAR COR EGLL 301050Z 26005KT 230V310 9999 BKN015 FEW023CB
                        10/06 Q0986 TEMPO 4000 SHRA BKN014=
200804301020 METAR COR EGLL 301020Z 30005KT 9999 FEW023CB SCT035 10/07
                        Q0986 TEMPO 4000 SHRA=
200804300950 METAR COR EGLL 300950Z 32004KT 280V350 9999 -RA FEW019 FEW023CB
                        SCT035 08/06 Q0986 TEMPO 4000 SHRA=
200804300920 METAR COR EGLL 300920Z VRB03KT 8000 -RA SCT023 BKN027 07/05
                        Q0986 RERA TEMPO 4000 SHRA BKN014=
200804300850 METAR COR EGLL 300850Z 11008KT 6000 SHRA FEW010 SCT020 BKN025CB
                        07/05 Q0986 RERA TEMPO 4000 SHRA
                        BKN012=
200804300820 METAR COR EGLL 300820Z 08007KT 7000 -RA FEW011 SCT020 BKN027CB
                        08/07 Q0986 TEMPO 4000 SHRA BKN012=
200804300750 METAR COR EGLL 300750Z 08008KT 7000 -SHRA FEW013 SCT027 08/07
                        Q0987 RERA TEMPO 4000 SHRA BKN012=
200804300720 METAR COR EGLL 300720Z 07007KT 9999 -SHRA FEW011 SCT024 08/07
                        Q0987 TEMPO 4000 +SHRA BKN012=
200804300650 METAR COR EGLL 300650Z 07007KT 9999 FEW018 08/07 Q0987 BECMG
                        RA BKN012=
200804300620 METAR COR EGLL 300620Z 08007KT 9999 FEW018 08/06 Q0987 TEMPO
                        RA BKN014=
200804300550 METAR EGLL 300550Z 09007KT 9999 FEW017 07/06 Q0987=
200804300520 METAR COR EGLL 300520Z 09006KT CAVOK 07/06 Q0988 NOSIG=
200804300450 METAR EGLL 300450Z 10005KT 9999 FEW015 06/05 Q0988 NOSIG=
200804300420 METAR COR EGLL 300420Z 11007KT 9999 FEW035 06/05 Q0988 NOSIG=
200804300350 METAR COR EGLL 300350Z 12007KT 9999 -SHRA BKN048 06/05 Q0988
                        NOSIG=
200804300320 METAR COR EGLL 300320Z 13007KT 9999 FEW019 05/04 Q0988 NOSIG=
200804300250 METAR EGLL 300250Z 13008KT CAVOK 06/05 Q0988 NOSIG=
200804300220 METAR COR EGLL 300220Z 14007KT CAVOK 06/05 Q0988 NOSIG=
200804300150 METAR EGLL 300150Z 13005KT CAVOK 06/05 Q0989=
200804300120 METAR EGLL 300120Z AUTO 14007KT 9999NDV -RA FEW047/// 07/06
                        Q0989=
200804300050 METAR EGLL 300050Z AUTO 15008KT 9999NDV FEW020/// 07/05 Q0989
                        RERA=
200804300020 METAR EGLL 300020Z AUTO 15006KT 9999NDV RA FEW020/// SCT031///
                        07/06 Q0989=
200804292350 METAR EGLL 292350Z 14004KT 110V220 9999 -SHRA FEW024 07/06
                        Q0989 RERA=
200804292320 METAR COR EGLL 292320Z VRB03KT 9999 SHRA SCT040 07/06 Q0989
                        BECMG NSW=
200804292250 METAR COR EGLL 292250Z 18004KT 9999 SHRA FEW024 BKN029 07/06
                        Q0989 BECMG NSW=
200804292220 METAR COR EGLL 292220Z 22006KT 9999 SHRA FEW011 SCT040 07/06
                        Q0989 TEMPO BKN020CB=
200804292150 METAR COR EGLL 292150Z 16007KT 130V250 9999 -SHRA FEW012
                        SCT020 BKN040 09/07 Q0989 TEMPO +SHRA
                        BKN020CB=
200804292120 METAR EGLL 292120Z 16008KT 100V230 9999 FEW046 09/07 Q0989=
200804292050 METAR COR EGLL 292050Z 16008KT 120V220 CAVOK 09/07 Q0989
                        TEMPO SHRA=
200804292020 METAR EGLL 292020Z 16005KT 100V240 9999 FEW020 BKN040 09/07
                        Q0990 TEMPO SHRA=
200804291950 METAR COR EGLL 291950Z 18008KT 150V240 9999 BKN028 09/07
                        Q0990 TEMPO SHRA=
200804291920 METAR COR EGLL 291920Z 21008KT 9999 SCT011 BKN036 09/07 Q0989
                        RERA TEMPO SHRA=
200804291850 METAR COR EGLL 291850Z 11014KT 8000 RA SCT010 BKN020 10/08
                        Q0988 TEMPO BKN010=
200804291820 METAR EGLL 291820Z 10011KT 8000 RA SCT012 BKN022 09/08 Q0989
                        TEMPO 4500 BKN014=
200804291750 METAR COR EGLL 291750Z 10013KT 8000 RA SCT035 BKN044 09/08
                        Q0990 TEMPO 4500 BKN014=
200804291720 METAR EGLL 291720Z 10014KT 9000 -RA SCT034 BKN043 10/08 Q0990
                        TEMPO 4500 RA BKN014=
200804291650 METAR COR EGLL 291650Z 10012KT 9000 -RA FEW032 BKN037 10/08
                        Q0991 TEMPO 4500 RA BKN014=
200804291620 METAR COR EGLL 291620Z 12012KT 9999 -RA FEW020 OVC049 10/07
                        Q0992 RERA TEMPO 4500 RA BKN014=
200804291550 METAR COR EGLL 291550Z 14014KT 9999 -RA SCT022 SCT034 BKN045
                        10/07 Q0992 TEMPO 4500 RA BKN012=
200804291520 METAR COR EGLL 291520Z 14014KT 9999 -SHRA FEW022 SCT034 BKN045
                        11/06 Q0992 BECMG 7000 RA=
200804291450 METAR COR EGLL 291450Z 14012KT 9999 SCT039 BKN045 12/05 Q0993
                        BECMG 7000 RA=
200804291420 METAR COR EGLL 291420Z 15013KT 9999 FEW032 SCT048 13/05 Q0993
                        BECMG 7000 RA=
200804291350 METAR COR EGLL 291350Z 15012KT 9999 SCT027 SCT043 13/06 Q0994
                        BECMG 7000 RA=
200804291320 METAR EGLL 291320Z 15012KT 120V180 9999 SCT023 12/07 Q0994
                        NOSIG=
200804291250 METAR COR EGLL 291250Z 14011KT 9999 FEW028 SCT038 11/07 Q0995
                        NOSIG=
200804291220 METAR COR EGLL 291220Z 17011KT 9999 BKN027CB 12/06 Q0995
                        NOSIG=
200804291150 METAR COR EGLL 291150Z 17008KT 140V200 9999 SCT015 SCT025CB
                        11/07 Q0995 NOSIG=
200804291120 METAR COR EGLL 291120Z 14008KT 110V190 9999 FEW020 SCT025CB
                        BKN039 10/07 Q0996 TEMPO 4000 SHRA
                        BKN018CB=
200804291050 METAR COR EGLL 291050Z 19006KT 150V220 9999 5000NE -SHRA
                        FEW014 SCT018CB BKN020 08/06 Q0996
                        TEMPO 4000 SHRA=
200804291020 METAR COR EGLL 291020Z 16006KT 130V190 9999 -SHRA SCT019
                        BKN022 10/06 Q0996 TEMPO SHRA BKN025CB=
200804290950 METAR COR EGLL 290950Z 15007KT 120V180 9999 SCT016 SCT020
                        10/06 Q0997 TEMPO SHRA BKN020CB=
200804290920 METAR COR EGLL 290920Z 14007KT 9999 FEW010 SCT018 10/07 Q0997
                        TEMPO SHRA=
200804290850 METAR COR EGLL 290850Z 14009KT 100V170 9999 3800N -SHRA SCT010
                        BKN015 08/07 Q0997 TEMPO BKN012=
200804290820 METAR COR EGLL 290820Z 10008KT 9999 FEW010 BKN012 09/07 Q0998
                        TEMPO SHRA=
200804290750 METAR COR EGLL 290750Z 09007KT 9999 FEW010 SCT012 BKN029
                        08/07 Q0998 TEMPO SHRA BKN014=
200804290720 METAR COR EGLL 290720Z 09007KT 9999 VCSH FEW010 SCT018 BKN033
                        07/06 Q0998 RESHRA TEMPO SHRA BKN014=
200804290650 METAR EGLL 290650Z 12010KT 6000 SHRA FEW011 BKN031 07/06
                        Q0999 TEMPO BKN014=
200804290620 METAR COR EGLL 290620Z 10006KT 9000 FEW015 SCT030 08/07 Q0999
                        TEMPO SHRA=
200804290550 METAR COR EGLL 290550Z 08004KT 9000 FEW018 07/07 Q0999 TEMPO
                        SHRA=
200804290520 METAR COR EGLL 290520Z 10004KT 9999 FEW008 SCT023 07/06 Q0999
                        TEMPO SHRA=
200804290450 METAR COR EGLL 290450Z 13005KT 9999 FEW017 05/04 Q0999 NOSIG=
200804290420 METAR COR EGLL 290420Z 12004KT 080V140 9999 FEW006 05/04
                        Q1000 NOSIG=
200804290350 METAR COR EGLL 290350Z VRB03KT CAVOK 06/05 Q1000 NOSIG=
200804290320 METAR COR EGLL 290320Z 14003KT CAVOK 06/06 Q1000 NOSIG=
200804290250 METAR EGLL 290250Z 15004KT 9999 FEW028 07/06 Q1001 NOSIG=
200804290220 METAR EGLL 290220Z 17004KT 9999 FEW006 07/06 Q1001 NOSIG=
200804290150 METAR EGLL 290150Z VRB03KT 9999 FEW008 07/06 Q1001=
200804290120 METAR EGLL 290120Z AUTO 00000KT 9999NDV NCD 07/06 Q1001=
200804290050 METAR EGLL 290050Z AUTO 17003KT 9999NDV NCD 07/06 Q1002=
200804290020 METAR EGLL 290020Z AUTO 20005KT 9999NDV NCD 07/06 Q1002=
200804282350 METAR EGLL 282350Z 21004KT 9999 FEW042 07/06 Q1002 NOSIG=
200804282320 METAR COR EGLL 282320Z 21005KT CAVOK 08/06 Q1003 NOSIG=
200804282250 METAR COR EGLL 282250Z 21006KT CAVOK 08/06 Q1003 NOSIG=
200804282220 METAR EGLL 282220Z 22006KT 190V260 9999 FEW046 08/06 Q1003
                        NOSIG=
200804282150 METAR EGLL 282150Z 21007KT 160V260 9999 FEW047 09/07 Q1003
                        NOSIG=
200804282120 METAR COR EGLL 282120Z 21008KT 160V260 9999 FEW042 09/07
                        Q1003 NOSIG=
200804282050 METAR EGLL 282050Z 20009KT 170V240 9999 FEW038 09/07 Q1003
                        NOSIG=
200804282020 METAR COR EGLL 282020Z 19010KT 150V230 9999 FEW047 09/06
                        Q1003 NOSIG=
200804281950 METAR COR EGLL 281950Z 20008KT 160V230 9999 -SHRA FEW042CB
                        SCT048 09/06 Q1003 RESHRA NOSIG=
200804281920 METAR COR EGLL 281920Z 22010KT 180V250 9999 4000S SHRA SCT033
                        BKN037CB 10/07 Q1003 NOSIG=
200804281850 METAR COR EGLL 281850Z 22008KT 9999 FEW026 SCT036CB 11/07
                        Q1003 TEMPO SHRA=
200804281820 METAR COR EGLL 281820Z 21009KT 170V230 9999 VCSH FEW034 SCT047CB
                        10/07 Q1002 TEMPO SHRA=
200804281750 METAR EGLL 281750Z 19011KT 150V240 9999 7000E VCSH SCT041
                        BKN048CB 10/07 Q1003 RETS RERA TEMPO
                        SHRA=
200804281720 METAR COR EGLL 281720Z 20008KT 170V240 9999 8000S -SHRA VCTS
                        FEW020 SCT044CB 10/07 Q1003 TEMPO
                        SHRA=
200804281650 METAR COR EGLL 281650Z 27006KT 9999 7000NE VCSH FEW030 SCT044CB
                        10/06 Q1003 RESHRA TEMPO SHRA=
200804281620 METAR COR EGLL 281620Z 28011KT 9999 4000SW SHRA FEW030 BKN043CB
                        12/05 Q1003 TEMPO NSW=
200804281550 METAR EGLL 281550Z 28013KT 9999 FEW038CB SCT044 14/03 Q1003=
200804281520 METAR COR EGLL 281520Z 22012KT 9999 FEW038CB SCT044 14/05
                        Q1003 TEMPO SHRA=
200804281450 METAR COR EGLL 281450Z 23013G23KT 190V260 9999 SCT039CB SCT049
                        15/05 Q1003 TEMPO SHRA=
200804281420 METAR COR EGLL 281420Z 24015KT 9999 SCT034 SCT044 15/05 Q1003
                        TEMPO SHRA SCT030CB=
200804281350 METAR COR EGLL 281350Z 24015KT 9999 SCT033 SCT041 15/05 Q1003
                        TEMPO SHRA SCT030CB=
200804281320 METAR COR EGLL 281320Z 21011KT 180V240 9999 FEW029 SCT043
                        14/05 Q1003 TEMPO SHRA SCT030CB=
200804281250 METAR COR EGLL 281250Z 24012KT 9999 FEW029 SCT046 13/06 Q1004
                        TEMPO SHRA SCT030CB=
200804281220 METAR EGLL 281220Z 21012KT 180V250 9999 VCSH FEW020 SCT042CB
                        13/06 Q1004 TEMPO SHRA=
200804281150 METAR COR EGLL 281150Z 21010KT 180V240 9999 FEW020 FEW030CB
                        13/06 Q1004 NOSIG=
200804281120 METAR COR EGLL 281120Z 22010KT 190V250 9999 VCSH FEW023 FEW030CB
                        11/07 Q1004 TEMPO SHRA=
200804281050 METAR COR EGLL 281050Z 22014KT 9999 VCSH FEW027 FEW030CB
                        13/06 Q1004 TEMPO SHRA=
200804281020 METAR COR EGLL 281020Z 22011KT 9999 VCSH FEW030CB SCT049
                        13/06 Q1005 TEMPO SHRA=
200804280950 METAR COR EGLL 280950Z 23016KT 9999 VCSH SCT030 SCT036 13/06
                        Q1005 TEMPO SHRA SCT030CB=
200804280920 METAR COR EGLL 280920Z 23013KT 9999 BKN030 13/06 Q1005 TEMPO
                        SHRA SCT030CB=
200804280850 METAR COR EGLL 280850Z 25015KT 9999 FEW023 SCT025 13/06 Q1005
                        NOSIG=
200804280820 METAR COR EGLL 280820Z 23015KT 9999 SCT028 12/06 Q1005 NOSIG=
200804280750 METAR COR EGLL 280750Z 21011KT 190V250 9999 SCT020 12/06
                        Q1006 NOSIG=
200804280720 METAR EGLL 280720Z 22010KT 9999 FEW016 11/07 Q1006=
200804280650 METAR COR EGLL 280650Z 22011KT 9999 FEW012 10/07 Q1006 NOSIG=
200804280620 METAR COR EGLL 280620Z 21008KT 9999 FEW010 10/07 Q1006 NOSIG=
200804280550 METAR COR EGLL 280550Z 21008KT 190V260 9999 FEW015 09/07
                        Q1006 NOSIG=
200804280520 METAR COR EGLL 280520Z 21007KT 190V250 9999 FEW014 08/07
                        Q1006 NOSIG=
200804280450 METAR COR EGLL 280450Z 21007KT 180V250 9999 FEW034 08/06
                        Q1006 NOSIG=
200804280420 METAR COR EGLL 280420Z 21008KT 9999 FEW034 08/07 Q1006 NOSIG=
200804280350 METAR COR EGLL 280350Z 21008KT 9999 FEW013 08/07 Q1006 TEMPO
                        BKN012=
200804280320 METAR COR EGLL 280320Z 21008KT 9999 SCT012 SCT025 09/07 Q1007
                        TEMPO BKN012=
200804280250 METAR EGLL 280250Z 21007KT CAVOK 09/07 Q1007 NOSIG=
200804280220 METAR COR EGLL 280220Z 23009KT CAVOK 09/07 Q1007 NOSIG=
200804280150 METAR COR EGLL 280150Z 22009KT CAVOK 09/07 Q1007 NOSIG=
200804280120 METAR EGLL 280120Z AUTO 22010KT 9999NDV NCD 10/07 Q1007=
200804280050 METAR EGLL 280050Z AUTO 20007KT 9999NDV NCD 10/07 Q1008=
200804280020 METAR EGLL 280020Z AUTO 21005KT 9999NDV NCD 10/07 Q1008=
200804272350 METAR EGLL 272350Z 22006KT CAVOK 10/08 Q1009 NOSIG=
200804272320 METAR COR EGLL 272320Z 22007KT CAVOK 10/08 Q1009 NOSIG=
200804272250 METAR EGLL 272250Z 24006KT CAVOK 10/07 Q1009 NOSIG=
200804272220 METAR COR EGLL 272220Z 23008KT 9999 FEW033 11/07 Q1009 NOSIG=
200804272150 METAR COR EGLL 272150Z 23008KT 9999 SCT027 BKN031 11/08 Q1009
                        NOSIG=
200804272120 METAR COR EGLL 272120Z 26008KT 9999 BKN017 BKN024 11/08 Q1009
                        NOSIG=
200804272050 METAR COR EGLL 272050Z 26012KT 9999 SCT007 BKN019 11/09 Q1009
                        NOSIG=
200804272020 METAR COR EGLL 272020Z 22009KT 9999 BKN012 13/10 Q1009 TEMPO
                        SCT012=
200804271950 METAR COR EGLL 271950Z 21009KT 9999 FEW016 BKN020 12/09 Q1009
                        NOSIG=
200804271920 METAR COR EGLL 271920Z 22011KT 9999 SCT015 FEW040CB 12/09
                        Q1010 NOSIG=
200804271850 METAR COR EGLL 271850Z 23013KT 9999 SCT019 FEW040CB 14/09
                        Q1010 TEMPO SHRA=
200804271820 METAR COR EGLL 271820Z 19013KT 9999 FEW030 14/10 Q1009 TEMPO
                        SHRA=
200804271750 METAR COR EGLL 271750Z 21012KT 9999 FEW020 FEW040CB 14/10
                        Q1009 NOSIG=
200804271720 METAR COR EGLL 271720Z 22018KT 9999 FEW020 FEW040CB 15/10
                        Q1010 NOSIG=
200804271650 METAR EGLL 271650Z 20014KT 9999 FEW024 FEW040CB 16/10 Q1010
                        NOSIG=
200804271620 METAR COR EGLL 271620Z 19015KT 9999 FEW023 FEW040CB 17/10
                        Q1010 TEMPO SHRA=
200804271550 METAR COR EGLL 271550Z 19013KT 9999 FEW020 FEW040CB 17/12
                        Q1010 TEMPO SHRA=
200804271520 METAR COR EGLL 271520Z 18013KT 9999 FEW020 17/11 Q1010 TEMPO
                        SHRA SCT040CB=
200804271450 METAR EGLL 271450Z 20011KT 180V240 9999 FEW020 17/12 Q1010
                        TEMPO SHRA SCT040CB=
200804271420 METAR EGLL 271420Z 19011KT 9999 FEW030 17/12 Q1011 TEMPO
                        SHRA SCT040CB=
200804271350 METAR COR EGLL 271350Z 20011KT 160V250 9999 FEW035 17/12
                        Q1011 NOSIG=
200804271320 METAR COR EGLL 271320Z 19008KT 150V230 9999 FEW020 FEW040CB
                        17/12 Q1012 NOSIG=
200804271250 METAR COR EGLL 271250Z 18009KT 150V240 9999 VCTS FEW020 FEW050CB
                        16/12 Q1012 BECMG NSW=
200804271220 METAR COR EGLL 271220Z 17007KT 130V240 9999 FEW042 SCT050CB
                        15/11 Q1013 NOSIG=
200804271150 METAR EGLL 271150Z 17007KT 120V230 9999 -SHRA SCT042 15/11
                        Q1013 NOSIG=
200804271120 METAR EGLL 271120Z 18008KT 130V230 9999 -SHRA FEW028 SCT046CB
                        15/12 Q1013=
200804271050 METAR COR EGLL 271050Z 18004KT 090V250 9000 -SHRA FEW040
                        SCT046CB 14/11 Q1014 TEMPO SHRA=
200804271020 METAR EGLL 271020Z 28008KT 9999 4000NW -SHRA FEW040 SCT050CB
                        15/11 Q1014 TEMPO SHRA=
200804270950 METAR COR EGLL 270950Z 22010KT 190V250 9999 4000W -RA SCT050CB
                        16/10 Q1015 TEMPO RA=
200804270920 METAR COR EGLL 270920Z 18008KT 130V230 9999 SCT050CB 16/10
                        Q1015 TEMPO SHRA=
200804270850 METAR COR EGLL 270850Z 16005KT 090V240 9999 FEW025 16/10
                        Q1014 TEMPO SHRA SCT050CB=
200804270820 METAR COR EGLL 270820Z VRB05KT 9999 FEW025 16/11 Q1014 TEMPO
                        SHRA SCT050CB=
200804270750 METAR EGLL 270750Z 18005KT 130V230 CAVOK 15/10 Q1015=
200804270720 METAR COR EGLL 270720Z 17005KT 130V260 CAVOK 15/10 Q1015
                        NOSIG=
200804270650 METAR COR EGLL 270650Z 19006KT 170V230 CAVOK 14/10 Q1015
                        NOSIG=
200804270620 METAR COR EGLL 270620Z 17007KT 150V240 CAVOK 14/09 Q1015
                        NOSIG=
200804270550 METAR COR EGLL 270550Z 16007KT 100V200 CAVOK 14/09 Q1015
                        NOSIG=
200804270520 METAR COR EGLL 270520Z 16007KT 120V200 CAVOK 14/09 Q1016
                        NOSIG=
200804270450 METAR COR EGLL 270450Z 14006KT 100V200 CAVOK 13/09 Q1015
                        NOSIG=
200804270420 METAR EGLL 270420Z 14007KT 090V160 CAVOK 13/09 Q1016 NOSIG=
200804270350 METAR COR EGLL 270350Z 15005KT CAVOK 13/09 Q1016 NOSIG=
200804270320 METAR EGLL 270320Z 14003KT CAVOK 13/09 Q1017 NOSIG=
200804270250 METAR COR EGLL 270250Z 13005KT CAVOK 13/09 Q1017 NOSIG=
200804270220 METAR EGLL 270220Z 15005KT CAVOK 14/09 Q1017 NOSIG=
200804270150 METAR COR EGLL 270150Z 15004KT CAVOK 14/08 Q1018 NOSIG=
200804270120 METAR EGLL 270120Z AUTO 13006KT 9999NDV NCD 14/08 Q1018=
200804270050 METAR EGLL 270050Z AUTO 14005KT 9999NDV NCD 13/08 Q1018=
200804270020 METAR EGLL 270020Z AUTO 14004KT 9999NDV NCD 13/08 Q1019=
200804262350 METAR COR EGLL 262350Z 13005KT CAVOK 14/08 Q1019 NOSIG=
200804262320 METAR EGLL 262320Z 14004KT CAVOK 13/08 Q1019 NOSIG=
200804262250 METAR EGLL 262250Z 19002KT CAVOK 14/07 Q1020 NOSIG=
200804262220 METAR COR EGLL 262220Z VRB03KT CAVOK 14/08 Q1020 NOSIG=
200804262150 METAR EGLL 262150Z 16004KT 120V200 CAVOK 15/07 Q1020 NOSIG=
200804262120 METAR EGLL 262120Z 16004KT CAVOK 15/07 Q1021 NOSIG=
200804262050 METAR EGLL 262050Z 15004KT 120V180 CAVOK 14/07 Q1021 NOSIG=
200804262020 METAR COR EGLL 262020Z 18005KT 130V270 CAVOK 15/07 Q1021
                        NOSIG=
200804261950 METAR EGLL 261950Z 19007KT 160V240 CAVOK 16/07 Q1021 NOSIG=
200804261920 METAR COR EGLL 261920Z 16007KT 120V190 CAVOK 16/07 Q1021
                        NOSIG=
200804261850 METAR EGLL 261850Z 20009G19KT 160V230 CAVOK 17/07 Q1021 NOSIG=
200804261820 METAR EGLL 261820Z 19010KT CAVOK 17/07 Q1021 NOSIG=
200804261750 METAR COR EGLL 261750Z 20010G20KT CAVOK 18/07 Q1021 NOSIG=
200804261720 METAR EGLL 261720Z 20011KT CAVOK 18/06 Q1021 NOSIG=
200804261650 METAR EGLL 261650Z 19013KT CAVOK 18/05 Q1021 NOSIG=
200804261620 METAR COR EGLL 261620Z 18011KT CAVOK 18/06 Q1021 NOSIG=
200804261550 METAR COR EGLL 261550Z 17012KT 130V210 CAVOK 19/07 Q1022
                        NOSIG=
200804261520 METAR EGLL 261520Z 18013G23KT CAVOK 19/08 Q1022 NOSIG=
200804261450 METAR EGLL 261450Z 19013KT 150V230 CAVOK 21/08 Q1022 NOSIG=
200804261420 METAR EGLL 261420Z 19013KT 150V220 CAVOK 21/08 Q1022 NOSIG=
200804261350 METAR EGLL 261350Z 19013KT 160V230 CAVOK 20/08 Q1023 NOSIG=
200804261320 METAR COR EGLL 261320Z 20012KT 170V250 CAVOK 21/08 Q1023
                        NOSIG=
200804261250 METAR COR EGLL 261250Z 21012KT 180V250 CAVOK 20/08 Q1023
                        NOSIG=
200804261220 METAR COR EGLL 261220Z 19011KT 150V230 9999 FEW044 20/08
                        Q1023 NOSIG=
200804261150 METAR COR EGLL 261150Z 21012G24KT 170V250 9999 FEW044 20/09
                        Q1024 NOSIG=
200804261120 METAR EGLL 261120Z 18013KT 160V230 9999 FEW040 19/09 Q1024
                        NOSIG=
200804261050 METAR EGLL 261050Z 20013KT 170V240 CAVOK 19/09 Q1024 NOSIG=
200804261020 METAR COR EGLL 261020Z 19011KT 160V230 CAVOK 19/09 Q1024
                        NOSIG=
200804260950 METAR COR EGLL 260950Z 20012KT 170V240 CAVOK 18/09 Q1024
                        NOSIG=
200804260920 METAR COR EGLL 260920Z 20011KT CAVOK 17/09 Q1024 NOSIG=
200804260850 METAR EGLL 260850Z 21011KT 180V250 CAVOK 17/09 Q1024 NOSIG=
200804260820 METAR EGLL 260820Z 21007KT 170V240 CAVOK 16/09 Q1024 NOSIG=
200804260750 METAR COR EGLL 260750Z 20008KT 170V240 CAVOK 15/09 Q1024
                        NOSIG=
200804260720 METAR COR EGLL 260720Z 20007KT 170V240 CAVOK 14/09 Q1024
                        NOSIG=
200804260650 METAR EGLL 260650Z 20004KT 170V240 CAVOK 12/08 Q1024 NOSIG=
200804260620 METAR COR EGLL 260620Z 21005KT 170V240 CAVOK 12/08 Q1024
                        NOSIG=
200804260550 METAR EGLL 260550Z 20004KT 170V250 CAVOK 09/07 Q1024 NOSIG=
200804260520 METAR EGLL 260520Z VRB03KT CAVOK 08/06 Q1025 NOSIG=
200804260450 METAR COR EGLL 260450Z 00000KT CAVOK 08/06 Q1025 NOSIG=
200804260420 METAR EGLL 260420Z 00000KT CAVOK 09/06 Q1025 NOSIG=
200804260350 METAR COR EGLL 260350Z VRB02KT CAVOK 09/06 Q1025 NOSIG=
200804260320 METAR COR EGLL 260320Z 13002KT CAVOK 09/06 Q1025 NOSIG=
200804260250 METAR EGLL 260250Z VRB03KT CAVOK 08/06 Q1026 NOSIG=
200804260220 METAR COR EGLL 260220Z 17004KT 140V210 CAVOK 10/07 Q1026
                        NOSIG=
200804260150 METAR COR EGLL 260150Z 19004KT CAVOK 10/07 Q1026 NOSIG=
200804260120 METAR EGLL 260120Z AUTO 21006KT 9999NDV NCD 11/07 Q1026=
200804260050 METAR EGLL 260050Z AUTO 19006KT 9999NDV NCD 11/08 Q1026=
200804260020 METAR EGLL 260020Z AUTO 20005KT 9999NDV NCD 12/07 Q1026=
200804252350 METAR EGLL 252350Z 23007KT CAVOK 13/07 Q1027 NOSIG=
200804252320 METAR COR EGLL 252320Z 22006KT CAVOK 13/07 Q1027 NOSIG=
200804252250 METAR EGLL 252250Z 23006KT CAVOK 13/07 Q1027 NOSIG=
200804252220 METAR COR EGLL 252220Z 23008KT CAVOK 13/07 Q1027 NOSIG=
200804252150 METAR EGLL 252150Z 24009KT 9999 FEW043 13/06 Q1027 NOSIG=
200804252120 METAR EGLL 252120Z 22010KT 9999 FEW042 13/06 Q1027 NOSIG=
200804252050 METAR EGLL 252050Z 22009KT 9999 BKN042 14/06 Q1027 NOSIG=
200804252020 METAR EGLL 252020Z 22009KT 9999 SCT042 13/06 Q1027 NOSIG=
200804251950 METAR EGLL 251950Z 22009KT 9999 BKN046 14/06 Q1027 NOSIG=
200804251920 METAR COR EGLL 251920Z 22011KT 9999 BKN044 14/07 Q1027 NOSIG=
200804251850 METAR EGLL 251850Z 22010KT 9999 FEW032 BKN046 14/07 Q1027
                        NOSIG=
200804251820 METAR EGLL 251820Z 21010KT 9999 FEW032 BKN049 15/07 Q1026
                        NOSIG=
200804251750 METAR EGLL 251750Z 21011KT 9999 FEW032 15/07 Q1026 NOSIG=
200804251720 METAR EGLL 251720Z 22011KT 9999 FEW032 16/08 Q1026 NOSIG=
200804251650 METAR EGLL 251650Z 21011KT 9999 FEW035 16/09 Q1027 NOSIG=
200804251620 METAR EGLL 251620Z 21009KT 180V240 9999 FEW028 SCT032 16/09
                        Q1027 NOSIG=
200804251550 METAR COR EGLL 251550Z 21010KT 9999 FEW033 16/09 Q1027 NOSIG=
200804251520 METAR COR EGLL 251520Z 20010KT 180V240 9999 FEW033 16/08
                        Q1027 NOSIG=
200804251450 METAR EGLL 251450Z 23010KT 9999 FEW036 16/08 Q1027 NOSIG=
200804251420 METAR EGLL 251420Z 23012KT 9999 FEW040 16/07 Q1027 NOSIG=
200804251350 METAR COR EGLL 251350Z 23012KT 180V260 9999 FEW040 16/07
                        Q1027 NOSIG=
200804251320 METAR COR EGLL 251320Z 22010KT 190V250 9999 SCT040 16/06
                        Q1027 NOSIG=
200804251250 METAR COR EGLL 251250Z 25011KT 9999 SCT039 SCT044 16/07 Q1027
                        NOSIG=
200804251220 METAR COR EGLL 251220Z 25009KT 210V270 9999 FEW040 16/07
                        Q1027 NOSIG=
200804251150 METAR EGLL 251150Z 22009KT 190V250 9999 FEW042 16/06 Q1028=
200804251120 METAR COR EGLL 251120Z 27007KT 220V310 9999 FEW042 16/06
                        Q1028 NOSIG=
200804251050 METAR COR EGLL 251050Z 28010KT 9999 FEW038 15/06 Q1028 NOSIG=
200804251020 METAR COR EGLL 251020Z 26009KT 230V290 9999 FEW036 15/06
                        Q1028 NOSIG=
200804250950 METAR EGLL 250950Z 27009KT 9999 FEW032 15/06 Q1028 NOSIG=
200804250920 METAR COR EGLL 250920Z 27008KT 240V310 9999 FEW024 14/07
                        Q1028 NOSIG=
200804250850 METAR COR EGLL 250850Z 27009KT 9999 FEW020 13/08 Q1028 NOSIG=
200804250820 METAR EGLL 250820Z 27009KT 9999 FEW016 12/08 Q1028 NOSIG=
200804250750 METAR EGLL 250750Z 26009KT 9999 FEW016 12/08 Q1027 NOSIG=
200804250720 METAR COR EGLL 250720Z 25009KT 9999 FEW017 11/07 Q1027 NOSIG=
200804250650 METAR COR EGLL 250650Z 25010KT 9999 FEW017 10/07 Q1027 NOSIG=
200804250620 METAR COR EGLL 250620Z 25007KT CAVOK 10/07 Q1027 NOSIG=
200804250550 METAR COR EGLL 250550Z 27007KT CAVOK 10/07 Q1026 NOSIG=
200804250520 METAR EGLL 250520Z 25006KT 210V270 CAVOK 09/06 Q1026 NOSIG=
200804250450 METAR COR EGLL 250450Z 24007KT CAVOK 09/06 Q1026 NOSIG=
200804250420 METAR EGLL 250420Z 24007KT CAVOK 09/06 Q1025 NOSIG=
200804250350 METAR EGLL 250350Z 24007KT CAVOK 09/06 Q1025 NOSIG=
200804250320 METAR EGLL 250320Z 24007KT CAVOK 09/06 Q1025 NOSIG=
200804250250 METAR EGLL 250250Z 25009KT CAVOK 10/06 Q1025 NOSIG=
200804250220 METAR COR EGLL 250220Z 25008KT CAVOK 10/06 Q1025 NOSIG=
200804250150 METAR COR EGLL 250150Z 25009KT CAVOK 10/06 Q1025 NOSIG=
200804250120 METAR EGLL 250120Z AUTO 26010KT 9999NDV NCD 10/06 Q1025=
200804250050 METAR EGLL 250050Z AUTO 25010KT 9999NDV NCD 10/06 Q1025=
200804250020 METAR COR EGLL 250020Z AUTO 25009KT 9999NDV NCD 10/06 Q1025=
200804242350 METAR EGLL 242350Z 26010KT CAVOK 10/06 Q1025 NOSIG=
200804242320 METAR EGLL 242320Z 25011KT CAVOK 10/06 Q1024 NOSIG=
200804242250 METAR EGLL 242250Z 25011KT CAVOK 10/05 Q1024 NOSIG=
200804242220 METAR COR EGLL 242220Z 26012KT CAVOK 11/05 Q1024 NOSIG=
200804242150 METAR EGLL 242150Z 26013KT CAVOK 11/05 Q1024 NOSIG=
200804242120 METAR COR EGLL 242120Z 25011KT CAVOK 12/04 Q1023 NOSIG=
200804242050 METAR COR EGLL 242050Z 26012KT CAVOK 11/04 Q1023 NOSIG=
200804242020 METAR EGLL 242020Z 27009KT CAVOK 12/05 Q1023 NOSIG=
200804241950 METAR COR EGLL 241950Z 27009KT 9999 FEW036 12/04 Q1022 NOSIG=
200804241920 METAR EGLL 241920Z 27012KT 9999 FEW036 13/04 Q1022 NOSIG=
200804241850 METAR EGLL 241850Z 28013KT 9999 FEW032 13/04 Q1021 NOSIG=
200804241820 METAR COR EGLL 241820Z 28015KT 9999 FEW047CB 14/05 Q1021
                        NOSIG=
200804241750 METAR EGLL 241750Z 28015KT 9999 FEW047CB 15/05 Q1020 NOSIG=
200804241720 METAR COR EGLL 241720Z 28013KT 9999 FEW048CB 15/04 Q1020
                        NOSIG=
200804241650 METAR EGLL 241650Z 27016KT 9999 FEW048CB 16/04 Q1020 NOSIG=
200804241620 METAR COR EGLL 241620Z 28014KT 9999 FEW048CB 16/04 Q1019
                        NOSIG=
200804241550 METAR EGLL 241550Z 27016KT CAVOK 16/03 Q1019 NOSIG=
200804241520 METAR COR EGLL 241520Z 27018KT 9999 SCT046 16/03 Q1019 NOSIG=
200804241450 METAR COR EGLL 241450Z 28016KT 9999 FEW020CB SCT047 16/05
                        Q1019 TEMPO SHRA BKN020CB=
200804241420 METAR EGLL 241420Z 27018KT 9999 FEW020CB SCT038 16/07 Q1018
                        TEMPO SHRA BKN020CB=
200804241350 METAR COR EGLL 241350Z 27016KT 9999 SCT030 15/09 Q1018 TEMPO
                        SHRA BKN020CB=
200804241320 METAR COR EGLL 241320Z 25010KT 9999 SCT028 13/09 Q1019 TEMPO
                        26016G26KT SHRA BKN018CB=
200804241250 METAR COR EGLL 241250Z 21009KT 180V240 9999 VCTS SCT016CB
                        FEW040 10/07 Q1019 RERA TEMPO SHRA=
200804241220 METAR EGLL 241220Z 27013KT 9999 6000NE R27R/1400 SHRA BKN015
                        FEW030CB 10/07 Q1019 TEMPO 26020G30KT
                        3000 +TSRA BKN018CB=
200804241150 METAR EGLL 241150Z 27018KT 9999 -RA SCT027 SCT034 13/06 Q1018
                        TEMPO 25020G30KT 3000 +TSGR BKN015CB=
200804241120 METAR EGLL 241120Z 21015KT 180V250 9999 SCT024 SCT032 14/08
                        Q1018 TEMPO 25018G28KT 4000 +SHRA
                        BKN018CB=
200804241050 METAR COR EGLL 241050Z 22014KT 9999 FEW025 13/08 Q1018 TEMPO
                        25018G28KT 4000 +SHRA BKN018CB=
200804241020 METAR COR EGLL 241020Z 20011KT 170V240 9999 FEW015 12/08
                        Q1019 TEMPO SHRA BKN020CB=
200804240950 METAR COR EGLL 240950Z 19012KT 160V240 9999 FEW020 BKN048
                        11/08 Q1019 RERA TEMPO SHRA BKN020CB=
200804240920 METAR COR EGLL 240920Z 22013KT 9999 RA FEW018 BKN023 12/09
                        Q1019 TEMPO 4000 +RA=
200804240850 METAR COR EGLL 240850Z 19012KT 170V230 9999 -RA FEW016 SCT019
                        12/09 Q1018 TEMPO 4000 +RA=
200804240820 METAR COR EGLL 240820Z 19014KT 170V230 9999 BKN019 12/08
                        Q1019 TEMPO RA=
200804240750 METAR COR EGLL 240750Z 19014KT 9999 SCT020 12/08 Q1019 TEMPO
                        RA=
200804240720 METAR COR EGLL 240720Z 18007KT 130V230 9000 SCT030 10/08
                        Q1019 TEMPO RA=
200804240650 METAR COR EGLL 240650Z 17008KT 140V220 7000 SCT005 09/07
                        Q1019 NOSIG=
200804240620 METAR EGLL 240620Z 19008KT 160V230 7000 SCT006 08/07 Q1019
                        TEMPO BKN009=
200804240550 METAR EGLL 240550Z 16005KT 120V210 6000 FEW006 07/06 Q1019
                        TEMPO BKN005=
200804240520 METAR COR EGLL 240520Z 15005KT 120V200 5000 BR FEW005 06/04
                        Q1019 TEMPO 4000 BR BKN005=
200804240450 METAR COR EGLL 240450Z 18004KT 140V290 6000 NSC 06/05 Q1019
                        TEMPO 4000 BR BKN005=
200804240420 METAR COR EGLL 240420Z VRB04KT 8000 NSC 07/06 Q1019 TEMPO
                        4000 BR BKN005=
200804240350 METAR COR EGLL 240350Z 18005KT 6000 FEW008 07/06 Q1020 TEMPO
                        4000 BR BKN005=
200804240320 METAR COR EGLL 240320Z 18005KT 6000 FEW008 07/06 Q1020 TEMPO
                        4000 BR BKN005=
200804240250 METAR COR EGLL 240250Z 20004KT 7000 NSC 07/06 Q1020 TEMPO
                        4000 BR BKN005=
200804240220 METAR COR EGLL 240220Z 21005KT 8000 FEW010 08/06 Q1020 TEMPO
                        4000 BR BKN005=
200804240150 METAR EGLL 240150Z 23007KT CAVOK 09/07 Q1020=
200804240120 METAR EGLL 240120Z AUTO 21005KT 9999NDV NCD 09/07 Q1019=
200804240050 METAR EGLL 240050Z AUTO 20004KT 9999NDV NCD 09/07 Q1019=
200804240020 METAR COR EGLL 240020Z AUTO 20004KT 9999NDV NCD 09/07 Q1020=
200804232350 METAR COR EGLL 232350Z 21003KT CAVOK 10/07 Q1020 NOSIG=
200804232320 METAR COR EGLL 232320Z 22005KT CAVOK 10/07 Q1020 NOSIG=
200804232250 METAR COR EGLL 232250Z 20004KT CAVOK 11/07 Q1020 NOSIG=
200804232220 METAR COR EGLL 232220Z 23007KT CAVOK 11/08 Q1020 NOSIG=
200804232150 METAR COR EGLL 232150Z 24008KT CAVOK 12/08 Q1020 NOSIG=
200804232120 METAR COR EGLL 232120Z 24010KT CAVOK 13/08 Q1020 NOSIG=
200804232050 METAR COR EGLL 232050Z 22009KT 200V260 CAVOK 14/05 Q1019
                        NOSIG=
200804232020 METAR COR EGLL 232020Z 28008KT CAVOK 14/05 Q1019 NOSIG=
200804231950 METAR COR EGLL 231950Z 26009KT CAVOK 15/05 Q1019 NOSIG=
200804231920 METAR COR EGLL 231920Z 25010KT CAVOK 16/05 Q1018 NOSIG=
200804231850 METAR COR EGLL 231850Z 27007KT CAVOK 16/05 Q1018=
200804231820 METAR COR EGLL 231820Z 28006KT CAVOK 15/06 Q1018 NOSIG=
200804231750 METAR COR EGLL 231750Z 28007KT CAVOK 16/05 Q1017 NOSIG=
200804231720 METAR EGLL 231720Z 27009KT CAVOK 17/05 Q1017 NOSIG=
200804231650 METAR COR EGLL 231650Z 27009KT CAVOK 17/05 Q1017 NOSIG=
200804231620 METAR EGLL 231620Z 27009KT CAVOK 17/05 Q1017 NOSIG=
200804231550 METAR EGLL 231550Z 26010KT CAVOK 18/05 Q1017 NOSIG=
200804231520 METAR COR EGLL 231520Z 27010KT CAVOK 17/06 Q1017 NOSIG=
200804231450 METAR EGLL 231450Z 27010KT 9999 FEW048 17/05 Q1017 NOSIG=
200804231420 METAR EGLL 231420Z 30007KT 280V350 CAVOK 18/05 Q1017 NOSIG=
200804231350 METAR COR EGLL 231350Z 29008KT 250V330 9999 SCT045 17/05
                        Q1017 NOSIG=
200804231320 METAR COR EGLL 231320Z 29008KT 250V340 9999 SCT042 17/05
                        Q1017 NOSIG=
200804231250 METAR COR EGLL 231250Z 30006KT 260V340 9999 FEW022 SCT031
                        16/08 Q1017 NOSIG=
200804231220 METAR EGLL 231220Z 30006KT 260V350 9999 FEW032 15/10 Q1016
                        NOSIG=
200804231150 METAR EGLL 231150Z 29006KT 260V320 8000 SCT010 SCT013 14/10
                        Q1016 NOSIG=
200804231120 METAR COR EGLL 231120Z 30005KT 5000 HZ SCT006 BKN010 13/10
                        Q1016 BECMG 9999 NSW SCT015=
200804231050 METAR COR EGLL 231050Z 28005KT 250V320 2700 BR BKN005 BKN009
                        11/10 Q1016 BECMG 9999 NSW SCT012=
200804231020 METAR COR EGLL 231020Z 24006KT 160V280 2000 -RA BKN004 BKN007
                        10/09 Q1016 BECMG 8000 NSW SCT008
                        BKN012=
200804230950 METAR COR EGLL 230950Z VRB03KT 1800 -RA BKN004 BKN008 10/09
                        Q1016 BECMG 6000 NSW SCT008 BKN012=
200804230920 METAR COR EGLL 230920Z 21006KT 170V260 1900 -RA BKN004 BKN010
                        09/08 Q1016 BECMG 5000 SCT005 BKN010=
200804230850 METAR COR EGLL 230850Z 21005KT 180V250 2000 -RA SCT005 BKN025
                        09/08 Q1015 TEMPO BKN005=
200804230820 METAR COR EGLL 230820Z 22005KT 170V280 2000 -RA SCT005 BKN026
                        09/08 Q1015 TEMPO RA BKN005=
200804230750 METAR COR EGLL 230750Z 19005KT 160V240 2000 -RA SCT037 SCT043
                        09/08 Q1015 TEMPO RA BKN012=
200804230720 METAR COR EGLL 230720Z 24005KT 190V280 2000 -RA SCT044 09/07
                        Q1015 TEMPO RA BKN012=
200804230650 METAR COR EGLL 230650Z 20006KT 170V240 2200 -RA BR NSC 09/07
                        Q1014 TEMPO RA BKN012=
200804230620 METAR COR EGLL 230620Z VRB03KT 2300 HZ FEW038 SCT046 09/07
                        Q1014 NOSIG=
200804230550 METAR COR EGLL 230550Z 24005KT 210V270 2400 BR NSC 08/07
                        Q1014 TEMPO RA BKN014=
200804230520 METAR COR EGLL 230520Z 24006KT 2500 HZ NSC 08/07 Q1014 TEMPO
                        RA BKN014=
200804230450 METAR COR EGLL 230450Z 27005KT 2500 HZ FEW043 08/06 Q1013
                        NOSIG=
200804230420 METAR COR EGLL 230420Z 24005KT 200V260 3300 HZ NSC 08/06
                        Q1013 NOSIG=
200804230350 METAR EGLL 230350Z VRB03KT 4400 HZ NSC 08/06 Q1013 NOSIG=
200804230320 METAR COR EGLL 230320Z VRB02KT 4900 HZ NSC 07/06 Q1013 NOSIG=
200804230250 METAR COR EGLL 230250Z 15002KT 5000 HZ NSC 08/06 Q1013 TEMPO
                        4000 BR=
200804230220 METAR COR EGLL 230220Z 00000KT 6000 FEW044 08/06 Q1013 TEMPO
                        4000 BR=
200804230150 METAR EGLL 230150Z 11003KT 7000 FEW043 08/06 Q1013=
200804230120 METAR EGLL 230120Z AUTO 13004KT 6000NDV NCD 08/06 Q1013=
200804230050 METAR EGLL 230050Z AUTO 13004KT 6000NDV NCD 08/06 Q1013=
200804230020 METAR EGLL 230020Z AUTO 13005KT 8000NDV NCD 09/06 Q1013=
200804222350 METAR COR EGLL 222350Z 13005KT 8000 NSC 09/06 Q1013 NOSIG=
200804222320 METAR COR EGLL 222320Z 12004KT 9000 FEW041 09/06 Q1013 NOSIG=
200804222250 METAR COR EGLL 222250Z 10005KT 9000 FEW047 10/06 Q1013 NOSIG=
200804222220 METAR COR EGLL 222220Z 09006KT 9999 SCT035 SCT043 10/06 Q1013
                        NOSIG=
200804222150 METAR COR EGLL 222150Z 09005KT 9999 SCT027 SCT033 11/06 Q1013
                        NOSIG=
200804222120 METAR COR EGLL 222120Z 09006KT 9999 SCT029 11/06 Q1013 NOSIG=
200804222050 METAR COR EGLL 222050Z 10007KT 9999 FEW034 11/06 Q1013 NOSIG=
200804222020 METAR COR EGLL 222020Z 11007KT 9999 FEW034 11/06 Q1013 NOSIG=
200804221950 METAR COR EGLL 221950Z 11010KT 9999 FEW048 12/06 Q1012 NOSIG=
200804221920 METAR COR EGLL 221920Z 10010KT CAVOK 13/06 Q1012 NOSIG=
200804221850 METAR COR EGLL 221850Z 09009KT CAVOK 14/07 Q1012 NOSIG=
200804221820 METAR EGLL 221820Z 10009KT CAVOK 15/06 Q1011 NOSIG=
200804221750 METAR EGLL 221750Z 08007KT CAVOK 16/06 Q1011 NOSIG=
200804221720 METAR COR EGLL 221720Z 09006KT CAVOK 17/06 Q1011 NOSIG=
200804221650 METAR COR EGLL 221650Z 14004KT 080V170 CAVOK 17/06 Q1011
                        NOSIG=
200804221620 METAR COR EGLL 221620Z 04004KT 010V090 CAVOK 17/06 Q1011
                        NOSIG=
200804221550 METAR COR EGLL 221550Z 11005KT 030V180 CAVOK 18/06 Q1011
                        NOSIG=
200804221520 METAR COR EGLL 221520Z 09007KT 060V120 CAVOK 17/06 Q1010
                        NOSIG=
200804221450 METAR EGLL 221450Z 10006KT 9999 SCT048 18/06 Q1010 NOSIG=
200804221420 METAR COR EGLL 221420Z 08008KT 9999 SCT045 17/06 Q1010 NOSIG=
200804221350 METAR COR EGLL 221350Z 12009KT 9999 FEW046 18/07 Q1010 NOSIG=
200804221320 METAR COR EGLL 221320Z 13008KT 080V160 9999 FEW041 17/07
                        Q1010 NOSIG=
200804221250 METAR COR EGLL 221250Z 09007KT 9999 FEW038 17/08 Q1010 NOSIG=
200804221220 METAR COR EGLL 221220Z 08007KT 020V120 8000 FEW036 17/08
                        Q1010 NOSIG=
200804221150 METAR COR EGLL 221150Z 07007KT 020V100 8000 FEW036 16/08
                        Q1010 NOSIG=
200804221120 METAR COR EGLL 221120Z 06008KT 030V090 8000 NSC 16/07 Q1010
                        NOSIG=
200804221050 METAR COR EGLL 221050Z 06006KT 020V090 CAVOK 15/07 Q1010
                        NOSIG=
200804221020 METAR COR EGLL 221020Z 06005KT 010V110 8000 NSC 14/07 Q1010
                        NOSIG=
200804220950 METAR COR EGLL 220950Z 04004KT 340V100 7000 NSC 13/07 Q1010
                        NOSIG=
200804220920 METAR EGLL 220920Z 05006KT 360V100 7000 NSC 12/07 Q1010 NOSIG=
200804220850 METAR COR EGLL 220850Z 05005KT 010V090 7000 NSC 11/07 Q1010
                        NOSIG=
200804220820 METAR COR EGLL 220820Z 04005KT 010V080 6000 FEW011 10/07
                        Q1010 NOSIG=
200804220750 METAR COR EGLL 220750Z 05005KT 5000 HZ FEW010 09/07 Q1010
                        NOSIG=
200804220720 METAR EGLL 220720Z 02005KT 320V060 4500 HZ FEW010 09/07 Q1010
                        BECMG 6000=
200804220650 METAR COR EGLL 220650Z 03005KT 360V060 4200 HZ FEW011 08/06
                        Q1009 BECMG 6000=
200804220620 METAR COR EGLL 220620Z 36005KT 4000 BR FEW010 07/06 Q1009
                        BECMG 6000 NSW=
200804220550 METAR COR EGLL 220550Z 36004KT 320V050 4000 HZ FEW012 07/05
                        Q1009 BECMG 6000 NSW=
200804220520 METAR COR EGLL 220520Z 36004KT 330V040 5000 HZ FEW030 06/05
                        Q1008 TEMPO 4000 BR=
200804220450 METAR COR EGLL 220450Z 36004KT 330V030 5000 HZ NSC 06/04
                        Q1008 TEMPO 3000 BR=
200804220420 METAR COR EGLL 220420Z 01004KT 320V050 6000 NSC 06/05 Q1008
                        NOSIG=
200804220350 METAR COR EGLL 220350Z 01004KT 340V050 6000 NSC 06/05 Q1008
                        NOSIG=
200804220320 METAR COR EGLL 220320Z 02005KT 330V060 6000 NSC 06/05 Q1008
                        NOSIG=
200804220250 METAR EGLL 220250Z 36004KT 6000 NSC 06/05 Q1008 NOSIG=
200804220220 METAR COR EGLL 220220Z 36004KT 320V030 6000 NSC 06/05 Q1008
                        NOSIG=
200804220150 METAR COR EGLL 220150Z 36004KT 6000 NSC 07/05 Q1008 NOSIG=
200804220120 METAR EGLL 220120Z AUTO 36004KT 320V030 5000NDV NCD 07/05
                        Q1008=
200804220050 METAR EGLL 220050Z AUTO 36004KT 310V030 6000NDV NCD 07/05
                        Q1008=
200804220020 METAR EGLL 220020Z AUTO 36005KT 340V040 5000NDV NCD 07/06
                        Q1008=
200804212350 METAR EGLL 212350Z 02004KT 350V050 7000 NSC 08/06 Q1007 NOSIG=
200804212320 METAR COR EGLL 212320Z 36005KT 6000 NSC 08/06 Q1007 NOSIG=
200804212250 METAR COR EGLL 212250Z VRB03KT 7000 NSC 08/06 Q1007 NOSIG=
200804212220 METAR EGLL 212220Z 02005KT 330V060 8000 NSC 09/06 Q1007 NOSIG=
200804212150 METAR COR EGLL 212150Z 02006KT 340V060 7000 NSC 09/06 Q1007
                        NOSIG=
200804212120 METAR COR EGLL 212120Z 03006KT 330V070 8000 FEW023 10/06
                        Q1007 NOSIG=
200804212050 METAR COR EGLL 212050Z 03006KT 270V050 9000 NSC 10/06 Q1007
                        NOSIG=
200804212020 METAR COR EGLL 212020Z 03009KT 350V070 CAVOK 11/06 Q1006
                        NOSIG=
200804211950 METAR COR EGLL 211950Z 04008KT 010V080 CAVOK 11/06 Q1006
                        NOSIG=
200804211920 METAR EGLL 211920Z 04009KT 350V070 CAVOK 12/06 Q1006 NOSIG=
200804211850 METAR COR EGLL 211850Z 04008KT CAVOK 12/06 Q1005 NOSIG=
200804211820 METAR COR EGLL 211820Z 04009KT 360V070 CAVOK 13/06 Q1005
                        NOSIG=
200804211750 METAR COR EGLL 211750Z 05010KT CAVOK 13/06 Q1005 NOSIG=
200804211720 METAR COR EGLL 211720Z 05010KT CAVOK 13/06 Q1005 NOSIG=
200804211650 METAR COR EGLL 211650Z 05009KT 360V080 CAVOK 14/06 Q1005
                        NOSIG=
200804211620 METAR COR EGLL 211620Z 05010KT CAVOK 14/07 Q1004 NOSIG=
200804211550 METAR COR EGLL 211550Z 05010KT 9000 NSC 15/07 Q1004 NOSIG=
200804211520 METAR EGLL 211520Z 05010KT 020V080 9000 NSC 15/07 Q1004=
200804211450 METAR EGLL 211450Z 05013KT 020V080 CAVOK 16/07 Q1004 NOSIG=
200804211420 METAR COR EGLL 211420Z 05011KT 360V080 9999 FEW034 16/07
                        Q1003 NOSIG=
200804211350 METAR EGLL 211350Z 05010KT 9999 FEW031 16/08 Q1004 NOSIG=
200804211320 METAR EGLL 211320Z 06012KT 020V080 9999 FEW030 15/08 Q1004
                        NOSIG=
200804211250 METAR COR EGLL 211250Z 05009KT 020V080 9999 FEW030 14/07
                        Q1004 NOSIG=
200804211220 METAR EGLL 211220Z 05010KT 360V080 9999 SCT025 14/08 Q1004
                        NOSIG=
200804211150 METAR COR EGLL 211150Z 06012KT 8000 SCT020 13/08 Q1004 NOSIG=
200804211120 METAR COR EGLL 211120Z 04010KT 010V070 7000 FEW023 13/08
                        Q1003 NOSIG=
200804211050 METAR EGLL 211050Z 04009KT 360V070 7000 FEW030 12/08 Q1004
                        NOSIG=
200804211020 METAR COR EGLL 211020Z 05010KT 020V080 7000 FEW014 11/08
                        Q1004 NOSIG=
200804210950 METAR EGLL 210950Z 04008KT 350V070 8000 FEW014 11/08 Q1003
                        NOSIG=
200804210920 METAR COR EGLL 210920Z 03010KT 7000 FEW014 10/07 Q1003 NOSIG=
200804210850 METAR COR EGLL 210850Z 06010KT 020V080 6000 SCT016 10/07
                        Q1004 NOSIG=
200804210820 METAR EGLL 210820Z 03008KT 360V080 6000 -DZ SCT015 10/07
                        Q1003 TEMPO 4000 BKN014=
200804210750 METAR COR EGLL 210750Z 05009KT 020V090 6000 SCT013 10/07
                        Q1004 TEMPO 4000 -RA BKN012=
200804210720 METAR COR EGLL 210720Z 04008KT 360V070 6000 FEW015 10/07
                        Q1003 TEMPO 4000 RA=
200804210650 METAR COR EGLL 210650Z 04008KT 6000 FEW014 10/07 Q1003 TEMPO
                        4000 RA BKN014=
200804210620 METAR COR EGLL 210620Z 05007KT 020V090 5000 HZ FEW014 SCT020
                        10/07 Q1003 TEMPO 4000 RA BKN009=
200804210550 METAR COR EGLL 210550Z 05008KT 020V080 4500 -RA NSC 09/07
                        Q1003 NOSIG=
200804210520 METAR COR EGLL 210520Z 05006KT 5000 -DZ NSC 10/07 Q1003 TEMPO
                        4000 RA=
200804210450 METAR EGLL 210450Z 05008KT 020V090 5000 -SHRA FEW032 10/07
                        Q1002 TEMPO 4000 RA=
200804210420 METAR EGLL 210420Z 06008KT 5000 HZ SCT029 10/07 Q1002 TEMPO
                        4000 RA=
200804210350 METAR COR EGLL 210350Z 06008KT 5000 HZ SCT030 10/07 Q1003
                        TEMPO 4000 RA=
200804210320 METAR COR EGLL 210320Z 06009KT 5000 HZ FEW032 10/07 Q1003
                        TEMPO 4000 RA=
200804210250 METAR EGLL 210250Z 06008KT 5000 HZ NSC 11/08 Q1003 TEMPO
                        4000 RA=
200804210220 METAR COR EGLL 210220Z 05009KT 5000 HZ NSC 11/08 Q1003 TEMPO
                        4000 RA=
200804210150 METAR COR EGLL 210150Z 06008KT 4800 HZ NSC 11/08 Q1003 TEMPO
                        6000=
200804210120 METAR EGLL 210120Z AUTO 04007KT 360V060 4900NDV HZ NCD 10/08
                        Q1003=
200804210050 METAR EGLL 210050Z AUTO 03008KT 360V070 5000NDV NCD 10/08
                        Q1003=
200804210020 METAR EGLL 210020Z AUTO 04006KT 020V080 5000NDV NCD 11/08
                        Q1003=
200804202350 METAR COR EGLL 202350Z 05007KT 020V080 6000 NSC 11/08 Q1003
                        NOSIG=
200804202320 METAR COR EGLL 202320Z 05007KT 5000 HZ NSC 11/08 Q1003 NOSIG=
200804202250 METAR COR EGLL 202250Z 04007KT 020V080 4600 HZ NSC 11/09
                        Q1003 BECMG 6000=
200804202220 METAR EGLL 202220Z 04007KT 360V070 4700 HZ NSC 11/09 Q1003
                        RESHRA TEMPO 6000=
200804202150 METAR COR EGLL 202150Z 04007KT 4000 -RA NSC 11/09 Q1003 NOSIG=
200804202120 METAR COR EGLL 202120Z 04007KT 360V070 3900 -SHRA SCT030
                        11/09 Q1003 RERA TEMPO 6000=
200804202050 METAR COR EGLL 202050Z 05007KT 5000 -SHRA FEW020 SCT045 12/09
                        Q1003 TEMPO 4000 HZ=
200804202020 METAR COR EGLL 202020Z 03009KT 360V060 5000 -SHRA SCT046
                        12/10 Q1003 NOSIG=
200804201950 METAR COR EGLL 201950Z 04007KT 360V070 5000 BR SCT045 12/09
                        Q1003 TEMPO 4000=
200804201920 METAR COR EGLL 201920Z 04008KT 4000 BR FEW026 SCT031 BKN045
                        12/09 Q1003 TEMPO +SHRA BKN030CB=
200804201850 METAR COR EGLL 201850Z 03007KT 360V060 4000 -SHRA SCT030
                        SCT045 13/10 Q1003 RESHRA TEMPO SHRA
                        BKN030CB=
200804201820 METAR COR EGLL 201820Z 03007KT 360V060 5000 HZ SCT025 BKN030
                        13/10 Q1002 RESHRA TEMPO 4000 SHRA
                        BKN030CB=
200804201750 METAR EGLL 201750Z 04009KT 360V070 2100 RA SCT028 BKN033
                        14/09 Q1002=
200804201720 METAR COR EGLL 201720Z 04008KT 6000 SCT027 SCT036 14/09 Q1002
                        TEMPO SHRA BKN030CB=
200804201650 METAR EGLL 201650Z 05008KT 010V080 9000 FEW010 BKN030 15/08
                        Q1002 NOSIG=
200804201620 METAR COR EGLL 201620Z 06010KT 7000 SCT027 15/08 Q1001 NOSIG=
200804201550 METAR EGLL 201550Z 05010KT 020V080 7000 BKN026 15/08 Q1001
                        NOSIG=
200804201520 METAR EGLL 201520Z 05010KT 020V080 7000 BKN026 15/08 Q1002
                        NOSIG=
200804201450 METAR COR EGLL 201450Z 04010KT 010V080 7000 SCT022 15/08
                        Q1002 NOSIG=
200804201420 METAR COR EGLL 201420Z 06009KT 020V090 7000 SCT021 15/09
                        Q1002 NOSIG=
200804201350 METAR COR EGLL 201350Z 06011KT 6000 SCT021 15/09 Q1002 NOSIG=
200804201320 METAR COR EGLL 201320Z 07009KT 030V100 7000 BKN019 14/09
                        Q1003 NOSIG=
200804201250 METAR COR EGLL 201250Z 08011KT 6000 BKN020 14/09 Q1003 NOSIG=
200804201220 METAR COR EGLL 201220Z 06010KT 020V080 6000 BKN019 14/08
                        Q1003 NOSIG=
200804201150 METAR COR EGLL 201150Z 06010KT 4800 HZ BKN018 13/09 Q1003
                        BECMG 7000=
200804201120 METAR COR EGLL 201120Z 07009KT 4000 HZ BKN014 12/08 Q1003
                        BECMG 6000 BKN017=
200804201050 METAR COR EGLL 201050Z 06010KT 3000 HZ BKN011 11/08 Q1003
                        BECMG 5000 SCT012=
200804201020 METAR COR EGLL 201020Z 06009KT 3000 HZ BKN011 11/08 Q1003
                        BECMG 5000=
200804200950 METAR COR EGLL 200950Z 07009KT 3000 HZ BKN010 11/08 Q1003
                        BECMG 5000=
200804200920 METAR COR EGLL 200920Z 07009KT 3000 HZ OVC009 10/08 Q1003
                        BECMG 6000 BKN012=
200804200850 METAR COR EGLL 200850Z 07008KT 2400 BR OVC009 10/08 Q1003
                        BECMG 7000 NSW BKN012=
200804200820 METAR COR EGLL 200820Z 07008KT 2600 BR OVC010 10/08 Q1002
                        BECMG 7000=
200804200750 METAR EGLL 200750Z 07008KT 2500 BR OVC010 10/08 Q1002 BECMG
                        7000=
200804200720 METAR COR EGLL 200720Z 07007KT 2500 BR BKN010 10/08 Q1002
                        BECMG 7000 NSW=
200804200650 METAR COR EGLL 200650Z 06006KT 2500 BR SCT006 OVC009 10/08
                        Q1002 TEMPO 1400 BKN003=
200804200620 METAR EGLL 200620Z 06006KT 2100 BR SCT005 OVC008 10/08 Q1002
                        TEMPO BKN004=
200804200550 METAR COR EGLL 200550Z 06005KT 2000 BR SCT005 BKN009 09/08
                        Q1002 TEMPO 1400 BKN004=
200804200520 METAR COR EGLL 200520Z 06005KT 1600 BR BKN005 BKN011 09/08
                        Q1002 TEMPO 1300 BR BKN003=
200804200450 METAR COR EGLL 200450Z 06004KT 1600 BR BKN005 BKN010 09/08
                        Q1001 TEMPO 1300 BKN004=
200804200420 METAR COR EGLL 200420Z 06006KT 1600 BR OVC005 09/08 Q1001
                        TEMPO 1300 BR BKN004=
200804200350 METAR COR EGLL 200350Z 06004KT 1800 HZ OVC006 09/08 Q1001
                        TEMPO 1400 BR BKN004=
200804200320 METAR COR EGLL 200320Z 06005KT 2100 HZ BKN008 09/07 Q1001
                        TEMPO BKN004=
200804200250 METAR COR EGLL 200250Z 04004KT 2500 HZ OVC008 09/07 Q1001
                        BECMG BKN004=
200804200220 METAR COR EGLL 200220Z 06005KT 2900 HZ OVC009 09/07 Q1001
                        NOSIG=
200804200150 METAR COR EGLL 200150Z 05004KT 3000 HZ BKN010 BKN014 09/07
                        Q1001 BECMG BKN005=
200804200120 METAR EGLL 200120Z AUTO 05004KT 3000NDV HZ OVC010/// 08/07
                        Q1001=
200804200050 METAR EGLL 200050Z AUTO 06005KT 3100NDV HZ OVC010/// 08/07
                        Q1001=
200804200020 METAR EGLL 200020Z AUTO 05005KT 3300NDV HZ OVC009/// 08/07
                        Q1001=
200804192350 METAR COR EGLL 192350Z 05005KT 3600 HZ FEW012 BKN014 08/06
                        Q1001 BECMG BKN008=
200804192320 METAR COR EGLL 192320Z 06006KT 3600 HZ OVC017 08/06 Q1001
                        BECMG BKN008=
200804192250 METAR COR EGLL 192250Z 06007KT 3900 HZ FEW009 BKN018 08/06
                        Q1001 TEMPO BKN008=
200804192220 METAR COR EGLL 192220Z 06008KT 3900 HZ FEW010 BKN015 08/06
                        Q1001 BECMG BKN008=
200804192150 METAR COR EGLL 192150Z 06008KT 4100 HZ FEW012 BKN016 08/06
                        Q1001 BECMG BKN009=
200804192120 METAR COR EGLL 192120Z 06008KT 4100 HZ SCT010 BKN016 08/06
                        Q1001 BECMG BKN008=
200804192050 METAR EGLL 192050Z 06008KT 4000 HZ SCT011 BKN016 08/06 Q1001
                        TEMPO BKN008=
200804192020 METAR COR EGLL 192020Z 06009KT 3900 HZ BKN011 08/06 Q1001
                        TEMPO BKN008=
200804191950 METAR COR EGLL 191950Z 07008KT 5000 HZ OVC010 08/06 Q1001
                        BECMG 3000 BR BKN008=
200804191920 METAR COR EGLL 191920Z 06008KT 4500 HZ BKN011 08/06 Q1001
                        NOSIG=
200804191850 METAR COR EGLL 191850Z 06009KT 3900 HZ OVC010 08/06 Q1000
                        TEMPO BKN009=
200804191820 METAR COR EGLL 191820Z 07009KT 4200 -DZ SCT011 OVC014 08/06
                        Q1000 RERA NOSIG=
200804191750 METAR COR EGLL 191750Z 07009KT 2700 RA BKN011 08/06 Q1000
                        TEMPO DZ BKN008=
200804191720 METAR COR EGLL 191720Z 07008KT 1900 RA BKN010 08/06 Q1000
                        TEMPO BKN007=
200804191650 METAR COR EGLL 191650Z 07010KT 4000 -RA BKN014 08/06 Q1000
                        NOSIG=
200804191620 METAR EGLL 191620Z 07010KT 5000 -RA BKN017 09/06 Q0999 TEMPO
                        4000 -RADZ BKN014=
200804191550 METAR COR EGLL 191550Z 07011KT 6000 -DZ BKN018 09/05 Q0999
                        TEMPO 4500 DZ BKN014=
200804191520 METAR COR EGLL 191520Z 07011KT 5000 -RADZ OVC018 09/05 Q0999
                        TEMPO 4000 BKN014=
200804191450 METAR COR EGLL 191450Z 07012KT 6000 -RADZ BKN018 09/05 Q0999
                        TEMPO BKN014=
200804191420 METAR COR EGLL 191420Z 07013KT 6000 -RA BKN019 09/05 Q0999
                        TEMPO BKN014=
200804191350 METAR COR EGLL 191350Z 07012KT 7000 -RA SCT019 BKN042 09/05
                        Q0999 TEMPO BKN014=
200804191320 METAR COR EGLL 191320Z 06013KT 7000 BKN019 09/05 Q0999 TEMPO
                        BKN012=
200804191250 METAR COR EGLL 191250Z 07012KT 6000 BKN020 09/05 Q0999 TEMPO
                        BKN012=
200804191220 METAR COR EGLL 191220Z 07012KT 7000 OVC019 09/05 Q0999 TEMPO
                        BKN012=
200804191150 METAR COR EGLL 191150Z 06010KT 6000 OVC019 09/05 Q0998 NOSIG=
200804191120 METAR COR EGLL 191120Z 06012KT 7000 BKN020 09/04 Q0998 NOSIG=
200804191050 METAR COR EGLL 191050Z 07013KT 7000 OVC018 09/05 Q0998 NOSIG=
200804191020 METAR COR EGLL 191020Z 06014KT 6000 VCSH BKN019 08/05 Q0998
                        NOSIG=
200804190950 METAR COR EGLL 190950Z 07015KT 6000 -DZ BKN019 08/05 Q0998
                        NOSIG=
200804190920 METAR COR EGLL 190920Z 07013KT 7000 -DZ BKN019 08/05 Q0998
                        TEMPO 4500 RADZ BKN014=
200804190850 METAR EGLL 190850Z 07014G24KT 8000 BKN017 08/05 Q0997 TEMPO
                        4500 -RADZ BKN014=
200804190820 METAR COR EGLL 190820Z 06013KT 7000 FEW017 BKN020 08/05 Q0997
                        NOSIG=
200804190750 METAR EGLL 190750Z 07013KT 7000 BKN020 08/05 Q0997 TEMPO
                        -RADZ BKN014=
200804190720 METAR COR EGLL 190720Z 07013KT 5000 BR OVC016 08/05 Q0997
                        TEMPO 4000 -RADZ BKN012=
200804190650 METAR COR EGLL 190650Z 07014KT 4000 -DZ BKN015 07/05 Q0997
                        BECMG BKN012=
200804190620 METAR COR EGLL 190620Z 07011KT 4500 -DZRA OVC015 07/05 Q0996
                        BECMG BKN012=
200804190550 METAR COR EGLL 190550Z 06013KT 6000 -RADZ BKN015 08/05 Q0996
                        BECMG BKN012=
200804190520 METAR COR EGLL 190520Z 06011KT 6000 OVC015 08/05 Q0996 BECMG
                        BKN012=
200804190450 METAR COR EGLL 190450Z 06010KT 7000 BKN017 08/05 Q0995 BECMG
                        BKN012=
200804190420 METAR COR EGLL 190420Z 06012KT 7000 BKN016 08/05 Q0995 BECMG
                        BKN012=
200804190350 METAR COR EGLL 190350Z 06011KT 7000 -RADZ BKN016 08/05 Q0995
                        TEMPO BKN014=
200804190320 METAR COR EGLL 190320Z 06013KT 8000 BKN018 08/04 Q0995 TEMPO
                        -RA BKN014=
200804190250 METAR COR EGLL 190250Z 06012KT 9000 BKN018 08/04 Q0995 TEMPO
                        -RA BKN014=
200804190220 METAR COR EGLL 190220Z 06012KT 9000 BKN019 08/04 Q0995 NOSIG=
200804190150 METAR COR EGLL 190150Z 06011KT 9000 BKN019 08/04 Q0995 TEMPO
                        BKN014=
200804190120 METAR COR EGLL 190120Z 06012KT 9999 BKN020 08/04 Q0995 NOSIG=
200804190050 METAR COR EGLL 190050Z 06010KT 9999 BKN020 08/04 Q0996 NOSIG=
200804190020 METAR COR EGLL 190020Z 06011KT CAVOK 08/03 Q0995 NOSIG=
200804182350 METAR COR EGLL 182350Z 06012KT CAVOK 08/03 Q0996 NOSIG=
200804182320 METAR EGLL 182320Z 06012KT CAVOK 08/04 Q0996 NOSIG=
200804182250 METAR COR EGLL 182250Z 06012KT CAVOK 08/04 Q0996 NOSIG=
200804182220 METAR COR EGLL 182220Z 06013KT CAVOK 09/04 Q0996 NOSIG=
200804182150 METAR COR EGLL 182150Z 06013KT CAVOK 09/04 Q0996 NOSIG=
200804182120 METAR COR EGLL 182120Z 06012KT 9999 FEW048 09/03 Q0996 NOSIG=
200804182050 METAR EGLL 182050Z 06012KT 9999 BKN046 09/03 Q0996 NOSIG=
200804182020 METAR COR EGLL 182020Z 06012KT 9999 BKN046 09/03 Q0996 NOSIG=
200804181950 METAR COR EGLL 181950Z 06014KT 9999 BKN046 09/03 Q0996 NOSIG=
200804181920 METAR EGLL 181920Z 07015KT 9999 BKN044 09/03 Q0996 NOSIG=
200804181850 METAR EGLL 181850Z 07014KT 9999 BKN043 09/03 Q0996 NOSIG=
200804181820 METAR EGLL 181820Z 07014KT 9999 BKN041 09/04 Q0996 NOSIG=
200804181750 METAR COR EGLL 181750Z 07012KT 9000 -RA FEW025 BKN038 09/04
                        Q0996 NOSIG=
200804181720 METAR EGLL 181720Z 07011KT 8000 FEW025 BKN036 09/04 Q0996
                        NOSIG=
200804181650 METAR EGLL 181650Z 07014KT 8000 VCSH FEW026 BKN034 09/05
                        Q0996=
200804181620 METAR COR EGLL 181620Z 07014KT 7000 -RA SCT026 BKN035 09/05
                        Q0996 NOSIG=
200804181550 METAR COR EGLL 181550Z 07014KT 9000 -DZ SCT023 BKN036 09/04
                        Q0996 NOSIG=
200804181520 METAR EGLL 181520Z 07014KT 8000 -DZ BKN026 09/04 Q0996=
200804181450 METAR EGLL 181450Z 07014KT 8000 BKN022 09/04 Q0996 NOSIG=
200804181420 METAR EGLL 181420Z 07017KT 8000 BKN023 09/04 Q0997 NOSIG=
200804181350 METAR COR EGLL 181350Z 07015KT 8000 BKN021 09/04 Q0997 NOSIG=
200804181320 METAR COR EGLL 181320Z 08016G26KT 8000 BKN022 09/04 Q0997
                        NOSIG=
200804181250 METAR COR EGLL 181250Z 07016KT 9000 SCT023 SCT031 09/04 Q0997
                        NOSIG=
200804181220 METAR COR EGLL 181220Z 08014KT 9999 FEW024 BKN049 09/04 Q0997
                        NOSIG=
200804181150 METAR COR EGLL 181150Z 07014KT 9999 FEW027 09/03 Q0997 NOSIG=
200804181120 METAR COR EGLL 181120Z 07015KT 8000 FEW031 10/04 Q0997 NOSIG=
200804181050 METAR COR EGLL 181050Z 07017KT 8000 SCT031 10/04 Q0997 NOSIG=
200804181020 METAR COR EGLL 181020Z 07015KT 9000 FEW024 BKN031 10/04 Q0998
                        NOSIG=
200804180950 METAR COR EGLL 180950Z 07014G26KT 9000 FEW025 SCT030 10/04
                        Q0998 NOSIG=
200804180920 METAR EGLL 180920Z 08013KT 050V120 8000 FEW020 BKN024 09/04
                        Q0998=
200804180850 METAR EGLL 180850Z 08014KT 6000 SCT020 BKN022 09/04 Q0998
                        NOSIG=
200804180820 METAR COR EGLL 180820Z 07014KT 6000 SCT019 BKN022 09/04 Q0998
                        NOSIG=
200804180750 METAR EGLL 180750Z 07014KT 5000 HZ BKN018 09/04 Q0998=
200804180720 METAR COR EGLL 180720Z 07013KT 5000 HZ BKN018 08/04 Q0998
                        TEMPO BKN014=
200804180650 METAR COR EGLL 180650Z 07013KT 5000 HZ BKN019 07/04 Q0998
                        TEMPO BKN012=
200804180620 METAR COR EGLL 180620Z 06013KT 6000 BKN020 07/04 Q0999 NOSIG=
200804180550 METAR COR EGLL 180550Z 06012KT 6000 SCT022 07/04 Q0999 NOSIG=
200804180520 METAR COR EGLL 180520Z 06011KT 6000 FEW016 07/03 Q0999 NOSIG=
200804180450 METAR COR EGLL 180450Z 06012KT 6000 NSC 06/03 Q0999 NOSIG=
200804180420 METAR COR EGLL 180420Z 06013KT 6000 NSC 06/04 Q0999 NOSIG=
200804180350 METAR COR EGLL 180350Z 06013KT 6000 NSC 06/04 Q0999 NOSIG=
200804180320 METAR COR EGLL 180320Z 06011KT 5000 HZ FEW016 06/04 Q1000
                        NOSIG=
200804180250 METAR COR EGLL 180250Z 06010KT 5000 HZ FEW016 06/04 Q1000
                        NOSIG=
200804180220 METAR COR EGLL 180220Z 06010KT 5000 HZ FEW012 06/04 Q1000
                        TEMPO BKN012=
200804180150 METAR COR EGLL 180150Z 06010KT 6000 FEW011 06/04 Q1001 TEMPO
                        BKN010=
200804180120 METAR COR EGLL 180120Z AUTO 06012KT 6000NDV FEW011/// 06/04
                        Q1001 NOSIG=
200804180050 METAR EGLL 180050Z AUTO 06013KT 7000NDV BKN010/// 06/03 Q1002=
200804180020 METAR EGLL 180020Z AUTO 07011KT 9000NDV BKN011/// 06/03 Q1002=
200804172350 METAR COR EGLL 172350Z 07012KT 9999 BKN012 06/03 Q1003 TEMPO
                        SCT012=
200804172320 METAR COR EGLL 172320Z 07010KT 9999 BKN013 05/02 Q1003 TEMPO
                        BKN015=
200804172250 METAR COR EGLL 172250Z 07009KT 9999 BKN016 05/02 Q1004 NOSIG=
200804172220 METAR COR EGLL 172220Z 06010KT 9999 FEW018 05/01 Q1004 NOSIG=
200804172150 METAR COR EGLL 172150Z 06011KT 9999 FEW022 05/01 Q1004 NOSIG=
200804172120 METAR COR EGLL 172120Z 06010KT 9999 FEW026 05/01 Q1005 NOSIG=
200804172050 METAR EGLL 172050Z 07009KT 9999 FEW026 06/01 Q1005=
200804172020 METAR EGLL 172020Z 07011KT 030V090 9999 SCT032 06/01 Q1005
                        NOSIG=
200804171950 METAR COR EGLL 171950Z 07012G22KT 9999 BKN030 07/00 Q1005
                        NOSIG=
200804171920 METAR COR EGLL 171920Z 07013KT 9999 FEW037 06/M01 Q1005 NOSIG=
200804171850 METAR COR EGLL 171850Z 07012KT 9999 FEW042 07/M01 Q1004 NOSIG=
200804171820 METAR COR EGLL 171820Z 06012KT 9999 FEW042 08/M01 Q1004 NOSIG=
200804171750 METAR EGLL 171750Z 07015KT 9999 FEW044 08/M02 Q1004 NOSIG=
200804171720 METAR COR EGLL 171720Z 07014KT 9999 FEW045 09/M02 Q1005 NOSIG=
200804171650 METAR COR EGLL 171650Z 07015KT 9999 FEW047 09/M02 Q1005 NOSIG=
200804171620 METAR EGLL 171620Z 08015KT 9999 FEW048 10/M02 Q1005 TEMPO
                        08017G27KT=
200804171550 METAR COR EGLL 171550Z 08017KT 9999 FEW048 10/M03 Q1005 TEMPO
                        08017G27KT=
200804171520 METAR COR EGLL 171520Z 08017KT 9999 FEW047 10/M02 Q1005 TEMPO
                        08018G28KT=
200804171450 METAR EGLL 171450Z 07016KT 040V100 9999 FEW044 10/M02 Q1006
                        TEMPO 08017G27KT=
200804171420 METAR EGLL 171420Z 07017KT 9999 FEW044 10/M02 Q1006 TEMPO
                        07017G27KT=
200804171350 METAR COR EGLL 171350Z 07017KT 9999 FEW046 10/M01 Q1007 TEMPO
                        08018G28KT=
200804171320 METAR COR EGLL 171320Z 07016KT 9999 FEW046 11/M01 Q1007 TEMPO
                        08017G27KT=
200804171250 METAR COR EGLL 171250Z 09018KT 9999 SCT043 10/M01 Q1007 TEMPO
                        09020G30KT=
200804171220 METAR COR EGLL 171220Z 07017KT 9999 SCT042 10/M01 Q1008 TEMPO
                        09020G30KT=
200804171150 METAR COR EGLL 171150Z 08018G29KT 040V100 9999 SCT040 10/M01
                        Q1008 NOSIG=
200804171120 METAR COR EGLL 171120Z 09020KT 9999 FEW020 10/M02 Q1008 TEMPO
                        09020G30KT=
200804171050 METAR COR EGLL 171050Z 09018KT 9999 SCT047 09/M01 Q1009 TEMPO
                        08018G28KT=
200804171020 METAR COR EGLL 171020Z 08016KT 9999 SCT040 BKN046 09/M01
                        Q1009 TEMPO 08017G27KT=
200804170950 METAR COR EGLL 170950Z 08014KT 9999 SCT041 09/M01 Q1009 TEMPO
                        09017G27KT=
200804170920 METAR COR EGLL 170920Z 08017KT 9999 SCT040 08/M01 Q1010 NOSIG=
200804170850 METAR COR EGLL 170850Z 09013KT 9000 VCSH SCT026 SCT033 08/01
                        Q1010 NOSIG=
200804170820 METAR COR EGLL 170820Z 07009KT 9000 -SHRA SCT025 BKN034 07/02
                        Q1010 NOSIG=
200804170750 METAR EGLL 170750Z 06007KT 7000 BKN025 07/01 Q1010 NOSIG=
200804170720 METAR COR EGLL 170720Z 06008KT 7000 NSC 07/02 Q1011 BECMG
                        9999=
200804170650 METAR COR EGLL 170650Z 09012KT 8000 NSC 06/01 Q1011 NOSIG=
200804170620 METAR COR EGLL 170620Z 06007KT 9000 NSC 06/02 Q1011 NOSIG=
200804170550 METAR COR EGLL 170550Z 07008KT 8000 NSC 05/02 Q1011 NOSIG=
200804170520 METAR EGLL 170520Z 06007KT 9000 NSC 05/02 Q1011 NOSIG=
200804170450 METAR COR EGLL 170450Z 07009KT CAVOK 05/02 Q1011 NOSIG=
200804170420 METAR EGLL 170420Z 07008KT CAVOK 05/02 Q1011 NOSIG=
200804170350 METAR EGLL 170350Z 07007KT CAVOK 06/03 Q1012 NOSIG=
200804170320 METAR COR EGLL 170320Z 07007KT CAVOK 06/03 Q1012 NOSIG=
200804170250 METAR COR EGLL 170250Z 08009KT CAVOK 06/03 Q1012 NOSIG=
200804170220 METAR COR EGLL 170220Z 09011KT CAVOK 06/02 Q1012 NOSIG=
200804170150 METAR EGLL 170150Z NIL=
200804170120 METAR EGLL 170120Z AUTO 09012KT 9999NDV NCD 06/02 Q1013=
200804170050 METAR EGLL 170050Z AUTO 09011KT 9999NDV NCD 06/01 Q1014=
200804170020 METAR EGLL 170020Z AUTO 10011KT 9999NDV NCD 06/01 Q1014=
200804162350 METAR COR EGLL 162350Z 09010KT CAVOK 06/01 Q1014 NOSIG=
200804162320 METAR COR EGLL 162320Z 10011KT CAVOK 06/01 Q1015 NOSIG=
200804162250 METAR COR EGLL 162250Z 10010KT CAVOK 06/01 Q1015 NOSIG=
200804162220 METAR EGLL 162220Z 10010KT CAVOK 06/01 Q1015=
200804162150 METAR COR EGLL 162150Z 10011KT CAVOK 06/01 Q1015 NOSIG=
200804162120 METAR COR EGLL 162120Z 09010KT CAVOK 06/01 Q1015 NOSIG=
200804162050 METAR COR EGLL 162050Z 09009KT CAVOK 06/02 Q1016 NOSIG=
200804162020 METAR EGLL 162020Z 09010KT CAVOK 07/02 Q1016=
200804161950 METAR COR EGLL 161950Z 09010KT CAVOK 07/02 Q1016 NOSIG=
200804161920 METAR COR EGLL 161920Z 09009KT CAVOK 08/02 Q1016 NOSIG=
200804161850 METAR COR EGLL 161850Z 08010KT CAVOK 08/02 Q1016 NOSIG=
200804161820 METAR COR EGLL 161820Z 10009KT CAVOK 09/M01 Q1016 NOSIG=
200804161750 METAR COR EGLL 161750Z 10008KT CAVOK 10/M00 Q1016 NOSIG=
200804161720 METAR COR EGLL 161720Z 12009KT CAVOK 10/M00 Q1016 NOSIG=
200804161650 METAR COR EGLL 161650Z 11008KT 9999 FEW049 10/M00 Q1016 NOSIG=
200804161620 METAR COR EGLL 161620Z 13008KT 9999 FEW047 10/M00 Q1017 NOSIG=
200804161550 METAR COR EGLL 161550Z 11007KT 080V160 9999 FEW048 10/01
                        Q1017 NOSIG=
200804161520 METAR COR EGLL 161520Z 10008KT 9999 FEW048 10/01 Q1017 NOSIG=
200804161450 METAR EGLL 161450Z 13008KT 090V150 9999 FEW047 10/01 Q1018
                        NOSIG=
200804161420 METAR COR EGLL 161420Z 10010KT 9999 FEW045 10/01 Q1018 NOSIG=
200804161350 METAR COR EGLL 161350Z 13006KT 9999 FEW047 11/00 Q1019 NOSIG=
200804161320 METAR COR EGLL 161320Z 11009KT 080V170 9999 SCT042 11/01
                        Q1019 NOSIG=
200804161250 METAR EGLL 161250Z 08008KT 050V130 9999 FEW042 11/01 Q1019=
200804161220 METAR EGLL 161220Z 11006KT 080V150 9999 FEW041 10/02 Q1020
                        NOSIG=
200804161150 METAR EGLL 161150Z 10005KT 050V170 9999 FEW044 SCT049 10/01
                        Q1020 NOSIG=
200804161120 METAR EGLL 161120Z 10005KT 070V150 9999 SCT037 BKN042 10/01
                        Q1020 NOSIG=
200804161050 METAR EGLL 161050Z 10007KT 070V130 9999 SCT038 BKN042 10/01
                        Q1021 NOSIG=
200804161020 METAR COR EGLL 161020Z 10007KT 9999 SCT031 BKN040 10/02 Q1021
                        NOSIG=
200804160950 METAR COR EGLL 160950Z 09006KT 050V140 9999 SCT025 09/03
                        Q1021 NOSIG=
200804160920 METAR COR EGLL 160920Z VRB03KT 9999 SCT022 09/03 Q1021 NOSIG=
200804160850 METAR COR EGLL 160850Z 10004KT 050V180 9999 SCT017 09/03
                        Q1022 NOSIG=
200804160820 METAR COR EGLL 160820Z 09005KT 060V130 9999 FEW018 SCT042
                        08/03 Q1022 NOSIG=
200804160750 METAR COR EGLL 160750Z 11006KT 080V150 9999 SCT018 07/03
                        Q1022 NOSIG=
200804160720 METAR COR EGLL 160720Z 12005KT 090V160 7000 FEW026 BKN035
                        06/04 Q1022 NOSIG=
200804160650 METAR COR EGLL 160650Z 11005KT 090V160 6000 FEW014 SCT025
                        BKN032 06/04 Q1022 NOSIG=
200804160620 METAR COR EGLL 160620Z 12006KT 100V160 6000 SCT024 BKN031
                        05/04 Q1022 TEMPO BKN012=
200804160550 METAR EGLL 160550Z VRB03KT 6000 SCT012 05/03 Q1022 TEMPO
                        4500 BR=
200804160520 METAR COR EGLL 160520Z 15004KT 110V190 8000 SCT027 05/03
                        Q1022 TEMPO 4500 BR=
200804160450 METAR COR EGLL 160450Z 17005KT 8000 SCT027 05/03 Q1022 NOSIG=
200804160420 METAR COR EGLL 160420Z VRB03KT 9999 BKN044 05/03 Q1022 NOSIG=
200804160350 METAR COR EGLL 160350Z 09002KT 9999 BKN043 05/03 Q1022 NOSIG=
200804160320 METAR COR EGLL 160320Z 00000KT 9999 BKN043 05/03 Q1022 NOSIG=
200804160250 METAR COR EGLL 160250Z 35003KT 9999 BKN038 05/04 Q1022 NOSIG=
200804160220 METAR COR EGLL 160220Z 36003KT 9999 FEW029 BKN034 05/04 Q1022
                        NOSIG=
200804160150 METAR COR EGLL 160150Z 00000KT 9999 BKN033 05/04 Q1022 NOSIG=
200804160120 METAR EGLL 160120Z AUTO 13003KT 6000NDV NCD 04/03 Q1022=
200804160050 METAR EGLL 160050Z AUTO 20003KT 9000NDV FEW046/// 05/03 Q1023=
200804160020 METAR EGLL 160020Z AUTO 22004KT 9999NDV OVC044/// 05/03 Q1023=
200804152350 METAR COR EGLL 152350Z 19002KT 9999 BKN043 05/04 Q1023 NOSIG=
200804152320 METAR COR EGLL 152320Z 18004KT 9999 FEW046 05/04 Q1023 NOSIG=
200804152250 METAR COR EGLL 152250Z 21005KT 9999 BKN028 06/04 Q1023 TEMPO
                        SHRA=
200804152220 METAR COR EGLL 152220Z 19004KT 150V260 9999 -RA FEW030 SCT044
                        05/03 Q1023 TEMPO 4000 SHRA=
200804152150 METAR EGLL 152150Z 22007KT 180V250 9999 SCT037 06/04 Q1024
                        NOSIG=
200804152120 METAR COR EGLL 152120Z 21008KT 160V240 9999 -RA FEW031 06/03
                        Q1024 NOSIG=
200804152050 METAR COR EGLL 152050Z 21008KT 170V260 8000 -RA BKN017CB
                        06/03 Q1024 RERA TEMPO SHRA=
200804152020 METAR COR EGLL 152020Z 27008KT 240V310 9000 RA BKN017CB BKN022
                        06/03 Q1024 TEMPO 4000 +SHRA TSRA=
200804151950 METAR COR EGLL 151950Z 34004KT 300V010 9999 -RA SCT018 BKN022
                        06/03 Q1024 TEMPO 4000 SHRA TSRA
                        BKN015CB=
200804151920 METAR COR EGLL 151920Z 32006KT 9999 -RA FEW023 BKN040 07/03
                        Q1023 TEMPO SHRA=
200804151850 METAR COR EGLL 151850Z 32007KT 9999 VCSH FEW044 08/02 Q1023
                        TEMPO SHRA=
200804151820 METAR COR EGLL 151820Z 35009KT 9999 FEW027 SCT040 08/03 Q1022
                        TEMPO SHRA=
200804151750 METAR COR EGLL 151750Z 34010KT 300V030 9999 SCT030 11/M01
                        Q1022 TEMPO SHRA=
200804151720 METAR COR EGLL 151720Z 24012KT CAVOK 12/M03 Q1022 NOSIG=
200804151650 METAR EGLL 151650Z 25010KT CAVOK 12/M03 Q1022 NOSIG=
200804151620 METAR COR EGLL 151620Z 26010KT 220V290 CAVOK 12/M03 Q1022
                        NOSIG=
200804151550 METAR EGLL 151550Z 25012KT CAVOK 12/M03 Q1022 NOSIG=
200804151520 METAR EGLL 151520Z 27013KT 220V290 CAVOK 13/M03 Q1022 NOSIG=
200804151450 METAR EGLL 151450Z 27006KT 240V310 CAVOK 13/M03 Q1022 NOSIG=
200804151420 METAR COR EGLL 151420Z 29004KT 230V320 CAVOK 12/M03 Q1023
                        NOSIG=
200804151350 METAR EGLL 151350Z 24008KT 180V280 CAVOK 13/M03 Q1023 NOSIG=
200804151320 METAR COR EGLL 151320Z 23006KT 170V290 CAVOK 11/M03 Q1023
                        NOSIG=
200804151250 METAR COR EGLL 151250Z 20004KT 100V260 CAVOK 12/M03 Q1024
                        NOSIG=
200804151220 METAR COR EGLL 151220Z VRB04KT CAVOK 12/M03 Q1024 NOSIG=
200804151150 METAR EGLL 151150Z VRB05KT CAVOK 12/M03 Q1024 NOSIG=
200804151120 METAR COR EGLL 151120Z VRB05KT CAVOK 11/M03 Q1024 NOSIG=
200804151050 METAR COR EGLL 151050Z VRB05KT 9999 FEW045 10/M03 Q1024 NOSIG=
200804151020 METAR COR EGLL 151020Z VRB03KT 9999 FEW044 10/M01 Q1025 NOSIG=
200804150950 METAR COR EGLL 150950Z 24005KT 180V300 9999 FEW040 09/M01
                        Q1025 NOSIG=
200804150920 METAR COR EGLL 150920Z 22004KT 160V270 CAVOK 08/00 Q1024
                        NOSIG=
200804150850 METAR EGLL 150850Z VRB03KT CAVOK 07/01 Q1024 NOSIG=
200804150820 METAR EGLL 150820Z 24004KT 190V300 CAVOK 07/01 Q1024=
200804150750 METAR EGLL 150750Z VRB03KT CAVOK 05/02 Q1024 NOSIG=
200804150720 METAR COR EGLL 150720Z VRB02KT CAVOK 04/01 Q1024 NOSIG=
200804150650 METAR EGLL 150650Z 30004KT 9000 NSC 03/01 Q1024 NOSIG=
200804150620 METAR COR EGLL 150620Z 28004KT 9000 NSC 02/01 Q1024 NOSIG=
200804150550 METAR COR EGLL 150550Z 30003KT 9000 NSC 02/00 Q1024 NOSIG=
200804150520 METAR EGLL 150520Z 00000KT 9000 NSC 02/00 Q1023 NOSIG=
200804150450 METAR EGLL 150450Z 29004KT 8000 NSC 01/M01 Q1023 NOSIG=
200804150420 METAR EGLL 150420Z 29004KT CAVOK 01/M00 Q1023 NOSIG=
200804150350 METAR EGLL 150350Z 30003KT CAVOK 02/M00 Q1023 NOSIG=
200804150320 METAR COR EGLL 150320Z VRB02KT CAVOK 02/00 Q1023 NOSIG=
200804150250 METAR EGLL 150250Z 31003KT CAVOK 02/00 Q1023 NOSIG=
200804150220 METAR COR EGLL 150220Z VRB02KT CAVOK 03/01 Q1023 NOSIG=
200804150150 METAR COR EGLL 150150Z 32003KT CAVOK 03/01 Q1023 NOSIG=
200804150120 METAR EGLL 150120Z AUTO 32004KT 290V360 9999NDV NCD 03/01
                        Q1023=
200804150050 METAR EGLL 150050Z AUTO VRB02KT 9999NDV NCD 03/01 Q1023=
200804150020 METAR EGLL 150020Z AUTO 35004KT 9999NDV NCD 04/01 Q1023=
200804142350 METAR COR EGLL 142350Z 36005KT CAVOK 04/02 Q1023 NOSIG=
200804142320 METAR EGLL 142320Z 35005KT CAVOK 05/02 Q1023=
200804142250 METAR COR EGLL 142250Z 34004KT 300V020 CAVOK 05/02 Q1023
                        NOSIG=
200804142220 METAR COR EGLL 142220Z 35005KT 310V020 CAVOK 05/02 Q1022
                        NOSIG=
200804142150 METAR EGLL 142150Z 01005KT 340V040 9999 FEW028 06/02 Q1022=
200804142120 METAR EGLL 142120Z 03005KT 360V070 9999 SCT029 07/02 Q1022=
200804142050 METAR COR EGLL 142050Z 04004KT 330V070 CAVOK 07/02 Q1022
                        NOSIG=
200804142020 METAR COR EGLL 142020Z 36008KT 9999 FEW033 08/01 Q1021 NOSIG=
200804141950 METAR EGLL 141950Z 36007KT 9999 FEW036 08/01 Q1021 NOSIG=
200804141920 METAR EGLL 141920Z 35006KT 9999 FEW036 09/01 Q1020 NOSIG=
200804141850 METAR COR EGLL 141850Z 36005KT 9999 FEW036 09/01 Q1020 NOSIG=
200804141820 METAR COR EGLL 141820Z 36009KT 340V040 9999 FEW036 10/01
                        Q1019 TEMPO SHRA SCT025CB=
200804141750 METAR COR EGLL 141750Z 35008KT 310V020 9999 FEW048 11/M02
                        Q1019 TEMPO SHRA SCT025CB=
200804141720 METAR COR EGLL 141720Z 30008KT 270V360 9999 FEW049 11/01
                        Q1018 TEMPO SHRA SCT025CB=
200804141650 METAR COR EGLL 141650Z 27011KT 9999 FEW047CB SCT049 11/03
                        Q1018 TEMPO SHRA SCT025CB=
200804141620 METAR COR EGLL 141620Z 30006KT 280V340 9999 VCSH SCT047CB
                        11/02 Q1018 TEMPO SHRA BKN025CB=
200804141550 METAR EGLL 141550Z 30006KT 260V030 9999 VCSH FEW015 SCT040CB
                        11/02 Q1018 TEMPO SHRA SCT020CB=
200804141520 METAR COR EGLL 141520Z 32006KT 240V020 9999 VCSH FEW015 SCT030CB
                        11/03 Q1018 TEMPO SHRA=
200804141450 METAR COR EGLL 141450Z 33007KT 300V360 9999 SCT032CB SCT036
                        10/03 Q1018 TEMPO SHRA BKN020CB=
200804141420 METAR COR EGLL 141420Z 31011KT 280V340 9999 VCSH FEW026 SCT032CB
                        BKN040 11/03 Q1018 TEMPO 4000 SHRAGR
                        BKN020CB=
200804141350 METAR COR EGLL 141350Z 35006KT 290V020 9999 VCSH FEW026 SCT030CB
                        BKN046 11/04 Q1018 TEMPO 3500 SHRAGR
                        TSRAGR BKN020CB=
200804141320 METAR COR EGLL 141320Z 32009KT 280V050 9999 VCSH FEW020 SCT028CB
                        11/04 Q1018 TEMPO 32017G30KT 3500
                        SHRAGR TSRAGR=
200804141250 METAR COR EGLL 141250Z 35008KT 310V020 9999 BKN037CB 12/03
                        Q1018 TEMPO 30015G28KT 4000 TSGR=
200804141220 METAR COR EGLL 141220Z 30009KT 250V350 9999 SCT044CB 13/02
                        Q1018 TEMPO 30017G27KT 4000 SHRAGR
                        BKN020CB=
200804141150 METAR EGLL 141150Z 29009KT 260V330 9999 SCT035CB 11/02 Q1018=
200804141120 METAR COR EGLL 141120Z 30008KT 280V010 9999 SCT032CB 12/03
                        Q1018 TEMPO SHRAGS BKN020CB=
200804141050 METAR COR EGLL 141050Z 32006KT 270V360 9999 SCT033 11/04
                        Q1018 BECMG SHRA BKN025CB=
200804141020 METAR COR EGLL 141020Z 32006KT 270V020 9999 SCT025 10/04
                        Q1017 BECMG SCT025CB=
200804140950 METAR EGLL 140950Z 32007KT 280V360 9999 FEW025 10/04 Q1017=
200804140920 METAR COR EGLL 140920Z 36007KT 330V040 9999 FEW019 09/05
                        Q1017 BECMG SCT025CB=
200804140850 METAR COR EGLL 140850Z 31006KT 280V340 8000 FEW018 09/05
                        Q1017 NOSIG=
200804140820 METAR COR EGLL 140820Z 32007KT 4500 HZ FEW010 08/05 Q1017
                        BECMG 9000 NSW=
200804140750 METAR EGLL 140750Z 32006KT 280V350 4000 HZ FEW008 06/04 Q1016
                        BECMG 8000 NSW=
200804140720 METAR COR EGLL 140720Z 30005KT 4500 HZ NSC 05/03 Q1016 BECMG
                        8000 NSW=
200804140650 METAR COR EGLL 140650Z 30004KT 270V350 4200 HZ NSC 05/03
                        Q1016 BECMG 7000 NSW=
200804140620 METAR COR EGLL 140620Z 28004KT 4700 HZ NSC 04/02 Q1016 BECMG
                        7000=
200804140550 METAR EGLL 140550Z 27004KT 4600 HZ NSC 03/02 Q1015 BECMG
                        7000=
200804140520 METAR COR EGLL 140520Z 28005KT 4200 HZ FEW029 03/02 Q1015
                        TEMPO BKN010=
200804140450 METAR EGLL 140450Z 28005KT 8000 FEW010 SCT027 04/02 Q1015
                        TEMPO BKN012=
200804140420 METAR COR EGLL 140420Z VRB03KT 9999 FEW010 04/02 Q1014 NOSIG=
200804140350 METAR COR EGLL 140350Z VRB03KT 8000 NSC 04/03 Q1014 NOSIG=
200804140320 METAR COR EGLL 140320Z 32004KT 290V350 6000 NSC 04/03 Q1014
                        NOSIG=
200804140250 METAR COR EGLL 140250Z 32005KT 8000 NSC 05/03 Q1014 TEMPO
                        BKN014=
200804140220 METAR COR EGLL 140220Z 33005KT 300V010 7000 SCT013 05/03
                        Q1014 TEMPO BKN012=
200804140150 METAR COR EGLL 140150Z 35007KT 310V020 9000 SCT011 BKN018
                        06/04 Q1013 TEMPO BKN010=
200804140120 METAR EGLL 140120Z AUTO 35007KT 310V010 6000NDV FEW011///
                        SCT015/// BKN021/// 07/05 Q1013=
200804140050 METAR EGLL 140050Z AUTO 33004KT 5000NDV FEW020/// SCT041///
                        BKN049/// 06/05 Q1013=
200804140020 METAR EGLL 140020Z AUTO 33005KT 290V350 7000NDV FEW033///
                        BKN046/// 06/05 Q1013=
200804132350 METAR EGLL 132350Z 32003KT 9999 FEW031 BKN048 06/05 Q1013
                        TEMPO BKN014=
200804132320 METAR EGLL 132320Z 33004KT 290V020 9999 -RA SCT034 BKN045
                        07/05 Q1012 TEMPO BKN014=
200804132250 METAR COR EGLL 132250Z 30006KT 9999 -DZ FEW034 BKN039 07/05
                        Q1012 TEMPO BKN014=
200804132220 METAR EGLL 132220Z 29004KT 9999 BKN045 08/05 Q1012=
200804132150 METAR EGLL 132150Z 32003KT 9999 FEW034 BKN042CB 08/05 Q1012
                        TEMPO SHRA=
200804132120 METAR COR EGLL 132120Z 30006KT 9999 FEW033 BKN042CB 08/05
                        Q1012 TEMPO SHRA=
200804132050 METAR EGLL 132050Z 29006KT 9999 BKN044CB 08/04 Q1011 NOSIG=
200804132020 METAR COR EGLL 132020Z 29005KT 9999 FEW046 08/04 Q1011 TEMPO
                        +SHRA=
200804131950 METAR COR EGLL 131950Z VRB02KT 9999 -SHRA SCT027CB 08/04
                        Q1011 NOSIG=
200804131920 METAR COR EGLL 131920Z VRB03KT 9999 -SHRA SCT021CB BKN026
                        08/05 Q1010 TEMPO TSRA=
200804131850 METAR COR EGLL 131850Z 00000KT 9999 -SHRA SCT021CB BKN027
                        08/04 Q1010 RERA TEMPO SHRA=
200804131820 METAR COR EGLL 131820Z 30005KT 9999 4000NE -RA SCT019CB BKN026
                        07/04 Q1010 TEMPO 4000 SHRA BKN015CB=
200804131750 METAR EGLL 131750Z 23005KT 190V280 9999 VCSH FEW010 SCT020CB
                        BKN038 09/04 Q1009=
200804131720 METAR COR EGLL 131720Z 21005KT 180V260 9999 VCSH FEW031 SCT040CB
                        09/04 Q1009 TEMPO 3500 SHRA TSRAGR
                        BKN020CB=
200804131650 METAR COR EGLL 131650Z 21006KT 170V250 9999 VCSH FEW020 SCT036CB
                        09/05 Q1009 TEMPO 4000 SHRA TSRAGR
                        BKN020CB=
200804131620 METAR COR EGLL 131620Z 20006KT 170V270 9999 SCT018CB 09/05
                        Q1009 TEMPO SHRA BKN018CB=
200804131550 METAR COR EGLL 131550Z 20007KT 140V240 9999 BKN031CB 08/05
                        Q1009 TEMPO SHRA=
200804131520 METAR COR EGLL 131520Z 22007KT 180V270 9999 -SHRA FEW032
                        BKN037CB 08/05 Q1009 TEMPO 3500 SHRA
                        TSRAGR=
200804131450 METAR COR EGLL 131450Z 21012KT 9999 -SHRA FEW021 BKN027CB
                        09/05 Q1008 TEMPO 3500 SHRA TSRAGR=
200804131420 METAR COR EGLL 131420Z 21008KT 9999 FEW017 SCT020CB 10/05
                        Q1008 TEMPO 3500 +SHRA TSRAGR BKN018CB=
200804131350 METAR COR EGLL 131350Z 24009G20KT 210V270 9999 FEW016 SCT024CB
                        10/07 Q1008 TEMPO 3500 +SHGRA TSRAGR
                        BKN018CB=
200804131320 METAR COR EGLL 131320Z 22007KT 170V250 9999 FEW020 SCT023CB
                        11/07 Q1008 TEMPO 3500 +SHRA TSRAGR
                        BKN015CB=
200804131250 METAR COR EGLL 131250Z 22008KT 180V260 9999 6000NE FEW014
                        SCT023CB SCT040 07/05 Q1009 RESHRA
                        TEMPO 4000 TSRAGS=
200804131220 METAR COR EGLL 131220Z 21010KT 170V240 9999 3000SE SHRA FEW015
                        BKN018CB 10/06 Q1008 TEMPO 3000 +SHRA
                        TSGR=
200804131150 METAR COR EGLL 131150Z 19011KT 150V240 9999 FEW013 SCT018CB
                        BKN040 10/06 Q1008 TEMPO 4000 SHRA
                        TSGR BKN015CB=
200804131120 METAR COR EGLL 131120Z 18010KT 140V230 9999 SCT018CB SCT024
                        10/06 Q1008 TEMPO 5000 SHRA BKN018CB=
200804131050 METAR COR EGLL 131050Z 17009KT 130V230 9999 -SHRA FEW020
                        SCT025CB 09/06 Q1008 TEMPO 5000 SHRA
                        BKN018CB=
200804131020 METAR COR EGLL 131020Z 19007KT 150V240 9999 FEW018 SCT020CB
                        SCT027 10/07 Q1008 TEMPO 6000 SHRA
                        BKN015CB=
200804130950 METAR COR EGLL 130950Z 23013KT 9999 5000E -SHRA FEW014 BKN019CB
                        08/05 Q1008 RESHRA TEMPO 5000 SHRA
                        BKN018CB=
200804130920 METAR COR EGLL 130920Z 24009KT 200V260 9999 7000S VCSH FEW018
                        FEW023CB BKN024 10/05 Q1008 TEMPO
                        6000 SHRA BKN018CB=
200804130850 METAR COR EGLL 130850Z 22010KT 170V250 9999 FEW018 SCT030
                        10/06 Q1008 TEMPO 6000 SHRA BKN018CB=
200804130820 METAR COR EGLL 130820Z 23009KT 190V260 9999 FEW015 FEW020CB
                        10/06 Q1008 BECMG -SHRA SCT020CB=
200804130750 METAR COR EGLL 130750Z 21006KT 170V260 9999 FEW030 08/06
                        Q1008 BECMG -SHRA SCT025CB=
200804130720 METAR COR EGLL 130720Z 21006KT 180V240 9999 FEW035 07/06
                        Q1008 BECMG -SHRA SCT025CB=
200804130650 METAR COR EGLL 130650Z 22006KT 8000 FEW035 06/05 Q1008 NOSIG=
200804130620 METAR COR EGLL 130620Z 19006KT 7000 FEW035 05/04 Q1008 NOSIG=
200804130550 METAR COR EGLL 130550Z 20006KT 180V250 8000 FEW035 04/04
                        Q1007 NOSIG=
200804130520 METAR EGLL 130520Z 20006KT 160V270 9000 NSC 04/03 Q1007 NOSIG=
200804130450 METAR EGLL 130450Z 19005KT 8000 NSC 04/03 Q1007 NOSIG=
200804130420 METAR COR EGLL 130420Z 19004KT CAVOK 04/03 Q1007 NOSIG=
200804130350 METAR COR EGLL 130350Z 21004KT CAVOK 05/03 Q1007 NOSIG=
200804130320 METAR EGLL 130320Z 20004KT CAVOK 05/03 Q1007 NOSIG=
200804130250 METAR COR EGLL 130250Z 20005KT CAVOK 05/04 Q1007 NOSIG=
200804130220 METAR COR EGLL 130220Z 21005KT CAVOK 05/04 Q1007 NOSIG=
200804130150 METAR COR EGLL 130150Z 20005KT CAVOK 05/04 Q1007 NOSIG=
200804130120 METAR EGLL 130120Z AUTO 21005KT 9999NDV NCD 05/03 Q1007=
200804130050 METAR EGLL 130050Z AUTO 20005KT 9999NDV NCD 06/03 Q1008=
200804130020 METAR EGLL 130020Z AUTO 20004KT 9999NDV NCD 06/03 Q1008=
200804122350 METAR EGLL 122350Z 20003KT CAVOK 05/03 Q1008 NOSIG=
200804122320 METAR COR EGLL 122320Z 21004KT CAVOK 06/03 Q1008 NOSIG=
200804122250 METAR COR EGLL 122250Z 21004KT CAVOK 06/03 Q1007 NOSIG=
200804122220 METAR COR EGLL 122220Z 21004KT 9999 FEW046 06/04 Q1007 NOSIG=
200804122150 METAR COR EGLL 122150Z 21006KT 9999 FEW046 07/04 Q1007 NOSIG=
200804122120 METAR EGLL 122120Z 21006KT CAVOK 07/04 Q1007 NOSIG=
200804122050 METAR COR EGLL 122050Z 22007KT CAVOK 07/04 Q1007 NOSIG=
200804122020 METAR EGLL 122020Z 22007KT CAVOK 07/03 Q1007 NOSIG=
200804121950 METAR COR EGLL 121950Z 21008KT 170V240 9999 FEW030 08/03
                        Q1007 NOSIG=
200804121920 METAR EGLL 121920Z 22009KT 9999 FEW028 09/03 Q1006 NOSIG=
200804121850 METAR COR EGLL 121850Z 23011KT 9999 FEW030CB 10/03 Q1006
                        NOSIG=
200804121820 METAR EGLL 121820Z 25011KT 9999 FEW018 FEW021CB 10/04 Q1005
                        NOSIG=
200804121750 METAR COR EGLL 121750Z 23012KT 9999 FEW018CB 10/04 Q1005
                        NOSIG=
200804121720 METAR EGLL 121720Z 23011KT 200V260 9999 SCT018CB 10/04 Q1005
                        NOSIG=
200804121650 METAR COR EGLL 121650Z 25010KT 9999 SCT018CB 09/04 Q1005
                        TEMPO SHRA=
200804121620 METAR COR EGLL 121620Z 25012KT 9999 -SHRA SCT018CB SCT038
                        10/05 Q1005 TEMPO SHRA=
200804121550 METAR COR EGLL 121550Z 23009KT 9999 -SHRA FEW013 SCT020CB
                        10/05 Q1005 TEMPO SHRA=
200804121520 METAR COR EGLL 121520Z 23009KT 9999 VCSH SCT020CB SCT035
                        09/05 Q1005 RETS TEMPO TSRA=
200804121450 METAR COR EGLL 121450Z 24015KT 9999 8000SW -SHRA SCT025 SCT034CB
                        11/04 Q1005 TEMPO SHRA=
200804121420 METAR COR EGLL 121420Z 23015KT 9999 VCSH FEW019 SCT026CB
                        11/06 Q1004 NOSIG=
200804121350 METAR COR EGLL 121350Z 21011KT 190V250 9999 VCSH FEW017 SCT025CB
                        10/06 Q1005 TEMPO SHRA=
200804121320 METAR COR EGLL 121320Z 22016KT 9999 6000E -SHRA SCT040 SCT042CB
                        09/04 Q1004 TEMPO 4500 TSRA=
200804121250 METAR COR EGLL 121250Z 26014KT 9999 VCSH SCT042CB 12/02 Q1004
                        TEMPO SHRA=
200804121220 METAR COR EGLL 121220Z 25016KT 9999 VCSH FEW021 SCT036 12/03
                        Q1004 TEMPO SHRA=
200804121150 METAR COR EGLL 121150Z 28013KT 9999 VCSH FEW025CB SCT038
                        10/04 Q1004 TEMPO SHRA=
200804121120 METAR COR EGLL 121120Z 26013KT 9999 VCSH FEW031 SCT038 10/03
                        Q1004 NOSIG=
200804121050 METAR EGLL 121050Z 24018KT 9999 FEW039 SCT048 11/02 Q1004
                        NOSIG=
200804121020 METAR EGLL 121020Z 25015KT 9999 FEW033 SCT044 11/02 Q1004=
200804120950 METAR COR EGLL 120950Z 25013KT 9999 FEW025 SCT031 10/04 Q1004
                        NOSIG=
200804120920 METAR COR EGLL 120920Z 26016KT 9999 -SHRA SCT032 BKN037 10/03
                        Q1003 NOSIG=
200804120850 METAR COR EGLL 120850Z 27016KT 9999 FEW030 BKN041 10/02 Q1003
                        NOSIG=
200804120820 METAR COR EGLL 120820Z 25016KT 9999 FEW029 SCT034 09/02 Q1003
                        NOSIG=
200804120750 METAR EGLL 120750Z 25014KT 9999 FEW021 09/03 Q1003 NOSIG=
200804120720 METAR EGLL 120720Z 24014KT 9999 FEW023 08/03 Q1002=
200804120650 METAR EGLL 120650Z 22009KT 9999 SCT028 07/02 Q1002 NOSIG=
200804120620 METAR COR EGLL 120620Z 22009KT 9999 FEW032 SCT036 06/02 Q1002
                        NOSIG=
200804120550 METAR EGLL 120550Z 23011KT 9999 FEW040 06/02 Q1001 NOSIG=
200804120520 METAR EGLL 120520Z 23011KT CAVOK 06/02 Q1001 NOSIG=
200804120450 METAR EGLL 120450Z 24011KT CAVOK 06/02 Q1001 NOSIG=
200804120420 METAR COR EGLL 120420Z 24010KT CAVOK 07/02 Q1001 NOSIG=
200804120350 METAR COR EGLL 120350Z 25013KT 9999 FEW025 07/02 Q1000 NOSIG=
200804120320 METAR COR EGLL 120320Z 25013KT 9999 SCT027 07/03 Q1000 NOSIG=
200804120250 METAR COR EGLL 120250Z 25013KT CAVOK 08/03 Q1000 NOSIG=
200804120220 METAR EGLL 120220Z 25014KT CAVOK 08/03 Q1000=
200804120150 METAR EGLL 120150Z AUTO 25015KT 9999NDV FEW026/// SCT038///
                        08/04 Q0999=
200804120120 METAR EGLL 120120Z AUTO 23016KT 9999NDV SCT023/// BKN029///
                        08/04 Q0999=
200804120050 METAR EGLL 120050Z AUTO 22013KT 9999NDV SCT024/// 08/04 Q0999=
200804120020 METAR EGLL 120020Z AUTO 22015KT 9999NDV FEW023/// SCT028///
                        08/04 Q0999=
200804112350 METAR COR EGLL 112350Z 21013KT 9999 -SHRA SCT024 08/05 Q0999
                        TEMPO SHRA=
200804112320 METAR COR EGLL 112320Z 21012KT 9999 -DZ FEW045 08/04 Q0999
                        TEMPO SHRA=
200804112250 METAR COR EGLL 112250Z 22012KT CAVOK 08/03 Q1000 TEMPO SHRA=
200804112220 METAR EGLL 112220Z 21011KT CAVOK 09/04 Q1000=
200804112150 METAR EGLL 112150Z 21010KT CAVOK 09/04 Q1000 NOSIG=
200804112120 METAR COR EGLL 112120Z 21011KT CAVOK 09/03 Q1000 NOSIG=
200804112050 METAR EGLL 112050Z 20010KT CAVOK 09/01 Q1000 NOSIG=
200804112020 METAR COR EGLL 112020Z 22008KT CAVOK 08/01 Q1000 NOSIG=
200804111950 METAR COR EGLL 111950Z 24010KT CAVOK 10/01 Q1000 NOSIG=
200804111920 METAR COR EGLL 111920Z 25011KT CAVOK 10/00 Q1000 NOSIG=
200804111850 METAR COR EGLL 111850Z 25013KT CAVOK 09/M00 Q0999 NOSIG=
200804111820 METAR COR EGLL 111820Z 26016KT 9999 FEW048 10/M02 Q0999 NOSIG=
200804111750 METAR COR EGLL 111750Z 26019KT 9999 FEW048 11/M01 Q0999 NOSIG=
200804111720 METAR EGLL 111720Z 26019KT 9999 FEW048 11/M00 Q0998=
200804111650 METAR COR EGLL 111650Z 25018KT 9999 FEW046 SCT048 11/M00
                        Q0998 NOSIG=
200804111620 METAR COR EGLL 111620Z 26017KT 9999 SCT045 12/01 Q0998 NOSIG=
200804111550 METAR COR EGLL 111550Z 25021KT 9999 SCT044 12/01 Q0997 TEMPO
                        25020G30KT=
200804111520 METAR COR EGLL 111520Z 26022KT 9999 SCT046 12/01 Q0997 TEMPO
                        24022G32KT=
200804111450 METAR EGLL 111450Z 26022KT 9999 SCT046 12/01 Q0996=
200804111420 METAR COR EGLL 111420Z 25021KT 9999 FEW036 SCT045 12/02 Q0996
                        TEMPO 25020G30KT=
200804111350 METAR COR EGLL 111350Z 25020KT 9999 SCT022CB SCT033 11/04
                        Q0996 TEMPO 24020G30KT=
200804111320 METAR EGLL 111320Z 26017KT 9999 SCT022CB 09/05 Q0996 TEMPO
                        24020G30KT=
200804111250 METAR COR EGLL 111250Z 23013KT 9999 SCT022CB 09/05 Q0996
                        NOSIG=
200804111220 METAR COR EGLL 111220Z 23019KT 9999 8000SW VCSH FEW014 SCT021CB
                        SCT040 08/03 Q0995 NOSIG=
200804111150 METAR COR EGLL 111150Z 23018G30KT 9999 8000NE VCTS FEW014
                        SCT021CB 06/02 Q0995 RETS RESHGS
                        TEMPO 4500 TSGS BKN014CB=
200804111120 METAR EGLL 111120Z 20016KT 9999 8000SW VCTS SCT029CB SCT041
                        12/04 Q0994 TEMPO 4000 +TSRA BKN015CB=
200804111050 METAR COR EGLL 111050Z 19018KT 9999 FEW029 FEW035CB SCT040
                        12/04 Q0995 TEMPO 21020G30KT 4000
                        TSRAGS BKN014CB=
200804111020 METAR COR EGLL 111020Z 20016G26KT 170V240 9999 FEW034 FEW035CB
                        11/04 Q0995 TEMPO 20022G36KT 4000
                        TSRAGS BKN015CB=
200804110950 METAR COR EGLL 110950Z 21013G24KT 170V240 9999 FEW038 SCT044
                        11/02 Q0996 TEMPO 23020G34KT SHRAGS
                        BKN020CB=
200804110920 METAR EGLL 110920Z 21013KT 180V240 9999 FEW028 SCT035 10/03
                        Q0996 NOSIG=
200804110850 METAR COR EGLL 110850Z 22013KT 9999 SCT022 10/03 Q0996 NOSIG=
200804110820 METAR COR EGLL 110820Z 22013KT 9999 SCT020 09/04 Q0996 NOSIG=
200804110750 METAR COR EGLL 110750Z 21013G23KT 9999 FEW019 08/04 Q0996
                        NOSIG=
200804110720 METAR COR EGLL 110720Z 19010KT 9999 FEW027 07/04 Q0996 NOSIG=
200804110650 METAR COR EGLL 110650Z 17008KT 9999 FEW028 06/04 Q0996 NOSIG=
200804110620 METAR EGLL 110620Z 18007KT 150V240 CAVOK 05/03 Q0996 NOSIG=
200804110550 METAR COR EGLL 110550Z 17006KT 150V210 CAVOK 04/03 Q0997
                        NOSIG=
200804110520 METAR EGLL 110520Z 17006KT 110V240 9000 NSC 04/03 Q0997 NOSIG=
200804110450 METAR EGLL 110450Z 17005KT CAVOK 04/03 Q0997 NOSIG=
200804110420 METAR EGLL 110420Z 18006KT 9999 FEW028 05/03 Q0997 NOSIG=
200804110350 METAR EGLL 110350Z 18006KT 9999 FEW037 05/04 Q0997 NOSIG=
200804110320 METAR EGLL 110320Z 19006KT CAVOK 05/03 Q0997 NOSIG=
200804110250 METAR EGLL 110250Z 19006KT 9999 FEW030 06/03 Q0997 NOSIG=
200804110220 METAR COR EGLL 110220Z 20007KT 9999 FEW030 SCT043 06/03 Q0997
                        NOSIG=
200804110150 METAR COR EGLL 110150Z 19006KT 9999 FEW023 06/03 Q0997 NOSIG=
200804110120 METAR EGLL 110120Z AUTO 21004KT 9999NDV -RA SCT024/// 06/03
                        Q0997=
200804110050 METAR EGLL 110050Z AUTO 18005KT 9999NDV FEW022/// 05/02 Q0997=
200804110020 METAR EGLL 110020Z AUTO 17005KT 9999NDV NCD 05/02 Q0997=
200804102350 METAR EGLL 102350Z 18006KT 9999 FEW033 05/02 Q0997 NOSIG=
200804102320 METAR EGLL 102320Z 20006KT CAVOK 05/02 Q0997 NOSIG=
200804102250 METAR COR EGLL 102250Z 20005KT CAVOK 05/02 Q0998 NOSIG=
200804102220 METAR EGLL 102220Z 21007KT CAVOK 06/02 Q0998 NOSIG=
200804102150 METAR COR EGLL 102150Z 21006KT 190V250 CAVOK 06/02 Q0998
                        NOSIG=
200804102120 METAR EGLL 102120Z 19008KT 160V220 CAVOK 07/01 Q0998 NOSIG=
200804102050 METAR EGLL 102050Z 19008KT 160V220 CAVOK 07/01 Q0998 NOSIG=
200804102020 METAR EGLL 102020Z 18008KT CAVOK 07/00 Q0998 NOSIG=
200804101950 METAR COR EGLL 101950Z 19009KT CAVOK 08/00 Q0998 NOSIG=
200804101920 METAR COR EGLL 101920Z 19009KT 160V230 CAVOK 09/00 Q0997
                        NOSIG=
200804101850 METAR COR EGLL 101850Z 20008KT 180V280 CAVOK 10/01 Q0997
                        NOSIG=
200804101820 METAR COR EGLL 101820Z 22010KT 190V250 CAVOK 10/01 Q0997
                        NOSIG=
200804101750 METAR COR EGLL 101750Z 20011KT 100V230 9999 FEW044 10/00
                        Q0997 NOSIG=
200804101720 METAR COR EGLL 101720Z 19010KT 170V240 9999 FEW045 11/01
                        Q0997 NOSIG=
200804101650 METAR COR EGLL 101650Z 19010KT 170V240 9999 FEW045 11/02
                        Q0997 NOSIG=
200804101620 METAR EGLL 101620Z 19011KT 9999 FEW045 11/02 Q0997=
200804101550 METAR COR EGLL 101550Z 20010KT 9999 FEW045 12/02 Q0997 NOSIG=
200804101520 METAR COR EGLL 101520Z 21011KT 9999 FEW045 11/01 Q0997 NOSIG=
200804101450 METAR EGLL 101450Z 22008KT 180V240 CAVOK 12/M01 Q0997 NOSIG=
200804101420 METAR EGLL 101420Z 22009KT 180V240 CAVOK 12/M01 Q0997 NOSIG=
200804101350 METAR COR EGLL 101350Z 21009G20KT 160V250 CAVOK 12/M01 Q0998
                        NOSIG=
200804101320 METAR EGLL 101320Z 23007KT 170V290 CAVOK 12/M02 Q0998=
200804101250 METAR EGLL 101250Z 27007KT 220V320 CAVOK 13/M01 Q0998=
200804101220 METAR EGLL 101220Z 24010KT 9999 FEW048 11/M02 Q0998=
200804101150 METAR COR EGLL 101150Z 25009KT 200V280 9999 FEW042 SCT048
                        11/M01 Q0998 NOSIG=
200804101120 METAR EGLL 101120Z 24007KT 190V270 9999 SCT042 SCT048 12/01
                        Q0998 NOSIG=
200804101050 METAR COR EGLL 101050Z 20008KT 160V250 9999 SCT034 12/01
                        Q0999 NOSIG=
200804101020 METAR COR EGLL 101020Z 27008KT 9999 SCT032 11/02 Q0999 NOSIG=
200804100950 METAR COR EGLL 100950Z 18005KT 110V270 9999 SCT028 10/03
                        Q0999 NOSIG=
200804100920 METAR COR EGLL 100920Z 20006KT 160V340 9999 FEW024 09/03
                        Q0999 NOSIG=
200804100850 METAR COR EGLL 100850Z VRB04KT CAVOK 09/03 Q0999 NOSIG=
200804100820 METAR COR EGLL 100820Z 21004KT 140V260 9000 NSC 07/03 Q0999
                        NOSIG=
200804100750 METAR EGLL 100750Z VRB03KT 9000 NSC 06/02 Q0999 NOSIG=
200804100720 METAR EGLL 100720Z 27003KT 9000 NSC 05/02 Q0999 NOSIG=
200804100650 METAR COR EGLL 100650Z VRB02KT 9000 NSC 04/02 Q0999 NOSIG=
200804100620 METAR COR EGLL 100620Z 00000KT 9000 NSC 03/01 Q0999 NOSIG=
200804100550 METAR COR EGLL 100550Z 28003KT 9000 NSC 02/M00 Q0999 NOSIG=
200804100520 METAR COR EGLL 100520Z 26004KT 200V280 9000 NSC 02/M00 Q0999
                        NOSIG=
200804100450 METAR EGLL 100450Z 18003KT CAVOK 02/M00 Q0999 NOSIG=
200804100420 METAR COR EGLL 100420Z 19004KT CAVOK 02/M00 Q0999 NOSIG=
200804100350 METAR EGLL 100350Z 27003KT CAVOK 03/M00 Q0999 NOSIG=
200804100320 METAR COR EGLL 100320Z 27003KT CAVOK 03/M00 Q0999 NOSIG=
200804100250 METAR COR EGLL 100250Z 29003KT CAVOK 03/M00 Q0999 NOSIG=
200804100220 METAR COR EGLL 100220Z 27003KT CAVOK 03/M00 Q0999 NOSIG=
200804100150 METAR COR EGLL 100150Z 27003KT CAVOK 03/00 Q1000 NOSIG=
200804100120 METAR EGLL 100120Z AUTO VRB02KT 9999NDV NCD 04/00 Q1000=
200804100050 METAR EGLL 100050Z AUTO 18002KT 9999NDV NCD 04/00 Q1000=
200804100020 METAR EGLL 100020Z AUTO 00000KT 9999NDV NCD 04/00 Q1000=
200804092350 METAR EGLL 092350Z NIL=
200804092320 METAR COR EGLL 092320Z 27005KT CAVOK 05/00 Q1000 NOSIG=
200804092250 METAR COR EGLL 092250Z 28002KT CAVOK 06/00 Q1000 NOSIG=
200804092220 METAR COR EGLL 092220Z 31003KT CAVOK 07/00 Q1000 NOSIG=
200804092150 METAR COR EGLL 092150Z 29005KT CAVOK 08/00 Q0999 NOSIG=
200804092120 METAR COR EGLL 092120Z 28005KT CAVOK 09/00 Q0999 NOSIG=
200804092050 METAR COR EGLL 092050Z 30003KT CAVOK 08/M00 Q0999 NOSIG=
200804092020 METAR COR EGLL 092020Z 29003KT CAVOK 09/M01 Q0999 NOSIG=
200804091950 METAR COR EGLL 091950Z 30004KT CAVOK 09/M01 Q0999 NOSIG=
200804091920 METAR EGLL 091920Z 32004KT 290V350 CAVOK 10/M01 Q0999 NOSIG=
200804091850 METAR COR EGLL 091850Z 31004KT CAVOK 10/M01 Q0998 NOSIG=
200804091820 METAR COR EGLL 091820Z 31005KT 280V360 CAVOK 10/M01 Q0998
                        NOSIG=
200804091750 METAR EGLL 091750Z 29005KT CAVOK 11/M02 Q0998 NOSIG=
200804091720 METAR EGLL 091720Z 30008KT CAVOK 11/M02 Q0998 NOSIG=
200804091650 METAR EGLL 091650Z 28005KT CAVOK 11/M05 Q0998 NOSIG=
200804091620 METAR COR EGLL 091620Z 28008KT CAVOK 11/M04 Q0998 NOSIG=
200804091550 METAR EGLL 091550Z 26008KT 220V280 CAVOK 11/M04 Q0998 NOSIG=
200804091520 METAR COR EGLL 091520Z 26007KT CAVOK 11/M04 Q0998 NOSIG=
200804091450 METAR EGLL 091450Z 27005KT 210V350 CAVOK 11/M04 Q0998 NOSIG=
200804091420 METAR EGLL 091420Z 27007KT 220V300 CAVOK 12/M04 Q0998 NOSIG=
200804091350 METAR COR EGLL 091350Z 27006KT 230V340 CAVOK 12/M04 Q0998
                        NOSIG=
200804091320 METAR COR EGLL 091320Z 25008KT 190V290 CAVOK 12/M03 Q0998
                        NOSIG=
200804091250 METAR COR EGLL 091250Z 29004KT 200V350 CAVOK 11/M03 Q0999
                        NOSIG=
200804091220 METAR COR EGLL 091220Z VRB06G17KT CAVOK 11/M03 Q0999 NOSIG=
200804091150 METAR COR EGLL 091150Z 27005KT 190V360 9999 SCT044 11/M04
                        Q0999 NOSIG=
200804091120 METAR EGLL 091120Z 29005KT 250V360 9999 SCT044 10/M02 Q0999
                        NOSIG=
200804091050 METAR COR EGLL 091050Z 30006KT 240V340 9999 FEW038 10/M02
                        Q0999 NOSIG=
200804091020 METAR EGLL 091020Z 27006KT 210V300 9999 FEW036 09/M00 Q1000
                        NOSIG=
200804090950 METAR EGLL 090950Z 27006KT 240V330 9999 FEW020 09/01 Q1000
                        NOSIG=
200804090920 METAR COR EGLL 090920Z 30004KT 250V350 9999 FEW020 08/01
                        Q1000 NOSIG=
200804090850 METAR EGLL 090850Z 29004KT 240V320 CAVOK 07/01 Q1000 NOSIG=
200804090820 METAR COR EGLL 090820Z 31004KT 280V010 CAVOK 06/02 Q1000
                        NOSIG=
200804090750 METAR EGLL 090750Z 30004KT 270V350 8000 NSC 05/01 Q1000 NOSIG=
200804090720 METAR COR EGLL 090720Z 30003KT 8000 NSC 04/01 Q1000 NOSIG=
200804090650 METAR COR EGLL 090650Z VRB03KT 8000 NSC 03/00 Q1000 NOSIG=
200804090620 METAR COR EGLL 090620Z 29003KT 8000 NSC 02/00 Q1000 NOSIG=
200804090550 METAR EGLL 090550Z 32002KT 9000 R27L/1300 NSC 02/00 Q1001
                        NOSIG=
200804090520 METAR COR EGLL 090520Z 28002KT 9000 NSC 00/M02 Q1001 NOSIG=
200804090450 METAR EGLL 090450Z VRB02KT CAVOK 00/M01 Q1001 NOSIG=
200804090420 METAR COR EGLL 090420Z VRB02KT CAVOK 01/M01 Q1001 NOSIG=
200804090350 METAR EGLL 090350Z 00000KT CAVOK 01/M01 Q1001 NOSIG=
200804090320 METAR COR EGLL 090320Z VRB02KT CAVOK 02/M01 Q1001 NOSIG=
200804090250 METAR COR EGLL 090250Z VRB02KT CAVOK 02/M01 Q1001 NOSIG=
200804090220 METAR EGLL 090220Z 27004KT CAVOK 02/M01 Q1001=
200804090150 METAR EGLL 090150Z 00000KT CAVOK 02/M01 Q1002 NOSIG=
200804090120 METAR EGLL 090120Z AUTO VRB03KT 9999NDV NCD 03/M01 Q1002=
200804090050 METAR EGLL 090050Z AUTO 21004KT 9999NDV NCD 03/M01 Q1002=
200804090020 METAR EGLL 090020Z AUTO 20004KT 9999NDV NCD 03/M01 Q1002=
200804082350 METAR COR EGLL 082350Z 20002KT CAVOK 03/M01 Q1002 NOSIG=
200804082320 METAR COR EGLL 082320Z 18004KT CAVOK 03/M02 Q1002 NOSIG=
200804082250 METAR COR EGLL 082250Z 20004KT CAVOK 04/M02 Q1003 NOSIG=
200804082220 METAR COR EGLL 082220Z 27003KT CAVOK 05/M02 Q1003 NOSIG=
200804082150 METAR COR EGLL 082150Z 25006KT CAVOK 06/M02 Q1003 NOSIG=
200804082120 METAR EGLL 082120Z 21007KT CAVOK 06/M02 Q1003 NOSIG=
200804082050 METAR EGLL 082050Z 21008KT 180V260 CAVOK 06/M02 Q1003 NOSIG=
200804082020 METAR COR EGLL 082020Z 21008KT 190V260 CAVOK 06/M02 Q1003
                        NOSIG=
200804081950 METAR EGLL 081950Z 21007KT 180V260 CAVOK 07/M02 Q1003 NOSIG=
200804081920 METAR EGLL 081920Z 20005KT 170V270 CAVOK 07/M01 Q1003 NOSIG=
200804081850 METAR EGLL 081850Z 22007KT 180V240 CAVOK 08/M01 Q1002 NOSIG=
200804081820 METAR EGLL 081820Z 23009KT 200V260 9999 VCSH NSC 09/M02 Q1002
                        NOSIG=
200804081750 METAR COR EGLL 081750Z 21008KT 190V250 CAVOK 09/M02 Q1002
                        NOSIG=
200804081720 METAR COR EGLL 081720Z 22010KT CAVOK 10/M03 Q1002 NOSIG=
200804081650 METAR COR EGLL 081650Z 21006KT 160V240 CAVOK 10/M03 Q1002
                        NOSIG=
200804081620 METAR COR EGLL 081620Z 22008KT 9999 FEW026 10/M03 Q1002 NOSIG=
200804081550 METAR EGLL 081550Z 20008KT 170V230 9999 FEW030CB 10/M03 Q1002
                        NOSIG=
200804081520 METAR COR EGLL 081520Z 21008KT 150V250 9999 FEW030CB 11/M03
                        Q1003 NOSIG=
200804081450 METAR COR EGLL 081450Z 25008KT 230V290 9999 FEW048 10/M03
                        Q1003 NOSIG=
200804081420 METAR COR EGLL 081420Z 21008KT 170V260 9999 FEW035 10/M02
                        Q1003 TEMPO SHRA=
200804081350 METAR EGLL 081350Z 23006KT 130V290 9999 FEW035 10/M02 Q1003
                        NOSIG=
200804081320 METAR EGLL 081320Z 20008KT 160V250 9999 FEW035 09/M03 Q1003
                        NOSIG=
200804081250 METAR COR EGLL 081250Z 21007KT 150V260 9999 FEW040 09/M03
                        Q1003 NOSIG=
200804081220 METAR COR EGLL 081220Z 24007KT 170V320 9999 FEW043 10/M02
                        Q1003 NOSIG=
200804081150 METAR COR EGLL 081150Z VRB07KT 9999 FEW040 10/M01 Q1004 NOSIG=
200804081120 METAR COR EGLL 081120Z VRB05KT 9999 FEW028 08/M01 Q1004 NOSIG=
200804081050 METAR COR EGLL 081050Z 26005KT 210V320 9999 FEW028 SCT048
                        08/00 Q1004 NOSIG=
200804081020 METAR COR EGLL 081020Z 27005KT 230V320 9999 FEW028 SCT040
                        08/01 Q1004 NOSIG=
200804080950 METAR COR EGLL 080950Z 21005KT 160V260 9999 FEW025 SCT028
                        08/01 Q1004 NOSIG=
200804080920 METAR EGLL 080920Z 23006KT 180V290 9999 FEW022 07/01 Q1004
                        NOSIG=
200804080850 METAR EGLL 080850Z 25006KT 180V290 9999 FEW016 06/01 Q1004
                        NOSIG=
200804080820 METAR COR EGLL 080820Z 27004KT CAVOK 05/01 Q1004 NOSIG=
200804080750 METAR COR EGLL 080750Z 27004KT 170V310 CAVOK 04/01 Q1004
                        NOSIG=
200804080720 METAR COR EGLL 080720Z 22006KT 9000 NSC 03/00 Q1004 NOSIG=
200804080650 METAR COR EGLL 080650Z 23005KT 200V260 8000 NSC 02/00 Q1004
                        NOSIG=
200804080620 METAR COR EGLL 080620Z 20004KT 170V240 8000 NSC 00/M01 Q1004
                        NOSIG=
200804080550 METAR COR EGLL 080550Z 18006KT 8000 R27L/1300 NSC M01/M02
                        Q1004 NOSIG=
200804080520 METAR COR EGLL 080520Z 00000KT 9000 NSC M00/M02 Q1004 NOSIG=
200804080450 METAR EGLL 080450Z 19003KT CAVOK M00/M02 Q1004 NOSIG=
200804080420 METAR COR EGLL 080420Z 20003KT CAVOK 00/M01 Q1004 NOSIG=
200804080350 METAR EGLL 080350Z 20003KT CAVOK 01/M01 Q1004 NOSIG=
200804080320 METAR EGLL 080320Z 27004KT CAVOK 00/M01 Q1004 NOSIG=
200804080250 METAR EGLL 080250Z 23004KT CAVOK 01/M01 Q1004 NOSIG=
200804080220 METAR COR EGLL 080220Z 19002KT CAVOK 01/M01 Q1004 NOSIG=
200804080150 METAR EGLL 080150Z 17005KT CAVOK 01/M01 Q1004=
200804080120 METAR EGLL 080120Z AUTO 20002KT 9999NDV NCD 01/M01 Q1004=
200804080050 METAR EGLL 080050Z AUTO 18004KT 9999NDV NCD 01/M01 Q1004=
200804080020 METAR EGLL 080020Z AUTO 20004KT 9999NDV NCD 02/M01 Q1004=
200804072350 METAR COR EGLL 072350Z 24004KT CAVOK 02/M01 Q1004 NOSIG=
200804072320 METAR COR EGLL 072320Z 26004KT CAVOK 02/M01 Q1004 NOSIG=
200804072250 METAR COR EGLL 072250Z 23005KT CAVOK 03/M01 Q1004 NOSIG=
200804072220 METAR COR EGLL 072220Z 21005KT CAVOK 03/M01 Q1004 NOSIG=
200804072150 METAR COR EGLL 072150Z 23006KT CAVOK 04/M01 Q1004 NOSIG=
200804072120 METAR COR EGLL 072120Z 23008KT CAVOK 05/M01 Q1004 NOSIG=
200804072050 METAR EGLL 072050Z 21007KT CAVOK 04/M01 Q1004 NOSIG=
200804072020 METAR EGLL 072020Z 22007KT 200V260 CAVOK 05/M01 Q1004 NOSIG=
200804071950 METAR COR EGLL 071950Z 23008KT CAVOK 06/M01 Q1004 NOSIG=
200804071920 METAR COR EGLL 071920Z 23008KT CAVOK 06/M01 Q1003 NOSIG=
200804071850 METAR COR EGLL 071850Z 22010KT CAVOK 07/M01 Q1003 NOSIG=
200804071820 METAR EGLL 071820Z 23010KT 9999 FEW024 07/M01 Q1003 NOSIG=
200804071750 METAR EGLL 071750Z 25011KT 9999 FEW030 07/M02 Q1003 NOSIG=
200804071720 METAR EGLL 071720Z 22009KT 9999 FEW023CB 07/M01 Q1003 NOSIG=
200804071650 METAR COR EGLL 071650Z 23016KT 9999 VCSH FEW020CB 07/M01
                        Q1003 NOSIG=
200804071620 METAR COR EGLL 071620Z 22009KT 9999 VCSH FEW035CB 08/M02
                        Q1003 TEMPO SHRA=
200804071550 METAR COR EGLL 071550Z 24008KT 200V280 9999 FEW049 09/M04
                        Q1003 TEMPO SHRA SCT030CB=
200804071520 METAR COR EGLL 071520Z 30008KT 260V340 9999 FEW035CB 09/M03
                        Q1003 TEMPO SHRA=
200804071450 METAR EGLL 071450Z 26010KT 9999 FEW045 09/M04 Q1003 TEMPO
                        FEW025CB=
200804071420 METAR COR EGLL 071420Z 28009KT 230V310 9999 FEW044 08/M02
                        Q1003 TEMPO FEW025CB=
200804071350 METAR COR EGLL 071350Z 27011KT 9999 FEW048 08/M03 Q1003 TEMPO
                        SHRA=
200804071320 METAR COR EGLL 071320Z 27011KT CAVOK 08/M01 Q1003 TEMPO SHRA
                        SCT020CB=
200804071250 METAR COR EGLL 071250Z 27012KT 9999 SCT035 08/M02 Q1003 NOSIG=
200804071220 METAR COR EGLL 071220Z 30008KT 280V350 9999 FEW030 SCT037
                        07/M01 Q1003 NOSIG=
200804071150 METAR COR EGLL 071150Z 28010KT 9999 SCT028 BKN048 07/00 Q1003
                        NOSIG=
200804071120 METAR COR EGLL 071120Z 28010KT 260V330 9999 FEW029 06/M00
                        Q1003 NOSIG=
200804071050 METAR EGLL 071050Z 29009KT 270V330 9999 FEW023 07/00 Q1003
                        NOSIG=
200804071020 METAR COR EGLL 071020Z 29009KT 9999 BKN019 06/00 Q1003 NOSIG=
200804070950 METAR EGLL 070950Z 30008KT 270V340 9999 FEW016 05/01 Q1003
                        NOSIG=
200804070920 METAR COR EGLL 070920Z 29008KT 9999 FEW018 04/00 Q1003 NOSIG=
200804070850 METAR COR EGLL 070850Z 28010KT 9999 FEW016 04/00 Q1003 NOSIG=
200804070820 METAR COR EGLL 070820Z 28009KT 9999 FEW020 BKN049 04/M00
                        Q1003 NOSIG=
200804070750 METAR EGLL 070750Z 29008KT 9999 FEW020 BKN042 03/M00 Q1003=
200804070720 METAR COR EGLL 070720Z 29008KT 9999 VCSH FEW033 BKN043 02/M01
                        Q1003 NOSIG=
200804070650 METAR COR EGLL 070650Z 28008KT 9999 SCT021 BKN044 02/M01
                        Q1003 NOSIG=
200804070620 METAR COR EGLL 070620Z 28010KT 9999 FEW027 BKN047 02/M01
                        Q1002 NOSIG=
200804070550 METAR COR EGLL 070550Z 28010KT 9999 BKN030 01/M01 Q1002 NOSIG=
200804070520 METAR COR EGLL 070520Z 28009KT 9999 BKN026 01/M01 Q1002 NOSIG=
200804070450 METAR COR EGLL 070450Z 27009KT CAVOK 01/M01 Q1002 NOSIG=
200804070420 METAR COR EGLL 070420Z 27008KT CAVOK 00/M01 Q1002 NOSIG=
200804070350 METAR EGLL 070350Z 27009KT 9999 FEW033 00/M02 Q1002 NOSIG=
200804070320 METAR COR EGLL 070320Z 27008KT 9999 FEW036 00/M02 Q1002 NOSIG=
200804070250 METAR COR EGLL 070250Z 27007KT CAVOK 00/M01 Q1002 NOSIG=
200804070220 METAR COR EGLL 070220Z 27009KT CAVOK 00/M01 Q1002 NOSIG=
200804070150 METAR EGLL 070150Z 28009KT CAVOK 00/M01 Q1002=
200804070120 METAR EGLL 070120Z AUTO 27007KT 9999NDV FEW044/// 01/M01
                        Q1002=
200804070050 METAR EGLL 070050Z AUTO 29005KT 9999NDV FEW016/// 01/M01
                        Q1002=
200804070020 METAR EGLL 070020Z AUTO 31007KT 9999NDV -SN FEW013/// 01/M00
                        Q1002=
200804062350 METAR EGLL 062350Z 31009KT 9999 SCT013 02/M01 Q1003=
200804062320 METAR COR EGLL 062320Z 31008KT 290V350 9999 SCT015 BKN040
                        02/M01 Q1003 TEMPO -SN BKN012=
200804062250 METAR COR EGLL 062250Z 32009KT 290V350 9999 FEW014 BKN016
                        02/M01 Q1003 TEMPO -SN BKN014=
200804062220 METAR EGLL 062220Z 30009KT 9999 FEW014 SCT035 02/M01 Q1003=
200804062150 METAR COR EGLL 062150Z 30006KT 9999 FEW020 SCT030 02/M02
                        Q1003 TEMPO 4500 -SN BKN010=
200804062120 METAR COR EGLL 062120Z 29006KT CAVOK 02/M02 Q1003 NOSIG=
200804062050 METAR COR EGLL 062050Z 29005KT CAVOK 03/M03 Q1003 NOSIG=
200804062020 METAR COR EGLL 062020Z 29006KT CAVOK 03/M03 Q1003 NOSIG=
200804061950 METAR COR EGLL 061950Z 29007KT CAVOK 03/M03 Q1003 NOSIG=
200804061920 METAR COR EGLL 061920Z 30006KT CAVOK 03/M05 Q1003 NOSIG=
200804061850 METAR COR EGLL 061850Z 31007KT CAVOK 04/M06 Q1003 NOSIG=
200804061820 METAR COR EGLL 061820Z 33007KT CAVOK 04/M05 Q1003 TEMPO SCT030CB=
200804061750 METAR COR EGLL 061750Z 34006KT 290V020 CAVOK 05/M09 Q1003
                        TEMPO SCT035CB=
200804061720 METAR EGLL 061720Z 33009KT 300V360 CAVOK 05/M09 Q1003=
200804061650 METAR COR EGLL 061650Z 34008KT 300V010 CAVOK 06/M09 Q1003
                        TEMPO SCT030CB=
200804061620 METAR COR EGLL 061620Z 35008KT 290V020 9999 VCSH NSC 06/M08
                        Q1003 TEMPO SCT035CB=
200804061550 METAR EGLL 061550Z 34008KT 290V030 9999 VCSH FEW030 06/M07
                        Q1003=
200804061520 METAR EGLL 061520Z 35006KT 310V030 9999 VCSH FEW015 SCT043
                        04/M06 Q1004 TEMPO SHSN SCT025CB=
200804061450 METAR COR EGLL 061450Z 34005KT 280V040 9999 5000S VCSH FEW013
                        03/M03 Q1004 RESN TEMPO 3000 SNSH
                        BKN018CB=
200804061420 METAR COR EGLL 061420Z 03006KT 340V060 9999 2000SE FEW012
                        04/M03 Q1005 TEMPO SNSH BKN020CB=
200804061350 METAR COR EGLL 061350Z 33010KT 310V010 9999 8000W VCSH FEW036
                        04/M04 Q1005 TEMPO 5000 SHRASN SCT025CB=
200804061320 METAR COR EGLL 061320Z 34009KT 290V020 9999 SCT034 04/M03
                        Q1005 TEMPO SCT025CB=
200804061250 METAR EGLL 061250Z 34007KT 300V030 9999 FEW028 SCT032 04/M03
                        Q1005 TEMPO SCT025CB=
200804061220 METAR COR EGLL 061220Z 34007KT 290V020 9999 FEW020 SCT030
                        04/M01 Q1006 88CLRD95 TEMPO SCT025CB=
200804061150 METAR COR EGLL 061150Z 36007KT 340V040 9999 FEW016 SCT022
                        03/M01 Q1006 882///95 NOSIG=
200804061120 METAR COR EGLL 061120Z 03007KT 9999 BKN022 02/M01 Q1006 882///95
                        NOSIG=
200804061050 METAR COR EGLL 061050Z 36008KT 9999 VCSH FEW022 SCT029 BKN035
                        01/M00 Q1007 NOSIG=
200804061020 METAR COR EGLL 061020Z 35005KT 320V020 3900 VCSH SCT009 SCT034
                        01/M00 Q1007 992///95 BECMG 9999=
200804060950 METAR EGLL 060950Z 35005KT 320V030 8000 FEW008 SCT025 01/M00
                        Q1007 092///95=
200804060920 METAR COR EGLL 060920Z 36005KT 320V050 4000 HZ SCT008 BKN025
                        00/M00 Q1007 092///95 TEMPO BKN010=
200804060850 METAR COR EGLL 060850Z 35005KT 310V030 2500 -SN BKN007 BKN012
                        01/M00 Q1007 TEMPO 1400 SN BKN003=
200804060820 METAR COR EGLL 060820Z 36005KT 2100 -SN FEW006 OVC010 00/M00
                        Q1008 BECMG 5000 -SN SCT012 BKN050=
200804060750 METAR COR EGLL 060750Z 36004KT 330V030 1000 R09L/P1500 R09R/P1500
                        - SN FEW006 OVC010 00/M00 Q1008 RESN
                        TEMPO 0500 SN VV///=
200804060720 METAR COR EGLL 060720Z 34004KT 290V010 0900 R09L/1200 SN
                        VV/// 00/M00 Q1008 TEMPO 1800 SN
                        BKN003=
200804060650 METAR COR EGLL 060650Z 36006KT 310V030 0500 R09L/1000 SN
                        VV/// 00/M00 Q1008 TEMPO 0300 +SN
                        VV///=
200804060620 METAR COR EGLL 060620Z 36006KT 330V040 0500 R09L/0800 R09R/0750
                        SN VV/// 00/M01 Q1008 TEMPO 2000
                        -SN BKN003=
200804060550 METAR EGLL 060550Z 01004KT 300V070 2500 -SN BKN007 BKN011
                        01/M00 Q1008 TEMPO 0500 SN VV///=
200804060520 METAR EGLL 060520Z 06004KT 010V100 7000 -RASN FEW009 SCT012
                        BKN026 02/M00 Q1008=
200804060450 METAR COR EGLL 060450Z VRB03KT 9000 -RA FEW033 02/M00 Q1008
                        BECMG 4500 RASN BKN014=
200804060420 METAR COR EGLL 060420Z 29003KT CAVOK 02/00 Q1009 NOSIG=
200804060350 METAR COR EGLL 060350Z 30003KT CAVOK 02/00 Q1009 NOSIG=
200804060320 METAR COR EGLL 060320Z VRB02KT CAVOK 01/00 Q1009 NOSIG=
200804060250 METAR EGLL 060250Z 32004KT 280V350 CAVOK 02/00 Q1010=
200804060220 METAR COR EGLL 060220Z 32004KT CAVOK 02/00 Q1010 NOSIG=
200804060150 METAR COR EGLL 060150Z 31004KT CAVOK 02/01 Q1011 NOSIG=
200804060120 METAR EGLL 060120Z AUTO 32004KT 290V350 9999NDV NCD 02/01
                        Q1011=
200804060050 METAR EGLL 060050Z AUTO 28004KT 9999NDV NCD 03/01 Q1011=
200804060020 METAR EGLL 060020Z AUTO 29004KT 9999NDV NCD 03/01 Q1012=
200804052350 METAR COR EGLL 052350Z 32004KT 280V360 9999 SCT032 03/01
                        Q1012 NOSIG=
200804052320 METAR COR EGLL 052320Z 32004KT 300V360 9999 FEW023 SCT037
                        04/01 Q1013 NOSIG=
200804052250 METAR COR EGLL 052250Z VRB03KT 9999 FEW033 04/01 Q1013 NOSIG=
200804052220 METAR EGLL 052220Z 35004KT 310V020 9999 FEW021 04/01 Q1013
                        NOSIG=
200804052150 METAR EGLL 052150Z 34004KT 9999 FEW017 SCT021 04/02 Q1013
                        NOSIG=
200804052120 METAR EGLL 052120Z 33004KT 290V010 9999 SCT022 04/02 Q1013=
200804052050 METAR COR EGLL 052050Z 33004KT 290V020 9999 FEW033 04/02
                        Q1013 NOSIG=
200804052020 METAR EGLL 052020Z 01007KT 340V040 9999 -RA FEW016 SCT033
                        04/02 Q1013 NOSIG=
200804051950 METAR COR EGLL 051950Z 36005KT 320V050 9999 SCT028 05/01
                        Q1013 NOSIG=
200804051920 METAR COR EGLL 051920Z 35005KT 9999 FEW030 05/01 Q1013 TEMPO
                        SHRA=
200804051850 METAR COR EGLL 051850Z 36008KT 320V050 9999 SCT030 06/02
                        Q1013 TEMPO SHRA=
200804051820 METAR COR EGLL 051820Z 36008KT 320V060 9999 FEW028 FEW030CB
                        SCT039 07/03 Q1013 TEMPO SCT025CB=
200804051750 METAR COR EGLL 051750Z 34004KT 300V010 9999 SCT030 FEW039TCU
                        06/02 Q1013 TEMPO SCT025CB=
200804051720 METAR COR EGLL 051720Z 35007KT 300V060 9999 6000S -SHRA SCT025
                        06/03 Q1013 RESHRA TEMPO SCT020CB=
200804051650 METAR COR EGLL 051650Z 35004KT 300V020 9999 FEW032 07/03
                        Q1013 TEMPO SHRA SCT025CB=
200804051620 METAR COR EGLL 051620Z 35005KT 320V030 9999 FEW031 SCT045
                        07/04 Q1014 TEMPO SHRA SCT025CB=
200804051550 METAR COR EGLL 051550Z 36006KT 9000 -RA FEW013 SCT018 06/04
                        Q1014 RESHRA NOSIG=
200804051520 METAR COR EGLL 051520Z 33012G24KT 8000 SHGS SCT019CB SCT031
                        06/04 Q1013 TEMPO NSW SCT025=
200804051450 METAR COR EGLL 051450Z 35007KT 300V020 9999 VCSH FEW028 SCT035
                        08/05 Q1013 TEMPO 5000 SHRA BKN020CB=
200804051420 METAR COR EGLL 051420Z 33010KT 290V360 9999 VCSH SCT018 BKN035
                        09/05 Q1013 TEMPO SHRA BKN020CB=
200804051350 METAR COR EGLL 051350Z VRB04KT 9999 FEW033 SCT045 07/04 Q1014
                        TEMPO SHRA BKN025CB=
200804051320 METAR COR EGLL 051320Z 34008KT 320V020 9999 7000NE VCSH SCT033
                        SCT044 08/05 Q1014 TEMPO SHRA BKN025CB=
200804051250 METAR COR EGLL 051250Z 31008KT 9999 8000S VCSH SCT024 BKN037
                        07/05 Q1014 TEMPO BKN020CB=
200804051220 METAR COR EGLL 051220Z 30010KT 9999 -SHRA FEW024 SCT038 BKN041
                        09/03 Q1014 TEMPO SHRA BKN025CB=
200804051150 METAR COR EGLL 051150Z 31009KT 9999 BKN045 09/02 Q1014 TEMPO
                        SHRA BKN025CB=
200804051120 METAR COR EGLL 051120Z 34007KT 280V020 9999 SCT039 10/02
                        Q1014 TEMPO SHRA BKN020CB=
200804051050 METAR EGLL 051050Z 32009KT 280V010 9999 SCT042 10/02 Q1015=
200804051020 METAR COR EGLL 051020Z 32009KT 280V020 9999 FEW029 BKN047
                        10/03 Q1015 NOSIG=
200804050950 METAR COR EGLL 050950Z 32009KT 9999 BKN030 09/02 Q1015 NOSIG=
200804050920 METAR COR EGLL 050920Z 34007KT 270V020 9999 FEW027 SCT048
                        09/03 Q1015 NOSIG=
200804050850 METAR COR EGLL 050850Z 32010KT 290V350 9999 SCT028 09/03
                        Q1016 NOSIG=
200804050820 METAR COR EGLL 050820Z 31011KT 290V360 9999 SCT025 08/03
                        Q1016 NOSIG=
200804050750 METAR COR EGLL 050750Z 31007KT 280V020 9999 FEW020 08/03
                        Q1016 NOSIG=
200804050720 METAR COR EGLL 050720Z 32009KT 280V340 9999 FEW020 07/03
                        Q1016 NOSIG=
200804050650 METAR COR EGLL 050650Z 30007KT CAVOK 07/03 Q1016 NOSIG=
200804050620 METAR COR EGLL 050620Z 30006KT 9999 SCT045 07/03 Q1017 NOSIG=
200804050550 METAR COR EGLL 050550Z 30007KT 9999 FEW028 BKN033 07/04 Q1017
                        NOSIG=
200804050520 METAR COR EGLL 050520Z 31007KT 280V340 9999 BKN031 07/04
                        Q1017 NOSIG=
200804050450 METAR COR EGLL 050450Z 33008KT 300V010 9999 BKN024 07/05
                        Q1017 NOSIG=
200804050420 METAR COR EGLL 050420Z 30006KT 270V350 4500 -RA FEW006 BKN010
                        08/07 Q1017 BECMG 6000 BKN020=
200804050350 METAR COR EGLL 050350Z 28008KT 7000 FEW013 BKN016 08/06 Q1017
                        TEMPO BKN014=
200804050320 METAR COR EGLL 050320Z 27008KT 9000 FEW042 SCT049 08/06 Q1018
                        NOSIG=
200804050250 METAR COR EGLL 050250Z 27008KT 9000 BKN045 08/06 Q1018 NOSIG=
200804050220 METAR COR EGLL 050220Z 27008KT 8000 BKN047 08/06 Q1018 NOSIG=
200804050150 METAR COR EGLL 050150Z 27008KT 9999 FEW048 07/06 Q1019 NOSIG=
200804050120 METAR EGLL 050120Z AUTO 26008KT 7000NDV NCD 08/06 Q1019=
200804050050 METAR EGLL 050050Z AUTO 26007KT 7000NDV NCD 07/06 Q1020=
200804050020 METAR EGLL 050020Z AUTO 27006KT 8000NDV NCD 08/06 Q1020=
200804042350 METAR COR EGLL 042350Z 27007KT 9999 NSC 08/06 Q1020 NOSIG=
200804042320 METAR COR EGLL 042320Z 28008KT CAVOK 09/06 Q1020 NOSIG=
200804042250 METAR COR EGLL 042250Z 28008KT CAVOK 09/07 Q1021 NOSIG=
200804042220 METAR COR EGLL 042220Z 29008KT CAVOK 09/07 Q1021 NOSIG=
200804042150 METAR COR EGLL 042150Z 28008KT CAVOK 09/07 Q1021 NOSIG=
200804042120 METAR EGLL 042120Z 28009KT CAVOK 09/07 Q1022 NOSIG=
200804042050 METAR COR EGLL 042050Z 27010KT CAVOK 10/07 Q1022 NOSIG=
200804042020 METAR EGLL 042020Z 27011KT 9999 FEW049 10/07 Q1022 NOSIG=
200804041950 METAR COR EGLL 041950Z 27013KT 9999 FEW047 11/08 Q1022 NOSIG=
200804041920 METAR EGLL 041920Z 27013KT 9999 FEW029 SCT032 BKN042 12/08
                        Q1022 NOSIG=
200804041850 METAR EGLL 041850Z 27013KT 9999 FEW026 SCT043 13/08 Q1022
                        NOSIG=
200804041820 METAR COR EGLL 041820Z 27015KT 9999 FEW037 13/08 Q1023 NOSIG=
200804041750 METAR COR EGLL 041750Z 26011KT 9999 FEW036 15/08 Q1023 NOSIG=
200804041720 METAR COR EGLL 041720Z 27013KT 9999 FEW035 16/08 Q1023 NOSIG=
200804041650 METAR COR EGLL 041650Z 28011KT 9999 FEW040 16/08 Q1023 NOSIG=
200804041620 METAR COR EGLL 041620Z 27014KT 9999 FEW044 16/07 Q1023 NOSIG=
200804041550 METAR COR EGLL 041550Z 27013KT 9999 FEW040 17/07 Q1024 NOSIG=
200804041520 METAR COR EGLL 041520Z 27012KT 9999 FEW040 18/08 Q1024 NOSIG=
200804041450 METAR EGLL 041450Z 31007KT 250V350 9999 SCT041 17/08 Q1024
                        NOSIG=
200804041420 METAR COR EGLL 041420Z 29008KT 9999 SCT040 17/08 Q1025 NOSIG=
200804041350 METAR COR EGLL 041350Z 27009KT 250V320 9999 SCT036 17/08
                        Q1025 NOSIG=
200804041320 METAR COR EGLL 041320Z 30005KT 250V350 9999 SCT032 17/09
                        Q1026 NOSIG=
200804041250 METAR EGLL 041250Z 28007KT 250V350 9999 FEW030 17/09 Q1026
                        NOSIG=
200804041220 METAR COR EGLL 041220Z 29007KT 9000 FEW020 16/10 Q1026 NOSIG=
200804041150 METAR EGLL 041150Z 26010KT 9000 FEW020 16/10 Q1027=
200804041120 METAR COR EGLL 041120Z 26009KT 9000 FEW017 15/10 Q1027 NOSIG=
200804041050 METAR COR EGLL 041050Z 27009KT 230V290 9000 FEW020 15/10
                        Q1027 NOSIG=
200804041020 METAR COR EGLL 041020Z 26009KT 9000 FEW016 14/10 Q1028 NOSIG=
200804040950 METAR EGLL 040950Z 27009KT 9000 NSC 14/10 Q1028=
200804040920 METAR COR EGLL 040920Z 27007KT 210V290 6000 FEW020 13/10
                        Q1028 NOSIG=
200804040850 METAR COR EGLL 040850Z 23007KT 5000 HZ NSC 12/09 Q1029 NOSIG=
200804040820 METAR EGLL 040820Z 21006KT 160V250 4900 HZ FEW035 11/09 Q1029=
200804040750 METAR COR EGLL 040750Z 21005KT 180V260 3900 HZ BKN035 10/08
                        Q1029 BECMG 6000=
200804040720 METAR COR EGLL 040720Z 20005KT 150V240 3000 HZ NSC 09/08
                        Q1029 TEMPO BKN005=
200804040650 METAR COR EGLL 040650Z 21004KT 170V250 2800 BR NSC 08/07
                        Q1029 TEMPO BKN005=
200804040620 METAR COR EGLL 040620Z 19005KT 170V240 3000 BR NSC 08/07
                        Q1029 NOSIG=
200804040550 METAR COR EGLL 040550Z 19005KT 150V220 3000 BR NSC 08/07
                        Q1029 NOSIG=
200804040520 METAR COR EGLL 040520Z 22004KT 180V250 3500 BR NSC 08/07
                        Q1029 NOSIG=
200804040450 METAR COR EGLL 040450Z 19003KT 4500 BR NSC 08/07 Q1029 NOSIG=
200804040420 METAR COR EGLL 040420Z 28002KT 4500 BR NSC 08/07 Q1029 TEMPO
                        6000 NSW=
200804040350 METAR COR EGLL 040350Z 00000KT 3900 BR NSC 07/06 Q1029 TEMPO
                        6000=
200804040320 METAR COR EGLL 040320Z 27002KT 3800 BR NSC 07/07 Q1030 TEMPO
                        6000=
200804040250 METAR COR EGLL 040250Z 27003KT 2500 BR NSC 08/06 Q1030 NOSIG=
200804040220 METAR COR EGLL 040220Z 00000KT 2900 BR NSC 08/07 Q1030 NOSIG=
200804040150 METAR COR EGLL 040150Z 00000KT 3100 BR NSC 08/06 Q1030 NOSIG=
200804040120 METAR EGLL 040120Z AUTO VRB02KT 3200NDV HZ NCD 08/07 Q1030=
200804040050 METAR EGLL 040050Z AUTO 31005KT 3500NDV HZ NCD 08/07 Q1030=
200804040020 METAR EGLL 040020Z AUTO VRB03KT 4100NDV HZ NCD 09/08 Q1030=
200804032350 METAR COR EGLL 032350Z 29003KT 5000 HZ NSC 08/07 Q1030 TEMPO
                        4000 BR=
200804032320 METAR EGLL 032320Z 28004KT 6000 NSC 10/07 Q1030 NOSIG=
200804032250 METAR EGLL 032250Z VRB02KT 6000 NSC 11/08 Q1030 NOSIG=
200804032220 METAR EGLL 032220Z 33003KT 7000 FEW044 12/08 Q1031 NOSIG=
200804032150 METAR COR EGLL 032150Z 31003KT 8000 SCT044 12/09 Q1031 NOSIG=
200804032120 METAR COR EGLL 032120Z 29002KT 9000 FEW040 SCT044 13/09 Q1031
                        NOSIG=
200804032050 METAR COR EGLL 032050Z 00000KT 9000 BKN042 13/09 Q1031 NOSIG=
200804032020 METAR EGLL 032020Z 35003KT 8000 SCT041 13/09 Q1031 NOSIG=
200804031950 METAR EGLL 031950Z 33004KT 9000 BKN041 13/09 Q1030 NOSIG=
200804031920 METAR EGLL 031920Z 31004KT 9999 SCT041 14/09 Q1030 NOSIG=
200804031850 METAR EGLL 031850Z VRB02KT 9999 BKN043 14/10 Q1030 NOSIG=
200804031820 METAR COR EGLL 031820Z VRB03KT 9999 VCSH BKN042 14/09 Q1030
                        NOSIG=
200804031750 METAR EGLL 031750Z 33004KT 290V020 9999 BKN041 14/09 Q1030
                        NOSIG=
200804031720 METAR EGLL 031720Z 34004KT 300V010 9999 BKN041 14/09 Q1030
                        NOSIG=
200804031650 METAR EGLL 031650Z 34004KT 280V030 9999 FEW029 BKN034 14/09
                        Q1030 NOSIG=
200804031620 METAR EGLL 031620Z 32006KT 290V360 9999 FEW027 BKN033 15/09
                        Q1030=
200804031550 METAR COR EGLL 031550Z 35005KT 300V020 9999 BKN037 15/08
                        Q1030 NOSIG=
200804031520 METAR COR EGLL 031520Z 34006KT 300V020 9999 BKN030 BKN036
                        15/09 Q1030 NOSIG=
200804031450 METAR COR EGLL 031450Z 34005KT 290V020 9999 FEW026 BKN030
                        15/09 Q1030 NOSIG=
200804031420 METAR COR EGLL 031420Z 34006KT 300V010 9999 SCT028 BKN033
                        15/08 Q1030 NOSIG=
200804031350 METAR EGLL 031350Z 34007KT 290V010 9999 BKN030 15/08 Q1030
                        NOSIG=
200804031320 METAR COR EGLL 031320Z 34007KT 310V020 9999 BKN024 14/09
                        Q1030 NOSIG=
200804031250 METAR COR EGLL 031250Z 33006KT 300V010 9999 BKN030 14/08
                        Q1031 NOSIG=
200804031220 METAR COR EGLL 031220Z 33006KT 290V020 9999 BKN029 15/08
                        Q1031 NOSIG=
200804031150 METAR COR EGLL 031150Z 01006KT 310V060 9999 BKN028 15/08
                        Q1031 NOSIG=
200804031120 METAR COR EGLL 031120Z 35006KT 300V050 9999 FEW025 BKN032
                        14/08 Q1031 NOSIG=
200804031050 METAR COR EGLL 031050Z 36007KT 330V040 9999 BKN032 14/08
                        Q1031 NOSIG=
200804031020 METAR EGLL 031020Z NIL=
200804030950 METAR EGLL 030950Z 35006KT 270V040 9999 FEW020 BKN036 14/08
                        Q1031 NOSIG=
200804030920 METAR EGLL 030920Z 34005KT 300V030 9999 FEW020 BKN038 13/08
                        Q1031=
200804030850 METAR EGLL 030850Z 36005KT 320V050 9999 BKN041 13/08 Q1030=
200804030820 METAR COR EGLL 030820Z 36005KT 330V040 9999 FEW015 BKN036
                        12/08 Q1030 NOSIG=
200804030750 METAR COR EGLL 030750Z 36006KT 330V030 9999 FEW014 BKN038
                        12/09 Q1030 NOSIG=
200804030720 METAR EGLL 030720Z 36004KT 340V050 9000 BKN037 12/09 Q1030
                        NOSIG=
200804030650 METAR COR EGLL 030650Z VRB03KT 7000 BKN038 11/09 Q1030 NOSIG=
200804030620 METAR COR EGLL 030620Z 35004KT 320V030 7000 FEW036 BKN041
                        11/09 Q1029 NOSIG=
200804030550 METAR COR EGLL 030550Z VRB03KT 7000 BKN040 11/09 Q1029 NOSIG=
200804030520 METAR COR EGLL 030520Z 35004KT 320V020 8000 BKN045 11/09
                        Q1029 NOSIG=
200804030450 METAR COR EGLL 030450Z VRB03KT 7000 BKN042 10/08 Q1029 NOSIG=
200804030420 METAR COR EGLL 030420Z 33004KT 7000 BKN043 10/08 Q1029 NOSIG=
200804030350 METAR COR EGLL 030350Z VRB03KT 7000 SCT040 10/08 Q1028 NOSIG=
200804030320 METAR COR EGLL 030320Z VRB03KT 8000 FEW040 10/08 Q1028 NOSIG=
200804030250 METAR COR EGLL 030250Z 33004KT 300V010 7000 NSC 10/08 Q1028
                        NOSIG=
200804030220 METAR COR EGLL 030220Z 36003KT 7000 NSC 10/08 Q1028 NOSIG=
200804030150 METAR COR EGLL 030150Z 33005KT 300V010 8000 FEW037 BKN049
                        11/09 Q1028 NOSIG=
200804030120 METAR EGLL 030120Z AUTO 34005KT 310V030 9000NDV BKN038///
                        11/09 Q1028=
200804030050 METAR COR EGLL 030050Z AUTO 34005KT 310V020 9000NDV FEW018///
                        BKN022/// OVC037/// 12/09 Q1028=
200804030020 METAR COR EGLL 030020Z AUTO 33004KT 290V360 9000NDV OVC017///
                        12/09 Q1027=
200804022350 METAR EGLL 022350Z NIL=
200804022320 METAR COR EGLL 022320Z 33005KT 300V360 9999 BKN015 12/10
                        Q1027 NOSIG=
200804022250 METAR EGLL 022250Z 31005KT 270V340 9999 BKN014 12/10 Q1027
                        TEMPO SCT014=
200804022220 METAR COR EGLL 022220Z 31005KT 270V350 9999 SCT014 12/10
                        Q1027 TEMPO BKN012=
200804022150 METAR COR EGLL 022150Z 30008KT 9999 SCT016 12/10 Q1027 NOSIG=
200804022120 METAR COR EGLL 022120Z 31006KT 270V340 9999 BKN014 BKN022
                        12/11 Q1027 TEMPO SCT014=
200804022050 METAR EGLL 022050Z 31005KT 9999 FEW007 SCT011 BKN021 12/11
                        Q1027 NOSIG=
200804022020 METAR COR EGLL 022020Z 35004KT 300V020 7000 -DZ SCT008 BKN014
                        12/11 Q1027 BECMG SCT012=
200804021950 METAR EGLL 021950Z 33005KT 290V360 7000 -DZ SCT009 BKN022
                        12/11 Q1026 TEMPO BKN014=
200804021920 METAR COR EGLL 021920Z 32007KT 7000 SCT015 BKN024 13/11 Q1026
                        TEMPO BKN014=
200804021850 METAR COR EGLL 021850Z 30009KT 9999 FEW019 BKN028 13/10 Q1025
                        NOSIG=
200804021820 METAR COR EGLL 021820Z 30006KT 9999 VCSH FEW020 SCT028 BKN033
                        13/10 Q1025 NOSIG=
200804021750 METAR COR EGLL 021750Z 30005KT 9999 VCSH SCT032 BKN036 13/10
                        Q1025 NOSIG=
200804021720 METAR EGLL 021720Z 29006KT 9999 VCSH FEW038 BKN048 13/10
                        Q1025 NOSIG=
200804021650 METAR EGLL 021650Z 29006KT 9999 SCT032 BKN047 13/10 Q1025
                        NOSIG=
200804021620 METAR COR EGLL 021620Z 29005KT 9999 SCT014 BKN039 13/10 Q1025
                        TEMPO BKN014=
200804021550 METAR COR EGLL 021550Z 30004KT 270V340 9999 -DZ SCT010 BKN019
                        12/10 Q1025 TEMPO BKN010=
200804021520 METAR COR EGLL 021520Z 29006KT 7000 VCSH FEW010 OVC019 12/10
                        Q1025 REDZ TEMPO BKN014=
200804021450 METAR EGLL 021450Z 28008KT 5000 DZ BKN022 BKN027 12/10 Q1025
                        TEMPO 4000 BKN014=
200804021420 METAR COR EGLL 021420Z 27009KT 9999 FEW009 BKN021 12/10 Q1025
                        TEMPO BKN010=
200804021350 METAR COR EGLL 021350Z 28009KT 9999 VCSH FEW012 SCT025 BKN030
                        12/10 Q1025 TEMPO BKN012=
200804021320 METAR COR EGLL 021320Z 28009KT 9999 4200SW BKN015 12/09 Q1025
                        TEMPO BKN012=
200804021250 METAR COR EGLL 021250Z 29008KT 260V320 9999 FEW013 BKN016
                        12/09 Q1025 NOSIG=
200804021220 METAR EGLL 021220Z 28009KT 9999 BKN019 12/08 Q1025 NOSIG=
200804021150 METAR EGLL 021150Z 28010KT 9999 BKN019 12/08 Q1025 NOSIG=
200804021120 METAR COR EGLL 021120Z 28010KT 9999 BKN019 12/07 Q1025 NOSIG=
200804021050 METAR COR EGLL 021050Z 27010KT 9999 BKN022 12/07 Q1025 NOSIG=
200804021020 METAR COR EGLL 021020Z 27009KT 9999 FEW023 BKN028 12/06 Q1025
                        NOSIG=
200804020950 METAR COR EGLL 020950Z 27009KT CAVOK 12/06 Q1025 NOSIG=
200804020920 METAR EGLL 020920Z 27009KT 9999 SCT040 11/06 Q1025 NOSIG=
200804020850 METAR COR EGLL 020850Z 27007KT 9999 BKN042 11/05 Q1025 NOSIG=
200804020820 METAR COR EGLL 020820Z 28008KT 9999 BKN041 11/05 Q1025 NOSIG=
200804020750 METAR COR EGLL 020750Z 28007KT 9999 SCT044 10/05 Q1025 NOSIG=
200804020720 METAR EGLL 020720Z 29005KT 9999 FEW047 10/05 Q1025 NOSIG=
200804020650 METAR COR EGLL 020650Z 29005KT 270V330 CAVOK 10/04 Q1024
                        NOSIG=
200804020620 METAR COR EGLL 020620Z 28007KT CAVOK 09/04 Q1024 NOSIG=
200804020550 METAR EGLL 020550Z 28004KT CAVOK 09/05 Q1024 NOSIG=
200804020520 METAR COR EGLL 020520Z 27007KT CAVOK 08/05 Q1024 NOSIG=
200804020450 METAR COR EGLL 020450Z 28007KT CAVOK 08/05 Q1024 NOSIG=
200804020420 METAR EGLL 020420Z 28007KT CAVOK 09/05 Q1024 NOSIG=
200804020350 METAR EGLL 020350Z 29008KT 9000 NSC 08/05 Q1023 NOSIG=
200804020320 METAR EGLL 020320Z 27011KT CAVOK 09/05 Q1023 NOSIG=
200804020250 METAR COR EGLL 020250Z 27011KT CAVOK 09/05 Q1023 NOSIG=
200804020220 METAR EGLL 020220Z 27013KT 9000 NSC 09/06 Q1023 NOSIG=
200804020150 METAR COR EGLL 020150Z 27012KT 9000 NSC 09/06 Q1023 NOSIG=
200804020120 METAR EGLL 020120Z AUTO 26012KT 8000NDV NCD 09/06 Q1023=
200804020050 METAR COR EGLL 020050Z AUTO 27011KT 8000NDV NCD 09/06 Q1023=
200804020020 METAR COR EGLL 020020Z AUTO 26013KT 8000NDV NCD 09/06 Q1023
                        NOSIG=
200804012350 METAR EGLL 012350Z 25011KT 9000 NSC 09/06 Q1023 NOSIG=
200804012320 METAR COR EGLL 012320Z 26011KT CAVOK 09/05 Q1023 NOSIG=
200804012250 METAR EGLL 012250Z 25010KT 9000 NSC 09/05 Q1023 NOSIG=
200804012220 METAR COR EGLL 012220Z 25011KT CAVOK 10/05 Q1023 NOSIG=
200804012150 METAR EGLL 012150Z 25010KT CAVOK 10/05 Q1023 NOSIG=
200804012120 METAR COR EGLL 012120Z 25011KT CAVOK 11/05 Q1023 NOSIG=
200804012050 METAR COR EGLL 012050Z 27011KT CAVOK 11/05 Q1022 NOSIG=
200804012020 METAR COR EGLL 012020Z 27012KT CAVOK 11/05 Q1022 NOSIG=
200804011950 METAR EGLL 011950Z 27012KT CAVOK 11/05 Q1022 NOSIG=
200804011920 METAR COR EGLL 011920Z 27017KT CAVOK 12/05 Q1021 NOSIG=
200804011850 METAR COR EGLL 011850Z 27019KT CAVOK 12/05 Q1021 NOSIG=
200804011820 METAR COR EGLL 011820Z 26016KT CAVOK 13/05 Q1020 NOSIG=
200804011750 METAR COR EGLL 011750Z 27018KT 9999 FEW020 13/05 Q1020 NOSIG=
200804011720 METAR COR EGLL 011720Z 27019KT CAVOK 14/04 Q1019 NOSIG=
200804011650 METAR COR EGLL 011650Z 27018KT CAVOK 14/03 Q1019 NOSIG=
200804011620 METAR COR EGLL 011620Z 27019KT CAVOK 15/02 Q1019 NOSIG=
200804011550 METAR COR EGLL 011550Z 27020KT CAVOK 15/03 Q1019 NOSIG=
200804011520 METAR COR EGLL 011520Z 27021KT CAVOK 15/03 Q1018 NOSIG=
200804011450 METAR COR EGLL 011450Z 27024KT CAVOK 15/03 Q1018 NOSIG=
200804011420 METAR EGLL 011420Z 27022KT CAVOK 15/02 Q1018 NOSIG=
200804011350 METAR EGLL 011350Z 28019G31KT 9999 SCT047 16/04 Q1018 NOSIG=
200804011320 METAR COR EGLL 011320Z 26022G33KT 9999 SCT047 15/04 Q1018
                        NOSIG=
200804011250 METAR EGLL 011250Z 27020KT 9999 SCT044 15/04 Q1018=
200804011220 METAR COR EGLL 011220Z 27020KT 9999 SCT044 15/04 Q1018 NOSIG=
200804011150 METAR COR EGLL 011150Z 26021KT 9999 SCT038 15/04 Q1018 NOSIG=
200804011120 METAR COR EGLL 011120Z 27020KT 9999 SCT035 14/05 Q1017 NOSIG=
200804011050 METAR EGLL 011050Z 27017KT 9999 BKN034 14/06 Q1017 NOSIG=
200804011020 METAR COR EGLL 011020Z 26019KT 9999 BKN036 14/05 Q1017 NOSIG=
200804010950 METAR COR EGLL 010950Z 27017KT 9999 FEW032 SCT037 13/07 Q1017
                        NOSIG=
200804010920 METAR COR EGLL 010920Z 26017KT 9999 SCT030 13/07 Q1017 NOSIG=
200804010850 METAR COR EGLL 010850Z 26019KT 9999 FEW029 12/08 Q1017 NOSIG=
200804010820 METAR COR EGLL 010820Z 25013KT 9999 FEW008 SCT042 12/09 Q1016
                        NOSIG=
200804010750 METAR EGLL 010750Z 22013KT 9000 -RADZ BKN006 BKN009 11/09
                        Q1016 BECMG 9999 NSW SCT025=
200804010720 METAR COR EGLL 010720Z 22014KT 8000 BKN006 BKN008 10/09 Q1016
                        NOSIG=
200804010650 METAR EGLL 010650Z 21013KT 9999 BKN008 BKN013 10/09 Q1016
                        NOSIG=
200804010620 METAR EGLL 010620Z 21012KT 6000 -DZ BKN008 BKN012 10/08 Q1016
                        TEMPO 4000 RADZ=
200804010550 METAR COR EGLL 010550Z 20013KT 9999 -SHRA BKN011 10/07 Q1016
                        TEMPO 20015G25KT 4000 RADZ BKN006=
200804010520 METAR COR EGLL 010520Z 20011KT 170V240 9999 BKN012 09/07
                        Q1016 TEMPO 4500 RADZ BKN008=
200804010450 METAR EGLL 010450Z 20010KT 9999 SCT016 BKN031 09/06 Q1016
                        BECMG 4500 RADZ BKN008=
200804010420 METAR COR EGLL 010420Z 20008KT 9999 SCT032 SCT047 08/06 Q1017
                        BECMG 8000 -RADZ BKN010=
200804010350 METAR COR EGLL 010350Z 19010KT CAVOK 08/06 Q1017 BECMG -RADZ
                        BKN010=
200804010320 METAR EGLL 010320Z 19008KT CAVOK 08/06 Q1017 BECMG 9000 -RADZ
                        BKN014=
200804010250 METAR EGLL 010250Z 19007KT 8000 SCT007 07/06 Q1018 NOSIG=
200804010220 METAR EGLL 010220Z 20009KT 9999 FEW008 08/06 Q1018 NOSIG=
200804010150 METAR COR EGLL 010150Z 20006KT CAVOK 07/06 Q1018 NOSIG=
200804010120 METAR EGLL 010120Z AUTO 18006KT 9999NDV NCD 07/06 Q1018=
200804010050 METAR EGLL 010050Z AUTO 19007KT 9999NDV NCD 07/06 Q1019=
200804010020 METAR EGLL 010020Z AUTO 19007KT 9000NDV NCD 07/06 Q1019=

###################################
#  short TAF from EGLL
###################################
200805012343 TAF EGLL 012343Z 020110 20006KT 9999 FEW035
                      TEMPO 0307 7000
                      PROB30 TEMPO 0910 7000 SHRA=
200805012049 TAF EGLL 012049Z 012207 20006KT 9999 FEW035
                      TEMPO 0307 7000=
200805011802 TAF EGLL 011802Z 011904 23010KT 9999 FEW035
                      PROB30 TEMPO 1920 SHRA SCT025CB=
200805011456 TAF EGLL 011456Z 011601 23012KT 9999 SCT035
                      TEMPO 1620 SHRA SCT020CB
                      PROB30 TEMPO 1619 23015G25KT 5000 +SHRA TSGR=
200805011155 TAF EGLL 011155Z 011322 23012KT 9999 SCT035
                      TEMPO 1320 SHRA SCT020CB
                      PROB30 TEMPO 1319 23015G25KT 5000 +SHRA TSGR=
200805010902 TAF EGLL 010902Z 011019 23012KT 9999 SCT025
                      TEMPO 1019 SHRA SCT020CB
                      PROB30 TEMPO 1019 23015G25KT 5000 +SHRA TSGR=
200805010607 TAF EGLL 010607Z 010716 22010KT 9999 SCT020
                      TEMPO 0716 SHRA SCT020CB
                      PROB30 TEMPO 0816 23015G25KT 5000 +SHRA TSGR=
200805010305 TAF EGLL 010305Z 010413 22010KT 9999 SCT020
                      TEMPO 0413 SHRA SCT020CB
                      PROB30 TEMPO 0408 BKN012
                      PROB30 TEMPO 0913 23015G25KT 5000 +SHRA TSRA=
200805010002 TAF EGLL 010002Z 010110 21008KT 9999 SCT018 BKN035
                      TEMPO 0110 7000 SHRA RA SCT020CB
                      PROB30 TEMPO 0107 BKN010=
200804302059 TAF EGLL 302059Z 302207 21008KT 9999 SCT025
                      TEMPO 2207 SHRA
                      PROB30 TEMPO 2207 5000 +SHRA SCT020CB=
200804301747 TAF EGLL 301747Z 301904 23012KT 9999 SCT025
                      TEMPO 1904 7000 SHRA BKN018CB
                      PROB30 TEMPO 1903 24015G25KT 4000 +SHRA TSRAGS=
200804301503 TAF EGLL 301503Z 301601 21012KT 9999 SCT025
                      TEMPO 1601 7000 SHRA BKN018CB
                      PROB30 TEMPO 1601 23015G25KT 4000 +SHRA TSRAGS=
200804301157 TAF EGLL 301157Z 301322 21012KT 9999 -SHRA BKN025
                      TEMPO 1322 7000 SHRA BKN018CB
                      PROB30 TEMPO 1322 23015G25KT 4000 +SHRA TSRA=
200804300902 TAF EGLL 300902Z 301019 VRB06KT 9999 -SHRA BKN018
                      TEMPO 1013 4000 +RA TSRA BKN010 BKN018CB
                       BECMG 1113 20013KT
                      PROB40 TEMPO 1319 5000 +SHRA TSRA BKN020CB=
200804300748 TAF AMD EGLL 300748Z 300716 11004KT 9999 -SHRA BKN018
                      PROB30 TEMPO 0712 4000 +RA TSRA BKN010 BKN018CB
                       BECMG 0912 20013KT
                      PROB30 TEMPO 1316 5000 +SHRA TSRA BKN025CB=
200804300608 TAF EGLL 300608Z 300716 11004KT 7000 -RA BKN012
                      PROB30 TEMPO 0712 4000 +RA TSRA BKN018CB
                       BECMG 0912 20013KT
                      BECMG 1113 9999 SCT025
                      PROB30 TEMPO 1416 5000 +SHRA TSRA BKN025CB=
200804300311 TAF EGLL 300311Z 300413 14007KT 9999 BKN025
                      TEMPO 0612 5000 +RA BKN010
                      PROB30 TEMPO 0613 TSRA BKN018CB
                      BECMG 0912 20010KT=
200804300300 TAF EGLL 300300Z NIL=
200804300000 TAF EGLL 300000Z 300110 16007KT 9999 SCT025
                      TEMPO 0110 7000 SHRA SCT020CB
                      PROB40 TEMPO 0509 3000 +SHRA TSRA BKN010
                       BKN020CB=
200804292143 TAF AMD EGLL 292143Z 292207 17007KT 9999 SCT025
                      TEMPO 2207 7000 SHRA SCT020CB
                      PROB40 TEMPO 2223 TSRA BKN014CB
                      PROB30 TEMPO 0507 3000 +SHRA TSRA BKN010
                       BKN020CB=
200804292103 TAF EGLL 292103Z 292207 17007KT 9999 SCT025
                      TEMPO 2207 7000 SHRA SCT020CB
                      PROB30 TEMPO 0507 3000 +SHRA TSRA BKN010
                       BKN020CB=
200804291802 TAF EGLL 291802Z 291904 19010KT 9999 SCT020
                      TEMPO 1920 7000 RA BKN014=
200804291504 TAF EGLL 291504Z 291601 13012KT 8000 -RA BKN020
                      TEMPO 1619 13015G25KT 4500 RA BKN012
                      BECMG 1921 19010KT 9999 NSW=
200804291202 TAF EGLL 291202Z 291322 15008KT 9999 SCT025
                      BECMG 1416 8000 -RA
                      TEMPO 1519 13015G25KT 4500 RA BKN012
                      BECMG 1921 19010KT 9999 NSW=
200804290900 TAF EGLL 290900Z NIL=
200804290856 TAF EGLL 290856Z 291019 14007KT 9999 SCT025
                      PROB30 TEMPO 1012 6000 SHRA BKN014
                      BECMG 1416 8000 -RA
                      TEMPO 1519 13015G25KT 4500 RA BKN014=
200804290601 TAF EGLL 290601Z 290716 13007KT 9999 FEW015 SCT030
                      PROB30 TEMPO 0711 5000 SHRA BKN014 BKN025CB
                       BECMG 1416 7000 -RA
                      TEMPO 1516 13016G26KT RA BKN012=
200804290304 TAF EGLL 290304Z 290413 14007KT 9999 FEW015 SCT030
                      PROB30 0406 7000
                      PROB30 TEMPO 0812 7000 SHRA BKN014 BKN025CB=
200804290000 TAF EGLL 290000Z 290110 20005KT 9999 FEW035
                      PROB30 0306 7000
                      BECMG 0507 14010KT
                      PROB30 TEMPO 0810 7000 SHRA BKN014 BKN025CB=
200804282102 TAF EGLL 282102Z 282207 20007KT 9999 FEW035
                      PROB30 0306 7000
                      BECMG 0507 14010KT=
200804281757 TAF EGLL 281757Z 281904 20008KT 9999 SCT035
                      TEMPO 1921 SHRA SCT030CB
                      PROB30 TEMPO 1920 5000 +SHRA TSRA
                      PROB30 0304 7000=
200804281502 TAF EGLL 281502Z 281601 21010KT 9999 SCT035
                      TEMPO 1621 SHRA SCT030CB
                      PROB40 TEMPO 1620 23015G25KT 5000 +SHRA=
200804281208 TAF EGLL 281208Z 281322 21010KT 9999 SCT035
                      TEMPO 1321 SHRA SCT030CB
                      PROB40 TEMPO 1320 23015G25KT 5000 +SHRA=
200804280903 TAF EGLL 280903Z 281019 22010KT 9999 SCT035
                      TEMPO 1019 SHRA SCT030CB
                      PROB40 TEMPO 1019 23015G25KT 5000 +SHRA=
200804280607 TAF EGLL 280607Z 280716 22008KT 9999 FEW025
                      TEMPO 1016 SHRA SCT035CB
                      PROB40 TEMPO 1116 6000 +SHRA=
200804280302 TAF EGLL 280302Z 280413 22007KT 9999 FEW020
                      PROB30 TEMPO 0406 6000 BKN010
                      TEMPO 1013 SHRA SCT035CB
                      PROB30 TEMPO 1113 6000 +SHRA=
200804272359 TAF EGLL 272359Z 280110 22007KT 9999 FEW020
                      PROB30 TEMPO 0206 4000 BR BKN010=
200804272101 TAF EGLL 272101Z 272207 22007KT 9999 FEW012 SCT020
                      TEMPO 2207 6000
                      PROB30 TEMPO 0206 4000 BR BKN010=
200804271756 TAF EGLL 271756Z 271904 22010KT 9999 SCT040
                      TEMPO 1904 6000
                      PROB40 TEMPO 1921 SHRA TSRA BKN014 SCT040CB
                       PROB30
                      TEMPO 0204 4000 BR BKN010=
200804271507 TAF EGLL 271507Z 271601 21010KT 9999 SCT040
                      TEMPO 1601 6000
                      PROB40 TEMPO 1621 SHRA TSRA BKN014 SCT040CB=
200804271201 TAF EGLL 271201Z 271322 19010KT 9999 SCT040
                      PROB40 TEMPO 1321 6000 SHRA SCT040CB=
200804270908 TAF EGLL 270908Z 271019 19010KT 9999 BKN040
                      BECMG 1014 9000
                      TEMPO 1019 SHRA SCT060CB
                      PROB30 TEMPO 1014 4000 TSRA BKN040CB=
200804270552 TAF EGLL 270552Z 270716 16007KT CAVOK
                      PROB40 TEMPO 0812 7000 SHRA SCT025 BKN060CB
                       BECMG 1316 24010KT=
200804270400 TAF COR EGLL 270400Z 270413 16007KT CAVOK
                      PROB40 TEMPO 0812 7000 SHRA SCT025 BKN060CB=
200804270253 TAF EGLL 270253Z 270413 16007KT CAVOK
                      PROB40 TEMPO 0813 8000 SHRA RA=
200804262355 TAF EGLL 262355Z 270110 VRB04KT CAVOK
                      PROB30 TEMPO 0810 8000 RA=
200804262055 TAF EGLL 262055Z 262207 VRB04KT CAVOK=
200804261804 TAF EGLL 261804Z 261904 18007KT CAVOK=
200804261502 TAF EGLL 261502Z 261601 18008KT CAVOK=
200804261202 TAF EGLL 261202Z 261322 19012KT 9999 FEW045=
200804260908 TAF EGLL 260908Z 261019 20010KT 9999 FEW045=
200804260555 TAF EGLL 260555Z 260716 19009KT 9999 FEW045=
200804260254 TAF EGLL 260254Z 260413 19007KT 9999 FEW045
                      PROB30 0407 8000=
200804252355 TAF EGLL 252355Z 260110 22007KT 9999 SCT045
                      PROB30 0407 8000=
200804252050 TAF EGLL 252050Z 252207 22010KT 9999 BKN040
                      PROB30 0407 8000=
200804251804 TAF EGLL 251804Z 251904 22007KT 9999 SCT030=
200804251458 TAF EGLL 251458Z 251601 22009KT 9999 SCT030=
200804251205 TAF EGLL 251205Z 251322 24009KT 9999 SCT030=
200804250856 TAF EGLL 250856Z 251019 24009KT 9999 SCT030=
200804250600 TAF EGLL 250600Z 250716 25009KT 9999 FEW030=
200804250240 TAF EGLL 250240Z 250413 25008KT 9999 FEW030
                      PROB30 TEMPO 0508 8000 BKN012=
200804242335 TAF EGLL 242335Z 250110 25008KT 9999 FEW030
                      PROB30 TEMPO 0408 8000 BKN012=
200804242046 TAF EGLL 242046Z 242207 25008KT 9999 FEW030
                      PROB30 TEMPO 0407 8000 BKN012=
200804241801 TAF EGLL 241801Z 241904 26012KT 9999 FEW040=
200804241455 TAF EGLL 241455Z 241601 26013KT 9999 SCT035
                      TEMPO 1618 25017G27KT 7000 SHRA BKN020CB=
200804241200 TAF EGLL 241200Z 241322 24013KT 9999 SCT025
                      TEMPO 1318 25017G27KT 7000 SHRA BKN020CB
                       PROB30
                      TEMPO 1316 3000 +TSRAGS=
200804240908 TAF EGLL 240908Z 241019 18014KT 7000 RA BKN018
                      TEMPO 1011 19017G27KT 4000 +RA BKN014
                      BECMG 1112 24013KT 9999 NSW
                      TEMPO 1118 25017G27KT 7000 SHRA BKN020CB
                       PROB30
                      TEMPO 1116 3000 +TSRAGS=
200804240600 TAF EGLL 240600Z 240716 18010KT 7000 SCT015
                      PROB30 TEMPO 0708 BKN009
                      BECMG 0709 RA
                      TEMPO 0911 19017G27KT 4000 +RA BKN014
                      BECMG 1012 24013KT 9999 NSW
                      TEMPO 1216 25017G27KT 7000 SHRA BKN020CB
                       PROB30
                      TEMPO 1216 3000 +TSRAGS=
200804240258 TAF EGLL 240258Z 240413 20006KT 7000 NSC
                      TEMPO 0408 4000 BR BKN005
                      BECMG 0709 RA BKN025
                      TEMPO 0911 19015G25KT 4000 +RA BKN014
                      BECMG 1012 24013KT 9999 NSW
                      TEMPO 1213 25015G25KT 7000 SHRA BKN020CB=
200804232356 TAF EGLL 232356Z 240110 23006KT CAVOK
                      BECMG 0103 8000 NSC
                      PROB40 TEMPO 0308 4000 BR BKN005
                      BECMG 0709 RA BKN030
                      TEMPO 0910 19015G25KT 4000 +RA BKN014=
200804232057 TAF EGLL 232057Z 232207 25006KT 9999 FEW040
                      BECMG 2302 8000
                      PROB40 TEMPO 0207 4000 BR BKN005=
200804231808 TAF EGLL 231808Z 231904 27006KT CAVOK
                      BECMG 2301 8000
                      TEMPO 0204 4000 BR BKN005=
200804231502 TAF EGLL 231502Z 231601 28010KT 9999 FEW040
                      BECMG 2301 8000=
200804231210 TAF EGLL 231210Z 231322 28010KT 9999 SCT025=
200804231200 TAF EGLL 231200Z NIL=
200804230916 TAF EGLL 230916Z 231019 22006KT 2500 -RA BR SCT005 BKN010
                      BECMG 1113 28010KT 9999 NSW SCT025=
200804230900 TAF EGLL 230900Z NIL=
200804230600 TAF EGLL 230600Z 230716 21005KT 7000 -RA SCT035
                      TEMPO 0711 4000 RA BR BKN014
                      PROB30 TEMPO 0710 BKN005
                      BECMG 1113 28010KT 9999 NSW=
200804230256 TAF EGLL 230256Z 230413 VRB05KT 7000 NSC
                      TEMPO 0412 4000 BR
                      BECMG 0610 -RA BKN014
                      PROB30 TEMPO 0612 RA BKN005
                      BECMG 1113 28010KT 9999 NSW SCT020=
200804230001 TAF EGLL 230001Z 230110 VRB05KT 8000 NSC
                      TEMPO 0210 4000 BR
                      BECMG 0610 -RA BKN014
                      PROB30 TEMPO 0610 RA BKN005=
200804222058 TAF EGLL 222058Z 222207 VRB05KT CAVOK
                      BECMG 2201 8000
                      PROB40 TEMPO 0207 4000 BR BKN005=
200804221802 TAF EGLL 221802Z 221904 VRB06KT CAVOK
                      BECMG 2124 8000
                      PROB40 TEMPO 0204 4000 BR BKN005=
200804221458 TAF EGLL 221458Z 221601 09006KT 9999 FEW040
                      BECMG 2124 8000=
200804221202 TAF EGLL 221202Z 221322 09006KT 9999 FEW025=
200804220855 TAF EGLL 220855Z 221019 03006KT 8000 FEW025
                      BECMG 1012 9999
                      BECMG 1114 11010KT=
200804220558 TAF EGLL 220558Z 220716 02006KT 7000 FEW040
                      PROB30 TEMPO 0708 4000 BR
                      BECMG 0710 9999
                      BECMG 0912 10010KT=
200804220255 TAF EGLL 220255Z 220413 02006KT 7000 FEW040
                      PROB30 TEMPO 0408 4000 BR
                      BECMG 0710 9999
                      BECMG 0912 10010KT=
200804220001 TAF EGLL 220001Z 220110 02006KT 8000 FEW040
                      PROB30 TEMPO 0108 4000 BR
                      BECMG 0710 9999=
200804212056 TAF EGLL 212056Z 212207 04010KT CAVOK
                      PROB40 TEMPO 2207 7000=
200804211754 TAF EGLL 211754Z 211904 04012KT CAVOK
                      PROB40 TEMPO 2104 8000=
200804211457 TAF EGLL 211457Z 211601 04012KT 9999 FEW030=
200804211157 TAF EGLL 211157Z 211322 04012KT 9000 SCT020
                      BECMG 1315 9999
                      TEMPO 1318 05015G25KT=
200804210900 TAF EGLL 210900Z 211019 04012KT 7000 SCT020
                      BECMG 1114 9999=
200804210608 TAF EGLL 210608Z 210716 05014KT 7000 BKN040
                      TEMPO 0710 3000 RA BKN008
                      BECMG 1215 9999=
200804210309 TAF EGLL 210309Z 210413 05012KT 7000 BKN040
                      TEMPO 0410 4000 RA BKN008=
200804210013 TAF EGLL 210013Z 210110 05010KT 7000 BKN040
                      TEMPO 0110 4000 SHRA
                      TEMPO 0310 BKN007=
200804210000 TAF EGLL 210000Z NIL=
200804202122 TAF EGLL 202122Z 202207 05010KT 7000 BKN040
                      TEMPO 2207 4000 SHRA
                      TEMPO 0307 BKN009=
200804202100 TAF EGLL 202100Z NIL=
200804201755 TAF EGLL 201755Z 201904 05010KT 9000 SCT030
                      PROB30 TEMPO 1902 4500 SHRA TSRA BKN030CB=
200804201500 TAF EGLL 201500Z 201601 05010KT 8000 SCT025
                      TEMPO 1601 9999
                      PROB30 TEMPO 1622 SHRA=
200804201203 TAF EGLL 201203Z 201322 07010KT 6000 HZ SCT018
                      PROB30 TEMPO 1314 4500 BKN014
                      BECMG 1417 9999 NSW SCT025
                      PROB30 TEMPO 1419 7000 SHRA=
200804200900 TAF EGLL 200900Z 201019 07010KT 4000 BR BKN012
                      BECMG 1011 7000 NSW
                      BECMG 1113 9999 SCT025
                      PROB30 TEMPO 1318 7000 SHRA=
200804200618 TAF EGLL 200618Z 200716 07010KT 2000 BR BKN006
                      TEMPO 0708 1400 -DZ BKN003
                      BECMG 0810 7000 NSW BKN013
                      BECMG 1012 9999 SCT025
                      PROB30 TEMPO 1316 7000 SHRA=
200804200600 TAF EGLL 200600Z NIL=
200804200328 TAF EGLL 200328Z 200413 07007KT 2000 BR BKN006
                      TEMPO 0408 1200 -DZ BKN003
                      BECMG 0810 7000 NSW BKN013
                      BECMG 1012 9999 SCT025=
200804200300 TAF EGLL 200300Z NIL=
200804200018 TAF EGLL 200018Z 200110 07007KT 3000 BR BKN012
                      BECMG 0104 BKN007
                      PROB30 TEMPO 0408 1200 -DZ BKN003
                      BECMG 0810 7000 NSW BKN014=
200804200000 TAF EGLL 200000Z NIL=
200804192131 TAF EGLL 192131Z 192207 07007KT 4000 BR BKN016
                      BECMG 2201 BKN007
                      TEMPO 0307 1200 -DZ BKN003=
200804192100 TAF EGLL 192100Z NIL=
200804191747 TAF EGLL 191747Z 191904 07008KT 6000 -DZ BKN012
                      TEMPO 1921 4000 RADZ BKN009
                      BECMG 2124 3000 BR BKN007
                      PROB30 TEMPO 2304 1200 BKN003=
200804191459 TAF EGLL 191459Z 191601 07012KT 7000 -DZ BKN015
                      TEMPO 1620 4000 RADZ BKN009
                      BECMG 2023 3000 BR BKN007=
200804191155 TAF EGLL 191155Z 191322 06014KT 7000 BKN015
                      TEMPO 1322 3000 RADZ BKN008=
200804190854 TAF EGLL 190854Z 191019 06014KT 7000 BKN015
                      TEMPO 1019 3000 RADZ BKN008=
200804190602 TAF EGLL 190602Z 190716 06014KT 6000 -RADZ BKN013
                      TEMPO 0716 3000 RADZ BKN008=
200804190305 TAF EGLL 190305Z 190413 02012KT 9000 BKN017
                      BECMG 0407 -RADZ BKN012
                      TEMPO 0713 3000 RADZ BKN008=
200804190002 TAF EGLL 190002Z 190110 06013KT 9999 SCT045
                      PROB30 TEMPO 0104 8000 BKN014
                      BECMG 0407 7000 -RADZ BKN014
                      TEMPO 0810 3000 RADZ BKN008=
200804182103 TAF EGLL 182103Z 182207 06014KT 9999 BKN045
                      PROB30 TEMPO 0007 8000 BKN014
                      BECMG 0407 7000 -RADZ BKN014=
200804181809 TAF EGLL 181809Z 181904 07015KT 8000 BKN030
                      TEMPO 1904 9999
                      PROB30 TEMPO 0004 BKN013=
200804181526 TAF EGLL 181526Z 181601 07016KT 8000 BKN030=
200804181500 TAF EGLL 181500Z NIL=
200804181200 TAF EGLL 181200Z 181322 08018G30KT 9999 BKN040
                      TEMPO 1822 8000=
200804180924 TAF EGLL 180924Z 181019 08016KT 8000 BKN040
                      TEMPO 1019 07018G32KT
                      TEMPO 1117 -RADZ BKN014=
200804180900 TAF EGLL 180900Z NIL=
200804180600 TAF EGLL 180600Z 180716 07013KT 6000 FEW015
                      PROB30 TEMPO 0709 BKN012
                      BECMG 0810 9999
                      TEMPO 0816 07020G32KT
                      TEMPO 1116 8000 -RADZ BKN014=
200804180305 TAF EGLL 180305Z 180413 06012KT 5000 HZ FEW012
                      TEMPO 0409 BKN010
                      BECMG 0710 9999 NSW
                      TEMPO 0813 07020G32KT
                      TEMPO 1113 8000 -RADZ BKN014=
200804180001 TAF EGLL 180001Z 180110 06012KT 9999 SCT012
                      TEMPO 0109 8000 BKN010
                      TEMPO 0810 07020G32KT=
200804172324 TAF AMD EGLL 172324Z 172207 06013KT 9999 SCT015
                      TEMPO 2307 9000 BKN013=
200804172103 TAF EGLL 172103Z 172207 06013KT 9999 FEW030
                      PROB30 TEMPO 0507 9000 BKN014=
200804171807 TAF EGLL 171807Z 171904 07015KT 9999 SCT040=
200804171504 TAF EGLL 171504Z 171601 08018G30KT 9999 SCT040
                      BECMG 1820 07014KT=
200804171202 TAF EGLL 171202Z 171322 09018G30KT 9999 SCT040
                      BECMG 1820 07015KT=
200804170910 TAF EGLL 170910Z 171019 08017G28KT 9999 SCT030=
200804170900 TAF EGLL 170900Z NIL=
200804170550 TAF EGLL 170550Z 170716 08012KT 9999 SCT035
                      PROB30 TEMPO 0708 8000
                      TEMPO 0816 08017G28KT=
200804170523 TAF AMD EGLL 170523Z 170513 09012KT 9999 SCT035
                      TEMPO 0507 8000
                      TEMPO 0913 08017G28KT=
200804170302 TAF EGLL 170302Z 170413 09012KT 9999 SCT035
                      TEMPO 0913 08017G28KT=
200804170004 TAF EGLL 170004Z 170110 09012KT 9999 FEW030
                      TEMPO 0910 08017G28KT=
200804162148 TAF EGLL 162148Z 162207 09010KT CAVOK=
200804162100 TAF EGLL 162100Z NIL=
200804161801 TAF EGLL 161801Z 161904 11010KT CAVOK=
200804161503 TAF EGLL 161503Z 161601 12010KT 9999 SCT045=
200804161200 TAF EGLL 161200Z 161322 11008KT 9999 SCT045=
200804160905 TAF EGLL 160905Z 161019 11008KT 9999 SCT035=
200804160603 TAF EGLL 160603Z 160716 16003KT 6000 SCT035
                      TEMPO 0709 BKN014
                      PROB40 TEMPO 0708 3500 BR
                      BECMG 0811 10010KT 9999
                      PROB40 TEMPO 1116 BKN030TCU=
200804160317 TAF EGLL 160317Z 160413 VRB03KT 9999 SCT030
                      BECMG 0406 6000
                      TEMPO 0609 BKN014
                      PROB30 0608 3500 BR
                      BECMG 0811 10010KT 9999=
200804160300 TAF EGLL 160300Z NIL=
200804160006 TAF EGLL 160006Z 160110 VRB05KT 9999 SCT030
                      PROB30 TEMPO 0104 8000 -RA
                      BECMG 0406 5000 HZ
                      TEMPO 0609 BKN014
                      PROB40 0608 3500 BR
                      BECMG 0710 11010KT 9999=
200804152120 TAF EGLL 152120Z 152207 VRB07KT 9999 BKN040
                      PROB40 TEMPO 2202 7000 SHRA
                      PROB30 TEMPO 2201 4000 +SHRA TSRA BKN014CB
                       TEMPO 0207 8000
                      PROB30 0406 4000 BR
                      BECMG 0407 11010KT=
200804152100 TAF EGLL 152100Z NIL=
200804151803 TAF EGLL 151803Z 151904 30008KT 9999 BKN045
                      TEMPO 1901 7000 SHRA
                      PROB30 TEMPO 1901 32015G25KT 4000 TSRA BKN014CB=
200804151506 TAF EGLL 151506Z 151601 23007KT 9999 FEW045
                      TEMPO 1801 7000 SHRA BKN025CB
                      PROB30 TEMPO 1801 28015G25KT 4000 TSRA BKN014=
200804151205 TAF EGLL 151205Z 151322 26005KT 9999 FEW045
                      TEMPO 1922 7000 SHRA BKN025CB
                      PROB30 TEMPO 2022 4000 TSRA BKN014=
200804150856 TAF EGLL 150856Z 151019 26005KT 9999 FEW035=
200804150534 TAF EGLL 150534Z 150716 28005KT 9999 SCT035
                      PROB30 0708 6000=
200804150302 TAF EGLL 150302Z 150413 29005KT 9999 SCT035
                      PROB30 0408 6000=
200804142358 TAF EGLL 142358Z 150110 35008KT 9999 SCT035
                      PROB40 0308 6000=
200804142043 TAF EGLL 142043Z 142207 35008KT 9999 SCT035
                      PROB40 0307 6000=
200804141807 TAF EGLL 141807Z 141904 35008KT 9999 SCT035
                      PROB40 TEMPO 1922 5000 SHRA BKN020CB
                      PROB30 TEMPO 1920 35015G25KT 3500 +SHRAGR
                       TSRAGR=
200804141521 TAF EGLL 141521Z 141601 29012KT 9999 SCT035
                      PROB40 TEMPO 1622 5000 SHRA BKN020CB
                      PROB30 TEMPO 1619 30017G32KT 3000 +SHRAGR
                       TSRAGR
                      BECMG 1619 35010KT=
200804141500 TAF EGLL 141500Z NIL=
200804141216 TAF EGLL 141216Z 141322 29010KT 9999 SCT035
                      TEMPO 1322 5000 SHRA BKN020CB
                      PROB40 TEMPO 1319 30017G32KT 3000 +SHRAGR
                       TSRAGR
                      BECMG 1619 35010KT=
200804141200 TAF EGLL 141200Z NIL=
200804140916 TAF EGLL 140916Z 141019 31010KT 9999 SCT030
                      TEMPO 1019 5000 SHRA BKN020CB
                      PROB30 TEMPO 1119 3000 +SHRAGS TSRAGS
                      BECMG 1619 01010KT=
200804140900 TAF EGLL 140900Z NIL=
200804140654 TAF AMD EGLL 140654Z 140716 27005KT 4500 HZ SCT030
                      PROB40 TEMPO 0709 BKN010
                      BECMG 0710 33010KT 9999 NSW
                      PROB40 TEMPO 0916 7000 SHRA SCT025CB
                      PROB30 TEMPO 1116 4500 TSRAGS BKN014CB=
200804140549 TAF EGLL 140549Z 140716 27005KT 9999 SCT030
                      TEMPO 0709 7000 BKN010
                      BECMG 0710 33010KT
                      PROB40 TEMPO 0916 7000 SHRA SCT025CB
                      PROB30 TEMPO 1116 4500 TSRAGS BKN014CB=
200804140253 TAF EGLL 140253Z 140413 33008KT 8000 SCT030
                      TEMPO 0409 BKN010
                      PROB40 TEMPO 0406 3000 BR BKN006
                      BECMG 0609 9999
                      PROB30 TEMPO 0913 5000 SHRA TSGS BKN014CB=
200804132350 TAF EGLL 132350Z 140110 33008KT 9999 SCT030
                      TEMPO 0108 7000 BKN014
                      PROB30 TEMPO 0106 3000 BR BKN007=
200804132053 TAF EGLL 132053Z 132207 32008KT 9999 SCT030
                      PROB30 TEMPO 2201 4000 SHRA BKN014CB
                      PROB30 TEMPO 0007 5000 BKN014=
200804131813 TAF EGLL 131813Z 131904 26010KT 9999 SCT030
                      BECMG 1922 34008KT
                      PROB40 TEMPO 1920 4000 SHRA TSRA BKN015CB
                       TEMPO 1922 SCT020CB
                      TEMPO 2204 BKN014
                      PROB40 TEMPO 0004 5000 -RADZ BKN008=
200804131800 TAF EGLL 131800Z NIL=
200804131513 TAF EGLL 131513Z 131601 22010KT 9999 SCT025
                      TEMPO 1620 5000 SHRA BKN015CB
                      PROB40 TEMPO 1618 3000 +SHRA TSRAGR
                      BECMG 1720 28010KT
                      BECMG 2023 35008KT
                      TEMPO 2201 6000 -RADZ BKN010=
200804131500 TAF EGLL 131500Z NIL=
200804131211 TAF EGLL 131211Z 131322 21010KT 9999 SCT025
                      TEMPO 1320 5000 SHRA BKN015CB
                      PROB40 TEMPO 1318 3000 +SHRA TSRAGS
                      BECMG 1720 28007KT=
200804131200 TAF EGLL 131200Z NIL=
200804130914 TAF EGLL 130914Z 131019 22010KT 9999 SCT030
                      TEMPO 1019 6000 SHRA BKN018CB
                      PROB30 TEMPO 1118 3500 TSRAGS
                      BECMG 1719 28007KT=
200804130900 TAF EGLL 130900Z NIL=
200804130603 TAF EGLL 130603Z 130716 20005KT 9999 FEW035
                      TEMPO 0916 6000 SHRA BKN025CB
                      PROB30 TEMPO 1116 4000 TSRAGS=
200804130305 TAF EGLL 130305Z 130413 22005KT 9999 FEW035
                      PROB30 0407 7000
                      TEMPO 1013 6000 SHRA BKN025CB
                      PROB30 TEMPO 1113 4000 TSRAGS=
200804130000 TAF EGLL 130000Z 130110 22005KT 9999 FEW035
                      PROB30 0407 7000=
200804122100 TAF EGLL 122100Z 122207 22005KT 9999 FEW035
                      PROB30 0407 7000=
200804121722 TAF EGLL 121722Z 121904 24010KT 9999 FEW035
                      PROB30 TEMPO 1920 6000 SHRA SCT025CB
                      PROB30 0204 7000=
200804121456 TAF EGLL 121456Z 121601 24013KT 9999 FEW035
                      PROB30 TEMPO 1619 26018G28KT 4000 +SHRA TSGS
                       BKN025CB=
200804121134 TAF EGLL 121134Z 121322 26013KT 9999 FEW035
                      PROB30 TEMPO 1318 26020G30KT 4000 +SHRA TSGS
                       BKN025CB=
200804120856 TAF EGLL 120856Z 121019 26012KT 9999 FEW035
                      PROB30 TEMPO 1018 26020G30KT 4000 +SHRA TSGS
                       BKN025CB=
200804120604 TAF EGLL 120604Z 120716 24012KT 9999 FEW035
                      PROB30 TEMPO 1016 24015G27KT 4000 +SHRA TSGR
                       BKN025CB=
200804120304 TAF EGLL 120304Z 120413 24012KT 9999 FEW035
                      TEMPO 1013 24015G25KT
                      PROB40 TEMPO 1013 4000 +SHRA TSGR BKN025CB=
200804120001 TAF EGLL 120001Z 120110 24010KT 9999 FEW035
                      PROB30 TEMPO 0102 8000 -SHRA=
200804112102 TAF EGLL 112102Z 112207 22010KT 9999 FEW035
                      TEMPO 2301 22015G25KT 6000 SHRA BKN020CB
                       PROB30
                      TEMPO 2301 23018G35KT 4000 +SHRAGS BKN012=
200804111755 TAF EGLL 111755Z 111904 25012KT 9999 FEW035
                      TEMPO 1904 21017G27KT
                      PROB40 TEMPO 2301 22022G37KT 4000 +SHRAGS
                       BKN010 BKN020CB=
200804111455 TAF EGLL 111455Z 111601 22014KT 9999 FEW035
                      TEMPO 1601 24017G27KT 6000 RA SHRA BKN025CB
                       PROB30
                      TEMPO 2301 22022G37KT 4000 +SHRA TSGR BKN010
                       BKN020CB=
200804111155 TAF EGLL 111155Z 111322 22014KT 9999 FEW035
                      TEMPO 1317 24020G32KT 6000 SHRA BKN025CB
                       PROB30
                      TEMPO 1315 4000 +SHRA TSGR BKN014CB=
200804110852 TAF EGLL 110852Z 111019 22012KT 9999 FEW035
                      BECMG 1114 24018G28KT
                      TEMPO 1117 6000 SHRA BKN025CB
                      PROB30 TEMPO 1214 4000 +SHRA TSGR=
200804110610 TAF EGLL 110610Z 110716 19007KT 9999 FEW035
                      BECMG 1114 24018G28KT
                      TEMPO 1116 6000 SHRA BKN025CB
                      PROB40 TEMPO 1214 4000 +SHRA TSGR=
200804110600 TAF EGLL 110600Z NIL=
200804110301 TAF EGLL 110301Z 110413 18006KT 9999 FEW035
                      BECMG 1113 24018G28KT
                      TEMPO 1113 6000 SHRA BKN025CB
                      PROB40 TEMPO 1213 4000 +SHRA TSGR=
200804110005 TAF EGLL 110005Z 110110 18006KT 9999 FEW045
                      PROB30 TEMPO 0103 8000 -SHRA=
200804102101 TAF EGLL 102101Z 102207 19006KT 9999 FEW045
                      PROB30 TEMPO 2303 8000 -SHRA BKN013=
200804101806 TAF EGLL 101806Z 101904 23008KT 9999 BKN045
                      PROB40 TEMPO 2303 8000 -SHRA BKN013=
200804101502 TAF EGLL 101502Z 101601 23008KT 9999 BKN045
                      PROB40 TEMPO 2301 8000 -SHRA BKN013=
200804101204 TAF EGLL 101204Z 101322 23008KT 9999 BKN040=
200804100900 TAF EGLL 100900Z 101019 22006KT 9999 SCT035=
200804100556 TAF EGLL 100556Z 100716 22005KT 9000 FEW030
                      BECMG 0709 9999=
200804100257 TAF EGLL 100257Z 100413 24004KT 9999 FEW025
                      PROB30 0507 8000=
200804100003 TAF EGLL 100003Z 100110 25004KT CAVOK
                      PROB30 0507 8000=
200804092106 TAF EGLL 092106Z 092207 25004KT CAVOK
                      PROB40 0507 8000=
200804091808 TAF EGLL 091808Z 091904 28006KT 9999 FEW040=
200804091508 TAF EGLL 091508Z 091601 28006KT 9999 SCT040=
200804091200 TAF EGLL 091200Z 091322 28006KT 9999 SCT040=
200804090904 TAF EGLL 090904Z 091019 27006KT 9999 FEW040=
200804090555 TAF EGLL 090555Z 090716 25006KT 9999 SCT040
                      PROB40 TEMPO 0708 7000=
200804090249 TAF EGLL 090249Z 090413 25006KT 9999 SCT040
                      PROB30 TEMPO 0608 7000=
200804082341 TAF EGLL 082341Z 090110 22006KT 9999 SCT040
                      PROB40 TEMPO 0508 7000=
200804082101 TAF EGLL 082101Z 082207 22007KT 9999 SCT040
                      PROB40 TEMPO 0507 7000=
200804081801 TAF EGLL 081801Z 081904 21007KT CAVOK=
200804081459 TAF EGLL 081459Z 081601 23007KT 9999 FEW040
                      PROB30 TEMPO 1619 7000 SHRA SCT030TCU=
200804081200 TAF EGLL 081200Z 081322 24007KT 9999 SCT035
                      PROB30 TEMPO 1419 7000 SHRA SCT025CB=
200804080859 TAF EGLL 080859Z 081019 23008KT 9999 SCT030
                      PROB30 TEMPO 1319 7000 SHRA SCT025CB=
200804080549 TAF EGLL 080549Z 080716 22008KT 9999 SCT035
                      TEMPO 0708 8000
                      TEMPO 1016 -SHRA BKN030CB
                      PROB30 TEMPO 1216 7000 SHRA=
200804080257 TAF EGLL 080257Z 080413 22008KT 9999 SCT035
                      PROB30 TEMPO 0508 6000
                      TEMPO 1013 -SHRA BKN030CB
                      PROB30 TEMPO 1213 6000 SHRA=
200804072342 TAF EGLL 072342Z 080110 22006KT 9999 SCT035
                      PROB30 TEMPO 0508 6000=
200804072105 TAF EGLL 072105Z 072207 20005KT 9999 FEW035
                      PROB30 TEMPO 0407 6000=
200804071758 TAF EGLL 071758Z 071904 23007KT 9999 FEW040=
200804071508 TAF EGLL 071508Z 071601 27010KT 9999 SCT030
                      PROB40 TEMPO 1620 5000 SHRAGS SCT020CB=
200804071158 TAF EGLL 071158Z 071322 27010KT 9999 SCT030
                      TEMPO 1320 5000 SHRASN SCT020CB
                      PROB30 TEMPO 1318 1500 +SHRAGS BKN014=
200804070901 TAF EGLL 070901Z 071019 27010KT 9999 SCT025
                      TEMPO 1219 3000 SHRASN SCT020CB
                      PROB30 TEMPO 1318 1200 +SHRASNGS BKN012=
200804070558 TAF EGLL 070558Z 070716 28007KT 9999 SCT035
                      PROB30 TEMPO 0912 2000 SHRASN BKN010
                      TEMPO 1216 5000 SHRA -SHRASN SCT025CB
                      PROB30 TEMPO 1216 3000 TSRASN SHGS BKN025CB=
200804070312 TAF EGLL 070312Z 070413 28007KT 9999 SCT040
                      PROB30 TEMPO 0406 4000 BR
                      PROB30 TEMPO 0913 4000 SHRASN SHGS BKN014=
200804070300 TAF EGLL 070300Z NIL=
200804070001 TAF EGLL 070001Z 070110 28007KT 9000 SCT040
                      TEMPO 0104 3000 -SN BKN008
                      PROB40 TEMPO 0406 4000 BR -SN BKN012=
200804062104 TAF EGLL 062104Z 062207 30007KT 9999 SCT040
                      TEMPO 2202 2500 -SN BKN008
                      PROB40 TEMPO 0204 4000 BR -SN BKN012=
200804061809 TAF EGLL 061809Z 061904 30007KT 9999 SCT040
                      PROB40 TEMPO 1922 SCT035CB
                      TEMPO 2202 2500 -SN BKN008
                      PROB40 TEMPO 0204 4000 BR -SN BKN012=
200804061516 TAF EGLL 061516Z 061601 35010KT 9999 SCT040
                      PROB40 TEMPO 1619 3000 SHSN BKN020CB
                      BECMG 1821 29006KT
                      TEMPO 2201 3000 -SN BKN010=
200804061500 TAF EGLL 061500Z NIL=
200804061430 TAF AMD EGLL 061430Z 061422 35010KT 9999 SCT035
                      TEMPO 1419 2000 SHSN BKN020CB
                      BECMG 1821 29006KT=
200804061429 TAF AMD EGLL 061429Z 061422 35010KT 9999 SCT035
                      TEMPO 1419 2000 SHSN BKN020CB
                      BECMG 1821 29006KT=
200804061211 TAF EGLL 061211Z 061322 35010KT 9999 SCT035
                      PROB30 TEMPO 1319 8000 -SHSN -SHRASN SCT030CB
                       BECMG 1821 29006KT=
200804061200 TAF EGLL 061200Z NIL=
200804060926 TAF EGLL 060926Z 061019 35010KT 5000 -SN BKN012
                      BECMG 1014 CAVOK
                      PROB30 TEMPO 1011 1400 SN BKN005
                      PROB30 TEMPO 1419 8000 -SHSN SCT040CB
                      TEMPO 1819 29006KT=
200804060900 TAF EGLL 060900Z NIL=
200804060605 TAF EGLL 060605Z 060716 35008KT 3000 -SN BKN008
                      TEMPO 0711 0500 SN +RASN VV///
                      BECMG 1315 9999 NSW SCT040
                      PROB30 TEMPO 1516 5000 SHRASN SCT030CB=
200804060313 TAF EGLL 060313Z 060413 33008KT 9999 SCT030
                      BECMG 0508 3000 -SN BKN008
                      TEMPO 0711 0300 SN +RASN VV///
                      BECMG 1114 9999 NSW SCT040=
200804060300 TAF EGLL 060300Z NIL=
200804060004 TAF EGLL 060004Z 060110 35008KT 9999 SCT030
                      BECMG 0407 3000 -SN BKN008
                      TEMPO 0710 0300 SN +RASN VV///=
200804052050 TAF EGLL 052050Z 052207 35008KT 9999 SCT030
                      PROB30 TEMPO 2201 7000 SHRA -SHRAGS SCT020CB
                       BECMG 0407 3000 -SN BKN008
                      PROB30 TEMPO 0607 0300 SN +RASN VV///=
200804051806 TAF EGLL 051806Z 051904 35008KT 9999 SCT030
                      PROB40 TEMPO 1922 7000 SHRA SHRAGS SCT020CB
                       PROB30
                      TEMPO 2201 -SHRAGS SCT025CB=
200804051408 TAF EGLL 051408Z 051601 35010KT 9999 SCT030
                      PROB40 TEMPO 1622 36015G25KT 7000 SHRA SHRAGS
                       BKN020CB
                      PROB30 TEMPO 1619 3000 +SHRAGS=
200804051204 TAF EGLL 051204Z 051322 34012KT 9999 SCT030
                      TEMPO 1322 01015G25KT 8000 SHRA SHRAGS BKN020CB
                       PROB30
                      TEMPO 1417 3000 +SHRAGS=
200804050916 TAF EGLL 050916Z 051019 30012KT 9999 SCT030
                      BECMG 1014 35012KT
                      TEMPO 1119 01015G25KT 8000 SHRA BKN020CB
                       PROB30
                      TEMPO 1417 3000 SHRAGS=
200804050900 TAF EGLL 050900Z NIL=
200804050602 TAF EGLL 050602Z 050716 32010KT 9999 SCT030
                      TEMPO 1016 32015G25KT 7000 SHRA BKN020CB
                       PROB30
                      TEMPO 1216 3000 +SHRAGS=
200804050306 TAF EGLL 050306Z 050413 29008KT 9000 -RADZ FEW015 BKN040
                      BECMG 0406 9999 NSW
                      PROB30 TEMPO 0406 BKN013
                      PROB40 TEMPO 1013 32015G25KT 7000 SHRA=
200804050005 TAF EGLL 050005Z 050110 29008KT 9999 SCT035
                      PROB40 TEMPO 0306 7000 -RA BKN013=
200804042103 TAF EGLL 042103Z 042207 28008KT 9999 FEW040
                      PROB40 TEMPO 0306 7000 -RADZ BKN013=
200804041753 TAF EGLL 041753Z 041904 27008KT 9999 SCT030
                      PROB40 TEMPO 0104 7000 -RADZ BKN014=
200804041459 TAF EGLL 041459Z 041601 26008KT 9999 SCT030=
200804041209 TAF EGLL 041209Z 041322 26010KT 9999 SCT030=
200804040857 TAF EGLL 040857Z 041019 26008KT 8000 SCT030
                      PROB30 TEMPO 1011 BKN010
                      BECMG 1012 9999=
200804040556 TAF EGLL 040556Z 040716 VRB05KT 3000 BR SCT030
                      PROB30 TEMPO 0709 BKN008
                      BECMG 0710 8000
                      BECMG 1013 26010KT 9999=
200804040258 TAF EGLL 040258Z 040413 VRB05KT 3000 BR SCT030
                      TEMPO 0408 7000 NSW
                      PROB30 TEMPO 0409 BKN008
                      BECMG 0710 8000
                      BECMG 1013 26010KT 9999=
200804040001 TAF EGLL 040001Z 040110 VRB05KT 8000 SCT030
                      TEMPO 0109 4000 BR
                      PROB30 TEMPO 0309 BKN008=
200804032055 TAF EGLL 032055Z 032207 VRB05KT 8000 SCT030
                      TEMPO 2224 9999
                      PROB40 TEMPO 0207 4000 BR
                      PROB30 0307 BKN008=
200804031742 TAF EGLL 031742Z 031904 VRB05KT 9999 SCT030
                      BECMG 2124 9000
                      PROB40 TEMPO 0204 3000 BR BKN008=
200804031459 TAF EGLL 031459Z 031601 34007KT 9999 BKN030
                      BECMG 2124 7000=
200804031159 TAF EGLL 031159Z 031322 34007KT 9999 SCT030=
200804030904 TAF EGLL 030904Z 031019 34007KT 9999 SCT030=
200804030555 TAF EGLL 030555Z 030716 34007KT 7000 BKN030
                      BECMG 0811 9999=
200804030259 TAF EGLL 030259Z 030413 34007KT 7000 BKN030
                      TEMPO 0410 BKN012
                      PROB30 TEMPO 0408 3000 BR BKN006
                      BECMG 0912 9999=
200804022337 TAF EGLL 022337Z 030110 33008KT 9999 BKN0030
                      TEMPO 0110 7000 BKN012
                      PROB30 TEMPO 0308 3000 -DZ BR BKN006=
200804022041 TAF EGLL 022041Z 022207 30008KT 9999 BKN025
                      TEMPO 2207 7000 BKN012
                      PROB30 TEMPO 0207 3000 -DZ BR BKN006=
200804021757 TAF EGLL 021757Z 021904 29011KT 9999 BKN025
                      PROB40 TEMPO 1921 8000 BKN014
                      BECMG 2124 7000
                      TEMPO 2104 BKN012
                      PROB30 TEMPO 0204 3000 -DZ BR BKN006=
200804021455 TAF EGLL 021455Z 021601 29011KT 9999 BKN025
                      PROB40 TEMPO 1621 8000 -SHRA BKN014
                      PROB30 TEMPO 1619 3000 -DZ BR BKN008
                      BECMG 2124 7000=
200804021346 TAF AMD EGLL 021346Z 021322 29011KT 9999 SCT040
                      PROB40 TEMPO 1321 8000 -SHRA BKN014
                      PROB30 TEMPO 1321 3000 -DZ BR BKN008=
200804021155 TAF EGLL 021155Z 021322 29011KT 9999 SCT040
                      PROB40 TEMPO 1321 8000 -SHRA
                      PROB30 TEMPO 1321 BKN012=
200804020855 TAF EGLL 020855Z 021019 29011KT 9999 SCT040
                      PROB40 TEMPO 1019 8000 -SHRA
                      PROB30 TEMPO 1319 BKN014=
200804020555 TAF EGLL 020555Z 020716 29011KT 9999 BKN030
                      PROB30 TEMPO 1416 8000 -SHRA BKN014=
200804020240 TAF EGLL 020240Z 020413 27007KT 9999 SCT030
                      TEMPO 0407 8000=
200804012357 TAF EGLL 012357Z 020110 27008KT 9999 SCT035
                      TEMPO 0107 8000=
200804012042 TAF EGLL 012042Z 012207 27012KT 9999 SCT035=
200804011751 TAF EGLL 011751Z 011904 26018G28KT 9999 SCT035
                      BECMG 1922 27014KT=
200804011452 TAF EGLL 011452Z 011601 26018G30KT 9999 SCT035
                      BECMG 1821 27014KT=
200804011154 TAF EGLL 011154Z 011322 25015KT 9999 SCT035
                      TEMPO 1319 26018G30KT=
200804010855 TAF EGLL 010855Z 011019 25015KT 9999 SCT035
                      TEMPO 1019 26018G30KT=
200804010602 TAF EGLL 010602Z 010716 21014KT 8000 -RADZ BKN010
                      BECMG 0710 27015KT 9999 NSW SCT040
                      TEMPO 0708 21015G25KT 4000 RADZ BKN006
                      TEMPO 1016 27018G30KT=
200804010305 TAF EGLL 010305Z 010413 20012KT CAVOK
                      BECMG 0406 8000 -RADZ BKN010
                      TEMPO 0608 20015G25KT 4000 RADZ BKN006
                      BECMG 0710 27015KT 9999 NSW SCT040
                      TEMPO 1013 27018G30KT=
200804010000 TAF EGLL 010000Z 010110 19010KT 9999 SCT030
                      TEMPO 0103 8000
                      BECMG 0306 20015G25KT 8000 -RADZ BKN012
                      TEMPO 0608 4000 RADZ BKN007
                      BECMG 0710 27015KT 9999 NSW SCT040=

###################################
#  large TAF from EGLL
###################################
200805012150 TAF EGLL 012150Z 020606 20005KT 9999 FEW030
                      TEMPO 0608 7000
                      PROB30 TEMPO 0915 7000 SHRA
                      TEMPO 0406 8000=
200805011550 TAF EGLL 011550Z 020024 21006KT 9999 FEW040
                      PROB30 0408 7000
                      PROB30 TEMPO 0915 7000 SHRA=
200805011001 TAF EGLL 011001Z 011818 22010KT 9999 SCT040
                      TEMPO 1820 SHRA SCT030CB
                      PROB30 TEMPO 1819 23015G25KT 5000 +SHRA TSGR
                       PROB30 0408 8000
                      PROB30 TEMPO 0915 7000 SHRA=
200805010424 TAF EGLL 010424Z 011212 23010KT 9999 SCT030
                      TEMPO 1220 SHRA SCT025CB
                      PROB30 TEMPO 1219 23015G25KT 5000 +SHRA TSRAGS
                       PROB30 0407 7000 BKN008
                      PROB30 TEMPO 0812 7000 SHRA=
200804302222 TAF EGLL 302222Z 010606 23010KT 9999 SCT030
                      TEMPO 0620 SHRA SCT025CB
                      PROB30 TEMPO 0608 BKN010
                      PROB30 TEMPO 0919 23015G25KT 5000 +SHRA TSRAGS
                       PROB30 0406 7000 BKN008=
200804301555 TAF EGLL 301555Z 010024 22010KT 9999 SCT025
                      TEMPO 0020 23015G25KT 7000 SHRA SCT020CB
                       PROB30
                      TEMPO 0003 4000 +SHRA TSRA BKN014CB
                      PROB30 TEMPO 0308 BKN010
                      PROB30 TEMPO 0918 4000 +SHRA TSRAGS=
200804300951 TAF EGLL 300951Z 301818 20010KT 9999 SCT025
                      TEMPO 1818 20015G25KT 7000 SHRA SCT025CB
                       PROB30
                      TEMPO 1818 4000 +SHRA TSRA BKN020CB
                      PROB30 TEMPO 0308 BKN010=
200804300452 TAF EGLL 300452Z 301212 20014KT 7000 -RA BKN014
                      BECMG 1214 9999 NSW
                      TEMPO 1212 SHRA SCT025CB
                      PROB40 TEMPO 1412 20015G25KT 5000 +SHRA TSRA
                       BKN020CB
                      PROB30 TEMPO 0306 BKN010=
200804300400 TAF EGLL 300400Z NIL=
200804292229 TAF EGLL 292229Z 300606 14012KT 7000 -RA BKN018
                      TEMPO 0609 3000 +SHRA TSRA BKN010 BKN018CB
                       BECMG 0811 20010KT 9999 NSW
                      TEMPO 0924 SHRA SCT025CB
                      PROB30 TEMPO 0922 5000 +SHRA TSRA BKN020CB
                       PROB30 0406 7000 BKN010=
200804291554 TAF EGLL 291554Z 300024 17006KT 9999 SCT020
                      TEMPO 0509 3000 +SHRA BKN010 BKN018CB
                      TEMPO 0921 7000 SHRA
                      PROB40 TEMPO 0918 4000 +SHRA TSRA BKN018CB
                       BECMG 0912 23012KT=
200804291016 TAF EGLL 291016Z 291818 12010KT 7000 -RA BKN020
                      TEMPO 1819 13016G26KT RA BKN014
                      PROB30 TEMPO 1819 4000 +RA BKN009
                      BECMG 1921 19010KT 9999 NSW
                      BECMG 0306 08010KT
                      TEMPO 0618 4000 +SHRA BKN014CB
                      BECMG 0912 27015G25KT
                      BECMG 1518 23007KT=
200804290440 TAF EGLL 290440Z 291212 13010KT 9999 SCT030
                      BECMG 1316 7000 -RA
                      TEMPO 1519 13016G26KT RA BKN012
                      PROB30 TEMPO 1719 4000 +RA BKN009
                      BECMG 1921 19005KT 9999 NSW
                      BECMG 0306 08010KT
                      TEMPO 0412 6000 SHRA BKN010CB
                      BECMG 0912 27012KT=
200804282209 TAF EGLL 282209Z 290606 14010KT 9999 SCT035
                      PROB30 TEMPO 0812 7000 SHRA BKN014 BKN025CB
                       BECMG 1316 7000 -RA
                      TEMPO 1519 16016G26KT RA BKN012
                      PROB30 TEMPO 1719 4000 +RA BKN009
                      BECMG 1921 19005KT 9999 NSW
                      BECMG 0306 11010KT
                      TEMPO 0406 6000 RA BKN010CB=
200804281627 TAF EGLL 281627Z 290024 20006KT 9999 SCT035
                      PROB30 0306 7000
                      BECMG 0408 14010KT
                      PROB30 TEMPO 0912 7000 SHRA BKN025CB
                      BECMG 1417 8000 -RA
                      PROB40 TEMPO 1521 16016G26KT RA BKN012
                      BECMG 2022 9999 NSW=
200804281018 TAF EGLL 281018Z 281818 23010KT 9999 SCT035
                      TEMPO 1821 SHRA SCT030CB
                      PROB30 TEMPO 1820 5000 +SHRA
                      PROB30 0306 7000
                      BECMG 0609 17008KT
                      PROB30 TEMPO 0912 7000 SHRA BKN025CB
                      BECMG 1417 8000 -RA
                      PROB40 TEMPO 1518 16016G26KT RA BKN012=
200804280425 TAF EGLL 280425Z 281212 23010KT 9999 SCT025
                      TEMPO 1221 SHRA SCT035CB
                      PROB40 TEMPO 1220 6000 +SHRA
                      PROB30 0306 7000
                      BECMG 0609 17008KT
                      PROB30 TEMPO 0912 7000 SHRA BKN020CB=
200804272209 TAF EGLL 272209Z 280606 22010KT 9999 SCT025
                      PROB30 0607 6000
                      TEMPO 1021 SHRA SCT035CB
                      PROB40 TEMPO 1120 6000 +SHRA
                      PROB30 0306 7000=
200804271634 TAF EGLL 271634Z 280024 22010KT 9999 SCT025
                      PROB40 0007 6000
                      PROB30 TEMPO 0206 4000 BR BKN009
                      TEMPO 0921 5000 +SHRA SCT035CB=
200804271032 TAF EGLL 271032Z 271818 22010KT 9999 SCT045
                      TEMPO 1821 6000 RA SHRA BKN014
                      PROB30 TEMPO 0007 BKN010
                      TEMPO 0918 6000 SHRA SCT030CB=
200804270412 TAF EGLL 270412Z 271212 18005KT 9999 SCT045
                      BECMG 1417 24012KT
                      PROB40 TEMPO 1622 6000 RA SHRA BKN012
                      PROB40 TEMPO 0309 BKN010
                      TEMPO 0912 6000 SHRA SCT030CB=
200804262154 TAF EGLL 262154Z 270606 17005KT 9999 SCT045
                      PROB30 TEMPO 0812 8000 RA
                      BECMG 1215 24010KT
                      TEMPO 1823 BKN012=
200804261624 TAF EGLL 261624Z 270024 17005KT CAVOK
                      BECMG 0609 BKN020
                      TEMPO 0815 7000 -RA
                      PROB30 TEMPO 0912 RA BKN010
                      BECMG 1215 24010KT
                      PROB40 TEMPO 2022 BKN009=
200804261028 TAF EGLL 261028Z 261818 19008KT CAVOK
                      TEMPO 0218 7000 -RA
                      BECMG 0912 BKN020
                      PROB40 TEMPO 1618 RA BKN010=
200804260356 TAF EGLL 260356Z 261212 22008KT 9999 FEW040
                      TEMPO 0212 7000 RA
                      PROB40 TEMPO 0812 4000 RADZ +RA BKN008=
200804252151 TAF EGLL 252151Z 260606 22008KT 9999 SCT040
                      PROB30 0607 8000
                      TEMPO 0206 7000 RA=
200804251610 TAF EGLL 251610Z 260024 20008KT 9999 SCT030
                      PROB30 0407 8000=
200804251017 TAF EGLL 251017Z 251818 20008KT 9999 SCT030
                      PROB30 TEMPO 0008 -RADZ BKN014=
200804250705 TAF COR EGLL 250705Z 251212 25008KT 9999 SCT030
                      BECMG 1821 19010KT
                      PROB30 TEMPO 0008 8000 -DZ BKN010=
200804250347 TAF EGLL 250347Z 251212 24008KT 9999 SCT030
                      BECMG 1821 19010KT
                      PROB30 TEMPO 0008 8000 -DZ BKN010=
200804242154 TAF EGLL 242154Z 250606 25008KT 9999 FEW020
                      PROB30 TEMPO 0608 8000 BKN012
                      BECMG 1821 19010KT
                      PROB30 TEMPO 2106 8000 -DZ BKN010=
200804241627 TAF EGLL 241627Z 250024 24008KT CAVOK
                      PROB30 TEMPO 0508 8000 BKN012
                      BECMG 1821 18010KT
                      PROB40 TEMPO 1824 8000 -DZ BKN010=
200804241007 TAF AMD EGLL 241007Z 241818 25011KT 9999 FEW040
                      PROB30 TEMPO 0508 8000 BKN012=
200804240352 TAF EGLL 240352Z 241212 24013KT 9999 SCT025
                      TEMPO 1218 25015G25KT 7000 SHRA BKN020CB
                       PROB30
                      TEMPO 1216 3000 +TSRAGS=
200804232215 TAF EGLL 232215Z 240606 18008KT 8000 NSC
                      PROB30 TEMPO 0608 4000 BR BKN005
                      BECMG 0709 RA BKN030
                      TEMPO 0911 19015G25KT 4000 +RA BKN014
                      BECMG 1012 24013KT 9999 NSW
                      TEMPO 1218 25015G25KT 7000 SHRA BKN020CB
                       PROB30
                      TEMPO 1216 3000 +TSRAGS=
200804231627 TAF EGLL 231627Z 240024 24005KT 8000 FEW040
                      TEMPO 0208 4000 BR BKN005
                      BECMG 0508 18012KT RA
                      TEMPO 0810 19015G25KT 4000 +RA BKN014
                      BECMG 1012 24013KT 9999 NSW
                      TEMPO 1118 25015G25KT 7000 SHRA BKN020CB
                       PROB30
                      TEMPO 1117 3000 +TSRA=
200804231036 TAF EGLL 231036Z 231818 26005KT 9999 FEW025
                      BECMG 2302 8000
                      TEMPO 0208 4000 BR BKN005
                      BECMG 0609 18012KT 7000 -RA
                      TEMPO 0911 19015G25KT 4000 +RA BKN014
                      BECMG 1113 23013KT 9999 NSW
                      TEMPO 1218 25015G25KT 7000 SHRA BKN020CB
                       PROB30
                      TEMPO 1217 3000 +TSRA=
200804230404 TAF EGLL 230404Z 231212 28007KT 9999 SCT020
                      TEMPO 0207 4000 BR BKN005
                      BECMG 0306 18012KT
                      BECMG 0609 7000 -RA
                      TEMPO 0912 4000 RA BKN014=
200804222154 TAF EGLL 222154Z 230606 22006KT 8000 -RA BKN020
                      TEMPO 0613 BKN014
                      PROB40 TEMPO 0612 4000 RA BR BKN005
                      BECMG 1115 28010KT 9999 NSW SCT020
                      BECMG 2124 21005KT
                      TEMPO 0306 4000 BR BKN005=
200804221547 TAF EGLL 221547Z 230024 13006KT 8000 NSC
                      PROB40 TEMPO 0207 4000 BR BKN005
                      BECMG 0608 -RA BKN014
                      BECMG 1013 28010KT 9999 NSW SCT020
                      BECMG 2124 23005KT=
200804220949 TAF EGLL 220949Z 221818 11010KT 9999 FEW040
                      BECMG 2124 8000
                      BECMG 0003 19007KT
                      BECMG 0205 BKN010
                      PROB30 TEMPO 0407 3000 BR BKN005
                      TEMPO 0710 RA
                      BECMG 1013 28010KT 9999 NSW SCT020=
200804220354 TAF EGLL 220354Z 221212 10010KT 9999 FEW040
                      BECMG 2124 8000
                      BECMG 0003 19007KT
                      PROB30 TEMPO 0107 3000 BR BKN007
                      BECMG 0609 26010KT
                      TEMPO 0612 RA BKN014=
200804212155 TAF EGLL 212155Z 220606 02007KT 9999 FEW040
                      TEMPO 0608 7000
                      BECMG 0912 10010KT
                      TEMPO 2106 8000
                      BECMG 0003 19008KT
                      PROB30 TEMPO 0106 4000 BR
                      TEMPO 0406 RA BKN014=
200804211555 TAF EGLL 211555Z 220024 03008KT 9999 FEW040
                      TEMPO 0008 7000
                      BECMG 0912 09010KT
                      PROB30 2124 8000=
200804210947 TAF EGLL 210947Z 211818 04012KT 9999 SCT040
                      TEMPO 0508 7000=
200804210422 TAF EGLL 210422Z 211212 05012KT 9999 SCT040
                      TEMPO 0508 8000=
200804202222 TAF EGLL 202222Z 210606 06013KT 7000 SCT040
                      TEMPO 0610 4000 SHRA BKN007
                      BECMG 1215 9999=
200804201608 TAF EGLL 201608Z 210024 06012KT 9999 SCT030
                      PROB30 TEMPO 0002 7000 SHRA BKN030CB
                      PROB30 TEMPO 0408 7000 BKN010=
200804201021 TAF EGLL 201021Z 201818 07012KT 9999 SCT030
                      PROB30 TEMPO 0308 6000 -RA BKN010=
200804200446 TAF EGLL 200446Z 201212 07013KT 9999 SCT030
                      PROB30 TEMPO 1218 7000 SHRA
                      PROB30 TEMPO 0308 5000 BKN010=
200804192246 TAF EGLL 192246Z 200606 07012KT 3000 BR BKN007
                      TEMPO 0608 1400 -DZ BKN003
                      BECMG 0912 9999 NSW SCT025
                      TEMPO 2006 5000 RA=
200804191554 TAF EGLL 191554Z 200024 07010KT 4000 BR BKN007
                      PROB40 TEMPO 0008 1400 BKN003
                      BECMG 0912 9999 NSW BKN020
                      PROB30 TEMPO 1423 7000 SHRA=
200804191021 TAF EGLL 191021Z 191818 07010KT 7000 -DZ BKN012
                      BECMG 1922 4000 BR BKN007
                      PROB40 TEMPO 2208 1400 BKN004
                      BECMG 0912 9999 NSW BKN020
                      TEMPO 1418 6000 SHRA=
200804190409 TAF EGLL 190409Z 191212 07014KT 7000 -RADZ BKN012
                      TEMPO 1219 3000 RADZ BKN008
                      BECMG 1922 3000 BR BKN007
                      TEMPO 2208 1400 BKN004
                      BECMG 0912 9999 NSW BKN020=
200804182222 TAF EGLL 182222Z 190606 07015KT 7000 -RADZ BKN014
                      TEMPO 0818 3000 RADZ BKN008
                      BECMG 1821 3000 BR BKN006
                      PROB40 TEMPO 2106 1400 BKN004=
200804181650 TAF EGLL 181650Z 190024 07015KT 7000 BKN030
                      PROB30 TEMPO 0007 BKN014
                      BECMG 0710 -RADZ BKN014
                      TEMPO 1024 3000 RADZ BKN007
                      PROB30 TEMPO 2024 1400 BR BKN004=
200804181600 TAF EGLL 181600Z NIL=
200804181049 TAF EGLL 181049Z 181818 08016KT 7000 BKN040
                      TEMPO 1806 9999
                      BECMG 0609 -RADZ BKN013
                      TEMPO 0918 4000 RADZ BKN008=
200804181000 TAF EGLL 181000Z NIL=
200804180405 TAF EGLL 180405Z 181212 08016KT 9999 BKN020
                      TEMPO 1219 08020G32KT
                      TEMPO 1216 8000 -RADZ BKN014
                      BECMG 0104 8000 -RA BKN014
                      TEMPO 0412 4000 RA BKN009=
200804172201 TAF EGLL 172201Z 180606 06014KT 9999 SCT020
                      PROB30 TEMPO 0608 9000 BKN014
                      TEMPO 0819 08020G32KT
                      TEMPO 1116 8000 -RADZ BKN014
                      BECMG 0205 8000 -RA BKN014=
200804171644 TAF EGLL 171644Z 180024 07015KT 9999 SCT030
                      PROB30 0608 8000 BKN014
                      TEMPO 0819 08018G30KT
                      TEMPO 1116 8000 -RADZ BKN014=
200804171046 TAF EGLL 171046Z 171818 07015KT 9999 SCT040
                      TEMPO 0318 0318 08017G30KT
                      PROB30 TEMPO 0308 BKN014
                      TEMPO 1016 7000 -RADZ BKN014=
200804170351 TAF EGLL 170351Z 171212 07012KT 9999 SCT040
                      TEMPO 1219 08017G28KT
                      TEMPO 0312 08018G30KT 6000 -RADZ BKN012=
200804162228 TAF EGLL 162228Z 170606 08012KT 9999 FEW030
                      TEMPO 0919 08017G28KT
                      TEMPO 0306 07017G28KT
                      PROB30 TEMPO 0406 9000 -RA BKN014=
200804162200 TAF EGLL 162200Z NIL=
200804161559 TAF EGLL 161559Z 170024 09010KT CAVOK
                      TEMPO 0919 08016G26KT=
200804161004 TAF EGLL 161004Z 161818 11010KT 9999 FEW045
                      TEMPO 0918 08016G26KT=
200804160405 TAF EGLL 160405Z 161212 10012KT 9999 SCT040
                      PROB30 TEMPO 1216 BKN030TCU
                      TEMPO 0812 08017G28KT=
200804152228 TAF EGLL 152228Z 160606 VRB05KT 9999 SCT040
                      TEMPO 0609 8000 BKN014
                      PROB30 TEMPO 0607 4000 BR
                      BECMG 0811 10010KT=
200804151628 TAF EGLL 151628Z 160024 VRB05KT 9999 BKN030
                      PROB30 TEMPO 0001 6000 SHRA BKN014
                      PROB40 0408 3000 BR
                      BECMG 0912 12010KT=
200804151012 TAF EGLL 151012Z 151818 VRB05KT 9999 SCT040
                      TEMPO 1902 7000 SHRA BKN025CB
                      PROB30 TEMPO 2001 4000 TSRA BKN014
                      PROB30 0408 4000 BR
                      BECMG 0912 14010KT=
200804150411 TAF EGLL 150411Z 151212 25010KT 9999 SCT040
                      TEMPO 1802 7000 SHRA BKN020CB
                      BECMG 2124 VRB05KT
                      TEMPO 0208 7000
                      PROB30 0407 3000 BR
                      PROB30 TEMPO 0912 7000 SHRA SCT025CB=
200804142215 TAF EGLL 142215Z 150606 27010KT 9999 SCT040
                      PROB30 TEMPO 0608 7000
                      TEMPO 1723 7000 SHRA BKN015CB
                      BECMG 0205 34005KT
                      TEMPO 0206 7000=
200804141630 TAF EGLL 141630Z 150024 34010KT 9999 SCT040
                      BECMG 0508 28010KT
                      PROB30 TEMPO 0508 7000
                      TEMPO 0824 22010KT
                      TEMPO 1723 7000 SHRA BKN015CB
                      PROB30 TEMPO 1721 3500 +SHRA TSRAGR=
200804141039 TAF EGLL 141039Z 141818 34010KT 9999 SCT035
                      TEMPO 1822 5000 SHRA BKN020CB
                      PROB30 TEMPO 1819 2500 +SHRAGS TSRAGS
                      BECMG 0104 28007KT
                      TEMPO 0409 7000
                      TEMPO 1218 22012KT
                      TEMPO 1618 7000 SHRA BKN015CB
                      PROB30 TEMPO 1618 3500 +SHRA TSRAGS=
200804140357 TAF EGLL 140357Z 141212 33010KT 9999 SCT030
                      TEMPO 1223 8000 SHRA SCT025CB
                      PROB30 TEMPO 1218 4500 TSRAGS BKN014 BKN020CB
                       PROB40
                      TEMPO 0307 6000
                      BECMG 0306 27005KT=
200804132207 TAF EGLL 132207Z 140606 33010KT 9999 SCT030
                      TEMPO 0608 6000 BKN014
                      TEMPO 0923 7000 SHRA SCT025CB
                      PROB30 TEMPO 1020 4000 TSRAGS BKN014 BKN020CB
                       TEMPO 0206 6000=
200804131659 TAF COR EGLL 131659Z 140024 32010KT 9999 SCT030
                      TEMPO 0009 BKN014
                      PROB40 TEMPO 0006 5000 -RADZ BKN008
                      TEMPO 0921 SCT025CB
                      PROB40 TEMPO 1021 4000 SHRA TSRAGS BKN020CB
                       TEMPO 2124 02010KT 6000 RADZ BKN012=
200804131605 TAF EGLL 131605Z 140024 32010KT 9999 SCT030
                      TEMPO 0009 BKN014
                      PROB40 TEMPO 0006 5000 -RADZ BKN008
                      TEMPO 0921 SCT025CB
                      PROB40 TEMPO 1021 1018 4000 SHRA TSRAGS BKN020CB
                       TEMPO 2124 02010KT 6000 RADZ BKN012=
200804131023 TAF EGLL 131023Z 131818 25008KT 9999 SCT030
                      BECMG 1821 32010KT
                      TEMPO 1822 SCT025CB
                      PROB30 TEMPO 1820 5000 SHRA BKN018CB
                      TEMPO 2307 4500 -RADZ BKN009
                      TEMPO 1018 5000 SHRA BKN020CB
                      PROB30 TEMPO 1118 3000 TSGR=
200804130426 TAF EGLL 130426Z 131212 22010KT 9999 SCT030
                      TEMPO 1219 6000 SHRA BKN025CB
                      PROB30 TEMPO 1218 4000 TSRAGS
                      BECMG 1821 33010KT
                      PROB30 TEMPO 0007 4500 -RADZ BKN009
                      PROB30 TEMPO 1012 6000 SHRA BKN020CB=
200804122207 TAF EGLL 122207Z 130606 19005KT 9999 SCT030
                      PROB30 0607 7000
                      TEMPO 1018 6000 SHRA BKN025CB
                      PROB30 TEMPO 1118 4000 TSRAGS
                      BECMG 1821 33010KT
                      PROB30 TEMPO 2206 4500 -RADZ BKN009=
200804121619 TAF EGLL 121619Z 130024 19005KT 9999 SCT030
                      PROB30 0407 7000
                      PROB30 TEMPO 0918 4000 SHRAGS BKN025CB
                      BECMG 1821 33010KT
                      PROB30 TEMPO 2224 4500 -RADZ BKN010=
200804121028 TAF EGLL 121028Z 121818 24012KT 9999 SCT030
                      PROB30 TEMPO 1820 24015G25KT 6000 SHRA BKN025CB
                       BECMG 0306 18005KT
                      PROB30 0407 7000
                      PROB30 TEMPO 0918 4000 SHRAGS BKN025CB=
200804120432 TAF EGLL 120432Z 121212 24012KT 9999 SCT030
                      TEMPO 1218 24015G25KT
                      PROB30 TEMPO 1218 4000 +SHRA TSGR BKN025CB
                       BECMG 0306 18005KT
                      PROB30 0407 7000
                      PROB30 TEMPO 0912 4000 +SHRAGS BKN025CB=
200804112211 TAF EGLL 112211Z 120606 24012KT 9999 SCT030
                      TEMPO 1019 24015G25KT
                      PROB40 TEMPO 1019 4000 +SHRA TSGR BKN025CB
                       BECMG 0306 18005KT
                      PROB30 0406 7000=
200804111546 TAF EGLL 111546Z 120024 24012KT 9999 SCT030
                      TEMPO 0003 22017G35KT 6000 SHRA BKN020CB
                       PROB30
                      TEMPO 0002 3500 +SHRAGS BKN014CB
                      TEMPO 1018 24015G25KT
                      PROB30 TEMPO 1018 4000 +SHRAGS BKN025CB=
200804111021 TAF EGLL 111021Z 111818 23013KT 9999 SCT030
                      TEMPO 2203 22017G33KT 6000 SHRA BKN020CB
                       PROB30
                      TEMPO 2302 3500 +SHRA TSGR BKN014CB
                      PROB40 TEMPO 1118 24015G25KT 4000 +SHRAGS
                       BKN025CB=
200804110446 TAF EGLL 110446Z 111212 21015KT 9999 SCT030
                      BECMG 1214 24018G28KT
                      TEMPO 1219 6000 SHRA BKN025CB
                      PROB40 TEMPO 1217 4000 +SHRA TSGR
                      BECMG 1720 24007KT
                      TEMPO 2201 22017G33KT 4000 +SHRA BKN014CB
                       PROB40
                      TEMPO 1012 4000 +SHRA TSGR BKN025CB=
200804102210 TAF EGLL 102210Z 110606 19005KT 9999 SCT030
                      BECMG 1114 24018G28KT
                      TEMPO 1119 6000 SHRA BKN025CB
                      PROB40 TEMPO 1217 4000 +SHRA TSGR
                      BECMG 1720 24007KT
                      PROB30 TEMPO 2201 22017G33KT 4000 +SHRA BKN014CB=
200804101630 TAF EGLL 101630Z 110024 19005KT 9999 SCT030
                      PROB40 TEMPO 0003 8000 -SHRA BKN012
                      TEMPO 1019 4000 SHRAGR BKN025CB
                      BECMG 1114 24018G28KT=
200804101033 TAF EGLL 101033Z 101818 19006KT 9999 SCT030
                      PROB40 TEMPO 0005 8000 -SHRA BKN012
                      TEMPO 1018 21015G25KT 4000 SHRAGR BKN025CB=
200804100432 TAF COR EGLL 100432Z 101212 21007KT 9999 SCT030
                      PROB40 TEMPO 2304 8000 -SHRA
                      PROB40 TEMPO 1012 21015G25KT 6000 SHRA SCT020CB=
200804092200 TAF EGLL 092200Z 100606 22007KT 9999 FEW030
                      PROB40 0608 8000
                      PROB40 TEMPO 2304 8000 -SHRA=
200804091636 TAF EGLL 091636Z 100024 25005KT 9999 FEW030
                      PROB40 0407 7000
                      PROB30 TEMPO 1119 8000 -SHRA=
200804091013 TAF EGLL 091013Z 091818 25005KT CAVOK
                      PROB40 0407 7000
                      PROB30 TEMPO 1118 8000 SHRA BKN040=
200804090707 TAF COR EGLL 090707Z 091212 23005KT CAVOK
                      TEMPO 0408 7000
                      PROB40 0507 4000 BR
                      PROB30 TEMPO 1012 SHRA=
200804090348 TAF EGLL 090348Z 091212 23005KT CAVOK
                      TEMPO 0408 7000
                      PROB40 0507 4000 BR
                      PROB30 TEMPO 1012 -SHRA=
200804082149 TAF EGLL 082149Z 090606 25006KT 9999 SCT040
                      PROB40 0608 7000
                      TEMPO 0406 7000=
200804081626 TAF EGLL 081626Z 090024 23005KT 9999 SCT035
                      TEMPO 0508 7000=
200804081034 TAF EGLL 081034Z 081818 23005KT 9999 FEW035
                      PROB30 TEMPO 1819 7000 SHRA SCT030CB
                      TEMPO 0508 7000=
200804080350 TAF EGLL 080350Z 081212 23007KT 9999 SCT045
                      TEMPO 1219 -SHRA BKN035CB
                      PROB40 TEMPO 1217 7000 SHRA
                      TEMPO 0408 7000=
200804072156 TAF EGLL 072156Z 080606 22006KT 9999 SCT035
                      PROB30 0608 6000
                      TEMPO 1019 -SHRA BKN030CB
                      PROB30 TEMPO 1217 6000 SHRA
                      TEMPO 0306 6000=
200804071635 TAF EGLL 071635Z 080024 23005KT 9999 SCT030
                      PROB40 0408 8000
                      PROB30 TEMPO 1319 6000 SHRA=
200804071032 TAF EGLL 071032Z 071818 23005KT 9999 SCT030
                      PROB30 TEMPO 1820 3000 SHRASN SCT020CB
                      PROB40 0408 8000
                      PROB30 TEMPO 1218 6000 SHRA=
200804070419 TAF EGLL 070419Z 071212 28010KT 9999 SCT035
                      TEMPO 1221 5000 SHRA -SHRASN SCT025CB
                      PROB30 TEMPO 1219 3000 +SHRA TSRASN BKN020CB
                       BECMG 1720 22006KT
                      BECMG 0004 8000
                      BECMG 0709 9999
                      PROB30 TEMPO 0912 5000 SHRA SCT020CB=
200804062244 TAF EGLL 062244Z 070606 28010KT 9999 SCT035
                      TEMPO 0921 5000 SHRA -SHRASN BKN020CB
                      PROB30 TEMPO 1012 2000 SHRASN SHGS BKN010
                       PROB30
                      TEMPO 1219 4000 +SHRA TSRASN
                      BECMG 1720 22006KT
                      BECMG 0004 8000=
200804061624 TAF EGLL 061624Z 070024 28010KT 9999 SCT035
                      TEMPO 0003 2500 -SN BKN008
                      TEMPO 0310 4000 BR -SN BKN012
                      TEMPO 1018 3000 SHRASN SHGS BKN020CB
                      PROB30 TEMPO 1118 TSRASN
                      BECMG 1720 22006KT=
200804061059 TAF EGLL 061059Z 061818 28010KT 9999 SCT035
                      TEMPO 1820 34010KT
                      TEMPO 2201 3000 -SN BKN010
                      PROB40 TEMPO 0509 4000 BR BKN008
                      TEMPO 0918 3000 SHRASN SHGR BKN020CB
                      PROB30 TEMPO 1118 TSRASN=
200804061000 TAF EGLL 061000Z NIL=
200804060433 TAF EGLL 060433Z 061212 35010KT 7000 -RASN BKN020
                      TEMPO 1214 2500 -SN BKN008
                      BECMG 1315 9999 NSW
                      BECMG 1518 29010KT
                      PROB30 TEMPO 1521 5000 SHRASN SCT030CB
                      PROB40 TEMPO 0712 3000 -SNSH SHRASN BKN010
                       BECMG 0912 VRB05KT=
200804052239 TAF EGLL 052239Z 060606 35010KT 7000 -RASN BKN020
                      BECMG 0608 2500 -SN BKN008
                      TEMPO 0711 0300 SN +RASN VV///
                      BECMG 1214 9999 NSW SCT040
                      PROB30 TEMPO 1521 FEW030CB
                      BECMG 1518 29010KT
                      PROB40 TEMPO 0106 3000 -SN RASN BKN010=
200804051630 TAF EGLL 051630Z 060024 35010KT 9999 SCT035
                      PROB30 TEMPO 0003 SCT025CB
                      BECMG 0306 2500 -SN BKN008
                      TEMPO 0612 0300 SN RASN VV///
                      BECMG 1216 CAVOK
                      PROB30 TEMPO 1621 3000 SHSN SHGS BKN025CB
                       BECMG 1518 29010KT
                      TEMPO 2124 3000 -SN BKN010=
200804051043 TAF EGLL 051043Z 051818 35010KT 9999 SCT035
                      TEMPO 1803 SCT025CB
                      PROB40 TEMPO 1822 7000 SHRA SHRAGS BKN020CB
                       BECMG 0205 2500 -SN BKN008
                      PROB40 TEMPO 0508 0300 SN VV///
                      BECMG 0811 CAVOK
                      PROB30 TEMPO 1118 3000 SHSN SHGR BKN030CB
                       BECMG 1518 29008KT=
200804050424 TAF EGLL 050424Z 051212 35010KT 9999 SCT030
                      TEMPO 1221 35015G25KT 7000 SHRA BKN020CB
                       PROB30
                      TEMPO 1217 3000 +SHRAGS
                      TEMPO 0207 5000 -RASN -SN BKN012
                      PROB40 TEMPO 0307 1500 SN BKN005=
200804042146 TAF EGLL 042146Z 050606 35010KT 9999 SCT030
                      TEMPO 1018 35015G25KT 7000 SHRA SCT020CB
                       PROB30
                      TEMPO 1218 3000 +SHRA
                      BECMG 0003 7000 -RASN BKN009
                      PROB40 TEMPO 0306 1500 SN BKN004=
200804041633 TAF EGLL 041633Z 050024 29008KT 9999 SCT030
                      PROB40 TEMPO 0104 7000 -RADZ BKN014
                      BECMG 0912 36010KT
                      TEMPO 0921 35013G25KT 5000 SHRA SCT020CB
                       PROB30
                      TEMPO 2124 4000 SHRASN BKN014=
200804041030 TAF EGLL 041030Z 041818 26008KT 9999 SCT030
                      PROB40 TEMPO 0104 7000 -RADZ BKN014
                      BECMG 0205 32012KT
                      TEMPO 0918 7000 SHRA
                      PROB30 TEMPO 1218 SCT020CB=
200804040351 TAF EGLL 040351Z 041212 26008KT 9999 SCT030
                      PROB40 TEMPO 1214 8000
                      PROB40 TEMPO 0104 7000 -RADZ BKN014
                      BECMG 0205 32012KT
                      TEMPO 0912 7000 SHRA=
200804032145 TAF EGLL 032145Z 040606 VRB05KT 8000 SCT030
                      PROB40 TEMPO 0609 4000 BR
                      PROB30 TEMPO 0609 BKN008
                      BECMG 1114 26010KT 9999
                      PROB40 TEMPO 0003 7000 -RADZ BKN014
                      BECMG 0205 32010KT=
200804031601 TAF EGLL 031601Z 040024 VRB04KT 9000 SCT030
                      PROB40 TEMPO 0209 3000 BR BKN008
                      BECMG 1114 24010KT 9999=
200804031154 TAF EGLL 031154Z 031818 35004KT 9999 SCT030
                      BECMG 2124 6000
                      PROB40 TEMPO 0209 3000 BR BKN008
                      BECMG 1114 9999=
200804030405 TAF EGLL 030405Z 031212 32007KT 9999 BKN030
                      BECMG 2124 6000
                      PROB40 TEMPO 0208 3000 BR
                      BECMG 0912 9999=
200804022213 TAF EGLL 022213Z 030606 32006KT 7000 BKN030
                      TEMPO 0610 BKN012
                      PROB30 TEMPO 0608 3000 BR -DZ BKN006
                      BECMG 0609 9999
                      BECMG 2124 7000
                      PROB30 TEMPO 0206 3000 BR=
200804021607 TAF EGLL 021607Z 030024 29008KT 7000 BKN030
                      TEMPO 0210 BKN012
                      PROB30 TEMPO 0309 3000 BR -DZ BKN006
                      BECMG 0811 9999
                      BECMG 2023 7000=
200804020945 TAF EGLL 020945Z 021818 29008KT 9999 SCT035
                      PROB40 TEMPO 1821 8000 -SHRA
                      PROB30 TEMPO 1821 BKN014
                      BECMG 2124 7000
                      TEMPO 0210 BKN012
                      PROB30 TEMPO 0309 3000 BR -DZ BKN006
                      BECMG 0811 9999=
200804020351 TAF EGLL 020351Z 021212 29008KT 9999 BKN025
                      PROB30 TEMPO 1621 8000 -SHRA BKN014
                      TEMPO 2109 7000 -RA BKN012=
200804012233 TAF EGLL 012233Z 020606 28008KT 9999 SCT040
                      PROB30 TEMPO 1421 8000 -SHRA
                      PROB30 TEMPO 2106 8000 -RA BKN014=
200804011600 TAF EGLL 011600Z 020024 28012KT 9999 SCT040
                      PROB30 TEMPO 1418 8000 SHRA
                      PROB30 2124 8000=
200804010953 TAF EGLL 010953Z 011818 26013KT 9999 SCT040
                      PROB40 TEMPO 0610 6000 -RA BKN012
                      BECMG 1518 32010KT=
200804010404 TAF EGLL 010404Z 011212 27015KT 9999 SCT045
                      TEMPO 1219 27018G30KT
                      TEMPO 0711 6000 -RA BKN012
                      PROB40 TEMPO 0712 27005KT=
