##########################################################
# Query made at 12/24/2012 14:11:22 UTC
# Time interval: from 04/01/2011 00:00  to 05/01/2011 23:59  UTC
##########################################################

##########################################################
# EGLL, London / Heathrow Airport (United Kingdom)
# WMO index: 03772
# Latitude 51-29N. Longitude 000-27W. Altitude 24 m.
##########################################################

###################################
#  METAR/SPECI from EGLL
###################################
201104302350 METAR COR EGLL 302350Z 06011KT CAVOK 13/06 Q1009 NOSIG=
201104302320 METAR COR EGLL 302320Z 06009KT CAVOK 13/06 Q1009 NOSIG=
201104302250 METAR COR EGLL 302250Z 06009KT CAVOK 13/06 Q1009 NOSIG=
201104302220 METAR COR EGLL 302220Z 06011KT CAVOK 14/07 Q1009 NOSIG=
201104302150 METAR COR EGLL 302150Z 06011KT CAVOK 14/07 Q1009 NOSIG=
201104302120 METAR COR EGLL 302120Z 06011KT CAVOK 14/07 Q1009 NOSIG=
201104302050 METAR COR EGLL 302050Z 06011KT CAVOK 15/07 Q1009 NOSIG=
201104302020 METAR COR EGLL 302020Z 06010KT CAVOK 15/06 Q1008 NOSIG=
201104301950 METAR COR EGLL 301950Z 06010KT CAVOK 16/07 Q1008 NOSIG=
201104301920 METAR COR EGLL 301920Z 06011KT CAVOK 16/07 Q1008 NOSIG=
201104301850 METAR COR EGLL 301850Z 06011KT CAVOK 17/07 Q1008 NOSIG=
201104301820 METAR COR EGLL 301820Z 07012KT CAVOK 18/07 Q1008 NOSIG=
201104301750 METAR COR EGLL 301750Z 08013KT CAVOK 18/06 Q1008 NOSIG=
201104301720 METAR COR EGLL 301720Z 08015KT CAVOK 18/06 Q1008 NOSIG=
201104301650 METAR COR EGLL 301650Z 08018KT CAVOK 19/07 Q1008 NOSIG=
201104301620 METAR COR EGLL 301620Z 09013KT CAVOK 19/07 Q1008 NOSIG=
201104301550 METAR COR EGLL 301550Z 09014KT 040V110 CAVOK 20/07 Q1008
                        NOSIG=
201104301520 METAR COR EGLL 301520Z 07014KT CAVOK 20/07 Q1008 NOSIG=
201104301450 METAR COR EGLL 301450Z 08015KT CAVOK 21/07 Q1008 NOSIG=
201104301420 METAR COR EGLL 301420Z 07016KT CAVOK 21/07 Q1008 NOSIG=
201104301350 METAR COR EGLL 301350Z 07015KT CAVOK 21/07 Q1008 NOSIG=
201104301320 METAR COR EGLL 301320Z 07013KT CAVOK 20/07 Q1008 NOSIG=
201104301250 METAR COR EGLL 301250Z 07015KT CAVOK 20/07 Q1008 NOSIG=
201104301220 METAR COR EGLL 301220Z 07014KT CAVOK 20/07 Q1009 NOSIG=
201104301150 METAR COR EGLL 301150Z 06014KT CAVOK 19/07 Q1009 NOSIG=
201104301120 METAR COR EGLL 301120Z 07013KT CAVOK 19/08 Q1009 NOSIG=
201104301050 METAR COR EGLL 301050Z 07012KT CAVOK 18/08 Q1009 NOSIG=
201104301020 METAR COR EGLL 301020Z 07014KT CAVOK 18/08 Q1009 NOSIG=
201104300950 METAR COR EGLL 300950Z 07012KT CAVOK 17/08 Q1009 NOSIG=
201104300920 METAR COR EGLL 300920Z 08014KT 040V100 CAVOK 17/08 Q1009
                        NOSIG=
201104300850 METAR COR EGLL 300850Z 07013KT 040V110 CAVOK 16/08 Q1009
                        NOSIG=
201104300820 METAR COR EGLL 300820Z 07012KT CAVOK 15/08 Q1009 NOSIG=
201104300750 METAR COR EGLL 300750Z 07012KT CAVOK 14/08 Q1009 NOSIG=
201104300720 METAR COR EGLL 300720Z 06011KT CAVOK 14/08 Q1009 NOSIG=
201104300650 METAR COR EGLL 300650Z 06011KT CAVOK 13/08 Q1009 NOSIG=
201104300620 METAR COR EGLL 300620Z 06010KT 9999 NSC 13/09 Q1009 NOSIG=
201104300550 METAR COR EGLL 300550Z 06009KT 9000 NSC 12/09 Q1009 NOSIG=
201104300520 METAR COR EGLL 300520Z 05007KT 9000 NSC 12/09 Q1009 NOSIG=
201104300450 METAR COR EGLL 300450Z 05006KT 010V070 8000 NSC 12/09 Q1009
                        NOSIG=
201104300420 METAR COR EGLL 300420Z 05007KT 8000 NSC 12/09 Q1009 NOSIG=
201104300350 METAR COR EGLL 300350Z 06008KT CAVOK 12/09 Q1009 NOSIG=
201104300320 METAR COR EGLL 300320Z 06007KT CAVOK 12/09 Q1009 NOSIG=
201104300250 METAR COR EGLL 300250Z 06006KT 9000 NSC 12/09 Q1009 NOSIG=
201104300220 METAR COR EGLL 300220Z 05006KT 9000 NSC 12/09 Q1009 NOSIG=
201104300150 METAR COR EGLL 300150Z 05007KT 020V080 9000 NSC 12/09 Q1009
                        NOSIG=
201104300120 METAR EGLL 300120Z AUTO 05007KT 8000NDV NCD 12/09 Q1010=
201104300050 METAR EGLL 300050Z AUTO 04006KT 7000NDV NCD 11/09 Q1010=
201104300020 METAR EGLL 300020Z AUTO 03006KT 350V050 7000NDV NCD 11/09
                        Q1010=
201104292350 METAR COR EGLL 292350Z 01006KT 340V060 7000 NSC 12/09 Q1010
                        NOSIG=
201104292320 METAR COR EGLL 292320Z 02004KT 340V050 8000 NSC 12/09 Q1010
                        NOSIG=
201104292250 METAR COR EGLL 292250Z 05004KT 360V080 8000 NSC 12/09 Q1011
                        NOSIG=
201104292220 METAR COR EGLL 292220Z 02005KT 340V050 9000 NSC 13/09 Q1010
                        NOSIG=
201104292150 METAR COR EGLL 292150Z 05007KT 010V080 9000 NSC 13/09 Q1010
                        NOSIG=
201104292120 METAR COR EGLL 292120Z 05008KT CAVOK 14/09 Q1010 NOSIG=
201104292050 METAR COR EGLL 292050Z 04009KT CAVOK 15/09 Q1010 NOSIG=
201104292020 METAR COR EGLL 292020Z 04008KT 010V080 CAVOK 15/09 Q1010
                        NOSIG=
201104291950 METAR COR EGLL 291950Z 04008KT 010V080 CAVOK 16/09 Q1010
                        NOSIG=
201104291920 METAR COR EGLL 291920Z 04007KT 360V070 CAVOK 16/09 Q1010
                        NOSIG=
201104291850 METAR COR EGLL 291850Z 07014KT CAVOK 18/09 Q1010 NOSIG=
201104291820 METAR COR EGLL 291820Z 05009KT CAVOK 19/09 Q1009 NOSIG=
201104291750 METAR COR EGLL 291750Z 06012KT CAVOK 19/10 Q1009 NOSIG=
201104291720 METAR COR EGLL 291720Z 06010KT CAVOK 20/09 Q1009 NOSIG=
201104291650 METAR COR EGLL 291650Z 04009KT 010V080 9999 FEW040 20/10
                        Q1009 NOSIG=
201104291620 METAR COR EGLL 291620Z 05009KT 010V080 9999 FEW040 20/10
                        Q1009 NOSIG=
201104291550 METAR COR EGLL 291550Z 07009KT 9999 FEW041 20/10 Q1010 NOSIG=
201104291520 METAR COR EGLL 291520Z 06011KT 9999 SCT034 SCT039 20/11 Q1010
                        NOSIG=
201104291450 METAR COR EGLL 291450Z 04008KT 360V070 8000 BKN030 19/11
                        Q1010 NOSIG=
201104291420 METAR COR EGLL 291420Z 03007KT 010V070 8000 BKN031 19/11
                        Q1011 NOSIG=
201104291350 METAR COR EGLL 291350Z 05009KT 020V090 8000 SCT029 18/11
                        Q1011 NOSIG=
201104291320 METAR COR EGLL 291320Z 06010KT 020V090 7000 SCT025 BKN032
                        18/11 Q1012 NOSIG=
201104291250 METAR COR EGLL 291250Z 04007KT 010V080 7000 SCT022 BKN026
                        17/11 Q1012 NOSIG=
201104291220 METAR COR EGLL 291220Z 05006KT 350V080 7000 BKN021 17/11
                        Q1012 NOSIG=
201104291150 METAR COR EGLL 291150Z 03008KT 360V060 7000 BKN020 16/11
                        Q1012 NOSIG=
201104291120 METAR COR EGLL 291120Z VRB07KT 6000 BKN016 16/10 Q1013 NOSIG=
201104291050 METAR COR EGLL 291050Z 04007KT 010V090 6000 BKN015 14/10
                        Q1013 NOSIG=
201104291020 METAR COR EGLL 291020Z 03005KT 330V070 7000 BKN016 14/10
                        Q1013 NOSIG=
201104290950 METAR COR EGLL 290950Z 03006KT 360V070 7000 BKN014 13/09
                        Q1013 BECMG SCT018=
201104290920 METAR COR EGLL 290920Z 04007KT 360V070 7000 BKN014 13/09
                        Q1013 BECMG SCT018=
201104290850 METAR COR EGLL 290850Z 04005KT 360V080 7000 BKN014 12/09
                        Q1014 BECMG SCT018=
201104290820 METAR COR EGLL 290820Z 05007KT 7000 BKN014 12/09 Q1014 BECMG
                        SCT018=
201104290750 METAR COR EGLL 290750Z 03007KT 350V060 7000 BKN012 12/09
                        Q1014 NOSIG=
201104290720 METAR COR EGLL 290720Z 03005KT 340V050 6000 BKN011 11/08
                        Q1014 NOSIG=
201104290650 METAR COR EGLL 290650Z 03006KT 350V070 7000 BKN010 11/08
                        Q1014 NOSIG=
201104290620 METAR COR EGLL 290620Z 03006KT 350V070 7000 BKN009 11/08
                        Q1014 BECMG BKN012=
201104290550 METAR COR EGLL 290550Z 02005KT 320V060 7000 BKN010 10/08
                        Q1014 TEMPO BKN008=
201104290520 METAR COR EGLL 290520Z 01004KT 330V050 7000 BKN010 SCT030
                        10/08 Q1014 TEMPO BKN008=
201104290450 METAR COR EGLL 290450Z 01004KT 340V060 7000 OVC010 10/07
                        Q1014 TEMPO BKN008=
201104290420 METAR COR EGLL 290420Z 02004KT 330V060 7000 BKN011 10/07
                        Q1014 NOSIG=
201104290350 METAR COR EGLL 290350Z 03004KT 340V100 8000 BKN012 10/07
                        Q1014 NOSIG=
201104290320 METAR EGLL 290320Z AUTO 02006KT 350V060 8000NDV BKN013///
                        10/07 Q1014=
201104290250 METAR COR EGLL 290250Z 04005KT 350V070 9000 BKN013 10/07
                        Q1014 NOSIG=
201104290220 METAR COR EGLL 290220Z 02006KT 330V060 9000 BKN012 10/07
                        Q1015 NOSIG=
201104290150 METAR COR EGLL 290150Z 04006KT 010V080 7000 OVC013 10/07
                        Q1015 NOSIG=
201104290120 METAR EGLL 290120Z AUTO 03006KT 350V070 9000NDV BKN014///
                        10/07 Q1015=
201104290050 METAR EGLL 290050Z AUTO 02006KT 330V050 9000NDV BKN015///
                        11/07 Q1015=
201104290020 METAR EGLL 290020Z AUTO 03008KT 360V060 9999NDV OVC015///
                        11/07 Q1015=
201104282350 METAR COR EGLL 282350Z 04007KT 010V080 9999 OVC014 11/07
                        Q1016 NOSIG=
201104282320 METAR COR EGLL 282320Z 04006KT 360V070 9999 OVC014 11/07
                        Q1016 NOSIG=
201104282250 METAR COR EGLL 282250Z 04006KT 320V080 9999 OVC016 11/07
                        Q1016 TEMPO BKN014=
201104282220 METAR COR EGLL 282220Z 04008KT 010V070 9999 BKN017 11/07
                        Q1016 TEMPO BKN014=
201104282150 METAR COR EGLL 282150Z 04009KT 9999 BKN020 11/07 Q1017 TEMPO
                        BKN014=
201104282120 METAR COR EGLL 282120Z 03007KT 350V070 9999 BKN020 11/07
                        Q1017 NOSIG=
201104282050 METAR COR EGLL 282050Z 04009KT 350V060 9999 BKN019 11/07
                        Q1016 NOSIG=
201104282020 METAR COR EGLL 282020Z 04009KT 350V070 9999 BKN020 12/07
                        Q1016 NOSIG=
201104281950 METAR COR EGLL 281950Z 01009KT 350V060 9999 SCT022 12/07
                        Q1016 NOSIG=
201104281920 METAR COR EGLL 281920Z 03009KT 340V050 9999 FEW024 13/07
                        Q1016 NOSIG=
201104281850 METAR COR EGLL 281850Z 03009KT 350V070 CAVOK 14/07 Q1016
                        NOSIG=
201104281820 METAR COR EGLL 281820Z 03009KT 9999 FEW031 14/07 Q1016 NOSIG=
201104281750 METAR COR EGLL 281750Z 03009KT 9999 FEW031 15/07 Q1016 NOSIG=
201104281720 METAR COR EGLL 281720Z 03008KT 340V060 9999 FEW032 16/08
                        Q1016 NOSIG=
201104281650 METAR COR EGLL 281650Z 03008KT 9999 SCT031 16/08 Q1016 NOSIG=
201104281620 METAR COR EGLL 281620Z 02011KT 350V080 9999 BKN031 16/07
                        Q1016 NOSIG=
201104281550 METAR COR EGLL 281550Z 04010KT 360V080 9999 FEW030 16/08
                        Q1017 NOSIG=
201104281520 METAR COR EGLL 281520Z 04010KT 360V070 9999 FEW030 17/08
                        Q1017 NOSIG=
201104281450 METAR COR EGLL 281450Z 03011KT 360V070 9999 FEW030 16/08
                        Q1017 NOSIG=
201104281420 METAR COR EGLL 281420Z 03011KT 360V070 9999 SCT032 16/07
                        Q1017 NOSIG=
201104281350 METAR COR EGLL 281350Z 01010KT 340V050 9999 FEW033 17/07
                        Q1018 NOSIG=
201104281320 METAR COR EGLL 281320Z 03009G19KT 340V070 9999 FEW044 16/07
                        Q1018 NOSIG=
201104281250 METAR COR EGLL 281250Z 03010KT 340V070 9999 FEW044 16/07
                        Q1018 NOSIG=
201104281220 METAR COR EGLL 281220Z 02009KT 330V070 9999 FEW036 16/07
                        Q1018 NOSIG=
201104281150 METAR COR EGLL 281150Z 01009KT 330V050 9999 FEW027 14/07
                        Q1019 NOSIG=
201104281120 METAR COR EGLL 281120Z 02009KT 340V070 9999 SCT024 14/06
                        Q1019 NOSIG=
201104281050 METAR COR EGLL 281050Z 02009KT 340V060 9999 SCT022 13/06
                        Q1020 NOSIG=
201104281020 METAR COR EGLL 281020Z 01008KT 320V050 9999 SCT019 12/06
                        Q1020 NOSIG=
201104280950 METAR COR EGLL 280950Z 01009KT 340V050 9999 BKN019 10/05
                        Q1020 NOSIG=
201104280920 METAR COR EGLL 280920Z 01009KT 340V040 9999 BKN015 10/05
                        Q1021 NOSIG=
201104280850 METAR COR EGLL 280850Z 01008KT 330V040 9999 BKN014 09/05
                        Q1021 BECMG SCT014=
201104280820 METAR COR EGLL 280820Z 02007KT 340V070 9999 OVC014 09/05
                        Q1021 BECMG SCT014=
201104280750 METAR COR EGLL 280750Z 01008KT 330V050 9999 OVC014 08/05
                        Q1021 BECMG SCT014=
201104280720 METAR COR EGLL 280720Z 03008KT 330V070 9999 OVC014 08/05
                        Q1021 NOSIG=
201104280650 METAR COR EGLL 280650Z 01008KT 340V060 9999 OVC014 08/04
                        Q1022 TEMPO BKN015=
201104280620 METAR COR EGLL 280620Z 02008KT 340V050 9999 OVC014 08/04
                        Q1022 TEMPO BKN015=
201104280550 METAR COR EGLL 280550Z 02006KT 350V050 9999 OVC013 07/04
                        Q1022 NOSIG=
201104280520 METAR COR EGLL 280520Z 02007KT 330V060 9999 BKN012 07/04
                        Q1022 NOSIG=
201104280450 METAR COR EGLL 280450Z 01008KT 340V060 9999 BKN013 07/04
                        Q1022 NOSIG=
201104280420 METAR COR EGLL 280420Z 02007KT 340V080 9999 BKN013 07/04
                        Q1022 NOSIG=
201104280350 METAR COR EGLL 280350Z 02007KT 340V060 9000 BKN012 07/04
                        Q1022 NOSIG=
201104280320 METAR COR EGLL 280320Z 03009KT 360V060 9000 BKN012 07/04
                        Q1022 NOSIG=
201104280250 METAR EGLL 280250Z AUTO 03005KT 340V130 9000NDV FEW012///
                        06/04 Q1022=
201104280220 METAR COR EGLL 280220Z 02004KT 330V070 CAVOK 06/04 Q1022
                        BECMG BKN010=
201104280150 METAR COR EGLL 280150Z 01007KT 320V050 CAVOK 06/04 Q1023
                        NOSIG=
201104280120 METAR EGLL 280120Z AUTO 01006KT 320V080 9999NDV NCD 06/04
                        Q1023=
201104280050 METAR EGLL 280050Z AUTO 02006KT 340V060 9999NDV NCD 06/04
                        Q1023=
201104280020 METAR EGLL 280020Z AUTO 01007KT 340V050 9999NDV NCD 07/04
                        Q1024=
201104272350 METAR COR EGLL 272350Z 02007KT 330V060 CAVOK 07/04 Q1024
                        NOSIG=
201104272320 METAR COR EGLL 272320Z 02006KT 340V060 CAVOK 07/04 Q1024
                        NOSIG=
201104272250 METAR COR EGLL 272250Z 03009KT 360V060 CAVOK 07/04 Q1025
                        NOSIG=
201104272220 METAR COR EGLL 272220Z 03006KT 330V060 CAVOK 08/04 Q1025
                        NOSIG=
201104272150 METAR COR EGLL 272150Z 02007KT 350V060 CAVOK 08/04 Q1025
                        NOSIG=
201104272120 METAR COR EGLL 272120Z 03007KT 360V060 CAVOK 09/03 Q1025
                        NOSIG=
201104272050 METAR COR EGLL 272050Z 03008KT 360V070 CAVOK 10/02 Q1025
                        NOSIG=
201104272020 METAR COR EGLL 272020Z 01006KT 340V050 CAVOK 10/01 Q1025
                        NOSIG=
201104271950 METAR COR EGLL 271950Z 02007KT 340V050 CAVOK 11/01 Q1024
                        NOSIG=
201104271920 METAR COR EGLL 271920Z 01007KT 340V050 CAVOK 12/01 Q1024
                        NOSIG=
201104271850 METAR EGLL 271850Z AUTO 02007KT 350V050 9999NDV NCD 13/01
                        Q1024=
201104271820 METAR COR EGLL 271820Z 03009KT 340V050 CAVOK 14/02 Q1024
                        NOSIG=
201104271750 METAR COR EGLL 271750Z 04009KT 010V070 CAVOK 14/02 Q1024
                        NOSIG=
201104271720 METAR COR EGLL 271720Z 03010KT 340V060 CAVOK 15/02 Q1024
                        NOSIG=
201104271650 METAR COR EGLL 271650Z 01009KT 330V050 CAVOK 16/02 Q1024
                        NOSIG=
201104271620 METAR EGLL 271620Z AUTO 03010KT 350V070 9999NDV NCD 16/01
                        Q1024=
201104271550 METAR COR EGLL 271550Z 02009KT 340V060 CAVOK 17/01 Q1024
                        NOSIG=
201104271520 METAR COR EGLL 271520Z 02009KT 340V060 CAVOK 16/01 Q1024
                        NOSIG=
201104271450 METAR COR EGLL 271450Z 02009KT 330V060 CAVOK 17/01 Q1024
                        NOSIG=
201104271420 METAR COR EGLL 271420Z 05010KT 010V090 CAVOK 17/02 Q1024
                        NOSIG=
201104271350 METAR COR EGLL 271350Z 05010KT 360V080 CAVOK 17/02 Q1025
                        NOSIG=
201104271320 METAR COR EGLL 271320Z 04010KT 360V080 CAVOK 17/02 Q1025
                        NOSIG=
201104271250 METAR COR EGLL 271250Z 06011KT CAVOK 16/01 Q1025 NOSIG=
201104271220 METAR COR EGLL 271220Z 04009KT CAVOK 16/01 Q1025 NOSIG=
201104271150 METAR COR EGLL 271150Z 05009KT 020V080 CAVOK 16/03 Q1025
                        NOSIG=
201104271120 METAR COR EGLL 271120Z 04010KT 340V080 CAVOK 15/04 Q1026
                        NOSIG=
201104271050 METAR COR EGLL 271050Z 04009KT 350V080 CAVOK 14/03 Q1026
                        NOSIG=
201104271020 METAR COR EGLL 271020Z 04009KT 360V080 CAVOK 14/04 Q1026
                        NOSIG=
201104270950 METAR COR EGLL 270950Z 04008KT 350V080 CAVOK 13/04 Q1026
                        NOSIG=
201104270920 METAR COR EGLL 270920Z 03008KT 360V070 CAVOK 12/04 Q1026
                        NOSIG=
201104270850 METAR COR EGLL 270850Z 04009KT 360V070 9999 FEW032 12/05
                        Q1026 NOSIG=
201104270820 METAR COR EGLL 270820Z 04007KT 340V090 9999 FEW024 11/04
                        Q1026 NOSIG=
201104270750 METAR COR EGLL 270750Z 04008KT 350V090 9999 FEW024 11/05
                        Q1026 NOSIG=
201104270720 METAR COR EGLL 270720Z 04008KT 9999 FEW020 10/04 Q1026 NOSIG=
201104270650 METAR EGLL 270650Z 05007KT 010V080 9999 FEW020 10/05 Q1026=
201104270620 METAR COR EGLL 270620Z 05006KT 010V080 CAVOK 09/05 Q1026
                        NOSIG=
201104270550 METAR COR EGLL 270550Z 03006KT 340V070 CAVOK 09/05 Q1026
                        NOSIG=
201104270520 METAR COR EGLL 270520Z 03006KT 350V060 CAVOK 09/05 Q1026
                        NOSIG=
201104270450 METAR COR EGLL 270450Z 03006KT 350V070 CAVOK 09/05 Q1026
                        NOSIG=
201104270420 METAR COR EGLL 270420Z 03005KT 350V060 CAVOK 09/05 Q1026
                        NOSIG=
201104270350 METAR COR EGLL 270350Z 03008KT 350V060 CAVOK 09/05 Q1026
                        NOSIG=
201104270320 METAR COR EGLL 270320Z 03006KT 340V050 CAVOK 09/05 Q1026
                        NOSIG=
201104270250 METAR COR EGLL 270250Z 04007KT 350V070 CAVOK 09/05 Q1026
                        NOSIG=
201104270220 METAR COR EGLL 270220Z 05006KT 360V100 9999 -RA NSC 09/05
                        Q1026 NOSIG=
201104270150 METAR COR EGLL 270150Z 04006KT CAVOK 09/05 Q1026 NOSIG=
201104270120 METAR EGLL 270120Z AUTO 04008KT 010V070 9999NDV NCD 09/05
                        Q1026=
201104270050 METAR EGLL 270050Z AUTO 04006KT 010V080 9999NDV NCD 10/04
                        Q1026=
201104270020 METAR EGLL 270020Z AUTO 05007KT 010V090 9999NDV NCD 10/05
                        Q1026=
201104262350 METAR COR EGLL 262350Z 05007KT 360V080 CAVOK 10/05 Q1026
                        NOSIG=
201104262320 METAR COR EGLL 262320Z 05006KT 020V080 CAVOK 10/05 Q1026
                        NOSIG=
201104262250 METAR COR EGLL 262250Z 05007KT 020V080 CAVOK 10/06 Q1026
                        NOSIG=
201104262220 METAR COR EGLL 262220Z 04007KT 360V080 CAVOK 11/06 Q1026
                        NOSIG=
201104262150 METAR COR EGLL 262150Z 04008KT 360V070 CAVOK 11/06 Q1026
                        NOSIG=
201104262120 METAR COR EGLL 262120Z 03008KT 350V070 CAVOK 12/06 Q1025
                        NOSIG=
201104262050 METAR COR EGLL 262050Z 04007KT 010V070 CAVOK 12/07 Q1025
                        NOSIG=
201104262020 METAR COR EGLL 262020Z 04009KT 010V070 CAVOK 12/07 Q1025
                        NOSIG=
201104261950 METAR COR EGLL 261950Z 04007KT 010V080 9999 FEW030 13/08
                        Q1025 NOSIG=
201104261920 METAR COR EGLL 261920Z 02007KT 340V060 9999 BKN030 13/08
                        Q1025 NOSIG=
201104261850 METAR COR EGLL 261850Z 02008KT 340V060 9999 BKN028 14/08
                        Q1024 NOSIG=
201104261820 METAR EGLL 261820Z AUTO 01008KT 330V050 9999NDV BKN028///
                        14/08 Q1024=
201104261750 METAR COR EGLL 261750Z 01007KT 320V040 9999 SCT030 15/08
                        Q1024 NOSIG=
201104261720 METAR COR EGLL 261720Z 03007KT 340V080 CAVOK 15/08 Q1024
                        NOSIG=
201104261650 METAR COR EGLL 261650Z 02007KT 330V060 9999 FEW030 15/08
                        Q1024 NOSIG=
201104261620 METAR EGLL 261620Z AUTO 36009KT 340V040 9999NDV SCT028///
                        16/08 Q1024=
201104261550 METAR COR EGLL 261550Z 01009KT 330V050 9999 FEW030 16/08
                        Q1024 NOSIG=
201104261520 METAR COR EGLL 261520Z 02007KT 340V060 CAVOK 16/08 Q1024
                        NOSIG=
201104261450 METAR COR EGLL 261450Z 36006KT 320V050 CAVOK 15/08 Q1025
                        NOSIG=
201104261420 METAR COR EGLL 261420Z 36008KT 330V050 9999 SCT020 14/08
                        Q1025 NOSIG=
201104261350 METAR COR EGLL 261350Z 01008KT 340V050 9999 BKN020 14/08
                        Q1025 NOSIG=
201104261320 METAR COR EGLL 261320Z 36008KT 330V030 9999 BKN020 13/07
                        Q1025 NOSIG=
201104261250 METAR COR EGLL 261250Z 01009KT 350V060 9999 BKN019 13/07
                        Q1026 NOSIG=
201104261220 METAR COR EGLL 261220Z 04009KT 010V080 9999 BKN022 14/07
                        Q1026 NOSIG=
201104261150 METAR COR EGLL 261150Z 05009KT 020V080 9999 BKN022 14/07
                        Q1026 NOSIG=
201104261120 METAR COR EGLL 261120Z 03009KT 9999 BKN022 13/07 Q1026 NOSIG=
201104261050 METAR COR EGLL 261050Z 02008KT 340V060 9999 BKN020 12/07
                        Q1026 NOSIG=
201104261020 METAR COR EGLL 261020Z 01008KT 310V060 9999 BKN019 13/07
                        Q1026 NOSIG=
201104260950 METAR COR EGLL 260950Z 04008KT 010V070 9999 BKN017 12/07
                        Q1026 NOSIG=
201104260920 METAR COR EGLL 260920Z 03008KT 350V070 9999 BKN017 11/07
                        Q1026 NOSIG=
201104260850 METAR COR EGLL 260850Z 02008KT 350V060 9999 BKN016 11/06
                        Q1026 NOSIG=
201104260820 METAR COR EGLL 260820Z 02008KT 340V050 9999 OVC015 10/06
                        Q1026 NOSIG=
201104260750 METAR COR EGLL 260750Z 02008KT 340V050 9999 OVC014 10/06
                        Q1026 BECMG BKN020=
201104260720 METAR COR EGLL 260720Z 02008KT 350V060 9999 OVC013 10/06
                        Q1026 BECMG BKN018=
201104260650 METAR COR EGLL 260650Z 03007KT 350V060 9999 OVC015 10/06
                        Q1026 TEMPO BKN014=
201104260620 METAR COR EGLL 260620Z 03008KT 350V060 9999 OVC012 09/06
                        Q1026 NOSIG=
201104260550 METAR COR EGLL 260550Z 03006KT 340V060 9999 OVC012 09/06
                        Q1026 NOSIG=
201104260520 METAR COR EGLL 260520Z 02005KT 340V060 9999 BKN013 08/06
                        Q1025 TEMPO SCT013=
201104260450 METAR COR EGLL 260450Z 03006KT 330V070 9999 SCT013 08/06
                        Q1025 TEMPO BKN012=
201104260420 METAR COR EGLL 260420Z 02006KT 340V060 9999 SCT014 08/06
                        Q1025 BECMG BKN012=
201104260350 METAR COR EGLL 260350Z 03005KT 350V060 9999 FEW013 09/06
                        Q1025 BECMG BKN012=
201104260320 METAR COR EGLL 260320Z 02005KT 330V060 9999 FEW012 09/06
                        Q1025 BECMG BKN012=
201104260250 METAR COR EGLL 260250Z 02005KT 320V060 9999 FEW016 09/07
                        Q1025 TEMPO BKN012=
201104260220 METAR COR EGLL 260220Z 03007KT 360V060 CAVOK 09/07 Q1025
                        TEMPO BKN012=
201104260150 METAR COR EGLL 260150Z 03006KT 350V060 CAVOK 09/07 Q1025
                        TEMPO BKN012=
201104260120 METAR COR EGLL 260120Z 03005KT CAVOK 09/07 Q1025 TEMPO BKN012=
201104260050 METAR COR EGLL 260050Z 03006KT 360V060 CAVOK 10/07 Q1025
                        NOSIG=
201104260020 METAR COR EGLL 260020Z 02006KT 330V060 CAVOK 10/07 Q1025
                        NOSIG=
201104252350 METAR COR EGLL 252350Z 04005KT 360V060 CAVOK 11/07 Q1025
                        NOSIG=
201104252320 METAR COR EGLL 252320Z 04007KT 010V080 CAVOK 11/07 Q1025
                        NOSIG=
201104252250 METAR COR EGLL 252250Z 04007KT 010V090 CAVOK 11/07 Q1025
                        NOSIG=
201104252220 METAR COR EGLL 252220Z 04008KT 360V070 CAVOK 12/07 Q1025
                        NOSIG=
201104252150 METAR COR EGLL 252150Z 05006KT 010V080 CAVOK 12/07 Q1025
                        NOSIG=
201104252120 METAR COR EGLL 252120Z 04007KT 360V070 CAVOK 12/07 Q1025
                        NOSIG=
201104252050 METAR COR EGLL 252050Z 03007KT 350V070 CAVOK 13/06 Q1025
                        NOSIG=
201104252020 METAR COR EGLL 252020Z 03008KT 350V060 CAVOK 13/05 Q1025
                        NOSIG=
201104251950 METAR COR EGLL 251950Z 03009KT 340V060 CAVOK 14/04 Q1025
                        NOSIG=
201104251920 METAR COR EGLL 251920Z 03008KT 350V060 CAVOK 15/03 Q1024
                        NOSIG=
201104251850 METAR COR EGLL 251850Z 02010G20KT 350V050 CAVOK 16/02 Q1024
                        NOSIG=
201104251820 METAR COR EGLL 251820Z 03011KT 350V060 CAVOK 17/03 Q1024
                        NOSIG=
201104251750 METAR COR EGLL 251750Z 01010KT 340V060 CAVOK 18/04 Q1023
                        NOSIG=
201104251720 METAR COR EGLL 251720Z 04010KT 360V070 CAVOK 19/04 Q1023
                        NOSIG=
201104251650 METAR COR EGLL 251650Z 03010KT 360V070 CAVOK 20/04 Q1023
                        NOSIG=
201104251620 METAR COR EGLL 251620Z 01010KT 330V040 CAVOK 21/05 Q1023
                        NOSIG=
201104251550 METAR COR EGLL 251550Z 01009KT 340V040 CAVOK 21/03 Q1022
                        NOSIG=
201104251520 METAR COR EGLL 251520Z 02009KT 330V050 CAVOK 21/04 Q1022
                        NOSIG=
201104251450 METAR COR EGLL 251450Z 01009KT 320V070 CAVOK 21/04 Q1023
                        NOSIG=
201104251420 METAR COR EGLL 251420Z 36009KT 310V060 CAVOK 22/04 Q1023
                        NOSIG=
201104251350 METAR EGLL 251350Z 01009KT 320V050 CAVOK 21/03 Q1023=
201104251320 METAR COR EGLL 251320Z 03009KT 350V060 CAVOK 21/03 Q1023
                        NOSIG=
201104251250 METAR COR EGLL 251250Z 01008KT 310V100 CAVOK 21/03 Q1023
                        NOSIG=
201104251220 METAR COR EGLL 251220Z 03009KT 340V060 CAVOK 20/01 Q1023
                        NOSIG=
201104251150 METAR COR EGLL 251150Z 01007KT 330V070 CAVOK 20/00 Q1023
                        NOSIG=
201104251120 METAR COR EGLL 251120Z 36007KT 300V040 CAVOK 19/M00 Q1023
                        NOSIG=
201104251050 METAR COR EGLL 251050Z 36008KT 330V050 CAVOK 19/M00 Q1024
                        NOSIG=
201104251020 METAR COR EGLL 251020Z 35007KT 320V020 CAVOK 18/M01 Q1024
                        NOSIG=
201104250950 METAR COR EGLL 250950Z 36008KT 320V060 CAVOK 17/01 Q1024
                        NOSIG=
201104250920 METAR COR EGLL 250920Z 02006KT 340V050 CAVOK 16/02 Q1024
                        NOSIG=
201104250850 METAR COR EGLL 250850Z 03006KT 340V050 CAVOK 15/03 Q1024
                        NOSIG=
201104250820 METAR COR EGLL 250820Z 03007KT CAVOK 14/04 Q1024 NOSIG=
201104250750 METAR COR EGLL 250750Z 01006KT 330V050 CAVOK 13/05 Q1024
                        NOSIG=
201104250720 METAR COR EGLL 250720Z 03006KT CAVOK 12/07 Q1024 NOSIG=
201104250650 METAR COR EGLL 250650Z 04006KT 010V070 CAVOK 11/07 Q1024
                        NOSIG=
201104250620 METAR COR EGLL 250620Z 36005KT 330V050 CAVOK 11/07 Q1024
                        NOSIG=
201104250550 METAR COR EGLL 250550Z 35005KT 320V020 CAVOK 10/08 Q1024
                        NOSIG=
201104250520 METAR COR EGLL 250520Z 36004KT CAVOK 10/08 Q1023 NOSIG=
201104250450 METAR COR EGLL 250450Z 35004KT 310V020 CAVOK 10/08 Q1023
                        NOSIG=
201104250420 METAR COR EGLL 250420Z 36004KT 9000 NSC 10/08 Q1023 NOSIG=
201104250350 METAR COR EGLL 250350Z 36003KT 9000 NSC 11/09 Q1023 NOSIG=
201104250320 METAR COR EGLL 250320Z VRB03KT 8000 NSC 11/09 Q1022 NOSIG=
201104250250 METAR COR EGLL 250250Z 36004KT 330V040 8000 NSC 11/09 Q1022
                        NOSIG=
201104250220 METAR COR EGLL 250220Z 35004KT 8000 NSC 11/09 Q1022 NOSIG=
201104250150 METAR COR EGLL 250150Z VRB02KT 8000 NSC 11/09 Q1022 NOSIG=
201104250120 METAR COR EGLL 250120Z 36002KT 9000 NSC 12/09 Q1022 NOSIG=
201104250050 METAR COR EGLL 250050Z 06003KT 9000 NSC 12/09 Q1022 NOSIG=
201104250020 METAR COR EGLL 250020Z 04004KT 9000 NSC 12/09 Q1022 NOSIG=
201104242350 METAR COR EGLL 242350Z 04005KT 9000 NSC 12/09 Q1022 NOSIG=
201104242320 METAR COR EGLL 242320Z 05005KT 010V080 CAVOK 13/09 Q1022
                        NOSIG=
201104242250 METAR COR EGLL 242250Z 05006KT 020V080 CAVOK 13/10 Q1022
                        NOSIG=
201104242220 METAR COR EGLL 242220Z 05005KT CAVOK 13/10 Q1022 NOSIG=
201104242150 METAR COR EGLL 242150Z 04005KT 360V070 CAVOK 14/10 Q1022
                        NOSIG=
201104242120 METAR COR EGLL 242120Z 03005KT 350V080 CAVOK 14/10 Q1022
                        NOSIG=
201104242050 METAR COR EGLL 242050Z 03007KT 350V060 CAVOK 15/10 Q1022
                        NOSIG=
201104242020 METAR COR EGLL 242020Z 01006KT 340V050 CAVOK 16/10 Q1021
                        NOSIG=
201104241950 METAR COR EGLL 241950Z 03007KT 350V050 CAVOK 17/10 Q1021
                        NOSIG=
201104241920 METAR COR EGLL 241920Z 03007KT CAVOK 17/11 Q1020 NOSIG=
201104241850 METAR COR EGLL 241850Z 02006KT 340V050 CAVOK 18/11 Q1020
                        NOSIG=
201104241820 METAR COR EGLL 241820Z 02007KT 350V050 CAVOK 19/11 Q1020
                        NOSIG=
201104241750 METAR COR EGLL 241750Z 02007KT 340V050 CAVOK 20/11 Q1019
                        NOSIG=
201104241720 METAR COR EGLL 241720Z 36008KT 340V060 CAVOK 21/11 Q1019
                        NOSIG=
201104241650 METAR COR EGLL 241650Z 36008KT CAVOK 22/12 Q1019 NOSIG=
201104241620 METAR COR EGLL 241620Z 02007KT 330V070 CAVOK 22/12 Q1019
                        NOSIG=
201104241550 METAR COR EGLL 241550Z 04006KT 010V090 CAVOK 23/12 Q1018
                        NOSIG=
201104241520 METAR COR EGLL 241520Z 35007KT CAVOK 23/12 Q1018 NOSIG=
201104241450 METAR COR EGLL 241450Z 03006KT 330V080 CAVOK 23/11 Q1019
                        NOSIG=
201104241420 METAR COR EGLL 241420Z 03006KT 330V090 CAVOK 23/11 Q1019
                        NOSIG=
201104241350 METAR COR EGLL 241350Z 01005KT 320V060 9000 NSC 23/11 Q1019
                        NOSIG=
201104241320 METAR COR EGLL 241320Z 02005KT 290V070 9000 NSC 22/12 Q1018
                        NOSIG=
201104241250 METAR COR EGLL 241250Z 36005KT 300V070 9000 NSC 22/12 Q1018
                        NOSIG=
201104241220 METAR COR EGLL 241220Z 02005KT 290V090 8000 NSC 21/12 Q1018
                        NOSIG=
201104241150 METAR COR EGLL 241150Z 03006KT 320V090 7000 NSC 21/12 Q1019
                        NOSIG=
201104241120 METAR COR EGLL 241120Z 01006KT 320V060 5000 HZ NSC 19/12
                        Q1019 NOSIG=
201104241050 METAR COR EGLL 241050Z 36005KT 300V030 4500 HZ NSC 18/12
                        Q1019 BECMG 6000 NSW=
201104241020 METAR COR EGLL 241020Z 36006KT 300V040 4500 HZ NSC 17/11
                        Q1019 BECMG 6000 NSW=
201104240950 METAR COR EGLL 240950Z 34005KT 280V030 4100 HZ NSC 16/11
                        Q1019 BECMG 6000 NSW=
201104240920 METAR COR EGLL 240920Z 33004KT 290V020 3600 HZ NSC 16/11
                        Q1019 BECMG 6000 NSW=
201104240850 METAR COR EGLL 240850Z 36006KT 300V040 3400 HZ NSC 15/11
                        Q1018 BECMG 6000 NSW=
201104240820 METAR COR EGLL 240820Z 36005KT 330V040 3400 HZ NSC 14/11
                        Q1018 BECMG 6000 NSW=
201104240750 METAR COR EGLL 240750Z 02004KT 310V060 3400 HZ FEW009 14/11
                        Q1018 BECMG 6000 NSW=
201104240720 METAR COR EGLL 240720Z 35005KT 300V020 3400 HZ FEW008 13/11
                        Q1018 BECMG 6000 NSW=
201104240650 METAR COR EGLL 240650Z 35006KT 300V020 3300 HZ FEW005 SCT007
                        13/11 Q1018 BECMG 6000 NSW=
201104240620 METAR COR EGLL 240620Z 35005KT 310V020 3100 HZ FEW005 SCT006
                        13/11 Q1017 BECMG 6000 NSW=
201104240550 METAR COR EGLL 240550Z 36005KT 330V050 3000 HZ BKN005 12/11
                        Q1017 BECMG 6000 SCT008=
201104240520 METAR COR EGLL 240520Z 31005KT 4500 HZ FEW010 12/10 Q1016
                        NOSIG=
201104240450 METAR COR EGLL 240450Z 31004KT 4500 HZ NSC 12/10 Q1016 NOSIG=
201104240420 METAR COR EGLL 240420Z 31004KT 4500 HZ NSC 12/10 Q1016 NOSIG=
201104240350 METAR COR EGLL 240350Z 31005KT 4800 HZ NSC 12/11 Q1016 NOSIG=
201104240320 METAR COR EGLL 240320Z 32005KT 5000 HZ NSC 13/11 Q1015 TEMPO
                        4000=
201104240250 METAR COR EGLL 240250Z 33006KT 6000 NSC 13/11 Q1015 NOSIG=
201104240220 METAR COR EGLL 240220Z 33005KT 8000 NSC 14/12 Q1015 NOSIG=
201104240150 METAR COR EGLL 240150Z 33006KT 9000 NSC 15/12 Q1015 NOSIG=
201104240120 METAR COR EGLL 240120Z 33004KT CAVOK 15/11 Q1015 NOSIG=
201104240050 METAR COR EGLL 240050Z 32004KT 290V360 CAVOK 15/11 Q1015
                        NOSIG=
201104240020 METAR COR EGLL 240020Z 34004KT 300V020 CAVOK 17/11 Q1014
                        NOSIG=
201104232350 METAR COR EGLL 232350Z 36005KT 290V070 CAVOK 17/11 Q1014
                        NOSIG=
201104232320 METAR COR EGLL 232320Z VRB03KT CAVOK 17/11 Q1014 NOSIG=
201104232250 METAR COR EGLL 232250Z VRB02KT CAVOK 17/11 Q1014 NOSIG=
201104232220 METAR COR EGLL 232220Z 36005KT 310V040 CAVOK 18/10 Q1014
                        NOSIG=
201104232150 METAR COR EGLL 232150Z 28005KT CAVOK 19/10 Q1014 NOSIG=
201104232120 METAR COR EGLL 232120Z 29006KT CAVOK 18/11 Q1014 NOSIG=
201104232050 METAR EGLL 232050Z NIL=
201104232020 METAR COR EGLL 232020Z 02004KT 9999 -SHRA SCT080CB 19/11
                        Q1015 NOSIG=
201104231950 METAR COR EGLL 231950Z 06008KT 9999 -SHRA BKN049CB 19/11
                        Q1014 NOSIG=
201104231920 METAR COR EGLL 231920Z 06010KT 9999 7000N VCTS -SHRA BKN049CB
                        21/10 Q1014 TEMPO TSRA=
201104231850 METAR COR EGLL 231850Z 13010KT 9999 VCTS VCSH BKN049CB 20/09
                        Q1013 TEMPO TSRA=
201104231820 METAR COR EGLL 231820Z 15014KT 9999 -SHRA VCTS SCT080CB 20/09
                        Q1013 TEMPO TSRA=
201104231750 METAR COR EGLL 231750Z 13010KT 100V160 9999 VCTS VCSH FEW080CB
                        23/07 Q1012 TEMPO TSRA=
201104231720 METAR COR EGLL 231720Z 11011KT 070V150 9999 VCTS VCSH FEW080CB
                        24/06 Q1012 TEMPO TSRA=
201104231650 METAR COR EGLL 231650Z 25007KT 200V290 9999 VCSH BKN049CB
                        25/07 Q1011 TEMPO SHRA=
201104231620 METAR COR EGLL 231620Z 29009KT 9999 SCT049CB 26/08 Q1011
                        NOSIG=
201104231550 METAR COR EGLL 231550Z 31006KT 270V010 9999 SCT049CB FEW080TCU
                        27/07 Q1011 NOSIG=
201104231520 METAR COR EGLL 231520Z 20006KT 140V270 9999 FEW080TCU 26/06
                        Q1011 NOSIG=
201104231450 METAR COR EGLL 231450Z VRB04KT 9999 FEW080TCU 27/06 Q1011
                        NOSIG=
201104231420 METAR COR EGLL 231420Z VRB04KT CAVOK 27/05 Q1011 NOSIG=
201104231350 METAR COR EGLL 231350Z 20004KT 110V280 9999 FEW080TCU 26/06
                        Q1011 NOSIG=
201104231320 METAR COR EGLL 231320Z 20005KT 150V250 CAVOK 27/06 Q1011
                        NOSIG=
201104231250 METAR COR EGLL 231250Z 23004KT 150V290 CAVOK 26/06 Q1012
                        NOSIG=
201104231220 METAR COR EGLL 231220Z 15005KT 080V250 CAVOK 26/06 Q1012
                        NOSIG=
201104231150 METAR COR EGLL 231150Z VRB04KT CAVOK 26/06 Q1012 NOSIG=
201104231120 METAR COR EGLL 231120Z VRB03KT CAVOK 25/08 Q1012 NOSIG=
201104231050 METAR COR EGLL 231050Z VRB03KT CAVOK 24/09 Q1012 NOSIG=
201104231020 METAR COR EGLL 231020Z VRB02KT 8000 NSC 23/09 Q1012 NOSIG=
201104230950 METAR COR EGLL 230950Z VRB02KT 6000 NSC 23/10 Q1012 NOSIG=
201104230920 METAR COR EGLL 230920Z VRB02KT 6000 NSC 22/10 Q1012 NOSIG=
201104230850 METAR COR EGLL 230850Z VRB02KT 6000 NSC 20/10 Q1012 NOSIG=
201104230820 METAR COR EGLL 230820Z VRB03KT 5000 HZ NSC 18/10 Q1012 NOSIG=
201104230750 METAR COR EGLL 230750Z 07003KT 6000 NSC 17/11 Q1012 NOSIG=
201104230720 METAR COR EGLL 230720Z 06002KT 6000 NSC 15/10 Q1012 NOSIG=
201104230650 METAR COR EGLL 230650Z 00000KT 6000 NSC 13/10 Q1011 NOSIG=
201104230620 METAR COR EGLL 230620Z 00000KT 7000 NSC 12/09 Q1011 NOSIG=
201104230550 METAR COR EGLL 230550Z 34002KT 6000 NSC 11/09 Q1011 TEMPO
                        4500 BR=
201104230520 METAR COR EGLL 230520Z 00000KT 7000 NSC 10/09 Q1011 NOSIG=
201104230450 METAR COR EGLL 230450Z 00000KT 8000 NSC 10/08 Q1010 NOSIG=
201104230420 METAR COR EGLL 230420Z 00000KT 9000 NSC 11/08 Q1010 NOSIG=
201104230350 METAR COR EGLL 230350Z 00000KT 8000 NSC 11/08 Q1010 NOSIG=
201104230320 METAR COR EGLL 230320Z 00000KT 9000 NSC 11/09 Q1010 NOSIG=
201104230250 METAR COR EGLL 230250Z 29002KT 8000 NSC 11/08 Q1010 NOSIG=
201104230220 METAR COR EGLL 230220Z VRB02KT CAVOK 13/09 Q1010 NOSIG=
201104230150 METAR COR EGLL 230150Z 02002KT CAVOK 13/09 Q1010 NOSIG=
201104230120 METAR COR EGLL 230120Z 01004KT CAVOK 13/09 Q1010 NOSIG=
201104230050 METAR COR EGLL 230050Z 01003KT CAVOK 14/09 Q1010 NOSIG=
201104230020 METAR COR EGLL 230020Z 01002KT CAVOK 13/09 Q1010 NOSIG=
201104222350 METAR COR EGLL 222350Z 00000KT CAVOK 15/09 Q1010 NOSIG=
201104222320 METAR COR EGLL 222320Z 06002KT CAVOK 16/09 Q1010 NOSIG=
201104222250 METAR COR EGLL 222250Z 08002KT CAVOK 16/09 Q1010 NOSIG=
201104222220 METAR COR EGLL 222220Z 04003KT CAVOK 17/08 Q1009 NOSIG=
201104222150 METAR COR EGLL 222150Z 21002KT CAVOK 19/07 Q1009 NOSIG=
201104222120 METAR COR EGLL 222120Z VRB03KT CAVOK 20/07 Q1009 NOSIG=
201104222050 METAR COR EGLL 222050Z 18003KT CAVOK 19/07 Q1009 NOSIG=
201104222020 METAR COR EGLL 222020Z 20005KT CAVOK 21/06 Q1009 NOSIG=
201104221950 METAR COR EGLL 221950Z 20004KT CAVOK 21/06 Q1008 NOSIG=
201104221920 METAR COR EGLL 221920Z 22005KT CAVOK 22/05 Q1008 NOSIG=
201104221850 METAR COR EGLL 221850Z 21005KT CAVOK 22/06 Q1008 NOSIG=
201104221820 METAR COR EGLL 221820Z 19006KT CAVOK 23/06 Q1007 NOSIG=
201104221750 METAR COR EGLL 221750Z 21008KT CAVOK 23/06 Q1007 NOSIG=
201104221720 METAR COR EGLL 221720Z 21008KT CAVOK 24/06 Q1007 NOSIG=
201104221650 METAR COR EGLL 221650Z 21009KT CAVOK 24/06 Q1007 NOSIG=
201104221620 METAR COR EGLL 221620Z 21008KT CAVOK 25/06 Q1007 NOSIG=
201104221550 METAR COR EGLL 221550Z 21008KT 170V250 CAVOK 25/06 Q1007
                        NOSIG=
201104221520 METAR COR EGLL 221520Z 19008KT 140V250 CAVOK 25/06 Q1007
                        NOSIG=
201104221450 METAR COR EGLL 221450Z 19008KT CAVOK 25/06 Q1007 NOSIG=
201104221420 METAR COR EGLL 221420Z 18004KT 130V220 CAVOK 26/06 Q1007
                        NOSIG=
201104221350 METAR COR EGLL 221350Z VRB05KT CAVOK 25/05 Q1007 NOSIG=
201104221320 METAR COR EGLL 221320Z 17008KT 130V200 CAVOK 25/05 Q1007
                        NOSIG=
201104221250 METAR COR EGLL 221250Z 18007KT 120V220 CAVOK 25/06 Q1007
                        NOSIG=
201104221220 METAR COR EGLL 221220Z 17007KT 110V250 CAVOK 25/06 Q1007
                        NOSIG=
201104221150 METAR COR EGLL 221150Z 16006KT 130V210 CAVOK 24/06 Q1008
                        NOSIG=
201104221120 METAR COR EGLL 221120Z 17006KT 120V200 CAVOK 24/07 Q1008
                        NOSIG=
201104221050 METAR COR EGLL 221050Z 17006KT 130V210 CAVOK 22/08 Q1008
                        NOSIG=
201104221020 METAR COR EGLL 221020Z 17005KT 110V230 9000 NSC 22/08 Q1008
                        NOSIG=
201104220950 METAR COR EGLL 220950Z VRB03KT 7000 NSC 21/08 Q1008 NOSIG=
201104220920 METAR COR EGLL 220920Z VRB02KT 5000 HZ NSC 20/09 Q1008 NOSIG=
201104220850 METAR COR EGLL 220850Z VRB03KT 4800 HZ NSC 18/10 Q1008 BECMG
                        6000 NSW=
201104220820 METAR COR EGLL 220820Z VRB03KT 3000 HZ NSC 17/10 Q1008 NOSIG=
201104220750 METAR COR EGLL 220750Z VRB03KT 2700 HZ NSC 15/09 Q1008 NOSIG=
201104220720 METAR COR EGLL 220720Z VRB03KT 2700 HZ NSC 13/09 Q1008 NOSIG=
201104220650 METAR COR EGLL 220650Z VRB03KT 2500 R09R/1400 HZ NSC 12/08
                        Q1008 NOSIG=
201104220620 METAR COR EGLL 220620Z 04004KT 2300 R09R/1400 HZ NSC 11/07
                        Q1008 NOSIG=
201104220550 METAR COR EGLL 220550Z VRB03KT 2400 R09R/1400 HZ NSC 10/07
                        Q1008 NOSIG=
201104220520 METAR COR EGLL 220520Z 04003KT 2300 HZ NSC 10/07 Q1008 NOSIG=
201104220450 METAR COR EGLL 220450Z 05004KT 2400 HZ NSC 10/07 Q1008 NOSIG=
201104220420 METAR COR EGLL 220420Z 06003KT 2700 HZ NSC 10/07 Q1009 NOSIG=
201104220350 METAR COR EGLL 220350Z 04003KT 2900 HZ NSC 11/07 Q1009 NOSIG=
201104220320 METAR COR EGLL 220320Z 03002KT 2900 HZ NSC 11/07 Q1009 NOSIG=
201104220250 METAR COR EGLL 220250Z 00000KT 3100 HZ NSC 11/07 Q1009 NOSIG=
201104220220 METAR COR EGLL 220220Z 00000KT 3500 HZ NSC 11/07 Q1009 NOSIG=
201104220150 METAR COR EGLL 220150Z 08002KT 3500 HZ NSC 12/07 Q1009 NOSIG=
201104220120 METAR COR EGLL 220120Z 06003KT 4000 HZ NSC 12/06 Q1010 NOSIG=
201104220050 METAR COR EGLL 220050Z 07004KT 4500 HZ NSC 13/06 Q1010 NOSIG=
201104220020 METAR COR EGLL 220020Z 08003KT 5000 HZ NSC 13/06 Q1010 BECMG
                        4500 BR=
201104212350 METAR COR EGLL 212350Z 06006KT 4800 HZ NSC 14/06 Q1010 NOSIG=
201104212320 METAR COR EGLL 212320Z 06006KT 6000 NSC 14/06 Q1010 BECMG
                        4500 BR=
201104212250 METAR EGLL 212250Z 07006KT 6000 NSC 15/06 Q1010=
201104212220 METAR COR EGLL 212220Z 08006KT 6000 NSC 15/06 Q1011 BECMG
                        4500 BR=
201104212150 METAR COR EGLL 212150Z 07006KT 7000 NSC 16/05 Q1011 NOSIG=
201104212120 METAR COR EGLL 212120Z 07006KT 8000 NSC 17/04 Q1011 NOSIG=
201104212050 METAR COR EGLL 212050Z 08006KT 9000 NSC 17/04 Q1011 NOSIG=
201104212020 METAR COR EGLL 212020Z 08007KT CAVOK 17/04 Q1011 NOSIG=
201104211950 METAR COR EGLL 211950Z 09009KT CAVOK 18/03 Q1011 NOSIG=
201104211920 METAR COR EGLL 211920Z 09010KT CAVOK 18/03 Q1011 NOSIG=
201104211850 METAR COR EGLL 211850Z 09011KT CAVOK 19/02 Q1011 NOSIG=
201104211820 METAR COR EGLL 211820Z 09011KT CAVOK 21/03 Q1010=
201104211750 METAR COR EGLL 211750Z 09011KT CAVOK 21/04 Q1010 NOSIG=
201104211720 METAR COR EGLL 211720Z 09013KT CAVOK 22/04 Q1010 NOSIG=
201104211650 METAR COR EGLL 211650Z 09011KT CAVOK 22/05 Q1010 NOSIG=
201104211620 METAR COR EGLL 211620Z 11011KT CAVOK 23/07 Q1011 NOSIG=
201104211550 METAR COR EGLL 211550Z 10008KT 080V140 CAVOK 24/06 Q1011
                        NOSIG=
201104211520 METAR COR EGLL 211520Z 20011KT CAVOK 24/05 Q1011 NOSIG=
201104211450 METAR COR EGLL 211450Z 12012KT CAVOK 25/05 Q1011 NOSIG=
201104211420 METAR COR EGLL 211420Z 12006KT 080V170 CAVOK 24/05 Q1011
                        NOSIG=
201104211350 METAR COR EGLL 211350Z 07007KT 030V130 CAVOK 23/06 Q1012
                        NOSIG=
201104211320 METAR COR EGLL 211320Z 06005KT 360V130 CAVOK 25/07 Q1012
                        NOSIG=
201104211250 METAR COR EGLL 211250Z 06007KT 360V080 CAVOK 24/08 Q1012
                        NOSIG=
201104211220 METAR COR EGLL 211220Z 09005KT 040V130 9000 NSC 24/07 Q1012
                        NOSIG=
201104211150 METAR COR EGLL 211150Z VRB05KT 9000 NSC 24/08 Q1013 NOSIG=
201104211120 METAR COR EGLL 211120Z 08004KT 040V130 7000 NSC 23/09 Q1013
                        NOSIG=
201104211050 METAR COR EGLL 211050Z 08005KT 320V130 6000 NSC 22/09 Q1013
                        NOSIG=
201104211020 METAR COR EGLL 211020Z VRB03KT 6000 NSC 21/09 Q1013 NOSIG=
201104210950 METAR COR EGLL 210950Z 05004KT 350V090 6000 NSC 20/09 Q1014
                        NOSIG=
201104210920 METAR COR EGLL 210920Z 06004KT 010V100 4700 HZ NSC 19/08
                        Q1014 BECMG 6000 NSW=
201104210850 METAR COR EGLL 210850Z 06004KT 010V090 4300 HZ NSC 17/08
                        Q1014 BECMG 6000 NSW=
201104210820 METAR COR EGLL 210820Z 06004KT 010V090 4000 HZ NSC 16/08
                        Q1014 BECMG 6000 NSW=
201104210750 METAR COR EGLL 210750Z 05004KT 020V090 3800 HZ NSC 15/08
                        Q1014 NOSIG=
201104210720 METAR COR EGLL 210720Z 06004KT 020V090 3700 HZ NSC 14/08
                        Q1014 NOSIG=
201104210650 METAR COR EGLL 210650Z VRB03KT 3600 HZ NSC 13/07 Q1014 NOSIG=
201104210620 METAR COR EGLL 210620Z 04004KT 3500 HZ NSC 12/07 Q1014 NOSIG=
201104210550 METAR COR EGLL 210550Z 02003KT 3400 HZ NSC 12/07 Q1014 NOSIG=
201104210520 METAR COR EGLL 210520Z VRB03KT 3600 HZ NSC 12/07 Q1014 NOSIG=
201104210450 METAR COR EGLL 210450Z VRB02KT 3600 HZ NSC 12/07 Q1014 NOSIG=
201104210420 METAR COR EGLL 210420Z 01003KT 3700 HZ NSC 12/07 Q1014 NOSIG=
201104210350 METAR COR EGLL 210350Z VRB02KT 3800 HZ NSC 12/07 Q1014 NOSIG=
201104210320 METAR COR EGLL 210320Z VRB03KT 3900 HZ NSC 12/07 Q1014 NOSIG=
201104210250 METAR COR EGLL 210250Z 04003KT 4000 HZ NSC 12/07 Q1014 NOSIG=
201104210220 METAR COR EGLL 210220Z 04004KT 4200 HZ NSC 13/07 Q1014 NOSIG=
201104210150 METAR COR EGLL 210150Z VRB02KT 4600 HZ NSC 13/07 Q1014 NOSIG=
201104210120 METAR COR EGLL 210120Z 04004KT 5000 HZ NSC 13/08 Q1014 NOSIG=
201104210050 METAR COR EGLL 210050Z 04004KT 6000 NSC 14/07 Q1014 NOSIG=
201104210020 METAR COR EGLL 210020Z 05003KT 6000 NSC 14/07 Q1015 NOSIG=
201104202350 METAR COR EGLL 202350Z 04004KT 6000 NSC 15/08 Q1015 NOSIG=
201104202320 METAR COR EGLL 202320Z 04003KT 6000 NSC 15/07 Q1015 NOSIG=
201104202250 METAR COR EGLL 202250Z 07003KT 7000 NSC 16/07 Q1015 NOSIG=
201104202220 METAR COR EGLL 202220Z 06003KT 7000 NSC 17/08 Q1014 NOSIG=
201104202150 METAR COR EGLL 202150Z 07004KT 7000 NSC 17/07 Q1014 NOSIG=
201104202120 METAR COR EGLL 202120Z 08003KT 7000 NSC 18/07 Q1014 NOSIG=
201104202050 METAR COR EGLL 202050Z 08004KT 7000 NSC 17/08 Q1014 NOSIG=
201104202020 METAR COR EGLL 202020Z 07003KT 9000 NSC 19/08 Q1014 NOSIG=
201104201950 METAR COR EGLL 201950Z 10005KT CAVOK 20/08 Q1014 NOSIG=
201104201920 METAR COR EGLL 201920Z 10006KT CAVOK 21/08 Q1013 NOSIG=
201104201850 METAR COR EGLL 201850Z 10007KT CAVOK 21/08 Q1013 NOSIG=
201104201820 METAR COR EGLL 201820Z 11008KT CAVOK 22/07 Q1013 NOSIG=
201104201750 METAR COR EGLL 201750Z 09006KT CAVOK 21/08 Q1013 NOSIG=
201104201720 METAR COR EGLL 201720Z 09007KT CAVOK 21/08 Q1013 NOSIG=
201104201650 METAR COR EGLL 201650Z 09008KT CAVOK 22/08 Q1013 NOSIG=
201104201620 METAR COR EGLL 201620Z 11008KT CAVOK 23/07 Q1013 NOSIG=
201104201550 METAR COR EGLL 201550Z 12004KT 080V150 CAVOK 24/05 Q1013
                        NOSIG=
201104201520 METAR COR EGLL 201520Z 17006KT CAVOK 24/05 Q1013 NOSIG=
201104201450 METAR COR EGLL 201450Z VRB04KT CAVOK 25/06 Q1013 NOSIG=
201104201420 METAR COR EGLL 201420Z VRB03KT CAVOK 26/07 Q1013 NOSIG=
201104201350 METAR COR EGLL 201350Z 18005KT 130V260 CAVOK 26/08 Q1013
                        NOSIG=
201104201320 METAR COR EGLL 201320Z 16005KT 070V220 CAVOK 25/08 Q1014
                        NOSIG=
201104201250 METAR COR EGLL 201250Z 16004KT 080V230 CAVOK 24/07 Q1014
                        NOSIG=
201104201220 METAR COR EGLL 201220Z VRB02KT CAVOK 24/08 Q1014 NOSIG=
201104201150 METAR COR EGLL 201150Z 25004KT 200V320 8000 NSC 22/08 Q1014
                        NOSIG=
201104201120 METAR COR EGLL 201120Z VRB03KT 8000 NSC 22/09 Q1015 NOSIG=
201104201050 METAR COR EGLL 201050Z VRB03KT 7000 NSC 20/09 Q1015 NOSIG=
201104201020 METAR COR EGLL 201020Z VRB02KT 6000 NSC 19/09 Q1015 NOSIG=
201104200950 METAR COR EGLL 200950Z VRB03KT 4500 HZ NSC 17/09 Q1015 BECMG
                        6000=
201104200920 METAR COR EGLL 200920Z VRB03KT 4500 HZ NSC 16/09 Q1015 BECMG
                        6000=
201104200850 METAR COR EGLL 200850Z VRB03KT 3300 HZ NSC 15/09 Q1015 BECMG
                        5000=
201104200820 METAR COR EGLL 200820Z 35004KT 330V040 2700 HZ NSC 14/08
                        Q1015 BECMG 5000=
201104200750 METAR COR EGLL 200750Z 35005KT 330V030 3300 HZ NSC 12/08
                        Q1015 BECMG 5000=
201104200720 METAR COR EGLL 200720Z 36005KT 330V040 2800 HZ NSC 10/07
                        Q1015 BECMG 5000=
201104200650 METAR COR EGLL 200650Z 35004KT 2800 HZ NSC 10/07 Q1015 NOSIG=
201104200620 METAR COR EGLL 200620Z 03004KT 010V070 2700 HZ NSC 10/07
                        Q1015 NOSIG=
201104200550 METAR COR EGLL 200550Z VRB03KT 3500 HZ NSC 10/07 Q1015 NOSIG=
201104200520 METAR COR EGLL 200520Z 36004KT 3900 HZ NSC 10/07 Q1015 NOSIG=
201104200450 METAR COR EGLL 200450Z VRB03KT 4000 HZ NSC 10/07 Q1015 NOSIG=
201104200420 METAR COR EGLL 200420Z VRB03KT 4100 HZ NSC 10/06 Q1015 NOSIG=
201104200350 METAR COR EGLL 200350Z 36004KT 4200 HZ NSC 10/07 Q1015 NOSIG=
201104200320 METAR COR EGLL 200320Z VRB02KT 4500 HZ NSC 10/07 Q1015 NOSIG=
201104200250 METAR COR EGLL 200250Z VRB03KT 4700 HZ NSC 10/07 Q1015 NOSIG=
201104200220 METAR COR EGLL 200220Z 36003KT 5000 HZ NSC 11/07 Q1015 TEMPO
                        4000=
201104200150 METAR COR EGLL 200150Z 35003KT 5000 HZ NSC 11/07 Q1015 TEMPO
                        4000=
201104200120 METAR COR EGLL 200120Z 00000KT 5000 HZ NSC 11/07 Q1015 NOSIG=
201104200050 METAR COR EGLL 200050Z VRB03KT 6000 NSC 12/07 Q1015 NOSIG=
201104200020 METAR COR EGLL 200020Z VRB03KT 6000 NSC 12/07 Q1015 NOSIG=
201104192350 METAR COR EGLL 192350Z 01004KT 7000 NSC 13/07 Q1015 NOSIG=
201104192320 METAR COR EGLL 192320Z VRB03KT 7000 NSC 13/07 Q1015 NOSIG=
201104192250 METAR COR EGLL 192250Z 03005KT 8000 NSC 14/08 Q1015 NOSIG=
201104192220 METAR COR EGLL 192220Z 03006KT 8000 NSC 15/08 Q1015 NOSIG=
201104192150 METAR COR EGLL 192150Z 03005KT 350V060 8000 NSC 15/09 Q1015
                        NOSIG=
201104192120 METAR COR EGLL 192120Z 36005KT 8000 NSC 16/09 Q1014 NOSIG=
201104192050 METAR COR EGLL 192050Z 36006KT 8000 NSC 17/10 Q1014 NOSIG=
201104192020 METAR COR EGLL 192020Z VRB03KT CAVOK 18/09 Q1014 NOSIG=
201104191950 METAR COR EGLL 191950Z 18004KT CAVOK 19/08 Q1014 NOSIG=
201104191920 METAR COR EGLL 191920Z 21005KT CAVOK 19/09 Q1013 NOSIG=
201104191850 METAR COR EGLL 191850Z 20006KT CAVOK 20/09 Q1013 NOSIG=
201104191820 METAR COR EGLL 191820Z 21007KT CAVOK 21/08 Q1013 NOSIG=
201104191750 METAR COR EGLL 191750Z 19008KT CAVOK 22/08 Q1012 NOSIG=
201104191720 METAR COR EGLL 191720Z 18006KT CAVOK 23/06 Q1012 NOSIG=
201104191650 METAR COR EGLL 191650Z 20007KT 160V230 CAVOK 23/07 Q1012
                        NOSIG=
201104191620 METAR COR EGLL 191620Z 18006KT 140V230 CAVOK 24/07 Q1012
                        NOSIG=
201104191550 METAR COR EGLL 191550Z VRB03KT CAVOK 24/07 Q1012 NOSIG=
201104191520 METAR COR EGLL 191520Z VRB03KT CAVOK 24/08 Q1012 NOSIG=
201104191450 METAR COR EGLL 191450Z VRB03KT CAVOK 24/07 Q1012 NOSIG=
201104191420 METAR COR EGLL 191420Z 27005KT 240V040 CAVOK 23/07 Q1012
                        NOSIG=
201104191350 METAR COR EGLL 191350Z VRB03KT CAVOK 23/09 Q1012 NOSIG=
201104191320 METAR COR EGLL 191320Z 07004KT 020V150 CAVOK 23/09 Q1012
                        NOSIG=
201104191250 METAR COR EGLL 191250Z VRB03KT CAVOK 22/09 Q1012 NOSIG=
201104191220 METAR COR EGLL 191220Z 19004KT 110V260 CAVOK 22/09 Q1012
                        NOSIG=
201104191150 METAR COR EGLL 191150Z VRB04KT 9000 NSC 22/09 Q1012 NOSIG=
201104191120 METAR COR EGLL 191120Z VRB03KT 8000 NSC 21/08 Q1012 NOSIG=
201104191050 METAR COR EGLL 191050Z VRB03KT 8000 NSC 20/09 Q1012 NOSIG=
201104191020 METAR COR EGLL 191020Z VRB03KT 8000 NSC 19/08 Q1012 NOSIG=
201104190950 METAR COR EGLL 190950Z VRB02KT 7000 NSC 18/08 Q1012 NOSIG=
201104190920 METAR COR EGLL 190920Z VRB02KT 6000 NSC 18/09 Q1012 NOSIG=
201104190850 METAR COR EGLL 190850Z VRB03KT 4900 2300E HZ NSC 16/08 Q1012
                        BECMG 6000 NSW=
201104190820 METAR COR EGLL 190820Z VRB03KT 4800 2300E HZ NSC 15/08 Q1012
                        BECMG 6000 NSW=
201104190750 METAR COR EGLL 190750Z 06004KT 340V100 4900 2300E HZ NSC
                        13/08 Q1012 BECMG 6000 NSW=
201104190720 METAR COR EGLL 190720Z VRB03KT 4700 2300E HZ NSC 12/07 Q1012
                        BECMG 6000 NSW=
201104190650 METAR COR EGLL 190650Z VRB03KT 4800 2300E HZ NSC 11/06 Q1012
                        BECMG 6000 NSW=
201104190620 METAR COR EGLL 190620Z 04004KT 4500 2100E HZ NSC 10/06 Q1012
                        BECMG 6000 NSW=
201104190550 METAR COR EGLL 190550Z VRB03KT 4800 2100E HZ NSC 09/05 Q1011
                        BECMG 6000 NSW=
201104190520 METAR COR EGLL 190520Z 36004KT 4900 HZ NSC 09/05 Q1011 BECMG
                        6000 NSW=
201104190450 METAR COR EGLL 190450Z 35003KT 4700 HZ NSC 09/05 Q1011 NOSIG=
201104190420 METAR COR EGLL 190420Z 01002KT 4900 HZ NSC 09/05 Q1011 NOSIG=
201104190350 METAR COR EGLL 190350Z 00000KT 5000 HZ NSC 09/05 Q1011 TEMPO
                        4500=
201104190320 METAR COR EGLL 190320Z VRB03KT 6000 NSC 09/05 Q1011 NOSIG=
201104190250 METAR COR EGLL 190250Z 04004KT 6000 NSC 09/05 Q1011 TEMPO
                        4500 HZ=
201104190220 METAR COR EGLL 190220Z 04003KT 6000 NSC 10/05 Q1011 TEMPO
                        4500 HZ=
201104190150 METAR COR EGLL 190150Z 04004KT 6000 NSC 10/05 Q1011 TEMPO
                        4500 HZ=
201104190120 METAR COR EGLL 190120Z 04003KT 7000 NSC 09/05 Q1012 NOSIG=
201104190050 METAR COR EGLL 190050Z 04004KT 7000 NSC 09/04 Q1012 NOSIG=
201104190020 METAR COR EGLL 190020Z 05003KT 8000 NSC 10/04 Q1012 NOSIG=
201104182350 METAR COR EGLL 182350Z 05003KT 9000 NSC 10/04 Q1013 NOSIG=
201104182320 METAR COR EGLL 182320Z 07004KT 9000 NSC 11/04 Q1013 NOSIG=
201104182250 METAR COR EGLL 182250Z 08003KT CAVOK 11/03 Q1013 NOSIG=
201104182220 METAR COR EGLL 182220Z 07005KT CAVOK 11/03 Q1013 NOSIG=
201104182150 METAR COR EGLL 182150Z 06005KT CAVOK 12/03 Q1013 NOSIG=
201104182120 METAR COR EGLL 182120Z 07005KT CAVOK 12/03 Q1013 NOSIG=
201104182050 METAR COR EGLL 182050Z 08006KT CAVOK 13/03 Q1013 NOSIG=
201104182020 METAR COR EGLL 182020Z 09007KT CAVOK 13/02 Q1013 NOSIG=
201104181950 METAR COR EGLL 181950Z 09009KT CAVOK 13/02 Q1013 NOSIG=
201104181920 METAR COR EGLL 181920Z 09008KT CAVOK 13/02 Q1013 NOSIG=
201104181850 METAR COR EGLL 181850Z 09011KT CAVOK 14/02 Q1013 NOSIG=
201104181820 METAR COR EGLL 181820Z 09010KT CAVOK 15/02 Q1013 NOSIG=
201104181750 METAR COR EGLL 181750Z 09012KT CAVOK 16/03 Q1014 NOSIG=
201104181720 METAR COR EGLL 181720Z 08012KT CAVOK 16/02 Q1014 NOSIG=
201104181650 METAR COR EGLL 181650Z 10012KT CAVOK 17/03 Q1014 NOSIG=
201104181620 METAR COR EGLL 181620Z 08011KT CAVOK 17/01 Q1014 NOSIG=
201104181550 METAR COR EGLL 181550Z 09013KT 050V130 CAVOK 18/01 Q1015
                        NOSIG=
201104181520 METAR COR EGLL 181520Z 10011KT CAVOK 18/01 Q1015 NOSIG=
201104181450 METAR COR EGLL 181450Z 10011KT CAVOK 18/02 Q1015 NOSIG=
201104181420 METAR COR EGLL 181420Z 09012KT 060V120 CAVOK 18/03 Q1016
                        NOSIG=
201104181350 METAR COR EGLL 181350Z 08012KT CAVOK 18/02 Q1016 NOSIG=
201104181320 METAR COR EGLL 181320Z 10012KT CAVOK 18/02 Q1017 NOSIG=
201104181250 METAR COR EGLL 181250Z 10010KT 050V150 CAVOK 18/02 Q1017
                        NOSIG=
201104181220 METAR COR EGLL 181220Z 11013KT 080V140 CAVOK 19/01 Q1018
                        NOSIG=
201104181150 METAR COR EGLL 181150Z 09010KT CAVOK 17/03 Q1018 NOSIG=
201104181120 METAR COR EGLL 181120Z 09012KT CAVOK 17/02 Q1018 NOSIG=
201104181050 METAR COR EGLL 181050Z 11010KT CAVOK 18/02 Q1019 NOSIG=
201104181020 METAR COR EGLL 181020Z 10009KT 060V130 9000 NSC 17/05 Q1019
                        NOSIG=
201104180950 METAR COR EGLL 180950Z 04004KT 010V080 7000 NSC 16/06 Q1020
                        NOSIG=
201104180920 METAR COR EGLL 180920Z VRB03KT 5000 HZ NSC 14/08 Q1020 NOSIG=
201104180850 METAR COR EGLL 180850Z VRB03KT 4500 HZ NSC 13/08 Q1021 BECMG
                        6000 NSW=
201104180820 METAR COR EGLL 180820Z 07006KT 040V100 3900 HZ NSC 12/08
                        Q1021 BECMG 6000 NSW=
201104180750 METAR COR EGLL 180750Z 05005KT 020V090 3500 HZ NSC 11/08
                        Q1021 BECMG 6000 NSW=
201104180720 METAR COR EGLL 180720Z 07005KT 3400 HZ NSC 10/07 Q1021 BECMG
                        6000 NSW=
201104180650 METAR COR EGLL 180650Z 05004KT 020V090 3300 BR NSC 08/06
                        Q1021 BECMG 6000 NSW=
201104180620 METAR COR EGLL 180620Z 04004KT 020V080 3100 BR NSC 08/06
                        Q1021 BECMG 6000 NSW=
201104180550 METAR COR EGLL 180550Z VRB02KT 2900 BR NSC 07/06 Q1021 BECMG
                        6000 NSW=
201104180520 METAR COR EGLL 180520Z 03002KT 2600 BR NSC 07/05 Q1021 NOSIG=
201104180450 METAR COR EGLL 180450Z 03003KT 2500 BR NSC 07/06 Q1022 NOSIG=
201104180420 METAR COR EGLL 180420Z 04004KT 4500 HZ NSC 08/06 Q1022 NOSIG=
201104180350 METAR COR EGLL 180350Z 04004KT 4000 HZ NSC 08/06 Q1022 NOSIG=
201104180320 METAR COR EGLL 180320Z 04003KT 3000 HZ NSC 08/06 Q1022 NOSIG=
201104180250 METAR COR EGLL 180250Z 03002KT 2900 HZ NSC 08/06 Q1022 NOSIG=
201104180220 METAR COR EGLL 180220Z 04003KT 3300 HZ NSC 08/07 Q1023 NOSIG=
201104180150 METAR COR EGLL 180150Z 04004KT 4000 HZ NSC 08/07 Q1023 NOSIG=
201104180120 METAR COR EGLL 180120Z 05002KT 4600 HZ NSC 09/07 Q1023 NOSIG=
201104180050 METAR COR EGLL 180050Z 06002KT 6000 NSC 09/07 Q1023 NOSIG=
201104180020 METAR COR EGLL 180020Z 06002KT 6000 NSC 09/06 Q1023 NOSIG=
201104172350 METAR COR EGLL 172350Z 07003KT 7000 NSC 10/07 Q1024 NOSIG=
201104172320 METAR COR EGLL 172320Z 08005KT 8000 NSC 10/06 Q1024 NOSIG=
201104172250 METAR COR EGLL 172250Z 08006KT CAVOK 11/07 Q1024 NOSIG=
201104172220 METAR COR EGLL 172220Z 07006KT CAVOK 11/07 Q1024 NOSIG=
201104172150 METAR COR EGLL 172150Z 07005KT CAVOK 11/07 Q1024 NOSIG=
201104172120 METAR COR EGLL 172120Z 09007KT CAVOK 11/07 Q1024 NOSIG=
201104172050 METAR COR EGLL 172050Z 10008KT CAVOK 12/07 Q1024 NOSIG=
201104172020 METAR COR EGLL 172020Z 10010KT CAVOK 13/06 Q1024 NOSIG=
201104171950 METAR COR EGLL 171950Z 10007KT CAVOK 14/05 Q1024 NOSIG=
201104171920 METAR COR EGLL 171920Z 09008KT CAVOK 14/05 Q1024 NOSIG=
201104171850 METAR COR EGLL 171850Z 10007KT CAVOK 15/05 Q1023 NOSIG=
201104171820 METAR COR EGLL 171820Z 09009KT CAVOK 15/04 Q1023 NOSIG=
201104171750 METAR COR EGLL 171750Z 09010KT CAVOK 16/05 Q1023 NOSIG=
201104171720 METAR COR EGLL 171720Z 10009KT CAVOK 17/05 Q1023 NOSIG=
201104171650 METAR COR EGLL 171650Z 09010KT CAVOK 17/06 Q1023 NOSIG=
201104171620 METAR COR EGLL 171620Z 11008KT CAVOK 19/07 Q1023 NOSIG=
201104171550 METAR COR EGLL 171550Z 09007KT CAVOK 18/06 Q1023 NOSIG=
201104171520 METAR COR EGLL 171520Z 10010KT CAVOK 19/06 Q1023 NOSIG=
201104171450 METAR COR EGLL 171450Z 08007KT CAVOK 19/06 Q1023 NOSIG=
201104171420 METAR COR EGLL 171420Z 08008KT CAVOK 18/06 Q1024 NOSIG=
201104171350 METAR COR EGLL 171350Z 07007KT 040V120 CAVOK 19/05 Q1024
                        NOSIG=
201104171320 METAR COR EGLL 171320Z 08007KT 040V110 CAVOK 19/06 Q1024
                        NOSIG=
201104171250 METAR COR EGLL 171250Z 06006KT 020V090 CAVOK 18/04 Q1024
                        NOSIG=
201104171220 METAR COR EGLL 171220Z 09006KT 060V160 CAVOK 19/06 Q1024
                        NOSIG=
201104171150 METAR COR EGLL 171150Z 06004KT 340V160 CAVOK 19/06 Q1025
                        NOSIG=
201104171120 METAR COR EGLL 171120Z VRB03KT 9999 FEW048 19/07 Q1025 NOSIG=
201104171050 METAR COR EGLL 171050Z 06005KT 350V100 9999 FEW044 18/07
                        Q1025 NOSIG=
201104171020 METAR COR EGLL 171020Z VRB03KT CAVOK 17/09 Q1026 NOSIG=
201104170950 METAR COR EGLL 170950Z VRB03KT 9000 NSC 16/09 Q1026 NOSIG=
201104170920 METAR COR EGLL 170920Z VRB02KT CAVOK 15/09 Q1026 NOSIG=
201104170850 METAR COR EGLL 170850Z VRB02KT CAVOK 13/09 Q1025 NOSIG=
201104170820 METAR COR EGLL 170820Z VRB03KT 9000 NSC 12/08 Q1025 NOSIG=
201104170750 METAR COR EGLL 170750Z VRB03KT CAVOK 11/08 Q1025 NOSIG=
201104170720 METAR COR EGLL 170720Z VRB02KT CAVOK 11/08 Q1025 NOSIG=
201104170650 METAR COR EGLL 170650Z VRB03KT 9999 FEW049 10/08 Q1025 NOSIG=
201104170620 METAR COR EGLL 170620Z VRB03KT CAVOK 10/08 Q1025 NOSIG=
201104170550 METAR COR EGLL 170550Z 32003KT CAVOK 10/07 Q1025 NOSIG=
201104170520 METAR COR EGLL 170520Z 00000KT CAVOK 09/07 Q1024 NOSIG=
201104170450 METAR COR EGLL 170450Z 32002KT CAVOK 09/07 Q1024 NOSIG=
201104170420 METAR COR EGLL 170420Z 00000KT CAVOK 10/07 Q1024 NOSIG=
201104170350 METAR COR EGLL 170350Z VRB02KT CAVOK 10/08 Q1024 NOSIG=
201104170320 METAR COR EGLL 170320Z 19003KT CAVOK 09/07 Q1024 NOSIG=
201104170250 METAR COR EGLL 170250Z 26003KT CAVOK 09/07 Q1024 NOSIG=
201104170220 METAR COR EGLL 170220Z 29002KT CAVOK 10/07 Q1024 NOSIG=
201104170150 METAR COR EGLL 170150Z 26003KT CAVOK 10/07 Q1024 NOSIG=
201104170120 METAR COR EGLL 170120Z 31003KT CAVOK 10/07 Q1024 NOSIG=
201104170050 METAR COR EGLL 170050Z 33003KT CAVOK 10/07 Q1024 NOSIG=
201104170020 METAR COR EGLL 170020Z 33004KT CAVOK 11/07 Q1024 NOSIG=
201104162350 METAR COR EGLL 162350Z 28004KT CAVOK 10/07 Q1024 NOSIG=
201104162320 METAR COR EGLL 162320Z 00000KT CAVOK 10/07 Q1024 NOSIG=
201104162250 METAR COR EGLL 162250Z 23003KT CAVOK 11/07 Q1024 NOSIG=
201104162220 METAR COR EGLL 162220Z 27005KT CAVOK 12/07 Q1024 NOSIG=
201104162150 METAR COR EGLL 162150Z 28005KT CAVOK 12/07 Q1023 NOSIG=
201104162120 METAR COR EGLL 162120Z 30005KT CAVOK 13/07 Q1023 NOSIG=
201104162050 METAR COR EGLL 162050Z 26007KT CAVOK 14/07 Q1023 NOSIG=
201104162020 METAR COR EGLL 162020Z 22006KT 190V260 CAVOK 14/07 Q1023
                        NOSIG=
201104161950 METAR COR EGLL 161950Z 22006KT 200V260 CAVOK 14/06 Q1023
                        NOSIG=
201104161920 METAR COR EGLL 161920Z 21006KT 190V250 CAVOK 15/06 Q1023
                        NOSIG=
201104161850 METAR COR EGLL 161850Z VRB03KT CAVOK 15/06 Q1023 NOSIG=
201104161820 METAR COR EGLL 161820Z 27002KT CAVOK 16/06 Q1022 NOSIG=
201104161750 METAR COR EGLL 161750Z 00000KT CAVOK 16/07 Q1022 NOSIG=
201104161720 METAR COR EGLL 161720Z VRB02KT CAVOK 16/07 Q1022 NOSIG=
201104161650 METAR COR EGLL 161650Z VRB03KT CAVOK 16/06 Q1022 NOSIG=
201104161620 METAR COR EGLL 161620Z VRB03KT 9999 FEW046 16/06 Q1022 NOSIG=
201104161550 METAR COR EGLL 161550Z VRB03KT CAVOK 16/07 Q1022 NOSIG=
201104161520 METAR EGLL 161520Z VRB03KT CAVOK 16/07 Q1022=
201104161450 METAR COR EGLL 161450Z 33004KT 290V020 9999 SCT049 16/07
                        Q1022 NOSIG=
201104161420 METAR COR EGLL 161420Z 31005KT 280V010 9999 SCT042 16/07
                        Q1022 NOSIG=
201104161350 METAR COR EGLL 161350Z 29005KT 260V330 9999 SCT040 16/07
                        Q1022 NOSIG=
201104161320 METAR COR EGLL 161320Z 31006KT 280V340 9999 SCT038 16/07
                        Q1022 NOSIG=
201104161250 METAR COR EGLL 161250Z 24005KT 140V300 9999 FEW039 16/07
                        Q1022 NOSIG=
201104161220 METAR COR EGLL 161220Z VRB03KT 9999 FEW036 17/06 Q1022 NOSIG=
201104161150 METAR COR EGLL 161150Z VRB04KT 9999 FEW036 17/07 Q1022 NOSIG=
201104161120 METAR COR EGLL 161120Z 26007KT 200V300 9999 FEW036 16/07
                        Q1023 NOSIG=
201104161050 METAR COR EGLL 161050Z 21005KT 130V270 CAVOK 16/08 Q1023
                        NOSIG=
201104161020 METAR COR EGLL 161020Z 22005KT 180V300 CAVOK 16/08 Q1023
                        NOSIG=
201104160950 METAR COR EGLL 160950Z 21005KT 180V250 CAVOK 14/08 Q1023
                        NOSIG=
201104160920 METAR COR EGLL 160920Z 20004KT 150V270 CAVOK 13/08 Q1023
                        NOSIG=
201104160850 METAR COR EGLL 160850Z 23004KT 180V270 9000 NSC 12/08 Q1023
                        NOSIG=
201104160820 METAR COR EGLL 160820Z 22004KT 180V250 9000 NSC 12/07 Q1023
                        NOSIG=
201104160750 METAR COR EGLL 160750Z 23004KT 190V280 8000 NSC 11/07 Q1022
                        NOSIG=
201104160720 METAR COR EGLL 160720Z VRB02KT 8000 NSC 10/07 Q1022 NOSIG=
201104160650 METAR COR EGLL 160650Z 27004KT 8000 NSC 10/07 Q1022 NOSIG=
201104160620 METAR COR EGLL 160620Z 25006KT 210V270 8000 NSC 10/07 Q1022
                        NOSIG=
201104160550 METAR COR EGLL 160550Z 24005KT 180V280 8000 NSC 10/06 Q1022
                        NOSIG=
201104160520 METAR COR EGLL 160520Z VRB03KT 8000 NSC 10/06 Q1021 NOSIG=
201104160450 METAR COR EGLL 160450Z 22004KT 170V250 8000 NSC 10/06 Q1021
                        NOSIG=
201104160420 METAR COR EGLL 160420Z 22004KT 8000 NSC 10/06 Q1021 NOSIG=
201104160350 METAR COR EGLL 160350Z 20004KT 9000 NSC 10/06 Q1021 NOSIG=
201104160320 METAR COR EGLL 160320Z 22003KT 9000 NSC 10/06 Q1021 NOSIG=
201104160250 METAR COR EGLL 160250Z 20003KT 9000 NSC 10/06 Q1021 NOSIG=
201104160220 METAR COR EGLL 160220Z 22003KT 9000 NSC 09/06 Q1021 NOSIG=
201104160150 METAR COR EGLL 160150Z 22003KT 9000 NSC 10/06 Q1021 NOSIG=
201104160120 METAR COR EGLL 160120Z 22004KT CAVOK 10/06 Q1021 NOSIG=
201104160050 METAR COR EGLL 160050Z 23004KT CAVOK 10/06 Q1021 NOSIG=
201104160020 METAR COR EGLL 160020Z 21005KT CAVOK 11/06 Q1022 NOSIG=
201104152350 METAR COR EGLL 152350Z 20005KT 170V240 CAVOK 11/06 Q1022
                        NOSIG=
201104152320 METAR COR EGLL 152320Z 19004KT CAVOK 11/06 Q1022 NOSIG=
201104152250 METAR COR EGLL 152250Z 21004KT CAVOK 11/06 Q1022 NOSIG=
201104152220 METAR COR EGLL 152220Z 22007KT 180V270 CAVOK 12/06 Q1021
                        NOSIG=
201104152150 METAR COR EGLL 152150Z 21008KT 180V260 CAVOK 13/06 Q1021
                        NOSIG=
201104152120 METAR COR EGLL 152120Z 24009KT CAVOK 13/05 Q1021 NOSIG=
201104152050 METAR COR EGLL 152050Z 26009KT CAVOK 13/05 Q1021 NOSIG=
201104152020 METAR COR EGLL 152020Z 24007KT 210V270 9999 SCT045 13/06
                        Q1021 NOSIG=
201104151950 METAR COR EGLL 151950Z 25008KT 200V280 9999 BKN044 13/06
                        Q1021 NOSIG=
201104151920 METAR COR EGLL 151920Z 22006KT 180V280 9999 BKN045 14/05
                        Q1020 NOSIG=
201104151850 METAR COR EGLL 151850Z AUTO 20005KT 160V240 9999NDV BKN047///
                        14/06 Q1020=
201104151820 METAR COR EGLL 151820Z 18006KT 140V230 9999 SCT047 14/05
                        Q1020 NOSIG=
201104151750 METAR COR EGLL 151750Z 19007KT 150V240 CAVOK 15/04 Q1020
                        NOSIG=
201104151720 METAR COR EGLL 151720Z 20007KT 160V270 CAVOK 15/04 Q1020
                        NOSIG=
201104151650 METAR COR EGLL 151650Z 19006KT 130V260 CAVOK 16/05 Q1020
                        NOSIG=
201104151620 METAR EGLL 151620Z AUTO 17007KT 120V240 9999NDV NCD 16/05
                        Q1020=
201104151550 METAR COR EGLL 151550Z VRB05KT CAVOK 16/04 Q1020 NOSIG=
201104151520 METAR COR EGLL 151520Z VRB04KT 9999 FEW046 16/05 Q1020 NOSIG=
201104151450 METAR COR EGLL 151450Z 20004KT 130V290 9999 FEW047 16/05
                        Q1020 NOSIG=
201104151420 METAR COR EGLL 151420Z 26007KT 9999 SCT047 15/05 Q1020 NOSIG=
201104151350 METAR COR EGLL 151350Z 24005KT 190V290 9999 SCT047 16/05
                        Q1020 NOSIG=
201104151320 METAR COR EGLL 151320Z 21007KT 130V270 CAVOK 16/05 Q1020
                        NOSIG=
201104151250 METAR COR EGLL 151250Z 19006KT 120V250 CAVOK 17/05 Q1020
                        NOSIG=
201104151220 METAR COR EGLL 151220Z 22006KT 130V270 9999 FEW036 16/05
                        Q1021 NOSIG=
201104151150 METAR COR EGLL 151150Z 24006KT 9999 FEW036 15/06 Q1021 NOSIG=
201104151120 METAR COR EGLL 151120Z 24005KT 190V290 CAVOK 15/06 Q1021
                        NOSIG=
201104151050 METAR COR EGLL 151050Z 20005KT 110V260 CAVOK 14/06 Q1021
                        NOSIG=
201104151020 METAR COR EGLL 151020Z 23006KT 190V270 CAVOK 13/06 Q1021
                        NOSIG=
201104150950 METAR COR EGLL 150950Z 21005KT 120V250 CAVOK 13/06 Q1021
                        NOSIG=
201104150920 METAR COR EGLL 150920Z 18005KT 120V250 CAVOK 12/05 Q1021
                        NOSIG=
201104150850 METAR COR EGLL 150850Z VRB03KT CAVOK 12/05 Q1021 NOSIG=
201104150820 METAR COR EGLL 150820Z VRB03KT CAVOK 11/05 Q1020 NOSIG=
201104150750 METAR COR EGLL 150750Z 14004KT 110V190 CAVOK 11/06 Q1020
                        NOSIG=
201104150720 METAR COR EGLL 150720Z VRB03KT CAVOK 10/06 Q1020 NOSIG=
201104150650 METAR COR EGLL 150650Z VRB03KT CAVOK 10/06 Q1020 NOSIG=
201104150620 METAR COR EGLL 150620Z VRB03KT CAVOK 09/06 Q1020 NOSIG=
201104150550 METAR EGLL 150550Z 21004KT 160V230 CAVOK 09/06 Q1020 NOSIG=
201104150520 METAR COR EGLL 150520Z 20004KT 160V220 CAVOK 09/06 Q1020
                        NOSIG=
201104150450 METAR COR EGLL 150450Z 20004KT 170V250 CAVOK 09/06 Q1020
                        NOSIG=
201104150420 METAR COR EGLL 150420Z 21004KT 190V270 CAVOK 09/06 Q1019
                        NOSIG=
201104150350 METAR COR EGLL 150350Z 19004KT CAVOK 10/06 Q1019 NOSIG=
201104150320 METAR COR EGLL 150320Z 20003KT CAVOK 09/06 Q1019 NOSIG=
201104150250 METAR COR EGLL 150250Z 21002KT CAVOK 10/06 Q1019 NOSIG=
201104150220 METAR COR EGLL 150220Z 22004KT CAVOK 10/06 Q1019 NOSIG=
201104150150 METAR EGLL 150150Z 22004KT CAVOK 10/06 Q1019=
201104150120 METAR EGLL 150120Z AUTO VRB03KT 9999NDV NCD 10/06 Q1019=
201104150050 METAR EGLL 150050Z AUTO 26003KT 9999NDV NCD 10/06 Q1019=
201104150020 METAR EGLL 150020Z AUTO 21004KT 9999NDV NCD 10/06 Q1019=
201104142350 METAR COR EGLL 142350Z 22004KT CAVOK 10/06 Q1019 NOSIG=
201104142320 METAR COR EGLL 142320Z 21004KT CAVOK 11/06 Q1019 NOSIG=
201104142250 METAR EGLL 142250Z 20005KT 180V250 CAVOK 11/06 Q1019=
201104142220 METAR EGLL 142220Z 20005KT 180V250 CAVOK 11/06 Q1019=
201104142150 METAR COR EGLL 142150Z 20006KT 150V260 CAVOK 11/06 Q1019
                        NOSIG=
201104142120 METAR COR EGLL 142120Z 21006KT 170V270 CAVOK 12/06 Q1019
                        NOSIG=
201104142050 METAR COR EGLL 142050Z 22006KT 160V250 CAVOK 12/06 Q1019
                        NOSIG=
201104142020 METAR COR EGLL 142020Z 22006KT CAVOK 12/06 Q1019 NOSIG=
201104141950 METAR COR EGLL 141950Z 22006KT 150V260 CAVOK 12/06 Q1019
                        NOSIG=
201104141920 METAR COR EGLL 141920Z 24006KT 210V280 9999 FEW033 12/06
                        Q1019 NOSIG=
201104141850 METAR COR EGLL 141850Z 25007KT 9999 SCT033 12/07 Q1019 NOSIG=
201104141820 METAR COR EGLL 141820Z 21007KT 9999 FEW033 12/07 Q1018 NOSIG=
201104141750 METAR COR EGLL 141750Z 22006KT 9999 BKN032 13/06 Q1018 NOSIG=
201104141720 METAR COR EGLL 141720Z 23007KT 190V260 9999 FEW038 13/06
                        Q1018 NOSIG=
201104141650 METAR COR EGLL 141650Z 21006KT 150V260 9999 FEW034 13/06
                        Q1018 NOSIG=
201104141620 METAR COR EGLL 141620Z 23006KT 180V270 9999 FEW036 13/06
                        Q1018 NOSIG=
201104141550 METAR COR EGLL 141550Z 22007KT 150V280 9999 BKN048 13/06
                        Q1018 NOSIG=
201104141520 METAR COR EGLL 141520Z 20007KT 150V250 9999 FEW031 BKN043
                        13/06 Q1018 NOSIG=
201104141450 METAR COR EGLL 141450Z 22007KT 180V260 9999 BKN038 13/06
                        Q1018 NOSIG=
201104141420 METAR COR EGLL 141420Z 21007KT 140V250 9999 SCT035 13/06
                        Q1018 NOSIG=
201104141350 METAR COR EGLL 141350Z 21006KT 170V260 9999 SCT031 13/06
                        Q1018 NOSIG=
201104141320 METAR COR EGLL 141320Z 20007KT 160V240 9999 FEW030 13/06
                        Q1018 NOSIG=
201104141250 METAR COR EGLL 141250Z 22006KT 180V250 9999 FEW030 13/06
                        Q1018 NOSIG=
201104141220 METAR COR EGLL 141220Z 21007KT 170V250 9999 FEW028 13/06
                        Q1019 NOSIG=
201104141150 METAR COR EGLL 141150Z 19007KT 150V240 9999 FEW029 13/06
                        Q1019 NOSIG=
201104141120 METAR COR EGLL 141120Z 20007KT 170V240 9999 FEW033 13/06
                        Q1019 NOSIG=
201104141050 METAR COR EGLL 141050Z 17005KT 120V230 CAVOK 12/06 Q1019
                        NOSIG=
201104141020 METAR COR EGLL 141020Z 17006KT 090V240 CAVOK 11/06 Q1019
                        NOSIG=
201104140950 METAR COR EGLL 140950Z 19006KT 110V270 9999 FEW031 SCT034
                        11/06 Q1019 NOSIG=
201104140920 METAR COR EGLL 140920Z 18005KT 150V240 9999 FEW031 SCT036
                        10/06 Q1019 NOSIG=
201104140850 METAR COR EGLL 140850Z 18006KT 120V220 9999 BKN032 10/06
                        Q1019 NOSIG=
201104140820 METAR COR EGLL 140820Z 20006KT 160V250 9999 FEW030 BKN033
                        09/06 Q1019 NOSIG=
201104140750 METAR COR EGLL 140750Z 22006KT 9999 BKN033 09/06 Q1019 NOSIG=
201104140720 METAR COR EGLL 140720Z 22006KT 9999 BKN033 09/06 Q1019 NOSIG=
201104140650 METAR COR EGLL 140650Z 20005KT 160V240 9999 BKN032 09/05
                        Q1018 NOSIG=
201104140620 METAR COR EGLL 140620Z 19005KT 160V240 9999 BKN035 08/05
                        Q1018 NOSIG=
201104140550 METAR COR EGLL 140550Z VRB05KT 9999 BKN036 08/05 Q1018 NOSIG=
201104140520 METAR COR EGLL 140520Z 19005KT 140V240 9999 SCT034 08/05
                        Q1018 NOSIG=
201104140450 METAR COR EGLL 140450Z 21005KT 9999 FEW035 BKN047 08/05 Q1018
                        NOSIG=
201104140420 METAR COR EGLL 140420Z 22006KT 9999 FEW037 SCT048 08/05 Q1018
                        NOSIG=
201104140350 METAR COR EGLL 140350Z 20006KT 160V230 9999 FEW042 BKN049
                        08/05 Q1018 NOSIG=
201104140320 METAR EGLL 140320Z 21005KT 9999 SCT042 BKN048 08/05 Q1018=
201104140250 METAR COR EGLL 140250Z 18004KT 9999 FEW041 BKN048 08/05 Q1018
                        NOSIG=
201104140220 METAR COR EGLL 140220Z 19005KT 9999 FEW028 BKN047 08/05 Q1018
                        NOSIG=
201104140150 METAR COR EGLL 140150Z 18005KT 9999 SCT030 BKN048 08/05 Q1018
                        NOSIG=
201104140120 METAR EGLL 140120Z AUTO 18005KT 9999NDV BKN033/// 08/05 Q1019=
201104140050 METAR EGLL 140050Z AUTO 19006KT 9999NDV SCT032/// OVC037///
                        08/05 Q1019=
201104140020 METAR EGLL 140020Z AUTO 21006KT 9999NDV BKN033/// BKN037///
                        08/05 Q1019=
201104132350 METAR COR EGLL 132350Z 21006KT 9999 BKN032 08/05 Q1019 NOSIG=
201104132320 METAR COR EGLL 132320Z 21006KT 180V260 9999 SCT033 SCT042
                        08/05 Q1019 NOSIG=
201104132250 METAR COR EGLL 132250Z 21008KT 9999 SCT036 07/05 Q1019 NOSIG=
201104132220 METAR COR EGLL 132220Z 22008KT 9999 SCT024 SCT029 08/05 Q1020
                        NOSIG=
201104132150 METAR EGLL 132150Z 22010KT 180V250 9999 BKN031 08/04 Q1020=
201104132120 METAR COR EGLL 132120Z 22008KT 180V260 9999 SCT032 08/04
                        Q1020 NOSIG=
201104132050 METAR COR EGLL 132050Z 22009KT 170V260 9999 FEW048 08/03
                        Q1020 NOSIG=
201104132020 METAR COR EGLL 132020Z 22008KT 200V260 9999 OVC047 08/03
                        Q1020 NOSIG=
201104131950 METAR COR EGLL 131950Z 23010KT 9999 SCT044 09/03 Q1020 NOSIG=
201104131920 METAR COR EGLL 131920Z 23011G21KT 9999 FEW041 09/03 Q1020
                        NOSIG=
201104131850 METAR COR EGLL 131850Z 23012KT CAVOK 09/02 Q1020 NOSIG=
201104131820 METAR COR EGLL 131820Z 23013KT 9999 SCT040 10/02 Q1020 NOSIG=
201104131750 METAR COR EGLL 131750Z 22010KT 9999 BKN037 10/02 Q1020 NOSIG=
201104131720 METAR COR EGLL 131720Z 21008KT 180V250 9999 FEW039 BKN043
                        11/03 Q1020 NOSIG=
201104131650 METAR COR EGLL 131650Z 22010KT 9999 FEW048 11/03 Q1020 NOSIG=
201104131620 METAR COR EGLL 131620Z 23012KT 190V250 CAVOK 11/03 Q1020
                        NOSIG=
201104131550 METAR COR EGLL 131550Z 23011KT 190V260 CAVOK 11/03 Q1020
                        NOSIG=
201104131520 METAR COR EGLL 131520Z 25013KT 9999 BKN042 11/02 Q1020 NOSIG=
201104131450 METAR COR EGLL 131450Z 27012KT 9999 BKN047 12/02 Q1021 NOSIG=
201104131420 METAR COR EGLL 131420Z 25012KT 190V280 9999 BKN048 12/02
                        Q1021 NOSIG=
201104131350 METAR COR EGLL 131350Z 26007KT 210V290 9999 BKN044 12/02
                        Q1021 NOSIG=
201104131320 METAR COR EGLL 131320Z 24010KT 210V270 9999 SCT046 12/03
                        Q1021 NOSIG=
201104131250 METAR COR EGLL 131250Z 23010KT 9999 BKN048 13/02 Q1022 NOSIG=
201104131220 METAR COR EGLL 131220Z 24012KT 210V270 9999 SCT043 13/01
                        Q1022 NOSIG=
201104131150 METAR COR EGLL 131150Z 23007KT 190V290 9999 SCT046 11/03
                        Q1023 NOSIG=
201104131120 METAR COR EGLL 131120Z 23009KT 190V260 CAVOK 11/03 Q1023
                        NOSIG=
201104131050 METAR COR EGLL 131050Z 25010KT 210V290 CAVOK 11/02 Q1024
                        NOSIG=
201104131020 METAR COR EGLL 131020Z 23008KT 200V260 CAVOK 10/03 Q1024
                        NOSIG=
201104130950 METAR COR EGLL 130950Z 24007KT 190V280 CAVOK 10/04 Q1024
                        NOSIG=
201104130920 METAR COR EGLL 130920Z 22007KT 190V260 CAVOK 09/04 Q1024
                        NOSIG=
201104130850 METAR COR EGLL 130850Z 23006KT 180V250 CAVOK 08/04 Q1024
                        NOSIG=
201104130820 METAR COR EGLL 130820Z 22005KT CAVOK 08/04 Q1024 NOSIG=
201104130750 METAR COR EGLL 130750Z 21004KT CAVOK 07/04 Q1025 NOSIG=
201104130720 METAR COR EGLL 130720Z 22004KT 180V250 CAVOK 06/03 Q1025
                        NOSIG=
201104130650 METAR COR EGLL 130650Z 21004KT 180V260 CAVOK 06/03 Q1025
                        NOSIG=
201104130620 METAR COR EGLL 130620Z 19005KT 130V250 CAVOK 06/03 Q1025
                        NOSIG=
201104130550 METAR COR EGLL 130550Z 18004KT 140V200 CAVOK 05/03 Q1025
                        NOSIG=
201104130520 METAR COR EGLL 130520Z VRB03KT CAVOK 05/03 Q1025 NOSIG=
201104130450 METAR COR EGLL 130450Z 28004KT CAVOK 05/03 Q1026 NOSIG=
201104130420 METAR COR EGLL 130420Z 27004KT CAVOK 05/03 Q1026 NOSIG=
201104130350 METAR COR EGLL 130350Z 28003KT CAVOK 05/03 Q1026 NOSIG=
201104130320 METAR COR EGLL 130320Z 23004KT CAVOK 05/03 Q1026 NOSIG=
201104130250 METAR COR EGLL 130250Z 22003KT CAVOK 05/03 Q1027 NOSIG=
201104130220 METAR COR EGLL 130220Z 24004KT CAVOK 05/03 Q1027 NOSIG=
201104130150 METAR COR EGLL 130150Z 29002KT CAVOK 05/03 Q1027 NOSIG=
201104130120 METAR COR EGLL 130120Z 27002KT CAVOK 06/02 Q1027 NOSIG=
201104130050 METAR COR EGLL 130050Z 30004KT CAVOK 06/02 Q1028 NOSIG=
201104130020 METAR COR EGLL 130020Z 27004KT CAVOK 06/02 Q1028 NOSIG=
201104122350 METAR COR EGLL 122350Z 25003KT CAVOK 07/02 Q1028 NOSIG=
201104122320 METAR COR EGLL 122320Z 29004KT CAVOK 05/00 Q1029 NOSIG=
201104122250 METAR COR EGLL 122250Z 31004KT CAVOK 05/01 Q1029 NOSIG=
201104122220 METAR COR EGLL 122220Z 30005KT CAVOK 07/00 Q1029 NOSIG=
201104122150 METAR COR EGLL 122150Z 30005KT CAVOK 08/M00 Q1029 NOSIG=
201104122120 METAR COR EGLL 122120Z VRB03KT CAVOK 10/M02 Q1029 NOSIG=
201104122050 METAR COR EGLL 122050Z 31004KT CAVOK 10/M00 Q1029 NOSIG=
201104122020 METAR COR EGLL 122020Z 29004KT CAVOK 10/M00 Q1029 NOSIG=
201104121950 METAR COR EGLL 121950Z 29005KT CAVOK 12/M01 Q1029 NOSIG=
201104121920 METAR COR EGLL 121920Z 30004KT CAVOK 12/M02 Q1029 NOSIG=
201104121850 METAR COR EGLL 121850Z 30004KT CAVOK 12/M02 Q1029 NOSIG=
201104121820 METAR COR EGLL 121820Z 32005KT CAVOK 13/M02 Q1029 NOSIG=
201104121750 METAR COR EGLL 121750Z 32006KT CAVOK 13/M03 Q1029 NOSIG=
201104121720 METAR COR EGLL 121720Z 32008KT 280V010 CAVOK 13/M03 Q1029
                        NOSIG=
201104121650 METAR COR EGLL 121650Z 31006KT 280V010 CAVOK 14/M03 Q1029
                        NOSIG=
201104121620 METAR COR EGLL 121620Z 32008KT CAVOK 13/M03 Q1029 NOSIG=
201104121550 METAR EGLL 121550Z AUTO 30008KT 9999NDV NCD 13/M03 Q1029=
201104121520 METAR COR EGLL 121520Z 32010KT CAVOK 14/M03 Q1029 NOSIG=
201104121450 METAR COR EGLL 121450Z 32009KT 280V360 CAVOK 14/M03 Q1030
                        NOSIG=
201104121420 METAR COR EGLL 121420Z 29011KT CAVOK 13/M02 Q1030 NOSIG=
201104121350 METAR COR EGLL 121350Z 32009KT 280V360 CAVOK 14/M03 Q1030
                        NOSIG=
201104121320 METAR COR EGLL 121320Z 30011KT 260V340 CAVOK 13/M02 Q1030
                        NOSIG=
201104121250 METAR COR EGLL 121250Z 32011KT CAVOK 13/M02 Q1030 NOSIG=
201104121220 METAR COR EGLL 121220Z 32011KT 290V350 CAVOK 12/M01 Q1030
                        NOSIG=
201104121150 METAR COR EGLL 121150Z 32012KT 290V360 9999 SCT049 13/M02
                        Q1030 NOSIG=
201104121120 METAR COR EGLL 121120Z 31010KT 280V350 9999 SCT046 13/M01
                        Q1030 NOSIG=
201104121050 METAR COR EGLL 121050Z 31011KT 9999 FEW044 12/M00 Q1030 NOSIG=
201104121020 METAR COR EGLL 121020Z 32012KT 290V360 9999 SCT041 11/M00
                        Q1030 NOSIG=
201104120950 METAR COR EGLL 120950Z 32009KT 300V360 9999 SCT038 11/01
                        Q1031 NOSIG=
201104120920 METAR COR EGLL 120920Z 31010KT 290V360 9999 SCT035 10/01
                        Q1031 NOSIG=
201104120850 METAR COR EGLL 120850Z 32010KT 280V360 9999 FEW030 10/01
                        Q1031 NOSIG=
201104120820 METAR COR EGLL 120820Z 31011KT 9999 FEW032 09/01 Q1031 NOSIG=
201104120750 METAR COR EGLL 120750Z 31011KT 280V360 9999 FEW032 09/01
                        Q1031 NOSIG=
201104120720 METAR COR EGLL 120720Z 31010KT 280V340 9999 FEW020 08/02
                        Q1030 NOSIG=
201104120650 METAR COR EGLL 120650Z 30008KT 9999 FEW020 07/02 Q1030 NOSIG=
201104120620 METAR COR EGLL 120620Z 29008KT CAVOK 06/02 Q1030 NOSIG=
201104120550 METAR COR EGLL 120550Z 29006KT CAVOK 06/02 Q1030 NOSIG=
201104120520 METAR COR EGLL 120520Z 31006KT CAVOK 05/02 Q1029 NOSIG=
201104120450 METAR COR EGLL 120450Z 30007KT CAVOK 06/02 Q1029 NOSIG=
201104120420 METAR COR EGLL 120420Z 31007KT CAVOK 06/02 Q1028 NOSIG=
201104120350 METAR COR EGLL 120350Z 30008KT CAVOK 06/02 Q1028 NOSIG=
201104120320 METAR COR EGLL 120320Z 30008KT CAVOK 06/02 Q1028 NOSIG=
201104120250 METAR COR EGLL 120250Z 30009KT 270V330 CAVOK 07/02 Q1027
                        NOSIG=
201104120220 METAR COR EGLL 120220Z 31010KT 280V340 CAVOK 07/02 Q1027
                        NOSIG=
201104120150 METAR COR EGLL 120150Z 30010KT 280V340 CAVOK 08/02 Q1027
                        NOSIG=
201104120120 METAR EGLL 120120Z AUTO 30011KT 9999NDV NCD 08/02 Q1027=
201104120050 METAR EGLL 120050Z AUTO 30009KT 9999NDV NCD 08/03 Q1026=
201104120020 METAR EGLL 120020Z AUTO 30009KT 9999NDV NCD 08/02 Q1026=
201104112350 METAR COR EGLL 112350Z 30008KT CAVOK 08/03 Q1026 NOSIG=
201104112320 METAR COR EGLL 112320Z 30007KT CAVOK 09/03 Q1026 NOSIG=
201104112250 METAR COR EGLL 112250Z 30007KT CAVOK 10/03 Q1025 NOSIG=
201104112220 METAR COR EGLL 112220Z 30007KT CAVOK 10/03 Q1025 NOSIG=
201104112150 METAR COR EGLL 112150Z 31006KT 9999 FEW040 10/03 Q1025 NOSIG=
201104112120 METAR COR EGLL 112120Z 31007KT 9999 FEW043 SCT048 11/03 Q1025
                        NOSIG=
201104112050 METAR COR EGLL 112050Z 31006KT CAVOK 11/02 Q1024 NOSIG=
201104112020 METAR COR EGLL 112020Z 31007KT CAVOK 12/02 Q1024 NOSIG=
201104111950 METAR COR EGLL 111950Z 30010KT CAVOK 13/01 Q1023 NOSIG=
201104111920 METAR COR EGLL 111920Z 29011KT CAVOK 13/00 Q1023 NOSIG=
201104111850 METAR COR EGLL 111850Z 30013KT CAVOK 14/M00 Q1022 NOSIG=
201104111820 METAR COR EGLL 111820Z 30014KT 9999 FEW045 15/01 Q1022 NOSIG=
201104111750 METAR COR EGLL 111750Z 30009KT CAVOK 15/06 Q1022 NOSIG=
201104111720 METAR COR EGLL 111720Z 30008KT 9999 SCT045 15/08 Q1021 NOSIG=
201104111650 METAR COR EGLL 111650Z 32011KT 9999 -SHRA SCT026 SCT035 14/09
                        Q1021 NOSIG=
201104111620 METAR COR EGLL 111620Z 28016KT 9999 FEW029 SCT035 16/10 Q1021
                        NOSIG=
201104111550 METAR COR EGLL 111550Z AUTO 27013KT 9999NDV FEW029/// 17/10
                        Q1021=
201104111520 METAR COR EGLL 111520Z 28014KT 9999 SCT028 17/10 Q1021 NOSIG=
201104111450 METAR COR EGLL 111450Z 28016KT 9999 SCT032 SCT040 17/10 Q1021
                        NOSIG=
201104111420 METAR COR EGLL 111420Z 28017KT 9999 SCT034 SCT039 18/10 Q1021
                        NOSIG=
201104111350 METAR COR EGLL 111350Z 28014KT 9999 SCT035 19/10 Q1021 NOSIG=
201104111320 METAR COR EGLL 111320Z 29010KT 9999 FEW032 20/10 Q1021 NOSIG=
201104111250 METAR COR EGLL 111250Z 27012KT 9999 FEW030 19/10 Q1021 NOSIG=
201104111220 METAR COR EGLL 111220Z 28013KT CAVOK 18/10 Q1021 NOSIG=
201104111150 METAR COR EGLL 111150Z 27012KT 240V300 CAVOK 18/09 Q1021
                        NOSIG=
201104111120 METAR COR EGLL 111120Z 26009KT 210V300 CAVOK 18/10 Q1021
                        NOSIG=
201104111050 METAR COR EGLL 111050Z 27010KT 240V310 CAVOK 18/10 Q1022
                        NOSIG=
201104111020 METAR COR EGLL 111020Z 27009KT CAVOK 16/09 Q1022 NOSIG=
201104110950 METAR COR EGLL 110950Z 27009KT CAVOK 16/09 Q1022 NOSIG=
201104110920 METAR COR EGLL 110920Z 27008KT CAVOK 14/08 Q1022 NOSIG=
201104110850 METAR COR EGLL 110850Z 27008KT CAVOK 14/08 Q1022 NOSIG=
201104110820 METAR COR EGLL 110820Z 28005KT CAVOK 12/07 Q1022 NOSIG=
201104110750 METAR COR EGLL 110750Z 26004KT 220V300 CAVOK 11/06 Q1022
                        NOSIG=
201104110720 METAR COR EGLL 110720Z 27004KT 230V300 CAVOK 10/05 Q1022
                        NOSIG=
201104110650 METAR COR EGLL 110650Z 25004KT 200V280 CAVOK 09/06 Q1022
                        NOSIG=
201104110620 METAR COR EGLL 110620Z VRB03KT CAVOK 08/05 Q1022 NOSIG=
201104110550 METAR COR EGLL 110550Z 00000KT CAVOK 07/04 Q1022 NOSIG=
201104110520 METAR COR EGLL 110520Z VRB03KT CAVOK 06/04 Q1022 NOSIG=
201104110450 METAR COR EGLL 110450Z 00000KT CAVOK 07/04 Q1022 NOSIG=
201104110420 METAR COR EGLL 110420Z 00000KT CAVOK 07/04 Q1022 NOSIG=
201104110350 METAR COR EGLL 110350Z 00000KT CAVOK 07/04 Q1022 NOSIG=
201104110320 METAR COR EGLL 110320Z 35002KT CAVOK 06/04 Q1023 NOSIG=
201104110250 METAR COR EGLL 110250Z 01002KT CAVOK 07/04 Q1023 NOSIG=
201104110220 METAR COR EGLL 110220Z 00000KT CAVOK 07/04 Q1023 NOSIG=
201104110150 METAR COR EGLL 110150Z 00000KT CAVOK 08/04 Q1023 NOSIG=
201104110120 METAR EGLL 110120Z AUTO 00000KT 9999NDV NCD 08/04 Q1023=
201104110050 METAR EGLL 110050Z AUTO 00000KT 9999NDV NCD 09/03 Q1023=
201104110020 METAR EGLL 110020Z AUTO 09003KT 9999NDV NCD 10/02 Q1023=
201104102350 METAR COR EGLL 102350Z 09002KT CAVOK 09/03 Q1023 NOSIG=
201104102320 METAR COR EGLL 102320Z 09004KT CAVOK 09/02 Q1024 NOSIG=
201104102250 METAR COR EGLL 102250Z 09003KT CAVOK 10/01 Q1024 NOSIG=
201104102220 METAR COR EGLL 102220Z 09004KT CAVOK 09/02 Q1024 NOSIG=
201104102150 METAR COR EGLL 102150Z 10005KT CAVOK 11/02 Q1024 NOSIG=
201104102120 METAR COR EGLL 102120Z 09004KT CAVOK 10/02 Q1024 NOSIG=
201104102050 METAR COR EGLL 102050Z 09004KT CAVOK 11/02 Q1024 NOSIG=
201104102020 METAR COR EGLL 102020Z 09006KT CAVOK 12/01 Q1024 NOSIG=
201104101950 METAR COR EGLL 101950Z 10006KT CAVOK 12/M01 Q1024 NOSIG=
201104101920 METAR COR EGLL 101920Z 08004KT CAVOK 15/M02 Q1024 NOSIG=
201104101850 METAR COR EGLL 101850Z 10005KT CAVOK 16/M02 Q1023 NOSIG=
201104101820 METAR EGLL 101820Z 10007KT CAVOK 15/M01 Q1023=
201104101750 METAR COR EGLL 101750Z 09007KT CAVOK 16/00 Q1023 NOSIG=
201104101720 METAR COR EGLL 101720Z 09007KT CAVOK 17/02 Q1023 NOSIG=
201104101650 METAR COR EGLL 101650Z 10006KT CAVOK 19/02 Q1023 NOSIG=
201104101620 METAR COR EGLL 101620Z 11008KT CAVOK 19/03 Q1023 NOSIG=
201104101550 METAR COR EGLL 101550Z 10008KT CAVOK 20/04 Q1023 NOSIG=
201104101520 METAR COR EGLL 101520Z 10006KT CAVOK 20/04 Q1023 NOSIG=
201104101450 METAR COR EGLL 101450Z 11008KT 080V150 CAVOK 20/03 Q1023
                        NOSIG=
201104101420 METAR COR EGLL 101420Z 10008KT 070V130 CAVOK 20/04 Q1024
                        NOSIG=
201104101350 METAR COR EGLL 101350Z 11008KT CAVOK 20/04 Q1024 NOSIG=
201104101320 METAR COR EGLL 101320Z 08008KT CAVOK 20/05 Q1024 NOSIG=
201104101250 METAR COR EGLL 101250Z 07008KT 350V130 CAVOK 19/05 Q1024
                        NOSIG=
201104101220 METAR COR EGLL 101220Z 07008KT CAVOK 19/05 Q1024 NOSIG=
201104101150 METAR COR EGLL 101150Z 08009KT 050V110 CAVOK 18/05 Q1024
                        NOSIG=
201104101120 METAR COR EGLL 101120Z 08007KT 040V120 CAVOK 17/06 Q1024
                        NOSIG=
201104101050 METAR COR EGLL 101050Z 08008KT 050V110 CAVOK 17/07 Q1025
                        NOSIG=
201104101020 METAR COR EGLL 101020Z 08008KT 040V100 CAVOK 15/06 Q1025
                        NOSIG=
201104100950 METAR COR EGLL 100950Z 08007KT CAVOK 14/07 Q1025 NOSIG=
201104100920 METAR COR EGLL 100920Z 08007KT 040V120 9000 NSC 13/06 Q1025
                        NOSIG=
201104100850 METAR COR EGLL 100850Z 07006KT 9000 NSC 12/06 Q1025 NOSIG=
201104100820 METAR COR EGLL 100820Z 07007KT 020V090 9000 NSC 11/06 Q1024
                        NOSIG=
201104100750 METAR COR EGLL 100750Z 06005KT 9000 NSC 09/05 Q1024 NOSIG=
201104100720 METAR COR EGLL 100720Z 05004KT 020V090 9000 NSC 08/05 Q1024
                        NOSIG=
201104100650 METAR COR EGLL 100650Z 04004KT 9000 NSC 07/04 Q1024 NOSIG=
201104100620 METAR COR EGLL 100620Z 03004KT 350V070 9000 NSC 06/03 Q1024
                        NOSIG=
201104100550 METAR COR EGLL 100550Z VRB03KT 9000 NSC 06/03 Q1024 NOSIG=
201104100520 METAR COR EGLL 100520Z 03004KT 350V060 9000 NSC 06/03 Q1024
                        NOSIG=
201104100450 METAR COR EGLL 100450Z 04004KT 9000 NSC 06/03 Q1024 NOSIG=
201104100420 METAR COR EGLL 100420Z 03004KT 350V060 8000 NSC 06/03 Q1024
                        NOSIG=
201104100350 METAR COR EGLL 100350Z 04004KT 8000 NSC 06/04 Q1024 NOSIG=
201104100320 METAR COR EGLL 100320Z 04004KT 8000 NSC 07/04 Q1024 NOSIG=
201104100250 METAR COR EGLL 100250Z 04004KT 9000 NSC 07/04 Q1024 NOSIG=
201104100220 METAR COR EGLL 100220Z 04005KT 8000 NSC 07/04 Q1024 NOSIG=
201104100150 METAR COR EGLL 100150Z 06005KT 9000 NSC 07/04 Q1024 NOSIG=
201104100120 METAR EGLL 100120Z AUTO 05004KT 8000NDV NCD 07/04 Q1024=
201104100050 METAR COR EGLL 100050Z AUTO 06003KT 8000NDV NCD 08/04 Q1024=
201104100020 METAR COR EGLL 100020Z AUTO 06003KT 8000NDV NCD 08/04 Q1024
                        NOSIG=
201104092350 METAR COR EGLL 092350Z 06004KT 030V090 9000 NSC 08/04 Q1024
                        NOSIG=
201104092320 METAR COR EGLL 092320Z 06004KT 9000 NSC 08/05 Q1024 NOSIG=
201104092250 METAR COR EGLL 092250Z 07006KT 9000 NSC 09/04 Q1024 NOSIG=
201104092220 METAR COR EGLL 092220Z 07006KT 040V100 9000 NSC 09/03 Q1024
                        NOSIG=
201104092150 METAR COR EGLL 092150Z 07007KT 9000 NSC 09/03 Q1024 NOSIG=
201104092120 METAR EGLL 092120Z 07006KT CAVOK 10/03 Q1024=
201104092050 METAR COR EGLL 092050Z 06005KT CAVOK 10/02 Q1024 NOSIG=
201104092020 METAR EGLL 092020Z 09006KT CAVOK 10/02 Q1024=
201104091950 METAR COR EGLL 091950Z 10008KT CAVOK 10/02 Q1024 NOSIG=
201104091920 METAR COR EGLL 091920Z 10009KT CAVOK 11/01 Q1024 NOSIG=
201104091850 METAR COR EGLL 091850Z 10009KT CAVOK 12/02 Q1023 NOSIG=
201104091820 METAR COR EGLL 091820Z 10011KT CAVOK 13/02 Q1024 NOSIG=
201104091750 METAR COR EGLL 091750Z 10009KT CAVOK 13/04 Q1024 NOSIG=
201104091720 METAR COR EGLL 091720Z 10012KT CAVOK 14/06 Q1024 NOSIG=
201104091650 METAR COR EGLL 091650Z 10011KT CAVOK 15/07 Q1024 NOSIG=
201104091620 METAR COR EGLL 091620Z 09011KT CAVOK 16/08 Q1024 NOSIG=
201104091550 METAR COR EGLL 091550Z 10011KT CAVOK 17/08 Q1024 NOSIG=
201104091520 METAR COR EGLL 091520Z 10011KT CAVOK 18/09 Q1024 NOSIG=
201104091450 METAR COR EGLL 091450Z 10012KT CAVOK 18/08 Q1024 NOSIG=
201104091420 METAR COR EGLL 091420Z 10011KT CAVOK 19/09 Q1025 NOSIG=
201104091350 METAR COR EGLL 091350Z 10012KT 050V140 CAVOK 19/08 Q1025
                        NOSIG=
201104091320 METAR COR EGLL 091320Z 10013KT CAVOK 19/08 Q1025 NOSIG=
201104091250 METAR COR EGLL 091250Z 11012KT CAVOK 18/08 Q1026 NOSIG=
201104091220 METAR COR EGLL 091220Z 09013KT 050V120 CAVOK 18/08 Q1026
                        NOSIG=
201104091150 METAR COR EGLL 091150Z 08012KT 040V110 CAVOK 18/08 Q1026
                        NOSIG=
201104091120 METAR COR EGLL 091120Z 09012KT CAVOK 18/08 Q1026 NOSIG=
201104091050 METAR COR EGLL 091050Z 08012KT CAVOK 17/08 Q1027 NOSIG=
201104091020 METAR COR EGLL 091020Z 10012KT CAVOK 17/08 Q1027 NOSIG=
201104090950 METAR COR EGLL 090950Z 09010KT CAVOK 16/08 Q1027 NOSIG=
201104090920 METAR COR EGLL 090920Z 07007KT 020V120 CAVOK 15/07 Q1027
                        NOSIG=
201104090850 METAR COR EGLL 090850Z 07007KT 030V090 CAVOK 14/06 Q1027
                        NOSIG=
201104090820 METAR COR EGLL 090820Z 06005KT 030V100 CAVOK 13/05 Q1027
                        NOSIG=
201104090750 METAR COR EGLL 090750Z 07005KT 030V100 CAVOK 12/05 Q1027
                        NOSIG=
201104090720 METAR COR EGLL 090720Z 07005KT CAVOK 11/05 Q1027 NOSIG=
201104090650 METAR COR EGLL 090650Z VRB03KT CAVOK 10/04 Q1027 NOSIG=
201104090620 METAR COR EGLL 090620Z 07003KT CAVOK 09/03 Q1027 NOSIG=
201104090550 METAR COR EGLL 090550Z 08004KT CAVOK 08/02 Q1026 NOSIG=
201104090520 METAR COR EGLL 090520Z 07004KT CAVOK 09/02 Q1026 NOSIG=
201104090450 METAR COR EGLL 090450Z 08003KT CAVOK 09/02 Q1026 NOSIG=
201104090420 METAR COR EGLL 090420Z 06003KT CAVOK 09/03 Q1026 NOSIG=
201104090350 METAR COR EGLL 090350Z 07003KT CAVOK 10/03 Q1026 NOSIG=
201104090320 METAR COR EGLL 090320Z 07003KT CAVOK 10/03 Q1026 NOSIG=
201104090250 METAR COR EGLL 090250Z AUTO 08004KT 9999NDV NCD 10/04 Q1026=
201104090220 METAR COR EGLL 090220Z 09006KT CAVOK 09/04 Q1026 NOSIG=
201104090150 METAR COR EGLL 090150Z 09006KT CAVOK 09/04 Q1026 NOSIG=
201104090120 METAR COR EGLL 090120Z AUTO 08007KT 9999NDV NCD 11/04 Q1026=
201104090050 METAR COR EGLL 090050Z AUTO 07005KT 9999NDV NCD 12/05 Q1027=
201104090020 METAR COR EGLL 090020Z AUTO 08006KT 9999NDV NCD 12/07 Q1027=
201104082350 METAR COR EGLL 082350Z 09006KT CAVOK 13/06 Q1026 NOSIG=
201104082320 METAR COR EGLL 082320Z 05003KT CAVOK 13/07 Q1026 NOSIG=
201104082250 METAR COR EGLL 082250Z 09003KT CAVOK 14/07 Q1026 NOSIG=
201104082220 METAR COR EGLL 082220Z 08002KT CAVOK 14/07 Q1026 NOSIG=
201104082150 METAR COR EGLL 082150Z 00000KT CAVOK 14/07 Q1026 NOSIG=
201104082120 METAR COR EGLL 082120Z 00000KT CAVOK 16/07 Q1026 NOSIG=
201104082050 METAR COR EGLL 082050Z 00000KT CAVOK 16/07 Q1026 NOSIG=
201104082020 METAR COR EGLL 082020Z VRB02KT CAVOK 17/07 Q1026 NOSIG=
201104081950 METAR COR EGLL 081950Z 00000KT CAVOK 17/06 Q1026 NOSIG=
201104081920 METAR COR EGLL 081920Z 05003KT CAVOK 18/06 Q1025 NOSIG=
201104081850 METAR COR EGLL 081850Z 05003KT CAVOK 19/05 Q1025 NOSIG=
201104081820 METAR COR EGLL 081820Z 06003KT CAVOK 20/06 Q1025 NOSIG=
201104081750 METAR COR EGLL 081750Z VRB02KT CAVOK 20/05 Q1025 NOSIG=
201104081720 METAR COR EGLL 081720Z VRB03KT CAVOK 21/05 Q1025 NOSIG=
201104081650 METAR COR EGLL 081650Z VRB03KT CAVOK 21/05 Q1025 NOSIG=
201104081620 METAR COR EGLL 081620Z 05004KT 340V120 CAVOK 21/05 Q1025
                        NOSIG=
201104081550 METAR COR EGLL 081550Z VRB03KT CAVOK 21/05 Q1025 NOSIG=
201104081520 METAR COR EGLL 081520Z VRB03KT CAVOK 21/05 Q1026 NOSIG=
201104081450 METAR COR EGLL 081450Z VRB02KT CAVOK 21/06 Q1026 NOSIG=
201104081420 METAR COR EGLL 081420Z VRB03KT CAVOK 21/05 Q1026 NOSIG=
201104081350 METAR COR EGLL 081350Z VRB04KT CAVOK 20/04 Q1026 NOSIG=
201104081320 METAR COR EGLL 081320Z VRB03KT CAVOK 20/04 Q1026 NOSIG=
201104081250 METAR COR EGLL 081250Z VRB04KT CAVOK 19/03 Q1027 NOSIG=
201104081220 METAR EGLL 081220Z 29005KT 230V330 CAVOK 19/02 Q1027=
201104081150 METAR COR EGLL 081150Z VRB03KT CAVOK 18/02 Q1027 NOSIG=
201104081120 METAR COR EGLL 081120Z VRB02KT CAVOK 18/03 Q1027 NOSIG=
201104081050 METAR EGLL 081050Z VRB04KT CAVOK 17/06 Q1028=
201104081020 METAR COR EGLL 081020Z VRB03KT CAVOK 16/06 Q1028 NOSIG=
201104080950 METAR COR EGLL 080950Z VRB03KT CAVOK 15/06 Q1028 NOSIG=
201104080920 METAR COR EGLL 080920Z VRB03KT CAVOK 15/07 Q1028 NOSIG=
201104080850 METAR COR EGLL 080850Z VRB03KT CAVOK 14/07 Q1028 NOSIG=
201104080820 METAR COR EGLL 080820Z 01005KT 330V060 CAVOK 13/07 Q1028
                        NOSIG=
201104080750 METAR COR EGLL 080750Z 36004KT 320V030 CAVOK 12/07 Q1028
                        NOSIG=
201104080720 METAR EGLL 080720Z 35004KT 310V040 CAVOK 10/06 Q1028=
201104080650 METAR COR EGLL 080650Z 31004KT 280V340 CAVOK 09/07 Q1028
                        NOSIG=
201104080620 METAR COR EGLL 080620Z 31003KT CAVOK 08/05 Q1028 NOSIG=
201104080550 METAR COR EGLL 080550Z 32003KT CAVOK 08/05 Q1028 NOSIG=
201104080520 METAR COR EGLL 080520Z 28004KT CAVOK 08/05 Q1028 NOSIG=
201104080450 METAR COR EGLL 080450Z 27004KT CAVOK 08/05 Q1028 NOSIG=
201104080420 METAR COR EGLL 080420Z 29003KT CAVOK 09/05 Q1028 NOSIG=
201104080350 METAR COR EGLL 080350Z 28003KT CAVOK 09/05 Q1028 NOSIG=
201104080320 METAR COR EGLL 080320Z VRB03KT 9999 FEW033 10/05 Q1028 NOSIG=
201104080250 METAR COR EGLL 080250Z AUTO 31004KT 9999NDV OVC033/// 11/05
                        Q1028=
201104080220 METAR COR EGLL 080220Z 32004KT 290V010 9999 OVC030 11/05
                        Q1028 NOSIG=
201104080150 METAR COR EGLL 080150Z 33006KT 300V010 9999 BKN030 11/06
                        Q1029 NOSIG=
201104080120 METAR COR EGLL 080120Z AUTO 34005KT 310V020 9999NDV SCT028///
                        OVC034/// 12/06 Q1029=
201104080050 METAR COR EGLL 080050Z AUTO 36005KT 310V030 9999NDV BKN035///
                        12/06 Q1029=
201104080020 METAR COR EGLL 080020Z AUTO 34005KT 310V020 9999NDV BKN037///
                        12/08 Q1029=
201104072350 METAR COR EGLL 072350Z 34006KT 310V020 9999 BKN040 13/08
                        Q1029 NOSIG=
201104072320 METAR COR EGLL 072320Z 36007KT 9999 BKN040 14/09 Q1029 NOSIG=
201104072250 METAR COR EGLL 072250Z 01005KT 340V050 9999 BKN040 15/10
                        Q1029 NOSIG=
201104072220 METAR COR EGLL 072220Z VRB03KT 9999 OVC036 15/10 Q1029 NOSIG=
201104072150 METAR COR EGLL 072150Z 35003KT 9999 BKN040 15/10 Q1028 NOSIG=
201104072120 METAR COR EGLL 072120Z 35003KT 9999 SCT040 15/10 Q1028 NOSIG=
201104072050 METAR COR EGLL 072050Z 36003KT 9999 FEW040 15/10 Q1028 NOSIG=
201104072020 METAR COR EGLL 072020Z 36003KT CAVOK 16/10 Q1028 NOSIG=
201104071950 METAR COR EGLL 071950Z VRB03KT CAVOK 16/10 Q1028 NOSIG=
201104071920 METAR COR EGLL 071920Z VRB03KT CAVOK 17/10 Q1028 NOSIG=
201104071850 METAR COR EGLL 071850Z AUTO 33004KT 9999NDV NCD 17/10 Q1028=
201104071820 METAR COR EGLL 071820Z VRB03KT CAVOK 18/10 Q1027 NOSIG=
201104071750 METAR COR EGLL 071750Z 36004KT 9999 FEW041 18/10 Q1027 NOSIG=
201104071720 METAR COR EGLL 071720Z 35005KT 320V020 9999 FEW041 19/10
                        Q1027 NOSIG=
201104071650 METAR COR EGLL 071650Z 36007KT 9999 FEW043 19/11 Q1027 NOSIG=
201104071620 METAR COR EGLL 071620Z 33007KT 300V360 9999 FEW036 19/11
                        Q1027 NOSIG=
201104071550 METAR COR EGLL 071550Z AUTO 35008KT 320V020 9999NDV SCT038///
                        19/11 Q1027=
201104071520 METAR COR EGLL 071520Z 36008KT 9999 BKN040 20/11 Q1027 NOSIG=
201104071450 METAR COR EGLL 071450Z 34005KT 260V050 9999 SCT041 21/11
                        Q1028 NOSIG=
201104071420 METAR COR EGLL 071420Z 31006KT 230V040 9999 SCT041 21/11
                        Q1028 NOSIG=
201104071350 METAR COR EGLL 071350Z 30007KT 250V340 9999 FEW040 21/11
                        Q1028 NOSIG=
201104071320 METAR COR EGLL 071320Z 31008KT 280V350 9999 FEW044 21/10
                        Q1028 NOSIG=
201104071250 METAR COR EGLL 071250Z 29007KT CAVOK 20/10 Q1028 NOSIG=
201104071220 METAR COR EGLL 071220Z VRB07KT CAVOK 20/09 Q1028 NOSIG=
201104071150 METAR COR EGLL 071150Z 27007KT 210V310 CAVOK 19/09 Q1028
                        NOSIG=
201104071120 METAR COR EGLL 071120Z 26007KT 230V300 CAVOK 19/09 Q1028
                        NOSIG=
201104071050 METAR COR EGLL 071050Z 27007KT 240V310 CAVOK 18/09 Q1028
                        NOSIG=
201104071020 METAR COR EGLL 071020Z 29006KT 260V350 CAVOK 17/08 Q1029
                        NOSIG=
201104070950 METAR COR EGLL 070950Z 28005KT 230V320 CAVOK 16/09 Q1029
                        NOSIG=
201104070920 METAR COR EGLL 070920Z 29005KT 260V340 CAVOK 14/08 Q1028
                        NOSIG=
201104070850 METAR COR EGLL 070850Z 29005KT CAVOK 14/08 Q1028 NOSIG=
201104070820 METAR COR EGLL 070820Z 28004KT CAVOK 13/08 Q1028 NOSIG=
201104070750 METAR COR EGLL 070750Z 28006KT CAVOK 12/07 Q1028 NOSIG=
201104070720 METAR COR EGLL 070720Z 27006KT CAVOK 11/06 Q1028 NOSIG=
201104070650 METAR COR EGLL 070650Z 28007KT CAVOK 10/06 Q1027 NOSIG=
201104070620 METAR COR EGLL 070620Z VRB02KT CAVOK 08/05 Q1027 NOSIG=
201104070550 METAR COR EGLL 070550Z 29005KT 250V320 CAVOK 07/04 Q1026
                        NOSIG=
201104070520 METAR COR EGLL 070520Z 26007KT CAVOK 08/04 Q1025 NOSIG=
201104070450 METAR COR EGLL 070450Z 29004KT CAVOK 08/05 Q1025 NOSIG=
201104070420 METAR COR EGLL 070420Z 21003KT CAVOK 08/05 Q1025 NOSIG=
201104070350 METAR COR EGLL 070350Z 26005KT CAVOK 07/04 Q1025 NOSIG=
201104070320 METAR COR EGLL 070320Z 22005KT CAVOK 08/05 Q1025 NOSIG=
201104070250 METAR COR EGLL 070250Z 21004KT CAVOK 08/05 Q1025 NOSIG=
201104070220 METAR COR EGLL 070220Z VRB02KT CAVOK 08/04 Q1025 NOSIG=
201104070150 METAR COR EGLL 070150Z 28003KT CAVOK 09/05 Q1025 NOSIG=
201104070120 METAR COR EGLL 070120Z 28004KT CAVOK 08/05 Q1026 NOSIG=
201104070050 METAR COR EGLL 070050Z 27003KT CAVOK 09/04 Q1026 NOSIG=
201104070020 METAR COR EGLL 070020Z 27003KT CAVOK 10/05 Q1026 NOSIG=
201104062350 METAR COR EGLL 062350Z 26004KT CAVOK 10/05 Q1025 NOSIG=
201104062320 METAR COR EGLL 062320Z 23006KT CAVOK 10/05 Q1025 NOSIG=
201104062250 METAR COR EGLL 062250Z 22006KT CAVOK 11/05 Q1025 NOSIG=
201104062220 METAR COR EGLL 062220Z 24007KT CAVOK 11/05 Q1025 NOSIG=
201104062150 METAR COR EGLL 062150Z 24009KT CAVOK 12/05 Q1025 NOSIG=
201104062120 METAR COR EGLL 062120Z 23009KT CAVOK 14/05 Q1025 NOSIG=
201104062050 METAR EGLL 062050Z 22008KT CAVOK 15/05 Q1025=
201104062020 METAR COR EGLL 062020Z 22009KT CAVOK 15/04 Q1025 NOSIG=
201104061950 METAR COR EGLL 061950Z 21006KT 180V240 CAVOK 16/03 Q1025
                        NOSIG=
201104061920 METAR COR EGLL 061920Z 20007KT 170V240 CAVOK 17/01 Q1024
                        NOSIG=
201104061850 METAR COR EGLL 061850Z 22008KT 190V250 CAVOK 18/00 Q1024
                        NOSIG=
201104061820 METAR COR EGLL 061820Z 23009KT CAVOK 19/M01 Q1024 NOSIG=
201104061750 METAR COR EGLL 061750Z 23009KT CAVOK 20/M02 Q1024 NOSIG=
201104061720 METAR COR EGLL 061720Z 22012KT CAVOK 21/M02 Q1024 NOSIG=
201104061650 METAR COR EGLL 061650Z 23013KT CAVOK 22/M01 Q1024 NOSIG=
201104061620 METAR COR EGLL 061620Z 22011KT CAVOK 22/M01 Q1024 NOSIG=
201104061550 METAR COR EGLL 061550Z 21012KT CAVOK 22/01 Q1024 NOSIG=
201104061520 METAR COR EGLL 061520Z 21011KT CAVOK 23/04 Q1024 NOSIG=
201104061450 METAR COR EGLL 061450Z 21010KT 180V250 CAVOK 22/04 Q1025
                        NOSIG=
201104061420 METAR COR EGLL 061420Z 22012KT CAVOK 22/05 Q1025 NOSIG=
201104061350 METAR COR EGLL 061350Z 22011KT CAVOK 22/05 Q1025 NOSIG=
201104061320 METAR COR EGLL 061320Z 23012KT 200V260 CAVOK 22/08 Q1026
                        NOSIG=
201104061250 METAR COR EGLL 061250Z 22013KT CAVOK 22/09 Q1026 NOSIG=
201104061220 METAR COR EGLL 061220Z 24013KT 200V260 CAVOK 22/09 Q1026
                        NOSIG=
201104061150 METAR COR EGLL 061150Z 21012KT 180V250 CAVOK 21/09 Q1026
                        NOSIG=
201104061120 METAR COR EGLL 061120Z 23012KT CAVOK 21/07 Q1026 NOSIG=
201104061050 METAR COR EGLL 061050Z 22010KT 190V250 CAVOK 20/05 Q1026
                        NOSIG=
201104061020 METAR COR EGLL 061020Z 24010KT 200V270 CAVOK 20/04 Q1026
                        NOSIG=
201104060950 METAR COR EGLL 060950Z 23009KT 190V270 CAVOK 19/03 Q1026
                        NOSIG=
201104060920 METAR COR EGLL 060920Z 24008KT 200V280 CAVOK 18/03 Q1026
                        NOSIG=
201104060850 METAR COR EGLL 060850Z 24008KT 200V270 CAVOK 16/05 Q1026
                        NOSIG=
201104060820 METAR COR EGLL 060820Z 22008KT 200V260 CAVOK 16/07 Q1026
                        NOSIG=
201104060750 METAR COR EGLL 060750Z 24009KT CAVOK 14/08 Q1026 NOSIG=
201104060720 METAR COR EGLL 060720Z 23009KT CAVOK 13/08 Q1026 NOSIG=
201104060650 METAR COR EGLL 060650Z 21008KT CAVOK 13/09 Q1026 NOSIG=
201104060620 METAR COR EGLL 060620Z 20007KT CAVOK 12/10 Q1025 NOSIG=
201104060550 METAR COR EGLL 060550Z 20007KT 120V230 9999 FEW014 14/11
                        Q1025 NOSIG=
201104060520 METAR COR EGLL 060520Z 21005KT 180V250 9999 BKN013 13/11
                        Q1025 BECMG BKN016=
201104060450 METAR COR EGLL 060450Z 21005KT 9999 BKN013 13/11 Q1025 BECMG
                        BKN018=
201104060420 METAR COR EGLL 060420Z 22006KT 9999 BKN012 13/10 Q1025 BECMG
                        BKN018=
201104060350 METAR COR EGLL 060350Z 23007KT 9999 BKN012 12/10 Q1024 BECMG
                        BKN018=
201104060320 METAR COR EGLL 060320Z 21005KT 9000 BKN013 13/10 Q1024 BECMG
                        BKN018=
201104060250 METAR COR EGLL 060250Z 22007KT 9000 BKN013 12/10 Q1024 NOSIG=
201104060220 METAR COR EGLL 060220Z 21007KT 9000 BKN012 12/10 Q1024 NOSIG=
201104060150 METAR COR EGLL 060150Z 22007KT 9000 BKN011 12/10 Q1024 NOSIG=
201104060120 METAR EGLL 060120Z AUTO 22007KT 8000NDV OVC009/// 12/10 Q1024=
201104060050 METAR EGLL 060050Z AUTO 22007KT 8000NDV OVC010/// 12/10 Q1024=
201104060020 METAR EGLL 060020Z AUTO 22008KT 8000NDV OVC009/// 12/10 Q1024=
201104052350 METAR COR EGLL 052350Z 21008KT 9000 BKN010 12/10 Q1024 TEMPO
                        BKN009=
201104052320 METAR COR EGLL 052320Z 22007KT 8000 FEW009 BKN010 12/10 Q1024
                        TEMPO BKN009=
201104052250 METAR COR EGLL 052250Z 22007KT 8000 FEW008 BKN009 12/10 Q1024
                        NOSIG=
201104052220 METAR COR EGLL 052220Z 22008KT 9000 FEW007 BKN008 12/10 Q1024
                        NOSIG=
201104052150 METAR COR EGLL 052150Z 21010KT 9000 FEW007 BKN009 12/10 Q1024
                        NOSIG=
201104052120 METAR COR EGLL 052120Z 21008KT 9000 FEW008 BKN010 12/10 Q1023
                        TEMPO BKN008=
201104052050 METAR COR EGLL 052050Z 21009KT 9000 BKN009 12/10 Q1023 NOSIG=
201104052020 METAR COR EGLL 052020Z 21010KT 190V250 9999 BKN009 12/10
                        Q1023 NOSIG=
201104051950 METAR COR EGLL 051950Z 22011KT 9999 SCT009 BKN013 12/10 Q1023
                        TEMPO BKN009=
201104051920 METAR COR EGLL 051920Z 22010KT 9999 BKN009 12/10 Q1023 NOSIG=
201104051850 METAR COR EGLL 051850Z 22008KT 9999 OVC010 12/10 Q1022 TEMPO
                        BKN008=
201104051820 METAR COR EGLL 051820Z 23011KT 9999 OVC009 13/10 Q1022 NOSIG=
201104051750 METAR COR EGLL 051750Z 21008KT 9999 BKN010 13/10 Q1022 TEMPO
                        BKN008=
201104051720 METAR COR EGLL 051720Z 22011KT 9999 BKN010 13/10 Q1022 TEMPO
                        BKN008=
201104051650 METAR COR EGLL 051650Z 22010KT 9999 BKN011 13/10 Q1022 NOSIG=
201104051620 METAR COR EGLL 051620Z 23011KT 9999 BKN011 13/10 Q1022 NOSIG=
201104051550 METAR COR EGLL 051550Z 23012KT 9999 BKN010 13/10 Q1021 TEMPO
                        BKN008=
201104051520 METAR COR EGLL 051520Z 23015KT 9999 OVC010 13/10 Q1022 TEMPO
                        BKN008=
201104051450 METAR COR EGLL 051450Z 23014KT 9999 BKN010 13/10 Q1021 TEMPO
                        BKN008=
201104051420 METAR COR EGLL 051420Z 22011KT 9999 FEW010 BKN011 13/10 Q1021
                        TEMPO BKN008=
201104051350 METAR COR EGLL 051350Z 22012KT 9999 FEW010 BKN011 13/10 Q1021
                        TEMPO BKN008=
201104051320 METAR COR EGLL 051320Z 23013KT 9999 BKN011 13/10 Q1021 TEMPO
                        BKN008=
201104051250 METAR COR EGLL 051250Z 23013KT 9999 BKN011 12/10 Q1021 TEMPO
                        BKN008=
201104051220 METAR COR EGLL 051220Z 23012KT 190V250 9999 BKN011 12/10
                        Q1021 TEMPO BKN008=
201104051150 METAR COR EGLL 051150Z 22010G21KT 190V260 9999 BKN011 12/09
                        Q1021 NOSIG=
201104051120 METAR COR EGLL 051120Z 22012KT 190V250 9999 BKN010 12/09
                        Q1020 NOSIG=
201104051050 METAR COR EGLL 051050Z 23012KT 9999 BKN010 11/09 Q1021 TEMPO
                        BKN008=
201104051020 METAR COR EGLL 051020Z 23014G25KT 9999 BKN011 11/09 Q1020
                        TEMPO BKN008=
201104050950 METAR COR EGLL 050950Z 23015KT 9999 BKN014 11/09 Q1020 NOSIG=
201104050920 METAR COR EGLL 050920Z 23016KT 9999 -RA BKN013 11/08 Q1020
                        NOSIG=
201104050850 METAR COR EGLL 050850Z 23018KT 9999 -RA BKN014 10/08 Q1020
                        NOSIG=
201104050820 METAR COR EGLL 050820Z 23016KT 9999 -RA FEW013 BKN017 10/08
                        Q1020 NOSIG=
201104050750 METAR COR EGLL 050750Z 23016KT 9999 -RA BKN018 10/07 Q1020
                        NOSIG=
201104050720 METAR COR EGLL 050720Z 23017KT 9999 -RA SCT017 BKN020 BKN034
                        10/07 Q1020 NOSIG=
201104050650 METAR COR EGLL 050650Z 23015KT 9000 -RA SCT019 BKN034 10/07
                        Q1020 NOSIG=
201104050620 METAR COR EGLL 050620Z 22012KT 9999 FEW021 BKN042 10/07 Q1019
                        NOSIG=
201104050550 METAR COR EGLL 050550Z 23014KT 9999 BKN022 10/06 Q1020 NOSIG=
201104050520 METAR COR EGLL 050520Z 22016KT 9999 FEW022 SCT027 10/07 Q1020
                        NOSIG=
201104050450 METAR COR EGLL 050450Z 22012KT 9999 SCT020 09/07 Q1019 NOSIG=
201104050420 METAR COR EGLL 050420Z 21011KT 9999 BKN023 09/07 Q1019 NOSIG=
201104050350 METAR COR EGLL 050350Z 21010KT 9999 SCT023 09/07 Q1020 NOSIG=
201104050320 METAR COR EGLL 050320Z 21009KT 9999 -RA FEW020 09/07 Q1020
                        NOSIG=
201104050250 METAR COR EGLL 050250Z 21008KT 9999 -RA FEW021 09/07 Q1021
                        NOSIG=
201104050220 METAR COR EGLL 050220Z 22009KT 9999 -RA FEW023 09/07 Q1021
                        NOSIG=
201104050150 METAR COR EGLL 050150Z 22010KT 9999 -RA SCT019 09/07 Q1021
                        NOSIG=
201104050120 METAR COR EGLL 050120Z 21009KT 9999 FEW018 09/06 Q1021 NOSIG=
201104050050 METAR COR EGLL 050050Z 21009KT 9999 FEW015 09/07 Q1021 NOSIG=
201104050020 METAR COR EGLL 050020Z 21007KT 9999 SCT015 09/06 Q1022 NOSIG=
201104042350 METAR COR EGLL 042350Z 22010KT 9999 SCT018 09/06 Q1022 NOSIG=
201104042320 METAR COR EGLL 042320Z 21009KT CAVOK 09/06 Q1022 NOSIG=
201104042250 METAR COR EGLL 042250Z 21009KT 9999 FEW040 09/06 Q1022 NOSIG=
201104042220 METAR COR EGLL 042220Z 21010KT 9999 SCT040 10/06 Q1022 NOSIG=
201104042150 METAR COR EGLL 042150Z 22009KT 9999 FEW044 09/06 Q1022 NOSIG=
201104042120 METAR COR EGLL 042120Z 21009KT 9999 SCT044 10/06 Q1022 NOSIG=
201104042050 METAR COR EGLL 042050Z 21009KT 9999 BKN047 10/06 Q1022 NOSIG=
201104042020 METAR COR EGLL 042020Z 22010KT 9999 BKN043 10/06 Q1022 NOSIG=
201104041950 METAR COR EGLL 041950Z 23013KT 9999 FEW040 BKN042 11/06 Q1022
                        NOSIG=
201104041920 METAR COR EGLL 041920Z 23013KT 9999 BKN043 11/05 Q1022 NOSIG=
201104041850 METAR COR EGLL 041850Z 23016KT 9999 BKN044 11/05 Q1022 NOSIG=
201104041820 METAR COR EGLL 041820Z 23015KT 9999 FEW027 BKN045 11/05 Q1021
                        NOSIG=
201104041750 METAR COR EGLL 041750Z 22013KT 9999 FEW028 BKN044 12/05 Q1021
                        NOSIG=
201104041720 METAR COR EGLL 041720Z 22014KT 9999 FEW036 BKN045 12/05 Q1021
                        NOSIG=
201104041650 METAR COR EGLL 041650Z 23017KT 9999 FEW037 BKN045 12/04 Q1021
                        NOSIG=
201104041620 METAR COR EGLL 041620Z 22015KT 9999 FEW039 BKN048 13/04 Q1021
                        NOSIG=
201104041550 METAR COR EGLL 041550Z 22016G27KT 9999 FEW046 13/03 Q1020
                        NOSIG=
201104041520 METAR COR EGLL 041520Z 23015KT 9999 FEW048 14/02 Q1020 NOSIG=
201104041450 METAR COR EGLL 041450Z 23016KT 9999 SCT045 14/03 Q1020 NOSIG=
201104041420 METAR COR EGLL 041420Z 24017KT 9999 BKN043 13/03 Q1021 NOSIG=
201104041350 METAR COR EGLL 041350Z 23015KT 9999 SCT038 13/04 Q1021 TEMPO
                        25017G27KT=
201104041320 METAR COR EGLL 041320Z 24015KT 200V270 9999 FEW038 SCT042
                        12/04 Q1022 TEMPO 25017G27KT=
201104041250 METAR COR EGLL 041250Z 25015G25KT 9999 SCT040 12/04 Q1022
                        NOSIG=
201104041220 METAR COR EGLL 041220Z 23016G27KT 9999 SCT037 12/03 Q1022
                        NOSIG=
201104041150 METAR EGLL 041150Z 23014KT 9999 SCT036 11/03 Q1022=
201104041120 METAR COR EGLL 041120Z 25015KT 9999 FEW039 11/03 Q1022 NOSIG=
201104041050 METAR COR EGLL 041050Z 27011KT 9999 FEW030 11/03 Q1022 NOSIG=
201104041020 METAR EGLL 041020Z 25013KT 9999 SCT025 11/03 Q1021=
201104040950 METAR COR EGLL 040950Z 26012KT 9999 SCT023 11/04 Q1022 NOSIG=
201104040920 METAR COR EGLL 040920Z 26013KT 9999 SCT022 10/04 Q1022 NOSIG=
201104040850 METAR COR EGLL 040850Z 27013KT 9999 FEW020 10/05 Q1022 NOSIG=
201104040820 METAR COR EGLL 040820Z 27012KT 9999 FEW020 09/05 Q1022 NOSIG=
201104040750 METAR COR EGLL 040750Z 27010KT 9999 FEW020 08/05 Q1021 NOSIG=
201104040720 METAR COR EGLL 040720Z 23007KT CAVOK 07/05 Q1021 NOSIG=
201104040650 METAR COR EGLL 040650Z 22007KT CAVOK 06/05 Q1021 NOSIG=
201104040620 METAR COR EGLL 040620Z 23006KT 180V260 9000 NSC 05/04 Q1020
                        NOSIG=
201104040550 METAR COR EGLL 040550Z 25007KT 8000 NSC 04/03 Q1020 NOSIG=
201104040520 METAR EGLL 040520Z 25009KT 8000 NSC 04/03 Q1019=
201104040450 METAR COR EGLL 040450Z 25008KT 8000 NSC 04/03 Q1019 NOSIG=
201104040420 METAR COR EGLL 040420Z 25007KT 8000 FEW007 04/03 Q1019 TEMPO
                        BKN008=
201104040350 METAR COR EGLL 040350Z 27007KT 9000 FEW005 04/03 Q1019 TEMPO
                        BKN008=
201104040320 METAR COR EGLL 040320Z 27008KT 9000 SCT005 05/04 Q1018 TEMPO
                        BKN005=
201104040250 METAR COR EGLL 040250Z 27007KT CAVOK 05/03 Q1018 TEMPO BKN008=
201104040220 METAR COR EGLL 040220Z 26007KT CAVOK 05/03 Q1018 TEMPO BKN008=
201104040150 METAR COR EGLL 040150Z 27007KT CAVOK 05/04 Q1018 NOSIG=
201104040120 METAR COR EGLL 040120Z 27007KT 9999 FEW030 06/04 Q1018 NOSIG=
201104040050 METAR COR EGLL 040050Z 27009KT CAVOK 06/04 Q1018 NOSIG=
201104040020 METAR COR EGLL 040020Z 28009KT CAVOK 07/05 Q1018 NOSIG=
201104032350 METAR COR EGLL 032350Z 27008KT CAVOK 07/05 Q1018 NOSIG=
201104032320 METAR COR EGLL 032320Z 27008KT 9999 FEW037 08/05 Q1017 NOSIG=
201104032250 METAR COR EGLL 032250Z 27008KT CAVOK 08/05 Q1017 NOSIG=
201104032220 METAR COR EGLL 032220Z 26011KT CAVOK 09/06 Q1017 NOSIG=
201104032150 METAR COR EGLL 032150Z 26010KT CAVOK 09/06 Q1016 NOSIG=
201104032120 METAR COR EGLL 032120Z 26010KT CAVOK 08/05 Q1016 NOSIG=
201104032050 METAR COR EGLL 032050Z 25010KT CAVOK 09/06 Q1016 NOSIG=
201104032020 METAR COR EGLL 032020Z 24009KT CAVOK 10/05 Q1016 NOSIG=
201104031950 METAR COR EGLL 031950Z 26010KT CAVOK 10/05 Q1015 NOSIG=
201104031920 METAR COR EGLL 031920Z 26010KT 220V280 CAVOK 11/05 Q1015
                        NOSIG=
201104031850 METAR COR EGLL 031850Z 25012KT 9999 FEW030 11/05 Q1015 NOSIG=
201104031820 METAR COR EGLL 031820Z 25012KT 9999 FEW030 11/05 Q1014 NOSIG=
201104031750 METAR COR EGLL 031750Z 27011KT 9999 SCT030 12/07 Q1014 NOSIG=
201104031720 METAR COR EGLL 031720Z 31006KT 9999 SCT030 BKN042CB 12/07
                        Q1014 NOSIG=
201104031650 METAR COR EGLL 031650Z 24014KT 9999 BKN036CB 14/06 Q1013
                        NOSIG=
201104031620 METAR COR EGLL 031620Z 22012KT 9999 SCT036 15/06 Q1013 NOSIG=
201104031550 METAR COR EGLL 031550Z 23013KT 9999 SCT034 15/07 Q1013 NOSIG=
201104031520 METAR COR EGLL 031520Z 24013KT 9999 SCT035 15/06 Q1013 NOSIG=
201104031450 METAR COR EGLL 031450Z 24012KT 9999 SCT040 15/06 Q1013 NOSIG=
201104031420 METAR COR EGLL 031420Z 24012KT 9999 BKN035 14/06 Q1013 NOSIG=
201104031350 METAR COR EGLL 031350Z 23011KT 9999 FEW038 14/06 Q1014 NOSIG=
201104031320 METAR COR EGLL 031320Z 23010KT 190V260 9999 FEW028 SCT035
                        14/06 Q1014 NOSIG=
201104031250 METAR COR EGLL 031250Z 25008KT 9999 FEW028 SCT037 14/07 Q1014
                        NOSIG=
201104031220 METAR COR EGLL 031220Z 26009KT 9999 SCT031 14/06 Q1014 NOSIG=
201104031150 METAR COR EGLL 031150Z 25010KT 210V280 9999 SCT025 SCT040
                        13/07 Q1014 NOSIG=
201104031120 METAR COR EGLL 031120Z 24008KT 9999 SCT025 14/07 Q1014 NOSIG=
201104031050 METAR COR EGLL 031050Z 24009KT 200V270 9999 FEW023 14/07
                        Q1014 NOSIG=
201104031020 METAR COR EGLL 031020Z 24008KT 9999 SCT018 13/08 Q1014 NOSIG=
201104030950 METAR COR EGLL 030950Z 25009KT 210V270 9999 SCT016 12/08
                        Q1014 NOSIG=
201104030920 METAR COR EGLL 030920Z 23007KT 190V260 9999 FEW016 11/07
                        Q1014 NOSIG=
201104030850 METAR COR EGLL 030850Z 22007KT CAVOK 11/07 Q1014 NOSIG=
201104030820 METAR COR EGLL 030820Z 23008KT 200V270 CAVOK 10/06 Q1014
                        NOSIG=
201104030750 METAR COR EGLL 030750Z 22005KT 190V250 CAVOK 09/06 Q1014
                        NOSIG=
201104030720 METAR COR EGLL 030720Z 22005KT 180V260 CAVOK 08/06 Q1014
                        NOSIG=
201104030650 METAR COR EGLL 030650Z 20006KT 160V280 CAVOK 07/05 Q1014
                        NOSIG=
201104030620 METAR COR EGLL 030620Z 19004KT 140V250 CAVOK 06/05 Q1014
                        NOSIG=
201104030550 METAR COR EGLL 030550Z 23004KT 200V260 CAVOK 05/03 Q1014
                        NOSIG=
201104030520 METAR COR EGLL 030520Z 22006KT CAVOK 06/04 Q1014 NOSIG=
201104030450 METAR COR EGLL 030450Z 21003KT CAVOK 06/04 Q1013 NOSIG=
201104030420 METAR COR EGLL 030420Z 21003KT CAVOK 05/03 Q1013 NOSIG=
201104030350 METAR COR EGLL 030350Z 20004KT CAVOK 06/03 Q1013 NOSIG=
201104030320 METAR COR EGLL 030320Z 26004KT CAVOK 07/04 Q1013 NOSIG=
201104030250 METAR COR EGLL 030250Z 27005KT CAVOK 07/04 Q1013 NOSIG=
201104030220 METAR EGLL 030220Z 26004KT CAVOK 07/03 Q1013=
201104030150 METAR COR EGLL 030150Z 27004KT CAVOK 08/04 Q1013 NOSIG=
201104030120 METAR EGLL 030120Z AUTO 26005KT 9999NDV NCD 07/04 Q1013=
201104030050 METAR EGLL 030050Z AUTO 28004KT 9999NDV NCD 08/04 Q1013=
201104030020 METAR EGLL 030020Z AUTO 25004KT 9999NDV NCD 08/04 Q1013=
201104022350 METAR COR EGLL 022350Z 29003KT CAVOK 08/04 Q1013 NOSIG=
201104022320 METAR COR EGLL 022320Z 27006KT CAVOK 09/05 Q1013 NOSIG=
201104022250 METAR COR EGLL 022250Z 28005KT CAVOK 09/05 Q1013 NOSIG=
201104022220 METAR COR EGLL 022220Z 26005KT CAVOK 09/05 Q1013 NOSIG=
201104022150 METAR COR EGLL 022150Z 27007KT CAVOK 10/05 Q1013 NOSIG=
201104022120 METAR COR EGLL 022120Z 28008KT CAVOK 11/05 Q1013 NOSIG=
201104022050 METAR COR EGLL 022050Z 28006KT CAVOK 11/05 Q1012 NOSIG=
201104022020 METAR COR EGLL 022020Z 28007KT CAVOK 11/05 Q1012 NOSIG=
201104021950 METAR COR EGLL 021950Z 28006KT CAVOK 12/06 Q1012 NOSIG=
201104021920 METAR COR EGLL 021920Z 28006KT CAVOK 12/05 Q1012 NOSIG=
201104021850 METAR COR EGLL 021850Z 28007KT CAVOK 13/05 Q1012 NOSIG=
201104021820 METAR COR EGLL 021820Z 27010KT CAVOK 14/05 Q1011 NOSIG=
201104021750 METAR COR EGLL 021750Z 27011KT CAVOK 14/06 Q1011 NOSIG=
201104021720 METAR COR EGLL 021720Z 27012KT CAVOK 15/07 Q1010 NOSIG=
201104021650 METAR COR EGLL 021650Z 27011KT 9999 FEW038 16/08 Q1010 NOSIG=
201104021620 METAR COR EGLL 021620Z 27012KT 9999 FEW035 16/09 Q1010 NOSIG=
201104021550 METAR COR EGLL 021550Z 28012KT 9999 FEW035 16/09 Q1010 NOSIG=
201104021520 METAR COR EGLL 021520Z 29010KT 9999 FEW035 17/09 Q1009 NOSIG=
201104021450 METAR EGLL 021450Z 27013KT 9999 SCT041 17/09 Q1009=
201104021420 METAR COR EGLL 021420Z 28011KT 9999 FEW035 17/09 Q1009 NOSIG=
201104021350 METAR COR EGLL 021350Z 28011KT 9999 FEW030 17/10 Q1009 NOSIG=
201104021320 METAR COR EGLL 021320Z 28013KT 9999 SCT030 17/10 Q1009 NOSIG=
201104021250 METAR COR EGLL 021250Z 27011KT 9999 FEW024 17/11 Q1009 NOSIG=
201104021220 METAR COR EGLL 021220Z 26012KT 9999 SCT023 17/12 Q1008 NOSIG=
201104021150 METAR COR EGLL 021150Z 26012KT 9999 SCT025 17/11 Q1008 NOSIG=
201104021120 METAR COR EGLL 021120Z 25012KT 9999 FEW025 17/11 Q1008 NOSIG=
201104021050 METAR COR EGLL 021050Z 22010KT CAVOK 17/11 Q1008 NOSIG=
201104021020 METAR COR EGLL 021020Z 19008KT 150V250 9999 FEW022 16/11
                        Q1008 NOSIG=
201104020950 METAR COR EGLL 020950Z 20010KT 170V230 9999 SCT024 16/11
                        Q1008 NOSIG=
201104020920 METAR COR EGLL 020920Z 21011KT 190V250 9999 SCT025 15/11
                        Q1008 NOSIG=
201104020850 METAR COR EGLL 020850Z 21010G21KT CAVOK 15/10 Q1008 NOSIG=
201104020820 METAR COR EGLL 020820Z 17012KT CAVOK 15/11 Q1008 NOSIG=
201104020750 METAR COR EGLL 020750Z 17010KT 140V210 CAVOK 14/11 Q1008
                        NOSIG=
201104020720 METAR COR EGLL 020720Z 16009KT 130V200 CAVOK 14/11 Q1008
                        NOSIG=
201104020650 METAR COR EGLL 020650Z 15008KT 120V210 CAVOK 13/10 Q1008
                        NOSIG=
201104020620 METAR COR EGLL 020620Z 17009KT 140V250 CAVOK 13/10 Q1009
                        NOSIG=
201104020550 METAR COR EGLL 020550Z 16010KT CAVOK 13/10 Q1009 NOSIG=
201104020520 METAR COR EGLL 020520Z 16009KT 120V210 CAVOK 13/10 Q1009
                        NOSIG=
201104020450 METAR COR EGLL 020450Z 18008KT CAVOK 13/10 Q1010 NOSIG=
201104020420 METAR COR EGLL 020420Z 19006KT CAVOK 12/10 Q1010 NOSIG=
201104020350 METAR COR EGLL 020350Z 17004KT 130V200 CAVOK 12/10 Q1010
                        NOSIG=
201104020320 METAR COR EGLL 020320Z 17007KT CAVOK 12/10 Q1010 NOSIG=
201104020250 METAR COR EGLL 020250Z 18008KT CAVOK 12/10 Q1011 NOSIG=
201104020220 METAR COR EGLL 020220Z 17010KT CAVOK 12/10 Q1011 NOSIG=
201104020150 METAR COR EGLL 020150Z 18005KT CAVOK 12/10 Q1012 NOSIG=
201104020120 METAR EGLL 020120Z AUTO 15007KT 9999NDV NCD 13/10 Q1012=
201104020050 METAR EGLL 020050Z AUTO 16007KT 9999NDV NCD 12/10 Q1013=
201104020020 METAR EGLL 020020Z AUTO 16006KT 9999NDV NCD 12/09 Q1014=
201104012350 METAR COR EGLL 012350Z 16006KT CAVOK 12/10 Q1014 NOSIG=
201104012320 METAR COR EGLL 012320Z 15006KT CAVOK 13/10 Q1014 NOSIG=
201104012250 METAR COR EGLL 012250Z 15007KT CAVOK 13/10 Q1014 NOSIG=
201104012220 METAR COR EGLL 012220Z 18006KT 150V240 CAVOK 13/10 Q1015
                        NOSIG=
201104012150 METAR COR EGLL 012150Z 18007KT 120V250 CAVOK 13/10 Q1015
                        NOSIG=
201104012120 METAR COR EGLL 012120Z 19006KT 150V260 CAVOK 13/10 Q1015
                        NOSIG=
201104012050 METAR COR EGLL 012050Z 18007KT 130V250 CAVOK 14/10 Q1015
                        NOSIG=
201104012020 METAR COR EGLL 012020Z 18008KT 140V240 CAVOK 14/10 Q1015
                        NOSIG=
201104011950 METAR COR EGLL 011950Z 18009KT 150V220 CAVOK 14/11 Q1016
                        NOSIG=
201104011920 METAR COR EGLL 011920Z 17009KT 140V220 CAVOK 14/11 Q1016
                        NOSIG=
201104011850 METAR COR EGLL 011850Z 17009KT 140V230 CAVOK 14/11 Q1016
                        NOSIG=
201104011820 METAR COR EGLL 011820Z 18009KT 160V230 CAVOK 14/11 Q1016
                        NOSIG=
201104011750 METAR COR EGLL 011750Z 19010KT 170V240 9999 FEW017 14/11
                        Q1016 NOSIG=
201104011720 METAR COR EGLL 011720Z 19010KT 160V230 9999 SCT017 14/10
                        Q1016 NOSIG=
201104011650 METAR COR EGLL 011650Z 19013KT 170V240 9999 FEW024 14/10
                        Q1016 NOSIG=
201104011620 METAR COR EGLL 011620Z 19012KT 160V240 9999 SCT024 15/10
                        Q1017 NOSIG=
201104011550 METAR EGLL 011550Z 21012KT 170V240 9999 SCT023 16/10 Q1017
                        NOSIG=
201104011520 METAR COR EGLL 011520Z 20014G26KT 9999 FEW023 15/10 Q1017
                        NOSIG=
201104011450 METAR COR EGLL 011450Z 23014KT 180V250 9999 SCT018 BKN024
                        15/10 Q1017 NOSIG=
201104011420 METAR COR EGLL 011420Z 22014KT 190V260 9999 BKN016 BKN021
                        14/10 Q1018 NOSIG=
201104011350 METAR COR EGLL 011350Z 22013KT 9999 BKN018 14/10 Q1018 NOSIG=
201104011320 METAR COR EGLL 011320Z 23013KT 9999 BKN018 14/10 Q1018 NOSIG=
201104011250 METAR COR EGLL 011250Z 23015KT 9999 BKN020 15/10 Q1018 NOSIG=
201104011220 METAR COR EGLL 011220Z 23015KT 9999 BKN023 15/10 Q1018 NOSIG=
201104011150 METAR COR EGLL 011150Z 23016KT 9999 BKN020 15/10 Q1018 NOSIG=
201104011120 METAR COR EGLL 011120Z 23017KT 9999 BKN019 15/10 Q1019 NOSIG=
201104011050 METAR COR EGLL 011050Z 24016KT 9999 BKN018 14/10 Q1019 NOSIG=
201104011020 METAR COR EGLL 011020Z 23014KT 9999 OVC016 13/09 Q1019 NOSIG=
201104010950 METAR COR EGLL 010950Z 24016KT 9999 OVC015 13/09 Q1019 NOSIG=
201104010920 METAR COR EGLL 010920Z 24017KT 9999 OVC014 13/09 Q1019 BECMG
                        BKN015=
201104010850 METAR COR EGLL 010850Z 23017KT 9999 OVC013 13/09 Q1018 BECMG
                        SCT015=
201104010820 METAR COR EGLL 010820Z 23013G23KT 9999 OVC012 12/09 Q1018
                        NOSIG=
201104010750 METAR COR EGLL 010750Z 22013KT 190V260 9999 OVC011 12/09
                        Q1019 NOSIG=
201104010720 METAR COR EGLL 010720Z 23014KT 9999 OVC010 12/09 Q1019 TEMPO
                        BKN009=
201104010650 METAR COR EGLL 010650Z 23014KT 9999 BKN011 12/09 Q1019 TEMPO
                        BKN009=
201104010620 METAR COR EGLL 010620Z 23017KT 9999 FEW009 BKN012 12/09 Q1019
                        TEMPO BKN009=
201104010550 METAR COR EGLL 010550Z 22012KT 9999 OVC009 12/10 Q1018 NOSIG=
201104010520 METAR COR EGLL 010520Z 22013KT 9999 BKN009 12/10 Q1018 NOSIG=
201104010450 METAR COR EGLL 010450Z 22013KT 9999 OVC006 12/10 Q1018 NOSIG=
201104010420 METAR COR EGLL 010420Z 22012KT 9999 OVC006 12/10 Q1018 TEMPO
                        OVC004=
201104010350 METAR COR EGLL 010350Z 22009KT 9999 BKN007 12/10 Q1018 NOSIG=
201104010320 METAR COR EGLL 010320Z 22010KT 9999 OVC007 12/10 Q1018 NOSIG=
201104010250 METAR COR EGLL 010250Z 21009KT 9999 OVC007 12/10 Q1018 NOSIG=
201104010220 METAR COR EGLL 010220Z 22008KT 9999 OVC007 12/10 Q1018 NOSIG=
201104010150 METAR COR EGLL 010150Z 20007KT 9999 OVC009 12/10 Q1018 NOSIG=
201104010120 METAR EGLL 010120Z AUTO 22009KT 9999NDV BKN011/// 12/10 Q1018=
201104010050 METAR EGLL 010050Z AUTO 22008KT 9999NDV BKN011/// 12/10 Q1018=
201104010020 METAR EGLL 010020Z AUTO 22011KT 9999NDV BKN009/// 12/10 Q1018=

# No short TAF reports from EGLL in databse.

###################################
#  large TAF from EGLL
###################################
201105012258 TAF EGLL 012258Z 0200/0306 06012KT CAVOK
                      TEMPO 0208/0220 06017G28KT=
201105011704 TAF EGLL 011704Z 0118/0224 07014KT CAVOK
                      PROB40 TEMPO 0210/0221 08018G28KT=
201105011059 TAF EGLL 011059Z 0112/0218 07014KT CAVOK
                      TEMPO 0112/0121 07018G28KT
                      TEMPO 0210/0218 08018G28KT=
201105010501 TAF EGLL 010501Z 0106/0212 06012KT 9999 FEW040
                      PROB40 TEMPO 0109/0121 06015G25KT=
201104302259 TAF EGLL 302259Z 0100/0206 06011KT 9999 FEW040
                      PROB40 TEMPO 0109/0121 06015G25KT=
201104301823 TAF AMD EGLL 301823Z 3018/0124 06014KT 9999 SCT030
                      PROB30 TEMPO 3018/3021 06017G28KT
                      PROB30 TEMPO 3019/0103 8000 SHRA
                      TEMPO 0109/0121 06017G28KT=
201104301704 TAF EGLL 301704Z 3018/0124 06014KT
                      PROB30 TEMPO 3018/3021 06017G28KT
                      PROB30 TEMPO 3019/0103 8000 SHRA
                      TEMPO 0109/0121 06017G28KT=
201104301143 TAF EGLL 301143Z 3012/0118 06012KT 9999 SCT030
                      TEMPO 3012/0118 06017G28KT
                      PROB30 TEMPO 3018/3024 7000 SHRA=
201104301100 TAF EGLL 301100Z NIL=
201104300500 TAF EGLL 300500Z 3006/0112 05010KT 8000 FEW040
                      BECMG 3006/3009 9999
                      TEMPO 3010/3022 07016G26KT
                      PROB30 TEMPO 3021/0103 7000 SHRA=
201104300334 TAF AMD EGLL 300334Z 3003/0106 05008KT 9999 FEW040
                      PROB40 3003/3008 8000
                      TEMPO 3010/3022 07016G26KT=
201104292300 TAF AMD EGLL 300334Z 3003/0106 05008KT 9999 FEW040
                      PROB40 3003/3008 8000
                      TEMPO 3010/3022 07016G26KT=
201104292257 TAF EGLL 292257Z 3000/0106 05008KT 7000 SCT040
                      PROB40 3000/3003 9999
                      BECMG 3009/3012 9999
                      TEMPO 3010/3022 07016G26KT=
201104292228 TAF AMD EGLL 292228Z 2922/3024 05010KT 8000 SCT030
                      PROB40 TEMPO 2922/3003 9999
                      TEMPO 3012/3024 07015G25KT=
201104291658 TAF EGLL 291658Z 2918/3024 05010KT 9999 SCT030
                      TEMPO 3012/3024 07015G25KT=
201104291400 TAF AMD EGLL 291400Z 2914/3018 05012KT 8000 SCT030
                      BECMG 2914/2917 9999
                      PROB30 TEMPO 3011/3018 07015G25KT=
201104291059 TAF EGLL 291059Z 2912/3018 05012KT 6000 SCT022
                      BECMG 2912/2914 9999
                      PROB30 TEMPO 2912/2919 6000 SHRA
                      PROB30 TEMPO 3011/3018 07015G25KT=
201104291000 TAF AMD EGLL 291000Z 2910/3012 04009KT 7000 BKN014
                      BECMG 2910/2912 9999 SCT022
                      PROB30 TEMPO 2912/2916 5000 SHRA
                      PROB30 TEMPO 3009/3012 07015G25KT=
201104290459 TAF EGLL 290459Z 2906/3012 04009KT 7000 BKN010
                      PROB30 TEMPO 2906/2908 SHRA BKN008
                      BECMG 2907/2910 9999 SCT022
                      PROB30 TEMPO 2910/2916 5000 SHRA
                      PROB30 TEMPO 3009/3012 07015G25KT=
201104282304 TAF EGLL 282304Z 2900/3006 04009KT 9999 BKN014
                      PROB40 TEMPO 2900/2907 7000 SHRA BKN008
                      BECMG 2907/2910 SCT022
                      PROB30 TEMPO 2911/2916 5000 SHRA=
201104281657 TAF EGLL 281657Z 2818/2924 03010KT 9999 SCT030
                      PROB40 TEMPO 2821/2906 7000 SHRA
                      BECMG 2823/2902 BKN012
                      TEMPO 2906/2910 7000
                      BECMG 2907/2910 SCT020
                      PROB30 TEMPO 2910/2916 6000 SHRA=
201104281058 TAF EGLL 281058Z 2812/2918 02010KT 9999 SCT030
                      TEMPO 2812/2819 03015G25KT
                      PROB40 TEMPO 2821/2910 7000 SHRA
                      BECMG 2823/2902 BKN012
                      BECMG 2907/2910 SCT020
                      PROB30 TEMPO 2910/2916 4000 TSRA=
201104280459 TAF EGLL 280459Z 2806/2912 02010KT 9999 BKN012
                      BECMG 2808/2811 FEW012 SCT035
                      TEMPO 2812/2819 03015G25KT
                      BECMG 2822/2901 BKN010
                      BECMG 2907/2910 FEW010 SCT020
                      PROB30 TEMPO 2910/2912 3000 +TSRA BKN014CB=
201104272302 TAF EGLL 272302Z 2800/2906 02010KT CAVOK
                      BECMG 2802/2805 BKN014
                      PROB40 2803/2809 8000 BKN008
                      BECMG 2808/2811 FEW020 SCT035
                      TEMPO 2812/2819 03015G25KT
                      BECMG 2822/2901 BKN014
                      PROB40 2900/2906 8000 BKN008=
201104271703 TAF EGLL 271703Z 2718/2824 03010KT CAVOK
                      BECMG 2802/2805 8000 BKN008
                      BECMG 2809/2812 9999 FEW020 SCT035
                      PROB30 TEMPO 2812/2819 03015G25KT
                      PROB30 TEMPO 2822/2824 8000 BKN011=
201104271059 TAF EGLL 271059Z 2712/2818 03011KT 9999 FEW035
                      PROB30 TEMPO 2712/2718 03015G25KT
                      BECMG 2802/2805 8000 BKN008
                      BECMG 2809/2812 9999 FEW020 SCT035=
201104270458 TAF EGLL 270458Z 2706/2812 02007KT CAVOK
                      PROB40 TEMPO 2712/2718 03015G25KT
                      BECMG 2802/2805 8000 BKN008
                      BECMG 2809/2812 9999 FEW020 SCT035=
201104262257 TAF EGLL 262257Z 2700/2806 03007KT CAVOK
                      PROB40 TEMPO 2712/2718 03015G25KT
                      BECMG 2803/2806 8000 BKN008=
201104261659 TAF EGLL 261659Z 2618/2724 03010KT 9999 FEW028
                      PROB30 TEMPO 2706/2709 BKN012=
201104261104 TAF EGLL 261104Z 2612/2718 03010KT 9999 SCT025
                      PROB30 TEMPO 2706/2709 9000 BKN012=
201104260458 TAF EGLL 260458Z 2606/2712 03008KT 9999 FEW020
                      PROB30 TEMPO 2606/2609 9000 BKN012=
201104252259 TAF EGLL 252259Z 2600/2706 03008KT 9999 FEW040
                      PROB40 2603/2608 8000 BKN007=
201104251659 TAF EGLL 251659Z 2518/2624 01008KT CAVOK
                      PROB40 2603/2608 8000 BKN010
                      BECMG 2617/2620 6000 RADZ BKN010=
201104251101 TAF EGLL 251101Z 2512/2618 36008KT CAVOK
                      PROB40 2603/2608 8000 BKN010=
201104250458 TAF EGLL 250458Z 2506/2612 36007KT CAVOK
                      PROB30 2506/2508 8000
                      PROB40 2603/2607 8000 BKN010=
201104242259 TAF EGLL 242259Z 2500/2606 02007KT CAVOK
                      BECMG 2500/2503 8000
                      BECMG 2508/2511 CAVOK
                      PROB30 TEMPO 2516/2519 02015G25KT
                      PROB40 2600/2606 8000 BKN010=
201104241700 TAF EGLL 241700Z 2418/2524 01006KT CAVOK
                      PROB30 TEMPO 2418/2421 8000
                      BECMG 2421/2424 7000
                      PROB30 2503/2508 3000 HZ
                      BECMG 2509/2512 CAVOK
                      PROB40 2521/2524 7000=
201104241059 TAF EGLL 241059Z 2412/2518 01006KT 6000 NSC
                      TEMPO 2412/2503 CAVOK
                      PROB30 TEMPO 2413/2420 TSRA BKN045CB
                      PROB30 2503/2508 3000 HZ
                      BECMG 2508/2511 CAVOK=
201104241029 TAF AMD EGLL 241029Z 2410/2512 35007KT 4500 HZ NSC
                      BECMG 2410/2412 7000 NSW
                      BECMG 2412/2414 CAVOK
                      PROB30 TEMPO 2413/2420 5000 TSRA BKN045CB
                       PROB30 2500/2509 8000=
201104240826 TAF AMD EGLL 240826Z 2408/2512 35007KT 3500 HZ NSC
                      BECMG 2408/2410 8000 NSW
                      BECMG 2410/2412 CAVOK
                      PROB30 TEMPO 2413/2420 5000 TSRA BKN045CB
                       PROB30 2500/2509 8000=
201104240600 TAF AMD EGLL 240600Z 2406/2512 35007KT 3000 HZ BKN005
                      BECMG 2406/2408 8000 NSC
                      BECMG 2408/2410 CAVOK
                      PROB30 TEMPO 2413/2420 6000 SHRA BKN045CB
                       PROB30 2500/2509 8000=
201104240502 TAF EGLL 240502Z 2406/2512 35007KT 4000 HZ NSC
                      BECMG 2406/2408 8000 NSW
                      BECMG 2408/2410 CAVOK
                      PROB30 TEMPO 2413/2420 6000 SHRA BKN045CB
                       PROB30 2500/2509 8000=
201104232258 TAF EGLL 232258Z 2400/2506 VRB05KT CAVOK
                      BECMG 2400/2403 6000
                      PROB40 2403/2408 3000 HZ
                      BECMG 2408/2411 01010KT CAVOK
                      PROB30 TEMPO 2413/2420 6000 SHRA BKN045CB=
201104231822 TAF AMD EGLL 231822Z 2318/2424 VRB05KT CAVOK
                      TEMPO 2318/2322 13015G25KT 5000 TSRA BKN045CB
                       BECMG 2322/2401 6000
                      PROB30 2404/2407 4000 HZ
                      BECMG 2409/2412 CAVOK
                      PROB30 TEMPO 2413/2419 5000 TSRA BKN045CB=
201104231656 TAF EGLL 231656Z 2318/2424 VRB05KT CAVOK
                      PROB30 TEMPO 2318/2322 5000 TSRA BKN045CB
                       BECMG 2322/2401 6000
                      PROB30 2404/2407 4000 HZ
                      BECMG 2409/2412 CAVOK
                      PROB30 TEMPO 2413/2419 5000 TSRA BKN045CB=
201104231103 TAF EGLL 231103Z 2312/2418 VRB05KT CAVOK
                      PROB30 TEMPO 2314/2320 5000 TSRA BKN045CB
                       BECMG 2320/2323 6000
                      PROB30 2404/2407 4000 HZ
                      BECMG 2409/2412 CAVOK
                      PROB30 TEMPO 2414/2418 5000 TSRA BKN040CB=
201104230501 TAF EGLL 230501Z 2306/2412 VRB05KT 6000 NSC
                      PROB30 2306/2308 3500 BR
                      BECMG 2308/2311 CAVOK
                      PROB40 TEMPO 2314/2321 6000 TSRA BKN040CB
                       BECMG 2321/2324 6000
                      PROB30 2400/2407 4000 BR
                      BECMG 2407/2410 CAVOK=
201104222301 TAF EGLL 222301Z 2300/2406 08003KT 7000 NSC
                      PROB40 2300/2303 CAVOK
                      PROB40 2303/2308 3500 BR
                      BECMG 2309/2312 CAVOK
                      PROB40 TEMPO 2314/2321 6000 TSRA BKN040CB
                       BECMG 2321/2324 6000=
201104222226 TAF AMD EGLL 222226Z 2222/2324 VRB05KT CAVOK
                      BECMG 2222/2301 7000
                      BECMG 2301/2304 4500 BR
                      BECMG 2309/2312 CAVOK
                      PROB30 TEMPO 2314/2320 6000 TSRA BKN040CB
                       BECMG 2320/2323 6000=
201104221659 TAF EGLL 221659Z 2218/2324 18010KT CAVOK
                      BECMG 2219/2222 VRB05KT 7000
                      BECMG 2222/2301 3500 HZ
                      BECMG 2309/2312 CAVOK
                      PROB30 TEMPO 2314/2320 6000 TSRA BKN040CB
                       BECMG 2320/2323 6000=
201104221056 TAF EGLL 221056Z 2212/2318 12010KT CAVOK
                      BECMG 2219/2222 VRB05KT 7000
                      BECMG 2222/2301 4000 HZ
                      BECMG 2309/2312 CAVOK
                      PROB30 TEMPO 2313/2318 6000 SHRA BKN040CB=
201104220509 TAF EGLL 220509Z 2206/2312 09006KT 3000 BR
                      PROB30 2206/2208 5000 HZ
                      BECMG 2208/2211 6000 NSW
                      BECMG 2211/2214 CAVOK
                      BECMG 2219/2222 6000
                      BECMG 2300/2303 3000 BR
                      BECMG 2307/2310 7000 NSW=
201104212304 TAF EGLL 212304Z 2200/2306 07006KT 6000
                      PROB40 2200/2209 3500 BR
                      BECMG 2210/2213 CAVOK
                      BECMG 2219/2222 7000
                      BECMG 2300/2303 4000 BR=
201104212300 TAF EGLL 212300Z NIL=
201104211702 TAF EGLL 211702Z 2118/2224 10008KT CAVOK
                      BECMG 2120/2123 8000
                      PROB40 2200/2209 4000 HZ
                      BECMG 2209/2212 CAVOK
                      PROB30 TEMPO 2213/2220 7000 SHRA BKN040CB
                       BECMG 2221/2224 8000=
201104211256 TAF AMD EGLL 211256Z 2113/2218 11008KT CAVOK
                      BECMG 2119/2122 8000
                      PROB40 2200/2210 3500 HZ
                      BECMG 2209/2212 CAVOK
                      PROB30 TEMPO 2213/2218 7000 SHRA BKN035CB=
201104211059 TAF EGLL 211059Z 2112/2218 11008KT 7000 NSC
                      PROB40 2112/2119 CAVOK
                      PROB40 2200/2210 3500 HZ
                      BECMG 2209/2212 CAVOK
                      PROB30 TEMPO 2213/2218 7000 SHRA BKN035CB=
201104210455 TAF EGLL 210455Z 2106/2212 07004KT 3000 HZ NSC
                      PROB30 2107/2109 6000 NSW
                      BECMG 2109/2112 CAVOK
                      BECMG 2119/2122 7000
                      PROB30 2202/2210 4000 HZ
                      BECMG 2209/2212 CAVOK=
201104202253 TAF EGLL 202253Z 2100/2206 07004KT 7000 NSC
                      PROB40 2102/2110 4000 HZ
                      BECMG 2109/2112 CAVOK
                      BECMG 2119/2122 7000
                      PROB30 2202/2206 4000 HZ=
201104201704 TAF EGLL 201704Z 2018/2124 08006KT CAVOK
                      PROB40 2018/2021 7000
                      BECMG 2021/2024 5000 HZ
                      PROB40 2100/2107 3500 BR
                      BECMG 2109/2112 CAVOK
                      BECMG 2119/2122 7000=
201104201101 TAF EGLL 201101Z 2012/2118 11004KT 7000 NSC
                      PROB40 2012/2019 CAVOK
                      PROB40 2100/2107 3500 BR
                      BECMG 2109/2112 CAVOK=
201104200924 TAF AMD EGLL 200924Z 2009/2112 VRB04KT 4500 HZ NSC
                      BECMG 2009/2011 6000 NSW
                      PROB40 2012/2019 CAVOK
                      PROB40 2100/2107 3500 BR
                      BECMG 2109/2112 CAVOK=
201104200459 TAF EGLL 200459Z 2006/2112 02005KT 4000 HZ NSC
                      BECMG 2006/2009 8000 NSW
                      BECMG 2009/2012 11010KT CAVOK
                      BECMG 2021/2024 7000
                      PROB40 2100/2107 3500 BR
                      BECMG 2109/2112 CAVOK=
201104192258 TAF EGLL 192258Z 2000/2106 01005KT 8000 NSC
                      PROB40 2000/2007 4000 BR
                      BECMG 2008/2011 08010KT CAVOK
                      BECMG 2020/2023 8000
                      PROB40 2023/2106 4000 BR=
201104192057 TAF AMD EGLL 192057Z 1921/2024 VRB05KT 8000 NSC
                      PROB40 1923/2009 3000 HZ
                      BECMG 2010/2013 14010KT CAVOK
                      BECMG 2020/2023 8000=
201104191724 TAF EGLL 191724Z 1918/2024 VRB05KT CAVOK
                      BECMG 1922/2001 8000
                      PROB40 2003/2009 3000 HZ
                      BECMG 2010/2013 14010KT CAVOK
                      BECMG 2020/2023 8000=
201104191700 TAF EGLL 191700Z NIL=
201104191058 TAF EGLL 191058Z 1912/2018 VRB05KT CAVOK
                      BECMG 1922/2001 8000
                      PROB40 2003/2009 3000 HZ
                      BECMG 2010/2013 CAVOK=
201104190459 TAF EGLL 190459Z 1906/2012 VRB05KT 6000 FEW045
                      PROB30 1906/1908 4500 HZ
                      BECMG 1908/1911 17010KT 9999
                      BECMG 1918/1921 VRB05KT
                      TEMPO 1923/2009 7000
                      PROB30 2003/2008 4500 HZ=
201104190155 TAF AMD EGLL 190155Z 1902/2006 10005KT 6000 FEW045
                      PROB30 1903/1908 4000 HZ
                      BECMG 1908/1911 17010KT 9999
                      BECMG 1918/1921 VRB05KT
                      PROB40 1923/2006 7000=
201104182309 TAF EGLL 182309Z 1900/2006 10005KT 9999 FEW045
                      PROB40 1900/1909 6000
                      BECMG 1908/1911 17010KT
                      BECMG 1918/1921 VRB05KT
                      PROB40 1923/2006 7000=
201104182300 TAF AMD EGLL 190155Z 1902/2006 10005KT 6000 FEW045
                      PROB30 1903/1908 4000 HZ
                      BECMG 1908/1911 17010KT 9999
                      BECMG 1918/1921 VRB05KT
                      PROB40 1923/2006 7000=
201104181658 TAF EGLL 181658Z 1818/1924 08010KT 9999 FEW045
                      PROB40 1823/1909 6000
                      BECMG 1911/1914 16005KT=
201104181057 TAF EGLL 181057Z 1812/1918 10008KT 9999 FEW045
                      BECMG 1821/1824 8000
                      PROB40 1901/1909 4000 HZ
                      BECMG 1908/1911 9999=
201104180825 TAF AMD EGLL 180825Z 1808/1912 10005KT 3000 BR FEW040
                      BECMG 1808/1810 6000 NSW
                      BECMG 1810/1813 9999
                      PROB40 TEMPO 1823/1904 8000 SHRA
                      PROB30 1904/1909 7000=
201104180458 TAF EGLL 180458Z 1806/1912 10005KT 3000 BR FEW040
                      BECMG 1806/1808 6000 NSW
                      PROB30 1808/1810 9999
                      BECMG 1810/1813 9999
                      PROB40 TEMPO 1823/1904 8000 SHRA
                      PROB30 1904/1909 7000=
201104180127 TAF AMD EGLL 180127Z 1800/1906 10005KT 6000 FEW040
                      TEMPO 1801/1807 3500 BR
                      BECMG 1807/1810 9999
                      PROB30 TEMPO 1823/1903 9000 -SHRA=
201104172302 TAF EGLL 172302Z 1800/1906 10005KT 9999 FEW040
                      PROB40 1800/1808 6000
                      PROB30 TEMPO 1823/1903 9000 -SHRA=
201104172300 TAF AMD EGLL 180127Z 1800/1906 10005KT 6000 FEW040
                      TEMPO 1801/1807 3500 BR
                      BECMG 1807/1810 9999
                      PROB30 TEMPO 1823/1903 9000 -SHRA=
201104171657 TAF EGLL 171657Z 1718/1824 10005KT 9999 FEW040
                      PROB30 1801/1807 6000=
201104171101 TAF EGLL 171101Z 1712/1818 06005KT 9999 FEW040
                      PROB30 1801/1807 6000=
201104170826 TAF AMD EGLL 170826Z 1708/1812 07005KT 9000 SCT040
                      TEMPO 1708/1722 9999
                      PROB30 1801/1807 3000 BR
                      BECMG 1807/1810 9999=
201104170457 TAF EGLL 170457Z 1706/1812 07005KT 9999 SCT040
                      PROB30 1706/1708 8000
                      BECMG 1722/1801 8000
                      PROB30 1801/1807 3000 BR
                      BECMG 1807/1810 9999=
201104170254 TAF AMD EGLL 170254Z 1703/1806 VRB05KT 9999 SCT040
                      BECMG 1703/1706 8000
                      PROB30 1704/1708 4000 BR
                      BECMG 1707/1710 9999
                      BECMG 1712/1715 09010KT
                      BECMG 1722/1801 8000
                      PROB30 1801/1806 4000 BR=
201104162300 TAF AMD EGLL 170254Z 1703/1806 VRB05KT 9999 SCT040
                      BECMG 1703/1706 8000
                      PROB30 1704/1708 4000 BR
                      BECMG 1707/1710 9999
                      BECMG 1712/1715 09010KT
                      BECMG 1722/1801 8000
                      PROB30 1801/1806 4000 BR=
201104162259 TAF EGLL 162259Z 1700/1806 VRB05KT 9999 SCT040
                      BECMG 1700/1703 8000
                      PROB30 1703/1708 4000 BR
                      BECMG 1707/1710 9999
                      BECMG 1712/1715 09010KT
                      BECMG 1722/1801 8000
                      PROB30 1801/1806 4000 BR=
201104161658 TAF EGLL 161658Z 1618/1724 VRB05KT 9999 FEW040
                      BECMG 1623/1702 8000
                      PROB30 1703/1707 4000 BR
                      BECMG 1707/1710 11010KT 9999=
201104161058 TAF EGLL 161058Z 1612/1718 23005KT 9999 SCT040
                      BECMG 1700/1703 8000
                      PROB30 1703/1707 4000 BR
                      BECMG 1707/1710 9999=
201104160459 TAF EGLL 160459Z 1606/1712 23005KT 9000 SCT040
                      BECMG 1606/1609 9999
                      BECMG 1700/1703 8000
                      PROB30 1703/1707 4000 BR
                      BECMG 1707/1709 9999=
201104152258 TAF EGLL 152258Z 1600/1706 20005KT 9999 SCT040
                      PROB30 1602/1608 8000
                      BECMG 1700/1703 8000
                      PROB30 1703/1706 4000 BR=
201104151701 TAF EGLL 151701Z 1518/1624 23005KT 9999 SCT040
                      PROB30 1603/1610 8000 BKN014
                      PROB30 TEMPO 1610/1619 8000 -SHRA=
201104151058 TAF EGLL 151058Z 1512/1618 22005KT 9999 SCT040
                      PROB30 1603/1610 8000 BKN014
                      PROB40 TEMPO 1610/1618 7000 SHRA=
201104150454 TAF EGLL 150454Z 1506/1612 20004KT 9999 SCT040
                      PROB30 1600/1608 8000=
201104142303 TAF EGLL 142303Z 1500/1606 20004KT 9999 SCT030
                      PROB30 1502/1506 8000
                      PROB30 1600/1606 8000=
201104141704 TAF EGLL 141704Z 1418/1524 20005KT 9999 SCT030
                      PROB30 1503/1508 8000=
201104141057 TAF EGLL 141057Z 1412/1518 18007KT 9999 SCT040
                      PROB30 1503/1508 8000=
201104140451 TAF EGLL 140451Z 1406/1512 20004KT 9999 SCT040
                      PROB30 1502/1508 8000=
201104132255 TAF EGLL 132255Z 1400/1506 20004KT 9999 SCT030
                      PROB30 1502/1506 8000=
201104131658 TAF EGLL 131658Z 1318/1424 24010KT 9999 SCT030
                      PROB30 TEMPO 1318/1323 8000 -RA
                      BECMG 1402/1405 18005KT=
201104131057 TAF EGLL 131057Z 1312/1418 24010KT 9999 SCT030
                      TEMPO 1315/1401 8000 -RA
                      PROB30 TEMPO 1320/1401 BKN010
                      BECMG 1400/1403 18005KT=
201104130504 TAF EGLL 130504Z 1306/1412 23005KT CAVOK
                      BECMG 1312/1315 BKN035
                      PROB30 TEMPO 1315/1321 8000 -RA=
201104122304 TAF EGLL 122304Z 1300/1406 25005KT CAVOK
                      BECMG 1312/1315 BKN035
                      PROB30 TEMPO 1315/1324 8000 -RA=
201104121656 TAF EGLL 121656Z 1218/1324 31010KT CAVOK
                      BECMG 1222/1301 23005KT
                      BECMG 1310/1313 BKN030
                      TEMPO 1313/1324 8000 -RA=
201104121057 TAF EGLL 121057Z 1212/1318 31012KT 9999 SCT045
                      BECMG 1220/1223 23005KT
                      TEMPO 1313/1318 8000 -RA=
201104120458 TAF EGLL 120458Z 1206/1312 30012KT 9999 FEW040
                      BECMG 1218/1221 22008KT=
201104112301 TAF EGLL 112301Z 1200/1306 30010KT 9999 FEW040
                      PROB30 TEMPO 1212/1218 31015G25KT
                      BECMG 1218/1221 24005KT=
201104111706 TAF EGLL 111706Z 1118/1224 32012KT 9999 SCT040
                      PROB40 TEMPO 1118/1120 30016G26KT=
201104111100 TAF EGLL 111100Z 1112/1218 27010KT 9999 SCT045
                      PROB40 TEMPO 1113/1120 28015G25KT 9000 -SHRA
                       BECMG 1118/1121 33012KT=
201104110457 TAF EGLL 110457Z 1106/1212 VRB03KT 9999 SCT045
                      BECMG 1106/1108 26010KT
                      PROB40 TEMPO 1113/1120 28015G25KT 9000 -SHRA
                       BECMG 1118/1121 32010KT=
201104102257 TAF EGLL 102257Z 1100/1206 11003KT CAVOK
                      PROB30 1102/1107 8000
                      BECMG 1104/1107 27010KT BKN040
                      PROB40 TEMPO 1113/1119 29015G25KT 9000 -SHRA
                       BECMG 1118/1121 33010KT CAVOK=
201104102202 TAF AMD EGLL 102202Z 1022/1124 VRB05KT CAVOK
                      PROB30 1102/1107 8000
                      BECMG 1108/1111 29012KT
                      BECMG 1113/1115 BKN030
                      PROB40 TEMPO 1113/1117 31015G25KT
                      BECMG 1121/1124 CAVOK=
201104101717 TAF COR EGLL 101717Z 1018/1124 VRB05KT CAVOK
                      BECMG 1020/1023 8000
                      BECMG 1108/1111 29012KT CAVOK
                      BECMG 1113/1115 BKN030
                      PROB40 TEMPO 1113/1117 31015G25KT
                      BECMG 1121/1124 CAVOK=
201104101703 TAF EGLL 101703Z 1018/1124 VRB05KT CAVOK
                      BECMG 1020/1023 8000
                      BECMG 1108/1111 29012KT 9999
                      BECMG 1113/1115 BKN030
                      PROB40 TEMPO 1113/1117 31015G25KT
                      BECMG 1121/1124 CAVOK=
201104101103 TAF EGLL 101103Z 1012/1118 07007KT CAVOK
                      BECMG 1020/1023 8000
                      PROB30 1103/1107 4000 HZ
                      BECMG 1108/1111 29012KT 9999
                      BECMG 1112/1114 BKN030
                      PROB40 TEMPO 1113/1117 31015G25KT=
201104100558 TAF AMD EGLL 100558Z 1006/1112 06006KT CAVOK
                      PROB40 1006/1011 8000
                      BECMG 1019/1022 8000
                      PROB30 1103/1107 4000 HZ
                      BECMG 1108/1111 29010KT=
201104100454 TAF EGLL 100454Z 1006/1112 05004KT 8000 NSC
                      BECMG 1010/1013 CAVOK
                      BECMG 1019/1022 8000
                      PROB30 1103/1107 4000 HZ
                      BECMG 1108/1111 29010KT=
201104092301 TAF EGLL 092301Z 1000/1106 07005KT 8000 NSC
                      PROB30 1005/1007 4000 HZ
                      BECMG 1010/1013 CAVOK
                      BECMG 1019/1022 8000
                      PROB30 1101/1106 4000 HZ=
201104091652 TAF EGLL 091652Z 0918/1024 09007KT CAVOK
                      BECMG 0923/1002 8000
                      PROB40 1004/1007 4000 HZ
                      BECMG 1010/1013 CAVOK
                      BECMG 1019/1022 8000=
201104091057 TAF EGLL 091057Z 0912/1018 09007KT CAVOK
                      BECMG 0923/1002 8000
                      PROB40 1003/1007 4000 HZ
                      BECMG 1010/1013 CAVOK=
201104090459 TAF EGLL 090459Z 0906/1012 08008KT CAVOK
                      PROB30 0906/0908 8000
                      BECMG 1000/1003 8000
                      PROB30 1003/1007 4000 BR
                      BECMG 1006/1009 CAVOK=
201104082257 TAF EGLL 082257Z 0900/1006 VRB03KT CAVOK
                      PROB30 0904/0907 8000
                      BECMG 0906/0909 10010KT
                      PROB40 1000/1006 6000=
201104081655 TAF EGLL 081655Z 0818/0924 VRB03KT CAVOK
                      PROB30 0904/0907 9000
                      BECMG 0908/0911 10010KT=
201104081056 TAF EGLL 081056Z 0812/0918 35004KT CAVOK
                      PROB30 0904/0907 9000
                      BECMG 0907/0910 09010KT=
201104080502 TAF EGLL 080502Z 0806/0912 34005KT 9999 SCT030
                      PROB30 0904/0907 7000
                      BECMG 0907/0910 09010KT=
201104072300 TAF EGLL 072300Z NIL=
201104071705 TAF EGLL 071705Z 0718/0824 35007KT 9999 SCT035
                      PROB30 0803/0807 8000=
201104071101 TAF EGLL 071101Z 0712/0818 33007KT 9999 SCT035
                      PROB30 0803/0807 8000=
201104070456 TAF EGLL 070456Z 0706/0812 24005KT CAVOK
                      BECMG 0707/0710 30010KT
                      TEMPO 0713/0721 BKN035
                      PROB30 0803/0807 8000=
201104062301 TAF EGLL 062301Z 0700/0806 24006KT CAVOK
                      BECMG 0708/0711 30010KT
                      TEMPO 0713/0721 BKN035
                      PROB30 0803/0806 8000=
201104061701 TAF EGLL 061701Z 0618/0724 21010KT CAVOK
                      BECMG 0706/0709 31008KT
                      TEMPO 0713/0721 BKN025=
201104061057 TAF EGLL 061057Z 0612/0718 22010KT CAVOK
                      PROB30 0704/0707 8000
                      BECMG 0706/0709 32008KT
                      PROB40 TEMPO 0708/0718 BKN025=
201104060458 TAF EGLL 060458Z 0606/0712 23010KT 9999 BKN012
                      BECMG 0606/0608 CAVOK
                      PROB30 0703/0707 8000=
201104052256 TAF EGLL 052256Z 0600/0706 23007KT 9999 BKN012
                      TEMPO 0600/0606 8000 BKN007
                      BECMG 0605/0608 CAVOK
                      PROB30 0703/0706 8000=
201104051701 TAF EGLL 051701Z 0518/0624 24010KT 9999 BKN012
                      PROB40 TEMPO 0518/0606 8000 BKN008
                      BECMG 0605/0608 CAVOK=
201104051212 TAF AMD EGLL 051212Z 0512/0618 24014KT 9999 BKN012
                      TEMPO 0512/0601 BKN008
                      PROB40 TEMPO 0512/0518 24017G27KT 7000 -RA
                       BECMG 0600/0603 CAVOK=
201104051059 TAF EGLL 051059Z 0512/0618 24014KT 9999 BKN012
                      TEMPO 0512/0601 BKN008
                      PROB40 TEMPO 0512/0518 24017G27KT
                      BECMG 0600/0603 CAVOK=
201104051018 TAF AMD EGLL 051018Z 0510/0612 23014KT 9999 SCT030
                      TEMPO 0510/0516 23017G27KT 7000 -RA BKN009
                       PROB30
                      TEMPO 0516/0519 23015G25KT BKN008=
201104050457 TAF EGLL 050457Z 0506/0612 23014KT 9999 SCT030
                      TEMPO 0506/0516 23017G27KT 7000 -RA BKN012
                       PROB30
                      TEMPO 0516/0519 23015G25KT BKN014=
201104050259 TAF AMD EGLL 050259Z 0503/0606 23013KT 9999 SCT030
                      TEMPO 0503/0516 7000 RA BKN012
                      BECMG 0504/0507 23017G27KT
                      PROB30 TEMPO 0516/0519 BKN014
                      BECMG 0517/0520 22012KT=
201104042305 TAF EGLL 042305Z 0500/0606 24013KT 9999 SCT030
                      PROB30 TEMPO 0502/0504 23017G27KT
                      BECMG 0504/0507 23017G27KT
                      TEMPO 0504/0516 7000 -RA BKN012
                      PROB30 TEMPO 0516/0519 BKN014
                      BECMG 0517/0520 22012KT=
201104042300 TAF AMD EGLL 050259Z 0503/0606 23013KT 9999 SCT030
                      TEMPO 0503/0516 7000 RA BKN012
                      BECMG 0504/0507 23017G27KT
                      PROB30 TEMPO 0516/0519 BKN014
                      BECMG 0517/0520 22012KT=
201104041700 TAF EGLL 041700Z 0418/0524 25014KT 9999 SCT030
                      PROB40 TEMPO 0418/0421 22017G27KT
                      BECMG 0504/0507 22017G27KT
                      PROB30 0505/0517 7000 -RADZ BKN014
                      BECMG 0517/0520 21012KT=
201104041225 TAF AMD EGLL 041225Z 0412/0518 26012KT 9999 SCT030
                      PROB40 TEMPO 0412/0518 22017G27KT
                      PROB30 0505/0515 8000 -RA BKN014=
201104041057 TAF EGLL 041057Z 0412/0518 26012KT 9999 SCT030
                      PROB40 TEMPO 0500/0518 22017G27KT
                      PROB30 0505/0515 8000 -RA BKN014=
201104040458 TAF EGLL 040458Z 0406/0512 24012KT 8000 SCT035
                      BECMG 0406/0408 9999
                      PROB30 TEMPO 0406/0408 BKN010
                      PROB40 0418/0512 22015G25KT=
201104032259 TAF EGLL 032259Z 0400/0506 25012KT 9999 SCT035
                      PROB30 TEMPO 0400/0408 8000 BKN008
                      PROB40 0500/0506 22015G25KT=
201104031656 TAF EGLL 031656Z 0318/0424 25011KT 9999 SCT035
                      PROB30 TEMPO 0318/0320 5000 +SHRA
                      PROB30 0404/0408 8000 BKN009=
201104031058 TAF EGLL 031058Z 0312/0418 25011KT 9999 SCT025
                      PROB30 TEMPO 0314/0321 5000 +SHRA
                      PROB30 0404/0408 8000 BKN009=
201104030500 TAF EGLL 030500Z 0306/0412 24011KT 9999 SCT030
                      PROB30 0306/0308 9000 BKN010
                      PROB30 TEMPO 0314/0320 5000 +SHRA
                      PROB30 0404/0408 BKN010=
201104022306 TAF EGLL 022306Z 0300/0406 24008KT 9999 FEW030
                      PROB40 TEMPO 0303/0308 8000 BKN010
                      PROB30 TEMPO 0314/0320 5000 SHRA
                      PROB30 0404/0406 BKN010=
201104021700 TAF EGLL 021700Z 0218/0324 27008KT 9999 SCT030
                      PROB40 TEMPO 0303/0308 8000 BKN008
                      TEMPO 0312/0319 7000 SHRA=
201104021103 TAF EGLL 021103Z 0212/0318 26010KT 9999 SCT030
                      PROB40 TEMPO 0301/0308 7000 BKN008
                      TEMPO 0312/0318 7000 SHRA=
201104020501 TAF EGLL 020501Z 0206/0312 16012KT 9999 SCT030
                      PROB30 TEMPO 0206/0210 16015G25KT
                      BECMG 0209/0212 28010KT
                      PROB30 TEMPO 0210/0213 8000 SHRA
                      BECMG 0216/0219 22007KT
                      PROB40 0302/0308 8000 BKN008
                      PROB30 TEMPO 0310/0312 7000 SHRA=
201104012258 TAF EGLL 012258Z 0200/0306 17012KT 9999 SCT030
                      PROB30 TEMPO 0203/0209 18015G25KT
                      BECMG 0208/0211 28012KT
                      PROB30 TEMPO 0209/0212 8000 SHRA BKN014
                      BECMG 0218/0221 22007KT
                      PROB30 0303/0306 8000 BKN008=
201104011701 TAF EGLL 011701Z 0118/0224 19013KT 9999 SCT025
                      PROB40 TEMPO 0204/0209 17016G26KT
                      BECMG 0208/0211 26012KT
                      TEMPO 0208/0212 8000 -SHRA BKN012
                      BECMG 0217/0220 20007KT=
201104011102 TAF EGLL 011102Z 0112/0218 23014KT 9999 SCT015
                      TEMPO 0112/0117 21017G27KT
                      BECMG 0117/0120 17012KT
                      TEMPO 0202/0211 17016G26KT
                      PROB40 TEMPO 0209/0211 7000 SHRA BKN013
                      BECMG 0210/0213 26013KT
                      TEMPO 0211/0216 26015G25KT=
201104010507 TAF EGLL 010507Z 0106/0212 23010KT 9999 OVC006
                      PROB40 TEMPO 0106/0108 7000 BKN004
                      BECMG 0107/0109 BKN012
                      BECMG 0110/0112 SCT020
                      TEMPO 0110/0117 21017G27KT
                      BECMG 0117/0120 17012KT
                      TEMPO 0123/0210 17016G26KT
                      BECMG 0209/0211 26013KT
                      PROB40 TEMPO 0209/0211 7000 SHRA BKN013=
