##########################################################
# Query made at 01/13/2020 14:29:55 UTC
# Time interval: from 08/01/2019 00:00  to 08/31/2019 23:59  UTC
##########################################################

##########################################################
# EGLL, London / Heathrow Airport (United Kingdom)
# WMO index: 03772
# Latitude 51-29N. Longitude 000-27W. Altitude 24 m.
##########################################################

###################################
#  METAR/SPECI from EGLL
###################################
201908312350 METAR COR EGLL 312350Z AUTO 27008KT 9999 NCD 13/09 Q1015
                        NOSIG=
201908312320 METAR COR EGLL 312320Z AUTO 27007KT 9999 NCD 13/08 Q1015
                        NOSIG=
201908312250 METAR COR EGLL 312250Z AUTO 27007KT 9999 NCD 14/08 Q1014
                        NOSIG=
201908312220 METAR COR EGLL 312220Z AUTO 27007KT 9999 NCD 15/08 Q1014
                        NOSIG=
201908312150 METAR COR EGLL 312150Z AUTO 28006KT 9999 NCD 16/08 Q1014
                        NOSIG=
201908312120 METAR COR EGLL 312120Z AUTO 29007KT 9999 NCD 16/09 Q1014
                        NOSIG=
201908312050 METAR COR EGLL 312050Z AUTO 29007KT 9999 NCD 16/10 Q1013
                        NOSIG=
201908312020 METAR COR EGLL 312020Z AUTO 28008KT 9999 NCD 17/10 Q1013
                        NOSIG=
201908311950 METAR COR EGLL 311950Z AUTO 28007KT 9999 NCD 17/10 Q1012
                        NOSIG=
201908311920 METAR COR EGLL 311920Z AUTO 27009KT 9999 NCD 18/11 Q1012
                        NOSIG=
201908311850 METAR COR EGLL 311850Z AUTO 27010KT 9999 NCD 18/11 Q1011
                        NOSIG=
201908311820 METAR COR EGLL 311820Z AUTO 28010KT 9999 NCD 19/10 Q1011
                        NOSIG=
201908311750 METAR COR EGLL 311750Z AUTO 27011KT 9999 NCD 19/10 Q1011
                        NOSIG=
201908311720 METAR COR EGLL 311720Z AUTO 24010KT 9999 NCD 19/13 Q1010
                        NOSIG=
201908311650 METAR COR EGLL 311650Z AUTO 24010KT 9999 NCD 19/13 Q1010
                        NOSIG=
201908311620 METAR COR EGLL 311620Z AUTO 25009KT 9999 SCT043 17/13 Q1010
                        NOSIG=
201908311550 METAR COR EGLL 311550Z AUTO 28006KT 260V320 9999 -RA FEW026
                        BKN031 OVC046 16/13 Q1011 NOSIG=
201908311520 METAR EGLL 311520Z AUTO 29012KT 6000 -RA BKN025 BKN034 17/13
                        Q1010=
201908311450 METAR COR EGLL 311450Z AUTO 24015KT 9999 BKN034 21/13 Q1010
                        NOSIG=
201908311420 METAR COR EGLL 311420Z AUTO 24017KT 9999 SCT033 BKN042 22/13
                        Q1010 NOSIG=
201908311350 METAR COR EGLL 311350Z AUTO 22016KT 9999 FEW034 BKN040 BKN048
                        22/14 Q1010 NOSIG=
201908311320 METAR COR EGLL 311320Z AUTO 24015KT 200V260 9999 BKN041 BKN049
                        22/12 Q1010 NOSIG=
201908311250 METAR COR EGLL 311250Z AUTO 24013KT 9999 NCD 23/11 Q1010
                        NOSIG=
201908311220 METAR COR EGLL 311220Z AUTO 21011KT 160V250 9999 NCD 23/11
                        Q1009 NOSIG=
201908311150 METAR COR EGLL 311150Z AUTO 21011KT 180V250 9999 NCD 23/11
                        Q1010 NOSIG=
201908311120 METAR COR EGLL 311120Z AUTO 22009KT 180V250 9999 NCD 22/11
                        Q1010 NOSIG=
201908311050 METAR COR EGLL 311050Z AUTO 23012KT 9999 FEW030 21/11 Q1011
                        NOSIG=
201908311020 METAR COR EGLL 311020Z AUTO 24012KT 210V270 9999 SCT027 BKN033
                        20/12 Q1011 NOSIG=
201908310950 METAR COR EGLL 310950Z AUTO 24012KT 9999 BKN025 19/13 Q1012
                        NOSIG=
201908310920 METAR COR EGLL 310920Z AUTO 26009KT 9999 BKN022 19/13 Q1012
                        NOSIG=
201908310850 METAR COR EGLL 310850Z AUTO 25008KT 200V290 9999 FEW017 SCT022
                        18/14 Q1012 NOSIG=
201908310820 METAR COR EGLL 310820Z 24007KT 200V280 9999 FEW012 17/14
                        Q1012 NOSIG=
201908310750 METAR COR EGLL 310750Z 23007KT 9999 FEW007 16/14 Q1012 NOSIG=
201908310720 METAR COR EGLL 310720Z 25007KT 9999 SCT007 15/14 Q1013 NOSIG=
201908310650 METAR COR EGLL 310650Z AUTO 25004KT 200V290 9999 FEW008 14/13
                        Q1013 NOSIG=
201908310620 METAR COR EGLL 310620Z AUTO 19004KT 160V260 9999 NCD 13/13
                        Q1013 NOSIG=
201908310550 METAR COR EGLL 310550Z AUTO 18004KT 080V260 9999 NCD 12/12
                        Q1013 NOSIG=
201908310520 METAR EGLL 310520Z AUTO 18004KT 110V220 9999 NCD 12/11 Q1013=
201908310450 METAR COR EGLL 310450Z AUTO VRB03KT 9999 NCD 13/12 Q1014
                        NOSIG=
201908310420 METAR COR EGLL 310420Z AUTO 21004KT 170V260 9999 NCD 13/12
                        Q1014 NOSIG=
201908310350 METAR COR EGLL 310350Z AUTO 22003KT 9999 NCD 13/12 Q1014
                        NOSIG=
201908310320 METAR COR EGLL 310320Z AUTO 21004KT 180V250 9999 NCD 13/12
                        Q1015 NOSIG=
201908310250 METAR COR EGLL 310250Z AUTO 21004KT 9999 NCD 14/12 Q1015
                        NOSIG=
201908310220 METAR COR EGLL 310220Z AUTO 21005KT 9999 NCD 14/12 Q1015
                        NOSIG=
201908310150 METAR COR EGLL 310150Z AUTO 22006KT 9999 NCD 14/12 Q1016
                        NOSIG=
201908310120 METAR COR EGLL 310120Z AUTO 22006KT 9999 NCD 14/12 Q1016
                        NOSIG=
201908310050 METAR COR EGLL 310050Z AUTO 21008KT 9999 NCD 14/12 Q1016
                        NOSIG=
201908310020 METAR COR EGLL 310020Z AUTO 20007KT 9999 NCD 14/12 Q1017
                        NOSIG=
201908302350 METAR COR EGLL 302350Z AUTO 20007KT 9999 NCD 14/12 Q1017
                        NOSIG=
201908302320 METAR COR EGLL 302320Z AUTO 20007KT 9999 NCD 15/12 Q1017
                        NOSIG=
201908302250 METAR COR EGLL 302250Z AUTO 20006KT 9999 NCD 15/12 Q1018
                        NOSIG=
201908302220 METAR COR EGLL 302220Z AUTO 21005KT 9999 NCD 15/12 Q1018
                        NOSIG=
201908302150 METAR COR EGLL 302150Z AUTO 21007KT 9999 NCD 16/12 Q1018
                        NOSIG=
201908302120 METAR COR EGLL 302120Z AUTO 21006KT 9999 NCD 16/11 Q1018
                        NOSIG=
201908302050 METAR COR EGLL 302050Z AUTO 19007KT 140V210 9999 NCD 17/10
                        Q1018 NOSIG=
201908302020 METAR COR EGLL 302020Z AUTO 19007KT 160V250 9999 NCD 18/09
                        Q1018 NOSIG=
201908301950 METAR COR EGLL 301950Z AUTO 20008KT 170V240 9999 NCD 18/08
                        Q1018 NOSIG=
201908301920 METAR COR EGLL 301920Z AUTO 18009KT 9999 NCD 19/08 Q1019
                        NOSIG=
201908301850 METAR COR EGLL 301850Z AUTO 21011KT 9999 NCD 20/09 Q1019
                        NOSIG=
201908301820 METAR COR EGLL 301820Z AUTO 21011G22KT 9999 NCD 20/10 Q1019
                        NOSIG=
201908301750 METAR COR EGLL 301750Z AUTO 20011KT 170V230 9999 NCD 21/11
                        Q1019 NOSIG=
201908301720 METAR COR EGLL 301720Z AUTO 21011KT 180V250 9999 NCD 21/13
                        Q1019 NOSIG=
201908301650 METAR COR EGLL 301650Z AUTO 20012KT 9999 NCD 22/13 Q1019
                        NOSIG=
201908301620 METAR COR EGLL 301620Z AUTO 21011KT 9999 NCD 22/13 Q1019
                        NOSIG=
201908301550 METAR COR EGLL 301550Z AUTO 22012KT 9999 NCD 23/13 Q1019
                        NOSIG=
201908301520 METAR COR EGLL 301520Z AUTO 22014KT 9999 NCD 23/13 Q1020
                        NOSIG=
201908301450 METAR COR EGLL 301450Z AUTO 21011KT 170V240 9999 FEW041 24/13
                        Q1020 NOSIG=
201908301420 METAR COR EGLL 301420Z AUTO 21012KT 180V260 9999 NCD 24/12
                        Q1020 NOSIG=
201908301350 METAR COR EGLL 301350Z AUTO 21011G22KT 170V240 9999 NCD 24/12
                        Q1020 NOSIG=
201908301320 METAR COR EGLL 301320Z AUTO 20012KT 170V250 9999 NCD 23/12
                        Q1020 NOSIG=
201908301250 METAR COR EGLL 301250Z AUTO 22012KT 180V260 9999 NCD 23/12
                        Q1021 NOSIG=
201908301220 METAR COR EGLL 301220Z AUTO 23013KT 190V260 9999 NCD 23/12
                        Q1021 NOSIG=
201908301150 METAR COR EGLL 301150Z AUTO 23013KT 190V250 9999 NCD 22/12
                        Q1021 NOSIG=
201908301120 METAR COR EGLL 301120Z AUTO 23013KT 9999 NCD 22/12 Q1021
                        NOSIG=
201908301050 METAR COR EGLL 301050Z AUTO 22012KT 9999 FEW033 22/13 Q1021
                        NOSIG=
201908301020 METAR COR EGLL 301020Z AUTO 23013KT 9999 NCD 21/13 Q1022
                        NOSIG=
201908300950 METAR COR EGLL 300950Z AUTO 24015KT 9999 FEW025 21/13 Q1022
                        NOSIG=
201908300920 METAR COR EGLL 300920Z AUTO 23011G21KT 9999 SCT019 BKN024
                        20/14 Q1022 NOSIG=
201908300850 METAR COR EGLL 300850Z AUTO 23012KT 9999 SCT019 19/14 Q1022
                        NOSIG=
201908300820 METAR COR EGLL 300820Z AUTO 22011KT 170V250 9999 NCD 18/14
                        Q1022 NOSIG=
201908300750 METAR COR EGLL 300750Z AUTO 22009KT 9999 NCD 17/14 Q1022
                        NOSIG=
201908300720 METAR COR EGLL 300720Z AUTO 21009KT 9999 NCD 16/14 Q1021
                        NOSIG=
201908300650 METAR COR EGLL 300650Z AUTO 21008KT 9999 NCD 16/14 Q1022
                        NOSIG=
201908300620 METAR COR EGLL 300620Z AUTO 21008KT 9999 NCD 15/14 Q1022
                        NOSIG=
201908300550 METAR COR EGLL 300550Z AUTO 21008KT 170V270 9999 NCD 14/13
                        Q1022 NOSIG=
201908300520 METAR COR EGLL 300520Z AUTO 22007KT 190V250 9999 NCD 14/13
                        Q1022 NOSIG=
201908300450 METAR COR EGLL 300450Z AUTO 22006KT 9999 NCD 14/13 Q1022
                        NOSIG=
201908300420 METAR COR EGLL 300420Z AUTO 22007KT 9999 NCD 14/13 Q1021
                        NOSIG=
201908300350 METAR COR EGLL 300350Z AUTO 21008KT 9999 NCD 14/13 Q1021
                        NOSIG=
201908300320 METAR COR EGLL 300320Z AUTO 21006KT 9999 NCD 14/13 Q1021
                        NOSIG=
201908300250 METAR COR EGLL 300250Z AUTO 21004KT 9999 NCD 14/13 Q1021
                        NOSIG=
201908300220 METAR COR EGLL 300220Z AUTO 21006KT 180V240 9999 SCT031 14/13
                        Q1022 NOSIG=
201908300150 METAR COR EGLL 300150Z AUTO 23007KT 9999 SCT031 14/13 Q1022
                        NOSIG=
201908300120 METAR COR EGLL 300120Z AUTO 23007KT 9999 NCD 14/13 Q1022
                        NOSIG=
201908300050 METAR COR EGLL 300050Z AUTO 22004KT 9999 NCD 14/13 Q1022
                        NOSIG=
201908300020 METAR COR EGLL 300020Z AUTO 21005KT 9999 NCD 15/13 Q1022
                        NOSIG=
201908292350 METAR COR EGLL 292350Z AUTO 22006KT 9999 NCD 15/13 Q1022
                        NOSIG=
201908292320 METAR COR EGLL 292320Z AUTO 23007KT 9999 NCD 15/13 Q1022
                        NOSIG=
201908292250 METAR COR EGLL 292250Z AUTO 24006KT 9999 NCD 16/13 Q1022
                        NOSIG=
201908292220 METAR COR EGLL 292220Z AUTO 22007KT 9999 NCD 16/13 Q1022
                        NOSIG=
201908292150 METAR COR EGLL 292150Z AUTO 22007KT 9999 NCD 16/13 Q1021
                        NOSIG=
201908292120 METAR COR EGLL 292120Z AUTO 21008KT 9999 NCD 17/13 Q1021
                        NOSIG=
201908292050 METAR COR EGLL 292050Z AUTO 22009KT 9999 NCD 17/13 Q1021
                        NOSIG=
201908292020 METAR COR EGLL 292020Z AUTO 22008KT 9999 NCD 18/13 Q1021
                        NOSIG=
201908291950 METAR COR EGLL 291950Z AUTO 22009KT 9999 NCD 18/12 Q1021
                        NOSIG=
201908291920 METAR COR EGLL 291920Z AUTO 23010KT 9999 NCD 19/13 Q1021
                        NOSIG=
201908291850 METAR COR EGLL 291850Z AUTO 21011KT 9999 SCT039 19/13 Q1020
                        NOSIG=
201908291820 METAR COR EGLL 291820Z AUTO 21009KT 180V240 9999 FEW041 20/12
                        Q1020 NOSIG=
201908291750 METAR COR EGLL 291750Z AUTO 24012KT 9999 NCD 21/12 Q1020
                        NOSIG=
201908291720 METAR COR EGLL 291720Z AUTO 24013KT 9999 NCD 21/11 Q1020
                        NOSIG=
201908291650 METAR COR EGLL 291650Z AUTO 24012KT 9999 BKN048 22/10 Q1020
                        NOSIG=
201908291620 METAR COR EGLL 291620Z AUTO 24009KT 9999 BKN047 22/11 Q1020
                        NOSIG=
201908291550 METAR COR EGLL 291550Z AUTO 24011KT 9999 NCD 22/10 Q1020
                        NOSIG=
201908291520 METAR COR EGLL 291520Z AUTO 22014KT 9999 NCD 23/09 Q1020
                        NOSIG=
201908291450 METAR COR EGLL 291450Z AUTO 25012KT 220V280 9999 NCD 22/09
                        Q1020 NOSIG=
201908291420 METAR COR EGLL 291420Z AUTO 24012KT 9999 NCD 23/08 Q1020
                        NOSIG=
201908291350 METAR COR EGLL 291350Z AUTO 24012KT 200V270 9999 NCD 23/09
                        Q1020 NOSIG=
201908291320 METAR COR EGLL 291320Z AUTO 25011KT 9999 NCD 23/09 Q1020
                        NOSIG=
201908291250 METAR COR EGLL 291250Z AUTO 25011KT 9999 NCD 23/09 Q1020
                        NOSIG=
201908291220 METAR COR EGLL 291220Z AUTO 24010KT 200V280 9999 NCD 22/08
                        Q1020 NOSIG=
201908291150 METAR COR EGLL 291150Z AUTO 24011KT 200V290 9999 NCD 22/09
                        Q1020 NOSIG=
201908291120 METAR COR EGLL 291120Z AUTO 25010KT 210V290 9999 NCD 21/09
                        Q1020 NOSIG=
201908291050 METAR COR EGLL 291050Z AUTO 22009G22KT 180V250 9999 FEW037
                        21/10 Q1020 NOSIG=
201908291020 METAR COR EGLL 291020Z AUTO 25008KT 210V280 9999 NCD 20/11
                        Q1020 NOSIG=
201908290950 METAR COR EGLL 290950Z AUTO 27007KT 240V310 9999 NCD 19/11
                        Q1020 NOSIG=
201908290920 METAR COR EGLL 290920Z AUTO 27009KT 9999 NCD 18/11 Q1020
                        NOSIG=
201908290850 METAR COR EGLL 290850Z AUTO 26007KT 9999 NCD 17/11 Q1020
                        NOSIG=
201908290820 METAR COR EGLL 290820Z AUTO 25005KT 210V290 9999 NCD 16/10
                        Q1020 NOSIG=
201908290750 METAR COR EGLL 290750Z AUTO 26005KT 240V300 9999 NCD 15/11
                        Q1020 NOSIG=
201908290720 METAR COR EGLL 290720Z AUTO 28004KT 250V330 9999 NCD 13/11
                        Q1019 NOSIG=
201908290650 METAR COR EGLL 290650Z AUTO 26007KT 9999 NCD 13/11 Q1019
                        NOSIG=
201908290620 METAR COR EGLL 290620Z AUTO 26007KT 9999 NCD 12/11 Q1019
                        NOSIG=
201908290550 METAR COR EGLL 290550Z AUTO 27008KT 9999 NCD 12/11 Q1019
                        NOSIG=
201908290520 METAR COR EGLL 290520Z AUTO 27007KT 9999 NCD 11/11 Q1018
                        NOSIG=
201908290450 METAR COR EGLL 290450Z AUTO 27007KT 9999 NCD 12/11 Q1018
                        NOSIG=
201908290420 METAR COR EGLL 290420Z AUTO 27008KT 9999 BKN027 12/11 Q1018
                        NOSIG=
201908290350 METAR COR EGLL 290350Z AUTO 28007KT 9999 BKN032 13/11 Q1018
                        NOSIG=
201908290320 METAR COR EGLL 290320Z AUTO 28008KT 9999 BKN035 13/12 Q1017
                        NOSIG=
201908290250 METAR COR EGLL 290250Z AUTO 30006KT 9999 FEW014 BKN036 14/12
                        Q1017 NOSIG=
201908290220 METAR COR EGLL 290220Z AUTO 30006KT 9999 FEW017 BKN037 15/12
                        Q1017 NOSIG=
201908290150 METAR COR EGLL 290150Z AUTO 31007KT 280V360 9999 SCT028 OVC038
                        15/12 Q1017 NOSIG=
201908290120 METAR COR EGLL 290120Z AUTO 30008KT 9999 FEW012 SCT016 BKN023
                        15/13 Q1016 TEMPO BKN012=
201908290050 METAR COR EGLL 290050Z AUTO 30009KT 9999 SCT011 OVC020 15/13
                        Q1016 BECMG BKN010=
201908290020 METAR COR EGLL 290020Z AUTO 31008KT 9999 SCT010 OVC016 15/13
                        Q1016 BECMG BKN010=
201908282350 METAR COR EGLL 282350Z AUTO 30012KT 9999 -RA SCT010 BKN016
                        OVC034 17/15 Q1015 BECMG BKN010=
201908282320 METAR COR EGLL 282320Z AUTO 22009KT 9999 -RA BKN012 OVC033
                        18/16 Q1015 NOSIG=
201908282250 METAR COR EGLL 282250Z AUTO 22009KT 9999 BKN012 OVC031 18/15
                        Q1015 TEMPO SCT012=
201908282220 METAR COR EGLL 282220Z AUTO 20009KT 9999 BKN015 OVC029 18/15
                        Q1015 TEMPO BKN012=
201908282150 METAR COR EGLL 282150Z AUTO 21009KT 9999 -RA BKN017 OVC024
                        18/14 Q1015 TEMPO BKN012=
201908282120 METAR COR EGLL 282120Z AUTO 20010KT 170V250 9999 BKN019 BKN047
                        19/14 Q1015 TEMPO BKN012=
201908282050 METAR COR EGLL 282050Z AUTO 20008KT 160V240 9999 SCT023 19/14
                        Q1015 NOSIG=
201908282020 METAR COR EGLL 282020Z AUTO 22009KT 9999 BKN032 19/13 Q1015
                        NOSIG=
201908281950 METAR COR EGLL 281950Z AUTO 22010KT 9999 BKN043 19/13 Q1014
                        NOSIG=
201908281920 METAR COR EGLL 281920Z AUTO 22011KT 9999 NCD 19/13 Q1014
                        NOSIG=
201908281850 METAR COR EGLL 281850Z AUTO 22009KT 9999 NCD 19/13 Q1014
                        NOSIG=
201908281820 METAR COR EGLL 281820Z AUTO 22012KT 9999 NCD 20/12 Q1014
                        NOSIG=
201908281750 METAR COR EGLL 281750Z AUTO 22013KT 9999 NCD 20/12 Q1014
                        NOSIG=
201908281720 METAR COR EGLL 281720Z AUTO 21010KT 9999 NCD 20/12 Q1013
                        NOSIG=
201908281650 METAR COR EGLL 281650Z AUTO 22012KT 9999 NCD 21/12 Q1014
                        NOSIG=
201908281620 METAR COR EGLL 281620Z AUTO 23013KT 9999 NCD 21/13 Q1014
                        NOSIG=
201908281550 METAR COR EGLL 281550Z AUTO 21013KT 9999 -RA FEW029 21/14
                        Q1014 NOSIG=
201908281520 METAR COR EGLL 281520Z AUTO 21011KT 9999 NCD 23/12 Q1013
                        NOSIG=
201908281450 METAR COR EGLL 281450Z AUTO 24013KT 9999 NCD 24/10 Q1013
                        NOSIG=
201908281420 METAR COR EGLL 281420Z AUTO 22011KT 190V250 9999 NCD 25/11
                        Q1013 NOSIG=
201908281350 METAR COR EGLL 281350Z AUTO 24011G21KT 200V270 9999 NCD 25/12
                        Q1013 NOSIG=
201908281320 METAR COR EGLL 281320Z AUTO 22012KT 170V250 9999 NCD 25/10
                        Q1013 NOSIG=
201908281250 METAR COR EGLL 281250Z AUTO 22010KT 190V260 9999 NCD 25/11
                        Q1013 NOSIG=
201908281220 METAR COR EGLL 281220Z AUTO 24012KT 9999 NCD 24/11 Q1013
                        NOSIG=
201908281150 METAR COR EGLL 281150Z AUTO 25011KT 9999 NCD 24/12 Q1013
                        NOSIG=
201908281120 METAR COR EGLL 281120Z AUTO 23010KT 9999 NCD 23/13 Q1013
                        NOSIG=
201908281050 METAR COR EGLL 281050Z AUTO 24009KT 200V290 9999 NCD 22/14
                        Q1013 NOSIG=
201908281020 METAR COR EGLL 281020Z AUTO 22009KT 190V250 9999 NCD 22/15
                        Q1014 NOSIG=
201908280950 METAR COR EGLL 280950Z AUTO 22008KT 170V260 9999 NCD 21/15
                        Q1014 NOSIG=
201908280920 METAR COR EGLL 280920Z AUTO 24009KT 9999 SCT012 20/17 Q1014
                        NOSIG=
201908280850 METAR COR EGLL 280850Z AUTO 23008KT 170V250 9999 SCT010 19/17
                        Q1014 NOSIG=
201908280820 METAR COR EGLL 280820Z AUTO 25006KT 9999 NCD 19/17 Q1014
                        NOSIG=
201908280750 METAR COR EGLL 280750Z AUTO 24007KT 9999 NCD 18/16 Q1014
                        NOSIG=
201908280720 METAR COR EGLL 280720Z 28005KT 9999 FEW045 18/17 Q1014 NOSIG=
201908280650 METAR COR EGLL 280650Z 28007KT 9999 FEW028 SCT044 18/17 Q1014
                        RESHRA NOSIG=
201908280620 METAR COR EGLL 280620Z AUTO 25006KT 190V270 9999 //////TCU
                        18/17 Q1014 TEMPO SHRA=
201908280550 METAR COR EGLL 280550Z AUTO 21005KT 150V250 9999 -RA SCT038
                        18/17 Q1014 NOSIG=
201908280520 METAR COR EGLL 280520Z AUTO 18005KT 140V230 9999 NCD 18/17
                        Q1013 NOSIG=
201908280450 METAR COR EGLL 280450Z AUTO 20004KT 170V240 9999 NCD 18/17
                        Q1013 NOSIG=
201908280420 METAR COR EGLL 280420Z AUTO VRB03KT 9999 -RA NCD 18/16 Q1013
                        NOSIG=
201908280350 METAR COR EGLL 280350Z AUTO 26004KT 9999 NCD 18/16 Q1014
                        NOSIG=
201908280320 METAR COR EGLL 280320Z AUTO 28005KT 9999 NCD 19/16 Q1014
                        NOSIG=
201908280250 METAR COR EGLL 280250Z AUTO 27006KT 9999 -RA NCD 19/16 Q1014
                        NOSIG=
201908280220 METAR COR EGLL 280220Z AUTO 29005KT 9999 NCD 19/17 Q1013
                        NOSIG=
201908280150 METAR COR EGLL 280150Z AUTO 29004KT 9999 -RA NCD 19/17 Q1013
                        NOSIG=
201908280120 METAR COR EGLL 280120Z AUTO 29006KT 9999 -RA NCD 20/17 Q1013
                        NOSIG=
201908280050 METAR COR EGLL 280050Z AUTO 29006KT 9999 -RA NCD 21/15 Q1013
                        NOSIG=
201908280020 METAR COR EGLL 280020Z AUTO 29005KT 9999 NCD 21/15 Q1013
                        NOSIG=
201908272350 METAR COR EGLL 272350Z AUTO 29006KT 9999 NCD 21/15 Q1014
                        NOSIG=
201908272320 METAR COR EGLL 272320Z AUTO 27008KT 9999 NCD 21/15 Q1014
                        NOSIG=
201908272250 METAR COR EGLL 272250Z AUTO 27007KT 9999 NCD 22/15 Q1013
                        NOSIG=
201908272220 METAR COR EGLL 272220Z AUTO 27005KT 9999 -RA NCD 22/15 Q1013
                        NOSIG=
201908272150 METAR COR EGLL 272150Z AUTO 27007KT 9999 NCD 22/16 Q1013
                        NOSIG=
201908272120 METAR COR EGLL 272120Z AUTO 28005KT 9999 NCD 23/15 Q1013
                        NOSIG=
201908272050 METAR COR EGLL 272050Z AUTO 31005KT 9999 NCD 24/16 Q1013
                        NOSIG=
201908272020 METAR COR EGLL 272020Z AUTO 31005KT 9999 NCD 25/17 Q1013
                        NOSIG=
201908271950 METAR COR EGLL 271950Z AUTO 30005KT 9999 NCD 26/16 Q1013
                        NOSIG=
201908271920 METAR COR EGLL 271920Z AUTO 32003KT 9999 NCD 26/16 Q1013
                        NOSIG=
201908271850 METAR COR EGLL 271850Z AUTO 30006KT 9999 NCD 27/17 Q1012
                        NOSIG=
201908271820 METAR COR EGLL 271820Z AUTO 22009KT 9999 NCD 28/14 Q1012
                        NOSIG=
201908271750 METAR COR EGLL 271750Z AUTO 22011KT 9999 NCD 29/14 Q1012
                        NOSIG=
201908271720 METAR COR EGLL 271720Z AUTO 22012KT 9999 NCD 30/15 Q1012
                        NOSIG=
201908271650 METAR COR EGLL 271650Z AUTO 17010KT 130V210 9999 NCD 31/14
                        Q1012 NOSIG=
201908271620 METAR COR EGLL 271620Z AUTO 18009KT 140V230 9999 NCD 32/13
                        Q1012 NOSIG=
201908271550 METAR COR EGLL 271550Z AUTO 16008KT 140V240 9999 NCD 32/13
                        Q1012 NOSIG=
201908271520 METAR COR EGLL 271520Z AUTO 16007KT 110V230 9999 NCD 33/13
                        Q1012 NOSIG=
201908271450 METAR COR EGLL 271450Z AUTO 18008KT 100V240 9999 NCD 33/13
                        Q1012 NOSIG=
201908271420 METAR COR EGLL 271420Z AUTO 15007KT 090V250 9999 NCD 33/13
                        Q1013 NOSIG=
201908271350 METAR COR EGLL 271350Z AUTO 17009KT 130V230 9999 NCD 32/13
                        Q1013 NOSIG=
201908271320 METAR COR EGLL 271320Z AUTO 17007KT 100V230 9999 NCD 32/13
                        Q1013 NOSIG=
201908271250 METAR COR EGLL 271250Z AUTO 20007KT 130V250 9999 NCD 32/13
                        Q1014 NOSIG=
201908271220 METAR COR EGLL 271220Z AUTO 24004KT 180V350 9999 NCD 32/13
                        Q1014 NOSIG=
201908271150 METAR COR EGLL 271150Z AUTO 23005KT 130V270 9999 NCD 30/15
                        Q1014 NOSIG=
201908271120 METAR COR EGLL 271120Z AUTO VRB04KT 9999 NCD 30/15 Q1014
                        NOSIG=
201908271050 METAR COR EGLL 271050Z AUTO VRB03KT 9999 NCD 29/15 Q1014
                        NOSIG=
201908271020 METAR COR EGLL 271020Z AUTO VRB03KT 9999 NCD 27/16 Q1015
                        NOSIG=
201908270950 METAR COR EGLL 270950Z AUTO VRB02KT 9999 NCD 26/16 Q1015
                        NOSIG=
201908270920 METAR COR EGLL 270920Z AUTO VRB03KT 9999 NCD 25/16 Q1016
                        NOSIG=
201908270850 METAR COR EGLL 270850Z AUTO VRB02KT 9999 NCD 24/15 Q1015
                        NOSIG=
201908270820 METAR COR EGLL 270820Z AUTO VRB02KT 9999 NCD 23/15 Q1015
                        NOSIG=
201908270750 METAR COR EGLL 270750Z AUTO VRB02KT 9999 NCD 23/16 Q1015
                        NOSIG=
201908270720 METAR COR EGLL 270720Z AUTO VRB02KT 9999 NCD 21/16 Q1015
                        NOSIG=
201908270650 METAR COR EGLL 270650Z AUTO VRB02KT 9999 NCD 20/15 Q1015
                        NOSIG=
201908270620 METAR COR EGLL 270620Z AUTO VRB02KT 9999 NCD 19/15 Q1015
                        NOSIG=
201908270550 METAR COR EGLL 270550Z AUTO 33001KT 9999 NCD 18/15 Q1015
                        NOSIG=
201908270520 METAR COR EGLL 270520Z AUTO VRB02KT 9999 NCD 17/14 Q1015
                        NOSIG=
201908270450 METAR COR EGLL 270450Z AUTO 05002KT 9999 NCD 17/14 Q1015
                        NOSIG=
201908270420 METAR COR EGLL 270420Z AUTO VRB03KT 9999 NCD 16/14 Q1015
                        NOSIG=
201908270350 METAR COR EGLL 270350Z AUTO 28003KT 9999 NCD 17/14 Q1015
                        NOSIG=
201908270320 METAR COR EGLL 270320Z AUTO VRB02KT 9999 NCD 19/14 Q1015
                        NOSIG=
201908270250 METAR COR EGLL 270250Z AUTO VRB01KT 9999 NCD 19/14 Q1016
                        NOSIG=
201908270220 METAR COR EGLL 270220Z AUTO VRB02KT 9999 NCD 19/14 Q1016
                        NOSIG=
201908270150 METAR COR EGLL 270150Z AUTO 34001KT 9999 NCD 19/15 Q1016
                        NOSIG=
201908270120 METAR COR EGLL 270120Z AUTO 04001KT 9999 NCD 19/15 Q1016
                        NOSIG=
201908270050 METAR COR EGLL 270050Z AUTO 33002KT 9999 NCD 19/15 Q1016
                        NOSIG=
201908270020 METAR COR EGLL 270020Z AUTO VRB02KT 9999 NCD 19/15 Q1016
                        NOSIG=
201908262350 METAR COR EGLL 262350Z AUTO 11002KT 9999 NCD 19/14 Q1016
                        NOSIG=
201908262320 METAR COR EGLL 262320Z AUTO 05001KT 9999 NCD 20/14 Q1016
                        NOSIG=
201908262250 METAR COR EGLL 262250Z AUTO VRB01KT 9999 NCD 21/14 Q1017
                        NOSIG=
201908262220 METAR COR EGLL 262220Z AUTO 30002KT 9999 NCD 22/13 Q1017
                        NOSIG=
201908262150 METAR COR EGLL 262150Z AUTO VRB02KT 9999 NCD 24/13 Q1016
                        NOSIG=
201908262120 METAR COR EGLL 262120Z AUTO VRB03KT 9999 NCD 25/12 Q1016
                        NOSIG=
201908262050 METAR COR EGLL 262050Z AUTO 22005KT 9999 NCD 25/12 Q1016
                        NOSIG=
201908262020 METAR COR EGLL 262020Z AUTO 23005KT 9999 NCD 26/12 Q1016
                        NOSIG=
201908261950 METAR COR EGLL 261950Z AUTO 24007KT 9999 NCD 26/12 Q1016
                        NOSIG=
201908261920 METAR COR EGLL 261920Z AUTO 24006KT 9999 NCD 27/13 Q1016
                        NOSIG=
201908261850 METAR COR EGLL 261850Z AUTO 22007KT 9999 NCD 27/12 Q1016
                        NOSIG=
201908261820 METAR COR EGLL 261820Z AUTO 20009KT 170V240 9999 NCD 28/11
                        Q1016 NOSIG=
201908261750 METAR COR EGLL 261750Z AUTO 21008KT 170V240 9999 NCD 29/11
                        Q1016 NOSIG=
201908261720 METAR COR EGLL 261720Z AUTO 20009KT 9999 NCD 30/11 Q1016
                        NOSIG=
201908261650 METAR COR EGLL 261650Z AUTO 21010KT 180V240 9999 NCD 31/12
                        Q1016 NOSIG=
201908261620 METAR COR EGLL 261620Z AUTO 20010KT 160V240 9999 NCD 31/14
                        Q1016 NOSIG=
201908261550 METAR COR EGLL 261550Z AUTO 18007KT 130V240 9999 NCD 32/14
                        Q1016 NOSIG=
201908261520 METAR COR EGLL 261520Z AUTO 18007KT 130V230 9999 NCD 32/13
                        Q1016 NOSIG=
201908261450 METAR COR EGLL 261450Z AUTO 17009KT 130V210 9999 NCD 32/12
                        Q1016 NOSIG=
201908261420 METAR COR EGLL 261420Z AUTO 15007KT 080V230 9999 NCD 32/12
                        Q1016 NOSIG=
201908261350 METAR COR EGLL 261350Z AUTO 16009KT 120V220 9999 NCD 32/13
                        Q1017 NOSIG=
201908261320 METAR COR EGLL 261320Z AUTO 18008KT 150V240 9999 NCD 32/13
                        Q1017 NOSIG=
201908261250 METAR COR EGLL 261250Z AUTO 17010KT 130V240 9999 NCD 32/13
                        Q1017 NOSIG=
201908261220 METAR COR EGLL 261220Z AUTO 16009KT 120V220 9999 NCD 32/13
                        Q1017 NOSIG=
201908261150 METAR COR EGLL 261150Z AUTO 15006KT 060V230 9999 NCD 31/13
                        Q1017 NOSIG=
201908261120 METAR COR EGLL 261120Z AUTO VRB05KT 9999 NCD 30/14 Q1017
                        NOSIG=
201908261050 METAR COR EGLL 261050Z AUTO VRB03KT 9999 NCD 29/14 Q1018
                        NOSIG=
201908261020 METAR COR EGLL 261020Z AUTO VRB04KT 9999 NCD 28/15 Q1018
                        NOSIG=
201908260950 METAR COR EGLL 260950Z AUTO VRB03KT 9999 NCD 27/15 Q1018
                        NOSIG=
201908260920 METAR COR EGLL 260920Z AUTO VRB04KT 9999 NCD 27/15 Q1018
                        NOSIG=
201908260850 METAR COR EGLL 260850Z AUTO VRB04KT 9999 NCD 25/15 Q1018
                        NOSIG=
201908260820 METAR COR EGLL 260820Z AUTO VRB03KT 9999 NCD 25/16 Q1018
                        NOSIG=
201908260750 METAR COR EGLL 260750Z AUTO VRB03KT 9999 NCD 23/16 Q1018
                        NOSIG=
201908260720 METAR COR EGLL 260720Z AUTO VRB03KT 9999 NCD 21/15 Q1018
                        NOSIG=
201908260650 METAR COR EGLL 260650Z AUTO VRB02KT 9999 NCD 20/15 Q1018
                        NOSIG=
201908260620 METAR COR EGLL 260620Z AUTO 01002KT 9999 NCD 19/16 Q1018
                        NOSIG=
201908260550 METAR COR EGLL 260550Z AUTO VRB01KT 9999 NCD 17/15 Q1018
                        NOSIG=
201908260520 METAR COR EGLL 260520Z AUTO 08001KT 9999 NCD 16/15 Q1018
                        NOSIG=
201908260450 METAR COR EGLL 260450Z AUTO 03001KT 9999 NCD 16/15 Q1018
                        NOSIG=
201908260420 METAR COR EGLL 260420Z AUTO VRB01KT 9999 NCD 17/16 Q1018
                        NOSIG=
201908260350 METAR COR EGLL 260350Z AUTO VRB03KT 9999 NCD 17/15 Q1018
                        NOSIG=
201908260320 METAR COR EGLL 260320Z AUTO 10001KT 9999 NCD 17/15 Q1018
                        NOSIG=
201908260250 METAR COR EGLL 260250Z AUTO 09002KT 9999 NCD 18/15 Q1019
                        NOSIG=
201908260220 METAR COR EGLL 260220Z AUTO VRB01KT 9999 NCD 18/15 Q1019
                        NOSIG=
201908260150 METAR COR EGLL 260150Z AUTO VRB02KT 9999 NCD 19/14 Q1019
                        NOSIG=
201908260120 METAR COR EGLL 260120Z AUTO VRB02KT 9999 NCD 19/15 Q1019
                        NOSIG=
201908260050 METAR COR EGLL 260050Z AUTO 18004KT 9999 NCD 20/15 Q1019
                        NOSIG=
201908260020 METAR COR EGLL 260020Z AUTO 17003KT 9999 NCD 19/15 Q1019
                        NOSIG=
201908252350 METAR COR EGLL 252350Z AUTO 21001KT 9999 NCD 20/14 Q1019
                        NOSIG=
201908252320 METAR COR EGLL 252320Z AUTO 23001KT 9999 NCD 22/14 Q1019
                        NOSIG=
201908252250 METAR COR EGLL 252250Z AUTO 22004KT 9999 NCD 22/14 Q1019
                        NOSIG=
201908252220 METAR COR EGLL 252220Z AUTO 20004KT 150V260 9999 NCD 21/14
                        Q1019 NOSIG=
201908252150 METAR COR EGLL 252150Z AUTO 23005KT 180V290 9999 NCD 22/14
                        Q1019 NOSIG=
201908252120 METAR COR EGLL 252120Z AUTO 22005KT 160V280 9999 NCD 22/14
                        Q1019 NOSIG=
201908252050 METAR COR EGLL 252050Z AUTO 23007KT 180V260 9999 NCD 24/13
                        Q1019 NOSIG=
201908252020 METAR COR EGLL 252020Z AUTO 21006KT 140V260 9999 NCD 25/12
                        Q1019 NOSIG=
201908251950 METAR COR EGLL 251950Z AUTO 21007KT 140V250 9999 NCD 26/10
                        Q1018 NOSIG=
201908251920 METAR EGLL 251920Z AUTO 22007KT 180V250 9999 NCD 27/10 Q1018=
201908251850 METAR COR EGLL 251850Z AUTO 21007KT 180V250 9999 NCD 28/09
                        Q1018 NOSIG=
201908251820 METAR COR EGLL 251820Z AUTO 21009KT 170V250 9999 NCD 29/10
                        Q1018 NOSIG=
201908251750 METAR COR EGLL 251750Z AUTO 21009KT 160V250 9999 NCD 30/11
                        Q1018 NOSIG=
201908251720 METAR COR EGLL 251720Z AUTO 17008KT 130V240 9999 NCD 31/12
                        Q1018 NOSIG=
201908251650 METAR COR EGLL 251650Z AUTO 21009KT 170V250 9999 NCD 32/11
                        Q1017 NOSIG=
201908251620 METAR COR EGLL 251620Z AUTO 21009KT 160V250 9999 NCD 32/11
                        Q1017 NOSIG=
201908251550 METAR COR EGLL 251550Z AUTO 17007KT 110V220 9999 NCD 32/12
                        Q1017 NOSIG=
201908251520 METAR COR EGLL 251520Z AUTO 15008KT 110V210 9999 NCD 32/11
                        Q1017 NOSIG=
201908251450 METAR COR EGLL 251450Z AUTO 15007KT 090V240 9999 NCD 33/11
                        Q1017 NOSIG=
201908251420 METAR COR EGLL 251420Z AUTO 13007KT 070V190 9999 NCD 32/11
                        Q1017 NOSIG=
201908251350 METAR COR EGLL 251350Z AUTO 14007KT 110V190 9999 NCD 33/11
                        Q1018 NOSIG=
201908251320 METAR COR EGLL 251320Z AUTO 14007KT 110V190 9999 NCD 32/10
                        Q1018 NOSIG=
201908251250 METAR COR EGLL 251250Z AUTO 16008G18KT 110V210 9999 NCD 32/10
                        Q1018 NOSIG=
201908251220 METAR COR EGLL 251220Z AUTO 17008G19KT 130V220 9999 NCD 32/11
                        Q1018 NOSIG=
201908251150 METAR COR EGLL 251150Z AUTO VRB08KT 9999 NCD 32/11 Q1018
                        NOSIG=
201908251120 METAR COR EGLL 251120Z AUTO 13005KT 070V190 9999 NCD 30/12
                        Q1018 NOSIG=
201908251050 METAR COR EGLL 251050Z AUTO VRB04KT 9999 NCD 30/13 Q1018
                        NOSIG=
201908251020 METAR COR EGLL 251020Z AUTO VRB04KT 9999 NCD 29/14 Q1018
                        NOSIG=
201908250950 METAR COR EGLL 250950Z AUTO 13004KT 090V200 9999 NCD 28/14
                        Q1018 NOSIG=
201908250920 METAR COR EGLL 250920Z AUTO 11004KT 060V170 9999 NCD 25/15
                        Q1018 NOSIG=
201908250850 METAR COR EGLL 250850Z AUTO 12006KT 090V150 9999 NCD 25/16
                        Q1018 NOSIG=
201908250820 METAR COR EGLL 250820Z AUTO 12006KT 8000 NCD 23/16 Q1018
                        NOSIG=
201908250750 METAR COR EGLL 250750Z AUTO VRB03KT 6000 NCD 21/16 Q1018
                        NOSIG=
201908250720 METAR COR EGLL 250720Z 07004KT 5000 HZ NSC 20/16 Q1018 NOSIG=
201908250650 METAR COR EGLL 250650Z 08003KT 5000 HZ NSC 18/15 Q1018 NOSIG=
201908250620 METAR COR EGLL 250620Z VRB02KT 5000 HZ NSC 17/15 Q1017 NOSIG=
201908250550 METAR COR EGLL 250550Z AUTO 08003KT 6000 NCD 18/15 Q1017
                        NOSIG=
201908250520 METAR COR EGLL 250520Z AUTO 09003KT 6000 NCD 18/15 Q1017
                        NOSIG=
201908250450 METAR COR EGLL 250450Z AUTO 04002KT 7000 NCD 16/14 Q1017
                        NOSIG=
201908250420 METAR COR EGLL 250420Z AUTO 03001KT 8000 NCD 17/14 Q1017
                        NOSIG=
201908250350 METAR COR EGLL 250350Z AUTO 04003KT 9999 NCD 17/14 Q1017
                        NOSIG=
201908250320 METAR COR EGLL 250320Z AUTO 04003KT 9999 NCD 17/14 Q1017
                        NOSIG=
201908250250 METAR COR EGLL 250250Z AUTO 03003KT 9999 NCD 18/14 Q1017
                        NOSIG=
201908250220 METAR COR EGLL 250220Z AUTO 04001KT 9999 NCD 18/14 Q1017
                        NOSIG=
201908250150 METAR COR EGLL 250150Z AUTO 05002KT 9999 NCD 17/14 Q1017
                        NOSIG=
201908250120 METAR COR EGLL 250120Z AUTO 04003KT 9999 NCD 17/14 Q1017
                        NOSIG=
201908250050 METAR COR EGLL 250050Z AUTO 04003KT 9999 NCD 18/14 Q1017
                        NOSIG=
201908250020 METAR COR EGLL 250020Z AUTO VRB02KT 9999 NCD 18/14 Q1017
                        NOSIG=
201908242350 METAR COR EGLL 242350Z AUTO 02002KT 9999 NCD 19/14 Q1017
                        NOSIG=
201908242320 METAR COR EGLL 242320Z AUTO 05002KT 9999 NCD 19/13 Q1017
                        NOSIG=
201908242250 METAR COR EGLL 242250Z AUTO 08003KT 9999 NCD 19/13 Q1017
                        NOSIG=
201908242220 METAR COR EGLL 242220Z AUTO 11003KT 9999 NCD 20/13 Q1017
                        NOSIG=
201908242150 METAR COR EGLL 242150Z AUTO 09004KT 9999 NCD 20/13 Q1017
                        NOSIG=
201908242120 METAR COR EGLL 242120Z AUTO 09003KT 9999 NCD 20/12 Q1017
                        NOSIG=
201908242050 METAR COR EGLL 242050Z AUTO 12003KT 9999 NCD 22/12 Q1017
                        NOSIG=
201908242020 METAR COR EGLL 242020Z AUTO 13005KT 9999 NCD 22/12 Q1017
                        NOSIG=
201908241950 METAR COR EGLL 241950Z AUTO 13005KT 9999 NCD 23/12 Q1017
                        NOSIG=
201908241920 METAR COR EGLL 241920Z AUTO 14005KT 9999 NCD 24/12 Q1017
                        NOSIG=
201908241850 METAR COR EGLL 241850Z AUTO 17005KT 9999 NCD 26/11 Q1017
                        NOSIG=
201908241820 METAR COR EGLL 241820Z AUTO 19006KT 9999 NCD 27/11 Q1017
                        NOSIG=
201908241750 METAR COR EGLL 241750Z AUTO 21008KT 150V230 9999 NCD 27/10
                        Q1017 NOSIG=
201908241720 METAR COR EGLL 241720Z AUTO 20009KT 9999 NCD 28/10 Q1017
                        NOSIG=
201908241650 METAR COR EGLL 241650Z AUTO 19010KT 9999 NCD 28/10 Q1017
                        NOSIG=
201908241620 METAR COR EGLL 241620Z AUTO 15007KT 110V210 9999 NCD 29/11
                        Q1017 NOSIG=
201908241550 METAR COR EGLL 241550Z AUTO 18009KT 150V220 9999 NCD 29/10
                        Q1017 NOSIG=
201908241520 METAR COR EGLL 241520Z AUTO 17008KT 120V200 9999 NCD 29/10
                        Q1017 NOSIG=
201908241450 METAR COR EGLL 241450Z AUTO 16009G20KT 100V200 9999 NCD 30/11
                        Q1018 NOSIGNOSIG=
201908241420 METAR COR EGLL 241420Z AUTO 15007KT 090V190 9999 NCD 30/11
                        Q1018 NOSIG=
201908241350 METAR COR EGLL 241350Z AUTO 14008KT 100V190 9999 NCD 28/11
                        Q1018 NOSIG=
201908241320 METAR COR EGLL 241320Z AUTO 14007KT 110V170 9999 NCD 30/11
                        Q1018 NOSIG=
201908241250 METAR COR EGLL 241250Z AUTO 14008KT 110V180 9999 NCD 29/10
                        Q1018 NOSIG=
201908241220 METAR COR EGLL 241220Z AUTO 16009KT 9999 NCD 29/09 Q1019
                        NOSIG=
201908241150 METAR COR EGLL 241150Z AUTO 11006KT 060V160 9999 NCD 28/13
                        Q1019 NOSIG=
201908241120 METAR COR EGLL 241120Z AUTO 12006KT 100V170 9999 NCD 28/12
                        Q1019 NOSIG=
201908241050 METAR COR EGLL 241050Z AUTO 14006KT 100V190 9999 NCD 27/14
                        Q1019 NOSIG=
201908241020 METAR COR EGLL 241020Z AUTO VRB03KT 9999 NCD 26/15 Q1020
                        NOSIG=
201908240950 METAR COR EGLL 240950Z AUTO VRB03KT 9999 NCD 25/15 Q1020
                        NOSIG=
201908240920 METAR COR EGLL 240920Z AUTO VRB03KT 9999 NCD 23/15 Q1020
                        NOSIG=
201908240850 METAR COR EGLL 240850Z AUTO VRB03KT 9000 NCD 21/15 Q1020
                        NOSIG=
201908240820 METAR COR EGLL 240820Z AUTO VRB03KT 9999 NCD 20/15 Q1020
                        NOSIG=
201908240750 METAR COR EGLL 240750Z AUTO VRB03KT 9000 NCD 19/15 Q1020
                        NOSIG=
201908240720 METAR COR EGLL 240720Z AUTO 10004KT 9000 NCD 18/15 Q1020
                        NOSIG=
201908240650 METAR COR EGLL 240650Z AUTO 07003KT 9000 NCD 17/15 Q1020
                        NOSIG=
201908240620 METAR COR EGLL 240620Z AUTO 04003KT 9999 NCD 15/14 Q1020
                        NOSIG=
201908240550 METAR COR EGLL 240550Z AUTO 02001KT 9999 NCD 15/14 Q1020
                        NOSIG=
201908240520 METAR COR EGLL 240520Z AUTO 03001KT 9999 NCD 14/13 Q1020
                        NOSIG=
201908240450 METAR COR EGLL 240450Z AUTO VRB01KT 9999 NCD 14/13 Q1020
                        NOSIG=
201908240420 METAR COR EGLL 240420Z AUTO VRB01KT 9999 NCD 14/13 Q1020
                        NOSIG=
201908240350 METAR COR EGLL 240350Z AUTO VRB02KT 9000 NCD 15/14 Q1020
                        NOSIG=
201908240320 METAR COR EGLL 240320Z AUTO 03001KT 9999 NCD 14/14 Q1021
                        NOSIG=
201908240250 METAR COR EGLL 240250Z AUTO 08002KT 9999 NCD 15/14 Q1021
                        NOSIG=
201908240220 METAR COR EGLL 240220Z AUTO 06001KT 9999 NCD 15/14 Q1021
                        NOSIG=
201908240150 METAR COR EGLL 240150Z AUTO 08002KT 9999 NCD 15/15 Q1021
                        NOSIG=
201908240120 METAR COR EGLL 240120Z AUTO 08003KT 9999 NCD 15/14 Q1021
                        NOSIG=
201908240050 METAR COR EGLL 240050Z AUTO 09004KT 9999 NCD 15/14 Q1021
                        NOSIG=
201908240020 METAR EGLL 240020Z AUTO 06002KT 9999 NCD 16/15 Q1022 NOSIG=
201908232350 METAR COR EGLL 232350Z AUTO 07001KT 9999 NCD 16/15 Q1022
                        NOSIG=
201908232320 METAR COR EGLL 232320Z AUTO 12002KT 9999 NCD 17/14 Q1022
                        NOSIG=
201908232250 METAR COR EGLL 232250Z AUTO 06001KT 9999 NCD 17/15 Q1022
                        NOSIG=
201908232220 METAR COR EGLL 232220Z AUTO VRB03KT 9999 NCD 17/14 Q1022
                        NOSIG=
201908232150 METAR COR EGLL 232150Z AUTO 22005KT 160V270 9999 NCD 18/14
                        Q1022 NOSIG=
201908232120 METAR COR EGLL 232120Z AUTO 20005KT 140V280 9999 NCD 19/14
                        Q1022 NOSIG=
201908232050 METAR COR EGLL 232050Z AUTO 20005KT 140V250 9999 NCD 20/14
                        Q1022 NOSIG=
201908232020 METAR COR EGLL 232020Z AUTO 21007KT 170V240 9999 NCD 21/14
                        Q1022 NOSIG=
201908231950 METAR COR EGLL 231950Z AUTO 21007KT 160V260 9999 NCD 21/14
                        Q1022 NOSIG=
201908231920 METAR COR EGLL 231920Z AUTO 22007KT 160V250 9999 NCD 22/15
                        Q1022 NOSIG=
201908231850 METAR COR EGLL 231850Z AUTO 21008KT 170V250 9999 NCD 23/15
                        Q1022 NOSIG=
201908231820 METAR COR EGLL 231820Z AUTO 21008KT 180V260 9999 NCD 24/15
                        Q1022 NOSIG=
201908231750 METAR COR EGLL 231750Z AUTO 21006KT 150V250 9999 NCD 25/14
                        Q1022 NOSIG=
201908231720 METAR COR EGLL 231720Z AUTO 19006KT 160V240 9999 NCD 26/14
                        Q1022 NOSIG=
201908231650 METAR COR EGLL 231650Z AUTO 20006KT 140V260 9999 NCD 26/13
                        Q1022 NOSIG=
201908231620 METAR COR EGLL 231620Z AUTO 15005KT 080V230 9999 FEW049 27/14
                        Q1022 NOSIG=
201908231550 METAR COR EGLL 231550Z AUTO 18006KT 120V260 9999 NCD 26/14
                        Q1023 NOSIG=
201908231520 METAR COR EGLL 231520Z AUTO VRB04KT 9999 NCD 27/14 Q1023
                        NOSIG=
201908231450 METAR COR EGLL 231450Z AUTO 15007KT 100V230 9999 NCD 27/14
                        Q1023 NOSIG=
201908231420 METAR COR EGLL 231420Z AUTO 20006KT 120V280 9999 NCD 27/14
                        Q1023 NOSIG=
201908231350 METAR COR EGLL 231350Z AUTO 15005KT 080V210 9999 NCD 26/14
                        Q1023 NOSIG=
201908231320 METAR COR EGLL 231320Z AUTO 17006KT 140V220 9999 NCD 26/14
                        Q1024 NOSIG=
201908231250 METAR COR EGLL 231250Z AUTO 15005KT 080V240 9999 NCD 26/14
                        Q1024 NOSIG=
201908231220 METAR COR EGLL 231220Z AUTO VRB05G16KT 9999 NCD 25/14 Q1024
                        NOSIG=
201908231150 METAR COR EGLL 231150Z AUTO 19006KT 140V270 9999 NCD 24/14
                        Q1024 NOSIG=
201908231120 METAR COR EGLL 231120Z AUTO VRB04KT 9999 NCD 24/14 Q1025
                        NOSIG=
201908231050 METAR COR EGLL 231050Z AUTO 14004KT 100V180 9999 FEW027 23/15
                        Q1025 NOSIG=
201908231020 METAR COR EGLL 231020Z AUTO 22004KT 170V310 9999 FEW025 22/15
                        Q1025 NOSIG=
201908230950 METAR COR EGLL 230950Z AUTO 22005KT 140V270 9999 NCD 22/15
                        Q1025 NOSIG=
201908230920 METAR COR EGLL 230920Z AUTO VRB03KT 9999 NCD 21/15 Q1025
                        NOSIG=
201908230850 METAR COR EGLL 230850Z AUTO VRB03KT 9999 NCD 20/15 Q1026
                        NOSIG=
201908230820 METAR COR EGLL 230820Z AUTO VRB03KT 9999 NCD 19/15 Q1026
                        NOSIG=
201908230750 METAR COR EGLL 230750Z AUTO VRB03KT 9999 NCD 18/15 Q1026
                        NOSIG=
201908230720 METAR COR EGLL 230720Z AUTO VRB03KT 9999 NCD 17/15 Q1026
                        NOSIG=
201908230650 METAR COR EGLL 230650Z AUTO 21003KT 9999 NCD 16/15 Q1026
                        NOSIG=
201908230620 METAR COR EGLL 230620Z AUTO 17004KT 130V210 9999 NCD 15/14
                        Q1025 NOSIG=
201908230550 METAR COR EGLL 230550Z AUTO 18004G15KT 140V210 9999 NCD 14/13
                        Q1025 NOSIG=
201908230520 METAR COR EGLL 230520Z AUTO 17004KT 140V210 9999 NCD 13/13
                        Q1025 NOSIG=
201908230450 METAR COR EGLL 230450Z AUTO VRB03KT 9999 NCD 14/14 Q1025
                        NOSIG=
201908230420 METAR COR EGLL 230420Z AUTO VRB03KT 9999 NCD 14/13 Q1025
                        NOSIG=
201908230350 METAR COR EGLL 230350Z AUTO 17004KT 9999 NCD 14/13 Q1025
                        NOSIG=
201908230320 METAR COR EGLL 230320Z AUTO 25002KT 9999 NCD 14/13 Q1025
                        NOSIG=
201908230250 METAR COR EGLL 230250Z AUTO VRB02KT 9999 NCD 15/14 Q1025
                        NOSIG=
201908230220 METAR COR EGLL 230220Z AUTO 30002KT 9999 NCD 15/14 Q1025
                        NOSIG=
201908230150 METAR COR EGLL 230150Z AUTO 27003KT 9999 NCD 15/14 Q1025
                        NOSIG=
201908230120 METAR COR EGLL 230120Z AUTO VRB02KT 9999 NCD 15/14 Q1025
                        NOSIG=
201908230050 METAR COR EGLL 230050Z AUTO VRB03KT 9999 NCD 15/14 Q1026
                        NOSIG=
201908230020 METAR COR EGLL 230020Z AUTO 23003KT 9999 NCD 16/14 Q1026
                        NOSIG=
201908222350 METAR COR EGLL 222350Z AUTO 24004KT 9999 NCD 17/14 Q1026
                        NOSIG=
201908222320 METAR COR EGLL 222320Z AUTO 24004KT 9999 NCD 17/14 Q1026
                        NOSIG=
201908222250 METAR COR EGLL 222250Z AUTO 23006KT 9999 NCD 17/14 Q1025
                        NOSIG=
201908222220 METAR COR EGLL 222220Z AUTO 24006KT 9999 NCD 17/14 Q1025
                        NOSIG=
201908222150 METAR COR EGLL 222150Z AUTO 24009KT 9999 NCD 18/14 Q1025
                        NOSIG=
201908222120 METAR COR EGLL 222120Z AUTO 23008KT 170V260 9999 NCD 18/14
                        Q1025 NOSIG=
201908222050 METAR COR EGLL 222050Z AUTO 23008KT 9999 NCD 18/14 Q1025
                        NOSIG=
201908222020 METAR COR EGLL 222020Z AUTO 22008KT 9999 NCD 19/14 Q1025
                        NOSIG=
201908221950 METAR COR EGLL 221950Z AUTO 22007KT 190V250 9999 NCD 20/14
                        Q1025 NOSIG=
201908221920 METAR COR EGLL 221920Z AUTO 23008KT 9999 NCD 20/14 Q1025
                        NOSIG=
201908221850 METAR COR EGLL 221850Z AUTO 24009KT 9999 NCD 21/14 Q1024
                        NOSIG=
201908221820 METAR COR EGLL 221820Z AUTO 24009KT 9999 NCD 22/14 Q1024
                        NOSIG=
201908221750 METAR EGLL 221750Z AUTO 24010KT 9999 SCT044 23/13 Q1024=
201908221720 METAR COR EGLL 221720Z AUTO 23010KT 9999 BKN045 22/14 Q1024
                        NOSIG=
201908221650 METAR EGLL 221650Z AUTO 24010KT 190V270 9999 BKN043 23/13
                        Q1024=
201908221620 METAR COR EGLL 221620Z AUTO 24010KT 9999 BKN044 23/13 Q1024
                        NOSIG=
201908221550 METAR EGLL 221550Z AUTO 24011KT 9999 BKN042 24/13 Q1024=
201908221520 METAR COR EGLL 221520Z AUTO 25012KT 9999 BKN042 24/12 Q1024
                        NOSIG=
201908221450 METAR COR EGLL 221450Z AUTO 27011KT 230V300 9999 BKN042 23/13
                        Q1024 NOSIG=
201908221420 METAR COR EGLL 221420Z AUTO 26010KT 9999 BKN042 23/13 Q1024
                        NOSIG=
201908221350 METAR COR EGLL 221350Z AUTO 24010KT 9999 BKN041 23/12 Q1024
                        NOSIG=
201908221320 METAR COR EGLL 221320Z AUTO 25012KT 9999 BKN040 23/12 Q1024
                        NOSIG=
201908221250 METAR COR EGLL 221250Z AUTO 23011KT 9999 BKN039 23/12 Q1024
                        NOSIG=
201908221220 METAR COR EGLL 221220Z AUTO 23012KT 9999 BKN040 23/12 Q1025
                        NOSIG=
201908221150 METAR COR EGLL 221150Z AUTO 23011KT 9999 FEW039 23/12 Q1025
                        NOSIG=
201908221120 METAR COR EGLL 221120Z AUTO 23011KT 200V280 9999 NCD 22/11
                        Q1025 NOSIG=
201908221050 METAR COR EGLL 221050Z AUTO 24012KT 9999 NCD 22/11 Q1025
                        NOSIG=
201908221020 METAR COR EGLL 221020Z AUTO 23010KT 200V260 9999 NCD 21/11
                        Q1025 NOSIG=
201908220950 METAR COR EGLL 220950Z AUTO 24009KT 190V270 9999 NCD 20/11
                        Q1025 NOSIG=
201908220920 METAR COR EGLL 220920Z AUTO 24008KT 210V270 9999 NCD 20/11
                        Q1025 NOSIG=
201908220850 METAR COR EGLL 220850Z AUTO 24010KT 200V270 9999 NCD 19/12
                        Q1025 NOSIG=
201908220820 METAR COR EGLL 220820Z AUTO 23011KT 9999 NCD 17/12 Q1025
                        NOSIG=
201908220750 METAR COR EGLL 220750Z AUTO 24010KT 9999 NCD 16/12 Q1025
                        NOSIG=
201908220720 METAR COR EGLL 220720Z AUTO 22011KT 9999 NCD 15/12 Q1025
                        NOSIG=
201908220650 METAR COR EGLL 220650Z AUTO 23010KT 9999 NCD 14/13 Q1025
                        NOSIG=
201908220620 METAR COR EGLL 220620Z AUTO 22007KT 190V250 9999 NCD 13/12
                        Q1025 NOSIG=
201908220550 METAR COR EGLL 220550Z AUTO 21007KT 9999 NCD 12/12 Q1025
                        NOSIG=
201908220520 METAR COR EGLL 220520Z AUTO 21005KT 170V250 9999 NCD 12/12
                        Q1024 NOSIG=
201908220450 METAR EGLL 220450Z AUTO 21005KT 9999 NCD 12/12 Q1024=
201908220420 METAR EGLL 220420Z AUTO 20005KT 180V260 9999 NCD 12/12 Q1024=
201908220350 METAR EGLL 220350Z AUTO 21005KT 170V240 9999 NCD 13/12 Q1024=
201908220320 METAR COR EGLL 220320Z AUTO 22005KT 9999 NCD 13/12 Q1024
                        NOSIG=
201908220250 METAR COR EGLL 220250Z AUTO 22006KT 9999 NCD 13/12 Q1024
                        NOSIG=
201908220220 METAR EGLL 220220Z AUTO 22006KT 9999 NCD 13/12 Q1024=
201908220150 METAR COR EGLL 220150Z AUTO 22005KT 9999 NCD 13/12 Q1024
                        NOSIG=
201908220120 METAR COR EGLL 220120Z AUTO 23006KT 9999 NCD 13/12 Q1025
                        NOSIG=
201908220050 METAR COR EGLL 220050Z AUTO 22005KT 9999 NCD 13/12 Q1025
                        NOSIG=
201908220020 METAR COR EGLL 220020Z AUTO 21005KT 9999 NCD 14/12 Q1025
                        NOSIG=
201908212350 METAR COR EGLL 212350Z AUTO 19006KT 9999 NCD 14/11 Q1025
                        NOSIG=
201908212320 METAR COR EGLL 212320Z AUTO 20005KT 9999 NCD 14/11 Q1025
                        NOSIG=
201908212250 METAR COR EGLL 212250Z AUTO 22005KT 9999 NCD 14/11 Q1025
                        NOSIG=
201908212220 METAR COR EGLL 212220Z AUTO 21007KT 9999 NCD 15/11 Q1025
                        NOSIG=
201908212150 METAR COR EGLL 212150Z AUTO 23008KT 9999 NCD 15/10 Q1026
                        NOSIG=
201908212120 METAR COR EGLL 212120Z AUTO 23008KT 180V260 9999 NCD 16/11
                        Q1026 NOSIG=
201908212050 METAR COR EGLL 212050Z AUTO 22007KT 180V260 9999 NCD 16/11
                        Q1025 NOSIG=
201908212020 METAR COR EGLL 212020Z AUTO 20007KT 160V240 9999 NCD 16/11
                        Q1025 NOSIG=
201908211950 METAR COR EGLL 211950Z AUTO 20009KT 160V240 9999 NCD 17/10
                        Q1025 NOSIG=
201908211920 METAR COR EGLL 211920Z AUTO 20010KT 160V240 9999 NCD 18/10
                        Q1025 NOSIG=
201908211850 METAR COR EGLL 211850Z AUTO 21011KT 9999 NCD 19/10 Q1025
                        NOSIG=
201908211820 METAR COR EGLL 211820Z AUTO 18011KT 160V240 9999 NCD 19/11
                        Q1025 NOSIG=
201908211750 METAR COR EGLL 211750Z AUTO 19011KT 160V240 9999 FEW047 20/11
                        Q1025 NOSIG=
201908211720 METAR COR EGLL 211720Z AUTO 18011KT 160V240 9999 SCT048 20/11
                        Q1025 NOSIG=
201908211650 METAR COR EGLL 211650Z AUTO 18011KT 140V210 9999 SCT044 21/11
                        Q1025 NOSIG=
201908211620 METAR COR EGLL 211620Z AUTO 19011KT 150V230 9999 NCD 22/11
                        Q1025 NOSIG=
201908211550 METAR COR EGLL 211550Z AUTO 18010KT 150V240 9999 SCT046 21/11
                        Q1025 NOSIG=
201908211520 METAR COR EGLL 211520Z AUTO 20009KT 160V250 9999 NCD 23/11
                        Q1025 NOSIG=
201908211450 METAR COR EGLL 211450Z AUTO 21008KT 170V250 9999 FEW045 22/10
                        Q1025 NOSIG=
201908211420 METAR COR EGLL 211420Z AUTO 21009KT 160V250 9999 NCD 22/10
                        Q1026 NOSIG=
201908211350 METAR COR EGLL 211350Z AUTO 22009KT 170V250 9999 SCT047 22/10
                        Q1026 NOSIG=
201908211320 METAR COR EGLL 211320Z AUTO 21010G20KT 180V240 9999 SCT045
                        22/10 Q1026 NOSIG=
201908211250 METAR COR EGLL 211250Z AUTO 19010KT 160V230 9999 BKN046 22/10
                        Q1026 NOSIG=
201908211220 METAR COR EGLL 211220Z AUTO 20009KT 180V240 9999 FEW044 21/11
                        Q1026 NOSIG=
201908211150 METAR COR EGLL 211150Z AUTO 20010G22KT 170V230 9999 FEW042
                        22/11 Q1027 NOSIG=
201908211120 METAR COR EGLL 211120Z AUTO 23006KT 170V280 9999 BKN036 22/11
                        Q1027 NOSIG=
201908211050 METAR COR EGLL 211050Z AUTO 22008KT 180V260 9999 NCD 20/11
                        Q1027 NOSIG=
201908211020 METAR COR EGLL 211020Z AUTO 22008KT 190V250 9999 NCD 20/10
                        Q1027 NOSIG=
201908210950 METAR COR EGLL 210950Z AUTO 21008KT 160V240 9999 NCD 19/11
                        Q1028 NOSIG=
201908210920 METAR COR EGLL 210920Z AUTO 21006KT 170V280 9999 NCD 19/12
                        Q1028 NOSIG=
201908210850 METAR COR EGLL 210850Z AUTO 21005KT 170V240 9999 NCD 17/13
                        Q1028 NOSIG=
201908210820 METAR COR EGLL 210820Z AUTO 18004KT 130V230 9999 NCD 16/12
                        Q1028 NOSIG=
201908210750 METAR COR EGLL 210750Z AUTO 21004KT 160V250 9999 NCD 16/12
                        Q1028 NOSIG=
201908210720 METAR COR EGLL 210720Z AUTO 16004KT 100V210 9999 NCD 14/11
                        Q1028 NOSIG=
201908210650 METAR COR EGLL 210650Z AUTO 20004KT 160V250 9999 NCD 13/11
                        Q1028 NOSIG=
201908210620 METAR COR EGLL 210620Z AUTO 17005KT 9999 NCD 12/10 Q1027
                        NOSIG=
201908210550 METAR COR EGLL 210550Z AUTO 20004KT 160V230 9999 NCD 11/10
                        Q1027 NOSIG=
201908210520 METAR COR EGLL 210520Z AUTO 19005KT 160V230 9999 NCD 11/09
                        Q1027 NOSIG=
201908210450 METAR COR EGLL 210450Z AUTO 18004KT 160V240 9999 NCD 11/09
                        Q1027 NOSIG=
201908210420 METAR COR EGLL 210420Z AUTO 17004KT 140V210 9999 NCD 11/09
                        Q1027 NOSIG=
201908210350 METAR COR EGLL 210350Z AUTO VRB02KT 9999 NCD 11/09 Q1027
                        NOSIG=
201908210320 METAR COR EGLL 210320Z AUTO VRB02KT 9999 NCD 11/09 Q1027
                        NOSIG=
201908210250 METAR COR EGLL 210250Z AUTO 22003KT 9999 NCD 12/09 Q1027
                        NOSIG=
201908210220 METAR COR EGLL 210220Z AUTO 20004KT 9999 NCD 12/09 Q1027
                        NOSIG=
201908210150 METAR COR EGLL 210150Z AUTO 22003KT 9999 NCD 11/08 Q1027
                        NOSIG=
201908210120 METAR COR EGLL 210120Z AUTO 23003KT 9999 NCD 12/09 Q1027
                        NOSIG=
201908210050 METAR COR EGLL 210050Z AUTO 22003KT 9999 NCD 13/09 Q1027
                        NOSIG=
201908210020 METAR COR EGLL 210020Z AUTO 22005KT 9999 NCD 14/09 Q1027
                        NOSIG=
201908202350 METAR COR EGLL 202350Z AUTO VRB02KT 9999 NCD 14/09 Q1027
                        NOSIG=
201908202320 METAR COR EGLL 202320Z AUTO 27004KT 9999 NCD 14/09 Q1027
                        NOSIG=
201908202250 METAR COR EGLL 202250Z AUTO 27006KT 9999 NCD 15/09 Q1027
                        NOSIG=
201908202220 METAR COR EGLL 202220Z AUTO 25008KT 9999 NCD 15/09 Q1027
                        NOSIG=
201908202150 METAR COR EGLL 202150Z AUTO 26010KT 9999 NCD 16/08 Q1027
                        NOSIG=
201908202120 METAR COR EGLL 202120Z AUTO 25008KT 9999 NCD 17/08 Q1026
                        NOSIG=
201908202050 METAR COR EGLL 202050Z AUTO 27009KT 9999 NCD 17/08 Q1026
                        NOSIG=
201908202020 METAR COR EGLL 202020Z AUTO 27009KT 9999 NCD 18/08 Q1026
                        NOSIG=
201908201950 METAR EGLL 201950Z AUTO 26009KT 9999 NCD 18/07 Q1026=
201908201920 METAR COR EGLL 201920Z AUTO 27008KT 9999 NCD 18/07 Q1026
                        NOSIG=
201908201850 METAR COR EGLL 201850Z AUTO 28006KT 9999 NCD 18/07 Q1025
                        NOSIG=
201908201820 METAR COR EGLL 201820Z AUTO 27009KT 9999 NCD 19/06 Q1025
                        NOSIG=
201908201750 METAR COR EGLL 201750Z AUTO 28009KT 9999 NCD 19/06 Q1025
                        NOSIG=
201908201720 METAR COR EGLL 201720Z AUTO 27012KT 9999 NCD 20/06 Q1025
                        NOSIG=
201908201650 METAR COR EGLL 201650Z AUTO 27012KT 9999 NCD 20/05 Q1024
                        NOSIG=
201908201620 METAR COR EGLL 201620Z AUTO 27012KT 9999 NCD 20/06 Q1024
                        NOSIG=
201908201550 METAR COR EGLL 201550Z AUTO 27012KT 9999 NCD 21/05 Q1024
                        NOSIG=
201908201520 METAR COR EGLL 201520Z AUTO 26012KT 9999 NCD 21/05 Q1024
                        NOSIG=
201908201450 METAR COR EGLL 201450Z AUTO 24011KT 210V280 9999 NCD 21/05
                        Q1024 NOSIG=
201908201420 METAR COR EGLL 201420Z AUTO 28011KT 240V310 9999 NCD 21/05
                        Q1023 NOSIG=
201908201350 METAR COR EGLL 201350Z AUTO 27010KT 230V310 9999 NCD 20/05
                        Q1023 NOSIG=
201908201320 METAR COR EGLL 201320Z AUTO 28010KT 240V330 9999 NCD 21/06
                        Q1023 NOSIG=
201908201250 METAR COR EGLL 201250Z AUTO 26013KT 220V280 9999 NCD 20/06
                        Q1023 NOSIG=
201908201220 METAR COR EGLL 201220Z AUTO 28011KT 240V310 9999 NCD 20/07
                        Q1023 NOSIG=
201908201150 METAR COR EGLL 201150Z AUTO 27010KT 9999 NCD 20/07 Q1023
                        NOSIG=
201908201120 METAR COR EGLL 201120Z AUTO 27010KT 240V320 9999 NCD 20/06
                        Q1023 NOSIG=
201908201050 METAR COR EGLL 201050Z AUTO 27010KT 240V300 9999 FEW045 19/07
                        Q1023 NOSIG=
201908201020 METAR COR EGLL 201020Z AUTO 28008KT 240V310 9999 NCD 18/07
                        Q1023 NOSIG=
201908200950 METAR COR EGLL 200950Z AUTO 27009KT 240V310 9999 FEW036 18/09
                        Q1023 NOSIG=
201908200920 METAR COR EGLL 200920Z AUTO 26009KT 9999 FEW031 17/09 Q1023
                        NOSIG=
201908200850 METAR COR EGLL 200850Z AUTO 29009KT 9999 NCD 16/10 Q1023
                        NOSIG=
201908200820 METAR COR EGLL 200820Z AUTO 28009KT 9999 NCD 16/10 Q1022
                        NOSIG=
201908200750 METAR COR EGLL 200750Z AUTO 27010KT 9999 NCD 15/11 Q1022
                        NOSIG=
201908200720 METAR COR EGLL 200720Z AUTO 25008KT 9999 NCD 14/11 Q1022
                        NOSIG=
201908200650 METAR COR EGLL 200650Z AUTO 25007KT 9999 NCD 13/11 Q1021
                        NOSIG=
201908200620 METAR COR EGLL 200620Z AUTO 24007KT 9999 NCD 12/11 Q1021
                        NOSIG=
201908200550 METAR COR EGLL 200550Z AUTO 22005KT 9999 NCD 12/10 Q1021
                        NOSIG=
201908200520 METAR COR EGLL 200520Z AUTO 23005KT 190V250 9999 NCD 11/10
                        Q1020 NOSIG=
201908200450 METAR COR EGLL 200450Z AUTO 22005KT 190V260 9999 NCD 11/10
                        Q1020 NOSIG=
201908200420 METAR COR EGLL 200420Z AUTO 20006KT 160V230 9999 NCD 11/10
                        Q1020 NOSIG=
201908200350 METAR COR EGLL 200350Z AUTO 24005KT 9999 NCD 11/10 Q1020
                        NOSIG=
201908200320 METAR COR EGLL 200320Z AUTO 23006KT 9999 NCD 12/10 Q1020
                        NOSIG=
201908200250 METAR COR EGLL 200250Z AUTO 23005KT 9999 NCD 12/10 Q1019
                        NOSIG=
201908200220 METAR COR EGLL 200220Z AUTO 23007KT 9999 NCD 12/10 Q1019
                        NOSIG=
201908200150 METAR COR EGLL 200150Z AUTO 23007KT 9999 NCD 12/10 Q1019
                        NOSIG=
201908200120 METAR COR EGLL 200120Z AUTO 24005KT 9999 NCD 13/10 Q1019
                        NOSIG=
201908200050 METAR COR EGLL 200050Z AUTO 24006KT 9999 NCD 13/11 Q1019
                        NOSIG=
201908200020 METAR COR EGLL 200020Z AUTO 24006KT 9999 NCD 13/10 Q1019
                        NOSIG=
201908192350 METAR COR EGLL 192350Z AUTO 25007KT 9999 NCD 14/10 Q1019
                        NOSIG=
201908192320 METAR COR EGLL 192320Z AUTO 24007KT 9999 NCD 14/10 Q1019
                        NOSIG=
201908192250 METAR COR EGLL 192250Z AUTO 24009KT 9999 NCD 14/10 Q1019
                        NOSIG=
201908192220 METAR COR EGLL 192220Z AUTO 24009KT 9999 NCD 15/10 Q1019
                        NOSIG=
201908192150 METAR COR EGLL 192150Z AUTO 25011KT 9999 NCD 16/09 Q1019
                        NOSIG=
201908192120 METAR COR EGLL 192120Z AUTO 26009KT 9999 NCD 16/09 Q1018
                        NOSIG=
201908192050 METAR COR EGLL 192050Z AUTO 27009KT 9999 NCD 17/09 Q1018
                        NOSIG=
201908192020 METAR COR EGLL 192020Z AUTO 27009KT 9999 NCD 16/08 Q1018
                        NOSIG=
201908191950 METAR COR EGLL 191950Z AUTO 26008KT 9999 NCD 17/08 Q1017
                        NOSIG=
201908191920 METAR COR EGLL 191920Z AUTO 27012KT 9999 NCD 18/08 Q1017
                        NOSIG=
201908191850 METAR COR EGLL 191850Z AUTO 27014KT 9999 NCD 18/07 Q1017
                        NOSIG=
201908191820 METAR COR EGLL 191820Z AUTO 27015KT 9999 NCD 19/07 Q1016
                        NOSIG=
201908191750 METAR COR EGLL 191750Z AUTO 27015KT 9999 NCD 20/07 Q1016
                        NOSIG=
201908191720 METAR COR EGLL 191720Z AUTO 26017KT 9999 NCD 20/07 Q1016
                        NOSIG=
201908191650 METAR COR EGLL 191650Z AUTO 27018KT 9999 NCD 20/09 Q1016
                        NOSIG=
201908191620 METAR COR EGLL 191620Z AUTO 24015KT 9999 NCD 20/09 Q1015
                        NOSIG=
201908191550 METAR COR EGLL 191550Z AUTO 25016KT 9999 NCD 20/08 Q1015
                        NOSIG=
201908191520 METAR COR EGLL 191520Z AUTO 27018KT 9999 NCD 20/08 Q1015
                        NOSIG=
201908191450 METAR COR EGLL 191450Z AUTO 26016KT 9999 //////CB 21/08 Q1015
                        TEMPO SHRA=
201908191420 METAR COR EGLL 191420Z AUTO 25016G26KT 9999 //////CB 20/10
                        Q1015 TEMPO SHRA=
201908191350 METAR COR EGLL 191350Z AUTO 26016KT 9999 NCD 21/10 Q1015
                        TEMPO SHRA=
201908191320 METAR COR EGLL 191320Z AUTO 26012KT 9999 NCD 20/11 Q1015
                        TEMPO SHRA=
201908191250 METAR COR EGLL 191250Z AUTO 24013KT 9999 //////CB 18/11 Q1015
                        NOSIG=
201908191220 METAR COR EGLL 191220Z 23015KT 9999 FEW031CB 19/13 Q1014
                        TEMPO SHRA=
201908191150 METAR COR EGLL 191150Z 25013G23KT 9999 SCT033CB 18/14 Q1014
                        TEMPO SHRA=
201908191120 METAR COR EGLL 191120Z AUTO 31007KT 280V360 9999 SCT033///
                        BKN046/// //////CB 19/12 Q1014 TEMPO
                        SHRA=
201908191050 METAR COR EGLL 191050Z AUTO 26011KT 220V290 9999 SCT031///
                        //////CB 19/12 Q1014 TEMPO SHRA=
201908191020 METAR COR EGLL 191020Z AUTO 24012KT 9999 SCT028/// SCT043///
                        //////CB 18/12 Q1014 TEMPO SHRA=
201908190950 METAR COR EGLL 190950Z AUTO 25012KT 9999 SCT028/// SCT033///
                        //////CB 18/12 Q1014 TEMPO SHRA=
201908190920 METAR COR EGLL 190920Z AUTO 24011KT 9999 BKN022 BKN031 18/12
                        Q1013 TEMPO SHRA=
201908190850 METAR COR EGLL 190850Z AUTO 24012KT 9999 FEW022 SCT045 17/13
                        Q1013 NOSIG=
201908190820 METAR COR EGLL 190820Z AUTO 24012KT 9999 FEW018 16/12 Q1013
                        NOSIG=
201908190750 METAR COR EGLL 190750Z AUTO 23012KT 9999 NCD 16/13 Q1013
                        NOSIG=
201908190720 METAR COR EGLL 190720Z AUTO 24011KT 9999 -RA NCD 15/13 Q1012
                        NOSIG=
201908190650 METAR COR EGLL 190650Z AUTO 24011KT 9999 -RA NCD 15/12 Q1012
                        NOSIG=
201908190620 METAR COR EGLL 190620Z AUTO 24011KT 9999 NCD 14/12 Q1012
                        NOSIG=
201908190550 METAR COR EGLL 190550Z AUTO 22009KT 190V260 9999 NCD 14/12
                        Q1012 NOSIG=
201908190520 METAR COR EGLL 190520Z AUTO 23008KT 9999 NCD 14/12 Q1012
                        NOSIG=
201908190450 METAR COR EGLL 190450Z AUTO 24008KT 9999 -RA NCD 13/12 Q1011
                        NOSIG=
201908190420 METAR COR EGLL 190420Z AUTO 23008KT 9999 NCD 13/12 Q1011
                        NOSIG=
201908190350 METAR COR EGLL 190350Z AUTO 22007KT 180V250 9999 NCD 13/12
                        Q1011 NOSIG=
201908190320 METAR COR EGLL 190320Z AUTO 24006KT 9999 NCD 13/11 Q1011
                        NOSIG=
201908190250 METAR COR EGLL 190250Z AUTO 23005KT 9999 NCD 13/12 Q1011
                        NOSIG=
201908190220 METAR COR EGLL 190220Z AUTO 23006KT 9999 NCD 13/12 Q1011
                        NOSIG=
201908190150 METAR COR EGLL 190150Z AUTO 23008KT 9999 NCD 13/12 Q1010
                        NOSIG=
201908190120 METAR COR EGLL 190120Z AUTO 23010KT 9999 NCD 13/12 Q1010
                        NOSIG=
201908190050 METAR COR EGLL 190050Z AUTO 22009KT 9999 NCD 13/12 Q1010
                        NOSIG=
201908190020 METAR COR EGLL 190020Z AUTO 24009KT 9999 NCD 14/12 Q1010
                        NOSIG=
201908182350 METAR COR EGLL 182350Z AUTO 24009KT 9999 NCD 14/12 Q1010
                        NOSIG=
201908182320 METAR COR EGLL 182320Z AUTO 24008KT 9999 NCD 14/12 Q1010
                        NOSIG=
201908182250 METAR COR EGLL 182250Z AUTO 23007KT 9999 NCD 14/13 Q1010
                        NOSIG=
201908182220 METAR COR EGLL 182220Z AUTO 22009KT 9999 NCD 14/13 Q1010
                        NOSIG=
201908182150 METAR COR EGLL 182150Z AUTO 23009KT 9999 NCD 15/13 Q1009
                        NOSIG=
201908182120 METAR COR EGLL 182120Z AUTO 22008KT 9999 NCD 14/13 Q1009
                        NOSIG=
201908182050 METAR COR EGLL 182050Z AUTO 22010KT 9999 NCD 15/13 Q1009
                        NOSIG=
201908182020 METAR COR EGLL 182020Z AUTO 23011KT 9999 NCD 15/13 Q1009
                        NOSIG=
201908181950 METAR COR EGLL 181950Z AUTO 23011KT 9999 NCD 15/13 Q1008
                        NOSIG=
201908181920 METAR COR EGLL 181920Z AUTO 23011KT 9999 NCD 15/13 Q1008
                        NOSIG=
201908181850 METAR COR EGLL 181850Z 24010KT 9999 VCSH FEW031 SCT041TCU
                        15/13 Q1008 RESHRA NOSIG=
201908181820 METAR COR EGLL 181820Z 23014KT 9999 3500W +SHRA FEW032 BKN043TCU
                        18/13 Q1007 RESHRA TEMPO 3500=
201908181750 METAR COR EGLL 181750Z 24015KT 9999 FEW030TCU 19/12 Q1007
                        TEMPO SHRA=
201908181720 METAR COR EGLL 181720Z 24013KT 9999 FEW030 20/11 Q1007 TEMPO
                        SHRA=
201908181650 METAR COR EGLL 181650Z 24014KT 9999 FEW030 SCT045 20/11 Q1007
                        TEMPO SHRA=
201908181620 METAR COR EGLL 181620Z AUTO 25014KT 9999 NCD 21/09 Q1006
                        TEMPO SHRA=
201908181550 METAR COR EGLL 181550Z AUTO 26013KT 9999 NCD 22/09 Q1006
                        TEMPO SHRA=
201908181520 METAR COR EGLL 181520Z AUTO 25014KT 9999 SCT046 21/09 Q1006
                        NOSIG=
201908181450 METAR COR EGLL 181450Z AUTO 26016KT 9999 FEW049 21/09 Q1006
                        NOSIG=
201908181420 METAR COR EGLL 181420Z AUTO 25016KT 9999 FEW049 22/10 Q1005
                        NOSIG=
201908181350 METAR COR EGLL 181350Z AUTO 26014KT 9999 SCT047 21/10 Q1005
                        NOSIG=
201908181320 METAR COR EGLL 181320Z AUTO 27012KT 220V290 9999 SCT044 22/10
                        Q1005 NOSIG=
201908181250 METAR COR EGLL 181250Z AUTO 27012KT 9999 SCT034 BKN048 21/11
                        Q1005 NOSIG=
201908181220 METAR COR EGLL 181220Z AUTO 26012KT 9999 SCT031 BKN040 20/12
                        Q1005 NOSIG=
201908181150 METAR COR EGLL 181150Z AUTO 25012KT 9999 SCT025/// SCT032///
                        //////CB 19/12 Q1005 NOSIG=
201908181120 METAR COR EGLL 181120Z AUTO 25010KT 9999 FEW027/// //////TCU
                        18/13 Q1005 NOSIG=
201908181050 METAR COR EGLL 181050Z AUTO 26010KT 9999 NCD 17/14 Q1005
                        NOSIG=
201908181020 METAR EGLL 181020Z AUTO 23008KT 190V270 9999 NCD 16/14 Q1005=
201908180950 METAR COR EGLL 180950Z AUTO 25009KT 9999 -RA SCT047/// //////TCU
                        15/14 Q1005 NOSIG=
201908180920 METAR COR EGLL 180920Z AUTO 25012KT 7000 -RA FEW034/// BKN041///
                        //////CB 15/13 Q1005 NOSIG=
201908180850 METAR COR EGLL 180850Z AUTO 25010KT 8000 -RA FEW021/// SCT033///
                        //////TCU 15/13 Q1004 TEMPO 4000
                        SHRA=
201908180820 METAR COR EGLL 180820Z AUTO 24009KT 9999 -RA NCD 16/14 Q1004
                        TEMPO 4000 +SHRA=
201908180750 METAR COR EGLL 180750Z AUTO 23009KT 9999 NCD 16/13 Q1003
                        TEMPO 4000 +SHRA=
201908180720 METAR COR EGLL 180720Z AUTO 23007KT 9999 NCD 16/14 Q1003
                        TEMPO SHRA=
201908180650 METAR COR EGLL 180650Z AUTO 23007KT 9999 NCD 16/14 Q1003
                        TEMPO SHRA=
201908180620 METAR COR EGLL 180620Z AUTO 21006KT 9999 NCD 15/14 Q1003
                        NOSIG=
201908180550 METAR COR EGLL 180550Z AUTO 21006KT 170V240 9999 NCD 15/14
                        Q1003 NOSIG=
201908180520 METAR COR EGLL 180520Z AUTO 22007KT 200V270 9999 NCD 15/14
                        Q1003 NOSIG=
201908180450 METAR COR EGLL 180450Z AUTO 21005KT 9999 NCD 15/13 Q1003
                        NOSIG=
201908180420 METAR COR EGLL 180420Z AUTO 22005KT 9999 NCD 15/14 Q1003
                        NOSIG=
201908180350 METAR COR EGLL 180350Z AUTO 21007KT 9999 NCD 15/14 Q1003
                        NOSIG=
201908180320 METAR COR EGLL 180320Z AUTO 21007KT 9999 -RA NCD 15/13 Q1004
                        NOSIG=
201908180250 METAR COR EGLL 180250Z AUTO 21008KT 9999 NCD 15/13 Q1004
                        NOSIG=
201908180220 METAR COR EGLL 180220Z AUTO 20008KT 9999 NCD 16/13 Q1004
                        NOSIG=
201908180150 METAR COR EGLL 180150Z AUTO 21007KT 9999 -RA NCD 16/13 Q1004
                        NOSIG=
201908180120 METAR COR EGLL 180120Z AUTO 20008KT 9999 NCD 16/13 Q1004
                        NOSIG=
201908180050 METAR COR EGLL 180050Z AUTO 22006KT 9999 NCD 16/13 Q1004
                        NOSIG=
201908180020 METAR COR EGLL 180020Z AUTO 22005KT 9999 NCD 16/13 Q1005
                        NOSIG=
201908172350 METAR COR EGLL 172350Z AUTO 22007KT 9999 NCD 16/13 Q1005
                        NOSIG=
201908172320 METAR COR EGLL 172320Z AUTO 22006KT 9999 NCD 16/13 Q1004
                        NOSIG=
201908172250 METAR COR EGLL 172250Z AUTO 22008KT 9999 NCD 16/13 Q1005
                        NOSIG=
201908172220 METAR COR EGLL 172220Z AUTO 23010KT 9999 NCD 17/13 Q1005
                        NOSIG=
201908172150 METAR COR EGLL 172150Z AUTO 22009KT 9999 NCD 17/13 Q1005
                        NOSIG=
201908172120 METAR COR EGLL 172120Z AUTO 21009KT 170V250 9999 NCD 17/13
                        Q1005 NOSIG=
201908172050 METAR COR EGLL 172050Z AUTO 22010KT 9999 NCD 17/13 Q1006
                        NOSIG=
201908172020 METAR COR EGLL 172020Z AUTO 22012KT 9999 NCD 17/13 Q1005
                        NOSIG=
201908171950 METAR COR EGLL 171950Z AUTO 22012KT 9999 NCD 18/13 Q1005
                        NOSIG=
201908171920 METAR COR EGLL 171920Z AUTO 22013KT 9999 NCD 18/13 Q1005
                        NOSIG=
201908171850 METAR COR EGLL 171850Z AUTO 22013KT 9999 //////TCU 19/13
                        Q1005 NOSIG=
201908171820 METAR COR EGLL 171820Z AUTO 22013KT 180V260 9999 SCT031 SCT044
                        19/14 Q1005 NOSIG=
201908171750 METAR COR EGLL 171750Z AUTO 22011KT 9999 -RA SCT032 SCT040
                        20/14 Q1005 NOSIG=
201908171720 METAR COR EGLL 171720Z AUTO 22010G20KT 9999 FEW038 21/14
                        Q1005 NOSIG=
201908171650 METAR COR EGLL 171650Z AUTO 24011KT 9999 FEW046 21/12 Q1005
                        NOSIG=
201908171620 METAR COR EGLL 171620Z AUTO 24013KT 9999 BKN046 22/11 Q1005
                        NOSIG=
201908171550 METAR COR EGLL 171550Z AUTO 24012KT 9999 BKN048 22/11 Q1005
                        NOSIG=
201908171520 METAR COR EGLL 171520Z AUTO 24012KT 9999 FEW047 22/11 Q1005
                        NOSIG=
201908171450 METAR COR EGLL 171450Z AUTO 25012KT 9999 NCD 23/11 Q1005
                        NOSIG=
201908171420 METAR COR EGLL 171420Z AUTO 26012KT 9999 NCD 22/12 Q1005
                        NOSIG=
201908171350 METAR COR EGLL 171350Z AUTO 27011KT 9999 FEW043 21/12 Q1005
                        NOSIG=
201908171320 METAR COR EGLL 171320Z AUTO 25015KT 220V280 9999 SCT042 23/11
                        Q1005 NOSIG=
201908171250 METAR COR EGLL 171250Z AUTO 24015KT 9999 SCT040 23/12 Q1005
                        NOSIG=
201908171220 METAR COR EGLL 171220Z AUTO 24012KT 9999 FEW034 22/13 Q1005
                        TEMPO SHRA=
201908171150 METAR COR EGLL 171150Z AUTO 24013KT 9999 FEW031 20/14 Q1005
                        TEMPO SHRA=
201908171120 METAR COR EGLL 171120Z AUTO 25014KT 9999 //////CB 20/13 Q1005
                        NOSIG=
201908171050 METAR COR EGLL 171050Z AUTO 24015KT 9999 SCT027 BKN035 BKN042
                        19/13 Q1005 TEMPO SHRA=
201908171020 METAR COR EGLL 171020Z AUTO 24016KT 9999 SCT024 BKN030 20/14
                        Q1005 TEMPO SHRA=
201908170950 METAR COR EGLL 170950Z AUTO 24015KT 9999 BKN024 BKN035 19/14
                        Q1005 NOSIG=
201908170920 METAR COR EGLL 170920Z AUTO 23014KT 9999 NCD 19/14 Q1005
                        NOSIG=
201908170850 METAR COR EGLL 170850Z AUTO 23013KT 9999 NCD 18/14 Q1004
                        NOSIG=
201908170820 METAR COR EGLL 170820Z AUTO 23013KT 9999 NCD 18/14 Q1005
                        NOSIG=
201908170750 METAR COR EGLL 170750Z AUTO 23012KT 9999 NCD 18/14 Q1005
                        NOSIG=
201908170720 METAR COR EGLL 170720Z AUTO 24012KT 9999 NCD 17/14 Q1005
                        NOSIG=
201908170650 METAR COR EGLL 170650Z AUTO 24012KT 9999 NCD 16/14 Q1005
                        NOSIG=
201908170620 METAR COR EGLL 170620Z AUTO 23011KT 9999 NCD 16/14 Q1004
                        NOSIG=
201908170550 METAR COR EGLL 170550Z AUTO 23009KT 9999 NCD 16/15 Q1004
                        NOSIG=
201908170520 METAR COR EGLL 170520Z AUTO 24007KT 9999 NCD 16/15 Q1004
                        NOSIG=
201908170450 METAR COR EGLL 170450Z AUTO 25007KT 9999 FEW034 16/15 Q1004
                        NOSIG=
201908170420 METAR COR EGLL 170420Z AUTO 25007KT 9999 FEW029 17/16 Q1004
                        NOSIG=
201908170350 METAR COR EGLL 170350Z AUTO 25011KT 9999 FEW016 SCT024 BKN039
                        17/16 Q1004 NOSIG=
201908170320 METAR COR EGLL 170320Z AUTO 24011KT 9999 -RA FEW015/// BKN019///
                        BKN023/// //////CB 17/17 Q1003 NOSIG=
201908170250 METAR COR EGLL 170250Z AUTO 22009KT 9999 FEW013/// BKN019///
                        BKN025/// //////CB 17/17 Q1003 NOSIG=
201908170220 METAR COR EGLL 170220Z AUTO 22008KT 9999 SCT010 BKN019 BKN025
                        17/17 Q1003 NOSIG=
201908170150 METAR COR EGLL 170150Z AUTO 22008KT 9999 BKN007 BKN012 18/17
                        Q1003 BECMG FEW007=
201908170120 METAR COR EGLL 170120Z AUTO 21008KT 9999 BKN010 17/17 Q1003
                        TEMPO BKN009=
201908170050 METAR COR EGLL 170050Z AUTO 23008KT 9999 SCT008 BKN012 OVC023
                        17/17 Q1003 TEMPO BKN008=
201908170020 METAR COR EGLL 170020Z AUTO 21009KT 9999 SCT006 BKN012 17/17
                        Q1003 TEMPO BKN006=
201908162350 METAR COR EGLL 162350Z AUTO 21009KT 7000 -RA SCT006 BKN011
                        OVC047 17/17 Q1003 TEMPO BKN007=
201908162320 METAR COR EGLL 162320Z AUTO 20012KT 8000 -RA SCT007 BKN012
                        OVC035 17/17 Q1003 TEMPO BKN009=
201908162250 METAR COR EGLL 162250Z AUTO 20010KT 9999 -RA SCT009 BKN013
                        OVC037 17/17 Q1004 TEMPO BKN009=
201908162220 METAR COR EGLL 162220Z AUTO 21012KT 9999 -RA SCT009/// BKN013///
                        BKN018/// //////TCU 17/16 Q1004 TEMPO
                        RADZ BKN008=
201908162150 METAR COR EGLL 162150Z AUTO 21013KT 9999 -RA SCT007/// BKN013///
                        BKN020/// //////TCU 17/16 Q1004 TEMPO
                        BKN008=
201908162120 METAR COR EGLL 162120Z AUTO 20013KT 5000 -RADZ SCT007///
                        BKN010/// OVC042/// //////TCU 17/17
                        Q1004 RERA REDZ TEMPO 4000 RADZ BKN008=
201908162050 METAR COR EGLL 162050Z AUTO 20014KT 5000 -RADZ SCT009 BKN012
                        OVC022 17/16 Q1005 TEMPO 4000 RADZ
                        BKN008=
201908162020 METAR COR EGLL 162020Z AUTO 21014KT 6000 -RA BKN010/// OVC017///
                        //////TCU 17/16 Q1005 TEMPO 4000
                        RADZ=
201908161950 METAR COR EGLL 161950Z AUTO 20014KT 9000 -RA SCT010 BKN014
                        BKN021 17/16 Q1005 TEMPO 4000 RADZ=
201908161920 METAR COR EGLL 161920Z AUTO 20015KT 6000 -RA SCT012 BKN018
                        BKN023 17/16 Q1005 RERA REDZ TEMPO
                        4000 RADZ BKN014=
201908161850 METAR COR EGLL 161850Z AUTO 21016KT 4900 RADZ BKN014 BKN022
                        OVC040 17/16 Q1006 TEMPO 5000=
201908161820 METAR COR EGLL 161820Z AUTO 20016KT 9999 -RA SCT014 OVC019
                        17/15 Q1006 TEMPO BKN014=
201908161750 METAR COR EGLL 161750Z AUTO 20015KT 9999 -RA BKN014 OVC025
                        17/15 Q1007 TEMPO RA=
201908161720 METAR COR EGLL 161720Z AUTO 19014KT 9999 -RA BKN011 BKN017
                        OVC031 17/16 Q1007 TEMPO RA=
201908161650 METAR COR EGLL 161650Z AUTO 19015KT 160V220 9999 -RA SCT015
                        BKN024 BKN042 17/15 Q1007 TEMPO RA
                        BKN014=
201908161620 METAR COR EGLL 161620Z AUTO 20014G24KT 9999 -RA SCT016 BKN020
                        17/15 Q1008 TEMPO RA BKN014=
201908161550 METAR COR EGLL 161550Z AUTO 20012KT 160V230 9999 BKN013 17/15
                        Q1009 TEMPO RA SCT013 BKN017=
201908161520 METAR COR EGLL 161520Z AUTO 21013KT 9999 -RA SCT013 BKN019
                        17/15 Q1009 TEMPO RA BKN013=
201908161450 METAR COR EGLL 161450Z AUTO 20011KT 9999 -RA SCT015 BKN019
                        17/15 Q1010 TEMPO RA=
201908161420 METAR COR EGLL 161420Z AUTO 20012KT 170V250 9999 -RA OVC023
                        17/15 Q1010 TEMPO RA=
201908161350 METAR COR EGLL 161350Z AUTO 21012G22KT 180V250 9999 -RA BKN030
                        17/14 Q1010 TEMPO RA=
201908161320 METAR COR EGLL 161320Z AUTO 20013KT 9999 -RA BKN031 17/14
                        Q1010 TEMPO RA=
201908161250 METAR COR EGLL 161250Z AUTO 21012KT 180V240 9999 -RA BKN027
                        17/14 Q1011 TEMPO RA=
201908161220 METAR COR EGLL 161220Z AUTO 21015G27KT 9999 -RA SCT026 BKN031
                        17/14 Q1011 TEMPO RA=
201908161150 METAR COR EGLL 161150Z AUTO 21015KT 9999 -RA FEW031 18/13
                        Q1011 TEMPO RA=
201908161120 METAR COR EGLL 161120Z AUTO 22014KT 180V250 9999 -RA FEW029
                        BKN038 18/13 Q1012 TEMPO RA=
201908161050 METAR COR EGLL 161050Z AUTO 21015KT 9999 BKN041 19/12 Q1012
                        TEMPO RA=
201908161020 METAR COR EGLL 161020Z AUTO 22013KT 9999 SCT031 BKN041 18/12
                        Q1012 TEMPO -RA BKN014=
201908160950 METAR COR EGLL 160950Z AUTO 22014KT 180V250 9999 FEW029 BKN033
                        OVC046 18/13 Q1013 TEMPO -RA BKN014=
201908160920 METAR COR EGLL 160920Z AUTO 22013KT 9999 SCT027 BKN034 OVC044
                        18/14 Q1013 NOSIG=
201908160850 METAR COR EGLL 160850Z AUTO 20011KT 170V240 9999 FEW021 OVC040
                        18/14 Q1013 NOSIG=
201908160820 METAR COR EGLL 160820Z AUTO 21010KT 170V250 9999 OVC046 17/15
                        Q1014 NOSIG=
201908160750 METAR COR EGLL 160750Z AUTO 21010KT 9999 OVC046 17/15 Q1014
                        NOSIG=
201908160720 METAR COR EGLL 160720Z AUTO 21009KT 9999 OVC048 16/15 Q1014
                        NOSIG=
201908160650 METAR COR EGLL 160650Z AUTO 21007KT 9999 OVC049 16/15 Q1014
                        NOSIG=
201908160620 METAR COR EGLL 160620Z AUTO 21007KT 9999 NCD 15/14 Q1015
                        NOSIG=
201908160550 METAR COR EGLL 160550Z AUTO 20008G18KT 180V240 9999 OVC048
                        14/13 Q1015 NOSIG=
201908160520 METAR COR EGLL 160520Z AUTO 22006KT 190V250 9999 OVC048 14/12
                        Q1015 NOSIG=
201908160450 METAR COR EGLL 160450Z AUTO 22005KT 9999 NCD 13/12 Q1015
                        NOSIG=
201908160420 METAR COR EGLL 160420Z AUTO 18004KT 9999 FEW049 13/12 Q1015
                        NOSIG=
201908160350 METAR COR EGLL 160350Z AUTO 20004KT 9999 NCD 13/12 Q1016
                        NOSIG=
201908160320 METAR COR EGLL 160320Z AUTO 18004KT 9999 NCD 13/12 Q1016
                        NOSIG=
201908160250 METAR COR EGLL 160250Z AUTO 20003KT 9999 NCD 13/12 Q1016
                        NOSIG=
201908160220 METAR COR EGLL 160220Z AUTO 17003KT 9999 NCD 13/12 Q1016
                        NOSIG=
201908160150 METAR COR EGLL 160150Z AUTO 17005KT 9999 NCD 13/12 Q1017
                        NOSIG=
201908160120 METAR COR EGLL 160120Z AUTO 18004KT 9999 NCD 13/12 Q1017
                        NOSIG=
201908160050 METAR COR EGLL 160050Z AUTO 20005KT 9999 NCD 14/12 Q1017
                        NOSIG=
201908160020 METAR COR EGLL 160020Z AUTO 23007KT 9999 NCD 14/12 Q1017
                        NOSIG=
201908152350 METAR COR EGLL 152350Z AUTO 25005KT 9999 NCD 15/12 Q1017
                        NOSIG=
201908152320 METAR COR EGLL 152320Z AUTO 26004KT 9999 NCD 15/13 Q1017
                        NOSIG=
201908152250 METAR COR EGLL 152250Z AUTO 25006KT 9999 SCT030 16/12 Q1017
                        NOSIG=
201908152220 METAR COR EGLL 152220Z AUTO 25005KT 9999 NCD 16/12 Q1017
                        NOSIG=
201908152150 METAR COR EGLL 152150Z AUTO 25005KT 9999 NCD 17/11 Q1017
                        NOSIG=
201908152120 METAR COR EGLL 152120Z AUTO VRB03KT 9999 NCD 17/10 Q1017
                        NOSIG=
201908152050 METAR COR EGLL 152050Z AUTO 29006KT 9999 NCD 17/11 Q1017
                        NOSIG=
201908152020 METAR COR EGLL 152020Z AUTO 32004KT 290V360 9999 NCD 18/11
                        Q1017 NOSIG=
201908151950 METAR COR EGLL 151950Z AUTO 29004KT 250V320 9999 NCD 18/12
                        Q1016 NOSIG=
201908151920 METAR COR EGLL 151920Z AUTO 30006KT 9999 NCD 19/10 Q1016
                        NOSIG=
201908151850 METAR COR EGLL 151850Z AUTO 30006KT 9999 NCD 20/09 Q1016
                        NOSIG=
201908151820 METAR COR EGLL 151820Z AUTO 30010KT 9999 NCD 20/09 Q1016
                        NOSIG=
201908151750 METAR COR EGLL 151750Z AUTO 28015KT 9999 FEW049 20/09 Q1016
                        NOSIG=
201908151720 METAR EGLL 151720Z AUTO 29011KT 9999 SCT048 21/10 Q1015=
201908151650 METAR COR EGLL 151650Z AUTO 29013KT 9999 NCD 21/09 Q1015
                        NOSIG=
201908151620 METAR COR EGLL 151620Z AUTO 29013KT 9999 NCD 22/09 Q1014
                        NOSIG=
201908151550 METAR COR EGLL 151550Z AUTO 28014KT 9999 NCD 22/09 Q1014
                        NOSIG=
201908151520 METAR COR EGLL 151520Z AUTO 28012KT 250V310 9999 NCD 23/09
                        Q1014 NOSIG=
201908151450 METAR COR EGLL 151450Z AUTO 28015KT 250V310 9999 NCD 23/10
                        Q1014 NOSIG=
201908151420 METAR COR EGLL 151420Z AUTO 27017KT 9999 NCD 23/09 Q1014
                        NOSIG=
201908151350 METAR COR EGLL 151350Z AUTO 28016G26KT 250V340 9999 NCD 23/09
                        Q1013 NOSIG=
201908151320 METAR COR EGLL 151320Z AUTO 28016KT 9999 NCD 22/09 Q1013
                        NOSIG=
201908151250 METAR COR EGLL 151250Z AUTO 28015KT 9999 NCD 22/11 Q1013
                        NOSIG=
201908151220 METAR COR EGLL 151220Z AUTO 28014KT 9999 FEW039 SCT049 21/12
                        Q1013 NOSIG=
201908151150 METAR COR EGLL 151150Z AUTO 28013KT 9999 SCT040 21/12 Q1012
                        NOSIG=
201908151120 METAR COR EGLL 151120Z AUTO 29013KT 9999 FEW037 BKN048 21/12
                        Q1012 NOSIG=
201908151050 METAR COR EGLL 151050Z AUTO 28014KT 9999 BKN037 BKN049 19/11
                        Q1012 NOSIG=
201908151020 METAR COR EGLL 151020Z AUTO 27018KT 9999 BKN035 20/12 Q1011
                        NOSIG=
201908150950 METAR COR EGLL 150950Z AUTO 28017KT 9999 FEW033 20/12 Q1011
                        NOSIG=
201908150920 METAR COR EGLL 150920Z AUTO 28016KT 9999 FEW032 BKN038 19/12
                        Q1011 NOSIG=
201908150850 METAR COR EGLL 150850Z AUTO 28012KT 9999 BKN028 BKN036 19/13
                        Q1011 NOSIG=
201908150820 METAR COR EGLL 150820Z AUTO 27017KT 9999 BKN024 18/14 Q1010
                        NOSIG=
201908150750 METAR COR EGLL 150750Z AUTO 27014KT 9999 SCT037 18/14 Q1010
                        NOSIG=
201908150720 METAR COR EGLL 150720Z AUTO 26012KT 9999 FEW044 17/14 Q1010
                        NOSIG=
201908150650 METAR COR EGLL 150650Z AUTO 26011KT 9999 -RA FEW028 SCT033
                        BKN039 17/15 Q1010 NOSIG=
201908150620 METAR COR EGLL 150620Z AUTO 26016KT 9999 NCD 17/15 Q1010
                        NOSIG=
201908150550 METAR COR EGLL 150550Z AUTO 26013KT 9999 NCD 16/15 Q1009
                        NOSIG=
201908150520 METAR COR EGLL 150520Z AUTO 24010KT 9999 BKN046 16/15 Q1009
                        NOSIG=
201908150450 METAR COR EGLL 150450Z AUTO 25010KT 9999 BKN048 16/14 Q1009
                        NOSIG=
201908150420 METAR COR EGLL 150420Z AUTO 25009KT 9999 NCD 15/14 Q1008
                        NOSIG=
201908150350 METAR COR EGLL 150350Z AUTO 25007KT 9999 NCD 16/14 Q1008
                        NOSIG=
201908150320 METAR COR EGLL 150320Z AUTO 26010KT 9999 NCD 16/14 Q1008
                        NOSIG=
201908150250 METAR COR EGLL 150250Z AUTO 26011KT 9999 NCD 16/15 Q1008
                        NOSIG=
201908150220 METAR COR EGLL 150220Z AUTO 26012KT 9999 SCT021 SCT029 16/15
                        Q1008 NOSIG=
201908150150 METAR COR EGLL 150150Z AUTO 26011KT 9999 FEW016 SCT039 17/16
                        Q1008 NOSIG=
201908150120 METAR COR EGLL 150120Z AUTO 25011KT 9999 FEW015 SCT035 17/16
                        Q1008 NOSIG=
201908150050 METAR COR EGLL 150050Z AUTO 24009KT 9999 FEW015 SCT029 BKN046
                        17/16 Q1008 NOSIG=
201908150020 METAR COR EGLL 150020Z AUTO 24009KT 9999 SCT012 BKN017 BKN047
                        17/16 Q1008 TEMPO BKN012=
201908142350 METAR COR EGLL 142350Z AUTO 25010KT 9999 FEW012 BKN018 BKN025
                        17/17 Q1008 TEMPO BKN014=
201908142320 METAR COR EGLL 142320Z AUTO 24011KT 9999 FEW014 BKN019 OVC027
                        17/17 Q1008 TEMPO BKN014=
201908142250 METAR COR EGLL 142250Z AUTO 22008KT 9999 BKN019 OVC033 17/17
                        Q1008 NOSIG=
201908142220 METAR COR EGLL 142220Z AUTO 23007KT 9999 SCT023 BKN029 17/17
                        Q1008 NOSIG=
201908142150 METAR COR EGLL 142150Z AUTO 23009KT 9999 BKN022 18/17 Q1008
                        NOSIG=
201908142120 METAR COR EGLL 142120Z AUTO 23009KT 9999 SCT010 SCT016 18/17
                        Q1008 NOSIG=
201908142050 METAR COR EGLL 142050Z AUTO 22009KT 8000 -RA SCT007/// BKN015///
                        BKN023/// //////TCU 18/17 Q1008 TEMPO
                        BKN012=
201908142020 METAR COR EGLL 142020Z AUTO 21010KT 9999 SCT031 BKN044 17/17
                        Q1008 TEMPO 4000 RADZ BKN012=
201908141950 METAR COR EGLL 141950Z AUTO 22009KT 8000 -RA FEW007 BKN021
                        BKN032 17/17 Q1008 TEMPO SHRA=
201908141920 METAR COR EGLL 141920Z AUTO 21008KT 9999 SCT008 BKN027 17/17
                        Q1008 TEMPO SHRA BKN008=
201908141850 METAR COR EGLL 141850Z AUTO 24009KT 9999 BKN008 BKN011 OVC023
                        17/17 Q1008 TEMPO SHRA=
201908141820 METAR COR EGLL 141820Z AUTO 22008KT 9999 BKN008 OVC012 17/17
                        Q1008 NOSIG=
201908141750 METAR COR EGLL 141750Z AUTO 20011KT 9999 -RA BKN006 BKN013
                        OVC032 17/17 Q1008 NOSIG=
201908141720 METAR COR EGLL 141720Z AUTO 21010G20KT 6000 -RA SCT006 OVC009
                        17/17 Q1008 TEMPO RADZ BKN006=
201908141650 METAR COR EGLL 141650Z AUTO 20010KT 8000 -RA BKN006 OVC018
                        17/17 Q1009 TEMPO 4000 RADZ=
201908141620 METAR COR EGLL 141620Z AUTO 20011KT 5000 -RADZ SCT005///
                        BKN010/// OVC018/// //////TCU 17/16
                        Q1009 TEMPO BKN005=
201908141550 METAR COR EGLL 141550Z AUTO 20013KT 5000 -DZ SCT007 BKN011
                        OVC030 17/16 Q1009 TEMPO 3000 RADZ
                        BKN008=
201908141520 METAR COR EGLL 141520Z AUTO 20012KT 9999 -RA BKN007/// OVC021///
                        //////TCU 17/16 Q1010 NOSIG=
201908141450 METAR COR EGLL 141450Z AUTO 21011KT 180V240 7000 -RA FEW009///
                        SCT013/// BKN020/// //////CB 17/16
                        Q1010 RERA TEMPO RA BKN012=
201908141420 METAR COR EGLL 141420Z AUTO 20013KT 170V240 4900 RA SCT008///
                        BKN011/// OVC022/// //////CB 16/16
                        Q1010 REDZ TEMPO 5000=
201908141350 METAR COR EGLL 141350Z AUTO 19014KT 170V240 9999 -RA SCT010///
                        BKN015/// OVC032/// //////TCU 17/16
                        Q1011 TEMPO 4000 RADZ BKN008=
201908141320 METAR COR EGLL 141320Z AUTO 19012KT 160V240 7000 BKN010 OVC015
                        16/15 Q1011 TEMPO RADZ BKN008=
201908141250 METAR COR EGLL 141250Z AUTO 18011G25KT 150V230 9999 BKN014
                        BKN021 OVC027 16/15 Q1012 NOSIG=
201908141220 METAR COR EGLL 141220Z AUTO 17009KT 140V240 9999 BKN026///
                        OVC035/// //////TCU 15/14 Q1012 BECMG
                        BKN012=
201908141150 METAR COR EGLL 141150Z AUTO 18010KT 140V240 9000 -RA BKN008///
                        BKN032/// OVC040/// //////TCU 14/14
                        Q1012 TEMPO 9999 NSW SCT008=
201908141120 METAR COR EGLL 141120Z AUTO 19013KT 150V220 9000 -RA FEW011///
                        SCT016/// BKN029/// //////CB 14/13
                        Q1013 NOSIG=
201908141050 METAR COR EGLL 141050Z AUTO 20011KT 150V240 9999 -RA SCT011///
                        BKN022/// BKN028/// //////TCU 14/14
                        Q1013 TEMPO RA BKN010=
201908141020 METAR COR EGLL 141020Z AUTO 19011KT 160V230 9999 -RA SCT010///
                        SCT022/// OVC030/// //////TCU 15/14
                        Q1014 TEMPO RA BKN010=
201908140950 METAR COR EGLL 140950Z AUTO 19010KT 160V240 9999 -RA FEW012///
                        SCT021/// BKN041/// //////TCU 15/14
                        Q1014 TEMPO RA BKN014=
201908140920 METAR COR EGLL 140920Z AUTO 20008KT 150V250 9999 -RA SCT012///
                        SCT017/// BKN026/// //////CB 15/14
                        Q1014 TEMPO RA=
201908140850 METAR COR EGLL 140850Z AUTO 18012KT 150V240 7000 -RA FEW014///
                        SCT027/// BKN039/// //////CB 15/14
                        Q1014 TEMPO RA=
201908140820 METAR COR EGLL 140820Z 19009KT 150V240 9000 -RA FEW045 16/14
                        Q1015 TEMPO 3000 +RA=
201908140750 METAR COR EGLL 140750Z AUTO 20010KT 9999 -RA //////TCU 16/14
                        Q1015 TEMPO 4000 RA=
201908140720 METAR COR EGLL 140720Z AUTO 20009KT 180V240 9999 -RA //////TCU
                        16/14 Q1015 TEMPO RA=
201908140650 METAR COR EGLL 140650Z AUTO 20010KT 170V230 9999 -RA FEW047///
                        //////TCU 16/14 Q1015 TEMPO RA=
201908140620 METAR COR EGLL 140620Z AUTO 21008G18KT 170V240 9999 NCD 16/14
                        Q1015 TEMPO RA=
201908140550 METAR COR EGLL 140550Z AUTO 21008KT 180V250 9999 NCD 15/14
                        Q1015 NOSIG=
201908140520 METAR COR EGLL 140520Z AUTO 20006KT 9999 NCD 15/13 Q1015
                        NOSIG=
201908140450 METAR COR EGLL 140450Z AUTO 20006KT 9999 NCD 14/13 Q1016
                        NOSIG=
201908140420 METAR COR EGLL 140420Z AUTO 18005KT 9999 NCD 14/13 Q1016
                        NOSIG=
201908140350 METAR COR EGLL 140350Z AUTO 18004KT 9999 NCD 14/12 Q1016
                        NOSIG=
201908140320 METAR COR EGLL 140320Z AUTO 20005KT 9999 NCD 14/13 Q1016
                        NOSIG=
201908140250 METAR COR EGLL 140250Z AUTO 21006KT 9999 NCD 14/13 Q1016
                        NOSIG=
201908140220 METAR COR EGLL 140220Z AUTO 21005KT 9999 NCD 15/13 Q1017
                        NOSIG=
201908140150 METAR COR EGLL 140150Z AUTO 22004KT 9999 NCD 15/12 Q1017
                        NOSIG=
201908140120 METAR COR EGLL 140120Z AUTO VRB03KT 9999 NCD 15/12 Q1017
                        NOSIG=
201908140050 METAR COR EGLL 140050Z AUTO 22005KT 9999 NCD 14/12 Q1017
                        NOSIG=
201908140020 METAR COR EGLL 140020Z AUTO 21004KT 9999 NCD 14/12 Q1017
                        NOSIG=
201908132350 METAR COR EGLL 132350Z AUTO 23004KT 9999 NCD 15/12 Q1017
                        NOSIG=
201908132320 METAR COR EGLL 132320Z AUTO 22005KT 9999 NCD 15/12 Q1018
                        NOSIG=
201908132250 METAR COR EGLL 132250Z AUTO 25005KT 9999 NCD 15/11 Q1018
                        NOSIG=
201908132220 METAR COR EGLL 132220Z AUTO 25006KT 9999 NCD 15/11 Q1018
                        NOSIG=
201908132150 METAR COR EGLL 132150Z AUTO 25007KT 9999 NCD 16/11 Q1018
                        NOSIG=
201908132120 METAR COR EGLL 132120Z AUTO 24009KT 9999 NCD 17/11 Q1017
                        NOSIG=
201908132050 METAR COR EGLL 132050Z AUTO 24009KT 9999 NCD 17/11 Q1017
                        NOSIG=
201908132020 METAR COR EGLL 132020Z AUTO 23011KT 9999 NCD 18/11 Q1017
                        NOSIG=
201908131950 METAR COR EGLL 131950Z AUTO 24011KT 9999 NCD 18/11 Q1017
                        NOSIG=
201908131920 METAR COR EGLL 131920Z AUTO 24013KT 9999 NCD 19/11 Q1017
                        NOSIG=
201908131850 METAR COR EGLL 131850Z AUTO 27009KT 9999 NCD 20/06 Q1017
                        NOSIG=
201908131820 METAR COR EGLL 131820Z AUTO 27010KT 9999 NCD 20/05 Q1017
                        NOSIG=
201908131750 METAR COR EGLL 131750Z AUTO 28011KT 9999 NCD 21/04 Q1017
                        NOSIG=
201908131720 METAR COR EGLL 131720Z AUTO 27009KT 220V300 9999 NCD 21/04
                        Q1016 NOSIG=
201908131650 METAR COR EGLL 131650Z AUTO 27011KT 9999 NCD 22/04 Q1016
                        NOSIG=
201908131620 METAR COR EGLL 131620Z AUTO 27012KT 9999 NCD 22/04 Q1016
                        NOSIG=
201908131550 METAR COR EGLL 131550Z AUTO 28010KT 250V310 9999 NCD 22/05
                        Q1017 NOSIG=
201908131520 METAR COR EGLL 131520Z AUTO 29008KT 260V330 9999 NCD 22/06
                        Q1017 NOSIG=
201908131450 METAR COR EGLL 131450Z AUTO 30008KT 260V340 9999 NCD 22/05
                        Q1017 NOSIG=
201908131420 METAR COR EGLL 131420Z AUTO 26010KT 200V300 9999 NCD 22/05
                        Q1017 NOSIG=
201908131350 METAR COR EGLL 131350Z AUTO 26012KT 220V300 9999 NCD 22/05
                        Q1017 NOSIG=
201908131320 METAR COR EGLL 131320Z AUTO 27011KT 240V300 9999 NCD 22/06
                        Q1017 NOSIG=
201908131250 METAR COR EGLL 131250Z AUTO 26013KT 230V290 9999 NCD 21/06
                        Q1017 NOSIG=
201908131220 METAR COR EGLL 131220Z AUTO 26011KT 230V290 9999 NCD 20/06
                        Q1017 NOSIG=
201908131150 METAR COR EGLL 131150Z AUTO 24012KT 9999 NCD 20/06 Q1018
                        NOSIG=
201908131120 METAR EGLL 131120Z AUTO 27010KT 240V300 9999 NCD 19/06 Q1018=
201908131050 METAR COR EGLL 131050Z AUTO 28009KT 250V320 9999 FEW045 20/07
                        Q1018 NOSIG=
201908131020 METAR COR EGLL 131020Z AUTO 28009KT 250V330 9999 FEW044 19/08
                        Q1018 NOSIG=
201908130950 METAR COR EGLL 130950Z AUTO 28007KT 240V360 9999 NCD 18/08
                        Q1018 NOSIG=
201908130920 METAR COR EGLL 130920Z AUTO 27009KT 9999 NCD 17/09 Q1018
                        NOSIG=
201908130850 METAR COR EGLL 130850Z AUTO 31006KT 270V350 9999 NCD 16/10
                        Q1018 NOSIG=
201908130820 METAR COR EGLL 130820Z AUTO 29007KT 250V340 9999 NCD 16/10
                        Q1018 NOSIG=
201908130750 METAR COR EGLL 130750Z AUTO 29009KT 9999 NCD 15/10 Q1018
                        NOSIG=
201908130720 METAR COR EGLL 130720Z AUTO 28009KT 9999 NCD 14/10 Q1018
                        NOSIG=
201908130650 METAR COR EGLL 130650Z AUTO 27010KT 9999 NCD 13/10 Q1018
                        NOSIG=
201908130620 METAR COR EGLL 130620Z AUTO 27010KT 9999 NCD 12/10 Q1017
                        NOSIG=
201908130550 METAR COR EGLL 130550Z AUTO 27009KT 9999 NCD 12/10 Q1017
                        NOSIG=
201908130520 METAR COR EGLL 130520Z AUTO 25008KT 9999 NCD 12/10 Q1017
                        NOSIG=
201908130450 METAR COR EGLL 130450Z AUTO 25006KT 9999 NCD 11/10 Q1017
                        NOSIG=
201908130420 METAR COR EGLL 130420Z AUTO 26004KT 9999 NCD 11/09 Q1017
                        NOSIG=
201908130350 METAR COR EGLL 130350Z AUTO 24004KT 9999 NCD 11/09 Q1017
                        NOSIG=
201908130320 METAR COR EGLL 130320Z AUTO 24005KT 9999 NCD 11/09 Q1017
                        NOSIG=
201908130250 METAR COR EGLL 130250Z AUTO 24006KT 9999 NCD 12/09 Q1017
                        NOSIG=
201908130220 METAR COR EGLL 130220Z AUTO 25007KT 9999 NCD 12/10 Q1017
                        NOSIG=
201908130150 METAR COR EGLL 130150Z AUTO 24006KT 9999 NCD 12/10 Q1018
                        NOSIG=
201908130120 METAR COR EGLL 130120Z AUTO 26008KT 9999 NCD 13/10 Q1018
                        NOSIG=
201908130050 METAR COR EGLL 130050Z AUTO 27006KT 9999 NCD 13/10 Q1018
                        NOSIG=
201908130020 METAR COR EGLL 130020Z AUTO 27008KT 9999 NCD 13/10 Q1018
                        NOSIG=
201908122350 METAR COR EGLL 122350Z AUTO 27008KT 9999 NCD 13/10 Q1018
                        NOSIG=
201908122320 METAR COR EGLL 122320Z AUTO 26008KT 9999 NCD 13/09 Q1018
                        NOSIG=
201908122250 METAR COR EGLL 122250Z AUTO 27009KT 9999 NCD 13/09 Q1018
                        NOSIG=
201908122220 METAR COR EGLL 122220Z AUTO 27009KT 9999 NCD 15/09 Q1017
                        NOSIG=
201908122150 METAR COR EGLL 122150Z AUTO 26010KT 9999 NCD 15/10 Q1017
                        NOSIG=
201908122120 METAR COR EGLL 122120Z AUTO 28007KT 9999 NCD 16/09 Q1017
                        NOSIG=
201908122050 METAR COR EGLL 122050Z AUTO 28005KT 9999 NCD 16/08 Q1017
                        NOSIG=
201908122020 METAR COR EGLL 122020Z AUTO 28005KT 9999 NCD 16/07 Q1017
                        NOSIG=
201908121950 METAR COR EGLL 121950Z AUTO 28004KT 9999 NCD 16/07 Q1016
                        NOSIG=
201908121920 METAR COR EGLL 121920Z AUTO 30004KT 9999 NCD 18/06 Q1016
                        NOSIG=
201908121850 METAR COR EGLL 121850Z AUTO 30004KT 9999 NCD 17/09 Q1016
                        NOSIG=
201908121820 METAR COR EGLL 121820Z AUTO 20004KT 140V260 9999 NCD 16/13
                        Q1015 NOSIG=
201908121750 METAR COR EGLL 121750Z AUTO 21005KT 170V230 9999 NCD 16/13
                        Q1015 NOSIG=
201908121720 METAR COR EGLL 121720Z AUTO 21006KT 170V270 9999 NCD 17/12
                        Q1015 NOSIG=
201908121650 METAR COR EGLL 121650Z AUTO 21008KT 9999 -RA NCD 15/13 Q1015
                        NOSIG=
201908121620 METAR COR EGLL 121620Z AUTO 18008KT 150V230 9999 BKN047///
                        //////TCU 16/13 Q1015 NOSIG=
201908121550 METAR COR EGLL 121550Z AUTO VRB03KT 9999 //////CB 16/13 Q1015
                        NOSIG=
201908121520 METAR COR EGLL 121520Z AUTO VRB02KT 9999 -RA FEW047/// //////CB
                        17/10 Q1015 TEMPO SHRA=
201908121450 METAR EGLL 121450Z AUTO 32006KT 280V050 9999 -RA FEW018///
                        SCT032/// BKN042/// //////CB 15/11
                        Q1015 RERA=
201908121420 METAR COR EGLL 121420Z AUTO 25004KT 200V310 9999 SCT035///
                        BKN046/// //////CB 19/10 Q1014 TEMPO
                        3000 +SHRA=
201908121350 METAR COR EGLL 121350Z AUTO 29004KT 240V340 9999 FEW034///
                        //////TCU 18/10 Q1015 TEMPO SHRA=
201908121320 METAR COR EGLL 121320Z AUTO VRB04KT 9999 SCT024/// //////CB
                        17/12 Q1015 NOSIG=
201908121250 METAR COR EGLL 121250Z AUTO 31005KT 280V360 9999 //////CB
                        17/10 Q1014 NOSIG=
201908121220 METAR COR EGLL 121220Z AUTO 31007KT 9999 FEW026/// //////CB
                        17/11 Q1014 TEMPO SHRA=
201908121150 METAR COR EGLL 121150Z AUTO VRB03KT 9999 SCT041/// //////CB
                        17/13 Q1014 TEMPO SHRA=
201908121120 METAR COR EGLL 121120Z AUTO VRB03KT 7000 -RA SCT029/// BKN042///
                        //////CB 15/12 Q1014 TEMPO SHRA=
201908121050 METAR COR EGLL 121050Z AUTO 33005KT 260V020 9999 -RA BKN030///
                        BKN041/// //////CB 19/10 Q1014 TEMPO
                        SHRA=
201908121020 METAR COR EGLL 121020Z AUTO 28005KT 170V330 9999 FEW036///
                        //////TCU 18/10 Q1014 TEMPO SHRA=
201908120950 METAR COR EGLL 120950Z AUTO VRB04KT 9999 //////TCU 18/10
                        Q1014 TEMPO SHRA=
201908120920 METAR COR EGLL 120920Z AUTO 04004KT 330V070 9999 //////CB
                        17/09 Q1014 NOSIG=
201908120850 METAR COR EGLL 120850Z AUTO VRB03KT 9999 SCT032/// //////CB
                        17/09 Q1014 NOSIG=
201908120820 METAR COR EGLL 120820Z AUTO VRB03KT 9999 SCT029 BKN034 BKN045
                        16/09 Q1014 NOSIG=
201908120750 METAR COR EGLL 120750Z AUTO 07004KT 9999 FEW030 BKN041 15/10
                        Q1014 NOSIG=
201908120720 METAR COR EGLL 120720Z AUTO 01005KT 330V050 9999 FEW028///
                        BKN034/// OVC042/// //////CB 15/12
                        Q1014 TEMPO SHRA=
201908120650 METAR COR EGLL 120650Z AUTO VRB02KT 9999 -RA BKN028/// BKN033///
                        //////CB 15/13 Q1014 TEMPO SHRA=
201908120620 METAR COR EGLL 120620Z AUTO 30004KT 9999 BKN029/// BKN038///
                        //////CB 15/13 Q1014 TEMPO SHRA=
201908120550 METAR COR EGLL 120550Z AUTO VRB02KT 9999 FEW028/// BKN034///
                        //////TCU 14/13 Q1013 TEMPO SHRA=
201908120520 METAR COR EGLL 120520Z AUTO VRB02KT 9999 BKN034 14/13 Q1013
                        NOSIG=
201908120450 METAR COR EGLL 120450Z AUTO VRB02KT 9999 BKN036 BKN048 14/13
                        Q1013 NOSIG=
201908120420 METAR COR EGLL 120420Z AUTO 27003KT 9999 FEW031 SCT040 14/13
                        Q1013 NOSIG=
201908120350 METAR COR EGLL 120350Z AUTO VRB03KT 9999 NCD 14/13 Q1013
                        NOSIG=
201908120320 METAR COR EGLL 120320Z AUTO 24004KT 9999 NCD 14/13 Q1013
                        NOSIG=
201908120250 METAR COR EGLL 120250Z AUTO 27006KT 9999 FEW030 14/13 Q1013
                        NOSIG=
201908120220 METAR COR EGLL 120220Z AUTO 28006KT 9999 SCT044 14/13 Q1013
                        NOSIG=
201908120150 METAR COR EGLL 120150Z AUTO 27006KT 9999 BKN037 14/13 Q1013
                        NOSIG=
201908120120 METAR COR EGLL 120120Z AUTO 24006KT 9999 BKN041 15/13 Q1013
                        NOSIG=
201908120050 METAR COR EGLL 120050Z AUTO 24005KT 9999 BKN036 15/13 Q1013
                        NOSIG=
201908120020 METAR COR EGLL 120020Z AUTO 21005KT 9999 FEW041 15/13 Q1013
                        NOSIG=
201908112350 METAR COR EGLL 112350Z AUTO 22005KT 9999 NCD 15/13 Q1013
                        NOSIG=
201908112320 METAR COR EGLL 112320Z AUTO 22004KT 190V270 9999 NCD 15/13
                        Q1013 NOSIG=
201908112250 METAR COR EGLL 112250Z AUTO 22006KT 9999 NCD 15/13 Q1013
                        TEMPO SHRA=
201908112220 METAR COR EGLL 112220Z AUTO 23009KT 180V260 9999 NCD 16/13
                        Q1013 TEMPO SHRA=
201908112150 METAR COR EGLL 112150Z AUTO 25010KT 9999 NCD 17/12 Q1013
                        TEMPO SHRA=
201908112120 METAR COR EGLL 112120Z AUTO 25009KT 9999 NCD 17/12 Q1013
                        TEMPO SHRA=
201908112050 METAR COR EGLL 112050Z AUTO 25011KT 9999 FEW045 18/12 Q1013
                        NOSIG=
201908112020 METAR COR EGLL 112020Z AUTO 24009KT 9999 SCT041 BKN049 18/12
                        Q1013 NOSIG=
201908111950 METAR COR EGLL 111950Z AUTO 24010KT 9999 //////CB 18/12 Q1012
                        TEMPO SHRA=
201908111920 METAR COR EGLL 111920Z AUTO 25013KT 9999 SCT047 18/12 Q1012
                        TEMPO SHRA=
201908111850 METAR COR EGLL 111850Z AUTO 25012KT 9999 FEW042/// //////CB
                        19/11 Q1012 TEMPO SHRA=
201908111820 METAR COR EGLL 111820Z AUTO 25013KT 9999 //////CB 20/11 Q1011
                        TEMPO SHRA=
201908111750 METAR COR EGLL 111750Z AUTO 25013KT 9999 FEW036/// SCT047///
                        //////CB 20/14 Q1011 TEMPO SHRA=
201908111720 METAR COR EGLL 111720Z 23015KT 9999 7000SW -SHRA FEW030CB
                        SCT035 BKN045 21/13 Q1011 TEMPO SHRA=
201908111650 METAR COR EGLL 111650Z 22017KT 9999 FEW030TCU SCT045 21/12
                        Q1010 TEMPO SHRA=
201908111620 METAR COR EGLL 111620Z 23016G26KT 190V260 9999 FEW025CB 21/12
                        Q1010 TEMPO SHRA=
201908111550 METAR COR EGLL 111550Z 22016KT 9999 FEW025CB 22/12 Q1010
                        TEMPO SHRA=
201908111520 METAR COR EGLL 111520Z AUTO 22017KT 9999 //////CB 22/11 Q1010
                        TEMPO SHRA=
201908111450 METAR COR EGLL 111450Z AUTO 23015G27KT 9999 NCD 22/12 Q1010
                        NOSIG=
201908111420 METAR COR EGLL 111420Z AUTO 22016KT 9999 NCD 21/12 Q1010
                        NOSIG=
201908111350 METAR COR EGLL 111350Z AUTO 23017KT 9999 FEW042 22/11 Q1010
                        NOSIG=
201908111320 METAR COR EGLL 111320Z AUTO 22017KT 9999 FEW041 22/11 Q1010
                        NOSIG=
201908111250 METAR COR EGLL 111250Z AUTO 24017KT 9999 FEW038 22/11 Q1010
                        NOSIG=
201908111220 METAR COR EGLL 111220Z AUTO 24015KT 9999 FEW039 22/11 Q1011
                        NOSIG=
201908111150 METAR COR EGLL 111150Z AUTO 23015KT 9999 BKN042 22/11 Q1011
                        NOSIG=
201908111120 METAR COR EGLL 111120Z AUTO 23015KT 9999 FEW044 22/11 Q1011
                        NOSIG=
201908111050 METAR COR EGLL 111050Z AUTO 23017KT 9999 BKN042 22/11 Q1011
                        NOSIG=
201908111020 METAR COR EGLL 111020Z AUTO 24014KT 9999 SCT039 21/10 Q1011
                        NOSIG=
201908110950 METAR COR EGLL 110950Z AUTO 23014KT 9999 SCT037 21/11 Q1011
                        NOSIG=
201908110920 METAR COR EGLL 110920Z AUTO 24014KT 9999 SCT037 BKN048 20/11
                        Q1011 NOSIG=
201908110850 METAR COR EGLL 110850Z AUTO 23015KT 9999 SCT032 BKN038 19/11
                        Q1011 NOSIG=
201908110820 METAR COR EGLL 110820Z AUTO 23016KT 9999 SCT029 SCT035 19/12
                        Q1011 NOSIG=
201908110750 METAR COR EGLL 110750Z AUTO 23016KT 9999 FEW026 19/12 Q1011
                        NOSIG=
201908110720 METAR COR EGLL 110720Z AUTO 23013KT 9999 SCT023 SCT027 18/13
                        Q1011 NOSIG=
201908110650 METAR COR EGLL 110650Z AUTO 23009KT 9999 FEW023 17/13 Q1011
                        NOSIG=
201908110620 METAR COR EGLL 110620Z AUTO 22011KT 9999 NCD 16/13 Q1011
                        NOSIG=
201908110550 METAR COR EGLL 110550Z AUTO 23010KT 9999 NCD 16/12 Q1011
                        NOSIG=
201908110520 METAR COR EGLL 110520Z AUTO 22009KT 9999 NCD 15/12 Q1011
                        NOSIG=
201908110450 METAR COR EGLL 110450Z AUTO 22010KT 9999 NCD 15/12 Q1010
                        NOSIG=
201908110420 METAR COR EGLL 110420Z AUTO 23012KT 9999 NCD 15/12 Q1010
                        NOSIG=
201908110350 METAR COR EGLL 110350Z AUTO 22010KT 9999 NCD 15/12 Q1011
                        NOSIG=
201908110320 METAR COR EGLL 110320Z AUTO 22011KT 9999 NCD 15/12 Q1011
                        NOSIG=
201908110250 METAR COR EGLL 110250Z AUTO 22012KT 9999 NCD 15/12 Q1011
                        NOSIG=
201908110220 METAR COR EGLL 110220Z AUTO 23012KT 9999 NCD 16/12 Q1011
                        NOSIG=
201908110150 METAR COR EGLL 110150Z AUTO 22012KT 9999 NCD 16/12 Q1011
                        NOSIG=
201908110120 METAR COR EGLL 110120Z AUTO 22012KT 9999 NCD 16/12 Q1011
                        NOSIG=
201908110050 METAR COR EGLL 110050Z AUTO 22011KT 9999 NCD 16/12 Q1011
                        NOSIG=
201908110020 METAR COR EGLL 110020Z AUTO 22013KT 9999 FEW028 16/12 Q1011
                        NOSIG=
201908102350 METAR COR EGLL 102350Z AUTO 23014KT 9999 NCD 16/12 Q1011
                        NOSIG=
201908102320 METAR COR EGLL 102320Z AUTO 23015KT 9999 NCD 16/12 Q1011
                        NOSIG=
201908102250 METAR COR EGLL 102250Z AUTO 23015KT 9999 NCD 17/12 Q1011
                        NOSIG=
201908102220 METAR COR EGLL 102220Z AUTO 23014KT 9999 FEW027 17/12 Q1011
                        NOSIG=
201908102150 METAR COR EGLL 102150Z AUTO 23016G26KT 9999 FEW027 17/12
                        Q1011 NOSIG=
201908102120 METAR COR EGLL 102120Z AUTO 23015KT 9999 NCD 17/12 Q1011
                        NOSIG=
201908102050 METAR COR EGLL 102050Z AUTO 23015KT 9999 NCD 17/12 Q1010
                        NOSIG=
201908102020 METAR COR EGLL 102020Z AUTO 23015KT 9999 NCD 18/13 Q1010
                        NOSIG=
201908101950 METAR COR EGLL 101950Z AUTO 23014G24KT 9999 FEW033 18/13
                        Q1010 NOSIG=
201908101920 METAR EGLL 101920Z AUTO 23018KT 9999 NCD 19/13 Q1009=
201908101850 METAR COR EGLL 101850Z AUTO 23018G28KT 9999 SCT032/// //////CB
                        19/13 Q1009 NOSIG=
201908101820 METAR COR EGLL 101820Z AUTO 23021KT 9999 SCT033/// //////CB
                        20/12 Q1008 NOSIG=
201908101750 METAR COR EGLL 101750Z AUTO 22024KT 9999 SCT035 SCT046 20/13
                        Q1008 NOSIG=
201908101720 METAR COR EGLL 101720Z AUTO 23020G30KT 190V250 9999 SCT036///
                        BKN043/// //////CB 21/13 Q1008 TEMPO
                        SHRA=
201908101650 METAR COR EGLL 101650Z AUTO 23021KT 9999 SCT037/// BKN046///
                        //////CB 21/13 Q1007 TEMPO SHRA=
201908101620 METAR COR EGLL 101620Z AUTO 23019G29KT 9999 SCT039 22/13
                        Q1007 NOSIG=
201908101550 METAR COR EGLL 101550Z AUTO 24023KT 9999 SCT035 21/14 Q1007
                        NOSIG=
201908101520 METAR COR EGLL 101520Z AUTO 24026G41KT 9999 SCT036/// BKN049///
                        //////CB 21/13 Q1006 NOSIG=
201908101450 METAR COR EGLL 101450Z AUTO 24022G32KT 9999 -RA BKN036///
                        //////TCU 20/14 Q1006 TEMPO 7000
                        SHRA=
201908101420 METAR COR EGLL 101420Z AUTO 25018KT 9999 -RA FEW024/// SCT032///
                        BKN039/// //////CB 19/16 Q1006 RESHRA
                        TEMPO 7000 SHRA=
201908101350 METAR COR EGLL 101350Z 24022KT 4000 SHRA FEW025TCU BKN030
                        21/13 Q1005 TEMPO +SHRA=
201908101320 METAR COR EGLL 101320Z AUTO 23023KT 9999 SCT037 BKN044 22/13
                        Q1005 TEMPO SHRA=
201908101250 METAR COR EGLL 101250Z AUTO 24025G39KT 9999 SCT039 22/13
                        Q1004 NOSIG=
201908101220 METAR COR EGLL 101220Z AUTO 23028G41KT 9999 SCT036 BKN045
                        22/13 Q1004 NOSIG=
201908101150 METAR COR EGLL 101150Z AUTO 23025KT 9999 BKN033 21/13 Q1004
                        NOSIG=
201908101120 METAR COR EGLL 101120Z AUTO 23024G38KT 9999 BKN031 OVC038
                        20/13 Q1004 NOSIG=
201908101050 METAR COR EGLL 101050Z AUTO 23025G37KT 9999 SCT036 BKN043
                        21/12 Q1003 NOSIG=
201908101020 METAR COR EGLL 101020Z AUTO 23027G37KT 9999 FEW037 BKN045
                        20/13 Q1003 NOSIG=
201908100950 METAR COR EGLL 100950Z AUTO 22022G33KT 9999 FEW038 BKN045
                        20/13 Q1003 NOSIG=
201908100920 METAR COR EGLL 100920Z AUTO 23022KT 9999 -RA BKN032 OVC047
                        19/13 Q1003 NOSIG=
201908100850 METAR COR EGLL 100850Z AUTO 23023KT 9999 SCT033 BKN044 20/13
                        Q1003 NOSIG=
201908100820 METAR COR EGLL 100820Z AUTO 23024G34KT 9999 SCT030 BKN041
                        19/13 Q1002 NOSIG=
201908100750 METAR COR EGLL 100750Z AUTO 23024KT 9999 BKN029 BKN037 19/13
                        Q1002 NOSIG=
201908100720 METAR COR EGLL 100720Z AUTO 22017KT 9999 FEW029 SCT034 BKN040
                        18/13 Q1002 NOSIG=
201908100650 METAR COR EGLL 100650Z AUTO 23020G32KT 9999 FEW029 SCT041
                        18/13 Q1002 NOSIG=
201908100620 METAR COR EGLL 100620Z AUTO 22019G30KT 9999 FEW028 SCT036
                        BKN048 18/13 Q1001 NOSIG=
201908100550 METAR COR EGLL 100550Z AUTO 23019G30KT 9999 SCT026 SCT031
                        18/13 Q1001 NOSIG=
201908100520 METAR COR EGLL 100520Z AUTO 22017G28KT 9999 SCT024 BKN028
                        17/14 Q1000 NOSIG=
201908100450 METAR COR EGLL 100450Z AUTO 23020G30KT 9999 BKN026 17/14
                        Q1000 NOSIG=
201908100420 METAR COR EGLL 100420Z AUTO 23019KT 9999 FEW028 18/14 Q1000
                        NOSIG=
201908100350 METAR COR EGLL 100350Z AUTO 22016KT 9999 FEW039 17/15 Q0999
                        NOSIG=
201908100320 METAR COR EGLL 100320Z AUTO 22016KT 9999 FEW017/// SCT025///
                        BKN034/// //////CB 17/15 Q0999 NOSIG=
201908100250 METAR COR EGLL 100250Z AUTO 21016KT 6000 -RA SCT016 BKN021
                        BKN028 17/16 Q0998 TEMPO SHRA=
201908100220 METAR COR EGLL 100220Z AUTO 22011KT 9999 -RA BKN016 17/16
                        Q0998 TEMPO SHRA=
201908100150 METAR COR EGLL 100150Z AUTO 21015KT 9999 -RA BKN012 OVC027
                        17/16 Q0998 BECMG BKN018=
201908100120 METAR COR EGLL 100120Z AUTO 21015KT 8000 -RA BKN014 BKN021
                        OVC032 17/16 Q0998 BECMG BKN018=
201908100050 METAR COR EGLL 100050Z AUTO 20015KT 6000 -RA BKN015 BKN023
                        OVC032 17/16 Q0998 TEMPO SHRA BKN013=
201908100020 METAR COR EGLL 100020Z AUTO 20016KT 9999 SCT023 BKN028 OVC041
                        18/15 Q0998 TEMPO SHRA=
201908092350 METAR COR EGLL 092350Z AUTO 21015KT 170V240 9999 FEW026 SCT030
                        BKN043 18/15 Q0998 TEMPO SHRA=
201908092320 METAR COR EGLL 092320Z AUTO 21015KT 9999 FEW027/// SCT032///
                        BKN044/// //////CB 18/15 Q0998 TEMPO
                        SHRA=
201908092250 METAR COR EGLL 092250Z AUTO 20017KT 9999 -RA SCT024/// BKN034///
                        BKN044/// //////TCU 18/16 Q0998 TEMPO
                        SHRA=
201908092220 METAR COR EGLL 092220Z AUTO 21020G32KT 9999 -RA SCT024///
                        BKN030/// BKN037/// //////TCU 18/16
                        Q0998 TEMPO SHRA=
201908092150 METAR COR EGLL 092150Z AUTO 19012KT 160V250 9999 -RA SCT024///
                        SCT032/// BKN042/// //////TCU 19/16
                        Q0999 TEMPO SHRA=
201908092120 METAR COR EGLL 092120Z AUTO 21012KT 180V240 9999 SCT034///
                        BKN046/// //////CB 18/15 Q0999 TEMPO
                        SHRA=
201908092050 METAR COR EGLL 092050Z AUTO 22014KT 9999 SCT033/// BKN046///
                        //////TCU 19/14 Q0999 TEMPO SHRA=
201908092020 METAR COR EGLL 092020Z AUTO 22016KT 9999 NCD 19/15 Q0999
                        TEMPO SHRA=
201908091950 METAR COR EGLL 091950Z AUTO 22015G27KT 9999 FEW038/// //////CB
                        19/16 Q0999 NOSIG=
201908091920 METAR COR EGLL 091920Z AUTO 21016G28KT 9999 FEW035 BKN048
                        20/15 Q0999 TEMPO 4000 SHRA=
201908091850 METAR COR EGLL 091850Z AUTO 22017G30KT 9999 BKN031 20/15
                        Q0999 TEMPO SHRA=
201908091820 METAR COR EGLL 091820Z AUTO 21016KT 9999 BKN030 BKN040 21/16
                        Q0999 TEMPO SHRA=
201908091750 METAR COR EGLL 091750Z AUTO 22016KT 9999 FEW029/// //////TCU
                        21/16 Q0999 TEMPO SHRA=
201908091720 METAR COR EGLL 091720Z AUTO 21017KT 9999 FEW022 SCT027 20/17
                        Q0999 TEMPO SHRA=
201908091650 METAR COR EGLL 091650Z AUTO 21015KT 9999 FEW030/// //////CB
                        20/18 Q0999 RESHRA NOSIG=
201908091620 METAR COR EGLL 091620Z AUTO 21020G33KT 6000 -RA BKN033///
                        //////CB 22/16 Q0999 TEMPO 2000 +TSRA=
201908091550 METAR COR EGLL 091550Z AUTO 21017KT 9999 SCT035 BKN042 24/15
                        Q0999 TEMPO 4000 +SHRA=
201908091520 METAR COR EGLL 091520Z AUTO 20022KT 160V230 9999 SCT038///
                        //////CB 24/15 Q0999 TEMPO SHRA=
201908091450 METAR COR EGLL 091450Z AUTO 20016KT 180V240 9999 FEW033 BKN040
                        24/16 Q0999 TEMPO SHRA=
201908091420 METAR COR EGLL 091420Z AUTO 21012KT 170V250 9999 BKN029///
                        BKN046/// //////CB 23/16 Q1000 TEMPO
                        SHRA=
201908091350 METAR COR EGLL 091350Z 21023G35KT 9999 -SHRA SCT022CB SCT030
                        BKN040 21/17 Q1001 TEMPO SHRA=
201908091320 METAR COR EGLL 091320Z AUTO 23013KT 9999 -RA FEW028/// SCT034///
                        //////TCU 23/17 Q1001 TEMPO SHRA=
201908091250 METAR COR EGLL 091250Z AUTO 22016KT 9999 SCT034/// BKN043///
                        //////TCU 22/15 Q1001 TEMPO SHRA=
201908091220 METAR COR EGLL 091220Z AUTO 20014KT 170V230 9999 -RA BKN034
                        BKN046 23/16 Q1001 TEMPO SHRA=
201908091150 METAR COR EGLL 091150Z AUTO 20015KT 9999 BKN038 23/15 Q1001
                        TEMPO SHRA=
201908091120 METAR COR EGLL 091120Z AUTO 22017KT 180V240 9999 SCT035 SCT042
                        23/15 Q1001 NOSIG=
201908091050 METAR COR EGLL 091050Z AUTO 22016KT 9999 FEW033 SCT040 23/16
                        Q1001 NOSIG=
201908091020 METAR COR EGLL 091020Z AUTO 21016KT 180V250 9999 FEW028 SCT036
                        23/17 Q1001 NOSIG=
201908090950 METAR COR EGLL 090950Z AUTO 22014KT 9999 FEW024 SCT032 22/17
                        Q1001 NOSIG=
201908090920 METAR COR EGLL 090920Z AUTO 23012KT 9999 FEW011 SCT028 21/19
                        Q1001 NOSIG=
201908090850 METAR COR EGLL 090850Z AUTO 21009KT 180V240 9999 SCT012 BKN020
                        BKN043 21/20 Q1001 NOSIG=
201908090820 METAR COR EGLL 090820Z AUTO 19009KT 150V220 9999 SCT012 BKN019
                        BKN031 20/20 Q1000 NOSIG=
201908090750 METAR COR EGLL 090750Z AUTO 20009KT 9999 FEW016 BKN033 BKN040
                        20/20 Q1000 NOSIG=
201908090720 METAR COR EGLL 090720Z AUTO 19010KT 9999 SCT015 SCT021 BKN025
                        20/19 Q1001 NOSIG=
201908090650 METAR COR EGLL 090650Z 18009KT 9999 -RA SCT009 BKN013 OVC039
                        20/19 Q1001 TEMPO BKN009=
201908090620 METAR COR EGLL 090620Z 16009KT 9999 -RA SCT007 BKN010 OVC023
                        19/19 Q1001 RERA REDZ TEMPO BKN007=
201908090550 METAR COR EGLL 090550Z 15007KT 6000 -RADZ FEW012 SCT022 OVC027TCU
                        19/18 Q1001 RERA REDZ TEMPO BKN012=
201908090520 METAR COR EGLL 090520Z 15010KT 3500 RADZ SCT017 BKN029TCU
                        19/18 Q1001 TEMPO 8000 -RA=
201908090450 METAR COR EGLL 090450Z AUTO 14007KT 9999 -RA BKN035/// //////TCU
                        19/18 Q1002 TEMPO RA=
201908090420 METAR COR EGLL 090420Z AUTO 12007KT 9999 BKN039 OVC047 19/18
                        Q1002 TEMPO RA=
201908090350 METAR COR EGLL 090350Z AUTO 13006KT 9999 BKN045 19/18 Q1002
                        NOSIG=
201908090320 METAR COR EGLL 090320Z AUTO 10005KT 9999 FEW045 18/18 Q1002
                        NOSIG=
201908090250 METAR COR EGLL 090250Z AUTO 12007KT 9999 NCD 18/18 Q1003
                        NOSIG=
201908090220 METAR COR EGLL 090220Z AUTO 11008KT 9999 -RA NCD 18/17 Q1003
                        TEMPO RA=
201908090150 METAR COR EGLL 090150Z AUTO 10010KT 9999 NCD 18/17 Q1003
                        TEMPO RA=
201908090120 METAR COR EGLL 090120Z AUTO 11006KT 9999 NCD 18/17 Q1004
                        TEMPO RA=
201908090050 METAR COR EGLL 090050Z AUTO 12007KT 9999 BKN035 18/17 Q1005
                        TEMPO RA=
201908090020 METAR COR EGLL 090020Z AUTO 14007KT 9999 SCT023 BKN030 OVC043
                        18/16 Q1006 NOSIG=
201908082350 METAR COR EGLL 082350Z AUTO 15005KT 6000 -RA SCT022/// BKN031///
                        OVC043/// //////CB 18/17 Q1006 RERA
                        NOSIG=
201908082320 METAR COR EGLL 082320Z 14007KT 6000 +RA BKN036CB OVC043 19/16
                        Q1007 TEMPO RA=
201908082250 METAR COR EGLL 082250Z AUTO 11008KT 9999 BKN039/// OVC049///
                        //////TCU 19/17 Q1006 TEMPO RA=
201908082220 METAR COR EGLL 082220Z AUTO 11008KT 9999 OVC040 19/17 Q1007
                        TEMPO RA=
201908082150 METAR COR EGLL 082150Z AUTO 11008KT 9999 -RA FEW043 BKN049
                        19/17 Q1007 TEMPO RA=
201908082120 METAR COR EGLL 082120Z AUTO 12008KT 9999 -RA NCD 20/17 Q1008
                        TEMPO RA=
201908082050 METAR COR EGLL 082050Z AUTO 12009KT 9999 -RA SCT044 21/16
                        Q1008 NOSIG=
201908082020 METAR COR EGLL 082020Z AUTO 12008KT 9999 -RA BKN043 21/16
                        Q1008 TEMPO RA=
201908081950 METAR COR EGLL 081950Z AUTO 13006KT 9999 NCD 21/15 Q1008
                        TEMPO RA=
201908081920 METAR COR EGLL 081920Z AUTO 15006KT 9999 NCD 21/15 Q1008
                        TEMPO RA=
201908081850 METAR COR EGLL 081850Z AUTO 17006KT 9999 BKN034 22/15 Q1008
                        TEMPO RA=
201908081820 METAR COR EGLL 081820Z AUTO 16007KT 9999 BKN031 22/15 Q1009
                        NOSIG=
201908081750 METAR COR EGLL 081750Z AUTO 15006KT 120V180 9999 FEW038 23/15
                        Q1009 TEMPO RA=
201908081720 METAR COR EGLL 081720Z AUTO 15007KT 110V240 9999 FEW030 BKN036
                        22/15 Q1009 NOSIG=
201908081650 METAR COR EGLL 081650Z AUTO VRB04KT 9999 SCT030 BKN036 22/15
                        Q1010 NOSIG=
201908081620 METAR COR EGLL 081620Z AUTO 22005KT 120V280 9999 OVC032 22/15
                        Q1010 NOSIG=
201908081550 METAR COR EGLL 081550Z AUTO 18007KT 140V250 9999 BKN038 22/14
                        Q1010 NOSIG=
201908081520 METAR COR EGLL 081520Z AUTO 19008KT 170V240 9999 BKN036 22/14
                        Q1010 NOSIG=
201908081450 METAR COR EGLL 081450Z AUTO 22008KT 160V250 9999 BKN036 BKN045
                        24/15 Q1010 NOSIG=
201908081420 METAR COR EGLL 081420Z AUTO 20008KT 170V240 9999 OVC029 22/15
                        Q1010 NOSIG=
201908081350 METAR COR EGLL 081350Z AUTO 19010KT 160V230 9999 BKN035 22/14
                        Q1010 NOSIG=
201908081320 METAR COR EGLL 081320Z AUTO 21010KT 190V250 9999 BKN036 23/14
                        Q1010 NOSIG=
201908081250 METAR COR EGLL 081250Z AUTO 19008KT 140V250 9999 FEW033 BKN040
                        23/14 Q1010 NOSIG=
201908081220 METAR COR EGLL 081220Z AUTO 21006KT 140V260 9999 SCT041 23/12
                        Q1011 NOSIG=
201908081150 METAR EGLL 081150Z AUTO 18006KT 100V260 9999 FEW044 23/12
                        Q1011=
201908081120 METAR COR EGLL 081120Z AUTO 23008KT 190V280 9999 FEW040 23/11
                        Q1011 NOSIG=
201908081050 METAR COR EGLL 081050Z AUTO 22007KT 170V290 9999 FEW038 22/12
                        Q1011 NOSIG=
201908081020 METAR EGLL 081020Z AUTO 23007KT 160V270 9999 FEW033 22/11
                        Q1011=
201908080950 METAR EGLL 080950Z AUTO 22006KT 180V260 9999 NCD 21/12 Q1010=
201908080920 METAR COR EGLL 080920Z AUTO 23006KT 190V270 9999 NCD 20/12
                        Q1010 NOSIG=
201908080850 METAR COR EGLL 080850Z AUTO 22005KT 180V280 9999 FEW023 20/13
                        Q1011 NOSIG=
201908080820 METAR COR EGLL 080820Z AUTO 23006KT 180V260 9999 NCD 19/14
                        Q1011 NOSIG=
201908080750 METAR COR EGLL 080750Z AUTO 21005KT 180V250 9999 NCD 18/14
                        Q1011 NOSIG=
201908080720 METAR COR EGLL 080720Z AUTO 24004KT 210V270 9999 NCD 17/14
                        Q1011 NOSIG=
201908080650 METAR COR EGLL 080650Z AUTO 23006KT 190V270 9999 NCD 16/13
                        Q1010 NOSIG=
201908080620 METAR COR EGLL 080620Z AUTO 23006KT 200V260 9999 NCD 15/13
                        Q1010 NOSIG=
201908080550 METAR COR EGLL 080550Z AUTO 22006KT 200V260 9999 NCD 15/13
                        Q1010 NOSIG=
201908080520 METAR COR EGLL 080520Z AUTO 24006KT 9999 NCD 14/13 Q1010
                        NOSIG=
201908080450 METAR COR EGLL 080450Z AUTO 23006KT 9999 NCD 14/13 Q1010
                        NOSIG=
201908080420 METAR COR EGLL 080420Z AUTO 22004KT 9999 NCD 14/13 Q1010
                        NOSIG=
201908080350 METAR COR EGLL 080350Z AUTO 20006KT 9999 NCD 14/13 Q1010
                        NOSIG=
201908080320 METAR COR EGLL 080320Z AUTO 25004KT 9999 NCD 14/13 Q1010
                        NOSIG=
201908080250 METAR COR EGLL 080250Z AUTO 27004KT 9999 NCD 15/13 Q1010
                        NOSIG=
201908080220 METAR COR EGLL 080220Z AUTO 25005KT 9999 NCD 16/13 Q1010
                        NOSIG=
201908080150 METAR COR EGLL 080150Z AUTO 26008KT 9999 NCD 16/13 Q1010
                        NOSIG=
201908080120 METAR COR EGLL 080120Z AUTO 27007KT 9999 NCD 15/13 Q1009
                        NOSIG=
201908080050 METAR COR EGLL 080050Z AUTO 26007KT 9999 NCD 16/13 Q1009
                        NOSIG=
201908080020 METAR COR EGLL 080020Z AUTO 25007KT 9999 NCD 16/13 Q1009
                        NOSIG=
201908072350 METAR COR EGLL 072350Z AUTO 24006KT 9999 NCD 17/13 Q1009
                        NOSIG=
201908072320 METAR COR EGLL 072320Z AUTO 25009KT 9999 NCD 17/13 Q1009
                        NOSIG=
201908072250 METAR COR EGLL 072250Z AUTO 26009KT 9999 NCD 18/13 Q1009
                        NOSIG=
201908072220 METAR COR EGLL 072220Z AUTO 26011KT 9999 NCD 18/13 Q1009
                        NOSIG=
201908072150 METAR COR EGLL 072150Z AUTO 26010KT 9999 NCD 18/13 Q1009
                        NOSIG=
201908072120 METAR COR EGLL 072120Z AUTO 24011KT 9999 NCD 18/12 Q1009
                        NOSIG=
201908072050 METAR COR EGLL 072050Z AUTO 25012KT 9999 NCD 19/12 Q1009
                        NOSIG=
201908072020 METAR COR EGLL 072020Z AUTO 25010KT 9999 NCD 20/12 Q1008
                        NOSIG=
201908071950 METAR COR EGLL 071950Z AUTO 24012KT 9999 NCD 20/11 Q1008
                        NOSIG=
201908071920 METAR COR EGLL 071920Z AUTO 24012KT 9999 NCD 20/12 Q1007
                        NOSIG=
201908071850 METAR COR EGLL 071850Z AUTO 25012KT 9999 NCD 20/12 Q1007
                        NOSIG=
201908071820 METAR COR EGLL 071820Z AUTO 26017KT 9999 SCT047 21/12 Q1007
                        NOSIG=
201908071750 METAR COR EGLL 071750Z AUTO 26014KT 9999 SCT047/// //////TCU
                        21/12 Q1007 NOSIG=
201908071720 METAR COR EGLL 071720Z AUTO 27015KT 9999 SCT045 22/12 Q1007
                        NOSIG=
201908071650 METAR COR EGLL 071650Z AUTO 26012KT 220V290 9999 FEW047 22/13
                        Q1007 NOSIG=
201908071620 METAR COR EGLL 071620Z AUTO 25015KT 9999 //////CB 22/13 Q1007
                        NOSIG=
201908071550 METAR COR EGLL 071550Z AUTO 27018KT 9999 //////CB 22/13 Q1007
                        NOSIG=
201908071520 METAR COR EGLL 071520Z AUTO 26012KT 9999 FEW039/// //////CB
                        22/15 Q1007 NOSIG=
201908071450 METAR COR EGLL 071450Z AUTO 24010KT 9999 FEW035/// SCT044///
                        //////CB 20/15 Q1007 RESHRA NOSIG=
201908071420 METAR COR EGLL 071420Z AUTO 25013KT 210V280 9999 BKN037///
                        BKN047/// //////CB 22/14 Q1006 TEMPO
                        SHRA=
201908071350 METAR COR EGLL 071350Z AUTO 26013KT 9999 //////CB 24/12 Q1006
                        NOSIG=
201908071320 METAR COR EGLL 071320Z AUTO 26014KT 9999 //////CB 22/13 Q1007
                        NOSIG=
201908071250 METAR COR EGLL 071250Z AUTO 27012KT 9999 //////CB 20/15 Q1007
                        TEMPO SHRA=
201908071220 METAR COR EGLL 071220Z AUTO 28009KT 240V310 9999 FEW039///
                        //////TCU 18/15 Q1007 RESHRA TEMPO
                        SHRA=
201908071150 METAR COR EGLL 071150Z AUTO 29017KT 5000 -RA SCT031 BKN041
                        BKN049 19/14 Q1007 RESHRA TEMPO SHRA=
201908071120 METAR COR EGLL 071120Z AUTO 22012KT 9999 SCT040/// //////TCU
                        22/12 Q1006 TEMPO SHRA=
201908071050 METAR COR EGLL 071050Z AUTO 24013KT 210V290 9999 FEW036 22/13
                        Q1006 TEMPO SHRA=
201908071020 METAR COR EGLL 071020Z AUTO 25011KT 9999 FEW041 21/13 Q1006
                        NOSIG=
201908070950 METAR COR EGLL 070950Z AUTO 24012KT 9999 FEW035 21/12 Q1006
                        NOSIG=
201908070920 METAR COR EGLL 070920Z AUTO 25012KT 220V280 9999 NCD 21/13
                        Q1006 NOSIG=
201908070850 METAR COR EGLL 070850Z AUTO 25012KT 9999 SCT025 SCT032 BKN048
                        19/13 Q1006 NOSIG=
201908070820 METAR COR EGLL 070820Z AUTO 23011KT 9999 FEW021 SCT027 19/13
                        Q1006 NOSIG=
201908070750 METAR COR EGLL 070750Z AUTO 22010KT 9999 FEW022 18/14 Q1006
                        NOSIG=
201908070720 METAR COR EGLL 070720Z AUTO 24009KT 9999 NCD 17/14 Q1006
                        NOSIG=
201908070650 METAR COR EGLL 070650Z AUTO 23009KT 9999 NCD 17/14 Q1006
                        NOSIG=
201908070620 METAR COR EGLL 070620Z AUTO 23009KT 9999 NCD 16/14 Q1006
                        NOSIG=
201908070550 METAR COR EGLL 070550Z AUTO 22007KT 9999 NCD 15/14 Q1006
                        NOSIG=
201908070520 METAR COR EGLL 070520Z AUTO 22007KT 9999 NCD 15/13 Q1006
                        NOSIG=
201908070450 METAR COR EGLL 070450Z AUTO 22008KT 9999 NCD 14/13 Q1005
                        NOSIG=
201908070420 METAR COR EGLL 070420Z AUTO 22007KT 9999 NCD 15/13 Q1005
                        NOSIG=
201908070350 METAR COR EGLL 070350Z AUTO 21007KT 9999 NCD 15/13 Q1005
                        NOSIG=
201908070320 METAR COR EGLL 070320Z AUTO 22007KT 9999 FEW046 15/13 Q1006
                        NOSIG=
201908070250 METAR COR EGLL 070250Z AUTO 23005KT 9999 NCD 15/14 Q1006
                        NOSIG=
201908070220 METAR COR EGLL 070220Z AUTO 21007KT 9999 NCD 15/14 Q1006
                        NOSIG=
201908070150 METAR COR EGLL 070150Z AUTO 21007KT 9999 NCD 15/14 Q1006
                        NOSIG=
201908070120 METAR COR EGLL 070120Z AUTO 20008KT 9999 NCD 15/14 Q1006
                        NOSIG=
201908070050 METAR COR EGLL 070050Z AUTO 23009KT 9999 NCD 16/14 Q1006
                        NOSIG=
201908070020 METAR COR EGLL 070020Z AUTO 22007KT 9999 NCD 16/14 Q1006
                        NOSIG=
201908062350 METAR COR EGLL 062350Z AUTO 21006KT 9999 NCD 16/14 Q1006
                        NOSIG=
201908062320 METAR COR EGLL 062320Z AUTO 22008KT 9999 BKN043 17/14 Q1006
                        NOSIG=
201908062250 METAR COR EGLL 062250Z AUTO 22009KT 9999 SCT037 BKN045 17/14
                        Q1006 NOSIG=
201908062220 METAR COR EGLL 062220Z AUTO 22009KT 9999 FEW045 17/14 Q1006
                        NOSIG=
201908062150 METAR COR EGLL 062150Z AUTO 22010KT 200V260 9999 //////CB
                        17/14 Q1006 NOSIG=
201908062120 METAR COR EGLL 062120Z AUTO 23010KT 200V260 9999 FEW022 18/14
                        Q1006 NOSIG=
201908062050 METAR COR EGLL 062050Z 25010KT 9999 VCSH SCT023CB BKN040
                        18/14 Q1006 NOSIG=
201908062020 METAR COR EGLL 062020Z 22010G20KT 9999 VCSH FEW026CB SCT040
                        18/14 Q1006 NOSIG=
201908061950 METAR COR EGLL 061950Z AUTO 24011KT 9999 -RA SCT026/// BKN037///
                        BKN045/// //////CB 19/15 Q1006 NOSIG=
201908061920 METAR COR EGLL 061920Z AUTO 22013KT 9999 SCT031/// BKN040///
                        //////CB 20/14 Q1006 TEMPO SHRA=
201908061850 METAR COR EGLL 061850Z AUTO 22014KT 9999 //////CB 20/14 Q1005
                        TEMPO SHRA=
201908061820 METAR COR EGLL 061820Z AUTO 22014KT 180V250 9999 FEW048///
                        //////CB 20/13 Q1005 TEMPO SHRA=
201908061750 METAR COR EGLL 061750Z AUTO 21013KT 190V250 9999 //////CB
                        21/13 Q1005 TEMPO SHRA=
201908061720 METAR COR EGLL 061720Z AUTO 21016KT 9999 NCD 21/13 Q1005
                        TEMPO SHRA=
201908061650 METAR COR EGLL 061650Z AUTO 22015G26KT 9999 SCT036 22/13
                        Q1006 TEMPO SHRA=
201908061620 METAR COR EGLL 061620Z AUTO 21016KT 9999 FEW038 23/13 Q1006
                        TEMPO SHRA=
201908061550 METAR COR EGLL 061550Z AUTO 21016G27KT 180V250 9999 FEW041
                        23/13 Q1006 TEMPO SHRA=
201908061520 METAR COR EGLL 061520Z AUTO 22017KT 9999 FEW041 23/13 Q1006
                        TEMPO SHRA=
201908061450 METAR COR EGLL 061450Z AUTO 22017KT 9999 SCT042 24/12 Q1006
                        TEMPO SHRA=
201908061420 METAR COR EGLL 061420Z AUTO 22017KT 9999 SCT041 24/12 Q1006
                        TEMPO SHRA=
201908061350 METAR COR EGLL 061350Z AUTO 22017KT 9999 SCT040 24/12 Q1006
                        NOSIG=
201908061320 METAR COR EGLL 061320Z AUTO 22016KT 9999 SCT040 24/12 Q1007
                        NOSIG=
201908061250 METAR COR EGLL 061250Z AUTO 21015KT 9999 BKN039 23/13 Q1007
                        NOSIG=
201908061220 METAR COR EGLL 061220Z AUTO 22013KT 9999 FEW041 BKN049 23/12
                        Q1007 NOSIG=
201908061150 METAR COR EGLL 061150Z AUTO 22014KT 9999 SCT040 22/12 Q1008=
201908061120 METAR COR EGLL 061120Z AUTO 22014KT 9999 SCT040 23/12 Q1008
                        NOSIG=
201908061050 METAR COR EGLL 061050Z AUTO 21014KT 170V240 9999 SCT036 SCT043
                        22/13 Q1008 NOSIG=
201908061020 METAR COR EGLL 061020Z AUTO 23012KT 9999 SCT034 BKN049 22/13
                        Q1008 NOSIG=
201908060950 METAR COR EGLL 060950Z AUTO 22011KT 180V250 9999 SCT033 SCT045
                        21/13 Q1009 NOSIG=
201908060920 METAR COR EGLL 060920Z AUTO 22012KT 9999 FEW034 BKN041 20/13
                        Q1009 NOSIG=
201908060850 METAR COR EGLL 060850Z AUTO 22012KT 9999 FEW028 SCT034 BKN049
                        20/13 Q1009 NOSIG=
201908060820 METAR COR EGLL 060820Z AUTO 22010KT 9999 SCT023 BKN030 19/14
                        Q1009 NOSIG=
201908060750 METAR COR EGLL 060750Z AUTO 23011KT 9999 BKN019 BKN028 19/14
                        Q1009 NOSIG=
201908060720 METAR COR EGLL 060720Z AUTO 21010KT 9999 SCT016 BKN021 19/15
                        Q1009 NOSIG=
201908060650 METAR COR EGLL 060650Z AUTO 21009KT 9999 NCD 18/14 Q1009
                        NOSIG=
201908060620 METAR COR EGLL 060620Z AUTO 21008KT 190V290 9999 FEW021 17/15
                        Q1009 NOSIG=
201908060550 METAR COR EGLL 060550Z AUTO 21009KT 180V250 9999 NCD 16/14
                        Q1009 NOSIG=
201908060520 METAR COR EGLL 060520Z AUTO 21008G18KT 180V280 9999 NCD 16/15
                        Q1009 NOSIG=
201908060450 METAR COR EGLL 060450Z AUTO 18006KT 9999 NCD 15/14 Q1009
                        NOSIG=
201908060420 METAR COR EGLL 060420Z AUTO 20007KT 9999 NCD 16/14 Q1009
                        NOSIG=
201908060350 METAR COR EGLL 060350Z AUTO 21006KT 9999 NCD 16/14 Q1009
                        NOSIG=
201908060320 METAR COR EGLL 060320Z AUTO 22006KT 9999 NCD 16/14 Q1009
                        NOSIG=
201908060250 METAR COR EGLL 060250Z AUTO 22005KT 190V250 9999 NCD 16/14
                        Q1010 NOSIG=
201908060220 METAR COR EGLL 060220Z AUTO 21006KT 9999 NCD 16/14 Q1010
                        NOSIG=
201908060150 METAR COR EGLL 060150Z AUTO 21006KT 9999 NCD 16/14 Q1010
                        NOSIG=
201908060120 METAR COR EGLL 060120Z AUTO 21005KT 9999 NCD 16/14 Q1010
                        NOSIG=
201908060050 METAR COR EGLL 060050Z AUTO 20006KT 9999 NCD 16/14 Q1010
                        NOSIG=
201908060020 METAR COR EGLL 060020Z AUTO 21005KT 9999 NCD 16/14 Q1010
                        NOSIG=
201908052350 METAR COR EGLL 052350Z AUTO 21006KT 9999 NCD 16/14 Q1010
                        NOSIG=
201908052320 METAR EGLL 052320Z AUTO 23009KT 9999 NCD 17/14 Q1010=
201908052250 METAR COR EGLL 052250Z AUTO 23008KT 9999 NCD 17/14 Q1010
                        NOSIG=
201908052220 METAR COR EGLL 052220Z AUTO 22008KT 9999 NCD 17/14 Q1010
                        NOSIG=
201908052150 METAR COR EGLL 052150Z AUTO 23010KT 9999 NCD 18/14 Q1010
                        NOSIG=
201908052120 METAR COR EGLL 052120Z AUTO 23010KT 190V260 9999 NCD 18/14
                        Q1010 NOSIG=
201908052050 METAR COR EGLL 052050Z AUTO 23009KT 180V260 9999 NCD 19/14
                        Q1010 NOSIG=
201908052020 METAR COR EGLL 052020Z AUTO 22009KT 180V260 9999 NCD 19/13
                        Q1010 NOSIG=
201908051950 METAR COR EGLL 051950Z AUTO 25010KT 9999 FEW047 20/12 Q1009
                        NOSIG=
201908051920 METAR COR EGLL 051920Z AUTO 22011KT 9999 SCT048 21/13 Q1009
                        NOSIG=
201908051850 METAR COR EGLL 051850Z AUTO 23014KT 9999 SCT048 22/13 Q1009
                        NOSIG=
201908051820 METAR COR EGLL 051820Z AUTO 22012G24KT 9999 BKN047 22/13
                        Q1009 NOSIG=
201908051750 METAR COR EGLL 051750Z AUTO 26011KT 9999 NCD 23/13 Q1009
                        NOSIG=
201908051720 METAR COR EGLL 051720Z AUTO 27011KT 9999 NCD 23/11 Q1009
                        NOSIG=
201908051650 METAR COR EGLL 051650Z AUTO 27014KT 9999 NCD 24/10 Q1009
                        NOSIG=
201908051620 METAR COR EGLL 051620Z AUTO 26011KT 9999 NCD 24/10 Q1009
                        NOSIG=
201908051550 METAR COR EGLL 051550Z AUTO 27012KT 9999 NCD 24/10 Q1009
                        NOSIG=
201908051520 METAR COR EGLL 051520Z AUTO 26014KT 220V290 9999 NCD 24/10
                        Q1009 NOSIG=
201908051450 METAR COR EGLL 051450Z AUTO 27012KT 9999 NCD 25/10 Q1009
                        NOSIG=
201908051420 METAR COR EGLL 051420Z AUTO 26009KT 9999 NCD 24/10 Q1009
                        NOSIG=
201908051350 METAR COR EGLL 051350Z AUTO 24014KT 9999 NCD 25/09 Q1009
                        NOSIG=
201908051320 METAR COR EGLL 051320Z AUTO 27014KT 9999 NCD 25/09 Q1009
                        NOSIG=
201908051250 METAR COR EGLL 051250Z AUTO 27012KT 240V300 9999 NCD 25/10
                        Q1009 NOSIG=
201908051220 METAR COR EGLL 051220Z AUTO 26015KT 9999 FEW048 25/10 Q1009
                        NOSIG=
201908051150 METAR COR EGLL 051150Z AUTO 26013KT 9999 FEW046 24/11 Q1009
                        NOSIG=
201908051120 METAR COR EGLL 051120Z AUTO 25013KT 220V290 9999 SCT038 BKN046
                        23/14 Q1009 NOSIG=
201908051050 METAR COR EGLL 051050Z AUTO 26013KT 9999 SCT028 BKN036 BKN044
                        21/13 Q1009 NOSIG=
201908051020 METAR COR EGLL 051020Z AUTO 23012KT 9999 FEW026 SCT040 23/15
                        Q1009 NOSIG=
201908050950 METAR COR EGLL 050950Z AUTO 23011KT 9999 SCT013 SCT022 BKN036
                        21/17 Q1009 TEMPO SHRA=
201908050920 METAR COR EGLL 050920Z AUTO 21009KT 180V250 9999 SCT007 BKN010
                        BKN032 19/18 Q1009 TEMPO 4500 SHRA
                        BKN007=
201908050850 METAR COR EGLL 050850Z AUTO 21009KT 180V240 7000 -RA BKN007
                        OVC015 18/17 Q1009 TEMPO SHRA=
201908050820 METAR COR EGLL 050820Z AUTO 20009KT 9999 BKN008 OVC046 18/17
                        Q1010 TEMPO SHRA=
201908050750 METAR COR EGLL 050750Z AUTO 21009G19KT 9999 -RA SCT010 BKN019
                        OVC047 18/16 Q1010 TEMPO SHRA BKN008=
201908050720 METAR COR EGLL 050720Z AUTO 21009KT 9999 BKN014 OVC027 17/16
                        Q1010 TEMPO SHRA BKN008=
201908050650 METAR COR EGLL 050650Z AUTO 21009KT 9999 SCT013 BKN019 BKN026
                        17/16 Q1010 TEMPO BKN012=
201908050620 METAR COR EGLL 050620Z AUTO 20010G20KT 170V240 9999 SCT015
                        BKN026 BKN037 18/15 Q1010 TEMPO SHRA
                        BKN012=
201908050550 METAR COR EGLL 050550Z AUTO 19009KT 170V240 9999 SCT017 BKN028
                        17/15 Q1010 TEMPO BKN014=
201908050520 METAR COR EGLL 050520Z AUTO 21008KT 170V270 9999 BKN032 BKN042
                        17/15 Q1010 NOSIG=
201908050450 METAR COR EGLL 050450Z AUTO 20008KT 9999 SCT036 BKN044 17/15
                        Q1010 NOSIG=
201908050420 METAR COR EGLL 050420Z AUTO 20008KT 180V250 9999 NCD 17/15
                        Q1010 NOSIG=
201908050350 METAR COR EGLL 050350Z AUTO 20007KT 180V270 9999 NCD 17/15
                        Q1010 NOSIG=
201908050320 METAR COR EGLL 050320Z AUTO 21007KT 9999 NCD 17/15 Q1011
                        NOSIG=
201908050250 METAR COR EGLL 050250Z AUTO 20006KT 9999 NCD 17/15 Q1011
                        NOSIG=
201908050220 METAR COR EGLL 050220Z AUTO 20006KT 9999 NCD 16/15 Q1011
                        NOSIG=
201908050150 METAR COR EGLL 050150Z AUTO 21005KT 9999 NCD 16/14 Q1011
                        NOSIG=
201908050120 METAR COR EGLL 050120Z AUTO 23007KT 9999 NCD 17/15 Q1011
                        NOSIG=
201908050050 METAR COR EGLL 050050Z AUTO 21006KT 9999 NCD 17/14 Q1011
                        NOSIG=
201908050020 METAR COR EGLL 050020Z AUTO 21005KT 9999 NCD 17/15 Q1011
                        NOSIG=
201908042350 METAR COR EGLL 042350Z AUTO 22006KT 9999 NCD 17/14 Q1012
                        NOSIG=
201908042320 METAR COR EGLL 042320Z AUTO 22006KT 9999 NCD 18/14 Q1012
                        NOSIG=
201908042250 METAR COR EGLL 042250Z AUTO 24010KT 9999 NCD 18/14 Q1012
                        NOSIG=
201908042220 METAR COR EGLL 042220Z AUTO 23010KT 9999 NCD 19/15 Q1012
                        NOSIG=
201908042150 METAR COR EGLL 042150Z AUTO 22009KT 9999 NCD 19/15 Q1011
                        NOSIG=
201908042120 METAR COR EGLL 042120Z AUTO 22010KT 9999 NCD 20/15 Q1012
                        NOSIG=
201908042050 METAR COR EGLL 042050Z AUTO 22010KT 9999 NCD 20/16 Q1011
                        NOSIG=
201908042020 METAR COR EGLL 042020Z AUTO 22009KT 9999 NCD 20/16 Q1011
                        NOSIG=
201908041950 METAR COR EGLL 041950Z AUTO 22009KT 9999 NCD 21/16 Q1011
                        NOSIG=
201908041920 METAR COR EGLL 041920Z AUTO 21009KT 180V270 9999 NCD 21/16
                        Q1011 NOSIG=
201908041850 METAR COR EGLL 041850Z AUTO 22009KT 9999 NCD 21/15 Q1011
                        NOSIG=
201908041820 METAR COR EGLL 041820Z AUTO 22013KT 9999 NCD 22/12 Q1011
                        NOSIG=
201908041750 METAR COR EGLL 041750Z AUTO 20011KT 9999 NCD 22/15 Q1011
                        NOSIG=
201908041720 METAR COR EGLL 041720Z AUTO 20012KT 9999 NCD 23/16 Q1011
                        NOSIG=
201908041650 METAR COR EGLL 041650Z AUTO 18011KT 9999 -RA NCD 23/17 Q1011
                        NOSIG=
201908041620 METAR COR EGLL 041620Z AUTO 19011KT 150V220 9999 NCD 23/16
                        Q1011 NOSIG=
201908041550 METAR COR EGLL 041550Z AUTO 19012KT 9999 NCD 24/16 Q1012
                        NOSIG=
201908041520 METAR COR EGLL 041520Z AUTO 16012KT 140V220 9999 NCD 24/15
                        Q1012 NOSIG=
201908041450 METAR COR EGLL 041450Z AUTO 18011KT 140V240 9999 NCD 25/14
                        Q1012 NOSIG=
201908041420 METAR COR EGLL 041420Z AUTO 18012KT 130V220 9999 NCD 26/14
                        Q1012 NOSIG=
201908041350 METAR COR EGLL 041350Z AUTO 16011KT 130V240 9999 NCD 27/14
                        Q1012 NOSIG=
201908041320 METAR COR EGLL 041320Z AUTO 16012KT 130V220 9999 NCD 26/14
                        Q1012 NOSIG=
201908041250 METAR COR EGLL 041250Z AUTO 16011KT 130V200 9999 NCD 25/13
                        Q1012 NOSIG=
201908041220 METAR COR EGLL 041220Z AUTO 15010KT 110V230 9999 NCD 25/15
                        Q1012 NOSIG=
201908041150 METAR COR EGLL 041150Z AUTO 15010KT 120V220 9999 NCD 24/14
                        Q1013 NOSIG=
201908041120 METAR COR EGLL 041120Z AUTO 16009KT 110V220 9999 NCD 24/15
                        Q1013 NOSIG=
201908041050 METAR COR EGLL 041050Z AUTO 14009KT 110V200 9999 NCD 24/15
                        Q1013 NOSIG=
201908041020 METAR COR EGLL 041020Z AUTO 15008KT 080V210 9999 NCD 24/16
                        Q1014 NOSIG=
201908040950 METAR COR EGLL 040950Z AUTO 13007KT 070V190 9999 NCD 23/16
                        Q1014 NOSIG=
201908040920 METAR COR EGLL 040920Z AUTO 16008KT 120V240 9999 NCD 23/15
                        Q1014 NOSIG=
201908040850 METAR COR EGLL 040850Z AUTO 15006KT 080V240 9999 NCD 22/15
                        Q1014 NOSIG=
201908040820 METAR COR EGLL 040820Z AUTO 12004KT 060V220 9999 NCD 22/16
                        Q1014 NOSIG=
201908040750 METAR COR EGLL 040750Z AUTO 11005KT 060V170 9999 NCD 20/15
                        Q1014 NOSIG=
201908040720 METAR COR EGLL 040720Z AUTO 12004KT 060V170 9999 NCD 19/15
                        Q1014 NOSIG=
201908040650 METAR COR EGLL 040650Z AUTO 10004KT 060V150 9999 NCD 18/15
                        Q1015 NOSIG=
201908040620 METAR COR EGLL 040620Z AUTO 09005KT 9999 NCD 17/15 Q1015
                        NOSIG=
201908040550 METAR COR EGLL 040550Z AUTO 10006KT 070V130 9999 NCD 17/15
                        Q1015 NOSIG=
201908040520 METAR COR EGLL 040520Z AUTO 09005KT 050V130 9999 NCD 16/14
                        Q1015 NOSIG=
201908040450 METAR COR EGLL 040450Z AUTO 09004KT 060V150 9999 NCD 16/14
                        Q1015 NOSIG=
201908040420 METAR COR EGLL 040420Z AUTO 06003KT 9999 NCD 15/14 Q1015
                        NOSIG=
201908040350 METAR COR EGLL 040350Z AUTO VRB03KT 9999 NCD 15/13 Q1015
                        NOSIG=
201908040320 METAR COR EGLL 040320Z AUTO VRB02KT 9999 NCD 15/13 Q1016
                        NOSIG=
201908040250 METAR COR EGLL 040250Z AUTO 08002KT 9999 NCD 16/13 Q1016
                        NOSIG=
201908040220 METAR COR EGLL 040220Z AUTO 09003KT 9999 NCD 15/13 Q1016
                        NOSIG=
201908040150 METAR COR EGLL 040150Z AUTO 09003KT 9999 NCD 15/13 Q1016
                        NOSIG=
201908040120 METAR COR EGLL 040120Z AUTO 09003KT 9999 NCD 15/13 Q1016
                        NOSIG=
201908040050 METAR COR EGLL 040050Z AUTO 10004KT 9999 NCD 16/13 Q1016
                        NOSIG=
201908040020 METAR COR EGLL 040020Z AUTO 11003KT 9999 NCD 17/14 Q1017
                        NOSIG=
201908032350 METAR COR EGLL 032350Z AUTO 11004KT 9999 NCD 16/13 Q1017
                        NOSIG=
201908032320 METAR COR EGLL 032320Z AUTO 13006KT 9999 NCD 18/14 Q1017
                        NOSIG=
201908032250 METAR COR EGLL 032250Z AUTO 14004KT 9999 NCD 18/14 Q1017
                        NOSIG=
201908032220 METAR COR EGLL 032220Z AUTO VRB04KT 9999 NCD 19/14 Q1017
                        NOSIG=
201908032150 METAR COR EGLL 032150Z AUTO 13004KT 9999 NCD 18/14 Q1017
                        NOSIG=
201908032120 METAR COR EGLL 032120Z AUTO 13005KT 050V200 9999 NCD 19/14
                        Q1017 NOSIG=
201908032050 METAR COR EGLL 032050Z AUTO 15005KT 9999 NCD 19/14 Q1017
                        NOSIG=
201908032020 METAR COR EGLL 032020Z AUTO VRB07KT 9999 NCD 21/14 Q1017
                        NOSIG=
201908031950 METAR COR EGLL 031950Z AUTO 17008KT 120V210 9999 NCD 21/15
                        Q1017 NOSIG=
201908031920 METAR COR EGLL 031920Z AUTO 18008KT 150V220 9999 NCD 21/15
                        Q1017 NOSIG=
201908031850 METAR COR EGLL 031850Z AUTO VRB08KT 9999 NCD 22/15 Q1017
                        NOSIG=
201908031820 METAR COR EGLL 031820Z AUTO 18008KT 140V250 9999 NCD 22/15
                        Q1017 NOSIG=
201908031750 METAR COR EGLL 031750Z AUTO 18006KT 130V230 9999 NCD 23/15
                        Q1017 NOSIG=
201908031720 METAR COR EGLL 031720Z AUTO 19008KT 160V270 9999 FEW039 23/15
                        Q1017 NOSIG=
201908031650 METAR EGLL 031650Z AUTO 18005KT 110V230 9999 FEW048 24/13
                        Q1017=
201908031620 METAR COR EGLL 031620Z AUTO 19006KT 140V260 9999 FEW046 24/13
                        Q1018 NOSIG=
201908031550 METAR COR EGLL 031550Z AUTO 13006KT 070V170 9999 FEW046 24/13
                        Q1018 NOSIG=
201908031520 METAR COR EGLL 031520Z AUTO 17005KT 120V250 9999 SCT043 24/13
                        Q1018 NOSIG=
201908031450 METAR COR EGLL 031450Z AUTO 17004KT 090V260 9999 FEW045 24/13
                        Q1018 NOSIG=
201908031420 METAR COR EGLL 031420Z AUTO 20006KT 9999 FEW048 24/13 Q1018
                        NOSIG=
201908031350 METAR COR EGLL 031350Z AUTO VRB03KT 9999 BKN042 24/14 Q1019
                        NOSIG=
201908031320 METAR COR EGLL 031320Z AUTO VRB03KT 9999 NCD 24/13 Q1019
                        NOSIG=
201908031250 METAR COR EGLL 031250Z AUTO 19004KT 110V290 9999 BKN039 24/13
                        Q1019 NOSIG=
201908031220 METAR COR EGLL 031220Z AUTO 18005KT 140V220 9999 BKN037 BKN043
                        24/13 Q1019 NOSIG=
201908031150 METAR COR EGLL 031150Z AUTO 13004KT 070V190 9999 SCT034 23/13
                        Q1019 NOSIG=
201908031120 METAR COR EGLL 031120Z AUTO VRB03KT 9999 BKN032 23/14 Q1019
                        NOSIG=
201908031050 METAR COR EGLL 031050Z AUTO VRB03KT 9999 SCT030 22/14 Q1019
                        NOSIG=
201908031020 METAR COR EGLL 031020Z AUTO 14004KT 060V200 9999 BKN026 23/14
                        Q1020 NOSIG=
201908030950 METAR COR EGLL 030950Z AUTO VRB03KT 9999 BKN024 21/14 Q1020
                        NOSIG=
201908030920 METAR EGLL 030920Z AUTO VRB03KT 9999 FEW024 21/15 Q1020=
201908030850 METAR COR EGLL 030850Z AUTO 12005KT 070V160 9999 SCT021 20/15
                        Q1020 NOSIG=
201908030820 METAR COR EGLL 030820Z AUTO 12004KT 070V160 9999 NCD 20/15
                        Q1020 NOSIG=
201908030750 METAR COR EGLL 030750Z AUTO 10005KT 060V130 9999 NCD 19/15
                        Q1020 NOSIG=
201908030720 METAR COR EGLL 030720Z AUTO 12005KT 9999 NCD 19/15 Q1020
                        NOSIG=
201908030650 METAR COR EGLL 030650Z AUTO 09003KT 9999 NCD 18/15 Q1020
                        NOSIG=
201908030620 METAR COR EGLL 030620Z AUTO 09004KT 9999 NCD 17/15 Q1020
                        NOSIG=
201908030550 METAR COR EGLL 030550Z AUTO 08003KT 9999 NCD 17/15 Q1020
                        NOSIG=
201908030520 METAR COR EGLL 030520Z AUTO 08002KT 9999 NCD 16/15 Q1020
                        NOSIG=
201908030450 METAR COR EGLL 030450Z AUTO 07003KT 9999 NCD 15/14 Q1020
                        NOSIG=
201908030420 METAR COR EGLL 030420Z AUTO 08004KT 9999 NCD 15/14 Q1020
                        NOSIG=
201908030350 METAR COR EGLL 030350Z AUTO 09005KT 9999 NCD 15/14 Q1020
                        NOSIG=
201908030320 METAR COR EGLL 030320Z AUTO 09003KT 9999 NCD 15/14 Q1020
                        NOSIG=
201908030250 METAR COR EGLL 030250Z AUTO 08003KT 9999 NCD 15/14 Q1020
                        NOSIG=
201908030220 METAR COR EGLL 030220Z AUTO 09005KT 9999 NCD 15/14 Q1020
                        NOSIG=
201908030150 METAR COR EGLL 030150Z AUTO 10004KT 9999 NCD 16/15 Q1020
                        NOSIG=
201908030120 METAR COR EGLL 030120Z AUTO 10005KT 9999 NCD 16/14 Q1019
                        NOSIG=
201908030050 METAR COR EGLL 030050Z AUTO 08005KT 9999 NCD 16/15 Q1019
                        NOSIG=
201908030020 METAR COR EGLL 030020Z AUTO 09004KT 9999 NCD 17/15 Q1020
                        NOSIG=
201908022350 METAR COR EGLL 022350Z AUTO 07004KT 9999 NCD 17/15 Q1020
                        NOSIG=
201908022320 METAR COR EGLL 022320Z AUTO VRB03KT 9999 NCD 18/15 Q1020
                        NOSIG=
201908022250 METAR COR EGLL 022250Z AUTO 08005KT 9999 NCD 18/15 Q1020
                        NOSIG=
201908022220 METAR COR EGLL 022220Z AUTO 09008KT 9999 NCD 19/15 Q1020
                        NOSIG=
201908022150 METAR COR EGLL 022150Z AUTO 07005KT 9999 NCD 20/14 Q1019
                        NOSIG=
201908022120 METAR COR EGLL 022120Z AUTO 06006KT 9999 NCD 22/12 Q1019
                        NOSIG=
201908022050 METAR COR EGLL 022050Z AUTO 05006KT 9999 NCD 22/12 Q1020
                        NOSIG=
201908022020 METAR COR EGLL 022020Z AUTO 05006KT 010V080 9999 NCD 22/12
                        Q1019 NOSIG=
201908021950 METAR COR EGLL 021950Z AUTO 04005KT 360V090 9999 NCD 23/12
                        Q1019 NOSIG=
201908021920 METAR COR EGLL 021920Z AUTO 04005KT 010V080 9999 NCD 23/11
                        Q1019 NOSIG=
201908021850 METAR COR EGLL 021850Z AUTO 03005KT 350V070 9999 NCD 24/12
                        Q1019 NOSIG=
201908021820 METAR COR EGLL 021820Z AUTO 36004KT 310V040 9999 NCD 25/11
                        Q1019 NOSIG=
201908021750 METAR COR EGLL 021750Z AUTO 02005KT 320V090 9999 NCD 25/11
                        Q1019 NOSIG=
201908021720 METAR COR EGLL 021720Z AUTO 03006KT 310V060 9999 FEW049 25/13
                        Q1019 NOSIG=
201908021650 METAR COR EGLL 021650Z AUTO 03006KT 340V070 9999 FEW049 25/13
                        Q1019 NOSIG=
201908021620 METAR COR EGLL 021620Z AUTO 36005KT 320V030 9999 SCT048 25/12
                        Q1019 NOSIG=
201908021550 METAR COR EGLL 021550Z AUTO 01005KT 310V070 9999 FEW048 25/13
                        Q1019 NOSIG=
201908021520 METAR EGLL 021520Z AUTO 04004KT 340V100 9999 NCD 24/13 Q1019=
201908021450 METAR COR EGLL 021450Z AUTO 01005KT 290V060 9999 FEW046 24/13
                        Q1019 NOSIG=
201908021420 METAR COR EGLL 021420Z AUTO 34005KT 260V040 9999 SCT042 25/13
                        Q1019 NOSIG=
201908021350 METAR EGLL 021350Z AUTO 04006KT 350V080 9999 SCT041 24/14
                        Q1019=
201908021320 METAR COR EGLL 021320Z AUTO 36004KT 280V070 9999 SCT039 23/13
                        Q1019 NOSIG=
201908021250 METAR COR EGLL 021250Z AUTO 34005KT 280V020 9999 FEW040 23/13
                        Q1019 NOSIG=
201908021220 METAR COR EGLL 021220Z AUTO 32005KT 280V030 9999 NCD 23/13
                        Q1019 NOSIG=
201908021150 METAR EGLL 021150Z AUTO 35005KT 300V040 9999 SCT032 SCT042
                        21/14 Q1020=
201908021120 METAR EGLL 021120Z AUTO VRB04KT 9999 BKN047 22/14 Q1020=
201908021050 METAR EGLL 021050Z AUTO 01005KT 330V080 9999 FEW033 BKN042
                        21/14 Q1020=
201908021020 METAR COR EGLL 021020Z AUTO 36005KT 320V050 9999 SCT035 BKN042
                        21/14 Q1020 NOSIG=
201908020950 METAR COR EGLL 020950Z AUTO 34005KT 320V040 9999 FEW026 BKN031
                        OVC039 20/14 Q1020 NOSIG=
201908020920 METAR COR EGLL 020920Z AUTO 02005KT 320V070 9999 BKN026 BKN036
                        20/14 Q1020 NOSIG=
201908020850 METAR COR EGLL 020850Z AUTO 03005KT 340V080 9999 SCT022 BKN028
                        20/14 Q1019 NOSIG=
201908020820 METAR COR EGLL 020820Z AUTO 01005KT 340V070 9999 SCT021 19/14
                        Q1019 NOSIG=
201908020750 METAR COR EGLL 020750Z AUTO 35006KT 310V030 9999 FEW019 19/14
                        Q1019 NOSIG=
201908020720 METAR COR EGLL 020720Z AUTO 35005KT 310V030 9999 NCD 19/15
                        Q1019 NOSIG=
201908020650 METAR COR EGLL 020650Z AUTO 35004KT 310V040 9999 FEW015 18/15
                        Q1019 NOSIG=
201908020620 METAR COR EGLL 020620Z AUTO VRB03KT 9999 BKN012 17/15 Q1019
                        BECMG SCT012=
201908020550 METAR COR EGLL 020550Z AUTO 36004KT 310V040 9999 OVC010 17/15
                        Q1019 BECMG BKN015=
201908020520 METAR COR EGLL 020520Z AUTO 36004KT 320V040 9999 OVC010 16/15
                        Q1019 TEMPO BKN008=
201908020450 METAR COR EGLL 020450Z AUTO VRB03KT 9999 SCT012 16/15 Q1019
                        TEMPO BKN008=
201908020420 METAR COR EGLL 020420Z AUTO 02003KT 9999 NCD 16/14 Q1019
                        TEMPO BKN008=
201908020350 METAR COR EGLL 020350Z AUTO VRB02KT 9999 NCD 16/15 Q1019
                        NOSIG=
201908020320 METAR EGLL 020320Z AUTO 35003KT 9999 NCD 16/14 Q1019=
201908020250 METAR COR EGLL 020250Z AUTO VRB03KT 9999 NCD 17/14 Q1019
                        NOSIG=
201908020220 METAR COR EGLL 020220Z AUTO VRB03KT 9999 NCD 17/14 Q1019
                        NOSIG=
201908020150 METAR COR EGLL 020150Z AUTO VRB03KT 9999 NCD 18/14 Q1019
                        NOSIG=
201908020120 METAR COR EGLL 020120Z AUTO 05005KT 9999 NCD 18/14 Q1019
                        NOSIG=
201908020050 METAR COR EGLL 020050Z AUTO 04006KT 9999 NCD 18/15 Q1019
                        NOSIG=
201908020020 METAR COR EGLL 020020Z AUTO 05005KT 9999 NCD 19/15 Q1018
                        NOSIG=
201908012350 METAR COR EGLL 012350Z AUTO 04005KT 360V070 9999 NCD 19/14
                        Q1018 NOSIG=
201908012320 METAR COR EGLL 012320Z AUTO 05005KT 010V080 9999 NCD 20/14
                        Q1018 NOSIG=
201908012250 METAR EGLL 012250Z AUTO 05005KT 9999 NCD 20/14 Q1018=
201908012220 METAR COR EGLL 012220Z AUTO 05005KT 010V090 9999 NCD 21/14
                        Q1018 NOSIG=
201908012150 METAR COR EGLL 012150Z AUTO 05005KT 350V080 9999 NCD 22/15
                        Q1018 NOSIG=
201908012120 METAR COR EGLL 012120Z AUTO 03004KT 350V060 9999 NCD 22/15
                        Q1018 NOSIG=
201908012050 METAR EGLL 012050Z AUTO 03004KT 9999 NCD 22/15 Q1018=
201908012020 METAR COR EGLL 012020Z AUTO 05004KT 9999 NCD 22/14 Q1018
                        NOSIG=
201908011950 METAR COR EGLL 011950Z AUTO 36005KT 320V040 9999 NCD 22/14
                        Q1017 NOSIG=
201908011920 METAR COR EGLL 011920Z AUTO 36006KT 330V030 9999 -RA NCD
                        23/14 Q1017 TEMPO SHRA=
201908011850 METAR COR EGLL 011850Z 33005KT 290V040 9999 VCSH BKN048TCU
                        24/13 Q1017 TEMPO SHRA=
201908011820 METAR COR EGLL 011820Z AUTO 32006KT 290V350 9999 //////TCU
                        24/12 Q1017 TEMPO SHRA=
201908011750 METAR COR EGLL 011750Z AUTO 35004KT 290V060 9999 FEW048 25/13
                        Q1016 NOSIG=
201908011720 METAR COR EGLL 011720Z AUTO 32004KT 270V020 9999 FEW049 25/13
                        Q1016 NOSIG=
201908011650 METAR COR EGLL 011650Z AUTO 31006KT 270V010 9999 NCD 25/13
                        Q1016 NOSIG=
201908011620 METAR COR EGLL 011620Z AUTO 33006KT 290V010 9999 NCD 25/12
                        Q1016 NOSIG=
201908011550 METAR COR EGLL 011550Z AUTO 29006KT 250V360 9999 FEW048 25/12
                        Q1016 NOSIG=
201908011520 METAR COR EGLL 011520Z AUTO 29006KT 200V340 9999 SCT046 25/13
                        Q1017 NOSIG=
201908011450 METAR COR EGLL 011450Z AUTO 29005KT 250V340 9999 FEW048 25/12
                        Q1017 NOSIG=
201908011420 METAR COR EGLL 011420Z AUTO 32004KT 270V010 9999 NCD 24/13
                        Q1017 NOSIG=
201908011350 METAR COR EGLL 011350Z AUTO 30006KT 260V010 9999 SCT039 24/13
                        Q1017 NOSIG=
201908011320 METAR COR EGLL 011320Z AUTO VRB04KT 9999 SCT036 24/14 Q1018
                        NOSIG=
201908011250 METAR COR EGLL 011250Z AUTO 29004KT 200V330 9999 FEW032 23/14
                        Q1018 NOSIG=
201908011220 METAR COR EGLL 011220Z AUTO 28004KT 250V320 9999 FEW035 22/14
                        Q1018 NOSIG=
201908011150 METAR COR EGLL 011150Z AUTO 30005KT 270V340 9999 SCT028 BKN034
                        21/14 Q1018 NOSIG=
201908011120 METAR COR EGLL 011120Z AUTO 32005KT 260V010 9999 FEW025 SCT031
                        21/14 Q1018 NOSIG=
201908011050 METAR COR EGLL 011050Z AUTO 32004KT 270V050 9999 FEW023 OVC042
                        21/15 Q1018 NOSIG=
201908011020 METAR COR EGLL 011020Z AUTO 33005KT 290V030 9999 FEW023 SCT028
                        BKN034 20/14 Q1018 NOSIG=
201908010950 METAR COR EGLL 010950Z AUTO 31006KT 280V360 9999 BKN023 OVC031
                        19/14 Q1018 NOSIG=
201908010920 METAR COR EGLL 010920Z AUTO 30005KT 250V010 9999 FEW021 BKN026
                        20/14 Q1017 NOSIG=
201908010850 METAR COR EGLL 010850Z AUTO 30004KT 240V350 9999 SCT018 BKN023
                        BKN033 19/14 Q1017 NOSIG=
201908010820 METAR EGLL 010820Z AUTO 30006KT 260V360 9999 FEW018 BKN032
                        19/14 Q1017=
201908010750 METAR COR EGLL 010750Z AUTO 29007KT 260V330 9999 NCD 18/14
                        Q1017 NOSIG=
201908010720 METAR COR EGLL 010720Z AUTO 29006KT 9999 SCT027 18/14 Q1017
                        NOSIG=
201908010650 METAR COR EGLL 010650Z AUTO 27006KT 9999 BKN025 17/14 Q1017
                        NOSIG=
201908010620 METAR COR EGLL 010620Z AUTO 27006KT 9999 BKN023 16/13 Q1017
                        NOSIG=
201908010550 METAR COR EGLL 010550Z 28007KT 9999 SCT022 15/13 Q1017 NOSIG=
201908010520 METAR COR EGLL 010520Z AUTO 27007KT 9999 SCT022 15/13 Q1017
                        NOSIG=
201908010450 METAR COR EGLL 010450Z AUTO 27007KT 9999 SCT019 15/13 Q1017
                        NOSIG=
201908010420 METAR COR EGLL 010420Z AUTO 27005KT 9999 OVC018 15/13 Q1017
                        NOSIG=
201908010350 METAR COR EGLL 010350Z AUTO 26006KT 9999 BKN019 15/13 Q1016
                        NOSIG=
201908010320 METAR COR EGLL 010320Z AUTO 25006KT 9999 NCD 16/13 Q1016
                        NOSIG=
201908010250 METAR COR EGLL 010250Z AUTO 27007KT 9999 FEW049 15/13 Q1016
                        NOSIG=
201908010220 METAR COR EGLL 010220Z AUTO 25007KT 9999 SCT047 16/13 Q1016
                        NOSIG=
201908010150 METAR COR EGLL 010150Z AUTO 25007KT 9999 NCD 16/13 Q1016
                        NOSIG=
201908010120 METAR COR EGLL 010120Z AUTO 25006KT 9999 FEW046 16/13 Q1016
                        NOSIG=
201908010050 METAR COR EGLL 010050Z AUTO 26007KT 9999 SCT044 17/13 Q1016
                        NOSIG=
201908010020 METAR COR EGLL 010020Z AUTO 26008KT 9999 NCD 17/12 Q1016
                        NOSIG=

</pre>

</body>
</html>
