##########################################################
# Query made at 01/13/2020 13:54:59 UTC
# Time interval: from 08/01/2018 00:00  to 08/31/2018 23:59  UTC
##########################################################

##########################################################
# EGLL, London / Heathrow Airport (United Kingdom)
# WMO index: 03772
# Latitude 51-29N. Longitude 000-27W. Altitude 24 m.
##########################################################

###################################
#  METAR/SPECI from EGLL
###################################
201808312350 METAR COR EGLL 312350Z AUTO 14003KT 9999 NCD 14/11 Q1025
                        NOSIG=
201808312320 METAR COR EGLL 312320Z AUTO 14005KT 9999 NCD 15/11 Q1025
                        NOSIG=
201808312250 METAR COR EGLL 312250Z AUTO 14003KT 9999 NCD 15/11 Q1025
                        NOSIG=
201808312220 METAR COR EGLL 312220Z AUTO 24004KT 9999 NCD 15/11 Q1025
                        NOSIG=
201808312150 METAR COR EGLL 312150Z AUTO 20004KT 9999 NCD 17/12 Q1025
                        NOSIG=
201808312120 METAR COR EGLL 312120Z AUTO 17007KT 110V220 9999 NCD 17/12
                        Q1024 NOSIG=
201808312050 METAR COR EGLL 312050Z AUTO 16007KT 120V230 9999 NCD 18/12
                        Q1024 NOSIG=
201808312020 METAR COR EGLL 312020Z AUTO VRB06KT 9999 SCT049 18/12 Q1024
                        NOSIG=
201808311950 METAR COR EGLL 311950Z AUTO 18006KT 160V230 9999 BKN047 18/12
                        Q1024 NOSIG=
201808311920 METAR COR EGLL 311920Z AUTO 20007KT 170V230 9999 BKN043 18/12
                        Q1023 NOSIG=
201808311850 METAR COR EGLL 311850Z AUTO 19008KT 9999 BKN043 19/12 Q1023
                        NOSIG=
201808311820 METAR COR EGLL 311820Z AUTO 19006KT 160V220 9999 FEW042 BKN049
                        19/12 Q1023 NOSIG=
201808311750 METAR COR EGLL 311750Z AUTO 20009KT 9999 SCT036 BKN044 20/12
                        Q1023 NOSIG=
201808311720 METAR COR EGLL 311720Z AUTO 08007KT 9999 BKN046 20/10 Q1022
                        NOSIG=
201808311650 METAR COR EGLL 311650Z AUTO 05004KT 010V100 9999 NCD 21/09
                        Q1022 NOSIG=
201808311620 METAR COR EGLL 311620Z AUTO 09005KT 050V150 9999 NCD 20/09
                        Q1022 NOSIG=
201808311550 METAR COR EGLL 311550Z AUTO VRB03KT 9999 NCD 21/09 Q1023
                        NOSIG=
201808311520 METAR COR EGLL 311520Z AUTO 03005KT 360V080 9999 NCD 22/10
                        Q1023 NOSIG=
201808311450 METAR COR EGLL 311450Z AUTO VRB03KT 9999 NCD 20/10 Q1023
                        NOSIG=
201808311420 METAR COR EGLL 311420Z AUTO 35007KT 320V030 9999 NCD 20/09
                        Q1023 NOSIG=
201808311350 METAR COR EGLL 311350Z AUTO VRB04KT 9999 NCD 20/09 Q1023
                        NOSIG=
201808311320 METAR COR EGLL 311320Z AUTO 14005KT 070V160 9999 SCT045 21/10
                        Q1023 NOSIG=
201808311250 METAR COR EGLL 311250Z AUTO VRB03KT 9999 BKN041 21/10 Q1023
                        NOSIG=
201808311220 METAR COR EGLL 311220Z AUTO 05005KT 320V110 9999 SCT041 20/10
                        Q1023 NOSIG=
201808311150 METAR COR EGLL 311150Z AUTO VRB03KT 9999 SCT038 20/10 Q1023
                        NOSIG=
201808311120 METAR COR EGLL 311120Z AUTO VRB02KT 9999 FEW037 SCT044 19/11
                        Q1023 NOSIG=
201808311050 METAR COR EGLL 311050Z AUTO VRB04KT 9999 FEW033 18/11 Q1024
                        NOSIG=
201808311020 METAR COR EGLL 311020Z AUTO VRB03KT 9999 FEW030 19/12 Q1024
                        NOSIG=
201808310950 METAR COR EGLL 310950Z AUTO 02004KT 340V050 9999 FEW023 SCT030
                        18/12 Q1024 NOSIG=
201808310920 METAR COR EGLL 310920Z AUTO 04005KT 010V090 9999 SCT019 17/12
                        Q1024 NOSIG=
201808310850 METAR COR EGLL 310850Z AUTO 07004KT 010V110 9999 NCD 17/12
                        Q1024 NOSIG=
201808310820 METAR COR EGLL 310820Z AUTO 08005KT 9999 NCD 16/12 Q1024
                        NOSIG=
201808310750 METAR COR EGLL 310750Z AUTO 05004KT 010V080 9999 NCD 14/12
                        Q1024 NOSIG=
201808310720 METAR COR EGLL 310720Z AUTO 04005KT 9999 NCD 14/11 Q1024
                        NOSIG=
201808310650 METAR COR EGLL 310650Z AUTO 05004KT 9999 NCD 13/11 Q1023
                        NOSIG=
201808310620 METAR COR EGLL 310620Z AUTO 01004KT 9999 NCD 12/10 Q1023
                        NOSIG=
201808310550 METAR COR EGLL 310550Z AUTO VRB02KT 9999 NCD 11/10 Q1023
                        NOSIG=
201808310520 METAR COR EGLL 310520Z AUTO VRB02KT 9999 NCD 11/10 Q1023
                        NOSIG=
201808310450 METAR COR EGLL 310450Z AUTO 03002KT 9999 NCD 12/10 Q1023
                        NOSIG=
201808310420 METAR COR EGLL 310420Z AUTO 02003KT 9999 NCD 12/10 Q1023
                        NOSIG=
201808310350 METAR COR EGLL 310350Z AUTO VRB02KT 9999 NCD 12/10 Q1023
                        NOSIG=
201808310320 METAR COR EGLL 310320Z AUTO 03004KT 9999 NCD 12/10 Q1023
                        NOSIG=
201808310250 METAR COR EGLL 310250Z AUTO 03003KT 9999 NCD 12/10 Q1023
                        NOSIG=
201808310220 METAR COR EGLL 310220Z AUTO 02002KT 9999 NCD 11/10 Q1023
                        NOSIG=
201808310150 METAR COR EGLL 310150Z AUTO VRB02KT 9999 NCD 13/11 Q1023
                        NOSIG=
201808310120 METAR COR EGLL 310120Z AUTO 04003KT 9999 NCD 13/11 Q1023
                        NOSIG=
201808310050 METAR COR EGLL 310050Z AUTO 06004KT 020V100 9999 NCD 13/11
                        Q1023 NOSIG=
201808310020 METAR COR EGLL 310020Z AUTO 05005KT 9999 NCD 14/11 Q1023
                        NOSIG=
201808302350 METAR COR EGLL 302350Z AUTO 05005KT 9999 NCD 14/11 Q1023
                        NOSIG=
201808302320 METAR COR EGLL 302320Z AUTO 05005KT 9999 NCD 14/11 Q1023
                        NOSIG=
201808302250 METAR COR EGLL 302250Z AUTO 04006KT 9999 NCD 15/10 Q1024
                        NOSIG=
201808302220 METAR COR EGLL 302220Z AUTO 03005KT 9999 NCD 15/09 Q1023
                        NOSIG=
201808302150 METAR COR EGLL 302150Z AUTO 05004KT 9999 NCD 15/07 Q1023
                        NOSIG=
201808302120 METAR COR EGLL 302120Z AUTO 05005KT 9999 NCD 16/07 Q1023
                        NOSIG=
201808302050 METAR COR EGLL 302050Z AUTO 05003KT 9999 NCD 17/06 Q1023
                        NOSIG=
201808302020 METAR COR EGLL 302020Z AUTO 05004KT 020V080 9999 NCD 17/06
                        Q1023 NOSIG=
201808301950 METAR COR EGLL 301950Z AUTO 05004KT 9999 NCD 17/06 Q1023
                        NOSIG=
201808301920 METAR COR EGLL 301920Z AUTO VRB03KT 9999 NCD 18/06 Q1023
                        NOSIG=
201808301850 METAR COR EGLL 301850Z AUTO 05003KT 9999 NCD 18/05 Q1022
                        NOSIG=
201808301820 METAR COR EGLL 301820Z AUTO 06004KT 030V090 9999 NCD 18/05
                        Q1022 NOSIG=
201808301750 METAR COR EGLL 301750Z AUTO VRB03KT 9999 NCD 19/06 Q1022
                        NOSIG=
201808301720 METAR COR EGLL 301720Z AUTO VRB03KT 9999 NCD 19/05 Q1023
                        NOSIG=
201808301650 METAR COR EGLL 301650Z AUTO VRB03KT 9999 NCD 20/05 Q1023
                        NOSIG=
201808301620 METAR COR EGLL 301620Z AUTO 33005KT 300V030 9999 NCD 20/06
                        Q1023 NOSIG=
201808301550 METAR COR EGLL 301550Z AUTO 02005KT 300V070 9999 NCD 19/06
                        Q1023 NOSIG=
201808301520 METAR COR EGLL 301520Z AUTO VRB02KT 9999 NCD 19/06 Q1023
                        NOSIG=
201808301450 METAR COR EGLL 301450Z AUTO 34004KT 280V070 9999 NCD 20/06
                        Q1023 NOSIG=
201808301420 METAR EGLL 301420Z AUTO 08005KT 020V130 9999 NCD 20/05 Q1023=
201808301350 METAR COR EGLL 301350Z AUTO VRB03KT 9999 NCD 20/06 Q1023
                        NOSIG=
201808301320 METAR COR EGLL 301320Z AUTO VRB03KT 9999 NCD 19/06 Q1023
                        NOSIG=
201808301250 METAR COR EGLL 301250Z AUTO 05005KT 340V090 9999 BKN044 18/07
                        Q1023 NOSIG=
201808301220 METAR COR EGLL 301220Z AUTO VRB05KT 9999 SCT044 19/08 Q1023
                        NOSIG=
201808301150 METAR COR EGLL 301150Z AUTO 04006KT 360V090 9999 FEW045 19/08
                        Q1023 NOSIG=
201808301120 METAR COR EGLL 301120Z AUTO 02005KT 340V090 9999 NCD 18/07
                        Q1023 NOSIG=
201808301050 METAR COR EGLL 301050Z AUTO 02004KT 280V090 9999 FEW039 18/08
                        Q1023 NOSIG=
201808301020 METAR COR EGLL 301020Z AUTO 05004KT 330V120 9999 NCD 18/08
                        Q1024 NOSIG=
201808300950 METAR COR EGLL 300950Z AUTO VRB03KT 9999 NCD 17/09 Q1024
                        NOSIG=
201808300920 METAR COR EGLL 300920Z AUTO VRB03KT 9999 NCD 16/08 Q1024
                        NOSIG=
201808300850 METAR COR EGLL 300850Z AUTO 02004KT 330V080 9999 NCD 15/08
                        Q1024 NOSIG=
201808300820 METAR COR EGLL 300820Z AUTO 02005KT 320V050 9999 NCD 14/08
                        Q1024 NOSIG=
201808300750 METAR COR EGLL 300750Z AUTO 04004KT 330V100 9999 NCD 14/08
                        Q1024 NOSIG=
201808300720 METAR COR EGLL 300720Z AUTO VRB03KT 9999 NCD 13/09 Q1024
                        NOSIG=
201808300650 METAR COR EGLL 300650Z AUTO 36005KT 9999 NCD 12/09 Q1023
                        NOSIG=
201808300620 METAR COR EGLL 300620Z AUTO VRB02KT 9999 NCD 11/09 Q1023
                        NOSIG=
201808300550 METAR COR EGLL 300550Z AUTO 31002KT 9999 NCD 10/08 Q1023
                        NOSIG=
201808300520 METAR COR EGLL 300520Z AUTO VRB03KT 9999 NCD 10/08 Q1023
                        NOSIG=
201808300450 METAR COR EGLL 300450Z AUTO 31002KT 9999 NCD 10/08 Q1023
                        NOSIG=
201808300420 METAR COR EGLL 300420Z AUTO VRB02KT 9999 NCD 10/08 Q1023
                        NOSIG=
201808300350 METAR COR EGLL 300350Z AUTO 29003KT 9999 NCD 10/08 Q1023
                        NOSIG=
201808300320 METAR COR EGLL 300320Z AUTO VRB03KT 9999 NCD 11/08 Q1023
                        NOSIG=
201808300250 METAR COR EGLL 300250Z AUTO 30004KT 9999 NCD 12/09 Q1023
                        NOSIG=
201808300220 METAR COR EGLL 300220Z AUTO VRB03KT 9999 NCD 12/09 Q1023
                        NOSIG=
201808300150 METAR COR EGLL 300150Z AUTO 30004KT 9999 NCD 12/09 Q1023
                        NOSIG=
201808300120 METAR EGLL 300120Z AUTO 29004KT 9999 NCD 12/08 Q1022=
201808300050 METAR COR EGLL 300050Z AUTO 29004KT 9999 NCD 11/08 Q1022
                        NOSIG=
201808300020 METAR COR EGLL 300020Z AUTO 29005KT 9999 NCD 11/08 Q1022
                        NOSIG=
201808292350 METAR COR EGLL 292350Z AUTO VRB03KT 9999 NCD 13/09 Q1022
                        NOSIG=
201808292320 METAR COR EGLL 292320Z AUTO 31003KT 9999 NCD 13/09 Q1022
                        NOSIG=
201808292250 METAR COR EGLL 292250Z AUTO 29003KT 9999 NCD 14/09 Q1022
                        NOSIG=
201808292220 METAR COR EGLL 292220Z AUTO VRB03KT 9999 NCD 14/09 Q1022
                        NOSIG=
201808292150 METAR COR EGLL 292150Z AUTO 31004KT 280V350 9999 NCD 15/10
                        Q1021 NOSIG=
201808292120 METAR COR EGLL 292120Z AUTO VRB02KT 9999 NCD 14/11 Q1021
                        NOSIG=
201808292050 METAR COR EGLL 292050Z AUTO VRB03KT 9999 NCD 15/11 Q1021
                        NOSIG=
201808292020 METAR COR EGLL 292020Z AUTO 32004KT 290V020 9999 NCD 16/11
                        Q1020 NOSIG=
201808291950 METAR COR EGLL 291950Z AUTO 31005KT 9999 NCD 16/11 Q1020
                        NOSIG=
201808291920 METAR COR EGLL 291920Z AUTO 31005KT 9999 NCD 16/12 Q1020
                        NOSIG=
201808291850 METAR COR EGLL 291850Z AUTO 31005KT 290V350 9999 NCD 17/12
                        Q1019 NOSIG=
201808291820 METAR COR EGLL 291820Z AUTO 31006KT 9999 NCD 18/12 Q1019
                        NOSIG=
201808291750 METAR COR EGLL 291750Z AUTO 32005KT 280V360 9999 NCD 19/12
                        Q1018 NOSIG=
201808291720 METAR COR EGLL 291720Z AUTO 33006KT 300V010 9999 NCD 19/12
                        Q1018 NOSIG=
201808291650 METAR COR EGLL 291650Z AUTO 30006KT 9999 NCD 19/12 Q1017
                        NOSIG=
201808291620 METAR COR EGLL 291620Z AUTO 31006KT 280V350 9999 NCD 19/11
                        Q1017 NOSIG=
201808291550 METAR COR EGLL 291550Z AUTO 31006KT 9999 SCT038 OVC048 19/12
                        Q1017 NOSIG=
201808291520 METAR COR EGLL 291520Z AUTO 30006KT 9999 BKN042 19/11 Q1017
                        NOSIG=
201808291450 METAR COR EGLL 291450Z AUTO 32007KT 9999 NCD 19/11 Q1016
                        NOSIG=
201808291420 METAR COR EGLL 291420Z AUTO 31008KT 9999 SCT040 OVC049 19/11
                        Q1016 NOSIG=
201808291350 METAR COR EGLL 291350Z AUTO 30008KT 270V340 9999 FEW040 BKN048
                        20/11 Q1016 NOSIG=
201808291320 METAR COR EGLL 291320Z AUTO 33006KT 280V020 9999 SCT034 BKN049
                        19/11 Q1016 NOSIG=
201808291250 METAR COR EGLL 291250Z AUTO 32005KT 290V350 9999 BKN043 19/12
                        Q1015 NOSIG=
201808291220 METAR COR EGLL 291220Z AUTO 32007KT 270V010 9999 FEW030 BKN044
                        18/12 Q1015 NOSIG=
201808291150 METAR COR EGLL 291150Z AUTO 31007KT 280V350 9999 FEW025 BKN048
                        18/12 Q1015 NOSIG=
201808291120 METAR COR EGLL 291120Z AUTO 32007KT 270V020 9999 SCT021 17/12
                        Q1015 NOSIG=
201808291050 METAR COR EGLL 291050Z AUTO 30006KT 260V330 9999 NCD 17/12
                        Q1015 NOSIG=
201808291020 METAR COR EGLL 291020Z AUTO 31005KT 9999 NCD 16/12 Q1014
                        NOSIG=
201808290950 METAR COR EGLL 290950Z AUTO 30005KT 270V330 9999 NCD 15/12
                        Q1014 NOSIG=
201808290920 METAR COR EGLL 290920Z AUTO 31004KT 280V350 9999 NCD 15/13
                        Q1014 NOSIG=
201808290850 METAR COR EGLL 290850Z AUTO VRB02KT 9999 OVC047/// //////TCU
                        15/13 Q1014 NOSIG=
201808290820 METAR COR EGLL 290820Z AUTO VRB02KT 9999 BKN044/// //////CB
                        14/13 Q1014 NOSIG=
201808290750 METAR COR EGLL 290750Z AUTO 30004KT 250V330 9999 //////TCU
                        14/13 Q1013 NOSIG=
201808290720 METAR COR EGLL 290720Z AUTO 35004KT 280V040 9999 -RA FEW033///
                        SCT042/// //////TCU 13/13 Q1013 NOSIG=
201808290650 METAR COR EGLL 290650Z AUTO 33005KT 290V010 6000 -RA FEW029///
                        BKN035/// BKN042/// //////TCU 13/12
                        Q1013 TEMPO 4000 RA=
201808290620 METAR COR EGLL 290620Z AUTO 31005KT 7000 -RA FEW024/// BKN035///
                        //////TCU 14/13 Q1013 RESHRA TEMPO
                        4000 RA=
201808290550 METAR COR EGLL 290550Z 31005KT 6000 SHRA SCT029 BKN045 14/13
                        Q1013 RESHRA TEMPO 4000=
201808290520 METAR COR EGLL 290520Z 31004KT 6000 SHRA BKN040 14/13 Q1013
                        RESHRA RERA NOSIG=
201808290450 METAR COR EGLL 290450Z AUTO VRB03KT 9000 -RA SCT033/// BKN040///
                        BKN048/// //////TCU 14/13 Q1014 NOSIG=
201808290420 METAR COR EGLL 290420Z AUTO VRB03KT 9999 -RA SCT034/// BKN043///
                        //////CB 14/13 Q1013 NOSIG=
201808290350 METAR COR EGLL 290350Z AUTO 27004KT 7000 -RA SCT030/// BKN042///
                        //////TCU 14/13 Q1013 NOSIG=
201808290320 METAR COR EGLL 290320Z AUTO 25003KT 9999 FEW040 14/12 Q1013
                        NOSIG=
201808290250 METAR COR EGLL 290250Z AUTO 16003KT 9999 SCT039 15/13 Q1013
                        NOSIG=
201808290220 METAR COR EGLL 290220Z AUTO 17003KT 9999 NCD 14/12 Q1013
                        NOSIG=
201808290150 METAR COR EGLL 290150Z AUTO VRB01KT 9999 NCD 15/12 Q1013
                        NOSIG=
201808290120 METAR COR EGLL 290120Z AUTO 06001KT 9999 NCD 14/12 Q1013
                        NOSIG=
201808290050 METAR COR EGLL 290050Z AUTO VRB02KT 9999 NCD 14/12 Q1014
                        NOSIG=
201808290020 METAR COR EGLL 290020Z AUTO 22001KT 9999 NCD 15/12 Q1014
                        NOSIG=
201808282350 METAR COR EGLL 282350Z AUTO 24004KT 9999 FEW046 14/12 Q1015
                        NOSIG=
201808282320 METAR COR EGLL 282320Z AUTO 22003KT 9999 FEW044 14/12 Q1015
                        NOSIG=
201808282250 METAR COR EGLL 282250Z AUTO 20004KT 180V270 9999 FEW043 15/12
                        Q1015 NOSIG=
201808282220 METAR COR EGLL 282220Z AUTO 24005KT 190V270 9999 NCD 15/12
                        Q1015 NOSIG=
201808282150 METAR COR EGLL 282150Z AUTO 27002KT 9999 NCD 15/12 Q1014
                        NOSIG=
201808282120 METAR COR EGLL 282120Z AUTO 23006KT 200V260 9999 NCD 16/12
                        Q1015 NOSIG=
201808282050 METAR COR EGLL 282050Z AUTO 22006KT 9999 NCD 16/12 Q1015
                        NOSIG=
201808282020 METAR COR EGLL 282020Z AUTO 22005KT 9999 NCD 16/11 Q1015
                        NOSIG=
201808281950 METAR COR EGLL 281950Z AUTO 21006KT 180V250 9999 NCD 17/12
                        Q1015 NOSIG=
201808281920 METAR COR EGLL 281920Z AUTO 21006KT 170V260 9999 NCD 17/11
                        Q1015 NOSIG=
201808281850 METAR COR EGLL 281850Z AUTO 20008KT 9999 NCD 18/12 Q1015
                        NOSIG=
201808281820 METAR COR EGLL 281820Z AUTO 18008KT 140V230 9999 FEW037 18/12
                        Q1015 NOSIG=
201808281750 METAR COR EGLL 281750Z AUTO 15007KT 120V200 9999 BKN035 19/11
                        Q1015 NOSIG=
201808281720 METAR COR EGLL 281720Z AUTO 16008KT 9999 BKN036 20/11 Q1015
                        NOSIG=
201808281650 METAR COR EGLL 281650Z AUTO 16004KT 110V200 9999 BKN037 20/11
                        Q1015 NOSIG=
201808281620 METAR COR EGLL 281620Z AUTO 13006KT 100V160 9999 BKN037 20/11
                        Q1015 NOSIG=
201808281550 METAR COR EGLL 281550Z AUTO 17004KT 090V240 9999 BKN037 20/11
                        Q1016 NOSIG=
201808281520 METAR COR EGLL 281520Z AUTO VRB04KT 9999 SCT038 20/10 Q1016
                        NOSIG=
201808281450 METAR COR EGLL 281450Z AUTO 17007G18KT 110V190 9999 BKN038
                        20/10 Q1016 NOSIG=
201808281420 METAR COR EGLL 281420Z AUTO 17005KT 110V240 9999 BKN037 20/10
                        Q1017 NOSIG=
201808281350 METAR COR EGLL 281350Z AUTO 22005KT 160V290 9999 BKN036 20/10
                        Q1017 NOSIG=
201808281320 METAR COR EGLL 281320Z AUTO 28005KT 230V350 9999 OVC038 20/11
                        Q1017 NOSIG=
201808281250 METAR COR EGLL 281250Z AUTO 24009KT 9999 OVC036 19/10 Q1018
                        NOSIG=
201808281220 METAR COR EGLL 281220Z AUTO 21007KT 170V240 9999 OVC036 19/10
                        Q1018 NOSIG=
201808281150 METAR COR EGLL 281150Z AUTO 24008KT 180V270 9999 BKN037 19/10
                        Q1018 NOSIG=
201808281120 METAR COR EGLL 281120Z AUTO 21008KT 170V250 9999 BKN036 18/10
                        Q1018 NOSIG=
201808281050 METAR COR EGLL 281050Z AUTO 20006KT 130V250 9999 OVC034 18/10
                        Q1018 NOSIG=
201808281020 METAR COR EGLL 281020Z AUTO 19008KT 160V230 9999 OVC031 17/10
                        Q1018 NOSIG=
201808280950 METAR COR EGLL 280950Z AUTO 21006KT 150V320 9999 BKN030 OVC040
                        17/10 Q1019 NOSIG=
201808280920 METAR COR EGLL 280920Z AUTO 23008KT 170V250 9999 OVC032 17/10
                        Q1019 NOSIG=
201808280850 METAR COR EGLL 280850Z AUTO 23005KT 200V270 9999 OVC036 17/09
                        Q1019 NOSIG=
201808280820 METAR COR EGLL 280820Z AUTO 19006KT 150V250 9999 OVC034 17/10
                        Q1019 NOSIG=
201808280750 METAR COR EGLL 280750Z AUTO VRB03KT 9999 OVC034 17/11 Q1019
                        NOSIG=
201808280720 METAR COR EGLL 280720Z AUTO 19004KT 150V230 9999 OVC033 16/11
                        Q1019 NOSIG=
201808280650 METAR COR EGLL 280650Z AUTO 20004KT 140V250 9999 OVC033 16/11
                        Q1019 NOSIG=
201808280620 METAR COR EGLL 280620Z AUTO 17004KT 140V220 9999 OVC033 16/11
                        Q1019 NOSIG=
201808280550 METAR COR EGLL 280550Z AUTO 19004KT 160V220 9999 OVC034 16/11
                        Q1018 NOSIG=
201808280520 METAR COR EGLL 280520Z AUTO VRB03KT 9999 OVC034 16/10 Q1018
                        NOSIG=
201808280450 METAR COR EGLL 280450Z AUTO 21004KT 160V290 9999 OVC034 16/10
                        Q1018 NOSIG=
201808280420 METAR COR EGLL 280420Z AUTO VRB02KT 9999 OVC033 16/10 Q1018
                        NOSIG=
201808280350 METAR COR EGLL 280350Z AUTO VRB02KT 9999 OVC033 16/10 Q1018
                        NOSIG=
201808280320 METAR COR EGLL 280320Z AUTO 28002KT 9999 OVC033 16/11 Q1018
                        NOSIG=
201808280250 METAR COR EGLL 280250Z AUTO VRB02KT 9999 OVC032 15/11 Q1018
                        NOSIG=
201808280220 METAR COR EGLL 280220Z AUTO 31002KT 9999 OVC031 16/11 Q1018
                        NOSIG=
201808280150 METAR COR EGLL 280150Z AUTO 29004KT 9999 OVC032 16/12 Q1019
                        NOSIG=
201808280120 METAR COR EGLL 280120Z AUTO 27005KT 9999 OVC033 16/12 Q1019
                        NOSIG=
201808280050 METAR COR EGLL 280050Z AUTO 26005KT 240V300 9999 OVC033 16/11
                        Q1019 NOSIG=
201808280020 METAR COR EGLL 280020Z AUTO 26003KT 9999 OVC033 16/11 Q1019
                        NOSIG=
201808272350 METAR COR EGLL 272350Z AUTO 27005KT 9999 OVC033 16/11 Q1018
                        NOSIG=
201808272320 METAR COR EGLL 272320Z AUTO 27005KT 9999 OVC036 16/11 Q1018
                        NOSIG=
201808272250 METAR COR EGLL 272250Z AUTO 27005KT 9999 OVC038 16/11 Q1018
                        NOSIG=
201808272220 METAR COR EGLL 272220Z AUTO 28005KT 9999 OVC038 16/11 Q1018
                        NOSIG=
201808272150 METAR COR EGLL 272150Z AUTO 27006KT 9999 OVC036 16/12 Q1018
                        NOSIG=
201808272120 METAR COR EGLL 272120Z AUTO 29006KT 9999 OVC036 17/12 Q1018
                        NOSIG=
201808272050 METAR COR EGLL 272050Z AUTO 27007KT 9999 OVC037 17/12 Q1017
                        NOSIG=
201808272020 METAR COR EGLL 272020Z AUTO 27007KT 9999 OVC034 17/11 Q1017
                        NOSIG=
201808271950 METAR COR EGLL 271950Z AUTO 26009KT 9999 BKN033 OVC042 17/11
                        Q1017 NOSIG=
201808271920 METAR COR EGLL 271920Z AUTO 26008KT 9999 OVC036 17/11 Q1016
                        NOSIG=
201808271850 METAR COR EGLL 271850Z AUTO 27009KT 9999 OVC036 18/11 Q1016
                        NOSIG=
201808271820 METAR COR EGLL 271820Z AUTO 27007KT 9999 OVC039 18/11 Q1016
                        NOSIG=
201808271750 METAR COR EGLL 271750Z AUTO 27010KT 9999 OVC040 18/11 Q1015
                        NOSIG=
201808271720 METAR COR EGLL 271720Z AUTO 27009KT 9999 OVC038 18/11 Q1015
                        NOSIG=
201808271650 METAR COR EGLL 271650Z AUTO 26011KT 220V280 9999 OVC043 19/11
                        Q1015 NOSIG=
201808271620 METAR COR EGLL 271620Z AUTO 26012KT 9999 OVC040 19/11 Q1014
                        NOSIG=
201808271550 METAR COR EGLL 271550Z AUTO 27011KT 9999 OVC040 19/11 Q1014
                        NOSIG=
201808271520 METAR COR EGLL 271520Z AUTO 26012KT 9999 OVC034 19/11 Q1014
                        NOSIG=
201808271450 METAR COR EGLL 271450Z AUTO 26013KT 9999 OVC035 19/11 Q1014
                        NOSIG=
201808271420 METAR COR EGLL 271420Z AUTO 26011KT 230V300 9999 BKN034 OVC042
                        19/11 Q1014 NOSIG=
201808271350 METAR COR EGLL 271350Z AUTO 27014KT 9999 OVC035 19/11 Q1013
                        NOSIG=
201808271320 METAR COR EGLL 271320Z AUTO 27013KT 9999 OVC037 19/10 Q1013
                        NOSIG=
201808271250 METAR COR EGLL 271250Z AUTO 26014KT 9999 OVC036 19/10 Q1013
                        NOSIG=
201808271220 METAR COR EGLL 271220Z AUTO 26015KT 9999 OVC037 18/10 Q1013
                        NOSIG=
201808271150 METAR COR EGLL 271150Z AUTO 27014KT 9999 BKN036 19/11 Q1013
                        NOSIG=
201808271120 METAR COR EGLL 271120Z AUTO 27013KT 9999 BKN028 OVC038 17/11
                        Q1013 NOSIG=
201808271050 METAR COR EGLL 271050Z AUTO 27014KT 9999 OVC030 17/11 Q1012
                        NOSIG=
201808271020 METAR COR EGLL 271020Z AUTO 26014KT 9999 OVC031 17/11 Q1012
                        NOSIG=
201808270950 METAR COR EGLL 270950Z AUTO 27015KT 9999 BKN033 17/10 Q1012
                        NOSIG=
201808270920 METAR COR EGLL 270920Z AUTO 27014KT 9999 BKN040 17/11 Q1011
                        NOSIG=
201808270850 METAR COR EGLL 270850Z AUTO 27013KT 9999 NCD 17/10 Q1011
                        NOSIG=
201808270820 METAR COR EGLL 270820Z AUTO 24012KT 9999 SCT040 16/11 Q1011
                        NOSIG=
201808270750 METAR COR EGLL 270750Z AUTO 25011KT 9999 OVC036 15/10 Q1010
                        NOSIG=
201808270720 METAR COR EGLL 270720Z AUTO 28009KT 9999 OVC033 15/10 Q1010
                        NOSIG=
201808270650 METAR COR EGLL 270650Z AUTO 27012KT 9999 OVC034 14/10 Q1010
                        NOSIG=
201808270620 METAR COR EGLL 270620Z AUTO 26013KT 9999 BKN033 14/10 Q1010
                        NOSIG=
201808270550 METAR COR EGLL 270550Z AUTO 26014KT 9999 FEW034 13/10 Q1009
                        NOSIG=
201808270520 METAR COR EGLL 270520Z AUTO 24011KT 9999 NCD 14/12 Q1008
                        NOSIG=
201808270450 METAR COR EGLL 270450Z AUTO 24011KT 9999 NCD 14/12 Q1008
                        NOSIG=
201808270420 METAR COR EGLL 270420Z AUTO 24011KT 9999 FEW023 14/12 Q1007
                        NOSIG=
201808270350 METAR COR EGLL 270350Z AUTO 24012KT 9999 SCT017 SCT046 14/13
                        Q1007 NOSIG=
201808270320 METAR COR EGLL 270320Z AUTO 24011KT 9999 SCT046 15/13 Q1007
                        NOSIG=
201808270250 METAR COR EGLL 270250Z AUTO 24013KT 9999 OVC047 15/13 Q1006
                        NOSIG=
201808270220 METAR COR EGLL 270220Z AUTO 24011KT 9999 NCD 15/13 Q1006
                        NOSIG=
201808270150 METAR COR EGLL 270150Z AUTO 24010KT 9999 NCD 15/13 Q1006
                        NOSIG=
201808270120 METAR COR EGLL 270120Z AUTO 25011KT 9999 SCT047 16/13 Q1006
                        NOSIG=
201808270050 METAR COR EGLL 270050Z AUTO 25009KT 9999 SCT019 BKN048 16/14
                        Q1006 NOSIG=
201808270020 METAR COR EGLL 270020Z AUTO 25010KT 9999 BKN017 BKN021 BKN048
                        17/15 Q1005 NOSIG=
201808262350 METAR COR EGLL 262350Z AUTO 24010KT 9999 BKN027 BKN049 17/15
                        Q1005 NOSIG=
201808262320 METAR COR EGLL 262320Z AUTO 25009KT 9999 OVC047 17/15 Q1005
                        NOSIG=
201808262250 METAR COR EGLL 262250Z AUTO 26008KT 9999 BKN045 17/15 Q1005
                        NOSIG=
201808262220 METAR COR EGLL 262220Z AUTO 25011KT 9999 BKN045 17/15 Q1005
                        NOSIG=
201808262150 METAR COR EGLL 262150Z AUTO 26013KT 9999 BKN038 18/15 Q1004
                        NOSIG=
201808262120 METAR COR EGLL 262120Z AUTO 24012KT 9999 SCT021 BKN026 BKN036
                        18/16 Q1004 TEMPO BKN014=
201808262050 METAR COR EGLL 262050Z AUTO 27011KT 9999 FEW015 SCT019 BKN024
                        18/16 Q1004 TEMPO BKN014=
201808262020 METAR COR EGLL 262020Z AUTO 25011KT 9999 FEW011 SCT017 BKN022
                        18/17 Q1004 TEMPO 4000 -RADZ BKN011=
201808261950 METAR COR EGLL 261950Z 25010KT 9000 -RA SCT005 BKN011 OVC030
                        18/17 Q1004 TEMPO 4000 NSW=
201808261920 METAR COR EGLL 261920Z AUTO 23011KT 4200 HZ BKN008 OVC016
                        18/17 Q1003 TEMPO 5000 -RADZ=
201808261850 METAR COR EGLL 261850Z AUTO 23010KT 200V260 9999 BKN010 OVC016
                        18/17 Q1003 TEMPO -RADZ BKN008=
201808261820 METAR COR EGLL 261820Z AUTO 22011KT 9999 SCT009 BKN012 18/17
                        Q1003 TEMPO BKN009=
201808261750 METAR COR EGLL 261750Z AUTO 21012KT 9999 FEW009 BKN012 OVC029
                        18/17 Q1003 TEMPO BKN009=
201808261720 METAR COR EGLL 261720Z AUTO 21012KT 190V250 9999 BKN010 OVC022
                        18/17 Q1003 TEMPO BKN008=
201808261650 METAR COR EGLL 261650Z AUTO 20012KT 9999 BKN008 OVC014 17/16
                        Q1003 TEMPO 4000 RADZ=
201808261620 METAR COR EGLL 261620Z AUTO 20011KT 170V240 8000 -RA BKN007
                        OVC026 17/16 Q1004 TEMPO 4000 RADZ=
201808261550 METAR COR EGLL 261550Z AUTO 20013KT 180V240 9999 -RA OVC007///
                        //////TCU 16/16 Q1004 TEMPO 4000
                        RADZ=
201808261520 METAR COR EGLL 261520Z AUTO 19015KT 170V240 9999 -RA BKN009///
                        OVC013/// //////TCU 16/15 Q1004 TEMPO
                        RA=
201808261450 METAR COR EGLL 261450Z AUTO 19013KT 170V240 9999 -RA BKN008///
                        BKN013/// OVC017/// //////TCU 15/14
                        Q1005 TEMPO RA=
201808261420 METAR COR EGLL 261420Z AUTO 18015KT 160V230 8000 -RA BKN008///
                        OVC016/// //////TCU 14/13 Q1005 TEMPO
                        RA=
201808261350 METAR COR EGLL 261350Z AUTO 17015G25KT 9999 -RA BKN010///
                        OVC030/// //////CB 14/13 Q1006 TEMPO
                        RA=
201808261320 METAR COR EGLL 261320Z AUTO 17014KT 9999 -RA BKN012/// OVC039///
                        //////TCU 13/12 Q1007 TEMPO RA=
201808261250 METAR COR EGLL 261250Z AUTO 17014KT 8000 -RA BKN010/// BKN016///
                        OVC040/// //////TCU 13/12 Q1008 TEMPO
                        4000 RA=
201808261220 METAR COR EGLL 261220Z AUTO 16013KT 6000 -RA SCT011 BKN016
                        BKN026 13/12 Q1009 TEMPO 4000 RA
                        BKN014=
201808261150 METAR COR EGLL 261150Z AUTO 18015KT 8000 -RA FEW012/// SCT017///
                        BKN035/// 13/12 Q1010 TEMPO 4000
                        RA BKN012=
201808261120 METAR COR EGLL 261120Z 17011KT 9999 -RA FEW013 SCT024 BKN038
                        14/12 Q1010 TEMPO RA BKN014=
201808261050 METAR COR EGLL 261050Z AUTO 17011KT 9999 -RA SCT018/// SCT028///
                        BKN034/// //////TCU 14/12 Q1011 TEMPO
                        RA BKN014=
201808261020 METAR COR EGLL 261020Z AUTO 18012KT 9999 -RA FEW032/// //////TCU
                        14/12 Q1011 TEMPO RA=
201808260950 METAR COR EGLL 260950Z AUTO 18016G26KT 9999 -RA NCD 15/10
                        Q1012 TEMPO RA=
201808260920 METAR COR EGLL 260920Z AUTO 18014KT 9999 NCD 16/09 Q1012
                        NOSIG=
201808260850 METAR COR EGLL 260850Z AUTO 18011G21KT 160V230 9999 NCD 16/10
                        Q1012 NOSIG=
201808260820 METAR COR EGLL 260820Z AUTO 18008KT 090V220 9999 NCD 15/10
                        Q1013 NOSIG=
201808260750 METAR COR EGLL 260750Z AUTO 18008KT 160V240 9999 NCD 15/09
                        Q1013 NOSIG=
201808260720 METAR COR EGLL 260720Z AUTO 17006KT 130V220 9999 NCD 14/09
                        Q1013 NOSIG=
201808260650 METAR COR EGLL 260650Z AUTO 16005KT 9999 NCD 13/09 Q1013
                        NOSIG=
201808260620 METAR COR EGLL 260620Z AUTO VRB05KT 9999 NCD 12/09 Q1014
                        NOSIG=
201808260550 METAR COR EGLL 260550Z AUTO 14004KT 070V180 9999 NCD 12/09
                        Q1014 NOSIG=
201808260520 METAR COR EGLL 260520Z AUTO 16004KT 100V200 9999 NCD 11/09
                        Q1014 NOSIG=
201808260450 METAR COR EGLL 260450Z AUTO VRB04KT 9999 NCD 11/09 Q1014
                        NOSIG=
201808260420 METAR COR EGLL 260420Z AUTO 16004KT 130V270 9999 NCD 11/09
                        Q1014 NOSIG=
201808260350 METAR COR EGLL 260350Z AUTO VRB03KT 9999 NCD 12/09 Q1015
                        NOSIG=
201808260320 METAR COR EGLL 260320Z AUTO 18003KT 9999 NCD 12/09 Q1015
                        NOSIG=
201808260250 METAR COR EGLL 260250Z AUTO 17004KT 9999 NCD 11/09 Q1015
                        NOSIG=
201808260220 METAR COR EGLL 260220Z AUTO VRB01KT 9999 NCD 11/09 Q1016
                        NOSIG=
201808260150 METAR COR EGLL 260150Z AUTO 28002KT 9999 NCD 11/09 Q1016
                        NOSIG=
201808260120 METAR COR EGLL 260120Z AUTO 27003KT 9999 NCD 11/09 Q1016
                        NOSIG=
201808260050 METAR COR EGLL 260050Z AUTO 21003KT 9999 NCD 11/09 Q1016
                        NOSIG=
201808260020 METAR COR EGLL 260020Z AUTO 21003KT 9999 NCD 11/09 Q1016
                        NOSIG=
201808252350 METAR COR EGLL 252350Z AUTO 13001KT 9999 NCD 11/08 Q1016
                        NOSIG=
201808252320 METAR COR EGLL 252320Z AUTO 12001KT 9999 NCD 11/08 Q1016
                        NOSIG=
201808252250 METAR COR EGLL 252250Z AUTO 04002KT 9999 NCD 12/08 Q1016
                        NOSIG=
201808252220 METAR COR EGLL 252220Z AUTO 28004KT 250V320 9999 NCD 12/08
                        Q1016 NOSIG=
201808252150 METAR COR EGLL 252150Z AUTO 30002KT 9999 NCD 13/08 Q1016
                        NOSIG=
201808252120 METAR COR EGLL 252120Z AUTO VRB01KT 9999 NCD 15/07 Q1016
                        NOSIG=
201808252050 METAR COR EGLL 252050Z AUTO 30001KT 9999 NCD 14/07 Q1016
                        NOSIG=
201808252020 METAR COR EGLL 252020Z AUTO VRB01KT 9999 NCD 15/06 Q1016
                        NOSIG=
201808251950 METAR COR EGLL 251950Z AUTO VRB01KT 9999 NCD 15/06 Q1016
                        NOSIG=
201808251920 METAR COR EGLL 251920Z AUTO VRB03KT 9999 NCD 15/07 Q1016
                        NOSIG=
201808251850 METAR COR EGLL 251850Z AUTO VRB03KT 9999 NCD 17/07 Q1016
                        NOSIG=
201808251820 METAR COR EGLL 251820Z AUTO 35004KT 300V040 9999 NCD 17/06
                        Q1016 NOSIG=
201808251750 METAR COR EGLL 251750Z AUTO 32005KT 290V010 9999 NCD 18/07
                        Q1016 NOSIG=
201808251720 METAR COR EGLL 251720Z AUTO 34006KT 300V030 9999 NCD 17/08
                        Q1016 NOSIG=
201808251650 METAR COR EGLL 251650Z AUTO 32006KT 290V010 9999 NCD 18/07
                        Q1015 NOSIG=
201808251620 METAR COR EGLL 251620Z AUTO 34004KT 290V060 9999 NCD 19/07
                        Q1015 NOSIG=
201808251550 METAR COR EGLL 251550Z AUTO 04006KT 360V070 9999 NCD 19/07
                        Q1015 NOSIG=
201808251520 METAR COR EGLL 251520Z AUTO 01007KT 320V050 9999 NCD 18/07
                        Q1015 NOSIG=
201808251450 METAR COR EGLL 251450Z AUTO 34005KT 290V020 9999 NCD 18/06
                        Q1015 NOSIG=
201808251420 METAR COR EGLL 251420Z 33006G18KT 260V080 9999 FEW045TCU
                        19/04 Q1015 NOSIG=
201808251350 METAR COR EGLL 251350Z AUTO 32007KT 250V020 9999 BKN046 18/06
                        Q1015 NOSIG=
201808251320 METAR COR EGLL 251320Z AUTO 26010KT 220V300 9999 FEW044///
                        //////CB 18/07 Q1015 NOSIG=
201808251250 METAR COR EGLL 251250Z AUTO 29004KT 220V360 9999 SCT042 18/08
                        Q1015 NOSIG=
201808251220 METAR COR EGLL 251220Z AUTO 28008KT 9999 NCD 17/08 Q1015
                        NOSIG=
201808251150 METAR COR EGLL 251150Z AUTO 29008KT 270V330 9999 FEW038 16/07
                        Q1015 NOSIG=
201808251120 METAR COR EGLL 251120Z AUTO 30007KT 260V330 9999 FEW035 SCT041
                        16/08 Q1015 NOSIG=
201808251050 METAR COR EGLL 251050Z AUTO 28010KT 9999 SCT032 SCT049 16/08
                        Q1015 NOSIG=
201808251020 METAR COR EGLL 251020Z AUTO 31008KT 270V350 9999 SCT029 16/08
                        Q1015 NOSIG=
201808250950 METAR COR EGLL 250950Z AUTO 30008KT 260V360 9999 FEW028 15/09
                        Q1015 NOSIG=
201808250920 METAR COR EGLL 250920Z AUTO 29008KT 260V320 9999 FEW025 15/09
                        Q1015 NOSIG=
201808250850 METAR COR EGLL 250850Z AUTO 30009KT 270V330 9999 NCD 14/09
                        Q1015 NOSIG=
201808250820 METAR COR EGLL 250820Z AUTO 29008KT 260V330 9999 NCD 13/09
                        Q1015 NOSIG=
201808250750 METAR COR EGLL 250750Z AUTO 28010KT 9999 NCD 12/09 Q1015
                        NOSIG=
201808250720 METAR COR EGLL 250720Z AUTO 27010KT 9999 NCD 11/08 Q1015
                        NOSIG=
201808250650 METAR COR EGLL 250650Z AUTO 27010KT 9999 NCD 10/08 Q1014
                        NOSIG=
201808250620 METAR COR EGLL 250620Z AUTO 27008KT 9999 NCD 09/08 Q1014
                        NOSIG=
201808250550 METAR COR EGLL 250550Z AUTO 27009KT 9999 NCD 08/07 Q1014
                        NOSIG=
201808250520 METAR COR EGLL 250520Z AUTO 27008KT 9999 NCD 08/07 Q1014
                        NOSIG=
201808250450 METAR COR EGLL 250450Z AUTO 27006KT 9999 NCD 08/07 Q1014
                        NOSIG=
201808250420 METAR COR EGLL 250420Z AUTO 27008KT 9999 NCD 08/07 Q1013
                        NOSIG=
201808250350 METAR COR EGLL 250350Z AUTO 27008KT 9999 NCD 08/07 Q1013
                        NOSIG=
201808250320 METAR COR EGLL 250320Z AUTO 27008KT 9999 NCD 08/07 Q1013
                        NOSIG=
201808250250 METAR COR EGLL 250250Z AUTO 28009KT 9999 NCD 09/07 Q1013
                        NOSIG=
201808250220 METAR COR EGLL 250220Z AUTO 28009KT 9999 NCD 08/07 Q1013
                        NOSIG=
201808250150 METAR COR EGLL 250150Z AUTO 28009KT 9999 NCD 08/07 Q1013
                        NOSIG=
201808250120 METAR COR EGLL 250120Z AUTO 29008KT 9999 NCD 09/07 Q1013
                        NOSIG=
201808250050 METAR COR EGLL 250050Z AUTO 28009KT 9999 NCD 09/08 Q1013
                        NOSIG=
201808250020 METAR COR EGLL 250020Z AUTO 27010KT 9999 NCD 09/08 Q1013
                        NOSIG=
201808242350 METAR COR EGLL 242350Z AUTO 27010KT 9999 NCD 09/08 Q1013
                        NOSIG=
201808242320 METAR COR EGLL 242320Z AUTO 27009KT 9999 NCD 09/08 Q1013
                        NOSIG=
201808242250 METAR COR EGLL 242250Z AUTO 28009KT 9999 NCD 10/08 Q1013
                        NOSIG=
201808242220 METAR COR EGLL 242220Z AUTO 28009KT 9999 NCD 10/09 Q1012
                        NOSIG=
201808242150 METAR COR EGLL 242150Z AUTO 28007KT 9999 NCD 10/09 Q1012
                        NOSIG=
201808242120 METAR COR EGLL 242120Z AUTO 28009KT 9999 NCD 11/09 Q1012
                        NOSIG=
201808242050 METAR COR EGLL 242050Z AUTO 27011KT 9999 -RA NCD 11/09 Q1012
                        NOSIG=
201808242020 METAR COR EGLL 242020Z AUTO 27012KT 9999 BKN049/// //////TCU
                        11/09 Q1012 NOSIG=
201808241950 METAR COR EGLL 241950Z AUTO 27012KT 9999 -RA SCT036/// BKN043///
                        //////CB 10/09 Q1012 NOSIG=
201808241920 METAR COR EGLL 241920Z AUTO 26014KT 9000 -RA SCT026/// BKN037///
                        //////CB 10/09 Q1012 RESHGR RERA
                        TEMPO 4000 RA=
201808241850 METAR COR EGLL 241850Z AUTO 32011KT 9999 -RA FEW028/// SCT046///
                        //////CB 13/09 Q1012 TEMPO 2000 +RA=
201808241820 METAR COR EGLL 241820Z AUTO 24014KT 9999 -RA FEW044/// //////CB
                        14/10 Q1011 TEMPO 4000 RA=
201808241750 METAR COR EGLL 241750Z AUTO 25018KT 9999 -RA //////TCU 15/08
                        Q1012 TEMPO 4000 RA=
201808241720 METAR COR EGLL 241720Z AUTO 26015KT 9999 -RA FEW042 15/09
                        Q1012 TEMPO 4000 RA=
201808241650 METAR COR EGLL 241650Z AUTO 25017KT 9999 -RA FEW037/// //////CB
                        16/08 Q1012 TEMPO 4000 +SHRA=
201808241620 METAR COR EGLL 241620Z AUTO 29007KT 260V330 9999 //////TCU
                        15/09 Q1012 TEMPO 4000 +SHRA=
201808241550 METAR COR EGLL 241550Z AUTO 31010KT 9999 -RA BKN046/// //////CB
                        15/10 Q1012 TEMPO SHRA=
201808241520 METAR COR EGLL 241520Z AUTO 24014KT 9999 //////CB 18/07 Q1012
                        TEMPO SHRA=
201808241450 METAR COR EGLL 241450Z AUTO 26016KT 9999 //////TCU 18/07
                        Q1012 TEMPO SHRA=
201808241420 METAR COR EGLL 241420Z AUTO 25016KT 9999 BKN046 18/07 Q1013
                        TEMPO SHRA=
201808241350 METAR COR EGLL 241350Z AUTO 23014KT 9999 SCT049 19/07 Q1013
                        NOSIG=
201808241320 METAR EGLL 241320Z AUTO 26012KT 210V290 9999 NCD 19/05 Q1013=
201808241250 METAR COR EGLL 241250Z AUTO 27016KT 240V300 9999 NCD 19/04
                        Q1014 NOSIG=
201808241220 METAR COR EGLL 241220Z AUTO 25015KT 210V270 9999 NCD 19/05
                        Q1014 NOSIG=
201808241150 METAR COR EGLL 241150Z AUTO 24014KT 9999 NCD 20/05 Q1014
                        NOSIG=
201808241120 METAR COR EGLL 241120Z AUTO 27015KT 9999 NCD 18/05 Q1014
                        NOSIG=
201808241050 METAR COR EGLL 241050Z AUTO 26014KT 9999 NCD 18/05 Q1015
                        NOSIG=
201808241020 METAR COR EGLL 241020Z AUTO 26012KT 9999 SCT044 18/05 Q1015
                        NOSIG=
201808240950 METAR COR EGLL 240950Z AUTO 28013KT 250V310 9999 FEW036 SCT044
                        17/06 Q1015 NOSIG=
201808240920 METAR COR EGLL 240920Z AUTO 27012KT 9999 FEW038 17/07 Q1015
                        NOSIG=
201808240850 METAR COR EGLL 240850Z AUTO 27012KT 9999 NCD 16/08 Q1015
                        NOSIG=
201808240820 METAR COR EGLL 240820Z AUTO 26012KT 9999 FEW028 15/08 Q1015
                        NOSIG=
201808240750 METAR COR EGLL 240750Z AUTO 25013KT 9999 NCD 14/09 Q1015
                        NOSIG=
201808240720 METAR COR EGLL 240720Z AUTO 26012KT 9999 NCD 13/09 Q1015
                        NOSIG=
201808240650 METAR COR EGLL 240650Z AUTO 26011KT 9999 NCD 12/09 Q1015
                        NOSIG=
201808240620 METAR COR EGLL 240620Z AUTO 27009KT 9999 NCD 11/08 Q1015
                        NOSIG=
201808240550 METAR COR EGLL 240550Z AUTO 27009KT 9999 NCD 11/08 Q1015
                        NOSIG=
201808240520 METAR COR EGLL 240520Z AUTO 28009KT 9999 NCD 10/08 Q1015
                        NOSIG=
201808240450 METAR COR EGLL 240450Z AUTO 27008KT 9999 NCD 10/08 Q1014
                        NOSIG=
201808240420 METAR COR EGLL 240420Z AUTO 27008KT 9999 NCD 10/08 Q1014
                        NOSIG=
201808240350 METAR COR EGLL 240350Z AUTO 27009KT 9999 NCD 11/08 Q1014
                        NOSIG=
201808240320 METAR COR EGLL 240320Z AUTO 27008KT 9999 NCD 11/08 Q1014
                        NOSIG=
201808240250 METAR COR EGLL 240250Z AUTO 27008KT 9999 NCD 11/08 Q1014
                        NOSIG=
201808240220 METAR COR EGLL 240220Z AUTO 27009KT 9999 NCD 12/08 Q1014
                        NOSIG=
201808240150 METAR COR EGLL 240150Z AUTO 27009KT 9999 NCD 12/08 Q1014
                        NOSIG=
201808240120 METAR COR EGLL 240120Z AUTO 27008KT 9999 NCD 12/08 Q1014
                        NOSIG=
201808240050 METAR COR EGLL 240050Z AUTO 27007KT 9999 NCD 13/08 Q1014
                        NOSIG=
201808240020 METAR COR EGLL 240020Z AUTO 28009KT 9999 NCD 14/08 Q1014
                        NOSIG=
201808232350 METAR COR EGLL 232350Z AUTO 28010KT 9999 NCD 14/08 Q1014
                        NOSIG=
201808232320 METAR COR EGLL 232320Z AUTO 29008KT 9999 NCD 15/09 Q1014
                        NOSIG=
201808232250 METAR COR EGLL 232250Z AUTO 29011KT 9999 NCD 15/09 Q1014
                        NOSIG=
201808232220 METAR COR EGLL 232220Z AUTO 29010KT 9999 NCD 15/10 Q1013
                        NOSIG=
201808232150 METAR COR EGLL 232150Z AUTO 30012KT 9999 FEW028 16/10 Q1013
                        NOSIG=
201808232120 METAR COR EGLL 232120Z AUTO 27014KT 9999 FEW026 SCT031 BKN045
                        16/12 Q1013 NOSIG=
201808232050 METAR EGLL 232050Z AUTO 25014KT 9999 NCD 16/11 Q1013=
201808232020 METAR COR EGLL 232020Z AUTO 25010KT 9999 SCT032 SCT041 17/11
                        Q1012 NOSIG=
201808231950 METAR COR EGLL 231950Z AUTO 27012KT 9999 NCD 17/10 Q1012
                        NOSIG=
201808231920 METAR COR EGLL 231920Z AUTO 27012KT 9999 NCD 17/10 Q1012
                        NOSIG=
201808231850 METAR COR EGLL 231850Z AUTO 27015KT 9999 NCD 17/10 Q1012
                        NOSIG=
201808231820 METAR COR EGLL 231820Z AUTO 28015KT 9999 NCD 18/10 Q1012
                        NOSIG=
201808231750 METAR COR EGLL 231750Z AUTO 27016KT 9999 NCD 19/10 Q1011
                        NOSIG=
201808231720 METAR COR EGLL 231720Z AUTO 27015KT 9999 NCD 20/11 Q1011
                        NOSIG=
201808231650 METAR COR EGLL 231650Z AUTO 28012KT 9999 SCT046 21/11 Q1011
                        NOSIG=
201808231620 METAR COR EGLL 231620Z AUTO 26011KT 9999 BKN048 21/10 Q1011
                        NOSIG=
201808231550 METAR COR EGLL 231550Z AUTO 27012KT 9999 SCT048 21/10 Q1011
                        NOSIG=
201808231520 METAR COR EGLL 231520Z AUTO 27011KT 9999 BKN047 21/10 Q1012
                        NOSIG=
201808231450 METAR COR EGLL 231450Z AUTO 28010KT 250V310 9999 SCT045 21/10
                        Q1012 NOSIG=
201808231420 METAR COR EGLL 231420Z AUTO 27013KT 9999 FEW044 21/10 Q1012
                        NOSIG=
201808231350 METAR COR EGLL 231350Z AUTO 29009KT 9999 SCT040 21/11 Q1012
                        NOSIG=
201808231320 METAR COR EGLL 231320Z AUTO 28009KT 230V330 9999 SCT038 21/10
                        Q1012 NOSIG=
201808231250 METAR COR EGLL 231250Z AUTO 30009KT 250V340 9999 SCT034 21/11
                        Q1013 NOSIG=
201808231220 METAR COR EGLL 231220Z AUTO VRB08KT 9999 FEW031 21/11 Q1013
                        NOSIG=
201808231150 METAR COR EGLL 231150Z AUTO 29006KT 240V350 9999 SCT019 SCT026
                        BKN032 20/12 Q1013 NOSIG=
201808231120 METAR EGLL 231120Z AUTO 29008KT 9999 BKN015 BKN021 18/14
                        Q1013=
201808231050 METAR COR EGLL 231050Z AUTO 29009KT 9999 BKN014 BKN019 18/14
                        Q1013 BECMG FEW014 SCT019=
201808231020 METAR COR EGLL 231020Z AUTO 29007KT 260V330 9999 SCT011 BKN016
                        18/15 Q1013 NOSIG=
201808230950 METAR COR EGLL 230950Z AUTO 31005KT 270V340 9999 BKN009 BKN014
                        17/15 Q1013 BECMG FEW008 SCT015=
201808230920 METAR COR EGLL 230920Z AUTO 32006KT 9999 -RA BKN008/// //////TCU
                        17/16 Q1013 BECMG FEW008 SCT015=
201808230850 METAR COR EGLL 230850Z AUTO 29008KT 3700 -RADZ SCT008///
                        BKN013/// //////TCU 17/16 Q1013 RERA
                        REDZ TEMPO 6000 NSW BKN008=
201808230820 METAR COR EGLL 230820Z 27011KT 2300 RADZ SCT007 SCT012 BKN017
                        18/17 Q1012 TEMPO 6000 NSW BKN005=
201808230750 METAR COR EGLL 230750Z AUTO 23009KT 200V270 9999 FEW014 BKN018
                        BKN024 20/17 Q1012 TEMPO 3000 RADZ
                        BKN006=
201808230720 METAR COR EGLL 230720Z AUTO 22010KT 9999 SCT015 BKN022 20/17
                        Q1012 TEMPO 4000 -RADZ BKN009=
201808230650 METAR COR EGLL 230650Z AUTO 22009KT 9999 BKN013 BKN018 OVC036
                        19/17 Q1012 TEMPO -RA BKN009=
201808230620 METAR COR EGLL 230620Z AUTO 22009KT 9999 BKN014 BKN018 OVC043
                        19/17 Q1013 TEMPO -RA BKN009=
201808230550 METAR COR EGLL 230550Z AUTO 21008KT 9999 SCT014 OVC035 19/17
                        Q1013 TEMPO 7000 -RA BKN014=
201808230520 METAR COR EGLL 230520Z AUTO 21007KT 180V260 9999 SCT029 OVC034
                        19/17 Q1013 NOSIG=
201808230450 METAR COR EGLL 230450Z AUTO 21008KT 180V320 9999 BKN035 OVC042
                        19/16 Q1013 NOSIG=
201808230420 METAR COR EGLL 230420Z AUTO 21007KT 9999 BKN034 OVC041 19/16
                        Q1013 NOSIG=
201808230350 METAR COR EGLL 230350Z AUTO 22006KT 9999 BKN039 OVC046 19/16
                        Q1013 NOSIG=
201808230320 METAR COR EGLL 230320Z AUTO 23008KT 9999 FEW028 BKN033 OVC044
                        19/16 Q1014 NOSIG=
201808230250 METAR COR EGLL 230250Z AUTO 22006KT 9999 OVC036 19/16 Q1014
                        NOSIG=
201808230220 METAR COR EGLL 230220Z AUTO 22005KT 9999 OVC036 19/16 Q1014
                        NOSIG=
201808230150 METAR COR EGLL 230150Z AUTO 23006KT 9999 FEW021 OVC036 19/16
                        Q1014 NOSIG=
201808230120 METAR COR EGLL 230120Z AUTO 24007KT 9999 SCT022 OVC038 19/16
                        Q1015 NOSIG=
201808230050 METAR COR EGLL 230050Z AUTO 24007KT 9999 BKN024 OVC039 19/16
                        Q1015 NOSIG=
201808230020 METAR COR EGLL 230020Z AUTO 23007KT 9999 FEW026 OVC037 19/16
                        Q1015 NOSIG=
201808222350 METAR COR EGLL 222350Z AUTO 23006KT 9999 FEW026 OVC037 19/16
                        Q1015 NOSIG=
201808222320 METAR COR EGLL 222320Z AUTO 22007KT 9999 OVC037 20/16 Q1016
                        NOSIG=
201808222250 METAR COR EGLL 222250Z AUTO 22007KT 9999 OVC036 20/16 Q1016
                        NOSIG=
201808222220 METAR COR EGLL 222220Z AUTO 21007KT 9999 OVC035 20/16 Q1016
                        NOSIG=
201808222150 METAR COR EGLL 222150Z AUTO 24009KT 9999 OVC032 20/16 Q1016
                        NOSIG=
201808222120 METAR COR EGLL 222120Z AUTO 24009KT 9999 OVC030 21/16 Q1016
                        NOSIG=
201808222050 METAR COR EGLL 222050Z AUTO 23009KT 200V260 9999 OVC031 21/16
                        Q1016 NOSIG=
201808222020 METAR COR EGLL 222020Z AUTO 23008KT 9999 OVC032 21/15 Q1016
                        NOSIG=
201808221950 METAR COR EGLL 221950Z AUTO 24008KT 9999 OVC034 22/15 Q1016
                        NOSIG=
201808221920 METAR COR EGLL 221920Z AUTO 24009KT 9999 OVC033 22/15 Q1016
                        NOSIG=
201808221850 METAR COR EGLL 221850Z AUTO 27009KT 9999 OVC032 22/15 Q1016
                        NOSIG=
201808221820 METAR COR EGLL 221820Z AUTO 27008KT 9999 OVC032 22/15 Q1016
                        NOSIG=
201808221750 METAR COR EGLL 221750Z AUTO 27011KT 9999 OVC031 22/15 Q1016
                        NOSIG=
201808221720 METAR COR EGLL 221720Z AUTO 26011KT 9999 OVC029 22/15 Q1016
                        NOSIG=
201808221650 METAR COR EGLL 221650Z AUTO 22009KT 9999 BKN029 OVC033 23/16
                        Q1016 NOSIG=
201808221620 METAR COR EGLL 221620Z AUTO 24009KT 200V270 9999 OVC032 23/16
                        Q1016 NOSIG=
201808221550 METAR COR EGLL 221550Z AUTO 23011KT 9999 OVC030 23/16 Q1016
                        NOSIG=
201808221520 METAR COR EGLL 221520Z AUTO 25011KT 9999 OVC027 23/16 Q1016
                        NOSIG=
201808221450 METAR COR EGLL 221450Z AUTO 23010KT 190V270 9999 BKN025 23/16
                        Q1016 NOSIG=
201808221420 METAR COR EGLL 221420Z AUTO 21009KT 180V240 9999 BKN023 BKN028
                        23/16 Q1017 NOSIG=
201808221350 METAR COR EGLL 221350Z AUTO 23009KT 200V270 9999 BKN022 23/16
                        Q1017 NOSIG=
201808221320 METAR COR EGLL 221320Z AUTO 22007KT 180V250 9999 OVC020 22/16
                        Q1017 NOSIG=
201808221250 METAR COR EGLL 221250Z AUTO 23007KT 170V270 9999 OVC018 21/16
                        Q1017 NOSIG=
201808221220 METAR COR EGLL 221220Z AUTO 25006KT 210V310 9999 OVC018 21/16
                        Q1017 NOSIG=
201808221150 METAR COR EGLL 221150Z AUTO 24007KT 210V290 9999 OVC015 20/16
                        Q1018 NOSIG=
201808221120 METAR COR EGLL 221120Z AUTO 27007KT 230V300 9999 OVC015 20/15
                        Q1018 NOSIG=
201808221050 METAR COR EGLL 221050Z AUTO 24008KT 220V280 9999 OVC014 19/15
                        Q1018 BECMG BKN015=
201808221020 METAR COR EGLL 221020Z AUTO 24008KT 9999 OVC012 19/15 Q1018
                        BECMG BKN015=
201808220950 METAR COR EGLL 220950Z AUTO 25008KT 210V290 9999 OVC011 18/15
                        Q1018 BECMG BKN015=
201808220920 METAR COR EGLL 220920Z AUTO 25007KT 9999 OVC011 18/15 Q1018
                        BECMG BKN014=
201808220850 METAR COR EGLL 220850Z AUTO 25008KT 220V280 9999 OVC009 18/15
                        Q1018 BECMG BKN012=
201808220820 METAR COR EGLL 220820Z AUTO 25007KT 9999 OVC008 17/15 Q1018
                        NOSIG=
201808220750 METAR COR EGLL 220750Z AUTO 24007KT 8000 OVC006 16/15 Q1018
                        NOSIG=
201808220720 METAR COR EGLL 220720Z AUTO 24007KT 6000 OVC004 16/15 Q1018
                        NOSIG=
201808220650 METAR COR EGLL 220650Z AUTO 23007KT 200V260 6000 OVC004 15/14
                        Q1018 NOSIG=
201808220620 METAR COR EGLL 220620Z AUTO 23007KT 5000 HZ OVC003 15/14
                        Q1018 NOSIG=
201808220550 METAR COR EGLL 220550Z AUTO 25006KT 210V280 5000 BR OVC003
                        15/14 Q1018 BECMG BKN008=
201808220520 METAR COR EGLL 220520Z AUTO 23008KT 9000 OVC004 15/14 Q1018
                        BECMG BKN010=
201808220450 METAR COR EGLL 220450Z AUTO 22006KT 9999 BKN006 15/14 Q1018
                        BECMG BKN010=
201808220420 METAR COR EGLL 220420Z AUTO 21006KT 190V280 9999 NCD 15/14
                        Q1018 TEMPO BKN008=
201808220350 METAR COR EGLL 220350Z AUTO 21005KT 9999 NCD 16/14 Q1018
                        NOSIG=
201808220320 METAR COR EGLL 220320Z AUTO 22005KT 9999 NCD 16/14 Q1018
                        NOSIG=
201808220250 METAR COR EGLL 220250Z AUTO 25005KT 9999 NCD 15/14 Q1018
                        NOSIG=
201808220220 METAR COR EGLL 220220Z AUTO 27007KT 9999 NCD 15/14 Q1018
                        NOSIG=
201808220150 METAR COR EGLL 220150Z AUTO 27006KT 9999 NCD 16/14 Q1018
                        NOSIG=
201808220120 METAR COR EGLL 220120Z AUTO 25006KT 9999 NCD 16/14 Q1018
                        NOSIG=
201808220050 METAR COR EGLL 220050Z AUTO 23004KT 9999 NCD 17/15 Q1018
                        NOSIG=
201808220020 METAR COR EGLL 220020Z AUTO 23005KT 9999 NCD 17/15 Q1018
                        NOSIG=
201808212350 METAR COR EGLL 212350Z AUTO 24004KT 9999 NCD 17/15 Q1018
                        NOSIG=
201808212320 METAR EGLL 212320Z AUTO 27004KT 9999 NCD 17/15 Q1018=
201808212250 METAR COR EGLL 212250Z AUTO 24004KT 9999 NCD 18/14 Q1018
                        NOSIG=
201808212220 METAR COR EGLL 212220Z AUTO 24006KT 9999 NCD 20/15 Q1018
                        NOSIG=
201808212150 METAR COR EGLL 212150Z AUTO 28006KT 9999 NCD 19/15 Q1018
                        NOSIG=
201808212120 METAR COR EGLL 212120Z AUTO 28007KT 9999 FEW035 19/15 Q1018
                        NOSIG=
201808212050 METAR COR EGLL 212050Z AUTO 27011KT 9999 BKN035 21/15 Q1018
                        NOSIG=
201808212020 METAR COR EGLL 212020Z AUTO 23010KT 9999 BKN037 22/16 Q1018
                        NOSIG=
201808211950 METAR COR EGLL 211950Z AUTO 22009KT 9999 NCD 22/16 Q1018
                        NOSIG=
201808211920 METAR COR EGLL 211920Z AUTO 21009KT 180V240 9999 NCD 22/16
                        Q1017 NOSIG=
201808211850 METAR COR EGLL 211850Z AUTO 20009KT 170V240 9999 NCD 23/16
                        Q1017 NOSIG=
201808211820 METAR COR EGLL 211820Z AUTO 20011G21KT 180V250 9999 NCD 23/16
                        Q1017 NOSIG=
201808211750 METAR COR EGLL 211750Z AUTO 19010KT 160V230 9999 NCD 24/16
                        Q1017 NOSIG=
201808211720 METAR COR EGLL 211720Z AUTO 21011KT 180V240 9999 NCD 25/15
                        Q1017 NOSIG=
201808211650 METAR COR EGLL 211650Z AUTO 20008KT 150V230 9999 NCD 26/15
                        Q1017 NOSIG=
201808211620 METAR EGLL 211620Z AUTO 19008KT 150V230 9999 NCD 26/15 Q1017=
201808211550 METAR COR EGLL 211550Z AUTO 19008KT 160V250 9999 NCD 26/15
                        Q1018 NOSIG=
201808211520 METAR COR EGLL 211520Z AUTO 20006KT 120V270 9999 FEW044 26/15
                        Q1018 NOSIG=
201808211450 METAR COR EGLL 211450Z AUTO 19010KT 160V240 9999 NCD 26/14
                        Q1018 NOSIG=
201808211420 METAR COR EGLL 211420Z AUTO VRB06KT 9999 FEW044 26/14 Q1018
                        NOSIG=
201808211350 METAR COR EGLL 211350Z AUTO 23007KT 170V270 9999 SCT041 27/13
                        Q1018 NOSIG=
201808211320 METAR COR EGLL 211320Z AUTO 24006KT 170V280 9999 BKN042 27/13
                        Q1019 NOSIG=
201808211250 METAR COR EGLL 211250Z AUTO 22006KT 180V260 9999 BKN038 26/13
                        Q1019 NOSIG=
201808211220 METAR COR EGLL 211220Z AUTO 22009KT 180V260 9999 BKN035 24/15
                        Q1019 NOSIG=
201808211150 METAR COR EGLL 211150Z AUTO 24006KT 190V300 9999 SCT032 25/15
                        Q1019 NOSIG=
201808211120 METAR COR EGLL 211120Z AUTO 24006KT 190V290 9999 SCT028 BKN033
                        BKN041 24/15 Q1019 NOSIG=
201808211050 METAR COR EGLL 211050Z AUTO 25007KT 210V300 9999 SCT027 BKN034
                        23/16 Q1020 NOSIG=
201808211020 METAR COR EGLL 211020Z AUTO 17006KT 110V230 9999 SCT022 BKN033
                        22/16 Q1020 NOSIG=
201808210950 METAR COR EGLL 210950Z AUTO 19007KT 150V240 9999 SCT019 SCT026
                        BKN032 22/16 Q1020 NOSIG=
201808210920 METAR COR EGLL 210920Z AUTO 20005KT 150V250 9999 BKN018 BKN023
                        21/16 Q1020 NOSIG=
201808210850 METAR COR EGLL 210850Z AUTO 24005KT 170V270 9999 SCT022 OVC037
                        20/16 Q1020 NOSIG=
201808210820 METAR COR EGLL 210820Z AUTO 22005KT 9999 SCT019 BKN026 OVC033
                        20/15 Q1020 NOSIG=
201808210750 METAR COR EGLL 210750Z AUTO 27005KT 230V300 9999 BKN019 OVC034
                        20/15 Q1020 NOSIG=
201808210720 METAR COR EGLL 210720Z AUTO VRB02KT 9999 BKN019 BKN026 OVC038
                        19/15 Q1020 NOSIG=
201808210650 METAR COR EGLL 210650Z AUTO VRB03KT 9999 BKN021 19/15 Q1020
                        NOSIG=
201808210620 METAR COR EGLL 210620Z AUTO VRB03KT 9999 FEW025 19/15 Q1020
                        NOSIG=
201808210550 METAR COR EGLL 210550Z AUTO 27005KT 9999 NCD 17/15 Q1020
                        NOSIG=
201808210520 METAR COR EGLL 210520Z AUTO 27004KT 9999 FEW034 SCT040 17/15
                        Q1020 NOSIG=
201808210450 METAR COR EGLL 210450Z AUTO 30004KT 9999 BKN031 18/15 Q1020
                        NOSIG=
201808210420 METAR COR EGLL 210420Z AUTO 30003KT 9999 FEW025 SCT029 BKN035
                        18/15 Q1019 NOSIG=
201808210350 METAR COR EGLL 210350Z AUTO 30005KT 9999 FEW023 BKN032 19/15
                        Q1019 NOSIG=
201808210320 METAR COR EGLL 210320Z AUTO 27005KT 9999 BKN022 BKN035 19/15
                        Q1020 NOSIG=
201808210250 METAR COR EGLL 210250Z AUTO 29007KT 9999 BKN020 OVC042 19/16
                        Q1020=
201808210220 METAR COR EGLL 210220Z AUTO 30004KT 9999 SCT021 BKN028 19/16
                        Q1020 NOSIG=
201808210150 METAR COR EGLL 210150Z AUTO 28005KT 9999 FEW024 BKN031 19/17
                        Q1020 NOSIG=
201808210120 METAR COR EGLL 210120Z AUTO 26006KT 9999 BKN021 19/16 Q1020
                        NOSIG=
201808210050 METAR COR EGLL 210050Z AUTO VRB03KT 9999 BKN024 19/16 Q1020
                        NOSIG=
201808210020 METAR COR EGLL 210020Z AUTO 27004KT 9999 SCT026 19/16 Q1020
                        NOSIG=
201808202350 METAR COR EGLL 202350Z AUTO 26004KT 9999 BKN026 19/16 Q1020
                        NOSIG=
201808202320 METAR COR EGLL 202320Z AUTO 27005KT 9999 NCD 18/15 Q1020
                        NOSIG=
201808202250 METAR COR EGLL 202250Z AUTO 28005KT 9999 NCD 19/16 Q1020
                        NOSIG=
201808202220 METAR COR EGLL 202220Z AUTO 26008KT 9999 NCD 20/16 Q1020
                        NOSIG=
201808202150 METAR COR EGLL 202150Z AUTO 28006KT 9999 SCT044 20/16 Q1020
                        NOSIG=
201808202120 METAR COR EGLL 202120Z AUTO 27009KT 9999 BKN038 21/16 Q1020
                        NOSIG=
201808202050 METAR COR EGLL 202050Z AUTO 27008KT 9999 BKN033 21/16 Q1020
                        NOSIG=
201808202020 METAR COR EGLL 202020Z AUTO 27008KT 9999 BKN035 21/16 Q1020
                        NOSIG=
201808201950 METAR COR EGLL 201950Z AUTO 28006KT 9999 NCD 22/16 Q1019
                        NOSIG=
201808201920 METAR COR EGLL 201920Z AUTO 27009KT 9999 NCD 22/16 Q1019
                        NOSIG=
201808201850 METAR COR EGLL 201850Z AUTO 27008KT 9999 NCD 23/15 Q1019
                        NOSIG=
201808201820 METAR COR EGLL 201820Z AUTO 27009KT 9999 NCD 24/15 Q1019
                        NOSIG=
201808201750 METAR COR EGLL 201750Z AUTO 26011KT 9999 NCD 24/15 Q1019
                        NOSIG=
201808201720 METAR COR EGLL 201720Z AUTO 24009KT 9999 NCD 24/17 Q1019
                        NOSIG=
201808201650 METAR COR EGLL 201650Z AUTO 24010KT 210V280 9999 BKN049 24/17
                        Q1019 NOSIG=
201808201620 METAR COR EGLL 201620Z AUTO 26013KT 9999 FEW036 SCT044 24/17
                        Q1019 NOSIG=
201808201550 METAR COR EGLL 201550Z AUTO 24011KT 9999 FEW032 SCT042 25/17
                        Q1019 NOSIG=
201808201520 METAR COR EGLL 201520Z AUTO 23011KT 9999 SCT031 BKN039 25/17
                        Q1019 NOSIG=
201808201450 METAR COR EGLL 201450Z AUTO 25011KT 9999 NCD 25/17 Q1020
                        NOSIG=
201808201420 METAR COR EGLL 201420Z AUTO 24009KT 9999 FEW029 25/17 Q1020
                        NOSIG=
201808201350 METAR COR EGLL 201350Z AUTO 23007KT 190V260 9999 FEW032 25/17
                        Q1020 NOSIG=
201808201320 METAR COR EGLL 201320Z AUTO 22006KT 170V260 9999 FEW036 24/17
                        Q1020 NOSIG=
201808201250 METAR COR EGLL 201250Z AUTO 23009KT 200V260 9999 FEW048 24/17
                        Q1020 NOSIG=
201808201220 METAR COR EGLL 201220Z AUTO 23005KT 170V270 9999 FEW033 SCT040
                        OVC047 24/16 Q1020 NOSIG=
201808201150 METAR COR EGLL 201150Z AUTO 23006KT 190V270 9999 SCT030 BKN042
                        23/17 Q1020 NOSIG=
201808201120 METAR COR EGLL 201120Z AUTO 24005KT 150V310 9999 BKN032 24/16
                        Q1020 NOSIG=
201808201050 METAR COR EGLL 201050Z AUTO 23005KT 120V290 9999 BKN030 23/15
                        Q1021 NOSIG=
201808201020 METAR COR EGLL 201020Z AUTO 23006KT 180V280 9999 FEW029 24/16
                        Q1021 NOSIG=
201808200950 METAR COR EGLL 200950Z AUTO 27005KT 210V300 9999 SCT027 23/16
                        Q1021 NOSIG=
201808200920 METAR COR EGLL 200920Z AUTO 23005KT 190V300 9999 NCD 23/16
                        Q1021 NOSIG=
201808200850 METAR COR EGLL 200850Z AUTO 27004KT 210V330 9999 FEW035 22/16
                        Q1021 NOSIG=
201808200820 METAR COR EGLL 200820Z AUTO 25006KT 9999 SCT037 21/16 Q1021
                        NOSIG=
201808200750 METAR COR EGLL 200750Z AUTO 25006KT 230V290 9999 NCD 20/16
                        Q1021 NOSIG=
201808200720 METAR COR EGLL 200720Z AUTO 27006KT 9999 FEW041 19/16 Q1021
                        NOSIG=
201808200650 METAR COR EGLL 200650Z AUTO 27008KT 9999 OVC036 18/16 Q1021
                        NOSIG=
201808200620 METAR COR EGLL 200620Z AUTO 27009KT 9999 BKN037 18/16 Q1020
                        NOSIG=
201808200550 METAR COR EGLL 200550Z AUTO 27008KT 9999 BKN038 18/16 Q1020
                        NOSIG=
201808200520 METAR COR EGLL 200520Z AUTO 26005KT 9999 OVC036 18/16 Q1020
                        NOSIG=
201808200450 METAR COR EGLL 200450Z AUTO 26005KT 9999 OVC034 18/16 Q1020
                        NOSIG=
201808200420 METAR COR EGLL 200420Z AUTO 27005KT 9999 OVC034 18/16 Q1019
                        NOSIG=
201808200350 METAR COR EGLL 200350Z AUTO 27005KT 9999 OVC033 18/16 Q1019
                        NOSIG=
201808200320 METAR COR EGLL 200320Z AUTO 29005KT 9999 OVC031 19/16 Q1020
                        NOSIG=
201808200250 METAR COR EGLL 200250Z AUTO 29005KT 9999 OVC030 19/16 Q1020
                        NOSIG=
201808200220 METAR COR EGLL 200220Z AUTO 29004KT 270V330 9999 OVC030 19/16
                        Q1020 NOSIG=
201808200150 METAR COR EGLL 200150Z AUTO 29005KT 9999 OVC029 19/16 Q1020
                        NOSIG=
201808200120 METAR COR EGLL 200120Z AUTO 28006KT 9999 OVC028 19/16 Q1020
                        NOSIG=
201808200050 METAR COR EGLL 200050Z AUTO 29006KT 9999 OVC029 19/16 Q1020
                        NOSIG=
201808200020 METAR COR EGLL 200020Z AUTO 28006KT 9999 OVC031 19/16 Q1020
                        NOSIG=
201808192350 METAR COR EGLL 192350Z AUTO 28008KT 9999 OVC031 19/16 Q1020
                        NOSIG=
201808192320 METAR COR EGLL 192320Z AUTO 28009KT 9999 OVC032 19/16 Q1020
                        NOSIG=
201808192250 METAR COR EGLL 192250Z AUTO 28008KT 9999 BKN033 19/16 Q1019
                        NOSIG=
201808192220 METAR COR EGLL 192220Z AUTO 27008KT 9999 BKN034 19/16 Q1019
                        NOSIG=
201808192150 METAR COR EGLL 192150Z AUTO 27009KT 9999 OVC035 20/16 Q1019
                        NOSIG=
201808192120 METAR COR EGLL 192120Z AUTO 27010KT 9999 BKN036 20/16 Q1019
                        NOSIG=
201808192050 METAR COR EGLL 192050Z AUTO 27010KT 9999 BKN036 20/16 Q1019
                        NOSIG=
201808192020 METAR COR EGLL 192020Z AUTO 28011KT 9999 SCT038 20/16 Q1019
                        NOSIG=
201808191950 METAR COR EGLL 191950Z AUTO 27009KT 9999 NCD 21/16 Q1019
                        NOSIG=
201808191920 METAR COR EGLL 191920Z AUTO 27010KT 9999 NCD 21/16 Q1018
                        NOSIG=
201808191850 METAR COR EGLL 191850Z AUTO 27010KT 9999 NCD 22/16 Q1018
                        NOSIG=
201808191820 METAR COR EGLL 191820Z AUTO 28011KT 9999 NCD 23/16 Q1018
                        NOSIG=
201808191750 METAR COR EGLL 191750Z AUTO 29013KT 9999 NCD 24/15 Q1017
                        NOSIG=
201808191720 METAR COR EGLL 191720Z AUTO 27014KT 9999 NCD 25/15 Q1017
                        NOSIG=
201808191650 METAR COR EGLL 191650Z AUTO 28012KT 9999 NCD 26/16 Q1017
                        NOSIG=
201808191620 METAR COR EGLL 191620Z AUTO 29013KT 9999 NCD 26/15 Q1017
                        NOSIG=
201808191550 METAR COR EGLL 191550Z AUTO 27014KT 9999 SCT041 26/16 Q1017
                        NOSIG=
201808191520 METAR COR EGLL 191520Z AUTO 27016KT 9999 FEW044 27/16 Q1017
                        NOSIG=
201808191450 METAR COR EGLL 191450Z AUTO 26016KT 9999 SCT039 27/16 Q1017
                        NOSIG=
201808191420 METAR COR EGLL 191420Z AUTO 25015KT 9999 BKN036 26/16 Q1017
                        NOSIG=
201808191350 METAR COR EGLL 191350Z AUTO 23014KT 9999 BKN031 26/17 Q1017
                        NOSIG=
201808191320 METAR COR EGLL 191320Z AUTO 24013KT 9999 SCT029 BKN035 25/16
                        Q1017 NOSIG=
201808191250 METAR COR EGLL 191250Z AUTO 23014KT 9999 BKN026 23/16 Q1018
                        NOSIG=
201808191220 METAR COR EGLL 191220Z AUTO 23014KT 9999 BKN022 OVC029 23/16
                        Q1018 NOSIG=
201808191150 METAR COR EGLL 191150Z AUTO 23014G26KT 9999 BKN020 OVC028
                        22/16 Q1018 NOSIG=
201808191120 METAR COR EGLL 191120Z AUTO 24014KT 9999 BKN019 OVC027 21/16
                        Q1018 NOSIG=
201808191050 METAR COR EGLL 191050Z AUTO 24016KT 9999 BKN018 OVC025 21/16
                        Q1018 NOSIG=
201808191020 METAR COR EGLL 191020Z AUTO 24013KT 9999 OVC017 20/16 Q1018
                        NOSIG=
201808190950 METAR COR EGLL 190950Z AUTO 24012KT 9999 BKN016 OVC021 20/15
                        Q1019 NOSIG=
201808190920 METAR COR EGLL 190920Z AUTO 23014KT 9999 OVC015 19/15 Q1019
                        NOSIG=
201808190850 METAR COR EGLL 190850Z AUTO 22013KT 190V250 9999 OVC014 19/15
                        Q1019 BECMG BKN015=
201808190820 METAR COR EGLL 190820Z AUTO 24014KT 9999 OVC014 19/15 Q1018
                        BECMG BKN015=
201808190750 METAR COR EGLL 190750Z AUTO 23014KT 9999 OVC014 18/15 Q1018
                        NOSIG=
201808190720 METAR COR EGLL 190720Z AUTO 22012G23KT 190V250 9999 OVC014
                        18/15 Q1018 NOSIG=
201808190650 METAR COR EGLL 190650Z AUTO 22011KT 9999 OVC016 18/15 Q1019
                        NOSIG=
201808190620 METAR COR EGLL 190620Z AUTO 22010KT 9999 OVC016 18/14 Q1019
                        NOSIG=
201808190550 METAR COR EGLL 190550Z AUTO 23009KT 190V260 9999 OVC016 18/14
                        Q1019 TEMPO BKN012=
201808190520 METAR COR EGLL 190520Z AUTO 23011KT 9999 BKN016 18/14 Q1019
                        TEMPO BKN012=
201808190450 METAR COR EGLL 190450Z AUTO 23012KT 9999 BKN014 18/15 Q1019
                        TEMPO SCT014 BKN018=
201808190420 METAR COR EGLL 190420Z AUTO 22012KT 9999 SCT013 BKN017 18/15
                        Q1019 TEMPO BKN013=
201808190350 METAR COR EGLL 190350Z AUTO 20010KT 9999 SCT018 18/15 Q1019
                        TEMPO BKN014=
201808190320 METAR COR EGLL 190320Z AUTO 21010KT 9999 FEW013 BKN018 BKN022
                        18/16 Q1019 TEMPO BKN013=
201808190250 METAR COR EGLL 190250Z AUTO 21008KT 9999 BKN020 OVC025 18/16
                        Q1020 TEMPO BKN012=
201808190220 METAR COR EGLL 190220Z AUTO 21008KT 9999 OVC024 18/16 Q1020
                        NOSIG=
201808190150 METAR COR EGLL 190150Z AUTO 21009KT 9999 OVC024 18/15 Q1020
                        NOSIG=
201808190120 METAR COR EGLL 190120Z AUTO 21008KT 9999 OVC025 18/15 Q1020
                        NOSIG=
201808190050 METAR COR EGLL 190050Z AUTO 21006KT 9999 OVC025 18/15 Q1021
                        NOSIG=
201808190020 METAR COR EGLL 190020Z AUTO 22008KT 9999 OVC024 18/15 Q1021
                        NOSIG=
201808182350 METAR COR EGLL 182350Z AUTO 21006KT 9999 BKN023 18/15 Q1021
                        NOSIG=
201808182320 METAR COR EGLL 182320Z AUTO 20008KT 9999 OVC023 19/15 Q1021
                        NOSIG=
201808182250 METAR COR EGLL 182250Z AUTO 20008KT 9999 OVC021 19/15 Q1021
                        NOSIG=
201808182220 METAR COR EGLL 182220Z AUTO 23008KT 9999 OVC020 19/15 Q1021
                        NOSIG=
201808182150 METAR COR EGLL 182150Z AUTO 23011KT 9999 OVC022 19/15 Q1021
                        NOSIG=
201808182120 METAR COR EGLL 182120Z AUTO 23009KT 9999 OVC024 20/15 Q1021
                        NOSIG=
201808182050 METAR COR EGLL 182050Z AUTO 24010KT 9999 OVC024 20/15 Q1021
                        NOSIG=
201808182020 METAR COR EGLL 182020Z AUTO 23009KT 9999 OVC024 20/15 Q1021
                        NOSIG=
201808181950 METAR COR EGLL 181950Z AUTO 23008KT 9999 OVC026 20/15 Q1021
                        NOSIG=
201808181920 METAR COR EGLL 181920Z AUTO 24009KT 9999 BKN027 OVC033 20/15
                        Q1021 NOSIG=
201808181850 METAR COR EGLL 181850Z AUTO 24010KT 9999 OVC029 21/15 Q1021
                        NOSIG=
201808181820 METAR COR EGLL 181820Z AUTO 24011KT 9999 OVC030 21/14 Q1020
                        NOSIG=
201808181750 METAR COR EGLL 181750Z AUTO 25010KT 220V280 9999 BKN031 OVC038
                        21/14 Q1020 NOSIG=
201808181720 METAR COR EGLL 181720Z AUTO 24009KT 9999 BKN033 OVC039 22/14
                        Q1020 NOSIG=
201808181650 METAR COR EGLL 181650Z AUTO 25011KT 9999 BKN034 22/14 Q1020
                        NOSIG=
201808181620 METAR EGLL 181620Z AUTO 23010KT 9999 BKN036 22/14 Q1020=
201808181550 METAR COR EGLL 181550Z AUTO 24010KT 9999 BKN036 22/14 Q1020
                        NOSIG=
201808181520 METAR COR EGLL 181520Z AUTO 24011KT 9999 BKN034 22/14 Q1021
                        NOSIG=
201808181450 METAR COR EGLL 181450Z AUTO 24011KT 9999 OVC033 21/14 Q1021
                        NOSIG=
201808181420 METAR COR EGLL 181420Z AUTO 23011KT 9999 BKN034 OVC040 21/14
                        Q1021 NOSIG=
201808181350 METAR COR EGLL 181350Z AUTO 24012KT 9999 BKN027 OVC037 21/14
                        Q1021 NOSIG=
201808181320 METAR COR EGLL 181320Z AUTO 25013KT 9999 OVC030 20/14 Q1021
                        NOSIG=
201808181250 METAR COR EGLL 181250Z AUTO 26013KT 9999 SCT025 BKN031 20/14
                        Q1021 NOSIG=
201808181220 METAR COR EGLL 181220Z AUTO 26011KT 9999 OVC026 20/14 Q1021
                        NOSIG=
201808181150 METAR COR EGLL 181150Z AUTO 25011KT 9999 OVC030 20/14 Q1021
                        NOSIG=
201808181120 METAR COR EGLL 181120Z AUTO 25012KT 9999 BKN026 OVC034 20/13
                        Q1021 NOSIG=
201808181050 METAR COR EGLL 181050Z AUTO 24012KT 9999 SCT026 OVC031 20/13
                        Q1021 NOSIG=
201808181020 METAR COR EGLL 181020Z AUTO 23012KT 9999 OVC028 20/13 Q1021
                        NOSIG=
201808180950 METAR COR EGLL 180950Z AUTO 23012KT 9999 OVC035 20/13 Q1021
                        NOSIG=
201808180920 METAR COR EGLL 180920Z AUTO 23011KT 9999 BKN038 19/14 Q1021
                        NOSIG=
201808180850 METAR COR EGLL 180850Z AUTO 24010KT 9999 OVC034 19/14 Q1021
                        NOSIG=
201808180820 METAR COR EGLL 180820Z AUTO 25011KT 9999 FEW020 OVC033 18/14
                        Q1021 NOSIG=
201808180750 METAR COR EGLL 180750Z AUTO 24010KT 9999 FEW017 OVC033 18/14
                        Q1021 NOSIG=
201808180720 METAR EGLL 180720Z AUTO 24009KT 9999 SCT016/// OVC031///
                        //////CB 17/14 Q1021=
201808180650 METAR COR EGLL 180650Z AUTO 22008KT 9999 BKN015 OVC032 17/14
                        Q1021 NOSIG=
201808180620 METAR COR EGLL 180620Z AUTO 22007KT 190V270 9999 SCT015 SCT019
                        BKN027 16/13 Q1021 NOSIG=
201808180550 METAR COR EGLL 180550Z AUTO 23007KT 9999 OVC034 16/13 Q1020
                        NOSIG=
201808180520 METAR COR EGLL 180520Z AUTO 22005KT 190V250 9999 BKN031 OVC038
                        16/13 Q1020 NOSIG=
201808180450 METAR COR EGLL 180450Z AUTO 21006KT 9999 BKN035 16/13 Q1020
                        NOSIG=
201808180420 METAR COR EGLL 180420Z AUTO 22005KT 9999 BKN036 15/12 Q1020
                        NOSIG=
201808180350 METAR COR EGLL 180350Z AUTO 21007KT 9999 BKN035 16/12 Q1020
                        NOSIG=
201808180320 METAR COR EGLL 180320Z AUTO 23009KT 9999 OVC033 16/12 Q1020
                        NOSIG=
201808180250 METAR COR EGLL 180250Z AUTO 21007KT 9999 BKN033 16/12 Q1020
                        NOSIG=
201808180220 METAR COR EGLL 180220Z AUTO 21007KT 9999 OVC032 16/12 Q1020
                        NOSIG=
201808180150 METAR COR EGLL 180150Z AUTO 22008KT 9999 OVC031 16/12 Q1020
                        NOSIG=
201808180120 METAR COR EGLL 180120Z AUTO 21006KT 9999 BKN033 15/12 Q1020
                        NOSIG=
201808180050 METAR COR EGLL 180050Z AUTO 22008KT 9999 NCD 16/12 Q1021
                        NOSIG=
201808180020 METAR COR EGLL 180020Z AUTO 21006KT 9999 NCD 16/12 Q1021
                        NOSIG=
201808172350 METAR COR EGLL 172350Z AUTO 22008KT 9999 SCT025 17/12 Q1021
                        NOSIG=
201808172320 METAR COR EGLL 172320Z AUTO 24010KT 9999 BKN025 17/12 Q1021
                        NOSIG=
201808172250 METAR COR EGLL 172250Z AUTO 24007KT 9999 NCD 17/12 Q1021
                        NOSIG=
201808172220 METAR COR EGLL 172220Z AUTO 21008KT 9999 NCD 17/12 Q1021
                        NOSIG=
201808172150 METAR COR EGLL 172150Z AUTO 23008KT 9999 NCD 18/12 Q1021
                        NOSIG=
201808172120 METAR COR EGLL 172120Z AUTO 24008KT 9999 NCD 18/11 Q1021
                        NOSIG=
201808172050 METAR COR EGLL 172050Z AUTO 27008KT 9999 NCD 18/11 Q1021
                        NOSIG=
201808172020 METAR COR EGLL 172020Z AUTO 28010KT 9999 NCD 18/11 Q1021
                        NOSIG=
201808171950 METAR COR EGLL 171950Z AUTO 28008KT 9999 NCD 18/10 Q1021
                        NOSIG=
201808171920 METAR COR EGLL 171920Z AUTO 28012KT 9999 NCD 19/10 Q1020
                        NOSIG=
201808171850 METAR COR EGLL 171850Z AUTO 29011KT 9999 FEW048 20/10 Q1020
                        NOSIG=
201808171820 METAR COR EGLL 171820Z AUTO 28012KT 9999 BKN048 21/10 Q1020
                        NOSIG=
201808171750 METAR COR EGLL 171750Z AUTO 26012KT 9999 BKN049 21/10 Q1019
                        NOSIG=
201808171720 METAR COR EGLL 171720Z AUTO 27014KT 9999 NCD 22/09 Q1019
                        NOSIG=
201808171650 METAR COR EGLL 171650Z AUTO 25013KT 9999 NCD 22/09 Q1019
                        NOSIG=
201808171620 METAR COR EGLL 171620Z AUTO 26010KT 230V290 9999 NCD 22/09
                        Q1019 NOSIG=
201808171550 METAR COR EGLL 171550Z AUTO 25012KT 9999 BKN048 22/10 Q1019
                        NOSIG=
201808171520 METAR COR EGLL 171520Z AUTO 23011KT 9999 FEW046 22/09 Q1019
                        NOSIG=
201808171450 METAR COR EGLL 171450Z AUTO 24010KT 210V280 9999 NCD 22/09
                        Q1020 NOSIG=
201808171420 METAR COR EGLL 171420Z AUTO 26011KT 9999 SCT049 22/09 Q1020
                        NOSIG=
201808171350 METAR COR EGLL 171350Z AUTO 25012KT 210V280 9999 NCD 21/08
                        Q1020 NOSIG=
201808171320 METAR COR EGLL 171320Z AUTO 27011KT 240V300 9999 NCD 21/08
                        Q1020 NOSIG=
201808171250 METAR COR EGLL 171250Z AUTO 25011G21KT 9999 NCD 22/08 Q1020
                        NOSIG=
201808171220 METAR COR EGLL 171220Z AUTO 27011KT 9999 BKN048 20/09 Q1020
                        NOSIG=
201808171150 METAR COR EGLL 171150Z AUTO 27009KT 240V300 9999 BKN048 20/09
                        Q1021 NOSIG=
201808171120 METAR COR EGLL 171120Z AUTO 24010KT 220V280 9999 FEW039 BKN047
                        20/10 Q1021 NOSIG=
201808171050 METAR COR EGLL 171050Z AUTO 25011KT 9999 NCD 20/09 Q1021
                        NOSIG=
201808171020 METAR COR EGLL 171020Z AUTO 26009KT 220V300 9999 NCD 19/10
                        Q1021 NOSIG=
201808170950 METAR COR EGLL 170950Z AUTO 28007KT 240V330 9999 NCD 18/10
                        Q1021 NOSIG=
201808170920 METAR COR EGLL 170920Z AUTO 27008KT 240V300 9999 NCD 18/10
                        Q1020 NOSIG=
201808170850 METAR COR EGLL 170850Z AUTO 26006KT 9999 NCD 18/11 Q1020
                        NOSIG=
201808170820 METAR COR EGLL 170820Z AUTO 27007KT 240V300 9999 NCD 17/12
                        Q1020 NOSIG=
201808170750 METAR COR EGLL 170750Z AUTO 28005KT 9999 NCD 16/12 Q1020
                        NOSIG=
201808170720 METAR COR EGLL 170720Z AUTO 25004KT 220V280 9999 NCD 14/12
                        Q1020 NOSIG=
201808170650 METAR COR EGLL 170650Z AUTO 25005KT 220V280 9999 NCD 13/11
                        Q1020 NOSIG=
201808170620 METAR COR EGLL 170620Z AUTO VRB03KT 9999 NCD 13/11 Q1019
                        NOSIG=
201808170550 METAR COR EGLL 170550Z AUTO 24004KT 200V290 9999 NCD 12/11
                        Q1019 NOSIG=
201808170520 METAR COR EGLL 170520Z AUTO 21004KT 9999 NCD 12/11 Q1019
                        NOSIG=
201808170450 METAR COR EGLL 170450Z AUTO 20004KT 9999 NCD 11/10 Q1018
                        NOSIG=
201808170420 METAR COR EGLL 170420Z AUTO 19004KT 9999 NCD 11/10 Q1018
                        NOSIG=
201808170350 METAR COR EGLL 170350Z AUTO 21002KT 9999 NCD 12/10 Q1018
                        NOSIG=
201808170320 METAR COR EGLL 170320Z AUTO 23003KT 9999 NCD 12/11 Q1018
                        NOSIG=
201808170250 METAR COR EGLL 170250Z AUTO 25004KT 9999 NCD 13/11 Q1018
                        NOSIG=
201808170220 METAR COR EGLL 170220Z AUTO 24002KT 9999 NCD 13/11 Q1017
                        NOSIG=
201808170150 METAR COR EGLL 170150Z AUTO 28003KT 9999 NCD 13/11 Q1017
                        NOSIG=
201808170120 METAR COR EGLL 170120Z AUTO 30004KT 9999 NCD 13/10 Q1017
                        NOSIG=
201808170050 METAR COR EGLL 170050Z AUTO 29007KT 9999 NCD 14/11 Q1017
                        NOSIG=
201808170020 METAR COR EGLL 170020Z AUTO 30005KT 270V330 9999 NCD 14/11
                        Q1017 NOSIG=
201808162350 METAR COR EGLL 162350Z AUTO 29006KT 9999 NCD 14/11 Q1017
                        NOSIG=
201808162320 METAR COR EGLL 162320Z AUTO 29008KT 9999 NCD 15/10 Q1017
                        NOSIG=
201808162250 METAR COR EGLL 162250Z AUTO 29009KT 9999 NCD 15/10 Q1017
                        NOSIG=
201808162220 METAR COR EGLL 162220Z AUTO 29007KT 9999 NCD 16/10 Q1016
                        NOSIG=
201808162150 METAR COR EGLL 162150Z AUTO 28009KT 9999 NCD 16/10 Q1016
                        NOSIG=
201808162120 METAR COR EGLL 162120Z AUTO 29007KT 9999 NCD 16/10 Q1016
                        NOSIG=
201808162050 METAR COR EGLL 162050Z AUTO 28007KT 9999 NCD 17/10 Q1016
                        NOSIG=
201808162020 METAR COR EGLL 162020Z AUTO 27008KT 9999 NCD 17/12 Q1015
                        NOSIG=
201808161950 METAR COR EGLL 161950Z AUTO 24009KT 9999 FEW049 17/14 Q1015
                        NOSIG=
201808161920 METAR COR EGLL 161920Z AUTO 23009KT 9999 NCD 18/14 Q1015
                        NOSIG=
201808161850 METAR COR EGLL 161850Z AUTO 24010KT 9999 NCD 19/09 Q1015
                        NOSIG=
201808161820 METAR COR EGLL 161820Z AUTO 26010KT 9999 NCD 20/09 Q1014
                        NOSIG=
201808161750 METAR COR EGLL 161750Z AUTO 26014KT 9999 NCD 20/08 Q1014
                        NOSIG=
201808161720 METAR COR EGLL 161720Z AUTO 26012KT 230V300 9999 NCD 21/09
                        Q1014 NOSIG=
201808161650 METAR COR EGLL 161650Z AUTO 26011KT 9999 NCD 20/10 Q1014
                        NOSIG=
201808161620 METAR COR EGLL 161620Z AUTO 21008KT 170V230 9999 NCD 19/15
                        Q1014 NOSIG=
201808161550 METAR COR EGLL 161550Z AUTO 20009KT 160V240 9999 FEW042 18/14
                        Q1014 NOSIG=
201808161520 METAR COR EGLL 161520Z AUTO 20009KT 170V250 9999 FEW022 SCT030
                        18/14 Q1014 NOSIG=
201808161450 METAR COR EGLL 161450Z AUTO 20007KT 170V240 9999 NCD 18/14
                        Q1014 NOSIG=
201808161420 METAR COR EGLL 161420Z AUTO 23007KT 9999 NCD 17/14 Q1014
                        NOSIG=
201808161350 METAR COR EGLL 161350Z AUTO 23009KT 9999 NCD 16/14 Q1014
                        NOSIG=
201808161320 METAR COR EGLL 161320Z AUTO 23008KT 9999 SCT043 15/13 Q1014
                        NOSIG=
201808161250 METAR COR EGLL 161250Z AUTO 24009KT 9999 FEW027/// BKN040///
                        BKN046/// //////TCU 15/13 Q1014 NOSIG=
201808161220 METAR COR EGLL 161220Z AUTO 22009KT 180V250 9999 -RA FEW037///
                        BKN043/// //////CB 15/13 Q1014 NOSIG=
201808161150 METAR COR EGLL 161150Z AUTO 26011KT 9999 -RA BKN030/// BKN038///
                        //////TCU 15/13 Q1014 NOSIG=
201808161120 METAR COR EGLL 161120Z AUTO 27013KT 9999 -RA FEW010/// SCT017///
                        BKN025/// //////CB 15/14 Q1014 TEMPO
                        RA BKN012=
201808161050 METAR COR EGLL 161050Z AUTO 27011KT 9000 -RA FEW008/// BKN012///
                        BKN018/// //////CB 17/16 Q1013 TEMPO
                        4000 RA=
201808161020 METAR COR EGLL 161020Z AUTO 27010KT 8000 -RA BKN012/// BKN020///
                        //////CB 17/16 Q1013 TEMPO 4000 RA=
201808160950 METAR COR EGLL 160950Z AUTO 27007KT 9999 -RA FEW007/// BKN016///
                        BKN034/// //////CB 17/16 Q1013 TEMPO
                        4000 RA BKN012=
201808160920 METAR COR EGLL 160920Z AUTO 30006KT 6000 -RA SCT009/// BKN020///
                        BKN030/// //////CB 17/16 Q1013 RERA
                        TEMPO 3000 RA BKN009=
201808160850 METAR COR EGLL 160850Z AUTO 21010KT 170V250 5000 -RA BKN007///
                        BKN012/// OVC036/// //////CB 18/17
                        Q1012 RERA TEMPO 3000 RADZ BKN010=
201808160820 METAR COR EGLL 160820Z AUTO 21011KT 5000 -RADZ SCT008///
                        SCT012/// BKN017/// //////CB 18/17
                        Q1013 TEMPO 3000 RADZ BKN008=
201808160750 METAR COR EGLL 160750Z AUTO 21010KT 6000 -RA SCT010/// BKN019///
                        BKN032/// //////TCU 18/17 Q1013 TEMPO
                        4000 RA BKN010=
201808160720 METAR COR EGLL 160720Z AUTO 22012KT 8000 -RA SCT011/// BKN017///
                        BKN044/// //////TCU 18/16 Q1013 TEMPO
                        4500 RA BKN011=
201808160650 METAR COR EGLL 160650Z AUTO 21011KT 7000 -RA BKN012 BKN017
                        OVC046 18/16 Q1013 TEMPO 4500 RA=
201808160620 METAR COR EGLL 160620Z AUTO 21012KT 9999 BKN013 OVC032 19/16
                        Q1013 TEMPO 4500 RA=
201808160550 METAR COR EGLL 160550Z AUTO 22012G22KT 9999 BKN013 OVC020
                        18/16 Q1013 TEMPO 5000 RA=
201808160520 METAR COR EGLL 160520Z 21012G22KT 9999 BKN013 OVC020 18/16
                        Q1013 TEMPO 5000 RA=
201808160450 METAR COR EGLL 160450Z AUTO 21010KT 9999 OVC016 18/15 Q1013
                        TEMPO 5000 RA BKN012=
201808160420 METAR COR EGLL 160420Z AUTO 21010KT 9999 BKN016 OVC023 18/15
                        Q1013 TEMPO BKN014=
201808160350 METAR COR EGLL 160350Z AUTO 23012KT 9999 SCT018 BKN024 18/15
                        Q1013 NOSIG=
201808160320 METAR COR EGLL 160320Z AUTO 21011KT 9999 BKN017 OVC024 18/15
                        Q1013 NOSIG=
201808160250 METAR COR EGLL 160250Z AUTO 24010KT 9999 BKN018 BKN024 OVC028
                        19/15 Q1014 NOSIG=
201808160220 METAR COR EGLL 160220Z AUTO 24013KT 9999 BKN018 OVC026 19/15
                        Q1014 NOSIG=
201808160150 METAR COR EGLL 160150Z AUTO 23012KT 9999 BKN018 OVC023 19/15
                        Q1014 NOSIG=
201808160120 METAR COR EGLL 160120Z AUTO 22013KT 9999 SCT021 BKN026 BKN030
                        19/15 Q1014 NOSIG=
201808160050 METAR EGLL 160050Z AUTO 21009KT 9999 BKN030 18/15 Q1014=
201808160020 METAR COR EGLL 160020Z AUTO 21009KT 9999 BKN034 18/15 Q1015
                        NOSIG=
201808152350 METAR COR EGLL 152350Z AUTO 21009KT 9999 OVC029 19/15 Q1015
                        NOSIG=
201808152320 METAR COR EGLL 152320Z AUTO 21010KT 9999 OVC027 18/15 Q1015
                        NOSIG=
201808152250 METAR COR EGLL 152250Z AUTO 21009KT 9999 OVC028 18/15 Q1015
                        NOSIG=
201808152220 METAR COR EGLL 152220Z AUTO 22010KT 9999 BKN036 18/15 Q1016
                        NOSIG=
201808152150 METAR COR EGLL 152150Z AUTO 22011KT 9999 BKN035 18/15 Q1016
                        NOSIG=
201808152120 METAR COR EGLL 152120Z AUTO 22010KT 9999 OVC036 19/15 Q1016
                        NOSIG=
201808152050 METAR COR EGLL 152050Z AUTO 21011KT 9999 OVC037 19/15 Q1016
                        NOSIG=
201808152020 METAR COR EGLL 152020Z AUTO 21011KT 9999 OVC037 20/15 Q1016
                        NOSIG=
201808151950 METAR COR EGLL 151950Z AUTO 22012KT 9999 OVC038 20/15 Q1016
                        NOSIG=
201808151920 METAR COR EGLL 151920Z AUTO 22013KT 9999 BKN041 20/15 Q1016
                        NOSIG=
201808151850 METAR COR EGLL 151850Z AUTO 22012KT 9999 SCT040 21/15 Q1016
                        NOSIG=
201808151820 METAR COR EGLL 151820Z AUTO 21011KT 9999 SCT037 21/15 Q1016
                        NOSIG=
201808151750 METAR COR EGLL 151750Z AUTO 22011G21KT 190V250 9999 OVC035
                        22/15 Q1016 NOSIG=
201808151720 METAR COR EGLL 151720Z AUTO 23013KT 9999 OVC039 22/13 Q1016
                        NOSIG=
201808151650 METAR COR EGLL 151650Z AUTO 23013KT 9999 SCT033 OVC041 22/13
                        Q1016 NOSIG=
201808151620 METAR COR EGLL 151620Z AUTO 23014KT 9999 BKN034 OVC041 23/14
                        Q1016 NOSIG=
201808151550 METAR EGLL 151550Z AUTO 23015KT 9999 BKN034 23/15 Q1016=
201808151520 METAR COR EGLL 151520Z AUTO 23013KT 9999 BKN037 24/14 Q1016
                        NOSIG=
201808151450 METAR COR EGLL 151450Z AUTO 21010KT 170V250 9999 BKN036 24/14
                        Q1017 NOSIG=
201808151420 METAR COR EGLL 151420Z AUTO 22012KT 180V250 9999 BKN036 24/15
                        Q1017 NOSIG=
201808151350 METAR COR EGLL 151350Z AUTO 23012KT 190V260 9999 BKN035 24/15
                        Q1017 NOSIG=
201808151320 METAR COR EGLL 151320Z AUTO 23012KT 9999 OVC039 24/15 Q1017
                        NOSIG=
201808151250 METAR COR EGLL 151250Z AUTO 24014KT 9999 OVC031 23/15 Q1018
                        NOSIG=
201808151220 METAR COR EGLL 151220Z AUTO 22012KT 9999 BKN031 OVC040 23/15
                        Q1018 NOSIG=
201808151150 METAR COR EGLL 151150Z AUTO 24013KT 200V260 9999 OVC030 22/14
                        Q1018 NOSIG=
201808151120 METAR COR EGLL 151120Z AUTO 24012KT 9999 BKN030 OVC036 23/15
                        Q1018 NOSIG=
201808151050 METAR COR EGLL 151050Z AUTO 25012KT 9999 BKN028 OVC034 22/14
                        Q1018 NOSIG=
201808151020 METAR COR EGLL 151020Z AUTO 24012KT 220V280 9999 BKN028 21/14
                        Q1018 NOSIG=
201808150950 METAR COR EGLL 150950Z AUTO 24014KT 9999 SCT025 BKN030 22/14
                        Q1018 NOSIG=
201808150920 METAR COR EGLL 150920Z AUTO 25011KT 210V270 9999 BKN023 BKN027
                        21/14 Q1018 NOSIG=
201808150850 METAR COR EGLL 150850Z AUTO 25010KT 9999 BKN020 20/14 Q1018
                        NOSIG=
201808150820 METAR COR EGLL 150820Z AUTO 23011KT 9999 BKN021 20/14 Q1018
                        NOSIG=
201808150750 METAR COR EGLL 150750Z AUTO 23009KT 9999 BKN020 19/14 Q1018
                        NOSIG=
201808150720 METAR COR EGLL 150720Z AUTO 23007KT 9999 OVC024 19/14 Q1018
                        NOSIG=
201808150650 METAR COR EGLL 150650Z AUTO 25008KT 9999 OVC024 18/14 Q1018
                        NOSIG=
201808150620 METAR COR EGLL 150620Z AUTO 25008KT 9999 BKN024 OVC028 18/13
                        Q1018 NOSIG=
201808150550 METAR COR EGLL 150550Z AUTO 26011KT 9999 BKN020 OVC026 18/13
                        Q1018 NOSIG=
201808150520 METAR COR EGLL 150520Z AUTO 27010KT 9999 OVC020 18/14 Q1018
                        NOSIG=
201808150450 METAR COR EGLL 150450Z AUTO 26010KT 9999 OVC020 18/14 Q1018
                        NOSIG=
201808150420 METAR COR EGLL 150420Z AUTO 25009KT 9999 OVC020 18/14 Q1018
                        NOSIG=
201808150350 METAR COR EGLL 150350Z AUTO 23007KT 9999 OVC020 17/14 Q1018
                        NOSIG=
201808150320 METAR COR EGLL 150320Z AUTO 22006KT 9999 OVC020 17/14 Q1018
                        NOSIG=
201808150250 METAR COR EGLL 150250Z AUTO 24006KT 9999 OVC020 16/13 Q1018
                        NOSIG=
201808150220 METAR COR EGLL 150220Z AUTO 25007KT 9999 BKN020 16/13 Q1018
                        NOSIG=
201808150150 METAR COR EGLL 150150Z AUTO 24007KT 9999 NCD 15/13 Q1018
                        NOSIG=
201808150120 METAR COR EGLL 150120Z AUTO 25006KT 9999 NCD 15/13 Q1018
                        NOSIG=
201808150050 METAR COR EGLL 150050Z AUTO 24007KT 9999 NCD 16/13 Q1018
                        NOSIG=
201808150020 METAR COR EGLL 150020Z AUTO 25006KT 9999 NCD 16/13 Q1018
                        NOSIG=
201808142350 METAR COR EGLL 142350Z AUTO 27006KT 9999 NCD 16/13 Q1018
                        NOSIG=
201808142320 METAR COR EGLL 142320Z AUTO 26007KT 9999 NCD 16/13 Q1018
                        NOSIG=
201808142250 METAR COR EGLL 142250Z AUTO 26009KT 9999 NCD 17/13 Q1018
                        NOSIG=
201808142220 METAR COR EGLL 142220Z AUTO 27010KT 9999 NCD 17/13 Q1018
                        NOSIG=
201808142150 METAR COR EGLL 142150Z AUTO 27009KT 9999 NCD 18/13 Q1018
                        NOSIG=
201808142120 METAR COR EGLL 142120Z AUTO 27011KT 9999 NCD 18/13 Q1018
                        NOSIG=
201808142050 METAR COR EGLL 142050Z AUTO 27011KT 9999 NCD 19/13 Q1018
                        NOSIG=
201808142020 METAR COR EGLL 142020Z AUTO 27010KT 9999 NCD 19/13 Q1018
                        NOSIG=
201808141950 METAR COR EGLL 141950Z AUTO 27013KT 9999 FEW038 20/13 Q1018
                        NOSIG=
201808141920 METAR COR EGLL 141920Z AUTO 29010KT 9999 SCT037 21/14 Q1017
                        NOSIG=
201808141850 METAR COR EGLL 141850Z AUTO 27010KT 9999 SCT039 22/14 Q1017
                        NOSIG=
201808141820 METAR COR EGLL 141820Z AUTO 27011KT 9999 BKN044 23/14 Q1017
                        NOSIG=
201808141750 METAR COR EGLL 141750Z AUTO 27013KT 9999 BKN047 23/14 Q1016
                        NOSIG=
201808141720 METAR COR EGLL 141720Z AUTO 26012KT 9999 BKN047 23/14 Q1016
                        NOSIG=
201808141650 METAR COR EGLL 141650Z AUTO 27014KT 9999 BKN047 24/13 Q1016
                        NOSIG=
201808141620 METAR COR EGLL 141620Z AUTO 27013KT 9999 FEW044 24/14 Q1016
                        NOSIG=
201808141550 METAR COR EGLL 141550Z AUTO 26013KT 9999 FEW046 25/13 Q1016
                        NOSIG=
201808141520 METAR COR EGLL 141520Z AUTO 27010KT 230V290 9999 BKN044 25/13
                        Q1016 NOSIG=
201808141450 METAR COR EGLL 141450Z AUTO 27010KT 230V300 9999 BKN047 25/13
                        Q1016 NOSIG=
201808141420 METAR COR EGLL 141420Z AUTO 27011KT 9999 BKN048 25/12 Q1016
                        NOSIG=
201808141350 METAR COR EGLL 141350Z AUTO 26012KT 9999 SCT049 25/11 Q1016
                        NOSIG=
201808141320 METAR COR EGLL 141320Z AUTO 28010KT 9999 BKN045 25/12 Q1016
                        NOSIG=
201808141250 METAR COR EGLL 141250Z AUTO 27012KT 9999 BKN046 24/12 Q1017
                        NOSIG=
201808141220 METAR COR EGLL 141220Z AUTO 26010KT 9999 BKN047 24/11 Q1017
                        NOSIG=
201808141150 METAR COR EGLL 141150Z AUTO 29009KT 240V320 9999 BKN044 23/11
                        Q1017 NOSIG=
201808141120 METAR COR EGLL 141120Z AUTO 28007KT 240V320 9999 BKN042 22/11
                        Q1017 NOSIG=
201808141050 METAR COR EGLL 141050Z AUTO 29008KT 9999 SCT036 BKN043 22/11
                        Q1017 NOSIG=
201808141020 METAR COR EGLL 141020Z AUTO 27010KT 240V310 9999 BKN033 21/12
                        Q1017 NOSIG=
201808140950 METAR COR EGLL 140950Z AUTO 27008KT 240V320 9999 SCT043 20/13
                        Q1017 NOSIG=
201808140920 METAR COR EGLL 140920Z AUTO 27008KT 9999 OVC041 19/14 Q1017
                        NOSIG=
201808140850 METAR COR EGLL 140850Z AUTO 27008KT 9999 OVC037 17/13 Q1016
                        NOSIG=
201808140820 METAR COR EGLL 140820Z AUTO 27007KT 9999 OVC039 17/13 Q1016
                        NOSIG=
201808140750 METAR COR EGLL 140750Z AUTO 30006KT 9999 OVC043 17/13 Q1016
                        NOSIG=
201808140720 METAR COR EGLL 140720Z AUTO 27005KT 9999 OVC044 16/13 Q1016
                        NOSIG=
201808140650 METAR COR EGLL 140650Z AUTO 26009KT 9999 OVC044 15/13 Q1016
                        NOSIG=
201808140620 METAR COR EGLL 140620Z AUTO 29005KT 9999 OVC044 15/13 Q1016
                        NOSIG=
201808140550 METAR COR EGLL 140550Z AUTO 27007KT 9999 OVC044 14/13 Q1016
                        NOSIG=
201808140520 METAR COR EGLL 140520Z AUTO 26005KT 9999 BKN046 14/13 Q1015
                        NOSIG=
201808140450 METAR COR EGLL 140450Z AUTO 27006KT 9999 NCD 13/12 Q1015
                        NOSIG=
201808140420 METAR COR EGLL 140420Z AUTO 27006KT 9999 NCD 13/12 Q1015
                        NOSIG=
201808140350 METAR COR EGLL 140350Z AUTO 27006KT 9999 NCD 14/13 Q1014
                        NOSIG=
201808140320 METAR COR EGLL 140320Z AUTO 29005KT 9999 NCD 15/13 Q1014
                        NOSIG=
201808140250 METAR COR EGLL 140250Z AUTO 29004KT 9999 NCD 14/12 Q1014
                        NOSIG=
201808140220 METAR COR EGLL 140220Z AUTO VRB03KT 9999 NCD 15/13 Q1014
                        NOSIG=
201808140150 METAR COR EGLL 140150Z AUTO VRB03KT 9999 NCD 16/13 Q1013
                        NOSIG=
201808140120 METAR COR EGLL 140120Z AUTO 29004KT 9999 NCD 16/13 Q1013
                        NOSIG=
201808140050 METAR COR EGLL 140050Z AUTO 30004KT 9999 NCD 16/13 Q1013
                        NOSIG=
201808140020 METAR COR EGLL 140020Z AUTO 29004KT 9999 NCD 16/13 Q1013
                        NOSIG=
201808132350 METAR COR EGLL 132350Z AUTO 30003KT 9999 NCD 17/13 Q1013
                        NOSIG=
201808132320 METAR COR EGLL 132320Z AUTO 29005KT 9999 NCD 17/13 Q1012
                        NOSIG=
201808132250 METAR COR EGLL 132250Z AUTO 29004KT 9999 NCD 18/13 Q1012
                        NOSIG=
201808132220 METAR COR EGLL 132220Z AUTO 31004KT 9999 NCD 18/13 Q1012
                        NOSIG=
201808132150 METAR COR EGLL 132150Z AUTO 31005KT 9999 NCD 19/13 Q1011
                        NOSIG=
201808132120 METAR COR EGLL 132120Z AUTO 30006KT 9999 NCD 19/14 Q1011
                        NOSIG=
201808132050 METAR COR EGLL 132050Z AUTO 31006KT 270V340 9999 NCD 20/14
                        Q1011 NOSIG=
201808132020 METAR COR EGLL 132020Z AUTO 31006KT 280V350 9999 FEW039 21/15
                        Q1010 NOSIG=
201808131950 METAR COR EGLL 131950Z AUTO 31007KT 9999 NCD 22/14 Q1010
                        NOSIG=
201808131920 METAR COR EGLL 131920Z AUTO 32007KT 9999 NCD 22/14 Q1009
                        NOSIG=
201808131850 METAR COR EGLL 131850Z AUTO 30007KT 9999 FEW047 23/13 Q1009
                        NOSIG=
201808131820 METAR COR EGLL 131820Z AUTO 30007KT 9999 NCD 23/13 Q1008
                        NOSIG=
201808131750 METAR COR EGLL 131750Z AUTO 32007KT 290V010 9999 BKN048 24/12
                        Q1008 NOSIG=
201808131720 METAR COR EGLL 131720Z AUTO 29008KT 260V320 9999 NCD 24/12
                        Q1008 NOSIG=
201808131650 METAR COR EGLL 131650Z AUTO 30010KT 9999 NCD 23/12 Q1008
                        NOSIG=
201808131620 METAR COR EGLL 131620Z AUTO 30009KT 9999 NCD 24/12 Q1008
                        NOSIG=
201808131550 METAR COR EGLL 131550Z AUTO 29010KT 240V330 9999 FEW047 25/12
                        Q1007 NOSIG=
201808131520 METAR COR EGLL 131520Z AUTO 30007KT 260V340 9999 FEW046 24/12
                        Q1007 NOSIG=
201808131450 METAR COR EGLL 131450Z AUTO 32007KT 280V350 9999 SCT044 23/13
                        Q1007 NOSIG=
201808131420 METAR COR EGLL 131420Z AUTO 30009KT 9999 FEW042 23/13 Q1007
                        NOSIG=
201808131350 METAR COR EGLL 131350Z AUTO 29010KT 250V320 9999 FEW041 24/13
                        Q1007 NOSIG=
201808131320 METAR COR EGLL 131320Z AUTO 28012KT 250V330 9999 FEW041 24/13
                        Q1007 NOSIG=
201808131250 METAR COR EGLL 131250Z AUTO 27016KT 9999 FEW039/// //////CB
                        22/13 Q1007 NOSIG=
201808131220 METAR COR EGLL 131220Z AUTO 29009KT 260V350 9999 SCT035///
                        BKN041/// //////TCU 23/13 Q1007 TEMPO
                        SHRA=
201808131150 METAR COR EGLL 131150Z AUTO 29007KT 250V340 9999 FEW025///
                        SCT029/// //////CB 23/15 Q1007 TEMPO
                        8000 SHRA=
201808131120 METAR COR EGLL 131120Z 29007KT 9999 SCT022TCU BKN035 20/15
                        Q1007 TEMPO 8000 SHRA=
201808131050 METAR COR EGLL 131050Z AUTO 31006KT 290V360 9999 FEW019 SCT047
                        20/16 Q1007 NOSIG=
201808131020 METAR COR EGLL 131020Z AUTO 30010KT 270V330 9999 SCT018 BKN024
                        BKN032 19/15 Q1007 NOSIG=
201808130950 METAR COR EGLL 130950Z AUTO 30008KT 9999 SCT016 BKN026 20/15
                        Q1007 NOSIG=
201808130920 METAR COR EGLL 130920Z AUTO 29008KT 260V320 9999 SCT012 BKN016
                        BKN021 19/15 Q1006 NOSIG=
201808130850 METAR COR EGLL 130850Z AUTO 29008KT 260V320 9999 BKN009 OVC020
                        18/16 Q1006 TEMPO SCT009=
201808130820 METAR COR EGLL 130820Z AUTO 29007KT 9999 BKN008 17/16 Q1006
                        TEMPO SCT008=
201808130750 METAR COR EGLL 130750Z 27009KT 9000 -RA SCT007 BKN025 17/16
                        Q1006 TEMPO BKN007=
201808130720 METAR COR EGLL 130720Z 27008KT 8000 -RA SCT008 BKN020 17/15
                        Q1006 TEMPO BKN008=
201808130650 METAR COR EGLL 130650Z AUTO 27009KT 9999 SCT014 17/15 Q1006
                        NOSIG=
201808130620 METAR COR EGLL 130620Z AUTO 24005KT 210V280 9999 SCT018 BKN040
                        16/15 Q1006 NOSIG=
201808130550 METAR COR EGLL 130550Z AUTO 25006KT 210V270 9000 OVC016 16/15
                        Q1006 NOSIG=
201808130520 METAR COR EGLL 130520Z AUTO 23005KT 190V260 9000 OVC015 16/15
                        Q1005 NOSIG=
201808130450 METAR COR EGLL 130450Z AUTO 24004KT 7000 BKN004 OVC015 15/15
                        Q1005 BECMG BKN007=
201808130420 METAR COR EGLL 130420Z AUTO 26006KT 6000 BKN004/// 15/15
                        Q1005 BECMG BKN006=
201808130350 METAR COR EGLL 130350Z AUTO 21002KT 4400 BR SCT006 BKN020
                        15/15 Q1005 TEMPO BKN006=
201808130320 METAR COR EGLL 130320Z AUTO 20004KT 5000 BR FEW004 SCT007
                        BKN015 15/15 Q1005 TEMPO BKN007=
201808130250 METAR COR EGLL 130250Z AUTO 21004KT 6000 FEW007 BKN011 BKN020
                        16/15 Q1005 TEMPO BKN006=
201808130220 METAR COR EGLL 130220Z AUTO 23005KT 9000 BKN006 BKN014 16/15
                        Q1005 TEMPO SCT006=
201808130150 METAR COR EGLL 130150Z AUTO 25003KT 9999 BKN007 16/15 Q1006
                        TEMPO SCT007=
201808130120 METAR COR EGLL 130120Z AUTO 28002KT 9999 BKN008 BKN015 16/15
                        Q1006 TEMPO SCT008=
201808130050 METAR COR EGLL 130050Z AUTO 23003KT 9999 BKN008 16/15 Q1006
                        TEMPO SCT008=
201808130020 METAR COR EGLL 130020Z AUTO 24001KT 9999 BKN009 16/15 Q1006
                        TEMPO SHRA=
201808122350 METAR COR EGLL 122350Z AUTO VRB02KT 9999 FEW006 BKN011 16/15
                        Q1006 TEMPO BKN008=
201808122320 METAR COR EGLL 122320Z AUTO 18003KT 9999 FEW006 SCT012 BKN031
                        16/15 Q1007 TEMPO BKN008=
201808122250 METAR COR EGLL 122250Z AUTO 16004KT 9999 FEW013 16/15 Q1007
                        TEMPO BKN008=
201808122220 METAR COR EGLL 122220Z AUTO 21006KT 180V250 9999 BKN012///
                        //////CB 16/15 Q1007 TEMPO SHRA BKN008=
201808122150 METAR COR EGLL 122150Z AUTO 19004KT 110V260 9999 -RA FEW011///
                        BKN023/// //////CB 16/14 Q1007 TEMPO
                        BKN008=
201808122120 METAR COR EGLL 122120Z AUTO 21007KT 180V260 5000 -RA SCT013///
                        BKN020/// BKN025/// //////CB 16/14
                        Q1007 TEMPO 3000 +SHRA BKN008=
201808122050 METAR COR EGLL 122050Z AUTO 21008KT 180V260 9999 -RA BKN019///
                        OVC032/// //////TCU 17/14 Q1007 TEMPO
                        4000 SHRA BKN010=
201808122020 METAR COR EGLL 122020Z AUTO 21007KT 180V250 9999 BKN029 17/13
                        Q1007 TEMPO SHRA BKN012=
201808121950 METAR COR EGLL 121950Z AUTO 21009KT 180V250 9999 BKN031 OVC038
                        18/13 Q1007 NOSIG=
201808121920 METAR COR EGLL 121920Z AUTO 19010KT 160V240 9999 -RA OVC030///
                        //////TCU 18/13 Q1007 NOSIG=
201808121850 METAR COR EGLL 121850Z AUTO 19008KT 160V230 9999 BKN035///
                        BKN043/// //////TCU 19/13 Q1007 NOSIG=
201808121820 METAR COR EGLL 121820Z AUTO 20009KT 160V260 9999 //////CB
                        19/13 Q1007 TEMPO 7000 SHRA=
201808121750 METAR COR EGLL 121750Z AUTO 20010KT 160V240 9999 SCT045 19/14
                        Q1008 TEMPO 7000 SHRA=
201808121720 METAR COR EGLL 121720Z AUTO 19012KT 160V240 9999 FEW021 SCT026
                        BKN034 19/14 Q1008 TEMPO 7000 RA=
201808121650 METAR COR EGLL 121650Z AUTO 22008KT 9999 BKN028 OVC042 19/14
                        Q1008 TEMPO 7000 RA=
201808121620 METAR COR EGLL 121620Z AUTO 19009KT 160V230 9999 BKN023 OVC031
                        19/13 Q1008 TEMPO 7000 RA=
201808121550 METAR COR EGLL 121550Z AUTO 19012KT 170V240 9999 OVC025 19/13
                        Q1009 TEMPO 7000 RA=
201808121520 METAR COR EGLL 121520Z AUTO 18010KT 150V230 9999 BKN023 OVC043
                        19/14 Q1009 TEMPO 7000 RA=
201808121450 METAR COR EGLL 121450Z AUTO 19010KT 140V230 9999 BKN023 OVC028
                        18/14 Q1009 TEMPO 7000 RA=
201808121420 METAR COR EGLL 121420Z AUTO 21010KT 170V250 9999 -RA SCT026
                        BKN032 19/14 Q1010 TEMPO 7000 RA=
201808121350 METAR COR EGLL 121350Z AUTO 20012KT 9999 -RA FEW027 19/13
                        Q1010 TEMPO 7000 RA=
201808121320 METAR COR EGLL 121320Z AUTO 22013KT 9999 -RA SCT027 19/13
                        Q1010 NOSIG=
201808121250 METAR COR EGLL 121250Z AUTO 21013KT 170V230 9999 -RA SCT022
                        BKN027 19/14 Q1010 NOSIG=
201808121220 METAR COR EGLL 121220Z AUTO 20011KT 9999 -RA SCT020 BKN025
                        BKN031 19/15 Q1010 NOSIG=
201808121150 METAR COR EGLL 121150Z AUTO 21013KT 9999 -RA BKN025 BKN036
                        20/14 Q1010 TEMPO 7000 RA=
201808121120 METAR COR EGLL 121120Z AUTO 20015KT 9999 -RA BKN031 21/12
                        Q1010 TEMPO 7000 RA=
201808121050 METAR COR EGLL 121050Z AUTO 19014G24KT 9999 -RA BKN039 BKN048
                        22/12 Q1010 TEMPO 7000 RA=
201808121020 METAR COR EGLL 121020Z AUTO 20012KT 170V240 9999 NCD 21/12
                        Q1011 TEMPO 7000 RA=
201808120950 METAR COR EGLL 120950Z AUTO 19010KT 150V230 9999 NCD 21/14
                        Q1011 TEMPO 7000 RA=
201808120920 METAR COR EGLL 120920Z AUTO 20008G19KT 140V230 9999 -RA NCD
                        20/15 Q1011 TEMPO 7000 RA=
201808120850 METAR COR EGLL 120850Z AUTO 19008KT 160V230 9999 -RA NCD
                        20/16 Q1011 TEMPO 7000 RA=
201808120820 METAR COR EGLL 120820Z AUTO 20009KT 9999 -RA NCD 19/16 Q1011
                        TEMPO 7000 RA=
201808120750 METAR COR EGLL 120750Z AUTO 19008KT 140V230 9999 -RA NCD
                        19/15 Q1012 TEMPO 7000 RA=
201808120720 METAR COR EGLL 120720Z AUTO 21008KT 190V260 9999 NCD 18/15
                        Q1012 NOSIG=
201808120650 METAR COR EGLL 120650Z AUTO 21008KT 160V260 9999 -RA NCD
                        18/16 Q1012 NOSIG=
201808120620 METAR COR EGLL 120620Z AUTO 20007KT 170V250 9999 NCD 18/16
                        Q1012 NOSIG=
201808120550 METAR COR EGLL 120550Z AUTO 19005KT 120V250 9999 -RA FEW047
                        18/16 Q1012 NOSIG=
201808120520 METAR COR EGLL 120520Z AUTO 18006KT 150V220 9999 -RA NCD
                        17/15 Q1012 NOSIG=
201808120450 METAR COR EGLL 120450Z AUTO 17004KT 9999 NCD 17/15 Q1013
                        NOSIG=
201808120420 METAR COR EGLL 120420Z AUTO 15005KT 9999 NCD 17/15 Q1013
                        NOSIG=
201808120350 METAR COR EGLL 120350Z AUTO 17004KT 140V200 9999 NCD 17/15
                        Q1013 NOSIG=
201808120320 METAR COR EGLL 120320Z AUTO 16005KT 9999 NCD 16/15 Q1013
                        NOSIG=
201808120250 METAR COR EGLL 120250Z AUTO 18003KT 9999 NCD 16/15 Q1014
                        NOSIG=
201808120220 METAR COR EGLL 120220Z AUTO 18005KT 9999 NCD 17/15 Q1015
                        NOSIG=
201808120150 METAR COR EGLL 120150Z AUTO 17004KT 9999 NCD 17/15 Q1015
                        NOSIG=
201808120120 METAR COR EGLL 120120Z AUTO 18004KT 9999 NCD 17/15 Q1015
                        NOSIG=
201808120050 METAR COR EGLL 120050Z AUTO 17005KT 9999 NCD 17/15 Q1016
                        NOSIG=
201808120020 METAR COR EGLL 120020Z AUTO 18004KT 9999 NCD 17/15 Q1016
                        NOSIG=
201808112350 METAR COR EGLL 112350Z AUTO 18005KT 9999 NCD 17/15 Q1016
                        NOSIG=
201808112320 METAR COR EGLL 112320Z AUTO 18008KT 9999 NCD 17/15 Q1017
                        NOSIG=
201808112250 METAR COR EGLL 112250Z AUTO 18006KT 9999 NCD 17/15 Q1017
                        NOSIG=
201808112220 METAR COR EGLL 112220Z AUTO 18006KT 150V250 9999 NCD 17/15
                        Q1018 NOSIG=
201808112150 METAR COR EGLL 112150Z AUTO 19007KT 110V280 9999 FEW045 17/15
                        Q1018 NOSIG=
201808112120 METAR COR EGLL 112120Z AUTO 19008KT 150V240 9999 BKN042 17/15
                        Q1018 NOSIG=
201808112050 METAR COR EGLL 112050Z AUTO 17007KT 140V220 9999 NCD 17/15
                        Q1018 NOSIG=
201808112020 METAR COR EGLL 112020Z AUTO 18008KT 140V250 9999 SCT038 17/15
                        Q1019 NOSIG=
201808111950 METAR COR EGLL 111950Z AUTO 18007KT 150V240 9999 BKN033 BKN039
                        17/15 Q1019 NOSIG=
201808111920 METAR COR EGLL 111920Z AUTO 21007KT 180V250 9999 OVC031 17/15
                        Q1019 NOSIG=
201808111850 METAR COR EGLL 111850Z AUTO 22008KT 9999 -RA FEW008/// SCT019///
                        OVC033/// //////TCU 17/16 Q1019 TEMPO
                        BKN014=
201808111820 METAR COR EGLL 111820Z AUTO 21011KT 180V250 7000 -RA SCT009
                        BKN014 OVC027 17/16 Q1020 TEMPO SCT014=
201808111750 METAR COR EGLL 111750Z AUTO 19010KT 160V240 9999 -RA FEW019///
                        SCT025/// BKN034/// //////TCU 18/15
                        Q1020 TEMPO BKN014=
201808111720 METAR COR EGLL 111720Z AUTO 19011KT 170V240 9999 BKN027 OVC038
                        19/14 Q1020 TEMPO BKN014=
201808111650 METAR COR EGLL 111650Z AUTO 21011KT 180V250 9999 BKN021 BKN030
                        19/14 Q1020 NOSIG=
201808111620 METAR COR EGLL 111620Z AUTO 21011KT 180V250 9999 BKN022 19/14
                        Q1020 NOSIG=
201808111550 METAR COR EGLL 111550Z AUTO 21010KT 160V240 9999 SCT026 BKN032
                        19/13 Q1020 NOSIG=
201808111520 METAR COR EGLL 111520Z AUTO 21010KT 9999 BKN027 20/12 Q1021
                        NOSIG=
201808111450 METAR COR EGLL 111450Z AUTO 21011KT 9999 BKN031 20/12 Q1021
                        NOSIG=
201808111420 METAR COR EGLL 111420Z AUTO 21009KT 150V240 9999 SCT039 20/10
                        Q1021 NOSIG=
201808111350 METAR COR EGLL 111350Z AUTO 20011KT 180V240 9999 OVC042 20/09
                        Q1022 NOSIG=
201808111320 METAR COR EGLL 111320Z AUTO 21012KT 9999 BKN048 20/08 Q1022
                        NOSIG=
201808111250 METAR COR EGLL 111250Z AUTO 21009KT 160V250 9999 NCD 21/06
                        Q1022 NOSIG=
201808111220 METAR COR EGLL 111220Z AUTO 18011KT 150V230 9999 NCD 21/06
                        Q1022 NOSIG=
201808111150 METAR COR EGLL 111150Z AUTO 20006KT 130V290 9999 NCD 21/07
                        Q1022 NOSIG=
201808111120 METAR COR EGLL 111120Z AUTO 20008G18KT 160V240 9999 NCD 21/06
                        Q1023 NOSIG=
201808111050 METAR COR EGLL 111050Z AUTO 18008KT 9999 FEW046 20/07 Q1023
                        NOSIG=
201808111020 METAR COR EGLL 111020Z AUTO 21005KT 150V300 9999 NCD 19/08
                        Q1023 NOSIG=
201808110950 METAR COR EGLL 110950Z AUTO 20006KT 130V260 9999 NCD 18/08
                        Q1023 NOSIG=
201808110920 METAR COR EGLL 110920Z AUTO 18004KT 130V290 9999 NCD 18/09
                        Q1023 NOSIG=
201808110850 METAR COR EGLL 110850Z AUTO VRB03KT 9999 NCD 17/09 Q1023
                        NOSIG=
201808110820 METAR COR EGLL 110820Z AUTO VRB03KT 9999 NCD 17/09 Q1024
                        NOSIG=
201808110750 METAR COR EGLL 110750Z AUTO VRB03KT 9999 NCD 15/09 Q1024
                        NOSIG=
201808110720 METAR COR EGLL 110720Z AUTO VRB03KT 9999 NCD 14/09 Q1024
                        NOSIG=
201808110650 METAR COR EGLL 110650Z AUTO VRB03KT 9999 NCD 13/09 Q1024
                        NOSIG=
201808110620 METAR COR EGLL 110620Z AUTO 27003KT 9999 NCD 12/09 Q1023
                        NOSIG=
201808110550 METAR COR EGLL 110550Z AUTO 26004KT 210V290 9999 NCD 10/09
                        Q1023 NOSIG=
201808110520 METAR COR EGLL 110520Z AUTO 23004KT 9999 NCD 09/07 Q1023
                        NOSIG=
201808110450 METAR COR EGLL 110450Z AUTO 27004KT 9999 NCD 09/08 Q1023
                        NOSIG=
201808110420 METAR COR EGLL 110420Z AUTO 26003KT 9999 NCD 08/07 Q1023
                        NOSIG=
201808110350 METAR COR EGLL 110350Z AUTO VRB01KT 9999 NCD 10/09 Q1022
                        NOSIG=
201808110320 METAR COR EGLL 110320Z AUTO 27005KT 9999 NCD 09/08 Q1022
                        NOSIG=
201808110250 METAR EGLL 110250Z AUTO 27005KT 9999 NCD 09/08 Q1022=
201808110220 METAR COR EGLL 110220Z AUTO 28004KT 9999 NCD 10/08 Q1022
                        NOSIG=
201808110150 METAR COR EGLL 110150Z AUTO 29004KT 9999 NCD 11/08 Q1022
                        NOSIG=
201808110120 METAR COR EGLL 110120Z AUTO 28005KT 9999 NCD 11/08 Q1022
                        NOSIG=
201808110050 METAR COR EGLL 110050Z AUTO 26005KT 9999 NCD 11/08 Q1022
                        NOSIG=
201808110020 METAR COR EGLL 110020Z AUTO 28004KT 9999 NCD 12/08 Q1022
                        NOSIG=
201808102350 METAR COR EGLL 102350Z AUTO 28005KT 9999 NCD 13/08 Q1022
                        NOSIG=
201808102320 METAR COR EGLL 102320Z AUTO 27004KT 9999 NCD 12/07 Q1022
                        NOSIG=
201808102250 METAR COR EGLL 102250Z AUTO 27007KT 9999 NCD 13/08 Q1022
                        NOSIG=
201808102220 METAR COR EGLL 102220Z AUTO 28007KT 9999 NCD 14/08 Q1021
                        NOSIG=
201808102150 METAR COR EGLL 102150Z AUTO 28007KT 9999 NCD 14/08 Q1021
                        NOSIG=
201808102120 METAR COR EGLL 102120Z AUTO 30004KT 9999 NCD 15/08 Q1021
                        NOSIG=
201808102050 METAR COR EGLL 102050Z AUTO 29004KT 9999 NCD 15/08 Q1020
                        NOSIG=
201808102020 METAR COR EGLL 102020Z AUTO 29005KT 9999 NCD 16/08 Q1020
                        NOSIG=
201808101950 METAR COR EGLL 101950Z AUTO 28006KT 9999 NCD 16/08 Q1019
                        NOSIG=
201808101920 METAR COR EGLL 101920Z AUTO 31006KT 9999 NCD 16/08 Q1019
                        NOSIG=
201808101850 METAR COR EGLL 101850Z AUTO 31007KT 9999 NCD 17/08 Q1018
                        NOSIG=
201808101820 METAR COR EGLL 101820Z AUTO 35006KT 310V030 9999 NCD 18/09
                        Q1018 NOSIG=
201808101750 METAR COR EGLL 101750Z AUTO 35008KT 310V020 9999 NCD 18/09
                        Q1017 NOSIG=
201808101720 METAR COR EGLL 101720Z AUTO 28013KT 9999 NCD 20/08 Q1017
                        NOSIG=
201808101650 METAR COR EGLL 101650Z AUTO 27011KT 9999 FEW049 20/09 Q1017
                        NOSIG=
201808101620 METAR COR EGLL 101620Z AUTO 26010KT 240V300 9999 FEW039 SCT047
                        19/12 Q1017 NOSIG=
201808101550 METAR COR EGLL 101550Z AUTO 24010KT 9999 FEW033/// SCT043///
                        //////CB 19/13 Q1016 NOSIG=
201808101520 METAR COR EGLL 101520Z AUTO 24012KT 9999 SCT025/// BKN037///
                        BKN046/// //////CB 18/13 Q1016 NOSIG=
201808101450 METAR COR EGLL 101450Z AUTO VRB05KT 9999 FEW023/// SCT036///
                        //////CB 19/14 Q1016 NOSIG=
201808101420 METAR COR EGLL 101420Z AUTO 22014KT 9999 VCTS FEW022/// //////CB
                        19/15 Q1016 TEMPO SHRA=
201808101350 METAR COR EGLL 101350Z AUTO 25010KT 9999 SCT018/// //////CB
                        17/15 Q1016 TEMPO SHRA=
201808101320 METAR COR EGLL 101320Z AUTO 28009KT 9999 -RA VCTS FEW022///
                        SCT036/// //////CB 16/14 Q1016 RETS
                        RERA TEMPO 4000 TSRA=
201808101250 METAR COR EGLL 101250Z AUTO 31007KT 280V340 9999 -RA BKN025///
                        //////CB 16/14 Q1016 RERA TEMPO 4000
                        TSRA=
201808101220 METAR COR EGLL 101220Z AUTO 20017G29KT 9999 -RA VCTS SCT015///
                        BKN024/// BKN037/// //////CB 18/14
                        Q1015 TEMPO 4000 TSRA=
201808101150 METAR COR EGLL 101150Z AUTO 19014KT 9999 -RA SCT019/// SCT026///
                        BKN032/// //////CB 18/14 Q1016 TEMPO
                        SHRA=
201808101120 METAR COR EGLL 101120Z AUTO 19011G21KT 160V220 9999 //////CB
                        17/14 Q1016 TEMPO 7000 SHRA=
201808101050 METAR COR EGLL 101050Z AUTO 21011KT 9999 -RA FEW033/// SCT043///
                        //////CB 16/13 Q1017 TEMPO 7000 RA=
201808101020 METAR COR EGLL 101020Z AUTO 22010KT 9999 -RA FEW041/// //////CB
                        18/10 Q1017 TEMPO 7000 SHRA=
201808100950 METAR COR EGLL 100950Z AUTO 23013KT 9999 FEW042 19/09 Q1017
                        TEMPO 7000 SHRA=
201808100920 METAR COR EGLL 100920Z AUTO 23012KT 9999 FEW038 18/09 Q1018
                        NOSIG=
201808100850 METAR COR EGLL 100850Z AUTO 23012KT 9999 FEW033 18/10 Q1018
                        NOSIG=
201808100820 METAR COR EGLL 100820Z AUTO 22006KT 170V270 9999 NCD 17/11
                        Q1018 NOSIG=
201808100750 METAR COR EGLL 100750Z AUTO 22008KT 190V260 9999 NCD 16/11
                        Q1018 NOSIG=
201808100720 METAR COR EGLL 100720Z AUTO 24008KT 9999 NCD 14/11 Q1018
                        NOSIG=
201808100650 METAR COR EGLL 100650Z AUTO 24009KT 9999 NCD 13/10 Q1018
                        NOSIG=
201808100620 METAR COR EGLL 100620Z AUTO 21007KT 190V260 9999 NCD 13/10
                        Q1018 NOSIG=
201808100550 METAR COR EGLL 100550Z AUTO 21006KT 9999 NCD 12/09 Q1018
                        NOSIG=
201808100520 METAR COR EGLL 100520Z AUTO 20004KT 160V270 9999 NCD 11/09
                        Q1018 NOSIG=
201808100450 METAR COR EGLL 100450Z AUTO 21005KT 9999 NCD 11/09 Q1018
                        NOSIG=
201808100420 METAR COR EGLL 100420Z AUTO 22005KT 9999 NCD 11/09 Q1018
                        NOSIG=
201808100350 METAR COR EGLL 100350Z AUTO 21006KT 180V240 9999 NCD 11/09
                        Q1018 NOSIG=
201808100320 METAR COR EGLL 100320Z AUTO 23006KT 9999 NCD 11/09 Q1018
                        NOSIG=
201808100250 METAR COR EGLL 100250Z AUTO 22006KT 9999 NCD 12/09 Q1018
                        NOSIG=
201808100220 METAR COR EGLL 100220Z AUTO 23005KT 9999 NCD 12/09 Q1018
                        NOSIG=
201808100150 METAR COR EGLL 100150Z AUTO 22003KT 9999 NCD 11/09 Q1018
                        NOSIG=
201808100120 METAR COR EGLL 100120Z AUTO 23004KT 9999 NCD 11/09 Q1018
                        NOSIG=
201808100050 METAR COR EGLL 100050Z AUTO 24006KT 9999 NCD 11/09 Q1017
                        NOSIG=
201808100020 METAR COR EGLL 100020Z AUTO 24007KT 9999 NCD 11/10 Q1017
                        NOSIG=
201808092350 METAR COR EGLL 092350Z AUTO 22005KT 200V270 9999 NCD 13/10
                        Q1017 NOSIG=
201808092320 METAR COR EGLL 092320Z AUTO 21005KT 9999 NCD 13/12 Q1017
                        NOSIG=
201808092250 METAR COR EGLL 092250Z AUTO 21007KT 190V250 9999 NCD 13/12
                        Q1017 NOSIG=
201808092220 METAR COR EGLL 092220Z AUTO 22007KT 180V240 9999 NCD 14/12
                        Q1017 NOSIG=
201808092150 METAR COR EGLL 092150Z AUTO 19005KT 130V260 9999 NCD 14/12
                        Q1017 NOSIG=
201808092120 METAR COR EGLL 092120Z AUTO VRB03KT 9999 NCD 14/12 Q1016
                        NOSIG=
201808092050 METAR COR EGLL 092050Z AUTO 07003KT 9999 //////CB 14/12 Q1016
                        NOSIG=
201808092020 METAR COR EGLL 092020Z AUTO VRB03KT 7000 -RA FEW024/// BKN035///
                        BKN047/// //////CB 14/12 Q1016 RESHRA
                        RERA NOSIG=
201808091950 METAR COR EGLL 091950Z AUTO VRB03KT 9999 -RA BKN047/// //////CB
                        15/13 Q1015 TEMPO 4000 +SHRA=
201808091920 METAR COR EGLL 091920Z AUTO 19006KT 140V250 9999 -RA //////CB
                        15/12 Q1015 TEMPO SHRA=
201808091850 METAR COR EGLL 091850Z AUTO 14004KT 090V200 9999 //////CB
                        15/12 Q1014 TEMPO SHRA=
201808091820 METAR COR EGLL 091820Z AUTO 16004KT 090V260 9999 //////CB
                        16/12 Q1014 TEMPO +SHRA=
201808091750 METAR COR EGLL 091750Z AUTO 12004KT 070V210 9999 NCD 16/13
                        Q1014 TEMPO SHRA=
201808091720 METAR COR EGLL 091720Z AUTO 07005KT 9999 //////CB 15/12 Q1014
                        TEMPO SHRA=
201808091650 METAR COR EGLL 091650Z AUTO 06005KT 9999 //////CB 15/12 Q1014
                        TEMPO SHRA=
201808091620 METAR COR EGLL 091620Z AUTO 03007KT 340V070 9999 FEW024///
                        SCT047/// //////CB 16/12 Q1013 RETS
                        TEMPO SHRA=
201808091550 METAR COR EGLL 091550Z AUTO 20007KT 160V250 9999 VCTS SCT048///
                        //////CB 18/13 Q1013 TEMPO SHRA=
201808091520 METAR COR EGLL 091520Z AUTO 26005KT 9999 //////CB 17/13 Q1013
                        NOSIG=
201808091450 METAR COR EGLL 091450Z AUTO 26007KT 9999 NCD 17/13 Q1013
                        NOSIG=
201808091420 METAR COR EGLL 091420Z AUTO 27007KT 9999 NCD 16/13 Q1013
                        NOSIG=
201808091350 METAR COR EGLL 091350Z AUTO 28008KT 9999 -RA SCT025 BKN039
                        16/14 Q1013 NOSIG=
201808091320 METAR COR EGLL 091320Z AUTO 28007KT 9999 -RA FEW014 SCT033
                        BKN049 15/14 Q1013 NOSIG=
201808091250 METAR COR EGLL 091250Z AUTO 28006KT 9000 -RA FEW035 SCT042
                        15/13 Q1013 NOSIG=
201808091220 METAR COR EGLL 091220Z AUTO 29006KT 270V330 9999 -RA BKN038
                        BKN045 15/13 Q1013 NOSIG=
201808091150 METAR COR EGLL 091150Z AUTO 30006KT 270V340 9999 -RA SCT041
                        15/13 Q1013 TEMPO RA=
201808091120 METAR COR EGLL 091120Z AUTO 29006KT 9000 -RA FEW038 BKN044
                        15/13 Q1013 TEMPO RA BKN012=
201808091050 METAR COR EGLL 091050Z AUTO 29005KT 9999 -RA FEW013 SCT035
                        BKN046 16/14 Q1013 TEMPO RA BKN013=
201808091020 METAR COR EGLL 091020Z AUTO VRB02KT 8000 -RA SCT014 SCT029
                        BKN038 16/14 Q1013 TEMPO RA BKN014=
201808090950 METAR COR EGLL 090950Z AUTO VRB02KT 9999 -RA BKN040 16/14
                        Q1013 TEMPO RA BKN014=
201808090920 METAR COR EGLL 090920Z AUTO 32004KT 270V010 9999 -RA SCT040
                        BKN048 16/14 Q1012 TEMPO RA BKN014=
201808090850 METAR COR EGLL 090850Z AUTO VRB03KT 9999 -RA SCT014 16/13
                        Q1013 TEMPO RA BKN014=
201808090820 METAR COR EGLL 090820Z AUTO VRB02KT 9999 -RA SCT019 BKN033
                        16/13 Q1013 TEMPO RA BKN014=
201808090750 METAR COR EGLL 090750Z AUTO 05003KT 9999 -RA FEW019 16/13
                        Q1013 TEMPO RA BKN014=
201808090720 METAR COR EGLL 090720Z AUTO VRB02KT 9999 -RA FEW041 16/12
                        Q1013 TEMPO RA=
201808090650 METAR COR EGLL 090650Z AUTO VRB03KT 9999 -RA FEW046 16/12
                        Q1013 TEMPO RA=
201808090620 METAR COR EGLL 090620Z AUTO VRB02KT 9999 -RA FEW046 16/13
                        Q1013 NOSIG=
201808090550 METAR COR EGLL 090550Z AUTO 29004KT 260V320 9999 -RA NCD
                        15/13 Q1013 TEMPO RA=
201808090520 METAR COR EGLL 090520Z AUTO VRB02KT 9999 NCD 15/13 Q1013
                        TEMPO RA=
201808090450 METAR COR EGLL 090450Z AUTO VRB03KT 9999 NCD 15/13 Q1013
                        NOSIG=
201808090420 METAR COR EGLL 090420Z AUTO 30003KT 9999 NCD 15/13 Q1013
                        NOSIG=
201808090350 METAR COR EGLL 090350Z AUTO 30003KT 9999 -RA NCD 16/13 Q1013
                        TEMPO RA=
201808090320 METAR COR EGLL 090320Z AUTO 28004KT 9999 NCD 15/13 Q1013
                        TEMPO RA=
201808090250 METAR COR EGLL 090250Z AUTO 25004KT 9999 -RA NCD 15/14 Q1013
                        TEMPO RA=
201808090220 METAR COR EGLL 090220Z AUTO 25004KT 9999 -RA NCD 16/14 Q1013
                        TEMPO RA=
201808090150 METAR COR EGLL 090150Z AUTO 24004KT 9999 -RA NCD 16/14 Q1013
                        TEMPO RA=
201808090120 METAR COR EGLL 090120Z AUTO 24006KT 9999 -RA NCD 16/13 Q1014
                        TEMPO RA=
201808090050 METAR COR EGLL 090050Z AUTO 23006KT 9999 NCD 17/12 Q1014
                        TEMPO 7000 RA=
201808090020 METAR COR EGLL 090020Z AUTO 21006KT 9999 NCD 17/12 Q1014
                        TEMPO 7000 RA=
201808082350 METAR COR EGLL 082350Z AUTO 22006KT 9999 NCD 18/12 Q1014
                        NOSIG=
201808082320 METAR COR EGLL 082320Z AUTO 24007KT 9999 NCD 17/12 Q1014
                        NOSIG=
201808082250 METAR COR EGLL 082250Z AUTO 24007KT 210V270 9999 NCD 18/12
                        Q1014 NOSIG=
201808082220 METAR COR EGLL 082220Z AUTO 24006KT 210V280 9999 NCD 18/12
                        Q1013 NOSIG=
201808082150 METAR COR EGLL 082150Z AUTO 25010KT 9999 NCD 18/12 Q1013
                        NOSIG=
201808082120 METAR COR EGLL 082120Z AUTO 25008KT 9999 NCD 18/12 Q1013
                        NOSIG=
201808082050 METAR COR EGLL 082050Z AUTO 27009KT 9999 FEW040 18/12 Q1014
                        NOSIG=
201808082020 METAR COR EGLL 082020Z AUTO 27012KT 9999 SCT038 18/11 Q1013
                        NOSIG=
201808081950 METAR COR EGLL 081950Z AUTO 24010KT 9999 NCD 19/11 Q1013
                        NOSIG=
201808081920 METAR COR EGLL 081920Z AUTO 24011KT 9999 NCD 20/10 Q1013
                        NOSIG=
201808081850 METAR COR EGLL 081850Z AUTO 22012KT 9999 NCD 20/10 Q1013
                        NOSIG=
201808081820 METAR COR EGLL 081820Z AUTO 24013KT 9999 NCD 21/09 Q1013
                        NOSIG=
201808081750 METAR COR EGLL 081750Z AUTO 23013KT 9999 NCD 22/09 Q1012
                        NOSIG=
201808081720 METAR COR EGLL 081720Z AUTO 22012KT 9999 SCT048 22/10 Q1012
                        NOSIG=
201808081650 METAR COR EGLL 081650Z AUTO 24014KT 9999 NCD 22/09 Q1012
                        NOSIG=
201808081620 METAR COR EGLL 081620Z AUTO 24014KT 9999 NCD 23/09 Q1012
                        NOSIG=
201808081550 METAR COR EGLL 081550Z AUTO 23013KT 9999 NCD 22/09 Q1012
                        NOSIG=
201808081520 METAR COR EGLL 081520Z AUTO 23013KT 9999 NCD 23/09 Q1012
                        NOSIG=
201808081450 METAR COR EGLL 081450Z AUTO 24013KT 9999 NCD 23/07 Q1012
                        NOSIG=
201808081420 METAR COR EGLL 081420Z AUTO 21011KT 180V240 9999 NCD 24/07
                        Q1012 NOSIG=
201808081350 METAR COR EGLL 081350Z AUTO 20014KT 170V240 9999 NCD 24/07
                        Q1012 NOSIG=
201808081320 METAR COR EGLL 081320Z AUTO 21013G24KT 9999 NCD 24/06 Q1012
                        NOSIG=
201808081250 METAR COR EGLL 081250Z AUTO 25012KT 210V270 9999 NCD 23/07
                        Q1012 NOSIG=
201808081220 METAR COR EGLL 081220Z AUTO 22014KT 9999 NCD 22/07 Q1012
                        NOSIG=
201808081150 METAR COR EGLL 081150Z AUTO 24012KT 9999 NCD 23/07 Q1012
                        NOSIG=
201808081120 METAR COR EGLL 081120Z AUTO 23013KT 200V260 9999 BKN049 21/08
                        Q1012 NOSIG=
201808081050 METAR COR EGLL 081050Z AUTO 23012KT 200V270 9999 NCD 21/09
                        Q1012 NOSIG=
201808081020 METAR COR EGLL 081020Z AUTO 24013KT 9999 FEW042 20/09 Q1012
                        NOSIG=
201808080950 METAR COR EGLL 080950Z AUTO 25012KT 9999 FEW040 20/10 Q1012
                        NOSIG=
201808080920 METAR COR EGLL 080920Z AUTO 24012KT 9999 FEW038 19/09 Q1011
                        NOSIG=
201808080850 METAR COR EGLL 080850Z AUTO 25011KT 220V280 9999 NCD 19/09
                        Q1011 NOSIG=
201808080820 METAR COR EGLL 080820Z AUTO 25008KT 9999 NCD 19/10 Q1011
                        NOSIG=
201808080750 METAR COR EGLL 080750Z AUTO 27008KT 220V290 9999 NCD 18/10
                        Q1011 NOSIG=
201808080720 METAR COR EGLL 080720Z AUTO 27007KT 9999 NCD 17/10 Q1011
                        NOSIG=
201808080650 METAR COR EGLL 080650Z AUTO 26008KT 9999 NCD 16/10 Q1011
                        NOSIG=
201808080620 METAR COR EGLL 080620Z AUTO 24009KT 9999 NCD 15/10 Q1011
                        NOSIG=
201808080550 METAR COR EGLL 080550Z AUTO 26008KT 9999 NCD 15/09 Q1010
                        NOSIG=
201808080520 METAR COR EGLL 080520Z AUTO 27009KT 9999 FEW042 14/09 Q1010
                        NOSIG=
201808080450 METAR COR EGLL 080450Z AUTO 27011KT 9999 BKN039 15/09 Q1009
                        NOSIG=
201808080420 METAR COR EGLL 080420Z AUTO 28010KT 9999 SCT026 BKN031 15/10
                        Q1009 NOSIG=
201808080350 METAR COR EGLL 080350Z AUTO 28009KT 9999 BKN032 16/10 Q1008
                        NOSIG=
201808080320 METAR COR EGLL 080320Z AUTO 28010KT 9999 FEW026 BKN032 16/11
                        Q1008 NOSIG=
201808080250 METAR COR EGLL 080250Z AUTO 28010KT 9999 BKN026 BKN037 17/11
                        Q1008 NOSIG=
201808080220 METAR COR EGLL 080220Z AUTO 28009KT 9999 BKN023 OVC035 17/12
                        Q1007 NOSIG=
201808080150 METAR COR EGLL 080150Z AUTO 27010KT 9999 SCT023 BKN041 16/13
                        Q1007 NOSIG=
201808080120 METAR COR EGLL 080120Z AUTO 27009KT 9999 BKN038 17/13 Q1007
                        NOSIG=
201808080050 METAR COR EGLL 080050Z AUTO 27010KT 9999 FEW046 17/13 Q1007
                        NOSIG=
201808080020 METAR COR EGLL 080020Z AUTO 27009KT 9999 NCD 18/13 Q1007
                        NOSIG=
201808072350 METAR COR EGLL 072350Z AUTO 27010KT 9999 FEW040 18/13 Q1007
                        NOSIG=
201808072320 METAR COR EGLL 072320Z AUTO 28009KT 9999 NCD 18/12 Q1007
                        NOSIG=
201808072250 METAR COR EGLL 072250Z AUTO 27011KT 9999 NCD 19/12 Q1006
                        NOSIG=
201808072220 METAR COR EGLL 072220Z AUTO 29010KT 9999 NCD 20/13 Q1006
                        NOSIG=
201808072150 METAR COR EGLL 072150Z AUTO 28010KT 9999 //////CB 21/14 Q1006
                        NOSIG=
201808072120 METAR COR EGLL 072120Z AUTO 29009KT 9999 NCD 22/14 Q1006
                        NOSIG=
201808072050 METAR COR EGLL 072050Z AUTO 18008KT 140V250 9999 SCT042///
                        //////TCU 23/15 Q1006 TEMPO SHRA=
201808072020 METAR COR EGLL 072020Z AUTO 22008KT 160V260 9999 //////TCU
                        24/14 Q1006 TEMPO SHRA=
201808071950 METAR COR EGLL 071950Z AUTO 24007G19KT 9999 //////TCU 24/14
                        Q1006 TEMPO SHRA=
201808071920 METAR COR EGLL 071920Z AUTO 27006KT 9999 NCD 24/14 Q1005
                        TEMPO SHRA=
201808071850 METAR COR EGLL 071850Z AUTO 27006KT 9999 NCD 25/14 Q1005
                        TEMPO SHRA=
201808071820 METAR COR EGLL 071820Z AUTO 25007KT 220V290 9999 NCD 25/14
                        Q1005 TEMPO SHRA=
201808071750 METAR COR EGLL 071750Z AUTO 24009KT 200V270 9999 NCD 26/14
                        Q1005 NOSIG=
201808071720 METAR COR EGLL 071720Z AUTO 24012KT 9999 NCD 27/15 Q1006
                        NOSIG=
201808071650 METAR COR EGLL 071650Z AUTO 25013KT 9999 NCD 27/14 Q1006
                        TEMPO SHRA=
201808071620 METAR EGLL 071620Z AUTO 24009KT 210V280 9999 NCD 28/14 Q1006=
201808071550 METAR COR EGLL 071550Z AUTO 27011KT 9999 NCD 29/14 Q1006
                        NOSIG=
201808071520 METAR COR EGLL 071520Z AUTO 25012KT 210V280 9999 NCD 29/15
                        Q1006 NOSIG=
201808071450 METAR COR EGLL 071450Z AUTO 27006KT 240V320 9999 NCD 28/14
                        Q1006 NOSIG=
201808071420 METAR COR EGLL 071420Z AUTO 28010KT 9999 FEW044/// //////CB
                        27/15 Q1006 NOSIG=
201808071350 METAR COR EGLL 071350Z AUTO 23012KT 9999 //////CB 28/14 Q1007
                        NOSIG=
201808071320 METAR COR EGLL 071320Z 24012KT 210V270 9999 BKN080CB 29/13
                        Q1007 NOSIG=
201808071250 METAR COR EGLL 071250Z AUTO 23009KT 140V260 9999 NCD 30/13
                        Q1007 NOSIG=
201808071220 METAR COR EGLL 071220Z AUTO 25006KT 180V320 9999 NCD 30/13
                        Q1007 NOSIG=
201808071150 METAR COR EGLL 071150Z AUTO 26005KT 210V320 9999 NCD 29/13
                        Q1007 NOSIG=
201808071120 METAR COR EGLL 071120Z AUTO 19006KT 110V270 9999 NCD 29/13
                        Q1007 NOSIG=
201808071050 METAR COR EGLL 071050Z AUTO 21005KT 180V250 9999 NCD 28/13
                        Q1007 NOSIG=
201808071020 METAR COR EGLL 071020Z AUTO VRB05KT 9999 NCD 27/13 Q1008
                        NOSIG=
201808070950 METAR COR EGLL 070950Z AUTO 25004KT 190V350 9999 NCD 26/11
                        Q1008 NOSIG=
201808070920 METAR COR EGLL 070920Z AUTO VRB04KT 9999 NCD 26/14 Q1009
                        NOSIG=
201808070850 METAR COR EGLL 070850Z AUTO VRB03KT 9999 NCD 24/14 Q1009
                        NOSIG=
201808070820 METAR COR EGLL 070820Z AUTO VRB03KT 9999 NCD 23/14 Q1009
                        NOSIG=
201808070750 METAR COR EGLL 070750Z AUTO VRB03KT 9999 NCD 22/15 Q1009
                        NOSIG=
201808070720 METAR COR EGLL 070720Z AUTO VRB03KT 9999 NCD 21/15 Q1009
                        NOSIG=
201808070650 METAR COR EGLL 070650Z AUTO VRB02KT 9999 NCD 19/15 Q1010
                        NOSIG=
201808070620 METAR COR EGLL 070620Z AUTO VRB03KT 9999 NCD 18/15 Q1010
                        NOSIG=
201808070550 METAR COR EGLL 070550Z AUTO VRB03KT 9999 NCD 17/15 Q1010
                        NOSIG=
201808070520 METAR COR EGLL 070520Z AUTO VRB03KT 9999 NCD 17/14 Q1010
                        NOSIG=
201808070450 METAR COR EGLL 070450Z AUTO 27006KT 9999 NCD 17/14 Q1010
                        NOSIG=
201808070420 METAR COR EGLL 070420Z AUTO VRB02KT 9999 NCD 17/14 Q1010
                        NOSIG=
201808070350 METAR COR EGLL 070350Z AUTO 27005KT 9999 NCD 17/14 Q1010
                        NOSIG=
201808070320 METAR COR EGLL 070320Z AUTO 28006KT 9999 NCD 18/14 Q1010
                        NOSIG=
201808070250 METAR COR EGLL 070250Z AUTO 28005KT 9999 NCD 18/14 Q1010
                        NOSIG=
201808070220 METAR COR EGLL 070220Z AUTO 28006KT 9999 NCD 18/14 Q1010
                        NOSIG=
201808070150 METAR COR EGLL 070150Z AUTO 28004KT 9999 NCD 19/14 Q1011
                        NOSIG=
201808070120 METAR COR EGLL 070120Z AUTO 25005KT 9999 NCD 19/14 Q1011
                        NOSIG=
201808070050 METAR COR EGLL 070050Z AUTO 24004KT 9999 NCD 19/13 Q1011
                        NOSIG=
201808070020 METAR COR EGLL 070020Z AUTO 21004KT 9999 NCD 19/13 Q1011
                        NOSIG=
201808062350 METAR COR EGLL 062350Z AUTO 27003KT 9999 NCD 21/13 Q1011
                        NOSIG=
201808062320 METAR COR EGLL 062320Z AUTO VRB02KT 9999 NCD 21/13 Q1011
                        NOSIG=
201808062250 METAR COR EGLL 062250Z AUTO 29003KT 9999 NCD 22/12 Q1012
                        NOSIG=
201808062220 METAR COR EGLL 062220Z AUTO 29004KT 9999 NCD 22/13 Q1012
                        NOSIG=
201808062150 METAR COR EGLL 062150Z AUTO 30004KT 9999 NCD 22/13 Q1012
                        NOSIG=
201808062120 METAR COR EGLL 062120Z AUTO 29006KT 9999 NCD 23/13 Q1012
                        NOSIG=
201808062050 METAR COR EGLL 062050Z AUTO 24009KT 9999 NCD 25/13 Q1012
                        NOSIG=
201808062020 METAR COR EGLL 062020Z AUTO 23009KT 9999 NCD 26/13 Q1012
                        NOSIG=
201808061950 METAR COR EGLL 061950Z AUTO 21009KT 9999 NCD 27/12 Q1011
                        NOSIG=
201808061920 METAR COR EGLL 061920Z AUTO 25008KT 9999 NCD 28/08 Q1011
                        NOSIG=
201808061850 METAR COR EGLL 061850Z AUTO 27010KT 9999 NCD 29/07 Q1011
                        NOSIG=
201808061820 METAR COR EGLL 061820Z AUTO 27009KT 220V290 9999 NCD 30/07
                        Q1011 NOSIG=
201808061750 METAR COR EGLL 061750Z AUTO 26010KT 230V290 9999 NCD 30/07
                        Q1011 NOSIG=
201808061720 METAR COR EGLL 061720Z AUTO 24007KT 180V280 9999 NCD 31/07
                        Q1012 NOSIG=
201808061650 METAR COR EGLL 061650Z AUTO 23007KT 180V270 9999 NCD 31/09
                        Q1012 NOSIG=
201808061620 METAR COR EGLL 061620Z AUTO 29004KT 200V350 9999 NCD 31/08
                        Q1012 NOSIG=
201808061550 METAR COR EGLL 061550Z AUTO VRB04KT 9999 NCD 31/08 Q1012
                        NOSIG=
201808061520 METAR COR EGLL 061520Z AUTO 26007KT 220V310 9999 NCD 31/09
                        Q1013 NOSIG=
201808061450 METAR COR EGLL 061450Z AUTO 25007KT 150V330 9999 NCD 30/09
                        Q1013 NOSIG=
201808061420 METAR COR EGLL 061420Z AUTO VRB04KT 9999 NCD 31/09 Q1013
                        NOSIG=
201808061350 METAR COR EGLL 061350Z AUTO VRB04KT 9999 NCD 31/09 Q1013
                        NOSIG=
201808061320 METAR COR EGLL 061320Z AUTO 26007KT 200V310 9999 NCD 30/10
                        Q1014 NOSIG=
201808061250 METAR COR EGLL 061250Z AUTO 25006KT 160V330 9999 NCD 29/09
                        Q1014 NOSIG=
201808061220 METAR COR EGLL 061220Z AUTO VRB05KT 9999 NCD 30/10 Q1014
                        NOSIG=
201808061150 METAR COR EGLL 061150Z AUTO 24004KT 200V300 9999 NCD 28/12
                        Q1015 NOSIG=
201808061120 METAR COR EGLL 061120Z AUTO 19006KT 140V250 9999 NCD 28/12
                        Q1015 NOSIG=
201808061050 METAR COR EGLL 061050Z AUTO VRB04KT 9999 NCD 27/12 Q1015
                        NOSIG=
201808061020 METAR COR EGLL 061020Z AUTO VRB03KT 9999 NCD 27/12 Q1015
                        NOSIG=
201808060950 METAR COR EGLL 060950Z AUTO VRB03KT 9999 NCD 26/12 Q1016
                        NOSIG=
201808060920 METAR EGLL 060920Z AUTO VRB03KT 9999 NCD 25/13 Q1016=
201808060850 METAR EGLL 060850Z AUTO VRB02KT 9999 NCD 24/13 Q1016=
201808060820 METAR EGLL 060820Z AUTO VRB03KT 9999 NCD 23/13 Q1016=
201808060750 METAR EGLL 060750Z AUTO VRB03KT 9999 NCD 22/13 Q1017=
201808060720 METAR COR EGLL 060720Z AUTO VRB02KT 9999 NCD 21/13 Q1017
                        NOSIG=
201808060650 METAR COR EGLL 060650Z AUTO VRB02KT 9999 NCD 20/14 Q1017
                        NOSIG=
201808060620 METAR COR EGLL 060620Z AUTO VRB02KT 9999 NCD 19/14 Q1017
                        NOSIG=
201808060550 METAR COR EGLL 060550Z AUTO VRB01KT 9999 NCD 18/15 Q1017
                        NOSIG=
201808060520 METAR COR EGLL 060520Z AUTO VRB01KT 9999 NCD 17/14 Q1017
                        NOSIG=
201808060450 METAR COR EGLL 060450Z AUTO VRB01KT 9999 NCD 17/14 Q1017
                        NOSIG=
201808060420 METAR COR EGLL 060420Z AUTO VRB03KT 9999 NCD 17/14 Q1017
                        NOSIG=
201808060350 METAR COR EGLL 060350Z AUTO 31001KT 9999 NCD 17/14 Q1017
                        NOSIG=
201808060320 METAR COR EGLL 060320Z AUTO 26002KT 9999 NCD 17/14 Q1018
                        NOSIG=
201808060250 METAR COR EGLL 060250Z AUTO 25002KT 9999 NCD 17/14 Q1018
                        NOSIG=
201808060220 METAR COR EGLL 060220Z AUTO 19003KT 9999 NCD 17/14 Q1018
                        NOSIG=
201808060150 METAR COR EGLL 060150Z AUTO VRB02KT 9999 NCD 19/14 Q1018
                        NOSIG=
201808060120 METAR COR EGLL 060120Z AUTO 20004KT 9999 NCD 18/14 Q1019
                        NOSIG=
201808060050 METAR COR EGLL 060050Z AUTO 22004KT 190V250 9999 NCD 19/14
                        Q1019 NOSIG=
201808060020 METAR COR EGLL 060020Z AUTO 17004KT 9999 NCD 20/14 Q1019
                        NOSIG=
201808052350 METAR COR EGLL 052350Z AUTO 18004KT 9999 NCD 20/14 Q1020
                        NOSIG=
201808052320 METAR COR EGLL 052320Z AUTO 15005KT 9999 NCD 21/14 Q1020
                        NOSIG=
201808052250 METAR COR EGLL 052250Z AUTO 18004KT 9999 NCD 21/14 Q1020
                        NOSIG=
201808052220 METAR COR EGLL 052220Z AUTO 16005KT 9999 NCD 22/14 Q1020
                        NOSIG=
201808052150 METAR COR EGLL 052150Z AUTO 18006KT 9999 NCD 22/14 Q1020
                        NOSIG=
201808052120 METAR COR EGLL 052120Z AUTO 18007KT 9999 NCD 23/14 Q1020
                        NOSIG=
201808052050 METAR COR EGLL 052050Z AUTO 17008KT 9999 NCD 24/14 Q1019
                        NOSIG=
201808052020 METAR COR EGLL 052020Z AUTO 18009KT 9999 NCD 24/15 Q1019
                        NOSIG=
201808051950 METAR COR EGLL 051950Z AUTO 11010KT 9999 NCD 25/14 Q1019
                        NOSIG=
201808051920 METAR COR EGLL 051920Z AUTO 10010KT 9999 NCD 26/14 Q1019
                        NOSIG=
201808051850 METAR COR EGLL 051850Z AUTO 10010KT 9999 NCD 26/13 Q1019
                        NOSIG=
201808051820 METAR COR EGLL 051820Z AUTO 10010KT 9999 NCD 28/12 Q1019
                        NOSIG=
201808051750 METAR COR EGLL 051750Z AUTO 16005KT 090V210 9999 NCD 29/11
                        Q1019 NOSIG=
201808051720 METAR COR EGLL 051720Z AUTO 17005KT 110V230 9999 NCD 29/11
                        Q1020 NOSIG=
201808051650 METAR COR EGLL 051650Z AUTO VRB04KT 9999 NCD 29/11 Q1020
                        NOSIG=
201808051620 METAR COR EGLL 051620Z AUTO 16005KT 110V240 9999 NCD 29/11
                        Q1020 NOSIG=
201808051550 METAR COR EGLL 051550Z AUTO 17006KT 110V220 9999 NCD 29/11
                        Q1020 NOSIG=
201808051520 METAR COR EGLL 051520Z AUTO 15007KT 100V220 9999 NCD 29/11
                        Q1021 NOSIG=
201808051450 METAR COR EGLL 051450Z AUTO 17005KT 130V250 9999 NCD 29/11
                        Q1021 NOSIG=
201808051420 METAR COR EGLL 051420Z AUTO 12007KT 090V190 9999 NCD 29/11
                        Q1021 NOSIG=
201808051350 METAR COR EGLL 051350Z AUTO VRB04KT 9999 NCD 28/11 Q1022
                        NOSIG=
201808051320 METAR COR EGLL 051320Z AUTO 16005KT 080V210 9999 NCD 28/11
                        Q1022 NOSIG=
201808051250 METAR COR EGLL 051250Z AUTO VRB03KT 9999 NCD 28/11 Q1023
                        NOSIG=
201808051220 METAR COR EGLL 051220Z AUTO VRB04KT 9999 NCD 27/11 Q1023
                        NOSIG=
201808051150 METAR COR EGLL 051150Z AUTO 15006KT 090V220 9999 NCD 27/11
                        Q1023 NOSIG=
201808051120 METAR COR EGLL 051120Z AUTO VRB04KT 9999 NCD 27/11 Q1024
                        NOSIG=
201808051050 METAR COR EGLL 051050Z AUTO VRB03KT 9999 NCD 26/12 Q1024
                        NOSIG=
201808051020 METAR COR EGLL 051020Z AUTO VRB03KT 9999 NCD 25/12 Q1024
                        NOSIG=
201808050950 METAR COR EGLL 050950Z AUTO 14004KT 080V220 9999 NCD 24/12
                        Q1024 NOSIG=
201808050920 METAR COR EGLL 050920Z AUTO VRB02KT 9999 NCD 24/13 Q1025
                        NOSIG=
201808050850 METAR COR EGLL 050850Z AUTO VRB03KT 9999 NCD 23/14 Q1025
                        NOSIG=
201808050820 METAR COR EGLL 050820Z AUTO 12004KT 050V160 9999 NCD 22/13
                        Q1025 NOSIG=
201808050750 METAR COR EGLL 050750Z AUTO 14004KT 090V170 9999 NCD 21/15
                        Q1025 NOSIG=
201808050720 METAR COR EGLL 050720Z AUTO VRB02KT 9999 NCD 20/16 Q1025
                        NOSIG=
201808050650 METAR COR EGLL 050650Z AUTO 14004KT 9999 NCD 20/16 Q1025
                        NOSIG=
201808050620 METAR COR EGLL 050620Z AUTO VRB02KT 9999 NCD 19/16 Q1025
                        NOSIG=
201808050550 METAR COR EGLL 050550Z AUTO 05002KT 9999 NCD 18/16 Q1025
                        NOSIG=
201808050520 METAR COR EGLL 050520Z AUTO 01001KT 9999 NCD 17/15 Q1024
                        NOSIG=
201808050450 METAR COR EGLL 050450Z AUTO 02002KT 9999 NCD 17/15 Q1024
                        NOSIG=
201808050420 METAR COR EGLL 050420Z AUTO 08002KT 9999 NCD 18/15 Q1024
                        NOSIG=
201808050350 METAR COR EGLL 050350Z AUTO 08002KT 9999 NCD 18/15 Q1024
                        NOSIG=
201808050320 METAR COR EGLL 050320Z AUTO 06002KT 9999 NCD 18/15 Q1024
                        NOSIG=
201808050250 METAR COR EGLL 050250Z AUTO 05002KT 9999 NCD 18/15 Q1024
                        NOSIG=
201808050220 METAR COR EGLL 050220Z AUTO VRB02KT 9999 NCD 17/15 Q1024
                        NOSIG=
201808050150 METAR COR EGLL 050150Z AUTO 09004KT 9999 NCD 18/15 Q1024
                        NOSIG=
201808050120 METAR COR EGLL 050120Z AUTO 10005KT 9999 NCD 18/15 Q1024
                        NOSIG=
201808050050 METAR COR EGLL 050050Z AUTO VRB03KT 9999 NCD 18/15 Q1025
                        NOSIG=
201808050020 METAR COR EGLL 050020Z AUTO 10005KT 9999 NCD 19/15 Q1025
                        NOSIG=
201808042350 METAR COR EGLL 042350Z AUTO 10005KT 9999 NCD 19/15 Q1025
                        NOSIG=
201808042320 METAR COR EGLL 042320Z AUTO 10007KT 9999 NCD 19/16 Q1025
                        NOSIG=
201808042250 METAR COR EGLL 042250Z AUTO 09007KT 9999 NCD 20/16 Q1025
                        NOSIG=
201808042220 METAR COR EGLL 042220Z AUTO 10009KT 9999 NCD 20/16 Q1025
                        NOSIG=
201808042150 METAR COR EGLL 042150Z AUTO 09008KT 9999 NCD 21/16 Q1024
                        NOSIG=
201808042120 METAR COR EGLL 042120Z AUTO 05005KT 9999 NCD 22/16 Q1024
                        NOSIG=
201808042050 METAR COR EGLL 042050Z AUTO 06008KT 9999 NCD 24/13 Q1024
                        NOSIG=
201808042020 METAR COR EGLL 042020Z AUTO 36004KT 320V050 9999 NCD 24/11
                        Q1024 NOSIG=
201808041950 METAR COR EGLL 041950Z AUTO 35004KT 320V020 9999 NCD 25/10
                        Q1023 NOSIG=
201808041920 METAR COR EGLL 041920Z AUTO 35005KT 310V030 9999 NCD 26/11
                        Q1023 NOSIG=
201808041850 METAR COR EGLL 041850Z AUTO 32006KT 9999 NCD 27/10 Q1023
                        NOSIG=
201808041820 METAR COR EGLL 041820Z AUTO 33005KT 290V030 9999 NCD 27/10
                        Q1023 NOSIG=
201808041750 METAR EGLL 041750Z AUTO 36006KT 320V050 9999 NCD 28/09 Q1023=
201808041720 METAR EGLL 041720Z AUTO 01005KT 280V060 9999 NCD 28/09 Q1023=
201808041650 METAR EGLL 041650Z AUTO 33006KT 300V010 9999 NCD 28/09 Q1023=
201808041620 METAR COR EGLL 041620Z AUTO 34006KT 290V070 9999 NCD 28/09
                        Q1023 NOSIG=
201808041550 METAR COR EGLL 041550Z AUTO 35006KT 290V070 9999 NCD 28/10
                        Q1023 NOSIG=
201808041520 METAR COR EGLL 041520Z AUTO VRB05KT 9999 NCD 28/10 Q1023
                        NOSIG=
201808041450 METAR COR EGLL 041450Z AUTO 34006KT 280V050 9999 NCD 28/11
                        Q1023 NOSIG=
201808041420 METAR COR EGLL 041420Z AUTO 36005KT 310V080 9999 NCD 28/11
                        Q1023 NOSIG=
201808041350 METAR COR EGLL 041350Z AUTO 34006KT 260V050 9999 NCD 28/11
                        Q1023 NOSIG=
201808041320 METAR COR EGLL 041320Z AUTO 33005KT 280V080 9999 NCD 27/11
                        Q1023 NOSIG=
201808041250 METAR COR EGLL 041250Z AUTO 35006KT 250V060 9999 NCD 27/11
                        Q1023 NOSIG=
201808041220 METAR COR EGLL 041220Z AUTO 34006KT 280V060 9999 NCD 27/12
                        Q1024 NOSIG=
201808041150 METAR COR EGLL 041150Z AUTO 34006KT 270V040 9999 NCD 27/13
                        Q1024 NOSIG=
201808041120 METAR COR EGLL 041120Z AUTO 32004KT 260V030 9999 NCD 26/13
                        Q1024 NOSIG=
201808041050 METAR COR EGLL 041050Z AUTO 03005KT 280V090 9999 NCD 25/14
                        Q1024 NOSIG=
201808041020 METAR COR EGLL 041020Z AUTO 04005KT 290V080 9999 NCD 25/14
                        Q1024 NOSIG=
201808040950 METAR COR EGLL 040950Z AUTO 02006KT 280V060 9999 NCD 24/14
                        Q1024 NOSIG=
201808040920 METAR COR EGLL 040920Z AUTO 34006KT 310V030 9999 NCD 24/14
                        Q1024 NOSIG=
201808040850 METAR COR EGLL 040850Z AUTO 35006KT 300V040 9999 NCD 23/15
                        Q1024 NOSIG=
201808040820 METAR COR EGLL 040820Z AUTO 01006KT 310V050 9999 NCD 22/15
                        Q1024 NOSIG=
201808040750 METAR COR EGLL 040750Z AUTO 36006KT 300V040 9999 NCD 22/15
                        Q1024 NOSIG=
201808040720 METAR COR EGLL 040720Z AUTO 01005KT 330V060 9999 FEW047 21/16
                        Q1023 NOSIG=
201808040650 METAR COR EGLL 040650Z AUTO 01006KT 320V040 9999 NCD 20/16
                        Q1023 NOSIG=
201808040620 METAR COR EGLL 040620Z AUTO 36007KT 330V040 9999 NCD 20/16
                        Q1023 NOSIG=
201808040550 METAR COR EGLL 040550Z AUTO 36004KT 330V050 9999 FEW043 19/16
                        Q1023 NOSIG=
201808040520 METAR COR EGLL 040520Z AUTO 35004KT 270V040 9999 BKN042 19/16
                        Q1023 NOSIG=
201808040450 METAR COR EGLL 040450Z AUTO 36004KT 320V030 9999 BKN039 19/16
                        Q1022 NOSIG=
201808040420 METAR COR EGLL 040420Z AUTO 36004KT 320V030 9999 SCT039 19/16
                        Q1022 NOSIG=
201808040350 METAR COR EGLL 040350Z AUTO 36005KT 320V030 9999 NCD 19/17
                        Q1022 NOSIG=
201808040320 METAR COR EGLL 040320Z AUTO 36005KT 320V030 9999 NCD 20/17
                        Q1022 NOSIG=
201808040250 METAR COR EGLL 040250Z AUTO 35004KT 300V020 9999 NCD 20/17
                        Q1022 NOSIG=
201808040220 METAR COR EGLL 040220Z AUTO 36005KT 320V030 9999 NCD 20/17
                        Q1022 NOSIG=
201808040150 METAR COR EGLL 040150Z AUTO 35004KT 310V030 9999 NCD 21/17
                        Q1022 NOSIG=
201808040120 METAR COR EGLL 040120Z AUTO 34004KT 270V040 9999 NCD 21/17
                        Q1022 NOSIG=
201808040050 METAR COR EGLL 040050Z AUTO VRB03KT 9999 NCD 21/17 Q1022
                        NOSIG=
201808040020 METAR COR EGLL 040020Z AUTO 31004KT 9999 NCD 21/17 Q1022
                        NOSIG=
201808032350 METAR COR EGLL 032350Z AUTO VRB03KT 9999 NCD 22/17 Q1022
                        NOSIG=
201808032320 METAR COR EGLL 032320Z AUTO 31004KT 9999 NCD 22/17 Q1022
                        NOSIG=
201808032250 METAR COR EGLL 032250Z AUTO 31004KT 9999 NCD 23/17 Q1022
                        NOSIG=
201808032220 METAR COR EGLL 032220Z AUTO 31003KT 9999 NCD 23/17 Q1022
                        NOSIG=
201808032150 METAR COR EGLL 032150Z AUTO VRB03KT 9999 NCD 24/17 Q1022
                        NOSIG=
201808032120 METAR COR EGLL 032120Z AUTO 33004KT 290V020 9999 NCD 25/17
                        Q1022 NOSIG=
201808032050 METAR COR EGLL 032050Z AUTO 33004KT 290V020 9999 NCD 25/16
                        Q1022 NOSIG=
201808032020 METAR COR EGLL 032020Z AUTO 36004KT 9999 NCD 25/16 Q1021
                        NOSIG=
201808031950 METAR COR EGLL 031950Z AUTO 32006KT 9999 NCD 26/16 Q1021
                        NOSIG=
201808031920 METAR COR EGLL 031920Z AUTO 35005KT 300V030 9999 NCD 26/16
                        Q1020 NOSIG=
201808031850 METAR COR EGLL 031850Z AUTO 35006KT 310V020 9999 NCD 26/16
                        Q1020 NOSIG=
201808031820 METAR COR EGLL 031820Z AUTO 34008KT 310V010 9999 NCD 27/16
                        Q1020 NOSIG=
201808031750 METAR COR EGLL 031750Z AUTO 31008KT 280V340 9999 NCD 29/15
                        Q1020 NOSIG=
201808031720 METAR COR EGLL 031720Z AUTO 31007KT 280V350 9999 NCD 30/14
                        Q1020 NOSIG=
201808031650 METAR COR EGLL 031650Z AUTO 29007KT 250V310 9999 NCD 30/14
                        Q1020 NOSIG=
201808031620 METAR COR EGLL 031620Z AUTO 31006KT 230V350 9999 NCD 31/14
                        Q1020 NOSIG=
201808031550 METAR COR EGLL 031550Z AUTO 27006KT 220V310 9999 NCD 32/13
                        Q1020 NOSIG=
201808031520 METAR COR EGLL 031520Z AUTO VRB05KT 9999 NCD 32/13 Q1020
                        NOSIG=
201808031450 METAR COR EGLL 031450Z AUTO 23007KT 190V300 9999 NCD 32/13
                        Q1021 NOSIG=
201808031420 METAR COR EGLL 031420Z AUTO 20005KT 130V250 9999 NCD 32/13
                        Q1021 NOSIG=
201808031350 METAR COR EGLL 031350Z AUTO VRB05G15KT 9999 NCD 31/14 Q1021
                        NOSIG=
201808031320 METAR COR EGLL 031320Z AUTO 31004KT 240V050 9999 NCD 31/14
                        Q1021 NOSIG=
201808031250 METAR EGLL 031250Z AUTO 23006KT 170V290 9999 NCD 31/14 Q1021=
201808031220 METAR COR EGLL 031220Z AUTO 30006KT 240V340 9999 NCD 29/15
                        Q1022 NOSIG=
201808031150 METAR COR EGLL 031150Z AUTO 23007KT 180V280 9999 NCD 30/15
                        Q1022 NOSIG=
201808031120 METAR COR EGLL 031120Z AUTO 25005KT 150V320 9999 NCD 28/15
                        Q1022 NOSIG=
201808031050 METAR COR EGLL 031050Z AUTO 23007KT 170V280 9999 NCD 28/15
                        Q1022 NOSIG=
201808031020 METAR COR EGLL 031020Z AUTO 20006G16KT 120V240 9999 NCD 28/16
                        Q1022 NOSIG=
201808030950 METAR COR EGLL 030950Z AUTO VRB03KT 9999 NCD 27/16 Q1023
                        NOSIG=
201808030920 METAR COR EGLL 030920Z AUTO VRB03KT 9999 NCD 27/17 Q1023
                        NOSIG=
201808030850 METAR COR EGLL 030850Z AUTO 19004KT 110V280 9999 NCD 27/17
                        Q1023 NOSIG=
201808030820 METAR COR EGLL 030820Z AUTO VRB03KT 9999 NCD 25/17 Q1023
                        NOSIG=
201808030750 METAR COR EGLL 030750Z AUTO 07004KT 350V120 9999 NCD 24/17
                        Q1023 NOSIG=
201808030720 METAR COR EGLL 030720Z AUTO VRB02KT 9999 NCD 23/17 Q1023
                        NOSIG=
201808030650 METAR COR EGLL 030650Z AUTO VRB03KT 9999 NCD 21/17 Q1023
                        NOSIG=
201808030620 METAR COR EGLL 030620Z AUTO VRB02KT 9999 NCD 21/17 Q1023
                        NOSIG=
201808030550 METAR COR EGLL 030550Z AUTO 32002KT 9999 NCD 19/17 Q1023
                        NOSIG=
201808030520 METAR COR EGLL 030520Z AUTO VRB01KT 9999 NCD 19/16 Q1023
                        NOSIG=
201808030450 METAR COR EGLL 030450Z AUTO VRB02KT 9999 NCD 18/16 Q1023
                        NOSIG=
201808030420 METAR COR EGLL 030420Z AUTO VRB02KT 9999 NCD 19/16 Q1023
                        NOSIG=
201808030350 METAR COR EGLL 030350Z AUTO 32002KT 9999 NCD 18/16 Q1023
                        NOSIG=
201808030320 METAR COR EGLL 030320Z AUTO 32002KT 9999 NCD 19/17 Q1023
                        NOSIG=
201808030250 METAR COR EGLL 030250Z AUTO 31003KT 9999 NCD 19/17 Q1023
                        NOSIG=
201808030220 METAR COR EGLL 030220Z AUTO 30003KT 9999 NCD 19/17 Q1023
                        NOSIG=
201808030150 METAR COR EGLL 030150Z AUTO 32002KT 9999 NCD 20/17 Q1023
                        NOSIG=
201808030120 METAR EGLL 030120Z AUTO 31003KT 9999 NCD 20/17 Q1023=
201808030050 METAR COR EGLL 030050Z AUTO 31003KT 9999 NCD 21/17 Q1023
                        NOSIG=
201808030020 METAR COR EGLL 030020Z AUTO 30003KT 9999 NCD 21/17 Q1023
                        NOSIG=
201808022350 METAR COR EGLL 022350Z AUTO 27003KT 9999 NCD 21/17 Q1023
                        NOSIG=
201808022320 METAR COR EGLL 022320Z AUTO 30003KT 9999 NCD 21/17 Q1023
                        NOSIG=
201808022250 METAR COR EGLL 022250Z AUTO 30003KT 9999 NCD 23/17 Q1023
                        NOSIG=
201808022220 METAR COR EGLL 022220Z AUTO 30003KT 9999 NCD 24/17 Q1023
                        NOSIG=
201808022150 METAR COR EGLL 022150Z AUTO 27003KT 9999 NCD 24/17 Q1023
                        NOSIG=
201808022120 METAR COR EGLL 022120Z AUTO VRB03KT 9999 NCD 24/17 Q1023
                        NOSIG=
201808022050 METAR COR EGLL 022050Z AUTO VRB03KT 9999 NCD 25/17 Q1023
                        NOSIG=
201808022020 METAR COR EGLL 022020Z AUTO 30004KT 9999 NCD 26/16 Q1023
                        NOSIG=
201808021950 METAR COR EGLL 021950Z AUTO 30004KT 9999 NCD 27/16 Q1022
                        NOSIG=
201808021920 METAR COR EGLL 021920Z AUTO 27005KT 9999 NCD 27/16 Q1022
                        NOSIG=
201808021850 METAR COR EGLL 021850Z AUTO 29005KT 260V330 9999 NCD 28/15
                        Q1022 NOSIG=
201808021820 METAR COR EGLL 021820Z AUTO 23007KT 210V270 9999 NCD 29/15
                        Q1022 NOSIG=
201808021750 METAR COR EGLL 021750Z AUTO 26004KT 210V310 9999 NCD 29/15
                        Q1022 NOSIG=
201808021720 METAR EGLL 021720Z AUTO 25006KT 180V330 9999 NCD 28/15 Q1022=
201808021650 METAR COR EGLL 021650Z AUTO 23005KT 150V280 9999 NCD 29/15
                        Q1022 NOSIG=
201808021620 METAR COR EGLL 021620Z AUTO VRB04KT 9999 NCD 29/15 Q1022
                        NOSIG=
201808021550 METAR COR EGLL 021550Z AUTO 30006KT 280V040 9999 NCD 30/15
                        Q1022 NOSIG=
201808021520 METAR COR EGLL 021520Z AUTO 23004KT 190V290 9999 NCD 29/15
                        Q1022 NOSIG=
201808021450 METAR COR EGLL 021450Z AUTO 25005KT 180V300 9999 NCD 29/15
                        Q1022 NOSIG=
201808021420 METAR COR EGLL 021420Z AUTO VRB06KT 9999 FEW048 29/15 Q1022
                        NOSIG=
201808021350 METAR COR EGLL 021350Z AUTO 26007KT 170V310 9999 FEW046 28/15
                        Q1023 NOSIG=
201808021320 METAR COR EGLL 021320Z AUTO 25007KT 190V320 9999 FEW045 28/15
                        Q1023 NOSIG=
201808021250 METAR COR EGLL 021250Z AUTO 26007KT 200V320 9999 FEW044 28/15
                        Q1023 NOSIG=
201808021220 METAR COR EGLL 021220Z AUTO 25005KT 190V310 9999 NCD 27/15
                        Q1023 NOSIG=
201808021150 METAR COR EGLL 021150Z AUTO 21006KT 150V280 9999 NCD 26/15
                        Q1023 NOSIG=
201808021120 METAR COR EGLL 021120Z AUTO 24006KT 180V320 9999 NCD 26/14
                        Q1023 NOSIG=
201808021050 METAR COR EGLL 021050Z AUTO 28007KT 9999 NCD 25/14 Q1024
                        NOSIG=
201808021020 METAR COR EGLL 021020Z AUTO 24006KT 190V290 9999 NCD 24/13
                        Q1024 NOSIG=
201808020950 METAR COR EGLL 020950Z AUTO 22007KT 170V270 9999 NCD 23/12
                        Q1024 NOSIG=
201808020920 METAR COR EGLL 020920Z AUTO 23007KT 210V270 9999 NCD 22/12
                        Q1024 NOSIG=
201808020850 METAR COR EGLL 020850Z AUTO 25007KT 210V310 9999 NCD 21/13
                        Q1024 NOSIG=
201808020820 METAR COR EGLL 020820Z AUTO 25006KT 210V300 9999 NCD 20/13
                        Q1024 NOSIG=
201808020750 METAR COR EGLL 020750Z AUTO 25005KT 190V290 9999 NCD 19/14
                        Q1024 NOSIG=
201808020720 METAR COR EGLL 020720Z AUTO 23006KT 210V270 9999 NCD 18/14
                        Q1024 NOSIG=
201808020650 METAR COR EGLL 020650Z AUTO 23007KT 9999 NCD 17/14 Q1023
                        NOSIG=
201808020620 METAR COR EGLL 020620Z AUTO 24007KT 9999 NCD 16/13 Q1023
                        NOSIG=
201808020550 METAR COR EGLL 020550Z AUTO 23005KT 9999 NCD 15/13 Q1023
                        NOSIG=
201808020520 METAR COR EGLL 020520Z AUTO 20005KT 160V240 9999 NCD 15/13
                        Q1023 NOSIG=
201808020450 METAR COR EGLL 020450Z AUTO 20005KT 9999 NCD 14/13 Q1023
                        NOSIG=
201808020420 METAR COR EGLL 020420Z AUTO 21005KT 180V260 9999 NCD 14/12
                        Q1022 NOSIG=
201808020350 METAR COR EGLL 020350Z AUTO 20004KT 180V340 9999 NCD 14/12
                        Q1022 NOSIG=
201808020320 METAR COR EGLL 020320Z AUTO 22005KT 9999 NCD 14/12 Q1023
                        NOSIG=
201808020250 METAR COR EGLL 020250Z AUTO 21003KT 9999 NCD 14/12 Q1023
                        NOSIG=
201808020220 METAR COR EGLL 020220Z AUTO 22006KT 9999 NCD 13/11 Q1023
                        NOSIG=
201808020150 METAR COR EGLL 020150Z AUTO 21004KT 9999 NCD 15/12 Q1022
                        NOSIG=
201808020120 METAR COR EGLL 020120Z AUTO 20005KT 9999 NCD 15/12 Q1022
                        NOSIG=
201808020050 METAR COR EGLL 020050Z AUTO 20004KT 9999 NCD 16/12 Q1022
                        NOSIG=
201808020020 METAR COR EGLL 020020Z AUTO 21004KT 9999 NCD 16/12 Q1022
                        NOSIG=
201808012350 METAR COR EGLL 012350Z AUTO 22005KT 9999 NCD 16/12 Q1022
                        NOSIG=
201808012320 METAR COR EGLL 012320Z AUTO 23006KT 9999 NCD 16/12 Q1022
                        NOSIG=
201808012250 METAR COR EGLL 012250Z AUTO 24006KT 9999 NCD 16/12 Q1022
                        NOSIG=
201808012220 METAR COR EGLL 012220Z AUTO 23007KT 9999 NCD 18/12 Q1022
                        NOSIG=
201808012150 METAR COR EGLL 012150Z AUTO 23009KT 9999 NCD 18/12 Q1022
                        NOSIG=
201808012120 METAR COR EGLL 012120Z AUTO 23009KT 9999 NCD 19/12 Q1021
                        NOSIG=
201808012050 METAR COR EGLL 012050Z AUTO 22009KT 9999 NCD 19/11 Q1021
                        NOSIG=
201808012020 METAR COR EGLL 012020Z AUTO 22008KT 9999 NCD 20/10 Q1021
                        NOSIG=
201808011950 METAR COR EGLL 011950Z AUTO 20009G19KT 9999 NCD 21/09 Q1021
                        NOSIG=
201808011920 METAR COR EGLL 011920Z AUTO 21010KT 9999 NCD 22/08 Q1021
                        NOSIG=
201808011850 METAR COR EGLL 011850Z AUTO 22011KT 9999 NCD 23/07 Q1021
                        NOSIG=
201808011820 METAR COR EGLL 011820Z AUTO 22010KT 180V250 9999 NCD 24/07
                        Q1020 NOSIG=
201808011750 METAR COR EGLL 011750Z AUTO 22010KT 9999 NCD 25/08 Q1020
                        NOSIG=
201808011720 METAR COR EGLL 011720Z AUTO 22010KT 9999 NCD 25/08 Q1020
                        NOSIG=
201808011650 METAR COR EGLL 011650Z AUTO 23008KT 160V260 9999 NCD 26/09
                        Q1020 NOSIG=
201808011620 METAR COR EGLL 011620Z AUTO 23008KT 180V290 9999 NCD 26/08
                        Q1020 NOSIG=
201808011550 METAR COR EGLL 011550Z AUTO 24006KT 160V310 9999 NCD 26/08
                        Q1020 NOSIG=
201808011520 METAR COR EGLL 011520Z AUTO VRB08KT 9999 NCD 26/08 Q1020
                        NOSIG=
201808011450 METAR COR EGLL 011450Z AUTO 21007KT 160V270 9999 NCD 26/08
                        Q1020 NOSIG=
201808011420 METAR COR EGLL 011420Z AUTO 23006KT 180V270 9999 NCD 26/08
                        Q1021 NOSIG=
201808011350 METAR COR EGLL 011350Z AUTO VRB06KT 9999 NCD 25/08 Q1021
                        NOSIG=
201808011320 METAR COR EGLL 011320Z AUTO 24008KT 200V290 9999 NCD 25/09
                        Q1021 NOSIG=
201808011250 METAR COR EGLL 011250Z AUTO 25007KT 200V300 9999 NCD 24/10
                        Q1021 NOSIG=
201808011220 METAR COR EGLL 011220Z AUTO 27006KT 200V320 9999 SCT048 23/10
                        Q1021 NOSIG=
201808011150 METAR COR EGLL 011150Z AUTO 23006KT 180V290 9999 BKN046 23/10
                        Q1021 NOSIG=
201808011120 METAR COR EGLL 011120Z AUTO 26007KT 220V290 9999 SCT044 23/10
                        Q1022 NOSIG=
201808011050 METAR COR EGLL 011050Z AUTO 23006KT 170V280 9999 SCT041 22/10
                        Q1022 NOSIG=
201808011020 METAR COR EGLL 011020Z AUTO 19006KT 110V250 9999 FEW042 20/11
                        Q1022 NOSIG=
201808010950 METAR COR EGLL 010950Z AUTO 23006KT 130V300 9999 NCD 20/10
                        Q1022 NOSIG=
201808010920 METAR COR EGLL 010920Z AUTO 24004KT 200V310 9999 FEW034 20/11
                        Q1022 NOSIG=
201808010850 METAR COR EGLL 010850Z AUTO 23006KT 180V270 9999 NCD 20/11
                        Q1022 NOSIG=
201808010820 METAR COR EGLL 010820Z AUTO 22004KT 150V270 9999 NCD 19/12
                        Q1022 NOSIG=
201808010750 METAR COR EGLL 010750Z AUTO VRB02KT 9999 FEW039 18/13 Q1022
                        NOSIG=
201808010720 METAR COR EGLL 010720Z AUTO VRB02KT 9999 SCT037 16/13 Q1022
                        NOSIG=
201808010650 METAR COR EGLL 010650Z AUTO 28004KT 250V310 9999 BKN036 15/13
                        Q1022 NOSIG=
201808010620 METAR COR EGLL 010620Z AUTO VRB03KT 9999 BKN033 14/13 Q1021
                        NOSIG=
201808010550 METAR COR EGLL 010550Z AUTO VRB03KT 9999 FEW034 13/12 Q1021
                        NOSIG=
201808010520 METAR COR EGLL 010520Z AUTO 21004KT 160V240 9999 FEW035 13/12
                        Q1021 NOSIG=
201808010450 METAR COR EGLL 010450Z AUTO VRB03KT 9999 BKN034 13/12 Q1021
                        NOSIG=
201808010420 METAR COR EGLL 010420Z AUTO 23005KT 9999 NCD 13/12 Q1021
                        NOSIG=
201808010350 METAR COR EGLL 010350Z AUTO 24005KT 9999 NCD 13/12 Q1021
                        NOSIG=
201808010320 METAR COR EGLL 010320Z AUTO 23004KT 9999 NCD 14/12 Q1021
                        NOSIG=
201808010250 METAR COR EGLL 010250Z AUTO 20005KT 9999 NCD 14/12 Q1021
                        NOSIG=
201808010220 METAR COR EGLL 010220Z AUTO 22006KT 9999 NCD 14/12 Q1021
                        NOSIG=
201808010150 METAR COR EGLL 010150Z AUTO 23005KT 9999 NCD 14/11 Q1020
                        NOSIG=
201808010120 METAR COR EGLL 010120Z AUTO 22004KT 9999 NCD 14/12 Q1020
                        NOSIG=
201808010050 METAR COR EGLL 010050Z AUTO 19004KT 9999 NCD 15/12 Q1020
                        NOSIG=
201808010020 METAR COR EGLL 010020Z AUTO 22004KT 9999 NCD 15/12 Q1020
                        NOSIG=

</pre>

</body>
</html>
