##########################################################
# Query made at 12/27/2012 10:41:14 UTC
# Time interval: from 08/01/2009 00:00  to 08/31/2009 23:59  UTC
##########################################################

##########################################################
# EGLL, London / Heathrow Airport (United Kingdom)
# WMO index: 03772
# Latitude 51-29N. Longitude 000-27W. Altitude 24 m.
##########################################################

###################################
#  METAR/SPECI from EGLL
###################################
200908312350 METAR COR EGLL 312350Z 27006KT CAVOK 17/11 Q1004 NOSIG=
200908312320 METAR COR EGLL 312320Z 29004KT CAVOK 17/11 Q1003 NOSIG=
200908312250 METAR COR EGLL 312250Z 23003KT CAVOK 18/10 Q1003 NOSIG=
200908312220 METAR COR EGLL 312220Z 09004KT 060V170 CAVOK 19/10 Q1003
                        NOSIG=
200908312150 METAR COR EGLL 312150Z VRB02KT CAVOK 19/10 Q1004 NOSIG=
200908312120 METAR COR EGLL 312120Z VRB03KT CAVOK 19/10 Q1004 NOSIG=
200908312050 METAR COR EGLL 312050Z VRB05KT CAVOK 20/10 Q1004 NOSIG=
200908312020 METAR COR EGLL 312020Z 18007KT 140V240 CAVOK 20/09 Q1005
                        NOSIG=
200908311950 METAR EGLL 311950Z 17005KT 130V210 CAVOK 19/10 Q1006=
200908311920 METAR COR EGLL 311920Z 19005KT 150V240 CAVOK 20/09 Q1006
                        NOSIG=
200908311850 METAR COR EGLL 311850Z 19005KT 140V250 CAVOK 22/09 Q1006
                        NOSIG=
200908311820 METAR COR EGLL 311820Z 20007G17KT 160V240 CAVOK 23/08 Q1006
                        NOSIG=
200908311750 METAR COR EGLL 311750Z 19011KT 170V230 CAVOK 24/07 Q1006
                        NOSIG=
200908311720 METAR COR EGLL 311720Z 21009KT 180V250 CAVOK 25/08 Q1007
                        NOSIG=
200908311650 METAR COR EGLL 311650Z 18012KT 150V230 CAVOK 25/07 Q1007
                        NOSIG=
200908311620 METAR COR EGLL 311620Z 21012KT CAVOK 25/07 Q1007 NOSIG=
200908311550 METAR COR EGLL 311550Z 17012KT 140V220 CAVOK 25/06 Q1008
                        NOSIG=
200908311520 METAR COR EGLL 311520Z 19015KT 160V230 CAVOK 26/05 Q1008
                        TEMPO 20018G28KT=
200908311450 METAR COR EGLL 311450Z 18015KT 160V230 CAVOK 25/06 Q1009
                        TEMPO 19017G28KT=
200908311420 METAR COR EGLL 311420Z 18013KT 150V230 CAVOK 26/09 Q1009
                        TEMPO 19015G26KT=
200908311350 METAR COR EGLL 311350Z 17012KT 140V220 CAVOK 25/11 Q1009
                        NOSIG=
200908311320 METAR COR EGLL 311320Z 18012KT 150V240 CAVOK 25/12 Q1010
                        TEMPO 20015G25KT=
200908311250 METAR COR EGLL 311250Z 18011KT 140V210 CAVOK 24/13 Q1010
                        TEMPO 20015G25KT=
200908311220 METAR COR EGLL 311220Z 19012KT 140V210 9999 FEW032 24/14
                        Q1011 TEMPO 21015G27KT=
200908311150 METAR COR EGLL 311150Z 19012KT 9999 FEW026 23/15 Q1011 TEMPO
                        21015G25KT=
200908311120 METAR COR EGLL 311120Z 20012KT 9999 FEW025 23/15 Q1012 TEMPO
                        21015G25KT=
200908311050 METAR COR EGLL 311050Z 19013G23KT 160V220 9999 FEW025 22/16
                        Q1012 TEMPO 21016G27KT=
200908311020 METAR COR EGLL 311020Z 19010KT 160V230 9999 FEW014 SCT018
                        21/16 Q1012 NOSIG=
200908310950 METAR COR EGLL 310950Z 19011KT 9999 BKN012 20/16 Q1013 BECMG
                        SCT018=
200908310920 METAR COR EGLL 310920Z 19011KT 140V220 9999 BKN010 19/16
                        Q1013 BECMG SCT010 BKN020=
200908310850 METAR COR EGLL 310850Z 19011KT 9999 BKN008 18/16 Q1013 BECMG
                        SCT010 BKN018=
200908310820 METAR COR EGLL 310820Z 19011KT 140V210 9999 BKN007 18/16
                        Q1013 BECMG SCT008 BKN014=
200908310750 METAR COR EGLL 310750Z 19011KT 8000 OVC005 17/16 Q1013 BECMG
                        SCT007 BKN010=
200908310720 METAR COR EGLL 310720Z 19011KT 6000 OVC003 17/16 Q1013 BECMG
                        SCT005 BKN010=
200908310650 METAR COR EGLL 310650Z 20010KT 5000 BR OVC003 17/16 Q1013
                        BECMG NSW SCT005 BKN010=
200908310620 METAR COR EGLL 310620Z 19010KT 170V240 3000 BR OVC003 17/16
                        Q1013 BECMG 6000 NSW BKN008=
200908310550 METAR COR EGLL 310550Z 19010G21KT 170V260 1400 BR BKN003
                        17/16 Q1013 BECMG 6000 NSW BKN008=
200908310520 METAR COR EGLL 310520Z 20009KT 180V260 4500 BR BKN004 17/16
                        Q1013 BECMG 6000 NSW BKN008=
200908310450 METAR COR EGLL 310450Z 20010KT 8000 BKN004 17/16 Q1013 NOSIG=
200908310420 METAR COR EGLL 310420Z 21009KT 9000 BKN004 17/16 Q1014 NOSIG=
200908310350 METAR COR EGLL 310350Z 21010KT 7000 BKN003 17/16 Q1014 NOSIG=
200908310320 METAR COR EGLL 310320Z 20009KT 9000 BKN005 17/16 Q1014 NOSIG=
200908310250 METAR COR EGLL 310250Z 20012KT 6000 -DZ BKN004 17/16 Q1014
                        NOSIG=
200908310220 METAR COR EGLL 310220Z 20011KT 9999 BKN004 17/16 Q1014 NOSIG=
200908310150 METAR COR EGLL 310150Z 20011KT 8000 -DZ BKN005 17/16 Q1015
                        NOSIG=
200908310120 METAR EGLL 310120Z NIL=
200908310050 METAR COR EGLL 310050Z 21010KT 9999 BKN005 17/15 Q1015 NOSIG=
200908310020 METAR COR EGLL 310020Z 21010KT 9999 BKN005 17/15 Q1015 NOSIG=
200908302350 METAR COR EGLL 302350Z 21010KT 9999 BKN006 17/15 Q1015 NOSIG=
200908302320 METAR COR EGLL 302320Z 21010KT 9999 BKN006 17/15 Q1016 NOSIG=
200908302250 METAR COR EGLL 302250Z 22010KT 9999 BKN006 17/15 Q1016 NOSIG=
200908302220 METAR COR EGLL 302220Z 21009KT 9999 BKN007 17/15 Q1016 NOSIG=
200908302150 METAR COR EGLL 302150Z 21008KT 9999 BKN008 17/15 Q1016 NOSIG=
200908302120 METAR COR EGLL 302120Z 21010KT 9999 BKN009 17/15 Q1016 NOSIG=
200908302050 METAR COR EGLL 302050Z 22009KT 9999 BKN011 17/14 Q1016 TEMPO
                        BKN009=
200908302020 METAR COR EGLL 302020Z 20010KT 9999 BKN010 17/14 Q1016 TEMPO
                        BKN008=
200908301950 METAR COR EGLL 301950Z 20011KT 9999 BKN009 17/14 Q1017 NOSIG=
200908301920 METAR COR EGLL 301920Z 20010KT 9999 BKN010 17/14 Q1017 TEMPO
                        BKN008=
200908301850 METAR COR EGLL 301850Z 21012KT 9999 BKN011 17/14 Q1016 TEMPO
                        BKN009=
200908301820 METAR COR EGLL 301820Z 21012KT 9999 OVC014 17/13 Q1016 NOSIG=
200908301750 METAR COR EGLL 301750Z 21012KT 9999 OVC015 17/13 Q1017 BECMG
                        BKN014=
200908301720 METAR COR EGLL 301720Z 22013KT 9999 OVC017 17/13 Q1017 BECMG
                        BKN014=
200908301650 METAR COR EGLL 301650Z 21011KT 9999 OVC015 17/13 Q1017 BECMG
                        BKN014=
200908301620 METAR COR EGLL 301620Z 21012KT 9999 BKN015 17/13 Q1017 BECMG
                        BKN014=
200908301550 METAR COR EGLL 301550Z 22014KT 9999 BKN014 17/13 Q1018 NOSIG=
200908301520 METAR COR EGLL 301520Z 21012KT 9999 OVC019 17/13 Q1018 BECMG
                        BKN014=
200908301450 METAR COR EGLL 301450Z 22014KT 9999 BKN025 18/12 Q1018 TEMPO
                        BKN014=
200908301420 METAR COR EGLL 301420Z 21014KT 9999 BKN031 19/11 Q1018 NOSIG=
200908301350 METAR COR EGLL 301350Z 22014KT 9999 BKN032 19/11 Q1018 NOSIG=
200908301320 METAR COR EGLL 301320Z 22013KT 9999 BKN032 BKN036 19/11 Q1018
                        NOSIG=
200908301250 METAR COR EGLL 301250Z 22013KT 9999 BKN032 19/11 Q1018 NOSIG=
200908301220 METAR COR EGLL 301220Z 22010KT 190V260 9999 SCT030 BKN037
                        18/11 Q1019 NOSIG=
200908301150 METAR COR EGLL 301150Z 23012KT 190V260 9999 FEW024 BKN026
                        18/11 Q1019 NOSIG=
200908301120 METAR COR EGLL 301120Z 23014KT 9999 BKN028 17/11 Q1019 NOSIG=
200908301050 METAR EGLL 301050Z 22013KT 9999 BKN031 19/10 Q1019=
200908301020 METAR COR EGLL 301020Z 22013KT 9999 FEW028 SCT036 19/10 Q1019
                        NOSIG=
200908300950 METAR COR EGLL 300950Z 23011KT 200V260 9999 FEW032 18/10
                        Q1020 NOSIG=
200908300920 METAR COR EGLL 300920Z 23009KT 180V260 9999 FEW022 17/11
                        Q1020 NOSIG=
200908300850 METAR COR EGLL 300850Z 23010KT 190V260 9999 FEW020 17/10
                        Q1020 NOSIG=
200908300820 METAR COR EGLL 300820Z 21006KT 180V260 CAVOK 15/10 Q1020
                        NOSIG=
200908300750 METAR COR EGLL 300750Z 20006KT 170V250 CAVOK 14/10 Q1020
                        NOSIG=
200908300720 METAR COR EGLL 300720Z 21008KT 9999 FEW044 13/09 Q1020 NOSIG=
200908300650 METAR COR EGLL 300650Z 21005KT 170V250 9999 BKN045 12/09
                        Q1020 NOSIG=
200908300620 METAR COR EGLL 300620Z 21005KT 180V250 9999 BKN045 11/09
                        Q1020 NOSIG=
200908300550 METAR COR EGLL 300550Z 20006KT 170V250 9999 BKN045 11/08
                        Q1020 NOSIG=
200908300520 METAR COR EGLL 300520Z 21005KT 170V240 9999 FEW040 BKN046
                        11/08 Q1020 NOSIG=
200908300450 METAR COR EGLL 300450Z 23005KT 9999 SCT046 11/08 Q1020 NOSIG=
200908300420 METAR COR EGLL 300420Z 22005KT 9999 BKN046 11/08 Q1020 NOSIG=
200908300350 METAR COR EGLL 300350Z 22005KT 9999 BKN045 11/08 Q1020 NOSIG=
200908300320 METAR COR EGLL 300320Z 21004KT 9999 FEW045 11/08 Q1020 NOSIG=
200908300250 METAR COR EGLL 300250Z 21005KT CAVOK 11/08 Q1020 NOSIG=
200908300220 METAR COR EGLL 300220Z 24007KT CAVOK 11/08 Q1020 NOSIG=
200908300150 METAR COR EGLL 300150Z 23006KT CAVOK 11/08 Q1020 NOSIG=
200908300120 METAR COR EGLL 300120Z 24005KT CAVOK 11/08 Q1021 NOSIG=
200908300050 METAR COR EGLL 300050Z 25007KT CAVOK 11/08 Q1021 NOSIG=
200908300020 METAR COR EGLL 300020Z 24007KT CAVOK 12/08 Q1021 NOSIG=
200908292350 METAR COR EGLL 292350Z 24006KT CAVOK 12/08 Q1021 NOSIG=
200908292320 METAR COR EGLL 292320Z 24006KT CAVOK 13/08 Q1021 NOSIG=
200908292250 METAR COR EGLL 292250Z 24007KT CAVOK 13/07 Q1021 NOSIG=
200908292220 METAR COR EGLL 292220Z 24008KT CAVOK 13/07 Q1021 NOSIG=
200908292150 METAR COR EGLL 292150Z 25008KT CAVOK 14/07 Q1021 NOSIG=
200908292120 METAR COR EGLL 292120Z 25008KT CAVOK 15/07 Q1021 NOSIG=
200908292050 METAR COR EGLL 292050Z 27007KT CAVOK 15/07 Q1021 NOSIG=
200908292020 METAR COR EGLL 292020Z 27008KT CAVOK 15/07 Q1021 NOSIG=
200908291950 METAR COR EGLL 291950Z 26010KT CAVOK 16/07 Q1021 NOSIG=
200908291920 METAR COR EGLL 291920Z 26011KT CAVOK 16/06 Q1021 NOSIG=
200908291850 METAR COR EGLL 291850Z 25013KT CAVOK 17/05 Q1020 NOSIG=
200908291820 METAR COR EGLL 291820Z 26013KT CAVOK 18/04 Q1020 NOSIG=
200908291750 METAR COR EGLL 291750Z 26013KT CAVOK 18/06 Q1020 NOSIG=
200908291720 METAR COR EGLL 291720Z 27016KT CAVOK 19/06 Q1020 NOSIG=
200908291650 METAR COR EGLL 291650Z 26014KT CAVOK 19/06 Q1020 NOSIG=
200908291620 METAR COR EGLL 291620Z 26015KT CAVOK 19/05 Q1020 NOSIG=
200908291550 METAR COR EGLL 291550Z 27015KT CAVOK 20/05 Q1020 NOSIG=
200908291520 METAR COR EGLL 291520Z 26015KT CAVOK 20/05 Q1020 NOSIG=
200908291450 METAR COR EGLL 291450Z 25015KT CAVOK 20/05 Q1021 NOSIG=
200908291420 METAR EGLL 291420Z 27013KT CAVOK 19/06 Q1021=
200908291350 METAR COR EGLL 291350Z 28011KT CAVOK 19/05 Q1021 NOSIG=
200908291320 METAR COR EGLL 291320Z 27012KT CAVOK 20/05 Q1021 NOSIG=
200908291250 METAR COR EGLL 291250Z 27015KT 9999 SCT048 19/05 Q1021 NOSIG=
200908291220 METAR COR EGLL 291220Z 28012KT 9999 SCT047 19/06 Q1022 NOSIG=
200908291150 METAR COR EGLL 291150Z 28011KT 9999 SCT044 19/05 Q1022 NOSIG=
200908291120 METAR COR EGLL 291120Z 25011KT 9999 FEW039 SCT045 19/07 Q1022
                        NOSIG=
200908291050 METAR COR EGLL 291050Z 25010KT 9999 FEW044 SCT049 18/07 Q1022
                        NOSIG=
200908291020 METAR EGLL 291020Z 27011KT 9999 FEW042 SCT048 17/07 Q1022=
200908290950 METAR COR EGLL 290950Z 25011KT 9999 FEW034 SCT040 17/08 Q1022
                        NOSIG=
200908290920 METAR EGLL 290920Z 28011KT 9999 SCT025 17/08 Q1022=
200908290850 METAR EGLL 290850Z 28011KT 9999 FEW024 16/09 Q1022=
200908290820 METAR COR EGLL 290820Z 27011KT 9999 FEW024 15/09 Q1022 NOSIG=
200908290750 METAR COR EGLL 290750Z 27010KT CAVOK 14/09 Q1021 NOSIG=
200908290720 METAR COR EGLL 290720Z 27008KT CAVOK 13/09 Q1021 NOSIG=
200908290650 METAR COR EGLL 290650Z 27008KT CAVOK 12/09 Q1021 NOSIG=
200908290620 METAR COR EGLL 290620Z 27008KT CAVOK 11/09 Q1021 NOSIG=
200908290550 METAR COR EGLL 290550Z 28008KT CAVOK 11/08 Q1020 NOSIG=
200908290520 METAR COR EGLL 290520Z 27009KT CAVOK 10/08 Q1020 NOSIG=
200908290450 METAR COR EGLL 290450Z 27008KT CAVOK 10/08 Q1020 NOSIG=
200908290420 METAR COR EGLL 290420Z 27009KT CAVOK 10/08 Q1019 NOSIG=
200908290350 METAR COR EGLL 290350Z 27009KT CAVOK 11/09 Q1019 NOSIG=
200908290320 METAR COR EGLL 290320Z 27009KT CAVOK 11/09 Q1019 NOSIG=
200908290250 METAR COR EGLL 290250Z 27008KT CAVOK 11/09 Q1019 NOSIG=
200908290220 METAR COR EGLL 290220Z 27009KT CAVOK 11/09 Q1019 NOSIG=
200908290150 METAR COR EGLL 290150Z 27009KT CAVOK 11/09 Q1019 NOSIG=
200908290120 METAR COR EGLL 290120Z 27010KT CAVOK 11/09 Q1018 NOSIG=
200908290050 METAR COR EGLL 290050Z 27010KT CAVOK 11/09 Q1018 NOSIG=
200908290020 METAR COR EGLL 290020Z 27011KT CAVOK 11/08 Q1018 NOSIG=
200908282350 METAR COR EGLL 282350Z 27010KT CAVOK 12/08 Q1018 NOSIG=
200908282320 METAR COR EGLL 282320Z 26011KT CAVOK 12/08 Q1017 NOSIG=
200908282250 METAR COR EGLL 282250Z 27013KT CAVOK 12/08 Q1017 NOSIG=
200908282220 METAR COR EGLL 282220Z 27013KT CAVOK 13/08 Q1017 NOSIG=
200908282150 METAR COR EGLL 282150Z 27012KT CAVOK 13/08 Q1017 NOSIG=
200908282120 METAR COR EGLL 282120Z 27012KT 9999 FEW041 14/08 Q1016 NOSIG=
200908282050 METAR COR EGLL 282050Z 26012KT 9999 FEW040 14/08 Q1016 NOSIG=
200908282020 METAR COR EGLL 282020Z 26013G23KT 9999 FEW042 15/09 Q1016
                        NOSIG=
200908281950 METAR COR EGLL 281950Z 27009KT 9999 SCT040CB 15/09 Q1015
                        NOSIG=
200908281920 METAR COR EGLL 281920Z 28010KT 9999 FEW035CB SCT044 15/10
                        Q1015 RESHRA NOSIG=
200908281850 METAR COR EGLL 281850Z 26015KT 9999 VCSH FEW038CB SCT040
                        17/08 Q1014 NOSIG=
200908281820 METAR COR EGLL 281820Z 26019KT 9999 FEW044CB 17/08 Q1014
                        NOSIG=
200908281750 METAR COR EGLL 281750Z 26018KT 9999 SCT043CB 18/08 Q1013
                        TEMPO 26018G28KT SHRA=
200908281720 METAR COR EGLL 281720Z 26019KT 9999 SCT045CB 18/08 Q1013
                        NOSIG=
200908281650 METAR COR EGLL 281650Z 25020KT 9999 FEW044CB SCT048 19/08
                        Q1013 TEMPO 25020G30KT SHRA=
200908281620 METAR COR EGLL 281620Z 26020KT 9999 SCT044 19/08 Q1012 NOSIG=
200908281550 METAR COR EGLL 281550Z 27019KT 9999 SCT048CB 19/08 Q1012
                        TEMPO 27020G30KT SHRA=
200908281520 METAR COR EGLL 281520Z 26020KT 9999 VCSH FEW042 SCT048CB
                        19/08 Q1012 TEMPO 26020G30KT=
200908281450 METAR COR EGLL 281450Z 25022KT 9999 VCSH SCT048CB 20/08 Q1012
                        TEMPO 25022G32KT SHRA=
200908281420 METAR COR EGLL 281420Z 25019KT 9999 VCSH SCT045CB 20/07 Q1012
                        TEMPO 25020G30KT SHRA=
200908281350 METAR COR EGLL 281350Z 25023KT 9999 VCSH FEW042CB SCT044
                        20/08 Q1011 TEMPO 25023G33KT SHRA=
200908281320 METAR COR EGLL 281320Z 25023G34KT 9999 VCSH FEW034 SCT045TCU
                        20/09 Q1011 TEMPO SHRA=
200908281250 METAR COR EGLL 281250Z 25018KT 9999 VCSH FEW045TCU 18/11
                        Q1012 TEMPO 25020G28KT SHRA=
200908281220 METAR COR EGLL 281220Z 24016KT 9999 VCSH SCT045 15/11 Q1012
                        TEMPO 25020G30KT SHRA=
200908281150 METAR COR EGLL 281150Z 24018KT 9999 VCSH SCT045 16/11 Q1012
                        TEMPO 25020G30KT SHRA=
200908281120 METAR COR EGLL 281120Z 24023G34KT 9999 9000S -SHRA BKN043
                        17/10 Q1011 TEMPO SHRA=
200908281050 METAR EGLL 281050Z 24019G29KT 9999 SCT043 18/07 Q1011=
200908281020 METAR COR EGLL 281020Z 25022KT 9999 SCT038 18/07 Q1011 TEMPO
                        25022G32KT=
200908280950 METAR COR EGLL 280950Z 25019G31KT 9999 SCT038 SCT048 17/08
                        Q1012 NOSIG=
200908280920 METAR EGLL 280920Z 25019KT 9999 SCT039 17/08 Q1011 TEMPO
                        25020G30KT=
200908280850 METAR EGLL 280850Z 25018KT 9999 FEW033 17/08 Q1011=
200908280820 METAR COR EGLL 280820Z 24018KT 9999 FEW030 16/09 Q1011 TEMPO
                        25018G28KT=
200908280750 METAR COR EGLL 280750Z 24013KT 9999 FEW030 15/09 Q1012 NOSIG=
200908280720 METAR COR EGLL 280720Z 24015KT 9999 FEW040 15/09 Q1012 NOSIG=
200908280650 METAR COR EGLL 280650Z 24015KT 9999 FEW044 14/09 Q1012 NOSIG=
200908280620 METAR COR EGLL 280620Z 24014KT 9999 FEW040 13/09 Q1012 NOSIG=
200908280550 METAR COR EGLL 280550Z 23011KT 9999 FEW044 13/09 Q1011 NOSIG=
200908280520 METAR COR EGLL 280520Z 23012KT 9999 FEW049 13/09 Q1011 NOSIG=
200908280450 METAR COR EGLL 280450Z 23012KT CAVOK 13/10 Q1011 NOSIG=
200908280420 METAR COR EGLL 280420Z 23011KT CAVOK 13/10 Q1011 NOSIG=
200908280350 METAR COR EGLL 280350Z 24012KT CAVOK 13/10 Q1011 NOSIG=
200908280320 METAR COR EGLL 280320Z 24012KT 9999 FEW032 14/10 Q1011 NOSIG=
200908280250 METAR COR EGLL 280250Z 24011KT CAVOK 14/11 Q1011 NOSIG=
200908280220 METAR COR EGLL 280220Z 24012KT CAVOK 15/11 Q1011 NOSIG=
200908280150 METAR COR EGLL 280150Z 25012KT CAVOK 15/11 Q1011 NOSIG=
200908280120 METAR COR EGLL 280120Z 26014KT 9999 FEW019 16/12 Q1011 NOSIG=
200908280050 METAR EGLL 280050Z 26014KT 9999 FEW017 16/13 Q1010=
200908280020 METAR COR EGLL 280020Z 26013KT 9999 FEW015 SCT038 17/13 Q1010
                        NOSIG=
200908272350 METAR COR EGLL 272350Z 23012KT 9999 FEW013 BKN028 17/14 Q1010
                        TEMPO BKN014=
200908272320 METAR COR EGLL 272320Z 23012KT 9999 SCT014 BKN031 17/14 Q1010
                        TEMPO BKN014=
200908272250 METAR COR EGLL 272250Z 22013KT 9999 SCT017 17/14 Q1010 NOSIG=
200908272220 METAR COR EGLL 272220Z 23011KT 9999 BKN018 17/13 Q1010 TEMPO
                        BKN014=
200908272150 METAR COR EGLL 272150Z 22012KT 180V260 9999 SCT019 17/12
                        Q1011 TEMPO BKN014=
200908272120 METAR COR EGLL 272120Z 22012KT 9999 SCT022 17/12 Q1011 TEMPO
                        BKN014=
200908272050 METAR COR EGLL 272050Z 22013KT 9999 BKN027 17/12 Q1011 NOSIG=
200908272020 METAR COR EGLL 272020Z 22014KT 9999 SCT027 17/11 Q1011 NOSIG=
200908271950 METAR COR EGLL 271950Z 22011KT 9999 SCT035 17/11 Q1011 NOSIG=
200908271920 METAR COR EGLL 271920Z 22013KT 9999 BKN032 18/11 Q1011 NOSIG=
200908271850 METAR COR EGLL 271850Z 22014KT 9999 BKN032 18/11 Q1011 NOSIG=
200908271820 METAR EGLL 271820Z 22016KT 9999 BKN032 18/11 Q1011 TEMPO
                        23016G26KT=
200908271750 METAR COR EGLL 271750Z 22014G24KT 9999 BKN030 18/11 Q1011
                        NOSIG=
200908271720 METAR COR EGLL 271720Z 22016KT 9999 BKN031 19/11 Q1011 TEMPO
                        23015G25KT=
200908271650 METAR COR EGLL 271650Z 22015KT 9999 SCT032 20/11 Q1011 TEMPO
                        23015G25KT=
200908271620 METAR COR EGLL 271620Z 22013G23KT 9999 SCT032 20/11 Q1012
                        NOSIG=
200908271550 METAR COR EGLL 271550Z 22015KT 9999 SCT033 21/11 Q1012 TEMPO
                        23015G25KT=
200908271520 METAR COR EGLL 271520Z 21014KT 9999 SCT033 22/12 Q1012 TEMPO
                        23015G25KT=
200908271450 METAR COR EGLL 271450Z 21013KT 180V240 9999 SCT036 22/12
                        Q1012 TEMPO 23015G25KT=
200908271420 METAR COR EGLL 271420Z 21013KT 180V240 9999 SCT035 23/12
                        Q1012 NOSIG=
200908271350 METAR EGLL 271350Z 23013G24KT 9999 SCT037 23/12 Q1012=
200908271320 METAR COR EGLL 271320Z 23013G25KT 190V260 9999 FEW035 22/12
                        Q1012 NOSIG=
200908271250 METAR COR EGLL 271250Z 23012KT 190V250 9999 FEW035 23/12
                        Q1012 NOSIG=
200908271220 METAR COR EGLL 271220Z 21011KT 170V250 9999 SCT038 23/12
                        Q1013 NOSIG=
200908271150 METAR COR EGLL 271150Z 21010KT 180V260 9999 BKN035 22/12
                        Q1013 NOSIG=
200908271120 METAR COR EGLL 271120Z 22009KT 190V260 9999 FEW030 21/13
                        Q1013 NOSIG=
200908271050 METAR EGLL 271050Z 23008KT 180V260 9999 FEW026 BKN033 20/13
                        Q1013=
200908271020 METAR COR EGLL 271020Z 24008KT 9999 SCT023 SCT031 19/14 Q1013
                        NOSIG=
200908270950 METAR COR EGLL 270950Z 24007KT 190V280 9999 SCT023 SCT031
                        19/14 Q1013 NOSIG=
200908270920 METAR COR EGLL 270920Z 25008KT 220V290 9999 FEW015 SCT030
                        19/14 Q1013 NOSIG=
200908270850 METAR COR EGLL 270850Z 25009KT 9999 SCT015 BKN034 18/14 Q1013
                        NOSIG=
200908270820 METAR COR EGLL 270820Z 27008KT 9999 FEW018 BKN035 18/14 Q1013
                        NOSIG=
200908270750 METAR COR EGLL 270750Z 26010KT 9999 FEW014 SCT022 BKN031
                        17/14 Q1013 NOSIG=
200908270720 METAR COR EGLL 270720Z 26010KT 9999 FEW015 SCT020 17/14 Q1013
                        NOSIG=
200908270650 METAR COR EGLL 270650Z 25011KT 9999 SCT025 17/14 Q1013 NOSIG=
200908270620 METAR COR EGLL 270620Z 24008KT 9999 FEW028 BKN031 17/15 Q1013
                        NOSIG=
200908270550 METAR COR EGLL 270550Z 22007KT 170V240 9999 BKN033 17/14
                        Q1012 NOSIG=
200908270520 METAR COR EGLL 270520Z 23009KT 9999 BKN029 16/14 Q1012 NOSIG=
200908270450 METAR COR EGLL 270450Z 22008KT 9999 BKN029 16/14 Q1012 NOSIG=
200908270420 METAR COR EGLL 270420Z 23010KT 9999 BKN025 17/14 Q1011 NOSIG=
200908270350 METAR EGLL 270350Z 22008KT 9999 BKN027 17/14 Q1011 NOSIG=
200908270320 METAR COR EGLL 270320Z 22007KT 9999 BKN030 17/14 Q1011 NOSIG=
200908270250 METAR COR EGLL 270250Z 21008KT 9999 BKN032 17/14 Q1011 NOSIG=
200908270220 METAR COR EGLL 270220Z 20008KT 9999 BKN032 17/15 Q1011 NOSIG=
200908270150 METAR COR EGLL 270150Z 21007KT 9999 BKN032 17/15 Q1011 NOSIG=
200908270120 METAR COR EGLL 270120Z 21006KT 9999 BKN027 17/15 Q1011 NOSIG=
200908270050 METAR COR EGLL 270050Z 21008KT 9999 SCT027 17/15 Q1011 NOSIG=
200908270020 METAR COR EGLL 270020Z 23009KT 9999 SCT030 17/15 Q1011 NOSIG=
200908262350 METAR COR EGLL 262350Z 22007KT 9999 SCT034 17/15 Q1011 NOSIG=
200908262320 METAR COR EGLL 262320Z 23010KT 9999 SCT024 BKN033 17/15 Q1011
                        NOSIG=
200908262250 METAR COR EGLL 262250Z 24012KT 9999 SCT024 BKN032 18/15 Q1010
                        TEMPO BKN012=
200908262220 METAR COR EGLL 262220Z 23013KT 9999 FEW012 BKN017 18/16 Q1010
                        TEMPO BKN010=
200908262150 METAR COR EGLL 262150Z 23013KT 190V250 9999 BKN016 18/16
                        Q1010 TEMPO BKN010=
200908262120 METAR COR EGLL 262120Z 23012KT 9999 FEW007 SCT015 18/16 Q1010
                        TEMPO BKN010=
200908262050 METAR COR EGLL 262050Z 22011KT 9999 FEW008 SCT019 18/17 Q1009
                        TEMPO BKN014=
200908262020 METAR COR EGLL 262020Z 21010KT 9999 SCT006 SCT013 18/17 Q1009
                        TEMPO BKN006=
200908261950 METAR COR EGLL 261950Z 20011KT 9999 FEW006 BKN010 18/17 Q1009
                        TEMPO BKN008=
200908261920 METAR COR EGLL 261920Z 19011KT 6000 -RADZ SCT006 BKN010 18/17
                        Q1009 TEMPO 4000 BKN006=
200908261850 METAR COR EGLL 261850Z 19012KT 5000 -RADZ SCT007 BKN012 18/16
                        Q1009 TEMPO 4000 BKN007=
200908261820 METAR COR EGLL 261820Z 19011KT 5000 -RADZ SCT008 BKN017 18/16
                        Q1009 TEMPO 4000 DZ BKN008=
200908261750 METAR COR EGLL 261750Z 19014KT 4000 -DZ SCT007 BKN012 18/16
                        Q1009 BECMG 7000=
200908261720 METAR COR EGLL 261720Z 19016G26KT 6000 -DZ SCT010 OVC018
                        18/16 Q1009 BECMG BKN014=
200908261650 METAR COR EGLL 261650Z 19017KT 9999 -RADZ FEW019 SCT024 BKN033
                        18/16 Q1009 NOSIG=
200908261620 METAR COR EGLL 261620Z 21021KT 9999 BKN031 21/14 Q1008 NOSIG=
200908261550 METAR COR EGLL 261550Z 20016KT 9999 BKN029 21/14 Q1008 NOSIG=
200908261520 METAR COR EGLL 261520Z 19014G24KT 9999 8000W VCSH SCT025
                        SCT047 20/15 Q1009 NOSIG=
200908261450 METAR COR EGLL 261450Z 17013KT 9999 OVC026 19/15 Q1009 NOSIG=
200908261420 METAR COR EGLL 261420Z 18013KT 9999 FEW012 BKN022 18/15 Q1009
                        NOSIG=
200908261350 METAR COR EGLL 261350Z 19013KT 170V230 4000 -DZ FEW015 OVC019
                        18/15 Q1010 BECMG 6000=
200908261320 METAR COR EGLL 261320Z 20016KT 7000 -SHRA FEW024 SCT029 BKN039
                        19/14 Q1009 NOSIG=
200908261250 METAR COR EGLL 261250Z 20018KT 180V240 9999 FEW035 SCT049
                        22/13 Q1009 NOSIG=
200908261220 METAR COR EGLL 261220Z 19018KT 170V230 9999 FEW037 22/12
                        Q1009 NOSIG=
200908261150 METAR COR EGLL 261150Z 18020KT 150V220 9999 FEW043 23/11
                        Q1009 NOSIG=
200908261120 METAR COR EGLL 261120Z 19017KT 170V230 9999 FEW037 22/12
                        Q1009 NOSIG=
200908261050 METAR COR EGLL 261050Z 19016KT 9999 FEW028 20/12 Q1010 NOSIG=
200908261020 METAR COR EGLL 261020Z 19016KT 9999 FEW026 SCT032 20/13 Q1010
                        NOSIG=
200908260950 METAR COR EGLL 260950Z 18015G26KT 150V230 9999 FEW021 SCT030
                        19/13 Q1010 NOSIG=
200908260920 METAR COR EGLL 260920Z 17013KT 140V240 9999 FEW019 SCT023
                        19/14 Q1010 NOSIG=
200908260850 METAR COR EGLL 260850Z 17012KT 150V220 9999 FEW025 18/14
                        Q1010 NOSIG=
200908260820 METAR COR EGLL 260820Z 17008KT 140V230 9999 FEW025 17/14
                        Q1010 NOSIG=
200908260750 METAR COR EGLL 260750Z 17009KT 130V220 9999 FEW020 16/14
                        Q1010 NOSIG=
200908260720 METAR COR EGLL 260720Z 16009KT 130V210 9999 -RA SCT020 SCT030
                        16/13 Q1010 NOSIG=
200908260650 METAR COR EGLL 260650Z 16009KT 140V210 9999 -RA FEW035 SCT044
                        16/13 Q1010 NOSIG=
200908260620 METAR COR EGLL 260620Z 17008KT 150V210 9999 FEW038 16/12
                        Q1010 NOSIG=
200908260550 METAR COR EGLL 260550Z 16009KT 120V190 CAVOK 15/12 Q1010
                        NOSIG=
200908260520 METAR COR EGLL 260520Z 15008KT 110V200 CAVOK 15/12 Q1011
                        NOSIG=
200908260450 METAR COR EGLL 260450Z 14007KT CAVOK 15/12 Q1011 NOSIG=
200908260420 METAR COR EGLL 260420Z 15006KT 9999 FEW025 15/12 Q1011 NOSIG=
200908260350 METAR COR EGLL 260350Z 17006KT 070V210 9999 FEW025 15/12
                        Q1011 NOSIG=
200908260320 METAR COR EGLL 260320Z 17006KT CAVOK 15/12 Q1011 NOSIG=
200908260250 METAR COR EGLL 260250Z 17006KT CAVOK 15/12 Q1011 NOSIG=
200908260220 METAR EGLL 260220Z 18006KT CAVOK 14/12 Q1011=
200908260150 METAR COR EGLL 260150Z 19007KT CAVOK 15/13 Q1011 NOSIG=
200908260120 METAR COR EGLL 260120Z 20008KT CAVOK 15/13 Q1011 NOSIG=
200908260050 METAR COR EGLL 260050Z 20007KT CAVOK 15/13 Q1012 NOSIG=
200908260020 METAR COR EGLL 260020Z 20005KT CAVOK 14/12 Q1012 NOSIG=
200908252350 METAR COR EGLL 252350Z 19006KT CAVOK 15/12 Q1012 NOSIG=
200908252320 METAR COR EGLL 252320Z 19006KT CAVOK 15/12 Q1012 NOSIG=
200908252250 METAR COR EGLL 252250Z 20007KT CAVOK 15/12 Q1012 NOSIG=
200908252220 METAR COR EGLL 252220Z 21007KT CAVOK 15/12 Q1012 NOSIG=
200908252150 METAR COR EGLL 252150Z 22009KT 180V250 CAVOK 16/12 Q1012
                        NOSIG=
200908252120 METAR COR EGLL 252120Z 21007KT 170V240 CAVOK 16/12 Q1012
                        NOSIG=
200908252050 METAR COR EGLL 252050Z 22009KT CAVOK 16/12 Q1011 NOSIG=
200908252020 METAR COR EGLL 252020Z 21010KT CAVOK 17/12 Q1011 NOSIG=
200908251950 METAR COR EGLL 251950Z 21010KT CAVOK 17/11 Q1011 NOSIG=
200908251920 METAR COR EGLL 251920Z 22010KT 9999 FEW021 18/11 Q1011 NOSIG=
200908251850 METAR COR EGLL 251850Z 22009KT 9999 FEW037 18/11 Q1011 NOSIG=
200908251820 METAR COR EGLL 251820Z 22012KT 9999 FEW037 19/11 Q1010 NOSIG=
200908251750 METAR COR EGLL 251750Z 22012KT 9999 SCT040 20/10 Q1010 NOSIG=
200908251720 METAR EGLL 251720Z 21012KT 9999 SCT040 20/10 Q1010 NOSIG=
200908251650 METAR COR EGLL 251650Z 22013KT 9999 SCT039 20/10 Q1010 NOSIG=
200908251620 METAR COR EGLL 251620Z 22014G24KT 190V260 9999 SCT039 21/10
                        Q1009 NOSIG=
200908251550 METAR COR EGLL 251550Z 21014KT 9999 BKN040 20/10 Q1009 NOSIG=
200908251520 METAR COR EGLL 251520Z 23014KT 9999 BKN041 21/11 Q1009 NOSIG=
200908251450 METAR COR EGLL 251450Z 22015KT 9999 SCT041 21/10 Q1009 NOSIG=
200908251420 METAR COR EGLL 251420Z 21011KT 180V240 9999 FEW032 SCT037
                        20/11 Q1009 NOSIG=
200908251350 METAR COR EGLL 251350Z 19009KT 160V260 9999 FEW026 SCT045
                        19/12 Q1010 NOSIG=
200908251320 METAR COR EGLL 251320Z 21009KT 180V250 9999 FEW034 SCT046
                        17/13 Q1010 NOSIG=
200908251250 METAR COR EGLL 251250Z 25014KT 9999 -SHRA FEW038 SCT046 16/12
                        Q1010 TEMPO SHRA=
200908251220 METAR COR EGLL 251220Z 24016KT 9999 VCSH BKN047 21/08 Q1009
                        TEMPO SHRA=
200908251150 METAR COR EGLL 251150Z 21009KT 9999 SCT048 21/08 Q1009 TEMPO
                        SHRA=
200908251120 METAR COR EGLL 251120Z 24015KT 210V270 9999 SCT044 20/09
                        Q1009 NOSIG=
200908251050 METAR COR EGLL 251050Z 25011KT 220V290 9999 SCT042 20/09
                        Q1009 NOSIG=
200908251020 METAR COR EGLL 251020Z 21009KT 190V260 9999 FEW028 18/11
                        Q1009 NOSIG=
200908250950 METAR EGLL 250950Z 22008KT 160V260 9999 FEW024 17/11 Q1009=
200908250920 METAR COR EGLL 250920Z 22009KT 170V260 9999 FEW020 16/11
                        Q1009 NOSIG=
200908250850 METAR COR EGLL 250850Z 21008KT 170V240 9999 FEW020 16/12
                        Q1009 NOSIG=
200908250820 METAR COR EGLL 250820Z 20008KT 170V240 9999 -SHRA FEW021
                        SCT045 16/12 Q1009 NOSIG=
200908250750 METAR COR EGLL 250750Z 20009KT 170V240 9999 FEW038 16/12
                        Q1009 NOSIG=
200908250720 METAR COR EGLL 250720Z 20006KT 180V240 9999 FEW030 16/12
                        Q1009 NOSIG=
200908250650 METAR COR EGLL 250650Z 19006KT 140V260 CAVOK 13/11 Q1009
                        NOSIG=
200908250620 METAR COR EGLL 250620Z 20005KT 170V240 CAVOK 13/11 Q1009
                        NOSIG=
200908250550 METAR COR EGLL 250550Z 19005KT 130V260 9999 FEW045 12/11
                        Q1008 NOSIG=
200908250520 METAR COR EGLL 250520Z 20005KT 160V250 9999 FEW045 12/11
                        Q1008 NOSIG=
200908250450 METAR COR EGLL 250450Z 18004KT CAVOK 12/10 Q1008 NOSIG=
200908250420 METAR COR EGLL 250420Z 18005KT 160V220 CAVOK 12/10 Q1008
                        NOSIG=
200908250350 METAR COR EGLL 250350Z 20004KT CAVOK 12/10 Q1008 NOSIG=
200908250320 METAR COR EGLL 250320Z 17004KT CAVOK 12/10 Q1008 NOSIG=
200908250250 METAR COR EGLL 250250Z 18004KT CAVOK 13/10 Q1008 NOSIG=
200908250220 METAR COR EGLL 250220Z 22003KT CAVOK 13/11 Q1008 NOSIG=
200908250150 METAR COR EGLL 250150Z 20004KT CAVOK 13/10 Q1007 NOSIG=
200908250120 METAR COR EGLL 250120Z 22005KT CAVOK 13/11 Q1007 NOSIG=
200908250050 METAR COR EGLL 250050Z 21006KT CAVOK 14/11 Q1007 NOSIG=
200908250020 METAR COR EGLL 250020Z 21006KT CAVOK 14/11 Q1008 NOSIG=
200908242350 METAR COR EGLL 242350Z 21006KT CAVOK 14/11 Q1008 NOSIG=
200908242320 METAR COR EGLL 242320Z 20007KT CAVOK 15/12 Q1008 NOSIG=
200908242250 METAR COR EGLL 242250Z 19006KT CAVOK 15/10 Q1007 NOSIG=
200908242220 METAR COR EGLL 242220Z 25006KT CAVOK 16/10 Q1007 NOSIG=
200908242150 METAR EGLL 242150Z NIL=
200908242120 METAR COR EGLL 242120Z 27007KT CAVOK 17/11 Q1007 NOSIG=
200908242050 METAR COR EGLL 242050Z 27008KT 9999 FEW028 17/10 Q1007 NOSIG=
200908242020 METAR COR EGLL 242020Z 27008KT 9999 FEW028 18/12 Q1006 NOSIG=
200908241950 METAR COR EGLL 241950Z 27008KT 9999 FEW029 18/13 Q1006 NOSIG=
200908241920 METAR COR EGLL 241920Z 26009KT 9999 SCT029 19/13 Q1006 NOSIG=
200908241850 METAR COR EGLL 241850Z 27010KT 9999 FEW033 19/13 Q1005 NOSIG=
200908241820 METAR COR EGLL 241820Z 27012KT 9999 FEW033 19/13 Q1005 NOSIG=
200908241750 METAR COR EGLL 241750Z 28012KT 9999 FEW027 SCT041 20/14 Q1005
                        NOSIG=
200908241720 METAR COR EGLL 241720Z 27013KT 9999 FEW023 SCT025 21/14 Q1005
                        NOSIG=
200908241650 METAR COR EGLL 241650Z 23015KT 9999 SCT029 SCT047 22/14 Q1005
                        NOSIG=
200908241620 METAR COR EGLL 241620Z 22014KT 9999 SCT037 BKN047 23/14 Q1005
                        NOSIG=
200908241550 METAR COR EGLL 241550Z 22011KT 9999 FEW034 SCT041 24/13 Q1004
                        NOSIG=
200908241520 METAR COR EGLL 241520Z 25012KT 9999 SCT043 24/12 Q1004 NOSIG=
200908241450 METAR COR EGLL 241450Z 22011KT 180V250 9999 FEW037 25/12
                        Q1004 NOSIG=
200908241420 METAR COR EGLL 241420Z 21010KT 9999 FEW036 24/13 Q1004 NOSIG=
200908241350 METAR COR EGLL 241350Z 24011KT 200V270 9999 FEW030 24/14
                        Q1004 NOSIG=
200908241320 METAR COR EGLL 241320Z 22013KT 9999 SCT030 23/15 Q1005 NOSIG=
200908241250 METAR COR EGLL 241250Z 21009KT 160V250 9999 BKN033 23/14
                        Q1005 NOSIG=
200908241220 METAR COR EGLL 241220Z 19007KT 150V250 CAVOK 23/13 Q1005
                        NOSIG=
200908241150 METAR COR EGLL 241150Z 19006KT 150V260 CAVOK 23/13 Q1005
                        NOSIG=
200908241120 METAR COR EGLL 241120Z 26004KT 170V320 9999 FEW040 23/13
                        Q1005 NOSIG=
200908241050 METAR COR EGLL 241050Z 24006KT 160V300 CAVOK 22/12 Q1005
                        NOSIG=
200908241020 METAR COR EGLL 241020Z 26006KT 230V330 CAVOK 22/12 Q1006
                        NOSIG=
200908240950 METAR COR EGLL 240950Z 27006KT 220V310 CAVOK 21/12 Q1006
                        NOSIG=
200908240920 METAR COR EGLL 240920Z 27007KT CAVOK 21/11 Q1006 NOSIG=
200908240850 METAR COR EGLL 240850Z VRB03KT CAVOK 21/12 Q1006 NOSIG=
200908240820 METAR COR EGLL 240820Z 31004KT 250V360 9999 FEW030 20/13
                        Q1006 NOSIG=
200908240750 METAR COR EGLL 240750Z VRB02KT CAVOK 19/12 Q1006 NOSIG=
200908240720 METAR COR EGLL 240720Z VRB03KT CAVOK 19/13 Q1006 NOSIG=
200908240650 METAR COR EGLL 240650Z 30003KT CAVOK 18/13 Q1007 NOSIG=
200908240620 METAR COR EGLL 240620Z 31003KT CAVOK 18/14 Q1007 TEMPO SHRA=
200908240550 METAR COR EGLL 240550Z 00000KT CAVOK 15/13 Q1007 NOSIG=
200908240520 METAR COR EGLL 240520Z 00000KT CAVOK 15/13 Q1007 NOSIG=
200908240450 METAR COR EGLL 240450Z 00000KT CAVOK 15/12 Q1007 NOSIG=
200908240420 METAR COR EGLL 240420Z 00000KT CAVOK 14/12 Q1007 NOSIG=
200908240350 METAR COR EGLL 240350Z 00000KT CAVOK 15/12 Q1007 NOSIG=
200908240320 METAR COR EGLL 240320Z 00000KT CAVOK 14/12 Q1008 NOSIG=
200908240250 METAR COR EGLL 240250Z 14003KT CAVOK 14/12 Q1008 NOSIG=
200908240220 METAR COR EGLL 240220Z 00000KT CAVOK 16/12 Q1008 NOSIG=
200908240150 METAR COR EGLL 240150Z 00000KT CAVOK 16/12 Q1008 NOSIG=
200908240120 METAR COR EGLL 240120Z 16003KT CAVOK 16/12 Q1009 NOSIG=
200908240050 METAR COR EGLL 240050Z 17002KT CAVOK 16/13 Q1009 NOSIG=
200908240020 METAR COR EGLL 240020Z 27005KT CAVOK 17/13 Q1009 NOSIG=
200908232350 METAR EGLL 232350Z 26005KT CAVOK 17/12 Q1010 NOSIG=
200908232320 METAR COR EGLL 232320Z VRB03KT CAVOK 18/12 Q1010 NOSIG=
200908232250 METAR COR EGLL 232250Z 17003KT CAVOK 18/12 Q1010 NOSIG=
200908232220 METAR COR EGLL 232220Z 21004KT CAVOK 19/12 Q1010 NOSIG=
200908232150 METAR COR EGLL 232150Z 24008KT CAVOK 20/12 Q1011 NOSIG=
200908232120 METAR COR EGLL 232120Z 22008KT CAVOK 20/12 Q1011 NOSIG=
200908232050 METAR COR EGLL 232050Z 22008KT 180V250 CAVOK 21/12 Q1011
                        NOSIG=
200908232020 METAR COR EGLL 232020Z 19006KT 120V240 CAVOK 20/12 Q1012
                        NOSIG=
200908231950 METAR COR EGLL 231950Z 20007KT 150V250 CAVOK 22/11 Q1012
                        NOSIG=
200908231920 METAR COR EGLL 231920Z 19007KT 140V240 CAVOK 22/11 Q1011
                        NOSIG=
200908231850 METAR COR EGLL 231850Z 18008KT 150V240 CAVOK 23/11 Q1011
                        NOSIG=
200908231820 METAR EGLL 231820Z 19010KT 170V230 CAVOK 24/10 Q1011=
200908231750 METAR COR EGLL 231750Z 19013KT 150V230 CAVOK 25/09 Q1011
                        NOSIG=
200908231720 METAR COR EGLL 231720Z 18012KT 140V240 CAVOK 25/10 Q1011
                        NOSIG=
200908231650 METAR COR EGLL 231650Z 18012KT 150V220 CAVOK 26/11 Q1012
                        NOSIG=
200908231620 METAR COR EGLL 231620Z 18012KT 150V220 CAVOK 26/11 Q1012
                        NOSIG=
200908231550 METAR COR EGLL 231550Z 18012KT 150V230 CAVOK 26/11 Q1012
                        NOSIG=
200908231520 METAR COR EGLL 231520Z 19013G23KT CAVOK 27/10 Q1013 NOSIG=
200908231450 METAR COR EGLL 231450Z 19014KT 170V230 CAVOK 27/10 Q1013
                        NOSIG=
200908231420 METAR COR EGLL 231420Z 20013KT 160V240 CAVOK 27/10 Q1013
                        NOSIG=
200908231350 METAR COR EGLL 231350Z 19013KT CAVOK 27/10 Q1013 NOSIG=
200908231320 METAR COR EGLL 231320Z 18016KT 170V230 CAVOK 27/10 Q1014
                        NOSIG=
200908231250 METAR COR EGLL 231250Z 18016KT CAVOK 27/11 Q1014 NOSIG=
200908231220 METAR COR EGLL 231220Z 19017KT CAVOK 26/11 Q1014 NOSIG=
200908231150 METAR COR EGLL 231150Z 21014KT 9999 FEW046 26/11 Q1015 NOSIG=
200908231120 METAR COR EGLL 231120Z 20013KT 160V250 9999 FEW046 26/11
                        Q1015 NOSIG=
200908231050 METAR COR EGLL 231050Z 19013KT 9999 FEW044 25/12 Q1015 NOSIG=
200908231020 METAR COR EGLL 231020Z 20012KT 170V240 9999 FEW044 25/12
                        Q1016 NOSIG=
200908230950 METAR COR EGLL 230950Z 18009KT 130V210 9999 FEW044 24/13
                        Q1016 NOSIG=
200908230920 METAR COR EGLL 230920Z 17010KT 140V210 CAVOK 23/13 Q1017
                        NOSIG=
200908230850 METAR COR EGLL 230850Z 14009KT 110V180 CAVOK 22/13 Q1017
                        NOSIG=
200908230820 METAR COR EGLL 230820Z 17009KT 120V220 CAVOK 21/13 Q1017
                        NOSIG=
200908230750 METAR EGLL 230750Z 17009KT 140V220 CAVOK 20/13 Q1017=
200908230720 METAR COR EGLL 230720Z 16009KT 120V220 CAVOK 19/13 Q1017
                        NOSIG=
200908230650 METAR COR EGLL 230650Z 16007KT 130V200 CAVOK 18/13 Q1018
                        NOSIG=
200908230620 METAR COR EGLL 230620Z VRB06KT CAVOK 17/12 Q1018 NOSIG=
200908230550 METAR COR EGLL 230550Z 17006KT 120V220 CAVOK 16/12 Q1018
                        NOSIG=
200908230520 METAR COR EGLL 230520Z 17006KT 140V220 CAVOK 16/12 Q1018
                        NOSIG=
200908230450 METAR COR EGLL 230450Z 16004KT CAVOK 16/12 Q1018 NOSIG=
200908230420 METAR COR EGLL 230420Z 15004KT CAVOK 16/12 Q1018 NOSIG=
200908230350 METAR COR EGLL 230350Z 18003KT CAVOK 16/11 Q1018 NOSIG=
200908230320 METAR COR EGLL 230320Z 17004KT CAVOK 17/11 Q1019 NOSIG=
200908230250 METAR COR EGLL 230250Z 15003KT CAVOK 16/11 Q1019 NOSIG=
200908230220 METAR COR EGLL 230220Z 14004KT CAVOK 16/10 Q1019 NOSIG=
200908230150 METAR COR EGLL 230150Z 15003KT 9999 FEW045 16/11 Q1020 NOSIG=
200908230120 METAR COR EGLL 230120Z 14005KT 9999 FEW044 16/11 Q1020 NOSIG=
200908230050 METAR COR EGLL 230050Z 13005KT 9999 SCT044 16/11 Q1020 NOSIG=
200908230020 METAR COR EGLL 230020Z 15004KT 9999 SCT049 16/11 Q1021 NOSIG=
200908222350 METAR COR EGLL 222350Z 17004KT CAVOK 16/11 Q1021 NOSIG=
200908222320 METAR COR EGLL 222320Z 16004KT CAVOK 16/11 Q1021 NOSIG=
200908222250 METAR COR EGLL 222250Z 15005KT 120V180 CAVOK 16/11 Q1021
                        NOSIG=
200908222220 METAR COR EGLL 222220Z 16004KT CAVOK 16/11 Q1021 NOSIG=
200908222150 METAR COR EGLL 222150Z 19006KT 150V260 CAVOK 16/11 Q1021
                        NOSIG=
200908222120 METAR COR EGLL 222120Z 16006KT 110V230 CAVOK 16/11 Q1022
                        NOSIG=
200908222050 METAR COR EGLL 222050Z 19007G17KT 150V250 CAVOK 17/10 Q1022
                        NOSIG=
200908222020 METAR COR EGLL 222020Z 19006KT 150V250 CAVOK 18/11 Q1022
                        NOSIG=
200908221950 METAR COR EGLL 221950Z 18007KT 150V230 CAVOK 18/10 Q1022
                        NOSIG=
200908221920 METAR COR EGLL 221920Z 18008KT 160V250 CAVOK 19/10 Q1022
                        NOSIG=
200908221850 METAR COR EGLL 221850Z 18008KT 160V220 CAVOK 20/10 Q1022
                        NOSIG=
200908221820 METAR COR EGLL 221820Z 19008KT CAVOK 21/10 Q1022 NOSIG=
200908221750 METAR COR EGLL 221750Z 19008KT 150V250 CAVOK 21/09 Q1022
                        NOSIG=
200908221720 METAR COR EGLL 221720Z 20009KT 150V240 9999 FEW045 22/09
                        Q1022 NOSIG=
200908221650 METAR COR EGLL 221650Z 19006KT 140V240 9999 FEW045 22/09
                        Q1022 NOSIG=
200908221620 METAR COR EGLL 221620Z 22007KT 170V260 9999 FEW045 22/09
                        Q1022 NOSIG=
200908221550 METAR COR EGLL 221550Z 23012KT 200V260 9999 SCT041 21/10
                        Q1022 NOSIG=
200908221520 METAR COR EGLL 221520Z 21010KT 170V260 9999 SCT038 22/11
                        Q1022 NOSIG=
200908221450 METAR COR EGLL 221450Z 21009G19KT 180V240 9999 SCT038 22/11
                        Q1022 NOSIG=
200908221420 METAR COR EGLL 221420Z 19009KT 140V260 9999 FEW038 22/11
                        Q1022 NOSIG=
200908221350 METAR COR EGLL 221350Z 19010KT 160V260 9999 SCT039 22/11
                        Q1023 NOSIG=
200908221320 METAR COR EGLL 221320Z 20011KT 180V250 9999 FEW042 21/12
                        Q1023 NOSIG=
200908221250 METAR COR EGLL 221250Z 20010KT 120V260 9999 FEW045 22/11
                        Q1023 NOSIG=
200908221220 METAR COR EGLL 221220Z 21009KT 180V260 9999 FEW042 21/09
                        Q1023 NOSIG=
200908221150 METAR COR EGLL 221150Z 20009KT 170V240 9999 FEW036 22/09
                        Q1023 NOSIG=
200908221120 METAR COR EGLL 221120Z 23008KT 190V260 9999 FEW031 21/11
                        Q1023 NOSIG=
200908221050 METAR COR EGLL 221050Z 23008KT 140V270 9999 FEW042 20/10
                        Q1023 NOSIG=
200908221020 METAR COR EGLL 221020Z 23007KT 180V280 9999 SCT034 20/10
                        Q1024 NOSIG=
200908220950 METAR COR EGLL 220950Z 23008KT 200V260 9999 FEW040 20/10
                        Q1024 NOSIG=
200908220920 METAR COR EGLL 220920Z 22007KT 180V250 9999 FEW026 18/11
                        Q1024 NOSIG=
200908220850 METAR COR EGLL 220850Z 22006KT CAVOK 18/12 Q1024 NOSIG=
200908220820 METAR COR EGLL 220820Z 19005KT 140V260 CAVOK 17/12 Q1023
                        NOSIG=
200908220750 METAR COR EGLL 220750Z 20005KT 160V250 CAVOK 16/12 Q1023
                        NOSIG=
200908220720 METAR COR EGLL 220720Z VRB03KT CAVOK 15/12 Q1023 NOSIG=
200908220650 METAR EGLL 220650Z 21004KT 170V260 CAVOK 14/12 Q1023=
200908220620 METAR COR EGLL 220620Z 20005KT 170V260 CAVOK 13/11 Q1023
                        NOSIG=
200908220550 METAR COR EGLL 220550Z 21005KT 170V250 CAVOK 13/11 Q1023
                        NOSIG=
200908220520 METAR COR EGLL 220520Z 20004KT 150V250 CAVOK 13/11 Q1023
                        NOSIG=
200908220450 METAR COR EGLL 220450Z 20003KT CAVOK 12/10 Q1023 NOSIG=
200908220420 METAR COR EGLL 220420Z VRB03KT CAVOK 11/09 Q1023 NOSIG=
200908220350 METAR COR EGLL 220350Z VRB03KT CAVOK 12/10 Q1022 NOSIG=
200908220320 METAR COR EGLL 220320Z 22003KT CAVOK 12/10 Q1022 NOSIG=
200908220250 METAR COR EGLL 220250Z 23003KT CAVOK 12/10 Q1022 NOSIG=
200908220220 METAR COR EGLL 220220Z 19002KT CAVOK 12/10 Q1022 NOSIG=
200908220150 METAR COR EGLL 220150Z 20004KT CAVOK 12/10 Q1022 NOSIG=
200908220120 METAR COR EGLL 220120Z 18004KT CAVOK 12/10 Q1022 NOSIG=
200908220050 METAR COR EGLL 220050Z VRB02KT CAVOK 13/10 Q1022 NOSIG=
200908220020 METAR COR EGLL 220020Z 22004KT CAVOK 13/11 Q1022 NOSIG=
200908212350 METAR COR EGLL 212350Z 23004KT CAVOK 13/10 Q1022 NOSIG=
200908212320 METAR COR EGLL 212320Z 26005KT CAVOK 13/10 Q1022 NOSIG=
200908212250 METAR COR EGLL 212250Z 27006KT CAVOK 14/10 Q1022 NOSIG=
200908212220 METAR COR EGLL 212220Z 26010KT CAVOK 14/10 Q1022 NOSIG=
200908212150 METAR COR EGLL 212150Z 25009KT CAVOK 15/11 Q1022 NOSIG=
200908212120 METAR COR EGLL 212120Z 24009KT CAVOK 15/11 Q1022 NOSIG=
200908212050 METAR COR EGLL 212050Z 26009KT CAVOK 16/10 Q1022 NOSIG=
200908212020 METAR COR EGLL 212020Z 25009KT 9999 FEW033 16/10 Q1022 NOSIG=
200908211950 METAR COR EGLL 211950Z 27008KT 9999 FEW035 16/10 Q1021 NOSIG=
200908211920 METAR COR EGLL 211920Z 27008KT 9999 FEW041 16/09 Q1021 NOSIG=
200908211850 METAR COR EGLL 211850Z 27012KT CAVOK 17/09 Q1021 NOSIG=
200908211820 METAR COR EGLL 211820Z 27011KT CAVOK 17/08 Q1021 NOSIG=
200908211750 METAR EGLL 211750Z AUTO 26013KT 9999NDV NCD 18/08 Q1020=
200908211720 METAR COR EGLL 211720Z 25013KT CAVOK 19/08 Q1020 NOSIG=
200908211650 METAR COR EGLL 211650Z 27014KT CAVOK 18/08 Q1020 TEMPO SHRA=
200908211620 METAR EGLL 211620Z 27016KT CAVOK 19/09 Q1020=
200908211550 METAR COR EGLL 211550Z 27013KT CAVOK 18/10 Q1020 TEMPO SHRA=
200908211520 METAR COR EGLL 211520Z 29011KT CAVOK 18/09 Q1020 NOSIG=
200908211450 METAR COR EGLL 211450Z 26016KT 230V290 CAVOK 21/05 Q1020
                        TEMPO SHRA=
200908211420 METAR COR EGLL 211420Z 26014KT 9999 FEW040CB 20/08 Q1020
                        TEMPO SHRA=
200908211350 METAR COR EGLL 211350Z 26013KT 9999 FEW040CB 19/09 Q1020
                        TEMPO SHRA=
200908211320 METAR COR EGLL 211320Z 26013KT 9999 FEW040CB 18/10 Q1020
                        NOSIG=
200908211250 METAR COR EGLL 211250Z 27010KT 9999 FEW024 SCT037 16/12 Q1020
                        TEMPO SHRA=
200908211220 METAR COR EGLL 211220Z 32010KT 280V350 9999 5000NE -SHRA
                        FEW024 BKN046 15/12 Q1021 TEMPO SHRA=
200908211150 METAR COR EGLL 211150Z 31012KT 9999 FEW028 SCT046 18/12 Q1020
                        TEMPO SHRA=
200908211120 METAR COR EGLL 211120Z 29010KT 9999 3000W SHRA SCT019 BKN046
                        20/08 Q1020 TEMPO 3000 +SHRA=
200908211050 METAR COR EGLL 211050Z 22012KT 9999 BKN041 20/08 Q1020 TEMPO
                        SHRA=
200908211020 METAR COR EGLL 211020Z 24013KT 9999 FEW039 19/08 Q1020 NOSIG=
200908210950 METAR EGLL 210950Z 24012KT 190V280 9999 SCT028 19/09 Q1020=
200908210920 METAR COR EGLL 210920Z 25012KT 9999 SCT028 18/10 Q1020 NOSIG=
200908210850 METAR EGLL 210850Z 22009KT 9999 SCT023 18/11 Q1020=
200908210820 METAR COR EGLL 210820Z 21007KT 190V260 CAVOK 17/11 Q1020
                        NOSIG=
200908210750 METAR COR EGLL 210750Z 22008KT 180V250 CAVOK 15/11 Q1020
                        NOSIG=
200908210720 METAR COR EGLL 210720Z 24007KT 200V280 CAVOK 15/11 Q1020
                        NOSIG=
200908210650 METAR COR EGLL 210650Z 23007KT 190V260 CAVOK 14/11 Q1020
                        NOSIG=
200908210620 METAR COR EGLL 210620Z 22007KT 170V260 CAVOK 13/11 Q1020
                        NOSIG=
200908210550 METAR COR EGLL 210550Z 21006KT 170V250 CAVOK 13/11 Q1020
                        NOSIG=
200908210520 METAR COR EGLL 210520Z 21006KT 190V260 CAVOK 13/11 Q1020
                        NOSIG=
200908210450 METAR COR EGLL 210450Z 21008KT CAVOK 13/11 Q1019 NOSIG=
200908210420 METAR COR EGLL 210420Z 21006KT 190V250 CAVOK 13/11 Q1019
                        NOSIG=
200908210350 METAR COR EGLL 210350Z 20006KT CAVOK 13/11 Q1019 NOSIG=
200908210320 METAR COR EGLL 210320Z 21007KT CAVOK 13/11 Q1019 NOSIG=
200908210250 METAR COR EGLL 210250Z 21006KT CAVOK 13/11 Q1019 NOSIG=
200908210220 METAR COR EGLL 210220Z 20005KT CAVOK 14/11 Q1019 NOSIG=
200908210150 METAR COR EGLL 210150Z 21005KT CAVOK 14/11 Q1019 NOSIG=
200908210120 METAR COR EGLL 210120Z 20006KT CAVOK 14/11 Q1019 NOSIG=
200908210050 METAR COR EGLL 210050Z 20005KT CAVOK 14/11 Q1019 NOSIG=
200908210020 METAR COR EGLL 210020Z 21006KT CAVOK 14/11 Q1019 NOSIG=
200908202350 METAR COR EGLL 202350Z 21006KT CAVOK 15/11 Q1019 NOSIG=
200908202320 METAR COR EGLL 202320Z 22008KT CAVOK 15/11 Q1019 NOSIG=
200908202250 METAR COR EGLL 202250Z 23010KT CAVOK 16/11 Q1018 NOSIG=
200908202220 METAR COR EGLL 202220Z 23011KT CAVOK 16/11 Q1018 NOSIG=
200908202150 METAR COR EGLL 202150Z 24012KT CAVOK 16/10 Q1018 NOSIG=
200908202120 METAR COR EGLL 202120Z 24013KT CAVOK 17/10 Q1017 NOSIG=
200908202050 METAR COR EGLL 202050Z 25014KT CAVOK 18/10 Q1017 NOSIG=
200908202020 METAR COR EGLL 202020Z 22009KT 200V260 9999 FEW024 18/12
                        Q1017 NOSIG=
200908201950 METAR COR EGLL 201950Z 23010KT 9999 SCT048 19/12 Q1017 NOSIG=
200908201920 METAR COR EGLL 201920Z 24012KT 9999 BKN046 19/12 Q1016 NOSIG=
200908201850 METAR EGLL 201850Z AUTO 27014KT 9999NDV BKN041/// 21/11 Q1015=
200908201820 METAR COR EGLL 201820Z 25014KT 9999 SCT044 21/11 Q1015 NOSIG=
200908201750 METAR COR EGLL 201750Z 23015KT 9999 FEW048 21/10 Q1014 NOSIG=
200908201720 METAR COR EGLL 201720Z 24016KT CAVOK 22/10 Q1014 NOSIG=
200908201650 METAR COR EGLL 201650Z 25018KT CAVOK 23/09 Q1014 NOSIG=
200908201620 METAR COR EGLL 201620Z 24018KT CAVOK 23/09 Q1014 NOSIG=
200908201550 METAR EGLL 201550Z AUTO 24019KT 9999NDV NCD 23/09 Q1014=
200908201520 METAR COR EGLL 201520Z 23016G26KT 9999 FEW043 SCT048 23/10
                        Q1014 NOSIG=
200908201450 METAR COR EGLL 201450Z 24016KT 9999 FEW044 SCT047 23/10 Q1013
                        NOSIG=
200908201420 METAR COR EGLL 201420Z 23014KT 190V260 9999 FEW044 22/11
                        Q1013 NOSIG=
200908201350 METAR COR EGLL 201350Z 22014KT 9999 FEW027 21/10 Q1013 NOSIG=
200908201320 METAR COR EGLL 201320Z 24017KT 9999 VCSH FEW030 SCT040 20/11
                        Q1013 NOSIG=
200908201250 METAR COR EGLL 201250Z 24021KT 9999 FEW030 SCT041 22/11 Q1013
                        NOSIG=
200908201220 METAR COR EGLL 201220Z 23018KT 9999 SCT032 22/13 Q1012 NOSIG=
200908201150 METAR COR EGLL 201150Z 23017KT 9999 SCT043 23/14 Q1011 NOSIG=
200908201120 METAR COR EGLL 201120Z 22012KT 9999 FEW028 BKN048 22/15 Q1011
                        NOSIG=
200908201050 METAR COR EGLL 201050Z 22014KT 9999 FEW015 SCT045 22/16 Q1011
                        NOSIG=
200908201020 METAR COR EGLL 201020Z 21014KT 9999 FEW009 SCT012 BKN016
                        21/17 Q1011 TEMPO BKN012=
200908200950 METAR COR EGLL 200950Z 21014G24KT 9999 VCSH FEW009 SCT014
                        BKN018 21/17 Q1011 TEMPO BKN014=
200908200920 METAR EGLL 200920Z 20013KT 9999 SCT015 BKN021 21/16 Q1010=
200908200850 METAR COR EGLL 200850Z 21012KT 9999 FEW015 BKN020 20/16 Q1011
                        TEMPO RA BKN014=
200908200820 METAR COR EGLL 200820Z 20012KT 180V300 9999 FEW032 20/15
                        Q1010 NOSIG=
200908200750 METAR COR EGLL 200750Z 20010KT CAVOK 20/15 Q1010 NOSIG=
200908200720 METAR COR EGLL 200720Z 19005KT 160V240 9000 NSC 18/16 Q1010
                        NOSIG=
200908200650 METAR COR EGLL 200650Z 16005KT 110V200 5000 HZ SCT001 16/15
                        Q1010 NOSIG=
200908200620 METAR COR EGLL 200620Z 15006KT 100V200 3500 HZ FEW002 16/15
                        Q1010 BECMG 6000=
200908200550 METAR COR EGLL 200550Z 16005KT 110V190 3100 BR FEW001 16/15
                        Q1010 BECMG 6000=
200908200520 METAR EGLL 200520Z 20004KT 170V280 2000 BR BKN002 16/15 Q1011=
200908200450 METAR EGLL 200450Z 24004KT 190V260 0200 FG NSC 16/15 Q1011=
200908200420 METAR EGLL 200420Z VRB03KT CAVOK 16/14 Q1011=
200908200350 METAR COR EGLL 200350Z VRB03KT CAVOK 16/14 Q1011 NOSIG=
200908200320 METAR EGLL 200320Z 17003KT CAVOK 16/14 Q1012=
200908200250 METAR COR EGLL 200250Z 16004KT CAVOK 16/14 Q1012 TEMPO 7000=
200908200220 METAR COR EGLL 200220Z 15004KT CAVOK 16/14 Q1012 NOSIG=
200908200150 METAR COR EGLL 200150Z 17004KT CAVOK 16/15 Q1012 NOSIG=
200908200120 METAR COR EGLL 200120Z 17005KT CAVOK 17/15 Q1013 NOSIG=
200908200050 METAR COR EGLL 200050Z 17005KT CAVOK 17/15 Q1013 NOSIG=
200908200020 METAR COR EGLL 200020Z 20004KT CAVOK 17/15 Q1013 NOSIG=
200908192350 METAR EGLL 192350Z NIL=
200908192320 METAR COR EGLL 192320Z 20005KT CAVOK 18/15 Q1014 NOSIG=
200908192250 METAR COR EGLL 192250Z 18005KT CAVOK 18/15 Q1014 NOSIG=
200908192220 METAR EGLL 192220Z 18005KT CAVOK 18/15 Q1014=
200908192150 METAR COR EGLL 192150Z 21008KT 170V260 CAVOK 19/15 Q1014
                        NOSIG=
200908192120 METAR COR EGLL 192120Z 23010KT CAVOK 20/15 Q1015 NOSIG=
200908192050 METAR COR EGLL 192050Z 22008G18KT CAVOK 20/15 Q1015 NOSIG=
200908192020 METAR COR EGLL 192020Z 19009KT 150V250 CAVOK 21/14 Q1015
                        NOSIG=
200908191950 METAR COR EGLL 191950Z 19007KT 140V240 CAVOK 22/13 Q1015
                        NOSIG=
200908191920 METAR COR EGLL 191920Z 20008KT 170V240 CAVOK 23/13 Q1014
                        NOSIG=
200908191850 METAR COR EGLL 191850Z 19010KT 170V240 CAVOK 24/13 Q1014
                        NOSIG=
200908191820 METAR COR EGLL 191820Z 19010KT CAVOK 25/13 Q1014 NOSIG=
200908191750 METAR COR EGLL 191750Z 19011G22KT CAVOK 26/14 Q1014 NOSIG=
200908191720 METAR COR EGLL 191720Z 19013KT CAVOK 26/13 Q1014 NOSIG=
200908191650 METAR COR EGLL 191650Z 20013KT CAVOK 27/12 Q1014 NOSIG=
200908191620 METAR COR EGLL 191620Z 20012KT 170V240 CAVOK 28/12 Q1014
                        NOSIG=
200908191550 METAR COR EGLL 191550Z 20012KT 170V240 CAVOK 28/11 Q1015
                        NOSIG=
200908191520 METAR COR EGLL 191520Z 19012KT 160V230 CAVOK 28/11 Q1015
                        NOSIG=
200908191450 METAR COR EGLL 191450Z 19012KT 160V230 CAVOK 28/12 Q1015
                        NOSIG=
200908191420 METAR COR EGLL 191420Z 19011KT 160V240 CAVOK 28/13 Q1015
                        NOSIG=
200908191350 METAR COR EGLL 191350Z 20010KT 160V230 CAVOK 28/13 Q1015
                        NOSIG=
200908191320 METAR COR EGLL 191320Z 20011G22KT 160V250 CAVOK 28/13 Q1015
                        NOSIG=
200908191250 METAR COR EGLL 191250Z 19010G20KT 170V250 CAVOK 28/14 Q1016
                        NOSIG=
200908191220 METAR COR EGLL 191220Z 19011KT 170V230 CAVOK 27/14 Q1016
                        NOSIG=
200908191150 METAR COR EGLL 191150Z 21009KT 160V260 9999 FEW044 26/15
                        Q1016 NOSIG=
200908191120 METAR COR EGLL 191120Z 21008G21KT 140V270 CAVOK 26/14 Q1016
                        NOSIG=
200908191050 METAR COR EGLL 191050Z 21010KT 170V240 CAVOK 25/14 Q1017
                        NOSIG=
200908191020 METAR COR EGLL 191020Z 20007KT 160V240 CAVOK 24/14 Q1017
                        NOSIG=
200908190950 METAR COR EGLL 190950Z 18006KT 130V260 CAVOK 23/13 Q1017
                        NOSIG=
200908190920 METAR COR EGLL 190920Z 18004KT 100V240 CAVOK 21/13 Q1017
                        NOSIG=
200908190850 METAR COR EGLL 190850Z 18007KT 150V230 CAVOK 20/13 Q1017
                        NOSIG=
200908190820 METAR COR EGLL 190820Z 17005KT 110V210 CAVOK 19/13 Q1017
                        NOSIG=
200908190750 METAR COR EGLL 190750Z 19004KT 140V220 CAVOK 18/13 Q1017
                        NOSIG=
200908190720 METAR COR EGLL 190720Z VRB03KT CAVOK 17/13 Q1017 NOSIG=
200908190650 METAR COR EGLL 190650Z VRB03KT CAVOK 16/13 Q1017 NOSIG=
200908190620 METAR COR EGLL 190620Z 19004KT 140V230 CAVOK 15/13 Q1017
                        NOSIG=
200908190550 METAR COR EGLL 190550Z 18005KT 100V210 CAVOK 15/13 Q1017
                        NOSIG=
200908190520 METAR COR EGLL 190520Z VRB03KT CAVOK 14/13 Q1017 NOSIG=
200908190450 METAR COR EGLL 190450Z VRB03KT CAVOK 14/13 Q1017 NOSIG=
200908190420 METAR COR EGLL 190420Z 18005KT 140V260 CAVOK 14/13 Q1017
                        NOSIG=
200908190350 METAR COR EGLL 190350Z VRB03KT CAVOK 14/13 Q1017 NOSIG=
200908190320 METAR COR EGLL 190320Z 18004KT CAVOK 14/13 Q1017 NOSIG=
200908190250 METAR COR EGLL 190250Z 17005KT CAVOK 15/13 Q1017 NOSIG=
200908190220 METAR COR EGLL 190220Z 20005KT CAVOK 15/13 Q1018 NOSIG=
200908190150 METAR COR EGLL 190150Z 21005KT CAVOK 15/13 Q1018 NOSIG=
200908190120 METAR COR EGLL 190120Z 19005KT CAVOK 15/13 Q1018 NOSIG=
200908190050 METAR COR EGLL 190050Z 20005KT CAVOK 15/13 Q1018 NOSIG=
200908190020 METAR COR EGLL 190020Z 20003KT CAVOK 15/13 Q1018 NOSIG=
200908182350 METAR COR EGLL 182350Z 21004KT CAVOK 16/13 Q1018 NOSIG=
200908182320 METAR COR EGLL 182320Z 21005KT CAVOK 16/13 Q1018 NOSIG=
200908182250 METAR COR EGLL 182250Z 22006KT CAVOK 16/13 Q1018 NOSIG=
200908182220 METAR COR EGLL 182220Z 22007KT CAVOK 17/13 Q1018 NOSIG=
200908182150 METAR COR EGLL 182150Z 22008KT 150V250 CAVOK 17/14 Q1018
                        NOSIG=
200908182120 METAR COR EGLL 182120Z 21009KT 160V250 CAVOK 17/13 Q1018
                        NOSIG=
200908182050 METAR COR EGLL 182050Z 22008KT 180V250 CAVOK 18/13 Q1018
                        NOSIG=
200908182020 METAR COR EGLL 182020Z 21009KT CAVOK 18/12 Q1018 NOSIG=
200908181950 METAR COR EGLL 181950Z 22008KT CAVOK 19/12 Q1018 NOSIG=
200908181920 METAR COR EGLL 181920Z 22008KT 190V250 CAVOK 20/12 Q1018
                        NOSIG=
200908181850 METAR COR EGLL 181850Z 22010KT 9999 FEW042 20/11 Q1018 NOSIG=
200908181820 METAR COR EGLL 181820Z 22011KT 9999 FEW042 21/11 Q1017 NOSIG=
200908181750 METAR COR EGLL 181750Z 21010KT 180V250 9999 FEW042 22/11
                        Q1017 NOSIG=
200908181720 METAR COR EGLL 181720Z 24010KT 9999 SCT044 22/11 Q1018 NOSIG=
200908181650 METAR COR EGLL 181650Z 23011KT 9999 SCT044 23/11 Q1018 NOSIG=
200908181620 METAR EGLL 181620Z 24011KT 220V280 9999 SCT044 23/11 Q1018=
200908181550 METAR COR EGLL 181550Z 21009KT 180V240 9999 SCT045 23/11
                        Q1018 NOSIG=
200908181520 METAR COR EGLL 181520Z 21009KT 160V250 9999 SCT044 24/11
                        Q1018 NOSIG=
200908181450 METAR COR EGLL 181450Z 21010KT 170V260 9999 SCT044 24/11
                        Q1018 NOSIG=
200908181420 METAR COR EGLL 181420Z 22008KT 170V270 9999 SCT041 24/12
                        Q1018 NOSIG=
200908181350 METAR EGLL 181350Z 23008KT 180V260 9999 SCT044 23/12 Q1019=
200908181320 METAR COR EGLL 181320Z 21008KT 150V250 9999 SCT040 23/12
                        Q1019 NOSIG=
200908181250 METAR COR EGLL 181250Z 19010KT 160V240 9999 SCT040 24/12
                        Q1019 NOSIG=
200908181220 METAR COR EGLL 181220Z 20008KT 170V230 9999 SCT040 23/12
                        Q1019NOSIG=
200908181150 METAR COR EGLL 181150Z 21009KT 170V250 9999 SCT037 22/12
                        Q1019 NOSIG=
200908181120 METAR COR EGLL 181120Z 22009KT 9999 SCT038 21/13 Q1019 NOSIG=
200908181050 METAR COR EGLL 181050Z 20008KT 170V250 9999 SCT038 22/13
                        Q1020 NOSIG=
200908181020 METAR COR EGLL 181020Z 20008KT 160V240 9999 SCT033 SCT039
                        21/14 Q1020 NOSIG=
200908180950 METAR EGLL 180950Z 19009KT 160V220 9999 FEW028 22/13 Q1020=
200908180920 METAR COR EGLL 180920Z 19008KT 140V230 9999 FEW028 21/13
                        Q1020 NOSIG=
200908180850 METAR COR EGLL 180850Z 19010KT 9999 FEW028 20/12 Q1019 NOSIG=
200908180820 METAR COR EGLL 180820Z 20007KT 170V260 CAVOK 19/12 Q1019
                        NOSIG=
200908180750 METAR EGLL 180750Z 18005KT 140V230 CAVOK 18/13 Q1019=
200908180720 METAR COR EGLL 180720Z 21004KT 170V250 CAVOK 17/12 Q1019
                        NOSIG=
200908180650 METAR COR EGLL 180650Z VRB03KT CAVOK 16/12 Q1019 NOSIG=
200908180620 METAR COR EGLL 180620Z VRB03KT CAVOK 15/12 Q1019 NOSIG=
200908180550 METAR COR EGLL 180550Z 19004KT 110V280 CAVOK 14/12 Q1019
                        NOSIG=
200908180520 METAR COR EGLL 180520Z 17004KT CAVOK 14/11 Q1019 NOSIG=
200908180450 METAR COR EGLL 180450Z VRB02KT CAVOK 13/11 Q1018 NOSIG=
200908180420 METAR COR EGLL 180420Z 16004KT 110V200 CAVOK 14/12 Q1018
                        NOSIG=
200908180350 METAR COR EGLL 180350Z VRB03KT CAVOK 14/11 Q1019 NOSIG=
200908180320 METAR COR EGLL 180320Z 19003KT CAVOK 15/12 Q1019 NOSIG=
200908180250 METAR COR EGLL 180250Z VRB02KT CAVOK 14/12 Q1019 NOSIG=
200908180220 METAR COR EGLL 180220Z 20003KT CAVOK 14/12 Q1019 NOSIG=
200908180150 METAR COR EGLL 180150Z 00000KT CAVOK 14/12 Q1019 NOSIG=
200908180120 METAR COR EGLL 180120Z VRB03KT CAVOK 15/12 Q1019 NOSIG=
200908180050 METAR COR EGLL 180050Z 27003KT CAVOK 15/12 Q1019 NOSIG=
200908180020 METAR COR EGLL 180020Z 25005KT CAVOK 16/12 Q1019 NOSIG=
200908172350 METAR COR EGLL 172350Z 26005KT CAVOK 16/12 Q1018 NOSIG=
200908172320 METAR COR EGLL 172320Z 26005KT CAVOK 16/12 Q1018 NOSIG=
200908172250 METAR COR EGLL 172250Z 27007KT CAVOK 17/12 Q1018 NOSIG=
200908172220 METAR COR EGLL 172220Z 25007KT CAVOK 17/12 Q1018 NOSIG=
200908172150 METAR COR EGLL 172150Z 28005KT CAVOK 18/12 Q1018 NOSIG=
200908172120 METAR COR EGLL 172120Z 28008KT CAVOK 18/12 Q1018 NOSIG=
200908172050 METAR COR EGLL 172050Z 28007KT CAVOK 18/12 Q1018 NOSIG=
200908172020 METAR COR EGLL 172020Z 27007KT CAVOK 20/12 Q1018 NOSIG=
200908171950 METAR COR EGLL 171950Z 27008KT CAVOK 20/12 Q1017 NOSIG=
200908171920 METAR COR EGLL 171920Z 25008KT CAVOK 21/12 Q1017 NOSIG=
200908171850 METAR COR EGLL 171850Z 26009KT CAVOK 21/11 Q1016 NOSIG=
200908171820 METAR COR EGLL 171820Z 26011KT 9999 FEW044 22/11 Q1016 NOSIG=
200908171750 METAR COR EGLL 171750Z 27012KT 9999 FEW044 22/11 Q1016 NOSIG=
200908171720 METAR COR EGLL 171720Z 27011KT 9999 FEW048 22/11 Q1016 NOSIG=
200908171650 METAR COR EGLL 171650Z 27013KT 9999 FEW046 23/11 Q1016 NOSIG=
200908171620 METAR COR EGLL 171620Z 27013KT 9999 FEW049 23/10 Q1016 NOSIG=
200908171550 METAR COR EGLL 171550Z 28011KT 9999 FEW048 23/10 Q1016 NOSIG=
200908171520 METAR COR EGLL 171520Z 27013KT 9999 FEW043 24/10 Q1016 NOSIG=
200908171450 METAR COR EGLL 171450Z 27013KT 9999 SCT041 23/11 Q1016 NOSIG=
200908171420 METAR COR EGLL 171420Z 27011KT 9999 SCT039 22/12 Q1016 NOSIG=
200908171350 METAR COR EGLL 171350Z 28010KT 9999 SCT040 23/12 Q1016 NOSIG=
200908171320 METAR EGLL 171320Z 28010KT 9999 FEW038 SCT043 22/12 Q1016=
200908171250 METAR COR EGLL 171250Z 25008KT 230V290 9999 FEW046 22/12
                        Q1016 NOSIG=
200908171220 METAR COR EGLL 171220Z 28011KT 9999 SCT048 21/12 Q1016 NOSIG=
200908171150 METAR COR EGLL 171150Z 25009KT 220V310 9999 BKN048 21/12
                        Q1016 NOSIG=
200908171120 METAR COR EGLL 171120Z 27010KT 9999 SCT042 21/12 Q1016 NOSIG=
200908171050 METAR EGLL 171050Z 28009KT 240V320 9999 SCT032 SCT045 20/13
                        Q1016=
200908171020 METAR EGLL 171020Z 26008KT 230V290 9999 SCT032 20/12 Q1016=
200908170950 METAR EGLL 170950Z 27010KT 9999 SCT031 20/12 Q1016=
200908170920 METAR COR EGLL 170920Z 28009KT 9999 FEW025 19/12 Q1015 NOSIG=
200908170850 METAR COR EGLL 170850Z 27011KT 240V310 CAVOK 19/13 Q1016
                        NOSIG=
200908170820 METAR COR EGLL 170820Z 25009KT CAVOK 18/13 Q1015 NOSIG=
200908170750 METAR COR EGLL 170750Z 27009KT CAVOK 17/13 Q1015 NOSIG=
200908170720 METAR COR EGLL 170720Z 27007KT CAVOK 16/13 Q1015 NOSIG=
200908170650 METAR COR EGLL 170650Z 26006KT CAVOK 15/12 Q1015 NOSIG=
200908170620 METAR COR EGLL 170620Z 22006KT 180V260 CAVOK 14/12 Q1015
                        NOSIG=
200908170550 METAR COR EGLL 170550Z 20005KT 180V240 CAVOK 14/12 Q1015
                        NOSIG=
200908170520 METAR COR EGLL 170520Z 25006KT CAVOK 14/12 Q1015 NOSIG=
200908170450 METAR COR EGLL 170450Z 27006KT CAVOK 14/12 Q1015 NOSIG=
200908170420 METAR COR EGLL 170420Z 27007KT CAVOK 13/12 Q1015 NOSIG=
200908170350 METAR COR EGLL 170350Z 27007KT CAVOK 14/12 Q1015 NOSIG=
200908170320 METAR EGLL 170320Z 27006KT CAVOK 14/12 Q1015=
200908170250 METAR COR EGLL 170250Z 27008KT CAVOK 14/12 Q1015 NOSIG=
200908170220 METAR COR EGLL 170220Z 27007KT CAVOK 15/12 Q1015 NOSIG=
200908170150 METAR COR EGLL 170150Z 27007KT CAVOK 15/12 Q1015 NOSIG=
200908170120 METAR EGLL 170120Z AUTO 25006KT 9999NDV NCD 15/12 Q1015=
200908170050 METAR EGLL 170050Z AUTO 26006KT 9999NDV NCD 16/12 Q1016=
200908170020 METAR EGLL 170020Z AUTO 27007KT 9999NDV NCD 16/12 Q1015=
200908162350 METAR COR EGLL 162350Z 27006KT CAVOK 15/12 Q1016 NOSIG=
200908162320 METAR COR EGLL 162320Z 27007KT CAVOK 16/12 Q1016 NOSIG=
200908162250 METAR COR EGLL 162250Z 27007KT CAVOK 16/12 Q1016 NOSIG=
200908162220 METAR EGLL 162220Z 27007KT CAVOK 16/12 Q1016=
200908162150 METAR COR EGLL 162150Z 27008KT CAVOK 17/12 Q1015 NOSIG=
200908162120 METAR COR EGLL 162120Z 28009KT CAVOK 17/12 Q1016 NOSIG=
200908162050 METAR COR EGLL 162050Z 29008KT CAVOK 18/12 Q1016 NOSIG=
200908162020 METAR COR EGLL 162020Z 29008KT CAVOK 19/12 Q1016 NOSIG=
200908161950 METAR COR EGLL 161950Z 30010KT CAVOK 19/13 Q1015 NOSIG=
200908161920 METAR COR EGLL 161920Z 30008KT CAVOK 20/13 Q1015 NOSIG=
200908161850 METAR COR EGLL 161850Z 29010KT CAVOK 20/13 Q1015 NOSIG=
200908161820 METAR COR EGLL 161820Z 28010KT CAVOK 21/13 Q1014 NOSIG=
200908161750 METAR COR EGLL 161750Z 27012KT CAVOK 22/13 Q1014 NOSIG=
200908161720 METAR COR EGLL 161720Z 27012KT CAVOK 23/13 Q1014 NOSIG=
200908161650 METAR COR EGLL 161650Z 27012KT CAVOK 23/12 Q1014 NOSIG=
200908161620 METAR COR EGLL 161620Z 26012KT CAVOK 24/12 Q1014 NOSIG=
200908161550 METAR COR EGLL 161550Z 27013KT CAVOK 24/12 Q1014 NOSIG=
200908161520 METAR COR EGLL 161520Z 27012KT CAVOK 25/12 Q1015 NOSIG=
200908161450 METAR COR EGLL 161450Z 26010KT 210V300 CAVOK 25/12 Q1015
                        NOSIG=
200908161420 METAR COR EGLL 161420Z 25012KT 220V280 9999 FEW045 25/12
                        Q1015 NOSIG=
200908161350 METAR COR EGLL 161350Z 26012KT 220V280 9999 FEW041 24/12
                        Q1015 NOSIG=
200908161320 METAR COR EGLL 161320Z 25013KT 210V290 9999 FEW040 24/12
                        Q1015 NOSIG=
200908161250 METAR COR EGLL 161250Z 26013KT 9999 FEW038 23/13 Q1015 NOSIG=
200908161220 METAR COR EGLL 161220Z 25012KT 9999 FEW037 23/13 Q1015 NOSIG=
200908161150 METAR COR EGLL 161150Z 23012KT 190V270 9999 FEW031 22/13
                        Q1015 NOSIG=
200908161120 METAR COR EGLL 161120Z 24013KT 190V270 9999 SCT031 22/13
                        Q1015 NOSIG=
200908161050 METAR COR EGLL 161050Z 25013KT 9999 SCT029 20/13 Q1015 NOSIG=
200908161020 METAR COR EGLL 161020Z 25011KT 9999 BKN029 20/13 Q1015 NOSIG=
200908160950 METAR COR EGLL 160950Z 25011KT 9999 SCT025 SCT031 20/14 Q1015
                        NOSIG=
200908160920 METAR COR EGLL 160920Z 24010KT 210V270 9999 SCT021 SCT025
                        19/14 Q1015 NOSIG=
200908160850 METAR COR EGLL 160850Z 25011KT 9999 SCT022 SCT026 19/13 Q1016
                        NOSIG=
200908160820 METAR COR EGLL 160820Z 25011KT 9999 BKN025 18/14 Q1016 NOSIG=
200908160750 METAR COR EGLL 160750Z 22008KT 200V260 9999 BKN026 17/14
                        Q1016 NOSIG=
200908160720 METAR COR EGLL 160720Z 24008KT 9999 BKN024 17/14 Q1016 NOSIG=
200908160650 METAR COR EGLL 160650Z 25008KT 210V280 9999 BKN025 17/14
                        Q1016 NOSIG=
200908160620 METAR COR EGLL 160620Z 24008KT 9999 BKN025 16/14 Q1016 NOSIG=
200908160550 METAR COR EGLL 160550Z 23006KT 200V280 9999 BKN024 16/14
                        Q1015 NOSIG=
200908160520 METAR COR EGLL 160520Z 22007KT 180V240 9999 SCT027 15/14
                        Q1015 NOSIG=
200908160450 METAR COR EGLL 160450Z 23007KT 9999 FEW015 15/14 Q1015 NOSIG=
200908160420 METAR COR EGLL 160420Z 22006KT 9999 FEW015 15/14 Q1015 TEMPO
                        BKN013=
200908160350 METAR COR EGLL 160350Z 21004KT 9999 FEW014 15/14 Q1015 TEMPO
                        BKN013=
200908160320 METAR COR EGLL 160320Z 22007KT CAVOK 15/14 Q1015 NOSIG=
200908160250 METAR COR EGLL 160250Z 23007KT 9999 FEW029 16/15 Q1015 NOSIG=
200908160220 METAR COR EGLL 160220Z 23007KT 9999 FEW029 16/15 Q1015 NOSIG=
200908160150 METAR COR EGLL 160150Z 22004KT 9999 FEW027 16/15 Q1015 NOSIG=
200908160120 METAR COR EGLL 160120Z 23006KT 9999 FEW028 16/15 Q1015 TEMPO
                        BKN012=
200908160050 METAR COR EGLL 160050Z 21005KT 9999 FEW027 16/15 Q1015 NOSIG=
200908160020 METAR COR EGLL 160020Z 24006KT 9999 FEW027 17/15 Q1015 NOSIG=
200908152350 METAR COR EGLL 152350Z 24006KT 9999 FEW024 17/15 Q1015 NOSIG=
200908152320 METAR COR EGLL 152320Z 24007KT 9999 SCT024 17/15 Q1015 NOSIG=
200908152250 METAR COR EGLL 152250Z 24008KT 9999 SCT018 18/16 Q1015 NOSIG=
200908152220 METAR COR EGLL 152220Z 23009KT 9999 FEW024 18/15 Q1015 NOSIG=
200908152150 METAR COR EGLL 152150Z 23010KT 9999 FEW024 18/16 Q1015 NOSIG=
200908152120 METAR COR EGLL 152120Z 24009KT 9999 FEW026 18/16 Q1014 NOSIG=
200908152050 METAR COR EGLL 152050Z 23010KT 9999 FEW026 19/16 Q1014 NOSIG=
200908152020 METAR COR EGLL 152020Z 22010KT 9999 FEW026 19/16 Q1014 NOSIG=
200908151950 METAR COR EGLL 151950Z 22010KT 9999 FEW025 20/16 Q1013 NOSIG=
200908151920 METAR COR EGLL 151920Z 22010KT 9999 FEW025 20/16 Q1013 NOSIG=
200908151850 METAR COR EGLL 151850Z 22009KT 9999 FEW025 21/16 Q1013 NOSIG=
200908151820 METAR COR EGLL 151820Z 21010KT 190V250 9999 FEW028 21/16
                        Q1013 NOSIG=
200908151750 METAR COR EGLL 151750Z 21011KT 9999 FEW030 21/16 Q1013 NOSIG=
200908151720 METAR COR EGLL 151720Z 21011KT 180V240 9999 FEW032 SCT036
                        22/15 Q1013 NOSIG=
200908151650 METAR COR EGLL 151650Z 22011KT 9999 FEW029 SCT034 22/15 Q1013
                        NOSIG=
200908151620 METAR COR EGLL 151620Z 22012KT 9999 FEW029 BKN034 22/15 Q1013
                        NOSIG=
200908151550 METAR COR EGLL 151550Z 22010KT 200V260 9999 SCT031 BKN036
                        23/15 Q1013 NOSIG=
200908151520 METAR COR EGLL 151520Z 24012KT 9999 BKN031 22/15 Q1013 NOSIG=
200908151450 METAR COR EGLL 151450Z 22013KT 9999 BKN028 23/15 Q1013 NOSIG=
200908151420 METAR COR EGLL 151420Z 23014KT 9999 BKN027 22/14 Q1013 NOSIG=
200908151350 METAR COR EGLL 151350Z 23015KT 200V260 9999 SCT024 23/15
                        Q1013 NOSIG=
200908151320 METAR COR EGLL 151320Z 22014KT 9999 BKN024 22/15 Q1013 NOSIG=
200908151250 METAR COR EGLL 151250Z 23015KT 9999 BKN023 22/15 Q1013 NOSIG=
200908151220 METAR COR EGLL 151220Z 24014KT 9999 SCT020 SCT025 21/15 Q1013
                        NOSIG=
200908151150 METAR COR EGLL 151150Z 23014KT 9999 BKN020 20/15 Q1013 NOSIG=
200908151120 METAR COR EGLL 151120Z 23016KT 9999 BKN021 20/14 Q1014 NOSIG=
200908151050 METAR COR EGLL 151050Z 23012KT 9999 BKN021 20/14 Q1013 NOSIG=
200908151020 METAR COR EGLL 151020Z 23014KT 190V260 9999 SCT020 SCT027
                        20/14 Q1014 NOSIG=
200908150950 METAR COR EGLL 150950Z 24014KT 9999 BKN021 20/14 Q1014 NOSIG=
200908150920 METAR COR EGLL 150920Z 23014KT 9999 BKN018 19/14 Q1014 NOSIG=
200908150850 METAR COR EGLL 150850Z 23011KT 9999 BKN016 18/14 Q1013 NOSIG=
200908150820 METAR COR EGLL 150820Z 23013KT 9999 BKN015 18/14 Q1013 NOSIG=
200908150750 METAR COR EGLL 150750Z 23012KT 9999 BKN014 18/14 Q1013 BECMG
                        BKN018=
200908150720 METAR COR EGLL 150720Z 22011KT 9999 BKN014 17/14 Q1013 BECMG
                        BKN018=
200908150650 METAR COR EGLL 150650Z 22010KT 9999 BKN015 17/14 Q1014 TEMPO
                        BKN014=
200908150620 METAR COR EGLL 150620Z 21010KT 9999 BKN015 17/14 Q1014 TEMPO
                        BKN014=
200908150550 METAR COR EGLL 150550Z 22010KT 9999 BKN014 17/14 Q1014 BECMG
                        BKN016=
200908150520 METAR COR EGLL 150520Z 22011KT 9999 OVC014 17/14 Q1014 BECMG
                        BKN016=
200908150450 METAR COR EGLL 150450Z 23010KT 9999 OVC015 17/14 Q1014 TEMPO
                        BKN014=
200908150420 METAR COR EGLL 150420Z 22008KT 200V280 9999 BKN016 17/14
                        Q1014 TEMPO BKN014=
200908150350 METAR COR EGLL 150350Z 23007KT 9999 OVC016 17/14 Q1014 TEMPO
                        BKN014=
200908150320 METAR COR EGLL 150320Z 23011KT 9999 BKN016 17/14 Q1014 BECMG
                        BKN014=
200908150250 METAR COR EGLL 150250Z 24008KT 9999 BKN016 17/14 Q1014 BECMG
                        BKN014=
200908150220 METAR COR EGLL 150220Z 22006KT 9999 BKN017 17/14 Q1014 TEMPO
                        BKN014=
200908150150 METAR COR EGLL 150150Z 21005KT 9999 BKN016 17/14 Q1015 TEMPO
                        BKN014=
200908150120 METAR COR EGLL 150120Z 23008KT 9999 BKN019 17/14 Q1015 TEMPO
                        BKN014=
200908150050 METAR COR EGLL 150050Z 23008KT 9999 SCT019 16/14 Q1015 TEMPO
                        BKN014=
200908150020 METAR COR EGLL 150020Z 21007KT CAVOK 16/14 Q1015 NOSIG=
200908142350 METAR COR EGLL 142350Z 21008KT CAVOK 16/14 Q1015 NOSIG=
200908142320 METAR COR EGLL 142320Z 21008KT CAVOK 17/14 Q1015 NOSIG=
200908142250 METAR COR EGLL 142250Z 21008KT CAVOK 17/14 Q1015 NOSIG=
200908142220 METAR COR EGLL 142220Z 21008KT CAVOK 17/14 Q1015 NOSIG=
200908142150 METAR COR EGLL 142150Z 21008KT CAVOK 18/14 Q1015 NOSIG=
200908142120 METAR COR EGLL 142120Z 21008KT CAVOK 18/14 Q1015 NOSIG=
200908142050 METAR COR EGLL 142050Z 23009KT 9999 FEW026 19/14 Q1016 NOSIG=
200908142020 METAR COR EGLL 142020Z 24009KT 9999 FEW030 19/14 Q1016 NOSIG=
200908141950 METAR COR EGLL 141950Z 25011KT 9999 FEW030 20/14 Q1016 NOSIG=
200908141920 METAR COR EGLL 141920Z AUTO 26012KT 9999NDV SCT029/// 21/14
                        Q1015=
200908141850 METAR COR EGLL 141850Z 22009KT 9999 SCT034 21/14 Q1015 NOSIG=
200908141820 METAR COR EGLL 141820Z 22011KT 9999 BKN035 22/14 Q1015 NOSIG=
200908141750 METAR COR EGLL 141750Z 22011KT 9999 BKN035 22/14 Q1015 NOSIG=
200908141720 METAR COR EGLL 141720Z 22012KT 9999 FEW038 BKN041 23/14 Q1015
                        NOSIG=
200908141650 METAR COR EGLL 141650Z 22012KT 9999 SCT037 BKN043 23/14 Q1015
                        NOSIG=
200908141620 METAR EGLL 141620Z AUTO 22011KT 190V260 9999NDV BKN045///
                        23/14 Q1015=
200908141550 METAR COR EGLL 141550Z 21012KT 9999 SCT039 BKN044 23/14 Q1016
                        NOSIG=
200908141520 METAR EGLL 141520Z 22011KT 9999 SCT037 BKN043 23/14 Q1016=
200908141450 METAR COR EGLL 141450Z 22012KT 9999 SCT038 BKN047 23/14 Q1016
                        NOSIG=
200908141420 METAR COR EGLL 141420Z 22011KT 9999 SCT034 BKN042 23/15 Q1016
                        NOSIG=
200908141350 METAR COR EGLL 141350Z 21010KT 170V260 9999 BKN031 BKN038
                        23/15 Q1016 NOSIG=
200908141320 METAR COR EGLL 141320Z 25011KT 9999 BKN031 23/15 Q1017 NOSIG=
200908141250 METAR COR EGLL 141250Z 21011KT 9999 SCT032 BKN038 23/15 Q1017
                        NOSIG=
200908141220 METAR COR EGLL 141220Z 22010KT 180V260 9999 SCT028 BKN041
                        23/15 Q1017 NOSIG=
200908141150 METAR COR EGLL 141150Z 20010KT 160V240 9999 SCT026 BKN034
                        22/15 Q1017 NOSIG=
200908141120 METAR COR EGLL 141120Z 21011KT 160V250 9999 BKN027 22/15
                        Q1017 NOSIG=
200908141050 METAR COR EGLL 141050Z 20011KT 170V240 9999 BKN030 22/14
                        Q1017 NOSIG=
200908141020 METAR EGLL 141020Z 22010KT 170V260 9999 SCT027 SCT034 22/14
                        Q1017=
200908140950 METAR COR EGLL 140950Z 22008KT 190V290 9999 FEW024 SCT035
                        21/14 Q1017 NOSIG=
200908140920 METAR COR EGLL 140920Z 21009KT 160V250 9999 SCT019 20/14
                        Q1018 NOSIG=
200908140850 METAR COR EGLL 140850Z 22009KT 190V260 9999 BKN013 19/14
                        Q1018 BECMG SCT015=
200908140820 METAR COR EGLL 140820Z 21007KT 170V250 9999 FEW008 SCT010
                        18/14 Q1018 NOSIG=
200908140750 METAR COR EGLL 140750Z 19007KT 150V240 9999 FEW005 SCT008
                        17/14 Q1018 NOSIG=
200908140720 METAR COR EGLL 140720Z 21008KT 180V250 9999 BKN004 16/14
                        Q1018 BECMG SCT005=
200908140650 METAR COR EGLL 140650Z 22007KT 180V260 3000 BR BKN003 16/15
                        Q1018 BECMG 6000 NSW SCT005=
200908140620 METAR COR EGLL 140620Z 23006KT 1600 BR OVC001 16/15 Q1018
                        BECMG 3000 BKN006=
200908140550 METAR COR EGLL 140550Z 22008KT 1400 R27L/P1500 R27R/P1500
                        BR OVC001 16/15 Q1018 BECMG 3000
                        BKN006=
200908140520 METAR COR EGLL 140520Z 21004KT 180V260 0900 R27L/0800 R27R/0900
                        FG OVC001 16/15 Q1018 BECMG 3000
                        BKN006=
200908140450 METAR COR EGLL 140450Z VRB03KT 1800 BR BKN002 15/14 Q1018
                        BECMG 3000 BKN006=
200908140420 METAR COR EGLL 140420Z 16003KT 1500 BR OVC002 15/14 Q1018
                        BECMG 5000 BKN006=
200908140350 METAR COR EGLL 140350Z 17004KT 2900 BR BKN003 15/14 Q1018
                        NOSIG=
200908140320 METAR COR EGLL 140320Z 15004KT 7000 SCT006 15/14 Q1018 BECMG
                        4000 HZ BKN006=
200908140250 METAR COR EGLL 140250Z 15003KT 8000 NSC 14/13 Q1018 BECMG
                        4000 HZ=
200908140220 METAR COR EGLL 140220Z 18002KT 9000 FEW005 14/14 Q1018 BECMG
                        4000 HZ=
200908140150 METAR COR EGLL 140150Z 15003KT 9000 FEW005 15/14 Q1018 TEMPO
                        BKN005=
200908140120 METAR COR EGLL 140120Z 11003KT CAVOK 15/14 Q1018 NOSIG=
200908140050 METAR COR EGLL 140050Z 13003KT CAVOK 15/13 Q1018 NOSIG=
200908140020 METAR COR EGLL 140020Z 11005KT CAVOK 15/13 Q1018 NOSIG=
200908132350 METAR COR EGLL 132350Z 09004KT CAVOK 16/12 Q1019 NOSIG=
200908132320 METAR COR EGLL 132320Z VRB03KT CAVOK 16/13 Q1019 NOSIG=
200908132250 METAR COR EGLL 132250Z 00000KT CAVOK 17/13 Q1019 NOSIG=
200908132220 METAR COR EGLL 132220Z 00000KT CAVOK 17/13 Q1019 NOSIG=
200908132150 METAR COR EGLL 132150Z 00000KT CAVOK 20/10 Q1019 NOSIG=
200908132120 METAR COR EGLL 132120Z VRB02KT CAVOK 20/10 Q1019 NOSIG=
200908132050 METAR COR EGLL 132050Z 35003KT CAVOK 21/10 Q1019 NOSIG=
200908132020 METAR COR EGLL 132020Z VRB03KT CAVOK 21/09 Q1019 NOSIG=
200908131950 METAR COR EGLL 131950Z 35003KT 9999 FEW049 21/10 Q1018 NOSIG=
200908131920 METAR COR EGLL 131920Z 36004KT 320V050 CAVOK 21/10 Q1018
                        NOSIG=
200908131850 METAR COR EGLL 131850Z 02004KT 350V060 9999 FEW048 22/10
                        Q1018 NOSIG=
200908131820 METAR COR EGLL 131820Z 03005KT 330V090 9999 FEW043 22/10
                        Q1018 NOSIG=
200908131750 METAR COR EGLL 131750Z 34005KT 280V050 9999 FEW048 22/10
                        Q1018 NOSIG=
200908131720 METAR COR EGLL 131720Z 32005KT 250V360 9999 FEW048 22/10
                        Q1018 NOSIG=
200908131650 METAR COR EGLL 131650Z 33005KT 280V040 9999 FEW048 23/10
                        Q1018 NOSIG=
200908131620 METAR EGLL 131620Z 32006KT 290V010 9999 FEW048 23/11 Q1018=
200908131550 METAR EGLL 131550Z 32006KT 280V020 9999 SCT045 22/11 Q1018=
200908131520 METAR COR EGLL 131520Z 32006KT 270V010 9999 FEW047 23/11
                        Q1018 NOSIG=
200908131450 METAR COR EGLL 131450Z 29006KT 240V360 9999 FEW042 23/12
                        Q1018 NOSIG=
200908131420 METAR COR EGLL 131420Z 31007KT 280V360 9999 FEW042 23/12
                        Q1018 NOSIG=
200908131350 METAR EGLL 131350Z 34007KT 280V010 9999 SCT036 22/12 Q1019
                        NOSIG=
200908131320 METAR COR EGLL 131320Z 34006KT 290V030 9999 SCT035 22/12
                        Q1019 NOSIG=
200908131250 METAR COR EGLL 131250Z 32007KT 280V350 9999 SCT033 21/13
                        Q1019 NOSIG=
200908131220 METAR COR EGLL 131220Z 32004KT 260V030 9999 SCT028 21/13
                        Q1019 NOSIG=
200908131150 METAR COR EGLL 131150Z VRB05KT 9999 SCT028 SCT040 21/14 Q1019
                        NOSIG=
200908131120 METAR COR EGLL 131120Z 36005KT 320V060 9999 SCT024 SCT034
                        20/14 Q1019 NOSIG=
200908131050 METAR COR EGLL 131050Z 35005KT 310V040 9999 SCT023 SCT031
                        20/14 Q1019 NOSIG=
200908131020 METAR COR EGLL 131020Z 34005KT 300V020 9999 SCT022 SCT032
                        20/14 Q1019 NOSIG=
200908130950 METAR COR EGLL 130950Z 34005KT 300V010 9999 SCT021 SCT030
                        19/14 Q1019 NOSIG=
200908130920 METAR EGLL 130920Z 35004KT 300V030 9999 FEW017 BKN038 19/15
                        Q1019=
200908130850 METAR COR EGLL 130850Z 03005KT 360V060 9999 FEW013 BKN038
                        18/14 Q1019 NOSIG=
200908130820 METAR COR EGLL 130820Z VRB03KT 9999 FEW010 BKN038 18/14 Q1019
                        NOSIG=
200908130750 METAR COR EGLL 130750Z VRB03KT 9999 FEW012 SCT037 18/15 Q1018
                        NOSIG=
200908130720 METAR COR EGLL 130720Z VRB03KT 9999 FEW009 17/14 Q1018 NOSIG=
200908130650 METAR EGLL 130650Z VRB03KT 9999 FEW008 17/15 Q1018=
200908130620 METAR COR EGLL 130620Z 31003KT 9999 FEW015 17/14 Q1018 NOSIG=
200908130550 METAR COR EGLL 130550Z VRB02KT 9999 FEW010 16/14 Q1017 NOSIG=
200908130520 METAR EGLL 130520Z 24004KT 210V280 9999 -RA NSC 16/14 Q1017=
200908130450 METAR EGLL 130450Z 31004KT 9999 -RA NSC 16/14 Q1018=
200908130420 METAR COR EGLL 130420Z VRB03KT 9999 FEW030 BKN045 16/14 Q1017
                        NOSIG=
200908130350 METAR COR EGLL 130350Z 00000KT 9999 FEW043 16/14 Q1017 NOSIG=
200908130320 METAR COR EGLL 130320Z 16002KT 9999 FEW022 SCT038 16/14 Q1017
                        NOSIG=
200908130250 METAR COR EGLL 130250Z 26002KT 7000 DZ FEW020 BKN024 16/15
                        Q1018 BECMG -DZ=
200908130220 METAR COR EGLL 130220Z 00000KT 6000 -RA FEW014 BKN022 16/15
                        Q1018 NOSIG=
200908130150 METAR COR EGLL 130150Z VRB03KT 4000 -RA BKN017 16/15 Q1018
                        BECMG 6000=
200908130120 METAR EGLL 130120Z AUTO 01005KT 330V060 4000NDV DZ FEW004///
                        SCT014/// BKN017/// 17/15 Q1018=
200908130020 METAR EGLL 130020Z AUTO 31005KT 9999NDV -RA SCT012/// BKN015///
                        18/16 Q1018=
200908122350 METAR COR EGLL 122350Z 28007KT 9999 FEW012 SCT019 18/16 Q1018
                        NOSIG=
200908122320 METAR COR EGLL 122320Z 27008KT 9999 FEW014 18/16 Q1018 NOSIG=
200908122250 METAR COR EGLL 122250Z 27008KT 9999 FEW016 18/16 Q1018 NOSIG=
200908122220 METAR COR EGLL 122220Z 27007KT 9999 FEW020 19/16 Q1018 NOSIG=
200908122150 METAR EGLL 122150Z 27007KT 9999 FEW018 19/16 Q1018 NOSIG=
200908122120 METAR COR EGLL 122120Z 27008KT 9999 FEW018 20/17 Q1018 NOSIG=
200908122050 METAR COR EGLL 122050Z 27008KT 9999 FEW020 20/17 Q1018 NOSIG=
200908122020 METAR COR EGLL 122020Z 27009KT 9999 SCT021 20/17 Q1018 NOSIG=
200908121950 METAR COR EGLL 121950Z 26006KT 220V300 9999 FEW024 20/17
                        Q1018 NOSIG=
200908121920 METAR COR EGLL 121920Z 28003KT 9999 SCT022 20/17 Q1018 NOSIG=
200908121850 METAR COR EGLL 121850Z VRB03KT 9999 -RA FEW015 SCT024 BKN030
                        20/18 Q1018 RERA NOSIG=
200908121820 METAR COR EGLL 121820Z 28006KT 260V320 9999 -RA SCT026 SCT049
                        20/18 Q1018 NOSIG=
200908121750 METAR COR EGLL 121750Z 31004KT 250V010 9999 7000W -SHRA SCT016
                        SCT028 21/18 Q1018 NOSIG=
200908121720 METAR EGLL 121720Z 29008KT 9999 VCSH SCT027 SCT032 22/16
                        Q1018 NOSIG=
200908121650 METAR COR EGLL 121650Z 26011KT 230V290 9999 -SHRA SCT027
                        BKN043 23/16 Q1018 NOSIG=
200908121620 METAR COR EGLL 121620Z 25011KT 220V280 9999 FEW024 BKN028
                        23/16 Q1018 NOSIG=
200908121550 METAR COR EGLL 121550Z 26012KT 9999 FEW024 SCT027 BKN033
                        23/17 Q1018 NOSIG=
200908121520 METAR COR EGLL 121520Z 26013KT 9999 FEW023 BKN028 23/17 Q1019
                        NOSIG=
200908121450 METAR COR EGLL 121450Z 26013KT 9999 FEW021 BKN025 22/16 Q1019
                        NOSIG=
200908121420 METAR COR EGLL 121420Z 27015KT 9999 FEW020 BKN032 22/16 Q1019
                        NOSIG=
200908121350 METAR COR EGLL 121350Z 27014KT 9999 SCT020 BKN026 22/16 Q1019
                        NOSIG=
200908121320 METAR COR EGLL 121320Z 27013KT 9999 -SHRA SCT022 BKN028 21/17
                        Q1019 NOSIG=
200908121250 METAR COR EGLL 121250Z 26014KT 9999 SCT020 SCT025 22/17 Q1019
                        NOSIG=
200908121220 METAR COR EGLL 121220Z 26014KT 9999 FEW019 BKN023 21/17 Q1019
                        NOSIG=
200908121150 METAR COR EGLL 121150Z 26012KT 9999 BKN020 21/17 Q1019 NOSIG=
200908121120 METAR COR EGLL 121120Z 27014KT 9999 BKN020 21/17 Q1019 NOSIG=
200908121050 METAR COR EGLL 121050Z 26015KT 9999 SCT017 BKN023 22/17 Q1019
                        NOSIG=
200908121020 METAR COR EGLL 121020Z 27014KT 9999 BKN018 22/17 Q1020 NOSIG=
200908120950 METAR COR EGLL 120950Z 27012KT 9999 FEW014 BKN019 21/16 Q1020
                        NOSIG=
200908120920 METAR COR EGLL 120920Z 26012KT 220V290 9999 BKN015 21/17
                        Q1020 NOSIG=
200908120850 METAR COR EGLL 120850Z 25011KT 9999 BKN012 BKN014 20/16 Q1020
                        BECMG SCT020=
200908120820 METAR COR EGLL 120820Z 24009KT 200V270 9999 FEW008 BKN010
                        19/16 Q1020 BECMG SCT020=
200908120750 METAR COR EGLL 120750Z 24011KT 9999 BKN006 18/15 Q1020 BECMG
                        BKN010=
200908120720 METAR COR EGLL 120720Z 24009KT 9999 OVC006 17/15 Q1020 BECMG
                        BKN010=
200908120650 METAR COR EGLL 120650Z 22008KT 8000 OVC004 16/15 Q1020 BECMG
                        BKN008=
200908120620 METAR COR EGLL 120620Z 24007KT 190V260 9000 FEW004 BKN005
                        16/14 Q1020 BECMG SCT005 BKN010=
200908120550 METAR COR EGLL 120550Z 23007KT 200V260 9999 BKN005 16/14
                        Q1020 BECMG SCT005 BKN010=
200908120520 METAR COR EGLL 120520Z 21007KT 9999 FEW010 16/14 Q1020 TEMPO
                        BKN005=
200908120450 METAR COR EGLL 120450Z 24007KT CAVOK 16/14 Q1020 TEMPO BKN006=
200908120420 METAR COR EGLL 120420Z 25008KT CAVOK 16/14 Q1020 NOSIG=
200908120350 METAR COR EGLL 120350Z 27007KT CAVOK 16/14 Q1020 NOSIG=
200908120320 METAR COR EGLL 120320Z 27007KT CAVOK 16/14 Q1020 NOSIG=
200908120250 METAR COR EGLL 120250Z 26006KT CAVOK 17/14 Q1020 NOSIG=
200908120220 METAR COR EGLL 120220Z 25008KT CAVOK 17/14 Q1020 NOSIG=
200908120150 METAR COR EGLL 120150Z 26007KT CAVOK 17/14 Q1020 NOSIG=
200908120120 METAR EGLL 120120Z AUTO 26007KT 9999NDV NCD 17/14 Q1020=
200908120050 METAR EGLL 120050Z AUTO 26005KT 9999NDV NCD 17/14 Q1020=
200908120020 METAR EGLL 120020Z AUTO 27007KT 9999NDV NCD 17/15 Q1021=
200908112350 METAR COR EGLL 112350Z 27008KT CAVOK 18/15 Q1021 NOSIG=
200908112320 METAR EGLL 112320Z 27008KT CAVOK 19/15 Q1021=
200908112250 METAR COR EGLL 112250Z 26009KT CAVOK 19/15 Q1021 NOSIG=
200908112220 METAR COR EGLL 112220Z 27008KT CAVOK 19/15 Q1021 NOSIG=
200908112150 METAR COR EGLL 112150Z 27008KT CAVOK 20/15 Q1021 NOSIG=
200908112120 METAR COR EGLL 112120Z 27009KT CAVOK 21/15 Q1021 NOSIG=
200908112050 METAR COR EGLL 112050Z 26010KT CAVOK 22/14 Q1020 NOSIG=
200908112020 METAR COR EGLL 112020Z 26009KT CAVOK 22/14 Q1020 NOSIG=
200908111950 METAR COR EGLL 111950Z 26009KT CAVOK 23/13 Q1020 NOSIG=
200908111920 METAR COR EGLL 111920Z 26009KT CAVOK 24/14 Q1020 NOSIG=
200908111850 METAR COR EGLL 111850Z 24009KT CAVOK 24/13 Q1020 NOSIG=
200908111820 METAR COR EGLL 111820Z 24008KT 210V280 CAVOK 25/13 Q1020
                        NOSIG=
200908111750 METAR COR EGLL 111750Z 26008KT CAVOK 25/13 Q1020 NOSIG=
200908111720 METAR COR EGLL 111720Z 25010KT 220V280 9999 FEW040 24/14
                        Q1020 NOSIG=
200908111650 METAR COR EGLL 111650Z 26009KT 220V300 9999 FEW040 24/14
                        Q1020 NOSIG=
200908111620 METAR COR EGLL 111620Z 26009KT 9999 FEW038 24/14 Q1020 NOSIG=
200908111550 METAR COR EGLL 111550Z 25008KT 9999 FEW038 24/14 Q1021 NOSIG=
200908111520 METAR COR EGLL 111520Z 28007KT 9999 FEW035 25/14 Q1021 NOSIG=
200908111450 METAR COR EGLL 111450Z 28007KT 260V330 9999 FEW034 24/14
                        Q1021 NOSIG=
200908111420 METAR COR EGLL 111420Z 27007KT 210V300 9999 FEW036 24/14
                        Q1021 NOSIG=
200908111350 METAR COR EGLL 111350Z 27006KT 230V320 9999 FEW031 23/14
                        Q1021 NOSIG=
200908111320 METAR COR EGLL 111320Z 26009KT 230V300 9999 SCT031 23/14
                        Q1021 NOSIG=
200908111250 METAR COR EGLL 111250Z 27007KT 230V310 9999 SCT033 22/14
                        Q1021 NOSIG=
200908111220 METAR COR EGLL 111220Z 26006KT 180V330 9999 SCT029 SCT033
                        22/14 Q1022 NOSIG=
200908111150 METAR COR EGLL 111150Z 27007KT 220V340 9999 SCT024 BKN027
                        21/14 Q1022 NOSIG=
200908111120 METAR COR EGLL 111120Z 28006KT 220V330 9999 SCT026 SCT028
                        21/14 Q1022 NOSIG=
200908111050 METAR COR EGLL 111050Z 31004KT 250V340 9999 SCT023 SCT028
                        21/14 Q1022 NOSIG=
200908111020 METAR COR EGLL 111020Z VRB04KT 9999 BKN020 BKN025 19/14 Q1022
                        NOSIG=
200908110950 METAR COR EGLL 110950Z 31005KT 270V350 9999 SCT019 BKN025
                        19/14 Q1021 NOSIG=
200908110920 METAR COR EGLL 110920Z 34004KT 280V020 9999 SCT018 BKN022
                        18/14 Q1021 NOSIG=
200908110850 METAR COR EGLL 110850Z 34004KT 300V020 9999 BKN014 18/14
                        Q1021 BECMG BKN020=
200908110820 METAR COR EGLL 110820Z 35004KT 300V020 9999 BKN014 18/14
                        Q1020 BECMG SCT020=
200908110750 METAR COR EGLL 110750Z 35004KT 300V030 9999 BKN016 18/14
                        Q1020 NOSIG=
200908110720 METAR COR EGLL 110720Z 34004KT 290V020 9999 FEW012 BKN014
                        18/15 Q1020 BECMG SCT020=
200908110650 METAR COR EGLL 110650Z 32004KT 270V020 9999 FEW011 BKN014
                        17/14 Q1019 NOSIG=
200908110620 METAR COR EGLL 110620Z 31004KT 270V350 9999 FEW014 BKN024
                        17/14 Q1019 TEMPO BKN014=
200908110550 METAR COR EGLL 110550Z 30004KT 270V340 9999 SCT020 16/14
                        Q1019 NOSIG=
200908110520 METAR COR EGLL 110520Z 29005KT 9999 8000SE FEW040 16/14 Q1019
                        NOSIG=
200908110450 METAR COR EGLL 110450Z 28004KT 9999 FEW040 16/14 Q1018 NOSIG=
200908110420 METAR COR EGLL 110420Z 28004KT 9999 BKN038 16/14 Q1018 NOSIG=
200908110350 METAR COR EGLL 110350Z 29004KT 9999 FEW040 16/14 Q1018 NOSIG=
200908110320 METAR COR EGLL 110320Z 29005KT 9999 FEW029 17/14 Q1018 NOSIG=
200908110250 METAR COR EGLL 110250Z 30004KT 9999 SCT045 17/14 Q1017 NOSIG=
200908110220 METAR COR EGLL 110220Z 30004KT 9999 OVC046 18/15 Q1017 NOSIG=
200908110150 METAR COR EGLL 110150Z 29004KT 9999 OVC047 18/15 Q1017 NOSIG=
200908110120 METAR COR EGLL 110120Z 29005KT 9999 BKN047 18/16 Q1017 NOSIG=
200908110050 METAR COR EGLL 110050Z 30004KT 9999 FEW014 BKN047 18/15 Q1017
                        NOSIG=
200908110020 METAR COR EGLL 110020Z 28005KT 9999 BKN043 18/16 Q1017 NOSIG=
200908102350 METAR COR EGLL 102350Z 31004KT 270V350 9999 SCT022 BKN040
                        18/15 Q1016 NOSIG=
200908102320 METAR COR EGLL 102320Z 31006KT 9999 FEW010 SCT014 18/16 Q1016
                        TEMPO BKN014=
200908102250 METAR COR EGLL 102250Z 28008KT 9999 FEW014 BKN044 18/16 Q1016
                        NOSIG=
200908102220 METAR COR EGLL 102220Z 28008KT 9999 FEW030 BKN043 19/16 Q1016
                        NOSIG=
200908102150 METAR COR EGLL 102150Z 26009KT 9999 FEW034 BKN048 19/16 Q1015
                        NOSIG=
200908102120 METAR COR EGLL 102120Z 24008KT 9999 FEW013 BKN021 19/16 Q1015
                        NOSIG=
200908102050 METAR COR EGLL 102050Z 22007KT 170V250 9999 SCT024 18/16
                        Q1015 NOSIG=
200908102020 METAR COR EGLL 102020Z 22007KT 9999 FEW008 SCT012 BKN047
                        18/16 Q1015 NOSIG=
200908101950 METAR COR EGLL 101950Z 21007KT 180V250 9999 FEW009 SCT012
                        BKN025 18/16 Q1014 TEMPO BKN012=
200908101920 METAR COR EGLL 101920Z 23009KT 9999 FEW011 SCT025 19/16 Q1014
                        TEMPO BKN012=
200908101850 METAR COR EGLL 101850Z 23010KT 9999 FEW011 BKN015 19/16 Q1014
                        TEMPO BKN012=
200908101820 METAR COR EGLL 101820Z 23009KT 200V270 9999 SCT011 BKN014
                        19/16 Q1014 TEMPO BKN016=
200908101750 METAR COR EGLL 101750Z 22009KT 9999 SCT010 BKN015 19/16 Q1014
                        TEMPO BKN013=
200908101720 METAR COR EGLL 101720Z 21009KT 9999 SCT010 BKN013 19/16 Q1014
                        TEMPO BKN016=
200908101650 METAR COR EGLL 101650Z 21010KT 9999 FEW009 SCT013 BKN016
                        18/16 Q1014 TEMPO BKN013=
200908101620 METAR COR EGLL 101620Z 22009KT 9999 FEW008 BKN013 18/16 Q1014
                        TEMPO BKN016=
200908101550 METAR COR EGLL 101550Z 22013KT 9000 FEW011 BKN013 19/16 Q1014
                        TEMPO BKN016=
200908101520 METAR COR EGLL 101520Z 22010KT 9999 FEW016 BKN021 19/15 Q1014
                        TEMPO BKN014=
200908101450 METAR COR EGLL 101450Z 23012KT 9999 BKN022 19/15 Q1014 NOSIG=
200908101420 METAR COR EGLL 101420Z 21010G20KT 9999 BKN020 20/15 Q1014
                        NOSIG=
200908101350 METAR COR EGLL 101350Z 23016KT 9999 FEW019 SCT024 BKN028
                        20/15 Q1014 NOSIG=
200908101320 METAR COR EGLL 101320Z 22015KT 9999 FEW024 BKN028 20/14 Q1014
                        NOSIG=
200908101250 METAR COR EGLL 101250Z 22013KT 9999 BKN028 20/13 Q1014 NOSIG=
200908101220 METAR COR EGLL 101220Z 22016KT 9999 FEW030 BKN043 21/13 Q1014
                        NOSIG=
200908101150 METAR COR EGLL 101150Z 24018KT 9999 FEW031 BKN047 21/13 Q1015
                        NOSIG=
200908101120 METAR COR EGLL 101120Z 24014KT 9999 BKN033 21/12 Q1015 NOSIG=
200908101050 METAR COR EGLL 101050Z 24014KT 200V270 9999 SCT037 21/12
                        Q1015 NOSIG=
200908101020 METAR COR EGLL 101020Z 24013KT 190V270 9999 SCT039 21/12
                        Q1015 NOSIG=
200908100950 METAR COR EGLL 100950Z 22012KT 190V250 9999 FEW034 21/12
                        Q1015 NOSIG=
200908100920 METAR COR EGLL 100920Z 21012KT 180V250 9999 FEW032 21/13
                        Q1015 NOSIG=
200908100850 METAR EGLL 100850Z 21011KT 180V250 CAVOK 21/13 Q1015=
200908100820 METAR EGLL 100820Z 22011KT CAVOK 20/13 Q1015 NOSIG=
200908100750 METAR COR EGLL 100750Z 21010KT 180V250 CAVOK 19/13 Q1015
                        NOSIG=
200908100720 METAR COR EGLL 100720Z 22008KT 190V260 CAVOK 18/12 Q1016
                        NOSIG=
200908100650 METAR COR EGLL 100650Z 21005KT 180V250 CAVOK 17/13 Q1016
                        NOSIG=
200908100620 METAR COR EGLL 100620Z 23006KT 200V270 CAVOK 17/13 Q1016
                        NOSIG=
200908100550 METAR COR EGLL 100550Z 21005KT CAVOK 16/13 Q1016 NOSIG=
200908100520 METAR COR EGLL 100520Z 22005KT 180V270 9999 FEW047 16/12
                        Q1016 NOSIG=
200908100450 METAR COR EGLL 100450Z 24005KT 9999 BKN047 16/12 Q1016 NOSIG=
200908100420 METAR COR EGLL 100420Z 22004KT 9999 BKN048 16/12 Q1016 NOSIG=
200908100350 METAR COR EGLL 100350Z 19004KT CAVOK 16/12 Q1016 NOSIG=
200908100320 METAR COR EGLL 100320Z 18005KT 9999 SCT049 16/12 Q1016 NOSIG=
200908100250 METAR COR EGLL 100250Z 18004KT CAVOK 16/12 Q1017 NOSIG=
200908100220 METAR COR EGLL 100220Z 20004KT CAVOK 17/12 Q1017 NOSIG=
200908100150 METAR COR EGLL 100150Z 18004KT CAVOK 16/12 Q1017 NOSIG=
200908100120 METAR EGLL 100120Z 17004KT CAVOK 17/12 Q1017=
200908100050 METAR COR EGLL 100050Z 20004KT CAVOK 17/11 Q1018 NOSIG=
200908100020 METAR COR EGLL 100020Z 22004KT CAVOK 17/11 Q1018 NOSIG=
200908092350 METAR COR EGLL 092350Z 23005KT CAVOK 18/11 Q1018 NOSIG=
200908092320 METAR COR EGLL 092320Z 23005KT CAVOK 18/11 Q1018 NOSIG=
200908092250 METAR COR EGLL 092250Z 21004KT CAVOK 18/11 Q1018 NOSIG=
200908092220 METAR COR EGLL 092220Z 21006KT CAVOK 18/11 Q1018 NOSIG=
200908092150 METAR COR EGLL 092150Z 22007KT 180V260 CAVOK 19/11 Q1018
                        NOSIG=
200908092120 METAR COR EGLL 092120Z 22008KT 190V250 CAVOK 19/10 Q1018
                        NOSIG=
200908092050 METAR COR EGLL 092050Z 22008KT 190V260 CAVOK 20/11 Q1018
                        NOSIG=
200908092020 METAR COR EGLL 092020Z 20009KT 180V240 CAVOK 20/11 Q1018
                        NOSIG=
200908091950 METAR COR EGLL 091950Z 20008KT 170V250 CAVOK 21/13 Q1017
                        NOSIG=
200908091920 METAR COR EGLL 091920Z 22009KT CAVOK 22/13 Q1017 NOSIG=
200908091850 METAR COR EGLL 091850Z 22009KT 190V250 CAVOK 23/12 Q1017
                        NOSIG=
200908091820 METAR COR EGLL 091820Z 20008KT 170V240 CAVOK 23/12 Q1017
                        NOSIG=
200908091750 METAR COR EGLL 091750Z 20009KT 170V240 CAVOK 23/12 Q1017
                        NOSIG=
200908091720 METAR COR EGLL 091720Z 22008KT 160V250 CAVOK 23/11 Q1017
                        NOSIG=
200908091650 METAR COR EGLL 091650Z 21008KT 160V250 CAVOK 24/11 Q1017
                        NOSIG=
200908091620 METAR COR EGLL 091620Z 24006G17KT 190V300 CAVOK 24/10 Q1017
                        NOSIG=
200908091550 METAR EGLL 091550Z 21008KT 150V270 CAVOK 25/10 Q1018=
200908091520 METAR COR EGLL 091520Z 22007KT 160V290 CAVOK 25/10 Q1018
                        NOSIG=
200908091450 METAR COR EGLL 091450Z VRB03KT CAVOK 25/10 Q1018 NOSIG=
200908091420 METAR COR EGLL 091420Z 20006KT 140V250 CAVOK 25/10 Q1018
                        NOSIG=
200908091350 METAR COR EGLL 091350Z 18006KT 140V250 CAVOK 25/10 Q1019
                        NOSIG=
200908091320 METAR COR EGLL 091320Z VRB06KT CAVOK 25/10 Q1019 NOSIG=
200908091250 METAR COR EGLL 091250Z VRB04KT CAVOK 25/10 Q1019 NOSIG=
200908091220 METAR COR EGLL 091220Z VRB04KT CAVOK 24/10 Q1019 NOSIG=
200908091150 METAR COR EGLL 091150Z 19006KT 120V270 9999 FEW049 24/10
                        Q1019 NOSIG=
200908091120 METAR COR EGLL 091120Z 17006KT 110V210 CAVOK 24/10 Q1019
                        NOSIG=
200908091050 METAR COR EGLL 091050Z 17007KT 090V210 CAVOK 23/10 Q1019
                        NOSIG=
200908091020 METAR COR EGLL 091020Z 18006KT 160V220 CAVOK 23/12 Q1019
                        NOSIG=
200908090950 METAR COR EGLL 090950Z 18005KT 150V220 CAVOK 22/12 Q1020
                        NOSIG=
200908090920 METAR COR EGLL 090920Z 17004KT 080V230 CAVOK 21/12 Q1020
                        NOSIG=
200908090850 METAR COR EGLL 090850Z VRB02KT CAVOK 20/12 Q1020 NOSIG=
200908090820 METAR COR EGLL 090820Z 16004KT 130V200 CAVOK 19/13 Q1020
                        NOSIG=
200908090750 METAR COR EGLL 090750Z 14004KT 090V170 CAVOK 18/12 Q1020
                        NOSIG=
200908090720 METAR COR EGLL 090720Z VRB03KT CAVOK 18/13 Q1020 NOSIG=
200908090650 METAR COR EGLL 090650Z VRB02KT CAVOK 17/13 Q1020 NOSIG=
200908090620 METAR COR EGLL 090620Z 12003KT CAVOK 17/13 Q1020 NOSIG=
200908090550 METAR COR EGLL 090550Z 07002KT CAVOK 16/12 Q1020 NOSIG=
200908090520 METAR COR EGLL 090520Z 09002KT CAVOK 16/12 Q1020 NOSIG=
200908090450 METAR COR EGLL 090450Z 10004KT CAVOK 16/12 Q1020 NOSIG=
200908090420 METAR COR EGLL 090420Z VRB03KT CAVOK 16/13 Q1020 NOSIG=
200908090350 METAR COR EGLL 090350Z 14004KT 070V190 CAVOK 17/13 Q1020
                        NOSIG=
200908090320 METAR COR EGLL 090320Z 12004KT CAVOK 16/14 Q1020 NOSIG=
200908090250 METAR COR EGLL 090250Z 15005KT CAVOK 17/14 Q1020 NOSIG=
200908090220 METAR COR EGLL 090220Z 14004KT 9999 FEW016 17/14 Q1020 NOSIG=
200908090150 METAR COR EGLL 090150Z 13006KT 7000 FEW010 17/15 Q1020 NOSIG=
200908090120 METAR COR EGLL 090120Z 12005KT 8000 NSC 17/15 Q1020 NOSIG=
200908090050 METAR COR EGLL 090050Z 13005KT 9000 FEW010 18/15 Q1020 NOSIG=
200908090020 METAR COR EGLL 090020Z 14005KT CAVOK 18/15 Q1021 NOSIG=
200908082350 METAR COR EGLL 082350Z 14004KT 120V180 CAVOK 18/14 Q1021
                        NOSIG=
200908082320 METAR COR EGLL 082320Z 15005KT CAVOK 19/14 Q1021 NOSIG=
200908082250 METAR COR EGLL 082250Z 15004KT 130V190 CAVOK 19/14 Q1020
                        NOSIG=
200908082220 METAR COR EGLL 082220Z VRB04KT CAVOK 19/14 Q1020 NOSIG=
200908082150 METAR COR EGLL 082150Z 17006KT 130V240 9999 FEW045 20/14
                        Q1020 NOSIG=
200908082120 METAR COR EGLL 082120Z 15006KT 110V230 9999 FEW045 20/14
                        Q1020 NOSIG=
200908082050 METAR COR EGLL 082050Z 12006KT 080V180 CAVOK 20/14 Q1020
                        NOSIG=
200908082020 METAR COR EGLL 082020Z 15007KT 100V250 CAVOK 21/15 Q1020
                        NOSIG=
200908081950 METAR COR EGLL 081950Z 14007KT 110V210 CAVOK 21/15 Q1020
                        NOSIG=
200908081920 METAR COR EGLL 081920Z 14005KT 100V200 CAVOK 22/14 Q1020
                        NOSIG=
200908081850 METAR COR EGLL 081850Z VRB03KT CAVOK 23/10 Q1019 NOSIG=
200908081820 METAR COR EGLL 081820Z 32005KT 280V360 CAVOK 23/10 Q1019
                        NOSIG=
200908081720 METAR COR EGLL 081720Z 31005KT 280V340 CAVOK 24/10 Q1019
                        NOSIG=
200908081650 METAR COR EGLL 081650Z 34004KT 290V050 CAVOK 24/10 Q1020
                        NOSIG=
200908081620 METAR COR EGLL 081620Z 33004KT 290V360 CAVOK 24/10 Q1020
                        NOSIG=
200908081550 METAR COR EGLL 081550Z VRB03KT CAVOK 23/10 Q1020 NOSIG=
200908081520 METAR COR EGLL 081520Z VRB03KT CAVOK 22/10 Q1020 NOSIG=
200908081450 METAR COR EGLL 081450Z VRB03KT CAVOK 23/10 Q1020 NOSIG=
200908081420 METAR COR EGLL 081420Z 07004KT 030V090 CAVOK 24/10 Q1020
                        NOSIG=
200908081350 METAR COR EGLL 081350Z VRB04KT CAVOK 25/09 Q1020 NOSIG=
200908081320 METAR COR EGLL 081320Z 35004KT 270V080 CAVOK 25/09 Q1021
                        NOSIG=
200908081250 METAR COR EGLL 081250Z 32004KT 250V030 CAVOK 24/10 Q1021
                        NOSIG=
200908081220 METAR COR EGLL 081220Z VRB03KT CAVOK 23/11 Q1021 NOSIG=
200908081150 METAR COR EGLL 081150Z VRB02KT 9999 SCT038 22/12 Q1021 NOSIG=
200908081120 METAR EGLL 081120Z AUTO VRB03KT 9999NDV FEW035/// 23/12 Q1021=
200908081050 METAR COR EGLL 081050Z VRB04KT 9999 FEW039 22/13 Q1021 NOSIG=
200908081020 METAR COR EGLL 081020Z VRB03KT CAVOK 21/13 Q1022 NOSIG=
200908080950 METAR COR EGLL 080950Z VRB03KT CAVOK 20/13 Q1022 NOSIG=
200908080920 METAR COR EGLL 080920Z VRB03KT CAVOK 19/13 Q1022 NOSIG=
200908080850 METAR COR EGLL 080850Z VRB02KT CAVOK 18/13 Q1022 NOSIG=
200908080820 METAR COR EGLL 080820Z VRB02KT CAVOK 17/12 Q1022 NOSIG=
200908080750 METAR COR EGLL 080750Z VRB03KT CAVOK 15/12 Q1022 NOSIG=
200908080720 METAR COR EGLL 080720Z VRB03KT CAVOK 15/12 Q1022 NOSIG=
200908080650 METAR COR EGLL 080650Z VRB03KT CAVOK 15/12 Q1022 NOSIG=
200908080620 METAR COR EGLL 080620Z 31003KT CAVOK 14/11 Q1022 NOSIG=
200908080550 METAR COR EGLL 080550Z 30002KT CAVOK 14/11 Q1021 NOSIG=
200908080520 METAR COR EGLL 080520Z 32002KT CAVOK 13/11 Q1021 NOSIG=
200908080450 METAR COR EGLL 080450Z 29004KT CAVOK 12/10 Q1021 NOSIG=
200908080420 METAR COR EGLL 080420Z 30003KT CAVOK 12/11 Q1021 NOSIG=
200908080350 METAR COR EGLL 080350Z 28004KT CAVOK 12/11 Q1021 NOSIG=
200908080320 METAR COR EGLL 080320Z 26004KT CAVOK 13/11 Q1021 NOSIG=
200908080250 METAR COR EGLL 080250Z 27003KT CAVOK 13/11 Q1021 NOSIG=
200908080220 METAR COR EGLL 080220Z 26004KT CAVOK 13/11 Q1021 NOSIG=
200908080150 METAR COR EGLL 080150Z 28003KT CAVOK 13/11 Q1021 NOSIG=
200908080120 METAR COR EGLL 080120Z 28002KT CAVOK 14/11 Q1021 NOSIG=
200908080050 METAR COR EGLL 080050Z 29004KT CAVOK 14/12 Q1021 NOSIG=
200908080020 METAR COR EGLL 080020Z 29003KT CAVOK 15/12 Q1021 NOSIG=
200908072350 METAR COR EGLL 072350Z 29006KT CAVOK 15/12 Q1021 NOSIG=
200908072320 METAR COR EGLL 072320Z 29006KT CAVOK 16/12 Q1021 NOSIG=
200908072250 METAR COR EGLL 072250Z 28005KT CAVOK 16/12 Q1021 NOSIG=
200908072220 METAR COR EGLL 072220Z VRB03KT CAVOK 18/14 Q1021 NOSIG=
200908072150 METAR COR EGLL 072150Z 15003KT CAVOK 18/14 Q1021 NOSIG=
200908072120 METAR COR EGLL 072120Z 13005KT 090V160 CAVOK 18/14 Q1021
                        NOSIG=
200908072050 METAR COR EGLL 072050Z VRB03KT CAVOK 18/14 Q1021 NOSIG=
200908072020 METAR COR EGLL 072020Z VRB03KT CAVOK 19/14 Q1021 NOSIG=
200908071950 METAR COR EGLL 071950Z 08003KT 9999 FEW046 19/14 Q1021 NOSIG=
200908071920 METAR COR EGLL 071920Z VRB03KT 9999 FEW046 21/14 Q1020 NOSIG=
200908071850 METAR COR EGLL 071850Z 06005KT 9999 FEW045 21/13 Q1020 NOSIG=
200908071820 METAR COR EGLL 071820Z 09005KT 060V140 9999 FEW045 22/14
                        Q1020 NOSIG=
200908071750 METAR COR EGLL 071750Z 07004KT 9999 FEW042 22/14 Q1020 NOSIG=
200908071720 METAR COR EGLL 071720Z 07004KT 040V110 9999 FEW042 22/13
                        Q1020 NOSIG=
200908071650 METAR COR EGLL 071650Z 06004KT 360V140 9999 FEW044 22/12
                        Q1020 NOSIG=
200908071620 METAR COR EGLL 071620Z 03004KT 330V080 CAVOK 23/13 Q1020
                        NOSIG=
200908071550 METAR COR EGLL 071550Z VRB03KT 9999 FEW036 22/13 Q1020 NOSIG=
200908071520 METAR COR EGLL 071520Z 35004KT 320V030 9999 FEW036 22/13
                        Q1020 NOSIG=
200908071450 METAR COR EGLL 071450Z 29005KT 240V340 9999 FEW031 SCT042
                        21/14 Q1020 NOSIG=
200908071420 METAR COR EGLL 071420Z 34004KT 280V040 9999 FEW028 SCT036
                        21/14 Q1020 NOSIG=
200908071350 METAR COR EGLL 071350Z 03005KT 330V070 9999 SCT026 SCT030
                        20/15 Q1020 NOSIG=
200908071320 METAR COR EGLL 071320Z 29006KT 9999 SCT016 SCT031 19/15 Q1020
                        NOSIG=
200908071250 METAR COR EGLL 071250Z VRB03KT 9999 BKN016 19/15 Q1020 NOSIG=
200908071220 METAR COR EGLL 071220Z 32005KT 280V010 9999 SCT010 BKN016
                        18/15 Q1020 NOSIG=
200908071150 METAR COR EGLL 071150Z 31005KT 9999 FEW008 BKN010 17/15 Q1020
                        BECMG BKN015=
200908071120 METAR COR EGLL 071120Z 34004KT 290V040 9999 BKN010 17/15
                        Q1020 BECMG SCT016=
200908071050 METAR COR EGLL 071050Z 32004KT 270V350 4800 BR BKN007 17/15
                        Q1020 BECMG 7000 NSW BKN010=
200908071020 METAR COR EGLL 071020Z 31004KT 280V350 4800 -DZ BKN007 17/15
                        Q1020 BECMG 7000 NSW BKN010=
200908070950 METAR COR EGLL 070950Z 31005KT 290V350 6000 -DZ BKN007 17/15
                        Q1020 BECMG BKN010=
200908070920 METAR COR EGLL 070920Z 30005KT 270V330 7000 BKN007 16/15
                        Q1020 BECMG 9999 BKN010=
200908070850 METAR COR EGLL 070850Z 30005KT 6000 BKN007 16/15 Q1020 BECMG
                        9999 BKN010=
200908070820 METAR COR EGLL 070820Z 30005KT 260V330 7000 BKN007 16/14
                        Q1019 BECMG 9999 BKN010=
200908070750 METAR COR EGLL 070750Z 31005KT 280V340 7000 BKN006 16/15
                        Q1019 BECMG 9999 BKN010=
200908070720 METAR COR EGLL 070720Z 30004KT 260V360 7000 OVC007 16/15
                        Q1019 BECMG 9999 BKN010=
200908070650 METAR COR EGLL 070650Z VRB02KT 6000 NSC 16/15 Q1019 BECMG
                        9999 BKN010=
200908070620 METAR EGLL 070620Z VRB03KT 5000 BR OVC006 16/14 Q1019=
200908070550 METAR COR EGLL 070550Z VRB03KT 5000 BR OVC006 16/14 Q1019
                        BECMG BKN012=
200908070520 METAR COR EGLL 070520Z VRB03KT 5000 BR OVC006 15/14 Q1019
                        BECMG BKN012=
200908070450 METAR COR EGLL 070450Z 33004KT 290V360 5000 BR BKN005 BKN012
                        15/14 Q1018 BECMG SCT005 BKN012=
200908070420 METAR COR EGLL 070420Z 32005KT 5000 BR BKN003 BKN010 15/14
                        Q1018 NOSIG=
200908070350 METAR COR EGLL 070350Z 30007KT 4300 BR OVC004 15/15 Q1018
                        NOSIG=
200908070320 METAR COR EGLL 070320Z VRB03KT 4000 BR OVC003 16/15 Q1018
                        NOSIG=
200908070250 METAR COR EGLL 070250Z 34004KT 290V030 5000 BR BKN004 16/15
                        Q1018 NOSIG=
200908070220 METAR COR EGLL 070220Z 32004KT 280V360 5000 BR FEW004 BKN010
                        BKN020 16/15 Q1018 TEMPO 4500 BKN004=
200908070150 METAR EGLL 070150Z 30006KT 6000 SCT004 BKN010 16/15 Q1019=
200908070120 METAR COR EGLL 070120Z 28009KT 7000 BKN003 BKN008 16/15 Q1019
                        TEMPO 4500 BR=
200908070050 METAR COR EGLL 070050Z 29006KT 6000 BKN004 17/16 Q1019 TEMPO
                        4500 BR=
200908070020 METAR COR EGLL 070020Z 30004KT 6000 SCT003 BKN008 17/17 Q1019
                        TEMPO 4500 BR BKN003=
200908062350 METAR COR EGLL 062350Z VRB03KT 5000 -DZ SCT003 BKN008 17/17
                        Q1018 TEMPO 4500 BR BKN003=
200908062320 METAR COR EGLL 062320Z 35003KT 4000 -DZ SCT003 BKN010 17/16
                        Q1019 TEMPO BKN003=
200908062250 METAR EGLL 062250Z 32003KT 4000 -RADZ FEW002 SCT005 BKN015
                        17/16 Q1019 RERA=
200908062220 METAR COR EGLL 062220Z VRB03KT 5000 RA SCT003 BKN015 17/16
                        Q1019 TEMPO BKN014=
200908062150 METAR COR EGLL 062150Z VRB02KT 4500 RA BKN005 17/16 Q1019
                        TEMPO +RA BKN004=
200908062120 METAR COR EGLL 062120Z VRB03KT 3500 RA BKN004 17/16 Q1019
                        TEMPO +RA=
200908062050 METAR COR EGLL 062050Z VRB03KT 7000 -RA SCT008 SCT020 17/16
                        Q1019 TEMPO 4500 RA BKN008=
200908062020 METAR COR EGLL 062020Z VRB02KT 8000 -RA FEW006 SCT025 17/16
                        Q1019 TEMPO 4500 RA=
200908061950 METAR COR EGLL 061950Z VRB02KT 9000 -RA FEW006 SCT039 17/16
                        Q1019 TEMPO 4500 RA=
200908061920 METAR COR EGLL 061920Z VRB03KT 8000 -RA FEW007 SCT032 17/16
                        Q1019 RERA TEMPO 4500 RA=
200908061850 METAR EGLL 061850Z VRB03KT 9000 -RA FEW007 SCT037 17/16 Q1019=
200908061820 METAR COR EGLL 061820Z 29006KT 8000 -RA FEW020 SCT029 BKN039
                        17/16 Q1019 BECMG RA=
200908061750 METAR COR EGLL 061750Z 32004KT 290V050 9999 -RA SCT039 18/16
                        Q1019 BECMG RA=
200908061720 METAR COR EGLL 061720Z 30005KT 9999 -RA FEW023 SCT031 18/16
                        Q1019 BECMG RA=
200908061650 METAR COR EGLL 061650Z 32007KT 9999 -RA FEW030 SCT034 19/16
                        Q1019 BECMG RA=
200908061620 METAR COR EGLL 061620Z 31008KT 9999 -RA FEW018 19/16 Q1019
                        BECMG RA=
200908061550 METAR COR EGLL 061550Z 29008KT 9999 -RA FEW020 20/17 Q1019
                        RESHRA TEMPO RA=
200908061520 METAR COR EGLL 061520Z 32007KT 290V010 9999 -SHRA NSC 23/16
                        Q1018 NOSIG=
200908061450 METAR COR EGLL 061450Z 31008KT 290V350 CAVOK 24/17 Q1018
                        NOSIG=
200908061420 METAR COR EGLL 061420Z 31007KT 280V350 CAVOK 24/17 Q1018
                        NOSIG=
200908061350 METAR COR EGLL 061350Z 30007KT CAVOK 24/17 Q1018 NOSIG=
200908061320 METAR COR EGLL 061320Z 31007KT 280V350 9999 FEW028 24/17
                        Q1018 NOSIG=
200908061250 METAR COR EGLL 061250Z 30008KT 270V330 9999 FEW028 24/17
                        Q1018 NOSIG=
200908061220 METAR COR EGLL 061220Z VRB03KT 9999 FEW024 24/17 Q1018 NOSIG=
200908061150 METAR COR EGLL 061150Z VRB03KT 9999 FEW024 23/17 Q1018 NOSIG=
200908061120 METAR COR EGLL 061120Z VRB03KT 9999 FEW020 23/18 Q1018 NOSIG=
200908061050 METAR COR EGLL 061050Z 02004KT 320V080 9999 FEW011 22/17
                        Q1019 NOSIG=
200908061020 METAR COR EGLL 061020Z VRB02KT 9999 FEW008 SCT011 22/17 Q1019
                        NOSIG=
200908060950 METAR COR EGLL 060950Z VRB02KT 9999 FEW007 SCT010 20/17 Q1019
                        NOSIG=
200908060920 METAR COR EGLL 060920Z VRB03KT 9999 SCT010 20/17 Q1019 NOSIG=
200908060850 METAR COR EGLL 060850Z VRB02KT 9999 SCT009 19/16 Q1019 NOSIG=
200908060820 METAR COR EGLL 060820Z VRB02KT 9999 FEW007 18/16 Q1019 NOSIG=
200908060750 METAR COR EGLL 060750Z VRB03KT 9999 SCT007 18/16 Q1019 NOSIG=
200908060720 METAR COR EGLL 060720Z VRB02KT 9999 SCT006 17/15 Q1019 NOSIG=
200908060650 METAR COR EGLL 060650Z VRB02KT 9999 SCT006 17/15 Q1019 NOSIG=
200908060620 METAR COR EGLL 060620Z VRB03KT 9999 -SHRA FEW008 SCT040 16/15
                        Q1019 RESHRA NOSIG=
200908060550 METAR COR EGLL 060550Z 31004KT 280V350 9999 4000NW SHRA FEW005
                        SCT020 16/15 Q1019 NOSIG=
200908060520 METAR COR EGLL 060520Z 32005KT 9999 5000NE SHRA FEW007 SCT014
                        16/15 Q1019 NOSIG=
200908060450 METAR COR EGLL 060450Z 28009KT 260V320 9999 5000W SHRA FEW035
                        17/15 Q1019 TEMPO 4000 +SHRA=
200908060420 METAR COR EGLL 060420Z 27007KT 9999 -SHRA NSC 18/14 Q1019
                        TEMPO SHRA=
200908060350 METAR COR EGLL 060350Z 27006KT CAVOK 18/14 Q1018 TEMPO SHRA=
200908060320 METAR COR EGLL 060320Z 28006KT 9999 BKN049 18/14 Q1018 TEMPO
                        SHRA=
200908060250 METAR COR EGLL 060250Z 27005KT 9999 SCT044 18/14 Q1018 NOSIG=
200908060220 METAR COR EGLL 060220Z 27005KT 9999 FEW039 18/15 Q1018 NOSIG=
200908060150 METAR COR EGLL 060150Z 27004KT CAVOK 18/15 Q1018 NOSIG=
200908060120 METAR COR EGLL 060120Z 27004KT CAVOK 19/15 Q1019 NOSIG=
200908060050 METAR COR EGLL 060050Z 26004KT CAVOK 19/15 Q1019 NOSIG=
200908060020 METAR COR EGLL 060020Z 27005KT CAVOK 19/16 Q1019 NOSIG=
200908052350 METAR COR EGLL 052350Z 27007KT CAVOK 20/16 Q1019 NOSIG=
200908052320 METAR COR EGLL 052320Z 26006KT CAVOK 20/17 Q1019 NOSIG=
200908052250 METAR COR EGLL 052250Z 23006KT CAVOK 20/17 Q1019 NOSIG=
200908052220 METAR EGLL 052220Z 20005KT 160V260 CAVOK 21/17 Q1018=
200908052150 METAR COR EGLL 052150Z 22009KT 180V250 CAVOK 21/17 Q1018
                        NOSIG=
200908052120 METAR COR EGLL 052120Z 20009KT 150V250 CAVOK 22/17 Q1018
                        NOSIG=
200908052050 METAR COR EGLL 052050Z 20007KT 160V250 CAVOK 22/17 Q1018
                        NOSIG=
200908052020 METAR COR EGLL 052020Z 19009KT 160V230 CAVOK 23/17 Q1018
                        NOSIG=
200908051950 METAR COR EGLL 051950Z 18007KT 160V240 CAVOK 23/16 Q1018
                        NOSIG=
200908051920 METAR COR EGLL 051920Z 19008KT 150V240 9999 FEW048 24/17
                        Q1018 NOSIG=
200908051850 METAR COR EGLL 051850Z 20008KT 9999 FEW048 24/16 Q1017 NOSIG=
200908051820 METAR COR EGLL 051820Z 19007KT 150V230 9999 FEW044 24/16
                        Q1017 NOSIG=
200908051750 METAR COR EGLL 051750Z 20008KT 150V250 9999 FEW032 25/16
                        Q1017 NOSIG=
200908051720 METAR COR EGLL 051720Z 20009KT 180V250 9999 FEW032 25/17
                        Q1017 NOSIG=
200908051650 METAR COR EGLL 051650Z 18008KT 140V240 9999 FEW044 26/17
                        Q1017 NOSIG=
200908051620 METAR EGLL 051620Z 20009KT 150V230 9999 FEW038 25/17 Q1017=
200908051550 METAR COR EGLL 051550Z 20009KT 160V240 9999 VCSH FEW034 26/17
                        Q1017 NOSIG=
200908051520 METAR COR EGLL 051520Z 19009KT 160V240 9999 SCT037 26/16
                        Q1017 NOSIG=
200908051450 METAR COR EGLL 051450Z 19010KT 140V230 9999 SCT038 26/17
                        Q1017 NOSIG=
200908051420 METAR COR EGLL 051420Z 20009KT 150V240 9999 FEW041 26/16
                        Q1017 NOSIG=
200908051350 METAR COR EGLL 051350Z 20008KT 140V240 9999 FEW038 27/16
                        Q1017 NOSIG=
200908051320 METAR COR EGLL 051320Z 18008KT 140V230 9999 FEW034 26/16
                        Q1017 NOSIG=
200908051250 METAR COR EGLL 051250Z 14009G19KT 080V170 9999 FEW032 25/17
                        Q1017 NOSIG=
200908051220 METAR COR EGLL 051220Z 15008KT 090V200 9999 FEW032 25/17
                        Q1017 NOSIG=
200908051150 METAR COR EGLL 051150Z 16007KT 090V190 9999 FEW036 25/16
                        Q1017 NOSIG=
200908051120 METAR COR EGLL 051120Z 20007KT 160V230 9999 FEW036 25/16
                        Q1017 NOSIG=
200908051050 METAR COR EGLL 051050Z 19008KT 150V250 9999 FEW036 25/16
                        Q1017 NOSIG=
200908051020 METAR COR EGLL 051020Z 19009KT 150V250 9999 FEW036 25/16
                        Q1017 NOSIG=
200908050950 METAR COR EGLL 050950Z 21007KT 9999 FEW032 24/16 Q1017 NOSIG=
200908050920 METAR COR EGLL 050920Z 23007KT 190V260 9999 FEW032 24/16
                        Q1017 NOSIG=
200908050850 METAR COR EGLL 050850Z 21005KT 170V250 CAVOK 23/16 Q1017
                        NOSIG=
200908050820 METAR COR EGLL 050820Z 20004KT 150V270 CAVOK 23/16 Q1017
                        NOSIG=
200908050750 METAR COR EGLL 050750Z 20005KT CAVOK 21/15 Q1017 NOSIG=
200908050720 METAR COR EGLL 050720Z 18006KT 100V220 CAVOK 21/15 Q1017
                        NOSIG=
200908050650 METAR COR EGLL 050650Z 17006KT 140V220 CAVOK 20/15 Q1017
                        NOSIG=
200908050620 METAR COR EGLL 050620Z 16005KT 110V200 CAVOK 19/15 Q1017
                        NOSIG=
200908050550 METAR COR EGLL 050550Z VRB05KT 9999 FEW035 18/15 Q1017 NOSIG=
200908050520 METAR COR EGLL 050520Z 16005KT 090V220 9999 FEW035 17/14
                        Q1017 NOSIG=
200908050450 METAR COR EGLL 050450Z 16004KT 120V190 9999 FEW035 17/15
                        Q1016 NOSIG=
200908050420 METAR COR EGLL 050420Z 12006KT 070V160 CAVOK 17/15 Q1016
                        NOSIG=
200908050350 METAR COR EGLL 050350Z 14006KT 9999 FEW037 18/15 Q1016 NOSIG=
200908050320 METAR COR EGLL 050320Z 17005KT 9999 FEW035 18/15 Q1016 NOSIG=
200908050250 METAR COR EGLL 050250Z 17004KT 9999 FEW040 18/15 Q1016 NOSIG=
200908050220 METAR COR EGLL 050220Z 15004KT CAVOK 18/16 Q1016 NOSIG=
200908050150 METAR COR EGLL 050150Z 16005KT CAVOK 18/16 Q1017 NOSIG=
200908050120 METAR COR EGLL 050120Z 18004KT CAVOK 19/16 Q1017 NOSIG=
200908050050 METAR COR EGLL 050050Z 17003KT CAVOK 19/16 Q1017 NOSIG=
200908050020 METAR COR EGLL 050020Z 16006KT CAVOK 19/16 Q1017 NOSIG=
200908042350 METAR COR EGLL 042350Z 16007KT CAVOK 19/16 Q1017 NOSIG=
200908042320 METAR COR EGLL 042320Z 16007KT 9999 SCT030 20/16 Q1017 NOSIG=
200908042250 METAR COR EGLL 042250Z 15007KT 9999 BKN036 19/16 Q1017 NOSIG=
200908042220 METAR COR EGLL 042220Z 15006KT 9999 FEW032 SCT036 20/16 Q1017
                        NOSIG=
200908042150 METAR COR EGLL 042150Z 15007KT 110V230 9999 SCT031 BKN035
                        20/17 Q1017 NOSIG=
200908042120 METAR COR EGLL 042120Z 18006KT 140V250 9999 BKN031 BKN036
                        20/16 Q1017 NOSIG=
200908042050 METAR COR EGLL 042050Z 18007KT 130V260 9999 SCT029 20/16
                        Q1017 NOSIG=
200908042020 METAR COR EGLL 042020Z 17007KT 120V230 9999 FEW031 20/17
                        Q1017 NOSIG=
200908041950 METAR COR EGLL 041950Z 20010KT 180V240 9999 FEW020 SCT032
                        21/17 Q1016 NOSIG=
200908041920 METAR COR EGLL 041920Z 19010KT 9999 FEW020 SCT028 21/17 Q1016
                        NOSIG=
200908041850 METAR COR EGLL 041850Z 20010KT 170V240 9999 FEW020 BKN022
                        21/17 Q1016 NOSIG=
200908041820 METAR COR EGLL 041820Z 20011KT 180V240 9999 FEW021 BKN024
                        22/17 Q1016 NOSIG=
200908041750 METAR COR EGLL 041750Z 19012KT 150V230 9999 BKN021 22/17
                        Q1016 NOSIG=
200908041720 METAR COR EGLL 041720Z 19012KT 160V230 9999 SCT020 BKN028
                        22/17 Q1016 NOSIG=
200908041650 METAR COR EGLL 041650Z 20013KT 170V240 9999 SCT020 SCT027
                        22/17 Q1016 NOSIG=
200908041620 METAR COR EGLL 041620Z 18011KT 9999 SCT020 SCT024 22/17 Q1016
                        NOSIG=
200908041550 METAR COR EGLL 041550Z 19012G23KT 160V230 9999 SCT019 SCT025
                        22/17 Q1016 NOSIG=
200908041520 METAR EGLL 041520Z 19012KT 160V230 9999 SCT017 BKN035 21/17
                        Q1016=
200908041450 METAR COR EGLL 041450Z 20011KT 170V240 9999 BKN016 21/17
                        Q1016 NOSIG=
200908041420 METAR COR EGLL 041420Z 19012KT 150V230 9999 BKN015 20/17
                        Q1016 NOSIG=
200908041350 METAR COR EGLL 041350Z 19012KT 150V220 9999 OVC012 20/16
                        Q1016 BECMG BKN015=
200908041320 METAR COR EGLL 041320Z 19011KT 9999 OVC011 20/16 Q1016 BECMG
                        BKN015=
200908041250 METAR COR EGLL 041250Z 19012KT 9999 OVC011 19/16 Q1016 BECMG
                        BKN015=
200908041220 METAR COR EGLL 041220Z 19013KT 9999 OVC011 19/16 Q1016 BECMG
                        BKN015=
200908041150 METAR COR EGLL 041150Z 18013KT 9999 OVC010 19/16 Q1016 NOSIG=
200908041120 METAR COR EGLL 041120Z 18011KT 9999 OVC011 19/16 Q1016 NOSIG=
200908041050 METAR COR EGLL 041050Z 17010KT 9999 OVC011 19/16 Q1016 NOSIG=
200908041020 METAR COR EGLL 041020Z 17010KT 110V230 9999 VCSH OVC010 19/16
                        Q1016 NOSIG=
200908040950 METAR COR EGLL 040950Z 18012KT 9999 -RA OVC010 19/16 Q1016
                        NOSIG=
200908040920 METAR COR EGLL 040920Z 17011KT 9999 -RA OVC010 19/16 Q1016
                        NOSIG=
200908040850 METAR COR EGLL 040850Z 17012KT 120V200 9999 -RADZ OVC011
                        19/16 Q1016 NOSIG=
200908040820 METAR COR EGLL 040820Z 18011KT 9999 OVC010 19/16 Q1016 TEMPO
                        BKN008=
200908040750 METAR COR EGLL 040750Z 18012G24KT 110V200 9999 OVC009 19/16
                        Q1016 NOSIG=
200908040720 METAR COR EGLL 040720Z 18012KT 160V230 9999 OVC009 19/16
                        Q1016 NOSIG=
200908040650 METAR COR EGLL 040650Z 17009KT 120V200 9999 OVC009 18/16
                        Q1015 NOSIG=
200908040620 METAR COR EGLL 040620Z VRB08KT 9999 OVC009 18/16 Q1015 TEMPO
                        FEW009 BKN012=
200908040550 METAR COR EGLL 040550Z 17008KT 9999 OVC008 18/16 Q1015 TEMPO
                        FEW008 BKN010=
200908040520 METAR COR EGLL 040520Z 15008KT 110V200 9999 OVC008 17/16
                        Q1015 TEMPO FEW008 BKN010=
200908040450 METAR COR EGLL 040450Z 16007KT 9999 BKN010 17/16 Q1015 TEMPO
                        BKN008=
200908040420 METAR COR EGLL 040420Z 15008KT 090V180 9999 -RA OVC010 17/15
                        Q1015 TEMPO BKN008=
200908040350 METAR COR EGLL 040350Z 14007KT 9999 BKN012 17/15 Q1015 TEMPO
                        BKN008=
200908040320 METAR COR EGLL 040320Z 15006KT 9999 BKN012 17/15 Q1015 TEMPO
                        BKN008=
200908040250 METAR COR EGLL 040250Z 15007KT 9999 SCT009 OVC014 17/15 Q1015
                        TEMPO BKN009=
200908040220 METAR COR EGLL 040220Z 16008KT 9999 SCT010 BKN016 17/15 Q1015
                        BECMG BKN012=
200908040150 METAR COR EGLL 040150Z 16008KT 9999 BKN021 16/14 Q1015 BECMG
                        BKN012=
200908040120 METAR COR EGLL 040120Z 16007KT 9999 SCT024 BKN031 16/14 Q1015
                        BECMG BKN012=
200908040050 METAR COR EGLL 040050Z 16007KT 9999 -RADZ BKN030 16/14 Q1016
                        BECMG BKN012=
200908040020 METAR COR EGLL 040020Z 16008KT 9999 -RA SCT029 BKN035 16/14
                        Q1016 BECMG BKN012=
200908032350 METAR COR EGLL 032350Z 15008KT 9999 -RA BKN032 17/13 Q1016
                        NOSIG=
200908032320 METAR COR EGLL 032320Z 15006KT 9999 FEW034 SCT040 17/12 Q1016
                        NOSIG=
200908032250 METAR COR EGLL 032250Z 16007KT 9999 SCT034 17/12 Q1016 NOSIG=
200908032220 METAR COR EGLL 032220Z 17006KT 9999 FEW048 17/12 Q1016 NOSIG=
200908032150 METAR COR EGLL 032150Z 17008KT 140V230 CAVOK 17/12 Q1016
                        NOSIG=
200908032120 METAR COR EGLL 032120Z 18008KT 140V240 CAVOK 18/12 Q1016
                        NOSIG=
200908032050 METAR COR EGLL 032050Z 18008KT 150V240 CAVOK 18/12 Q1016
                        NOSIG=
200908032020 METAR COR EGLL 032020Z 18009KT 150V230 CAVOK 18/11 Q1016
                        NOSIG=
200908031950 METAR COR EGLL 031950Z 19009KT 160V240 CAVOK 18/12 Q1015
                        NOSIG=
200908031920 METAR COR EGLL 031920Z 19010KT CAVOK 19/12 Q1015 NOSIG=
200908031850 METAR COR EGLL 031850Z 20010KT CAVOK 20/12 Q1015 NOSIG=
200908031820 METAR COR EGLL 031820Z 19011KT 160V230 9999 FEW040 20/11
                        Q1015 NOSIG=
200908031750 METAR COR EGLL 031750Z 19011KT 170V240 9999 FEW040 21/11
                        Q1015 NOSIG=
200908031720 METAR COR EGLL 031720Z 18010KT 140V230 9999 FEW042 21/11
                        Q1015=
200908031650 METAR COR EGLL 031650Z 20012KT 170V250 9999 FEW043 22/10
                        Q1015 NOSIG=
200908031620 METAR COR EGLL 031620Z 19012KT 160V240 9999 FEW048 21/10
                        Q1015 NOSIG=
200908031550 METAR COR EGLL 031550Z 20013KT 160V240 9999 SCT045 22/10
                        Q1015 NOSIG=
200908031520 METAR COR EGLL 031520Z 18012KT 150V240 9999 SCT046 22/10
                        Q1015 NOSIG=
200908031450 METAR COR EGLL 031450Z 19010KT 160V240 9999 FEW043 SCT047
                        22/10 Q1015 NOSIG=
200908031420 METAR COR EGLL 031420Z 19011KT 160V230 9999 FEW040 SCT047
                        22/11 Q1015 NOSIG=
200908031350 METAR EGLL 031350Z 19012KT 160V220 9999 FEW040 SCT047 22/11
                        Q1015=
200908031320 METAR EGLL 031320Z 19011KT 150V240 9999 FEW039 SCT046 22/11
                        Q1015=
200908031250 METAR COR EGLL 031250Z 19011KT 170V230 9999 FEW035 21/11
                        Q1015 NOSIG=
200908031220 METAR COR EGLL 031220Z 20012KT 170V240 9999 SCT036 20/11
                        Q1015 NOSIG=
200908031150 METAR COR EGLL 031150Z 19012KT 160V240 9999 SCT037 20/11
                        Q1015 NOSIG=
200908031120 METAR COR EGLL 031120Z 20011KT 170V240 9999 FEW032 SCT037
                        20/11 Q1015 NOSIG=
200908031050 METAR COR EGLL 031050Z 19009G19KT 160V230 9999 FEW033 SCT040
                        20/11 Q1015 NOSIG=
200908031020 METAR COR EGLL 031020Z 19011KT 9999 FEW031 SCT043 20/11 Q1015
                        NOSIG=
200908030950 METAR COR EGLL 030950Z 20010KT 150V250 9999 FEW029 SCT040
                        19/12 Q1015 NOSIG=
200908030920 METAR COR EGLL 030920Z 18011KT 140V240 9999 SCT031 19/12
                        Q1016 NOSIG=
200908030850 METAR COR EGLL 030850Z 20009KT 160V230 9999 SCT022 19/12
                        Q1016 NOSIG=
200908030820 METAR COR EGLL 030820Z 19007KT 150V230 9999 SCT019 18/12
                        Q1016 NOSIG=
200908030750 METAR COR EGLL 030750Z 19007KT 150V240 9999 FEW012 17/13
                        Q1015 NOSIG=
200908030720 METAR COR EGLL 030720Z 20006KT 150V220 CAVOK 16/12 Q1015
                        NOSIG=
200908030650 METAR COR EGLL 030650Z 20006KT 180V250 CAVOK 14/12 Q1015
                        NOSIG=
200908030620 METAR COR EGLL 030620Z 19005KT 130V240 CAVOK 13/11 Q1015
                        NOSIG=
200908030550 METAR COR EGLL 030550Z 18006KT 130V250 9999 FEW020 13/11
                        Q1015 NOSIG=
200908030520 METAR COR EGLL 030520Z 18004KT 140V230 9999 FEW020 12/11
                        Q1015 NOSIG=
200908030450 METAR COR EGLL 030450Z 18003KT CAVOK 12/10 Q1015 NOSIG=
200908030420 METAR COR EGLL 030420Z 18003KT CAVOK 12/10 Q1015 NOSIG=
200908030350 METAR COR EGLL 030350Z 20005KT CAVOK 12/10 Q1015 NOSIG=
200908030320 METAR COR EGLL 030320Z 20004KT CAVOK 12/10 Q1015 NOSIG=
200908030250 METAR COR EGLL 030250Z 20005KT CAVOK 13/10 Q1015 NOSIG=
200908030220 METAR COR EGLL 030220Z 22005KT CAVOK 13/10 Q1015 NOSIG=
200908030150 METAR COR EGLL 030150Z 21005KT CAVOK 13/10 Q1015 NOSIG=
200908030120 METAR EGLL 030120Z AUTO 19006KT 9999NDV NCD 14/11 Q1015=
200908030050 METAR EGLL 030050Z AUTO 22005KT 9999NDV NCD 14/11 Q1015=
200908030020 METAR EGLL 030020Z AUTO 19005KT 9999NDV NCD 14/11 Q1015=
200908022350 METAR COR EGLL 022350Z 18003KT CAVOK 14/11 Q1015 NOSIG=
200908022320 METAR COR EGLL 022320Z 19004KT CAVOK 14/11 Q1015 NOSIG=
200908022250 METAR COR EGLL 022250Z 23006KT 190V260 CAVOK 15/11 Q1015
                        NOSIG=
200908022220 METAR COR EGLL 022220Z 20004KT CAVOK 15/11 Q1015 NOSIG=
200908022150 METAR COR EGLL 022150Z 21006KT CAVOK 15/11 Q1015 NOSIG=
200908022120 METAR COR EGLL 022120Z 21007KT CAVOK 16/10 Q1015 NOSIG=
200908022050 METAR COR EGLL 022050Z 22008KT 180V240 CAVOK 16/10 Q1015
                        NOSIG=
200908022020 METAR COR EGLL 022020Z 22009KT CAVOK 17/09 Q1015 NOSIG=
200908021950 METAR COR EGLL 021950Z 22010KT 190V250 CAVOK 17/09 Q1014
                        NOSIG=
200908021920 METAR COR EGLL 021920Z 23011KT 200V260 CAVOK 18/10 Q1014
                        NOSIG=
200908021850 METAR COR EGLL 021850Z 22011KT CAVOK 18/10 Q1014 NOSIG=
200908021820 METAR COR EGLL 021820Z 24012KT CAVOK 20/09 Q1013 NOSIG=
200908021750 METAR COR EGLL 021750Z 24009KT CAVOK 20/08 Q1013 NOSIG=
200908021720 METAR COR EGLL 021720Z 26010KT CAVOK 21/07 Q1013 NOSIG=
200908021650 METAR COR EGLL 021650Z 27009KT CAVOK 21/06 Q1013 NOSIG=
200908021620 METAR COR EGLL 021620Z 26008KT 220V290 CAVOK 21/06 Q1013
                        NOSIG=
200908021550 METAR COR EGLL 021550Z 24008KT 200V290 CAVOK 21/06 Q1013
                        NOSIG=
200908021520 METAR COR EGLL 021520Z 29009KT CAVOK 22/06 Q1013 NOSIG=
200908021450 METAR COR EGLL 021450Z 28010KT CAVOK 21/07 Q1013 NOSIG=
200908021420 METAR COR EGLL 021420Z 25011KT 220V290 CAVOK 21/07 Q1013
                        NOSIG=
200908021350 METAR COR EGLL 021350Z 28011KT CAVOK 21/07 Q1013 NOSIG=
200908021320 METAR COR EGLL 021320Z 27011G21KT 220V330 CAVOK 22/06 Q1013
                        NOSIG=
200908021250 METAR COR EGLL 021250Z 27011KT 9999 FEW046 21/07 Q1013 NOSIG=
200908021220 METAR COR EGLL 021220Z 27013KT CAVOK 21/08 Q1013 NOSIG=
200908021150 METAR COR EGLL 021150Z 29010KT 9999 FEW045 21/09 Q1013 NOSIG=
200908021120 METAR COR EGLL 021120Z 27008KT 230V310 9999 FEW035 20/10
                        Q1013 NOSIG=
200908021050 METAR COR EGLL 021050Z 27011KT 9999 SCT038 BKN048 18/08 Q1013
                        NOSIG=
200908021020 METAR COR EGLL 021020Z 28009KT 260V320 9999 FEW038 SCT045
                        18/09 Q1012 NOSIG=
200908020950 METAR COR EGLL 020950Z 26010KT 210V300 9999 SCT022 BKN044
                        19/11 Q1012 NOSIG=
200908020920 METAR COR EGLL 020920Z 27009KT 220V300 9999 SCT020 18/11
                        Q1012 NOSIG=
200908020850 METAR COR EGLL 020850Z 26009KT 9999 FEW018 17/12 Q1012 NOSIG=
200908020820 METAR COR EGLL 020820Z 26009KT CAVOK 16/12 Q1012 NOSIG=
200908020750 METAR COR EGLL 020750Z 28008KT CAVOK 15/12 Q1012 NOSIG=
200908020720 METAR COR EGLL 020720Z 28008KT CAVOK 14/11 Q1011 NOSIG=
200908020650 METAR COR EGLL 020650Z 29008KT CAVOK 14/11 Q1011 NOSIG=
200908020620 METAR COR EGLL 020620Z 28006KT CAVOK 13/11 Q1011 NOSIG=
200908020550 METAR COR EGLL 020550Z 27006KT CAVOK 12/11 Q1011 NOSIG=
200908020520 METAR COR EGLL 020520Z 27007KT CAVOK 11/10 Q1011 NOSIG=
200908020450 METAR COR EGLL 020450Z 27007KT CAVOK 12/10 Q1010 NOSIG=
200908020420 METAR COR EGLL 020420Z 28007KT CAVOK 12/11 Q1010 NOSIG=
200908020350 METAR COR EGLL 020350Z 28008KT CAVOK 12/11 Q1010 NOSIG=
200908020320 METAR COR EGLL 020320Z 27007KT CAVOK 12/11 Q1010 NOSIG=
200908020250 METAR COR EGLL 020250Z 28005KT CAVOK 12/11 Q1010 NOSIG=
200908020220 METAR COR EGLL 020220Z 27006KT CAVOK 13/11 Q1010 NOSIG=
200908020150 METAR COR EGLL 020150Z 27006KT CAVOK 13/12 Q1009 NOSIG=
200908020120 METAR COR EGLL 020120Z 27007KT CAVOK 13/12 Q1009 NOSIG=
200908020050 METAR COR EGLL 020050Z 27007KT CAVOK 13/12 Q1009 NOSIG=
200908020020 METAR COR EGLL 020020Z 27006KT CAVOK 14/13 Q1009 NOSIG=
200908012350 METAR COR EGLL 012350Z 27007KT CAVOK 14/13 Q1009 NOSIG=
200908012320 METAR COR EGLL 012320Z 27008KT CAVOK 15/13 Q1008 NOSIG=
200908012250 METAR COR EGLL 012250Z 27008KT CAVOK 15/14 Q1008 NOSIG=
200908012220 METAR COR EGLL 012220Z 27007KT 9999 FEW009 15/14 Q1008 NOSIG=
200908012150 METAR COR EGLL 012150Z 27006KT 9999 FEW009 SCT048 16/14 Q1008
                        NOSIG=
200908012120 METAR COR EGLL 012120Z 27008KT 9999 FEW010 BKN043 16/14 Q1008
                        NOSIG=
200908012050 METAR COR EGLL 012050Z 27008KT 9999 FEW010 BKN039 16/14 Q1008
                        NOSIG=
200908012020 METAR COR EGLL 012020Z 27006KT 9999 FEW009 BKN033 17/15 Q1008
                        NOSIG=
200908011950 METAR COR EGLL 011950Z 27006KT 9999 FEW009 BKN031 16/15 Q1007
                        NOSIG=
200908011920 METAR COR EGLL 011920Z 28006KT 9999 -RA FEW008 BKN027 16/15
                        Q1007 NOSIG=
200908011850 METAR COR EGLL 011850Z 27007KT 9999 SCT008 BKN023 16/15 Q1007
                        NOSIG=
200908011820 METAR COR EGLL 011820Z 29006KT 250V330 9999 SCT007 BKN022
                        17/15 Q1007 RERA NOSIG=
200908011750 METAR COR EGLL 011750Z 28010KT 7000 RA BKN007 BKN010 17/16
                        Q1007 BECMG NSW SCT007 BKN010=
200908011720 METAR COR EGLL 011720Z 20008KT 9999 4000SW -RA SCT007 BKN010
                        BKN018 19/17 Q1006 TEMPO 4000 RA
                        BKN007=
200908011650 METAR COR EGLL 011650Z 19008KT 160V250 9999 VCSH SCT006 OVC011
                        19/17 Q1006 TEMPO RA BKN006=
200908011620 METAR COR EGLL 011620Z 19010KT 140V230 9999 VCSH SCT009 BKN014
                        19/17 Q1006 TEMPO RA BKN009=
200908011550 METAR COR EGLL 011550Z 19010KT 160V220 9000 -RA SCT013 BKN024
                        19/17 Q1007 BECMG BKN013=
200908011520 METAR COR EGLL 011520Z 18010KT 9999 4000W VCSH SCT010 BKN020
                        20/16 Q1007 TEMPO 4000 RA BKN010=
200908011450 METAR COR EGLL 011450Z 18010KT 140V210 9999 BKN012 BKN016
                        20/16 Q1007 TEMPO BKN008=
200908011420 METAR COR EGLL 011420Z 18011KT 130V210 9999 BKN013 BKN018
                        19/16 Q1007 TEMPO BKN008=
200908011350 METAR COR EGLL 011350Z 17010KT 130V230 9999 -RA SCT013 BKN018
                        19/15 Q1007 BECMG BKN013=
200908011320 METAR COR EGLL 011320Z 18011KT 140V230 9999 SCT013 BKN022
                        19/15 Q1007 BECMG BKN013=
200908011250 METAR COR EGLL 011250Z 20012KT 170V240 9999 BKN020 20/15
                        Q1008 BECMG BKN014=
200908011220 METAR COR EGLL 011220Z 18012KT 140V230 9999 BKN022 20/14
                        Q1008 BECMG BKN013=
200908011150 METAR COR EGLL 011150Z 19012KT 160V240 9999 FEW028 BKN034
                        20/13 Q1008 BECMG BKN013=
200908011120 METAR COR EGLL 011120Z 19011KT 130V240 9999 FEW030 SCT042
                        20/13 Q1008 NOSIG=
200908011050 METAR COR EGLL 011050Z 19010KT 150V240 9999 FEW030 20/13
                        Q1008 NOSIG=
200908011020 METAR COR EGLL 011020Z 20009G19KT 170V240 9999 FEW045 19/14
                        Q1008 NOSIG=
200908010950 METAR COR EGLL 010950Z 21009KT 180V250 9999 FEW045 19/13
                        Q1009 TEMPO RA=
200908010920 METAR COR EGLL 010920Z 20009KT 150V240 CAVOK 19/13 Q1009
                        TEMPO RA=
200908010850 METAR COR EGLL 010850Z 19008KT 160V250 CAVOK 19/12 Q1009
                        NOSIG=
200908010820 METAR COR EGLL 010820Z 19008KT 160V240 CAVOK 18/13 Q1009
                        NOSIG=
200908010750 METAR COR EGLL 010750Z 18007KT 140V230 CAVOK 18/13 Q1010
                        NOSIG=
200908010720 METAR COR EGLL 010720Z 19006KT 150V240 CAVOK 18/13 Q1010
                        NOSIG=
200908010650 METAR COR EGLL 010650Z 18005KT 150V220 CAVOK 17/13 Q1010
                        NOSIG=
200908010620 METAR COR EGLL 010620Z 18005KT 120V220 CAVOK 17/13 Q1010
                        NOSIG=
200908010550 METAR COR EGLL 010550Z 16005KT 140V210 CAVOK 16/13 Q1010
                        NOSIG=
200908010520 METAR COR EGLL 010520Z 16005KT 100V270 CAVOK 16/12 Q1010
                        NOSIG=
200908010450 METAR COR EGLL 010450Z 18006KT 160V270 CAVOK 16/12 Q1010
                        NOSIG=
200908010420 METAR COR EGLL 010420Z 17004KT 160V250 CAVOK 16/12 Q1011
                        NOSIG=
200908010350 METAR COR EGLL 010350Z 18003KT CAVOK 16/12 Q1011 NOSIG=
200908010320 METAR COR EGLL 010320Z 14004KT CAVOK 16/12 Q1011 NOSIG=
200908010250 METAR COR EGLL 010250Z 14003KT CAVOK 16/12 Q1011 NOSIG=
200908010220 METAR COR EGLL 010220Z 12004KT 090V160 CAVOK 16/12 Q1012
                        NOSIG=
200908010150 METAR COR EGLL 010150Z 12003KT CAVOK 16/11 Q1012 NOSIG=
200908010120 METAR COR EGLL 010120Z 12004KT CAVOK 16/11 Q1013 NOSIG=
200908010050 METAR COR EGLL 010050Z 12005KT CAVOK 16/11 Q1013 NOSIG=
200908010020 METAR COR EGLL 010020Z 12004KT CAVOK 16/11 Q1014 NOSIG=

# No short TAF reports from EGLL in databse.

###################################
#  large TAF from EGLL
###################################
200908312302 TAF EGLL 312302Z 0100/0206 VRB05KT CAVOK
                      PROB30 TEMPO 0102/0105 8000
                      BECMG 0105/0108 22010KT BKN035
                      TEMPO 0111/0120 24015G28KT 7000 SHRA
                      PROB30 TEMPO 0114/0119 24022G40KT 3000 +SHRA
                       TSGR=
200908311655 TAF EGLL 311655Z 3118/0124 19012KT CAVOK
                      BECMG 3119/3122 VRB05KT
                      PROB30 TEMPO 0102/0105 -RA BKN014
                      BECMG 0105/0108 22010KT BKN035
                      TEMPO 0110/0121 24015G25KT 7000 SHRA
                      PROB30 TEMPO 0114/0120 3000 +SHRA TSGR=
200908311056 TAF EGLL 311056Z 3112/0118 19012KT 9999 SCT045
                      PROB30 TEMPO 3112/3117 21015G25KT
                      BECMG 3119/3122 VRB05KT
                      PROB30 TEMPO 0102/0105 -RA BKN014
                      BECMG 0104/0107 22010KT
                      TEMPO 0110/0118 24015G25KT 7000 SHRA
                      PROB30 TEMPO 0114/0118 3000 +SHRA TSGR=
200908310559 TAF AMD EGLL 310559Z 3106/0112 21012KT 1200 BR BKN003
                      BECMG 3106/3109 7000 BKN010
                      BECMG 3109/3112 CAVOK
                      PROB30 0101/0104 -RA BKN014
                      PROB30 TEMPO 0110/0112 7000 SHRA=
200908310457 TAF EGLL 310457Z 3106/0112 21012KT 7000 BKN003
                      BECMG 3106/3109 9999 BKN010
                      PROB30 TEMPO 3106/3107 4000 BR
                      BECMG 3109/3112 CAVOK
                      PROB30 0101/0104 -RA BKN014
                      PROB30 TEMPO 0110/0112 7000 SHRA=
200908302258 TAF EGLL 302258Z 3100/0106 21012KT 9999 BKN008
                      BECMG 3100/3103 7000
                      PROB30 3101/3108 3000 -DZ BR BKN004
                      BECMG 3109/3112 CAVOK
                      PROB30 0101/0104 7000 BKN014=
200908302224 TAF AMD EGLL 302224Z 3022/3124 21012KT 9999 BKN008
                      BECMG 3100/3103 7000
                      PROB40 3101/3108 3000 -DZ BR BKN004
                      BECMG 3108/3111 9999 NSW SCT028=
200908301806 TAF AMD EGLL 301806Z 3018/3124 21012KT 9999 BKN015
                      BECMG 3018/3020 BKN014
                      BECMG 3020/3022 7000 BKN009
                      PROB40 TEMPO 3022/3108 3000 -DZ BR BKN004
                       BECMG 3108/3111 9999 NSW SCT028=
200908301701 TAF EGLL 301701Z 3018/3124 21012KT 9999 BKN014
                      BECMG 3018/3021 7000 BKN009
                      PROB40 3022/3108 3000 -DZ BR BKN004
                      BECMG 3108/3111 9999 NSW SCT028=
200908301101 TAF EGLL 301101Z 3012/3118 21008KT 9999 FEW025 BKN040
                      PROB40 3016/3018 BKN014
                      BECMG 3018/3021 7000 -DZ BKN009
                      PROB40 3022/3107 3000 BR BKN004
                      BECMG 3108/3111 9999 NSW SCT028=
200908300500 TAF EGLL 300500Z 3006/3112 22007KT 9999 SCT035
                      PROB40 3016/3018 BKN014
                      BECMG 3018/3021 7000 -DZ BKN009
                      PROB40 3023/3107 3000 BR BKN004
                      BECMG 3108/3111 9999 NSW SCT025=
200908292300 TAF EGLL 292300Z 3000/3106 24007KT 9999 FEW035
                      PROB30 3003/3008 8000
                      PROB40 3016/3018 BKN014
                      BECMG 3018/3021 7000 -DZ BKN007
                      PROB40 3022/3106 3000 BR BKN003=
200908291703 TAF EGLL 291703Z 2918/3024 24008KT 9999 SCT035
                      PROB30 3003/3008 8000
                      BECMG 3020/3023 7000 -DZ BKN014=
200908291056 TAF EGLL 291056Z 2912/3018 27010KT 9999 SCT040
                      PROB30 3002/3008 8000
                      BECMG 3003/3006 21006KT=
200908290456 TAF EGLL 290456Z 2906/3012 27010KT 9999 SCT040
                      PROB30 3002/3007 8000
                      BECMG 3003/3006 21006KT=
200908282257 TAF EGLL 282257Z 2900/3006 27010KT 9999 FEW045
                      BECMG 3003/3006 21008KT=
200908281702 TAF EGLL 281702Z 2818/2924 26018KT 9999 SCT040
                      PROB30 2818/2820 26018G28KT 7000 SHRA
                      BECMG 2900/2903 27008KT=
200908281101 TAF EGLL 281101Z 2812/2918 25022KT 9999 SCT040
                      TEMPO 2812/2819 26022G32KT 7000 SHRA
                      PROB30 TEMPO 2812/2816 4000 +SHRA
                      BECMG 2818/2821 27010KT
                      PROB30 TEMPO 2912/2918 27015G25KT=
200908280457 TAF EGLL 280457Z 2806/2912 25012KT 9999 SCT040
                      BECMG 2808/2811 25018G28KT
                      PROB40 TEMPO 2810/2819 7000 SHRA
                      BECMG 2818/2821 27008KT=
200908272257 TAF EGLL 272257Z 2800/2906 22012KT 9999 SCT035
                      BECMG 2800/2803 28012KT
                      PROB40 TEMPO 2800/2802 7000 -RADZ BKN012
                       BECMG 2808/2811 25018G28KT
                      PROB40 TEMPO 2812/2820 7000 SHRA
                      BECMG 2818/2821 27008KT=
200908271657 TAF EGLL 271657Z 2718/2824 22014KT 9999 SCT035
                      PROB30 TEMPO 2718/2720 24015G25KT
                      TEMPO 2721/2802 7000 -RADZ BKN012
                      BECMG 2800/2802 28012KT
                      BECMG 2807/2810 25020G30KT
                      PROB40 TEMPO 2812/2819 7000 SHRA
                      BECMG 2815/2818 28015G25KT
                      BECMG 2818/2821 27008KT=
200908271100 TAF EGLL 271100Z 2712/2818 22010KT 9999 SCT030
                      PROB30 TEMPO 2714/2720 24015G25KT
                      PROB40 TEMPO 2721/2802 8000 -RADZ BKN012
                       BECMG 2801/2803 28012KT
                      BECMG 2807/2810 25020G30KT
                      PROB30 TEMPO 2813/2818 7000 SHRA
                      BECMG 2816/2818 28015G25KT=
200908270503 TAF EGLL 270503Z 2706/2812 22009KT 9999 FEW015 SCT025
                      PROB30 2706/2708 BKN012
                      PROB30 TEMPO 2714/2719 23015G25KT
                      TEMPO 2721/2802 8000 -RADZ BKN012
                      BECMG 2801/2803 28012KT
                      BECMG 2807/2810 25020G30KT=
200908262302 TAF EGLL 262302Z 2700/2806 23008KT 9999 SCT015
                      TEMPO 2700/2710 6000 -DZ BKN010
                      PROB40 2704/2708 4000 BR BKN008
                      TEMPO 2721/2801 8000 -RADZ BKN012=
200908262140 TAF AMD EGLL 262140Z 2621/2724 21008KT 9999 FEW014 SCT022
                      TEMPO 2621/2707 4000 DZ BR BKN008
                      TEMPO 2721/2724 BKN012=
200908261710 TAF EGLL 261710Z 2618/2724 19018KT 9999 FEW014 SCT022
                      BECMG 2618/2621 21008KT BKN014
                      TEMPO 2618/2707 4000 DZ BR BKN008
                      BECMG 2705/2708 FEW014 SCT020
                      TEMPO 2721/2724 BKN012=
200908261355 TAF AMD EGLL 261355Z 2613/2718 19016G26KT 9999 SCT030
                      TEMPO 2613/2708 4000 DZ
                      PROB40 TEMPO 2613/2707 BKN012
                      BECMG 2619/2622 21010KT=
200908261107 TAF EGLL 261107Z 2612/2718 19016G26KT 9999 SCT030
                      TEMPO 2612/2708 8000 -RA
                      PROB40 TEMPO 2616/2707 4000 RADZ BKN012
                      BECMG 2619/2622 21010KT=
200908260459 TAF EGLL 260459Z 2606/2712 14007KT 9999 FEW025
                      TEMPO 2608/2708 8000 -RA
                      BECMG 2609/2612 19016G26KT
                      PROB40 TEMPO 2616/2707 4000 RADZ BKN012
                      BECMG 2618/2621 19012KT
                      BECMG 2706/2709 25010KT=
200908252302 TAF EGLL 252302Z 2600/2706 22010KT 9999 FEW040
                      TEMPO 2608/2706 8000 -RA
                      BECMG 2609/2612 19016G26KT
                      PROB40 TEMPO 2616/2706 4000 RADZ BKN012
                      BECMG 2618/2621 19012KT=
200908251835 TAF AMD EGLL 251835Z 2518/2624 23014KT 9999 SCT040
                      BECMG 2518/2521 17005KT
                      BECMG 2608/2611 19015G25KT
                      TEMPO 2608/2624 8000 -RA
                      PROB40 TEMPO 2616/2624 4000 RADZ BKN012=
200908251706 TAF EGLL 251706Z 2518/2624 23014KT 9999 SCT040
                      BECMG 2518/2521 17005KT
                      BECMG 2608/2611 19015G25KT
                      TEMPO 2608/2624 8000 -RA
                      TEMPO 2616/2624 4000 RADZ BKN012=
200908251102 TAF EGLL 251102Z 2512/2618 23010KT 9999 SCT040
                      TEMPO 2512/2516 6000 SHRA
                      BECMG 2518/2521 17005KT
                      BECMG 2606/2609 19015G25KT
                      TEMPO 2608/2618 6000 RA=
200908250501 TAF EGLL 250501Z 2506/2612 18004KT 9999 FEW038
                      BECMG 2507/2510 24012KT
                      PROB40 TEMPO 2511/2516 7000 SHRA
                      BECMG 2606/2609 19015G25KT=
200908242303 TAF EGLL 242303Z 2500/2606 25008KT 9999 FEW028
                      PROB30 2504/2507 8000
                      PROB40 TEMPO 2511/2517 7000 SHRA
                      BECMG 2603/2606 18012KT=
200908241757 TAF AMD EGLL 241757Z 2418/2524 24008KT 9999 FEW020 SCT035
                      PROB30 2504/2507 8000
                      PROB30 TEMPO 2511/2517 7000 SHRA=
200908241658 TAF EGLL 241658Z 2418/2524 22008KT 9999 FEW020 SCT035
                      PROB30 2504/2507 8000
                      PROB30 TEMPO 2511/2517 7000 SHRA=
200908241058 TAF EGLL 241058Z 2412/2518 23007KT 9999 FEW035
                      PROB30 TEMPO 2413/2418 6000 SHRA TSRA BKN014CB
                       PROB30 2503/2507 7000=
200908240504 TAF EGLL 240504Z 2406/2512 VRB05KT 9999 FEW045
                      PROB30 2406/2408 5000 BR
                      BECMG 2408/2411 23010KT
                      PROB30 TEMPO 2409/2414 7000 RA SHRA
                      PROB30 TEMPO 2414/2418 2000 +TSRA BKN014CB
                       PROB30 2503/2507 7000=
200908232303 TAF EGLL 232303Z 2400/2506 21004KT 9999 FEW045
                      PROB40 2401/2408 5000 BR
                      PROB30 TEMPO 2409/2413 7000 RA SHRA
                      PROB30 TEMPO 2413/2417 2000 +TSRA BKN014CB
                       PROB30 2503/2506 7000=
200908231703 TAF EGLL 231703Z 2318/2424 19007KT 9999 FEW045
                      PROB40 2401/2408 5000 BR
                      PROB30 TEMPO 2409/2418 7000 RA SHRA BKN014=
200908231104 TAF EGLL 231104Z 2312/2418 18012KT 9999 FEW045
                      BECMG 2321/2324 VRB03KT
                      PROB40 2400/2408 5000 BR
                      BECMG 2409/2412 21010KT
                      PROB30 TEMPO 2410/2418 7000 RA SHRA BKN014=
200908230456 TAF EGLL 230456Z 2306/2412 VRB05KT 9999 FEW045
                      BECMG 2308/2311 18011KT
                      BECMG 2321/2324 24005KT
                      BECMG 2323/2402 7000
                      PROB30 TEMPO 2402/2407 4000 BR
                      BECMG 2408/2411 9999=
200908222257 TAF EGLL 222257Z 2300/2406 VRB05KT 9999 FEW045
                      BECMG 2308/2311 18010KT
                      BECMG 2321/2324 24005KT
                      PROB40 2401/2406 7000
                      PROB30 TEMPO 2403/2406 BKN010=
200908221703 TAF EGLL 221703Z 2218/2324 18008KT 9999 FEW040=
200908221101 TAF EGLL 221101Z 2212/2318 19007KT 9999 SCT040=
200908220500 TAF EGLL 220500Z 2206/2312 20006KT 9999 FEW045
                      PROB30 2206/2208 7000
                      PROB30 2303/2307 9000=
200908212259 TAF EGLL 212259Z 2200/2306 23007KT 9999 FEW045
                      PROB40 2202/2208 6000
                      PROB30 TEMPO 2204/2207 2000 BR BKN001
                      PROB30 2302/2306 8000=
200908211700 TAF EGLL 211700Z 2118/2224 27012KT 9999 FEW040
                      BECMG 2120/2123 19007KT
                      BECMG 2202/2205 6000
                      PROB30 2204/2207 2000 BR BKN001
                      BECMG 2206/2208 9999=
200908211101 TAF EGLL 211101Z 2112/2218 24012KT 9999 SCT040
                      TEMPO 2112/2118 6000 SHRA
                      PROB40 TEMPO 2112/2116 27016G28KT 3500 +TSRA
                       BECMG 2202/2205 6000
                      PROB30 2203/2207 2000 BR BKN001
                      BECMG 2206/2208 9999=
200908210501 TAF EGLL 210501Z 2106/2212 23010KT 9999 SCT035
                      TEMPO 2111/2118 7000 SHRA
                      PROB40 TEMPO 2112/2117 23015G25KT 3000 +SHRA
                       TSGR
                      BECMG 2202/2205 8000
                      PROB30 2204/2207 1500 BR BKN001
                      BECMG 2206/2208 9999=
200908202305 TAF EGLL 202305Z 2100/2206 23010KT 9999 SCT035
                      TEMPO 2112/2118 6000 SHRA
                      PROB30 TEMPO 2113/2118 23015G25KT +SHRA=
200908201659 TAF EGLL 201659Z 2018/2124 24014KT 9999 SCT035
                      TEMPO 2018/2019 24016G26KT
                      TEMPO 2111/2119 7000 SHRA
                      PROB30 TEMPO 2113/2118 3000 +SHRA +TSRA BKN014
                       SCT030CB=
200908201055 TAF EGLL 201055Z 2012/2118 24014KT 9999 SCT035
                      TEMPO 2012/2019 24017G27KT
                      PROB30 TEMPO 2012/2013 7000 SHRA BKN014
                      TEMPO 2110/2118 7000 SHRA
                      PROB30 TEMPO 2113/2118 3000 +SHRA +TSRA BKN014
                       SCT030CB=
200908200508 TAF EGLL 200508Z 2006/2112 19005KT 3000 BR FEW045
                      TEMPO 2006/2008 0300 FG BKN001
                      BECMG 2008/2010 25012KT
                      PROB40 2009/2011 7000 RA BKN012
                      TEMPO 2010/2019 24015G25KT
                      PROB30 TEMPO 2103/2107 7000
                      PROB30 TEMPO 2109/2112 7000 SHRA BKN014=
200908200452 TAF AMD EGLL 200452Z 2004/2106 19005KT 3000 BR FEW030
                      TEMPO 2004/2006 0300 FG BKN001
                      BECMG 2006/2009 9999 NSW
                      BECMG 2009/2011 25012KT
                      PROB40 2009/2012 7000 RA BKN012
                      TEMPO 2010/2019 24015G25KT=
200908192300 TAF AMD EGLL 200452Z 2004/2106 19005KT 3000 BR FEW030
                      TEMPO 2004/2006 0300 FG BKN001
                      BECMG 2006/2009 9999 NSW
                      BECMG 2009/2011 25012KT
                      PROB40 2009/2012 7000 RA BKN012
                      TEMPO 2010/2019 24015G25KT=
200908192257 TAF EGLL 192257Z 2000/2106 19005KT 9999 FEW045
                      PROB40 2000/2007 8000
                      BECMG 2009/2011 25012KT
                      PROB40 2009/2012 7000 RA BKN012
                      TEMPO 2010/2019 24015G25KT=
200908191655 TAF EGLL 191655Z 1918/2024 19012KT 9999 FEW045
                      PROB40 2000/2007 8000
                      BECMG 2009/2011 25012KT
                      PROB30 2009/2012 7000 RA BKN012
                      TEMPO 2010/2019 24015G25KT=
200908191323 TAF AMD EGLL 191323Z 1913/2018 19015KT 9999 FEW045
                      PROB30 2000/2007 8000
                      BECMG 2008/2010 25012KT
                      PROB30 2008/2011 7000 RA BKN012
                      TEMPO 2010/2018 23015G25KT=
200908191055 TAF EGLL 191055Z 1912/2018 18010KT 9999 FEW045
                      PROB30 2000/2007 8000
                      BECMG 2008/2010 24012KT
                      PROB30 2008/2011 7000 RA BKN012
                      TEMPO 2010/2018 23015G25KT=
200908190504 TAF EGLL 190504Z 1906/2012 18002KT 9999 FEW040
                      PROB30 1906/1907 8000
                      BECMG 1907/1910 19012KT
                      PROB30 TEMPO 2000/2005 8000 BKN006
                      TEMPO 2009/2012 21015G25KT 7000 RA BKN012=
200908182303 TAF EGLL 182303Z 1900/2006 20003KT 9999 FEW040
                      PROB30 1903/1907 8000
                      BECMG 1907/1910 20013KT
                      PROB30 TEMPO 2000/2005 8000 BKN006=
200908181653 TAF EGLL 181653Z 1818/1924 22007KT 9999 SCT030
                      PROB30 1903/1908 8000=
200908181100 TAF EGLL 181100Z 1812/1918 21007KT 9999 SCT030
                      PROB30 1903/1908 8000=
200908180501 TAF EGLL 180501Z 1806/1912 21007KT 9999 FEW035
                      PROB30 1806/1808 8000=
200908172255 TAF EGLL 172255Z 1800/1906 21005KT 9999 FEW035
                      PROB40 1803/1808 7000
                      PROB30 TEMPO 1804/1807 4000 BR=
200908171656 TAF EGLL 171656Z 1718/1824 27009KT 9999 FEW025
                      PROB40 1803/1808 7000=
200908171102 TAF EGLL 171102Z 1712/1818 27009KT 9999 FEW025
                      PROB40 1803/1808 7000=
200908170503 TAF EGLL 170503Z 1706/1812 27009KT 9999 FEW025
                      PROB30 1706/1708 BKN014
                      BECMG 1802/1805 7000
                      BECMG 1806/1809 9999=
200908162257 TAF EGLL 162257Z 1700/1806 26008KT 9999 FEW040
                      PROB30 TEMPO 1704/1708 BKN013
                      BECMG 1802/1805 7000=
200908161653 TAF EGLL 161653Z 1618/1724 26008KT 9999 FEW040
                      PROB30 TEMPO 1704/1708 BKN013=
200908161058 TAF EGLL 161058Z 1612/1718 25011KT 9999 SCT032
                      PROB30 TEMPO 1704/1708 BKN013=
200908160503 TAF EGLL 160503Z 1606/1712 25008KT 9999 SCT025
                      PROB30 1606/1608 BKN007=
200908152301 TAF EGLL 152301Z 1600/1706 25008KT 9999 SCT018
                      BECMG 1601/1605 BKN013
                      PROB30 1603/1608 BKN007
                      BECMG 1606/1609 SCT020=
200908151655 TAF EGLL 151655Z 1518/1624 25008KT 9999 SCT030
                      TEMPO 1522/1609 BKN013
                      PROB30 TEMPO 1603/1608 BKN009=
200908151102 TAF EGLL 151102Z 1512/1618 23015KT 9999 BKN025
                      BECMG 1520/1523 26005KT
                      TEMPO 1522/1609 BKN013
                      PROB30 TEMPO 1603/1608 BKN009=
200908150458 TAF EGLL 150458Z 1506/1612 23012KT 9999 BKN016
                      PROB30 1506/1508 BKN014=
200908142259 TAF EGLL 142259Z 1500/1606 23010KT 9999 SCT020
                      PROB40 1502/1508 BKN009=
200908141703 TAF EGLL 141703Z 1418/1524 22008KT 9999 SCT025 BKN045
                      PROB40 1502/1508 BKN014
                      PROB30 TEMPO 1512/1517 23015G25KT=
200908141056 TAF EGLL 141056Z 1412/1518 23012KT 9999 SCT035
                      TEMPO 1412/1417 23015G25KT
                      PROB40 1502/1508 BKN014=
200908140526 TAF AMD EGLL 140526Z 1406/1512 16003KT 0700 FG BKN001
                      BECMG 1406/1409 9999 NSW SCT025
                      BECMG 1409/1412 23012KT
                      PROB40 1502/1508 BKN014=
200908140457 TAF EGLL 140457Z 1406/1512 16003KT 2000 BR BKN002
                      BECMG 1406/1409 9999 NSW SCT025
                      BECMG 1409/1412 23012KT
                      PROB40 1502/1508 BKN014=
200908140356 TAF AMD EGLL 140356Z 1404/1506 17004KT 2000 BR BKN003
                      BECMG 1406/1409 9999 NSW SCT025
                      BECMG 1409/1412 23012KT
                      BECMG 1502/1504 BKN014=
200908132300 TAF AMD EGLL 140356Z 1404/1506 17004KT 2000 BR BKN003
                      BECMG 1406/1409 9999 NSW SCT025
                      BECMG 1409/1412 23012KT
                      BECMG 1502/1504 BKN014=
200908132258 TAF EGLL 132258Z 1400/1506 VRB04KT 9999 FEW045
                      PROB40 1402/1407 8000
                      PROB30 TEMPO 1403/1407 4000 HZ BKN008
                      BECMG 1409/1412 22012KT
                      BECMG 1502/1504 BKN014=
200908131700 TAF EGLL 131700Z NIL=
200908131658 TAF EGLL 131658Z 1318/1424 VRB05KT 9999 SCT035
                      PROB30 1402/1406 9000
                      BECMG 1409/1412 22012KT=
200908131056 TAF EGLL 131056Z 1312/1418 VRB05KT 9999 SCT035
                      PROB30 1402/1406 9000
                      BECMG 1409/1412 21010KT=
200908130500 TAF EGLL 130500Z NIL=
200908130454 TAF EGLL 130454Z 1306/1412 32005KT 9999 SCT025
                      PROB40 TEMPO 1306/1308 7000 -RADZ BKN008
                       BECMG 1409/1412 21010KT=
200908130153 TAF AMD EGLL 130153Z 1301/1406 34005KT 9999 SCT025
                      TEMPO 1301/1308 4000 -RADZ BKN012=
200908122300 TAF AMD EGLL 130153Z 1301/1406 34005KT 9999 SCT025
                      TEMPO 1301/1308 4000 -RADZ BKN012=
200908121658 TAF EGLL 121658Z 1218/1324 26013KT 9999 FEW020 BKN025
                      BECMG 1301/1303 33005KT
                      PROB30 TEMPO 1301/1308 6000 -RADZ BKN012=
200908121100 TAF EGLL 121100Z 1212/1318 26012KT 9999 FEW012 BKN018
                      PROB30 TEMPO 1212/1218 6000 SHRA
                      BECMG 1301/1303 33005KT
                      PROB30 TEMPO 1303/1308 6000 -RADZ BKN012=
200908120459 TAF EGLL 120459Z 1206/1312 26010KT 9999 FEW010 SCT030
                      PROB40 1206/1209 7000 BKN005
                      PROB30 TEMPO 1209/1218 6000 SHRA
                      BECMG 1223/1302 33007KT
                      PROB30 TEMPO 1304/1308 6000 -RADZ BKN012=
200908112301 TAF EGLL 112301Z 1200/1306 27010KT CAVOK
                      BECMG 1204/1207 BKN020
                      PROB30 1206/1209 7000 BKN008
                      TEMPO 1220/1224 6000 -RADZ BKN012
                      BECMG 1223/1302 33007KT=
200908111658 TAF EGLL 111658Z 1118/1224 28007KT 9999 FEW030
                      PROB30 1206/1222 8000 BKN011
                      PROB30 TEMPO 1211/1217 27015G25KT=
200908111053 TAF EGLL 111053Z 1112/1218 28006KT 9999 SCT030
                      PROB30 1206/1218 8000 BKN014=
200908110505 TAF EGLL 110505Z 1106/1212 32006KT 9999 FEW010 SCT035
                      PROB40 1106/1109 9000 BKN010
                      PROB40 1202/1209 7000 BKN007
                      TEMPO 1209/1212 7000 RA BKN012=
200908102259 TAF EGLL 102259Z 1100/1206 30006KT 9999 FEW010 SCT035
                      PROB40 TEMPO 1100/1109 6000 BKN009=
200908101703 TAF EGLL 101703Z 1018/1124 22010KT 9999 SCT014 BKN030
                      TEMPO 1018/1020 BKN014
                      BECMG 1100/1103 30007KT
                      PROB40 TEMPO 1104/1109 8000 BKN010=
200908101055 TAF EGLL 101055Z 1012/1118 22010KT 9999 SCT020 BKN040
                      TEMPO 1013/1110 BKN013
                      PROB40 TEMPO 1013/1110 8000 -RADZ
                      BECMG 1100/1103 30007KT=
200908100503 TAF EGLL 100503Z 1006/1112 22008KT 9999 SCT045
                      PROB30 TEMPO 1012/1016 9000 -RA
                      BECMG 1016/1019 BKN012
                      TEMPO 1016/1106 7000 -RADZ
                      PROB40 TEMPO 1019/1107 4000 DZ BR BKN005
                       BECMG 1106/1109 SCT018=
200908100424 TAF AMD EGLL 100424Z 1004/1106 22008KT 9999 SCT045
                      PROB30 1004/1006 8000
                      TEMPO 1018/1106 8000 -RA BKN012
                      PROB40 TEMPO 1020/1106 4000 -DZ BR BKN005=
200908092304 TAF EGLL 092304Z 1000/1106 22008KT CAVOK
                      PROB30 1002/1006 8000
                      BECMG 1010/1013 SCT025 BKN045
                      TEMPO 1018/1106 8000 -RA BKN012
                      PROB40 TEMPO 1020/1106 4000 -DZ BR BKN005=
200908092300 TAF AMD EGLL 100424Z 1004/1106 22008KT 9999 SCT045
                      PROB30 1004/1006 8000
                      TEMPO 1018/1106 8000 -RA BKN012
                      PROB40 TEMPO 1020/1106 4000 -DZ BR BKN005=
200908091704 TAF EGLL 091704Z 0918/1024 22008KT CAVOK
                      PROB30 1001/1006 8000
                      BECMG 1009/1012 SCT025 BKN040
                      TEMPO 1018/1024 8000 -RA BKN012=
200908091102 TAF EGLL 091102Z 0912/1018 22008KT 9999 FEW045
                      PROB30 1001/1006 8000=
200908090500 TAF EGLL 090500Z 0906/1012 14006KT 9999 FEW048
                      PROB30 TEMPO 0916/0921 8000 SHRA
                      BECMG 1010/1012 24012KT=
200908090053 TAF AMD EGLL 090053Z 0900/1006 13005KT 8000 SCT045
                      BECMG 0906/0908 9999=
200908082300 TAF AMD EGLL 090053Z 0900/1006 13005KT 8000 SCT045
                      BECMG 0906/0908 9999=
200908081702 TAF EGLL 081702Z 0818/0924 VRB05KT 9999 FEW045=
200908081100 TAF EGLL 081100Z 0812/0918 VRB05KT 9999 FEW045=
200908080500 TAF EGLL 080500Z 0806/0912 VRB03KT 9999 FEW045=
200908072300 TAF EGLL 072300Z 0800/0906 VRB03KT 9999 FEW045
                      PROB30 0804/0807 7000=
200908071701 TAF EGLL 071701Z 0718/0824 VRB05KT 9999 SCT040
                      PROB30 0802/0808 6000=
200908071124 TAF COR EGLL 071124Z 0712/0818 33004KT 7000 BKN009
                      BECMG 0712/0715 9999 SCT025
                      PROB30 0712/0713 4500 HZ
                      PROB30 0802/0808 7000=
200908071102 TAF EGLL 071102Z 0712/0818 33004KT 7000 BKN009
                      PROB30 0712/0713 4500 HZ
                      BECMG 0712/0715 9999 SCT025
                      PROB30 0802/0808 7000=
200908071030 TAF AMD EGLL 071030Z 0710/0812 33004KT 4500 BR DZ BKN008
                      BECMG 0711/0714 9999 NSW SCT010 BKN020
                      PROB30 0800/0807 7000=
200908070927 TAF AMD EGLL 070927Z 0709/0812 33004KT 7000 BKN008
                      BECMG 0709/0712 9999 BKN012
                      BECMG 0712/0714 SCT018
                      PROB30 0800/0807 7000=
200908070500 TAF EGLL 070500Z 0706/0812 33004KT 5000 BR BKN004
                      BECMG 0706/0709 9999 NSW BKN012
                      BECMG 0710/0713 SCT030
                      PROB30 0800/0807 7000=
200908062300 TAF EGLL 062300Z 0700/0806 32005KT 4000 -RA BKN018
                      BECMG 0700/0703 9999 NSW BKN012
                      PROB40 0700/0708 4500 BR BKN003
                      BECMG 0710/0713 SCT030
                      PROB30 0721/0806 6000=
200908062229 TAF AMD EGLL 062229Z 0622/0724 30008KT 5000 RA BKN015
                      BECMG 0623/0702 9999 NSW BKN012
                      PROB30 0702/0708 7000 BKN009
                      BECMG 0710/0713 SCT020=
200908062133 TAF AMD EGLL 062133Z 0621/0724 30008KT 3500 RA BKN004
                      PROB40 TEMPO 0621/0623 +RA
                      BECMG 0623/0702 9999 NSW BKN012
                      PROB30 0702/0708 7000 BKN009
                      BECMG 0710/0713 SCT020=
200908061942 TAF AMD EGLL 061942Z 0619/0724 30008KT 8000 -RA SCT032
                      BECMG 0619/0621 RA
                      TEMPO 0619/0623 4000 +TSRA BKN008
                      BECMG 0623/0702 9999 NSW BKN012
                      PROB30 0702/0708 7000 BKN009
                      BECMG 0710/0713 SCT020=
200908061700 TAF EGLL 061700Z 0618/0724 30008KT 9999 SCT040CB
                      BECMG 0618/0620 7000 RA
                      TEMPO 0618/0622 4000 +TSRA
                      BECMG 0623/0702 9999 NSW BKN012
                      PROB30 0702/0708 7000 BKN009
                      BECMG 0710/0713 SCT020=
200908061539 TAF AMD EGLL 061539Z 0615/0718 29006KT CAVOK
                      BECMG 0615/0618 7000 RA BKN040CB
                      TEMPO 0618/0623 4000 +TSRA
                      BECMG 0623/0702 9999 NSW BKN012
                      PROB30 0702/0708 5000 BR BKN009
                      BECMG 0709/0712 SCT018=
200908061100 TAF EGLL 061100Z 0612/0718 29006KT CAVOK
                      BECMG 0617/0619 7000 RA BKN040CB
                      TEMPO 0618/0623 4000 +TSRA
                      BECMG 0623/0702 9999 NSW BKN012
                      PROB30 0702/0708 5000 BR BKN009
                      BECMG 0709/0712 SCT018=
200908060456 TAF EGLL 060456Z 0606/0712 27005KT 9999 SCT040
                      PROB30 TEMPO 0606/0608 4500 +SHRA TSRA
                      PROB30 TEMPO 0612/0616 4500 +SHRA TSRA
                      BECMG 0616/0619 7000 RA SHRA
                      PROB40 TEMPO 0618/0623 3000 +RA BKN014
                      BECMG 0623/0702 9999 NSW
                      PROB40 0623/0709 4500 BR BKN009=
200908060028 TAF AMD EGLL 060028Z 0600/0706 23005KT 9999 FEW030
                      PROB40 TEMPO 0600/0609 6000 SHRA
                      PROB30 0604/0607 4500 HZ
                      PROB30 TEMPO 0612/0616 3000 +SHRA TSRA
                      BECMG 0616/0619 7000 RA SHRA
                      TEMPO 0618/0623 4500 +RA
                      PROB40 0622/0706 BKN010
                      BECMG 0623/0702 NSW=
200908052303 TAF EGLL 052303Z 0600/0706 23005KT 9999 FEW030
                      PROB40 TEMPO 0600/0609 6000 SHRA
                      PROB30 0604/0607 4500 HZ
                      PROB30 TEMPO 0612/0616 3000 +SHRA TSRA
                      BECMG 0616/0619 7000 RA SHRA
                      TEMPO 0618/0623 4500 +RA
                      PROB40 0622/0706 BKN010
                      BECMG 0623/0702 -RA=
200908052300 TAF AMD EGLL 060028Z 0600/0706 23005KT 9999 FEW030
                      PROB40 TEMPO 0600/0609 6000 SHRA
                      PROB30 0604/0607 4500 HZ
                      PROB30 TEMPO 0612/0616 3000 +SHRA TSRA
                      BECMG 0616/0619 7000 RA SHRA
                      TEMPO 0618/0623 4500 +RA
                      PROB40 0622/0706 BKN010
                      BECMG 0623/0702 NSW=
200908051700 TAF EGLL 051700Z 0518/0624 20010KT 9999 FEW040
                      BECMG 0518/0520 VRB03KT
                      TEMPO 0523/0610 6000 SHRA RA BKN014
                      PROB30 0604/0607 4000 BR BKN007
                      BECMG 0617/0620 7000 RA
                      TEMPO 0620/0624 4500 +RA BKN010=
200908051100 TAF EGLL 051100Z 0512/0618 19010KT 9999 FEW040
                      BECMG 0517/0520 VRB03KT
                      TEMPO 0521/0610 6000 SHRA RA BKN014
                      PROB30 0604/0607 4000 BR BKN007
                      BECMG 0616/0618 7000 RA=
200908050513 TAF COR EGLL 050513Z 0506/0612 17010KT 9999 SCT035
                      BECMG 0518/0521 VRB05KT
                      TEMPO 0520/0608 6000 RA BKN014
                      PROB40 TEMPO 0522/0607 3000 +RA BR BKN008=
200908050459 TAF EGLL 050459Z 0506/0612 17010KT 9999 FEW035 SCT035
                      BECMG 0518/0521 VRB005KT
                      TEMPO 0520/0608 6000 RA BKN014
                      PROB40 TEMPO 0522/0607 3000 +RA BR BKN008=
200908042256 TAF EGLL 042256Z 0500/0606 17010KT 9999 FEW030 SCT035
                      BECMG 0518/0521 27005KT
                      TEMPO 0520/0606 6000 RA BKN014
                      PROB40 TEMPO 0522/0606 3000 +RA BR BKN008=
200908041701 TAF EGLL 041701Z 0418/0524 19009KT 9999 BKN025
                      PROB30 TEMPO 0508/0517 4500 +SHRA
                      BECMG 0517/0520 7000 -RA
                      PROB30 0520/0524 4500 RADZ BKN014=
200908041057 TAF EGLL 041057Z 0412/0518 18010KT 9999 BKN020
                      PROB30 0412/0414 BKN014
                      PROB30 0505/0509 BKN012
                      TEMPO 0508/0518 6000 SHRA=
200908040503 TAF EGLL 040503Z 0406/0512 17010KT 9999 OVC010
                      TEMPO 0406/0410 6000 RA BKN008
                      BECMG 0410/0413 FEW010 BKN020
                      TEMPO 0502/0510 6000 RA BKN010=
200908032307 TAF EGLL 032307Z 0400/0506 17010KT 9999 SCT030
                      BECMG 0402/0405 7000 -RADZ BKN012
                      TEMPO 0404/0412 3000 RADZ BKN007
                      BECMG 0410/0413 9999 NSW BKN020=
200908031713 TAF COR EGLL 031713Z 0318/0424 20010KT 9999 SCT030
                      BECMG 0403/0406 7000 -RADZ BKN012
                      TEMPO 0405/0410 4500 RADZ BKN007
                      BECMG 0410/0413 9999 NSW BKN018
                      PROB30 TEMPO 0413/0415 8000 -RADZ BKN014=
200908031652 TAF EGLL 031652Z 0318/0424 20010KT 9999 SCT030
                      BECMG 0403/0406 7000 -RADZ BKN012
                      TEMPO 0405/0410 4500 RADZ BKN007
                      BECMG 0410/0413 9999 NSW BKN018
                      PROB30 TEMPO 0410/0415 8000 -RADZ BKN014=
200908031053 TAF EGLL 031053Z 0312/0418 19010KT 9999 SCT030
                      BECMG 0403/0406 7000 -RADZ BKN012
                      TEMPO 0405/0411 4500 RADZ BKN007
                      BECMG 0411/0414 9999 NSW BKN018
                      PROB40 TEMPO 0411/0418 8000 -RADZ BKN014=
200908030500 TAF EGLL 030500Z 0306/0412 20008KT 9999 FEW030
                      PROB30 0306/0307 9000
                      BECMG 0403/0406 9000 -RADZ BKN014
                      PROB40 TEMPO 0405/0410 4500 RADZ BKN009=
200908022301 TAF EGLL 022301Z 0300/0406 21007KT 9999 FEW035
                      PROB30 0304/0307 8000
                      BECMG 0402/0405 8000 -RADZ BKN010
                      PROB40 TEMPO 0404/0406 4000 RADZ BKN007=
200908021702 TAF EGLL 021702Z 0218/0324 25008KT 9999 SCT035
                      BECMG 0306/0309 19010KT=
200908021101 TAF EGLL 021101Z 0212/0318 26008KT 9999 SCT035
                      BECMG 0306/0309 19010KT=
200908020503 TAF EGLL 020503Z 0206/0312 26008KT 9999 FEW035
                      PROB30 0206/0207 9000
                      BECMG 0306/0309 19010KT=
200908012304 TAF EGLL 012304Z 0200/0306 26008KT 9999 FEW030
                      PROB40 0203/0207 7000=
200908011703 TAF EGLL 011703Z 0118/0224 19010KT 9999 SCT006 BKN012
                      BECMG 0118/0121 26008KT FEW012 SCT025
                      TEMPO 0118/0120 6000 RA BKN006 SCT020CB
                      PROB30 TEMPO 0118/0119 3000 +RA=
200908011630 TAF AMD EGLL 011630Z 0116/0218 19010KT 9999 BKN012
                      TEMPO 0116/0120 4000 +RA RADZ BKN006 SCT020CB
                       BECMG 0118/0121 26008KT 9999 NSW SCT025=
200908011100 TAF EGLL 011100Z 0112/0218 19010KT 9999 SCT045
                      BECMG 0113/0116 8000 -RA BKN012
                      TEMPO 0115/0120 4000 +RA RADZ BKN006 SCT020CB
                       BECMG 0118/0121 26008KT 9999 NSW SCT025=
200908010916 TAF AMD EGLL 010916Z 0109/0212 18009KT 9999 SCT045
                      TEMPO 0109/0112 8000 RA
                      BECMG 0112/0114 7000 -RADZ BKN012
                      TEMPO 0114/0120 4000 RADZ BKN007
                      BECMG 0117/0119 27010KT
                      BECMG 0120/0122 9999 NSW FEW018=
200908010500 TAF EGLL 010500Z 0106/0212 18009KT 9999 SCT045
                      BECMG 0112/0114 7000 -RADZ BKN012
                      TEMPO 0114/0120 4000 RADZ BKN007
                      BECMG 0117/0119 27010KT
                      BECMG 0120/0122 9999 NSW FEW018=
