##########################################################
# Query made at 01/13/2020 13:13:17 UTC
# Time interval: from 08/01/2017 00:00  to 08/31/2017 23:59  UTC
##########################################################

##########################################################
# EGLL, London / Heathrow Airport (United Kingdom)
# WMO index: 03772
# Latitude 51-29N. Longitude 000-27W. Altitude 24 m.
##########################################################

###################################
#  METAR/SPECI from EGLL
###################################
201708312350 METAR COR EGLL 312350Z AUTO 00000KT 9999 NCD 11/09 Q1020
                        NOSIG=
201708312320 METAR COR EGLL 312320Z AUTO VRB01KT 9999 NCD 13/10 Q1020
                        NOSIG=
201708312250 METAR EGLL 312250Z AUTO 29004KT 9999 NCD 13/09 Q1020=
201708312220 METAR COR EGLL 312220Z AUTO 29003KT 9999 NCD 13/09 Q1020
                        NOSIG=
201708312150 METAR EGLL 312150Z AUTO 27003KT 9999 NCD 15/09 Q1019=
201708312120 METAR COR EGLL 312120Z AUTO 26004KT 9999 NCD 15/10 Q1019
                        NOSIG=
201708312050 METAR COR EGLL 312050Z AUTO 22005KT 180V240 9999 NCD 15/11
                        Q1019 NOSIG=
201708312020 METAR COR EGLL 312020Z AUTO 19007KT 160V240 9999 //////CB
                        15/11 Q1019 NOSIG=
201708311950 METAR COR EGLL 311950Z AUTO 18008KT 140V200 9999 //////CB
                        15/11 Q1019 NOSIG=
201708311920 METAR COR EGLL 311920Z AUTO 19007KT 140V270 9999 //////CB
                        16/11 Q1019 NOSIG=
201708311850 METAR COR EGLL 311850Z AUTO 18008KT 150V220 9999 //////CB
                        16/11 Q1018 NOSIG=
201708311820 METAR COR EGLL 311820Z AUTO 19006KT 120V250 9999 FEW048 18/11
                        Q1018 NOSIG=
201708311750 METAR COR EGLL 311750Z AUTO 22005G15KT 160V260 9999 SCT048///
                        //////CB 19/10 Q1018 NOSIG=
201708311720 METAR COR EGLL 311720Z AUTO 24006KT 200V280 9999 NCD 19/09
                        Q1017 NOSIG=
201708311650 METAR COR EGLL 311650Z AUTO 23006KT 130V300 9999 NCD 19/09
                        Q1017 NOSIG=
201708311620 METAR COR EGLL 311620Z AUTO 27005KT 200V360 9999 NCD 20/09
                        Q1017 NOSIG=
201708311550 METAR COR EGLL 311550Z AUTO 23006KT 160V300 9999 NCD 19/09
                        Q1017 NOSIG=
201708311520 METAR COR EGLL 311520Z AUTO 23006KT 180V280 9999 //////CB
                        20/08 Q1017 NOSIG=
201708311450 METAR COR EGLL 311450Z AUTO 23009KT 9999 FEW044/// //////CB
                        18/08 Q1017 TEMPO SHRA=
201708311420 METAR COR EGLL 311420Z AUTO 25004KT 170V340 9999 FEW042///
                        //////CB 19/10 Q1017 NOSIG=
201708311350 METAR COR EGLL 311350Z AUTO 28004KT 250V310 9999 //////CB
                        19/10 Q1017 TEMPO SHRA=
201708311320 METAR COR EGLL 311320Z AUTO VRB02KT 9999 NCD 18/11 Q1017
                        TEMPO 4500 SHRA=
201708311250 METAR COR EGLL 311250Z AUTO VRB03KT 9999 FEW025/// SCT044///
                        //////CB 16/12 Q1018 TEMPO SHRA=
201708311220 METAR EGLL 311220Z AUTO 20007KT 150V270 9999 -RA FEW024///
                        SCT038/// //////CB 16/12 Q1018=
201708311150 METAR COR EGLL 311150Z 18009KT 130V230 9999 7000SW -RA SCT029CB
                        SCT047 18/10 Q1017 RESHRA TEMPO 4000
                        TSRA=
201708311120 METAR COR EGLL 311120Z AUTO 16008KT 120V230 9999 FEW027///
                        //////CB 18/12 Q1017 TEMPO SHRA=
201708311050 METAR COR EGLL 311050Z AUTO VRB04KT 9999 -RA FEW028/// //////CB
                        17/11 Q1017 TEMPO SHRA=
201708311020 METAR COR EGLL 311020Z AUTO 23005KT 170V280 9999 FEW024///
                        //////CB 17/11 Q1017 TEMPO SHRA=
201708310950 METAR COR EGLL 310950Z AUTO 25007KT 190V290 9999 //////CB
                        17/11 Q1017 TEMPO SHRA=
201708310920 METAR COR EGLL 310920Z AUTO 18006KT 090V270 9999 NCD 16/11
                        Q1017 NOSIG=
201708310850 METAR COR EGLL 310850Z AUTO 18004KT 120V260 9999 NCD 15/11
                        Q1017 NOSIG=
201708310820 METAR COR EGLL 310820Z AUTO VRB04KT 9999 NCD 14/11 Q1017
                        NOSIG=
201708310750 METAR EGLL 310750Z AUTO VRB03KT 9999 NCD 13/11 Q1017=
201708310720 METAR EGLL 310720Z AUTO VRB03KT 9999 NCD 12/10 Q1017=
201708310650 METAR EGLL 310650Z AUTO VRB02KT 9999 NCD 11/10 Q1016=
201708310620 METAR EGLL 310620Z AUTO VRB01KT 9999 NCD 09/09 Q1016=
201708310550 METAR COR EGLL 310550Z VRB03KT CAVOK 08/08 Q1016 NOSIG=
201708310520 METAR COR EGLL 310520Z VRB02KT CAVOK 09/08 Q1016 NOSIG=
201708310450 METAR COR EGLL 310450Z VRB02KT CAVOK 09/09 Q1016 NOSIG=
201708310420 METAR COR EGLL 310420Z AUTO 21002KT 9999 NCD 10/09 Q1015
                        NOSIG=
201708310350 METAR COR EGLL 310350Z AUTO 21004KT 8000 NCD 10/09 Q1015
                        NOSIG=
201708310320 METAR EGLL 310320Z AUTO 24001KT 9999 NCD 10/09 Q1015=
201708310250 METAR COR EGLL 310250Z AUTO 28003KT 9999 NCD 10/09 Q1015
                        TEMPO 4000 BR=
201708310220 METAR COR EGLL 310220Z AUTO 26002KT 9999 NCD 11/10 Q1015
                        TEMPO 4000 BR=
201708310150 METAR COR EGLL 310150Z AUTO 27005KT 9999 NCD 10/09 Q1015
                        NOSIG=
201708310120 METAR COR EGLL 310120Z AUTO 27007KT 9999 NCD 10/09 Q1015
                        NOSIG=
201708310050 METAR COR EGLL 310050Z AUTO 27003KT 9999 NCD 10/09 Q1015
                        NOSIG=
201708310020 METAR COR EGLL 310020Z AUTO 27002KT 9999 NCD 11/09 Q1015
                        NOSIG=
201708302350 METAR COR EGLL 302350Z AUTO 26005KT 9999 NCD 11/10 Q1015
                        NOSIG=
201708302320 METAR COR EGLL 302320Z AUTO 26004KT 9999 NCD 13/10 Q1015
                        NOSIG=
201708302250 METAR COR EGLL 302250Z AUTO 23004KT 9999 NCD 13/10 Q1015
                        NOSIG=
201708302220 METAR COR EGLL 302220Z AUTO 23005KT 190V250 9999 NCD 13/10
                        Q1015 NOSIG=
201708302150 METAR COR EGLL 302150Z AUTO 24004KT 180V300 9999 NCD 14/10
                        Q1015 NOSIG=
201708302120 METAR COR EGLL 302120Z AUTO 23005KT 9999 NCD 14/10 Q1014
                        NOSIG=
201708302050 METAR COR EGLL 302050Z AUTO 23006KT 9999 SCT045 14/10 Q1014
                        NOSIG=
201708302020 METAR COR EGLL 302020Z AUTO 23005KT 9999 SCT047 14/10 Q1014
                        NOSIG=
201708301950 METAR COR EGLL 301950Z AUTO 27004KT 9999 NCD 14/10 Q1014
                        NOSIG=
201708301920 METAR COR EGLL 301920Z AUTO VRB02KT 9999 NCD 14/09 Q1014
                        NOSIG=
201708301850 METAR COR EGLL 301850Z AUTO VRB02KT 9999 NCD 14/09 Q1014
                        NOSIG=
201708301820 METAR COR EGLL 301820Z AUTO VRB02KT 9999 NCD 14/10 Q1014
                        TEMPO SHRA=
201708301750 METAR COR EGLL 301750Z AUTO VRB02KT 9999 SCT017 SCT025 14/11
                        Q1014 NOSIG=
201708301720 METAR COR EGLL 301720Z AUTO VRB03KT 9999 FEW020 14/10 Q1013
                        NOSIG=
201708301650 METAR COR EGLL 301650Z AUTO 36004KT 320V030 9999 SCT043///
                        //////TCU 14/11 Q1013 NOSIG=
201708301620 METAR COR EGLL 301620Z AUTO 31004KT 9999 FEW020 BKN045 14/11
                        Q1013 NOSIG=
201708301550 METAR COR EGLL 301550Z AUTO 31005KT 9999 -RA SCT014 SCT030
                        BKN041 14/11 Q1013 NOSIG=
201708301520 METAR COR EGLL 301520Z AUTO VRB03KT 9999 -RA SCT012 BKN032
                        BKN040 14/11 Q1014 NOSIG=
201708301450 METAR COR EGLL 301450Z AUTO VRB03KT 9999 -RA SCT014 SCT030
                        BKN042 14/11 Q1014 NOSIG=
201708301420 METAR COR EGLL 301420Z VRB03KT 9999 -RA SCT011 SCT030 BKN045
                        14/11 Q1014 NOSIG=
201708301350 METAR COR EGLL 301350Z 35004KT 310V040 9999 -RA FEW014 SCT030
                        BKN047 13/11 Q1014 NOSIG=
201708301320 METAR COR EGLL 301320Z 33004KT 300V010 9999 -RA SCT014 SCT031
                        BKN039 13/11 Q1014 NOSIG=
201708301250 METAR COR EGLL 301250Z 33005KT 300V030 9999 -RA FEW016 BKN033
                        14/11 Q1014 NOSIG=
201708301220 METAR COR EGLL 301220Z AUTO 31005KT 9999 -RA FEW026/// SCT031///
                        BKN038/// //////CB 14/10 Q1014 NOSIG=
201708301150 METAR COR EGLL 301150Z AUTO VRB03KT 9999 -RA FEW038/// //////TCU
                        14/10 Q1014 TEMPO 4500 RA=
201708301120 METAR COR EGLL 301120Z AUTO 35004KT 9999 -RA FEW044/// //////TCU
                        14/10 Q1014 TEMPO RA=
201708301050 METAR COR EGLL 301050Z AUTO 35004KT 300V030 9999 -RA FEW041
                        14/11 Q1014 TEMPO RA=
201708301020 METAR COR EGLL 301020Z AUTO 35004KT 300V040 9999 -RA FEW027
                        SCT034 14/11 Q1014 NOSIG=
201708300950 METAR COR EGLL 300950Z AUTO 34004KT 300V020 9999 -RA FEW040
                        SCT047 13/11 Q1014 NOSIG=
201708300920 METAR COR EGLL 300920Z AUTO 33006KT 290V020 9999 -RA NCD
                        14/09 Q1014 NOSIG=
201708300850 METAR COR EGLL 300850Z AUTO 32007KT 300V010 9999 -RA FEW048
                        14/09 Q1013 NOSIG=
201708300820 METAR COR EGLL 300820Z AUTO 33006KT 300V010 9999 NCD 14/09
                        Q1013 NOSIG=
201708300750 METAR COR EGLL 300750Z AUTO 36005KT 310V040 9999 NCD 14/09
                        Q1012 NOSIG=
201708300720 METAR COR EGLL 300720Z AUTO 35006KT 290V030 9999 NCD 14/09
                        Q1013 NOSIG=
201708300650 METAR COR EGLL 300650Z AUTO 36006KT 320V050 9999 NCD 14/09
                        Q1013 NOSIG=
201708300620 METAR COR EGLL 300620Z AUTO 34004KT 280V040 9999 OVC046 14/08
                        Q1012 NOSIG=
201708300550 METAR COR EGLL 300550Z 36006KT 320V030 9999 BKN043 14/08
                        Q1012 NOSIG=
201708300520 METAR COR EGLL 300520Z 36006KT 330V050 9999 BKN040 14/08
                        Q1012 NOSIG=
201708300450 METAR COR EGLL 300450Z 36006KT 330V050 9999 BKN040 14/09
                        Q1012 NOSIG=
201708300420 METAR COR EGLL 300420Z AUTO 01006KT 340V050 9999 FEW022 BKN034
                        OVC040 14/10 Q1012 NOSIG=
201708300350 METAR COR EGLL 300350Z AUTO 01007KT 340V050 9999 SCT019 OVC029
                        14/11 Q1012 NOSIG=
201708300320 METAR COR EGLL 300320Z AUTO 36005KT 330V060 9999 BKN015 OVC028
                        14/12 Q1012 NOSIG=
201708300250 METAR COR EGLL 300250Z AUTO 36006KT 330V030 9000 BKN011 OVC033
                        14/12 Q1012 TEMPO BKN015=
201708300220 METAR COR EGLL 300220Z AUTO 01005KT 330V060 4900 -DZ OVC012
                        14/13 Q1012 TEMPO 9999 NSW BKN015=
201708300150 METAR COR EGLL 300150Z AUTO 03004KT 330V070 6000 -RA BKN014
                        OVC028 14/13 Q1012 TEMPO NSW BKN020=
201708300120 METAR COR EGLL 300120Z AUTO 01007KT 340V050 6000 -RA FEW010
                        SCT022 OVC026 14/12 Q1012 TEMPO BKN010=
201708300050 METAR COR EGLL 300050Z AUTO 36007KT 330V030 4900 -RADZ BKN006
                        OVC021 14/14 Q1012 TEMPO 9999 NSW
                        BKN020=
201708300020 METAR COR EGLL 300020Z AUTO 01006KT 330V050 2600 -RADZ BKN006
                        OVC018 15/14 Q1012 REDZ TEMPO 7000=
201708292350 METAR COR EGLL 292350Z AUTO 01007KT 330V050 5000 HZ BKN010
                        OVC018 15/13 Q1012 TEMPO NSW BKN015=
201708292320 METAR COR EGLL 292320Z AUTO 01008KT 340V050 9999 BKN009 OVC012
                        16/13 Q1012 TEMPO BKN015=
201708292250 METAR COR EGLL 292250Z AUTO 36008KT 320V040 9999 OVC009 16/14
                        Q1012 TEMPO BKN015=
201708292220 METAR COR EGLL 292220Z AUTO 36008KT 340V050 9999 OVC010 17/14
                        Q1012 TEMPO BKN020=
201708292150 METAR COR EGLL 292150Z AUTO 35007KT 310V030 9999 BKN012 OVC018
                        18/14 Q1012 TEMPO BKN020=
201708292120 METAR COR EGLL 292120Z AUTO 34007KT 290V020 9999 BKN016 OVC028
                        19/14 Q1012 TEMPO BKN014=
201708292050 METAR COR EGLL 292050Z AUTO 33006KT 290V020 9999 OVC028 19/14
                        Q1012 NOSIG=
201708292020 METAR COR EGLL 292020Z AUTO 35005KT 310V030 9999 BKN029 19/14
                        Q1012 NOSIG=
201708291950 METAR COR EGLL 291950Z AUTO 34005KT 310V030 9999 NCD 19/14
                        Q1012 NOSIG=
201708291920 METAR COR EGLL 291920Z AUTO 34005KT 300V030 9999 NCD 20/15
                        Q1012 NOSIG=
201708291850 METAR COR EGLL 291850Z AUTO 34005KT 290V020 9999 NCD 20/15
                        Q1011 NOSIG=
201708291820 METAR COR EGLL 291820Z AUTO 33007KT 270V010 9999 NCD 22/16
                        Q1011 NOSIG=
201708291750 METAR COR EGLL 291750Z AUTO 31006KT 9999 FEW037 24/16 Q1011
                        NOSIG=
201708291720 METAR COR EGLL 291720Z AUTO 30004KT 250V350 9999 SCT038 BKN048
                        24/15 Q1011 NOSIG=
201708291650 METAR COR EGLL 291650Z AUTO 29005KT 260V350 9999 SCT037 BKN045
                        24/15 Q1011 NOSIG=
201708291620 METAR COR EGLL 291620Z AUTO 28004KT 240V350 9999 BKN044 24/15
                        Q1011 NOSIG=
201708291550 METAR COR EGLL 291550Z AUTO 28007KT 250V320 9999 FEW045///
                        //////CB 25/15 Q1011 NOSIG=
201708291520 METAR COR EGLL 291520Z AUTO 28006KT 230V330 9999 FEW045 25/14
                        Q1012 NOSIG=
201708291450 METAR COR EGLL 291450Z AUTO 27009KT 9999 BKN045 25/14 Q1012
                        NOSIG=
201708291420 METAR COR EGLL 291420Z AUTO 27005KT 160V310 9999 NCD 25/14
                        Q1012 NOSIG=
201708291350 METAR COR EGLL 291350Z AUTO 29005KT 250V340 9999 FEW044 24/15
                        Q1012 NOSIG=
201708291320 METAR COR EGLL 291320Z AUTO VRB04KT 9999 BKN049 25/15 Q1012
                        NOSIG=
201708291250 METAR COR EGLL 291250Z AUTO 27006KT 220V310 9999 NCD 24/15
                        Q1013 NOSIG=
201708291220 METAR COR EGLL 291220Z AUTO VRB05KT 9999 NCD 24/15 Q1013
                        NOSIG=
201708291150 METAR COR EGLL 291150Z AUTO 26005KT 220V310 9999 NCD 23/15
                        Q1013 NOSIG=
201708291120 METAR COR EGLL 291120Z AUTO VRB03KT 9999 SCT045 23/14 Q1013
                        NOSIG=
201708291050 METAR COR EGLL 291050Z AUTO 26004KT 210V340 9999 NCD 22/15
                        Q1013 NOSIG=
201708291020 METAR COR EGLL 291020Z AUTO VRB02KT 9999 NCD 20/15 Q1014
                        NOSIG=
201708290950 METAR COR EGLL 290950Z AUTO 31004KT 250V030 9999 NCD 20/15
                        Q1014 NOSIG=
201708290920 METAR EGLL 290920Z AUTO 29005KT 9999 NCD 19/14 Q1015=
201708290850 METAR COR EGLL 290850Z AUTO 28004KT 9999 NCD 19/15 Q1015
                        NOSIG=
201708290820 METAR COR EGLL 290820Z AUTO 24004KT 210V290 9999 NCD 19/15
                        Q1014 NOSIG=
201708290750 METAR COR EGLL 290750Z AUTO VRB03KT 9000 NCD 18/15 Q1014
                        NOSIG=
201708290720 METAR COR EGLL 290720Z AUTO VRB02KT 9999 NCD 18/14 Q1014
                        NOSIG=
201708290650 METAR COR EGLL 290650Z AUTO VRB03KT 9000 NCD 18/15 Q1015
                        NOSIG=
201708290620 METAR COR EGLL 290620Z AUTO 28004KT 260V340 9999 NCD 17/14
                        Q1015 NOSIG=
201708290550 METAR COR EGLL 290550Z AUTO 28005KT 9000 NCD 17/15 Q1015
                        NOSIG=
201708290520 METAR COR EGLL 290520Z 28004KT CAVOK 17/15 Q1015 NOSIG=
201708290450 METAR COR EGLL 290450Z 30003KT CAVOK 16/15 Q1014 NOSIG=
201708290420 METAR COR EGLL 290420Z VRB03KT CAVOK 17/15 Q1014 NOSIG=
201708290350 METAR COR EGLL 290350Z 29004KT CAVOK 17/15 Q1015 NOSIG=
201708290320 METAR COR EGLL 290320Z AUTO 23003KT 9999 NCD 17/15 Q1014
                        NOSIG=
201708290250 METAR COR EGLL 290250Z AUTO 16002KT 9999 NCD 17/15 Q1015
                        NOSIG=
201708290220 METAR COR EGLL 290220Z AUTO 24002KT 9999 NCD 17/15 Q1015
                        NOSIG=
201708290150 METAR COR EGLL 290150Z AUTO VRB03KT 9999 NCD 18/15 Q1015
                        NOSIG=
201708290120 METAR COR EGLL 290120Z AUTO 20004KT 9999 NCD 18/15 Q1015
                        NOSIG=
201708290050 METAR COR EGLL 290050Z AUTO 21003KT 9999 NCD 18/15 Q1015
                        NOSIG=
201708290020 METAR COR EGLL 290020Z AUTO 21004KT 9999 NCD 19/15 Q1015
                        NOSIG=
201708282350 METAR COR EGLL 282350Z AUTO 20004KT 9999 NCD 19/14 Q1015
                        NOSIG=
201708282320 METAR COR EGLL 282320Z AUTO 20004KT 9999 NCD 19/15 Q1015
                        NOSIG=
201708282250 METAR COR EGLL 282250Z AUTO 20006KT 9999 NCD 20/16 Q1016
                        NOSIG=
201708282220 METAR COR EGLL 282220Z AUTO 25005KT 9999 NCD 20/16 Q1016
                        NOSIG=
201708282150 METAR COR EGLL 282150Z AUTO 25005KT 9999 NCD 21/17 Q1016
                        NOSIG=
201708282120 METAR COR EGLL 282120Z AUTO 23006KT 9999 NCD 22/17 Q1016
                        NOSIG=
201708282050 METAR COR EGLL 282050Z AUTO 25006KT 9999 NCD 22/17 Q1016
                        NOSIG=
201708282020 METAR COR EGLL 282020Z AUTO 21009KT 9999 NCD 23/17 Q1016
                        NOSIG=
201708281950 METAR COR EGLL 281950Z AUTO 21009KT 9999 NCD 23/17 Q1016
                        NOSIG=
201708281920 METAR COR EGLL 281920Z AUTO 19008KT 170V240 9999 NCD 23/16
                        Q1015 NOSIG=
201708281850 METAR COR EGLL 281850Z AUTO 19009KT 160V220 9999 NCD 24/16
                        Q1015 NOSIG=
201708281820 METAR COR EGLL 281820Z AUTO 19009KT 9999 NCD 25/16 Q1015
                        NOSIG=
201708281750 METAR COR EGLL 281750Z AUTO 20008KT 150V230 9999 NCD 26/16
                        Q1015 NOSIG=
201708281720 METAR COR EGLL 281720Z AUTO 19007KT 150V260 9999 NCD 26/15
                        Q1015 NOSIG=
201708281650 METAR COR EGLL 281650Z AUTO 23007KT 170V270 9999 NCD 26/15
                        Q1016 NOSIG=
201708281620 METAR COR EGLL 281620Z AUTO 21006KT 160V260 9999 NCD 27/15
                        Q1016 NOSIG=
201708281550 METAR COR EGLL 281550Z AUTO 21007KT 170V260 9999 NCD 27/15
                        Q1016 NOSIG=
201708281520 METAR COR EGLL 281520Z AUTO 18006KT 140V230 9999 NCD 27/14
                        Q1016 NOSIG=
201708281450 METAR COR EGLL 281450Z AUTO 18006KT 130V240 9999 NCD 27/14
                        Q1016 NOSIG=
201708281420 METAR COR EGLL 281420Z AUTO 18006KT 120V270 9999 NCD 27/15
                        Q1017 NOSIG=
201708281350 METAR COR EGLL 281350Z AUTO VRB06KT 9999 NCD 26/15 Q1017
                        NOSIG=
201708281320 METAR COR EGLL 281320Z AUTO VRB04KT 9999 NCD 26/15 Q1017
                        NOSIG=
201708281250 METAR COR EGLL 281250Z AUTO 27006KT 240V350 9999 NCD 26/14
                        Q1017 NOSIG=
201708281220 METAR COR EGLL 281220Z AUTO VRB05KT 9999 NCD 26/15 Q1018
                        NOSIG=
201708281150 METAR COR EGLL 281150Z AUTO 24007KT 210V300 9999 NCD 26/15
                        Q1018 NOSIG=
201708281120 METAR COR EGLL 281120Z AUTO 21006KT 130V270 9999 NCD 25/15
                        Q1018 NOSIG=
201708281050 METAR COR EGLL 281050Z AUTO 23005KT 190V290 9999 NCD 25/15
                        Q1018 NOSIG=
201708281020 METAR COR EGLL 281020Z AUTO VRB03KT 9999 NCD 24/14 Q1018
                        NOSIG=
201708280950 METAR COR EGLL 280950Z AUTO 18005KT 120V240 9999 NCD 23/14
                        Q1019 NOSIG=
201708280920 METAR COR EGLL 280920Z AUTO VRB03KT 9999 NCD 22/14 Q1019
                        NOSIG=
201708280850 METAR COR EGLL 280850Z AUTO VRB03KT 9999 NCD 21/14 Q1019
                        NOSIG=
201708280820 METAR COR EGLL 280820Z AUTO VRB02KT 9999 NCD 21/14 Q1019
                        NOSIG=
201708280750 METAR COR EGLL 280750Z AUTO VRB02KT 9999 NCD 20/14 Q1019
                        NOSIG=
201708280720 METAR COR EGLL 280720Z AUTO VRB02KT 9000 NCD 18/15 Q1019
                        NOSIG=
201708280650 METAR COR EGLL 280650Z AUTO VRB03KT 9999 NCD 18/14 Q1019
                        NOSIG=
201708280620 METAR COR EGLL 280620Z AUTO 01002KT 9999 NCD 17/14 Q1018
                        NOSIG=
201708280550 METAR COR EGLL 280550Z AUTO 00000KT 9999 NCD 16/13 Q1018
                        NOSIG=
201708280520 METAR COR EGLL 280520Z AUTO VRB02KT 9999 NCD 15/13 Q1018
                        NOSIG=
201708280450 METAR COR EGLL 280450Z AUTO VRB02KT 9999 NCD 15/13 Q1018
                        NOSIG=
201708280420 METAR COR EGLL 280420Z AUTO VRB02KT 9999 NCD 15/13 Q1018
                        NOSIG=
201708280350 METAR COR EGLL 280350Z AUTO VRB03KT 9999 NCD 15/13 Q1018
                        NOSIG=
201708280320 METAR COR EGLL 280320Z AUTO 15003KT 9999 NCD 15/13 Q1018
                        NOSIG=
201708280250 METAR COR EGLL 280250Z AUTO 14002KT 8000 NCD 15/13 Q1019
                        NOSIG=
201708280220 METAR COR EGLL 280220Z AUTO 13003KT 9999 NCD 16/14 Q1019
                        NOSIG=
201708280150 METAR COR EGLL 280150Z AUTO 11004KT 9999 NCD 16/14 Q1019
                        NOSIG=
201708280120 METAR COR EGLL 280120Z AUTO 14003KT 9999 NCD 17/14 Q1019
                        NOSIG=
201708280050 METAR COR EGLL 280050Z AUTO 14004KT 9999 NCD 17/14 Q1019
                        NOSIG=
201708280020 METAR COR EGLL 280020Z AUTO 13005KT 9999 NCD 17/14 Q1019
                        NOSIG=
201708272350 METAR COR EGLL 272350Z AUTO 12005KT 080V160 9999 NCD 17/14
                        Q1019 NOSIG=
201708272320 METAR COR EGLL 272320Z AUTO 10004KT 9999 NCD 16/14 Q1019
                        NOSIG=
201708272250 METAR EGLL 272250Z AUTO 13006KT 9999 NCD 17/14 Q1019=
201708272220 METAR COR EGLL 272220Z AUTO 14005KT 100V220 9999 NCD 18/14
                        Q1019 NOSIG=
201708272150 METAR COR EGLL 272150Z AUTO 06004KT 030V110 9999 NCD 19/14
                        Q1019 NOSIG=
201708272120 METAR COR EGLL 272120Z AUTO 04003KT 9999 NCD 21/12 Q1019
                        NOSIG=
201708272050 METAR COR EGLL 272050Z AUTO 04004KT 9999 NCD 22/11 Q1019
                        NOSIG=
201708272020 METAR COR EGLL 272020Z AUTO 04003KT 9999 NCD 23/11 Q1019
                        NOSIG=
201708271950 METAR COR EGLL 271950Z AUTO 02002KT 9999 NCD 23/11 Q1018
                        NOSIG=
201708271920 METAR COR EGLL 271920Z AUTO 34002KT 9999 NCD 24/11 Q1018
                        NOSIG=
201708271850 METAR COR EGLL 271850Z AUTO VRB03KT 9999 NCD 24/11 Q1018
                        NOSIG=
201708271820 METAR COR EGLL 271820Z AUTO 31003KT 9999 NCD 24/11 Q1018
                        NOSIG=
201708271750 METAR COR EGLL 271750Z AUTO 30004KT 9999 NCD 24/11 Q1017
                        NOSIG=
201708271720 METAR COR EGLL 271720Z AUTO 33004KT 280V020 9999 NCD 25/11
                        Q1017 NOSIG=
201708271650 METAR COR EGLL 271650Z AUTO 36004KT 300V060 9999 NCD 25/11
                        Q1018 NOSIG=
201708271620 METAR COR EGLL 271620Z AUTO 34004KT 300V040 9999 NCD 26/11
                        Q1018 NOSIG=
201708271550 METAR COR EGLL 271550Z AUTO VRB03KT 9999 NCD 26/12 Q1018
                        NOSIG=
201708271520 METAR COR EGLL 271520Z AUTO 32005KT 260V020 9999 NCD 26/12
                        Q1018 NOSIG=
201708271450 METAR COR EGLL 271450Z AUTO VRB02KT 9999 NCD 25/12 Q1018
                        NOSIG=
201708271420 METAR COR EGLL 271420Z AUTO VRB04KT 9999 NCD 24/12 Q1018
                        NOSIG=
201708271350 METAR COR EGLL 271350Z AUTO 16004KT 110V240 9999 SCT049 26/12
                        Q1018 NOSIG=
201708271320 METAR COR EGLL 271320Z AUTO 31004KT 230V050 9999 FEW047 25/12
                        Q1018 NOSIG=
201708271250 METAR COR EGLL 271250Z AUTO VRB04KT 9999 NCD 24/12 Q1019
                        NOSIG=
201708271220 METAR COR EGLL 271220Z AUTO VRB05KT 9999 NCD 24/12 Q1019
                        NOSIG=
201708271150 METAR COR EGLL 271150Z AUTO 02005KT 320V110 9999 NCD 23/12
                        Q1019 NOSIG=
201708271120 METAR COR EGLL 271120Z AUTO 35005KT 280V070 9999 NCD 23/12
                        Q1019 NOSIG=
201708271050 METAR COR EGLL 271050Z AUTO VRB04KT 9999 NCD 23/12 Q1019
                        NOSIG=
201708271020 METAR COR EGLL 271020Z AUTO VRB03KT 9999 NCD 22/12 Q1019
                        NOSIG=
201708270950 METAR COR EGLL 270950Z AUTO 36004KT 300V050 9999 NCD 21/12
                        Q1019 NOSIG=
201708270920 METAR COR EGLL 270920Z AUTO 05004KT 350V090 9999 NCD 21/12
                        Q1019 NOSIG=
201708270850 METAR COR EGLL 270850Z AUTO 06005KT 010V090 9999 NCD 20/12
                        Q1019 NOSIG=
201708270820 METAR EGLL 270820Z AUTO 05005KT 340V100 9999 NCD 19/11 Q1019=
201708270750 METAR COR EGLL 270750Z AUTO 05004KT 360V080 9999 NCD 18/11
                        Q1019 NOSIG=
201708270720 METAR COR EGLL 270720Z AUTO 05005KT 020V080 9999 NCD 18/11
                        Q1019 NOSIG=
201708270650 METAR COR EGLL 270650Z AUTO 04005KT 9999 NCD 17/11 Q1018
                        NOSIG=
201708270620 METAR COR EGLL 270620Z AUTO VRB02KT 9999 NCD 17/11 Q1018
                        NOSIG=
201708270550 METAR COR EGLL 270550Z AUTO VRB03KT 9999 NCD 16/11 Q1018
                        NOSIG=
201708270520 METAR COR EGLL 270520Z AUTO VRB02KT 9999 NCD 16/11 Q1018
                        NOSIG=
201708270450 METAR COR EGLL 270450Z VRB03KT CAVOK 16/12 Q1018 NOSIG=
201708270420 METAR COR EGLL 270420Z AUTO VRB03KT 9999 NCD 16/12 Q1018
                        NOSIG=
201708270350 METAR COR EGLL 270350Z AUTO VRB03KT 9999 NCD 16/12 Q1018
                        NOSIG=
201708270320 METAR COR EGLL 270320Z AUTO 02004KT 350V060 9999 NCD 16/12
                        Q1018 NOSIG=
201708270250 METAR COR EGLL 270250Z AUTO VRB03KT 9999 NCD 16/13 Q1018
                        NOSIG=
201708270220 METAR COR EGLL 270220Z AUTO VRB02KT 9999 NCD 16/13 Q1018
                        NOSIG=
201708270150 METAR COR EGLL 270150Z AUTO 30003KT 9999 NCD 16/14 Q1018
                        NOSIG=
201708270120 METAR COR EGLL 270120Z AUTO 29003KT 9999 NCD 17/13 Q1017
                        NOSIG=
201708270050 METAR COR EGLL 270050Z AUTO 32002KT 9999 NCD 17/13 Q1017
                        NOSIG=
201708270020 METAR COR EGLL 270020Z AUTO 29002KT 9999 NCD 17/13 Q1017
                        NOSIG=
201708262350 METAR COR EGLL 262350Z AUTO 32001KT 9999 NCD 18/13 Q1017
                        NOSIG=
201708262320 METAR COR EGLL 262320Z AUTO 31002KT 9999 NCD 18/13 Q1017
                        NOSIG=
201708262250 METAR COR EGLL 262250Z AUTO 31002KT 9999 NCD 19/13 Q1017
                        NOSIG=
201708262220 METAR COR EGLL 262220Z AUTO VRB02KT 9999 NCD 20/13 Q1017
                        NOSIG=
201708262150 METAR COR EGLL 262150Z AUTO 36003KT 9999 NCD 20/12 Q1017
                        NOSIG=
201708262120 METAR COR EGLL 262120Z AUTO 36003KT 9999 NCD 21/12 Q1017
                        NOSIG=
201708262050 METAR COR EGLL 262050Z AUTO VRB02KT 9999 NCD 21/12 Q1017
                        NOSIG=
201708262020 METAR COR EGLL 262020Z AUTO 35003KT 9999 NCD 21/12 Q1017
                        NOSIG=
201708261950 METAR COR EGLL 261950Z AUTO VRB02KT 9999 NCD 21/12 Q1017
                        NOSIG=
201708261920 METAR COR EGLL 261920Z AUTO VRB03KT 9999 NCD 22/12 Q1016
                        NOSIG=
201708261850 METAR COR EGLL 261850Z AUTO 36004KT 310V020 9999 NCD 22/12
                        Q1016 NOSIG=
201708261820 METAR COR EGLL 261820Z AUTO 31004KT 9999 NCD 22/12 Q1016
                        NOSIG=
201708261750 METAR COR EGLL 261750Z AUTO 32004KT 280V010 9999 NCD 22/12
                        Q1016 NOSIG=
201708261720 METAR COR EGLL 261720Z AUTO 31006KT 9999 SCT047 23/12 Q1016
                        NOSIG=
201708261650 METAR COR EGLL 261650Z AUTO 32004KT 270V350 9999 SCT046 23/12
                        Q1016 NOSIG=
201708261620 METAR COR EGLL 261620Z AUTO 31005KT 280V360 9999 NCD 23/13
                        Q1016 NOSIG=
201708261550 METAR COR EGLL 261550Z AUTO 35005KT 300V020 9999 SCT047 23/12
                        Q1016 NOSIG=
201708261520 METAR COR EGLL 261520Z AUTO VRB03KT 9999 SCT047 23/13 Q1016
                        NOSIG=
201708261450 METAR COR EGLL 261450Z AUTO 36005KT 310V070 9999 BKN045 24/13
                        Q1016 NOSIG=
201708261420 METAR COR EGLL 261420Z AUTO 33006KT 280V040 9999 BKN047 23/12
                        Q1016 NOSIG=
201708261350 METAR COR EGLL 261350Z AUTO VRB04KT 9999 SCT046 24/12 Q1016
                        NOSIG=
201708261320 METAR COR EGLL 261320Z AUTO VRB04KT 9999 SCT044 23/12 Q1016
                        NOSIG=
201708261250 METAR COR EGLL 261250Z AUTO 28004KT 230V020 9999 BKN037 23/14
                        Q1016 NOSIG=
201708261220 METAR COR EGLL 261220Z AUTO VRB04KT 9999 BKN035 BKN041 24/13
                        Q1016 NOSIG=
201708261150 METAR COR EGLL 261150Z AUTO 30005KT 270V340 9999 BKN035 24/14
                        Q1016 NOSIG=
201708261120 METAR COR EGLL 261120Z AUTO VRB03KT 9999 FEW034 23/14 Q1016
                        NOSIG=
201708261050 METAR COR EGLL 261050Z AUTO VRB03KT 9999 NCD 22/13 Q1016
                        NOSIG=
201708261020 METAR COR EGLL 261020Z AUTO VRB03KT 9999 NCD 22/13 Q1016
                        NOSIG=
201708260950 METAR COR EGLL 260950Z AUTO VRB03KT 9999 NCD 22/13 Q1016
                        NOSIG=
201708260920 METAR COR EGLL 260920Z AUTO 21004KT 140V250 9999 NCD 21/13
                        Q1016 NOSIG=
201708260850 METAR COR EGLL 260850Z AUTO 21004KT 180V250 9999 NCD 20/13
                        Q1016 NOSIG=
201708260820 METAR COR EGLL 260820Z AUTO VRB02KT 9999 NCD 19/13 Q1016
                        NOSIG=
201708260750 METAR COR EGLL 260750Z AUTO VRB01KT 9999 NCD 18/13 Q1016
                        NOSIG=
201708260720 METAR COR EGLL 260720Z AUTO VRB02KT 9999 NCD 17/13 Q1016
                        NOSIG=
201708260650 METAR COR EGLL 260650Z AUTO VRB03KT 9999 NCD 16/13 Q1016
                        NOSIG=
201708260620 METAR COR EGLL 260620Z AUTO VRB02KT 9999 FEW049 15/13 Q1016
                        NOSIG=
201708260550 METAR COR EGLL 260550Z AUTO VRB02KT 9999 BKN049 15/13 Q1016
                        NOSIG=
201708260520 METAR COR EGLL 260520Z AUTO VRB02KT 9999 NCD 15/12 Q1016
                        NOSIG=
201708260450 METAR COR EGLL 260450Z AUTO VRB03KT 9999 NCD 15/12 Q1016
                        NOSIG=
201708260420 METAR COR EGLL 260420Z AUTO VRB03KT 9999 NCD 15/12 Q1015
                        NOSIG=
201708260350 METAR COR EGLL 260350Z AUTO 23003KT 9999 NCD 15/12 Q1015
                        NOSIG=
201708260320 METAR COR EGLL 260320Z AUTO 27004KT 9999 NCD 15/13 Q1016
                        NOSIG=
201708260250 METAR COR EGLL 260250Z AUTO 23003KT 9999 NCD 15/12 Q1016
                        NOSIG=
201708260220 METAR COR EGLL 260220Z AUTO 23003KT 9999 NCD 15/13 Q1016
                        NOSIG=
201708260150 METAR COR EGLL 260150Z AUTO 22002KT 9999 NCD 14/13 Q1016
                        NOSIG=
201708260120 METAR COR EGLL 260120Z AUTO 16002KT 9999 NCD 15/13 Q1016
                        NOSIG=
201708260050 METAR COR EGLL 260050Z AUTO 21002KT 9999 NCD 16/13 Q1016
                        NOSIG=
201708260020 METAR COR EGLL 260020Z AUTO 18002KT 9999 NCD 16/13 Q1016
                        NOSIG=
201708252350 METAR COR EGLL 252350Z AUTO 16002KT 9999 NCD 16/13 Q1016
                        NOSIG=
201708252320 METAR COR EGLL 252320Z AUTO 02002KT 9999 NCD 16/13 Q1016
                        NOSIG=
201708252250 METAR COR EGLL 252250Z AUTO 28004KT 9999 NCD 17/13 Q1016
                        NOSIG=
201708252220 METAR COR EGLL 252220Z AUTO 28004KT 9999 NCD 17/13 Q1016
                        NOSIG=
201708252150 METAR COR EGLL 252150Z AUTO 29004KT 9999 NCD 18/13 Q1016
                        NOSIG=
201708252120 METAR COR EGLL 252120Z AUTO 22006KT 9999 NCD 19/13 Q1016
                        NOSIG=
201708252050 METAR COR EGLL 252050Z AUTO 23003KT 9999 NCD 20/12 Q1016
                        NOSIG=
201708252020 METAR COR EGLL 252020Z AUTO 24004KT 200V280 9999 NCD 20/12
                        Q1016 NOSIG=
201708251950 METAR COR EGLL 251950Z AUTO VRB02KT 9999 NCD 20/12 Q1016
                        NOSIG=
201708251920 METAR COR EGLL 251920Z AUTO 27006KT 9999 NCD 20/12 Q1016
                        NOSIG=
201708251850 METAR COR EGLL 251850Z AUTO 24005KT 200V260 9999 NCD 21/12
                        Q1016 NOSIG=
201708251820 METAR COR EGLL 251820Z AUTO 20004KT 150V230 9999 NCD 22/12
                        Q1016 NOSIG=
201708251750 METAR COR EGLL 251750Z AUTO VRB03KT 9999 NCD 22/12 Q1015
                        NOSIG=
201708251720 METAR COR EGLL 251720Z AUTO 24006KT 9999 NCD 23/12 Q1015
                        NOSIG=
201708251650 METAR COR EGLL 251650Z AUTO 22004KT 170V240 9999 NCD 24/12
                        Q1016 NOSIG=
201708251620 METAR COR EGLL 251620Z AUTO 21005KT 160V250 9999 NCD 23/12
                        Q1016 NOSIG=
201708251550 METAR COR EGLL 251550Z AUTO 22005KT 160V280 9999 NCD 23/11
                        Q1016 NOSIG=
201708251520 METAR COR EGLL 251520Z AUTO VRB04KT 9999 NCD 23/11 Q1016
                        NOSIG=
201708251450 METAR COR EGLL 251450Z AUTO 22004KT 130V270 9999 NCD 23/11
                        Q1016 NOSIG=
201708251420 METAR COR EGLL 251420Z AUTO VRB05KT 9999 NCD 23/12 Q1016
                        NOSIG=
201708251350 METAR COR EGLL 251350Z AUTO 21004KT 110V270 9999 NCD 23/12
                        Q1017 NOSIG=
201708251320 METAR COR EGLL 251320Z AUTO 15005KT 090V230 9999 NCD 23/12
                        Q1017 NOSIG=
201708251250 METAR COR EGLL 251250Z AUTO VRB03KT 9999 NCD 22/12 Q1017
                        NOSIG=
201708251220 METAR COR EGLL 251220Z AUTO VRB03KT 9999 NCD 21/12 Q1017
                        NOSIG=
201708251150 METAR COR EGLL 251150Z AUTO 23004KT 170V300 9999 NCD 21/12
                        Q1017 NOSIG=
201708251120 METAR COR EGLL 251120Z AUTO 17005KT 070V230 9999 NCD 21/12
                        Q1017 NOSIG=
201708251050 METAR COR EGLL 251050Z AUTO VRB03KT 9999 NCD 20/12 Q1018
                        NOSIG=
201708251020 METAR COR EGLL 251020Z AUTO 19004KT 130V250 9999 NCD 20/11
                        Q1018 NOSIG=
201708250950 METAR COR EGLL 250950Z AUTO VRB03KT 9999 NCD 19/11 Q1018
                        NOSIG=
201708250920 METAR COR EGLL 250920Z AUTO VRB03KT 9999 NCD 18/12 Q1018
                        NOSIG=
201708250850 METAR COR EGLL 250850Z AUTO VRB03KT 9999 NCD 17/12 Q1018
                        NOSIG=
201708250820 METAR COR EGLL 250820Z AUTO VRB03KT 9999 NCD 17/12 Q1018
                        NOSIG=
201708250750 METAR COR EGLL 250750Z AUTO VRB03KT 9999 NCD 16/12 Q1018
                        NOSIG=
201708250720 METAR COR EGLL 250720Z AUTO VRB02KT 9999 NCD 15/12 Q1018
                        NOSIG=
201708250650 METAR COR EGLL 250650Z AUTO VRB03KT 9999 NCD 14/12 Q1018
                        NOSIG=
201708250620 METAR COR EGLL 250620Z AUTO VRB02KT 9999 NCD 14/12 Q1018
                        NOSIG=
201708250550 METAR COR EGLL 250550Z AUTO VRB03KT 9999 NCD 13/11 Q1018
                        NOSIG=
201708250520 METAR COR EGLL 250520Z AUTO VRB02KT 9999 NCD 12/11 Q1018
                        NOSIG=
201708250450 METAR COR EGLL 250450Z AUTO VRB02KT 9999 NCD 12/11 Q1018
                        NOSIG=
201708250420 METAR COR EGLL 250420Z AUTO VRB01KT 9999 NCD 13/12 Q1018
                        NOSIG=
201708250350 METAR COR EGLL 250350Z AUTO VRB01KT 9999 NCD 13/12 Q1018=
201708250320 METAR COR EGLL 250320Z AUTO 00000KT 9999 NCD 13/12 Q1018
                        NOSIG=
201708250250 METAR COR EGLL 250250Z AUTO 20001KT 9999 NCD 13/12 Q1018
                        NOSIG=
201708250220 METAR COR EGLL 250220Z AUTO 20001KT 9999 NCD 14/12 Q1018
                        NOSIG=
201708250150 METAR COR EGLL 250150Z AUTO 26002KT 9999 NCD 14/12 Q1018
                        NOSIG=
201708250120 METAR COR EGLL 250120Z AUTO 27004KT 9999 NCD 14/13 Q1018
                        NOSIG=
201708250050 METAR COR EGLL 250050Z AUTO 24003KT 9999 NCD 15/13 Q1018
                        NOSIG=
201708250020 METAR COR EGLL 250020Z AUTO 26003KT 9999 NCD 15/12 Q1018
                        NOSIG=
201708242350 METAR COR EGLL 242350Z AUTO 29002KT 9999 NCD 15/13 Q1018
                        NOSIG=
201708242320 METAR COR EGLL 242320Z AUTO 28003KT 9999 NCD 15/13 Q1018
                        NOSIG=
201708242250 METAR COR EGLL 242250Z AUTO 26006KT 9999 NCD 15/13 Q1018
                        NOSIG=
201708242220 METAR COR EGLL 242220Z AUTO 28005KT 9999 NCD 16/13 Q1018
                        NOSIG=
201708242150 METAR EGLL 242150Z AUTO 26007KT 9999 NCD 17/13 Q1018=
201708242120 METAR COR EGLL 242120Z AUTO 24009KT 200V280 9999 NCD 17/13
                        Q1018 NOSIG=
201708242050 METAR COR EGLL 242050Z AUTO 21008KT 180V250 9999 FEW045 17/13
                        Q1018 NOSIG=
201708242020 METAR COR EGLL 242020Z AUTO 25007KT 9999 NCD 18/12 Q1018
                        NOSIG=
201708241950 METAR COR EGLL 241950Z AUTO 24007KT 9999 NCD 18/12 Q1018
                        NOSIG=
201708241920 METAR COR EGLL 241920Z AUTO 25008KT 9999 NCD 19/12 Q1017
                        NOSIG=
201708241850 METAR COR EGLL 241850Z AUTO 25007KT 9999 NCD 19/12 Q1017
                        NOSIG=
201708241820 METAR COR EGLL 241820Z AUTO 25009KT 9999 NCD 19/12 Q1017
                        NOSIG=
201708241750 METAR COR EGLL 241750Z AUTO 25008KT 9999 NCD 20/12 Q1017
                        NOSIG=
201708241720 METAR COR EGLL 241720Z AUTO 25009KT 9999 FEW039 20/11 Q1017
                        NOSIG=
201708241650 METAR COR EGLL 241650Z AUTO 25009KT 9999 NCD 20/11 Q1017
                        NOSIG=
201708241620 METAR COR EGLL 241620Z AUTO 28008KT 9999 NCD 20/12 Q1017
                        NOSIG=
201708241550 METAR COR EGLL 241550Z AUTO 28009KT 240V310 9999 NCD 20/12
                        Q1017 NOSIG=
201708241520 METAR COR EGLL 241520Z AUTO 28010KT 9999 NCD 20/12 Q1017
                        NOSIG=
201708241450 METAR COR EGLL 241450Z AUTO 27010KT 240V310 9999 SCT049 20/12
                        Q1017 NOSIG=
201708241420 METAR COR EGLL 241420Z AUTO 28010KT 9999 NCD 20/12 Q1017
                        NOSIG=
201708241350 METAR COR EGLL 241350Z AUTO 28008KT 220V300 9999 NCD 20/12
                        Q1017 NOSIG=
201708241320 METAR COR EGLL 241320Z AUTO 25010KT 9999 FEW038 20/12 Q1017
                        NOSIG=
201708241250 METAR COR EGLL 241250Z AUTO 27008KT 9999 FEW038 BKN045 20/12
                        Q1017 NOSIG=
201708241220 METAR COR EGLL 241220Z AUTO 24008KT 200V290 9999 FEW045 20/12
                        Q1017 NOSIG=
201708241150 METAR COR EGLL 241150Z AUTO 24011KT 200V270 9999 BKN043 20/11
                        Q1017 NOSIG=
201708241120 METAR COR EGLL 241120Z AUTO 23010KT 190V260 9999 FEW038 BKN045
                        20/11 Q1017 NOSIG=
201708241050 METAR COR EGLL 241050Z AUTO 24008KT 220V280 9999 FEW042 20/12
                        Q1017 NOSIG=
201708241020 METAR COR EGLL 241020Z AUTO 24008KT 200V290 9999 FEW029 BKN036
                        19/12 Q1017 NOSIG=
201708240950 METAR COR EGLL 240950Z AUTO 25009KT 220V290 9999 SCT049 19/12
                        Q1017 NOSIG=
201708240920 METAR COR EGLL 240920Z AUTO 26007KT 230V300 9999 BKN049 18/12
                        Q1017 NOSIG=
201708240850 METAR COR EGLL 240850Z AUTO 27008KT 230V290 9999 BKN049 17/13
                        Q1017 NOSIG=
201708240820 METAR COR EGLL 240820Z AUTO 26008KT 9999 NCD 17/13 Q1017
                        NOSIG=
201708240750 METAR COR EGLL 240750Z AUTO 25007KT 210V290 9999 NCD 16/13
                        Q1017 NOSIG=
201708240720 METAR EGLL 240720Z AUTO 25009KT 9999 FEW012 15/13 Q1017=
201708240650 METAR COR EGLL 240650Z AUTO 23006KT 9999 NCD 14/13 Q1017
                        NOSIG=
201708240620 METAR COR EGLL 240620Z AUTO 21006KT 180V250 9999 NCD 14/13
                        Q1016 NOSIG=
201708240550 METAR COR EGLL 240550Z AUTO 22005KT 180V260 9999 FEW046 13/12
                        Q1016 NOSIG=
201708240520 METAR COR EGLL 240520Z 22004KT 180V250 9999 FEW046 14/12
                        Q1016 NOSIG=
201708240450 METAR COR EGLL 240450Z AUTO 22003KT 9999 BKN044 13/12 Q1016
                        NOSIG=
201708240420 METAR COR EGLL 240420Z AUTO 22005KT 9999 NCD 13/12 Q1016
                        NOSIG=
201708240350 METAR COR EGLL 240350Z AUTO 23005KT 9999 NCD 13/12 Q1016
                        NOSIG=
201708240320 METAR COR EGLL 240320Z AUTO 23005KT 9999 NCD 14/12 Q1016
                        NOSIG=
201708240250 METAR COR EGLL 240250Z AUTO 24005KT 9999 NCD 14/12 Q1016
                        NOSIG=
201708240220 METAR COR EGLL 240220Z AUTO 24006KT 9999 NCD 14/12 Q1016
                        NOSIG=
201708240150 METAR COR EGLL 240150Z AUTO 24007KT 9999 NCD 14/12 Q1016
                        NOSIG=
201708240120 METAR COR EGLL 240120Z AUTO 25007KT 9999 NCD 14/12 Q1016
                        NOSIG=
201708240050 METAR COR EGLL 240050Z AUTO 25007KT 9999 NCD 15/12 Q1016
                        NOSIG=
201708240020 METAR COR EGLL 240020Z AUTO 25008KT 9999 NCD 15/12 Q1016
                        NOSIG=
201708232350 METAR COR EGLL 232350Z AUTO 25008KT 9999 NCD 16/12 Q1016
                        NOSIG=
201708232320 METAR COR EGLL 232320Z AUTO 25007KT 9999 NCD 16/12 Q1016
                        NOSIG=
201708232250 METAR COR EGLL 232250Z AUTO 25007KT 9999 NCD 16/12 Q1016
                        NOSIG=
201708232220 METAR COR EGLL 232220Z AUTO 25010KT 9999 NCD 17/12 Q1016
                        NOSIG=
201708232150 METAR COR EGLL 232150Z AUTO 26008KT 220V280 9999 NCD 17/12
                        Q1015 NOSIG=
201708232120 METAR COR EGLL 232120Z AUTO 26010KT 9999 NCD 17/12 Q1015
                        NOSIG=
201708232050 METAR COR EGLL 232050Z AUTO 25010KT 9999 NCD 18/13 Q1015
                        NOSIG=
201708232020 METAR COR EGLL 232020Z AUTO 26009KT 9999 NCD 18/12 Q1015
                        NOSIG=
201708231950 METAR COR EGLL 231950Z AUTO 26010KT 9999 NCD 18/12 Q1015
                        NOSIG=
201708231920 METAR COR EGLL 231920Z AUTO 26011KT 9999 NCD 18/12 Q1015
                        NOSIG=
201708231850 METAR COR EGLL 231850Z AUTO 26011KT 9999 NCD 19/12 Q1014
                        NOSIG=
201708231820 METAR COR EGLL 231820Z AUTO 26011KT 9999 NCD 19/12 Q1014
                        NOSIG=
201708231750 METAR COR EGLL 231750Z AUTO 27011KT 9999 NCD 20/12 Q1014
                        NOSIG=
201708231720 METAR COR EGLL 231720Z AUTO 27012KT 9999 NCD 20/12 Q1014
                        NOSIG=
201708231650 METAR COR EGLL 231650Z AUTO 27014KT 9999 NCD 20/12 Q1014
                        NOSIG=
201708231620 METAR COR EGLL 231620Z AUTO 27013KT 9999 FEW043 20/12 Q1014
                        NOSIG=
201708231550 METAR COR EGLL 231550Z AUTO 27012KT 9999 FEW041 21/13 Q1014
                        NOSIG=
201708231520 METAR COR EGLL 231520Z AUTO 29012KT 9999 FEW036 SCT043 21/13
                        Q1014 NOSIG=
201708231450 METAR COR EGLL 231450Z AUTO 26014KT 9999 SCT033 SCT041 21/13
                        Q1014 NOSIG=
201708231420 METAR COR EGLL 231420Z AUTO 26014KT 9999 SCT031 SCT039 21/14
                        Q1014 NOSIG=
201708231350 METAR COR EGLL 231350Z AUTO 25012KT 9999 SCT029 22/14 Q1014
                        NOSIG=
201708231320 METAR COR EGLL 231320Z AUTO 25012KT 9999 SCT030 21/14 Q1014
                        NOSIG=
201708231250 METAR COR EGLL 231250Z AUTO 26011KT 9999 SCT031 21/14 Q1013
                        NOSIG=
201708231220 METAR COR EGLL 231220Z AUTO 27011KT 9999 SCT029 BKN035 21/15
                        Q1013 NOSIG=
201708231150 METAR COR EGLL 231150Z AUTO 27010KT 9999 FEW019 BKN024 BKN031
                        21/16 Q1013 NOSIG=
201708231120 METAR COR EGLL 231120Z AUTO 26011KT 9999 SCT013 BKN022 OVC026
                        20/17 Q1013 NOSIG=
201708231050 METAR COR EGLL 231050Z AUTO 27008KT 9999 BKN014 OVC020 20/17
                        Q1013 BECMG SCT014 BKN020=
201708231020 METAR COR EGLL 231020Z AUTO 26009KT 9000 FEW009 OVC015 20/17
                        Q1013 TEMPO BKN010=
201708230950 METAR COR EGLL 230950Z AUTO 24009KT 8000 BKN008 BKN011 OVC016
                        20/18 Q1013 TEMPO SCT008 BKN012=
201708230920 METAR COR EGLL 230920Z AUTO 23007KT 8000 SCT008 BKN011 OVC015
                        20/18 Q1013 TEMPO BKN008=
201708230850 METAR COR EGLL 230850Z AUTO 23007KT 7000 BKN008 OVC016 19/17
                        Q1012 TEMPO SCT008 BKN012=
201708230820 METAR COR EGLL 230820Z AUTO 23007KT 6000 BKN009 OVC012 19/17
                        Q1012 TEMPO SCT009 BKN012=
201708230750 METAR COR EGLL 230750Z AUTO 23004KT 200V270 7000 OVC012 19/17
                        Q1012 TEMPO BKN008=
201708230720 METAR COR EGLL 230720Z AUTO VRB03KT 7000 BKN015 19/17 Q1012
                        TEMPO BKN012=
201708230650 METAR COR EGLL 230650Z VRB03KT 7000 NSC 19/17 Q1012 TEMPO
                        4000 -RADZ BKN008=
201708230620 METAR COR EGLL 230620Z 10003KT 5000 HZ NSC 17/16 Q1012 TEMPO
                        4000 -RADZ BKN008=
201708230550 METAR COR EGLL 230550Z 08003KT 4400 HZ NSC 17/16 Q1012 BECMG
                        6000=
201708230520 METAR COR EGLL 230520Z 06003KT 3000 HZ NSC 16/15 Q1012 TEMPO
                        2500=
201708230450 METAR COR EGLL 230450Z 07003KT 3000 BR NSC 16/15 Q1012 TEMPO
                        2500=
201708230420 METAR COR EGLL 230420Z 08004KT 3300 HZ NSC 16/15 Q1012 TEMPO
                        2500=
201708230350 METAR COR EGLL 230350Z 09005KT 3500 HZ NSC 16/15 Q1012 TEMPO
                        2500=
201708230320 METAR COR EGLL 230320Z 08005KT 4000 HZ NSC 16/15 Q1012 TEMPO
                        2500=
201708230250 METAR COR EGLL 230250Z AUTO 08005KT 3200 HZ NCD 16/15 Q1013
                        NOSIG=
201708230220 METAR COR EGLL 230220Z AUTO 06004KT 3700 HZ NCD 17/15 Q1013
                        NOSIG=
201708230150 METAR EGLL 230150Z AUTO 07004KT 4300 HZ NCD 17/15 Q1013=
201708230120 METAR COR EGLL 230120Z AUTO 09005KT 4400 HZ NCD 17/15 Q1014
                        NOSIG=
201708230050 METAR COR EGLL 230050Z AUTO 09004KT 4700 HZ //////TCU 17/16
                        Q1014 TEMPO 5000=
201708230020 METAR COR EGLL 230020Z AUTO 10007KT 4400 HZ NCD 17/16 Q1014
                        TEMPO 5000=
201708222350 METAR COR EGLL 222350Z AUTO 08005KT 5000 HZ NCD 17/16 Q1014
                        TEMPO 4000 BR=
201708222320 METAR COR EGLL 222320Z AUTO 08005KT 5000 HZ NCD 17/16 Q1014
                        TEMPO 4500=
201708222250 METAR COR EGLL 222250Z AUTO 08005KT 5000 HZ NCD 17/16 Q1015
                        TEMPO 4500=
201708222220 METAR COR EGLL 222220Z AUTO 10007KT 070V150 6000 //////CB
                        18/16 Q1015 NOSIG=
201708222150 METAR COR EGLL 222150Z AUTO 09006KT 8000 -RA //////CB 18/16
                        Q1015 NOSIG=
201708222120 METAR COR EGLL 222120Z AUTO 10009KT 9999 -RA //////CB 19/16
                        Q1015 TEMPO TSRA=
201708222050 METAR COR EGLL 222050Z AUTO 10008KT 9999 //////CB 19/16 Q1016
                        TEMPO TSRA=
201708222020 METAR COR EGLL 222020Z AUTO 12008KT 9999 //////TCU 19/16
                        Q1016 TEMPO SHRA=
201708221950 METAR COR EGLL 221950Z AUTO 13007KT 9999 FEW021/// //////TCU
                        20/16 Q1016 TEMPO SHRA=
201708221920 METAR COR EGLL 221920Z AUTO 11007KT 9999 SCT021/// //////TCU
                        20/16 Q1016 TEMPO SHRA=
201708221850 METAR COR EGLL 221850Z AUTO 09007KT 9999 -RA BKN021 20/17
                        Q1016 NOSIG=
201708221820 METAR COR EGLL 221820Z AUTO 10009KT 9999 OVC022/// //////CB
                        21/16 Q1016 TEMPO SHRA=
201708221750 METAR COR EGLL 221750Z AUTO 09009KT 9999 BKN030/// //////TCU
                        21/17 Q1016 TEMPO SHRA=
201708221720 METAR COR EGLL 221720Z AUTO 10010KT 9999 NCD 21/17 Q1016
                        NOSIG=
201708221650 METAR COR EGLL 221650Z AUTO 10010KT 9999 FEW026 SCT036 22/17
                        Q1016 NOSIG=
201708221620 METAR COR EGLL 221620Z AUTO 09008KT 9999 BKN035 22/17 Q1017
                        NOSIG=
201708221550 METAR COR EGLL 221550Z AUTO 10008KT 9999 BKN027 BKN038 22/17
                        Q1017 NOSIG=
201708221520 METAR COR EGLL 221520Z AUTO 09008KT 9999 BKN028 OVC038 23/17
                        Q1017 NOSIG=
201708221450 METAR EGLL 221450Z AUTO 10005KT 070V140 9999 BKN027 BKN037
                        22/16 Q1017=
201708221420 METAR COR EGLL 221420Z AUTO 09007KT 050V110 9999 FEW036 22/17
                        Q1018 NOSIG=
201708221350 METAR COR EGLL 221350Z AUTO 10009KT 9999 NCD 22/17 Q1018
                        NOSIG=
201708221320 METAR EGLL 221320Z AUTO 09008KT 9999 FEW039 22/17 Q1018=
201708221250 METAR COR EGLL 221250Z AUTO 11007KT 070V140 9999 BKN040 22/17
                        Q1019 NOSIG=
201708221220 METAR COR EGLL 221220Z AUTO 10006KT 060V130 9999 OVC040 22/18
                        Q1019 NOSIG=
201708221150 METAR COR EGLL 221150Z AUTO 08005KT 9999 FEW017 OVC039 22/18
                        Q1019 NOSIG=
201708221120 METAR COR EGLL 221120Z AUTO VRB03KT 9999 OVC038 21/17 Q1020
                        NOSIG=
201708221050 METAR COR EGLL 221050Z AUTO VRB03KT 9999 OVC035 21/17 Q1020
                        NOSIG=
201708221020 METAR COR EGLL 221020Z VRB03KT 9999 SCT013 BKN037 20/17 Q1020
                        NOSIG=
201708220950 METAR COR EGLL 220950Z VRB02KT 9999 SCT012 BKN038 20/17 Q1020
                        NOSIG=
201708220920 METAR COR EGLL 220920Z VRB03KT 9999 FEW009 BKN012 19/16 Q1021
                        BECMG SCT015=
201708220850 METAR COR EGLL 220850Z VRB03KT 9000 FEW008 BKN011 19/17 Q1021
                        NOSIG=
201708220820 METAR COR EGLL 220820Z 14003KT 7000 FEW008 OVC010 18/16 Q1021
                        TEMPO BKN008=
201708220750 METAR COR EGLL 220750Z AUTO 15003KT 7000 BKN006 BKN012 OVC033
                        18/16 Q1020 BECMG SCT012=
201708220720 METAR COR EGLL 220720Z AUTO 15004KT 6000 BKN007 OVC032 18/16
                        Q1020 BECMG SCT012=
201708220650 METAR COR EGLL 220650Z AUTO 17005KT 6000 BKN006 OVC013 17/16
                        Q1020 BECMG BKN010=
201708220620 METAR COR EGLL 220620Z AUTO 16004KT 7000 OVC006 17/16 Q1020
                        BECMG BKN010=
201708220550 METAR COR EGLL 220550Z AUTO 16005KT 7000 BKN007 OVC010 17/16
                        Q1020 TEMPO SCT007 BKN010=
201708220520 METAR COR EGLL 220520Z AUTO 15004KT 6000 BKN007 OVC012 17/16
                        Q1020 TEMPO SCT007 BKN010=
201708220450 METAR COR EGLL 220450Z AUTO 14004KT 5000 HZ OVC006 17/16
                        Q1020 NOSIG=
201708220420 METAR COR EGLL 220420Z AUTO 14004KT 4100 HZ OVC005 17/16
                        Q1020 NOSIG=
201708220350 METAR COR EGLL 220350Z AUTO 16004KT 4200 HZ OVC005 17/16
                        Q1020 TEMPO BKN004=
201708220320 METAR COR EGLL 220320Z AUTO 13005KT 4600 HZ SCT005 OVC008
                        17/16 Q1020 TEMPO BKN004=
201708220250 METAR COR EGLL 220250Z AUTO 13005KT 5000 HZ BKN005 OVC025
                        17/16 Q1020 TEMPO 4000 BR=
201708220220 METAR COR EGLL 220220Z AUTO 15005KT 5000 HZ BKN005 OVC027
                        18/16 Q1020 TEMPO 4000 BR=
201708220150 METAR COR EGLL 220150Z AUTO 16005KT 6000 BKN006 OVC028 18/17
                        Q1020 NOSIG=
201708220120 METAR COR EGLL 220120Z AUTO 15005KT 7000 BKN006 OVC013 18/17
                        Q1020 NOSIG=
201708220050 METAR COR EGLL 220050Z AUTO 13004KT 6000 BKN006 OVC013 18/17
                        Q1020 NOSIG=
201708220020 METAR COR EGLL 220020Z AUTO 14004KT 6000 OVC006 18/17 Q1021
                        NOSIG=
201708212350 METAR COR EGLL 212350Z AUTO 14004KT 7000 OVC006 18/17 Q1021
                        NOSIG=
201708212320 METAR COR EGLL 212320Z AUTO 15004KT 8000 OVC006 18/17 Q1021
                        NOSIG=
201708212250 METAR COR EGLL 212250Z 15003KT 9000 BKN006 BKN033 18/17 Q1021
                        NOSIG=
201708212220 METAR COR EGLL 212220Z 19004KT 110V250 8000 FEW005 BKN006
                        18/17 Q1021 TEMPO SCT006 BKN035=
201708212150 METAR EGLL 212150Z 16004KT 120V230 9000 FEW006 BKN007 18/17
                        Q1021=
201708212120 METAR COR EGLL 212120Z 17005KT 120V220 9999 FEW006 BKN007
                        18/17 Q1021 BECMG 4000 BR=
201708212050 METAR COR EGLL 212050Z 17005KT 130V250 9999 FEW008 BKN011
                        18/17 Q1021 TEMPO BKN008=
201708212020 METAR EGLL 212020Z 17005KT 110V260 9999 SCT011 BKN016 18/17
                        Q1021=
201708211950 METAR COR EGLL 211950Z VRB05KT 9999 FEW010 BKN016 19/17 Q1021
                        NOSIG=
201708211920 METAR COR EGLL 211920Z 16005KT 110V230 9999 SCT012 SCT016
                        BKN041 19/17 Q1021 NOSIG=
201708211850 METAR COR EGLL 211850Z 15004KT 100V220 9999 FEW012 SCT015
                        BKN043 19/17 Q1021 NOSIG=
201708211820 METAR COR EGLL 211820Z 18004KT 130V260 9999 SCT012 BKN017
                        19/17 Q1021 NOSIG=
201708211750 METAR COR EGLL 211750Z 19004KT 130V260 9999 FEW013 BKN019
                        19/16 Q1021 TEMPO BKN0134=
201708211720 METAR COR EGLL 211720Z AUTO VRB03KT 9999 BKN012 OVC017 19/16
                        Q1021 NOSIG=
201708211650 METAR COR EGLL 211650Z AUTO VRB04KT 9999 OVC014 19/17 Q1021
                        TEMPO BKN016=
201708211620 METAR COR EGLL 211620Z AUTO VRB03KT 9999 OVC011 19/16 Q1021
                        TEMPO SCT012 BKN015=
201708211550 METAR COR EGLL 211550Z AUTO VRB03KT 9999 BKN012 OVC021 19/16
                        Q1021 TEMPO SCT012=
201708211520 METAR COR EGLL 211520Z AUTO 09004KT 040V170 9999 OVC013 19/16
                        Q1021 BECMG BKN015=
201708211450 METAR COR EGLL 211450Z AUTO VRB03KT 9999 BKN011 OVC015 19/16
                        Q1021 BECMG SCT012=
201708211420 METAR COR EGLL 211420Z AUTO VRB04KT 9999 OVC012 18/16 Q1021
                        BECMG SCT012 BKN015=
201708211350 METAR COR EGLL 211350Z AUTO 13004KT 090V150 9999 OVC013 18/16
                        Q1021 BECMG BKN015=
201708211320 METAR COR EGLL 211320Z AUTO 13004KT 090V170 9999 OVC013 18/16
                        Q1021 BECMG BKN015=
201708211250 METAR COR EGLL 211250Z AUTO 11005KT 080V150 9999 BKN012 OVC021
                        18/16 Q1021 TEMPO BKN016=
201708211220 METAR COR EGLL 211220Z VRB03KT 9999 FEW011 BKN016 19/16 Q1021
                        NOSIG=
201708211150 METAR COR EGLL 211150Z 12004KT 070V170 9999 FEW008 BKN011
                        19/16 Q1022 NOSIG=
201708211120 METAR COR EGLL 211120Z 12004KT 090V170 9999 FEW008 BKN010
                        18/16 Q1022 TEMPO BKN008=
201708211050 METAR COR EGLL 211050Z 12004KT 090V210 9999 FEW006 BKN008
                        17/16 Q1022 BECMG BKN010=
201708211020 METAR COR EGLL 211020Z 08004KT 9999 FEW005 BKN006 17/15 Q1022
                        BECMG BKN010=
201708210950 METAR COR EGLL 210950Z 08004KT 9999 FEW004 SCT006 BKN008
                        17/16 Q1022 BECMG BKN010=
201708210920 METAR EGLL 210920Z 08005KT 9999 SCT004 BKN007 16/15 Q1022=
201708210850 METAR COR EGLL 210850Z 10005KT 060V130 9000 FEW003 BKN005
                        16/15 Q1021 NOSIG=
201708210820 METAR EGLL 210820Z 10005KT 6000 FEW003 BKN005 16/15 Q1021=
201708210750 METAR COR EGLL 210750Z 10004KT 070V130 5000 BR SCT004 BKN005
                        15/15 Q1021 TEMPO 3500 -DZ BKN004=
201708210720 METAR COR EGLL 210720Z 09004KT 3300 -DZ BR SCT003 BKN005
                        15/15 Q1021 RERA REDZ TEMPO 5000=
201708210650 METAR COR EGLL 210650Z 09005KT 2300 RADZ BR SCT003 BKN004
                        15/14 Q1021 TEMPO SCT003 BKN005=
201708210620 METAR COR EGLL 210620Z 09005KT 2300 RADZ BR BKN003 BKN005
                        15/14 Q1021 TEMPO SCT003 BKN005=
201708210550 METAR COR EGLL 210550Z 09006KT 2000 RADZ BR FEW001 SCT002
                        BKN003 14/14 Q1021 REDZ TEMPO SCT003
                        BKN006=
201708210520 METAR COR EGLL 210520Z AUTO 08007KT 1800 DZ BKN002 OVC008
                        14/14 Q1020 TEMPO 3000 -DZ SCT002
                        BKN006=
201708210450 METAR COR EGLL 210450Z AUTO 08006KT 1800 DZ SCT002 OVC006
                        14/14 Q1020 TEMPO 3000 -DZ=
201708210420 METAR COR EGLL 210420Z AUTO 09006KT 2200 DZ BKN003 OVC007
                        14/14 Q1020 TEMPO 3500 -DZ SCT003
                        BKN007=
201708210350 METAR COR EGLL 210350Z AUTO 09007KT 2300 DZ BKN003 OVC008
                        14/14 Q1020 TEMPO SCT003 BKN006=
201708210320 METAR COR EGLL 210320Z AUTO 10007KT 2200 DZ BKN003 BKN007
                        OVC011 14/14 Q1021 TEMPO 4000 -DZ
                        SCT003 BKN007=
201708210250 METAR COR EGLL 210250Z AUTO 10008KT 2200 -RADZ BKN003 BKN006
                        OVC011 14/13 Q1021 REDZ TEMPO 4000
                        RADZ SCT003 BKN006=
201708210220 METAR COR EGLL 210220Z AUTO 08006KT 2500 DZ SCT004 OVC008
                        14/14 Q1021 TEMPO 4000 -DZ BKN004=
201708210150 METAR COR EGLL 210150Z AUTO 11007KT 4100 -DZ BKN012 OVC022
                        14/13 Q1021 TEMPO 6000 BKN005=
201708210120 METAR COR EGLL 210120Z AUTO 14008KT 4700 -RA BKN026 OVC030
                        14/13 Q1021 TEMPO 6000 BKN012=
201708210050 METAR EGLL 210050Z AUTO 12007KT 4800 -DZ FEW004 SCT024 OVC034
                        14/13 Q1022 RERA REDZ=
201708210020 METAR COR EGLL 210020Z AUTO 13005KT 3300 RADZ FEW005 SCT014
                        BKN019 14/13 Q1022 TEMPO BKN006=
201708202350 METAR COR EGLL 202350Z AUTO 11006KT 3700 -DZ SCT003 BKN014
                        BKN022 14/13 Q1022 RERA REDZ TEMPO
                        BKN006=
201708202320 METAR COR EGLL 202320Z AUTO 13005KT 4200 -RADZ SCT004 BKN010
                        BKN015 14/13 Q1023 RERA REDZ TEMPO
                        BKN006=
201708202250 METAR COR EGLL 202250Z AUTO 13005KT 3800 RA FEW005/// SCT017///
                        BKN027/// //////TCU 14/13 Q1023 REDZ
                        TEMPO 6000 BKN012=
201708202220 METAR COR EGLL 202220Z AUTO 14006KT 3600 -RA SCT019 BKN025
                        OVC033 14/13 Q1023 TEMPO 6000 BKN014=
201708202150 METAR COR EGLL 202150Z AUTO 14005KT 7000 -RA SCT015 BKN023
                        OVC029 14/13 Q1023 TEMPO 4000 RADZ
                        BKN012=
201708202120 METAR COR EGLL 202120Z AUTO 17006KT 9999 -RA FEW007/// BKN021///
                        BKN029/// //////TCU 14/13 Q1023 TEMPO
                        4000 RADZ=
201708202050 METAR COR EGLL 202050Z AUTO 18006KT 7000 -RA FEW005/// SCT016///
                        BKN033/// //////TCU 14/13 Q1024 RERA
                        TEMPO 4000 RA=
201708202020 METAR COR EGLL 202020Z AUTO 23006KT 7000 -RA FEW006/// SCT028///
                        BKN034/// //////TCU 14/13 Q1024 TEMPO
                        4000 RADZ BKN012=
201708201950 METAR COR EGLL 201950Z AUTO 22005KT 9999 -RA OVC046 14/13
                        Q1023 TEMPO 4000 RADZ BKN012=
201708201920 METAR COR EGLL 201920Z AUTO 22005KT 170V260 9999 -RA BKN040
                        15/12 Q1024 TEMPO 4000 RADZ BKN012=
201708201850 METAR COR EGLL 201850Z AUTO 25008KT 9999 OVC039 15/12 Q1024
                        TEMPO 4000 RADZ BKN012=
201708201820 METAR COR EGLL 201820Z AUTO 23010KT 9999 -RA SCT016 BKN024
                        BKN039 16/13 Q1024 TEMPO 4000 RADZ
                        BKN012=
201708201750 METAR COR EGLL 201750Z AUTO 22010KT 9999 -RA BKN041 16/13
                        Q1023 TEMPO RA=
201708201720 METAR COR EGLL 201720Z AUTO 21010KT 9999 -RA BKN040 OVC048
                        17/13 Q1023 NOSIG=
201708201650 METAR COR EGLL 201650Z AUTO 25010KT 9999 -RA NCD 19/11 Q1023
                        NOSIG=
201708201620 METAR COR EGLL 201620Z AUTO 24011KT 9999 FEW040 20/11 Q1023
                        NOSIG=
201708201550 METAR COR EGLL 201550Z AUTO 21009G20KT 180V250 9999 BKN040
                        20/11 Q1023 TEMPO RA=
201708201520 METAR COR EGLL 201520Z AUTO 23008KT 190V260 9999 SCT047 20/09
                        Q1023 NOSIG=
201708201450 METAR COR EGLL 201450Z AUTO 22010KT 9999 NCD 20/09 Q1023
                        NOSIG=
201708201420 METAR COR EGLL 201420Z AUTO 24008KT 200V270 9999 NCD 20/08
                        Q1023 NOSIG=
201708201350 METAR COR EGLL 201350Z AUTO 24011KT 9999 NCD 20/08 Q1023
                        NOSIG=
201708201320 METAR COR EGLL 201320Z AUTO 24013KT 9999 BKN047 21/08 Q1024
                        NOSIG=
201708201250 METAR COR EGLL 201250Z AUTO 23010KT 200V270 9999 BKN046 20/09
                        Q1024 NOSIG=
201708201220 METAR COR EGLL 201220Z AUTO 25011KT 9999 BKN048 19/09 Q1024
                        NOSIG=
201708201150 METAR COR EGLL 201150Z AUTO 27010KT 9999 BKN045 19/08 Q1024
                        NOSIG=
201708201120 METAR COR EGLL 201120Z AUTO 28010KT 240V300 9999 BKN048 19/08
                        Q1024 NOSIG=
201708201050 METAR COR EGLL 201050Z AUTO 28009KT 9999 BKN043 19/09 Q1024
                        NOSIG=
201708201020 METAR COR EGLL 201020Z AUTO 26009KT 210V290 9999 FEW041 BKN049
                        19/08 Q1024 NOSIG=
201708200950 METAR COR EGLL 200950Z AUTO 27010KT 9999 FEW038 18/10 Q1024
                        NOSIG=
201708200920 METAR COR EGLL 200920Z AUTO 27006KT 220V310 9999 NCD 17/10
                        Q1024 NOSIG=
201708200850 METAR COR EGLL 200850Z AUTO 27007KT 9999 NCD 16/11 Q1024
                        NOSIG=
201708200820 METAR COR EGLL 200820Z AUTO 27007KT 9999 NCD 15/11 Q1024
                        NOSIG=
201708200750 METAR COR EGLL 200750Z AUTO 26006KT 230V300 9999 NCD 14/11
                        Q1024 NOSIG=
201708200720 METAR COR EGLL 200720Z AUTO 25004KT 220V290 9999 NCD 13/10
                        Q1024 NOSIG=
201708200650 METAR COR EGLL 200650Z AUTO 24005KT 210V280 9999 NCD 12/10
                        Q1023 NOSIG=
201708200620 METAR COR EGLL 200620Z AUTO 23006KT 9999 NCD 11/10 Q1023
                        NOSIG=
201708200550 METAR COR EGLL 200550Z AUTO 24006KT 9999 NCD 10/09 Q1023
                        NOSIG=
201708200520 METAR COR EGLL 200520Z AUTO 23005KT 9999 NCD 10/09 Q1023
                        NOSIG=
201708200450 METAR COR EGLL 200450Z AUTO 27004KT 9999 NCD 10/09 Q1022
                        NOSIG=
201708200420 METAR COR EGLL 200420Z AUTO 27005KT 9999 NCD 11/09 Q1022
                        NOSIG=
201708200350 METAR COR EGLL 200350Z AUTO 26004KT 9999 NCD 11/09 Q1022
                        NOSIG=
201708200320 METAR COR EGLL 200320Z AUTO 25008KT 9999 NCD 12/09 Q1022
                        NOSIG=
201708200250 METAR COR EGLL 200250Z AUTO 26007KT 9999 NCD 11/09 Q1022
                        NOSIG=
201708200220 METAR COR EGLL 200220Z AUTO 27008KT 9999 NCD 12/09 Q1022
                        NOSIG=
201708200150 METAR COR EGLL 200150Z AUTO 27008KT 9999 NCD 12/09 Q1022
                        NOSIG=
201708200120 METAR COR EGLL 200120Z AUTO 27007KT 9999 NCD 12/09 Q1022
                        NOSIG=
201708200050 METAR COR EGLL 200050Z AUTO 25008KT 9999 NCD 13/09 Q1022
                        NOSIG=
201708200020 METAR COR EGLL 200020Z AUTO 26007KT 9999 NCD 13/09 Q1022
                        NOSIG=
201708192350 METAR COR EGLL 192350Z AUTO 26007KT 9999 NCD 13/09 Q1022
                        NOSIG=
201708192320 METAR COR EGLL 192320Z AUTO 25008KT 9999 NCD 13/09 Q1021
                        NOSIG=
201708192250 METAR COR EGLL 192250Z AUTO 27007KT 9999 NCD 13/09 Q1021
                        NOSIG=
201708192220 METAR COR EGLL 192220Z AUTO 25008KT 9999 NCD 14/09 Q1021
                        NOSIG=
201708192150 METAR COR EGLL 192150Z AUTO 25009KT 9999 NCD 14/09 Q1021
                        NOSIG=
201708192120 METAR COR EGLL 192120Z AUTO 25011KT 9999 NCD 15/09 Q1021
                        NOSIG=
201708192050 METAR COR EGLL 192050Z AUTO 26010KT 9999 NCD 15/09 Q1021
                        NOSIG=
201708192020 METAR COR EGLL 192020Z AUTO 27009KT 9999 NCD 15/08 Q1021
                        NOSIG=
201708191950 METAR COR EGLL 191950Z AUTO 27009KT 9999 NCD 16/08 Q1020
                        NOSIG=
201708191920 METAR COR EGLL 191920Z AUTO 27011KT 9999 NCD 16/08 Q1020
                        NOSIG=
201708191850 METAR COR EGLL 191850Z AUTO 27012KT 9999 NCD 17/08 Q1019
                        NOSIG=
201708191820 METAR COR EGLL 191820Z AUTO 27015KT 9999 NCD 18/08 Q1019
                        NOSIG=
201708191750 METAR COR EGLL 191750Z AUTO 27016KT 9999 NCD 18/08 Q1019
                        NOSIG=
201708191720 METAR COR EGLL 191720Z AUTO 27016KT 9999 NCD 18/08 Q1019
                        NOSIG=
201708191650 METAR COR EGLL 191650Z AUTO 27019KT 9999 NCD 19/08 Q1019
                        NOSIG=
201708191620 METAR COR EGLL 191620Z AUTO 28017KT 9999 NCD 19/08 Q1019
                        NOSIG=
201708191550 METAR COR EGLL 191550Z AUTO 28017KT 9999 NCD 19/08 Q1018
                        NOSIG=
201708191520 METAR COR EGLL 191520Z AUTO 28016KT 9999 NCD 20/07 Q1018
                        NOSIG=
201708191450 METAR COR EGLL 191450Z AUTO 27017KT 9999 NCD 20/08 Q1018
                        NOSIG=
201708191420 METAR COR EGLL 191420Z AUTO 27017KT 9999 NCD 19/08 Q1018
                        NOSIG=
201708191350 METAR COR EGLL 191350Z AUTO 27013KT 240V300 9999 NCD 19/09
                        Q1018 NOSIG=
201708191320 METAR COR EGLL 191320Z AUTO 27016KT 9999 NCD 20/09 Q1018
                        NOSIG=
201708191250 METAR COR EGLL 191250Z AUTO 27016KT 9999 FEW049 19/08 Q1018
                        NOSIG=
201708191220 METAR COR EGLL 191220Z AUTO 26014KT 9999 FEW049 19/09 Q1017
                        NOSIG=
201708191150 METAR COR EGLL 191150Z AUTO 27015KT 9999 NCD 19/09 Q1017
                        NOSIG=
201708191120 METAR COR EGLL 191120Z AUTO 27014KT 9999 FEW041 SCT047 19/09
                        Q1017 NOSIG=
201708191050 METAR COR EGLL 191050Z AUTO 27015KT 9999 SCT037 18/10 Q1017
                        NOSIG=
201708191020 METAR COR EGLL 191020Z AUTO 27015KT 9999 FEW039 18/09 Q1017
                        NOSIG=
201708190950 METAR COR EGLL 190950Z AUTO 26015KT 9999 SCT031 18/10 Q1017
                        NOSIG=
201708190920 METAR COR EGLL 190920Z AUTO 27013KT 9999 SCT027 17/10 Q1017
                        NOSIG=
201708190850 METAR COR EGLL 190850Z AUTO 26012KT 9999 FEW027 17/11 Q1017
                        NOSIG=
201708190820 METAR COR EGLL 190820Z AUTO 26013KT 230V290 9999 FEW026 16/11
                        Q1017 NOSIG=
201708190750 METAR COR EGLL 190750Z AUTO 27012KT 9999 NCD 15/11 Q1017
                        NOSIG=
201708190720 METAR COR EGLL 190720Z AUTO 26012KT 9999 NCD 15/11 Q1017
                        NOSIG=
201708190650 METAR COR EGLL 190650Z AUTO 27010KT 9999 NCD 14/11 Q1016
                        NOSIG=
201708190620 METAR COR EGLL 190620Z AUTO 27008KT 9999 NCD 14/11 Q1016
                        NOSIG=
201708190550 METAR COR EGLL 190550Z AUTO 27010KT 9999 NCD 13/11 Q1015
                        NOSIG=
201708190520 METAR COR EGLL 190520Z AUTO 27009KT 9999 NCD 13/11 Q1015
                        NOSIG=
201708190450 METAR COR EGLL 190450Z AUTO 27009KT 9999 NCD 13/11 Q1015
                        NOSIG=
201708190420 METAR COR EGLL 190420Z AUTO 26009KT 9999 NCD 13/11 Q1014
                        NOSIG=
201708190350 METAR COR EGLL 190350Z AUTO 25008KT 9999 NCD 14/12 Q1014
                        NOSIG=
201708190320 METAR COR EGLL 190320Z AUTO 25008KT 9999 SCT030 14/12 Q1014
                        NOSIG=
201708190250 METAR COR EGLL 190250Z AUTO 26011KT 9999 SCT039 14/12 Q1013
                        NOSIG=
201708190220 METAR COR EGLL 190220Z AUTO 25011KT 9999 BKN040 14/12 Q1013
                        NOSIG=
201708190150 METAR COR EGLL 190150Z AUTO 26009KT 9999 BKN035 14/12 Q1013
                        NOSIG=
201708190120 METAR COR EGLL 190120Z AUTO 26012KT 9999 SCT036 14/12 Q1013
                        NOSIG=
201708190050 METAR COR EGLL 190050Z AUTO 25014KT 9999 FEW032 14/11 Q1012
                        NOSIG=
201708190020 METAR COR EGLL 190020Z AUTO 25015KT 9999 FEW020 BKN027 BKN045
                        14/11 Q1012 NOSIG=
201708182350 METAR COR EGLL 182350Z AUTO 25016KT 9999 FEW025 BKN031 OVC047
                        15/11 Q1012 NOSIG=
201708182320 METAR COR EGLL 182320Z AUTO 24015KT 9999 FEW028 BKN046 15/10
                        Q1012 NOSIG=
201708182250 METAR COR EGLL 182250Z AUTO 24015KT 9999 FEW034 15/10 Q1012
                        NOSIG=
201708182220 METAR COR EGLL 182220Z AUTO 24016KT 9999 SCT038 15/09 Q1011
                        NOSIG=
201708182150 METAR COR EGLL 182150Z AUTO 23015KT 9999 NCD 15/09 Q1011
                        TEMPO SHRA=
201708182120 METAR COR EGLL 182120Z AUTO 21011KT 9999 FEW045 15/10 Q1012
                        TEMPO SHRA=
201708182050 METAR COR EGLL 182050Z AUTO 22011KT 9999 NCD 15/09 Q1012
                        TEMPO SHRA=
201708182020 METAR COR EGLL 182020Z AUTO 23012KT 9999 NCD 15/09 Q1012
                        TEMPO SHRA=
201708181950 METAR COR EGLL 181950Z AUTO 22009KT 9999 NCD 15/10 Q1012
                        NOSIG=
201708181920 METAR COR EGLL 181920Z AUTO 23010KT 9999 NCD 15/10 Q1012
                        NOSIG=
201708181850 METAR COR EGLL 181850Z AUTO 23012KT 9999 NCD 16/10 Q1012
                        NOSIG=
201708181820 METAR COR EGLL 181820Z AUTO 24010KT 9999 NCD 16/10 Q1012
                        NOSIG=
201708181750 METAR COR EGLL 181750Z AUTO 24012KT 9999 NCD 16/11 Q1012
                        NOSIG=
201708181720 METAR COR EGLL 181720Z AUTO 24013KT 9999 NCD 17/11 Q1012
                        NOSIG=
201708181650 METAR COR EGLL 181650Z AUTO 24015KT 9999 NCD 16/11 Q1011
                        NOSIG=
201708181620 METAR COR EGLL 181620Z AUTO 25015KT 9999 NCD 16/11 Q1011
                        NOSIG=
201708181550 METAR COR EGLL 181550Z AUTO 25014KT 9999 FEW042 15/10 Q1011
                        NOSIG=
201708181520 METAR COR EGLL 181520Z AUTO 22013KT 9999 -RA FEW042/// //////CB
                        13/09 Q1012 TEMPO SHRA=
201708181450 METAR COR EGLL 181450Z AUTO 23015KT 9999 -RA //////CB 14/10
                        Q1011 RETS TEMPO SHRA=
201708181420 METAR COR EGLL 181420Z AUTO 26011KT 9999 TS FEW016/// SCT035///
                        //////CB 14/10 Q1011 RETS RESHGR
                        RERA TEMPO SHRA=
201708181350 METAR COR EGLL 181350Z AUTO 27012KT 9999 -RA VCTS FEW040///
                        //////CB 15/12 Q1011 RESHRA TEMPO
                        4000 +TSRA=
201708181320 METAR COR EGLL 181320Z 28012KT 9999 SHRA SCT053CB 17/12 Q1011
                        TEMPO TSRA=
201708181250 METAR COR EGLL 181250Z 30008KT 9999 -SHRA SCT036TCU 15/11
                        Q1011 TEMPO TSRA=
201708181220 METAR COR EGLL 181220Z 28014KT 9999 -SHRA SCT036TCU 19/11
                        Q1010 TEMPO 4000 +TSRA=
201708181150 METAR COR EGLL 181150Z 24015KT 200V260 9999 FEW036TCU 19/10
                        Q1010 TEMPO SHRA=
201708181120 METAR COR EGLL 181120Z 23015KT 9999 -SHRA FEW036TCU SCT046
                        17/11 Q1011 TEMPO SHRA=
201708181050 METAR COR EGLL 181050Z AUTO 26011KT 220V290 9999 FEW036///
                        //////CB 19/10 Q1011 TEMPO SHRA=
201708181020 METAR COR EGLL 181020Z AUTO 25012G22KT 9999 FEW036 19/10
                        Q1011 NOSIG=
201708180950 METAR COR EGLL 180950Z AUTO 25015KT 220V280 9999 FEW034 19/11
                        Q1011 NOSIG=
201708180920 METAR COR EGLL 180920Z AUTO 25013KT 9999 SCT028 BKN043 18/12
                        Q1011 NOSIG=
201708180850 METAR COR EGLL 180850Z AUTO 25015KT 9999 SCT026 SCT032 18/12
                        Q1011 NOSIG=
201708180820 METAR COR EGLL 180820Z AUTO 24013KT 9999 FEW019 17/13 Q1011
                        NOSIG=
201708180750 METAR COR EGLL 180750Z AUTO 24013KT 9999 SCT016 17/13 Q1011
                        NOSIG=
201708180720 METAR COR EGLL 180720Z AUTO 24012KT 200V270 9999 NCD 16/14
                        Q1010 NOSIG=
201708180650 METAR COR EGLL 180650Z AUTO 23012KT 9999 NCD 16/14 Q1010
                        NOSIG=
201708180620 METAR COR EGLL 180620Z AUTO 24011KT 9999 NCD 15/13 Q1010
                        NOSIG=
201708180550 METAR COR EGLL 180550Z AUTO 24011KT 9999 NCD 15/13 Q1010
                        NOSIG=
201708180520 METAR COR EGLL 180520Z AUTO 24009KT 9999 NCD 15/14 Q1010
                        NOSIG=
201708180450 METAR COR EGLL 180450Z AUTO 24010KT 9999 -RA //////CB 16/14
                        Q1009 RERA NOSIG=
201708180420 METAR COR EGLL 180420Z AUTO 21007KT 4800 RA FEW016/// BKN025///
                        BKN038/// //////CB 16/15 Q1009 RERA
                        BECMG 9999 NSW=
201708180350 METAR COR EGLL 180350Z AUTO 20006KT 6000 -RA FEW048 16/15
                        Q1010 TEMPO SHRA=
201708180320 METAR COR EGLL 180320Z AUTO 19007KT 9999 NCD 16/14 Q1010
                        TEMPO SHRA=
201708180250 METAR COR EGLL 180250Z AUTO 20008KT 9999 NCD 16/14 Q1010
                        TEMPO SHRA=
201708180220 METAR COR EGLL 180220Z AUTO 20009KT 9999 FEW023 16/14 Q1011
                        TEMPO SHRA=
201708180150 METAR COR EGLL 180150Z AUTO 20007KT 9999 NCD 16/14 Q1011
                        TEMPO SHRA=
201708180120 METAR COR EGLL 180120Z AUTO 20007KT 9999 NCD 16/14 Q1011
                        NOSIG=
201708180050 METAR COR EGLL 180050Z AUTO 22008KT 9999 NCD 16/14 Q1011
                        NOSIG=
201708180020 METAR COR EGLL 180020Z AUTO 22011KT 9999 NCD 16/14 Q1011
                        NOSIG=
201708172350 METAR COR EGLL 172350Z AUTO 22007KT 9999 NCD 16/14 Q1011
                        NOSIG=
201708172320 METAR COR EGLL 172320Z AUTO 23009KT 9999 NCD 17/14 Q1011
                        NOSIG=
201708172250 METAR COR EGLL 172250Z AUTO 22008KT 9999 NCD 17/14 Q1012
                        NOSIG=
201708172220 METAR COR EGLL 172220Z AUTO 21010KT 9999 FEW021 17/14 Q1012
                        NOSIG=
201708172150 METAR COR EGLL 172150Z AUTO 22010KT 9999 SCT020 17/14 Q1012
                        NOSIG=
201708172120 METAR COR EGLL 172120Z AUTO 22011KT 9999 FEW019 17/14 Q1012
                        NOSIG=
201708172050 METAR COR EGLL 172050Z AUTO 22012KT 9999 NCD 18/14 Q1012
                        NOSIG=
201708172020 METAR COR EGLL 172020Z AUTO 22012KT 9999 NCD 18/14 Q1012
                        NOSIG=
201708171950 METAR COR EGLL 171950Z AUTO 21011KT 9999 NCD 19/15 Q1012
                        NOSIG=
201708171920 METAR COR EGLL 171920Z AUTO 22012KT 9999 NCD 20/15 Q1012
                        NOSIG=
201708171850 METAR COR EGLL 171850Z AUTO 22013G24KT 9999 SCT029 20/14
                        Q1012 NOSIG=
201708171820 METAR COR EGLL 171820Z AUTO 22013KT 9999 SCT032 BKN049 21/14
                        Q1012 NOSIG=
201708171750 METAR COR EGLL 171750Z AUTO 22014KT 9999 FEW033 SCT040 21/14
                        Q1011 NOSIG=
201708171720 METAR COR EGLL 171720Z AUTO 22014KT 9999 BKN032/// BKN047///
                        22/14 Q1011 NOSIG=
201708171650 METAR COR EGLL 171650Z AUTO 25014KT 9999 BKN041 23/13 Q1011
                        NOSIG=
201708171620 METAR COR EGLL 171620Z AUTO 26012KT 9999 NCD 23/12 Q1011
                        NOSIG=
201708171550 METAR COR EGLL 171550Z AUTO 26017KT 9999 SCT035 SCT049 23/13
                        Q1011 NOSIG=
201708171520 METAR COR EGLL 171520Z AUTO 25015KT 9999 BKN035 23/14 Q1011
                        NOSIG=
201708171450 METAR COR EGLL 171450Z AUTO 23015KT 9999 SCT035 BKN047 24/14
                        Q1011 NOSIG=
201708171420 METAR COR EGLL 171420Z AUTO 23015KT 9999 BKN034 24/15 Q1011
                        NOSIG=
201708171350 METAR COR EGLL 171350Z AUTO 24014KT 9999 BKN034 24/15 Q1011
                        NOSIG=
201708171320 METAR COR EGLL 171320Z AUTO 24012KT 210V270 9999 BKN036 24/15
                        Q1011 NOSIG=
201708171250 METAR COR EGLL 171250Z AUTO 26014KT 9999 SCT040 25/14 Q1011
                        NOSIG=
201708171220 METAR COR EGLL 171220Z AUTO 25017KT 210V280 9999 SCT037 23/13
                        Q1011 NOSIG=
201708171150 METAR COR EGLL 171150Z AUTO 24016G27KT 9999 FEW038 23/13
                        Q1011 NOSIG=
201708171120 METAR COR EGLL 171120Z AUTO 25014KT 9999 BKN025 22/15 Q1011
                        NOSIG=
201708171050 METAR COR EGLL 171050Z 23013KT 9999 FEW019 SCT034 21/16 Q1011
                        NOSIG=
201708171020 METAR COR EGLL 171020Z 24014KT 9999 FEW013 BKN020 21/17 Q1011
                        NOSIG=
201708170950 METAR COR EGLL 170950Z 22012KT 9999 SCT013 SCT018 21/18 Q1011
                        NOSIG=
201708170920 METAR COR EGLL 170920Z 22011KT 180V240 9999 SCT009 BKN011
                        19/17 Q1011 BECMG FEW011 SCT018=
201708170850 METAR COR EGLL 170850Z 22011KT 180V250 9999 FEW007 SCT009
                        BKN017 19/18 Q1010 TEMPO BKN012=
201708170820 METAR COR EGLL 170820Z 22009KT 9999 FEW007 SCT008 BKN010
                        19/17 Q1010 BECMG FEW010 SCT020=
201708170750 METAR COR EGLL 170750Z 23009KT 9999 FEW006 BKN007 18/17 Q1010
                        TEMPO BKN010=
201708170720 METAR COR EGLL 170720Z 21007KT 170V240 9999 FEW005 BKN009
                        18/17 Q1010 TEMPO BKN010=
201708170650 METAR COR EGLL 170650Z 20009KT 9999 FEW007 BKN008 18/17 Q1010
                        TEMPO BKN010=
201708170620 METAR COR EGLL 170620Z 20007KT 160V240 9999 -RA FEW005 BKN008
                        18/17 Q1010 TEMPO BKN010=
201708170550 METAR COR EGLL 170550Z 21008KT 9999 -RA FEW006 BKN008 18/17
                        Q1010 TEMPO RA=
201708170520 METAR COR EGLL 170520Z 21008KT 9999 -RA FEW005 BKN006 17/16
                        Q1010 TEMPO RA=
201708170450 METAR COR EGLL 170450Z 20008KT 9999 -RA FEW004 SCT006 BKN008
                        17/16 Q1010 TEMPO RA=
201708170420 METAR COR EGLL 170420Z 19009KT 9999 FEW004 SCT006 BKN008
                        17/16 Q1010 TEMPO RA=
201708170350 METAR COR EGLL 170350Z 19008KT 9999 -RA SCT006 BKN008 17/16
                        Q1010 TEMPO RA=
201708170320 METAR EGLL 170320Z AUTO 20008KT 9999 -RA OVC006/// //////TCU
                        17/16 Q1011=
201708170250 METAR COR EGLL 170250Z AUTO 18008KT 9999 -RA BKN006 16/15
                        Q1011 TEMPO SCT006 BKN010=
201708170220 METAR COR EGLL 170220Z AUTO 19010KT 9999 SCT010/// BKN015///
                        //////CB 17/15 Q1012 TEMPO RA BKN012=
201708170150 METAR COR EGLL 170150Z AUTO 18009KT 9999 FEW020 BKN029 16/15
                        Q1012 TEMPO RA BKN012=
201708170120 METAR COR EGLL 170120Z AUTO 17008KT 9999 BKN031 OVC046 16/15
                        Q1012 TEMPO RA BKN012=
201708170050 METAR COR EGLL 170050Z AUTO 17008KT 9999 FEW018/// BKN034///
                        //////CB 16/14 Q1013 TEMPO RA BKN012=
201708170020 METAR COR EGLL 170020Z AUTO 17006KT 9999 -RA SCT022/// BKN038///
                        //////CB 15/14 Q1014 TEMPO RA=
201708162350 METAR COR EGLL 162350Z AUTO 17006KT 8000 -RA FEW025/// BKN040///
                        //////CB 16/13 Q1014 TEMPO RA=
201708162320 METAR COR EGLL 162320Z AUTO 16007KT 9999 //////TCU 17/12
                        Q1014 TEMPO RA=
201708162250 METAR COR EGLL 162250Z AUTO 15007KT 9999 -RA NCD 17/13 Q1015
                        TEMPO RA=
201708162220 METAR COR EGLL 162220Z AUTO 16008KT 9999 NCD 17/12 Q1015
                        TEMPO RA=
201708162150 METAR COR EGLL 162150Z AUTO 17007KT 9999 NCD 17/12 Q1015
                        NOSIG=
201708162120 METAR COR EGLL 162120Z AUTO 16008KT 9999 NCD 16/12 Q1016
                        NOSIG=
201708162050 METAR COR EGLL 162050Z AUTO 18010KT 9999 NCD 17/13 Q1016
                        NOSIG=
201708162020 METAR COR EGLL 162020Z AUTO 17009KT 150V210 9999 NCD 17/12
                        Q1017 NOSIG=
201708161950 METAR COR EGLL 161950Z AUTO 20010KT 180V240 9999 NCD 18/11
                        Q1017 NOSIG=
201708161920 METAR COR EGLL 161920Z AUTO 19011KT 9999 NCD 18/12 Q1017
                        NOSIG=
201708161850 METAR COR EGLL 161850Z AUTO 19010G20KT 9999 NCD 19/12 Q1017
                        NOSIG=
201708161820 METAR COR EGLL 161820Z AUTO 20011KT 9999 FEW042 20/12 Q1017
                        NOSIG=
201708161750 METAR COR EGLL 161750Z AUTO 21012KT 9999 SCT036 20/12 Q1017
                        NOSIG=
201708161720 METAR COR EGLL 161720Z AUTO 20011KT 170V240 9999 SCT037 21/12
                        Q1017 NOSIG=
201708161650 METAR COR EGLL 161650Z AUTO 21013KT 9999 NCD 21/10 Q1017
                        NOSIG=
201708161620 METAR COR EGLL 161620Z AUTO 21013KT 9999 FEW042 21/11 Q1017
                        NOSIG=
201708161550 METAR COR EGLL 161550Z AUTO 21011KT 170V240 9999 NCD 22/11
                        Q1018 NOSIG=
201708161520 METAR COR EGLL 161520Z AUTO 21012KT 9999 NCD 22/10 Q1018
                        NOSIG=
201708161450 METAR COR EGLL 161450Z AUTO 23011KT 9999 FEW048 22/09 Q1018
                        NOSIG=
201708161420 METAR COR EGLL 161420Z AUTO 21011KT 160V250 9999 FEW046 22/09
                        Q1018 NOSIG=
201708161350 METAR COR EGLL 161350Z AUTO 23012KT 9999 SCT041 22/11 Q1019
                        NOSIG=
201708161320 METAR COR EGLL 161320Z AUTO 23009KT 160V260 9999 FEW040 21/11
                        Q1019 NOSIG=
201708161250 METAR COR EGLL 161250Z AUTO 19011KT 170V240 9999 FEW036 20/11
                        Q1019 NOSIG=
201708161220 METAR COR EGLL 161220Z AUTO 21011KT 180V240 9999 BKN033 20/11
                        Q1019 NOSIG=
201708161150 METAR COR EGLL 161150Z AUTO 21011KT 170V250 9999 SCT030 20/12
                        Q1019 NOSIG=
201708161120 METAR COR EGLL 161120Z AUTO 21010KT 150V250 9999 SCT028 19/12
                        Q1020 NOSIG=
201708161050 METAR COR EGLL 161050Z AUTO 23010KT 9999 NCD 19/11 Q1020
                        NOSIG=
201708161020 METAR COR EGLL 161020Z AUTO 20009KT 160V250 9999 FEW017 19/13
                        Q1020 NOSIG=
201708160950 METAR COR EGLL 160950Z AUTO 23010KT 180V260 9999 FEW016 18/14
                        Q1021 NOSIG=
201708160920 METAR COR EGLL 160920Z AUTO 19006KT 150V240 9999 NCD 17/13
                        Q1021 NOSIG=
201708160850 METAR COR EGLL 160850Z AUTO 20006KT 140V260 9999 NCD 17/12
                        Q1021 NOSIG=
201708160820 METAR COR EGLL 160820Z AUTO 19004KT 140V240 9999 NCD 16/12
                        Q1020 NOSIG=
201708160750 METAR COR EGLL 160750Z AUTO VRB02KT 9999 NCD 15/11 Q1020
                        NOSIG=
201708160720 METAR COR EGLL 160720Z AUTO VRB03KT 9999 NCD 14/11 Q1020
                        NOSIG=
201708160650 METAR COR EGLL 160650Z AUTO VRB02KT 9999 NCD 14/11 Q1020
                        NOSIG=
201708160620 METAR COR EGLL 160620Z AUTO 33002KT 9999 NCD 13/10 Q1020
                        NOSIG=
201708160550 METAR COR EGLL 160550Z AUTO VRB01KT 9999 NCD 11/10 Q1020
                        NOSIG=
201708160520 METAR COR EGLL 160520Z AUTO VRB03KT 9999 NCD 12/09 Q1020
                        NOSIG=
201708160450 METAR COR EGLL 160450Z AUTO 27003KT 9999 NCD 12/10 Q1020
                        NOSIG=
201708160420 METAR COR EGLL 160420Z AUTO 27005KT 9999 NCD 12/10 Q1020
                        NOSIG=
201708160350 METAR COR EGLL 160350Z AUTO 21004KT 9999 NCD 12/10 Q1019
                        NOSIG=
201708160320 METAR COR EGLL 160320Z AUTO 16003KT 9999 NCD 12/09 Q1019
                        NOSIG=
201708160250 METAR COR EGLL 160250Z AUTO 28001KT 9999 NCD 12/09 Q1020
                        NOSIG=
201708160220 METAR COR EGLL 160220Z AUTO 28002KT 9999 NCD 13/09 Q1020
                        NOSIG=
201708160150 METAR COR EGLL 160150Z AUTO 27001KT 9999 NCD 14/09 Q1020
                        NOSIG=
201708160120 METAR COR EGLL 160120Z AUTO 32003KT 9999 NCD 13/09 Q1020
                        NOSIG=
201708160050 METAR COR EGLL 160050Z AUTO 29001KT 9999 NCD 13/09 Q1020
                        NOSIG=
201708160020 METAR COR EGLL 160020Z AUTO 28003KT 9999 NCD 13/09 Q1020
                        NOSIG=
201708152350 METAR COR EGLL 152350Z AUTO 30003KT 9999 NCD 13/09 Q1020
                        NOSIG=
201708152320 METAR COR EGLL 152320Z AUTO 29005KT 9999 NCD 14/09 Q1020
                        NOSIG=
201708152250 METAR COR EGLL 152250Z AUTO 28008KT 9999 NCD 14/09 Q1019
                        NOSIG=
201708152220 METAR COR EGLL 152220Z AUTO 28007KT 9999 NCD 16/09 Q1019
                        NOSIG=
201708152150 METAR COR EGLL 152150Z AUTO 27007KT 9999 NCD 17/09 Q1019
                        NOSIG=
201708152120 METAR COR EGLL 152120Z AUTO 28004KT 9999 NCD 17/09 Q1019
                        NOSIG=
201708152050 METAR COR EGLL 152050Z AUTO 28006KT 9999 NCD 18/09 Q1019
                        NOSIG=
201708152020 METAR COR EGLL 152020Z AUTO 28007KT 9999 NCD 18/09 Q1018
                        NOSIG=
201708151950 METAR COR EGLL 151950Z AUTO 27009KT 9999 NCD 19/09 Q1018
                        NOSIG=
201708151920 METAR COR EGLL 151920Z AUTO 27008KT 9999 NCD 20/09 Q1017
                        NOSIG=
201708151850 METAR COR EGLL 151850Z AUTO 27008KT 9999 NCD 20/08 Q1017
                        NOSIG=
201708151820 METAR COR EGLL 151820Z AUTO 27011KT 9999 NCD 21/09 Q1017
                        NOSIG=
201708151750 METAR COR EGLL 151750Z AUTO 26011KT 9999 NCD 22/09 Q1016
                        NOSIG=
201708151720 METAR COR EGLL 151720Z AUTO 29010KT 260V320 9999 NCD 22/10
                        Q1016 NOSIG=
201708151650 METAR COR EGLL 151650Z AUTO 28009KT 9999 NCD 22/10 Q1016
                        NOSIG=
201708151620 METAR COR EGLL 151620Z AUTO 28010KT 250V310 9999 NCD 22/11
                        Q1016 NOSIG=
201708151550 METAR COR EGLL 151550Z AUTO 27012KT 230V310 9999 NCD 23/10
                        Q1016 NOSIG=
201708151520 METAR COR EGLL 151520Z AUTO 26010KT 220V310 9999 NCD 24/10
                        Q1016 NOSIG=
201708151450 METAR COR EGLL 151450Z AUTO 25011KT 220V320 9999 FEW048 23/10
                        Q1016 NOSIG=
201708151420 METAR COR EGLL 151420Z AUTO 26007KT 220V290 9999 BKN046 24/10
                        Q1015 NOSIG=
201708151350 METAR COR EGLL 151350Z AUTO 24010KT 220V290 9999 FEW042 23/10
                        Q1015 NOSIG=
201708151320 METAR COR EGLL 151320Z AUTO 26010KT 9999 SCT041 21/12 Q1015
                        NOSIG=
201708151250 METAR COR EGLL 151250Z AUTO 27008KT 240V320 9999 BKN039 22/12
                        Q1015 NOSIG=
201708151220 METAR COR EGLL 151220Z AUTO 26011KT 9999 SCT036 21/12 Q1015
                        NOSIG=
201708151150 METAR COR EGLL 151150Z AUTO 27011KT 9999 FEW032 SCT048 21/12
                        Q1015 NOSIG=
201708151120 METAR COR EGLL 151120Z AUTO 27010KT 250V310 9999 SCT027 21/13
                        Q1015 NOSIG=
201708151050 METAR COR EGLL 151050Z AUTO 27008KT 240V310 9999 SCT023 21/13
                        Q1015 NOSIG=
201708151020 METAR COR EGLL 151020Z AUTO 26010KT 9999 FEW024 19/14 Q1015
                        NOSIG=
201708150950 METAR COR EGLL 150950Z AUTO 29007KT 9999 SCT016 19/14 Q1015
                        NOSIG=
201708150920 METAR COR EGLL 150920Z AUTO 28007KT 9999 SCT014 18/14 Q1015
                        NOSIG=
201708150850 METAR EGLL 150850Z AUTO 30006KT 260V340 9999 NCD 18/14 Q1014=
201708150820 METAR COR EGLL 150820Z AUTO 28008KT 240V330 9999 NCD 18/14
                        Q1014 NOSIG=
201708150750 METAR COR EGLL 150750Z AUTO 29007KT 9999 NCD 17/14 Q1014
                        NOSIG=
201708150720 METAR COR EGLL 150720Z AUTO 29004KT 260V330 9999 NCD 17/14
                        Q1014 NOSIG=
201708150650 METAR COR EGLL 150650Z VRB03KT 9999 NSC 17/14 Q1014 NOSIG=
201708150620 METAR COR EGLL 150620Z AUTO 29004KT 260V340 8000 NCD 16/14
                        Q1013 NOSIG=
201708150550 METAR COR EGLL 150550Z AUTO 28005KT 9999 NCD 16/14 Q1013
                        NOSIG=
201708150520 METAR COR EGLL 150520Z AUTO VRB03KT 9999 NCD 16/13 Q1013
                        NOSIG=
201708150450 METAR COR EGLL 150450Z AUTO VRB03KT 9999 -RA FEW047/// //////CB
                        16/14 Q1013 NOSIG=
201708150420 METAR EGLL 150420Z AUTO 27003KT 9999 -RA //////CB 16/14 Q1013=
201708150350 METAR COR EGLL 150350Z AUTO 27002KT 9999 //////TCU 16/14
                        Q1013 NOSIG=
201708150320 METAR COR EGLL 150320Z AUTO 27003KT 9999 NCD 16/14 Q1013
                        NOSIG=
201708150250 METAR COR EGLL 150250Z AUTO 26002KT 9999 NCD 16/13 Q1013
                        NOSIG=
201708150220 METAR EGLL 150220Z AUTO VRB02KT 9999 NCD 15/13 Q1013=
201708150150 METAR EGLL 150150Z AUTO VRB01KT 9999 NCD 15/13 Q1013=
201708150120 METAR COR EGLL 150120Z AUTO 17003KT 9999 //////CB 15/13 Q1013
                        NOSIG=
201708150050 METAR COR EGLL 150050Z AUTO VRB03KT 9999 NCD 16/13 Q1014
                        NOSIG=
201708150020 METAR EGLL 150020Z AUTO 26005KT 9999 NCD 16/13 Q1014=
201708142350 METAR EGLL 142350Z AUTO 22003KT 9999 NCD 17/13 Q1014=
201708142320 METAR COR EGLL 142320Z AUTO 21004KT 9999 //////CB 17/13 Q1014
                        NOSIG=
201708142250 METAR COR EGLL 142250Z AUTO 20004KT 9999 NCD 17/12 Q1014
                        NOSIG=
201708142220 METAR COR EGLL 142220Z AUTO 19005KT 9999 NCD 17/12 Q1014
                        NOSIG=
201708142150 METAR COR EGLL 142150Z AUTO 16006KT 9999 NCD 18/12 Q1014
                        NOSIG=
201708142120 METAR COR EGLL 142120Z AUTO 16006KT 110V210 9999 NCD 18/13
                        Q1014 NOSIG=
201708142050 METAR COR EGLL 142050Z AUTO 19008KT 170V240 9999 NCD 19/13
                        Q1015 NOSIG=
201708142020 METAR COR EGLL 142020Z AUTO 19006KT 150V270 9999 NCD 19/13
                        Q1015 NOSIG=
201708141950 METAR COR EGLL 141950Z AUTO 22006KT 180V240 9999 NCD 20/12
                        Q1015 NOSIG=
201708141920 METAR COR EGLL 141920Z AUTO 22006KT 9999 NCD 20/12 Q1015
                        NOSIG=
201708141850 METAR COR EGLL 141850Z AUTO 21007KT 9999 NCD 20/11 Q1015
                        NOSIG=
201708141820 METAR COR EGLL 141820Z AUTO 20006KT 160V270 9999 NCD 21/11
                        Q1014 NOSIG=
201708141750 METAR COR EGLL 141750Z AUTO 19007KT 160V230 9999 -RA //////TCU
                        21/11 Q1014 NOSIG=
201708141720 METAR COR EGLL 141720Z AUTO 20007KT 160V230 9999 NCD 21/11
                        Q1015 NOSIG=
201708141650 METAR COR EGLL 141650Z AUTO 21008KT 190V260 9999 NCD 21/10
                        Q1015 NOSIG=
201708141620 METAR COR EGLL 141620Z AUTO 20011KT 170V230 9999 NCD 21/11
                        Q1015 NOSIG=
201708141550 METAR COR EGLL 141550Z AUTO 21011KT 9999 NCD 22/10 Q1015
                        NOSIG=
201708141520 METAR COR EGLL 141520Z AUTO 19011KT 160V220 9999 NCD 22/11
                        Q1016 NOSIG=
201708141450 METAR COR EGLL 141450Z AUTO 18012KT 150V230 9999 SCT049 22/11
                        Q1016 NOSIG=
201708141420 METAR COR EGLL 141420Z AUTO 20009KT 160V240 9999 BKN043 22/12
                        Q1016 NOSIG=
201708141350 METAR COR EGLL 141350Z AUTO 19009KT 150V240 9999 SCT042 23/12
                        Q1016 NOSIG=
201708141320 METAR COR EGLL 141320Z AUTO 21008KT 150V240 9999 SCT038 23/12
                        Q1016 NOSIG=
201708141250 METAR COR EGLL 141250Z AUTO 19007KT 130V250 9999 SCT040 23/12
                        Q1016 NOSIG=
201708141220 METAR COR EGLL 141220Z AUTO 21010KT 160V240 9999 FEW038 22/12
                        Q1016 NOSIG=
201708141150 METAR COR EGLL 141150Z AUTO 21009KT 140V240 9999 FEW038 22/12
                        Q1017 NOSIG=
201708141120 METAR COR EGLL 141120Z AUTO 19008KT 150V250 9999 FEW037 22/12
                        Q1017 NOSIG=
201708141050 METAR COR EGLL 141050Z AUTO 19009KT 120V240 9999 FEW031 21/12
                        Q1017 NOSIG=
201708141020 METAR COR EGLL 141020Z AUTO 20007KT 130V240 9999 FEW034 20/12
                        Q1018 NOSIG=
201708140950 METAR COR EGLL 140950Z AUTO 18008KT 150V240 9999 NCD 19/12
                        Q1018 NOSIG=
201708140920 METAR COR EGLL 140920Z AUTO 22007KT 140V260 9999 SCT045 19/12
                        Q1019 NOSIG=
201708140850 METAR COR EGLL 140850Z AUTO 20005KT 140V270 9999 FEW045 19/12
                        Q1019 NOSIG=
201708140820 METAR COR EGLL 140820Z AUTO 16004KT 090V240 9999 NCD 18/12
                        Q1019 NOSIG=
201708140750 METAR COR EGLL 140750Z AUTO VRB03KT 9999 NCD 16/11 Q1019
                        NOSIG=
201708140720 METAR COR EGLL 140720Z AUTO VRB03KT 9999 NCD 15/10 Q1019
                        NOSIG=
201708140650 METAR EGLL 140650Z AUTO VRB02KT 9999 NCD 15/10 Q1019=
201708140620 METAR COR EGLL 140620Z AUTO VRB02KT 9999 NCD 14/10 Q1019
                        NOSIG=
201708140550 METAR COR EGLL 140550Z AUTO VRB01KT 9999 NCD 13/09 Q1019
                        NOSIG=
201708140520 METAR COR EGLL 140520Z AUTO VRB02KT 9999 NCD 11/09 Q1019
                        NOSIG=
201708140450 METAR COR EGLL 140450Z AUTO 08002KT 9999 NCD 11/09 Q1019
                        NOSIG=
201708140420 METAR COR EGLL 140420Z AUTO 07002KT 9999 FEW045 11/09 Q1019
                        NOSIG=
201708140350 METAR COR EGLL 140350Z AUTO 08002KT 9999 FEW049 11/09 Q1019
                        NOSIG=
201708140320 METAR COR EGLL 140320Z AUTO 13001KT 9999 NCD 11/09 Q1019
                        NOSIG=
201708140250 METAR COR EGLL 140250Z AUTO 14001KT 9999 NCD 11/10 Q1019
                        NOSIG=
201708140220 METAR COR EGLL 140220Z AUTO 16001KT 9999 NCD 12/10 Q1020
                        NOSIG=
201708140150 METAR COR EGLL 140150Z AUTO 16004KT 9999 NCD 12/09 Q1020
                        NOSIG=
201708140120 METAR COR EGLL 140120Z AUTO 16002KT 9999 NCD 12/10 Q1020
                        NOSIG=
201708140050 METAR COR EGLL 140050Z AUTO 16004KT 9999 NCD 12/10 Q1020
                        NOSIG=
201708140020 METAR COR EGLL 140020Z AUTO 17004KT 9999 NCD 12/10 Q1020
                        NOSIG=
201708132350 METAR COR EGLL 132350Z AUTO 19003KT 9999 NCD 14/10 Q1020
                        NOSIG=
201708132320 METAR COR EGLL 132320Z AUTO 20005KT 9999 NCD 14/10 Q1021
                        NOSIG=
201708132250 METAR COR EGLL 132250Z AUTO 20004KT 9999 NCD 14/10 Q1021
                        NOSIG=
201708132220 METAR COR EGLL 132220Z AUTO 21004KT 9999 NCD 15/10 Q1021
                        NOSIG=
201708132150 METAR COR EGLL 132150Z AUTO 23007KT 190V260 9999 NCD 16/10
                        Q1021 NOSIG=
201708132120 METAR COR EGLL 132120Z AUTO 23008KT 9999 NCD 17/10 Q1021
                        NOSIG=
201708132050 METAR COR EGLL 132050Z AUTO 23008KT 9999 NCD 17/10 Q1021
                        NOSIG=
201708132020 METAR COR EGLL 132020Z AUTO 24009KT 9999 NCD 18/09 Q1021
                        NOSIG=
201708131950 METAR COR EGLL 131950Z AUTO 25008KT 9999 NCD 18/09 Q1021
                        NOSIG=
201708131920 METAR COR EGLL 131920Z AUTO 23007KT 9999 NCD 19/09 Q1021
                        NOSIG=
201708131850 METAR COR EGLL 131850Z AUTO 22008KT 180V260 9999 NCD 19/08
                        Q1020 NOSIG=
201708131820 METAR COR EGLL 131820Z AUTO 20008KT 160V240 9999 NCD 20/07
                        Q1020 NOSIG=
201708131750 METAR COR EGLL 131750Z AUTO 25005KT 150V280 9999 NCD 20/06
                        Q1020 NOSIG=
201708131720 METAR COR EGLL 131720Z AUTO 26006KT 230V310 9999 NCD 21/06
                        Q1020 NOSIG=
201708131650 METAR COR EGLL 131650Z AUTO 26005KT 170V300 9999 NCD 21/06
                        Q1020 NOSIG=
201708131620 METAR COR EGLL 131620Z AUTO 26006KT 220V310 9999 NCD 20/07
                        Q1021 NOSIG=
201708131550 METAR COR EGLL 131550Z AUTO 21006KT 180V260 9999 NCD 20/06
                        Q1021 NOSIG=
201708131520 METAR COR EGLL 131520Z AUTO 23006KT 180V290 9999 NCD 22/06
                        Q1021 NOSIG=
201708131450 METAR COR EGLL 131450Z AUTO 22006KT 160V260 9999 NCD 22/06
                        Q1021 NOSIG=
201708131420 METAR EGLL 131420Z AUTO 22007KT 140V310 9999 NCD 22/06 Q1021=
201708131350 METAR COR EGLL 131350Z AUTO 26006KT 210V320 9999 NCD 22/06
                        Q1021 NOSIG=
201708131320 METAR COR EGLL 131320Z AUTO 26008KT 230V290 9999 NCD 22/06
                        Q1021 NOSIG=
201708131250 METAR COR EGLL 131250Z AUTO VRB05KT 9999 NCD 21/05 Q1021
                        NOSIG=
201708131220 METAR COR EGLL 131220Z AUTO 28005KT 210V330 9999 NCD 21/06
                        Q1021 NOSIG=
201708131150 METAR COR EGLL 131150Z AUTO VRB03KT 9999 NCD 21/06 Q1022
                        NOSIG=
201708131120 METAR COR EGLL 131120Z AUTO 34004KT 260V050 9999 NCD 20/06
                        Q1022 NOSIG=
201708131050 METAR COR EGLL 131050Z AUTO 35004KT 300V030 9999 NCD 19/06
                        Q1022 NOSIG=
201708131020 METAR COR EGLL 131020Z AUTO 34005KT 280V030 9999 NCD 19/06
                        Q1022 NOSIG=
201708130950 METAR COR EGLL 130950Z AUTO 35004KT 280V060 9999 NCD 19/07
                        Q1022 NOSIG=
201708130920 METAR COR EGLL 130920Z AUTO VRB02KT 9999 NCD 18/07 Q1022
                        NOSIG=
201708130850 METAR COR EGLL 130850Z AUTO 35004KT 310V030 9999 NCD 17/08
                        Q1022 NOSIG=
201708130820 METAR COR EGLL 130820Z AUTO VRB03KT 9999 NCD 16/09 Q1022
                        NOSIG=
201708130750 METAR COR EGLL 130750Z AUTO VRB03KT 9999 NCD 16/09 Q1022
                        NOSIG=
201708130720 METAR COR EGLL 130720Z AUTO VRB03KT 9999 NCD 14/09 Q1022
                        NOSIG=
201708130650 METAR COR EGLL 130650Z AUTO VRB03KT 9999 NCD 14/09 Q1021
                        NOSIG=
201708130620 METAR COR EGLL 130620Z AUTO VRB03KT 9999 NCD 13/09 Q1021
                        NOSIG=
201708130550 METAR COR EGLL 130550Z AUTO 29004KT 9999 NCD 13/09 Q1021
                        NOSIG=
201708130520 METAR COR EGLL 130520Z AUTO 29004KT 9999 NCD 13/09 Q1021
                        NOSIG=
201708130450 METAR COR EGLL 130450Z AUTO 30003KT 9999 NCD 13/08 Q1021
                        NOSIG=
201708130420 METAR COR EGLL 130420Z AUTO 31003KT 9999 NCD 13/09 Q1021
                        NOSIG=
201708130350 METAR COR EGLL 130350Z AUTO 30003KT 9999 NCD 13/09 Q1020
                        NOSIG=
201708130320 METAR COR EGLL 130320Z AUTO 30002KT 9999 NCD 13/08 Q1020
                        NOSIG=
201708130250 METAR COR EGLL 130250Z AUTO VRB02KT 9999 NCD 13/09 Q1020
                        NOSIG=
201708130220 METAR COR EGLL 130220Z AUTO VRB03KT 9999 NCD 14/09 Q1020
                        NOSIG=
201708130150 METAR COR EGLL 130150Z AUTO 32004KT 290V360 9999 NCD 15/09
                        Q1020 NOSIG=
201708130120 METAR COR EGLL 130120Z AUTO VRB03KT 9999 NCD 15/09 Q1020
                        NOSIG=
201708130050 METAR COR EGLL 130050Z AUTO 32004KT 290V360 9999 NCD 15/09
                        Q1020 NOSIG=
201708130020 METAR COR EGLL 130020Z AUTO VRB03KT 9999 NCD 15/10 Q1020
                        NOSIG=
201708122350 METAR COR EGLL 122350Z AUTO 31004KT 9999 NCD 16/10 Q1019
                        NOSIG=
201708122320 METAR COR EGLL 122320Z AUTO 30004KT 9999 NCD 16/10 Q1019
                        NOSIG=
201708122250 METAR COR EGLL 122250Z AUTO 29005KT 9999 NCD 17/10 Q1019
                        NOSIG=
201708122220 METAR COR EGLL 122220Z AUTO 29006KT 9999 NCD 17/11 Q1019
                        NOSIG=
201708122150 METAR COR EGLL 122150Z AUTO 29006KT 9999 NCD 18/11 Q1019
                        NOSIG=
201708122120 METAR COR EGLL 122120Z AUTO 31004KT 280V340 9999 BKN047 18/11
                        Q1018 NOSIG=
201708122050 METAR COR EGLL 122050Z AUTO 30005KT 9999 SCT044 18/11 Q1018
                        NOSIG=
201708122020 METAR COR EGLL 122020Z AUTO 29007KT 270V340 9999 FEW045 18/11
                        Q1018 NOSIG=
201708121950 METAR COR EGLL 121950Z AUTO 28009KT 9999 FEW047 19/11 Q1018
                        NOSIG=
201708121920 METAR COR EGLL 121920Z AUTO 27008KT 9999 BKN047 19/11 Q1017
                        NOSIG=
201708121850 METAR COR EGLL 121850Z AUTO 28011KT 9999 NCD 20/10 Q1017=
201708121820 METAR COR EGLL 121820Z AUTO 28008KT 9999 BKN047 21/10 Q1017
                        NOSIG=
201708121750 METAR COR EGLL 121750Z AUTO 28008KT 9999 NCD 20/10 Q1016
                        NOSIG=
201708121720 METAR COR EGLL 121720Z AUTO 31004KT 260V360 9999 NCD 21/10
                        Q1016 NOSIG=
201708121650 METAR COR EGLL 121650Z AUTO 27010KT 9999 SCT048 20/10 Q1016
                        NOSIG=
201708121620 METAR COR EGLL 121620Z AUTO 27010KT 9999 SCT048 21/10 Q1016
                        NOSIG=
201708121550 METAR COR EGLL 121550Z AUTO 26013KT 9999 BKN047 21/11 Q1016
                        NOSIG=
201708121520 METAR COR EGLL 121520Z AUTO 27013KT 9999 BKN045 21/10 Q1016
                        NOSIG=
201708121450 METAR COR EGLL 121450Z AUTO 28011KT 250V320 9999 BKN046 21/11
                        Q1016 NOSIG=
201708121420 METAR COR EGLL 121420Z AUTO 28010KT 250V320 9999 BKN039 20/11
                        Q1016 NOSIG=
201708121350 METAR EGLL 121350Z AUTO 30008KT 9999 OVC037 20/11 Q1016=
201708121320 METAR COR EGLL 121320Z AUTO 29009KT 260V330 9999 OVC039 20/12
                        Q1016 NOSIG=
201708121250 METAR COR EGLL 121250Z AUTO 27012KT 9999 BKN036 20/11 Q1016
                        NOSIG=
201708121220 METAR COR EGLL 121220Z AUTO 27011KT 230V300 9999 BKN035 21/12
                        Q1016 NOSIG=
201708121150 METAR COR EGLL 121150Z AUTO 26013KT 9999 BKN035 21/12 Q1016
                        NOSIG=
201708121120 METAR COR EGLL 121120Z AUTO 27016KT 9999 BKN032 20/12 Q1016
                        NOSIG=
201708121050 METAR COR EGLL 121050Z AUTO 28012KT 9999 BKN030 21/13 Q1015
                        NOSIG=
201708121020 METAR COR EGLL 121020Z AUTO 28012KT 9999 SCT028 BKN041 20/13
                        Q1015 NOSIG=
201708120950 METAR COR EGLL 120950Z AUTO 27009KT 240V300 9999 SCT023 BKN038
                        20/14 Q1015 NOSIG=
201708120920 METAR COR EGLL 120920Z AUTO 28010KT 9999 SCT018 SCT039 19/14
                        Q1015 NOSIG=
201708120850 METAR COR EGLL 120850Z AUTO 27011KT 9999 FEW015 BKN037 19/15
                        Q1015 NOSIG=
201708120820 METAR COR EGLL 120820Z AUTO 28010KT 9999 BKN013 18/15 Q1015
                        BECMG FEW013 SCT040=
201708120750 METAR COR EGLL 120750Z AUTO 27010KT 9999 BKN010 18/15 Q1015
                        BECMG FEW010 SCT040=
201708120720 METAR COR EGLL 120720Z AUTO 26008KT 9999 OVC008 17/15 Q1015
                        BECMG FEW008 SCT040=
201708120650 METAR COR EGLL 120650Z AUTO 26010KT 9999 BKN008 OVC040 17/15
                        Q1015 BECMG FEW008 BKN040=
201708120620 METAR EGLL 120620Z AUTO 27007KT 9999 FEW008 SCT025 BKN040
                        17/16 Q1014=
201708120550 METAR COR EGLL 120550Z AUTO 25007KT 9999 FEW004 BKN022 OVC038
                        17/16 Q1014 NOSIG=
201708120520 METAR COR EGLL 120520Z 26008KT 9999 VCSH FEW005 SCT014 BKN025
                        17/16 Q1014 TEMPO BKN010=
201708120450 METAR COR EGLL 120450Z AUTO 25007KT 9999 BKN008 BKN022 17/15
                        Q1014 BECMG SCT008=
201708120420 METAR COR EGLL 120420Z AUTO 26009KT 9999 SCT009 BKN016 17/15
                        Q1014 TEMPO BKN014=
201708120350 METAR COR EGLL 120350Z AUTO 26008KT 9999 BKN010 OVC023 17/15
                        Q1014 BECMG SCT010 BKN023=
201708120320 METAR COR EGLL 120320Z AUTO 24010KT 9999 SCT009 BKN022 17/15
                        Q1014 TEMPO BKN014=
201708120250 METAR COR EGLL 120250Z AUTO 25009KT 9999 BKN007 OVC017 17/15
                        Q1014 TEMPO SCT007 BKN011=
201708120220 METAR COR EGLL 120220Z AUTO 25009KT 9999 OVC011 17/15 Q1014
                        TEMPO BKN009=
201708120150 METAR COR EGLL 120150Z AUTO 25009KT 9999 OVC011 17/15 Q1014
                        NOSIG=
201708120120 METAR COR EGLL 120120Z AUTO 24010KT 9999 OVC011 17/15 Q1014
                        NOSIG=
201708120050 METAR COR EGLL 120050Z AUTO 24009KT 9999 OVC011 17/15 Q1015
                        NOSIG=
201708120020 METAR COR EGLL 120020Z AUTO 23009KT 9999 BKN011 OVC042 17/15
                        Q1015 NOSIG=
201708112350 METAR COR EGLL 112350Z AUTO 24009KT 9999 BKN010 17/15 Q1015
                        TEMPO BKN009=
201708112320 METAR COR EGLL 112320Z AUTO 24008KT 9999 OVC011 17/15 Q1015
                        NOSIG=
201708112250 METAR COR EGLL 112250Z AUTO 23010KT 9999 OVC011 17/14 Q1016
                        NOSIG=
201708112220 METAR COR EGLL 112220Z AUTO 23010KT 9999 -RA OVC011 17/14
                        Q1016 NOSIG=
201708112150 METAR COR EGLL 112150Z AUTO 23010KT 180V260 9999 BKN012 17/14
                        Q1016 NOSIG=
201708112120 METAR COR EGLL 112120Z AUTO 23012KT 9999 BKN013 17/14 Q1016
                        TEMPO SCT013 BKN016=
201708112050 METAR COR EGLL 112050Z AUTO 24013KT 9999 FEW016 17/14 Q1016
                        TEMPO BKN014=
201708112020 METAR COR EGLL 112020Z 25012KT 9999 -RA FEW019 SCT021 17/14
                        Q1017 TEMPO BKN014=
201708111950 METAR COR EGLL 111950Z AUTO 24012KT 9999 BKN022 18/13 Q1016
                        NOSIG=
201708111920 METAR COR EGLL 111920Z AUTO 25011KT 9999 SCT024 19/13 Q1016
                        TEMPO -RA BKN014=
201708111850 METAR COR EGLL 111850Z AUTO 25012KT 9999 BKN025 18/13 Q1017
                        TEMPO -RA BKN014=
201708111820 METAR COR EGLL 111820Z AUTO 25013KT 9999 BKN027 19/13 Q1017
                        NOSIG=
201708111750 METAR COR EGLL 111750Z AUTO 25012KT 9999 BKN027 19/12 Q1017
                        NOSIG=
201708111720 METAR COR EGLL 111720Z AUTO 26012KT 9999 BKN028 19/12 Q1017
                        NOSIG=
201708111650 METAR COR EGLL 111650Z AUTO 27013KT 9999 BKN029 19/12 Q1017
                        NOSIG=
201708111620 METAR COR EGLL 111620Z 27011KT 9999 FEW030 19/12 Q1017 NOSIG=
201708111550 METAR COR EGLL 111550Z 26014KT 9999 FEW039 19/12 Q1018 NOSIG=
201708111520 METAR COR EGLL 111520Z 27015KT 9999 BKN035 19/12 Q1018 NOSIG=
201708111450 METAR COR EGLL 111450Z AUTO 26014KT 220V280 9999 BKN040 21/11
                        Q1018 NOSIG=
201708111420 METAR COR EGLL 111420Z AUTO 26013KT 9999 NCD 22/10 Q1018
                        NOSIG=
201708111350 METAR COR EGLL 111350Z AUTO 25011KT 220V280 9999 FEW040 21/10
                        Q1018 NOSIG=
201708111320 METAR COR EGLL 111320Z AUTO 25011KT 9999 FEW038 20/11 Q1018
                        NOSIG=
201708111250 METAR COR EGLL 111250Z AUTO 24011KT 9999 FEW038 21/11 Q1018
                        NOSIG=
201708111220 METAR COR EGLL 111220Z AUTO 24011KT 9999 NCD 20/11 Q1018
                        NOSIG=
201708111150 METAR COR EGLL 111150Z AUTO 27011KT 230V300 9999 NCD 20/11
                        Q1019 NOSIG=
201708111120 METAR COR EGLL 111120Z AUTO 25009KT 220V290 9999 NCD 20/10
                        Q1019 NOSIG=
201708111050 METAR COR EGLL 111050Z AUTO 25009KT 210V280 9999 NCD 19/10
                        Q1019 NOSIG=
201708111020 METAR COR EGLL 111020Z AUTO 23009KT 9999 FEW004 19/10 Q1019
                        NOSIG=
201708110950 METAR COR EGLL 110950Z AUTO 25011KT 9999 NCD 18/10 Q1019
                        NOSIG=
201708110920 METAR COR EGLL 110920Z AUTO 25009KT 9999 NCD 18/10 Q1019
                        NOSIG=
201708110850 METAR COR EGLL 110850Z AUTO 25009KT 9999 NCD 17/11 Q1020
                        NOSIG=
201708110820 METAR COR EGLL 110820Z AUTO 25007KT 210V280 9999 NCD 16/12
                        Q1020 NOSIG=
201708110750 METAR COR EGLL 110750Z AUTO 24005KT 200V280 9999 NCD 15/12
                        Q1020 NOSIG=
201708110720 METAR COR EGLL 110720Z AUTO 24006KT 210V270 9999 NCD 14/11
                        Q1020 NOSIG=
201708110650 METAR COR EGLL 110650Z AUTO 25005KT 9999 NCD 13/11 Q1020
                        NOSIG=
201708110620 METAR COR EGLL 110620Z AUTO 28005KT 9999 NCD 13/11 Q1020
                        NOSIG=
201708110550 METAR COR EGLL 110550Z AUTO 28004KT 9999 NCD 12/11 Q1021
                        NOSIG=
201708110520 METAR COR EGLL 110520Z AUTO 29002KT 9999 NCD 10/09 Q1021
                        NOSIG=
201708110450 METAR COR EGLL 110450Z AUTO 27003KT 9000 NCD 10/09 Q1021
                        NOSIG=
201708110420 METAR COR EGLL 110420Z AUTO 26004KT 9999 NCD 11/09 Q1020
                        NOSIG=
201708110350 METAR COR EGLL 110350Z AUTO 21003KT 9999 NCD 11/10 Q1021
                        NOSIG=
201708110320 METAR COR EGLL 110320Z AUTO 25002KT 9999 NCD 11/10 Q1021
                        NOSIG=
201708110250 METAR COR EGLL 110250Z AUTO 17003KT 9999 NCD 10/09 Q1021
                        NOSIG=
201708110220 METAR COR EGLL 110220Z AUTO 27003KT 9999 NCD 11/09 Q1021
                        NOSIG=
201708110150 METAR COR EGLL 110150Z AUTO VRB02KT 9999 NCD 11/10 Q1021
                        NOSIG=
201708110120 METAR COR EGLL 110120Z AUTO 28001KT 9999 NCD 12/10 Q1021
                        NOSIG=
201708110050 METAR COR EGLL 110050Z AUTO 10002KT 9999 NCD 11/10 Q1022
                        NOSIG=
201708110020 METAR COR EGLL 110020Z AUTO 31002KT 9999 NCD 12/10 Q1022
                        NOSIG=
201708102350 METAR COR EGLL 102350Z AUTO 29001KT 9999 NCD 13/10 Q1022
                        NOSIG=
201708102320 METAR COR EGLL 102320Z AUTO 00000KT 9999 NCD 14/10 Q1022
                        NOSIG=
201708102250 METAR COR EGLL 102250Z AUTO 08002KT 9999 NCD 13/10 Q1023
                        NOSIG=
201708102220 METAR COR EGLL 102220Z AUTO VRB02KT 9999 NCD 15/09 Q1023
                        NOSIG=
201708102150 METAR COR EGLL 102150Z AUTO 05003KT 9999 NCD 15/09 Q1023
                        NOSIG=
201708102120 METAR COR EGLL 102120Z AUTO 07003KT 9999 NCD 15/08 Q1023
                        NOSIG=
201708102050 METAR COR EGLL 102050Z AUTO 08003KT 9999 NCD 16/08 Q1023
                        NOSIG=
201708102020 METAR COR EGLL 102020Z AUTO 04002KT 9999 NCD 17/08 Q1023
                        NOSIG=
201708101950 METAR COR EGLL 101950Z AUTO VRB02KT 9999 NCD 18/08 Q1023
                        NOSIG=
201708101920 METAR COR EGLL 101920Z AUTO 05003KT 9999 NCD 18/08 Q1023
                        NOSIG=
201708101850 METAR COR EGLL 101850Z AUTO 05004KT 020V090 9999 SCT049 19/08
                        Q1022 NOSIG=
201708101820 METAR COR EGLL 101820Z AUTO 01005KT 310V060 9999 NCD 19/08
                        Q1022 NOSIG=
201708101750 METAR COR EGLL 101750Z AUTO 03005KT 340V090 9999 BKN049 20/08
                        Q1022 NOSIG=
201708101720 METAR COR EGLL 101720Z AUTO 31006KT 290V030 9999 SCT049 19/08
                        Q1022 NOSIG=
201708101650 METAR COR EGLL 101650Z AUTO 34006KT 290V030 9999 SCT047 20/08
                        Q1022 NOSIG=
201708101620 METAR COR EGLL 101620Z AUTO 01007KT 320V070 9999 FEW048 20/09
                        Q1022 NOSIG=
201708101550 METAR COR EGLL 101550Z AUTO 01006KT 330V070 9999 SCT047 20/09
                        Q1023 NOSIG=
201708101520 METAR COR EGLL 101520Z AUTO 03007KT 350V060 9999 FEW046 20/09
                        Q1023 NOSIG=
201708101450 METAR COR EGLL 101450Z AUTO 34008KT 300V030 9999 BKN045 20/09
                        Q1023 NOSIG=
201708101420 METAR COR EGLL 101420Z AUTO 01006KT 320V060 9999 BKN044 19/09
                        Q1024 NOSIG=
201708101350 METAR COR EGLL 101350Z AUTO 35009KT 310V030 9999 BKN042 20/10
                        Q1024 NOSIG=
201708101320 METAR COR EGLL 101320Z AUTO 36006KT 300V050 9999 BKN040 19/10
                        Q1024 NOSIG=
201708101250 METAR COR EGLL 101250Z AUTO 02005KT 310V080 9999 SCT039 19/10
                        Q1024 NOSIG=
201708101220 METAR COR EGLL 101220Z AUTO 02007KT 320V060 9999 FEW037 19/09
                        Q1024 NOSIG=
201708101150 METAR COR EGLL 101150Z AUTO 36007KT 9999 SCT034 19/10 Q1024
                        NOSIG=
201708101120 METAR EGLL 101120Z AUTO 36006KT 320V050 9999 BKN032 18/10
                        Q1024=
201708101050 METAR COR EGLL 101050Z AUTO 36008KT 320V030 9999 BKN031 17/10
                        Q1024 NOSIG=
201708101020 METAR COR EGLL 101020Z AUTO 02008KT 340V060 9999 BKN027 17/10
                        Q1024 NOSIG=
201708100950 METAR COR EGLL 100950Z AUTO 01007KT 310V050 9999 BKN024 17/10
                        Q1024 NOSIG=
201708100920 METAR COR EGLL 100920Z AUTO 03009KT 360V070 9999 FEW022 16/10
                        Q1024 NOSIG=
201708100850 METAR COR EGLL 100850Z AUTO 02008KT 340V050 9999 SCT019 16/11
                        Q1024 NOSIG=
201708100820 METAR COR EGLL 100820Z AUTO 01009KT 320V060 9999 FEW017 15/11
                        Q1024 NOSIG=
201708100750 METAR COR EGLL 100750Z AUTO 02007KT 340V070 9999 FEW016 14/11
                        Q1024 NOSIG=
201708100720 METAR COR EGLL 100720Z AUTO 36009KT 9999 NCD 14/11 Q1024
                        NOSIG=
201708100650 METAR COR EGLL 100650Z AUTO 36007KT 320V030 9999 NCD 13/10
                        Q1024 NOSIG=
201708100620 METAR COR EGLL 100620Z AUTO 35007KT 300V020 9999 NCD 13/10
                        Q1023 NOSIG=
201708100550 METAR COR EGLL 100550Z AUTO 36007KT 9999 NCD 12/10 Q1023
                        NOSIG=
201708100520 METAR COR EGLL 100520Z AUTO 01005KT 330V050 9999 SCT039 12/10
                        Q1023 NOSIG=
201708100450 METAR COR EGLL 100450Z AUTO 36007KT 330V030 9999 BKN042 12/10
                        Q1023 NOSIG=
201708100420 METAR COR EGLL 100420Z AUTO 36009KT 330V030 9999 OVC037 12/10
                        Q1023 NOSIG=
201708100350 METAR COR EGLL 100350Z AUTO 35006KT 310V030 9999 FEW011 OVC037
                        13/10 Q1023 TEMPO BKN008=
201708100320 METAR COR EGLL 100320Z AUTO 35004KT 270V040 9999 FEW014 BKN036
                        13/11 Q1022 TEMPO BKN008=
201708100250 METAR COR EGLL 100250Z AUTO 36005KT 310V040 9999 FEW012 BKN034
                        13/11 Q1022 TEMPO BKN008=
201708100220 METAR EGLL 100220Z AUTO 35006KT 300V030 9999 FEW013 BKN032
                        13/11 Q1022=
201708100150 METAR COR EGLL 100150Z AUTO 01007KT 330V040 9999 FEW014 BKN032
                        13/11 Q1022 TEMPO BKN008=
201708100120 METAR COR EGLL 100120Z AUTO 36007KT 320V050 9999 FEW015 BKN031
                        13/11 Q1022 TEMPO BKN008=
201708100050 METAR COR EGLL 100050Z AUTO 36006KT 320V040 9999 FEW016 13/11
                        Q1022 TEMPO BKN008=
201708100020 METAR COR EGLL 100020Z AUTO 01006KT 330V040 9999 FEW029 14/11
                        Q1022 NOSIG=
201708092350 METAR COR EGLL 092350Z AUTO 01008KT 330V060 9999 FEW021 14/11
                        Q1021 NOSIG=
201708092320 METAR COR EGLL 092320Z AUTO 01007KT 330V040 9999 NCD 14/11
                        Q1021 NOSIG=
201708092250 METAR COR EGLL 092250Z AUTO 01007KT 330V040 9999 FEW030 14/11
                        Q1021 NOSIG=
201708092220 METAR COR EGLL 092220Z AUTO 01008KT 330V060 9999 BKN029 14/12
                        Q1021 NOSIG=
201708092150 METAR COR EGLL 092150Z AUTO 36007KT 330V040 9999 OVC027 14/12
                        Q1021 NOSIG=
201708092120 METAR COR EGLL 092120Z AUTO 36007KT 9999 -RA OVC026 14/12
                        Q1021 NOSIG=
201708092050 METAR COR EGLL 092050Z AUTO 36008KT 9999 -RA BKN028/// BKN043///
                        //////TCU 14/12 Q1021 NOSIG=
201708092020 METAR COR EGLL 092020Z AUTO 36009KT 320V030 9999 -RA SCT035///
                        BKN045/// //////TCU 14/12 Q1020 NOSIG=
201708091950 METAR COR EGLL 091950Z AUTO 36010KT 330V040 9999 -RA OVC032///
                        //////TCU 14/12 Q1020 NOSIG=
201708091920 METAR COR EGLL 091920Z AUTO 36011KT 320V050 9999 -RA BKN030///
                        //////TCU 14/12 Q1020 NOSIG=
201708091850 METAR COR EGLL 091850Z AUTO 36010KT 320V040 9999 -RA BKN026
                        OVC048 14/12 Q1019 NOSIG=
201708091820 METAR COR EGLL 091820Z AUTO 36010KT 330V040 9999 -RA FEW018///
                        OVC026/// //////TCU 14/12 Q1019 TEMPO
                        RA=
201708091750 METAR COR EGLL 091750Z 36010KT 320V040 9000 -RA FEW015 BKN028
                        14/12 Q1019 TEMPO RA BKN014=
201708091720 METAR COR EGLL 091720Z 36010KT 320V060 8000 -RA SCT012 SCT018
                        BKN032 14/12 Q1018 TEMPO RA BKN014=
201708091650 METAR COR EGLL 091650Z 36008KT 330V040 9999 -RA FEW013 SCT017
                        BKN026 14/12 Q1018 TEMPO RA BKN014=
201708091620 METAR COR EGLL 091620Z 35007KT 320V030 9999 -RA FEW013 SCT020
                        BKN024 14/13 Q1018 NOSIG=
201708091550 METAR COR EGLL 091550Z 36008KT 310V030 9999 -RA FEW010 SCT013
                        BKN030 14/12 Q1018 TEMPO BKN012=
201708091520 METAR COR EGLL 091520Z 36009KT 320V030 8000 -RA SCT013 BKN040
                        14/13 Q1018 TEMPO BKN012=
201708091450 METAR COR EGLL 091450Z 36009KT 8000 -RA SCT010 BKN014 15/13
                        Q1017 NOSIG=
201708091420 METAR COR EGLL 091420Z 36008KT 330V040 7000 -RA BKN012 15/14
                        Q1017 RERA NOSIG=
201708091350 METAR COR EGLL 091350Z 36008KT 330V030 5000 RA FEW007 SCT010
                        BKN015 15/14 Q1017 TEMPO BKN012=
201708091320 METAR COR EGLL 091320Z 36006KT 320V030 7000 -RA SCT010 BKN018
                        15/14 Q1016 RERA TEMPO BKN012=
201708091250 METAR COR EGLL 091250Z 35005KT 300V020 8000 -RA FEW008 SCT010
                        BKN026 16/14 Q1016 TEMPO RA BKN012=
201708091220 METAR COR EGLL 091220Z 35005KT 310V040 9999 -RA SCT010 BKN017
                        16/14 Q1016 TEMPO RA BKN012=
201708091150 METAR COR EGLL 091150Z 35005KT 320V040 9000 -RA FEW007 SCT017
                        BKN032 15/14 Q1015 NOSIG=
201708091120 METAR COR EGLL 091120Z 34006KT 280V020 9000 -RA FEW014 BKN026
                        BKN041 15/14 Q1015 NOSIG=
201708091050 METAR COR EGLL 091050Z 32006KT 7000 -RA FEW006 BKN017 OVC043
                        15/13 Q1015 RERA TEMPO -RADZ BKN012=
201708091020 METAR COR EGLL 091020Z 32006KT 290V350 5000 RA FEW007 BKN017
                        BKN036 14/13 Q1015 TEMPO BKN012=
201708090950 METAR COR EGLL 090950Z 34004KT 290V020 7000 -RA FEW007 BKN010
                        14/13 Q1015 TEMPO 4500 RA=
201708090920 METAR COR EGLL 090920Z 35005KT 310V030 9999 -RA FEW010 BKN014CB
                        15/13 Q1014 TEMPO 4500 +RA=
201708090850 METAR COR EGLL 090850Z 34004KT 300V030 9999 -RA FEW006 BKN012CB
                        15/13 Q1014 TEMPO RA=
201708090820 METAR COR EGLL 090820Z 31005KT 290V350 9999 -RA FEW006TCU
                        SCT012 BKN015 15/13 Q1014 TEMPO 4000
                        RA BKN012=
201708090750 METAR COR EGLL 090750Z 30005KT 9000 -RADZ FEW006 SCT012CB
                        BKN017 14/13 Q1014 TEMPO 4000 RADZ=
201708090720 METAR COR EGLL 090720Z VRB03KT 9999 FEW005 SCT010CB BKN014
                        14/13 Q1013 TEMPO 4000 RADZ BKN008=
201708090650 METAR COR EGLL 090650Z 31003KT 9999 FEW006 SCT011CB BKN015
                        14/13 Q1013 TEMPO RA BKN012=
201708090620 METAR COR EGLL 090620Z 31004KT 9000 -RADZ FEW004 BKN012 13/13
                        Q1013 RERA REDZ TEMPO 4000 RADZ BKN008=
201708090550 METAR COR EGLL 090550Z 30004KT 270V340 4000 -RADZ SCT006TCU
                        BKN014 13/12 Q1013 RERA REDZ TEMPO
                        RADZ BKN008=
201708090520 METAR COR EGLL 090520Z 29005KT 9999 SCT006 BKN007 13/12 Q1012
                        TEMPO 4000=
201708090450 METAR COR EGLL 090450Z 28006KT 9999 SCT005 BKN006 13/12 Q1012
                        TEMPO 4000=
201708090420 METAR COR EGLL 090420Z 27006KT 9999 SCT004 BKN007 13/12 Q1012
                        TEMPO 4000 RADZ=
201708090350 METAR COR EGLL 090350Z 29005KT 7000 -RADZ SCT006 BKN013 13/12
                        Q1012 TEMPO BKN006=
201708090320 METAR COR EGLL 090320Z 27007KT 9999 SCT008 BKN011 13/12 Q1012
                        TEMPO BKN008=
201708090250 METAR COR EGLL 090250Z 27008KT 9999 FEW007 SCT009 BKN011
                        13/12 Q1012 TEMPO BKN008=
201708090220 METAR COR EGLL 090220Z 27008KT 9000 FEW008 SCT011 BKN016
                        13/11 Q1012 TEMPO BKN008=
201708090150 METAR COR EGLL 090150Z AUTO 26008KT 9999 BKN011 13/11 Q1012
                        TEMPO -RADZ BKN009=
201708090120 METAR COR EGLL 090120Z AUTO 27008KT 9999 BKN014 OVC029 13/11
                        Q1012 TEMPO SCT014=
201708090050 METAR COR EGLL 090050Z AUTO 27007KT 9999 BKN015 BKN026 13/11
                        Q1012 TEMPO BKN012=
201708090020 METAR COR EGLL 090020Z AUTO 27008KT 9999 FEW012 13/11 Q1012
                        TEMPO BKN012=
201708082350 METAR COR EGLL 082350Z AUTO 27008KT 9999 BKN016 14/11 Q1012
                        TEMPO BKN012=
201708082320 METAR COR EGLL 082320Z AUTO 27007KT 9999 BKN016 14/12 Q1012
                        TEMPO BKN012=
201708082250 METAR COR EGLL 082250Z AUTO 27006KT 9999 NCD 14/11 Q1012
                        NOSIG=
201708082220 METAR COR EGLL 082220Z AUTO 28008KT 9999 FEW035 14/11 Q1012
                        NOSIG=
201708082150 METAR COR EGLL 082150Z AUTO 27009KT 9999 FEW035 14/11 Q1012
                        NOSIG=
201708082120 METAR COR EGLL 082120Z AUTO 29007KT 9999 BKN036 14/11 Q1012
                        NOSIG=
201708082050 METAR COR EGLL 082050Z AUTO 29006KT 9999 OVC033 14/10 Q1012
                        NOSIG=
201708082020 METAR COR EGLL 082020Z AUTO 29006KT 9999 OVC025 15/10 Q1012
                        NOSIG=
201708081950 METAR COR EGLL 081950Z AUTO 29007KT 9999 FEW017 BKN024 15/11
                        Q1012 NOSIG=
201708081920 METAR COR EGLL 081920Z AUTO 29006KT 270V330 9999 BKN015 15/11
                        Q1011 NOSIG=
201708081850 METAR COR EGLL 081850Z 31006KT 9999 FEW018 BKN030 15/11 Q1011
                        NOSIG=
201708081820 METAR COR EGLL 081820Z AUTO 31006KT 9999 FEW018 BKN027 BKN044
                        15/11 Q1011 NOSIG=
201708081750 METAR COR EGLL 081750Z AUTO 33006KT 280V020 9999 BKN017 BKN030
                        15/11 Q1011 NOSIG=
201708081720 METAR COR EGLL 081720Z AUTO 32009KT 9999 SCT018 BKN027 16/11
                        Q1011 NOSIG=
201708081650 METAR COR EGLL 081650Z 32008KT 290V360 9999 FEW018 BKN031
                        16/11 Q1011 NOSIG=
201708081620 METAR COR EGLL 081620Z 33007KT 290V010 9999 FEW017 BKN029
                        16/11 Q1011 TEMPO BKN014=
201708081550 METAR COR EGLL 081550Z 31008KT 9999 SCT014 SCT020 16/12 Q1011
                        TEMPO BKN014=
201708081520 METAR COR EGLL 081520Z 31008KT 280V350 9999 SCT013 BKN018
                        16/12 Q1011 TEMPO -SHRA BKN013=
201708081450 METAR COR EGLL 081450Z 32010KT 280V350 9999 -SHRA FEW014
                        BKN017 15/12 Q1011 TEMPO SHRA BKN014=
201708081420 METAR COR EGLL 081420Z 31008KT 290V350 9999 SCT013 BKN020
                        15/12 Q1010 TEMPO SHRA BKN013=
201708081350 METAR COR EGLL 081350Z 31007KT 280V350 9999 FEW011 BKN014
                        16/12 Q1010 TEMPO SHRA BKN016=
201708081320 METAR COR EGLL 081320Z 31008KT 9999 FEW011 BKN014 15/12 Q1010
                        TEMPO SHRA BKN016=
201708081250 METAR COR EGLL 081250Z 31006KT 280V350 9999 FEW014 BKN019
                        16/12 Q1010 TEMPO SHRA BKN014=
201708081220 METAR COR EGLL 081220Z 32005KT 260V030 9999 FEW016 BKN019
                        16/12 Q1010 TEMPO SHRA BKN014=
201708081150 METAR COR EGLL 081150Z 33006KT 290V040 9999 FEW015 BKN019
                        16/12 Q1010 TEMPO SHRA BKN014=
201708081120 METAR COR EGLL 081120Z 36005KT 310V040 9999 FEW014 BKN018
                        16/12 Q1011 TEMPO SHRA BKN014=
201708081050 METAR COR EGLL 081050Z 35006KT 310V030 9999 FEW013 BKN016
                        16/12 Q1010 TEMPO SHRA BKN013=
201708081020 METAR COR EGLL 081020Z 36006KT 320V040 9999 FEW013 BKN015
                        16/12 Q1010 TEMPO SHRA BKN013=
201708080950 METAR COR EGLL 080950Z 34005KT 300V010 9999 FEW012 BKN015
                        15/12 Q1011 TEMPO SHRA BKN012=
201708080920 METAR EGLL 080920Z 32006KT 280V360 9999 FEW011 BKN012 15/12
                        Q1011=
201708080850 METAR COR EGLL 080850Z 31007KT 9999 BKN012 16/13 Q1011 TEMPO
                        SHRA BKN016=
201708080820 METAR COR EGLL 080820Z 30006KT 260V330 9999 SCT008 BKN012
                        16/13 Q1011 TEMPO SHRA BKN016=
201708080750 METAR COR EGLL 080750Z 30005KT 9999 SCT006 SCT010 15/13 Q1011
                        TEMPO BKN010=
201708080720 METAR COR EGLL 080720Z AUTO 29006KT 9999 SCT006 16/14 Q1011
                        TEMPO BKN008=
201708080650 METAR COR EGLL 080650Z 30004KT 260V320 9999 FEW008 SCT013
                        15/14 Q1011 TEMPO BKN013=
201708080620 METAR COR EGLL 080620Z 31005KT 9999 FEW006 BKN013 15/14 Q1011
                        TEMPO SHRA BKN016=
201708080550 METAR COR EGLL 080550Z 26006KT 9000 -SHRA FEW004 BKN006 15/14
                        Q1011 TEMPO SCT006 BKN012=
201708080520 METAR COR EGLL 080520Z 21005KT 170V270 8000 -SHRA FEW004
                        BKN010 15/14 Q1011 TEMPO SHRA=
201708080450 METAR COR EGLL 080450Z AUTO 19006KT 8000 BKN005 15/14 Q1011
                        TEMPO SCT005 BKN012=
201708080420 METAR COR EGLL 080420Z AUTO VRB02KT 8000 BKN005 BKN012 15/14
                        Q1011 TEMPO SCT005 BKN012=
201708080350 METAR COR EGLL 080350Z AUTO 25003KT 9999 BKN005 15/14 Q1012
                        TEMPO SCT005 BKN014=
201708080320 METAR COR EGLL 080320Z AUTO VRB02KT 9999 -RA BKN005 OVC015
                        16/15 Q1012 TEMPO SHRA=
201708080250 METAR COR EGLL 080250Z AUTO 31002KT 9999 BKN007 16/14 Q1012
                        TEMPO SCT007 BKN012=
201708080220 METAR COR EGLL 080220Z AUTO VRB02KT 9999 SCT006 OVC017 16/14
                        Q1012 TEMPO BKN006=
201708080150 METAR COR EGLL 080150Z AUTO VRB02KT 9999 BKN007 16/14 Q1012
                        TEMPO BKN010=
201708080120 METAR COR EGLL 080120Z AUTO 31002KT 9999 BKN006 16/14 Q1013
                        TEMPO SCT006 BKN012=
201708080050 METAR COR EGLL 080050Z AUTO VRB02KT 9999 SCT005 SCT038 15/14
                        Q1013 TEMPO BKN005=
201708080020 METAR COR EGLL 080020Z AUTO 35002KT 9999 FEW013 15/14 Q1014
                        NOSIG=
201708072350 METAR COR EGLL 072350Z AUTO 32002KT 9999 SCT005 16/14 Q1014
                        TEMPO BKN005=
201708072320 METAR COR EGLL 072320Z AUTO 29003KT 9999 SCT004 16/14 Q1014
                        TEMPO BKN004=
201708072250 METAR COR EGLL 072250Z AUTO 29003KT 9999 BKN003 16/14 Q1015
                        TEMPO SCT003=
201708072220 METAR COR EGLL 072220Z AUTO VRB02KT 9999 NCD 16/14 Q1015
                        NOSIG=
201708072150 METAR COR EGLL 072150Z AUTO 32003KT 9999 FEW008 16/14 Q1015
                        NOSIG=
201708072120 METAR COR EGLL 072120Z AUTO VRB03KT 9999 FEW011 16/14 Q1015
                        NOSIG=
201708072050 METAR COR EGLL 072050Z AUTO 30004KT 260V340 9999 FEW031 BKN049
                        16/14 Q1016 NOSIG=
201708072020 METAR COR EGLL 072020Z AUTO 28006KT 9999 BKN031 OVC047 16/14
                        Q1016 NOSIG=
201708071950 METAR COR EGLL 071950Z AUTO 27007KT 9999 -RA SCT018 OVC034
                        17/14 Q1015 NOSIG=
201708071920 METAR COR EGLL 071920Z AUTO 28006KT 240V320 9999 SCT018///
                        OVC038/// //////TCU 17/14 Q1015 TEMPO
                        SHRA=
201708071850 METAR COR EGLL 071850Z AUTO 27007KT 9999 BKN027/// //////CB
                        17/14 Q1015 TEMPO SHRA=
201708071820 METAR COR EGLL 071820Z AUTO 28007KT 9999 FEW018/// BKN030///
                        //////CB 18/14 Q1015 TEMPO SHRA=
201708071750 METAR COR EGLL 071750Z AUTO 29005KT 9999 SCT021/// SCT042///
                        //////CB 18/15 Q1015 TEMPO SHRA=
201708071720 METAR COR EGLL 071720Z AUTO 31006KT 9999 SCT021/// OVC037///
                        //////CB 19/14 Q1015 TEMPO SHRA=
201708071650 METAR COR EGLL 071650Z AUTO 31006KT 9999 FEW028/// OVC041///
                        //////CB 19/14 Q1016 NOSIG=
201708071620 METAR COR EGLL 071620Z AUTO 29008KT 9999 -RA BKN021/// BKN037///
                        //////TCU 18/14 Q1016 NOSIG=
201708071550 METAR COR EGLL 071550Z AUTO 23009KT 190V260 9999 SCT021///
                        SCT037/// //////CB 20/14 Q1016 NOSIG=
201708071520 METAR COR EGLL 071520Z AUTO 20009KT 9999 BKN037/// //////CB
                        20/14 Q1016 TEMPO SHRA=
201708071450 METAR COR EGLL 071450Z AUTO 21009KT 170V240 9999 BKN037///
                        //////CB 19/14 Q1016 TEMPO SHRA=
201708071420 METAR COR EGLL 071420Z AUTO 21010KT 150V250 9999 FEW024///
                        BKN047/// //////TCU 19/14 Q1016 NOSIG=
201708071350 METAR COR EGLL 071350Z AUTO 22009KT 170V260 9999 BKN020///
                        BKN045/// //////CB 21/14 Q1016 NOSIG=
201708071320 METAR COR EGLL 071320Z AUTO 22009KT 9999 SCT018/// //////CB
                        20/14 Q1017 NOSIG=
201708071250 METAR COR EGLL 071250Z AUTO 21010KT 9999 SCT019/// SCT029///
                        BKN049/// //////CB 20/14 Q1017 NOSIG=
201708071220 METAR COR EGLL 071220Z 22009KT 9999 SCT018 BKN022 19/15 Q1017
                        NOSIG=
201708071150 METAR COR EGLL 071150Z 19010KT 160V230 9999 8000SE -SHRA
                        SCT016 BKN024 19/14 Q1017 NOSIG=
201708071120 METAR COR EGLL 071120Z AUTO 19012KT 160V240 9999 SCT014 BKN040
                        18/14 Q1017 NOSIG=
201708071050 METAR COR EGLL 071050Z 20010KT 170V250 9999 SCT015 BKN027
                        18/14 Q1018 NOSIG=
201708071020 METAR COR EGLL 071020Z 20009KT 170V240 9999 FEW017 BKN031
                        18/14 Q1018 NOSIG=
201708070950 METAR COR EGLL 070950Z 22009KT 180V250 9999 SCT015 BKN023
                        18/14 Q1018 NOSIG=
201708070920 METAR COR EGLL 070920Z 22009KT 9999 SCT017 BKN022 18/14 Q1018
                        NOSIG=
201708070850 METAR COR EGLL 070850Z 22008KT 9999 SCT016 BKN020 17/13 Q1018
                        NOSIG=
201708070820 METAR COR EGLL 070820Z 21007KT 160V250 9999 SCT017 BKN037
                        17/14 Q1018 NOSIG=
201708070750 METAR COR EGLL 070750Z 21007KT 180V270 9999 BKN017 16/13
                        Q1018 NOSIG=
201708070720 METAR COR EGLL 070720Z 20006KT 170V230 9999 BKN022 16/13
                        Q1018 NOSIG=
201708070650 METAR COR EGLL 070650Z 23008KT 9999 FEW013 BKN018 16/13 Q1018
                        NOSIG=
201708070620 METAR COR EGLL 070620Z AUTO 23008KT 9999 FEW012 BKN019 15/13
                        Q1018 NOSIG=
201708070550 METAR COR EGLL 070550Z AUTO 22007KT 9999 FEW021 14/12 Q1018
                        NOSIG=
201708070520 METAR COR EGLL 070520Z AUTO 20006KT 170V230 9999 NCD 14/12
                        Q1018 NOSIG=
201708070450 METAR COR EGLL 070450Z AUTO 19004KT 170V230 9999 SCT042 14/12
                        Q1018 NOSIG=
201708070420 METAR COR EGLL 070420Z AUTO 19005KT 100V250 9999 BKN042 13/12
                        Q1018 NOSIG=
201708070350 METAR COR EGLL 070350Z AUTO 21006KT 9999 BKN042 14/12 Q1019
                        NOSIG=
201708070320 METAR COR EGLL 070320Z AUTO 21007KT 9999 SCT044 13/12 Q1019
                        NOSIG=
201708070250 METAR COR EGLL 070250Z AUTO 22007KT 9999 NCD 14/12 Q1019
                        NOSIG=
201708070220 METAR COR EGLL 070220Z AUTO 22008KT 9999 NCD 13/12 Q1019
                        NOSIG=
201708070150 METAR COR EGLL 070150Z AUTO 22008KT 9999 NCD 13/11 Q1019
                        NOSIG=
201708070120 METAR COR EGLL 070120Z AUTO 22008KT 9999 NCD 13/12 Q1020
                        NOSIG=
201708070050 METAR COR EGLL 070050Z AUTO 21008KT 9999 NCD 14/12 Q1020
                        NOSIG=
201708070020 METAR COR EGLL 070020Z AUTO 21008KT 9999 NCD 14/11 Q1020
                        NOSIG=
201708062350 METAR COR EGLL 062350Z AUTO 22007KT 9999 NCD 14/11 Q1020
                        NOSIG=
201708062320 METAR COR EGLL 062320Z AUTO 23007KT 9999 NCD 14/11 Q1020
                        NOSIG=
201708062250 METAR COR EGLL 062250Z AUTO 22008KT 9999 NCD 15/11 Q1021
                        NOSIG=
201708062220 METAR COR EGLL 062220Z AUTO 23008KT 9999 NCD 15/11 Q1021
                        NOSIG=
201708062150 METAR COR EGLL 062150Z AUTO 22008KT 9999 NCD 15/11 Q1021
                        NOSIG=
201708062120 METAR COR EGLL 062120Z AUTO 22009KT 9999 NCD 16/12 Q1021
                        NOSIG=
201708062050 METAR COR EGLL 062050Z AUTO 22009KT 9999 NCD 17/12 Q1021
                        NOSIG=
201708062020 METAR COR EGLL 062020Z AUTO 21010KT 9999 NCD 17/12 Q1021
                        NOSIG=
201708061950 METAR COR EGLL 061950Z AUTO 22010KT 9999 NCD 17/11 Q1021
                        NOSIG=
201708061920 METAR COR EGLL 061920Z AUTO 22012KT 9999 NCD 18/11 Q1021
                        NOSIG=
201708061850 METAR COR EGLL 061850Z AUTO 22010KT 9999 NCD 18/11 Q1021
                        NOSIG=
201708061820 METAR COR EGLL 061820Z AUTO 22012KT 190V260 9999 FEW035 19/11
                        Q1021 NOSIG=
201708061750 METAR COR EGLL 061750Z AUTO 21011KT 9999 FEW039 19/11 Q1021
                        NOSIG=
201708061720 METAR COR EGLL 061720Z AUTO 23012KT 9999 NCD 20/11 Q1021
                        NOSIG=
201708061650 METAR COR EGLL 061650Z AUTO 22011KT 9999 FEW044 20/11 Q1021
                        NOSIG=
201708061620 METAR COR EGLL 061620Z AUTO 22010KT 180V240 9999 BKN040 20/10
                        Q1021 NOSIG=
201708061550 METAR COR EGLL 061550Z AUTO 23010KT 200V280 9999 BKN047 21/09
                        Q1021 NOSIG=
201708061520 METAR COR EGLL 061520Z AUTO 24011KT 9999 BKN049 21/08 Q1021
                        NOSIG=
201708061450 METAR COR EGLL 061450Z AUTO 24011KT 210V290 9999 NCD 21/08
                        Q1021 NOSIG=
201708061420 METAR COR EGLL 061420Z AUTO 24014KT 9999 NCD 21/08 Q1022
                        NOSIG=
201708061350 METAR COR EGLL 061350Z AUTO 26012KT 9999 NCD 21/07 Q1022
                        NOSIG=
201708061320 METAR EGLL 061320Z AUTO 23011KT 200V280 9999 NCD 20/07 Q1022=
201708061250 METAR COR EGLL 061250Z AUTO 24012KT 9999 BKN049 20/08 Q1022
                        NOSIG=
201708061220 METAR COR EGLL 061220Z AUTO 24013KT 210V270 9999 SCT047 19/07
                        Q1022 NOSIG=
201708061150 METAR COR EGLL 061150Z AUTO 25013KT 220V280 9999 SCT045 19/08
                        Q1022 NOSIG=
201708061120 METAR COR EGLL 061120Z AUTO 27013KT 230V290 9999 FEW041 20/08
                        Q1023 NOSIG=
201708061050 METAR COR EGLL 061050Z AUTO 23012KT 9999 SCT036 20/09 Q1023
                        NOSIG=
201708061020 METAR COR EGLL 061020Z AUTO 24010KT 9999 BKN029 BKN045 19/10
                        Q1023 NOSIG=
201708060950 METAR COR EGLL 060950Z AUTO 24008KT 190V300 9999 FEW023 SCT029
                        18/11 Q1023 NOSIG=
201708060920 METAR COR EGLL 060920Z AUTO 26008KT 180V300 9999 SCT022 18/12
                        Q1023 NOSIG=
201708060850 METAR EGLL 060850Z AUTO 25009KT 210V280 9999 FEW018 17/12
                        Q1023=
201708060820 METAR COR EGLL 060820Z AUTO 24005KT 190V270 9999 NCD 16/12
                        Q1023 NOSIG=
201708060750 METAR COR EGLL 060750Z AUTO 24004KT 170V290 9999 NCD 15/11
                        Q1023 NOSIG=
201708060720 METAR COR EGLL 060720Z AUTO 25004KT 190V300 9999 NCD 14/11
                        Q1023 NOSIG=
201708060650 METAR COR EGLL 060650Z AUTO 24006KT 9999 NCD 13/11 Q1023
                        NOSIG=
201708060620 METAR COR EGLL 060620Z AUTO 22005KT 180V250 9999 NCD 12/10
                        Q1023 NOSIG=
201708060550 METAR COR EGLL 060550Z AUTO 20005KT 160V250 9999 NCD 12/10
                        Q1022 NOSIG=
201708060520 METAR COR EGLL 060520Z AUTO 21005KT 9999 NCD 11/10 Q1022
                        NOSIG=
201708060450 METAR COR EGLL 060450Z AUTO 22004KT 180V240 9999 NCD 11/10
                        Q1022 NOSIG=
201708060420 METAR COR EGLL 060420Z AUTO 21004KT 160V250 9999 NCD 11/10
                        Q1022 NOSIG=
201708060350 METAR COR EGLL 060350Z AUTO 24004KT 9999 NCD 11/10 Q1022
                        NOSIG=
201708060320 METAR COR EGLL 060320Z AUTO 27005KT 9999 NCD 11/09 Q1022
                        NOSIG=
201708060250 METAR COR EGLL 060250Z AUTO 25005KT 9999 NCD 11/10 Q1022
                        NOSIG=
201708060220 METAR COR EGLL 060220Z AUTO 24004KT 9999 NCD 11/09 Q1022
                        NOSIG=
201708060150 METAR COR EGLL 060150Z AUTO 26003KT 9999 NCD 12/10 Q1022
                        NOSIG=
201708060120 METAR COR EGLL 060120Z AUTO 25006KT 9999 NCD 12/10 Q1021
                        NOSIG=
201708060050 METAR COR EGLL 060050Z AUTO 24006KT 9999 NCD 13/10 Q1021
                        NOSIG=
201708060020 METAR COR EGLL 060020Z AUTO 27006KT 9999 NCD 13/10 Q1021
                        NOSIG=
201708052350 METAR COR EGLL 052350Z AUTO 27006KT 9999 NCD 14/10 Q1021
                        NOSIG=
201708052320 METAR COR EGLL 052320Z AUTO 26009KT 9999 NCD 14/10 Q1021
                        NOSIG=
201708052250 METAR COR EGLL 052250Z AUTO 26008KT 9999 NCD 14/10 Q1021
                        NOSIG=
201708052220 METAR COR EGLL 052220Z AUTO 25008KT 9999 NCD 15/10 Q1021
                        NOSIG=
201708052150 METAR COR EGLL 052150Z AUTO 27008KT 9999 NCD 16/10 Q1021
                        NOSIG=
201708052120 METAR COR EGLL 052120Z AUTO 25008KT 9999 NCD 16/09 Q1021
                        NOSIG=
201708052050 METAR COR EGLL 052050Z AUTO 27007KT 9999 NCD 15/09 Q1021
                        NOSIG=
201708052020 METAR COR EGLL 052020Z AUTO 27008KT 9999 NCD 16/09 Q1020
                        NOSIG=
201708051950 METAR COR EGLL 051950Z AUTO 27010KT 9999 NCD 17/08 Q1020
                        NOSIG=
201708051920 METAR COR EGLL 051920Z AUTO 27007KT 9999 FEW046 17/09 Q1019
                        NOSIG=
201708051850 METAR COR EGLL 051850Z AUTO 27009KT 9999 NCD 18/08 Q1019
                        NOSIG=
201708051820 METAR COR EGLL 051820Z AUTO 27010KT 9999 NCD 18/09 Q1019
                        NOSIG=
201708051750 METAR COR EGLL 051750Z AUTO 27012KT 9999 NCD 19/08 Q1019
                        NOSIG=
201708051720 METAR COR EGLL 051720Z AUTO 26010KT 240V300 9999 NCD 20/08
                        Q1019 NOSIG=
201708051650 METAR COR EGLL 051650Z AUTO 24009KT 210V280 9999 NCD 19/09
                        Q1018 NOSIG=
201708051620 METAR COR EGLL 051620Z AUTO 25010KT 9999 NCD 19/10 Q1018
                        NOSIG=
201708051550 METAR COR EGLL 051550Z AUTO 27008KT 220V300 9999 FEW034 19/10
                        Q1018 NOSIG=
201708051520 METAR COR EGLL 051520Z AUTO 30005KT 240V360 9999 FEW030 19/11
                        Q1018 NOSIG=
201708051450 METAR COR EGLL 051450Z AUTO 35005KT 300V040 9999 FEW024///
                        //////CB 17/11 Q1018 NOSIG=
201708051420 METAR COR EGLL 051420Z 34008KT 310V030 9999 -RA VCTS FEW031CB
                        SCT038 19/09 Q1018 TEMPO 4000 +SHRA=
201708051350 METAR COR EGLL 051350Z AUTO 29010KT 270V330 9999 SCT043///
                        //////CB 19/09 Q1017 TEMPO 4000 TSRA=
201708051320 METAR COR EGLL 051320Z AUTO 29011KT 9999 NCD 19/09 Q1017
                        TEMPO 4000 TSRA=
201708051250 METAR COR EGLL 051250Z AUTO 28006KT 250V320 9999 FEW023///
                        //////TCU 18/09 Q1017 TEMPO SHRA=
201708051220 METAR COR EGLL 051220Z AUTO 30008KT 9999 FEW020/// //////CB
                        17/09 Q1017 TEMPO SHRA=
201708051150 METAR COR EGLL 051150Z AUTO 31016G27KT 9999 FEW037/// //////CB
                        17/09 Q1017 TEMPO SHRA=
201708051120 METAR COR EGLL 051120Z AUTO 28007KT 240V330 9999 -RA FEW017///
                        //////CB 19/11 Q1016 TEMPO 4000 TSRA=
201708051050 METAR COR EGLL 051050Z AUTO 28009KT 240V310 9999 SCT037///
                        //////CB 20/11 Q1016 TEMPO SHRA=
201708051020 METAR COR EGLL 051020Z AUTO 24010KT 9999 SCT037/// //////CB
                        20/11 Q1016 TEMPO SHRA=
201708050950 METAR COR EGLL 050950Z AUTO 25007KT 220V300 9999 FEW034///
                        //////CB 19/11 Q1016 TEMPO SHRA=
201708050920 METAR COR EGLL 050920Z AUTO VRB03KT 9999 BKN025 18/12 Q1016
                        TEMPO SHRA=
201708050850 METAR COR EGLL 050850Z AUTO VRB03KT 9999 BKN020 18/12 Q1016
                        NOSIG=
201708050820 METAR COR EGLL 050820Z AUTO VRB02KT 9999 SCT021 SCT034 18/13
                        Q1016 NOSIG=
201708050750 METAR COR EGLL 050750Z AUTO VRB03KT 9999 FEW022 17/12 Q1015
                        NOSIG=
201708050720 METAR COR EGLL 050720Z AUTO 31003KT 9999 NCD 16/14 Q1015
                        NOSIG=
201708050650 METAR COR EGLL 050650Z AUTO VRB03KT 9999 FEW025 15/13 Q1015
                        NOSIG=
201708050620 METAR COR EGLL 050620Z AUTO 29004KT 260V320 9999 -RA FEW011
                        BKN042 15/13 Q1015 NOSIG=
201708050550 METAR COR EGLL 050550Z AUTO 31004KT 9999 FEW012 BKN042 14/13
                        Q1015 NOSIG=
201708050520 METAR COR EGLL 050520Z AUTO VRB02KT 9999 SCT042/// //////TCU
                        14/12 Q1014 NOSIG=
201708050450 METAR COR EGLL 050450Z 29002KT 9999 BKN047 14/12 Q1014 NOSIG=
201708050420 METAR COR EGLL 050420Z 31004KT 280V340 9999 -RA FEW017 BKN048
                        15/12 Q1014 NOSIG=
201708050350 METAR COR EGLL 050350Z AUTO VRB03KT 9999 -RA BKN046 15/12
                        Q1014 NOSIG=
201708050320 METAR COR EGLL 050320Z AUTO 30003KT 9999 SCT045 15/12 Q1014
                        NOSIG=
201708050250 METAR COR EGLL 050250Z AUTO 30003KT 9999 BKN044 16/12 Q1013
                        NOSIG=
201708050220 METAR COR EGLL 050220Z AUTO 32002KT 9999 SCT047 16/12 Q1013
                        NOSIG=
201708050150 METAR COR EGLL 050150Z AUTO 29003KT 9999 NCD 16/13 Q1013
                        NOSIG=
201708050120 METAR COR EGLL 050120Z AUTO 29005KT 9999 NCD 16/13 Q1013
                        NOSIG=
201708050050 METAR COR EGLL 050050Z AUTO 29006KT 9999 NCD 16/13 Q1013
                        NOSIG=
201708050020 METAR COR EGLL 050020Z AUTO 28005KT 9999 NCD 16/13 Q1013
                        NOSIG=
201708042350 METAR COR EGLL 042350Z AUTO 27006KT 9999 NCD 17/13 Q1013
                        NOSIG=
201708042320 METAR COR EGLL 042320Z AUTO 26006KT 9999 NCD 17/13 Q1013
                        NOSIG=
201708042250 METAR COR EGLL 042250Z AUTO 27006KT 9999 NCD 17/13 Q1013
                        NOSIG=
201708042220 METAR COR EGLL 042220Z AUTO 25007KT 9999 NCD 18/13 Q1013
                        NOSIG=
201708042150 METAR COR EGLL 042150Z AUTO 25007KT 9999 NCD 18/13 Q1014
                        NOSIG=
201708042120 METAR COR EGLL 042120Z AUTO 23008KT 9999 NCD 18/12 Q1014
                        NOSIG=
201708042050 METAR COR EGLL 042050Z AUTO 23008KT 9999 //////TCU 18/12
                        Q1013 NOSIG=
201708042020 METAR COR EGLL 042020Z AUTO 24009KT 9999 //////TCU 18/12
                        Q1013 NOSIG=
201708041950 METAR COR EGLL 041950Z AUTO 24009KT 9999 //////TCU 19/12
                        Q1013 NOSIG=
201708041920 METAR COR EGLL 041920Z AUTO 24009KT 9999 FEW045 19/11 Q1013
                        NOSIG=
201708041850 METAR COR EGLL 041850Z AUTO 24011KT 9999 BKN044 20/11 Q1013
                        NOSIG=
201708041820 METAR COR EGLL 041820Z AUTO 24010KT 9999 NCD 20/11 Q1013
                        NOSIG=
201708041750 METAR COR EGLL 041750Z AUTO 25014KT 9999 NCD 20/11 Q1012
                        NOSIG=
201708041720 METAR COR EGLL 041720Z AUTO 25013KT 9999 FEW035/// //////TCU
                        20/10 Q1012 NOSIG=
201708041650 METAR COR EGLL 041650Z AUTO 23013KT 9999 BKN037 21/12 Q1012
                        NOSIG=
201708041620 METAR COR EGLL 041620Z AUTO 27010KT 9999 FEW040 21/12 Q1012
                        NOSIG=
201708041550 METAR COR EGLL 041550Z AUTO 28010KT 9999 BKN041 21/12 Q1012
                        NOSIG=
201708041520 METAR COR EGLL 041520Z AUTO 27013KT 9999 BKN043 21/11 Q1012
                        NOSIG=
201708041450 METAR COR EGLL 041450Z AUTO 24014KT 9999 SCT042 22/11 Q1012
                        NOSIG=
201708041420 METAR COR EGLL 041420Z AUTO 24016KT 9999 FEW036 22/12 Q1012
                        NOSIG=
201708041350 METAR COR EGLL 041350Z AUTO 25012KT 9999 SCT039 21/12 Q1012
                        NOSIG=
201708041320 METAR COR EGLL 041320Z AUTO 26015KT 9999 BKN038 21/11 Q1012
                        NOSIG=
201708041250 METAR COR EGLL 041250Z AUTO 26013KT 9999 SCT040 21/11 Q1012
                        NOSIG=
201708041220 METAR COR EGLL 041220Z AUTO 25012KT 9999 FEW037 21/11 Q1012
                        NOSIG=
201708041150 METAR COR EGLL 041150Z AUTO 25014KT 9999 FEW037 21/11 Q1012
                        NOSIG=
201708041120 METAR COR EGLL 041120Z AUTO 26012KT 9999 SCT034 BKN047 20/11
                        Q1012 NOSIG=
201708041050 METAR COR EGLL 041050Z AUTO 25012KT 9999 BKN031 BKN048 20/12
                        Q1011 NOSIG=
201708041020 METAR COR EGLL 041020Z AUTO 26012KT 9999 BKN030 20/12 Q1011
                        NOSIG=
201708040950 METAR COR EGLL 040950Z AUTO 27013KT 9999 BKN027 19/12 Q1011
                        NOSIG=
201708040920 METAR COR EGLL 040920Z AUTO 26013KT 9999 BKN025 19/12 Q1011
                        NOSIG=
201708040850 METAR COR EGLL 040850Z AUTO 26016KT 9999 BKN023 18/12 Q1011
                        NOSIG=
201708040820 METAR COR EGLL 040820Z AUTO 26014KT 9999 BKN023 18/12 Q1011
                        NOSIG=
201708040750 METAR COR EGLL 040750Z AUTO 25012KT 9999 BKN022 17/12 Q1010
                        NOSIG=
201708040720 METAR COR EGLL 040720Z AUTO 25013KT 9999 FEW023 17/11 Q1010
                        NOSIG=
201708040650 METAR COR EGLL 040650Z AUTO 24013KT 9999 NCD 16/11 Q1010
                        NOSIG=
201708040620 METAR COR EGLL 040620Z AUTO 24013KT 9999 NCD 16/11 Q1010
                        NOSIG=
201708040550 METAR COR EGLL 040550Z AUTO 23012KT 9999 FEW047 15/12 Q1010
                        NOSIG=
201708040520 METAR COR EGLL 040520Z AUTO 23010KT 9999 SCT045 15/12 Q1010
                        NOSIG=
201708040450 METAR COR EGLL 040450Z AUTO 24009KT 9999 SCT049 15/12 Q1009
                        NOSIG=
201708040420 METAR COR EGLL 040420Z AUTO 25011KT 9999 BKN048 16/12 Q1009
                        NOSIG=
201708040350 METAR COR EGLL 040350Z AUTO 24011KT 9999 FEW020 OVC047 16/12
                        Q1009 NOSIG=
201708040320 METAR COR EGLL 040320Z AUTO 24010KT 9999 OVC044 16/12 Q1009
                        NOSIG=
201708040250 METAR COR EGLL 040250Z AUTO 24010KT 9999 OVC042 16/12 Q1009
                        NOSIG=
201708040220 METAR COR EGLL 040220Z AUTO 23011KT 9999 OVC045 16/13 Q1009
                        NOSIG=
201708040150 METAR COR EGLL 040150Z AUTO 24011KT 9999 BKN046 16/13 Q1009
                        NOSIG=
201708040120 METAR COR EGLL 040120Z AUTO 24011KT 9999 FEW019 OVC042 16/12
                        Q1009 NOSIG=
201708040050 METAR COR EGLL 040050Z AUTO 23010KT 9999 BKN042 16/13 Q1009
                        NOSIG=
201708040020 METAR COR EGLL 040020Z AUTO 23011KT 9999 FEW020 BKN042 17/13
                        Q1009 NOSIG=
201708032350 METAR COR EGLL 032350Z AUTO 23010KT 9999 OVC037 17/13 Q1009
                        NOSIG=
201708032320 METAR COR EGLL 032320Z AUTO 24012KT 9999 OVC047 17/13 Q1009
                        NOSIG=
201708032250 METAR COR EGLL 032250Z AUTO 23013KT 9999 SCT019 17/13 Q1009
                        NOSIG=
201708032220 METAR COR EGLL 032220Z AUTO 22012KT 9999 BKN020 BKN035 17/13
                        Q1009 NOSIG=
201708032150 METAR COR EGLL 032150Z AUTO 22011KT 9999 BKN021 17/13 Q1009
                        NOSIG=
201708032120 METAR COR EGLL 032120Z AUTO 22012KT 9999 BKN025 18/13 Q1009
                        NOSIG=
201708032050 METAR COR EGLL 032050Z AUTO 23014KT 9999 BKN022 BKN047 18/13
                        Q1009 NOSIG=
201708032020 METAR COR EGLL 032020Z AUTO 23014KT 9999 SCT023 18/13 Q1009
                        NOSIG=
201708031950 METAR COR EGLL 031950Z AUTO 23014KT 9999 FEW025 OVC049 18/13
                        Q1009 NOSIG=
201708031920 METAR COR EGLL 031920Z AUTO 22016KT 9999 FEW023 BKN031 OVC046
                        18/13 Q1008 NOSIG=
201708031850 METAR COR EGLL 031850Z AUTO 22016KT 9999 BKN024 BKN040 19/13
                        Q1008 NOSIG=
201708031820 METAR COR EGLL 031820Z AUTO 21015KT 9999 BKN029 BKN044 19/13
                        Q1008 NOSIG=
201708031750 METAR COR EGLL 031750Z AUTO 23016KT 9999 FEW027 20/13 Q1008
                        NOSIG=
201708031720 METAR COR EGLL 031720Z AUTO 23018KT 9999 SCT026 20/14 Q1008
                        NOSIG=
201708031650 METAR COR EGLL 031650Z AUTO 22018KT 9999 BKN029 BKN046 20/13
                        Q1008 NOSIG=
201708031620 METAR COR EGLL 031620Z AUTO 23017KT 9999 BKN028 BKN047 20/13
                        Q1008 NOSIG=
201708031550 METAR COR EGLL 031550Z AUTO 23016KT 9999 BKN032 21/13 Q1007
                        NOSIG=
201708031520 METAR COR EGLL 031520Z AUTO 24015KT 9999 BKN033 21/13 Q1007
                        NOSIG=
201708031450 METAR COR EGLL 031450Z AUTO 24019KT 9999 BKN032 OVC047 21/13
                        Q1007 NOSIG=
201708031420 METAR EGLL 031420Z AUTO 23019KT 9999 SCT030 OVC047 20/13
                        Q1007=
201708031350 METAR COR EGLL 031350Z AUTO 24020KT 9999 SCT030 SCT046 20/13
                        Q1007 NOSIG=
201708031320 METAR COR EGLL 031320Z AUTO 24022KT 9999 BKN033 OVC048 20/12
                        Q1007 NOSIG=
201708031250 METAR COR EGLL 031250Z AUTO 24018KT 9999 BKN032 OVC048 20/13
                        Q1007 NOSIG=
201708031220 METAR COR EGLL 031220Z AUTO 23017KT 9999 BKN022 OVC043 19/14
                        Q1007 NOSIG=
201708031150 METAR COR EGLL 031150Z AUTO 23021G31KT 9999 BKN026 20/14
                        Q1007 NOSIG=
201708031120 METAR COR EGLL 031120Z AUTO 23021KT 9999 SCT028 OVC044 20/13
                        Q1007 NOSIG=
201708031050 METAR COR EGLL 031050Z AUTO 24017KT 9999 BKN025 OVC048 19/14
                        Q1007 NOSIG=
201708031020 METAR COR EGLL 031020Z AUTO 23015KT 9999 BKN025 BKN042 20/14
                        Q1006 NOSIG=
201708030950 METAR COR EGLL 030950Z AUTO 24019KT 9999 BKN026 20/13 Q1006
                        NOSIG=
201708030920 METAR COR EGLL 030920Z AUTO 23019KT 9999 BKN026 19/13 Q1006
                        NOSIG=
201708030850 METAR COR EGLL 030850Z AUTO 24019KT 9999 BKN024 19/13 Q1006
                        NOSIG=
201708030820 METAR COR EGLL 030820Z 24018G29KT 9999 FEW023 SCT026 18/13
                        Q1006 NOSIG=
201708030750 METAR COR EGLL 030750Z 23019KT 9999 FEW021 SCT026 18/13 Q1006
                        NOSIG=
201708030720 METAR COR EGLL 030720Z 23015KT 9999 FEW019 SCT023 17/14 Q1006
                        NOSIG=
201708030650 METAR COR EGLL 030650Z AUTO 23014KT 9999 SCT021 BKN048 17/13
                        Q1006 NOSIG=
201708030620 METAR COR EGLL 030620Z 23016KT 9999 SCT020 SCT036 17/14 Q1006
                        NOSIG=
201708030550 METAR COR EGLL 030550Z 22013KT 9999 FEW016 SCT023 16/14 Q1006
                        NOSIG=
201708030520 METAR COR EGLL 030520Z AUTO 21012KT 9999 SCT018 SCT031 16/14
                        Q1005 NOSIG=
201708030450 METAR COR EGLL 030450Z AUTO 20010KT 190V360 9999 SCT018 16/14
                        Q1005 NOSIG=
201708030420 METAR COR EGLL 030420Z AUTO 21010KT 9999 NCD 16/14 Q1006
                        NOSIG=
201708030350 METAR COR EGLL 030350Z AUTO 21012KT 9999 NCD 16/14 Q1006
                        NOSIG=
201708030320 METAR COR EGLL 030320Z AUTO 22011KT 9999 NCD 16/14 Q1006
                        NOSIG=
201708030250 METAR COR EGLL 030250Z AUTO 22009KT 9999 NCD 16/14 Q1006
                        NOSIG=
201708030220 METAR COR EGLL 030220Z AUTO 22008KT 9999 NCD 16/14 Q1006
                        NOSIG=
201708030150 METAR COR EGLL 030150Z AUTO 23011KT 9999 NCD 17/15 Q1006
                        NOSIG=
201708030120 METAR COR EGLL 030120Z AUTO 23012KT 9999 FEW012 BKN042 18/16
                        Q1006 NOSIG=
201708030050 METAR COR EGLL 030050Z AUTO 23012KT 9999 -RA BKN007/// //////TCU
                        18/17 Q1006 BECMG SCT007=
201708030020 METAR COR EGLL 030020Z AUTO 21011KT 9999 -RA BKN004/// BKN014///
                        //////TCU 18/17 Q1006 TEMPO 4000
                        -RADZ BKN006=
201708022350 METAR COR EGLL 022350Z 21012KT 5000 -RADZ FEW005 SCT008 BKN015
                        18/17 Q1006 TEMPO 4000 DZ BKN006=
201708022320 METAR COR EGLL 022320Z 20013KT 5000 -RADZ FEW006 SCT008 BKN013
                        18/17 Q1006 TEMPO 3500 DZ BKN006=
201708022250 METAR COR EGLL 022250Z 20013KT 7000 -RA FEW007 BKN010 18/17
                        Q1006 TEMPO 4000 -RADZ BKN007=
201708022220 METAR COR EGLL 022220Z 19013KT 9000 -RA FEW008 BKN011 19/17
                        Q1007 TEMPO 4000 -RADZ BKN008=
201708022150 METAR COR EGLL 022150Z 20013KT 9999 FEW008 SCT011 BKN013
                        19/17 Q1007 TEMPO -RADZ BKN008=
201708022120 METAR COR EGLL 022120Z 20013KT 6000 -RADZ FEW006 SCT009 BKN011
                        18/17 Q1008 TEMPO 4000 DZRA BKN007=
201708022050 METAR COR EGLL 022050Z 20013KT 150V220 6000 -RADZ SCT007
                        BKN011 18/17 Q1008 TEMPO 4000 DZRA
                        BKN007=
201708022020 METAR COR EGLL 022020Z 21014KT 9999 SCT008 BKN012 19/17 Q1008
                        TEMPO 4000 DZRA BKN008=
201708021950 METAR COR EGLL 021950Z 20014KT 9999 FEW008 SCT010 BKN012
                        19/17 Q1008 TEMPO 4000 -RADZ BKN008=
201708021920 METAR COR EGLL 021920Z 20013KT 7000 -RADZ FEW005 SCT007 BKN009
                        18/17 Q1008 TEMPO 4000 DZ=
201708021850 METAR COR EGLL 021850Z 20012KT 5000 -RADZ SCT005 BKN008 18/17
                        Q1008 RERA REDZ TEMPO 3500 DZ=
201708021820 METAR COR EGLL 021820Z 20013KT 4800 RADZ FEW007 SCT008 BKN010
                        18/17 Q1008 TEMPO BKN007=
201708021750 METAR COR EGLL 021750Z 20015KT 8000 SCT007 BKN010 18/17 Q1008
                        TEMPO BKN008=
201708021720 METAR COR EGLL 021720Z 20014KT 9999 FEW007 BKN011 18/17 Q1008
                        NOSIG=
201708021650 METAR COR EGLL 021650Z 19015G25KT 9999 FEW006 SCT008 BKN012
                        18/16 Q1009 NOSIG=
201708021620 METAR COR EGLL 021620Z 19013G24KT 9000 SCT008 BKN012 18/16
                        Q1009 NOSIG=
201708021550 METAR COR EGLL 021550Z 19013KT 9999 -RA FEW005 SCT007 BKN011
                        17/16 Q1009 NOSIG=
201708021520 METAR COR EGLL 021520Z 19013KT 6000 -RA SCT008 BKN011 17/16
                        Q1010 TEMPO RA BKN009=
201708021450 METAR COR EGLL 021450Z 18013KT 9000 -RA FEW008 BKN011 17/16
                        Q1010 TEMPO RA BKN009=
201708021420 METAR COR EGLL 021420Z 18012KT 140V210 7000 -RA FEW008 BKN011
                        16/15 Q1010 RERA TEMPO BKN008=
201708021350 METAR COR EGLL 021350Z 17011KT 140V220 6000 RA FEW006 BKN008
                        16/15 Q1011 NOSIG=
201708021320 METAR COR EGLL 021320Z 17011KT 140V230 9999 -RA SCT008 BKN014
                        16/15 Q1011 TEMPO RA BKN008=
201708021250 METAR COR EGLL 021250Z 18013KT 150V220 9000 -RA SCT010 BKN014
                        16/14 Q1011 BECMG RA=
201708021220 METAR COR EGLL 021220Z 17014KT 150V230 9999 -RA FEW006 SCT008
                        BKN011 16/14 Q1012 RERA BECMG RA
                        BKN008=
201708021150 METAR COR EGLL 021150Z AUTO 18014KT 150V220 9999 -RA OVC012///
                        //////TCU 16/14 Q1012 BECMG RA=
201708021120 METAR COR EGLL 021120Z AUTO 19014KT 160V230 9999 -RA BKN015///
                        //////TCU 17/13 Q1012 TEMPO RA BKN012=
201708021050 METAR COR EGLL 021050Z AUTO 20016KT 9999 BKN018 17/13 Q1013
                        TEMPO -RA BKN012=
201708021020 METAR COR EGLL 021020Z AUTO 19016KT 160V230 9999 BKN022 OVC049
                        18/13 Q1013 TEMPO -RA BKN012=
201708020950 METAR COR EGLL 020950Z AUTO 19012KT 160V240 9999 BKN024 18/13
                        Q1013 TEMPO -RA BKN014=
201708020920 METAR COR EGLL 020920Z AUTO 19014KT 160V230 9999 -RA SCT019
                        BKN047 18/13 Q1013 NOSIG=
201708020850 METAR COR EGLL 020850Z AUTO 18012KT 150V230 9999 BKN018 18/14
                        Q1014 TEMPO -RA BKN014=
201708020820 METAR COR EGLL 020820Z AUTO 18012KT 150V220 9999 -RA FEW016
                        SCT023 18/15 Q1014 NOSIG=
201708020750 METAR COR EGLL 020750Z AUTO 18010KT 9999 FEW017 18/14 Q1014
                        NOSIG=
201708020720 METAR COR EGLL 020720Z AUTO 18009KT 160V220 9999 NCD 17/14
                        Q1014 NOSIG=
201708020650 METAR COR EGLL 020650Z AUTO 17009KT 150V230 9999 FEW042 17/14
                        Q1014 NOSIG=
201708020620 METAR COR EGLL 020620Z AUTO 17008KT 140V210 9999 NCD 16/13
                        Q1014 NOSIG=
201708020550 METAR COR EGLL 020550Z AUTO 18008KT 130V220 9999 FEW026 16/13
                        Q1014 NOSIG=
201708020520 METAR COR EGLL 020520Z AUTO 19007KT 140V240 9999 FEW027 16/13
                        Q1015 NOSIG=
201708020450 METAR COR EGLL 020450Z AUTO 19008KT 9999 NCD 15/13 Q1015
                        NOSIG=
201708020420 METAR COR EGLL 020420Z AUTO 18008KT 9999 NCD 15/13 Q1015
                        NOSIG=
201708020350 METAR COR EGLL 020350Z AUTO 19007KT 110V220 9999 NCD 15/13
                        Q1015 NOSIG=
201708020320 METAR COR EGLL 020320Z AUTO 19007KT 9999 NCD 15/13 Q1015
                        NOSIG=
201708020250 METAR COR EGLL 020250Z AUTO 19005KT 9999 NCD 15/13 Q1015
                        NOSIG=
201708020220 METAR COR EGLL 020220Z AUTO 20005KT 9999 NCD 15/12 Q1015
                        NOSIG=
201708020150 METAR COR EGLL 020150Z AUTO 20006KT 9999 NCD 15/12 Q1015
                        NOSIG=
201708020120 METAR COR EGLL 020120Z AUTO 20007KT 9999 NCD 15/12 Q1015
                        NOSIG=
201708020050 METAR EGLL 020050Z AUTO 20007KT 9999 NCD 15/12 Q1015=
201708020020 METAR COR EGLL 020020Z AUTO 21008KT 9999 NCD 15/12 Q1016
                        NOSIG=
201708012350 METAR COR EGLL 012350Z AUTO 21007KT 9999 NCD 15/12 Q1016
                        NOSIG=
201708012320 METAR COR EGLL 012320Z AUTO 21006KT 9999 NCD 16/12 Q1016
                        NOSIG=
201708012250 METAR EGLL 012250Z AUTO 21007KT 9999 NCD 16/12 Q1016=
201708012220 METAR COR EGLL 012220Z AUTO 21009KT 9999 NCD 16/12 Q1016
                        NOSIG=
201708012150 METAR COR EGLL 012150Z AUTO 21009KT 9999 NCD 17/12 Q1016
                        NOSIG=
201708012120 METAR COR EGLL 012120Z AUTO 21009KT 9999 FEW048 17/12 Q1016
                        NOSIG=
201708012050 METAR COR EGLL 012050Z AUTO 21009KT 9999 NCD 17/11 Q1016
                        NOSIG=
201708012020 METAR COR EGLL 012020Z AUTO 22010KT 9999 NCD 17/11 Q1016
                        NOSIG=
201708011950 METAR COR EGLL 011950Z AUTO 22010KT 9999 NCD 18/11 Q1015
                        NOSIG=
201708011920 METAR COR EGLL 011920Z AUTO 23010KT 9999 NCD 18/11 Q1015
                        NOSIG=
201708011850 METAR COR EGLL 011850Z AUTO 21011KT 9999 NCD 19/11 Q1015
                        NOSIG=
201708011820 METAR COR EGLL 011820Z AUTO 22011KT 190V250 9999 NCD 20/11
                        Q1014 NOSIG=
201708011750 METAR COR EGLL 011750Z AUTO 22012KT 9999 NCD 20/11 Q1014
                        NOSIG=
201708011720 METAR COR EGLL 011720Z AUTO 22012KT 9999 FEW041 20/11 Q1014
                        NOSIG=
201708011650 METAR COR EGLL 011650Z AUTO 23012KT 9999 SCT040 21/11 Q1014
                        NOSIG=
201708011620 METAR COR EGLL 011620Z AUTO 22012KT 9999 SCT039 21/11 Q1014
                        NOSIG=
201708011550 METAR COR EGLL 011550Z AUTO 23012KT 9999 FEW038 22/12 Q1014
                        NOSIG=
201708011520 METAR COR EGLL 011520Z AUTO 23013KT 9999 //////CB 21/13 Q1014
                        NOSIG=
201708011450 METAR COR EGLL 011450Z AUTO 24011KT 9999 -RA FEW047/// //////TCU
                        19/13 Q1014 NOSIG=
201708011420 METAR EGLL 011420Z AUTO 24010KT 9999 NCD 20/14 Q1014=
201708011350 METAR COR EGLL 011350Z AUTO 25012KT 9999 -RA FEW015/// BKN032///
                        //////TCU 18/14 Q1014 TEMPO SHRA=
201708011320 METAR COR EGLL 011320Z AUTO 26013KT 9999 SCT040/// //////CB
                        21/13 Q1014 TEMPO SHRA=
201708011250 METAR COR EGLL 011250Z AUTO 26015KT 9999 BKN044 20/12 Q1014
                        TEMPO SHRA=
201708011220 METAR COR EGLL 011220Z 25010KT 220V280 9999 FEW046 20/12
                        Q1014 TEMP SHRA=
201708011150 METAR COR EGLL 011150Z AUTO 27009KT 9999 NCD 20/12 Q1014
                        NOSIG=
201708011120 METAR COR EGLL 011120Z AUTO 28012KT 9999 FEW037 20/12 Q1014
                        TEMPO SHRA=
201708011050 METAR COR EGLL 011050Z AUTO 23014KT 190V270 9999 SCT033///
                        //////TCU 21/11 Q1014 TEMPO SHRA=
201708011020 METAR COR EGLL 011020Z AUTO 22009KT 170V260 9999 SCT034///
                        //////TCU 20/11 Q1014 TEMPO SHRA=
201708010950 METAR COR EGLL 010950Z AUTO 24010KT 170V270 9999 SCT026 20/11
                        Q1014 TEMPO SHRA=
201708010920 METAR COR EGLL 010920Z AUTO 26009KT 210V290 9999 FEW024 19/12
                        Q1014 TEMPO SHRA=
201708010850 METAR COR EGLL 010850Z AUTO 25010KT 9999 FEW016 18/13 Q1014
                        NOSIG=
201708010820 METAR COR EGLL 010820Z AUTO 23010KT 9999 FEW013 17/14 Q1015
                        NOSIG=
201708010750 METAR COR EGLL 010750Z AUTO 23009KT 9999 FEW012 16/13 Q1015
                        NOSIG=
201708010720 METAR COR EGLL 010720Z AUTO 23006KT 190V270 9999 NCD 15/13
                        Q1015 NOSIG=
201708010650 METAR COR EGLL 010650Z AUTO 22007KT 9999 NCD 14/13 Q1015
                        NOSIG=
201708010620 METAR COR EGLL 010620Z AUTO 22006KT 180V240 9999 NCD 14/13
                        Q1015 NOSIG=
201708010550 METAR COR EGLL 010550Z AUTO 21008KT 9999 NCD 13/12 Q1014
                        NOSIG=
201708010520 METAR COR EGLL 010520Z AUTO 21004KT 160V250 9999 NCD 13/12
                        Q1014 NOSIG=
201708010450 METAR COR EGLL 010450Z AUTO 24006KT 9999 NCD 13/12 Q1014
                        NOSIG=
201708010420 METAR COR EGLL 010420Z AUTO 22005KT 170V250 9999 NCD 13/12
                        Q1014 NOSIG=
201708010350 METAR COR EGLL 010350Z AUTO 22005KT 190V270 9999 NCD 13/12
                        Q1014 NOSIG=
201708010320 METAR COR EGLL 010320Z AUTO 20005KT 9999 FEW013 13/12 Q1014
                        TEMPO BKN012=
201708010250 METAR COR EGLL 010250Z AUTO 21005KT 9999 SCT013 13/12 Q1014
                        TEMPO BKN012=
201708010220 METAR COR EGLL 010220Z AUTO 21005KT 9999 SCT013 13/12 Q1014
                        TEMPO BKN012=
201708010150 METAR COR EGLL 010150Z AUTO 20006KT 9999 NCD 13/12 Q1014
                        NOSIG=
201708010120 METAR COR EGLL 010120Z AUTO 21006KT 9999 NCD 14/12 Q1014
                        NOSIG=
201708010050 METAR COR EGLL 010050Z AUTO 21006KT 9999 NCD 14/12 Q1014
                        NOSIG=
201708010020 METAR COR EGLL 010020Z AUTO 22006KT 9999 NCD 14/12 Q1014
                        NOSIG=

</pre>

</body>
</html>
