##########################################################
# Query made at 01/13/2020 12:38:29 UTC
# Time interval: from 08/01/2016 00:00  to 08/31/2016 23:59  UTC
##########################################################

##########################################################
# EGLL, London / Heathrow Airport (United Kingdom)
# WMO index: 03772
# Latitude 51-29N. Longitude 000-27W. Altitude 24 m.
##########################################################

###################################
#  METAR/SPECI from EGLL
###################################
201608312350 METAR COR EGLL 312350Z AUTO 27006KT 9999 NCD 15/11 Q1022
                        NOSIG=
201608312320 METAR COR EGLL 312320Z AUTO 27007KT 9999 NCD 16/11 Q1022
                        NOSIG=
201608312250 METAR COR EGLL 312250Z AUTO 26007KT 9999 NCD 16/11 Q1022
                        NOSIG=
201608312220 METAR COR EGLL 312220Z AUTO 25008KT 9999 NCD 17/12 Q1022
                        NOSIG=
201608312150 METAR COR EGLL 312150Z AUTO 25010KT 9999 NCD 17/13 Q1022
                        NOSIG=
201608312120 METAR COR EGLL 312120Z AUTO 25010KT 9999 NCD 17/13 Q1022
                        NOSIG=
201608312050 METAR COR EGLL 312050Z AUTO 25009KT 9999 NCD 18/14 Q1022
                        NOSIG=
201608312020 METAR COR EGLL 312020Z AUTO 24008KT 9999 NCD 19/14 Q1022
                        NOSIG=
201608311950 METAR COR EGLL 311950Z AUTO 25010KT 9999 NCD 19/15 Q1021
                        NOSIG=
201608311920 METAR COR EGLL 311920Z AUTO 24009KT 9999 FEW019 19/15 Q1021
                        NOSIG=
201608311850 METAR COR EGLL 311850Z AUTO 25011KT 9999 FEW019 SCT035 20/16
                        Q1021 NOSIG=
201608311820 METAR COR EGLL 311820Z AUTO 27010KT 9999 SCT019 OVC046 20/16
                        Q1020 NOSIG=
201608311750 METAR COR EGLL 311750Z AUTO 25014KT 9999 BKN025 BKN040 22/15
                        Q1020 NOSIG=
201608311720 METAR COR EGLL 311720Z AUTO 25010KT 9999 BKN027 BKN041 22/15
                        Q1020 NOSIG=
201608311650 METAR COR EGLL 311650Z AUTO 24008KT 200V260 9999 BKN027 OVC042
                        22/15 Q1020 NOSIG=
201608311620 METAR COR EGLL 311620Z AUTO 25009KT 220V280 9999 BKN027 23/15
                        Q1020 NOSIG=
201608311550 METAR COR EGLL 311550Z AUTO 25008KT 9999 FEW028 22/15 Q1020
                        NOSIG=
201608311520 METAR COR EGLL 311520Z AUTO 25010KT 9999 SCT031 22/15 Q1020
                        NOSIG=
201608311450 METAR COR EGLL 311450Z AUTO 25011KT 9999 BKN032 22/14 Q1020
                        NOSIG=
201608311420 METAR COR EGLL 311420Z AUTO 25010KT 9999 BKN034 OVC048 23/14
                        Q1020 NOSIG=
201608311350 METAR COR EGLL 311350Z AUTO 26011KT 220V280 9999 OVC034 23/13
                        Q1020 NOSIG=
201608311320 METAR COR EGLL 311320Z AUTO 24009KT 9999 BKN032 22/13 Q1020
                        NOSIG=
201608311250 METAR COR EGLL 311250Z AUTO 25011KT 9999 BKN031 23/13 Q1020
                        NOSIG=
201608311220 METAR COR EGLL 311220Z AUTO 25011KT 220V290 9999 BKN032 23/13
                        Q1020 NOSIG=
201608311150 METAR COR EGLL 311150Z AUTO 26008KT 220V300 9999 BKN034 23/12
                        Q1020 NOSIG=
201608311120 METAR COR EGLL 311120Z AUTO 26008KT 220V310 9999 BKN032 21/12
                        Q1021 NOSIG=
201608311050 METAR COR EGLL 311050Z AUTO 25012KT 220V280 9999 BKN029 21/12
                        Q1021 NOSIG=
201608311020 METAR COR EGLL 311020Z AUTO 26011KT 230V300 9999 BKN029 20/12
                        Q1021 NOSIG=
201608310950 METAR COR EGLL 310950Z AUTO 27011KT 9999 BKN029 20/12 Q1020
                        NOSIG=
201608310920 METAR COR EGLL 310920Z AUTO 26011KT 230V310 9999 FEW023 19/12
                        Q1020 NOSIG=
201608310850 METAR COR EGLL 310850Z AUTO 26007KT 230V300 9999 NCD 18/13
                        Q1020 NOSIG=
201608310820 METAR COR EGLL 310820Z AUTO 27006KT 240V300 9999 NCD 18/13
                        Q1020 NOSIG=
201608310750 METAR COR EGLL 310750Z AUTO 27006KT 9999 BKN033 16/13 Q1020
                        NOSIG=
201608310720 METAR COR EGLL 310720Z AUTO 24005KT 210V280 9999 SCT028 16/13
                        Q1020 NOSIG=
201608310650 METAR COR EGLL 310650Z AUTO 21005KT 190V250 9999 NCD 15/13
                        Q1020 NOSIG=
201608310620 METAR COR EGLL 310620Z AUTO 22004KT 180V260 9999 NCD 14/13
                        Q1020 NOSIG=
201608310550 METAR COR EGLL 310550Z AUTO 18004KT 110V240 9999 FEW046 13/13
                        Q1020 NOSIG=
201608310520 METAR COR EGLL 310520Z AUTO 19004KT 150V230 9999 NCD 13/13
                        Q1020 NOSIG=
201608310450 METAR COR EGLL 310450Z AUTO VRB03KT 9999 NCD 14/13 Q1020
                        NOSIG=
201608310420 METAR COR EGLL 310420Z AUTO 24005KT 9999 NCD 14/13 Q1020
                        NOSIG=
201608310350 METAR COR EGLL 310350Z AUTO 18003KT 9999 NCD 14/13 Q1020
                        NOSIG=
201608310320 METAR COR EGLL 310320Z AUTO VRB02KT 8000 NCD 13/13 Q1020
                        NOSIG=
201608310250 METAR COR EGLL 310250Z AUTO 18003KT 9999 NCD 13/12 Q1020
                        NOSIG=
201608310220 METAR COR EGLL 310220Z AUTO 18003KT 9999 NCD 13/12 Q1021
                        NOSIG=
201608310150 METAR COR EGLL 310150Z AUTO 19003KT 9999 NCD 13/11 Q1021
                        NOSIG=
201608310120 METAR EGLL 310120Z AUTO 16003KT 9999 NCD 14/11 Q1021=
201608310050 METAR EGLL 310050Z AUTO 18004KT 9999 NCD 15/12 Q1021=
201608310020 METAR COR EGLL 310020Z AUTO 17003KT 9999 NCD 15/12 Q1021
                        NOSIG=
201608302350 METAR COR EGLL 302350Z AUTO 17003KT 9999 NCD 16/12 Q1021
                        NOSIG=
201608302320 METAR COR EGLL 302320Z AUTO 21003KT 9999 NCD 16/12 Q1022
                        NOSIG=
201608302250 METAR COR EGLL 302250Z AUTO 21003KT 9999 NCD 16/12 Q1022
                        NOSIG=
201608302220 METAR COR EGLL 302220Z AUTO 21005KT 9999 NCD 17/13 Q1022
                        NOSIG=
201608302150 METAR COR EGLL 302150Z AUTO 21004KT 180V250 9999 NCD 18/13
                        Q1022 NOSIG=
201608302120 METAR COR EGLL 302120Z AUTO 21006KT 9999 NCD 18/12 Q1022
                        NOSIG=
201608302050 METAR COR EGLL 302050Z AUTO 19008KT 9999 NCD 19/12 Q1022
                        NOSIG=
201608302020 METAR COR EGLL 302020Z AUTO 20009KT 150V230 9999 NCD 19/12
                        Q1022 NOSIG=
201608301950 METAR COR EGLL 301950Z AUTO 19009KT 9999 NCD 20/12 Q1022
                        NOSIG=
201608301920 METAR COR EGLL 301920Z AUTO 19008KT 140V240 9999 NCD 21/11
                        Q1022 NOSIG=
201608301850 METAR COR EGLL 301850Z AUTO 19010KT 9999 NCD 22/11 Q1022
                        NOSIG=
201608301820 METAR COR EGLL 301820Z AUTO 20011KT 9999 NCD 22/11 Q1022
                        NOSIG=
201608301750 METAR COR EGLL 301750Z AUTO 19011KT 9999 NCD 23/11 Q1022
                        NOSIG=
201608301720 METAR COR EGLL 301720Z AUTO 20011KT 9999 NCD 24/11 Q1022
                        NOSIG=
201608301650 METAR COR EGLL 301650Z AUTO 20007KT 150V280 9999 NCD 25/10
                        Q1022 NOSIG=
201608301620 METAR COR EGLL 301620Z AUTO 18008KT 150V220 9999 NCD 25/10
                        Q1022 NOSIG=
201608301550 METAR COR EGLL 301550Z AUTO 18009KT 140V210 9999 NCD 25/10
                        Q1022 NOSIG=
201608301520 METAR COR EGLL 301520Z AUTO 23006KT 170V310 9999 NCD 25/10
                        Q1023 NOSIG=
201608301450 METAR COR EGLL 301450Z AUTO 17006KT 070V210 9999 NCD 26/09
                        Q1023 NOSIG=
201608301420 METAR COR EGLL 301420Z AUTO VRB05KT 9999 NCD 26/09 Q1023
                        NOSIG=
201608301350 METAR COR EGLL 301350Z AUTO VRB06KT 9999 NCD 26/09 Q1024
                        NOSIG=
201608301320 METAR COR EGLL 301320Z AUTO VRB06KT 9999 NCD 26/09 Q1024
                        NOSIG=
201608301250 METAR COR EGLL 301250Z AUTO VRB05KT 9999 NCD 26/10 Q1024
                        NOSIG=
201608301220 METAR COR EGLL 301220Z AUTO VRB05KT 9999 NCD 26/10 Q1024
                        NOSIG=
201608301150 METAR COR EGLL 301150Z AUTO 18007G17KT 140V240 9999 NCD 25/10
                        Q1025 NOSIG=
201608301120 METAR COR EGLL 301120Z AUTO 21007KT 140V260 9999 NCD 25/11
                        Q1025 NOSIG=
201608301050 METAR COR EGLL 301050Z AUTO VRB07KT 9999 NCD 24/11 Q1025
                        NOSIG=
201608301020 METAR COR EGLL 301020Z AUTO 21005KT 120V290 9999 NCD 24/12
                        Q1025 NOSIG=
201608300950 METAR COR EGLL 300950Z AUTO VRB04KT 9999 NCD 22/12 Q1025
                        NOSIG=
201608300920 METAR COR EGLL 300920Z AUTO 20007KT 160V260 9999 NCD 22/13
                        Q1026 NOSIG=
201608300850 METAR COR EGLL 300850Z AUTO 22005KT 160V280 9999 NCD 21/13
                        Q1026 NOSIG=
201608300820 METAR COR EGLL 300820Z AUTO VRB03KT 9999 NCD 19/13 Q1026
                        NOSIG=
201608300750 METAR COR EGLL 300750Z AUTO VRB02KT 9999 NCD 18/13 Q1025
                        NOSIG=
201608300720 METAR COR EGLL 300720Z AUTO VRB02KT 9999 NCD 16/13 Q1025
                        NOSIG=
201608300650 METAR COR EGLL 300650Z AUTO 01002KT 9999 NCD 15/13 Q1025
                        NOSIG=
201608300620 METAR COR EGLL 300620Z AUTO 35001KT 9999 NCD 14/13 Q1025
                        NOSIG=
201608300550 METAR COR EGLL 300550Z AUTO VRB02KT 9999 NCD 13/12 Q1025
                        NOSIG=
201608300520 METAR COR EGLL 300520Z AUTO VRB03KT 9999 NCD 13/12 Q1025
                        NOSIG=
201608300450 METAR COR EGLL 300450Z AUTO 27004KT 220V280 9999 NCD 13/12
                        Q1025 NOSIG=
201608300420 METAR COR EGLL 300420Z AUTO 26004KT 210V280 9999 NCD 13/11
                        Q1025 NOSIG=
201608300350 METAR COR EGLL 300350Z AUTO VRB02KT 9999 NCD 13/11 Q1025
                        NOSIG=
201608300320 METAR COR EGLL 300320Z AUTO 28003KT 9999 NCD 14/12 Q1025
                        NOSIG=
201608300250 METAR COR EGLL 300250Z AUTO 28003KT 9999 NCD 14/11 Q1025
                        NOSIG=
201608300220 METAR COR EGLL 300220Z AUTO VRB01KT 9999 NCD 14/11 Q1025
                        NOSIG=
201608300150 METAR COR EGLL 300150Z AUTO VRB02KT 9999 NCD 14/12 Q1025
                        NOSIG=
201608300120 METAR COR EGLL 300120Z AUTO 19003KT 9999 NCD 14/12 Q1025
                        NOSIG=
201608300050 METAR COR EGLL 300050Z AUTO 27001KT 9999 NCD 15/12 Q1025
                        NOSIG=
201608300020 METAR COR EGLL 300020Z AUTO 26001KT 9999 NCD 15/11 Q1025
                        NOSIG=
201608292350 METAR COR EGLL 292350Z AUTO 27002KT 9999 NCD 16/11 Q1025
                        NOSIG=
201608292320 METAR COR EGLL 292320Z AUTO 27004KT 9999 NCD 16/11 Q1025
                        NOSIG=
201608292250 METAR COR EGLL 292250Z AUTO 27003KT 9999 NCD 17/11 Q1025
                        NOSIG=
201608292220 METAR COR EGLL 292220Z 28004KT CAVOK 16/11 Q1025 NOSIG=
201608292150 METAR COR EGLL 292150Z 31002KT CAVOK 16/11 Q1025 NOSIG=
201608292120 METAR COR EGLL 292120Z AUTO VRB01KT 9999 NCD 18/10 Q1024
                        NOSIG=
201608292050 METAR COR EGLL 292050Z AUTO 29001KT 9999 NCD 19/09 Q1024
                        NOSIG=
201608292020 METAR COR EGLL 292020Z 02001KT 9999 NSC 19/09 Q1024 NOSIG=
201608291950 METAR COR EGLL 291950Z AUTO 36001KT 9999 NCD 21/08 Q1024
                        NOSIG=
201608291920 METAR COR EGLL 291920Z AUTO VRB02KT 9999 NCD 22/08 Q1024
                        NOSIG=
201608291850 METAR COR EGLL 291850Z AUTO 32003KT 9999 NCD 22/08 Q1023
                        NOSIG=
201608291820 METAR COR EGLL 291820Z AUTO 34004KT 310V020 9999 NCD 23/08
                        Q1023 NOSIG=
201608291750 METAR COR EGLL 291750Z AUTO 32004KT 300V010 9999 NCD 23/08
                        Q1023 NOSIG=
201608291720 METAR COR EGLL 291720Z AUTO 34004KT 290V030 9999 NCD 23/08
                        Q1023 NOSIG=
201608291650 METAR COR EGLL 291650Z AUTO 33005KT 300V020 9999 NCD 24/07
                        Q1023 NOSIG=
201608291620 METAR COR EGLL 291620Z AUTO 34005KT 300V040 9999 NCD 24/07
                        Q1023 NOSIG=
201608291550 METAR COR EGLL 291550Z AUTO 31007KT 270V350 9999 NCD 24/07
                        Q1023 NOSIG=
201608291520 METAR COR EGLL 291520Z AUTO 34007KT 280V020 9999 NCD 24/09
                        Q1023 NOSIG=
201608291450 METAR COR EGLL 291450Z AUTO 31005KT 270V350 9999 NCD 23/10
                        Q1023 NOSIG=
201608291420 METAR COR EGLL 291420Z AUTO 30008KT 270V330 9999 NCD 23/10
                        Q1023 NOSIG=
201608291350 METAR COR EGLL 291350Z AUTO 31006KT 9999 FEW040 23/11 Q1023
                        NOSIG=
201608291320 METAR COR EGLL 291320Z AUTO 28006KT 9999 NCD 21/12 Q1023
                        NOSIG=
201608291250 METAR COR EGLL 291250Z AUTO 34006KT 290V010 9999 SCT036 22/11
                        Q1023 NOSIG=
201608291220 METAR COR EGLL 291220Z AUTO 29005KT 240V330 9999 FEW032 21/12
                        Q1023 NOSIG=
201608291150 METAR COR EGLL 291150Z AUTO 31004KT 220V010 9999 FEW029 22/13
                        Q1023 NOSIG=
201608291120 METAR COR EGLL 291120Z AUTO 31007KT 9999 FEW025 20/12 Q1022
                        NOSIG=
201608291050 METAR COR EGLL 291050Z AUTO 33004KT 260V030 9999 BKN022 20/13
                        Q1022 NOSIG=
201608291020 METAR COR EGLL 291020Z AUTO 33004KT 290V050 9999 SCT020 19/14
                        Q1022 NOSIG=
201608290950 METAR COR EGLL 290950Z AUTO VRB03KT 9999 SCT018 20/14 Q1022
                        NOSIG=
201608290920 METAR COR EGLL 290920Z AUTO 29005KT 250V350 9999 FEW016 19/14
                        Q1022 NOSIG=
201608290850 METAR COR EGLL 290850Z VRB02KT 9999 SCT016 18/14 Q1022 NOSIG=
201608290820 METAR COR EGLL 290820Z AUTO 32004KT 270V040 9999 OVC012 17/13
                        Q1022 BECMG SCT018=
201608290750 METAR COR EGLL 290750Z AUTO VRB03KT 9999 OVC014 17/13 Q1021
                        BECMG SCT016 BKN025=
201608290720 METAR COR EGLL 290720Z AUTO 29001KT 9999 BKN019 17/13 Q1021
                        NOSIG=
201608290650 METAR COR EGLL 290650Z AUTO VRB03KT 9999 FEW011 BKN021 16/13
                        Q1021 TEMPO BKN014=
201608290620 METAR COR EGLL 290620Z AUTO VRB02KT 9999 NCD 16/13 Q1021
                        NOSIG=
201608290550 METAR COR EGLL 290550Z AUTO 04004KT 010V070 9999 SCT011 15/13
                        Q1020 TEMPO BKN011=
201608290520 METAR COR EGLL 290520Z 03005KT 350V070 9999 SCT010 SCT040
                        16/13 Q1020 TEMPO BKN010=
201608290450 METAR COR EGLL 290450Z AUTO 01004KT 330V040 9999 OVC008 16/14
                        Q1019 TEMPO BKN010=
201608290420 METAR COR EGLL 290420Z AUTO 01004KT 340V050 9999 OVC009 16/14
                        Q1019 TEMPO BKN010=
201608290350 METAR COR EGLL 290350Z AUTO 33004KT 300V360 9999 BKN009 16/15
                        Q1019 TEMPO BKN010=
201608290320 METAR COR EGLL 290320Z AUTO VRB03KT 9999 SCT010 16/15 Q1019
                        TEMPO BKN010=
201608290250 METAR COR EGLL 290250Z AUTO VRB03KT 9999 FEW009 16/14 Q1018
                        TEMPO BKN010=
201608290220 METAR COR EGLL 290220Z AUTO 04006KT 360V060 9999 OVC008 16/15
                        Q1018 TEMPO BKN010=
201608290150 METAR COR EGLL 290150Z AUTO 02006KT 340V050 9999 BKN008 17/15
                        Q1018 TEMPO BKN010=
201608290120 METAR COR EGLL 290120Z AUTO 01005KT 340V040 9999 SCT009 17/16
                        Q1017 TEMPO BKN010=
201608290050 METAR COR EGLL 290050Z AUTO 02004KT 350V070 9999 FEW010 18/16
                        Q1017 TEMPO BKN010=
201608290020 METAR COR EGLL 290020Z AUTO VRB03KT 9999 FEW010 18/16 Q1017
                        TEMPO BKN010=
201608282350 METAR COR EGLL 282350Z AUTO VRB03KT 9999 NCD 18/16 Q1017
                        NOSIG=
201608282320 METAR COR EGLL 282320Z AUTO 31004KT 270V340 9999 NCD 18/16
                        Q1017 NOSIG=
201608282250 METAR COR EGLL 282250Z AUTO 29004KT 9999 FEW017 17/16 Q1016
                        NOSIG=
201608282220 METAR COR EGLL 282220Z AUTO 28006KT 9999 BKN020 17/16 Q1016
                        NOSIG=
201608282150 METAR COR EGLL 282150Z AUTO 26006KT 220V290 9999 FEW031 17/15
                        Q1016 NOSIG=
201608282120 METAR COR EGLL 282120Z AUTO 25008G18KT 9999 NCD 18/15 Q1016
                        NOSIG=
201608282050 METAR COR EGLL 282050Z AUTO 25007KT 9999 NCD 18/15 Q1015
                        NOSIG=
201608282020 METAR COR EGLL 282020Z AUTO 24008KT 9999 FEW043 18/15 Q1015
                        NOSIG=
201608281950 METAR COR EGLL 281950Z AUTO 24008KT 9999 NCD 18/15 Q1015
                        NOSIG=
201608281920 METAR COR EGLL 281920Z AUTO 23008KT 9999 FEW039 19/15 Q1015
                        NOSIG=
201608281850 METAR COR EGLL 281850Z AUTO 22009KT 9999 FEW034 SCT042 19/15
                        Q1014 NOSIG=
201608281820 METAR COR EGLL 281820Z AUTO 22010KT 9999 FEW015 OVC036 19/15
                        Q1014 NOSIG=
201608281750 METAR COR EGLL 281750Z AUTO 23010KT 9999 SCT015 BKN034 19/16
                        Q1014 NOSIG=
201608281720 METAR COR EGLL 281720Z AUTO 23011KT 9999 BKN017 20/16 Q1014
                        NOSIG=
201608281650 METAR COR EGLL 281650Z AUTO 22014KT 9999 BKN018 20/16 Q1014
                        NOSIG=
201608281620 METAR COR EGLL 281620Z AUTO 23013KT 9999 FEW016 BKN039 20/16
                        Q1014 NOSIG=
201608281550 METAR COR EGLL 281550Z AUTO 22012KT 9999 BKN012 20/16 Q1014
                        TEMPO FEW012=
201608281520 METAR COR EGLL 281520Z AUTO 23015KT 9999 BKN012/// BKN031///
                        //////CB 20/17 Q1014 TEMPO FEW012=
201608281450 METAR COR EGLL 281450Z AUTO 22012KT 190V260 9999 -RA BKN016///
                        BKN034/// //////TCU 20/16 Q1013 NOSIG=
201608281420 METAR COR EGLL 281420Z AUTO 21010KT 9999 -RA SCT015/// BKN041///
                        //////CB 19/18 Q1013 TEMPO SHRA=
201608281350 METAR COR EGLL 281350Z AUTO 25012KT 9000 BKN018 BKN033 OVC047
                        20/16 Q1013 TEMPO SHRA=
201608281320 METAR COR EGLL 281320Z AUTO 23015KT 9999 BKN016 BKN031 20/16
                        Q1013 TEMPO SHRA BKN014=
201608281250 METAR COR EGLL 281250Z AUTO 22013KT 9999 SCT012 BKN029 BKN044
                        20/17 Q1013 TEMPO SHRA BKN012=
201608281220 METAR COR EGLL 281220Z 24011KT 9999 4500NE -RA BKN012 BKN032
                        19/17 Q1013 TEMPO FEW012=
201608281150 METAR COR EGLL 281150Z 22013KT 9999 -RA BKN017TCU BKN034
                        18/17 Q1013 TEMPO SHRA=
201608281120 METAR COR EGLL 281120Z AUTO 22011KT 9999 FEW019 21/16 Q1013
                        TEMPO SHRA BKN014=
201608281050 METAR COR EGLL 281050Z 22011KT 9999 FEW038 20/18 Q1013 RERA
                        TEMPO SHRA BKN014=
201608281020 METAR COR EGLL 281020Z 22011KT 180V250 6000 -RA FEW014 BKN018
                        18/17 Q1013 TEMPO 4500 SHRA BKN014=
201608280950 METAR COR EGLL 280950Z 22009KT 190V250 9999 5000N -RA BKN013
                        19/16 Q1013 TEMPO 4000 RADZ=
201608280920 METAR COR EGLL 280920Z 23011KT 9999 BKN020 19/15 Q1012 TEMPO
                        SHRA BKN014=
201608280850 METAR COR EGLL 280850Z 23010KT 9999 BKN023 19/15 Q1012 NOSIG=
201608280820 METAR COR EGLL 280820Z AUTO 22010KT 9999 BKN015 OVC049 19/15
                        Q1012 NOSIG=
201608280750 METAR COR EGLL 280750Z AUTO 22010KT 9999 FEW013 BKN041 19/15
                        Q1012 NOSIG=
201608280720 METAR COR EGLL 280720Z AUTO 23008KT 9999 BKN038 18/15 Q1012
                        NOSIG=
201608280650 METAR COR EGLL 280650Z AUTO 20006KT 9999 NCD 18/15 Q1012
                        NOSIG=
201608280620 METAR COR EGLL 280620Z AUTO 20007KT 160V260 9999 NCD 17/15
                        Q1012 NOSIG=
201608280550 METAR COR EGLL 280550Z AUTO 22005KT 180V260 9999 SCT041 17/15
                        Q1012 NOSIG=
201608280520 METAR COR EGLL 280520Z 24008KT 9999 FEW011 BKN041 17/15 Q1012
                        TEMPO BKN011=
201608280450 METAR COR EGLL 280450Z AUTO 23009KT 9999 BKN010 17/15 Q1012
                        TEMPO SCT010=
201608280420 METAR COR EGLL 280420Z AUTO 23009KT 9999 NCD 17/14 Q1012
                        NOSIG=
201608280350 METAR COR EGLL 280350Z AUTO 23008KT 9999 NCD 17/15 Q1012
                        NOSIG=
201608280320 METAR COR EGLL 280320Z AUTO 25008KT 9999 FEW011 17/15 Q1012
                        TEMPO BKN010=
201608280250 METAR COR EGLL 280250Z AUTO 23010KT 9999 SCT009 18/15 Q1011
                        TEMPO BKN010=
201608280220 METAR COR EGLL 280220Z AUTO 23012KT 8000 SCT010 19/16 Q1011
                        TEMPO BKN010=
201608280150 METAR COR EGLL 280150Z AUTO 21008KT 8000 FEW045 19/16 Q1011
                        NOSIG=
201608280120 METAR COR EGLL 280120Z AUTO 22009KT 6000 OVC038 20/17 Q1011
                        NOSIG=
201608280050 METAR COR EGLL 280050Z AUTO 22008KT 6000 BKN033 20/17 Q1011
                        NOSIG=
201608280020 METAR COR EGLL 280020Z AUTO 20007KT 5000 HZ BKN036 20/18
                        Q1011 NOSIG=
201608272350 METAR COR EGLL 272350Z AUTO 21005KT 5000 HZ OVC036 20/18
                        Q1012 TEMPO 4500=
201608272320 METAR COR EGLL 272320Z AUTO 20006KT 5000 HZ SCT039 20/18
                        Q1012 TEMPO 4500=
201608272250 METAR COR EGLL 272250Z AUTO 21005KT 5000 HZ NCD 20/18 Q1012
                        NOSIG=
201608272220 METAR COR EGLL 272220Z AUTO 22004KT 190V270 6000 -RA FEW016///
                        //////TCU 20/18 Q1012 NOSIG=
201608272150 METAR COR EGLL 272150Z AUTO 23006KT 180V270 7000 //////TCU
                        20/18 Q1013 NOSIG=
201608272120 METAR COR EGLL 272120Z AUTO 22007KT 180V250 8000 NCD 21/18
                        Q1013 NOSIG=
201608272050 METAR EGLL 272050Z AUTO 23007KT 160V260 8000 NCD 21/18 Q1012=
201608272020 METAR COR EGLL 272020Z AUTO 21008KT 180V250 9000 NCD 21/18
                        Q1012 NOSIG=
201608271950 METAR COR EGLL 271950Z AUTO 19007KT 150V240 9999 NCD 22/18
                        Q1012 NOSIG=
201608271920 METAR COR EGLL 271920Z AUTO 21004KT 190V250 9999 FEW022 23/18
                        Q1012 NOSIG=
201608271850 METAR COR EGLL 271850Z AUTO 19007KT 150V230 9999 BKN023///
                        //////CB 23/18 Q1012 NOSIG=
201608271820 METAR COR EGLL 271820Z AUTO 10005KT 9999 BKN024 23/17 Q1012
                        NOSIG=
201608271750 METAR COR EGLL 271750Z AUTO 10005KT 9999 FEW027 24/17 Q1012
                        NOSIG=
201608271720 METAR COR EGLL 271720Z AUTO 09008KT 9999 BKN028 24/16 Q1012
                        NOSIG=
201608271650 METAR COR EGLL 271650Z AUTO 09008KT 9999 BKN027 24/16 Q1012
                        NOSIG=
201608271620 METAR COR EGLL 271620Z AUTO 09009KT 9999 SCT030 24/16 Q1012
                        NOSIG=
201608271550 METAR COR EGLL 271550Z AUTO 08008KT 9999 BKN030 24/16 Q1013
                        NOSIG=
201608271520 METAR COR EGLL 271520Z AUTO 09010KT 9999 SCT030 25/16 Q1013
                        TEMPO SHRA=
201608271450 METAR COR EGLL 271450Z AUTO 10013KT 9999 BKN031 24/16 Q1013
                        NOSIG=
201608271420 METAR COR EGLL 271420Z AUTO 09014KT 9999 BKN032 25/16 Q1013
                        NOSIG=
201608271350 METAR COR EGLL 271350Z AUTO 10014KT 9999 SCT040 26/17 Q1013
                        NOSIG=
201608271320 METAR COR EGLL 271320Z AUTO 07008KT 9999 FEW027 25/16 Q1014
                        NOSIG=
201608271250 METAR COR EGLL 271250Z AUTO 09013KT 9999 FEW044 25/16 Q1014
                        NOSIG=
201608271220 METAR COR EGLL 271220Z AUTO 07012KT 9999 FEW034 25/16 Q1015
                        NOSIG=
201608271150 METAR COR EGLL 271150Z AUTO 08010KT 9999 BKN049 25/16 Q1015
                        NOSIG=
201608271120 METAR COR EGLL 271120Z AUTO 08011KT 9999 FEW041 25/16 Q1015
                        NOSIG=
201608271050 METAR COR EGLL 271050Z AUTO 07010KT 9999 BKN037 24/15 Q1016
                        NOSIG=
201608271020 METAR COR EGLL 271020Z AUTO 07009KT 9999 BKN041 24/15 Q1016
                        NOSIG=
201608270950 METAR COR EGLL 270950Z AUTO 06008KT 9999 BKN045 24/15 Q1017
                        NOSIG=
201608270920 METAR COR EGLL 270920Z AUTO 08009KT 040V110 9999 FEW045 23/15
                        Q1017 NOSIG=
201608270850 METAR COR EGLL 270850Z AUTO 07007KT 030V110 9999 NCD 22/15
                        Q1017 NOSIG=
201608270820 METAR COR EGLL 270820Z AUTO 06007KT 9999 NCD 21/15 Q1017
                        NOSIG=
201608270750 METAR COR EGLL 270750Z AUTO 06007KT 9999 NCD 20/15 Q1018
                        NOSIG=
201608270720 METAR COR EGLL 270720Z AUTO 07007KT 9999 NCD 19/16 Q1018
                        NOSIG=
201608270650 METAR COR EGLL 270650Z AUTO 06005KT 9999 NCD 18/15 Q1018
                        NOSIG=
201608270620 METAR COR EGLL 270620Z AUTO 04004KT 9999 NCD 17/15 Q1018
                        NOSIG=
201608270550 METAR COR EGLL 270550Z AUTO 03004KT 360V080 9000 NCD 17/15
                        Q1018 NOSIG=
201608270520 METAR COR EGLL 270520Z AUTO 06005KT 9999 NCD 16/14 Q1018
                        NOSIG=
201608270450 METAR COR EGLL 270450Z AUTO 05003KT 9999 NCD 16/14 Q1018
                        NOSIG=
201608270420 METAR COR EGLL 270420Z AUTO 06004KT 9999 NCD 17/14 Q1018
                        TEMPO BKN010=
201608270350 METAR COR EGLL 270350Z AUTO 05004KT 010V090 9999 NCD 17/14
                        Q1018 TEMPO BKN010=
201608270320 METAR COR EGLL 270320Z AUTO 05004KT 020V080 9999 NCD 17/13
                        Q1019 NOSIG=
201608270250 METAR COR EGLL 270250Z AUTO VRB03KT 9999 NCD 16/12 Q1019
                        NOSIG=
201608270220 METAR COR EGLL 270220Z AUTO VRB02KT 9999 NCD 16/10 Q1019
                        NOSIG=
201608270150 METAR COR EGLL 270150Z AUTO VRB03KT 9999 NCD 16/10 Q1019
                        NOSIG=
201608270120 METAR COR EGLL 270120Z AUTO VRB03KT 9999 NCD 16/10 Q1019
                        NOSIG=
201608270050 METAR COR EGLL 270050Z AUTO VRB02KT 9999 NCD 17/10 Q1020
                        NOSIG=
201608270020 METAR COR EGLL 270020Z AUTO VRB03KT 9999 NCD 17/10 Q1020
                        NOSIG=
201608262350 METAR COR EGLL 262350Z AUTO VRB02KT 9999 NCD 17/10 Q1020
                        NOSIG=
201608262320 METAR COR EGLL 262320Z AUTO 35002KT 9999 NCD 17/10 Q1020
                        NOSIG=
201608262250 METAR COR EGLL 262250Z AUTO 35003KT 9999 NCD 18/10 Q1020
                        NOSIG=
201608262220 METAR COR EGLL 262220Z AUTO 36003KT 9999 NCD 18/10 Q1020
                        NOSIG=
201608262150 METAR COR EGLL 262150Z AUTO VRB03KT 9999 NCD 19/10 Q1020
                        NOSIG=
201608262120 METAR COR EGLL 262120Z AUTO 32004KT 9999 NCD 20/09 Q1020
                        NOSIG=
201608262050 METAR COR EGLL 262050Z AUTO 33004KT 9999 NCD 20/09 Q1020
                        NOSIG=
201608262020 METAR COR EGLL 262020Z AUTO 31004KT 9999 NCD 21/10 Q1020
                        NOSIG=
201608261950 METAR COR EGLL 261950Z AUTO 33004KT 300V020 9999 NCD 22/10
                        Q1019 NOSIG=
201608261920 METAR COR EGLL 261920Z AUTO VRB03KT 9999 NCD 22/11 Q1019
                        NOSIG=
201608261850 METAR COR EGLL 261850Z AUTO 32005KT 290V360 9999 NCD 23/11
                        Q1019 NOSIG=
201608261820 METAR COR EGLL 261820Z AUTO 31006KT 9999 NCD 24/09 Q1019
                        NOSIG=
201608261750 METAR COR EGLL 261750Z AUTO 27008KT 240V310 9999 NCD 25/07
                        Q1018 NOSIG=
201608261720 METAR COR EGLL 261720Z AUTO 27007KT 230V310 9999 NCD 25/06
                        Q1018 NOSIG=
201608261650 METAR COR EGLL 261650Z AUTO 30006KT 260V340 9999 NCD 26/06
                        Q1018 NOSIG=
201608261620 METAR COR EGLL 261620Z AUTO 27008KT 240V310 9999 NCD 26/06
                        Q1018 NOSIG=
201608261550 METAR COR EGLL 261550Z AUTO VRB05KT 9999 NCD 27/07 Q1018
                        NOSIG=
201608261520 METAR COR EGLL 261520Z AUTO 30005KT 250V010 9999 NCD 26/07
                        Q1018 NOSIG=
201608261450 METAR EGLL 261450Z AUTO VRB04KT 9999 NCD 26/06 Q1018=
201608261420 METAR EGLL 261420Z AUTO 25006KT 200V350 9999 NCD 26/06 Q1019=
201608261350 METAR EGLL 261350Z AUTO 26006KT 200V320 9999 NCD 26/05 Q1019=
201608261320 METAR EGLL 261320Z AUTO 26008KT 210V300 9999 NCD 25/06 Q1019=
201608261250 METAR COR EGLL 261250Z AUTO 24008KT 190V340 9999 NCD 25/05
                        Q1018 NOSIG=
201608261220 METAR COR EGLL 261220Z AUTO 26006KT 210V350 9999 NCD 25/06
                        Q1018 NOSIG=
201608261150 METAR COR EGLL 261150Z AUTO 31005KT 260V020 9999 NCD 24/08
                        Q1018 NOSIG=
201608261120 METAR COR EGLL 261120Z AUTO VRB06KT 9999 NCD 24/12 Q1018
                        NOSIG=
201608261050 METAR COR EGLL 261050Z AUTO 26007KT 210V310 9999 NCD 23/13
                        Q1018 NOSIG=
201608261020 METAR COR EGLL 261020Z AUTO 27006KT 230V310 9999 FEW024 22/14
                        Q1019 NOSIG=
201608260950 METAR COR EGLL 260950Z AUTO 28006KT 230V330 9999 FEW022 22/14
                        Q1019 NOSIG=
201608260920 METAR COR EGLL 260920Z AUTO 28007KT 250V310 9999 SCT018 21/15
                        Q1018 NOSIG=
201608260850 METAR COR EGLL 260850Z AUTO 32005KT 270V020 9999 BKN015 21/16
                        Q1018 NOSIG=
201608260820 METAR COR EGLL 260820Z AUTO 26005KT 230V360 9999 BKN015 20/16
                        Q1018 NOSIG=
201608260750 METAR COR EGLL 260750Z 25004KT 220V300 9999 SCT016 20/16
                        Q1017 NOSIG=
201608260720 METAR COR EGLL 260720Z AUTO 27006KT 9999 FEW007 19/16 Q1017
                        NOSIG=
201608260650 METAR COR EGLL 260650Z AUTO 29004KT 260V330 9000 FEW023 19/16
                        Q1017 NOSIG=
201608260620 METAR COR EGLL 260620Z AUTO 30003KT 9999 FEW024 19/15 Q1017
                        NOSIG=
201608260550 METAR COR EGLL 260550Z AUTO VRB02KT 9999 SCT036 18/16 Q1017
                        NOSIG=
201608260520 METAR COR EGLL 260520Z AUTO 30004KT 9000 FEW028 18/16 Q1016
                        NOSIG=
201608260450 METAR COR EGLL 260450Z AUTO 30005KT 9000 SCT020 18/16 Q1016
                        NOSIG=
201608260420 METAR COR EGLL 260420Z AUTO 31003KT 6000 FEW025 19/17 Q1015
                        NOSIG=
201608260350 METAR COR EGLL 260350Z AUTO 30006KT 6000 BKN031 19/18 Q1015
                        TEMPO BKN010=
201608260320 METAR COR EGLL 260320Z AUTO 31004KT 3500 BR FEW031 19/18
                        Q1015 BECMG 9999=
201608260250 METAR COR EGLL 260250Z AUTO VRB02KT 4100 BR NCD 19/19 Q1014
                        TEMPO SHRA=
201608260220 METAR COR EGLL 260220Z AUTO 05003KT 5000 BR NCD 20/19 Q1014
                        TEMPO 3500 SHRA=
201608260150 METAR COR EGLL 260150Z AUTO VRB02KT 4200 BR FEW010 20/19
                        Q1015 TEMPO 5000=
201608260120 METAR COR EGLL 260120Z AUTO 29005KT 3400 BR SCT007/// //////TCU
                        20/20 Q1015 REDZ NOSIG=
201608260050 METAR COR EGLL 260050Z AUTO 28009KT 3200 BR FEW007 20/20
                        Q1015 NOSIG=
201608260020 METAR COR EGLL 260020Z AUTO 27007KT 2900 BR NCD 21/20 Q1015
                        BECMG 5000=
201608252350 METAR COR EGLL 252350Z AUTO 27004KT 240V300 3400 -RA FEW033
                        21/21 Q1014 BECMG 6000=
201608252320 METAR COR EGLL 252320Z AUTO 28004KT 3400 -RA FEW021/// SCT032///
                        //////CB 21/21 Q1014 RERA BECMG 8000=
201608252250 METAR COR EGLL 252250Z AUTO VRB03KT 4600 -RA SCT031/// //////CB
                        22/21 Q1014 BECMG 8000=
201608252220 METAR COR EGLL 252220Z AUTO 30004KT 6000 BKN029/// //////CB
                        21/19 Q1014 TEMPO 4000 SHRA=
201608252150 METAR COR EGLL 252150Z AUTO 31003KT 9999 NCD 23/19 Q1014
                        TEMPO SHRA=
201608252120 METAR COR EGLL 252120Z AUTO 31004KT 9999 NCD 23/19 Q1014
                        NOSIG=
201608252050 METAR COR EGLL 252050Z AUTO 30004KT 9999 NCD 24/19 Q1014
                        NOSIG=
201608252020 METAR COR EGLL 252020Z AUTO VRB03KT 9999 NCD 24/19 Q1013
                        NOSIG=
201608251950 METAR COR EGLL 251950Z AUTO 30002KT 9999 NCD 24/19 Q1014
                        NOSIG=
201608251920 METAR COR EGLL 251920Z AUTO 31004KT 9999 NCD 25/19 Q1014
                        NOSIG=
201608251850 METAR COR EGLL 251850Z AUTO 33003KT 9999 NCD 25/19 Q1013
                        TEMPO SHRA=
201608251820 METAR COR EGLL 251820Z AUTO VRB03KT 9999 NCD 25/19 Q1013
                        NOSIG=
201608251750 METAR COR EGLL 251750Z AUTO 32005KT 290V360 9999 FEW031 26/19
                        Q1013 NOSIG=
201608251720 METAR COR EGLL 251720Z AUTO 30004KT 260V040 9999 FEW035 27/18
                        Q1013 NOSIG=
201608251650 METAR COR EGLL 251650Z AUTO VRB03KT 9999 NCD 27/18 Q1013
                        NOSIG=
201608251620 METAR COR EGLL 251620Z AUTO 04005KT 330V070 9999 NCD 27/18
                        Q1013 NOSIG=
201608251550 METAR COR EGLL 251550Z AUTO 33004KT 290V020 9999 NCD 26/18
                        Q1013 NOSIG=
201608251520 METAR COR EGLL 251520Z AUTO 32005KT 280V350 9999 NCD 26/18
                        Q1014 NOSIG=
201608251450 METAR COR EGLL 251450Z AUTO VRB03KT 9999 FEW011 27/18 Q1014
                        NOSIG=
201608251420 METAR COR EGLL 251420Z AUTO VRB02KT 9999 NCD 26/18 Q1015
                        TEMPO SHRA=
201608251350 METAR COR EGLL 251350Z AUTO 33004KT 290V010 9999 NCD 26/18
                        Q1014 NOSIG=
201608251320 METAR COR EGLL 251320Z AUTO 34004KT 300V050 9999 FEW038 27/18
                        Q1015 NOSIG=
201608251250 METAR COR EGLL 251250Z AUTO VRB03KT 9999 FEW033 25/17 Q1015
                        NOSIG=
201608251220 METAR COR EGLL 251220Z AUTO VRB02KT 9999 NCD 25/18 Q1015
                        NOSIG=
201608251150 METAR COR EGLL 251150Z AUTO VRB03KT 9999 -RA FEW023 24/17
                        Q1015 NOSIG=
201608251120 METAR COR EGLL 251120Z AUTO VRB02KT 9999 -RA FEW023 24/17
                        Q1015 NOSIG=
201608251050 METAR COR EGLL 251050Z AUTO VRB02KT 9999 NCD 24/17 Q1015
                        NOSIG=
201608251020 METAR COR EGLL 251020Z AUTO VRB03KT 9999 NCD 23/17 Q1015
                        NOSIG=
201608250950 METAR COR EGLL 250950Z AUTO VRB03KT 9999 NCD 23/17 Q1015
                        NOSIG=
201608250920 METAR COR EGLL 250920Z AUTO VRB03KT 9999 NCD 22/17 Q1015
                        NOSIG=
201608250850 METAR COR EGLL 250850Z AUTO VRB03KT 9999 NCD 22/17 Q1015
                        NOSIG=
201608250820 METAR COR EGLL 250820Z AUTO 07004KT 030V100 9999 NCD 21/17
                        Q1015 NOSIG=
201608250750 METAR COR EGLL 250750Z AUTO 07005KT 9999 NCD 21/17 Q1015
                        NOSIG=
201608250720 METAR COR EGLL 250720Z AUTO 07006KT 9000 NCD 20/17 Q1015
                        NOSIG=
201608250650 METAR COR EGLL 250650Z AUTO 06005KT 9000 NCD 19/17 Q1016
                        NOSIG=
201608250620 METAR COR EGLL 250620Z AUTO 06005KT 9000 NCD 19/17 Q1016
                        NOSIG=
201608250550 METAR COR EGLL 250550Z AUTO 07005KT 040V110 9000 -RA FEW012
                        19/17 Q1016 NOSIG=
201608250520 METAR COR EGLL 250520Z AUTO 04005KT 9999 NCD 19/17 Q1016
                        NOSIG=
201608250450 METAR COR EGLL 250450Z AUTO 04005KT 010V080 9999 NCD 19/17
                        Q1016 NOSIG=
201608250420 METAR COR EGLL 250420Z AUTO 36005KT 330V030 9999 NCD 19/17
                        Q1017 NOSIG=
201608250350 METAR COR EGLL 250350Z AUTO 35004KT 300V050 9999 NCD 19/17
                        Q1017 NOSIG=
201608250320 METAR COR EGLL 250320Z AUTO VRB03KT 9999 NCD 19/17 Q1017
                        NOSIG=
201608250250 METAR COR EGLL 250250Z AUTO 32004KT 280V020 9999 NCD 19/17
                        Q1017 NOSIG=
201608250220 METAR COR EGLL 250220Z AUTO 31004KT 270V350 9999 -RA NCD
                        20/18 Q1017 NOSIG=
201608250150 METAR COR EGLL 250150Z AUTO 31006KT 9999 NCD 20/18 Q1017
                        NOSIG=
201608250120 METAR COR EGLL 250120Z AUTO 33004KT 290V030 9999 NCD 21/18
                        Q1016 NOSIG=
201608250050 METAR COR EGLL 250050Z AUTO 31002KT 9999 NCD 22/18 Q1016
                        NOSIG=
201608250020 METAR COR EGLL 250020Z AUTO 10003KT 9999 NCD 21/18 Q1016
                        NOSIG=
201608242350 METAR COR EGLL 242350Z AUTO VRB03KT 9999 -RA NCD 22/18 Q1016
                        NOSIG=
201608242320 METAR COR EGLL 242320Z AUTO 09008KT 9999 -RA //////TCU 21/18
                        Q1016 NOSIG=
201608242250 METAR COR EGLL 242250Z AUTO 09007KT 9999 -RA FEW013 21/18
                        Q1017 NOSIG=
201608242220 METAR COR EGLL 242220Z AUTO 05004KT 010V100 9999 NCD 22/18
                        Q1017 NOSIG=
201608242150 METAR COR EGLL 242150Z AUTO 06005KT 010V080 9999 -RA NCD
                        22/18 Q1017 TEMPO SHRA=
201608242120 METAR EGLL 242120Z AUTO 06005KT 9999 -RA FEW039/// //////TCU
                        22/18 Q1018=
201608242050 METAR COR EGLL 242050Z AUTO 07006KT 9999 -RA NCD 23/19 Q1019
                        TEMPO SHRA=
201608242020 METAR COR EGLL 242020Z AUTO 04006KT 350V070 9999 -RA //////TCU
                        24/19 Q1018 TEMPO SHRA=
201608241950 METAR COR EGLL 241950Z AUTO 33004KT 290V020 9999 -RA FEW018///
                        //////CB 24/19 Q1018 RETS TEMPO SHRA=
201608241920 METAR COR EGLL 241920Z AUTO 35006KT 9999 -TSRA FEW010///
                        SCT042/// //////CB 24/19 Q1017 TEMPO
                        7000 TSRA=
201608241850 METAR COR EGLL 241850Z AUTO 31006KT 9999 -RA FEW017/// //////CB
                        26/18 Q1017 RETS TEMPO TSRA=
201608241820 METAR COR EGLL 241820Z AUTO 30005KT 9999 //////CB 28/16 Q1017
                        TEMPO TS=
201608241750 METAR COR EGLL 241750Z AUTO 30006KT 9999 NCD 29/16 Q1016
                        NOSIG=
201608241720 METAR COR EGLL 241720Z AUTO 28009KT 9999 NCD 29/16 Q1017
                        NOSIG=
201608241650 METAR COR EGLL 241650Z AUTO 26012KT 9999 FEW020 30/16 Q1018
                        NOSIG=
201608241620 METAR COR EGLL 241620Z AUTO 26007KT 240V300 9999 NCD 31/15
                        Q1017 NOSIG=
201608241550 METAR COR EGLL 241550Z AUTO VRB02KT 9999 NCD 32/14 Q1017
                        NOSIG=
201608241520 METAR COR EGLL 241520Z AUTO VRB05KT 9999 NCD 33/14 Q1017
                        NOSIG=
201608241450 METAR COR EGLL 241450Z AUTO 24005KT 160V320 9999 NCD 32/14
                        Q1017 NOSIG=
201608241420 METAR COR EGLL 241420Z AUTO VRB03KT 9999 NCD 32/14 Q1017
                        NOSIG=
201608241350 METAR COR EGLL 241350Z AUTO 24004KT 190V340 9999 NCD 32/14
                        Q1017 NOSIG=
201608241320 METAR COR EGLL 241320Z AUTO 34004KT 290V030 9999 NCD 31/15
                        Q1017 NOSIG=
201608241250 METAR COR EGLL 241250Z AUTO VRB02KT 9999 NCD 30/15 Q1017
                        NOSIG=
201608241220 METAR COR EGLL 241220Z AUTO 03004KT 360V110 9999 NCD 30/15
                        Q1017 NOSIG=
201608241150 METAR COR EGLL 241150Z AUTO VRB03KT 9999 NCD 30/15 Q1017
                        NOSIG=
201608241120 METAR COR EGLL 241120Z AUTO VRB03KT 9999 NCD 29/16 Q1018
                        NOSIG=
201608241050 METAR COR EGLL 241050Z AUTO VRB04KT 9999 NCD 28/16 Q1018
                        NOSIG=
201608241020 METAR COR EGLL 241020Z AUTO 36005KT 290V090 9999 NCD 27/16
                        Q1018 NOSIG=
201608240950 METAR COR EGLL 240950Z AUTO 02004KT 330V070 9999 NCD 27/16
                        Q1018 NOSIG=
201608240920 METAR COR EGLL 240920Z AUTO VRB05KT 9999 NCD 26/16 Q1018
                        NOSIG=
201608240850 METAR COR EGLL 240850Z AUTO VRB03KT 9999 NCD 25/16 Q1018
                        NOSIG=
201608240820 METAR COR EGLL 240820Z AUTO VRB03KT 9999 NCD 24/16 Q1018
                        NOSIG=
201608240750 METAR COR EGLL 240750Z AUTO VRB02KT 9999 NCD 23/16 Q1018
                        NOSIG=
201608240720 METAR COR EGLL 240720Z AUTO VRB03KT 9999 NCD 22/16 Q1018
                        NOSIG=
201608240650 METAR COR EGLL 240650Z AUTO VRB03KT 9999 NCD 21/17 Q1018
                        NOSIG=
201608240620 METAR COR EGLL 240620Z AUTO VRB02KT 9999 NCD 21/16 Q1018
                        NOSIG=
201608240550 METAR COR EGLL 240550Z AUTO 07002KT 9999 NCD 20/16 Q1018
                        NOSIG=
201608240520 METAR COR EGLL 240520Z AUTO VRB01KT 9999 NCD 19/16 Q1018
                        NOSIG=
201608240450 METAR COR EGLL 240450Z AUTO VRB02KT 9999 NCD 18/16 Q1018
                        NOSIG=
201608240420 METAR COR EGLL 240420Z AUTO VRB01KT 9999 NCD 18/16 Q1018
                        NOSIG=
201608240350 METAR COR EGLL 240350Z AUTO 35002KT 9999 NCD 19/16 Q1018
                        NOSIG=
201608240320 METAR COR EGLL 240320Z AUTO 07002KT 9999 NCD 19/16 Q1018
                        NOSIG=
201608240250 METAR COR EGLL 240250Z AUTO VRB01KT 9999 NCD 19/16 Q1018
                        NOSIG=
201608240220 METAR COR EGLL 240220Z AUTO 35001KT 9999 NCD 19/16 Q1018
                        NOSIG=
201608240150 METAR COR EGLL 240150Z AUTO 04001KT 9999 NCD 19/15 Q1018
                        NOSIG=
201608240120 METAR COR EGLL 240120Z AUTO 05002KT 9999 NCD 20/15 Q1018
                        NOSIG=
201608240050 METAR COR EGLL 240050Z AUTO 36002KT 9999 NCD 21/16 Q1018
                        NOSIG=
201608240020 METAR COR EGLL 240020Z AUTO VRB01KT 9999 NCD 21/16 Q1018
                        NOSIG=
201608232350 METAR COR EGLL 232350Z AUTO VRB02KT 9999 NCD 21/16 Q1018
                        NOSIG=
201608232320 METAR COR EGLL 232320Z AUTO 11003KT 9999 NCD 20/16 Q1019
                        NOSIG=
201608232250 METAR COR EGLL 232250Z AUTO 13003KT 9999 NCD 21/16 Q1019
                        NOSIG=
201608232220 METAR COR EGLL 232220Z AUTO 15004G15KT 040V180 9999 NCD 21/16
                        Q1019 NOSIG=
201608232150 METAR COR EGLL 232150Z AUTO 14004KT 9999 NCD 22/16 Q1019
                        NOSIG=
201608232120 METAR COR EGLL 232120Z AUTO 14003KT 9999 NCD 23/16 Q1019
                        NOSIG=
201608232050 METAR COR EGLL 232050Z AUTO 14005KT 9999 NCD 23/16 Q1019
                        NOSIG=
201608232020 METAR COR EGLL 232020Z AUTO 14005KT 9999 NCD 23/15 Q1019
                        NOSIG=
201608231950 METAR COR EGLL 231950Z AUTO 14005KT 9999 NCD 24/15 Q1019
                        NOSIG=
201608231920 METAR COR EGLL 231920Z AUTO 14007KT 9999 NCD 25/15 Q1019
                        NOSIG=
201608231850 METAR COR EGLL 231850Z AUTO 14008KT 9999 NCD 26/15 Q1019
                        NOSIG=
201608231820 METAR COR EGLL 231820Z AUTO 15009KT 9999 NCD 27/15 Q1019
                        NOSIG=
201608231750 METAR COR EGLL 231750Z AUTO 15011KT 9999 NCD 28/15 Q1019
                        NOSIG=
201608231720 METAR COR EGLL 231720Z AUTO 15012KT 9999 NCD 28/15 Q1020
                        NOSIG=
201608231650 METAR COR EGLL 231650Z AUTO 15011KT 9999 NCD 29/14 Q1020
                        NOSIG=
201608231620 METAR COR EGLL 231620Z AUTO 17011KT 120V210 9999 NCD 29/13
                        Q1020 NOSIG=
201608231550 METAR COR EGLL 231550Z AUTO 16012KT 9999 NCD 29/13 Q1020
                        NOSIG=
201608231520 METAR COR EGLL 231520Z AUTO 14011KT 9999 NCD 30/13 Q1020
                        NOSIG=
201608231450 METAR COR EGLL 231450Z AUTO 16011KT 9999 NCD 30/12 Q1020
                        NOSIG=
201608231420 METAR COR EGLL 231420Z AUTO 14013KT 9999 NCD 30/13 Q1021
                        NOSIG=
201608231350 METAR COR EGLL 231350Z AUTO 16010KT 9999 NCD 30/13 Q1021
                        NOSIG=
201608231320 METAR COR EGLL 231320Z AUTO 14010KT 9999 NCD 30/13 Q1022
                        NOSIG=
201608231250 METAR COR EGLL 231250Z AUTO 14013KT 9999 NCD 29/13 Q1022
                        NOSIG=
201608231220 METAR COR EGLL 231220Z AUTO 16010KT 130V200 9999 NCD 29/14
                        Q1022 NOSIG=
201608231150 METAR COR EGLL 231150Z AUTO 15010KT 9999 NCD 29/14 Q1022
                        NOSIG=
201608231120 METAR COR EGLL 231120Z AUTO 16011KT 9999 NCD 27/14 Q1022
                        NOSIG=
201608231050 METAR COR EGLL 231050Z AUTO 17009KT 9999 NCD 27/14 Q1023
                        NOSIG=
201608231020 METAR COR EGLL 231020Z AUTO 16008KT 120V200 9999 NCD 27/13
                        Q1023 NOSIG=
201608230950 METAR COR EGLL 230950Z AUTO 16009KT 120V180 9999 NCD 25/12
                        Q1023 NOSIG=
201608230920 METAR COR EGLL 230920Z AUTO 14007KT 090V190 9999 NCD 24/12
                        Q1024 NOSIG=
201608230850 METAR COR EGLL 230850Z AUTO 14005KT 040V190 9999 NCD 22/13
                        Q1024 NOSIG=
201608230820 METAR COR EGLL 230820Z AUTO 16004KT 110V220 9999 NCD 20/13
                        Q1024 NOSIG=
201608230750 METAR COR EGLL 230750Z AUTO 15004KT 070V190 9999 NCD 19/14
                        Q1024 NOSIG=
201608230720 METAR COR EGLL 230720Z AUTO 16005KT 110V210 9999 NCD 18/14
                        Q1025 NOSIG=
201608230650 METAR COR EGLL 230650Z AUTO 15005KT 100V180 9999 NCD 17/15
                        Q1025 NOSIG=
201608230620 METAR COR EGLL 230620Z AUTO 16004KT 120V250 9999 NCD 16/15
                        Q1025 NOSIG=
201608230550 METAR COR EGLL 230550Z AUTO 15004KT 110V260 9999 NCD 14/14
                        Q1025 NOSIG=
201608230520 METAR COR EGLL 230520Z AUTO VRB03KT 9999 NCD 13/13 Q1025
                        NOSIG=
201608230450 METAR COR EGLL 230450Z VRB02KT 9999 MIFG NSC 13/13 Q1024
                        NOSIG=
201608230420 METAR COR EGLL 230420Z AUTO VRB03KT 9999 NCD 14/14 Q1024
                        NOSIG=
201608230350 METAR COR EGLL 230350Z AUTO 13002KT 9999 NCD 13/13 Q1024
                        NOSIG=
201608230320 METAR COR EGLL 230320Z AUTO VRB02KT 9999 NCD 14/14 Q1024
                        NOSIG=
201608230250 METAR COR EGLL 230250Z AUTO 09003KT 9999 NCD 14/14 Q1024
                        NOSIG=
201608230220 METAR COR EGLL 230220Z AUTO 14001KT 9999 NCD 14/14 Q1024
                        NOSIG=
201608230150 METAR COR EGLL 230150Z AUTO 00000KT 9999 NCD 14/14 Q1025
                        NOSIG=
201608230120 METAR COR EGLL 230120Z AUTO 14002KT 9999 NCD 14/14 Q1025
                        NOSIG=
201608230050 METAR EGLL 230050Z AUTO 16002KT 9999 NCD 15/14 Q1025=
201608230020 METAR COR EGLL 230020Z AUTO 18003KT 9999 NCD 16/14 Q1025
                        NOSIG=
201608222350 METAR COR EGLL 222350Z AUTO 18003KT 9999 NCD 16/14 Q1025
                        NOSIG=
201608222320 METAR COR EGLL 222320Z AUTO 19003KT 9999 NCD 16/14 Q1025
                        NOSIG=
201608222250 METAR COR EGLL 222250Z AUTO 22003KT 9999 NCD 17/14 Q1025
                        NOSIG=
201608222220 METAR COR EGLL 222220Z AUTO 23005KT 9999 NCD 17/14 Q1025
                        NOSIG=
201608222150 METAR COR EGLL 222150Z AUTO 20006G16KT 160V250 9999 NCD 17/14
                        Q1025 NOSIG=
201608222120 METAR COR EGLL 222120Z AUTO 21007KT 150V250 9999 NCD 18/14
                        Q1025 NOSIG=
201608222050 METAR COR EGLL 222050Z AUTO 22008KT 180V260 9999 NCD 19/14
                        Q1025 NOSIG=
201608222020 METAR COR EGLL 222020Z AUTO 22007KT 170V260 9999 NCD 19/14
                        Q1025 NOSIG=
201608221950 METAR COR EGLL 221950Z AUTO 21007KT 180V250 9999 NCD 20/15
                        Q1025 NOSIG=
201608221920 METAR COR EGLL 221920Z AUTO 23008KT 190V260 9999 NCD 20/15
                        Q1024 NOSIG=
201608221850 METAR COR EGLL 221850Z AUTO 22009KT 170V250 9999 NCD 21/15
                        Q1024 NOSIG=
201608221820 METAR COR EGLL 221820Z AUTO 23009KT 9999 BKN038 22/15 Q1024
                        NOSIG=
201608221750 METAR COR EGLL 221750Z AUTO 24010KT 210V270 9999 OVC038 23/15
                        Q1024 NOSIG=
201608221720 METAR COR EGLL 221720Z AUTO 23011KT 9999 BKN036 23/15 Q1024
                        NOSIG=
201608221650 METAR COR EGLL 221650Z AUTO 22011KT 180V260 9999 BKN037 23/15
                        Q1024 NOSIG=
201608221620 METAR COR EGLL 221620Z AUTO 20012KT 170V240 9999 BKN037 24/15
                        Q1024 NOSIG=
201608221550 METAR COR EGLL 221550Z AUTO 22012KT 180V250 9999 BKN033 24/15
                        Q1024 NOSIG=
201608221520 METAR COR EGLL 221520Z AUTO 22012KT 9999 OVC035 23/15 Q1023
                        NOSIG=
201608221450 METAR COR EGLL 221450Z AUTO 22012KT 190V260 9999 OVC033 23/15
                        Q1023 NOSIG=
201608221420 METAR COR EGLL 221420Z AUTO 22012KT 180V260 9999 BKN030 23/15
                        Q1023 NOSIG=
201608221350 METAR COR EGLL 221350Z AUTO 22013KT 9999 BKN028 OVC043 24/15
                        Q1023 NOSIG=
201608221320 METAR COR EGLL 221320Z AUTO 23014KT 9999 BKN028 24/15 Q1023
                        NOSIG=
201608221250 METAR COR EGLL 221250Z AUTO 22014KT 9999 BKN028 OVC047 23/15
                        Q1023 NOSIG=
201608221220 METAR COR EGLL 221220Z AUTO 22013G24KT 9999 BKN027 OVC048
                        23/15 Q1023 NOSIG=
201608221150 METAR COR EGLL 221150Z AUTO 23014KT 9999 SCT027 OVC043 23/15
                        Q1023 NOSIG=
201608221120 METAR COR EGLL 221120Z AUTO 24013KT 9999 BKN024 23/15 Q1023
                        NOSIG=
201608221050 METAR COR EGLL 221050Z 23013KT 190V250 9999 FEW022 22/15
                        Q1023 NOSIG=
201608221020 METAR COR EGLL 221020Z 22014KT 190V250 9999 FEW021 21/15
                        Q1023 NOSIG=
201608220950 METAR COR EGLL 220950Z 22015KT 9999 FEW020 SCT025 20/15 Q1023
                        NOSIG=
201608220920 METAR COR EGLL 220920Z 23016KT 9999 SCT017 20/15 Q1023 NOSIG=
201608220850 METAR COR EGLL 220850Z AUTO 23012KT 9999 SCT014 19/15 Q1023
                        NOSIG=
201608220820 METAR COR EGLL 220820Z AUTO 22011KT 9999 FEW013 18/15 Q1023
                        NOSIG=
201608220750 METAR COR EGLL 220750Z AUTO 21011KT 9999 SCT011 SCT025 18/16
                        Q1023 NOSIG=
201608220720 METAR COR EGLL 220720Z AUTO 22008KT 9999 BKN015 18/17 Q1023
                        NOSIG=
201608220650 METAR COR EGLL 220650Z 23009KT 9999 FEW010 SCT020 17/17 Q1023
                        NOSIG=
201608220620 METAR EGLL 220620Z AUTO 22008KT 9999 BKN008 17/17 Q1022=
201608220550 METAR COR EGLL 220550Z AUTO 22007KT 190V250 9999 BKN009///
                        //////TCU 17/17 Q1022 TEMPO SCT009=
201608220520 METAR COR EGLL 220520Z AUTO 23010KT 9999 -RA NCD 17/16 Q1022
                        TEMPO RA=
201608220450 METAR COR EGLL 220450Z AUTO 24010KT 9999 -RA FEW048/// //////TCU
                        17/16 Q1021 TEMPO SHRA=
201608220420 METAR COR EGLL 220420Z AUTO 23010KT 9999 //////TCU 17/16
                        Q1021 TEMPO SHRA BKN012=
201608220350 METAR COR EGLL 220350Z AUTO 22008KT 9999 FEW012 17/16 Q1021
                        TEMPO RA BKN012=
201608220320 METAR COR EGLL 220320Z AUTO 23010KT 9999 FEW012 17/16 Q1021
                        TEMPO RA BKN012=
201608220250 METAR COR EGLL 220250Z 23009KT 9999 SCT014 17/16 Q1021 TEMPO
                        RA BKN014=
201608220220 METAR COR EGLL 220220Z AUTO 23011KT 9999 FEW013 17/16 Q1021
                        TEMPO RA BKN012=
201608220150 METAR COR EGLL 220150Z AUTO 23010KT 9999 SCT014 17/16 Q1021
                        TEMPO RA BKN012=
201608220120 METAR COR EGLL 220120Z AUTO 23011KT 9999 FEW012 BKN018 17/17
                        Q1021 TEMPO RA BKN012=
201608220050 METAR COR EGLL 220050Z AUTO 22011KT 9999 BKN020 17/17 Q1021
                        TEMPO RA BKN014=
201608220020 METAR COR EGLL 220020Z AUTO 22009KT 9999 OVC020 17/17 Q1021
                        TEMPO RA BKN014=
201608212350 METAR COR EGLL 212350Z AUTO 22010KT 9999 -RA OVC021 17/17
                        Q1021 TEMPO RA BKN012=
201608212320 METAR COR EGLL 212320Z AUTO 22010KT 9999 -RA BKN026 17/17
                        Q1021 TEMPO RA BKN014=
201608212250 METAR COR EGLL 212250Z AUTO 22008KT 9999 FEW028 17/17 Q1021
                        TEMPO RA BKN014=
201608212220 METAR COR EGLL 212220Z AUTO 22009KT 9999 NCD 17/17 Q1020
                        TEMPO RA BKN012=
201608212150 METAR COR EGLL 212150Z 21008KT 9999 -RA FEW015 SCT023 17/17
                        Q1020 TEMPO BKN012=
201608212120 METAR COR EGLL 212120Z 22010KT 9999 FEW015 BKN024 17/16 Q1020
                        TEMPO BKN014=
201608212050 METAR COR EGLL 212050Z 22007KT 190V260 9999 BKN027 17/16
                        Q1020 TEMPO RA BKN012=
201608212020 METAR COR EGLL 212020Z 22009KT 180V240 9999 FEW013 BKN025
                        17/16 Q1020 TEMPO RA BKN012=
201608211950 METAR COR EGLL 211950Z 22010KT 9999 BKN020 17/16 Q1020 TEMPO
                        RA BKN008=
201608211920 METAR COR EGLL 211920Z 21010KT 9999 BKN012 BKN020 17/16 Q1020
                        TEMPO BKN008=
201608211850 METAR EGLL 211850Z 20008KT 170V260 9999 SCT016 BKN029 16/16
                        Q1020=
201608211820 METAR COR EGLL 211820Z 21008KT 9999 SCT018 BKN028 16/16 Q1020
                        BECMG BKN014=
201608211750 METAR COR EGLL 211750Z AUTO 24012KT 5000 -RA SCT011 BKN022
                        OVC048 17/14 Q1020 TEMPO RA=
201608211720 METAR COR EGLL 211720Z AUTO 26011KT 9999 -RA BKN031/// //////TCU
                        18/14 Q1020 TEMPO RA=
201608211650 METAR COR EGLL 211650Z AUTO 27015KT 9999 BKN036 20/11 Q1020
                        NOSIG=
201608211620 METAR COR EGLL 211620Z AUTO 26015KT 9999 FEW042 21/10 Q1019
                        NOSIG=
201608211550 METAR COR EGLL 211550Z AUTO 26014KT 9999 FEW042 22/09 Q1019
                        NOSIG=
201608211520 METAR COR EGLL 211520Z AUTO 26013KT 9999 BKN037 22/11 Q1019
                        NOSIG=
201608211450 METAR COR EGLL 211450Z AUTO 25015KT 9999 SCT029 21/11 Q1019
                        NOSIG=
201608211420 METAR COR EGLL 211420Z AUTO 26016KT 9999 FEW031 21/12 Q1019
                        NOSIG=
201608211350 METAR COR EGLL 211350Z AUTO 27018KT 9999 SCT029 21/12 Q1018
                        NOSIG=
201608211320 METAR COR EGLL 211320Z AUTO 27018KT 9999 SCT030 BKN044 22/11
                        Q1018 NOSIG=
201608211250 METAR COR EGLL 211250Z AUTO 26016KT 9999 BKN032 21/12 Q1018
                        NOSIG=
201608211220 METAR COR EGLL 211220Z AUTO 27018KT 9999 SCT031 SCT043 22/12
                        Q1017 NOSIG=
201608211150 METAR COR EGLL 211150Z AUTO 26016KT 9999 SCT028 21/12 Q1017
                        NOSIG=
201608211120 METAR COR EGLL 211120Z AUTO 26017KT 9999 SCT024 BKN040 20/12
                        Q1017 NOSIG=
201608211050 METAR COR EGLL 211050Z AUTO 26015KT 9999 BKN023 19/12 Q1016
                        NOSIG=
201608211020 METAR COR EGLL 211020Z AUTO 26016KT 9999 BKN023 OVC038 19/12
                        Q1016 NOSIG=
201608210950 METAR COR EGLL 210950Z AUTO 26016KT 9999 BKN021 19/12 Q1016
                        NOSIG=
201608210920 METAR COR EGLL 210920Z AUTO 26014KT 9999 BKN018 OVC033 18/13
                        Q1015 NOSIG=
201608210850 METAR COR EGLL 210850Z AUTO 26015KT 9999 BKN018 18/13 Q1015
                        NOSIG=
201608210820 METAR COR EGLL 210820Z AUTO 27014KT 9999 OVC017 17/13 Q1015
                        NOSIG=
201608210750 METAR COR EGLL 210750Z AUTO 27015KT 9999 BKN015 17/13 Q1014
                        NOSIG=
201608210720 METAR EGLL 210720Z AUTO 26015KT 9999 BKN017 17/13 Q1014=
201608210650 METAR COR EGLL 210650Z AUTO 26015KT 9999 SCT013 OVC026 16/13
                        Q1014 TEMPO -SHRA BKN013=
201608210620 METAR COR EGLL 210620Z AUTO 26015KT 9999 BKN013 16/13 Q1013
                        TEMPO SHRA SCT015=
201608210550 METAR COR EGLL 210550Z AUTO 26013KT 9999 FEW014 BKN033 16/13
                        Q1013 TEMPO -SHRA BKN014=
201608210520 METAR COR EGLL 210520Z AUTO 25013KT 9999 FEW015 15/13 Q1012
                        TEMPO BKN014=
201608210450 METAR COR EGLL 210450Z AUTO 24013KT 9999 SCT023 15/13 Q1012
                        TEMPO SHRA BKN014=
201608210420 METAR COR EGLL 210420Z AUTO 25014KT 9999 FEW014 BKN029 16/13
                        Q1012 TEMPO BKN014=
201608210350 METAR COR EGLL 210350Z AUTO 25015KT 9999 SCT015 BKN036 16/13
                        Q1011 TEMPO BKN014=
201608210320 METAR COR EGLL 210320Z AUTO 24015KT 9999 BKN016 BKN038 16/13
                        Q1011 TEMPO -SHRA BKN014=
201608210250 METAR COR EGLL 210250Z AUTO 25014KT 9999 BKN015 16/13 Q1011
                        TEMPO -SHRA BKN014=
201608210220 METAR COR EGLL 210220Z AUTO 24013KT 9999 BKN015 OVC031 16/13
                        Q1010 TEMPO -RADZ BKN014=
201608210150 METAR COR EGLL 210150Z AUTO 24014KT 9999 -RA SCT013 BKN024
                        OVC041 16/13 Q1010 TEMPO BKN013=
201608210120 METAR COR EGLL 210120Z AUTO 24014KT 9999 -RA BKN013 OVC025
                        16/13 Q1010 TEMPO SCT013 BKN025=
201608210050 METAR COR EGLL 210050Z AUTO 24015KT 9999 BKN015 OVC047 16/13
                        Q1010 TEMPO -SHRA BKN014=
201608210020 METAR COR EGLL 210020Z AUTO 24014KT 9999 BKN016 16/13 Q1010
                        TEMPO -SHRA=
201608202350 METAR COR EGLL 202350Z AUTO 23015KT 9999 BKN015 16/13 Q1009
                        TEMPO -SHRA BKN014=
201608202320 METAR COR EGLL 202320Z AUTO 23015KT 9999 BKN015 BKN027 OVC039
                        16/13 Q1009 TEMPO -SHRA BKN014=
201608202250 METAR COR EGLL 202250Z AUTO 23015KT 9999 BKN016 16/13 Q1009
                        TEMPO -SHRA BKN014=
201608202220 METAR COR EGLL 202220Z AUTO 23016KT 9999 SCT017 BKN024 16/13
                        Q1009 TEMPO SHRA BKN014=
201608202150 METAR COR EGLL 202150Z AUTO 23013KT 9999 FEW018 BKN028 16/13
                        Q1009 NOSIG=
201608202120 METAR COR EGLL 202120Z AUTO 22017KT 9999 FEW032 OVC043 16/13
                        Q1009 NOSIG=
201608202050 METAR COR EGLL 202050Z AUTO 22014KT 9999 FEW020 BKN045 16/13
                        Q1009 NOSIG=
201608202020 METAR COR EGLL 202020Z AUTO 22012KT 9999 SCT019 OVC047 16/14
                        Q1009 NOSIG=
201608201950 METAR COR EGLL 201950Z AUTO 22012KT 9999 BKN021 BKN042 16/14
                        Q1008 NOSIG=
201608201920 METAR COR EGLL 201920Z AUTO 22011KT 9999 FEW024 BKN029 16/14
                        Q1008 TEMPO SHRA=
201608201850 METAR COR EGLL 201850Z 22011KT 9000 -SHRA SCT021CB BKN039
                        16/14 Q1008 TEMPO SHRA=
201608201820 METAR COR EGLL 201820Z 23013KT 8000 -SHRA FEW009CB BKN027
                        BKN049 16/14 Q1008 TEMPO SHRA=
201608201750 METAR COR EGLL 201750Z AUTO 23012KT 9999 FEW014/// SCT022///
                        BKN039/// //////CB 17/14 Q1008 TEMPO
                        SHRA=
201608201720 METAR COR EGLL 201720Z 22019G31KT 9000 -SHRA BKN028CB OVC046
                        19/12 Q1007 TEMPO SHRA=
201608201650 METAR COR EGLL 201650Z AUTO 22016KT 9999 BKN027 19/12 Q1007
                        TEMPO SHRA=
201608201620 METAR COR EGLL 201620Z AUTO 21014KT 9999 BKN027/// //////CB
                        19/12 Q1007 TEMPO SHRA=
201608201550 METAR COR EGLL 201550Z AUTO 22015KT 9999 -RA FEW013/// BKN025///
                        //////CB 19/12 Q1007 TEMPO SHRA=
201608201520 METAR COR EGLL 201520Z AUTO 23019KT 9999 FEW019 SCT028 19/12
                        Q1007 TEMPO SHRA=
201608201450 METAR COR EGLL 201450Z AUTO 22019G29KT 9999 -RA FEW025 BKN032
                        19/12 Q1006 TEMPO SHRA=
201608201420 METAR COR EGLL 201420Z AUTO 23022KT 9999 BKN036/// //////TCU
                        20/11 Q1006 TEMPO SHRA=
201608201350 METAR COR EGLL 201350Z AUTO 22020G33KT 9999 BKN035 20/11
                        Q1006 TEMPO SHRA=
201608201320 METAR COR EGLL 201320Z AUTO 23019KT 9999 FEW018/// BKN028///
                        //////CB 20/11 Q1006 TEMPO SHRA=
201608201250 METAR COR EGLL 201250Z AUTO 23018KT 9999 FEW015/// SCT030///
                        BKN045/// //////CB 20/12 Q1006 TEMPO
                        SHRA=
201608201220 METAR COR EGLL 201220Z AUTO 21017KT 180V240 9999 -RA BKN028
                        BKN042 19/12 Q1006 TEMPO SHRA=
201608201150 METAR COR EGLL 201150Z AUTO 21017KT 180V250 9999 BKN029 21/12
                        Q1006 TEMPO SHRA=
201608201120 METAR COR EGLL 201120Z 22018G30KT 190V250 9999 SCT025 BKN036
                        20/13 Q1006 TEMPO SHRA=
201608201050 METAR COR EGLL 201050Z 22019KT 9999 SCT021 BKN034 20/13 Q1006
                        TEMPO SHRA=
201608201020 METAR COR EGLL 201020Z 21016KT 180V250 9999 SCT018 BKN032
                        18/13 Q1006 TEMPO SHRA=
201608200950 METAR COR EGLL 200950Z 22016KT 9999 FEW015 BKN030 18/14 Q1006
                        TEMPO SHRA=
201608200920 METAR COR EGLL 200920Z AUTO 21016KT 180V250 9999 SCT015///
                        //////CB 17/14 Q1006 NOSIG=
201608200850 METAR COR EGLL 200850Z AUTO 20016G26KT 9999 -RA FEW015///
                        //////CB 16/13 Q1006 NOSIG=
201608200820 METAR COR EGLL 200820Z AUTO 21018G28KT 9999 -RA BKN022///
                        //////CB 16/13 Q1005 NOSIG=
201608200750 METAR COR EGLL 200750Z AUTO 21015KT 9000 -RA SCT020/// BKN037///
                        //////TCU 17/13 Q1005 TEMPO SHRA=
201608200720 METAR COR EGLL 200720Z AUTO 21014KT 9999 FEW027 17/12 Q1005
                        TEMPO SHRA=
201608200650 METAR COR EGLL 200650Z AUTO 21016KT 9999 FEW027 17/13 Q1005
                        TEMPO SHRA=
201608200620 METAR COR EGLL 200620Z AUTO 20013KT 9999 FEW030 16/13 Q1005
                        NOSIG=
201608200550 METAR COR EGLL 200550Z AUTO 21010KT 9999 FEW040 15/13 Q1005
                        TEMPO SHRA=
201608200520 METAR COR EGLL 200520Z AUTO 21010KT 9000 NCD 15/13 Q1005
                        TEMPO SHRA=
201608200450 METAR COR EGLL 200450Z AUTO 20009KT 9999 FEW023 15/13 Q1005
                        TEMPO SHRA=
201608200420 METAR COR EGLL 200420Z AUTO 21007KT 9999 FEW019 15/13 Q1005
                        TEMPO SHRA=
201608200350 METAR COR EGLL 200350Z AUTO 21006KT 9999 FEW026 15/14 Q1006
                        TEMPO SHRA=
201608200320 METAR COR EGLL 200320Z AUTO 21010KT 9999 FEW025 15/13 Q1005
                        TEMPO SHRA=
201608200250 METAR COR EGLL 200250Z AUTO 21012KT 9000 -RA FEW023/// BKN047///
                        //////CB 15/14 Q1005 TEMPO SHRA=
201608200220 METAR COR EGLL 200220Z AUTO 21010KT 9999 FEW025/// //////TCU
                        16/13 Q1005 TEMPO SHRA=
201608200150 METAR COR EGLL 200150Z AUTO 20010KT 9999 SCT023 16/13 Q1005
                        NOSIG=
201608200120 METAR COR EGLL 200120Z AUTO 19009KT 9999 SCT023 SCT040 16/13
                        Q1006 NOSIG=
201608200050 METAR COR EGLL 200050Z AUTO 19010KT 9999 SCT021 BKN039 16/13
                        Q1006 NOSIG=
201608200020 METAR COR EGLL 200020Z AUTO 19009KT 9999 FEW025 16/13 Q1006
                        NOSIG=
201608192350 METAR COR EGLL 192350Z AUTO 22011KT 9999 SCT024 16/13 Q1006
                        NOSIG=
201608192320 METAR COR EGLL 192320Z AUTO 22010KT 9999 BKN022 16/13 Q1006
                        NOSIG=
201608192250 METAR COR EGLL 192250Z AUTO 21010KT 9999 FEW024 16/14 Q1006
                        NOSIG=
201608192220 METAR COR EGLL 192220Z AUTO 20008KT 9999 NCD 16/14 Q1006
                        NOSIG=
201608192150 METAR COR EGLL 192150Z AUTO 21008KT 9999 NCD 16/14 Q1006
                        NOSIG=
201608192120 METAR COR EGLL 192120Z AUTO 21009KT 170V240 9999 NCD 16/14
                        Q1006 NOSIG=
201608192050 METAR COR EGLL 192050Z AUTO 21010KT 9999 NCD 17/14 Q1006
                        NOSIG=
201608192020 METAR COR EGLL 192020Z AUTO 21011KT 9999 FEW029 17/14 Q1005
                        NOSIG=
201608191950 METAR COR EGLL 191950Z AUTO 20012KT 9999 FEW027 17/14 Q1005
                        NOSIG=
201608191920 METAR COR EGLL 191920Z AUTO 20010KT 9999 NCD 18/15 Q1005
                        NOSIG=
201608191850 METAR COR EGLL 191850Z AUTO 21012KT 180V250 9999 NCD 18/15
                        Q1005 NOSIG=
201608191820 METAR COR EGLL 191820Z 20010KT 160V240 9999 FEW014 19/16
                        Q1005 NOSIG=
201608191750 METAR COR EGLL 191750Z 19011KT 9999 FEW013 SCT016 19/17 Q1004
                        NOSIG=
201608191720 METAR COR EGLL 191720Z 18010G20KT 150V210 9999 FEW008 BKN013
                        18/17 Q1004 BECMG SCT020=
201608191650 METAR COR EGLL 191650Z 17012KT 9999 FEW007 BKN011 17/17 Q1004
                        BECMG SCT020=
201608191620 METAR COR EGLL 191620Z 17012G22KT 9999 VCSH BKN012 17/15
                        Q1005 BECMG BKN015=
201608191550 METAR COR EGLL 191550Z 17014KT 9999 BKN012 17/15 Q1005 BECMG
                        BKN020=
201608191520 METAR COR EGLL 191520Z 17012KT 150V220 9999 -RA BKN014 17/15
                        Q1005 TEMPO FEW014 BKN025=
201608191450 METAR COR EGLL 191450Z 19013KT 9999 -RA FEW017 BKN026 17/14
                        Q1005 TEMPO RA=
201608191420 METAR COR EGLL 191420Z 20011KT 9999 -RA FEW016 BKN028 18/14
                        Q1005 TEMPO RA=
201608191350 METAR COR EGLL 191350Z AUTO 20013KT 150V240 9999 BKN023 19/14
                        Q1005 TEMPO RA=
201608191320 METAR COR EGLL 191320Z AUTO 19012KT 160V240 9999 -RA SCT018
                        BKN035 19/15 Q1005 TEMPO RA=
201608191250 METAR COR EGLL 191250Z 19011KT 150V240 9999 FEW011 SCT016
                        BKN032 19/16 Q1005 TEMPO RA=
201608191220 METAR COR EGLL 191220Z 19012KT 170V240 9999 FEW012 BKN020
                        18/16 Q1005 TEMPO RA=
201608191150 METAR COR EGLL 191150Z 17009KT 9999 FEW017 BKN036 19/17 Q1006
                        TEMPO RA=
201608191120 METAR COR EGLL 191120Z 16007KT 9000 SCT014 BKN021 BKN036
                        18/18 Q1006 TEMPO RA=
201608191050 METAR COR EGLL 191050Z 16007KT 6000 FEW009 SCT012 BKN038
                        18/18 Q1006 NOSIG=
201608191020 METAR COR EGLL 191020Z 14007KT 4200 -RA FEW009 BKN011 18/18
                        Q1006 RERA TEMPO 6000=
201608190950 METAR COR EGLL 190950Z 15007KT 3400 RA FEW007 BKN011 17/17
                        Q1006 TEMPO -RA BKN007=
201608190920 METAR COR EGLL 190920Z AUTO 17007KT 5000 -RA BKN008 17/17
                        Q1007 TEMPO FEW008 BKN012=
201608190850 METAR COR EGLL 190850Z AUTO 17007KT 5000 -RADZ OVC007 18/17
                        Q1007 TEMPO RA FEW007 BKN012=
201608190820 METAR COR EGLL 190820Z AUTO 17008KT 5000 -RA BKN008 18/17
                        Q1007 TEMPO 4000=
201608190750 METAR COR EGLL 190750Z AUTO 16006KT 4300 -RADZ BKN009 17/17
                        Q1007 TEMPO RA FEW009 BKN012=
201608190720 METAR COR EGLL 190720Z AUTO 15005KT 4100 -RA FEW008 BKN017
                        BKN033 17/17 Q1007 TEMPO RA BKN008=
201608190650 METAR COR EGLL 190650Z AUTO 14006KT 4300 -RADZ FEW009 BKN039
                        17/16 Q1007 TEMPO 6000=
201608190620 METAR COR EGLL 190620Z AUTO 15006KT 4700 -RADZ FEW008 BKN037
                        17/15 Q1007 TEMPO RA BKN008=
201608190550 METAR COR EGLL 190550Z AUTO 14005KT 4300 -RA BKN008 17/15
                        Q1007 TEMPO RA=
201608190520 METAR COR EGLL 190520Z AUTO 14004KT 4100 HZ OVC008 17/15
                        Q1008 TEMPO BKN012=
201608190450 METAR COR EGLL 190450Z AUTO 15005KT 4000 HZ OVC008 17/15
                        Q1008 NOSIG=
201608190420 METAR COR EGLL 190420Z AUTO 16006KT 4600 HZ OVC009 17/15
                        Q1008 TEMPO BKN012=
201608190350 METAR COR EGLL 190350Z AUTO 15006KT 5000 HZ BKN009 17/15
                        Q1008 TEMPO BKN012=
201608190320 METAR COR EGLL 190320Z AUTO 14005KT 8000 BKN011 17/15 Q1008
                        TEMPO SCT012=
201608190250 METAR COR EGLL 190250Z AUTO 12005KT 9999 NCD 17/14 Q1009
                        NOSIG=
201608190220 METAR COR EGLL 190220Z AUTO 11006KT 9999 FEW029 17/15 Q1009
                        NOSIG=
201608190150 METAR COR EGLL 190150Z AUTO 11007KT 9999 BKN029 17/15 Q1009
                        NOSIG=
201608190120 METAR COR EGLL 190120Z AUTO 11007KT 9999 BKN030 18/15 Q1009
                        NOSIG=
201608190050 METAR COR EGLL 190050Z AUTO 11007KT 9999 BKN029 18/15 Q1010
                        NOSIG=
201608190020 METAR COR EGLL 190020Z AUTO 10008KT 9999 BKN029 18/15 Q1010
                        NOSIG=
201608182350 METAR COR EGLL 182350Z AUTO 09008KT 9999 BKN030 18/15 Q1010
                        NOSIG=
201608182320 METAR COR EGLL 182320Z AUTO 09009KT 9999 BKN030 18/15 Q1010
                        NOSIG=
201608182250 METAR COR EGLL 182250Z AUTO 09007KT 9999 OVC028 18/15 Q1010
                        NOSIG=
201608182220 METAR COR EGLL 182220Z AUTO 10008KT 9999 BKN026 18/15 Q1010
                        NOSIG=
201608182150 METAR COR EGLL 182150Z AUTO 11007KT 9999 BKN025 18/15 Q1010
                        NOSIG=
201608182120 METAR COR EGLL 182120Z AUTO 11007KT 9999 SCT032 18/15 Q1010
                        NOSIG=
201608182050 METAR COR EGLL 182050Z AUTO 10009KT 9999 NCD 19/13 Q1010
                        NOSIG=
201608182020 METAR COR EGLL 182020Z AUTO 10009KT 9999 FEW039 20/11 Q1010
                        NOSIG=
201608181950 METAR COR EGLL 181950Z AUTO 12008KT 9999 BKN038 20/09 Q1010
                        NOSIG=
201608181920 METAR COR EGLL 181920Z AUTO 11009KT 9999 FEW041 20/09 Q1010
                        NOSIG=
201608181850 METAR COR EGLL 181850Z AUTO 12009KT 9999 NCD 21/09 Q1010
                        NOSIG=
201608181820 METAR COR EGLL 181820Z AUTO 10009KT 9999 NCD 22/11 Q1010
                        NOSIG=
201608181750 METAR COR EGLL 181750Z AUTO 10010KT 9999 NCD 23/12 Q1010
                        NOSIG=
201608181720 METAR COR EGLL 181720Z AUTO 10009KT 9999 NCD 23/12 Q1010
                        NOSIG=
201608181650 METAR COR EGLL 181650Z AUTO 08007KT 050V120 9999 NCD 24/12
                        Q1010 NOSIG=
201608181620 METAR COR EGLL 181620Z AUTO 11007KT 080V140 9999 FEW049 24/12
                        Q1009 NOSIG=
201608181550 METAR COR EGLL 181550Z AUTO 08008KT 9999 NCD 25/12 Q1009
                        NOSIG=
201608181520 METAR COR EGLL 181520Z AUTO 11006KT 080V140 9999 FEW049 25/12
                        Q1009 NOSIG=
201608181450 METAR COR EGLL 181450Z AUTO 07008KT 9999 NCD 25/11 Q1009
                        NOSIG=
201608181420 METAR COR EGLL 181420Z AUTO 10008KT 060V130 9999 NCD 25/09
                        Q1010 NOSIG=
201608181350 METAR COR EGLL 181350Z AUTO 10009KT 9999 FEW045 24/09 Q1010
                        NOSIG=
201608181320 METAR COR EGLL 181320Z AUTO 09008KT 060V140 9999 FEW037 24/12
                        Q1010 NOSIG=
201608181250 METAR COR EGLL 181250Z AUTO VRB03KT 9999 SCT035 24/13 Q1010
                        NOSIG=
201608181220 METAR COR EGLL 181220Z AUTO 12005KT 050V170 9999 FEW031 23/14
                        Q1010 NOSIG=
201608181150 METAR COR EGLL 181150Z AUTO 07006KT 010V100 9999 SCT029 BKN049
                        23/14 Q1010 NOSIG=
201608181120 METAR COR EGLL 181120Z AUTO 08007KT 040V120 9999 FEW033 23/14
                        Q1010 NOSIG=
201608181050 METAR COR EGLL 181050Z AUTO 06008KT 030V100 9999 FEW026 SCT049
                        23/13 Q1010 NOSIG=
201608181020 METAR COR EGLL 181020Z AUTO 09006KT 050V120 9999 FEW025 SCT049
                        21/14 Q1010 NOSIG=
201608180950 METAR COR EGLL 180950Z AUTO 04005KT 320V100 9999 SCT049 21/14
                        Q1010 NOSIG=
201608180920 METAR COR EGLL 180920Z AUTO 36005KT 280V070 9999 NCD 20/14
                        Q1010 NOSIG=
201608180850 METAR COR EGLL 180850Z AUTO VRB03KT 9999 NCD 20/14 Q1010
                        NOSIG=
201608180820 METAR COR EGLL 180820Z AUTO VRB03KT 9999 //////CB 19/14 Q1010
                        NOSIG=
201608180750 METAR COR EGLL 180750Z AUTO 03004KT 350V080 9999 NCD 18/14
                        Q1010 NOSIG=
201608180720 METAR COR EGLL 180720Z AUTO 35004KT 310V020 9999 NCD 17/14
                        Q1010 NOSIG=
201608180650 METAR COR EGLL 180650Z AUTO VRB03KT 9999 NCD 17/14 Q1010
                        NOSIG=
201608180620 METAR COR EGLL 180620Z AUTO 02004KT 340V050 9999 NCD 16/14
                        Q1010 NOSIG=
201608180550 METAR COR EGLL 180550Z AUTO 05004KT 010V080 9999 NCD 16/14
                        Q1010 NOSIG=
201608180520 METAR COR EGLL 180520Z AUTO 04004KT 010V070 9999 NCD 16/14
                        Q1010 NOSIG=
201608180450 METAR COR EGLL 180450Z AUTO 01004KT 340V040 9999 NCD 16/14
                        Q1010 NOSIG=
201608180420 METAR COR EGLL 180420Z AUTO 36005KT 9999 NCD 16/13 Q1010
                        NOSIG=
201608180350 METAR COR EGLL 180350Z AUTO 35004KT 9999 NCD 16/13 Q1011
                        NOSIG=
201608180320 METAR COR EGLL 180320Z AUTO VRB03KT 9999 NCD 16/13 Q1011
                        NOSIG=
201608180250 METAR COR EGLL 180250Z AUTO VRB03KT 9999 NCD 16/13 Q1011
                        NOSIG=
201608180220 METAR COR EGLL 180220Z AUTO VRB02KT 9999 NCD 16/13 Q1011
                        NOSIG=
201608180150 METAR COR EGLL 180150Z AUTO VRB02KT 9999 NCD 17/13 Q1010
                        NOSIG=
201608180120 METAR COR EGLL 180120Z AUTO VRB02KT 9999 NCD 17/13 Q1011
                        NOSIG=
201608180050 METAR COR EGLL 180050Z AUTO 04003KT 9999 NCD 17/14 Q1011
                        NOSIG=
201608180020 METAR COR EGLL 180020Z AUTO 06004KT 9999 NCD 16/13 Q1011
                        NOSIG=
201608172350 METAR COR EGLL 172350Z AUTO 06002KT 9999 NCD 17/13 Q1011
                        NOSIG=
201608172320 METAR COR EGLL 172320Z AUTO 06005KT 9999 NCD 17/13 Q1011
                        NOSIG=
201608172250 METAR COR EGLL 172250Z AUTO VRB03KT 9999 NCD 16/13 Q1011
                        NOSIG=
201608172220 METAR COR EGLL 172220Z AUTO 10004KT 9999 NCD 17/13 Q1012
                        NOSIG=
201608172150 METAR COR EGLL 172150Z AUTO 12005KT 9999 NCD 17/13 Q1012
                        NOSIG=
201608172120 METAR COR EGLL 172120Z AUTO 14005KT 9999 NCD 19/12 Q1012
                        NOSIG=
201608172050 METAR COR EGLL 172050Z AUTO 10007KT 9999 NCD 19/11 Q1012
                        NOSIG=
201608172020 METAR COR EGLL 172020Z AUTO 10009KT 9999 NCD 19/11 Q1012
                        NOSIG=
201608171950 METAR COR EGLL 171950Z AUTO 10008KT 9999 NCD 20/10 Q1011
                        NOSIG=
201608171920 METAR COR EGLL 171920Z AUTO 10008KT 9999 NCD 21/10 Q1011
                        NOSIG=
201608171850 METAR COR EGLL 171850Z AUTO 09008KT 9999 NCD 21/10 Q1011
                        NOSIG=
201608171820 METAR COR EGLL 171820Z AUTO 07006KT 9999 NCD 23/09 Q1011
                        NOSIG=
201608171750 METAR COR EGLL 171750Z AUTO 08008KT 040V110 9999 NCD 25/09
                        Q1011 NOSIG=
201608171720 METAR COR EGLL 171720Z AUTO 09005KT 040V140 9999 NCD 25/08
                        Q1011 NOSIG=
201608171650 METAR COR EGLL 171650Z AUTO VRB03KT 9999 NCD 26/08 Q1011
                        NOSIG=
201608171620 METAR COR EGLL 171620Z AUTO 06004KT 010V130 9999 NCD 26/08
                        Q1011 NOSIG=
201608171550 METAR COR EGLL 171550Z AUTO VRB05KT 9999 NCD 26/08 Q1011
                        NOSIG=
201608171520 METAR COR EGLL 171520Z AUTO 07006KT 340V130 9999 NCD 26/09
                        Q1011 NOSIG=
201608171450 METAR COR EGLL 171450Z AUTO 08005KT 030V130 9999 NCD 26/08
                        Q1012 NOSIG=
201608171420 METAR COR EGLL 171420Z AUTO 08005KT 030V130 9999 NCD 26/08
                        Q1012 NOSIG=
201608171350 METAR COR EGLL 171350Z AUTO 10005KT 010V190 9999 NCD 26/09
                        Q1012 NOSIG=
201608171320 METAR COR EGLL 171320Z AUTO 10007KT 060V140 9999 NCD 26/09
                        Q1012 NOSIG=
201608171250 METAR COR EGLL 171250Z AUTO VRB05KT 9999 NCD 26/10 Q1012
                        NOSIG=
201608171220 METAR COR EGLL 171220Z AUTO 13006KT 030V180 9999 FEW046 24/11
                        Q1013 NOSIG=
201608171150 METAR COR EGLL 171150Z AUTO 10006KT 020V150 9999 SCT041 25/11
                        Q1013 NOSIG=
201608171120 METAR COR EGLL 171120Z AUTO 10007KT 040V150 9999 FEW040 24/12
                        Q1013 NOSIG=
201608171050 METAR COR EGLL 171050Z AUTO 11009KT 9999 FEW040 23/12 Q1013
                        NOSIG=
201608171020 METAR COR EGLL 171020Z AUTO 09008KT 050V130 9999 NCD 23/13
                        Q1014 NOSIG=
201608170950 METAR COR EGLL 170950Z AUTO 08007KT 040V130 9999 FEW042 22/13
                        Q1014 NOSIG=
201608170920 METAR COR EGLL 170920Z AUTO 09007KT 050V130 9999 BKN040 21/13
                        Q1014 NOSIG=
201608170850 METAR COR EGLL 170850Z AUTO 11009KT 9999 NCD 20/14 Q1014
                        NOSIG=
201608170820 METAR COR EGLL 170820Z AUTO 09008KT 050V120 9999 FEW015 19/14
                        Q1014 NOSIG=
201608170750 METAR COR EGLL 170750Z AUTO 08004KT 050V110 9999 FEW012 18/14
                        Q1014 NOSIG=
201608170720 METAR COR EGLL 170720Z AUTO 07006KT 9999 NCD 16/13 Q1014
                        NOSIG=
201608170650 METAR COR EGLL 170650Z AUTO 07004KT 9000 FEW040 15/13 Q1014
                        NOSIG=
201608170620 METAR COR EGLL 170620Z AUTO 05004KT 9999 FEW041 14/13 Q1014
                        NOSIG=
201608170550 METAR COR EGLL 170550Z AUTO 05004KT 9999 SCT041 14/12 Q1014
                        NOSIG=
201608170520 METAR COR EGLL 170520Z 04004KT 9999 SCT042 13/12 Q1014 NOSIG=
201608170450 METAR COR EGLL 170450Z 04004KT 9999 FEW015 SCT039 13/12 Q1014
                        NOSIG=
201608170420 METAR COR EGLL 170420Z AUTO 04004KT 9999 BKN039 13/12 Q1015
                        NOSIG=
201608170350 METAR COR EGLL 170350Z AUTO 04005KT 9999 NCD 13/11 Q1015
                        NOSIG=
201608170320 METAR COR EGLL 170320Z AUTO 03004KT 9999 NCD 13/11 Q1015
                        NOSIG=
201608170250 METAR COR EGLL 170250Z AUTO 04004KT 9999 FEW036 13/11 Q1015
                        NOSIG=
201608170220 METAR COR EGLL 170220Z AUTO 04005KT 9999 FEW016 14/12 Q1016
                        NOSIG=
201608170150 METAR COR EGLL 170150Z AUTO 03004KT 340V060 9999 FEW017 14/12
                        Q1016 NOSIG=
201608170120 METAR COR EGLL 170120Z AUTO 03004KT 9999 FEW018 14/12 Q1016
                        NOSIG=
201608170050 METAR COR EGLL 170050Z AUTO 04004KT 360V060 9999 NCD 14/12
                        Q1016 NOSIG=
201608170020 METAR COR EGLL 170020Z AUTO 04004KT 9999 NCD 15/12 Q1017
                        NOSIG=
201608162350 METAR COR EGLL 162350Z AUTO 05004KT 9999 NCD 15/12 Q1017
                        NOSIG=
201608162320 METAR COR EGLL 162320Z AUTO 05004KT 9999 NCD 15/11 Q1017
                        NOSIG=
201608162250 METAR COR EGLL 162250Z AUTO 06004KT 9999 NCD 15/11 Q1017
                        NOSIG=
201608162220 METAR COR EGLL 162220Z AUTO 07004KT 9999 NCD 16/10 Q1017
                        NOSIG=
201608162150 METAR COR EGLL 162150Z AUTO 08005KT 9999 NCD 16/10 Q1017
                        NOSIG=
201608162120 METAR COR EGLL 162120Z AUTO 10006KT 9999 NCD 15/10 Q1017
                        NOSIG=
201608162050 METAR COR EGLL 162050Z AUTO 11006KT 9999 NCD 16/11 Q1017
                        NOSIG=
201608162020 METAR COR EGLL 162020Z AUTO 11008KT 9999 NCD 17/10 Q1017
                        NOSIG=
201608161950 METAR COR EGLL 161950Z AUTO 09009KT 9999 NCD 18/10 Q1017
                        NOSIG=
201608161920 METAR COR EGLL 161920Z AUTO 09012KT 9999 NCD 19/11 Q1017
                        NOSIG=
201608161850 METAR COR EGLL 161850Z AUTO 10011KT 9999 NCD 19/11 Q1017
                        NOSIG=
201608161820 METAR COR EGLL 161820Z AUTO 08010KT 9999 NCD 20/11 Q1017
                        NOSIG=
201608161750 METAR COR EGLL 161750Z AUTO 10012KT 9999 NCD 21/11 Q1017
                        NOSIG=
201608161720 METAR COR EGLL 161720Z AUTO 09010KT 9999 FEW044 22/11 Q1017
                        NOSIG=
201608161650 METAR COR EGLL 161650Z AUTO 10009KT 9999 NCD 23/11 Q1017
                        NOSIG=
201608161620 METAR COR EGLL 161620Z AUTO 09007KT 040V120 9999 FEW046 24/11
                        Q1017 NOSIG=
201608161550 METAR COR EGLL 161550Z AUTO 11011KT 9999 FEW048 24/11 Q1017
                        NOSIG=
201608161520 METAR COR EGLL 161520Z AUTO 09009KT 050V130 9999 FEW047 24/11
                        Q1018 NOSIG=
201608161450 METAR COR EGLL 161450Z AUTO 09009KT 060V120 9999 SCT048 24/11
                        Q1018 NOSIG=
201608161420 METAR COR EGLL 161420Z AUTO 09007KT 050V140 9999 NCD 24/10
                        Q1018 NOSIG=
201608161350 METAR COR EGLL 161350Z AUTO 11006KT 030V140 9999 NCD 25/10
                        Q1018 NOSIG=
201608161320 METAR COR EGLL 161320Z AUTO VRB05KT 9999 SCT042 24/11 Q1018
                        NOSIG=
201608161250 METAR COR EGLL 161250Z AUTO 12006KT 070V150 9999 SCT039 23/11
                        Q1018 NOSIG=
201608161220 METAR COR EGLL 161220Z AUTO 12007KT 040V140 9999 SCT038 23/12
                        Q1019 NOSIG=
201608161150 METAR COR EGLL 161150Z AUTO 07006KT 020V110 9999 FEW035 23/12
                        Q1019 NOSIG=
201608161120 METAR COR EGLL 161120Z AUTO 05007KT 350V080 9999 FEW032 22/12
                        Q1019 NOSIG=
201608161050 METAR COR EGLL 161050Z AUTO 05007KT 010V080 9999 FEW007 SCT029
                        22/12 Q1019 NOSIG=
201608161020 METAR COR EGLL 161020Z AUTO 06005KT 340V120 9999 BKN026 21/12
                        Q1020 NOSIG=
201608160950 METAR COR EGLL 160950Z AUTO 07006KT 010V110 9999 BKN022 20/13
                        Q1020 NOSIG=
201608160920 METAR COR EGLL 160920Z AUTO 09006KT 040V130 9999 BKN020 19/13
                        Q1020 NOSIG=
201608160850 METAR COR EGLL 160850Z AUTO 09007KT 040V120 9999 SCT017 19/13
                        Q1020 NOSIG=
201608160820 METAR COR EGLL 160820Z AUTO 08006KT 040V120 9999 FEW013 18/14
                        Q1020 NOSIG=
201608160750 METAR COR EGLL 160750Z AUTO 07005KT 040V110 9999 FEW013 17/13
                        Q1020 NOSIG=
201608160720 METAR COR EGLL 160720Z AUTO 07005KT 9999 NCD 16/13 Q1020
                        NOSIG=
201608160650 METAR COR EGLL 160650Z AUTO 06006KT 9999 NCD 15/12 Q1020
                        NOSIG=
201608160620 METAR COR EGLL 160620Z AUTO 04004KT 360V090 9999 NCD 14/12
                        Q1020 NOSIG=
201608160550 METAR COR EGLL 160550Z AUTO 03004KT 350V060 9999 NCD 13/11
                        Q1020 NOSIG=
201608160520 METAR COR EGLL 160520Z AUTO VRB03KT 9999 NCD 12/11 Q1021
                        NOSIG=
201608160450 METAR COR EGLL 160450Z AUTO 03003KT 9999 NCD 13/11 Q1021
                        NOSIG=
201608160420 METAR EGLL 160420Z AUTO 03004KT 9999 NCD 13/11 Q1021 NOSIG=
201608160350 METAR COR EGLL 160350Z AUTO 04005KT 9999 NCD 13/11 Q1021
                        NOSIG=
201608160320 METAR COR EGLL 160320Z AUTO 03004KT 9999 NCD 13/11 Q1021
                        NOSIG=
201608160250 METAR COR EGLL 160250Z AUTO 03004KT 9999 NCD 13/12 Q1021
                        NOSIG=
201608160220 METAR COR EGLL 160220Z AUTO 04004KT 9999 NCD 14/12 Q1021
                        NOSIG=
201608160150 METAR COR EGLL 160150Z AUTO 05004KT 9999 NCD 14/12 Q1021
                        NOSIG=
201608160120 METAR COR EGLL 160120Z AUTO 03004KT 9999 NCD 13/12 Q1022
                        NOSIG=
201608160050 METAR COR EGLL 160050Z AUTO 07002KT 9999 NCD 13/11 Q1022
                        NOSIG=
201608160020 METAR COR EGLL 160020Z AUTO 07003KT 9999 NCD 13/11 Q1022
                        NOSIG=
201608152350 METAR COR EGLL 152350Z AUTO 08005KT 9999 NCD 14/11 Q1022
                        NOSIG=
201608152320 METAR COR EGLL 152320Z AUTO 08005KT 9999 NCD 14/11 Q1022
                        NOSIG=
201608152250 METAR COR EGLL 152250Z AUTO 09006KT 9999 NCD 15/11 Q1023
                        NOSIG=
201608152220 METAR COR EGLL 152220Z AUTO 09007KT 9999 NCD 16/11 Q1023
                        NOSIG=
201608152150 METAR COR EGLL 152150Z AUTO 10009KT 9999 NCD 16/11 Q1023
                        NOSIG=
201608152120 METAR COR EGLL 152120Z AUTO 10010KT 9999 NCD 15/11 Q1023
                        NOSIG=
201608152050 METAR COR EGLL 152050Z AUTO 11007KT 9999 NCD 16/11 Q1023
                        NOSIG=
201608152020 METAR COR EGLL 152020Z AUTO 11009KT 9999 NCD 17/10 Q1023
                        NOSIG=
201608151950 METAR COR EGLL 151950Z AUTO 10009KT 9999 NCD 17/10 Q1023
                        NOSIG=
201608151920 METAR COR EGLL 151920Z AUTO 10009KT 9999 NCD 18/10 Q1022
                        NOSIG=
201608151850 METAR COR EGLL 151850Z AUTO 11010KT 9999 NCD 19/11 Q1022
                        NOSIG=
201608151820 METAR COR EGLL 151820Z AUTO 09011KT 9999 NCD 20/11 Q1022
                        NOSIG=
201608151750 METAR COR EGLL 151750Z AUTO 10010KT 9999 NCD 21/11 Q1022
                        NOSIG=
201608151720 METAR COR EGLL 151720Z AUTO 11011KT 9999 NCD 22/11 Q1022
                        NOSIG=
201608151650 METAR COR EGLL 151650Z AUTO 09010KT 9999 NCD 22/10 Q1022
                        NOSIG=
201608151620 METAR COR EGLL 151620Z AUTO 11009KT 080V150 9999 NCD 23/10
                        Q1023 NOSIG=
201608151550 METAR COR EGLL 151550Z AUTO 09010KT 060V130 9999 NCD 23/10
                        Q1023 NOSIG=
201608151520 METAR COR EGLL 151520Z AUTO 11009KT 070V140 9999 NCD 24/10
                        Q1023 NOSIG=
201608151450 METAR COR EGLL 151450Z AUTO 11009KT 080V140 9999 NCD 24/10
                        Q1023 NOSIG=
201608151420 METAR COR EGLL 151420Z AUTO 09009KT 040V130 9999 NCD 24/10
                        Q1023 NOSIG=
201608151350 METAR COR EGLL 151350Z AUTO 09009KT 050V110 9999 NCD 24/10
                        Q1024 NOSIG=
201608151320 METAR COR EGLL 151320Z AUTO 12009KT 9999 NCD 23/10 Q1024
                        NOSIG=
201608151250 METAR COR EGLL 151250Z AUTO 11009KT 080V140 9999 NCD 23/10
                        Q1024 NOSIG=
201608151220 METAR COR EGLL 151220Z AUTO 13008KT 080V160 9999 NCD 23/10
                        Q1024 NOSIG=
201608151150 METAR COR EGLL 151150Z AUTO 09009KT 040V130 9999 NCD 23/10
                        Q1024 NOSIG=
201608151120 METAR COR EGLL 151120Z AUTO 09009KT 050V130 9999 FEW041 23/10
                        Q1025 NOSIG=
201608151050 METAR COR EGLL 151050Z AUTO 08008KT 020V120 9999 FEW039 22/10
                        Q1025 NOSIG=
201608151020 METAR COR EGLL 151020Z AUTO 07009KT 020V100 9999 NCD 22/10
                        Q1025 NOSIG=
201608150950 METAR COR EGLL 150950Z AUTO 09009KT 9999 SCT036 21/10 Q1025
                        NOSIG=
201608150920 METAR COR EGLL 150920Z AUTO 08009KT 050V110 9999 FEW036 20/10
                        Q1025 NOSIG=
201608150850 METAR COR EGLL 150850Z AUTO 07008KT 040V100 9999 FEW028 19/10
                        Q1026 NOSIG=
201608150820 METAR COR EGLL 150820Z AUTO 08008KT 040V110 9999 FEW026 19/11
                        Q1026 NOSIG=
201608150750 METAR COR EGLL 150750Z AUTO 07005KT 010V100 9999 NCD 18/12
                        Q1026 NOSIG=
201608150720 METAR COR EGLL 150720Z AUTO 03004KT 350V080 9999 NCD 17/12
                        Q1026 NOSIG=
201608150650 METAR COR EGLL 150650Z AUTO VRB03KT 9999 NCD 16/12 Q1026
                        NOSIG=
201608150620 METAR COR EGLL 150620Z AUTO VRB03KT 9999 NCD 14/11 Q1026
                        NOSIG=
201608150550 METAR COR EGLL 150550Z AUTO VRB02KT 9999 NCD 13/11 Q1026
                        NOSIG=
201608150520 METAR COR EGLL 150520Z AUTO 36002KT 9999 NCD 13/10 Q1025
                        NOSIG=
201608150450 METAR COR EGLL 150450Z AUTO 03002KT 9999 NCD 12/10 Q1025
                        NOSIG=
201608150420 METAR COR EGLL 150420Z AUTO VRB02KT 9999 NCD 12/10 Q1025
                        NOSIG=
201608150350 METAR COR EGLL 150350Z AUTO 02002KT 9999 NCD 13/10 Q1025
                        NOSIG=
201608150320 METAR COR EGLL 150320Z AUTO 01002KT 9999 NCD 13/10 Q1026
                        NOSIG=
201608150250 METAR COR EGLL 150250Z AUTO 01001KT 9999 NCD 13/10 Q1026
                        NOSIG=
201608150220 METAR COR EGLL 150220Z AUTO 10002KT 9999 NCD 13/10 Q1026
                        NOSIG=
201608150150 METAR COR EGLL 150150Z AUTO VRB02KT 9999 NCD 14/10 Q1026
                        NOSIG=
201608150120 METAR COR EGLL 150120Z AUTO VRB02KT 9999 NCD 14/10 Q1026
                        NOSIG=
201608150050 METAR COR EGLL 150050Z AUTO 11003KT 9999 NCD 14/10 Q1026
                        NOSIG=
201608150020 METAR COR EGLL 150020Z AUTO 13004KT 9999 NCD 14/10 Q1026
                        NOSIG=
201608142350 METAR COR EGLL 142350Z AUTO 12006KT 9999 NCD 15/10 Q1026
                        NOSIG=
201608142320 METAR COR EGLL 142320Z AUTO 11008KT 9999 NCD 15/10 Q1026
                        NOSIG=
201608142250 METAR COR EGLL 142250Z AUTO 09005KT 9999 NCD 15/10 Q1026
                        NOSIG=
201608142220 METAR COR EGLL 142220Z AUTO 06004KT 9999 NCD 17/09 Q1026
                        NOSIG=
201608142150 METAR COR EGLL 142150Z AUTO 05003KT 9999 NCD 18/09 Q1026
                        NOSIG=
201608142120 METAR COR EGLL 142120Z AUTO 04004KT 9999 NCD 19/09 Q1026
                        NOSIG=
201608142050 METAR COR EGLL 142050Z AUTO 06005KT 9999 NCD 19/09 Q1026
                        NOSIG=
201608142020 METAR COR EGLL 142020Z AUTO 05004KT 9999 NCD 19/09 Q1026
                        NOSIG=
201608141950 METAR COR EGLL 141950Z AUTO 05004KT 020V080 9999 NCD 20/09
                        Q1025 NOSIG=
201608141920 METAR COR EGLL 141920Z AUTO 05003KT 9999 NCD 20/09 Q1025
                        NOSIG=
201608141850 METAR COR EGLL 141850Z AUTO 04004KT 010V080 9999 NCD 21/09
                        Q1025 NOSIG=
201608141820 METAR COR EGLL 141820Z AUTO 04004KT 010V090 9999 NCD 21/09
                        Q1025 NOSIG=
201608141750 METAR COR EGLL 141750Z AUTO 05004KT 010V080 9999 NCD 22/09
                        Q1025 NOSIG=
201608141720 METAR COR EGLL 141720Z AUTO 30005KT 270V340 9999 NCD 22/08
                        Q1025 NOSIG=
201608141650 METAR COR EGLL 141650Z AUTO 05005KT 340V080 9999 NCD 22/08
                        Q1025 NOSIG=
201608141620 METAR COR EGLL 141620Z AUTO 02004KT 310V090 9999 NCD 23/08
                        Q1025 NOSIG=
201608141550 METAR COR EGLL 141550Z AUTO VRB04KT 9999 NCD 22/09 Q1025
                        NOSIG=
201608141520 METAR COR EGLL 141520Z AUTO VRB05KT 9999 SCT049 22/08 Q1025
                        NOSIG=
201608141450 METAR COR EGLL 141450Z AUTO VRB04KT 9999 FEW046 22/09 Q1025
                        NOSIG=
201608141420 METAR COR EGLL 141420Z AUTO VRB03KT 9999 BKN045 22/09 Q1026
                        NOSIG=
201608141350 METAR COR EGLL 141350Z AUTO VRB03KT 9999 BKN043 22/09 Q1026
                        NOSIG=
201608141320 METAR COR EGLL 141320Z AUTO 35004KT 290V060 9999 BKN042 21/09
                        Q1026 NOSIG=
201608141250 METAR COR EGLL 141250Z AUTO 36004KT 300V040 9999 OVC040 20/09
                        Q1026 NOSIG=
201608141220 METAR COR EGLL 141220Z AUTO 35005KT 300V080 9999 OVC041 20/09
                        Q1026 NOSIG=
201608141150 METAR COR EGLL 141150Z AUTO VRB04KT 9999 OVC041 20/09 Q1026
                        NOSIG=
201608141120 METAR COR EGLL 141120Z AUTO 01004KT 280V070 9999 OVC041 20/09
                        Q1026 NOSIG=
201608141050 METAR COR EGLL 141050Z AUTO 34005KT 290V040 9999 OVC040 20/09
                        Q1026 NOSIG=
201608141020 METAR COR EGLL 141020Z AUTO 34004KT 280V030 9999 OVC036 20/08
                        Q1026 NOSIG=
201608140950 METAR COR EGLL 140950Z AUTO 36004KT 320V070 9999 OVC046 20/09
                        Q1026 NOSIG=
201608140920 METAR COR EGLL 140920Z AUTO 35004KT 310V060 9999 OVC046 19/09
                        Q1026 NOSIG=
201608140850 METAR COR EGLL 140850Z AUTO VRB02KT 9999 OVC046 19/09 Q1026
                        NOSIG=
201608140820 METAR COR EGLL 140820Z AUTO VRB02KT 9999 OVC046 19/09 Q1026
                        NOSIG=
201608140750 METAR COR EGLL 140750Z AUTO VRB03KT 9999 OVC047 18/09 Q1025
                        NOSIG=
201608140720 METAR COR EGLL 140720Z AUTO VRB02KT 9999 OVC046 17/09 Q1025
                        NOSIG=
201608140650 METAR COR EGLL 140650Z AUTO VRB02KT 9999 OVC046 17/09 Q1025
                        NOSIG=
201608140620 METAR COR EGLL 140620Z AUTO VRB02KT 9999 OVC045 17/10 Q1025
                        NOSIG=
201608140550 METAR COR EGLL 140550Z AUTO 34002KT 9999 OVC044 16/10 Q1025
                        NOSIG=
201608140520 METAR COR EGLL 140520Z AUTO VRB03KT 9999 OVC047 16/10 Q1025
                        NOSIG=
201608140450 METAR COR EGLL 140450Z AUTO VRB03KT 9999 OVC046 16/09 Q1024
                        NOSIG=
201608140420 METAR COR EGLL 140420Z AUTO 36004KT 330V040 9999 OVC043 16/09
                        Q1024 NOSIG=
201608140350 METAR COR EGLL 140350Z AUTO 35004KT 320V020 9999 OVC047 17/09
                        Q1024 NOSIG=
201608140320 METAR COR EGLL 140320Z AUTO VRB03KT 9999 OVC043 17/09 Q1024
                        NOSIG=
201608140250 METAR COR EGLL 140250Z AUTO 01004KT 330V040 9999 OVC045 17/09
                        Q1024 NOSIG=
201608140220 METAR COR EGLL 140220Z AUTO 04006KT 9999 OVC044 17/09 Q1024
                        NOSIG=
201608140150 METAR COR EGLL 140150Z AUTO 03004KT 360V070 9999 BKN047 17/09
                        Q1024 NOSIG=
201608140120 METAR COR EGLL 140120Z AUTO 03004KT 360V070 9999 BKN047 18/09
                        Q1024 NOSIG=
201608140050 METAR EGLL 140050Z AUTO 03005KT 350V070 9999 OVC048 18/10
                        Q1024=
201608140020 METAR EGLL 140020Z AUTO 03006KT 9999 OVC048 18/10 Q1024=
201608132350 METAR EGLL 132350Z AUTO VRB03KT 9999 BKN048 18/11 Q1024=
201608132320 METAR COR EGLL 132320Z AUTO 35004KT 9999 SCT047 18/11 Q1024
                        NOSIG=
201608132250 METAR COR EGLL 132250Z AUTO 33004KT 9999 BKN047 18/11 Q1024
                        NOSIG=
201608132220 METAR COR EGLL 132220Z AUTO 33005KT 300V010 9999 OVC048 19/10
                        Q1024 NOSIG=
201608132150 METAR COR EGLL 132150Z AUTO 32005KT 9999 OVC048 19/10 Q1024
                        NOSIG=
201608132120 METAR EGLL 132120Z AUTO 32005KT 9999 OVC047 20/10 Q1023=
201608132050 METAR COR EGLL 132050Z AUTO 33005KT 300V010 9999 BKN047 20/10
                        Q1023 NOSIG=
201608132020 METAR COR EGLL 132020Z AUTO 35005KT 320V030 9999 BKN047 21/10
                        Q1023 NOSIG=
201608131950 METAR COR EGLL 131950Z AUTO 32004KT 300V020 9999 SCT047 21/11
                        Q1023 NOSIG=
201608131920 METAR COR EGLL 131920Z AUTO 29008KT 260V320 9999 BKN047 21/11
                        Q1022 NOSIG=
201608131850 METAR COR EGLL 131850Z AUTO 26011KT 9999 BKN049 22/11 Q1022
                        NOSIG=
201608131820 METAR COR EGLL 131820Z AUTO 26011KT 9999 NCD 23/11 Q1022
                        NOSIG=
201608131750 METAR COR EGLL 131750Z AUTO 25012KT 220V280 9999 SCT049 24/11
                        Q1022 NOSIG=
201608131720 METAR COR EGLL 131720Z AUTO 25011KT 9999 NCD 24/11 Q1022
                        NOSIG=
201608131650 METAR COR EGLL 131650Z AUTO 27014KT 9999 NCD 25/11 Q1022
                        NOSIG=
201608131620 METAR COR EGLL 131620Z AUTO 26014KT 9999 SCT048 25/11 Q1022
                        NOSIG=
201608131550 METAR COR EGLL 131550Z AUTO 25015KT 9999 SCT047 24/11 Q1022
                        NOSIG=
201608131520 METAR COR EGLL 131520Z AUTO 26012KT 230V290 9999 BKN040 24/13
                        Q1022 NOSIG=
201608131450 METAR COR EGLL 131450Z AUTO 25013KT 9999 BKN037 24/13 Q1022
                        NOSIG=
201608131420 METAR COR EGLL 131420Z AUTO 24014KT 9999 SCT034 25/14 Q1022
                        NOSIG=
201608131350 METAR COR EGLL 131350Z AUTO 26013KT 9999 BKN031 24/13 Q1022
                        NOSIG=
201608131320 METAR COR EGLL 131320Z AUTO 25013KT 9999 BKN032 BKN048 23/14
                        Q1022 NOSIG=
201608131250 METAR COR EGLL 131250Z AUTO 27008KT 240V300 9999 OVC028 23/14
                        Q1022 NOSIG=
201608131220 METAR COR EGLL 131220Z AUTO 25013KT 9999 OVC027 22/14 Q1022
                        NOSIG=
201608131150 METAR COR EGLL 131150Z AUTO 24010KT 9999 BKN024 OVC039 22/14
                        Q1022 NOSIG=
201608131120 METAR COR EGLL 131120Z AUTO 25014KT 9999 SCT020 BKN036 22/14
                        Q1023 NOSIG=
201608131050 METAR COR EGLL 131050Z AUTO 25012KT 9999 OVC019 20/14 Q1023
                        NOSIG=
201608131020 METAR COR EGLL 131020Z AUTO 25011KT 9999 OVC019 19/14 Q1023
                        NOSIG=
201608130950 METAR COR EGLL 130950Z AUTO 26011KT 9999 OVC018 19/14 Q1023
                        NOSIG=
201608130920 METAR COR EGLL 130920Z AUTO 26011KT 9999 OVC018 19/14 Q1023
                        NOSIG=
201608130850 METAR COR EGLL 130850Z AUTO 26013KT 9999 OVC019 19/13 Q1023
                        NOSIG=
201608130820 METAR COR EGLL 130820Z 26011KT 9999 BKN021 18/13 Q1023 NOSIG=
201608130750 METAR COR EGLL 130750Z 26012KT 9999 FEW019 BKN021 18/13 Q1023
                        NOSIG=
201608130720 METAR COR EGLL 130720Z 25010KT 9999 FEW018 18/13 Q1023 NOSIG=
201608130650 METAR COR EGLL 130650Z AUTO 25009KT 9999 NCD 17/13 Q1023
                        NOSIG=
201608130620 METAR COR EGLL 130620Z AUTO 22007KT 9999 NCD 16/13 Q1022
                        NOSIG=
201608130550 METAR COR EGLL 130550Z AUTO 23009KT 9999 FEW020 15/12 Q1022
                        NOSIG=
201608130520 METAR COR EGLL 130520Z AUTO 23009KT 9999 FEW021 15/12 Q1022
                        NOSIG=
201608130450 METAR COR EGLL 130450Z AUTO 23009KT 9999 NCD 15/12 Q1022
                        NOSIG=
201608130420 METAR COR EGLL 130420Z AUTO 23008KT 9999 NCD 15/12 Q1022
                        NOSIG=
201608130350 METAR COR EGLL 130350Z AUTO 24009KT 9999 NCD 15/12 Q1022
                        NOSIG=
201608130320 METAR COR EGLL 130320Z AUTO 24008KT 9999 NCD 15/12 Q1022
                        NOSIG=
201608130250 METAR COR EGLL 130250Z AUTO 24009KT 9999 NCD 16/12 Q1022
                        NOSIG=
201608130220 METAR COR EGLL 130220Z AUTO 24009KT 9999 NCD 16/12 Q1022
                        NOSIG=
201608130150 METAR COR EGLL 130150Z AUTO 24010KT 9999 NCD 16/12 Q1022
                        NOSIG=
201608130120 METAR COR EGLL 130120Z AUTO 24009KT 9999 NCD 17/12 Q1022
                        NOSIG=
201608130050 METAR COR EGLL 130050Z AUTO 24008KT 9999 SCT026 16/12 Q1022
                        NOSIG=
201608130020 METAR COR EGLL 130020Z AUTO 23009KT 9999 BKN026 16/12 Q1023
                        NOSIG=
201608122350 METAR COR EGLL 122350Z AUTO 23009KT 9999 OVC026 17/12 Q1023
                        NOSIG=
201608122320 METAR COR EGLL 122320Z AUTO 25008KT 9999 BKN026 17/12 Q1023
                        NOSIG=
201608122250 METAR COR EGLL 122250Z AUTO 25008KT 9999 NCD 17/12 Q1023
                        NOSIG=
201608122220 METAR COR EGLL 122220Z AUTO 26011KT 9999 NCD 17/12 Q1023
                        NOSIG=
201608122150 METAR COR EGLL 122150Z AUTO 27013KT 9999 NCD 17/12 Q1023
                        NOSIG=
201608122120 METAR COR EGLL 122120Z AUTO 27014KT 9999 NCD 17/12 Q1023
                        NOSIG=
201608122050 METAR COR EGLL 122050Z AUTO 27014KT 9999 FEW027 18/12 Q1023
                        NOSIG=
201608122020 METAR COR EGLL 122020Z AUTO 27013KT 9999 NCD 18/12 Q1023
                        NOSIG=
201608121950 METAR COR EGLL 121950Z AUTO 28013KT 9999 NCD 19/12 Q1023
                        NOSIG=
201608121920 METAR COR EGLL 121920Z AUTO 28012KT 9999 NCD 20/13 Q1023
                        NOSIG=
201608121850 METAR COR EGLL 121850Z AUTO 28013KT 9999 NCD 21/13 Q1022
                        NOSIG=
201608121820 METAR COR EGLL 121820Z AUTO 28014KT 9999 NCD 22/13 Q1022
                        NOSIG=
201608121750 METAR COR EGLL 121750Z AUTO 28014KT 9999 NCD 24/13 Q1022
                        NOSIG=
201608121720 METAR COR EGLL 121720Z AUTO 27015KT 9999 NCD 24/12 Q1022
                        NOSIG=
201608121650 METAR COR EGLL 121650Z AUTO 27014KT 9999 NCD 25/12 Q1022
                        NOSIG=
201608121620 METAR COR EGLL 121620Z AUTO 28012KT 9999 NCD 26/12 Q1022
                        NOSIG=
201608121550 METAR COR EGLL 121550Z AUTO 26016KT 9999 NCD 27/10 Q1022
                        NOSIG=
201608121520 METAR EGLL 121520Z AUTO 26014KT 9999 NCD 27/10 Q1022=
201608121450 METAR COR EGLL 121450Z AUTO 26014KT 220V290 9999 NCD 27/10
                        Q1022 NOSIG=
201608121420 METAR COR EGLL 121420Z AUTO 26013KT 9999 NCD 27/10 Q1023
                        NOSIG=
201608121350 METAR COR EGLL 121350Z AUTO 24011KT 9999 NCD 26/10 Q1023
                        NOSIG=
201608121320 METAR COR EGLL 121320Z AUTO 25012KT 9999 NCD 26/08 Q1023
                        NOSIG=
201608121250 METAR COR EGLL 121250Z AUTO 26012KT 9999 NCD 26/10 Q1023
                        NOSIG=
201608121220 METAR COR EGLL 121220Z AUTO 25011KT 210V290 9999 NCD 25/11
                        Q1023 NOSIG=
201608121150 METAR COR EGLL 121150Z AUTO 24012KT 9999 NCD 24/11 Q1023
                        NOSIG=
201608121120 METAR COR EGLL 121120Z AUTO 25012KT 230V290 9999 NCD 23/13
                        Q1024 NOSIG=
201608121050 METAR COR EGLL 121050Z AUTO 25011KT 9999 FEW027 23/14 Q1024
                        NOSIG=
201608121020 METAR COR EGLL 121020Z AUTO 24012KT 210V270 9999 FEW020 22/14
                        Q1024 NOSIG=
201608120950 METAR COR EGLL 120950Z 23009KT 190V270 9999 FEW017 21/14
                        Q1024 NOSIG=
201608120920 METAR COR EGLL 120920Z 25010KT 9999 BKN015 20/15 Q1024 NOSIG=
201608120850 METAR COR EGLL 120850Z 24011KT 9999 BKN014 18/14 Q1025 BECMG
                        SCT018=
201608120820 METAR COR EGLL 120820Z AUTO 25009KT 220V280 9999 OVC008 18/14
                        Q1025 BECMG BKN012=
201608120750 METAR COR EGLL 120750Z AUTO 26009KT 9999 BKN008 17/14 Q1024
                        BECMG BKN012=
201608120720 METAR COR EGLL 120720Z AUTO 27008KT 9999 FEW008 17/14 Q1024
                        TEMPO BKN012=
201608120650 METAR COR EGLL 120650Z AUTO 26008KT 9999 FEW009 17/14 Q1024
                        TEMPO BKN010=
201608120620 METAR COR EGLL 120620Z AUTO 25007KT 9999 NCD 16/14 Q1024
                        NOSIG=
201608120550 METAR COR EGLL 120550Z AUTO 24006KT 9999 NCD 15/13 Q1024
                        NOSIG=
201608120520 METAR COR EGLL 120520Z AUTO 25006KT 9999 NCD 14/13 Q1024
                        NOSIG=
201608120450 METAR COR EGLL 120450Z AUTO 25007KT 9999 NCD 15/13 Q1024
                        NOSIG=
201608120420 METAR COR EGLL 120420Z AUTO 26006KT 9999 NCD 15/13 Q1023
                        NOSIG=
201608120350 METAR COR EGLL 120350Z AUTO 25007KT 9999 NCD 15/13 Q1023
                        NOSIG=
201608120320 METAR COR EGLL 120320Z AUTO 25008KT 9999 NCD 15/14 Q1023
                        NOSIG=
201608120250 METAR COR EGLL 120250Z AUTO 25007KT 9999 NCD 15/14 Q1023
                        NOSIG=
201608120220 METAR COR EGLL 120220Z AUTO 28007KT 9999 NCD 15/14 Q1023
                        NOSIG=
201608120150 METAR COR EGLL 120150Z AUTO 26007KT 9999 NCD 16/14 Q1023
                        NOSIG=
201608120120 METAR COR EGLL 120120Z AUTO 25006KT 9999 NCD 16/14 Q1023
                        NOSIG=
201608120050 METAR COR EGLL 120050Z AUTO 26006KT 9999 NCD 16/14 Q1023
                        NOSIG=
201608120020 METAR COR EGLL 120020Z AUTO 27006KT 9999 FEW020 16/14 Q1023
                        NOSIG=
201608112350 METAR COR EGLL 112350Z AUTO 27008KT 9999 SCT017 16/14 Q1024
                        NOSIG=
201608112320 METAR COR EGLL 112320Z AUTO 29007KT 9999 NCD 16/14 Q1023
                        NOSIG=
201608112250 METAR COR EGLL 112250Z AUTO 28007KT 9999 NCD 17/14 Q1023
                        NOSIG=
201608112220 METAR COR EGLL 112220Z AUTO 27010KT 9999 NCD 17/14 Q1023
                        NOSIG=
201608112150 METAR COR EGLL 112150Z AUTO 28009KT 9999 FEW046 17/14 Q1023
                        NOSIG=
201608112120 METAR EGLL 112120Z AUTO 28009KT 9999 SCT046 18/14 Q1023=
201608112050 METAR COR EGLL 112050Z AUTO 28010KT 9999 NCD 18/14 Q1023
                        NOSIG=
201608112020 METAR COR EGLL 112020Z AUTO 28012KT 9999 NCD 19/14 Q1023
                        NOSIG=
201608111950 METAR COR EGLL 111950Z AUTO 27012KT 9999 NCD 20/14 Q1022
                        NOSIG=
201608111920 METAR COR EGLL 111920Z 29008KT 260V320 9999 NSC 21/14 Q1022
                        NOSIG=
201608111850 METAR COR EGLL 111850Z AUTO 28013KT 9999 FEW029 21/14 Q1022
                        NOSIG=
201608111820 METAR COR EGLL 111820Z AUTO 29011KT 9999 SCT030 21/14 Q1022
                        NOSIG=
201608111750 METAR COR EGLL 111750Z AUTO 29009KT 270V330 9999 FEW032 BKN043
                        22/14 Q1022 NOSIG=
201608111720 METAR COR EGLL 111720Z AUTO 29013KT 9999 FEW033 SCT044 22/14
                        Q1022 NOSIG=
201608111650 METAR COR EGLL 111650Z AUTO 30011KT 9999 BKN033 22/14 Q1021
                        NOSIG=
201608111620 METAR COR EGLL 111620Z AUTO 30011KT 9999 OVC036 22/13 Q1021
                        NOSIG=
201608111550 METAR COR EGLL 111550Z AUTO 29009KT 9999 OVC036 22/13 Q1021
                        NOSIG=
201608111520 METAR COR EGLL 111520Z AUTO 29013KT 9999 BKN039 23/13 Q1021
                        NOSIG=
201608111450 METAR COR EGLL 111450Z AUTO 28013KT 9999 BKN039 24/13 Q1021
                        NOSIG=
201608111420 METAR COR EGLL 111420Z AUTO 28011KT 250V310 9999 FEW039 23/13
                        Q1021 NOSIG=
201608111350 METAR COR EGLL 111350Z AUTO 26011KT 220V290 9999 SCT038 23/12
                        Q1021 NOSIG=
201608111320 METAR COR EGLL 111320Z AUTO 27011KT 9999 FEW036 23/12 Q1021
                        NOSIG=
201608111250 METAR COR EGLL 111250Z AUTO 27011KT 240V310 9999 FEW035 22/11
                        Q1021 NOSIG=
201608111220 METAR COR EGLL 111220Z AUTO 27011KT 9999 FEW032 21/11 Q1021
                        NOSIG=
201608111150 METAR COR EGLL 111150Z AUTO 25010KT 220V290 9999 FEW029 20/11
                        Q1021 NOSIG=
201608111120 METAR COR EGLL 111120Z AUTO 27012KT 9999 BKN029 19/11 Q1022
                        NOSIG=
201608111050 METAR COR EGLL 111050Z AUTO 27012KT 240V310 9999 BKN029 20/11
                        Q1021 NOSIG=
201608111020 METAR COR EGLL 111020Z AUTO 27010KT 9999 SCT021 19/11 Q1022
                        NOSIG=
201608110950 METAR COR EGLL 110950Z AUTO 28011KT 9999 -RA BKN022 18/11
                        Q1022 NOSIG=
201608110920 METAR COR EGLL 110920Z AUTO 28008KT 9999 BKN021 18/11 Q1022
                        NOSIG=
201608110850 METAR COR EGLL 110850Z AUTO 28011KT 9999 -RA SCT022 17/11
                        Q1022 NOSIG=
201608110820 METAR COR EGLL 110820Z AUTO 27010KT 9999 FEW019 17/11 Q1022
                        NOSIG=
201608110750 METAR COR EGLL 110750Z AUTO 27010KT 9999 BKN015 16/12 Q1022
                        NOSIG=
201608110720 METAR COR EGLL 110720Z AUTO 26009KT 9999 SCT015 15/12 Q1022
                        NOSIG=
201608110650 METAR COR EGLL 110650Z AUTO 25008KT 9999 NCD 15/12 Q1022
                        NOSIG=
201608110620 METAR COR EGLL 110620Z AUTO 25008KT 9999 NCD 15/12 Q1022
                        NOSIG=
201608110550 METAR COR EGLL 110550Z AUTO 27009KT 9999 -RA NCD 15/12 Q1022
                        NOSIG=
201608110520 METAR COR EGLL 110520Z AUTO 27008KT 250V310 9999 NCD 15/12
                        Q1022 NOSIG=
201608110450 METAR COR EGLL 110450Z AUTO 27009KT 9999 NCD 15/12 Q1022
                        NOSIG=
201608110420 METAR COR EGLL 110420Z AUTO 28009KT 9999 NCD 15/12 Q1022
                        NOSIG=
201608110350 METAR EGLL 110350Z AUTO 27010KT 9999 FEW015 BKN044 15/12
                        Q1022=
201608110320 METAR COR EGLL 110320Z AUTO 26008KT 9999 FEW013 BKN046 15/13
                        Q1022 NOSIG=
201608110250 METAR COR EGLL 110250Z AUTO 27008KT 9999 -RA FEW018 16/13
                        Q1023 NOSIG=
201608110220 METAR COR EGLL 110220Z AUTO 26009KT 9999 NCD 16/13 Q1023
                        NOSIG=
201608110150 METAR COR EGLL 110150Z AUTO 26008KT 9999 FEW017 16/13 Q1023
                        TEMPO BKN014=
201608110120 METAR COR EGLL 110120Z AUTO 26009KT 9999 FEW019 16/13 Q1023
                        TEMPO BKN014=
201608110050 METAR COR EGLL 110050Z AUTO 27008KT 9999 SCT049 16/12 Q1023
                        NOSIG=
201608110020 METAR COR EGLL 110020Z AUTO 29010KT 9999 BKN049 16/12 Q1023
                        NOSIG=
201608102350 METAR COR EGLL 102350Z AUTO 29009KT 9999 NCD 16/12 Q1023
                        NOSIG=
201608102320 METAR COR EGLL 102320Z AUTO 27010KT 9999 NCD 16/11 Q1023
                        NOSIG=
201608102250 METAR COR EGLL 102250Z AUTO 26008KT 9999 NCD 17/10 Q1024
                        NOSIG=
201608102220 METAR COR EGLL 102220Z AUTO 25008KT 9999 NCD 17/10 Q1024
                        NOSIG=
201608102150 METAR COR EGLL 102150Z AUTO 25009KT 9999 NCD 17/10 Q1024
                        NOSIG=
201608102120 METAR COR EGLL 102120Z AUTO 26009KT 9999 NCD 17/09 Q1024
                        NOSIG=
201608102050 METAR COR EGLL 102050Z AUTO 25009KT 9999 NCD 18/09 Q1024
                        NOSIG=
201608102020 METAR COR EGLL 102020Z AUTO 24008KT 9999 NCD 18/07 Q1024
                        NOSIG=
201608101950 METAR COR EGLL 101950Z AUTO 24009KT 9999 NCD 18/07 Q1024
                        NOSIG=
201608101920 METAR COR EGLL 101920Z AUTO 25008KT 9999 NCD 18/07 Q1024
                        NOSIG=
201608101850 METAR COR EGLL 101850Z AUTO 27009KT 9999 NCD 18/06 Q1024
                        NOSIG=
201608101820 METAR COR EGLL 101820Z AUTO 27006KT 240V300 9999 NCD 18/07
                        Q1024 NOSIG=
201608101750 METAR COR EGLL 101750Z AUTO 27008KT 9999 NCD 19/06 Q1024
                        NOSIG=
201608101720 METAR COR EGLL 101720Z AUTO 28008KT 9999 NCD 19/06 Q1024
                        NOSIG=
201608101650 METAR COR EGLL 101650Z AUTO 27010KT 250V310 9999 NCD 19/07
                        Q1024 NOSIG=
201608101620 METAR COR EGLL 101620Z AUTO 30006KT 250V340 9999 NCD 20/07
                        Q1024 NOSIG=
201608101550 METAR COR EGLL 101550Z AUTO 29006KT 250V330 9999 BKN047 19/06
                        Q1024 NOSIG=
201608101520 METAR COR EGLL 101520Z AUTO 29007KT 260V320 9999 SCT047 19/07
                        Q1025 NOSIG=
201608101450 METAR COR EGLL 101450Z AUTO 31007KT 270V040 9999 SCT046 19/07
                        Q1025 NOSIG=
201608101420 METAR COR EGLL 101420Z AUTO 29009KT 250V330 9999 SCT044 20/06
                        Q1025 NOSIG=
201608101350 METAR COR EGLL 101350Z AUTO 27008KT 210V320 9999 SCT042 20/07
                        Q1025 NOSIG=
201608101320 METAR COR EGLL 101320Z AUTO 27008KT 230V320 9999 FEW038 19/07
                        Q1025 NOSIG=
201608101250 METAR COR EGLL 101250Z AUTO 30007KT 260V330 9999 FEW039 18/07
                        Q1025 NOSIG=
201608101220 METAR COR EGLL 101220Z AUTO 30007KT 260V350 9999 FEW037 17/07
                        Q1025 NOSIG=
201608101150 METAR COR EGLL 101150Z AUTO 34006KT 290V020 9999 SCT036 17/07
                        Q1025 NOSIG=
201608101120 METAR COR EGLL 101120Z AUTO 31007KT 270V340 9999 SCT034 17/08
                        Q1025 NOSIG=
201608101050 METAR COR EGLL 101050Z AUTO 32007KT 280V350 9999 SCT031 17/08
                        Q1025 NOSIG=
201608101020 METAR COR EGLL 101020Z AUTO 31006KT 260V360 9999 FEW027 17/08
                        Q1025 NOSIG=
201608100950 METAR COR EGLL 100950Z AUTO 31007KT 270V350 9999 SCT023 16/09
                        Q1025 NOSIG=
201608100920 METAR COR EGLL 100920Z AUTO 31008KT 270V340 9999 BKN022 16/09
                        Q1025 NOSIG=
201608100850 METAR COR EGLL 100850Z AUTO 31007KT 290V020 9999 SCT021 15/09
                        Q1025 NOSIG=
201608100820 METAR COR EGLL 100820Z AUTO 31007KT 280V340 9999 SCT020 15/09
                        Q1025 NOSIG=
201608100750 METAR COR EGLL 100750Z AUTO 31007KT 9999 FEW022 14/09 Q1025
                        NOSIG=
201608100720 METAR COR EGLL 100720Z AUTO 31007KT 9999 NCD 13/09 Q1025
                        NOSIG=
201608100650 METAR COR EGLL 100650Z AUTO 29007KT 260V320 9999 NCD 13/09
                        Q1025 NOSIG=
201608100620 METAR COR EGLL 100620Z AUTO 30006KT 9999 NCD 12/09 Q1025
                        NOSIG=
201608100550 METAR COR EGLL 100550Z AUTO 30005KT 280V340 9999 NCD 12/09
                        Q1025 NOSIG=
201608100520 METAR COR EGLL 100520Z AUTO 29006KT 9999 NCD 12/08 Q1024
                        NOSIG=
201608100450 METAR COR EGLL 100450Z AUTO 29005KT 9999 NCD 11/08 Q1024
                        NOSIG=
201608100420 METAR COR EGLL 100420Z AUTO 29006KT 9999 NCD 11/08 Q1024
                        NOSIG=
201608100350 METAR COR EGLL 100350Z AUTO 29006KT 9999 FEW046 11/08 Q1024
                        NOSIG=
201608100320 METAR COR EGLL 100320Z AUTO 30005KT 9999 FEW048 11/08 Q1025
                        NOSIG=
201608100250 METAR COR EGLL 100250Z AUTO 30005KT 9999 NCD 11/08 Q1025
                        NOSIG=
201608100220 METAR COR EGLL 100220Z AUTO 30006KT 9999 NCD 11/08 Q1025
                        NOSIG=
201608100150 METAR COR EGLL 100150Z AUTO 28005KT 9999 NCD 11/08 Q1025
                        NOSIG=
201608100120 METAR COR EGLL 100120Z AUTO 28005KT 9999 NCD 11/08 Q1025
                        NOSIG=
201608100050 METAR COR EGLL 100050Z AUTO 29006KT 9999 NCD 12/07 Q1025
                        NOSIG=
201608100020 METAR COR EGLL 100020Z AUTO 30004KT 9999 NCD 12/07 Q1025
                        NOSIG=
201608092350 METAR COR EGLL 092350Z AUTO 31005KT 9999 NCD 13/07 Q1025
                        NOSIG=
201608092320 METAR COR EGLL 092320Z AUTO 31005KT 9999 NCD 13/07 Q1025
                        NOSIG=
201608092250 METAR COR EGLL 092250Z AUTO 31004KT 9999 NCD 13/06 Q1025
                        NOSIG=
201608092220 METAR COR EGLL 092220Z AUTO 30004KT 9999 NCD 14/06 Q1025
                        NOSIG=
201608092150 METAR COR EGLL 092150Z AUTO VRB03KT 9999 NCD 14/06 Q1025
                        NOSIG=
201608092120 METAR EGLL 092120Z AUTO 32005KT 280V340 9999 NCD 15/06 Q1025=
201608092050 METAR COR EGLL 092050Z AUTO 32009KT 290V350 9999 NCD 16/05
                        Q1025 NOSIG=
201608092020 METAR COR EGLL 092020Z AUTO 32008KT 9999 NCD 16/05 Q1025
                        NOSIG=
201608091950 METAR COR EGLL 091950Z AUTO 31007KT 9999 NCD 17/06 Q1024
                        NOSIG=
201608091920 METAR COR EGLL 091920Z AUTO 32007KT 290V020 9999 NCD 17/06
                        Q1024 NOSIG=
201608091850 METAR COR EGLL 091850Z AUTO 32008KT 9999 NCD 18/06 Q1024
                        NOSIG=
201608091820 METAR COR EGLL 091820Z AUTO 32009KT 290V350 9999 NCD 18/06
                        Q1024 NOSIG=
201608091750 METAR COR EGLL 091750Z AUTO 32007KT 9999 NCD 19/05 Q1024
                        NOSIG=
201608091720 METAR COR EGLL 091720Z AUTO 32007KT 9999 NCD 19/05 Q1024
                        NOSIG=
201608091650 METAR COR EGLL 091650Z AUTO 30008KT 270V330 9999 NCD 19/05
                        Q1024 NOSIG=
201608091620 METAR COR EGLL 091620Z AUTO 31007KT 270V340 9999 NCD 19/06
                        Q1024 NOSIG=
201608091550 METAR COR EGLL 091550Z AUTO 30007KT 260V330 9999 NCD 19/06
                        Q1024 NOSIG=
201608091520 METAR COR EGLL 091520Z AUTO 31008KT 270V340 9999 NCD 19/06
                        Q1024 NOSIG=
201608091450 METAR COR EGLL 091450Z AUTO 31007KT 9999 NCD 19/06 Q1025
                        NOSIG=
201608091420 METAR COR EGLL 091420Z AUTO 30008KT 9999 NCD 19/06 Q1025
                        NOSIG=
201608091350 METAR COR EGLL 091350Z AUTO 31007KT 280V360 9999 NCD 19/06
                        Q1025 NOSIG=
201608091320 METAR COR EGLL 091320Z AUTO 32007KT 270V350 9999 NCD 19/05
                        Q1025 NOSIG=
201608091250 METAR COR EGLL 091250Z AUTO 29009KT 260V330 9999 BKN049 19/06
                        Q1025 NOSIG=
201608091220 METAR EGLL 091220Z AUTO 30006KT 250V340 9999 SCT048/// 20/05
                        Q1025=
201608091150 METAR EGLL 091150Z AUTO 31007KT 250V030 9999 SCT048/// 19/06
                        Q1026=
201608091120 METAR COR EGLL 091120Z AUTO 29006KT 250V350 9999 SCT046 18/05
                        Q1026 NOSIG=
201608091050 METAR COR EGLL 091050Z AUTO 32006KT 250V010 9999 FEW046 19/05
                        Q1026 NOSIG=
201608091020 METAR COR EGLL 091020Z AUTO 32007KT 290V030 9999 NCD 18/05
                        Q1026 NOSIG=
201608090950 METAR COR EGLL 090950Z AUTO 34007KT 290V020 9999 NCD 18/06
                        Q1026 NOSIG=
201608090920 METAR COR EGLL 090920Z AUTO 36007KT 330V040 9999 FEW034 17/07
                        Q1026 NOSIG=
201608090850 METAR COR EGLL 090850Z AUTO 31009KT 280V350 9999 FEW029 16/07
                        Q1026 NOSIG=
201608090820 METAR COR EGLL 090820Z AUTO 32007KT 290V360 9999 FEW027 15/08
                        Q1026 NOSIG=
201608090750 METAR COR EGLL 090750Z AUTO 32010KT 9999 FEW024 15/08 Q1026
                        NOSIG=
201608090720 METAR EGLL 090720Z AUTO 33008KT 300V010 9999 R27L/1400 FEW021
                        14/08 Q1026=
201608090650 METAR COR EGLL 090650Z AUTO 31007KT 270V350 9999 R27L/1400
                        NCD 14/08 Q1026 NOSIG=
201608090620 METAR COR EGLL 090620Z AUTO 31007KT 9999 NCD 12/08 Q1026
                        NOSIG=
201608090550 METAR COR EGLL 090550Z AUTO 30005KT 9999 NCD 12/08 Q1025
                        NOSIG=
201608090520 METAR COR EGLL 090520Z AUTO 29006KT 9999 NCD 11/08 Q1025
                        NOSIG=
201608090450 METAR COR EGLL 090450Z AUTO 28006KT 9999 NCD 10/08 Q1025
                        NOSIG=
201608090420 METAR COR EGLL 090420Z AUTO 29005KT 9999 NCD 11/08 Q1025
                        NOSIG=
201608090350 METAR COR EGLL 090350Z AUTO 29005KT 9999 NCD 11/08 Q1025
                        NOSIG=
201608090320 METAR COR EGLL 090320Z AUTO 29006KT 9999 NCD 12/08 Q1024
                        NOSIG=
201608090250 METAR COR EGLL 090250Z AUTO 30005KT 9999 NCD 12/08 Q1024
                        NOSIG=
201608090220 METAR COR EGLL 090220Z AUTO 29005KT 9999 NCD 12/08 Q1024
                        NOSIG=
201608090150 METAR COR EGLL 090150Z AUTO 31004KT 9999 NCD 12/08 Q1024
                        NOSIG=
201608090120 METAR COR EGLL 090120Z AUTO 29004KT 9999 NCD 12/08 Q1024
                        NOSIG=
201608090050 METAR COR EGLL 090050Z AUTO 31003KT 9999 NCD 13/08 Q1024
                        NOSIG=
201608090020 METAR COR EGLL 090020Z AUTO 31004KT 9999 NCD 13/08 Q1024
                        NOSIG=
201608082350 METAR COR EGLL 082350Z AUTO 31004KT 9999 NCD 14/08 Q1024
                        NOSIG=
201608082320 METAR COR EGLL 082320Z AUTO 30005KT 9999 NCD 15/08 Q1024
                        NOSIG=
201608082250 METAR COR EGLL 082250Z AUTO 31005KT 9999 NCD 15/08 Q1024
                        NOSIG=
201608082220 METAR COR EGLL 082220Z AUTO 30005KT 9999 NCD 15/08 Q1024
                        NOSIG=
201608082150 METAR COR EGLL 082150Z AUTO 31005KT 270V340 9999 NCD 16/07
                        Q1024 NOSIG=
201608082120 METAR COR EGLL 082120Z AUTO 30005KT 9999 //////TCU 16/07
                        Q1023 NOSIG=
201608082050 METAR COR EGLL 082050Z AUTO 30005KT 9999 //////CB 17/07 Q1023
                        NOSIG=
201608082020 METAR COR EGLL 082020Z AUTO 34004KT 310V020 9999 //////CB
                        17/07 Q1023 NOSIG=
201608081950 METAR COR EGLL 081950Z AUTO 34005KT 300V030 9999 //////TCU
                        18/06 Q1023 NOSIG=
201608081920 METAR COR EGLL 081920Z AUTO 31006KT 9999 NCD 19/05 Q1022
                        NOSIG=
201608081850 METAR COR EGLL 081850Z AUTO 32006KT 9999 NCD 19/05 Q1022
                        NOSIG=
201608081820 METAR COR EGLL 081820Z AUTO 31006KT 9999 NCD 19/05 Q1022
                        NOSIG=
201608081750 METAR COR EGLL 081750Z AUTO 31006KT 280V350 9999 NCD 19/07
                        Q1022 NOSIG=
201608081720 METAR COR EGLL 081720Z AUTO 31007KT 280V340 9999 NCD 19/06
                        Q1022 NOSIG=
201608081650 METAR COR EGLL 081650Z AUTO 31008KT 9999 NCD 19/07 Q1022
                        NOSIG=
201608081620 METAR COR EGLL 081620Z AUTO 32006KT 290V360 9999 NCD 20/06
                        Q1021 NOSIG=
201608081550 METAR COR EGLL 081550Z AUTO 27015KT 9999 NCD 21/06 Q1021
                        NOSIG=
201608081520 METAR COR EGLL 081520Z AUTO 30010KT 9999 NCD 20/07 Q1021
                        NOSIG=
201608081450 METAR COR EGLL 081450Z AUTO 31010KT 280V340 9999 NCD 20/06
                        Q1021 NOSIG=
201608081420 METAR COR EGLL 081420Z AUTO 31009KT 270V350 9999 NCD 21/06
                        Q1021 NOSIG=
201608081350 METAR COR EGLL 081350Z AUTO 27014KT 9999 NCD 21/06 Q1022
                        NOSIG=
201608081320 METAR COR EGLL 081320Z AUTO 29011KT 9999 NCD 20/07 Q1022
                        NOSIG=
201608081250 METAR COR EGLL 081250Z AUTO 28014KT 9999 NCD 20/07 Q1022
                        NOSIG=
201608081220 METAR COR EGLL 081220Z AUTO 30009KT 260V340 9999 BKN045 20/07
                        Q1022 NOSIG=
201608081150 METAR COR EGLL 081150Z AUTO 30009KT 260V340 9999 SCT047 20/07
                        Q1022 NOSIG=
201608081120 METAR COR EGLL 081120Z AUTO 29010KT 260V320 9999 BKN046 19/07
                        Q1022 NOSIG=
201608081050 METAR COR EGLL 081050Z AUTO 30009KT 250V330 9999 BKN040 20/08
                        Q1022 NOSIG=
201608081020 METAR COR EGLL 081020Z AUTO 30010KT 270V340 9999 BKN038 19/08
                        Q1022 NOSIG=
201608080950 METAR COR EGLL 080950Z AUTO 29011KT 9999 BKN039 19/08 Q1022
                        NOSIG=
201608080920 METAR COR EGLL 080920Z AUTO 28011KT 250V320 9999 FEW039 19/08
                        Q1022 NOSIG=
201608080850 METAR COR EGLL 080850Z AUTO 29011KT 9999 FEW036 18/08 Q1022
                        NOSIG=
201608080820 METAR COR EGLL 080820Z AUTO 30011KT 9999 FEW034 17/08 Q1022
                        NOSIG=
201608080750 METAR COR EGLL 080750Z AUTO 29009KT 260V320 9999 NCD 17/08
                        Q1022 NOSIG=
201608080720 METAR COR EGLL 080720Z AUTO 29011KT 9999 NCD 16/08 Q1022
                        NOSIG=
201608080650 METAR COR EGLL 080650Z AUTO 29012KT 9999 SCT022 16/09 Q1022
                        NOSIG=
201608080620 METAR COR EGLL 080620Z AUTO 30009KT 270V330 9999 BKN022 15/10
                        Q1021 NOSIG=
201608080550 METAR COR EGLL 080550Z AUTO 28007KT 9999 BKN020 15/11 Q1021
                        NOSIG=
201608080520 METAR COR EGLL 080520Z AUTO 27008KT 9999 FEW022 15/12 Q1020
                        NOSIG=
201608080450 METAR COR EGLL 080450Z AUTO 26009KT 9999 FEW021 15/13 Q1020
                        NOSIG=
201608080420 METAR COR EGLL 080420Z AUTO 26010KT 9999 NCD 15/13 Q1020
                        NOSIG=
201608080350 METAR COR EGLL 080350Z AUTO 26010KT 9999 NCD 15/13 Q1020
                        NOSIG=
201608080320 METAR COR EGLL 080320Z AUTO 26011KT 9999 NCD 16/13 Q1020
                        NOSIG=
201608080250 METAR COR EGLL 080250Z AUTO 26010KT 9999 FEW020 16/12 Q1020
                        NOSIG=
201608080220 METAR COR EGLL 080220Z AUTO 24012KT 9999 BKN024 16/12 Q1020
                        NOSIG=
201608080150 METAR COR EGLL 080150Z AUTO 25010KT 9999 BKN021 17/12 Q1020
                        NOSIG=
201608080120 METAR COR EGLL 080120Z AUTO 25011KT 9999 SCT021 OVC033 17/12
                        Q1020 NOSIG=
201608080050 METAR COR EGLL 080050Z AUTO 24009KT 9999 OVC023 17/12 Q1020
                        NOSIG=
201608080020 METAR COR EGLL 080020Z AUTO 25010KT 9999 OVC022 17/12 Q1020
                        NOSIG=
201608072350 METAR COR EGLL 072350Z AUTO 25013KT 9999 BKN022 17/12 Q1021
                        NOSIG=
201608072320 METAR COR EGLL 072320Z AUTO 25014KT 9999 NCD 17/12 Q1021
                        NOSIG=
201608072250 METAR COR EGLL 072250Z AUTO 26013KT 9999 NCD 17/12 Q1021
                        NOSIG=
201608072220 METAR COR EGLL 072220Z AUTO 26012KT 9999 NCD 17/12 Q1021
                        NOSIG=
201608072150 METAR COR EGLL 072150Z AUTO 26013KT 9999 NCD 18/11 Q1021
                        NOSIG=
201608072120 METAR COR EGLL 072120Z AUTO 26014KT 9999 NCD 18/11 Q1021
                        NOSIG=
201608072050 METAR COR EGLL 072050Z AUTO 27012KT 9999 NCD 18/11 Q1022
                        NOSIG=
201608072020 METAR COR EGLL 072020Z AUTO 26012KT 9999 NCD 19/11 Q1022
                        NOSIG=
201608071950 METAR COR EGLL 071950Z AUTO 26012KT 9999 NCD 20/11 Q1021
                        NOSIG=
201608071920 METAR COR EGLL 071920Z AUTO 25013KT 9999 NCD 21/12 Q1021
                        NOSIG=
201608071850 METAR COR EGLL 071850Z AUTO 27013KT 9999 NCD 21/12 Q1021
                        NOSIG=
201608071820 METAR COR EGLL 071820Z AUTO 25015KT 9999 NCD 22/11 Q1021
                        NOSIG=
201608071750 METAR COR EGLL 071750Z AUTO 27015KT 9999 NCD 23/11 Q1021
                        NOSIG=
201608071720 METAR COR EGLL 071720Z AUTO 27016KT 9999 NCD 23/11 Q1021
                        NOSIG=
201608071650 METAR COR EGLL 071650Z AUTO 27015KT 9999 NCD 23/11 Q1021
                        NOSIG=
201608071620 METAR COR EGLL 071620Z AUTO 27017KT 9999 NCD 24/12 Q1021
                        NOSIG=
201608071550 METAR COR EGLL 071550Z AUTO 27018KT 9999 NCD 24/12 Q1021
                        NOSIG=
201608071520 METAR COR EGLL 071520Z AUTO 27016KT 9999 SCT047 26/12 Q1022
                        NOSIG=
201608071450 METAR COR EGLL 071450Z AUTO 25017KT 9999 SCT044 26/12 Q1022
                        NOSIG=
201608071420 METAR COR EGLL 071420Z AUTO 27018KT 9999 SCT041 25/13 Q1022
                        NOSIG=
201608071350 METAR COR EGLL 071350Z AUTO 26019KT 9999 SCT040 26/13 Q1022
                        NOSIG=
201608071320 METAR COR EGLL 071320Z AUTO 27017KT 9999 BKN036 25/14 Q1023
                        NOSIG=
201608071250 METAR COR EGLL 071250Z AUTO 27019KT 9999 BKN033 26/14 Q1023
                        NOSIG=
201608071220 METAR EGLL 071220Z AUTO 26019G29KT 9999 BKN033 26/15 Q1023=
201608071150 METAR COR EGLL 071150Z AUTO 26016KT 9999 BKN033 26/16 Q1023
                        NOSIG=
201608071120 METAR COR EGLL 071120Z AUTO 24015KT 9999 SCT028 BKN043 25/16
                        Q1023 NOSIG=
201608071050 METAR COR EGLL 071050Z AUTO 23012KT 9999 BKN022 BKN043 24/17
                        Q1024 NOSIG=
201608071020 METAR COR EGLL 071020Z AUTO 25013KT 210V280 9999 SCT015 SCT020
                        23/17 Q1024 NOSIG=
201608070950 METAR COR EGLL 070950Z AUTO 23012KT 9999 SCT017 BKN039 23/17
                        Q1024 NOSIG=
201608070920 METAR COR EGLL 070920Z AUTO 23012KT 9999 SCT016 OVC040 23/17
                        Q1025 NOSIG=
201608070850 METAR COR EGLL 070850Z 24011KT 9999 SCT020 BKN047 22/17 Q1025
                        NOSIG=
201608070820 METAR COR EGLL 070820Z 24011KT 9999 SCT016 BKN024 21/17 Q1025
                        NOSIG=
201608070750 METAR COR EGLL 070750Z 25011KT 9999 BKN016 21/17 Q1025 NOSIG=
201608070720 METAR COR EGLL 070720Z 24014KT 9999 SCT013 21/17 Q1024 TEMPO
                        BKN012=
201608070650 METAR COR EGLL 070650Z AUTO 22011KT 9999 SCT007 20/17 Q1024
                        TEMPO BKN012=
201608070620 METAR COR EGLL 070620Z AUTO 23010KT 9999 OVC007 19/17 Q1025
                        BECMG SCT008 BKN012=
201608070550 METAR COR EGLL 070550Z AUTO 23010KT 9999 BKN008 19/17 Q1025
                        BECMG SCT008 BKN012=
201608070520 METAR COR EGLL 070520Z AUTO 23010KT 9999 BKN008 OVC045 18/17
                        Q1025 BECMG SCT008 BKN012=
201608070450 METAR COR EGLL 070450Z AUTO 23009KT 9999 BKN008 18/17 Q1025
                        BECMG SCT008 BKN012=
201608070420 METAR COR EGLL 070420Z AUTO 23009KT 9999 OVC009 18/16 Q1025
                        TEMPO BKN011=
201608070350 METAR COR EGLL 070350Z AUTO 22009KT 9999 OVC011 18/16 Q1025
                        TEMPO BKN009=
201608070320 METAR COR EGLL 070320Z AUTO 22008KT 9999 OVC011 18/16 Q1025
                        TEMPO BKN009=
201608070250 METAR COR EGLL 070250Z AUTO 22008KT 9999 SCT013 BKN031 18/16
                        Q1025 BECMG BKN013=
201608070220 METAR COR EGLL 070220Z AUTO 23010KT 9999 BKN015 18/15 Q1025
                        TEMPO BKN012=
201608070150 METAR COR EGLL 070150Z AUTO 23009KT 9999 OVC019 18/15 Q1025
                        NOSIG=
201608070120 METAR COR EGLL 070120Z AUTO 22008KT 9999 BKN025 17/16 Q1026
                        NOSIG=
201608070050 METAR COR EGLL 070050Z AUTO 22008KT 9999 OVC028 17/17 Q1026
                        NOSIG=
201608070020 METAR COR EGLL 070020Z AUTO 23007KT 9999 SCT027 17/16 Q1026
                        NOSIG=
201608062350 METAR EGLL 062350Z AUTO 21006KT 9999 FEW030 17/16 Q1026=
201608062320 METAR COR EGLL 062320Z AUTO 22007KT 9999 NCD 17/15 Q1027
                        NOSIG=
201608062250 METAR COR EGLL 062250Z AUTO 22007KT 9999 NCD 17/15 Q1027
                        NOSIG=
201608062220 METAR COR EGLL 062220Z AUTO 22008KT 9999 NCD 18/15 Q1027
                        NOSIG=
201608062150 METAR COR EGLL 062150Z AUTO 22008KT 9999 NCD 18/14 Q1027
                        NOSIG=
201608062120 METAR COR EGLL 062120Z AUTO 22009KT 9999 NCD 19/13 Q1027
                        NOSIG=
201608062050 METAR COR EGLL 062050Z AUTO 21009KT 9999 NCD 19/12 Q1027
                        NOSIG=
201608062020 METAR COR EGLL 062020Z AUTO 22010KT 180V240 9999 NCD 20/12
                        Q1027 NOSIG=
201608061950 METAR COR EGLL 061950Z AUTO 22011KT 9999 NCD 21/13 Q1027
                        NOSIG=
201608061920 METAR COR EGLL 061920Z AUTO 22012KT 9999 NCD 22/13 Q1027
                        NOSIG=
201608061850 METAR COR EGLL 061850Z AUTO 23012KT 9999 NCD 23/14 Q1027
                        NOSIG=
201608061820 METAR COR EGLL 061820Z AUTO 22014KT 9999 NCD 23/13 Q1026
                        NOSIG=
201608061750 METAR COR EGLL 061750Z AUTO 24013KT 9999 NCD 24/13 Q1026
                        NOSIG=
201608061720 METAR COR EGLL 061720Z AUTO 22011KT 9999 NCD 25/13 Q1026
                        NOSIG=
201608061650 METAR COR EGLL 061650Z AUTO 22011KT 9999 FEW049 25/13 Q1027
                        NOSIG=
201608061620 METAR COR EGLL 061620Z AUTO 23010KT 200V260 9999 NCD 26/11
                        Q1027 NOSIG=
201608061550 METAR COR EGLL 061550Z AUTO 25008KT 210V280 9999 NCD 26/11
                        Q1027 NOSIG=
201608061520 METAR COR EGLL 061520Z AUTO 23009KT 190V280 9999 NCD 26/10
                        Q1027 NOSIG=
201608061450 METAR COR EGLL 061450Z AUTO 24009KT 200V270 9999 NCD 25/11
                        Q1027 NOSIG=
201608061420 METAR COR EGLL 061420Z AUTO 26007KT 210V310 9999 NCD 25/11
                        Q1027 NOSIG=
201608061350 METAR COR EGLL 061350Z AUTO 27009KT 230V310 9999 NCD 25/10
                        Q1027 NOSIG=
201608061320 METAR COR EGLL 061320Z AUTO 25006KT 200V310 9999 NCD 25/10
                        Q1027 NOSIG=
201608061250 METAR COR EGLL 061250Z AUTO 25008KT 220V290 9999 FEW047 23/10
                        Q1027 NOSIG=
201608061220 METAR COR EGLL 061220Z AUTO 26007KT 230V300 9999 NCD 23/10
                        Q1027 NOSIG=
201608061150 METAR COR EGLL 061150Z AUTO 27008KT 220V310 9999 NCD 23/11
                        Q1027 NOSIG=
201608061120 METAR COR EGLL 061120Z AUTO 27007KT 220V310 9999 FEW037 23/12
                        Q1027 NOSIG=
201608061050 METAR COR EGLL 061050Z AUTO 27007KT 220V340 9999 NCD 23/12
                        Q1027 NOSIG=
201608061020 METAR COR EGLL 061020Z AUTO 23009KT 210V270 9999 FEW033 22/12
                        Q1027 NOSIG=
201608060950 METAR COR EGLL 060950Z AUTO 27006KT 230V310 9999 NCD 21/12
                        Q1027 NOSIG=
201608060920 METAR COR EGLL 060920Z AUTO 27007KT 220V310 9999 NCD 20/13
                        Q1027 NOSIG=
201608060850 METAR COR EGLL 060850Z AUTO VRB03KT 9999 NCD 19/13 Q1027
                        NOSIG=
201608060820 METAR COR EGLL 060820Z AUTO 27004KT 220V350 9999 NCD 18/13
                        Q1027 NOSIG=
201608060750 METAR COR EGLL 060750Z AUTO 30004KT 250V330 9999 NCD 18/13
                        Q1027 NOSIG=
201608060720 METAR COR EGLL 060720Z AUTO 29005KT 250V320 9999 NCD 17/13
                        Q1027 NOSIG=
201608060650 METAR COR EGLL 060650Z AUTO 29004KT 250V310 9999 NCD 16/13
                        Q1026 NOSIG=
201608060620 METAR COR EGLL 060620Z AUTO 29003KT 9999 NCD 15/13 Q1026
                        NOSIG=
201608060550 METAR COR EGLL 060550Z AUTO VRB03KT 9999 NCD 14/13 Q1026
                        NOSIG=
201608060520 METAR COR EGLL 060520Z AUTO 28004KT 9999 NCD 13/13 Q1025
                        NOSIG=
201608060450 METAR COR EGLL 060450Z AUTO 29005KT 9999 NCD 13/13 Q1025
                        NOSIG=
201608060420 METAR COR EGLL 060420Z AUTO 27007KT 9999 NCD 13/13 Q1025
                        NOSIG=
201608060350 METAR COR EGLL 060350Z AUTO 27007KT 9999 NCD 13/13 Q1025
                        NOSIG=
201608060320 METAR COR EGLL 060320Z AUTO 27007KT 9999 NCD 13/12 Q1025
                        NOSIG=
201608060250 METAR COR EGLL 060250Z AUTO 27008KT 9999 NCD 13/12 Q1025
                        NOSIG=
201608060220 METAR COR EGLL 060220Z AUTO 27007KT 9999 NCD 13/12 Q1024
                        NOSIG=
201608060150 METAR COR EGLL 060150Z AUTO 27006KT 9999 NCD 13/11 Q1024
                        NOSIG=
201608060120 METAR COR EGLL 060120Z AUTO 27006KT 9999 NCD 14/11 Q1024
                        NOSIG=
201608060050 METAR COR EGLL 060050Z AUTO 28008KT 9999 NCD 14/11 Q1024
                        NOSIG=
201608060020 METAR COR EGLL 060020Z AUTO 27008KT 9999 NCD 15/11 Q1024
                        NOSIG=
201608052350 METAR EGLL 052350Z AUTO 27008KT 9999 NCD 15/11 Q1024=
201608052320 METAR COR EGLL 052320Z AUTO 27009KT 9999 NCD 15/11 Q1024
                        NOSIG=
201608052250 METAR COR EGLL 052250Z AUTO 27010KT 9999 NCD 16/11 Q1023
                        NOSIG=
201608052220 METAR COR EGLL 052220Z AUTO 26010KT 9999 NCD 17/11 Q1023
                        NOSIG=
201608052150 METAR COR EGLL 052150Z AUTO 27010KT 9999 NCD 18/11 Q1023
                        NOSIG=
201608052120 METAR COR EGLL 052120Z AUTO 27010KT 9999 NCD 19/12 Q1023
                        NOSIG=
201608052050 METAR COR EGLL 052050Z AUTO 27010KT 9999 NCD 19/12 Q1023
                        NOSIG=
201608052020 METAR COR EGLL 052020Z AUTO 27010KT 9999 NCD 20/12 Q1022
                        NOSIG=
201608051950 METAR COR EGLL 051950Z AUTO 27009KT 9999 BKN042 21/13 Q1022
                        NOSIG=
201608051920 METAR COR EGLL 051920Z AUTO 24009KT 9999 SCT043 22/13 Q1021
                        NOSIG=
201608051850 METAR COR EGLL 051850Z AUTO 24010KT 9999 SCT043 22/12 Q1021
                        NOSIG=
201608051820 METAR COR EGLL 051820Z AUTO 27007KT 9999 FEW042 22/13 Q1021
                        NOSIG=
201608051750 METAR COR EGLL 051750Z AUTO 24007KT 9999 NCD 22/13 Q1021
                        NOSIG=
201608051720 METAR COR EGLL 051720Z AUTO 26010KT 9999 NCD 23/12 Q1021
                        NOSIG=
201608051650 METAR COR EGLL 051650Z AUTO 28011KT 9999 NCD 23/12 Q1021
                        NOSIG=
201608051620 METAR COR EGLL 051620Z AUTO 27010KT 9999 FEW040 22/12 Q1021
                        NOSIG=
201608051550 METAR COR EGLL 051550Z AUTO 27008KT 240V310 9999 NCD 22/12
                        Q1021 NOSIG=
201608051520 METAR COR EGLL 051520Z AUTO 26008KT 9999 NCD 23/11 Q1021
                        NOSIG=
201608051450 METAR COR EGLL 051450Z AUTO 27005KT 200V350 9999 NCD 24/11
                        Q1021 NOSIG=
201608051420 METAR COR EGLL 051420Z AUTO 27006KT 220V310 9999 FEW046 23/11
                        Q1021 NOSIG=
201608051350 METAR COR EGLL 051350Z AUTO 28007KT 240V310 9999 FEW046 23/11
                        Q1021 NOSIG=
201608051320 METAR COR EGLL 051320Z AUTO 28008KT 230V310 9999 FEW045 23/10
                        Q1021 NOSIG=
201608051250 METAR COR EGLL 051250Z AUTO 29007KT 240V340 9999 FEW045 23/11
                        Q1021 NOSIG=
201608051220 METAR COR EGLL 051220Z AUTO 27009KT 240V310 9999 SCT043 23/10
                        Q1021 NOSIG=
201608051150 METAR COR EGLL 051150Z AUTO 28007KT 230V320 9999 FEW043 23/10
                        Q1021 NOSIG=
201608051120 METAR COR EGLL 051120Z AUTO 27009KT 240V310 9999 NCD 22/10
                        Q1021 NOSIG=
201608051050 METAR COR EGLL 051050Z AUTO 27009KT 9999 NCD 22/10 Q1020
                        NOSIG=
201608051020 METAR COR EGLL 051020Z AUTO 27009KT 240V310 9999 NCD 21/11
                        Q1020 NOSIG=
201608050950 METAR COR EGLL 050950Z AUTO 27008KT 250V310 9999 NCD 20/11
                        Q1020 NOSIG=
201608050920 METAR COR EGLL 050920Z AUTO 27007KT 9999 FEW025 19/12 Q1020
                        NOSIG=
201608050850 METAR COR EGLL 050850Z AUTO 29006KT 230V320 9999 NCD 18/12
                        Q1020 NOSIG=
201608050820 METAR COR EGLL 050820Z AUTO 28006KT 260V320 9999 NCD 17/12
                        Q1020 NOSIG=
201608050750 METAR COR EGLL 050750Z AUTO 31006KT 270V360 9999 NCD 17/12
                        Q1019 NOSIG=
201608050720 METAR COR EGLL 050720Z AUTO 31006KT 260V350 9999 NCD 16/13
                        Q1019 NOSIG=
201608050650 METAR COR EGLL 050650Z AUTO 29005KT 9999 NCD 15/14 Q1019
                        NOSIG=
201608050620 METAR COR EGLL 050620Z AUTO 26008KT 9999 NCD 15/14 Q1018
                        NOSIG=
201608050550 METAR COR EGLL 050550Z AUTO 27007KT 9999 NCD 14/14 Q1018
                        NOSIG=
201608050520 METAR COR EGLL 050520Z AUTO 27005KT 9999 NCD 13/13 Q1018
                        NOSIG=
201608050450 METAR COR EGLL 050450Z AUTO 27005KT 9999 NCD 13/13 Q1017
                        NOSIG=
201608050420 METAR COR EGLL 050420Z AUTO 27005KT 9999 NCD 13/13 Q1017
                        NOSIG=
201608050350 METAR COR EGLL 050350Z AUTO 27007KT 9999 NCD 13/13 Q1017
                        NOSIG=
201608050320 METAR COR EGLL 050320Z AUTO 27005KT 9999 NCD 14/13 Q1017
                        NOSIG=
201608050250 METAR COR EGLL 050250Z AUTO 27006KT 9999 NCD 14/13 Q1016
                        NOSIG=
201608050220 METAR COR EGLL 050220Z AUTO 27006KT 9999 NCD 14/13 Q1016
                        NOSIG=
201608050150 METAR COR EGLL 050150Z AUTO 26007KT 9999 NCD 14/13 Q1016
                        NOSIG=
201608050120 METAR COR EGLL 050120Z AUTO 27008KT 9999 NCD 14/13 Q1015
                        NOSIG=
201608050050 METAR COR EGLL 050050Z AUTO 27007KT 9999 NCD 14/13 Q1015
                        NOSIG=
201608050020 METAR COR EGLL 050020Z AUTO 27007KT 9999 NCD 14/13 Q1015
                        NOSIG=
201608042350 METAR COR EGLL 042350Z AUTO 27008KT 9999 NCD 15/13 Q1015
                        NOSIG=
201608042320 METAR COR EGLL 042320Z AUTO 27009KT 9999 NCD 15/13 Q1015
                        NOSIG=
201608042250 METAR COR EGLL 042250Z AUTO 28009KT 9999 NCD 15/13 Q1014
                        NOSIG=
201608042220 METAR COR EGLL 042220Z AUTO 28009KT 9999 NCD 16/13 Q1014
                        NOSIG=
201608042150 METAR COR EGLL 042150Z AUTO 28010KT 9999 NCD 17/13 Q1014
                        NOSIG=
201608042120 METAR COR EGLL 042120Z AUTO 28009KT 9999 NCD 17/13 Q1014
                        NOSIG=
201608042050 METAR COR EGLL 042050Z AUTO 27009KT 9999 NCD 18/12 Q1013
                        NOSIG=
201608042020 METAR COR EGLL 042020Z AUTO 28011KT 9999 NCD 19/12 Q1013
                        NOSIG=
201608041950 METAR COR EGLL 041950Z AUTO 27011KT 9999 NCD 18/12 Q1013
                        NOSIG=
201608041920 METAR COR EGLL 041920Z AUTO 29009KT 260V330 9999 NCD 19/11
                        Q1012 NOSIG=
201608041850 METAR COR EGLL 041850Z AUTO 28011KT 9999 NCD 19/12 Q1012
                        NOSIG=
201608041820 METAR COR EGLL 041820Z AUTO 27011KT 9999 NCD 20/11 Q1011
                        NOSIG=
201608041750 METAR COR EGLL 041750Z AUTO 29011KT 9999 NCD 21/11 Q1011
                        NOSIG=
201608041720 METAR COR EGLL 041720Z AUTO 28014KT 9999 NCD 21/11 Q1011
                        NOSIG=
201608041650 METAR COR EGLL 041650Z AUTO 28015KT 9999 FEW046 22/10 Q1010
                        NOSIG=
201608041620 METAR COR EGLL 041620Z AUTO 30013KT 9999 SCT048 22/11 Q1010
                        NOSIG=
201608041550 METAR COR EGLL 041550Z AUTO 27012KT 9999 NCD 23/11 Q1010
                        NOSIG=
201608041520 METAR COR EGLL 041520Z AUTO 26015KT 9999 FEW043 22/10 Q1010
                        NOSIG=
201608041450 METAR COR EGLL 041450Z AUTO 26015KT 9999 FEW042 22/11 Q1010
                        NOSIG=
201608041420 METAR COR EGLL 041420Z AUTO 25014KT 9999 NCD 21/12 Q1010
                        NOSIG=
201608041350 METAR COR EGLL 041350Z AUTO 27016KT 9999 FEW036/// //////CB
                        21/12 Q1009 NOSIG=
201608041320 METAR COR EGLL 041320Z AUTO 25014KT 9999 FEW034 21/12 Q1009
                        NOSIG=
201608041250 METAR COR EGLL 041250Z AUTO 25017KT 9999 FEW034/// //////CB
                        21/12 Q1009 NOSIG=
201608041220 METAR COR EGLL 041220Z AUTO 26014KT 9999 FEW033/// //////CB
                        21/12 Q1009 NOSIG=
201608041150 METAR COR EGLL 041150Z AUTO 26014KT 9999 //////CB 21/12 Q1009
                        NOSIG=
201608041120 METAR COR EGLL 041120Z AUTO 26014KT 230V290 9999 SCT036///
                        //////CB 20/12 Q1009 NOSIG=
201608041050 METAR COR EGLL 041050Z AUTO 26015KT 9999 FEW029 20/12 Q1009
                        NOSIG=
201608041020 METAR COR EGLL 041020Z AUTO 27013KT 9999 SCT026 SCT041 21/13
                        Q1009 NOSIG=
201608040950 METAR COR EGLL 040950Z AUTO 27015KT 9999 BKN023 19/13 Q1009
                        NOSIG=
201608040920 METAR COR EGLL 040920Z AUTO 26013KT 9999 BKN021 19/13 Q1009
                        NOSIG=
201608040850 METAR COR EGLL 040850Z AUTO 25012KT 9999 BKN021 18/13 Q1009
                        NOSIG=
201608040820 METAR COR EGLL 040820Z AUTO 25014KT 9999 BKN021 17/12 Q1009
                        NOSIG=
201608040750 METAR COR EGLL 040750Z AUTO 25014KT 9999 BKN021 17/12 Q1009
                        NOSIG=
201608040720 METAR COR EGLL 040720Z AUTO 26013KT 9999 BKN019 17/12 Q1009
                        NOSIG=
201608040650 METAR COR EGLL 040650Z AUTO 25011KT 9999 BKN018 17/12 Q1008
                        NOSIG=
201608040620 METAR COR EGLL 040620Z AUTO 24014KT 9999 FEW019 16/12 Q1008
                        NOSIG=
201608040550 METAR COR EGLL 040550Z AUTO 24012KT 9999 FEW018 BKN027 OVC044
                        16/12 Q1008 NOSIG=
201608040520 METAR COR EGLL 040520Z AUTO 24013KT 9999 FEW026 BKN036 16/12
                        Q1008 NOSIG=
201608040450 METAR COR EGLL 040450Z AUTO 24011KT 9999 SCT030 15/12 Q1008
                        NOSIG=
201608040420 METAR COR EGLL 040420Z AUTO 24011KT 9999 FEW043 15/12 Q1008
                        NOSIG=
201608040350 METAR COR EGLL 040350Z AUTO 23012KT 9999 FEW018 15/12 Q1008
                        NOSIG=
201608040320 METAR COR EGLL 040320Z AUTO 23013KT 9999 FEW020 SCT039 16/12
                        Q1007 NOSIG=
201608040250 METAR COR EGLL 040250Z AUTO 23012KT 9999 SCT025 OVC042 16/12
                        Q1008 NOSIG=
201608040220 METAR COR EGLL 040220Z AUTO 23012KT 9999 FEW047 16/12 Q1008
                        NOSIG=
201608040150 METAR COR EGLL 040150Z AUTO 24012KT 9999 FEW024 SCT046 16/12
                        Q1008 NOSIG=
201608040120 METAR COR EGLL 040120Z AUTO 23014KT 9999 FEW021 OVC040 16/12
                        Q1008 NOSIG=
201608040050 METAR COR EGLL 040050Z AUTO 23013KT 9999 BKN041 16/13 Q1008
                        NOSIG=
201608040020 METAR COR EGLL 040020Z AUTO 23015KT 9999 BKN045 16/13 Q1008
                        NOSIG=
201608032350 METAR COR EGLL 032350Z AUTO 23014KT 9999 FEW025 BKN041 16/13
                        Q1008 NOSIG=
201608032320 METAR COR EGLL 032320Z AUTO 23011KT 9999 FEW020 SCT036 16/13
                        Q1008 NOSIG=
201608032250 METAR COR EGLL 032250Z AUTO 23012KT 9999 BKN034 17/13 Q1008
                        NOSIG=
201608032220 METAR COR EGLL 032220Z AUTO 23012KT 9999 FEW020 17/13 Q1008
                        NOSIG=
201608032150 METAR COR EGLL 032150Z AUTO 22011KT 9999 BKN048 17/13 Q1008
                        NOSIG=
201608032120 METAR COR EGLL 032120Z AUTO 22012KT 9999 NCD 17/13 Q1008
                        NOSIG=
201608032050 METAR COR EGLL 032050Z AUTO 22012KT 9999 NCD 17/13 Q1007
                        NOSIG=
201608032020 METAR COR EGLL 032020Z AUTO 22015KT 9999 SCT023 18/14 Q1007
                        NOSIG=
201608031950 METAR COR EGLL 031950Z AUTO 22016KT 9999 SCT024 19/14 Q1007
                        NOSIG=
201608031920 METAR COR EGLL 031920Z AUTO 23014KT 9999 NCD 20/13 Q1007
                        NOSIG=
201608031850 METAR COR EGLL 031850Z AUTO 23015KT 9999 FEW033 BKN048 20/13
                        Q1007 NOSIG=
201608031820 METAR COR EGLL 031820Z 23016KT 9999 BKN033 21/13 Q1006 NOSIG=
201608031750 METAR COR EGLL 031750Z AUTO 23015KT 9999 SCT034 22/13 Q1006
                        NOSIG=
201608031720 METAR COR EGLL 031720Z AUTO 23015KT 9999 BKN032 21/14 Q1006
                        NOSIG=
201608031650 METAR COR EGLL 031650Z AUTO 22016KT 9999 SCT032 22/14 Q1006
                        NOSIG=
201608031620 METAR COR EGLL 031620Z AUTO 22016KT 9999 BKN035 23/14 Q1006
                        NOSIG=
201608031550 METAR COR EGLL 031550Z AUTO 22016KT 9999 SCT034 23/14 Q1006
                        NOSIG=
201608031520 METAR COR EGLL 031520Z AUTO 22015KT 9999 SCT034 23/14 Q1006
                        NOSIG=
201608031450 METAR COR EGLL 031450Z AUTO 21015KT 9999 BKN033 24/14 Q1007
                        NOSIG=
201608031420 METAR COR EGLL 031420Z AUTO 22016KT 9999 BKN036 23/14 Q1007
                        NOSIG=
201608031350 METAR COR EGLL 031350Z AUTO 22014KT 9999 BKN035 23/14 Q1007
                        NOSIG=
201608031320 METAR COR EGLL 031320Z AUTO 23015KT 9999 BKN035 24/13 Q1007
                        NOSIG=
201608031250 METAR COR EGLL 031250Z AUTO 23015KT 200V260 9999 BKN039 23/13
                        Q1007 NOSIG=
201608031220 METAR COR EGLL 031220Z AUTO 25017KT 9999 FEW043 22/12 Q1007
                        NOSIG=
201608031150 METAR COR EGLL 031150Z AUTO 24015KT 9999 SCT037 22/12 Q1008
                        NOSIG=
201608031120 METAR COR EGLL 031120Z AUTO 25014KT 9999 BKN035 22/13 Q1008
                        NOSIG=
201608031050 METAR COR EGLL 031050Z AUTO 25016KT 9999 BKN029 22/13 Q1008
                        NOSIG=
201608031020 METAR COR EGLL 031020Z AUTO 24015KT 9999 BKN025 21/13 Q1008
                        NOSIG=
201608030950 METAR COR EGLL 030950Z AUTO 23015KT 9999 BKN024 OVC036 20/14
                        Q1008 NOSIG=
201608030920 METAR COR EGLL 030920Z AUTO 25012KT 9999 BKN027 20/14 Q1008
                        NOSIG=
201608030850 METAR COR EGLL 030850Z AUTO 25013KT 9999 FEW027 20/13 Q1008
                        NOSIG=
201608030820 METAR COR EGLL 030820Z AUTO 24011KT 9999 NCD 19/14 Q1008
                        NOSIG=
201608030750 METAR COR EGLL 030750Z AUTO 25012KT 9999 NCD 19/14 Q1008
                        NOSIG=
201608030720 METAR COR EGLL 030720Z AUTO 25013KT 9999 FEW039 19/13 Q1008
                        NOSIG=
201608030650 METAR COR EGLL 030650Z AUTO 27014KT 9999 FEW029 19/14 Q1008
                        NOSIG=
201608030620 METAR COR EGLL 030620Z AUTO 27016KT 9999 -RA BKN015 BKN027
                        18/16 Q1008 TEMPO BKN014=
201608030550 METAR COR EGLL 030550Z AUTO 23013KT 9999 BKN015 OVC028 19/18
                        Q1008 TEMPO BKN012=
201608030520 METAR COR EGLL 030520Z AUTO 23012KT 9999 BKN013 OVC026 19/18
                        Q1008=
201608030450 METAR COR EGLL 030450Z AUTO 22011KT 9999 BKN012 19/18 Q1008
                        TEMPO 4000 RADZ BKN008=
201608030420 METAR COR EGLL 030420Z 22011KT 9999 BKN011 19/18 Q1008 TEMPO
                        -DZ BKN008=
201608030350 METAR COR EGLL 030350Z 23012KT 9999 BKN011 19/18 Q1008 TEMPO
                        -DZ BKN008=
201608030320 METAR COR EGLL 030320Z AUTO 23011KT 9999 OVC009 19/18 Q1008
                        NOSIG=
201608030250 METAR COR EGLL 030250Z AUTO 23011KT 9999 OVC008 19/18 Q1008
                        NOSIG=
201608030220 METAR COR EGLL 030220Z AUTO 23011KT 9999 OVC009 19/18 Q1008
                        NOSIG=
201608030150 METAR COR EGLL 030150Z AUTO 23013KT 9999 OVC009 19/18 Q1008
                        NOSIG=
201608030120 METAR COR EGLL 030120Z AUTO 22013KT 9999 OVC008 19/18 Q1009
                        NOSIG=
201608030050 METAR COR EGLL 030050Z AUTO 22012KT 9999 BKN008 19/18 Q1009
                        NOSIG=
201608030020 METAR COR EGLL 030020Z AUTO 22009KT 9999 OVC007 19/18 Q1009
                        NOSIG=
201608022350 METAR COR EGLL 022350Z AUTO 22009KT 9999 OVC008 19/18 Q1009
                        NOSIG=
201608022320 METAR COR EGLL 022320Z AUTO 22010KT 9999 -RA OVC008 19/18
                        Q1009 NOSIG=
201608022250 METAR COR EGLL 022250Z AUTO 22010KT 9999 OVC008 19/18 Q1010
                        TEMPO RA=
201608022220 METAR COR EGLL 022220Z AUTO 21010KT 9999 OVC008 19/18 Q1010
                        TEMPO RA=
201608022150 METAR COR EGLL 022150Z AUTO 22009KT 9999 OVC009 19/18 Q1010
                        NOSIG=
201608022120 METAR COR EGLL 022120Z AUTO 22010KT 9999 OVC008 19/19 Q1010
                        NOSIG=
201608022050 METAR COR EGLL 022050Z AUTO 21010KT 9999 OVC009 19/19 Q1010
                        NOSIG=
201608022020 METAR COR EGLL 022020Z AUTO 21009KT 9999 OVC011 20/19 Q1010
                        TEMPO BKN008=
201608021950 METAR COR EGLL 021950Z AUTO 22011KT 9999 OVC010 20/19 Q1010
                        TEMPO BKN008=
201608021920 METAR COR EGLL 021920Z AUTO 22009KT 9999 OVC012 20/19 Q1010
                        NOSIG=
201608021850 METAR COR EGLL 021850Z AUTO 21009KT 9999 OVC011 20/19 Q1010
                        NOSIG=
201608021820 METAR COR EGLL 021820Z 21010KT 9000 FEW008 BKN013 20/19 Q1010
                        TEMPO BKN008=
201608021750 METAR COR EGLL 021750Z 21008KT 8000 VCSH FEW007 BKN012 20/20
                        Q1010 TEMPO BKN008=
201608021720 METAR COR EGLL 021720Z AUTO 23010KT 9999 BKN010 BKN023 21/19
                        Q1010 TEMPO SCT012 BKN020=
201608021650 METAR COR EGLL 021650Z 24011KT 9999 BKN013 BKN020 21/18 Q1010
                        TEMPO SCT014 BKN020=
201608021620 METAR COR EGLL 021620Z 24013KT 9999 SCT014 BKN024 21/18 Q1010
                        TEMPO BKN014=
201608021550 METAR COR EGLL 021550Z 24013KT 9999 VCSH SCT011 BKN022 21/18
                        Q1010 TEMPO BKN012=
201608021520 METAR COR EGLL 021520Z 24012KT 9999 FEW015 OVC020 22/18 Q1010
                        TEMPO BKN014=
201608021450 METAR COR EGLL 021450Z 24012KT 9999 BKN014 21/18 Q1010 TEMPO
                        BKN012=
201608021420 METAR COR EGLL 021420Z 23011KT 9999 FEW013 BKN020 22/18 Q1010
                        TEMPO BKN013=
201608021350 METAR COR EGLL 021350Z 24012KT 9999 FEW009 OVC022 21/19 Q1010
                        TEMPO BKN009=
201608021320 METAR COR EGLL 021320Z 23012KT 7000 -RA BKN008 21/19 Q1010
                        TEMPO BKN012=
201608021250 METAR COR EGLL 021250Z 23012KT 9000 BKN009 BKN012 21/19 Q1010
                        TEMPO FEW009 BKN012=
201608021220 METAR COR EGLL 021220Z 23012KT 9999 SCT009 BKN012 20/19 Q1010
                        TEMPO BKN009=
201608021150 METAR COR EGLL 021150Z 23011KT 9999 -RA SCT008 BKN011 20/19
                        Q1010 TEMPO BKN008=
201608021120 METAR COR EGLL 021120Z 23010KT 180V250 9999 -RA FEW008 BKN012
                        19/19 Q1010 TEMPO BKN008=
201608021050 METAR COR EGLL 021050Z 23010KT 9999 -RA SCT009 BKN014 19/19
                        Q1010 TEMPO BKN009=
201608021020 METAR COR EGLL 021020Z 24010KT 9999 FEW008 BKN011 19/19 Q1010
                        TEMPO BKN008=
201608020950 METAR COR EGLL 020950Z 23010KT 9999 BKN008 BKN011 19/19 Q1010
                        TEMPO FEW008 BKN012=
201608020920 METAR COR EGLL 020920Z 24011KT 9999 BKN010 19/18 Q1010 TEMPO
                        BKN009=
201608020850 METAR COR EGLL 020850Z 24011KT 9999 BKN011 19/18 Q1010 TEMPO
                        BKN009=
201608020820 METAR COR EGLL 020820Z 23010KT 9999 BKN011 18/18 Q1010 TEMPO
                        BKN009=
201608020750 METAR COR EGLL 020750Z 23010KT 9999 BKN011 18/18 Q1010 TEMPO
                        BKN009=
201608020720 METAR COR EGLL 020720Z 23011KT 9999 FEW009 BKN011 18/17 Q1010
                        TEMPO BKN008=
201608020650 METAR COR EGLL 020650Z 23011KT 9999 FEW010 BKN013 17/17 Q1010
                        TEMPO BKN008=
201608020620 METAR COR EGLL 020620Z 23011KT 9999 BKN012 17/17 Q1010 TEMPO
                        BKN008=
201608020550 METAR COR EGLL 020550Z 23011KT 9999 FEW009 BKN012 17/17 Q1009
                        TEMPO BKN008=
201608020520 METAR COR EGLL 020520Z 22008KT 9999 SCT006 OVC014 16/16 Q1009
                        TEMPO BKN008=
201608020450 METAR COR EGLL 020450Z 22007KT 200V270 6000 -RA BKN004 BKN012
                        16/16 Q1009 TEMPO FEW004 BKN012=
201608020420 METAR COR EGLL 020420Z 21006KT 9999 -RA FEW005 BKN014 16/16
                        Q1009 TEMPO BKN005=
201608020350 METAR COR EGLL 020350Z 23008KT 9999 FEW005 BKN008 OVC021
                        16/16 Q1009 TEMPO FEW008 BKN012=
201608020320 METAR COR EGLL 020320Z AUTO 22007KT 4400 -RADZ BKN003 16/16
                        Q1010 BECMG 7000 FEW004 BKN008=
201608020250 METAR COR EGLL 020250Z AUTO 21007KT 5000 -DZ OVC004 16/16
                        Q1010 TEMPO FEW004 BKN007=
201608020220 METAR COR EGLL 020220Z AUTO 23006KT 5000 -DZ BKN005/// OVC015///
                        //////TCU 15/15 Q1010 TEMPO BKN004=
201608020150 METAR COR EGLL 020150Z AUTO 22008KT 8000 -RA BKN005 OVC018
                        15/15 Q1010 TEMPO 4000 RA BKN004=
201608020120 METAR COR EGLL 020120Z 19006KT 9999 -RA BKN008 OVC016 15/15
                        Q1011 TEMPO FEW008 BKN014=
201608020050 METAR COR EGLL 020050Z 18008KT 8000 -RA FEW005 BKN015 15/15
                        Q1011 TEMPO BKN006=
201608020020 METAR COR EGLL 020020Z 16009KT 9000 -RA BKN010 14/14 Q1011
                        TEMPO RA BKN008=
201608012350 METAR COR EGLL 012350Z 16009KT 9999 -RA BKN010 14/14 Q1012
                        TEMPO RA BKN006=
201608012320 METAR COR EGLL 012320Z 15008KT 9999 -RA BKN013 14/14 Q1012
                        TEMPO BKN007=
201608012250 METAR COR EGLL 012250Z 15007KT 140V220 7000 -RA SCT007 BKN012
                        14/14 Q1013 TEMPO BKN007=
201608012220 METAR COR EGLL 012220Z 16008KT 9999 -RA SCT005 SCT008 14/14
                        Q1014 TEMPO BKN010=
201608012150 METAR COR EGLL 012150Z 15007KT 9999 -RA FEW006 BKN008 14/14
                        Q1014 TEMPO FEW008 BKN012=
201608012120 METAR COR EGLL 012120Z 15009KT 9999 -RA FEW007 BKN012 14/14
                        Q1014 TEMPO RA BKN008=
201608012050 METAR COR EGLL 012050Z AUTO 15006KT 110V180 9999 -RA BKN006
                        OVC015 14/14 Q1015 TEMPO RA FEW006
                        BKN012=
201608012020 METAR COR EGLL 012020Z AUTO 15008KT 120V200 9999 -RA FEW006
                        BKN017 14/14 Q1016 BECMG BKN012=
201608011950 METAR COR EGLL 011950Z AUTO 17008KT 130V210 9999 -RA BKN020
                        OVC045 14/14 Q1016 BECMG BKN012=
201608011920 METAR COR EGLL 011920Z AUTO 18008KT 9999 -RA FEW007 OVC045
                        14/14 Q1016 TEMPO RA BKN012=
201608011850 METAR COR EGLL 011850Z AUTO 18009KT 160V240 9999 -RA FEW009
                        OVC044 14/14 Q1017 TEMPO RA BKN012=
201608011820 METAR COR EGLL 011820Z AUTO 18008KT 110V210 9999 -RA FEW007
                        BKN017 BKN036 14/14 Q1017 TEMPO RA
                        BKN010=
201608011750 METAR COR EGLL 011750Z 20008KT 170V250 7000 -RA SCT008 BKN030
                        15/14 Q1017 TEMPO RA BKN010=
201608011720 METAR COR EGLL 011720Z AUTO 22010KT 9999 -RA SCT015 OVC028
                        16/13 Q1018 TEMPO RA BKN014=
201608011650 METAR COR EGLL 011650Z AUTO 20011KT 9999 -RA FEW018 BKN033
                        16/13 Q1018 TEMPO RA BKN014=
201608011620 METAR COR EGLL 011620Z AUTO 22008KT 9999 FEW018 OVC041 16/12
                        Q1018 TEMPO RA BKN014=
201608011550 METAR COR EGLL 011550Z AUTO 20010KT 170V230 9999 -RA OVC049
                        17/12 Q1018 TEMPO RA=
201608011520 METAR COR EGLL 011520Z AUTO 23010KT 9999 -RA SCT023 BKN040
                        17/13 Q1019 TEMPO RA=
201608011450 METAR COR EGLL 011450Z AUTO 22007KT 170V250 9999 -RA FEW022
                        BKN037 17/12 Q1019 TEMPO RA=
201608011420 METAR COR EGLL 011420Z AUTO 22006KT 9999 -RA FEW020 BKN038
                        17/11 Q1019 TEMPO RA=
201608011350 METAR COR EGLL 011350Z AUTO 25009KT 9000 -RA SCT019 18/11
                        Q1019 TEMPO RA=
201608011320 METAR COR EGLL 011320Z AUTO 24009KT 8000 -RA BKN022 BKN038
                        18/11 Q1019 TEMPO RA=
201608011250 METAR COR EGLL 011250Z AUTO 25010KT 9999 FEW025 SCT049 18/10
                        Q1019 TEMPO RA=
201608011220 METAR COR EGLL 011220Z AUTO 24012KT 9999 SCT025 BKN040 18/11
                        Q1019 NOSIG=
201608011150 METAR COR EGLL 011150Z AUTO 25009KT 9999 SCT028 19/10 Q1019
                        NOSIG=
201608011120 METAR COR EGLL 011120Z AUTO 25009KT 180V280 9999 FEW031 19/10
                        Q1020 NOSIG=
201608011050 METAR COR EGLL 011050Z AUTO 24007KT 210V270 9999 NCD 18/10
                        Q1020 NOSIG=
201608011020 METAR COR EGLL 011020Z AUTO 24007KT 200V280 9999 NCD 18/11
                        Q1020 NOSIG=
201608010950 METAR COR EGLL 010950Z AUTO 26006KT 210V290 9999 NCD 18/11
                        Q1020 NOSIG=
201608010920 METAR COR EGLL 010920Z AUTO 25007KT 180V280 9999 NCD 17/11
                        Q1020 NOSIG=
201608010850 METAR COR EGLL 010850Z AUTO 24007KT 9999 NCD 16/11 Q1020
                        NOSIG=
201608010820 METAR COR EGLL 010820Z AUTO 27005KT 9999 NCD 16/10 Q1020
                        NOSIG=
201608010750 METAR COR EGLL 010750Z AUTO 24005KT 9999 NCD 16/10 Q1020
                        NOSIG=
201608010720 METAR COR EGLL 010720Z AUTO 27004KT 9999 NCD 15/10 Q1019
                        NOSIG=
201608010650 METAR COR EGLL 010650Z AUTO VRB03KT 9999 NCD 14/09 Q1019
                        NOSIG=
201608010620 METAR COR EGLL 010620Z AUTO VRB03KT 9999 NCD 14/09 Q1019
                        NOSIG=
201608010550 METAR COR EGLL 010550Z AUTO 27004KT 9999 NCD 13/09 Q1019
                        NOSIG=
201608010520 METAR COR EGLL 010520Z AUTO 26005KT 220V280 9999 NCD 13/09
                        Q1019 NOSIG=
201608010450 METAR COR EGLL 010450Z AUTO 27005KT 9999 NCD 13/09 Q1019
                        NOSIG=
201608010420 METAR COR EGLL 010420Z AUTO 29005KT 9999 NCD 12/09 Q1019
                        NOSIG=
201608010350 METAR COR EGLL 010350Z AUTO 28004KT 9999 NCD 12/09 Q1019
                        NOSIG=
201608010320 METAR COR EGLL 010320Z AUTO 31004KT 9999 NCD 12/09 Q1019
                        NOSIG=
201608010250 METAR COR EGLL 010250Z AUTO 30005KT 9999 NCD 12/09 Q1020
                        NOSIG=
201608010220 METAR COR EGLL 010220Z AUTO 28005KT 9999 NCD 14/09 Q1019
                        NOSIG=
201608010150 METAR COR EGLL 010150Z AUTO 30004KT 9999 NCD 15/09 Q1019
                        NOSIG=
201608010120 METAR COR EGLL 010120Z AUTO 29007KT 9999 NCD 15/09 Q1019
                        NOSIG=
201608010050 METAR COR EGLL 010050Z AUTO 30005KT 9999 NCD 15/09 Q1019
                        NOSIG=
201608010020 METAR COR EGLL 010020Z AUTO 30006KT 9999 NCD 16/09 Q1019
                        NOSIG=

</pre>

</body>
</html>
