##########################################################
# Query made at 01/13/2020 12:00:14 UTC
# Time interval: from 08/01/2015 00:00  to 08/31/2015 23:59  UTC
##########################################################

##########################################################
# EGLL, London / Heathrow Airport (United Kingdom)
# WMO index: 03772
# Latitude 51-29N. Longitude 000-27W. Altitude 24 m.
##########################################################

###################################
#  METAR/SPECI from EGLL
###################################
201508312350 METAR EGLL 312350Z 31004KT 290V350 9999 FEW018 14/12 Q1016
                        TEMPO -RA BKN014=
201508312320 METAR COR EGLL 312320Z 32004KT 290V360 9999 BKN018 14/12
                        Q1016 TEMPO -RA BKN014=
201508312250 METAR EGLL 312250Z VRB03KT 9999 FEW013 14/13 Q1016 NOSIG=
201508312220 METAR COR EGLL 312220Z VRB03KT 9999 SCT013 15/13 Q1015 TEMPO
                        BKN014=
201508312150 METAR EGLL 312150Z VRB03KT 9999 FEW014 SCT043 15/13 Q1015
                        NOSIG=
201508312120 METAR COR EGLL 312120Z 35004KT 9999 FEW013 SCT019 BKN044
                        15/13 Q1015 NOSIG=
201508312050 METAR EGLL 312050Z 35004KT 320V030 9999 SCT015 BKN019 15/12
                        Q1016 TEMPO BKN014=
201508312020 METAR COR EGLL 312020Z 36005KT 330V030 9999 SCT021 BKN032
                        15/12 Q1015 TEMPO BKN014=
201508311950 METAR EGLL 311950Z 35004KT 320V020 9999 BKN017 15/13 Q1015
                        TEMPO BKN014=
201508311920 METAR COR EGLL 311920Z 36005KT 9999 SCT015 BKN019 15/13 Q1015
                        TEMPO BKN014=
201508311850 METAR COR EGLL 311850Z 36005KT 320V030 9999 FEW008 BKN013
                        15/13 Q1014 TEMPO SCT013 BKN016=
201508311820 METAR COR EGLL 311820Z 36005KT 330V040 9999 FEW015 BKN029
                        15/12 Q1014 TEMPO BKN012=
201508311750 METAR EGLL 311750Z 36006KT 320V030 9999 FEW013 SCT024 BKN039
                        16/13 Q1014 TEMPO BKN014=
201508311720 METAR COR EGLL 311720Z 36006KT 9999 SCT012 BKN029 16/13 Q1014
                        TEMPO BKN012=
201508311650 METAR COR EGLL 311650Z 35006KT 310V030 9999 FEW010 SCT012
                        BKN025 16/13 Q1014 TEMPO BKN012=
201508311620 METAR COR EGLL 311620Z 35006KT 310V020 8000 -RADZ FEW007
                        BKN013 15/14 Q1014 TEMPO SCT013 BKN018=
201508311550 METAR COR EGLL 311550Z 35004KT 310V020 6000 -RADZ FEW007
                        BKN011 15/14 Q1014 RERA REDZ TEMPO
                        4500 RADZ=
201508311520 METAR COR EGLL 311520Z 36007KT 5000 -RADZ FEW007 BKN011 15/14
                        Q1013 RERA TEMPO 4500 RADZ=
201508311450 METAR EGLL 311450Z 33005KT 290V040 4800 RA FEW006 BKN011
                        15/14 Q1013 RERA BECMG 6000 NSW=
201508311420 METAR COR EGLL 311420Z 36005KT 320V050 6000 RA FEW009 BKN013
                        16/13 Q1013 BECMG -RA SCT010 BKN018=
201508311350 METAR EGLL 311350Z 36006KT 9999 -RA FEW007 BKN009 15/13 Q1013=
201508311320 METAR COR EGLL 311320Z 36007KT 9999 FEW009 BKN011 16/14 Q1013
                        TEMPO SCT012 BKN016=
201508311250 METAR EGLL 311250Z 34005KT 290V030 9999 FEW007 BKN011 16/14
                        Q1012 TEMPO RADZ BKN008=
201508311220 METAR COR EGLL 311220Z 36005KT 320V060 9999 -RA FEW006 BKN011
                        16/14 Q1012 TEMPO NSW SCT012 BKN018=
201508311150 METAR COR EGLL 311150Z 02006KT 340V060 9999 -RA FEW008 SCT010
                        BKN021 16/14 Q1012 TEMPO RA BKN010=
201508311120 METAR COR EGLL 311120Z 05005KT 9000 -RA SCT008 BKN019 15/14
                        Q1012 TEMPO RA BKN014=
201508311050 METAR COR EGLL 311050Z 03006KT 340V080 9999 -RA SCT006TCU
                        BKN012 15/14 Q1012 TEMPO RA BKN008=
201508311020 METAR COR EGLL 311020Z 03005KT 350V060 9999 -RA FEW005 SCT011
                        15/14 Q1012 TEMPO RA BKN012=
201508310950 METAR COR EGLL 310950Z 02005KT 350V060 8000 -RA FEW005 SCT007
                        BKN010 15/14 Q1012 RERA TEMPO RA
                        BKN008=
201508310920 METAR COR EGLL 310920Z 36006KT 320V030 6000 RA SCT006 BKN007
                        15/14 Q1012 NOSIG=
201508310850 METAR COR EGLL 310850Z 01006KT 330V050 9000 -RA BKN006TCU
                        BKN013 15/14 Q1012 RERA REDZ TEMPO
                        NSW SCT006 BKN008=
201508310820 METAR COR EGLL 310820Z 36005KT 310V040 5000 RADZ BKN006TCU
                        BKN013 15/14 Q1012 TEMPO 4000 +RA=
201508310750 METAR COR EGLL 310750Z 02006KT 340V050 9999 6000W -RA SCT005
                        SCT007TCU BKN011 15/14 Q1012 TEMPO
                        4000 +RA BKN008=
201508310720 METAR COR EGLL 310720Z 02005KT 350V050 9999 FEW004 SCT006TCU
                        BKN011 15/14 Q1012 TEMPO 4000 +RA
                        BKN008=
201508310650 METAR COR EGLL 310650Z 02005KT 350V060 9999 -RA FEW003 SCT005
                        BKN011 15/14 Q1012 RERA TEMPO 4000
                        RA BKN009=
201508310620 METAR COR EGLL 310620Z 04004KT 010V080 4900 RA BR FEW004
                        SCT005 BKN011 15/14 Q1013 TEMPO +RA
                        BKN008=
201508310550 METAR EGLL 310550Z 02005KT 350V050 9999 -RA FEW004 SCT005
                        BKN011 15/14 Q1013 TEMPO 4000 RA
                        BKN006=
201508310520 METAR COR EGLL 310520Z 01004KT 340V050 9999 -RA SCT006 BKN010
                        14/14 Q1013 RERA TEMPO 4000 RA BKN006=
201508310450 METAR EGLL 310450Z 36005KT 330V030 8000 RA FEW006 BKN010
                        14/14 Q1013 RERA TEMPO BKN008=
201508310420 METAR COR EGLL 310420Z 35004KT 6000 RA FEW004 BKN010 15/14
                        Q1014 TEMPO BKN008=
201508310350 METAR COR EGLL 310350Z VRB03KT 7000 RA FEW007 BKN010 15/14
                        Q1014 TEMPO BKN008=
201508310320 METAR COR EGLL 310320Z VRB03KT 9999 BKN010 15/14 Q1014 TEMPO
                        RA BKN008=
201508310250 METAR EGLL 310250Z VRB03KT 9999 BKN009 15/14 Q1014 NOSIG=
201508310220 METAR COR EGLL 310220Z 04004KT 360V060 9000 -RA FEW007 BKN010
                        15/14 Q1014 TEMPO BKN008=
201508310150 METAR COR EGLL 310150Z 02005KT 350V050 8000 -RA BKN010 15/14
                        Q1014 RERA TEMPO SHRA=
201508310120 METAR EGLL 310120Z AUTO 06006KT 9999 -DZ BKN012 BKN017 15/14
                        Q1014=
201508310050 METAR EGLL 310050Z AUTO 05004KT 020V090 9999 -DZ FEW008 BKN011
                        15/14 Q1015 REDZ=
201508310020 METAR EGLL 310020Z AUTO 05006KT 360V080 9000 -RA BKN016 15/14
                        Q1015 RERA=
201508302350 METAR COR EGLL 302350Z 03005KT 360V070 8000 RA SCT009 BKN014
                        16/14 Q1015 TEMPO NSW=
201508302320 METAR COR EGLL 302320Z 07005KT 9999 -RA SCT014TCU 16/14 Q1016
                        TEMPO SHRA BKN012=
201508302250 METAR COR EGLL 302250Z 04005KT 360V060 9999 SCT017 16/14
                        Q1016 TEMPO SHRA BKN012=
201508302220 METAR COR EGLL 302220Z 05006KT 020V080 9999 SCT017 SCT023
                        16/15 Q1016 TEMPO BKN012=
201508302150 METAR COR EGLL 302150Z 04005KT 010V080 9999 FEW014 SCT018
                        16/15 Q1016 TEMPO BKN012=
201508302120 METAR COR EGLL 302120Z 03005KT 360V060 9999 -RA FEW010 16/15
                        Q1016 TEMPO BKN010=
201508302050 METAR EGLL 302050Z 04005KT 360V070 9999 -SHRA SCT010 BKN020
                        16/15 Q1016 TEMPO BKN010=
201508302020 METAR COR EGLL 302020Z 04004KT 360V090 9999 FEW008 BKN018
                        16/15 Q1016 TEMPO BKN012=
201508301950 METAR COR EGLL 301950Z 03006KT 360V070 9999 BKN011 16/15
                        Q1017 RESHRA NOSIG=
201508301920 METAR COR EGLL 301920Z 04008KT 360V070 9999 -SHRA BKN014
                        17/15 Q1017 TEMPO SHRA=
201508301850 METAR EGLL 301850Z 02006KT 350V060 9999 -RA FEW015 BKN017
                        17/15 Q1016 TEMPO SHRA BKN014=
201508301820 METAR COR EGLL 301820Z 04007KT 010V090 9999 BKN016 17/14
                        Q1017 TEMPO BKN014=
201508301750 METAR EGLL 301750Z 03007KT 350V050 9999 BKN018 18/14 Q1017
                        TEMPO BKN014=
201508301720 METAR COR EGLL 301720Z 02007KT 350V050 9999 BKN017 18/14
                        Q1017 TEMPO BKN014=
201508301650 METAR COR EGLL 301650Z 02006KT 340V060 9999 FEW018 BKN020
                        18/14 Q1017 TEMPO BKN014=
201508301620 METAR COR EGLL 301620Z 04007KT 340V090 9999 BKN021 19/14
                        Q1017 NOSIG=
201508301550 METAR COR EGLL 301550Z 01007KT 320V030 9999 BKN022 19/14
                        Q1017 NOSIG=
201508301520 METAR COR EGLL 301520Z 01007KT 340V040 9999 BKN021 20/15
                        Q1017 NOSIG=
201508301450 METAR COR EGLL 301450Z 06005KT 030V090 9999 BKN022 20/15
                        Q1017 NOSIG=
201508301420 METAR COR EGLL 301420Z 06005KT 360V090 9999 BKN023 20/15
                        Q1017 NOSIG=
201508301350 METAR EGLL 301350Z 07005KT 9999 BKN024 20/15 Q1017 NOSIG=
201508301320 METAR COR EGLL 301320Z 09007KT 9999 BKN023 20/15 Q1017 NOSIG=
201508301250 METAR EGLL 301250Z 08006KT 030V140 9999 BKN024 20/15 Q1017
                        NOSIG=
201508301220 METAR COR EGLL 301220Z 08006KT 050V120 9999 FEW022 BKN030
                        20/15 Q1017 NOSIG=
201508301150 METAR COR EGLL 301150Z 08007KT 9999 FEW025 BKN031 20/15 Q1017
                        NOSIG=
201508301120 METAR COR EGLL 301120Z 08009KT 9999 SCT031 BKN038 20/14 Q1017
                        NOSIG=
201508301050 METAR EGLL 301050Z 06006KT 020V090 9999 BKN030 19/14 Q1018
                        NOSIG=
201508301020 METAR COR EGLL 301020Z 07006KT 030V090 9999 FEW029 BKN032
                        19/14 Q1017 NOSIG=
201508300950 METAR COR EGLL 300950Z 06007KT 9999 BKN035 19/13 Q1017 NOSIG=
201508300920 METAR COR EGLL 300920Z 07007KT 9999 BKN032 19/13 Q1018 NOSIG=
201508300850 METAR COR EGLL 300850Z 08009KT 9999 SCT031 18/13 Q1018 NOSIG=
201508300820 METAR COR EGLL 300820Z 05007KT 020V080 9999 FEW031 18/13
                        Q1017 NOSIG=
201508300750 METAR EGLL 300750Z 07006KT CAVOK 17/14 Q1018 NOSIG=
201508300720 METAR COR EGLL 300720Z 05004KT 010V080 CAVOK 17/14 Q1018
                        NOSIG=
201508300650 METAR EGLL 300650Z 04004KT 9999 FEW033 16/14 Q1018 NOSIG=
201508300620 METAR COR EGLL 300620Z 05004KT 010V090 9999 FEW034 16/14
                        Q1018 NOSIG=
201508300550 METAR COR EGLL 300550Z VRB03KT 9999 FEW034 16/14 Q1018 NOSIG=
201508300520 METAR COR EGLL 300520Z VRB02KT 9999 SCT034 15/14 Q1018 NOSIG=
201508300450 METAR EGLL 300450Z 05004KT 010V100 CAVOK 16/14 Q1017 NOSIG=
201508300420 METAR COR EGLL 300420Z VRB03KT 9999 -RA FEW040 16/14 Q1018
                        NOSIG=
201508300350 METAR COR EGLL 300350Z VRB02KT 9999 -RA SCT040 16/15 Q1018
                        TEMPO RA=
201508300320 METAR COR EGLL 300320Z VRB03KT 9999 -RA SCT032 16/14 Q1018
                        TEMPO RA=
201508300250 METAR EGLL 300250Z VRB03KT 9000 -RA SCT034 16/14 Q1018 TEMPO
                        RA=
201508300220 METAR COR EGLL 300220Z VRB02KT 9999 -RA SCT038 16/14 Q1018
                        TEMPO RA=
201508300150 METAR EGLL 300150Z VRB03KT 9999 -RA BKN038 16/15 Q1018 REDZ
                        TEMPO RA=
201508300120 METAR EGLL 300120Z AUTO VRB03KT 9999 -RA BKN038 BKN049 16/15
                        Q1018=
201508300050 METAR EGLL 300050Z AUTO VRB03KT 9999 FEW041 17/15 Q1018=
201508300020 METAR EGLL 300020Z AUTO VRB03KT 9999 NCD 17/15 Q1018=
201508292350 METAR COR EGLL 292350Z 05004KT 9999 FEW037 17/15 Q1018 NOSIG=
201508292320 METAR COR EGLL 292320Z VRB03KT 8000 SCT036 BKN042 17/16 Q1019
                        NOSIG=
201508292250 METAR COR EGLL 292250Z VRB02KT 8000 -RA BKN038 17/16 Q1019
                        TEMPO RA=
201508292220 METAR COR EGLL 292220Z 36003KT 9999 -RA BKN040 17/15 Q1019
                        NOSIG=
201508292150 METAR COR EGLL 292150Z 06003KT 9999 BKN037 17/15 Q1019 NOSIG=
201508292120 METAR COR EGLL 292120Z 04003KT 9999 -RA SCT040 BKN048 17/15
                        Q1019 NOSIG=
201508292050 METAR EGLL 292050Z VRB03KT 9999 FEW049 17/15 Q1019 NOSIG=
201508292020 METAR COR EGLL 292020Z 05003KT 9999 -RA FEW040 SCT048 17/15
                        Q1019 TEMPO NSW=
201508291950 METAR COR EGLL 291950Z VRB03KT 9999 -RA SCT044 17/15 Q1019
                        RERA NOSIG=
201508291920 METAR COR EGLL 291920Z 24004KT 190V270 9999 RA FEW033 17/15
                        Q1019 TEMPO -RA=
201508291850 METAR COR EGLL 291850Z VRB03KT 9000 RA FEW035 17/15 Q1019
                        TEMPO -RA=
201508291820 METAR COR EGLL 291820Z VRB02KT 9999 -RA NSC 18/15 Q1019 TEMPO
                        RA=
201508291750 METAR COR EGLL 291750Z 18004KT 110V240 9999 FEW033 18/15
                        Q1018 NOSIG=
201508291720 METAR COR EGLL 291720Z 21005KT 150V250 9999 FEW033 19/15
                        Q1019 NOSIG=
201508291650 METAR EGLL 291650Z 20007KT 160V240 9999 -RA FEW030 19/15
                        Q1019 NOSIG=
201508291620 METAR COR EGLL 291620Z 19008KT 150V240 9999 -RA FEW028 19/15
                        Q1019 NOSIG=
201508291550 METAR EGLL 291550Z 20007KT 150V250 9999 -RA FEW029 19/15
                        Q1019 NOSIG=
201508291520 METAR COR EGLL 291520Z 20007KT 160V250 9999 -RA FEW022 20/14
                        Q1019 TEMPO RA=
201508291450 METAR COR EGLL 291450Z 20007KT 160V230 9999 -RA FEW030 20/13
                        Q1019 TEMPO RA=
201508291420 METAR COR EGLL 291420Z 21006KT 170V250 9999 SCT035 21/12
                        Q1020 NOSIG=
201508291350 METAR EGLL 291350Z 18007KT 130V210 9999 FEW035 21/13 Q1020
                        NOSIG=
201508291320 METAR COR EGLL 291320Z 20006KT 150V240 9999 FEW035 21/13
                        Q1019 NOSIG=
201508291250 METAR EGLL 291250Z 18008KT 130V230 9999 FEW038 21/12 Q1020
                        NOSIG=
201508291220 METAR COR EGLL 291220Z 18009KT 150V240 9999 FEW040 21/13
                        Q1020 NOSIG=
201508291150 METAR EGLL 291150Z 20007KT 140V240 9999 FEW040 21/12 Q1020
                        NOSIG=
201508291120 METAR COR EGLL 291120Z 18008G24KT 060V230 9999 FEW040 22/11
                        Q1020 NOSIG=
201508291050 METAR EGLL 291050Z 19008G18KT 140V220 9999 FEW033 21/12 Q1020
                        NOSIG=
201508291020 METAR COR EGLL 291020Z 17005KT 130V230 9999 FEW032 21/13
                        Q1020 NOSIG=
201508290950 METAR EGLL 290950Z 20005KT 150V250 9999 FEW020 19/13 Q1020
                        NOSIG=
201508290920 METAR COR EGLL 290920Z 22005KT 140V320 9999 FEW017 19/14
                        Q1021 NOSIG=
201508290850 METAR COR EGLL 290850Z 19007KT 140V230 9999 FEW013 19/15
                        Q1021 NOSIG=
201508290820 METAR COR EGLL 290820Z 19007KT 160V240 9999 FEW012 17/14
                        Q1021 NOSIG=
201508290750 METAR EGLL 290750Z 18005KT 130V230 9999 FEW049 17/14 Q1021
                        NOSIG=
201508290720 METAR COR EGLL 290720Z 21004KT 170V240 CAVOK 16/14 Q1021
                        NOSIG=
201508290650 METAR EGLL 290650Z 22005KT 160V250 CAVOK 15/13 Q1021 NOSIG=
201508290620 METAR COR EGLL 290620Z 22006KT 180V250 9999 FEW049 15/13
                        Q1021 NOSIG=
201508290550 METAR COR EGLL 290550Z VRB04KT CAVOK 15/13 Q1020 NOSIG=
201508290520 METAR COR EGLL 290520Z 19004KT 140V250 CAVOK 14/13 Q1020
                        NOSIG=
201508290450 METAR COR EGLL 290450Z VRB04KT CAVOK 14/13 Q1020 NOSIG=
201508290420 METAR COR EGLL 290420Z 18004KT 140V210 CAVOK 14/13 Q1020
                        NOSIG=
201508290350 METAR EGLL 290350Z 19004KT CAVOK 14/13 Q1020 NOSIG=
201508290320 METAR COR EGLL 290320Z 19004KT CAVOK 14/13 Q1020 NOSIG=
201508290250 METAR EGLL 290250Z 20004KT CAVOK 14/12 Q1020 NOSIG=
201508290220 METAR COR EGLL 290220Z 19004KT CAVOK 14/12 Q1020 NOSIG=
201508290150 METAR EGLL 290150Z 20004KT CAVOK 14/12 Q1020 NOSIG=
201508290120 METAR EGLL 290120Z AUTO 21003KT 9999 NCD 14/12 Q1020=
201508290050 METAR EGLL 290050Z AUTO 18004KT 9999 NCD 14/12 Q1020=
201508290020 METAR EGLL 290020Z AUTO 21006KT 9999 NCD 14/12 Q1020=
201508282350 METAR COR EGLL 282350Z 21006KT CAVOK 15/12 Q1020 NOSIG=
201508282320 METAR COR EGLL 282320Z 22005KT CAVOK 15/12 Q1020 NOSIG=
201508282250 METAR COR EGLL 282250Z 21007KT CAVOK 15/12 Q1020 NOSIG=
201508282220 METAR COR EGLL 282220Z 20006KT 180V240 CAVOK 15/11 Q1020
                        NOSIG=
201508282150 METAR COR EGLL 282150Z 22009KT 180V260 CAVOK 15/11 Q1020
                        NOSIG=
201508282120 METAR COR EGLL 282120Z 21008KT 190V260 CAVOK 16/11 Q1020
                        NOSIG=
201508282050 METAR EGLL 282050Z 21010KT 170V250 CAVOK 16/11 Q1019 NOSIG=
201508282020 METAR COR EGLL 282020Z 21010KT 180V250 CAVOK 16/11 Q1019
                        NOSIG=
201508281950 METAR EGLL 281950Z 21009KT CAVOK 16/11 Q1019 NOSIG=
201508281920 METAR COR EGLL 281920Z 22008KT CAVOK 17/11 Q1018 NOSIG=
201508281850 METAR EGLL 281850Z 21009KT CAVOK 17/11 Q1018 NOSIG=
201508281820 METAR COR EGLL 281820Z 21010KT 190V250 CAVOK 18/10 Q1018
                        NOSIG=
201508281750 METAR EGLL 281750Z 22012KT 9999 FEW042 18/10 Q1018 NOSIG=
201508281720 METAR COR EGLL 281720Z 22011KT 9999 FEW042 19/10 Q1018 NOSIG=
201508281650 METAR COR EGLL 281650Z 22011KT 180V260 9999 FEW043 20/10
                        Q1017 NOSIG=
201508281620 METAR COR EGLL 281620Z 23013KT 9999 FEW041 20/10 Q1017 NOSIG=
201508281550 METAR COR EGLL 281550Z 24014G26KT 9999 FEW041 21/10 Q1017
                        NOSIG=
201508281520 METAR COR EGLL 281520Z 23013KT 190V260 9999 FEW041 20/10
                        Q1017 NOSIG=
201508281450 METAR COR EGLL 281450Z 23013G23KT 9999 FEW042 21/10 Q1017
                        NOSIG=
201508281420 METAR COR EGLL 281420Z 24010KT 9999 FEW040 19/11 Q1017 NOSIG=
201508281350 METAR EGLL 281350Z 23013KT 9999 BKN042 19/10 Q1017 NOSIG=
201508281320 METAR COR EGLL 281320Z 23011KT 9999 BKN042 20/09 Q1017 NOSIG=
201508281250 METAR EGLL 281250Z 22013KT 190V250 9999 FEW039 21/10 Q1017
                        NOSIG=
201508281220 METAR COR EGLL 281220Z 21011KT 170V250 9999 SCT041 20/10
                        Q1017 NOSIG=
201508281150 METAR COR EGLL 281150Z 23009KT 200V260 9999 SCT034 20/10
                        Q1017 NOSIG=
201508281120 METAR COR EGLL 281120Z 24010KT 9999 FEW034 18/10 Q1017 NOSIG=
201508281050 METAR EGLL 281050Z 23011KT 9999 FEW036 18/10 Q1017 NOSIG=
201508281020 METAR COR EGLL 281020Z 24012KT 9999 FEW035 18/09 Q1016 NOSIG=
201508280950 METAR EGLL 280950Z 23010KT 200V270 9999 FEW029 19/10 Q1016
                        NOSIG=
201508280920 METAR COR EGLL 280920Z 22010KT 180V250 9999 FEW023 18/12
                        Q1016 NOSIG=
201508280850 METAR EGLL 280850Z 23009KT 200V260 CAVOK 17/11 Q1016 NOSIG=
201508280820 METAR COR EGLL 280820Z 23007KT CAVOK 16/11 Q1016 NOSIG=
201508280750 METAR EGLL 280750Z 23009KT CAVOK 15/11 Q1016 NOSIG=
201508280720 METAR COR EGLL 280720Z 22007KT 190V260 CAVOK 14/11 Q1016
                        NOSIG=
201508280650 METAR COR EGLL 280650Z 22006KT 190V260 CAVOK 13/11 Q1015
                        NOSIG=
201508280620 METAR COR EGLL 280620Z 22005KT 190V270 CAVOK 12/10 Q1015
                        NOSIG=
201508280550 METAR COR EGLL 280550Z 21006KT CAVOK 11/10 Q1014 NOSIG=
201508280520 METAR COR EGLL 280520Z 21005KT 160V290 9999 VCFG NSC 10/10
                        Q1014 NOSIG=
201508280450 METAR EGLL 280450Z 21004KT 190V250 9999 VCFG NSC 11/10 Q1014
                        NOSIG=
201508280420 METAR COR EGLL 280420Z 23005KT CAVOK 11/10 Q1014 NOSIG=
201508280350 METAR COR EGLL 280350Z 22005KT CAVOK 11/10 Q1013 NOSIG=
201508280320 METAR COR EGLL 280320Z 23005KT CAVOK 12/11 Q1013 NOSIG=
201508280250 METAR EGLL 280250Z 25005KT CAVOK 12/11 Q1013 NOSIG=
201508280220 METAR COR EGLL 280220Z 24004KT CAVOK 12/11 Q1013 NOSIG=
201508280150 METAR COR EGLL 280150Z 21004KT CAVOK 12/11 Q1012 NOSIG=
201508280120 METAR EGLL 280120Z AUTO 22004KT 9999 NCD 13/11 Q1012=
201508280050 METAR EGLL 280050Z AUTO 27003KT 9999 NCD 13/11 Q1012=
201508280020 METAR EGLL 280020Z AUTO 25005KT 9999 NCD 14/11 Q1012=
201508272350 METAR COR EGLL 272350Z 24005KT CAVOK 14/12 Q1012 NOSIG=
201508272320 METAR COR EGLL 272320Z 24006KT CAVOK 14/12 Q1012 NOSIG=
201508272250 METAR COR EGLL 272250Z 25007KT CAVOK 15/12 Q1011 NOSIG=
201508272220 METAR COR EGLL 272220Z 24008KT CAVOK 15/12 Q1011 NOSIG=
201508272150 METAR EGLL 272150Z 24008KT CAVOK 15/12 Q1011 NOSIG=
201508272120 METAR COR EGLL 272120Z 24008KT CAVOK 14/12 Q1011 NOSIG=
201508272050 METAR EGLL 272050Z 23009KT CAVOK 15/12 Q1010 NOSIG=
201508272020 METAR COR EGLL 272020Z 22006KT 170V260 CAVOK 14/12 Q1010
                        NOSIG=
201508271950 METAR COR EGLL 271950Z 22006KT CAVOK 14/12 Q1010 NOSIG=
201508271920 METAR COR EGLL 271920Z 24006KT 9999 FEW030 15/11 Q1009 NOSIG=
201508271850 METAR EGLL 271850Z 23007KT 9999 FEW030 15/12 Q1009 NOSIG=
201508271820 METAR COR EGLL 271820Z 24009KT 200V260 9999 FEW032 16/12
                        Q1008 NOSIG=
201508271750 METAR EGLL 271750Z 22009KT 180V250 9999 VCSH FEW037 16/12
                        Q1008 NOSIG=
201508271720 METAR COR EGLL 271720Z 25010KT 9999 8000S VCSH SCT037CB 16/12
                        Q1008 TEMPO SHRA=
201508271650 METAR COR EGLL 271650Z 30006KT 9999 6000SW VCSH SCT036 16/11
                        Q1008 TEMPO SHRA=
201508271620 METAR COR EGLL 271620Z 29010KT 9999 SCT035 18/10 Q1008 TEMPO
                        SHRA=
201508271550 METAR EGLL 271550Z 23014KT 9999 VCSH BKN036 19/10 Q1007 TEMPO
                        SHRA=
201508271520 METAR COR EGLL 271520Z 22015KT 9999 VCSH SCT035 19/10 Q1007
                        TEMPO SHRA=
201508271450 METAR COR EGLL 271450Z 23014KT 9999 FEW036 19/10 Q1007 NOSIG=
201508271420 METAR COR EGLL 271420Z 24013KT 9999 FEW034 18/10 Q1007 NOSIG=
201508271350 METAR EGLL 271350Z 24010KT 9999 FEW031 18/11 Q1007 NOSIG=
201508271320 METAR COR EGLL 271320Z 24012KT 9999 FEW032 18/10 Q1007 NOSIG=
201508271250 METAR EGLL 271250Z 23013KT 9999 FEW031 18/11 Q1007 NOSIG=
201508271220 METAR COR EGLL 271220Z 22012KT 9999 FEW032 18/11 Q1007 NOSIG=
201508271150 METAR COR EGLL 271150Z 23013KT 9999 FEW030 18/11 Q1007 NOSIG=
201508271120 METAR COR EGLL 271120Z 23013KT 9999 FEW028 18/12 Q1007 NOSIG=
201508271050 METAR EGLL 271050Z 23014KT 9999 FEW024 17/12 Q1007 NOSIG=
201508271020 METAR EGLL 271020Z 24014KT 9999 FEW019 17/13 Q1006=
201508270950 METAR COR EGLL 270950Z 23012KT 9999 SCT015 17/14 Q1006 NOSIG=
201508270920 METAR COR EGLL 270920Z 23012KT 9999 FEW014 16/13 Q1006 NOSIG=
201508270850 METAR EGLL 270850Z 25010KT 9999 FEW028 15/13 Q1006 NOSIG=
201508270820 METAR COR EGLL 270820Z 24010KT 9999 FEW014 14/13 Q1006 NOSIG=
201508270750 METAR EGLL 270750Z 24009KT 9999 FEW019 SCT035 14/13 Q1006
                        RESHRA NOSIG=
201508270720 METAR COR EGLL 270720Z 26008KT 200V300 9000 SHRA FEW008 SCT018
                        14/13 Q1005 TEMPO +SHRA=
201508270650 METAR EGLL 270650Z 22006KT 9999 VCSH FEW014 14/13 Q1005 RESHRA
                        TEMPO +SHRA=
201508270620 METAR COR EGLL 270620Z 19007KT 9999 SHRA FEW029 SCT036 14/13
                        Q1005 TEMPO +SHRA=
201508270550 METAR COR EGLL 270550Z 20007KT 160V250 9999 FEW049 14/13
                        Q1005 TEMPO SHRA=
201508270520 METAR COR EGLL 270520Z 20007KT 170V250 9999 FEW048 14/13
                        Q1005 TEMPO SHRA=
201508270450 METAR EGLL 270450Z 20006KT 170V240 CAVOK 14/13 Q1005 NOSIG=
201508270420 METAR COR EGLL 270420Z 20005KT 170V250 CAVOK 14/13 Q1005
                        NOSIG=
201508270350 METAR EGLL 270350Z 20005KT 9999 FEW044 14/13 Q1005 NOSIG=
201508270320 METAR COR EGLL 270320Z 21006KT 9000 -RA FEW020 SCT045 14/12
                        Q1005 NOSIG=
201508270250 METAR EGLL 270250Z 20005KT 9999 FEW043 14/12 Q1005 NOSIG=
201508270220 METAR COR EGLL 270220Z 21006KT 9999 FEW043 14/12 Q1005 NOSIG=
201508270150 METAR EGLL 270150Z 21007KT 9999 FEW048 14/12 Q1005 NOSIG=
201508270120 METAR EGLL 270120Z AUTO 21006KT 9999 NCD 14/12 Q1005=
201508270050 METAR EGLL 270050Z AUTO 20008KT 9999 FEW022 14/13 Q1005=
201508270020 METAR EGLL 270020Z AUTO 20007KT 9999 FEW020 14/13 Q1005=
201508262350 METAR COR EGLL 262350Z 20009KT CAVOK 14/13 Q1005 NOSIG=
201508262320 METAR COR EGLL 262320Z 21007KT CAVOK 14/13 Q1005 NOSIG=
201508262250 METAR EGLL 262250Z 22011KT 9999 FEW017 15/13 Q1005 NOSIG=
201508262220 METAR COR EGLL 262220Z 22011KT CAVOK 15/12 Q1005 NOSIG=
201508262150 METAR EGLL 262150Z 23014KT CAVOK 15/12 Q1005 NOSIG=
201508262120 METAR COR EGLL 262120Z 22012KT CAVOK 15/13 Q1005 NOSIG=
201508262050 METAR COR EGLL 262050Z 22011G21KT CAVOK 15/13 Q1004 NOSIG=
201508262020 METAR COR EGLL 262020Z 22011KT CAVOK 15/12 Q1004 NOSIG=
201508261950 METAR EGLL 261950Z 22012KT 190V250 CAVOK 16/12 Q1004 NOSIG=
201508261920 METAR COR EGLL 261920Z 22011G21KT CAVOK 16/12 Q1003 NOSIG=
201508261850 METAR COR EGLL 261850Z 21011KT 180V240 CAVOK 17/12 Q1003
                        NOSIG=
201508261820 METAR EGLL 261820Z 21012KT 190V250 9999 FEW036 18/12 Q1003=
201508261750 METAR EGLL 261750Z 22013KT 9999 FEW034 18/12 Q1003 NOSIG=
201508261720 METAR COR EGLL 261720Z 22014KT 9999 FEW032 19/12 Q1003 NOSIG=
201508261650 METAR EGLL 261650Z 22013G23KT 180V250 9999 FEW023 20/14 Q1003
                        NOSIG=
201508261620 METAR COR EGLL 261620Z 20014KT 180V250 9999 FEW018 SCT024
                        19/15 Q1003 NOSIG=
201508261550 METAR EGLL 261550Z 21012G22KT 170V240 9999 FEW021 20/16 Q1003
                        NOSIG=
201508261520 METAR COR EGLL 261520Z 21014KT 180V250 9999 FEW014 19/16
                        Q1003 TEMPO SHRA=
201508261450 METAR COR EGLL 261450Z 22012KT 9999 SCT015 SCT021 18/16 Q1003
                        TEMPO SHRA=
201508261420 METAR COR EGLL 261420Z 22012KT 9999 -SHRA SCT012 18/16 Q1003
                        TEMPO 4000 SHRA=
201508261350 METAR COR EGLL 261350Z 23012KT 9999 -SHRA SCT018 17/16 Q1003
                        TEMPO SHRA=
201508261320 METAR COR EGLL 261320Z 22013KT 9000 -SHRA SCT009CB SCT014
                        16/16 Q1003 RESHRA RERA TEMPO 4000
                        SHRA BKN012=
201508261250 METAR EGLL 261250Z 23013KT 7000 -SHRA FEW007CB BKN014 17/16
                        Q1003 RESHRA TEMPO 3000 +RA BKN015=
201508261220 METAR COR EGLL 261220Z 24011KT 4300 RA BKN013 17/16 Q1003
                        RETS RERA TEMPO +TSRA BKN015=
201508261150 METAR EGLL 261150Z 22020KT 4000 +TSRA FEW006 SCT008 BKN015CB
                        17/16 Q1003 RETS RERA TEMPO RA BKN012=
201508261120 METAR COR EGLL 261120Z 20017KT 9999 RA SCT019 SCT023 18/17
                        Q1002 TEMPO 3000 +RA BKN012=
201508261050 METAR EGLL 261050Z 17008KT 130V200 6000 RA SCT016 SCT021
                        16/15 Q1003 TEMPO 3000 +RA BKN012=
201508261020 METAR COR EGLL 261020Z 18010KT 6000 RA SCT021 SCT035 16/15
                        Q1003 TEMPO 3000 +RA BKN012=
201508260950 METAR EGLL 260950Z 20012KT 9999 8000S RA FEW027 SCT035 17/15
                        Q1004 TEMPO 3000 +RA BKN012=
201508260920 METAR COR EGLL 260920Z 21011KT 9999 -RA FEW014 17/15 Q1004
                        TEMPO RA BKN012=
201508260850 METAR COR EGLL 260850Z 21010KT 9999 FEW014 SCT019 18/16 Q1004
                        TEMPO RA=
201508260820 METAR COR EGLL 260820Z 21011KT 9999 -RA FEW011 SCT020 18/16
                        Q1004 RERA TEMPO RA BKN012=
201508260750 METAR COR EGLL 260750Z 20018KT 6000 RA FEW016 SCT019 BKN023
                        18/16 Q1003 TEMPO 3000 +RA BKN012=
201508260720 METAR COR EGLL 260720Z 20014KT 9999 SCT020 SCT026 18/16 Q1003
                        TEMPO RA=
201508260650 METAR EGLL 260650Z 20015KT 9999 SCT019 SCT025 18/15 Q1003
                        TEMPO RA=
201508260620 METAR COR EGLL 260620Z 19011KT 130V230 9999 SCT021 SCT031
                        18/16 Q1004 TEMPO RA=
201508260550 METAR COR EGLL 260550Z 19013KT 9999 -RA SCT020 SCT025 18/16
                        Q1004 TEMPO RA=
201508260520 METAR COR EGLL 260520Z 19014KT 9999 SCT016 SCT027 17/16 Q1004
                        TEMPO RA=
201508260450 METAR EGLL 260450Z 19012KT 9999 FEW020 SCT030 17/16 Q1004
                        RERA REDZ TEMPO RA=
201508260420 METAR COR EGLL 260420Z 20012KT 9999 -RA FEW023 SCT045 18/16
                        Q1005 TEMPO RA=
201508260350 METAR EGLL 260350Z 19015KT 9999 SCT023 SCT029 18/15 Q1005
                        TEMPO RA=
201508260320 METAR COR EGLL 260320Z 19014KT 9999 SCT020 SCT031 18/16 Q1005
                        TEMPO -RA BKN014=
201508260250 METAR EGLL 260250Z 19012KT 9999 SCT016 SCT024 18/16 Q1005
                        TEMPO -RA BKN014=
201508260220 METAR COR EGLL 260220Z 19011KT 9999 SCT013 SCT020 17/16 Q1006
                        TEMPO -RA BKN013=
201508260150 METAR EGLL 260150Z 20011KT 9999 SCT016 SCT026 17/15 Q1006
                        TEMPO -RA BKN014=
201508260120 METAR EGLL 260120Z AUTO 19010KT 9999 FEW007 BKN018 17/15
                        Q1006 REDZ=
201508260050 METAR EGLL 260050Z AUTO 19009KT 9999 FEW006 BKN014 16/15
                        Q1007=
201508260020 METAR EGLL 260020Z AUTO 20009KT 9000 BKN006 16/15 Q1007=
201508252350 METAR COR EGLL 252350Z 21009KT 9999 FEW012 SCT016 16/14 Q1007
                        TEMPO -RA BKN014=
201508252320 METAR COR EGLL 252320Z 21008KT 9999 FEW030 SCT038 16/14 Q1008
                        NOSIG=
201508252250 METAR COR EGLL 252250Z 21010KT 9999 BKN040 17/14 Q1008 NOSIG=
201508252220 METAR COR EGLL 252220Z 22009KT 180V250 9999 SCT023 17/14
                        Q1008 NOSIG=
201508252150 METAR EGLL 252150Z 22011KT 180V260 9999 FEW027 SCT032 17/14
                        Q1008 NOSIG=
201508252120 METAR COR EGLL 252120Z 22011KT 190V250 9999 FEW036 17/14
                        Q1008 NOSIG=
201508252050 METAR COR EGLL 252050Z 23012KT 9999 FEW045 17/14 Q1007 NOSIG=
201508252020 METAR COR EGLL 252020Z 23014KT 9999 FEW019 17/14 Q1007 NOSIG=
201508251950 METAR EGLL 251950Z 23013KT 9999 FEW017 BKN021 17/14 Q1007
                        NOSIG=
201508251920 METAR COR EGLL 251920Z 23013KT 9999 BKN022 18/15 Q1006 NOSIG=
201508251850 METAR EGLL 251850Z 22012KT 9999 BKN026 18/14 Q1005 NOSIG=
201508251820 METAR COR EGLL 251820Z 23012KT 9999 SCT021 18/15 Q1005 NOSIG=
201508251750 METAR EGLL 251750Z 21012KT 9999 FEW016 19/16 Q1005 NOSIG=
201508251720 METAR COR EGLL 251720Z 23013KT 9999 SCT011 SCT015 19/17 Q1005
                        NOSIG=
201508251650 METAR COR EGLL 251650Z 21012KT 9999 BKN010 19/17 Q1005 BECMG
                        FEW010 SCT025=
201508251620 METAR COR EGLL 251620Z 21011KT 180V240 9999 FEW007 BKN010
                        18/17 Q1005 NOSIG=
201508251550 METAR EGLL 251550Z 18010KT 160V230 9999 SCT007 BKN011 18/17
                        Q1005 BECMG SCT010 BKN015=
201508251520 METAR COR EGLL 251520Z 16011KT 7000 -RADZ FEW004 SCT008 BKN015
                        17/16 Q1005 TEMPO BKN012=
201508251450 METAR EGLL 251450Z 15009KT 6000 -RADZ BKN008 16/15 Q1006
                        RERA REDZ NOSIG=
201508251420 METAR COR EGLL 251420Z 14011KT 8000 -RADZ BKN008 16/14 Q1006
                        TEMPO FEW008 BKN012=
201508251350 METAR EGLL 251350Z 15012KT 9999 SCT009 SCT037 15/14 Q1007
                        BECMG BKN010=
201508251320 METAR COR EGLL 251320Z 14012KT 9999 -RA SCT010 SCT024 14/13
                        Q1007 RERA TEMPO BKN010=
201508251250 METAR EGLL 251250Z 17009KT 9000 RA SCT009 BKN024 14/13 Q1008
                        NOSIG=
201508251220 METAR COR EGLL 251220Z 18011KT 8000 RA SCT010 SCT035 15/14
                        Q1008 TEMPO BKN010=
201508251150 METAR COR EGLL 251150Z 18013KT 9000 RA SCT018 SCT040 15/13
                        Q1009 NOSIG=
201508251120 METAR COR EGLL 251120Z 19011KT 160V220 9999 BKN039 17/11
                        Q1009 TEMPO RA=
201508251050 METAR COR EGLL 251050Z 17010KT 140V210 9999 FEW036 17/12
                        Q1009 NOSIG=
201508251020 METAR COR EGLL 251020Z 17012KT 140V210 9999 FEW021 16/12
                        Q1010 NOSIG=
201508250950 METAR COR EGLL 250950Z 19014KT 9999 VCSH FEW021 16/12 Q1010
                        NOSIG=
201508250920 METAR COR EGLL 250920Z 21010KT 170V230 9999 FEW020 16/12
                        Q1010 NOSIG=
201508250850 METAR EGLL 250850Z 20008KT 170V240 9999 FEW016 16/11 Q1010
                        NOSIG=
201508250820 METAR COR EGLL 250820Z 20008KT CAVOK 15/11 Q1011 NOSIG=
201508250750 METAR COR EGLL 250750Z 22010KT CAVOK 14/10 Q1010 NOSIG=
201508250720 METAR COR EGLL 250720Z 22009KT CAVOK 13/10 Q1010 NOSIG=
201508250650 METAR EGLL 250650Z 24008KT CAVOK 13/10 Q1010 NOSIG=
201508250620 METAR COR EGLL 250620Z 24008KT CAVOK 12/10 Q1010 NOSIG=
201508250550 METAR EGLL 250550Z 23008KT 200V270 CAVOK 11/10 Q1010 NOSIG=
201508250520 METAR COR EGLL 250520Z 23009KT CAVOK 11/10 Q1009 NOSIG=
201508250450 METAR COR EGLL 250450Z 24009KT CAVOK 12/10 Q1009 NOSIG=
201508250420 METAR COR EGLL 250420Z 24008KT CAVOK 12/10 Q1009 NOSIG=
201508250350 METAR COR EGLL 250350Z 23008KT CAVOK 12/11 Q1009 NOSIG=
201508250320 METAR COR EGLL 250320Z 25009KT CAVOK 13/11 Q1008 NOSIG=
201508250250 METAR COR EGLL 250250Z 24008KT CAVOK 13/11 Q1008 NOSIG=
201508250220 METAR COR EGLL 250220Z 25008KT CAVOK 13/11 Q1008 NOSIG=
201508250150 METAR EGLL 250150Z 27009KT CAVOK 13/11 Q1008 NOSIG=
201508250120 METAR EGLL 250120Z AUTO 27011KT 9999 NCD 14/12 Q1007=
201508250050 METAR EGLL 250050Z AUTO 27009KT 9999 NCD 14/12 Q1007=
201508250020 METAR EGLL 250020Z AUTO 26012KT 9999 FEW047 14/12 Q1006=
201508242350 METAR EGLL 242350Z 26010KT 9999 FEW031 14/13 Q1006 NOSIG=
201508242320 METAR COR EGLL 242320Z 25009KT CAVOK 14/13 Q1006 NOSIG=
201508242250 METAR COR EGLL 242250Z 26009KT CAVOK 14/13 Q1005 NOSIG=
201508242220 METAR COR EGLL 242220Z 28012KT 6000 -RA FEW008 SCT049 14/13
                        Q1005 NOSIG=
201508242150 METAR COR EGLL 242150Z 28011KT 9999 FEW008 14/13 Q1004 NOSIG=
201508242120 METAR COR EGLL 242120Z 28010KT 9999 -RA FEW011 14/13 Q1004
                        TEMPO RA=
201508242050 METAR COR EGLL 242050Z 28011KT 9999 -RA FEW011 15/13 Q1004
                        TEMPO RA=
201508242020 METAR COR EGLL 242020Z 29008KT 9999 -RA FEW016 15/13 Q1003
                        TEMPO RA BKN014=
201508241950 METAR COR EGLL 241950Z 29007KT 9999 -SHRA SCT019 15/13 Q1002
                        TEMPO SHRA BKN014=
201508241920 METAR COR EGLL 241920Z 31007KT 9999 -SHRA FEW013 SCT019 15/13
                        Q1002 TEMPO SHRA BKN014=
201508241850 METAR EGLL 241850Z 31007KT 9999 SCT015 SCT047 15/14 Q1001
                        TEMPO SHRA BKN014=
201508241820 METAR COR EGLL 241820Z 32010KT 9999 -SHRA FEW020 SCT035 16/14
                        Q1000 TEMPO SHRA=
201508241750 METAR EGLL 241750Z 29007KT 9000 -SHRA SCT018 SCT038 15/14
                        Q0999 RESHRA TEMPO SHRA=
201508241720 METAR COR EGLL 241720Z 33008KT 6000 SHRA FEW014 BKN038CB
                        16/14 Q0999 TEMPO NSW=
201508241650 METAR COR EGLL 241650Z 35009KT 310V020 9999 -SHRA SCT015
                        SCT034 17/14 Q0998 TEMPO SHRA=
201508241620 METAR COR EGLL 241620Z 34007KT 9999 FEW017 17/14 Q0997 NOSIG=
201508241550 METAR COR EGLL 241550Z 35006KT 300V030 9999 FEW015 16/14
                        Q0997 NOSIG=
201508241520 METAR COR EGLL 241520Z 36009KT 9999 -RA SCT019CB 16/15 Q0997
                        TEMPO RA=
201508241450 METAR EGLL 241450Z 36007KT 320V030 9999 -RA FEW015 SCT044CB
                        16/14 Q0997 RERA TEMPO 4000 RA=
201508241420 METAR COR EGLL 241420Z 36008KT 9999 RA FEW044 16/14 Q0997
                        TEMPO 3000 +RA BKN014CB=
201508241350 METAR COR EGLL 241350Z 36008KT 9999 6000SE -RA SCT027 16/14
                        Q0996 TEMPO 3000 +SHRA BKN014CB=
201508241320 METAR COR EGLL 241320Z 01009KT 340V050 9999 -RA FEW015 SCT025
                        17/14 Q0996 TEMPO 3000 +TSRA BKN014CB=
201508241250 METAR EGLL 241250Z 01007KT 320V060 9999 SCT019 16/14 Q0996
                        TEMPO 4000 +RA BKN014CB=
201508241220 METAR COR EGLL 241220Z 02007KT 340V060 9999 SCT010 BKN022
                        16/14 Q0996 TEMPO 4000 +RA=
201508241150 METAR EGLL 241150Z 03008KT 350V060 9999 SCT019 BKN023 16/14
                        Q0997 TEMPO RA=
201508241120 METAR COR EGLL 241120Z 03007KT 360V060 9999 SCT019 SCT023
                        16/14 Q0997 TEMPO RA=
201508241050 METAR EGLL 241050Z 04006KT 010V070 9999 SCT023 SCT043 15/14
                        Q0997 NOSIG=
201508241020 METAR COR EGLL 241020Z 05007KT 010V080 9999 -RA FEW005 SCT012
                        BKN031 15/14 Q0997 RERA TEMPO BKN012=
201508240950 METAR COR EGLL 240950Z 06009KT 5000 RA FEW005 SCT010 BKN035
                        14/14 Q0998 TEMPO BKN010=
201508240920 METAR COR EGLL 240920Z 05006KT 010V090 4000 RA FEW007 SCT008
                        BKN014 15/14 Q0998 NOSIG=
201508240850 METAR COR EGLL 240850Z 06006KT 030V100 8000 -RA FEW026 15/14
                        Q0998 RERA TEMPO 4000 RA=
201508240820 METAR COR EGLL 240820Z 06006KT 9000 -RA FEW038 15/13 Q0998
                        TEMPO RA=
201508240750 METAR COR EGLL 240750Z 07006KT 9999 -RA FEW035 15/13 Q0998
                        TEMPO RA=
201508240720 METAR COR EGLL 240720Z 06006KT 9999 FEW048 15/13 Q0999 TEMPO
                        SHRA=
201508240650 METAR EGLL 240650Z 04005KT 010V080 CAVOK 15/13 Q0999 TEMPO
                        RA=
201508240620 METAR COR EGLL 240620Z 06005KT 9999 FEW048 14/13 Q0999 NOSIG=
201508240550 METAR EGLL 240550Z 06004KT 9999 -RA SCT049 14/13 Q1000 TEMPO
                        RA=
201508240520 METAR COR EGLL 240520Z 09005KT 9999 -RA SCT042 14/13 Q1000
                        TEMPO RA=
201508240450 METAR COR EGLL 240450Z 10004KT 9999 -RA FEW046 14/13 Q1000
                        TEMPO RA=
201508240420 METAR COR EGLL 240420Z 10003KT CAVOK 13/13 Q1000 NOSIG=
201508240350 METAR COR EGLL 240350Z 08003KT CAVOK 13/12 Q1000 NOSIG=
201508240320 METAR COR EGLL 240320Z 08003KT 9999 -RA NSC 13/12 Q1001 NOSIG=
201508240250 METAR EGLL 240250Z 05004KT 9999 -RA FEW049 14/13 Q1001 TEMPO
                        RA=
201508240220 METAR COR EGLL 240220Z 18004KT 9999 -RA FEW049 14/13 Q1002
                        TEMPO RA=
201508240150 METAR COR EGLL 240150Z VRB03KT CAVOK 13/12 Q1002 NOSIG=
201508240120 METAR EGLL 240120Z AUTO 10002KT 9999 NCD 13/12 Q1002=
201508240050 METAR EGLL 240050Z AUTO 06003KT 9999 NCD 13/12 Q1002=
201508240020 METAR EGLL 240020Z AUTO 07003KT 9999 NCD 13/12 Q1002=
201508232350 METAR COR EGLL 232350Z 09003KT CAVOK 13/12 Q1002 NOSIG=
201508232320 METAR COR EGLL 232320Z 13004KT CAVOK 13/11 Q1003 NOSIG=
201508232250 METAR EGLL 232250Z 15004KT CAVOK 13/12 Q1003 NOSIG=
201508232220 METAR COR EGLL 232220Z VRB03KT CAVOK 14/12 Q1003 NOSIG=
201508232150 METAR COR EGLL 232150Z VRB03KT CAVOK 14/12 Q1003 NOSIG=
201508232120 METAR COR EGLL 232120Z 21006KT CAVOK 15/12 Q1003 NOSIG=
201508232050 METAR EGLL 232050Z 22008KT CAVOK 16/12 Q1002 NOSIG=
201508232020 METAR COR EGLL 232020Z 22009KT CAVOK 16/12 Q1002 NOSIG=
201508231950 METAR COR EGLL 231950Z 21009KT CAVOK 16/12 Q1002 NOSIG=
201508231920 METAR COR EGLL 231920Z 22009KT 9999 FEW035 17/12 Q1002 NOSIG=
201508231850 METAR EGLL 231850Z 22010KT 9999 FEW032 18/12 Q1002 NOSIG=
201508231820 METAR COR EGLL 231820Z 21011KT 9999 FEW036 19/12 Q1002 NOSIG=
201508231750 METAR EGLL 231750Z 21011KT 9999 SCT033 19/12 Q1002 NOSIG=
201508231720 METAR COR EGLL 231720Z 22011KT 9999 SCT031 19/12 Q1002 NOSIG=
201508231650 METAR EGLL 231650Z 23011KT 9999 SCT038 20/12 Q1002 NOSIG=
201508231620 METAR COR EGLL 231620Z 23011KT 9999 SCT035 20/12 Q1002 NOSIG=
201508231550 METAR COR EGLL 231550Z 22012KT 200V260 9999 SCT047 21/12
                        Q1002 NOSIG=
201508231520 METAR COR EGLL 231520Z 24012KT 9999 SCT036 20/12 Q1001 NOSIG=
201508231450 METAR EGLL 231450Z 25012KT 9999 FEW030 SCT040 20/13 Q1001
                        NOSIG=
201508231420 METAR COR EGLL 231420Z 22011KT 180V250 9999 BKN034 20/14
                        Q1002 NOSIG=
201508231350 METAR EGLL 231350Z 24012KT 9999 SCT019 SCT028 19/15 Q1002
                        NOSIG=
201508231320 METAR COR EGLL 231320Z 24012KT 9999 SCT016 18/16 Q1001 NOSIG=
201508231250 METAR EGLL 231250Z 26007KT 230V290 9999 FEW047 17/15 Q1001
                        NOSIG=
201508231220 METAR COR EGLL 231220Z 23012KT 9999 -RA SCT012 SCT016 17/16
                        Q1001 RERA NOSIG=
201508231150 METAR EGLL 231150Z 20008KT 160V250 8000 RA SCT012 BKN023
                        19/17 Q1001 BECMG NSW=
201508231120 METAR COR EGLL 231120Z 21008KT 160V250 9999 -RA SCT031 SCT039
                        19/16 Q1001 TEMPO RA=
201508231050 METAR EGLL 231050Z 20007KT 160V240 9999 -RA SCT025 20/15
                        Q1001 TEMPO RA=
201508231020 METAR COR EGLL 231020Z 22006KT 9999 FEW023 SCT025 20/15 Q1001
                        TEMPO RA=
201508230950 METAR COR EGLL 230950Z 20009KT 9999 SCT027 21/14 Q1001 TEMPO
                        RA=
201508230920 METAR COR EGLL 230920Z 16010KT CAVOK 21/13 Q1001 TEMPO RA=
201508230850 METAR COR EGLL 230850Z 16010KT CAVOK 21/13 Q1001 NOSIG=
201508230820 METAR COR EGLL 230820Z 13009KT CAVOK 21/12 Q1001 NOSIG=
201508230750 METAR EGLL 230750Z 10007KT CAVOK 21/12 Q1001 NOSIG=
201508230720 METAR COR EGLL 230720Z 11006KT CAVOK 21/12 Q1002 NOSIG=
201508230650 METAR COR EGLL 230650Z 10006KT CAVOK 20/12 Q1002 NOSIG=
201508230620 METAR EGLL 230620Z 13006KT 100V170 CAVOK 20/12 Q1002=
201508230550 METAR EGLL 230550Z 08009KT CAVOK 19/12 Q1002 NOSIG=
201508230520 METAR COR EGLL 230520Z 10008KT CAVOK 18/12 Q1002 NOSIG=
201508230450 METAR COR EGLL 230450Z 10009KT CAVOK 18/12 Q1003 NOSIG=
201508230420 METAR COR EGLL 230420Z 10008KT CAVOK 18/13 Q1003 NOSIG=
201508230350 METAR EGLL 230350Z 09008KT CAVOK 18/13 Q1003=
201508230320 METAR EGLL 230320Z 10006KT CAVOK 19/13 Q1004=
201508230250 METAR COR EGLL 230250Z 09009KT CAVOK 19/13 Q1004 NOSIG=
201508230220 METAR COR EGLL 230220Z 09008KT CAVOK 19/13 Q1005 NOSIG=
201508230150 METAR COR EGLL 230150Z 09009KT CAVOK 19/13 Q1005 NOSIG=
201508230120 METAR EGLL 230120Z AUTO 09009KT 9999 NCD 20/13 Q1005=
201508230050 METAR EGLL 230050Z AUTO 09008KT 9999 NCD 20/13 Q1006=
201508230020 METAR EGLL 230020Z AUTO 09009KT 9999 NCD 21/13 Q1006=
201508222350 METAR EGLL 222350Z 09010KT CAVOK 22/13 Q1007 NOSIG=
201508222320 METAR COR EGLL 222320Z 10010KT CAVOK 22/13 Q1007 NOSIG=
201508222250 METAR EGLL 222250Z 10010KT CAVOK 23/13 Q1008 NOSIG=
201508222220 METAR COR EGLL 222220Z 10010KT CAVOK 22/13 Q1008 NOSIG=
201508222150 METAR COR EGLL 222150Z 10010KT CAVOK 23/13 Q1008 NOSIG=
201508222120 METAR COR EGLL 222120Z 10009KT CAVOK 23/12 Q1009 NOSIG=
201508222050 METAR EGLL 222050Z 10009KT CAVOK 24/13 Q1009 NOSIG=
201508222020 METAR COR EGLL 222020Z 10008KT CAVOK 24/13 Q1009 NOSIG=
201508221950 METAR EGLL 221950Z 10008KT CAVOK 25/13 Q1009 NOSIG=
201508221920 METAR COR EGLL 221920Z 11009KT CAVOK 25/13 Q1010 NOSIG=
201508221850 METAR EGLL 221850Z 11010KT CAVOK 26/13 Q1010 NOSIG=
201508221820 METAR COR EGLL 221820Z 12010KT CAVOK 27/13 Q1010 NOSIG=
201508221750 METAR EGLL 221750Z 13010KT CAVOK 27/13 Q1010 NOSIG=
201508221720 METAR COR EGLL 221720Z 15011KT CAVOK 28/13 Q1011 NOSIG=
201508221650 METAR COR EGLL 221650Z 16010KT 120V180 CAVOK 28/13 Q1011
                        NOSIG=
201508221620 METAR COR EGLL 221620Z 15013KT CAVOK 28/13 Q1011 NOSIG=
201508221550 METAR EGLL 221550Z 14013KT CAVOK 30/13 Q1012 NOSIG=
201508221520 METAR COR EGLL 221520Z 16012KT CAVOK 29/14 Q1012 NOSIG=
201508221450 METAR EGLL 221450Z 15012KT CAVOK 30/15 Q1012 NOSIG=
201508221420 METAR COR EGLL 221420Z 16014KT CAVOK 30/14 Q1012 NOSIG=
201508221350 METAR EGLL 221350Z 16014KT CAVOK 29/13 Q1012 NOSIG=
201508221320 METAR COR EGLL 221320Z 16013KT 120V200 CAVOK 29/14 Q1012
                        NOSIG=
201508221250 METAR EGLL 221250Z 16011KT CAVOK 30/15 Q1013 NOSIG=
201508221220 METAR COR EGLL 221220Z 16011KT 130V190 CAVOK 30/16 Q1013
                        NOSIG=
201508221150 METAR EGLL 221150Z 14011KT CAVOK 29/16 Q1013 NOSIG=
201508221120 METAR COR EGLL 221120Z 13007KT 100V160 CAVOK 28/16 Q1014
                        NOSIG=
201508221050 METAR COR EGLL 221050Z 12006KT 070V160 CAVOK 27/16 Q1014
                        NOSIG=
201508221020 METAR COR EGLL 221020Z 10007KT 070V130 CAVOK 25/16 Q1014
                        NOSIG=
201508220950 METAR EGLL 220950Z 11006KT 070V160 CAVOK 24/16 Q1015 NOSIG=
201508220920 METAR COR EGLL 220920Z 10005KT 040V140 CAVOK 23/16 Q1015
                        NOSIG=
201508220850 METAR EGLL 220850Z 06005KT 040V110 CAVOK 20/16 Q1016 NOSIG=
201508220820 METAR COR EGLL 220820Z 05005KT 020V100 9999 FEW006 19/16
                        Q1016 NOSIG=
201508220750 METAR COR EGLL 220750Z 05004KT 020V090 9999 FEW004 SCT005
                        17/15 Q1016 NOSIG=
201508220720 METAR COR EGLL 220720Z VRB03KT 9000 SCT004 SCT005 16/15 Q1016
                        NOSIG=
201508220650 METAR COR EGLL 220650Z 06004KT 020V100 7000 FEW004 BKN005
                        16/15 Q1017 BECMG FEW004 SCT005=
201508220620 METAR COR EGLL 220620Z 04004KT 9999 SCT006 SCT007 16/15 Q1017
                        TEMPO BKN010=
201508220550 METAR EGLL 220550Z VRB03KT 9999 SCT008 16/15 Q1017 TEMPO
                        BKN008=
201508220520 METAR COR EGLL 220520Z 35003KT 9999 BKN008 15/14 Q1017 TEMPO
                        SCT008=
201508220450 METAR COR EGLL 220450Z 36003KT 9999 SCT011 15/14 Q1017 TEMPO
                        BKN012=
201508220420 METAR COR EGLL 220420Z 35003KT CAVOK 15/14 Q1017 NOSIG=
201508220350 METAR EGLL 220350Z AUTO 33002KT 9999 NCD 16/14 Q1017=
201508220320 METAR COR EGLL 220320Z 00000KT CAVOK 15/14 Q1017 NOSIG=
201508220250 METAR COR EGLL 220250Z 00000KT CAVOK 15/14 Q1018 NOSIG=
201508220220 METAR COR EGLL 220220Z 00000KT CAVOK 16/14 Q1018 NOSIG=
201508220150 METAR EGLL 220150Z VRB02KT CAVOK 15/14 Q1018 NOSIG=
201508220120 METAR EGLL 220120Z AUTO 00000KT 9999 NCD 16/14 Q1018=
201508220050 METAR EGLL 220050Z AUTO 00000KT 9999 NCD 16/15 Q1018=
201508220020 METAR EGLL 220020Z AUTO VRB03KT 9999 NCD 17/15 Q1018=
201508212350 METAR EGLL 212350Z 16004KT CAVOK 17/15 Q1018 NOSIG=
201508212320 METAR COR EGLL 212320Z 16004KT CAVOK 17/14 Q1018 NOSIG=
201508212250 METAR EGLL 212250Z 17004KT CAVOK 17/14 Q1019 NOSIG=
201508212220 METAR COR EGLL 212220Z 19006KT CAVOK 18/14 Q1019 NOSIG=
201508212150 METAR COR EGLL 212150Z 21006KT CAVOK 19/14 Q1019 NOSIG=
201508212120 METAR COR EGLL 212120Z 21007KT CAVOK 19/14 Q1019 NOSIG=
201508212050 METAR COR EGLL 212050Z 21008KT CAVOK 19/13 Q1019 NOSIG=
201508212020 METAR COR EGLL 212020Z 22010KT CAVOK 20/13 Q1019 NOSIG=
201508211950 METAR EGLL 211950Z 23010KT 210V270 CAVOK 21/14 Q1019 NOSIG=
201508211920 METAR COR EGLL 211920Z 24009KT CAVOK 22/14 Q1019 NOSIG=
201508211850 METAR COR EGLL 211850Z 22010KT CAVOK 23/14 Q1018 NOSIG=
201508211820 METAR COR EGLL 211820Z 22010KT CAVOK 24/15 Q1018 NOSIG=
201508211750 METAR EGLL 211750Z 19009KT 150V220 CAVOK 24/14 Q1018 NOSIG=
201508211720 METAR COR EGLL 211720Z 19011KT 170V230 CAVOK 24/14 Q1018
                        NOSIG=
201508211650 METAR EGLL 211650Z 19010G20KT 150V230 CAVOK 25/13 Q1018 NOSIG=
201508211620 METAR COR EGLL 211620Z 19010KT 160V220 9999 FEW049 25/13
                        Q1018 NOSIG=
201508211550 METAR EGLL 211550Z 19012KT 160V220 9999 FEW048 26/13 Q1018
                        NOSIG=
201508211520 METAR COR EGLL 211520Z 21011KT 170V250 9999 FEW048 26/14
                        Q1018 NOSIG=
201508211450 METAR COR EGLL 211450Z 20013KT 160V230 9999 FEW048 26/14
                        Q1018 NOSIG=
201508211420 METAR COR EGLL 211420Z 20013KT 9999 FEW042 26/14 Q1019 NOSIG=
201508211350 METAR EGLL 211350Z 19012KT 160V230 9999 FEW039 26/15 Q1019
                        NOSIG=
201508211320 METAR COR EGLL 211320Z 18013KT 150V260 9999 FEW036 26/15
                        Q1019 NOSIG=
201508211250 METAR EGLL 211250Z 19013KT 160V230 9999 SCT034 24/15 Q1019
                        NOSIG=
201508211220 METAR COR EGLL 211220Z 19014KT 160V240 9999 SCT032 SCT038
                        25/15 Q1019 NOSIG=
201508211150 METAR EGLL 211150Z 20013KT 160V250 9999 SCT032 SCT040 24/16
                        Q1020 NOSIG=
201508211120 METAR COR EGLL 211120Z 19013KT 160V230 9999 FEW032 SCT041
                        24/16 Q1020 NOSIG=
201508211050 METAR EGLL 211050Z 19013KT 150V230 9999 FEW033 SCT041 24/16
                        Q1020 NOSIG=
201508211020 METAR COR EGLL 211020Z 20011KT 170V240 9999 FEW025 SCT036
                        23/16 Q1020 NOSIG=
201508210950 METAR EGLL 210950Z 20012KT 170V240 9999 SCT020 SCT036 22/17
                        Q1020 NOSIG=
201508210920 METAR COR EGLL 210920Z 19009KT 160V240 9999 SCT015 BKN036
                        22/17 Q1020 NOSIG=
201508210850 METAR EGLL 210850Z 18009KT 150V220 9999 SCT014 BKN038 21/17
                        Q1020 NOSIG=
201508210820 METAR COR EGLL 210820Z 18010KT 160V230 9999 SCT014 BKN036
                        20/17 Q1021 NOSIG=
201508210750 METAR EGLL 210750Z 21009KT 180V240 9999 SCT012 SCT037 20/17
                        Q1021 NOSIG=
201508210720 METAR COR EGLL 210720Z 20008KT 170V230 9999 SCT012 SCT035
                        19/17 Q1020 TEMPO BKN012=
201508210650 METAR COR EGLL 210650Z 19008KT 160V230 9999 FEW010 SCT014
                        BKN032 19/17 Q1020 TEMPO BKN014=
201508210620 METAR COR EGLL 210620Z 18007KT 150V230 9999 SCT013 BKN032
                        19/17 Q1020 TEMPO BKN014=
201508210550 METAR EGLL 210550Z 19007KT 9999 SCT013 SCT032 18/16 Q1020
                        NOSIG=
201508210520 METAR COR EGLL 210520Z 18007KT 160V230 9999 SCT013 BKN025
                        18/16 Q1020 NOSIG=
201508210450 METAR COR EGLL 210450Z 20006KT 9999 FEW013 BKN026 18/16 Q1020
                        NOSIG=
201508210420 METAR COR EGLL 210420Z 20006KT 9999 FEW016 BKN022 18/16 Q1020
                        TEMPO BKN014=
201508210350 METAR COR EGLL 210350Z 20007KT 9999 BKN010 BKN022 18/16 Q1020
                        TEMPO FEW010 BKN022=
201508210320 METAR COR EGLL 210320Z 20007KT 9999 BKN013 18/16 Q1020 NOSIG=
201508210250 METAR COR EGLL 210250Z 19007KT 9999 BKN012 18/16 Q1020 NOSIG=
201508210220 METAR COR EGLL 210220Z 20007KT 9999 FEW012 BKN015 18/16 Q1020
                        BECMG BKN012=
201508210150 METAR COR EGLL 210150Z 21007KT 9999 FEW011 BKN015 18/16 Q1020
                        BECMG BKN012=
201508210120 METAR EGLL 210120Z AUTO 20005KT 9999 BKN012 18/16 Q1020=
201508210050 METAR EGLL 210050Z AUTO 20006KT 9999 BKN010 18/16 Q1021=
201508210020 METAR EGLL 210020Z AUTO 22008KT 9999 OVC010 18/16 Q1021=
201508202350 METAR COR EGLL 202350Z 22011KT 9999 SCT009 BKN011 18/16 Q1021
                        NOSIG=
201508202320 METAR COR EGLL 202320Z 23012KT 9999 SCT009 BKN011 19/17 Q1021
                        NOSIG=
201508202250 METAR EGLL 202250Z 21011KT 9999 FEW009 BKN010 19/17 Q1021
                        NOSIG=
201508202220 METAR COR EGLL 202220Z 21009KT 9999 FEW009 BKN011 19/17 Q1021
                        TEMPO BKN008=
201508202150 METAR COR EGLL 202150Z 21009KT 9999 SCT008 BKN010 19/17 Q1021
                        TEMPO BKN008=
201508202120 METAR COR EGLL 202120Z 19009KT 9999 FEW006 SCT009 BKN012
                        18/17 Q1021 TEMPO BKN008=
201508202050 METAR COR EGLL 202050Z 18008KT 9999 VCSH FEW008 BKN011 19/17
                        Q1021 TEMPO BKN008=
201508202020 METAR COR EGLL 202020Z 20008KT 160V230 9999 VCSH SCT010 SCT047
                        19/17 Q1021 BECMG BKN010=
201508201950 METAR COR EGLL 201950Z 20010KT 9999 BKN012 19/17 Q1020 NOSIG=
201508201920 METAR COR EGLL 201920Z 21011KT 9999 BKN012 20/17 Q1020 NOSIG=
201508201850 METAR EGLL 201850Z 21009KT 9999 BKN013 20/17 Q1020 NOSIG=
201508201820 METAR COR EGLL 201820Z 21010KT 180V240 9999 SCT013 SCT021
                        20/17 Q1020 BECMG BKN012=
201508201750 METAR EGLL 201750Z 22011KT 200V260 9999 SCT013 BKN020 20/17
                        Q1020 TEMPO BKN012=
201508201720 METAR COR EGLL 201720Z 21010KT 9999 BKN021 20/17 Q1020 TEMPO
                        BKN014=
201508201650 METAR EGLL 201650Z 21009KT 9999 FEW012 SCT021 20/17 Q1020
                        TEMPO BKN012=
201508201620 METAR COR EGLL 201620Z 20009KT 170V230 9999 FEW011 SCT014
                        20/18 Q1020 TEMPO BKN014=
201508201550 METAR COR EGLL 201550Z 19011KT 9999 7000SE -RA BKN014 20/17
                        Q1020 TEMPO BKN015=
201508201520 METAR COR EGLL 201520Z 21010KT 180V240 9999 VCSH BKN018 BKN026
                        21/16 Q1020 TEMPO BKN010=
201508201450 METAR COR EGLL 201450Z 21011KT 9999 VCSH BKN021 21/16 Q1020
                        TEMPO BKN010=
201508201420 METAR COR EGLL 201420Z 22010G20KT 180V250 9999 SCT018 BKN025
                        21/16 Q1020 BECMG BKN014=
201508201350 METAR COR EGLL 201350Z 20011KT 160V240 9999 BKN018 20/16
                        Q1020 NOSIG=
201508201320 METAR COR EGLL 201320Z 20010KT 150V240 9999 SCT019 BKN022
                        21/16 Q1020 NOSIG=
201508201250 METAR EGLL 201250Z 20011KT 160V230 9999 BKN024 20/15 Q1020
                        NOSIG=
201508201220 METAR COR EGLL 201220Z 20011KT 160V240 9999 FEW017 BKN023
                        20/15 Q1020 NOSIG=
201508201150 METAR EGLL 201150Z 21009KT 150V250 9999 BKN024 20/15 Q1020
                        NOSIG=
201508201120 METAR COR EGLL 201120Z 24010G21KT 190V270 9999 BKN023 21/15
                        Q1020 NOSIG=
201508201050 METAR EGLL 201050Z 21007KT 170V250 9999 FEW017 BKN022 20/16
                        Q1020 NOSIG=
201508201020 METAR COR EGLL 201020Z 22006KT 170V260 9999 FEW012 BKN020
                        19/15 Q1020 NOSIG=
201508200950 METAR EGLL 200950Z 23006KT 160V270 9999 FEW011 BKN018 19/16
                        Q1020 NOSIG=
201508200920 METAR COR EGLL 200920Z 25008KT 9999 SCT010 SCT027 19/16 Q1020
                        NOSIG=
201508200850 METAR EGLL 200850Z 22008KT 200V260 9999 SCT008 BKN015 18/16
                        Q1020 NOSIG=
201508200820 METAR COR EGLL 200820Z 22007KT 9999 SCT008 BKN016 18/16 Q1020
                        NOSIG=
201508200750 METAR EGLL 200750Z 23007KT 190V260 9999 SCT006 BKN019 17/16
                        Q1019 NOSIG=
201508200720 METAR COR EGLL 200720Z 23008KT 9999 FEW006 BKN017 18/16 Q1019
                        NOSIG=
201508200650 METAR EGLL 200650Z 25008KT 9999 FEW005 BKN020 17/16 Q1019
                        NOSIG=
201508200620 METAR COR EGLL 200620Z 21006KT 9999 FEW004 SCT006 BKN012
                        17/16 Q1019 BECMG BKN020=
201508200550 METAR EGLL 200550Z 21006KT 9999 FEW004 BKN021 17/16 Q1018
                        NOSIG=
201508200520 METAR COR EGLL 200520Z 21004KT 9999 BKN019 17/16 Q1018 NOSIG=
201508200450 METAR COR EGLL 200450Z 21005KT 9999 FEW004 BKN013 17/16 Q1018
                        BECMG BKN015=
201508200420 METAR COR EGLL 200420Z 21005KT 9999 FEW004 BKN014 17/16 Q1018
                        TEMPO BKN004=
201508200350 METAR COR EGLL 200350Z 19004KT 3400 -RA FEW002 BKN004 16/16
                        Q1018 NOSIG=
201508200320 METAR COR EGLL 200320Z 18004KT 7000 SCT004 BKN007 16/16 Q1018
                        TEMPO BKN004=
201508200250 METAR COR EGLL 200250Z 18006KT 9999 SCT004 BKN009 16/15 Q1018
                        TEMPO BKN004=
201508200220 METAR COR EGLL 200220Z 16007KT 9999 FEW004 SCT006 BKN009
                        16/15 Q1017 TEMPO BKN004=
201508200150 METAR COR EGLL 200150Z 17007KT 9999 FEW006 BKN008 16/15 Q1017
                        TEMPO BKN004=
201508200120 METAR EGLL 200120Z AUTO 17007KT 9999 -DZ BKN007 BKN017 OVC021
                        16/15 Q1017=
201508200050 METAR EGLL 200050Z AUTO 16008KT 9999 BKN007 BKN026 16/15
                        Q1017=
201508200020 METAR EGLL 200020Z AUTO 17009KT 9999 OVC007 16/15 Q1018=
201508192350 METAR EGLL 192350Z 17009KT 9999 FEW006 SCT007 BKN011 16/15
                        Q1018=
201508192320 METAR COR EGLL 192320Z 16008KT 9999 FEW007 BKN010 15/15 Q1018
                        BECMG BKN008=
201508192250 METAR COR EGLL 192250Z 16008KT 9999 FEW005 SCT008 BKN011
                        15/15 Q1018 BECMG BKN008=
201508192220 METAR COR EGLL 192220Z 16007KT 9000 SCT004 SCT008 BKN010
                        15/15 Q1018 TEMPO BKN008=
201508192150 METAR EGLL 192150Z 16006KT 7000 -RA SCT004 SCT008 BKN011
                        15/15 Q1018 RERA BECMG BKN008=
201508192120 METAR COR EGLL 192120Z 16006KT 110V200 6000 RA FEW006 SCT009
                        BKN010 15/15 Q1018 BECMG NSW=
201508192050 METAR EGLL 192050Z 16007KT 130V190 7000 RA FEW008 BKN010
                        16/14 Q1018 TEMPO BKN008=
201508192020 METAR COR EGLL 192020Z 16008KT 130V190 9999 -RA BKN012 15/14
                        TEMPO RA=
201508191950 METAR EGLL 191950Z 16006KT 110V200 9999 -RA BKN015 15/14
                        Q1018 TEMPO RA BKN012=
201508191920 METAR COR EGLL 191920Z 18008KT 9000 -RA SCT011 15/14 Q1018
                        TEMPO RA BKN010=
201508191850 METAR COR EGLL 191850Z 17008KT 150V210 9999 -RA SCT010 15/14
                        Q1017 TEMPO RA BKN010=
201508191820 METAR COR EGLL 191820Z 16006KT 130V200 9000 -RA SCT011 SCT016
                        15/14 Q1017 TEMPO RA BKN010=
201508191750 METAR COR EGLL 191750Z 16007KT 130V210 9000 -RA SCT032 15/14
                        Q1017 TEMPO RA=
201508191720 METAR COR EGLL 191720Z 16008KT 130V210 9999 -RA FEW026 SCT029
                        15/14 Q1018 TEMPO RA=
201508191650 METAR COR EGLL 191650Z 18009KT 9999 -RA FEW033 15/14 Q1018
                        RERA TEMPO RA=
201508191620 METAR COR EGLL 191620Z 18010KT 140V210 9999 -RA FEW028 SCT031
                        15/13 Q1018 RERA TEMPO RA=
201508191550 METAR EGLL 191550Z 22010KT 190V250 9999 -RA SCT033 17/14
                        Q1018 TEMPO RA=
201508191520 METAR COR EGLL 191520Z 22010KT 200V260 9999 -RA FEW024 SCT043
                        19/12 Q1018 TEMPO RA=
201508191450 METAR EGLL 191450Z 22012KT 190V250 9999 FEW028 SCT036 19/13
                        Q1017=
201508191420 METAR EGLL 191420Z 20012KT 9999 SCT027 BKN047 19/12 Q1017=
201508191350 METAR EGLL 191350Z 20012KT 170V230 9999 FEW040 20/12 Q1017=
201508191320 METAR EGLL 191320Z 21011KT 180V260 9999 FEW035 SCT045 20/11
                        Q1017=
201508191250 METAR COR EGLL 191250Z 22011KT 9999 SCT034 20/11 Q1017 NOSIG=
201508191220 METAR COR EGLL 191220Z 21011KT 160V240 9999 SCT034 21/11
                        Q1017 NOSIG=
201508191150 METAR COR EGLL 191150Z 19012KT 160V240 9999 FEW031 SCT038
                        20/11 Q1017 NOSIG=
201508191120 METAR COR EGLL 191120Z 19010KT 160V240 9999 SCT034 21/12
                        Q1017 NOSIG=
201508191050 METAR EGLL 191050Z 23010KT 9999 SCT039 19/12 Q1017 NOSIG=
201508191020 METAR COR EGLL 191020Z 22011KT 190V260 9999 SCT027 20/12
                        Q1017 NOSIG=
201508190950 METAR COR EGLL 190950Z 22009KT 190V270 9999 SCT025 20/12
                        Q1017 NOSIG=
201508190920 METAR COR EGLL 190920Z 23010KT 190V270 9999 FEW025 19/12
                        Q1017=
201508190850 METAR EGLL 190850Z 23008KT 200V260 9999 FEW024 18/12 Q1017
                        NOSIG=
201508190820 METAR COR EGLL 190820Z 23008KT 9999 FEW020 17/12 Q1017 NOSIG=
201508190750 METAR COR EGLL 190750Z 23007KT 9999 FEW016 16/12 Q1017 NOSIG=
201508190720 METAR COR EGLL 190720Z 24007KT CAVOK 16/12 Q1017 NOSIG=
201508190650 METAR EGLL 190650Z 23005KT 190V280 CAVOK 15/12 Q1017 NOSIG=
201508190620 METAR COR EGLL 190620Z 23006KT CAVOK 14/12 Q1017 NOSIG=
201508190550 METAR EGLL 190550Z 22006KT 160V250 CAVOK 14/12 Q1017 NOSIG=
201508190520 METAR COR EGLL 190520Z 22007KT CAVOK 14/11 Q1016 NOSIG=
201508190450 METAR EGLL 190450Z 22006KT CAVOK 13/11 Q1016 NOSIG=
201508190420 METAR COR EGLL 190420Z 21005KT CAVOK 13/11 Q1016 NOSIG=
201508190350 METAR COR EGLL 190350Z 22004KT CAVOK 14/11 Q1016 NOSIG=
201508190320 METAR COR EGLL 190320Z 21005KT CAVOK 14/11 Q1016 NOSIG=
201508190250 METAR COR EGLL 190250Z 22005KT CAVOK 14/11 Q1016 NOSIG=
201508190220 METAR COR EGLL 190220Z 24005KT CAVOK 14/11 Q1016 NOSIG=
201508190150 METAR COR EGLL 190150Z 24006KT CAVOK 15/11 Q1016 NOSIG=
201508190120 METAR COR EGLL 190120Z 25006KT CAVOK 15/11 Q1016 NOSIG=
201508190050 METAR COR EGLL 190050Z 25005KT CAVOK 16/11 Q1015 NOSIG=
201508190020 METAR COR EGLL 190020Z 25006KT CAVOK 16/11 Q1015 NOSIG=
201508182350 METAR COR EGLL 182350Z 25006KT CAVOK 16/12 Q1015 NOSIG=
201508182320 METAR COR EGLL 182320Z 24006KT CAVOK 16/12 Q1015 NOSIG=
201508182250 METAR EGLL 182250Z 24006KT CAVOK 16/13 Q1015 NOSIG=
201508182220 METAR COR EGLL 182220Z 24009KT CAVOK 16/13 Q1015 NOSIG=
201508182150 METAR COR EGLL 182150Z 24007KT 9999 -RA FEW049 16/13 Q1015
                        NOSIG=
201508182120 METAR COR EGLL 182120Z 23008KT 9999 -RA NSC 16/13 Q1015 NOSIG=
201508182050 METAR EGLL 182050Z 22008KT CAVOK 17/12 Q1015 NOSIG=
201508182020 METAR COR EGLL 182020Z 21008KT CAVOK 17/12 Q1015 NOSIG=
201508181950 METAR EGLL 181950Z 21009KT 190V250 CAVOK 17/11 Q1015 NOSIG=
201508181920 METAR COR EGLL 181920Z 21009KT CAVOK 17/11 Q1014 NOSIG=
201508181850 METAR EGLL 181850Z 22010KT CAVOK 18/12 Q1014 NOSIG=
201508181820 METAR COR EGLL 181820Z 21008KT 180V260 CAVOK 18/12 Q1014
                        NOSIG=
201508181750 METAR EGLL 181750Z 21007KT 180V240 CAVOK 19/11 Q1014 NOSIG=
201508181720 METAR COR EGLL 181720Z 22008KT CAVOK 19/11 Q1014 NOSIG=
201508181650 METAR EGLL 181650Z 24008KT CAVOK 19/10 Q1014 NOSIG=
201508181620 METAR COR EGLL 181620Z 24009KT CAVOK 19/10 Q1014 NOSIG=
201508181550 METAR EGLL 181550Z 24009KT CAVOK 19/10 Q1014 NOSIG=
201508181520 METAR COR EGLL 181520Z 24010KT 210V280 CAVOK 19/09 Q1014
                        NOSIG=
201508181450 METAR COR EGLL 181450Z 24010KT CAVOK 19/09 Q1014 NOSIG=
201508181420 METAR COR EGLL 181420Z 26010KT 220V280 CAVOK 19/09 Q1014
                        NOSIG=
201508181350 METAR EGLL 181350Z 26009KT CAVOK 19/09 Q1014 NOSIG=
201508181320 METAR COR EGLL 181320Z 26011KT CAVOK 19/08 Q1014 NOSIG=
201508181250 METAR COR EGLL 181250Z 27011KT CAVOK 19/09 Q1014 NOSIG=
201508181220 METAR COR EGLL 181220Z 27011KT CAVOK 18/09 Q1014 NOSIG=
201508181150 METAR COR EGLL 181150Z 27012KT CAVOK 18/10 Q1014 NOSIG=
201508181120 METAR COR EGLL 181120Z 27011KT CAVOK 17/10 Q1014 NOSIG=
201508181050 METAR EGLL 181050Z 27012KT CAVOK 16/10 Q1014 NOSIG=
201508181020 METAR COR EGLL 181020Z 27011KT CAVOK 16/09 Q1014 NOSIG=
201508180950 METAR EGLL 180950Z 27011KT CAVOK 15/09 Q1014 NOSIG=
201508180920 METAR COR EGLL 180920Z 27010KT CAVOK 15/10 Q1014 NOSIG=
201508180850 METAR COR EGLL 180850Z 27009KT CAVOK 15/10 Q1014 NOSIG=
201508180820 METAR COR EGLL 180820Z 27008KT CAVOK 15/10 Q1014 NOSIG=
201508180750 METAR EGLL 180750Z 29006KT CAVOK 15/09 Q1014 NOSIG=
201508180720 METAR COR EGLL 180720Z 29007KT CAVOK 14/09 Q1014 NOSIG=
201508180650 METAR EGLL 180650Z 29006KT CAVOK 14/09 Q1014 NOSIG=
201508180620 METAR COR EGLL 180620Z 28007KT CAVOK 14/09 Q1015 NOSIG=
201508180550 METAR COR EGLL 180550Z 28007KT CAVOK 14/09 Q1015 NOSIG=
201508180520 METAR COR EGLL 180520Z 28007KT CAVOK 14/09 Q1014 NOSIG=
201508180450 METAR EGLL 180450Z 29007KT CAVOK 14/09 Q1014 NOSIG=
201508180420 METAR COR EGLL 180420Z 29006KT CAVOK 15/09 Q1014 NOSIG=
201508180350 METAR COR EGLL 180350Z 29006KT CAVOK 15/09 Q1014 NOSIG=
201508180320 METAR COR EGLL 180320Z 29006KT CAVOK 15/09 Q1015 NOSIG=
201508180250 METAR EGLL 180250Z 29006KT CAVOK 15/09 Q1015 NOSIG=
201508180220 METAR COR EGLL 180220Z 29006KT CAVOK 15/09 Q1015 NOSIG=
201508180150 METAR EGLL 180150Z 29006KT CAVOK 16/09 Q1015 NOSIG=
201508180120 METAR COR EGLL 180120Z 28007KT CAVOK 16/09 Q1015 NOSIG=
201508180050 METAR EGLL 180050Z 29005KT CAVOK 16/09 Q1015 NOSIG=
201508180020 METAR COR EGLL 180020Z 29005KT CAVOK 15/09 Q1016 NOSIG=
201508172350 METAR EGLL 172350Z 29005KT CAVOK 16/09 Q1016 NOSIG=
201508172320 METAR COR EGLL 172320Z 29005KT CAVOK 17/09 Q1016 NOSIG=
201508172250 METAR EGLL 172250Z 29005KT CAVOK 17/08 Q1016 NOSIG=
201508172220 METAR COR EGLL 172220Z 30003KT CAVOK 17/08 Q1016 NOSIG=
201508172150 METAR EGLL 172150Z 30004KT CAVOK 18/08 Q1016 NOSIG=
201508172120 METAR COR EGLL 172120Z 31004KT CAVOK 19/08 Q1016 NOSIG=
201508172050 METAR EGLL 172050Z 33005KT 300V360 CAVOK 19/08 Q1016 NOSIG=
201508172020 METAR COR EGLL 172020Z VRB03KT CAVOK 19/08 Q1016 NOSIG=
201508171950 METAR EGLL 171950Z 31004KT CAVOK 19/08 Q1016 NOSIG=
201508171920 METAR COR EGLL 171920Z 31003KT CAVOK 19/07 Q1016 NOSIG=
201508171850 METAR EGLL 171850Z 33004KT 300V020 CAVOK 20/07 Q1016 NOSIG=
201508171820 METAR COR EGLL 171820Z 33005KT 290V360 CAVOK 20/07 Q1016
                        NOSIG=
201508171750 METAR EGLL 171750Z 35004KT 320V030 CAVOK 20/07 Q1016 NOSIG=
201508171720 METAR COR EGLL 171720Z 35006KT 320V030 CAVOK 21/06 Q1016
                        NOSIG=
201508171650 METAR EGLL 171650Z 34006KT 310V030 CAVOK 21/06 Q1016 NOSIG=
201508171620 METAR COR EGLL 171620Z 35007KT 310V030 CAVOK 21/06 Q1016
                        NOSIG=
201508171550 METAR COR EGLL 171550Z 35006KT 310V030 CAVOK 21/05 Q1017
                        NOSIG=
201508171520 METAR COR EGLL 171520Z 36005KT 320V050 CAVOK 21/05 Q1017
                        NOSIG=
201508171450 METAR COR EGLL 171450Z 33006KT 270V050 CAVOK 22/05 Q1017
                        NOSIG=
201508171420 METAR COR EGLL 171420Z 01006KT 330V040 CAVOK 21/05 Q1017
                        NOSIG=
201508171350 METAR EGLL 171350Z 36007KT 330V040 CAVOK 21/05 Q1017 NOSIG=
201508171320 METAR COR EGLL 171320Z 03006KT 340V070 CAVOK 20/05 Q1017
                        NOSIG=
201508171250 METAR COR EGLL 171250Z 35006KT 290V050 CAVOK 21/04 Q1017
                        NOSIG=
201508171220 METAR COR EGLL 171220Z 05006KT 360V090 CAVOK 20/04 Q1018
                        NOSIG=
201508171150 METAR COR EGLL 171150Z 04008KT 330V080 CAVOK 21/04 Q1018
                        NOSIG=
201508171120 METAR COR EGLL 171120Z 03006KT 320V080 CAVOK 20/05 Q1018
                        NOSIG=
201508171050 METAR COR EGLL 171050Z 02007KT 320V070 CAVOK 20/04 Q1018
                        NOSIG=
201508171020 METAR COR EGLL 171020Z 34006KT 290V020 CAVOK 20/04 Q1018
                        NOSIG=
201508170950 METAR COR EGLL 170950Z 36005KT 300V060 CAVOK 19/05 Q1018
                        NOSIG=
201508170920 METAR COR EGLL 170920Z 02006KT 330V070 9999 FEW048 19/05
                        Q1019 NOSIG=
201508170850 METAR EGLL 170850Z 03006KT 350V060 9999 FEW048 18/06 Q1019
                        NOSIG=
201508170820 METAR COR EGLL 170820Z 04006KT 340V090 9999 FEW048 18/06
                        Q1019 NOSIG=
201508170750 METAR EGLL 170750Z 01004KT 320V050 CAVOK 17/08 Q1019 NOSIG=
201508170720 METAR COR EGLL 170720Z 04005KT CAVOK 17/10 Q1018 NOSIG=
201508170650 METAR EGLL 170650Z 04005KT CAVOK 16/10 Q1018 NOSIG=
201508170620 METAR COR EGLL 170620Z VRB03KT CAVOK 15/10 Q1018 NOSIG=
201508170550 METAR COR EGLL 170550Z VRB03KT 9999 FEW045 14/10 Q1018 NOSIG=
201508170520 METAR COR EGLL 170520Z VRB03KT CAVOK 14/10 Q1018 NOSIG=
201508170450 METAR EGLL 170450Z VRB03KT CAVOK 13/10 Q1018 NOSIG=
201508170420 METAR COR EGLL 170420Z VRB03KT CAVOK 13/10 Q1018 NOSIG=
201508170350 METAR EGLL 170350Z 01003KT CAVOK 13/11 Q1018 NOSIG=
201508170320 METAR COR EGLL 170320Z 35003KT CAVOK 14/11 Q1018 NOSIG=
201508170250 METAR EGLL 170250Z 34003KT CAVOK 14/11 Q1018 NOSIG=
201508170220 METAR COR EGLL 170220Z VRB02KT CAVOK 15/11 Q1018 NOSIG=
201508170150 METAR EGLL 170150Z 00000KT CAVOK 15/11 Q1018 NOSIG=
201508170120 METAR EGLL 170120Z AUTO 05002KT 9999 NCD 15/11 Q1018=
201508170050 METAR EGLL 170050Z AUTO 00000KT 9999 BKN040 16/10 Q1018=
201508170020 METAR EGLL 170020Z AUTO 00000KT 9999 NCD 16/11 Q1018=
201508162350 METAR EGLL 162350Z 00000KT CAVOK 16/11 Q1018 NOSIG=
201508162320 METAR COR EGLL 162320Z 08002KT CAVOK 16/11 Q1018 NOSIG=
201508162250 METAR COR EGLL 162250Z VRB02KT 9999 SCT047 16/11 Q1018 NOSIG=
201508162220 METAR COR EGLL 162220Z 04002KT 9999 FEW046 16/10 Q1018 NOSIG=
201508162150 METAR COR EGLL 162150Z 08002KT CAVOK 17/10 Q1018 NOSIG=
201508162120 METAR COR EGLL 162120Z 09003KT CAVOK 16/10 Q1018 NOSIG=
201508162050 METAR EGLL 162050Z VRB02KT CAVOK 17/10 Q1018 NOSIG=
201508162020 METAR COR EGLL 162020Z 13002KT CAVOK 17/10 Q1018 NOSIG=
201508161950 METAR EGLL 161950Z 14004KT CAVOK 17/10 Q1018 NOSIG=
201508161920 METAR COR EGLL 161920Z 17005KT CAVOK 17/10 Q1017 NOSIG=
201508161850 METAR EGLL 161850Z 15005KT CAVOK 17/10 Q1017 NOSIG=
201508161820 METAR COR EGLL 161820Z 14006KT CAVOK 17/10 Q1017 NOSIG=
201508161750 METAR COR EGLL 161750Z 14008KT 9999 FEW048 18/10 Q1017 NOSIG=
201508161720 METAR COR EGLL 161720Z 14009KT 9999 FEW042 BKN048 18/11 Q1017
                        NOSIG=
201508161650 METAR COR EGLL 161650Z 11008KT 080V150 9999 FEW042 19/10
                        Q1017 NOSIG=
201508161620 METAR COR EGLL 161620Z 09007KT CAVOK 19/09 Q1017 NOSIG=
201508161550 METAR EGLL 161550Z 08007KT CAVOK 19/09 Q1017 NOSIG=
201508161520 METAR COR EGLL 161520Z 08004KT 020V120 CAVOK 20/08 Q1017
                        NOSIG=
201508161450 METAR EGLL 161450Z VRB04KT 9999 FEW048 19/09 Q1017 NOSIG=
201508161420 METAR COR EGLL 161420Z VRB03KT CAVOK 20/08 Q1017 NOSIG=
201508161350 METAR COR EGLL 161350Z VRB04KT CAVOK 21/09 Q1017 NOSIG=
201508161320 METAR COR EGLL 161320Z 11004KT 010V170 9999 FEW048 20/09
                        Q1017 NOSIG=
201508161250 METAR EGLL 161250Z 01004KT 290V090 9999 SCT045 20/09 Q1017
                        NOSIG=
201508161220 METAR COR EGLL 161220Z VRB04KT 9999 SCT047 20/09 Q1017 NOSIG=
201508161150 METAR EGLL 161150Z VRB03KT 9999 SCT045 19/09 Q1017 NOSIG=
201508161120 METAR COR EGLL 161120Z 33004KT 270V030 9999 SCT044 20/08
                        Q1017 NOSIG=
201508161050 METAR COR EGLL 161050Z 31004KT 250V020 9999 SCT044 20/09
                        Q1017 NOSIG=
201508161020 METAR COR EGLL 161020Z VRB02KT 9999 FEW032 18/09 Q1017 NOSIG=
201508160950 METAR EGLL 160950Z VRB04KT 9999 FEW032 18/10 Q1017 NOSIG=
201508160920 METAR COR EGLL 160920Z VRB03KT CAVOK 18/09 Q1017 NOSIG=
201508160850 METAR EGLL 160850Z VRB03KT 9999 FEW028 17/09 Q1017 NOSIG=
201508160820 METAR COR EGLL 160820Z VRB02KT 9999 FEW028 16/09 Q1017 NOSIG=
201508160750 METAR EGLL 160750Z 03004KT 340V070 CAVOK 15/09 Q1017 NOSIG=
201508160720 METAR COR EGLL 160720Z VRB03KT CAVOK 14/09 Q1017 NOSIG=
201508160650 METAR EGLL 160650Z VRB03KT CAVOK 13/09 Q1017 NOSIG=
201508160620 METAR COR EGLL 160620Z VRB03KT CAVOK 13/09 Q1017 NOSIG=
201508160550 METAR EGLL 160550Z 35003KT CAVOK 12/09 Q1017 NOSIG=
201508160520 METAR COR EGLL 160520Z 30003KT CAVOK 12/09 Q1017 NOSIG=
201508160450 METAR EGLL 160450Z 29003KT CAVOK 12/09 Q1017 NOSIG=
201508160420 METAR COR EGLL 160420Z 01002KT CAVOK 12/08 Q1017 NOSIG=
201508160350 METAR EGLL 160350Z 36003KT CAVOK 12/09 Q1017 NOSIG=
201508160320 METAR COR EGLL 160320Z VRB03KT CAVOK 13/09 Q1017 NOSIG=
201508160250 METAR COR EGLL 160250Z VRB02KT CAVOK 13/09 Q1017 NOSIG=
201508160220 METAR COR EGLL 160220Z 31003KT CAVOK 13/09 Q1016 NOSIG=
201508160150 METAR EGLL 160150Z 29004KT CAVOK 13/08 Q1016 NOSIG=
201508160120 METAR EGLL 160120Z AUTO 29002KT 9999 NCD 13/08 Q1016=
201508160050 METAR EGLL 160050Z AUTO 30003KT 9999 NCD 14/08 Q1016=
201508160020 METAR EGLL 160020Z AUTO 32004KT 9999 NCD 15/09 Q1016=
201508152350 METAR EGLL 152350Z 31003KT CAVOK 15/09 Q1016 NOSIG=
201508152320 METAR COR EGLL 152320Z 31002KT CAVOK 15/09 Q1016 NOSIG=
201508152250 METAR EGLL 152250Z 30003KT CAVOK 16/08 Q1016 NOSIG=
201508152220 METAR COR EGLL 152220Z 31004KT CAVOK 17/08 Q1016 NOSIG=
201508152150 METAR EGLL 152150Z 31004KT CAVOK 17/07 Q1016 NOSIG=
201508152120 METAR COR EGLL 152120Z 32003KT CAVOK 17/07 Q1016 NOSIG=
201508152050 METAR COR EGLL 152050Z 30003KT CAVOK 17/07 Q1016 NOSIG=
201508152020 METAR COR EGLL 152020Z 31003KT CAVOK 17/07 Q1016 NOSIG=
201508151950 METAR COR EGLL 151950Z 32003KT CAVOK 17/07 Q1015 NOSIG=
201508151920 METAR COR EGLL 151920Z 32003KT CAVOK 18/07 Q1015 NOSIG=
201508151850 METAR COR EGLL 151850Z VRB02KT CAVOK 18/07 Q1015 NOSIG=
201508151820 METAR COR EGLL 151820Z 31005KT CAVOK 18/06 Q1015 NOSIG=
201508151750 METAR EGLL 151750Z 32006KT 280V360 CAVOK 18/06 Q1014 NOSIG=
201508151720 METAR COR EGLL 151720Z 31006KT 290V360 CAVOK 19/06 Q1014
                        NOSIG=
201508151650 METAR EGLL 151650Z 30005KT 270V340 CAVOK 20/06 Q1014 NOSIG=
201508151620 METAR COR EGLL 151620Z 31008KT 280V340 9999 FEW048 20/07
                        Q1014 NOSIG=
201508151550 METAR COR EGLL 151550Z 31007KT 280V340 9999 FEW049 19/07
                        Q1014 NOSIG=
201508151520 METAR COR EGLL 151520Z 33005KT 270V010 9999 FEW049 19/08
                        Q1014 NOSIG=
201508151450 METAR EGLL 151450Z 31009KT 9999 FEW047 19/08 Q1014 NOSIG=
201508151420 METAR COR EGLL 151420Z 30007KT 9999 SCT047 19/08 Q1014 NOSIG=
201508151350 METAR EGLL 151350Z 32006KT 9999 FEW049 19/07 Q1013 NOSIG=
201508151320 METAR COR EGLL 151320Z 31004KT 260V020 9999 FEW045 19/07
                        Q1013 NOSIG=
201508151250 METAR EGLL 151250Z 32008KT 270V350 9999 FEW045 19/08 Q1013
                        NOSIG=
201508151220 METAR COR EGLL 151220Z 30007KT 270V350 9999 FEW045 19/08
                        Q1013 NOSIG=
201508151150 METAR EGLL 151150Z 30007KT 260V350 9999 SCT045 19/08 Q1012
                        NOSIG=
201508151120 METAR COR EGLL 151120Z 31007KT 260V020 9999 FEW042 20/08
                        Q1012 NOSIG=
201508151050 METAR COR EGLL 151050Z 31006KT 280V010 9999 FEW036 19/09
                        Q1012 NOSIG=
201508151020 METAR COR EGLL 151020Z 32007KT 290V010 9999 FEW036 18/09
                        Q1012 NOSIG=
201508150950 METAR COR EGLL 150950Z 31007KT 280V350 CAVOK 17/09 Q1012
                        NOSIG=
201508150920 METAR COR EGLL 150920Z 36006KT 300V030 CAVOK 16/09 Q1012
                        NOSIG=
201508150850 METAR EGLL 150850Z 31007KT 290V350 CAVOK 16/10 Q1012 NOSIG=
201508150820 METAR COR EGLL 150820Z 32007KT 280V010 9999 FEW012 15/10
                        Q1011 NOSIG=
201508150750 METAR COR EGLL 150750Z 32007KT 280V350 9999 FEW012 SCT045
                        15/11 Q1011 NOSIG=
201508150720 METAR COR EGLL 150720Z 32006KT 290V360 9999 FEW012 SCT036
                        15/11 Q1011 NOSIG=
201508150650 METAR COR EGLL 150650Z 31005KT 270V350 9999 FEW012 SCT034
                        14/12 Q1011 NOSIG=
201508150620 METAR COR EGLL 150620Z 30006KT 9999 FEW011 SCT041 14/12 Q1010
                        NOSIG=
201508150550 METAR COR EGLL 150550Z 31005KT 270V340 9999 FEW010 SCT045
                        15/12 Q1010 NOSIG=
201508150520 METAR COR EGLL 150520Z 29005KT 9999 FEW039 14/12 Q1010 NOSIG=
201508150450 METAR COR EGLL 150450Z 31005KT 9999 FEW047 14/12 Q1009 NOSIG=
201508150420 METAR COR EGLL 150420Z 30005KT 9999 FEW044 15/12 Q1009 NOSIG=
201508150350 METAR EGLL 150350Z 29005KT 9999 SCT044 15/12 Q1009 NOSIG=
201508150320 METAR COR EGLL 150320Z 31005KT 9999 SCT043 15/12 Q1009 NOSIG=
201508150250 METAR EGLL 150250Z 31007KT 9999 SCT038 15/12 Q1009 NOSIG=
201508150220 METAR COR EGLL 150220Z 29007KT CAVOK 15/12 Q1009 NOSIG=
201508150150 METAR EGLL 150150Z 29006KT CAVOK 15/13 Q1008 NOSIG=
201508150120 METAR EGLL 150120Z AUTO 30004KT 9999 NCD 15/13 Q1008=
201508150050 METAR EGLL 150050Z AUTO 29006KT 9999 NCD 15/13 Q1008=
201508150020 METAR EGLL 150020Z AUTO 30003KT 9999 FEW030 16/14 Q1008=
201508142350 METAR COR EGLL 142350Z 30004KT CAVOK 16/14 Q1008 NOSIG=
201508142320 METAR COR EGLL 142320Z 31005KT CAVOK 16/14 Q1008 NOSIG=
201508142250 METAR EGLL 142250Z 29005KT CAVOK 16/14 Q1008 NOSIG=
201508142220 METAR COR EGLL 142220Z 29005KT 9999 -SHRA NSC 16/14 Q1008
                        NOSIG=
201508142150 METAR COR EGLL 142150Z 30005KT CAVOK 16/14 Q1008 NOSIG=
201508142120 METAR COR EGLL 142120Z 30005KT CAVOK 16/14 Q1007 NOSIG=
201508142050 METAR EGLL 142050Z 31006KT 9999 FEW023 17/14 Q1007 TEMPO
                        4000 RADZ BKN014=
201508142020 METAR COR EGLL 142020Z 29004KT 9999 FEW018 SCT023 16/14 Q1007
                        TEMPO 4000 RADZ BKN014=
201508141950 METAR COR EGLL 141950Z 29005KT 9999 -RADZ SCT018 SCT023 16/15
                        Q1007 TEMPO 4000 RADZ BKN014=
201508141920 METAR COR EGLL 141920Z 30006KT 9000 -RADZ FEW016 BKN019 16/15
                        Q1007 TEMPO 4000 RADZ BKN013=
201508141850 METAR COR EGLL 141850Z 31004KT 9999 -RADZ BKN017 17/15 Q1007
                        TEMPO 4000 RADZ BKN014=
201508141820 METAR COR EGLL 141820Z 31006KT 9999 FEW011 BKN018 17/15 Q1006
                        TEMPO 4000 RADZ BKN014=
201508141750 METAR EGLL 141750Z 32007KT 9999 SCT011 SCT017 17/15 Q1006
                        TEMPO 4000 RADZ BKN012=
201508141720 METAR COR EGLL 141720Z 32008KT 290V360 9999 FEW015 SCT029
                        17/15 Q1006 TEMPO 4000 RADZ BKN012=
201508141650 METAR COR EGLL 141650Z 30006KT 280V350 9999 -SHRA FEW008
                        SCT010 BKN029 17/16 Q1006 TEMPO 4000
                        RADZ BKN012=
201508141620 METAR COR EGLL 141620Z 30006KT 260V330 6000 -RADZ SCT008
                        BKN010 17/16 Q1006 TEMPO 4000 RADZ=
201508141550 METAR COR EGLL 141550Z 29007KT 7000 FEW007 SCT010 BKN021
                        17/16 Q1005 TEMPO RADZ BKN014=
201508141520 METAR COR EGLL 141520Z 30007KT 7000 SCT007 BKN018 17/16 Q1005
                        TEMPO BKN010=
201508141450 METAR COR EGLL 141450Z 28009KT 6000 -RADZ FEW007 SCT013 BKN018
                        17/16 Q1005 TEMPO BKN010=
201508141420 METAR COR EGLL 141420Z 28008KT 6000 -RADZ SCT007 SCT012 BKN015
                        18/17 Q1005 RERA REDZ TEMPO BKN010=
201508141350 METAR EGLL 141350Z 27007KT 6000 -RADZ SCT007 BKN013 18/16
                        Q1005 TEMPO 4000 RADZ=
201508141320 METAR COR EGLL 141320Z 27009KT 6000 -RADZ FEW004 SCT007 BKN013
                        18/17 Q1005 TEMPO 4000 RADZ=
201508141250 METAR COR EGLL 141250Z 27009KT 6000 -RADZ FEW005 SCT007 BKN012
                        18/17 Q1005 TEMPO 4000 RADZ=
201508141220 METAR COR EGLL 141220Z 28010KT 8000 -SHRA FEW005 SCT006 BKN012
                        19/17 Q1005 TEMPO 4000 RADZ=
201508141150 METAR COR EGLL 141150Z 21010KT 180V250 9999 VCSH BKN018 20/16
                        Q1005 TEMPO SHRA BKN014=
201508141120 METAR COR EGLL 141120Z 21012KT 180V240 9999 SCT022 BKN030
                        21/16 Q1005 TEMPO BKN014=
201508141050 METAR EGLL 141050Z 21013KT 9999 BKN016 20/16 Q1005 TEMPO
                        BKN014=
201508141020 METAR COR EGLL 141020Z 21014KT 190V250 9999 SCT023 SCT030
                        20/16 Q1005 TEMPO BKN014=
201508140950 METAR COR EGLL 140950Z 21014KT 9999 SCT014 SCT021 20/17 Q1005
                        TEMPO BKN014=
201508140920 METAR COR EGLL 140920Z 20011G22KT 150V230 9999 SCT015 SCT020
                        20/17 Q1005 NOSIG=
201508140850 METAR EGLL 140850Z 21011KT 180V240 9999 SCT008 SCT010 19/17
                        Q1005 TEMPO BKN012=
201508140820 METAR COR EGLL 140820Z 19011KT 170V230 5000 BR SCT006 SCT009
                        19/18 Q1005 TEMPO SCT009 BKN012=
201508140750 METAR EGLL 140750Z 18009KT 140V240 2800 BR SCT004 BKN006
                        19/18 Q1005 TEMPO BKN004=
201508140720 METAR COR EGLL 140720Z 18005KT 140V230 0800 R27L/1100 R27R/1400
                        FG FEW001 SCT002 BKN003 18/18 Q1005
                        BECMG 1500=
201508140650 METAR COR EGLL 140650Z 19005KT 140V240 1100 R27L/1200 R27R/P1500
                        BR SCT002 BKN003 18/17 Q1005 BECMG
                        2000=
201508140620 METAR COR EGLL 140620Z VRB03KT 1000 R27L/P1500 R27R/P1500
                        -DZ BR FEW001 SCT002 BKN004 18/17
                        Q1005 BECMG 2000=
201508140550 METAR COR EGLL 140550Z 00000KT 1000 R27L/P1500 R27R/P1500
                        BR SCT001 BKN002 18/17 Q1005 BECMG
                        1500=
201508140520 METAR EGLL 140520Z 00000KT 1100 R27L/P1500 R27R/P1500 BR
                        FEW001 SCT002 BKN003 18/17 Q1005=
201508140450 METAR COR EGLL 140450Z VRB02KT 1200 R27L/P1500 R27R/P1500
                        BR FEW001 SCT002 BKN003 18/17 Q1005
                        TEMPO 2000=
201508140420 METAR COR EGLL 140420Z 22002KT 1900 BR FEW003 BKN004 18/17
                        Q1005 TEMPO 1400=
201508140350 METAR EGLL 140350Z VRB02KT 2300 BR FEW002 BKN004 18/17 Q1005
                        TEMPO 1400=
201508140320 METAR COR EGLL 140320Z 00000KT 2800 HZ FEW003 BKN004 18/17
                        Q1006 NOSIG=
201508140250 METAR COR EGLL 140250Z VRB02KT 3000 HZ FEW003 BKN004 18/17
                        Q1006 NOSIG=
201508140220 METAR COR EGLL 140220Z 05002KT 4000 BR FEW003 BKN005 18/17
                        Q1006 TEMPO BKN004=
201508140150 METAR EGLL 140150Z VRB02KT 4000 BR FEW004 BKN005 18/17 Q1007
                        TEMPO BKN004=
201508140120 METAR EGLL 140120Z AUTO VRB03KT 5000 OVC005 18/17 Q1007=
201508140050 METAR EGLL 140050Z AUTO VRB03KT 6000 BKN007 18/17 Q1007=
201508140020 METAR EGLL 140020Z AUTO VRB03KT 7000 OVC007 18/17 Q1008=
201508132350 METAR COR EGLL 132350Z 05003KT 8000 FEW007 BKN008 18/17 Q1008
                        NOSIG=
201508132320 METAR COR EGLL 132320Z VRB03KT 8000 FEW008 BKN009 18/17 Q1008
                        NOSIG=
201508132250 METAR EGLL 132250Z 04004KT 010V070 8000 FEW008 SCT009 BKN010
                        18/17 Q1009 BECMG BKN008=
201508132220 METAR COR EGLL 132220Z 03004KT 350V070 8000 FEW009 SCT013
                        BKN015 18/17 Q1009 BECMG BKN012=
201508132150 METAR EGLL 132150Z VRB03KT 8000 FEW008 SCT010 BKN016 18/17
                        Q1009 BECMG BKN012=
201508132120 METAR COR EGLL 132120Z VRB03KT 8000 FEW008 SCT010 BKN017
                        18/17 Q1009 TEMPO SHRA SCT009 BKN011=
201508132050 METAR EGLL 132050Z 36004KT 310V030 8000 -SHRA SCT009 BKN019
                        19/17 Q1009 TEMPO SHRA SCT009 BKN014=
201508132020 METAR COR EGLL 132020Z 36005KT 320V030 9999 SCT009 BKN020
                        19/17 Q1009 TEMPO SHRA SCT009 BKN012=
201508131950 METAR COR EGLL 131950Z 36005KT 320V040 8000 -SHRA FEW009
                        BKN021 19/17 Q1010 TEMPO SHRA SCT009
                        BKN012=
201508131920 METAR COR EGLL 131920Z 01004KT 330V050 9999 FEW013 SCT017
                        BKN021 19/17 Q1010 TEMPO SHRA BKN012=
201508131850 METAR EGLL 131850Z 36004KT 330V050 9999 FEW013 SCT021 BKN027
                        20/17 Q1010 TEMPO SHRA BKN012=
201508131820 METAR COR EGLL 131820Z 02004KT 340V050 9999 FEW013 BKN019
                        20/17 Q1010 TEMPO SHRA BKN012=
201508131750 METAR EGLL 131750Z 03004KT 350V050 9999 SCT013 BKN017 20/17
                        Q1011 TEMPO SHRA BKN012=
201508131720 METAR COR EGLL 131720Z 04004KT 360V070 9999 BKN015 20/17
                        Q1011 TEMPO SHRA BKN012=
201508131650 METAR COR EGLL 131650Z 05005KT 020V080 9999 SCT015 SCT020
                        20/17 Q1011 NOSIG=
201508131620 METAR COR EGLL 131620Z 05006KT 020V090 9999 SCT018 20/17
                        Q1011 NOSIG=
201508131550 METAR EGLL 131550Z 06007KT 020V080 9999 SCT012 20/17 Q1011
                        TEMPO SHRA=
201508131520 METAR COR EGLL 131520Z 06009KT 9999 FEW008 SCT012 20/18 Q1011
                        TEMPO SHRA=
201508131450 METAR COR EGLL 131450Z 06012KT 9000 FEW008 SCT010 20/18 Q1012
                        TEMPO SHRA BKN010=
201508131420 METAR COR EGLL 131420Z 05008KT 7000 SCT008 SCT011 19/18 Q1012
                        TEMPO SHRA BKN008=
201508131350 METAR COR EGLL 131350Z 05007KT 6000 -SHRA SCT008 BKN011 19/17
                        Q1012 TEMPO SHRA BKN015=
201508131320 METAR COR EGLL 131320Z 06009KT 6000 -SHRA FEW007 BKN011 19/18
                        Q1013 TEMPO 4000 SHRA BKN009=
201508131250 METAR COR EGLL 131250Z 06007KT 7000 -SHRA BKN009 19/17 Q1013
                        RESHRA RERA TEMPO 4000 SHRA BKN012=
201508131220 METAR COR EGLL 131220Z 03006KT 5000 RA FEW009 BKN016 18/17
                        Q1014 TEMPO TSRA BKN009=
201508131150 METAR COR EGLL 131150Z 05005KT 010V080 5000 RA BKN018 19/17
                        Q1015 TEMPO TSRA BKN010=
201508131120 METAR COR EGLL 131120Z 05006KT 020V080 5000 RA SCT020 BKN038
                        19/17 Q1015 TEMPO TSRA BKN010=
201508131050 METAR COR EGLL 131050Z 07007KT 9000 -RA BKN019 20/17 Q1016
                        TEMPO 4000 SHRA TSRA BKN009=
201508131020 METAR COR EGLL 131020Z 06008KT 9999 SCT024 20/16 Q1015 TEMPO
                        4000 SHRA TSRA BKN009=
201508130950 METAR EGLL 130950Z 06009KT 020V080 9999 FEW016 BKN020 20/16
                        Q1016 TEMPO SHRA BKN009=
201508130920 METAR COR EGLL 130920Z 06008KT 9999 BKN016 20/16 Q1016 TEMPO
                        SHRA BKN009=
201508130850 METAR COR EGLL 130850Z 04006KT 350V080 9000 BKN015 19/16
                        Q1015 TEMPO SHRA BKN009=
201508130820 METAR COR EGLL 130820Z 04006KT 010V080 7000 BKN011 18/16
                        Q1016 TEMPO BKN009=
201508130750 METAR EGLL 130750Z 06008KT 7000 BKN010 18/16 Q1016 TEMPO
                        BKN009=
201508130720 METAR COR EGLL 130720Z 06009KT 040V100 8000 -RA SCT009 BKN010
                        18/16 Q1016 TEMPO BKN009=
201508130650 METAR COR EGLL 130650Z 05010KT 6000 -RA SCT009 BKN010 17/16
                        Q1016 TEMPO BKN009=
201508130620 METAR COR EGLL 130620Z 05010KT 7000 -RA SCT008 BKN009 17/15
                        Q1017 TEMPO SCT009 BKN012=
201508130550 METAR COR EGLL 130550Z 05009KT 010V080 8000 -RA BKN008 17/15
                        Q1017 TEMPO SCT008 BKN012=
201508130520 METAR COR EGLL 130520Z 06010KT 8000 -SHRA BKN008 17/15 Q1018
                        TEMPO TSRA SCT008 BKN012=
201508130450 METAR COR EGLL 130450Z 06011KT 9000 -SHRA BKN008 16/15 Q1018
                        TEMPO TSRA SCT008 BKN012=
201508130420 METAR COR EGLL 130420Z 08007KT 9000 -SHRA BKN008 16/15 Q1019
                        TEMPO TSRA BKN010=
201508130350 METAR EGLL 130350Z 06006KT 020V090 9999 -SHRA BKN008 16/14
                        Q1019 TEMPO TSRA=
201508130320 METAR COR EGLL 130320Z 07008KT 9999 BKN008 16/14 Q1019 TEMPO
                        TSRA=
201508130250 METAR COR EGLL 130250Z 07007KT 9999 BKN010 16/14 Q1019 TEMPO
                        TSRA BKN009=
201508130220 METAR COR EGLL 130220Z 06009KT 030V090 9999 BKN010 16/14
                        Q1019 TEMPO TSRA=
201508130150 METAR COR EGLL 130150Z 06008KT 030V100 9999 BKN010 16/14
                        Q1019 TEMPO TSRA=
201508130120 METAR EGLL 130120Z AUTO 06009KT 030V110 9999 OVC011 16/14
                        Q1019=
201508130050 METAR EGLL 130050Z AUTO 07009KT 9999 OVC012 16/13 Q1020=
201508130020 METAR EGLL 130020Z AUTO 06009KT 9999 BKN014 16/13 Q1020=
201508122350 METAR EGLL 122350Z 06007KT 9999 FEW015 17/12 Q1021=
201508122320 METAR COR EGLL 122320Z 06008KT CAVOK 17/12 Q1021 NOSIG=
201508122250 METAR COR EGLL 122250Z 05008KT 030V100 CAVOK 18/12 Q1021
                        NOSIG=
201508122220 METAR COR EGLL 122220Z 06008KT CAVOK 18/11 Q1021 NOSIG=
201508122150 METAR EGLL 122150Z 06008KT CAVOK 18/11 Q1022 NOSIG=
201508122120 METAR COR EGLL 122120Z 06008KT CAVOK 18/11 Q1022 NOSIG=
201508122050 METAR EGLL 122050Z 06007KT CAVOK 19/11 Q1022 NOSIG=
201508122020 METAR COR EGLL 122020Z 06007KT CAVOK 19/11 Q1022 NOSIG=
201508121950 METAR EGLL 121950Z 06008KT 9999 FEW045 19/11 Q1022 NOSIG=
201508121920 METAR COR EGLL 121920Z 06010KT 9999 FEW045 20/12 Q1021 NOSIG=
201508121850 METAR EGLL 121850Z 07008KT CAVOK 20/12 Q1021 NOSIG=
201508121820 METAR COR EGLL 121820Z 07008KT 9999 FEW045 21/12 Q1021 NOSIG=
201508121750 METAR EGLL 121750Z 06009KT 9999 FEW047 21/12 Q1021 NOSIG=
201508121720 METAR COR EGLL 121720Z 08009KT 9999 SCT045 21/13 Q1022 NOSIG=
201508121650 METAR COR EGLL 121650Z 07010KT 9999 SCT044 21/13 Q1022 NOSIG=
201508121620 METAR COR EGLL 121620Z 08010KT 9999 SCT046 22/13 Q1022 NOSIG=
201508121550 METAR EGLL 121550Z 09012KT 9999 BKN043 22/13 Q1022 NOSIG=
201508121520 METAR COR EGLL 121520Z 09011KT 9999 SCT043 SCT045 22/13 Q1022
                        NOSIG=
201508121450 METAR COR EGLL 121450Z 08008KT 040V110 9999 FEW040 SCT048
                        22/13 Q1022 NOSIG=
201508121420 METAR COR EGLL 121420Z 07009KT 040V110 9999 FEW038 BKN048
                        22/13 Q1023 NOSIG=
201508121350 METAR COR EGLL 121350Z 09010KT 060V130 9999 FEW038 BKN047
                        23/12 Q1023 NOSIG=
201508121320 METAR COR EGLL 121320Z 06009KT 030V090 9999 FEW046 23/12
                        Q1023 NOSIG=
201508121250 METAR EGLL 121250Z 09011KT CAVOK 23/12 Q1023 NOSIG=
201508121220 METAR COR EGLL 121220Z 06010KT 030V100 CAVOK 22/12 Q1023
                        NOSIG=
201508121150 METAR EGLL 121150Z 07010KT CAVOK 21/12 Q1023 NOSIG=
201508121120 METAR COR EGLL 121120Z 08010KT 040V110 CAVOK 22/12 Q1023
                        NOSIG=
201508121050 METAR EGLL 121050Z 07010KT 030V100 CAVOK 20/12 Q1024 NOSIG=
201508121020 METAR COR EGLL 121020Z 06010KT 9999 FEW042 20/12 Q1024 NOSIG=
201508120950 METAR COR EGLL 120950Z 06010KT 9999 FEW041 20/12 Q1024 NOSIG=
201508120920 METAR COR EGLL 120920Z 06010KT CAVOK 19/13 Q1024 NOSIG=
201508120850 METAR COR EGLL 120850Z 05006KT 020V080 9999 SCT042 17/12
                        Q1024 NOSIG=
201508120820 METAR COR EGLL 120820Z 06007KT 9999 FEW039 BKN041 16/12 Q1024
                        NOSIG=
201508120750 METAR EGLL 120750Z 05007KT 020V080 9999 BKN041 16/12 Q1024
                        NOSIG=
201508120720 METAR COR EGLL 120720Z 04006KT 010V070 9999 BKN042 16/12
                        Q1024 NOSIG=
201508120650 METAR EGLL 120650Z 04005KT 9999 BKN042 16/13 Q1024 NOSIG=
201508120620 METAR COR EGLL 120620Z 05004KT 010V070 9999 BKN040 15/13
                        Q1024 NOSIG=
201508120550 METAR EGLL 120550Z 04004KT 9999 BKN040 15/13 Q1023 NOSIG=
201508120520 METAR COR EGLL 120520Z 04004KT 9999 SCT039 15/13 Q1023 NOSIG=
201508120450 METAR COR EGLL 120450Z 05004KT 9999 FEW045 15/13 Q1023 NOSIG=
201508120420 METAR COR EGLL 120420Z 04005KT 9999 -RA BKN044 15/13 Q1023
                        NOSIG=
201508120350 METAR EGLL 120350Z VRB03KT 9999 -RA BKN042 15/14 Q1023 NOSIG=
201508120320 METAR COR EGLL 120320Z 04004KT 9999 -RA BKN041 15/14 Q1023
                        NOSIG=
201508120250 METAR EGLL 120250Z 04004KT 9999 -RA FEW030 15/14 Q1023 NOSIG=
201508120220 METAR COR EGLL 120220Z VRB03KT 9999 -RA NSC 16/14 Q1023 NOSIG=
201508120150 METAR EGLL 120150Z 04004KT 360V070 9999 -RA FEW046 16/14
                        Q1023 REDZ NOSIG=
201508120120 METAR EGLL 120120Z AUTO 04004KT 9999 DZ NCD 16/14 Q1023=
201508120050 METAR EGLL 120050Z AUTO 04004KT 9999 -RA SCT046 16/14 Q1023
                        REDZ=
201508120020 METAR EGLL 120020Z AUTO VRB02KT 9999 DZ NCD 17/15 Q1023=
201508112350 METAR COR EGLL 112350Z 07004KT 9999 -RA FEW030 17/15 Q1023
                        NOSIG=
201508112320 METAR COR EGLL 112320Z 06003KT 9999 -RA NSC 17/15 Q1023 NOSIG=
201508112250 METAR EGLL 112250Z 04003KT 9999 -RA NSC 17/15 Q1023 NOSIG=
201508112220 METAR COR EGLL 112220Z 02002KT 9999 -RA FEW044 18/15 Q1023
                        NOSIG=
201508112150 METAR COR EGLL 112150Z 04003KT 9999 FEW030 18/14 Q1023 NOSIG=
201508112120 METAR COR EGLL 112120Z 01002KT 9999 -RA FEW031 18/14 Q1022
                        NOSIG=
201508112050 METAR EGLL 112050Z 36002KT 9999 FEW020 18/14 Q1022 NOSIG=
201508112020 METAR COR EGLL 112020Z VRB02KT 9999 -RA FEW033 18/15 Q1022
                        NOSIG=
201508111950 METAR EGLL 111950Z 00000KT 9999 -RA FEW022 18/14 Q1022 NOSIG=
201508111920 METAR COR EGLL 111920Z 16002KT 9999 -RA FEW023 18/14 Q1021
                        NOSIG=
201508111850 METAR COR EGLL 111850Z VRB03KT 9999 -RA FEW028 SCT032 18/14
                        Q1021 NOSIG=
201508111820 METAR COR EGLL 111820Z VRB02KT 9999 -RA FEW029 19/14 Q1021
                        NOSIG=
201508111750 METAR EGLL 111750Z VRB02KT 9999 FEW026 19/12 Q1021 NOSIG=
201508111720 METAR COR EGLL 111720Z VRB02KT 9999 FEW023 20/12 Q1021 NOSIG=
201508111650 METAR COR EGLL 111650Z VRB02KT 9999 FEW047 20/12 Q1021 NOSIG=
201508111620 METAR COR EGLL 111620Z 30004KT 260V350 9999 -RA FEW026 20/12
                        Q1021 NOSIG=
201508111550 METAR EGLL 111550Z 30004KT 260V360 9999 -RA FEW032 20/12
                        Q1021 NOSIG=
201508111520 METAR COR EGLL 111520Z 32004KT 280V020 9999 -RA FEW028 20/11
                        Q1020 NOSIG=
201508111450 METAR COR EGLL 111450Z 28004KT 250V330 9999 FEW027 21/11
                        Q1020 NOSIG=
201508111420 METAR COR EGLL 111420Z VRB04KT 9999 FEW039 21/11 Q1020 NOSIG=
201508111350 METAR EGLL 111350Z VRB02KT 9999 FEW039 21/11 Q1020 NOSIG=
201508111320 METAR COR EGLL 111320Z VRB03KT 9999 FEW038 21/11 Q1020 NOSIG=
201508111250 METAR COR EGLL 111250Z VRB04KT CAVOK 21/11 Q1020 NOSIG=
201508111220 METAR COR EGLL 111220Z 16004KT 100V200 9999 FEW035 21/11
                        Q1021 NOSIG=
201508111150 METAR COR EGLL 111150Z VRB04KT 9999 FEW034 21/11 Q1021 NOSIG=
201508111120 METAR COR EGLL 111120Z VRB03KT 9999 FEW032 20/11 Q1021 NOSIG=
201508111050 METAR COR EGLL 111050Z VRB04KT 9999 FEW038 19/12 Q1021 NOSIG=
201508111020 METAR COR EGLL 111020Z VRB02KT 9999 FEW036 19/12 Q1021 NOSIG=
201508110950 METAR EGLL 110950Z VRB02KT 9999 FEW034 18/12 Q1021 NOSIG=
201508110920 METAR COR EGLL 110920Z 16004KT 110V190 9999 FEW025 17/11
                        Q1020 NOSIG=
201508110850 METAR EGLL 110850Z VRB02KT CAVOK 17/11 Q1020 NOSIG=
201508110820 METAR COR EGLL 110820Z VRB02KT CAVOK 17/11 Q1020 NOSIG=
201508110750 METAR EGLL 110750Z VRB02KT CAVOK 16/11 Q1019 NOSIG=
201508110720 METAR COR EGLL 110720Z VRB03KT CAVOK 15/11 Q1019 NOSIG=
201508110650 METAR EGLL 110650Z VRB03KT 9999 FEW038 15/11 Q1019 NOSIG=
201508110620 METAR COR EGLL 110620Z VRB02KT CAVOK 15/11 Q1019 NOSIG=
201508110550 METAR EGLL 110550Z 00000KT CAVOK 14/11 Q1019 NOSIG=
201508110520 METAR COR EGLL 110520Z 29003KT CAVOK 14/10 Q1019 NOSIG=
201508110450 METAR EGLL 110450Z VRB02KT 9999 BKN038 14/10 Q1019 NOSIG=
201508110420 METAR COR EGLL 110420Z VRB02KT 9999 BKN037 14/11 Q1018 NOSIG=
201508110350 METAR EGLL 110350Z 28003KT 9999 FEW037 14/11 Q1018 NOSIG=
201508110320 METAR COR EGLL 110320Z 30003KT CAVOK 14/11 Q1018 NOSIG=
201508110250 METAR COR EGLL 110250Z 29005KT 9999 FEW037 15/11 Q1018 NOSIG=
201508110220 METAR COR EGLL 110220Z 29005KT 9999 BKN036 15/11 Q1018 NOSIG=
201508110150 METAR EGLL 110150Z 29004KT 9999 SCT036 15/10 Q1018 NOSIG=
201508110120 METAR COR EGLL 110120Z 29004KT 9999 FEW037 14/10 Q1018 NOSIG=
201508110050 METAR EGLL 110050Z 27006KT CAVOK 15/10 Q1018 NOSIG=
201508110020 METAR COR EGLL 110020Z 27006KT CAVOK 15/10 Q1018 NOSIG=
201508102350 METAR EGLL 102350Z 27006KT CAVOK 15/10 Q1018 NOSIG=
201508102320 METAR COR EGLL 102320Z 29006KT CAVOK 16/10 Q1018 NOSIG=
201508102250 METAR COR EGLL 102250Z 29007KT 9999 FEW034 17/10 Q1018 NOSIG=
201508102220 METAR COR EGLL 102220Z 28006KT CAVOK 17/13 Q1018 NOSIG=
201508102150 METAR COR EGLL 102150Z 27010KT 9999 SCT034 18/16 Q1017 NOSIG=
201508102120 METAR COR EGLL 102120Z 24008KT 200V260 9999 SCT019 18/16
                        Q1017 NOSIG=
201508102050 METAR EGLL 102050Z 22008KT 190V260 9999 SCT019 18/16 Q1017
                        NOSIG=
201508102020 METAR COR EGLL 102020Z 21009KT 9999 FEW026 19/16 Q1017 NOSIG=
201508101950 METAR COR EGLL 101950Z 21008KT 180V260 9999 FEW029 19/16
                        Q1017 NOSIG=
201508101920 METAR COR EGLL 101920Z 21010KT 180V240 9999 FEW030 19/16
                        Q1016 NOSIG=
201508101850 METAR COR EGLL 101850Z 23010KT 9999 FEW024 20/16 Q1016 NOSIG=
201508101820 METAR COR EGLL 101820Z 23010KT 200V260 9999 SCT018 20/16
                        Q1016 NOSIG=
201508101750 METAR EGLL 101750Z 22009KT 180V240 9999 FEW022 SCT024 21/16
                        Q1016 NOSIG=
201508101720 METAR COR EGLL 101720Z 22010KT 9999 FEW015 SCT022 20/16 Q1016
                        TEMPO BKN014=
201508101650 METAR COR EGLL 101650Z 22012KT 9999 FEW016 BKN021 20/16 Q1016
                        TEMPO BKN014=
201508101620 METAR COR EGLL 101620Z 23012KT 190V250 9999 SCT016 SCT021
                        21/16 Q1016 TEMPO BKN014=
201508101550 METAR EGLL 101550Z 22012KT 9999 FEW012 BKN016 21/16 Q1016
                        TEMPO BKN014=
201508101520 METAR COR EGLL 101520Z 20013KT 170V230 9999 FEW012 BKN017
                        21/17 Q1016 TEMPO BKN014=
201508101450 METAR COR EGLL 101450Z 21013KT 190V250 9999 BKN017 21/16
                        Q1016 NOSIG=
201508101420 METAR COR EGLL 101420Z 19013KT 9999 SCT013 22/17 Q1016 NOSIG=
201508101350 METAR EGLL 101350Z 21012KT 160V230 9999 SCT019 21/17 Q1016
                        TEMPO SHRA=
201508101320 METAR COR EGLL 101320Z 21013KT 9999 7000S -SHRA FEW017 21/17
                        Q1016 NOSIG=
201508101250 METAR COR EGLL 101250Z 19010G22KT 9999 SCT020 22/17 Q1016
                        RESHRA TEMPO SHRA BKN014=
201508101220 METAR COR EGLL 101220Z 23009KT 190V260 9999 VCSH BKN020 21/16
                        Q1017 TEMPO SHRA BKN014=
201508101150 METAR EGLL 101150Z 22010KT 190V250 9999 SCT017 SCT021 21/16
                        Q1017 TEMPO SHRA BKN014=
201508101120 METAR COR EGLL 101120Z 21008KT 9999 SCT019 21/16 Q1017 TEMPO
                        SHRA BKN014=
201508101050 METAR EGLL 101050Z 22008KT 190V250 9999 SCT018 22/16 Q1017
                        TEMPO SHRA BKN014=
201508101020 METAR COR EGLL 101020Z 23009KT 9999 BKN022 21/16 Q1017 TEMPO
                        SHRA BKN014=
201508100950 METAR COR EGLL 100950Z 23010KT 200V260 9999 BKN016 21/16
                        Q1017 TEMPO SHRA BKN014=
201508100920 METAR COR EGLL 100920Z 23010KT 9999 BKN016 20/16 Q1018 TEMPO
                        SHRA BKN014=
201508100850 METAR COR EGLL 100850Z 24010KT 9999 BKN015 20/16 Q1017 TEMPO
                        BKN014=
201508100820 METAR COR EGLL 100820Z 23009KT 9999 SCT013 BKN015 20/16 Q1017
                        TEMPO BKN014=
201508100750 METAR COR EGLL 100750Z 22009KT 9999 SCT012 BKN017 19/15 Q1017
                        TEMPO BKN014=
201508100720 METAR COR EGLL 100720Z 24009KT 9999 SCT011 BKN013 19/16 Q1017
                        BECMG SCT013 BKN018=
201508100650 METAR COR EGLL 100650Z 23008KT 200V260 9999 BKN011 19/16
                        Q1017 NOSIG=
201508100620 METAR COR EGLL 100620Z 23009KT 9999 BKN010 18/15 Q1017 TEMPO
                        BKN009=
201508100550 METAR COR EGLL 100550Z 22008KT 180V250 9999 BKN010 18/15
                        Q1018 TEMPO BKN009=
201508100520 METAR COR EGLL 100520Z 21008KT 9999 BKN011 18/15 Q1018 TEMPO
                        BKN009=
201508100450 METAR EGLL 100450Z 21007KT 9999 BKN012 18/15 Q1018 NOSIG=
201508100420 METAR COR EGLL 100420Z 22007KT 9999 BKN013 18/15 Q1018 NOSIG=
201508100350 METAR EGLL 100350Z 23008KT 9999 BKN014 18/15 Q1018 NOSIG=
201508100320 METAR COR EGLL 100320Z 22009KT 9999 BKN014 18/15 Q1018 TEMPO
                        BKN009=
201508100250 METAR EGLL 100250Z 23008KT 9999 BKN012 18/15 Q1018 TEMPO
                        BKN009=
201508100220 METAR COR EGLL 100220Z 23007KT 9999 BKN012 18/15 Q1018 TEMPO
                        BKN009=
201508100150 METAR EGLL 100150Z 23007KT 9999 BKN012 18/15 Q1018 NOSIG=
201508100120 METAR COR EGLL 100120Z 21005KT 190V260 9999 BKN012 18/15
                        Q1018 NOSIG=
201508100050 METAR EGLL 100050Z 20004KT 9999 BKN013 17/15 Q1019 NOSIG=
201508100020 METAR COR EGLL 100020Z 21005KT 9999 BKN013 17/15 Q1019 NOSIG=
201508092350 METAR COR EGLL 092350Z 20005KT 9999 BKN013 17/15 Q1019 NOSIG=
201508092320 METAR COR EGLL 092320Z 22008KT 9999 BKN013 17/15 Q1019 NOSIG=
201508092250 METAR EGLL 092250Z 24008KT 9999 BKN011 17/15 Q1019 TEMPO
                        SCT011=
201508092220 METAR COR EGLL 092220Z 24009KT 9999 FEW014 18/15 Q1019 NOSIG=
201508092150 METAR COR EGLL 092150Z 23009KT 9999 FEW016 19/15 Q1019 NOSIG=
201508092120 METAR COR EGLL 092120Z 25012KT CAVOK 19/14 Q1019 NOSIG=
201508092050 METAR EGLL 092050Z 24009KT CAVOK 20/14 Q1019 NOSIG=
201508092020 METAR COR EGLL 092020Z 25010KT CAVOK 21/14 Q1018 NOSIG=
201508091950 METAR EGLL 091950Z 24010KT CAVOK 22/14 Q1018 NOSIG=
201508091920 METAR COR EGLL 091920Z 26013KT CAVOK 23/14 Q1018 NOSIG=
201508091850 METAR EGLL 091850Z 24011KT 9999 FEW040 23/15 Q1018=
201508091820 METAR COR EGLL 091820Z 23011KT 9999 FEW040 24/14 Q1018 NOSIG=
201508091750 METAR EGLL 091750Z 23010KT 210V270 9999 FEW041 24/14 Q1018
                        NOSIG=
201508091720 METAR COR EGLL 091720Z 25011KT 9999 FEW045 25/13 Q1018 NOSIG=
201508091650 METAR EGLL 091650Z 24009KT 210V270 9999 FEW048 25/13 Q1018
                        NOSIG=
201508091620 METAR COR EGLL 091620Z 22009KT 190V270 9999 FEW049 26/12
                        Q1018 NOSIG=
201508091550 METAR EGLL 091550Z 23008KT 190V270 CAVOK 26/11 Q1019 NOSIG=
201508091520 METAR COR EGLL 091520Z 25008KT 210V280 9999 FEW048 26/10
                        Q1019 NOSIG=
201508091450 METAR EGLL 091450Z 23010KT 190V270 9999 FEW049 25/08 Q1019
                        NOSIG=
201508091420 METAR COR EGLL 091420Z 25008G18KT 210V300 9999 FEW047 26/06
                        Q1019 NOSIG=
201508091350 METAR EGLL 091350Z 25010KT 220V310 9999 SCT048 26/06 Q1019
                        NOSIG=
201508091320 METAR COR EGLL 091320Z 23009KT 180V260 9999 FEW048 25/05
                        Q1020 NOSIG=
201508091250 METAR COR EGLL 091250Z 23011KT 9999 FEW048 24/04 Q1020 NOSIG=
201508091220 METAR COR EGLL 091220Z 25010KT 210V280 9999 FEW049 25/05
                        Q1020 NOSIG=
201508091150 METAR COR EGLL 091150Z 24010KT 210V270 CAVOK 24/07 Q1020
                        NOSIG=
201508091120 METAR COR EGLL 091120Z 26011KT CAVOK 23/09 Q1020 NOSIG=
201508091050 METAR EGLL 091050Z 25009G19KT 210V270 CAVOK 23/08 Q1020 NOSIG=
201508091020 METAR COR EGLL 091020Z 25009KT 210V270 CAVOK 23/09 Q1020
                        NOSIG=
201508090950 METAR COR EGLL 090950Z 23007KT 190V270 CAVOK 22/10 Q1021
                        NOSIG=
201508090920 METAR COR EGLL 090920Z 26007KT 210V310 CAVOK 21/10 Q1021
                        NOSIG=
201508090850 METAR EGLL 090850Z 24006KT 210V290 CAVOK 20/11 Q1021 NOSIG=
201508090820 METAR COR EGLL 090820Z 24006KT CAVOK 19/10 Q1021 NOSIG=
201508090750 METAR EGLL 090750Z VRB04KT CAVOK 18/10 Q1021 NOSIG=
201508090720 METAR COR EGLL 090720Z 21004KT 140V260 CAVOK 17/10 Q1022
                        NOSIG=
201508090650 METAR COR EGLL 090650Z 18004KT 140V230 CAVOK 16/11 Q1022
                        NOSIG=
201508090620 METAR COR EGLL 090620Z 19004KT 150V250 CAVOK 15/11 Q1022
                        NOSIG=
201508090550 METAR COR EGLL 090550Z VRB03KT CAVOK 14/11 Q1022 NOSIG=
201508090520 METAR COR EGLL 090520Z 22004KT 180V260 CAVOK 14/10 Q1021
                        NOSIG=
201508090450 METAR COR EGLL 090450Z 28002KT CAVOK 13/10 Q1021 NOSIG=
201508090420 METAR COR EGLL 090420Z 29003KT CAVOK 13/11 Q1021 NOSIG=
201508090350 METAR EGLL 090350Z 27004KT CAVOK 13/11 Q1022 NOSIG=
201508090320 METAR COR EGLL 090320Z 28005KT CAVOK 13/12 Q1022 NOSIG=
201508090250 METAR EGLL 090250Z 27005KT CAVOK 15/12 Q1022 NOSIG=
201508090220 METAR COR EGLL 090220Z 20005KT CAVOK 15/12 Q1022 NOSIG=
201508090150 METAR COR EGLL 090150Z 20006KT CAVOK 15/12 Q1022 NOSIG=
201508090120 METAR EGLL 090120Z AUTO 19006KT 9999 NCD 15/13 Q1022=
201508090050 METAR EGLL 090050Z AUTO 22004KT 9999 NCD 16/13 Q1022=
201508090020 METAR EGLL 090020Z AUTO 21005KT 9999 NCD 16/13 Q1022=
201508082350 METAR COR EGLL 082350Z 22004KT CAVOK 17/13 Q1023 NOSIG=
201508082320 METAR COR EGLL 082320Z 22005KT CAVOK 18/13 Q1023 NOSIG=
201508082250 METAR EGLL 082250Z 20004KT CAVOK 18/13 Q1023 NOSIG=
201508082220 METAR COR EGLL 082220Z 23007KT CAVOK 18/13 Q1023 NOSIG=
201508082150 METAR EGLL 082150Z 23007KT CAVOK 19/13 Q1023 NOSIG=
201508082120 METAR COR EGLL 082120Z 21008KT CAVOK 20/13 Q1022 NOSIG=
201508082050 METAR EGLL 082050Z 21009KT CAVOK 20/13 Q1022 NOSIG=
201508082020 METAR COR EGLL 082020Z 21009KT CAVOK 21/13 Q1022 NOSIG=
201508081950 METAR COR EGLL 081950Z 22008KT CAVOK 22/12 Q1022 NOSIG=
201508081920 METAR COR EGLL 081920Z 23008KT 200V260 CAVOK 23/11 Q1022
                        NOSIG=
201508081850 METAR EGLL 081850Z 23009KT CAVOK 24/11 Q1022 NOSIG=
201508081820 METAR COR EGLL 081820Z 23010KT CAVOK 25/11 Q1022 NOSIG=
201508081750 METAR COR EGLL 081750Z 23012KT CAVOK 25/10 Q1022 NOSIG=
201508081720 METAR COR EGLL 081720Z 22009KT 180V250 CAVOK 26/10 Q1022
                        NOSIG=
201508081650 METAR EGLL 081650Z 22007KT 180V260 CAVOK 26/10 Q1022 NOSIG=
201508081620 METAR COR EGLL 081620Z 25006KT 210V290 CAVOK 26/11 Q1022
                        NOSIG=
201508081550 METAR COR EGLL 081550Z VRB06KT CAVOK 26/11 Q1022 NOSIG=
201508081520 METAR COR EGLL 081520Z 21007KT 160V270 CAVOK 27/10 Q1022
                        NOSIG=
201508081450 METAR COR EGLL 081450Z 20006KT 130V250 CAVOK 26/11 Q1023
                        NOSIG=
201508081420 METAR COR EGLL 081420Z 19007KT 120V250 CAVOK 27/11 Q1023
                        NOSIG=
201508081350 METAR COR EGLL 081350Z 19008KT 9999 FEW049 26/12 Q1023 NOSIG=
201508081320 METAR EGLL 081320Z 18007KT 130V230 9999 FEW048 26/12 Q1023=
201508081250 METAR EGLL 081250Z 18005KT 140V230 9999 SCT047 25/12 Q1023=
201508081220 METAR EGLL 081220Z VRB06KT 9999 SCT044 25/12 Q1023=
201508081150 METAR COR EGLL 081150Z VRB04KT 9999 SCT044 25/13 Q1024 NOSIG=
201508081120 METAR COR EGLL 081120Z VRB04KT 9999 SCT041 24/12 Q1024 NOSIG=
201508081050 METAR EGLL 081050Z 16007KT 130V200 9999 FEW038 24/13 Q1024
                        NOSIG=
201508081020 METAR COR EGLL 081020Z 13005KT 070V180 9999 FEW035 23/13
                        Q1024 NOSIG=
201508080950 METAR EGLL 080950Z 13006KT 100V180 9999 FEW032 22/13 Q1024
                        NOSIG=
201508080920 METAR COR EGLL 080920Z 12006KT 060V150 9999 FEW028 21/13
                        Q1024 NOSIG=
201508080850 METAR EGLL 080850Z 09006KT 050V130 9999 FEW016 20/14 Q1024
                        NOSIG=
201508080820 METAR COR EGLL 080820Z 07005KT 030V130 9999 FEW014 19/14
                        Q1024 NOSIG=
201508080750 METAR EGLL 080750Z 06006KT 9999 FEW010 18/14 Q1024 NOSIG=
201508080720 METAR COR EGLL 080720Z 07005KT 040V100 9999 FEW008 17/15
                        Q1023 NOSIG=
201508080650 METAR COR EGLL 080650Z 06004KT 020V100 9999 FEW008 17/14
                        Q1023 NOSIG=
201508080620 METAR COR EGLL 080620Z 06004KT 9999 SCT008 15/14 Q1023 NOSIG=
201508080550 METAR COR EGLL 080550Z VRB03KT 9999 FEW008 15/13 Q1023 NOSIG=
201508080520 METAR COR EGLL 080520Z 01003KT 9999 FEW007 15/13 Q1022 NOSIG=
201508080450 METAR EGLL 080450Z 36003KT CAVOK 15/13 Q1022 NOSIG=
201508080420 METAR COR EGLL 080420Z 36002KT CAVOK 15/13 Q1022 NOSIG=
201508080350 METAR EGLL 080350Z VRB02KT 9999 FEW010 15/13 Q1022 NOSIG=
201508080320 METAR COR EGLL 080320Z 04003KT 9999 SCT010 15/13 Q1022 NOSIG=
201508080250 METAR EGLL 080250Z 04003KT CAVOK 15/13 Q1022 NOSIG=
201508080220 METAR COR EGLL 080220Z 05003KT CAVOK 15/14 Q1022 NOSIG=
201508080150 METAR COR EGLL 080150Z 05003KT CAVOK 16/14 Q1022 NOSIG=
201508080120 METAR EGLL 080120Z AUTO 05005KT 9999 NCD 16/13 Q1022=
201508080050 METAR EGLL 080050Z AUTO 04003KT 9999 NCD 16/14 Q1021=
201508080020 METAR EGLL 080020Z AUTO 06004KT 9999 NCD 16/13 Q1021=
201508072350 METAR COR EGLL 072350Z 06005KT CAVOK 16/13 Q1021 NOSIG=
201508072320 METAR COR EGLL 072320Z 07004KT 9999 FEW017 17/14 Q1021 NOSIG=
201508072250 METAR EGLL 072250Z 09004KT CAVOK 17/14 Q1021 NOSIG=
201508072220 METAR COR EGLL 072220Z 08006KT CAVOK 18/14 Q1020 NOSIG=
201508072150 METAR EGLL 072150Z 07008KT 050V110 CAVOK 19/13 Q1020 NOSIG=
201508072120 METAR COR EGLL 072120Z 07007KT CAVOK 21/13 Q1020 NOSIG=
201508072050 METAR EGLL 072050Z VRB03KT CAVOK 22/11 Q1020 NOSIG=
201508072020 METAR COR EGLL 072020Z 35004KT CAVOK 22/09 Q1019 NOSIG=
201508071950 METAR EGLL 071950Z 33004KT 300V010 CAVOK 22/09 Q1019 NOSIG=
201508071920 METAR COR EGLL 071920Z 32005KT CAVOK 22/09 Q1019 NOSIG=
201508071850 METAR EGLL 071850Z 30005KT CAVOK 23/09 Q1019 NOSIG=
201508071820 METAR COR EGLL 071820Z 31006KT CAVOK 23/08 Q1018 NOSIG=
201508071750 METAR EGLL 071750Z 30004KT 270V350 CAVOK 24/08 Q1018 NOSIG=
201508071720 METAR COR EGLL 071720Z 30006KT 260V340 CAVOK 24/09 Q1018
                        NOSIG=
201508071650 METAR EGLL 071650Z 31005KT 260V010 CAVOK 24/08 Q1018 NOSIG=
201508071620 METAR COR EGLL 071620Z VRB03KT CAVOK 24/08 Q1018 NOSIG=
201508071550 METAR EGLL 071550Z VRB05KT CAVOK 24/09 Q1018 NOSIG=
201508071520 METAR COR EGLL 071520Z VRB05KT CAVOK 24/09 Q1018 NOSIG=
201508071450 METAR EGLL 071450Z VRB06KT CAVOK 24/09 Q1018=
201508071420 METAR EGLL 071420Z VRB03KT CAVOK 24/09 Q1018=
201508071350 METAR COR EGLL 071350Z VRB05KT CAVOK 24/09 Q1018 NOSIG=
201508071320 METAR COR EGLL 071320Z 34004KT 260V060 CAVOK 24/09 Q1018
                        NOSIG=
201508071250 METAR EGLL 071250Z AUTO 01004KT 300V090 9999 NCD 23/09 Q1018=
201508071220 METAR COR EGLL 071220Z 28004KT 230V360 9999 FEW047 22/09
                        Q1018 NOSIG=
201508071150 METAR EGLL 071150Z VRB04KT 9999 FEW047 21/09 Q1018 NOSIG=
201508071120 METAR COR EGLL 071120Z 32004KT 270V020 9999 SCT046 20/10
                        Q1018 NOSIG=
201508071050 METAR COR EGLL 071050Z 32006KT 290V360 9999 FEW039 SCT046
                        22/09 Q1018=
201508071020 METAR COR EGLL 071020Z VRB03KT 9999 FEW036 21/10 Q1018 NOSIG=
201508070950 METAR EGLL 070950Z VRB03KT CAVOK 21/11 Q1018 NOSIG=
201508070920 METAR EGLL 070920Z AUTO VRB03KT 9999 NCD 20/11 Q1018=
201508070850 METAR COR EGLL 070850Z VRB02KT CAVOK 19/11 Q1018 NOSIG=
201508070820 METAR COR EGLL 070820Z VRB02KT CAVOK 17/11 Q1018 NOSIG=
201508070750 METAR EGLL 070750Z VRB02KT CAVOK 16/10 Q1017 NOSIG=
201508070720 METAR COR EGLL 070720Z VRB03KT 9999 SCT049 16/10 Q1017 NOSIG=
201508070650 METAR COR EGLL 070650Z VRB02KT 9999 SCT049 15/10 Q1017 NOSIG=
201508070620 METAR COR EGLL 070620Z VRB03KT 9999 BKN048 14/10 Q1017 NOSIG=
201508070550 METAR EGLL 070550Z VRB03KT 9999 BKN047 14/10 Q1017 NOSIG=
201508070520 METAR COR EGLL 070520Z VRB03KT 9999 BKN047 13/10 Q1017 NOSIG=
201508070450 METAR COR EGLL 070450Z VRB02KT 9999 BKN045 13/10 Q1016 NOSIG=
201508070420 METAR COR EGLL 070420Z VRB02KT 9999 BKN045 13/09 Q1016 NOSIG=
201508070350 METAR COR EGLL 070350Z 27002KT 9999 BKN045 13/09 Q1016 NOSIG=
201508070320 METAR COR EGLL 070320Z 27003KT 9999 BKN045 13/09 Q1016 NOSIG=
201508070250 METAR COR EGLL 070250Z VRB03KT 9999 BKN043 14/09 Q1016 NOSIG=
201508070220 METAR COR EGLL 070220Z 29004KT 9999 BKN045 14/09 Q1016 NOSIG=
201508070150 METAR EGLL 070150Z 28006KT 9999 BKN044 14/09 Q1016 NOSIG=
201508070120 METAR EGLL 070120Z AUTO 27006KT 9999 OVC043 15/09 Q1016=
201508070050 METAR EGLL 070050Z AUTO 27007KT 9999 BKN044 15/09 Q1016=
201508070020 METAR EGLL 070020Z AUTO 29004KT 9999 SCT043 14/09 Q1016=
201508062350 METAR COR EGLL 062350Z 28004KT 9999 BKN044 15/10 Q1016 NOSIG=
201508062320 METAR COR EGLL 062320Z 27006KT 9999 BKN045 15/11 Q1016 NOSIG=
201508062250 METAR EGLL 062250Z 25003KT 9999 SCT044 16/12 Q1016 NOSIG=
201508062220 METAR COR EGLL 062220Z 22006KT 9999 FEW045 16/12 Q1016 NOSIG=
201508062150 METAR EGLL 062150Z 22005KT CAVOK 17/12 Q1016 NOSIG=
201508062120 METAR COR EGLL 062120Z 23007KT CAVOK 17/12 Q1016 NOSIG=
201508062050 METAR EGLL 062050Z 22007KT CAVOK 18/12 Q1016 NOSIG=
201508062020 METAR COR EGLL 062020Z 23007KT CAVOK 18/12 Q1015 NOSIG=
201508061950 METAR EGLL 061950Z 22009KT CAVOK 19/12 Q1015 NOSIG=
201508061920 METAR COR EGLL 061920Z 23010KT 9999 FEW048 19/12 Q1015 NOSIG=
201508061850 METAR EGLL 061850Z 23012KT 9999 FEW046 20/13 Q1014 NOSIG=
201508061820 METAR COR EGLL 061820Z 22011KT 9999 FEW044 21/13 Q1014 NOSIG=
201508061750 METAR EGLL 061750Z 26008KT 9999 FEW044 22/11 Q1014 NOSIG=
201508061720 METAR EGLL 061720Z AUTO 26008KT 9999 SCT043 22/11 Q1014=
201508061650 METAR EGLL 061650Z 24009G20KT 210V280 9999 FEW045 22/11 Q1014
                        NOSIG=
201508061620 METAR COR EGLL 061620Z 25011KT 9999 FEW044 23/11 Q1014 NOSIG=
201508061550 METAR EGLL 061550Z 23010KT 190V280 9999 FEW044 22/11 Q1014
                        NOSIG=
201508061520 METAR COR EGLL 061520Z 25010KT 9999 SCT044 22/12 Q1013 NOSIG=
201508061450 METAR COR EGLL 061450Z 27011KT 230V300 9999 SCT044 24/11
                        Q1013 NOSIG=
201508061420 METAR COR EGLL 061420Z 27011KT 230V300 9999 SCT043 23/11
                        Q1013 NOSIG=
201508061350 METAR EGLL 061350Z 26013KT 220V300 9999 SCT043 23/13 Q1013
                        NOSIG=
201508061320 METAR COR EGLL 061320Z 26014KT 210V280 9999 SCT045 22/13
                        Q1013 NOSIG=
201508061250 METAR COR EGLL 061250Z 25014KT 9999 SCT042 22/13 Q1013 NOSIG=
201508061220 METAR COR EGLL 061220Z 23011G21KT 9999 SCT035 23/14 Q1012
                        NOSIG=
201508061150 METAR EGLL 061150Z 23011KT 9999 FEW031 22/14 Q1012 NOSIG=
201508061120 METAR EGLL 061120Z 23010KT 190V260 9999 SCT020 21/16 Q1013=
201508061050 METAR EGLL 061050Z 23011KT 9999 SCT036 SCT042 20/15 Q1012
                        NOSIG=
201508061020 METAR COR EGLL 061020Z 22013KT 9999 SCT025 BKN033 19/15 Q1012
                        NOSIG=
201508060950 METAR EGLL 060950Z 23013KT 9999 FEW020 BKN032 20/15 Q1012
                        NOSIG=
201508060920 METAR COR EGLL 060920Z 22012KT 9999 SCT017 SCT036 19/15 Q1012
                        NOSIG=
201508060850 METAR COR EGLL 060850Z 22011KT 9999 FEW010 BKN035 19/16 Q1012
                        NOSIG=
201508060820 METAR COR EGLL 060820Z 24012KT 9999 -RADZ SCT010 BKN030 19/15
                        Q1012 TEMPO BKN014=
201508060750 METAR COR EGLL 060750Z 23012KT 9999 FEW015 BKN034 18/15 Q1012
                        TEMPO BKN014=
201508060720 METAR COR EGLL 060720Z 24008KT 9999 FEW016 BKN030 18/15 Q1012
                        TEMPO BKN014=
201508060650 METAR EGLL 060650Z 20009KT 160V240 9999 FEW009 SCT011 BKN013
                        18/15 Q1011 TEMPO SCT013 BKN018=
201508060620 METAR COR EGLL 060620Z 20008KT 160V240 9999 BKN013 17/15
                        Q1011 TEMPO SCT014 BKN018=
201508060550 METAR EGLL 060550Z 17006G17KT 110V250 9999 BKN013 17/15 Q1011
                        TEMPO SCT013 BKN018=
201508060520 METAR COR EGLL 060520Z VRB08KT 9999 BKN014 16/14 Q1010 TEMPO
                        SCT014 BKN020=
201508060450 METAR EGLL 060450Z 16008KT 9999 BKN014 16/14 Q1010 TEMPO
                        SCT014 BKN035=
201508060420 METAR COR EGLL 060420Z 14008KT 100V160 9999 SCT014 15/13
                        Q1010 TEMPO BKN014=
201508060350 METAR EGLL 060350Z 16007KT 110V180 9999 FEW016 15/13 Q1011
                        TEMPO BKN014=
201508060320 METAR COR EGLL 060320Z 17007KT 9999 FEW034 15/12 Q1011 NOSIG=
201508060250 METAR EGLL 060250Z 19006KT 9999 FEW019 SCT024 15/12 Q1011
                        NOSIG=
201508060220 METAR COR EGLL 060220Z 17005KT 9999 FEW021 14/12 Q1010 NOSIG=
201508060150 METAR COR EGLL 060150Z 15005KT CAVOK 14/12 Q1010 NOSIG=
201508060120 METAR EGLL 060120Z AUTO 18005KT 9999 FEW033 14/12 Q1011=
201508060050 METAR EGLL 060050Z AUTO 17006KT 9999 FEW033 15/13 Q1011=
201508060020 METAR EGLL 060020Z AUTO 15002KT 9999 NCD 14/13 Q1010=
201508052350 METAR EGLL 052350Z 14003KT CAVOK 15/14 Q1010 NOSIG=
201508052320 METAR COR EGLL 052320Z VRB02KT CAVOK 16/14 Q1011 NOSIG=
201508052250 METAR EGLL 052250Z 14004KT CAVOK 16/14 Q1011 NOSIG=
201508052220 METAR COR EGLL 052220Z 11005KT CAVOK 16/14 Q1011 NOSIG=
201508052150 METAR EGLL 052150Z 10005KT 010V150 9999 FEW048 15/14 Q1011
                        NOSIG=
201508052120 METAR COR EGLL 052120Z 07004KT 040V110 9999 FEW048 15/14
                        Q1011 NOSIG=
201508052050 METAR EGLL 052050Z 09005KT 9999 FEW048 15/13 Q1011 RESHRA
                        NOSIG=
201508052020 METAR COR EGLL 052020Z 09004KT 070V150 8000 SHRA SCT030CB
                        15/13 Q1012 BECMG NSW=
201508051950 METAR COR EGLL 051950Z 11004KT 9999 FEW048CB 15/13 Q1011
                        TEMPO TSRA=
201508051920 METAR COR EGLL 051920Z 15005KT 130V190 9999 -SHRA FEW048
                        15/13 Q1012 TEMPO TSRA=
201508051850 METAR EGLL 051850Z VRB03KT 9999 FEW033 15/12 Q1011 TEMPO
                        TSRA=
201508051820 METAR COR EGLL 051820Z VRB02KT 9999 FEW046 15/10 Q1011 TEMPO
                        SHRA=
201508051750 METAR EGLL 051750Z 28006KT 240V300 9999 FEW046 15/12 Q1012
                        TEMPO SHRA=
201508051720 METAR EGLL 051720Z AUTO 28010KT 9999 -RA FEW036/// SCT099///
                        //////TCU 16/13 Q1012 RESHRA=
201508051650 METAR COR EGLL 051650Z 24009KT 8000 SHRA SCT038 SCT046 16/14
                        Q1012 TEMPO -SHRA=
201508051620 METAR COR EGLL 051620Z 22007KT 9999 -SHRA SCT045 17/13 Q1011
                        RESHRA TEMPO SHRA=
201508051550 METAR COR EGLL 051550Z 21008KT 180V250 9999 6000SW SHRA FEW033
                        SCT047 18/12 Q1011 TEMPO -SHRA=
201508051520 METAR COR EGLL 051520Z 18009KT 150V220 9999 -SHRA FEW040
                        19/12 Q1011 TEMPO SHRA=
201508051450 METAR COR EGLL 051450Z 18012KT CAVOK 20/10 Q1012 TEMPO SHRA=
201508051420 METAR COR EGLL 051420Z 17010KT 140V210 CAVOK 21/09 Q1012
                        TEMPO SHRA=
201508051350 METAR COR EGLL 051350Z 16008KT 120V260 9999 FEW040 21/11
                        Q1012 TEMPO SHRA=
201508051320 METAR COR EGLL 051320Z VRB06KT 9999 FEW040 21/11 Q1012 NOSIG=
201508051250 METAR EGLL 051250Z AUTO 22006KT 160V320 9999 NCD 21/11 Q1013=
201508051220 METAR COR EGLL 051220Z 21004KT 150V250 9999 FEW039 19/12
                        Q1012 NOSIG=
201508051150 METAR COR EGLL 051150Z 25009KT 220V290 9999 SCT039 19/13
                        Q1014 NOSIG=
201508051120 METAR COR EGLL 051120Z 23007KT 9999 SCT042 19/12 Q1013 NOSIG=
201508051050 METAR COR EGLL 051050Z 19007G17KT 170V240 9999 FEW032 19/13
                        Q1014 NOSIG=
201508051020 METAR COR EGLL 051020Z 15009KT 130V210 9999 -RA FEW035 SCT040
                        19/12 Q1014 NOSIG=
201508050950 METAR EGLL 050950Z 17008KT 130V230 9999 FEW040 19/12 Q1014
                        TEMPO SHRA=
201508050920 METAR COR EGLL 050920Z 16006KT 110V240 9999 FEW030 SCT042
                        19/11 Q1015 NOSIG=
201508050850 METAR COR EGLL 050850Z 20006KT 140V260 9999 FEW043 BKN049
                        19/11 Q1015 NOSIG=
201508050820 METAR COR EGLL 050820Z 18005KT 130V250 9999 FEW048 18/12
                        Q1015 NOSIG=
201508050750 METAR EGLL 050750Z 18006KT 140V240 9999 FEW048 17/12 Q1015
                        NOSIG=
201508050720 METAR COR EGLL 050720Z 17007KT 140V220 CAVOK 17/12 Q1015
                        NOSIG=
201508050650 METAR EGLL 050650Z 18007KT 140V220 CAVOK 16/12 Q1015 NOSIG=
201508050620 METAR COR EGLL 050620Z 17005KT 130V240 CAVOK 16/12 Q1015
                        NOSIG=
201508050550 METAR EGLL 050550Z 19006KT 160V220 CAVOK 15/11 Q1015 NOSIG=
201508050520 METAR COR EGLL 050520Z 18007KT 130V220 CAVOK 15/11 Q1015
                        NOSIG=
201508050450 METAR COR EGLL 050450Z 18006KT 160V230 CAVOK 15/11 Q1015
                        NOSIG=
201508050420 METAR COR EGLL 050420Z 20008KT CAVOK 15/11 Q1015 NOSIG=
201508050350 METAR EGLL 050350Z 19008KT CAVOK 15/12 Q1015 NOSIG=
201508050320 METAR COR EGLL 050320Z 20006KT CAVOK 15/12 Q1015 NOSIG=
201508050250 METAR COR EGLL 050250Z 19007KT CAVOK 15/12 Q1015 NOSIG=
201508050220 METAR COR EGLL 050220Z 22006KT CAVOK 15/11 Q1015 NOSIG=
201508050150 METAR EGLL 050150Z 21006KT CAVOK 15/11 Q1015 NOSIG=
201508050120 METAR EGLL 050120Z AUTO 20005KT 9999 NCD 15/11 Q1015=
201508050050 METAR EGLL 050050Z AUTO 21006KT 9999 NCD 15/11 Q1015=
201508050020 METAR EGLL 050020Z AUTO 20007KT 9999 NCD 15/11 Q1015=
201508042350 METAR COR EGLL 042350Z 20007KT CAVOK 15/10 Q1015 NOSIG=
201508042320 METAR COR EGLL 042320Z 21007KT CAVOK 15/10 Q1015 NOSIG=
201508042250 METAR EGLL 042250Z 21007KT CAVOK 15/10 Q1016 NOSIG=
201508042220 METAR COR EGLL 042220Z 22007KT 190V250 CAVOK 15/09 Q1016
                        NOSIG=
201508042150 METAR COR EGLL 042150Z 22009KT CAVOK 16/09 Q1016 NOSIG=
201508042120 METAR COR EGLL 042120Z 22010KT CAVOK 16/09 Q1016 NOSIG=
201508042050 METAR EGLL 042050Z 22011KT CAVOK 16/10 Q1015 NOSIG=
201508042020 METAR COR EGLL 042020Z 22012KT CAVOK 16/11 Q1015 NOSIG=
201508041950 METAR COR EGLL 041950Z 22012KT CAVOK 17/10 Q1015 NOSIG=
201508041920 METAR COR EGLL 041920Z 21014KT CAVOK 17/10 Q1014 NOSIG=
201508041850 METAR EGLL 041850Z 22013KT 9999 FEW048 18/10 Q1014 NOSIG=
201508041820 METAR COR EGLL 041820Z 21014KT CAVOK 19/10 Q1014 NOSIG=
201508041750 METAR COR EGLL 041750Z 23014KT CAVOK 20/09 Q1014 NOSIG=
201508041720 METAR EGLL 041720Z AUTO 23015KT 9999 NCD 21/07 Q1014=
201508041650 METAR EGLL 041650Z 23016KT 9999 FEW049 21/08 Q1014 NOSIG=
201508041620 METAR COR EGLL 041620Z 24015KT 9999 SCT047 21/09 Q1013 NOSIG=
201508041550 METAR EGLL 041550Z 23015KT 9999 SCT048 20/08 Q1013 NOSIG=
201508041520 METAR COR EGLL 041520Z 24016KT 9999 FEW047 21/09 Q1013 NOSIG=
201508041450 METAR COR EGLL 041450Z 23015KT 200V260 CAVOK 21/08 Q1013
                        NOSIG=
201508041420 METAR COR EGLL 041420Z 23014KT 9999 FEW045 21/08 Q1013 NOSIG=
201508041350 METAR COR EGLL 041350Z 23017KT 9999 FEW040 21/09 Q1013 NOSIG=
201508041320 METAR COR EGLL 041320Z 23019KT 9999 VCSH FEW040 21/10 Q1013
                        NOSIG=
201508041250 METAR COR EGLL 041250Z 23017KT CAVOK 21/09 Q1013 NOSIG=
201508041220 METAR COR EGLL 041220Z 25018KT 9999 SCT040 19/11 Q1013 NOSIG=
201508041150 METAR COR EGLL 041150Z 23016KT 9999 FEW044 20/09 Q1013 NOSIG=
201508041120 METAR COR EGLL 041120Z 24017KT 9999 FEW044 20/09 Q1013 NOSIG=
201508041050 METAR EGLL 041050Z 24015KT 9999 FEW044 20/09 Q1013 NOSIG=
201508041020 METAR COR EGLL 041020Z 24017KT 9999 SCT044 19/10 Q1013 NOSIG=
201508040950 METAR EGLL 040950Z 25015G25KT 9999 SCT044 20/09 Q1013 NOSIG=
201508040920 METAR COR EGLL 040920Z 25017KT 9999 FEW040 20/08 Q1012 NOSIG=
201508040850 METAR EGLL 040850Z 24016KT 9999 FEW040 19/09 Q1012 NOSIG=
201508040820 METAR COR EGLL 040820Z 24015KT 9999 FEW032 18/10 Q1012 NOSIG=
201508040750 METAR EGLL 040750Z 24015KT 9999 FEW032 18/10 Q1012 NOSIG=
201508040720 METAR COR EGLL 040720Z 24014KT 9999 FEW024 17/11 Q1012 NOSIG=
201508040650 METAR EGLL 040650Z 24010KT CAVOK 16/11 Q1012 NOSIG=
201508040620 METAR COR EGLL 040620Z 23010KT CAVOK 15/11 Q1012 NOSIG=
201508040550 METAR EGLL 040550Z 23012KT CAVOK 14/11 Q1012 NOSIG=
201508040520 METAR COR EGLL 040520Z 22008KT CAVOK 14/11 Q1012 NOSIG=
201508040450 METAR EGLL 040450Z 22006KT CAVOK 13/11 Q1012 NOSIG=
201508040420 METAR COR EGLL 040420Z 21008KT CAVOK 14/11 Q1012 NOSIG=
201508040350 METAR EGLL 040350Z 23009KT CAVOK 14/11 Q1012 NOSIG=
201508040320 METAR COR EGLL 040320Z 23009KT CAVOK 14/11 Q1012 NOSIG=
201508040250 METAR EGLL 040250Z 23010KT CAVOK 15/11 Q1011 NOSIG=
201508040220 METAR COR EGLL 040220Z 23010KT CAVOK 15/11 Q1011 NOSIG=
201508040150 METAR EGLL 040150Z 24009KT CAVOK 16/12 Q1011 NOSIG=
201508040120 METAR EGLL 040120Z AUTO 23009KT 9999 NCD 17/12 Q1011=
201508040050 METAR EGLL 040050Z AUTO 23008KT 9999 SCT023 17/12 Q1011=
201508040020 METAR EGLL 040020Z AUTO 22008KT 190V250 9999 NCD 17/12 Q1011=
201508032350 METAR COR EGLL 032350Z 22009KT CAVOK 17/12 Q1011 NOSIG=
201508032320 METAR COR EGLL 032320Z 21009KT CAVOK 17/12 Q1011 NOSIG=
201508032250 METAR COR EGLL 032250Z 21009KT 190V250 9999 FEW048 17/13
                        Q1011 NOSIG=
201508032220 METAR COR EGLL 032220Z 21010KT 180V250 9999 BKN048 18/13
                        Q1011 NOSIG=
201508032150 METAR EGLL 032150Z 21008KT 9999 FEW045 18/12 Q1011 NOSIG=
201508032120 METAR COR EGLL 032120Z 22009KT CAVOK 18/12 Q1011 NOSIG=
201508032050 METAR EGLL 032050Z 20010KT 170V260 CAVOK 18/14 Q1011 NOSIG=
201508032020 METAR COR EGLL 032020Z 22009KT CAVOK 18/14 Q1011 NOSIG=
201508031950 METAR EGLL 031950Z 20009KT 9999 FEW025 18/14 Q1011 NOSIG=
201508031920 METAR COR EGLL 031920Z 20009KT 9999 FEW025 19/14 Q1011 NOSIG=
201508031850 METAR COR EGLL 031850Z 19011KT 9999 FEW030 19/14 Q1011 NOSIG=
201508031820 METAR COR EGLL 031820Z 19013KT 9999 FEW030 20/14 Q1011 NOSIG=
201508031750 METAR EGLL 031750Z 20014KT 9999 FEW030 20/14 Q1010 NOSIG=
201508031720 METAR COR EGLL 031720Z 19013KT 9999 FEW028 20/14 Q1010 NOSIG=
201508031650 METAR COR EGLL 031650Z 20013KT 9999 FEW028 21/14 Q1011 NOSIG=
201508031620 METAR COR EGLL 031620Z 19014KT 9999 FEW030 21/14 Q1011 NOSIG=
201508031550 METAR EGLL 031550Z 19015KT 9999 FEW034 21/14 Q1011 NOSIG=
201508031520 METAR COR EGLL 031520Z 20014G25KT 170V240 9999 FEW033 22/14
                        Q1011 NOSIG=
201508031450 METAR EGLL 031450Z 22013KT 190V260 9999 SCT030 22/14 Q1011
                        NOSIG=
201508031420 METAR COR EGLL 031420Z 22014KT 9999 SCT030 BKN034 23/14 Q1011
                        NOSIG=
201508031350 METAR EGLL 031350Z 21015KT 9999 BKN032 22/14 Q1011 NOSIG=
201508031320 METAR COR EGLL 031320Z 21015KT 180V250 9999 SCT034 BKN045
                        22/14 Q1011 NOSIG=
201508031250 METAR EGLL 031250Z 22015KT 9999 SCT038 23/14 Q1011 NOSIG=
201508031220 METAR COR EGLL 031220Z 22016KT 9999 SCT040 24/14 Q1011 NOSIG=
201508031150 METAR EGLL 031150Z 23016KT 9999 FEW035 SCT042 23/13 Q1011
                        NOSIG=
201508031120 METAR COR EGLL 031120Z 23014KT 200V270 9999 BKN038 23/13
                        Q1011 NOSIG=
201508031050 METAR COR EGLL 031050Z 22015KT 9999 FEW033 SCT042 22/14 Q1011
                        NOSIG=
201508031020 METAR COR EGLL 031020Z 21012KT 190V250 9999 SCT045 22/15
                        Q1011 NOSIG=
201508030950 METAR COR EGLL 030950Z 22014KT 9999 FEW027 BKN045 21/15 Q1011
                        NOSIG=
201508030920 METAR COR EGLL 030920Z 22013KT 9999 SCT027 SCT031 21/15 Q1011
                        NOSIG=
201508030850 METAR COR EGLL 030850Z 22014KT 9999 FEW020 BKN040 21/15 Q1011
                        NOSIG=
201508030820 METAR COR EGLL 030820Z 22012KT 190V250 9999 FEW020 BKN040
                        20/15 Q1011 NOSIG=
201508030750 METAR COR EGLL 030750Z 22010KT 9999 FEW017 SCT033 20/15 Q1011
                        NOSIG=
201508030720 METAR COR EGLL 030720Z 22009KT 9999 FEW014 SCT018 BKN030
                        19/16 Q1011 NOSIG=
201508030650 METAR EGLL 030650Z 22009KT 9999 SCT012 BKN028 18/15 Q1011
                        NOSIG=
201508030620 METAR COR EGLL 030620Z 22010KT 9999 BKN012 BKN027 18/15 Q1010
                        TEMPO SCT012=
201508030550 METAR EGLL 030550Z 21007KT 160V250 9999 FEW014 17/14 Q1010
                        TEMPO BKN014=
201508030520 METAR COR EGLL 030520Z 20006KT 170V250 9999 FEW012 16/13
                        Q1010 TEMPO BKN012=
201508030450 METAR EGLL 030450Z VRB03KT CAVOK 16/12 Q1009 TEMPO BKN012=
201508030420 METAR COR EGLL 030420Z 19005KT 170V250 CAVOK 15/11 Q1009
                        TEMPO BKN012=
201508030350 METAR EGLL 030350Z VRB03KT CAVOK 16/11 Q1009 TEMPO BKN012=
201508030320 METAR COR EGLL 030320Z 19003KT CAVOK 16/10 Q1009 TEMPO BKN012=
201508030250 METAR EGLL 030250Z 18004KT CAVOK 17/10 Q1009 TEMPO BKN012=
201508030220 METAR COR EGLL 030220Z 15005KT CAVOK 16/10 Q1009 BECMG 21010KT=
201508030150 METAR COR EGLL 030150Z 11003KT CAVOK 16/09 Q1009 BECMG 21010KT=
201508030120 METAR EGLL 030120Z AUTO VRB02KT 9999 NCD 17/09 Q1009=
201508030050 METAR EGLL 030050Z AUTO 09005KT 9999 NCD 17/09 Q1010=
201508030020 METAR EGLL 030020Z AUTO 10007KT 9999 NCD 17/09 Q1010=
201508022350 METAR EGLL 022350Z 09008KT CAVOK 18/09 Q1010 NOSIG=
201508022320 METAR COR EGLL 022320Z 10009KT CAVOK 18/09 Q1011 NOSIG=
201508022250 METAR EGLL 022250Z 10009KT CAVOK 19/09 Q1011 NOSIG=
201508022220 METAR COR EGLL 022220Z 10009KT CAVOK 19/10 Q1012 NOSIG=
201508022150 METAR EGLL 022150Z 10008KT CAVOK 20/09 Q1012 NOSIG=
201508022120 METAR COR EGLL 022120Z 10008KT CAVOK 20/09 Q1012 NOSIG=
201508022050 METAR EGLL 022050Z 10007KT CAVOK 20/09 Q1013 NOSIG=
201508022020 METAR COR EGLL 022020Z 10007KT CAVOK 20/08 Q1013 NOSIG=
201508021950 METAR EGLL 021950Z 12008KT CAVOK 20/07 Q1013 NOSIG=
201508021920 METAR COR EGLL 021920Z 13008KT CAVOK 22/06 Q1013 NOSIG=
201508021850 METAR COR EGLL 021850Z 14007KT CAVOK 24/06 Q1013 NOSIG=
201508021820 METAR COR EGLL 021820Z 15009KT CAVOK 24/07 Q1013 NOSIG=
201508021750 METAR COR EGLL 021750Z 16010KT CAVOK 24/07 Q1014 NOSIG=
201508021720 METAR COR EGLL 021720Z 16012KT CAVOK 25/08 Q1014 NOSIG=
201508021650 METAR EGLL 021650Z 17012KT CAVOK 25/07 Q1014 NOSIG=
201508021620 METAR COR EGLL 021620Z 17012KT 140V210 CAVOK 25/07 Q1014
                        NOSIG=
201508021550 METAR COR EGLL 021550Z 16011KT 130V200 CAVOK 26/06 Q1015
                        NOSIG=
201508021520 METAR COR EGLL 021520Z 18011KT 140V200 CAVOK 25/06 Q1015
                        NOSIG=
201508021450 METAR EGLL 021450Z 19011KT 150V220 CAVOK 26/07 Q1015 NOSIG=
201508021420 METAR COR EGLL 021420Z 15010KT CAVOK 25/08 Q1016 NOSIG=
201508021350 METAR EGLL 021350Z 18010KT 140V220 CAVOK 25/08 Q1016 NOSIG=
201508021320 METAR COR EGLL 021320Z 17010KT 140V210 CAVOK 24/08 Q1016
                        NOSIG=
201508021250 METAR COR EGLL 021250Z 18010KT CAVOK 24/09 Q1017 NOSIG=
201508021220 METAR COR EGLL 021220Z 17007KT 120V220 CAVOK 23/10 Q1017
                        NOSIG=
201508021150 METAR EGLL 021150Z 17009KT 140V220 9999 FEW048 23/10 Q1017
                        NOSIG=
201508021120 METAR COR EGLL 021120Z 16008KT 130V200 9999 FEW035 22/11
                        Q1018 NOSIG=
201508021050 METAR EGLL 021050Z 18009KT 9999 FEW024 21/12 Q1018 NOSIG=
201508021020 METAR COR EGLL 021020Z 14007KT 9999 FEW023 20/12 Q1018 NOSIG=
201508020950 METAR EGLL 020950Z 16006KT 100V220 9999 FEW020 19/13 Q1018
                        NOSIG=
201508020920 METAR COR EGLL 020920Z 18008KT 130V210 9999 FEW014 18/13
                        Q1019 NOSIG=
201508020850 METAR EGLL 020850Z 16005KT 120V190 9999 FEW016 18/13 Q1019
                        NOSIG=
201508020820 METAR COR EGLL 020820Z 18006KT 9999 FEW016 17/13 Q1019 NOSIG=
201508020750 METAR EGLL 020750Z 17004KT 140V230 9999 FEW006 15/13 Q1019
                        NOSIG=
201508020720 METAR COR EGLL 020720Z VRB03KT 9999 FEW006 14/13 Q1019 NOSIG=
201508020650 METAR EGLL 020650Z AUTO 21007KT 180V260 9999 FEW005 14/12
                        Q1019=
201508020620 METAR EGLL 020620Z AUTO 21005KT 180V250 9999 NCD 14/12 Q1019=
201508020550 METAR EGLL 020550Z AUTO VRB04KT 9999 NCD 13/12 Q1019=
201508020520 METAR COR EGLL 020520Z 18004KT 130V230 CAVOK 12/11 Q1018
                        NOSIG=
201508020450 METAR EGLL 020450Z VRB03KT CAVOK 12/11 Q1018 NOSIG=
201508020420 METAR COR EGLL 020420Z VRB03KT CAVOK 12/11 Q1018 NOSIG=
201508020350 METAR EGLL 020350Z VRB03KT CAVOK 12/11 Q1018 NOSIG=
201508020320 METAR COR EGLL 020320Z 18003KT CAVOK 12/11 Q1018 NOSIG=
201508020250 METAR EGLL 020250Z 17004KT CAVOK 13/11 Q1018 NOSIG=
201508020220 METAR COR EGLL 020220Z 18004KT CAVOK 13/11 Q1018 NOSIG=
201508020150 METAR COR EGLL 020150Z 18003KT CAVOK 13/12 Q1018 NOSIG=
201508020120 METAR EGLL 020120Z AUTO 22003KT 9999 NCD 13/11 Q1018=
201508020050 METAR EGLL 020050Z AUTO VRB02KT 9999 NCD 14/12 Q1019=
201508020020 METAR EGLL 020020Z AUTO 21004KT 9999 NCD 14/12 Q1019=
201508012350 METAR COR EGLL 012350Z 23007KT CAVOK 14/12 Q1018 NOSIG=
201508012320 METAR COR EGLL 012320Z 22006KT CAVOK 15/12 Q1018 NOSIG=
201508012250 METAR EGLL 012250Z 21006KT CAVOK 15/12 Q1018 NOSIG=
201508012220 METAR COR EGLL 012220Z 21007KT CAVOK 16/11 Q1018 NOSIG=
201508012150 METAR COR EGLL 012150Z 23008G18KT 9999 FEW021 16/11 Q1018
                        NOSIG=
201508012120 METAR COR EGLL 012120Z 25009KT CAVOK 17/11 Q1018 NOSIG=
201508012050 METAR EGLL 012050Z 25009KT CAVOK 18/11 Q1018 NOSIG=
201508012020 METAR COR EGLL 012020Z 26008KT CAVOK 18/10 Q1017 NOSIG=
201508011950 METAR COR EGLL 011950Z 28010KT CAVOK 18/10 Q1017 NOSIG=
201508011920 METAR COR EGLL 011920Z 25009KT CAVOK 19/10 Q1017 NOSIG=
201508011850 METAR EGLL 011850Z 27010KT 9999 FEW044 20/10 Q1016 NOSIG=
201508011820 METAR COR EGLL 011820Z 28009KT 9999 FEW043 20/09 Q1016 NOSIG=
201508011750 METAR EGLL 011750Z 27011KT 9999 FEW044 21/09 Q1016 NOSIG=
201508011720 METAR COR EGLL 011720Z 25012KT 9999 SCT043 21/09 Q1016 NOSIG=
201508011650 METAR EGLL 011650Z 25011KT 210V270 9999 FEW046 21/09 Q1016
                        NOSIG=
201508011620 METAR COR EGLL 011620Z 25009KT 220V280 9999 FEW046 20/09
                        Q1016 NOSIG=
201508011550 METAR EGLL 011550Z 27013KT 9999 FEW046 20/09 Q1017 NOSIG=
201508011520 METAR COR EGLL 011520Z 27012KT 9999 FEW045 21/09 Q1017 NOSIG=
201508011450 METAR EGLL 011450Z 26012KT 220V290 9999 FEW047 21/08 Q1016
                        NOSIG=
201508011420 METAR COR EGLL 011420Z 25011KT 230V290 9999 FEW048 21/08
                        Q1016 NOSIG=
201508011350 METAR EGLL 011350Z 26009KT 9999 BKN047 20/08 Q1016 NOSIG=
201508011320 METAR COR EGLL 011320Z 25009KT 210V300 9999 FEW049 20/08
                        Q1016 NOSIG=
201508011250 METAR EGLL 011250Z 25008KT 230V300 9999 FEW049 20/07 Q1016
                        NOSIG=
201508011220 METAR COR EGLL 011220Z 24008KT 210V290 9999 FEW049 20/07
                        Q1016 NOSIG=
201508011150 METAR EGLL 011150Z 22005KT 160V270 9999 FEW044 20/08 Q1016
                        NOSIG=
201508011120 METAR COR EGLL 011120Z 22007KT 130V270 9999 FEW044 20/08
                        Q1016 NOSIG=
201508011050 METAR COR EGLL 011050Z 24007KT 190V270 9999 FEW041 19/08
                        Q1016 NOSIG=
201508011020 METAR COR EGLL 011020Z 25005KT 190V330 9999 FEW036 18/09
                        Q1017 NOSIG=
201508010950 METAR EGLL 010950Z VRB05KT 9999 FEW033 18/07 Q1017 NOSIG=
201508010920 METAR COR EGLL 010920Z 23005KT 180V360 9999 FEW032 17/09
                        Q1017 NOSIG=
201508010850 METAR EGLL 010850Z 30004KT 250V330 9999 FEW028 16/09 Q1017
                        NOSIG=
201508010820 METAR COR EGLL 010820Z 26005KT 220V310 CAVOK 16/09 Q1017
                        NOSIG=
201508010750 METAR COR EGLL 010750Z 28004KT 240V300 CAVOK 15/09 Q1017
                        NOSIG=
201508010720 METAR COR EGLL 010720Z 26005KT 220V310 CAVOK 14/09 Q1016
                        NOSIG=
201508010650 METAR EGLL 010650Z VRB03KT CAVOK 13/09 Q1016 NOSIG=
201508010620 METAR COR EGLL 010620Z VRB02KT CAVOK 12/09 Q1016 NOSIG=
201508010550 METAR EGLL 010550Z 23004KT 190V270 CAVOK 11/08 Q1016 NOSIG=
201508010520 METAR COR EGLL 010520Z VRB02KT CAVOK 10/08 Q1016 NOSIG=
201508010450 METAR EGLL 010450Z VRB03KT CAVOK 10/08 Q1016 NOSIG=
201508010420 METAR COR EGLL 010420Z VRB03KT CAVOK 10/07 Q1016 NOSIG=
201508010350 METAR EGLL 010350Z VRB02KT CAVOK 10/07 Q1016 NOSIG=
201508010320 METAR COR EGLL 010320Z 22004KT CAVOK 11/07 Q1016 NOSIG=
201508010250 METAR EGLL 010250Z 20004KT CAVOK 11/08 Q1016 NOSIG=
201508010220 METAR COR EGLL 010220Z 19004KT CAVOK 11/08 Q1016 NOSIG=
201508010150 METAR COR EGLL 010150Z 23003KT CAVOK 11/07 Q1016 NOSIG=
201508010120 METAR EGLL 010120Z AUTO 25004KT 9999 NCD 12/07 Q1016=
201508010050 METAR EGLL 010050Z AUTO 23005KT 9999 NCD 13/07 Q1016=
201508010020 METAR EGLL 010020Z AUTO 21005KT 9999 NCD 13/08 Q1016=

</pre>

</body>
</html>
