##########################################################
# Query made at 12/27/2012 10:48:37 UTC
# Time interval: from 08/01/2008 00:00  to 08/31/2008 23:59  UTC
##########################################################

##########################################################
# EGLL, London / Heathrow Airport (United Kingdom)
# WMO index: 03772
# Latitude 51-29N. Longitude 000-27W. Altitude 24 m.
##########################################################

###################################
#  METAR/SPECI from EGLL
###################################
200808312350 METAR COR EGLL 312350Z 25010KT CAVOK 14/12 Q1012 NOSIG=
200808312320 METAR COR EGLL 312320Z 26012KT CAVOK 15/13 Q1012 NOSIG=
200808312250 METAR EGLL 312250Z 26013KT 9999 FEW041 16/13 Q1012 NOSIG=
200808312220 METAR EGLL 312220Z 26013KT 9999 SCT030 16/14 Q1011 NOSIG=
200808312150 METAR EGLL 312150Z 26011KT 9999 FEW015 SCT030 17/14 Q1011
                        NOSIG=
200808312120 METAR COR EGLL 312120Z 25012KT 9999 OVC017 16/14 Q1011 NOSIG=
200808312050 METAR EGLL 312050Z 25011KT 9999 FEW014 SCT020 16/14 Q1011
                        NOSIG=
200808312020 METAR COR EGLL 312020Z 26011KT 9999 FEW037 16/15 Q1010 NOSIG=
200808311950 METAR COR EGLL 311950Z 27011KT 8000 -RA SCT017 SCT036 16/15
                        Q1010 NOSIG=
200808311920 METAR COR EGLL 311920Z 28009KT 8000 -RA SCT008 BKN025 17/16
                        Q1010 NOSIG=
200808311850 METAR COR EGLL 311850Z 27011KT 4400 -RA SCT005 SCT021 17/14
                        Q1009 RERA BECMG 6000 NSW=
200808311820 METAR COR EGLL 311820Z 27011KT 4100 RA SCT005 BKN011 18/16
                        Q1009 BECMG 6000 NSW BKN016=
200808311750 METAR COR EGLL 311750Z 18007KT 090V230 6000 2000W -RA SCT006
                        BKN008 19/17 Q1009 TEMPO 2000 TSRA=
200808311720 METAR COR EGLL 311720Z 19010KT 170V230 8000 FEW007 BKN009CB
                        20/18 Q1009 BECMG BKN020=
200808311650 METAR COR EGLL 311650Z 18009KT 160V240 8000 SCT007 SCT011CB
                        BKN030CB 20/18 Q1008 BECMG SCT030=
200808311620 METAR EGLL 311620Z 16010KT 9000 BKN009CB 20/18 Q1009 BECMG
                        SCT030=
200808311550 METAR EGLL 311550Z 16009KT 120V190 7000 3000NW VCSH FEW004
                        SCT010 FEW030CB 20/19 Q1009 RERA
                        NOSIG=
200808311520 METAR COR EGLL 311520Z 00000KT 7000 VCTS SCT023 SCT030CB
                        BKN049 22/18 Q1009 TEMPO 3000 TSRA=
200808311450 METAR COR EGLL 311450Z VRB03KT 7000 SCT017 SCT036 22/18 Q1009
                        NOSIG=
200808311420 METAR COR EGLL 311420Z 15004KT 100V230 6000 SCT010 SCT013
                        22/19 Q1010 NOSIG=
200808311350 METAR COR EGLL 311350Z 16004KT 120V240 3500 HZ FEW006 22/19
                        Q1009 BECMG 6000 NSW=
200808311320 METAR COR EGLL 311320Z 08005KT 050V140 2300 BR SCT008 20/18
                        Q1009 BECMG 6000 NSW=
200808311250 METAR COR EGLL 311250Z 09006KT 070V130 2100 -RA SCT004 BKN008
                        19/18 Q1009 BECMG 6000 BKN015=
200808311220 METAR EGLL 311220Z 09006KT 060V130 2200 -RA FEW004 BKN006
                        19/17 Q1010 BECMG 6000 BKN015=
200808311150 METAR COR EGLL 311150Z 09007KT 070V130 1600 -RA BKN004 18/17
                        Q1010 BECMG 6000 NSW SCT025=
200808311120 METAR COR EGLL 311120Z 09008KT 070V170 2100 BR FEW004 18/17
                        Q1010 RESHRA TEMPO SHRA BKN014CB=
200808311050 METAR COR EGLL 311050Z 36004KT 1600 SHRA FEW002 18/16 Q1009
                        BECMG 5000 NSW=
200808311020 METAR COR EGLL 311020Z 30005KT 2100 BR FEW026 18/17 Q1010
                        BECMG 6000 NSW=
200808310950 METAR COR EGLL 310950Z VRB03KT 1900 BR NSC 17/16 Q1011 BECMG
                        5000 NSW=
200808310920 METAR EGLL 310920Z 30004KT 1100 R27L/P1500 R27R/P1500 -SHRA
                        FEW002 17/16 Q1011 RESHRA BECMG 3000
                        BR=
200808310850 METAR COR EGLL 310850Z 31004KT 280V340 1100 R27L/P1500 R27R/1500
                        SHRA FEW001 SCT004 16/15 Q1011 BECMG
                        6000 NSW=
200808310820 METAR COR EGLL 310820Z 28004KT 250V310 1200 R27L/P1500 R27R/1300
                        SHRA FEW002 SCT004 FEW030CB 16/15
                        Q1012 BECMG 5000 NSW=
200808310750 METAR COR EGLL 310750Z 22007KT 190V260 1000 R27L/P1500 R27R/P1500
                        - SHRA FEW003 SCT004 FEW042CB 16/15
                        Q1012 RESHRA RETS TEMPO +SHRA TSRA=
200808310720 METAR COR EGLL 310720Z VRB03KT 1200 R27L/P1500 R27R/P1500
                        -SHRA NSC 16/15 Q1011 TEMPO +SHRA
                        TSRA=
200808310650 METAR COR EGLL 310650Z 06003KT 0900 0400NW R27L/P1500 R27R/1500
                        FG NSC 16/15 Q1010 BECMG 1500 BR=
200808310620 METAR COR EGLL 310620Z VRB03KT 1000 0500N R27L/P1500 R27R/1100
                        FG NSC 16/14 Q1010 TEMPO 0700 FG=
200808310550 METAR COR EGLL 310550Z VRB02KT 1400 1000N R27L/P1500 R27R/P1500
                        BR NSC 15/14 Q1010 TEMPO 0700 FG=
200808310520 METAR COR EGLL 310520Z VRB02KT 0900 0500NW R27L/P1500 R27R/P1500
                        FG FEW001 15/14 Q1010 TEMPO 0600
                        FG=
200808310450 METAR COR EGLL 310450Z 32002KT 1600 1100N R27L/P1500 BR NSC
                        15/14 Q1011 BECMG 1000 MIFG=
200808310420 METAR EGLL 310420Z 30002KT 1700 1400W R27L/P1500 BR NSC 15/14
                        Q1011 BECMG 1000 MIFG=
200808310350 METAR COR EGLL 310350Z 01002KT 1700 BR NSC 15/14 Q1010 BECMG
                        1200 MIFG=
200808310320 METAR COR EGLL 310320Z VRB03KT 1900 BR NSC 15/14 Q1010 BECMG
                        1200=
200808310250 METAR COR EGLL 310250Z 36003KT 1900 BR NSC 15/14 Q1011 BECMG
                        1200 BR=
200808310220 METAR EGLL 310220Z 36004KT 2200 HZ NSC 16/14 Q1011 NOSIG=
200808310150 METAR COR EGLL 310150Z 35002KT 2000 HZ NSC 16/15 Q1011 NOSIG=
200808310120 METAR EGLL 310120Z AUTO 01002KT 1200NDV R09R/P1500 HZ NCD
                        16/15 Q1011=
200808310050 METAR EGLL 310050Z AUTO 07002KT 1600NDV HZ NCD 16/15 Q1012=
200808310020 METAR EGLL 310020Z AUTO 07003KT 1600NDV HZ NCD 17/15 Q1012=
200808302350 METAR COR EGLL 302350Z 01002KT 2500 HZ NSC 17/15 Q1012 TEMPO
                        3000 HZ=
200808302320 METAR COR EGLL 302320Z 09002KT 2500 HZ NSC 18/16 Q1012 TEMPO
                        3000 HZ=
200808302250 METAR EGLL 302250Z 05003KT 3000 HZ NSC 17/15 Q1012 NOSIG=
200808302220 METAR COR EGLL 302220Z 07004KT 3000 HZ NSC 18/15 Q1013 NOSIG=
200808302150 METAR COR EGLL 302150Z 07004KT 3300 HZ NSC 19/16 Q1013 NOSIG=
200808302120 METAR COR EGLL 302120Z 06004KT 4000 HZ NSC 20/16 Q1013 TEMPO
                        5000 HZ=
200808302050 METAR EGLL 302050Z 07005KT 4800 HZ NSC 18/15 Q1013 TEMPO
                        6000 NSW=
200808302020 METAR COR EGLL 302020Z 09006KT 4300 HZ NSC 19/16 Q1013 TEMPO
                        6000=
200808301950 METAR COR EGLL 301950Z 09006KT 7000 NSC 19/16 Q1013 NOSIG=
200808301920 METAR EGLL 301920Z 09006KT 7000 NSC 20/16 Q1013 NOSIG=
200808301850 METAR COR EGLL 301850Z 09008KT 9999 7000NE NSC 22/15 Q1012
                        NOSIG=
200808301820 METAR COR EGLL 301820Z 15008KT CAVOK 23/14 Q1012 NOSIG=
200808301750 METAR EGLL 301750Z 16009KT CAVOK 24/14 Q1013 NOSIG=
200808301720 METAR EGLL 301720Z 18008KT CAVOK 25/14 Q1013 NOSIG=
200808301650 METAR COR EGLL 301650Z 16008KT CAVOK 26/14 Q1013 NOSIG=
200808301620 METAR EGLL 301620Z 13007KT 080V190 CAVOK 26/14 Q1013 NOSIG=
200808301550 METAR EGLL 301550Z 16010KT 120V190 CAVOK 26/13 Q1013 NOSIG=
200808301520 METAR EGLL 301520Z 15009KT 110V180 CAVOK 27/13 Q1013 NOSIG=
200808301450 METAR COR EGLL 301450Z 13011KT 090V170 CAVOK 27/13 Q1014
                        NOSIG=
200808301420 METAR COR EGLL 301420Z 14010KT 100V170 CAVOK 27/13 Q1014
                        NOSIG=
200808301350 METAR COR EGLL 301350Z 12009KT 080V150 9999 FEW042 26/13
                        Q1014 NOSIG=
200808301320 METAR COR EGLL 301320Z 12010KT 9999 FEW041 26/14 Q1015 NOSIG=
200808301250 METAR EGLL 301250Z 13011KT 100V170 9999 FEW045 26/14 Q1015
                        NOSIG=
200808301220 METAR EGLL 301220Z 12010KT 090V150 9999 FEW035 26/14 Q1015
                        NOSIG=
200808301150 METAR EGLL 301150Z 11011KT 9999 SCT034 25/14 Q1016 NOSIG=
200808301120 METAR COR EGLL 301120Z 11011KT 9999 SCT032 25/15 Q1016 NOSIG=
200808301050 METAR EGLL 301050Z 12010KT 9999 SCT030 24/15 Q1016 NOSIG=
200808301020 METAR COR EGLL 301020Z 13011KT 9999 SCT028 23/15 Q1017 NOSIG=
200808300950 METAR COR EGLL 300950Z 12008KT 9999 SCT030 23/15 Q1017 NOSIG=
200808300920 METAR EGLL 300920Z 09009KT 5000 HZ SCT017 BKN026 22/16 Q1017
                        NOSIG=
200808300850 METAR COR EGLL 300850Z 11009KT 5000 HZ SCT017 21/16 Q1017
                        NOSIG=
200808300820 METAR COR EGLL 300820Z 11009KT 4400 HZ SCT014 20/16 Q1017
                        BECMG 5000=
200808300750 METAR COR EGLL 300750Z 12007KT 4200 HZ SCT012 19/16 Q1017
                        BECMG 6000 NSW=
200808300720 METAR COR EGLL 300720Z 12008KT 4000 HZ NSC 19/16 Q1017 BECMG
                        6000 NSW=
200808300650 METAR COR EGLL 300650Z 10008KT 5000 HZ NSC 18/15 Q1017 NOSIG=
200808300620 METAR COR EGLL 300620Z 10008KT 7000 SCT033 18/15 Q1017 NOSIG=
200808300550 METAR EGLL 300550Z 10009KT 9999 BKN035 18/15 Q1017 NOSIG=
200808300520 METAR COR EGLL 300520Z 10008KT 8000 OVC032 18/15 Q1017 NOSIG=
200808300450 METAR COR EGLL 300450Z 10009KT 9999 OVC031 18/15 Q1018 NOSIG=
200808300420 METAR COR EGLL 300420Z 10006KT 9999 OVC032 18/15 Q1018 NOSIG=
200808300350 METAR EGLL 300350Z 11007KT 9999 OVC032 18/15 Q1018 NOSIG=
200808300320 METAR EGLL 300320Z 11007KT 9999 OVC031 19/15 Q1018 NOSIG=
200808300250 METAR COR EGLL 300250Z 11006KT 9999 BKN032 19/15 Q1018 NOSIG=
200808300220 METAR COR EGLL 300220Z 10005KT 9999 OVC031 19/15 Q1019 NOSIG=
200808300150 METAR COR EGLL 300150Z 11005KT 9999 OVC029 19/15 Q1019 NOSIG=
200808300120 METAR EGLL 300120Z AUTO 12004KT 9999NDV OVC030/// 19/15 Q1019=
200808300050 METAR EGLL 300050Z AUTO 12006KT 9999NDV BKN031/// 19/15 Q1019=
200808300020 METAR EGLL 300020Z AUTO 12006KT 9999NDV OVC031/// 19/15 Q1019=
200808292350 METAR EGLL 292350Z 12006KT 9999 OVC031 19/15 Q1019 NOSIG=
200808292320 METAR EGLL 292320Z 12006KT 9999 OVC033 19/16 Q1019 NOSIG=
200808292250 METAR COR EGLL 292250Z 13005KT 9999 OVC034 19/16 Q1019 NOSIG=
200808292220 METAR EGLL 292220Z 13005KT 9999 OVC035 19/16 Q1019=
200808292150 METAR COR EGLL 292150Z 13005KT 090V160 9999 OVC035 20/16
                        Q1019 NOSIG=
200808292120 METAR EGLL 292120Z VRB04KT 9999 FEW029 OVC036 20/16 Q1020
                        NOSIG=
200808292050 METAR EGLL 292050Z 14005KT 110V170 9999 FEW029 OVC035 20/16
                        Q1020 NOSIG=
200808292020 METAR EGLL 292020Z 14006KT 9999 FEW023 OVC036 20/16 Q1020
                        NOSIG=
200808291950 METAR EGLL 291950Z 15005KT 100V250 9999 FEW023 BKN039 20/16
                        Q1019 NOSIG=
200808291920 METAR EGLL 291920Z 15006KT 100V210 9999 FEW026 OVC039 21/16
                        Q1019 NOSIG=
200808291850 METAR EGLL 291850Z 16006KT 130V220 9999 FEW019 OVC034 21/16
                        Q1019=
200808291820 METAR EGLL 291820Z 17005KT 9999 FEW023 BKN031 21/16 Q1019
                        NOSIG=
200808291750 METAR COR EGLL 291750Z 18005KT 9999 FEW023 BKN035 21/16 Q1019
                        NOSIG=
200808291720 METAR COR EGLL 291720Z 17004KT 9999 FEW028 BKN041 22/16 Q1019
                        NOSIG=
200808291650 METAR COR EGLL 291650Z 17005KT 9999 FEW028 BKN039 22/16 Q1019
                        NOSIG=
200808291620 METAR EGLL 291620Z 17006KT 9999 FEW028 BKN039 22/16 Q1019
                        NOSIG=
200808291550 METAR COR EGLL 291550Z 16005KT 9999 FEW028 BKN042 22/16 Q1019
                        NOSIG=
200808291520 METAR COR EGLL 291520Z 14006KT 9999 FEW025 BKN039 22/16 Q1019
                        NOSIG=
200808291450 METAR COR EGLL 291450Z 14005KT 100V180 9999 FEW025 BKN041
                        23/16 Q1020 NOSIG=
200808291420 METAR COR EGLL 291420Z 15005KT 110V200 9999 FEW026 BKN041
                        22/16 Q1020 NOSIG=
200808291350 METAR EGLL 291350Z 18006KT 130V250 9999 FEW025 BKN040 23/16
                        Q1020 NOSIG=
200808291320 METAR EGLL 291320Z 18006KT 140V250 9999 SCT027 BKN038 22/16
                        Q1020 NOSIG=
200808291250 METAR COR EGLL 291250Z 13004KT 080V190 9999 FEW030 BKN039
                        23/15 Q1020 NOSIG=
200808291220 METAR COR EGLL 291220Z 19004KT 100V230 9999 FEW031 BKN037
                        22/15 Q1020 NOSIG=
200808291150 METAR EGLL 291150Z 16004KT 110V190 9999 FEW021 BKN035 22/16
                        Q1020 NOSIG=
200808291120 METAR COR EGLL 291120Z 16004KT 110V210 9999 SCT020 BKN037
                        22/16 Q1020 NOSIG=
200808291050 METAR COR EGLL 291050Z 16004KT 070V210 9999 SCT022 BKN037
                        22/16 Q1021 NOSIG=
200808291020 METAR COR EGLL 291020Z VRB03KT 9999 BKN037 21/16 Q1021 NOSIG=
200808290950 METAR EGLL 290950Z VRB03KT 9999 FEW016 BKN037 21/16 Q1021
                        NOSIG=
200808290920 METAR EGLL 290920Z 16004KT 110V200 9999 FEW016 BKN035 20/16
                        Q1021 NOSIG=
200808290850 METAR EGLL 290850Z VRB02KT 9999 OVC035 20/16 Q1021 NOSIG=
200808290820 METAR EGLL 290820Z VRB02KT 9999 FEW012 OVC034 20/16 Q1021
                        NOSIG=
200808290750 METAR EGLL 290750Z VRB02KT 9999 FEW011 BKN034 19/16 Q1021
                        NOSIG=
200808290720 METAR COR EGLL 290720Z 29003KT 9999 FEW010 BKN033 19/16 Q1021
                        NOSIG=
200808290650 METAR EGLL 290650Z 30003KT 9999 BKN032 18/16 Q1021 NOSIG=
200808290620 METAR EGLL 290620Z 28003KT 9999 BKN029 18/16 Q1020 NOSIG=
200808290550 METAR COR EGLL 290550Z 27004KT 9999 BKN029 18/16 Q1020 NOSIG=
200808290520 METAR COR EGLL 290520Z 27005KT 230V290 9999 OVC030 18/16
                        Q1020 NOSIG=
200808290450 METAR EGLL 290450Z 26005KT 9999 BKN030 18/16 Q1020 NOSIG=
200808290420 METAR COR EGLL 290420Z 25005KT 9999 BKN030 18/16 Q1020 NOSIG=
200808290350 METAR EGLL 290350Z 27004KT 9999 OVC030 18/16 Q1020=
200808290320 METAR COR EGLL 290320Z 29004KT 9999 OVC030 18/16 Q1020 NOSIG=
200808290250 METAR EGLL 290250Z 29003KT 9999 OVC031 18/16 Q1020 NOSIG=
200808290220 METAR EGLL 290220Z VRB02KT 9999 BKN029 18/16 Q1020 NOSIG=
200808290150 METAR COR EGLL 290150Z 27007KT 9999 BKN028 18/16 Q1020 NOSIG=
200808290120 METAR EGLL 290120Z AUTO 29004KT 9999NDV OVC029/// 18/16 Q1020=
200808290050 METAR EGLL 290050Z AUTO 27003KT 9999NDV OVC029/// 18/16 Q1021=
200808290020 METAR EGLL 290020Z AUTO 26005KT 9999NDV BKN029/// 19/16 Q1021=
200808282350 METAR COR EGLL 282350Z 26005KT 9999 BKN030 19/16 Q1021 NOSIG=
200808282320 METAR EGLL 282320Z 27005KT 9999 BKN031 18/16 Q1021 NOSIG=
200808282250 METAR EGLL 282250Z 26004KT 9999 OVC030 18/16 Q1021 NOSIG=
200808282220 METAR COR EGLL 282220Z 25006KT 9999 BKN029 18/15 Q1021 NOSIG=
200808282150 METAR COR EGLL 282150Z 26006KT 9999 OVC030 19/15 Q1020 NOSIG=
200808282120 METAR EGLL 282120Z 25006KT 9999 BKN031 19/15 Q1020 NOSIG=
200808282050 METAR COR EGLL 282050Z 25006KT 9999 BKN032 19/15 Q1020 NOSIG=
200808282020 METAR EGLL 282020Z 23007KT 180V260 9999 OVC032 19/15 Q1020
                        NOSIG=
200808281950 METAR EGLL 281950Z 24008KT 9999 BKN034 19/15 Q1020 NOSIG=
200808281920 METAR EGLL 281920Z 24006KT 200V270 9999 BKN030 19/15 Q1020
                        NOSIG=
200808281850 METAR EGLL 281850Z 23008KT 9999 BKN031 20/15 Q1020 NOSIG=
200808281820 METAR COR EGLL 281820Z 24007KT 210V270 9999 8000NW FEW021
                        SCT034 20/15 Q1020 NOSIG=
200808281750 METAR COR EGLL 281750Z 23008KT 200V270 9999 FEW021 21/15
                        Q1020 NOSIG=
200808281720 METAR EGLL 281720Z 30004KT 260V350 9999 9000SE BKN022 20/15
                        Q1020 NOSIG=
200808281650 METAR EGLL 281650Z 29006KT 9999 BKN023 21/15 Q1020 NOSIG=
200808281620 METAR EGLL 281620Z 25010KT 9999 BKN022 21/15 Q1020=
200808281550 METAR COR EGLL 281550Z 25009KT 210V280 9999 BKN023 21/15
                        Q1020 NOSIG=
200808281520 METAR EGLL 281520Z 24007KT 190V290 9999 OVC021 21/15 Q1020
                        NOSIG=
200808281450 METAR COR EGLL 281450Z 24007KT 210V270 9999 BKN020 21/14
                        Q1020 NOSIG=
200808281420 METAR COR EGLL 281420Z 27009KT 220V300 9999 BKN020 20/15
                        Q1021 NOSIG=
200808281350 METAR COR EGLL 281350Z 27009KT 230V290 9999 BKN019 20/14
                        Q1021 NOSIG=
200808281320 METAR COR EGLL 281320Z 27009KT 9999 OVC019 20/14 Q1021 NOSIG=
200808281250 METAR EGLL 281250Z 27010KT 9999 OVC017 19/14 Q1021=
200808281220 METAR EGLL 281220Z 26011KT 9999 OVC014 18/14 Q1021 BECMG
                        SCT014=
200808281150 METAR COR EGLL 281150Z 26010KT 9999 BKN014 18/14 Q1021 BECMG
                        SCT014=
200808281120 METAR EGLL 281120Z 26008KT 220V290 9999 BKN015 18/14 Q1021
                        NOSIG=
200808281050 METAR EGLL 281050Z 27010KT 9999 BKN015 18/14 Q1021 NOSIG=
200808281020 METAR COR EGLL 281020Z 25009KT 220V280 9999 BKN015 18/14
                        Q1021 NOSIG=
200808280950 METAR COR EGLL 280950Z 26009KT 230V290 9999 BKN014 18/13
                        Q1021 BECMG SCT014=
200808280920 METAR COR EGLL 280920Z 25009KT 9999 BKN012 17/14 Q1022 BECMG
                        SCT012=
200808280850 METAR EGLL 280850Z 27008KT 9999 FEW010 BKN018 17/14 Q1022
                        NOSIG=
200808280820 METAR COR EGLL 280820Z 26008KT 220V280 9999 FEW011 BKN017
                        17/14 Q1021 NOSIG=
200808280750 METAR COR EGLL 280750Z 25008KT 9999 FEW010 BKN017 17/14 Q1021
                        NOSIG=
200808280720 METAR EGLL 280720Z 26008KT 9999 FEW007 BKN018 17/14 Q1021=
200808280650 METAR COR EGLL 280650Z 27006KT 9999 FEW010 BKN019 17/15 Q1021
                        NOSIG=
200808280620 METAR COR EGLL 280620Z 27006KT 9999 FEW010 OVC019 17/15 Q1021
                        NOSIG=
200808280550 METAR COR EGLL 280550Z 27006KT 8000 SCT009 OVC020 16/15 Q1021
                        NOSIG=
200808280520 METAR COR EGLL 280520Z 26005KT 210V290 7000 SCT008 OVC019
                        16/15 Q1021 NOSIG=
200808280450 METAR COR EGLL 280450Z 27005KT 6000 FEW006 BKN019 16/15 Q1021
                        NOSIG=
200808280420 METAR COR EGLL 280420Z 26006KT 6000 FEW008 BKN021 16/15 Q1021
                        NOSIG=
200808280350 METAR COR EGLL 280350Z 26006KT 9000 FEW007 BKN022 16/14 Q1021
                        NOSIG=
200808280320 METAR COR EGLL 280320Z 27005KT 9999 BKN023 16/14 Q1021 NOSIG=
200808280250 METAR COR EGLL 280250Z 27006KT 9000 FEW012 BKN023 16/14 Q1021
                        NOSIG=
200808280220 METAR COR EGLL 280220Z 27006KT 9000 FEW011 OVC023 16/14 Q1021
                        NOSIG=
200808280150 METAR EGLL 280150Z 26007KT 9999 FEW010 OVC022 16/14 Q1021
                        NOSIG=
200808280120 METAR EGLL 280120Z AUTO 27007KT 9999NDV OVC023/// 16/14 Q1021=
200808280050 METAR EGLL 280050Z AUTO 27008KT 9999NDV OVC022/// 17/14 Q1021=
200808280020 METAR EGLL 280020Z AUTO 26008KT 9999NDV OVC023/// 16/14 Q1022=
200808272350 METAR EGLL 272350Z 27007KT 9999 FEW010 BKN025 16/14 Q1022
                        NOSIG=
200808272320 METAR COR EGLL 272320Z 26009KT 9999 BKN027 17/14 Q1022 NOSIG=
200808272250 METAR COR EGLL 272250Z 26008KT 9999 FEW010 BKN029 17/14 Q1022
                        NOSIG=
200808272220 METAR COR EGLL 272220Z 26008KT 9999 FEW012 BKN030 17/14 Q1022
                        NOSIG=
200808272150 METAR COR EGLL 272150Z 27011KT 9999 FEW012 BKN028 17/14 Q1022
                        NOSIG=
200808272120 METAR COR EGLL 272120Z 27009KT 9999 FEW014 BKN029 17/14 Q1022
                        NOSIG=
200808272050 METAR EGLL 272050Z 27009KT 9999 BKN014 17/14 Q1022 BECMG
                        BKN016=
200808272020 METAR EGLL 272020Z 27010KT 9999 BKN015 18/14 Q1022 NOSIG=
200808271950 METAR EGLL 271950Z 27010KT 9999 BKN018 18/14 Q1022 NOSIG=
200808271920 METAR COR EGLL 271920Z 27012KT 9999 FEW024 BKN028 18/13 Q1021
                        NOSIG=
200808271850 METAR EGLL 271850Z 26010KT 9999 BKN028 18/13 Q1021 NOSIG=
200808271820 METAR EGLL 271820Z 26009KT 9999 BKN030 19/13 Q1021 NOSIG=
200808271750 METAR COR EGLL 271750Z 27011KT 9999 FEW025 BKN031 19/13 Q1021
                        NOSIG=
200808271720 METAR COR EGLL 271720Z 27012KT 9999 SCT025 BKN030 19/13 Q1021
                        NOSIG=
200808271650 METAR COR EGLL 271650Z 27012KT 9999 SCT028 BKN031 19/13 Q1021
                        NOSIG=
200808271620 METAR EGLL 271620Z 26013KT 9999 BKN024 19/13 Q1021 NOSIG=
200808271550 METAR COR EGLL 271550Z 27013KT 9999 FEW020 BKN026 19/13 Q1021
                        NOSIG=
200808271520 METAR COR EGLL 271520Z 25015KT 9999 BKN026 20/13 Q1021 NOSIG=
200808271450 METAR COR EGLL 271450Z 26016KT 9999 FEW021 BKN026 20/14 Q1021
                        NOSIG=
200808271420 METAR COR EGLL 271420Z 26014KT 9999 BKN021 19/14 Q1021 NOSIG=
200808271350 METAR EGLL 271350Z 26012KT 9999 BKN021 19/14 Q1021 NOSIG=
200808271320 METAR COR EGLL 271320Z 27013KT 9999 BKN023 19/14 Q1022 NOSIG=
200808271250 METAR COR EGLL 271250Z 25018KT 9999 BKN023 20/14 Q1021 NOSIG=
200808271220 METAR COR EGLL 271220Z 25015KT 9999 BKN024 20/14 Q1021 NOSIG=
200808271150 METAR COR EGLL 271150Z 25014KT 9999 BKN025 19/14 Q1021 NOSIG=
200808271120 METAR COR EGLL 271120Z 26013KT 9999 SCT020 BKN025 20/14 Q1022
                        NOSIG=
200808271050 METAR COR EGLL 271050Z 26012KT 9999 BKN018 BKN024 19/14 Q1022
                        NOSIG=
200808271020 METAR COR EGLL 271020Z 25014KT 9999 OVC021 19/14 Q1022 NOSIG=
200808270950 METAR COR EGLL 270950Z 26012KT 9999 BKN020 18/13 Q1022 NOSIG=
200808270920 METAR COR EGLL 270920Z 25012KT 9999 BKN020 18/13 Q1022 NOSIG=
200808270850 METAR COR EGLL 270850Z 26013KT 9999 BKN014 BKN020 18/13 Q1022
                        BECMG BKN020=
200808270820 METAR COR EGLL 270820Z 26017KT 9999 BKN014 BKN017 18/14 Q1022
                        BKN020=
200808270750 METAR COR EGLL 270750Z 25013KT 9999 BKN013 BKN015 18/14 Q1022
                        BECMG BKN016=
200808270720 METAR COR EGLL 270720Z 25012KT 9999 BKN010 BKN014 17/14 Q1021
                        NOSIG=
200808270650 METAR COR EGLL 270650Z 25011KT 9999 OVC010 17/14 Q1021 BECMG
                        BKN015=
200808270620 METAR COR EGLL 270620Z 26011KT 9999 FEW009 OVC011 17/14 Q1021
                        BECMG OVC015=
200808270550 METAR EGLL 270550Z 25011KT 9999 OVC010 17/14 Q1021 NOSIG=
200808270520 METAR COR EGLL 270520Z 25011KT 9999 BKN009 OVC014 17/14 Q1021
                        TEMPO BKN010=
200808270450 METAR COR EGLL 270450Z 25011KT 9999 BKN009 OVC014 17/14 Q1021
                        TEMPO BKN010=
200808270420 METAR COR EGLL 270420Z 25011KT 9999 BKN010 OVC015 17/14 Q1021
                        NOSIG=
200808270350 METAR COR EGLL 270350Z 24010KT 9999 BKN011 OVC015 17/14 Q1021
                        NOSIG=
200808270320 METAR COR EGLL 270320Z 24010KT 9999 BKN014 17/14 Q1021 TEMPO
                        BKN015=
200808270250 METAR COR EGLL 270250Z 24011KT 9999 BKN015 17/14 Q1021 TEMPO
                        BKN014=
200808270220 METAR COR EGLL 270220Z 25012KT 9999 BKN015 17/14 Q1021 TEMPO
                        BKN014=
200808270150 METAR COR EGLL 270150Z 24011KT 9999 BKN018 17/14 Q1021 NOSIG=
200808270120 METAR EGLL 270120Z AUTO 25009KT 9999NDV OVC016/// 17/14 Q1022=
200808270050 METAR EGLL 270050Z AUTO 24010KT 9999NDV OVC017/// 17/13 Q1022=
200808270020 METAR EGLL 270020Z AUTO 23008KT 9999NDV OVC018/// 17/14 Q1022=
200808262350 METAR COR EGLL 262350Z 26010KT 9999 BKN018 17/13 Q1022 NOSIG=
200808262320 METAR COR EGLL 262320Z 26009KT 9999 BKN019 18/13 Q1022 NOSIG=
200808262250 METAR COR EGLL 262250Z 26008KT 9999 BKN021 18/13 Q1022 NOSIG=
200808262220 METAR COR EGLL 262220Z 27008KT 9999 BKN020 18/13 Q1022 NOSIG=
200808262150 METAR COR EGLL 262150Z 26008KT 9999 BKN021 18/14 Q1022 NOSIG=
200808262120 METAR EGLL 262120Z 27008KT 9999 OVC023 18/14 Q1022 NOSIG=
200808262050 METAR COR EGLL 262050Z 27009KT 9999 OVC024 18/14 Q1022 NOSIG=
200808262020 METAR COR EGLL 262020Z 27009KT 9999 FEW018 BKN024 18/14 Q1022
                        NOSIG=
200808261950 METAR EGLL 261950Z 25009KT 9999 FEW019 BKN024 19/15 Q1022
                        NOSIG=
200808261920 METAR COR EGLL 261920Z 24010KT 9999 BKN025 19/15 Q1022 NOSIG=
200808261850 METAR EGLL 261850Z 25010KT 9999 OVC024 19/15 Q1021 NOSIG=
200808261820 METAR COR EGLL 261820Z 24009KT 9999 BKN025 19/15 Q1021 NOSIG=
200808261750 METAR EGLL 261750Z 24010KT 9999 BKN023 19/15 Q1021 NOSIG=
200808261720 METAR COR EGLL 261720Z 23010KT 9999 OVC023 20/15 Q1021 NOSIG=
200808261650 METAR COR EGLL 261650Z 23011KT 9999 BKN024 20/15 Q1021 NOSIG=
200808261620 METAR COR EGLL 261620Z 24010KT 9999 BKN023 20/14 Q1021 NOSIG=
200808261550 METAR EGLL 261550Z 24010KT 9999 BKN023 20/14 Q1021 NOSIG=
200808261520 METAR COR EGLL 261520Z 24011KT 9999 BKN022 20/14 Q1021 NOSIG=
200808261450 METAR COR EGLL 261450Z 23012KT 9999 BKN021 20/14 Q1021 NOSIG=
200808261420 METAR COR EGLL 261420Z 24012KT 9999 BKN021 20/15 Q1021 NOSIG=
200808261350 METAR COR EGLL 261350Z 25014KT 9999 BKN022 19/15 Q1021 NOSIG=
200808261320 METAR COR EGLL 261320Z 26015KT 9999 BKN022 20/14 Q1021 NOSIG=
200808261250 METAR EGLL 261250Z 24014KT 9999 BKN020 BKN024 20/14 Q1021
                        NOSIG=
200808261220 METAR COR EGLL 261220Z 24012KT 9999 BKN020 BKN024 20/14 Q1021
                        NOSIG=
200808261150 METAR EGLL 261150Z 24011KT 9999 BKN019 BKN023 19/14 Q1021
                        NOSIG=
200808261120 METAR COR EGLL 261120Z 24011KT 9999 BKN018 BKN022 19/14 Q1021
                        NOSIG=
200808261050 METAR COR EGLL 261050Z 25013KT 9999 BKN018 19/14 Q1021 NOSIG=
200808261020 METAR EGLL 261020Z 25012KT 9999 BKN019 19/14 Q1021 NOSIG=
200808260950 METAR COR EGLL 260950Z 23011KT 190V250 9999 BKN018 19/14
                        Q1021 NOSIG=
200808260920 METAR EGLL 260920Z 23011KT 9999 FEW018 BKN022 18/13 Q1021
                        NOSIG=
200808260850 METAR EGLL 260850Z 23010KT 200V260 9999 SCT018 BKN022 18/14
                        Q1020 NOSIG=
200808260820 METAR COR EGLL 260820Z 23009KT 9999 BKN025 17/13 Q1020 NOSIG=
200808260750 METAR EGLL 260750Z 22010KT 9999 BKN026 17/13 Q1020 NOSIG=
200808260720 METAR EGLL 260720Z 22010KT 9999 SCT019 BKN027 17/13 Q1020
                        NOSIG=
200808260650 METAR COR EGLL 260650Z 23010KT 9999 BKN021 17/13 Q1020 NOSIG=
200808260620 METAR COR EGLL 260620Z 24010KT 9999 BKN018 17/13 Q1020 NOSIG=
200808260550 METAR EGLL 260550Z 23009KT 9999 BKN018 17/13 Q1019 NOSIG=
200808260520 METAR COR EGLL 260520Z 24008KT 9999 BKN016 17/13 Q1019 TEMPO
                        BKN014=
200808260450 METAR EGLL 260450Z 25008KT 9999 BKN016 17/13 Q1019 TEMPO
                        BKN014=
200808260420 METAR COR EGLL 260420Z 25008KT 9999 BKN016 17/13 Q1019 TEMPO
                        BKN014=
200808260350 METAR COR EGLL 260350Z 25008KT 9999 BKN016 16/13 Q1018 TEMPO
                        BKN014=
200808260320 METAR COR EGLL 260320Z 24009KT 9999 BKN017 16/13 Q1018 TEMPO
                        BKN014=
200808260250 METAR COR EGLL 260250Z 23009KT 9999 BKN018 16/13 Q1018 TEMPO
                        BKN014=
200808260220 METAR COR EGLL 260220Z 24010KT 9999 BKN016 16/13 Q1018 TEMPO
                        BKN014=
200808260150 METAR COR EGLL 260150Z 25011KT 9999 BKN015 16/13 Q1018 TEMPO
                        BKN014=
200808260120 METAR EGLL 260120Z AUTO 24009KT 9000NDV OVC017/// 16/14 Q1018=
200808260050 METAR EGLL 260050Z AUTO 24007KT 8000NDV SCT022/// 16/14 Q1018=
200808260020 METAR EGLL 260020Z AUTO 23008KT 8000NDV SCT023/// 16/14 Q1017=
200808252350 METAR COR EGLL 252350Z 23008KT 9000 SCT023 16/14 Q1017 NOSIG=
200808252320 METAR COR EGLL 252320Z 22008KT 9000 SCT025 16/14 Q1017 NOSIG=
200808252250 METAR COR EGLL 252250Z 22009KT 9000 FEW022 16/14 Q1017 TEMPO
                        BKN014=
200808252220 METAR COR EGLL 252220Z 22007KT 9000 SCT022 16/14 Q1017 TEMPO
                        BKN014=
200808252150 METAR COR EGLL 252150Z 22008KT 9000 SCT025 16/14 Q1017 TEMPO
                        BKN014=
200808252120 METAR COR EGLL 252120Z 22011KT 9999 SCT029 17/14 Q1017 TEMPO
                        BKN014=
200808252050 METAR EGLL 252050Z 22012KT 9999 FEW030 17/14 Q1016 TEMPO
                        BKN014=
200808252020 METAR COR EGLL 252020Z 22011KT 9999 FEW032 17/15 Q1016 NOSIG=
200808251950 METAR COR EGLL 251950Z 21010KT 9999 FEW029 18/15 Q1016 NOSIG=
200808251920 METAR COR EGLL 251920Z 22012KT 9999 FEW020 18/15 Q1015 NOSIG=
200808251850 METAR EGLL 251850Z 21012KT 9999 FEW020 18/15 Q1015 NOSIG=
200808251820 METAR COR EGLL 251820Z 21011KT CAVOK 19/15 Q1014 NOSIG=
200808251750 METAR EGLL 251750Z 21010KT 9999 FEW030 19/15 Q1014 NOSIG=
200808251720 METAR COR EGLL 251720Z 22011KT 9999 FEW024 BKN028 20/15 Q1014
                        NOSIG=
200808251650 METAR COR EGLL 251650Z 20012KT 9999 SCT028 20/15 Q1014 NOSIG=
200808251620 METAR EGLL 251620Z 21010KT 9999 FEW022 BKN028 20/15 Q1014
                        NOSIG=
200808251550 METAR EGLL 251550Z 22012KT 9999 FEW018 BKN024 20/15 Q1014
                        NOSIG=
200808251520 METAR COR EGLL 251520Z 22012KT 9999 BKN019 20/15 Q1014 NOSIG=
200808251450 METAR EGLL 251450Z 23014KT 9999 BKN018 20/15 Q1014 NOSIG=
200808251420 METAR COR EGLL 251420Z 24015KT 9999 BKN020 20/15 Q1014 NOSIG=
200808251350 METAR COR EGLL 251350Z 24015KT 9999 BKN019 20/15 Q1014 NOSIG=
200808251320 METAR COR EGLL 251320Z 22013KT 9999 BKN017 BKN021 20/15 Q1013
                        NOSIG=
200808251250 METAR COR EGLL 251250Z 23013KT 9999 BKN018 BKN021 20/15 Q1013
                        NOSIG=
200808251220 METAR EGLL 251220Z 23014KT 9999 BKN020 19/14 Q1013 NOSIG=
200808251150 METAR COR EGLL 251150Z 24015G25KT 9999 BKN018 19/14 Q1013
                        NOSIG=
200808251120 METAR EGLL 251120Z 23015KT 9999 BKN018 19/14 Q1013 NOSIG=
200808251050 METAR COR EGLL 251050Z 23014KT 9999 BKN018 19/14 Q1013 NOSIG=
200808251020 METAR COR EGLL 251020Z 23013KT 9999 BKN018 19/14 Q1013 NOSIG=
200808250950 METAR COR EGLL 250950Z 23014KT 9999 SCT019 BKN023 19/14 Q1013
                        NOSIG=
200808250920 METAR EGLL 250920Z 23012KT 190V260 9999 SCT015 BKN022 18/14
                        Q1013 NOSIG=
200808250850 METAR EGLL 250850Z 22010KT 9999 BKN017 BKN024 18/14 Q1013
                        NOSIG=
200808250820 METAR EGLL 250820Z 23013G23KT 9999 SCT016 SCT025 18/14 Q1013
                        NOSIG=
200808250750 METAR COR EGLL 250750Z 22013KT 9999 SCT018 SCT030 18/14 Q1012
                        NOSIG=
200808250720 METAR COR EGLL 250720Z 22011KT 9999 SCT014 17/14 Q1012 NOSIG=
200808250650 METAR EGLL 250650Z 21009KT 9999 FEW010 BKN044 16/14 Q1012
                        NOSIG=
200808250620 METAR COR EGLL 250620Z 21009KT 9999 FEW032 BKN046 16/13 Q1012
                        NOSIG=
200808250550 METAR COR EGLL 250550Z 21008KT 9999 BKN049 16/13 Q1012 NOSIG=
200808250520 METAR COR EGLL 250520Z 21008KT CAVOK 15/13 Q1012 NOSIG=
200808250450 METAR COR EGLL 250450Z 21009KT 9999 FEW042 15/13 Q1012 NOSIG=
200808250420 METAR EGLL 250420Z 23010KT 9999 SCT040 15/13 Q1012=
200808250350 METAR EGLL 250350Z 24010KT 9999 SCT045 15/13 Q1012=
200808250320 METAR COR EGLL 250320Z 24009KT 9999 FEW014 15/12 Q1012 NOSIG=
200808250250 METAR COR EGLL 250250Z 23007KT 9999 FEW040 BKN044 14/11 Q1012
                        NOSIG=
200808250220 METAR EGLL 250220Z 21004KT 9999 FEW048 14/11 Q1012=
200808250150 METAR COR EGLL 250150Z 20005KT CAVOK 14/11 Q1012 NOSIG=
200808250120 METAR EGLL 250120Z AUTO 20005KT 9999NDV NCD 14/11 Q1012=
200808250050 METAR EGLL 250050Z AUTO 21006KT 9999NDV NCD 14/11 Q1012=
200808250020 METAR EGLL 250020Z AUTO 20007KT 9999NDV NCD 14/10 Q1012=
200808242350 METAR COR EGLL 242350Z 20006KT CAVOK 14/10 Q1012 NOSIG=
200808242320 METAR EGLL 242320Z 21006KT CAVOK 14/10 Q1012 NOSIG=
200808242250 METAR EGLL 242250Z 22006KT CAVOK 14/10 Q1012 NOSIG=
200808242220 METAR COR EGLL 242220Z 23008KT 200V260 CAVOK 15/10 Q1012
                        NOSIG=
200808242150 METAR COR EGLL 242150Z 24009KT CAVOK 15/10 Q1012 NOSIG=
200808242120 METAR COR EGLL 242120Z 25011KT CAVOK 16/10 Q1012 NOSIG=
200808242050 METAR EGLL 242050Z 25009KT CAVOK 16/10 Q1012 NOSIG=
200808242020 METAR COR EGLL 242020Z 25010KT CAVOK 17/11 Q1011 NOSIG=
200808241950 METAR COR EGLL 241950Z 26010KT CAVOK 17/10 Q1011 NOSIG=
200808241920 METAR EGLL 241920Z 26012KT CAVOK 18/10 Q1011 NOSIG=
200808241850 METAR COR EGLL 241850Z 26012KT CAVOK 19/10 Q1010 NOSIG=
200808241820 METAR EGLL 241820Z 26013KT CAVOK 20/11 Q1010 NOSIG=
200808241750 METAR COR EGLL 241750Z 24012KT 9999 FEW038 20/11 Q1010 NOSIG=
200808241720 METAR COR EGLL 241720Z 27009KT 9999 FEW038 20/12 Q1009 NOSIG=
200808241650 METAR EGLL 241650Z 27012KT 9999 FEW040 20/12 Q1009 NOSIG=
200808241620 METAR COR EGLL 241620Z 26013KT 9999 FEW036 20/13 Q1009 NOSIG=
200808241550 METAR COR EGLL 241550Z 27015KT 9999 FEW036 21/12 Q1009 NOSIG=
200808241520 METAR COR EGLL 241520Z 26013KT 9999 FEW036 21/12 Q1009 NOSIG=
200808241450 METAR EGLL 241450Z 26013KT 9999 FEW045 21/12 Q1009 NOSIG=
200808241420 METAR COR EGLL 241420Z 27011KT 9999 SCT035 21/12 Q1009 NOSIG=
200808241350 METAR EGLL 241350Z 25013KT 9999 FEW034 SCT045 21/12 Q1009
                        NOSIG=
200808241320 METAR COR EGLL 241320Z 26013KT 9999 FEW033 SCT036 21/12 Q1009
                        NOSIG=
200808241250 METAR COR EGLL 241250Z 28010KT 240V310 9999 FEW036 22/13
                        Q1008 NOSIG=
200808241220 METAR COR EGLL 241220Z 24012KT 210V270 9999 FEW028 SCT044
                        20/13 Q1008 NOSIG=
200808241150 METAR COR EGLL 241150Z 27011KT 220V290 9999 SCT018 SCT028
                        20/15 Q1008 NOSIG=
200808241120 METAR COR EGLL 241120Z 22009KT 180V250 9999 SCT009 SCT018
                        19/16 Q1008 NOSIG=
200808241050 METAR COR EGLL 241050Z 21008KT 180V240 9999 SCT003 BKN007
                        17/16 Q1008 BECMG SCT015=
200808241020 METAR COR EGLL 241020Z 20010KT 4500 -RA FEW003 BKN004 BKN009
                        17/15 Q1008 BECMG 9999 SCT015=
200808240950 METAR COR EGLL 240950Z 20010KT 6000 -RADZ SCT007 BKN009 16/15
                        Q1008 TEMPO 4500 -RADZ=
200808240920 METAR COR EGLL 240920Z 20010KT 150V230 7000 -RADZ SCT006
                        OVC011 16/15 Q1008 TEMPO 4500 -RADZ
                        BKN006=
200808240850 METAR COR EGLL 240850Z 19011KT 160V230 9999 SCT006 BKN009
                        16/14 Q1008 TEMPO 4500 -RADZ BKN006=
200808240820 METAR COR EGLL 240820Z 20011KT 9999 -RA SCT006 BKN010 15/14
                        Q1008 TEMPO 4500 -RADZ BKN008=
200808240750 METAR COR EGLL 240750Z 19011KT 7000 -RA FEW005 SCT008 OVC010
                        15/14 Q1008 TEMPO BKN008=
200808240720 METAR COR EGLL 240720Z 20010KT 7000 DZ FEW009 BKN012 15/13
                        Q1008 TEMPO BKN008=
200808240650 METAR COR EGLL 240650Z 20011KT 9999 -RA FEW009 BKN016 15/13
                        Q1008 TEMPO BKN008=
200808240620 METAR COR EGLL 240620Z 19013KT 130V230 9999 FEW008 BKN014
                        15/13 Q1008 TEMPO RA BKN009=
200808240550 METAR COR EGLL 240550Z 19011KT 160V240 9999 FEW008 SCT024
                        14/13 Q1008 NOSIG=
200808240520 METAR COR EGLL 240520Z 20009KT 190V260 9999 FEW008 SCT020
                        OVC030 15/13 Q1008 TEMPO RA BKN012=
200808240450 METAR COR EGLL 240450Z 21008KT 9999 -RA BKN012 15/13 Q1008
                        TEMPO RA=
200808240420 METAR COR EGLL 240420Z 20009KT 9999 -RA SCT012 15/13 Q1008
                        TEMPO RA BKN012=
200808240350 METAR COR EGLL 240350Z 20010KT 6000 -RA SCT014 SCT021 BKN027
                        15/13 Q1009 RERA TEMPO RA BKN014=
200808240320 METAR COR EGLL 240320Z 20010KT 9999 FEW030 BKN040 16/12 Q1009
                        NOSIG=
200808240250 METAR COR EGLL 240250Z 20010KT 9999 BKN040 16/12 Q1009 NOSIG=
200808240220 METAR COR EGLL 240220Z 20009KT 9999 FEW020 BKN046 15/12 Q1010
                        NOSIG=
200808240150 METAR COR EGLL 240150Z 20009KT 9999 FEW020 OVC048 15/12 Q1010
                        NOSIG=
200808240120 METAR EGLL 240120Z AUTO 20008KT 9999NDV BKN049/// 15/12 Q1010=
200808240050 METAR EGLL 240050Z AUTO 20009KT 9999NDV FEW031/// 15/12 Q1011=
200808240020 METAR EGLL 240020Z AUTO 20008KT 9999NDV NCD 15/12 Q1011=
200808232350 METAR EGLL 232350Z 20008KT CAVOK 15/11 Q1011=
200808232320 METAR COR EGLL 232320Z 19009KT CAVOK 15/11 Q1011 NOSIG=
200808232250 METAR COR EGLL 232250Z 20009KT CAVOK 15/11 Q1012 NOSIG=
200808232220 METAR COR EGLL 232220Z 21009KT 180V250 CAVOK 15/11 Q1012
                        NOSIG=
200808232150 METAR EGLL 232150Z 22009KT 170V260 CAVOK 15/11 Q1012=
200808232120 METAR COR EGLL 232120Z 21009KT 160V240 9999 -RA NSC 15/11
                        Q1012 NOSIG=
200808232050 METAR EGLL 232050Z 22010KT 9999 -RA NSC 16/11 Q1013 NOSIG=
200808232020 METAR COR EGLL 232020Z 21010KT 180V250 CAVOK 16/10 Q1013
                        NOSIG=
200808231950 METAR EGLL 231950Z 22011KT CAVOK 17/09 Q1013 NOSIG=
200808231920 METAR EGLL 231920Z 22011KT CAVOK 17/09 Q1013 NOSIG=
200808231850 METAR COR EGLL 231850Z 22010KT CAVOK 18/10 Q1013 NOSIG=
200808231820 METAR EGLL 231820Z 22011KT 190V250 CAVOK 18/09 Q1013 NOSIG=
200808231750 METAR EGLL 231750Z 22010KT 180V250 CAVOK 18/10 Q1013 NOSIG=
200808231720 METAR EGLL 231720Z 21011KT CAVOK 19/10 Q1013 NOSIG=
200808231650 METAR COR EGLL 231650Z 25010KT 210V270 CAVOK 19/09 Q1013
                        NOSIG=
200808231620 METAR COR EGLL 231620Z 24011KT CAVOK 20/07 Q1014 NOSIG=
200808231550 METAR COR EGLL 231550Z 24009KT 200V280 CAVOK 20/07 Q1014
                        NOSIG=
200808231520 METAR EGLL 231520Z 25009KT 220V280 CAVOK 20/07 Q1014 NOSIG=
200808231450 METAR EGLL 231450Z 24009KT CAVOK 20/07 Q1014 NOSIG=
200808231420 METAR EGLL 231420Z 28008KT 250V330 CAVOK 20/06 Q1014 NOSIG=
200808231350 METAR COR EGLL 231350Z 22005KT 160V330 CAVOK 22/05 Q1014
                        NOSIG=
200808231320 METAR COR EGLL 231320Z 28007KT 250V330 9999 FEW049 20/06
                        Q1015 NOSIG=
200808231250 METAR COR EGLL 231250Z 25008KT 210V270 9999 SCT048 19/07
                        Q1015 NOSIG=
200808231220 METAR COR EGLL 231220Z 25007KT 200V300 9999 SCT046 21/07
                        Q1015 NOSIG=
200808231150 METAR COR EGLL 231150Z VRB06KT 9999 SCT041 20/08 Q1015 NOSIG=
200808231120 METAR COR EGLL 231120Z 27005KT 230V310 9999 SCT038 19/09
                        Q1015 NOSIG=
200808231050 METAR EGLL 231050Z 30005KT 230V010 9999 SCT032 19/09 Q1016
                        NOSIG=
200808231020 METAR COR EGLL 231020Z 29006KT 250V320 9999 SCT032 18/10
                        Q1016 NOSIG=
200808230950 METAR COR EGLL 230950Z 29006KT 250V340 9999 FEW029 18/10
                        Q1016 NOSIG=
200808230920 METAR COR EGLL 230920Z 32005KT 290V030 9999 SCT026 16/10
                        Q1016 NOSIG=
200808230850 METAR COR EGLL 230850Z 34006KT 290V020 9999 FEW025 17/10
                        Q1016 NOSIG=
200808230820 METAR COR EGLL 230820Z 31006KT 290V350 9999 FEW030 16/09
                        Q1016 NOSIG=
200808230750 METAR COR EGLL 230750Z 31005KT 270V360 CAVOK 15/09 Q1016
                        NOSIG=
200808230720 METAR COR EGLL 230720Z 32006KT 290V350 CAVOK 13/09 Q1016
                        NOSIG=
200808230650 METAR COR EGLL 230650Z 29006KT CAVOK 13/09 Q1016 NOSIG=
200808230620 METAR COR EGLL 230620Z 28008KT CAVOK 12/09 Q1016 NOSIG=
200808230550 METAR COR EGLL 230550Z 29007KT 9999 FEW028 11/08 Q1016 NOSIG=
200808230520 METAR EGLL 230520Z 27007KT 9999 FEW023 10/08 Q1016 NOSIG=
200808230450 METAR EGLL 230450Z 26006KT 9999 FEW023 10/07 Q1016 NOSIG=
200808230420 METAR EGLL 230420Z 27008KT CAVOK 10/08 Q1016 NOSIG=
200808230350 METAR COR EGLL 230350Z 27006KT CAVOK 10/07 Q1016 NOSIG=
200808230320 METAR EGLL 230320Z 28007KT CAVOK 11/07 Q1016 NOSIG=
200808230250 METAR EGLL 230250Z 28008KT CAVOK 11/07 Q1016 NOSIG=
200808230220 METAR EGLL 230220Z 27008KT CAVOK 11/07 Q1016 NOSIG=
200808230150 METAR COR EGLL 230150Z 27008KT CAVOK 11/07 Q1016 NOSIG=
200808230120 METAR EGLL 230120Z 28007KT CAVOK 11/07 Q1016=
200808230050 METAR EGLL 230050Z 27008KT CAVOK 12/07 Q1016 NOSIG=
200808230020 METAR EGLL 230020Z 26008KT CAVOK 12/08 Q1016 NOSIG=
200808222350 METAR EGLL 222350Z 27006KT CAVOK 12/08 Q1016 NOSIG=
200808222320 METAR EGLL 222320Z 28004KT CAVOK 12/07 Q1017 NOSIG=
200808222250 METAR EGLL 222250Z 31005KT CAVOK 13/07 Q1017 NOSIG=
200808222220 METAR COR EGLL 222220Z 30004KT CAVOK 14/07 Q1016 NOSIG=
200808222150 METAR COR EGLL 222150Z 30004KT CAVOK 14/07 Q1016 NOSIG=
200808222120 METAR EGLL 222120Z 31005KT CAVOK 14/07 Q1016 NOSIG=
200808222050 METAR COR EGLL 222050Z 30005KT CAVOK 15/07 Q1016 NOSIG=
200808222020 METAR EGLL 222020Z 31006KT CAVOK 15/08 Q1016 NOSIG=
200808221950 METAR COR EGLL 221950Z 32004KT 290V350 9999 FEW040 16/08
                        Q1015 NOSIG=
200808221920 METAR COR EGLL 221920Z 32004KT 290V350 9999 FEW040 16/08
                        Q1015 NOSIG=
200808221850 METAR EGLL 221850Z 32006KT 280V350 CAVOK 17/07 Q1015 NOSIG=
200808221820 METAR EGLL 221820Z 31008KT 280V350 CAVOK 18/07 Q1014 NOSIG=
200808221750 METAR COR EGLL 221750Z 31008KT CAVOK 18/08 Q1014 NOSIG=
200808221720 METAR EGLL 221720Z 31009KT CAVOK 19/06 Q1014 NOSIG=
200808221650 METAR COR EGLL 221650Z 31010KT CAVOK 19/07 Q1014 NOSIG=
200808221620 METAR COR EGLL 221620Z 30010KT CAVOK 20/06 Q1014 NOSIG=
200808221550 METAR COR EGLL 221550Z 31010KT 280V350 CAVOK 19/06 Q1014
                        NOSIG=
200808221520 METAR EGLL 221520Z 31010KT 280V350 9999 FEW043 20/07 Q1014
                        NOSIG=
200808221450 METAR EGLL 221450Z 32008KT 280V350 9999 SCT043 20/08 Q1014=
200808221420 METAR COR EGLL 221420Z 32006KT 280V010 9999 SCT044 20/09
                        Q1014 NOSIG=
200808221350 METAR COR EGLL 221350Z 33007KT 280V010 9999 SCT044 20/09
                        Q1014 NOSIG=
200808221320 METAR COR EGLL 221320Z 33007KT 270V010 9999 SCT035 20/10
                        Q1014 NOSIG=
200808221250 METAR COR EGLL 221250Z 29007KT 250V010 9999 SCT038 20/10
                        Q1014 NOSIG=
200808221220 METAR COR EGLL 221220Z 29005KT 230V330 9999 SCT032 19/10
                        Q1014 NOSIG=
200808221150 METAR EGLL 221150Z VRB04KT 9999 SCT036 19/10 Q1014=
200808221120 METAR COR EGLL 221120Z 28004KT 200V010 9999 FEW036 SCT046
                        18/09 Q1014 NOSIG=
200808221050 METAR EGLL 221050Z 35004KT 280V050 9999 FEW024 SCT036 17/11
                        Q1014 NOSIG=
200808221020 METAR EGLL 221020Z VRB03KT 9999 FEW030 SCT035 17/11 Q1015
                        NOSIG=
200808220950 METAR COR EGLL 220950Z 02005KT 310V070 9999 SCT033 BKN048
                        16/11 Q1015 NOSIG=
200808220920 METAR COR EGLL 220920Z 36005KT 330V050 9999 SCT035 SCT048
                        16/11 Q1015 NOSIG=
200808220850 METAR COR EGLL 220850Z 01007KT 340V050 9999 FEW020 BKN047
                        16/11 Q1015 NOSIG=
200808220820 METAR COR EGLL 220820Z 36006KT 330V050 9999 SCT028 16/12
                        Q1015 NOSIG=
200808220750 METAR COR EGLL 220750Z 04004KT 9999 FEW012 15/11 Q1015 NOSIG=
200808220720 METAR EGLL 220720Z 03004KT 320V060 9999 SCT008 16/13 Q1015=
200808220650 METAR COR EGLL 220650Z VRB03KT 9999 FEW028 15/13 Q1014 NOSIG=
200808220620 METAR COR EGLL 220620Z VRB02KT 9999 -RA FEW024 15/13 Q1014
                        RERA NOSIG=
200808220550 METAR COR EGLL 220550Z 00000KT 9999 RA FEW045 15/13 Q1014
                        BECMG NSW=
200808220520 METAR COR EGLL 220520Z 29004KT 9999 -RA FEW033 SCT045 15/13
                        Q1014 TEMPO SHRA=
200808220450 METAR COR EGLL 220450Z 30004KT 9999 SCT033 SCT047 15/12 Q1014
                        TEMPO SHRA=
200808220420 METAR COR EGLL 220420Z 29004KT 9999 FEW032 15/12 Q1014 TEMPO
                        SHRA=
200808220350 METAR COR EGLL 220350Z 27005KT 9999 FEW035 15/12 Q1014 NOSIG=
200808220320 METAR EGLL 220320Z NIL=
200808220250 METAR COR EGLL 220250Z 25005KT CAVOK 15/12 Q1014 NOSIG=
200808220220 METAR COR EGLL 220220Z 25005KT CAVOK 15/12 Q1014 NOSIG=
200808220150 METAR COR EGLL 220150Z 23005KT CAVOK 16/12 Q1014 NOSIG=
200808220120 METAR EGLL 220120Z AUTO 26005KT 9999NDV NCD 16/13 Q1014=
200808220050 METAR EGLL 220050Z AUTO 28004KT 9999NDV NCD 16/13 Q1014=
200808220020 METAR EGLL 220020Z AUTO 25004KT 9999NDV NCD 16/12 Q1014=
200808212350 METAR EGLL 212350Z 25005KT CAVOK 16/13 Q1015 NOSIG=
200808212320 METAR COR EGLL 212320Z 26005KT CAVOK 17/13 Q1015 NOSIG=
200808212250 METAR EGLL 212250Z 27006KT CAVOK 17/13 Q1015 NOSIG=
200808212220 METAR EGLL 212220Z 26009KT CAVOK 17/13 Q1015 TEMPO SHRA=
200808212150 METAR COR EGLL 212150Z 25010KT CAVOK 18/13 Q1015 TEMPO SHRA=
200808212120 METAR COR EGLL 212120Z 24011KT CAVOK 18/13 Q1015 NOSIG=
200808212050 METAR EGLL 212050Z 23010KT CAVOK 18/13 Q1015 NOSIG=
200808212020 METAR COR EGLL 212020Z 24010KT 9999 FEW043 18/13 Q1015 TEMPO
                        SHRA=
200808211950 METAR COR EGLL 211950Z 22011KT 9999 FEW043 18/13 Q1015 NOSIG=
200808211920 METAR EGLL 211920Z 22010KT 9999 FEW042 19/13 Q1014 NOSIG=
200808211850 METAR COR EGLL 211850Z 23012KT 9999 FEW042 20/13 Q1014 NOSIG=
200808211820 METAR COR EGLL 211820Z 23012G22KT 9999 SCT042 20/13 Q1014
                        NOSIG=
200808211750 METAR COR EGLL 211750Z 25012KT 9999 FEW046 21/11 Q1014 NOSIG=
200808211720 METAR EGLL 211720Z 25011KT 9999 FEW043 21/11 Q1013 NOSIG=
200808211650 METAR EGLL 211650Z 25011KT 9999 FEW044 22/11 Q1014 NOSIG=
200808211620 METAR EGLL 211620Z 25013KT 9999 SCT043 22/11 Q1014 NOSIG=
200808211550 METAR EGLL 211550Z 24015KT 9999 FEW042 22/11 Q1014 NOSIG=
200808211520 METAR COR EGLL 211520Z 24013KT 9999 FEW044 21/10 Q1014 NOSIG=
200808211450 METAR EGLL 211450Z 24012KT 200V270 9999 FEW048 22/10 Q1014
                        NOSIG=
200808211420 METAR EGLL 211420Z 25012KT 9999 FEW048 22/10 Q1014 NOSIG=
200808211350 METAR COR EGLL 211350Z 26012KT 9999 FEW040 21/11 Q1014 NOSIG=
200808211320 METAR COR EGLL 211320Z 26012KT 9999 FEW040 21/11 Q1014 NOSIG=
200808211250 METAR COR EGLL 211250Z 25012KT 9999 FEW035 20/11 Q1014 NOSIG=
200808211220 METAR COR EGLL 211220Z 24012KT 9999 FEW030 SCT048 20/11 Q1014
                        NOSIG=
200808211150 METAR EGLL 211150Z 25011KT 9999 FEW031 SCT041 20/12 Q1014
                        NOSIG=
200808211120 METAR COR EGLL 211120Z 25013KT 9999 SCT029 SCT043 20/12 Q1014
                        NOSIG=
200808211050 METAR COR EGLL 211050Z 23011KT 9999 FEW025 SCT030 20/13 Q1014
                        NOSIG=
200808211020 METAR EGLL 211020Z 25010KT 9999 FEW020 SCT038 19/13 Q1014
                        NOSIG=
200808210950 METAR EGLL 210950Z 23010KT 9999 SCT020 19/14 Q1014 NOSIG=
200808210920 METAR EGLL 210920Z 23010KT 200V270 9999 FEW015 SCT022 18/14
                        Q1014 NOSIG=
200808210850 METAR COR EGLL 210850Z 23011KT 9999 SCT014 18/14 Q1014 NOSIG=
200808210820 METAR COR EGLL 210820Z 23010KT 9999 SCT010 18/14 Q1014 NOSIG=
200808210750 METAR COR EGLL 210750Z 22010KT 9999 SCT008 17/14 Q1013 NOSIG=
200808210720 METAR COR EGLL 210720Z 23010KT 9999 FEW007 SCT024 16/14 Q1013
                        NOSIG=
200808210650 METAR COR EGLL 210650Z 21007KT 9999 7000NE FEW012 SCT027
                        16/14 Q1013 NOSIG=
200808210620 METAR COR EGLL 210620Z 21007KT 170V240 9999 SCT022 SCT028
                        15/14 Q1013 NOSIG=
200808210550 METAR COR EGLL 210550Z 22008KT 190V260 5000 -DZ FEW007 BKN016
                        BKN025 15/14 Q1013 TEMPO BKN012=
200808210520 METAR COR EGLL 210520Z 22008KT 190V250 4700 -DZ SCT006 BKN045
                        15/14 Q1012 BECMG 9999 NSW=
200808210450 METAR COR EGLL 210450Z 21005KT 9999 SCT006 15/14 Q1012 TEMPO
                        BKN010=
200808210420 METAR COR EGLL 210420Z 21005KT 9999 FEW005 SCT038 15/14 Q1012
                        NOSIG=
200808210350 METAR EGLL 210350Z 20007KT 9999 FEW034 SCT044 15/14 Q1012
                        NOSIG=
200808210320 METAR COR EGLL 210320Z 23008KT 9999 SCT012 SCT033 BKN038
                        15/14 Q1012 NOSIG=
200808210250 METAR COR EGLL 210250Z 22006KT 9999 FEW010 SCT027 15/13 Q1012
                        NOSIG=
200808210220 METAR COR EGLL 210220Z 22006KT 9999 FEW024 SCT027 15/13 Q1012
                        NOSIG=
200808210150 METAR COR EGLL 210150Z 22007KT 9999 BKN019 15/13 Q1012 NOSIG=
200808210120 METAR EGLL 210120Z AUTO 22007KT 9999NDV -RA FEW035/// BKN048///
                        15/14 Q1012=
200808210050 METAR EGLL 210050Z AUTO 21009KT 9999NDV DZ FEW007/// SCT026///
                        BKN045/// 15/14 Q1012 RERA=
200808210020 METAR EGLL 210020Z AUTO 21008KT 7000NDV +RA FEW009/// 15/14
                        Q1012=
200808202350 METAR COR EGLL 202350Z 21008KT 8000 FEW017 SCT028 16/14 Q1012
                        TEMPO RA=
200808202320 METAR COR EGLL 202320Z 21008KT 9999 FEW016 OVC020 16/14 Q1012
                        NOSIG=
200808202250 METAR COR EGLL 202250Z 21008KT 9999 FEW012 SCT017 BKN036
                        16/14 Q1012 NOSIG=
200808202220 METAR EGLL 202220Z 22008KT 9999 FEW026 BKN030 16/14 Q1012
                        NOSIG=
200808202150 METAR COR EGLL 202150Z 22011KT 9999 FEW010 SCT015 BKN039
                        16/14 Q1012 NOSIG=
200808202120 METAR COR EGLL 202120Z 21009KT 180V250 9999 FEW018 SCT026
                        BKN037 16/14 Q1012 NOSIG=
200808202050 METAR EGLL 202050Z 20010KT 170V240 9999 SCT013 BKN030 16/15
                        Q1012 TEMPO BKN010=
200808202020 METAR COR EGLL 202020Z 19011KT 160V240 9999 SCT010 BKN016
                        16/14 Q1012 TEMPO BKN009=
200808201950 METAR COR EGLL 201950Z 19010KT 150V240 9999 BKN010 15/14
                        Q1012 TEMPO BKN009=
200808201920 METAR COR EGLL 201920Z 19009KT 160V230 9999 -RA BKN009 15/14
                        Q1012 RERA TEMPO BKN012=
200808201850 METAR COR EGLL 201850Z 20011KT 9999 -RA FEW019 SCT030 16/13
                        Q1012 BECMG BKN010=
200808201820 METAR COR EGLL 201820Z 22011KT 9999 -RA SCT024 17/13 Q1012
                        NOSIG=
200808201750 METAR COR EGLL 201750Z 21012KT 9999 SCT021 BKN023 18/12 Q1012
                        NOSIG=
200808201720 METAR EGLL 201720Z 21013KT 9999 SCT023 BKN028 18/12 Q1012
                        NOSIG=
200808201650 METAR EGLL 201650Z 23015KT 9999 SCT025 BKN031 19/12 Q1012
                        NOSIG=
200808201620 METAR EGLL 201620Z 22014KT 9999 FEW027 BKN038 19/12 Q1012
                        NOSIG=
200808201550 METAR COR EGLL 201550Z 22016KT 9999 FEW028 BKN033 19/12 Q1012
                        NOSIG=
200808201520 METAR COR EGLL 201520Z 22015KT 9999 SCT033 SCT046 20/12 Q1012
                        NOSIG=
200808201450 METAR COR EGLL 201450Z 23014KT 9999 FEW040 BKN045 20/11 Q1012
                        NOSIG=
200808201420 METAR COR EGLL 201420Z 24014KT 9999 BKN040 21/10 Q1012 NOSIG=
200808201350 METAR EGLL 201350Z 25015KT 9999 BKN040 20/10 Q1012 NOSIG=
200808201320 METAR COR EGLL 201320Z 24016KT 9999 FEW038 22/10 Q1012 NOSIG=
200808201250 METAR COR EGLL 201250Z 24012KT 210V290 9999 FEW037 21/11
                        Q1012 NOSIG=
200808201220 METAR COR EGLL 201220Z 25017KT 9999 FEW032 21/11 Q1012 NOSIG=
200808201150 METAR EGLL 201150Z 25014KT 9999 SCT049 19/11 Q1012 NOSIG=
200808201120 METAR COR EGLL 201120Z 25012KT 9999 FEW030 SCT035 19/11 Q1011
                        NOSIG=
200808201050 METAR COR EGLL 201050Z 26017KT 9999 SCT027 20/11 Q1011 NOSIG=
200808201020 METAR COR EGLL 201020Z 26013KT 9999 SCT023 19/12 Q1011 NOSIG=
200808200950 METAR COR EGLL 200950Z 25014KT 9999 SCT020 SCT045 20/13 Q1011
                        NOSIG=
200808200920 METAR COR EGLL 200920Z 25013KT 9999 SCT018 18/13 Q1011 NOSIG=
200808200850 METAR COR EGLL 200850Z 25013KT 9999 SCT017 18/13 Q1011 NOSIG=
200808200820 METAR COR EGLL 200820Z 24013KT 9999 SCT015 17/13 Q1010 NOSIG=
200808200750 METAR COR EGLL 200750Z 24011KT 9999 FEW015 17/13 Q1010 NOSIG=
200808200720 METAR EGLL 200720Z 24011KT 9999 SCT015 17/13 Q1010 NOSIG=
200808200650 METAR EGLL 200650Z 24010KT 9999 BKN013 16/13 Q1009 BECMG
                        BKN015=
200808200620 METAR COR EGLL 200620Z 24009KT 9999 SCT012 16/13 Q1009 TEMPO
                        BKN014=
200808200550 METAR EGLL 200550Z 24009KT 9999 SCT013 BKN045 16/13 Q1009
                        TEMPO BKN014=
200808200520 METAR COR EGLL 200520Z 24009KT 9999 BKN017 16/13 Q1009 TEMPO
                        BKN014=
200808200450 METAR COR EGLL 200450Z 23010KT 9999 OVC017 16/13 Q1009 NOSIG=
200808200420 METAR COR EGLL 200420Z 24010KT 9999 BKN016 15/13 Q1008 BECMG
                        BKN014=
200808200350 METAR COR EGLL 200350Z 23010KT 9999 SCT017 15/13 Q1008 TEMPO
                        BKN014=
200808200320 METAR EGLL 200320Z NIL=
200808200250 METAR COR EGLL 200250Z 25010KT 9999 FEW012 15/14 Q1008 TEMPO
                        BKN012=
200808200220 METAR COR EGLL 200220Z 23010KT 9999 FEW013 15/14 Q1008 TEMPO
                        BKN012=
200808200150 METAR COR EGLL 200150Z 23010KT 9999 FEW014 15/14 Q1008 TEMPO
                        BKN014=
200808200120 METAR EGLL 200120Z AUTO 23010KT 9999NDV NCD 15/14 Q1008=
200808200050 METAR EGLL 200050Z AUTO 24009KT 9999NDV FEW018/// 15/14 Q1008=
200808200020 METAR EGLL 200020Z AUTO 24011KT 9999NDV BKN017/// 15/14 Q1008=
200808192350 METAR EGLL 192350Z 24010KT 9999 SCT017 15/14 Q1008 NOSIG=
200808192320 METAR EGLL 192320Z 25010KT CAVOK 15/14 Q1007 NOSIG=
200808192250 METAR COR EGLL 192250Z 25011KT CAVOK 15/14 Q1007 NOSIG=
200808192220 METAR COR EGLL 192220Z 25011KT CAVOK 15/14 Q1007 NOSIG=
200808192150 METAR COR EGLL 192150Z 26013KT CAVOK 16/14 Q1007 NOSIG=
200808192120 METAR COR EGLL 192120Z 26015KT CAVOK 16/15 Q1007 NOSIG=
200808192050 METAR COR EGLL 192050Z 26015KT 9999 FEW034 SCT045 16/15 Q1006
                        NOSIG=
200808192020 METAR COR EGLL 192020Z 26012KT 9999 FEW048 16/15 Q1006 NOSIG=
200808191950 METAR COR EGLL 191950Z 27009KT 9999 FEW024 16/15 Q1005 NOSIG=
200808191920 METAR EGLL 191920Z 25010KT 9999 FEW020 16/16 Q1005 NOSIG=
200808191850 METAR COR EGLL 191850Z 26011KT 9999 FEW019 17/16 Q1005 NOSIG=
200808191820 METAR COR EGLL 191820Z 26016KT 9999 6000NE -SHRA FEW019CB
                        SCT038 17/15 Q1004 NOSIG=
200808191750 METAR COR EGLL 191750Z 25013KT 9999 FEW015CB SCT034 SCT045
                        18/15 Q1004 TEMPO SHRA=
200808191720 METAR EGLL 191720Z 25014KT 9999 FEW033 17/15 Q1004 TEMPO
                        SHRA=
200808191650 METAR COR EGLL 191650Z 25016KT 9999 VCSH FEW028 SCT046 18/16
                        Q1004 TEMPO SHRA=
200808191620 METAR COR EGLL 191620Z 25010KT 180V310 9999 6000N -SHRA SCT028
                        SCT042 19/15 Q1003 TEMPO SHRA=
200808191550 METAR COR EGLL 191550Z 22017G28KT 9999 6000NW VCSH SCT030
                        SCT043 20/14 Q1003 TEMPO SHRA=
200808191520 METAR EGLL 191520Z 23017KT 9999 SCT030 21/14 Q1003 TEMPO
                        SHRA=
200808191450 METAR COR EGLL 191450Z 23017KT 9999 SCT029 SCT037 21/14 Q1003
                        TEMPO SHRA=
200808191420 METAR COR EGLL 191420Z 23018KT 9999 SCT027 SCT036 21/14 Q1003
                        NOSIG=
200808191350 METAR EGLL 191350Z 23018KT 9999 SCT027 SCT034 21/14 Q1003
                        NOSIG=
200808191320 METAR COR EGLL 191320Z 23019G29KT 9999 SCT031 SCT039 21/14
                        Q1003 NOSIG=
200808191250 METAR EGLL 191250Z 23015KT 9999 BKN031 BKN041 20/14 Q1003
                        NOSIG=
200808191220 METAR EGLL 191220Z 22016KT 9999 FEW030 SCT035 BKN041 20/14
                        Q1003 NOSIG=
200808191150 METAR EGLL 191150Z 23015KT 9999 FEW023 BKN028 19/14 Q1003
                        NOSIG=
200808191120 METAR EGLL 191120Z 23017KT 9999 FEW023 BKN032 18/14 Q1003
                        NOSIG=
200808191050 METAR COR EGLL 191050Z 23018KT 9999 BKN024 18/14 Q1002 NOSIG=
200808191020 METAR COR EGLL 191020Z 23015KT 9999 FEW022 BKN027 18/14 Q1002
                        NOSIG=
200808190950 METAR EGLL 190950Z 23018KT 9999 FEW023 BKN026 18/14 Q1002
                        NOSIG=
200808190920 METAR COR EGLL 190920Z 23018KT 9999 FEW023 SCT026 18/13 Q1002
                        NOSIG=
200808190850 METAR COR EGLL 190850Z 22017KT 9999 SCT023 SCT026 18/13 Q1002
                        NOSIG=
200808190820 METAR COR EGLL 190820Z 23018KT 9999 FEW022 SCT028 17/13 Q1002
                        NOSIG=
200808190750 METAR EGLL 190750Z 22015KT 9999 FEW027 17/13 Q1002 NOSIG=
200808190720 METAR COR EGLL 190720Z 21012KT CAVOK 17/13 Q1001 NOSIG=
200808190650 METAR COR EGLL 190650Z 22014KT 9999 FEW048 16/13 Q1001 NOSIG=
200808190620 METAR EGLL 190620Z 21014KT 9999 FEW048 16/13 Q1001 TEMPO
                        22017G28KT=
200808190550 METAR EGLL 190550Z 21011G22KT 9999 FEW028 15/13 Q1002 NOSIG=
200808190520 METAR COR EGLL 190520Z 21010KT 9999 FEW026 SCT035 15/13 Q1002
                        TEMPO 22017G28KT=
200808190450 METAR COR EGLL 190450Z 21011KT 9999 FEW028 SCT040 15/13 Q1002
                        TEMPO 22017G28KT=
200808190420 METAR COR EGLL 190420Z 22012KT 190V250 9999 FEW023 15/12
                        Q1002 TEMPO 22017G28KT=
200808190350 METAR EGLL 190350Z 22013G24KT 9999 FEW023 15/12 Q1001 NOSIG=
200808190320 METAR EGLL 190320Z 22013KT 9999 FEW023 15/12 Q1001 TEMPO
                        22017G28KT=
200808190250 METAR COR EGLL 190250Z 22012KT 9999 FEW030 15/12 Q1001 TEMPO
                        22017G28KT=
200808190220 METAR EGLL 190220Z 22017KT 9999 SCT027 15/12 Q1002=
200808190150 METAR EGLL 190150Z 22018G28KT 9999 FEW031 16/13 Q1002 NOSIG=
200808190120 METAR EGLL 190120Z AUTO 22015KT 9999NDV FEW021/// SCT024///
                        15/13 Q1002=
200808190050 METAR EGLL 190050Z AUTO 23014KT 9999NDV SCT027/// 15/13 Q1002=
200808190020 METAR EGLL 190020Z AUTO 22011KT 9999NDV SCT021/// SCT028///
                        BKN034/// 16/13 Q1002=
200808182350 METAR EGLL 182350Z 21010KT 9999 FEW022 SCT028 BKN042 16/14
                        Q1002 NOSIG=
200808182320 METAR COR EGLL 182320Z 22009KT 9999 FEW047 15/14 Q1002 NOSIG=
200808182250 METAR EGLL 182250Z 23015KT 9999 SCT016 16/14 Q1002 NOSIG=
200808182220 METAR EGLL 182220Z 20013KT 9999 SCT017 16/15 Q1002 NOSIG=
200808182150 METAR COR EGLL 182150Z 21013KT 9999 SCT026 16/14 Q1002 TEMPO
                        SHRA=
200808182120 METAR COR EGLL 182120Z 21013KT 9999 SCT022 17/14 Q1002 TEMPO
                        21017G27KT SHRA=
200808182050 METAR EGLL 182050Z 20014KT 170V230 9999 FEW018 SCT026 17/14
                        Q1002 TEMPO SHRA=
200808182020 METAR COR EGLL 182020Z 19014G24KT 9999 FEW019 SCT035 17/14
                        Q1002 TEMPO SHRA=
200808181950 METAR COR EGLL 181950Z 20015KT 9999 FEW022 SCT030 17/14 Q1002
                        NOSIG=
200808181920 METAR COR EGLL 181920Z 21013KT 9999 SCT019 BKN026 BKN032
                        17/14 Q1002 NOSIG=
200808181850 METAR COR EGLL 181850Z 23009KT 180V250 9999 VCSH SCT015 SCT021
                        17/14 Q1002 REDZ NOSIG=
200808181820 METAR EGLL 181820Z 21015KT 180V240 6000 -DZ SCT019 SCT024
                        17/14 Q1002 TEMPO SHRA=
200808181750 METAR COR EGLL 181750Z 20014KT 180V240 9999 SCT017 BKN032
                        18/14 Q1002 TEMPO SHRA=
200808181720 METAR EGLL 181720Z 19015KT 170V240 9999 SCT018 BKN030 18/14
                        Q1002 NOSIG=
200808181650 METAR COR EGLL 181650Z 20015KT 170V230 9999 SCT016 SCT022
                        18/14 Q1002 NOSIG=
200808181620 METAR COR EGLL 181620Z 19015KT 170V230 9999 SCT012 BKN018
                        18/14 Q1002 TEMPO BKN012=
200808181550 METAR COR EGLL 181550Z 20015KT 170V230 9999 SCT012 BKN018
                        18/15 Q1002 TEMPO BKN012=
200808181520 METAR COR EGLL 181520Z 19014KT 150V220 9999 5000S VCSH SCT010
                        BKN024 17/15 Q1002 TEMPO -SHRA BKN013=
200808181450 METAR COR EGLL 181450Z 20015KT 170V230 9999 -SHRA SCT018
                        BKN022 18/15 Q1002 TEMPO SHRA=
200808181420 METAR COR EGLL 181420Z 19016KT 170V240 9999 SCT019 SCT024
                        18/14 Q1002 TEMPO SHRA=
200808181350 METAR COR EGLL 181350Z 21016KT 9999 SCT024 BKN033 19/13 Q1002
                        NOSIG=
200808181320 METAR COR EGLL 181320Z 20014KT 9999 FEW027 SCT035 19/13 Q1003
                        NOSIG=
200808181250 METAR COR EGLL 181250Z 22013KT 180V240 9999 FEW027 BKN034
                        BKN040 18/13 Q1003 NOSIG=
200808181220 METAR COR EGLL 181220Z 24014KT 9999 VCSH SCT027 BKN047 18/14
                        Q1003 NOSIG=
200808181150 METAR EGLL 181150Z 22016KT 9999 FEW029 SCT040 BKN048 19/12
                        Q1002 NOSIG=
200808181120 METAR COR EGLL 181120Z 21014KT 9999 FEW034 SCT040 19/12 Q1002
                        NOSIG=
200808181050 METAR COR EGLL 181050Z 22014KT 9999 FEW027 SCT034 20/12 Q1002
                        NOSIG=
200808181020 METAR COR EGLL 181020Z 22014KT 9999 BKN027 19/13 Q1002 NOSIG=
200808180950 METAR COR EGLL 180950Z 22013KT 9999 FEW024 SCT027 20/13 Q1002
                        NOSIG=
200808180920 METAR EGLL 180920Z 23014KT 9999 FEW011 SCT017 19/14 Q1002
                        NOSIG=
200808180850 METAR COR EGLL 180850Z 22013KT 9999 FEW011 SCT017 19/15 Q1002
                        NOSIG=
200808180820 METAR COR EGLL 180820Z 21011KT 9999 FEW005 BKN010 18/16 Q1002
                        BECMG SCT012=
200808180750 METAR EGLL 180750Z 16008KT 9999 -RA SCT005 BKN009 17/16 Q1001
                        BECMG SCT010=
200808180720 METAR EGLL 180720Z 16008KT 4900 -RADZ SCT005 BKN008 16/15
                        Q1002 BECMG 9999 NSW SCT010=
200808180650 METAR COR EGLL 180650Z 15011KT 6000 -RA SCT005 BKN009 16/15
                        Q1002 BECMG SCT010=
200808180620 METAR COR EGLL 180620Z 15010KT 5000 -RA SCT004 BKN009 16/15
                        Q1002 RERA TEMPO 4000 RA=
200808180550 METAR COR EGLL 180550Z 15009KT 4500 RA SCT005 BKN010 15/14
                        Q1002 REDZ TEMPO BKN005=
200808180520 METAR COR EGLL 180520Z 14008KT 9999 -RADZ SCT007 BKN010 15/14
                        Q1002 TEMPO 4000 RA BKN007=
200808180450 METAR COR EGLL 180450Z 14007KT 9999 -RA SCT005 BKN010 15/14
                        Q1003 RERA TEMPO 4000 RA BKN005=
200808180420 METAR COR EGLL 180420Z 14007KT 4500 RA OVC005 15/14 Q1003
                        BECMG 6000 -RA=
200808180350 METAR EGLL 180350Z 15006KT 6000 -RA SCT009 BKN011 15/14 Q1003
                        TEMPO RA BKN009=
200808180320 METAR COR EGLL 180320Z 12008KT 9999 -RA SCT011 BKN014 15/14
                        Q1004 TEMPO RA=
200808180250 METAR COR EGLL 180250Z 11007KT 9999 SCT015 BKN032 15/13 Q1004
                        TEMPO BKN014=
200808180220 METAR EGLL 180220Z 14008KT 9999 FEW018 BKN039 15/13 Q1004
                        RERA BECMG BKN014=
200808180150 METAR COR EGLL 180150Z 14008KT 6000 RA FEW010 SCT042 14/13
                        Q1005 BECMG BKN014=
200808180120 METAR EGLL 180120Z AUTO 13008KT 5000NDV -RA FEW020/// SCT040///
                        BKN047/// 15/13 Q1005 RERA=
200808180050 METAR EGLL 180050Z AUTO 13007KT 7000NDV RA SCT029/// SCT034///
                        15/13 Q1006=
200808180020 METAR EGLL 180020Z AUTO 16007KT 9999NDV FEW028/// BKN043///
                        15/12 Q1006=
200808172350 METAR COR EGLL 172350Z 15006KT 9999 -RA FEW032 BKN047 15/12
                        Q1006 TEMPO RA=
200808172320 METAR EGLL 172320Z 15007KT 9999 -RA SCT035 15/12 Q1006 NOSIG=
200808172250 METAR EGLL 172250Z 14006KT 100V170 9999 -RA FEW045 15/12
                        Q1007 NOSIG=
200808172220 METAR COR EGLL 172220Z 15006KT 9999 FEW041 15/12 Q1007 NOSIG=
200808172150 METAR COR EGLL 172150Z 16006KT CAVOK 15/12 Q1007 NOSIG=
200808172120 METAR EGLL 172120Z 18008KT 130V200 9999 -RA NSC 15/12 Q1008
                        NOSIG=
200808172050 METAR COR EGLL 172050Z 18008KT 160V220 9999 -RA NSC 15/11
                        Q1008 NOSIG=
200808172020 METAR EGLL 172020Z 18007KT 150V220 CAVOK 15/11 Q1008 NOSIG=
200808171950 METAR COR EGLL 171950Z 22008KT 9999 -RA FEW040 15/11 Q1007
                        NOSIG=
200808171920 METAR COR EGLL 171920Z 22010KT 9999 -RA FEW040 16/10 Q1007
                        NOSIG=
200808171850 METAR EGLL 171850Z 21010KT 9999 -RA NSC 17/10 Q1007 NOSIG=
200808171820 METAR COR EGLL 171820Z 22011KT CAVOK 17/10 Q1007 NOSIG=
200808171750 METAR EGLL 171750Z 22012KT 9999 FEW030 17/10 Q1007 NOSIG=
200808171720 METAR COR EGLL 171720Z 22011KT CAVOK 18/10 Q1007 NOSIG=
200808171650 METAR COR EGLL 171650Z 22012KT CAVOK 18/10 Q1007 NOSIG=
200808171620 METAR COR EGLL 171620Z 22012KT 9999 FEW040 18/09 Q1007 NOSIG=
200808171550 METAR COR EGLL 171550Z 23016KT 9999 FEW038 19/09 Q1006 NOSIG=
200808171520 METAR COR EGLL 171520Z 21012KT 9999 FEW041 19/10 Q1006 NOSIG=
200808171450 METAR COR EGLL 171450Z 23013KT 9999 FEW047 20/08 Q1006 NOSIG=
200808171420 METAR COR EGLL 171420Z 23014KT 9999 FEW048 21/08 Q1006 NOSIG=
200808171350 METAR COR EGLL 171350Z 24013KT 9999 FEW049 20/07 Q1006 NOSIG=
200808171320 METAR COR EGLL 171320Z 23015G25KT 190V250 9999 FEW048 21/07
                        Q1006 NOSIG=
200808171250 METAR COR EGLL 171250Z 23012KT 200V280 9999 FEW045 20/08
                        Q1006 NOSIG=
200808171220 METAR COR EGLL 171220Z 23013KT 200V260 9999 FEW044 20/08
                        Q1006 NOSIG=
200808171150 METAR COR EGLL 171150Z 22012KT 9999 SCT042 21/08 Q1006 NOSIG=
200808171120 METAR COR EGLL 171120Z 26011KT 9999 SCT041 20/09 Q1006 NOSIG=
200808171050 METAR COR EGLL 171050Z 26013KT 9999 FEW043 19/09 Q1006 NOSIG=
200808171020 METAR COR EGLL 171020Z 26011KT 9999 FEW029 SCT036 18/09 Q1006
                        NOSIG=
200808170950 METAR COR EGLL 170950Z 26012KT 9999 FEW026 SCT043 19/10 Q1006
                        NOSIG=
200808170920 METAR EGLL 170920Z 25014KT 9999 FEW033 SCT044 18/10 Q1005
                        NOSIG=
200808170850 METAR COR EGLL 170850Z 25013KT 9999 SCT028 18/08 Q1005 NOSIG=
200808170820 METAR COR EGLL 170820Z 26009KT 9999 FEW022 17/13 Q1005 NOSIG=
200808170750 METAR COR EGLL 170750Z 25011KT 9999 FEW036 16/13 Q1005 NOSIG=
200808170720 METAR COR EGLL 170720Z 26011KT 9999 FEW037 16/13 Q1005 NOSIG=
200808170650 METAR COR EGLL 170650Z 26010KT 9999 FEW011 SCT028 BKN040
                        16/12 Q1004 NOSIG=
200808170620 METAR EGLL 170620Z 25011KT 9999 -RADZ FEW011 BKN015 16/13
                        Q1004 NOSIG=
200808170550 METAR COR EGLL 170550Z 22010KT 190V250 9999 SCT013 BKN046
                        16/13 Q1004 NOSIG=
200808170520 METAR COR EGLL 170520Z 23009KT 200V260 9999 FEW018 SCT022
                        16/14 Q1003 NOSIG=
200808170450 METAR COR EGLL 170450Z 21007KT 9999 FEW014 SCT038 BKN049
                        16/14 Q1003 NOSIG=
200808170420 METAR COR EGLL 170420Z 17008KT 130V220 9999 SCT009 SCT014
                        16/14 Q1003 TEMPO 4000 RADZ BKN008=
200808170350 METAR COR EGLL 170350Z 17009KT 9999 BKN011 16/14 Q1003 TEMPO
                        4000 RADZ BKN007=
200808170320 METAR COR EGLL 170320Z 16009KT 9999 BKN010 16/14 Q1003TEMPO
                        4000 RADZ BKN008=
200808170250 METAR COR EGLL 170250Z 15008KT 9999 BKN014 16/14 Q1003 TEMPO
                        TEMPO 4500 RADZ BKN007=
200808170220 METAR COR EGLL 170220Z 15008KT 9999 -RADZ SCT026 BKN043 16/14
                        Q1003 BECMG BKN012=
200808170150 METAR EGLL 170150Z NIL=
200808170120 METAR EGLL 170120Z AUTO 15009KT 9999NDV -RA BKN030/// 17/13
                        Q1004=
200808170050 METAR EGLL 170050Z AUTO 15009KT 9999NDV SCT033/// BKN037///
                        OVC044/// 17/13 Q1004=
200808170020 METAR EGLL 170020Z AUTO 14008KT 9999NDV BKN040/// 17/12 Q1004=
200808162350 METAR COR EGLL 162350Z 14009KT 9999 BKN043 17/12 Q1005 NOSIG=
200808162320 METAR COR EGLL 162320Z 14009KT 9999 SCT047 17/12 Q1005 NOSIG=
200808162250 METAR COR EGLL 162250Z 16009KT 9999 FEW024 17/12 Q1005 NOSIG=
200808162220 METAR COR EGLL 162220Z 15009KT 9999 FEW036 17/12 Q1006 NOSIG=
200808162150 METAR EGLL 162150Z 14009KT 9999 FEW046 17/11 Q1006 NOSIG=
200808162120 METAR COR EGLL 162120Z 13010KT 9999 FEW046 17/11 Q1006 NOSIG=
200808162050 METAR EGLL 162050Z 13009KT CAVOK 18/10 Q1006 NOSIG=
200808162020 METAR COR EGLL 162020Z 13010KT CAVOK 18/10 Q1006 NOSIG=
200808161950 METAR COR EGLL 161950Z 14009KT 100V160 CAVOK 18/10 Q1006
                        NOSIG=
200808161920 METAR EGLL 161920Z 14009KT 100V170 CAVOK 18/10 Q1006 NOSIG=
200808161850 METAR EGLL 161850Z 16009KT 120V200 CAVOK 18/10 Q1006 NOSIG=
200808161820 METAR EGLL 161820Z VRB09KT CAVOK 19/10 Q1006 NOSIG=
200808161750 METAR EGLL 161750Z 17010KT 130V200 9999 FEW036 19/10 Q1006
                        NOSIG=
200808161720 METAR EGLL 161720Z 17013KT 150V210 9999 FEW036 19/10 Q1006
                        NOSIG=
200808161650 METAR COR EGLL 161650Z VRB12KT 9999 FEW036 19/10 Q1006 NOSIG=
200808161620 METAR COR EGLL 161620Z 17015KT 140V200 9999 FEW037 20/10
                        Q1006 NOSIG=
200808161550 METAR COR EGLL 161550Z 17016KT 9999 FEW040 20/10 Q1007 NOSIG=
200808161520 METAR EGLL 161520Z 18014KT 9999 FEW040 20/09 Q1007 NOSIG=
200808161450 METAR EGLL 161450Z 18014KT 9999 FEW049 21/10 Q1007 NOSIG=
200808161420 METAR COR EGLL 161420Z 18013KT 140V210 9999 FEW044 20/09
                        Q1007 NOSIG=
200808161350 METAR EGLL 161350Z 18014KT 9999 FEW045 20/09 Q1007 NOSIG=
200808161320 METAR COR EGLL 161320Z 17016KT 9999 FEW048 21/09 Q1007 NOSIG=
200808161250 METAR COR EGLL 161250Z 17014KT 9999 FEW048 22/09 Q1007 NOSIG=
200808161220 METAR COR EGLL 161220Z 19015KT 9999 SCT046 21/08 Q1007 NOSIG=
200808161150 METAR COR EGLL 161150Z 18013KT 9999 SCT040 20/09 Q1008 NOSIG=
200808161120 METAR COR EGLL 161120Z 18014KT 9999 FEW040 20/09 Q1008 NOSIG=
200808161050 METAR COR EGLL 161050Z 17014KT 9999 SCT031 20/10 Q1008 NOSIG=
200808161020 METAR COR EGLL 161020Z 17012KT 9999 SCT028 18/12 Q1008 NOSIG=
200808160950 METAR COR EGLL 160950Z 15012KT 9999 SCT025 19/12 Q1009 NOSIG=
200808160920 METAR COR EGLL 160920Z 15012KT 9999 SCT024 19/13 Q1009 NOSIG=
200808160850 METAR EGLL 160850Z 15012KT 9999 SCT020 18/13 Q1009 NOSIG=
200808160820 METAR EGLL 160820Z 15010KT 9999 FEW020 17/13 Q1009 NOSIG=
200808160750 METAR EGLL 160750Z 14010KT 9999 FEW016 17/13 Q1009 NOSIG=
200808160720 METAR COR EGLL 160720Z 14010KT 9999 FEW019 16/12 Q1009 NOSIG=
200808160650 METAR COR EGLL 160650Z 14008KT 9999 FEW043 16/12 Q1010 NOSIG=
200808160620 METAR EGLL 160620Z 13008KT 100V180 9999 FEW045 14/12 Q1010
                        NOSIG=
200808160550 METAR COR EGLL 160550Z 13008KT 100V170 9999 FEW042 14/12
                        Q1010 NOSIG=
200808160520 METAR COR EGLL 160520Z 13008KT 100V170 9999 FEW038 14/11
                        Q1010 NOSIG=
200808160450 METAR COR EGLL 160450Z 13006KT 9999 FEW038 14/11 Q1010 NOSIG=
200808160420 METAR EGLL 160420Z 13006KT 070V170 9999 FEW038 14/11 Q1010
                        NOSIG=
200808160350 METAR COR EGLL 160350Z 13005KT 100V170 9999 FEW038 14/11
                        Q1011 NOSIG=
200808160320 METAR EGLL 160320Z 14004KT 9999 FEW038 14/11 Q1011 NOSIG=
200808160250 METAR COR EGLL 160250Z 14004KT 9999 FEW039 13/11 Q1012 NOSIG=
200808160220 METAR EGLL 160220Z VRB03KT 9999 FEW038 13/11 Q1012 NOSIG=
200808160150 METAR EGLL 160150Z 14003KT 9999 FEW038 13/10 Q1012 NOSIG=
200808160120 METAR EGLL 160120Z AUTO 17003KT 9999NDV SCT045/// 13/10 Q1012=
200808160050 METAR EGLL 160050Z AUTO 15004KT 9999NDV NCD 12/10 Q1012=
200808160020 METAR EGLL 160020Z AUTO 16005KT 9999NDV NCD 12/10 Q1013=
200808152350 METAR EGLL 152350Z 18005KT CAVOK 13/10 Q1013 NOSIG=
200808152320 METAR COR EGLL 152320Z 20006KT CAVOK 14/10 Q1013 NOSIG=
200808152250 METAR COR EGLL 152250Z 20006KT CAVOK 14/10 Q1013 NOSIG=
200808152220 METAR COR EGLL 152220Z 20007KT CAVOK 14/10 Q1014 NOSIG=
200808152150 METAR EGLL 152150Z 21007KT CAVOK 15/10 Q1014 NOSIG=
200808152120 METAR COR EGLL 152120Z 21009KT CAVOK 15/10 Q1014 NOSIG=
200808152050 METAR EGLL 152050Z 21008KT CAVOK 15/10 Q1014 NOSIG=
200808152020 METAR EGLL 152020Z 21009KT CAVOK 15/10 Q1015 NOSIG=
200808151950 METAR EGLL 151950Z 21009KT CAVOK 16/09 Q1014 NOSIG=
200808151920 METAR COR EGLL 151920Z 21009KT CAVOK 17/09 Q1014 NOSIG=
200808151850 METAR COR EGLL 151850Z 21010KT CAVOK 18/09 Q1014 NOSIG=
200808151820 METAR EGLL 151820Z 22012KT CAVOK 19/08 Q1014 NOSIG=
200808151750 METAR COR EGLL 151750Z 21011KT 180V250 CAVOK 19/08 Q1014
                        NOSIG=
200808151720 METAR COR EGLL 151720Z 21011KT CAVOK 20/10 Q1014 NOSIG=
200808151650 METAR COR EGLL 151650Z 22011KT CAVOK 20/09 Q1014 NOSIG=
200808151620 METAR COR EGLL 151620Z 21011KT CAVOK 21/08 Q1014 NOSIG=
200808151550 METAR COR EGLL 151550Z 23009KT 210V270 CAVOK 21/08 Q1015
                        NOSIG=
200808151520 METAR COR EGLL 151520Z 23010KT CAVOK 21/07 Q1015 NOSIG=
200808151450 METAR COR EGLL 151450Z 24009KT 210V280 CAVOK 21/07 Q1015
                        NOSIG=
200808151420 METAR COR EGLL 151420Z 23008KT 170V290 CAVOK 21/07 Q1015
                        NOSIG=
200808151350 METAR COR EGLL 151350Z 25011KT 220V290 9999 SCT047 21/08
                        Q1015 NOSIG=
200808151250 METAR COR EGLL 151250Z 26007KT 220V300 9999 SCT045 20/08
                        Q1015 NOSIG=
200808151220 METAR COR EGLL 151220Z 27008KT 250V310 9999 SCT044 21/08
                        Q1016 NOSIG=
200808151150 METAR COR EGLL 151150Z 26010KT 220V280 9999 SCT044 20/08
                        Q1016 NOSIG=
200808151120 METAR COR EGLL 151120Z 27008KT 240V300 CAVOK 19/08 Q1016
                        NOSIG=
200808151050 METAR COR EGLL 151050Z 27008KT 220V330 9999 SCT036 19/09
                        Q1016 NOSIG=
200808151020 METAR EGLL 151020Z 26007KT 210V290 9999 FEW036 18/10 Q1016=
200808150950 METAR COR EGLL 150950Z 26006KT 220V310 9999 FEW032 18/09
                        Q1016 NOSIG=
200808150920 METAR EGLL 150920Z 27005KT 200V310 9999 FEW026 18/10 Q1016
                        NOSIG=
200808150850 METAR EGLL 150850Z VRB02KT CAVOK 17/10 Q1016 NOSIG=
200808150820 METAR EGLL 150820Z VRB02KT CAVOK 16/10 Q1016 NOSIG=
200808150750 METAR COR EGLL 150750Z VRB02KT CAVOK 15/10 Q1016 NOSIG=
200808150720 METAR EGLL 150720Z 27004KT 220V300 CAVOK 14/10 Q1016 NOSIG=
200808150650 METAR COR EGLL 150650Z 29004KT CAVOK 12/10 Q1016 NOSIG=
200808150620 METAR COR EGLL 150620Z VRB02KT CAVOK 12/10 Q1016 NOSIG=
200808150550 METAR EGLL 150550Z 29004KT CAVOK 11/09 Q1016 NOSIG=
200808150520 METAR EGLL 150520Z 26004KT 220V290 CAVOK 10/09 Q1016 NOSIG=
200808150450 METAR EGLL 150450Z 26004KT CAVOK 10/09 Q1015 NOSIG=
200808150420 METAR EGLL 150420Z VRB03KT CAVOK 10/09 Q1015 NOSIG=
200808150350 METAR EGLL 150350Z 25002KT CAVOK 11/09 Q1015 NOSIG=
200808150320 METAR COR EGLL 150320Z 21002KT CAVOK 11/09 Q1015 NOSIG=
200808150250 METAR COR EGLL 150250Z VRB03KT CAVOK 11/09 Q1015 NOSIG=
200808150220 METAR COR EGLL 150220Z 25004KT CAVOK 11/09 Q1015 NOSIG=
200808150150 METAR COR EGLL 150150Z 27005KT CAVOK 11/09 Q1015 NOSIG=
200808150120 METAR EGLL 150120Z AUTO 26005KT 9999NDV NCD 12/09 Q1015=
200808150050 METAR EGLL 150050Z AUTO 27005KT 9999NDV NCD 12/09 Q1015=
200808150020 METAR EGLL 150020Z AUTO 27006KT 9999NDV NCD 12/09 Q1015=
200808142350 METAR COR EGLL 142350Z 26004KT CAVOK 12/09 Q1015 NOSIG=
200808142320 METAR COR EGLL 142320Z 26007KT CAVOK 13/10 Q1015 NOSIG=
200808142250 METAR EGLL 142250Z 27006KT CAVOK 13/10 Q1014 NOSIG=
200808142220 METAR COR EGLL 142220Z 27005KT CAVOK 14/11 Q1014 NOSIG=
200808142150 METAR COR EGLL 142150Z 25006KT CAVOK 15/11 Q1014 NOSIG=
200808142120 METAR EGLL 142120Z 22007KT CAVOK 15/11 Q1014=
200808142050 METAR EGLL 142050Z 21007KT 180V240 CAVOK 15/11 Q1014 NOSIG=
200808142020 METAR EGLL 142020Z 21006KT 180V260 CAVOK 16/10 Q1014 NOSIG=
200808141950 METAR COR EGLL 141950Z 22006KT 190V270 9999 FEW030 16/10
                        Q1014 NOSIG=
200808141920 METAR COR EGLL 141920Z 24007KT 9999 FEW030CB 17/10 Q1013
                        NOSIG=
200808141850 METAR COR EGLL 141850Z 24010KT 9999 FEW030CB 18/10 Q1013
                        NOSIG=
200808141820 METAR COR EGLL 141820Z 24009KT 9999 FEW030CB 18/09 Q1013
                        NOSIG=
200808141750 METAR COR EGLL 141750Z 25010KT 9999 FEW028CB 18/09 Q1013
                        NOSIG=
200808141720 METAR COR EGLL 141720Z 22012KT 180V250 9999 FEW027CB 19/08
                        Q1013 NOSIG=
200808141650 METAR EGLL 141650Z 21012KT 170V240 9999 SCT028CB 19/08 Q1013
                        NOSIG=
200808141620 METAR COR EGLL 141620Z 20012KT 9999 SCT028CB 19/08 Q1013
                        TEMPO +SHRA=
200808141550 METAR COR EGLL 141550Z 22010KT 180V250 9999 BKN028CB 19/11
                        Q1013 TEMPO +SHRA=
200808141520 METAR COR EGLL 141520Z 19011KT 9999 BKN028CB 18/10 Q1012
                        TEMPO +SHRA=
200808141450 METAR COR EGLL 141450Z 20010KT 150V240 9999 BKN028CB 19/09
                        Q1012 TEMPO +SHRA=
200808141420 METAR COR EGLL 141420Z 21010KT 9999 BKN028CB 18/10 Q1013
                        TEMPO +SHRA=
200808141350 METAR COR EGLL 141350Z 19010KT 160V240 9999 SCT028CB SCT042
                        16/10 Q1013 TEMPO +SHRA=
200808141320 METAR COR EGLL 141320Z 24015KT 9999 VCSH BKN042CB 18/09 Q1012
                        TEMPO SHRA=
200808141250 METAR COR EGLL 141250Z 20009KT 140V250 9999 VCSH SCT044CB
                        20/09 Q1012 TEMPO SHRA=
200808141220 METAR COR EGLL 141220Z 20010KT 160V260 9999 SCT046 20/08
                        Q1012 TEMPO SHRA=
200808141150 METAR COR EGLL 141150Z 23009KT 150V260 9999 SCT044 19/07
                        Q1012 NOSIG=
200808141120 METAR EGLL 141120Z 22008KT 180V280 CAVOK 19/09 Q1012 NOSIG=
200808141050 METAR COR EGLL 141050Z 23010KT CAVOK 19/08 Q1012 NOSIG=
200808141020 METAR EGLL 141020Z 24010KT 200V280 9999 SCT033 19/09 Q1013
                        NOSIG=
200808140950 METAR EGLL 140950Z 25012KT 9999 FEW032 18/09 Q1013 NOSIG=
200808140920 METAR COR EGLL 140920Z 25010KT 210V270 9999 FEW026 18/09
                        Q1013 NOSIG=
200808140850 METAR EGLL 140850Z 24010KT 200V270 9999 FEW023 17/10 Q1013=
200808140820 METAR EGLL 140820Z 24009KT CAVOK 16/10 Q1012 NOSIG=
200808140750 METAR EGLL 140750Z 23009KT 210V270 9999 FEW010 15/11 Q1012
                        NOSIG=
200808140720 METAR EGLL 140720Z 25007KT 9999 FEW010 14/11 Q1012 NOSIG=
200808140650 METAR EGLL 140650Z 23007KT 200V260 CAVOK 13/10 Q1012 NOSIG=
200808140620 METAR COR EGLL 140620Z 23008KT CAVOK 13/10 Q1012 NOSIG=
200808140550 METAR EGLL 140550Z 23009KT CAVOK 12/10 Q1012 NOSIG=
200808140520 METAR COR EGLL 140520Z 22008KT 190V250 CAVOK 12/10 Q1011
                        NOSIG=
200808140450 METAR COR EGLL 140450Z 24008KT CAVOK 12/09 Q1011 NOSIG=
200808140420 METAR COR EGLL 140420Z 24006KT 210V280 CAVOK 12/10 Q1011
                        NOSIG=
200808140350 METAR EGLL 140350Z 21004KT CAVOK 12/10 Q1011 NOSIG=
200808140320 METAR COR EGLL 140320Z 21005KT CAVOK 12/10 Q1011 NOSIG=
200808140250 METAR COR EGLL 140250Z 22006KT CAVOK 12/10 Q1011 NOSIG=
200808140220 METAR COR EGLL 140220Z 23008KT CAVOK 12/09 Q1010 NOSIG=
200808140150 METAR COR EGLL 140150Z 24009KT CAVOK 13/09 Q1010 NOSIG=
200808140120 METAR COR EGLL 140120Z 24009KT CAVOK 13/09 Q1010 NOSIG=
200808140050 METAR EGLL 140050Z 23011KT CAVOK 13/09 Q1010 NOSIG=
200808140020 METAR EGLL 140020Z 24011KT CAVOK 13/10 Q1010 NOSIG=
200808132350 METAR COR EGLL 132350Z 24011KT CAVOK 14/10 Q1010 NOSIG=
200808132320 METAR EGLL 132320Z 23012KT CAVOK 14/10 Q1009 NOSIG=
200808132250 METAR EGLL 132250Z 24012KT CAVOK 14/10 Q1009 NOSIG=
200808132220 METAR COR EGLL 132220Z 24012KT 9999 FEW033 14/10 Q1008 NOSIG=
200808132150 METAR EGLL 132150Z 24012KT 9999 FEW031 15/11 Q1008 NOSIG=
200808132120 METAR COR EGLL 132120Z 24012KT 9999 FEW023 15/11 Q1008 NOSIG=
200808132050 METAR COR EGLL 132050Z 25019KT 9999 FEW044 15/11 Q1007 NOSIG=
200808132020 METAR COR EGLL 132020Z 24016KT 9999 FEW022 SCT048 15/11 Q1007
                        NOSIG=
200808131950 METAR COR EGLL 131950Z 25018KT 9999 FEW026 SCT033 15/11 Q1006
                        NOSIG=
200808131920 METAR COR EGLL 131920Z 24017KT 9999 SCT025 15/11 Q1006 NOSIG=
200808131850 METAR COR EGLL 131850Z 25017KT 9999 VCSH FEW020 SCT048 16/11
                        Q1005 TEMPO SHRA=
200808131820 METAR COR EGLL 131820Z 25019KT 9999 VCSH SCT021 SCT040 16/11
                        Q1005 NOSIG=
200808131750 METAR EGLL 131750Z 25019KT 9999 SCT020 16/11 Q1004 NOSIG=
200808131720 METAR EGLL 131720Z 25020KT 9999 BKN020 16/11 Q1004 NOSIG=
200808131650 METAR COR EGLL 131650Z 24021KT 9999 SCT022 17/11 Q1003 NOSIG=
200808131620 METAR COR EGLL 131620Z 25024KT 9999 SCT027 18/11 Q1002 NOSIG=
200808131550 METAR COR EGLL 131550Z 24022KT 9999 VCSH SCT025 18/12 Q1002
                        NOSIG=
200808131520 METAR COR EGLL 131520Z 24020G31KT 9999 SCT022 SCT027 18/12
                        Q1001 TEMPO SHRA=
200808131450 METAR COR EGLL 131450Z 24021KT 9999 SCT029 SCT049 18/12 Q1001
                        NOSIG=
200808131420 METAR COR EGLL 131420Z 24023G34KT 9999 FEW022 SCT029 18/13
                        Q1000 TEMPO FM1530 SHRA=
200808131350 METAR COR EGLL 131350Z 24021KT 9999 7000S SCT022 SCT029 17/13
                        Q1000 RERA NOSIG=
200808131320 METAR COR EGLL 131320Z 23022G33KT 9999 -SHRA SCT021 SCT030
                        18/12 Q0999 NOSIG=
200808131250 METAR EGLL 131250Z 23021KT 9999 SCT022 SCT036 18/12 Q0999
                        TEMPO SHRA=
200808131220 METAR COR EGLL 131220Z 22022KT 9999 SCT024 SCT040 17/12 Q0999
                        TEMPO SHRA=
200808131150 METAR COR EGLL 131150Z 23021KT 9999 VCSH SCT031 SCT039 17/13
                        Q0998 TEMPO SHRA=
200808131120 METAR EGLL 131120Z 22019G31KT 9999 SCT031 17/13 Q0998 TEMPO
                        SHRA=
200808131050 METAR COR EGLL 131050Z 23022G34KT 9999 7000SE -SHRA FEW028
                        SCT033 17/12 Q0998 TEMPO SHRA=
200808131020 METAR EGLL 131020Z 22013KT 9999 FEW030 SCT033 18/12 Q0998
                        TEMPO SHRA=
200808130950 METAR COR EGLL 130950Z 22016KT 9999 SCT033 16/12 Q0998 TEMPO
                        SHRA=
200808130920 METAR COR EGLL 130920Z 22017KT 9999 -SHRA SCT034 BKN041 17/12
                        Q0998 TEMPO SHRA=
200808130850 METAR COR EGLL 130850Z 22015KT 9999 VCSH FEW020CB BKN035
                        18/11 Q0998 TEMPO SHRA=
200808130820 METAR EGLL 130820Z 22014KT 180V250 9999 FEW020CB SCT027 17/11
                        Q0998 NOSIG=
200808130750 METAR COR EGLL 130750Z 21014G24KT 190V250 9999 FEW023 16/11
                        Q0997 NOSIG=
200808130720 METAR COR EGLL 130720Z 22011KT 190V250 9999 FEW023 16/11
                        Q0997 NOSIG=
200808130650 METAR COR EGLL 130650Z 22012KT CAVOK 15/11 Q0997 NOSIG=
200808130620 METAR COR EGLL 130620Z 22012KT CAVOK 14/11 Q0997 BECMG RA=
200808130550 METAR COR EGLL 130550Z 21009KT CAVOK 13/11 Q0997 BECMG RA=
200808130520 METAR EGLL 130520Z 22009KT CAVOK 13/11 Q0997 TEMPO RA=
200808130450 METAR COR EGLL 130450Z 22009KT CAVOK 13/11 Q0997 NOSIG=
200808130420 METAR COR EGLL 130420Z 21007KT 180V240 CAVOK 13/10 Q0996
                        NOSIG=
200808130350 METAR EGLL 130350Z 21009KT CAVOK 13/10 Q0996=
200808130320 METAR COR EGLL 130320Z 21007KT CAVOK 13/11 Q0996 NOSIG=
200808130250 METAR COR EGLL 130250Z 21007KT CAVOK 13/11 Q0996 NOSIG=
200808130220 METAR EGLL 130220Z NIL=
200808130150 METAR EGLL 130150Z 20006KT CAVOK 13/11 Q0996 NOSIG=
200808130120 METAR EGLL 130120Z AUTO 21005KT 9999NDV NCD 13/11 Q0996=
200808130050 METAR EGLL 130050Z AUTO 21007KT 9999NDV NCD 13/10 Q0996=
200808130020 METAR EGLL 130020Z AUTO 21006KT 9999NDV NCD 13/10 Q0996=
200808122350 METAR EGLL 122350Z 21008KT CAVOK 14/10 Q0996 NOSIG=
200808122320 METAR COR EGLL 122320Z 21009KT CAVOK 14/10 Q0996 NOSIG=
200808122250 METAR COR EGLL 122250Z 22012KT CAVOK 14/10 Q0996 NOSIG=
200808122220 METAR EGLL 122220Z 23014KT CAVOK 14/10 Q0996 NOSIG=
200808122150 METAR EGLL 122150Z 22013KT CAVOK 14/10 Q0996 NOSIG=
200808122120 METAR COR EGLL 122120Z 24015KT CAVOK 15/10 Q0995 NOSIG=
200808122050 METAR EGLL 122050Z 22012KT CAVOK 15/11 Q0995 NOSIG=
200808122020 METAR COR EGLL 122020Z 21011KT CAVOK 15/11 Q0995 NOSIG=
200808121950 METAR COR EGLL 121950Z 24013KT CAVOK 15/11 Q0994 NOSIG=
200808121920 METAR EGLL 121920Z 23014KT 9999 VCSH FEW040CB 15/11 Q0994
                        TEMPO SHRA=
200808121850 METAR COR EGLL 121850Z 24014KT 9999 SCT016 15/11 Q0993 RESHRA
                        TEMPO SHRA TSRA=
200808121820 METAR COR EGLL 121820Z 26019KT 9999 5000NE SHRA SCT015CB
                        BKN040 15/10 Q0993 BECMG NSW=
200808121750 METAR COR EGLL 121750Z 22013KT 9999 VCSH FEW036 SCT040 18/10
                        Q0993 TEMPO 4000 +SHRA=
200808121720 METAR EGLL 121720Z 22017KT 9999 VCSH SCT043 19/10 Q0992 TEMPO
                        23020G32KT 4000 TSRA BKN014CB=
200808121650 METAR EGLL 121650Z 22015KT 9999 SCT038 SCT045 19/10 Q0992
                        NOSIG=
200808121620 METAR EGLL 121620Z 22021KT 9999 SCT038 20/09 Q0992 NOSIG=
200808121550 METAR COR EGLL 121550Z 22017G27KT 9999 SCT034 20/10 Q0991
                        TEMPO SHRA=
200808121520 METAR COR EGLL 121520Z 21015KT 9999 FEW026 SCT032 19/11 Q0992
                        TEMPO 22020G32KT SHRA=
200808121450 METAR COR EGLL 121450Z 22018KT 9999 SCT030 19/11 Q0992 TEMPO
                        SHRA=
200808121420 METAR COR EGLL 121420Z 21019G29KT 9999 FEW030 18/11 Q0992
                        TEMPO SHRA=
200808121350 METAR COR EGLL 121350Z 22020KT 9999 SCT030 SCT042 17/10 Q0991
                        TEMPO SHRA=
200808121320 METAR COR EGLL 121320Z 22019G30KT 190V260 9999 7000NE -SHRA
                        SCT027CB SCT046 20/10 Q0991 TEMPO
                        SHRA=
200808121250 METAR COR EGLL 121250Z 23019KT 9999 -SHRA FEW025CB SCT036
                        BKN040 20/11 Q0991 TEMPO 23020G32KT
                        4000 +SHRA=
200808121220 METAR EGLL 121220Z 23015KT 9999 SCT034 SCT045 20/11 Q0990
                        TEMPO 23020G32KT SHRA=
200808121150 METAR COR EGLL 121150Z 23017KT 9999 SCT038 20/10 Q0990 TEMPO
                        SHRA=
200808121120 METAR COR EGLL 121120Z 24018KT 9999 SCT039 SCT048 20/10 Q0990
                        NOSIG=
200808121050 METAR COR EGLL 121050Z 24020KT 9999 BKN035 19/10 Q0990 NOSIG=
200808121020 METAR COR EGLL 121020Z 24020KT 9999 SCT035 18/10 Q0990 NOSIG=
200808120950 METAR COR EGLL 120950Z 25019KT 9999 SCT028 18/12 Q0989 BECMG
                        23018G30KT=
200808120920 METAR EGLL 120920Z 24016KT 9999 SCT015 BKN021 18/14 Q0989=
200808120850 METAR COR EGLL 120850Z 25014KT 9999 SCT017 SCT025 18/14 Q0988
                        BECMG 23018G28KT=
200808120820 METAR COR EGLL 120820Z 24014KT 9999 FEW014 SCT017 BKN025
                        17/14 Q0988 NOSIG=
200808120750 METAR COR EGLL 120750Z 23012KT 9999 SCT014 BKN025 16/14 Q0988
                        NOSIG=
200808120720 METAR EGLL 120720Z 22006KT 130V260 9999 SCT005 SCT010 BKN015
                        15/14 Q0987 RERA TEMPO BKN008=
200808120650 METAR COR EGLL 120650Z 18006KT 8000 RA FEW005 SCT010 BKN020
                        15/14 Q0987 TEMPO BKN010=
200808120620 METAR COR EGLL 120620Z 15008KT 9999 -RA FEW012 SCT038 15/14
                        Q0987 RERA TEMPO 4000 RA BKN008=
200808120550 METAR COR EGLL 120550Z 12013KT 6000 RA SCT011 15/14 Q0986
                        TEMPO 3000 +RA BKN007=
200808120520 METAR COR EGLL 120520Z 14008KT 4500 RA BKN011 15/14 Q0987
                        TEMPO 2800 +RA BKN007=
200808120450 METAR COR EGLL 120450Z 13007KT 9999 -RA SCT011 BKN019 15/13
                        Q0988 BECMG 3000 +RA BKN007=
200808120420 METAR COR EGLL 120420Z 10006KT 9999 SCT013 BKN020 15/13 Q0988
                        BECMG 4000 RA BKN008=
200808120350 METAR COR EGLL 120350Z 10009KT 9000 -RA FEW024 SCT043 14/13
                        Q0988 RERA BECMG 4000 RA BKN012=
200808120320 METAR COR EGLL 120320Z 11011KT 7000 RA SCT042 15/13 Q0989
                        BECMG 3500 +RA BKN012=
200808120250 METAR COR EGLL 120250Z 10007KT 9999 -SHRA FEW044 15/12 Q0990
                        BECMG 4000 RA BKN012=
200808120220 METAR EGLL 120220Z 10008KT CAVOK 15/12 Q0991 BECMG RA=
200808120150 METAR EGLL 120150Z 09007KT 9999 -SHRA FEW040 14/12 Q0992=
200808120120 METAR EGLL 120120Z AUTO 10008KT 9999NDV DZ NCD 15/12 Q0993=
200808120050 METAR EGLL 120050Z AUTO 10008KT 9999NDV FEW041/// 15/12 Q0994=
200808120020 METAR EGLL 120020Z AUTO 11010KT 9999NDV BKN042/// 15/12 Q0994=
200808112350 METAR COR EGLL 112350Z 12007KT 9999 SCT044 15/12 Q0995 TEMPO
                        RA=
200808112320 METAR COR EGLL 112320Z 12008KT CAVOK 14/12 Q0996 NOSIG=
200808112250 METAR COR EGLL 112250Z 11008KT CAVOK 14/12 Q0996 NOSIG=
200808112220 METAR EGLL 112220Z 13007KT 110V210 CAVOK 15/12 Q0997 NOSIG=
200808112150 METAR COR EGLL 112150Z 14008KT CAVOK 16/12 Q0998 NOSIG=
200808112120 METAR COR EGLL 112120Z 14006KT 100V180 9999 FEW046 16/12
                        Q0998 NOSIG=
200808112050 METAR COR EGLL 112050Z 17006KT 140V230 CAVOK 16/12 Q0999
                        NOSIG=
200808112020 METAR COR EGLL 112020Z 18007KT 160V240 CAVOK 16/12 Q0999
                        NOSIG=
200808111950 METAR EGLL 111950Z 17008KT 110V210 CAVOK 16/12 Q0999 NOSIG=
200808111920 METAR COR EGLL 111920Z 16009KT 120V200 9999 FEW026 17/12
                        Q0999 NOSIG=
200808111850 METAR EGLL 111850Z 19007KT 150V230 9999 FEW030 18/11 Q1000
                        NOSIG=
200808111820 METAR COR EGLL 111820Z 21009KT 9999 FEW030 17/11 Q1000 NOSIG=
200808111750 METAR COR EGLL 111750Z 21010KT 180V250 9999 FEW029 18/11
                        Q1000 NOSIG=
200808111720 METAR EGLL 111720Z 20010KT 180V240 9999 FEW029 18/11 Q1001=
200808111650 METAR COR EGLL 111650Z 19012KT 9999 FEW028 18/11 Q1001 NOSIG=
200808111620 METAR EGLL 111620Z 20011KT 170V250 9999 FEW032 18/11 Q1001=
200808111550 METAR EGLL 111550Z 21010KT 9999 FEW032 19/11 Q1001=
200808111520 METAR EGLL 111520Z 22013KT 9999 FEW032 19/11 Q1002=
200808111450 METAR EGLL 111450Z 22010KT 9999 FEW032 19/11 Q1002=
200808111420 METAR EGLL 111420Z 21011KT 9999 FEW035 19/11 Q1002=
200808111350 METAR COR EGLL 111350Z 22013KT 9999 FEW035 20/11 Q1002 NOSIG=
200808111320 METAR EGLL 111320Z 23013KT 190V250 9999 FEW039 19/10 Q1002
                        NOSIG=
200808111250 METAR COR EGLL 111250Z 23011KT 9999 FEW036 19/10 Q1003 NOSIG=
200808111220 METAR COR EGLL 111220Z 22013KT 9999 FEW037 19/10 Q1003 NOSIG=
200808111150 METAR COR EGLL 111150Z 23012KT 9999 FEW033 BKN045 19/10 Q1003
                        NOSIG=
200808111120 METAR EGLL 111120Z 22010G20KT 180V250 9999 SCT037 BKN046
                        19/10 Q1003 NOSIG=
200808111050 METAR EGLL 111050Z 22010KT 190V260 9999 FEW030 SCT040 19/10
                        Q1003 NOSIG=
200808111020 METAR EGLL 111020Z 22010KT 9999 FEW035 BKN046 18/11 Q1004
                        NOSIG=
200808110950 METAR COR EGLL 110950Z 23011KT 200V260 9999 BKN047 18/11
                        Q1004 NOSIG=
200808110920 METAR COR EGLL 110920Z 24010KT 200V260 9999 FEW023 BKN047
                        17/11 Q1004 NOSIG=
200808110850 METAR EGLL 110850Z 23010KT 9999 FEW020 BKN049 17/12 Q1004
                        NOSIG=
200808110820 METAR EGLL 110820Z 23012KT 9999 FEW020 17/12 Q1004 NOSIG=
200808110750 METAR EGLL 110750Z 24013KT 9999 FEW020 17/12 Q1004 NOSIG=
200808110720 METAR EGLL 110720Z 23012KT 9999 FEW017 16/12 Q1004 NOSIG=
200808110650 METAR COR EGLL 110650Z 23012KT 9999 FEW024 16/12 Q1004 NOSIG=
200808110620 METAR EGLL 110620Z 22010KT 9999 FEW020 16/12 Q1004 NOSIG=
200808110550 METAR COR EGLL 110550Z 22009KT 9999 FEW023 15/13 Q1004 NOSIG=
200808110520 METAR EGLL 110520Z 23008KT 9999 FEW035 15/13 Q1004 NOSIG=
200808110450 METAR COR EGLL 110450Z 24007KT 9999 FEW033 15/13 Q1004 NOSIG=
200808110420 METAR COR EGLL 110420Z 25010KT 9999 SCT041 15/12 Q1004 NOSIG=
200808110350 METAR EGLL 110350Z NIL=
200808110320 METAR COR EGLL 110320Z 24009KT CAVOK 15/12 Q1004 NOSIG=
200808110250 METAR COR EGLL 110250Z 24009KT 9999 FEW021 15/13 Q1004 NOSIG=
200808110220 METAR EGLL 110220Z 23010KT CAVOK 16/13 Q1004 NOSIG=
200808110150 METAR EGLL 110150Z 22009KT CAVOK 15/13 Q1004 NOSIG=
200808110120 METAR EGLL 110120Z AUTO 23009KT 9999NDV NCD 15/13 Q1004=
200808110050 METAR EGLL 110050Z AUTO 21008KT 9999NDV NCD 15/13 Q1004=
200808110020 METAR EGLL 110020Z AUTO 22007KT 9999NDV NCD 15/13 Q1004=
200808102350 METAR COR EGLL 102350Z 22007KT CAVOK 15/13 Q1004 NOSIG=
200808102320 METAR COR EGLL 102320Z 22007KT CAVOK 15/13 Q1004 NOSIG=
200808102250 METAR EGLL 102250Z 23010KT CAVOK 15/13 Q1005 NOSIG=
200808102220 METAR COR EGLL 102220Z 22010KT 9999 FEW030 15/13 Q1005 NOSIG=
200808102150 METAR COR EGLL 102150Z 23011KT 9999 FEW030 15/13 Q1005 NOSIG=
200808102120 METAR COR EGLL 102120Z 22009KT 9999 FEW028 16/13 Q1005 NOSIG=
200808102050 METAR EGLL 102050Z 22009KT 190V250 9999 FEW031 16/14 Q1004
                        NOSIG=
200808102020 METAR COR EGLL 102020Z 23009KT 180V260 9999 FEW030 16/14
                        Q1004 NOSIG=
200808101950 METAR COR EGLL 101950Z 24011KT 9999 SCT029 SCT047 16/14 Q1004
                        NOSIG=
200808101920 METAR EGLL 101920Z 24012KT 9999 SCT035 16/14 Q1004 NOSIG=
200808101850 METAR COR EGLL 101850Z 23013KT 9999 FEW042 16/14 Q1004 NOSIG=
200808101820 METAR COR EGLL 101820Z 23015KT 9999 -SHRA FEW038 BKN044 17/14
                        Q1004 TEMPO 24015G27KT=
200808101750 METAR COR EGLL 101750Z 24012KT 9999 SCT042 SCT048 17/14 Q1004
                        TEMPO 24017G28KT SHRA=
200808101720 METAR COR EGLL 101720Z 26014KT 6000 -SHRA SCT031 BKN042 17/15
                        Q1003 TEMPO 25017G28KT SHRA=
200808101650 METAR COR EGLL 101650Z 26011KT 9999 7000W -SHRA FEW033 BKN041
                        18/15 Q1003 TEMPO 26018G28KT SHRA=
200808101620 METAR COR EGLL 101620Z 25014KT 9999 7000SE -SHRA FEW020 BKN031
                        17/15 Q1004 RESHRA TEMPO 25018G28KT
                        SHRA=
200808101550 METAR COR EGLL 101550Z 24014KT 9999 7000W -SHRA FEW030 BKN033
                        20/12 Q1003 TEMPO 24018G28KT SHRA=
200808101520 METAR EGLL 101520Z 24019KT 9999 VCSH FEW020 BKN033 21/12
                        Q1003 TEMPO 24020G30KT SHRA=
200808101450 METAR EGLL 101450Z 23019KT 9999 FEW020 BKN032 21/12 Q1003
                        TEMPO 23020G30KT SHRA=
200808101420 METAR COR EGLL 101420Z 24016KT 9999 VCSH FEW032 SCT042 21/13
                        Q1003 TEMPO 22020G30KT=
200808101350 METAR COR EGLL 101350Z 22017KT 9999 VCSH FEW035 SCT042 21/12
                        Q1003 TEMPO 22020G30KT=
200808101320 METAR COR EGLL 101320Z 23014KT 9999 FEW031 BKN037 20/13 Q1003
                        TEMPO 23018G30KT SHRA=
200808101250 METAR COR EGLL 101250Z 24016G26KT 9999 SCT031 SCT040 21/13
                        Q1003 TEMPO 24015KT SHRA=
200808101220 METAR EGLL 101220Z 22018KT 9999 SCT034 SCT040 20/12 Q1003
                        TEMPO 22020G30KT=
200808101150 METAR COR EGLL 101150Z 24015KT 9999 SCT033 SCT042 21/12 Q1003
                        TEMPO 24020G30KT=
200808101120 METAR COR EGLL 101120Z 23018KT 9999 VCSH SCT033 21/12 Q1003
                        TEMPO 23020G30KT=
200808101050 METAR COR EGLL 101050Z 24019G30KT 9999 SCT032 20/12 Q1004
                        NOSIG=
200808101020 METAR COR EGLL 101020Z 24018KT 9999 VCSH SCT035 20/12 Q1004
                        TEMPO 24020G30KT=
200808100950 METAR COR EGLL 100950Z 24015KT 9999 FEW032 19/11 Q1004 TEMPO
                        24018G28KT=
200808100920 METAR EGLL 100920Z 23020KT 9999 SCT030 19/11 Q1004 TEMPO
                        23020G30KT=
200808100850 METAR COR EGLL 100850Z 25017KT 9999 SCT025 18/11 Q1004 TEMPO
                        24018G28KT=
200808100820 METAR EGLL 100820Z 24015KT 9999 FEW025 18/12 Q1004 NOSIG=
200808100750 METAR EGLL 100750Z 24014KT 9999 FEW024 17/12 Q1004 NOSIG=
200808100720 METAR COR EGLL 100720Z 24014KT 9999 FEW020 17/12 Q1004 NOSIG=
200808100650 METAR COR EGLL 100650Z 24013KT 9999 FEW025 17/13 Q1004 NOSIG=
200808100620 METAR EGLL 100620Z 25012KT CAVOK 17/14 Q1003 NOSIG=
200808100550 METAR EGLL 100550Z 26015KT 9999 FEW048 17/13 Q1003 NOSIG=
200808100520 METAR COR EGLL 100520Z 25014KT 9999 SCT047 17/14 Q1003 NOSIG=
200808100450 METAR COR EGLL 100450Z 24012KT 9999 FEW024 SCT040 17/15 Q1003
                        NOSIG=
200808100420 METAR COR EGLL 100420Z 23011KT 9999 FEW032 BKN036 17/16 Q1002
                        NOSIG=
200808100350 METAR COR EGLL 100350Z 21010KT 5000 -RA SCT010 BKN016 17/16
                        Q1002 NOSIG=
200808100320 METAR COR EGLL 100320Z 21010KT 8000 -DZ SCT006 SCT011 BKN028
                        17/16 Q1002 NOSIG=
200808100250 METAR COR EGLL 100250Z 21010KT 6000 DZ BKN006 BKN020 17/16
                        Q1003 TEMPO 4000=
200808100220 METAR COR EGLL 100220Z 22011KT 9000 BKN007 BKN020 17/16 Q1003
                        TEMPO RA=
200808100150 METAR COR EGLL 100150Z 21012KT 9999 BKN007 BKN010 17/16 Q1003
                        NOSIG=
200808100120 METAR EGLL 100120Z AUTO 21012KT 9999NDV OVC007/// 17/15 Q1004=
200808100050 METAR EGLL 100050Z AUTO 21012KT 9999NDV OVC008/// 17/15 Q1004=
200808100020 METAR EGLL 100020Z AUTO 21012KT 8000NDV BKN006/// 17/15 Q1004=
200808092350 METAR COR EGLL 092350Z 21013KT 8000 RA BKN007 17/15 Q1005
                        TEMPO 4000=
200808092320 METAR COR EGLL 092320Z 22014KT 7000 DZ OVC007 17/15 Q1005
                        TEMPO 4000 RADZ=
200808092250 METAR EGLL 092250Z 22014KT 9000 OVC008 17/15 Q1006 TEMPO
                        4000 RADZ=
200808092220 METAR COR EGLL 092220Z 22017KT 9999 BKN008 17/15 Q1006 TEMPO
                        4000 RA=
200808092150 METAR COR EGLL 092150Z 22016KT 9999 SCT009 BKN011 17/15 Q1006
                        TEMPO 4000 RA BKN009=
200808092120 METAR COR EGLL 092120Z 21012KT 9999 BKN011 16/14 Q1007 TEMPO
                        4000 RA BKN009=
200808092050 METAR COR EGLL 092050Z 21014KT 9999 BKN014 16/14 Q1007 TEMPO
                        BKN009=
200808092020 METAR COR EGLL 092020Z 22014KT 9999 SCT012 OVC019 17/14 Q1007
                        TEMPO RA BKN012=
200808091950 METAR EGLL 091950Z 21014KT 9999 FEW011 OVC013 17/15 Q1007
                        TEMPO 4000 RADZ BKN009=
200808091920 METAR COR EGLL 091920Z 21013KT 9999 -RA FEW008 OVC011 17/15
                        Q1007 TEMPO 4000 RADZ BKN008=
200808091850 METAR COR EGLL 091850Z 21014KT 190V250 9999 -RA BKN008 BKN014
                        17/15 Q1007 TEMPO 4000 RADZ=
200808091820 METAR COR EGLL 091820Z 21014KT 7000 -RA BKN014 17/15 Q1008
                        TEMPO 4500 BKN009=
200808091750 METAR COR EGLL 091750Z 22015KT 9999 BKN011 17/15 Q1008 TEMPO
                        4500 RA BKN008=
200808091720 METAR COR EGLL 091720Z 20014G24KT 4800 -RADZ SCT009 BKN013
                        17/15 Q1008 TEMPO RA=
200808091650 METAR COR EGLL 091650Z 21014KT 9000 -RA FEW007 BKN009 17/15
                        Q1009 TEMPO 4000 RA=
200808091620 METAR COR EGLL 091620Z 21012G23KT 7000 -RADZ SCT008 BKN010
                        17/15 Q1009 REDZ TEMPO 4000 RA BKN008=
200808091550 METAR EGLL 091550Z 21013KT 170V230 9000 -DZ SCT008 BKN010
                        17/15 Q1010 TEMPO 4500 RADZ BKN008=
200808091520 METAR COR EGLL 091520Z 20011KT 180V240 8000 -RA SCT007 BKN010
                        17/15 Q1010 TEMPO 4500 RADZ BKN008=
200808091450 METAR COR EGLL 091450Z 20013KT 180V240 9999 -DZ FEW008 OVC013
                        16/15 Q1010 TEMPO 4000 RADZ BKN008=
200808091420 METAR COR EGLL 091420Z 20013KT 9999 4500SW -RA FEW008 OVC014
                        16/14 Q1011 RERA TEMPO 4000 RADZ
                        BKN008=
200808091350 METAR COR EGLL 091350Z 21013KT 9999 4500SW -RA FEW009 OVC010
                        16/14 Q1011 TEMPO 3500 RA BKN008=
200808091320 METAR COR EGLL 091320Z 21013G24KT 9999 -RA BKN010 16/14 Q1011
                        TEMPO 3500 RADZ BKN008=
200808091250 METAR COR EGLL 091250Z 21012KT 9999 -RA BKN013 16/13 Q1012
                        TEMPO RA=
200808091220 METAR COR EGLL 091220Z 21013KT 9999 -RA FEW009 BKN011 16/14
                        Q1012 TEMPO RA BKN009=
200808091150 METAR COR EGLL 091150Z 21011KT 4500 -RA FEW007 SCT012 BKN020
                        16/14 Q1012 TEMPO BKN008=
200808091120 METAR COR EGLL 091120Z 22013KT 5000 -RA FEW012 BKN020 16/14
                        Q1012 TEMPO 4000 RADZ BKN010=
200808091050 METAR COR EGLL 091050Z 21013KT 9999 -RA BKN025 17/13 Q1012
                        BECMG 4500 RA BKN014=
200808091020 METAR COR EGLL 091020Z 22013KT 9999 -DZ BKN027 BKN044 18/12
                        Q1013 BECMG RA=
200808090950 METAR COR EGLL 090950Z 21012KT 9999 SCT021 SCT027 18/12 Q1013
                        BECMG RA=
200808090920 METAR COR EGLL 090920Z 21012KT 9999 SCT023 18/11 Q1013 NOSIG=
200808090850 METAR COR EGLL 090850Z 22014KT 190V250 9999 SCT025 18/11
                        Q1013 NOSIG=
200808090820 METAR COR EGLL 090820Z 21011KT 190V250 9999 SCT023 17/11
                        Q1013 NOSIG=
200808090750 METAR EGLL 090750Z 22011KT 9999 FEW015 17/11 Q1013 NOSIG=
200808090720 METAR COR EGLL 090720Z 24011KT 9999 FEW013 16/11 Q1014 NOSIG=
200808090650 METAR EGLL 090650Z 23009KT 190V260 9999 FEW013 15/12 Q1014
                        NOSIG=
200808090620 METAR COR EGLL 090620Z 23009KT 190V260 CAVOK 15/12 Q1014
                        NOSIG=
200808090550 METAR COR EGLL 090550Z 22008KT 190V250 CAVOK 14/12 Q1014
                        NOSIG=
200808090520 METAR EGLL 090520Z 23008KT CAVOK 14/12 Q1014 NOSIG=
200808090450 METAR EGLL 090450Z 23007KT CAVOK 14/12 Q1014 NOSIG=
200808090420 METAR COR EGLL 090420Z 23007KT CAVOK 14/12 Q1014 NOSIG=
200808090350 METAR COR EGLL 090350Z 22006KT 190V280 CAVOK 15/13 Q1014
                        NOSIG=
200808090320 METAR EGLL 090320Z NIL=
200808090250 METAR COR EGLL 090250Z 22005KT 9999 FEW010 15/13 Q1014 NOSIG=
200808090220 METAR COR EGLL 090220Z 21005KT 9999 SCT012 SCT017 16/14 Q1014
                        TEMPO BKN012=
200808090150 METAR COR EGLL 090150Z 19004KT 9999 SCT011 SCT016 16/13 Q1015
                        TEMPO BKN010=
200808090120 METAR EGLL 090120Z AUTO 18003KT 9999NDV BKN013/// BKN017///
                        16/13 Q1015=
200808090050 METAR EGLL 090050Z AUTO 17004KT 9999NDV SCT013/// SCT034///
                        16/13 Q1015=
200808090020 METAR EGLL 090020Z AUTO 17004KT 9999NDV BKN014/// BKN037///
                        16/13 Q1015=
200808082350 METAR EGLL 082350Z 20004KT 9999 FEW020 BKN035 16/13 Q1016
                        NOSIG=
200808082320 METAR EGLL 082320Z 16006KT 9999 BKN035 16/13 Q1016 NOSIG=
200808082250 METAR COR EGLL 082250Z 14003KT 9999 BKN036 16/13 Q1016 NOSIG=
200808082220 METAR EGLL 082220Z 18005KT 160V240 9999 BKN044 16/13 Q1016
                        NOSIG=
200808082150 METAR COR EGLL 082150Z 19007KT 140V240 9999 SCT046 16/13
                        Q1016 NOSIG=
200808082120 METAR COR EGLL 082120Z 18008KT 140V240 CAVOK 17/13 Q1016
                        NOSIG=
200808082050 METAR COR EGLL 082050Z 18007KT 130V240 CAVOK 17/13 Q1015
                        NOSIG=
200808082020 METAR COR EGLL 082020Z 18006KT 160V230 CAVOK 17/13 Q1015
                        NOSIG=
200808081950 METAR COR EGLL 081950Z 18007KT 150V250 9999 FEW030 17/13
                        Q1015 NOSIG=
200808081920 METAR COR EGLL 081920Z 19007KT 170V250 9999 FEW030 17/13
                        Q1015 NOSIG=
200808081850 METAR COR EGLL 081850Z 22007KT 170V260 9999 FEW030 18/13
                        Q1015 NOSIG=
200808081820 METAR COR EGLL 081820Z 28005KT 9999 FEW027 18/12 Q1015 NOSIG=
200808081750 METAR EGLL 081750Z VRB02KT 9999 FEW035 18/12 Q1015=
200808081720 METAR EGLL 081720Z VRB03KT 9999 FEW035 18/12 Q1015 NOSIG=
200808081650 METAR EGLL 081650Z VRB03KT 9999 FEW035 18/12 Q1014=
200808081620 METAR EGLL 081620Z 28004KT 250V320 9999 FEW045 18/12 Q1014
                        NOSIG=
200808081550 METAR COR EGLL 081550Z 27004KT 230V300 9999 SCT045 18/13
                        Q1014 NOSIG=
200808081520 METAR COR EGLL 081520Z 28005KT 9999 SCT030 SCT035 BKN044
                        17/12 Q1015 NOSIG=
200808081450 METAR COR EGLL 081450Z 31007KT 270V350 9999 7000W VCSH FEW020
                        BKN034 BKN040 17/12 Q1015 NOSIG=
200808081420 METAR COR EGLL 081420Z 32005KT 280V020 9999 FEW021 SCT023
                        BKN028 17/12 Q1014 NOSIG=
200808081350 METAR COR EGLL 081350Z 01005KT 320V050 9999 VCSH SCT018 SCT027
                        BKN032 17/12 Q1014 NOSIG=
200808081320 METAR COR EGLL 081320Z 33006KT 300V010 9999 VCSH FEW014 SCT017
                        BKN031 17/13 Q1014 NOSIG=
200808081250 METAR COR EGLL 081250Z 35007KT 9999 BKN018 17/13 Q1013 NOSIG=
200808081220 METAR COR EGLL 081220Z 35008KT 320V030 9999 SCT016 BKN023
                        17/13 Q1013 NOSIG=
200808081150 METAR COR EGLL 081150Z 36006KT 310V050 9999 SCT016 BKN028
                        18/13 Q1012 NOSIG=
200808081120 METAR COR EGLL 081120Z 34007KT 300V020 9999 BKN015 BKN025
                        18/13 Q1012 NOSIG=
200808081050 METAR EGLL 081050Z 36009KT 9999 VCSH BKN015 BKN027 18/13
                        Q1012 NOSIG=
200808081020 METAR COR EGLL 081020Z 33008KT 290V010 9999 8000E VCSH SCT013
                        BKN017 17/13 Q1011 TEMPO BKN014=
200808080950 METAR COR EGLL 080950Z 32008KT 290V360 9999 SCT013 BKN018
                        17/13 Q1011 TEMPO BKN014=
200808080920 METAR COR EGLL 080920Z 32007KT 280V020 9999 BKN015 17/13
                        Q1010 TEMPO BKN014=
200808080850 METAR COR EGLL 080850Z 31008KT 290V350 9999 SCT013 BKN017
                        17/14 Q1010 TEMPO BKN014=
200808080820 METAR COR EGLL 080820Z 31006KT 270V340 9999 FEW011 BKN015
                        17/14 Q1009 TEMPO BKN014=
200808080750 METAR COR EGLL 080750Z 31006KT 280V340 9999 SCT010 BKN035
                        17/14 Q1009 TEMPO BKN010=
200808080720 METAR COR EGLL 080720Z 31006KT 280V350 9999 FEW009 BKN013
                        17/14 Q1008 TEMPO BKN010=
200808080650 METAR COR EGLL 080650Z 31006KT 280V340 9999 FEW008 BKN019
                        17/14 Q1008 TEMPO 9000 BKN010=
200808080620 METAR COR EGLL 080620Z 29005KT 9000 FEW007 BKN019 16/15 Q1007
                        TEMPO BKN010=
200808080550 METAR COR EGLL 080550Z 29006KT 9999 BKN006 BKN012 16/15 Q1007
                        TEMPO SCT006 BKN012=
200808080520 METAR COR EGLL 080520Z 29006KT 9999 BKN008 BKN012 16/15 Q1007
                        TEMPO SCT008 BKN012=
200808080450 METAR EGLL 080450Z 29005KT 260V320 9999 BKN007 BKN018 16/15
                        Q1007 RERA TEMPO BKN010=
200808080420 METAR COR EGLL 080420Z 29005KT 6000 RA BKN008 16/15 Q1006
                        TEMPO BKN010=
200808080350 METAR COR EGLL 080350Z 28007KT 9999 -RA SCT010 16/15 Q1006
                        TEMPO - RADZ BKN009=
200808080320 METAR COR EGLL 080320Z 28008KT 9999 -RA FEW020 SCT040 16/15
                        Q1006 TEMPO BKN014=
200808080250 METAR COR EGLL 080250Z 27008KT 9999 FEW044 16/14 Q1006 TEMPO
                        -RA BKN014=
200808080220 METAR COR EGLL 080220Z 28006KT CAVOK 16/14 Q1006 TEMPO -RA
                        BKN014=
200808080150 METAR COR EGLL 080150Z 28008KT CAVOK 16/14 Q1006 NOSIG=
200808080120 METAR EGLL 080120Z AUTO 28007KT 9999NDV NCD 16/14 Q1005=
200808080050 METAR EGLL 080050Z AUTO 27008KT 9999NDV NCD 16/13 Q1005=
200808080020 METAR EGLL 080020Z AUTO 28007KT 9999NDV NCD 16/14 Q1005=
200808072350 METAR COR EGLL 072350Z 28008KT CAVOK 16/14 Q1005 NOSIG=
200808072320 METAR COR EGLL 072320Z 28008KT CAVOK 16/14 Q1005 NOSIG=
200808072250 METAR COR EGLL 072250Z 27008KT CAVOK 17/14 Q1005 NOSIG=
200808072220 METAR COR EGLL 072220Z 27008KT CAVOK 16/14 Q1005 NOSIG=
200808072150 METAR COR EGLL 072150Z 28008KT CAVOK 17/14 Q1005 NOSIG=
200808072120 METAR COR EGLL 072120Z 27009KT CAVOK 18/14 Q1005 NOSIG=
200808072050 METAR EGLL 072050Z 26011KT CAVOK 18/14 Q1005 NOSIG=
200808072020 METAR COR EGLL 072020Z 26008KT CAVOK 18/14 Q1005 NOSIG=
200808071950 METAR COR EGLL 071950Z 26009KT CAVOK 18/14 Q1004 NOSIG=
200808071920 METAR COR EGLL 071920Z 25011KT 9999 VCSH SCT040CB 19/15 Q1004
                        NOSIG=
200808071850 METAR EGLL 071850Z 27008KT 9999 VCSH FEW041CB 19/15 Q1004
                        TEMPO SHRA=
200808071820 METAR COR EGLL 071820Z 26012KT 9999 -SHRA FEW040CB 19/14
                        Q1004 TEMPO SHRA=
200808071750 METAR COR EGLL 071750Z 27014KT 9999 VCSH FEW034CB FEW045
                        20/13 Q1004 TEMPO SHRA=
200808071720 METAR COR EGLL 071720Z 26011KT 9999 VCSH FEW046CB 22/13 Q1004
                        TEMPO SHRA=
200808071650 METAR EGLL 071650Z 26013KT 9999 FEW040 22/12 Q1004 TEMPO
                        SHRA=
200808071620 METAR COR EGLL 071620Z 25015KT 9999 FEW040 23/12 Q1004 TEMPO
                        SHRA=
200808071550 METAR COR EGLL 071550Z 25015KT 210V280 9999 SCT041 23/13
                        Q1003 TEMPO SHRA=
200808071520 METAR COR EGLL 071520Z 22011KT 9999 FEW042 SCT045 22/13 Q1003
                        NOSIG=
200808071450 METAR EGLL 071450Z 21012KT 9999 SCT047 23/13 Q1003 TEMPO
                        SHRA=
200808071420 METAR COR EGLL 071420Z 23011KT 190V250 9999 SCT042 24/12
                        Q1003 TEMPO SHRA=
200808071350 METAR COR EGLL 071350Z 24008KT 200V270 9999 SCT042 23/13
                        Q1004 TEMPO SHRA=
200808071320 METAR COR EGLL 071320Z 22007KT 180V280 9999 FEW038 SCT049
                        24/12 Q1004 NOSIG=
200808071250 METAR COR EGLL 071250Z 25008KT 9999 FEW030 SCT049 23/14 Q1004
                        NOSIG=
200808071220 METAR COR EGLL 071220Z 25010KT 210V270 9999 FEW030 SCT045
                        23/15 Q1004 NOSIG=
200808071150 METAR EGLL 071150Z 25008KT 210V280 9999 FEW017 SCT020 22/16
                        Q1005=
200808071120 METAR COR EGLL 071120Z 24007KT 200V270 9999 SCT017 SCT020
                        21/16 Q1005 NOSIG=
200808071050 METAR COR EGLL 071050Z 23008KT 190V260 9999 FEW017 BKN030
                        21/16 Q1005 NOSIG=
200808071020 METAR EGLL 071020Z 22009KT 190V250 9999 FEW015TCU SCT016
                        21/16 Q1005=
200808070950 METAR COR EGLL 070950Z 21005KT 160V260 9999 BKN015 20/16
                        Q1005 NOSIG=
200808070920 METAR EGLL 070920Z 19006KT 160V270 9999 SCT014 BKN017 20/16
                        Q1005 NOSIG=
200808070850 METAR COR EGLL 070850Z 19005KT 160V250 9999 SCT013 BKN018
                        19/15 Q1005 NOSIG=
200808070820 METAR COR EGLL 070820Z 18005KT 130V240 9999 BKN018 19/15
                        Q1006 NOSIG=
200808070750 METAR COR EGLL 070750Z 23004KT 200V280 9999 FEW022 19/15
                        Q1006 NOSIG=
200808070720 METAR EGLL 070720Z 28003KT 9999 FEW019 18/15 Q1006 NOSIG=
200808070650 METAR COR EGLL 070650Z 28005KT 250V310 CAVOK 18/15 Q1005
                        NOSIG=
200808070620 METAR COR EGLL 070620Z 28005KT 9999 FEW035 18/15 Q1005 NOSIG=
200808070550 METAR EGLL 070550Z 27004KT 230V300 9999 SCT015 17/15 Q1005
                        NOSIG=
200808070520 METAR COR EGLL 070520Z 25005KT 220V280 9999 FEW020 17/15
                        Q1005 NOSIG=
200808070450 METAR COR EGLL 070450Z 24005KT 9000 FEW030 17/15 Q1006 NOSIG=
200808070420 METAR COR EGLL 070420Z 22004KT 170V290 9000 FEW030 17/16
                        Q1006 NOSIG=
200808070350 METAR COR EGLL 070350Z 24004KT 9000 NSC 17/16 Q1006 NOSIG=
200808070320 METAR EGLL 070320Z NIL=
200808070250 METAR COR EGLL 070250Z 26003KT 7000 NSC 17/16 Q1006 NOSIG=
200808070220 METAR COR EGLL 070220Z 27005KT 9000 NSC 17/16 Q1006 NOSIG=
200808070150 METAR COR EGLL 070150Z VRB02KT CAVOK 17/15 Q1006 NOSIG=
200808070120 METAR EGLL 070120Z AUTO 29004KT 9999NDV NCD 18/16 Q1006=
200808070050 METAR EGLL 070050Z AUTO 29006KT 9999NDV NCD 18/16 Q1007=
200808070020 METAR EGLL 070020Z AUTO 28008KT 9000NDV NCD 18/16 Q1007=
200808062350 METAR EGLL 062350Z NIL=
200808062320 METAR COR EGLL 062320Z 28007KT 8000 NSC 19/16 Q1008 NOSIG=
200808062250 METAR COR EGLL 062250Z VRB04G14KT CAVOK 20/16 Q1008 NOSIG=
200808062220 METAR COR EGLL 062220Z VRB03KT 9999 VCTS FEW050CB 19/16 Q1008
                        NOSIG=
200808062150 METAR COR EGLL 062150Z 02002KT CAVOK 19/16 Q1008 NOSIG=
200808062120 METAR COR EGLL 062120Z VRB04KT 9999 VCTS FEW045CB 20/16 Q1008
                        TEMPO TS=
200808062050 METAR EGLL 062050Z 26009KT 9999 VCTS FEW044 SCT050CB 21/16
                        Q1009 TEMPO TS=
200808062020 METAR COR EGLL 062020Z 26007KT 9999 VCTS SCT050CB 21/16 Q1009
                        TEMPO TSRA=
200808061950 METAR COR EGLL 061950Z 26009KT 9999 -RA SCT050CB 22/16 Q1009
                        TEMPO TSRA=
200808061920 METAR COR EGLL 061920Z 25008KT CAVOK 22/16 Q1009 TEMPO TSRA
                        BKN040CB=
200808061850 METAR COR EGLL 061850Z 24008KT 190V260 9999 FEW030 22/16
                        Q1009 NOSIG=
200808061820 METAR COR EGLL 061820Z 23007KT 200V260 CAVOK 23/16 Q1009
                        NOSIG=
200808061750 METAR EGLL 061750Z 21010KT 180V250 9999 FEW030 23/16 Q1009
                        NOSIG=
200808061720 METAR COR EGLL 061720Z 21009KT 180V240 9999 FEW030 24/16
                        Q1009 NOSIG=
200808061650 METAR EGLL 061650Z 21010KT 150V250 9999 FEW029 24/16 Q1009
                        NOSIG=
200808061620 METAR COR EGLL 061620Z 18010KT 150V230 9999 FEW028 24/17
                        Q1009 NOSIG=
200808061550 METAR EGLL 061550Z 17007KT 080V240 CAVOK 25/17 Q1009 NOSIG=
200808061520 METAR COR EGLL 061520Z 17009KT 130V220 CAVOK 25/16 Q1009
                        NOSIG=
200808061450 METAR EGLL 061450Z 18008KT 120V240 CAVOK 24/16 Q1010 NOSIG=
200808061420 METAR COR EGLL 061420Z 19008KT 150V250 CAVOK 24/16 Q1010
                        NOSIG=
200808061350 METAR EGLL 061350Z 18007KT 160V230 CAVOK 25/16 Q1010 NOSIG=
200808061320 METAR COR EGLL 061320Z 21008KT 180V250 9999 SCT029 SCT036
                        25/16 Q1011 NOSIG=
200808061250 METAR COR EGLL 061250Z 15006KT 110V220 9999 SCT030 24/16
                        Q1010 NOSIG=
200808061220 METAR EGLL 061220Z 16007KT 110V210 9999 FEW041 22/16 Q1011
                        NOSIG=
200808061150 METAR EGLL 061150Z 23011KT 9999 FEW022 BKN040 23/16 Q1012
                        NOSIG=
200808061120 METAR COR EGLL 061120Z 21008KT 180V250 9999 FEW020 BKN036
                        23/16 Q1012 NOSIG=
200808061050 METAR COR EGLL 061050Z 21009KT 180V250 9999 SCT020 BKN037
                        23/17 Q1012 NOSIG=
200808061020 METAR EGLL 061020Z 21009KT 180V250 9999 FEW016 BKN039 22/17
                        Q1012 NOSIG=
200808060950 METAR COR EGLL 060950Z 21009KT 190V250 9999 SCT014 BKN033
                        21/17 Q1012 NOSIG=
200808060920 METAR EGLL 060920Z 20008KT 9999 SCT015 BKN028 20/17 Q1012
                        NOSIG=
200808060850 METAR COR EGLL 060850Z 20009KT 9999 FEW010 SCT014 BKN025
                        20/17 Q1012 NOSIG=
200808060820 METAR COR EGLL 060820Z 19009KT 150V260 9999 BKN010 BKN018
                        19/17 Q1012 BECMG SCT012=
200808060750 METAR COR EGLL 060750Z 21008KT 9999 BKN011 BKN023 20/17 Q1012
                        BECMG SCT012=
200808060720 METAR COR EGLL 060720Z 22008KT 190V250 9999 BKN008 BKN017
                        20/17 Q1012 BECMG SCT009=
200808060650 METAR COR EGLL 060650Z 21007KT 160V260 9999 BKN009 19/17
                        Q1012 BECMG BKN010=
200808060620 METAR COR EGLL 060620Z 20007KT 170V250 9999 BKN008 19/17
                        Q1012 BECMG BKN012=
200808060550 METAR COR EGLL 060550Z 21006KT 180V270 9999 BKN008 19/17
                        Q1012 BECMG BKN012=
200808060520 METAR EGLL 060520Z 23008KT 9999 FEW007 BKN009 18/17 Q1012
                        NOSIG=
200808060450 METAR COR EGLL 060450Z 22006KT 9999 BKN009 18/16 Q1012 NOSIG=
200808060420 METAR EGLL 060420Z 22005KT 180V250 9999 BKN009 18/16 Q1012
                        NOSIG=
200808060350 METAR EGLL 060350Z 22005KT 9999 BKN009 18/16 Q1012 NOSIG=
200808060320 METAR COR EGLL 060320Z 24006KT 9999 BKN010 19/16 Q1012 TEMPO
                        BKN008=
200808060250 METAR COR EGLL 060250Z 23008KT 9999 BKN010 19/16 Q1013 TEMPO
                        BKN007=
200808060220 METAR EGLL 060220Z 23008KT 9999 FEW009 BKN010 19/16 Q1013
                        TEMPO BKN008=
200808060150 METAR COR EGLL 060150Z 22008KT 9999 BKN008 19/17 Q1013 NOSIG=
200808060120 METAR EGLL 060120Z AUTO 22009KT 9999NDV OVC008/// 19/16 Q1013=
200808060050 METAR EGLL 060050Z AUTO 22009KT 9999NDV BKN009/// 19/16 Q1013=
200808060020 METAR EGLL 060020Z AUTO 22008KT 9999NDV OVC010/// 19/16 Q1013=
200808052350 METAR COR EGLL 052350Z 22009KT 9999 BKN011 SCT040 19/16 Q1013
                        BECMG BKN008=
200808052320 METAR COR EGLL 052320Z 22011KT 9999 BKN012 19/16 Q1013 BECMG
                        BKN009=
200808052250 METAR COR EGLL 052250Z 22009KT 9999 BKN011 19/16 Q1013 TEMPO
                        BKN009=
200808052220 METAR COR EGLL 052220Z 22010KT 9999 BKN013 19/16 Q1013 TEMPO
                        BKN009=
200808052150 METAR COR EGLL 052150Z 22011KT 9999 BKN013 BKN019 19/16 Q1013
                        TEMPO BKN009=
200808052120 METAR COR EGLL 052120Z 22010KT 9999 SCT014 BKN020 19/16 Q1013
                        BECMG BKN014=
200808052050 METAR EGLL 052050Z 21010KT 180V240 9999 FEW016 BKN023 19/16
                        Q1013 BECMG BKN014=
200808052020 METAR COR EGLL 052020Z 20010KT 170V240 9999 -RA BKN026 19/16
                        Q1013 BECMG BKN014=
200808051950 METAR COR EGLL 051950Z 21009KT 170V250 9999 BKN028 19/16
                        Q1013 NOSIG=
200808051920 METAR COR EGLL 051920Z 21009G19KT 180V250 9999 BKN022 19/16
                        Q1013 NOSIG=
200808051850 METAR COR EGLL 051850Z 22010G20KT 190V250 9999 BKN020 19/16
                        Q1013 NOSIG=
200808051820 METAR EGLL 051820Z 21009KT 180V240 9999 FEW015 BKN021 19/16
                        Q1013 NOSIG=
200808051750 METAR COR EGLL 051750Z 22010KT 9999 FEW012 BKN015 BKN019
                        19/16 Q1013 NOSIG=
200808051720 METAR COR EGLL 051720Z 21008KT 180V250 9999 BKN012 19/17
                        Q1013 TEMPO SCT012 BKN020=
200808051650 METAR COR EGLL 051650Z 19008KT 160V240 9999 SCT012 BKN017
                        19/17 Q1013 NOSIG=
200808051620 METAR COR EGLL 051620Z 22009KT 9999 BKN010 19/17 Q1014 TEMPO
                        SCT012 BKN018=
200808051550 METAR COR EGLL 051550Z 22011KT 9999 BKN010 19/17 Q1014 TEMPO
                        SCT012 BKN018=
200808051520 METAR COR EGLL 051520Z 21011KT 180V250 9999 -RA BKN010 19/17
                        Q1013 TEMPO SCT012 BKN018=
200808051450 METAR COR EGLL 051450Z 19009KT 150V240 9999 BKN010 19/17
                        Q1013 TEMPO SCT012=
200808051420 METAR COR EGLL 051420Z 20010KT 160V240 9999 BKN007 19/17
                        Q1013 BECMG BKN012=
200808051350 METAR COR EGLL 051350Z 19011KT 9999 BKN007 18/16 Q1013 BECMG
                        BKN012=
200808051320 METAR COR EGLL 051320Z 19011KT 9999 BKN006 18/16 Q1014 NOSIG=
200808051250 METAR COR EGLL 051250Z 19011KT 160V220 9999 -RA BKN006 18/16
                        Q1014 NOSIG=
200808051220 METAR COR EGLL 051220Z 19012KT 9999 -RA BKN005 17/16 Q1014
                        BECMG BKN010=
200808051150 METAR EGLL 051150Z 19011KT 170V260 9999 -RA BKN007 BKN010
                        17/16 Q1014 TEMPO RA=
200808051120 METAR COR EGLL 051120Z 19010KT 9999 -RA OVC008 17/15 Q1014
                        TEMPO RA=
200808051050 METAR COR EGLL 051050Z 18011KT 9999 BKN006 BKN012 17/15 Q1014
                        RERA TEMPO 4000 RA=
200808051020 METAR COR EGLL 051020Z 17010KT 150V210 8000 -RA BKN006 BKN012
                        16/15 Q1014 TEMPO 4000 RA=
200808050950 METAR COR EGLL 050950Z 18010KT 6000 -RA BKN005 BKN012 16/15
                        Q1014 TEMPO 4000 RA=
200808050920 METAR EGLL 050920Z 17011KT 130V200 6000 -RA BKN006 BKN012
                        16/15 Q1014 TEMPO 4000 RA=
200808050850 METAR COR EGLL 050850Z 17009KT 140V230 4000 -RA BKN006 16/15
                        Q1014 NOSIG=
200808050820 METAR COR EGLL 050820Z 16007KT 130V210 9999 -RA FEW007 SCT027
                        OVC032 16/14 Q1014 RERA BECMG BKN012=
200808050750 METAR EGLL 050750Z VRB07KT 9999 -RA FEW016 SCT019 BKN030
                        16/14 Q1014 BECMG BKN012=
200808050720 METAR EGLL 050720Z 20006KT 160V240 9999 7000W -RA SCT015
                        BKN020 16/13 Q1014 BECMG BKN014=
200808050650 METAR EGLL 050650Z 23007KT 9999 -RA BKN030 16/13 Q1014=
200808050620 METAR COR EGLL 050620Z 21007KT 180V260 9999 -RA BKN037 16/13
                        Q1014 BECMG RA BKN014=
200808050550 METAR COR EGLL 050550Z 21005KT 160V240 9999 SCT043 15/13
                        Q1014 BECMG RA=
200808050520 METAR COR EGLL 050520Z 20004KT 140V260 9999 FEW049 15/12
                        Q1014 BECMG RA=
200808050450 METAR COR EGLL 050450Z 20004KT 170V250 CAVOK 15/12 Q1014
                        BECMG RA=
200808050420 METAR COR EGLL 050420Z 22005KT 190V270 CAVOK 14/12 Q1014
                        BECMG RA=
200808050350 METAR COR EGLL 050350Z 23006KT 200V270 CAVOK 14/12 Q1014
                        NOSIG=
200808050320 METAR COR EGLL 050320Z 22005KT CAVOK 14/12 Q1014 NOSIG=
200808050250 METAR EGLL 050250Z 22005KT CAVOK 14/12 Q1014 NOSIG=
200808050220 METAR COR EGLL 050220Z 21004KT CAVOK 14/12 Q1014 NOSIG=
200808050150 METAR EGLL 050150Z 23003KT CAVOK 15/12 Q1014 NOSIG=
200808050120 METAR EGLL 050120Z AUTO 25005KT 9999NDV NCD 14/12 Q1014=
200808050050 METAR EGLL 050050Z AUTO 25005KT 9999NDV NCD 14/12 Q1014=
200808050020 METAR EGLL 050020Z AUTO 27005KT 9999NDV NCD 16/12 Q1014=
200808042350 METAR EGLL 042350Z 27006KT CAVOK 16/12 Q1014 NOSIG=
200808042320 METAR COR EGLL 042320Z 27007KT CAVOK 16/12 Q1014 NOSIG=
200808042250 METAR COR EGLL 042250Z 26009KT CAVOK 16/12 Q1014 NOSIG=
200808042220 METAR EGLL 042220Z 25009KT CAVOK 16/12 Q1014 NOSIG=
200808042150 METAR COR EGLL 042150Z 25009KT CAVOK 17/12 Q1014 NOSIG=
200808042120 METAR COR EGLL 042120Z 25009KT CAVOK 17/12 Q1013 NOSIG=
200808042050 METAR COR EGLL 042050Z 25010KT CAVOK 18/12 Q1013 NOSIG=
200808042020 METAR COR EGLL 042020Z 25010KT 9999 FEW037 18/13 Q1013 NOSIG=
200808041950 METAR EGLL 041950Z 26010KT 9999 FEW044 19/12 Q1013 NOSIG=
200808041920 METAR COR EGLL 041920Z 27011KT 9999 FEW042 19/12 Q1012 NOSIG=
200808041850 METAR COR EGLL 041850Z 27011KT 9999 FEW042 20/11 Q1012 NOSIG=
200808041820 METAR COR EGLL 041820Z 27012KT 9999 FEW041 20/11 Q1012 NOSIG=
200808041750 METAR COR EGLL 041750Z 26014KT 9999 SCT037 21/13 Q1012 NOSIG=
200808041720 METAR EGLL 041720Z 24012KT 9999 SCT036 21/13 Q1012 NOSIG=
200808041650 METAR COR EGLL 041650Z 25013KT 9999 FEW038 21/12 Q1012 NOSIG=
200808041620 METAR COR EGLL 041620Z 26011KT 220V290 9999 FEW035 21/13
                        Q1012 NOSIG=
200808041550 METAR COR EGLL 041550Z 25014KT 9999 FEW036 21/13 Q1012 NOSIG=
200808041520 METAR COR EGLL 041520Z 24013KT 9999 FEW036 21/12 Q1012 NOSIG=
200808041450 METAR EGLL 041450Z 24014KT 9999 VCSH FEW035 SCT049 19/12
                        Q1012 NOSIG=
200808041420 METAR COR EGLL 041420Z 24017KT 9999 6000S VCSH FEW021 SCT035
                        BKN049 20/13 Q1012 NOSIG=
200808041350 METAR EGLL 041350Z 26011KT 9999 FEW019 SCT035 BKN045 19/14
                        Q1012 NOSIG=
200808041320 METAR COR EGLL 041320Z 25015KT 9999 VCSH SCT025 SCT045 19/14
                        Q1011 NOSIG=
200808041250 METAR COR EGLL 041250Z 25012KT 220V280 9999 FEW021 SCT045
                        21/13 Q1011 NOSIG=
200808041220 METAR EGLL 041220Z 27013KT 9999 VCSH FEW027 SCT045 19/14
                        Q1011 NOSIG=
200808041150 METAR EGLL 041150Z 24014KT 210V280 9999 VCSH FEW029 SCT044
                        20/13 Q1011 NOSIG=
200808041120 METAR EGLL 041120Z 24015KT 9999 SCT029 SCT045 19/14 Q1011
                        NOSIG=
200808041050 METAR COR EGLL 041050Z 23012KT 190V260 9999 SCT026 20/12
                        Q1011 NOSIG=
200808041020 METAR COR EGLL 041020Z 24013KT 9999 SCT026 21/13 Q1011 NOSIG=
200808040950 METAR COR EGLL 040950Z 24010KT 200V270 9999 SCT025 20/13
                        Q1011 NOSIG=
200808040920 METAR COR EGLL 040920Z 27012KT 230V300 9999 SCT022 19/13
                        Q1011 NOSIG=
200808040850 METAR EGLL 040850Z 26010KT 9999 FEW018 18/13 Q1011 NOSIG=
200808040820 METAR EGLL 040820Z 26011KT 220V280 9999 SCT013 17/14 Q1010
                        NOSIG=
200808040750 METAR EGLL 040750Z 25006KT 220V280 9999 FEW011 16/13 Q1010
                        NOSIG=
200808040720 METAR COR EGLL 040720Z 26009KT 9999 FEW008 SCT011 15/13 Q1010
                        NOSIG=
200808040650 METAR EGLL 040650Z 25010KT 9999 SCT007 15/13 Q1010 NOSIG=
200808040620 METAR COR EGLL 040620Z 26008KT 9999 SCT006 14/12 Q1010 NOSIG=
200808040550 METAR EGLL 040550Z 25009KT 9999 BKN005 13/12 Q1010=
200808040520 METAR COR EGLL 040520Z 25009KT 9999 BKN005 13/12 Q1009 BECMG
                        SCT005=
200808040450 METAR COR EGLL 040450Z 26006KT 9999 SCT006 13/12 Q1009 NOSIG=
200808040420 METAR EGLL 040420Z 25008KT 9999 FEW010 13/12 Q1009=
200808040350 METAR EGLL 040350Z 25007KT 9999 FEW008 13/12 Q1009 NOSIG=
200808040320 METAR EGLL 040320Z 24007KT 9999 SCT010 13/12 Q1009=
200808040250 METAR EGLL 040250Z 27006KT 9999 FEW010 13/12 Q1008 NOSIG=
200808040220 METAR COR EGLL 040220Z 26006KT CAVOK 13/12 Q1008 NOSIG=
200808040150 METAR COR EGLL 040150Z 28007KT CAVOK 13/11 Q1008 NOSIG=
200808040120 METAR EGLL 040120Z AUTO 27007KT 9999NDV NCD 13/12 Q1008=
200808040050 METAR EGLL 040050Z AUTO 27007KT 9999NDV NCD 13/12 Q1008=
200808040020 METAR EGLL 040020Z AUTO 27007KT 9999NDV NCD 14/12 Q1008=
200808032350 METAR COR EGLL 032350Z 26009KT 9999 FEW010 14/12 Q1008 NOSIG=
200808032320 METAR COR EGLL 032320Z 26009KT 9999 FEW010 14/12 Q1008 NOSIG=
200808032250 METAR COR EGLL 032250Z 27008KT CAVOK 14/13 Q1008 NOSIG=
200808032220 METAR COR EGLL 032220Z 27009KT CAVOK 15/13 Q1008 NOSIG=
200808032150 METAR EGLL 032150Z 26009KT 9999 FEW010 15/13 Q1007=
200808032120 METAR EGLL 032120Z 25009KT 9999 SCT048 15/13 Q1007=
200808032050 METAR COR EGLL 032050Z 27008KT 9999 -RA FEW008 SCT026 14/13
                        Q1008 NOSIG=
200808032020 METAR COR EGLL 032020Z 29009KT 3200 RA FEW008 SCT011 BKN020
                        15/14 Q1008 BECMG 7000=
200808031950 METAR EGLL 031950Z 28007KT 9999 9000W -RA FEW013 SCT026 BKN032
                        16/14 Q1007 TEMPO SHRA BKN013=
200808031920 METAR COR EGLL 031920Z 29008KT 9999 FEW010 SCT014 BKN025
                        16/14 Q1007 NOSIG=
200808031850 METAR COR EGLL 031850Z 27008KT 9999 -RA FEW010 SCT014 16/14
                        Q1007 TEMPO RA BKN014=
200808031820 METAR COR EGLL 031820Z 28009KT 7000 RA FEW014 SCT021 16/14
                        Q1007 TEMPO -RA BKN014=
200808031750 METAR COR EGLL 031750Z 27010KT 7000 RA FEW021 SCT023 17/15
                        Q1008 TEMPO 4000 RA BKN012=
200808031720 METAR EGLL 031720Z 25013KT 9000 -RA FEW024 SCT035 BKN045
                        19/15 Q1008 BECMG 4500 RA BKN014=
200808031650 METAR COR EGLL 031650Z 24014KT 9999 FEW020 SCT027 BKN043
                        20/14 Q1008 BECMG 4500 RA BKN014=
200808031620 METAR COR EGLL 031620Z 24013KT 9999 SCT020 SCT023 20/15 Q1008
                        BECMG 4500 RA BKN014=
200808031550 METAR COR EGLL 031550Z 24012KT 9999 SCT020 SCT024 20/15 Q1008
                        BECMG 4000 +RA BKN012=
200808031520 METAR COR EGLL 031520Z 23013KT 9999 FEW019 SCT045 20/15 Q1008
                        BECMG RA=
200808031450 METAR COR EGLL 031450Z 24014KT 9999 FEW018 SCT047 20/15 Q1009
                        BECMG RA=
200808031420 METAR EGLL 031420Z 23013KT 9999 FEW018 SCT043 20/16 Q1009
                        NOSIG=
200808031350 METAR COR EGLL 031350Z 24010KT 9999 SCT018 BKN028 19/16 Q1009
                        NOSIG=
200808031320 METAR COR EGLL 031320Z 21009KT 180V260 9999 -SHRA FEW018
                        BKN025 19/16 Q1009 NOSIG=
200808031250 METAR COR EGLL 031250Z 21010KT 170V250 9999 -SHRA FEW024
                        BKN028 19/16 Q1010 TEMPO SHRA=
200808031220 METAR COR EGLL 031220Z 24010KT 9999 VCSH FEW021 SCT024 BKN028
                        19/16 Q1010 TEMPO RA=
200808031150 METAR COR EGLL 031150Z 26012KT 9999 FEW018 BKN022 19/16 Q1010
                        RERA TEMPO RA=
200808031120 METAR COR EGLL 031120Z 27011KT 9999 -RA FEW014 SCT017 BKN022
                        19/17 Q1010 TEMPO 4000 RA BKN014=
200808031050 METAR COR EGLL 031050Z 28009KT 9999 VCSH FEW013 SCT020 BKN030
                        19/17 Q1010 TEMPO 4000 SHRA BKN012=
200808031020 METAR COR EGLL 031020Z 25013KT 220V280 9999 4000W VCSH SCT021
                        BKN046 22/15 Q1010 TEMPO 4000 SHRA
                        BKN012=
200808030950 METAR COR EGLL 030950Z 23010KT 190V260 9999 SCT021 SCT049
                        22/16 Q1010 TEMPO 4000 SHRA BKN012=
200808030920 METAR COR EGLL 030920Z 23014KT 9999 SCT017 BKN025 21/16 Q1011
                        TEMPO SHRA BKN012=
200808030850 METAR COR EGLL 030850Z 24013KT 190V270 9999 SCT013 BKN024
                        21/16 Q1011 NOSIG=
200808030820 METAR EGLL 030820Z 23012KT 9999 FEW011 SCT028 20/16 Q1011
                        NOSIG=
200808030750 METAR EGLL 030750Z 23008KT 9999 FEW010 SCT022 BKN031 20/17
                        Q1011 TEMPO BKN012=
200808030720 METAR COR EGLL 030720Z 22008KT 190V260 8000 -DZ FEW006 SCT013
                        BKN023 18/17 Q1011 TEMPO BKN008=
200808030650 METAR COR EGLL 030650Z 21007KT 180V250 9999 SCT004 SCT021
                        BKN030 18/17 Q1011 TEMPO BKN006=
200808030620 METAR EGLL 030620Z 20008KT 6000 BKN004 BKN010 17/16 Q1011
                        TEMPO 4000 -DZ=
200808030550 METAR COR EGLL 030550Z 21008KT 2500 -DZ BKN005 17/16 Q1011
                        TEMPO BKN004=
200808030520 METAR COR EGLL 030520Z 19012KT 140V210 9999 7000S BKN006
                        17/15 Q1011 TEMPO 4000 -DZ BR BKN004=
200808030450 METAR COR EGLL 030450Z 20010KT 9999 VCSH BKN009 17/15 Q1011
                        TEMPO BKN004=
200808030420 METAR EGLL 030420Z 19010KT 9999 FEW007 BKN011 17/15 Q1011
                        BECMG BKN008=
200808030350 METAR EGLL 030350Z 19010KT 9999 FEW013 SCT019 17/15 Q1012
                        BECMG BKN008=
200808030320 METAR COR EGLL 030320Z 18007KT 9999 FEW013 SCT021 17/14 Q1012
                        NOSIG=
200808030250 METAR COR EGLL 030250Z 20007KT 9999 FEW021 17/14 Q1012 BECMG
                        BKN008=
200808030220 METAR COR EGLL 030220Z 20007KT 9999 FEW015 17/14 Q1013 NOSIG=
200808030150 METAR COR EGLL 030150Z 21007KT 9999 FEW022 17/14 Q1013 NOSIG=
200808030120 METAR EGLL 030120Z AUTO 21006KT 9999NDV NCD 17/14 Q1013=
200808030050 METAR EGLL 030050Z AUTO 22007KT 9999NDV NCD 17/14 Q1013=
200808030020 METAR EGLL 030020Z AUTO 21005KT 9999NDV NCD 17/14 Q1013=
200808022350 METAR EGLL 022350Z 22005KT CAVOK 17/14 Q1013 NOSIG=
200808022320 METAR EGLL 022320Z 22004KT 190V250 CAVOK 17/12 Q1013 NOSIG=
200808022250 METAR COR EGLL 022250Z 25006KT CAVOK 18/13 Q1013 NOSIG=
200808022220 METAR COR EGLL 022220Z 26007KT CAVOK 18/12 Q1013 NOSIG=
200808022150 METAR EGLL 022150Z 27008KT CAVOK 19/12 Q1013 NOSIG=
200808022120 METAR COR EGLL 022120Z 26009KT CAVOK 19/12 Q1013 NOSIG=
200808022050 METAR COR EGLL 022050Z 26011KT CAVOK 20/12 Q1013 NOSIG=
200808022020 METAR EGLL 022020Z 25010KT 9999 FEW036 20/11 Q1013 NOSIG=
200808021950 METAR COR EGLL 021950Z 25012KT 9999 FEW044 20/11 Q1012 NOSIG=
200808021920 METAR EGLL 021920Z 26009KT 9999 FEW048 21/10 Q1012 NOSIG=
200808021850 METAR EGLL 021850Z 26013KT 9999 FEW048 21/09 Q1012 NOSIG=
200808021820 METAR EGLL 021820Z 26017KT CAVOK 22/09 Q1012 NOSIG=
200808021750 METAR COR EGLL 021750Z 26016KT 9999 FEW043 22/09 Q1012 NOSIG=
200808021720 METAR COR EGLL 021720Z 27014KT 9999 FEW042 23/10 Q1012 NOSIG=
200808021650 METAR EGLL 021650Z 25016KT 9999 FEW042 23/10 Q1011 NOSIG=
200808021620 METAR COR EGLL 021620Z 26017KT 9999 SCT043 24/11 Q1011 NOSIG=
200808021550 METAR COR EGLL 021550Z 26014KT 230V290 9999 FEW031 SCT043
                        24/13 Q1011 NOSIG=
200808021520 METAR COR EGLL 021520Z 26011KT 230V300 9999 SCT031 23/14
                        Q1011 NOSIG=
200808021450 METAR COR EGLL 021450Z 27012KT 9999 SCT021 22/16 Q1011 NOSIG=
200808021420 METAR EGLL 021420Z 27009KT 240V310 9999 FEW020 SCT043 21/17
                        Q1011 NOSIG=
200808021350 METAR COR EGLL 021350Z 27010KT 9999 SCT018 SCT029 20/17 Q1011
                        RESHRA NOSIG=
200808021320 METAR COR EGLL 021320Z 22010KT 170V280 9999 3500N SHRA SCT010
                        BKN018 BKN023 21/16 Q1011 BECMG 28012KT=
200808021250 METAR EGLL 021250Z 20009KT 170V250 9999 SCT022 BKN038 21/15
                        Q1011 TEMPO 4000 RADZ BKN010=
200808021220 METAR COR EGLL 021220Z 19011KT 150V240 9999 SCT014 BKN021
                        20/15 Q1011 TEMPO 4000 RADZ BKN010=
200808021150 METAR COR EGLL 021150Z 20011G21KT 160V240 9999 VCSH BKN012
                        19/15 Q1011 TEMPO 4500 RADZ BKN009=
200808021120 METAR EGLL 021120Z 19011KT 160V250 9999 BKN013 19/15 Q1011
                        TEMPO 4500 RADZ BKN009=
200808021050 METAR COR EGLL 021050Z 18010KT 150V220 9999 BKN013 19/15
                        Q1012 TEMPO 4500 RADZ BKN009=
200808021020 METAR COR EGLL 021020Z 18011KT 150V230 9999 BKN017 19/14
                        Q1012 TEMPO 4000 RADZ BKN010=
200808020950 METAR COR EGLL 020950Z 19013KT 170V230 9999 BKN015 BKN028
                        19/14 Q1012 TEMPO BKN012=
200808020920 METAR COR EGLL 020920Z 18011KT 150V240 9999 SCT015 SCT023
                        BKN049 18/15 Q1012 TEMPO BKN012=
200808020850 METAR COR EGLL 020850Z 19010KT 150V230 9999 BKN012 BKN015
                        18/15 Q1012 TEMPO BKN015=
200808020820 METAR COR EGLL 020820Z 18011KT 160V230 9999 BKN011 BKN016
                        18/15 Q1012 TEMPO BKN015=
200808020750 METAR COR EGLL 020750Z 18008KT 140V230 9999 BKN010 BKN018
                        17/16 Q1012 TEMPO BKN015=
200808020720 METAR COR EGLL 020720Z 18006KT 140V230 9999 BKN009 BKN018
                        17/15 Q1012 TEMPO BKN012=
200808020650 METAR COR EGLL 020650Z 19010KT 170V230 7000 -RA SCT011 SCT015
                        BKN038 17/15 Q1012 BECMG BKN014=
200808020620 METAR EGLL 020620Z 18008KT 150V220 9999 FEW011 BKN025 BKN040
                        17/15 Q1012=
200808020550 METAR COR EGLL 020550Z 17007KT 9999 FEW014 BKN030 17/14 Q1012
                        NOSIG=
200808020520 METAR EGLL 020520Z 19007KT 170V240 9999 FEW015 BKN029 17/14
                        Q1012 NOSIG=
200808020450 METAR EGLL 020450Z 19007KT 9999 FEW036 17/14 Q1012 TEMPO
                        BKN014=
200808020420 METAR COR EGLL 020420Z 19006KT 9999 FEW015 SCT049 17/14 Q1012
                        TEMPO BKN014=
200808020350 METAR COR EGLL 020350Z 19008KT 9999 FEW013 SCT016 OVC031
                        17/14 Q1012 NOSIG=
200808020320 METAR EGLL 020320Z 21007KT 9999 BKN014 17/14 Q1013 NOSIG=
200808020250 METAR COR EGLL 020250Z 20008KT 9999 FEW013 SCT016 17/14 Q1013
                        BECMG BKN013=
200808020220 METAR EGLL 020220Z 21007KT 9999 FEW015 17/13 Q1013 BECMG
                        BKN013=
200808020150 METAR COR EGLL 020150Z 21008KT 9999 FEW015 17/14 Q1013 BECMG
                        BKN013=
200808020120 METAR EGLL 020120Z AUTO 21009KT 9999NDV FEW015/// SCT023///
                        17/14 Q1013=
200808020050 METAR EGLL 020050Z AUTO 21009KT 9999NDV -DZ FEW017/// 17/13
                        Q1013=
200808020020 METAR EGLL 020020Z AUTO 21010KT 9999NDV SCT043/// 17/14 Q1013=
200808012350 METAR COR EGLL 012350Z 20010KT 9999 FEW010 SCT048 17/14 Q1013
                        BECMG BKN012=
200808012320 METAR COR EGLL 012320Z 20010KT 9999 FEW020 17/14 Q1013 BECMG
                        BKN013=
200808012250 METAR EGLL 012250Z 18007KT 9999 FEW035 16/13 Q1013 NOSIG=
200808012220 METAR EGLL 012220Z 19007KT 9999 SCT031 17/13 Q1014 NOSIG=
200808012150 METAR COR EGLL 012150Z 19009KT 160V230 9999 FEW024 SCT038
                        17/13 Q1014 NOSIG=
200808012120 METAR COR EGLL 012120Z 21008KT 9999 FEW025 17/13 Q1014 NOSIG=
200808012050 METAR COR EGLL 012050Z 21010KT 170V240 CAVOK 17/13 Q1014
                        NOSIG=
200808012020 METAR COR EGLL 012020Z 22010KT 9999 FEW024 18/12 Q1013 NOSIG=
200808011950 METAR EGLL 011950Z 21012KT 9999 FEW024 18/12 Q1013 NOSIG=
200808011920 METAR COR EGLL 011920Z 21014KT 9999 FEW030 19/12 Q1013 NOSIG=
200808011850 METAR EGLL 011850Z 21014KT 9999 FEW030 19/12 Q1013 NOSIG=
200808011820 METAR EGLL 011820Z 21015KT 9999 FEW032 20/12 Q1013 NOSIG=
200808011750 METAR COR EGLL 011750Z 21015KT 9999 VCSH FEW035 20/12 Q1013
                        NOSIG=
200808011720 METAR COR EGLL 011720Z 22014KT 9999 FEW033 SCT036 20/12 Q1013
                        NOSIG=
200808011650 METAR EGLL 011650Z 21016KT 9999 VCSH FEW036 SCT048 21/12
                        Q1013=
200808011620 METAR COR EGLL 011620Z 22016KT 9999 SCT035 22/12 Q1012 NOSIG=
200808011550 METAR EGLL 011550Z 22016KT 9999 FEW033 SCT035 22/12 Q1012
                        NOSIG=
200808011520 METAR COR EGLL 011520Z 21017G27KT 9999 FEW034 SCT045 22/12
                        Q1012 NOSIG=
200808011450 METAR COR EGLL 011450Z 22015KT 190V260 9999 FEW034 SCT042
                        22/12 Q1012 NOSIG=
200808011420 METAR EGLL 011420Z 22016KT 9999 -SHRA FEW031CB SCT043 21/12
                        Q1012=
200808011350 METAR COR EGLL 011350Z 21016KT 180V250 9999 VCSH FEW025CB
                        SCT035 22/12 Q1012 NOSIG=
200808011320 METAR COR EGLL 011320Z 21016KT 9999 FEW034 SCT038 22/13 Q1012
                        NOSIG=
200808011250 METAR EGLL 011250Z 21015G27KT 9999 SCT029 22/13 Q1012=
200808011220 METAR COR EGLL 011220Z 22015KT 9999 SCT024 SCT029 21/14 Q1012
                        NOSIG=
200808011150 METAR COR EGLL 011150Z 22016G26KT 190V250 9999 SCT023 SCT029
                        20/14 Q1012 NOSIG=
200808011120 METAR EGLL 011120Z 23013KT 200V270 9999 -RA SCT024 SCT029
                        19/15 Q1011=
200808011050 METAR EGLL 011050Z 22012KT 170V250 9999 SCT023 SCT036 20/14
                        Q1011=
200808011020 METAR EGLL 011020Z 25014KT 9999 SCT024 SCT029 20/13 Q1011=
200808010950 METAR EGLL 010950Z 22016KT 9999 -SHRA SCT025 SCT040 20/13
                        Q1011=
200808010920 METAR COR EGLL 010920Z 21014G24KT 190V250 9999 SCT023 SCT027
                        20/13 Q1011 NOSIG=
200808010850 METAR EGLL 010850Z 22014KT 9999 SCT023 19/13 Q1011 NOSIG=
200808010820 METAR EGLL 010820Z 22017KT 9999 FEW024 20/13 Q1011=
200808010750 METAR COR EGLL 010750Z 22017KT 9999 FEW022 19/13 Q1011 NOSIG=
200808010720 METAR COR EGLL 010720Z 22016KT 9999 FEW024 18/12 Q1010 NOSIG=
200808010650 METAR COR EGLL 010650Z 22013KT 180V250 9999 FEW019 18/13
                        Q1010 NOSIG=
200808010620 METAR COR EGLL 010620Z 22012KT 180V250 9999 SCT019 SCT026
                        17/13 Q1010 NOSIG=
200808010550 METAR EGLL 010550Z 23010KT 9999 SCT047 17/13 Q1010 NOSIG=
200808010520 METAR EGLL 010520Z 21010KT 9999 FEW020 SCT047 16/13 Q1010
                        NOSIG=
200808010450 METAR COR EGLL 010450Z 21009KT 9999 FEW028 SCT047 16/13 Q1009
                        NOSIG=
200808010420 METAR EGLL 010420Z 21009KT 9999 FEW020 15/13 Q1009 NOSIG=
200808010350 METAR COR EGLL 010350Z 21007KT 9999 FEW020 16/13 Q1009 NOSIG=
200808010320 METAR COR EGLL 010320Z 22010KT 9999 FEW018 16/13 Q1009 NOSIG=
200808010250 METAR EGLL 010250Z 23013KT 9999 FEW016 17/13 Q1008 NOSIG=
200808010220 METAR EGLL 010220Z 24016KT 9999 SCT019 17/14 Q1008 NOSIG=
200808010150 METAR COR EGLL 010150Z 24013KT 9999 SCT014 18/15 Q1007 TEMPO
                        BKN014=
200808010120 METAR EGLL 010120Z AUTO 23014KT 9999NDV BKN011/// BKN015///
                        19/16 Q1007=
200808010050 METAR EGLL 010050Z AUTO 20010KT 9999NDV BKN012/// 20/17 Q1007=
200808010020 METAR EGLL 010020Z AUTO 18010KT 9999NDV FEW013/// 20/17 Q1007=

###################################
#  short TAF from EGLL
###################################
200808312101 TAF EGLL 312101Z 312207 25010KT 9999 FEW015
                      PROB30 TEMPO 2205 BKN012=
200808311754 TAF EGLL 311754Z 311904 26008KT 7000 SCT025
                      TEMPO 1924 SHRA BKN010
                      PROB40 TEMPO 1921 3000 +SHRA TSRA
                      PROB30 TEMPO 1922 9999
                      BECMG 2201 9999
                      TEMPO 0003 6000 BKN010=
200808311509 TAF EGLL 311509Z 311601 23008KT 6000 SCT025
                      TEMPO 1601 SHRA BKN010
                      PROB40 TEMPO 1621 3000 +SHRA TSRA
                      PROB30 TEMPO 1322 9999
                      BECMG 2201 9999=
200808311157 TAF EGLL 311157Z 311322 VRB05KT 6000 SCT035
                      TEMPO 1322 SHRA RA
                      PROB40 TEMPO 1321 3000 +SHRA TSRA BKN007
                       PROB30
                      TEMPO 1322 9999
                      BECMG 1417 27010KT=
200808311153 TAF AMD EGLL 311153Z 311019 VRB05KT 3000 BR SCT035
                      BECMG 1012 6000 NSW
                      TEMPO 1019 3000 +SHRA TSRA BKN004
                      PROB40 TEMPO 1119 9999
                      BECMG 1417 27010KT=
200808311025 TAF AMD EGLL 311025Z 311019 VRB05KT 3000 BR SCT035
                      BECMG 1012 6000 NSW
                      TEMPO 1019 3000 +SHRA TSRA
                      PROB40 TEMPO 1119 9999
                      BECMG 1417 27010KT=
200808310905 TAF EGLL 310905Z 311019 VRB05KT 6000 SCT035
                      TEMPO 1019 3000 +SHRA TSRA
                      PROB40 TEMPO 1119 9999
                      BECMG 1417 27010KT=
200808310726 TAF AMD EGLL 310726Z 310716 VRB05KT 1400 BR SCT035
                      BECMG 0711 6000
                      TEMPO 0716 3000 +SHRA TSRA
                      PROB40 0708 0500 FG OVC001
                      PROB40 TEMPO 1116 9999
                      BECMG 1416 27010KT=
200808310620 TAF COR EGLL 310620Z 310716 VRB05KT 1400 BR SCT035
                      BECMG 0711 6000
                      PROB40 0708 0500 FG OVC001
                      TEMPO 1116 3000 +SHRA TSRA
                      PROB40 TEMPO 1116 9999
                      BECMG 1416 27010KT=
200808310614 TAF EGLL 310614Z 310716 VRB05KT 1400 BR SCT035
                      PROB40 0708 0500 FG OVC001
                      BECMG 0811 6000
                      TEMPO 1116 3000 +SHRA TSRA
                      PROB40 TEMPO 1116 9999
                      BECMG 1416 27010KT=
200808310600 TAF EGLL 310600Z NIL=
200808310312 TAF EGLL 310312Z 310413 VRB05KT 2000 BR SCT035
                      TEMPO 0408 1400
                      PROB40 0407 0500 FG
                      BECMG 0912 6000 NSW
                      PROB40 TEMPO 1013 RA SHRA=
200808310300 TAF EGLL 310300Z NIL=
200808302345 TAF EGLL 302345Z 310110 VRB05KT 2000 BR NSC
                      TEMPO 0308 1400 MIFG
                      PROB30 TEMPO 0507 0600 FG
                      PROB30 0910 5000 HZ=
200808302101 TAF EGLL 302101Z 302207 VRB05KT 5000 HZ NSC
                      TEMPO 2224 3500 BR
                      BECMG 0003 2500 BR
                      PROB30 0507 1400 MIFG=
200808302034 TAF AMD EGLL 302034Z 302004 09005KT 6000 NSC
                      TEMPO 2004 3500 HZ=
200808301802 TAF EGLL 301802Z 301904 15007KT CAVOK
                      BECMG 1921 8000
                      BECMG 0104 4000 HZ=
200808301504 TAF EGLL 301504Z 301601 13009KT CAVOK
                      BECMG 2023 8000=
200808301158 TAF EGLL 301158Z 301322 13010KT 9999 FEW035
                      BECMG 2022 8000=
200808300903 TAF EGLL 300903Z 301019 12010KT 7000 FEW020
                      BECMG 1012 9999=
200808300725 TAF AMD EGLL 300725Z 300716 12010KT 4000 HZ FEW012
                      BECMG 0911 9999 NSW=
200808300603 TAF EGLL 300603Z 300716 12010KT 9999 BKN030
                      PROB30 TEMPO 0708 8000
                      BECMG 0811 CAVOK=
200808300306 TAF EGLL 300306Z 300413 12010KT 9999 BKN030
                      PROB30 TEMPO 0408 8000
                      BECMG 0811 CAVOK=
200808292358 TAF EGLL 292358Z 300110 13007KT 9999 BKN030
                      PROB40 TEMPO 0408 8000=
200808292103 TAF EGLL 292103Z 292207 13006KT 9999 FEW018 BKN030
                      PROB40 0407 8000=
200808291804 TAF EGLL 291804Z 291904 15005KT 9999 BKN035
                      BECMG 2201 8000
                      PROB30 TEMPO 0004 BKN014=
200808291506 TAF EGLL 291506Z 291601 15005KT 9999 BKN040
                      BECMG 2201 8000=
200808291200 TAF EGLL 291200Z 291322 15004KT 9999 BKN035=
200808290903 TAF EGLL 290903Z 291019 VRB03KT 9999 BKN035=
200808290600 TAF EGLL 290600Z 290716 VRB04KT 9999 BKN030=
200808290258 TAF EGLL 290258Z 290413 VRB04KT 9999 BKN030
                      PROB30 0409 8000=
200808290001 TAF EGLL 290001Z 290110 25006KT 9999 BKN030
                      PROB30 0109 8000 BKN014=
200808282054 TAF EGLL 282054Z 282207 25006KT 9999 BKN030
                      PROB30 0107 8000 BKN014=
200808281746 TAF EGLL 281746Z 281904 29004KT 9999 BKN025
                      PROB30 0104 9000 BKN014=
200808281505 TAF EGLL 281505Z 281601 27007KT 9999 BKN025
                      PROB30 2401 8000 BKN014=
200808281224 TAF AMD EGLL 281224Z 281322 27007KT 9999 BKN025
                      PROB30 TEMPO 1322 BKN014=
200808281134 TAF EGLL 281134Z 281322 27007KT 9999 BKN025=
200808280848 TAF EGLL 280848Z 281019 27007KT 9999 BKN030=
200808280556 TAF EGLL 280556Z 280716 27007KT 9999 BKN025
                      TEMPO 0708 8000 BKN009=
200808280253 TAF EGLL 280253Z 280413 27007KT 9999 BKN025
                      PROB30 TEMPO 0408 8000 BKN014=
200808280223 TAF AMD EGLL 280223Z 280110 27008KT 9999 BKN025
                      PROB30 TEMPO 0108 8000 BKN014=
200808280004 TAF EGLL 280004Z 280110 27008KT 9999 BKN025
                      PROB30 TEMPO 0108 BKN014=
200808272058 TAF EGLL 272058Z 272207 27008KT 9999 BKN020
                      PROB40 TEMPO 2207 BKN014=
200808272052 TAF AMD EGLL 272052Z 271904 27008KT 9999 BKN025
                      PROB40 TEMPO 2104 BKN014=
200808271801 TAF EGLL 271801Z 271904 27008KT 9999 BKN025=
200808271501 TAF EGLL 271501Z 271601 27012KT 9999 BKN025=
200808271206 TAF EGLL 271206Z 271322 26012KT 9999 BKN025=
200808270904 TAF EGLL 270904Z 271019 25010KT 9999 BKN020=
200808270559 TAF EGLL 270559Z 270716 25010KT 9999 BKN010
                      BECMG 0710 BKN016=
200808270458 TAF AMD EGLL 270458Z 270413 25010KT 9999 BKN015
                      TEMPO 0408 BKN009=
200808270308 TAF EGLL 270308Z 270413 25010KT 9999 BKN015
                      TEMPO 0408 BKN013=
200808270205 TAF EGLL 270205Z 270110 25009KT 9999 BKN017
                      PROB40 TEMPO 0208 BKN014=
200808270000 TAF EGLL 270000Z NIL=
200808262100 TAF EGLL 262100Z 262207 25008KT 9999 BKN022
                      PROB40 TEMPO 0207 BKN014=
200808261753 TAF EGLL 261753Z 261904 23010KT 9999 BKN022
                      TEMPO 2204 BKN014
                      PROB30 TEMPO 0004 6000 BKN009=
200808261456 TAF EGLL 261456Z 261601 24012KT 9999 BKN020=
200808261158 TAF EGLL 261158Z 261322 24012KT 9999 BKN020
                      PROB40 1322 CAVOK=
200808260858 TAF EGLL 260858Z 261019 24012KT 9999 SCT015 BKN020
                      PROB40 1019 CAVOK=
200808260604 TAF EGLL 260604Z 260716 24012KT 9999 BKN020
                      PROB40 0709 BKN014
                      PROB30 TEMPO 1216 24015G25KT CAVOK=
200808260305 TAF EGLL 260305Z 260413 23012KT 9999 BKN018
                      TEMPO 0409 9000 BKN012=
200808252359 TAF EGLL 252359Z 260110 23010KT 9999 BKN018
                      TEMPO 0109 8000 -DZ BKN012=
200808252155 TAF AMD EGLL 252155Z 252207 22010KT 9999 SCT020
                      TEMPO 2207 8000 -DZ
                      PROB30 TEMPO 2201 BKN014
                      BECMG 0104 BKN012=
200808252104 TAF EGLL 252104Z 252207 22010KT 9999 SCT020
                      PROB30 TEMPO 2201 BKN014
                      BECMG 0104 BKN012
                      PROB30 TEMPO 0407 7000 -DZ=
200808251758 TAF EGLL 251758Z 251904 22009KT 9999 FEW025
                      BECMG 0003 BKN012
                      PROB30 TEMPO 0204 7000 -DZ=
200808251507 TAF EGLL 251507Z 251601 22012KT 9999 BKN020
                      PROB40 2301 BKN013=
200808251159 TAF EGLL 251159Z 251322 23012KT 9999 BKN022
                      TEMPO 1316 24015G25KT=
200808250904 TAF EGLL 250904Z 251019 22012KT 9999 FEW015 BKN025
                      TEMPO 1016 22015G25KT=
200808250624 TAF COR EGLL 250624Z 250716 24012KT 9999 BKN020
                      PROB30 TEMPO 0710 8000 -DZ BKN014=
200808250547 TAF EGLL 250547Z 250716 24012KT 9999 BKN020
                      PROB30 TEMPO 0710 8000 -DZ BKN014
                      BECMG 1013 BKN020=
200808250256 TAF EGLL 250256Z 250413 24008KT 9999 SCT040
                      BECMG 0508 BKN014
                      PROB30 TEMPO 0710 8000 -DZ BKN008
                      BECMG 1013 BKN020=
200808242340 TAF EGLL 242340Z 250110 24008KT 9999 SCT040
                      BECMG 0306 BKN008
                      TEMPO 0510 8000 -DZ BKN014=
200808242034 TAF EGLL 242034Z 242207 24008KT 9999 SCT040
                      BECMG 0306 BKN008=
200808241745 TAF EGLL 241745Z 241904 24008KT 9999 SCT040
                      PROB30 0304 BKN009=
200808241502 TAF EGLL 241502Z 241601 25010KT 9999 SCT040=
200808241205 TAF EGLL 241205Z 241322 25010KT 9999 SCT035
                      PROB40 TEMPO 1417 9000 -SHRA=
200808241031 TAF AMD EGLL 241031Z 241019 20012KT 4500 -RADZ BKN004
                      BECMG 1013 25010KT 9999 SCT025=
200808240908 TAF EGLL 240908Z 241019 20012KT 9999 BKN012
                      TEMPO 1012 4500 -RADZ BKN006
                      BECMG 1114 26010KT SCT030=
200808240556 TAF EGLL 240556Z 240716 19012KT 8000 RA BKN014
                      PROB30 TEMPO 0710 BKN007
                      BECMG 0912 9999 NSW SCT035
                      BECMG 1316 26010KT=
200808240258 TAF EGLL 240258Z 240413 19012KT 9999 -RA BKN045
                      BECMG 0407 6000 RA BKN012
                      PROB30 TEMPO 0410 4000 +RA RADZ BKN007
                      BECMG 0912 9999 NSW SCT035=
200808232357 TAF EGLL 232357Z 240110 19012KT 9999 -RA BKN045
                      PROB30 TEMPO 0104 BKN014
                      BECMG 0407 6000 RA BKN012
                      PROB30 TEMPO 0410 4000 +RA RADZ BKN007=
200808232049 TAF EGLL 232049Z 232207 21012KT 9999 -RA BKN045
                      PROB30 TEMPO 0104 BKN014
                      BECMG 0407 6000 RA BKN012=
200808231803 TAF EGLL 231803Z 231904 21012KT 9999 -RA BKN045
                      PROB30 TEMPO 0104 BKN014=
200808231503 TAF EGLL 231503Z 231601 26007KT CAVOK
                      BECMG 1619 20010KT=
200808231209 TAF EGLL 231209Z 231322 28007KT 9999 SCT045
                      BECMG 1417 22010KT=
200808230905 TAF EGLL 230905Z 231019 28007KT 9999 SCT040
                      BECMG 1417 22010KT=
200808230556 TAF EGLL 230556Z 230716 27007KT 9999 SCT035=
200808230257 TAF EGLL 230257Z 230413 27007KT 9999 SCT035
                      PROB30 TEMPO 0407 8000=
200808230001 TAF EGLL 230001Z 230110 30005KT 9999 FEW040
                      PROB30 0407 8000=
200808222053 TAF EGLL 222053Z 222207 30005KT 9999 FEW040
                      PROB30 0407 8000=
200808221739 TAF EGLL 221739Z 221904 30006KT 9999 SCT040=
200808221446 TAF EGLL 221446Z 221601 30006KT 9999 SCT040
                      PROB30 TEMPO 1619 8000 SHRA=
200808221143 TAF EGLL 221143Z 221322 30006KT 9999 SCT040
                      PROB30 TEMPO 1319 8000 SHRA=
200808220852 TAF EGLL 220852Z 221019 30006KT 9999 SCT040
                      PROB30 TEMPO 1319 8000 SHRA=
200808220601 TAF EGLL 220601Z 220716 30006KT 9999 SCT040
                      TEMPO 0709 6000 RA
                      PROB30 TEMPO 1316 5000 SHRA=
200808220424 TAF AMD EGLL 220424Z 220413 24006KT 9999 FEW035
                      BECMG 0407 34010KT
                      TEMPO 0409 6000 SHRA=
200808220259 TAF EGLL 220259Z 220413 24006KT 9999 FEW035
                      BECMG 0407 34010KT
                      TEMPO 0609 6000 SHRA=
200808212357 TAF EGLL 212357Z 220110 24006KT 9999 FEW035
                      TEMPO 0109 6000 SHRA
                      BECMG 0407 34010KT=
200808212057 TAF EGLL 212057Z 212207 24010KT 9999 SCT035
                      TEMPO 2207 6000 SHRA
                      BECMG 0407 34006KT=
200808211755 TAF EGLL 211755Z 211904 24012KT 9999 SCT035
                      PROB30 TEMPO 1922 6000 SHRA
                      BECMG 0104 32006KT
                      PROB30 TEMPO 0204 7000 SHRA=
200808211455 TAF EGLL 211455Z 211601 24012KT 9999 SCT035
                      PROB30 TEMPO 1622 6000 SHRA=
200808211152 TAF EGLL 211152Z 211322 24012KT 9999 SCT035
                      PROB30 TEMPO 1322 6000 SHRA=
200808210856 TAF EGLL 210856Z 211019 24009KT 9999 SCT030
                      PROB30 TEMPO 1119 6000 SHRA=
200808210602 TAF EGLL 210602Z 210716 24009KT 9999 FEW015 BKN025
                      PROB40 TEMPO 0709 7000 -DZ BKN013
                      PROB40 TEMPO 1116 5000 SHRA=
200808210527 TAF AMD EGLL 210527Z 210413 22007KT 9999 FEW008 SCT025
                      TEMPO 0509 4000 -DZ BKN007
                      PROB30 TEMPO 1113 5000 SHRA=
200808210300 TAF EGLL 210300Z 210413 22007KT 9999 FEW015 SCT025
                      PROB30 TEMPO 0608 BKN012
                      PROB30 TEMPO 1113 5000 SHRA=
200808210005 TAF EGLL 210005Z 210110 21008KT 9999 FEW015 BKN040
                      PROB30 TEMPO 0408 BKN012=
200808202059 TAF EGLL 202059Z 202207 20010KT 9999 SCT013 BKN025
                      TEMPO 2201 BKN010
                      PROB40 TEMPO 0107 7000 -RADZ BKN010=
200808201801 TAF EGLL 201801Z 201904 24012KT 9999 SCT035
                      TEMPO 1922 7000 RA BKN010
                      PROB30 TEMPO 1921 4000 +RA
                      PROB30 TEMPO 2304 7000 BKN010=
200808201551 TAF COR EGLL 201551Z 201601 24013KT 9999 SCT035
                      TEMPO 1618 24015G25KT
                      TEMPO 1822 7000 RA BKN010
                      PROB30 TEMPO 1921 4000 +RA
                      TEMPO 2301 7000 BKN010=
200808201504 TAF EGLL 201504Z 201601 24013KT 9999 SCT035
                      TEMPO 1618 24015G25KT
                      TEMPO 1822 7000 RA BKN010
                      PROB30 1921 4000 +RA
                      TEMPO 2301 7000 BKN010=
200808201154 TAF EGLL 201154Z 201322 24012KT 9999 SCT035
                      TEMPO 1316 24015G25KT 7000 SHRA
                      PROB30 TEMPO 1315 3000 +SHRA
                      TEMPO 1922 4000 +SHRA BKN010=
200808200856 TAF EGLL 200856Z 201019 24012KT 9999 SCT025
                      TEMPO 1116 24015G25KT 7000 SHRA
                      PROB30 TEMPO 1215 3000 +SHRA=
200808200558 TAF EGLL 200558Z 200716 24012KT 9999 SCT025
                      PROB40 0709 BKN014
                      TEMPO 0916 24015G25KT 7000 SHRA
                      PROB30 TEMPO 1216 3000 +SHRA TSRA=
200808200305 TAF EGLL 200305Z 200413 24012KT 9999 SCT025
                      PROB40 TEMPO 0409 BKN012
                      TEMPO 0913 24015G25KT 7000 SHRA
                      PROB30 1213 3000 +SHRA TSRA=
200808192358 TAF EGLL 192358Z 200110 24010KT 9999 SCT020
                      TEMPO 0109 BKN012
                      PROB40 TEMPO 0307 BKN008
                      PROB30 TEMPO 0910 24015G25KT 7000 SHRA=
200808192105 TAF EGLL 192105Z 192207 24010KT 9999 SCT020
                      TEMPO 0107 BKN012
                      PROB40 TEMPO 0307 BKN008=
200808191805 TAF EGLL 191805Z 191904 25012KT 9999 SCT030
                      PROB30 TEMPO 0204 BKN013=
200808191506 TAF EGLL 191506Z 191601 24015G25KT 9999 SCT030
                      BECMG 1618 25013KT
                      TEMPO 1619 6000 SHRA=
200808191203 TAF EGLL 191203Z 191322 23017G27KT 9999 FEW020 BKN030
                      TEMPO 1318 6000 SHRA
                      PROB30 TEMPO 1418 3000 +SHRA
                      BECMG 1618 23012KT=
200808190904 TAF EGLL 190904Z 191019 22017G28KT 9999 BKN028
                      TEMPO 1318 6000 SHRA
                      PROB30 TEMPO 1417 3000 +SHRA
                      BECMG 1618 23012KT=
200808190739 TAF AMD EGLL 190739Z 190716 21015KT 9999 SCT025
                      TEMPO 0816 22018G28KT 6000 SHRA=
200808190605 TAF EGLL 190605Z 190716 22015KT 9999 SCT025
                      TEMPO 0716 23018G32KT -SHRA
                      PROB40 TEMPO 1016 6000 SHRA BKN014CB=
200808190305 TAF EGLL 190305Z 190413 22015KT 9999 SCT025
                      PROB40 TEMPO 0407 22017G28KT BKN014
                      TEMPO 0713 23018G32KT -SHRA
                      PROB40 TEMPO 1013 6000 SHRA BKN014CB=
200808190001 TAF EGLL 190001Z 190110 22014KT 9999 SCT020
                      PROB30 TEMPO 0107 21017G28KT BKN014
                      PROB40 TEMPO 0710 22020G35KT 6000 SHRA BKN014=
200808182104 TAF EGLL 182104Z 182207 20014KT 9999 -SHRA SCT020
                      TEMPO 2207 21016G28KT BKN014
                      PROB40 TEMPO 2224 5000 SHRA=
200808181805 TAF EGLL 181805Z 181904 21012KT 9999 FEW018 BKN030
                      TEMPO 1922 6000 SHRA=
200808181501 TAF EGLL 181501Z 181601 21014KT 9999 FEW014 BKN020
                      TEMPO 1621 6000 SHRA -RADZ BKN014=
200808181203 TAF EGLL 181203Z 181322 21014KT 9999 FEW020 SCT030
                      TEMPO 1317 21017G27KT
                      TEMPO 1322 6000 SHRA BKN014=
200808180902 TAF EGLL 180902Z 181019 20014KT 9999 SCT025
                      TEMPO 1116 21017G27KT
                      PROB40 TEMPO 1119 6000 SHRA BKN014=
200808180631 TAF COR EGLL 180631Z 180716 15008KT 6000 -RA SCT005 BKN010
                      TEMPO 0709 4000 RA BKN005
                      BECMG 0710 21012KT 9999 NSW FEW010 SCT025
                       TEMPO 1116 21018G28KT 7000 SHRA BKN014=
200808180608 TAF EGLL 180608Z 180716 16008KT 6000 -RA SCT005 BKN010
                      TEMPO 0709 4000 RA BKN005
                      BECMG 0710 20012KT 9999 NSW FEW010 SCT025
                       TEMPO 1116 21018G28KT 7000 SHRA BKN014=
200808180304 TAF EGLL 180304Z 180413 12008KT 9999 BKN040
                      TEMPO 0408 7000 RA BKN014
                      PROB40 0408 3500 RADZ BKN008
                      BECMG 0609 20016G28KT SCT025=
200808172354 TAF EGLL 172354Z 180110 16010KT 9999 BKN040
                      BECMG 0104 BKN014
                      TEMPO 0108 7000 RA
                      PROB40 0308 3500 RADZ BKN008
                      BECMG 0609 20016G28KT SCT025=
200808172055 TAF EGLL 172055Z 172207 16010KT 9999 SCT035
                      TEMPO 0007 7000 RA
                      BECMG 0104 BKN014
                      PROB40 0307 3500 RADZ BKN008=
200808171749 TAF EGLL 171749Z 171904 22010KT 9999 SCT035
                      BECMG 2024 16012KT -RA
                      BECMG 0003 BKN014
                      TEMPO 0004 7000 RA
                      PROB40 0304 3500 RADZ BKN008=
200808171501 TAF EGLL 171501Z 171601 22012KT 9999 SCT040
                      BECMG 2024 16012KT 7000 RA=
200808171203 TAF EGLL 171203Z 171322 22012KT 9999 SCT040=
200808170904 TAF EGLL 170904Z 171019 25012KT 9999 SCT030
                      BECMG 1619 19010KT=
200808170605 TAF EGLL 170605Z 170716 25012KT 9999 SCT030=
200808170312 TAF EGLL 170312Z 170413 17010KT 7000 -RADZ BKN012
                      TEMPO 0407 4000 RADZ BKN007
                      BECMG 0709 25012KT 9999 NSW SCT025=
200808170300 TAF EGLL 170300Z NIL=
200808170004 TAF EGLL 170004Z 170110 16010KT 9999 BKN030
                      BECMG 0306 7000 -RADZ BKN014
                      TEMPO 0507 4000 RADZ BKN007
                      BECMG 0709 25012KT 9999 NSW SCT025=
200808162116 TAF EGLL 162116Z 162207 16010KT 9999 BKN030
                      BECMG 0306 7000 -RADZ BKN014
                      TEMPO 0507 4000 RADZ BKN007=
200808162100 TAF EGLL 162100Z NIL=
200808161803 TAF EGLL 161803Z 161904 16012KT 9999 SCT035
                      PROB40 TEMPO 1924 8000 SHRA
                      BECMG 0003 7000 -RADZ BKN014
                      PROB40 0304 4500 RADZ BKN008=
200808161502 TAF EGLL 161502Z 161601 16012KT 9999 SCT035
                      TEMPO 1619 17015G25KT
                      PROB30 TEMPO 1621 9000 SHRA=
200808161204 TAF EGLL 161204Z 161322 17014KT 9999 SCT035
                      PROB30 TEMPO 1621 8000 SHRA=
200808160903 TAF EGLL 160903Z 161019 17012KT 9999 SCT030
                      PROB30 TEMPO 1519 8000 SHRA=
200808160602 TAF EGLL 160602Z 160716 15009KT 9999 SCT040=
200808160257 TAF EGLL 160257Z 160413 15007KT 9999 SCT040=
200808152354 TAF EGLL 152354Z 160110 17006KT 9999 FEW045=
200808152056 TAF EGLL 152056Z 152207 18007KT 9999 FEW045=
200808151801 TAF EGLL 151801Z 151904 20008KT 9999 FEW045=
200808151507 TAF EGLL 151507Z 151601 23008KT 9999 SCT045=
200808151209 TAF EGLL 151209Z 151322 25008KT 9999 SCT040=
200808150911 TAF EGLL 150911Z 151019 25007KT 9999 FEW040=
200808150900 TAF EGLL 150900Z NIL=
200808150559 TAF EGLL 150559Z 150716 27006KT 9999 FEW035=
200808150303 TAF EGLL 150303Z 150413 24005KT CAVOK=
200808150005 TAF EGLL 150005Z 150110 23005KT CAVOK=
200808142105 TAF EGLL 142105Z 142207 21005KT CAVOK
                      PROB40 0407 8000=
200808141813 TAF EGLL 141813Z 141904 25008KT 9999 SCT040
                      PROB30 TEMPO 1921 5000 +SHRA TSRA
                      PROB30 0304 7000=
200808141800 TAF EGLL 141800Z NIL=
200808141509 TAF EGLL 141509Z 141601 23010KT 9999 SCT040
                      PROB30 TEMPO 1621 5000 +SHRA TSRA=
200808141204 TAF EGLL 141204Z 141322 23010KT 9999 SCT040
                      PROB30 TEMPO 1321 5000 +SHRA TSRA=
200808140923 TAF EGLL 140923Z 141019 23011KT 9999 FEW025
                      PROB30 TEMPO 1119 5000 +SHRA TSRA=
200808140900 TAF EGLL 140900Z NIL=
200808140601 TAF EGLL 140601Z 140716 22010KT 9999 FEW025
                      TEMPO 1016 7000 SHRA
                      PROB30 TEMPO 1216 4000 +SHRA=
200808140305 TAF EGLL 140305Z 140413 23008KT CAVOK
                      TEMPO 1013 7000 SHRA
                      PROB30 TEMPO 1213 4000 +SHRA=
200808140001 TAF EGLL 140001Z 140110 23010KT 9999 FEW025=
200808132055 TAF EGLL 132055Z 132207 24014KT 9999 FEW025=
200808131801 TAF EGLL 131801Z 131904 24018G28KT 9999 SCT025
                      BECMG 1921 24014KT
                      PROB30 TEMPO 1920 6000 SHRA=
200808131504 TAF EGLL 131504Z 131601 22020G30KT 9999 FEW020 SCT030
                      TEMPO 1620 5000 SHRA
                      BECMG 1821 24015KT=
200808131207 TAF EGLL 131207Z 131322 22020G30KT 9999 FEW020 BKN030
                      TEMPO 1320 7000 SHRA
                      PROB40 TEMPO 1318 3000 +SHRA
                      BECMG 1820 24015KT=
200808130904 TAF EGLL 130904Z 131019 22015KT 9999 FEW015 BKN025
                      BECMG 1013 22020G30KT
                      TEMPO 1019 7000 SHRA
                      PROB40 TEMPO 1018 3000 +SHRA=
200808130601 TAF EGLL 130601Z 130716 22012KT 9999 SCT030
                      TEMPO 0716 7000 SHRA RA BKN014CB
                      BECMG 0811 23020G30KT
                      TEMPO 1116 24027G40KT
                      PROB30 TEMPO 1116 3000 +SHRA TSRA=
200808130501 TAF COR EGLL 130501Z 130413 20012KT 9999 SCT030
                      PROB30 TEMPO 0407 8000 SHRA
                      TEMPO 0713 7000 SHRA RA BKN014CB
                      BECMG 0811 23020G30KT
                      TEMPO 1113 24027G40KT
                      PROB30 TEMPO 1113 3000 +SHRA TSRA=
200808130302 TAF EGLL 130302Z 130413 20012KT 9999 SCT030
                      BECMG 0811 23020G30KT
                      PROB30 TEMPO 0107 8000 SHRA
                      TEMPO 0713 7000 SHRA RA BKN014CB
                      TEMPO 1113 24027G40KT
                      PROB30 TEMPO 1113 3000 +SHRA TSRA=
200808122355 TAF EGLL 122355Z 130110 21012KT 9999 SCT030
                      PROB30 TEMPO 0108 8000 SHRA
                      BECMG 0710 22017G28KT
                      TEMPO 0810 7000 SHRA RA BKN014CB=
200808122053 TAF EGLL 122053Z 122207 21010KT 9999 SCT030
                      PROB30 TEMPO 2207 8000 SHRA=
200808121803 TAF EGLL 121803Z 121904 22017G27KT 9999 SCT030
                      BECMG 1921 22012KT
                      PROB30 TEMPO 1921 5000 +SHRA TSRA BKN014CB
                       PROB30
                      TEMPO 2104 7000 SHRA=
200808121502 TAF EGLL 121502Z 121601 22020G32KT 9999 SCT030
                      TEMPO 1621 7000 SHRA BKN014CB
                      PROB30 TEMPO 1621 3000 +SHRA TSRA
                      BECMG 1821 22012KT=
200808121157 TAF EGLL 121157Z 121322 22020G32KT 9999 SCT035
                      TEMPO 1321 5000 SHRA BKN014CB
                      PROB30 TEMPO 1321 3000 +SHRA TSRA=
200808120903 TAF EGLL 120903Z 121019 24014KT 9999 SCT020
                      BECMG 1012 22017G32KT
                      TEMPO 1319 5000 SHRA BKN014CB
                      PROB30 TEMPO 1319 3000 +SHRA TSRA=
200808120611 TAF EGLL 120611Z 120716 15012KT 9999 SCT025
                      BECMG 0709 23012KT
                      TEMPO 0709 4000 RA BKN007
                      BECMG 0912 23017G32KT
                      TEMPO 1316 5000 SHRA BKN014CB
                      PROB40 TEMPO 1316 3000 +SHRA TSRA=
200808120600 TAF EGLL 120600Z NIL=
200808120309 TAF EGLL 120309Z 120413 13012KT 9999 -RA SCT030
                      BECMG 0406 6000 RA BKN012
                      TEMPO 0509 3000 +RA BKN007
                      BECMG 0609 23012KT 9999 NSW SCT025
                      BECMG 0912 22017G32KT=
200808112351 TAF EGLL 112351Z 120110 12012KT CAVOK
                      PROB40 TEMPO 0102 8000 RA SCT030
                      BECMG 0205 6000 RA BKN012
                      TEMPO 0409 3000 +RA RADZ BKN007
                      PROB30 TEMPO 0409 TSRA
                      BECMG 0710 23017G30KT 9999 NSW SCT020=
200808112106 TAF EGLL 112106Z 112207 13012KT CAVOK
                      TEMPO 2202 -SHRA SCT030
                      BECMG 0205 6000 RA BKN012
                      TEMPO 0407 3000 +RA RADZ BKN007
                      PROB30 TEMPO 0407 TSRA=
200808111806 TAF EGLL 111806Z 111904 20010KT 9999 SCT030
                      PROB30 TEMPO 1901 8000 -SHRA
                      BECMG 2023 14010KT
                      BECMG 0104 7000 RA BKN012=
200808111500 TAF EGLL 111500Z NIL=
200808111447 TAF EGLL 111447Z 111601 21010KT 9999 SCT030 BKN045
                      PROB30 TEMPO 1901 8000 -SHRA
                      BECMG 2023 15010KT=
200808111205 TAF EGLL 111205Z 111322 22010KT 9999 SCT030 BKN045
                      PROB30 TEMPO 1922 8000 -SHRA BKN014
                      BECMG 2022 15010KT=
200808110859 TAF EGLL 110859Z 111019 23010KT 9999 SCT030 BKN045=
200808110557 TAF EGLL 110557Z 110716 23008KT 9999 SCT035=
200808110257 TAF EGLL 110257Z 110413 23008KT 9999 BKN030
                      PROB30 TEMPO 0407 BKN014=
200808110006 TAF EGLL 110006Z 110110 23008KT 9999 BKN030
                      PROB30 TEMPO 0307 BKN014=
200808102104 TAF EGLL 102104Z 102207 23008KT 9999 SCT030
                      PROB30 TEMPO 0307 BKN014=
200808101756 TAF EGLL 101756Z 101904 23017G28KT 9999 SCT030
                      BECMG 1923 23008KT
                      PROB40 TEMPO 1920 5000 SHRA
                      PROB30 0304 BKN014=
200808101504 TAF EGLL 101504Z 101601 23017KT 9999 SCT030
                      TEMPO 1619 23018G28KT
                      PROB40 TEMPO 1619 6000 SHRA
                      BECMG 1923 23007KT=
200808101158 TAF EGLL 101158Z 101322 23018KT 9999 SCT035
                      TEMPO 1319 23020G30KT
                      PROB40 TEMPO 1319 6000 SHRA
                      BECMG 1922 23008KT=
200808100904 TAF EGLL 100904Z 101019 23015KT 9999 SCT035
                      TEMPO 1019 23020G30KT
                      PROB40 TEMPO 1319 6000 SHRA=
200808100555 TAF EGLL 100555Z 100716 24014KT 9999 SCT025
                      TEMPO 0716 23015G26KT
                      PROB30 TEMPO 1316 7000 SHRA=
200808100302 TAF EGLL 100302Z 100413 22012KT 9999 BKN020
                      TEMPO 0413 22015G25KT
                      PROB30 TEMPO 0405 4000 RADZ BKN007=
200808092357 TAF EGLL 092357Z 100110 22012KT 9999 BKN018
                      TEMPO 0110 22015G25KT
                      PROB40 TEMPO 0104 3500 RADZ BKN007=
200808092105 TAF EGLL 092105Z 092207 22012KT 9999 BKN018
                      TEMPO 2207 22015G25KT
                      PROB40 TEMPO 2204 3500 RADZ BKN007=
200808091755 TAF EGLL 091755Z 091904 21014KT 9999 BKN016
                      TEMPO 1904 3500 RADZ BKN007
                      PROB30 TEMPO 1904 22016G27KT=
200808091505 TAF EGLL 091505Z 091601 21014KT 9999 BKN012
                      TEMPO 1601 3500 RADZ BKN007
                      PROB40 TEMPO 1601 22017G28KT BKN016=
200808091207 TAF EGLL 091207Z 091322 22014KT 8000 -RADZ BKN012
                      TEMPO 1322 22017G28KT 4000 RADZ BKN008
                      PROB30 TEMPO 1322 9999 BKN016=
200808090912 TAF EGLL 090912Z 091019 21014KT 9999 -RA SCT025
                      BECMG 1114 9000 RA BKN012
                      TEMPO 1319 21017G28KT 4000 -RADZ BKN008=
200808090900 TAF EGLL 090900Z NIL=
200808090609 TAF EGLL 090609Z 090716 22008KT 9999 SCT040
                      BECMG 1013 21015G25KT 8000 -RA
                      TEMPO 1316 RA BKN012=
200808090310 TAF EGLL 090310Z 090413 20004KT 9999 SCT040
                      PROB40 TEMPO 0407 BKN012
                      BECMG 0811 20014KT
                      BECMG 1013 8000 -RA=
200808090300 TAF EGLL 090300Z NIL=
200808090156 TAF AMD EGLL 090156Z 090210 19004KT 9999 SCT035
                      TEMPO 0208 BKN009=
200808090002 TAF EGLL 090002Z 090110 19004KT 9999 SCT035=
200808082059 TAF EGLL 082059Z 082207 17004KT CAVOK=
200808081802 TAF EGLL 081802Z 081904 VRB05KT 9999 FEW035=
200808081502 TAF EGLL 081502Z 081601 31006KT 9999 BKN030=
200808081210 TAF EGLL 081210Z 081322 35010KT 9999 BKN025
                      BECMG 1821 VRB05KT=
200808081200 TAF EGLL 081200Z NIL=
200808080900 TAF EGLL 080900Z 081019 33008KT 9999 BKN020
                      PROB30 TEMPO 1011 8000 -RADZ BKN012=
200808080602 TAF EGLL 080602Z 080716 31008KT 9999 BKN012
                      TEMPO 0710 8000 -RADZ BKN007
                      BECMG 0911 BKN020=
200808080303 TAF EGLL 080303Z 080413 30007KT 9999 SCT030
                      TEMPO 0410 8000 -RA BKN014
                      PROB30 TEMPO 0409 4000 -RADZ BKN007=
200808072359 TAF EGLL 072359Z 080110 27008KT 9999 FEW030
                      BECMG 0306 33010KT 9000 -RA BKN014
                      TEMPO 0409 4000 -RADZ BKN007
                      BECMG 0811 9999 NSW BKN025=
200808072108 TAF EGLL 072108Z 072207 26010KT 9999 SCT030
                      BECMG 0306 33010KT 9000 -RA BKN014
                      TEMPO 0407 4000 RADZ BKN007=
200808071759 TAF EGLL 071759Z 071904 25010KT 9999 SCT030
                      PROB30 TEMPO 1921 5000 +SHRA TSRA
                      PROB30 0304 9000 -RA=
200808071506 TAF EGLL 071506Z 071601 24009KT 9999 SCT020
                      PROB30 TEMPO 1621 5000 +SHRA TSRA=
200808071158 TAF EGLL 071158Z 071322 23008KT 9999 SCT020
                      PROB40 TEMPO 1321 5000 +SHRA TSRA=
200808070907 TAF EGLL 070907Z 071019 23008KT 9999 SCT020
                      PROB40 TEMPO 1019 5000 +SHRA
                      PROB30 1012 BKN012=
200808070605 TAF EGLL 070605Z 070716 23005KT 9999 SCT020
                      PROB40 TEMPO 0710 7000 -RA BKN010
                      PROB40 TEMPO 1016 7000 SHRA=
200808070305 TAF EGLL 070305Z 070413 VRB05KT 7000 FEW040
                      PROB40 TEMPO 0410 4000 -RA BR BKN008
                      BECMG 0710 9999
                      PROB30 TEMPO 1013 7000 SHRA=
200808070003 TAF EGLL 070003Z 070110 VRB05KT 8000 FEW040
                      TEMPO 0207 4000 BR
                      PROB40 TEMPO 0407 BKN008
                      BECMG 0709 9999=
200808062105 TAF EGLL 062105Z 062207 VRB05KT 9999 SCT040
                      PROB40 TEMPO 2201 TS
                      TEMPO 0407 6000 BKN008=
200808061915 TAF AMD EGLL 061915Z 061904 20008KT CAVOK
                      PROB30 TEMPO 2023 5000 TSRA BKN040CB=
200808061801 TAF EGLL 061801Z 061904 20008KT CAVOK=
200808061505 TAF EGLL 061505Z 061601 20008KT 9999 FEW035=
200808061155 TAF EGLL 061155Z 061322 20008KT 9999 FEW025 BKN040=
200808060902 TAF EGLL 060902Z 061019 19010KT 9999 SCT025=
200808060601 TAF EGLL 060601Z 060716 21010KT 9999 BKN010
                      TEMPO 0708 7000 -DZ BKN007
                      BECMG 0811 SCT025
                      PROB30 TEMPO 1516 5000 SHRA TSRA=
200808060307 TAF EGLL 060307Z 060413 21010KT 9999 BKN012
                      TEMPO 0408 6000 -DZ BKN006
                      BECMG 0811 SCT025=
200808052346 TAF EGLL 052346Z 060110 21010KT 9999 BKN012
                      TEMPO 0108 7000 -DZ BKN008
                      PROB40 TEMPO 0307 4000 BR BKN004
                      BECMG 0810 SCT020=
200808052103 TAF EGLL 052103Z 052207 20007KT 9999 BKN020
                      TEMPO 2307 7000 -DZ BKN008
                      PROB30 TEMPO 0307 4000 BR BKN004=
200808051809 TAF EGLL 051809Z 051904 21010KT 9999 SCT010 BKN018
                      TEMPO 1904 8000 -DZ BKN012
                      PROB40 TEMPO 2204 4000 BR BKN007=
200808051514 TAF EGLL 051514Z 051601 20010KT 9999 SCT010 BKN015
                      TEMPO 1601 8000 -DZ BKN012
                      PROB30 TEMPO 1601 4000 RA -RADZ BKN008=
200808051500 TAF EGLL 051500Z NIL=
200808051206 TAF EGLL 051206Z 051322 20010KT 8000 -RA BKN009
                      BECMG 1315 9999 NSW BKN020
                      BECMG 1821 BKN014=
200808050910 TAF EGLL 050910Z 051019 16010KT 8000 -RA BKN010
                      TEMPO 1013 4000 RA BKN006
                      BECMG 1315 22010KT 9999 NSW BKN020=
200808050900 TAF EGLL 050900Z NIL=
200808050611 TAF EGLL 050611Z 050716 19012KT 9999 BKN030
                      BECMG 0709 8000 -RA BKN014
                      TEMPO 0816 3000 +RA BKN007
                      PROB30 TEMPO 1216 BKN020=
200808050600 TAF EGLL 050600Z NIL=
200808050303 TAF EGLL 050303Z 050413 24006KT CAVOK
                      BECMG 0508 18012KT -RA BKN025
                      TEMPO 0813 8000 BKN012
                      PROB40 TEMPO 0813 3500 RADZ BKN007=
200808042352 TAF EGLL 042352Z 050110 25010KT CAVOK
                      BECMG 0205 19012KT
                      BECMG 0508 9000 -RA BKN014
                      TEMPO 0810 3500 -RADZ BKN007
                      PROB40 TEMPO 0810 +RA=
200808042101 TAF EGLL 042101Z 042207 24010KT 9999 SCT035
                      BECMG 0205 18008KT
                      BECMG 0507 6000 -RADZ
                      PROB40 0607 BKN014=
200808041801 TAF EGLL 041801Z 041904 25012KT 9999 FEW035
                      PROB30 TEMPO 0304 8000 -RA BKN014=
200808041500 TAF EGLL 041500Z 041601 25013KT 9999 SCT035=
200808041159 TAF EGLL 041159Z 041322 25013KT 9999 SCT030
                      PROB30 TEMPO 1317 9000 -SHRA=
200808040900 TAF EGLL 040900Z 041019 26012KT 9999 SCT025
                      PROB30 TEMPO 1017 9000 -SHRA=
200808040556 TAF EGLL 040556Z 040716 25009KT 9999 SCT025
                      PROB30 TEMPO 1016 9000 SHRA=
200808040534 TAF AMD EGLL 040534Z 040513 25009KT 9999 SCT025
                      PROB30 0507 8000 BKN009
                      PROB30 TEMPO 1013 9000 SHRA=
200808040503 TAF AMD EGLL 040503Z 040413 25006KT 9999 SCT025
                      PROB30 0407 8000 BKN011
                      PROB30 TEMPO 1016 9000 SHRA=
200808040251 TAF EGLL 040251Z 040413 25006KT 9999 SCT025
                      PROB30 0407 8000 BKN011=
200808032359 TAF EGLL 032359Z 040110 25006KT 9999 SCT025
                      PROB30 0207 8000 BKN012=
200808032031 TAF EGLL 032031Z 032207 25008KT 9999 SCT025
                      PROB30 0207 8000 BKN012=
200808031753 TAF EGLL 031753Z 031904 26010KT 9999 SCT025
                      TEMPO 1922 5000 RA SHRA BKN014
                      PROB30 1920 2500 +RA BKN008
                      PROB30 0104 8000 BKN012=
200808031505 TAF EGLL 031505Z 031601 26012KT 9999 SCT025
                      TEMPO 1620 5000 RA BKN012
                      PROB40 TEMPO 1619 2000 +RA BKN008=
200808031223 TAF EGLL 031223Z 031322 25012KT 9999 SCT025
                      TEMPO 1320 5000 SHRA RA BKN014
                      PROB40 TEMPO 1519 2000 +RA BKN008=
200808031200 TAF EGLL 031200Z NIL=
200808030921 TAF EGLL 030921Z 031019 22012KT 9999 BKN025
                      TEMPO 1019 4000 SHRA BKN012
                      PROB30 TEMPO 1619 RA BKN008
                      BECMG 1619 28007KT=
200808030900 TAF EGLL 030900Z NIL=
200808030656 TAF AMD EGLL 030656Z 030716 21010KT 9999 SCT020
                      TEMPO 0709 5000 -DZ BKN006
                      PROB30 TEMPO 0708 3000 -DZ BR BKN004
                      TEMPO 1016 23015G25KT 7000 SHRA=
200808030558 TAF EGLL 030558Z 030716 21010KT 5000 HZ BKN006
                      TEMPO 0708 3000 -DZ BR BKN004
                      BECMG 0810 9999 NSW BKN020
                      TEMPO 1016 23015G25KT 7000 SHRA=
200808030305 TAF EGLL 030305Z 030413 22008KT 9999 SCT010
                      BECMG 0405 8000 BKN008
                      PROB40 TEMPO 0508 3000 -RADZ BR BKN004
                      BECMG 0810 9999 BKN020
                      PROB40 TEMPO 1013 7000 SHRA=
200808030000 TAF EGLL 030000Z 030110 22008KT 9999 FEW015
                      BECMG 0205 7000 -RADZ BKN008
                      PROB40 TEMPO 0408 3000 RADZ BR BKN004
                      BECMG 0810 9999 NSW BKN015=
200808022056 TAF EGLL 022056Z 022207 22008KT 9999 FEW025
                      BECMG 0205 7000 -RADZ BKN008
                      PROB40 TEMPO 0407 3000 RADZ BR BKN004=
200808021804 TAF EGLL 021804Z 021904 26012KT 9999 SCT040
                      BECMG 2124 20007KT
                      BECMG 2302 -RA BKN014
                      TEMPO 0204 3000 RADZ BKN007=
200808021508 TAF EGLL 021508Z 021601 26010KT 9999 SCT030
                      BECMG 2124 20007KT=
200808021214 TAF EGLL 021214Z 021322 20012KT 9999 BKN014
                      BECMG 1316 27010KT NSW SCT025
                      TEMPO 1315 4000 RADZ BKN009=
200808021200 TAF EGLL 021200Z NIL=
200808020918 TAF EGLL 020918Z 021019 19012KT 9999 -RA BKN018
                      TEMPO 1013 4000 RADZ BKN008
                      BECMG 1315 27010KT NSW=
200808020900 TAF EGLL 020900Z NIL=
200808020701 TAF COR EGLL 020701Z 020716 19007KT 9999 -RADZ BKN018
                      BECMG 0710 7000 BKN012
                      TEMPO 0812 4000 RADZ BKN008
                      BECMG 1215 27010KT 9999 NSW SCT030
                      PROB30 TEMPO 1316 7000 SHRA=
200808020621 TAF EGLL 020621Z 020716 19007KT 9999 -RADZ BKN018
                      BECMG 0710 7000 BKN012
                      TEMPO 0812 4000 RADZ BKN008
                      BECMG 1215 9999 NSW SCT030
                      PROB30 TEMPO 1316 7000 SHRA=
200808020600 TAF EGLL 020600Z NIL=
200808020339 TAF EGLL 020339Z 020413 20008KT 8000 -RADZ BKN014
                      TEMPO 0407 9999 NSW BKN020
                      TEMPO 0711 4000 RADZ BKN008
                      BECMG 1113 9999 NSW BKN020=
200808020300 TAF EGLL 020300Z NIL=
200808020008 TAF EGLL 020008Z 020110 20009KT 9999 SCT030
                      BECMG 0103 8000 -RADZ BKN012
                      PROB30 TEMPO 0309 4000 DZ BKN007=
200808012101 TAF EGLL 012101Z 012207 21010KT 9999 SCT030
                      BECMG 0003 7000 -RADZ BKN011
                      PROB30 TEMPO 0307 4500 DZ BKN008=
200808011743 TAF EGLL 011743Z 011904 22011KT 9999 BKN040
                      TEMPO 0004 7000 -RA BKN012=
200808011452 TAF EGLL 011452Z 011601 23018G28KT 9999 SCT040
                      PROB30 TEMPO 1619 8000 SHRA
                      BECMG 1821 22013KT=
200808011151 TAF EGLL 011151Z 011322 23015G25KT 9999 SCT040
                      BECMG 1821 22013KT=
200808010849 TAF EGLL 010849Z 011019 23015G25KT 9999 SCT040
                      TEMPO 1719 22013KT=
200808010600 TAF EGLL 010600Z 010716 22013KT 9999 SCT040
                      BECMG 0710 23015G25KT=
200808010300 TAF EGLL 010300Z 010413 22013KT 9999 SCT040
                      BECMG 0609 23015G25KT=
200808010002 TAF EGLL 010002Z 010110 22010KT 9999 SCT040
                      TEMPO 0103 8000 -RA BKN012
                      PROB30 TEMPO 0102 4000 RA
                      TEMPO 0102 14005KT=

###################################
#  large TAF from EGLL
###################################
200808312115 TAF EGLL 312115Z 010606 23010KT 9999 SCT030
                      BECMG 0911 22018G30KT
                      BECMG 1820 20012KT
                      PROB30 TEMPO 2102 8000 -RA
                      TEMPO 0006 20015G25KT
                      BECMG 0204 6000 RA BKN012
                      PROB40 TEMPO 0306 3000 +RA BKN008=
200808311547 TAF EGLL 311547Z 010024 26010KT 9999 SCT035
                      TEMPO 0003 6000 BKN010
                      BECMG 0710 22015G25KT
                      PROB30 TEMPO 1418 20022G35KT 7000 SHRA
                      BECMG 1821 7000 RA
                      TEMPO 1824 19022G35KT
                      PROB40 TEMPO 2124 3000 +RA BKN012=
200808311002 TAF EGLL 311002Z 311818 26010KT 9999 SCT035
                      TEMPO 1801 6000 SHRA RA BKN010
                      PROB30 TEMPO 1821 3000 +SHRA TSRA
                      BECMG 0710 22015G25KT
                      PROB30 TEMPO 1418 20022G35KT 7000 SHRA=
200808310411 TAF EGLL 310411Z 311212 VRB05KT 9999 SCT035
                      TEMPO 1201 6000 SHRA RA
                      BECMG 1418 26010KT
                      PROB30 TEMPO 1421 3000 +SHRA TSRA
                      TEMPO 1801 BKN010
                      BECMG 0710 22017G27KT=
200808302209 TAF EGLL 302209Z 310606 VRB06KT 2500 BR SCT035
                      PROB30 0608 1400
                      BECMG 0812 5000 HZ
                      TEMPO 0912 SHRA RA
                      TEMPO 1221 3000 +SHRA TSRA
                      PROB40 TEMPO 1218 9999
                      BECMG 1518 26010KT
                      BECMG 1822 9999 NSW
                      TEMPO 1821 BKN010=
200808301558 TAF EGLL 301558Z 310024 VRB04KT 7000 NSC
                      BECMG 0104 4000 BR
                      PROB40 0508 1200 MIFG
                      BECMG 0912 9999 NSW
                      TEMPO 1021 7000 SHRA
                      PROB40 TEMPO 1220 3000 +SHRA TSRA
                      BECMG 1518 27010KT
                      PROB30 TEMPO 2124 BKN012=
200808300924 TAF EGLL 300924Z 301818 16005KT CAVOK
                      BECMG 2023 7000
                      BECMG 0104 4000 BR
                      PROB40 0508 0500 BCFG
                      BECMG 1013 9999 NSW
                      TEMPO 1118 7000 SHRA
                      BECMG 1215 27010KT
                      PROB40 TEMPO 1218 3000 +SHRA TSRA=
200808300431 TAF EGLL 300431Z 301212 12010KT CAVOK
                      BECMG 2124 VRB06KT 5000 HZ
                      BECMG 0003 3000 BR
                      PROB30 0307 1400 MIFG
                      BECMG 0710 9999 NSW
                      PROB40 TEMPO 1012 7000 SHRA=
200808292218 TAF EGLL 292218Z 300606 13010KT 9999 BKN030
                      PROB30 TEMPO 0608 8000
                      BECMG 0811 CAVOK
                      BECMG 2124 8000
                      BECMG 0003 3000 BR
                      TEMPO 0006 VRB05KT=
200808291628 TAF EGLL 291628Z 300024 15005KT 8000 BKN030
                      PROB30 TEMPO 0007 BKN014
                      BECMG 0709 9999
                      BECMG 1114 CAVOK
                      BECMG 2124 8000=
200808291002 TAF EGLL 291002Z 291818 15005KT 9999 BKN035
                      BECMG 2201 8000
                      BECMG 0709 9999
                      BECMG 1114 CAVOK=
200808290356 TAF EGLL 290356Z 291212 15005KT 9999 BKN035
                      BECMG 2124 7000
                      PROB30 0207 4000 BR
                      BECMG 0609 9999=
200808282152 TAF EGLL 282152Z 290606 VRB05KT 9999 BKN030
                      PROB30 0609 8000 BKN014
                      BECMG 2124 7000
                      PROB30 0306 4000 BR=
200808281640 TAF EGLL 281640Z 290024 VRB05KT 9999 BKN030
                      PROB30 0109 7000 BKN014
                      BECMG 2124 7000=
200808280955 TAF EGLL 280955Z 281818 27010KT 9999 BKN030
                      BECMG 0003 VRB05KT
                      PROB30 0108 7000 BKN014=
200808280345 TAF EGLL 280345Z 281212 27010KT 9999 BKN030
                      BECMG 0003 VRB05KT
                      PROB30 0108 7000 BKN014=
200808272204 TAF EGLL 272204Z 280606 27007KT 9999 BKN025
                      PROB40 TEMPO 0608 BKN014
                      PROB30 0106 7000 BKN014=
200808271614 TAF EGLL 271614Z 280024 27007KT 9999 BKN022=
200808270952 TAF EGLL 270952Z 271818 27008KT 9999 BKN022=
200808270347 TAF EGLL 270347Z 271212 26009KT 9999 BKN022=
200808262136 TAF EGLL 262136Z 270606 25010KT 9999 BKN020
                      PROB40 0608 BKN014=
200808261623 TAF EGLL 261623Z 270024 25012KT 9999 BKN020
                      TEMPO 0008 BKN014
                      PROB30 TEMPO 0007 6000 BKN009
                      PROB40 1024 CAVOK=
200808261019 TAF EGLL 261019Z 261818 25012KT 9999 BKN020
                      PROB40 1822 CAVOK
                      TEMPO 2208 BKN014
                      PROB30 TEMPO 0007 6000 BKN009
                      PROB40 1018 CAVOK=
200808260429 TAF EGLL 260429Z 261212 23012KT 9999 BKN025
                      PROB40 TEMPO 1218 23015G25KT CAVOK
                      TEMPO 2309 7000 -DZ BKN008
                      TEMPO 0912 24015G25KT BKN014=
200808252212 TAF EGLL 252212Z 260606 22012KT 9999 BKN025
                      TEMPO 0609 BKN014
                      PROB30 TEMPO 0608 7000 -DZ
                      PROB40 TEMPO 1418 CAVOK
                      TEMPO 2106 7000 -DZ BKN010
                      PROB40 TEMPO 0306 BKN007=
200808251552 TAF EGLL 251552Z 260024 23009KT 9999 FEW012 SCT020
                      BECMG 0003 BKN012
                      PROB30 TEMPO 0208 7000 -DZ
                      TEMPO 0307 BKN009
                      BECMG 0710 BKN018=
200808250948 TAF COR EGLL 250948Z 251818 23009KT 9999 FEW015 SCT025
                      BECMG 0103 BKN012
                      PROB40 TEMPO 0307 BKN009
                      BECMG 0710 BKN018=
200808250427 TAF EGLL 250427Z 251212 22011KT 9999 SCT020
                      PROB30 TEMPO 2309 BKN014=
200808242227 TAF EGLL 242227Z 250606 22010KT 9999 BKN014
                      PROB30 TEMPO 0610 8000 -DZ BKN008
                      BECMG 1013 BKN020
                      PROB40 1322 CAVOK
                      PROB30 TEMPO 2306 BKN014=
200808241617 TAF EGLL 241617Z 250024 22010KT 9999 SCT035
                      BECMG 0306 BKN008
                      BECMG 0710 BKN014
                      PROB30 TEMPO 0710 8000 -DZ
                      BECMG 1013 BKN020
                      TEMPO 1018 23015G25KT
                      PROB40 1322 CAVOK
                      PROB30 TEMPO 2224 BKN014=
200808240956 TAF EGLL 240956Z 241818 24010KT 9999 SCT035
                      BECMG 0509 BKN014
                      PROB40 TEMPO 0609 8000 -DZ
                      BECMG 0912 BKN025
                      TEMPO 1018 23015G25KT
                      PROB30 1518 CAVOK=
200808240401 TAF EGLL 240401Z 241212 20011KT 9999 SCT035
                      PROB30 TEMPO 1213 8000 RA BKN014
                      BECMG 1316 26010KT
                      PROB30 TEMPO 0508 8000 -RA BKN012=
200808232220 TAF EGLL 232220Z 240606 19011KT 6000 RA BKN012
                      TEMPO 0711 3000 RADZ BKN007
                      BECMG 1013 9999 NSW SCT035
                      BECMG 1316 26010KT
                      PROB30 TEMPO 0306 8000 -RA BKN014=
200808232200 TAF EGLL 232200Z NIL=
200808231605 TAF EGLL 231605Z 240024 20012KT 9999 SCT040
                      PROB30 TEMPO 0104 BKN014
                      BECMG 0407 6000 RA BKN012
                      TEMPO 0713 3000 RADZ BKN007
                      BECMG 1013 9999 NSW
                      BECMG 1316 26010KT SCT035
                      TEMPO 1316 8000 -SHRA=
200808231018 TAF EGLL 231018Z 231818 20012KT 9999 SCT045
                      PROB30 TEMPO 0103 8000 RA
                      BECMG 0306 7000 RA BKN014
                      TEMPO 0613 3000 +RA BKN007
                      PROB30 TEMPO 0613 19015G25KT
                      BECMG 1215 26010KT 9999 NSW SCT035=
200808230348 TAF EGLL 230348Z 231212 28006KT 9999 SCT035
                      BECMG 1619 22010KT
                      BECMG 0104 7000 RA BKN014
                      TEMPO 0209 4000 +RA BKN008
                      PROB30 1112 9999 NSW SCT030=
200808222203 TAF EGLL 222203Z 230606 29006KT 9999 SCT035
                      PROB30 TEMPO 0607 8000
                      BECMG 1619 22010KT
                      BECMG 0104 7000 RA BKN014
                      TEMPO 0206 4000 +RA BKN008=
200808221606 TAF EGLL 221606Z 230024 29006KT 9999 SCT030
                      PROB30 0407 8000
                      PROB30 TEMPO 2224 8000 RA=
200808220958 TAF EGLL 220958Z 221818 30008KT 9999 SCT030
                      PROB30 TEMPO 1819 8000 SHRA
                      PROB30 0407 8000=
200808220427 TAF EGLL 220427Z 221212 30008KT 9999 SCT030
                      PROB30 TEMPO 1319 5000 SHRA
                      PROB30 0407 8000=
200808212222 TAF EGLL 212222Z 220606 34008KT 9999 SCT030
                      TEMPO 0609 7000 SHRA
                      PROB30 TEMPO 1319 5000 SHRA
                      PROB30 0306 8000 BKN012=
200808211545 TAF COR EGLL 211545Z 220024 24010KT 9999 SCT030
                      BECMG 0104 32006KT
                      PROB30 TEMPO 0208 7000 SHRA
                      PROB30 TEMPO 1317 7000 SHRA=
200808210948 TAF EGLL 210948Z 211818 24010KT 9999 SCT030
                      PROB30 TEMPO 1822 7000 SHRA
                      BECMG 0104 32006KT
                      PROB30 TEMPO 0207 8000 -RA
                      PROB30 TEMPO 1318 7000 SHRA=
200808210345 TAF EGLL 210345Z 211212 24010KT 9999 SCT030
                      PROB40 TEMPO 1119 5000 SHRA
                      BECMG 0205 32006KT
                      PROB30 TEMPO 0207 8000 -RA=
200808202118 TAF EGLL 202118Z 210606 24008KT 9999 SCT025
                      PROB30 TEMPO 0608 BKN012
                      PROB40 TEMPO 1120 5000 SHRA=
200808201604 TAF EGLL 201604Z 210024 22007KT 9999 SCT030
                      PROB30 TEMPO 0007 7000 BKN010
                      TEMPO 1019 6000 SHRA
                      PROB30 TEMPO 1318 4000 +SHRA
                      BECMG 1417 28010KT=
200808200956 TAF EGLL 200956Z 201818 23010KT 9999 SCT035
                      TEMPO 1924 4000 +SHRA BKN010
                      PROB40 0007 7000 BKN010
                      TEMPO 1018 6000 SHRA
                      PROB30 TEMPO 1217 4000 +SHRA=
200808200406 TAF EGLL 200406Z 201212 23012KT 9999 SCT035
                      TEMPO 1219 23015G25KT 6000 SHRA
                      PROB30 TEMPO 1219 4000 TSRA
                      TEMPO 1904 3000 +SHRA +RA BKN007
                      TEMPO 0407 7000 BKN010
                      PROB30 TEMPO 1012 6000 SHRA=
200808192225 TAF EGLL 192225Z 200606 25010KT 9999 SCT025
                      TEMPO 0609 BKN014
                      PROB40 0607 BKN008
                      PROB30 TEMPO 0920 25015G25KT 7000 SHRA
                      TEMPO 2003 4000 SHRA RA BKN007 BKN014CB
                      PROB40 TEMPO 2003 19008KT
                      TEMPO 0306 7000 BKN010=
200808191601 TAF EGLL 191601Z 200024 24010KT 9999 SCT030
                      TEMPO 0208 BKN013
                      PROB40 TEMPO 1016 24015G25KT 6000 SHRA
                      TEMPO 1924 4000 RA SHRA BKN009
                      PROB30 TEMPO 2022 +RA BKN013CB=
200808191005 TAF EGLL 191005Z 191818 23010KT 9999 SCT030
                      TEMPO 0308 BKN012
                      PROB40 TEMPO 1118 24015G25KT 6000 SHRA=
200808190438 TAF EGLL 190438Z 191212 24014KT 9999 SCT030
                      TEMPO 1218 6000 SHRA BKN014CB
                      TEMPO 1215 24018G30KT
                      PROB40 TEMPO 0208 7000 BKN010
                      PROB40 TEMPO 1012 24015G25KT 4000 +SHRA TSRA
                       BKN012CB=
200808182207 TAF EGLL 182207Z 190606 23014KT 9999 SCT025
                      PROB40 TEMPO 0618 6000 SHRA BKN014
                      TEMPO 0614 22020G35KT
                      PROB40 TEMPO 0206 7000 BKN010=
200808181621 TAF EGLL 181621Z 190024 22014KT 9999 FEW015 BKN028
                      TEMPO 0817 21017G28KT 6000 SHRA BKN014=
200808181011 TAF EGLL 181011Z 181818 21014KT 9999 BKN025
                      TEMPO 1821 6000 SHRA BKN014
                      TEMPO 0317 21017G27KT 6000 SHRA BKN014
                      PROB30 TEMPO 1217 3000 +SHRA=
200808180435 TAF EGLL 180435Z 181212 21015KT 9999 SCT025
                      TEMPO 1220 22018G28KT 7000 SHRA BKN014
                      TEMPO 0312 22018G28KT 7000 SHRA BKN014=
200808172224 TAF EGLL 172224Z 180606 17012KT 9999 BKN014
                      TEMPO 0608 7000 RA
                      PROB30 TEMPO 0608 3500 RADZ BKN008
                      BECMG 0609 20016G28KT SCT025
                      TEMPO 1621 7000 RA BKN014
                      BECMG 1821 21012KT=
200808171613 TAF EGLL 171613Z 180024 17012KT 9999 SCT030
                      BECMG 0003 BKN014
                      TEMPO 0008 7000 RA
                      TEMPO 0208 3500 RADZ BKN008
                      BECMG 0710 20017G28KT SCT025
                      TEMPO 1824 20014KT 7000 RA BKN014=
200808171017 TAF EGLL 171017Z 171818 22012KT 9999 SCT040
                      BECMG 2124 6000 RA
                      TEMPO 2107 16014KT
                      BECMG 0003 BKN012
                      TEMPO 0208 3500 RADZ BKN007
                      BECMG 0710 20017G28KT 9999 NSW SCT030
                      TEMPO 1518 5000 RA BKN014=
200808170439 TAF EGLL 170439Z 171212 25012KT 9999 SCT040
                      BECMG 2201 16010KT
                      PROB30 TEMPO 2201 8000 RA
                      BECMG 0103 7000 -RADZ BKN012
                      TEMPO 0308 3000 RADZ BKN005
                      BECMG 0810 22015G25KT 9999 NSW SCT030=
200808162255 TAF EGLL 162255Z 170606 18010KT 4000 RADZ BKN007
                      BECMG 0709 25012KT 9999 NSW SCT025
                      BECMG 2023 17010KT
                      BECMG 0104 7000 -RADZ BKN012
                      TEMPO 0306 3500 RADZ BKN006=
200808162200 TAF EGLL 162200Z NIL=
200808161623 TAF EGLL 161623Z 170024 15010KT 9999 BKN035
                      BECMG 0003 7000 -RADZ BKN014
                      TEMPO 0307 3500 RADZ BKN006
                      BECMG 0508 24012KT 9999 NSW SCT025
                      BECMG 1922 17010KT
                      TEMPO 1824 6000 RA=
200808161022 TAF EGLL 161022Z 161818 15012KT 9999 SCT030
                      PROB30 TEMPO 1821 8000 SHRA
                      BECMG 0104 7000 -RADZ BKN014
                      TEMPO 0407 3500 RADZ BKN007
                      PROB30 TEMPO 0507 BKN004
                      BECMG 0609 24010KT 9999 NSW SCT020
                      BECMG 1518 18007KT
                      PROB40 TEMPO 1518 6000 -RADZ=
200808160412 TAF EGLL 160412Z 161212 17010KT 9999 SCT040
                      TEMPO 2204 7000 RA BKN014
                      PROB40 TEMPO 0104 17015G25KT 4000 RADZ BKN008
                       BECMG 0306 26008KT=
200808152226 TAF EGLL 152226Z 160606 17010KT 9999 SCT040
                      BECMG 2201 7000 -RADZ
                      TEMPO 0006 RA BKN014
                      PROB40 TEMPO 0106 17015G25KT 4000 RADZ BKN008
                       BECMG 0508 26008KT 9999 NSW=
200808151646 TAF EGLL 151646Z 160024 17010KT 9999 SCT040
                      BECMG 1518 17015G25KT
                      BECMG 1821 7000 -RADZ
                      BECMG 2124 RADZ BKN014
                      TEMPO 2224 4000 DZ BKN008=
200808151048 TAF EGLL 151048Z 151818 18007KT 9999 SCT040
                      BECMG 1013 16013G25KT=
200808150418 TAF EGLL 150418Z 151212 24007KT 9999 FEW040
                      BECMG 0508 16010KT
                      PROB40 TEMPO 1112 17015G25KT=
200808142147 TAF EGLL 142147Z 150606 24007KT 9999 FEW040
                      PROB30 0607 8000
                      BECMG 0306 14010KT=
200808141637 TAF EGLL 141637Z 150024 24007KT 9999 SCT040
                      PROB30 0307 7000=
200808141035 TAF EGLL 141035Z 141818 24006KT 9999 SCT040
                      PROB30 TEMPO 1821 5000 +SHRA TSRA
                      PROB30 0307 7000=
200808140345 TAF EGLL 140345Z 141212 23008KT 9999 SCT035
                      TEMPO 1220 7000 SHRA
                      PROB30 TEMPO 1219 4000 +SHRA
                      PROB30 0307 8000=
200808132214 TAF EGLL 132214Z 140606 23008KT 9999 FEW030
                      TEMPO 1120 7000 SHRA
                      PROB30 TEMPO 1219 4000 +SHRA
                      PROB30 0306 8000=
200808131606 TAF EGLL 131606Z 140024 23010KT 9999 SCT030
                      TEMPO 1220 6000 SHRA=
200808130931 TAF EGLL 130931Z 131818 23018G28KT 9999 SCT030
                      PROB30 TEMPO 1820 7000 SHRA
                      BECMG 1820 23014KT
                      PROB40 TEMPO 1118 7000 SHRA=
200808130421 TAF EGLL 130421Z 131212 24020G30KT 9999 SCT030
                      TEMPO 1219 5000 SHRA RA BKN014CB
                      PROB30 TEMPO 1219 3000 +SHRA TSRA
                      TEMPO 1216 24027G40KT
                      BECMG 1923 23012KT
                      PROB40 TEMPO 1012 7000 SHRA=
200808122215 TAF EGLL 122215Z 130606 21012KT 9999 SCT025
                      BECMG 0811 23020G30KT
                      TEMPO 0819 7000 SHRA RA BKN014CB
                      TEMPO 1116 24027G40KT
                      PROB30 TEMPO 1119 3000 +SHRA TSRA
                      BECMG 1923 23010KT=
200808121556 TAF EGLL 121556Z 130024 22012KT 9999 FEW030
                      PROB30 TEMPO 0008 7000 SHRA
                      BECMG 0710 22020G32KT
                      TEMPO 0820 7000 SHRA RA
                      PROB30 TEMPO 0815 4000 +SHRA TSRA BKN014CB
                       BECMG 1821 23012KT=
200808121029 TAF EGLL 121029Z 121818 22018G28KT 9999 SCT035
                      BECMG 1821 22012KT
                      TEMPO 1821 5000 SHRA BKN014CB
                      PROB30 TEMPO 1821 3000 +SHRA TSRA
                      PROB30 TEMPO 2109 7000 SHRA
                      TEMPO 0918 24018G30KT 7000 SHRA RA
                      PROB30 TEMPO 0912 4000 +SHRA TSRA BKN014CB=
200808120415 TAF EGLL 120415Z 121212 22017G32KT 9999 SCT025
                      TEMPO 1321 5000 SHRA BKN014CB
                      PROB40 TEMPO 1321 3000 +SHRA TSRA
                      BECMG 1821 22012KT
                      PROB30 TEMPO 2108 7000 SHRA
                      TEMPO 0812 24015G28KT 5000 SHRA RA
                      PROB30 TEMPO 1012 3000 +SHRA TSRA BKN012CB=
200808112215 TAF EGLL 112215Z 120606 13012KT 6000 RA BKN012
                      TEMPO 0609 3000 +RA RADZ BKN007
                      PROB30 0609 TSRA
                      BECMG 0710 23017G32KT 9999 NSW SCT020
                      TEMPO 1321 5000 SHRA BKN014CB
                      PROB40 TEMPO 1321 3000 +SHRA TSRA
                      BECMG 1821 21012KT
                      PROB30 TEMPO 2106 7000 SHRA=
200808111613 TAF EGLL 111613Z 120024 14010KT 9999 BKN045
                      BECMG 0104 7000 RA BKN012
                      TEMPO 0408 3000 +RA RADZ BKN008
                      PROB30 TEMPO 0409 +TSRA BKN014CB
                      BECMG 0810 23018G28KT 9999 NSW SCT030
                      PROB30 TEMPO 1420 4000 +SHRA TSRA BKN014CB
                       BECMG 1720 22010KT=
200808111030 TAF EGLL 111030Z 111818 20010KT 9999 SCT030 BKN045
                      PROB30 TEMPO 1902 8000 -SHRA BKN014
                      BECMG 2023 14010KT
                      BECMG 0204 7000 RA BKN012
                      TEMPO 0409 3000 +RA RADZ BKN008
                      PROB30 TEMPO 0409 +TSRA BKN014CB
                      BECMG 0811 23018G28KT 9999 NSW SCT030
                      PROB30 TEMPO 1418 4000 +SHRA TSRA BKN014CB=
200808110434 TAF EGLL 110434Z 111212 23008KT 9999 BKN035
                      TEMPO 1624 7000 RA SHRA BKN014
                      BECMG 1821 17010KT
                      BECMG 0003 7000 -RA BKN014
                      TEMPO 0109 3000 +RA RADZ BKN008
                      PROB30 TEMPO 0409 +TSRA
                      BECMG 0811 23016G26KT 9999 NSW SCT030
                      PROB30 TEMPO 1012 4000 +SHRA=
200808102238 TAF EGLL 102238Z 110606 23008KT 9999 BKN035
                      PROB30 0607 BKN014
                      TEMPO 1622 7000 SHRA BKN014
                      BECMG 1721 17010KT
                      BECMG 2201 7000 -RA BKN014
                      TEMPO 0006 3000 +RA RADZ BKN008
                      PROB30 TEMPO 0406 +TSRA=
200808101619 TAF EGLL 101619Z 110024 22012KT 9999 BKN035
                      PROB40 TEMPO 0307 BKN014
                      PROB30 TEMPO 1621 7000 SHRA
                      BECMG 1821 16012KT
                      TEMPO 2124 6000 SHRA BKN012=
200808101052 TAF EGLL 101052Z 101818 22012KT 9999 SCT030
                      TEMPO 1820 24018G28KT
                      PROB30 TEMPO 1820 6000 SHRA
                      PROB40 TEMPO 0307 BKN014=
200808101000 TAF EGLL 101000Z NIL=
200808100430 TAF EGLL 100430Z 101212 23014KT 9999 SCT030
                      TEMPO 1219 23016G27KT
                      PROB30 TEMPO 1319 7000 SHRA
                      BECMG 2022 23004KT
                      PROB30 TEMPO 0307 BKN014=
200808092212 TAF EGLL 092212Z 100606 24014KT 9999 SCT025
                      TEMPO 0919 23016G27KT
                      PROB30 TEMPO 1319 7000 SHRA
                      BECMG 1820 23007KT
                      PROB30 TEMPO 0306 BKN014=
200808091612 TAF EGLL 091612Z 100024 22012KT 9999 BKN012
                      TEMPO 0006 3500 -RADZ BKN008
                      PROB40 0006 22016G27KT BKN018
                      BECMG 0407 SCT020
                      TEMPO 0918 23016G27KT
                      PROB30 TEMPO 1318 7000 SHRA=
200808091017 TAF EGLL 091017Z 091818 21014KT 9999 BKN012
                      TEMPO 1806 4000 RADZ BKN007
                      PROB40 TEMPO 1806 21017G28KT
                      PROB30 TEMPO 1824 BKN016
                      BECMG 0407 SCT020
                      TEMPO 0918 23017G28KT
                      PROB30 TEMPO 1318 7000 SHRA=
200808090439 TAF EGLL 090439Z 091212 20013KT 9000 -RA SCT012 BKN030
                      TEMPO 1405 21015G26KT RA BKN010
                      PROB40 TEMPO 1504 4000 RADZ BKN008
                      BECMG 0205 9999 SCT030
                      PROB30 TEMPO 0912 8000 SHRA=
200808082230 TAF EGLL 082230Z 090606 20003KT 9999 SCT035
                      BECMG 0811 20013KT
                      BECMG 1013 8000 -RA
                      TEMPO 1404 21016G26KT RA BKN012
                      PROB40 TEMPO 1504 4000 RADZ BKN009
                      BECMG 0205 9999 SCT030=
200808081624 TAF EGLL 081624Z 090024 VRB05KT 9999 SCT030
                      PROB30 0307 8000
                      BECMG 0811 21014KT
                      BECMG 1114 8000 -RA
                      TEMPO 1424 21016G26KT RA BKN012
                      PROB30 TEMPO 1524 4000 RADZ BKN008=
200808081004 TAF EGLL 081004Z 081818 VRB05KT 9999 SCT030
                      PROB30 0307 8000
                      BECMG 0811 21014KT
                      BECMG 1114 8000 -RA
                      TEMPO 1418 21016G26KT RA BKN012
                      PROB30 TEMPO 1518 4000 RADZ BKN008=
200808080354 TAF EGLL 080354Z 081212 34010KT 9999 BKN025
                      BECMG 1821 VRB04KT CAVOK
                      PROB30 0307 8000
                      BECMG 0811 21014KT 8000 -RA=
200808072154 TAF EGLL 072154Z 080606 33010KT 9000 -RA BKN014
                      TEMPO 0609 4000 -RADZ BKN007
                      BECMG 0811 9999 NSW BKN025
                      BECMG 1821 VRB04KT
                      PROB30 0306 8000 BKN008=
200808071643 TAF EGLL 071643Z 080024 26005KT 9999 BKN030
                      BECMG 0306 33010KT 9000 -RA
                      TEMPO 0410 4000 RADZ BKN007
                      BECMG 0911 9999 NSW
                      BECMG 1821 VRB05KT=
200808071034 TAF EGLL 071034Z 071818 26008KT 9999 BKN030
                      PROB40 TEMPO 1821 5000 +SHRA TSRA
                      BECMG 0306 33010KT 9000
                      PROB40 TEMPO 0410 4000 RADZ BKN007
                      BECMG 0912 9999=
200808070356 TAF EGLL 070356Z 071212 23008KT 9999 SCT030
                      PROB40 TEMPO 1221 7000 SHRA
                      TEMPO 0209 7000 -RADZ BKN010
                      BECMG 0306 33010KT=
200808062229 TAF EGLL 062229Z 070606 22006KT 9999 SCT025
                      TEMPO 0608 6000 BKN008
                      PROB40 TEMPO 1222 7000 SHRA
                      TEMPO 0006 7000 -RADZ BKN010
                      BECMG 0205 33010KT=
200808061627 TAF EGLL 061627Z 070024 23008KT 9999 SCT025
                      TEMPO 0408 6000 BKN008
                      PROB40 TEMPO 1522 7000 SHRA=
200808060946 TAF EGLL 060946Z 061818 22008KT 9999 SCT030
                      TEMPO 0408 8000 BKN008
                      PROB40 TEMPO 1218 7000 SHRA=
200808060413 TAF EGLL 060413Z 061212 20010KT 9999 SCT030
                      PROB30 TEMPO 1620 5000 SHRA TSRA
                      TEMPO 0307 7000 -RA BKN008
                      TEMPO 0611 27008KT
                      PROB30 TEMPO 1112 7000 SHRA=
200808052226 TAF EGLL 052226Z 060606 20010KT 9999 BKN010
                      PROB30 TEMPO 0608 4000 -DZ BR BKN005
                      BECMG 0810 SCT025
                      PROB40 TEMPO 1620 6000 SHRA
                      TEMPO 0206 4000 -SHRA BR BKN007=
200808051630 TAF EGLL 051630Z 060024 21008KT 9999 SCT010 BKN020
                      TEMPO 0010 8000 -DZ BKN012
                      PROB40 TEMPO 0009 4000 BR BKN007
                      PROB30 TEMPO 1420 5000 +SHRA=
200808051023 TAF EGLL 051023Z 051818 21010KT 9999 BKN020
                      BECMG 1821 BKN014
                      TEMPO 2209 8000 -DZ BKN008
                      PROB30 TEMPO 0007 3000 BR DZ BKN004
                      BECMG 0911 BKN020
                      PROB30 TEMPO 1418 5000 +SHRA=
200808050400 TAF EGLL 050400Z 051212 19012KT 9000 -RA BKN014
                      TEMPO 1218 3000 +RA BKN008
                      PROB30 TEMPO 1218 BKN020
                      TEMPO 1810 2500 -RADZ BKN006
                      PROB30 TEMPO 2107 BKN004
                      BECMG 1012 9999 NSW BKN020=
200808042209 TAF EGLL 042209Z 050606 20012KT 9000 SCT025
                      BECMG 0608 BKN014
                      TEMPO 0706 3500 -RADZ BKN007
                      PROB40 TEMPO 0718 +RA
                      PROB30 0006 BKN004=
200808041631 TAF EGLL 041631Z 050024 24007KT 9999 FEW035
                      PROB30 TEMPO 0306 8000 -RA BKN014
                      BECMG 0609 15010KT 7000 -RA BKN012
                      TEMPO 0918 4000 RA -RADZ BKN006
                      BECMG 1518 23010KT
                      TEMPO 1824 3000 -DZ BR BKN005=
200808041024 TAF EGLL 041024Z 041818 25010KT 9999 SCT035
                      PROB30 TEMPO 0306 8000 -RA BKN014
                      BECMG 0609 13005KT 7000 -RA BKN012
                      TEMPO 0918 4000 RA -RADZ BKN006
                      BECMG 1518 23010KT=
200808040423 TAF COR EGLL 040423Z 041212 25012KT 9999 SCT030
                      PROB30 TEMPO 1216 9000 SHRA
                      BECMG 0509 13004KT
                      TEMPO 0512 8000 -RA
                      PROB40 TEMPO 0710 RA
                      PROB30 TEMPO 1012 BKN012=
200808032235 TAF EGLL 032235Z 040606 25012KT 9999 SCT030
                      PROB30 0607 8000 BKN012
                      PROB30 TEMPO 1015 9000 SHRA
                      TEMPO 0406 8000 RA=
200808031604 TAF EGLL 031604Z 040024 25012KT 9999 SCT030
                      PROB30 0008 8000 BKN012
                      PROB30 TEMPO 1115 9000 SHRA=
200808031025 TAF EGLL 031025Z 031818 26012KT 9999 SCT030
                      TEMPO 1821 4000 SHRA BKN012
                      PROB30 1819 RA BKN008
                      PROB30 TEMPO 0308 7000 BKN012=
200808030411 TAF EGLL 030411Z 031212 24010KT 9999 SCT025
                      TEMPO 1218 25015G25KT 7000 SHRA=
200808022151 TAF EGLL 022151Z 030606 24010KT 7000 -RADZ BKN008
                      PROB40 TEMPO 0607 3000 RADZ BR BKN004
                      BECMG 0811 9999 NSW BKN017
                      TEMPO 1018 25015G25KT 7000 SHRA
                      PROB30 TEMPO 1116 2500 +SHRA BKN014CB
                      BECMG 2023 CAVOK=
200808021640 TAF EGLL 021640Z 030024 19007KT 9999 SCT025
                      BECMG 0002 -RA BKN014
                      TEMPO 0208 3000 RADZ BKN007
                      PROB30 0507 BKN004
                      BECMG 0810 25012KT NSW SCT025
                      TEMPO 1021 6000 SHRA
                      TEMPO 1318 25015G25KT
                      PROB30 TEMPO 1518 2500 +SHRA BKN014CB=
200808021037 TAF EGLL 021037Z 021818 25012KT 9999 SCT020
                      BECMG 2302 -RA BKN014
                      TEMPO 2308 19008KT
                      TEMPO 0208 4000 RADZ BKN007
                      BECMG 0709 NSW SCT025
                      TEMPO 1216 8000 SHRA
                      TEMPO 1618 4000 RA
                      PROB30 TEMPO 1618 2000 +RA TSRA BKN012CB=
200808020507 TAF EGLL 020507Z 021212 19008KT 7000 -RADZ BKN009
                      BECMG 1215 27010KT 9999 NSW SCT030
                      PROB30 TEMPO 1317 7000 SHRA
                      BECMG 0003 21006KT -RADZ BKN013
                      TEMPO 0307 5000 DZ BKN007
                      BECMG 1012 9999 NSW BKN020
                      PROB30 TEMPO 1012 4000 +SHRA=
200808020400 TAF EGLL 020400Z NIL=
200808012307 TAF EGLL 012307Z 020606 19010KT 7000 -RADZ BKN012
                      PROB30 TEMPO 0609 4000 DZ BKN007
                      BECMG 1013 9999 NSW BKN025
                      TEMPO 1317 7000 SHRA
                      BECMG 1417 27010KT
                      BECMG 0306 21006KT 7000 -RADZ BKN013=
200808012200 TAF EGLL 012200Z NIL=
200808011631 TAF EGLL 011631Z 020024 21010KT 9999 BKN020
                      TEMPO 0010 7000 RA BKN012
                      PROB30 TEMPO 1119 8000 SHRA=
200808011032 TAF EGLL 011032Z 011818 23015G25KT 9999 FEW040
                      BECMG 1821 21010KT
                      PROB40 TEMPO 2104 7000 RA BKN012
                      TEMPO 0911 9000 -RA BKN012
                      PROB30 TEMPO 1118 8000 SHRA=
200808010346 TAF EGLL 010346Z 011212 23015G25KT 9999 FEW040
                      BECMG 1821 21010KT
                      TEMPO 2104 7000 RA BKN012=
