##########################################################
# Query made at 12/27/2012 09:41:26 UTC
# Time interval: from 08/01/2010 00:00  to 08/31/2010 23:59  UTC
##########################################################

##########################################################
# EGLL, London / Heathrow Airport (United Kingdom)
# WMO index: 03772
# Latitude 51-29N. Longitude 000-27W. Altitude 24 m.
##########################################################

###################################
#  METAR/SPECI from EGLL
###################################
201008312350 METAR COR EGLL 312350Z 09005KT CAVOK 12/08 Q1023 NOSIG=
201008312320 METAR COR EGLL 312320Z 09005KT CAVOK 12/07 Q1023 NOSIG=
201008312250 METAR COR EGLL 312250Z 09004KT CAVOK 12/08 Q1023 NOSIG=
201008312220 METAR COR EGLL 312220Z 11004KT CAVOK 13/08 Q1024 NOSIG=
201008312150 METAR COR EGLL 312150Z 12005KT CAVOK 14/07 Q1024 NOSIG=
201008312120 METAR COR EGLL 312120Z 13005KT CAVOK 16/07 Q1024 NOSIG=
201008312050 METAR COR EGLL 312050Z 13004KT CAVOK 16/07 Q1024 NOSIG=
201008312020 METAR EGLL 312020Z 10004KT CAVOK 15/07 Q1024=
201008311950 METAR COR EGLL 311950Z 04003KT CAVOK 16/07 Q1024 NOSIG=
201008311920 METAR COR EGLL 311920Z 04002KT CAVOK 17/07 Q1024 NOSIG=
201008311850 METAR COR EGLL 311850Z 05004KT CAVOK 17/07 Q1023 NOSIG=
201008311820 METAR COR EGLL 311820Z 06004KT CAVOK 18/07 Q1023 NOSIG=
201008311750 METAR COR EGLL 311750Z 05005KT 010V090 CAVOK 19/07 Q1023
                        NOSIG=
201008311720 METAR COR EGLL 311720Z 07006KT CAVOK 19/07 Q1023 NOSIG=
201008311650 METAR COR EGLL 311650Z VRB04KT CAVOK 20/06 Q1024 NOSIG=
201008311620 METAR COR EGLL 311620Z VRB03KT CAVOK 20/07 Q1024 NOSIG=
201008311550 METAR COR EGLL 311550Z 05006KT 010V100 CAVOK 20/07 Q1024
                        NOSIG=
201008311520 METAR COR EGLL 311520Z VRB03KT CAVOK 20/06 Q1024 NOSIG=
201008311450 METAR COR EGLL 311450Z VRB03KT 9999 FEW049 20/07 Q1025 NOSIG=
201008311420 METAR COR EGLL 311420Z 08004KT 010V170 9999 FEW049 20/07
                        Q1025 NOSIG=
201008311350 METAR COR EGLL 311350Z 02006KT 340V080 CAVOK 20/07 Q1025
                        NOSIG=
201008311320 METAR COR EGLL 311320Z 04004KT 350V090 9999 FEW048 20/07
                        Q1026 NOSIG=
201008311250 METAR COR EGLL 311250Z VRB03KT 9999 FEW048 20/07 Q1026 NOSIG=
201008311220 METAR COR EGLL 311220Z 06005KT 350V140 9999 FEW048 19/07
                        Q1026 NOSIG=
201008311150 METAR COR EGLL 311150Z 04005KT 300V100 CAVOK 19/06 Q1026
                        NOSIG=
201008311120 METAR COR EGLL 311120Z 05006KT 350V100 9999 FEW046 18/06
                        Q1026 NOSIG=
201008311050 METAR COR EGLL 311050Z VRB03KT 9999 FEW044 18/06 Q1027 NOSIG=
201008311020 METAR COR EGLL 311020Z VRB03KT 9999 FEW036 18/08 Q1027 NOSIG=
201008310950 METAR COR EGLL 310950Z VRB04KT 9999 FEW034 17/08 Q1027 NOSIG=
201008310920 METAR COR EGLL 310920Z 08004KT 010V130 9999 FEW028 16/09
                        Q1027 NOSIG=
201008310850 METAR COR EGLL 310850Z VRB03KT 9999 FEW020 16/10 Q1027 NOSIG=
201008310820 METAR COR EGLL 310820Z VRB02KT 9999 FEW020 15/10 Q1027 NOSIG=
201008310750 METAR COR EGLL 310750Z VRB02KT 9999 FEW010 14/11 Q1027 NOSIG=
201008310720 METAR COR EGLL 310720Z 35002KT CAVOK 12/10 Q1027 NOSIG=
201008310650 METAR COR EGLL 310650Z 00000KT 9999 5000SE VCFG NSC 11/10
                        Q1027 NOSIG=
201008310620 METAR COR EGLL 310620Z 00000KT 9000 VCFG NSC 09/09 Q1027
                        NOSIG=
201008310550 METAR COR EGLL 310550Z 36003KT 9000 NSC 09/08 Q1027 NOSIG=
201008310520 METAR COR EGLL 310520Z 35003KT 9000 NSC 09/08 Q1026 NOSIG=
201008310450 METAR COR EGLL 310450Z 35003KT 9000 NSC 09/08 Q1026 NOSIG=
201008310420 METAR COR EGLL 310420Z 02003KT 9000 NSC 09/08 Q1026 NOSIG=
201008310350 METAR COR EGLL 310350Z 36002KT 9000 NSC 09/08 Q1026 NOSIG=
201008310320 METAR COR EGLL 310320Z 35003KT CAVOK 09/08 Q1026 NOSIG=
201008310250 METAR COR EGLL 310250Z 36004KT CAVOK 10/09 Q1026 NOSIG=
201008310220 METAR COR EGLL 310220Z 36004KT CAVOK 10/09 Q1027 NOSIG=
201008310150 METAR COR EGLL 310150Z 35003KT CAVOK 10/09 Q1027 NOSIG=
201008310120 METAR COR EGLL 310120Z 31003KT CAVOK 10/09 Q1027 NOSIG=
201008310050 METAR COR EGLL 310050Z 36003KT CAVOK 11/09 Q1027 NOSIG=
201008310020 METAR COR EGLL 310020Z VRB02KT CAVOK 11/09 Q1027 NOSIG=
201008302350 METAR COR EGLL 302350Z VRB03KT CAVOK 12/09 Q1027 NOSIG=
201008302320 METAR COR EGLL 302320Z 04003KT CAVOK 12/09 Q1027 NOSIG=
201008302250 METAR EGLL 302250Z 05004KT CAVOK 12/09 Q1027=
201008302220 METAR EGLL 302220Z 06005KT CAVOK 13/10 Q1027=
201008302150 METAR EGLL 302150Z 04005KT 010V080 CAVOK 14/10 Q1026=
201008302120 METAR COR EGLL 302120Z 01004KT 340V040 CAVOK 14/09 Q1026
                        NOSIG=
201008302050 METAR COR EGLL 302050Z 02004KT 340V050 CAVOK 14/09 Q1026
                        NOSIG=
201008302020 METAR COR EGLL 302020Z 03004KT CAVOK 15/09 Q1026 NOSIG=
201008301950 METAR COR EGLL 301950Z 04004KT CAVOK 15/09 Q1026 NOSIG=
201008301920 METAR COR EGLL 301920Z 02005KT 350V060 CAVOK 16/09 Q1025
                        NOSIG=
201008301850 METAR COR EGLL 301850Z 03005KT 350V060 CAVOK 16/09 Q1025
                        NOSIG=
201008301820 METAR COR EGLL 301820Z 03005KT 350V060 CAVOK 17/09 Q1025
                        NOSIG=
201008301750 METAR COR EGLL 301750Z 03006KT CAVOK 17/09 Q1025 NOSIG=
201008301720 METAR COR EGLL 301720Z 01004KT 340V060 CAVOK 18/09 Q1025
                        NOSIG=
201008301650 METAR COR EGLL 301650Z 02006KT 340V050 9999 FEW044 18/08
                        Q1025 NOSIG=
201008301620 METAR COR EGLL 301620Z 35007KT 310V020 9999 FEW044 18/08
                        Q1025 NOSIG=
201008301550 METAR COR EGLL 301550Z 36006KT 330V040 9999 FEW045 18/08
                        Q1025 NOSIG=
201008301520 METAR COR EGLL 301520Z 36006KT 320V030 9999 FEW048 18/08
                        Q1024 NOSIG=
201008301450 METAR COR EGLL 301450Z 34006KT 290V030 9999 FEW047 18/08
                        Q1024 NOSIG=
201008301420 METAR COR EGLL 301420Z 35008KT 310V040 9999 FEW040 19/08
                        Q1024 NOSIG=
201008301350 METAR COR EGLL 301350Z 36007KT 310V040 9999 FEW040 18/09
                        Q1025 NOSIG=
201008301320 METAR COR EGLL 301320Z 35007KT 270V040 9999 FEW043 18/09
                        Q1025 NOSIG=
201008301250 METAR COR EGLL 301250Z 36008KT 330V050 9999 FEW038 17/08
                        Q1025 NOSIG=
201008301220 METAR COR EGLL 301220Z 36008KT 330V030 9999 SCT039 18/09
                        Q1025 NOSIG=
201008301150 METAR COR EGLL 301150Z 36008KT 320V040 9999 FEW035 SCT043
                        17/08 Q1024 NOSIG=
201008301120 METAR COR EGLL 301120Z 01008KT 330V050 9999 SCT034 SCT037
                        17/08 Q1024 NOSIG=
201008301050 METAR COR EGLL 301050Z 01009KT 330V050 9999 BKN034 16/08
                        Q1024 NOSIG=
201008301020 METAR COR EGLL 301020Z 35010KT 300V040 9999 SCT031 16/08
                        Q1024 NOSIG=
201008300950 METAR COR EGLL 300950Z 36008KT 330V040 9999 SCT029 15/08
                        Q1024 NOSIG=
201008300920 METAR COR EGLL 300920Z 34008KT 300V090 9999 FEW029 15/08
                        Q1024 NOSIG=
201008300850 METAR COR EGLL 300850Z 34009KT 300V010 9999 FEW028 14/07
                        Q1024 NOSIG=
201008300820 METAR COR EGLL 300820Z 35008KT 300V040 9999 FEW024 13/07
                        Q1023 NOSIG=
201008300750 METAR COR EGLL 300750Z 33007KT 280V020 CAVOK 12/06 Q1023
                        NOSIG=
201008300720 METAR COR EGLL 300720Z 33008KT 300V010 CAVOK 11/05 Q1023
                        NOSIG=
201008300650 METAR COR EGLL 300650Z 31008KT 280V350 CAVOK 10/05 Q1023
                        NOSIG=
201008300620 METAR COR EGLL 300620Z 31006KT CAVOK 10/05 Q1023 NOSIG=
201008300550 METAR COR EGLL 300550Z 31006KT CAVOK 09/05 Q1022 NOSIG=
201008300520 METAR COR EGLL 300520Z 31006KT CAVOK 09/04 Q1022 NOSIG=
201008300450 METAR COR EGLL 300450Z 32008KT 280V350 CAVOK 10/04 Q1022
                        NOSIG=
201008300420 METAR COR EGLL 300420Z 31006KT CAVOK 10/04 Q1022 NOSIG=
201008300350 METAR COR EGLL 300350Z 31007KT CAVOK 10/05 Q1022 NOSIG=
201008300320 METAR COR EGLL 300320Z 32007KT CAVOK 10/05 Q1021 NOSIG=
201008300250 METAR COR EGLL 300250Z 32007KT 290V350 CAVOK 10/05 Q1021
                        NOSIG=
201008300220 METAR COR EGLL 300220Z 33007KT CAVOK 10/05 Q1021 NOSIG=
201008300150 METAR COR EGLL 300150Z 29006KT CAVOK 10/05 Q1021 NOSIG=
201008300120 METAR COR EGLL 300120Z 31005KT CAVOK 10/05 Q1021 NOSIG=
201008300050 METAR COR EGLL 300050Z 29007KT CAVOK 10/05 Q1020 NOSIG=
201008300020 METAR COR EGLL 300020Z 30007KT 280V340 CAVOK 11/05 Q1020
                        NOSIG=
201008292350 METAR COR EGLL 292350Z 32007KT CAVOK 11/05 Q1020 NOSIG=
201008292320 METAR COR EGLL 292320Z 30006KT 270V350 CAVOK 12/05 Q1020
                        NOSIG=
201008292250 METAR COR EGLL 292250Z 31005KT CAVOK 12/05 Q1020 NOSIG=
201008292220 METAR COR EGLL 292220Z 32006KT 290V350 CAVOK 12/04 Q1019
                        NOSIG=
201008292150 METAR COR EGLL 292150Z 33006KT 290V010 CAVOK 13/04 Q1019
                        NOSIG=
201008292120 METAR COR EGLL 292120Z 35007KT 310V040 CAVOK 13/04 Q1019
                        NOSIG=
201008292050 METAR COR EGLL 292050Z 32009KT 290V020 CAVOK 14/05 Q1019
                        NOSIG=
201008292020 METAR COR EGLL 292020Z 31008KT CAVOK 14/05 Q1018 NOSIG=
201008291950 METAR COR EGLL 291950Z 31007KT CAVOK 14/05 Q1018 NOSIG=
201008291920 METAR COR EGLL 291920Z 32008KT CAVOK 15/05 Q1017 NOSIG=
201008291850 METAR COR EGLL 291850Z 31008KT CAVOK 15/05 Q1017 NOSIG=
201008291820 METAR COR EGLL 291820Z 31010KT CAVOK 16/05 Q1016 NOSIG=
201008291750 METAR COR EGLL 291750Z 31012KT 290V350 CAVOK 16/04 Q1016
                        NOSIG=
201008291720 METAR COR EGLL 291720Z 31012KT 280V350 CAVOK 17/03 Q1015
                        NOSIG=
201008291650 METAR COR EGLL 291650Z 31013G23KT CAVOK 17/02 Q1015 NOSIG=
201008291620 METAR COR EGLL 291620Z 31014KT CAVOK 17/02 Q1015 NOSIG=
201008291550 METAR COR EGLL 291550Z 32012KT 9999 FEW032 18/08 Q1014 NOSIG=
201008291520 METAR COR EGLL 291520Z 29011KT 260V320 9999 FEW028 17/12
                        Q1014 NOSIG=
201008291450 METAR COR EGLL 291450Z 29011KT 9999 FEW018 15/11 Q1014 NOSIG=
201008291420 METAR COR EGLL 291420Z 30011KT 9999 VCSH SCT024 14/11 Q1014
                        RERA BECMG 33020G30KT=
201008291350 METAR COR EGLL 291350Z 28019KT 9999 SCT033 BKN039 18/10 Q1013
                        BECMG 32022G32KT=
201008291320 METAR COR EGLL 291320Z 27019KT 9999 FEW032 SCT039 18/10 Q1013
                        TEMPO 27022G32KT SHRA=
201008291250 METAR COR EGLL 291250Z 28020KT 9999 SCT033 18/10 Q1014 NOSIG=
201008291220 METAR COR EGLL 291220Z 28020KT 9999 SCT034 19/11 Q1014 NOSIG=
201008291150 METAR EGLL 291150Z 28016G27KT 9999 SCT033 18/10 Q1014=
201008291120 METAR COR EGLL 291120Z 27016KT 9999 SCT032 BKN038 17/10 Q1015
                        NOSIG=
201008291050 METAR COR EGLL 291050Z 28015KT 9999 SCT032 BKN039 17/09 Q1015
                        NOSIG=
201008291020 METAR EGLL 291020Z 28017KT 9999 FEW032 BKN039 16/09 Q1015=
201008290950 METAR EGLL 290950Z 28016KT 9999 SCT032 16/09 Q1016=
201008290920 METAR COR EGLL 290920Z 27014KT 9999 FEW021 16/10 Q1016 NOSIG=
201008290850 METAR COR EGLL 290850Z 27015KT 9999 FEW021 15/10 Q1016 NOSIG=
201008290820 METAR COR EGLL 290820Z 27014KT 9999 FEW020 15/10 Q1016 NOSIG=
201008290750 METAR EGLL 290750Z 27015KT 9999 FEW020 15/10 Q1017=
201008290720 METAR COR EGLL 290720Z 27016KT CAVOK 15/10 Q1017 NOSIG=
201008290650 METAR COR EGLL 290650Z 27013KT CAVOK 14/10 Q1017 NOSIG=
201008290620 METAR COR EGLL 290620Z 27012KT CAVOK 13/10 Q1017 NOSIG=
201008290550 METAR COR EGLL 290550Z 27012KT CAVOK 13/10 Q1017 NOSIG=
201008290520 METAR COR EGLL 290520Z 26010KT CAVOK 12/09 Q1017 NOSIG=
201008290450 METAR COR EGLL 290450Z 26009KT CAVOK 12/09 Q1017 NOSIG=
201008290420 METAR COR EGLL 290420Z 27008KT CAVOK 12/09 Q1018 NOSIG=
201008290350 METAR COR EGLL 290350Z 27009KT CAVOK 12/09 Q1018 NOSIG=
201008290320 METAR COR EGLL 290320Z 26007KT CAVOK 12/09 Q1018 NOSIG=
201008290250 METAR COR EGLL 290250Z 27008KT CAVOK 12/10 Q1019 NOSIG=
201008290220 METAR COR EGLL 290220Z 26009KT CAVOK 12/09 Q1019 NOSIG=
201008290150 METAR COR EGLL 290150Z 27008KT CAVOK 12/10 Q1019 NOSIG=
201008290120 METAR COR EGLL 290120Z 26009KT CAVOK 12/09 Q1019 NOSIG=
201008290050 METAR COR EGLL 290050Z 27008KT CAVOK 13/10 Q1019 NOSIG=
201008290020 METAR COR EGLL 290020Z 27009KT CAVOK 13/10 Q1019 NOSIG=
201008282350 METAR COR EGLL 282350Z 28010KT CAVOK 14/10 Q1020 NOSIG=
201008282320 METAR EGLL 282320Z NIL=
201008282250 METAR COR EGLL 282250Z 28008KT CAVOK 14/10 Q1020 NOSIG=
201008282220 METAR COR EGLL 282220Z 28008KT CAVOK 14/10 Q1020 NOSIG=
201008282150 METAR COR EGLL 282150Z 28010KT CAVOK 15/10 Q1020 NOSIG=
201008282120 METAR COR EGLL 282120Z 27008KT CAVOK 15/09 Q1020 NOSIG=
201008282050 METAR COR EGLL 282050Z 28006KT CAVOK 15/09 Q1020 NOSIG=
201008282020 METAR COR EGLL 282020Z 27008KT CAVOK 15/09 Q1020 NOSIG=
201008281950 METAR COR EGLL 281950Z 28010KT CAVOK 16/09 Q1020 NOSIG=
201008281920 METAR COR EGLL 281920Z 29008KT CAVOK 16/09 Q1020 NOSIG=
201008281850 METAR COR EGLL 281850Z 30006KT 9999 VCSH FEW046 17/08 Q1019
                        NOSIG=
201008281820 METAR COR EGLL 281820Z 29012KT 270V340 9999 FEW045 17/08
                        Q1019 NOSIG=
201008281750 METAR COR EGLL 281750Z 30012KT CAVOK 18/08 Q1019 NOSIG=
201008281720 METAR COR EGLL 281720Z 29014KT 9999 SCT047 18/08 Q1019 NOSIG=
201008281650 METAR COR EGLL 281650Z 28015KT 9999 SCT049 18/08 Q1019 NOSIG=
201008281620 METAR COR EGLL 281620Z 28011KT 9999 -SHRA FEW047 18/09 Q1019
                        NOSIG=
201008281550 METAR COR EGLL 281550Z 28012KT CAVOK 19/08 Q1019 NOSIG=
201008281520 METAR COR EGLL 281520Z 28011KT CAVOK 19/08 Q1019 NOSIG=
201008281450 METAR EGLL 281450Z 29012KT 260V330 CAVOK 19/08 Q1019=
201008281420 METAR COR EGLL 281420Z 26012KT 230V310 CAVOK 20/07 Q1020
                        NOSIG=
201008281350 METAR COR EGLL 281350Z 28012KT CAVOK 19/07 Q1020 NOSIG=
201008281320 METAR EGLL 281320Z 28012KT 250V320 CAVOK 19/08 Q1020=
201008281250 METAR COR EGLL 281250Z 29011KT 9999 FEW049 18/07 Q1020 NOSIG=
201008281220 METAR COR EGLL 281220Z 28012KT 9999 FEW049 18/07 Q1020 NOSIG=
201008281150 METAR COR EGLL 281150Z 27014KT 9999 FEW046 19/07 Q1020 NOSIG=
201008281120 METAR EGLL 281120Z 28012KT 9999 SCT042 18/07 Q1020=
201008281050 METAR EGLL 281050Z 29010KT 260V320 9999 SCT036 17/08 Q1020=
201008281020 METAR COR EGLL 281020Z 29009KT 260V340 9999 SCT036 18/09
                        Q1021 NOSIG=
201008280950 METAR EGLL 280950Z 30010KT 280V340 9999 FEW034 17/09 Q1021=
201008280920 METAR COR EGLL 280920Z 29009KT 9999 FEW024 17/09 Q1021 NOSIG=
201008280850 METAR COR EGLL 280850Z 28008KT 9999 FEW016 16/10 Q1021 NOSIG=
201008280820 METAR COR EGLL 280820Z 28008KT 9999 FEW018 15/10 Q1021 NOSIG=
201008280750 METAR COR EGLL 280750Z 28008KT 260V320 CAVOK 14/10 Q1020
                        NOSIG=
201008280720 METAR COR EGLL 280720Z 28008KT CAVOK 13/10 Q1020 NOSIG=
201008280650 METAR COR EGLL 280650Z 27007KT CAVOK 12/09 Q1020 NOSIG=
201008280620 METAR COR EGLL 280620Z 27006KT CAVOK 11/09 Q1020 NOSIG=
201008280550 METAR COR EGLL 280550Z 27007KT CAVOK 10/09 Q1020 NOSIG=
201008280520 METAR COR EGLL 280520Z 27007KT CAVOK 11/09 Q1020 NOSIG=
201008280450 METAR COR EGLL 280450Z 27008KT CAVOK 11/09 Q1019 NOSIG=
201008280420 METAR COR EGLL 280420Z 27006KT CAVOK 10/09 Q1019 NOSIG=
201008280350 METAR COR EGLL 280350Z 26006KT CAVOK 10/08 Q1019 NOSIG=
201008280320 METAR COR EGLL 280320Z 27006KT CAVOK 10/08 Q1019 NOSIG=
201008280250 METAR COR EGLL 280250Z 27005KT CAVOK 11/09 Q1019 NOSIG=
201008280220 METAR COR EGLL 280220Z 29005KT CAVOK 11/09 Q1019 NOSIG=
201008280150 METAR COR EGLL 280150Z 29006KT CAVOK 13/09 Q1019 NOSIG=
201008280120 METAR COR EGLL 280120Z 30006KT CAVOK 13/10 Q1019 NOSIG=
201008280050 METAR COR EGLL 280050Z 30005KT CAVOK 13/10 Q1018 NOSIG=
201008280020 METAR COR EGLL 280020Z 29006KT CAVOK 14/10 Q1018 NOSIG=
201008272350 METAR COR EGLL 272350Z 30005KT CAVOK 13/10 Q1018 NOSIG=
201008272320 METAR COR EGLL 272320Z 29006KT CAVOK 12/10 Q1018 NOSIG=
201008272250 METAR COR EGLL 272250Z 28006KT CAVOK 12/10 Q1018 NOSIG=
201008272220 METAR COR EGLL 272220Z 28005KT CAVOK 12/10 Q1018 NOSIG=
201008272150 METAR COR EGLL 272150Z 27005KT CAVOK 12/10 Q1017 NOSIG=
201008272120 METAR COR EGLL 272120Z 28005KT CAVOK 13/10 Q1017 NOSIG=
201008272050 METAR COR EGLL 272050Z 28005KT CAVOK 13/10 Q1017 NOSIG=
201008272020 METAR COR EGLL 272020Z 28004KT CAVOK 13/09 Q1017 NOSIG=
201008271950 METAR COR EGLL 271950Z 30002KT CAVOK 15/10 Q1016 NOSIG=
201008271920 METAR COR EGLL 271920Z 30002KT CAVOK 16/10 Q1016 NOSIG=
201008271850 METAR COR EGLL 271850Z VRB02KT CAVOK 16/10 Q1016 NOSIG=
201008271820 METAR COR EGLL 271820Z VRB03KT CAVOK 16/10 Q1015 NOSIG=
201008271750 METAR COR EGLL 271750Z 32005KT 290V350 CAVOK 16/09 Q1015
                        NOSIG=
201008271720 METAR COR EGLL 271720Z 33005KT 300V010 9999 FEW045 17/09
                        Q1014 NOSIG=
201008271650 METAR COR EGLL 271650Z 35006KT 310V020 9999 FEW045 17/09
                        Q1014 NOSIG=
201008271620 METAR COR EGLL 271620Z 35007KT 320V030 9999 FEW042 18/08
                        Q1014 NOSIG=
201008271550 METAR COR EGLL 271550Z 35008KT 310V030 9999 SCT042 18/07
                        Q1013 NOSIG=
201008271520 METAR COR EGLL 271520Z 34008KT 300V040 9999 SCT038 18/09
                        Q1013 NOSIG=
201008271450 METAR COR EGLL 271450Z 01006KT 330V050 9999 SCT038 18/09
                        Q1013 NOSIG=
201008271420 METAR COR EGLL 271420Z 02006KT 340V070 9999 SCT038 18/09
                        Q1012 NOSIG=
201008271350 METAR COR EGLL 271350Z 02006KT 330V050 9999 FEW030 SCT048
                        17/10 Q1012 NOSIG=
201008271320 METAR COR EGLL 271320Z 01006KT 330V060 9999 FEW030 SCT045
                        17/10 Q1012 NOSIG=
201008271250 METAR COR EGLL 271250Z 02007KT 340V050 9999 FEW032 BKN042
                        17/10 Q1012 NOSIG=
201008271220 METAR COR EGLL 271220Z 01008KT 320V040 9999 BKN027 17/10
                        Q1011 NOSIG=
201008271150 METAR COR EGLL 271150Z 01007KT 330V050 9999 FEW027 SCT034
                        BKN040 17/10 Q1011 NOSIG=
201008271120 METAR COR EGLL 271120Z 01007KT 320V050 9999 SCT025 SCT039
                        15/10 Q1011 NOSIG=
201008271050 METAR COR EGLL 271050Z 02009KT 350V070 9999 SCT022 BKN049
                        16/11 Q1010 NOSIG=
201008271020 METAR COR EGLL 271020Z 01007G17KT 330V060 9999 SCT015 BKN043
                        15/11 Q1010 NOSIG=
201008270950 METAR COR EGLL 270950Z 01008KT 330V050 9999 BKN014 15/11
                        Q1009 BECMG SCT018=
201008270920 METAR COR EGLL 270920Z 01006KT 320V070 9999 FEW013 BKN042
                        14/11 Q1009 NOSIG=
201008270850 METAR COR EGLL 270850Z 01006KT 340V050 9999 SCT011 BKN040
                        13/11 Q1009 NOSIG=
201008270820 METAR COR EGLL 270820Z 01007KT 340V040 9999 FEW011 SCT014
                        BKN035 13/11 Q1008 NOSIG=
201008270750 METAR COR EGLL 270750Z 02005KT 340V070 9999 -RA FEW012 SCT016
                        13/11 Q1008 TEMPO BKN012=
201008270720 METAR COR EGLL 270720Z 36006KT 7000 -RA FEW012 SCT033 12/11
                        Q1007 NOSIG=
201008270650 METAR COR EGLL 270650Z 02006KT 330V060 7000 -RADZ FEW007
                        BKN010 12/11 Q1007 NOSIG=
201008270620 METAR COR EGLL 270620Z 02005KT 330V060 8000 -RA BKN008 OVC011
                        12/11 Q1007 NOSIG=
201008270550 METAR EGLL 270550Z 03006KT 340V100 6000 -RADZ BKN009 BKN012
                        12/11 Q1006=
201008270520 METAR COR EGLL 270520Z 36006KT 320V080 8000 -DZ BKN008 BKN013
                        12/11 Q1006 TEMPO BKN016=
201008270450 METAR COR EGLL 270450Z 03008KT 350V080 9999 FEW007 BKN012
                        BKN035 12/11 Q1005 TEMPO BKN016=
201008270420 METAR COR EGLL 270420Z 02008KT 350V080 9999 SCT006 BKN012
                        12/11 Q1005 REDZ NOSIG=
201008270350 METAR EGLL 270350Z 03007KT 350V060 4500 DZ SCT004 BKN010
                        13/12 Q1005=
201008270320 METAR COR EGLL 270320Z 02007KT 350V060 4000 DZ SCT007 SCT012
                        BKN016 13/12 Q1005 TEMPO 6000 BKN010=
201008270250 METAR COR EGLL 270250Z 03007KT 360V060 8000 FEW008 SCT011
                        BKN019 13/12 Q1005 TEMPO BKN010=
201008270220 METAR COR EGLL 270220Z 03009KT 360V060 9999 BKN006 BKN011
                        13/12 Q1005 NOSIG=
201008270150 METAR COR EGLL 270150Z 02005KT 340V060 8000 -DZ BKN006 BKN013
                        13/12 Q1004 TEMPO BKN004=
201008270120 METAR COR EGLL 270120Z 02006KT 360V060 9999 SCT006 BKN013
                        14/13 Q1004 TEMPO BKN004=
201008270050 METAR COR EGLL 270050Z 02006KT 340V050 7000 -DZ BKN006 BKN011
                        14/13 Q1004 TEMPO BKN004=
201008270020 METAR COR EGLL 270020Z 04007KT 360V070 9999 SCT006 BKN013
                        14/13 Q1004 TEMPO 6000 RA BKN004=
201008262350 METAR COR EGLL 262350Z 04006KT 010V090 8000 SCT005 BKN014
                        14/13 Q1004 TEMPO 4000 RADZ BKN004=
201008262320 METAR COR EGLL 262320Z 02007KT 350V060 5000 -DZ FEW004 BKN006
                        BKN011 14/13 Q1004 TEMPO SCT006 BKN012=
201008262250 METAR COR EGLL 262250Z 02006KT 340V050 5000 -DZ FEW003 SCT006
                        BKN010 15/14 Q1004 NOSIG=
201008262220 METAR COR EGLL 262220Z 03007KT 360V070 5000 -RADZ SCT007
                        BKN012 15/14 Q1004 NOSIG=
201008262150 METAR COR EGLL 262150Z 02006KT 350V050 9999 SCT007 BKN011
                        15/14 Q1004 NOSIG=
201008262120 METAR COR EGLL 262120Z 01005KT 9999 BKN005 BKN011 15/14 Q1003
                        NOSIG=
201008262050 METAR EGLL 262050Z 02005KT 310V070 9999 -RA SCT005 BKN008
                        16/15 Q1003=
201008262020 METAR COR EGLL 262020Z 36006KT 340V040 8000 -RA BKN004 BKN010
                        16/15 Q1004 NOSIG=
201008261950 METAR COR EGLL 261950Z 32005KT 6000 -DZ SCT003 BKN005 16/15
                        Q1004 TEMPO BKN003=
201008261920 METAR COR EGLL 261920Z VRB03KT 3000 -RA SCT002 BKN005 BKN012
                        16/16 Q1004 NOSIG=
201008261850 METAR COR EGLL 261850Z VRB03KT 2700 -RA FEW002 BKN005 BKN011
                        16/16 Q1003 TEMPO BKN003=
201008261820 METAR COR EGLL 261820Z 36004KT 320V030 2800 -RA SCT002 BKN005
                        BKN009 16/15 Q1003 TEMPO BKN003=
201008261750 METAR COR EGLL 261750Z 35004KT 3000 RADZ BKN003 BKN008 17/16
                        Q1003 BECMG 6000 -RA BKN007=
201008261720 METAR COR EGLL 261720Z VRB03KT 2500 RADZ SCT003 SCT005 BKN010
                        17/16 Q1003 BECMG 6000 -RA=
201008261650 METAR COR EGLL 261650Z VRB02KT 2300 RA FEW004 SCT005 BKN016
                        18/16 Q1004 BECMG 7000 -RA=
201008261620 METAR EGLL 261620Z VRB03KT 5000 RA FEW008 SCT010 BKN018 18/16
                        Q1004=
201008261550 METAR COR EGLL 261550Z 36004KT 9999 FEW008 SCT010 BKN018
                        18/16 Q1004 TEMPO BKN010=
201008261520 METAR COR EGLL 261520Z 30004KT 270V340 6000 -RA SCT004 SCT008
                        BKN030 18/16 Q1004 RERA TEMPO BKN008=
201008261450 METAR COR EGLL 261450Z 32005KT 290V010 4000 RADZ FEW004 SCT006
                        BKN010 18/17 Q1004 TEMPO BKN006=
201008261420 METAR COR EGLL 261420Z 25008KT 220V280 7000 3000E -RA BKN011
                        BKN016 18/17 Q1004 BECMG BKN016=
201008261350 METAR COR EGLL 261350Z 25008KT 210V280 9999 4500NE -RA BKN012
                        BKN016 19/17 Q1004 BECMG BKN016=
201008261320 METAR EGLL 261320Z 24011KT 9999 -SHRA BKN008 OVC013 19/17
                        Q1004 BECMG BKN012=
201008261250 METAR COR EGLL 261250Z 23012KT 9999 VCSH FEW010 BKN015 BKN024
                        20/16 Q1004 TEMPO BKN012=
201008261220 METAR COR EGLL 261220Z 24012KT 9999 SCT013 BKN017 21/17 Q1004
                        TEMPO BKN012=
201008261150 METAR COR EGLL 261150Z 23011KT 190V260 9999 FEW016 SCT020
                        BKN032 21/17 Q1005 NOSIG=
201008261120 METAR COR EGLL 261120Z 25013KT 9999 FEW014 BKN023 19/17 Q1004
                        NOSIG=
201008261050 METAR COR EGLL 261050Z 22011KT 200V260 9999 SCT012 BKN022
                        20/17 Q1004 TEMPO BKN012=
201008261020 METAR EGLL 261020Z 23012KT 9999 SCT009 BKN013 19/17 Q1004=
201008260950 METAR COR EGLL 260950Z 22013KT 9999 VCSH SCT011 BKN014 19/17
                        Q1004 BECMG BKN016=
201008260920 METAR EGLL 260920Z 22009KT 190V250 9999 5000S VCSH FEW010
                        SCT013 BKN016 19/17 Q1004 TEMPO BKN013=
201008260850 METAR COR EGLL 260850Z 22009KT 9999 FEW008 BKN011 BKN019
                        19/17 Q1004 BECMG BKN016=
201008260820 METAR EGLL 260820Z 22009KT 9999 FEW012 SCT017 BKN037 19/17
                        Q1004=
201008260750 METAR COR EGLL 260750Z 22007KT 9999 DZ FEW012 SCT016 BKN029
                        19/17 Q1004 BECMG NSW=
201008260720 METAR COR EGLL 260720Z 22008KT 9999 BKN013 SCT020 18/17 Q1004
                        NOSIG=
201008260650 METAR COR EGLL 260650Z 21008KT 9999 -SHRA BKN014 BKN023 18/17
                        Q1004 TEMPO BKN009=
201008260620 METAR EGLL 260620Z 22007KT 9999 SCT008 BKN013 18/17 Q1004=
201008260550 METAR COR EGLL 260550Z 22007KT 8000 -RA BKN006 BKN011 18/17
                        Q1004 NOSIG=
201008260520 METAR COR EGLL 260520Z 22007KT 7000 -RA BKN006 BKN010 18/17
                        Q1003 NOSIG=
201008260450 METAR COR EGLL 260450Z 22008KT 6000 BKN006 BKN010 18/17 Q1003
                        TEMPO SCT006 BKN012=
201008260420 METAR COR EGLL 260420Z 22009KT 5000 BR BKN007 BKN011 18/17
                        Q1003 TEMPO SCT007=
201008260350 METAR COR EGLL 260350Z 22009KT 9999 FEW005 SCT006 BKN011
                        18/17 Q1003 NOSIG=
201008260320 METAR COR EGLL 260320Z 22008KT 9999 -RA FEW006 SCT008 BKN011
                        18/17 Q1004 TEMPO BKN008=
201008260250 METAR COR EGLL 260250Z 21006KT 9999 -RA SCT008 BKN013 18/17
                        Q1004 NOSIG=
201008260220 METAR COR EGLL 260220Z 20005KT 5000 -RA FEW002 BKN010 17/16
                        Q1004 NOSIG=
201008260150 METAR COR EGLL 260150Z 21004KT 3200 -DZ BKN002 16/15 Q1004
                        TEMPO RADZ=
201008260120 METAR COR EGLL 260120Z 00000KT 1800 BR SCT002 BKN004 15/15
                        Q1004 RERA NOSIG=
201008260050 METAR COR EGLL 260050Z 14005KT 1500 RADZ SCT002 BKN004 15/14
                        Q1005 NOSIG=
201008260020 METAR COR EGLL 260020Z 10006KT 080V150 2600 BR FEW002 BKN004
                        15/14 Q1005 TEMPO RADZ=
201008252350 METAR COR EGLL 252350Z 08007KT 4500 -RA FEW004 BKN008 15/14
                        Q1005 TEMPO RADZ BKN004=
201008252320 METAR COR EGLL 252320Z 08007KT 4000 BR FEW004 BKN008 15/14
                        Q1006 TEMPO RADZ BKN004=
201008252250 METAR COR EGLL 252250Z 08007KT 9999 FEW004 BKN009 15/13 Q1007
                        TEMPO 4000 RADZ BKN004=
201008252220 METAR COR EGLL 252220Z 08008KT 9999 SCT004 BKN010 14/13 Q1007
                        TEMPO 4000 RADZ BKN006=
201008252150 METAR COR EGLL 252150Z 08011KT 9999 -RA SCT005 BKN008 14/13
                        Q1007 NOSIG=
201008252120 METAR EGLL 252120Z 07010KT 9999 SCT005 BKN010 14/13 Q1007=
201008252050 METAR COR EGLL 252050Z 09011KT 6000 -RA SCT005 BKN012 14/13
                        Q1008 RERA TEMPO 4000 RA BKN009=
201008252020 METAR COR EGLL 252020Z 08011KT 6000 RA SCT006 BKN014 14/13
                        Q1008 TEMPO 3000 +RA BKN008=
201008251950 METAR COR EGLL 251950Z 08010KT 5000 RA SCT005 BKN011 14/13
                        Q1008 TEMPO 3000 +RA BKN007=
201008251920 METAR COR EGLL 251920Z 06008KT 4000 RA SCT005 BKN015 14/13
                        Q1009 TEMPO 3000 +RA BKN010=
201008251850 METAR COR EGLL 251850Z 08010KT 5000 -RA SCT006 BKN015 13/13
                        Q1009 TEMPO 3000 +RA BKN010=
201008251820 METAR COR EGLL 251820Z 07009KT 4000 -RA SCT004 BKN013 13/12
                        Q1010 REDZ TEMPO RA BKN008=
201008251750 METAR COR EGLL 251750Z 07009KT 3200 DZ SCT005 BKN014 13/12
                        Q1010 TEMPO BKN008=
201008251720 METAR COR EGLL 251720Z 07009KT 2100 DZ SCT008 BKN013 13/12
                        Q1011 RERA TEMPO BKN008=
201008251650 METAR COR EGLL 251650Z 08009KT 6000 RA FEW006 SCT017 BKN027
                        14/12 Q1011 BECMG BKN012=
201008251620 METAR COR EGLL 251620Z 09010KT 7000 RA FEW008 SCT024 BKN030
                        14/12 Q1012 TEMPO BKN012=
201008251550 METAR COR EGLL 251550Z 10008KT 7000 -RA SCT006 BKN038 14/13
                        Q1012 RERA TEMPO RA=
201008251520 METAR COR EGLL 251520Z 13007KT 7000 -RA SCT009 BKN038 14/13
                        Q1013 TEMPO RA=
201008251450 METAR COR EGLL 251450Z 13007KT 8000 -RA SCT007 BKN025 14/13
                        Q1013 RERA TEMPO RA=
201008251420 METAR COR EGLL 251420Z 14007KT 6000 RA SCT010 BKN027 15/13
                        Q1013 NOSIG=
201008251350 METAR COR EGLL 251350Z 15006KT 090V220 7000 RA FEW010 SCT017
                        BKN030 15/13 Q1013 NOSIG=
201008251320 METAR COR EGLL 251320Z 17005KT 120V240 7000 RA FEW013 BKN049
                        16/13 Q1014 NOSIG=
201008251250 METAR COR EGLL 251250Z 19004KT 150V240 8000 -RA FEW025 SCT042
                        16/12 Q1014 TEMPO RA=
201008251220 METAR COR EGLL 251220Z 19006KT 150V240 8000 -RA FEW028 SCT042
                        16/12 Q1015 RERA TEMPO RA=
201008251150 METAR COR EGLL 251150Z 20008KT 170V240 9999 -RA FEW032 SCT038
                        17/12 Q1015 TEMPO RA=
201008251120 METAR COR EGLL 251120Z 20008KT 160V270 9999 -RA FEW031 17/11
                        Q1015 TEMPO RA=
201008251050 METAR COR EGLL 251050Z 22005KT 180V270 9999 FEW031 18/10
                        Q1015 TEMPO RA=
201008251020 METAR COR EGLL 251020Z 23006KT 190V260 9999 FEW025 18/10
                        Q1015 NOSIG=
201008250950 METAR COR EGLL 250950Z 21007KT 160V270 9999 SCT030 17/12
                        Q1015 NOSIG=
201008250920 METAR COR EGLL 250920Z 21005KT 150V290 9999 FEW024 16/12
                        Q1015 NOSIG=
201008250850 METAR COR EGLL 250850Z 22004KT 170V250 CAVOK 15/11 Q1015
                        NOSIG=
201008250820 METAR COR EGLL 250820Z 21005KT 150V260 CAVOK 15/11 Q1015
                        NOSIG=
201008250750 METAR COR EGLL 250750Z 21005KT 180V260 CAVOK 14/11 Q1015
                        NOSIG=
201008250720 METAR COR EGLL 250720Z 21005KT 150V250 CAVOK 13/11 Q1015
                        NOSIG=
201008250650 METAR COR EGLL 250650Z 22005KT 180V250 CAVOK 13/10 Q1015
                        NOSIG=
201008250620 METAR COR EGLL 250620Z 22006KT CAVOK 13/10 Q1015 NOSIG=
201008250550 METAR COR EGLL 250550Z 22005KT CAVOK 12/10 Q1015 NOSIG=
201008250520 METAR COR EGLL 250520Z 20006KT 150V250 CAVOK 12/10 Q1015
                        NOSIG=
201008250450 METAR COR EGLL 250450Z VRB03KT CAVOK 11/10 Q1015 NOSIG=
201008250420 METAR COR EGLL 250420Z 21004KT CAVOK 11/09 Q1014 NOSIG=
201008250350 METAR COR EGLL 250350Z 21004KT 190V260 CAVOK 12/09 Q1014
                        NOSIG=
201008250320 METAR COR EGLL 250320Z 24004KT CAVOK 12/10 Q1014 NOSIG=
201008250250 METAR COR EGLL 250250Z 23006KT CAVOK 12/10 Q1014 NOSIG=
201008250220 METAR COR EGLL 250220Z 24006KT CAVOK 12/10 Q1015 NOSIG=
201008250150 METAR COR EGLL 250150Z 27006KT CAVOK 12/09 Q1015 NOSIG=
201008250120 METAR COR EGLL 250120Z 25007KT CAVOK 13/09 Q1015 NOSIG=
201008250050 METAR COR EGLL 250050Z 26007KT CAVOK 13/09 Q1015 NOSIG=
201008250020 METAR COR EGLL 250020Z 25010KT CAVOK 13/09 Q1015 NOSIG=
201008242350 METAR COR EGLL 242350Z 24008KT CAVOK 13/09 Q1014 NOSIG=
201008242320 METAR COR EGLL 242320Z 25009KT CAVOK 14/10 Q1014 NOSIG=
201008242250 METAR COR EGLL 242250Z 26011KT CAVOK 14/10 Q1014 NOSIG=
201008242220 METAR COR EGLL 242220Z 26012KT CAVOK 15/10 Q1014 NOSIG=
201008242150 METAR COR EGLL 242150Z 26011KT CAVOK 15/10 Q1014 NOSIG=
201008242120 METAR COR EGLL 242120Z 25012KT CAVOK 15/10 Q1014 NOSIG=
201008242050 METAR COR EGLL 242050Z 25013KT CAVOK 15/09 Q1013 NOSIG=
201008242020 METAR COR EGLL 242020Z 25014KT CAVOK 16/09 Q1013 NOSIG=
201008241950 METAR COR EGLL 241950Z 26013KT CAVOK 16/09 Q1013 NOSIG=
201008241920 METAR COR EGLL 241920Z 26011KT CAVOK 16/09 Q1012 NOSIG=
201008241850 METAR COR EGLL 241850Z 26013KT CAVOK 17/08 Q1012 NOSIG=
201008241820 METAR COR EGLL 241820Z 26019KT CAVOK 18/08 Q1011 NOSIG=
201008241750 METAR COR EGLL 241750Z 26019KT CAVOK 18/07 Q1011 NOSIG=
201008241720 METAR COR EGLL 241720Z 26021G31KT CAVOK 19/08 Q1011 NOSIG=
201008241650 METAR COR EGLL 241650Z 26021KT CAVOK 19/08 Q1010 NOSIG=
201008241620 METAR COR EGLL 241620Z 27024KT CAVOK 20/08 Q1010 NOSIG=
201008241550 METAR EGLL 241550Z 26024KT CAVOK 20/07 Q1010=
201008241520 METAR COR EGLL 241520Z 26022KT 9999 FEW048 20/08 Q1009 NOSIG=
201008241450 METAR COR EGLL 241450Z 26025G37KT 9999 FEW044 20/09 Q1009
                        NOSIG=
201008241420 METAR COR EGLL 241420Z 25026KT 9999 FEW039 20/10 Q1009 NOSIG=
201008241350 METAR COR EGLL 241350Z 25019KT 9999 FEW035 19/12 Q1009 NOSIG=
201008241320 METAR EGLL 241320Z 26021KT 9999 VCSH FEW032 17/11 Q1009=
201008241250 METAR COR EGLL 241250Z 26015KT 9999 SCT030 19/12 Q1009 NOSIG=
201008241220 METAR COR EGLL 241220Z 25018KT 9999 8000SE VCSH FEW045 18/12
                        Q1009 NOSIG=
201008241150 METAR COR EGLL 241150Z 25017KT 9999 FEW020 SCT032 17/13 Q1009
                        NOSIG=
201008241120 METAR COR EGLL 241120Z 26014KT 9999 5000SW VCSH FEW020 BKN032
                        16/13 Q1009 RESHRA TEMPO SHRA=
201008241050 METAR EGLL 241050Z 25011KT 4000 -SHRA FEW012 SCT034 BKN039
                        16/12 Q1008=
201008241020 METAR COR EGLL 241020Z 25019KT 9999 5000W VCSH SCT030 BKN048
                        18/10 Q1008 NOSIG=
201008240950 METAR COR EGLL 240950Z 25016KT 9999 SCT027 18/11 Q1008 NOSIG=
201008240920 METAR EGLL 240920Z 25017KT 9999 FEW027 SCT040 17/11 Q1008=
201008240850 METAR COR EGLL 240850Z 25015KT 9999 FEW024 17/11 Q1008 NOSIG=
201008240820 METAR COR EGLL 240820Z 23012KT 9999 FEW022 16/10 Q1008 NOSIG=
201008240750 METAR COR EGLL 240750Z 24013KT CAVOK 15/10 Q1008 NOSIG=
201008240720 METAR COR EGLL 240720Z 24014KT CAVOK 14/10 Q1008 NOSIG=
201008240650 METAR COR EGLL 240650Z 24013KT CAVOK 14/10 Q1008 NOSIG=
201008240620 METAR COR EGLL 240620Z 23011KT CAVOK 13/10 Q1007 NOSIG=
201008240550 METAR COR EGLL 240550Z 23009KT 210V270 CAVOK 12/09 Q1007
                        NOSIG=
201008240520 METAR COR EGLL 240520Z 23010KT CAVOK 12/09 Q1007 NOSIG=
201008240450 METAR COR EGLL 240450Z 23009KT CAVOK 12/09 Q1007 NOSIG=
201008240420 METAR COR EGLL 240420Z 23011KT CAVOK 12/09 Q1007 NOSIG=
201008240350 METAR COR EGLL 240350Z 23010KT CAVOK 12/09 Q1007 NOSIG=
201008240320 METAR COR EGLL 240320Z 24009KT CAVOK 12/09 Q1006 NOSIG=
201008240250 METAR COR EGLL 240250Z 24008KT CAVOK 12/09 Q1006 NOSIG=
201008240220 METAR COR EGLL 240220Z 24008KT CAVOK 13/09 Q1006 NOSIG=
201008240150 METAR COR EGLL 240150Z 25009KT CAVOK 13/10 Q1006 NOSIG=
201008240120 METAR COR EGLL 240120Z 25009KT CAVOK 13/10 Q1006 NOSIG=
201008240050 METAR COR EGLL 240050Z 26009KT CAVOK 13/10 Q1006 NOSIG=
201008240020 METAR COR EGLL 240020Z 24008KT CAVOK 12/10 Q1005 NOSIG=
201008232350 METAR COR EGLL 232350Z 25009KT CAVOK 13/10 Q1005 NOSIG=
201008232320 METAR COR EGLL 232320Z 27008KT CAVOK 13/10 Q1005 NOSIG=
201008232250 METAR COR EGLL 232250Z 26010KT CAVOK 13/10 Q1005 NOSIG=
201008232220 METAR COR EGLL 232220Z 26011KT CAVOK 14/10 Q1004 NOSIG=
201008232150 METAR COR EGLL 232150Z 26012KT CAVOK 14/11 Q1004 NOSIG=
201008232120 METAR COR EGLL 232120Z 26013KT CAVOK 15/11 Q1004 NOSIG=
201008232050 METAR COR EGLL 232050Z 26015KT CAVOK 15/11 Q1003 NOSIG=
201008232020 METAR COR EGLL 232020Z 26014KT 9999 FEW038 15/10 Q1003 NOSIG=
201008231950 METAR COR EGLL 231950Z 26016KT 9999 FEW038 16/10 Q1003 NOSIG=
201008231920 METAR COR EGLL 231920Z 25015KT 9999 FEW042 17/10 Q1002 NOSIG=
201008231850 METAR COR EGLL 231850Z 27017KT 9999 FEW044 18/10 Q1001 NOSIG=
201008231820 METAR COR EGLL 231820Z 27018KT 9999 FEW041 18/10 Q1001 NOSIG=
201008231750 METAR COR EGLL 231750Z 26019KT 9999 SCT042 19/11 Q1000 NOSIG=
201008231720 METAR COR EGLL 231720Z 27020KT 9999 SCT042 19/11 Q1000 NOSIG=
201008231650 METAR COR EGLL 231650Z 27015KT 9999 SCT035 19/13 Q0999 NOSIG=
201008231620 METAR COR EGLL 231620Z 26021KT 9999 SCT033 20/13 Q0999 NOSIG=
201008231550 METAR COR EGLL 231550Z 28013KT 9999 SCT032 SCT038 20/14 Q0998
                        NOSIG=
201008231520 METAR COR EGLL 231520Z 27017KT 9999 SCT030 SCT040 20/14 Q0998
                        NOSIG=
201008231450 METAR COR EGLL 231450Z 22020KT 9999 -SHRA SCT025 BKN032 21/15
                        Q0998 NOSIG=
201008231420 METAR COR EGLL 231420Z 22016KT 9999 FEW022 SCT030 22/15 Q0998
                        TEMPO SHRA=
201008231350 METAR COR EGLL 231350Z 21015KT 9999 FEW018 SCT023 21/16 Q0998
                        TEMPO SHRA=
201008231320 METAR COR EGLL 231320Z 22017G27KT 9999 FEW012 SCT021 19/17
                        Q0998 TEMPO 4000 SHRA=
201008231250 METAR COR EGLL 231250Z 21013KT 180V240 9999 4000NW -SHRA
                        FEW012 SCT018 18/17 Q0999 TEMPO 4000
                        SHRA=
201008231220 METAR COR EGLL 231220Z 22012G22KT 9999 -SHRA FEW012CB BKN025
                        18/16 Q0999 TEMPO SHRA=
201008231150 METAR COR EGLL 231150Z 23012KT 9999 FEW024 BKN035 20/14 Q0999
                        TEMPO SHRA=
201008231120 METAR COR EGLL 231120Z 24014KT 9999 SCT024 SCT038 21/15 Q0999
                        NOSIG=
201008231050 METAR COR EGLL 231050Z 25013KT 9999 FEW019 SCT029 20/15 Q0999
                        NOSIG=
201008231020 METAR COR EGLL 231020Z 26015KT 9999 FEW017 BKN021 19/15 Q0999
                        NOSIG=
201008230950 METAR COR EGLL 230950Z 27014KT 9999 BKN015 18/15 Q0999 NOSIG=
201008230920 METAR COR EGLL 230920Z 27015KT 9999 FEW009 BKN013 17/15 Q0999
                        BECMG SCT018=
201008230850 METAR EGLL 230850Z 27013KT 9999 BKN009 17/15 Q0999=
201008230820 METAR COR EGLL 230820Z 27016KT 9999 SCT010 BKN014 17/15 Q0998
                        BECMG SCT018=
201008230750 METAR COR EGLL 230750Z 28013KT 9999 SCT010 BKN015 17/15 Q0997
                        NOSIG=
201008230720 METAR COR EGLL 230720Z 29011KT 9999 SCT010 17/16 Q0996 NOSIG=
201008230650 METAR EGLL 230650Z 30008KT 9999 SCT006 BKN011 17/16 Q0996=
201008230620 METAR COR EGLL 230620Z 29011KT 7000 -RA SCT006 BKN010 17/16
                        Q0995 BECMG SCT010=
201008230550 METAR EGLL 230550Z 23010KT 9999 FEW009 BKN013 18/17 Q0995=
201008230520 METAR COR EGLL 230520Z 20009KT 9999 5000E -RA SCT007 BKN014
                        18/17 Q0995 TEMPO RA=
201008230450 METAR COR EGLL 230450Z 21009KT 9999 FEW012 BKN017 18/17 Q0995
                        TEMPO RA BKN012=
201008230420 METAR COR EGLL 230420Z 21013KT 9999 FEW007 SCT012 BKN015
                        18/17 Q0996 TEMPO RA BKN012=
201008230350 METAR COR EGLL 230350Z 19012KT 7000 -RA FEW006 BKN008 BKN012
                        18/17 Q0996 RERA TEMPO SCT008=
201008230320 METAR COR EGLL 230320Z 19013KT 7000 RA SCT006 BKN012 18/17
                        Q0997 TEMPO BKN006=
201008230250 METAR COR EGLL 230250Z 16009KT 8000 RA SCT006 BKN013 18/17
                        Q0998 TEMPO BKN006=
201008230220 METAR COR EGLL 230220Z 16008KT 9000 RA FEW006 BKN010 18/17
                        Q0999 TEMPO BKN006=
201008230150 METAR COR EGLL 230150Z 15005KT 090V180 8000 -RA FEW005 BKN012
                        17/16 Q1000 TEMPO RA BKN005=
201008230120 METAR COR EGLL 230120Z 09007KT 4300 RA FEW004 SCT006 BKN017
                        17/16 Q1001 BECMG 15012KT BKN010=
201008230050 METAR COR EGLL 230050Z 10008KT 4800 RA FEW004 BKN012 17/17
                        Q1002 TEMPO 2500 +RA BKN005=
201008230020 METAR COR EGLL 230020Z 09007KT 5000 RA FEW005 BKN020 17/17
                        Q1003 BECMG BKN010=
201008222350 METAR COR EGLL 222350Z 11006KT 5000 RA FEW004 SCT009 BKN021
                        18/17 Q1004 BECMG BKN010=
201008222320 METAR COR EGLL 222320Z 11005KT 9000 -RA FEW004 SCT006 18/17
                        Q1005 TEMPO RA BKN006=
201008222250 METAR COR EGLL 222250Z 14004KT 9999 -RA SCT006 BKN012 18/17
                        Q1006 TEMPO RA BKN006=
201008222220 METAR COR EGLL 222220Z 17004KT 150V230 9999 -RA SCT005 SCT013
                        18/17 Q1007 BECMG RA BKN013=
201008222150 METAR COR EGLL 222150Z 19006KT 130V250 9999 -RA SCT006 SCT009
                        18/17 Q1008 TEMPO RA BKN009=
201008222120 METAR COR EGLL 222120Z 17006KT 110V230 9999 -RA FEW005 BKN009
                        18/17 Q1008 TEMPO RA=
201008222050 METAR COR EGLL 222050Z 16006KT 130V220 9999 -RA FEW005 BKN013
                        18/17 Q1009 TEMPO RA BKN008=
201008222020 METAR COR EGLL 222020Z 16006KT 120V250 9999 -RA FEW007 BKN015
                        18/17 Q1009 TEMPO RA BKN010=
201008221950 METAR COR EGLL 221950Z 18007KT 140V230 9999 -RA FEW010 BKN018
                        BKN022 19/17 Q1010 TEMPO RA BKN010=
201008221920 METAR COR EGLL 221920Z 19009KT 160V230 9999 -RA BKN027 19/17
                        Q1010 TEMPO RA BKN010=
201008221850 METAR COR EGLL 221850Z 19010KT 150V230 9999 FEW016 BKN038
                        20/16 Q1010 NOSIG=
201008221820 METAR COR EGLL 221820Z 19009KT 150V230 9999 SCT035 SCT048
                        20/16 Q1010 NOSIG=
201008221750 METAR COR EGLL 221750Z 20009KT 150V240 9999 FEW019 BKN042
                        21/16 Q1011 NOSIG=
201008221720 METAR COR EGLL 221720Z 21010KT 180V240 9999 FEW021 BKN048
                        21/16 Q1011 NOSIG=
201008221650 METAR COR EGLL 221650Z 22009KT 180V250 9999 FEW020 SCT042
                        22/16 Q1011 NOSIG=
201008221620 METAR COR EGLL 221620Z 22009KT 190V250 9999 FEW024 SCT042
                        22/16 Q1011 NOSIG=
201008221550 METAR COR EGLL 221550Z 23010KT 180V260 9999 SCT022 SCT037
                        22/16 Q1012 NOSIG=
201008221520 METAR COR EGLL 221520Z 24009KT 200V280 9999 SCT022 SCT034
                        22/16 Q1012 NOSIG=
201008221450 METAR COR EGLL 221450Z 25009KT 200V280 9999 SCT028 22/15
                        Q1012 NOSIG=
201008221420 METAR COR EGLL 221420Z 22009KT 180V260 9999 FEW024 22/16
                        Q1013 NOSIG=
201008221350 METAR COR EGLL 221350Z 23007KT 190V260 9999 -SHRA FEW020
                        21/16 Q1013 NOSIG=
201008221320 METAR COR EGLL 221320Z 22008KT 200V260 9999 FEW022 21/16
                        Q1013 NOSIG=
201008221250 METAR COR EGLL 221250Z 21007KT 180V270 9999 SCT022 21/16
                        Q1013 NOSIG=
201008221220 METAR COR EGLL 221220Z 21008KT 180V240 9999 FEW020 SCT024
                        21/16 Q1014 NOSIG=
201008221150 METAR COR EGLL 221150Z 23007KT 200V280 9999 SCT019 SCT028
                        21/16 Q1014 NOSIG=
201008221120 METAR COR EGLL 221120Z 23008KT 190V270 9999 FEW018 SCT021
                        BKN031 22/16 Q1014 NOSIG=
201008221050 METAR COR EGLL 221050Z 22006KT 190V260 9999 SCT022 SCT028
                        21/16 Q1014 NOSIG=
201008221020 METAR COR EGLL 221020Z 28006KT 230V310 9999 SCT016 SCT044
                        21/16 Q1015 NOSIG=
201008220950 METAR COR EGLL 220950Z 25005KT 190V310 9999 SCT012 BKN028
                        20/16 Q1015 NOSIG=
201008220920 METAR COR EGLL 220920Z 22006KT 190V280 9999 FEW013 BKN022
                        19/16 Q1015 NOSIG=
201008220850 METAR COR EGLL 220850Z 25006KT 9999 FEW013 BKN021 19/16 Q1015
                        NOSIG=
201008220820 METAR COR EGLL 220820Z 28005KT 9999 FEW009 BKN021 18/16 Q1015
                        NOSIG=
201008220750 METAR COR EGLL 220750Z 28007KT 9999 BKN022 18/16 Q1015 NOSIG=
201008220720 METAR COR EGLL 220720Z 25007KT 9999 -RA FEW009 BKN021 17/16
                        Q1015 NOSIG=
201008220650 METAR COR EGLL 220650Z 26005KT 2800 -RA BKN021 17/16 Q1016
                        RERA BECMG 9999 NSW=
201008220620 METAR COR EGLL 220620Z 28008KT 1200 RA FEW005 BKN017 17/15
                        Q1016 BECMG 9999 NSW=
201008220550 METAR COR EGLL 220550Z 21008KT 9999 BKN010 BKN015 19/17 Q1015
                        BECMG SCT015=
201008220520 METAR COR EGLL 220520Z 22008KT 200V260 9999 SCT011 BKN015
                        19/16 Q1015 TEMPO BKN010=
201008220450 METAR COR EGLL 220450Z 21008KT 9999 BKN011 19/16 Q1015 TEMPO
                        BKN008=
201008220420 METAR COR EGLL 220420Z 22007KT 9999 BKN010 19/16 Q1015 TEMPO
                        BKN008=
201008220350 METAR EGLL 220350Z NIL=
201008220320 METAR COR EGLL 220320Z 22009KT 9999 BKN008 19/17 Q1015 TEMPO
                        BKN012=
201008220250 METAR COR EGLL 220250Z 22009KT 9999 BKN007 19/17 Q1016 TEMPO
                        BKN012=
201008220220 METAR COR EGLL 220220Z 21008KT 9999 BKN009 19/17 Q1016 NOSIG=
201008220150 METAR COR EGLL 220150Z 21008KT 9999 BKN008 19/17 Q1016 NOSIG=
201008220120 METAR COR EGLL 220120Z 22008KT 9999 BKN009 BKN017 19/17 Q1016
                        TEMPO BKN012=
201008220050 METAR COR EGLL 220050Z 22009KT 9999 BKN009 BKN013 19/17 Q1017
                        TEMPO BKN012=
201008220020 METAR COR EGLL 220020Z 23009KT 9999 BKN010 19/17 Q1017 TEMPO
                        BKN008=
201008212350 METAR COR EGLL 212350Z 22007KT 9999 BKN010 19/17 Q1017 TEMPO
                        BKN008=
201008212320 METAR COR EGLL 212320Z 21007KT 9999 BKN009 19/17 Q1017 TEMPO
                        BKN012=
201008212250 METAR COR EGLL 212250Z 20009KT 9999 BKN010 BKN039 19/17 Q1017
                        TEMPO BKN008=
201008212220 METAR COR EGLL 212220Z 21009KT 9999 BKN011 BKN037 19/17 Q1017
                        TEMPO BKN008=
201008212150 METAR COR EGLL 212150Z 22010KT 180V260 9999 SCT010 BKN016
                        19/17 Q1017 BECMG BKN010=
201008212120 METAR COR EGLL 212120Z 22011KT 9999 SCT013 BKN019 20/17 Q1017
                        BECMG BKN012=
201008212050 METAR COR EGLL 212050Z 22011KT 9999 BKN011 20/17 Q1018 BECMG
                        BKN008=
201008212020 METAR COR EGLL 212020Z 22011KT 9999 SCT012 SCT020 19/17 Q1018
                        BECMG BKN012=
201008211950 METAR COR EGLL 211950Z 22009KT 190V250 9999 BKN009 19/17
                        Q1018 NOSIG=
201008211920 METAR COR EGLL 211920Z 22009KT 9999 SCT011 20/17 Q1017 BECMG
                        BKN010=
201008211850 METAR COR EGLL 211850Z 23012KT 9999 SCT011 20/17 Q1017 BECMG
                        BKN010=
201008211820 METAR COR EGLL 211820Z 23013KT 9999 FEW012 BKN018 21/17 Q1017
                        BECMG BKN012=
201008211750 METAR COR EGLL 211750Z 23014G24KT 9999 SCT014 BKN018 21/17
                        Q1017 BECMG BKN014=
201008211720 METAR COR EGLL 211720Z 22014KT 9999 BKN015 21/17 Q1017 BECMG
                        BKN014=
201008211650 METAR COR EGLL 211650Z 23014KT 9999 BKN013 21/17 Q1018 TEMPO
                        SCT013 BKN015=
201008211620 METAR COR EGLL 211620Z 22013KT 9999 BKN012 21/18 Q1018 TEMPO
                        SCT012 BKN015=
201008211550 METAR COR EGLL 211550Z 22013KT 190V250 9999 BKN011 21/18
                        Q1018 TEMPO SCT011 BKN015=
201008211520 METAR COR EGLL 211520Z 21013KT 9999 BKN014 21/18 Q1018 TEMPO
                        SCT014 BKN016=
201008211450 METAR COR EGLL 211450Z 21014KT 9999 BKN016 22/18 Q1018 TEMPO
                        BKN014=
201008211420 METAR COR EGLL 211420Z 21013KT 9999 SCT013 BKN017 22/18 Q1019
                        TEMPO BKN013=
201008211350 METAR COR EGLL 211350Z 20013KT 180V240 9999 FEW011 BKN017
                        22/18 Q1019 TEMPO BKN011=
201008211320 METAR COR EGLL 211320Z 22015KT 9999 BKN018 23/18 Q1019 NOSIG=
201008211250 METAR COR EGLL 211250Z 22017KT 9999 SCT017 SCT024 24/18 Q1019
                        NOSIG=
201008211220 METAR COR EGLL 211220Z 22015KT 9999 BKN017 24/18 Q1019 TEMPO
                        BKN014=
201008211150 METAR COR EGLL 211150Z 21014KT 190V250 9999 SCT012 BKN017
                        23/18 Q1019 TEMPO BKN012=
201008211120 METAR COR EGLL 211120Z 21011G22KT 170V280 9999 BKN012 22/18
                        Q1019 TEMPO BKN015=
201008211050 METAR COR EGLL 211050Z 22014KT 9999 BKN013 22/18 Q1019 TEMPO
                        BKN015=
201008211020 METAR COR EGLL 211020Z 22011KT 9999 BKN015 22/17 Q1019 TEMPO
                        BKN014=
201008210950 METAR EGLL 210950Z 21012KT 9999 FEW015 BKN022 22/17 Q1019
                        NOSIG=
201008210920 METAR COR EGLL 210920Z 21012KT 9999 FEW013 SCT017 BKN021
                        22/17 Q1019 TEMPO BKN013=
201008210850 METAR COR EGLL 210850Z 21011KT 9999 SCT013 BKN018 21/17 Q1019
                        TEMPO BKN014=
201008210820 METAR COR EGLL 210820Z 22011KT 9999 FEW015 SCT018 22/17 Q1019
                        TEMPO BKN014=
201008210750 METAR COR EGLL 210750Z 22011KT 9999 SCT014 SCT023 21/17 Q1019
                        TEMPO BKN014=
201008210720 METAR COR EGLL 210720Z 22012KT 190V250 9999 BKN014 21/17
                        Q1019 NOSIG=
201008210650 METAR COR EGLL 210650Z 22013KT 9999 BKN014 20/17 Q1019 NOSIG=
201008210620 METAR COR EGLL 210620Z 22011KT 180V250 9999 BKN014 20/17
                        Q1018 BECMG BKN016=
201008210550 METAR COR EGLL 210550Z 22010KT 9999 BKN012 20/17 Q1018 NOSIG=
201008210520 METAR COR EGLL 210520Z 22009KT 9999 BKN013 19/17 Q1018 TEMPO
                        BKN009=
201008210450 METAR COR EGLL 210450Z 22008KT 9999 BKN011 SCT036 19/17 Q1018
                        NOSIG=
201008210420 METAR COR EGLL 210420Z 22010KT 9999 BKN014 19/17 Q1018 TEMPO
                        BKN008=
201008210350 METAR COR EGLL 210350Z 23013KT 9999 SCT013 BKN016 19/17 Q1018
                        BECMG BKN012=
201008210320 METAR COR EGLL 210320Z 22011KT 9999 BKN012 19/17 Q1017 NOSIG=
201008210250 METAR COR EGLL 210250Z 22013KT 9999 BKN010 SCT034 19/17 Q1017
                        TEMPO SCT012=
201008210220 METAR COR EGLL 210220Z 23012KT 9999 BKN011 19/17 Q1018 BECMG
                        BKN008=
201008210150 METAR COR EGLL 210150Z 22010KT 9999 BKN009 19/17 Q1018 NOSIG=
201008210120 METAR COR EGLL 210120Z 22010KT 9999 BKN009 19/18 Q1018 TEMPO
                        BKN010=
201008210050 METAR COR EGLL 210050Z 21010KT 4000 BR BKN008 20/17 Q1018
                        BECMG 6000 NSW=
201008210020 METAR COR EGLL 210020Z 21010KT 9999 SCT008 20/17 Q1018 BECMG
                        BKN008=
201008202350 METAR COR EGLL 202350Z 21009KT 9999 OVC008 20/17 Q1018 NOSIG=
201008202320 METAR EGLL 202320Z 21009KT 9999 OVC008 20/17 Q1018=
201008202250 METAR COR EGLL 202250Z 21009KT 9999 BKN008 20/17 Q1018 NOSIG=
201008202220 METAR COR EGLL 202220Z 21010KT 9999 BKN010 20/17 Q1017 BECMG
                        BKN007=
201008202150 METAR COR EGLL 202150Z 21010KT 170V240 9999 OVC011 20/17
                        Q1017 BECMG BKN008=
201008202120 METAR COR EGLL 202120Z 22009KT 9999 BKN012 20/17 Q1017 BECMG
                        BKN008=
201008202050 METAR COR EGLL 202050Z 22011KT 190V250 9999 BKN012 20/17
                        Q1017 BECMG BKN009=
201008202020 METAR COR EGLL 202020Z 22012KT 9999 BKN013 20/17 Q1017 BECMG
                        BKN009=
201008201950 METAR COR EGLL 201950Z 22014KT 9999 BKN014 20/17 Q1017 NOSIG=
201008201920 METAR COR EGLL 201920Z 21012G23KT 9999 BKN013 20/17 Q1017
                        NOSIG=
201008201850 METAR COR EGLL 201850Z 21011G23KT 180V240 9999 BKN011 20/17
                        Q1017 BECMG BKN008=
201008201820 METAR COR EGLL 201820Z 21011KT 9999 BKN011 20/17 Q1017 BECMG
                        BKN008=
201008201750 METAR COR EGLL 201750Z 21013G23KT 9999 BKN012 21/17 Q1017
                        NOSIG=
201008201720 METAR COR EGLL 201720Z 22013KT 9999 BKN014 21/17 Q1016 NOSIG=
201008201650 METAR COR EGLL 201650Z 22013KT 170V250 9999 BKN012 20/17
                        Q1016 NOSIG=
201008201620 METAR COR EGLL 201620Z 22016KT 9999 BKN012 21/17 Q1016 NOSIG=
201008201550 METAR EGLL 201550Z 22015G25KT 9999 BKN014 21/17 Q1016=
201008201520 METAR COR EGLL 201520Z 20012KT 9999 BKN012 20/17 Q1016 NOSIG=
201008201450 METAR COR EGLL 201450Z 21014KT 9999 BKN012 20/17 Q1016 NOSIG=
201008201420 METAR COR EGLL 201420Z 21012KT 180V240 9999 BKN012 21/17
                        Q1016 NOSIG=
201008201350 METAR COR EGLL 201350Z 21009KT 9999 BKN012 21/17 Q1016 NOSIG=
201008201320 METAR COR EGLL 201320Z 20012KT 9999 BKN010 20/17 Q1016 NOSIG=
201008201250 METAR COR EGLL 201250Z 20014KT 9999 BKN012 21/17 Q1016 NOSIG=
201008201220 METAR COR EGLL 201220Z 20011KT 9999 BKN010 21/17 Q1016 NOSIG=
201008201150 METAR COR EGLL 201150Z 21011KT 9999 OVC011 20/17 Q1016 NOSIG=
201008201120 METAR COR EGLL 201120Z 21012KT 9999 BKN011 20/17 Q1016 NOSIG=
201008201050 METAR COR EGLL 201050Z 20012KT 9999 BKN011 20/17 Q1016 NOSIG=
201008201020 METAR COR EGLL 201020Z 19011KT 150V250 9999 BKN011 20/17
                        Q1015 NOSIG=
201008200950 METAR COR EGLL 200950Z 20013KT 9999 BKN011 20/16 Q1015 BECMG
                        BKN015=
201008200920 METAR COR EGLL 200920Z 20013KT 170V230 9999 BKN012 20/16
                        Q1015 BECMG BKN015=
201008200850 METAR COR EGLL 200850Z 21011KT 9999 BKN011 20/16 Q1015 NOSIG=
201008200820 METAR COR EGLL 200820Z 20010KT 9999 BKN011 19/16 Q1015 NOSIG=
201008200750 METAR COR EGLL 200750Z 20012KT 170V230 9999 BKN010 BKN048
                        19/16 Q1014 NOSIG=
201008200720 METAR COR EGLL 200720Z 20012KT 9999 FEW010 SCT049 19/16 Q1014
                        TEMPO BKN010=
201008200650 METAR COR EGLL 200650Z 19012KT 9999 FEW010 18/15 Q1014 TEMPO
                        BKN010=
201008200620 METAR COR EGLL 200620Z 20008KT 170V250 9999 BKN010 18/15
                        Q1014 NOSIG=
201008200550 METAR COR EGLL 200550Z 21007KT 180V250 9999 BKN010 17/15
                        Q1014 NOSIG=
201008200520 METAR COR EGLL 200520Z 19008KT 170V240 9999 FEW012 17/14
                        Q1014 NOSIG=
201008200450 METAR COR EGLL 200450Z 19007KT 9999 FEW015 16/14 Q1013 NOSIG=
201008200420 METAR COR EGLL 200420Z 20006KT CAVOK 17/14 Q1013 NOSIG=
201008200350 METAR COR EGLL 200350Z 19008KT CAVOK 17/13 Q1013 NOSIG=
201008200320 METAR COR EGLL 200320Z 20008KT CAVOK 17/13 Q1013 NOSIG=
201008200250 METAR COR EGLL 200250Z 19009KT CAVOK 17/13 Q1013 NOSIG=
201008200220 METAR COR EGLL 200220Z 19010KT CAVOK 17/13 Q1013 NOSIG=
201008200150 METAR COR EGLL 200150Z 18007KT CAVOK 17/13 Q1013 NOSIG=
201008200120 METAR COR EGLL 200120Z 17005KT CAVOK 17/13 Q1013 NOSIG=
201008200050 METAR COR EGLL 200050Z 18006KT 9999 -RA FEW042 17/13 Q1013
                        NOSIG=
201008200020 METAR COR EGLL 200020Z 19006KT 9999 SCT041 17/13 Q1014 NOSIG=
201008192350 METAR COR EGLL 192350Z 18005KT 9999 FEW047 17/13 Q1014 NOSIG=
201008192320 METAR COR EGLL 192320Z 17004KT CAVOK 17/13 Q1014 NOSIG=
201008192250 METAR COR EGLL 192250Z 16006KT 9999 -DZ NSC 17/13 Q1013 NOSIG=
201008192220 METAR COR EGLL 192220Z 15005KT 130V220 CAVOK 17/13 Q1013
                        NOSIG=
201008192150 METAR COR EGLL 192150Z 17006KT 130V240 9999 FEW042 17/13
                        Q1013 NOSIG=
201008192120 METAR COR EGLL 192120Z 16006KT 110V230 9999 SCT044 17/12
                        Q1014 NOSIG=
201008192050 METAR COR EGLL 192050Z 17007KT 130V240 9999 BKN044 17/12
                        Q1014 NOSIG=
201008192020 METAR COR EGLL 192020Z 18007KT 140V240 9999 BKN044 18/12
                        Q1013 NOSIG=
201008191950 METAR COR EGLL 191950Z 18008KT 150V240 9999 -RA FEW048 18/11
                        Q1013 NOSIG=
201008191920 METAR COR EGLL 191920Z 19011KT 160V240 CAVOK 19/10 Q1013
                        NOSIG=
201008191850 METAR COR EGLL 191850Z 20010KT 160V240 CAVOK 19/10 Q1013
                        NOSIG=
201008191820 METAR COR EGLL 191820Z 18012KT 160V220 CAVOK 19/10 Q1013
                        NOSIG=
201008191750 METAR COR EGLL 191750Z 19012KT 160V240 CAVOK 20/10 Q1012
                        NOSIG=
201008191720 METAR COR EGLL 191720Z 19013KT 150V220 9999 FEW040 20/10
                        Q1012 NOSIG=
201008191650 METAR COR EGLL 191650Z 19012KT 160V250 9999 FEW040 21/10
                        Q1013 NOSIG=
201008191620 METAR COR EGLL 191620Z 22011KT 9999 FEW039 21/11 Q1013 NOSIG=
201008191550 METAR COR EGLL 191550Z 21010KT 170V250 9999 FEW040 21/11
                        Q1013 NOSIG=
201008191520 METAR COR EGLL 191520Z 21008KT 180V240 9999 FEW030 21/11
                        Q1013 NOSIG=
201008191450 METAR COR EGLL 191450Z 22011KT 190V250 9999 FEW025 SCT046
                        20/13 Q1013 NOSIG=
201008191420 METAR COR EGLL 191420Z 22010KT 170V260 9999 FEW025 SCT046
                        19/13 Q1013 NOSIG=
201008191350 METAR COR EGLL 191350Z 22012KT 9999 FEW025 BKN040 19/13 Q1013
                        NOSIG=
201008191320 METAR COR EGLL 191320Z 24013KT 9999 FEW029 SCT042 19/12 Q1013
                        NOSIG=
201008191250 METAR COR EGLL 191250Z 23014KT 9999 FEW033 SCT044 19/12 Q1013
                        NOSIG=
201008191220 METAR COR EGLL 191220Z 21012KT 9999 FEW035 SCT041 20/11 Q1013
                        NOSIG=
201008191150 METAR COR EGLL 191150Z 22012KT 9999 SCT041 20/11 Q1013 NOSIG=
201008191120 METAR EGLL 191120Z 21011G21KT 170V240 9999 SCT039 21/11 Q1013=
201008191050 METAR COR EGLL 191050Z 22011KT 9999 FEW033 SCT049 19/11 Q1013
                        NOSIG=
201008191020 METAR COR EGLL 191020Z 22011KT 9999 SCT034 20/10 Q1013 NOSIG=
201008190950 METAR COR EGLL 190950Z 22012KT 9999 SCT031 20/11 Q1013 NOSIG=
201008190920 METAR COR EGLL 190920Z 23012KT 9999 FEW025 19/11 Q1013 NOSIG=
201008190850 METAR COR EGLL 190850Z 22008KT 9999 FEW019 18/12 Q1012 NOSIG=
201008190820 METAR COR EGLL 190820Z 23009KT 9999 FEW018 17/13 Q1012 NOSIG=
201008190750 METAR COR EGLL 190750Z 22009KT 9999 FEW016 16/12 Q1012 NOSIG=
201008190720 METAR COR EGLL 190720Z 22010KT 9999 FEW011 15/12 Q1012 NOSIG=
201008190650 METAR COR EGLL 190650Z 22007KT 190V260 CAVOK 14/11 Q1012
                        NOSIG=
201008190620 METAR COR EGLL 190620Z 22006KT 190V250 CAVOK 13/11 Q1011
                        NOSIG=
201008190550 METAR COR EGLL 190550Z 22008KT 170V260 CAVOK 13/11 Q1011
                        NOSIG=
201008190520 METAR COR EGLL 190520Z 22007KT 190V250 CAVOK 12/10 Q1011
                        NOSIG=
201008190450 METAR COR EGLL 190450Z 23008KT CAVOK 12/10 Q1011 NOSIG=
201008190420 METAR COR EGLL 190420Z 22008KT CAVOK 12/10 Q1011 NOSIG=
201008190350 METAR COR EGLL 190350Z 21005KT CAVOK 12/10 Q1011 NOSIG=
201008190320 METAR COR EGLL 190320Z 20005KT CAVOK 13/11 Q1011 NOSIG=
201008190250 METAR COR EGLL 190250Z 21006KT CAVOK 13/11 Q1011 NOSIG=
201008190220 METAR COR EGLL 190220Z 22005KT CAVOK 13/11 Q1010 NOSIG=
201008190150 METAR COR EGLL 190150Z 23006KT CAVOK 13/11 Q1010 NOSIG=
201008190120 METAR COR EGLL 190120Z 23007KT CAVOK 13/11 Q1010 NOSIG=
201008190050 METAR COR EGLL 190050Z 23007KT CAVOK 13/11 Q1010 NOSIG=
201008190020 METAR COR EGLL 190020Z 23009KT CAVOK 14/12 Q1010 NOSIG=
201008182350 METAR COR EGLL 182350Z 23008KT CAVOK 14/12 Q1010 NOSIG=
201008182320 METAR COR EGLL 182320Z 21005KT CAVOK 14/12 Q1010 NOSIG=
201008182250 METAR COR EGLL 182250Z 21006KT CAVOK 15/13 Q1010 NOSIG=
201008182220 METAR COR EGLL 182220Z 22008KT CAVOK 15/13 Q1009 NOSIG=
201008182150 METAR COR EGLL 182150Z 22009KT CAVOK 15/13 Q1009 NOSIG=
201008182120 METAR COR EGLL 182120Z 24015KT 9000 -SHRA FEW025 SCT048 15/13
                        Q1009 NOSIG=
201008182050 METAR COR EGLL 182050Z 23010KT CAVOK 16/12 Q1009 NOSIG=
201008182020 METAR COR EGLL 182020Z 23011KT CAVOK 16/12 Q1009 NOSIG=
201008181950 METAR COR EGLL 181950Z 23012KT CAVOK 17/11 Q1008 NOSIG=
201008181920 METAR COR EGLL 181920Z 22011KT CAVOK 17/11 Q1008 NOSIG=
201008181850 METAR COR EGLL 181850Z 23012KT CAVOK 18/11 Q1008 NOSIG=
201008181820 METAR COR EGLL 181820Z 23014KT 9999 VCSH NSC 18/11 Q1008
                        TEMPO SHRA=
201008181750 METAR COR EGLL 181750Z 23015KT 9999 FEW038 19/10 Q1007 TEMPO
                        SHRA=
201008181720 METAR COR EGLL 181720Z 22013KT 9999 FEW041 20/09 Q1007 TEMPO
                        SHRA=
201008181650 METAR COR EGLL 181650Z 22011KT 190V260 9999 FEW040 20/09
                        Q1007 TEMPO SHRA=
201008181620 METAR COR EGLL 181620Z 22012G22KT 9999 FEW040 20/10 Q1008
                        TEMPO SHRA=
201008181550 METAR COR EGLL 181550Z 23013KT CAVOK 19/09 Q1008 TEMPO SHRA=
201008181520 METAR COR EGLL 181520Z 23012KT CAVOK 20/07 Q1008 NOSIG=
201008181450 METAR COR EGLL 181450Z 25010KT 220V280 CAVOK 20/06 Q1008
                        TEMPO SHRA=
201008181420 METAR COR EGLL 181420Z 25009G19KT 210V280 CAVOK 21/05 Q1008
                        TEMPO SHRA=
201008181350 METAR COR EGLL 181350Z 25009KT 210V290 CAVOK 20/06 Q1008
                        TEMPO 7000 SHRA=
201008181320 METAR COR EGLL 181320Z 23009KT CAVOK 20/06 Q1008 NOSIG=
201008181250 METAR COR EGLL 181250Z 25010KT 9999 FEW048 20/06 Q1008 NOSIG=
201008181220 METAR COR EGLL 181220Z 26009KT 210V310 9999 FEW045 20/08
                        Q1008 NOSIG=
201008181150 METAR EGLL 181150Z 27012KT 9999 FEW047 18/07 Q1008=
201008181120 METAR COR EGLL 181120Z 26009KT 220V300 9999 FEW045 19/07
                        Q1008 NOSIG=
201008181050 METAR COR EGLL 181050Z 26010KT 210V300 9999 FEW034 18/09
                        Q1008 NOSIG=
201008181020 METAR COR EGLL 181020Z 28007KT 240V320 CAVOK 18/10 Q1008
                        NOSIG=
201008180950 METAR COR EGLL 180950Z 28009KT 250V330 9999 FEW030 17/10
                        Q1008 NOSIG=
201008180920 METAR COR EGLL 180920Z 29009KT 9999 SCT027 17/10 Q1008 NOSIG=
201008180850 METAR COR EGLL 180850Z 29008KT 270V330 9999 FEW028 17/10
                        Q1008 NOSIG=
201008180820 METAR COR EGLL 180820Z 29009KT 9999 FEW028 17/10 Q1008 NOSIG=
201008180750 METAR COR EGLL 180750Z 27006KT 240V310 9999 FEW024 16/10
                        Q1008 NOSIG=
201008180720 METAR COR EGLL 180720Z 30005KT 260V340 CAVOK 15/10 Q1008
                        NOSIG=
201008180650 METAR COR EGLL 180650Z 29005KT 250V320 CAVOK 14/10 Q1008
                        NOSIG=
201008180620 METAR COR EGLL 180620Z 27007KT CAVOK 13/09 Q1008 NOSIG=
201008180550 METAR COR EGLL 180550Z 29004KT CAVOK 12/09 Q1008 NOSIG=
201008180520 METAR COR EGLL 180520Z 31004KT 9999 SCT049 13/09 Q1008 NOSIG=
201008180450 METAR COR EGLL 180450Z 29005KT 9999 BKN048 13/09 Q1008 NOSIG=
201008180420 METAR COR EGLL 180420Z 29006KT 9999 BKN045 14/10 Q1008 NOSIG=
201008180350 METAR COR EGLL 180350Z 30006KT 9999 BKN044 14/10 Q1008 NOSIG=
201008180320 METAR COR EGLL 180320Z 31006KT 9999 BKN038 BKN045 14/10 Q1008
                        NOSIG=
201008180250 METAR COR EGLL 180250Z 31005KT 270V330 9999 SCT042 BKN046
                        15/10 Q1008 NOSIG=
201008180220 METAR COR EGLL 180220Z 31005KT 9999 BKN042 15/11 Q1008 NOSIG=
201008180150 METAR COR EGLL 180150Z 31004KT 9999 BKN041 15/11 Q1008 NOSIG=
201008180120 METAR COR EGLL 180120Z 31005KT 9999 BKN043 15/12 Q1008 NOSIG=
201008180050 METAR COR EGLL 180050Z 30005KT 9999 BKN043 15/12 Q1008 NOSIG=
201008180020 METAR COR EGLL 180020Z 32005KT 300V010 9999 SCT037 16/12
                        Q1008 NOSIG=
201008172350 METAR COR EGLL 172350Z 31006KT 280V340 9999 FEW010 SCT039
                        16/13 Q1008 NOSIG=
201008172320 METAR COR EGLL 172320Z 33006KT 290V360 9999 SCT010 BKN024
                        17/14 Q1008 NOSIG=
201008172250 METAR EGLL 172250Z 35006KT 320V030 9999 FEW013 BKN025 17/14
                        Q1008=
201008172220 METAR COR EGLL 172220Z 30006KT 280V340 9999 SCT014 BKN024
                        18/15 Q1008 NOSIG=
201008172150 METAR COR EGLL 172150Z 25006KT 9999 FEW022 18/15 Q1008 NOSIG=
201008172120 METAR EGLL 172120Z 23008KT 180V250 9999 BKN023 18/15 Q1008=
201008172050 METAR COR EGLL 172050Z 23009KT 180V260 9999 SCT026 BKN038
                        18/15 Q1008 NOSIG=
201008172020 METAR COR EGLL 172020Z 22007KT 180V250 9999 FEW040CB 18/15
                        Q1008 NOSIG=
201008171950 METAR COR EGLL 171950Z 21010KT 9999 FEW040CB 18/15 Q1007
                        NOSIG=
201008171920 METAR COR EGLL 171920Z 21009KT 190V250 9999 SCT024CB 19/15
                        Q1007 TEMPO SHRA=
201008171850 METAR COR EGLL 171850Z 21009KT 170V240 9999 SCT024 19/15
                        Q1007 NOSIG=
201008171820 METAR COR EGLL 171820Z 22010KT 180V250 9999 SCT019 20/15
                        Q1008 NOSIG=
201008171750 METAR COR EGLL 171750Z 22009KT 190V260 9999 SCT017 BKN020
                        20/15 Q1008 NOSIG=
201008171720 METAR COR EGLL 171720Z 22009KT 9999 SCT018 21/15 Q1008 NOSIG=
201008171650 METAR COR EGLL 171650Z 21012KT 9999 FEW016 21/15 Q1008 NOSIG=
201008171620 METAR COR EGLL 171620Z 21012G22KT 190V250 9999 FEW016 21/15
                        Q1008 NOSIG=
201008171550 METAR COR EGLL 171550Z 22011KT 9999 FEW022 BKN025 21/15 Q1009
                        NOSIG=
201008171520 METAR COR EGLL 171520Z 22011KT 190V250 9999 BKN018 21/15
                        Q1009 NOSIG=
201008171450 METAR COR EGLL 171450Z 24012KT 9999 SCT016 BKN022 20/15 Q1010
                        NOSIG=
201008171420 METAR COR EGLL 171420Z 24010KT 210V280 9999 BKN015 BKN022
                        19/15 Q1010 NOSIG=
201008171350 METAR COR EGLL 171350Z 25010KT 9999 FEW011 BKN015 19/15 Q1010
                        NOSIG=
201008171320 METAR COR EGLL 171320Z 24011KT 9999 BKN015 18/15 Q1010 NOSIG=
201008171250 METAR COR EGLL 171250Z 24011KT 9999 BKN010 18/15 Q1010 NOSIG=
201008171220 METAR COR EGLL 171220Z 24012KT 9999 FEW009 BKN013 17/15 Q1011
                        NOSIG=
201008171150 METAR COR EGLL 171150Z 24011KT 9999 FEW009 BKN012 17/15 Q1011
                        TEMPO BKN009=
201008171120 METAR COR EGLL 171120Z 24011KT 9999 FEW010 BKN015 17/14 Q1011
                        TEMPO BKN012=
201008171050 METAR COR EGLL 171050Z 24011KT 9999 FEW010 BKN015 17/14 Q1011
                        TEMPO BKN012=
201008171020 METAR COR EGLL 171020Z 24011KT 9999 -RA FEW015 BKN019 17/14
                        Q1011 TEMPO BKN014=
201008170950 METAR COR EGLL 170950Z 24012KT 9999 FEW015 BKN021 16/13 Q1011
                        TEMPO BKN014=
201008170920 METAR COR EGLL 170920Z 23010KT 9999 FEW015 BKN030 16/13 Q1011
                        BECMG BKN014=
201008170850 METAR COR EGLL 170850Z 22010KT 9999 BKN030 16/13 Q1012 BECMG
                        BKN014=
201008170820 METAR COR EGLL 170820Z 23010KT 9000 3500SE BKN035 16/13 Q1012
                        NOSIG=
201008170750 METAR COR EGLL 170750Z 24009KT 9999 SCT039 16/13 Q1012 NOSIG=
201008170720 METAR COR EGLL 170720Z 23009KT 9999 SCT035 16/14 Q1012 NOSIG=
201008170650 METAR COR EGLL 170650Z 22007KT 9999 FEW049 15/13 Q1012 NOSIG=
201008170620 METAR COR EGLL 170620Z 23008KT CAVOK 15/13 Q1012 NOSIG=
201008170550 METAR COR EGLL 170550Z 25008KT CAVOK 15/13 Q1012 NOSIG=
201008170520 METAR COR EGLL 170520Z 26007KT 9999 -RA NSC 15/13 Q1012 NOSIG=
201008170450 METAR COR EGLL 170450Z 26007KT 9999 -RA NSC 15/13 Q1012 NOSIG=
201008170420 METAR COR EGLL 170420Z 27009KT 9999 -RA NSC 15/13 Q1012 NOSIG=
201008170350 METAR COR EGLL 170350Z 27008KT 9999 -RA NSC 15/13 Q1013 NOSIG=
201008170320 METAR COR EGLL 170320Z 26009KT 9999 -RA NSC 16/13 Q1013 NOSIG=
201008170250 METAR COR EGLL 170250Z 27010KT CAVOK 16/13 Q1013 NOSIG=
201008170220 METAR COR EGLL 170220Z 27010KT CAVOK 16/12 Q1013 NOSIG=
201008170150 METAR COR EGLL 170150Z 27009KT CAVOK 16/12 Q1013 NOSIG=
201008170120 METAR COR EGLL 170120Z 26009KT CAVOK 16/12 Q1013 NOSIG=
201008170050 METAR COR EGLL 170050Z 27009KT CAVOK 17/12 Q1013 NOSIG=
201008170020 METAR COR EGLL 170020Z 27008KT CAVOK 16/12 Q1014 NOSIG=
201008162350 METAR COR EGLL 162350Z 27006KT CAVOK 17/11 Q1014 NOSIG=
201008162320 METAR COR EGLL 162320Z 29007KT CAVOK 17/10 Q1014 NOSIG=
201008162250 METAR COR EGLL 162250Z 29008KT CAVOK 18/10 Q1014 NOSIG=
201008162220 METAR COR EGLL 162220Z 29008KT CAVOK 18/10 Q1014 NOSIG=
201008162150 METAR COR EGLL 162150Z 28007KT CAVOK 18/10 Q1015 NOSIG=
201008162120 METAR COR EGLL 162120Z 28005KT CAVOK 18/10 Q1014 NOSIG=
201008162050 METAR COR EGLL 162050Z 30005KT CAVOK 19/10 Q1014 NOSIG=
201008162020 METAR COR EGLL 162020Z 32004KT CAVOK 19/10 Q1014 NOSIG=
201008161950 METAR COR EGLL 161950Z 32004KT CAVOK 20/10 Q1014 NOSIG=
201008161920 METAR COR EGLL 161920Z 31008KT CAVOK 21/10 Q1014 NOSIG=
201008161850 METAR COR EGLL 161850Z 31007KT CAVOK 22/09 Q1014 NOSIG=
201008161820 METAR COR EGLL 161820Z 31008KT 280V340 CAVOK 23/09 Q1014
                        NOSIG=
201008161750 METAR COR EGLL 161750Z 31008KT 270V340 CAVOK 23/09 Q1014
                        NOSIG=
201008161720 METAR COR EGLL 161720Z 31011KT 280V350 CAVOK 24/08 Q1014
                        NOSIG=
201008161650 METAR COR EGLL 161650Z 31010KT CAVOK 24/07 Q1014 NOSIG=
201008161620 METAR COR EGLL 161620Z 32008KT 280V010 CAVOK 25/08 Q1014
                        NOSIG=
201008161550 METAR COR EGLL 161550Z 32009KT 270V360 CAVOK 25/09 Q1014
                        NOSIG=
201008161520 METAR COR EGLL 161520Z 33009KT 290V360 CAVOK 25/10 Q1014
                        NOSIG=
201008161450 METAR COR EGLL 161450Z 32009KT 290V360 CAVOK 24/10 Q1015
                        NOSIG=
201008161420 METAR COR EGLL 161420Z 33010KT 280V020 9999 FEW047 24/10
                        Q1015 NOSIG=
201008161350 METAR COR EGLL 161350Z 34009KT 300V030 9999 FEW043 23/11
                        Q1015 NOSIG=
201008161320 METAR COR EGLL 161320Z 34009KT 290V030 CAVOK 23/11 Q1015
                        NOSIG=
201008161250 METAR COR EGLL 161250Z 33010KT 280V030 CAVOK 22/11 Q1015
                        NOSIG=
201008161220 METAR COR EGLL 161220Z 35009KT CAVOK 21/11 Q1016 NOSIG=
201008161150 METAR COR EGLL 161150Z 32011KT 280V360 9999 FEW030 20/11
                        Q1016 NOSIG=
201008161120 METAR COR EGLL 161120Z 32010KT 290V010 9999 FEW025 19/11
                        Q1016 NOSIG=
201008161050 METAR COR EGLL 161050Z 32010KT 290V360 9999 SCT023 18/11
                        Q1017 NOSIG=
201008161020 METAR COR EGLL 161020Z 33010KT 290V010 9999 SCT020 17/11
                        Q1017 NOSIG=
201008160950 METAR COR EGLL 160950Z 33009KT 290V360 9999 SCT020 17/11
                        Q1017 NOSIG=
201008160920 METAR COR EGLL 160920Z 34009KT 300V010 9999 SCT019 16/10
                        Q1017 NOSIG=
201008160850 METAR COR EGLL 160850Z 35009KT 310V020 9999 FEW017 SCT020
                        15/10 Q1017 NOSIG=
201008160820 METAR COR EGLL 160820Z 34009KT 300V010 9999 SCT020 15/10
                        Q1017 NOSIG=
201008160750 METAR COR EGLL 160750Z 34008KT 300V010 9999 SCT020 15/10
                        Q1017 NOSIG=
201008160720 METAR COR EGLL 160720Z 33010KT 300V010 9999 SCT020 14/09
                        Q1017 NOSIG=
201008160650 METAR COR EGLL 160650Z 33008KT 290V360 9999 SCT017 SCT021
                        14/10 Q1017 NOSIG=
201008160620 METAR COR EGLL 160620Z 35007KT 320V050 9999 SCT015 SCT017
                        14/10 Q1017 NOSIG=
201008160550 METAR COR EGLL 160550Z 34008KT 300V020 9999 SCT015 SCT017
                        14/10 Q1017 NOSIG=
201008160520 METAR COR EGLL 160520Z 34008KT 300V030 9999 BKN014 13/10
                        Q1017 BECMG FEW014 BKN015=
201008160450 METAR COR EGLL 160450Z 34009KT 300V010 9999 OVC013 13/10
                        Q1017 NOSIG=
201008160420 METAR COR EGLL 160420Z 33005KT 270V020 9999 BKN014 13/10
                        Q1017 NOSIG=
201008160350 METAR COR EGLL 160350Z 33006KT 9999 BKN014 13/10 Q1017 NOSIG=
201008160320 METAR COR EGLL 160320Z 32005KT 290V010 9999 SCT013 13/10
                        Q1018 BECMG BKN013=
201008160250 METAR COR EGLL 160250Z 32005KT 280V360 9999 SCT013 13/10
                        Q1018 BECMG BKN013=
201008160220 METAR COR EGLL 160220Z 34006KT 280V010 9999 SCT014 SCT026
                        BKN042 13/10 Q1018 TEMPO BKN014=
201008160150 METAR COR EGLL 160150Z 32004KT 300V010 9999 FEW015 BKN043
                        13/10 Q1018 NOSIG=
201008160120 METAR COR EGLL 160120Z 33004KT 300V360 CAVOK 13/10 Q1019
                        NOSIG=
201008160050 METAR COR EGLL 160050Z 31006KT CAVOK 13/10 Q1019 NOSIG=
201008160020 METAR COR EGLL 160020Z 31005KT CAVOK 14/11 Q1019 NOSIG=
201008152350 METAR COR EGLL 152350Z 33004KT 300V030 CAVOK 14/11 Q1019
                        NOSIG=
201008152320 METAR COR EGLL 152320Z 34005KT 300V010 9999 FEW048 14/11
                        Q1019 NOSIG=
201008152250 METAR COR EGLL 152250Z 35005KT 320V020 CAVOK 15/11 Q1020
                        NOSIG=
201008152220 METAR COR EGLL 152220Z 02006KT 340V050 9999 FEW030 15/11
                        Q1020 NOSIG=
201008152150 METAR COR EGLL 152150Z 02005KT 330V050 CAVOK 16/11 Q1020
                        NOSIG=
201008152120 METAR COR EGLL 152120Z 03005KT 360V060 CAVOK 16/12 Q1020
                        NOSIG=
201008152050 METAR COR EGLL 152050Z 03009KT 350V060 CAVOK 17/12 Q1020
                        NOSIG=
201008152020 METAR COR EGLL 152020Z 01007KT 340V050 CAVOK 18/12 Q1020
                        NOSIG=
201008151950 METAR COR EGLL 151950Z 36007KT 330V030 CAVOK 18/12 Q1020
                        NOSIG=
201008151920 METAR COR EGLL 151920Z 01007KT 340V050 CAVOK 19/12 Q1020
                        NOSIG=
201008151850 METAR COR EGLL 151850Z 02007KT 340V050 CAVOK 20/13 Q1020
                        NOSIG=
201008151820 METAR COR EGLL 151820Z 01006KT 310V060 9999 FEW042 20/12
                        Q1020 NOSIG=
201008151750 METAR COR EGLL 151750Z 01009KT 340V060 9999 FEW036 21/12
                        Q1020 NOSIG=
201008151720 METAR COR EGLL 151720Z 36010KT 330V040 9999 FEW044 21/12
                        Q1020 NOSIG=
201008151650 METAR COR EGLL 151650Z 36009KT 320V050 9999 FEW043 22/11
                        Q1020 NOSIG=
201008151620 METAR COR EGLL 151620Z 01010KT 340V040 9999 FEW046 22/11
                        Q1020 NOSIG=
201008151550 METAR COR EGLL 151550Z 36011KT 310V040 9999 FEW045 22/10
                        Q1020 NOSIG=
201008151520 METAR COR EGLL 151520Z 36010KT 310V060 9999 FEW048 22/10
                        Q1020 NOSIG=
201008151450 METAR COR EGLL 151450Z 02010KT 340V060 9999 FEW045 SCT048
                        22/11 Q1020 NOSIG=
201008151420 METAR COR EGLL 151420Z 03009KT 350V070 9999 SCT042 BKN048
                        22/11 Q1020 NOSIG=
201008151350 METAR COR EGLL 151350Z 03009G20KT 350V070 9999 SCT041 BKN047
                        22/12 Q1020 NOSIG=
201008151320 METAR COR EGLL 151320Z 01009KT 340V050 9999 FEW039 SCT044
                        22/12 Q1020 NOSIG=
201008151250 METAR COR EGLL 151250Z 03008KT 310V060 9999 SCT040 22/12
                        Q1021 NOSIG=
201008151220 METAR COR EGLL 151220Z 02008KT 330V060 9999 FEW044 22/12
                        Q1021 NOSIG=
201008151150 METAR COR EGLL 151150Z 02008KT 350V060 9999 FEW044 21/10
                        Q1021 NOSIG=
201008151120 METAR COR EGLL 151120Z 03007KT 350V060 CAVOK 21/10 Q1021
                        NOSIG=
201008151050 METAR COR EGLL 151050Z 03007KT 340V060 CAVOK 20/10 Q1021
                        NOSIG=
201008151020 METAR COR EGLL 151020Z 02006KT 340V060 CAVOK 20/11 Q1021
                        NOSIG=
201008150950 METAR COR EGLL 150950Z 03007KT 350V070 CAVOK 19/12 Q1021
                        NOSIG=
201008150920 METAR COR EGLL 150920Z 03005KT 340V070 CAVOK 19/13 Q1021
                        NOSIG=
201008150850 METAR COR EGLL 150850Z 02007KT 350V060 9999 FEW012 18/14
                        Q1021 NOSIG=
201008150820 METAR COR EGLL 150820Z 03007KT 350V060 9000 FEW013 17/14
                        Q1021 NOSIG=
201008150750 METAR COR EGLL 150750Z 02007KT 360V060 7000 BKN013 16/13
                        Q1021 BECMG SCT015=
201008150720 METAR COR EGLL 150720Z 04007KT 360V070 6000 BKN011 16/14
                        Q1021 BECMG SCT015=
201008150650 METAR COR EGLL 150650Z 03007KT 350V100 6000 BKN009 16/14
                        Q1020 BECMG SCT015=
201008150620 METAR COR EGLL 150620Z 03006KT 360V070 3200 BR OVC006 16/14
                        Q1020 BECMG 6000 NSW SCT006 BKN010=
201008150550 METAR COR EGLL 150550Z 02006KT 340V070 3200 BR OVC006 15/14
                        Q1020 BECMG 5000 NSW SCT006 BKN010=
201008150520 METAR COR EGLL 150520Z 02005KT 340V090 2800 BR OVC005 15/13
                        Q1019 BECMG SCT005 BKN010=
201008150450 METAR COR EGLL 150450Z 02005KT 340V050 4000 BR OVC007 14/13
                        Q1020 NOSIG=
201008150420 METAR COR EGLL 150420Z 02004KT 340V050 3300 BR BKN006 14/13
                        Q1020 NOSIG=
201008150350 METAR COR EGLL 150350Z 04004KT 360V090 3700 BR BKN005 14/12
                        Q1020 NOSIG=
201008150320 METAR COR EGLL 150320Z 03004KT 330V080 4300 BR NSC 13/12
                        Q1019 BECMG BKN008=
201008150250 METAR COR EGLL 150250Z 01004KT 330V040 4300 BR NSC 13/12
                        Q1019 BECMG BKN008=
201008150220 METAR COR EGLL 150220Z 01004KT 300V060 4700 BR NSC 13/12
                        Q1019 BECMG BKN008=
201008150150 METAR COR EGLL 150150Z VRB03KT 5000 BR FEW034 13/12 Q1019
                        BECMG 4000=
201008150120 METAR COR EGLL 150120Z VRB03KT 6000 NSC 13/12 Q1020 NOSIG=
201008150050 METAR COR EGLL 150050Z 01004KT 300V070 7000 NSC 14/12 Q1020
                        NOSIG=
201008150020 METAR COR EGLL 150020Z 04004KT 360V080 7000 NSC 14/12 Q1019
                        NOSIG=
201008142350 METAR COR EGLL 142350Z 03004KT 8000 NSC 14/12 Q1019 NOSIG=
201008142320 METAR COR EGLL 142320Z 04005KT 8000 NSC 14/12 Q1019 NOSIG=
201008142250 METAR COR EGLL 142250Z 04005KT 9000 NSC 14/12 Q1019 NOSIG=
201008142220 METAR COR EGLL 142220Z 03005KT 8000 FEW024 SCT038 14/13 Q1019
                        NOSIG=
201008142150 METAR COR EGLL 142150Z VRB02KT 9000 NSC 14/13 Q1019 NOSIG=
201008142120 METAR COR EGLL 142120Z VRB03KT 9000 NSC 14/13 Q1019 NOSIG=
201008142050 METAR COR EGLL 142050Z 03005KT CAVOK 15/13 Q1019 NOSIG=
201008142020 METAR COR EGLL 142020Z 04004KT 010V080 9999 FEW030 14/13
                        Q1018 NOSIG=
201008141950 METAR COR EGLL 141950Z VRB03KT 9999 FEW028 15/13 Q1018 NOSIG=
201008141920 METAR EGLL 141920Z VRB03KT 9999 FEW030 15/13 Q1018=
201008141850 METAR COR EGLL 141850Z 04003KT CAVOK 16/14 Q1017 NOSIG=
201008141820 METAR COR EGLL 141820Z 03003KT 9999 SCT030CB 16/14 Q1017
                        NOSIG=
201008141750 METAR COR EGLL 141750Z VRB03KT 9999 SCT030 15/13 Q1017 NOSIG=
201008141720 METAR COR EGLL 141720Z VRB02KT 8000 -SHRA SCT027 SCT035 15/13
                        Q1017 TEMPO SHRA=
201008141650 METAR COR EGLL 141650Z 02005KT 340V060 9999 -SHRA SCT020
                        16/13 Q1017 TEMPO SHRA=
201008141620 METAR COR EGLL 141620Z VRB03KT 9999 -SHRA FEW015 SCT022 16/13
                        Q1017 TEMPO SHRA=
201008141550 METAR COR EGLL 141550Z 13005KT 090V160 9999 5000NE -SHRA
                        SCT037CB 16/13 Q1017 TEMPO SHRA=
201008141520 METAR COR EGLL 141520Z 17005KT 9999 VCSH FEW014CB SCT020
                        15/13 Q1017 TEMPO SHRA=
201008141450 METAR COR EGLL 141450Z VRB03KT 9999 FEW014CB SCT022 14/12
                        Q1016 TEMPO SHRA=
201008141420 METAR COR EGLL 141420Z 00000KT 9999 4000E - SHRA SCT014CB
                        SCT025 16/13 Q1016 RERA TEMPO 4000
                        +SHRA=
201008141350 METAR COR EGLL 141350Z VRB02KT 9999 4000SE SHRA FEW014 BKN022
                        16/13 Q1016 TEMPO 4000 +SHRA BKN014CB=
201008141320 METAR COR EGLL 141320Z VRB03KT 9999 3000E SHRA BKN021 18/12
                        Q1016 TEMPO 3000 +SHRA BKN014CB=
201008141250 METAR COR EGLL 141250Z VRB03KT 9999 BKN016 18/13 Q1016 NOSIG=
201008141220 METAR COR EGLL 141220Z VRB03KT 9999 FEW011 BKN015 18/13 Q1016
                        NOSIG=
201008141150 METAR COR EGLL 141150Z 27004KT 220V330 9999 FEW008 BKN011
                        16/14 Q1016 BECMG BKN015=
201008141120 METAR COR EGLL 141120Z 31004KT 280V350 9999 FEW008 BKN012
                        15/14 Q1017 BECMG BKN015=
201008141050 METAR COR EGLL 141050Z VRB03KT 8000 -SHRA SCT007 BKN010 14/13
                        Q1017 BECMG BKN015=
201008141020 METAR COR EGLL 141020Z VRB03KT 9999 7000SW FEW006 BKN017CB
                        14/13 Q1017 NOSIG=
201008140950 METAR COR EGLL 140950Z 35005KT 320V020 9999 7000N -SHRA SCT011
                        BKN015CB 15/12 Q1017 NOSIG=
201008140920 METAR COR EGLL 140920Z 35004KT 310V020 9999 6000NE -SHRA
                        FEW009 BKN012 15/12 Q1017 BECMG BKN015=
201008140850 METAR COR EGLL 140850Z 31004KT 280V350 9999 SCT010 BKN018
                        14/12 Q1017 NOSIG=
201008140820 METAR COR EGLL 140820Z 31005KT 280V350 9999 FEW009 BKN012
                        14/12 Q1017 BECMG BKN015=
201008140750 METAR COR EGLL 140750Z 29004KT 9999 6000SE VCSH BKN009 14/12
                        Q1017 BECMG BKN012=
201008140720 METAR COR EGLL 140720Z 28005KT 9999 BKN009 13/11 Q1017 BECMG
                        BKN012=
201008140650 METAR COR EGLL 140650Z 28004KT 9999 FEW008 SCT013 BKN024
                        13/11 Q1017 NOSIG=
201008140620 METAR COR EGLL 140620Z 31005KT 280V340 9999 SCT008 BKN013
                        13/11 Q1017 BECMG SCT015=
201008140550 METAR COR EGLL 140550Z 33005KT 290V350 9999 BKN009 13/11
                        Q1017 BECMG BKN012=
201008140520 METAR COR EGLL 140520Z 32005KT 9999 BKN009 BKN014 13/11 Q1017
                        BECMG BKN012=
201008140450 METAR COR EGLL 140450Z 32005KT 280V360 9999 OVC011 13/11
                        Q1017 TEMPO BKN009=
201008140420 METAR COR EGLL 140420Z 31005KT 9999 BKN012 13/11 Q1017 TEMPO
                        BKN009=
201008140350 METAR COR EGLL 140350Z 32005KT 9999 BKN012 13/11 Q1017 TEMPO
                        BKN009=
201008140320 METAR COR EGLL 140320Z 31004KT 290V360 9999 BKN012 13/11
                        Q1017 TEMPO BKN009=
201008140250 METAR COR EGLL 140250Z 31006KT 9999 BKN012 13/11 Q1017 TEMPO
                        BKN009=
201008140220 METAR COR EGLL 140220Z 31006KT 280V340 9999 - RA OVC014 13/11
                        Q1017 NOSIG=
201008140150 METAR COR EGLL 140150Z 30006KT 9999 OVC015 13/12 Q1017 TEMPO
                        BKN012=
201008140120 METAR COR EGLL 140120Z 31006KT 9999 OVC015 13/12 Q1018 TEMPO
                        BKN012=
201008140050 METAR COR EGLL 140050Z 31006KT 9999 BKN015 14/11 Q1018 TEMPO
                        BKN012=
201008140020 METAR COR EGLL 140020Z 31006KT 9999 BKN015 14/12 Q1018 TEMPO
                        BKN009=
201008132350 METAR COR EGLL 132350Z 32006KT 300V360 9999 BKN015 14/12
                        Q1018 TEMPO BKN009=
201008132320 METAR COR EGLL 132320Z 32006KT 290V010 9999 BKN013 14/12
                        Q1018 TEMPO BKN009=
201008132250 METAR COR EGLL 132250Z 32005KT 290V350 9999 BKN013 14/12
                        Q1018 TEMPO SCT013=
201008132220 METAR COR EGLL 132220Z 32007KT 9999 BKN014 14/12 Q1018 TEMPO
                        SCT014=
201008132150 METAR COR EGLL 132150Z 32005KT 290V360 9999 SCT024 14/12
                        Q1018 NOSIG=
201008132120 METAR COR EGLL 132120Z 31005KT 9999 FEW032 14/12 Q1018 NOSIG=
201008132050 METAR COR EGLL 132050Z 28005KT 9999 FEW027 14/12 Q1018 NOSIG=
201008132020 METAR COR EGLL 132020Z 30003KT 9999 FEW033CB 14/12 Q1018
                        NOSIG=
201008131950 METAR COR EGLL 131950Z 31005KT 9999 FEW025CB 14/12 Q1017
                        NOSIG=
201008131920 METAR COR EGLL 131920Z 32005KT 9999 FEW020 FEW025CB 14/12
                        Q1017 NOSIG=
201008131850 METAR COR EGLL 131850Z 31006KT 9999 FEW018 FEW025CB SCT037
                        15/13 Q1017 RERA NOSIG=
201008131820 METAR COR EGLL 131820Z 31006KT 9999 -SHRA FEW020CB SCT025
                        16/13 Q1017 TEMPO SHRA=
201008131750 METAR COR EGLL 131750Z 30006KT 270V350 9999 FEW023CB 16/13
                        Q1017 TEMPO 4000 +SHRA BKN014 SCT020CB=
201008131720 METAR COR EGLL 131720Z 32005KT 280V010 9999 FEW020CB SCT029
                        16/13 Q1017 TEMPO SHRA=
201008131650 METAR COR EGLL 131650Z 34004KT 290V020 9999 FEW012 SCT020
                        16/13 Q1017 TEMPO SHRA=
201008131620 METAR COR EGLL 131620Z 33005KT 270V010 9999 FEW013 FEW015CB
                        SCT022 16/13 Q1017 RERA TEMPO SHRA=
201008131550 METAR COR EGLL 131550Z 30005KT 260V360 9999 3300NE SHRA FEW012
                        FEW015CB SCT021 15/13 Q1017 TEMPO
                        33015G25KT 3500 +SHRA BKN012 SCT015CB=
201008131520 METAR COR EGLL 131520Z 30005KT 250V360 9999 SCT012 SCT020
                        16/13 Q1017 TEMPO 32015G25KT 4000
                        +SHRA BKN012 SCT020CB=
201008131450 METAR COR EGLL 131450Z 29006KT 260V330 9999 -RA SCT010 BKN047
                        15/13 Q1017 TEMPO 4000 +SHRA BKN014
                        SCT020CB=
201008131420 METAR COR EGLL 131420Z 29006KT 9999 -RA FEW010 FEW020CB BKN047
                        15/13 Q1017 RERA TEMPO 4000 +SHRA
                        BKN014 SCT020CB=
201008131350 METAR COR EGLL 131350Z 29007KT 9999 -RA FEW009 FEW020CB SCT023
                        14/12 Q1017 TEMPO SHRA=
201008131320 METAR EGLL 131320Z 28010KT 9000 -SHRA FEW010 SCT045 15/13
                        Q1017=
201008131250 METAR COR EGLL 131250Z 27010KT 9000 -SHRA SCT019 14/13 Q1017
                        RESHRA TEMPO 4000 +SHRA=
201008131220 METAR COR EGLL 131220Z 28011KT 9999 VCSH SCT019 16/11 Q1017
                        TEMPO 4000 SHRA=
201008131150 METAR COR EGLL 131150Z 28011KT 9999 SCT019 17/12 Q1017 TEMPO
                        SHRA=
201008131120 METAR COR EGLL 131120Z 29009KT 9999 FEW020 SCT024 16/12 Q1017
                        TEMPO SHRA=
201008131050 METAR COR EGLL 131050Z 28012KT 9999 SCT024 18/11 Q1017 TEMPO
                        SHRA=
201008131020 METAR EGLL 131020Z 29009KT 270V330 9999 SCT025 16/10 Q1017=
201008130950 METAR COR EGLL 130950Z 30008KT 9999 -SHRA SCT024 15/11 Q1017
                        NOSIG=
201008130920 METAR COR EGLL 130920Z 29010KT 9999 FEW023 15/11 Q1018 NOSIG=
201008130850 METAR COR EGLL 130850Z 28009KT 9999 FEW019 15/11 Q1018 NOSIG=
201008130820 METAR COR EGLL 130820Z 29009KT 9999 FEW016 15/11 Q1018 NOSIG=
201008130750 METAR COR EGLL 130750Z 29010KT 9999 FEW014 14/11 Q1017 NOSIG=
201008130720 METAR COR EGLL 130720Z 29009KT 9999 FEW015 14/11 Q1017 NOSIG=
201008130650 METAR COR EGLL 130650Z 29009KT 9999 FEW014 13/10 Q1017 NOSIG=
201008130620 METAR COR EGLL 130620Z 28007KT 9999 FEW014 13/10 Q1017 NOSIG=
201008130550 METAR COR EGLL 130550Z 29006KT 9999 FEW015 13/10 Q1017 NOSIG=
201008130520 METAR COR EGLL 130520Z 29007KT 9999 FEW014 13/10 Q1017 TEMPO
                        BKN014=
201008130450 METAR COR EGLL 130450Z 29007KT 9999 SCT013 13/10 Q1017 TEMPO
                        BKN012=
201008130420 METAR COR EGLL 130420Z 27008KT 9999 FEW014 12/10 Q1017 TEMPO
                        BKN012=
201008130350 METAR COR EGLL 130350Z 27007KT CAVOK 12/10 Q1017 TEMPO BKN012=
201008130320 METAR COR EGLL 130320Z 29005KT 9999 FEW013 12/10 Q1017 TEMPO
                        BKN012=
201008130250 METAR COR EGLL 130250Z 29006KT 9999 FEW014 12/10 Q1018 TEMPO
                        BKN012=
201008130220 METAR COR EGLL 130220Z 29006KT CAVOK 12/10 Q1018 TEMPO BKN010=
201008130150 METAR COR EGLL 130150Z 27005KT CAVOK 11/10 Q1018 TEMPO BKN010=
201008130120 METAR COR EGLL 130120Z 27005KT CAVOK 11/10 Q1018 NOSIG=
201008130050 METAR COR EGLL 130050Z 27005KT CAVOK 11/10 Q1018 NOSIG=
201008130020 METAR COR EGLL 130020Z 28006KT CAVOK 12/10 Q1018 NOSIG=
201008122350 METAR COR EGLL 122350Z 27005KT CAVOK 12/10 Q1018 NOSIG=
201008122320 METAR COR EGLL 122320Z 28004KT CAVOK 12/10 Q1018 NOSIG=
201008122250 METAR COR EGLL 122250Z VRB03KT CAVOK 12/10 Q1018 NOSIG=
201008122220 METAR COR EGLL 122220Z 29006KT CAVOK 13/11 Q1018 NOSIG=
201008122150 METAR COR EGLL 122150Z 30005KT CAVOK 13/11 Q1018 NOSIG=
201008122120 METAR COR EGLL 122120Z 28006KT CAVOK 13/11 Q1018 NOSIG=
201008122050 METAR COR EGLL 122050Z 28006KT CAVOK 13/11 Q1018 NOSIG=
201008122020 METAR COR EGLL 122020Z 28005KT CAVOK 13/11 Q1018 NOSIG=
201008121950 METAR COR EGLL 121950Z 27006KT 9999 FEW025 14/11 Q1017 NOSIG=
201008121920 METAR COR EGLL 121920Z 29005KT 9999 FEW025 15/12 Q1017 NOSIG=
201008121850 METAR COR EGLL 121850Z 29006KT 9999 FEW025CB 15/12 Q1017
                        NOSIG=
201008121820 METAR EGLL 121820Z 29008KT 9999 FEW010 FEW025CB 16/13 Q1017=
201008121750 METAR COR EGLL 121750Z 30004KT 260V340 9999 - SHRA FEW029
                        16/14 Q1017 NOSIG=
201008121720 METAR COR EGLL 121720Z 30005KT 270V360 9999 - SHRA FEW025CB
                        SCT047 16/13 Q1017 TEMPO SHRA=
201008121650 METAR COR EGLL 121650Z 31005KT 9999 VCSH FEW025CB 15/13 Q1017
                        RERA TEMPO SHRA=
201008121620 METAR COR EGLL 121620Z 31010G20KT 9999 5000E SHRA FEW022CB
                        BKN038 16/12 Q1017 BECMG NSW=
201008121550 METAR COR EGLL 121550Z 32007KT 280V360 9999 SCT036 19/10
                        Q1016 TEMPO SHRA=
201008121520 METAR COR EGLL 121520Z 29010KT 9999 SCT036 19/10 Q1016 TEMPO
                        SHRA=
201008121450 METAR COR EGLL 121450Z 29009KT 260V010 9999 FEW035 19/10
                        Q1016 NOSIG=
201008121420 METAR COR EGLL 121420Z 30008KT 270V340 9999 SCT033 19/10
                        Q1016 NOSIG=
201008121350 METAR COR EGLL 121350Z 29010KT 260V330 9999 SCT030 SCT037
                        18/10 Q1017 NOSIG=
201008121320 METAR COR EGLL 121320Z 30010KT 9999 SCT030 SCT037 17/10 Q1017
                        NOSIG=
201008121250 METAR COR EGLL 121250Z 30009KT 270V330 9999 FEW029 SCT038
                        18/10 Q1017 NOSIG=
201008121220 METAR COR EGLL 121220Z 29010KT 9999 SCT028 SCT038 17/10 Q1017
                        NOSIG=
201008121150 METAR COR EGLL 121150Z 30009KT 9999 SCT031 BKN038 17/10 Q1016
                        NOSIG=
201008121120 METAR EGLL 121120Z 30009KT 9999 SCT031 SCT039 17/09 Q1016=
201008121050 METAR COR EGLL 121050Z 30007KT 270V330 9999 SCT029 17/10
                        Q1016 NOSIG=
201008121020 METAR COR EGLL 121020Z 29009KT 260V340 9999 FEW030 18/10
                        Q1016 NOSIG=
201008120950 METAR COR EGLL 120950Z 28009KT 9999 FEW030 16/10 Q1016 NOSIG=
201008120920 METAR COR EGLL 120920Z 30008KT 9999 FEW044 17/10 Q1016 NOSIG=
201008120850 METAR COR EGLL 120850Z 28009KT 9999 FEW025 16/11 Q1016 NOSIG=
201008120820 METAR COR EGLL 120820Z 27009KT CAVOK 16/11 Q1016 NOSIG=
201008120750 METAR COR EGLL 120750Z 26008KT CAVOK 15/11 Q1016 NOSIG=
201008120720 METAR COR EGLL 120720Z 27008KT CAVOK 14/11 Q1016 NOSIG=
201008120650 METAR COR EGLL 120650Z 28009KT CAVOK 14/11 Q1015 NOSIG=
201008120620 METAR COR EGLL 120620Z 26009KT CAVOK 14/11 Q1015 NOSIG=
201008120550 METAR COR EGLL 120550Z 27007KT CAVOK 13/11 Q1015 NOSIG=
201008120520 METAR COR EGLL 120520Z 28007KT CAVOK 12/10 Q1015 NOSIG=
201008120450 METAR COR EGLL 120450Z 27006KT CAVOK 12/10 Q1015 NOSIG=
201008120420 METAR COR EGLL 120420Z 27005KT CAVOK 13/10 Q1015 NOSIG=
201008120350 METAR EGLL 120350Z NIL=
201008120320 METAR COR EGLL 120320Z 28005KT CAVOK 14/10 Q1015 NOSIG=
201008120250 METAR COR EGLL 120250Z 28006KT CAVOK 14/11 Q1015 NOSIG=
201008120220 METAR COR EGLL 120220Z 27005KT CAVOK 14/11 Q1015 NOSIG=
201008120150 METAR COR EGLL 120150Z 28004KT CAVOK 14/11 Q1015 NOSIG=
201008120120 METAR COR EGLL 120120Z 27003KT 9999 NSC 15/10 Q1015 NOSIG=
201008120050 METAR COR EGLL 120050Z VRB02KT CAVOK 15/10 Q1015 NOSIG=
201008120020 METAR COR EGLL 120020Z 29003KT 9999 NSC 15/10 Q1015 NOSIG=
201008112350 METAR EGLL 112350Z NIL=
201008112320 METAR COR EGLL 112320Z 31002KT CAVOK 14/11 Q1015 NOSIG=
201008112250 METAR COR EGLL 112250Z 27003KT CAVOK 15/10 Q1015 NOSIG=
201008112220 METAR COR EGLL 112220Z 31002KT CAVOK 15/10 Q1015 NOSIG=
201008112150 METAR COR EGLL 112150Z 35003KT CAVOK 16/10 Q1014 NOSIG=
201008112120 METAR COR EGLL 112120Z VRB02KT CAVOK 16/10 Q1014 NOSIG=
201008112050 METAR COR EGLL 112050Z 28004KT CAVOK 17/10 Q1014 NOSIG=
201008112020 METAR COR EGLL 112020Z 28003KT CAVOK 18/09 Q1014 NOSIG=
201008111950 METAR COR EGLL 111950Z 28004KT CAVOK 18/09 Q1014 NOSIG=
201008111920 METAR COR EGLL 111920Z 29004KT CAVOK 18/09 Q1013 NOSIG=
201008111850 METAR COR EGLL 111850Z 27008KT CAVOK 20/09 Q1013 NOSIG=
201008111820 METAR COR EGLL 111820Z 29008KT CAVOK 20/08 Q1013 NOSIG=
201008111750 METAR COR EGLL 111750Z 27009KT CAVOK 20/08 Q1013 NOSIG=
201008111720 METAR COR EGLL 111720Z 27009KT CAVOK 22/09 Q1013 NOSIG=
201008111650 METAR COR EGLL 111650Z 28007KT 240V320 CAVOK 21/09 Q1013
                        NOSIG=
201008111620 METAR COR EGLL 111620Z 26008KT 230V310 CAVOK 22/09 Q1013
                        NOSIG=
201008111550 METAR COR EGLL 111550Z 30009KT CAVOK 21/09 Q1013 NOSIG=
201008111520 METAR COR EGLL 111520Z 26009KT 220V280 CAVOK 22/09 Q1013
                        NOSIG=
201008111450 METAR COR EGLL 111450Z 27009KT 9999 FEW047 21/09 Q1013 NOSIG=
201008111420 METAR COR EGLL 111420Z 28009KT 240V310 CAVOK 21/09 Q1013
                        NOSIG=
201008111350 METAR COR EGLL 111350Z 26011KT CAVOK 21/09 Q1013 NOSIG=
201008111320 METAR COR EGLL 111320Z 27010KT 9999 FEW049 20/09 Q1013 NOSIG=
201008111250 METAR COR EGLL 111250Z 28009KT 250V310 9999 FEW046 20/10
                        Q1013 NOSIG=
201008111220 METAR COR EGLL 111220Z 28008KT 260V320 9999 BKN047 19/09
                        Q1013 NOSIG=
201008111150 METAR COR EGLL 111150Z 27009KT 240V310 9999 BKN046 19/10
                        Q1013 NOSIG=
201008111120 METAR COR EGLL 111120Z 26008KT 210V290 9999 SCT041 21/09
                        Q1013 NOSIG=
201008111050 METAR COR EGLL 111050Z 26008KT 9999 FEW020 20/10 Q1014 NOSIG=
201008111020 METAR COR EGLL 111020Z 26007KT 230V300 9999 FEW020 19/12
                        Q1014 NOSIG=
201008110950 METAR COR EGLL 110950Z 27006KT 230V310 9999 FEW016 17/12
                        Q1014 NOSIG=
201008110920 METAR COR EGLL 110920Z 29004KT 200V330 9999 FEW018 17/12
                        Q1014 NOSIG=
201008110850 METAR COR EGLL 110850Z 27004KT 230V330 9999 FEW010 17/12
                        Q1014 NOSIG=
201008110820 METAR COR EGLL 110820Z 28004KT 230V340 9999 FEW020 16/12
                        Q1014 NOSIG=
201008110750 METAR COR EGLL 110750Z VRB03KT CAVOK 15/12 Q1014 NOSIG=
201008110720 METAR COR EGLL 110720Z VRB02KT CAVOK 14/12 Q1014 NOSIG=
201008110650 METAR COR EGLL 110650Z 29003KT CAVOK 13/11 Q1013 NOSIG=
201008110620 METAR EGLL 110620Z 28003KT CAVOK 12/11 Q1013=
201008110550 METAR COR EGLL 110550Z 27004KT 230V300 CAVOK 12/11 Q1013
                        NOSIG=
201008110520 METAR COR EGLL 110520Z 26005KT 220V290 CAVOK 11/10 Q1013
                        NOSIG=
201008110450 METAR COR EGLL 110450Z 27004KT CAVOK 12/11 Q1013 NOSIG=
201008110420 METAR COR EGLL 110420Z 26004KT 220V280 CAVOK 11/10 Q1012
                        NOSIG=
201008110350 METAR COR EGLL 110350Z 26004KT CAVOK 11/10 Q1012 NOSIG=
201008110320 METAR COR EGLL 110320Z 28004KT CAVOK 12/10 Q1012 NOSIG=
201008110250 METAR COR EGLL 110250Z 30004KT CAVOK 12/11 Q1012 NOSIG=
201008110220 METAR COR EGLL 110220Z 28005KT CAVOK 12/11 Q1012 NOSIG=
201008110150 METAR COR EGLL 110150Z 28005KT CAVOK 13/12 Q1012 NOSIG=
201008110120 METAR COR EGLL 110120Z 29005KT CAVOK 13/12 Q1011 NOSIG=
201008110050 METAR COR EGLL 110050Z 29004KT CAVOK 14/13 Q1011 NOSIG=
201008110020 METAR COR EGLL 110020Z 28004KT 9000 NSC 13/13 Q1011 NOSIG=
201008102350 METAR COR EGLL 102350Z 27006KT 9000 NSC 14/13 Q1011 NOSIG=
201008102320 METAR COR EGLL 102320Z 25005KT 9000 FEW005 14/13 Q1011 NOSIG=
201008102250 METAR COR EGLL 102250Z 27004KT 9999 FEW005 15/14 Q1011 NOSIG=
201008102220 METAR COR EGLL 102220Z 26005KT CAVOK 14/13 Q1011 NOSIG=
201008102150 METAR COR EGLL 102150Z 29006KT 9999 FEW010 15/14 Q1010 NOSIG=
201008102120 METAR COR EGLL 102120Z 28005KT 9999 FEW006 15/14 Q1010 NOSIG=
201008102050 METAR COR EGLL 102050Z 29004KT 9999 FEW007 16/15 Q1010 NOSIG=
201008102020 METAR COR EGLL 102020Z 29004KT 9999 FEW035 16/15 Q1009 NOSIG=
201008101950 METAR COR EGLL 101950Z VRB02KT 9999 FEW014 SCT035 16/15 Q1009
                        NOSIG=
201008101920 METAR COR EGLL 101920Z 35006KT 8000 VCSH FEW005 BKN013 16/15
                        Q1009 BECMG BKN022=
201008101850 METAR COR EGLL 101850Z 23009KT 200V260 8000 - RA SCT006 BKN010
                        18/17 Q1008 RERA TEMPO 4500 RADZ
                        BKN007=
201008101820 METAR COR EGLL 101820Z 22010KT 9999 -RA FEW006 BKN010 18/17
                        Q1008 TEMPO BKN007=
201008101750 METAR COR EGLL 101750Z 21009KT 9999 -RA BKN009 18/16 Q1008
                        NOSIG=
201008101720 METAR COR EGLL 101720Z 22009KT 9999 BKN012 18/16 Q1008 TEMPO
                        BKN008=
201008101650 METAR COR EGLL 101650Z 21010KT 9999 -RA FEW008 BKN013 18/16
                        Q1008 TEMPO 4000 -DZ BKN008=
201008101620 METAR COR EGLL 101620Z 21011KT 8000 -RA FEW007 BKN011 18/17
                        Q1008 TEMPO 4000 RADZ BKN007=
201008101550 METAR COR EGLL 101550Z 20009KT 7000 -RADZ FEW007 BKN011 18/16
                        Q1008 TEMPO 4000 RADZ BKN007=
201008101520 METAR COR EGLL 101520Z 17008KT 070V190 9999 -RA FEW003 SCT006
                        BKN011 17/16 Q1009 TEMPO 4500 RA
                        BKN006=
201008101450 METAR COR EGLL 101450Z 20007KT 170V240 4300 -RA FEW003 SCT006
                        BKN012 17/15 Q1009 TEMPO 6000 BKN007=
201008101420 METAR COR EGLL 101420Z 19006KT 160V230 4300 -RADZ SCT006
                        BKN012 16/15 Q1010 TEMPO 8000 BKN007=
201008101350 METAR COR EGLL 101350Z 23007KT 190V270 7000 -RA FEW012 BKN017
                        17/14 Q1010 TEMPO 4000 RA BKN008=
201008101320 METAR COR EGLL 101320Z 22009KT 180V240 9999 8000E -RA FEW020
                        BKN025 17/14 Q1010 BECMG BKN012=
201008101250 METAR COR EGLL 101250Z 24011KT 210V270 9999 SCT023 19/12
                        Q1011 NOSIG=
201008101220 METAR COR EGLL 101220Z 24013KT 200V280 9999 SCT021 18/13
                        Q1011 NOSIG=
201008101150 METAR COR EGLL 101150Z 25012KT 210V280 9999 SCT019 18/13
                        Q1011 TEMPO BKN013=
201008101120 METAR COR EGLL 101120Z 24011KT 9999 SCT013 SCT017 17/13 Q1010
                        TEMPO BKN013=
201008101050 METAR COR EGLL 101050Z 24009KT 200V270 9999 FEW011 SCT017
                        16/13 Q1011 NOSIG=
201008101020 METAR EGLL 101020Z 22008KT 180V270 9999 FEW011 SCT048 16/13
                        Q1011=
201008100950 METAR COR EGLL 100950Z 24010KT 210V280 9999 FEW013 BKN049
                        15/13 Q1011 NOSIG=
201008100920 METAR COR EGLL 100920Z 25010KT 9999 -RA FEW010 15/12 Q1011
                        NOSIG=
201008100850 METAR COR EGLL 100850Z 26010KT 9999 -RA SCT032 BKN036 14/12
                        Q1011 NOSIG=
201008100820 METAR COR EGLL 100820Z 26010KT 9999 -RA SCT025 BKN032 14/12
                        Q1011 NOSIG=
201008100750 METAR COR EGLL 100750Z 28010KT 9999 -RA FEW017 BKN027 14/13
                        Q1011 NOSIG=
201008100720 METAR COR EGLL 100720Z 27008KT 9999 -RA FEW009 SCT020 BKN025
                        14/13 Q1011 RERA NOSIG=
201008100650 METAR COR EGLL 100650Z 29010KT 9999 RA FEW009 SCT019 BKN022
                        14/12 Q1011 NOSIG=
201008100620 METAR COR EGLL 100620Z 29009KT 8000 RA FEW005 SCT010 BKN015
                        15/13 Q1010 TEMPO BKN010=
201008100550 METAR COR EGLL 100550Z 22007KT 8000 RA FEW011 BKN020 18/16
                        Q1010 TEMPO BKN010=
201008100520 METAR COR EGLL 100520Z 21007KT 9999 -RA FEW011 SCT041 18/15
                        Q1010 NOSIG=
201008100450 METAR COR EGLL 100450Z 22007KT 9999 SCT011 BKN040 18/16 Q1010
                        NOSIG=
201008100420 METAR COR EGLL 100420Z 21007KT 9999 -RA SCT011 BKN030 18/16
                        Q1011 TEMPO BKN011=
201008100350 METAR COR EGLL 100350Z 21009KT 9999 FEW012 SCT037 18/16 Q1011
                        NOSIG=
201008100320 METAR COR EGLL 100320Z 20010KT 9999 FEW007 SCT013 18/16 Q1011
                        TEMPO BKN010=
201008100250 METAR COR EGLL 100250Z 20010KT 9999 FEW008 SCT010 18/16 Q1011
                        TEMPO BKN010=
201008100220 METAR COR EGLL 100220Z 21010KT 9999 FEW012 BKN014 18/15 Q1011
                        NOSIG=
201008100150 METAR COR EGLL 100150Z 20009KT 9999 BKN016 18/15 Q1011 TEMPO
                        BKN012=
201008100120 METAR COR EGLL 100120Z 21009KT 9999 BKN017 18/15 Q1012 TEMPO
                        BKN010=
201008100050 METAR COR EGLL 100050Z 22010KT 190V260 9999 SCT014 18/15
                        Q1012 TEMPO BKN010=
201008100020 METAR COR EGLL 100020Z 21008KT 9999 SCT019 BKN025 18/15 Q1012
                        TEMPO BKN012=
201008092350 METAR COR EGLL 092350Z 20009KT 9999 SCT012 BKN022 18/15 Q1012
                        BECMG BKN012=
201008092320 METAR COR EGLL 092320Z 21009KT 9999 BKN015 18/15 Q1013 BECMG
                        BKN012=
201008092250 METAR COR EGLL 092250Z 20009KT 9999 BKN014 18/15 Q1013 NOSIG=
201008092220 METAR COR EGLL 092220Z 21009KT 180V250 9999 BKN012 18/15
                        Q1013 NOSIG=
201008092150 METAR COR EGLL 092150Z 22009KT 9999 BKN015 18/15 Q1013 BECMG
                        BKN012=
201008092120 METAR COR EGLL 092120Z 22011KT 9999 BKN015 18/14 Q1013 NOSIG=
201008092050 METAR COR EGLL 092050Z 22011KT 9999 FEW016 SCT047 18/14 Q1013
                        TEMPO BKN014=
201008092020 METAR COR EGLL 092020Z 22012KT 9999 SCT045 19/14 Q1013 TEMPO
                        BKN014=
201008091950 METAR COR EGLL 091950Z 22010KT 9999 FEW023 SCT044 19/14 Q1013
                        NOSIG=
201008091920 METAR COR EGLL 091920Z 22012KT 9999 SCT024 SCT045 20/14 Q1013
                        NOSIG=
201008091850 METAR COR EGLL 091850Z 22013KT 9999 SCT028 21/14 Q1013 NOSIG=
201008091820 METAR COR EGLL 091820Z 24013KT 9999 SCT029 SCT033 21/14 Q1013
                        NOSIG=
201008091750 METAR COR EGLL 091750Z 23013KT 9999 SCT033 SCT037 21/13 Q1013
                        NOSIG=
201008091720 METAR COR EGLL 091720Z 22015KT 9999 VCSH FEW037 23/13 Q1013
                        NOSIG=
201008091650 METAR COR EGLL 091650Z 21013KT 9999 SCT045 23/12 Q1013 NOSIG=
201008091620 METAR COR EGLL 091620Z 22011KT 190V250 CAVOK 24/11 Q1013
                        NOSIG=
201008091550 METAR COR EGLL 091550Z 22013KT 190V250 9999 FEW049 24/10
                        Q1013 NOSIG=
201008091520 METAR COR EGLL 091520Z 21011KT 9999 FEW049 25/09 Q1013 NOSIG=
201008091450 METAR COR EGLL 091450Z 22011KT 180V250 CAVOK 24/09 Q1014
                        NOSIG=
201008091420 METAR COR EGLL 091420Z 22011KT 190V260 CAVOK 24/09 Q1014
                        NOSIG=
201008091350 METAR COR EGLL 091350Z 22012KT 180V260 CAVOK 24/08 Q1014
                        NOSIG=
201008091320 METAR COR EGLL 091320Z 22012KT 160V250 9999 FEW047 24/09
                        Q1014 NOSIG=
201008091250 METAR COR EGLL 091250Z 23010KT 190V270 9999 FEW046 24/08
                        Q1015 NOSIG=
201008091220 METAR COR EGLL 091220Z 24011KT 200V260 9999 FEW046 24/09
                        Q1015 NOSIG=
201008091150 METAR EGLL 091150Z 21011KT 160V280 9999 FEW046 23/09 Q1015=
201008091120 METAR COR EGLL 091120Z 23011G21KT 190V260 9999 SCT038 22/09
                        Q1015 NOSIG=
201008091050 METAR COR EGLL 091050Z 25012KT 9999 SCT036 21/10 Q1016 NOSIG=
201008091020 METAR COR EGLL 091020Z 22008KT 190V260 9999 SCT034 21/10
                        Q1016 NOSIG=
201008090950 METAR COR EGLL 090950Z 25010KT 220V280 9999 SCT037 20/10
                        Q1016 NOSIG=
201008090920 METAR COR EGLL 090920Z 23008KT 170V280 9999 FEW043 19/10
                        Q1016 NOSIG=
201008090850 METAR COR EGLL 090850Z 23010KT CAVOK 20/10 Q1016 NOSIG=
201008090820 METAR COR EGLL 090820Z 22007KT 150V270 CAVOK 19/11 Q1016
                        NOSIG=
201008090750 METAR COR EGLL 090750Z 22005KT 180V270 CAVOK 17/11 Q1016
                        NOSIG=
201008090720 METAR COR EGLL 090720Z 23005KT 190V280 CAVOK 17/11 Q1017
                        NOSIG=
201008090650 METAR COR EGLL 090650Z 25006KT 9999 SCT038 16/11 Q1017 NOSIG=
201008090620 METAR COR EGLL 090620Z 24005KT 200V280 9999 BKN038 15/11
                        Q1017 NOSIG=
201008090550 METAR COR EGLL 090550Z 22006KT 180V260 9999 FEW029 SCT039
                        15/11 Q1017 NOSIG=
201008090520 METAR COR EGLL 090520Z 21005KT 180V250 9999 BKN038 14/11
                        Q1017 NOSIG=
201008090450 METAR COR EGLL 090450Z 22003KT 9999 SCT035 14/11 Q1017 NOSIG=
201008090420 METAR COR EGLL 090420Z 23006KT CAVOK 14/11 Q1017 NOSIG=
201008090350 METAR COR EGLL 090350Z 22005KT CAVOK 14/11 Q1017 NOSIG=
201008090320 METAR COR EGLL 090320Z 22004KT CAVOK 14/12 Q1017 NOSIG=
201008090250 METAR COR EGLL 090250Z 21004KT CAVOK 15/12 Q1017 NOSIG=
201008090220 METAR COR EGLL 090220Z 21004KT CAVOK 15/12 Q1017 NOSIG=
201008090150 METAR COR EGLL 090150Z 22005KT CAVOK 15/12 Q1018 NOSIG=
201008090120 METAR COR EGLL 090120Z 25006KT 9999 FEW038 16/12 Q1018 NOSIG=
201008090050 METAR COR EGLL 090050Z 22005KT 9999 SCT038 BKN043 17/12 Q1018
                        NOSIG=
201008090020 METAR COR EGLL 090020Z 25006KT 9999 SCT042 17/12 Q1018 NOSIG=
201008082350 METAR COR EGLL 082350Z 25007KT CAVOK 17/12 Q1018 NOSIG=
201008082320 METAR COR EGLL 082320Z 26006KT CAVOK 17/11 Q1018 NOSIG=
201008082250 METAR COR EGLL 082250Z 27008KT CAVOK 18/12 Q1018 NOSIG=
201008082220 METAR COR EGLL 082220Z 23008KT CAVOK 18/13 Q1018 NOSIG=
201008082150 METAR COR EGLL 082150Z 21008KT CAVOK 19/14 Q1019 NOSIG=
201008082120 METAR COR EGLL 082120Z 20007KT CAVOK 20/13 Q1019 NOSIG=
201008082050 METAR COR EGLL 082050Z 18007KT CAVOK 21/12 Q1019 NOSIG=
201008082020 METAR COR EGLL 082020Z 16007KT CAVOK 21/09 Q1019 NOSIG=
201008081950 METAR COR EGLL 081950Z 14006KT CAVOK 22/08 Q1019 NOSIG=
201008081920 METAR COR EGLL 081920Z 11006KT CAVOK 22/08 Q1018 NOSIG=
201008081850 METAR COR EGLL 081850Z 13006KT CAVOK 22/08 Q1018 NOSIG=
201008081820 METAR COR EGLL 081820Z 08004KT 010V110 CAVOK 23/08 Q1018
                        NOSIG=
201008081750 METAR COR EGLL 081750Z VRB02KT CAVOK 23/08 Q1018 NOSIG=
201008081720 METAR COR EGLL 081720Z VRB03KT CAVOK 24/07 Q1019 NOSIG=
201008081650 METAR COR EGLL 081650Z VRB03KT CAVOK 23/08 Q1019 NOSIG=
201008081620 METAR COR EGLL 081620Z VRB03KT CAVOK 23/08 Q1019 NOSIG=
201008081550 METAR COR EGLL 081550Z 36005KT 320V060 CAVOK 25/08 Q1019
                        NOSIG=
201008081520 METAR COR EGLL 081520Z VRB03KT CAVOK 24/07 Q1019 NOSIG=
201008081450 METAR COR EGLL 081450Z VRB03KT CAVOK 24/07 Q1020 NOSIG=
201008081420 METAR COR EGLL 081420Z 02005KT 300V090 CAVOK 23/08 Q1020
                        NOSIG=
201008081350 METAR COR EGLL 081350Z VRB05KT CAVOK 23/08 Q1020 NOSIG=
201008081320 METAR COR EGLL 081320Z 05005KT 360V090 CAVOK 24/08 Q1020
                        NOSIG=
201008081250 METAR COR EGLL 081250Z VRB06KT CAVOK 23/09 Q1020 NOSIG=
201008081220 METAR COR EGLL 081220Z 33006KT 290V050 CAVOK 23/10 Q1020
                        NOSIG=
201008081150 METAR COR EGLL 081150Z 34005KT 280V050 9999 FEW037 22/10
                        Q1020 NOSIG=
201008081120 METAR COR EGLL 081120Z VRB05KT 9999 FEW032 22/11 Q1020 NOSIG=
201008081050 METAR COR EGLL 081050Z 34006KT 290V020 9999 FEW032 21/11
                        Q1021 NOSIG=
201008081020 METAR COR EGLL 081020Z VRB03KT 9999 FEW024 20/12 Q1021 NOSIG=
201008080950 METAR COR EGLL 080950Z 36005KT 320V050 9999 FEW024 20/12
                        Q1021 NOSIG=
201008080920 METAR COR EGLL 080920Z 34005KT 290V030 9999 FEW020 SCT026
                        19/12 Q1021 NOSIG=
201008080850 METAR COR EGLL 080850Z 33005KT 300V020 9999 FEW014 BKN028
                        18/12 Q1021 NOSIG=
201008080820 METAR COR EGLL 080820Z 34005KT 9999 SCT015 BKN022 17/13 Q1021
                        NOSIG=
201008080750 METAR COR EGLL 080750Z 33004KT 300V360 9999 FEW013 BKN021
                        17/13 Q1020 NOSIG=
201008080720 METAR COR EGLL 080720Z 34004KT 270V020 9999 FEW013 OVC026
                        16/13 Q1020 NOSIG=
201008080650 METAR COR EGLL 080650Z 32005KT 290V350 9999 BKN028 16/13
                        Q1020 NOSIG=
201008080620 METAR COR EGLL 080620Z 32004KT 280V350 9999 BKN026 16/13
                        Q1020 NOSIG=
201008080550 METAR COR EGLL 080550Z 32004KT 290V010 9999 BKN022 15/13
                        Q1020 NOSIG=
201008080520 METAR COR EGLL 080520Z 32004KT 9999 FEW012 BKN023 15/13 Q1019
                        TEMPO BKN012=
201008080450 METAR COR EGLL 080450Z 31004KT 280V350 9999 FEW012 BKN024
                        15/13 Q1019 TEMPO BKN012=
201008080420 METAR COR EGLL 080420Z VRB03KT 9999 BKN022 14/12 Q1019 BECMG
                        BKN014=
201008080350 METAR COR EGLL 080350Z 28005KT 9999 BKN020 14/12 Q1019 BECMG
                        BKN014=
201008080320 METAR COR EGLL 080320Z VRB03KT CAVOK 14/12 Q1019 BECMG BKN012=
201008080250 METAR COR EGLL 080250Z 31004KT CAVOK 14/12 Q1019 BECMG BKN012=
201008080220 METAR COR EGLL 080220Z 30004KT 270V350 CAVOK 14/12 Q1018
                        BECMG BKN012=
201008080150 METAR COR EGLL 080150Z 31004KT 280V350 CAVOK 14/12 Q1018
                        NOSIG=
201008080120 METAR COR EGLL 080120Z 28005KT CAVOK 15/12 Q1018 NOSIG=
201008080050 METAR COR EGLL 080050Z 30004KT 270V330 CAVOK 15/12 Q1018
                        NOSIG=
201008080020 METAR COR EGLL 080020Z 31006KT CAVOK 15/12 Q1018 NOSIG=
201008072350 METAR COR EGLL 072350Z 32005KT CAVOK 16/13 Q1018 NOSIG=
201008072320 METAR COR EGLL 072320Z 31006KT 280V350 CAVOK 16/13 Q1018
                        NOSIG=
201008072250 METAR COR EGLL 072250Z 32006KT 290V360 CAVOK 17/13 Q1018
                        NOSIG=
201008072220 METAR COR EGLL 072220Z 31005KT 280V350 9999 FEW036 17/13
                        Q1017 NOSIG=
201008072150 METAR COR EGLL 072150Z 30004KT 9999 FEW036 17/13 Q1017 NOSIG=
201008072120 METAR COR EGLL 072120Z 30004KT 9999 FEW049 17/13 Q1017 NOSIG=
201008072050 METAR COR EGLL 072050Z 30005KT 9999 FEW049 18/13 Q1017 NOSIG=
201008072020 METAR COR EGLL 072020Z 29006KT 9999 FEW039 18/14 Q1017 NOSIG=
201008071950 METAR COR EGLL 071950Z 30005KT CAVOK 19/14 Q1016 NOSIG=
201008071920 METAR COR EGLL 071920Z 29006KT 9999 FEW022 19/13 Q1016 NOSIG=
201008071850 METAR COR EGLL 071850Z 28006KT 9999 SCT034 20/13 Q1016 NOSIG=
201008071820 METAR COR EGLL 071820Z 31005KT 280V340 9999 FEW036 20/13
                        Q1015 NOSIG=
201008071750 METAR COR EGLL 071750Z 30008KT 9999 FEW049 21/12 Q1015 NOSIG=
201008071720 METAR COR EGLL 071720Z 29006KT 260V010 9999 FEW023 21/13
                        Q1015 NOSIG=
201008071650 METAR COR EGLL 071650Z 23007KT 180V270 9999 SCT033 20/15
                        Q1015 NOSIG=
201008071620 METAR COR EGLL 071620Z 21008KT 170V250 9999 FEW034 20/15
                        Q1015 NOSIG=
201008071550 METAR COR EGLL 071550Z 19009KT 150V230 9999 FEW035 20/15
                        Q1015 NOSIG=
201008071520 METAR COR EGLL 071520Z 21005KT 160V280 9999 BKN028 20/15
                        Q1015 NOSIG=
201008071450 METAR COR EGLL 071450Z 26008KT 230V290 CAVOK 20/15 Q1015
                        NOSIG=
201008071420 METAR COR EGLL 071420Z 25008KT 220V280 9999 FEW030 BKN048
                        19/15 Q1015 NOSIG=
201008071350 METAR COR EGLL 071350Z 26009KT 9000 -RA FEW017 SCT028 17/15
                        Q1015 RERA NOSIG=
201008071320 METAR COR EGLL 071320Z 23007KT 190V260 9999 VCSH SCT025 BKN049
                        20/13 Q1014 NOSIG=
201008071250 METAR COR EGLL 071250Z 24011KT 9999 -RA SCT025 20/13 Q1014
                        NOSIG=
201008071220 METAR COR EGLL 071220Z 21010KT 180V250 9999 SCT025 20/13
                        Q1014 NOSIG=
201008071150 METAR COR EGLL 071150Z 24011KT 210V280 9999 SCT024 SCT042
                        21/14 Q1014 NOSIG=
201008071120 METAR COR EGLL 071120Z 23008KT 190V270 9999 SCT040 20/14
                        Q1014 NOSIG=
201008071050 METAR COR EGLL 071050Z 23008KT 9999 SCT040 BKN046 19/14 Q1014
                        NOSIG=
201008071020 METAR COR EGLL 071020Z 22009KT 9999 SCT034 BKN043 19/14 Q1014
                        NOSIG=
201008070950 METAR COR EGLL 070950Z 23007KT 180V260 9999 SCT017 BKN042
                        19/14 Q1014 NOSIG=
201008070920 METAR COR EGLL 070920Z 23008KT 190V250 9999 SCT014 BKN040
                        19/15 Q1014 NOSIG=
201008070850 METAR COR EGLL 070850Z 22007KT 9999 SCT019 BKN041 18/15 Q1014
                        NOSIG=
201008070820 METAR COR EGLL 070820Z 24007KT 210V270 9999 SCT011 SCT020
                        BKN041 18/15 Q1014 NOSIG=
201008070750 METAR COR EGLL 070750Z 24008KT 9999 SCT010 BKN042 18/15 Q1014
                        NOSIG=
201008070720 METAR COR EGLL 070720Z 25008KT 210V280 9999 SCT009 BKN038
                        17/15 Q1014 NOSIG=
201008070650 METAR COR EGLL 070650Z 22007KT 9999 SCT007 SCT020 BKN043
                        17/15 Q1014 NOSIG=
201008070620 METAR COR EGLL 070620Z 21006KT 180V250 9999 SCT008 SCT020
                        BKN042 17/15 Q1014 NOSIG=
201008070550 METAR COR EGLL 070550Z 21006KT 160V250 9999 BKN041 16/15
                        Q1014 NOSIG=
201008070520 METAR COR EGLL 070520Z 20007KT 170V250 9999 FEW014 BKN044
                        16/15 Q1014 NOSIG=
201008070450 METAR COR EGLL 070450Z 20006KT 9999 FEW016 BKN033 16/15 Q1014
                        NOSIG=
201008070420 METAR COR EGLL 070420Z 21006KT 9000 -RA BKN031 16/15 Q1014
                        RERA NOSIG=
201008070350 METAR COR EGLL 070350Z 22008KT 8000 RA FEW012 BKN033 16/15
                        Q1014 BECMG NSW=
201008070320 METAR COR EGLL 070320Z 22006KT 9999 RA SCT013 BKN032 17/15
                        Q1014 RERA TEMPO BKN013=
201008070250 METAR COR EGLL 070250Z 22008KT 9999 -RA SCT013 SCT032 17/14
                        Q1014 RERA TEMPO RA BKN013=
201008070220 METAR COR EGLL 070220Z 22009KT 9999 SCT013 SCT031 17/15 Q1014
                        TEMPO RA BKN013=
201008070150 METAR COR EGLL 070150Z 22010KT 9999 SCT013 SCT032 18/14 Q1014
                        TEMPO BKN013=
201008070120 METAR COR EGLL 070120Z 22009KT 9999 FEW015 BKN034 18/14 Q1014
                        TEMPO BKN014=
201008070050 METAR COR EGLL 070050Z 22010KT 9999 FEW015 18/15 Q1014 TEMPO
                        BKN014=
201008070020 METAR COR EGLL 070020Z 21008KT 9999 BKN017 18/15 Q1014 TEMPO
                        BKN012=
201008062350 METAR COR EGLL 062350Z 21009KT 9999 SCT013 18/15 Q1014 TEMPO
                        BKN013=
201008062320 METAR COR EGLL 062320Z 21010KT 9999 FEW018 18/15 Q1014 NOSIG=
201008062250 METAR COR EGLL 062250Z 21010KT 9999 SCT017 BKN031 18/15 Q1014
                        NOSIG=
201008062220 METAR COR EGLL 062220Z 21010KT 9999 SCT017 BKN031 18/15 Q1014
                        NOSIG=
201008062150 METAR COR EGLL 062150Z 21011KT 180V240 9999 SCT022 BKN029
                        19/15 Q1014 NOSIG=
201008062120 METAR COR EGLL 062120Z 22010KT 180V250 9999 BKN020 19/15
                        Q1014 NOSIG=
201008062050 METAR COR EGLL 062050Z 22011KT 9999 BKN014 19/15 Q1014 BECMG
                        BKN020=
201008062020 METAR COR EGLL 062020Z 22011KT 9999 BKN021 18/16 Q1014 NOSIG=
201008061950 METAR COR EGLL 061950Z 22009KT 9999 BKN014 BKN024 18/16 Q1014
                        BECMG SCT014 BKN025=
201008061920 METAR COR EGLL 061920Z 22011KT 9999 BKN010 18/16 Q1014 BECMG
                        BKN015=
201008061850 METAR COR EGLL 061850Z 21011KT 190V250 9999 BKN010 18/16
                        Q1014 BECMG BKN015=
201008061820 METAR COR EGLL 061820Z 21012KT 9999 BKN008 18/16 Q1014 BECMG
                        BKN012=
201008061750 METAR COR EGLL 061750Z 20013KT 180V250 9999 SCT009 19/15
                        Q1014 TEMPO BKN010=
201008061720 METAR COR EGLL 061720Z 20014KT 9999 BKN012 19/15 Q1014 NOSIG=
201008061650 METAR COR EGLL 061650Z 19013KT 170V240 9999 BKN011 19/15
                        Q1014 NOSIG=
201008061620 METAR COR EGLL 061620Z 20015KT 170V240 9999 BKN012 19/15
                        Q1014 NOSIG=
201008061550 METAR COR EGLL 061550Z 20016KT 170V230 9999 BKN016 BKN021
                        19/15 Q1014 TEMPO BKN014=
201008061520 METAR COR EGLL 061520Z 20015KT 9999 BKN020 20/14 Q1014 NOSIG=
201008061450 METAR COR EGLL 061450Z 20013KT 170V230 9999 SCT024 20/13
                        Q1014 NOSIG=
201008061420 METAR COR EGLL 061420Z 21012KT 180V240 9999 SCT023 20/13
                        Q1015 NOSIG=
201008061350 METAR COR EGLL 061350Z 22013KT 9999 BKN021 20/14 Q1015 NOSIG=
201008061320 METAR COR EGLL 061320Z 21012KT 9999 -RA BKN020 20/13 Q1015
                        TEMPO BKN014=
201008061250 METAR COR EGLL 061250Z 21013KT 9999 BKN022 20/13 Q1015 TEMPO
                        BKN014=
201008061220 METAR COR EGLL 061220Z 22013KT 9999 BKN025 20/13 Q1015 NOSIG=
201008061150 METAR COR EGLL 061150Z 20014KT 9999 SCT027 BKN030 21/12 Q1015
                        NOSIG=
201008061120 METAR COR EGLL 061120Z 20012G24KT 180V240 9999 SCT030 BKN034
                        20/12 Q1015 BECMG 20010KT=
201008061050 METAR COR EGLL 061050Z 20014KT 160V230 9999 FEW030 BKN034
                        21/11 Q1015 NOSIG=
201008061020 METAR COR EGLL 061020Z 21011KT 180V240 9999 BKN033 21/11
                        Q1015 NOSIG=
201008060950 METAR COR EGLL 060950Z 19011KT 160V230 9999 SCT033 BKN039
                        20/10 Q1015 NOSIG=
201008060920 METAR COR EGLL 060920Z 20010KT 150V230 9999 FEW024 SCT030
                        19/10 Q1015 NOSIG=
201008060850 METAR COR EGLL 060850Z 22010KT 190V250 9999 FEW024 19/10
                        Q1015 NOSIG=
201008060820 METAR COR EGLL 060820Z 21010KT 170V250 9999 FEW024 18/11
                        Q1015 NOSIG=
201008060750 METAR COR EGLL 060750Z 21006KT 170V250 CAVOK 17/12 Q1016
                        NOSIG=
201008060720 METAR COR EGLL 060720Z 22006KT 180V260 CAVOK 16/12 Q1016
                        NOSIG=
201008060650 METAR COR EGLL 060650Z 21005KT CAVOK 14/11 Q1016 NOSIG=
201008060620 METAR COR EGLL 060620Z 19006KT 130V230 CAVOK 13/11 Q1016
                        NOSIG=
201008060550 METAR COR EGLL 060550Z 18004KT 120V220 CAVOK 13/11 Q1016
                        NOSIG=
201008060520 METAR COR EGLL 060520Z 17004KT 110V210 CAVOK 12/10 Q1015
                        NOSIG=
201008060450 METAR COR EGLL 060450Z 17004KT CAVOK 11/10 Q1015 NOSIG=
201008060420 METAR COR EGLL 060420Z 19005KT CAVOK 11/09 Q1015 NOSIG=
201008060350 METAR COR EGLL 060350Z 21004KT 190V260 CAVOK 11/10 Q1015
                        NOSIG=
201008060320 METAR COR EGLL 060320Z 00000KT CAVOK 12/10 Q1015 NOSIG=
201008060250 METAR COR EGLL 060250Z 22002KT CAVOK 12/10 Q1015 NOSIG=
201008060220 METAR COR EGLL 060220Z 00000KT 9999 FEW044 12/10 Q1015 NOSIG=
201008060150 METAR COR EGLL 060150Z VRB02KT 9999 SCT045 12/10 Q1015 NOSIG=
201008060120 METAR COR EGLL 060120Z 26003KT CAVOK 13/09 Q1015 NOSIG=
201008060050 METAR COR EGLL 060050Z 27004KT CAVOK 13/09 Q1015 NOSIG=
201008060020 METAR COR EGLL 060020Z 28004KT CAVOK 14/08 Q1015 NOSIG=
201008052350 METAR COR EGLL 052350Z 28003KT CAVOK 13/08 Q1015 NOSIG=
201008052320 METAR COR EGLL 052320Z 29002KT CAVOK 14/08 Q1015 NOSIG=
201008052250 METAR COR EGLL 052250Z 30004KT CAVOK 15/08 Q1015 NOSIG=
201008052220 METAR COR EGLL 052220Z 30004KT CAVOK 16/08 Q1015 NOSIG=
201008052150 METAR COR EGLL 052150Z VRB03KT CAVOK 16/08 Q1015 NOSIG=
201008052120 METAR COR EGLL 052120Z 33004KT 300V010 CAVOK 17/08 Q1015
                        NOSIG=
201008052050 METAR COR EGLL 052050Z 31004KT CAVOK 17/07 Q1014 NOSIG=
201008052020 METAR COR EGLL 052020Z 31004KT CAVOK 18/07 Q1014 NOSIG=
201008051950 METAR COR EGLL 051950Z 31004KT CAVOK 18/07 Q1014 NOSIG=
201008051920 METAR COR EGLL 051920Z 27009KT CAVOK 19/07 Q1014 NOSIG=
201008051850 METAR COR EGLL 051850Z 28007KT 250V310 CAVOK 19/07 Q1013
                        NOSIG=
201008051820 METAR COR EGLL 051820Z 30006KT 270V330 CAVOK 19/07 Q1013
                        NOSIG=
201008051750 METAR COR EGLL 051750Z 31007KT CAVOK 20/07 Q1013 NOSIG=
201008051720 METAR EGLL 051720Z 30009KT CAVOK 20/06 Q1013=
201008051650 METAR COR EGLL 051650Z 29011KT CAVOK 20/06 Q1013 NOSIG=
201008051620 METAR EGLL 051620Z 27012KT CAVOK 20/06 Q1013=
201008051550 METAR COR EGLL 051550Z 28011KT CAVOK 20/07 Q1013 NOSIG=
201008051520 METAR COR EGLL 051520Z 28013KT 250V320 CAVOK 21/06 Q1013
                        NOSIG=
201008051450 METAR COR EGLL 051450Z 27015KT CAVOK 20/06 Q1013 NOSIG=
201008051420 METAR COR EGLL 051420Z 30010KT CAVOK 21/07 Q1013 NOSIG=
201008051350 METAR COR EGLL 051350Z 30011KT CAVOK 21/06 Q1013 NOSIG=
201008051320 METAR COR EGLL 051320Z 28012KT 260V330 CAVOK 20/06 Q1013
                        NOSIG=
201008051250 METAR EGLL 051250Z 29014KT CAVOK 21/06 Q1012=
201008051220 METAR EGLL 051220Z 31009KT 260V350 CAVOK 20/05 Q1012=
201008051150 METAR COR EGLL 051150Z 29011KT 260V320 CAVOK 20/06 Q1012
                        NOSIG=
201008051120 METAR COR EGLL 051120Z 28009KT 250V340 9999 SCT044 19/06
                        Q1012 NOSIG=
201008051050 METAR EGLL 051050Z 26011KT 9999 FEW043 19/07 Q1012=
201008051020 METAR COR EGLL 051020Z 28011KT 250V330 9999 FEW037 SCT044
                        18/08 Q1012 NOSIG=
201008050950 METAR COR EGLL 050950Z 29009KT 270V330 9999 FEW037 18/08
                        Q1012 NOSIG=
201008050920 METAR EGLL 050920Z 28011KT 9999 FEW038 18/08 Q1012=
201008050850 METAR COR EGLL 050850Z 28009KT 9999 FEW032 17/09 Q1012 NOSIG=
201008050820 METAR COR EGLL 050820Z 30012KT 9999 FEW026 17/09 Q1012 NOSIG=
201008050750 METAR EGLL 050750Z 29009KT 260V330 CAVOK 16/10 Q1012=
201008050720 METAR COR EGLL 050720Z 29010KT CAVOK 15/10 Q1012 NOSIG=
201008050650 METAR COR EGLL 050650Z 28009KT CAVOK 14/10 Q1012 NOSIG=
201008050620 METAR COR EGLL 050620Z 29007KT CAVOK 13/10 Q1012 NOSIG=
201008050550 METAR COR EGLL 050550Z 29009KT CAVOK 12/09 Q1012 NOSIG=
201008050520 METAR COR EGLL 050520Z 28007KT CAVOK 12/09 Q1011 NOSIG=
201008050450 METAR COR EGLL 050450Z 28008KT CAVOK 12/09 Q1011 NOSIG=
201008050420 METAR COR EGLL 050420Z 29006KT CAVOK 12/09 Q1011 NOSIG=
201008050350 METAR COR EGLL 050350Z 29005KT CAVOK 12/09 Q1011 NOSIG=
201008050320 METAR COR EGLL 050320Z 28006KT CAVOK 12/09 Q1010 NOSIG=
201008050250 METAR COR EGLL 050250Z 29007KT CAVOK 12/09 Q1010 NOSIG=
201008050220 METAR COR EGLL 050220Z 28008KT CAVOK 13/09 Q1010 NOSIG=
201008050150 METAR COR EGLL 050150Z 28007KT CAVOK 12/09 Q1010 NOSIG=
201008050120 METAR COR EGLL 050120Z 30006KT CAVOK 13/09 Q1010 NOSIG=
201008050050 METAR COR EGLL 050050Z 29006KT CAVOK 13/09 Q1010 NOSIG=
201008050020 METAR COR EGLL 050020Z 29007KT CAVOK 13/09 Q1010 NOSIG=
201008042350 METAR COR EGLL 042350Z 28004KT CAVOK 12/09 Q1010 NOSIG=
201008042320 METAR COR EGLL 042320Z 29006KT CAVOK 13/09 Q1010 NOSIG=
201008042250 METAR COR EGLL 042250Z 28004KT CAVOK 13/09 Q1009 NOSIG=
201008042220 METAR COR EGLL 042220Z 30004KT CAVOK 14/09 Q1009 NOSIG=
201008042150 METAR COR EGLL 042150Z 31005KT CAVOK 14/10 Q1009 NOSIG=
201008042120 METAR COR EGLL 042120Z 28006KT CAVOK 15/10 Q1009 NOSIG=
201008042050 METAR COR EGLL 042050Z 31005KT CAVOK 15/11 Q1009 NOSIG=
201008042020 METAR COR EGLL 042020Z 31004KT CAVOK 15/11 Q1009 NOSIG=
201008041950 METAR COR EGLL 041950Z 32004KT 290V350 CAVOK 15/11 Q1008
                        NOSIG=
201008041920 METAR COR EGLL 041920Z 34005KT 310V020 9999 FEW045 16/11
                        Q1008 NOSIG=
201008041850 METAR COR EGLL 041850Z 36008KT 330V050 9999 FEW040 16/11
                        Q1008 NOSIG=
201008041820 METAR COR EGLL 041820Z 32012G22KT 9999 FEW040 18/09 Q1007
                        NOSIG=
201008041750 METAR COR EGLL 041750Z 33007KT 300V360 9999 FEW036 18/10
                        Q1007 NOSIG=
201008041720 METAR COR EGLL 041720Z 31008KT 280V360 9999 FEW035 18/11
                        Q1007 NOSIG=
201008041650 METAR COR EGLL 041650Z 31007KT 9999 FEW045 18/11 Q1006 NOSIG=
201008041620 METAR COR EGLL 041620Z 32008KT 290V360 9999 SCT042 18/12
                        Q1006 NOSIG=
201008041550 METAR EGLL 041550Z 32009KT 300V360 9999 FEW029 SCT042 18/12
                        Q1006=
201008041520 METAR EGLL 041520Z 35007KT 310V020 9999 SCT023CB 19/13 Q1006=
201008041450 METAR COR EGLL 041450Z 34007KT 300V030 9999 SCT015CB 18/13
                        Q1006 NOSIG=
201008041420 METAR COR EGLL 041420Z 36008KT 9999 SCT015CB 16/14 Q1006
                        NOSIG=
201008041350 METAR COR EGLL 041350Z 32007KT 300V360 9999 FEW022CB SCT040
                        16/14 Q1005 NOSIG=
201008041320 METAR COR EGLL 041320Z 31009KT 260V330 9999 3800E -SHRA FEW021CB
                        SCT040 16/13 Q1005 TEMPO 2000 +TSRA
                        BKN014CB=
201008041250 METAR COR EGLL 041250Z 21011KT 9999 FEW021 SCT033 19/14 Q1005
                        TEMPO 3000 +SHRA=
201008041220 METAR COR EGLL 041220Z 22013KT 9999 FEW016 SCT023 BKN033
                        19/14 Q1005 TEMPO SHRA=
201008041150 METAR COR EGLL 041150Z 23009KT 200V260 9999 FEW014 SCT029
                        19/15 Q1005 TEMPO 3000 +SHRA=
201008041120 METAR COR EGLL 041120Z 23011KT 9000 -RA SCT022 BKN044 17/15
                        Q1006 TEMPO 3000 +SHRA=
201008041050 METAR COR EGLL 041050Z 24014KT 8000 -RA FEW028 SCT032 BKN037
                        18/13 Q1006 TEMPO 4000 SHRA=
201008041020 METAR EGLL 041020Z 25012KT 9999 FEW026 SCT031 BKN039 19/12
                        Q1006 TEMPO 4000 SHRA=
201008040950 METAR COR EGLL 040950Z 23010KT 9999 SCT026 BKN034 18/12 Q1007
                        TEMPO SHRA=
201008040920 METAR COR EGLL 040920Z 24010KT 9999 SCT021 SCT038 18/12 Q1007
                        TEMPO SHRA=
201008040850 METAR COR EGLL 040850Z 23009KT 9999 SCT020 BKN034 17/12 Q1007
                        TEMPO SHRA=
201008040820 METAR COR EGLL 040820Z 24008KT 9999 SCT022 BKN031 16/12 Q1007
                        TEMPO 5000 SHRA=
201008040750 METAR COR EGLL 040750Z 24009KT 9999 BKN035 16/12 Q1008 NOSIG=
201008040720 METAR COR EGLL 040720Z 24010KT 9999 SCT042 16/12 Q1008 NOSIG=
201008040650 METAR COR EGLL 040650Z 24010KT CAVOK 16/12 Q1008 NOSIG=
201008040620 METAR COR EGLL 040620Z 24009KT CAVOK 15/12 Q1008 NOSIG=
201008040550 METAR COR EGLL 040550Z 24009KT 190V270 9999 FEW023 15/12
                        Q1008 NOSIG=
201008040520 METAR COR EGLL 040520Z 25007KT CAVOK 15/12 Q1009 NOSIG=
201008040450 METAR COR EGLL 040450Z 26007KT 9999 FEW016 15/12 Q1009 NOSIG=
201008040420 METAR COR EGLL 040420Z 27008KT 9999 FEW034 15/12 Q1009 NOSIG=
201008040350 METAR COR EGLL 040350Z 26010KT 9999 SCT028 15/12 Q1009 NOSIG=
201008040320 METAR COR EGLL 040320Z 27009KT 9999 -RA FEW016 SCT029 15/12
                        Q1009 NOSIG=
201008040250 METAR COR EGLL 040250Z 26009KT 9999 -SHRA FEW040 15/12 Q1009
                        NOSIG=
201008040220 METAR COR EGLL 040220Z 25009KT 9999 FEW043 16/12 Q1010 NOSIG=
201008040150 METAR COR EGLL 040150Z 25010KT 9999 FEW020 SCT039 16/12 Q1010
                        NOSIG=
201008040120 METAR COR EGLL 040120Z 25011KT 9999 SCT032 16/11 Q1010 NOSIG=
201008040050 METAR COR EGLL 040050Z 26009KT 9999 BKN030 17/12 Q1011 NOSIG=
201008040020 METAR COR EGLL 040020Z 25008KT 9999 FEW031 17/11 Q1011 NOSIG=
201008032350 METAR COR EGLL 032350Z 27009KT 9999 FEW017 SCT034 17/11 Q1011
                        NOSIG=
201008032320 METAR COR EGLL 032320Z 25007KT 9999 SCT017 18/13 Q1011 NOSIG=
201008032250 METAR COR EGLL 032250Z 23008KT 9999 FEW021 SCT030 18/14 Q1012
                        NOSIG=
201008032220 METAR COR EGLL 032220Z 22009KT 9999 FEW022 SCT028 18/14 Q1012
                        NOSIG=
201008032150 METAR COR EGLL 032150Z 22009KT 170V250 9999 FEW042 18/14
                        Q1012 NOSIG=
201008032120 METAR COR EGLL 032120Z 22009KT 180V260 9999 SCT034 18/14
                        Q1013 NOSIG=
201008032050 METAR COR EGLL 032050Z 22011KT 9999 FEW021 18/14 Q1013 NOSIG=
201008032020 METAR COR EGLL 032020Z 23010KT 9999 FEW025 19/14 Q1013 NOSIG=
201008031950 METAR COR EGLL 031950Z 22011KT 9999 FEW025 19/13 Q1013 NOSIG=
201008031920 METAR COR EGLL 031920Z 23011KT 200V260 9999 FEW028 20/13
                        Q1013 NOSIG=
201008031850 METAR COR EGLL 031850Z 22013KT 190V250 9999 FEW032 21/13
                        Q1013 NOSIG=
201008031820 METAR COR EGLL 031820Z 22012KT 9999 SCT036 21/13 Q1013 NOSIG=
201008031750 METAR COR EGLL 031750Z 23011KT 9999 SCT037 SCT043 21/13 Q1014
                        NOSIG=
201008031720 METAR COR EGLL 031720Z 23011KT 9999 FEW037 SCT042 21/12 Q1014
                        NOSIG=
201008031650 METAR COR EGLL 031650Z 24008KT 210V280 9999 FEW038 SCT047
                        21/12 Q1014 NOSIG=
201008031620 METAR EGLL 031620Z 25013KT 200V280 9999 VCSH FEW037 SCT045
                        21/12 Q1014=
201008031550 METAR EGLL 031550Z 25011KT 9999 FEW044 22/11 Q1014=
201008031520 METAR COR EGLL 031520Z 23012KT 190V270 9999 SCT039 22/11
                        Q1015 NOSIG=
201008031450 METAR COR EGLL 031450Z 23010KT 190V250 9999 SCT039 SCT042
                        22/11 Q1015 NOSIG=
201008031420 METAR COR EGLL 031420Z 26009KT 200V290 9999 SCT039 SCT042
                        21/11 Q1015 NOSIG=
201008031350 METAR COR EGLL 031350Z 22008KT 180V270 9999 SCT040 SCT046
                        21/10 Q1016 NOSIG=
201008031320 METAR COR EGLL 031320Z 26009KT 220V300 9999 SCT041 SCT047
                        21/10 Q1016 NOSIG=
201008031250 METAR COR EGLL 031250Z 25008KT 210V290 9999 FEW039 SCT045
                        21/10 Q1016 NOSIG=
201008031220 METAR COR EGLL 031220Z 25008KT 210V290 9999 FEW039 SCT045
                        21/10 Q1016 NOSIG=
201008031150 METAR COR EGLL 031150Z 27007KT 240V310 9999 SCT037 21/10
                        Q1016 NOSIG=
201008031120 METAR EGLL 031120Z 27007KT 220V320 9999 FEW035 20/10 Q1016=
201008031050 METAR COR EGLL 031050Z 28008KT 240V330 CAVOK 19/10 Q1017
                        NOSIG=
201008031020 METAR COR EGLL 031020Z 27007KT 9999 FEW036 19/10 Q1017 NOSIG=
201008030950 METAR COR EGLL 030950Z 26007KT 9999 FEW033 19/10 Q1017 NOSIG=
201008030920 METAR EGLL 030920Z 26009KT 9999 FEW030 18/10 Q1017=
201008030850 METAR COR EGLL 030850Z 27004KT 190V350 9999 FEW030 19/10
                        Q1017 NOSIG=
201008030820 METAR EGLL 030820Z 28004KT 240V340 9999 FEW028 17/10 Q1018=
201008030750 METAR COR EGLL 030750Z VRB03KT CAVOK 17/10 Q1017 NOSIG=
201008030720 METAR COR EGLL 030720Z VRB02KT CAVOK 15/10 Q1017 NOSIG=
201008030650 METAR COR EGLL 030650Z VRB03KT CAVOK 14/10 Q1018 NOSIG=
201008030620 METAR COR EGLL 030620Z 30005KT 270V330 CAVOK 13/10 Q1018
                        NOSIG=
201008030550 METAR COR EGLL 030550Z 26004KT CAVOK 13/10 Q1017 NOSIG=
201008030520 METAR COR EGLL 030520Z 28004KT CAVOK 12/09 Q1017 NOSIG=
201008030450 METAR COR EGLL 030450Z 28006KT CAVOK 12/09 Q1017 NOSIG=
201008030420 METAR COR EGLL 030420Z 27006KT CAVOK 12/09 Q1017 NOSIG=
201008030350 METAR COR EGLL 030350Z 27006KT CAVOK 12/09 Q1017 NOSIG=
201008030320 METAR COR EGLL 030320Z 29004KT CAVOK 13/09 Q1017 NOSIG=
201008030250 METAR COR EGLL 030250Z 29004KT CAVOK 13/10 Q1017 NOSIG=
201008030220 METAR EGLL 030220Z 29004KT CAVOK 13/10 Q1017=
201008030150 METAR COR EGLL 030150Z 29005KT CAVOK 14/10 Q1017 NOSIG=
201008030120 METAR COR EGLL 030120Z 29004KT CAVOK 14/11 Q1017 NOSIG=
201008030050 METAR COR EGLL 030050Z 27003KT CAVOK 14/11 Q1017 NOSIG=
201008030020 METAR COR EGLL 030020Z VRB03KT CAVOK 15/11 Q1017 NOSIG=
201008022350 METAR EGLL 022350Z VRB02KT CAVOK 15/11 Q1018=
201008022320 METAR COR EGLL 022320Z VRB02KT CAVOK 15/11 Q1018 NOSIG=
201008022250 METAR COR EGLL 022250Z 08002KT CAVOK 15/11 Q1018 NOSIG=
201008022220 METAR COR EGLL 022220Z 07002KT CAVOK 17/11 Q1018 NOSIG=
201008022150 METAR COR EGLL 022150Z VRB02KT CAVOK 17/10 Q1018 NOSIG=
201008022120 METAR COR EGLL 022120Z 03002KT CAVOK 18/10 Q1018 NOSIG=
201008022050 METAR COR EGLL 022050Z 04004KT CAVOK 18/10 Q1018 NOSIG=
201008022020 METAR COR EGLL 022020Z 04004KT CAVOK 19/10 Q1017 NOSIG=
201008021950 METAR COR EGLL 021950Z 06004KT CAVOK 19/10 Q1017 NOSIG=
201008021920 METAR COR EGLL 021920Z 06004KT CAVOK 20/11 Q1017 NOSIG=
201008021850 METAR COR EGLL 021850Z 05005KT 020V090 CAVOK 21/09 Q1017
                        NOSIG=
201008021820 METAR COR EGLL 021820Z 33005KT 290V360 CAVOK 21/08 Q1017
                        NOSIG=
201008021750 METAR EGLL 021750Z 33005KT 290V010 CAVOK 22/08 Q1017=
201008021720 METAR COR EGLL 021720Z 34005KT 300V010 9999 FEW049 21/09
                        Q1017 NOSIG=
201008021650 METAR COR EGLL 021650Z 31005KT 270V350 CAVOK 22/08 Q1017
                        NOSIG=
201008021620 METAR COR EGLL 021620Z 35005KT 320V020 CAVOK 22/09 Q1017
                        NOSIG=
201008021550 METAR EGLL 021550Z 35007KT 310V010 9999 FEW049 22/09 Q1017=
201008021520 METAR COR EGLL 021520Z 35006KT 310V040 9999 FEW048 22/09
                        Q1017 NOSIG=
201008021450 METAR COR EGLL 021450Z 36005KT 320V040 9999 FEW048 22/09
                        Q1017 NOSIG=
201008021420 METAR EGLL 021420Z 01007KT 330V050 9999 SCT046 22/09 Q1017=
201008021350 METAR COR EGLL 021350Z VRB05KT 9999 FEW042 23/10 Q1017 NOSIG=
201008021320 METAR COR EGLL 021320Z 36007KT 320V030 9999 FEW042 21/10
                        Q1017 NOSIG=
201008021250 METAR COR EGLL 021250Z 31008KT 280V350 9999 FEW042 23/09
                        Q1017=
201008021220 METAR EGLL 021220Z 35007KT 300V040 9999 SCT042 22/10 Q1017=
201008021150 METAR COR EGLL 021150Z 31006KT 260V360 9999 SCT038 22/10
                        Q1017 NOSIG=
201008021120 METAR COR EGLL 021120Z 32007KT 280V020 9999 FEW038 SCT048
                        20/10 Q1017 NOSIG=
201008021050 METAR COR EGLL 021050Z 32007KT 270V090 9999 FEW038 SCT044
                        20/10 Q1017 NOSIG=
201008021020 METAR COR EGLL 021020Z 33007KT 290V040 9999 FEW027 SCT032
                        21/11 Q1017 NOSIG=
201008020950 METAR COR EGLL 020950Z 34005KT 260V020 9999 FEW027 19/11
                        Q1017 NOSIG=
201008020920 METAR COR EGLL 020920Z VRB05KT 9999 FEW025 19/11 Q1017 NOSIG=
201008020850 METAR COR EGLL 020850Z 35004KT 290V060 9999 FEW023 18/11
                        Q1017 NOSIG=
201008020820 METAR COR EGLL 020820Z 35004KT 310V030 CAVOK 17/11 Q1017
                        NOSIG=
201008020750 METAR COR EGLL 020750Z 35005KT 310V040 CAVOK 16/11 Q1017
                        NOSIG=
201008020720 METAR COR EGLL 020720Z 36006KT CAVOK 16/11 Q1017 NOSIG=
201008020650 METAR COR EGLL 020650Z 34004KT 300V020 CAVOK 16/11 Q1017
                        NOSIG=
201008020620 METAR COR EGLL 020620Z 35005KT 330V030 CAVOK 16/11 Q1017
                        NOSIG=
201008020550 METAR COR EGLL 020550Z 34005KT 300V020 CAVOK 16/11 Q1016
                        NOSIG=
201008020520 METAR COR EGLL 020520Z VRB03KT 9999 FEW045 16/11 Q1016 NOSIG=
201008020450 METAR COR EGLL 020450Z 32004KT 280V360 9999 BKN041 16/11
                        Q1016 NOSIG=
201008020420 METAR COR EGLL 020420Z VRB03KT 9999 SCT045 15/11 Q1016 NOSIG=
201008020350 METAR COR EGLL 020350Z 30004KT 9999 SCT048 16/11 Q1016 NOSIG=
201008020320 METAR COR EGLL 020320Z 31004KT 280V340 CAVOK 16/11 Q1016
                        NOSIG=
201008020250 METAR COR EGLL 020250Z 36004KT 320V020 9999 SCT047 16/10
                        Q1015 NOSIG=
201008020220 METAR COR EGLL 020220Z 35004KT 320V030 9999 SCT047 17/10
                        Q1015 NOSIG=
201008020150 METAR COR EGLL 020150Z 36004KT 310V030 CAVOK 17/10 Q1015
                        NOSIG=
201008020120 METAR EGLL 020120Z VRB03KT CAVOK 17/11 Q1015=
201008020050 METAR COR EGLL 020050Z VRB03KT CAVOK 17/11 Q1015 NOSIG=
201008020020 METAR COR EGLL 020020Z VRB03KT CAVOK 17/11 Q1015 NOSIG=
201008012350 METAR COR EGLL 012350Z VRB03KT CAVOK 18/11 Q1015 NOSIG=
201008012320 METAR COR EGLL 012320Z VRB03KT CAVOK 18/11 Q1015 NOSIG=
201008012250 METAR COR EGLL 012250Z 31004KT 9999 BKN046 19/11 Q1015 NOSIG=
201008012220 METAR COR EGLL 012220Z 29005KT 9999 BKN047 19/11 Q1015 NOSIG=
201008012150 METAR COR EGLL 012150Z 28005KT 9999 SCT048 19/10 Q1014 NOSIG=
201008012120 METAR COR EGLL 012120Z VRB03KT CAVOK 19/11 Q1014 NOSIG=
201008012050 METAR COR EGLL 012050Z 29004KT CAVOK 20/11 Q1014 NOSIG=
201008012020 METAR COR EGLL 012020Z 31004KT 9999 -SHRA NSC 20/11 Q1014
                        NOSIG=
201008011950 METAR COR EGLL 011950Z 31005KT CAVOK 20/10 Q1014 NOSIG=
201008011920 METAR COR EGLL 011920Z 31005KT CAVOK 20/10 Q1014 NOSIG=
201008011850 METAR COR EGLL 011850Z 30007KT CAVOK 21/10 Q1013 NOSIG=
201008011820 METAR COR EGLL 011820Z 26008KT CAVOK 21/09 Q1013 NOSIG=
201008011750 METAR COR EGLL 011750Z 27008KT CAVOK 22/08 Q1013 NOSIG=
201008011720 METAR COR EGLL 011720Z 26009KT 220V280 CAVOK 22/08 Q1013
                        NOSIG=
201008011650 METAR COR EGLL 011650Z 26008KT CAVOK 22/08 Q1013 NOSIG=
201008011620 METAR COR EGLL 011620Z 28005KT 250V320 CAVOK 22/09 Q1013
                        NOSIG=
201008011550 METAR COR EGLL 011550Z 24008KT CAVOK 22/09 Q1013 NOSIG=
201008011520 METAR COR EGLL 011520Z 25010KT 210V290 CAVOK 22/09 Q1013
                        NOSIG=
201008011450 METAR COR EGLL 011450Z 28009KT 9999 FEW047 23/09 Q1013 NOSIG=
201008011420 METAR COR EGLL 011420Z 29006KT 250V340 9999 FEW048 22/09
                        Q1013 NOSIG=
201008011350 METAR COR EGLL 011350Z 31005KT 270V360 9999 FEW048 22/10
                        Q1013 NOSIG=
201008011320 METAR COR EGLL 011320Z 26008KT 220V300 9999 FEW041 21/10
                        Q1013 NOSIG=
201008011250 METAR COR EGLL 011250Z 31005KT 260V040 9999 FEW035 22/10
                        Q1013 NOSIG=
201008011220 METAR COR EGLL 011220Z 31007KT 280V350 9999 FEW037 21/11
                        Q1013 NOSIG=
201008011150 METAR COR EGLL 011150Z 28008KT 210V310 9999 FEW040 21/11
                        Q1013 NOSIG=
201008011120 METAR COR EGLL 011120Z 25009KT 210V280 9999 FEW033 20/12
                        Q1013 NOSIG=
201008011050 METAR COR EGLL 011050Z 26009KT 230V310 9999 FEW027 20/11
                        Q1013 NOSIG=
201008011020 METAR COR EGLL 011020Z 26007KT 210V290 9999 FEW036 20/11
                        Q1013 NOSIG=
201008010950 METAR COR EGLL 010950Z 27007KT 9999 FEW028 19/12 Q1013 NOSIG=
201008010920 METAR COR EGLL 010920Z 23008KT 9999 -SHRA FEW020 18/13 Q1013
                        NOSIG=
201008010850 METAR COR EGLL 010850Z 24007KT 220V280 9999 FEW045 19/13
                        Q1013 NOSIG=
201008010820 METAR COR EGLL 010820Z 28005KT 9999 FEW042 18/13 Q1013 NOSIG=
201008010750 METAR COR EGLL 010750Z 27005KT 220V290 9999 VCSH FEW040 BKN049
                        17/13 Q1013 NOSIG=
201008010720 METAR COR EGLL 010720Z 27008KT 9999 VCSH FEW015 BKN037 16/13
                        Q1013 NOSIG=
201008010650 METAR COR EGLL 010650Z 25007KT 9999 FEW039 BKN042 16/13 Q1013
                        NOSIG=
201008010620 METAR COR EGLL 010620Z 24007KT 9999 SCT040 16/13 Q1013 NOSIG=
201008010550 METAR COR EGLL 010550Z 22005KT 180V260 CAVOK 16/13 Q1013
                        NOSIG=
201008010520 METAR COR EGLL 010520Z 25006KT 210V270 CAVOK 15/12 Q1013
                        NOSIG=
201008010450 METAR COR EGLL 010450Z 24005KT CAVOK 15/12 Q1012 NOSIG=
201008010420 METAR COR EGLL 010420Z 22006KT CAVOK 14/12 Q1012 NOSIG=
201008010350 METAR COR EGLL 010350Z 21004KT CAVOK 15/12 Q1012 NOSIG=
201008010320 METAR COR EGLL 010320Z 21005KT CAVOK 15/12 Q1012 NOSIG=
201008010250 METAR COR EGLL 010250Z 21005KT CAVOK 15/12 Q1012 NOSIG=
201008010220 METAR COR EGLL 010220Z 22007KT CAVOK 15/11 Q1012 NOSIG=
201008010150 METAR EGLL 010150Z 22006KT CAVOK 15/11 Q1012=
201008010120 METAR COR EGLL 010120Z 25005KT CAVOK 15/11 Q1012 NOSIG=
201008010050 METAR COR EGLL 010050Z 23006KT CAVOK 15/11 Q1013 NOSIG=
201008010020 METAR COR EGLL 010020Z 25007KT CAVOK 15/11 Q1013 NOSIG=

# No short TAF reports from EGLL in databse.

###################################
#  large TAF from EGLL
###################################
201008312251 TAF EGLL 312251Z 0100/0206 07004KT 9999 FEW040
                      PROB30 0103/0108 5000 BR
                      PROB30 0204/0206 5000 BR=
201008311657 TAF EGLL 311657Z 3118/0124 07004KT 9999 FEW045
                      PROB30 0103/0108 5000 BR=
201008311057 TAF EGLL 311057Z 3112/0118 06004KT 9999 FEW030
                      PROB30 0103/0108 5000 BR=
201008310458 TAF EGLL 310458Z 3106/0112 03005KT 8000 FEW040
                      BECMG 3106/3109 9999
                      PROB40 0104/0108 7000=
201008302252 TAF EGLL 302252Z 3100/0106 02005KT 9999 FEW045
                      PROB30 3104/3107 5000 BR=
201008301659 TAF EGLL 301659Z 3018/3124 02005KT 9999 FEW045
                      PROB30 3103/3107 4000 BR BKN004=
201008301056 TAF EGLL 301056Z 3012/3118 01008KT 9999 SCT030
                      PROB30 3104/3107 4000 BR=
201008300501 TAF EGLL 300501Z 3006/3112 32010KT 9999 SCT040
                      BECMG 3019/3022 02004KT
                      PROB30 3104/3108 4000 BR BKN004=
201008292300 TAF EGLL 292300Z 3000/3106 32010KT 9999 FEW040
                      BECMG 3019/3022 02004KT
                      PROB40 3103/3106 4000 BR BKN004=
201008291655 TAF EGLL 291655Z 2918/3024 32014KT 9999 SCT040
                      PROB30 TEMPO 2918/2920 33015G25KT
                      PROB30 TEMPO 3009/3013 33015G25KT
                      BECMG 3019/3022 02004KT=
201008291101 TAF EGLL 291101Z 2912/3018 27016KT 9999 SCT035
                      TEMPO 2912/2916 30017G27KT 8000 SHRA
                      PROB40 TEMPO 2913/2916 31020G37KT 4000 +SHRA
                       BECMG 2914/2917 33012KT
                      PROB40 TEMPO 2916/2920 33018G28KT
                      PROB30 TEMPO 3008/3012 33015G25KT=
201008290504 TAF EGLL 290504Z 2906/3012 27012KT 9999 SCT035
                      TEMPO 2909/2916 30016G26KT 8000 SHRA
                      PROB40 TEMPO 2913/2916 31020G36KT 4000 +SHRA
                       BECMG 2914/2917 33012KT
                      PROB40 TEMPO 2916/2919 33018G28KT=
201008282302 TAF EGLL 282302Z 2900/3006 27010KT 9999 SCT035
                      TEMPO 2910/2921 30016G26KT
                      PROB40 TEMPO 2913/2918 31020G36KT 8000 SHRA
                       BECMG 2915/2918 33012KT=
201008281659 TAF EGLL 281659Z 2818/2924 29010KT 9999 SCT035
                      TEMPO 2910/2921 31016G26KT
                      PROB30 TEMPO 2912/2916 8000 SHRA=
201008281052 TAF EGLL 281052Z 2812/2918 29010KT 9999 SCT035
                      PROB30 TEMPO 2912/2916 8000 SHRA=
201008280500 TAF EGLL 280500Z 2806/2912 29010KT 9999 SCT035
                      PROB30 TEMPO 2812/2819 8000 SHRA=
201008272300 TAF EGLL 272300Z 2800/2906 VRB05KT 9999 SCT035
                      BECMG 2806/2809 30012KT
                      PROB30 TEMPO 2812/2819 8000 SHRA=
201008271705 TAF EGLL 271705Z 2718/2824 31006KT 9999 SCT030=
201008271056 TAF EGLL 271056Z 2712/2818 01010KT 9999 SCT020
                      BECMG 2718/2721 VRB05KT
                      BECMG 2809/2812 30012KT=
201008270533 TAF COR EGLL 270533Z 2706/2812 02010KT 9999 BKN012
                      BECMG 2706/2709 SCT020
                      PROB30 TEMPO 2706/2708 7000 -RA BKN009
                      BECMG 2808/2811 29010KT=
201008270456 TAF EGLL 270456Z 2706/2812 02010KT 9999 BKN012
                      BECMG 2706/2709 9999 NSW SCT020
                      PROB30 TEMPO 2706/2708 7000 -RA BKN009
                      BECMG 2808/2811 29010KT=
201008270252 TAF AMD EGLL 270252Z 2702/2806 02010KT 9999 BKN012
                      TEMPO 2702/2706 7000 RA BKN006
                      BECMG 2708/2711 9999 NSW SCT025=
201008262300 TAF AMD EGLL 270252Z 2702/2806 02010KT 9999 BKN012
                      TEMPO 2702/2706 7000 RA BKN006
                      BECMG 2708/2711 9999 NSW SCT025=
201008262258 TAF EGLL 262258Z 2700/2806 02010KT 7000 -RA BKN012
                      TEMPO 2700/2706 4000 RA BKN003
                      BECMG 2708/2711 9999 NSW SCT025=
201008261755 TAF AMD EGLL 261755Z 2618/2724 VRB04KT 9999 BKN016
                      BECMG 2618/2621 8000 -RA BKN012
                      TEMPO 2618/2706 4000 RA BKN003
                      BECMG 2621/2624 04010KT
                      BECMG 2706/2709 9999 NSW SCT025=
201008261705 TAF EGLL 261705Z 2618/2724 VRB04KT 9999 BKN016
                      BECMG 2618/2621 8000 -RA BKN012
                      TEMPO 2618/2706 4000 RA BKN008
                      BECMG 2621/2624 04010KT
                      BECMG 2706/2709 9999 NSW SCT025=
201008261639 TAF AMD EGLL 261639Z 2616/2718 VRB06KT 9999 BKN016
                      BECMG 2616/2619 8000 -RA BKN012
                      TEMPO 2616/2624 4500 RA BKN008
                      BECMG 2618/2621 04010KT
                      BECMG 2703/2706 9999 NSW SCT015=
201008261406 TAF AMD EGLL 261406Z 2614/2718 VRB06KT 9999 BKN016
                      TEMPO 2614/2616 4500 RA BKN008
                      BECMG 2616/2618 8000 -RA BKN012
                      TEMPO 2618/2624 4000 RA BKN008
                      BECMG 2618/2621 04010KT
                      BECMG 2703/2706 9999 NSW SCT015=
201008261058 TAF EGLL 261058Z 2612/2718 22012KT 9999 BKN016
                      BECMG 2612/2614 VRB06KT
                      BECMG 2616/2618 8000 -RA BKN012
                      TEMPO 2618/2624 4000 RA BKN008
                      BECMG 2618/2621 04010KT
                      BECMG 2703/2706 9999 NSW SCT015=
201008260456 TAF EGLL 260456Z 2606/2712 VRB05KT 9999 SCT005 BKN012
                      TEMPO 2606/2608 6000 RADZ BKN006
                      PROB30 TEMPO 2609/2613 BKN016
                      BECMG 2613/2616 06012KT
                      TEMPO 2618/2706 4000 RA BKN008
                      BECMG 2707/2710 SCT015=
201008252254 TAF EGLL 252254Z 2600/2706 VRB05KT 9999 SCT005 BKN012
                      TEMPO 2600/2604 3000 RADZ BKN004
                      TEMPO 2604/2608 7000 BKN008
                      PROB30 TEMPO 2608/2613 BKN016
                      BECMG 2611/2614 06012KT
                      TEMPO 2618/2706 4000 RA BKN006=
201008251705 TAF EGLL 251705Z 2518/2624 12010KT 8000 -RA SCT008 BKN022
                      BECMG 2518/2521 BKN012
                      TEMPO 2518/2601 3000 +RA BKN007
                      BECMG 2521/2524 VRB05KT
                      TEMPO 2601/2608 2500 RADZ BKN004
                      PROB40 TEMPO 2608/2618 9999 NSW BKN016
                      BECMG 2609/2612 06012KT
                      TEMPO 2618/2624 4000 +RA BKN006=
201008251100 TAF EGLL 251100Z 2512/2618 20007KT 9999 SCT035
                      TEMPO 2512/2516 7000 RA
                      BECMG 2513/2516 13010KT
                      BECMG 2516/2519 6000 RA BKN012
                      TEMPO 2517/2601 3500 +RA BKN008
                      TEMPO 2601/2607 2000 RADZ BKN004
                      PROB30 TEMPO 2610/2618 9999 NSW BKN018
                      BECMG 2612/2615 05012KT=
201008250503 TAF EGLL 250503Z 2506/2612 22005KT 9999 FEW040
                      BECMG 2509/2512 14010KT
                      PROB40 TEMPO 2511/2515 7000 RA
                      BECMG 2515/2518 6000 RA BKN014
                      TEMPO 2517/2602 3000 +RA BKN006
                      BECMG 2521/2524 05012KT
                      BECMG 2602/2605 -RADZ
                      TEMPO 2602/2610 BKN008
                      BECMG 2609/2612 9999=
201008250501 TAF AMD EGLL 250501Z 2505/2606 21005KT 9999 FEW040
                      PROB40 TEMPO 2511/2513 7000 RA
                      BECMG 2513/2516 08012KT 6000 RA BKN014
                      TEMPO 2515/2523 3000 +RA BKN007
                      BECMG 2523/2602 -RADZ
                      TEMPO 2523/2606 BKN005=
201008242300 TAF AMD EGLL 250501Z 2505/2606 21005KT 9999 FEW040
                      PROB40 TEMPO 2511/2513 7000 RA
                      BECMG 2513/2516 08012KT 6000 RA BKN014
                      TEMPO 2515/2523 3000 +RA BKN007
                      BECMG 2523/2602 -RADZ
                      TEMPO 2523/2606 BKN005=
201008241654 TAF EGLL 241654Z 2418/2524 26018G28KT 9999 SCT025
                      BECMG 2418/2421 24012KT
                      TEMPO 2510/2512 7000 RA
                      BECMG 2512/2515 VRB05KT 6000 RA BKN014
                      TEMPO 2514/2521 3000 +RA BKN008=
201008241455 TAF AMD EGLL 241455Z 2414/2518 25022G32KT 9999 SCT030
                      PROB30 TEMPO 2414/2415 6000 SHRA
                      BECMG 2418/2421 24008KT
                      TEMPO 2510/2512 7000 RA
                      BECMG 2512/2515 12015KT 6000 RA BKN014
                      TEMPO 2514/2518 3000 +RA BKN008=
201008241129 TAF AMD EGLL 241129Z 2412/2518 25017G27KT 9999 SCT030
                      TEMPO 2412/2415 6000 SHRA
                      BECMG 2418/2421 24008KT
                      TEMPO 2510/2512 7000 RA
                      BECMG 2512/2515 12015KT 6000 RA BKN014
                      TEMPO 2514/2518 3000 +RA BKN008=
201008241058 TAF EGLL 241058Z 2412/2518 25017G27KT 9999 SCT030
                      BECMG 2418/2421 24008KT
                      TEMPO 2510/2512 7000 RA
                      BECMG 2512/2515 12015KT 6000 RA BKN014
                      TEMPO 2514/2518 3000 +RA BKN008=
201008240456 TAF EGLL 240456Z 2406/2512 24009KT 9999 SCT040
                      BECMG 2408/2411 26018G30KT
                      BECMG 2419/2422 23008KT
                      TEMPO 2510/2512 7000 RA=
201008232301 TAF EGLL 232301Z 2400/2506 26010KT 9999 FEW040
                      BECMG 2408/2411 26018G28KT
                      BECMG 2419/2422 26008KT=
201008231656 TAF EGLL 231656Z 2318/2424 26014KT 9999 SCT020
                      TEMPO 2318/2320 27017G27KT
                      PROB40 2409/2416 26018G28KT=
201008231054 TAF EGLL 231054Z 2312/2418 26014KT 9999 SCT020
                      TEMPO 2312/2320 27017G27KT
                      PROB30 TEMPO 2312/2317 6000 SHRA
                      PROB40 2409/2412 26018G28KT=
201008230504 TAF EGLL 230504Z 2306/2412 20014KT 9999 FEW014 SCT020
                      BECMG 2306/2309 26012KT
                      TEMPO 2306/2309 7000 RA BKN014
                      TEMPO 2309/2320 27018G28KT
                      PROB40 TEMPO 2310/2317 4000 +SHRA BKN014CB
                       TEMPO 2409/2412 26018G28KT=
201008230120 TAF AMD EGLL 230120Z 2301/2406 10008KT 8000 -RA SCT006 BKN010
                      TEMPO 2301/2305 3000 +RA BKN006
                      BECMG 2302/2305 20020G30KT
                      BECMG 2305/2308 26012KT 9999 NSW FEW008 SCT020
                       PROB40
                      TEMPO 2310/2316 25016G30KT 4000 +SHRA BKN014CB=
201008230036 TAF AMD EGLL 230036Z 2300/2406 10008KT 8000 -RA SCT006 SCT010
                      TEMPO 2300/2305 3000 +RA BKN006
                      BECMG 2302/2305 20020G30KT
                      BECMG 2305/2308 26012KT 9999 NSW FEW008 SCT020
                       PROB40
                      TEMPO 2310/2316 25016G30KT 4000 +SHRA BKN014CB=
201008222302 TAF EGLL 222302Z 2300/2406 16010KT 8000 -RA SCT006 BKN010
                      TEMPO 2300/2305 3000 +RA BKN006
                      BECMG 2302/2305 20020G30KT
                      BECMG 2305/2308 26012KT 9999 NSW FEW008 SCT020
                       PROB40
                      TEMPO 2310/2316 25016G30KT 4000 +SHRA BKN014CB=
201008222300 TAF AMD EGLL 230120Z 2301/2406 10008KT 8000 -RA SCT006 BKN010
                      TEMPO 2301/2305 3000 +RA BKN006
                      BECMG 2302/2305 20020G30KT
                      BECMG 2305/2308 26012KT 9999 NSW FEW008 SCT020
                       PROB40
                      TEMPO 2310/2316 25016G30KT 4000 +SHRA BKN014CB=
201008221703 TAF EGLL 221703Z 2218/2324 19008KT 9999 BKN020
                      BECMG 2218/2221 8000 -RA
                      BECMG 2220/2223 12010KT
                      TEMPO 2221/2307 4000 +RA RADZ BKN005
                      TEMPO 2301/2305 18020G30KT
                      BECMG 2304/2307 27015G25KT
                      BECMG 2306/2309 9999 NSW
                      BECMG 2309/2312 25012KT
                      PROB30 TEMPO 2314/2318 26015G25KT 7000 SHRA=
201008221102 TAF EGLL 221102Z 2212/2318 25007KT 9999 BKN020
                      BECMG 2218/2221 12010KT 8000 -RA
                      TEMPO 2221/2305 4000 +RA BKN006
                      TEMPO 2301/2305 17018G28KT
                      BECMG 2303/2306 24015G25KT
                      PROB40 TEMPO 2305/2308 RADZ BKN010
                      BECMG 2307/2310 9999 NSW
                      BECMG 2309/2312 25012KT=
201008220533 TAF EGLL 220533Z 2206/2312 24009KT 9999 BKN008
                      TEMPO 2206/2208 6000 -RADZ
                      PROB30 TEMPO 2206/2208 3000 +RA
                      BECMG 2207/2210 SCT020
                      BECMG 2218/2221 12010KT 8000 -RA
                      TEMPO 2221/2306 4000 +RA
                      TEMPO 2300/2308 RADZ BKN008
                      BECMG 2302/2304 21015G25KT
                      BECMG 2307/2309 30015G25KT 9999 NSW=
201008220500 TAF EGLL 220500Z NIL=
201008212306 TAF EGLL 212306Z 2200/2306 24009KT 9999 BKN020
                      TEMPO 2200/2208 6000 -RADZ BKN005
                      PROB30 TEMPO 2203/2208 3000 +RA
                      BECMG 2218/2221 15010KT 8000 -RA
                      TEMPO 2221/2306 4000 RADZ BKN008
                      BECMG 2302/2304 21015G25KT=
201008212024 TAF AMD EGLL 212024Z 2120/2224 22009KT 9999 BKN015
                      TEMPO 2120/2208 6000 RA BKN005
                      PROB30 TEMPO 2203/2208 3000 +RA
                      BECMG 2221/2224 15010KT 6000 RA BKN008=
201008211955 TAF AMD EGLL 211955Z 2120/2224 22009KT 9999 BKN012
                      TEMPO 2120/2208 6000 RA BKN005
                      PROB30 TEMPO 2203/2208 3000 +RA
                      BECMG 2206/2209 FEW010 SCT025
                      BECMG 2221/2224 15010KT 6000 RA BKN008=
201008211701 TAF EGLL 211701Z 2118/2224 22009KT 9999 BKN012
                      TEMPO 2118/2120 22015G25KT BKN015
                      TEMPO 2122/2208 6000 RA BKN005
                      PROB30 TEMPO 2203/2208 3000 +RA
                      BECMG 2206/2209 FEW010 SCT025
                      BECMG 2221/2224 15010KT 6000 RA BKN008=
201008211059 TAF EGLL 211059Z 2112/2218 23010KT 9999 FEW012 BKN015
                      TEMPO 2112/2120 22015G25KT 8000 SHRA BKN012
                       BECMG 2120/2123 BKN010
                      TEMPO 2122/2207 5000 RA BKN005
                      BECMG 2205/2208 FEW010 SCT025=
201008210504 TAF EGLL 210504Z 2106/2212 21012KT 9999 BKN015
                      TEMPO 2106/2110 6000 -RADZ BKN007
                      TEMPO 2110/2120 8000 -RA BKN012
                      BECMG 2120/2123 8000 -RA BKN008
                      PROB40 TEMPO 2201/2207 4000 RA BKN004
                      BECMG 2207/2210 27008KT 9999 NSW SCT020=
201008210400 TAF AMD EGLL 210400Z 2104/2206 21012KT 9999 BKN015
                      TEMPO 2104/2110 6000 -RADZ BKN007
                      TEMPO 2110/2120 8000 -RA BKN012
                      BECMG 2120/2123 8000 -RA BKN008
                      PROB40 TEMPO 2200/2203 4000 RA BKN004
                      BECMG 2202/2204 27008KT 9999 NSW SCT020=
201008210233 TAF AMD EGLL 210233Z 2102/2206 21012KT 9999 BKN012
                      PROB40 2102/2110 4000 -RADZ BKN004
                      BECMG 2109/2112 FEW008 BKN015
                      TEMPO 2110/2120 8000 -RA BKN012
                      BECMG 2120/2123 8000 -RA BKN008
                      PROB40 TEMPO 2200/2203 4000 RA BKN004
                      BECMG 2202/2204 27008KT 9999 NSW SCT020=
201008202305 TAF EGLL 202305Z 2100/2206 21012KT 9999 BKN008
                      PROB40 2100/2110 4000 -RADZ BKN004
                      BECMG 2109/2112 FEW008 BKN015
                      TEMPO 2110/2120 8000 -RA BKN012
                      BECMG 2120/2123 8000 -RA BKN008
                      PROB40 TEMPO 2200/2203 4000 RA BKN004
                      BECMG 2202/2204 27008KT 9999 NSW SCT020=
201008202300 TAF AMD EGLL 210400Z 2104/2206 21012KT 9999 BKN015
                      TEMPO 2104/2110 6000 -RADZ BKN007
                      TEMPO 2110/2120 8000 -RA BKN012
                      BECMG 2120/2123 8000 -RA BKN008
                      PROB40 TEMPO 2200/2203 4000 RA BKN004
                      BECMG 2202/2204 27008KT 9999 NSW SCT020=
201008201709 TAF EGLL 201709Z 2018/2124 20012KT 9999 BKN012
                      BECMG 2018/2021 8000 BKN008
                      PROB40 2021/2109 4000 -RADZ BKN004
                      BECMG 2109/2112 9999 FEW008 BKN015
                      TEMPO 2112/2120 8000 -RA BKN014
                      BECMG 2120/2123 8000 BKN008=
201008201211 TAF AMD EGLL 201211Z 2012/2118 20012KT 9999 BKN012
                      TEMPO 2012/2018 21015G25KT FEW012 BKN020
                       BECMG 2018/2021 BKN008
                      PROB40 2020/2110 5000 -RADZ
                      BECMG 2109/2112 FEW008 SCT025
                      TEMPO 2112/2118 8000 -RA BKN014=
201008201107 TAF EGLL 201107Z 2012/2118 20012KT 9999 BKN012
                      TEMPO 2012/2118 21015G25KT FEW012 BKN020
                       BECMG 2018/2021 BKN008
                      PROB40 2020/2110 5000 -RADZ
                      BECMG 2109/2112 FEW008 SCT025
                      TEMPO 2112/2118 8000 -RA BKN014=
201008201100 TAF EGLL 201100Z NIL=
201008200933 TAF AMD EGLL 200933Z 2009/2112 19012KT 9999 BKN012
                      BECMG 2010/2013 BKN018
                      PROB40 TEMPO 2010/2020 21015G25KT
                      BECMG 2020/2023 BKN010
                      PROB40 2101/2107 5000 BR BKN006
                      BECMG 2108/2111 SCT035=
201008200457 TAF EGLL 200457Z 2006/2112 19012KT 9999 SCT040
                      PROB40 2006/2010 8000 BKN009
                      PROB40 TEMPO 2009/2020 21015G25KT
                      BECMG 2020/2023 BKN010
                      PROB40 2101/2107 5000 BR BKN006
                      BECMG 2108/2111 SCT035=
201008192256 TAF EGLL 192256Z 2000/2106 19010KT 9999 SCT040
                      PROB40 TEMPO 2000/2003 8000 BKN012
                      BECMG 2003/2006 6000 BKN010
                      PROB40 TEMPO 2003/2010 BKN007
                      BECMG 2010/2013 9999 SCT025
                      TEMPO 2013/2020 22015G25KT
                      PROB30 TEMPO 2014/2018 6000 SHRA BKN014
                      BECMG 2019/2022 BKN010
                      PROB40 2101/2106 5000 BR BKN006=
201008191712 TAF EGLL 191712Z 1918/2024 19010KT 9999 FEW018 BKN040
                      TEMPO 1919/2001 8000 RA
                      PROB40 TEMPO 1920/2001 BKN014
                      BECMG 2001/2003 6000 BKN010
                      TEMPO 2003/2010 BKN007
                      BECMG 2010/2013 9999 SCT018
                      PROB30 TEMPO 2013/2020 23015G25KT 6000 SHRA
                       BKN014
                      BECMG 2020/2023 BKN009=
201008191700 TAF EGLL 191700Z NIL=
201008191057 TAF EGLL 191057Z 1912/2018 21012KT 9999 FEW030 SCT045
                      PROB40 TEMPO 1914/1918 8000 RA
                      BECMG 1917/1920 15007KT
                      TEMPO 1918/2001 6000 RA BKN014
                      BECMG 2001/2004 5000 BR BKN012
                      BECMG 2003/2005 21010KT
                      TEMPO 2003/2010 BKN007
                      BECMG 2010/2013 9999 NSW SCT018
                      TEMPO 2012/2018 23015G25KT=
201008190458 TAF EGLL 190458Z 1906/2012 21010KT 9999 SCT040
                      PROB30 TEMPO 1914/1917 8000 -RA
                      TEMPO 1917/2003 6000 RA
                      PROB40 TEMPO 2000/2012 19015G25KT 3000 -RADZ
                       BKN006
                      BECMG 2001/2004 BKN014=
201008182301 TAF EGLL 182301Z 1900/2006 20010KT 9999 FEW040
                      PROB30 1903/1907 8000
                      PROB40 TEMPO 1915/1918 8000 -RA
                      TEMPO 1918/2003 6000 RA
                      BECMG 1923/2002 BKN014
                      PROB40 TEMPO 2000/2006 19015G25KT 3000 -RADZ
                       BKN006=
201008181700 TAF EGLL 181700Z 1818/1924 22008KT 9999 SCT040
                      TEMPO 1818/1820 6000 SHRA
                      PROB30 1902/1907 6000
                      TEMPO 1915/1924 6000 RA
                      BECMG 1922/1924 BKN014=
201008181059 TAF EGLL 181059Z 1812/1918 27012KT 9999 SCT040
                      TEMPO 1814/1820 6000 SHRA
                      BECMG 1903/1906 21007KT
                      PROB40 TEMPO 1916/1918 6000 RA=
201008180500 TAF EGLL 180500Z 1806/1912 33005KT 9999 SCT040
                      BECMG 1807/1810 27012KT
                      PROB30 TEMPO 1814/1820 6000 SHRA
                      BECMG 1903/1906 21007KT=
201008172330 TAF EGLL 172330Z 1800/1906 32006KT 9999 SCT030
                      BECMG 1807/1810 26012KT
                      PROB30 TEMPO 1813/1820 6000 SHRA=
201008172300 TAF EGLL 172300Z NIL=
201008171657 TAF EGLL 171657Z 1718/1824 24010KT 9999 SCT040
                      PROB30 TEMPO 1718/1721 5000 SHRA
                      BECMG 1720/1723 30008KT
                      PROB30 TEMPO 1812/1818 7000 SHRA=
201008171057 TAF EGLL 171057Z 1712/1818 24010KT 9999 SCT040
                      TEMPO 1712/1716 7000 -RA BKN014
                      PROB30 TEMPO 1712/1715 4000 -RADZ BKN008
                       PROB30
                      TEMPO 1716/1719 6000 SHRA
                      BECMG 1720/1722 30008KT
                      PROB30 TEMPO 1812/1818 7000 SHRA=
201008170959 TAF AMD EGLL 170959Z 1710/1812 24010KT 9999 SCT040
                      TEMPO 1710/1715 7000 -RA BKN014
                      PROB30 TEMPO 1711/1714 4000 -RADZ BKN008
                       PROB30
                      TEMPO 1716/1719 6000 SHRA
                      BECMG 1720/1722 31008KT=
201008170501 TAF EGLL 170501Z 1706/1812 24010KT 9999 SCT040
                      TEMPO 1706/1715 7000 -RA
                      BECMG 1709/1711 BKN014
                      PROB30 TEMPO 1711/1714 4000 -RADZ BKN008
                       BECMG 1713/1716 SCT030
                      PROB30 TEMPO 1716/1719 6000 SHRA
                      BECMG 1720/1722 31008KT=
201008162303 TAF EGLL 162303Z 1700/1806 28007KT CAVOK
                      BECMG 1702/1705 BKN040
                      BECMG 1706/1709 22012KT
                      TEMPO 1708/1715 7000 -RA BKN010
                      PROB30 TEMPO 1715/1719 6000 SHRA
                      BECMG 1720/1722 32007KT=
201008161658 TAF EGLL 161658Z 1618/1724 32010KT 9999 SCT040
                      BECMG 1701/1704 26008KT
                      PROB30 TEMPO 1702/1705 8000 -RA
                      BECMG 1705/1708 7000 -RA BKN012
                      PROB30 TEMPO 1707/1713 RA BKN008
                      BECMG 1713/1716 9999 NSW SCT030=
201008161101 TAF EGLL 161101Z 1612/1718 32012KT 9999 SCT030
                      BECMG 1621/1624 26008KT
                      TEMPO 1702/1714 8000 -RA BKN014
                      PROB40 TEMPO 1704/1712 RA BKN009=
201008161100 TAF EGLL 161100Z NIL=
201008160500 TAF EGLL 160500Z 1606/1712 32008KT 9999 BKN014
                      BECMG 1606/1609 FEW014 SCT025
                      PROB30 TEMPO 1609/1615 33015G25KT
                      BECMG 1620/1623 26010KT
                      TEMPO 1701/1704 8000 RA
                      BECMG 1704/1707 8000 RA BKN010
                      BECMG 1709/1712 9999 NSW FEW010 BKN020=
201008152259 TAF EGLL 152259Z 1600/1706 35008KT 9999 FEW040
                      PROB30 1602/1607 BKN014
                      BECMG 1620/1623 28010KT
                      TEMPO 1702/1706 7000 RA=
201008151700 TAF EGLL 151700Z 1518/1624 35012KT 9999 FEW040
                      PROB30 1602/1607 BKN014
                      BECMG 1620/1623 29008KT=
201008151100 TAF EGLL 151100Z 1512/1618 02010KT 9999 FEW040
                      PROB40 TEMPO 1512/1519 01015G25KT
                      BECMG 1523/1602 34004KT
                      PROB30 1602/1607 BKN014
                      BECMG 1607/1610 33014KT=
201008150501 TAF EGLL 150501Z 1506/1612 03008KT 4000 BR BKN007
                      BECMG 1506/1509 9999 NSW SCT035
                      TEMPO 1510/1519 04015G25KT
                      BECMG 1609/1610 33014KT=
201008142303 TAF EGLL 142303Z 1500/1606 02008KT 9000 NSC
                      BECMG 1502/1505 BKN008
                      PROB40 1503/1507 3000 BR BKN004
                      BECMG 1505/1508 9999 SCT035
                      TEMPO 1510/1519 04015G25KT
                      PROB40 1600/1606 BKN010=
201008142124 TAF AMD EGLL 142124Z 1421/1524 07006KT 9000 SCT020
                      BECMG 1500/1503 BKN008
                      PROB30 1503/1507 4000 BR BKN004
                      BECMG 1506/1509 01012KT 9999 SCT035
                      TEMPO 1511/1519 01015G25KT=
201008141700 TAF EGLL 141700Z 1418/1524 07006KT 9999 SCT020
                      TEMPO 1418/1421 7000 SHRA
                      PROB30 TEMPO 1418/1419 3000 +TSRA BKN014CB
                       BECMG 1500/1503 7000 BKN008
                      PROB30 1503/1507 4000 BR BKN004
                      BECMG 1506/1509 01012KT 9999 SCT035
                      TEMPO 1511/1519 01015G25KT=
201008141102 TAF EGLL 141102Z 1412/1518 07006KT 9999 SCT020
                      TEMPO 1412/1420 7000 SHRA
                      PROB40 TEMPO 1412/1414 BKN010
                      PROB30 TEMPO 1412/1419 3000 +TSRA BKN014CB
                       BECMG 1501/1504 7000 BKN008
                      PROB30 1504/1507 4000 BR BKN004
                      BECMG 1507/1510 01012KT 9999 SCT035
                      TEMPO 1511/1518 01015G25KT=
201008140801 TAF AMD EGLL 140801Z 1408/1512 32008KT 9999 BKN009
                      BECMG 1408/1411 SCT020
                      TEMPO 1408/1421 7000 SHRA
                      BECMG 1411/1414 06010KT
                      PROB30 TEMPO 1411/1419 3000 +SHRA +TSRA BKN014CB
                       PROB40 1502/1507 7000 BKN008=
201008140504 TAF EGLL 140504Z 1406/1512 32008KT 9999 BKN012
                      TEMPO 1406/1408 8000 -RA BKN009
                      BECMG 1407/1410 SCT020
                      TEMPO 1409/1421 7000 SHRA
                      PROB30 TEMPO 1410/1419 3000 +SHRA +TSRA BKN014CB
                       BECMG 1411/1414 06010KT
                      PROB40 1502/1507 7000 BKN008=
201008140038 TAF AMD EGLL 140038Z 1400/1506 32008KT 9999 SCT025
                      TEMPO 1400/1409 8000 -RA BKN009
                      TEMPO 1407/1421 7000 SHRA
                      PROB30 TEMPO 1410/1419 3000 +SHRA +TSRA BKN014CB
                       BECMG 1411/1414 06010KT
                      PROB40 1500/1506 7000 BKN008=
201008132305 TAF EGLL 132305Z 1400/1506 32008KT 9999 BKN012
                      TEMPO 1400/1409 8000 -RA BKN009
                      BECMG 1407/1410 SCT025
                      TEMPO 1407/1421 7000 SHRA
                      PROB30 TEMPO 1410/1419 3000 +SHRA +TSRA BKN014CB
                       BECMG 1411/1414 06010KT
                      PROB40 1500/1506 7000 BKN008=
201008132300 TAF AMD EGLL 140038Z 1400/1506 32008KT 9999 SCT025
                      TEMPO 1400/1409 8000 -RA BKN009
                      TEMPO 1407/1421 7000 SHRA
                      PROB30 TEMPO 1410/1419 3000 +SHRA +TSRA BKN014CB
                       BECMG 1411/1414 06010KT
                      PROB40 1500/1506 7000 BKN008=
201008131703 TAF EGLL 131703Z 1318/1424 32010KT 9999 SCT025
                      TEMPO 1318/1323 7000 SHRA
                      PROB30 TEMPO 1318/1321 3000 +SHRA TSRA BKN014
                       BKN020CB
                      BECMG 1321/1324 BKN012
                      TEMPO 1323/1407 8000 -RA BKN007
                      BECMG 1407/1410 05010KT SCT025
                      TEMPO 1407/1418 7000 SHRA
                      PROB30 TEMPO 1410/1416 3000 +SHRA BKN014CB=
201008131059 TAF EGLL 131059Z 1312/1418 30010KT 9999 SCT025 BKN030
                      TEMPO 1312/1321 32015G25KT 7000 SHRA
                      PROB40 TEMPO 1312/1321 3000 +SHRA TSGS BKN014
                       BKN020CB
                      BECMG 1321/1324 BKN010
                      PROB30 1323/1407 7000 BKN005
                      BECMG 1407/1410 05010KT SCT025
                      TEMPO 1407/1418 7000 SHRA
                      PROB30 TEMPO 1410/1416 3000 +SHRA TSRA BKN014
                       SCT020CB=
201008130504 TAF EGLL 130504Z 1306/1412 31009KT 9999 SCT020
                      PROB30 1306/1307 BKN012
                      TEMPO 1309/1323 33015G25KT 7000 SHRA
                      PROB40 TEMPO 1310/1321 3000 +SHRA +TSGR BKN014
                       BKN020CB
                      PROB40 1321/1408 8000 BKN009
                      TEMPO 1408/1412 7000 SHRA
                      PROB40 TEMPO 1410/1412 3000 +SHRA +TSGR BKN012
                       BKN020CB=
201008122306 TAF EGLL 122306Z 1300/1406 31009KT 9999 SCT020
                      PROB40 1302/1307 8000 BKN009
                      TEMPO 1309/1323 33015G25KT 7000 SHRA
                      PROB40 TEMPO 1310/1322 3000 +SHRA +TSRAGR
                       BKN014 BKN020CB
                      PROB40 1321/1406 8000 BKN009=
201008121700 TAF EGLL 121700Z NIL=
201008121658 TAF AMD EGLL 121658Z 1218/1324 31010KT 9999 SCT030
                      TEMPO 1218/1222 32015G25KT 7000 SHRA
                      PROB40 1302/1307 8000 BKN009
                      TEMPO 1307/1323 33015G25KT 7000 SHRA
                      PROB40 TEMPO 1309/1322 3000 +SHRA +TSGR BKN014
                       BKN020CB=
201008121627 TAF AMD EGLL 121627Z 1216/1318 30009KT 9999 SCT030
                      TEMPO 1216/1221 31015G25KT 6000 SHRA
                      PROB40 1303/1307 8000 BKN009
                      TEMPO 1307/1318 6000 SHRA
                      PROB40 TEMPO 1309/1318 3000 +SHRA +TSGR BKN014
                       BKN020CB=
201008121053 TAF EGLL 121053Z 1212/1318 30009KT 9999 SCT030
                      PROB40 TEMPO 1213/1221 6000 SHRA
                      PROB40 1303/1307 8000 BKN009
                      TEMPO 1307/1318 6000 SHRA
                      PROB40 TEMPO 1309/1318 3000 +SHRA +TSGR BKN014
                       BKN020CB=
201008120503 TAF EGLL 120503Z 1206/1312 29009KT 9999 SCT030
                      PROB40 TEMPO 1213/1221 6000 SHRA
                      PROB30 TEMPO 1303/1309 6000 RA BKN012
                      TEMPO 1309/1312 6000 SHRA=
201008112300 TAF EGLL 112300Z 1200/1306 31007KT 9999 SCT030
                      PROB40 TEMPO 1212/1221 6000 SHRA=
201008111701 TAF EGLL 111701Z 1118/1224 29006KT 9999 SCT035
                      TEMPO 1212/1221 7000 SHRA
                      PROB30 TEMPO 1215/1220 3000 +SHRA +TSRA=
201008111102 TAF EGLL 111102Z 1112/1218 29006KT 9999 SCT035
                      TEMPO 1212/1218 7000 SHRA
                      PROB30 TEMPO 1213/1218 3000 +SHRA +TSRA=
201008110500 TAF EGLL 110500Z 1106/1212 27007KT 9999 SCT035=
201008102308 TAF EGLL 102308Z 1100/1206 27007KT 9999 FEW030=
201008101701 TAF EGLL 101701Z 1018/1124 21010KT 9999 FEW008 BKN012
                      TEMPO 1018/1021 4000 RADZ BKN007
                      BECMG 1020/1022 29008KT FEW030=
201008101607 TAF AMD EGLL 101607Z 1016/1118 19010KT 9999 BKN012
                      TEMPO 1016/1022 4000 RADZ BKN007
                      BECMG 1020/1022 29008KT FEW030=
201008101338 TAF AMD EGLL 101338Z 1013/1118 24010KT 9999 FEW015 BKN040
                      PROB40 TEMPO 1013/1014 BKN012
                      BECMG 1014/1016 18007KT BKN008
                      TEMPO 1014/1022 4000 RADZ
                      BECMG 1020/1022 29008KT FEW030=
201008101100 TAF EGLL 101100Z 1012/1118 24010KT 9999 FEW015 BKN040
                      PROB40 TEMPO 1012/1014 BKN012
                      BECMG 1014/1016 18007KT BKN008
                      TEMPO 1014/1022 6000 RA
                      BECMG 1020/1022 29008KT FEW030=
201008100502 TAF EGLL 100502Z 1006/1112 22008KT 9999 BKN025
                      TEMPO 1006/1020 7000 -RA BKN008
                      PROB40 TEMPO 1006/1011 3000 RA BKN004=
201008100026 TAF AMD EGLL 100026Z 1000/1106 22008KT 9999 BKN015
                      TEMPO 1000/1010 7000 -RADZ BKN007
                      PROB40 TEMPO 1004/1009 3000 RA BKN004
                      PROB30 1014/1021 8000 -RADZ BKN008=
201008092301 TAF EGLL 092301Z 1000/1106 22008KT 9999 BKN012
                      TEMPO 1000/1010 7000 -RADZ BKN007
                      PROB40 TEMPO 1004/1009 3000 RA BKN004
                      BECMG 1009/1012 SCT030
                      PROB30 1014/1021 8000 -RADZ BKN008=
201008092300 TAF AMD EGLL 100026Z 1000/1106 22008KT 9999 BKN015
                      TEMPO 1000/1010 7000 -RADZ BKN007
                      PROB40 TEMPO 1004/1009 3000 RA BKN004
                      PROB30 1014/1021 8000 -RADZ BKN008=
201008091701 TAF EGLL 091701Z 0918/1024 24008KT 9999 SCT030
                      BECMG 0921/0924 BKN010
                      TEMPO 1000/1010 7000 -RADZ BKN007
                      PROB40 TEMPO 1004/1009 3000 RA BKN004
                      BECMG 1009/1012 SCT022
                      PROB30 1018/1024 7000 -RA BKN013=
201008091101 TAF EGLL 091101Z 0912/1018 22010KT 9999 SCT035
                      BECMG 0920/0923 BKN009
                      TEMPO 1000/1011 7000 -RA
                      PROB40 TEMPO 1004/1009 3000 RA BKN004
                      BECMG 1009/1012 28012KT SCT022=
201008090500 TAF EGLL 090500Z 0906/1012 24008KT 9999 FEW040
                      BECMG 0920/0923 BKN009
                      TEMPO 1000/1010 8000 -RA
                      PROB30 TEMPO 1003/1008 3000 RA BKN004
                      BECMG 1009/1012 SCT030=
201008082257 TAF EGLL 082257Z 0900/1006 26008KT 9999 FEW040
                      BECMG 0920/0923 BKN009
                      TEMPO 1000/1006 8000 -RA
                      PROB40 TEMPO 1003/1006 4000 RA=
201008081702 TAF EGLL 081702Z 0818/0924 VRB03KT 9999 FEW040
                      BECMG 0912/0915 23010KT
                      BECMG 0920/0923 BKN011=
201008081102 TAF EGLL 081102Z 0812/0918 VRB03KT 9999 FEW040
                      PROB30 0818/0823 09010KT
                      BECMG 0912/0915 23010KT=
201008080505 TAF EGLL 080505Z 0806/0912 34005KT 9999 FEW040
                      TEMPO 0806/0809 BKN008
                      PROB30 0806/0807 8000
                      PROB30 0903/0907 7000=
201008080456 TAF AMD EGLL 080456Z 0805/0906 34005KT 9999 FEW040
                      TEMPO 0805/0808 BKN008
                      PROB30 0805/0807 8000=
201008072300 TAF AMD EGLL 080456Z 0805/0906 34005KT 9999 FEW040
                      TEMPO 0805/0808 BKN008
                      PROB30 0805/0807 8000=
201008072258 TAF EGLL 072258Z 0800/0906 34005KT 9999 FEW040
                      BECMG 0803/0805 BKN008
                      PROB30 0804/0807 8000
                      BECMG 0807/0809 SCT040=
201008071657 TAF EGLL 071657Z 0718/0824 19010KT 9999 SCT040
                      BECMG 0718/0721 30008KT
                      PROB40 0804/0808 8000 BKN009=
201008071454 TAF AMD EGLL 071454Z 0714/0818 23010KT 9999 SCT040
                      PROB30 TEMPO 0715/0718 7000 SHRA
                      BECMG 0715/0718 32007KT
                      PROB40 0803/0808 BKN008=
201008071059 TAF EGLL 071059Z 0712/0818 23010KT 9999 SCT020 BKN040
                      PROB30 TEMPO 0712/0718 7000 SHRA
                      BECMG 0715/0718 32007KT
                      PROB40 0803/0808 BKN008=
201008070504 TAF EGLL 070504Z 0706/0812 22010KT 9999 SCT020 BKN030
                      PROB30 TEMPO 0712/0716 7000 SHRA
                      BECMG 0715/0718 32006KT
                      PROB40 0803/0808 BKN008=
201008062258 TAF EGLL 062258Z 0700/0806 21010KT 9999 SCT020 BKN030
                      TEMPO 0700/0708 6000 RA BKN009
                      PROB30 TEMPO 0712/0716 7000 SHRA
                      BECMG 0715/0718 32006KT
                      PROB40 0803/0806 8000 BKN008=
201008061823 TAF AMD EGLL 061823Z 0618/0724 20010KT 9999 BKN008
                      BECMG 0618/0621 SCT030
                      PROB30 TEMPO 0621/0705 7000 RA BKN009=
201008061701 TAF EGLL 061701Z 0618/0724 20010KT 9999 BKN010
                      BECMG 0618/0621 SCT030
                      PROB30 TEMPO 0621/0705 7000 RA BKN009=
201008061525 TAF AMD EGLL 061525Z 0615/0718 20010KT 9999 SCT035
                      PROB40 TEMPO 0615/0623 7000 RA BKN008=
201008061056 TAF EGLL 061056Z 0612/0718 20010KT 9999 SCT035
                      BECMG 0612/0615 BKN014
                      PROB40 TEMPO 0612/0619 7000 RA
                      PROB30 TEMPO 0614/0618 BKN008
                      BECMG 0700/0703 SCT030=
201008060500 TAF EGLL 060500Z 0606/0712 21008KT 9999 SCT040
                      TEMPO 0611/0619 6000 RA
                      BECMG 0612/0614 BKN014
                      PROB30 TEMPO 0613/0618 3000 RADZ BKN004
                      BECMG 0619/0622 BKN025=
201008052259 TAF EGLL 052259Z 0600/0706 28008KT 9999 SCT040
                      BECMG 0611/0613 21012KT BKN014
                      TEMPO 0612/0618 6000 RA BKN008
                      PROB30 TEMPO 0613/0617 3000 RADZ BKN004
                      BECMG 0619/0622 BKN025
                      PROB30 TEMPO 0700/0702 6000 RA=
201008051744 TAF COR EGLL 051744Z 0518/0624 27010KT 9999 SCT040
                      BECMG 0611/0613 21012KT 7000 BKN014
                      BECMG 0613/0616 RA BKN009
                      PROB30 TEMPO 0613/0617 4000 RADZ BKN004
                      BECMG 0619/0622 9999 NSW BKN025=
201008051657 TAF EGLL 051657Z 0518/0624 27010KT 9999 SCT040
                      BECMG 0611/0613 21012KT 7000 BKN014
                      BECMG 0613/0616 RA BKN009
                      PROB30 TEMPO 0613/0617 4000 RADZ BKN004
                      BECMG 0619/0622 9999 BKN025=
201008051057 TAF EGLL 051057Z 0512/0618 28010KT 9999 SCT040
                      BECMG 0611/0613 21012KT 7000 BKN014
                      BECMG 0613/0616 RA BKN009
                      PROB30 TEMPO 0613/0618 4000 RADZ BKN004=
201008050458 TAF EGLL 050458Z 0506/0612 30010KT 9999 SCT040
                      BECMG 0520/0523 24006KT
                      PROB40 0610/0612 7000 RA=
201008042257 TAF EGLL 042257Z 0500/0606 30008KT 9999 SCT030
                      PROB30 TEMPO 0515/0520 7000 SHRA=
201008041740 TAF EGLL 041740Z 0418/0524 33010KT 9999 SCT030
                      PROB30 TEMPO 0418/0419 6000 SHRA=
201008041700 TAF EGLL 041700Z NIL=
201008041056 TAF EGLL 041056Z 0412/0518 25012KT 9999 SCT025
                      TEMPO 0412/0415 6000 SHRA
                      PROB30 TEMPO 0412/0414 3500 +SHRA BKN014CB
                       BECMG 0413/0415 33010KT
                      PROB30 TEMPO 0413/0417 7000 SHRA=
201008040502 TAF EGLL 040502Z 0406/0512 24008KT 9999 SCT030
                      TEMPO 0406/0414 6000 SHRA
                      PROB30 TEMPO 0410/0414 3500 +SHRA BKN014CB
                       BECMG 0413/0415 33010KT
                      PROB30 TEMPO 0413/0417 7000 SHRA=
201008032304 TAF EGLL 032304Z 0400/0506 25007KT 9999 SCT040
                      TEMPO 0403/0413 6000 SHRA
                      PROB30 TEMPO 0409/0413 3500 +RA BKN014
                      BECMG 0413/0415 33010KT
                      PROB30 TEMPO 0413/0418 7000 SHRA=
201008031659 TAF EGLL 031659Z 0318/0424 27007KT 9999 SCT040
                      TEMPO 0403/0411 6000 RA
                      PROB30 TEMPO 0406/0416 3500 +RA BKN014CB
                       PROB40
                      TEMPO 0416/0418 7000 SHRA
                      BECMG 0416/0419 33010KT=
201008031057 TAF EGLL 031057Z 0312/0418 27007KT 9999 SCT040
                      PROB30 0400/0403 7000 RA
                      TEMPO 0403/0411 6000 RA
                      PROB30 TEMPO 0406/0410 3500 +RA BKN014
                      PROB40 TEMPO 0411/0416 7000 SHRA
                      BECMG 0415/0418 33010KT=
201008030507 TAF EGLL 030507Z 0306/0412 27007KT 9999 SCT040
                      PROB30 TEMPO 0322/0401 6000 -RA
                      TEMPO 0406/0412 6000 SHRA
                      PROB30 TEMPO 0411/0412 3500 +RA BKN014CB=
201008022302 TAF EGLL 022302Z 0300/0406 26005KT 9999 SCT040
                      PROB30 TEMPO 0405/0406 6000 RA=
201008021702 TAF EGLL 021702Z 0218/0324 31006KT 9999 SCT045
                      PROB30 TEMPO 0321/0324 BKN014=
201008021100 TAF EGLL 021100Z NIL=
201008021057 TAF EGLL 021057Z 0212/0318 31006KT 9999 SCT045
                      PROB30 TEMPO 0212/0216 6000 SHRA=
201008020457 TAF EGLL 020457Z 0206/0312 31006KT 9999 SCT045
                      PROB30 TEMPO 0210/0216 7000 SHRA
                      BECMG 0309/0312 8000 -RA BKN014=
201008012257 TAF EGLL 012257Z 0200/0306 31006KT 9999 SCT045
                      PROB30 TEMPO 0210/0216 7000 SHRA=
201008011700 TAF EGLL 011700Z 0118/0224 31006KT 9999 SCT045
                      PROB30 TEMPO 0210/0216 7000 SHRA=
201008011101 TAF EGLL 011101Z 0112/0218 29008KT 9999 SCT045
                      PROB30 TEMPO 0210/0216 7000 SHRA=
201008010454 TAF EGLL 010454Z 0106/0212 27007KT 9999 FEW025 SCT045
                      PROB30 TEMPO 0210/0212 7000 SHRA=
