##########################################################
# Query made at 12/24/2012 14:13:06 UTC
# Time interval: from 08/01/2011 00:00  to 08/31/2011 23:59  UTC
##########################################################

##########################################################
# EGLL, London / Heathrow Airport (United Kingdom)
# WMO index: 03772
# Latitude 51-29N. Longitude 000-27W. Altitude 24 m.
##########################################################

###################################
#  METAR/SPECI from EGLL
###################################
201108312350 METAR COR EGLL 312350Z 07004KT CAVOK 12/09 Q1016 NOSIG=
201108312320 METAR COR EGLL 312320Z 08005KT CAVOK 12/09 Q1016 NOSIG=
201108312250 METAR COR EGLL 312250Z 08004KT CAVOK 13/09 Q1016 NOSIG=
201108312220 METAR COR EGLL 312220Z 07004KT 9999 FEW041 13/09 Q1016 NOSIG=
201108312150 METAR COR EGLL 312150Z 11006KT 9999 BKN040 13/09 Q1016 NOSIG=
201108312120 METAR COR EGLL 312120Z 11004KT 9999 SCT043 14/08 Q1015 NOSIG=
201108312050 METAR COR EGLL 312050Z 07004KT 9999 BKN043 15/08 Q1015 NOSIG=
201108312020 METAR COR EGLL 312020Z 06004KT 9999 BKN043 16/08 Q1015 NOSIG=
201108311950 METAR COR EGLL 311950Z 06004KT 9999 BKN045 16/08 Q1015 NOSIG=
201108311920 METAR COR EGLL 311920Z 06003KT 9999 BKN045 16/08 Q1015 NOSIG=
201108311850 METAR COR EGLL 311850Z 05004KT 010V070 9999 BKN042 17/08
                        Q1015 NOSIG=
201108311820 METAR COR EGLL 311820Z 08005KT 9999 BKN045 17/08 Q1015 NOSIG=
201108311750 METAR COR EGLL 311750Z 06005KT 9999 BKN045 17/08 Q1015 NOSIG=
201108311720 METAR COR EGLL 311720Z 06004KT 020V100 9999 BKN039 17/08
                        Q1015 NOSIG=
201108311650 METAR COR EGLL 311650Z 04004KT 010V100 9999 FEW039 BKN045
                        17/09 Q1015 NOSIG=
201108311620 METAR COR EGLL 311620Z 06004KT 9999 FEW037 BKN044 17/09 Q1015
                        NOSIG=
201108311550 METAR COR EGLL 311550Z 05005KT 360V090 9999 FEW038 OVC042
                        17/09 Q1015 NOSIG=
201108311520 METAR COR EGLL 311520Z 04005KT 330V100 9999 FEW037 BKN045
                        18/09 Q1015 NOSIG=
201108311450 METAR COR EGLL 311450Z 05004KT 350V170 9999 FEW036 BKN045
                        18/09 Q1015 NOSIG=
201108311420 METAR COR EGLL 311420Z 04005KT 340V100 9999 FEW037 BKN045
                        18/09 Q1015 NOSIG=
201108311350 METAR COR EGLL 311350Z 13005KT 060V170 9999 SCT035 BKN046
                        17/08 Q1016 NOSIG=
201108311320 METAR COR EGLL 311320Z VRB03KT 9999 BKN035 17/09 Q1016 NOSIG=
201108311250 METAR COR EGLL 311250Z VRB03KT 9999 SCT034 SCT037 17/09 Q1016
                        NOSIG=
201108311220 METAR COR EGLL 311220Z VRB03KT 9999 SCT031 BKN035 16/09 Q1016
                        NOSIG=
201108311150 METAR COR EGLL 311150Z VRB03KT 9999 SCT031 BKN036 16/09 Q1016
                        NOSIG=
201108311120 METAR COR EGLL 311120Z VRB02KT 9999 SCT028 BKN034 16/09 Q1016
                        NOSIG=
201108311050 METAR COR EGLL 311050Z VRB03KT 9999 FEW030 BKN039 16/10 Q1016
                        NOSIG=
201108311020 METAR COR EGLL 311020Z 02005KT 330V060 9999 SCT026 BKN044
                        16/10 Q1016 NOSIG=
201108310950 METAR COR EGLL 310950Z VRB03KT 9999 FEW022 BKN044 16/09 Q1016
                        NOSIG=
201108310920 METAR COR EGLL 310920Z VRB03KT 9999 FEW035 BKN045 16/10 Q1016
                        NOSIG=
201108310850 METAR COR EGLL 310850Z VRB03KT 9999 BKN045 16/10 Q1016 NOSIG=
201108310820 METAR COR EGLL 310820Z 07004KT 360V100 9999 BKN045 15/10
                        Q1016 NOSIG=
201108310750 METAR EGLL 310750Z 04004KT 360V070 9999 BKN044 15/10 Q1016
                        NOSIG=
201108310720 METAR COR EGLL 310720Z VRB03KT 9999 BKN043 15/10 Q1016 NOSIG=
201108310650 METAR COR EGLL 310650Z VRB03KT 9999 BKN044 14/10 Q1016 NOSIG=
201108310620 METAR COR EGLL 310620Z VRB02KT 9999 BKN044 14/10 Q1016 NOSIG=
201108310550 METAR COR EGLL 310550Z 36002KT 9999 BKN043 14/10 Q1015 NOSIG=
201108310520 METAR COR EGLL 310520Z VRB03KT 9999 FEW036 BKN042 14/10 Q1015
                        NOSIG=
201108310450 METAR COR EGLL 310450Z VRB03KT 9999 BKN041 14/10 Q1015 NOSIG=
201108310420 METAR COR EGLL 310420Z VRB03KT 9999 BKN044 14/10 Q1015 NOSIG=
201108310350 METAR EGLL 310350Z 35002KT 9999 BKN044 14/10 Q1015=
201108310320 METAR COR EGLL 310320Z 36002KT 9999 FEW040 BKN045 14/11 Q1015
                        NOSIG=
201108310250 METAR COR EGLL 310250Z 01002KT 9999 BKN044 14/11 Q1015 NOSIG=
201108310220 METAR COR EGLL 310220Z 35003KT 9999 BKN044 14/11 Q1015 NOSIG=
201108310150 METAR EGLL 310150Z VRB02KT 9999 BKN044 14/10 Q1015=
201108310120 METAR EGLL 310120Z AUTO VRB02KT 9999NDV OVC045/// 14/10 Q1016=
201108302350 METAR COR EGLL 302350Z 36002KT 9999 BKN047 14/11 Q1016 NOSIG=
201108302320 METAR COR EGLL 302320Z 00000KT 9999 BKN047 14/11 Q1016 NOSIG=
201108302250 METAR COR EGLL 302250Z 00000KT 9999 BKN046 15/09 Q1016 NOSIG=
201108302220 METAR EGLL 302220Z VRB02KT 9999 BKN045 15/10 Q1016=
201108302150 METAR COR EGLL 302150Z VRB03KT 9999 BKN045 15/10 Q1016 NOSIG=
201108302120 METAR COR EGLL 302120Z VRB03KT 9999 BKN046 16/09 Q1016 NOSIG=
201108302050 METAR COR EGLL 302050Z 32002KT 9999 BKN045 16/08 Q1016 NOSIG=
201108302020 METAR EGLL 302020Z 30002KT 9999 FEW035 BKN045 16/08 Q1016=
201108301950 METAR COR EGLL 301950Z 32002KT 9999 FEW036 BKN046 16/08 Q1016
                        NOSIG=
201108301920 METAR COR EGLL 301920Z 31002KT 9999 FEW042 BKN045 16/08 Q1016
                        NOSIG=
201108301850 METAR COR EGLL 301850Z 32003KT 9999 FEW037 BKN043 16/08 Q1016
                        NOSIG=
201108301820 METAR COR EGLL 301820Z 32003KT 9999 FEW037 BKN045 16/08 Q1016
                        NOSIG=
201108301750 METAR COR EGLL 301750Z VRB03KT 9999 FEW036 BKN046 16/08 Q1016
                        NOSIG=
201108301720 METAR COR EGLL 301720Z VRB03KT 9999 FEW032 BKN045 16/08 Q1016
                        NOSIG=
201108301650 METAR COR EGLL 301650Z 32003KT 9999 FEW032 OVC041 16/08 Q1016
                        NOSIG=
201108301620 METAR COR EGLL 301620Z 32004KT 290V350 9999 FEW032 OVC042
                        16/08 Q1016 NOSIG=
201108301550 METAR COR EGLL 301550Z 32004KT 280V020 9999 FEW041 BKN044
                        16/08 Q1017 NOSIG=
201108301520 METAR COR EGLL 301520Z 34004KT 300V030 9999 FEW043 BKN045
                        17/08 Q1017 NOSIG=
201108301450 METAR COR EGLL 301450Z 35004KT 310V020 9999 BKN044 17/07
                        Q1017 NOSIG=
201108301420 METAR COR EGLL 301420Z 36004KT 310V060 9999 FEW039 BKN044
                        17/07 Q1017 NOSIG=
201108301350 METAR COR EGLL 301350Z 34004KT 290V010 9999 FEW043 BKN045
                        17/07 Q1017 NOSIG=
201108301320 METAR COR EGLL 301320Z 31004KT 280V010 9999 FEW041 BKN043
                        17/07 Q1017 NOSIG=
201108301250 METAR COR EGLL 301250Z 32005KT 280V350 9999 BKN041 17/07
                        Q1017 NOSIG=
201108301220 METAR COR EGLL 301220Z 31007KT 270V340 9999 FEW035 BKN042
                        16/07 Q1017 NOSIG=
201108301150 METAR COR EGLL 301150Z 31005KT 270V360 9999 FEW028 BKN046
                        17/08 Q1017 NOSIG=
201108301120 METAR COR EGLL 301120Z 30005KT 270V350 9999 FEW028 BKN045
                        16/08 Q1017 NOSIG=
201108301050 METAR COR EGLL 301050Z 30005KT 260V340 9999 FEW028 BKN045
                        16/09 Q1018 NOSIG=
201108301020 METAR COR EGLL 301020Z 31005KT 270V350 9999 FEW024 BKN045
                        16/09 Q1018 NOSIG=
201108300950 METAR COR EGLL 300950Z 30004KT 260V350 9999 FEW020 BKN043
                        15/09 Q1018 NOSIG=
201108300920 METAR COR EGLL 300920Z 30006KT 270V360 9999 FEW020 BKN042
                        15/09 Q1018 NOSIG=
201108300850 METAR COR EGLL 300850Z 30006KT 260V330 9999 FEW046 BKN048
                        15/10 Q1018 NOSIG=
201108300820 METAR COR EGLL 300820Z 31007KT 280V340 9999 FEW049 14/10
                        Q1018 NOSIG=
201108300750 METAR COR EGLL 300750Z 29006KT CAVOK 14/09 Q1018 NOSIG=
201108300720 METAR COR EGLL 300720Z 29006KT CAVOK 14/09 Q1018 NOSIG=
201108300650 METAR COR EGLL 300650Z 29007KT 9999 FEW049 13/09 Q1018 NOSIG=
201108300620 METAR COR EGLL 300620Z 29007KT CAVOK 13/09 Q1017 NOSIG=
201108300550 METAR COR EGLL 300550Z 29007KT 9999 BKN048 13/09 Q1017 NOSIG=
201108300520 METAR COR EGLL 300520Z 29006KT 9999 BKN049 13/09 Q1017 NOSIG=
201108300450 METAR COR EGLL 300450Z 28007KT CAVOK 12/09 Q1017 NOSIG=
201108300420 METAR COR EGLL 300420Z 29006KT 9999 SCT049 12/09 Q1017 NOSIG=
201108300350 METAR COR EGLL 300350Z 29006KT 9999 SCT049 13/09 Q1017 NOSIG=
201108300320 METAR COR EGLL 300320Z 30005KT CAVOK 13/08 Q1017 NOSIG=
201108300250 METAR COR EGLL 300250Z 29006KT CAVOK 13/09 Q1017 NOSIG=
201108300220 METAR COR EGLL 300220Z 29006KT CAVOK 13/08 Q1018 NOSIG=
201108300150 METAR COR EGLL 300150Z 29006KT CAVOK 13/08 Q1018 NOSIG=
201108300120 METAR EGLL 300120Z AUTO 30005KT 9999NDV NCD 13/08 Q1018=
201108300050 METAR EGLL 300050Z AUTO 31005KT 9999NDV NCD 13/08 Q1018=
201108300020 METAR EGLL 300020Z AUTO 29005KT 9999NDV NCD 14/08 Q1018=
201108292350 METAR COR EGLL 292350Z 30006KT CAVOK 14/08 Q1018 NOSIG=
201108292320 METAR COR EGLL 292320Z 29006KT CAVOK 13/08 Q1018 NOSIG=
201108292250 METAR COR EGLL 292250Z 29005KT CAVOK 14/07 Q1018 NOSIG=
201108292220 METAR COR EGLL 292220Z 29006KT CAVOK 14/08 Q1018 NOSIG=
201108292150 METAR COR EGLL 292150Z 29006KT CAVOK 14/07 Q1018 NOSIG=
201108292120 METAR COR EGLL 292120Z 28008KT CAVOK 14/07 Q1018 NOSIG=
201108292050 METAR COR EGLL 292050Z 29006KT CAVOK 14/07 Q1018 NOSIG=
201108292020 METAR COR EGLL 292020Z 30005KT CAVOK 15/07 Q1018 NOSIG=
201108291950 METAR COR EGLL 291950Z 30005KT CAVOK 15/06 Q1018 NOSIG=
201108291920 METAR COR EGLL 291920Z 30006KT CAVOK 15/06 Q1018 NOSIG=
201108291850 METAR COR EGLL 291850Z 29006KT 9999 FEW048 16/06 Q1018 NOSIG=
201108291820 METAR COR EGLL 291820Z 29006KT 9999 FEW049 16/05 Q1018 NOSIG=
201108291750 METAR COR EGLL 291750Z 30006KT 270V340 9999 FEW047 16/05
                        Q1018 NOSIG=
201108291720 METAR COR EGLL 291720Z 30007KT CAVOK 16/05 Q1018 NOSIG=
201108291650 METAR COR EGLL 291650Z 30008KT CAVOK 16/06 Q1018 NOSIG=
201108291620 METAR COR EGLL 291620Z 30008KT 9999 FEW049 16/05 Q1018 NOSIG=
201108291550 METAR COR EGLL 291550Z 28011KT CAVOK 17/05 Q1018 NOSIG=
201108291520 METAR COR EGLL 291520Z 31009KT 9999 FEW049 17/05 Q1018 NOSIG=
201108291450 METAR COR EGLL 291450Z 30009KT 9999 FEW043 16/05 Q1018 NOSIG=
201108291420 METAR COR EGLL 291420Z 32009KT 9999 BKN046 16/06 Q1018 NOSIG=
201108291350 METAR COR EGLL 291350Z 32007KT 260V360 9999 FEW045 18/07
                        Q1018 NOSIG=
201108291320 METAR COR EGLL 291320Z 31008KT 270V350 9999 SCT045 16/06
                        Q1018 NOSIG=
201108291250 METAR COR EGLL 291250Z 29010KT 9999 SCT048 18/05 Q1018 NOSIG=
201108291220 METAR COR EGLL 291220Z 31009KT 280V360 9999 BKN046 16/05
                        Q1018 NOSIG=
201108291150 METAR COR EGLL 291150Z 27009KT 240V350 9999 SCT043 17/07
                        Q1018 NOSIG=
201108291120 METAR COR EGLL 291120Z 29007KT 260V320 9999 SCT040 16/06
                        Q1018 NOSIG=
201108291050 METAR COR EGLL 291050Z 30008KT 260V330 9999 FEW040 SCT045
                        16/06 Q1018 NOSIG=
201108291020 METAR COR EGLL 291020Z 31010KT 270V340 9999 SCT036 16/06
                        Q1018 NOSIG=
201108290950 METAR COR EGLL 290950Z 30011KT 9999 SCT034 16/07 Q1018 NOSIG=
201108290920 METAR COR EGLL 290920Z 30010KT 9999 FEW035 15/07 Q1018 NOSIG=
201108290850 METAR COR EGLL 290850Z 29008KT 260V330 9999 FEW029 15/07
                        Q1018 NOSIG=
201108290820 METAR COR EGLL 290820Z 31009KT 280V340 9999 FEW024 14/08
                        Q1018 NOSIG=
201108290750 METAR COR EGLL 290750Z 29009KT CAVOK 13/08 Q1018 NOSIG=
201108290720 METAR COR EGLL 290720Z 28009KT CAVOK 12/09 Q1017 NOSIG=
201108290650 METAR COR EGLL 290650Z 29009KT CAVOK 11/09 Q1017 NOSIG=
201108290620 METAR COR EGLL 290620Z 27008KT CAVOK 11/09 Q1017 NOSIG=
201108290550 METAR COR EGLL 290550Z 27008KT CAVOK 11/09 Q1017 NOSIG=
201108290520 METAR COR EGLL 290520Z 28007KT CAVOK 10/09 Q1017 NOSIG=
201108290450 METAR COR EGLL 290450Z 28006KT CAVOK 10/09 Q1016 NOSIG=
201108290420 METAR COR EGLL 290420Z 27006KT CAVOK 11/09 Q1016 NOSIG=
201108290350 METAR COR EGLL 290350Z 28007KT CAVOK 11/09 Q1017 NOSIG=
201108290320 METAR COR EGLL 290320Z 27007KT CAVOK 11/09 Q1017 NOSIG=
201108290250 METAR COR EGLL 290250Z 27008KT CAVOK 12/10 Q1017 NOSIG=
201108290220 METAR COR EGLL 290220Z 27008KT CAVOK 11/10 Q1017 NOSIG=
201108290150 METAR COR EGLL 290150Z 27006KT 9999 FEW049 12/10 Q1017 NOSIG=
201108290120 METAR EGLL 290120Z AUTO 28008KT 9999NDV NCD 12/10 Q1017=
201108290050 METAR EGLL 290050Z AUTO 27008KT 9999NDV NCD 12/10 Q1017=
201108290020 METAR EGLL 290020Z AUTO 26007KT 9999NDV NCD 12/10 Q1017=
201108282350 METAR COR EGLL 282350Z 26009KT CAVOK 12/10 Q1017 NOSIG=
201108282320 METAR COR EGLL 282320Z 27009KT CAVOK 12/10 Q1017 NOSIG=
201108282250 METAR COR EGLL 282250Z 25007KT CAVOK 12/10 Q1017 NOSIG=
201108282220 METAR COR EGLL 282220Z 25009KT CAVOK 12/10 Q1017 NOSIG=
201108282150 METAR COR EGLL 282150Z 27009KT CAVOK 13/10 Q1017 NOSIG=
201108282120 METAR COR EGLL 282120Z 28009KT CAVOK 13/10 Q1017 NOSIG=
201108282050 METAR COR EGLL 282050Z 25008KT CAVOK 14/10 Q1017 NOSIG=
201108282020 METAR COR EGLL 282020Z 26010KT CAVOK 14/10 Q1017 NOSIG=
201108281950 METAR COR EGLL 281950Z 25009KT CAVOK 14/10 Q1016 NOSIG=
201108281920 METAR COR EGLL 281920Z 25010KT CAVOK 15/10 Q1016 NOSIG=
201108281850 METAR COR EGLL 281850Z 26009KT CAVOK 15/11 Q1016 NOSIG=
201108281820 METAR COR EGLL 281820Z 27008KT 9999 BKN046CB 15/10 Q1016
                        NOSIG=
201108281750 METAR COR EGLL 281750Z 28010KT 9999 VCSH SCT045CB 15/10 Q1016
                        NOSIG=
201108281720 METAR COR EGLL 281720Z 25010KT 9999 FEW035 16/10 Q1016 NOSIG=
201108281650 METAR COR EGLL 281650Z 25013KT 9999 FEW035 16/10 Q1015 NOSIG=
201108281620 METAR COR EGLL 281620Z 28013KT 9999 FEW035 17/09 Q1015 NOSIG=
201108281550 METAR COR EGLL 281550Z 29015KT 9999 FEW035TCU 17/09 Q1015
                        NOSIG=
201108281520 METAR COR EGLL 281520Z 25014KT 9999 FEW035TCU 18/09 Q1015
                        NOSIG=
201108281450 METAR COR EGLL 281450Z 23013KT 9999 FEW035CB 18/10 Q1015
                        NOSIG=
201108281420 METAR COR EGLL 281420Z 23012KT 9999 FEW035CB 18/11 Q1015
                        NOSIG=
201108281350 METAR COR EGLL 281350Z 23011KT 9999 VCSH FEW049CB 17/12 Q1016
                        NOSIG=
201108281320 METAR COR EGLL 281320Z 25013KT 9999 VCSH FEW039CB 16/11 Q1016
                        RESHRA TEMPO SHRA=
201108281250 METAR COR EGLL 281250Z 27010KT 9999 -SHRA FEW030CB 16/12
                        Q1016 NOSIG=
201108281220 METAR COR EGLL 281220Z 29007KT 9999 -SHRA FEW025CB SCT032
                        16/11 Q1015 RESHRA TEMPO SHRA=
201108281150 METAR COR EGLL 281150Z 26013KT 9999 FEW035 19/10 Q1015 TEMPO
                        SHRA=
201108281120 METAR COR EGLL 281120Z 27014KT 9999 FEW029 17/10 Q1016 NOSIG=
201108281050 METAR COR EGLL 281050Z 28011KT 9999 FEW024 SCT027 16/10 Q1016
                        NOSIG=
201108281020 METAR COR EGLL 281020Z 28012KT 9999 SCT026 SCT030 17/10 Q1016
                        NOSIG=
201108280950 METAR COR EGLL 280950Z 27013KT 9999 FEW024 SCT028 17/10 Q1015
                        NOSIG=
201108280920 METAR COR EGLL 280920Z 28013KT 9999 FEW021 SCT023 16/10 Q1015
                        NOSIG=
201108280850 METAR COR EGLL 280850Z 26011KT 9999 FEW020 16/11 Q1016 NOSIG=
201108280820 METAR COR EGLL 280820Z 27010KT 9999 FEW018 14/11 Q1016 NOSIG=
201108280750 METAR COR EGLL 280750Z 26011KT 9999 FEW012 14/11 Q1016 NOSIG=
201108280720 METAR COR EGLL 280720Z 27009KT CAVOK 13/10 Q1016 NOSIG=
201108280650 METAR COR EGLL 280650Z 27010KT CAVOK 13/10 Q1015 NOSIG=
201108280620 METAR COR EGLL 280620Z 26008KT CAVOK 13/10 Q1015 NOSIG=
201108280550 METAR COR EGLL 280550Z 24009KT CAVOK 13/10 Q1015 NOSIG=
201108280520 METAR COR EGLL 280520Z 25008KT CAVOK 13/10 Q1015 NOSIG=
201108280450 METAR COR EGLL 280450Z 24007KT CAVOK 13/10 Q1015 NOSIG=
201108280420 METAR COR EGLL 280420Z 25007KT CAVOK 13/10 Q1015 NOSIG=
201108280350 METAR COR EGLL 280350Z 25007KT CAVOK 13/10 Q1015 NOSIG=
201108280320 METAR COR EGLL 280320Z 25007KT CAVOK 13/10 Q1015 NOSIG=
201108280250 METAR COR EGLL 280250Z 25007KT CAVOK 13/10 Q1015 NOSIG=
201108280220 METAR COR EGLL 280220Z 24006KT CAVOK 13/10 Q1015 NOSIG=
201108280150 METAR COR EGLL 280150Z 23007KT 9999 FEW049 13/10 Q1015 NOSIG=
201108280120 METAR EGLL 280120Z AUTO 24008KT 9999NDV NCD 13/10 Q1015=
201108280050 METAR EGLL 280050Z AUTO 25007KT 9999NDV NCD 13/10 Q1016=
201108280020 METAR EGLL 280020Z AUTO 25008KT 9999NDV NCD 13/10 Q1016=
201108272350 METAR COR EGLL 272350Z 23008KT CAVOK 13/10 Q1016 NOSIG=
201108272320 METAR COR EGLL 272320Z 25008KT CAVOK 13/10 Q1016 NOSIG=
201108272250 METAR COR EGLL 272250Z 24010KT CAVOK 14/10 Q1016 NOSIG=
201108272220 METAR COR EGLL 272220Z 25011KT CAVOK 14/10 Q1016 NOSIG=
201108272150 METAR COR EGLL 272150Z 25011KT CAVOK 14/10 Q1016 NOSIG=
201108272120 METAR COR EGLL 272120Z 26011KT CAVOK 14/10 Q1016 NOSIG=
201108272050 METAR COR EGLL 272050Z 26011KT CAVOK 15/10 Q1016 NOSIG=
201108272020 METAR COR EGLL 272020Z 27011KT CAVOK 15/09 Q1015 NOSIG=
201108271950 METAR COR EGLL 271950Z 27011KT CAVOK 15/09 Q1015 NOSIG=
201108271920 METAR COR EGLL 271920Z 26014KT CAVOK 15/09 Q1015 NOSIG=
201108271850 METAR COR EGLL 271850Z 27009KT 9999 FEW039 15/09 Q1014 NOSIG=
201108271820 METAR COR EGLL 271820Z 27013KT 9999 SCT037 16/10 Q1014 NOSIG=
201108271750 METAR COR EGLL 271750Z 27013KT 9999 SCT046CB 17/10 Q1014
                        RESHRA NOSIG=
201108271720 METAR COR EGLL 271720Z 27004KT 9999 -SHRA FEW035 SCT045CB
                        15/10 Q1014 RESHRA TEMPO SHRA=
201108271650 METAR COR EGLL 271650Z 27013KT 9999 FEW040CB 18/08 Q1014
                        NOSIG=
201108271620 METAR COR EGLL 271620Z 26018KT 9999 FEW040CB 18/07 Q1013
                        NOSIG=
201108271550 METAR COR EGLL 271550Z VRB03KT 9999 SCT045CB 17/08 Q1013
                        NOSIG=
201108271520 METAR COR EGLL 271520Z 29006KT 9999 SCT047CB 17/08 Q1013
                        NOSIG=
201108271450 METAR COR EGLL 271450Z 31006KT 280V360 9999 FEW025CB FEW035TCU
                        17/09 Q1013 NOSIG=
201108271420 METAR COR EGLL 271420Z 28016KT 9999 FEW036CB 18/08 Q1013
                        NOSIG=
201108271350 METAR COR EGLL 271350Z 26017KT 9999 SCT036CB 18/09 Q1013
                        NOSIG=
201108271320 METAR COR EGLL 271320Z 28011KT 9999 FEW020 SCT031CB 16/10
                        Q1013 NOSIG=
201108271250 METAR COR EGLL 271250Z 27011KT 9999 FEW024 SCT031CB 17/10
                        Q1013 TEMPO SHRA=
201108271220 METAR COR EGLL 271220Z 30012KT 9999 FEW024 SCT033CB 17/09
                        Q1013 TEMPO SHRA=
201108271150 METAR COR EGLL 271150Z 26014KT 9999 FEW025CB SCT035 18/11
                        Q1013 TEMPO SHRA=
201108271120 METAR COR EGLL 271120Z 27010KT 9999 VCSH FEW025CB 17/11 Q1013
                        TEMPO SHRA=
201108271050 METAR COR EGLL 271050Z 29010KT 9999 -SHRA FEW024CB SCT027
                        15/11 Q1013 TEMPO SHRA=
201108271020 METAR COR EGLL 271020Z 27010KT 9999 FEW027 17/10 Q1013 TEMPO
                        SHRA=
201108270950 METAR COR EGLL 270950Z 29007KT 260V330 9999 FEW025 16/10
                        Q1013 NOSIG=
201108270920 METAR COR EGLL 270920Z 30010KT 9999 FEW021 SCT027 16/11 Q1013
                        NOSIG=
201108270850 METAR COR EGLL 270850Z 28009KT 9999 FEW018 15/11 Q1012 NOSIG=
201108270820 METAR COR EGLL 270820Z 30006KT 9999 FEW012 14/11 Q1012 NOSIG=
201108270750 METAR COR EGLL 270750Z 29006KT CAVOK 13/10 Q1012 NOSIG=
201108270720 METAR COR EGLL 270720Z 29009KT 9999 FEW009 13/11 Q1012 NOSIG=
201108270650 METAR COR EGLL 270650Z 27009KT 9999 FEW009 12/11 Q1011 NOSIG=
201108270620 METAR COR EGLL 270620Z 27009KT 9999 FEW012 12/10 Q1011 NOSIG=
201108270550 METAR COR EGLL 270550Z 28007KT 8000 FEW012 11/10 Q1010 NOSIG=
201108270520 METAR COR EGLL 270520Z 27008KT 6000 FEW020 11/10 Q1010 NOSIG=
201108270450 METAR COR EGLL 270450Z 27007KT 4500 BR FEW015 11/10 Q1010
                        BECMG 6000 NSW=
201108270420 METAR COR EGLL 270420Z 27007KT 6000 FEW020 12/11 Q1009 NOSIG=
201108270350 METAR COR EGLL 270350Z 28008KT 6000 FEW020 12/11 Q1009 NOSIG=
201108270320 METAR COR EGLL 270320Z 28007KT 8000 NSC 12/11 Q1009 NOSIG=
201108270250 METAR COR EGLL 270250Z 28007KT 9000 FEW020 12/11 Q1009 NOSIG=
201108270220 METAR COR EGLL 270220Z 29006KT 9999 -RA SCT016 13/11 Q1009
                        NOSIG=
201108270150 METAR COR EGLL 270150Z 30006KT 9999 SCT011 BKN020 13/11 Q1008
                        NOSIG=
201108270120 METAR EGLL 270120Z AUTO 29006KT 6000NDV FEW005/// BKN021///
                        BKN025/// 13/12 Q1008=
201108270050 METAR EGLL 270050Z AUTO 27006KT 4900NDV HZ SCT005/// SCT009///
                        12/12 Q1007=
201108270020 METAR EGLL 270020Z AUTO 19003KT 5000NDV SCT005/// SCT027///
                        12/11 Q1007=
201108262350 METAR COR EGLL 262350Z 23004KT 6000 BKN004 12/11 Q1007 TEMPO
                        SCT004=
201108262320 METAR COR EGLL 262320Z 26004KT 7000 SCT005 SCT041 12/11 Q1007
                        TEMPO BKN005=
201108262250 METAR COR EGLL 262250Z 27005KT 9000 SCT005 BKN035 13/12 Q1007
                        TEMPO BKN005=
201108262220 METAR COR EGLL 262220Z 28005KT 9999 SCT033 13/11 Q1007 NOSIG=
201108262150 METAR COR EGLL 262150Z 28006KT 9999 FEW020 13/11 Q1006 NOSIG=
201108262120 METAR COR EGLL 262120Z 22007KT 9999 FEW020 14/12 Q1006 NOSIG=
201108262050 METAR COR EGLL 262050Z 20004KT 9999 FEW020CB 13/12 Q1006
                        NOSIG=
201108262020 METAR COR EGLL 262020Z 16004KT 120V200 9999 FEW021CB 13/11
                        Q1005 TEMPO SHRA=
201108261950 METAR COR EGLL 261950Z 00000KT 9999 FEW021CB 13/11 Q1005
                        TEMPO SHRA=
201108261920 METAR COR EGLL 261920Z 13004KT 100V160 9999 -RA FEW011CB
                        SCT018 SCT030 14/12 Q1005 RERA TEMPO
                        3000 +TSRA BKN011CB=
201108261850 METAR COR EGLL 261850Z VRB02KT 9999 3500E RA FEW011CB SCT030
                        14/12 Q1005 RERA TEMPO 3000 +TSRA
                        BKN011CB=
201108261820 METAR COR EGLL 261820Z 36003KT 9999 VCSH SCT029CB BKN033
                        16/10 Q1004 TEMPO 4000 +TSRA BKN014CB=
201108261750 METAR COR EGLL 261750Z VRB03KT 9999 BKN029CB 16/10 Q1004
                        NOSIG=
201108261720 METAR COR EGLL 261720Z VRB03KT 9999 FEW020CB 17/11 Q1004
                        NOSIG=
201108261650 METAR COR EGLL 261650Z 26005KT 210V280 9999 SCT014CB BKN041
                        16/11 Q1004 TEMPO 4000 TSRA BKN014CB=
201108261620 METAR COR EGLL 261620Z 28009KT 9999 VCSH SCT014CB SCT035
                        15/11 Q1004 TEMPO 4000 TSRA BKN014=
201108261550 METAR COR EGLL 261550Z 29008KT 9999 5000E -SHRA SCT014CB
                        SCT029 15/12 Q1003 TEMPO 4000 SHRA
                        BKN012=
201108261520 METAR COR EGLL 261520Z 31007KT 280V340 9999 SCT014CB SCT020
                        17/12 Q1003 TEMPO 4000 SHRA BKN012=
201108261450 METAR COR EGLL 261450Z VRB03KT 9999 SCT012CB SCT015 BKN034
                        17/14 Q1003 TEMPO 4000 SHRA BKN012=
201108261420 METAR COR EGLL 261420Z 28003KT 9999 -SHRA FEW008 SCT012CB
                        BKN019 15/13 Q1003 RESHRA TEMPO 4000
                        SHRA BKN012=
201108261350 METAR COR EGLL 261350Z 23008KT 200V270 9999 4500NE SHRA FEW010
                        SCT012CB BKN019 16/14 Q1003 RESHRA
                        TEMPO 4000 BKN012=
201108261320 METAR COR EGLL 261320Z 20005KT 140V250 9999 VCSH SCT009 BKN015
                        16/14 Q1003 TEMPO SHRA BKN012=
201108261250 METAR COR EGLL 261250Z 19005KT 150V250 9999 SCT009 BKN020
                        16/13 Q1003 TEMPO SHRA BKN012=
201108261220 METAR COR EGLL 261220Z 23004KT 190V260 9999 -SHRA SCT011
                        BKN027 16/13 Q1003 NOSIG=
201108261150 METAR COR EGLL 261150Z 30004KT 260V340 9999 FEW010 SCT021
                        BKN034 16/13 Q1003 NOSIG=
201108261120 METAR COR EGLL 261120Z VRB03KT 9999 -RA SCT006 SCT017 BKN036
                        15/14 Q1003 TEMPO SHRA=
201108261050 METAR COR EGLL 261050Z VRB02KT 9999 -RA SCT006 SCT008 15/13
                        Q1003 NOSIG=
201108261020 METAR COR EGLL 261020Z 04003KT 9999 -RA FEW006 SCT010 15/13
                        Q1003 TEMPO 4000 RA BKN008=
201108260950 METAR COR EGLL 260950Z VRB03KT 9000 -RA SCT005 SCT018 14/13
                        Q1003 TEMPO 4000 RA BKN008=
201108260920 METAR COR EGLL 260920Z VRB02KT 6000 -RA FEW004 SCT021 BKN028
                        14/13 Q1003 RERA REDZ TEMPO 4000
                        RA BKN008=
201108260850 METAR COR EGLL 260850Z 02005KT 350V050 5000 RADZ FEW004 BKN014
                        14/13 Q1003 TEMPO BKN008=
201108260820 METAR COR EGLL 260820Z 31004KT 3500 RADZ FEW003 BKN006 14/13
                        Q1003 TEMPO 8000 BKN010=
201108260750 METAR COR EGLL 260750Z VRB02KT 3200 RADZ FEW003 SCT005 BKN008
                        14/13 Q1003 NOSIG=
201108260720 METAR COR EGLL 260720Z 31002KT 2400 RADZ FEW003 SCT007 BKN010
                        14/13 Q1003 TEMPO BKN008=
201108260650 METAR COR EGLL 260650Z VRB03KT 2400 RADZ FEW005 SCT008 BKN010
                        14/13 Q1002 RERA TEMPO BKN008=
201108260620 METAR COR EGLL 260620Z 02004KT 340V080 3500 RADZ FEW004 SCT007
                        BKN009 14/13 Q1003 TEMPO 6000 -RA=
201108260550 METAR COR EGLL 260550Z 35004KT 320V020 6000 SCT006 BKN010
                        14/13 Q1003 TEMPO BKN007=
201108260520 METAR COR EGLL 260520Z VRB03KT 4500 -DZ SCT005 BKN013 14/13
                        Q1003 TEMPO BKN007=
201108260450 METAR COR EGLL 260450Z 05004KT 9999 -DZ SCT005 BKN018 14/12
                        Q1003 TEMPO BKN007=
201108260420 METAR COR EGLL 260420Z VRB03KT 9999 SCT005 BKN018 14/13 Q1004
                        TEMPO RA BKN007=
201108260350 METAR COR EGLL 260350Z 08005KT 050V120 9999 -DZ FEW008 SCT022
                        14/13 Q1004 RERA TEMPO RA BKN014=
201108260320 METAR COR EGLL 260320Z 09008KT 9999 RA FEW022 14/13 Q1005
                        TEMPO BKN014=
201108260250 METAR COR EGLL 260250Z 09006KT 9999 RA FEW014 BKN035 14/13
                        Q1005 TEMPO BKN014=
201108260220 METAR COR EGLL 260220Z 09006KT 9000 RA FEW010 BKN014 14/13
                        Q1006 TEMPO -RA SCT013=
201108260150 METAR COR EGLL 260150Z VRB02KT 9999 RA SCT018 BKN027 14/13
                        Q1006 TEMPO BKN013=
201108260120 METAR EGLL 260120Z AUTO 09005KT 9999NDV -RA BKN026/// 14/13
                        Q1006=
201108260050 METAR EGLL 260050Z AUTO 09006KT 9999NDV -DZ BKN026/// 14/13
                        Q1007=
201108260020 METAR EGLL 260020Z AUTO 09006KT 9999NDV DZ BKN025/// BKN029///
                        14/13 Q1007=
201108252350 METAR COR EGLL 252350Z 08006KT 9999 -RA BKN032 BKN039 14/13
                        Q1008 TEMPO RA=
201108252320 METAR COR EGLL 252320Z 09005KT 9999 -RA FEW043 14/12 Q1008
                        NOSIG=
201108252250 METAR COR EGLL 252250Z 10005KT 9999 -RA NSC 14/12 Q1008 TEMPO
                        RA=
201108252220 METAR COR EGLL 252220Z 13005KT 9999 -RA NSC 15/12 Q1009 TEMPO
                        RA=
201108252150 METAR COR EGLL 252150Z 13005KT 9999 -RA NSC 15/12 Q1009 TEMPO
                        RA=
201108252120 METAR EGLL 252120Z 15006KT 9999 -RA NSC 15/11 Q1009=
201108252050 METAR COR EGLL 252050Z 14005KT 100V220 9999 -RA NSC 16/10
                        Q1009 NOSIG=
201108252020 METAR COR EGLL 252020Z 14006KT CAVOK 16/10 Q1009 NOSIG=
201108251950 METAR COR EGLL 251950Z 18008KT 140V210 CAVOK 17/09 Q1009
                        NOSIG=
201108251920 METAR COR EGLL 251920Z 18008KT 160V260 CAVOK 17/09 Q1009
                        NOSIG=
201108251850 METAR COR EGLL 251850Z 19008KT 160V230 CAVOK 17/09 Q1009
                        NOSIG=
201108251820 METAR COR EGLL 251820Z 19009KT 160V230 CAVOK 18/09 Q1009
                        NOSIG=
201108251750 METAR COR EGLL 251750Z 21010KT CAVOK 18/09 Q1009 NOSIG=
201108251720 METAR COR EGLL 251720Z 21010KT CAVOK 19/08 Q1009 NOSIG=
201108251650 METAR COR EGLL 251650Z 22009KT 9999 FEW048 20/07 Q1008 NOSIG=
201108251620 METAR COR EGLL 251620Z 23012KT 190V260 9999 FEW042 20/08
                        Q1009 NOSIG=
201108251550 METAR COR EGLL 251550Z 21014KT 9999 FEW044 20/08 Q1009 NOSIG=
201108251520 METAR COR EGLL 251520Z 21014KT 9999 SCT040 21/10 Q1009 NOSIG=
201108251450 METAR COR EGLL 251450Z 20013KT 170V240 9999 SCT037 20/10
                        Q1009 NOSIG=
201108251420 METAR COR EGLL 251420Z 23010KT 9999 SCT038 20/12 Q1009 NOSIG=
201108251350 METAR COR EGLL 251350Z 23011KT 9999 SCT030 20/12 Q1009 NOSIG=
201108251320 METAR COR EGLL 251320Z 20011KT 170V250 9999 SCT035 19/12
                        Q1009 NOSIG=
201108251250 METAR COR EGLL 251250Z 22012KT 9999 SCT027 19/12 Q1009 NOSIG=
201108251220 METAR COR EGLL 251220Z 23008KT 200V280 9999 FEW015 SCT023
                        18/13 Q1009 NOSIG=
201108251150 METAR COR EGLL 251150Z 17007KT 100V230 9999 FEW009 SCT020
                        17/14 Q1009 NOSIG=
201108251120 METAR COR EGLL 251120Z 14005KT 070V220 9999 FEW005 SCT049
                        16/14 Q1009 NOSIG=
201108251050 METAR COR EGLL 251050Z 17005KT 110V260 9999 -RA FEW005 SCT023
                        BKN040 14/13 Q1010 NOSIG=
201108251020 METAR COR EGLL 251020Z 17005KT 100V230 9999 -RA FEW012 SCT020
                        BKN030 14/12 Q1010 NOSIG=
201108250950 METAR COR EGLL 250950Z VRB03KT 9999 -RA FEW011 BKN032 13/12
                        Q1010 RERA NOSIG=
201108250920 METAR COR EGLL 250920Z 19005KT 140V240 7000 RA FEW008 SCT022
                        BKN039 14/12 Q1010 TEMPO 4000 +TSRA
                        SHRA BKN012=
201108250850 METAR COR EGLL 250850Z 20006KT 150V250 7000 RA FEW013 SCT025
                        14/13 Q1010 TEMPO 4000 +SHRA TSRA
                        BKN012=
201108250820 METAR COR EGLL 250820Z 21006KT 170V260 8000 RA FEW011 SCT040
                        15/13 Q1010 TEMPO 4000 +SHRA BKN012=
201108250750 METAR COR EGLL 250750Z 20010KT 9999 -RA FEW042 15/13 Q1010
                        TEMPO 4000 +SHRA BKN012=
201108250720 METAR COR EGLL 250720Z 19008KT 150V240 9999 FEW042 15/13
                        Q1010 TEMPO SHRA=
201108250650 METAR COR EGLL 250650Z 17007KT 140V220 CAVOK 15/13 Q1010
                        TEMPO SHRA=
201108250620 METAR COR EGLL 250620Z 20007KT 140V240 9999 FEW014 14/12
                        Q1010 RERA NOSIG=
201108250550 METAR COR EGLL 250550Z 21008KT 170V250 8000 RA FEW010 SCT016
                        BKN046 15/13 Q1010 TEMPO BKN010=
201108250520 METAR COR EGLL 250520Z 19010G20KT 150V230 9999 -RA SCT015
                        BKN041 15/14 Q1009 TEMPO RA BKN014=
201108250450 METAR COR EGLL 250450Z 15006KT CAVOK 15/13 Q1009 NOSIG=
201108250420 METAR COR EGLL 250420Z 16007KT CAVOK 15/13 Q1009 TEMPO RA=
201108250350 METAR COR EGLL 250350Z 16008KT CAVOK 15/13 Q1010 TEMPO RA=
201108250320 METAR COR EGLL 250320Z 16008KT CAVOK 15/12 Q1010 NOSIG=
201108250250 METAR COR EGLL 250250Z 14009KT 9999 FEW037 15/12 Q1010 NOSIG=
201108250220 METAR COR EGLL 250220Z 13008KT 9999 FEW037 15/12 Q1010 NOSIG=
201108250150 METAR COR EGLL 250150Z 14009KT CAVOK 15/12 Q1011 NOSIG=
201108250120 METAR EGLL 250120Z AUTO 13011KT 9999NDV NCD 15/12 Q1011=
201108250050 METAR EGLL 250050Z AUTO 14008KT 9999NDV NCD 14/12 Q1012=
201108250020 METAR EGLL 250020Z AUTO 14008KT 9999NDV SCT044/// 15/12 Q1012=
201108242350 METAR COR EGLL 242350Z 15007KT 9999 FEW045 15/12 Q1012 NOSIG=
201108242320 METAR COR EGLL 242320Z 15006KT CAVOK 14/12 Q1012 NOSIG=
201108242250 METAR COR EGLL 242250Z 16007KT CAVOK 15/12 Q1013 NOSIG=
201108242220 METAR COR EGLL 242220Z 17006KT CAVOK 15/12 Q1013 NOSIG=
201108242150 METAR COR EGLL 242150Z 19009KT CAVOK 15/12 Q1013 NOSIG=
201108242120 METAR COR EGLL 242120Z 17007KT 140V210 CAVOK 15/12 Q1014
                        NOSIG=
201108242050 METAR EGLL 242050Z 18008KT 150V230 9999 FEW032 16/12 Q1014=
201108242020 METAR COR EGLL 242020Z 19009KT 160V230 CAVOK 16/12 Q1014
                        NOSIG=
201108241950 METAR COR EGLL 241950Z 20008KT 180V260 9999 FEW048 17/12
                        Q1013 NOSIG=
201108241920 METAR COR EGLL 241920Z 20009KT 170V240 9999 SCT048 17/11
                        Q1013 NOSIG=
201108241850 METAR COR EGLL 241850Z 20012KT 180V250 9999 SCT044 18/11
                        Q1013 NOSIG=
201108241820 METAR COR EGLL 241820Z 21010KT 9999 BKN036 18/11 Q1013 NOSIG=
201108241750 METAR COR EGLL 241750Z 23011KT 9999 BKN037 18/11 Q1013 NOSIG=
201108241720 METAR COR EGLL 241720Z 22013KT CAVOK 19/11 Q1013 NOSIG=
201108241650 METAR COR EGLL 241650Z 21012KT 180V250 9999 FEW040 20/11
                        Q1013 NOSIG=
201108241620 METAR COR EGLL 241620Z 21013KT 9999 SCT037 20/11 Q1013 NOSIG=
201108241550 METAR EGLL 241550Z 22014KT 9999 FEW043 20/11 Q1013=
201108241520 METAR COR EGLL 241520Z 22012KT 9999 SCT043 20/11 Q1013 NOSIG=
201108241450 METAR COR EGLL 241450Z 23009KT 200V270 9999 SCT047 22/10
                        Q1013 NOSIG=
201108241420 METAR COR EGLL 241420Z 24008KT 190V290 9999 SCT046 22/10
                        Q1013 NOSIG=
201108241350 METAR COR EGLL 241350Z 23011KT 200V270 9999 BKN046 21/09
                        Q1013 NOSIG=
201108241320 METAR COR EGLL 241320Z 24010KT 200V270 9999 FEW040 BKN044
                        20/10 Q1013 NOSIG=
201108241250 METAR COR EGLL 241250Z 24010KT 200V270 9999 FEW012 SCT031
                        20/11 Q1013 NOSIG=
201108241220 METAR COR EGLL 241220Z 24008KT 180V300 9999 FEW012 SCT030
                        19/12 Q1013 NOSIG=
201108241150 METAR COR EGLL 241150Z 24009KT 210V270 9999 FEW012 18/12
                        Q1013 NOSIG=
201108241120 METAR COR EGLL 241120Z 24009KT 200V280 9999 FEW012 18/13
                        Q1014 NOSIG=
201108241050 METAR EGLL 241050Z 26008KT 230V290 9999 FEW012 BKN047 16/12
                        Q1014=
201108241020 METAR COR EGLL 241020Z 24009KT 9999 FEW015 BKN044 16/13 Q1014
                        NOSIG=
201108240950 METAR COR EGLL 240950Z 25007KT 220V290 9999 FEW015 BKN034
                        15/12 Q1013 NOSIG=
201108240920 METAR COR EGLL 240920Z 27007KT 230V290 9999 SCT025 BKN030
                        14/12 Q1013 NOSIG=
201108240850 METAR COR EGLL 240850Z 27007KT 9999 SCT024 BKN028 14/12 Q1013
                        NOSIG=
201108240820 METAR COR EGLL 240820Z 27010KT 9999 FEW014 BKN027 14/12 Q1013
                        NOSIG=
201108240750 METAR COR EGLL 240750Z 26007KT 8000 OVC030 15/13 Q1013 NOSIG=
201108240720 METAR COR EGLL 240720Z 26007KT 220V290 6000 FEW008 OVC034
                        15/14 Q1013 NOSIG=
201108240650 METAR COR EGLL 240650Z 25007KT 220V280 4500 HZ SCT010 SCT014
                        15/14 Q1013 BECMG 8000 NSW=
201108240620 METAR COR EGLL 240620Z 23005KT 180V260 4500 -RA SCT011 15/14
                        Q1013 BECMG 8000 NSW=
201108240550 METAR COR EGLL 240550Z 22006KT 190V250 5000 -RA SCT010 14/13
                        Q1013 NOSIG=
201108240520 METAR COR EGLL 240520Z 25005KT 220V280 6000 FEW011 14/13
                        Q1012 NOSIG=
201108240450 METAR COR EGLL 240450Z 21004KT 6000 -SHRA SCT006 BKN011 14/13
                        Q1013 TEMPO BKN007=
201108240420 METAR COR EGLL 240420Z 26006KT 6000 FEW007 BKN011 14/13 Q1013
                        NOSIG=
201108240350 METAR COR EGLL 240350Z 22005KT 6000 FEW005 BKN011 15/13 Q1013
                        NOSIG=
201108240320 METAR EGLL 240320Z 20005KT 6000 FEW008 BKN010 15/13 Q1013=
201108240250 METAR COR EGLL 240250Z 21004KT 6000 FEW008 SCT012 14/13 Q1013
                        TEMPO BKN010=
201108240220 METAR EGLL 240220Z NIL=
201108240150 METAR EGLL 240150Z NIL=
201108240120 METAR COR EGLL 240120Z 26006KT 8000 SCT008 BKN012 14/13 Q1013
                        TEMPO BKN008=
201108240050 METAR COR EGLL 240050Z 25006KT 8000 OVC006 15/13 Q1013 NOSIG=
201108240020 METAR EGLL 240020Z NIL=
201108232350 METAR EGLL 232350Z NIL=
201108232320 METAR EGLL 232320Z NIL=
201108232250 METAR COR EGLL 232250Z 25005KT 5000 BR SCT005 BKN008 14/13
                        Q1013 NOSIG=
201108232220 METAR COR EGLL 232220Z 28004KT 6000 FEW007 13/12 Q1013 TEMPO
                        BKN010=
201108232150 METAR COR EGLL 232150Z 27004KT 7000 FEW007 14/13 Q1013 TEMPO
                        BKN010=
201108232120 METAR COR EGLL 232120Z 28005KT 6000 BKN006 BKN011 15/14 Q1013
                        NOSIG=
201108232050 METAR COR EGLL 232050Z 33004KT 5000 HZ BKN005 BKN008 15/14
                        Q1013 TEMPO 4000 BR=
201108232020 METAR COR EGLL 232020Z 30004KT 7000 BKN006 BKN009 15/14 Q1013
                        NOSIG=
201108231950 METAR COR EGLL 231950Z 32004KT 9000 OVC007 15/14 Q1013 TEMPO
                        SCT007 BKN010=
201108231920 METAR COR EGLL 231920Z 29004KT 8000 OVC008 15/14 Q1012 TEMPO
                        SCT008 BKN012=
201108231850 METAR COR EGLL 231850Z VRB02KT 7000 SCT007 BKN010 15/14 Q1012
                        TEMPO BKN007=
201108231820 METAR COR EGLL 231820Z VRB02KT 8000 SCT007 BKN010 15/14 Q1012
                        TEMPO BKN008=
201108231750 METAR COR EGLL 231750Z VRB02KT 7000 SCT006 BKN010 15/14 Q1012
                        TEMPO BKN008=
201108231720 METAR COR EGLL 231720Z 32004KT 300V010 7000 SCT007 BKN010
                        15/14 Q1012 TEMPO BKN008=
201108231650 METAR COR EGLL 231650Z 35004KT 9000 FEW004 BKN006 15/14 Q1011
                        NOSIG=
201108231620 METAR COR EGLL 231620Z 36004KT 320V040 9000 BKN005 BKN009
                        15/14 Q1011 NOSIG=
201108231550 METAR COR EGLL 231550Z 36004KT 5000 DZ SCT005 BKN011 15/14
                        Q1012 BECMG -DZ=
201108231520 METAR COR EGLL 231520Z 36004KT 330V060 3800 -DZ FEW004 SCT008
                        BKN012 15/14 Q1012 BECMG 5000=
201108231450 METAR COR EGLL 231450Z 36004KT 330V050 3500 HZ FEW004 BKN005
                        BKN012 15/14 Q1012 BECMG 5000=
201108231420 METAR COR EGLL 231420Z 01005KT 330V060 4000 BR FEW004 BKN005
                        15/14 Q1012 TEMPO 5000=
201108231350 METAR COR EGLL 231350Z 36005KT 330V040 4400 -DZ SCT005 BKN009
                        OVC012 15/14 Q1012 TEMPO 5000=
201108231320 METAR COR EGLL 231320Z 01005KT 340V050 3300 DZ BKN004 BKN008
                        15/14 Q1012 TEMPO BKN005=
201108231250 METAR COR EGLL 231250Z 01004KT 320V070 3800 -RADZ BKN005
                        BKN008 15/14 Q1012 TEMPO 5000=
201108231220 METAR COR EGLL 231220Z 01004KT 320V040 3100 -DZ BKN004 OVC005
                        15/14 Q1012 TEMPO BKN005=
201108231150 METAR COR EGLL 231150Z 03005KT 350V070 3500 -RADZ BKN004
                        OVC005 15/14 Q1012 TEMPO 5000 BKN005=
201108231120 METAR COR EGLL 231120Z 01005KT 330V060 3700 -RADZ BKN004
                        15/14 Q1012 TEMPO 5000 BKN005=
201108231050 METAR COR EGLL 231050Z 01004KT 330V050 3700 -RADZ BKN005
                        15/13 Q1012 TEMPO 5000=
201108231020 METAR COR EGLL 231020Z 03006KT 340V070 4700 -RADZ FEW004
                        BKN005 14/13 Q1012 TEMPO 5000=
201108230950 METAR COR EGLL 230950Z 01005KT 340V050 5000 -RADZ FEW004
                        BKN005 14/13 Q1012 RERA NOSIG=
201108230920 METAR COR EGLL 230920Z 02006KT 340V050 4600 RADZ FEW004 BKN005
                        14/13 Q1012 BECMG 6000 -RADZ=
201108230850 METAR COR EGLL 230850Z 03008KT 3900 RADZ SCT006 BKN009 14/13
                        Q1012 TEMPO -RADZ=
201108230820 METAR COR EGLL 230820Z 02006KT 350V050 5000 -RA FEW006 BKN009
                        14/13 Q1013 RERA TEMPO RA=
201108230750 METAR COR EGLL 230750Z 02006KT 340V060 3900 -RADZ FEW009
                        BKN011 14/13 Q1013 TEMPO RADZ BKN009=
201108230720 METAR COR EGLL 230720Z 01007KT 340V050 6000 -SHRA BKN012
                        BKN027 15/12 Q1013 TEMPO SHRA BKN009=
201108230650 METAR COR EGLL 230650Z 02006KT 340V060 9999 SCT016 BKN032
                        15/12 Q1013 TEMPO SHRA=
201108230620 METAR COR EGLL 230620Z 04006KT 360V080 9999 SCT018 BKN035
                        15/11 Q1014 TEMPO SHRA=
201108230550 METAR COR EGLL 230550Z 04005KT 340V070 9999 BKN038 16/11
                        Q1014 TEMPO 7000 SHRA=
201108230520 METAR COR EGLL 230520Z 04006KT 010V080 9999 -SHRA BKN038
                        16/11 Q1014 TEMPO 7000 SHRA=
201108230450 METAR COR EGLL 230450Z 05005KT 9999 BKN040 16/11 Q1014 TEMPO
                        SHRA=
201108230420 METAR COR EGLL 230420Z 05005KT 020V080 9999 SCT044 16/11
                        Q1014 TEMPO SHRA=
201108230350 METAR COR EGLL 230350Z 04006KT 010V080 CAVOK 16/12 Q1014
                        TEMPO SHRA=
201108230320 METAR COR EGLL 230320Z 06006KT CAVOK 16/12 Q1014 NOSIG=
201108230250 METAR COR EGLL 230250Z 06006KT CAVOK 16/12 Q1015 NOSIG=
201108230220 METAR COR EGLL 230220Z 06008KT 020V080 CAVOK 16/12 Q1014
                        TEMPO SHRA=
201108230150 METAR COR EGLL 230150Z 07009KT CAVOK 16/12 Q1014 NOSIG=
201108230120 METAR COR EGLL 230120Z AUTO 07011KT 9999NDV NCD 16/12 Q1015=
201108230050 METAR COR EGLL 230050Z AUTO 06011KT 9999NDV NCD 16/13 Q1015=
201108230020 METAR EGLL 230020Z AUTO 07008KT 9999NDV NCD 16/13 Q1017=
201108222350 METAR COR EGLL 222350Z 09010KT CAVOK 16/13 Q1018 NOSIG=
201108222320 METAR COR EGLL 222320Z 10009KT 9999 -RA NSC 17/12 Q1018 NOSIG=
201108222250 METAR COR EGLL 222250Z 08008KT CAVOK 17/12 Q1017 NOSIG=
201108222220 METAR COR EGLL 222220Z 06006KT 030V090 CAVOK 17/12 Q1017
                        NOSIG=
201108222150 METAR COR EGLL 222150Z 08007KT 9999 FEW023 17/12 Q1017 NOSIG=
201108222120 METAR COR EGLL 222120Z 09007KT 9999 FEW023 17/12 Q1017 NOSIG=
201108222050 METAR COR EGLL 222050Z 10008KT CAVOK 16/12 Q1018 NOSIG=
201108222020 METAR COR EGLL 222020Z 09008KT CAVOK 17/10 Q1018 NOSIG=
201108221950 METAR COR EGLL 221950Z 10010KT CAVOK 18/10 Q1017 NOSIG=
201108221920 METAR COR EGLL 221920Z 09009KT CAVOK 18/09 Q1017 NOSIG=
201108221850 METAR COR EGLL 221850Z 09009KT CAVOK 19/09 Q1017 NOSIG=
201108221820 METAR COR EGLL 221820Z 10009KT CAVOK 20/10 Q1018 NOSIG=
201108221750 METAR COR EGLL 221750Z 11011KT CAVOK 20/10 Q1018 NOSIG=
201108221720 METAR COR EGLL 221720Z 11010KT CAVOK 21/10 Q1018 NOSIG=
201108221650 METAR COR EGLL 221650Z 09009KT CAVOK 22/10 Q1017 NOSIG=
201108221620 METAR COR EGLL 221620Z 07007KT 030V130 CAVOK 22/10 Q1017
                        NOSIG=
201108221550 METAR COR EGLL 221550Z 08007KT CAVOK 23/09 Q1017 NOSIG=
201108221520 METAR COR EGLL 221520Z 08006KT 030V120 CAVOK 22/10 Q1017
                        NOSIG=
201108221450 METAR COR EGLL 221450Z 10006KT 040V160 CAVOK 22/10 Q1018
                        NOSIG=
201108221420 METAR COR EGLL 221420Z 08006KT 020V130 CAVOK 23/09 Q1018
                        NOSIG=
201108221350 METAR COR EGLL 221350Z 10007KT 030V190 9999 FEW049 22/10
                        Q1019 NOSIG=
201108221320 METAR COR EGLL 221320Z 09006KT 060V120 9999 SCT044 23/10
                        Q1019 NOSIG=
201108221250 METAR COR EGLL 221250Z 12006KT 080V180 9999 FEW045 23/09
                        Q1019 NOSIG=
201108221220 METAR COR EGLL 221220Z 12006KT 080V170 9999 FEW045 22/10
                        Q1019 NOSIG=
201108221150 METAR COR EGLL 221150Z 10007KT 070V160 9999 FEW044 21/10
                        Q1019 NOSIG=
201108221120 METAR COR EGLL 221120Z 01004KT 300V070 9999 FEW040 21/11
                        Q1019 NOSIG=
201108221050 METAR COR EGLL 221050Z VRB04KT 9999 FEW045 21/11 Q1020 NOSIG=
201108221020 METAR COR EGLL 221020Z 06005KT 020V110 CAVOK 19/12 Q1020
                        NOSIG=
201108220950 METAR COR EGLL 220950Z 08004KT 020V150 CAVOK 19/12 Q1020
                        NOSIG=
201108220920 METAR COR EGLL 220920Z VRB03KT CAVOK 18/12 Q1020 NOSIG=
201108220850 METAR COR EGLL 220850Z VRB02KT CAVOK 18/12 Q1020 NOSIG=
201108220820 METAR COR EGLL 220820Z VRB03KT CAVOK 17/12 Q1020 NOSIG=
201108220750 METAR COR EGLL 220750Z VRB03KT CAVOK 16/11 Q1019 NOSIG=
201108220720 METAR COR EGLL 220720Z VRB03KT CAVOK 15/11 Q1019 NOSIG=
201108220650 METAR COR EGLL 220650Z VRB02KT CAVOK 14/11 Q1020 NOSIG=
201108220620 METAR COR EGLL 220620Z VRB02KT CAVOK 13/11 Q1019 NOSIG=
201108220550 METAR COR EGLL 220550Z VRB02KT CAVOK 12/10 Q1019 NOSIG=
201108220520 METAR COR EGLL 220520Z 36002KT CAVOK 11/10 Q1019 NOSIG=
201108220450 METAR COR EGLL 220450Z 36003KT CAVOK 11/10 Q1019 NOSIG=
201108220420 METAR COR EGLL 220420Z VRB02KT CAVOK 11/10 Q1019 NOSIG=
201108220350 METAR COR EGLL 220350Z 33004KT CAVOK 12/10 Q1019 NOSIG=
201108220320 METAR COR EGLL 220320Z VRB02KT CAVOK 12/10 Q1019 NOSIG=
201108220250 METAR COR EGLL 220250Z 30004KT CAVOK 12/10 Q1019 NOSIG=
201108220220 METAR COR EGLL 220220Z 30004KT CAVOK 13/11 Q1019 NOSIG=
201108220150 METAR COR EGLL 220150Z 28005KT CAVOK 13/11 Q1018 NOSIG=
201108220120 METAR EGLL 220120Z AUTO 26004KT 9999NDV NCD 13/10 Q1018=
201108220050 METAR EGLL 220050Z AUTO 29005KT 9999NDV NCD 14/11 Q1018=
201108220020 METAR EGLL 220020Z AUTO 29006KT 9999NDV NCD 15/11 Q1018=
201108212350 METAR COR EGLL 212350Z 29006KT CAVOK 15/11 Q1018 NOSIG=
201108212320 METAR COR EGLL 212320Z 27006KT CAVOK 14/11 Q1018 NOSIG=
201108212250 METAR COR EGLL 212250Z 25007KT CAVOK 15/11 Q1018 NOSIG=
201108212220 METAR COR EGLL 212220Z 28008KT CAVOK 15/10 Q1017 NOSIG=
201108212150 METAR COR EGLL 212150Z 29007KT CAVOK 16/10 Q1017 NOSIG=
201108212120 METAR COR EGLL 212120Z 29008KT CAVOK 17/10 Q1017 NOSIG=
201108212050 METAR COR EGLL 212050Z 28010KT CAVOK 18/11 Q1017 NOSIG=
201108212020 METAR COR EGLL 212020Z 28010KT CAVOK 18/11 Q1017 NOSIG=
201108211950 METAR COR EGLL 211950Z 28012KT CAVOK 19/12 Q1016 NOSIG=
201108211920 METAR COR EGLL 211920Z 27012KT CAVOK 20/12 Q1016 NOSIG=
201108211850 METAR COR EGLL 211850Z 28011KT 9999 FEW044 20/11 Q1016 NOSIG=
201108211820 METAR COR EGLL 211820Z 28012KT 9999 FEW044 21/10 Q1015 NOSIG=
201108211750 METAR COR EGLL 211750Z 27013KT 9999 FEW044 22/12 Q1015 NOSIG=
201108211720 METAR COR EGLL 211720Z 27014KT 9999 FEW044 23/12 Q1015 NOSIG=
201108211650 METAR COR EGLL 211650Z 28013KT 9999 FEW044 23/12 Q1014 NOSIG=
201108211620 METAR COR EGLL 211620Z 26013KT 9999 FEW038 23/14 Q1014 NOSIG=
201108211550 METAR COR EGLL 211550Z 24012G23KT 200V270 9999 FEW038 23/14
                        Q1014 NOSIG=
201108211520 METAR COR EGLL 211520Z 26010KT 210V290 9999 FEW035 23/14
                        Q1014 NOSIG=
201108211450 METAR COR EGLL 211450Z 26010KT 220V280 9999 FEW032 23/14
                        Q1014 NOSIG=
201108211420 METAR COR EGLL 211420Z 25010KT 220V280 9999 FEW032 23/14
                        Q1014 NOSIG=
201108211350 METAR COR EGLL 211350Z 25010KT 9999 FEW026 22/15 Q1014 NOSIG=
201108211320 METAR COR EGLL 211320Z 26009KT 9999 FEW026 22/15 Q1014 NOSIG=
201108211250 METAR COR EGLL 211250Z 26008KT 230V300 CAVOK 21/14 Q1014
                        NOSIG=
201108211220 METAR COR EGLL 211220Z 26007KT 230V320 CAVOK 20/14 Q1013
                        NOSIG=
201108211150 METAR COR EGLL 211150Z 28006KT 250V320 9999 FEW039 21/14
                        Q1013 NOSIG=
201108211120 METAR COR EGLL 211120Z 28006KT 9999 -SHRA FEW028 21/14 Q1013
                        NOSIG=
201108211050 METAR COR EGLL 211050Z 25004KT 190V290 CAVOK 20/13 Q1013
                        NOSIG=
201108211020 METAR COR EGLL 211020Z 28007KT 240V300 CAVOK 20/13 Q1013
                        NOSIG=
201108210950 METAR COR EGLL 210950Z 27009KT CAVOK 21/13 Q1013 NOSIG=
201108210920 METAR COR EGLL 210920Z 25006KT 9999 FEW045 20/13 Q1013 NOSIG=
201108210850 METAR COR EGLL 210850Z 27005KT 220V300 9999 FEW049 19/13
                        Q1013 NOSIG=
201108210820 METAR COR EGLL 210820Z VRB02KT 9999 FEW047 18/13 Q1012 NOSIG=
201108210750 METAR COR EGLL 210750Z VRB03KT CAVOK 17/13 Q1012 NOSIG=
201108210720 METAR COR EGLL 210720Z VRB02KT CAVOK 17/13 Q1012 NOSIG=
201108210650 METAR COR EGLL 210650Z 17004KT 130V200 CAVOK 16/13 Q1012
                        NOSIG=
201108210620 METAR COR EGLL 210620Z VRB03KT 9999 BKN046 15/12 Q1012 NOSIG=
201108210550 METAR COR EGLL 210550Z VRB02KT 9999 FEW049 14/12 Q1012 NOSIG=
201108210520 METAR COR EGLL 210520Z 36003KT 9999 FEW049 14/12 Q1012 NOSIG=
201108210450 METAR EGLL 210450Z 34004KT CAVOK 14/12 Q1012=
201108210420 METAR COR EGLL 210420Z 33003KT CAVOK 13/12 Q1012 NOSIG=
201108210350 METAR COR EGLL 210350Z 32003KT CAVOK 13/12 Q1011 NOSIG=
201108210320 METAR COR EGLL 210320Z VRB03KT CAVOK 13/12 Q1012 NOSIG=
201108210250 METAR COR EGLL 210250Z 00000KT CAVOK 14/11 Q1012 NOSIG=
201108210220 METAR COR EGLL 210220Z 00000KT CAVOK 14/12 Q1013 NOSIG=
201108210150 METAR COR EGLL 210150Z 35003KT CAVOK 15/11 Q1013 NOSIG=
201108210120 METAR EGLL 210120Z AUTO 00000KT 9999NDV NCD 15/11 Q1013=
201108210050 METAR EGLL 210050Z AUTO 00000KT 9999NDV NCD 15/11 Q1014=
201108210020 METAR EGLL 210020Z AUTO 00000KT 9999NDV NCD 15/11 Q1014=
201108202350 METAR COR EGLL 202350Z 00000KT CAVOK 15/10 Q1014 NOSIG=
201108202320 METAR COR EGLL 202320Z 14004KT CAVOK 15/10 Q1014 NOSIG=
201108202250 METAR COR EGLL 202250Z 11004KT CAVOK 15/10 Q1014 NOSIG=
201108202220 METAR COR EGLL 202220Z VRB03KT CAVOK 16/10 Q1015 NOSIG=
201108202150 METAR COR EGLL 202150Z 16006KT 120V240 CAVOK 18/10 Q1015
                        NOSIG=
201108202120 METAR COR EGLL 202120Z 21004KT 120V270 CAVOK 18/10 Q1016
                        NOSIG=
201108202050 METAR COR EGLL 202050Z 19006KT 130V270 CAVOK 18/10 Q1016
                        NOSIG=
201108202020 METAR COR EGLL 202020Z 17007KT 130V230 CAVOK 18/10 Q1015
                        NOSIG=
201108201950 METAR COR EGLL 201950Z 18006KT 140V250 CAVOK 19/11 Q1016
                        NOSIG=
201108201920 METAR COR EGLL 201920Z 17005KT 130V290 CAVOK 20/11 Q1016
                        NOSIG=
201108201850 METAR COR EGLL 201850Z 21006KT 170V260 CAVOK 20/11 Q1016
                        NOSIG=
201108201820 METAR COR EGLL 201820Z 23007KT CAVOK 21/11 Q1016 NOSIG=
201108201750 METAR COR EGLL 201750Z 22007KT 190V260 CAVOK 21/11 Q1017
                        NOSIG=
201108201720 METAR COR EGLL 201720Z 19006KT 140V230 CAVOK 21/13 Q1017
                        NOSIG=
201108201650 METAR COR EGLL 201650Z 20005KT 140V270 CAVOK 21/14 Q1017
                        NOSIG=
201108201620 METAR COR EGLL 201620Z 22004KT 180V290 9999 FEW015 20/15
                        Q1018 NOSIG=
201108201550 METAR COR EGLL 201550Z 24007KT 190V280 9999 FEW015 19/15
                        Q1018 NOSIG=
201108201520 METAR COR EGLL 201520Z VRB04G14KT 9999 FEW018 19/14 Q1018
                        NOSIG=
201108201450 METAR COR EGLL 201450Z VRB04KT 9999 FEW016 18/14 Q1018 NOSIG=
201108201420 METAR COR EGLL 201420Z 17004KT 100V260 9999 FEW030 17/14
                        Q1018 NOSIG=
201108201350 METAR COR EGLL 201350Z 19009KT 150V230 9999 -RA FEW011 SCT025
                        17/15 Q1019 RERA NOSIG=
201108201320 METAR COR EGLL 201320Z 22008KT 6000 RA FEW017 SCT022 BKN031
                        17/15 Q1019 NOSIG=
201108201250 METAR COR EGLL 201250Z 23011KT 7000 SHRA FEW031 BKN040 17/15
                        Q1020 NOSIG=
201108201220 METAR COR EGLL 201220Z 23011KT 9999 -SHRA SCT034 19/14 Q1020
                        TEMPO SHRA=
201108201150 METAR COR EGLL 201150Z 23012KT 9999 FEW024 SCT030 20/14 Q1020
                        NOSIG=
201108201120 METAR COR EGLL 201120Z 21010KT 170V230 9999 FEW026 SCT031
                        20/14 Q1019 NOSIG=
201108201050 METAR COR EGLL 201050Z 21010KT 180V250 9999 SCT026 21/14
                        Q1019 NOSIG=
201108201020 METAR COR EGLL 201020Z 19008G18KT 140V220 9999 FEW020 20/14
                        Q1019 NOSIG=
201108200950 METAR COR EGLL 200950Z 17007KT 110V230 9999 SCT020 19/14
                        Q1019 NOSIG=
201108200920 METAR COR EGLL 200920Z 19007KT 130V250 9999 SCT020 19/14
                        Q1019 NOSIG=
201108200850 METAR COR EGLL 200850Z 21006KT 130V250 9999 SCT015 19/14
                        Q1019 NOSIG=
201108200820 METAR COR EGLL 200820Z 22007KT 190V270 9999 FEW014 18/14
                        Q1020 NOSIG=
201108200750 METAR COR EGLL 200750Z 22007KT 190V250 9999 FEW013 17/14
                        Q1019 NOSIG=
201108200720 METAR COR EGLL 200720Z 22007KT CAVOK 16/13 Q1020 NOSIG=
201108200650 METAR COR EGLL 200650Z 22004KT 190V260 CAVOK 16/13 Q1019
                        NOSIG=
201108200620 METAR COR EGLL 200620Z 21005KT 170V240 9999 FEW008 15/13
                        Q1019 NOSIG=
201108200550 METAR COR EGLL 200550Z 20006KT 170V260 CAVOK 15/13 Q1019
                        NOSIG=
201108200520 METAR EGLL 200520Z 21005KT 170V280 CAVOK 14/12 Q1019=
201108200450 METAR EGLL 200450Z 24004KT CAVOK 14/12 Q1019=
201108200420 METAR COR EGLL 200420Z 24004KT CAVOK 14/12 Q1019 NOSIG=
201108200350 METAR COR EGLL 200350Z 22006KT CAVOK 14/12 Q1019 NOSIG=
201108200320 METAR COR EGLL 200320Z 22006KT CAVOK 14/12 Q1019 NOSIG=
201108200250 METAR COR EGLL 200250Z 23007KT CAVOK 14/12 Q1019 NOSIG=
201108200220 METAR COR EGLL 200220Z 23007KT CAVOK 14/12 Q1019 NOSIG=
201108200150 METAR COR EGLL 200150Z 23008KT 190V250 CAVOK 14/12 Q1019
                        NOSIG=
201108200120 METAR EGLL 200120Z AUTO 23007KT 9999NDV NCD 15/12 Q1019=
201108200050 METAR EGLL 200050Z AUTO 22006KT 9999NDV NCD 14/12 Q1019=
201108200020 METAR EGLL 200020Z AUTO 22006KT 9999NDV NCD 14/11 Q1019=
201108192350 METAR COR EGLL 192350Z 22006KT CAVOK 14/11 Q1019 NOSIG=
201108192320 METAR COR EGLL 192320Z 23008KT CAVOK 14/11 Q1020 NOSIG=
201108192250 METAR COR EGLL 192250Z 23008KT CAVOK 15/11 Q1020 NOSIG=
201108192220 METAR COR EGLL 192220Z 23007KT CAVOK 15/11 Q1020 NOSIG=
201108192150 METAR COR EGLL 192150Z 23008KT CAVOK 15/11 Q1020 NOSIG=
201108192120 METAR EGLL 192120Z 22010KT 190V250 CAVOK 15/11 Q1020=
201108192050 METAR COR EGLL 192050Z 22011KT 200V260 CAVOK 16/11 Q1020
                        NOSIG=
201108192020 METAR COR EGLL 192020Z 22009KT CAVOK 16/11 Q1019 NOSIG=
201108191950 METAR COR EGLL 191950Z 22010KT 160V240 CAVOK 17/11 Q1019
                        NOSIG=
201108191920 METAR COR EGLL 191920Z 21008KT CAVOK 18/11 Q1019 NOSIG=
201108191850 METAR COR EGLL 191850Z 22010KT 190V250 9999 FEW035 19/12
                        Q1019 NOSIG=
201108191820 METAR COR EGLL 191820Z 23010KT 200V260 9999 FEW040 19/12
                        Q1019 NOSIG=
201108191750 METAR COR EGLL 191750Z 23011KT 9999 FEW040 20/12 Q1019 NOSIG=
201108191720 METAR COR EGLL 191720Z 21011KT 9999 FEW039 21/11 Q1019 NOSIG=
201108191650 METAR COR EGLL 191650Z 22011G21KT 190V260 9999 FEW040 21/11
                        Q1019 NOSIG=
201108191620 METAR COR EGLL 191620Z 23010KT 190V260 9999 FEW042 21/11
                        Q1019 NOSIG=
201108191550 METAR COR EGLL 191550Z 20010KT 160V240 9999 FEW042 21/11
                        Q1019 NOSIG=
201108191520 METAR COR EGLL 191520Z 22010KT 190V260 9999 FEW042 21/11
                        Q1019 NOSIG=
201108191450 METAR COR EGLL 191450Z 22011KT 180V250 9999 SCT047 20/10
                        Q1019 NOSIG=
201108191420 METAR COR EGLL 191420Z 22010KT 190V260 9999 SCT040 20/10
                        Q1019 NOSIG=
201108191350 METAR COR EGLL 191350Z 23009KT 200V270 9999 SCT040 21/11
                        Q1019 NOSIG=
201108191320 METAR COR EGLL 191320Z 24007KT 200V270 9999 SCT039 21/11
                        Q1019 NOSIG=
201108191250 METAR COR EGLL 191250Z 22008KT 190V260 9999 FEW035 SCT047
                        20/12 Q1019 NOSIG=
201108191220 METAR COR EGLL 191220Z 26008KT 200V300 9999 SCT036 21/12
                        Q1019 NOSIG=
201108191150 METAR COR EGLL 191150Z 23006KT 170V290 9999 SCT032 20/12
                        Q1019 NOSIG=
201108191120 METAR COR EGLL 191120Z 22006KT 180V260 9999 FEW028 19/12
                        Q1020 NOSIG=
201108191050 METAR COR EGLL 191050Z 21005KT 160V300 9999 FEW028 19/12
                        Q1020 NOSIG=
201108191020 METAR COR EGLL 191020Z 28006KT 230V310 9999 FEW028 18/11
                        Q1020 NOSIG=
201108190950 METAR COR EGLL 190950Z 28004KT 210V340 9999 FEW024 17/11
                        Q1020 NOSIG=
201108190920 METAR COR EGLL 190920Z 24005KT 210V300 9999 FEW020 16/11
                        Q1020 NOSIG=
201108190850 METAR COR EGLL 190850Z 25005KT 210V290 9999 FEW016 15/11
                        Q1019 NOSIG=
201108190820 METAR COR EGLL 190820Z 25004KT 200V280 CAVOK 14/11 Q1019
                        NOSIG=
201108190750 METAR COR EGLL 190750Z 25004KT 190V280 CAVOK 13/11 Q1019
                        NOSIG=
201108190720 METAR COR EGLL 190720Z 27004KT 230V300 CAVOK 12/11 Q1019
                        NOSIG=
201108190650 METAR COR EGLL 190650Z 27004KT 9000 NSC 11/10 Q1018 NOSIG=
201108190620 METAR COR EGLL 190620Z 27004KT 240V300 9000 NSC 10/10 Q1018
                        NOSIG=
201108190550 METAR COR EGLL 190550Z VRB03KT 6000 NSC 09/09 Q1018 NOSIG=
201108190520 METAR COR EGLL 190520Z 21003KT 4800 BR NSC 09/08 Q1018 BECMG
                        7000 NSW=
201108190450 METAR COR EGLL 190450Z 28004KT 4800 BR NSC 09/08 Q1017 BECMG
                        7000 NSW=
201108190420 METAR COR EGLL 190420Z 27003KT 6000 NSC 09/09 Q1017 NOSIG=
201108190350 METAR COR EGLL 190350Z 26004KT 6000 NSC 09/09 Q1017 NOSIG=
201108190320 METAR COR EGLL 190320Z 26003KT 7000 NSC 09/09 Q1017 NOSIG=
201108190250 METAR COR EGLL 190250Z 27003KT 7000 NSC 09/09 Q1017 NOSIG=
201108190220 METAR COR EGLL 190220Z 27004KT CAVOK 10/09 Q1016 NOSIG=
201108190150 METAR COR EGLL 190150Z 29004KT 9999 FEW049 10/09 Q1016 NOSIG=
201108190120 METAR EGLL 190120Z AUTO 31003KT 9999NDV NCD 11/10 Q1016=
201108190050 METAR EGLL 190050Z AUTO 31004KT 9999NDV NCD 11/10 Q1016=
201108190020 METAR EGLL 190020Z AUTO 31003KT 9999NDV NCD 12/10 Q1016=
201108182350 METAR COR EGLL 182350Z 32002KT CAVOK 12/11 Q1016 NOSIG=
201108182320 METAR COR EGLL 182320Z 32002KT CAVOK 12/11 Q1016 NOSIG=
201108182250 METAR COR EGLL 182250Z VRB03KT 9999 SCT048 12/11 Q1015 NOSIG=
201108182220 METAR COR EGLL 182220Z 33004KT 300V010 9999 SCT033 12/11
                        Q1015 NOSIG=
201108182150 METAR COR EGLL 182150Z 33006KT 9999 SCT034 BKN049 12/11 Q1015
                        NOSIG=
201108182120 METAR EGLL 182120Z 33006KT 290V350 9999 BKN034 12/11 Q1015=
201108182050 METAR COR EGLL 182050Z 34005KT 300V020 9999 BKN032 BKN046
                        12/11 Q1015 NOSIG=
201108182020 METAR COR EGLL 182020Z 35006KT 300V020 9999 FEW009 BKN031
                        BKN042 12/11 Q1015 NOSIG=
201108181950 METAR COR EGLL 181950Z 34005KT 300V020 9999 FEW009 BKN030
                        13/11 Q1015 NOSIG=
201108181920 METAR COR EGLL 181920Z 01004KT 340V050 9999 FEW010 SCT015
                        BKN031 13/12 Q1015 NOSIG=
201108181850 METAR COR EGLL 181850Z 36005KT 9999 FEW011 BKN021 13/11 Q1015
                        TEMPO RA=
201108181820 METAR COR EGLL 181820Z 36006KT 340V040 9999 -RA FEW019 SCT023
                        BKN049 13/11 Q1014 NOSIG=
201108181750 METAR COR EGLL 181750Z 05008KT 350V080 9999 -RA FEW010 SCT030
                        13/12 Q1014 RERA TEMPO RA BKN010=
201108181720 METAR COR EGLL 181720Z 03007KT 360V060 6000 RA BKN009 13/12
                        Q1014 TEMPO NSW SCT009 BKN018=
201108181650 METAR COR EGLL 181650Z 02005KT 350V060 7000 RA SCT010 BKN030
                        13/12 Q1014 TEMPO 4500 +RA BKN010=
201108181620 METAR COR EGLL 181620Z 04006KT 010V080 9999 FEW010 SCT040
                        14/12 Q1013 TEMPO RA=
201108181550 METAR COR EGLL 181550Z 04008KT 010V080 9999 -RA FEW016 BKN042
                        13/12 Q1013 TEMPO RA=
201108181520 METAR COR EGLL 181520Z 04005KT 360V070 9999 -RA FEW030 BKN039
                        13/12 Q1013 RERA TEMPO RA=
201108181450 METAR COR EGLL 181450Z 10018KT 7000 RA FEW035 SCT040 13/12
                        Q1013 TEMPO 4000 +RA=
201108181420 METAR COR EGLL 181420Z 04008KT 6000 RA FEW015 BKN035 13/12
                        Q1014 TEMPO 4000 +RA=
201108181350 METAR COR EGLL 181350Z 36006KT 310V060 6000 RA OVC035 13/12
                        Q1015 TEMPO 4000 +RA=
201108181320 METAR EGLL 181320Z 36009KT 9999 -RA FEW012 BKN034 13/12 Q1015
                        RESHRA=
201108181250 METAR COR EGLL 181250Z 36009KT 330V030 8000 SHRA FEW010 OVC035
                        13/12 Q1014 NOSIG=
201108181220 METAR COR EGLL 181220Z 01007KT 330V040 7000 SHRA OVC032 14/12
                        Q1014 TEMPO NSW=
201108181150 METAR COR EGLL 181150Z 02007KT 350V060 9999 OVC028 15/11
                        Q1014 TEMPO RA=
201108181120 METAR COR EGLL 181120Z 03008KT 010V070 9999 OVC026 16/11
                        Q1014 TEMPO RA=
201108181050 METAR COR EGLL 181050Z 05009KT 9999 OVC024 16/10 Q1014 NOSIG=
201108181020 METAR EGLL 181020Z 05009KT 010V080 9999 BKN023 16/10 Q1015=
201108180950 METAR COR EGLL 180950Z 04008KT 010V080 9999 VCSH FEW020 SCT040
                        16/11 Q1015 TEMPO SHRA=
201108180920 METAR COR EGLL 180920Z 05008KT 020V080 9999 VCSH BKN040 15/11
                        Q1015 NOSIG=
201108180850 METAR COR EGLL 180850Z 05007KT 010V080 9999 BKN041 15/11
                        Q1015 TEMPO RA=
201108180820 METAR COR EGLL 180820Z 05006KT 9999 BKN038 15/10 Q1015 TEMPO
                        RA=
201108180750 METAR COR EGLL 180750Z 06008KT 9999 BKN039 15/10 Q1015 TEMPO
                        RA=
201108180720 METAR COR EGLL 180720Z 05007KT 010V080 9999 OVC038 14/10
                        Q1015 TEMPO RA=
201108180650 METAR COR EGLL 180650Z 06007KT 9999 BKN039 14/10 Q1015 TEMPO
                        RA=
201108180620 METAR COR EGLL 180620Z 04006KT 9999 BKN039 14/09 Q1015 TEMPO
                        RA=
201108180550 METAR COR EGLL 180550Z 05006KT 010V080 9999 BKN039 14/09
                        Q1015 TEMPO RA=
201108180520 METAR COR EGLL 180520Z 05005KT 020V090 9999 SCT040 BKN045
                        14/09 Q1015 NOSIG=
201108180450 METAR COR EGLL 180450Z 05005KT 9999 BKN042 BKN048 14/09 Q1015
                        NOSIG=
201108180420 METAR COR EGLL 180420Z 04005KT 010V080 9999 FEW044 14/10
                        Q1016 NOSIG=
201108180350 METAR COR EGLL 180350Z 04005KT CAVOK 13/10 Q1016 NOSIG=
201108180320 METAR COR EGLL 180320Z 03004KT 9999 FEW041 13/10 Q1016 NOSIG=
201108180250 METAR COR EGLL 180250Z 04005KT 9999 FEW041 13/10 Q1016 NOSIG=
201108180220 METAR COR EGLL 180220Z 03005KT 360V060 CAVOK 13/10 Q1016
                        NOSIG=
201108180150 METAR COR EGLL 180150Z 04005KT 9999 FEW049 13/10 Q1016 NOSIG=
201108180120 METAR EGLL 180120Z AUTO 04004KT 9999NDV NCD 13/10 Q1017=
201108180050 METAR EGLL 180050Z AUTO 04004KT 9999NDV NCD 14/11 Q1017=
201108180020 METAR EGLL 180020Z AUTO 05004KT 9999NDV NCD 14/11 Q1017=
201108172350 METAR COR EGLL 172350Z 06004KT CAVOK 14/11 Q1017 NOSIG=
201108172320 METAR COR EGLL 172320Z 07005KT CAVOK 14/11 Q1017 NOSIG=
201108172250 METAR COR EGLL 172250Z 07005KT CAVOK 14/10 Q1017 NOSIG=
201108172220 METAR COR EGLL 172220Z 06006KT CAVOK 14/10 Q1018 NOSIG=
201108172150 METAR COR EGLL 172150Z 05005KT CAVOK 14/10 Q1018 NOSIG=
201108172120 METAR COR EGLL 172120Z 05005KT CAVOK 15/11 Q1017 NOSIG=
201108172050 METAR COR EGLL 172050Z 04006KT CAVOK 15/11 Q1017 NOSIG=
201108172020 METAR COR EGLL 172020Z 05006KT CAVOK 15/11 Q1017 NOSIG=
201108171950 METAR COR EGLL 171950Z 05004KT CAVOK 15/11 Q1017 NOSIG=
201108171920 METAR COR EGLL 171920Z 06007KT CAVOK 15/11 Q1017 NOSIG=
201108171850 METAR COR EGLL 171850Z 06006KT CAVOK 15/11 Q1017 NOSIG=
201108171820 METAR COR EGLL 171820Z 07007KT CAVOK 15/11 Q1017 NOSIG=
201108171750 METAR COR EGLL 171750Z 07006KT 9999 -RA NSC 16/11 Q1017 NOSIG=
201108171720 METAR COR EGLL 171720Z 03004KT 360V060 9999 -RA FEW033 17/12
                        Q1017 NOSIG=
201108171650 METAR COR EGLL 171650Z VRB02KT 9999 -RA NSC 17/11 Q1017 NOSIG=
201108171620 METAR COR EGLL 171620Z 05004KT 310V080 9000 -RA FEW022 17/11
                        Q1017 NOSIG=
201108171550 METAR COR EGLL 171550Z 02004KT 350V070 9999 -RA NSC 19/09
                        Q1017 NOSIG=
201108171520 METAR COR EGLL 171520Z 04005KT 350V070 9999 FEW047 20/08
                        Q1017 NOSIG=
201108171450 METAR COR EGLL 171450Z 02005KT 330V080 9999 FEW047 20/08
                        Q1017 NOSIG=
201108171420 METAR COR EGLL 171420Z 06005KT 030V100 9999 FEW045 20/08
                        Q1017 NOSIG=
201108171350 METAR EGLL 171350Z 06005KT 360V120 9999 FEW044 20/08 Q1017=
201108171320 METAR COR EGLL 171320Z 09005KT 060V130 9999 FEW044 20/08
                        Q1017 NOSIG=
201108171250 METAR COR EGLL 171250Z 06005KT 020V130 CAVOK 20/08 Q1017
                        NOSIG=
201108171220 METAR COR EGLL 171220Z 07006KT 030V120 CAVOK 21/08 Q1017
                        NOSIG=
201108171150 METAR COR EGLL 171150Z 08007KT 010V120 CAVOK 20/08 Q1017
                        NOSIG=
201108171120 METAR COR EGLL 171120Z 09007KT 040V120 9999 FEW043 19/09
                        Q1017 NOSIG=
201108171050 METAR COR EGLL 171050Z 08006KT 040V130 9999 SCT043 18/09
                        Q1018 NOSIG=
201108171020 METAR COR EGLL 171020Z 08005KT 010V130 9999 SCT045 18/09
                        Q1018 NOSIG=
201108170950 METAR COR EGLL 170950Z 06005KT 360V100 9999 FEW042 18/09
                        Q1018 NOSIG=
201108170920 METAR COR EGLL 170920Z 06006KT 030V090 9999 FEW042 17/09
                        Q1018 NOSIG=
201108170850 METAR COR EGLL 170850Z 05005KT 360V080 9999 SCT042 17/10
                        Q1018 NOSIG=
201108170820 METAR COR EGLL 170820Z 07007KT 030V100 9999 SCT041 16/11
                        Q1017 NOSIG=
201108170750 METAR EGLL 170750Z 06007KT 9999 BKN041 16/11 Q1017=
201108170720 METAR COR EGLL 170720Z 04004KT 360V070 9999 BKN038 15/11
                        Q1017 NOSIG=
201108170650 METAR COR EGLL 170650Z 03004KT 350V070 9999 BKN040 15/11
                        Q1017 NOSIG=
201108170620 METAR COR EGLL 170620Z VRB03KT 9999 BKN035 14/11 Q1017 NOSIG=
201108170550 METAR COR EGLL 170550Z 36004KT 9999 SCT032 SCT037 14/11 Q1017
                        NOSIG=
201108170520 METAR COR EGLL 170520Z VRB03KT 9999 BKN029 14/11 Q1017 NOSIG=
201108170450 METAR COR EGLL 170450Z 36003KT 9999 BKN029 14/12 Q1016 NOSIG=
201108170420 METAR COR EGLL 170420Z VRB03KT 9999 BKN029 13/12 Q1016 NOSIG=
201108170350 METAR COR EGLL 170350Z 35003KT 9999 FEW030 13/11 Q1016 NOSIG=
201108170320 METAR COR EGLL 170320Z 32003KT CAVOK 13/11 Q1016 NOSIG=
201108170250 METAR COR EGLL 170250Z 32003KT CAVOK 13/11 Q1016 NOSIG=
201108170220 METAR COR EGLL 170220Z 30005KT CAVOK 13/11 Q1017 NOSIG=
201108170150 METAR COR EGLL 170150Z 30004KT CAVOK 14/12 Q1017 NOSIG=
201108170120 METAR EGLL 170120Z AUTO 28006KT 9999NDV NCD 14/12 Q1017=
201108170050 METAR EGLL 170050Z AUTO 26006KT 9999NDV NCD 14/12 Q1017=
201108170020 METAR EGLL 170020Z AUTO 22005KT 9999NDV NCD 15/13 Q1017=
201108162350 METAR COR EGLL 162350Z 25007KT CAVOK 15/12 Q1017 NOSIG=
201108162320 METAR COR EGLL 162320Z 26005KT CAVOK 15/14 Q1016 NOSIG=
201108162250 METAR COR EGLL 162250Z 22005KT CAVOK 15/14 Q1016 NOSIG=
201108162220 METAR COR EGLL 162220Z 24005KT 9999 FEW042 16/14 Q1016 NOSIG=
201108162150 METAR COR EGLL 162150Z 23008KT CAVOK 17/14 Q1016 NOSIG=
201108162120 METAR COR EGLL 162120Z 22009KT 190V260 CAVOK 17/15 Q1016
                        NOSIG=
201108162050 METAR COR EGLL 162050Z 22009KT 9999 SCT042 18/15 Q1016 NOSIG=
201108162020 METAR COR EGLL 162020Z 22010KT 190V250 9999 SCT038 18/15
                        Q1016 NOSIG=
201108161950 METAR COR EGLL 161950Z 21008KT 180V250 9999 SCT034 19/15
                        Q1015 NOSIG=
201108161920 METAR COR EGLL 161920Z 21009G21KT 9999 FEW025 SCT032 19/15
                        Q1015 NOSIG=
201108161850 METAR COR EGLL 161850Z 22011KT 190V250 9999 FEW032 SCT042
                        20/15 Q1015 NOSIG=
201108161820 METAR COR EGLL 161820Z 21010KT 9999 FEW036 SCT042 20/15 Q1015
                        NOSIG=
201108161750 METAR COR EGLL 161750Z 22010KT 190V250 9999 FEW032 SCT036
                        20/15 Q1015 NOSIG=
201108161720 METAR COR EGLL 161720Z 22011KT 9999 FEW026 SCT032 21/15 Q1014
                        NOSIG=
201108161650 METAR COR EGLL 161650Z 22010KT 9999 SCT025 SCT032 22/15 Q1014
                        NOSIG=
201108161620 METAR COR EGLL 161620Z 22010KT 180V260 9999 SCT024 BKN028
                        21/15 Q1015 NOSIG=
201108161550 METAR COR EGLL 161550Z 22010KT 180V260 9999 FEW022 BKN028
                        21/15 Q1015 NOSIG=
201108161520 METAR COR EGLL 161520Z 21011KT 9999 SCT021 BKN025 21/15 Q1015
                        NOSIG=
201108161450 METAR COR EGLL 161450Z 21014KT 180V250 9999 SCT019 BKN024
                        20/15 Q1015 NOSIG=
201108161420 METAR COR EGLL 161420Z 22013KT 170V260 9999 SCT019 BKN024
                        21/14 Q1015 NOSIG=
201108161350 METAR COR EGLL 161350Z 22012KT 9999 FEW017 BKN028 21/15 Q1015
                        NOSIG=
201108161320 METAR COR EGLL 161320Z 22012KT 9999 SCT017 BKN024 19/14 Q1015
                        NOSIG=
201108161250 METAR COR EGLL 161250Z 21014KT 9999 SCT017 BKN023 20/14 Q1015
                        NOSIG=
201108161220 METAR COR EGLL 161220Z 22014KT 9999 SCT019 BKN024 19/14 Q1016
                        NOSIG=
201108161150 METAR COR EGLL 161150Z 22011KT 190V260 9999 SCT020 BKN024
                        20/14 Q1016 NOSIG=
201108161120 METAR COR EGLL 161120Z 22014KT 9999 BKN020 19/13 Q1016 NOSIG=
201108161050 METAR COR EGLL 161050Z 22012KT 9999 BKN022 19/13 Q1016 NOSIG=
201108161020 METAR COR EGLL 161020Z 21011KT 180V240 9999 BKN021 19/13
                        Q1016 NOSIG=
201108160950 METAR COR EGLL 160950Z 21010KT 190V260 9999 BKN020 18/13
                        Q1016 NOSIG=
201108160920 METAR COR EGLL 160920Z 21010G24KT 150V240 9999 SCT019 BKN027
                        17/13 Q1016 NOSIG=
201108160850 METAR EGLL 160850Z 21011KT 9999 FEW018 SCT024 BKN031 17/13
                        Q1016=
201108160820 METAR COR EGLL 160820Z 22011KT 190V250 9999 FEW028 BKN033
                        17/13 Q1016 NOSIG=
201108160750 METAR COR EGLL 160750Z 21011KT 9999 FEW028 BKN035 16/12 Q1016
                        NOSIG=
201108160720 METAR COR EGLL 160720Z 22010KT 9999 FEW036 SCT043 16/13 Q1016
                        NOSIG=
201108160650 METAR COR EGLL 160650Z 22009KT 9999 FEW030 SCT046 16/13 Q1016
                        NOSIG=
201108160620 METAR COR EGLL 160620Z 21008KT 180V260 9999 FEW032 SCT045
                        15/13 Q1016 NOSIG=
201108160550 METAR COR EGLL 160550Z 21007KT 170V230 9999 FEW042 15/13
                        Q1016 NOSIG=
201108160520 METAR COR EGLL 160520Z 19006KT 130V240 CAVOK 15/13 Q1016
                        NOSIG=
201108160450 METAR COR EGLL 160450Z 20006KT CAVOK 14/13 Q1016 NOSIG=
201108160420 METAR COR EGLL 160420Z 20005KT 9999 FEW017 14/13 Q1017 NOSIG=
201108160350 METAR COR EGLL 160350Z 22006KT 9999 FEW012 14/13 Q1017 NOSIG=
201108160320 METAR COR EGLL 160320Z 22005KT CAVOK 15/13 Q1017 NOSIG=
201108160250 METAR COR EGLL 160250Z 21005KT CAVOK 15/13 Q1017 NOSIG=
201108160220 METAR COR EGLL 160220Z 22005KT CAVOK 15/13 Q1017 NOSIG=
201108160150 METAR COR EGLL 160150Z 21005KT CAVOK 15/13 Q1017 NOSIG=
201108160120 METAR EGLL 160120Z AUTO 20006KT 9999NDV NCD 15/13 Q1017=
201108160050 METAR EGLL 160050Z AUTO 18006KT 9999NDV NCD 15/13 Q1017=
201108160020 METAR EGLL 160020Z AUTO 21005KT 9999NDV NCD 15/13 Q1018=
201108152350 METAR COR EGLL 152350Z 20005KT CAVOK 15/13 Q1018 NOSIG=
201108152320 METAR COR EGLL 152320Z 22005KT 180V250 9999 FEW022 15/13
                        Q1018 NOSIG=
201108152250 METAR COR EGLL 152250Z 24005KT 9999 SCT021 15/13 Q1018 NOSIG=
201108152220 METAR COR EGLL 152220Z 28007KT 9999 -RA FEW013 15/12 Q1018
                        NOSIG=
201108152150 METAR COR EGLL 152150Z 29006KT 9999 FEW013 15/12 Q1018 NOSIG=
201108152120 METAR COR EGLL 152120Z 28008KT 9999 FEW022 15/13 Q1018 NOSIG=
201108152050 METAR COR EGLL 152050Z 26009KT 9999 -RA FEW013 BKN047 16/13
                        Q1018 NOSIG=
201108152020 METAR COR EGLL 152020Z 27009KT 9999 -RA NSC 16/13 Q1018 NOSIG=
201108151950 METAR COR EGLL 151950Z 26010KT 9999 -RA NSC 16/12 Q1018 NOSIG=
201108151920 METAR COR EGLL 151920Z 25010KT 9999 -RA FEW048 17/13 Q1018
                        NOSIG=
201108151850 METAR EGLL 151850Z 24010KT 9999 -RA NSC 17/13 Q1018=
201108151820 METAR COR EGLL 151820Z 23012KT 9999 -RA NSC 18/12 Q1017 NOSIG=
201108151750 METAR COR EGLL 151750Z 23013KT 9999 -RA NSC 19/11 Q1017 NOSIG=
201108151720 METAR COR EGLL 151720Z 24012KT CAVOK 20/10 Q1017 NOSIG=
201108151650 METAR COR EGLL 151650Z 24012KT CAVOK 20/10 Q1017 NOSIG=
201108151620 METAR EGLL 151620Z 25013KT CAVOK 20/09 Q1017=
201108151550 METAR COR EGLL 151550Z 25011KT 9999 FEW048 21/09 Q1017 NOSIG=
201108151520 METAR COR EGLL 151520Z 25012KT CAVOK 21/08 Q1017 NOSIG=
201108151450 METAR COR EGLL 151450Z 26011KT 210V290 CAVOK 21/08 Q1017
                        NOSIG=
201108151420 METAR COR EGLL 151420Z 25012KT 210V300 CAVOK 22/08 Q1017
                        NOSIG=
201108151350 METAR COR EGLL 151350Z 24012KT 210V290 CAVOK 22/08 Q1017
                        NOSIG=
201108151320 METAR COR EGLL 151320Z 27009KT 240V300 CAVOK 21/08 Q1017
                        NOSIG=
201108151250 METAR COR EGLL 151250Z 25010KT 210V320 9999 FEW048 21/08
                        Q1017 NOSIG=
201108151220 METAR COR EGLL 151220Z 25010KT 210V280 9999 FEW045 22/08
                        Q1017 NOSIG=
201108151150 METAR COR EGLL 151150Z 24011KT 210V280 CAVOK 23/08 Q1017
                        NOSIG=
201108151120 METAR COR EGLL 151120Z 25012KT 220V300 9999 FEW048 21/07
                        Q1017 NOSIG=
201108151050 METAR EGLL 151050Z 26011KT 230V300 9999 FEW042 21/08 Q1016=
201108151020 METAR COR EGLL 151020Z 25008KT 200V320 9999 FEW037 20/09
                        Q1016 NOSIG=
201108150950 METAR COR EGLL 150950Z 28008KT 240V320 9999 FEW037 20/09
                        Q1016 NOSIG=
201108150920 METAR COR EGLL 150920Z 27007KT 220V310 9999 FEW032 19/09
                        Q1016 NOSIG=
201108150850 METAR COR EGLL 150850Z 26004KT 210V320 9999 FEW032 18/10
                        Q1016 NOSIG=
201108150820 METAR COR EGLL 150820Z 26005KT 210V310 CAVOK 17/10 Q1016
                        NOSIG=
201108150750 METAR COR EGLL 150750Z 25005KT 210V300 CAVOK 16/10 Q1016
                        NOSIG=
201108150720 METAR COR EGLL 150720Z 27004KT 220V320 CAVOK 14/10 Q1015
                        NOSIG=
201108150650 METAR COR EGLL 150650Z 27005KT CAVOK 14/10 Q1015 NOSIG=
201108150620 METAR COR EGLL 150620Z 25005KT 210V290 CAVOK 13/10 Q1015
                        NOSIG=
201108150550 METAR COR EGLL 150550Z 24005KT 200V260 CAVOK 11/10 Q1015
                        NOSIG=
201108150520 METAR COR EGLL 150520Z 24006KT CAVOK 11/09 Q1014 NOSIG=
201108150450 METAR COR EGLL 150450Z 27003KT CAVOK 10/08 Q1014 NOSIG=
201108150420 METAR COR EGLL 150420Z 26005KT CAVOK 10/08 Q1014 NOSIG=
201108150350 METAR COR EGLL 150350Z 28003KT CAVOK 11/09 Q1014 NOSIG=
201108150320 METAR COR EGLL 150320Z 27005KT CAVOK 11/08 Q1013 NOSIG=
201108150250 METAR COR EGLL 150250Z 27007KT CAVOK 11/09 Q1013 NOSIG=
201108150220 METAR COR EGLL 150220Z 29006KT CAVOK 13/09 Q1013 NOSIG=
201108150150 METAR COR EGLL 150150Z 29007KT CAVOK 13/09 Q1013 NOSIG=
201108150120 METAR EGLL 150120Z AUTO 29006KT 9999NDV NCD 14/09 Q1012=
201108150050 METAR EGLL 150050Z AUTO 30006KT 9999NDV NCD 13/10 Q1012=
201108150020 METAR EGLL 150020Z AUTO 29006KT 9999NDV NCD 13/09 Q1012=
201108142350 METAR COR EGLL 142350Z 28007KT CAVOK 13/10 Q1012 NOSIG=
201108142320 METAR COR EGLL 142320Z 28008KT CAVOK 13/09 Q1012 NOSIG=
201108142250 METAR COR EGLL 142250Z 28009KT CAVOK 14/09 Q1011 NOSIG=
201108142220 METAR COR EGLL 142220Z 27009KT CAVOK 15/10 Q1011 NOSIG=
201108142150 METAR COR EGLL 142150Z 27008KT CAVOK 15/10 Q1011 NOSIG=
201108142120 METAR COR EGLL 142120Z 27008KT CAVOK 15/10 Q1011 NOSIG=
201108142050 METAR COR EGLL 142050Z 27008KT CAVOK 16/10 Q1010 NOSIG=
201108142020 METAR COR EGLL 142020Z 29008KT CAVOK 18/10 Q1010 NOSIG=
201108141950 METAR COR EGLL 141950Z 29010KT CAVOK 19/10 Q1009 NOSIG=
201108141920 METAR COR EGLL 141920Z 29009KT CAVOK 19/09 Q1009 NOSIG=
201108141850 METAR COR EGLL 141850Z 30007KT CAVOK 20/08 Q1008 NOSIG=
201108141820 METAR COR EGLL 141820Z 28011KT CAVOK 20/08 Q1008 NOSIG=
201108141750 METAR COR EGLL 141750Z 28009KT CAVOK 21/08 Q1008 NOSIG=
201108141720 METAR COR EGLL 141720Z 27010KT 240V320 CAVOK 21/07 Q1007
                        NOSIG=
201108141650 METAR COR EGLL 141650Z 29010KT CAVOK 21/08 Q1007 NOSIG=
201108141620 METAR COR EGLL 141620Z 30007KT 260V340 9999 FEW048 22/09
                        Q1007 NOSIG=
201108141550 METAR COR EGLL 141550Z 30008KT 270V340 9999 FEW049 21/10
                        Q1007 NOSIG=
201108141520 METAR COR EGLL 141520Z 30008KT 270V340 9999 FEW049 22/10
                        Q1007 NOSIG=
201108141450 METAR COR EGLL 141450Z 29009KT 260V320 9999 SCT048 21/10
                        Q1007 NOSIG=
201108141420 METAR COR EGLL 141420Z 30007KT 260V340 9999 FEW048 20/10
                        Q1007 NOSIG=
201108141350 METAR COR EGLL 141350Z 25013KT 9999 FEW048 21/10 Q1007 NOSIG=
201108141320 METAR COR EGLL 141320Z 25010KT 190V280 9999 FEW048 22/10
                        Q1007 NOSIG=
201108141250 METAR COR EGLL 141250Z 21008KT 140V260 9999 FEW040 22/10
                        Q1007 NOSIG=
201108141220 METAR COR EGLL 141220Z 24009G19KT 180V270 9999 SCT039 21/10
                        Q1007 NOSIG=
201108141150 METAR COR EGLL 141150Z 27010KT 230V310 9999 FEW035 21/11
                        Q1007 NOSIG=
201108141120 METAR COR EGLL 141120Z 26010KT 230V310 9999 FEW033 20/11
                        Q1007 NOSIG=
201108141050 METAR COR EGLL 141050Z 28010KT 240V300 9999 SCT032 19/11
                        Q1007 NOSIG=
201108141020 METAR COR EGLL 141020Z 25012KT 9999 FEW030 19/11 Q1006 NOSIG=
201108140950 METAR COR EGLL 140950Z 28009KT 9999 SCT028 19/11 Q1006 NOSIG=
201108140920 METAR COR EGLL 140920Z 28010KT 9999 FEW023 18/12 Q1006 NOSIG=
201108140850 METAR COR EGLL 140850Z 26010KT 9999 FEW022 18/12 Q1006 NOSIG=
201108140820 METAR COR EGLL 140820Z 28010KT 9999 FEW020 17/12 Q1006 NOSIG=
201108140750 METAR COR EGLL 140750Z 26009KT 9999 FEW020 BKN049 16/13 Q1006
                        NOSIG=
201108140720 METAR COR EGLL 140720Z 26008KT 230V290 9999 BKN049 17/13
                        Q1006 NOSIG=
201108140650 METAR COR EGLL 140650Z 24007KT 220V280 9999 BKN049 16/13
                        Q1005 NOSIG=
201108140620 METAR COR EGLL 140620Z 24006KT 200V290 9999 BKN049 16/13
                        Q1005 NOSIG=
201108140550 METAR COR EGLL 140550Z 24006KT 190V260 9999 BKN049 15/13
                        Q1005 NOSIG=
201108140520 METAR COR EGLL 140520Z 22005KT 150V250 9999 BKN049 15/13
                        Q1005 NOSIG=
201108140450 METAR COR EGLL 140450Z 25005KT 9999 BKN049 15/13 Q1005 NOSIG=
201108140420 METAR COR EGLL 140420Z 27005KT 9999 BKN048 15/12 Q1005 NOSIG=
201108140350 METAR COR EGLL 140350Z 27005KT CAVOK 15/13 Q1005 NOSIG=
201108140320 METAR COR EGLL 140320Z 26006KT 9999 BKN049 15/13 Q1005 NOSIG=
201108140250 METAR COR EGLL 140250Z 25005KT 9999 BKN049 15/13 Q1005 NOSIG=
201108140220 METAR COR EGLL 140220Z 25006KT 9999 FEW042 BKN048 15/13 Q1005
                        NOSIG=
201108140150 METAR COR EGLL 140150Z 24005KT 200V280 CAVOK 15/13 Q1005
                        NOSIG=
201108140120 METAR EGLL 140120Z AUTO 24004KT 9999NDV OVC047/// 15/13 Q1005=
201108140050 METAR EGLL 140050Z AUTO 24004KT 9999NDV FEW035/// BKN048///
                        15/13 Q1006=
201108140020 METAR EGLL 140020Z AUTO 21004KT 9999NDV FEW049/// 15/13 Q1006=
201108132350 METAR COR EGLL 132350Z 25006KT 9999 FEW031 15/13 Q1006 NOSIG=
201108132320 METAR COR EGLL 132320Z 22004KT 200V260 9999 FEW030 15/13
                        Q1006 NOSIG=
201108132250 METAR COR EGLL 132250Z 21005KT 9999 FEW029 16/13 Q1006 NOSIG=
201108132220 METAR COR EGLL 132220Z 22006KT 9999 FEW030 16/13 Q1006 NOSIG=
201108132150 METAR COR EGLL 132150Z 23007KT 9999 FEW038 16/13 Q1006 NOSIG=
201108132120 METAR COR EGLL 132120Z 21006KT 9999 FEW046 17/13 Q1006 NOSIG=
201108132050 METAR COR EGLL 132050Z 21007KT 9999 SCT043 17/13 Q1006 NOSIG=
201108132020 METAR COR EGLL 132020Z 24008KT 9999 FEW044 17/13 Q1006 NOSIG=
201108131950 METAR COR EGLL 131950Z 24009KT 9999 FEW041 18/13 Q1006 NOSIG=
201108131920 METAR COR EGLL 131920Z 24008KT 9999 FEW042 18/13 Q1005 NOSIG=
201108131850 METAR COR EGLL 131850Z 24009KT CAVOK 19/13 Q1005 NOSIG=
201108131820 METAR COR EGLL 131820Z 22009KT 9999 FEW028 BKN042 19/13 Q1005
                        NOSIG=
201108131750 METAR COR EGLL 131750Z 24010KT 9999 SCT043 19/13 Q1005 NOSIG=
201108131720 METAR COR EGLL 131720Z 24009KT 9999 SCT039 20/13 Q1005 NOSIG=
201108131650 METAR COR EGLL 131650Z 25010KT 9999 FEW039 20/13 Q1005 NOSIG=
201108131620 METAR COR EGLL 131620Z 25012KT 9999 BKN035 20/13 Q1005 NOSIG=
201108131550 METAR COR EGLL 131550Z 26011KT 9999 BKN031 20/13 Q1006 NOSIG=
201108131520 METAR COR EGLL 131520Z 25012KT 9999 SCT032 20/13 Q1006 NOSIG=
201108131450 METAR COR EGLL 131450Z 26010KT 220V290 9999 SCT031 20/13
                        Q1006 NOSIG=
201108131420 METAR COR EGLL 131420Z 26013KT 9999 BKN031 20/13 Q1006 NOSIG=
201108131350 METAR COR EGLL 131350Z 26010KT 230V290 9999 BKN030 20/12
                        Q1006 NOSIG=
201108131320 METAR COR EGLL 131320Z 27013KT 9999 BKN032 20/12 Q1006 NOSIG=
201108131250 METAR COR EGLL 131250Z 27016KT 9999 SCT030 21/12 Q1006 NOSIG=
201108131220 METAR COR EGLL 131220Z 28013KT 9999 FEW027 SCT031 21/13 Q1006
                        NOSIG=
201108131150 METAR COR EGLL 131150Z 27014KT 240V310 9999 SCT028 21/14
                        Q1005 NOSIG=
201108131120 METAR COR EGLL 131120Z 28013KT 9999 SCT025 20/14 Q1005 NOSIG=
201108131050 METAR COR EGLL 131050Z 27012KT 9999 FEW025 SCT035 21/14 Q1005
                        NOSIG=
201108131020 METAR COR EGLL 131020Z 28012KT 9999 SCT025 21/15 Q1005 NOSIG=
201108130950 METAR COR EGLL 130950Z 26013KT 220V290 9999 FEW015 BKN018
                        19/15 Q1005 NOSIG=
201108130920 METAR COR EGLL 130920Z 26012KT 9999 FEW009 SCT015 20/17 Q1005
                        TEMPO BKN014=
201108130850 METAR COR EGLL 130850Z 25011KT 9999 SCT009 BKN014 19/17 Q1005
                        BECMG BKN015=
201108130820 METAR COR EGLL 130820Z 24009KT 9999 SCT007 BKN011 18/17 Q1005
                        TEMPO BKN009=
201108130750 METAR COR EGLL 130750Z 21006KT 9999 SCT006 BKN010 18/16 Q1005
                        TEMPO BKN009=
201108130720 METAR COR EGLL 130720Z 20006KT 150V240 9999 FEW004 BKN007
                        17/16 Q1005 TEMPO BKN004=
201108130650 METAR COR EGLL 130650Z 19007KT 160V230 8000 -RADZ SCT004
                        BKN007 17/16 Q1005 TEMPO BKN004=
201108130620 METAR COR EGLL 130620Z 19007KT 160V240 6000 SCT006 BKN008
                        17/16 Q1005 NOSIG=
201108130550 METAR COR EGLL 130550Z 20007KT 140V240 9999 SCT005 BKN008
                        17/16 Q1005 TEMPO 4000 RADZ BKN004=
201108130520 METAR COR EGLL 130520Z 18006KT 080V230 9999 BKN006 17/16
                        Q1006 TEMPO 4000 RADZ BKN004=
201108130450 METAR COR EGLL 130450Z 20006KT 9000 -RA BKN007 16/15 Q1006
                        TEMPO 4000 RADZ BKN004=
201108130420 METAR COR EGLL 130420Z 20006G17KT 160V220 8000 -RA BKN007
                        16/15 Q1006 TEMPO 4000 RADZ BKN004=
201108130350 METAR COR EGLL 130350Z 20007KT 170V250 9000 -RA BKN008 16/15
                        Q1006 TEMPO 4000 RADZ BKN004=
201108130320 METAR COR EGLL 130320Z 18006KT 9999 FEW007 BKN010 16/15 Q1007
                        TEMPO BKN007=
201108130250 METAR COR EGLL 130250Z 19007KT 6000 RA BKN010 16/15 Q1007
                        TEMPO BKN007=
201108130220 METAR EGLL 130220Z 18007KT 9999 BKN013 17/14 Q1007=
201108130150 METAR COR EGLL 130150Z 21007KT 9999 BKN017 17/14 Q1008 TEMPO
                        BKN012=
201108130120 METAR EGLL 130120Z AUTO 21006KT 9999NDV SCT013/// SCT017///
                        16/14 Q1008=
201108130050 METAR EGLL 130050Z AUTO 21010KT 9999NDV SCT011/// 17/14 Q1009=
201108130020 METAR EGLL 130020Z AUTO 21007KT 9999NDV BKN010/// 17/15 Q1009=
201108122350 METAR COR EGLL 122350Z 22007KT 9999 BKN011 17/15 Q1009 NOSIG=
201108122320 METAR COR EGLL 122320Z 20005KT 9999 BKN011 17/15 Q1009 NOSIG=
201108122250 METAR COR EGLL 122250Z 20006KT 9999 SCT009 17/15 Q1009 TEMPO
                        BKN012=
201108122220 METAR COR EGLL 122220Z 21007KT CAVOK 17/15 Q1009 NOSIG=
201108122150 METAR COR EGLL 122150Z 22007KT 190V250 CAVOK 17/15 Q1009
                        NOSIG=
201108122120 METAR COR EGLL 122120Z 21007KT CAVOK 18/15 Q1009 NOSIG=
201108122050 METAR COR EGLL 122050Z 21007KT CAVOK 18/15 Q1010 NOSIG=
201108122020 METAR COR EGLL 122020Z 21007KT 9999 FEW035 19/15 Q1010 NOSIG=
201108121950 METAR COR EGLL 121950Z 22007KT 9999 FEW020 SCT045 19/15 Q1010
                        NOSIG=
201108121920 METAR COR EGLL 121920Z 22010KT 9999 FEW019 SCT042 19/14 Q1010
                        NOSIG=
201108121850 METAR COR EGLL 121850Z 22008KT 200V260 9999 FEW023 20/14
                        Q1010 NOSIG=
201108121820 METAR COR EGLL 121820Z 24008KT 200V280 9999 FEW025 20/14
                        Q1010 NOSIG=
201108121750 METAR COR EGLL 121750Z 25010KT 9999 FEW030 20/14 Q1010 NOSIG=
201108121720 METAR COR EGLL 121720Z 23010KT 9999 FEW030 SCT045 21/14 Q1010
                        NOSIG=
201108121650 METAR COR EGLL 121650Z 23010KT 200V270 9999 FEW030 BKN037
                        21/14 Q1010 NOSIG=
201108121620 METAR COR EGLL 121620Z 22009KT 9999 SCT033 21/14 Q1010 NOSIG=
201108121550 METAR COR EGLL 121550Z 23009KT 9999 FEW033 SCT039 22/14 Q1010
                        NOSIG=
201108121520 METAR COR EGLL 121520Z 22007KT 180V260 9999 FEW035 23/14
                        Q1010 NOSIG=
201108121450 METAR COR EGLL 121450Z 21008KT 190V250 9999 SCT033 23/13
                        Q1010 NOSIG=
201108121420 METAR COR EGLL 121420Z 21008KT 190V260 9999 BKN029 24/14
                        Q1010 NOSIG=
201108121350 METAR EGLL 121350Z 24010KT 9999 FEW025 SCT029 23/15 Q1011=
201108121320 METAR COR EGLL 121320Z 24010KT 190V270 9999 BKN024 22/15
                        Q1011 NOSIG=
201108121250 METAR COR EGLL 121250Z 23007KT 190V270 9999 BKN023 22/15
                        Q1011 NOSIG=
201108121220 METAR COR EGLL 121220Z 24008KT 190V290 9999 SCT022 BKN027
                        21/15 Q1011 NOSIG=
201108121150 METAR COR EGLL 121150Z 25008KT 190V280 9999 SCT020 BKN026
                        20/15 Q1011 NOSIG=
201108121120 METAR COR EGLL 121120Z 24009KT 200V270 9999 FEW019 BKN022
                        20/15 Q1011 NOSIG=
201108121050 METAR COR EGLL 121050Z 20007KT 140V260 9999 FEW018 BKN025
                        20/15 Q1011 NOSIG=
201108121020 METAR COR EGLL 121020Z 26006KT 200V290 9999 FEW018 SCT022
                        20/15 Q1011 NOSIG=
201108120950 METAR COR EGLL 120950Z 25008KT 200V290 9999 FEW016 BKN020
                        20/15 Q1011 NOSIG=
201108120920 METAR COR EGLL 120920Z 28005KT 9999 FEW013 19/15 Q1011 NOSIG=
201108120850 METAR COR EGLL 120850Z 27007KT 9999 BKN012 18/15 Q1011 BECMG
                        SCT012=
201108120820 METAR COR EGLL 120820Z 27007KT 9999 SCT011 18/15 Q1011 NOSIG=
201108120750 METAR COR EGLL 120750Z 28007KT 9999 SCT011 17/15 Q1011 NOSIG=
201108120720 METAR COR EGLL 120720Z 27008KT 9999 SCT009 SCT044 17/15 Q1011
                        NOSIG=
201108120650 METAR COR EGLL 120650Z 27008KT 9999 FEW009 SCT042 17/15 Q1011
                        NOSIG=
201108120620 METAR COR EGLL 120620Z 27008KT 9999 FEW009 SCT045 16/14 Q1011
                        NOSIG=
201108120550 METAR COR EGLL 120550Z 27007KT CAVOK 16/14 Q1011 NOSIG=
201108120520 METAR COR EGLL 120520Z 27007KT 9999 FEW049 16/14 Q1011 TEMPO
                        BKN012=
201108120450 METAR COR EGLL 120450Z 27006KT 9999 SCT035 16/14 Q1010 NOSIG=
201108120420 METAR COR EGLL 120420Z 27008KT 9999 BKN033 16/14 Q1010 TEMPO
                        BKN012=
201108120350 METAR COR EGLL 120350Z 27009KT 9999 BKN031 16/15 Q1010 TEMPO
                        BKN012=
201108120320 METAR COR EGLL 120320Z 27007KT 9999 FEW011 SCT030 16/15 Q1010
                        TEMPO BKN012=
201108120250 METAR COR EGLL 120250Z 27007KT 9999 SCT012 SCT030 16/15 Q1010
                        TEMPO BKN012=
201108120220 METAR COR EGLL 120220Z 27006KT 9999 FEW009 BKN011 16/15 Q1010
                        NOSIG=
201108120150 METAR COR EGLL 120150Z 27006KT 9999 SCT010 SCT016 16/14 Q1010
                        TEMPO BKN012=
201108120120 METAR EGLL 120120Z AUTO 25007KT 9999NDV SCT011/// BKN015///
                        16/14 Q1010=
201108120050 METAR EGLL 120050Z AUTO 25007KT 9999NDV SCT011/// BKN021///
                        16/14 Q1010=
201108120020 METAR EGLL 120020Z AUTO 26007KT 9999NDV BKN022/// BKN045///
                        16/14 Q1010=
201108112350 METAR COR EGLL 112350Z 26008KT 9999 FEW015 SCT045 16/14 Q1010
                        TEMPO BKN012=
201108112320 METAR COR EGLL 112320Z 25006KT 9999 SCT014 16/14 Q1010 TEMPO
                        BKN012=
201108112250 METAR COR EGLL 112250Z 24008KT 9999 FEW011 16/14 Q1010 TEMPO
                        BKN012=
201108112220 METAR COR EGLL 112220Z 26009KT 9999 SCT011 17/14 Q1010 TEMPO
                        BKN012=
201108112150 METAR COR EGLL 112150Z 27008KT CAVOK 17/14 Q1010 NOSIG=
201108112120 METAR COR EGLL 112120Z 27011KT CAVOK 17/15 Q1010 NOSIG=
201108112050 METAR COR EGLL 112050Z 27013KT CAVOK 18/15 Q1010 NOSIG=
201108112020 METAR COR EGLL 112020Z 26011KT 9999 FEW020 19/15 Q1010 NOSIG=
201108111950 METAR COR EGLL 111950Z 26012KT 9999 FEW025 19/15 Q1009 NOSIG=
201108111920 METAR COR EGLL 111920Z 25012KT 9999 FEW029 19/15 Q1009 NOSIG=
201108111850 METAR COR EGLL 111850Z 26015KT 9999 FEW030 20/15 Q1009 NOSIG=
201108111820 METAR COR EGLL 111820Z 25014KT 9999 FEW026 21/15 Q1009 NOSIG=
201108111750 METAR COR EGLL 111750Z 26015KT 9999 FEW031 21/15 Q1009 NOSIG=
201108111720 METAR COR EGLL 111720Z 25016KT 9999 FEW030 21/15 Q1009 NOSIG=
201108111650 METAR COR EGLL 111650Z 25015KT 9999 SCT024 22/15 Q1009 NOSIG=
201108111620 METAR COR EGLL 111620Z 26017KT 9999 SCT023 22/16 Q1009 NOSIG=
201108111550 METAR COR EGLL 111550Z 26016KT 9999 FEW024 22/16 Q1009 NOSIG=
201108111520 METAR COR EGLL 111520Z 25017KT 9999 SCT025 22/16 Q1009 NOSIG=
201108111450 METAR COR EGLL 111450Z 25014KT 9999 SCT019 SCT049 21/17 Q1009
                        NOSIG=
201108111420 METAR COR EGLL 111420Z 26014G24KT 9999 SCT016 SCT047 21/17
                        Q1009 NOSIG=
201108111350 METAR COR EGLL 111350Z 26014KT 9999 FEW012 SCT025 19/17 Q1009
                        NOSIG=
201108111320 METAR COR EGLL 111320Z 24016G26KT 5000 -RADZ FEW018 BKN028
                        20/16 Q1009 NOSIG=
201108111250 METAR COR EGLL 111250Z 23016KT 9999 FEW022 BKN025 21/15 Q1009
                        NOSIG=
201108111220 METAR COR EGLL 111220Z 23015KT 9999 SCT014 BKN017 21/16 Q1009
                        TEMPO BKN014=
201108111150 METAR COR EGLL 111150Z 24015KT 9999 BKN012 19/16 Q1010 NOSIG=
201108111120 METAR COR EGLL 111120Z 23014KT 200V260 9999 BKN013 18/16
                        Q1010 NOSIG=
201108111050 METAR COR EGLL 111050Z 23014KT 9999 SCT011 BKN015 18/15 Q1010
                        TEMPO BKN012=
201108111020 METAR COR EGLL 111020Z 22014KT 9999 SCT011 BKN014 18/16 Q1011
                        NOSIG=
201108110950 METAR COR EGLL 110950Z 23012KT 9999 VCSH OVC011 18/16 Q1011
                        NOSIG=
201108110920 METAR COR EGLL 110920Z 23010KT 190V250 9999 BKN010 17/15
                        Q1011 NOSIG=
201108110850 METAR COR EGLL 110850Z 22008KT 180V260 9999 FEW011 BKN015
                        17/15 Q1011 RERA TEMPO BKN012=
201108110820 METAR COR EGLL 110820Z 22011KT 8000 RA BKN013 16/14 Q1011
                        NOSIG=
201108110750 METAR COR EGLL 110750Z 23011KT 190V260 9999 -RA BKN014 17/14
                        Q1012 TEMPO BKN016=
201108110720 METAR COR EGLL 110720Z 24013KT 200V270 9999 BKN013 17/13
                        Q1012 NOSIG=
201108110650 METAR COR EGLL 110650Z 23011KT 190V260 9999 BKN015 16/13
                        Q1012 TEMPO BKN012=
201108110620 METAR COR EGLL 110620Z 22009KT 9999 FEW022 SCT046 16/12 Q1012
                        NOSIG=
201108110550 METAR COR EGLL 110550Z 23008KT 200V270 9999 FEW022 SCT039
                        16/12 Q1012 NOSIG=
201108110520 METAR COR EGLL 110520Z 22009KT 9999 FEW037 15/11 Q1012 NOSIG=
201108110450 METAR COR EGLL 110450Z 22010KT CAVOK 16/11 Q1012 NOSIG=
201108110420 METAR EGLL 110420Z 23010KT CAVOK 16/11 Q1013=
201108110350 METAR EGLL 110350Z 22008KT CAVOK 16/11 Q1013=
201108110320 METAR COR EGLL 110320Z 23010KT CAVOK 15/11 Q1013 NOSIG=
201108110250 METAR COR EGLL 110250Z 23009KT CAVOK 15/11 Q1014 NOSIG=
201108110220 METAR COR EGLL 110220Z 22008KT CAVOK 15/11 Q1014 NOSIG=
201108110150 METAR COR EGLL 110150Z 22008KT CAVOK 15/11 Q1014 NOSIG=
201108110120 METAR EGLL 110120Z AUTO 22009KT 9999NDV NCD 15/12 Q1015=
201108110050 METAR EGLL 110050Z AUTO 22009KT 9999NDV NCD 16/12 Q1015=
201108110020 METAR EGLL 110020Z AUTO 24010KT 9999NDV NCD 16/12 Q1015=
201108102350 METAR COR EGLL 102350Z 22009KT CAVOK 16/12 Q1015 NOSIG=
201108102320 METAR COR EGLL 102320Z 22009KT CAVOK 16/13 Q1016 NOSIG=
201108102250 METAR COR EGLL 102250Z 22009KT CAVOK 16/13 Q1016 NOSIG=
201108102220 METAR COR EGLL 102220Z 23011KT CAVOK 16/13 Q1016 NOSIG=
201108102150 METAR COR EGLL 102150Z 23011G23KT CAVOK 17/13 Q1016 NOSIG=
201108102120 METAR EGLL 102120Z 22011KT CAVOK 17/13 Q1016=
201108102050 METAR COR EGLL 102050Z 23010KT CAVOK 17/13 Q1017 NOSIG=
201108102020 METAR COR EGLL 102020Z 23014KT CAVOK 18/13 Q1017 NOSIG=
201108101950 METAR COR EGLL 101950Z 22012KT 9999 FEW041 18/13 Q1017 NOSIG=
201108101920 METAR COR EGLL 101920Z 22012KT 190V250 9999 FEW041 19/12
                        Q1017 NOSIG=
201108101850 METAR COR EGLL 101850Z 24013KT 9999 SCT040 20/12 Q1017 NOSIG=
201108101820 METAR COR EGLL 101820Z 22012KT CAVOK 21/12 Q1017 NOSIG=
201108101750 METAR COR EGLL 101750Z 23015KT 9999 FEW040 22/12 Q1017 NOSIG=
201108101720 METAR COR EGLL 101720Z 24015KT 9999 FEW043 22/12 Q1018 NOSIG=
201108101650 METAR COR EGLL 101650Z 24014KT 9999 FEW043 22/12 Q1018 NOSIG=
201108101620 METAR COR EGLL 101620Z 23016KT 9999 SCT043 24/12 Q1018 NOSIG=
201108101550 METAR COR EGLL 101550Z 24015KT 9999 SCT043 24/12 Q1018 NOSIG=
201108101520 METAR COR EGLL 101520Z 24015KT 9999 SCT044 23/11 Q1019 NOSIG=
201108101450 METAR COR EGLL 101450Z 23016KT 9999 FEW044 23/11 Q1019 NOSIG=
201108101420 METAR COR EGLL 101420Z 23013KT 9999 FEW044 24/11 Q1020 NOSIG=
201108101350 METAR COR EGLL 101350Z 24014G24KT 9999 FEW046 23/11 Q1020
                        NOSIG=
201108101320 METAR COR EGLL 101320Z 23014KT 190V260 CAVOK 22/10 Q1020
                        NOSIG=
201108101250 METAR COR EGLL 101250Z 23014KT 9999 FEW043 22/10 Q1021 NOSIG=
201108101220 METAR COR EGLL 101220Z 24015KT CAVOK 21/09 Q1021 NOSIG=
201108101150 METAR COR EGLL 101150Z 24017KT 210V280 CAVOK 20/09 Q1022
                        NOSIG=
201108101120 METAR COR EGLL 101120Z 23015KT 200V270 CAVOK 20/10 Q1022
                        NOSIG=
201108101050 METAR COR EGLL 101050Z 25015KT CAVOK 19/09 Q1022 NOSIG=
201108101020 METAR COR EGLL 101020Z 24014KT 200V270 CAVOK 18/10 Q1023
                        NOSIG=
201108100950 METAR COR EGLL 100950Z 25014KT CAVOK 18/09 Q1023 NOSIG=
201108100920 METAR COR EGLL 100920Z 25012KT CAVOK 18/09 Q1023 NOSIG=
201108100850 METAR COR EGLL 100850Z 23011KT CAVOK 17/09 Q1024 NOSIG=
201108100820 METAR COR EGLL 100820Z 25010KT CAVOK 16/08 Q1024 NOSIG=
201108100750 METAR COR EGLL 100750Z 24007KT 200V270 CAVOK 16/09 Q1024
                        NOSIG=
201108100720 METAR COR EGLL 100720Z 21006KT CAVOK 15/09 Q1024 NOSIG=
201108100650 METAR COR EGLL 100650Z 26006KT CAVOK 13/09 Q1025 NOSIG=
201108100620 METAR COR EGLL 100620Z 29004KT CAVOK 13/09 Q1025 NOSIG=
201108100550 METAR COR EGLL 100550Z 25004KT 200V270 CAVOK 12/09 Q1025
                        NOSIG=
201108100520 METAR COR EGLL 100520Z 24005KT CAVOK 11/09 Q1025 NOSIG=
201108100450 METAR COR EGLL 100450Z 27004KT CAVOK 10/08 Q1025 NOSIG=
201108100420 METAR COR EGLL 100420Z VRB03KT CAVOK 10/08 Q1025 NOSIG=
201108100350 METAR COR EGLL 100350Z 28002KT CAVOK 10/07 Q1025 NOSIG=
201108100320 METAR COR EGLL 100320Z 29003KT CAVOK 10/07 Q1025 NOSIG=
201108100250 METAR COR EGLL 100250Z 31004KT CAVOK 11/07 Q1025 NOSIG=
201108100220 METAR COR EGLL 100220Z 29003KT CAVOK 12/07 Q1026 NOSIG=
201108100150 METAR COR EGLL 100150Z 27002KT CAVOK 12/07 Q1026 NOSIG=
201108100120 METAR COR EGLL 100120Z AUTO 28002KT 9999NDV NCD 12/07 Q1026=
201108100050 METAR COR EGLL 100050Z AUTO 00000KT 9999NDV NCD 12/07 Q1026=
201108100020 METAR EGLL 100020Z AUTO VRB02KT 9999NDV NCD 12/07 Q1026=
201108092350 METAR COR EGLL 092350Z 29003KT CAVOK 13/07 Q1026 NOSIG=
201108092320 METAR COR EGLL 092320Z 29004KT CAVOK 14/07 Q1026 NOSIG=
201108092250 METAR COR EGLL 092250Z 29004KT CAVOK 14/08 Q1026 NOSIG=
201108092220 METAR COR EGLL 092220Z VRB03KT CAVOK 14/08 Q1026 NOSIG=
201108092150 METAR COR EGLL 092150Z 34003KT CAVOK 15/08 Q1026 NOSIG=
201108092120 METAR COR EGLL 092120Z 32003KT CAVOK 16/07 Q1025 NOSIG=
201108092050 METAR COR EGLL 092050Z 33002KT CAVOK 17/07 Q1025 NOSIG=
201108092020 METAR COR EGLL 092020Z 32004KT CAVOK 17/07 Q1025 NOSIG=
201108091950 METAR COR EGLL 091950Z 31004KT CAVOK 18/06 Q1025 NOSIG=
201108091920 METAR COR EGLL 091920Z 30005KT CAVOK 19/06 Q1025 NOSIG=
201108091850 METAR COR EGLL 091850Z 30004KT CAVOK 19/05 Q1024 NOSIG=
201108091820 METAR COR EGLL 091820Z 31007KT 270V340 CAVOK 20/05 Q1024
                        NOSIG=
201108091750 METAR COR EGLL 091750Z 31007KT CAVOK 20/05 Q1024 NOSIG=
201108091720 METAR COR EGLL 091720Z 32005KT 260V040 CAVOK 20/06 Q1024
                        NOSIG=
201108091650 METAR COR EGLL 091650Z 28007KT 250V030 CAVOK 21/05 Q1024
                        NOSIG=
201108091620 METAR COR EGLL 091620Z 30007KT CAVOK 20/05 Q1024 NOSIG=
201108091550 METAR COR EGLL 091550Z 32007KT 270V350 CAVOK 21/06 Q1024
                        NOSIG=
201108091520 METAR COR EGLL 091520Z 29008KT 250V330 CAVOK 21/06 Q1024
                        NOSIG=
201108091450 METAR COR EGLL 091450Z 29008KT 250V330 CAVOK 20/06 Q1024
                        NOSIG=
201108091420 METAR COR EGLL 091420Z 30007KT 260V350 CAVOK 20/06 Q1024
                        NOSIG=
201108091350 METAR COR EGLL 091350Z 29009KT 260V350 CAVOK 21/07 Q1024
                        NOSIG=
201108091320 METAR COR EGLL 091320Z 29008KT 250V360 9999 FEW047 19/06
                        Q1024 NOSIG=
201108091250 METAR COR EGLL 091250Z 32007KT 290V360 9999 FEW047 20/06
                        Q1023 NOSIG=
201108091220 METAR COR EGLL 091220Z 30009KT 270V340 9999 FEW049 19/07
                        Q1023 NOSIG=
201108091150 METAR COR EGLL 091150Z 30009KT 9999 FEW045 18/07 Q1023 NOSIG=
201108091120 METAR COR EGLL 091120Z 31010KT 9999 FEW047 19/07 Q1023 NOSIG=
201108091050 METAR COR EGLL 091050Z 31010KT 9999 SCT042 17/07 Q1023 NOSIG=
201108091020 METAR COR EGLL 091020Z 32007KT 290V360 9999 SCT044 17/07
                        Q1022 NOSIG=
201108090950 METAR COR EGLL 090950Z 32008KT 280V360 9999 FEW035 BKN047
                        16/08 Q1022 NOSIG=
201108090920 METAR COR EGLL 090920Z 31008KT 280V350 9999 SCT033 SCT044
                        16/07 Q1022 NOSIG=
201108090850 METAR COR EGLL 090850Z 31010KT 270V350 9999 SCT032 16/08
                        Q1021 NOSIG=
201108090820 METAR COR EGLL 090820Z 31011KT CAVOK 16/08 Q1021 NOSIG=
201108090750 METAR COR EGLL 090750Z 31010KT 280V340 CAVOK 15/08 Q1021
                        NOSIG=
201108090720 METAR COR EGLL 090720Z 31011KT CAVOK 14/07 Q1020 NOSIG=
201108090650 METAR COR EGLL 090650Z 30010KT CAVOK 13/07 Q1020 NOSIG=
201108090620 METAR COR EGLL 090620Z 30009KT CAVOK 13/07 Q1020 NOSIG=
201108090550 METAR COR EGLL 090550Z 29010KT CAVOK 12/07 Q1019 NOSIG=
201108090520 METAR COR EGLL 090520Z 30008KT CAVOK 11/07 Q1019 NOSIG=
201108090450 METAR COR EGLL 090450Z 29008KT CAVOK 11/07 Q1018 NOSIG=
201108090420 METAR COR EGLL 090420Z 29009KT CAVOK 11/07 Q1018 NOSIG=
201108090350 METAR COR EGLL 090350Z 30009KT CAVOK 12/07 Q1018 NOSIG=
201108090320 METAR COR EGLL 090320Z 29008KT CAVOK 12/07 Q1018 NOSIG=
201108090250 METAR COR EGLL 090250Z 29010KT CAVOK 12/07 Q1017 NOSIG=
201108090220 METAR COR EGLL 090220Z 30007KT 270V330 CAVOK 12/07 Q1017
                        NOSIG=
201108090150 METAR COR EGLL 090150Z 30008KT CAVOK 12/07 Q1017 NOSIG=
201108090120 METAR EGLL 090120Z AUTO 29008KT 9999NDV NCD 13/07 Q1016=
201108090050 METAR EGLL 090050Z AUTO 30008KT 9999NDV FEW048/// 13/07 Q1016=
201108090020 METAR EGLL 090020Z AUTO 30008KT 9999NDV BKN040/// 14/07 Q1016=
201108082350 METAR COR EGLL 082350Z 29007KT 9999 FEW022 SCT038 14/10 Q1016
                        NOSIG=
201108082320 METAR COR EGLL 082320Z 30008KT 270V330 9999 FEW020 SCT036
                        15/11 Q1015 NOSIG=
201108082250 METAR EGLL 082250Z 30008KT 9999 SCT019 BKN029 16/11 Q1015=
201108082220 METAR COR EGLL 082220Z 28011KT 9999 FEW020 16/13 Q1014 NOSIG=
201108082150 METAR COR EGLL 082150Z 27012KT CAVOK 16/12 Q1014 NOSIG=
201108082120 METAR COR EGLL 082120Z 27013KT CAVOK 16/12 Q1014 NOSIG=
201108082050 METAR COR EGLL 082050Z 25014KT 9999 SCT040 16/12 Q1013 NOSIG=
201108082020 METAR COR EGLL 082020Z 26012KT 9999 FEW030 SCT040 16/11 Q1013
                        NOSIG=
201108081950 METAR COR EGLL 081950Z 27014KT 9999 FEW037 17/11 Q1013 NOSIG=
201108081920 METAR COR EGLL 081920Z 27014KT 9999 SCT031 SCT036 17/11 Q1012
                        NOSIG=
201108081850 METAR COR EGLL 081850Z 27012KT 9999 BKN034 BKN044 18/11 Q1012
                        NOSIG=
201108081820 METAR COR EGLL 081820Z 26016KT 9999 SCT037 18/11 Q1012 NOSIG=
201108081750 METAR COR EGLL 081750Z 28017KT 9999 SCT039 SCT045 19/11 Q1011
                        NOSIG=
201108081720 METAR COR EGLL 081720Z 26016KT 9999 FEW042 19/10 Q1011 NOSIG=
201108081650 METAR COR EGLL 081650Z 28017KT CAVOK 20/08 Q1011 NOSIG=
201108081620 METAR COR EGLL 081620Z 27018KT CAVOK 21/08 Q1011 NOSIG=
201108081550 METAR COR EGLL 081550Z 27015KT CAVOK 20/08 Q1010 NOSIG=
201108081520 METAR EGLL 081520Z 28018KT CAVOK 21/08 Q1010=
201108081450 METAR COR EGLL 081450Z 29018KT 9999 FEW049 21/08 Q1010 NOSIG=
201108081420 METAR COR EGLL 081420Z 28018KT 9999 SCT048 20/08 Q1009 NOSIG=
201108081350 METAR COR EGLL 081350Z 28016KT 9999 SCT040 21/09 Q1009 NOSIG=
201108081320 METAR COR EGLL 081320Z 29016KT 9999 SCT040 20/09 Q1009 NOSIG=
201108081250 METAR COR EGLL 081250Z 27015KT 9999 SCT040 21/11 Q1008 NOSIG=
201108081220 METAR EGLL 081220Z 27015KT 9999 VCSH FEW040 19/12 Q1008=
201108081150 METAR COR EGLL 081150Z 28017KT 9999 VCSH SCT040 19/09 Q1008
                        NOSIG=
201108081120 METAR COR EGLL 081120Z 28016KT 9999 VCSH SCT036 18/10 Q1008
                        NOSIG=
201108081050 METAR COR EGLL 081050Z 28014KT 9999 FEW035 SCT040 18/10 Q1007
                        NOSIG=
201108081020 METAR COR EGLL 081020Z 27016KT 9999 SCT030 18/10 Q1007 NOSIG=
201108080950 METAR COR EGLL 080950Z 29013KT 9999 SCT028 18/11 Q1007 NOSIG=
201108080920 METAR COR EGLL 080920Z 29010KT 9999 FEW025 17/11 Q1006 NOSIG=
201108080850 METAR COR EGLL 080850Z 29009KT 260V320 9999 SCT023 17/11
                        Q1006 NOSIG=
201108080820 METAR COR EGLL 080820Z 29009KT 9999 FEW020 16/11 Q1006 NOSIG=
201108080750 METAR COR EGLL 080750Z 29009KT 9999 FEW014 14/12 Q1005 NOSIG=
201108080720 METAR COR EGLL 080720Z 30007KT 250V350 CAVOK 14/11 Q1005
                        NOSIG=
201108080650 METAR COR EGLL 080650Z 29008KT CAVOK 13/11 Q1004 NOSIG=
201108080620 METAR COR EGLL 080620Z 28007KT CAVOK 12/11 Q1004 NOSIG=
201108080550 METAR COR EGLL 080550Z 28007KT CAVOK 12/10 Q1003 NOSIG=
201108080520 METAR COR EGLL 080520Z 28005KT CAVOK 11/10 Q1003 NOSIG=
201108080450 METAR COR EGLL 080450Z 28005KT CAVOK 11/10 Q1002 NOSIG=
201108080420 METAR COR EGLL 080420Z 28007KT CAVOK 11/10 Q1002 NOSIG=
201108080350 METAR COR EGLL 080350Z 28006KT CAVOK 11/10 Q1002 NOSIG=
201108080320 METAR COR EGLL 080320Z 28005KT CAVOK 11/10 Q1001 NOSIG=
201108080250 METAR COR EGLL 080250Z 28007KT CAVOK 12/10 Q1001 NOSIG=
201108080220 METAR COR EGLL 080220Z 27006KT CAVOK 12/10 Q1001 NOSIG=
201108080150 METAR COR EGLL 080150Z 25006KT CAVOK 12/11 Q1001 NOSIG=
201108080120 METAR EGLL 080120Z AUTO 25005KT 9999NDV NCD 12/11 Q1001=
201108080050 METAR EGLL 080050Z AUTO 27005KT 9999NDV NCD 12/11 Q1001=
201108080020 METAR EGLL 080020Z AUTO 23006KT 8000NDV -RA FEW030/// 13/11
                        Q1001 RERA=
201108072350 METAR COR EGLL 072350Z 22007KT 9999 FEW030 14/11 Q1001 NOSIG=
201108072320 METAR COR EGLL 072320Z 22004KT 9999 SCT030 14/11 Q1001 TEMPO
                        SHRA=
201108072250 METAR COR EGLL 072250Z 20003KT 9999 FEW030 14/11 Q1001 NOSIG=
201108072220 METAR COR EGLL 072220Z 20005KT 160V260 CAVOK 14/11 Q1001
                        NOSIG=
201108072150 METAR COR EGLL 072150Z 19007KT 130V250 CAVOK 15/10 Q1001
                        NOSIG=
201108072120 METAR COR EGLL 072120Z 20007KT 140V250 CAVOK 15/11 Q1001
                        NOSIG=
201108072050 METAR COR EGLL 072050Z 20007KT 160V260 9999 FEW024 15/10
                        Q1001 NOSIG=
201108072020 METAR COR EGLL 072020Z 23007KT 200V270 9999 FEW024 16/10
                        Q1001 NOSIG=
201108071950 METAR COR EGLL 071950Z 22007KT 190V260 9999 FEW024 15/10
                        Q1002 NOSIG=
201108071920 METAR COR EGLL 071920Z 22007KT 170V260 9999 FEW040 16/11
                        Q1002 NOSIG=
201108071850 METAR COR EGLL 071850Z VRB03KT 9999 FEW040 16/11 Q1002 NOSIG=
201108071820 METAR COR EGLL 071820Z 24005KT 190V280 9999 FEW025 SCT040TCU
                        16/11 Q1002 NOSIG=
201108071750 METAR COR EGLL 071750Z VRB02KT 9999 FEW025 SCT040 16/12 Q1002
                        TEMPO SHRA=
201108071720 METAR COR EGLL 071720Z 29006KT 9999 FEW025 BKN043CB 15/11
                        Q1003 NOSIG=
201108071650 METAR COR EGLL 071650Z 29007KT 260V330 9999 SCT046 15/11
                        Q1003 TEMPO SHRA=
201108071620 METAR COR EGLL 071620Z 30008KT 270V330 9999 FEW025CB SCT048
                        15/11 Q1003 TEMPO SHRA=
201108071550 METAR COR EGLL 071550Z 23009KT 190V270 9999 VCTS -SHRA SCT021CB
                        BKN042 17/12 Q1003 TEMPO TSRA=
201108071520 METAR COR EGLL 071520Z 24008KT 200V280 9999 FEW025CB BKN042
                        17/13 Q1003 TEMPO SHRA=
201108071450 METAR COR EGLL 071450Z 24007KT 200V270 9999 SCT037 SCT044
                        16/12 Q1003 TEMPO SHRA=
201108071420 METAR COR EGLL 071420Z 27013KT 9999 -SHRA FEW032 BKN036 15/12
                        Q1003 RESHRA TEMPO +SHRA=
201108071350 METAR COR EGLL 071350Z 26011KT 9999 SHRA SCT015CB BKN037
                        16/12 Q1003 TEMPO 25015G25KT 4000
                        +TSRA=
201108071320 METAR COR EGLL 071320Z 26013KT 220V290 9999 4000SE SHRA SCT021CB
                        BKN040 15/12 Q1003 TEMPO 24015G25KT
                        4000 +TSRA=
201108071250 METAR COR EGLL 071250Z 28014KT 9999 VCSH FEW036 SCT048 18/10
                        Q1003 TEMPO 4000 +TSRA=
201108071220 METAR COR EGLL 071220Z 24014KT 9999 FEW038 20/10 Q1003 TEMPO
                        SHRA=
201108071150 METAR COR EGLL 071150Z 24016KT 9999 FEW034 20/10 Q1003 TEMPO
                        SHRA=
201108071120 METAR COR EGLL 071120Z 24014KT 9999 FEW035 19/10 Q1003 TEMPO
                        SHRA=
201108071050 METAR COR EGLL 071050Z 24016KT 9999 FEW034 SCT041 18/10 Q1003
                        TEMPO SHRA=
201108071020 METAR COR EGLL 071020Z 23015KT 9999 SCT036 19/10 Q1003 TEMPO
                        SHRA=
201108070950 METAR COR EGLL 070950Z 25013KT 9999 SCT025 18/11 Q1003 NOSIG=
201108070920 METAR COR EGLL 070920Z 24014KT 9999 SCT024 18/11 Q1003 NOSIG=
201108070850 METAR COR EGLL 070850Z 24013KT 210V270 9999 FEW023 17/12
                        Q1003 NOSIG=
201108070820 METAR COR EGLL 070820Z 24014KT 9999 FEW020 16/11 Q1003 NOSIG=
201108070750 METAR COR EGLL 070750Z 23012KT 200V260 9999 FEW016 15/11
                        Q1003 NOSIG=
201108070720 METAR COR EGLL 070720Z 24012KT 9999 FEW012 14/11 Q1003 NOSIG=
201108070650 METAR COR EGLL 070650Z 23010KT 9999 FEW012 14/11 Q1003 NOSIG=
201108070620 METAR COR EGLL 070620Z 24010KT 9999 FEW012 13/11 Q1003 NOSIG=
201108070550 METAR COR EGLL 070550Z 24011KT 9999 FEW012 13/11 Q1003 NOSIG=
201108070520 METAR COR EGLL 070520Z 23009KT 200V260 9999 FEW011 13/11
                        Q1003 NOSIG=
201108070450 METAR COR EGLL 070450Z 24009KT 9999 FEW013 12/10 Q1003 NOSIG=
201108070420 METAR COR EGLL 070420Z 25009KT 9999 FEW013 12/11 Q1002 NOSIG=
201108070350 METAR COR EGLL 070350Z 24009KT 9999 FEW012 12/11 Q1002 NOSIG=
201108070320 METAR COR EGLL 070320Z 25010KT 9999 FEW015 12/11 Q1002 NOSIG=
201108070250 METAR COR EGLL 070250Z 24010KT CAVOK 13/11 Q1002 NOSIG=
201108070220 METAR COR EGLL 070220Z 24011KT 9999 FEW015 13/11 Q1002 NOSIG=
201108070150 METAR COR EGLL 070150Z 23010KT 9999 FEW015 13/11 Q1002 NOSIG=
201108070120 METAR EGLL 070120Z AUTO 23010KT 9999NDV NCD 13/12 Q1002=
201108070050 METAR EGLL 070050Z AUTO 22007KT 9999NDV NCD 13/12 Q1002=
201108070020 METAR EGLL 070020Z AUTO 23007KT 9999NDV NCD 14/12 Q1002=
201108062350 METAR COR EGLL 062350Z 25009KT CAVOK 14/12 Q1002 NOSIG=
201108062320 METAR COR EGLL 062320Z 25009KT CAVOK 14/11 Q1002 NOSIG=
201108062250 METAR COR EGLL 062250Z 25009KT 9999 -SHRA NSC 14/12 Q1002
                        NOSIG=
201108062220 METAR COR EGLL 062220Z 23008KT CAVOK 14/12 Q1002 NOSIG=
201108062150 METAR COR EGLL 062150Z 24010KT CAVOK 15/12 Q1002 NOSIG=
201108062120 METAR COR EGLL 062120Z 25011G23KT CAVOK 15/12 Q1002 NOSIG=
201108062050 METAR COR EGLL 062050Z 25010KT CAVOK 15/11 Q1002 NOSIG=
201108062020 METAR COR EGLL 062020Z 25010KT 9999 FEW045 15/11 Q1002 NOSIG=
201108061950 METAR COR EGLL 061950Z 24011KT 9999 FEW045 16/12 Q1001 NOSIG=
201108061920 METAR COR EGLL 061920Z 23008KT 9999 FEW043 16/13 Q1001 NOSIG=
201108061850 METAR COR EGLL 061850Z 23011KT 9999 SCT033 16/13 Q1001 RESHRA
                        NOSIG=
201108061820 METAR COR EGLL 061820Z 22010KT 200V260 9999 FEW045 18/11
                        Q1001 TEMPO SHRA=
201108061750 METAR COR EGLL 061750Z 22010KT 190V250 9999 FEW046 19/12
                        Q1001 NOSIG=
201108061720 METAR COR EGLL 061720Z 24009KT 200V280 9999 FEW046 19/09
                        Q1001 NOSIG=
201108061650 METAR COR EGLL 061650Z 25010KT 9999 FEW044 20/09 Q1001 NOSIG=
201108061620 METAR COR EGLL 061620Z 25010KT 9999 FEW034 19/09 Q1001 NOSIG=
201108061550 METAR COR EGLL 061550Z 27011KT 9999 FEW042 19/10 Q1001 NOSIG=
201108061520 METAR COR EGLL 061520Z 26010KT 9999 FEW043 19/09 Q1002 NOSIG=
201108061450 METAR COR EGLL 061450Z 25011KT 220V290 9999 FEW037 19/10
                        Q1002 NOSIG=
201108061420 METAR COR EGLL 061420Z 28011KT 9999 FEW034 19/10 Q1002 NOSIG=
201108061350 METAR COR EGLL 061350Z 24009KT 9999 SCT032 19/11 Q1002 NOSIG=
201108061320 METAR COR EGLL 061320Z 26008KT 220V300 9999 FEW028 20/11
                        Q1002 NOSIG=
201108061250 METAR COR EGLL 061250Z 24009KT 9999 FEW028 19/11 Q1003 NOSIG=
201108061220 METAR COR EGLL 061220Z 24009KT 220V300 9999 -SHRA FEW033
                        18/11 Q1003 NOSIG=
201108061150 METAR COR EGLL 061150Z 26011KT 9999 FEW034 19/11 Q1003 TEMPO
                        SHRA=
201108061120 METAR COR EGLL 061120Z 25011KT 9999 FEW032 19/11 Q1003 NOSIG=
201108061050 METAR COR EGLL 061050Z 26011KT 9999 FEW028 18/10 Q1003 NOSIG=
201108061020 METAR COR EGLL 061020Z 25011KT 9999 FEW028 18/11 Q1003 NOSIG=
201108060950 METAR COR EGLL 060950Z 25010KT 9999 FEW028 18/11 Q1003 NOSIG=
201108060920 METAR COR EGLL 060920Z 24007KT 190V270 9999 FEW028 18/11
                        Q1004 NOSIG=
201108060850 METAR COR EGLL 060850Z 25007KT CAVOK 17/12 Q1004 NOSIG=
201108060820 METAR COR EGLL 060820Z 23007KT 190V260 9999 FEW042 16/12
                        Q1004 NOSIG=
201108060750 METAR COR EGLL 060750Z 23010KT 9999 FEW010 SCT042 16/12 Q1005
                        NOSIG=
201108060720 METAR COR EGLL 060720Z 23007KT 180V260 CAVOK 16/12 Q1005
                        NOSIG=
201108060650 METAR COR EGLL 060650Z 19007KT 130V270 9999 FEW008 15/12
                        Q1004 NOSIG=
201108060620 METAR COR EGLL 060620Z 21007KT 170V250 9999 FEW007 15/12
                        Q1005 NOSIG=
201108060550 METAR COR EGLL 060550Z 21006KT CAVOK 15/12 Q1005 NOSIG=
201108060520 METAR COR EGLL 060520Z 21006KT 170V260 CAVOK 15/12 Q1005
                        NOSIG=
201108060450 METAR COR EGLL 060450Z 22005KT CAVOK 14/12 Q1005 NOSIG=
201108060420 METAR COR EGLL 060420Z 20007KT 170V230 CAVOK 14/12 Q1006
                        NOSIG=
201108060350 METAR COR EGLL 060350Z 18006KT CAVOK 14/12 Q1006 NOSIG=
201108060320 METAR COR EGLL 060320Z 16004KT CAVOK 14/12 Q1006 NOSIG=
201108060250 METAR COR EGLL 060250Z 18004KT 150V220 CAVOK 15/12 Q1007
                        NOSIG=
201108060220 METAR COR EGLL 060220Z 20006KT CAVOK 15/12 Q1007 NOSIG=
201108060150 METAR COR EGLL 060150Z 20006KT CAVOK 15/12 Q1007 NOSIG=
201108060120 METAR EGLL 060120Z NIL=
201108060050 METAR EGLL 060050Z NIL=
201108060020 METAR EGLL 060020Z NIL=
201108052350 METAR COR EGLL 052350Z 19005KT CAVOK 16/13 Q1008 NOSIG=
201108052320 METAR COR EGLL 052320Z 20005KT CAVOK 16/13 Q1009 NOSIG=
201108052250 METAR COR EGLL 052250Z 22005KT CAVOK 17/13 Q1009 NOSIG=
201108052220 METAR COR EGLL 052220Z 20006KT CAVOK 17/13 Q1009 NOSIG=
201108052150 METAR COR EGLL 052150Z 20007KT 140V250 CAVOK 18/13 Q1010
                        NOSIG=
201108052120 METAR COR EGLL 052120Z 22008KT 190V260 CAVOK 18/12 Q1010
                        NOSIG=
201108052050 METAR EGLL 052050Z 22009KT 190V250 CAVOK 19/12 Q1010=
201108052020 METAR COR EGLL 052020Z 22009KT 180V260 CAVOK 19/11 Q1010
                        NOSIG=
201108051950 METAR COR EGLL 051950Z 23010KT 190V260 CAVOK 19/11 Q1010
                        NOSIG=
201108051920 METAR COR EGLL 051920Z 22010KT CAVOK 20/12 Q1010 NOSIG=
201108051850 METAR COR EGLL 051850Z 22011KT CAVOK 21/14 Q1010 NOSIG=
201108051820 METAR COR EGLL 051820Z 22011KT CAVOK 21/14 Q1010 NOSIG=
201108051750 METAR COR EGLL 051750Z 20011KT 180V240 CAVOK 22/14 Q1010
                        NOSIG=
201108051720 METAR COR EGLL 051720Z 21010KT 180V240 CAVOK 23/14 Q1010
                        NOSIG=
201108051650 METAR COR EGLL 051650Z 24006KT 190V300 CAVOK 24/10 Q1010
                        NOSIG=
201108051620 METAR COR EGLL 051620Z 21005KT 170V250 CAVOK 24/10 Q1010
                        NOSIG=
201108051550 METAR COR EGLL 051550Z VRB05KT CAVOK 25/11 Q1010 NOSIG=
201108051520 METAR COR EGLL 051520Z 18005KT 110V270 CAVOK 25/11 Q1011
                        NOSIG=
201108051450 METAR COR EGLL 051450Z VRB06KT CAVOK 25/11 Q1011 NOSIG=
201108051420 METAR COR EGLL 051420Z 29005KT 210V010 9999 FEW045 24/12
                        Q1011 NOSIG=
201108051350 METAR COR EGLL 051350Z 22006KT 160V310 9999 SCT044 23/13
                        Q1011 NOSIG=
201108051320 METAR COR EGLL 051320Z 19005KT 130V250 9999 SCT044 24/12
                        Q1011 NOSIG=
201108051250 METAR COR EGLL 051250Z 29005KT 220V330 9999 FEW044 23/12
                        Q1012 NOSIG=
201108051220 METAR COR EGLL 051220Z VRB04KT 9999 FEW038 22/14 Q1012 NOSIG=
201108051150 METAR COR EGLL 051150Z 23004KT 180V290 9999 SCT035 21/14
                        Q1012 NOSIG=
201108051120 METAR COR EGLL 051120Z 21007KT 170V250 9999 FEW033 23/14
                        Q1012 NOSIG=
201108051050 METAR COR EGLL 051050Z VRB03KT 9999 FEW024 BKN031 21/13 Q1012
                        NOSIG=
201108051020 METAR COR EGLL 051020Z VRB02KT 9999 BKN024 21/14 Q1012 NOSIG=
201108050950 METAR COR EGLL 050950Z 30005KT 260V340 9999 BKN022 20/14
                        Q1013 NOSIG=
201108050920 METAR COR EGLL 050920Z VRB03KT 9999 SCT018 SCT033 19/14 Q1013
                        NOSIG=
201108050850 METAR COR EGLL 050850Z 30004KT 250V050 9999 BKN015 BKN020
                        19/14 Q1013 NOSIG=
201108050820 METAR COR EGLL 050820Z 29006KT 260V320 9999 SCT014 SCT024
                        BKN030 18/14 Q1012 NOSIG=
201108050750 METAR COR EGLL 050750Z 28006KT 260V320 9999 FEW013 SCT024
                        18/14 Q1012 NOSIG=
201108050720 METAR COR EGLL 050720Z 28007KT 9999 FEW011 SCT026 17/14 Q1012
                        NOSIG=
201108050650 METAR COR EGLL 050650Z 28007KT 9999 FEW011 SCT025 16/14 Q1012
                        NOSIG=
201108050620 METAR COR EGLL 050620Z 25006KT 220V280 9999 FEW020 16/14
                        Q1012 NOSIG=
201108050550 METAR COR EGLL 050550Z 23007KT 200V260 9999 FEW020 15/14
                        Q1012 TEMPO BKN012=
201108050520 METAR COR EGLL 050520Z 22006KT 180V250 CAVOK 15/13 Q1012
                        TEMPO BKN012=
201108050450 METAR COR EGLL 050450Z 21004KT 9999 FEW016 15/13 Q1011 NOSIG=
201108050420 METAR COR EGLL 050420Z 25007KT 9999 FEW012 15/13 Q1011 TEMPO
                        BKN012=
201108050350 METAR COR EGLL 050350Z 22006KT 190V260 9999 BKN013 15/14
                        Q1011 NOSIG=
201108050320 METAR COR EGLL 050320Z 23004KT 9999 BKN014 15/13 Q1011 NOSIG=
201108050250 METAR COR EGLL 050250Z 22005KT CAVOK 15/13 Q1011 NOSIG=
201108050220 METAR COR EGLL 050220Z 25008KT 9999 FEW015 15/13 Q1011 TEMPO
                        BKN014=
201108050150 METAR COR EGLL 050150Z 24009KT 9999 FEW015 15/13 Q1011 NOSIG=
201108050120 METAR EGLL 050120Z AUTO 26009KT 9999NDV NCD 15/13 Q1011=
201108050050 METAR EGLL 050050Z AUTO 25009KT 9999NDV NCD 15/13 Q1011=
201108050020 METAR EGLL 050020Z AUTO 25007KT 9999NDV NCD 15/13 Q1011=
201108042350 METAR COR EGLL 042350Z 26008KT CAVOK 15/13 Q1011 NOSIG=
201108042320 METAR COR EGLL 042320Z 26009KT CAVOK 15/13 Q1011 NOSIG=
201108042250 METAR COR EGLL 042250Z 25009KT CAVOK 16/13 Q1011 NOSIG=
201108042220 METAR COR EGLL 042220Z 25011KT CAVOK 16/13 Q1010 NOSIG=
201108042150 METAR COR EGLL 042150Z 27011KT 9999 FEW044 17/13 Q1010 NOSIG=
201108042120 METAR COR EGLL 042120Z 27014KT 9999 FEW034 18/13 Q1010 NOSIG=
201108042050 METAR COR EGLL 042050Z 26013KT 9999 FEW034 SCT041 18/13 Q1010
                        NOSIG=
201108042020 METAR COR EGLL 042020Z 27012KT 9999 SCT048 19/13 Q1010 NOSIG=
201108041950 METAR COR EGLL 041950Z 26013KT 9999 SCT048 19/13 Q1009 NOSIG=
201108041920 METAR COR EGLL 041920Z 27014KT 9999 BKN045 20/13 Q1009 NOSIG=
201108041850 METAR COR EGLL 041850Z 26014KT 9999 BKN046 20/14 Q1009 NOSIG=
201108041820 METAR COR EGLL 041820Z 26014KT 9999 FEW030 SCT043 20/14 Q1008
                        NOSIG=
201108041750 METAR COR EGLL 041750Z 26017KT 9999 FEW030 21/14 Q1008 NOSIG=
201108041720 METAR COR EGLL 041720Z 26012KT 9999 FEW022 SCT030 21/16 Q1008
                        NOSIG=
201108041650 METAR COR EGLL 041650Z 26014G26KT 9999 FEW016 SCT023 21/16
                        Q1008 NOSIG=
201108041620 METAR COR EGLL 041620Z 26012KT 9999 FEW015 SCT030 20/18 Q1008
                        NOSIG=
201108041550 METAR COR EGLL 041550Z 26014KT 9999 FEW015 SCT030 20/17 Q1007
                        NOSIG=
201108041520 METAR COR EGLL 041520Z 23012KT 9999 VCSH SCT015CB BKN028
                        21/18 Q1007 TEMPO SHRA BKN012=
201108041450 METAR COR EGLL 041450Z 23011KT 9999 FEW008 BKN010 20/18 Q1007
                        BECMG BKN015=
201108041420 METAR COR EGLL 041420Z 22011KT 9999 FEW008 BKN010 20/18 Q1007
                        BECMG BKN015=
201108041350 METAR COR EGLL 041350Z 21009KT 9999 SCT010 BKN013 20/18 Q1007
                        BECMG BKN015=
201108041320 METAR COR EGLL 041320Z 20010KT 160V220 9999 FEW008 BKN010
                        20/18 Q1007 BECMG BKN015=
201108041250 METAR COR EGLL 041250Z 18011KT 9999 FEW006 BKN008 20/18 Q1007
                        BECMG BKN013=
201108041220 METAR COR EGLL 041220Z 18011KT 9999 SCT006 BKN011 19/18 Q1008
                        BECMG BKN015=
201108041150 METAR COR EGLL 041150Z 17009KT 8000 -RA FEW004 BKN007 19/18
                        Q1008 RERA NOSIG=
201108041120 METAR COR EGLL 041120Z 16010KT 5000 RA SCT005 BKN006 19/18
                        Q1008 BECMG -RA=
201108041050 METAR COR EGLL 041050Z 15009KT 120V180 6000 RA SCT006 BKN011
                        19/18 Q1009 TEMPO 4000 BKN006=
201108041020 METAR COR EGLL 041020Z 17009KT 9000 -RA FEW006 BKN008 19/18
                        Q1009 RERA TEMPO 4000 RA=
201108040950 METAR COR EGLL 040950Z 16009KT 130V190 9999 RA FEW004 BKN006
                        18/17 Q1010 TEMPO 4000=
201108040920 METAR COR EGLL 040920Z 17009KT 130V200 8000 RA FEW004 BKN005
                        18/17 Q1010 TEMPO 4000=
201108040850 METAR COR EGLL 040850Z 16008KT 140V200 7000 RA SCT006 BKN008
                        18/17 Q1010 TEMPO 4000=
201108040820 METAR COR EGLL 040820Z 16007KT 6000 -RA SCT005 BKN007 18/17
                        Q1010 TEMPO 4000 RA=
201108040750 METAR COR EGLL 040750Z 16008KT 080V180 5000 -RA SCT005 BKN010
                        18/17 Q1011 TEMPO 4000 RA BKN005=
201108040720 METAR COR EGLL 040720Z 16010KT 120V190 8000 SCT006 BKN010
                        18/16 Q1011 NOSIG=
201108040650 METAR COR EGLL 040650Z 17009KT 140V200 9000 -RA FEW005 SCT006
                        BKN009 17/16 Q1011 TEMPO 4000 RA
                        BKN006=
201108040620 METAR COR EGLL 040620Z 16009KT 6000 -RA FEW005 BKN009 17/16
                        Q1011 TEMPO 4000 RA SCT008 BKN013=
201108040550 METAR COR EGLL 040550Z 17008KT 5000 RA FEW005 BKN007 17/16
                        Q1012 TEMPO 4000 SCT007 BKN012=
201108040520 METAR COR EGLL 040520Z 18009KT 160V230 9999 -RA SCT008 SCT022
                        BKN024 17/16 Q1012 BECMG RA BKN007=
201108040450 METAR EGLL 040450Z 18008KT 140V230 9999 -RA SCT010 SCT026
                        17/16 Q1012=
201108040420 METAR EGLL 040420Z 18008KT 9999 -RA FEW012 SCT040 17/16 Q1012
                        RERA=
201108040350 METAR COR EGLL 040350Z 20008KT 160V220 8000 RA SCT009 SCT016
                        17/16 Q1012 TEMPO BKN007=
201108040320 METAR COR EGLL 040320Z 20010KT 9999 OVC008 18/16 Q1013 BECMG
                        RA=
201108040250 METAR COR EGLL 040250Z 21006KT 9999 BKN010 18/15 Q1013 NOSIG=
201108040220 METAR COR EGLL 040220Z 21008KT 9999 BKN011 17/15 Q1013 BECMG
                        7000 RA=
201108040150 METAR COR EGLL 040150Z 21006KT CAVOK 17/14 Q1013 NOSIG=
201108040120 METAR EGLL 040120Z AUTO 20006KT 9999NDV NCD 17/14 Q1014=
201108040050 METAR EGLL 040050Z AUTO 21005KT 9999NDV NCD 17/13 Q1014=
201108040020 METAR EGLL 040020Z AUTO 21005KT 9999NDV NCD 17/13 Q1014=
201108032350 METAR COR EGLL 032350Z 21005KT CAVOK 17/13 Q1015 NOSIG=
201108032320 METAR COR EGLL 032320Z 22007KT CAVOK 17/13 Q1015 NOSIG=
201108032250 METAR COR EGLL 032250Z 21007KT CAVOK 17/12 Q1015 NOSIG=
201108032220 METAR COR EGLL 032220Z 22006KT CAVOK 18/12 Q1015 NOSIG=
201108032150 METAR COR EGLL 032150Z 23009KT 190V260 CAVOK 18/12 Q1015
                        NOSIG=
201108032120 METAR COR EGLL 032120Z 23010KT CAVOK 19/12 Q1015 NOSIG=
201108032050 METAR EGLL 032050Z 22011G21KT CAVOK 19/12 Q1015=
201108032020 METAR COR EGLL 032020Z 23011KT CAVOK 21/13 Q1014 NOSIG=
201108031950 METAR COR EGLL 031950Z 22010KT 180V250 9999 FEW050CB 22/14
                        Q1014 NOSIG=
201108031920 METAR COR EGLL 031920Z 21010KT 180V250 9999 FEW050CB 23/14
                        Q1014 NOSIG=
201108031850 METAR COR EGLL 031850Z 22012KT 190V250 9999 FEW050CB 25/13
                        Q1014 NOSIG=
201108031820 METAR COR EGLL 031820Z 22011KT 9999 FEW050CB 25/12 Q1014
                        NOSIG=
201108031750 METAR COR EGLL 031750Z 22013KT 190V250 9999 FEW050CB 26/11
                        Q1013 NOSIG=
201108031720 METAR COR EGLL 031720Z 23014KT CAVOK 27/12 Q1013 NOSIG=
201108031650 METAR COR EGLL 031650Z 22013KT 190V260 CAVOK 28/11 Q1013
                        NOSIG=
201108031620 METAR COR EGLL 031620Z 23013KT CAVOK 28/11 Q1013 NOSIG=
201108031550 METAR COR EGLL 031550Z 23012KT 180V260 CAVOK 29/12 Q1013
                        NOSIG=
201108031520 METAR COR EGLL 031520Z 23009KT 190V280 CAVOK 28/13 Q1014
                        NOSIG=
201108031450 METAR COR EGLL 031450Z 22010KT 170V260 CAVOK 29/13 Q1014
                        NOSIG=
201108031420 METAR COR EGLL 031420Z 21010KT 170V250 CAVOK 29/12 Q1014
                        NOSIG=
201108031350 METAR COR EGLL 031350Z 21007KT 170V260 CAVOK 29/12 Q1014
                        NOSIG=
201108031320 METAR COR EGLL 031320Z 21007KT 170V260 CAVOK 29/12 Q1014
                        NOSIG=
201108031250 METAR COR EGLL 031250Z 24005KT 170V320 CAVOK 29/13 Q1014
                        NOSIG=
201108031220 METAR COR EGLL 031220Z 24006KT 210V280 CAVOK 28/12 Q1014
                        NOSIG=
201108031150 METAR COR EGLL 031150Z 26004KT 200V320 CAVOK 28/12 Q1014
                        NOSIG=
201108031120 METAR COR EGLL 031120Z 21004KT 130V300 CAVOK 27/13 Q1014
                        NOSIG=
201108031050 METAR COR EGLL 031050Z 19005KT 110V250 CAVOK 27/13 Q1014
                        NOSIG=
201108031020 METAR COR EGLL 031020Z 17005KT 120V240 CAVOK 26/14 Q1014
                        NOSIG=
201108030950 METAR COR EGLL 030950Z 19004KT 150V220 CAVOK 25/14 Q1014
                        NOSIG=
201108030920 METAR COR EGLL 030920Z 16004KT 120V220 CAVOK 24/14 Q1015
                        NOSIG=
201108030850 METAR COR EGLL 030850Z 14005KT 110V200 CAVOK 23/14 Q1015
                        NOSIG=
201108030820 METAR COR EGLL 030820Z VRB03KT CAVOK 22/15 Q1015 NOSIG=
201108030750 METAR COR EGLL 030750Z VRB02KT CAVOK 20/16 Q1015 NOSIG=
201108030720 METAR COR EGLL 030720Z 00000KT CAVOK 19/15 Q1015 NOSIG=
201108030650 METAR COR EGLL 030650Z VRB03KT CAVOK 18/15 Q1015 NOSIG=
201108030620 METAR COR EGLL 030620Z VRB02KT CAVOK 18/15 Q1014 NOSIG=
201108030550 METAR COR EGLL 030550Z VRB03KT CAVOK 18/14 Q1014 NOSIG=
201108030520 METAR COR EGLL 030520Z 16004KT 100V200 CAVOK 17/14 Q1014
                        NOSIG=
201108030450 METAR COR EGLL 030450Z VRB02KT CAVOK 16/14 Q1014 NOSIG=
201108030420 METAR COR EGLL 030420Z VRB02KT CAVOK 17/14 Q1014 NOSIG=
201108030350 METAR COR EGLL 030350Z 28004KT CAVOK 16/14 Q1014 NOSIG=
201108030320 METAR COR EGLL 030320Z 25004KT CAVOK 17/14 Q1014 NOSIG=
201108030250 METAR COR EGLL 030250Z 18003KT CAVOK 17/14 Q1014 NOSIG=
201108030220 METAR COR EGLL 030220Z 17003KT CAVOK 17/13 Q1014 NOSIG=
201108030150 METAR EGLL 030150Z 19004KT CAVOK 18/13 Q1014=
201108030120 METAR EGLL 030120Z AUTO 21003KT 9999NDV NCD 18/13 Q1014=
201108030050 METAR EGLL 030050Z AUTO 21003KT 9999NDV NCD 19/13 Q1014=
201108030020 METAR EGLL 030020Z AUTO 19002KT 9999NDV NCD 20/12 Q1014=
201108022350 METAR COR EGLL 022350Z VRB03KT CAVOK 20/12 Q1015 NOSIG=
201108022320 METAR COR EGLL 022320Z 16004KT CAVOK 21/12 Q1015 NOSIG=
201108022250 METAR COR EGLL 022250Z 13005KT 100V170 CAVOK 21/12 Q1014
                        NOSIG=
201108022220 METAR COR EGLL 022220Z 19004KT 170V260 CAVOK 22/12 Q1015
                        NOSIG=
201108022150 METAR COR EGLL 022150Z 22004KT 150V280 9999 FEW043 22/11
                        Q1015 NOSIG=
201108022120 METAR EGLL 022120Z 32004KT 280V360 9999 FEW043 22/12 Q1015=
201108022050 METAR COR EGLL 022050Z 20008KT 160V240 9999 FEW035CB 23/14
                        Q1014 NOSIG=
201108022020 METAR COR EGLL 022020Z 20010KT 170V240 9999 FEW035CB 24/14
                        Q1014 NOSIG=
201108021950 METAR COR EGLL 021950Z 19009KT 160V240 CAVOK 25/15 Q1014
                        NOSIG=
201108021920 METAR COR EGLL 021920Z 21007KT 180V250 CAVOK 25/15 Q1014
                        NOSIG=
201108021850 METAR COR EGLL 021850Z 21008KT 160V260 CAVOK 26/14 Q1013
                        NOSIG=
201108021820 METAR COR EGLL 021820Z 21007KT 160V260 CAVOK 26/14 Q1013
                        NOSIG=
201108021750 METAR COR EGLL 021750Z 21006KT 140V260 9999 FEW049 27/14
                        Q1013 NOSIG=
201108021720 METAR COR EGLL 021720Z 20005KT 120V280 9999 FEW040CB 27/15
                        Q1013 NOSIG=
201108021650 METAR COR EGLL 021650Z 22007KT 140V280 CAVOK 27/15 Q1013
                        NOSIG=
201108021620 METAR COR EGLL 021620Z 20007KT 140V240 9999 FEW048 27/14
                        Q1013 NOSIG=
201108021550 METAR COR EGLL 021550Z 21007KT 140V250 9999 FEW048 27/14
                        Q1013 NOSIG=
201108021520 METAR COR EGLL 021520Z 17006KT 120V250 9999 FEW049 28/14
                        Q1013 NOSIG=
201108021450 METAR COR EGLL 021450Z VRB04KT CAVOK 27/14 Q1013 NOSIG=
201108021420 METAR COR EGLL 021420Z VRB04KT 9999 FEW044 28/14 Q1013 NOSIG=
201108021350 METAR COR EGLL 021350Z VRB03KT 9999 FEW044 28/15 Q1013 NOSIG=
201108021320 METAR COR EGLL 021320Z VRB04KT CAVOK 27/15 Q1013 NOSIG=
201108021250 METAR COR EGLL 021250Z VRB06KT CAVOK 26/15 Q1014 NOSIG=
201108021220 METAR COR EGLL 021220Z 18004KT 140V240 CAVOK 25/15 Q1014
                        NOSIG=
201108021150 METAR COR EGLL 021150Z VRB04KT CAVOK 26/15 Q1014 NOSIG=
201108021120 METAR COR EGLL 021120Z 18004KT 130V260 CAVOK 25/15 Q1014
                        NOSIG=
201108021050 METAR COR EGLL 021050Z VRB05G16KT 9999 FEW040 25/15 Q1014
                        NOSIG=
201108021020 METAR COR EGLL 021020Z VRB02KT 9999 FEW036 24/15 Q1014 NOSIG=
201108020950 METAR COR EGLL 020950Z VRB02KT CAVOK 23/14 Q1014 NOSIG=
201108020920 METAR COR EGLL 020920Z VRB03KT CAVOK 23/14 Q1014 NOSIG=
201108020850 METAR COR EGLL 020850Z VRB03KT CAVOK 22/15 Q1014 NOSIG=
201108020820 METAR COR EGLL 020820Z VRB03KT CAVOK 21/15 Q1014 NOSIG=
201108020750 METAR COR EGLL 020750Z VRB03KT CAVOK 21/16 Q1014 NOSIG=
201108020720 METAR COR EGLL 020720Z 14005KT 110V180 CAVOK 20/15 Q1014
                        NOSIG=
201108020650 METAR COR EGLL 020650Z 14004KT 100V190 CAVOK 19/15 Q1014
                        NOSIG=
201108020620 METAR COR EGLL 020620Z 15005KT 100V180 CAVOK 18/15 Q1014
                        TEMPO SHRA=
201108020550 METAR COR EGLL 020550Z VRB03KT CAVOK 18/15 Q1014 NOSIG=
201108020520 METAR COR EGLL 020520Z VRB03KT CAVOK 18/15 Q1013 NOSIG=
201108020450 METAR COR EGLL 020450Z 25004KT 220V280 CAVOK 18/15 Q1014
                        NOSIG=
201108020420 METAR COR EGLL 020420Z VRB03KT CAVOK 18/14 Q1013 NOSIG=
201108020350 METAR COR EGLL 020350Z 23004KT CAVOK 17/14 Q1014 NOSIG=
201108020320 METAR COR EGLL 020320Z 26003KT CAVOK 17/14 Q1014 NOSIG=
201108020250 METAR COR EGLL 020250Z 00000KT CAVOK 17/14 Q1013 NOSIG=
201108020220 METAR EGLL 020220Z VRB02KT CAVOK 18/14 Q1013=
201108020150 METAR COR EGLL 020150Z VRB02KT CAVOK 18/14 Q1013 NOSIG=
201108020120 METAR EGLL 020120Z AUTO 20003KT 9999NDV NCD 18/14 Q1013=
201108020050 METAR EGLL 020050Z AUTO 20003KT 9999NDV NCD 18/14 Q1013=
201108020020 METAR EGLL 020020Z AUTO VRB03KT 9999NDV NCD 17/13 Q1013=
201108012350 METAR COR EGLL 012350Z VRB02KT CAVOK 18/13 Q1013 NOSIG=
201108012320 METAR COR EGLL 012320Z 15003KT CAVOK 18/13 Q1013 NOSIG=
201108012250 METAR COR EGLL 012250Z 14002KT CAVOK 18/13 Q1013 NOSIG=
201108012220 METAR COR EGLL 012220Z 20004KT CAVOK 18/13 Q1013 NOSIG=
201108012150 METAR COR EGLL 012150Z 20005KT CAVOK 19/13 Q1013 NOSIG=
201108012120 METAR COR EGLL 012120Z 20008KT CAVOK 19/12 Q1013 NOSIG=
201108012050 METAR COR EGLL 012050Z 19009KT CAVOK 21/11 Q1013 NOSIG=
201108012020 METAR COR EGLL 012020Z 19009KT CAVOK 22/10 Q1013 NOSIG=
201108011950 METAR COR EGLL 011950Z 18009KT CAVOK 23/10 Q1013 NOSIG=
201108011920 METAR COR EGLL 011920Z 19008KT CAVOK 23/10 Q1012 NOSIG=
201108011850 METAR COR EGLL 011850Z 18009KT CAVOK 24/10 Q1012 NOSIG=
201108011820 METAR COR EGLL 011820Z 19010KT CAVOK 25/10 Q1012 NOSIG=
201108011750 METAR COR EGLL 011750Z 17010KT CAVOK 26/09 Q1012 NOSIG=
201108011720 METAR COR EGLL 011720Z 16009KT CAVOK 26/08 Q1012 NOSIG=
201108011650 METAR COR EGLL 011650Z 20011KT CAVOK 27/08 Q1012 NOSIG=
201108011620 METAR COR EGLL 011620Z 19010KT CAVOK 27/07 Q1012 NOSIG=
201108011550 METAR COR EGLL 011550Z 17012KT CAVOK 27/09 Q1012 NOSIG=
201108011520 METAR COR EGLL 011520Z 16012KT 130V200 CAVOK 28/10 Q1012
                        NOSIG=
201108011450 METAR COR EGLL 011450Z 18011KT CAVOK 28/12 Q1012 NOSIG=
201108011420 METAR COR EGLL 011420Z 17012KT CAVOK 28/12 Q1012 NOSIG=
201108011350 METAR COR EGLL 011350Z 18012KT CAVOK 27/12 Q1012 NOSIG=
201108011320 METAR COR EGLL 011320Z 15013KT CAVOK 28/12 Q1012 NOSIG=
201108011250 METAR COR EGLL 011250Z 17012KT 140V200 CAVOK 28/12 Q1012
                        NOSIG=
201108011220 METAR COR EGLL 011220Z 18010KT CAVOK 28/12 Q1012 NOSIG=
201108011150 METAR COR EGLL 011150Z 15010KT CAVOK 27/12 Q1012 NOSIG=
201108011120 METAR COR EGLL 011120Z 17011KT 130V190 CAVOK 27/12 Q1013
                        NOSIG=
201108011050 METAR COR EGLL 011050Z 15009KT 120V190 CAVOK 25/12 Q1013
                        NOSIG=
201108011020 METAR COR EGLL 011020Z 12006KT 080V200 CAVOK 25/12 Q1013
                        NOSIG=
201108010950 METAR COR EGLL 010950Z 14005KT 090V190 CAVOK 24/12 Q1013
                        NOSIG=
201108010920 METAR COR EGLL 010920Z 11004KT 050V170 CAVOK 22/12 Q1013
                        NOSIG=
201108010850 METAR COR EGLL 010850Z VRB04KT CAVOK 21/12 Q1013 NOSIG=
201108010820 METAR COR EGLL 010820Z VRB03KT CAVOK 21/12 Q1013 NOSIG=
201108010750 METAR COR EGLL 010750Z 13004KT 090V190 CAVOK 21/12 Q1013
                        NOSIG=
201108010720 METAR COR EGLL 010720Z 10004KT 070V150 CAVOK 19/11 Q1013
                        NOSIG=
201108010650 METAR COR EGLL 010650Z 09003KT CAVOK 19/11 Q1013 NOSIG=
201108010620 METAR COR EGLL 010620Z 09003KT CAVOK 18/10 Q1013 NOSIG=
201108010550 METAR COR EGLL 010550Z 10004KT CAVOK 17/10 Q1013 NOSIG=
201108010520 METAR COR EGLL 010520Z 09004KT CAVOK 16/10 Q1013 NOSIG=
201108010450 METAR COR EGLL 010450Z 08003KT CAVOK 16/09 Q1013 NOSIG=
201108010420 METAR COR EGLL 010420Z 09004KT CAVOK 17/09 Q1014 NOSIG=
201108010350 METAR COR EGLL 010350Z 10003KT CAVOK 17/09 Q1014 NOSIG=
201108010320 METAR COR EGLL 010320Z 09003KT CAVOK 17/09 Q1014 NOSIG=
201108010250 METAR COR EGLL 010250Z 13004KT CAVOK 17/09 Q1014 NOSIG=
201108010220 METAR COR EGLL 010220Z 14003KT CAVOK 17/09 Q1014 NOSIG=
201108010150 METAR COR EGLL 010150Z 15004KT CAVOK 17/09 Q1014 NOSIG=
201108010120 METAR EGLL 010120Z AUTO 14003KT 9999NDV NCD 17/09 Q1014=
201108010050 METAR EGLL 010050Z AUTO 16004KT 9999NDV NCD 17/08 Q1014=
201108010020 METAR EGLL 010020Z AUTO 17003KT 9999NDV NCD 17/09 Q1014=

# No short TAF reports from EGLL in databse.

###################################
#  large TAF from EGLL
###################################
201108312256 TAF EGLL 312256Z 0100/0206 10006KT 9999 SCT045
                      PROB30 0102/0107 8000=
201108311704 TAF EGLL 311704Z 3118/0124 04004KT 9999 SCT045
                      BECMG 0108/0111 10010KT=
201108311102 TAF EGLL 311102Z 3112/0118 04004KT 9999 FEW030 BKN045
                      TEMPO 3102/0118 CAVOK
                      BECMG 0108/0111 10010KT=
201108310453 TAF EGLL 310453Z 3106/0112 01004KT 9999 FEW030 BKN045
                      TEMPO 3109/0112 CAVOK
                      PROB30 0103/0107 9000
                      BECMG 0108/0111 09010KT=
201108302258 TAF EGLL 302258Z 3100/0106 VRB04KT 9999 FEW025 BKN042
                      PROB30 3104/3107 9000
                      PROB30 0102/0108 8000=
201108301658 TAF EGLL 301658Z 3018/3124 30005KT 9999 SCT045
                      PROB30 3102/3107 9000=
201108301058 TAF EGLL 301058Z 3012/3118 30006KT 9999 SCT045
                      PROB30 3102/3107 8000=
201108300457 TAF EGLL 300457Z 3006/3112 29005KT 9999 SCT045=
201108292258 TAF EGLL 292258Z 3000/3106 28007KT 9999 SCT045
                      PROB30 3103/3106 8000=
201108291712 TAF EGLL 291712Z 2918/3024 27007KT 9999 SCT045
                      PROB30 TEMPO 3001/3008 BKN010=
201108291700 TAF EGLL 291700Z NIL=
201108291100 TAF EGLL 291100Z 2912/3018 30011KT 9999 SCT040
                      PROB30 TEMPO 3001/3007 BKN010=
201108290500 TAF EGLL 290500Z 2906/3012 24005KT 9999 FEW040
                      BECMG 2906/2909 30010KT=
201108282256 TAF EGLL 282256Z 2900/3006 24008KT 9999 FEW040
                      BECMG 2907/2910 30010KT=
201108281702 TAF EGLL 281702Z 2818/2924 27010KT 9999 FEW035=
201108281102 TAF EGLL 281102Z 2812/2918 27010KT 9999 FEW020 SCT035
                      TEMPO 2812/2818 6000 SHRA=
201108280457 TAF EGLL 280457Z 2806/2912 24008KT 9999 FEW040
                      TEMPO 2806/2819 6000 SHRA=
201108272256 TAF EGLL 272256Z 2800/2906 26008KT 9999 FEW040
                      PROB40 TEMPO 2809/2818 6000 SHRA=
201108271658 TAF EGLL 271658Z 2718/2824 26010KT 9999 FEW045
                      TEMPO 2810/2818 5000 SHRA=
201108271104 TAF EGLL 271104Z 2712/2818 27010KT 9999 SCT035
                      TEMPO 2712/2719 7000 SHRA
                      PROB40 TEMPO 2712/2715 3000 +SHRA TSRA
                      TEMPO 2809/2818 7000 SHRA=
201108270457 TAF EGLL 270457Z 2706/2812 27010KT 6000 SCT030
                      BECMG 2706/2709 9999
                      PROB40 TEMPO 2710/2718 7000 SHRA
                      PROB30 TEMPO 2810/2812 7000 SHRA=
201108270454 TAF AMD EGLL 270454Z 2704/2806 29009KT 4000 BR SCT025
                      BECMG 2704/2707 9999 NSW
                      PROB40 TEMPO 2710/2720 7000 SHRA=
201108262354 TAF AMD EGLL 262354Z 2700/2806 29009KT 9999 SCT025
                      TEMPO 2700/2702 7000 SHRA BKN004
                      PROB40 2702/2706 5000 BR BKN004
                      PROB40 TEMPO 2710/2720 7000 SHRA=
201108262303 TAF EGLL 262303Z 2700/2806 29009KT 9999 SCT025
                      TEMPO 2700/2702 7000 SHRA BKN005
                      PROB40 2702/2706 5000 BR BKN005
                      PROB40 TEMPO 2710/2720 7000 SHRA=
201108262300 TAF AMD EGLL 270454Z 2704/2806 29009KT 4000 BR SCT025
                      BECMG 2704/2707 9999 NSW
                      PROB40 TEMPO 2710/2720 7000 SHRA=
201108261659 TAF EGLL 261659Z 2618/2724 24007KT 9999 SCT025
                      TEMPO 2618/2624 8000 SHRA BKN014
                      PROB30 TEMPO 2618/2622 4000 +SHRA +TSRA
                      PROB40 TEMPO 2700/2708 8000 BKN008
                      BECMG 2703/2706 30010KT
                      TEMPO 2709/2720 7000 SHRA=
201108261604 TAF AMD EGLL 261604Z 2616/2718 26007KT 9999 SCT010 BKN020
                      TEMPO 2616/2622 8000 SHRA
                      PROB40 TEMPO 2616/2621 3000 +SHRA +TSRA BKN014
                       BKN025CB
                      PROB40 2701/2708 8000
                      PROB40 TEMPO 2710/2718 7000 SHRA=
201108261057 TAF EGLL 261057Z 2612/2718 26007KT 9999 SCT010 BKN020
                      PROB40 TEMPO 2612/2613 4000 +RA BKN008
                      TEMPO 2613/2622 8000 SHRA
                      PROB30 TEMPO 2614/2621 4000 +SHRA BKN014
                       BKN025CB
                      PROB40 2701/2708 8000
                      PROB40 TEMPO 2710/2718 7000 SHRA=
201108260500 TAF EGLL 260500Z 2606/2712 02005KT 9999 SCT007 BKN025
                      TEMPO 2606/2614 6000 RA BKN013
                      PROB40 TEMPO 2606/2611 3500 RADZ BR SCT004
                       BKN007
                      BECMG 2613/2616 28010KT
                      PROB40 TEMPO 2614/2621 7000 SHRA BKN014 BKN025CB
                       PROB40
                      TEMPO 2709/2712 28015G25KT 5000 +TSRA SHRA=
201108260154 TAF AMD EGLL 260154Z 2601/2706 08005KT 9999 -RA FEW010 SCT045
                      TEMPO 2601/2613 6000 RA BKN013
                      PROB40 TEMPO 2603/2610 3500 RADZ SCT004 BKN007
                       BECMG 2610/2613 BKN007
                      BECMG 2613/2616 28010KT NSW FEW012 SCT020
                       PROB30
                      TEMPO 2613/2621 7000 SHRA BKN014=
201108252304 TAF EGLL 252304Z 2600/2706 08005KT 9999 FEW010 SCT045
                      TEMPO 2600/2613 6000 -RA BKN013
                      PROB40 TEMPO 2603/2610 3500 RADZ SCT004 BKN007
                       BECMG 2610/2613 BKN007
                      BECMG 2613/2616 28010KT FEW012 SCT020
                      PROB30 TEMPO 2613/2621 7000 SHRA BKN014=
201108252300 TAF AMD EGLL 260154Z 2601/2706 08005KT 9999 -RA FEW010 SCT045
                      TEMPO 2601/2613 6000 RA BKN013
                      PROB40 TEMPO 2603/2610 3500 RADZ SCT004 BKN007
                       BECMG 2610/2613 BKN007
                      BECMG 2613/2616 28010KT NSW FEW012 SCT020
                       PROB30
                      TEMPO 2613/2621 7000 SHRA BKN014=
201108251703 TAF EGLL 251703Z 2518/2624 20012KT 9999 SCT040
                      BECMG 2520/2523 VRB04KT
                      TEMPO 2522/2612 7000 RA BKN014
                      PROB40 TEMPO 2603/2610 4000 +RA BKN008
                      BECMG 2608/2611 30010KT
                      PROB30 TEMPO 2613/2619 7000 SHRA
                      BECMG 2618/2621 24008KT=
201108251104 TAF EGLL 251104Z 2512/2618 VRB04KT 9999 SCT030
                      BECMG 2512/2515 20010KT
                      BECMG 2521/2524 VRB05KT
                      TEMPO 2521/2611 7000 RA BKN014
                      PROB40 TEMPO 2603/2610 4000 +RA BKN008
                      BECMG 2606/2609 34012KT
                      PROB30 TEMPO 2611/2618 7000 SHRA
                      BECMG 2615/2618 25010KT=
201108251005 TAF AMD EGLL 251005Z 2508/2612 VRB05KT 9999 SCT030
                      BECMG 2510/2513 20010KT
                      TEMPO 2510/2511 7000 RA
                      PROB30 TEMPO 2510/2511 4000 +SHRA TSRA BKN012
                       BKN020CB
                      BECMG 2520/2523 10005KT
                      TEMPO 2521/2612 7000 RA BKN014
                      PROB30 TEMPO 2600/2610 4000 +RA BKN008=
201108250858 TAF AMD EGLL 250858Z 2508/2612 20010KT 9999 SCT030
                      TEMPO 2508/2511 7000 RA
                      PROB30 TEMPO 2508/2511 4000 +SHRA TSRA BKN012
                       BKN020CB
                      BECMG 2520/2523 10005KT
                      TEMPO 2521/2612 7000 RA BKN014
                      PROB30 TEMPO 2600/2610 4000 +RA BKN008=
201108250503 TAF EGLL 250503Z 2506/2612 14005KT 9999 SCT030
                      TEMPO 2506/2511 7000 RA
                      PROB30 TEMPO 2506/2510 4000 +SHRA BKN012
                       BKN020CB
                      BECMG 2508/2511 20012KT
                      BECMG 2520/2523 10005KT
                      TEMPO 2521/2612 7000 RA BKN014
                      PROB30 TEMPO 2600/2610 4000 +RA BKN008=
201108242259 TAF EGLL 242259Z 2500/2606 14005KT 9999 SCT030
                      TEMPO 2505/2511 7000 RA
                      BECMG 2506/2509 20010KT
                      PROB30 TEMPO 2506/2510 21015G25KT 4000 +TSRA
                       BKN012 BKN020CB
                      BECMG 2520/2523 10005KT
                      PROB40 TEMPO 2600/2606 7000 RA BKN014=
201108241703 TAF EGLL 241703Z 2418/2524 22012KT 9999 SCT030
                      BECMG 2421/2424 16008KT
                      TEMPO 2506/2514 6000 SHRA RA BKN012
                      PROB30 TEMPO 2509/2513 4000 +TSRA BKN009
                       BKN020CB
                      BECMG 2512/2515 22010KT
                      BECMG 2521/2524 VRB05KT=
201108241608 TAF COR EGLL 241608Z 2416/2518 23010KT 9999 SCT030
                      BECMG 2421/2424 16008KT
                      TEMPO 2505/2514 6000 SHRA RA BKN012
                      PROB30 TEMPO 2509/2513 4000 +TSRA BKN009
                       BKN020CB
                      BECMG 2512/2515 22012KT=
201108241100 TAF EGLL 241100Z 2412/2518 23010KT 9999 SCT030
                      BECMG 2421/2424 16008KT
                      TEMPO 2505/2514 6000 SHRA RA BKN012
                      PROB30 TEMPO 2509/2513 4000 +TSRA BKN009
                       BKN020CB 2512/2515 22012KT=
201108240655 TAF AMD EGLL 240655Z 2406/2512 23007KT 6000 BKN015
                      PROB40 TEMPO 2406/2408 4500 RA BR BKN007
                       BECMG 2407/2410 9999
                      BECMG 2421/2424 17010KT
                      TEMPO 2505/2512 6000 SHRA BKN010
                      PROB30 TEMPO 2506/2512 4000 +SHRA BKN007=
201108240501 TAF EGLL 240501Z 2406/2512 23007KT 6000 SCT006 BKN010
                      PROB40 TEMPO 2406/2408 4500 RA BR BKN007
                       BECMG 2407/2410 9999 SCT025
                      BECMG 2421/2424 17010KT
                      TEMPO 2505/2512 6000 SHRA BKN010
                      PROB30 TEMPO 2506/2512 4000 +SHRA BKN007=
201108232302 TAF EGLL 232302Z 2400/2506 22005KT 6000 SCT006 BKN015
                      TEMPO 2400/2409 BKN006
                      PROB30 TEMPO 2400/2407 3500 BR BKN004
                      BECMG 2406/2409 9999
                      BECMG 2421/2424 16010KT
                      TEMPO 2503/2506 5000 SHRA=
201108232058 TAF AMD EGLL 232058Z 2321/2424 31005KT 6000 SCT005 BKN012
                      TEMPO 2321/2406 3500 BR BKN005
                      BECMG 2406/2409 9999 NSW SCT018
                      BECMG 2409/2412 24010KT
                      BECMG 2421/2424 15007KT=
201108231713 TAF EGLL 231713Z 2318/2424 31005KT 9000 SCT006 BKN012
                      TEMPO 2318/2406 9999 BKN006
                      BECMG 2406/2409 9999 NSW SCT018
                      BECMG 2409/2412 24010KT
                      BECMG 2421/2424 15007KT=
201108231700 TAF EGLL 231700Z NIL=
201108231538 TAF AMD EGLL 231538Z 2315/2418 33005KT 4000 -DZ HZ SCT006 BKN015
                       BECMG 2315/2318 5000
                      TEMPO 2315/2406 BKN007
                      BECMG 2406/2409 9999 NSW SCT018
                      BECMG 2409/2412 24010KT=
201108231156 TAF AMD EGLL 231156Z 2312/2418 01007KT 5000 HZ -RADZ SCT004 BKN007
                       TEMPO 2312/2315 4000 BKN004
                      BECMG 2316/2319 SCT008 BKN013
                      PROB40 2319/2321 SCT012 BKN017
                      BECMG 2321/2324 SCT015 BKN025
                      PROB40 TEMPO 2404/2408 BKN008=
201108231103 TAF EGLL 231103Z 2312/2418 01007KT 5000 HZ -RADZ SCT004 BKN007
                       TEMPO 2312/2315 4000
                      BECMG 2316/2319 SCT008 BKN013
                      PROB40 2319/2321 SCT012 BKN017
                      BECMG 2321/2324 SCT015 BKN025
                      PROB40 TEMPO 2404/2408 BKN008=
201108230503 TAF EGLL 230503Z 2306/2412 05010KT 9999 SCT040
                      PROB30 TEMPO 2306/2309 3000 +SHRA +TSRA BKN012CB
                       BECMG 2307/2310 6000 -RADZ BKN010
                      PROB40 TEMPO 2307/2315 4000 RADZ BKN005
                      BECMG 2312/2315 35006KT
                      BECMG 2315/2318 9999 NSW
                      BECMG 2318/2321 BKN020
                      BECMG 2321/2324 25010KT
                      PROB30 TEMPO 2321/2412 7000 -RA SHRA BKN014=
201108222301 TAF EGLL 222301Z 2300/2406 08008KT 9999 FEW025
                      TEMPO 2300/2307 7000 SHRA TSRA
                      PROB40 TEMPO 2301/2307 3000 +SHRA +TSRA SCT005
                       BKN012CB
                      BECMG 2307/2310 6000 -RADZ BKN010
                      TEMPO 2307/2313 4000 RADZ BKN005
                      BECMG 2310/2313 35010KT
                      BECMG 2314/2317 9999 NSW
                      BECMG 2320/2323 25007KT SCT025=
201108221659 TAF EGLL 221659Z 2218/2324 07008KT 9999 FEW040
                      TEMPO 2301/2309 7000 SHRA TSRA
                      PROB30 TEMPO 2302/2308 3000 +SHRA +TSRA
                      BECMG 2304/2307 6000 -RADZ SCT007 BKN012
                       TEMPO 2306/2313 4000 SCT004 BKN006
                      BECMG 2309/2312 36010KT
                      BECMG 2314/2317 29008KT 9999 NSW
                      PROB40 2315/2320 SCT012 BKN016
                      TEMPO 2321/2324 8000 BKN009=
201108221115 TAF EGLL 221115Z 2212/2318 07005KT CAVOK
                      TEMPO 2301/2308 7000 SHRA TSRA
                      PROB30 TEMPO 2302/2308 3000 +SHRA +TSRA
                      BECMG 2304/2307 5000 BR -DZ SCT007 BKN010
                       TEMPO 2306/2312 4000 SCT004 BKN007
                      BECMG 2312/2315 29010KT 9999 NSW
                      PROB40 2315/2318 SCT012 BKN016=
201108221100 TAF EGLL 221100Z NIL=
201108220459 TAF EGLL 220459Z 2206/2312 VRB05KT 9999 SCT040
                      TEMPO 2220/2312 7000 SHRA
                      BECMG 2221/2224 06010KT
                      PROB30 TEMPO 2304/2312 4000 +SHRA TSRA
                      BECMG 2304/2307 BKN012
                      TEMPO 2307/2312 BKN006
                      BECMG 2309/2312 36005KT=
201108212258 TAF EGLL 212258Z 2200/2306 VRB04KT 9999 FEW040
                      PROB30 2204/2208 8000
                      TEMPO 2220/2306 7000 SHRA
                      BECMG 2221/2224 06010KT
                      PROB40 TEMPO 2221/2306 4000 +SHRA=
201108211656 TAF EGLL 211656Z 2118/2224 26012KT 9999 SCT045
                      BECMG 2121/2124 VRB04KT
                      PROB30 2204/2207 8000
                      BECMG 2220/2223 06010KT
                      PROB30 TEMPO 2221/2224 8000 -RA SHRA=
201108211100 TAF EGLL 211100Z 2112/2218 26010KT 9999 SCT045
                      PROB30 TEMPO 2112/2118 8000 SHRA
                      BECMG 2121/2124 VRB04KT
                      PROB30 2204/2207 8000=
201108210500 TAF EGLL 210500Z 2106/2212 VRB03KT CAVOK
                      BECMG 2109/2112 26010KT
                      BECMG 2119/2122 VRB05KT
                      PROB30 2204/2206 8000=
201108202300 TAF EGLL 202300Z 2100/2206 VRB03KT CAVOK
                      PROB40 2103/2108 7000
                      BECMG 2109/2112 26010KT
                      BECMG 2119/2122 VRB05KT
                      PROB30 2204/2206 8000=
201108201658 TAF EGLL 201658Z 2018/2124 16005KT 9999 SCT025
                      PROB40 2103/2108 6000
                      BECMG 2108/2111 27010KT=
201108201058 TAF EGLL 201058Z 2012/2118 20010KT 9999 SCT040
                      TEMPO 2012/2017 7000 SHRA BKN014
                      BECMG 2015/2018 12005KT
                      PROB30 TEMPO 2102/2109 8000 SHRA
                      BECMG 2103/2106 30010KT
                      BECMG 2111/2114 24010KT=
201108200500 TAF EGLL 200500Z 2006/2112 21010KT 9999 FEW045
                      PROB30 TEMPO 2011/2014 7000 SHRA
                      BECMG 2016/2019 14007KT
                      PROB40 TEMPO 2022/2108 6000 SHRA=
201108192259 TAF EGLL 192259Z 2000/2106 21010KT 9999 FEW045
                      PROB30 TEMPO 2010/2014 7000 SHRA
                      BECMG 2015/2018 14007KT
                      PROB30 TEMPO 2022/2106 6000 SHRA=
201108191658 TAF EGLL 191658Z 1918/2024 23010KT 9999 FEW040
                      PROB30 TEMPO 2010/2024 8000 SHRA
                      BECMG 2015/2018 15007KT=
201108191101 TAF EGLL 191101Z 1912/2018 25007KT 9999 FEW040
                      BECMG 2006/2009 19010KT
                      PROB30 TEMPO 2012/2018 8000 SHRA
                      BECMG 2015/2018 13005KT=
201108190501 TAF EGLL 190501Z 1906/2012 VRB05KT 3000 BR SCT040
                      BECMG 1906/1909 9999
                      BECMG 1915/1918 22010KT=
201108190454 TAF AMD EGLL 190454Z 1904/2006 VRB05KT 9999 SCT035
                      PROB40 1904/1908 3000 BR
                      BECMG 1915/1918 22010KT=
201108182300 TAF AMD EGLL 190454Z 1904/2006 VRB05KT 9999 SCT035
                      PROB40 1904/1908 3000 BR
                      BECMG 1915/1918 22010KT=
201108182258 TAF EGLL 182258Z 1900/2006 VRB05KT 9999 SCT035
                      PROB30 1900/1908 6000
                      BECMG 1915/1918 22010KT=
201108181659 TAF EGLL 181659Z 1818/1924 01010KT 9999 FEW010 BKN025
                      TEMPO 1818/1824 7000 RA
                      PROB30 TEMPO 1818/1823 4000 +RA RADZ BKN008
                       PROB30 1900/1907 8000
                      BECMG 1902/1905 28006KT=
201108181455 TAF AMD EGLL 181455Z 1814/1918 10018KT 9999 BKN020
                      TEMPO 1814/1824 7000 RA
                      PROB30 TEMPO 1814/1818 3000 +RA BKN014
                      BECMG 1815/1817 03010KT
                      PROB40 TEMPO 1818/1824 BKN009
                      BECMG 1822/1901 33010KT
                      BECMG 1902/1905 27005KT
                      PROB30 1902/1907 8000=
201108181057 TAF EGLL 181057Z 1812/1918 03010KT 9999 BKN020
                      TEMPO 1812/1824 7000 RA
                      PROB30 TEMPO 1812/1818 3000 +RA BKN014
                      PROB40 TEMPO 1818/1824 BKN009
                      BECMG 1822/1901 33010KT
                      BECMG 1902/1905 27005KT
                      PROB30 1902/1907 8000=
201108181011 TAF AMD EGLL 181011Z 1806/1912 03008KT 9999 SCT035
                      TEMPO 1810/1824 7000 RA
                      PROB30 TEMPO 1812/1818 3500 +RA BKN014
                      PROB40 TEMPO 1818/1824 BKN009
                      BECMG 1822/1901 33010KT
                      BECMG 1902/1905 27005KT
                      PROB30 1902/1907 8000=
201108180459 TAF EGLL 180459Z 1806/1912 05008KT 9999 SCT045
                      BECMG 1807/1810 7000 RA
                      TEMPO 1810/1818 4000 +RA
                      PROB40 TEMPO 1812/1822 BKN010
                      BECMG 1821/1824 33010KT 9999 NSW
                      BECMG 1902/1905 27005KT
                      PROB30 1902/1907 8000=
201108172259 TAF EGLL 172259Z 1800/1906 05008KT 9999 FEW045
                      BECMG 1807/1810 7000 RA
                      TEMPO 1810/1818 4000 +RA
                      PROB40 TEMPO 1812/1822 BKN010
                      BECMG 1821/1824 33010KT 9999 NSW=
201108171659 TAF EGLL 171659Z 1718/1824 04010KT 9999 SCT045
                      PROB30 TEMPO 1718/1720 9000 RA
                      BECMG 1808/1811 7000 RA
                      TEMPO 1810/1818 4000 +RA
                      PROB30 TEMPO 1814/1822 BKN014
                      BECMG 1821/1824 33008KT 9999 NSW=
201108171624 TAF AMD EGLL 171624Z 1716/1818 07008KT 9999 SCT045
                      TEMPO 1716/1720 9000 -RA
                      BECMG 1810/1813 7000 RA
                      PROB30 TEMPO 1812/1818 4000 +RA BKN010
                      BECMG 1815/1818 01010KT=
201108171107 TAF EGLL 171107Z 1712/1818 07008KT 9999 SCT045
                      BECMG 1810/1813 7000 RA
                      PROB30 TEMPO 1812/1818 4000 +RA BKN010
                      BECMG 1815/1818 01010KT=
201108170501 TAF EGLL 170501Z 1706/1812 VRB04KT 9999 SCT045
                      PROB30 1706/1708 7000
                      BECMG 1707/1710 07010KT
                      PROB30 TEMPO 1805/1810 7000 SHRA=
201108162300 TAF EGLL 162300Z 1700/1806 23006KT 9999 SCT045
                      PROB30 1701/1708 7000
                      BECMG 1707/1710 07010KT
                      PROB30 TEMPO 1803/1806 7000 SHRA=
201108161701 TAF EGLL 161701Z 1618/1724 21012KT 9999 FEW018 SCT025
                      BECMG 1618/1621 27006KT
                      BECMG 1707/1710 07010KT=
201108161101 TAF EGLL 161101Z 1612/1718 21012KT 9999 FEW018 SCT025
                      PROB30 TEMPO 1612/1619 6000 RA BKN014
                      BECMG 1618/1621 27006KT
                      BECMG 1707/1710 07010KT=
201108160458 TAF EGLL 160458Z 1606/1712 21004KT 9999 FEW022 SCT040
                      BECMG 1606/1609 23014KT
                      PROB30 1606/1608 BKN012
                      PROB30 TEMPO 1612/1619 BKN014
                      BECMG 1619/1622 35007KT
                      BECMG 1709/1712 09010KT=
201108152259 TAF EGLL 152259Z 1600/1706 23004KT 9999 FEW022 SCT040
                      BECMG 1606/1609 23014KT
                      PROB30 TEMPO 1613/1619 BKN014
                      BECMG 1619/1622 35007KT=
201108151703 TAF EGLL 151703Z 1518/1624 26009KT 9999 SCT035
                      PROB30 TEMPO 1518/1522 9000 -RA
                      BECMG 1606/1609 20010KT
                      BECMG 1620/1623 33005KT=
201108151102 TAF EGLL 151102Z 1512/1618 26007KT 9999 SCT035
                      PROB30 TEMPO 1518/1522 9000 -RA
                      PROB30 1601/1608 6000
                      BECMG 1606/1609 20010KT
                      PROB30 TEMPO 1612/1618 8000 -RA=
201108150457 TAF EGLL 150457Z 1506/1612 27007KT 9999 SCT045
                      PROB30 TEMPO 1517/1522 9000 -RA
                      PROB40 1601/1608 6000=
201108142256 TAF EGLL 142256Z 1500/1606 27007KT 9999 SCT045
                      PROB30 TEMPO 1517/1522 9000 -RA
                      PROB40 1601/1606 6000=
201108141658 TAF EGLL 141658Z 1418/1524 28008KT 9999 SCT040
                      PROB30 TEMPO 1520/1524 7000 -RA=
201108141101 TAF EGLL 141101Z 1412/1518 27009KT 9999 SCT035=
201108140459 TAF EGLL 140459Z 1406/1512 26007KT 9999 SCT035=
201108132258 TAF EGLL 132258Z 1400/1506 26008KT 9999 SCT035=
201108131658 TAF EGLL 131658Z 1318/1424 25009KT 9999 SCT030=
201108131102 TAF EGLL 131102Z 1312/1418 26009KT 9999 SCT035
                      PROB30 TEMPO 1317/1321 7000 SHRA=
201108130500 TAF EGLL 130500Z 1306/1412 19010KT 9999 BKN008
                      TEMPO 1306/1309 4000 RADZ +RA BKN004
                      BECMG 1308/1311 25010KT SCT030=
201108130231 TAF AMD EGLL 130231Z 1302/1406 23010KT 9999 BKN012
                      TEMPO 1302/1309 4000 RADZ BKN004
                      BECMG 1308/1311 SCT030
                      BECMG 1400/1403 29007KT=
201108122300 TAF AMD EGLL 130231Z 1302/1406 23010KT 9999 BKN012
                      TEMPO 1302/1309 4000 RADZ BKN004
                      BECMG 1308/1311 SCT030
                      BECMG 1400/1403 29007KT=
201108122258 TAF EGLL 122258Z 1300/1406 23010KT 9999 SCT030
                      BECMG 1300/1303 BKN012
                      TEMPO 1303/1309 6000 RA BKN007
                      BECMG 1308/1311 SCT030
                      BECMG 1400/1403 29007KT=
201108121658 TAF EGLL 121658Z 1218/1324 20008KT 9999 SCT040
                      TEMPO 1218/1220 8000 -SHRA
                      BECMG 1221/1224 BKN010
                      TEMPO 1302/1308 4000 RA BKN006
                      BECMG 1308/1311 26010KT SCT030=
201108121058 TAF EGLL 121058Z 1212/1318 25008KT 9999 SCT030
                      TEMPO 1216/1220 7000 SHRA
                      BECMG 1221/1224 BKN010
                      TEMPO 1301/1308 4000 RA BKN007
                      BECMG 1308/1311 SCT030=
201108120556 TAF AMD EGLL 120556Z 1206/1312 25008KT 9999 SCT030
                      PROB40 TEMPO 1206/1209 8000 BKN010
                      TEMPO 1217/1221 8000 SHRA
                      BECMG 1221/1224 BKN012
                      TEMPO 1223/1308 6000 RA BKN008
                      BECMG 1308/1311 9999 SCT030=
201108120500 TAF EGLL 120500Z 1206/1312 25008KT 9999 SCT014 BKN025
                      PROB40 TEMPO 1206/1209 8000 BKN010
                      TEMPO 1217/1221 8000 SHRA
                      BECMG 1221/1224 BKN012
                      TEMPO 1223/1308 6000 RA BKN008
                      BECMG 1308/1311 9999 SCT030=
201108112259 TAF EGLL 112259Z 1200/1306 25008KT 9999 FEW014 SCT025
                      TEMPO 1200/1213 BKN012
                      PROB30 TEMPO 1204/1208 8000 BKN008
                      TEMPO 1217/1223 8000 SHRA BKN012
                      BECMG 1223/1302 8000 -RA BKN008
                      TEMPO 1302/1306 4000 RA=
201108111705 TAF EGLL 111705Z 1118/1224 24015KT 9999 SCT030
                      PROB30 TEMPO 1118/1120 8000 -SHRA
                      BECMG 1200/1203 26005KT
                      TEMPO 1200/1209 8000 BKN010
                      PROB40 TEMPO 1218/1221 7000 SHRA=
201108111100 TAF EGLL 111100Z 1112/1218 24012KT 9999 BKN012
                      BECMG 1112/1115 SCT025
                      TEMPO 1112/1121 22015G25KT 7000 SHRA
                      TEMPO 1200/1209 8000 BKN010=
201108110459 TAF EGLL 110459Z 1106/1212 24014KT 9999 SCT040
                      BECMG 1107/1110 BKN012
                      TEMPO 1108/1113 7000 SHRA
                      PROB30 TEMPO 1109/1112 22015G25KT 4000 +SHRA
                       BKN009
                      BECMG 1112/1115 SCT025
                      TEMPO 1200/1206 BKN010=
201108102256 TAF EGLL 102256Z 1100/1206 24014KT 9999 SCT040
                      BECMG 1106/1109 BKN012
                      TEMPO 1107/1113 7000 SHRA
                      PROB30 TEMPO 1109/1112 22018G28KT 4000 +SHRA
                       BKN009
                      BECMG 1112/1115 SCT025
                      TEMPO 1202/1206 BKN010=
201108101658 TAF EGLL 101658Z 1018/1124 24014KT 9999 SCT040
                      BECMG 1104/1107 BKN012
                      TEMPO 1108/1113 7000 SHRA
                      PROB30 TEMPO 1109/1112 4000 +SHRA
                      BECMG 1112/1115 SCT025=
201108101057 TAF EGLL 101057Z 1012/1118 24012KT 9999 SCT040
                      PROB40 TEMPO 1012/1020 24015G25KT
                      BECMG 1104/1107 BKN012
                      TEMPO 1107/1113 8000 SHRA
                      BECMG 1111/1114 SCT020=
201108100500 TAF EGLL 100500Z 1006/1112 VRB04KT CAVOK
                      BECMG 1007/1010 24012KT
                      PROB40 TEMPO 1011/1019 24016G26KT
                      BECMG 1100/1103 BKN025
                      BECMG 1103/1106 BKN011
                      TEMPO 1105/1112 8000 SHRA=
201108092259 TAF EGLL 092259Z 1000/1106 VRB04KT CAVOK
                      BECMG 1007/1010 24012KT
                      PROB40 TEMPO 1012/1019 24016G26KT
                      BECMG 1103/1106 BKN025=
201108091701 TAF EGLL 091701Z 0918/1024 31010KT 9999 SCT040
                      BECMG 0923/1002 VRB05KT
                      BECMG 1007/1010 24015KT=
201108091057 TAF EGLL 091057Z 0912/1018 31010KT 9999 SCT040
                      BECMG 0923/1002 VRB05KT
                      BECMG 1006/1009 24010KT
                      PROB30 TEMPO 1012/1018 24015G25KT=
201108090511 TAF EGLL 090511Z 0906/1012 31011KT 9999 SCT035
                      BECMG 1002/1005 23002KT
                      BECMG 1008/1011 23012KT
                      PROB30 TEMPO 1009/1012 8000 -RA=
201108090500 TAF EGLL 090500Z NIL=
201108082253 TAF EGLL 082253Z 0900/1006 31011KT 9999 SCT035=
201108081659 TAF EGLL 081659Z 0818/0924 28010KT 9999 FEW020 SCT035
                      PROB40 TEMPO 0909/0914 32015G25KT=
201108081103 TAF EGLL 081103Z 0812/0918 28013KT 9999 SCT040
                      TEMPO 0812/0818 29016G26KT
                      PROB30 TEMPO 0812/0819 7000 SHRA
                      PROB40 TEMPO 0909/0914 32015G25KT=
201108080458 TAF EGLL 080458Z 0806/0912 27005KT 9999 SCT045
                      BECMG 0809/0812 27017G27KT
                      PROB30 TEMPO 0811/0819 7000 SHRA
                      BECMG 0818/0821 29012KT=
201108072258 TAF EGLL 072258Z 0800/0906 19007KT 9999 FEW040
                      TEMPO 0800/0802 7000 SHRA
                      PROB30 0803/0807 7000 BKN012
                      BECMG 0809/0812 27017G27KT
                      BECMG 0818/0821 29012KT=
201108071705 TAF EGLL 071705Z 0718/0824 23010KT 9999 SCT035
                      TEMPO 0718/0802 7000 SHRA
                      PROB30 TEMPO 0719/0801 3000 +SHRA
                      PROB30 0803/0807 BKN012
                      BECMG 0810/0812 27017G27KT
                      BECMG 0817/0819 29012KT=
201108071104 TAF EGLL 071104Z 0712/0818 23010KT 9999 SCT030CB
                      TEMPO 0712/0720 3000 +SHRA TSRA
                      PROB40 TEMPO 0712/0720 21015G25KT +TSRAGR
                       PROB30
                      TEMPO 0720/0803 5000 SHRA
                      PROB30 0803/0807 BKN012
                      BECMG 0810/0812 27017G27KT=
201108070456 TAF EGLL 070456Z 0706/0812 24010KT 9999 SCT040
                      TEMPO 0710/0724 5000 SHRA
                      PROB40 TEMPO 0712/0721 21015G25KT 2000 +TSRAGR=
201108062257 TAF EGLL 062257Z 0700/0806 24010KT 9999 SCT040
                      PROB30 TEMPO 0700/0702 7000 SHRA
                      TEMPO 0710/0724 5000 SHRA
                      PROB40 TEMPO 0712/0721 21015G25KT 2000 +TSRAGR=
201108061704 TAF EGLL 061704Z 0618/0724 23010KT 9999 SCT030
                      PROB40 TEMPO 0619/0621 7000 SHRA
                      TEMPO 0711/0724 5000 SHRA TSRA
                      PROB40 TEMPO 0713/0720 21015G25KT 2000 +TSRAGR=
201108061651 TAF AMD EGLL 061651Z 0616/0718 23008KT 9999 SCT030
                      PROB40 TEMPO 0619/0621 7000 SHRA
                      TEMPO 0711/0718 5000 SHRA TSRA
                      PROB40 TEMPO 0714/0718 21015G25KT 2000 +TSRAGR=
201108061102 TAF EGLL 061102Z 0612/0718 23008KT 9999 SCT030
                      PROB30 TEMPO 0612/0616 7000 SHRA
                      TEMPO 0711/0718 5000 SHRA TSRA
                      PROB40 TEMPO 0714/0718 21015G25KT 2000 +TSRAGR=
201108060500 TAF EGLL 060500Z 0606/0712 21007KT 9999 SCT040
                      PROB30 0606/0608 8000
                      TEMPO 0613/0623 8000 SHRA
                      PROB30 TEMPO 0616/0622 4000 +SHRA
                      PROB30 TEMPO 0709/0712 8000 SHRA=
201108052256 TAF EGLL 052256Z 0600/0706 23005KT 9999 SCT040
                      PROB30 0604/0608 8000
                      TEMPO 0614/0623 8000 SHRA
                      PROB30 TEMPO 0615/0621 3000 +SHRA=
201108051657 TAF EGLL 051657Z 0518/0624 25005KT 9999 SCT040
                      TEMPO 0614/0624 7000 SHRA
                      PROB30 TEMPO 0615/0620 3000 +SHRA=
201108051059 TAF EGLL 051059Z 0512/0618 28005KT 9999 SCT030
                      PROB30 TEMPO 0614/0618 7000 SHRA=
201108050459 TAF EGLL 050459Z 0506/0612 25005KT 9999 SCT040
                      PROB40 TEMPO 0506/0508 8000 BKN012=
201108042258 TAF EGLL 042258Z 0500/0606 25008KT 9999 SCT040
                      PROB30 0500/0509 8000 BKN012=
201108041657 TAF EGLL 041657Z 0418/0524 25012KT 9999 SCT030
                      PROB30 0501/0509 8000 BKN010=
201108041058 TAF EGLL 041058Z 0412/0518 17010KT 9999 -RA BKN006
                      BECMG 0412/0415 24011KT NSW BKN025
                      PROB40 TEMPO 0412/0413 4000 +RA
                      TEMPO 0415/0418 6000 SHRA BKN012
                      PROB30 0501/0509 8000 BKN010=
201108040956 TAF AMD EGLL 040956Z 0410/0512 17010KT 9999 -RA BKN006
                      TEMPO 0410/0413 3500 +RA
                      BECMG 0412/0415 24011KT NSW SCT012 BKN018
                       TEMPO 0415/0418 6000 SHRA BKN010
                      PROB30 0501/0509 8000 BKN010=
201108040506 TAF EGLL 040506Z 0406/0512 17010KT 7000 RA BKN006
                      TEMPO 0406/0413 3500 +RA SCT008 BKN015
                      BECMG 0412/0415 24011KT 9999 NSW SCT012 BKN018
                       TEMPO 0415/0418 6000 SHRA BKN010
                      PROB30 0501/0509 8000 BKN010=
201108040233 TAF AMD EGLL 040233Z 0402/0506 17009KT 9999 SCT007 BKN012
                      BECMG 0403/0405 7000 RA BKN006
                      TEMPO 0405/0413 3500 +RA SCT008 BKN015
                      BECMG 0413/0416 24011KT 9999 NSW SCT013 BKN020
                       TEMPO 0416/0419 6000 SHRA BKN012
                      PROB30 0501/0506 8000 BKN010=
201108032305 TAF EGLL 032305Z 0400/0506 17009KT 9999 FEW020 SCT040
                      BECMG 0403/0406 7000 RA SCT008 BKN013
                      TEMPO 0406/0414 3500 +RA BKN006
                      BECMG 0413/0416 24011KT 9999 NSW SCT013 BKN020
                       TEMPO 0416/0419 6000 SHRA BKN012
                      PROB30 0501/0506 8000 BKN010=
201108032300 TAF AMD EGLL 040233Z 0402/0506 17009KT 9999 SCT007 BKN012
                      BECMG 0403/0405 7000 RA BKN006
                      TEMPO 0405/0413 3500 +RA SCT008 BKN015
                      BECMG 0413/0416 24011KT 9999 NSW SCT013 BKN020
                       TEMPO 0416/0419 6000 SHRA BKN012
                      PROB30 0501/0506 8000 BKN010=
201108031657 TAF EGLL 031657Z 0318/0424 25010KT 9999 SCT040
                      BECMG 0403/0406 17010KT 8000 -RA BKN008
                      TEMPO 0408/0414 4000 +RA
                      BECMG 0413/0416 26010KT 9999 SCT040
                      PROB30 TEMPO 0416/0420 7000 SHRA=
201108031100 TAF EGLL 031100Z 0312/0418 23010KT 9999 SCT035
                      BECMG 0404/0407 17010KT 8000 -RA BKN008
                      TEMPO 0408/0415 4000 +RA
                      BECMG 0413/0416 27007KT
                      BECMG 0416/0418 9999 NSW SCT030=
201108030455 TAF EGLL 030455Z 0306/0412 VRB03KT 9999 SCT040
                      BECMG 0312/0315 22010KT
                      PROB30 TEMPO 0312/0319 7000 SHRA
                      BECMG 0405/0408 16011KT 7000 -RADZ BKN012
                       TEMPO 0407/0412 4000 RADZ BKN007
                      PROB30 TEMPO 0409/0412 16015G25KT +RA=
201108022253 TAF EGLL 022253Z 0300/0406 VRB05KT 9999 SCT040
                      PROB30 0302/0307 8000
                      BECMG 0311/0314 23010KT
                      PROB30 TEMPO 0312/0320 9000 SHRA=
201108021700 TAF EGLL 021700Z 0218/0324 VRB05KT 9999 SCT040
                      PROB30 TEMPO 0218/0221 6000 SHRA
                      PROB30 0302/0307 8000
                      BECMG 0311/0314 23010KT
                      PROB30 TEMPO 0312/0320 7000 SHRA=
201108021101 TAF EGLL 021101Z 0212/0318 VRB05KT 9999 SCT030
                      PROB30 0302/0307 8000
                      PROB30 TEMPO 0312/0318 8000 SHRA=
201108020833 TAF COR EGLL 020833Z 0208/0312 VRB04KT 9999 SCT045
                      PROB30 TEMPO 0214/0219 SHRA
                      PROB40 0302/0307 8000=
201108020454 TAF EGLL 020454Z 0206/0312 VRB04KT 9999 SCT045
                      PROB30 TEMPO 0206/0207 9000 SHRA
                      PROB30 TEMPO 0314/0319 SHRA
                      PROB40 0302/0307 8000=
201108012303 TAF EGLL 012303Z 0200/0306 VRB04KT CAVOK
                      PROB40 TEMPO 0202/0207 8000 SHRA
                      PROB40 0303/0306 8000=
201108011705 TAF EGLL 011705Z 0118/0224 18010KT CAVOK
                      BECMG 0122/0201 VRB04KT
                      PROB40 0203/0209 8000=
201108011106 TAF EGLL 011106Z 0112/0218 17010KT CAVOK
                      BECMG 0122/0201 VRB04KT
                      PROB40 0203/0209 8000=
201108010458 TAF EGLL 010458Z 0106/0212 VRB05KT 9999 FEW045
                      BECMG 0107/0110 15010KT
                      BECMG 0119/0122 VRB05KT=
