##########################################################
# Query made at 12/31/2014 10:55:35 UTC
# Time interval: from 08/01/2014 00:00  to 08/31/2014 23:59  UTC
##########################################################

##########################################################
# EGLL, London / Heathrow Airport (United Kingdom)
# WMO index: 03772
# Latitude 51-29N. Longitude 000-27W. Altitude 24 m.
##########################################################

###################################
#  METAR/SPECI from EGLL
###################################
201408312350 METAR EGLL 312350Z 26006KT CAVOK 14/12 Q1020 NOSIG=
201408312320 METAR COR EGLL 312320Z 26005KT CAVOK 13/11 Q1020 NOSIG=
201408312250 METAR EGLL 312250Z 27005KT CAVOK 14/11 Q1020 NOSIG=
201408312220 METAR COR EGLL 312220Z 28006KT CAVOK 14/11 Q1020 NOSIG=
201408312150 METAR COR EGLL 312150Z 28007KT CAVOK 15/11 Q1020 NOSIG=
201408312120 METAR COR EGLL 312120Z 28007KT CAVOK 16/10 Q1020 NOSIG=
201408312050 METAR COR EGLL 312050Z 29004KT CAVOK 17/10 Q1020 NOSIG=
201408312020 METAR COR EGLL 312020Z 30003KT CAVOK 17/10 Q1019 NOSIG=
201408311950 METAR COR EGLL 311950Z 29003KT CAVOK 18/10 Q1019 NOSIG=
201408311920 METAR COR EGLL 311920Z 31002KT CAVOK 17/10 Q1019 NOSIG=
201408311850 METAR COR EGLL 311850Z 32003KT CAVOK 19/10 Q1019 NOSIG=
201408311820 METAR COR EGLL 311820Z 32004KT 290V350 CAVOK 20/10 Q1018
                        NOSIG=
201408311750 METAR COR EGLL 311750Z 30004KT CAVOK 21/10 Q1018 NOSIG=
201408311720 METAR COR EGLL 311720Z 31006KT 270V340 9999 FEW040 21/10
                        Q1018 NOSIG=
201408311650 METAR EGLL 311650Z 30006KT 9999 FEW040 20/10 Q1018 NOSIG=
201408311620 METAR COR EGLL 311620Z 32005KT 9999 FEW040 21/11 Q1018 NOSIG=
201408311550 METAR EGLL 311550Z 31006KT 280V340 9999 FEW046 21/11 Q1018
                        NOSIG=
201408311520 METAR COR EGLL 311520Z 30007KT 9999 SCT045 21/10 Q1018 NOSIG=
201408311450 METAR EGLL 311450Z 30007KT 250V330 9999 FEW044 21/10 Q1018
                        NOSIG=
201408311420 METAR COR EGLL 311420Z 31007KT 9999 SCT042 21/10 Q1018 NOSIG=
201408311350 METAR COR EGLL 311350Z 30008KT 260V330 9999 SCT044 20/11
                        Q1018 NOSIG=
201408311320 METAR COR EGLL 311320Z 29009KT 250V320 9999 FEW036 20/11
                        Q1018 NOSIG=
201408311250 METAR EGLL 311250Z 30009KT 9999 SCT032 19/11 Q1018 NOSIG=
201408311220 METAR COR EGLL 311220Z 28009KT 250V320 9999 SCT040 19/11
                        Q1018 NOSIG=
201408311150 METAR COR EGLL 311150Z 30010KT 260V330 9999 SCT029 18/11
                        Q1018 NOSIG=
201408311120 METAR COR EGLL 311120Z 29009KT 270V330 9999 FEW025 19/12
                        Q1018 NOSIG=
201408311050 METAR COR EGLL 311050Z 26011KT 9999 FEW024 18/12 Q1018 NOSIG=
201408311020 METAR COR EGLL 311020Z 26010KT 9999 SCT022 18/12 Q1018 NOSIG=
201408310950 METAR COR EGLL 310950Z 26010KT 9999 BKN027 17/12 Q1018 NOSIG=
201408310920 METAR COR EGLL 310920Z 29009KT 9999 FEW023 SCT028 17/11 Q1018
                        NOSIG=
201408310850 METAR COR EGLL 310850Z 31007KT 290V010 9999 FEW020 17/11
                        Q1018 NOSIG=
201408310820 METAR COR EGLL 310820Z 29007KT 9999 FEW016 16/12 Q1018 NOSIG=
201408310750 METAR EGLL 310750Z 28007KT CAVOK 15/12 Q1018 NOSIG=
201408310720 METAR COR EGLL 310720Z 29007KT CAVOK 14/12 Q1018 NOSIG=
201408310650 METAR EGLL 310650Z 27006KT CAVOK 13/11 Q1018 NOSIG=
201408310620 METAR COR EGLL 310620Z 28006KT CAVOK 13/11 Q1017 NOSIG=
201408310550 METAR COR EGLL 310550Z 27005KT CAVOK 12/11 Q1017 NOSIG=
201408310520 METAR COR EGLL 310520Z 27007KT CAVOK 12/11 Q1017 NOSIG=
201408310450 METAR EGLL 310450Z 27006KT CAVOK 12/11 Q1017 NOSIG=
201408310420 METAR COR EGLL 310420Z 27006KT CAVOK 13/12 Q1017 NOSIG=
201408310350 METAR EGLL 310350Z 27006KT CAVOK 13/12 Q1017 NOSIG=
201408310320 METAR COR EGLL 310320Z 27007KT CAVOK 13/12 Q1017 NOSIG=
201408310250 METAR COR EGLL 310250Z 27006KT CAVOK 13/12 Q1017 NOSIG=
201408310220 METAR COR EGLL 310220Z 27006KT CAVOK 13/12 Q1017 NOSIG=
201408310150 METAR COR EGLL 310150Z 27005KT CAVOK 13/12 Q1017 NOSIG=
201408310120 METAR EGLL 310120Z AUTO 26008KT 9999 NCD 14/12 Q1017=
201408310050 METAR EGLL 310050Z AUTO 27007KT 9999 NCD 14/12 Q1017=
201408310020 METAR EGLL 310020Z AUTO 27008KT 9999 NCD 14/11 Q1017=
201408302350 METAR COR EGLL 302350Z 27007KT CAVOK 14/12 Q1017 NOSIG=
201408302320 METAR COR EGLL 302320Z 27006KT CAVOK 14/12 Q1017 NOSIG=
201408302250 METAR EGLL 302250Z 28007KT CAVOK 14/12 Q1017 NOSIG=
201408302220 METAR COR EGLL 302220Z 27008KT CAVOK 15/12 Q1017 NOSIG=
201408302150 METAR COR EGLL 302150Z 27011KT CAVOK 16/12 Q1017 NOSIG=
201408302120 METAR COR EGLL 302120Z 27013KT CAVOK 16/12 Q1017 NOSIG=
201408302050 METAR EGLL 302050Z 27012KT CAVOK 17/12 Q1017 NOSIG=
201408302020 METAR COR EGLL 302020Z 27011KT 9999 FEW035 16/12 Q1017 NOSIG=
201408301950 METAR COR EGLL 301950Z 28007KT 9999 FEW040 17/12 Q1017 NOSIG=
201408301920 METAR COR EGLL 301920Z 30004KT 9999 FEW037 17/12 Q1016 NOSIG=
201408301850 METAR COR EGLL 301850Z 30006KT 9999 FEW048 17/12 Q1016 NOSIG=
201408301820 METAR COR EGLL 301820Z 28007KT 9999 FEW048 18/12 Q1016 NOSIG=
201408301750 METAR COR EGLL 301750Z 29006KT 9999 FEW036 18/12 Q1016 NOSIG=
201408301720 METAR COR EGLL 301720Z 30006KT 9999 FEW042 18/12 Q1016 NOSIG=
201408301650 METAR EGLL 301650Z 31005KT 9999 BKN037 18/11 Q1016 NOSIG=
201408301620 METAR COR EGLL 301620Z 28009KT 9999 SCT040 18/11 Q1016 NOSIG=
201408301550 METAR EGLL 301550Z 27010KT 9999 FEW032 19/11 Q1016 NOSIG=
201408301520 METAR COR EGLL 301520Z 27010KT 9999 FEW032 19/11 Q1016 NOSIG=
201408301450 METAR COR EGLL 301450Z 30007KT 280V340 9999 FEW032 19/11
                        Q1016 NOSIG=
201408301420 METAR COR EGLL 301420Z 28010KT 9999 BKN043 19/11 Q1016 NOSIG=
201408301350 METAR COR EGLL 301350Z 27010KT 9999 SCT045 20/10 Q1016 NOSIG=
201408301320 METAR COR EGLL 301320Z 27011KT 240V310 9999 SCT048 19/10
                        Q1016 NOSIG=
201408301250 METAR EGLL 301250Z 27011KT 9999 FEW039 SCT044 19/10 Q1016
                        NOSIG=
201408301220 METAR COR EGLL 301220Z 28011KT 9999 SCT037 19/11 Q1016 NOSIG=
201408301150 METAR EGLL 301150Z 26013KT 9999 FEW037 19/10 Q1016 NOSIG=
201408301120 METAR COR EGLL 301120Z 26014KT 9999 FEW028 18/10 Q1016 NOSIG=
201408301050 METAR EGLL 301050Z 26013KT 9999 FEW024 18/11 Q1016 NOSIG=
201408301020 METAR COR EGLL 301020Z 26012KT 9999 FEW024 17/11 Q1016 NOSIG=
201408300950 METAR EGLL 300950Z 27012KT 9999 FEW024 17/11 Q1015=
201408300920 METAR EGLL 300920Z 26013KT CAVOK 17/11 Q1015=
201408300850 METAR EGLL 300850Z 25013KT CAVOK 16/10 Q1015 NOSIG=
201408300820 METAR COR EGLL 300820Z 27013KT CAVOK 15/10 Q1015 NOSIG=
201408300750 METAR COR EGLL 300750Z 27014KT CAVOK 15/10 Q1015 NOSIG=
201408300720 METAR EGLL 300720Z 26011KT CAVOK 15/10 Q1015=
201408300650 METAR COR EGLL 300650Z 27012KT CAVOK 15/10 Q1014 NOSIG=
201408300620 METAR COR EGLL 300620Z 25015KT 9999 FEW035 15/10 Q1014 NOSIG=
201408300550 METAR COR EGLL 300550Z 26014KT 9999 SCT034 15/11 Q1014 NOSIG=
201408300520 METAR COR EGLL 300520Z 26014KT 9999 FEW013 BKN032 16/13 Q1014
                        NOSIG=
201408300450 METAR COR EGLL 300450Z 24013KT 9000 SCT013 BKN022 17/14 Q1013
                        TEMPO RADZ BKN014=
201408300420 METAR COR EGLL 300420Z 24011KT 9999 SCT016 BKN023 17/14 Q1013
                        TEMPO -RADZ BKN014=
201408300350 METAR COR EGLL 300350Z 24014KT 9999 BKN018 17/14 Q1013 TEMPO
                        -RADZ BKN014=
201408300320 METAR COR EGLL 300320Z 24011KT 9999 SCT017 BKN022 17/14 Q1013
                        TEMPO -RADZ BKN014=
201408300250 METAR EGLL 300250Z 24012KT 9999 FEW016 BKN019 17/14 Q1013
                        TEMPO -RADZ BKN014=
201408300220 METAR COR EGLL 300220Z 24011KT 9999 BKN018 17/14 Q1013 TEMPO
                        -RADZ BKN014=
201408300150 METAR COR EGLL 300150Z 24013KT 9999 BKN018 BKN023 17/14 Q1013
                        TEMPO -RADZ BKN014=
201408300120 METAR EGLL 300120Z AUTO 24012KT 9999 OVC019 17/14 Q1013=
201408300050 METAR EGLL 300050Z AUTO 24012KT 9999 BKN017 17/14 Q1013=
201408300020 METAR EGLL 300020Z AUTO 24014KT 9999 BKN017 17/14 Q1013=
201408292350 METAR COR EGLL 292350Z 24010KT 9999 BKN019 17/14 Q1013 NOSIG=
201408292320 METAR COR EGLL 292320Z 24011KT 9999 SCT021 BKN024 17/14 Q1013
                        NOSIG=
201408292250 METAR EGLL 292250Z 23013KT 9999 SCT018 BKN027 17/14 Q1013
                        NOSIG=
201408292220 METAR COR EGLL 292220Z 23014KT 9999 SCT017 BKN026 17/14 Q1014
                        NOSIG=
201408292150 METAR COR EGLL 292150Z 23015KT 9999 SCT018 BKN026 17/14 Q1014
                        NOSIG=
201408292120 METAR COR EGLL 292120Z 22013KT 9999 FEW021 BKN027 17/14 Q1014
                        NOSIG=
201408292050 METAR COR EGLL 292050Z 23014KT 9999 FEW022 BKN027 18/14 Q1014
                        NOSIG=
201408292020 METAR COR EGLL 292020Z 23012KT 9999 SCT025 SCT034 18/13 Q1013
                        NOSIG=
201408291950 METAR COR EGLL 291950Z 24014KT 9999 SCT033 SCT037 18/13 Q1013
                        NOSIG=
201408291920 METAR COR EGLL 291920Z 24013KT 9999 SCT025 SCT033 18/13 Q1013
                        NOSIG=
201408291850 METAR COR EGLL 291850Z 24015KT 9999 SCT034 18/14 Q1013 NOSIG=
201408291820 METAR COR EGLL 291820Z 24015KT 9999 SCT025 18/14 Q1013 NOSIG=
201408291750 METAR COR EGLL 291750Z 23013KT 9999 VCSH SCT025 SCT041 18/14
                        Q1013 NOSIG=
201408291720 METAR COR EGLL 291720Z 23013KT 9999 FEW026 BKN042 19/14 Q1013
                        NOSIG=
201408291650 METAR EGLL 291650Z 23019KT 9999 SCT025 BKN032 18/13 Q1013
                        NOSIG=
201408291620 METAR COR EGLL 291620Z 23017KT 9999 BKN030 19/13 Q1013 NOSIG=
201408291550 METAR COR EGLL 291550Z 22015KT 9999 SCT031 SCT040 19/13 Q1013
                        NOSIG=
201408291520 METAR COR EGLL 291520Z 23014KT 9999 FEW030 19/13 Q1013 NOSIG=
201408291450 METAR EGLL 291450Z 23015G25KT 9999 FEW034 SCT042 20/12 Q1013
                        NOSIG=
201408291420 METAR COR EGLL 291420Z 23018KT 9999 FEW039 SCT044 21/12 Q1013
                        NOSIG=
201408291350 METAR EGLL 291350Z 24013KT 9999 SCT042 21/12 Q1013 NOSIG=
201408291320 METAR COR EGLL 291320Z 24016KT 9999 FEW038 SCT044 20/11 Q1013
                        NOSIG=
201408291250 METAR COR EGLL 291250Z 24013KT 9999 FEW042 21/12 Q1013 NOSIG=
201408291220 METAR COR EGLL 291220Z 24013KT 200V260 9999 FEW045 20/11
                        Q1013 NOSIG=
201408291150 METAR COR EGLL 291150Z 25014KT 9999 SCT047 20/12 Q1013 NOSIG=
201408291120 METAR COR EGLL 291120Z 23015G25KT 9999 FEW036 SCT047 19/12
                        Q1013 NOSIG=
201408291050 METAR COR EGLL 291050Z 23013KT 9999 SCT031 20/13 Q1013 NOSIG=
201408291020 METAR COR EGLL 291020Z 24014KT 9999 FEW033 SCT040 19/11 Q1013
                        NOSIG=
201408290950 METAR EGLL 290950Z 25014KT 210V270 9999 FEW030 19/12 Q1013
                        NOSIG=
201408290920 METAR COR EGLL 290920Z 23011KT 9999 FEW028 18/13 Q1013 NOSIG=
201408290850 METAR COR EGLL 290850Z 23012KT 9999 FEW030 18/13 Q1013 NOSIG=
201408290820 METAR COR EGLL 290820Z 23012KT 9999 FEW027 18/13 Q1012 NOSIG=
201408290750 METAR EGLL 290750Z 23012KT 9999 FEW016 17/13 Q1013 NOSIG=
201408290720 METAR COR EGLL 290720Z 22011KT 9999 FEW013 16/13 Q1013 NOSIG=
201408290650 METAR EGLL 290650Z 22012KT 9999 FEW025 15/13 Q1012 NOSIG=
201408290620 METAR COR EGLL 290620Z 20010KT CAVOK 15/13 Q1013 NOSIG=
201408290550 METAR COR EGLL 290550Z 21009KT 9999 FEW038 14/13 Q1013 NOSIG=
201408290520 METAR COR EGLL 290520Z 21008KT 180V240 9999 FEW031 SCT042
                        14/13 Q1012 NOSIG=
201408290450 METAR COR EGLL 290450Z 20007KT 9999 FEW038 SCT046 14/13 Q1012
                        TEMPO BKN014=
201408290420 METAR COR EGLL 290420Z 20008KT 9999 FEW047 14/13 Q1012 TEMPO
                        BKN014=
201408290350 METAR EGLL 290350Z 20009KT 9999 FEW041 14/13 Q1012 TEMPO
                        BKN012=
201408290320 METAR COR EGLL 290320Z 21008KT CAVOK 14/13 Q1012 NOSIG=
201408290250 METAR EGLL 290250Z 21007KT CAVOK 14/13 Q1012 NOSIG=
201408290220 METAR COR EGLL 290220Z 21008KT CAVOK 14/13 Q1013 NOSIG=
201408290150 METAR EGLL 290150Z 20007KT CAVOK 14/13 Q1013 NOSIG=
201408290120 METAR EGLL 290120Z AUTO 21006KT 9999 NCD 14/13 Q1013=
201408290050 METAR EGLL 290050Z AUTO 22006KT 9999 NCD 14/13 Q1013=
201408290020 METAR EGLL 290020Z AUTO 21008KT 9999 NCD 14/13 Q1013=
201408282350 METAR COR EGLL 282350Z 22010KT CAVOK 14/13 Q1013 NOSIG=
201408282320 METAR COR EGLL 282320Z 21008KT CAVOK 14/13 Q1013 NOSIG=
201408282250 METAR COR EGLL 282250Z 21006KT CAVOK 15/13 Q1013 NOSIG=
201408282220 METAR COR EGLL 282220Z 21009KT CAVOK 15/13 Q1013 NOSIG=
201408282150 METAR COR EGLL 282150Z 21007KT CAVOK 15/12 Q1013 NOSIG=
201408282120 METAR COR EGLL 282120Z 22009KT 180V250 CAVOK 16/12 Q1012
                        NOSIG=
201408282050 METAR EGLL 282050Z 22008KT 180V260 CAVOK 16/12 Q1012 NOSIG=
201408282020 METAR COR EGLL 282020Z 22007KT 190V250 CAVOK 17/12 Q1012
                        NOSIG=
201408281950 METAR COR EGLL 281950Z 23008KT 190V260 CAVOK 17/11 Q1012
                        NOSIG=
201408281920 METAR COR EGLL 281920Z 22008KT CAVOK 18/13 Q1012 NOSIG=
201408281850 METAR EGLL 281850Z 22010KT 9999 FEW035 18/12 Q1011 NOSIG=
201408281820 METAR COR EGLL 281820Z 23012KT 9999 FEW035 19/12 Q1011 NOSIG=
201408281750 METAR COR EGLL 281750Z 23014KT 9999 SCT034 20/13 Q1011 NOSIG=
201408281720 METAR COR EGLL 281720Z 22012KT 9999 FEW030 21/13 Q1011 NOSIG=
201408281650 METAR COR EGLL 281650Z 22013KT 180V250 9999 FEW027 20/14
                        Q1011 NOSIG=
201408281620 METAR COR EGLL 281620Z 23011KT 190V260 9999 FEW030 20/14
                        Q1011 NOSIG=
201408281550 METAR COR EGLL 281550Z 23013KT 9999 SCT030 20/15 Q1011 RESHRA
                        NOSIG=
201408281520 METAR COR EGLL 281520Z 22015KT 9999 8000NE SHRA FEW020 SCT025
                        20/16 Q1011 NOSIG=
201408281450 METAR COR EGLL 281450Z 22015KT 9999 VCSH FEW029 SCT035 21/14
                        Q1011 NOSIG=
201408281420 METAR COR EGLL 281420Z 22013G24KT 9999 FEW037 SCT042 22/14
                        Q1011 NOSIG=
201408281350 METAR COR EGLL 281350Z 23011KT 170V260 9999 SCT042 22/13
                        Q1011 NOSIG=
201408281320 METAR COR EGLL 281320Z 23012KT 9999 SCT040 22/13 Q1011 NOSIG=
201408281250 METAR COR EGLL 281250Z 23012KT 200V260 9999 FEW032 22/14
                        Q1011 NOSIG=
201408281220 METAR COR EGLL 281220Z 22011KT 9999 FEW032 22/13 Q1011 NOSIG=
201408281150 METAR COR EGLL 281150Z 24011KT 9999 SCT030 21/14 Q1011 NOSIG=
201408281120 METAR COR EGLL 281120Z 24014KT 9999 FEW026 SCT030 20/14 Q1011
                        NOSIG=
201408281050 METAR EGLL 281050Z 26012KT 9999 SCT026 BKN031 19/14 Q1011
                        NOSIG=
201408281020 METAR COR EGLL 281020Z 23012KT 9999 FEW018 BKN030 19/15 Q1011
                        NOSIG=
201408280950 METAR EGLL 280950Z 23010KT 9999 BKN017 18/15 Q1010 NOSIG=
201408280920 METAR COR EGLL 280920Z 25010KT 9999 BKN018 18/16 Q1010 NOSIG=
201408280850 METAR COR EGLL 280850Z 24008KT 9999 -RA SCT018 BKN023 17/16
                        Q1010 NOSIG=
201408280820 METAR COR EGLL 280820Z 23009KT 9999 7000W -RADZ FEW008 SCT011
                        BKN030 18/16 Q1010 TEMPO BKN014=
201408280750 METAR EGLL 280750Z 22008KT 9999 FEW008 SCT014 BKN025 18/16
                        Q1010 TEMPO BKN014=
201408280720 METAR COR EGLL 280720Z 22008KT 9999 -RADZ FEW008 SCT011 BKN030
                        17/16 Q1010 TEMPO BKN014=
201408280650 METAR COR EGLL 280650Z 22010KT 8000 -RADZ FEW006 SCT012 BKN017
                        17/16 Q1009 TEMPO BKN012=
201408280620 METAR COR EGLL 280620Z 22009KT 9999 -RA BKN013 17/16 Q1009
                        BECMG BKN016=
201408280550 METAR EGLL 280550Z 21009KT 9999 FEW025 SCT040 17/16 Q1009=
201408280520 METAR COR EGLL 280520Z 20007KT 170V230 9999 VCSH FEW003 SCT006
                        BKN008 17/16 Q1009 RERA REDZ BECMG
                        26010KT NSW FEW012=
201408280450 METAR EGLL 280450Z 16006KT 5000 RADZ FEW004 SCT006 BKN009
                        17/16 Q1009 TEMPO 4000 RADZ BR SCT002
                        BKN004=
201408280420 METAR EGLL 280420Z 15006KT 9999 FEW002 SCT005 BKN010 17/16
                        Q1009=
201408280350 METAR EGLL 280350Z 14007KT 9999 FEW002 SCT006 BKN011 17/16
                        Q1009 TEMPO 4000 RADZ BKN006=
201408280320 METAR COR EGLL 280320Z 14007KT 5000 -RADZ FEW003 SCT005 BKN018
                        17/16 Q1009 RERA REDZ TEMPO 4000
                        RADZ BKN005=
201408280250 METAR COR EGLL 280250Z 14006KT 3500 RADZ FEW003 BKN005 17/16
                        Q1009 RERA REDZ TEMPO 5000 NSW SCT006
                        BKN010=
201408280220 METAR COR EGLL 280220Z 13008KT 4000 RADZ FEW004 BKN006 17/16
                        Q1009 RERA REDZ NOSIG=
201408280150 METAR COR EGLL 280150Z 13007KT 9999 FEW004 BKN010 17/16 Q1010
                        TEMPO 4000 RADZ BKN006=
201408280120 METAR EGLL 280120Z AUTO 14008KT 7000 FEW005 BKN015 17/15
                        Q1010=
201408280050 METAR EGLL 280050Z AUTO 15009KT 9999 BKN006 17/15 Q1010=
201408280020 METAR EGLL 280020Z AUTO 15007KT 9999 BKN008 OVC014 17/15
                        Q1011=
201408272350 METAR EGLL 272350Z 15008KT 9999 FEW010 BKN020 17/15 Q1011
                        NOSIG=
201408272320 METAR COR EGLL 272320Z 15007KT 9999 SCT010 BKN031 17/15 Q1011
                        TEMPO -RA BKN012=
201408272250 METAR COR EGLL 272250Z 15007KT 9999 -RA FEW009 SCT020 17/15
                        Q1011 TEMPO -RA BKN012=
201408272220 METAR COR EGLL 272220Z 15007KT 9999 FEW012 BKN019 17/15 Q1011
                        TEMPO -RA BKN014=
201408272150 METAR COR EGLL 272150Z 13008KT 9999 FEW014 SCT020 17/15 Q1011
                        TEMPO -RA BKN014=
201408272120 METAR COR EGLL 272120Z 13009KT 9999 SCT022 SCT030 18/15 Q1012
                        TEMPO -RA BKN014=
201408272050 METAR EGLL 272050Z 12008KT 9999 FEW027 BKN046 18/14 Q1012
                        TEMPO -RA BKN014=
201408272020 METAR COR EGLL 272020Z 13008KT 9999 SCT040 BKN046 18/14 Q1012
                        TEMPO -RA BKN014=
201408271950 METAR COR EGLL 271950Z 13009KT 9999 FEW020 SCT040 BKN045
                        18/14 Q1012 TEMPO -RA BKN014=
201408271920 METAR COR EGLL 271920Z 14009KT 9999 BKN041 18/14 Q1012 TEMPO
                        -RA BKN014=
201408271850 METAR COR EGLL 271850Z 14009KT 9999 FEW021 BKN029 18/14 Q1012
                        NOSIG=
201408271820 METAR COR EGLL 271820Z 14009KT 9999 SCT021 SCT025 18/14 Q1012
                        NOSIG=
201408271750 METAR COR EGLL 271750Z 14007KT 9999 FEW031 SCT037 18/14 Q1012
                        NOSIG=
201408271720 METAR COR EGLL 271720Z 14010KT 9999 SCT034 SCT047 19/14 Q1013
                        NOSIG=
201408271650 METAR COR EGLL 271650Z 15008KT 9999 SCT024 BKN035 19/14 Q1013
                        NOSIG=
201408271620 METAR COR EGLL 271620Z 13008KT 9999 FEW024 SCT029 BKN035
                        19/14 Q1013 NOSIG=
201408271550 METAR EGLL 271550Z 13009KT 9999 SCT027 SCT035 BKN045 19/13
                        Q1013 NOSIG=
201408271520 METAR COR EGLL 271520Z 13009KT 9999 SCT027 SCT038 19/13 Q1013
                        NOSIG=
201408271450 METAR COR EGLL 271450Z 14010KT 100V170 9999 SCT033 BKN038
                        19/12 Q1014 NOSIG=
201408271420 METAR COR EGLL 271420Z 14010KT 9999 BKN038 20/12 Q1014 NOSIG=
201408271350 METAR EGLL 271350Z 12011KT 9999 BKN038 20/11 Q1014 NOSIG=
201408271320 METAR COR EGLL 271320Z 12010KT 9999 BKN033 20/12 Q1014 NOSIG=
201408271250 METAR EGLL 271250Z 12009KT 090V150 9999 BKN032 19/12 Q1014
                        NOSIG=
201408271220 METAR COR EGLL 271220Z 11011KT 9999 FEW029 BKN033 19/12 Q1014
                        NOSIG=
201408271150 METAR COR EGLL 271150Z 11009KT 9999 FEW029 BKN036 19/12 Q1015
                        NOSIG=
201408271120 METAR COR EGLL 271120Z 12011KT 9999 SCT033 BKN037 18/12 Q1015
                        NOSIG=
201408271050 METAR EGLL 271050Z 11012KT 9999 SCT029 SCT037 18/12 Q1015
                        NOSIG=
201408271020 METAR COR EGLL 271020Z 11014KT 9999 SCT028 SCT048 18/12 Q1015
                        NOSIG=
201408270950 METAR COR EGLL 270950Z 10010KT 9999 FEW026 SCT031 18/12 Q1015
                        NOSIG=
201408270920 METAR COR EGLL 270920Z 10012KT 060V130 9999 FEW043 18/12
                        Q1015 NOSIG=
201408270850 METAR EGLL 270850Z 09011KT 9999 FEW045 17/12 Q1015 NOSIG=
201408270820 METAR COR EGLL 270820Z 08010KT 9999 SCT045 16/12 Q1015 NOSIG=
201408270750 METAR EGLL 270750Z 07006KT 9999 FEW043 BKN046 14/11 Q1015
                        NOSIG=
201408270720 METAR COR EGLL 270720Z 08004KT 9999 BKN048 14/11 Q1015 NOSIG=
201408270650 METAR EGLL 270650Z 07004KT 9999 BKN048 13/11 Q1015 NOSIG=
201408270620 METAR COR EGLL 270620Z 06004KT 9999 SCT047 12/10 Q1015 NOSIG=
201408270550 METAR COR EGLL 270550Z 09003KT 9999 SCT047 11/10 Q1015 NOSIG=
201408270520 METAR COR EGLL 270520Z VRB03KT 9999 SCT047 10/09 Q1015 NOSIG=
201408270450 METAR COR EGLL 270450Z 07003KT 9999 FEW020 SCT044 10/09 Q1014
                        NOSIG=
201408270420 METAR COR EGLL 270420Z 04004KT 9999 SCT043 11/09 Q1014 NOSIG=
201408270350 METAR EGLL 270350Z 06004KT 020V090 9999 FEW044 11/09 Q1014
                        NOSIG=
201408270320 METAR COR EGLL 270320Z 04004KT CAVOK 11/09 Q1014 NOSIG=
201408270250 METAR COR EGLL 270250Z 05004KT CAVOK 11/09 Q1014 NOSIG=
201408270220 METAR COR EGLL 270220Z 03003KT CAVOK 11/09 Q1014 NOSIG=
201408270150 METAR COR EGLL 270150Z 06004KT CAVOK 11/09 Q1014 NOSIG=
201408270120 METAR EGLL 270120Z AUTO 05005KT 9999 NCD 12/09 Q1014=
201408270050 METAR EGLL 270050Z AUTO 04004KT 9999 NCD 12/09 Q1014=
201408270020 METAR EGLL 270020Z AUTO 05005KT 9999 NCD 12/09 Q1013=
201408262350 METAR COR EGLL 262350Z 05006KT 020V090 CAVOK 12/09 Q1013
                        NOSIG=
201408262320 METAR COR EGLL 262320Z 04004KT CAVOK 13/09 Q1013 NOSIG=
201408262250 METAR COR EGLL 262250Z 05006KT CAVOK 13/10 Q1013 NOSIG=
201408262220 METAR COR EGLL 262220Z 06005KT CAVOK 13/10 Q1013 NOSIG=
201408262150 METAR COR EGLL 262150Z 06005KT CAVOK 14/10 Q1012 NOSIG=
201408262120 METAR COR EGLL 262120Z 05005KT 9999 FEW043 14/11 Q1012 NOSIG=
201408262050 METAR EGLL 262050Z 04004KT 9999 FEW044 14/11 Q1012 NOSIG=
201408262020 METAR COR EGLL 262020Z 04005KT 9999 FEW049 14/11 Q1012 NOSIG=
201408261950 METAR COR EGLL 261950Z 05005KT 9999 FEW031 15/12 Q1011 NOSIG=
201408261920 METAR COR EGLL 261920Z 05007KT 9999 FEW039 15/12 Q1011 NOSIG=
201408261850 METAR EGLL 261850Z 05008KT 020V080 9999 FEW023 SCT041 16/12
                        Q1010 NOSIG=
201408261820 METAR EGLL 261820Z AUTO 05008KT 9999 SCT020 OVC030 16/12
                        Q1009=
201408261750 METAR EGLL 261750Z 05008KT 010V070 9999 FEW020 SCT035 16/13
                        Q1009 NOSIG=
201408261720 METAR COR EGLL 261720Z 05006KT 010V070 9999 FEW031 BKN039
                        16/14 Q1009 NOSIG=
201408261650 METAR EGLL 261650Z 05007KT 9999 FEW016 SCT026 16/13 Q1008=
201408261620 METAR COR EGLL 261620Z 04008KT 360V070 9999 SCT015 SCT017
                        16/14 Q1008 NOSIG=
201408261550 METAR EGLL 261550Z 05008KT 010V080 9999 FEW017 SCT033 17/14
                        Q1008 NOSIG=
201408261520 METAR COR EGLL 261520Z 08008KT 9999 FEW015 BKN048 17/13 Q1007
                        NOSIG=
201408261450 METAR COR EGLL 261450Z 06011KT 9999 FEW019 BKN043 17/14 Q1007
                        NOSIG=
201408261420 METAR COR EGLL 261420Z 06012KT 9999 FEW014 BKN042 17/14 Q1007
                        NOSIG=
201408261350 METAR COR EGLL 261350Z 06010KT 9999 FEW008 BKN036 16/14 Q1007
                        NOSIG=
201408261320 METAR COR EGLL 261320Z 07011KT 9999 -RADZ FEW007 SCT008 BKN023
                        16/14 Q1006 NOSIG=
201408261250 METAR COR EGLL 261250Z 06010KT 6000 -RADZ SCT008 BKN010 16/15
                        Q1006 BECMG NSW SCT008 BKN020=
201408261220 METAR COR EGLL 261220Z 07008KT 6000 -RADZ FEW005 SCT008 BKN011
                        16/15 Q1006 TEMPO 4000 RADZ BKN008=
201408261150 METAR EGLL 261150Z 06008KT 040V100 6000 -RADZ FEW005 SCT008
                        BKN010 16/15 Q1005 RERA REDZ=
201408261120 METAR EGLL 261120Z 09008KT 4000 RADZ SCT008 BKN012 16/15
                        Q1005=
201408261050 METAR COR EGLL 261050Z 07009KT 8000 3700NE -RA BKN012 16/15
                        Q1005 RERA REDZ TEMPO 4000 RADZ BKN008=
201408261020 METAR EGLL 261020Z 07011KT 4000 1800SW RADZ BKN008 16/15
                        Q1004=
201408260950 METAR EGLL 260950Z AUTO 08009KT 4000 +DZ FEW006/// OVC008///
                        //////CB 16/15 Q1004=
201408260920 METAR COR EGLL 260920Z 06009KT 9999 -RA SCT006 SCT008 16/15
                        Q1003 TEMPO 4500 -DZRA BKN008=
201408260850 METAR COR EGLL 260850Z 06008KT 9999 SCT006 SCT008 16/15 Q1003
                        TEMPO 4000 DZRA BKN008=
201408260820 METAR COR EGLL 260820Z 05006KT 9999 FEW006 BKN010 17/15 Q1003
                        TEMPO RA BKN006=
201408260750 METAR COR EGLL 260750Z 08005KT 9999 SCT017 SCT033 16/15 Q1003
                        TEMPO BKN010=
201408260720 METAR EGLL 260720Z 12006KT 9999 FEW007 SCT010 BKN017 16/15
                        Q1002=
201408260650 METAR COR EGLL 260650Z 08004KT 050V140 9000 FEW010 BKN012
                        16/15 Q1002 NOSIG=
201408260620 METAR COR EGLL 260620Z VRB02KT 9000 SCT008 SCT010 15/14 Q1001
                        TEMPO BKN008=
201408260550 METAR COR EGLL 260550Z 00000KT 8000 FEW006 BKN008 15/14 Q1001
                        TEMPO 4000 BR BKN006=
201408260520 METAR COR EGLL 260520Z VRB03KT 6000 FEW004 BKN005 15/14 Q1001
                        TEMPO 3000 BR FEW050 BKN020=
201408260450 METAR COR EGLL 260450Z 36002KT 4100 BR FEW006 15/14 Q1001
                        TEMPO 3000 BR BKN004=
201408260420 METAR COR EGLL 260420Z 21003KT 7000 FEW002 15/14 Q1001 TEMPO
                        3000 BR BKN004=
201408260350 METAR COR EGLL 260350Z 24003KT 6000 2500S FEW002 14/14 Q1001
                        TEMPO 3000 BR BKN004=
201408260320 METAR COR EGLL 260320Z 31003KT 6000 FEW004 15/14 Q1001 TEMPO
                        3000 BR BKN004=
201408260250 METAR COR EGLL 260250Z 25005KT 8000 FEW008 15/14 Q1001 TEMPO
                        BKN008=
201408260220 METAR COR EGLL 260220Z 20004KT 8000 FEW004 SCT006 15/15 Q1001
                        TEMPO 3000 BKN003=
201408260150 METAR EGLL 260150Z 00000KT 8000 BKN006 15/14 Q1001 TEMPO
                        3000 BR FEW006=
201408260120 METAR EGLL 260120Z AUTO VRB02KT 7000 BKN005 15/14 Q1001=
201408260050 METAR EGLL 260050Z AUTO VRB02KT 9999 FEW006 15/14 Q1001=
201408260020 METAR EGLL 260020Z AUTO 24003KT 9999 NCD 15/14 Q1001=
201408252350 METAR COR EGLL 252350Z 23005KT 9999 FEW006 15/14 Q1001 TEMPO
                        BKN006=
201408252320 METAR COR EGLL 252320Z 23007KT 9999 FEW008 16/15 Q1001 TEMPO
                        BKN008=
201408252250 METAR EGLL 252250Z 23006KT 9000 FEW008 16/15 Q1001 TEMPO
                        BKN008=
201408252220 METAR COR EGLL 252220Z 23007KT 9000 FEW046 16/15 Q1001 TEMPO
                        BKN008=
201408252150 METAR COR EGLL 252150Z 24009KT 9999 FEW008 16/15 Q1001 TEMPO
                        RADZ BKN008=
201408252120 METAR COR EGLL 252120Z 24009KT 9999 FEW008 16/15 Q1001 TEMPO
                        RADZ BKN008=
201408252050 METAR COR EGLL 252050Z 23007KT 170V260 9999 FEW006 17/16
                        Q1001 TEMPO RADZ BKN008=
201408252020 METAR COR EGLL 252020Z 21007KT 9999 FEW006 17/16 Q1001 TEMPO
                        RADZ BKN008=
201408251950 METAR COR EGLL 251950Z 20007KT 170V230 9999 SCT008 SCT032
                        17/16 Q1001 TEMPO FEW008 SCT030=
201408251920 METAR COR EGLL 251920Z 21006KT 9999 -DZ BKN006 BKN024 17/16
                        Q1001 RERA REDZ TEMPO FEW008 BKN020=
201408251850 METAR COR EGLL 251850Z 14006KT 6000 RADZ SCT002 BKN006 BKN010
                        17/16 Q1001 TEMPO 4000 RADZ BKN008=
201408251820 METAR COR EGLL 251820Z 12006KT 5000 -RADZ FEW002 SCT006 BKN020
                        17/16 Q1001 TEMPO 4000 RADZ BKN008=
201408251750 METAR EGLL 251750Z 11004KT 5000 -RADZ SCT002 BKN019 17/16
                        Q1001 REDZ RERA=
201408251720 METAR COR EGLL 251720Z 16004KT 3800 RADZ FEW002 BKN006 17/16
                        Q1002 REDZ BECMG 6000 -RA BKN012=
201408251650 METAR COR EGLL 251650Z 14003KT 7000 -RADZ SCT006 BKN020 17/16
                        Q1002 TEMPO 4000 RADZ BKN012=
201408251620 METAR COR EGLL 251620Z 16005KT 7000 -RADZ SCT007 BKN012 17/16
                        Q1003 TEMPO 4000 RADZ BKN008=
201408251550 METAR COR EGLL 251550Z 13005KT 9999 -RADZ SCT007 BKN020 17/16
                        Q1003 TEMPO 4000 RADZ BKN012=
201408251520 METAR COR EGLL 251520Z 11005KT 9999 -RADZ SCT005 BKN022 17/16
                        Q1004 TEMPO 4000 RADZ BKN012=
201408251450 METAR EGLL 251450Z 12005KT 9999 6000E -RADZ SCT004 SCT010
                        17/15 Q1004 TEMPO BKN008=
201408251420 METAR COR EGLL 251420Z 11009KT 9999 -RADZ SCT004 SCT008 17/16
                        Q1005 RERA TEMPO RADZ BKN008=
201408251350 METAR EGLL 251350Z 11007KT 8000 RA SCT004 BKN009 17/16 Q1005
                        TEMPO 4000 +RADZ=
201408251320 METAR COR EGLL 251320Z 11006KT 7000 RA FEW006 SCT025 17/16
                        Q1006 REDZ TEMPO 4000 RADZ BKN008=
201408251250 METAR COR EGLL 251250Z 12005KT 6000 RADZ FEW005 SCT009 BKN012
                        17/15 Q1006 REDZ TEMPO 4000 +DZRA
                        BKN008=
201408251220 METAR COR EGLL 251220Z 15004KT 9000 -RA FEW005 SCT010 BKN030
                        17/16 Q1007 TEMPO 4000 DZRA BKN012=
201408251150 METAR EGLL 251150Z 16006KT 9999 -RA SCT006 BKN008 17/16 Q1007
                        TEMPO 4000 DZRA=
201408251120 METAR COR EGLL 251120Z 16004KT 9999 -RA FEW006 BKN008 16/15
                        Q1008 TEMPO 4000 DZRA=
201408251050 METAR EGLL 251050Z VRB03KT 9999 -RA SCT004 BKN007 16/15 Q1008
                        RERA REDZ TEMPO 4000 RADZ BKN004=
201408251020 METAR EGLL 251020Z 14006KT 4400 RADZ FEW003 BKN006 BKN010
                        16/15 Q1008=
201408250950 METAR COR EGLL 250950Z 11008KT 5000 RADZ FEW004 BKN007 15/14
                        Q1008 REDZ RERA TEMPO 4000 +DZRA
                        BKN004=
201408250920 METAR EGLL 250920Z 12008KT 4500 DZRA FEW006 BKN008 15/14
                        Q1009=
201408250850 METAR COR EGLL 250850Z 12008KT 9999 FEW007 BKN010 15/14 Q1009
                        TEMPO 4000 DZRA SCT004 BKN008=
201408250820 METAR COR EGLL 250820Z 12009KT 9999 FEW008 SCT010 BKN015
                        15/14 Q1009 REDZ TEMPO 4000 RADZ
                        SCT006 BKN012=
201408250750 METAR COR EGLL 250750Z 10007KT 5000 DZ FEW006 SCT007 BKN020
                        14/13 Q1010 TEMPO 4000 DZRA SCT004
                        BKN008=
201408250720 METAR COR EGLL 250720Z 11008KT 6000 -RADZ SCT009 BKN013 14/13
                        Q1010 TEMPO 4000 RADZ BKN008=
201408250650 METAR COR EGLL 250650Z 11007KT 9000 -RA FEW009 SCT014 BKN021
                        14/13 Q1010 TEMPO 4000 RADZ BKN008=
201408250620 METAR COR EGLL 250620Z 12008KT 8000 -RA SCT015 BKN022 14/12
                        Q1011 TEMPO 4000 RADZ BKN014=
201408250550 METAR COR EGLL 250550Z 11007KT 9000 -RA FEW016 BKN031 14/12
                        Q1011 TEMPO 4000 RADZ BKN014=
201408250520 METAR COR EGLL 250520Z 12007KT 7000 -RA BKN020 BKN040 14/12
                        Q1011 TEMPO 4000 RADZ BKN014=
201408250450 METAR COR EGLL 250450Z 11006KT 9999 -DZ SCT020 BKN030 14/12
                        Q1012 TEMPO BKN014=
201408250420 METAR COR EGLL 250420Z 10005KT 9999 FEW025 BKN035 13/11 Q1012
                        TEMPO BKN014=
201408250350 METAR COR EGLL 250350Z 11005KT 9999 -DZ SCT035 BKN040 13/11
                        Q1012 TEMPO BKN014=
201408250320 METAR COR EGLL 250320Z 13005KT 9999 -RA FEW040 13/11 Q1013
                        NOSIG=
201408250250 METAR EGLL 250250Z 13004KT 9999 FEW040 13/10 Q1013 NOSIG=
201408250220 METAR COR EGLL 250220Z 13006KT CAVOK 13/10 Q1014 NOSIG=
201408250150 METAR EGLL 250150Z 12005KT CAVOK 13/10 Q1014 NOSIG=
201408250120 METAR EGLL 250120Z AUTO 13005KT 9999 -RA NCD 13/10 Q1015=
201408250050 METAR EGLL 250050Z AUTO 14004KT 9999 NCD 14/09 Q1015=
201408250020 METAR EGLL 250020Z AUTO 14003KT 9999 NCD 14/09 Q1015=
201408242350 METAR EGLL 242350Z 15004KT CAVOK 14/09 Q1015 NOSIG=
201408242320 METAR COR EGLL 242320Z 15004KT CAVOK 14/09 Q1016 NOSIG=
201408242250 METAR COR EGLL 242250Z 16004KT CAVOK 14/09 Q1016 NOSIG=
201408242220 METAR COR EGLL 242220Z 18005KT CAVOK 14/09 Q1016 NOSIG=
201408242150 METAR COR EGLL 242150Z 19006KT CAVOK 14/09 Q1016 NOSIG=
201408242120 METAR COR EGLL 242120Z 18007KT 150V210 CAVOK 15/09 Q1017
                        NOSIG=
201408242050 METAR EGLL 242050Z 17007KT 140V200 CAVOK 15/10 Q1017 NOSIG=
201408242020 METAR COR EGLL 242020Z 18007KT 150V230 CAVOK 15/10 Q1017
                        NOSIG=
201408241950 METAR EGLL 241950Z 20008KT CAVOK 15/09 Q1017 NOSIG=
201408241920 METAR COR EGLL 241920Z 20009G19KT CAVOK 16/09 Q1017 NOSIG=
201408241850 METAR EGLL 241850Z 22008KT CAVOK 16/09 Q1017 NOSIG=
201408241820 METAR COR EGLL 241820Z 21009KT CAVOK 17/09 Q1017 NOSIG=
201408241750 METAR EGLL 241750Z 20010KT 9999 FEW042 17/08 Q1017 NOSIG=
201408241720 METAR COR EGLL 241720Z 21009KT 180V250 9999 FEW043 18/08
                        Q1017 NOSIG=
201408241650 METAR EGLL 241650Z 20007KT 170V240 9999 FEW048 18/07 Q1017
                        NOSIG=
201408241620 METAR COR EGLL 241620Z 24006KT 200V360 9999 FEW048 18/07
                        Q1017 NOSIG=
201408241550 METAR EGLL 241550Z 23005KT 190V260 9999 FEW048 18/06 Q1017
                        NOSIG=
201408241520 METAR COR EGLL 241520Z 27005KT 230V360 9999 FEW048 18/06
                        Q1017 NOSIG=
201408241450 METAR EGLL 241450Z 24007KT 210V290 9999 FEW048 18/07 Q1018
                        NOSIG=
201408241420 METAR COR EGLL 241420Z 22008KT 180V260 9999 SCT047 18/07
                        Q1018 NOSIG=
201408241350 METAR EGLL 241350Z 22009KT 180V260 9999 FEW049 17/07 Q1019
                        NOSIG=
201408241320 METAR COR EGLL 241320Z VRB06KT 9999 FEW048 17/06 Q1019 NOSIG=
201408241250 METAR COR EGLL 241250Z 26006KT 200V350 9999 SCT048 18/07
                        Q1019 NOSIG=
201408241220 METAR COR EGLL 241220Z 27007KT 9999 SCT047 17/07 Q1019 NOSIG=
201408241150 METAR COR EGLL 241150Z 25008KT 210V290 9999 FEW040 16/07
                        Q1019 NOSIG=
201408241120 METAR COR EGLL 241120Z 24006G16KT 190V350 9999 FEW037 17/08
                        Q1019 NOSIG=
201408241050 METAR EGLL 241050Z 25008KT 180V290 9999 FEW035 17/08 Q1019
                        NOSIG=
201408241020 METAR COR EGLL 241020Z 25006KT 190V290 9999 FEW032 16/08
                        Q1019 NOSIG=
201408240950 METAR EGLL 240950Z VRB06KT 9999 FEW028 15/08 Q1020 NOSIG=
201408240920 METAR COR EGLL 240920Z 22007KT 140V260 9999 FEW020 14/09
                        Q1020 NOSIG=
201408240850 METAR EGLL 240850Z 21005KT 150V300 CAVOK 14/09 Q1020 NOSIG=
201408240820 METAR COR EGLL 240820Z VRB02KT CAVOK 13/09 Q1020 NOSIG=
201408240750 METAR EGLL 240750Z VRB03KT CAVOK 11/09 Q1020 NOSIG=
201408240720 METAR COR EGLL 240720Z 30002KT CAVOK 10/08 Q1020 NOSIG=
201408240650 METAR EGLL 240650Z 29004KT CAVOK 10/08 Q1020 NOSIG=
201408240620 METAR COR EGLL 240620Z 27005KT CAVOK 09/08 Q1020 NOSIG=
201408240550 METAR COR EGLL 240550Z 26004KT CAVOK 08/07 Q1020 NOSIG=
201408240520 METAR COR EGLL 240520Z 27004KT 240V300 CAVOK 07/06 Q1019
                        NOSIG=
201408240450 METAR COR EGLL 240450Z 27005KT CAVOK 07/06 Q1019 NOSIG=
201408240420 METAR COR EGLL 240420Z 27004KT CAVOK 08/06 Q1019 NOSIG=
201408240350 METAR COR EGLL 240350Z VRB02KT CAVOK 08/07 Q1019 NOSIG=
201408240320 METAR COR EGLL 240320Z VRB02KT CAVOK 08/07 Q1019 NOSIG=
201408240250 METAR COR EGLL 240250Z VRB02KT CAVOK 08/07 Q1019 NOSIG=
201408240220 METAR COR EGLL 240220Z 28003KT CAVOK 08/07 Q1019 NOSIG=
201408240150 METAR EGLL 240150Z AUTO 29004KT 9999 NCD 08/07 Q1019=
201408240120 METAR EGLL 240120Z AUTO 28003KT 9999 NCD 09/07 Q1019=
201408240050 METAR EGLL 240050Z AUTO 27005KT 9999 NCD 09/07 Q1019=
201408240020 METAR EGLL 240020Z 28006KT CAVOK 09/07 Q1019=
201408232350 METAR EGLL 232350Z 27005KT CAVOK 09/07 Q1019=
201408232320 METAR COR EGLL 232320Z 27005KT CAVOK 10/08 Q1019 NOSIG=
201408232250 METAR EGLL 232250Z 28006KT CAVOK 10/07 Q1019 NOSIG=
201408232220 METAR COR EGLL 232220Z 27006KT CAVOK 11/08 Q1018 NOSIG=
201408232150 METAR COR EGLL 232150Z 28005KT CAVOK 11/08 Q1018 NOSIG=
201408232120 METAR COR EGLL 232120Z 29005KT CAVOK 12/08 Q1018 NOSIG=
201408232050 METAR EGLL 232050Z 28005KT CAVOK 12/08 Q1018 NOSIG=
201408232020 METAR COR EGLL 232020Z 29004KT CAVOK 12/08 Q1018 NOSIG=
201408231950 METAR EGLL 231950Z 27007KT CAVOK 13/08 Q1017 NOSIG=
201408231920 METAR COR EGLL 231920Z 30005KT CAVOK 14/07 Q1017 NOSIG=
201408231850 METAR COR EGLL 231850Z 29007KT CAVOK 15/07 Q1017 NOSIG=
201408231820 METAR COR EGLL 231820Z 29007KT CAVOK 16/07 Q1016 NOSIG=
201408231750 METAR COR EGLL 231750Z 29007KT CAVOK 15/07 Q1016 NOSIG=
201408231720 METAR COR EGLL 231720Z 30007KT CAVOK 15/07 Q1016 NOSIG=
201408231650 METAR EGLL 231650Z 32007KT 290V350 9999 FEW048CB 15/08 Q1016
                        TEMPO SHRA=
201408231620 METAR COR EGLL 231620Z 35008KT 300V020 9999 VCSH SCT049CB
                        14/09 Q1016 TEMPO SHRA=
201408231550 METAR COR EGLL 231550Z 26012KT 9999 VCSH FEW048CB 17/05 Q1015
                        TEMPO SHRA=
201408231520 METAR COR EGLL 231520Z 26012KT CAVOK 18/05 Q1015 TEMPO SHRA=
201408231450 METAR EGLL 231450Z 27012KT CAVOK 18/04 Q1015 TEMPO SHRA=
201408231420 METAR COR EGLL 231420Z 28011KT 250V320 CAVOK 18/05 Q1015
                        NOSIG=
201408231350 METAR EGLL 231350Z 27012KT 240V310 9999 FEW048 18/05 Q1015
                        NOSIG=
201408231320 METAR COR EGLL 231320Z 26012KT 9999 FEW048 17/05 Q1015 NOSIG=
201408231250 METAR EGLL 231250Z 27011KT 9999 FEW048 18/05 Q1015 NOSIG=
201408231220 METAR COR EGLL 231220Z 29010KT 250V340 9999 FEW048 18/05
                        Q1015 NOSIG=
201408231150 METAR COR EGLL 231150Z 27012KT 9999 FEW048 17/05 Q1015 NOSIG=
201408231120 METAR COR EGLL 231120Z 28010KT 250V320 9999 FEW048 17/06
                        Q1015 NOSIG=
201408231050 METAR EGLL 231050Z 29010KT 9999 SCT036 16/06 Q1015 NOSIG=
201408231020 METAR COR EGLL 231020Z 26010KT 9999 SCT031 17/08 Q1015 NOSIG=
201408230950 METAR COR EGLL 230950Z 26011KT 9999 BKN028 15/08 Q1015 NOSIG=
201408230920 METAR COR EGLL 230920Z 27011KT 9999 FEW028 15/09 Q1015 NOSIG=
201408230850 METAR EGLL 230850Z 27008KT 240V310 9999 FEW025 14/09 Q1015
                        NOSIG=
201408230820 METAR COR EGLL 230820Z 27008KT 240V310 9999 FEW025 13/09
                        Q1015 NOSIG=
201408230750 METAR COR EGLL 230750Z 29007KT 9999 FEW025 12/09 Q1015 NOSIG=
201408230720 METAR COR EGLL 230720Z 26008KT CAVOK 12/09 Q1015 NOSIG=
201408230650 METAR EGLL 230650Z 27007KT 9999 FEW040 11/08 Q1015=
201408230620 METAR COR EGLL 230620Z 27006KT 9999 FEW040 10/08 Q1015 NOSIG=
201408230550 METAR COR EGLL 230550Z 26006KT CAVOK 09/08 Q1015 NOSIG=
201408230520 METAR COR EGLL 230520Z 27005KT CAVOK 08/07 Q1014 NOSIG=
201408230450 METAR COR EGLL 230450Z 27005KT CAVOK 09/08 Q1014 NOSIG=
201408230420 METAR COR EGLL 230420Z 27005KT CAVOK 09/07 Q1014 NOSIG=
201408230350 METAR COR EGLL 230350Z 27006KT CAVOK 09/08 Q1014 NOSIG=
201408230320 METAR COR EGLL 230320Z 28005KT CAVOK 10/07 Q1014 NOSIG=
201408230250 METAR EGLL 230250Z 29004KT CAVOK 10/08 Q1014 NOSIG=
201408230220 METAR EGLL 230220Z 31003KT CAVOK 11/08 Q1014=
201408230150 METAR EGLL 230150Z 30003KT CAVOK 11/08 Q1014 NOSIG=
201408230120 METAR EGLL 230120Z AUTO 30004KT 9999 NCD 11/08 Q1014=
201408230050 METAR EGLL 230050Z AUTO 30004KT 9999 NCD 12/08 Q1014=
201408230020 METAR EGLL 230020Z AUTO 30005KT 9999 NCD 12/08 Q1014=
201408222350 METAR COR EGLL 222350Z 28004KT CAVOK 12/08 Q1014 NOSIG=
201408222320 METAR COR EGLL 222320Z 30003KT CAVOK 12/09 Q1014 NOSIG=
201408222250 METAR EGLL 222250Z 29002KT CAVOK 13/10 Q1014 NOSIG=
201408222220 METAR COR EGLL 222220Z 30003KT CAVOK 13/10 Q1014 NOSIG=
201408222150 METAR COR EGLL 222150Z 29004KT 9999 FEW049 13/11 Q1014 NOSIG=
201408222120 METAR EGLL 222120Z 30006KT 9999 FEW048 13/11 Q1014=
201408222050 METAR COR EGLL 222050Z 31003KT 9999 FEW049 14/11 Q1013 NOSIG=
201408222020 METAR COR EGLL 222020Z VRB02KT 9999 FEW040 14/10 Q1013 RESHRA
                        NOSIG=
201408221950 METAR COR EGLL 221950Z 28012KT 5000 SHRA FEW010 SCT016CB
                        BKN033 14/10 Q1013 BECMG NSW=
201408221920 METAR COR EGLL 221920Z 35006KT 320V020 9999 FEW049 17/07
                        Q1012 NOSIG=
201408221850 METAR EGLL 221850Z 31006KT 9999 FEW049 17/07 Q1012 NOSIG=
201408221820 METAR COR EGLL 221820Z 30006KT 280V340 CAVOK 17/07 Q1012
                        NOSIG=
201408221750 METAR EGLL 221750Z 28010KT 270V330 9999 FEW048 18/07 Q1012
                        NOSIG=
201408221720 METAR COR EGLL 221720Z 29009KT 9999 FEW048 18/08 Q1011 NOSIG=
201408221650 METAR EGLL 221650Z 31006KT 280V340 9999 FEW035 19/07 Q1011
                        NOSIG=
201408221620 METAR EGLL 221620Z 29010KT 260V330 CAVOK 19/07 Q1011=
201408221550 METAR EGLL 221550Z 30008KT 260V340 CAVOK 20/07 Q1011 NOSIG=
201408221520 METAR COR EGLL 221520Z 30010KT CAVOK 20/07 Q1011 NOSIG=
201408221450 METAR COR EGLL 221450Z 29008KT 270V360 CAVOK 19/06 Q1011
                        NOSIG=
201408221420 METAR COR EGLL 221420Z 28009KT 250V320 CAVOK 20/07 Q1011
                        TEMPO SHRA=
201408221350 METAR EGLL 221350Z 27013KT CAVOK 19/06 Q1011 TEMPO SHRA=
201408221320 METAR COR EGLL 221320Z 26012KT 9999 FEW048 20/07 Q1011 NOSIG=
201408221250 METAR EGLL 221250Z 27012KT 9999 FEW048 19/08 Q1011 NOSIG=
201408221220 METAR COR EGLL 221220Z 27014KT 9999 FEW040 19/07 Q1011 NOSIG=
201408221150 METAR EGLL 221150Z 30008KT 270V340 9999 SCT035 18/07 Q1011
                        NOSIG=
201408221120 METAR COR EGLL 221120Z 27011KT 250V320 9999 SCT037 17/09
                        Q1011 NOSIG=
201408221050 METAR EGLL 221050Z 27011KT 9999 SCT031 18/10 Q1011 NOSIG=
201408221020 METAR COR EGLL 221020Z 27011KT 9999 SCT021 16/10 Q1011 NOSIG=
201408220950 METAR EGLL 220950Z 28010KT 9999 SCT019 16/11 Q1011 NOSIG=
201408220920 METAR COR EGLL 220920Z 28009KT 250V310 9999 FEW012 15/11
                        Q1010 NOSIG=
201408220850 METAR EGLL 220850Z 28010KT 9999 FEW017 SCT023 15/11 Q1010
                        NOSIG=
201408220820 METAR COR EGLL 220820Z 28009KT 9999 FEW014 14/11 Q1010 NOSIG=
201408220750 METAR EGLL 220750Z 28011KT 9999 SCT014 14/11 Q1010 BECMG
                        FEW014 BKN020=
201408220720 METAR COR EGLL 220720Z 28009KT 9999 BKN013 13/11 Q1010 TEMPO
                        FEW010 BKN020=
201408220650 METAR COR EGLL 220650Z 27010KT 9999 BKN014 13/11 Q1010 TEMPO
                        SCT014 BKN020=
201408220620 METAR COR EGLL 220620Z 27009KT 9999 VCSH FEW015 SCT028 13/10
                        Q1009 TEMPO BKN014=
201408220550 METAR EGLL 220550Z 25009KT 9999 VCSH NSC 13/10 Q1009 TEMPO
                        BKN012=
201408220520 METAR COR EGLL 220520Z 25008KT CAVOK 13/10 Q1009 TEMPO BKN012=
201408220450 METAR COR EGLL 220450Z 24006KT CAVOK 13/10 Q1009 NOSIG=
201408220420 METAR COR EGLL 220420Z 23008KT CAVOK 13/10 Q1009 NOSIG=
201408220350 METAR COR EGLL 220350Z 24008KT CAVOK 12/10 Q1009 NOSIG=
201408220320 METAR COR EGLL 220320Z 22007KT CAVOK 12/09 Q1010 NOSIG=
201408220250 METAR COR EGLL 220250Z 23008KT CAVOK 13/09 Q1010 NOSIG=
201408220220 METAR COR EGLL 220220Z 23007KT CAVOK 13/09 Q1010 NOSIG=
201408220150 METAR EGLL 220150Z 23008KT 9999 FEW038 13/09 Q1011 NOSIG=
201408220120 METAR EGLL 220120Z AUTO 22008KT 9999 NCD 13/09 Q1011=
201408220050 METAR EGLL 220050Z AUTO 21007KT 9999 NCD 13/09 Q1011=
201408220020 METAR EGLL 220020Z AUTO 23010KT 9999 SCT041 13/09 Q1011=
201408212350 METAR COR EGLL 212350Z 23008KT 9999 FEW040 14/09 Q1012 NOSIG=
201408212320 METAR COR EGLL 212320Z 23008KT 9999 FEW045 14/09 Q1012 NOSIG=
201408212250 METAR COR EGLL 212250Z 23007KT CAVOK 14/09 Q1012 NOSIG=
201408212220 METAR COR EGLL 212220Z 22009KT CAVOK 14/09 Q1012 NOSIG=
201408212150 METAR EGLL 212150Z 22008KT CAVOK 14/09 Q1012 NOSIG=
201408212120 METAR COR EGLL 212120Z 23009KT 9999 FEW049 14/09 Q1012 NOSIG=
201408212050 METAR COR EGLL 212050Z 22009KT 9999 FEW042 15/09 Q1013 NOSIG=
201408212020 METAR COR EGLL 212020Z 22010KT 9999 FEW036 15/09 Q1013 NOSIG=
201408211950 METAR COR EGLL 211950Z 22008KT 9999 FEW043 15/09 Q1013 NOSIG=
201408211920 METAR COR EGLL 211920Z 22009KT CAVOK 15/09 Q1013 NOSIG=
201408211850 METAR EGLL 211850Z 22011KT 9999 FEW048 15/09 Q1013 NOSIG=
201408211820 METAR COR EGLL 211820Z 22010KT 190V250 9999 FEW048 16/09
                        Q1013 NOSIG=
201408211750 METAR COR EGLL 211750Z 23009KT 9999 FEW045 15/08 Q1013 NOSIG=
201408211720 METAR COR EGLL 211720Z 24007KT 9999 FEW048 15/08 Q1013 NOSIG=
201408211650 METAR EGLL 211650Z 25014KT 9999 FEW048 15/08 Q1014=
201408211620 METAR COR EGLL 211620Z 24010KT 210V280 9999 VCSH FEW042 SCT048
                        16/08 Q1014 NOSIG=
201408211550 METAR EGLL 211550Z 28007KT 240V310 9999 FEW047 16/09 Q1014
                        NOSIG=
201408211520 METAR COR EGLL 211520Z 26012KT 9999 FEW047 16/09 Q1014 NOSIG=
201408211450 METAR COR EGLL 211450Z 25014KT 9999 FEW048 16/08 Q1014 NOSIG=
201408211420 METAR COR EGLL 211420Z 24015KT 9999 SCT043 17/08 Q1014 NOSIG=
201408211350 METAR COR EGLL 211350Z 24017KT 9999 SCT043 17/08 Q1015 NOSIG=
201408211320 METAR COR EGLL 211320Z 25016KT 9999 SCT039 SCT043 17/08 Q1015
                        NOSIG=
201408211250 METAR EGLL 211250Z 25016KT 9999 SCT046 16/07 Q1015 NOSIG=
201408211220 METAR COR EGLL 211220Z 26015KT 9999 SCT042 17/07 Q1015 NOSIG=
201408211150 METAR EGLL 211150Z 24014KT 9999 FEW042 16/08 Q1015 NOSIG=
201408211120 METAR COR EGLL 211120Z 25011KT 190V290 9999 SCT041 17/07
                        Q1015 NOSIG=
201408211050 METAR COR EGLL 211050Z 27012KT 230V290 9999 FEW040 17/07
                        Q1016 NOSIG=
201408211020 METAR COR EGLL 211020Z 25010KT 200V280 9999 FEW037 17/06
                        Q1016 NOSIG=
201408210950 METAR EGLL 210950Z 26012KT 9999 FEW036 16/07 Q1016 NOSIG=
201408210920 METAR COR EGLL 210920Z 23009KT 190V270 9999 FEW030 15/08
                        Q1016 NOSIG=
201408210850 METAR EGLL 210850Z 23007KT 210V300 9999 FEW024 15/08 Q1016
                        NOSIG=
201408210820 METAR COR EGLL 210820Z 22006KT 160V270 9999 FEW016 14/08
                        Q1016 NOSIG=
201408210750 METAR COR EGLL 210750Z 24005KT 210V280 CAVOK 12/08 Q1016
                        NOSIG=
201408210720 METAR COR EGLL 210720Z 29005KT CAVOK 11/08 Q1017 NOSIG=
201408210650 METAR EGLL 210650Z 28006KT CAVOK 10/08 Q1017 NOSIG=
201408210620 METAR COR EGLL 210620Z 29005KT CAVOK 09/07 Q1017 NOSIG=
201408210550 METAR EGLL 210550Z 27003KT CAVOK 08/07 Q1017 NOSIG=
201408210520 METAR COR EGLL 210520Z 28003KT CAVOK 08/07 Q1017 NOSIG=
201408210450 METAR EGLL 210450Z 26006KT CAVOK 07/06 Q1017 NOSIG=
201408210420 METAR COR EGLL 210420Z 27005KT CAVOK 07/06 Q1017 NOSIG=
201408210350 METAR EGLL 210350Z 26003KT CAVOK 08/06 Q1017 NOSIG=
201408210320 METAR COR EGLL 210320Z 25003KT CAVOK 08/06 Q1017 NOSIG=
201408210250 METAR EGLL 210250Z 25002KT CAVOK 08/07 Q1017 NOSIG=
201408210220 METAR COR EGLL 210220Z 28003KT CAVOK 08/07 Q1017 NOSIG=
201408210150 METAR EGLL 210150Z 00000KT CAVOK 09/07 Q1017 NOSIG=
201408210120 METAR EGLL 210120Z AUTO 30003KT 9999 NCD 10/08 Q1017=
201408210050 METAR EGLL 210050Z AUTO 29004KT 9999 NCD 10/08 Q1018=
201408210020 METAR EGLL 210020Z AUTO 28006KT 9999 NCD 10/08 Q1018=
201408202350 METAR EGLL 202350Z 28005KT CAVOK 11/08 Q1018=
201408202320 METAR COR EGLL 202320Z 29004KT CAVOK 11/07 Q1018 NOSIG=
201408202250 METAR COR EGLL 202250Z 26004KT CAVOK 11/08 Q1018 NOSIG=
201408202220 METAR COR EGLL 202220Z 30004KT CAVOK 12/07 Q1018 NOSIG=
201408202150 METAR COR EGLL 202150Z 30004KT CAVOK 13/07 Q1018 NOSIG=
201408202120 METAR COR EGLL 202120Z 30003KT CAVOK 13/07 Q1018 NOSIG=
201408202050 METAR EGLL 202050Z VRB02KT CAVOK 13/07 Q1017 NOSIG=
201408202020 METAR COR EGLL 202020Z 31004KT CAVOK 14/07 Q1017 NOSIG=
201408201950 METAR COR EGLL 201950Z 30004KT 9999 FEW048 14/07 Q1017 NOSIG=
201408201920 METAR COR EGLL 201920Z 31005KT 9999 FEW048 15/06 Q1017 NOSIG=
201408201850 METAR COR EGLL 201850Z 30005KT 9999 FEW048 16/06 Q1017 NOSIG=
201408201820 METAR COR EGLL 201820Z 31007KT 270V350 CAVOK 17/05 Q1016
                        NOSIG=
201408201750 METAR COR EGLL 201750Z 31006KT CAVOK 17/05 Q1016 NOSIG=
201408201720 METAR COR EGLL 201720Z 30006KT CAVOK 16/05 Q1016 NOSIG=
201408201650 METAR COR EGLL 201650Z 28011KT CAVOK 17/04 Q1016 NOSIG=
201408201620 METAR COR EGLL 201620Z 34004KT 290V050 CAVOK 18/05 Q1016
                        NOSIG=
201408201550 METAR EGLL 201550Z 32005KT 280V360 9999 FEW048 18/04 Q1016
                        NOSIG=
201408201520 METAR COR EGLL 201520Z 30008KT 250V340 9999 FEW048 17/05
                        Q1017 NOSIG=
201408201450 METAR COR EGLL 201450Z 27011KT 9999 FEW048 17/05 Q1017 NOSIG=
201408201420 METAR COR EGLL 201420Z 28010KT 9999 FEW044 16/05 Q1017 NOSIG=
201408201350 METAR COR EGLL 201350Z 30008KT 260V320 9999 FEW048 17/05
                        Q1017 NOSIG=
201408201320 METAR COR EGLL 201320Z 30006KT 280V340 9999 FEW049 16/05
                        Q1017 NOSIG=
201408201250 METAR COR EGLL 201250Z 30008KT 260V320 9999 FEW049 17/05
                        Q1017 NOSIG=
201408201220 METAR COR EGLL 201220Z 30009KT 9999 SCT045 16/06 Q1017 NOSIG=
201408201150 METAR EGLL 201150Z 28009KT 9999 SCT044TCU 17/07 Q1017 NOSIG=
201408201120 METAR COR EGLL 201120Z 28009KT 240V320 9999 SCT046 16/06
                        Q1017 NOSIG=
201408201050 METAR EGLL 201050Z 30007KT 270V340 9999 BKN040 16/07 Q1017
                        NOSIG=
201408201020 METAR COR EGLL 201020Z 27007KT 230V320 9999 SCT039 16/07
                        Q1017 NOSIG=
201408200950 METAR EGLL 200950Z 27008KT 240V300 9999 FEW037 16/07 Q1017
                        NOSIG=
201408200920 METAR COR EGLL 200920Z 28008KT 250V330 9999 FEW030 15/07
                        Q1017 NOSIG=
201408200850 METAR EGLL 200850Z 29005KT 240V320 9999 FEW024 14/08 Q1017
                        NOSIG=
201408200820 METAR COR EGLL 200820Z 31005KT 250V360 CAVOK 13/08 Q1017
                        NOSIG=
201408200750 METAR EGLL 200750Z 31005KT 280V340 CAVOK 12/08 Q1017 NOSIG=
201408200720 METAR EGLL 200720Z 32005KT 290V350 CAVOK 11/08 Q1017=
201408200650 METAR COR EGLL 200650Z 30004KT 270V350 CAVOK 10/08 Q1017
                        NOSIG=
201408200620 METAR COR EGLL 200620Z 30004KT CAVOK 10/07 Q1017 NOSIG=
201408200550 METAR COR EGLL 200550Z 28006KT CAVOK 08/07 Q1017 NOSIG=
201408200520 METAR COR EGLL 200520Z 28003KT CAVOK 08/07 Q1017 NOSIG=
201408200450 METAR EGLL 200450Z 27005KT CAVOK 08/07 Q1017 NOSIG=
201408200420 METAR COR EGLL 200420Z 27006KT CAVOK 08/06 Q1017 NOSIG=
201408200350 METAR COR EGLL 200350Z 26004KT CAVOK 09/07 Q1017 NOSIG=
201408200320 METAR COR EGLL 200320Z 27006KT CAVOK 09/07 Q1017 NOSIG=
201408200250 METAR COR EGLL 200250Z 27005KT CAVOK 09/07 Q1016 NOSIG=
201408200220 METAR COR EGLL 200220Z 29005KT CAVOK 09/07 Q1016 NOSIG=
201408200150 METAR EGLL 200150Z 28006KT CAVOK 09/07 Q1016 NOSIG=
201408200120 METAR EGLL 200120Z AUTO 28005KT 9999 NCD 10/07 Q1016=
201408200050 METAR EGLL 200050Z AUTO 28005KT 9999 NCD 10/08 Q1016=
201408200020 METAR EGLL 200020Z AUTO 28005KT 9999 NCD 10/07 Q1016=
201408192350 METAR COR EGLL 192350Z 30003KT CAVOK 09/07 Q1016 NOSIG=
201408192320 METAR COR EGLL 192320Z 29004KT CAVOK 10/07 Q1016 NOSIG=
201408192250 METAR EGLL 192250Z 28006KT CAVOK 11/07 Q1016 NOSIG=
201408192220 METAR COR EGLL 192220Z 28005KT CAVOK 11/07 Q1016 NOSIG=
201408192150 METAR COR EGLL 192150Z 27007KT CAVOK 11/08 Q1016 NOSIG=
201408192120 METAR COR EGLL 192120Z 28007KT CAVOK 11/07 Q1016 NOSIG=
201408192050 METAR COR EGLL 192050Z 27007KT CAVOK 12/08 Q1016 NOSIG=
201408192020 METAR COR EGLL 192020Z 27006KT CAVOK 12/07 Q1016 NOSIG=
201408191950 METAR COR EGLL 191950Z 27007KT CAVOK 12/07 Q1015 NOSIG=
201408191920 METAR COR EGLL 191920Z 28005KT CAVOK 13/07 Q1015 NOSIG=
201408191850 METAR EGLL 191850Z 29006KT CAVOK 15/06 Q1015 NOSIG=
201408191820 METAR COR EGLL 191820Z 29007KT CAVOK 16/06 Q1015 NOSIG=
201408191750 METAR EGLL 191750Z 27010KT 9999 FEW039 16/08 Q1014 NOSIG=
201408191720 METAR COR EGLL 191720Z 29008KT 9999 FEW041 16/07 Q1014 NOSIG=
201408191650 METAR EGLL 191650Z 26013KT 9999 -SHRA FEW030 15/09 Q1014
                        NOSIG=
201408191620 METAR COR EGLL 191620Z 26014KT 9999 FEW046 16/08 Q1014 NOSIG=
201408191550 METAR COR EGLL 191550Z 28009KT 250V310 9999 FEW046CB 17/06
                        Q1014 NOSIG=
201408191520 METAR COR EGLL 191520Z 31008KT 280V350 9999 VCSH FEW041CB
                        17/06 Q1014 NOSIG=
201408191450 METAR EGLL 191450Z 33006KT 290V010 9999 FEW044 17/06 Q1014=
201408191420 METAR COR EGLL 191420Z 31007KT 290V360 9999 FEW044 17/06
                        Q1014 NOSIG=
201408191350 METAR COR EGLL 191350Z 31007KT 270V010 9999 FEW048 17/05
                        Q1014 NOSIG=
201408191320 METAR COR EGLL 191320Z 27010KT 240V310 9999 FEW047 18/06
                        Q1014 NOSIG=
201408191250 METAR EGLL 191250Z 28011KT 240V320 9999 FEW048 17/06 Q1014=
201408191220 METAR COR EGLL 191220Z 27013KT 9999 FEW045 16/06 Q1014 NOSIG=
201408191150 METAR COR EGLL 191150Z 30010KT 270V340 9999 FEW045 16/06
                        Q1014 NOSIG=
201408191120 METAR COR EGLL 191120Z 31009KT 9999 SCT045 15/05 Q1014 NOSIG=
201408191050 METAR COR EGLL 191050Z 29011KT 270V330 9999 SCT043 15/06
                        Q1013 NOSIG=
201408191020 METAR COR EGLL 191020Z 29011KT 9999 SCT040 15/06 Q1013 NOSIG=
201408190950 METAR EGLL 190950Z 29009KT 260V340 9999 SCT040 15/06 Q1013
                        NOSIG=
201408190920 METAR COR EGLL 190920Z 30010KT 270V350 9999 FEW033 SCT039
                        14/06 Q1013 NOSIG=
201408190850 METAR EGLL 190850Z 30009KT 270V330 9999 FEW030 14/07 Q1013
                        NOSIG=
201408190820 METAR COR EGLL 190820Z 29010KT 9999 FEW028 13/06 Q1013 NOSIG=
201408190750 METAR EGLL 190750Z 30012KT 9999 FEW024 13/07 Q1012 NOSIG=
201408190720 METAR COR EGLL 190720Z 29010KT 260V330 9999 FEW020 12/07
                        Q1012 NOSIG=
201408190650 METAR EGLL 190650Z 28009KT CAVOK 12/08 Q1012 NOSIG=
201408190620 METAR COR EGLL 190620Z 27010KT CAVOK 11/08 Q1012 NOSIG=
201408190550 METAR EGLL 190550Z 27008KT CAVOK 10/08 Q1012 NOSIG=
201408190520 METAR COR EGLL 190520Z 28008KT CAVOK 10/08 Q1012 NOSIG=
201408190450 METAR EGLL 190450Z 27007KT CAVOK 10/07 Q1012 NOSIG=
201408190420 METAR COR EGLL 190420Z 28009KT CAVOK 10/07 Q1012 NOSIG=
201408190350 METAR EGLL 190350Z 27008KT CAVOK 11/07 Q1012 NOSIG=
201408190320 METAR COR EGLL 190320Z 27009KT CAVOK 10/07 Q1011 NOSIG=
201408190250 METAR COR EGLL 190250Z 28008KT CAVOK 10/07 Q1011 NOSIG=
201408190220 METAR EGLL 190220Z 27008KT CAVOK 11/07 Q1011=
201408190150 METAR EGLL 190150Z 28008KT CAVOK 11/07 Q1011 NOSIG=
201408190120 METAR EGLL 190120Z AUTO 27006KT 9999 NCD 11/07 Q1012=
201408190050 METAR EGLL 190050Z AUTO 28007KT 9999 NCD 11/07 Q1012=
201408190020 METAR EGLL 190020Z AUTO 30004KT 9999 NCD 12/07 Q1012=
201408182350 METAR EGLL 182350Z 30005KT CAVOK 12/06 Q1012 NOSIG=
201408182320 METAR COR EGLL 182320Z 31005KT CAVOK 13/06 Q1012 NOSIG=
201408182250 METAR EGLL 182250Z 31005KT CAVOK 13/07 Q1012 NOSIG=
201408182220 METAR COR EGLL 182220Z 31003KT CAVOK 13/07 Q1011 NOSIG=
201408182150 METAR COR EGLL 182150Z 30006KT CAVOK 14/08 Q1011 NOSIG=
201408182120 METAR COR EGLL 182120Z 28005KT CAVOK 14/10 Q1012 NOSIG=
201408182050 METAR EGLL 182050Z 29005KT 9999 FEW044 14/10 Q1012 NOSIG=
201408182020 METAR COR EGLL 182020Z 30004KT 9999 FEW044 15/10 Q1011 NOSIG=
201408181950 METAR EGLL 181950Z VRB03KT CAVOK 14/10 Q1011 NOSIG=
201408181920 METAR COR EGLL 181920Z VRB03KT 9999 FEW035CB 15/10 Q1011
                        NOSIG=
201408181850 METAR EGLL 181850Z 33008KT 290V360 9999 -SHRA FEW032CB 16/11
                        Q1011 NOSIG=
201408181820 METAR COR EGLL 181820Z 31006KT 9999 FEW035 17/10 Q1011 NOSIG=
201408181750 METAR COR EGLL 181750Z 30004KT 260V360 9999 FEW032 18/10
                        Q1010 NOSIG=
201408181720 METAR COR EGLL 181720Z 28005KT 250V320 9999 VCSH FEW048CB
                        17/10 Q1011 NOSIG=
201408181650 METAR COR EGLL 181650Z 32008KT 280V360 9999 SCT047CB 17/10
                        Q1011 NOSIG=
201408181620 METAR COR EGLL 181620Z 32009KT 9999 SCT047CB 18/09 Q1010
                        NOSIG=
201408181550 METAR COR EGLL 181550Z 22006KT 170V280 9999 FEW042CB 20/13
                        Q1010 TEMPO SHRA=
201408181520 METAR COR EGLL 181520Z 22006KT 160V270 9999 FEW025CB 19/12
                        Q1011 TEMPO SHRA=
201408181450 METAR COR EGLL 181450Z 23004KT 190V260 9999 FEW025CB 18/13
                        Q1011 RESHRA TEMPO SHRA=
201408181420 METAR COR EGLL 181420Z 24007KT 9999 5000S SHRA SCT037CB SCT042
                        16/12 Q1011 TEMPO NSW=
201408181350 METAR COR EGLL 181350Z 36005KT 9999 -SHRA FEW037CB SCT044
                        18/10 Q1010 TEMPO +SHRA=
201408181320 METAR COR EGLL 181320Z 36007KT 320V060 9999 VCSH SCT042CB
                        19/10 Q1010 TEMPO SHRA=
201408181250 METAR EGLL 181250Z 27008KT 240V310 9999 VCSH SCT039CB 19/10
                        Q1010 TEMPO SHRA=
201408181220 METAR COR EGLL 181220Z 29009KT 9999 VCSH FEW042 18/09 Q1010
                        TEMPO SHRA=
201408181150 METAR EGLL 181150Z 29008KT 9999 SCT045 18/09 Q1010 NOSIG=
201408181120 METAR COR EGLL 181120Z 29007KT 250V320 9999 FEW037 19/10
                        Q1010 NOSIG=
201408181050 METAR COR EGLL 181050Z 30008KT 270V340 9999 SCT037 17/10
                        Q1010 NOSIG=
201408181020 METAR COR EGLL 181020Z 30008KT 260V350 9999 SCT035 18/10
                        Q1010 NOSIG=
201408180950 METAR EGLL 180950Z 32008KT 270V360 9999 SCT031 16/10 Q1009
                        NOSIG=
201408180920 METAR COR EGLL 180920Z 30008KT 250V330 9999 SCT024 16/10
                        Q1009 NOSIG=
201408180850 METAR COR EGLL 180850Z 30009KT 9999 FEW022 15/10 Q1009 NOSIG=
201408180820 METAR COR EGLL 180820Z 30010KT 9999 FEW020 15/10 Q1009 NOSIG=
201408180750 METAR EGLL 180750Z 29009KT CAVOK 14/10 Q1008 NOSIG=
201408180720 METAR COR EGLL 180720Z 28011KT CAVOK 13/09 Q1008 NOSIG=
201408180650 METAR COR EGLL 180650Z 27012KT CAVOK 12/09 Q1008 NOSIG=
201408180620 METAR COR EGLL 180620Z 27012KT CAVOK 12/08 Q1008 NOSIG=
201408180550 METAR EGLL 180550Z 27012KT CAVOK 12/08 Q1008 NOSIG=
201408180520 METAR COR EGLL 180520Z 27012KT CAVOK 11/08 Q1008 NOSIG=
201408180450 METAR COR EGLL 180450Z 27012KT CAVOK 11/08 Q1008 NOSIG=
201408180420 METAR COR EGLL 180420Z 27011KT CAVOK 11/08 Q1007 NOSIG=
201408180350 METAR EGLL 180350Z 27011KT CAVOK 11/08 Q1007 NOSIG=
201408180320 METAR COR EGLL 180320Z 26012KT CAVOK 11/09 Q1007 NOSIG=
201408180250 METAR COR EGLL 180250Z 26011KT CAVOK 11/09 Q1007 NOSIG=
201408180220 METAR COR EGLL 180220Z 27011KT CAVOK 11/09 Q1008 NOSIG=
201408180150 METAR COR EGLL 180150Z 26009KT CAVOK 11/09 Q1008 NOSIG=
201408180120 METAR EGLL 180120Z AUTO 26010KT 9999 NCD 12/09 Q1008=
201408180050 METAR EGLL 180050Z AUTO 26010KT 9999 NCD 12/10 Q1008=
201408180020 METAR EGLL 180020Z AUTO 25010KT 9999 NCD 13/10 Q1008=
201408172350 METAR COR EGLL 172350Z 26009KT CAVOK 12/09 Q1008 NOSIG=
201408172320 METAR EGLL 172320Z 27011KT CAVOK 13/09 Q1008 NOSIG=
201408172250 METAR EGLL 172250Z 26011KT CAVOK 13/09 Q1008 NOSIG=
201408172220 METAR COR EGLL 172220Z 26011KT CAVOK 13/09 Q1008 NOSIG=
201408172150 METAR EGLL 172150Z 25011KT CAVOK 14/08 Q1008 NOSIG=
201408172120 METAR COR EGLL 172120Z 27010KT CAVOK 14/07 Q1008 NOSIG=
201408172050 METAR EGLL 172050Z 27012KT CAVOK 14/06 Q1008 NOSIG=
201408172020 METAR COR EGLL 172020Z 27012KT CAVOK 15/06 Q1008 NOSIG=
201408171950 METAR EGLL 171950Z 27012KT CAVOK 15/07 Q1007=
201408171920 METAR COR EGLL 171920Z 28009KT CAVOK 16/07 Q1007 NOSIG=
201408171850 METAR EGLL 171850Z 28012KT CAVOK 17/06 Q1007 NOSIG=
201408171820 METAR COR EGLL 171820Z 27015KT CAVOK 18/07 Q1007 NOSIG=
201408171750 METAR EGLL 171750Z 28015KT CAVOK 19/07 Q1007 NOSIG=
201408171720 METAR COR EGLL 171720Z 29014KT CAVOK 18/07 Q1007 NOSIG=
201408171650 METAR EGLL 171650Z 29013KT CAVOK 19/07 Q1007 NOSIG=
201408171620 METAR COR EGLL 171620Z 29013KT CAVOK 20/07 Q1007 NOSIG=
201408171550 METAR EGLL 171550Z 28017KT CAVOK 20/06 Q1007 NOSIG=
201408171520 METAR COR EGLL 171520Z 27018G29KT CAVOK 20/06 Q1007 NOSIG=
201408171450 METAR COR EGLL 171450Z 28015KT 9999 FEW047 19/07 Q1007 NOSIG=
201408171420 METAR COR EGLL 171420Z 28017KT 9999 FEW040 19/08 Q1008 NOSIG=
201408171350 METAR EGLL 171350Z 27014KT 9999 FEW026 SCT041 18/10 Q1008
                        NOSIG=
201408171320 METAR COR EGLL 171320Z 26014KT 9999 FEW026 18/12 Q1008 NOSIG=
201408171250 METAR COR EGLL 171250Z 26013KT 9999 FEW021 SCT031 18/13 Q1008
                        NOSIG=
201408171220 METAR COR EGLL 171220Z 26012KT 9999 SCT031 SCT036 16/14 Q1009
                        NOSIG=
201408171150 METAR EGLL 171150Z 29010KT 9999 8000S -RADZ FEW019 SCT024
                        15/13 Q1009 NOSIG=
201408171120 METAR COR EGLL 171120Z 24014KT 9999 VCSH SCT017 BKN025 18/13
                        Q1009 TEMPO 30015KT RADZ=
201408171050 METAR EGLL 171050Z 23015KT 9999 FEW012 SCT016 17/13 Q1009
                        TEMPO 4500 RADZ=
201408171020 METAR COR EGLL 171020Z 23016KT 9999 FEW014 SCT020 BKN048
                        17/13 Q1009 TEMPO RADZ=
201408170950 METAR EGLL 170950Z 25015KT 9999 FEW019 BKN044 17/12 Q1010
                        NOSIG=
201408170920 METAR COR EGLL 170920Z 25016KT 9999 SCT018 BKN041 16/12 Q1010
                        NOSIG=
201408170850 METAR EGLL 170850Z 25015KT 9999 SCT017 BKN040 16/12 Q1010
                        NOSIG=
201408170820 METAR COR EGLL 170820Z 25014KT 9999 SCT017 BKN040 15/12 Q1010
                        NOSIG=
201408170750 METAR COR EGLL 170750Z 25014KT 9999 BKN018 15/12 Q1011 NOSIG=
201408170720 METAR COR EGLL 170720Z 24014KT 9999 BKN019 15/11 Q1011 NOSIG=
201408170650 METAR COR EGLL 170650Z 24012KT 9999 SCT016 BKN025 15/11 Q1011
                        NOSIG=
201408170620 METAR COR EGLL 170620Z 24012KT 9999 FEW015 BKN024 14/11 Q1011
                        TEMPO BKN014=
201408170550 METAR EGLL 170550Z 24012KT 9999 SCT015 SCT020 BKN041 14/11
                        Q1011 TEMPO BKN014=
201408170520 METAR EGLL 170520Z 23014KT 9999 FEW016 BKN041 14/11 Q1012
                        TEMPO BKN014=
201408170450 METAR COR EGLL 170450Z 23012KT 9999 FEW016 BKN042 14/11 Q1012
                        TEMPO BKN014=
201408170420 METAR COR EGLL 170420Z 24011KT 9999 SCT017 BKN048 14/11 Q1012
                        TEMPO BKN014=
201408170350 METAR COR EGLL 170350Z 24012KT 9999 FEW018 BKN048 14/11 Q1012
                        NOSIG=
201408170320 METAR COR EGLL 170320Z 24012KT 9999 FEW022 BKN028 15/10 Q1013
                        NOSIG=
201408170250 METAR EGLL 170250Z 24011KT 9999 BKN041 15/10 Q1013 NOSIG=
201408170220 METAR COR EGLL 170220Z 24013KT 9999 BKN041 15/10 Q1013 NOSIG=
201408170150 METAR COR EGLL 170150Z 24012KT 9999 BKN042 15/10 Q1014 NOSIG=
201408170120 METAR EGLL 170120Z AUTO 24010KT 9999 BKN039 15/10 Q1014=
201408170050 METAR EGLL 170050Z AUTO 24013KT 9999 BKN038 15/10 Q1015 NOSIG=
201408170020 METAR EGLL 170020Z AUTO 24011KT 9999 OVC042 15/10 Q1015=
201408162350 METAR COR EGLL 162350Z 25013KT 9999 FEW027 BKN040 15/10 Q1015
                        NOSIG=
201408162320 METAR COR EGLL 162320Z 25013KT 9999 FEW031 BKN040 15/10 Q1016
                        NOSIG=
201408162250 METAR COR EGLL 162250Z 24010KT 9999 BKN041 15/10 Q1016 NOSIG=
201408162220 METAR COR EGLL 162220Z 25011KT 9999 BKN042 15/10 Q1017 NOSIG=
201408162150 METAR COR EGLL 162150Z 25013KT 9999 FEW024 BKN040 16/10 Q1017
                        NOSIG=
201408162120 METAR COR EGLL 162120Z 26014KT 9999 BKN043 16/10 Q1017 NOSIG=
201408162050 METAR COR EGLL 162050Z 26016KT 9999 BKN045 16/10 Q1017 NOSIG=
201408162020 METAR COR EGLL 162020Z 25011KT 9999 FEW036 BKN048 16/09 Q1017
                        NOSIG=
201408161950 METAR EGLL 161950Z 26011KT 9999 FEW040 BKN045 17/08 Q1018=
201408161920 METAR COR EGLL 161920Z 26014KT 9999 SCT044 17/08 Q1018 NOSIG=
201408161850 METAR EGLL 161850Z 27018KT 9999 FEW046 17/08 Q1018 NOSIG=
201408161820 METAR COR EGLL 161820Z 27018KT 9999 FEW049 18/09 Q1018 NOSIG=
201408161750 METAR COR EGLL 161750Z 27017KT 9999 FEW045 18/09 Q1018 NOSIG=
201408161720 METAR COR EGLL 161720Z 27014KT CAVOK 19/08 Q1018 NOSIG=
201408161650 METAR COR EGLL 161650Z 27016KT CAVOK 19/08 Q1018 NOSIG=
201408161620 METAR COR EGLL 161620Z 26019KT 9999 FEW049 20/08 Q1019 NOSIG=
201408161550 METAR EGLL 161550Z 27018KT 9999 FEW049 20/08 Q1019 NOSIG=
201408161520 METAR COR EGLL 161520Z 26017KT CAVOK 20/08 Q1019 NOSIG=
201408161450 METAR EGLL 161450Z 27013KT 240V310 9999 FEW049 19/08 Q1019
                        NOSIG=
201408161420 METAR COR EGLL 161420Z 28012KT 9999 FEW049 20/08 Q1020 NOSIG=
201408161350 METAR EGLL 161350Z 27016KT 9999 FEW049 20/08 Q1020 NOSIG=
201408161320 METAR COR EGLL 161320Z 25016KT CAVOK 21/08 Q1020 NOSIG=
201408161250 METAR EGLL 161250Z 25015KT 9999 SCT048 20/08 Q1020 NOSIG=
201408161220 METAR COR EGLL 161220Z 25013KT 9999 SCT044 20/08 Q1020 NOSIG=
201408161150 METAR EGLL 161150Z 26011KT 220V290 9999 SCT045 19/09 Q1021
                        NOSIG=
201408161120 METAR COR EGLL 161120Z 25012KT 9999 SCT048 19/09 Q1021 NOSIG=
201408161050 METAR COR EGLL 161050Z 27009KT 9999 FEW030 18/09 Q1021 NOSIG=
201408161020 METAR COR EGLL 161020Z 28009KT 250V310 9999 SCT030 17/10
                        Q1021 NOSIG=
201408160950 METAR EGLL 160950Z 27010KT 9999 SCT030 17/11 Q1022 NOSIG=
201408160920 METAR COR EGLL 160920Z 26007KT 9999 FEW020 17/11 Q1022 NOSIG=
201408160850 METAR EGLL 160850Z 29007KT 260V330 9999 FEW048 16/11 Q1022
                        NOSIG=
201408160820 METAR COR EGLL 160820Z 30007KT CAVOK 15/11 Q1022 NOSIG=
201408160750 METAR COR EGLL 160750Z 29008KT CAVOK 15/11 Q1022 NOSIG=
201408160720 METAR COR EGLL 160720Z 27008KT CAVOK 14/10 Q1022 NOSIG=
201408160650 METAR EGLL 160650Z 27007KT CAVOK 13/10 Q1022 NOSIG=
201408160620 METAR COR EGLL 160620Z 27005KT CAVOK 12/10 Q1021 NOSIG=
201408160550 METAR EGLL 160550Z 26005KT 220V290 CAVOK 12/10 Q1021 NOSIG=
201408160520 METAR COR EGLL 160520Z 25004KT 200V290 CAVOK 11/10 Q1021
                        NOSIG=
201408160450 METAR EGLL 160450Z 28003KT 9999 FEW043 12/10 Q1021 NOSIG=
201408160420 METAR COR EGLL 160420Z 28003KT 9999 FEW043 12/10 Q1021 NOSIG=
201408160350 METAR COR EGLL 160350Z 28003KT 9999 FEW043 11/09 Q1021 NOSIG=
201408160320 METAR COR EGLL 160320Z 31004KT CAVOK 12/10 Q1021 NOSIG=
201408160250 METAR EGLL 160250Z 29004KT CAVOK 13/10 Q1021 NOSIG=
201408160220 METAR COR EGLL 160220Z 29004KT CAVOK 13/10 Q1021 NOSIG=
201408160150 METAR COR EGLL 160150Z VRB03KT CAVOK 13/11 Q1021 NOSIG=
201408160120 METAR COR EGLL 160120Z 29004KT CAVOK 14/11 Q1021 NOSIG=
201408160050 METAR COR EGLL 160050Z 28004KT CAVOK 13/11 Q1021 NOSIG=
201408160020 METAR EGLL 160020Z VRB02KT CAVOK 14/11 Q1021=
201408152350 METAR COR EGLL 152350Z 30003KT CAVOK 15/11 Q1021 NOSIG=
201408152320 METAR COR EGLL 152320Z 29004KT CAVOK 15/11 Q1021 NOSIG=
201408152250 METAR COR EGLL 152250Z VRB02KT CAVOK 16/11 Q1021 NOSIG=
201408152220 METAR COR EGLL 152220Z 35004KT CAVOK 16/12 Q1021 NOSIG=
201408152150 METAR EGLL 152150Z 32003KT CAVOK 16/12 Q1020 NOSIG=
201408152120 METAR COR EGLL 152120Z 30003KT CAVOK 16/11 Q1020 NOSIG=
201408152050 METAR EGLL 152050Z 30004KT CAVOK 17/11 Q1020 NOSIG=
201408152020 METAR COR EGLL 152020Z 31004KT 9999 SCT043 17/11 Q1020 NOSIG=
201408151950 METAR EGLL 151950Z 30004KT 9999 SCT049 17/12 Q1019 NOSIG=
201408151920 METAR COR EGLL 151920Z 30004KT CAVOK 18/11 Q1019 NOSIG=
201408151850 METAR COR EGLL 151850Z 30004KT CAVOK 18/11 Q1019 NOSIG=
201408151820 METAR COR EGLL 151820Z 30005KT 9999 FEW040 19/11 Q1018 NOSIG=
201408151750 METAR EGLL 151750Z 30005KT CAVOK 19/10 Q1018 NOSIG=
201408151720 METAR COR EGLL 151720Z 31004KT CAVOK 19/10 Q1018 NOSIG=
201408151650 METAR EGLL 151650Z 30007KT 270V340 9999 FEW043 19/10 Q1018
                        NOSIG=
201408151620 METAR COR EGLL 151620Z 31005KT 9999 FEW041 19/11 Q1018 NOSIG=
201408151550 METAR EGLL 151550Z 29006KT 260V330 9999 FEW045 19/10 Q1018
                        TEMPO SHRA=
201408151520 METAR COR EGLL 151520Z 31006KT 9999 VCSH FEW048 19/10 Q1018
                        NOSIG=
201408151450 METAR EGLL 151450Z VRB03KT 9999 VCSH FEW032 19/10 Q1017 NOSIG=
201408151420 METAR COR EGLL 151420Z VRB03KT 9999 -SHRA SCT035 18/11 Q1017
                        NOSIG=
201408151350 METAR EGLL 151350Z 01010KT 340V050 9999 -SHRA BKN037 19/11
                        Q1017 TEMPO SHRA=
201408151320 METAR COR EGLL 151320Z 32007KT 290V010 9999 SCT037 20/10
                        Q1017 TEMPO SHRA=
201408151250 METAR COR EGLL 151250Z 34006KT 290V040 9999 FEW037 20/09
                        Q1017 NOSIG=
201408151220 METAR COR EGLL 151220Z 35006KT 300V030 9999 FEW049 19/10
                        Q1017 NOSIG=
201408151150 METAR COR EGLL 151150Z 35007KT 310V020 9999 FEW047 19/11
                        Q1017 NOSIG=
201408151120 METAR COR EGLL 151120Z 34007KT 300V020 9999 FEW019 SCT046
                        17/11 Q1017 NOSIG=
201408151050 METAR EGLL 151050Z 33006KT 290V020 9999 FEW020 SCT048 16/12
                        Q1016 NOSIG=
201408151020 METAR COR EGLL 151020Z 32007KT 280V360 9999 FEW017 SCT040
                        17/12 Q1016 NOSIG=
201408150950 METAR EGLL 150950Z 34006KT 300V020 9999 SCT016 BKN035 16/12
                        Q1016 NOSIG=
201408150920 METAR COR EGLL 150920Z 33006KT 310V020 9999 SCT014 SCT032
                        16/12 Q1016 BECMG BKN016=
201408150850 METAR EGLL 150850Z 30006KT 9999 SCT012 BKN018 15/12 Q1016
                        NOSIG=
201408150820 METAR COR EGLL 150820Z 29006KT 9999 FEW009 BKN011 14/12 Q1015
                        BECMG BKN016=
201408150750 METAR COR EGLL 150750Z 30006KT 9999 FEW008 BKN012 13/12 Q1015
                        BECMG BKN016=
201408150720 METAR COR EGLL 150720Z 30005KT 7000 -SHRA SCT009 BKN016 13/12
                        Q1014 NOSIG=
201408150650 METAR EGLL 150650Z 31006KT 9999 FEW009 BKN014 13/11 Q1014
                        BECMG BKN016=
201408150620 METAR COR EGLL 150620Z 30006KT 9999 SCT016 BKN018 13/11 Q1014
                        NOSIG=
201408150550 METAR COR EGLL 150550Z 29006KT 9999 OVC014 12/10 Q1013 BECMG
                        SCT016=
201408150520 METAR COR EGLL 150520Z 29005KT 9999 OVC013 12/10 Q1013 NOSIG=
201408150450 METAR COR EGLL 150450Z 29006KT 9999 BKN013 12/10 Q1013 NOSIG=
201408150420 METAR COR EGLL 150420Z 29006KT 9999 FEW013 12/10 Q1013 TEMPO
                        BKN013=
201408150350 METAR EGLL 150350Z 29006KT CAVOK 12/10 Q1012 NOSIG=
201408150320 METAR COR EGLL 150320Z 30005KT 260V320 CAVOK 12/10 Q1012
                        NOSIG=
201408150250 METAR COR EGLL 150250Z 30005KT CAVOK 12/10 Q1012 NOSIG=
201408150220 METAR COR EGLL 150220Z 31006KT CAVOK 12/10 Q1012 NOSIG=
201408150150 METAR EGLL 150150Z 30006KT CAVOK 12/10 Q1012=
201408150120 METAR COR EGLL 150120Z 30006KT CAVOK 12/10 Q1012 NOSIG=
201408150050 METAR COR EGLL 150050Z 29004KT CAVOK 13/11 Q1011 NOSIG=
201408150020 METAR COR EGLL 150020Z 29006KT CAVOK 13/11 Q1011 NOSIG=
201408142350 METAR EGLL 142350Z 31004KT CAVOK 13/12 Q1011 NOSIG=
201408142320 METAR COR EGLL 142320Z 30006KT CAVOK 13/12 Q1011 NOSIG=
201408142250 METAR EGLL 142250Z 29006KT 9999 FEW045 13/12 Q1011 NOSIG=
201408142220 METAR COR EGLL 142220Z 29007KT 9999 SCT045 14/12 Q1011 NOSIG=
201408142150 METAR COR EGLL 142150Z 30006KT 9999 FEW040 14/13 Q1011 NOSIG=
201408142120 METAR COR EGLL 142120Z 28005KT CAVOK 14/12 Q1010 NOSIG=
201408142050 METAR EGLL 142050Z 28006KT 9999 FEW023 14/13 Q1010 NOSIG=
201408142020 METAR COR EGLL 142020Z 29004KT 9999 FEW031 BKN043 BKN049
                        15/13 Q1010 NOSIG=
201408141950 METAR COR EGLL 141950Z VRB02KT 9999 FEW020 SCT033 15/13 Q1010
                        NOSIG=
201408141920 METAR COR EGLL 141920Z VRB03KT 9999 BKN043 16/13 Q1010 NOSIG=
201408141850 METAR COR EGLL 141850Z 26006KT 210V300 9999 FEW020 16/13
                        Q1010 TEMPO SHRA=
201408141820 METAR COR EGLL 141820Z 22006KT 170V270 9999 FEW030CB 16/13
                        Q1009 TEMPO SHRA=
201408141750 METAR COR EGLL 141750Z 23006KT 160V280 9999 VCSH FEW030CB
                        16/12 Q1009 TEMPO SHRA=
201408141720 METAR COR EGLL 141720Z VRB02KT 9999 FEW016 FEW030CB 15/12
                        Q1009 TEMPO SHRA=
201408141650 METAR EGLL 141650Z VRB02KT 9999 -SHRA FEW016 SCT030CB 15/12
                        Q1009 RETS RESHRA NOSIG=
201408141620 METAR COR EGLL 141620Z 26006KT 9000 4000E TSRA FEW016 SCT024CB
                        14/12 Q1009 RETS RESHRA RESHGR BECMG
                        9999 NSW=
201408141550 METAR COR EGLL 141550Z 25011KT 210V290 9999 5000W SHRA BKN021CB
                        17/12 Q1009 TEMPO 4000 SHRA TSGR=
201408141520 METAR COR EGLL 141520Z 23008KT 170V260 9999 VCSH FEW015 SCT043CB
                        18/14 Q1009 TEMPO 4000 SHRA TSRA=
201408141450 METAR COR EGLL 141450Z 20007KT 170V250 9999 VCSH FEW015 SCT031CB
                        16/13 Q1009 TEMPO 4000 SHRA TSRA=
201408141420 METAR COR EGLL 141420Z 22011KT 180V250 9999 -SHRA FEW015
                        SCT043CB 15/12 Q1009 TEMPO 4000 SHRA
                        TSGR=
201408141350 METAR EGLL 141350Z 20012KT 9999 VCTS VCSH FEW019 SCT043CB
                        16/12 Q1009 TEMPO 4000 TSGR=
201408141320 METAR COR EGLL 141320Z 20016KT 9999 -SHRA VCTS FEW019 SCT043CB
                        17/12 Q1009 TEMPO 4000 SHRA TSGR=
201408141250 METAR COR EGLL 141250Z 23006KT 200V270 9999 5000SW -SHRA
                        VCTS FEW019 SCT040CB 17/13 Q1009
                        RESHRA TEMPO SHRA TSGR=
201408141220 METAR COR EGLL 141220Z 27014KT 9999 SHRA VCTS FEW017 SCT037CB
                        16/13 Q1009 TEMPO TSGR=
201408141150 METAR COR EGLL 141150Z 25008KT 220V280 9999 VCTS SCT037CB
                        20/12 Q1009 TEMPO 4000 TSGR=
201408141120 METAR COR EGLL 141120Z 25009KT 210V300 9999 SCT038CB 21/11
                        Q1009 TEMPO SHRA TSRA=
201408141050 METAR EGLL 141050Z 25009KT 9999 SCT033CB 20/12 Q1009 TEMPO
                        SHRA=
201408141020 METAR COR EGLL 141020Z 27009KT 230V310 9999 FEW026 19/12
                        Q1010 TEMPO SHRA=
201408140950 METAR COR EGLL 140950Z 30009KT 9999 SCT027 19/12 Q1010 TEMPO
                        SHRA=
201408140920 METAR COR EGLL 140920Z 28007KT 220V310 9999 FEW023 19/13
                        Q1010 TEMPO SHRA=
201408140850 METAR COR EGLL 140850Z 25008KT 210V280 9999 FEW017 17/13
                        Q1009 TEMPO SHRA=
201408140820 METAR COR EGLL 140820Z 25008KT 9999 FEW016 17/13 Q1009 TEMPO
                        SHRA=
201408140750 METAR COR EGLL 140750Z 22007KT 190V270 CAVOK 16/12 Q1009
                        NOSIG=
201408140720 METAR COR EGLL 140720Z 21005KT 9999 FEW049 15/12 Q1009 NOSIG=
201408140650 METAR EGLL 140650Z 21006KT 180V240 9999 FEW048 15/12 Q1009
                        TEMPO SHRA=
201408140620 METAR COR EGLL 140620Z 24007KT CAVOK 15/13 Q1010 TEMPO SHRA=
201408140550 METAR EGLL 140550Z 21004KT 180V250 CAVOK 14/12 Q1010 NOSIG=
201408140520 METAR COR EGLL 140520Z 23005KT 190V280 9999 VCSH FEW014 13/12
                        Q1010 TEMPO SHRA BKN014=
201408140450 METAR COR EGLL 140450Z 22005KT 9999 FEW047 13/11 Q1009 TEMPO
                        SHRA=
201408140420 METAR COR EGLL 140420Z 21005KT CAVOK 13/11 Q1009 NOSIG=
201408140350 METAR EGLL 140350Z 24005KT CAVOK 12/10 Q1009 NOSIG=
201408140320 METAR COR EGLL 140320Z 27004KT CAVOK 13/11 Q1009 NOSIG=
201408140250 METAR COR EGLL 140250Z 28005KT CAVOK 14/11 Q1009 NOSIG=
201408140220 METAR COR EGLL 140220Z 27007KT CAVOK 14/11 Q1009 NOSIG=
201408140150 METAR EGLL 140150Z 27008KT CAVOK 15/11 Q1009 NOSIG=
201408140120 METAR EGLL 140120Z AUTO 28008KT 9999 NCD 15/11 Q1009=
201408140050 METAR EGLL 140050Z AUTO 27009KT 9999 NCD 15/12 Q1009=
201408140020 METAR EGLL 140020Z AUTO 28007KT 9999 NCD 15/12 Q1009=
201408132350 METAR COR EGLL 132350Z 28010KT CAVOK 15/12 Q1009 NOSIG=
201408132320 METAR COR EGLL 132320Z 27007KT CAVOK 15/12 Q1009 NOSIG=
201408132250 METAR EGLL 132250Z 26007KT CAVOK 15/12 Q1009 NOSIG=
201408132220 METAR COR EGLL 132220Z 27007KT CAVOK 15/12 Q1008 NOSIG=
201408132150 METAR COR EGLL 132150Z 26008KT CAVOK 15/11 Q1008 NOSIG=
201408132120 METAR COR EGLL 132120Z 28009KT CAVOK 16/11 Q1008 NOSIG=
201408132050 METAR COR EGLL 132050Z 28008KT CAVOK 16/11 Q1008 NOSIG=
201408132020 METAR COR EGLL 132020Z 28010KT 9999 FEW038 17/11 Q1008 NOSIG=
201408131950 METAR EGLL 131950Z 28009KT 9999 FEW048 17/12 Q1007 NOSIG=
201408131920 METAR COR EGLL 131920Z 28009KT CAVOK 18/12 Q1007 NOSIG=
201408131850 METAR COR EGLL 131850Z 29008KT 9999 FEW048 18/11 Q1007 NOSIG=
201408131820 METAR COR EGLL 131820Z 29009KT 9999 SCT041 18/11 Q1006 NOSIG=
201408131750 METAR EGLL 131750Z 32007KT 9999 BKN042 21/11 Q1006 NOSIG=
201408131720 METAR COR EGLL 131720Z 31007KT 280V350 9999 FEW046 21/10
                        Q1006 TEMPO SHRA=
201408131650 METAR EGLL 131650Z 31009KT 9999 SCT048 21/10 Q1006 TEMPO
                        SHRA=
201408131620 METAR COR EGLL 131620Z 27015KT 9999 SCT045 22/09 Q1005 NOSIG=
201408131550 METAR EGLL 131550Z 28013KT 9999 SCT045 20/11 Q1005 NOSIG=
201408131520 METAR COR EGLL 131520Z 26012KT 9999 SCT040 22/11 Q1005 NOSIG=
201408131450 METAR COR EGLL 131450Z 25012KT 9999 FEW042CB 22/12 Q1005
                        NOSIG=
201408131420 METAR COR EGLL 131420Z 27013KT 240V300 9999 VCSH SCT039CB
                        21/12 Q1005 NOSIG=
201408131350 METAR COR EGLL 131350Z 29010KT 9999 VCSH SCT039CB SCT048
                        21/10 Q1005 TEMPO SHRA=
201408131320 METAR COR EGLL 131320Z 29010KT 250V320 9999 SCT043 21/11
                        Q1005 TEMPO SHRA=
201408131250 METAR EGLL 131250Z 27012KT 230V300 9999 FEW037 21/11 Q1005
                        NOSIG=
201408131220 METAR COR EGLL 131220Z 28011KT 9999 FEW034 21/12 Q1005 NOSIG=
201408131150 METAR EGLL 131150Z 29010KT 9999 FEW044 19/11 Q1005 NOSIG=
201408131120 METAR COR EGLL 131120Z 27013KT 9999 SCT040 20/10 Q1005 TEMPO
                        SHRA=
201408131050 METAR EGLL 131050Z 28013KT 240V300 9999 FEW034 19/11 Q1005
                        NOSIG=
201408131020 METAR COR EGLL 131020Z 26013KT 9999 FEW031 19/11 Q1005 NOSIG=
201408130950 METAR COR EGLL 130950Z 28013KT 9999 SCT027 18/11 Q1005 NOSIG=
201408130920 METAR COR EGLL 130920Z 27012KT 9999 FEW027 18/11 Q1005 NOSIG=
201408130850 METAR EGLL 130850Z 27011KT 9999 FEW016 17/12 Q1005 NOSIG=
201408130820 METAR COR EGLL 130820Z 27012KT 9999 FEW016 16/12 Q1005 NOSIG=
201408130750 METAR EGLL 130750Z 27010KT 9999 FEW016 16/12 Q1005 NOSIG=
201408130720 METAR COR EGLL 130720Z 27011KT 9999 FEW016 15/12 Q1005 NOSIG=
201408130650 METAR COR EGLL 130650Z 25009KT 9999 FEW016 14/12 Q1005 NOSIG=
201408130620 METAR COR EGLL 130620Z 27008KT 9999 FEW016 13/11 Q1004 NOSIG=
201408130550 METAR COR EGLL 130550Z 27007KT CAVOK 12/11 Q1004 NOSIG=
201408130520 METAR COR EGLL 130520Z 26008KT CAVOK 12/10 Q1004 NOSIG=
201408130450 METAR EGLL 130450Z 23006KT CAVOK 12/10 Q1004 NOSIG=
201408130420 METAR COR EGLL 130420Z 24006KT CAVOK 12/10 Q1004 NOSIG=
201408130350 METAR EGLL 130350Z 23007KT CAVOK 12/10 Q1004 NOSIG=
201408130320 METAR COR EGLL 130320Z 23006KT CAVOK 12/10 Q1004 NOSIG=
201408130250 METAR EGLL 130250Z 21006KT 9999 FEW043 12/10 Q1004 NOSIG=
201408130220 METAR COR EGLL 130220Z 21006KT CAVOK 12/10 Q1004 NOSIG=
201408130150 METAR EGLL 130150Z 22007KT CAVOK 12/10 Q1004 NOSIG=
201408130120 METAR EGLL 130120Z AUTO 23007KT 9999 NCD 12/10 Q1005=
201408130050 METAR EGLL 130050Z AUTO 22006KT 9999 NCD 12/11 Q1005=
201408130020 METAR EGLL 130020Z AUTO 23008KT 9999 NCD 13/11 Q1005=
201408122350 METAR EGLL 122350Z 22007KT CAVOK 13/11 Q1005=
201408122320 METAR COR EGLL 122320Z 22008KT CAVOK 13/11 Q1005 NOSIG=
201408122250 METAR EGLL 122250Z 22008KT CAVOK 13/11 Q1006 NOSIG=
201408122220 METAR COR EGLL 122220Z 21009KT CAVOK 14/11 Q1006 NOSIG=
201408122150 METAR COR EGLL 122150Z 21009KT CAVOK 14/11 Q1006 NOSIG=
201408122120 METAR EGLL 122120Z 21007KT 180V240 CAVOK 14/11 Q1006=
201408122050 METAR COR EGLL 122050Z 19006KT 140V240 CAVOK 13/11 Q1006
                        NOSIG=
201408122020 METAR COR EGLL 122020Z VRB05KT 9999 FEW048 14/11 Q1006 NOSIG=
201408121950 METAR COR EGLL 121950Z 22007KT 170V260 9999 FEW049 13/11
                        Q1006 NOSIG=
201408121920 METAR COR EGLL 121920Z 28006KT 240V310 9999 FEW040CB 14/10
                        Q1006 NOSIG=
201408121850 METAR COR EGLL 121850Z 27012KT 9999 -SHRA SCT034CB 13/11
                        Q1006 RESHRA NOSIG=
201408121820 METAR COR EGLL 121820Z 22010KT 9999 8000NW -SHRA BKN030CB
                        17/11 Q1006 TEMPO 4000 TSRA=
201408121750 METAR COR EGLL 121750Z 23012KT 200V260 9999 VCSH FEW045CB
                        17/10 Q1006 TEMPO +SHRA=
201408121720 METAR COR EGLL 121720Z 27011KT 210V280 9999 5000SE VCSH SCT045CB
                        18/09 Q1006 TEMPO SHRA=
201408121650 METAR COR EGLL 121650Z 27013KT 9999 FEW032CB 19/08 Q1006
                        TEMPO SHRA=
201408121620 METAR COR EGLL 121620Z 26018KT 9999 FEW032 SCT045 17/09 Q1006
                        TEMPO SHRA=
201408121550 METAR COR EGLL 121550Z 24015KT 9999 FEW038 BKN044 19/09 Q1006
                        TEMPO SHRA=
201408121520 METAR COR EGLL 121520Z 26012KT 9999 BKN045 20/09 Q1006 TEMPO
                        SHRA=
201408121450 METAR COR EGLL 121450Z 24017KT 9999 SCT046 19/09 Q1006 TEMPO
                        SHRA=
201408121420 METAR COR EGLL 121420Z 24016KT 9999 SCT047 20/08 Q1006 NOSIG=
201408121350 METAR COR EGLL 121350Z 24015KT 9999 SCT044 20/09 Q1006 NOSIG=
201408121320 METAR COR EGLL 121320Z 26015KT 9999 SCT044 19/08 Q1007 NOSIG=
201408121250 METAR COR EGLL 121250Z 26013KT 9999 VCSH SCT040 18/11 Q1007
                        NOSIG=
201408121220 METAR COR EGLL 121220Z 22015KT 9999 VCSH SCT046 19/09 Q1007
                        TEMPO SHRA=
201408121150 METAR EGLL 121150Z 25013KT 9999 SCT046 19/09 Q1007 TEMPO
                        SHRA=
201408121120 METAR EGLL 121120Z 24017KT 9999 VCSH BKN048 17/08 Q1008=
201408121050 METAR COR EGLL 121050Z 25014KT 9999 SCT042 19/08 Q1008 TEMPO
                        SHRA=
201408121020 METAR COR EGLL 121020Z 24015KT 9999 FEW040 SCT047 19/09 Q1008
                        NOSIG=
201408120950 METAR COR EGLL 120950Z 24013KT 9999 FEW039 SCT047 18/09 Q1008
                        NOSIG=
201408120920 METAR COR EGLL 120920Z 24015KT 9999 FEW036 18/09 Q1008 NOSIG=
201408120850 METAR COR EGLL 120850Z 26013KT 9999 FEW033 18/10 Q1008 NOSIG=
201408120820 METAR COR EGLL 120820Z 25012KT 9999 FEW024 17/10 Q1008 NOSIG=
201408120750 METAR EGLL 120750Z 25012KT CAVOK 16/10 Q1008 NOSIG=
201408120720 METAR COR EGLL 120720Z 24012KT CAVOK 15/10 Q1008 NOSIG=
201408120650 METAR COR EGLL 120650Z 25011KT CAVOK 15/10 Q1008 NOSIG=
201408120620 METAR COR EGLL 120620Z 25011KT CAVOK 14/10 Q1008 NOSIG=
201408120550 METAR EGLL 120550Z 23013KT CAVOK 13/10 Q1008 NOSIG=
201408120520 METAR EGLL 120520Z 24012KT CAVOK 13/10 Q1008=
201408120450 METAR COR EGLL 120450Z 23011KT CAVOK 13/10 Q1008 NOSIG=
201408120420 METAR COR EGLL 120420Z 23012KT CAVOK 13/10 Q1008 NOSIG=
201408120350 METAR COR EGLL 120350Z 23013KT CAVOK 13/10 Q1008 NOSIG=
201408120320 METAR COR EGLL 120320Z 23012KT CAVOK 13/10 Q1008 NOSIG=
201408120250 METAR COR EGLL 120250Z 23012KT CAVOK 13/10 Q1008 NOSIG=
201408120220 METAR COR EGLL 120220Z 23011KT CAVOK 13/10 Q1008 NOSIG=
201408120150 METAR EGLL 120150Z 23010KT CAVOK 13/10 Q1008 NOSIG=
201408120120 METAR EGLL 120120Z AUTO 24009KT 9999 NCD 13/10 Q1008=
201408120050 METAR EGLL 120050Z AUTO 24010KT 9999 NCD 13/10 Q1008=
201408120020 METAR EGLL 120020Z AUTO 24010KT 9999 NCD 13/10 Q1009=
201408112350 METAR COR EGLL 112350Z 24009KT CAVOK 13/10 Q1009 NOSIG=
201408112320 METAR COR EGLL 112320Z 23009KT CAVOK 14/10 Q1009 NOSIG=
201408112250 METAR COR EGLL 112250Z 24011KT CAVOK 14/11 Q1009 NOSIG=
201408112220 METAR COR EGLL 112220Z 22008KT 9999 FEW040 14/11 Q1009 NOSIG=
201408112150 METAR EGLL 112150Z 23009KT 9999 FEW047 14/11 Q1009 NOSIG=
201408112120 METAR COR EGLL 112120Z 22010KT 9999 FEW048 14/11 Q1009 TEMPO
                        SHRA=
201408112050 METAR COR EGLL 112050Z 22009KT 9999 FEW046 15/11 Q1009 NOSIG=
201408112020 METAR COR EGLL 112020Z 22010KT 9999 FEW040 15/12 Q1009 NOSIG=
201408111950 METAR EGLL 111950Z 23008KT 200V270 9999 FEW040CB 15/12 Q1008
                        NOSIG=
201408111920 METAR COR EGLL 111920Z 24011KT 9999 VCSH FEW040CB 15/11 Q1008
                        NOSIG=
201408111850 METAR COR EGLL 111850Z 25010KT 9999 FEW030CB 16/12 Q1008
                        NOSIG=
201408111820 METAR COR EGLL 111820Z 24011KT 9999 FEW030CB 16/13 Q1008
                        TEMPO SHRA=
201408111750 METAR COR EGLL 111750Z 24010KT 9999 VCSH SCT043CB 15/13 Q1008
                        RETS RESHRA TEMPO SHRA=
201408111720 METAR COR EGLL 111720Z 26013KT 8000 3700NE TSRA SCT025CB
                        13/11 Q1008 RETS RERA BECMG NSW=
201408111650 METAR COR EGLL 111650Z 24018KT 9999 -SHRA FEW034 FEW040CB
                        16/12 Q1008 TEMPO TSRA=
201408111620 METAR COR EGLL 111620Z 23015KT 9999 FEW034 18/12 Q1007 TEMPO
                        +SHRA=
201408111550 METAR EGLL 111550Z 23016KT 9999 FEW034 19/12 Q1008 TEMPO
                        SHRA=
201408111520 METAR EGLL 111520Z 23016KT 9999 FEW040CB 18/13 Q1008 TEMPO
                        SHRA=
201408111450 METAR COR EGLL 111450Z 24008KT 190V260 9999 SCT030CB 16/14
                        Q1008 RETS RESHRA TEMPO SHRA=
201408111420 METAR COR EGLL 111420Z 30015G38KT 260V330 3000 1400E R27L/P1500
                        R27R/1000 +TSRA FEW010 SCT020CB 13/11
                        Q1008 BECMG 9999 NSW=
201408111350 METAR EGLL 111350Z 22015KT 9999 VCSH FEW038CB 19/12 Q1007=
201408111320 METAR COR EGLL 111320Z 22017KT 9999 SCT040CB 21/11 Q1007
                        TEMPO +SHRA=
201408111250 METAR COR EGLL 111250Z 23017KT 9999 VCSH FEW038CB 20/09 Q1008
                        TEMPO SHRA=
201408111220 METAR COR EGLL 111220Z 25018KT 9999 VCSH FEW038CB FEW047
                        20/10 Q1008 TEMPO +SHRA=
201408111150 METAR EGLL 111150Z 26015KT 9999 FEW047 21/10 Q1008 TEMPO
                        SHRA=
201408111120 METAR COR EGLL 111120Z 24016KT 9999 -SHRA BKN047 20/09 Q1008
                        TEMPO SHRA=
201408111050 METAR EGLL 111050Z 25018KT 9999 SCT044 20/10 Q1008 TEMPO
                        SHRA=
201408111020 METAR COR EGLL 111020Z 25014KT 9999 SCT042 20/11 Q1008 TEMPO
                        SHRA=
201408110950 METAR COR EGLL 110950Z 25013KT 9999 SCT038 18/11 Q1008 NOSIG=
201408110920 METAR COR EGLL 110920Z 25017KT 9999 FEW033 19/10 Q1008 NOSIG=
201408110850 METAR COR EGLL 110850Z 24016KT 9999 FEW032 19/11 Q1008 NOSIG=
201408110820 METAR COR EGLL 110820Z 25016KT 9999 FEW028 18/11 Q1008 NOSIG=
201408110750 METAR EGLL 110750Z 24014KT 9999 FEW024 17/11 Q1008 NOSIG=
201408110720 METAR COR EGLL 110720Z 24013KT 9999 FEW020 17/11 Q1008 NOSIG=
201408110650 METAR COR EGLL 110650Z 24014KT CAVOK 16/11 Q1007 NOSIG=
201408110620 METAR COR EGLL 110620Z 23012KT CAVOK 15/11 Q1007 NOSIG=
201408110550 METAR EGLL 110550Z 23010KT CAVOK 14/11 Q1007=
201408110520 METAR COR EGLL 110520Z 23010KT 190V260 CAVOK 13/10 Q1007
                        NOSIG=
201408110450 METAR COR EGLL 110450Z 23011KT CAVOK 13/10 Q1007 NOSIG=
201408110420 METAR COR EGLL 110420Z 23009KT CAVOK 13/10 Q1007 NOSIG=
201408110350 METAR EGLL 110350Z 23011KT CAVOK 13/10 Q1007 NOSIG=
201408110320 METAR COR EGLL 110320Z 23011KT CAVOK 13/10 Q1007 NOSIG=
201408110250 METAR EGLL 110250Z 23008KT CAVOK 13/10 Q1006 NOSIG=
201408110220 METAR COR EGLL 110220Z 25009KT CAVOK 14/10 Q1006 NOSIG=
201408110150 METAR COR EGLL 110150Z 24011KT CAVOK 13/10 Q1006 NOSIG=
201408110120 METAR EGLL 110120Z AUTO 24013KT 9999 NCD 13/10 Q1006=
201408110050 METAR EGLL 110050Z AUTO 24013KT 9999 NCD 14/10 Q1005=
201408110020 METAR EGLL 110020Z AUTO 26017KT 9999 NCD 14/10 Q1005=
201408102350 METAR EGLL 102350Z 24014KT 9999 FEW026 14/10 Q1005 NOSIG=
201408102320 METAR COR EGLL 102320Z 25017KT CAVOK 15/09 Q1004 NOSIG=
201408102250 METAR COR EGLL 102250Z 25017KT CAVOK 15/10 Q1004 NOSIG=
201408102220 METAR COR EGLL 102220Z 24016KT 9999 FEW024 15/10 Q1004 NOSIG=
201408102150 METAR COR EGLL 102150Z 24015KT 9999 FEW024 16/10 Q1003 NOSIG=
201408102120 METAR COR EGLL 102120Z 24015KT 9999 FEW031 16/10 Q1003 NOSIG=
201408102050 METAR EGLL 102050Z 24018KT 9999 FEW041 16/09 Q1003 TEMPO
                        SHRA=
201408102020 METAR COR EGLL 102020Z 24016G30KT 9999 FEW024 16/10 Q1003
                        TEMPO SHRA=
201408101950 METAR EGLL 101950Z 25011KT 9999 FEW047 16/10 Q1002 NOSIG=
201408101920 METAR COR EGLL 101920Z 26017KT 9999 -SHRA FEW020 17/10 Q1002
                        TEMPO SHRA=
201408101850 METAR COR EGLL 101850Z 25013KT 9999 FEW047 18/09 Q1001 TEMPO
                        SHRA=
201408101820 METAR COR EGLL 101820Z 26018KT 9999 FEW040 19/09 Q1001 TEMPO
                        SHRA=
201408101750 METAR EGLL 101750Z 26022KT 9999 SCT046CB 19/09 Q1000 TEMPO
                        SHRA=
201408101720 METAR COR EGLL 101720Z 25018KT 9999 SCT046 19/10 Q1000 NOSIG=
201408101650 METAR COR EGLL 101650Z 26022KT 9999 SCT046 20/10 Q0999 NOSIG=
201408101620 METAR COR EGLL 101620Z 27021KT 9999 FEW043 SCT047 20/10 Q0999
                        NOSIG=
201408101550 METAR EGLL 101550Z 27021G32KT 9999 FEW040 SCT044 20/11 Q0998
                        NOSIG=
201408101520 METAR COR EGLL 101520Z 26020KT 9999 SCT041 20/11 Q0997 NOSIG=
201408101450 METAR COR EGLL 101450Z 26019KT 9999 FEW033 SCT043 20/13 Q0997
                        NOSIG=
201408101420 METAR COR EGLL 101420Z 27014KT 9999 SCT034 19/15 Q0996 NOSIG=
201408101350 METAR COR EGLL 101350Z 28010KT 9999 FEW015CB SCT030 18/14
                        Q0995 NOSIG=
201408101320 METAR COR EGLL 101320Z 28016KT 8000 VCTS FEW015CB SCT027
                        17/15 Q0994 RESHRA TEMPO SHRA=
201408101250 METAR COR EGLL 101250Z 21017KT 9999 SCT022 SCT031 22/16 Q0992
                        TEMPO +SHRAGS BKN012=
201408101220 METAR COR EGLL 101220Z 22019KT 180V240 9999 SCT015 SCT020
                        22/17 Q0992 TEMPO +SHRA BKN012=
201408101150 METAR EGLL 101150Z 22011G21KT 190V250 9999 SCT019 SCT031
                        22/18 Q0992 RESHRA NOSIG=
201408101120 METAR COR EGLL 101120Z 19014KT 150V240 9999 SHRA FEW009 SCT013CB
                        BKN020 21/19 Q0992 TEMPO NSW BKN013=
201408101050 METAR COR EGLL 101050Z 19012KT 160V240 9000 -RA SCT010CB
                        BKN015 20/18 Q0993 TEMPO SHRA BKN010=
201408101020 METAR COR EGLL 101020Z 17012KT 140V220 9999 FEW006 SCT013CB
                        BKN020 19/18 Q0993 TEMPO RA BKN013=
201408100950 METAR COR EGLL 100950Z 15011KT 120V230 9999 -RA FEW006 SCT012CB
                        18/17 Q0994 TEMPO RA BKN012=
201408100920 METAR COR EGLL 100920Z 16015KT 9999 9000E -RA FEW006 SCT012CB
                        18/17 Q0994 TEMPO RA BKN012=
201408100850 METAR COR EGLL 100850Z 16012KT 9999 -RA SCT012 SCT023 18/17
                        Q0995 RERA TEMPO 4000 +RA BKN008=
201408100820 METAR COR EGLL 100820Z 16013KT 5000 RA SCT007 BKN012 18/17
                        Q0996 TEMPO 4000 +RA BKN007=
201408100750 METAR COR EGLL 100750Z 14011KT 5000 RA FEW007 SCT008 BKN010
                        17/16 Q0997 TEMPO 4000 +RA BKN008=
201408100720 METAR COR EGLL 100720Z 12011KT 9999 VCSH SCT010 BKN026 16/15
                        Q0997 TEMPO 4000 RA BKN010=
201408100650 METAR COR EGLL 100650Z 13009KT 9000 -RA SCT015 BKN021 16/14
                        Q0998 RERA TEMPO 4000 RA BKN010=
201408100620 METAR COR EGLL 100620Z 14008KT 9000 RA FEW027 SCT035 17/13
                        Q0999 TEMPO 4000 +RA BKN010=
201408100550 METAR EGLL 100550Z 15009KT 9999 FEW011 SCT047 17/14 Q1000=
201408100520 METAR COR EGLL 100520Z 12008KT 9999 FEW009 BKN012 16/14 Q1000
                        TEMPO 4000 RA BKN008=
201408100450 METAR COR EGLL 100450Z 11008KT 9999 FEW013 16/14 Q1001 TEMPO
                        SHRA BKN014=
201408100420 METAR COR EGLL 100420Z 11006KT 9999 FEW024 16/14 Q1002 TEMPO
                        SHRA=
201408100350 METAR EGLL 100350Z 11007KT 9999 SCT024 15/14 Q1002 TEMPO
                        SHRA=
201408100320 METAR COR EGLL 100320Z 10006KT 9999 FEW027 15/13 Q1003 TEMPO
                        SHRA=
201408100250 METAR EGLL 100250Z 11005KT CAVOK 15/13 Q1004 TEMPO SHRA=
201408100220 METAR COR EGLL 100220Z 12007KT CAVOK 15/13 Q1004 TEMPO SHRA=
201408100150 METAR EGLL 100150Z 11006KT CAVOK 16/13 Q1005 TEMPO SHRA=
201408100120 METAR EGLL 100120Z AUTO 12005KT 090V170 9999 -RA NCD 16/13
                        Q1006 REDZ=
201408100050 METAR EGLL 100050Z AUTO 16005KT 9999 DZ FEW022 16/14 Q1007
                        RERA=
201408100020 METAR EGLL 100020Z AUTO 18005KT 9999 -RA NCD 16/13 Q1007=
201408092350 METAR EGLL 092350Z 15005KT CAVOK 16/13 Q1007 TEMPO SHRA=
201408092320 METAR COR EGLL 092320Z 16006KT CAVOK 17/13 Q1007 TEMPO SHRA=
201408092250 METAR EGLL 092250Z 17007KT 150V240 CAVOK 17/12 Q1008 TEMPO
                        SHRA=
201408092220 METAR COR EGLL 092220Z 18007KT 150V240 CAVOK 17/12 Q1008
                        TEMPO SHRA=
201408092150 METAR EGLL 092150Z 18009KT 150V230 CAVOK 17/12 Q1008 NOSIG=
201408092120 METAR COR EGLL 092120Z 17007KT 130V210 CAVOK 17/12 Q1008
                        NOSIG=
201408092050 METAR EGLL 092050Z 19007KT CAVOK 18/12 Q1008 NOSIG=
201408092020 METAR COR EGLL 092020Z 18009KT CAVOK 18/12 Q1008 NOSIG=
201408091950 METAR COR EGLL 091950Z 18010KT 150V210 CAVOK 18/12 Q1008
                        NOSIG=
201408091920 METAR COR EGLL 091920Z 20009KT CAVOK 19/10 Q1008 NOSIG=
201408091850 METAR EGLL 091850Z 21011KT CAVOK 19/11 Q1009 NOSIG=
201408091820 METAR COR EGLL 091820Z 20013KT CAVOK 20/10 Q1008 NOSIG=
201408091750 METAR EGLL 091750Z 22014KT 9999 FEW046 21/10 Q1008 NOSIG=
201408091720 METAR COR EGLL 091720Z 23013KT 9999 FEW046 21/09 Q1008 NOSIG=
201408091650 METAR COR EGLL 091650Z 23015KT 9999 FEW048 21/10 Q1008 NOSIG=
201408091620 METAR COR EGLL 091620Z 22015KT 9999 FEW046 21/11 Q1008 NOSIG=
201408091550 METAR EGLL 091550Z 21013KT 9999 FEW042 22/11 Q1008 NOSIG=
201408091520 METAR COR EGLL 091520Z 22014KT 9999 FEW047 23/11 Q1008 NOSIG=
201408091450 METAR EGLL 091450Z 21012KT 9999 FEW048 23/10 Q1008 NOSIG=
201408091420 METAR COR EGLL 091420Z 23012KT 200V260 CAVOK 23/10 Q1008
                        NOSIG=
201408091350 METAR EGLL 091350Z 22012KT 9999 FEW049 23/10 Q1009 NOSIG=
201408091320 METAR COR EGLL 091320Z 24013KT 9999 FEW049 22/10 Q1009 NOSIG=
201408091250 METAR EGLL 091250Z 24013KT 9999 SCT048 22/10 Q1009 NOSIG=
201408091220 METAR COR EGLL 091220Z 26014KT 9999 SCT043 22/10 Q1009 NOSIG=
201408091150 METAR EGLL 091150Z 24014KT 9999 SCT044 22/11 Q1009 NOSIG=
201408091120 METAR COR EGLL 091120Z 25013KT 9999 SCT043 21/11 Q1009 NOSIG=
201408091050 METAR EGLL 091050Z 26012KT 9999 SCT032 20/12 Q1009 NOSIG=
201408091020 METAR COR EGLL 091020Z 23010KT 190V290 9999 SCT024 20/13
                        Q1009 NOSIG=
201408090950 METAR EGLL 090950Z 24014KT 9999 FEW021 SCT024 19/14 Q1009
                        NOSIG=
201408090920 METAR COR EGLL 090920Z 26011KT 220V290 9999 SCT018 SCT022
                        18/14 Q1008 NOSIG=
201408090850 METAR EGLL 090850Z 25010KT 9999 FEW015 SCT021 17/13 Q1008
                        NOSIG=
201408090820 METAR COR EGLL 090820Z 26012KT 9999 SCT016 SCT023 17/13 Q1008
                        NOSIG=
201408090750 METAR EGLL 090750Z 24009KT 9999 SCT014 17/13 Q1008 NOSIG=
201408090720 METAR COR EGLL 090720Z 24011KT 9999 SCT013 16/14 Q1007 NOSIG=
201408090650 METAR COR EGLL 090650Z 25011KT 9999 FEW011 16/14 Q1007 NOSIG=
201408090620 METAR COR EGLL 090620Z 24008KT 9999 FEW032 15/13 Q1006 NOSIG=
201408090550 METAR COR EGLL 090550Z 24008KT 9999 FEW032 15/13 Q1006 NOSIG=
201408090520 METAR COR EGLL 090520Z 24008KT 9999 FEW040 14/13 Q1006 NOSIG=
201408090450 METAR COR EGLL 090450Z 26006KT CAVOK 14/12 Q1006 NOSIG=
201408090420 METAR COR EGLL 090420Z 26009KT CAVOK 13/12 Q1005 NOSIG=
201408090350 METAR EGLL 090350Z 27008KT CAVOK 13/12 Q1005 NOSIG=
201408090320 METAR EGLL 090320Z 27010KT CAVOK 14/13 Q1005=
201408090250 METAR EGLL 090250Z 27010KT CAVOK 15/13 Q1004 NOSIG=
201408090220 METAR COR EGLL 090220Z 27009KT CAVOK 15/14 Q1004 NOSIG=
201408090150 METAR EGLL 090150Z 27009KT 9999 FEW020 16/14 Q1004 NOSIG=
201408090120 METAR EGLL 090120Z AUTO 27009KT 8000 SCT021/// //////TCU
                        15/14 Q1003=
201408090050 METAR EGLL 090050Z AUTO 26008KT 9999 -DZ FEW042/// SCT085///
                        //////CB 15/14 Q1003=
201408090020 METAR EGLL 090020Z AUTO 26010KT 9999 RA NCD 15/14 Q1003=
201408082350 METAR EGLL 082350Z 28008KT 9999 -SHRA FEW030 15/14 Q1003=
201408082320 METAR EGLL 082320Z 27009KT 9000 -SHRA FEW025 SCT032 15/14
                        Q1003=
201408082250 METAR COR EGLL 082250Z 27012KT 9000 -SHRA FEW012 SCT038 16/14
                        Q1003 TEMPO SHRA=
201408082220 METAR COR EGLL 082220Z 27008KT 9000 -SHRA FEW012 SCT035 16/15
                        Q1004 TEMPO SHRA=
201408082150 METAR EGLL 082150Z 27008KT 9000 -SHRA FEW012 SCT031 16/14
                        Q1004 RESHRA TEMPO SHRA=
201408082120 METAR COR EGLL 082120Z 31005KT 8000 SHRA FEW008 SCT040 16/15
                        Q1004 TEMPO SHRA=
201408082050 METAR COR EGLL 082050Z 27009KT 5000 SHRA FEW007 SCT046 16/16
                        Q1003 TEMPO +SHRA=
201408082020 METAR COR EGLL 082020Z 29007KT 9000 -SHRA FEW042 SCT046CB
                        17/16 Q1003 RESHRA TEMPO SHRA=
201408081950 METAR COR EGLL 081950Z 29007KT 6000 SHRA SCT034 SCT042CB
                        16/16 Q1003 BECMG NSW=
201408081920 METAR COR EGLL 081920Z 27009KT 6000 -SHRA FEW021 SCT049CB
                        17/16 Q1003 RESHRA TEMPO 4000 SHRA=
201408081850 METAR COR EGLL 081850Z 29007KT 230V340 4500 SHRA FEW011 SCT023CB
                        17/16 Q1004 TEMPO +SHRA=
201408081820 METAR COR EGLL 081820Z 28007KT 260V340 9999 4000NE SHRA FEW015
                        SCT035 18/16 Q1004 TEMPO 4800 SHRA=
201408081750 METAR COR EGLL 081750Z 26008KT 9999 5000SW -SHRA SCT037 20/16
                        Q1003 TEMPO SHRA=
201408081720 METAR COR EGLL 081720Z 23005KT 190V270 9999 FEW039 23/14
                        Q1004 NOSIG=
201408081650 METAR EGLL 081650Z VRB05KT 9999 FEW039 23/14 Q1004=
201408081620 METAR COR EGLL 081620Z 24006KT 200V280 9999 FEW039 23/14
                        Q1005 NOSIG=
201408081550 METAR COR EGLL 081550Z 23006KT 200V270 9999 FEW040 23/14
                        Q1005 NOSIG=
201408081520 METAR COR EGLL 081520Z 23006KT 190V280 9999 FEW037 23/13
                        Q1005 NOSIG=
201408081450 METAR EGLL 081450Z 23005KT 170V320 9999 FEW037 23/14 Q1005
                        NOSIG=
201408081420 METAR COR EGLL 081420Z 21005KT 180V340 9999 FEW036 23/14
                        Q1006 NOSIG=
201408081350 METAR EGLL 081350Z VRB04KT 9999 FEW032 23/15 Q1006 NOSIG=
201408081320 METAR EGLL 081320Z 22004KT 150V280 9999 FEW025 23/14 Q1007=
201408081250 METAR COR EGLL 081250Z VRB04KT 9999 FEW029 22/15 Q1007 NOSIG=
201408081220 METAR EGLL 081220Z 18005KT 140V250 9999 FEW030 23/15 Q1008=
201408081150 METAR COR EGLL 081150Z VRB03KT 9999 FEW045 23/16 Q1008 NOSIG=
201408081120 METAR EGLL 081120Z 00000KT 9999 FEW047 22/15 Q1008=
201408081050 METAR EGLL 081050Z VRB03KT 9999 FEW048 20/15 Q1009 NOSIG=
201408081020 METAR COR EGLL 081020Z 19004KT 140V230 9999 -RA FEW042 21/15
                        Q1009 NOSIG=
201408080950 METAR EGLL 080950Z 13004KT 080V170 9999 FEW024 22/15 Q1009
                        NOSIG=
201408080920 METAR COR EGLL 080920Z 16004KT 110V230 9999 FEW032 22/14
                        Q1010 NOSIG=
201408080850 METAR EGLL 080850Z 13004KT 040V190 9999 FEW032 21/14 Q1010=
201408080820 METAR COR EGLL 080820Z 12004KT 070V140 CAVOK 20/14 Q1010
                        NOSIG=
201408080750 METAR COR EGLL 080750Z 12004KT 9999 FEW035 20/14 Q1010 NOSIG=
201408080720 METAR COR EGLL 080720Z VRB02KT CAVOK 20/14 Q1011 NOSIG=
201408080650 METAR COR EGLL 080650Z 08003KT CAVOK 19/14 Q1011 NOSIG=
201408080620 METAR COR EGLL 080620Z 10005KT CAVOK 18/14 Q1011 NOSIG=
201408080550 METAR COR EGLL 080550Z 09004KT 9999 FEW040 17/14 Q1011 NOSIG=
201408080520 METAR COR EGLL 080520Z 10004KT 9999 FEW040 18/13 Q1011 NOSIG=
201408080450 METAR COR EGLL 080450Z 09004KT CAVOK 17/13 Q1012 NOSIG=
201408080420 METAR COR EGLL 080420Z 09004KT CAVOK 16/13 Q1012 NOSIG=
201408080350 METAR EGLL 080350Z 08003KT CAVOK 16/13 Q1012 NOSIG=
201408080320 METAR COR EGLL 080320Z 10004KT CAVOK 16/13 Q1012 NOSIG=
201408080250 METAR COR EGLL 080250Z 13004KT CAVOK 17/13 Q1012 NOSIG=
201408080220 METAR EGLL 080220Z 10005KT CAVOK 17/14 Q1013=
201408080150 METAR COR EGLL 080150Z 11004KT CAVOK 17/13 Q1013 NOSIG=
201408080120 METAR COR EGLL 080120Z 13004KT CAVOK 18/14 Q1013 NOSIG=
201408080050 METAR COR EGLL 080050Z 13005KT CAVOK 18/14 Q1013 NOSIG=
201408080020 METAR COR EGLL 080020Z 13005KT CAVOK 18/14 Q1013 NOSIG=
201408072350 METAR EGLL 072350Z 14002KT CAVOK 18/14 Q1013 NOSIG=
201408072320 METAR COR EGLL 072320Z 17005KT CAVOK 18/14 Q1014 NOSIG=
201408072250 METAR EGLL 072250Z 17006KT CAVOK 19/15 Q1014 NOSIG=
201408072220 METAR COR EGLL 072220Z 19007KT CAVOK 19/15 Q1014 NOSIG=
201408072150 METAR EGLL 072150Z 22007KT CAVOK 20/14 Q1014=
201408072120 METAR COR EGLL 072120Z 21006KT CAVOK 20/14 Q1014 NOSIG=
201408072050 METAR EGLL 072050Z 22007KT CAVOK 20/14 Q1014 NOSIG=
201408072020 METAR COR EGLL 072020Z 24008KT CAVOK 21/14 Q1014 NOSIG=
201408071950 METAR EGLL 071950Z 23008KT CAVOK 22/14 Q1014 NOSIG=
201408071920 METAR COR EGLL 071920Z 23008KT CAVOK 23/13 Q1014 NOSIG=
201408071850 METAR EGLL 071850Z VRB03KT CAVOK 24/09 Q1013 NOSIG=
201408071820 METAR COR EGLL 071820Z 31004KT CAVOK 25/09 Q1013 NOSIG=
201408071750 METAR EGLL 071750Z 32004KT 280V030 CAVOK 25/09 Q1013 NOSIG=
201408071720 METAR COR EGLL 071720Z 30004KT 250V030 9999 FEW035 25/09
                        Q1014 NOSIG=
201408071650 METAR COR EGLL 071650Z 32005KT 270V020 CAVOK 25/09 Q1014
                        NOSIG=
201408071620 METAR COR EGLL 071620Z 32005KT 260V020 CAVOK 25/10 Q1014
                        NOSIG=
201408071550 METAR EGLL 071550Z 30005KT 230V350 CAVOK 25/11 Q1014 NOSIG=
201408071520 METAR COR EGLL 071520Z 27006KT 220V330 CAVOK 24/11 Q1014
                        NOSIG=
201408071450 METAR EGLL 071450Z 28006KT 270V340 CAVOK 25/11 Q1014 NOSIG=
201408071420 METAR COR EGLL 071420Z VRB02KT CAVOK 24/11 Q1014 NOSIG=
201408071350 METAR COR EGLL 071350Z VRB03KT CAVOK 26/11 Q1014 NOSIG=
201408071320 METAR COR EGLL 071320Z VRB04KT CAVOK 25/11 Q1014 NOSIG=
201408071250 METAR EGLL 071250Z VRB02KT 9999 FEW048 25/11 Q1014=
201408071220 METAR COR EGLL 071220Z 27005KT 230V300 9999 FEW046 23/11
                        Q1014 NOSIG=
201408071150 METAR EGLL 071150Z VRB03KT 9999 FEW045 25/12 Q1014 NOSIG=
201408071120 METAR COR EGLL 071120Z VRB04KT 9999 FEW045 23/12 Q1015 NOSIG=
201408071050 METAR COR EGLL 071050Z 32005KT 270V350 9999 FEW041 23/13
                        Q1015 NOSIG=
201408071020 METAR COR EGLL 071020Z 28006KT 250V320 9999 FEW035 22/13
                        Q1015 NOSIG=
201408070950 METAR EGLL 070950Z VRB03KT 9999 SCT028 20/14 Q1015 NOSIG=
201408070920 METAR COR EGLL 070920Z VRB02KT 9999 FEW026 22/14 Q1015 NOSIG=
201408070850 METAR COR EGLL 070850Z 30004KT 210V360 9999 FEW030 20/15
                        Q1015 NOSIG=
201408070820 METAR COR EGLL 070820Z VRB02KT 9999 FEW030 19/15 Q1015 NOSIG=
201408070750 METAR EGLL 070750Z VRB03KT CAVOK 19/15 Q1015 NOSIG=
201408070720 METAR COR EGLL 070720Z VRB03KT CAVOK 17/14 Q1014 NOSIG=
201408070650 METAR COR EGLL 070650Z 30004KT 260V350 CAVOK 17/14 Q1014
                        NOSIG=
201408070620 METAR COR EGLL 070620Z 31003KT CAVOK 16/14 Q1014 NOSIG=
201408070550 METAR EGLL 070550Z 29003KT CAVOK 15/14 Q1014 NOSIG=
201408070520 METAR COR EGLL 070520Z 27003KT CAVOK 15/13 Q1014 NOSIG=
201408070450 METAR COR EGLL 070450Z 00000KT CAVOK 14/13 Q1013 NOSIG=
201408070420 METAR COR EGLL 070420Z 27004KT CAVOK 15/13 Q1013 NOSIG=
201408070350 METAR COR EGLL 070350Z 27005KT CAVOK 15/13 Q1013 NOSIG=
201408070320 METAR COR EGLL 070320Z 29003KT CAVOK 15/14 Q1013 NOSIG=
201408070250 METAR EGLL 070250Z 28005KT CAVOK 15/13 Q1013=
201408070220 METAR COR EGLL 070220Z 27005KT CAVOK 15/13 Q1013 NOSIG=
201408070150 METAR COR EGLL 070150Z 26004KT CAVOK 16/13 Q1013 NOSIG=
201408070120 METAR COR EGLL 070120Z 27007KT CAVOK 16/13 Q1013 NOSIG=
201408070050 METAR EGLL 070050Z 27006KT 9999 SCT047 16/13 Q1013 NOSIG=
201408070020 METAR COR EGLL 070020Z 27007KT CAVOK 16/13 Q1013 NOSIG=
201408062350 METAR EGLL 062350Z 26005KT CAVOK 16/13 Q1013 NOSIG=
201408062320 METAR COR EGLL 062320Z 24005KT CAVOK 17/13 Q1013 NOSIG=
201408062250 METAR COR EGLL 062250Z 24005KT CAVOK 17/13 Q1013 NOSIG=
201408062220 METAR COR EGLL 062220Z 26009KT CAVOK 18/13 Q1013 NOSIG=
201408062150 METAR EGLL 062150Z 26008KT CAVOK 18/12 Q1013 NOSIG=
201408062120 METAR COR EGLL 062120Z 27008KT CAVOK 18/12 Q1012 NOSIG=
201408062050 METAR COR EGLL 062050Z 27008KT 9999 FEW035 19/13 Q1012 NOSIG=
201408062020 METAR COR EGLL 062020Z 27009KT 9999 FEW030 20/12 Q1012 NOSIG=
201408061950 METAR COR EGLL 061950Z 28009KT CAVOK 21/12 Q1012 NOSIG=
201408061920 METAR COR EGLL 061920Z 26008KT 9999 FEW030 21/13 Q1011 NOSIG=
201408061850 METAR COR EGLL 061850Z 26010KT CAVOK 23/12 Q1011 NOSIG=
201408061820 METAR COR EGLL 061820Z 26011KT CAVOK 23/13 Q1011 NOSIG=
201408061750 METAR EGLL 061750Z 26012KT CAVOK 24/12 Q1011 NOSIG=
201408061720 METAR COR EGLL 061720Z 27012KT CAVOK 24/12 Q1011 NOSIG=
201408061650 METAR COR EGLL 061650Z 26013KT 220V300 CAVOK 25/12 Q1011
                        NOSIG=
201408061620 METAR COR EGLL 061620Z 28013KT CAVOK 25/12 Q1011 NOSIG=
201408061550 METAR EGLL 061550Z 26015KT CAVOK 25/12 Q1010 NOSIG=
201408061520 METAR COR EGLL 061520Z 28014KT CAVOK 25/12 Q1010 NOSIG=
201408061450 METAR EGLL 061450Z 26015KT 9999 SCT049 25/13 Q1010 NOSIG=
201408061420 METAR COR EGLL 061420Z 27012KT 9999 SCT040 24/14 Q1010 NOSIG=
201408061350 METAR EGLL 061350Z 28011KT 240V310 9999 SCT043 24/14 Q1010
                        NOSIG=
201408061320 METAR COR EGLL 061320Z 25013KT 210V280 9999 FEW037 25/14
                        Q1010 NOSIG=
201408061250 METAR EGLL 061250Z 27011KT 9999 SCT035 23/15 Q1010 NOSIG=
201408061220 METAR COR EGLL 061220Z 25011KT 9999 FEW031 24/15 Q1010 NOSIG=
201408061150 METAR EGLL 061150Z 27010KT 240V300 9999 FEW041 24/15 Q1010
                        NOSIG=
201408061120 METAR COR EGLL 061120Z 26010KT 9999 FEW028 23/15 Q1010 NOSIG=
201408061050 METAR EGLL 061050Z 25009KT 210V290 9999 SCT028 22/15 Q1010
                        NOSIG=
201408061020 METAR COR EGLL 061020Z 23009KT 9999 FEW021 22/15 Q1010 NOSIG=
201408060950 METAR EGLL 060950Z 27009KT 9999 FEW015 SCT022 20/16 Q1010
                        NOSIG=
201408060920 METAR COR EGLL 060920Z 28009KT 240V310 9999 FEW014 SCT022
                        20/16 Q1011 NOSIG=
201408060850 METAR COR EGLL 060850Z 25008KT 220V290 9999 FEW011 SCT024
                        19/16 Q1011 NOSIG=
201408060820 METAR COR EGLL 060820Z 23007KT 180V290 9999 FEW008 SCT014
                        BKN021 18/16 Q1011 NOSIG=
201408060750 METAR EGLL 060750Z 19005KT 150V230 9999 FEW008 SCT010 19/16
                        Q1011 NOSIG=
201408060720 METAR COR EGLL 060720Z 21007KT 9999 FEW008 SCT010 18/16 Q1011
                        NOSIG=
201408060650 METAR COR EGLL 060650Z 22006KT 170V260 9999 FEW009 BKN011
                        18/16 Q1011 BECMG SCT012=
201408060620 METAR COR EGLL 060620Z 18005KT 140V230 9999 FEW008 SCT022
                        17/16 Q1011 NOSIG=
201408060550 METAR COR EGLL 060550Z 17006KT 150V220 9999 FEW005 BKN009
                        17/16 Q1011 TEMPO BKN005=
201408060520 METAR COR EGLL 060520Z 20005KT 130V240 9000 -RA BKN005 17/16
                        Q1011 TEMPO SHRA FEW005 BKN020=
201408060450 METAR COR EGLL 060450Z 16004KT 8000 -RA FEW013 17/16 Q1011
                        TEMPO SHRA=
201408060420 METAR COR EGLL 060420Z 14006KT 9000 FEW020 17/16 Q1011 TEMPO
                        4000 +SHRA BKN010=
201408060350 METAR COR EGLL 060350Z 16006KT 9999 FEW025 17/16 Q1012 TEMPO
                        4000 SHRA BKN010=
201408060320 METAR COR EGLL 060320Z 15005KT 9999 SCT010 SCT025 17/16 Q1012
                        TEMPO RA=
201408060250 METAR EGLL 060250Z 15005KT 9999 -RA FEW006 SCT022 17/16 Q1012=
201408060220 METAR EGLL 060220Z 15005KT 9999 -RA SCT006 SCT019 17/16 Q1013
                        RERA=
201408060150 METAR COR EGLL 060150Z 15005KT 8000 RA SCT006 SCT019 17/16
                        Q1013 RERA TEMPO 4000 +RA BKN010=
201408060120 METAR EGLL 060120Z AUTO 16007KT 6000 +RA FEW021/// BKN029///
                        //////CB 17/16 Q1013=
201408060050 METAR EGLL 060050Z AUTO 18009KT 6000 +RA FEW010/// SCT022///
                        //////CB 17/16 Q1014=
201408060020 METAR EGLL 060020Z AUTO 17009KT 9999 -RA BKN036/// //////CB
                        18/15 Q1014=
201408052350 METAR EGLL 052350Z 17006KT 9999 SCT037 18/15 Q1014 TEMPO
                        RA=
201408052320 METAR COR EGLL 052320Z 16006KT CAVOK 18/15 Q1014 TEMPO RA=
201408052250 METAR COR EGLL 052250Z 16007KT CAVOK 18/15 Q1015 NOSIG=
201408052220 METAR COR EGLL 052220Z 17007KT CAVOK 18/15 Q1015 NOSIG=
201408052150 METAR COR EGLL 052150Z 16008KT CAVOK 18/15 Q1015 TEMPO 7000
                        RA=
201408052120 METAR COR EGLL 052120Z 16007KT CAVOK 19/15 Q1015 NOSIG=
201408052050 METAR COR EGLL 052050Z 18009KT 150V210 CAVOK 19/15 Q1016
                        NOSIG=
201408052020 METAR COR EGLL 052020Z 18009KT 130V210 CAVOK 19/15 Q1016
                        NOSIG=
201408051950 METAR COR EGLL 051950Z 18009KT 9999 FEW030 20/15 Q1016 NOSIG=
201408051920 METAR COR EGLL 051920Z 20010KT 170V230 9999 FEW030 20/15
                        Q1016 NOSIG=
201408051850 METAR COR EGLL 051850Z 20011KT 9999 FEW030 21/15 Q1016 NOSIG=
201408051820 METAR COR EGLL 051820Z 19011KT 160V220 9999 SCT027 21/15
                        Q1016 NOSIG=
201408051750 METAR COR EGLL 051750Z 18012KT 9999 SCT034 22/15 Q1016 NOSIG=
201408051720 METAR COR EGLL 051720Z 19012KT 170V250 9999 SCT026 22/15
                        Q1016 NOSIG=
201408051650 METAR EGLL 051650Z 20012KT 170V230 9999 SCT030 23/15 Q1016
                        NOSIG=
201408051620 METAR COR EGLL 051620Z 19014KT 9999 -SHRA SCT038 22/15 Q1016
                        NOSIG=
201408051550 METAR COR EGLL 051550Z 20013KT 9999 FEW031 22/14 Q1017 NOSIG=
201408051520 METAR COR EGLL 051520Z 21013KT 9999 FEW040 SCT048 22/14 Q1017
                        NOSIG=
201408051450 METAR COR EGLL 051450Z 20010KT 140V230 9999 BKN043 23/13
                        Q1017 NOSIG=
201408051420 METAR COR EGLL 051420Z 20012KT 170V230 9999 FEW043 SCT048
                        23/12 Q1017 NOSIG=
201408051350 METAR EGLL 051350Z 20012KT 170V240 9999 FEW047 23/13 Q1017
                        NOSIG=
201408051320 METAR COR EGLL 051320Z 20011KT 150V250 9999 FEW039 23/13
                        Q1017 NOSIG=
201408051250 METAR EGLL 051250Z 19012KT 150V230 9999 BKN042 23/13 Q1017
                        NOSIG=
201408051220 METAR EGLL 051220Z 20011G21KT 150V250 9999 SCT039 23/13 Q1018=
201408051150 METAR EGLL 051150Z 20012KT 140V250 9999 SCT037 22/12 Q1018=
201408051120 METAR COR EGLL 051120Z 20010KT 9999 FEW033 22/13 Q1018 NOSIG=
201408051050 METAR COR EGLL 051050Z 21010KT 180V250 9999 FEW036 22/13
                        Q1018 NOSIG=
201408051020 METAR COR EGLL 051020Z 19009KT 150V230 9999 FEW036 21/12
                        Q1018 NOSIG=
201408050950 METAR COR EGLL 050950Z 21008G19KT 160V250 9999 FEW028 20/12
                        Q1019 NOSIG=
201408050920 METAR COR EGLL 050920Z 20008KT 160V270 9999 SCT048 20/13
                        Q1019 NOSIG=
201408050850 METAR COR EGLL 050850Z 21007KT 170V240 9999 FEW024 19/13
                        Q1019 NOSIG=
201408050820 METAR COR EGLL 050820Z VRB08KT 9999 FEW020 19/13 Q1019 NOSIG=
201408050750 METAR EGLL 050750Z 20007KT 160V240 9999 FEW016 18/14 Q1019=
201408050720 METAR COR EGLL 050720Z 20004KT 150V250 9999 FEW016 18/14
                        Q1019 NOSIG=
201408050650 METAR COR EGLL 050650Z 21005KT 150V250 CAVOK 16/14 Q1019
                        NOSIG=
201408050620 METAR COR EGLL 050620Z VRB04KT CAVOK 15/13 Q1019 NOSIG=
201408050550 METAR EGLL 050550Z 21004KT 180V250 CAVOK 14/13 Q1019 NOSIG=
201408050520 METAR COR EGLL 050520Z VRB03KT CAVOK 13/12 Q1019 NOSIG=
201408050450 METAR EGLL 050450Z 19004KT CAVOK 13/12 Q1019 NOSIG=
201408050420 METAR COR EGLL 050420Z VRB03KT CAVOK 14/12 Q1019 NOSIG=
201408050350 METAR EGLL 050350Z 20003KT CAVOK 13/12 Q1019 NOSIG=
201408050320 METAR COR EGLL 050320Z 23004KT CAVOK 14/12 Q1019 NOSIG=
201408050250 METAR EGLL 050250Z 20004KT CAVOK 13/12 Q1019 NOSIG=
201408050220 METAR COR EGLL 050220Z 22003KT CAVOK 13/11 Q1019 NOSIG=
201408050150 METAR EGLL 050150Z 23006KT CAVOK 14/12 Q1019 NOSIG=
201408050120 METAR EGLL 050120Z AUTO 23004KT 9999 NCD 14/12 Q1019=
201408050050 METAR EGLL 050050Z AUTO 21005KT 9999 NCD 14/12 Q1018=
201408050020 METAR EGLL 050020Z AUTO 23005KT 9999 NCD 14/11 Q1018=
201408042350 METAR COR EGLL 042350Z 23006KT CAVOK 16/12 Q1018 NOSIG=
201408042320 METAR COR EGLL 042320Z 23004KT CAVOK 16/12 Q1018 NOSIG=
201408042250 METAR EGLL 042250Z 21006KT CAVOK 17/12 Q1018 NOSIG=
201408042220 METAR COR EGLL 042220Z 22005KT CAVOK 18/12 Q1018 NOSIG=
201408042150 METAR EGLL 042150Z 23004KT CAVOK 18/12 Q1018 NOSIG=
201408042120 METAR COR EGLL 042120Z 27005KT CAVOK 17/12 Q1018 NOSIG=
201408042050 METAR EGLL 042050Z 26006KT CAVOK 18/12 Q1018 NOSIG=
201408042020 METAR COR EGLL 042020Z 26008KT CAVOK 18/12 Q1018 NOSIG=
201408041950 METAR EGLL 041950Z 26008KT CAVOK 19/11 Q1017 NOSIG=
201408041920 METAR COR EGLL 041920Z 25010KT CAVOK 19/11 Q1017 NOSIG=
201408041850 METAR COR EGLL 041850Z 27012KT CAVOK 20/11 Q1017 NOSIG=
201408041820 METAR COR EGLL 041820Z 26011KT CAVOK 21/11 Q1017 NOSIG=
201408041750 METAR COR EGLL 041750Z 23011KT CAVOK 22/09 Q1016 NOSIG=
201408041720 METAR COR EGLL 041720Z 23009KT CAVOK 22/09 Q1016 NOSIG=
201408041650 METAR COR EGLL 041650Z 23011KT CAVOK 21/10 Q1016 NOSIG=
201408041620 METAR COR EGLL 041620Z 24011KT CAVOK 21/10 Q1016 NOSIG=
201408041550 METAR COR EGLL 041550Z 20007KT 170V240 CAVOK 22/09 Q1016
                        TEMPO SHRA=
201408041520 METAR COR EGLL 041520Z 21009KT 160V250 CAVOK 22/09 Q1016
                        TEMPO SHRA=
201408041450 METAR EGLL 041450Z 20010KT 170V260 CAVOK 23/09 Q1016 NOSIG=
201408041420 METAR COR EGLL 041420Z 19008KT 150V240 CAVOK 24/09 Q1016
                        NOSIG=
201408041350 METAR COR EGLL 041350Z 22007KT 160V310 CAVOK 24/09 Q1016
                        NOSIG=
201408041320 METAR COR EGLL 041320Z 21007G17KT 160V260 CAVOK 24/07 Q1016
                        NOSIG=
201408041250 METAR EGLL 041250Z 24007KT 200V300 9999 FEW048 23/09 Q1016
                        NOSIG=
201408041220 METAR COR EGLL 041220Z 26007KT 210V300 9999 FEW048 22/08
                        Q1016 NOSIG=
201408041150 METAR COR EGLL 041150Z 30006KT 240V360 9999 SCT048 21/09
                        Q1016 NOSIG=
201408041120 METAR COR EGLL 041120Z 24008KT 200V280 9999 SCT045 22/10
                        Q1016 NOSIG=
201408041050 METAR COR EGLL 041050Z 27006KT 210V330 9999 SCT040 22/10
                        Q1016 NOSIG=
201408041020 METAR COR EGLL 041020Z 24008KT 200V270 9999 SCT036 21/11
                        Q1016 NOSIG=
201408040950 METAR EGLL 040950Z 28008KT 240V300 9999 FEW028 20/11 Q1016
                        NOSIG=
201408040920 METAR COR EGLL 040920Z 26007KT 210V310 9999 FEW028 20/11
                        Q1016 NOSIG=
201408040850 METAR EGLL 040850Z 26007KT 9999 FEW026 19/12 Q1016 NOSIG=
201408040820 METAR COR EGLL 040820Z 25007KT 230V300 9999 FEW024 19/13
                        Q1016 NOSIG=
201408040750 METAR EGLL 040750Z 27005KT 240V310 9999 FEW024 18/12 Q1015
                        NOSIG=
201408040720 METAR COR EGLL 040720Z 26007KT CAVOK 17/12 Q1015 NOSIG=
201408040650 METAR COR EGLL 040650Z 27007KT CAVOK 16/13 Q1015 NOSIG=
201408040620 METAR COR EGLL 040620Z 29006KT CAVOK 15/12 Q1015 NOSIG=
201408040550 METAR COR EGLL 040550Z 28005KT CAVOK 14/12 Q1015 NOSIG=
201408040520 METAR COR EGLL 040520Z 27005KT CAVOK 14/12 Q1014 NOSIG=
201408040450 METAR EGLL 040450Z 28004KT CAVOK 13/11 Q1014 NOSIG=
201408040420 METAR COR EGLL 040420Z 25004KT CAVOK 13/11 Q1014 NOSIG=
201408040350 METAR EGLL 040350Z VRB02KT CAVOK 13/11 Q1014 NOSIG=
201408040320 METAR COR EGLL 040320Z 26003KT CAVOK 14/11 Q1014 NOSIG=
201408040250 METAR COR EGLL 040250Z 23003KT CAVOK 14/11 Q1014 NOSIG=
201408040220 METAR COR EGLL 040220Z 21004KT CAVOK 14/11 Q1013 NOSIG=
201408040150 METAR EGLL 040150Z 21004KT CAVOK 14/11 Q1013 NOSIG=
201408040120 METAR EGLL 040120Z AUTO 23004KT 9999 NCD 14/11 Q1013=
201408040050 METAR EGLL 040050Z AUTO 21005KT 9999 NCD 15/12 Q1013=
201408040020 METAR EGLL 040020Z AUTO 22005KT 9999 NCD 15/11 Q1013=
201408032350 METAR EGLL 032350Z 23004KT CAVOK 15/11 Q1013 NOSIG=
201408032320 METAR COR EGLL 032320Z 21005KT CAVOK 16/11 Q1013 NOSIG=
201408032250 METAR EGLL 032250Z 20005KT CAVOK 16/11 Q1013 NOSIG=
201408032220 METAR COR EGLL 032220Z 21006KT CAVOK 17/11 Q1013 NOSIG=
201408032150 METAR COR EGLL 032150Z 21007KT CAVOK 17/11 Q1012 NOSIG=
201408032120 METAR COR EGLL 032120Z 22008KT CAVOK 18/11 Q1012 NOSIG=
201408032050 METAR EGLL 032050Z 23010KT CAVOK 18/11 Q1012 NOSIG=
201408032020 METAR COR EGLL 032020Z 22009KT CAVOK 19/10 Q1012 NOSIG=
201408031950 METAR EGLL 031950Z 22010KT CAVOK 20/10 Q1011 NOSIG=
201408031920 METAR COR EGLL 031920Z 22009KT CAVOK 20/10 Q1011 NOSIG=
201408031850 METAR EGLL 031850Z 22012KT 9999 FEW048 21/10 Q1010 NOSIG=
201408031820 METAR COR EGLL 031820Z 23013KT 190V250 9999 FEW048 22/10
                        Q1010 NOSIG=
201408031750 METAR COR EGLL 031750Z 23011KT 200V270 9999 FEW048 21/09
                        Q1010 NOSIG=
201408031720 METAR EGLL 031720Z AUTO 22012G22KT 9999 NCD 23/09 Q1010=
201408031650 METAR EGLL 031650Z 22011KT 160V270 CAVOK 23/09 Q1010 NOSIG=
201408031620 METAR COR EGLL 031620Z 24012KT 210V270 CAVOK 22/09 Q1010
                        NOSIG=
201408031550 METAR COR EGLL 031550Z 21011KT 180V250 CAVOK 22/09 Q1010
                        NOSIG=
201408031520 METAR COR EGLL 031520Z 24013KT 200V260 CAVOK 23/09 Q1010
                        NOSIG=
201408031450 METAR COR EGLL 031450Z 23015KT CAVOK 22/09 Q1010 NOSIG=
201408031420 METAR COR EGLL 031420Z 23014KT 190V260 CAVOK 23/08 Q1010
                        NOSIG=
201408031350 METAR COR EGLL 031350Z 20011KT CAVOK 23/09 Q1010 NOSIG=
201408031320 METAR COR EGLL 031320Z 21012KT 170V230 9999 FEW048 22/10
                        Q1010 NOSIG=
201408031250 METAR COR EGLL 031250Z 21012KT 9999 FEW047 22/09 Q1010 NOSIG=
201408031220 METAR COR EGLL 031220Z 21010KT 160V260 9999 FEW047 23/10
                        Q1010 NOSIG=
201408031150 METAR EGLL 031150Z 24009KT 200V280 9999 FEW046 21/10 Q1010
                        NOSIG=
201408031120 METAR COR EGLL 031120Z 20011KT 160V250 9999 SCT042 20/10
                        Q1010 NOSIG=
201408031050 METAR EGLL 031050Z 20012KT 160V240 9999 SCT043 22/10 Q1010
                        NOSIG=
201408031020 METAR COR EGLL 031020Z 22011G21KT 180V250 9999 FEW043 20/09
                        Q1010 NOSIG=
201408030950 METAR EGLL 030950Z 23010KT 210V270 9999 FEW040 21/09 Q1010
                        NOSIG=
201408030920 METAR EGLL 030920Z 21011KT 9999 FEW048 19/10 Q1010=
201408030850 METAR EGLL 030850Z 22012KT 9999 FEW040 18/10 Q1010 NOSIG=
201408030820 METAR COR EGLL 030820Z 22011KT 9999 FEW040 18/10 Q1010 NOSIG=
201408030750 METAR EGLL 030750Z 22009KT 190V250 9999 FEW028 18/11 Q1009
                        NOSIG=
201408030720 METAR COR EGLL 030720Z 23009KT CAVOK 16/11 Q1009 NOSIG=
201408030650 METAR EGLL 030650Z 22008KT 200V270 CAVOK 15/11 Q1009 NOSIG=
201408030620 METAR COR EGLL 030620Z 21008KT 180V240 CAVOK 15/11 Q1008
                        NOSIG=
201408030550 METAR COR EGLL 030550Z 21006KT 180V240 CAVOK 13/10 Q1008
                        NOSIG=
201408030520 METAR COR EGLL 030520Z 21007KT 170V280 CAVOK 13/10 Q1008
                        NOSIG=
201408030450 METAR EGLL 030450Z 21006KT CAVOK 13/11 Q1008 NOSIG=
201408030420 METAR COR EGLL 030420Z 20006KT CAVOK 13/10 Q1008 NOSIG=
201408030350 METAR EGLL 030350Z 20006KT 170V280 CAVOK 13/10 Q1008 NOSIG=
201408030320 METAR COR EGLL 030320Z 21007KT CAVOK 13/10 Q1007 NOSIG=
201408030250 METAR EGLL 030250Z 22005KT CAVOK 13/10 Q1007 NOSIG=
201408030220 METAR COR EGLL 030220Z 21006KT CAVOK 13/10 Q1007 NOSIG=
201408030150 METAR COR EGLL 030150Z 21005KT CAVOK 13/10 Q1007 NOSIG=
201408030120 METAR EGLL 030120Z AUTO 18004KT 9999 NCD 14/10 Q1007=
201408030050 METAR EGLL 030050Z AUTO 23005KT 190V260 9999 NCD 13/10 Q1006=
201408030020 METAR EGLL 030020Z AUTO 27006KT 9999 NCD 13/10 Q1006=
201408022350 METAR COR EGLL 022350Z 27006KT CAVOK 13/10 Q1006 NOSIG=
201408022320 METAR COR EGLL 022320Z 27008KT CAVOK 14/10 Q1006 NOSIG=
201408022250 METAR EGLL 022250Z 27009KT CAVOK 15/10 Q1006 NOSIG=
201408022220 METAR COR EGLL 022220Z 27010KT CAVOK 16/11 Q1006 NOSIG=
201408022150 METAR EGLL 022150Z 27011KT 9999 SCT048 17/11 Q1005 NOSIG=
201408022120 METAR COR EGLL 022120Z 27013KT 9999 SCT046 18/11 Q1005 NOSIG=
201408022050 METAR COR EGLL 022050Z 27010KT 9999 FEW042 SCT047 18/12 Q1005
                        NOSIG=
201408022020 METAR COR EGLL 022020Z 27010KT 9999 SCT041 19/12 Q1004 NOSIG=
201408021950 METAR EGLL 021950Z 23012KT 9999 SCT035 19/12 Q1004 NOSIG=
201408021920 METAR COR EGLL 021920Z 21011KT 190V250 9999 FEW044 20/12
                        Q1003 NOSIG=
201408021850 METAR EGLL 021850Z 21014G24KT 9999 FEW036 21/12 Q1003 NOSIG=
201408021820 METAR EGLL 021820Z 21013KT 170V240 9999 SCT036 22/13 Q1002=
201408021750 METAR COR EGLL 021750Z 22012KT 9999 SCT036 22/13 Q1002 NOSIG=
201408021720 METAR COR EGLL 021720Z 22012KT 9999 SCT040 23/13 Q1002 NOSIG=
201408021650 METAR COR EGLL 021650Z 21014KT 9999 FEW038 23/13 Q1002 NOSIG=
201408021620 METAR COR EGLL 021620Z 21015KT 180V250 9999 SCT036 23/14
                        Q1002 NOSIG=
201408021550 METAR EGLL 021550Z 20012KT 170V250 9999 SCT028 22/16 Q1002
                        NOSIG=
201408021520 METAR COR EGLL 021520Z 19012KT 9999 SCT037CB 22/16 Q1002
                        NOSIG=
201408021450 METAR EGLL 021450Z 19011KT 160V240 9999 FEW026CB 20/16 Q1002
                        RESHRA NOSIG=
201408021420 METAR COR EGLL 021420Z 20014KT 180V240 9999 7000SW SHRA FEW029CB
                        SCT046 22/14 Q1002 TEMPO 4000 SHRA=
201408021350 METAR COR EGLL 021350Z 19014KT 9999 SCT034CB 23/14 Q1002
                        TEMPO SHRA=
201408021320 METAR COR EGLL 021320Z 19016KT 9999 SCT031 SCT042 23/14 Q1002
                        TEMPO SHRA=
201408021250 METAR EGLL 021250Z 19016KT 9999 FEW031CB SCT043 24/14 Q1002
                        TEMPO SHRA=
201408021220 METAR COR EGLL 021220Z 18014KT 9999 FEW030CB SCT034 23/14
                        Q1002 TEMPO 4000 SHRA=
201408021150 METAR EGLL 021150Z 18011KT 9999 FEW030 23/15 Q1002 TEMPO
                        SHRA=
201408021120 METAR COR EGLL 021120Z 16013G23KT 120V190 9999 FEW028CB 22/14
                        Q1002 TEMPO SHRA=
201408021050 METAR EGLL 021050Z 19011G21KT 150V210 9999 SCT030 21/14 Q1003
                        TEMPO SHRA=
201408021020 METAR COR EGLL 021020Z 18010KT 130V210 9999 SCT026 22/14
                        Q1003 TEMPO SHRA=
201408020950 METAR COR EGLL 020950Z 15011KT 110V210 9999 FEW035 22/14
                        Q1003 TEMPO SHRA=
201408020920 METAR COR EGLL 020920Z 15010KT 9999 FEW044 19/14 Q1003 NOSIG=
201408020850 METAR COR EGLL 020850Z 14008KT 100V170 9999 SCT041 18/14
                        Q1003 NOSIG=
201408020820 METAR COR EGLL 020820Z 14006KT 090V200 9999 -RA BKN044 17/14
                        Q1003 NOSIG=
201408020750 METAR EGLL 020750Z 12006KT 090V170 9999 SCT045 17/14 Q1003
                        NOSIG=
201408020720 METAR COR EGLL 020720Z 13005KT 9999 BKN044 17/13 Q1004 NOSIG=
201408020650 METAR EGLL 020650Z AUTO 19004KT 160V220 9999 BKN043 17/14
                        Q1004=
201408020620 METAR COR EGLL 020620Z 18004KT 9999 FEW012 SCT045 17/14 Q1004
                        NOSIG=
201408020550 METAR EGLL 020550Z 14005KT 9999 FEW047 17/14 Q1004 NOSIG=
201408020520 METAR COR EGLL 020520Z 11003KT CAVOK 17/14 Q1004 NOSIG=
201408020450 METAR EGLL 020450Z 13003KT CAVOK 17/14 Q1004 NOSIG=
201408020420 METAR COR EGLL 020420Z 14003KT CAVOK 17/15 Q1004 NOSIG=
201408020350 METAR EGLL 020350Z VRB03KT CAVOK 17/15 Q1004 NOSIG=
201408020320 METAR COR EGLL 020320Z 14005KT CAVOK 17/15 Q1005 NOSIG=
201408020250 METAR EGLL 020250Z 15005KT CAVOK 17/15 Q1005=
201408020220 METAR EGLL 020220Z AUTO 13005KT 9999 NCD 16/14 Q1005=
201408020150 METAR EGLL 020150Z AUTO 14005KT 9999 NCD 17/14 Q1005=
201408020120 METAR EGLL 020120Z AUTO 17005KT 9999 NCD 17/14 Q1006=
201408020050 METAR EGLL 020050Z 17005KT CAVOK 17/14 Q1006 NOSIG=
201408020020 METAR COR EGLL 020020Z 21006KT CAVOK 17/14 Q1006 NOSIG=
201408012350 METAR EGLL 012350Z 18005KT CAVOK 17/14 Q1006 NOSIG=
201408012320 METAR COR EGLL 012320Z 18005KT CAVOK 17/14 Q1006 NOSIG=
201408012250 METAR COR EGLL 012250Z 18006KT CAVOK 17/14 Q1007 NOSIG=
201408012220 METAR COR EGLL 012220Z 17007KT 130V230 CAVOK 17/13 Q1007
                        NOSIG=
201408012150 METAR COR EGLL 012150Z 18007KT 130V230 CAVOK 18/14 Q1007
                        NOSIG=
201408012120 METAR COR EGLL 012120Z 18007KT 130V240 CAVOK 18/14 Q1007
                        NOSIG=
201408012050 METAR EGLL 012050Z 18007KT 140V240 CAVOK 18/13 Q1007 NOSIG=
201408012020 METAR COR EGLL 012020Z 20007KT 160V250 CAVOK 19/13 Q1007
                        NOSIG=
201408011950 METAR EGLL 011950Z 21010KT 180V260 CAVOK 19/13 Q1007 NOSIG=
201408011920 METAR EGLL 011920Z 22009KT CAVOK 20/13 Q1007=
201408011850 METAR COR EGLL 011850Z 23010KT CAVOK 20/12 Q1007 NOSIG=
201408011820 METAR COR EGLL 011820Z 23011KT 9999 FEW033 20/13 Q1007 NOSIG=
201408011750 METAR EGLL 011750Z 22011KT 190V250 9999 FEW032 21/13 Q1007
                        NOSIG=
201408011720 METAR EGLL 011720Z 22011KT CAVOK 21/14 Q1007=
201408011650 METAR EGLL 011650Z 22009KT CAVOK 22/13 Q1007 NOSIG=
201408011620 METAR COR EGLL 011620Z 20012KT 160V240 9999 FEW041 22/12
                        Q1007 NOSIG=
201408011550 METAR EGLL 011550Z 20012KT 170V250 9999 FEW046 23/12 Q1007
                        NOSIG=
201408011520 METAR COR EGLL 011520Z 20013KT 9999 FEW046 23/12 Q1007 NOSIG=
201408011450 METAR COR EGLL 011450Z 18013KT 130V240 9999 FEW047 23/12
                        Q1007 NOSIG=
201408011420 METAR COR EGLL 011420Z 18013KT 160V230 9999 FEW042 24/12
                        Q1007 NOSIG=
201408011350 METAR COR EGLL 011350Z 19013KT 160V230 9999 FEW040 24/13
                        Q1007 NOSIG=
201408011320 METAR COR EGLL 011320Z 20012KT 9999 SCT039 24/13 Q1007 NOSIG=
201408011250 METAR COR EGLL 011250Z 20012KT 170V230 9999 SCT038 24/13
                        Q1008 NOSIG=
201408011220 METAR EGLL 011220Z 19007KT 130V230 9999 SCT034 23/14 Q1008=
201408011150 METAR COR EGLL 011150Z 19011KT 160V240 9999 SCT036 23/14
                        Q1008 NOSIG=
201408011120 METAR COR EGLL 011120Z 19008KT 150V230 9999 FEW031 SCT046
                        23/14 Q1008 NOSIG=
201408011050 METAR COR EGLL 011050Z 20007KT 130V240 9999 SCT042 22/14
                        Q1008 NOSIG=
201408011020 METAR COR EGLL 011020Z VRB08KT 9999 SCT028 22/14 Q1009 NOSIG=
201408010950 METAR COR EGLL 010950Z 19008KT 130V240 9999 FEW022 21/15
                        Q1009 NOSIG=
201408010920 METAR COR EGLL 010920Z 19009KT 160V240 9999 FEW018 SCT030
                        20/15 Q1009 NOSIG=
201408010850 METAR COR EGLL 010850Z 20008KT 170V250 9999 SCT020 20/15
                        Q1010 NOSIG=
201408010820 METAR COR EGLL 010820Z 19008KT 170V240 9999 SCT015 19/15
                        Q1010 NOSIG=
201408010750 METAR COR EGLL 010750Z VRB05KT 9999 FEW013 SCT025 19/15 Q1010
                        NOSIG=
201408010720 METAR COR EGLL 010720Z VRB04KT 9999 FEW023 SCT030 18/15 Q1010
                        NOSIG=
201408010650 METAR COR EGLL 010650Z 18005KT 150V260 9999 BKN025 17/15
                        Q1010 NOSIG=
201408010620 METAR COR EGLL 010620Z 19005KT 140V240 9999 SCT030 SCT045
                        17/15 Q1010 NOSIG=
201408010550 METAR COR EGLL 010550Z 20006KT 150V270 9999 SCT026 SCT029
                        17/15 Q1010 NOSIG=
201408010520 METAR COR EGLL 010520Z 17004KT 130V240 9999 SCT028 16/14
                        Q1010 NOSIG=
201408010450 METAR EGLL 010450Z 19005KT 9999 BKN028 16/14 Q1010 NOSIG=
201408010420 METAR COR EGLL 010420Z 19004KT 9999 BKN028 16/14 Q1010 NOSIG=
201408010350 METAR COR EGLL 010350Z 18003KT 9999 FEW026 15/14 Q1011 NOSIG=
201408010320 METAR COR EGLL 010320Z 22003KT 9999 SCT026 16/14 Q1011 NOSIG=
201408010250 METAR EGLL 010250Z 20005KT 9999 FEW027 16/14 Q1011 NOSIG=
201408010220 METAR COR EGLL 010220Z 19004KT CAVOK 15/13 Q1011 NOSIG=
201408010150 METAR COR EGLL 010150Z 22004KT CAVOK 16/14 Q1011 NOSIG=
201408010120 METAR EGLL 010120Z AUTO 24004KT 9999 NCD 16/14 Q1012=
201408010050 METAR EGLL 010050Z AUTO 23004KT 9999 NCD 16/14 Q1012=
201408010020 METAR EGLL 010020Z AUTO 24006KT 9999 NCD 17/14 Q1012=

</pre>

</body>
</html>
