##########################################################
# Query made at 01/13/2020 14:04:25 UTC
# Time interval: from 12/01/2018 00:00  to 12/31/2018 23:59  UTC
##########################################################

##########################################################
# EGLL, London / Heathrow Airport (United Kingdom)
# WMO index: 03772
# Latitude 51-29N. Longitude 000-27W. Altitude 24 m.
##########################################################

###################################
#  METAR/SPECI from EGLL
###################################
201812312350 METAR COR EGLL 312350Z AUTO 29006KT 9999 OVC021 09/05 Q1035
                        NOSIG=
201812312320 METAR COR EGLL 312320Z AUTO 30006KT 270V330 9999 OVC021 09/05
                        Q1035 NOSIG=
201812312250 METAR COR EGLL 312250Z AUTO 29006KT 9999 OVC021 09/05 Q1035
                        NOSIG=
201812312220 METAR COR EGLL 312220Z AUTO 29006KT 9999 OVC021 09/05 Q1035=
201812312150 METAR COR EGLL 312150Z AUTO 28008KT 9999 OVC020 09/05 Q1035
                        NOSIG=
201812312120 METAR COR EGLL 312120Z AUTO 28008KT 9999 OVC020 09/05 Q1035
                        NOSIG=
201812312050 METAR COR EGLL 312050Z AUTO 28007KT 9999 OVC020 09/05 Q1035
                        NOSIG=
201812312020 METAR COR EGLL 312020Z AUTO 27007KT 9999 OVC019 09/05 Q1035
                        NOSIG=
201812311950 METAR COR EGLL 311950Z AUTO 27008KT 9999 OVC021 09/05 Q1035
                        NOSIG=
201812311920 METAR COR EGLL 311920Z AUTO 27010KT 9999 OVC021 09/05 Q1035
                        NOSIG=
201812311850 METAR COR EGLL 311850Z AUTO 27008KT 9999 OVC021 09/05 Q1035
                        NOSIG=
201812311820 METAR COR EGLL 311820Z AUTO 27007KT 9999 OVC021 09/06 Q1035
                        NOSIG=
201812311750 METAR COR EGLL 311750Z AUTO 27006KT 9999 OVC021 09/06 Q1035
                        NOSIG=
201812311720 METAR COR EGLL 311720Z AUTO 28005KT 9999 OVC021 10/06 Q1035
                        NOSIG=
201812311650 METAR COR EGLL 311650Z AUTO 29006KT 9999 OVC021 09/06 Q1035
                        NOSIG=
201812311620 METAR COR EGLL 311620Z AUTO 28007KT 9999 OVC022 09/06 Q1035
                        NOSIG=
201812311550 METAR COR EGLL 311550Z AUTO 28007KT 9999 OVC022 10/06 Q1035
                        NOSIG=
201812311520 METAR COR EGLL 311520Z AUTO 27009KT 9999 OVC023 10/06 Q1035
                        NOSIG=
201812311450 METAR COR EGLL 311450Z AUTO 27009KT 9999 OVC021 10/06 Q1035
                        NOSIG=
201812311420 METAR COR EGLL 311420Z AUTO 29009KT 9999 OVC022 10/06 Q1035
                        NOSIG=
201812311350 METAR COR EGLL 311350Z AUTO 29005KT 9999 OVC022 10/06 Q1035
                        NOSIG=
201812311320 METAR COR EGLL 311320Z AUTO 29006KT 9999 OVC022 10/06 Q1035
                        NOSIG=
201812311250 METAR COR EGLL 311250Z AUTO 30005KT 260V350 9999 OVC022 10/05
                        Q1035 NOSIG=
201812311220 METAR COR EGLL 311220Z AUTO 28005KT 9999 OVC021 10/06 Q1036
                        NOSIG=
201812311150 METAR COR EGLL 311150Z AUTO 29005KT 260V330 9999 OVC020 10/06
                        Q1036 NOSIG=
201812311120 METAR COR EGLL 311120Z AUTO 29004KT 250V330 9999 OVC020 10/06
                        Q1036 NOSIG=
201812311050 METAR COR EGLL 311050Z AUTO 29004KT 9999 OVC019 10/06 Q1036
                        NOSIG=
201812311020 METAR COR EGLL 311020Z AUTO 28004KT 9999 OVC020 09/07 Q1037
                        NOSIG=
201812310950 METAR COR EGLL 310950Z AUTO 31004KT 270V340 9999 BKN019 10/06
                        Q1037 NOSIG=
201812310920 METAR COR EGLL 310920Z AUTO 32003KT 9999 BKN018 10/06 Q1037
                        NOSIG=
201812310850 METAR COR EGLL 310850Z AUTO 30004KT 9999 OVC017 09/06 Q1037
                        NOSIG=
201812310820 METAR COR EGLL 310820Z AUTO 28006KT 9999 OVC014 09/07 Q1037
                        NOSIG=
201812310750 METAR COR EGLL 310750Z AUTO 29007KT 9999 OVC013 09/07 Q1036
                        NOSIG=
201812310720 METAR COR EGLL 310720Z AUTO 27009KT 9999 OVC013 09/07 Q1036
                        NOSIG=
201812310650 METAR COR EGLL 310650Z AUTO 29004KT 9999 OVC011 09/07 Q1036
                        NOSIG=
201812310620 METAR COR EGLL 310620Z AUTO 30005KT 9999 OVC011 09/07 Q1036
                        NOSIG=
201812310550 METAR COR EGLL 310550Z AUTO 29005KT 9999 OVC011 09/07 Q1036
                        NOSIG=
201812310520 METAR COR EGLL 310520Z AUTO 29006KT 9999 OVC011 09/07 Q1036
                        NOSIG=
201812310450 METAR COR EGLL 310450Z AUTO 28007KT 9999 OVC010 09/07 Q1036
                        NOSIG=
201812310420 METAR COR EGLL 310420Z AUTO 29006KT 9999 OVC010 09/07 Q1036
                        NOSIG=
201812310350 METAR COR EGLL 310350Z AUTO 26009KT 9999 OVC010 09/07 Q1036
                        TEMPO BKN008=
201812310320 METAR COR EGLL 310320Z AUTO 27008KT 9999 OVC011 09/07 Q1036
                        NOSIG=
201812310250 METAR COR EGLL 310250Z AUTO 28007KT 9999 OVC013 10/08 Q1036
                        NOSIG=
201812310220 METAR COR EGLL 310220Z AUTO 28007KT 9999 OVC013 10/08 Q1036
                        NOSIG=
201812310150 METAR COR EGLL 310150Z AUTO 29005KT 9999 OVC013 10/08 Q1036
                        NOSIG=
201812310120 METAR COR EGLL 310120Z AUTO 28006KT 9999 OVC014 10/08 Q1036
                        TEMPO OVC015=
201812310050 METAR COR EGLL 310050Z AUTO 27005KT 9999 OVC015 10/08 Q1036
                        TEMPO OVC014=
201812310020 METAR COR EGLL 310020Z AUTO 27004KT 9999 OVC016 10/08 Q1036
                        TEMPO OVC014=
201812302350 METAR COR EGLL 302350Z AUTO 26005KT 9999 OVC015 10/08 Q1036
                        TEMPO OVC014=
201812302320 METAR COR EGLL 302320Z AUTO 27005KT 9999 OVC015 10/08 Q1036
                        TEMPO OVC014=
201812302250 METAR COR EGLL 302250Z AUTO 29003KT 9999 OVC014 10/08 Q1036
                        TEMPO OVC015=
201812302220 METAR COR EGLL 302220Z AUTO 30005KT 9999 OVC012 10/08 Q1036
                        TEMPO OVC015=
201812302150 METAR COR EGLL 302150Z AUTO 30005KT 9999 OVC012 10/08 Q1036
                        NOSIG=
201812302120 METAR COR EGLL 302120Z AUTO 29005KT 9999 OVC012 10/08 Q1036
                        NOSIG=
201812302050 METAR COR EGLL 302050Z AUTO 30005KT 270V340 9999 OVC011 11/08
                        Q1036 NOSIG=
201812302020 METAR COR EGLL 302020Z AUTO 29004KT 9999 OVC012 11/08 Q1036
                        NOSIG=
201812301950 METAR COR EGLL 301950Z AUTO 30004KT 9999 OVC012 11/08 Q1036
                        NOSIG=
201812301920 METAR COR EGLL 301920Z AUTO 29004KT 9999 BKN013 OVC017 10/09
                        Q1035 NOSIG=
201812301850 METAR COR EGLL 301850Z AUTO 29005KT 9999 OVC014 10/09 Q1035
                        TEMPO OVC016=
201812301820 METAR COR EGLL 301820Z AUTO 28006KT 9999 OVC015 10/09 Q1035
                        TEMPO OVC014=
201812301750 METAR COR EGLL 301750Z AUTO 28006KT 9999 OVC014 10/09 Q1035
                        NOSIG=
201812301720 METAR COR EGLL 301720Z AUTO 27008KT 9999 OVC013 10/09 Q1035
                        NOSIG=
201812301650 METAR COR EGLL 301650Z AUTO 28005KT 9999 BKN011 OVC015 10/09
                        Q1035 NOSIG=
201812301620 METAR COR EGLL 301620Z AUTO 29006KT 9000 OVC012 11/09 Q1035
                        NOSIG=
201812301550 METAR COR EGLL 301550Z AUTO 28006KT 9999 OVC009 10/09 Q1035
                        BECMG OVC010=
201812301520 METAR COR EGLL 301520Z AUTO 27008KT 9999 OVC008 10/09 Q1035
                        BECMG BKN010=
201812301450 METAR COR EGLL 301450Z AUTO 26006KT 9999 OVC007 10/09 Q1035
                        BECMG BKN010=
201812301420 METAR COR EGLL 301420Z AUTO 25007KT 9999 OVC005 10/09 Q1035
                        NOSIG=
201812301350 METAR COR EGLL 301350Z AUTO 27008KT 9999 OVC006 10/09 Q1035
                        NOSIG=
201812301320 METAR COR EGLL 301320Z AUTO 27008KT 9999 OVC005 10/09 Q1035
                        NOSIG=
201812301250 METAR COR EGLL 301250Z AUTO 27009KT 9999 OVC005 10/09 Q1035
                        NOSIG=
201812301220 METAR COR EGLL 301220Z 28009KT 9000 SCT004 OVC007 10/09 Q1035
                        NOSIG=
201812301150 METAR COR EGLL 301150Z 27009KT 5000 -DZ BR SCT004 OVC005
                        10/09 Q1036 NOSIG=
201812301120 METAR COR EGLL 301120Z 26007KT 4500 -DZ BR BKN004 OVC006
                        10/09 Q1035 BECMG 6000 NSW BKN006=
201812301050 METAR EGLL 301050Z 26008KT 4000 -DZ BR SCT004 OVC006 10/09
                        Q1035=
201812301020 METAR COR EGLL 301020Z AUTO 27008KT 5000 BR BKN004 OVC007
                        10/09 Q1035 BECMG OVC006=
201812300950 METAR COR EGLL 300950Z AUTO 27008KT 7000 OVC004 09/09 Q1035
                        BECMG OVC006=
201812300920 METAR COR EGLL 300920Z AUTO 27010KT 9999 OVC005 10/09 Q1035
                        TEMPO OVC004=
201812300850 METAR COR EGLL 300850Z AUTO 26009KT 220V290 9999 OVC005 09/09
                        Q1035 TEMPO BKN004=
201812300820 METAR COR EGLL 300820Z AUTO 25009KT 9999 OVC006 09/09 Q1035
                        NOSIG=
201812300750 METAR COR EGLL 300750Z 26009KT 9999 FEW005 OVC007 09/09 Q1035
                        NOSIG=
201812300720 METAR COR EGLL 300720Z 24008KT 8000 OVC005 09/09 Q1035 TEMPO
                        BKN004=
201812300650 METAR COR EGLL 300650Z 23007KT 3000 BR SCT002 BKN004 09/09
                        Q1035 TEMPO 6000 NSW=
201812300620 METAR COR EGLL 300620Z 23007KT 1500 BR BKN002 BKN004 09/09
                        Q1035 NOSIG=
201812300550 METAR COR EGLL 300550Z 22004KT 1600 BR BKN002 BKN004 09/08
                        Q1034 TEMPO 1000=
201812300520 METAR COR EGLL 300520Z 21005KT 2500 BR BKN002 BKN004 08/08
                        Q1034 TEMPO 1200=
201812300450 METAR COR EGLL 300450Z 17003KT 0500 R27L/0650 FG VV/// 08/08
                        Q1034 BECMG 1000 BR=
201812300420 METAR COR EGLL 300420Z AUTO 21004KT 0150 R27L/0800 FG VV///
                        08/08 Q1034 BECMG 0500=
201812300350 METAR COR EGLL 300350Z 25003KT 0250 R27L/0550 FG VV/// 08/08
                        Q1035 BECMG 0500=
201812300320 METAR COR EGLL 300320Z 24004KT 0600 R27L/1100 FG VV/// 07/07
                        Q1035 TEMPO 0400=
201812300250 METAR COR EGLL 300250Z AUTO 23004KT 0300 R27L/0700 FG VV///
                        07/07 Q1035 BECMG 0500 BKN001=
201812300220 METAR COR EGLL 300220Z AUTO 23004KT 0300 R27L/0900 FG VV///
                        07/07 Q1035 TEMPO 0500=
201812300150 METAR COR EGLL 300150Z AUTO 27004KT 0250 R27L/0750 FG VV///
                        07/07 Q1035 NOSIG=
201812300120 METAR COR EGLL 300120Z 26005KT 0300 R27L/0650 FG VV/// 07/07
                        Q1035 NOSIG=
201812300050 METAR COR EGLL 300050Z 27005KT 0250 R27L/0450 FG VV/// 07/07
                        Q1035 NOSIG=
201812300020 METAR COR EGLL 300020Z 27005KT 0200 R27L/0500 R27R/0650 FG
                        VV/// 07/06 Q1035 NOSIG=
201812292350 METAR COR EGLL 292350Z 27005KT 0250 R27L/P1500 R27R/P1500
                        FG VV/// 07/07 Q1035 NOSIG=
201812292320 METAR COR EGLL 292320Z 27004KT 5000 1800SW BR VCFG FEW018
                        07/07 Q1035 BECMG 4000=
201812292250 METAR COR EGLL 292250Z 28004KT 6000 SCT017 07/07 Q1035 TEMPO
                        4000 BR=
201812292220 METAR COR EGLL 292220Z 29004KT 6000 FEW018 07/07 Q1035 TEMPO
                        4000 BR=
201812292150 METAR COR EGLL 292150Z 29003KT 8000 FEW018 08/07 Q1034 TEMPO
                        4000 BR=
201812292120 METAR COR EGLL 292120Z 29006KT 9999 NSC 09/08 Q1034 NOSIG=
201812292050 METAR COR EGLL 292050Z 30005KT 9999 NSC 09/08 Q1034 NOSIG=
201812292020 METAR COR EGLL 292020Z VRB03KT 9999 NSC 10/08 Q1034 NOSIG=
201812291950 METAR COR EGLL 291950Z AUTO 28008KT 9999 NCD 09/08 Q1034
                        NOSIG=
201812291920 METAR COR EGLL 291920Z AUTO 28008KT 9999 NCD 10/08 Q1033
                        NOSIG=
201812291850 METAR COR EGLL 291850Z AUTO 27008KT 9999 NCD 10/08 Q1033
                        NOSIG=
201812291820 METAR COR EGLL 291820Z AUTO 27009KT 9999 FEW027 10/09 Q1033
                        NOSIG=
201812291750 METAR COR EGLL 291750Z AUTO 27008KT 9999 BKN026 11/09 Q1033
                        NOSIG=
201812291720 METAR COR EGLL 291720Z AUTO 27007KT 9999 SCT026 11/09 Q1032
                        NOSIG=
201812291650 METAR COR EGLL 291650Z AUTO 28008KT 9999 BKN027 11/09 Q1032
                        NOSIG=
201812291620 METAR COR EGLL 291620Z AUTO 29007KT 9999 BKN017 12/09 Q1032
                        NOSIG=
201812291550 METAR COR EGLL 291550Z AUTO 27011KT 9999 BKN021 12/10 Q1031
                        NOSIG=
201812291520 METAR COR EGLL 291520Z AUTO 26011KT 9999 BKN019 12/10 Q1031
                        NOSIG=
201812291450 METAR COR EGLL 291450Z 27009KT 9999 BKN015 OVC022 12/10 Q1031
                        TEMPO BKN012=
201812291420 METAR COR EGLL 291420Z AUTO 27011KT 9999 BKN014 12/10 Q1031
                        BECMG SCT018=
201812291350 METAR COR EGLL 291350Z 27015KT 9999 SCT013 12/10 Q1030 NOSIG=
201812291320 METAR COR EGLL 291320Z AUTO 27016KT 9999 BKN013 12/10 Q1029
                        BECMG SCT013=
201812291250 METAR COR EGLL 291250Z AUTO 26018KT 9999 BKN012 OVC017 12/10
                        Q1030 NOSIG=
201812291220 METAR COR EGLL 291220Z AUTO 26017KT 9999 OVC012 12/09 Q1030
                        NOSIG=
201812291150 METAR COR EGLL 291150Z AUTO 25015KT 9999 BKN012 11/09 Q1031
                        NOSIG=
201812291120 METAR COR EGLL 291120Z AUTO 25012KT 9999 BKN012 OVC017 11/09
                        Q1031 NOSIG=
201812291050 METAR COR EGLL 291050Z AUTO 24012KT 9999 OVC011 11/09 Q1031
                        NOSIG=
201812291020 METAR COR EGLL 291020Z AUTO 25012KT 9999 OVC011 11/08 Q1032
                        NOSIG=
201812290950 METAR COR EGLL 290950Z AUTO 25013KT 9999 OVC011 11/08 Q1032
                        NOSIG=
201812290920 METAR COR EGLL 290920Z AUTO 25013KT 9999 OVC012 11/08 Q1031
                        NOSIG=
201812290850 METAR COR EGLL 290850Z AUTO 25012KT 9999 OVC013 10/08 Q1032
                        NOSIG=
201812290820 METAR COR EGLL 290820Z AUTO 23012KT 9999 OVC015 10/07 Q1031
                        BECMG BKN012=
201812290750 METAR COR EGLL 290750Z AUTO 23011KT 9999 OVC015 10/07 Q1032
                        BECMG BKN014=
201812290720 METAR COR EGLL 290720Z AUTO 23011KT 9999 OVC016 10/07 Q1032
                        TEMPO BKN012=
201812290650 METAR COR EGLL 290650Z AUTO 24009KT 9999 OVC016 10/07 Q1032
                        TEMPO BKN012=
201812290620 METAR COR EGLL 290620Z AUTO 25013KT 9999 OVC014 10/07 Q1032
                        NOSIG=
201812290550 METAR COR EGLL 290550Z AUTO 25010KT 9999 OVC014 10/07 Q1032
                        NOSIG=
201812290520 METAR COR EGLL 290520Z AUTO 24010KT 9999 OVC014 10/08 Q1032
                        NOSIG=
201812290450 METAR COR EGLL 290450Z AUTO 25010KT 9999 OVC013 10/08 Q1032
                        NOSIG=
201812290420 METAR COR EGLL 290420Z AUTO 24007KT 9999 OVC016 09/08 Q1033
                        TEMPO BKN014=
201812290350 METAR COR EGLL 290350Z AUTO 23007KT 9999 BKN016 OVC021 09/08
                        Q1033 TEMPO BKN014=
201812290320 METAR COR EGLL 290320Z AUTO 23007KT 9999 OVC017 09/08 Q1033
                        TEMPO BKN014=
201812290250 METAR COR EGLL 290250Z AUTO 23005KT 9999 OVC019 09/08 Q1033
                        TEMPO BKN014=
201812290220 METAR COR EGLL 290220Z AUTO 24006KT 9999 OVC019 09/08 Q1033
                        TEMPO BKN014=
201812290150 METAR COR EGLL 290150Z AUTO 25005KT 8000 OVC021 09/08 Q1033
                        TEMPO BKN014=
201812290120 METAR COR EGLL 290120Z 24004KT 7000 FEW014 OVC019 09/07 Q1033
                        TEMPO BKN014=
201812290050 METAR COR EGLL 290050Z AUTO VRB03KT 8000 OVC020 09/07 Q1033
                        NOSIG=
201812290020 METAR COR EGLL 290020Z AUTO 21004KT 8000 OVC020 09/07 Q1033
                        NOSIG=
201812282350 METAR COR EGLL 282350Z AUTO 20003KT 9000 OVC022 09/07 Q1033
                        NOSIG=
201812282320 METAR COR EGLL 282320Z AUTO 22004KT 8000 OVC022 09/07 Q1033
                        NOSIG=
201812282250 METAR COR EGLL 282250Z AUTO 25007KT 9000 OVC021 09/07 Q1034
                        NOSIG=
201812282220 METAR COR EGLL 282220Z AUTO 23005KT 190V260 9999 OVC021 09/07
                        Q1034 NOSIG=
201812282150 METAR COR EGLL 282150Z AUTO 24007KT 210V290 9999 OVC020 09/07
                        Q1034 NOSIG=
201812282120 METAR COR EGLL 282120Z AUTO 26006KT 9000 OVC019 09/07 Q1034
                        NOSIG=
201812282050 METAR COR EGLL 282050Z AUTO 29005KT 9999 OVC019 09/07 Q1033
                        NOSIG=
201812282020 METAR COR EGLL 282020Z AUTO 25006KT 9999 OVC018 09/07 Q1033
                        NOSIG=
201812281950 METAR COR EGLL 281950Z AUTO 26009KT 9999 OVC019 09/07 Q1033
                        NOSIG=
201812281920 METAR COR EGLL 281920Z AUTO 28007KT 9000 OVC019 09/07 Q1033
                        NOSIG=
201812281850 METAR COR EGLL 281850Z AUTO 27008KT 9999 OVC019 09/07 Q1033
                        NOSIG=
201812281820 METAR COR EGLL 281820Z AUTO 28007KT 9999 OVC020 09/07 Q1033
                        NOSIG=
201812281750 METAR COR EGLL 281750Z AUTO 27008KT 9999 OVC023 09/07 Q1032
                        NOSIG=
201812281720 METAR COR EGLL 281720Z AUTO 26007KT 9999 OVC023 09/06 Q1032
                        NOSIG=
201812281650 METAR COR EGLL 281650Z AUTO 27008KT 9999 OVC023 09/06 Q1032
                        NOSIG=
201812281620 METAR COR EGLL 281620Z AUTO 27006KT 9999 OVC023 09/06 Q1032
                        NOSIG=
201812281550 METAR COR EGLL 281550Z AUTO 28005KT 9999 OVC024 09/06 Q1032
                        NOSIG=
201812281520 METAR COR EGLL 281520Z AUTO 28007KT 9999 OVC025 09/06 Q1031
                        NOSIG=
201812281450 METAR COR EGLL 281450Z AUTO 27008KT 9999 OVC026 10/06 Q1031
                        NOSIG=
201812281420 METAR COR EGLL 281420Z AUTO 27007KT 9999 OVC030 10/06 Q1031
                        NOSIG=
201812281350 METAR COR EGLL 281350Z AUTO 27009KT 9999 FEW034 10/06 Q1031
                        NOSIG=
201812281320 METAR COR EGLL 281320Z AUTO 25007KT 9999 NCD 10/06 Q1030
                        NOSIG=
201812281250 METAR COR EGLL 281250Z AUTO 26007KT 9999 NCD 10/06 Q1030
                        NOSIG=
201812281220 METAR COR EGLL 281220Z AUTO 27005KT 9999 BKN035 10/05 Q1030
                        NOSIG=
201812281150 METAR COR EGLL 281150Z AUTO 28005KT 9999 OVC032 09/06 Q1031
                        NOSIG=
201812281120 METAR COR EGLL 281120Z AUTO 27007KT 9999 OVC030 09/06 Q1031
                        NOSIG=
201812281050 METAR COR EGLL 281050Z AUTO 29005KT 9999 OVC029 08/06 Q1031
                        NOSIG=
201812281020 METAR COR EGLL 281020Z AUTO 28005KT 9999 OVC029 08/06 Q1030
                        NOSIG=
201812280950 METAR COR EGLL 280950Z AUTO 27004KT 220V320 9999 OVC029 08/06
                        Q1030 NOSIG=
201812280920 METAR COR EGLL 280920Z AUTO 27004KT 230V300 8000 OVC029 08/06
                        Q1030 NOSIG=
201812280850 METAR COR EGLL 280850Z AUTO 27003KT 8000 OVC028 08/06 Q1030
                        NOSIG=
201812280820 METAR COR EGLL 280820Z AUTO 28002KT 8000 OVC027 08/06 Q1030
                        NOSIG=
201812280750 METAR COR EGLL 280750Z AUTO 27004KT 8000 OVC027 07/06 Q1030
                        NOSIG=
201812280720 METAR COR EGLL 280720Z AUTO VRB03KT 7000 OVC025 07/06 Q1029
                        NOSIG=
201812280650 METAR COR EGLL 280650Z AUTO 28003KT 7000 OVC028 07/06 Q1029
                        NOSIG=
201812280620 METAR COR EGLL 280620Z AUTO 27004KT 6000 OVC029 06/06 Q1029
                        NOSIG=
201812280550 METAR COR EGLL 280550Z AUTO 27003KT 6000 OVC029 06/06 Q1028
                        NOSIG=
201812280520 METAR COR EGLL 280520Z AUTO 27003KT 6000 OVC029 06/05 Q1028
                        NOSIG=
201812280450 METAR COR EGLL 280450Z 26003KT 8000 OVC029 06/05 Q1028 NOSIG=
201812280420 METAR COR EGLL 280420Z 27003KT 5000 BR OVC031 06/05 Q1028
                        NOSIG=
201812280350 METAR COR EGLL 280350Z VRB01KT 5000 BR OVC032 05/05 Q1028
                        NOSIG=
201812280320 METAR COR EGLL 280320Z 27002KT 5000 BR OVC032 05/05 Q1028
                        NOSIG=
201812280250 METAR COR EGLL 280250Z 26003KT 5000 BR OVC032 05/05 Q1028
                        NOSIG=
201812280220 METAR COR EGLL 280220Z 25002KT 5000 BR OVC030 05/05 Q1028
                        NOSIG=
201812280150 METAR COR EGLL 280150Z 26002KT 5000 BR OVC029 05/05 Q1028
                        NOSIG=
201812280120 METAR COR EGLL 280120Z 25002KT 5000 BR OVC032 05/05 Q1027
                        NOSIG=
201812280050 METAR COR EGLL 280050Z 27002KT 5000 BR OVC033 05/05 Q1027
                        NOSIG=
201812280020 METAR COR EGLL 280020Z 23001KT 5000 BR OVC034 05/05 Q1027
                        NOSIG=
201812272350 METAR COR EGLL 272350Z VRB01KT 5000 BR OVC035 05/05 Q1027
                        NOSIG=
201812272320 METAR COR EGLL 272320Z VRB03KT 5000 BR OVC035 05/05 Q1027
                        NOSIG=
201812272250 METAR COR EGLL 272250Z 28004KT 5000 BR OVC034 05/05 Q1027
                        NOSIG=
201812272220 METAR COR EGLL 272220Z 31002KT 5000 BR OVC035 04/04 Q1027
                        NOSIG=
201812272150 METAR COR EGLL 272150Z 30002KT 5000 BR OVC035 04/04 Q1027
                        NOSIG=
201812272120 METAR COR EGLL 272120Z 29003KT 6000 OVC035 04/04 Q1027 NOSIG=
201812272050 METAR COR EGLL 272050Z 27005KT 4000 BR OVC035 04/04 Q1027
                        NOSIG=
201812272020 METAR COR EGLL 272020Z 28003KT 3000 BR OVC035 04/03 Q1027
                        NOSIG=
201812271950 METAR COR EGLL 271950Z 27004KT 240V310 3000 1400SW BR BKN033
                        03/03 Q1027 NOSIG=
201812271920 METAR COR EGLL 271920Z 28004KT 3000 BR BKN032 04/04 Q1027
                        NOSIG=
201812271850 METAR COR EGLL 271850Z 30002KT 3000 1400SW R27L/1400 BCFG
                        SCT032 04/04 Q1026 NOSIG=
201812271820 METAR COR EGLL 271820Z 30003KT 3000 BR FEW030 04/04 Q1026
                        TEMPO 1200 MIFG=
201812271750 METAR COR EGLL 271750Z 30002KT 3000 BR NSC 04/04 Q1026 TEMPO
                        1200 MIFG=
201812271720 METAR COR EGLL 271720Z VRB02KT 4000 BR NSC 04/04 Q1026 TEMPO
                        1200 MIFG=
201812271650 METAR COR EGLL 271650Z VRB03KT 4000 R27L/1400 BR NSC 04/04
                        Q1025 TEMPO 1200 MIFG=
201812271620 METAR COR EGLL 271620Z 29001KT 4000 BR FEW030 05/04 Q1025
                        NOSIG=
201812271550 METAR COR EGLL 271550Z 33001KT 4000 HZ NSC 06/05 Q1026 NOSIG=
201812271520 METAR COR EGLL 271520Z 28002KT 4000 MIFG NSC 06/05 Q1026
                        NOSIG=
201812271450 METAR COR EGLL 271450Z AUTO 27003KT 2400 HZ NCD 06/05 Q1026
                        NOSIG=
201812271420 METAR COR EGLL 271420Z VRB03KT 3500 HZ NSC 06/05 Q1025 NOSIG=
201812271350 METAR COR EGLL 271350Z 20004KT 160V230 3000 1400S R27R/P1500
                        R27L/P1500 BR NSC 06/05 Q1025 NOSIG=
201812271320 METAR COR EGLL 271320Z 23004KT 170V250 3500 1400S R27R/P1500
                        R27L/P1500 BR FEW000 06/05 Q1025
                        NOSIG=
201812271250 METAR COR EGLL 271250Z 26004KT 210V280 3000 1400S R27R/P1500
                        R27L/P1500 BR FEW001 06/05 Q1026
                        NOSIG=
201812271220 METAR COR EGLL 271220Z VRB03KT 3000 1400S R27R/P1500 R27L/P1500
                        BR FEW000 05/05 Q1026 TEMPO 1200
                        BCFG=
201812271150 METAR COR EGLL 271150Z 16005KT 5000 1000S R27L/0500 PRFG
                        FEW000 05/05 Q1026 TEMPO 0800 FG
                        VV///=
201812271120 METAR COR EGLL 271120Z 20004KT 170V240 5000 2000S BR FEW000
                        05/04 Q1026 TEMPO 3000 BR=
201812271050 METAR COR EGLL 271050Z VRB02KT 2500 R27L/1400 BR NSC 05/05
                        Q1027 NOSIG=
201812271020 METAR COR EGLL 271020Z VRB02KT 2500 BR NSC 05/04 Q1027 NOSIG=
201812270950 METAR COR EGLL 270950Z 29003KT 3000 1400S R27R/P1500 R27L/P1500
                        PRFG BR FEW026 04/04 Q1027 NOSIG=
201812270920 METAR COR EGLL 270920Z VRB03KT 3000 1000W R27L/P1500 PRFG
                        BR FEW026 04/04 Q1026 NOSIG=
201812270850 METAR COR EGLL 270850Z 32001KT 4000 BR FEW026 05/05 Q1026
                        NOSIG=
201812270820 METAR COR EGLL 270820Z 32001KT 3500 BR NSC 05/04 Q1026 NOSIG=
201812270750 METAR COR EGLL 270750Z VRB01KT 3000 1400N R27R/1400 BR NSC
                        05/04 Q1026 TEMPO 1200 BCFG=
201812270720 METAR COR EGLL 270720Z 02001KT 4000 BR NSC 04/04 Q1026 NOSIG=
201812270650 METAR COR EGLL 270650Z VRB01KT 4000 1500N BR VCFG NSC 04/04
                        Q1026 NOSIG=
201812270620 METAR COR EGLL 270620Z VRB01KT 3000 1200N R27L/P1500 BR VCFG
                        NSC 04/04 Q1026 TEMPO 1200=
201812270550 METAR EGLL 270550Z VRB01KT 3000 1200N R27L/P1500 BR VCFG
                        NSC 03/03 Q1026=
201812270520 METAR COR EGLL 270520Z VRB01KT 3000 1200E R27L/P1500 BR VCFG
                        NSC 04/03 Q1026 TEMPO 0800 FG=
201812270450 METAR COR EGLL 270450Z 24001KT 3000 1200E R27L/P1500 BR VCFG
                        NSC 04/04 Q1026 TEMPO 0800 FG=
201812270420 METAR COR EGLL 270420Z VRB03KT 3000 1400E BR VCFG NSC 03/03
                        Q1026 TEMPO 0800 FG=
201812270350 METAR COR EGLL 270350Z VRB02KT 4000 1500N VCFG NSC 03/03
                        Q1026 TEMPO 1200 MIFG=
201812270320 METAR COR EGLL 270320Z 28001KT 4000 1900N BR NSC 04/03 Q1027
                        TEMPO 1400 MIFG=
201812270250 METAR COR EGLL 270250Z 00000KT 4000 BR NSC 04/04 Q1027 TEMPO
                        2000 MIFG=
201812270220 METAR COR EGLL 270220Z 09001KT 4000 BR NSC 04/04 Q1027 TEMPO
                        2000 MIFG=
201812270150 METAR COR EGLL 270150Z 08002KT 4000 BR NSC 04/04 Q1027 TEMPO
                        2000 MIFG=
201812270120 METAR COR EGLL 270120Z 06001KT 4000 BR NSC 04/04 Q1027 TEMPO
                        2000 MIFG=
201812270050 METAR COR EGLL 270050Z VRB01KT 4000 BR NSC 04/04 Q1027 TEMPO
                        2000 MIFG=
201812270020 METAR COR EGLL 270020Z VRB01KT 4000 BR NSC 04/04 Q1027 TEMPO
                        2000 MIFG=
201812262350 METAR COR EGLL 262350Z 00000KT 4000 BR NSC 04/04 Q1028 NOSIG=
201812262320 METAR COR EGLL 262320Z VRB01KT 5000 BR NSC 05/04 Q1028 TEMPO
                        3000 BR=
201812262250 METAR COR EGLL 262250Z 23004KT 170V270 6000 NSC 05/05 Q1028
                        TEMPO 4000 BR=
201812262220 METAR COR EGLL 262220Z AUTO 20005KT 160V250 5000 BR NCD 05/05
                        Q1028 TEMPO 4000=
201812262150 METAR EGLL 262150Z 17005KT 130V250 6000 NSC 04/04 Q1028=
201812262120 METAR COR EGLL 262120Z VRB03KT 7000 NSC 05/04 Q1028 TEMPO
                        4000 BR=
201812262050 METAR COR EGLL 262050Z VRB03KT 7000 NSC 05/05 Q1028 TEMPO
                        4000 BR=
201812262020 METAR COR EGLL 262020Z AUTO VRB03KT 8000 NCD 06/05 Q1029
                        TEMPO 4000 BR=
201812261950 METAR COR EGLL 261950Z AUTO 21004KT 170V260 9999 NCD 06/05
                        Q1029 NOSIG=
201812261920 METAR COR EGLL 261920Z AUTO 21005KT 150V270 9999 SCT021 07/06
                        Q1029 NOSIG=
201812261850 METAR COR EGLL 261850Z AUTO 18005KT 140V250 9999 SCT021 07/06
                        Q1029 NOSIG=
201812261820 METAR COR EGLL 261820Z AUTO 16006KT 130V240 9999 BKN022 08/07
                        Q1029 NOSIG=
201812261750 METAR COR EGLL 261750Z AUTO 17005KT 140V220 9999 BKN021 08/07
                        Q1029 NOSIG=
201812261720 METAR COR EGLL 261720Z AUTO 19005KT 160V250 9999 OVC021 09/07
                        Q1029 NOSIG=
201812261650 METAR COR EGLL 261650Z AUTO 19006KT 160V250 9999 OVC021 09/07
                        Q1029 NOSIG=
201812261620 METAR COR EGLL 261620Z AUTO 19006KT 160V240 9999 OVC022 09/07
                        Q1029 NOSIG=
201812261550 METAR COR EGLL 261550Z AUTO 22006KT 180V260 9999 OVC023 09/07
                        Q1029 NOSIG=
201812261520 METAR COR EGLL 261520Z AUTO 22006KT 160V260 9999 OVC023 09/07
                        Q1029 NOSIG=
201812261450 METAR COR EGLL 261450Z AUTO 23007KT 9999 FEW013 OVC023 09/07
                        Q1030 TEMPO BKN013=
201812261420 METAR COR EGLL 261420Z AUTO 22006KT 180V240 9999 SCT013 OVC024
                        09/07 Q1030 TEMPO BKN013=
201812261350 METAR COR EGLL 261350Z AUTO 22006KT 9999 SCT013 OVC025 09/07
                        Q1030 TEMPO BKN013=
201812261320 METAR COR EGLL 261320Z AUTO 22005KT 9999 FEW013 OVC026 10/07
                        Q1030 TEMPO BKN013=
201812261250 METAR COR EGLL 261250Z AUTO 22006KT 170V250 9999 FEW012 OVC026
                        09/08 Q1030 NOSIG=
201812261220 METAR COR EGLL 261220Z AUTO 21007KT 180V250 9999 FEW011 OVC025
                        09/08 Q1030 TEMPO BKN011=
201812261150 METAR COR EGLL 261150Z AUTO 21006KT 170V240 9999 FEW009 OVC025
                        09/08 Q1031 TEMPO BKN009=
201812261120 METAR COR EGLL 261120Z AUTO 21004KT 150V240 9999 SCT007 OVC026
                        09/08 Q1031 TEMPO BKN007=
201812261050 METAR COR EGLL 261050Z AUTO 23004KT 190V260 8000 OVC026 09/08
                        Q1031 NOSIG=
201812261020 METAR COR EGLL 261020Z AUTO 23005KT 200V260 7000 OVC027 09/08
                        Q1031 NOSIG=
201812260950 METAR COR EGLL 260950Z AUTO 20006KT 160V230 7000 OVC027 08/08
                        Q1031 NOSIG=
201812260920 METAR COR EGLL 260920Z 19006KT 6000 OVC028 08/08 Q1031 TEMPO
                        BKN014=
201812260850 METAR COR EGLL 260850Z 17005KT 080V200 5000 BR BKN015 OVC028
                        08/07 Q1031 TEMPO BKN014=
201812260820 METAR COR EGLL 260820Z 20005KT 110V260 5000 BR BKN016 OVC026
                        08/07 Q1031 TEMPO BKN014=
201812260750 METAR COR EGLL 260750Z 21004KT 5000 BR BKN018 OVC023 08/07
                        Q1031 TEMPO BKN014=
201812260720 METAR COR EGLL 260720Z 21004KT 6000 BKN019 OVC024 08/07 Q1031
                        TEMPO BKN014=
201812260650 METAR COR EGLL 260650Z 21006KT 6000 BKN017 OVC029 08/07 Q1031
                        TEMPO 4500 BR BKN012=
201812260620 METAR COR EGLL 260620Z 20005KT 150V290 4000 -DZ FEW005 BKN016
                        OVC030 07/07 Q1031 TEMPO BKN005=
201812260550 METAR COR EGLL 260550Z VRB02KT 4000 -DZ SCT004 BKN012 OVC018
                        07/07 Q1031 TEMPO BKN005=
201812260520 METAR COR EGLL 260520Z VRB02KT 5000 -DZ FEW007 BKN015 07/07
                        Q1031 TEMPO 3000 BR BKN005=
201812260450 METAR COR EGLL 260450Z 17001KT 5000 -DZ BKN006 OVC027 07/07
                        Q1031 TEMPO 4000 BR SCT006 BKN010=
201812260420 METAR COR EGLL 260420Z 19002KT 5000 -DZ SCT006 BKN013 OVC027
                        07/07 Q1031 TEMPO 4000 BR BKN006=
201812260350 METAR COR EGLL 260350Z 15003KT 5000 BR SCT005 BKN011 OVC017
                        07/07 Q1032 TEMPO 4000 -DZ BKN006=
201812260320 METAR COR EGLL 260320Z 15003KT 5000 BR FEW003 SCT006 BKN010
                        07/07 Q1032 TEMPO 4000 -DZ BKN006=
201812260250 METAR COR EGLL 260250Z 14003KT 5000 BR BKN011 OVC016 07/07
                        Q1032 TEMPO 4500 BKN009=
201812260220 METAR COR EGLL 260220Z 15003KT 5000 BR SCT007 BKN010 OVC016
                        07/07 Q1032 TEMPO 4000 -DZ BKN007=
201812260150 METAR COR EGLL 260150Z 15003KT 3000 -DZ BR SCT004 BKN008
                        OVC024 07/07 Q1032 NOSIG=
201812260120 METAR COR EGLL 260120Z 12002KT 4000 -DZ SCT004 BKN010 OVC026
                        07/07 Q1032 TEMPO 5000 BR BKN007=
201812260050 METAR COR EGLL 260050Z 15002KT 6000 FEW007 BKN012 OVC026
                        07/07 Q1032 TEMPO 4000 BR BKN007=
201812260020 METAR COR EGLL 260020Z AUTO 24001KT 6000 OVC013 07/07 Q1032
                        NOSIG=
201812252350 METAR COR EGLL 252350Z AUTO 27002KT 8000 BKN013 OVC018 07/07
                        Q1033 TEMPO BKN015=
201812252320 METAR COR EGLL 252320Z AUTO 29003KT 7000 OVC013 07/07 Q1033
                        NOSIG=
201812252250 METAR COR EGLL 252250Z AUTO VRB03KT 9999 BKN015 OVC021 08/07
                        Q1033 TEMPO BKN014=
201812252220 METAR COR EGLL 252220Z AUTO VRB02KT 9999 OVC016 08/07 Q1033
                        NOSIG=
201812252150 METAR COR EGLL 252150Z AUTO VRB03KT 9999 BKN017 OVC023 08/07
                        Q1033 NOSIG=
201812252120 METAR COR EGLL 252120Z AUTO 19004KT 110V270 9000 OVC017 08/07
                        Q1033 TEMPO BKN014=
201812252050 METAR COR EGLL 252050Z AUTO 22006KT 9999 OVC017 08/07 Q1033
                        TEMPO BKN014=
201812252020 METAR COR EGLL 252020Z AUTO 21004KT 9999 OVC017 08/07 Q1033
                        TEMPO BKN014=
201812251950 METAR COR EGLL 251950Z AUTO VRB02KT 9999 OVC017 08/06 Q1033
                        TEMPO BKN014=
201812251920 METAR COR EGLL 251920Z AUTO 20005KT 150V250 9999 OVC018 08/06
                        Q1033 TEMPO BKN014=
201812251850 METAR COR EGLL 251850Z AUTO VRB03KT 9999 BKN014 OVC019 08/06
                        Q1033 TEMPO SCT014 BKN019=
201812251820 METAR COR EGLL 251820Z AUTO VRB02KT 9999 FEW011 OVC015 08/06
                        Q1033 TEMPO BKN014=
201812251750 METAR COR EGLL 251750Z AUTO 19005KT 160V250 9999 OVC018 08/06
                        Q1033 TEMPO BKN014=
201812251720 METAR COR EGLL 251720Z AUTO 20004KT 180V240 9999 OVC017 08/06
                        Q1033 TEMPO BKN014=
201812251650 METAR COR EGLL 251650Z AUTO 20006KT 160V250 9999 OVC017 08/06
                        Q1033 TEMPO BKN014=
201812251620 METAR COR EGLL 251620Z AUTO 21005KT 180V260 9999 OVC016 08/06
                        Q1033 TEMPO BKN014=
201812251550 METAR COR EGLL 251550Z AUTO 20006KT 170V250 9999 OVC017 08/06
                        Q1033 TEMPO BKN014=
201812251520 METAR COR EGLL 251520Z AUTO 19005KT 140V250 9999 OVC017 08/06
                        Q1033 TEMPO BKN014=
201812251450 METAR COR EGLL 251450Z AUTO 14004KT 100V180 9999 OVC018 08/06
                        Q1033 TEMPO BKN014=
201812251420 METAR COR EGLL 251420Z AUTO 15005KT 9999 OVC019 08/06 Q1033
                        NOSIG=
201812251350 METAR COR EGLL 251350Z AUTO 17005KT 110V230 9999 OVC019 08/06
                        Q1033 NOSIG=
201812251320 METAR COR EGLL 251320Z AUTO 15004KT 110V180 9999 OVC020 08/06
                        Q1034 NOSIG=
201812251250 METAR COR EGLL 251250Z AUTO 18005KT 140V240 9999 OVC021 08/06
                        Q1034 NOSIG=
201812251220 METAR COR EGLL 251220Z AUTO VRB05KT 9999 BKN020 OVC028 07/06
                        Q1034 NOSIG=
201812251150 METAR COR EGLL 251150Z AUTO VRB03KT 9999 BKN020 OVC028 06/05
                        Q1034 NOSIG=
201812251120 METAR COR EGLL 251120Z AUTO VRB03KT 9999 OVC021 06/05 Q1035
                        NOSIG=
201812251050 METAR COR EGLL 251050Z AUTO VRB03KT 9999 OVC021 05/05 Q1035
                        NOSIG=
201812251020 METAR COR EGLL 251020Z AUTO VRB03KT 9999 OVC022 05/04 Q1035
                        NOSIG=
201812250950 METAR COR EGLL 250950Z AUTO 16004KT 9999 OVC021 04/04 Q1035
                        NOSIG=
201812250920 METAR COR EGLL 250920Z AUTO VRB03KT 9999 OVC021 04/04 Q1035
                        NOSIG=
201812250850 METAR COR EGLL 250850Z AUTO 22001KT 9999 OVC021 04/03 Q1035
                        NOSIG=
201812250820 METAR COR EGLL 250820Z AUTO VRB02KT 9999 OVC021 03/03 Q1035
                        NOSIG=
201812250750 METAR COR EGLL 250750Z AUTO VRB02KT 9999 OVC021 03/03 Q1035
                        NOSIG=
201812250720 METAR COR EGLL 250720Z 10004KT 070V190 9999 OVC021 03/03
                        Q1035 NOSIG=
201812250650 METAR COR EGLL 250650Z 13004KT 080V180 9999 OVC022 03/03
                        Q1034 NOSIG=
201812250620 METAR COR EGLL 250620Z AUTO VRB03KT 9999 OVC022 03/03 Q1035
                        NOSIG=
201812250550 METAR COR EGLL 250550Z 16002KT 9999 OVC023 02/02 Q1035 NOSIG=
201812250520 METAR COR EGLL 250520Z AUTO 00000KT 9999 OVC023 02/02 Q1035
                        NOSIG=
201812250450 METAR COR EGLL 250450Z AUTO 07003KT 6000 BKN023 02/02 Q1034
                        NOSIG=
201812250420 METAR COR EGLL 250420Z AUTO 08002KT 6000 BKN022 01/01 Q1034
                        NOSIG=
201812250350 METAR COR EGLL 250350Z 09003KT 5000 BR BKN022 01/01 Q1034
                        NOSIG=
201812250320 METAR COR EGLL 250320Z AUTO 10003KT 6000 BKN023 02/02 Q1035
                        NOSIG=
201812250250 METAR COR EGLL 250250Z 09004KT 8000 BKN024 02/02 Q1035 TEMPO
                        4000 BR=
201812250220 METAR COR EGLL 250220Z 12002KT 6000 BKN025 02/02 Q1035 TEMPO
                        4000 BR FEW025=
201812250150 METAR COR EGLL 250150Z 07001KT 4000 BR OVC025 02/02 Q1035
                        TEMPO 2000=
201812250120 METAR COR EGLL 250120Z 03002KT 5000 BR BKN024 02/02 Q1035
                        TEMPO 3000=
201812250050 METAR COR EGLL 250050Z 05001KT 3000 R09R/0450 BR FEW026 02/02
                        Q1035 BECMG 2000=
201812250020 METAR COR EGLL 250020Z 05002KT 3000 BR NSC 01/01 Q1035 BECMG
                        2000=
201812242350 METAR COR EGLL 242350Z 05002KT 4000 BR NSC 01/01 Q1035 BECMG
                        2500=
201812242320 METAR COR EGLL 242320Z 04002KT 5000 BR NSC 02/02 Q1036 BECMG
                        4000 BR=
201812242250 METAR COR EGLL 242250Z 06002KT 7000 NSC 02/02 Q1036 BECMG
                        4000 BR=
201812242220 METAR COR EGLL 242220Z 06002KT 7000 NSC 02/02 Q1035 BECMG
                        4000 BR=
201812242150 METAR COR EGLL 242150Z 04001KT 8000 NSC 02/02 Q1035 BECMG
                        4000 BR=
201812242120 METAR COR EGLL 242120Z 10002KT 9000 NSC 03/03 Q1035 TEMPO
                        4000 BR=
201812242050 METAR COR EGLL 242050Z AUTO 17002KT 5000 BR NCD 04/03 Q1035
                        BECMG 4000=
201812242020 METAR COR EGLL 242020Z AUTO VRB02KT 8000 NCD 04/03 Q1035
                        NOSIG=
201812241950 METAR COR EGLL 241950Z AUTO 08003KT 9999 SCT027 04/04 Q1035
                        NOSIG=
201812241920 METAR COR EGLL 241920Z AUTO 08003KT 9999 BKN026 04/03 Q1035
                        NOSIG=
201812241850 METAR COR EGLL 241850Z AUTO 08004KT 9999 BKN024 04/04 Q1034
                        NOSIG=
201812241820 METAR COR EGLL 241820Z AUTO 08003KT 9999 BKN023 04/03 Q1034
                        NOSIG=
201812241750 METAR COR EGLL 241750Z AUTO 08003KT 9999 NCD 04/03 Q1034
                        NOSIG=
201812241720 METAR COR EGLL 241720Z AUTO 09003KT 9999 NCD 04/03 Q1034
                        NOSIG=
201812241650 METAR COR EGLL 241650Z AUTO 08002KT 9999 NCD 05/03 Q1034
                        NOSIG=
201812241620 METAR COR EGLL 241620Z AUTO 09003KT 9999 NCD 06/04 Q1034
                        NOSIG=
201812241550 METAR COR EGLL 241550Z AUTO 11004KT 9999 NCD 06/04 Q1034
                        NOSIG=
201812241520 METAR COR EGLL 241520Z AUTO 11004KT 9999 NCD 06/03 Q1034
                        NOSIG=
201812241450 METAR COR EGLL 241450Z AUTO 08004KT 9999 NCD 07/04 Q1033
                        NOSIG=
201812241420 METAR COR EGLL 241420Z AUTO 08004KT 9999 NCD 08/04 Q1033
                        NOSIG=
201812241350 METAR COR EGLL 241350Z AUTO VRB03KT 9999 NCD 07/04 Q1033
                        NOSIG=
201812241320 METAR COR EGLL 241320Z AUTO VRB03KT 9999 NCD 08/05 Q1033
                        NOSIG=
201812241250 METAR COR EGLL 241250Z AUTO VRB02KT 8000 NCD 07/05 Q1033
                        NOSIG=
201812241220 METAR COR EGLL 241220Z AUTO VRB01KT 7000 NCD 07/05 Q1033
                        NOSIG=
201812241150 METAR COR EGLL 241150Z AUTO 06003KT 7000 NCD 06/04 Q1033
                        NOSIG=
201812241120 METAR COR EGLL 241120Z AUTO 06004KT 7000 NCD 06/05 Q1033
                        NOSIG=
201812241050 METAR COR EGLL 241050Z AUTO 06003KT 5000 HZ NCD 06/05 Q1033
                        NOSIG=
201812241020 METAR COR EGLL 241020Z AUTO 06003KT 7000 NCD 06/04 Q1033
                        NOSIG=
201812240950 METAR COR EGLL 240950Z AUTO VRB02KT 6000 NCD 06/04 Q1033
                        NOSIG=
201812240920 METAR COR EGLL 240920Z AUTO 05004KT 5000 HZ NCD 05/04 Q1032
                        NOSIG=
201812240850 METAR COR EGLL 240850Z AUTO 02003KT 4800 BR NCD 05/04 Q1032
                        TEMPO 5000 HZ=
201812240820 METAR COR EGLL 240820Z AUTO 01002KT 4700 BR NCD 04/04 Q1032
                        TEMPO 5000=
201812240750 METAR COR EGLL 240750Z AUTO 04002KT 6000 NCD 05/04 Q1031
                        TEMPO 4500 HZ=
201812240720 METAR COR EGLL 240720Z AUTO 08001KT 6000 NCD 05/04 Q1031
                        NOSIG=
201812240650 METAR COR EGLL 240650Z AUTO VRB02KT 7000 NCD 06/05 Q1030
                        NOSIG=
201812240620 METAR COR EGLL 240620Z AUTO 01003KT 6000 NCD 06/05 Q1030
                        NOSIG=
201812240550 METAR COR EGLL 240550Z AUTO VRB02KT 7000 NCD 06/05 Q1029
                        NOSIG=
201812240520 METAR COR EGLL 240520Z AUTO VRB01KT 7000 NCD 06/05 Q1029
                        NOSIG=
201812240450 METAR COR EGLL 240450Z AUTO VRB03KT 8000 NCD 06/05 Q1028
                        NOSIG=
201812240420 METAR COR EGLL 240420Z AUTO VRB03KT 7000 NCD 06/05 Q1028
                        NOSIG=
201812240350 METAR COR EGLL 240350Z AUTO VRB02KT 6000 NCD 06/05 Q1028
                        NOSIG=
201812240320 METAR COR EGLL 240320Z AUTO VRB03KT 8000 NCD 06/05 Q1027
                        NOSIG=
201812240250 METAR COR EGLL 240250Z AUTO VRB02KT 9999 NCD 06/05 Q1027
                        NOSIG=
201812240220 METAR COR EGLL 240220Z AUTO 35002KT 9999 NCD 06/05 Q1027
                        NOSIG=
201812240150 METAR COR EGLL 240150Z AUTO VRB03KT 9999 NCD 06/05 Q1026
                        NOSIG=
201812240120 METAR COR EGLL 240120Z AUTO VRB02KT 9999 NCD 06/05 Q1025
                        NOSIG=
201812240050 METAR COR EGLL 240050Z AUTO VRB02KT 9999 NCD 07/05 Q1026
                        NOSIG=
201812240020 METAR COR EGLL 240020Z AUTO 36004KT 330V030 9999 BKN011 07/05
                        Q1025 TEMPO SCT011=
201812232350 METAR COR EGLL 232350Z AUTO 01004KT 330V050 9999 SCT011 07/06
                        Q1025 NOSIG=
201812232320 METAR COR EGLL 232320Z AUTO VRB03KT 9999 FEW012 07/06 Q1024
                        TEMPO BKN012=
201812232250 METAR COR EGLL 232250Z AUTO VRB03KT 9999 -RA SCT012 07/06
                        Q1023 TEMPO BKN012=
201812232220 METAR COR EGLL 232220Z AUTO 01005KT 340V040 9999 -RA BKN014
                        07/06 Q1023 TEMPO SCT014=
201812232150 METAR COR EGLL 232150Z AUTO 02005KT 340V050 9999 -RA SCT010
                        SCT045 07/06 Q1023 TEMPO BKN010=
201812232120 METAR COR EGLL 232120Z AUTO VRB03KT 9999 -RA SCT010 SCT029
                        BKN044 08/06 Q1022 TEMPO BKN010=
201812232050 METAR COR EGLL 232050Z AUTO 03004KT 330V070 9999 -RA SCT009
                        BKN022 BKN044 08/06 Q1021 TEMPO BKN009=
201812232020 METAR COR EGLL 232020Z AUTO 02005KT 340V120 9999 -RA BKN010
                        BKN022 08/07 Q1021 TEMPO BKN008=
201812231950 METAR COR EGLL 231950Z AUTO 01005KT 340V080 6000 -RA SCT007
                        BKN011 OVC034 08/07 Q1020 TEMPO 4000
                        -RADZ BKN007=
201812231920 METAR COR EGLL 231920Z AUTO 01007KT 340V050 4900 -RADZ BKN008
                        OVC029 08/07 Q1019 TEMPO 5000 SCT008
                        OVC028=
201812231850 METAR COR EGLL 231850Z AUTO 36005KT 6000 -RA SCT008 BKN025
                        OVC030 08/07 Q1018 TEMPO BKN008=
201812231820 METAR COR EGLL 231820Z AUTO 01009KT 9999 -RA SCT007 BKN019
                        OVC024 09/07 Q1018 RERA REDZ TEMPO
                        BKN007=
201812231750 METAR COR EGLL 231750Z AUTO 36008KT 4900 RADZ FEW008 BKN011
                        OVC022 10/09 Q1017 TEMPO 6000 NSW
                        BKN008=
201812231720 METAR COR EGLL 231720Z AUTO 28009KT 9999 BKN009 12/11 Q1016
                        TEMPO 4000 -RADZ=
201812231650 METAR COR EGLL 231650Z AUTO 27009KT 9999 -RA SCT010 SCT031
                        BKN045 13/11 Q1015 TEMPO BKN009=
201812231620 METAR EGLL 231620Z AUTO 27011KT 9999 -RA SCT011 BKN016 BKN040
                        12/12 Q1015=
201812231550 METAR COR EGLL 231550Z AUTO 27010KT 9999 -RA BKN012 BKN016
                        13/12 Q1015 NOSIG=
201812231520 METAR COR EGLL 231520Z AUTO 27012KT 9999 -RA BKN013 14/12
                        Q1015 NOSIG=
201812231450 METAR COR EGLL 231450Z AUTO 26013KT 9999 BKN010 13/12 Q1014
                        NOSIG=
201812231420 METAR COR EGLL 231420Z AUTO 26014KT 9999 BKN010/// OVC015///
                        13/12 Q1014 NOSIG=
201812231350 METAR COR EGLL 231350Z AUTO 26013KT 9999 OVC012 13/12 Q1014
                        NOSIG=
201812231320 METAR COR EGLL 231320Z AUTO 26013KT 9999 BKN012 OVC020 13/11
                        Q1014 TEMPO SCT012 BKN020=
201812231250 METAR COR EGLL 231250Z AUTO 25014KT 9999 BKN012 BKN016 OVC025
                        13/11 Q1014 TEMPO SCT012 BKN016=
201812231220 METAR COR EGLL 231220Z AUTO 25013KT 9999 BKN010 OVC016 13/11
                        Q1014 TEMPO SCT010 BKN016=
201812231150 METAR COR EGLL 231150Z AUTO 25012KT 9999 BKN009 OVC013 12/11
                        Q1014 BECMG BKN012=
201812231120 METAR COR EGLL 231120Z AUTO 23009KT 9999 BKN008 OVC012 11/10
                        Q1014 BECMG BKN012=
201812231050 METAR COR EGLL 231050Z AUTO 22009KT 9999 BKN004 OVC010 11/10
                        Q1014 BECMG SCT004 BKN008=
201812231020 METAR COR EGLL 231020Z AUTO 22008KT 9999 BKN004 BKN007 OVC015
                        10/10 Q1014 BECMG SCT004 BKN007=
201812230950 METAR COR EGLL 230950Z AUTO 19007KT 160V250 9999 BKN006 OVC011
                        10/09 Q1015 NOSIG=
201812230920 METAR COR EGLL 230920Z AUTO 19007KT 160V240 9999 -RA BKN007
                        OVC013 10/09 Q1015 TEMPO 4000 -RADZ=
201812230850 METAR COR EGLL 230850Z AUTO 15005KT 8000 -RA OVC007 09/09
                        Q1015 TEMPO 4000 -RADZ=
201812230820 METAR COR EGLL 230820Z AUTO 15004KT 9000 -RA OVC010 09/09
                        Q1015 TEMPO 4000 -RADZ BKN008=
201812230750 METAR COR EGLL 230750Z AUTO 14007KT 8000 -RA BKN010 BKN024
                        OVC040 09/09 Q1015 TEMPO 4000 -RADZ
                        BKN008=
201812230720 METAR COR EGLL 230720Z AUTO 15007KT 8000 -RA BKN009 OVC045
                        09/08 Q1016 TEMPO 4000 RADZ=
201812230650 METAR COR EGLL 230650Z AUTO 14006KT 8000 -RA BKN010 BKN019
                        09/08 Q1016 TEMPO BKN007=
201812230620 METAR COR EGLL 230620Z AUTO 15007KT 8000 -RA SCT016 BKN022
                        OVC029 08/08 Q1017 BECMG BKN010=
201812230550 METAR COR EGLL 230550Z AUTO 14006KT 100V160 8000 -RA BKN026
                        OVC030 08/08 Q1017 TEMPO RA=
201812230520 METAR COR EGLL 230520Z AUTO VRB04KT 8000 -RA FEW018 BKN037
                        BKN045 08/07 Q1018 TEMPO 4000 RA=
201812230450 METAR COR EGLL 230450Z AUTO 15004KT 120V190 9999 -RA OVC044
                        08/07 Q1018 TEMPO RA=
201812230420 METAR COR EGLL 230420Z 16004KT 9999 -RA FEW010 BKN048 08/07
                        Q1019 TEMPO RA=
201812230350 METAR COR EGLL 230350Z AUTO 17005KT 9999 NCD 07/06 Q1020
                        TEMPO RA=
201812230320 METAR COR EGLL 230320Z AUTO 20005KT 9999 NCD 07/06 Q1020
                        TEMPO RA=
201812230250 METAR COR EGLL 230250Z AUTO 19005KT 9999 NCD 07/06 Q1020
                        NOSIG=
201812230220 METAR COR EGLL 230220Z AUTO 22003KT 9999 NCD 07/06 Q1021
                        NOSIG=
201812230150 METAR COR EGLL 230150Z AUTO 21005KT 9999 NCD 07/06 Q1021
                        NOSIG=
201812230120 METAR COR EGLL 230120Z AUTO 21004KT 9999 NCD 07/06 Q1021
                        NOSIG=
201812230050 METAR COR EGLL 230050Z AUTO 22004KT 9999 NCD 07/06 Q1021
                        NOSIG=
201812230020 METAR COR EGLL 230020Z AUTO 21004KT 9999 NCD 07/06 Q1021
                        NOSIG=
201812222350 METAR COR EGLL 222350Z AUTO 21004KT 9999 NCD 07/06 Q1021
                        NOSIG=
201812222320 METAR COR EGLL 222320Z AUTO 23009KT 9999 NCD 08/06 Q1021
                        NOSIG=
201812222250 METAR COR EGLL 222250Z AUTO 24007KT 9999 NCD 08/06 Q1021
                        NOSIG=
201812222220 METAR COR EGLL 222220Z AUTO 25007KT 9999 NCD 09/06 Q1021
                        NOSIG=
201812222150 METAR COR EGLL 222150Z AUTO 25010KT 9999 NCD 09/07 Q1021
                        NOSIG=
201812222120 METAR COR EGLL 222120Z AUTO 25011KT 9999 NCD 09/07 Q1021
                        NOSIG=
201812222050 METAR COR EGLL 222050Z AUTO 25010KT 9999 NCD 09/07 Q1021
                        NOSIG=
201812222020 METAR COR EGLL 222020Z AUTO 24009KT 9999 NCD 09/06 Q1021
                        NOSIG=
201812221950 METAR COR EGLL 221950Z AUTO 24009KT 9999 NCD 09/06 Q1021
                        NOSIG=
201812221920 METAR COR EGLL 221920Z AUTO 23008KT 200V270 9999 NCD 09/06
                        Q1021 NOSIG=
201812221850 METAR COR EGLL 221850Z AUTO 23008KT 9999 NCD 09/06 Q1021
                        NOSIG=
201812221820 METAR COR EGLL 221820Z AUTO 24009KT 9999 NCD 09/06 Q1020
                        NOSIG=
201812221750 METAR COR EGLL 221750Z AUTO 24008KT 9999 NCD 10/06 Q1020
                        NOSIG=
201812221720 METAR COR EGLL 221720Z AUTO 24009KT 9999 NCD 09/06 Q1020
                        NOSIG=
201812221650 METAR COR EGLL 221650Z AUTO 26010KT 9999 NCD 09/06 Q1020
                        NOSIG=
201812221620 METAR COR EGLL 221620Z AUTO 24008KT 9999 NCD 10/06 Q1019
                        NOSIG=
201812221550 METAR COR EGLL 221550Z AUTO 25010KT 9999 NCD 10/06 Q1019
                        NOSIG=
201812221520 METAR COR EGLL 221520Z AUTO 26010KT 9999 SCT030 11/06 Q1019
                        NOSIG=
201812221450 METAR COR EGLL 221450Z AUTO 27012KT 9999 FEW032 11/06 Q1018
                        NOSIG=
201812221420 METAR COR EGLL 221420Z AUTO 27013KT 9999 FEW039 11/06 Q1018
                        NOSIG=
201812221350 METAR COR EGLL 221350Z AUTO 27013KT 9999 SCT026 11/07 Q1017
                        NOSIG=
201812221320 METAR COR EGLL 221320Z AUTO 27012KT 9999 BKN025 BKN037 12/07
                        Q1017 NOSIG=
201812221250 METAR COR EGLL 221250Z AUTO 27009KT 9999 SCT022 BKN026 12/07
                        Q1017 NOSIG=
201812221220 METAR COR EGLL 221220Z AUTO 26009KT 9999 SCT021 BKN026 BKN042
                        11/07 Q1017 NOSIG=
201812221150 METAR COR EGLL 221150Z AUTO 26011KT 9999 SCT042 11/07 Q1016
                        NOSIG=
201812221120 METAR COR EGLL 221120Z AUTO 26011KT 9999 NCD 11/07 Q1016
                        NOSIG=
201812221050 METAR COR EGLL 221050Z AUTO 24010KT 9999 NCD 11/07 Q1016
                        NOSIG=
201812221020 METAR COR EGLL 221020Z AUTO 25010KT 9999 NCD 10/07 Q1016
                        NOSIG=
201812220950 METAR COR EGLL 220950Z AUTO 24010KT 9999 NCD 10/07 Q1015
                        NOSIG=
201812220920 METAR COR EGLL 220920Z AUTO 24009KT 9999 FEW029 10/07 Q1015
                        NOSIG=
201812220850 METAR COR EGLL 220850Z AUTO 23009KT 9999 BKN026 10/07 Q1014
                        NOSIG=
201812220820 METAR COR EGLL 220820Z AUTO 24009KT 9999 FEW027 09/07 Q1014
                        NOSIG=
201812220750 METAR COR EGLL 220750Z AUTO 23009KT 9999 NCD 09/07 Q1013
                        NOSIG=
201812220720 METAR COR EGLL 220720Z AUTO 24009KT 9999 NCD 10/07 Q1013
                        NOSIG=
201812220650 METAR COR EGLL 220650Z AUTO 25012KT 9999 NCD 10/07 Q1012
                        NOSIG=
201812220620 METAR COR EGLL 220620Z AUTO 24011KT 9999 BKN025 10/07 Q1012
                        NOSIG=
201812220550 METAR COR EGLL 220550Z AUTO 25010KT 9999 FEW023 SCT032 BKN043
                        10/07 Q1011 NOSIG=
201812220520 METAR COR EGLL 220520Z AUTO 26012KT 9999 NCD 10/07 Q1011
                        NOSIG=
201812220450 METAR COR EGLL 220450Z AUTO 25012KT 9999 NCD 10/07 Q1011
                        NOSIG=
201812220420 METAR COR EGLL 220420Z AUTO 26014KT 9999 NCD 10/07 Q1010
                        NOSIG=
201812220350 METAR COR EGLL 220350Z AUTO 26015KT 9999 NCD 10/07 Q1010
                        NOSIG=
201812220320 METAR COR EGLL 220320Z AUTO 26015KT 9999 NCD 10/07 Q1009
                        NOSIG=
201812220250 METAR COR EGLL 220250Z AUTO 27014KT 9999 FEW031 10/07 Q1009
                        NOSIG=
201812220220 METAR COR EGLL 220220Z AUTO 27015KT 9999 SCT029 BKN038 11/08
                        Q1008 NOSIG=
201812220150 METAR COR EGLL 220150Z AUTO 26018KT 9999 BKN045 11/08 Q1008
                        NOSIG=
201812220120 METAR COR EGLL 220120Z AUTO 26020KT 9999 FEW026 SCT032 OVC041
                        11/08 Q1007 NOSIG=
201812220050 METAR COR EGLL 220050Z AUTO 26018KT 9999 SCT026 BKN034 OVC041
                        11/08 Q1007 NOSIG=
201812220020 METAR COR EGLL 220020Z AUTO 26016KT 9999 SCT022 BKN028 BKN034
                        11/08 Q1006 NOSIG=
201812212350 METAR COR EGLL 212350Z AUTO 25015KT 9999 -RA SCT023 SCT030
                        BKN037 11/09 Q1006 NOSIG=
201812212320 METAR COR EGLL 212320Z AUTO 24013KT 9999 FEW020 SCT026 BKN039
                        11/08 Q1006 NOSIG=
201812212250 METAR COR EGLL 212250Z 23012KT 9999 FEW042 11/09 Q1006 NOSIG=
201812212220 METAR COR EGLL 212220Z 23013KT 6000 -RA SCT021 BKN027 BKN033
                        11/08 Q1006 NOSIG=
201812212150 METAR COR EGLL 212150Z AUTO 22011KT 9000 FEW020 SCT024 BKN031
                        11/08 Q1006 TEMPO 4000 SHRA=
201812212120 METAR COR EGLL 212120Z AUTO 22012KT 9999 SCT024 BKN029 11/07
                        Q1006 TEMPO 4000 SHRA=
201812212050 METAR COR EGLL 212050Z AUTO 21009KT 9999 BKN024 BKN029 10/07
                        Q1006 TEMPO SHRA=
201812212020 METAR COR EGLL 212020Z AUTO 21008KT 180V240 9999 BKN027 OVC032
                        11/07 Q1006 TEMPO SHRA=
201812211950 METAR COR EGLL 211950Z AUTO 22009KT 9999 BKN034 11/07 Q1006
                        NOSIG=
201812211920 METAR COR EGLL 211920Z AUTO 23010KT 9999 NCD 10/07 Q1006
                        NOSIG=
201812211850 METAR COR EGLL 211850Z 23012KT CAVOK 11/07 Q1006 NOSIG=
201812211820 METAR COR EGLL 211820Z 24014KT CAVOK 11/06 Q1006 NOSIG=
201812211750 METAR COR EGLL 211750Z 24014KT CAVOK 11/06 Q1006 NOSIG=
201812211720 METAR COR EGLL 211720Z 26012KT 9999 NSC 11/06 Q1005 NOSIG=
201812211650 METAR COR EGLL 211650Z 25013KT 9999 SCT029 11/06 Q1005 NOSIG=
201812211620 METAR COR EGLL 211620Z AUTO 25013KT 9999 NCD 11/06 Q1005
                        NOSIG=
201812211550 METAR COR EGLL 211550Z AUTO 26017KT 9999 SCT033 11/06 Q1004
                        NOSIG=
201812211520 METAR COR EGLL 211520Z AUTO 26021KT 9999 BKN035 12/06 Q1004
                        NOSIG=
201812211450 METAR COR EGLL 211450Z AUTO 26023KT 9999 BKN035 12/06 Q1003
                        NOSIG=
201812211420 METAR COR EGLL 211420Z 26023KT 9999 OVC035 12/06 Q1002 NOSIG=
201812211350 METAR COR EGLL 211350Z AUTO 26023KT 9999 BKN035 12/06 Q1002
                        NOSIG=
201812211320 METAR COR EGLL 211320Z AUTO 26026KT 9999 BKN035 12/06 Q1002
                        NOSIG=
201812211250 METAR COR EGLL 211250Z 26021KT 9999 BKN033 OVC042 12/06 Q1001
                        NOSIG=
201812211220 METAR COR EGLL 211220Z AUTO 26027KT 9999 BKN034 BKN041 12/06
                        Q1001 NOSIG=
201812211150 METAR COR EGLL 211150Z 26022KT 9999 BKN033 12/06 Q1000 NOSIG=
201812211120 METAR COR EGLL 211120Z 25023KT 9999 BKN034 12/06 Q1000 NOSIG=
201812211050 METAR COR EGLL 211050Z AUTO 26023G34KT 9999 OVC033/// 12/06
                        Q1000 NOSIG=
201812211020 METAR COR EGLL 211020Z AUTO 26019KT 9999 OVC030 11/07 Q1000
                        NOSIG=
201812210950 METAR COR EGLL 210950Z AUTO 25022KT 9999 BKN028 12/07 Q0999
                        NOSIG=
201812210920 METAR COR EGLL 210920Z AUTO 27023KT 9999 SCT017 SCT021 BKN027
                        12/10 Q0998 NOSIG=
201812210850 METAR COR EGLL 210850Z AUTO 25015KT 9999 BKN018 BKN029 OVC043
                        13/11 Q0997 NOSIG=
201812210820 METAR COR EGLL 210820Z AUTO 24018KT 9999 BKN016 OVC032 13/11
                        Q0996 NOSIG=
201812210750 METAR COR EGLL 210750Z AUTO 24016KT 9999 BKN013 OVC028 13/12
                        Q0996 BECMG BKN015=
201812210720 METAR COR EGLL 210720Z AUTO 23015KT 9999 BKN010 BKN016 OVC041
                        13/12 Q0996 BECMG BKN015=
201812210650 METAR COR EGLL 210650Z AUTO 23016KT 9999 BKN012 BKN016 13/12
                        Q0995 BECMG BKN015=
201812210620 METAR COR EGLL 210620Z AUTO 23012KT 9999 BKN012 OVC024 13/12
                        Q0995 BECMG SCT015=
201812210550 METAR COR EGLL 210550Z AUTO 23012KT 9999 BKN012 OVC024 12/11
                        Q0995 BECMG SCT015=
201812210520 METAR COR EGLL 210520Z AUTO 22010KT 9999 -RA BKN011 BKN019
                        OVC027 12/11 Q0995 NOSIG=
201812210450 METAR COR EGLL 210450Z AUTO 20010KT 8000 -RA SCT004 BKN007
                        BKN011 11/11 Q0995 BECMG BKN012=
201812210420 METAR COR EGLL 210420Z AUTO 19008KT 6000 -RA SCT006/// BKN011///
                        OVC044/// //////TCU 11/11 Q0996 TEMPO
                        BKN008=
201812210350 METAR COR EGLL 210350Z AUTO 20009KT 9999 -RA SCT014/// SCT024///
                        BKN034/// //////TCU 11/11 Q0997 TEMPO
                        BKN014=
201812210320 METAR COR EGLL 210320Z AUTO 21010KT 9999 -RA SCT017/// BKN034///
                        //////TCU 12/11 Q0998 TEMPO BKN014=
201812210250 METAR COR EGLL 210250Z AUTO 21010KT 9999 -RA BKN014/// BKN033///
                        //////TCU 12/11 Q0999 NOSIG=
201812210220 METAR COR EGLL 210220Z 21010KT 9999 -RA BKN012 BKN034 11/11
                        Q0999 NOSIG=
201812210150 METAR COR EGLL 210150Z 21009KT 9999 -RA BKN008 OVC013 11/11
                        Q1000 TEMPO 4000 RA=
201812210120 METAR COR EGLL 210120Z 19009KT 9999 -RA BKN006 BKN012 OVC021
                        11/10 Q1000 TEMPO 4000 RA=
201812210050 METAR COR EGLL 210050Z 17008KT 6000 -RA SCT005 BKN007 OVC013
                        10/10 Q1001 RERA TEMPO 4000 RA=
201812210020 METAR COR EGLL 210020Z 15004KT 3800 RA BKN005 BKN009 OVC027
                        10/09 Q1002 TEMPO 6000 -RA=
201812202350 METAR COR EGLL 202350Z AUTO 17005KT 6000 -RA BKN006/// BKN016///
                        OVC026/// //////TCU 09/09 Q1003 TEMPO
                        4000 RA=
201812202320 METAR COR EGLL 202320Z AUTO 19009KT 8000 -RA BKN008 OVC018
                        09/08 Q1004 NOSIG=
201812202250 METAR COR EGLL 202250Z 19007KT 8000 -RA OVC010 09/07 Q1005
                        TEMPO 4000 RA=
201812202220 METAR COR EGLL 202220Z AUTO 22007KT 9999 BKN013 OVC027 10/06
                        Q1005 NOSIG=
201812202150 METAR COR EGLL 202150Z AUTO 21008KT 180V240 9999 SCT024 SCT028
                        BKN032 09/06 Q1005 NOSIG=
201812202120 METAR COR EGLL 202120Z AUTO 21008KT 9999 BKN041 09/05 Q1006
                        NOSIG=
201812202050 METAR COR EGLL 202050Z AUTO 21008KT 180V260 9999 NCD 09/05
                        Q1006 NOSIG=
201812202020 METAR COR EGLL 202020Z AUTO 22010KT 9999 SCT045 09/05 Q1006
                        NOSIG=
201812201950 METAR COR EGLL 201950Z AUTO 22010KT 9999 NCD 09/05 Q1007
                        NOSIG=
201812201920 METAR COR EGLL 201920Z AUTO 22010G20KT 9999 BKN048 09/05
                        Q1007 NOSIG=
201812201850 METAR COR EGLL 201850Z AUTO 21010KT 9999 NCD 09/05 Q1007
                        NOSIG=
201812201820 METAR COR EGLL 201820Z AUTO 22011KT 9999 NCD 09/06 Q1008
                        NOSIG=
201812201750 METAR COR EGLL 201750Z AUTO 22010KT 9999 NCD 09/06 Q1007
                        NOSIG=
201812201720 METAR COR EGLL 201720Z AUTO 21009KT 9999 NCD 09/06 Q1007
                        NOSIG=
201812201650 METAR COR EGLL 201650Z AUTO 23011KT 9999 FEW042 09/06 Q1008
                        NOSIG=
201812201620 METAR COR EGLL 201620Z AUTO 23012KT 9999 NCD 10/06 Q1008
                        NOSIG=
201812201550 METAR COR EGLL 201550Z AUTO 22010KT 9999 SCT044 10/06 Q1008
                        NOSIG=
201812201520 METAR COR EGLL 201520Z AUTO 22010KT 9999 NCD 10/06 Q1008
                        NOSIG=
201812201450 METAR COR EGLL 201450Z AUTO 23012KT 9999 -RA FEW037/// //////TCU
                        09/07 Q1008 NOSIG=
201812201420 METAR COR EGLL 201420Z AUTO 23012KT 9999 FEW037 SCT044 10/06
                        Q1007 NOSIG=
201812201350 METAR COR EGLL 201350Z AUTO 24013KT 9999 FEW025 BKN035 BKN047
                        10/06 Q1007 NOSIG=
201812201320 METAR COR EGLL 201320Z AUTO 24012KT 9999 BKN021 BKN035 10/06
                        Q1007 NOSIG=
201812201250 METAR COR EGLL 201250Z AUTO 24013KT 9999 SCT023 BKN034 BKN047
                        11/06 Q1007 NOSIG=
201812201220 METAR COR EGLL 201220Z AUTO 24014KT 9999 SCT019 10/06 Q1007
                        NOSIG=
201812201150 METAR COR EGLL 201150Z AUTO 24013KT 9999 SCT019 BKN043 10/07
                        Q1007 NOSIG=
201812201120 METAR COR EGLL 201120Z AUTO 24013KT 9999 FEW047 10/06 Q1007
                        NOSIG=
201812201050 METAR COR EGLL 201050Z AUTO 24012KT 9999 NCD 10/06 Q1007
                        NOSIG=
201812201020 METAR COR EGLL 201020Z AUTO 23013KT 9999 SCT017 09/06 Q1007
                        NOSIG=
201812200950 METAR COR EGLL 200950Z AUTO 24012KT 9999 FEW046 08/06 Q1007
                        NOSIG=
201812200920 METAR COR EGLL 200920Z AUTO 24012KT 9999 NCD 08/06 Q1006
                        NOSIG=
201812200850 METAR COR EGLL 200850Z AUTO 23011KT 9999 NCD 07/05 Q1006
                        NOSIG=
201812200820 METAR COR EGLL 200820Z AUTO 23012KT 9999 NCD 07/05 Q1005
                        NOSIG=
201812200750 METAR COR EGLL 200750Z AUTO 22009KT 9999 NCD 07/05 Q1005
                        NOSIG=
201812200720 METAR COR EGLL 200720Z AUTO 23010KT 9999 NCD 07/05 Q1005
                        NOSIG=
201812200650 METAR COR EGLL 200650Z AUTO 24009KT 9999 FEW047 07/05 Q1005
                        NOSIG=
201812200620 METAR COR EGLL 200620Z AUTO 23009KT 9999 //////TCU 07/05
                        Q1004 NOSIG=
201812200550 METAR COR EGLL 200550Z AUTO 22007KT 200V260 9999 NCD 07/05
                        Q1004 TEMPO SHRA=
201812200520 METAR COR EGLL 200520Z AUTO 22007KT 180V250 9999 NCD 06/05
                        Q1004 TEMPO SHRA=
201812200450 METAR COR EGLL 200450Z AUTO 21009KT 9999 -RA FEW039 06/05
                        Q1004 TEMPO SHRA=
201812200420 METAR COR EGLL 200420Z AUTO 21008KT 9999 SCT039 BKN047 06/05
                        Q1004 TEMPO SHRA=
201812200350 METAR COR EGLL 200350Z AUTO 21009KT 9999 BKN044 06/05 Q1004
                        NOSIG=
201812200320 METAR COR EGLL 200320Z AUTO 21008KT 9999 NCD 06/04 Q1004
                        NOSIG=
201812200250 METAR COR EGLL 200250Z AUTO 21010KT 9999 SCT047 07/04 Q1004
                        NOSIG=
201812200220 METAR COR EGLL 200220Z AUTO 21010KT 9999 FEW048 07/05 Q1004
                        NOSIG=
201812200150 METAR COR EGLL 200150Z AUTO 21010KT 9999 FEW031 BKN040 BKN048
                        07/06 Q1003 NOSIG=
201812200120 METAR COR EGLL 200120Z AUTO 19006KT 9999 FEW031 SCT043 07/05
                        Q1003 NOSIG=
201812200050 METAR COR EGLL 200050Z AUTO 20007KT 9999 FEW041/// 07/05
                        Q1004 NOSIG=
201812200020 METAR COR EGLL 200020Z AUTO 19008KT 9999 FEW042 07/05 Q1004
                        NOSIG=
201812192350 METAR COR EGLL 192350Z AUTO 20008KT 9999 NCD 07/05 Q1004
                        NOSIG=
201812192320 METAR COR EGLL 192320Z AUTO 19008KT 9999 //////TCU 07/05
                        Q1004 NOSIG=
201812192250 METAR COR EGLL 192250Z AUTO 18010KT 9999 NCD 07/05 Q1004
                        NOSIG=
201812192220 METAR COR EGLL 192220Z AUTO 18009KT 9999 NCD 07/05 Q1004
                        NOSIG=
201812192150 METAR COR EGLL 192150Z AUTO 19009KT 170V230 9999 NCD 07/05
                        Q1004 NOSIG=
201812192120 METAR COR EGLL 192120Z AUTO 18009KT 9999 FEW038 SCT047 07/05
                        Q1004 NOSIG=
201812192050 METAR COR EGLL 192050Z AUTO 18011KT 9999 -RA FEW029 BKN041
                        08/06 Q1004 TEMPO SHRA=
201812192020 METAR COR EGLL 192020Z AUTO 20011KT 9999 -RA SCT034/// //////CB
                        07/06 Q1004 TEMPO SHRA=
201812191950 METAR COR EGLL 191950Z AUTO 19010KT 180V240 9999 //////CB
                        07/06 Q1004 TEMPO SHRA=
201812191920 METAR COR EGLL 191920Z AUTO 18009KT 160V240 9999 //////TCU
                        07/06 Q1005 TEMPO SHRA=
201812191850 METAR COR EGLL 191850Z AUTO 18010KT 140V230 9999 FEW031///
                        //////TCU 07/05 Q1005 TEMPO SHRA=
201812191820 METAR COR EGLL 191820Z AUTO 19011KT 9999 -RA SCT024 07/05
                        Q1005 TEMPO SHRA=
201812191750 METAR COR EGLL 191750Z AUTO 19010KT 9999 NCD 07/04 Q1005
                        NOSIG=
201812191720 METAR COR EGLL 191720Z AUTO 20010KT 9999 NCD 07/05 Q1005
                        TEMPO SHRA=
201812191650 METAR COR EGLL 191650Z AUTO 20010KT 9999 //////TCU 08/05
                        Q1005 TEMPO SHRA=
201812191620 METAR COR EGLL 191620Z AUTO 18011KT 9999 //////TCU 08/05
                        Q1005 NOSIG=
201812191550 METAR COR EGLL 191550Z AUTO 18009KT 170V230 9999 NCD 08/05
                        Q1005 NOSIG=
201812191520 METAR COR EGLL 191520Z AUTO 19009KT 9999 NCD 08/05 Q1005
                        NOSIG=
201812191450 METAR COR EGLL 191450Z AUTO 21009KT 190V250 9999 NCD 09/05
                        Q1005 NOSIG=
201812191420 METAR COR EGLL 191420Z AUTO 21007KT 180V250 9999 NCD 09/06
                        Q1005 NOSIG=
201812191350 METAR COR EGLL 191350Z AUTO 21008KT 170V250 9999 NCD 09/06
                        Q1005 NOSIG=
201812191320 METAR COR EGLL 191320Z AUTO 21008KT 180V250 9999 NCD 09/07
                        Q1005 NOSIG=
201812191250 METAR COR EGLL 191250Z AUTO 23008KT 9999 NCD 09/06 Q1006
                        NOSIG=
201812191220 METAR COR EGLL 191220Z AUTO 22009KT 180V260 9999 NCD 09/06
                        Q1006 NOSIG=
201812191150 METAR COR EGLL 191150Z AUTO 22009KT 200V260 9999 NCD 09/07
                        Q1006 NOSIG=
201812191120 METAR COR EGLL 191120Z AUTO 23010KT 9999 NCD 09/07 Q1006
                        NOSIG=
201812191050 METAR COR EGLL 191050Z AUTO 23011KT 9999 NCD 09/07 Q1006
                        NOSIG=
201812191020 METAR COR EGLL 191020Z AUTO 23010KT 9999 NCD 09/07 Q1006
                        NOSIG=
201812190950 METAR COR EGLL 190950Z AUTO 23011KT 9999 SCT038 08/07 Q1005
                        NOSIG=
201812190920 METAR COR EGLL 190920Z AUTO 22009KT 190V250 9999 -RA SCT024///
                        BKN032/// //////TCU 08/07 Q1005 NOSIG=
201812190850 METAR COR EGLL 190850Z AUTO 22009KT 9999 BKN022 BKN031 08/07
                        Q1004 NOSIG=
201812190820 METAR COR EGLL 190820Z AUTO 21009KT 9999 FEW019 BKN031 08/07
                        Q1004 TEMPO SHRA=
201812190750 METAR COR EGLL 190750Z AUTO 20007KT 170V230 9999 SCT024///
                        //////TCU 08/07 Q1004 TEMPO SHRA=
201812190720 METAR COR EGLL 190720Z AUTO 21009KT 170V240 9999 -RA SCT013///
                        SCT023/// BKN036/// //////CB 08/07
                        Q1003 TEMPO SHRA=
201812190650 METAR COR EGLL 190650Z AUTO 18009KT 140V220 9999 FEW030///
                        SCT041/// //////CB 08/06 Q1003 TEMPO
                        SHRA=
201812190620 METAR COR EGLL 190620Z AUTO 20010G20KT 090V220 9999 BKN039
                        BKN048 08/07 Q1003 TEMPO SHRA=
201812190550 METAR COR EGLL 190550Z AUTO 19006KT 9999 SCT042/// //////CB
                        08/07 Q1003 TEMPO SHRA=
201812190520 METAR COR EGLL 190520Z AUTO 25005KT 200V290 9999 -RA FEW007///
                        BKN019/// BKN040/// //////CB 09/08
                        Q1003 TEMPO SHRA=
201812190450 METAR COR EGLL 190450Z AUTO 18006KT 9999 -RA FEW030/// SCT042///
                        //////CB 08/07 Q1003 TEMPO SHRA BKN014=
201812190420 METAR COR EGLL 190420Z AUTO 19005KT 170V230 9999 FEW014///
                        SCT019/// BKN026/// //////TCU 08/07
                        Q1003 TEMPO SHRA BKN014=
201812190350 METAR COR EGLL 190350Z AUTO 21006KT 8000 -RA FEW017/// SCT026///
                        BKN039/// //////CB 08/07 Q1004 TEMPO
                        4000 SHRA BKN014=
201812190320 METAR COR EGLL 190320Z AUTO 21005KT 9999 FEW020/// SCT048///
                        //////CB 07/07 Q1004 TEMPO SHRA=
201812190250 METAR COR EGLL 190250Z AUTO 20006KT 9999 FEW018/// //////CB
                        07/07 Q1004 TEMPO SHRA=
201812190220 METAR COR EGLL 190220Z AUTO 19007KT 9999 -RA FEW027/// SCT040///
                        //////TCU 07/06 Q1004 TEMPO SHRA=
201812190150 METAR COR EGLL 190150Z AUTO 21006KT 9999 //////TCU 06/05
                        Q1004 NOSIG=
201812190120 METAR COR EGLL 190120Z AUTO 18003KT 9999 NCD 06/05 Q1004
                        NOSIG=
201812190050 METAR COR EGLL 190050Z AUTO 18006KT 9999 NCD 06/05 Q1004
                        NOSIG=
201812190020 METAR COR EGLL 190020Z AUTO 18005KT 9999 NCD 06/05 Q1004
                        NOSIG=
201812182350 METAR COR EGLL 182350Z AUTO 21004KT 9999 FEW034 06/05 Q1004
                        NOSIG=
201812182320 METAR COR EGLL 182320Z AUTO 21006KT 9999 SCT031 07/06 Q1004
                        NOSIG=
201812182250 METAR COR EGLL 182250Z AUTO 22008KT 9999 BKN037 07/06 Q1003
                        NOSIG=
201812182220 METAR COR EGLL 182220Z AUTO 24009KT 9999 NCD 08/06 Q1003
                        NOSIG=
201812182150 METAR COR EGLL 182150Z AUTO 24008KT 9999 NCD 08/06 Q1002
                        NOSIG=
201812182120 METAR COR EGLL 182120Z AUTO 27007KT 9999 -RA SCT014/// SCT040///
                        //////TCU 08/07 Q1002 NOSIG=
201812182050 METAR COR EGLL 182050Z AUTO 18011KT 9999 -RA BKN011/// OVC046///
                        //////TCU 09/08 Q1001 TEMPO 24008KT
                        4000 RA BKN006=
201812182020 METAR COR EGLL 182020Z AUTO 16012KT 9999 -RA BKN011/// BKN031///
                        OVC038/// //////CB 08/07 Q1001 TEMPO
                        24010KT 4000 +RA BKN008=
201812181950 METAR COR EGLL 181950Z AUTO 16013KT 9999 -RA BKN011/// OVC032///
                        //////TCU 08/07 Q1002 TEMPO 24010KT
                        4000 +RA BKN008=
201812181920 METAR COR EGLL 181920Z AUTO 16012KT 9999 -RA BKN011/// OVC017///
                        //////TCU 08/07 Q1002 TEMPO 4000
                        RA BKN008=
201812181850 METAR COR EGLL 181850Z AUTO 16012KT 9999 -RA OVC011/// //////TCU
                        08/07 Q1002 TEMPO RA BKN008=
201812181820 METAR COR EGLL 181820Z AUTO 16011KT 9999 -RA BKN012 OVC016
                        08/07 Q1003 TEMPO RA SCT012=
201812181750 METAR COR EGLL 181750Z AUTO 16012KT 9999 -RA BKN013 OVC027
                        08/07 Q1003 TEMPO RA SCT013=
201812181720 METAR COR EGLL 181720Z AUTO 16012KT 9999 -RA BKN017 BKN036
                        BKN043 08/07 Q1003 TEMPO RA BKN014=
201812181650 METAR COR EGLL 181650Z AUTO 16012KT 9999 -RA SCT030 BKN040
                        08/06 Q1004 TEMPO RA=
201812181620 METAR COR EGLL 181620Z AUTO 16012KT 9999 -RA BKN032 OVC047
                        09/06 Q1004 TEMPO RA=
201812181550 METAR COR EGLL 181550Z AUTO 16011KT 9999 -RA BKN039 09/06
                        Q1004 TEMPO RA=
201812181520 METAR COR EGLL 181520Z AUTO 16014KT 9999 -RA BKN038 09/06
                        Q1005 TEMPO RA=
201812181450 METAR COR EGLL 181450Z AUTO 16016KT 9999 -RA SCT043 BKN049
                        10/06 Q1005 TEMPO RA=
201812181420 METAR COR EGLL 181420Z 17016KT 9999 -RA FEW020 10/06 Q1006
                        TEMPO RA=
201812181350 METAR COR EGLL 181350Z 16017KT 9999 FEW025 10/06 Q1006 TEMPO
                        RA=
201812181320 METAR COR EGLL 181320Z 16016KT 9999 SCT022 10/06 Q1006 NOSIG=
201812181250 METAR COR EGLL 181250Z 16019G29KT 9999 FEW020 10/06 Q1006
                        NOSIG=
201812181220 METAR COR EGLL 181220Z AUTO 15016KT 130V210 9999 FEW022 10/06
                        Q1008 NOSIG=
201812181150 METAR COR EGLL 181150Z AUTO 16016G27KT 140V220 9999 FEW021
                        10/07 Q1009 NOSIG=
201812181120 METAR COR EGLL 181120Z AUTO 17018KT 150V220 9999 -RA FEW022
                        10/07 Q1009 NOSIG=
201812181050 METAR COR EGLL 181050Z AUTO 18017KT 160V220 9999 SCT020 10/07
                        Q1010 NOSIG=
201812181020 METAR COR EGLL 181020Z AUTO 17018KT 150V220 9999 SCT018 BKN022
                        10/07 Q1011 NOSIG=
201812180950 METAR COR EGLL 180950Z AUTO 17013KT 130V220 9999 BKN018 10/07
                        Q1011 NOSIG=
201812180920 METAR COR EGLL 180920Z AUTO 17016KT 9999 SCT020 BKN027 10/07
                        Q1012 NOSIG=
201812180850 METAR COR EGLL 180850Z AUTO 18014KT 160V230 9999 SCT020 BKN024
                        10/07 Q1012 TEMPO BKN014=
201812180820 METAR COR EGLL 180820Z AUTO 18015KT 9999 BKN018 10/07 Q1012
                        TEMPO -RA BKN014=
201812180750 METAR COR EGLL 180750Z AUTO 17015KT 9999 BKN019 10/07 Q1012
                        NOSIG=
201812180720 METAR COR EGLL 180720Z AUTO 17013KT 150V220 9999 BKN018 BKN022
                        10/07 Q1012 TEMPO BKN014=
201812180650 METAR COR EGLL 180650Z AUTO 18013KT 160V220 9999 BKN017 OVC022
                        10/07 Q1013 TEMPO BKN014=
201812180620 METAR COR EGLL 180620Z AUTO 18015G25KT 9999 BKN017 OVC022
                        11/08 Q1013 TEMPO BKN014=
201812180550 METAR COR EGLL 180550Z AUTO 18014KT 9999 BKN016 11/08 Q1013
                        TEMPO BKN014=
201812180520 METAR COR EGLL 180520Z AUTO 18015G25KT 150V220 9999 BKN016
                        OVC023 11/08 Q1013 TEMPO BKN014=
201812180450 METAR COR EGLL 180450Z AUTO 17014KT 160V220 9999 BKN017 11/08
                        Q1014 TEMPO BKN014=
201812180420 METAR COR EGLL 180420Z AUTO 18014KT 9999 BKN015 OVC024 10/08
                        Q1014 TEMPO BKN014=
201812180350 METAR COR EGLL 180350Z AUTO 18011KT 9999 BKN015 BKN019 10/08
                        Q1014 TEMPO BKN014=
201812180320 METAR COR EGLL 180320Z AUTO 18011KT 9999 BKN015 OVC019 10/08
                        Q1015 TEMPO BKN014=
201812180250 METAR COR EGLL 180250Z AUTO 18011KT 9999 BKN016 10/08 Q1016
                        TEMPO BKN014=
201812180220 METAR COR EGLL 180220Z AUTO 19010KT 9999 BKN016 BKN023 10/08
                        Q1016 TEMPO BKN014=
201812180150 METAR COR EGLL 180150Z AUTO 19010KT 9999 OVC016 10/08 Q1016
                        TEMPO BKN014=
201812180120 METAR COR EGLL 180120Z AUTO 19011KT 9999 SCT015 BKN020 OVC027
                        10/08 Q1017 TEMPO BKN014=
201812180050 METAR COR EGLL 180050Z AUTO 19010KT 9999 SCT016 BKN020 OVC034
                        10/08 Q1017 TEMPO BKN014=
201812180020 METAR COR EGLL 180020Z AUTO 18010KT 9999 BKN014 OVC026 10/08
                        Q1017 TEMPO BKN015=
201812172350 METAR COR EGLL 172350Z AUTO 17008KT 9999 BKN016 OVC023 10/08
                        Q1017 TEMPO BKN014=
201812172320 METAR COR EGLL 172320Z AUTO 18008KT 9999 BKN017 OVC024 10/08
                        Q1017 NOSIG=
201812172250 METAR COR EGLL 172250Z AUTO 18010KT 9999 FEW016 BKN023 10/08
                        Q1018 TEMPO BKN014=
201812172220 METAR COR EGLL 172220Z AUTO 18010KT 9999 BKN025 10/08 Q1018
                        TEMPO BKN014=
201812172150 METAR COR EGLL 172150Z AUTO 19010KT 9999 BKN017 10/08 Q1018
                        TEMPO BKN014=
201812172120 METAR COR EGLL 172120Z AUTO 18009KT 9999 SCT017 BKN022 10/08
                        Q1018 NOSIG=
201812172050 METAR COR EGLL 172050Z AUTO 18011KT 9999 BKN017 10/08 Q1018
                        NOSIG=
201812172020 METAR COR EGLL 172020Z AUTO 18010KT 9999 NCD 09/08 Q1018
                        NOSIG=
201812171950 METAR COR EGLL 171950Z AUTO 19008G18KT 170V230 9000 NCD 09/08
                        Q1019 NOSIG=
201812171920 METAR COR EGLL 171920Z AUTO 18007KT 140V250 9999 NCD 08/07
                        Q1019 NOSIG=
201812171850 METAR COR EGLL 171850Z AUTO VRB07KT 9999 NCD 08/07 Q1019
                        NOSIG=
201812171820 METAR COR EGLL 171820Z AUTO 19009KT 160V240 9999 NCD 08/07
                        Q1019 NOSIG=
201812171750 METAR COR EGLL 171750Z AUTO 17006KT 140V230 9999 NCD 08/07
                        Q1019 NOSIG=
201812171720 METAR COR EGLL 171720Z AUTO 16005KT 130V220 9999 NCD 08/06
                        Q1019 NOSIG=
201812171650 METAR COR EGLL 171650Z AUTO 15007KT 090V200 9999 NCD 08/06
                        Q1019 NOSIG=
201812171620 METAR COR EGLL 171620Z AUTO 17007KT 140V210 9999 NCD 08/06
                        Q1019 NOSIG=
201812171550 METAR COR EGLL 171550Z AUTO 17007KT 120V240 9999 NCD 08/06
                        Q1019 NOSIG=
201812171520 METAR COR EGLL 171520Z AUTO 17007G17KT 120V220 9999 NCD 10/06
                        Q1018 NOSIG=
201812171450 METAR COR EGLL 171450Z AUTO 19007KT 160V240 9999 NCD 09/06
                        Q1018 NOSIG=
201812171420 METAR EGLL 171420Z AUTO 20008KT 170V250 9999 FEW045 10/06
                        Q1018=
201812171350 METAR COR EGLL 171350Z AUTO 21008KT 180V250 9999 NCD 10/06
                        Q1018 NOSIG=
201812171320 METAR COR EGLL 171320Z AUTO 23009KT 9999 NCD 10/06 Q1018
                        NOSIG=
201812171250 METAR COR EGLL 171250Z AUTO 23010KT 9999 NCD 10/06 Q1018
                        NOSIG=
201812171220 METAR COR EGLL 171220Z AUTO 24010KT 9999 NCD 10/06 Q1018
                        NOSIG=
201812171150 METAR COR EGLL 171150Z AUTO 23008KT 9999 NCD 09/06 Q1018
                        NOSIG=
201812171120 METAR COR EGLL 171120Z AUTO 23008KT 190V260 9999 NCD 09/06
                        Q1018 NOSIG=
201812171050 METAR COR EGLL 171050Z AUTO 24008KT 9999 NCD 08/06 Q1018
                        NOSIG=
201812171020 METAR COR EGLL 171020Z AUTO 24009KT 210V270 9999 NCD 07/05
                        Q1018 NOSIG=
201812170950 METAR COR EGLL 170950Z AUTO 24008KT 9999 NCD 07/05 Q1017
                        NOSIG=
201812170920 METAR COR EGLL 170920Z AUTO 24007KT 9999 NCD 05/04 Q1017
                        NOSIG=
201812170850 METAR COR EGLL 170850Z AUTO 23005KT 9999 NCD 05/04 Q1017
                        NOSIG=
201812170820 METAR COR EGLL 170820Z AUTO 22004KT 180V260 9999 NCD 04/03
                        Q1017 NOSIG=
201812170750 METAR COR EGLL 170750Z AUTO 24007KT 9999 NCD 04/03 Q1016
                        NOSIG=
201812170720 METAR COR EGLL 170720Z AUTO 23005KT 9999 NCD 03/03 Q1015
                        NOSIG=
201812170650 METAR COR EGLL 170650Z AUTO 22005KT 9999 NCD 04/03 Q1015
                        NOSIG=
201812170620 METAR COR EGLL 170620Z AUTO 24005KT 9999 NCD 04/03 Q1015
                        NOSIG=
201812170550 METAR COR EGLL 170550Z AUTO 23004KT 9999 NCD 04/03 Q1014
                        NOSIG=
201812170520 METAR COR EGLL 170520Z AUTO 29004KT 9999 NCD 05/04 Q1014
                        NOSIG=
201812170450 METAR COR EGLL 170450Z AUTO 25008KT 9999 NCD 05/04 Q1013
                        NOSIG=
201812170420 METAR COR EGLL 170420Z AUTO 25003KT 9999 NCD 05/04 Q1012
                        NOSIG=
201812170350 METAR COR EGLL 170350Z AUTO 25004KT 9999 NCD 05/04 Q1012
                        NOSIG=
201812170320 METAR COR EGLL 170320Z AUTO 24006KT 9999 NCD 05/04 Q1012
                        NOSIG=
201812170250 METAR COR EGLL 170250Z AUTO 26009KT 9999 NCD 06/04 Q1011
                        NOSIG=
201812170220 METAR COR EGLL 170220Z AUTO 26011KT 9999 NCD 06/04 Q1011
                        NOSIG=
201812170150 METAR COR EGLL 170150Z AUTO 26011KT 9999 NCD 06/04 Q1010
                        NOSIG=
201812170120 METAR COR EGLL 170120Z AUTO 26011KT 9999 BKN024 BKN032 07/05
                        Q1009 NOSIG=
201812170050 METAR COR EGLL 170050Z AUTO 26011KT 9999 BKN032 07/05 Q1009
                        NOSIG=
201812170020 METAR COR EGLL 170020Z AUTO 26010KT 9999 OVC033 07/05 Q1008
                        NOSIG=
201812162350 METAR COR EGLL 162350Z AUTO 26010KT 9999 SCT017 BKN037 07/06
                        Q1008 NOSIG=
201812162320 METAR COR EGLL 162320Z AUTO 25009KT 9999 BKN016 08/06 Q1007
                        NOSIG=
201812162250 METAR COR EGLL 162250Z AUTO 25012KT 9999 FEW017 SCT032 08/06
                        Q1007 NOSIG=
201812162220 METAR COR EGLL 162220Z AUTO 24010KT 9999 SCT016 BKN045 08/07
                        Q1006 TEMPO BKN014=
201812162150 METAR COR EGLL 162150Z AUTO 23010KT 9999 FEW033 BKN042 08/07
                        Q1006 NOSIG=
201812162120 METAR COR EGLL 162120Z AUTO 22009KT 190V250 9999 FEW016 SCT025
                        BKN029 08/07 Q1005 TEMPO BKN014=
201812162050 METAR COR EGLL 162050Z AUTO 21008KT 180V250 9999 BKN043 08/07
                        Q1005 TEMPO BKN014=
201812162020 METAR EGLL 162020Z AUTO 16008KT 9999 SCT040 07/07 Q1005=
201812161950 METAR COR EGLL 161950Z AUTO 16011KT 9999 -RA BKN035/// BKN045///
                        //////TCU 07/07 Q1004 TEMPO BKN014=
201812161920 METAR COR EGLL 161920Z AUTO 16011KT 9999 -RA SCT019/// SCT034///
                        BKN043/// //////TCU 08/07 Q1005 TEMPO
                        BKN014=
201812161850 METAR COR EGLL 161850Z 16009KT 9999 -RA BKN025TCU BKN034
                        OVC043 08/07 Q1005 TEMPO BKN014=
201812161820 METAR COR EGLL 161820Z 19011KT 160V230 7000 -RA SCT014 SCT022
                        BKN027 08/07 Q1005 TEMPO 4000 RA
                        BKN014=
201812161750 METAR COR EGLL 161750Z 16008KT 5000 -RA SCT014 BKN029 BKN039
                        09/08 Q1005=
201812161720 METAR COR EGLL 161720Z 15008KT 110V200 9999 NSC 09/07 Q1005
                        TEMPO 4000 +SHRA=
201812161650 METAR COR EGLL 161650Z AUTO 16007KT 120V240 9999 FEW033 SCT042
                        09/07 Q1005 TEMPO 4000 +SHRA=
201812161620 METAR COR EGLL 161620Z AUTO 15008KT 120V210 9999 FEW020 08/07
                        Q1005 TEMPO 4000 SHRA BKN012=
201812161550 METAR COR EGLL 161550Z AUTO 16007KT 120V220 9999 FEW016 08/06
                        Q1005 NOSIG=
201812161520 METAR COR EGLL 161520Z AUTO 13006KT 100V170 9999 FEW016 08/06
                        Q1006 NOSIG=
201812161450 METAR COR EGLL 161450Z AUTO 14007KT 100V250 9999 NCD 08/06
                        Q1006 NOSIG=
201812161420 METAR EGLL 161420Z AUTO 15006KT 120V190 9999 NCD 08/06 Q1006=
201812161350 METAR COR EGLL 161350Z AUTO 14006KT 080V190 9999 NCD 08/06
                        Q1006 NOSIG=
201812161320 METAR COR EGLL 161320Z AUTO 16007KT 110V190 9999 NCD 08/06
                        Q1006 NOSIG=
201812161250 METAR COR EGLL 161250Z AUTO 14004KT 100V190 9999 NCD 08/06
                        Q1006 NOSIG=
201812161220 METAR COR EGLL 161220Z AUTO 16006KT 120V200 9999 NCD 08/06
                        Q1007 NOSIG=
201812161150 METAR COR EGLL 161150Z AUTO VRB06KT 9999 NCD 08/06 Q1007
                        NOSIG=
201812161120 METAR COR EGLL 161120Z AUTO 16005KT 100V200 9999 NCD 08/06
                        Q1007 NOSIG=
201812161050 METAR COR EGLL 161050Z AUTO 19006KT 160V220 9999 NCD 08/05
                        Q1007 NOSIG=
201812161020 METAR COR EGLL 161020Z AUTO 19006KT 150V220 9999 NCD 07/05
                        Q1008 NOSIG=
201812160950 METAR COR EGLL 160950Z AUTO 20004KT 150V250 9999 NCD 06/05
                        Q1008 NOSIG=
201812160920 METAR COR EGLL 160920Z AUTO 21004KT 150V250 9999 NCD 05/04
                        Q1007 NOSIG=
201812160850 METAR COR EGLL 160850Z AUTO 19005KT 150V300 9999 NCD 04/03
                        Q1007 NOSIG=
201812160820 METAR COR EGLL 160820Z AUTO 21005KT 170V240 9999 NCD 04/04
                        Q1007 NOSIG=
201812160750 METAR COR EGLL 160750Z AUTO 17004KT 140V210 9999 NCD 03/03
                        Q1007 NOSIG=
201812160720 METAR COR EGLL 160720Z AUTO 21006KT 190V280 9999 NCD 04/03
                        Q1006 NOSIG=
201812160650 METAR COR EGLL 160650Z AUTO 21006KT 180V250 9999 NCD 05/04
                        Q1006 NOSIG=
201812160620 METAR COR EGLL 160620Z AUTO 22006KT 190V250 9999 NCD 05/04
                        Q1006 NOSIG=
201812160550 METAR COR EGLL 160550Z AUTO 21005KT 9999 NCD 05/04 Q1006
                        NOSIG=
201812160520 METAR COR EGLL 160520Z AUTO 22006KT 9999 NCD 05/04 Q1006
                        NOSIG=
201812160450 METAR COR EGLL 160450Z AUTO 22006KT 180V280 9999 NCD 06/04
                        Q1005 NOSIG=
201812160420 METAR COR EGLL 160420Z AUTO 22008KT 9999 NCD 06/04 Q1005
                        NOSIG=
201812160350 METAR COR EGLL 160350Z AUTO 21008KT 9999 NCD 06/04 Q1005
                        NOSIG=
201812160320 METAR COR EGLL 160320Z AUTO 21008KT 9999 NCD 06/04 Q1005
                        NOSIG=
201812160250 METAR COR EGLL 160250Z AUTO 22006KT 9999 NCD 06/04 Q1005
                        NOSIG=
201812160220 METAR COR EGLL 160220Z AUTO 23009KT 9999 NCD 06/05 Q1005
                        NOSIG=
201812160150 METAR COR EGLL 160150Z AUTO 22007KT 9999 NCD 07/05 Q1005
                        NOSIG=
201812160120 METAR COR EGLL 160120Z AUTO 23008KT 9999 FEW032 07/05 Q1004
                        NOSIG=
201812160050 METAR COR EGLL 160050Z AUTO 21008KT 9999 SCT035 07/05 Q1004
                        NOSIG=
201812160020 METAR COR EGLL 160020Z AUTO 23008KT 9999 BKN034 07/05 Q1004
                        NOSIG=
201812152350 METAR COR EGLL 152350Z AUTO 22008KT 9999 NCD 07/05 Q1004
                        NOSIG=
201812152320 METAR COR EGLL 152320Z AUTO 21009KT 190V250 9999 SCT039 07/06
                        Q1003 NOSIG=
201812152250 METAR COR EGLL 152250Z AUTO 21008KT 180V240 9999 SCT040 07/06
                        Q1003 NOSIG=
201812152220 METAR COR EGLL 152220Z AUTO 22007KT 200V260 9999 NCD 07/06
                        Q1003 NOSIG=
201812152150 METAR COR EGLL 152150Z AUTO 21009KT 9999 FEW042 08/07 Q1002
                        NOSIG=
201812152120 METAR COR EGLL 152120Z AUTO 21009KT 180V250 9999 BKN032 07/07
                        Q1002 NOSIG=
201812152050 METAR COR EGLL 152050Z AUTO 17006KT 140V210 9999 FEW043 06/05
                        Q1002 NOSIG=
201812152020 METAR COR EGLL 152020Z AUTO 18011KT 150V230 9999 SCT007 BKN012
                        OVC049 07/06 Q1002 BECMG SCT012 BKN049=
201812151950 METAR COR EGLL 151950Z AUTO 17011KT 9999 -RA BKN007 OVC028
                        06/05 Q1001 TEMPO 4000 -RADZ=
201812151920 METAR COR EGLL 151920Z AUTO 16014KT 5000 -RA BKN008 05/05
                        Q1001 TEMPO BKN012=
201812151850 METAR COR EGLL 151850Z AUTO 15015KT 6000 -RA BKN009 BKN013
                        05/04 Q1002 TEMPO SCT009 BKN013=
201812151820 METAR COR EGLL 151820Z AUTO 15014KT 9999 -RA BKN010/// OVC014///
                        //////TCU 05/04 Q1002 RERA NOSIG=
201812151750 METAR COR EGLL 151750Z 15014KT 9000 -RA OVC010TCU 05/04 Q1003
                        NOSIG=
201812151720 METAR COR EGLL 151720Z AUTO 14015KT 9999 -RA BKN010 OVC020
                        04/03 Q1003 RERA TEMPO BKN008=
201812151650 METAR COR EGLL 151650Z AUTO 13016KT 4500 RA BKN010/// OVC014///
                        //////TCU 04/03 Q1004 RERA TEMPO
                        BKN008=
201812151620 METAR COR EGLL 151620Z AUTO 13013KT 3500 RA BKN009/// OVC014///
                        //////TCU 04/03 Q1005 TEMPO SCT009
                        BKN012=
201812151550 METAR COR EGLL 151550Z 12012KT 3900 RA BKN009 OVC016TCU 03/03
                        Q1006 TEMPO SCT009 BKN012=
201812151520 METAR COR EGLL 151520Z AUTO 13009KT 3900 RA OVC009 03/02
                        Q1007 TEMPO 5000 -RA=
201812151450 METAR COR EGLL 151450Z 13013KT 3800 RA BKN009TCU OVC013 03/02
                        Q1008 TEMPO 5000=
201812151420 METAR COR EGLL 151420Z 12016KT 4400 -RA BKN010TCU OVC014
                        03/02 Q1008 RERA TEMPO 5000=
201812151350 METAR COR EGLL 151350Z AUTO 13014KT 6000 -RA BKN011 OVC017
                        03/02 Q1009 TEMPO 4000 RA=
201812151320 METAR COR EGLL 151320Z AUTO 13015KT 4900 -RA BKN014 BKN023
                        OVC045 03/01 Q1010 TEMPO 5000=
201812151250 METAR COR EGLL 151250Z AUTO 13013KT 5000 -RA FEW019 SCT034
                        BKN044 03/01 Q1011 TEMPO 4000 RA=
201812151220 METAR COR EGLL 151220Z AUTO 13015KT 9000 -RA FEW025 SCT047
                        03/00 Q1012 NOSIG=
201812151150 METAR COR EGLL 151150Z 14014KT 9999 -RA FEW036TCU 03/M00
                        Q1012 NOSIG=
201812151120 METAR COR EGLL 151120Z AUTO 14015KT 9000 -RA SCT044 03/M01
                        Q1013 TEMPO 4000 RA=
201812151050 METAR COR EGLL 151050Z AUTO 13014KT 9999 -RA BKN041 03/M01
                        Q1014 TEMPO 4000 RA=
201812151020 METAR COR EGLL 151020Z AUTO 13014KT 9999 NCD 03/M01 Q1015
                        NOSIG=
201812150950 METAR COR EGLL 150950Z AUTO 14017KT 9999 NCD 03/M02 Q1016
                        NOSIG=
201812150920 METAR COR EGLL 150920Z AUTO 14013KT 9999 NCD 03/M02 Q1016
                        NOSIG=
201812150850 METAR COR EGLL 150850Z AUTO 13013G23KT 9999 NCD 02/M02 Q1017
                        NOSIG=
201812150820 METAR COR EGLL 150820Z AUTO 13012KT 9999 NCD 02/M02 Q1017
                        NOSIG=
201812150750 METAR COR EGLL 150750Z AUTO 13010KT 9999 FEW045 02/M02 Q1017
                        NOSIG=
201812150720 METAR COR EGLL 150720Z AUTO 13011KT 9999 BKN045 02/M02 Q1018
                        NOSIG=
201812150650 METAR COR EGLL 150650Z AUTO 12010KT 9999 SCT046 02/M02 Q1018
                        NOSIG=
201812150620 METAR COR EGLL 150620Z AUTO 11010KT 9999 SCT049 02/M02 Q1018
                        NOSIG=
201812150550 METAR COR EGLL 150550Z AUTO 12010KT 9999 BKN027 02/M02 Q1019
                        NOSIG=
201812150520 METAR COR EGLL 150520Z AUTO 11011KT 9999 OVC029 01/M03 Q1019
                        NOSIG=
201812150450 METAR COR EGLL 150450Z AUTO 11010KT 9999 OVC029 01/M03 Q1019
                        NOSIG=
201812150420 METAR COR EGLL 150420Z AUTO 11012KT 9999 OVC031 01/M03 Q1020
                        NOSIG=
201812150350 METAR COR EGLL 150350Z AUTO 12013KT 9999 OVC032 02/M03 Q1020
                        NOSIG=
201812150320 METAR COR EGLL 150320Z AUTO 12013KT 9999 OVC032 02/M03 Q1020
                        NOSIG=
201812150250 METAR COR EGLL 150250Z AUTO 12013KT 9999 OVC033 02/M03 Q1021
                        NOSIG=
201812150220 METAR COR EGLL 150220Z AUTO 12013KT 9999 OVC034 02/M03 Q1021
                        NOSIG=
201812150150 METAR COR EGLL 150150Z AUTO 12012KT 9999 OVC035 02/M03 Q1021
                        NOSIG=
201812150120 METAR COR EGLL 150120Z AUTO 12012KT 9999 OVC036 02/M03 Q1021
                        NOSIG=
201812150050 METAR COR EGLL 150050Z AUTO 12012KT 9999 OVC038 02/M03 Q1022
                        NOSIG=
201812150020 METAR COR EGLL 150020Z AUTO 12010KT 9999 OVC038 02/M03 Q1022
                        NOSIG=
201812142350 METAR COR EGLL 142350Z AUTO 12012KT 9999 OVC037 02/M04 Q1022
                        NOSIG=
201812142320 METAR COR EGLL 142320Z AUTO 13009KT 9999 OVC040 02/M03 Q1022
                        NOSIG=
201812142250 METAR COR EGLL 142250Z AUTO 12009KT 9999 OVC041 02/M03 Q1023
                        NOSIG=
201812142220 METAR COR EGLL 142220Z AUTO 13007KT 9999 BKN043 02/M03 Q1023
                        NOSIG=
201812142150 METAR COR EGLL 142150Z AUTO 12007KT 9999 BKN044 02/M03 Q1023
                        NOSIG=
201812142120 METAR COR EGLL 142120Z AUTO 16006KT 9999 OVC043 02/M02 Q1024
                        NOSIG=
201812142050 METAR COR EGLL 142050Z AUTO 15007KT 9999 OVC046 03/M03 Q1024
                        NOSIG=
201812142020 METAR COR EGLL 142020Z AUTO 13005KT 9999 OVC044 03/M02 Q1023
                        NOSIG=
201812141950 METAR COR EGLL 141950Z AUTO 13007KT 9999 OVC044 03/M02 Q1023
                        NOSIG=
201812141920 METAR COR EGLL 141920Z AUTO 13005KT 9999 OVC046 03/M02 Q1023
                        NOSIG=
201812141850 METAR COR EGLL 141850Z AUTO 12004KT 9999 OVC045 03/M02 Q1024
                        NOSIG=
201812141820 METAR COR EGLL 141820Z AUTO 11005KT 9999 OVC045 03/M02 Q1023
                        NOSIG=
201812141750 METAR COR EGLL 141750Z AUTO 14005KT 9999 BKN046 03/M02 Q1023
                        NOSIG=
201812141720 METAR COR EGLL 141720Z AUTO 14005KT 9999 BKN048 03/M02 Q1024
                        NOSIG=
201812141650 METAR COR EGLL 141650Z AUTO 12004KT 9999 NCD 03/M02 Q1024
                        NOSIG=
201812141620 METAR COR EGLL 141620Z AUTO 14005KT 9999 NCD 03/M02 Q1024
                        NOSIG=
201812141550 METAR COR EGLL 141550Z AUTO 14005KT 9999 FEW031 03/M02 Q1023
                        NOSIG=
201812141520 METAR COR EGLL 141520Z AUTO 13006KT 9999 SCT032 SCT049 04/M02
                        Q1023 NOSIG=
201812141450 METAR COR EGLL 141450Z AUTO 12005KT 9999 FEW027 03/M02 Q1023
                        NOSIG=
201812141420 METAR COR EGLL 141420Z AUTO 13005KT 080V150 9999 NCD 04/M02
                        Q1023 NOSIG=
201812141350 METAR COR EGLL 141350Z AUTO 17005KT 9999 NCD 04/M02 Q1023
                        NOSIG=
201812141320 METAR COR EGLL 141320Z AUTO 14005KT 9999 NCD 04/M02 Q1023
                        NOSIG=
201812141250 METAR COR EGLL 141250Z AUTO 18005KT 140V210 9999 BKN049 04/M02
                        Q1023 NOSIG=
201812141220 METAR COR EGLL 141220Z AUTO VRB02KT 9999 NCD 04/M01 Q1023
                        NOSIG=
201812141150 METAR COR EGLL 141150Z AUTO VRB03KT 9999 NCD 04/M00 Q1024
                        NOSIG=
201812141120 METAR COR EGLL 141120Z AUTO VRB01KT 9000 OVC048 03/M00 Q1024
                        NOSIG=
201812141050 METAR COR EGLL 141050Z AUTO 31003KT 8000 OVC041 02/00 Q1024
                        NOSIG=
201812141020 METAR COR EGLL 141020Z AUTO 31003KT 7000 BKN030 OVC045 02/M00
                        Q1023 NOSIG=
201812140950 METAR COR EGLL 140950Z AUTO 00000KT 8000 FEW033 BKN043 02/M01
                        Q1023 NOSIG=
201812140920 METAR COR EGLL 140920Z AUTO VRB01KT 9000 FEW047 02/M01 Q1022
                        NOSIG=
201812140850 METAR COR EGLL 140850Z AUTO 08003KT 7000 NCD 01/M01 Q1022
                        NOSIG=
201812140820 METAR EGLL 140820Z AUTO 06003KT 8000 FEW030 SCT042 01/M01
                        Q1022=
201812140750 METAR COR EGLL 140750Z AUTO 08002KT 9000 BKN044 01/M01 Q1022
                        NOSIG=
201812140720 METAR COR EGLL 140720Z AUTO 33001KT 9999 OVC040 01/M01 Q1022
                        NOSIG=
201812140650 METAR COR EGLL 140650Z AUTO VRB02KT 9000 BKN038 01/M01 Q1022
                        NOSIG=
201812140620 METAR COR EGLL 140620Z AUTO 04003KT 8000 BKN040 01/M01 Q1022
                        NOSIG=
201812140550 METAR COR EGLL 140550Z AUTO VRB02KT 9000 OVC038 01/M01 Q1023
                        NOSIG=
201812140520 METAR COR EGLL 140520Z AUTO VRB03KT 9999 OVC037 01/M01 Q1022
                        NOSIG=
201812140450 METAR COR EGLL 140450Z AUTO 34003KT 8000 OVC037 01/M01 Q1022
                        NOSIG=
201812140420 METAR COR EGLL 140420Z AUTO VRB02KT 9000 OVC037 M00/M02 Q1022
                        NOSIG=
201812140350 METAR COR EGLL 140350Z AUTO VRB02KT 6000 BKN036 M01/M03 Q1022
                        NOSIG=
201812140320 METAR COR EGLL 140320Z AUTO 34001KT 9999 BKN035 M01/M02 Q1022
                        NOSIG=
201812140250 METAR COR EGLL 140250Z AUTO 03002KT 9999 FEW035 00/M03 Q1022
                        NOSIG=
201812140220 METAR COR EGLL 140220Z AUTO 06003KT 9999 NCD 00/M03 Q1021
                        NOSIG=
201812140150 METAR COR EGLL 140150Z AUTO 09003KT 9999 NCD M00/M03 Q1021
                        NOSIG=
201812140120 METAR COR EGLL 140120Z AUTO 07003KT 9999 NCD M01/M03 Q1021
                        NOSIG=
201812140050 METAR COR EGLL 140050Z AUTO 10005KT 9999 NCD 00/M02 Q1021
                        NOSIG=
201812140020 METAR COR EGLL 140020Z AUTO 11006KT 9999 BKN030 01/M02 Q1021
                        NOSIG=
201812132350 METAR COR EGLL 132350Z AUTO 09004KT 9999 BKN030 01/M02 Q1021
                        NOSIG=
201812132320 METAR COR EGLL 132320Z AUTO 07003KT 9999 NCD 01/M02 Q1021
                        NOSIG=
201812132250 METAR COR EGLL 132250Z AUTO 08003KT 9999 NCD 01/M02 Q1021
                        NOSIG=
201812132220 METAR COR EGLL 132220Z AUTO 07002KT 9999 NCD 01/M02 Q1021
                        NOSIG=
201812132150 METAR COR EGLL 132150Z AUTO 07003KT 9999 NCD 00/M02 Q1020
                        NOSIG=
201812132120 METAR COR EGLL 132120Z AUTO 09003KT 9999 NCD 01/M02 Q1020
                        NOSIG=
201812132050 METAR COR EGLL 132050Z AUTO 10004KT 9999 NCD 02/M02 Q1020
                        NOSIG=
201812132020 METAR COR EGLL 132020Z AUTO 11005KT 9999 NCD 02/M01 Q1020
                        NOSIG=
201812131950 METAR COR EGLL 131950Z AUTO 11005KT 9999 NCD 01/M02 Q1019
                        NOSIG=
201812131920 METAR COR EGLL 131920Z AUTO 10007KT 9999 NCD 01/M01 Q1019
                        NOSIG=
201812131850 METAR COR EGLL 131850Z AUTO 09006KT 9999 NCD 02/M01 Q1019
                        NOSIG=
201812131820 METAR COR EGLL 131820Z AUTO 10006KT 9999 NCD 02/M01 Q1019
                        NOSIG=
201812131750 METAR COR EGLL 131750Z AUTO 09006KT 9999 NCD 02/M01 Q1018
                        NOSIG=
201812131720 METAR COR EGLL 131720Z AUTO 09009KT 9999 NCD 02/M02 Q1018
                        NOSIG=
201812131650 METAR COR EGLL 131650Z AUTO 09009KT 9999 NCD 02/M02 Q1018
                        NOSIG=
201812131620 METAR COR EGLL 131620Z AUTO 09011KT 9999 NCD 03/M02 Q1018
                        NOSIG=
201812131550 METAR COR EGLL 131550Z AUTO 09011KT 9999 NCD 03/M02 Q1018
                        NOSIG=
201812131520 METAR COR EGLL 131520Z AUTO 09010KT 9999 NCD 03/M02 Q1017
                        NOSIG=
201812131450 METAR COR EGLL 131450Z AUTO 09011KT 9999 NCD 04/M01 Q1017
                        NOSIG=
201812131420 METAR COR EGLL 131420Z AUTO 09012KT 9999 NCD 05/M01 Q1017
                        NOSIG=
201812131350 METAR COR EGLL 131350Z AUTO 08013KT 9999 NCD 05/M01 Q1017
                        NOSIG=
201812131320 METAR COR EGLL 131320Z AUTO 09014KT 9999 NCD 05/M01 Q1017
                        NOSIG=
201812131250 METAR COR EGLL 131250Z AUTO 10013KT 9999 NCD 05/M01 Q1017
                        NOSIG=
201812131220 METAR COR EGLL 131220Z AUTO 09011KT 9999 NCD 05/M00 Q1017
                        NOSIG=
201812131150 METAR COR EGLL 131150Z AUTO 09012KT 9999 NCD 05/00 Q1017
                        NOSIG=
201812131120 METAR COR EGLL 131120Z AUTO 10011KT 9999 NCD 04/00 Q1017
                        NOSIG=
201812131050 METAR COR EGLL 131050Z AUTO 10011KT 9999 NCD 04/01 Q1017
                        NOSIG=
201812131020 METAR COR EGLL 131020Z AUTO 09010KT 9999 NCD 04/00 Q1017
                        NOSIG=
201812130950 METAR COR EGLL 130950Z AUTO 09010KT 9999 NCD 03/00 Q1017
                        NOSIG=
201812130920 METAR COR EGLL 130920Z AUTO 08008KT 9999 NCD 02/00 Q1017
                        NOSIG=
201812130850 METAR COR EGLL 130850Z AUTO 09006KT 9000 NCD 02/M00 Q1017
                        NOSIG=
201812130820 METAR COR EGLL 130820Z AUTO 08005KT 8000 NCD 02/M00 Q1017
                        NOSIG=
201812130750 METAR COR EGLL 130750Z AUTO 09007KT 8000 NCD 01/M00 Q1017
                        NOSIG=
201812130720 METAR COR EGLL 130720Z AUTO 09008KT 8000 NCD 01/M00 Q1016
                        NOSIG=
201812130650 METAR COR EGLL 130650Z AUTO 10009KT 8000 NCD 01/M00 Q1016
                        NOSIG=
201812130620 METAR COR EGLL 130620Z AUTO 09008KT 7000 NCD 02/00 Q1016
                        NOSIG=
201812130550 METAR COR EGLL 130550Z AUTO 09010KT 7000 NCD 02/00 Q1016
                        NOSIG=
201812130520 METAR COR EGLL 130520Z AUTO 09012KT 6000 NCD 02/00 Q1016
                        NOSIG=
201812130450 METAR COR EGLL 130450Z AUTO 09011KT 6000 NCD 02/00 Q1016
                        NOSIG=
201812130420 METAR COR EGLL 130420Z AUTO 09011KT 6000 NCD 02/01 Q1016
                        NOSIG=
201812130350 METAR COR EGLL 130350Z AUTO 09008KT 6000 NCD 02/00 Q1017
                        NOSIG=
201812130320 METAR COR EGLL 130320Z AUTO 09010KT 7000 NCD 02/01 Q1017
                        NOSIG=
201812130250 METAR COR EGLL 130250Z AUTO 10007KT 7000 NCD 02/00 Q1017
                        NOSIG=
201812130220 METAR COR EGLL 130220Z AUTO 10008KT 8000 BKN024 02/01 Q1018
                        NOSIG=
201812130150 METAR COR EGLL 130150Z AUTO 10009KT 8000 BKN021 02/01 Q1018
                        NOSIG=
201812130120 METAR COR EGLL 130120Z AUTO 10009KT 8000 NCD 02/00 Q1018
                        NOSIG=
201812130050 METAR COR EGLL 130050Z AUTO 10008KT 8000 NCD 01/M00 Q1018
                        NOSIG=
201812130020 METAR COR EGLL 130020Z AUTO 10008KT 9999 NCD 02/M00 Q1018
                        BECMG 9000=
201812122350 METAR COR EGLL 122350Z AUTO 09008KT 9999 NCD 02/M00 Q1018
                        NOSIG=
201812122320 METAR COR EGLL 122320Z AUTO 09009KT 9999 NCD 02/M01 Q1018
                        NOSIG=
201812122250 METAR COR EGLL 122250Z AUTO 10007KT 9999 NCD 03/M01 Q1019
                        NOSIG=
201812122220 METAR COR EGLL 122220Z AUTO 10008KT 9999 NCD 03/M01 Q1019
                        NOSIG=
201812122150 METAR COR EGLL 122150Z AUTO 10009KT 9999 NCD 03/M01 Q1019
                        NOSIG=
201812122120 METAR COR EGLL 122120Z AUTO 10009KT 9999 NCD 03/M01 Q1019
                        NOSIG=
201812122050 METAR COR EGLL 122050Z AUTO 10010KT 9999 NCD 03/M01 Q1019
                        NOSIG=
201812122020 METAR COR EGLL 122020Z AUTO 09008KT 9999 NCD 03/M01 Q1020
                        NOSIG=
201812121950 METAR COR EGLL 121950Z AUTO 10009KT 9999 NCD 03/M01 Q1020
                        NOSIG=
201812121920 METAR COR EGLL 121920Z AUTO 10007KT 9999 NCD 03/M01 Q1020
                        NOSIG=
201812121850 METAR COR EGLL 121850Z AUTO 10007KT 9999 NCD 03/M01 Q1020
                        NOSIG=
201812121820 METAR COR EGLL 121820Z AUTO 10007KT 9999 NCD 03/M01 Q1021
                        NOSIG=
201812121750 METAR COR EGLL 121750Z AUTO 10006KT 9999 NCD 04/M02 Q1021
                        NOSIG=
201812121720 METAR COR EGLL 121720Z AUTO 11007KT 9999 NCD 04/M02 Q1021
                        NOSIG=
201812121650 METAR COR EGLL 121650Z AUTO 11008KT 9999 NCD 05/M01 Q1021
                        NOSIG=
201812121620 METAR COR EGLL 121620Z AUTO 12009KT 9999 NCD 05/M01 Q1021
                        NOSIG=
201812121550 METAR COR EGLL 121550Z AUTO 13010KT 9999 NCD 05/M01 Q1021
                        NOSIG=
201812121520 METAR COR EGLL 121520Z AUTO 14010KT 9999 NCD 06/M01 Q1021
                        NOSIG=
201812121450 METAR COR EGLL 121450Z AUTO 13011KT 9999 FEW034 06/M00 Q1021
                        NOSIG=
201812121420 METAR COR EGLL 121420Z AUTO 13012KT 9999 BKN035 07/M00 Q1021
                        NOSIG=
201812121350 METAR COR EGLL 121350Z AUTO 12012KT 9999 BKN037 07/01 Q1022
                        NOSIG=
201812121320 METAR COR EGLL 121320Z AUTO 12010KT 9999 BKN032 OVC039 07/02
                        Q1022 NOSIG=
201812121250 METAR COR EGLL 121250Z AUTO 14010KT 9999 BKN028 OVC041 07/03
                        Q1022 NOSIG=
201812121220 METAR COR EGLL 121220Z AUTO 14009KT 9999 FEW027 OVC033 07/03
                        Q1022 NOSIG=
201812121150 METAR COR EGLL 121150Z AUTO 14009KT 9999 BKN022 BKN028 07/04
                        Q1022 NOSIG=
201812121120 METAR COR EGLL 121120Z AUTO 12011KT 9999 SCT018 BKN023 BKN046
                        07/04 Q1023 NOSIG=
201812121050 METAR COR EGLL 121050Z AUTO 13009KT 9999 SCT016 SCT029 OVC040
                        07/05 Q1022 NOSIG=
201812121020 METAR COR EGLL 121020Z AUTO 13009KT 100V160 9999 BKN029 BKN036
                        OVC043 07/05 Q1022 NOSIG=
201812120950 METAR COR EGLL 120950Z AUTO 12010KT 9999 BKN030 OVC037 07/05
                        Q1022 NOSIG=
201812120920 METAR COR EGLL 120920Z AUTO 13010KT 9999 OVC031 07/05 Q1023
                        NOSIG=
201812120850 METAR COR EGLL 120850Z AUTO 12008KT 9000 BKN025 OVC037 07/05
                        Q1023 NOSIG=
201812120820 METAR COR EGLL 120820Z AUTO 12010KT 9999 FEW014 OVC036 07/05
                        Q1023 NOSIG=
201812120750 METAR COR EGLL 120750Z AUTO 11009KT 9000 FEW027 OVC035 07/05
                        Q1022 NOSIG=
201812120720 METAR COR EGLL 120720Z AUTO 11008KT 8000 BKN037 07/05 Q1022
                        NOSIG=
201812120650 METAR COR EGLL 120650Z AUTO 10008KT 8000 SCT048 07/05 Q1022
                        NOSIG=
201812120620 METAR COR EGLL 120620Z AUTO 10008KT 8000 BKN045 07/05 Q1022
                        NOSIG=
201812120550 METAR COR EGLL 120550Z AUTO 10006KT 8000 SCT040 07/05 Q1022
                        NOSIG=
201812120520 METAR COR EGLL 120520Z AUTO 10006KT 7000 SCT025 BKN042 06/05
                        Q1022 NOSIG=
201812120450 METAR COR EGLL 120450Z AUTO 10006KT 7000 FEW026 SCT045 06/05
                        Q1022 NOSIG=
201812120420 METAR COR EGLL 120420Z AUTO 09005KT 6000 FEW045 06/05 Q1022
                        NOSIG=
201812120350 METAR COR EGLL 120350Z AUTO 09006KT 6000 BKN044 06/05 Q1022
                        NOSIG=
201812120320 METAR COR EGLL 120320Z AUTO 10006KT 6000 BKN043 06/05 Q1022
                        NOSIG=
201812120250 METAR COR EGLL 120250Z AUTO 10007KT 6000 BKN044 06/05 Q1022
                        NOSIG=
201812120220 METAR COR EGLL 120220Z AUTO 10007KT 4800 BR FEW023 BKN039
                        06/05 Q1022 TEMPO 5000=
201812120150 METAR COR EGLL 120150Z AUTO 09005KT 4200 BR BKN037 06/05
                        Q1022 TEMPO 5000=
201812120120 METAR COR EGLL 120120Z AUTO 09005KT 4700 HZ BKN032 06/05
                        Q1022 TEMPO 5000=
201812120050 METAR COR EGLL 120050Z AUTO 10006KT 4200 BR BKN036 06/05
                        Q1022 TEMPO 5000=
201812120020 METAR COR EGLL 120020Z AUTO 09005KT 4000 BR BKN034 05/05
                        Q1023 TEMPO 5000=
201812112350 METAR COR EGLL 112350Z 11005KT 5000 HZ SCT034 05/05 Q1022
                        TEMPO 4000 BR=
201812112320 METAR COR EGLL 112320Z AUTO 09005KT 5000 HZ NCD 05/04 Q1022
                        TEMPO 4000 BR=
201812112250 METAR COR EGLL 112250Z AUTO 10007KT 6000 SCT040 06/04 Q1022
                        TEMPO 4000 BR=
201812112220 METAR COR EGLL 112220Z AUTO 10007KT 8000 FEW024 BKN034 06/05
                        Q1022 NOSIG=
201812112150 METAR COR EGLL 112150Z AUTO 09006KT 6000 SCT039 05/04 Q1022
                        NOSIG=
201812112120 METAR COR EGLL 112120Z AUTO 09005KT 5000 HZ NCD 05/04 Q1023
                        TEMPO 4500 BR=
201812112050 METAR COR EGLL 112050Z AUTO 09005KT 6000 NCD 05/04 Q1023
                        TEMPO 4500 BR=
201812112020 METAR COR EGLL 112020Z AUTO 09006KT 6000 NCD 05/04 Q1023
                        NOSIG=
201812111950 METAR COR EGLL 111950Z AUTO 09005KT 7000 NCD 06/04 Q1023
                        NOSIG=
201812111920 METAR COR EGLL 111920Z AUTO 10006KT 8000 NCD 06/04 Q1023
                        NOSIG=
201812111850 METAR COR EGLL 111850Z AUTO 10006KT 8000 NCD 06/04 Q1023
                        NOSIG=
201812111820 METAR COR EGLL 111820Z AUTO 11006KT 9999 NCD 07/04 Q1023
                        NOSIG=
201812111750 METAR COR EGLL 111750Z AUTO 12006KT 090V180 9999 NCD 07/04
                        Q1023 NOSIG=
201812111720 METAR COR EGLL 111720Z AUTO 13006KT 090V190 9999 NCD 07/04
                        Q1023 NOSIG=
201812111650 METAR COR EGLL 111650Z AUTO 14005KT 090V210 9999 NCD 08/04
                        Q1023 NOSIG=
201812111620 METAR COR EGLL 111620Z AUTO 15005KT 100V230 9999 NCD 08/04
                        Q1023 NOSIG=
201812111550 METAR EGLL 111550Z AUTO 15005KT 120V230 9999 NCD 08/04 Q1023=
201812111520 METAR COR EGLL 111520Z 15005KT 120V200 9999 FEW016 08/04
                        Q1023 NOSIG=
201812111450 METAR COR EGLL 111450Z AUTO 15006KT 130V250 9999 NCD 08/04
                        Q1024 NOSIG=
201812111420 METAR COR EGLL 111420Z AUTO 16005KT 120V190 9999 NCD 09/04
                        Q1024 NOSIG=
201812111350 METAR COR EGLL 111350Z AUTO 16005KT 120V190 9999 NCD 09/05
                        Q1024 NOSIG=
201812111320 METAR COR EGLL 111320Z AUTO 16004KT 100V240 9999 NCD 09/05
                        Q1024 NOSIG=
201812111250 METAR COR EGLL 111250Z AUTO 14004KT 090V200 9999 NCD 08/05
                        Q1024 NOSIG=
201812111220 METAR COR EGLL 111220Z AUTO 14005KT 110V170 9999 NCD 08/05
                        Q1025 NOSIG=
201812111150 METAR COR EGLL 111150Z AUTO 14004KT 110V180 9999 NCD 08/05
                        Q1025 NOSIG=
201812111120 METAR COR EGLL 111120Z AUTO VRB03KT 9999 NCD 07/04 Q1025
                        NOSIG=
201812111050 METAR COR EGLL 111050Z AUTO VRB02KT 9999 NCD 06/04 Q1025
                        NOSIG=
201812111020 METAR EGLL 111020Z AUTO VRB02KT 9999 NCD 05/04 Q1026 NOSIG=
201812110950 METAR COR EGLL 110950Z VRB02KT CAVOK 04/03 Q1026 NOSIG=
201812110920 METAR COR EGLL 110920Z AUTO VRB02KT 8000 NCD 04/03 Q1026
                        NOSIG=
201812110850 METAR COR EGLL 110850Z AUTO VRB03KT 9000 NCD 03/03 Q1026
                        NOSIG=
201812110820 METAR COR EGLL 110820Z VRB02KT 9999 NSC 03/02 Q1026 TEMPO
                        4000 BR=
201812110750 METAR COR EGLL 110750Z 15004KT 120V180 9999 NSC 03/03 Q1026
                        TEMPO 4000 BR=
201812110720 METAR COR EGLL 110720Z AUTO VRB03KT 4200 BR NCD 02/02 Q1026
                        NOSIG=
201812110650 METAR COR EGLL 110650Z VRB02KT 9000 NSC 03/03 Q1026 TEMPO
                        4000 BR=
201812110620 METAR COR EGLL 110620Z VRB03KT 9000 4000W VCFG NSC 03/03
                        Q1026 TEMPO 4000 BR=
201812110550 METAR COR EGLL 110550Z VRB01KT 9000 4000W VCFG NSC 03/03
                        Q1026 TEMPO 3000 BR=
201812110520 METAR COR EGLL 110520Z VRB01KT 9000 3500W VCFG NSC 03/02
                        Q1026 TEMPO 3000 BR=
201812110450 METAR COR EGLL 110450Z AUTO VRB03KT 9000 NCD 03/03 Q1026
                        TEMPO 3000 BR=
201812110420 METAR COR EGLL 110420Z AUTO VRB01KT 6000 NCD 02/02 Q1026
                        TEMPO 3000 BR=
201812110350 METAR COR EGLL 110350Z AUTO 21001KT 8000 NCD 03/02 Q1026
                        TEMPO 3000 BR=
201812110320 METAR COR EGLL 110320Z AUTO 15002KT 9000 NCD 03/02 Q1026
                        NOSIG=
201812110250 METAR COR EGLL 110250Z AUTO 17003KT 9999 NCD 03/03 Q1026
                        NOSIG=
201812110220 METAR COR EGLL 110220Z AUTO 11001KT 9999 NCD 04/03 Q1027
                        NOSIG=
201812110150 METAR COR EGLL 110150Z AUTO VRB02KT 9999 NCD 04/03 Q1027
                        NOSIG=
201812110120 METAR COR EGLL 110120Z AUTO 26002KT 9999 NCD 04/03 Q1027
                        NOSIG=
201812110050 METAR COR EGLL 110050Z AUTO 30003KT 9999 NCD 05/04 Q1027
                        NOSIG=
201812110020 METAR COR EGLL 110020Z AUTO 29003KT 9999 NCD 05/04 Q1027
                        NOSIG=
201812102350 METAR COR EGLL 102350Z AUTO 27004KT 9999 NCD 05/04 Q1028
                        NOSIG=
201812102320 METAR COR EGLL 102320Z AUTO 28004KT 9999 NCD 06/04 Q1028
                        NOSIG=
201812102250 METAR COR EGLL 102250Z AUTO 28007KT 9999 NCD 06/04 Q1028
                        NOSIG=
201812102220 METAR COR EGLL 102220Z AUTO 28005KT 9999 NCD 07/05 Q1028
                        NOSIG=
201812102150 METAR COR EGLL 102150Z AUTO 28005KT 9999 NCD 07/05 Q1028
                        NOSIG=
201812102120 METAR COR EGLL 102120Z AUTO 28006KT 9999 NCD 07/05 Q1028
                        NOSIG=
201812102050 METAR COR EGLL 102050Z AUTO 28006KT 9999 NCD 07/05 Q1028
                        NOSIG=
201812102020 METAR COR EGLL 102020Z AUTO 28004KT 9999 NCD 07/05 Q1028
                        NOSIG=
201812101950 METAR COR EGLL 101950Z AUTO 28007KT 9999 NCD 07/05 Q1028
                        NOSIG=
201812101920 METAR COR EGLL 101920Z AUTO 27006KT 9999 NCD 07/05 Q1028
                        NOSIG=
201812101850 METAR COR EGLL 101850Z AUTO 28007KT 9999 NCD 07/05 Q1028
                        NOSIG=
201812101820 METAR COR EGLL 101820Z AUTO 28007KT 9999 NCD 07/05 Q1028
                        NOSIG=
201812101750 METAR COR EGLL 101750Z AUTO 28006KT 9999 NCD 07/05 Q1028
                        NOSIG=
201812101720 METAR COR EGLL 101720Z AUTO 29005KT 9999 NCD 08/05 Q1028
                        NOSIG=
201812101650 METAR COR EGLL 101650Z AUTO 29006KT 9999 NCD 08/05 Q1028
                        NOSIG=
201812101620 METAR COR EGLL 101620Z AUTO 28007KT 9999 NCD 08/05 Q1028
                        NOSIG=
201812101550 METAR COR EGLL 101550Z AUTO 30004KT 9999 FEW048 09/05 Q1028
                        NOSIG=
201812101520 METAR COR EGLL 101520Z AUTO 30005KT 9999 BKN045 09/05 Q1028
                        NOSIG=
201812101450 METAR COR EGLL 101450Z AUTO 29006KT 9999 BKN046 09/05 Q1027
                        NOSIG=
201812101420 METAR COR EGLL 101420Z AUTO 28007KT 260V330 9999 BKN042 09/05
                        Q1027 NOSIG=
201812101350 METAR COR EGLL 101350Z AUTO 28007KT 9999 OVC040 09/05 Q1027
                        NOSIG=
201812101320 METAR COR EGLL 101320Z AUTO 30006KT 9999 BKN040 OVC048 09/05
                        Q1027 NOSIG=
201812101250 METAR COR EGLL 101250Z AUTO 29008KT 9999 OVC043 09/05 Q1028
                        NOSIG=
201812101220 METAR COR EGLL 101220Z AUTO 30008KT 9999 OVC043 09/05 Q1028
                        NOSIG=
201812101150 METAR COR EGLL 101150Z AUTO 28008KT 9999 BKN040 OVC048 09/05
                        Q1028 NOSIG=
201812101120 METAR COR EGLL 101120Z AUTO 29008KT 9999 -RA SCT033 BKN042
                        08/05 Q1028 NOSIG=
201812101050 METAR COR EGLL 101050Z AUTO 29009KT 9999 BKN039 OVC049 08/05
                        Q1028 NOSIG=
201812101020 METAR COR EGLL 101020Z AUTO 28007KT 9999 OVC042 08/05 Q1028
                        NOSIG=
201812100950 METAR COR EGLL 100950Z AUTO 28008KT 9999 OVC041 08/05 Q1027
                        NOSIG=
201812100920 METAR COR EGLL 100920Z AUTO 27008KT 9999 OVC043 07/05 Q1027
                        NOSIG=
201812100850 METAR COR EGLL 100850Z AUTO 27006KT 9999 BKN044 07/05 Q1027
                        NOSIG=
201812100820 METAR COR EGLL 100820Z AUTO 27007KT 9999 BKN045 06/04 Q1026
                        NOSIG=
201812100750 METAR COR EGLL 100750Z AUTO 27008KT 9999 BKN045 06/04 Q1026
                        NOSIG=
201812100720 METAR COR EGLL 100720Z AUTO 27009KT 9999 FEW044 07/04 Q1026
                        NOSIG=
201812100650 METAR COR EGLL 100650Z AUTO 27010KT 9999 BKN044 07/04 Q1026
                        NOSIG=
201812100620 METAR COR EGLL 100620Z AUTO 26008KT 9999 OVC045 07/05 Q1025
                        NOSIG=
201812100550 METAR COR EGLL 100550Z AUTO 26009KT 9999 BKN043 07/05 Q1025
                        NOSIG=
201812100520 METAR COR EGLL 100520Z AUTO 27008KT 9999 OVC045 07/05 Q1025
                        NOSIG=
201812100450 METAR COR EGLL 100450Z AUTO 27008KT 9999 OVC045 07/05 Q1025
                        NOSIG=
201812100420 METAR COR EGLL 100420Z AUTO 27007KT 9999 BKN044 07/05 Q1025
                        NOSIG=
201812100350 METAR COR EGLL 100350Z AUTO 27008KT 9999 SCT046 06/04 Q1024
                        NOSIG=
201812100320 METAR COR EGLL 100320Z AUTO 27009KT 9999 OVC045 07/05 Q1024
                        NOSIG=
201812100250 METAR COR EGLL 100250Z AUTO 27010KT 9999 BKN041 OVC047 07/05
                        Q1024 NOSIG=
201812100220 METAR COR EGLL 100220Z AUTO 27008KT 9999 BKN041 07/05 Q1024
                        NOSIG=
201812100150 METAR COR EGLL 100150Z AUTO 27006KT 9999 BKN044 06/05 Q1024
                        NOSIG=
201812100120 METAR COR EGLL 100120Z AUTO 27007KT 9999 FEW035 BKN045 06/04
                        Q1024 NOSIG=
201812100050 METAR COR EGLL 100050Z AUTO 26008KT 9999 NCD 05/04 Q1023
                        NOSIG=
201812100020 METAR COR EGLL 100020Z AUTO 26005KT 9999 NCD 04/03 Q1023
                        NOSIG=
201812092350 METAR COR EGLL 092350Z AUTO 26005KT 9999 SCT047 05/04 Q1023
                        NOSIG=
201812092320 METAR COR EGLL 092320Z AUTO 27007KT 9999 NCD 06/04 Q1022
                        NOSIG=
201812092250 METAR COR EGLL 092250Z AUTO 27008KT 9999 NCD 06/04 Q1022
                        NOSIG=
201812092220 METAR COR EGLL 092220Z AUTO 29007KT 9999 NCD 07/05 Q1022
                        NOSIG=
201812092150 METAR COR EGLL 092150Z AUTO 28008KT 9999 NCD 06/04 Q1021
                        NOSIG=
201812092120 METAR COR EGLL 092120Z AUTO 28007KT 9999 NCD 07/04 Q1021
                        NOSIG=
201812092050 METAR COR EGLL 092050Z AUTO 29005KT 9999 NCD 07/04 Q1021
                        NOSIG=
201812092020 METAR COR EGLL 092020Z AUTO 30005KT 9999 NCD 08/05 Q1020
                        NOSIG=
201812091950 METAR COR EGLL 091950Z AUTO 29007KT 9999 NCD 08/05 Q1020
                        NOSIG=
201812091920 METAR COR EGLL 091920Z AUTO 29007KT 9999 NCD 07/04 Q1019
                        NOSIG=
201812091850 METAR COR EGLL 091850Z AUTO 28007KT 9999 FEW039 08/04 Q1019
                        NOSIG=
201812091820 METAR COR EGLL 091820Z AUTO 29007KT 9999 FEW037 08/04 Q1018
                        NOSIG=
201812091750 METAR COR EGLL 091750Z AUTO 27008KT 9999 FEW034 SCT047 07/05
                        Q1018 NOSIG=
201812091720 METAR COR EGLL 091720Z AUTO 28006KT 9999 SCT038 BKN048 08/05
                        Q1017 NOSIG=
201812091650 METAR COR EGLL 091650Z AUTO 29007KT 9999 BKN046 09/05 Q1017
                        NOSIG=
201812091620 METAR COR EGLL 091620Z AUTO 30008KT 9999 FEW042 09/05 Q1016
                        NOSIG=
201812091550 METAR COR EGLL 091550Z AUTO 31008KT 9999 BKN028 10/05 Q1015
                        NOSIG=
201812091520 METAR COR EGLL 091520Z AUTO 30013G23KT 9999 SCT032 OVC040
                        10/05 Q1014 NOSIG=
201812091450 METAR COR EGLL 091450Z AUTO 31010KT 9999 BKN031 BKN045 10/05
                        Q1014 NOSIG=
201812091420 METAR COR EGLL 091420Z AUTO 31014KT 280V350 9999 BKN031 11/05
                        Q1013 NOSIG=
201812091350 METAR COR EGLL 091350Z AUTO 30012KT 9999 FEW035 BKN042 10/05
                        Q1012 NOSIG=
201812091320 METAR COR EGLL 091320Z AUTO 30012KT 270V330 9999 NCD 11/05
                        Q1011 NOSIG=
201812091250 METAR COR EGLL 091250Z AUTO 31012KT 280V340 9999 SCT029 10/05
                        Q1011 NOSIG=
201812091220 METAR COR EGLL 091220Z AUTO 31012KT 9999 BKN027 10/05 Q1010
                        NOSIG=
201812091150 METAR COR EGLL 091150Z AUTO 30011KT 280V340 9999 NCD 10/06
                        Q1009 NOSIG=
201812091120 METAR COR EGLL 091120Z AUTO 30014KT 9999 FEW025 10/06 Q1008
                        NOSIG=
201812091050 METAR COR EGLL 091050Z AUTO 30010KT 9999 SCT022 BKN026 10/07
                        Q1008 NOSIG=
201812091020 METAR COR EGLL 091020Z 30010KT 9999 FEW029TCU 09/07 Q1007
                        NOSIG=
201812090950 METAR COR EGLL 090950Z 31010KT 5000 -RA SCT022CB BKN026 OVC031
                        09/07 Q1006 TEMPO 3000 +SHRA=
201812090920 METAR COR EGLL 090920Z 28012KT 9999 BKN023 OVC031 10/07 Q1005
                        TEMPO 4000 +SHRA BKN020CB=
201812090850 METAR COR EGLL 090850Z AUTO 28013KT 9999 -RA BKN023/// BKN034///
                        OVC040/// //////TCU 09/07 Q1004 TEMPO
                        4500 SHRA=
201812090820 METAR COR EGLL 090820Z AUTO 28013KT 9999 -RA SCT024 BKN043
                        09/07 Q1004 TEMPO SHRA=
201812090750 METAR COR EGLL 090750Z AUTO 27018KT 9000 -RA SCT026 BKN032
                        BKN044 10/07 Q1003 TEMPO SHRA=
201812090720 METAR COR EGLL 090720Z AUTO 28016KT 9999 SCT029 BKN034 BKN042
                        10/06 Q1002 TEMPO SHRA=
201812090650 METAR COR EGLL 090650Z AUTO 27021KT 9999 BKN032 10/06 Q1001
                        TEMPO SHRA=
201812090620 METAR COR EGLL 090620Z AUTO 27022KT 9999 SCT029 BKN033 10/06
                        Q1001 TEMPO SHRA=
201812090550 METAR COR EGLL 090550Z AUTO 27018KT 9999 SCT030 BKN042 10/06
                        Q1000 TEMPO SHRA=
201812090520 METAR COR EGLL 090520Z AUTO 26019KT 9999 BKN030 BKN044 10/06
                        Q1000 TEMPO SHRA=
201812090450 METAR COR EGLL 090450Z AUTO 26022G32KT 9999 SCT030 BKN037
                        BKN043 10/06 Q1000 TEMPO SHRA=
201812090420 METAR COR EGLL 090420Z AUTO 26018KT 9999 SCT027 BKN033 10/06
                        Q1000 TEMPO SHRA=
201812090350 METAR COR EGLL 090350Z AUTO 25017KT 9999 BKN028 09/05 Q1000
                        TEMPO SHRA=
201812090320 METAR COR EGLL 090320Z AUTO 26018KT 9999 BKN028 09/05 Q1000
                        NOSIG=
201812090250 METAR COR EGLL 090250Z AUTO 25018KT 9999 SCT034 BKN040 09/05
                        Q1000 NOSIG=
201812090220 METAR COR EGLL 090220Z AUTO 25016KT 9999 SCT031 BKN040 09/05
                        Q1000 NOSIG=
201812090150 METAR COR EGLL 090150Z AUTO 26017KT 9999 SCT047 09/05 Q1000
                        NOSIG=
201812090120 METAR COR EGLL 090120Z AUTO 25019KT 9999 SCT032 BKN043 09/05
                        Q1000 NOSIG=
201812090050 METAR COR EGLL 090050Z AUTO 26019KT 9999 FEW032 09/05 Q1000
                        NOSIG=
201812090020 METAR COR EGLL 090020Z AUTO 25018KT 9999 BKN048 09/05 Q0999
                        NOSIG=
201812082350 METAR COR EGLL 082350Z AUTO 25017KT 9999 FEW046 09/05 Q0999
                        NOSIG=
201812082320 METAR COR EGLL 082320Z AUTO 26016KT 9999 SCT030 BKN041 09/06
                        Q0999 NOSIG=
201812082250 METAR COR EGLL 082250Z AUTO 26016KT 9999 NCD 09/06 Q0999
                        NOSIG=
201812082220 METAR COR EGLL 082220Z AUTO 26019KT 9999 SCT032 SCT038 BKN046
                        09/06 Q0999 NOSIG=
201812082150 METAR COR EGLL 082150Z AUTO 26018KT 9999 //////TCU 09/06
                        Q0999 TEMPO SHRA=
201812082120 METAR COR EGLL 082120Z AUTO 26019KT 9999 NCD 09/06 Q0999
                        TEMPO SHRA=
201812082050 METAR COR EGLL 082050Z AUTO 26018KT 9999 NCD 09/06 Q0999
                        NOSIG=
201812082020 METAR COR EGLL 082020Z AUTO 26019KT 9999 NCD 09/06 Q0999
                        NOSIG=
201812081950 METAR COR EGLL 081950Z AUTO 26016KT 9999 NCD 09/06 Q0998
                        NOSIG=
201812081920 METAR COR EGLL 081920Z AUTO 26020KT 9999 FEW038/// //////TCU
                        09/06 Q0998 NOSIG=
201812081850 METAR COR EGLL 081850Z AUTO 27022G34KT 5000 -RA SCT030///
                        BKN038/// BKN045/// //////CB 09/07
                        Q0998 TEMPO 3000 +SHRA=
201812081820 METAR COR EGLL 081820Z AUTO 25024KT 5000 -RA SCT029 BKN037
                        10/07 Q0998 TEMPO 3000 +SHRA BKN020CB=
201812081750 METAR COR EGLL 081750Z AUTO 26022KT 9000 NCD 11/06 Q0998
                        TEMPO 4000 +SHRA BKN020CB=
201812081720 METAR COR EGLL 081720Z AUTO 26020KT 9999 NCD 11/07 Q0998
                        TEMPO 4000 +SHRA=
201812081650 METAR COR EGLL 081650Z 26023G33KT 9999 SCT028TCU 11/07 Q0998
                        TEMPO 4000 +SHRA=
201812081620 METAR COR EGLL 081620Z AUTO 25016KT 6000 -RA FEW026/// BKN032///
                        BKN042/// //////TCU 11/08 Q0998 TEMPO
                        4000 +SHRA=
201812081550 METAR COR EGLL 081550Z AUTO 25016KT 9999 FEW034 11/08 Q0999
                        TEMPO SHRA=
201812081520 METAR COR EGLL 081520Z 25019KT 9999 FEW015 BKN020 12/09 Q0999
                        TEMPO SHRA BKN014=
201812081450 METAR COR EGLL 081450Z 25022G32KT 9999 BKN020 BKN032 12/10
                        Q1000 TEMPO SHRA BKN014=
201812081420 METAR COR EGLL 081420Z AUTO 23017G27KT 9999 -RA BKN019 OVC047
                        12/09 Q1000 TEMPO SHRA BKN012=
201812081350 METAR COR EGLL 081350Z AUTO 23017KT 190V260 9999 SCT020 BKN025
                        12/08 Q1001 TEMPO RA BKN012=
201812081320 METAR COR EGLL 081320Z AUTO 24017KT 9999 BKN021 BKN026 OVC033
                        12/08 Q1002 TEMPO BKN012=
201812081250 METAR COR EGLL 081250Z AUTO 23016KT 9999 BKN021 OVC034 11/07
                        Q1003 TEMPO BKN012=
201812081220 METAR COR EGLL 081220Z AUTO 23015KT 9999 OVC020 11/07 Q1004
                        TEMPO BKN012=
201812081150 METAR COR EGLL 081150Z AUTO 24017KT 9999 OVC022 11/06 Q1004
                        NOSIG=
201812081120 METAR COR EGLL 081120Z AUTO 24014KT 9999 BKN028 BKN044 11/06
                        Q1005 NOSIG=
201812081050 METAR COR EGLL 081050Z AUTO 25017KT 9999 FEW035 11/05 Q1005
                        NOSIG=
201812081020 METAR COR EGLL 081020Z AUTO 25017KT 9999 NCD 10/05 Q1006
                        NOSIG=
201812080950 METAR COR EGLL 080950Z AUTO 25015KT 9999 BKN030 10/05 Q1006
                        NOSIG=
201812080920 METAR COR EGLL 080920Z AUTO 26016KT 9999 NCD 09/05 Q1006
                        NOSIG=
201812080850 METAR COR EGLL 080850Z AUTO 26021KT 9999 FEW040 09/05 Q1006
                        NOSIG=
201812080820 METAR COR EGLL 080820Z AUTO 26022KT 9999 NCD 09/04 Q1006
                        NOSIG=
201812080750 METAR COR EGLL 080750Z AUTO 26020G31KT 9999 NCD 09/04 Q1005
                        NOSIG=
201812080720 METAR COR EGLL 080720Z AUTO 27018KT 9999 NCD 09/04 Q1005
                        NOSIG=
201812080650 METAR COR EGLL 080650Z AUTO 27020KT 9999 NCD 09/04 Q1005
                        NOSIG=
201812080620 METAR COR EGLL 080620Z AUTO 26022KT 9999 NCD 09/04 Q1004
                        NOSIG=
201812080550 METAR COR EGLL 080550Z AUTO 26023G34KT 9999 NCD 09/04 Q1004
                        NOSIG=
201812080520 METAR COR EGLL 080520Z AUTO 26019KT 9999 SCT046 09/04 Q1004
                        NOSIG=
201812080450 METAR COR EGLL 080450Z AUTO 24015KT 9999 SCT033 BKN045 09/05
                        Q1004 NOSIG=
201812080420 METAR COR EGLL 080420Z AUTO 25018KT 9999 FEW036 BKN044 09/05
                        Q1004 NOSIG=
201812080350 METAR COR EGLL 080350Z AUTO 24016KT 9999 -RA FEW032 OVC046
                        09/06 Q1004 NOSIG=
201812080320 METAR COR EGLL 080320Z AUTO 24016KT 9999 SCT030 SCT037 BKN043
                        09/05 Q1004 NOSIG=
201812080250 METAR COR EGLL 080250Z AUTO 24015KT 9999 BKN034 BKN049 08/05
                        Q1005 NOSIG=
201812080220 METAR COR EGLL 080220Z AUTO 24015KT 9999 -RA FEW030 SCT040
                        BKN048 08/05 Q1005 NOSIG=
201812080150 METAR COR EGLL 080150Z AUTO 24015KT 9999 -RA FEW031 SCT049
                        08/05 Q1004 NOSIG=
201812080120 METAR COR EGLL 080120Z AUTO 24017KT 9999 NCD 08/04 Q1004
                        NOSIG=
201812080050 METAR COR EGLL 080050Z AUTO 24014KT 9999 NCD 08/05 Q1005
                        NOSIG=
201812080020 METAR COR EGLL 080020Z AUTO 24017KT 9999 NCD 08/04 Q1005
                        NOSIG=
201812072350 METAR COR EGLL 072350Z AUTO 24017KT 9999 NCD 07/04 Q1005
                        NOSIG=
201812072320 METAR COR EGLL 072320Z AUTO 24019KT 9999 FEW032 07/04 Q1005
                        NOSIG=
201812072250 METAR COR EGLL 072250Z AUTO 24015KT 9999 FEW029 07/04 Q1005
                        NOSIG=
201812072220 METAR COR EGLL 072220Z AUTO 24015KT 9999 FEW029 07/04 Q1005
                        NOSIG=
201812072150 METAR COR EGLL 072150Z AUTO 24015KT 9999 NCD 07/04 Q1005
                        NOSIG=
201812072120 METAR COR EGLL 072120Z AUTO 24016KT 9999 NCD 07/04 Q1005
                        NOSIG=
201812072050 METAR COR EGLL 072050Z AUTO 24014KT 9999 NCD 07/04 Q1005
                        NOSIG=
201812072020 METAR COR EGLL 072020Z AUTO 24016KT 9999 NCD 07/04 Q1005
                        NOSIG=
201812071950 METAR COR EGLL 071950Z AUTO 25017KT 9999 NCD 07/03 Q1005
                        NOSIG=
201812071920 METAR COR EGLL 071920Z AUTO 25019KT 9999 FEW048 07/03 Q1005
                        NOSIG=
201812071850 METAR COR EGLL 071850Z AUTO 25017KT 9999 SCT047 07/03 Q1005
                        NOSIG=
201812071820 METAR COR EGLL 071820Z AUTO 25020KT 9999 NCD 07/03 Q1004
                        NOSIG=
201812071750 METAR COR EGLL 071750Z AUTO 25017KT 9999 NCD 07/03 Q1004
                        NOSIG=
201812071720 METAR COR EGLL 071720Z AUTO 26014KT 9999 NCD 07/02 Q1003
                        NOSIG=
201812071650 METAR COR EGLL 071650Z AUTO 26015KT 9999 FEW041 08/03 Q1003
                        NOSIG=
201812071620 METAR COR EGLL 071620Z AUTO 27017KT 9999 FEW041 08/03 Q1003
                        NOSIG=
201812071550 METAR COR EGLL 071550Z AUTO 26015KT 9999 SCT039 08/04 Q1002
                        NOSIG=
201812071520 METAR COR EGLL 071520Z AUTO 27016KT 9999 NCD 09/03 Q1002
                        NOSIG=
201812071450 METAR COR EGLL 071450Z AUTO 27020KT 9999 FEW044 09/03 Q1001
                        NOSIG=
201812071420 METAR COR EGLL 071420Z AUTO 28012KT 9999 FEW040 09/04 Q1001
                        TEMPO 5000 SHRA=
201812071350 METAR COR EGLL 071350Z AUTO 29011KT 9999 SCT039 10/05 Q1001
                        TEMPO 5000 SHRA=
201812071320 METAR COR EGLL 071320Z AUTO 28013KT 9999 NCD 09/06 Q1001
                        TEMPO 5000 SHRA=
201812071250 METAR COR EGLL 071250Z 29015KT 9999 FEW023TCU SCT032 BKN049
                        09/05 Q1001 RESHRA NOSIG=
201812071220 METAR COR EGLL 071220Z AUTO 27021KT 9999 FEW030/// //////TCU
                        10/07 Q1000 NOSIG=
201812071150 METAR COR EGLL 071150Z 25016KT 9999 SCT017 SCT023 10/08 Q1000
                        NOSIG=
201812071120 METAR COR EGLL 071120Z AUTO 27013KT 9999 SCT021 BKN039 10/08
                        Q0999 NOSIG=
201812071050 METAR COR EGLL 071050Z 27012KT 9999 -RA SCT041 10/08 Q0999
                        NOSIG=
201812071020 METAR COR EGLL 071020Z 27014KT 9999 -RA FEW023 SCT039 10/08
                        Q0999 NOSIG=
201812070950 METAR COR EGLL 070950Z 25027G40KT 9999 -RA FEW010 BKN016
                        12/10 Q0999 RERA TEMPO BKN010=
201812070920 METAR COR EGLL 070920Z 21013KT 9999 -RADZ BKN013 OVC037 12/11
                        Q0999 RERA REDZ TEMPO 4000 RA BKN009=
201812070850 METAR COR EGLL 070850Z 21014KT 6000 RA BKN012 OVC022 12/11
                        Q1000 TEMPO BKN009=
201812070820 METAR COR EGLL 070820Z 22015KT 9999 -RA BKN015 OVC038 12/11
                        Q1000 BECMG BKN010=
201812070750 METAR COR EGLL 070750Z 22015KT 9999 -RA SCT014 BKN020 12/11
                        Q1001 BECMG BKN010=
201812070720 METAR COR EGLL 070720Z 21016KT 9000 -RA SCT016TCU BKN021
                        12/11 Q1002 BECMG BKN014=
201812070650 METAR COR EGLL 070650Z AUTO 22017KT 7000 -RA SCT014 BKN019
                        12/11 Q1002 TEMPO BKN008=
201812070620 METAR COR EGLL 070620Z AUTO 22019KT 9999 -RA SCT014 BKN019
                        13/11 Q1003 TEMPO BKN008=
201812070550 METAR COR EGLL 070550Z AUTO 22017KT 9999 BKN012 13/11 Q1004
                        TEMPO BKN008=
201812070520 METAR COR EGLL 070520Z AUTO 22015KT 9999 BKN012 OVC016 13/11
                        Q1004 TEMPO BKN008=
201812070450 METAR COR EGLL 070450Z AUTO 22015KT 9999 BKN011 OVC018 13/11
                        Q1005 TEMPO BKN008=
201812070420 METAR COR EGLL 070420Z AUTO 22014KT 9999 BKN008 OVC020 13/12
                        Q1006 TEMPO 8000 -RADZ=
201812070350 METAR COR EGLL 070350Z AUTO 22014KT 6000 SCT009 BKN013 OVC036
                        13/12 Q1007 TEMPO -RADZ BKN008=
201812070320 METAR COR EGLL 070320Z AUTO 22015KT 8000 -RA SCT009 BKN012
                        BKN029 13/12 Q1007 NOSIG=
201812070250 METAR COR EGLL 070250Z AUTO 22013KT 9999 -RA BKN009 OVC039
                        13/12 Q1008 BECMG BKN010=
201812070220 METAR COR EGLL 070220Z AUTO 22013KT 9999 BKN008 OVC013 13/12
                        Q1008 NOSIG=
201812070150 METAR COR EGLL 070150Z AUTO 21011KT 9999 BKN007 OVC014 13/12
                        Q1009 REDZ BECMG BKN010=
201812070120 METAR COR EGLL 070120Z AUTO 21010KT 3400 DZ OVC005 13/12
                        Q1009 NOSIG=
201812070050 METAR COR EGLL 070050Z AUTO 22009KT 3500 -DZ BKN007 OVC010
                        13/12 Q1010 TEMPO 9999 NSW=
201812070020 METAR COR EGLL 070020Z AUTO 22011KT 9999 OVC008 13/12 Q1010
                        NOSIG=
201812062350 METAR COR EGLL 062350Z AUTO 22009KT 9999 OVC008 13/12 Q1011
                        TEMPO BKN010=
201812062320 METAR COR EGLL 062320Z AUTO 22008KT 9999 OVC009 13/12 Q1011
                        TEMPO BKN010=
201812062250 METAR COR EGLL 062250Z AUTO 23012KT 9999 OVC010 13/12 Q1012
                        TEMPO -RADZ BKN008=
201812062220 METAR COR EGLL 062220Z AUTO 23009KT 9999 OVC010 13/12 Q1012
                        NOSIG=
201812062150 METAR COR EGLL 062150Z AUTO 22009KT 9999 BKN010 OVC014 13/12
                        Q1012 NOSIG=
201812062120 METAR COR EGLL 062120Z AUTO 22010KT 9999 BKN011 13/12 Q1012
                        NOSIG=
201812062050 METAR COR EGLL 062050Z AUTO 23011KT 9999 -RA OVC010 13/12
                        Q1013 TEMPO -RADZ BKN008=
201812062020 METAR COR EGLL 062020Z AUTO 23013KT 9999 OVC010 13/12 Q1013
                        TEMPO -RADZ BKN008=
201812061950 METAR COR EGLL 061950Z AUTO 23012KT 9999 BKN009 OVC013 13/12
                        Q1013 TEMPO SCT009 OVC013=
201812061920 METAR COR EGLL 061920Z AUTO 22012KT 9999 OVC010 13/11 Q1014
                        NOSIG=
201812061850 METAR COR EGLL 061850Z AUTO 22011KT 9999 BKN009 13/11 Q1014
                        TEMPO BKN014=
201812061820 METAR COR EGLL 061820Z AUTO 22012KT 9999 -RA BKN010 13/11
                        Q1013 NOSIG=
201812061750 METAR COR EGLL 061750Z AUTO 22013KT 9000 -RA BKN012 13/11
                        Q1013 NOSIG=
201812061720 METAR COR EGLL 061720Z AUTO 22013KT 9999 -RA BKN012 BKN017
                        13/11 Q1013 NOSIG=
201812061650 METAR COR EGLL 061650Z AUTO 22012KT 9999 BKN011 OVC018 13/11
                        Q1013 NOSIG=
201812061620 METAR COR EGLL 061620Z AUTO 23014KT 9999 BKN011 OVC018 13/11
                        Q1014 NOSIG=
201812061550 METAR COR EGLL 061550Z AUTO 24013KT 9999 BKN013 13/11 Q1014
                        NOSIG=
201812061520 METAR COR EGLL 061520Z AUTO 23014KT 9999 OVC016 13/10 Q1013
                        TEMPO BKN014=
201812061450 METAR COR EGLL 061450Z AUTO 23012KT 9999 BKN018 13/10 Q1014
                        TEMPO BKN014=
201812061420 METAR COR EGLL 061420Z AUTO 23014KT 9999 BKN020 13/10 Q1014
                        TEMPO BKN014=
201812061350 METAR COR EGLL 061350Z AUTO 23012G22KT 9999 NCD 13/10 Q1014
                        TEMPO BKN014=
201812061320 METAR COR EGLL 061320Z AUTO 24014KT 9999 FEW018 13/10 Q1014
                        TEMPO BKN014=
201812061250 METAR COR EGLL 061250Z AUTO 24013KT 9999 -RA FEW016 SCT039
                        BKN047 13/11 Q1014 TEMPO BKN014=
201812061220 METAR COR EGLL 061220Z AUTO 24012KT 9999 BKN016 13/11 Q1015
                        TEMPO BKN014=
201812061150 METAR COR EGLL 061150Z AUTO 24013G24KT 9999 OVC012 13/11
                        Q1015 NOSIG=
201812061120 METAR COR EGLL 061120Z AUTO 23011G22KT 9999 BKN011 12/11
                        Q1015 NOSIG=
201812061050 METAR COR EGLL 061050Z AUTO 24012KT 9999 BKN011 OVC016 12/10
                        Q1015 NOSIG=
201812061020 METAR COR EGLL 061020Z AUTO 24010KT 9999 OVC012 12/10 Q1015
                        NOSIG=
201812060950 METAR COR EGLL 060950Z AUTO 24010KT 9999 OVC012 12/10 Q1015
                        NOSIG=
201812060920 METAR COR EGLL 060920Z AUTO 24011KT 9999 BKN011 OVC017 12/10
                        Q1015 NOSIG=
201812060850 METAR COR EGLL 060850Z AUTO 24009KT 9999 OVC013 11/10 Q1015
                        NOSIG=
201812060820 METAR COR EGLL 060820Z AUTO 24009KT 9999 OVC012 11/10 Q1015
                        NOSIG=
201812060750 METAR COR EGLL 060750Z AUTO 24009KT 9999 OVC013 11/10 Q1014
                        NOSIG=
201812060720 METAR COR EGLL 060720Z AUTO 23009KT 9999 BKN012 OVC018 11/10
                        Q1014 NOSIG=
201812060650 METAR COR EGLL 060650Z AUTO 22008KT 9999 OVC014 11/10 Q1014
                        TEMPO BKN015=
201812060620 METAR COR EGLL 060620Z AUTO 21007KT 170V250 9999 OVC018 11/10
                        Q1014 NOSIG=
201812060550 METAR COR EGLL 060550Z AUTO 20006KT 9999 OVC018 10/10 Q1014
                        NOSIG=
201812060520 METAR COR EGLL 060520Z AUTO 20007KT 9999 OVC017 11/10 Q1014
                        NOSIG=
201812060450 METAR COR EGLL 060450Z AUTO 22007KT 9999 BKN016 OVC022 11/10
                        Q1014 TEMPO BKN014=
201812060420 METAR COR EGLL 060420Z AUTO 21005KT 9999 OVC011 10/09 Q1013
                        TEMPO FEW012 BKN018=
201812060350 METAR COR EGLL 060350Z AUTO 22004KT 9999 FEW009 OVC013 10/09
                        Q1013 TEMPO BKN009=
201812060320 METAR COR EGLL 060320Z AUTO 26007KT 9999 SCT010 OVC014 10/09
                        Q1014 NOSIG=
201812060250 METAR COR EGLL 060250Z AUTO 25008KT 9999 OVC012 10/09 Q1014
                        TEMPO SCT012=
201812060220 METAR COR EGLL 060220Z AUTO 24006KT 9999 SCT011 09/08 Q1013
                        TEMPO BKN012=
201812060150 METAR EGLL 060150Z AUTO 23006KT 9999 SCT011 10/09 Q1012=
201812060120 METAR COR EGLL 060120Z AUTO 23004KT 9999 SCT015 10/09 Q1012
                        NOSIG=
201812060050 METAR COR EGLL 060050Z AUTO 26006KT 9999 BKN014 11/09 Q1012
                        TEMPO BKN015=
201812060020 METAR COR EGLL 060020Z AUTO 25010KT 9999 BKN015 11/10 Q1011
                        NOSIG=
201812052350 METAR COR EGLL 052350Z AUTO 25010KT 9999 BKN019 12/10 Q1011
                        NOSIG=
201812052320 METAR COR EGLL 052320Z AUTO 25009KT 9999 OVC017 12/10 Q1011
                        TEMPO BKN014=
201812052250 METAR COR EGLL 052250Z AUTO 26006KT 9999 OVC013 12/11 Q1011
                        TEMPO BKN015=
201812052220 METAR COR EGLL 052220Z AUTO 26010KT 9999 OVC012 12/11 Q1010
                        TEMPO SCT012 BKN020=
201812052150 METAR COR EGLL 052150Z AUTO 26010KT 9999 BKN012 12/11 Q1010
                        TEMPO FEW012 BKN020=
201812052120 METAR COR EGLL 052120Z AUTO 23010KT 9999 SCT013 12/11 Q1010
                        NOSIG=
201812052050 METAR COR EGLL 052050Z AUTO 23008KT 9999 -RA BKN016 12/11
                        Q1009 TEMPO BKN014=
201812052020 METAR COR EGLL 052020Z AUTO 21007KT 9000 -RA SCT009 SCT016
                        12/11 Q1010 TEMPO BKN009=
201812051950 METAR COR EGLL 051950Z AUTO 23006KT 9999 FEW012/// BKN016///
                        //////TCU 12/11 Q1010 NOSIG=
201812051920 METAR COR EGLL 051920Z AUTO 22008KT 9999 BKN020 12/11 Q1009
                        NOSIG=
201812051850 METAR COR EGLL 051850Z AUTO 22008KT 9999 SCT011 BKN018 OVC022
                        12/11 Q1009 TEMPO 7000 -RA BKN012=
201812051820 METAR COR EGLL 051820Z AUTO 20009KT 9999 -RA BKN009 OVC018
                        12/11 Q1009 TEMPO SCT009=
201812051750 METAR COR EGLL 051750Z AUTO 19008KT 9999 SCT009 BKN013 12/11
                        Q1009 TEMPO BKN009=
201812051720 METAR COR EGLL 051720Z AUTO 20010KT 6000 -RA SCT008/// BKN013///
                        //////TCU 12/11 Q1009 BECMG 9999
                        BKN010=
201812051650 METAR COR EGLL 051650Z AUTO 19010KT 9999 -RA SCT008/// BKN012///
                        //////TCU 12/11 Q1009 TEMPO 6000
                        RA BKN008=
201812051620 METAR COR EGLL 051620Z AUTO 19009KT 150V220 9999 -RA BKN009
                        OVC020 12/11 Q1009 TEMPO 6000 RA=
201812051550 METAR COR EGLL 051550Z 19011KT 150V230 9999 -RA SCT012 BKN016
                        BKN022 12/11 Q1009 TEMPO 5000 RA
                        BKN008=
201812051520 METAR COR EGLL 051520Z 19010KT 9999 -RA BKN012 BKN020 12/11
                        Q1010 TEMPO 5000 RA BKN008=
201812051450 METAR COR EGLL 051450Z 20011KT 160V240 5000 -RA BKN012 OVC022
                        12/11 Q1010 TEMPO 4000 RA BKN008=
201812051420 METAR COR EGLL 051420Z AUTO 19010KT 9999 -RA SCT015 SCT020
                        BKN035 12/10 Q1011 TEMPO 6000 -RA
                        BKN010=
201812051350 METAR COR EGLL 051350Z AUTO 20011KT 160V240 9999 SCT017 BKN025
                        BKN048 13/11 Q1011 TEMPO 6000 -RA
                        BKN010=
201812051320 METAR COR EGLL 051320Z AUTO 19011KT 170V240 9999 BKN017 BKN028
                        13/11 Q1012 NOSIG=
201812051250 METAR COR EGLL 051250Z AUTO 20011KT 160V240 9999 FEW015 OVC048
                        13/11 Q1012 NOSIG=
201812051220 METAR COR EGLL 051220Z AUTO 19010KT 160V230 9999 FEW014 SCT020
                        OVC046 13/11 Q1013 NOSIG=
201812051150 METAR COR EGLL 051150Z AUTO 19011G22KT 160V230 9999 FEW014
                        SCT021 BKN044 13/11 Q1013 NOSIG=
201812051120 METAR COR EGLL 051120Z AUTO 19012KT 150V220 9999 SCT012 BKN019
                        BKN027 13/11 Q1014 NOSIG=
201812051050 METAR COR EGLL 051050Z AUTO 18011KT 160V240 9999 SCT014 SCT022
                        BKN030 13/11 Q1014 TEMPO 6000 -RA
                        BKN014=
201812051020 METAR COR EGLL 051020Z 18009KT 150V230 9999 SCT015 SCT030
                        BKN045 12/11 Q1015 TEMPO 6000=
201812050950 METAR COR EGLL 050950Z 18008KT 150V230 8000 SCT012 BKN018
                        11/11 Q1015 TEMPO 6000 -RA BKN010=
201812050920 METAR COR EGLL 050920Z 17008KT 140V210 5000 BR FEW002 BKN004
                        BKN018 11/10 Q1015 REDZ TEMPO 3000
                        -RA BKN003=
201812050850 METAR COR EGLL 050850Z 17007KT 2500 DZ FEW001 OVC002 10/10
                        Q1015 BECMG 3000 OVC003=
201812050820 METAR COR EGLL 050820Z 15005KT 2500 -DZ OVC002 09/09 Q1015
                        BECMG OVC003=
201812050750 METAR COR EGLL 050750Z 12004KT 6000 -RADZ OVC004 09/08 Q1016
                        TEMPO 4000 -RA=
201812050720 METAR COR EGLL 050720Z 11005KT 5000 -RADZ SCT003 BKN005 OVC010
                        08/08 Q1016 TEMPO 4000 RA BKN004=
201812050650 METAR COR EGLL 050650Z 10007KT 4000 -RADZ SCT003 BKN005 BKN008
                        08/07 Q1016 TEMPO 5000 BKN004=
201812050620 METAR COR EGLL 050620Z 11008KT 6000 -DZ SCT003 BKN005 BKN008
                        07/07 Q1016 TEMPO 3000 DZ BKN004=
201812050550 METAR COR EGLL 050550Z 11009KT 5000 -RADZ SCT003 BKN006 OVC010
                        07/07 Q1017 TEMPO 2500 DZ BKN004=
201812050520 METAR COR EGLL 050520Z 10009KT 3000 -DZ SCT004 BKN005 OVC008
                        07/06 Q1017 REDZ TEMPO 5000 BKN004=
201812050450 METAR COR EGLL 050450Z AUTO 10009KT 2500 DZ OVC006 07/06
                        Q1018 TEMPO 5000 -DZ BKN004=
201812050420 METAR COR EGLL 050420Z AUTO 10009KT 8000 OVC008 06/06 Q1018
                        TEMPO 3500 DZ=
201812050350 METAR COR EGLL 050350Z AUTO 11010KT 9999 OVC008 06/06 Q1019
                        TEMPO 3500 DZ=
201812050320 METAR COR EGLL 050320Z AUTO 10013KT 7000 -RA OVC013 06/05
                        Q1019 BECMG BKN008=
201812050250 METAR COR EGLL 050250Z AUTO 09009KT 9999 OVC016 06/06 Q1020
                        BECMG BKN010=
201812050220 METAR COR EGLL 050220Z AUTO 09011KT 9999 -RA OVC023 06/05
                        Q1020 BECMG BKN010=
201812050150 METAR COR EGLL 050150Z AUTO 09009KT 5000 -RA BKN028 OVC034
                        06/05 Q1020 RERA TEMPO 4000 RADZ=
201812050120 METAR EGLL 050120Z AUTO 10008KT 6000 -RA BKN028 OVC035 06/05
                        Q1021=
201812050050 METAR EGLL 050050Z AUTO 09009KT 8000 -RA BKN033 OVC042 06/05
                        Q1021=
201812050020 METAR EGLL 050020Z AUTO 08006KT 9999 -RA FEW037 BKN043 06/05
                        Q1021=
201812042350 METAR COR EGLL 042350Z AUTO 09005KT 9999 -RA FEW021 SCT034
                        BKN049 06/05 Q1022 NOSIG=
201812042320 METAR COR EGLL 042320Z AUTO 10005KT 9999 -RA FEW029 SCT036
                        BKN044 06/05 Q1022 NOSIG=
201812042250 METAR COR EGLL 042250Z AUTO 09005KT 9999 -RA BKN049 06/04
                        Q1023 NOSIG=
201812042220 METAR COR EGLL 042220Z AUTO 10006KT 080V140 9999 -RA SCT034
                        BKN049 06/04 Q1023 NOSIG=
201812042150 METAR COR EGLL 042150Z AUTO VRB03KT 9999 -RA FEW022 SCT028
                        OVC036 06/04 Q1023 NOSIG=
201812042120 METAR COR EGLL 042120Z AUTO VRB03KT 9999 -RA FEW035 06/04
                        Q1023 NOSIG=
201812042050 METAR COR EGLL 042050Z AUTO 15004KT 110V230 9999 -RA BKN032
                        BKN045 06/04 Q1023 NOSIG=
201812042020 METAR COR EGLL 042020Z AUTO 22008KT 180V260 9999 -RA SCT024
                        BKN032 BKN039 06/04 Q1024 NOSIG=
201812041950 METAR COR EGLL 041950Z AUTO 22007KT 200V260 9999 -RA SCT033
                        BKN042 07/04 Q1024 NOSIG=
201812041920 METAR COR EGLL 041920Z AUTO 18004KT 140V220 9999 -RA BKN043
                        07/04 Q1023 NOSIG=
201812041850 METAR COR EGLL 041850Z AUTO VRB02KT 9999 NCD 08/04 Q1023
                        NOSIG=
201812041820 METAR COR EGLL 041820Z AUTO VRB03KT 9999 NCD 07/04 Q1023
                        NOSIG=
201812041750 METAR EGLL 041750Z AUTO 17004G14KT 130V230 9999 NCD 07/04
                        Q1024=
201812041720 METAR EGLL 041720Z AUTO VRB03KT 9999 NCD 07/04 Q1024=
201812041650 METAR EGLL 041650Z AUTO VRB03KT 9999 NCD 07/04 Q1023=
201812041620 METAR COR EGLL 041620Z AUTO VRB02KT 9999 NCD 07/04 Q1023
                        NOSIG=
201812041550 METAR COR EGLL 041550Z AUTO VRB02KT 9999 NCD 07/04 Q1023
                        NOSIG=
201812041520 METAR COR EGLL 041520Z AUTO VRB03KT 9999 NCD 07/04 Q1023
                        NOSIG=
201812041450 METAR COR EGLL 041450Z AUTO 20005KT 150V250 9999 NCD 07/03
                        Q1023 NOSIG=
201812041420 METAR COR EGLL 041420Z AUTO 20005KT 150V250 9999 NCD 07/04
                        Q1023 NOSIG=
201812041350 METAR COR EGLL 041350Z AUTO VRB03KT 9999 NCD 08/04 Q1023
                        NOSIG=
201812041320 METAR COR EGLL 041320Z AUTO 21004KT 160V280 9999 NCD 08/04
                        Q1022 NOSIG=
201812041250 METAR COR EGLL 041250Z AUTO 26004KT 210V320 9999 NCD 07/04
                        Q1023 NOSIG=
201812041220 METAR COR EGLL 041220Z AUTO 27004KT 220V330 9999 NCD 07/04
                        Q1023 NOSIG=
201812041150 METAR COR EGLL 041150Z AUTO 22005KT 150V280 9999 NCD 08/04
                        Q1023 NOSIG=
201812041120 METAR COR EGLL 041120Z AUTO VRB01KT 9999 NCD 07/04 Q1023
                        NOSIG=
201812041050 METAR COR EGLL 041050Z AUTO VRB02KT 9999 NCD 06/04 Q1023
                        NOSIG=
201812041020 METAR COR EGLL 041020Z AUTO VRB03KT 9999 NCD 06/03 Q1023
                        NOSIG=
201812040950 METAR COR EGLL 040950Z AUTO 25006KT 210V290 9999 NCD 05/03
                        Q1022 NOSIG=
201812040920 METAR COR EGLL 040920Z AUTO 28003KT 9999 NCD 04/03 Q1022
                        NOSIG=
201812040850 METAR COR EGLL 040850Z AUTO 27004KT 9999 NCD 03/02 Q1021
                        NOSIG=
201812040820 METAR COR EGLL 040820Z AUTO 26004KT 9999 NCD 03/02 Q1021
                        NOSIG=
201812040750 METAR COR EGLL 040750Z AUTO 28004KT 9999 NCD 03/02 Q1021
                        NOSIG=
201812040720 METAR COR EGLL 040720Z AUTO 28003KT 9999 NCD 03/02 Q1020
                        NOSIG=
201812040650 METAR COR EGLL 040650Z AUTO 24005KT 210V280 9999 NCD 02/01
                        Q1019 NOSIG=
201812040620 METAR COR EGLL 040620Z AUTO VRB03KT 9999 NCD 02/01 Q1019
                        NOSIG=
201812040550 METAR COR EGLL 040550Z AUTO 23002KT 9999 NCD 03/02 Q1018
                        NOSIG=
201812040520 METAR COR EGLL 040520Z AUTO VRB01KT 9999 NCD 03/02 Q1018
                        NOSIG=
201812040450 METAR COR EGLL 040450Z AUTO 28003KT 9999 NCD 03/02 Q1017
                        NOSIG=
201812040420 METAR COR EGLL 040420Z AUTO 30003KT 9999 NCD 03/03 Q1017
                        NOSIG=
201812040350 METAR COR EGLL 040350Z AUTO 29005KT 9999 NCD 03/02 Q1016
                        NOSIG=
201812040320 METAR COR EGLL 040320Z AUTO 28003KT 9999 NCD 04/03 Q1016
                        NOSIG=
201812040250 METAR COR EGLL 040250Z AUTO 28003KT 9999 NCD 04/03 Q1015
                        NOSIG=
201812040220 METAR COR EGLL 040220Z AUTO 28004KT 9999 NCD 04/03 Q1015
                        NOSIG=
201812040150 METAR COR EGLL 040150Z AUTO 27006KT 9999 NCD 04/03 Q1014
                        NOSIG=
201812040120 METAR COR EGLL 040120Z AUTO 28006KT 9999 NCD 04/03 Q1014
                        NOSIG=
201812040050 METAR COR EGLL 040050Z AUTO 27007KT 9999 NCD 05/04 Q1013
                        NOSIG=
201812040020 METAR COR EGLL 040020Z AUTO 28006KT 9999 NCD 06/04 Q1013
                        NOSIG=
201812032350 METAR COR EGLL 032350Z AUTO 27004KT 9999 FEW027 06/04 Q1013
                        NOSIG=
201812032320 METAR EGLL 032320Z AUTO 29004KT 9999 FEW039 BKN049 06/04
                        Q1012=
201812032250 METAR COR EGLL 032250Z AUTO 29004KT 9999 FEW024 SCT034 BKN046
                        07/04 Q1011 NOSIG=
201812032220 METAR COR EGLL 032220Z AUTO 29005KT 9999 NCD 07/04 Q1011
                        NOSIG=
201812032150 METAR COR EGLL 032150Z AUTO 29004KT 9999 NCD 07/04 Q1010
                        NOSIG=
201812032120 METAR COR EGLL 032120Z AUTO 29005KT 9999 NCD 08/04 Q1010
                        NOSIG=
201812032050 METAR COR EGLL 032050Z AUTO 29007KT 9999 SCT049 08/05 Q1009
                        NOSIG=
201812032020 METAR COR EGLL 032020Z AUTO 27008KT 9999 SCT045 08/05 Q1009
                        NOSIG=
201812031950 METAR COR EGLL 031950Z AUTO 27007KT 9999 BKN044 08/05 Q1008
                        NOSIG=
201812031920 METAR COR EGLL 031920Z AUTO 28005KT 9999 BKN041 07/05 Q1007
                        NOSIG=
201812031850 METAR COR EGLL 031850Z AUTO 29004KT 9999 SCT038 08/05 Q1006
                        NOSIG=
201812031820 METAR COR EGLL 031820Z AUTO 30007KT 9999 BKN046 09/06 Q1006
                        NOSIG=
201812031750 METAR COR EGLL 031750Z AUTO 30006KT 9999 SCT047 09/06 Q1004
                        NOSIG=
201812031720 METAR COR EGLL 031720Z AUTO 29006KT 9999 FEW043 09/06 Q1004
                        NOSIG=
201812031650 METAR COR EGLL 031650Z AUTO 31006KT 280V340 9999 FEW021 09/07
                        Q1003 NOSIG=
201812031620 METAR COR EGLL 031620Z AUTO 30007KT 9999 FEW033 SCT040 10/07
                        Q1002 NOSIG=
201812031550 METAR COR EGLL 031550Z 30010KT 9999 -SHRA FEW017 SCT023 BKN029
                        11/08 Q1001 NOSIG=
201812031520 METAR COR EGLL 031520Z AUTO 27015KT 9000 -RA SCT021/// BKN027///
                        BKN033/// //////TCU 11/10 Q1000 NOSIG=
201812031450 METAR COR EGLL 031450Z AUTO 27020KT 9999 FEW023 BKN028 BKN033
                        12/09 Q0999 TEMPO SHRA=
201812031420 METAR COR EGLL 031420Z AUTO 26016KT 9999 SCT023 BKN028 BKN033CB
                        13/09 Q0998 NOSIG=
201812031350 METAR COR EGLL 031350Z AUTO 26015KT 9999 SCT022 BKN029 BKN036TCU
                        13/10 Q0997 NOSIG=
201812031320 METAR COR EGLL 031320Z AUTO 25015KT 9999 FEW027 SCT032CB
                        13/10 Q0997 NOSIG=
201812031250 METAR COR EGLL 031250Z AUTO 28012KT 7000 -RA BKN016 BKN024
                        BKN038CB 12/10 Q0997 BECMG 9999 NSW=
201812031220 METAR COR EGLL 031220Z AUTO 24013KT 5000 -RA SCT015/// BKN021///
                        BKN030/// //////CB 13/11 Q0997 TEMPO
                        BKN014=
201812031150 METAR EGLL 031150Z AUTO 25017KT 9999 -RA FEW029 SCT042 13/10
                        Q0997=
201812031120 METAR COR EGLL 031120Z 24015KT 9999 SCT023 BKN029 13/11 Q0997
                        TEMPO SHRA=
201812031050 METAR COR EGLL 031050Z 23011KT 9999 BKN024 BKN030 OVC040
                        13/11 Q0997 TEMPO SHRA=
201812031020 METAR COR EGLL 031020Z 23013KT 9999 -SHRA SCT029 BKN047 13/10
                        Q0997 TEMPO 7000 SHRA=
201812030950 METAR COR EGLL 030950Z AUTO 23013KT 9999 FEW024 13/10 Q0997
                        TEMPO 4000 SHRA BKN014=
201812030920 METAR COR EGLL 030920Z AUTO 22010KT 9999 FEW027 SCT048 13/10
                        Q0997 TEMPO SHRA=
201812030850 METAR COR EGLL 030850Z AUTO 22011KT 9999 FEW022 SCT028 BKN033
                        12/10 Q0998 NOSIG=
201812030820 METAR COR EGLL 030820Z AUTO 22010KT 9999 SCT024 BKN028 BKN035
                        12/10 Q0998 NOSIG=
201812030750 METAR COR EGLL 030750Z 22010KT 9999 -RA FEW036 BKN043 12/10
                        Q0998 NOSIG=
201812030720 METAR COR EGLL 030720Z 22010KT 9999 BKN037 BKN043 12/09 Q0998
                        NOSIG=
201812030650 METAR COR EGLL 030650Z 22010KT 9999 BKN044 11/09 Q0998 NOSIG=
201812030620 METAR COR EGLL 030620Z 22007KT 9999 SCT032 11/09 Q0998 NOSIG=
201812030550 METAR COR EGLL 030550Z 21007KT 9999 FEW018 SCT037 11/09 Q0999
                        NOSIG=
201812030520 METAR COR EGLL 030520Z AUTO 23010KT 9999 FEW024 SCT034 11/09
                        Q0999 NOSIG=
201812030450 METAR COR EGLL 030450Z AUTO 23010KT 9999 FEW026 11/08 Q0999
                        NOSIG=
201812030420 METAR COR EGLL 030420Z AUTO 23011KT 9999 FEW023 11/08 Q0999
                        NOSIG=
201812030350 METAR COR EGLL 030350Z AUTO 23013KT 9999 BKN046 12/09 Q0999
                        NOSIG=
201812030320 METAR COR EGLL 030320Z AUTO 24013KT 9999 BKN038 12/09 Q0999
                        NOSIG=
201812030250 METAR COR EGLL 030250Z AUTO 24013KT 9999 SCT036 12/08 Q0999
                        NOSIG=
201812030220 METAR COR EGLL 030220Z AUTO 24014KT 9999 SCT027 BKN031 12/09
                        Q0999 NOSIG=
201812030150 METAR COR EGLL 030150Z AUTO 24013KT 9999 NCD 12/09 Q0999
                        NOSIG=
201812030120 METAR COR EGLL 030120Z AUTO 24016KT 9999 NCD 12/09 Q0999
                        NOSIG=
201812030050 METAR COR EGLL 030050Z AUTO 24018KT 9999 SCT030 12/09 Q0999
                        NOSIG=
201812030020 METAR COR EGLL 030020Z AUTO 24015KT 9999 FEW027 13/10 Q0999
                        NOSIG=
201812022350 METAR COR EGLL 022350Z AUTO 24015KT 9999 FEW028 13/10 Q0998
                        NOSIG=
201812022320 METAR COR EGLL 022320Z AUTO 24014KT 9999 SCT021 13/10 Q0998
                        NOSIG=
201812022250 METAR COR EGLL 022250Z 23015KT 9999 FEW020TCU 13/11 Q0998
                        NOSIG=
201812022220 METAR COR EGLL 022220Z AUTO 23012KT 9999 FEW020/// //////CB
                        13/11 Q0998 NOSIG=
201812022150 METAR COR EGLL 022150Z AUTO 23013KT 9999 -RA FEW026/// //////TCU
                        14/11 Q0998 NOSIG=
201812022120 METAR COR EGLL 022120Z AUTO 24014KT 9999 BKN039 14/11 Q0998
                        NOSIG=
201812022050 METAR COR EGLL 022050Z AUTO 23014KT 9999 FEW019 SCT036 14/11
                        Q0998 TEMPO BKN014=
201812022020 METAR COR EGLL 022020Z AUTO 24015KT 9999 SCT016 BKN022 14/12
                        Q0998 TEMPO BKN014=
201812021950 METAR COR EGLL 021950Z AUTO 23014KT 9999 SCT017 BKN023 BKN030
                        14/12 Q0998 TEMPO 4000 SHRA BKN014=
201812021920 METAR COR EGLL 021920Z AUTO 23014KT 9999 BKN016 14/11 Q0998
                        TEMPO 6000 SHRA BKN014=
201812021850 METAR COR EGLL 021850Z AUTO 23013KT 9999 BKN016 BKN023 14/11
                        Q0998 TEMPO SHRA BKN012=
201812021820 METAR EGLL 021820Z AUTO 23013KT 9999 BKN017 BKN031 14/12
                        Q0998=
201812021750 METAR COR EGLL 021750Z AUTO 23013KT 9999 BKN015 14/12 Q0998
                        TEMPO 4000 SHRA BKN012CB=
201812021720 METAR COR EGLL 021720Z AUTO 23014KT 9999 BKN016 OVC040 14/12
                        Q0998 TEMPO 4000 SHRA BKN012=
201812021650 METAR COR EGLL 021650Z AUTO 23013KT 190V250 9999 BKN015 OVC033
                        14/11 Q0998 TEMPO 4000 SHRA BKN012=
201812021620 METAR COR EGLL 021620Z AUTO 22012KT 9999 -RA BKN017 14/11
                        Q0998 TEMPO BKN014=
201812021550 METAR EGLL 021550Z AUTO 22011KT 9999 BKN019 BKN026 OVC031
                        14/11 Q0998=
201812021520 METAR COR EGLL 021520Z AUTO 22012KT 190V250 9999 FEW023 BKN029
                        BKN035 14/12 Q0998 TEMPO BKN014=
201812021450 METAR COR EGLL 021450Z AUTO 23013KT 9999 -RA FEW015 BKN019
                        BKN023 14/12 Q0998 TEMPO BKN014=
201812021420 METAR COR EGLL 021420Z AUTO 23015KT 9999 SCT021 BKN028 BKN034
                        14/11 Q0998 NOSIG=
201812021350 METAR COR EGLL 021350Z AUTO 23016KT 9999 SCT025 BKN038 14/11
                        Q0998 NOSIG=
201812021320 METAR COR EGLL 021320Z AUTO 23016KT 9999 BKN023 OVC029 14/11
                        Q0998 NOSIG=
201812021250 METAR COR EGLL 021250Z AUTO 24014KT 9999 SCT024 SCT031 15/11
                        Q0998 NOSIG=
201812021220 METAR COR EGLL 021220Z AUTO 24018KT 9999 SCT022 BKN032 15/11
                        Q0998 TEMPO BKN014=
201812021150 METAR COR EGLL 021150Z AUTO 24016KT 9999 SCT019 BKN033 15/12
                        Q0998 TEMPO BKN014=
201812021120 METAR COR EGLL 021120Z AUTO 23014KT 9999 BKN016 BKN026 15/12
                        Q0998 TEMPO BKN014=
201812021050 METAR COR EGLL 021050Z AUTO 23013KT 9999 SCT017 BKN021 14/12
                        Q0998 TEMPO BKN014=
201812021020 METAR COR EGLL 021020Z AUTO 24012KT 9999 BKN015 OVC023 14/12
                        Q0998 TEMPO BKN012=
201812020950 METAR COR EGLL 020950Z AUTO 23010KT 9999 BKN011 OVC020 14/12
                        Q0998 TEMPO SCT011=
201812020920 METAR COR EGLL 020920Z AUTO 24011KT 9999 SCT012 OVC016 14/12
                        Q0998 NOSIG=
201812020850 METAR COR EGLL 020850Z AUTO 23013KT 9999 BKN016 14/12 Q0997
                        NOSIG=
201812020820 METAR COR EGLL 020820Z AUTO 23013KT 9999 BKN014 13/12 Q0997
                        TEMPO BKN015=
201812020750 METAR COR EGLL 020750Z AUTO 24013KT 9999 SCT014 BKN019 13/12
                        Q0997 TEMPO BKN014=
201812020720 METAR COR EGLL 020720Z AUTO 24015G25KT 9999 SCT013 BKN017
                        BKN023 13/12 Q0997 TEMPO BKN014=
201812020650 METAR COR EGLL 020650Z AUTO 24011KT 9999 BKN014 13/12 Q0996
                        TEMPO BKN015=
201812020620 METAR COR EGLL 020620Z AUTO 24014KT 9999 SCT016 BKN020 14/12
                        Q0996 TEMPO BKN014=
201812020550 METAR COR EGLL 020550Z AUTO 23011KT 9999 -RA BKN017 13/12
                        Q0996 TEMPO BKN014=
201812020520 METAR COR EGLL 020520Z AUTO 24011KT 9999 -RA BKN014/// //////TCU
                        14/12 Q0995 NOSIG=
201812020450 METAR COR EGLL 020450Z AUTO 24013KT 9999 BKN014 BKN019 OVC025
                        14/12 Q0995 NOSIG=
201812020420 METAR COR EGLL 020420Z AUTO 23011KT 9999 SCT014 BKN020 14/12
                        Q0995 NOSIG=
201812020350 METAR COR EGLL 020350Z AUTO 23009KT 9999 BKN012 OVC017 14/12
                        Q0995 NOSIG=
201812020320 METAR COR EGLL 020320Z AUTO 23011KT 9999 BKN012 BKN019 14/12
                        Q0995 NOSIG=
201812020250 METAR COR EGLL 020250Z AUTO 23012KT 9999 BKN011 OVC021 13/12
                        Q0995 TEMPO BKN008=
201812020220 METAR COR EGLL 020220Z AUTO 23011KT 9999 BKN010 OVC015 13/12
                        Q0995 TEMPO BKN008=
201812020150 METAR COR EGLL 020150Z AUTO 22009KT 9999 -RA BKN011 OVC016
                        13/12 Q0995 TEMPO BKN008=
201812020120 METAR COR EGLL 020120Z AUTO 22010KT 9999 BKN009 OVC026 13/12
                        Q0995 TEMPO BKN014=
201812020050 METAR COR EGLL 020050Z AUTO 20009KT 9999 -RA SCT007 BKN010
                        BKN018 12/11 Q0996 TEMPO BKN008=
201812020020 METAR COR EGLL 020020Z AUTO 19006KT 9999 -RA BKN007 OVC012
                        11/11 Q0996 RERA TEMPO BKN010=
201812012350 METAR COR EGLL 012350Z AUTO 18006KT 4900 RA BKN009/// BKN014///
                        OVC031/// //////TCU 11/11 Q0997 TEMPO
                        -RA FEW009 BKN013=
201812012320 METAR COR EGLL 012320Z AUTO 17006KT 150V230 8000 -RA FEW014
                        BKN031 11/10 Q0997 TEMPO BKN014=
201812012250 METAR COR EGLL 012250Z AUTO 20007KT 170V250 9999 -RA SCT016///
                        SCT045/// //////TCU 11/10 Q0998 TEMPO
                        BKN014=
201812012220 METAR COR EGLL 012220Z AUTO 23011KT 9999 -RA OVC015/// //////TCU
                        12/09 Q0999 TEMPO BKN014=
201812012150 METAR COR EGLL 012150Z AUTO 23012KT 9999 BKN018 12/09 Q0999
                        TEMPO BKN014=
201812012120 METAR COR EGLL 012120Z AUTO 22009KT 9999 SCT016 BKN020 12/09
                        Q0998 TEMPO BKN014=
201812012050 METAR COR EGLL 012050Z AUTO 23008KT 9999 BKN015 OVC023 12/10
                        Q0999 NOSIG=
201812012020 METAR COR EGLL 012020Z AUTO 22008KT 180V250 9999 OVC016 12/10
                        Q0999 NOSIG=
201812011950 METAR COR EGLL 011950Z AUTO 21009KT 9999 FEW019 BKN023 12/10
                        Q0999 NOSIG=
201812011920 METAR COR EGLL 011920Z AUTO 22010KT 190V250 9999 SCT024 12/10
                        Q0999 NOSIG=
201812011850 METAR COR EGLL 011850Z AUTO 22009KT 190V260 9999 OVC025 12/10
                        Q0999 NOSIG=
201812011820 METAR COR EGLL 011820Z AUTO 21010KT 9999 OVC026 12/10 Q0999
                        NOSIG=
201812011750 METAR COR EGLL 011750Z AUTO 21010KT 180V250 9999 BKN027 12/10
                        Q0999 NOSIG=
201812011720 METAR COR EGLL 011720Z AUTO 21008KT 180V250 9999 FEW017 BKN022
                        12/10 Q0999 NOSIG=
201812011650 METAR COR EGLL 011650Z AUTO 23009KT 190V250 9999 BKN016 OVC027
                        13/11 Q0999 NOSIG=
201812011620 METAR COR EGLL 011620Z AUTO 22009KT 9999 SCT014 SCT022 BKN027
                        13/11 Q0999 NOSIG=
201812011550 METAR COR EGLL 011550Z AUTO 22010KT 190V250 9999 SCT014 13/11
                        Q0999 NOSIG=
201812011520 METAR COR EGLL 011520Z AUTO 22010KT 9999 SCT014 BKN022 13/11
                        Q0999 NOSIG=
201812011450 METAR COR EGLL 011450Z AUTO 22010KT 9999 BKN022 13/12 Q0999
                        NOSIG=
201812011420 METAR COR EGLL 011420Z AUTO 21010KT 9999 FEW009 SCT013 OVC025
                        13/12 Q0999 NOSIG=
201812011350 METAR COR EGLL 011350Z 21011KT 3500 -DZ BKN005 OVC009 13/12
                        Q0999 REDZ BECMG 9999 NSW BKN012=
201812011320 METAR COR EGLL 011320Z AUTO 20010KT 9999 BKN005 OVC009 12/11
                        Q1000 BECMG BKN012=
201812011250 METAR COR EGLL 011250Z AUTO 19010KT 5000 -DZ BKN006 OVC018
                        12/11 Q1000 REDZ TEMPO 3000 DZ=
201812011220 METAR COR EGLL 011220Z AUTO 19014KT 7000 BKN008 11/10 Q1000
                        TEMPO 4000 -DZ=
201812011150 METAR COR EGLL 011150Z AUTO 18015KT 7000 BKN009 OVC016 11/10
                        Q1001 TEMPO 4000 DZ=
201812011120 METAR COR EGLL 011120Z AUTO 17013KT 9999 BKN010 BKN014 OVC025
                        11/10 Q1001 BECMG BKN008=
201812011050 METAR COR EGLL 011050Z AUTO 17012KT 9999 -RA BKN010 OVC014
                        11/09 Q1002 BECMG BKN008=
201812011020 METAR COR EGLL 011020Z 16013KT 6000 -RA BKN010 OVC014 10/09
                        Q1003 BECMG BKN008=
201812010950 METAR COR EGLL 010950Z 16012KT 9999 -RA BKN010 10/09 Q1003
                        TEMPO BKN009=
201812010920 METAR COR EGLL 010920Z 16012KT 9999 -RA BKN011 OVC034 10/09
                        Q1004 TEMPO BKN009=
201812010850 METAR COR EGLL 010850Z 15011KT 9999 -RA BKN013 OVC020 10/09
                        Q1004 TEMPO RA=
201812010820 METAR COR EGLL 010820Z 17010KT 9999 -RA SCT012 BKN045 10/09
                        Q1005 TEMPO 4500 RA BKN012=
201812010750 METAR COR EGLL 010750Z 18011KT 9999 -RA SCT012 BKN025 10/09
                        Q1006 TEMPO 4500 RA BKN012=
201812010720 METAR COR EGLL 010720Z 15008KT 9000 -RA FEW014 BKN024 BKN034
                        09/08 Q1006 TEMPO RA BKN014=
201812010650 METAR COR EGLL 010650Z AUTO 16008KT 120V180 9999 -RA BKN046
                        09/08 Q1006 NOSIG=
201812010620 METAR COR EGLL 010620Z AUTO 18007KT 150V250 9999 -RA FEW029
                        SCT037 BKN047 08/07 Q1007 NOSIG=
201812010550 METAR COR EGLL 010550Z AUTO 17007KT 9999 -RA BKN046/// //////TCU
                        08/07 Q1008 NOSIG=
201812010520 METAR COR EGLL 010520Z AUTO 15004KT 9999 NCD 08/06 Q1008
                        NOSIG=
201812010450 METAR COR EGLL 010450Z AUTO 17004KT 9999 SCT048 08/06 Q1008
                        NOSIG=
201812010420 METAR COR EGLL 010420Z AUTO 17005KT 9999 BKN048 08/06 Q1008
                        NOSIG=
201812010350 METAR COR EGLL 010350Z AUTO 20007KT 9999 NCD 08/06 Q1009
                        NOSIG=
201812010320 METAR COR EGLL 010320Z AUTO 20008KT 9999 NCD 08/06 Q1009
                        NOSIG=
201812010250 METAR COR EGLL 010250Z AUTO 20008KT 9999 BKN044 07/05 Q1010
                        NOSIG=
201812010220 METAR COR EGLL 010220Z AUTO 19006KT 9999 BKN048 07/05 Q1010
                        NOSIG=
201812010150 METAR COR EGLL 010150Z AUTO 18005KT 9999 NCD 06/05 Q1010
                        NOSIG=
201812010120 METAR COR EGLL 010120Z AUTO 21006KT 9999 NCD 06/04 Q1010
                        NOSIG=
201812010050 METAR COR EGLL 010050Z AUTO 20007KT 9999 NCD 06/05 Q1010
                        NOSIG=
201812010020 METAR COR EGLL 010020Z AUTO 20007KT 9999 NCD 06/04 Q1011
                        NOSIG=

</pre>

</body>
</html>
