##########################################################
# Query made at 01/13/2020 12:09:44 UTC
# Time interval: from 12/01/2015 00:00  to 12/31/2015 23:59  UTC
##########################################################

##########################################################
# EGLL, London / Heathrow Airport (United Kingdom)
# WMO index: 03772
# Latitude 51-29N. Longitude 000-27W. Altitude 24 m.
##########################################################

###################################
#  METAR/SPECI from EGLL
###################################
201512312350 METAR COR EGLL 312350Z AUTO 24005KT 9999 NCD 05/02 Q1020
                        NOSIG=
201512312320 METAR COR EGLL 312320Z AUTO 26008KT 9999 NCD 05/03 Q1020
                        NOSIG=
201512312250 METAR COR EGLL 312250Z AUTO 26013KT 9999 NCD 05/03 Q1019
                        NOSIG=
201512312220 METAR COR EGLL 312220Z AUTO 24010KT 9999 NCD 06/03 Q1019
                        NOSIG=
201512312150 METAR COR EGLL 312150Z AUTO 25010KT 9999 NCD 07/03 Q1018
                        NOSIG=
201512312120 METAR COR EGLL 312120Z AUTO 25012KT 9999 NCD 07/04 Q1017
                        NOSIG=
201512312050 METAR COR EGLL 312050Z AUTO 22008KT 9999 NCD 07/04 Q1016
                        NOSIG=
201512312020 METAR COR EGLL 312020Z AUTO 23010KT 9999 NCD 07/05 Q1016
                        NOSIG=
201512311950 METAR COR EGLL 311950Z AUTO 23010KT 9999 NCD 07/05 Q1015
                        NOSIG=
201512311920 METAR COR EGLL 311920Z AUTO 23012KT 9999 SCT027 08/05 Q1015
                        NOSIG=
201512311850 METAR COR EGLL 311850Z AUTO 23012KT 9999 FEW033 08/05 Q1014
                        NOSIG=
201512311820 METAR COR EGLL 311820Z AUTO 22011KT 9999 FEW034 SCT046 08/06
                        Q1014 NOSIG=
201512311750 METAR COR EGLL 311750Z AUTO 22012KT 9999 -RA SCT015/// BKN028///
                        OVC045/// //////CB 08/05 Q1014 NOSIG=
201512311720 METAR COR EGLL 311720Z AUTO 22025G37KT 4900 RA BKN018///
                        OVC034/// //////CB 09/06 Q1013 RERA
                        TEMPO TSRA BKN014=
201512311650 METAR COR EGLL 311650Z AUTO 20016G27KT 9999 SCT030/// BKN045///
                        //////CB 11/05 Q1012 TEMPO 4500 TSGS
                        BKN014=
201512311620 METAR COR EGLL 311620Z AUTO 20016G26KT 9999 SCT033/// //////TCU
                        10/05 Q1012 TEMPO 4500 +SHRA BKN014CB=
201512311550 METAR COR EGLL 311550Z AUTO 20017G29KT 9999 SCT029 11/05
                        Q1012 TEMPO 4500 +SHRA BKN012CB=
201512311520 METAR COR EGLL 311520Z AUTO 20018KT 9999 BKN032 OVC047 11/05
                        Q1012 TEMPO SHRA=
201512311450 METAR COR EGLL 311450Z AUTO 20018KT 9999 BKN034 11/05 Q1013
                        TEMPO SHRA=
201512311420 METAR COR EGLL 311420Z AUTO 20015KT 9999 BKN033 11/05 Q1013
                        TEMPO SHRA=
201512311350 METAR COR EGLL 311350Z AUTO 19015KT 9999 FEW032 11/05 Q1013
                        NOSIG=
201512311320 METAR COR EGLL 311320Z AUTO 20016KT 9999 FEW032 11/05 Q1013
                        NOSIG=
201512311250 METAR COR EGLL 311250Z AUTO 21018KT 180V240 9999 FEW040 11/04
                        Q1013 NOSIG=
201512311220 METAR COR EGLL 311220Z AUTO 21013KT 9999 BKN033 11/04 Q1014
                        NOSIG=
201512311150 METAR COR EGLL 311150Z AUTO 22012KT 9999 BKN033 11/04 Q1014
                        NOSIG=
201512311120 METAR COR EGLL 311120Z AUTO 22013KT 9999 NCD 10/03 Q1014
                        NOSIG=
201512311050 METAR COR EGLL 311050Z AUTO 23014KT 9999 NCD 10/03 Q1014
                        NOSIG=
201512311020 METAR COR EGLL 311020Z AUTO 23013KT 9999 NCD 09/03 Q1014
                        NOSIG=
201512310950 METAR COR EGLL 310950Z AUTO 22012KT 9999 NCD 08/03 Q1014
                        NOSIG=
201512310920 METAR COR EGLL 310920Z AUTO 23013KT 9999 NCD 08/03 Q1013
                        NOSIG=
201512310850 METAR COR EGLL 310850Z AUTO 23015KT 9999 NCD 08/03 Q1013
                        NOSIG=
201512310820 METAR COR EGLL 310820Z AUTO 24015KT 9999 FEW035 08/03 Q1012
                        NOSIG=
201512310750 METAR COR EGLL 310750Z AUTO 24016KT 9999 SCT035 08/03 Q1011
                        NOSIG=
201512310720 METAR COR EGLL 310720Z AUTO 24015KT 9999 FEW036 08/04 Q1010
                        NOSIG=
201512310650 METAR COR EGLL 310650Z AUTO 23015KT 9999 SCT032 08/04 Q1009
                        NOSIG=
201512310620 METAR COR EGLL 310620Z AUTO 23016KT 9999 FEW031 08/04 Q1009
                        NOSIG=
201512310550 METAR COR EGLL 310550Z AUTO 23017G27KT 9999 NCD 08/04 Q1008
                        NOSIG=
201512310520 METAR COR EGLL 310520Z AUTO 22015KT 9999 FEW031 08/04 Q1007
                        NOSIG=
201512310450 METAR COR EGLL 310450Z AUTO 21016KT 9999 -RA FEW022/// SCT033///
                        //////TCU 08/04 Q1007 NOSIG=
201512310420 METAR COR EGLL 310420Z AUTO 22019KT 9999 FEW021 08/04 Q1007
                        NOSIG=
201512310350 METAR COR EGLL 310350Z AUTO 22011KT 9999 -RA FEW020/// SCT032///
                        //////TCU 08/04 Q1006 NOSIG=
201512310320 METAR COR EGLL 310320Z AUTO 19009G19KT 9999 -RA FEW028 SCT047
                        08/05 Q1006 NOSIG=
201512310250 METAR COR EGLL 310250Z AUTO 20009KT 9999 FEW038 08/05 Q1006
                        NOSIG=
201512310220 METAR COR EGLL 310220Z AUTO 21011KT 9999 NCD 08/05 Q1006
                        NOSIG=
201512310150 METAR COR EGLL 310150Z AUTO 22009KT 9999 FEW026 09/06 Q1006
                        NOSIG=
201512310120 METAR COR EGLL 310120Z AUTO 21010KT 9999 -RA FEW033/// BKN039///
                        //////TCU 09/06 Q1006 NOSIG=
201512310050 METAR COR EGLL 310050Z AUTO 21009KT 9999 NCD 09/07 Q1005
                        NOSIG=
201512310020 METAR COR EGLL 310020Z 21009KT 9999 -RA FEW036 SCT044 09/07
                        Q1005 NOSIG=
201512302350 METAR COR EGLL 302350Z 23014KT 9999 -RA SCT030 SCT040 10/08
                        Q1005 NOSIG=
201512302320 METAR COR EGLL 302320Z 23013KT 9999 -RA SCT008 BKN026 OVC043
                        10/09 Q1005 RERA TEMPO BKN012=
201512302250 METAR COR EGLL 302250Z 19011KT 170V230 9999 -RA SCT018 BKN024
                        11/09 Q1004 TEMPO BKN012=
201512302220 METAR COR EGLL 302220Z 19011KT 170V240 9999 -RA SCT018 BKN024
                        11/09 Q1004 NOSIG=
201512302150 METAR COR EGLL 302150Z AUTO 18011KT 150V230 9999 -RA BKN010
                        10/09 Q1004 TEMPO SCT010 BKN030=
201512302120 METAR COR EGLL 302120Z AUTO 18011KT 150V240 7000 -RA BKN011
                        10/09 Q1004 TEMPO SCT012 BKN030=
201512302050 METAR COR EGLL 302050Z AUTO 18014KT 160V230 9999 -RA OVC009///
                        //////TCU 10/09 Q1004 BECMG SCT012
                        BKN018=
201512302020 METAR COR EGLL 302020Z AUTO 18013KT 160V230 9999 -RA BKN010///
                        //////TCU 10/09 Q1005 BECMG SCT012
                        BKN018=
201512301950 METAR COR EGLL 301950Z AUTO 18014G24KT 160V220 8000 -RA BKN011///
                        //////TCU 10/09 Q1005 TEMPO 4800
                        +RA=
201512301920 METAR COR EGLL 301920Z AUTO 18016G26KT 160V220 9999 -RA BKN015///
                        OVC027/// //////TCU 10/08 Q1005 TEMPO
                        RA BKN012=
201512301850 METAR COR EGLL 301850Z AUTO 18014KT 9999 -RA OVC029/// //////TCU
                        11/07 Q1005 TEMPO RA BKN014=
201512301820 METAR COR EGLL 301820Z AUTO 17010KT 150V220 9999 -RA BKN032///
                        //////TCU 11/07 Q1006 TEMPO RA BKN014=
201512301750 METAR COR EGLL 301750Z AUTO 17012KT 140V210 9999 -RA BKN028///
                        OVC046/// //////TCU 11/07 Q1006 TEMPO
                        RA BKN014=
201512301720 METAR COR EGLL 301720Z AUTO 17015KT 140V210 9999 -RA BKN030///
                        BKN046/// //////TCU 11/07 Q1007 TEMPO
                        RA BKN014=
201512301650 METAR COR EGLL 301650Z AUTO 18018KT 160V230 9999 -RA OVC029
                        12/06 Q1007 TEMPO RA BKN014=
201512301620 METAR COR EGLL 301620Z AUTO 17017KT 140V220 9999 BKN031 12/06
                        Q1007 TEMPO RA BKN014=
201512301550 METAR COR EGLL 301550Z AUTO 18017G27KT 9999 -RA FEW022 OVC031
                        11/07 Q1008 TEMPO RA BKN014=
201512301520 METAR EGLL 301520Z AUTO 18019KT 160V230 9999 -RA BKN030///
                        OVC046/// //////TCU 12/06 Q1008=
201512301450 METAR EGLL 301450Z AUTO 18020G33KT 9999 NCD 13/05 Q1008=
201512301420 METAR COR EGLL 301420Z AUTO 18019G30KT 9999 NCD 13/05 Q1008
                        TEMPO RA=
201512301350 METAR COR EGLL 301350Z AUTO 19019KT 9999 NCD 13/05 Q1009
                        TEMPO RA=
201512301320 METAR COR EGLL 301320Z AUTO 18019KT 9999 NCD 13/05 Q1009
                        TEMPO RA=
201512301250 METAR COR EGLL 301250Z AUTO 18021KT 9999 NCD 13/06 Q1009
                        NOSIG=
201512301220 METAR COR EGLL 301220Z AUTO 17021KT 9999 NCD 13/06 Q1010
                        NOSIG=
201512301150 METAR COR EGLL 301150Z AUTO 18022G32KT 9999 NCD 13/06 Q1010
                        NOSIG=
201512301120 METAR COR EGLL 301120Z AUTO 18021KT 9999 NCD 13/07 Q1011
                        NOSIG=
201512301050 METAR COR EGLL 301050Z AUTO 18018KT 9999 BKN049 13/07 Q1012
                        NOSIG=
201512301020 METAR COR EGLL 301020Z AUTO 18019G29KT 9999 BKN049 14/07
                        Q1011 NOSIG=
201512300950 METAR COR EGLL 300950Z AUTO 18018KT 140V210 9999 OVC047 14/06
                        Q1012 NOSIG=
201512300920 METAR COR EGLL 300920Z AUTO 19020KT 9999 OVC044 14/06 Q1012
                        NOSIG=
201512300850 METAR COR EGLL 300850Z AUTO 19021KT 9999 OVC047 13/06 Q1012
                        NOSIG=
201512300820 METAR COR EGLL 300820Z AUTO 19024G37KT 9999 OVC045 13/06
                        Q1012 NOSIG=
201512300750 METAR COR EGLL 300750Z AUTO 19022G35KT 9999 OVC042 13/06
                        Q1012 NOSIG=
201512300720 METAR COR EGLL 300720Z AUTO 18018KT 9999 OVC042 13/06 Q1013
                        NOSIG=
201512300650 METAR COR EGLL 300650Z AUTO 19020KT 9999 OVC041 13/07 Q1013
                        NOSIG=
201512300620 METAR COR EGLL 300620Z AUTO 19021KT 9999 FEW030 OVC037 13/07
                        Q1014 NOSIG=
201512300550 METAR COR EGLL 300550Z AUTO 19022KT 9999 OVC034 13/07 Q1014
                        NOSIG=
201512300520 METAR COR EGLL 300520Z AUTO 19020KT 9999 BKN042 13/08 Q1014
                        NOSIG=
201512300450 METAR COR EGLL 300450Z AUTO 19021KT 9999 FEW021 OVC038 12/08
                        Q1014 NOSIG=
201512300420 METAR COR EGLL 300420Z AUTO 19019KT 9999 BKN019 OVC035 12/09
                        Q1014 TEMPO BKN014=
201512300350 METAR COR EGLL 300350Z AUTO 19019G29KT 9999 BKN015 12/09
                        Q1015 TEMPO BKN014=
201512300320 METAR COR EGLL 300320Z AUTO 19018G29KT 7000 BKN017 12/09
                        Q1015 TEMPO BKN014=
201512300250 METAR COR EGLL 300250Z AUTO 19020KT 9999 BKN018 12/09 Q1016
                        TEMPO BKN012=
201512300220 METAR COR EGLL 300220Z AUTO 20017KT 9999 BKN014 12/09 Q1016
                        TEMPO SCT014=
201512300150 METAR COR EGLL 300150Z AUTO 20017KT 9999 OVC013 12/09 Q1016
                        TEMPO SCT013=
201512300120 METAR COR EGLL 300120Z AUTO 18016KT 9999 OVC010 11/10 Q1017
                        TEMPO BKN008=
201512300050 METAR COR EGLL 300050Z AUTO 18014KT 9999 -RA BKN008 11/10
                        Q1017 TEMPO 4000 RADZ=
201512300020 METAR COR EGLL 300020Z AUTO 18017KT 5000 -RADZ BKN008 OVC036
                        11/09 Q1018 TEMPO 4000 RADZ=
201512292350 METAR EGLL 292350Z AUTO 18017KT 9999 BKN014 OVC038 11/08
                        Q1018 NOSIG=
201512292320 METAR COR EGLL 292320Z AUTO 18018KT 9999 BKN015 11/08 Q1019
                        TEMPO -RA BKN012=
201512292250 METAR COR EGLL 292250Z AUTO 18016KT 160V230 9999 BKN020 OVC040
                        11/07 Q1019 NOSIG=
201512292220 METAR COR EGLL 292220Z AUTO 17016KT 150V230 9999 SCT020 OVC044
                        11/07 Q1019 NOSIG=
201512292150 METAR COR EGLL 292150Z AUTO 18014KT 160V230 9999 SCT045 11/07
                        Q1019 NOSIG=
201512292120 METAR COR EGLL 292120Z AUTO 18014KT 160V220 9999 NCD 11/07
                        Q1020 NOSIG=
201512292050 METAR COR EGLL 292050Z AUTO 18012KT 150V230 9999 NCD 10/07
                        Q1020 NOSIG=
201512292020 METAR COR EGLL 292020Z AUTO 19016KT 9999 NCD 10/07 Q1020
                        TEMPO RA=
201512291950 METAR COR EGLL 291950Z AUTO 18011KT 9999 NCD 10/06 Q1021
                        NOSIG=
201512291920 METAR COR EGLL 291920Z AUTO 18011KT 170V230 9999 FEW041 10/06
                        Q1021 NOSIG=
201512291850 METAR COR EGLL 291850Z AUTO 19011KT 9999 BKN040 10/07 Q1021
                        NOSIG=
201512291820 METAR COR EGLL 291820Z AUTO 19012KT 150V230 9999 FEW022 10/07
                        Q1021 NOSIG=
201512291750 METAR COR EGLL 291750Z AUTO 18009KT 150V230 9999 FEW026 10/07
                        Q1021 NOSIG=
201512291720 METAR COR EGLL 291720Z AUTO 18011KT 160V240 9999 FEW029 10/07
                        Q1021 NOSIG=
201512291650 METAR COR EGLL 291650Z AUTO 19012KT 160V250 9999 FEW026 10/07
                        Q1021 NOSIG=
201512291620 METAR COR EGLL 291620Z AUTO 18008KT 160V240 9999 FEW026 10/07
                        Q1021 NOSIG=
201512291550 METAR COR EGLL 291550Z AUTO 19010KT 170V230 9999 NCD 10/07
                        Q1021 NOSIG=
201512291520 METAR COR EGLL 291520Z AUTO 20011KT 180V240 9999 FEW025 11/07
                        Q1020 NOSIG=
201512291450 METAR COR EGLL 291450Z AUTO 20011KT 170V240 9999 SCT025 11/07
                        Q1020 NOSIG=
201512291420 METAR COR EGLL 291420Z AUTO 21011KT 9999 BKN024 12/07 Q1020
                        NOSIG=
201512291350 METAR COR EGLL 291350Z AUTO 21011KT 9999 FEW023 SCT031 11/07
                        Q1020 NOSIG=
201512291320 METAR COR EGLL 291320Z AUTO 20010KT 9999 FEW021 12/07 Q1020
                        NOSIG=
201512291250 METAR COR EGLL 291250Z AUTO 21010KT 190V260 9999 BKN020 BKN037
                        12/07 Q1020 NOSIG=
201512291220 METAR COR EGLL 291220Z AUTO 20011KT 9999 SCT020 11/07 Q1019
                        NOSIG=
201512291150 METAR COR EGLL 291150Z AUTO 20009KT 180V240 9999 FEW038 11/08
                        Q1019 NOSIG=
201512291120 METAR COR EGLL 291120Z AUTO 19009KT 170V250 9999 FEW043 11/08
                        Q1019 NOSIG=
201512291050 METAR COR EGLL 291050Z AUTO 20008KT 170V240 9999 NCD 10/08
                        Q1019 NOSIG=
201512291020 METAR COR EGLL 291020Z AUTO 18009KT 140V210 9999 FEW018 BKN042
                        10/08 Q1019 NOSIG=
201512290950 METAR COR EGLL 290950Z AUTO 17007KT 130V240 9999 NCD 10/08
                        Q1018 TEMPO SHRA=
201512290920 METAR COR EGLL 290920Z AUTO 18008KT 130V220 9999 SCT031 10/08
                        Q1018 TEMPO SHRA=
201512290850 METAR COR EGLL 290850Z AUTO 16007KT 9999 FEW035 09/08 Q1017
                        NOSIG=
201512290820 METAR COR EGLL 290820Z AUTO 16006KT 140V270 9999 SCT038 09/08
                        Q1017 NOSIG=
201512290750 METAR COR EGLL 290750Z AUTO 17007KT 9999 SCT042 09/08 Q1016
                        NOSIG=
201512290720 METAR COR EGLL 290720Z AUTO 18006KT 140V200 9999 NCD 10/08
                        Q1016 TEMPO SHRA=
201512290650 METAR COR EGLL 290650Z AUTO 20006KT 170V260 9999 NCD 10/09
                        Q1016 NOSIG=
201512290620 METAR COR EGLL 290620Z AUTO 22008KT 9999 //////TCU 10/09
                        Q1015 NOSIG=
201512290550 METAR COR EGLL 290550Z AUTO 21010KT 9999 -RA FEW023/// SCT035///
                        //////TCU 10/09 Q1015 NOSIG=
201512290520 METAR COR EGLL 290520Z AUTO 20010KT 9999 -RA FEW023/// BKN036///
                        //////CB 11/09 Q1014 NOSIG=
201512290450 METAR COR EGLL 290450Z AUTO 19010KT 9999 -RA FEW015/// BKN030///
                        //////CB 11/10 Q1014 RERA NOSIG=
201512290420 METAR COR EGLL 290420Z AUTO 19010KT 9999 -RA SCT024 12/09
                        Q1014 NOSIG=
201512290350 METAR COR EGLL 290350Z AUTO 19009KT 9999 SCT019 BKN037 12/09
                        Q1014 NOSIG=
201512290320 METAR COR EGLL 290320Z AUTO 19008KT 9999 BKN018 12/09 Q1014
                        NOSIG=
201512290250 METAR COR EGLL 290250Z AUTO 18009KT 9999 SCT020 SCT035 12/09
                        Q1013 NOSIG=
201512290220 METAR COR EGLL 290220Z AUTO 18007KT 9999 NCD 12/09 Q1013
                        NOSIG=
201512290150 METAR COR EGLL 290150Z AUTO 17011KT 9999 NCD 11/09 Q1012
                        NOSIG=
201512290120 METAR COR EGLL 290120Z AUTO 17011KT 9999 -RA NCD 11/09 Q1012
                        NOSIG=
201512290050 METAR COR EGLL 290050Z AUTO 17011KT 9999 -RA FEW026/// //////TCU
                        11/09 Q1013 TEMPO RA=
201512290020 METAR COR EGLL 290020Z AUTO 18012KT 9999 -RA OVC041/// //////TCU
                        11/09 Q1012 TEMPO RA=
201512282350 METAR COR EGLL 282350Z AUTO 18013KT 9999 -RA SCT025 12/09
                        Q1012 TEMPO RA=
201512282320 METAR COR EGLL 282320Z AUTO 18014KT 9999 -RA FEW031 SCT037
                        12/08 Q1012 TEMPO RA=
201512282250 METAR COR EGLL 282250Z AUTO 18013KT 9999 -RA FEW029 SCT041
                        12/08 Q1012 TEMPO RA=
201512282220 METAR COR EGLL 282220Z AUTO 18014KT 9999 FEW029 12/07 Q1012
                        NOSIG=
201512282150 METAR COR EGLL 282150Z AUTO 17012KT 9999 NCD 12/07 Q1012
                        NOSIG=
201512282120 METAR COR EGLL 282120Z AUTO 17013KT 9999 NCD 12/07 Q1012
                        NOSIG=
201512282050 METAR COR EGLL 282050Z AUTO 16012KT 9999 NCD 12/07 Q1012
                        NOSIG=
201512282020 METAR COR EGLL 282020Z AUTO 15012KT 9999 NCD 12/07 Q1012
                        NOSIG=
201512281950 METAR COR EGLL 281950Z AUTO 15011KT 9999 NCD 12/07 Q1012
                        NOSIG=
201512281920 METAR COR EGLL 281920Z AUTO 15009KT 9999 NCD 11/07 Q1012
                        NOSIG=
201512281850 METAR COR EGLL 281850Z AUTO 15009KT 9999 NCD 11/07 Q1012
                        NOSIG=
201512281820 METAR COR EGLL 281820Z AUTO 14010KT 9999 NCD 11/06 Q1013
                        NOSIG=
201512281750 METAR COR EGLL 281750Z AUTO 15010KT 9999 NCD 11/06 Q1013
                        NOSIG=
201512281720 METAR COR EGLL 281720Z AUTO 15011KT 9999 NCD 11/06 Q1013
                        NOSIG=
201512281650 METAR COR EGLL 281650Z AUTO 14010KT 9999 NCD 11/07 Q1013
                        NOSIG=
201512281620 METAR COR EGLL 281620Z AUTO 14010KT 9999 NCD 11/07 Q1013
                        NOSIG=
201512281550 METAR COR EGLL 281550Z AUTO 15011KT 9999 NCD 11/07 Q1014
                        NOSIG=
201512281520 METAR COR EGLL 281520Z AUTO 15013KT 9999 NCD 11/07 Q1013
                        NOSIG=
201512281450 METAR COR EGLL 281450Z AUTO 15012KT 9999 NCD 12/07 Q1013
                        NOSIG=
201512281420 METAR COR EGLL 281420Z AUTO 15012KT 9999 NCD 12/07 Q1014
                        NOSIG=
201512281350 METAR COR EGLL 281350Z AUTO 16011KT 9999 NCD 12/07 Q1014
                        NOSIG=
201512281320 METAR COR EGLL 281320Z AUTO 15011KT 9999 NCD 13/07 Q1015
                        NOSIG=
201512281250 METAR COR EGLL 281250Z AUTO 16013KT 9999 NCD 13/07 Q1015
                        NOSIG=
201512281220 METAR COR EGLL 281220Z AUTO 16012KT 9999 NCD 13/07 Q1015
                        NOSIG=
201512281150 METAR COR EGLL 281150Z AUTO 16014KT 9999 NCD 13/07 Q1016
                        NOSIG=
201512281120 METAR COR EGLL 281120Z AUTO 16014KT 9999 NCD 13/07 Q1016
                        NOSIG=
201512281050 METAR COR EGLL 281050Z AUTO 16012KT 9999 NCD 13/07 Q1017
                        NOSIG=
201512281020 METAR COR EGLL 281020Z AUTO 16011KT 9999 NCD 12/06 Q1017
                        NOSIG=
201512280950 METAR COR EGLL 280950Z AUTO 14006KT 9999 NCD 11/06 Q1017
                        NOSIG=
201512280920 METAR COR EGLL 280920Z AUTO 14007KT 9999 NCD 10/06 Q1017
                        NOSIG=
201512280850 METAR COR EGLL 280850Z AUTO 14010KT 9999 NCD 10/06 Q1017
                        NOSIG=
201512280820 METAR COR EGLL 280820Z AUTO 13012KT 9999 NCD 10/06 Q1018
                        NOSIG=
201512280750 METAR COR EGLL 280750Z AUTO 13012KT 9999 NCD 10/06 Q1018
                        NOSIG=
201512280720 METAR COR EGLL 280720Z AUTO 13009KT 9999 NCD 10/06 Q1019
                        NOSIG=
201512280650 METAR COR EGLL 280650Z AUTO 13006KT 9999 NCD 10/06 Q1019
                        NOSIG=
201512280620 METAR COR EGLL 280620Z AUTO 10006KT 9999 NCD 10/07 Q1019
                        NOSIG=
201512280550 METAR COR EGLL 280550Z AUTO 10004KT 070V140 9999 NCD 08/07
                        Q1019 NOSIG=
201512280520 METAR COR EGLL 280520Z AUTO 10006KT 9000 NCD 08/07 Q1020
                        NOSIG=
201512280450 METAR COR EGLL 280450Z AUTO 10006KT 8000 NCD 09/08 Q1020
                        NOSIG=
201512280420 METAR COR EGLL 280420Z AUTO 10006KT 7000 NCD 09/08 Q1021
                        NOSIG=
201512280350 METAR COR EGLL 280350Z AUTO 10008KT 7000 NCD 09/08 Q1021
                        NOSIG=
201512280320 METAR COR EGLL 280320Z AUTO 10007KT 7000 NCD 09/08 Q1022
                        NOSIG=
201512280250 METAR COR EGLL 280250Z AUTO 10005KT 7000 NCD 08/08 Q1022
                        NOSIG=
201512280220 METAR COR EGLL 280220Z AUTO 11005KT 6000 NCD 09/09 Q1022
                        NOSIG=
201512280150 METAR COR EGLL 280150Z AUTO 10005KT 5000 BR NCD 09/08 Q1022
                        NOSIG=
201512280120 METAR COR EGLL 280120Z AUTO 12006KT 5000 HZ FEW041 09/08
                        Q1023 NOSIG=
201512280050 METAR COR EGLL 280050Z AUTO 12007KT 6000 FEW024 11/10 Q1023
                        NOSIG=
201512280020 METAR COR EGLL 280020Z AUTO 12007KT 4900 BR FEW025 10/09
                        Q1023 BECMG 8000 NSW=
201512272350 METAR COR EGLL 272350Z AUTO 13004KT 5000 HZ FEW033 10/09
                        Q1023 NOSIG=
201512272320 METAR COR EGLL 272320Z AUTO 13004KT 6000 NCD 11/10 Q1024
                        NOSIG=
201512272250 METAR COR EGLL 272250Z AUTO 13005KT 7000 BKN009 BKN022 12/10
                        Q1024 BECMG FEW009 SCT022=
201512272220 METAR COR EGLL 272220Z AUTO 14005KT 7000 FEW010 BKN017 12/10
                        Q1024 TEMPO BKN009=
201512272150 METAR COR EGLL 272150Z AUTO 16006KT 130V210 7000 OVC009 13/11
                        Q1024 NOSIG=
201512272120 METAR COR EGLL 272120Z AUTO 17007KT 100V200 7000 OVC010 13/11
                        Q1024 BECMG SCT010=
201512272050 METAR COR EGLL 272050Z AUTO 18008KT 6000 OVC012 13/11 Q1024
                        BECMG SCT020=
201512272020 METAR COR EGLL 272020Z AUTO 19008KT 140V240 6000 OVC011 13/11
                        Q1024 BECMG SCT020=
201512271950 METAR COR EGLL 271950Z AUTO 17006KT 130V220 6000 OVC012 13/11
                        Q1024 BECMG SCT020=
201512271920 METAR COR EGLL 271920Z AUTO 19009KT 150V230 6000 BKN014 14/11
                        Q1024 BECMG SCT020=
201512271850 METAR COR EGLL 271850Z AUTO 21008KT 180V260 6000 OVC018 14/11
                        Q1023 NOSIG=
201512271820 METAR COR EGLL 271820Z AUTO 21010KT 170V240 6000 OVC020 14/11
                        Q1023 NOSIG=
201512271750 METAR COR EGLL 271750Z AUTO 19007KT 140V220 6000 OVC016 14/12
                        Q1023 NOSIG=
201512271720 METAR COR EGLL 271720Z AUTO 19008KT 160V230 5000 HZ FEW008
                        OVC020 14/12 Q1023 TEMPO BKN012=
201512271650 METAR COR EGLL 271650Z AUTO 21009KT 5000 HZ BKN007 BKN016
                        14/12 Q1023 TEMPO FEW007 BKN014=
201512271620 METAR COR EGLL 271620Z AUTO 21008KT 4700 -RADZ OVC008 14/12
                        Q1023 TEMPO 6000 BKN012=
201512271550 METAR COR EGLL 271550Z AUTO 22008KT 7000 OVC010 14/12 Q1022
                        TEMPO BKN008=
201512271520 METAR COR EGLL 271520Z 22010KT 200V260 7000 SCT009 BKN013
                        14/12 Q1022 NOSIG=
201512271450 METAR COR EGLL 271450Z 23012KT 8000 SCT011 BKN015 15/12 Q1022
                        TEMPO BKN012=
201512271420 METAR COR EGLL 271420Z 22012KT 8000 SCT011 BKN015 14/12 Q1021
                        TEMPO BKN012=
201512271350 METAR COR EGLL 271350Z 23013KT 8000 SCT011 OVC014 14/12 Q1021
                        NOSIG=
201512271320 METAR COR EGLL 271320Z 22012KT 190V250 8000 SCT009 OVC013
                        14/12 Q1021 TEMPO BKN009=
201512271250 METAR COR EGLL 271250Z AUTO 23014KT 190V250 5000 HZ OVC007
                        14/13 Q1021 BECMG BKN010=
201512271220 METAR COR EGLL 271220Z AUTO 24012KT 4700 HZ OVC007 14/13
                        Q1021 BECMG 7000 BKN012=
201512271150 METAR COR EGLL 271150Z AUTO 23014KT 4600 HZ OVC009 14/13
                        Q1021 BECMG 8000 BKN012=
201512271120 METAR COR EGLL 271120Z AUTO 23015KT 7000 OVC009 14/12 Q1020
                        TEMPO BKN012=
201512271050 METAR COR EGLL 271050Z AUTO 23013KT 7000 OVC009 14/12 Q1020
                        TEMPO BKN012=
201512271020 METAR COR EGLL 271020Z AUTO 22014KT 6000 -RA OVC010 14/12
                        Q1020 NOSIG=
201512270950 METAR COR EGLL 270950Z AUTO 22013KT 6000 OVC012 14/12 Q1020
                        NOSIG=
201512270920 METAR COR EGLL 270920Z AUTO 23013KT 6000 BKN012 14/12 Q1019
                        TEMPO BKN009=
201512270850 METAR COR EGLL 270850Z AUTO 24013KT 5000 -RADZ OVC011 14/12
                        Q1019 TEMPO 4000 RADZ BKN008=
201512270820 METAR COR EGLL 270820Z AUTO 23016KT 6000 OVC012 14/12 Q1018
                        NOSIG=
201512270750 METAR COR EGLL 270750Z AUTO 23015KT 7000 OVC010 14/12 Q1017
                        TEMPO BKN008=
201512270720 METAR COR EGLL 270720Z AUTO 22014KT 7000 -RA OVC009 13/12
                        Q1017 TEMPO SCT009 BKN012=
201512270650 METAR COR EGLL 270650Z AUTO 22014KT 7000 -RA BKN009 13/12
                        Q1017 TEMPO BKN010=
201512270620 METAR COR EGLL 270620Z AUTO 22017G28KT 6000 -RA BKN010 14/12
                        Q1016 NOSIG=
201512270550 METAR COR EGLL 270550Z AUTO 22016KT 7000 OVC016 14/11 Q1016
                        TEMPO -RA BKN014=
201512270520 METAR COR EGLL 270520Z AUTO 22018G30KT 9000 OVC019 14/11
                        Q1016 TEMPO BKN014=
201512270450 METAR COR EGLL 270450Z AUTO 22018KT 9999 BKN020 OVC036 14/10
                        Q1016 NOSIG=
201512270420 METAR COR EGLL 270420Z AUTO 22017KT 9999 FEW019 BKN040 14/10
                        Q1016 NOSIG=
201512270350 METAR COR EGLL 270350Z AUTO 22021KT 9999 SCT020 BKN045 14/10
                        Q1016 NOSIG=
201512270320 METAR COR EGLL 270320Z AUTO 23019KT 9999 BKN018 BKN035 14/10
                        Q1016 NOSIG=
201512270250 METAR COR EGLL 270250Z AUTO 23021KT 9999 OVC018 14/10 Q1016
                        NOSIG=
201512270220 METAR COR EGLL 270220Z AUTO 22019KT 9999 OVC018 14/10 Q1016
                        NOSIG=
201512270150 METAR COR EGLL 270150Z AUTO 22020KT 9999 OVC018 14/10 Q1016
                        NOSIG=
201512270120 METAR COR EGLL 270120Z AUTO 22018G28KT 9999 OVC018 14/10
                        Q1016 NOSIG=
201512270050 METAR COR EGLL 270050Z AUTO 22017KT 9999 OVC019 14/10 Q1016
                        NOSIG=
201512270020 METAR COR EGLL 270020Z AUTO 22018KT 9999 OVC021 14/10 Q1016
                        NOSIG=
201512262350 METAR COR EGLL 262350Z AUTO 22019G32KT 9999 BKN021 14/10
                        Q1016 NOSIG=
201512262320 METAR COR EGLL 262320Z AUTO 22019KT 9999 BKN022 BKN037 14/10
                        Q1016 NOSIG=
201512262250 METAR COR EGLL 262250Z AUTO 22020KT 9999 BKN023 14/10 Q1016
                        NOSIG=
201512262220 METAR COR EGLL 262220Z AUTO 22019KT 9999 BKN023 14/10 Q1016
                        NOSIG=
201512262150 METAR COR EGLL 262150Z AUTO 22018KT 9999 SCT023 OVC038 14/10
                        Q1016 NOSIG=
201512262120 METAR COR EGLL 262120Z AUTO 22019KT 9999 BKN024 OVC039 14/10
                        Q1016 NOSIG=
201512262050 METAR COR EGLL 262050Z AUTO 22019KT 9999 BKN024 14/10 Q1016
                        NOSIG=
201512262020 METAR COR EGLL 262020Z AUTO 22019KT 9999 BKN024 OVC038 14/09
                        Q1016 NOSIG=
201512261950 METAR COR EGLL 261950Z AUTO 21018KT 9999 BKN023 OVC038 14/10
                        Q1017 NOSIG=
201512261920 METAR COR EGLL 261920Z AUTO 22017KT 9999 BKN024 14/10 Q1017
                        NOSIG=
201512261850 METAR COR EGLL 261850Z AUTO 21017G30KT 9999 BKN023 OVC039
                        14/10 Q1017 NOSIG=
201512261820 METAR COR EGLL 261820Z AUTO 22019KT 9999 BKN023 OVC039 14/09
                        Q1017 NOSIG=
201512261750 METAR COR EGLL 261750Z AUTO 22021KT 9999 BKN023 14/09 Q1017
                        NOSIG=
201512261720 METAR COR EGLL 261720Z AUTO 21018G28KT 9999 BKN025 14/09
                        Q1017 NOSIG=
201512261650 METAR COR EGLL 261650Z AUTO 21017G28KT 9999 BKN023 14/10
                        Q1017 NOSIG=
201512261620 METAR COR EGLL 261620Z AUTO 21015KT 9999 BKN023 OVC038 14/09
                        Q1018 NOSIG=
201512261550 METAR COR EGLL 261550Z AUTO 22016G27KT 9999 BKN023 OVC039
                        14/10 Q1018 NOSIG=
201512261520 METAR COR EGLL 261520Z AUTO 22016KT 9999 OVC023 14/10 Q1018
                        NOSIG=
201512261450 METAR COR EGLL 261450Z AUTO 23019G33KT 9999 BKN026 14/09
                        Q1017 NOSIG=
201512261420 METAR COR EGLL 261420Z AUTO 23018G31KT 9999 BKN022 15/10
                        Q1017 NOSIG=
201512261350 METAR COR EGLL 261350Z AUTO 23020G30KT 9999 BKN024 15/10
                        Q1017 NOSIG=
201512261320 METAR EGLL 261320Z AUTO 23018G28KT 9999 BKN024 OVC039 15/10
                        Q1018=
201512261250 METAR COR EGLL 261250Z AUTO 23017KT 9999 BKN023 OVC040 15/10
                        Q1018 NOSIG=
201512261220 METAR COR EGLL 261220Z AUTO 23017G29KT 9999 BKN023 OVC038
                        15/10 Q1018 NOSIG=
201512261150 METAR COR EGLL 261150Z AUTO 23018KT 9999 OVC022 15/10 Q1019
                        NOSIG=
201512261120 METAR COR EGLL 261120Z AUTO 23019KT 9999 BKN023 15/10 Q1019
                        NOSIG=
201512261050 METAR EGLL 261050Z AUTO 22019KT 9999 SCT022 OVC039 15/11
                        Q1019=
201512261020 METAR EGLL 261020Z AUTO 23019KT 9999 BKN022 OVC038 15/11
                        Q1019=
201512260950 METAR EGLL 260950Z AUTO 22015KT 9999 BKN021 OVC037 15/11
                        Q1019=
201512260920 METAR EGLL 260920Z AUTO 23017KT 9999 SCT022 BKN036 14/11
                        Q1019=
201512260850 METAR EGLL 260850Z AUTO 23017KT 9999 SCT021 OVC039 14/11
                        Q1019=
201512260820 METAR COR EGLL 260820Z AUTO 23020KT 9999 SCT021 OVC045 15/11
                        Q1019 NOSIG=
201512260750 METAR COR EGLL 260750Z AUTO 23017KT 9999 SCT020 BKN035 14/11
                        Q1018 NOSIG=
201512260720 METAR COR EGLL 260720Z AUTO 22016KT 9999 SCT020 OVC035 14/11
                        Q1018 NOSIG=
201512260650 METAR COR EGLL 260650Z AUTO 22015KT 9999 SCT018 OVC033 14/11
                        Q1019 NOSIG=
201512260620 METAR COR EGLL 260620Z AUTO 23014KT 9999 FEW018 BKN040 14/11
                        Q1019 NOSIG=
201512260550 METAR COR EGLL 260550Z AUTO 23016KT 9999 BKN008 BKN044 14/12
                        Q1019 BECMG FEW011 BKN018=
201512260520 METAR COR EGLL 260520Z AUTO 23016KT 6000 -RA BKN010 OVC028
                        14/12 Q1018 TEMPO SCT010 BKN016=
201512260450 METAR COR EGLL 260450Z AUTO 23019KT 5000 -RADZ OVC012 14/12
                        Q1018 TEMPO SCT012 BKN015=
201512260420 METAR COR EGLL 260420Z AUTO 23019KT 9999 OVC012 14/12 Q1018
                        TEMPO SCT012 BKN016=
201512260350 METAR COR EGLL 260350Z AUTO 23018KT 9999 BKN015 OVC036 15/12
                        Q1018 NOSIG=
201512260320 METAR COR EGLL 260320Z AUTO 22017KT 9999 FEW013 BKN027 BKN043
                        15/11 Q1019 NOSIG=
201512260250 METAR COR EGLL 260250Z AUTO 22017KT 9999 FEW010 BKN017 15/11
                        Q1019 TEMPO BKN014=
201512260220 METAR COR EGLL 260220Z AUTO 23020KT 9999 BKN016 BKN032 OVC046
                        15/12 Q1019 NOSIG=
201512260150 METAR COR EGLL 260150Z AUTO 23017KT 9999 BKN017 15/11 Q1019
                        NOSIG=
201512260120 METAR COR EGLL 260120Z AUTO 23017KT 9999 BKN017 OVC043 15/11
                        Q1019 NOSIG=
201512260050 METAR COR EGLL 260050Z AUTO 23017KT 9999 BKN019 15/11 Q1019
                        NOSIG=
201512260020 METAR COR EGLL 260020Z AUTO 23018KT 9999 BKN018 15/11 Q1019
                        TEMPO BKN012=
201512252350 METAR COR EGLL 252350Z AUTO 23020KT 9999 OVC014 15/12 Q1019
                        TEMPO BKN009=
201512252320 METAR COR EGLL 252320Z AUTO 22017KT 9999 OVC012 14/12 Q1019
                        TEMPO BKN009=
201512252250 METAR COR EGLL 252250Z AUTO 22015KT 6000 -RA BKN009 OVC022
                        14/12 Q1019 TEMPO SCT009 BKN013=
201512252220 METAR COR EGLL 252220Z AUTO 22017KT 6000 OVC012 14/12 Q1019
                        TEMPO SCT012 BKN015=
201512252150 METAR COR EGLL 252150Z AUTO 22018KT 9999 BKN015 14/12 Q1019
                        TEMPO BKN014=
201512252120 METAR COR EGLL 252120Z AUTO 22019KT 9999 OVC017 15/12 Q1019
                        TEMPO BKN014=
201512252050 METAR COR EGLL 252050Z AUTO 23016KT 9999 BKN019 OVC046 15/11
                        Q1019 TEMPO BKN014=
201512252020 METAR COR EGLL 252020Z AUTO 23016KT 9999 -RA BKN017 14/12
                        Q1019 TEMPO BKN014=
201512251950 METAR COR EGLL 251950Z AUTO 23016KT 9999 BKN016 OVC046 14/12
                        Q1018 TEMPO BKN014=
201512251920 METAR COR EGLL 251920Z AUTO 23018KT 9999 -RA SCT007 BKN016
                        14/12 Q1018 TEMPO BKN012=
201512251850 METAR COR EGLL 251850Z AUTO 22015KT 6000 -RA BKN007 OVC018
                        13/12 Q1018 TEMPO 4500 RADZ SCT007
                        BKN012=
201512251820 METAR EGLL 251820Z AUTO 22015KT 4900 -RADZ BKN007 OVC017
                        13/12 Q1018=
201512251750 METAR EGLL 251750Z AUTO 23016KT 4800 -RADZ BKN010 OVC023
                        14/12 Q1018=
201512251720 METAR COR EGLL 251720Z AUTO 23017KT 9999 -RA OVC017 14/11
                        Q1018 NOSIG=
201512251650 METAR COR EGLL 251650Z AUTO 22015KT 9999 -RA BKN016 14/11
                        Q1018 NOSIG=
201512251620 METAR COR EGLL 251620Z AUTO 22015KT 9999 -RA BKN016 14/11
                        Q1017 TEMPO BKN014=
201512251550 METAR COR EGLL 251550Z AUTO 22014KT 8000 -RA BKN016 14/11
                        Q1017 NOSIG=
201512251520 METAR COR EGLL 251520Z AUTO 22013KT 9999 BKN009 OVC041 14/12
                        Q1017 BECMG SCT009=
201512251450 METAR COR EGLL 251450Z AUTO 22012KT 8000 -RA OVC012 13/12
                        Q1017 BECMG SCT012=
201512251420 METAR COR EGLL 251420Z AUTO 21010KT 9999 -RA BKN007 OVC018
                        13/12 Q1017 BECMG SCT007=
201512251350 METAR EGLL 251350Z AUTO 20009KT 160V240 5000 -DZ BKN004 12/11
                        Q1017=
201512251320 METAR EGLL 251320Z AUTO 18008KT 6000 -RA BKN003 11/10 Q1017
                        REDZ=
201512251250 METAR COR EGLL 251250Z AUTO 18011KT 150V220 4200 -DZ BKN006
                        BKN015 10/09 Q1018 TEMPO SCT006=
201512251220 METAR COR EGLL 251220Z AUTO 17013KT 140V220 9999 OVC008 10/09
                        Q1018 NOSIG=
201512251150 METAR COR EGLL 251150Z AUTO 17011KT 140V230 9999 -RA OVC008
                        10/08 Q1019 TEMPO BKN010=
201512251120 METAR COR EGLL 251120Z AUTO 17010KT 9999 -RA OVC012/// //////TCU
                        09/07 Q1020 NOSIG=
201512251050 METAR EGLL 251050Z AUTO 18009KT 150V240 9999 -RA BKN014///
                        OVC040/// //////TCU 09/07 Q1020=
201512251020 METAR COR EGLL 251020Z AUTO 17010KT 150V250 9999 -RA FEW027
                        BKN036 09/06 Q1020 TEMPO RA=
201512250950 METAR COR EGLL 250950Z AUTO 19010KT 160V230 9999 NCD 10/06
                        Q1020 NOSIG=
201512250920 METAR COR EGLL 250920Z AUTO 20012KT 9999 NCD 10/06 Q1020
                        NOSIG=
201512250850 METAR COR EGLL 250850Z AUTO 18007KT 160V230 9999 NCD 08/06
                        Q1021 NOSIG=
201512250820 METAR COR EGLL 250820Z AUTO 17006KT 140V240 9999 FEW032 07/06
                        Q1021 NOSIG=
201512250750 METAR COR EGLL 250750Z AUTO 13007KT 9999 NCD 06/05 Q1020
                        NOSIG=
201512250720 METAR COR EGLL 250720Z AUTO 15005KT 9999 NCD 07/05 Q1021
                        NOSIG=
201512250650 METAR COR EGLL 250650Z AUTO 17005KT 130V220 9999 FEW029 06/05
                        Q1021 NOSIG=
201512250620 METAR COR EGLL 250620Z AUTO 15005KT 100V210 9999 NCD 06/04
                        Q1021 NOSIG=
201512250550 METAR COR EGLL 250550Z AUTO 14003KT 9999 FEW028 06/04 Q1021
                        NOSIG=
201512250520 METAR COR EGLL 250520Z AUTO 17005KT 9999 FEW032 06/04 Q1021
                        NOSIG=
201512250450 METAR COR EGLL 250450Z AUTO VRB05KT 9999 NCD 06/04 Q1021
                        NOSIG=
201512250420 METAR COR EGLL 250420Z AUTO 17005KT 9999 NCD 05/03 Q1021
                        NOSIG=
201512250350 METAR COR EGLL 250350Z AUTO 19005KT 9999 NCD 06/03 Q1021
                        NOSIG=
201512250320 METAR COR EGLL 250320Z AUTO 18004KT 9999 NCD 06/03 Q1021
                        NOSIG=
201512250250 METAR COR EGLL 250250Z AUTO 19005KT 9999 NCD 05/03 Q1022
                        NOSIG=
201512250220 METAR COR EGLL 250220Z AUTO 20006KT 9999 FEW041 05/03 Q1022
                        NOSIG=
201512250150 METAR COR EGLL 250150Z AUTO 19005KT 9999 SCT042 05/03 Q1021
                        NOSIG=
201512250120 METAR COR EGLL 250120Z AUTO 21006KT 9999 NCD 06/03 Q1021
                        NOSIG=
201512250050 METAR COR EGLL 250050Z AUTO 19005KT 9999 NCD 06/02 Q1021
                        NOSIG=
201512250020 METAR COR EGLL 250020Z AUTO 24006KT 9999 NCD 06/02 Q1021
                        NOSIG=
201512242350 METAR COR EGLL 242350Z AUTO 23010KT 9999 NCD 06/02 Q1020
                        NOSIG=
201512242320 METAR COR EGLL 242320Z AUTO 23011KT 9999 NCD 07/02 Q1020
                        NOSIG=
201512242250 METAR COR EGLL 242250Z AUTO 23010KT 9999 NCD 07/02 Q1020
                        NOSIG=
201512242220 METAR COR EGLL 242220Z AUTO 22009KT 9999 NCD 06/02 Q1020
                        NOSIG=
201512242150 METAR COR EGLL 242150Z AUTO 22009KT 9999 NCD 06/02 Q1020
                        NOSIG=
201512242120 METAR COR EGLL 242120Z AUTO 22008KT 200V280 9999 NCD 06/02
                        Q1019 NOSIG=
201512242050 METAR COR EGLL 242050Z AUTO 22009KT 9999 NCD 06/02 Q1019
                        NOSIG=
201512242020 METAR COR EGLL 242020Z AUTO 21010KT 9999 NCD 06/02 Q1018
                        NOSIG=
201512241950 METAR COR EGLL 241950Z AUTO 20009KT 9999 NCD 06/02 Q1018
                        NOSIG=
201512241920 METAR COR EGLL 241920Z AUTO 21008KT 9999 NCD 06/02 Q1017
                        NOSIG=
201512241850 METAR COR EGLL 241850Z AUTO 22009KT 190V260 9999 NCD 07/02
                        Q1017 NOSIG=
201512241820 METAR COR EGLL 241820Z AUTO 24012KT 9999 NCD 08/02 Q1016
                        NOSIG=
201512241750 METAR COR EGLL 241750Z AUTO 24012KT 9999 NCD 08/02 Q1015
                        NOSIG=
201512241720 METAR COR EGLL 241720Z AUTO 25013KT 9999 NCD 08/02 Q1015
                        NOSIG=
201512241650 METAR COR EGLL 241650Z AUTO 24013KT 9999 NCD 09/02 Q1014
                        NOSIG=
201512241620 METAR COR EGLL 241620Z AUTO 25011KT 9999 SCT042 09/02 Q1014
                        NOSIG=
201512241550 METAR COR EGLL 241550Z AUTO 24014KT 9999 NCD 09/02 Q1013
                        NOSIG=
201512241520 METAR COR EGLL 241520Z AUTO 24017G27KT 9999 NCD 10/03 Q1012
                        NOSIG=
201512241450 METAR COR EGLL 241450Z AUTO 24020KT 9999 FEW032 10/04 Q1012
                        NOSIG=
201512241420 METAR COR EGLL 241420Z AUTO 24016KT 9999 FEW027 11/05 Q1011
                        NOSIG=
201512241350 METAR COR EGLL 241350Z AUTO 24014KT 9999 BKN022 11/06 Q1010
                        NOSIG=
201512241320 METAR COR EGLL 241320Z AUTO 25015G25KT 9999 SCT023 11/07
                        Q1010 NOSIG=
201512241250 METAR COR EGLL 241250Z AUTO 25016KT 9999 FEW040 11/07 Q1010
                        NOSIG=
201512241220 METAR COR EGLL 241220Z AUTO 25019KT 9999 -RA FEW016/// BKN042///
                        //////CB 10/07 Q1009 NOSIG=
201512241150 METAR COR EGLL 241150Z AUTO 23020G31KT 9999 -RA SCT017///
                        BKN034/// //////CB 11/09 Q1008 TEMPO
                        RA BKN014=
201512241120 METAR COR EGLL 241120Z AUTO 22023G34KT 9999 -RA BKN016///
                        OVC044/// //////CB 12/09 Q1007 TEMPO
                        RA BKN014=
201512241050 METAR COR EGLL 241050Z AUTO 21021KT 9999 -RA BKN018 BKN035
                        12/09 Q1007 TEMPO RA BKN014=
201512241020 METAR COR EGLL 241020Z AUTO 21022KT 9999 -RA BKN023 OVC048
                        13/09 Q1008 TEMPO RA BKN014=
201512240950 METAR COR EGLL 240950Z AUTO 21020KT 9999 BKN023 13/08 Q1008
                        TEMPO RA=
201512240920 METAR COR EGLL 240920Z AUTO 20016KT 9999 SCT022 13/08 Q1008
                        TEMPO RA=
201512240850 METAR COR EGLL 240850Z AUTO 20015G28KT 9999 BKN023 12/08
                        Q1008 TEMPO RA=
201512240820 METAR COR EGLL 240820Z AUTO 20017KT 9999 BKN023 12/08 Q1009
                        TEMPO RA=
201512240750 METAR COR EGLL 240750Z AUTO 20017KT 9999 BKN021 BKN036 12/08
                        Q1009 TEMPO RA=
201512240720 METAR COR EGLL 240720Z AUTO 20015KT 9999 SCT019 BKN035 12/08
                        Q1009 TEMPO RA=
201512240650 METAR COR EGLL 240650Z AUTO 20017KT 9999 FEW021 12/08 Q1010
                        NOSIG=
201512240620 METAR COR EGLL 240620Z AUTO 21016KT 9999 FEW023 BKN037 12/08
                        Q1010 TEMPO SHRA=
201512240550 METAR COR EGLL 240550Z AUTO 20015G25KT 9999 FEW021 11/08
                        Q1011 TEMPO SHRA=
201512240520 METAR COR EGLL 240520Z AUTO 20016KT 9999 BKN020 11/08 Q1011
                        NOSIG=
201512240450 METAR COR EGLL 240450Z AUTO 20016G26KT 9999 BKN019 OVC035
                        11/08 Q1011 NOSIG=
201512240420 METAR COR EGLL 240420Z AUTO 20015KT 9999 BKN022 OVC037 11/07
                        Q1012 NOSIG=
201512240350 METAR COR EGLL 240350Z AUTO 20015KT 9999 BKN021 11/07 Q1013
                        NOSIG=
201512240320 METAR COR EGLL 240320Z AUTO 20016KT 9999 BKN022 BKN037 11/07
                        Q1013 NOSIG=
201512240250 METAR COR EGLL 240250Z AUTO 20015KT 9999 BKN021 11/07 Q1013
                        NOSIG=
201512240220 METAR COR EGLL 240220Z AUTO 20016KT 9999 BKN019 11/07 Q1014
                        NOSIG=
201512240150 METAR COR EGLL 240150Z AUTO 19014KT 9999 OVC018 11/07 Q1014
                        NOSIG=
201512240120 METAR COR EGLL 240120Z AUTO 19014KT 9999 BKN020 11/08 Q1015
                        NOSIG=
201512240050 METAR COR EGLL 240050Z AUTO 19014KT 9999 FEW022 11/08 Q1015
                        NOSIG=
201512240020 METAR COR EGLL 240020Z AUTO 20017KT 9999 BKN021 11/08 Q1016
                        NOSIG=
201512232350 METAR COR EGLL 232350Z AUTO 20014KT 9999 BKN019 11/08 Q1016
                        NOSIG=
201512232320 METAR COR EGLL 232320Z AUTO 20013KT 170V240 9999 BKN017 11/08
                        Q1017 NOSIG=
201512232250 METAR COR EGLL 232250Z AUTO 20014KT 9999 -RA BKN020 11/08
                        Q1017 NOSIG=
201512232220 METAR COR EGLL 232220Z AUTO 19014KT 9999 SCT025 BKN038 11/08
                        Q1017 NOSIG=
201512232150 METAR COR EGLL 232150Z AUTO 19014KT 9999 SCT020/// //////TCU
                        11/08 Q1018 NOSIG=
201512232120 METAR COR EGLL 232120Z AUTO 20013KT 9999 SCT017 10/08 Q1018
                        NOSIG=
201512232050 METAR EGLL 232050Z AUTO 19014KT 9999 FEW019/// BKN048///
                        //////CB 11/08 Q1019=
201512232020 METAR COR EGLL 232020Z AUTO 19014KT 9999 SCT024/// //////TCU
                        11/08 Q1019 TEMPO SHRA=
201512231950 METAR COR EGLL 231950Z AUTO 19011G21KT 9999 SCT023 10/07
                        Q1019 TEMPO SHRA=
201512231920 METAR COR EGLL 231920Z AUTO 18013KT 9999 BKN037 10/07 Q1020
                        TEMPO SHRA=
201512231850 METAR COR EGLL 231850Z AUTO 18011KT 9999 FEW021 10/07 Q1020
                        NOSIG=
201512231820 METAR COR EGLL 231820Z AUTO 19010G20KT 170V230 9999 NCD 10/07
                        Q1020 NOSIG=
201512231750 METAR COR EGLL 231750Z AUTO 19009KT 170V230 9999 FEW024 SCT049
                        10/06 Q1021 NOSIG=
201512231720 METAR COR EGLL 231720Z AUTO 20010KT 9999 BKN045 10/06 Q1021
                        NOSIG=
201512231650 METAR COR EGLL 231650Z AUTO 21010KT 9999 FEW043 10/06 Q1021
                        NOSIG=
201512231620 METAR COR EGLL 231620Z AUTO 21009KT 9999 FEW047 10/06 Q1021
                        NOSIG=
201512231550 METAR COR EGLL 231550Z AUTO 22010KT 9999 NCD 11/06 Q1021
                        NOSIG=
201512231520 METAR COR EGLL 231520Z AUTO 22009KT 190V250 9999 NCD 11/05
                        Q1021 NOSIG=
201512231450 METAR COR EGLL 231450Z AUTO 22011KT 180V260 9999 FEW033 12/06
                        Q1021 NOSIG=
201512231420 METAR COR EGLL 231420Z AUTO 23011KT 9999 FEW035 12/06 Q1021
                        NOSIG=
201512231350 METAR COR EGLL 231350Z AUTO 22015KT 9999 FEW032 12/06 Q1021
                        NOSIG=
201512231320 METAR COR EGLL 231320Z AUTO 22011KT 170V260 9999 NCD 12/05
                        Q1021 NOSIG=
201512231250 METAR COR EGLL 231250Z AUTO 23014KT 9999 NCD 12/05 Q1021
                        NOSIG=
201512231220 METAR COR EGLL 231220Z AUTO 24016KT 9999 NCD 12/05 Q1021
                        NOSIG=
201512231150 METAR COR EGLL 231150Z AUTO 24014KT 9999 NCD 11/05 Q1021
                        NOSIG=
201512231120 METAR COR EGLL 231120Z AUTO 23012KT 9999 NCD 11/05 Q1022
                        NOSIG=
201512231050 METAR COR EGLL 231050Z AUTO 22012KT 9999 NCD 10/05 Q1022
                        NOSIG=
201512231020 METAR COR EGLL 231020Z AUTO 22012KT 190V250 9999 NCD 10/05
                        Q1022 NOSIG=
201512230950 METAR COR EGLL 230950Z AUTO 21012KT 180V250 9999 NCD 09/04
                        Q1021 NOSIG=
201512230920 METAR COR EGLL 230920Z AUTO 22010KT 9999 NCD 09/04 Q1021
                        NOSIG=
201512230850 METAR COR EGLL 230850Z AUTO 23011KT 9999 NCD 09/04 Q1020
                        NOSIG=
201512230820 METAR COR EGLL 230820Z AUTO 24012KT 9999 NCD 09/04 Q1019
                        NOSIG=
201512230750 METAR COR EGLL 230750Z AUTO 23013KT 9999 NCD 09/04 Q1019
                        NOSIG=
201512230720 METAR COR EGLL 230720Z AUTO 25013KT 9999 NCD 09/04 Q1019
                        NOSIG=
201512230650 METAR COR EGLL 230650Z AUTO 25019KT 9999 NCD 10/04 Q1018
                        NOSIG=
201512230620 METAR COR EGLL 230620Z AUTO 25017KT 9999 NCD 10/04 Q1017
                        NOSIG=
201512230550 METAR COR EGLL 230550Z AUTO 25016G26KT 9999 BKN034 10/05
                        Q1016 NOSIG=
201512230520 METAR COR EGLL 230520Z AUTO 24018KT 9999 BKN038 10/05 Q1015
                        NOSIG=
201512230450 METAR COR EGLL 230450Z AUTO 24015KT 9999 FEW036 10/06 Q1015
                        NOSIG=
201512230420 METAR COR EGLL 230420Z AUTO 24015KT 9999 FEW034 10/06 Q1015
                        NOSIG=
201512230350 METAR COR EGLL 230350Z AUTO 24019KT 9999 FEW034 10/06 Q1014
                        NOSIG=
201512230320 METAR COR EGLL 230320Z AUTO 23013KT 9999 SCT026 11/07 Q1014
                        NOSIG=
201512230250 METAR COR EGLL 230250Z AUTO 23015KT 9999 FEW023 11/07 Q1014
                        NOSIG=
201512230220 METAR COR EGLL 230220Z AUTO 22012KT 9999 FEW023 10/08 Q1013
                        NOSIG=
201512230150 METAR COR EGLL 230150Z AUTO 22013KT 9999 FEW021 10/08 Q1013
                        NOSIG=
201512230120 METAR EGLL 230120Z AUTO 22013KT 9999 -RA SCT032 10/08 Q1013=
201512230050 METAR COR EGLL 230050Z AUTO 23013KT 9999 FEW016 SCT030 11/08
                        Q1013 NOSIG=
201512230020 METAR COR EGLL 230020Z AUTO 23015KT 9999 FEW016 BKN033 11/09
                        Q1013 NOSIG=
201512222350 METAR COR EGLL 222350Z AUTO 23014KT 9999 FEW015 11/09 Q1012
                        NOSIG=
201512222320 METAR COR EGLL 222320Z AUTO 23013KT 9999 -RA NCD 11/09 Q1012
                        NOSIG=
201512222250 METAR COR EGLL 222250Z AUTO 23012KT 9999 -RA //////TCU 11/09
                        Q1012 NOSIG=
201512222220 METAR COR EGLL 222220Z AUTO 24012KT 9999 -RA //////CB 11/09
                        Q1012 NOSIG=
201512222150 METAR COR EGLL 222150Z AUTO 25012KT 9999 -RA FEW010/// SCT022///
                        BKN039/// //////CB 11/10 Q1011 TEMPO
                        RA=
201512222120 METAR COR EGLL 222120Z AUTO 26015KT 3500 -RA FEW006/// SCT016///
                        OVC031/// //////CB 11/10 Q1011 RESHGR
                        RERA TEMPO RA=
201512222050 METAR COR EGLL 222050Z AUTO 22017G28KT 200V260 3000 +RA BKN006///
                        //////CB 13/12 Q1010 BECMG SCT006=
201512222020 METAR COR EGLL 222020Z AUTO 21017KT 5000 -RADZ BKN007///
                        OVC017/// //////CB 13/12 Q1010 TEMPO
                        RA=
201512221950 METAR COR EGLL 221950Z AUTO 21017KT 6000 -RA OVC008 13/12
                        Q1010 TEMPO RA=
201512221920 METAR COR EGLL 221920Z AUTO 21016KT 7000 -RA BKN009 13/12
                        Q1010 TEMPO RA=
201512221850 METAR COR EGLL 221850Z AUTO 21017G28KT 4800 -RADZ BKN007
                        OVC017 13/12 Q1010 TEMPO RA=
201512221820 METAR EGLL 221820Z AUTO 21017G29KT 8000 BKN011 14/12 Q1011=
201512221750 METAR COR EGLL 221750Z AUTO 21018KT 9999 BKN011 14/12 Q1011
                        TEMPO RA BKN008=
201512221720 METAR COR EGLL 221720Z AUTO 21017KT 9999 BKN011 14/12 Q1011
                        TEMPO RA BKN008=
201512221650 METAR COR EGLL 221650Z AUTO 22017KT 9999 OVC013 14/12 Q1011
                        TEMPO RA=
201512221620 METAR COR EGLL 221620Z AUTO 22018KT 9999 BKN016 14/11 Q1011
                        TEMPO - RA BKN014=
201512221550 METAR COR EGLL 221550Z AUTO 22019G29KT 9999 FEW008 BKN016
                        14/11 Q1012 TEMPO -RA BKN014=
201512221520 METAR EGLL 221520Z AUTO 23020KT 9999 BKN015 14/11 Q1012=
201512221450 METAR COR EGLL 221450Z AUTO 22018G31KT 9999 BKN016 14/11
                        Q1012 TEMPO -RA BKN014=
201512221420 METAR COR EGLL 221420Z AUTO 22017G27KT 9999 BKN016 BKN033
                        14/11 Q1012 TEMPO -RA BKN014=
201512221350 METAR COR EGLL 221350Z AUTO 22020KT 180V250 9999 BKN017 15/11
                        Q1012 TEMPO -RA BKN014=
201512221320 METAR EGLL 221320Z AUTO 23020KT 9999 OVC019 15/11 Q1012=
201512221250 METAR COR EGLL 221250Z AUTO 23018KT 9999 BKN016 OVC040 14/11
                        Q1013 TEMPO -RA BKN014=
201512221220 METAR COR EGLL 221220Z AUTO 23019KT 9999 OVC016 14/11 Q1013
                        NOSIG=
201512221150 METAR COR EGLL 221150Z AUTO 23022G36KT 9999 -RA OVC017 14/11
                        Q1013 NOSIG=
201512221120 METAR COR EGLL 221120Z AUTO 22019G30KT 9999 BKN022 15/10
                        Q1013 NOSIG=
201512221050 METAR COR EGLL 221050Z AUTO 22022G36KT 9999 BKN025 15/10
                        Q1013 NOSIG=
201512221020 METAR COR EGLL 221020Z AUTO 22020G32KT 9999 FEW029 OVC039
                        15/10 Q1014 NOSIG=
201512220950 METAR COR EGLL 220950Z AUTO 23021G31KT 9999 -RA BKN019 BKN036
                        14/11 Q1014 NOSIG=
201512220920 METAR COR EGLL 220920Z AUTO 22018G29KT 9999 OVC020 15/11
                        Q1013 NOSIG=
201512220850 METAR COR EGLL 220850Z AUTO 22019KT 9999 BKN019 OVC049 14/11
                        Q1013 NOSIG=
201512220820 METAR COR EGLL 220820Z AUTO 22022G35KT 9999 BKN019 14/11
                        Q1013 NOSIG=
201512220750 METAR COR EGLL 220750Z AUTO 23022G33KT 9999 OVC018 14/11
                        Q1013 NOSIG=
201512220720 METAR COR EGLL 220720Z AUTO 23019G29KT 9999 OVC016 14/11
                        Q1013 TEMPO BKN014=
201512220650 METAR COR EGLL 220650Z AUTO 22019G30KT 9999 BKN018 14/11
                        Q1013 TEMPO BKN012=
201512220620 METAR COR EGLL 220620Z AUTO 24021KT 9999 -RA BKN012 OVC025
                        14/12 Q1013 TEMPO SCT012 BKN020=
201512220550 METAR COR EGLL 220550Z AUTO 22017KT 9999 -RA OVC011 14/12
                        Q1013 TEMPO 4000 RADZ BKN008=
201512220520 METAR COR EGLL 220520Z AUTO 22017G27KT 9999 OVC013 14/12
                        Q1013 BECMG BKN015=
201512220450 METAR COR EGLL 220450Z AUTO 22017G27KT 9999 OVC010 14/12
                        Q1013 TEMPO BKN008=
201512220420 METAR COR EGLL 220420Z AUTO 21016KT 9999 BKN007 14/13 Q1013
                        TEMPO BKN012=
201512220350 METAR COR EGLL 220350Z AUTO 21012KT 9999 OVC005 13/12 Q1014
                        TEMPO 6000 BKN008=
201512220320 METAR COR EGLL 220320Z AUTO 20013KT 6000 BKN006 13/12 Q1014
                        TEMPO 4000 RADZ=
201512220250 METAR COR EGLL 220250Z AUTO 20013KT 6000 BKN006 13/12 Q1014
                        TEMPO FEW008 BKN012=
201512220220 METAR COR EGLL 220220Z AUTO 19011KT 9999 BKN008 13/11 Q1015
                        TEMPO SCT008 BKN012=
201512220150 METAR COR EGLL 220150Z AUTO 18010KT 9999 -RA BKN010 BKN023
                        12/11 Q1015 TEMPO 4000 BKN006 RADZ=
201512220120 METAR COR EGLL 220120Z AUTO 18009KT 9999 FEW018 12/10 Q1016
                        BECMG BKN014=
201512220050 METAR COR EGLL 220050Z AUTO 19009KT 9999 -RA FEW032/// //////TCU
                        11/10 Q1017 BECMG BKN012=
201512220020 METAR COR EGLL 220020Z AUTO 20010KT 9999 //////TCU 11/10
                        Q1017 NOSIG=
201512212350 METAR COR EGLL 212350Z AUTO 19010KT 9999 NCD 11/10 Q1017
                        BECMG 7000 -RA BKN012=
201512212320 METAR COR EGLL 212320Z AUTO 19008KT 9999 NCD 11/09 Q1018
                        NOSIG=
201512212250 METAR COR EGLL 212250Z AUTO 21009KT 9999 NCD 10/08 Q1018
                        NOSIG=
201512212220 METAR COR EGLL 212220Z AUTO 20009KT 9999 NCD 10/08 Q1018
                        NOSIG=
201512212150 METAR COR EGLL 212150Z AUTO 21008KT 9999 NCD 09/07 Q1018
                        NOSIG=
201512212120 METAR COR EGLL 212120Z AUTO 22007KT 9999 NCD 10/07 Q1018
                        NOSIG=
201512212050 METAR COR EGLL 212050Z AUTO 23009KT 9999 NCD 10/07 Q1018
                        NOSIG=
201512212020 METAR COR EGLL 212020Z AUTO 22009KT 9999 NCD 10/06 Q1018
                        NOSIG=
201512211950 METAR COR EGLL 211950Z AUTO 23008KT 9999 NCD 10/06 Q1017
                        NOSIG=
201512211920 METAR COR EGLL 211920Z AUTO 24011KT 9999 NCD 11/06 Q1017
                        NOSIG=
201512211850 METAR COR EGLL 211850Z AUTO 24011KT 9999 NCD 11/07 Q1017
                        NOSIG=
201512211820 METAR COR EGLL 211820Z AUTO 24011KT 9999 NCD 11/07 Q1016
                        NOSIG=
201512211750 METAR COR EGLL 211750Z AUTO 24012KT 9999 NCD 12/08 Q1015
                        NOSIG=
201512211720 METAR COR EGLL 211720Z AUTO 25016KT 9999 NCD 12/07 Q1014
                        NOSIG=
201512211650 METAR COR EGLL 211650Z AUTO 25016KT 9999 NCD 13/09 Q1013
                        NOSIG=
201512211620 METAR COR EGLL 211620Z AUTO 25017G27KT 9999 FEW012 13/11
                        Q1013 NOSIG=
201512211550 METAR COR EGLL 211550Z AUTO 24019KT 9999 -RA BKN011 BKN026
                        13/11 Q1012 BECMG SCT012=
201512211520 METAR COR EGLL 211520Z AUTO 23019KT 9999 -RA OVC010 12/11
                        Q1011 TEMPO 23020G30KT BKN009=
201512211450 METAR COR EGLL 211450Z AUTO 22020G30KT 8000 -RA OVC009 12/10
                        Q1011 TEMPO RA BKN012=
201512211420 METAR COR EGLL 211420Z AUTO 22020G31KT 5000 -RADZ OVC009
                        11/10 Q1011 TEMPO SCT009 BKN012=
201512211350 METAR COR EGLL 211350Z AUTO 21021KT 5000 -RADZ OVC010 11/10
                        Q1011 TEMPO BKN008=
201512211320 METAR COR EGLL 211320Z AUTO 21019G32KT 9999 BKN013 11/09
                        Q1011 TEMPO RADZ=
201512211250 METAR COR EGLL 211250Z AUTO 21019KT 8000 -RA BKN017/// //////TCU
                        11/09 Q1011 TEMPO BKN014=
201512211220 METAR COR EGLL 211220Z AUTO 22020G30KT 9999 -RA BKN021///
                        //////TCU 12/08 Q1012 TEMPO RA BKN012=
201512211150 METAR COR EGLL 211150Z AUTO 22018KT 9999 SCT022 11/08 Q1013
                        TEMPO BKN014=
201512211120 METAR EGLL 211120Z AUTO 22015KT 9999 SCT019 11/08 Q1013=
201512211050 METAR COR EGLL 211050Z AUTO 22014KT 9999 FEW023 10/07 Q1014
                        NOSIG=
201512211020 METAR COR EGLL 211020Z AUTO 23016G27KT 9999 FEW048 10/06
                        Q1014 NOSIG=
201512210950 METAR COR EGLL 210950Z AUTO 22013KT 9999 NCD 10/06 Q1014
                        NOSIG=
201512210920 METAR COR EGLL 210920Z AUTO 21010KT 9999 NCD 09/06 Q1014
                        NOSIG=
201512210850 METAR COR EGLL 210850Z AUTO 22010KT 9999 NCD 08/05 Q1015
                        NOSIG=
201512210820 METAR COR EGLL 210820Z AUTO 21010KT 9999 NCD 07/05 Q1015
                        NOSIG=
201512210750 METAR COR EGLL 210750Z AUTO 21008KT 180V240 9999 NCD 07/05
                        Q1015 NOSIG=
201512210720 METAR COR EGLL 210720Z AUTO 21009KT 9999 NCD 07/05 Q1015
                        NOSIG=
201512210650 METAR COR EGLL 210650Z AUTO 21009KT 9999 NCD 07/05 Q1014
                        NOSIG=
201512210620 METAR COR EGLL 210620Z AUTO 21007KT 180V240 9999 NCD 07/05
                        Q1014 NOSIG=
201512210550 METAR COR EGLL 210550Z AUTO 21007KT 9999 NCD 07/05 Q1014
                        NOSIG=
201512210520 METAR COR EGLL 210520Z AUTO 21009KT 9999 NCD 07/05 Q1014
                        NOSIG=
201512210450 METAR COR EGLL 210450Z AUTO 21009KT 9999 NCD 07/05 Q1014
                        NOSIG=
201512210420 METAR COR EGLL 210420Z AUTO 22012KT 9999 -RA FEW019/// BKN026///
                        //////CB 08/06 Q1014 NOSIG=
201512210350 METAR COR EGLL 210350Z AUTO 21006KT 9999 //////TCU 07/06
                        Q1014 NOSIG=
201512210320 METAR COR EGLL 210320Z AUTO 19007KT 9999 NCD 07/06 Q1014
                        NOSIG=
201512210250 METAR COR EGLL 210250Z AUTO 21007KT 9999 FEW049 08/06 Q1014
                        NOSIG=
201512210220 METAR COR EGLL 210220Z AUTO 21007KT 9999 NCD 08/06 Q1014
                        NOSIG=
201512210150 METAR COR EGLL 210150Z AUTO 21008KT 9999 NCD 08/05 Q1014
                        NOSIG=
201512210120 METAR COR EGLL 210120Z AUTO 21008KT 9999 NCD 08/05 Q1014
                        NOSIG=
201512210050 METAR COR EGLL 210050Z AUTO 21009KT 9999 NCD 08/05 Q1014
                        NOSIG=
201512210020 METAR COR EGLL 210020Z AUTO 21009KT 9999 NCD 09/06 Q1014
                        NOSIG=
201512202350 METAR COR EGLL 202350Z AUTO 22012KT 9999 FEW028/// //////TCU
                        09/06 Q1014 NOSIG=
201512202320 METAR COR EGLL 202320Z AUTO 21009KT 9999 FEW035/// //////TCU
                        09/07 Q1014 NOSIG=
201512202250 METAR COR EGLL 202250Z AUTO 21008KT 180V250 9999 FEW031///
                        //////TCU 08/06 Q1014 NOSIG=
201512202220 METAR COR EGLL 202220Z AUTO 22010KT 9999 FEW042 09/06 Q1014
                        NOSIG=
201512202150 METAR COR EGLL 202150Z AUTO 22008KT 180V260 9999 FEW043 09/06
                        Q1014 NOSIG=
201512202120 METAR COR EGLL 202120Z AUTO 22009KT 9999 FEW035 09/07 Q1014
                        NOSIG=
201512202050 METAR COR EGLL 202050Z AUTO 22010KT 9999 FEW044 09/07 Q1014
                        NOSIG=
201512202020 METAR COR EGLL 202020Z AUTO 22009KT 180V250 9999 NCD 09/07
                        Q1013 NOSIG=
201512201950 METAR COR EGLL 201950Z AUTO 21010KT 9999 NCD 10/07 Q1013
                        NOSIG=
201512201920 METAR COR EGLL 201920Z AUTO 22009KT 190V250 9999 NCD 10/08
                        Q1013 NOSIG=
201512201850 METAR COR EGLL 201850Z AUTO 22009KT 9999 NCD 10/08 Q1013
                        NOSIG=
201512201820 METAR COR EGLL 201820Z AUTO 21010KT 9999 NCD 10/08 Q1012
                        NOSIG=
201512201750 METAR COR EGLL 201750Z AUTO 22011KT 9999 FEW027 SCT037 10/08
                        Q1012 NOSIG=
201512201720 METAR COR EGLL 201720Z AUTO 21010KT 180V250 9999 FEW021///
                        //////TCU 09/08 Q1012 NOSIG=
201512201650 METAR COR EGLL 201650Z AUTO 21009KT 170V250 9999 FEW028 10/08
                        Q1012 NOSIG=
201512201620 METAR COR EGLL 201620Z AUTO 22010KT 9999 NCD 10/08 Q1011
                        NOSIG=
201512201550 METAR COR EGLL 201550Z AUTO 22010KT 180V240 9999 SCT037///
                        //////CB 10/08 Q1011 NOSIG=
201512201520 METAR COR EGLL 201520Z AUTO 23016KT 8000 -RA SCT019/// OVC036///
                        //////CB 11/09 Q1011 NOSIG=
201512201450 METAR COR EGLL 201450Z AUTO 21011KT 9999 -RA SCT024/// BKN042///
                        //////TCU 13/08 Q1011 TEMPO SHRA=
201512201420 METAR COR EGLL 201420Z AUTO 22013KT 9999 -RA BKN024/// //////TCU
                        13/08 Q1011 TEMPO SHRA=
201512201350 METAR COR EGLL 201350Z AUTO 21013KT 180V250 9999 SCT024 13/09
                        Q1011 TEMPO SHRA=
201512201320 METAR COR EGLL 201320Z AUTO 22010KT 9999 SCT027 13/09 Q1011
                        TEMPO SHRA=
201512201250 METAR COR EGLL 201250Z AUTO 21010KT 9999 SCT022 13/09 Q1011
                        TEMPO SHRA=
201512201220 METAR COR EGLL 201220Z AUTO 20010KT 150V230 9999 BKN022 13/09
                        Q1011 NOSIG=
201512201150 METAR COR EGLL 201150Z AUTO 22011KT 9999 FEW025 13/09 Q1011
                        NOSIG=
201512201120 METAR COR EGLL 201120Z AUTO 23012KT 9999 NCD 13/08 Q1012
                        NOSIG=
201512201050 METAR COR EGLL 201050Z AUTO 22012KT 9999 FEW024/// //////TCU
                        13/08 Q1011 NOSIG=
201512201020 METAR COR EGLL 201020Z AUTO 21010KT 9999 FEW020 13/09 Q1011
                        NOSIG=
201512200950 METAR COR EGLL 200950Z AUTO 21011KT 190V250 9999 -RA FEW019
                        BKN031 13/09 Q1011 NOSIG=
201512200920 METAR COR EGLL 200920Z AUTO 20012KT 9999 NCD 12/09 Q1011
                        NOSIG=
201512200850 METAR COR EGLL 200850Z AUTO 21010G20KT 170V240 9999 NCD 12/09
                        Q1010 NOSIG=
201512200820 METAR COR EGLL 200820Z AUTO 21009KT 9999 FEW019 12/09 Q1010
                        NOSIG=
201512200750 METAR COR EGLL 200750Z AUTO 20011KT 9999 FEW023 12/09 Q1009
                        NOSIG=
201512200720 METAR COR EGLL 200720Z AUTO 21009KT 180V240 9999 FEW024 12/09
                        Q1009 NOSIG=
201512200650 METAR COR EGLL 200650Z AUTO 21012KT 9999 NCD 13/09 Q1009
                        NOSIG=
201512200620 METAR COR EGLL 200620Z AUTO 22011KT 9999 FEW032 13/09 Q1009
                        NOSIG=
201512200550 METAR COR EGLL 200550Z AUTO 23014KT 9999 FEW025 13/09 Q1008
                        TEMPO SHRA BKN014=
201512200520 METAR COR EGLL 200520Z AUTO 23016KT 9999 BKN024 14/09 Q1008
                        TEMPO SHRA BKN014=
201512200450 METAR COR EGLL 200450Z AUTO 23017KT 9999 SCT024 14/10 Q1007
                        TEMPO SHRA BKN014=
201512200420 METAR COR EGLL 200420Z AUTO 22013KT 9999 BKN024 14/10 Q1007
                        TEMPO SHRA BKN014=
201512200350 METAR COR EGLL 200350Z AUTO 21014KT 9999 BKN024 14/10 Q1007
                        TEMPO SHRA BKN014=
201512200320 METAR COR EGLL 200320Z AUTO 21014KT 9999 BKN026 15/09 Q1006
                        TEMPO SHRA BKN014=
201512200250 METAR COR EGLL 200250Z AUTO 21017KT 9999 BKN029 15/09 Q1007
                        NOSIG=
201512200220 METAR COR EGLL 200220Z AUTO 20017KT 9999 FEW033 14/09 Q1006
                        NOSIG=
201512200150 METAR COR EGLL 200150Z AUTO 19017KT 9999 FEW035 14/09 Q1006
                        NOSIG=
201512200120 METAR COR EGLL 200120Z AUTO 19016G26KT 9999 NCD 14/09 Q1006
                        NOSIG=
201512200050 METAR COR EGLL 200050Z AUTO 19013KT 9999 NCD 14/09 Q1007
                        NOSIG=
201512200020 METAR COR EGLL 200020Z AUTO 20013KT 9999 NCD 14/09 Q1007
                        NOSIG=
201512192350 METAR COR EGLL 192350Z AUTO 19013KT 9999 NCD 14/10 Q1007
                        NOSIG=
201512192320 METAR COR EGLL 192320Z AUTO 19012KT 9999 NCD 14/10 Q1008
                        NOSIG=
201512192250 METAR COR EGLL 192250Z AUTO 19014KT 170V230 9999 NCD 14/10
                        Q1008 NOSIG=
201512192220 METAR COR EGLL 192220Z AUTO 19013KT 170V230 9999 NCD 14/10
                        Q1008 NOSIG=
201512192150 METAR COR EGLL 192150Z AUTO 19013KT 170V230 9999 NCD 14/10
                        Q1008 NOSIG=
201512192120 METAR COR EGLL 192120Z AUTO 19012KT 160V230 9999 NCD 14/10
                        Q1009 NOSIG=
201512192050 METAR COR EGLL 192050Z AUTO 18012KT 160V230 9999 NCD 14/10
                        Q1009 NOSIG=
201512192020 METAR COR EGLL 192020Z AUTO 19013KT 170V240 9999 NCD 14/10
                        Q1009 NOSIG=
201512191950 METAR COR EGLL 191950Z AUTO 19012KT 9999 NCD 15/10 Q1009
                        NOSIG=
201512191920 METAR COR EGLL 191920Z AUTO 19012KT 150V230 9999 NCD 15/10
                        Q1009 NOSIG=
201512191850 METAR COR EGLL 191850Z AUTO 19012KT 170V230 9999 NCD 15/10
                        Q1009 NOSIG=
201512191820 METAR COR EGLL 191820Z AUTO 19013KT 150V230 9999 NCD 15/10
                        Q1010 NOSIG=
201512191750 METAR COR EGLL 191750Z AUTO 18012KT 150V220 9999 NCD 15/10
                        Q1009 NOSIG=
201512191720 METAR COR EGLL 191720Z AUTO 18011KT 150V230 9999 NCD 14/10
                        Q1010 NOSIG=
201512191650 METAR COR EGLL 191650Z AUTO 18012KT 160V230 9999 NCD 14/10
                        Q1010 NOSIG=
201512191620 METAR COR EGLL 191620Z AUTO 18013KT 160V230 9999 NCD 14/10
                        Q1010 NOSIG=
201512191550 METAR COR EGLL 191550Z AUTO 18013KT 150V230 9999 NCD 15/10
                        Q1010 NOSIG=
201512191520 METAR COR EGLL 191520Z AUTO 19011KT 160V230 9999 NCD 15/10
                        Q1010 NOSIG=
201512191450 METAR COR EGLL 191450Z AUTO 18013KT 140V210 9999 NCD 15/10
                        Q1011 NOSIG=
201512191420 METAR COR EGLL 191420Z AUTO 19013G23KT 9999 FEW036 16/10
                        Q1011 NOSIG=
201512191350 METAR COR EGLL 191350Z AUTO 19015KT 9999 NCD 15/10 Q1011
                        NOSIG=
201512191320 METAR COR EGLL 191320Z AUTO 19016KT 9999 NCD 16/10 Q1011
                        NOSIG=
201512191250 METAR COR EGLL 191250Z AUTO 20015KT 9999 FEW046 16/11 Q1012
                        NOSIG=
201512191220 METAR COR EGLL 191220Z AUTO 20015KT 9999 NCD 16/11 Q1012
                        NOSIG=
201512191150 METAR COR EGLL 191150Z AUTO 20015KT 9999 NCD 16/11 Q1012
                        NOSIG=
201512191120 METAR COR EGLL 191120Z AUTO 20015KT 9999 NCD 16/11 Q1012
                        NOSIG=
201512191050 METAR COR EGLL 191050Z AUTO 20017KT 9999 NCD 16/11 Q1013
                        NOSIG=
201512191020 METAR COR EGLL 191020Z AUTO 20014KT 9999 NCD 15/11 Q1013
                        NOSIG=
201512190950 METAR COR EGLL 190950Z AUTO 20013KT 9999 FEW049 15/11 Q1013
                        NOSIG=
201512190920 METAR COR EGLL 190920Z AUTO 20013KT 9999 BKN023 15/11 Q1013
                        NOSIG=
201512190850 METAR COR EGLL 190850Z AUTO 20011KT 9999 SCT017 BKN031 15/11
                        Q1014 NOSIG=
201512190820 METAR COR EGLL 190820Z AUTO 20011KT 9999 BKN017 15/12 Q1014
                        NOSIG=
201512190750 METAR COR EGLL 190750Z AUTO 20014KT 9999 BKN014 15/12 Q1013
                        BECMG SCT014=
201512190720 METAR COR EGLL 190720Z AUTO 20013KT 9999 OVC012 15/13 Q1013
                        TEMPO SCT012=
201512190650 METAR COR EGLL 190650Z AUTO 20013G23KT 9999 OVC012 15/13
                        Q1013 BECMG SCT012=
201512190620 METAR COR EGLL 190620Z AUTO 20011KT 9999 BKN008 15/13 Q1013
                        NOSIG=
201512190550 METAR COR EGLL 190550Z AUTO 20009KT 9999 OVC008 15/13 Q1014
                        NOSIG=
201512190520 METAR COR EGLL 190520Z AUTO 21011KT 9999 OVC008 15/13 Q1014
                        TEMPO BKN004=
201512190450 METAR COR EGLL 190450Z AUTO 21011KT 9999 OVC007 14/13 Q1014
                        TEMPO BKN004=
201512190420 METAR COR EGLL 190420Z AUTO 21012KT 6000 OVC007 14/13 Q1014
                        TEMPO BKN004=
201512190350 METAR COR EGLL 190350Z AUTO 20012KT 9999 OVC006 14/13 Q1014
                        TEMPO BKN004=
201512190320 METAR COR EGLL 190320Z AUTO 21011KT 9999 OVC008 14/13 Q1015
                        NOSIG=
201512190250 METAR COR EGLL 190250Z AUTO 21011KT 9999 OVC007 14/13 Q1015
                        TEMPO BKN004=
201512190220 METAR COR EGLL 190220Z AUTO 20011KT 9999 OVC006 14/12 Q1015
                        TEMPO BKN004=
201512190150 METAR EGLL 190150Z AUTO 20012KT 9999 OVC006 13/12 Q1015 NOSIG=
201512190120 METAR COR EGLL 190120Z AUTO 20012KT 9999 OVC007 13/11 Q1015
                        TEMPO BKN010=
201512190050 METAR COR EGLL 190050Z AUTO 19011KT 9999 OVC011 13/11 Q1015
                        TEMPO BKN009=
201512190020 METAR COR EGLL 190020Z AUTO 18010KT 9999 OVC013 13/11 Q1016
                        TEMPO BKN009=
201512182350 METAR COR EGLL 182350Z AUTO 21012KT 9999 OVC012 13/11 Q1016
                        TEMPO BKN009=
201512182320 METAR COR EGLL 182320Z AUTO 21010KT 9999 OVC013 13/11 Q1017
                        NOSIG=
201512182250 METAR COR EGLL 182250Z AUTO 19008KT 150V240 9999 BKN014 13/11
                        Q1017 TEMPO SCT013=
201512182220 METAR COR EGLL 182220Z AUTO 20009KT 160V240 9999 FEW014 12/10
                        Q1017 TEMPO BKN013=
201512182150 METAR COR EGLL 182150Z AUTO 22010KT 9999 NCD 12/10 Q1017
                        TEMPO BKN013=
201512182120 METAR COR EGLL 182120Z AUTO 21010KT 180V240 9999 NCD 12/10
                        Q1017 TEMPO BKN013=
201512182050 METAR COR EGLL 182050Z AUTO 20010KT 170V240 9999 NCD 12/10
                        Q1017 TEMPO BKN013=
201512182020 METAR COR EGLL 182020Z AUTO 21011G22KT 9999 FEW014 12/10
                        Q1017 TEMPO BKN013=
201512181950 METAR COR EGLL 181950Z AUTO 21010KT 9999 BKN013 12/10 Q1018
                        NOSIG=
201512181920 METAR COR EGLL 181920Z AUTO 21010KT 180V240 9999 BKN013 12/10
                        Q1018 TEMPO SCT012=
201512181850 METAR COR EGLL 181850Z AUTO 20009KT 170V230 9999 SCT015 12/10
                        Q1017 TEMPO BKN014=
201512181820 METAR EGLL 181820Z AUTO 19010KT 160V240 9999 BKN013 12/10
                        Q1018=
201512181750 METAR EGLL 181750Z AUTO 19009KT 160V230 9999 SCT015/// //////CB
                        12/10 Q1018=
201512181720 METAR COR EGLL 181720Z AUTO 19008KT 160V240 9999 FEW016 12/10
                        Q1018 TEMPO BKN014=
201512181650 METAR COR EGLL 181650Z AUTO 21010KT 180V240 9999 SCT012 12/10
                        Q1018 TEMPO BKN014=
201512181620 METAR COR EGLL 181620Z AUTO 19010KT 160V240 9999 SCT014 12/10
                        Q1018 TEMPO BKN014=
201512181550 METAR COR EGLL 181550Z AUTO 21009KT 170V240 9999 FEW016 13/10
                        Q1018 TEMPO BKN014=
201512181520 METAR COR EGLL 181520Z AUTO 20011KT 170V240 9999 -RA FEW017
                        13/10 Q1018 NOSIG=
201512181450 METAR COR EGLL 181450Z AUTO 22010KT 9999 FEW018 BKN034 13/10
                        Q1018 NOSIG=
201512181420 METAR COR EGLL 181420Z AUTO 22010KT 9999 BKN018 OVC032 13/10
                        Q1018 NOSIG=
201512181350 METAR COR EGLL 181350Z AUTO 21010KT 9999 BKN020 13/09 Q1018
                        NOSIG=
201512181320 METAR COR EGLL 181320Z AUTO 22011KT 9999 BKN020 14/09 Q1018
                        NOSIG=
201512181250 METAR COR EGLL 181250Z AUTO 21011KT 9999 BKN020 14/10 Q1019
                        NOSIG=
201512181220 METAR COR EGLL 181220Z AUTO 22009KT 9999 FEW025 BKN031 14/10
                        Q1019 NOSIG=
201512181150 METAR COR EGLL 181150Z AUTO 23013KT 9999 SCT020 BKN033 14/10
                        Q1019 NOSIG=
201512181120 METAR COR EGLL 181120Z AUTO 22010KT 9999 BKN017 13/10 Q1019
                        NOSIG=
201512181050 METAR COR EGLL 181050Z AUTO 22010KT 9999 SCT016 BKN030 13/10
                        Q1019 NOSIG=
201512181020 METAR COR EGLL 181020Z AUTO 22011KT 9999 FEW017 BKN035 13/10
                        Q1019 NOSIG=
201512180950 METAR COR EGLL 180950Z AUTO 22008KT 9999 BKN036 13/10 Q1019
                        NOSIG=
201512180920 METAR COR EGLL 180920Z AUTO 22009KT 180V250 9999 FEW023 OVC035
                        12/10 Q1019 NOSIG=
201512180850 METAR COR EGLL 180850Z AUTO 21008KT 9999 OVC036 12/10 Q1019
                        NOSIG=
201512180820 METAR COR EGLL 180820Z AUTO 22007KT 9999 OVC034 12/10 Q1019
                        NOSIG=
201512180750 METAR COR EGLL 180750Z AUTO 21008KT 9999 BKN033 12/10 Q1019
                        NOSIG=
201512180720 METAR COR EGLL 180720Z AUTO 21009G19KT 9999 OVC032 12/10
                        Q1018 NOSIG=
201512180650 METAR COR EGLL 180650Z AUTO 22008KT 180V260 9999 OVC030 12/09
                        Q1018 NOSIG=
201512180620 METAR COR EGLL 180620Z AUTO 22009KT 9999 OVC031 12/09 Q1018
                        NOSIG=
201512180550 METAR COR EGLL 180550Z AUTO 21009KT 9999 OVC031 12/10 Q1018
                        NOSIG=
201512180520 METAR COR EGLL 180520Z AUTO 20008KT 9999 OVC032 12/10 Q1018
                        NOSIG=
201512180450 METAR COR EGLL 180450Z AUTO 20007KT 9999 OVC033 12/10 Q1018
                        NOSIG=
201512180420 METAR COR EGLL 180420Z AUTO 21006KT 9999 BKN034 12/10 Q1018
                        NOSIG=
201512180350 METAR COR EGLL 180350Z AUTO 21008KT 9999 SCT032 11/10 Q1018
                        NOSIG=
201512180320 METAR COR EGLL 180320Z AUTO 21008KT 9999 OVC033 11/10 Q1018
                        NOSIG=
201512180250 METAR COR EGLL 180250Z AUTO 22008KT 9999 OVC027 11/09 Q1018
                        NOSIG=
201512180220 METAR COR EGLL 180220Z AUTO 22006KT 9999 OVC032 11/09 Q1018
                        NOSIG=
201512180150 METAR COR EGLL 180150Z AUTO 23006KT 9999 OVC035 11/09 Q1017
                        NOSIG=
201512180120 METAR COR EGLL 180120Z AUTO 23007KT 9999 BKN036 11/09 Q1017
                        NOSIG=
201512180050 METAR COR EGLL 180050Z AUTO 21009KT 9000 BKN036 12/10 Q1017
                        NOSIG=
201512180020 METAR COR EGLL 180020Z AUTO 21007KT 9000 BKN038 11/10 Q1017
                        NOSIG=
201512172350 METAR COR EGLL 172350Z AUTO 21008KT 9000 BKN036 11/10 Q1017
                        NOSIG=
201512172320 METAR COR EGLL 172320Z AUTO 22008KT 9000 FEW011 BKN033 12/10
                        Q1017 NOSIG=
201512172250 METAR COR EGLL 172250Z AUTO 23008KT 190V260 9000 BKN035 12/10
                        Q1017 NOSIG=
201512172220 METAR COR EGLL 172220Z AUTO 23009KT 9000 BKN030 12/10 Q1017
                        NOSIG=
201512172150 METAR COR EGLL 172150Z AUTO 22007KT 190V260 9000 FEW013 12/10
                        Q1016 NOSIG=
201512172120 METAR COR EGLL 172120Z AUTO 23010KT 9999 FEW015 12/10 Q1016
                        NOSIG=
201512172050 METAR COR EGLL 172050Z AUTO 23009KT 9000 FEW014 13/11 Q1016
                        NOSIG=
201512172020 METAR COR EGLL 172020Z AUTO 24010KT 9000 FEW013 13/11 Q1015
                        NOSIG=
201512171950 METAR COR EGLL 171950Z AUTO 23011KT 9999 FEW012 13/11 Q1015
                        NOSIG=
201512171920 METAR COR EGLL 171920Z AUTO 22011KT 9999 SCT011 13/12 Q1015
                        TEMPO BKN013=
201512171850 METAR COR EGLL 171850Z AUTO 22009KT 180V250 9999 SCT006 BKN015
                        13/12 Q1015 TEMPO BKN008=
201512171820 METAR COR EGLL 171820Z AUTO 22009KT 200V260 9000 BKN006 13/12
                        Q1015 TEMPO SCT008=
201512171750 METAR COR EGLL 171750Z AUTO 20010KT 170V240 9999 OVC010 13/11
                        Q1014 TEMPO SCT012=
201512171720 METAR COR EGLL 171720Z AUTO 21009KT 170V240 9999 BKN012 13/11
                        Q1014 TEMPO SCT012=
201512171650 METAR COR EGLL 171650Z AUTO 21009KT 190V250 9999 -RA FEW019
                        SCT044 13/11 Q1014 TEMPO RA BKN014=
201512171620 METAR COR EGLL 171620Z AUTO 22009KT 190V250 9999 -RA SCT020
                        14/10 Q1014 TEMPO RA BKN014=
201512171550 METAR COR EGLL 171550Z AUTO 21013KT 190V250 9999 BKN021 14/10
                        Q1014 TEMPO RA BKN014=
201512171520 METAR COR EGLL 171520Z AUTO 21013KT 180V240 9999 BKN022 15/09
                        Q1014 NOSIG=
201512171450 METAR COR EGLL 171450Z AUTO 20012KT 9999 BKN021 15/09 Q1014
                        NOSIG=
201512171420 METAR COR EGLL 171420Z AUTO 21012KT 9999 FEW030 15/09 Q1014
                        NOSIG=
201512171350 METAR COR EGLL 171350Z AUTO 21012KT 9999 NCD 15/09 Q1014
                        NOSIG=
201512171320 METAR COR EGLL 171320Z AUTO 21011KT 9999 NCD 15/09 Q1014
                        NOSIG=
201512171250 METAR COR EGLL 171250Z AUTO 20011KT 9999 NCD 15/09 Q1015
                        NOSIG=
201512171220 METAR COR EGLL 171220Z AUTO 20009KT 160V250 9999 NCD 15/09
                        Q1015 NOSIG=
201512171150 METAR COR EGLL 171150Z AUTO 20011KT 170V240 9999 NCD 14/09
                        Q1016 NOSIG=
201512171120 METAR COR EGLL 171120Z AUTO 19011KT 9999 NCD 14/09 Q1016
                        NOSIG=
201512171050 METAR COR EGLL 171050Z AUTO 18012KT 9999 NCD 14/09 Q1016
                        NOSIG=
201512171020 METAR COR EGLL 171020Z AUTO 19012KT 9999 NCD 14/09 Q1016
                        NOSIG=
201512170950 METAR COR EGLL 170950Z AUTO 19010KT 9999 NCD 14/08 Q1017
                        NOSIG=
201512170920 METAR COR EGLL 170920Z AUTO 20009KT 170V240 9999 NCD 13/08
                        Q1017 NOSIG=
201512170850 METAR COR EGLL 170850Z AUTO 19009KT 150V220 9999 NCD 13/08
                        Q1017 NOSIG=
201512170820 METAR COR EGLL 170820Z AUTO 19011KT 9999 NCD 13/08 Q1017
                        NOSIG=
201512170750 METAR COR EGLL 170750Z AUTO 20010KT 9999 NCD 13/08 Q1017
                        NOSIG=
201512170720 METAR COR EGLL 170720Z AUTO 19008KT 140V240 9999 NCD 12/08
                        Q1017 NOSIG=
201512170650 METAR COR EGLL 170650Z AUTO 19008KT 150V220 9999 NCD 12/08
                        Q1017 NOSIG=
201512170620 METAR COR EGLL 170620Z AUTO 20010KT 170V260 9999 NCD 13/09
                        Q1017 NOSIG=
201512170550 METAR COR EGLL 170550Z AUTO 21009KT 9999 NCD 12/09 Q1017
                        NOSIG=
201512170520 METAR COR EGLL 170520Z AUTO 20009KT 180V270 9999 NCD 12/09
                        Q1017 NOSIG=
201512170450 METAR COR EGLL 170450Z AUTO 20008KT 9999 NCD 12/09 Q1017
                        NOSIG=
201512170420 METAR COR EGLL 170420Z AUTO 20007KT 9999 NCD 12/10 Q1018
                        NOSIG=
201512170350 METAR COR EGLL 170350Z AUTO 20009KT 9999 NCD 12/10 Q1018
                        NOSIG=
201512170320 METAR COR EGLL 170320Z AUTO 20009KT 9999 NCD 13/10 Q1018
                        NOSIG=
201512170250 METAR COR EGLL 170250Z AUTO 21006KT 9999 NCD 12/10 Q1018
                        NOSIG=
201512170220 METAR COR EGLL 170220Z AUTO 19005KT 9999 NCD 12/10 Q1019
                        NOSIG=
201512170150 METAR COR EGLL 170150Z AUTO 20006KT 9999 NCD 12/10 Q1019
                        NOSIG=
201512170120 METAR COR EGLL 170120Z AUTO 20008KT 9999 FEW020 13/11 Q1019
                        NOSIG=
201512170050 METAR COR EGLL 170050Z AUTO 20009KT 9999 FEW020 13/11 Q1019
                        NOSIG=
201512170020 METAR COR EGLL 170020Z AUTO 21008KT 9999 SCT017 14/11 Q1020
                        NOSIG=
201512162350 METAR COR EGLL 162350Z AUTO 21009KT 9999 BKN014 14/11 Q1020
                        BECMG SCT014 BKN020=
201512162320 METAR COR EGLL 162320Z AUTO 21007KT 9999 BKN013 14/12 Q1020
                        BECMG SCT014 BKN030=
201512162250 METAR COR EGLL 162250Z AUTO 21008KT 9999 BKN012 OVC025 14/12
                        Q1020 BECMG SCT012 BKN028=
201512162220 METAR COR EGLL 162220Z AUTO 21010KT 9999 BKN006 OVC017 14/13
                        Q1020 TEMPO 4800 DZ=
201512162150 METAR COR EGLL 162150Z AUTO 21010KT 9999 BKN006 14/13 Q1020
                        TEMPO 4500 DZ=
201512162120 METAR COR EGLL 162120Z AUTO 21009KT 9999 OVC006 14/13 Q1020
                        TEMPO 4000 DZ=
201512162050 METAR COR EGLL 162050Z AUTO 20009KT 170V250 9999 OVC007 14/12
                        Q1020 TEMPO 4500 DZ=
201512162020 METAR COR EGLL 162020Z AUTO 20008KT 170V230 9999 BKN010 14/12
                        Q1021 TEMPO 4500 DZ BKN007=
201512161950 METAR COR EGLL 161950Z AUTO 23008KT 9999 OVC014 14/12 Q1021
                        BECMG BKN008=
201512161920 METAR COR EGLL 161920Z AUTO 23012KT 9999 OVC013 14/11 Q1021
                        BECMG BKN007=
201512161850 METAR COR EGLL 161850Z AUTO 21009KT 180V250 9999 OVC011 14/11
                        Q1021 BECMG BKN007=
201512161820 METAR EGLL 161820Z AUTO 23010KT 9999 OVC016 14/11 Q1020=
201512161750 METAR COR EGLL 161750Z AUTO 23009KT 9999 BKN019 13/11 Q1020
                        BECMG BKN012=
201512161720 METAR COR EGLL 161720Z AUTO 23009KT 9999 BKN021 13/11 Q1020
                        BECMG BKN012=
201512161650 METAR COR EGLL 161650Z AUTO 24013KT 9999 FEW013 BKN023 14/11
                        Q1020 TEMPO BKN013=
201512161620 METAR COR EGLL 161620Z AUTO 24013KT 9999 OVC015 14/11 Q1020
                        BECMG BKN012=
201512161550 METAR COR EGLL 161550Z AUTO 23013KT 9999 OVC015 14/11 Q1020
                        BECMG BKN014=
201512161520 METAR COR EGLL 161520Z AUTO 23012KT 9999 OVC016 15/11 Q1020
                        TEMPO BKN014=
201512161450 METAR COR EGLL 161450Z AUTO 23013KT 9999 OVC016 15/11 Q1020
                        NOSIG=
201512161420 METAR COR EGLL 161420Z AUTO 23013KT 9999 BKN019 15/12 Q1019
                        NOSIG=
201512161350 METAR COR EGLL 161350Z AUTO 24013KT 9999 BKN019 15/12 Q1019
                        NOSIG=
201512161320 METAR COR EGLL 161320Z AUTO 24017KT 9999 BKN016 15/12 Q1019
                        NOSIG=
201512161250 METAR COR EGLL 161250Z AUTO 25015KT 9999 OVC016 15/12 Q1019
                        NOSIG=
201512161220 METAR COR EGLL 161220Z AUTO 24015KT 9999 BKN018 15/11 Q1018
                        NOSIG=
201512161150 METAR COR EGLL 161150Z AUTO 24013KT 9999 SCT019 15/11 Q1018
                        NOSIG=
201512161120 METAR COR EGLL 161120Z AUTO 25015KT 9999 BKN017 15/11 Q1019
                        NOSIG=
201512161050 METAR COR EGLL 161050Z AUTO 24014KT 9999 BKN015 14/11 Q1019
                        TEMPO BKN014=
201512161020 METAR COR EGLL 161020Z AUTO 24013KT 9999 BKN015 OVC031 14/11
                        Q1019 TEMPO BKN014=
201512160950 METAR COR EGLL 160950Z AUTO 24015KT 9999 BKN016 OVC030 14/11
                        Q1018 TEMPO BKN014=
201512160920 METAR COR EGLL 160920Z AUTO 24012KT 9999 OVC013 13/11 Q1018
                        TEMPO BKN015=
201512160850 METAR COR EGLL 160850Z AUTO 23011KT 9999 BKN013 13/11 Q1017
                        TEMPO BKN015=
201512160820 METAR COR EGLL 160820Z AUTO 24012KT 9999 BKN015 13/11 Q1017
                        TEMPO BKN012=
201512160750 METAR EGLL 160750Z AUTO 22011KT 9999 BKN011 13/11 Q1016=
201512160720 METAR COR EGLL 160720Z AUTO 22010KT 9999 BKN013 OVC024 13/11
                        Q1016 TEMPO SCT013 BKN024=
201512160650 METAR COR EGLL 160650Z AUTO 23011KT 9999 FEW013 BKN022 13/11
                        Q1015 TEMPO BKN012=
201512160620 METAR COR EGLL 160620Z AUTO 22011KT 9999 BKN013 BKN025 13/12
                        Q1015 TEMPO SCT013=
201512160550 METAR COR EGLL 160550Z AUTO 21010KT 9999 BKN010 BKN021 13/12
                        Q1015 NOSIG=
201512160520 METAR COR EGLL 160520Z AUTO 21009KT 9999 BKN008 OVC021 13/12
                        Q1015 BECMG BKN010=
201512160450 METAR EGLL 160450Z AUTO 22010KT 9000 BKN006 OVC018 13/12
                        Q1014=
201512160420 METAR EGLL 160420Z AUTO 21009KT 7000 BKN006 OVC017 13/12
                        Q1014=
201512160350 METAR EGLL 160350Z AUTO 21010KT 7000 -RA BKN008 13/12 Q1014=
201512160320 METAR COR EGLL 160320Z AUTO 21011KT 6000 BKN010 OVC022 13/12
                        Q1014 NOSIG=
201512160250 METAR COR EGLL 160250Z AUTO 21010KT 9999 BKN013 OVC025 13/12
                        Q1015 TEMPO SHRA=
201512160220 METAR COR EGLL 160220Z AUTO 21010KT 9000 -RA BKN008 13/12
                        Q1014 BECMG BKN012=
201512160150 METAR COR EGLL 160150Z AUTO 20009KT 8000 OVC010 13/12 Q1014
                        NOSIG=
201512160120 METAR COR EGLL 160120Z AUTO 19009KT 7000 BKN008 OVC022 13/12
                        Q1014 TEMPO SCT008 BKN022=
201512160050 METAR COR EGLL 160050Z AUTO 20011KT 7000 -RA BKN007 OVC016
                        13/12 Q1014 BECMG BKN016=
201512160020 METAR COR EGLL 160020Z AUTO 19010KT 5000 -DZ FEW005 BKN009
                        BKN021 13/12 Q1015 BECMG BKN020=
201512152350 METAR COR EGLL 152350Z AUTO 19009KT 6000 OVC010 13/12 Q1015
                        BECMG SCT010=
201512152320 METAR COR EGLL 152320Z AUTO 19009KT 170V240 7000 BKN010 13/12
                        Q1015 BECMG SCT010=
201512152250 METAR COR EGLL 152250Z AUTO 19007KT 160V240 8000 BKN010 OVC023
                        13/12 Q1015 BECMG SCT010=
201512152220 METAR COR EGLL 152220Z AUTO 19008KT 160V250 9000 BKN011 13/12
                        Q1015 BECMG SCT011 BKN015=
201512152150 METAR COR EGLL 152150Z AUTO 19008KT 9999 SCT004 BKN015 13/12
                        Q1015 TEMPO BKN012=
201512152120 METAR COR EGLL 152120Z 19008KT 6000 FEW004 SCT006 BKN008
                        13/12 Q1015 NOSIG=
201512152050 METAR COR EGLL 152050Z 17007KT 5000 -RA BR FEW003 SCT005
                        BKN010 12/12 Q1015 TEMPO BKN008=
201512152020 METAR COR EGLL 152020Z 15007KT 7000 FEW004 SCT006 BKN009
                        12/11 Q1015 NOSIG=
201512151950 METAR COR EGLL 151950Z 16007KT 9999 FEW006 SCT008 BKN014
                        12/11 Q1015 TEMPO BKN008=
201512151920 METAR COR EGLL 151920Z AUTO 15008KT 6000 -RA BKN004/// OVC022///
                        //////TCU 12/11 Q1015 RERA REDZ BECMG
                        BKN007=
201512151850 METAR COR EGLL 151850Z AUTO 15009KT 4900 RA BKN004/// BKN014///
                        //////TCU 11/11 Q1015 REDZ BECMG
                        9999 NSW SCT007 BKN010=
201512151820 METAR COR EGLL 151820Z AUTO 15009KT 5000 -RA OVC005/// //////TCU
                        11/11 Q1015 TEMPO SCT007 BKN012=
201512151750 METAR COR EGLL 151750Z AUTO 14009KT 6000 -RA BKN005/// //////TCU
                        11/11 Q1015 NOSIG=
201512151720 METAR COR EGLL 151720Z AUTO 15008KT 6000 -RA BKN005/// //////TCU
                        11/10 Q1015 NOSIG=
201512151650 METAR COR EGLL 151650Z 14009KT 7000 -RA FEW005 SCT007 BKN010
                        11/10 Q1015 TEMPO BKN009=
201512151620 METAR COR EGLL 151620Z 15008KT 7000 -RA FEW006 SCT009 BKN010
                        11/11 Q1015 TEMPO BKN009=
201512151550 METAR COR EGLL 151550Z 14008KT 6000 -RA FEW007 SCT009 BKN012
                        11/11 Q1015 TEMPO RA BKN009=
201512151520 METAR COR EGLL 151520Z 15007KT 4600 -RADZ HZ FEW005 SCT008
                        BKN014 11/11 Q1015 RERA REDZ TEMPO
                        RADZ BKN008=
201512151450 METAR COR EGLL 151450Z 17009KT 4200 -RADZ HZ FEW005 SCT007
                        BKN008 12/11 Q1016 TEMPO RADZ=
201512151420 METAR COR EGLL 151420Z 16010KT 7000 FEW005 BKN007 12/11 Q1015
                        TEMPO 4800 RADZ=
201512151350 METAR COR EGLL 151350Z 16010KT 7000 FEW005 SCT007 BKN010
                        12/11 Q1016 BECMG 4500 RADZ BKN008=
201512151320 METAR COR EGLL 151320Z 16008KT 6000 2900N -DZRA FEW004 SCT006
                        BKN008 12/11 Q1016 BECMG 4000 RADZ=
201512151250 METAR COR EGLL 151250Z 14009KT 6000 FEW004 BKN006 12/11 Q1016
                        TEMPO SCT006 BKN010=
201512151220 METAR COR EGLL 151220Z 13008KT 6000 FEW004 BKN006 12/11 Q1016
                        TEMPO SCT006 BKN010=
201512151150 METAR COR EGLL 151150Z AUTO 13008KT 3700 HZ OVC004 12/11
                        Q1016 TEMPO 6000 BKN006=
201512151120 METAR COR EGLL 151120Z AUTO 13008KT 8000 BKN007 OVC018 12/11
                        Q1017 NOSIG=
201512151050 METAR COR EGLL 151050Z AUTO 13008KT 6000 BKN006 OVC028 12/11
                        Q1017 TEMPO SCT006 BKN011=
201512151020 METAR COR EGLL 151020Z AUTO 14007KT 5000 BR OVC005 12/11
                        Q1017 NOSIG=
201512150950 METAR COR EGLL 150950Z 13007KT 3800 BR FEW004 BKN005 11/11
                        Q1017 BECMG 5000 HZ=
201512150920 METAR COR EGLL 150920Z 11004KT 080V150 3200 BR FEW003 BKN005
                        11/11 Q1018 TEMPO BKN004=
201512150850 METAR COR EGLL 150850Z 09004KT 2300 BR SCT002 BKN004 11/10
                        Q1017 NOSIG=
201512150820 METAR COR EGLL 150820Z 12005KT 1900 BR FEW001 SCT002 BKN004
                        11/10 Q1017 NOSIG=
201512150750 METAR COR EGLL 150750Z 12007KT 2200 BR FEW001 BKN004 11/10
                        Q1017 NOSIG=
201512150720 METAR COR EGLL 150720Z 11004KT 2400 BR FEW001 BKN004 11/10
                        Q1017 NOSIG=
201512150650 METAR COR EGLL 150650Z 10004KT 2400 BR SCT003 BKN005 11/10
                        Q1017 TEMPO BKN003=
201512150620 METAR COR EGLL 150620Z 12004KT 2200 BR BKN003 OVC012 11/10
                        Q1017 NOSIG=
201512150550 METAR COR EGLL 150550Z 14004KT 2100 BR BKN004 11/10 Q1017
                        NOSIG=
201512150520 METAR COR EGLL 150520Z 12005KT 2400 BR BKN004 11/10 Q1017
                        TEMPO BKN005=
201512150450 METAR COR EGLL 150450Z 13005KT 3000 -DZ BR SCT005 BKN006
                        10/10 Q1017 TEMPO BKN004=
201512150420 METAR COR EGLL 150420Z 13004KT 2800 -DZ SCT005 OVC006 10/10
                        Q1017 TEMPO BKN004=
201512150350 METAR COR EGLL 150350Z 13004KT 3300 BR FEW004 OVC007 10/10
                        Q1017 TEMPO BKN004=
201512150320 METAR EGLL 150320Z AUTO 11004KT 2900 -DZ OVC003 10/09 Q1017=
201512150250 METAR EGLL 150250Z AUTO 13005KT 3100 HZ OVC003 10/09 Q1017
                        REDZ=
201512150220 METAR EGLL 150220Z AUTO 12005KT 3400 HZ OVC003 10/09 Q1017=
201512150150 METAR COR EGLL 150150Z AUTO 12006KT 3700 HZ OVC005 10/09
                        Q1017 NOSIG=
201512150120 METAR COR EGLL 150120Z AUTO 12005KT 4000 HZ OVC005 10/09
                        Q1017 NOSIG=
201512150050 METAR COR EGLL 150050Z AUTO 12005KT 4600 HZ OVC005 10/09
                        Q1017 NOSIG=
201512150020 METAR COR EGLL 150020Z AUTO 13005KT 5000 HZ OVC006 10/09
                        Q1017 TEMPO 4000=
201512142350 METAR COR EGLL 142350Z AUTO 13005KT 5000 HZ OVC007 10/08
                        Q1016 TEMPO 4000=
201512142320 METAR COR EGLL 142320Z AUTO 14006KT 6000 OVC008 09/08 Q1016
                        NOSIG=
201512142250 METAR COR EGLL 142250Z AUTO 12004KT 6000 OVC010 09/08 Q1016
                        TEMPO BKN008=
201512142220 METAR COR EGLL 142220Z AUTO 14004KT 6000 OVC010 09/08 Q1016
                        NOSIG=
201512142150 METAR COR EGLL 142150Z AUTO 11004KT 6000 -RA OVC011 09/08
                        Q1016 NOSIG=
201512142120 METAR COR EGLL 142120Z AUTO 12006KT 6000 BKN013 09/08 Q1016
                        NOSIG=
201512142050 METAR COR EGLL 142050Z AUTO 11006KT 6000 -RA FEW012/// //////TCU
                        09/08 Q1016 TEMPO BKN012=
201512142020 METAR COR EGLL 142020Z AUTO 13007KT 8000 -RA BKN012 09/08
                        Q1016 NOSIG=
201512141950 METAR COR EGLL 141950Z AUTO 16006KT 8000 -RA BKN011 09/07
                        Q1016 NOSIG=
201512141920 METAR COR EGLL 141920Z AUTO 14005KT 9000 OVC011 09/07 Q1016
                        NOSIG=
201512141850 METAR COR EGLL 141850Z AUTO 16006KT 9999 OVC010 09/07 Q1016
                        TEMPO SCT010=
201512141820 METAR COR EGLL 141820Z AUTO 17006KT 9999 OVC010 09/07 Q1015
                        TEMPO SCT010=
201512141750 METAR COR EGLL 141750Z AUTO 15005KT 9999 BKN012 09/07 Q1015
                        TEMPO SCT012=
201512141720 METAR COR EGLL 141720Z AUTO 12005KT 9999 FEW012 09/07 Q1015
                        TEMPO -RA BKN012=
201512141650 METAR COR EGLL 141650Z AUTO 13007KT 9999 NCD 09/07 Q1015
                        TEMPO -RA BKN014=
201512141620 METAR COR EGLL 141620Z AUTO 13007KT 9999 -RA NCD 09/07 Q1015
                        TEMPO BKN014=
201512141550 METAR COR EGLL 141550Z AUTO 14007KT 9999 -RA FEW018 SCT047
                        09/07 Q1015 TEMPO -RA BKN014=
201512141520 METAR COR EGLL 141520Z AUTO 15006KT 9999 BKN018 10/07 Q1015
                        TEMPO -RA BKN014=
201512141450 METAR COR EGLL 141450Z AUTO 16005KT 9999 BKN018 10/07 Q1015
                        TEMPO -RA BKN014=
201512141420 METAR COR EGLL 141420Z AUTO 16008KT 9999 FEW016 10/07 Q1015
                        TEMPO -RA BKN014=
201512141350 METAR COR EGLL 141350Z AUTO 15006KT 9999 NCD 10/07 Q1015
                        NOSIG=
201512141320 METAR COR EGLL 141320Z AUTO 15008KT 9999 BKN031 10/07 Q1015
                        NOSIG=
201512141250 METAR COR EGLL 141250Z AUTO 15006KT 9999 OVC031 10/07 Q1015
                        NOSIG=
201512141220 METAR COR EGLL 141220Z AUTO 16007KT 9999 OVC033 10/07 Q1015
                        NOSIG=
201512141150 METAR COR EGLL 141150Z AUTO 15006KT 9999 OVC032 09/07 Q1015
                        NOSIG=
201512141120 METAR COR EGLL 141120Z AUTO 15007KT 9999 OVC030 09/07 Q1016
                        NOSIG=
201512141050 METAR COR EGLL 141050Z AUTO 14006KT 9999 OVC031 09/07 Q1016
                        NOSIG=
201512141020 METAR COR EGLL 141020Z AUTO 13006KT 9000 OVC035 09/07 Q1016
                        TEMPO BKN014=
201512140950 METAR COR EGLL 140950Z AUTO 13006KT 9000 SCT010 OVC028 08/07
                        Q1016 TEMPO BKN012=
201512140920 METAR COR EGLL 140920Z AUTO 13006KT 8000 BKN010 OVC031 08/07
                        Q1016 TEMPO SCT010 BKN016=
201512140850 METAR COR EGLL 140850Z AUTO 14007KT 7000 -RA BKN012 08/06
                        Q1016 TEMPO SCT012 BKN016=
201512140820 METAR COR EGLL 140820Z AUTO 13006KT 9999 FEW011 SCT017 OVC029
                        08/06 Q1016 TEMPO BKN014=
201512140750 METAR COR EGLL 140750Z AUTO 13007KT 9999 SCT011 SCT020 OVC031
                        08/06 Q1016 TEMPO BKN014=
201512140720 METAR COR EGLL 140720Z AUTO 14007KT 9999 OVC013 08/06 Q1016
                        TEMPO BKN015=
201512140650 METAR COR EGLL 140650Z AUTO 14006KT 9999 OVC014 08/06 Q1016
                        TEMPO BKN016=
201512140620 METAR COR EGLL 140620Z AUTO 15006KT 9999 OVC017 08/06 Q1016
                        TEMPO BKN014=
201512140550 METAR COR EGLL 140550Z AUTO 15007KT 9999 OVC013 08/06 Q1016
                        TEMPO SCT013=
201512140520 METAR COR EGLL 140520Z AUTO 15008KT 9999 OVC013 08/06 Q1016
                        TEMPO SCT013=
201512140450 METAR COR EGLL 140450Z AUTO 14006KT 9999 BKN013 08/07 Q1016
                        TEMPO SCT013 BKN030=
201512140420 METAR COR EGLL 140420Z AUTO 14006KT 9999 OVC015 08/07 Q1016
                        TEMPO BKN014=
201512140350 METAR COR EGLL 140350Z AUTO 14008KT 9999 OVC018 09/07 Q1016
                        NOSIG=
201512140320 METAR COR EGLL 140320Z AUTO 14005KT 9000 BKN017 OVC044 08/07
                        Q1017 NOSIG=
201512140250 METAR COR EGLL 140250Z AUTO 13006KT 7000 BKN016 OVC045 08/07
                        Q1017 NOSIG=
201512140220 METAR COR EGLL 140220Z AUTO 13006KT 7000 BKN014 OVC046 08/07
                        Q1017 TEMPO SCT014 BKN046=
201512140150 METAR COR EGLL 140150Z AUTO 13005KT 8000 FEW017 OVC046 08/07
                        Q1017 NOSIG=
201512140120 METAR COR EGLL 140120Z AUTO 13007KT 7000 OVC046 08/07 Q1017
                        TEMPO 4500 HZ=
201512140050 METAR COR EGLL 140050Z AUTO 13009KT 6000 OVC046 08/07 Q1018
                        TEMPO 4500 HZ=
201512140020 METAR COR EGLL 140020Z AUTO 14006KT 3600 HZ FEW046 07/06
                        Q1018 NOSIG=
201512132350 METAR EGLL 132350Z AUTO 14005KT 4600 BR NCD 07/06 Q1018=
201512132320 METAR EGLL 132320Z AUTO 14006KT 4400 BR FEW014 06/06 Q1018=
201512132250 METAR COR EGLL 132250Z AUTO 15005KT 7000 SCT036 07/06 Q1018
                        NOSIG=
201512132220 METAR COR EGLL 132220Z AUTO 15006KT 8000 NCD 08/07 Q1018
                        NOSIG=
201512132150 METAR COR EGLL 132150Z AUTO 16006KT 9999 NCD 08/07 Q1018
                        TEMPO BKN014=
201512132120 METAR COR EGLL 132120Z AUTO 16006KT 8000 SCT013 09/08 Q1018
                        TEMPO BKN013=
201512132050 METAR COR EGLL 132050Z AUTO 15005KT 7000 BKN010 BKN036 09/08
                        Q1019 TEMPO SCT010 BKN036=
201512132020 METAR COR EGLL 132020Z AUTO 17005KT 9999 BKN011 10/08 Q1019
                        NOSIG=
201512131950 METAR EGLL 131950Z AUTO 18007KT 8000 BKN009 10/09 Q1019=
201512131920 METAR EGLL 131920Z AUTO 15004KT 4000 BR FEW007 OVC048 08/08
                        Q1018=
201512131850 METAR EGLL 131850Z AUTO 16005KT 130V200 3700 BR FEW027 BKN042
                        08/08 Q1018=
201512131820 METAR EGLL 131820Z AUTO 13004KT 4900 BR FEW005 SCT024 BKN047
                        09/08 Q1018=
201512131750 METAR COR EGLL 131750Z AUTO 09004KT 5000 BR SCT005 OVC037
                        09/08 Q1018 NOSIG=
201512131720 METAR COR EGLL 131720Z AUTO 09003KT 5000 HZ SCT006 BKN022
                        OVC048 09/08 Q1018 NOSIG=
201512131650 METAR COR EGLL 131650Z AUTO 08003KT 6000 FEW007 SCT020 OVC043
                        09/08 Q1018 NOSIG=
201512131620 METAR COR EGLL 131620Z AUTO 09002KT 5000 HZ SCT004 OVC042
                        09/08 Q1018 NOSIG=
201512131550 METAR COR EGLL 131550Z AUTO 09003KT 5000 HZ BKN003 09/08
                        Q1018 BECMG SCT005 BKN040=
201512131520 METAR COR EGLL 131520Z AUTO 12003KT 6000 BKN003 09/08 Q1018
                        BECMG SCT005 BKN040=
201512131450 METAR COR EGLL 131450Z AUTO 15001KT 6000 OVC003 09/08 Q1018
                        BECMG BKN005=
201512131420 METAR COR EGLL 131420Z AUTO 17004KT 7000 OVC003 09/08 Q1018
                        BECMG BKN005=
201512131350 METAR COR EGLL 131350Z AUTO 12003KT 7000 OVC003 09/08 Q1018
                        BECMG BKN005=
201512131320 METAR COR EGLL 131320Z AUTO VRB03KT 8000 BKN003 OVC012 09/08
                        Q1019 BECMG BKN005=
201512131250 METAR COR EGLL 131250Z AUTO 10004KT 7000 OVC003 08/08 Q1019
                        NOSIG=
201512131220 METAR COR EGLL 131220Z AUTO 09005KT 6000 OVC003 08/07 Q1019
                        NOSIG=
201512131150 METAR COR EGLL 131150Z AUTO 09004KT 7000 OVC003 08/07 Q1019
                        NOSIG=
201512131120 METAR EGLL 131120Z AUTO 09005KT 6000 OVC002 07/07 Q1019=
201512131050 METAR EGLL 131050Z AUTO 08005KT 3300 BR OVC002 07/06 Q1019=
201512131020 METAR EGLL 131020Z AUTO 09005KT 5000 BR OVC003 07/06 Q1019=
201512130950 METAR EGLL 130950Z AUTO 10007KT 3800 BR OVC001 07/06 Q1019
                        RERA=
201512130920 METAR EGLL 130920Z AUTO 09007KT 2300 -RA OVC002 07/06 Q1019
                        RERA REDZ=
201512130850 METAR EGLL 130850Z AUTO 08007KT 1800 -RA OVC002 07/06 Q1019
                        RERA REDZ=
201512130820 METAR EGLL 130820Z AUTO 08005KT 2400 -RA BKN002 06/06 Q1019=
201512130750 METAR COR EGLL 130750Z AUTO 08006KT 2300 -RA OVC003 06/06
                        Q1019 TEMPO SCT003 BKN005=
201512130720 METAR EGLL 130720Z AUTO 08005KT 040V110 2500 -RA BKN002 06/06
                        Q1018=
201512130650 METAR COR EGLL 130650Z AUTO 06004KT 2800 -RA BKN002 06/06
                        Q1018 REDZ TEMPO SCT002 BKN005=
201512130620 METAR COR EGLL 130620Z AUTO 06005KT 3100 -RA BKN003 OVC018
                        06/06 Q1018 TEMPO SCT003 BKN005=
201512130550 METAR COR EGLL 130550Z AUTO 06005KT 2600 -RADZ BKN003 OVC016
                        06/06 Q1018 RERA REDZ TEMPO BKN005=
201512130520 METAR EGLL 130520Z AUTO 06005KT 2900 -RADZ BKN002 OVC021
                        06/06 Q1018 REDZ=
201512130450 METAR EGLL 130450Z AUTO 05005KT 2100 DZ BKN003 OVC017 06/06
                        Q1018=
201512130420 METAR EGLL 130420Z AUTO 06004KT 2500 -RADZ BKN004 OVC017
                        07/06 Q1017 RERA REDZ=
201512130350 METAR EGLL 130350Z AUTO 05004KT 010V080 3900 RA BKN004 BKN012
                        07/06 Q1017 REDZ=
201512130320 METAR EGLL 130320Z AUTO 06006KT 3100 -RADZ BKN003 OVC013
                        07/06 Q1017 REDZ=
201512130250 METAR COR EGLL 130250Z AUTO 04004KT 360V060 3400 DZ OVC005
                        07/06 Q1017 TEMPO 6000 -DZ SCT005
                        BKN012=
201512130220 METAR EGLL 130220Z AUTO 04007KT 5000 -RADZ BKN004 OVC013
                        08/07 Q1017=
201512130150 METAR COR EGLL 130150Z AUTO 01004KT 330V050 9999 -RA OVC012
                        08/07 Q1016 TEMPO BKN008=
201512130120 METAR COR EGLL 130120Z AUTO 01006KT 340V040 9999 -RA OVC012
                        09/08 Q1016 TEMPO 4000 RA=
201512130050 METAR COR EGLL 130050Z AUTO 26014KT 230V350 9999 -RA OVC015
                        13/09 Q1015 TEMPO RA BKN010=
201512130020 METAR COR EGLL 130020Z AUTO 24013KT 9999 BKN019/// //////TCU
                        13/09 Q1015 TEMPO RA BKN010=
201512122350 METAR COR EGLL 122350Z AUTO 24014KT 9999 BKN019/// //////TCU
                        13/09 Q1015 TEMPO RA BKN012=
201512122320 METAR COR EGLL 122320Z AUTO 24014KT 9999 BKN020 13/09 Q1015
                        TEMPO 4000 RA BKN012=
201512122250 METAR COR EGLL 122250Z AUTO 24016KT 9999 BKN019 13/09 Q1014
                        TEMPO RA BKN014=
201512122220 METAR COR EGLL 122220Z AUTO 24018KT 9999 BKN019 13/09 Q1014
                        TEMPO -RA BKN014=
201512122150 METAR COR EGLL 122150Z AUTO 24017KT 9999 BKN021 13/09 Q1014
                        TEMPO -RA BKN014=
201512122120 METAR COR EGLL 122120Z AUTO 24017KT 9999 BKN021 13/09 Q1014
                        TEMPO -RADZ BKN014=
201512122050 METAR COR EGLL 122050Z AUTO 23019KT 9999 BKN020 13/09 Q1014
                        TEMPO -RADZ BKN014=
201512122020 METAR COR EGLL 122020Z AUTO 24019KT 9999 BKN022 13/09 Q1014
                        NOSIG=
201512121950 METAR COR EGLL 121950Z AUTO 24019KT 9999 OVC022 13/09 Q1014
                        NOSIG=
201512121920 METAR COR EGLL 121920Z AUTO 23020KT 9999 BKN024 14/09 Q1013
                        NOSIG=
201512121850 METAR COR EGLL 121850Z AUTO 23019KT 9999 BKN024 13/09 Q1013
                        NOSIG=
201512121820 METAR COR EGLL 121820Z AUTO 23021KT 9999 BKN022 BKN038 13/09
                        Q1013 NOSIG=
201512121750 METAR COR EGLL 121750Z AUTO 23020KT 9999 BKN022 BKN036 13/09
                        Q1013 NOSIG=
201512121720 METAR COR EGLL 121720Z AUTO 23022KT 9999 BKN022 OVC039 13/09
                        Q1014 NOSIG=
201512121650 METAR COR EGLL 121650Z AUTO 24020KT 9999 BKN021 13/09 Q1014
                        NOSIG=
201512121620 METAR COR EGLL 121620Z AUTO 23020G30KT 9999 BKN020 13/09
                        Q1014 NOSIG=
201512121550 METAR COR EGLL 121550Z AUTO 23021KT 9999 BKN019 13/09 Q1014
                        NOSIG=
201512121520 METAR COR EGLL 121520Z AUTO 23021G32KT 9999 BKN021 13/09
                        Q1014 NOSIG=
201512121450 METAR COR EGLL 121450Z AUTO 23022KT 9999 OVC022 13/09 Q1014
                        NOSIG=
201512121420 METAR COR EGLL 121420Z AUTO 23021G32KT 9999 BKN024 13/08
                        Q1015 NOSIG=
201512121350 METAR COR EGLL 121350Z AUTO 23018KT 9999 BKN023 OVC039 13/08
                        Q1015 NOSIG=
201512121320 METAR COR EGLL 121320Z AUTO 23019G29KT 9999 BKN024 13/09
                        Q1016 NOSIG=
201512121250 METAR COR EGLL 121250Z AUTO 23019G31KT 9999 OVC021 13/09
                        Q1016 NOSIG=
201512121220 METAR COR EGLL 121220Z AUTO 22017KT 190V260 9999 BKN018 13/09
                        Q1016 NOSIG=
201512121150 METAR COR EGLL 121150Z AUTO 22013KT 190V250 9999 SCT022 12/10
                        Q1017 TEMPO BKN012=
201512121120 METAR COR EGLL 121120Z AUTO 20013KT 170V240 9999 -RA FEW008
                        11/09 Q1018 TEMPO BKN012=
201512121050 METAR COR EGLL 121050Z AUTO 19013KT 160V230 9999 BKN008 10/09
                        Q1018 TEMPO BKN012=
201512121020 METAR COR EGLL 121020Z AUTO 19011KT 160V240 9999 BKN013 BKN046
                        10/08 Q1019 NOSIG=
201512120950 METAR COR EGLL 120950Z AUTO 19008KT 160V250 9999 -RA BKN015
                        09/07 Q1020 BECMG BKN012=
201512120920 METAR COR EGLL 120920Z AUTO 18007KT 140V230 9999 -RA SCT016
                        OVC049 08/05 Q1020 BECMG BKN012=
201512120850 METAR COR EGLL 120850Z AUTO 17008KT 150V230 9999 BKN020 07/04
                        Q1020 BECMG BKN012=
201512120820 METAR COR EGLL 120820Z AUTO 17007KT 9999 BKN021 07/04 Q1021
                        BECMG BKN012=
201512120750 METAR COR EGLL 120750Z AUTO 17006KT 140V220 9999 OVC022 07/04
                        Q1021 TEMPO -RA BKN012=
201512120720 METAR COR EGLL 120720Z AUTO 18005KT 160V250 9999 BKN030 07/04
                        Q1022 TEMPO -RA BKN012=
201512120650 METAR COR EGLL 120650Z AUTO 22007KT 9999 BKN029 OVC043 07/04
                        Q1022 TEMPO -RA BKN014=
201512120620 METAR COR EGLL 120620Z AUTO 22006KT 180V270 9999 SCT037 OVC044
                        07/04 Q1022 TEMPO -RA BKN014=
201512120550 METAR COR EGLL 120550Z AUTO 24005KT 9999 -RA FEW028 BKN042
                        07/04 Q1023 TEMPO BKN014=
201512120520 METAR COR EGLL 120520Z AUTO 23006KT 9999 -RA NCD 07/04 Q1023
                        TEMPO BKN014=
201512120450 METAR COR EGLL 120450Z AUTO 19007KT 9999 BKN046/// //////TCU
                        06/04 Q1023 TEMPO -RA BKN014=
201512120420 METAR COR EGLL 120420Z AUTO 21004KT 9999 //////TCU 06/04
                        Q1023 TEMPO RA BKN014=
201512120350 METAR COR EGLL 120350Z AUTO 21004KT 9999 //////TCU 06/04
                        Q1023 NOSIG=
201512120320 METAR COR EGLL 120320Z AUTO 22004KT 9999 NCD 06/04 Q1023
                        NOSIG=
201512120250 METAR COR EGLL 120250Z AUTO 21004KT 9999 NCD 06/03 Q1024
                        NOSIG=
201512120220 METAR EGLL 120220Z AUTO 24003KT 9999 NCD 06/03 Q1024=
201512120150 METAR EGLL 120150Z AUTO 26004KT 9999 NCD 06/03 Q1024=
201512120120 METAR EGLL 120120Z AUTO 26005KT 9999 NCD 07/03 Q1024=
201512120050 METAR COR EGLL 120050Z AUTO 25006KT 9999 NCD 06/03 Q1024
                        NOSIG=
201512120020 METAR COR EGLL 120020Z AUTO 24005KT 9999 NCD 06/03 Q1024
                        NOSIG=
201512112350 METAR COR EGLL 112350Z AUTO 26004KT 9999 NCD 07/03 Q1024
                        NOSIG=
201512112320 METAR COR EGLL 112320Z AUTO 26004KT 9999 NCD 06/03 Q1024
                        NOSIG=
201512112250 METAR COR EGLL 112250Z AUTO 26006KT 9999 NCD 06/03 Q1024
                        NOSIG=
201512112220 METAR COR EGLL 112220Z AUTO 26006KT 9999 NCD 07/03 Q1024
                        NOSIG=
201512112150 METAR COR EGLL 112150Z AUTO 26007KT 9999 NCD 07/04 Q1024
                        NOSIG=
201512112120 METAR COR EGLL 112120Z AUTO 27007KT 9999 NCD 07/04 Q1024
                        NOSIG=
201512112050 METAR COR EGLL 112050Z AUTO 28009KT 9999 NCD 07/04 Q1023
                        NOSIG=
201512112020 METAR COR EGLL 112020Z AUTO 26008KT 9999 NCD 07/04 Q1023
                        NOSIG=
201512111950 METAR COR EGLL 111950Z AUTO 25008KT 9999 NCD 07/04 Q1023
                        NOSIG=
201512111920 METAR COR EGLL 111920Z AUTO 26006KT 9999 NCD 08/05 Q1023
                        NOSIG=
201512111850 METAR COR EGLL 111850Z AUTO 25008KT 9999 NCD 08/05 Q1023
                        NOSIG=
201512111820 METAR EGLL 111820Z AUTO 27008KT 9999 NCD 08/05 Q1022=
201512111750 METAR COR EGLL 111750Z AUTO 27007KT 9999 NCD 08/05 Q1022
                        NOSIG=
201512111720 METAR COR EGLL 111720Z AUTO 27009KT 9999 BKN044 09/05 Q1022
                        NOSIG=
201512111650 METAR COR EGLL 111650Z AUTO 25011KT 9999 BKN044 09/05 Q1021
                        NOSIG=
201512111620 METAR COR EGLL 111620Z AUTO 25011KT 9999 BKN039 09/06 Q1021
                        NOSIG=
201512111550 METAR EGLL 111550Z AUTO 27010KT 9999 -RA BKN039 10/06 Q1021=
201512111520 METAR COR EGLL 111520Z AUTO 28011KT 9999 BKN021 OVC036 09/07
                        Q1021 NOSIG=
201512111450 METAR COR EGLL 111450Z AUTO 29011KT 9000 -RA BKN011 OVC023
                        09/07 Q1021 BECMG SCT011 BKN023=
201512111420 METAR COR EGLL 111420Z AUTO 26019KT 9999 BKN021 BKN034 11/07
                        Q1020 TEMPO -RA BKN014=
201512111350 METAR COR EGLL 111350Z AUTO 25015KT 9999 BKN022 11/07 Q1021
                        TEMPO -RA BKN014=
201512111320 METAR COR EGLL 111320Z AUTO 25014KT 9999 BKN022 11/07 Q1021
                        TEMPO -RA BKN014=
201512111250 METAR COR EGLL 111250Z AUTO 24013KT 9999 BKN021 BKN033 10/06
                        Q1021 TEMPO -RA BKN014=
201512111220 METAR COR EGLL 111220Z AUTO 25015KT 9999 BKN023 OVC036 10/06
                        Q1021 TEMPO RA BKN014=
201512111150 METAR COR EGLL 111150Z AUTO 24013KT 9999 FEW025 OVC040 10/06
                        Q1022 NOSIG=
201512111120 METAR COR EGLL 111120Z AUTO 24014G26KT 9999 OVC046 10/06
                        Q1022 NOSIG=
201512111050 METAR COR EGLL 111050Z AUTO 24014KT 9999 BKN037 10/06 Q1022
                        NOSIG=
201512111020 METAR COR EGLL 111020Z AUTO 24014KT 9999 BKN031 10/06 Q1022
                        NOSIG=
201512110950 METAR COR EGLL 110950Z AUTO 23011KT 9999 SCT030 OVC042 10/07
                        Q1022 NOSIG=
201512110920 METAR COR EGLL 110920Z AUTO 24011KT 9999 BKN041 10/07 Q1022
                        NOSIG=
201512110850 METAR COR EGLL 110850Z AUTO 24011KT 9999 FEW022 10/07 Q1022
                        NOSIG=
201512110820 METAR COR EGLL 110820Z AUTO 24010KT 9999 FEW024 SCT034 10/07
                        Q1022 NOSIG=
201512110750 METAR COR EGLL 110750Z AUTO 24012KT 9999 NCD 10/06 Q1021
                        NOSIG=
201512110720 METAR COR EGLL 110720Z AUTO 25013KT 9999 NCD 10/07 Q1021
                        NOSIG=
201512110650 METAR COR EGLL 110650Z AUTO 23013KT 9999 FEW032 10/07 Q1021
                        NOSIG=
201512110620 METAR COR EGLL 110620Z AUTO 24012KT 9999 FEW026 10/07 Q1021
                        NOSIG=
201512110550 METAR COR EGLL 110550Z AUTO 24012KT 9999 SCT020 10/07 Q1021
                        NOSIG=
201512110520 METAR COR EGLL 110520Z AUTO 23012KT 9999 FEW023 SCT042 10/07
                        Q1021 NOSIG=
201512110450 METAR COR EGLL 110450Z AUTO 23010KT 9999 NCD 10/08 Q1020
                        NOSIG=
201512110420 METAR COR EGLL 110420Z AUTO 23011KT 9999 FEW026 10/08 Q1021
                        NOSIG=
201512110350 METAR COR EGLL 110350Z AUTO 24010KT 9999 SCT019 10/08 Q1021
                        NOSIG=
201512110320 METAR COR EGLL 110320Z AUTO 23010KT 9999 FEW018 10/08 Q1021
                        NOSIG=
201512110250 METAR COR EGLL 110250Z AUTO 24008KT 9999 BKN013 10/08 Q1020
                        BECMG BKN016=
201512110220 METAR COR EGLL 110220Z AUTO 24008KT 9999 SCT014 10/08 Q1020
                        NOSIG=
201512110150 METAR COR EGLL 110150Z AUTO 23009KT 9999 FEW017 09/08 Q1021
                        NOSIG=
201512110120 METAR COR EGLL 110120Z AUTO 26005KT 9999 FEW006 BKN018 09/09
                        Q1021 NOSIG=
201512110050 METAR COR EGLL 110050Z AUTO 22006KT 9999 FEW007 09/08 Q1020
                        NOSIG=
201512110020 METAR COR EGLL 110020Z AUTO 23007KT 9999 FEW015 BKN030 09/08
                        Q1021 NOSIG=
201512102350 METAR COR EGLL 102350Z AUTO 22008KT 9999 BKN015 BKN031 09/08
                        Q1021 NOSIG=
201512102320 METAR COR EGLL 102320Z AUTO 21007KT 9999 BKN018 09/08 Q1021
                        NOSIG=
201512102250 METAR COR EGLL 102250Z AUTO 21007KT 9999 -RA BKN034/// //////TCU
                        09/08 Q1021 NOSIG=
201512102220 METAR COR EGLL 102220Z AUTO 23009KT 9999 -RA BKN039/// //////TCU
                        10/08 Q1021 NOSIG=
201512102150 METAR COR EGLL 102150Z AUTO 24008KT 9999 -RA OVC042/// //////TCU
                        10/08 Q1022 NOSIG=
201512102120 METAR COR EGLL 102120Z AUTO 27004KT 220V290 9999 -RA FEW016///
                        OVC041/// //////TCU 09/08 Q1022 TEMPO
                        RA=
201512102050 METAR COR EGLL 102050Z AUTO 25006KT 200V280 9999 -RA FEW017///
                        BKN038/// //////CB 10/08 Q1022 TEMPO
                        RA=
201512102020 METAR COR EGLL 102020Z AUTO 23005KT 190V250 9999 -RA BKN038///
                        //////TCU 09/08 Q1022 TEMPO 4800
                        RA BKN014=
201512101950 METAR COR EGLL 101950Z AUTO VRB03KT 9999 -RA BKN038 09/08
                        Q1022 TEMPO RADZ BKN012=
201512101920 METAR COR EGLL 101920Z AUTO 29010KT 9999 -RA SCT007/// BKN034///
                        //////TCU 11/09 Q1022 TEMPO 4500
                        RADZ BKN010=
201512101850 METAR COR EGLL 101850Z AUTO 23013KT 9999 -RA SCT009/// BKN033///
                        //////CB 11/10 Q1022 TEMPO 4000 -RADZ
                        BKN009=
201512101820 METAR COR EGLL 101820Z AUTO 23014KT 9999 -RA BKN009 11/10
                        Q1022 TEMPO 4000 -RADZ=
201512101750 METAR COR EGLL 101750Z AUTO 21011KT 9999 BKN009 OVC022 11/10
                        Q1022 TEMPO 4000 -RADZ=
201512101720 METAR COR EGLL 101720Z AUTO 22012KT 9999 -RA BKN011 OVC029
                        11/09 Q1022 TEMPO 4000 -RADZ BKN009=
201512101650 METAR COR EGLL 101650Z AUTO 22016KT 9999 BKN014 12/09 Q1022
                        TEMPO 4000 -RADZ=
201512101620 METAR COR EGLL 101620Z AUTO 22016KT 9999 BKN017 12/08 Q1022
                        TEMPO -RA BKN014=
201512101550 METAR COR EGLL 101550Z AUTO 23016KT 9999 BKN022 12/08 Q1022
                        TEMPO -RA BKN014=
201512101520 METAR COR EGLL 101520Z AUTO 22016KT 9999 BKN023 BKN044 12/08
                        Q1022 TEMPO -RA BKN014=
201512101450 METAR COR EGLL 101450Z AUTO 22013G23KT 190V250 9999 FEW023
                        OVC039 12/08 Q1022 NOSIG=
201512101420 METAR COR EGLL 101420Z AUTO 23017KT 9999 BKN022 12/08 Q1022
                        NOSIG=
201512101350 METAR COR EGLL 101350Z AUTO 22015KT 9999 BKN021 12/08 Q1023
                        NOSIG=
201512101320 METAR COR EGLL 101320Z AUTO 20014KT 180V240 9999 SCT019 12/08
                        Q1023 NOSIG=
201512101250 METAR COR EGLL 101250Z AUTO 22013KT 9999 BKN018 12/08 Q1024
                        NOSIG=
201512101220 METAR COR EGLL 101220Z AUTO 22014KT 9999 BKN016 BKN048 12/08
                        Q1024 NOSIG=
201512101150 METAR COR EGLL 101150Z AUTO 21016KT 9999 FEW014 11/09 Q1024
                        NOSIG=
201512101120 METAR COR EGLL 101120Z AUTO 21014KT 9999 -RA SCT018 BKN038
                        11/09 Q1025 NOSIG=
201512101050 METAR COR EGLL 101050Z AUTO 21014KT 9999 BKN022 OVC042 12/08
                        Q1025 NOSIG=
201512101020 METAR COR EGLL 101020Z AUTO 22014KT 9999 BKN026 12/08 Q1025
                        NOSIG=
201512100950 METAR COR EGLL 100950Z AUTO 22016KT 190V250 9999 FEW026 BKN041
                        12/07 Q1025 NOSIG=
201512100920 METAR COR EGLL 100920Z AUTO 22013KT 9999 FEW026 BKN048 12/07
                        Q1025 NOSIG=
201512100850 METAR COR EGLL 100850Z AUTO 22012KT 9999 NCD 11/07 Q1025
                        NOSIG=
201512100820 METAR COR EGLL 100820Z AUTO 22009KT 9999 FEW033 11/06 Q1026
                        NOSIG=
201512100750 METAR COR EGLL 100750Z AUTO 22012KT 9999 FEW037 BKN049 11/06
                        Q1026 NOSIG=
201512100720 METAR COR EGLL 100720Z AUTO 22014KT 9999 NCD 11/06 Q1026
                        NOSIG=
201512100650 METAR COR EGLL 100650Z AUTO 22013KT 9999 FEW030 OVC044 11/07
                        Q1026 NOSIG=
201512100620 METAR COR EGLL 100620Z AUTO 22014G24KT 9999 BKN031 11/07
                        Q1026 NOSIG=
201512100550 METAR COR EGLL 100550Z AUTO 21011KT 9999 OVC049 11/07 Q1026
                        NOSIG=
201512100520 METAR COR EGLL 100520Z AUTO 23013KT 9999 SCT031 SCT047 11/07
                        Q1027 NOSIG=
201512100450 METAR COR EGLL 100450Z AUTO 22015KT 9999 -RA BKN024 BKN040
                        11/07 Q1026 NOSIG=
201512100420 METAR COR EGLL 100420Z AUTO 22015G26KT 9999 OVC040 11/06
                        Q1026 NOSIG=
201512100350 METAR COR EGLL 100350Z AUTO 21012KT 9999 OVC045 11/07 Q1027
                        NOSIG=
201512100320 METAR COR EGLL 100320Z AUTO 21013KT 9999 OVC044 11/07 Q1027
                        NOSIG=
201512100250 METAR COR EGLL 100250Z AUTO 21012KT 9999 FEW032 OVC044 11/07
                        Q1028 NOSIG=
201512100220 METAR COR EGLL 100220Z AUTO 21012KT 9999 SCT025 OVC041 11/07
                        Q1028 NOSIG=
201512100150 METAR COR EGLL 100150Z AUTO 22016G27KT 9999 BKN022 OVC049
                        11/07 Q1028 NOSIG=
201512100120 METAR COR EGLL 100120Z AUTO 22014G24KT 9999 -RA BKN023 OVC039
                        11/07 Q1028 NOSIG=
201512100050 METAR COR EGLL 100050Z AUTO 22014KT 9999 BKN025 OVC039 11/07
                        Q1029 NOSIG=
201512100020 METAR COR EGLL 100020Z AUTO 21013KT 9999 OVC048 11/06 Q1029
                        NOSIG=
201512092350 METAR COR EGLL 092350Z AUTO 21013KT 9999 FEW026 OVC044 11/07
                        Q1029 NOSIG=
201512092320 METAR COR EGLL 092320Z AUTO 22013KT 9999 BKN044 11/07 Q1029
                        NOSIG=
201512092250 METAR COR EGLL 092250Z AUTO 21013KT 9999 FEW024 BKN043 11/07
                        Q1029 NOSIG=
201512092220 METAR COR EGLL 092220Z AUTO 22014KT 9999 FEW016 BKN035 11/08
                        Q1030 NOSIG=
201512092150 METAR COR EGLL 092150Z AUTO 22012KT 7000 -RA BKN017 OVC031
                        11/08 Q1030 NOSIG=
201512092120 METAR COR EGLL 092120Z AUTO 22012KT 9999 BKN027 11/07 Q1030
                        NOSIG=
201512092050 METAR COR EGLL 092050Z AUTO 22012KT 9999 FEW034 BKN042 11/07
                        Q1030 NOSIG=
201512092020 METAR COR EGLL 092020Z AUTO 22014KT 9999 BKN045 11/07 Q1031
                        NOSIG=
201512091950 METAR COR EGLL 091950Z AUTO 22014KT 9999 FEW022 OVC038 11/07
                        Q1031 NOSIG=
201512091920 METAR COR EGLL 091920Z AUTO 22012KT 9999 -RA BKN018 OVC032
                        11/07 Q1031 NOSIG=
201512091850 METAR COR EGLL 091850Z AUTO 21012KT 9999 BKN021 10/07 Q1031
                        NOSIG=
201512091820 METAR COR EGLL 091820Z AUTO 21012KT 9999 FEW025 BKN034 10/06
                        Q1031 NOSIG=
201512091750 METAR COR EGLL 091750Z AUTO 22012KT 9999 FEW042 10/06 Q1031
                        NOSIG=
201512091720 METAR COR EGLL 091720Z AUTO 22012G25KT 9999 NCD 10/05 Q1031
                        NOSIG=
201512091650 METAR COR EGLL 091650Z AUTO 22011KT 9999 NCD 10/06 Q1032
                        NOSIG=
201512091620 METAR COR EGLL 091620Z AUTO 22012KT 9999 FEW037 11/06 Q1032
                        NOSIG=
201512091550 METAR COR EGLL 091550Z AUTO 22012KT 9999 FEW032 11/06 Q1032
                        NOSIG=
201512091520 METAR COR EGLL 091520Z AUTO 21011KT 180V240 9999 NCD 11/06
                        Q1032 NOSIG=
201512091450 METAR COR EGLL 091450Z AUTO 22015KT 9999 NCD 11/05 Q1032
                        NOSIG=
201512091420 METAR COR EGLL 091420Z AUTO 22014KT 9999 FEW030 12/05 Q1033
                        NOSIG=
201512091350 METAR COR EGLL 091350Z AUTO 23016KT 9999 FEW030 12/06 Q1033
                        NOSIG=
201512091320 METAR COR EGLL 091320Z AUTO 23013KT 9999 NCD 12/05 Q1033
                        NOSIG=
201512091250 METAR COR EGLL 091250Z AUTO 23012G22KT 200V260 9999 FEW026
                        12/06 Q1033 NOSIG=
201512091220 METAR COR EGLL 091220Z AUTO 23011G21KT 9999 SCT024 11/06
                        Q1034 NOSIG=
201512091150 METAR COR EGLL 091150Z AUTO 23011KT 9999 NCD 11/06 Q1034
                        NOSIG=
201512091120 METAR COR EGLL 091120Z AUTO 22010KT 9999 NCD 10/05 Q1034
                        NOSIG=
201512091050 METAR COR EGLL 091050Z AUTO 22008KT 180V240 9999 NCD 09/05
                        Q1035 NOSIG=
201512091020 METAR COR EGLL 091020Z AUTO 22008KT 170V250 9999 NCD 08/05
                        Q1035 NOSIG=
201512090950 METAR COR EGLL 090950Z AUTO 21008KT 170V260 9999 NCD 07/04
                        Q1035 NOSIG=
201512090920 METAR COR EGLL 090920Z AUTO 21008KT 9999 NCD 07/04 Q1034
                        NOSIG=
201512090850 METAR COR EGLL 090850Z AUTO 21008KT 9999 NCD 05/03 Q1034
                        NOSIG=
201512090820 METAR COR EGLL 090820Z AUTO 23007KT 9999 NCD 05/03 Q1034
                        NOSIG=
201512090750 METAR COR EGLL 090750Z AUTO 23008KT 9999 NCD 05/03 Q1034
                        NOSIG=
201512090720 METAR COR EGLL 090720Z AUTO 22007KT 9999 NCD 04/02 Q1034
                        NOSIG=
201512090650 METAR COR EGLL 090650Z AUTO 22007KT 190V250 9999 NCD 04/02
                        Q1034 NOSIG=
201512090620 METAR COR EGLL 090620Z AUTO 23006KT 9999 NCD 04/03 Q1034
                        NOSIG=
201512090550 METAR COR EGLL 090550Z AUTO 21005KT 9999 NCD 04/03 Q1033
                        NOSIG=
201512090520 METAR COR EGLL 090520Z AUTO 21005KT 9999 NCD 03/02 Q1033
                        NOSIG=
201512090450 METAR COR EGLL 090450Z AUTO 19005KT 9999 NCD 04/02 Q1033
                        NOSIG=
201512090420 METAR COR EGLL 090420Z AUTO 21005KT 9999 NCD 04/03 Q1033
                        NOSIG=
201512090350 METAR COR EGLL 090350Z AUTO 19005KT 9999 NCD 05/03 Q1033
                        NOSIG=
201512090320 METAR COR EGLL 090320Z AUTO 22004KT 130V250 9999 NCD 05/03
                        Q1033 NOSIG=
201512090250 METAR COR EGLL 090250Z AUTO 21005KT 9999 NCD 05/03 Q1032
                        NOSIG=
201512090220 METAR COR EGLL 090220Z AUTO 22004KT 9999 NCD 05/03 Q1032
                        NOSIG=
201512090150 METAR COR EGLL 090150Z AUTO 25007KT 9999 NCD 06/04 Q1032
                        NOSIG=
201512090120 METAR COR EGLL 090120Z AUTO 25008KT 9999 NCD 06/04 Q1031
                        NOSIG=
201512090050 METAR COR EGLL 090050Z AUTO 24008KT 9999 NCD 06/04 Q1031
                        NOSIG=
201512090020 METAR COR EGLL 090020Z AUTO 24007KT 9999 NCD 07/04 Q1031
                        NOSIG=
201512082350 METAR COR EGLL 082350Z AUTO 25007KT 9999 NCD 07/04 Q1030
                        NOSIG=
201512082320 METAR COR EGLL 082320Z AUTO 24009KT 9999 NCD 07/04 Q1030
                        NOSIG=
201512082250 METAR COR EGLL 082250Z AUTO 25009KT 9999 NCD 08/04 Q1029
                        NOSIG=
201512082220 METAR COR EGLL 082220Z AUTO 25009KT 9999 NCD 08/04 Q1029
                        NOSIG=
201512082150 METAR COR EGLL 082150Z AUTO 26011KT 9999 NCD 08/04 Q1028
                        NOSIG=
201512082120 METAR COR EGLL 082120Z AUTO 26011KT 9999 NCD 09/04 Q1027
                        NOSIG=
201512082050 METAR COR EGLL 082050Z AUTO 26011KT 9999 FEW032 09/05 Q1026
                        NOSIG=
201512082020 METAR COR EGLL 082020Z AUTO 25014KT 9999 FEW029 09/05 Q1026
                        NOSIG=
201512081950 METAR COR EGLL 081950Z AUTO 25014KT 9999 SCT028 BKN041 09/04
                        Q1025 NOSIG=
201512081920 METAR COR EGLL 081920Z AUTO 23014KT 9999 BKN032 10/04 Q1025
                        NOSIG=
201512081850 METAR COR EGLL 081850Z AUTO 23011KT 9999 FEW035 09/04 Q1024
                        NOSIG=
201512081820 METAR COR EGLL 081820Z AUTO 23012KT 9999 NCD 10/04 Q1023
                        NOSIG=
201512081750 METAR COR EGLL 081750Z AUTO 23014KT 9999 NCD 10/04 Q1023
                        NOSIG=
201512081720 METAR COR EGLL 081720Z AUTO 23014KT 9999 NCD 10/04 Q1023
                        NOSIG=
201512081650 METAR COR EGLL 081650Z AUTO 24015KT 9999 NCD 10/05 Q1022
                        NOSIG=
201512081620 METAR COR EGLL 081620Z AUTO 23012KT 9999 FEW038 10/06 Q1022
                        NOSIG=
201512081550 METAR COR EGLL 081550Z AUTO 23012KT 9999 NCD 11/06 Q1022
                        NOSIG=
201512081520 METAR EGLL 081520Z AUTO 23015KT 9999 //////CB 11/07 Q1021=
201512081450 METAR COR EGLL 081450Z 24013KT 9999 5000S -SHRA FEW015CB
                        12/07 Q1021 TEMPO SHRA=
201512081420 METAR COR EGLL 081420Z AUTO 23014KT 9999 FEW015 12/07 Q1020
                        NOSIG=
201512081350 METAR COR EGLL 081350Z AUTO 23013KT 9999 NCD 13/07 Q1020
                        NOSIG=
201512081320 METAR COR EGLL 081320Z AUTO 23015KT 9999 -RA FEW035 13/08
                        Q1020 NOSIG=
201512081250 METAR COR EGLL 081250Z AUTO 23014KT 9999 NCD 13/09 Q1020
                        NOSIG=
201512081220 METAR COR EGLL 081220Z AUTO 23013KT 9999 FEW046/// //////TCU
                        13/09 Q1020 TEMPO SHRA=
201512081150 METAR EGLL 081150Z AUTO 23015G25KT 9999 -RA FEW012/// BKN035///
                        //////TCU 12/09 Q1020=
201512081120 METAR EGLL 081120Z AUTO 23010KT 9999 SCT015/// BKN029///
                        //////TCU 13/11 Q1020=
201512081050 METAR COR EGLL 081050Z AUTO 21011KT 180V250 9999 SCT013 BKN038
                        13/11 Q1020 TEMPO SHRA BKN012=
201512081020 METAR COR EGLL 081020Z AUTO 21009KT 9999 FEW022 13/11 Q1020
                        TEMPO SHRA BKN012=
201512080950 METAR COR EGLL 080950Z AUTO 22011KT 9999 NCD 13/11 Q1020
                        NOSIG=
201512080920 METAR COR EGLL 080920Z AUTO 21010KT 9999 FEW012/// OVC042///
                        //////TCU 13/11 Q1020 TEMPO SHRA
                        BKN012=
201512080850 METAR EGLL 080850Z AUTO 21011KT 9999 -RA FEW012/// OVC042///
                        //////CB 12/12 Q1020=
201512080820 METAR EGLL 080820Z AUTO 19010KT 170V230 8000 -RA BKN007///
                        BKN041/// //////CB 13/12 Q1019=
201512080750 METAR COR EGLL 080750Z AUTO 20011KT 9999 BKN008/// //////TCU
                        13/12 Q1019 TEMPO 4000 RADZ=
201512080720 METAR COR EGLL 080720Z AUTO 19010KT 9999 -RA BKN006 13/12
                        Q1019 TEMPO 4000 RADZ=
201512080650 METAR EGLL 080650Z AUTO 19010KT 160V230 9000 -RA OVC006 12/11
                        Q1019=
201512080620 METAR COR EGLL 080620Z AUTO 18009KT 9999 -RA OVC007 12/11
                        Q1019 TEMPO 4000 RA=
201512080550 METAR COR EGLL 080550Z AUTO 18009KT 9000 -RA OVC007 12/11
                        Q1019 TEMPO FEW008 BKN012=
201512080520 METAR COR EGLL 080520Z AUTO 20011KT 9000 -RA OVC007 12/11
                        Q1019 TEMPO FEW008 BKN012=
201512080450 METAR COR EGLL 080450Z AUTO 19009KT 9999 -RA OVC008 12/11
                        Q1019 TEMPO FEW008 BKN012=
201512080420 METAR COR EGLL 080420Z AUTO 18009KT 8000 -RA BKN007 12/11
                        Q1019 TEMPO BKN012=
201512080350 METAR COR EGLL 080350Z AUTO 18010KT 7000 -RA SCT013/// BKN031///
                        //////TCU 11/10 Q1020 TEMPO RA BKN012=
201512080320 METAR COR EGLL 080320Z AUTO 19011KT 6000 -RA BKN014/// //////TCU
                        12/10 Q1020 TEMPO RA=
201512080250 METAR COR EGLL 080250Z AUTO 18010KT 9999 -RA SCT017/// //////TCU
                        12/09 Q1020 TEMPO 4000 RA BKN012=
201512080220 METAR COR EGLL 080220Z AUTO 18011KT 9999 SCT020 12/09 Q1020
                        TEMPO RA BKN012=
201512080150 METAR COR EGLL 080150Z AUTO 18013KT 9999 NCD 12/09 Q1020
                        TEMPO RA BKN012=
201512080120 METAR COR EGLL 080120Z AUTO 17012KT 9999 NCD 12/09 Q1021
                        TEMPO RA BKN012=
201512080050 METAR COR EGLL 080050Z AUTO 18012KT 9999 NCD 11/09 Q1021
                        TEMPO BKN012=
201512080020 METAR COR EGLL 080020Z AUTO 18012KT 9999 NCD 11/09 Q1021
                        TEMPO BKN014=
201512072350 METAR COR EGLL 072350Z AUTO 18011KT 9999 NCD 12/09 Q1021
                        NOSIG=
201512072320 METAR COR EGLL 072320Z AUTO 17009KT 9999 NCD 12/09 Q1021
                        NOSIG=
201512072250 METAR COR EGLL 072250Z AUTO 17009KT 9999 NCD 12/09 Q1022
                        NOSIG=
201512072220 METAR COR EGLL 072220Z AUTO 18013KT 9999 NCD 12/09 Q1022
                        NOSIG=
201512072150 METAR COR EGLL 072150Z AUTO 17011KT 9999 NCD 12/09 Q1022
                        NOSIG=
201512072120 METAR COR EGLL 072120Z AUTO 17011KT 9999 NCD 12/09 Q1022
                        NOSIG=
201512072050 METAR COR EGLL 072050Z AUTO 18013KT 9999 NCD 12/09 Q1022
                        NOSIG=
201512072020 METAR COR EGLL 072020Z AUTO 18011KT 9999 NCD 11/09 Q1022
                        NOSIG=
201512071950 METAR COR EGLL 071950Z AUTO 17010KT 9999 NCD 11/09 Q1023
                        NOSIG=
201512071920 METAR COR EGLL 071920Z AUTO 17011KT 9999 NCD 11/09 Q1023
                        NOSIG=
201512071850 METAR COR EGLL 071850Z AUTO 16010KT 9999 NCD 11/09 Q1023
                        NOSIG=
201512071820 METAR COR EGLL 071820Z AUTO 15008KT 8000 NCD 11/09 Q1023
                        NOSIG=
201512071750 METAR COR EGLL 071750Z AUTO 13007KT 8000 NCD 11/09 Q1023
                        NOSIG=
201512071720 METAR EGLL 071720Z AUTO 14007KT 8000 NCD 11/10 Q1023=
201512071650 METAR EGLL 071650Z AUTO 13009KT 8000 SCT011 11/10 Q1023=
201512071620 METAR COR EGLL 071620Z AUTO 16008KT 110V190 9999 FEW013 12/10
                        Q1023 NOSIG=
201512071550 METAR COR EGLL 071550Z AUTO 16008KT 100V190 9999 FEW012 12/10
                        Q1023 NOSIG=
201512071520 METAR COR EGLL 071520Z AUTO 15008G18KT 110V190 9999 SCT012
                        13/10 Q1023 NOSIG=
201512071450 METAR COR EGLL 071450Z AUTO 16008KT 130V230 9999 SCT011 14/11
                        Q1024 NOSIG=
201512071420 METAR EGLL 071420Z AUTO 17009KT 130V230 9999 BKN011 13/11
                        Q1024=
201512071350 METAR EGLL 071350Z AUTO 16009KT 130V210 9999 BKN010 14/11
                        Q1024=
201512071320 METAR EGLL 071320Z AUTO 16009KT 140V220 9999 BKN011 14/11
                        Q1024=
201512071250 METAR COR EGLL 071250Z AUTO 17008KT 130V240 9999 SCT007 BKN034
                        13/12 Q1024 NOSIG=
201512071220 METAR COR EGLL 071220Z AUTO 18008KT 130V240 9999 OVC007 13/12
                        Q1025 TEMPO BKN010=
201512071150 METAR COR EGLL 071150Z AUTO 18009KT 150V230 9999 OVC007 13/12
                        Q1025 TEMPO BKN010=
201512071120 METAR COR EGLL 071120Z AUTO 21009KT 170V250 9999 BKN008 13/12
                        Q1025 TEMPO BKN010=
201512071050 METAR COR EGLL 071050Z AUTO 21010KT 9999 BKN006 13/12 Q1026
                        TEMPO BKN010=
201512071020 METAR COR EGLL 071020Z AUTO 19009KT 160V240 9999 OVC006 13/12
                        Q1026 TEMPO BKN010=
201512070950 METAR COR EGLL 070950Z AUTO 18010KT 150V230 9999 OVC006 13/12
                        Q1025 TEMPO BKN010=
201512070920 METAR EGLL 070920Z AUTO 19008KT 160V240 9999 BKN006 OVC016
                        12/11 Q1025=
201512070850 METAR COR EGLL 070850Z AUTO 19010KT 150V230 8000 -RA BKN008
                        BKN021 12/11 Q1025 TEMPO BKN010=
201512070820 METAR COR EGLL 070820Z AUTO 19010KT 170V230 9000 OVC009 13/11
                        Q1025 TEMPO BKN010=
201512070750 METAR COR EGLL 070750Z AUTO 19010KT 8000 BKN010 13/11 Q1025
                        TEMPO BKN008=
201512070720 METAR COR EGLL 070720Z AUTO 20009KT 170V240 9999 OVC009 13/11
                        Q1024 NOSIG=
201512070650 METAR COR EGLL 070650Z AUTO 19010KT 9999 OVC009 13/11 Q1024
                        NOSIG=
201512070620 METAR COR EGLL 070620Z AUTO 19011KT 9999 OVC010 13/11 Q1024
                        TEMPO BKN009=
201512070550 METAR COR EGLL 070550Z AUTO 19009KT 9999 OVC011 13/11 Q1024
                        TEMPO BKN009=
201512070520 METAR COR EGLL 070520Z AUTO 19008KT 9999 BKN007 OVC016 13/12
                        Q1024 NOSIG=
201512070450 METAR COR EGLL 070450Z AUTO 20008KT 9999 BKN005 OVC015 13/12
                        Q1023 TEMPO BKN004=
201512070420 METAR COR EGLL 070420Z AUTO 19008KT 7000 OVC004 13/12 Q1023
                        TEMPO 4000 BR=
201512070350 METAR COR EGLL 070350Z AUTO 20008KT 4300 HZ BKN005 OVC014
                        13/12 Q1023 TEMPO BKN004=
201512070320 METAR COR EGLL 070320Z AUTO 19006KT 9999 FEW013 BKN031 13/12
                        Q1023 TEMPO BKN013=
201512070250 METAR COR EGLL 070250Z AUTO 19007KT 7000 BKN017 BKN031 13/12
                        Q1023 BECMG BKN011=
201512070220 METAR COR EGLL 070220Z AUTO 20008KT 9999 SCT011 OVC031 13/12
                        Q1023 BECMG BKN011=
201512070150 METAR COR EGLL 070150Z AUTO 19007KT 9999 BKN014 13/11 Q1023
                        TEMPO BKN009=
201512070120 METAR COR EGLL 070120Z AUTO 18007KT 9999 BKN015 13/11 Q1023
                        BECMG BKN010=
201512070050 METAR COR EGLL 070050Z AUTO 19007KT 9999 -RA SCT009 SCT018
                        13/12 Q1023 BECMG BKN006=
201512070020 METAR COR EGLL 070020Z AUTO 21009KT 9999 -RA BKN007 13/12
                        Q1023 TEMPO 4000 -RADZ BKN004=
201512062350 METAR COR EGLL 062350Z AUTO 21007KT 9999 -RA BKN004 OVC013
                        13/12 Q1023 TEMPO 4000 -RADZ=
201512062320 METAR COR EGLL 062320Z AUTO 21007KT 9999 OVC007 13/12 Q1023
                        NOSIG=
201512062250 METAR COR EGLL 062250Z AUTO 20008KT 170V250 9999 OVC005 13/12
                        Q1022 NOSIG=
201512062220 METAR COR EGLL 062220Z AUTO 19007KT 150V240 9999 BKN004 OVC013
                        13/12 Q1022 TEMPO BKN005=
201512062150 METAR COR EGLL 062150Z AUTO 22008KT 190V250 9999 BKN005 13/12
                        Q1022 NOSIG=
201512062120 METAR COR EGLL 062120Z AUTO 21007KT 160V250 9999 OVC006 13/12
                        Q1022 NOSIG=
201512062050 METAR COR EGLL 062050Z AUTO 20006KT 160V250 9999 BKN005 12/12
                        Q1022 TEMPO 4000 -DZ=
201512062020 METAR COR EGLL 062020Z AUTO 20007KT 160V250 8000 BKN003 OVC012
                        12/12 Q1022 TEMPO 4000 -DZ BKN005=
201512061950 METAR COR EGLL 061950Z AUTO 20007KT 160V240 4500 BR BKN002
                        12/12 Q1021 TEMPO 5000 -DZ BKN006=
201512061920 METAR COR EGLL 061920Z AUTO 21009KT 180V260 4100 -DZ BKN004
                        OVC013 12/12 Q1021 TEMPO 6000 NSW
                        BKN008=
201512061850 METAR COR EGLL 061850Z AUTO 21007KT 5000 -DZ SCT003 BKN012
                        13/12 Q1021 TEMPO 4000 -DZRA BKN009=
201512061820 METAR COR EGLL 061820Z AUTO 21008KT 4100 -DZ BKN005 BKN017
                        13/12 Q1020 TEMPO 6000 -DZ SCT009
                        BKN011=
201512061750 METAR COR EGLL 061750Z AUTO 21008KT 7000 BKN009 13/12 Q1020
                        TEMPO 4000 -RADZ=
201512061720 METAR COR EGLL 061720Z AUTO 22008G19KT 170V250 9999 -RA BKN009
                        13/11 Q1020 TEMPO BKN011=
201512061650 METAR COR EGLL 061650Z AUTO 22009KT 9999 BKN011 13/11 Q1019
                        TEMPO BKN009=
201512061620 METAR COR EGLL 061620Z AUTO 23011KT 9999 BKN010 13/11 Q1019
                        NOSIG=
201512061550 METAR COR EGLL 061550Z AUTO 23012KT 9999 OVC010 13/11 Q1018
                        NOSIG=
201512061520 METAR COR EGLL 061520Z AUTO 23012KT 9999 OVC010 13/11 Q1018
                        TEMPO BKN008=
201512061450 METAR COR EGLL 061450Z AUTO 23012KT 9999 OVC011 13/11 Q1018
                        TEMPO BKN008=
201512061420 METAR COR EGLL 061420Z AUTO 22012KT 9999 BKN007 OVC016 13/11
                        Q1017 TEMPO SCT007=
201512061350 METAR COR EGLL 061350Z AUTO 22012KT 8000 BKN006 OVC023 13/11
                        Q1017 TEMPO SCT012=
201512061320 METAR COR EGLL 061320Z AUTO 23015KT 6000 BKN007 BKN017 13/11
                        Q1017 TEMPO SCT014=
201512061250 METAR COR EGLL 061250Z AUTO 22015KT 4600 -RA OVC010 13/11
                        Q1016 TEMPO 6000 NSW SCT012=
201512061220 METAR COR EGLL 061220Z AUTO 23017KT 9999 BKN011 13/10 Q1016
                        TEMPO SCT012=
201512061150 METAR COR EGLL 061150Z AUTO 23020KT 9999 BKN011 BKN022 13/10
                        Q1016 TEMPO SCT012=
201512061120 METAR COR EGLL 061120Z AUTO 23017KT 9999 BKN018 14/10 Q1016
                        NOSIG=
201512061050 METAR COR EGLL 061050Z AUTO 24018KT 9999 SCT022 BKN035 14/09
                        Q1016 NOSIG=
201512061020 METAR COR EGLL 061020Z AUTO 24022G32KT 9999 SCT023 BKN036
                        14/09 Q1015 NOSIG=
201512060950 METAR COR EGLL 060950Z AUTO 24018KT 9999 FEW025 BKN037 14/09
                        Q1015 NOSIG=
201512060920 METAR COR EGLL 060920Z AUTO 23019KT 9999 FEW025 14/09 Q1014
                        NOSIG=
201512060850 METAR COR EGLL 060850Z AUTO 23015KT 9999 BKN018 14/11 Q1014
                        NOSIG=
201512060820 METAR EGLL 060820Z AUTO 22017KT 9999 FEW025 13/10 Q1013=
201512060750 METAR COR EGLL 060750Z AUTO 22019G30KT 9999 BKN022 13/11
                        Q1014 NOSIG=
201512060720 METAR COR EGLL 060720Z AUTO 23013G24KT 9999 FEW011 BKN038
                        13/11 Q1013 TEMPO -RA BKN014=
201512060650 METAR COR EGLL 060650Z AUTO 22015G26KT 9000 -RA SCT013 BKN037
                        13/11 Q1013 TEMPO BKN013=
201512060620 METAR COR EGLL 060620Z AUTO 22015KT 9999 -RA FEW024 OVC047
                        14/10 Q1013 NOSIG=
201512060550 METAR COR EGLL 060550Z AUTO 23017KT 9999 FEW021 OVC039 13/10
                        Q1013 NOSIG=
201512060520 METAR COR EGLL 060520Z AUTO 22014KT 9999 FEW021 OVC041 13/10
                        Q1013 NOSIG=
201512060450 METAR COR EGLL 060450Z AUTO 21015KT 9999 FEW017 OVC041 13/10
                        Q1013 NOSIG=
201512060420 METAR COR EGLL 060420Z AUTO 22013KT 9999 OVC037 13/09 Q1013
                        NOSIG=
201512060350 METAR COR EGLL 060350Z AUTO 22014KT 9999 SCT021 OVC039 13/09
                        Q1013 NOSIG=
201512060320 METAR COR EGLL 060320Z AUTO 22016KT 9999 FEW030 BKN037 13/08
                        Q1013 NOSIG=
201512060250 METAR COR EGLL 060250Z AUTO 23014KT 9999 BKN022 OVC035 13/08
                        Q1013 NOSIG=
201512060220 METAR COR EGLL 060220Z AUTO 22016G28KT 9999 BKN020 OVC038
                        13/09 Q1013 NOSIG=
201512060150 METAR EGLL 060150Z AUTO 23013KT 9999 BKN021 OVC036 13/08
                        Q1014=
201512060120 METAR COR EGLL 060120Z AUTO 23017KT 9999 BKN024 13/07 Q1013
                        NOSIG=
201512060050 METAR COR EGLL 060050Z AUTO 22016G26KT 9999 OVC028 13/07
                        Q1014 NOSIG=
201512060020 METAR COR EGLL 060020Z AUTO 22018KT 9999 OVC029 13/07 Q1014
                        NOSIG=
201512052350 METAR COR EGLL 052350Z AUTO 22017KT 9999 OVC032 13/06 Q1014
                        NOSIG=
201512052320 METAR COR EGLL 052320Z AUTO 23019KT 9999 OVC031 13/06 Q1014
                        NOSIG=
201512052250 METAR COR EGLL 052250Z AUTO 22019KT 9999 OVC031 13/06 Q1014
                        NOSIG=
201512052220 METAR COR EGLL 052220Z AUTO 23019KT 9999 OVC033 13/06 Q1015
                        NOSIG=
201512052150 METAR COR EGLL 052150Z AUTO 23023G34KT 9999 OVC031 13/06
                        Q1015 NOSIG=
201512052120 METAR COR EGLL 052120Z AUTO 23021G33KT 9999 OVC032 13/06
                        Q1016 NOSIG=
201512052050 METAR COR EGLL 052050Z AUTO 23021KT 9999 OVC030 13/06 Q1016
                        NOSIG=
201512052020 METAR COR EGLL 052020Z AUTO 23021KT 9999 OVC032 13/06 Q1016
                        NOSIG=
201512051950 METAR COR EGLL 051950Z AUTO 23020G30KT 9999 BKN028 13/07
                        Q1016 NOSIG=
201512051920 METAR COR EGLL 051920Z AUTO 23019KT 9999 BKN024 BKN039 13/08
                        Q1016 NOSIG=
201512051850 METAR COR EGLL 051850Z AUTO 22017KT 9999 OVC021 13/08 Q1016
                        NOSIG=
201512051820 METAR COR EGLL 051820Z AUTO 22017KT 9999 BKN023 13/08 Q1016
                        NOSIG=
201512051750 METAR COR EGLL 051750Z AUTO 23022KT 9999 BKN026 13/07 Q1016
                        NOSIG=
201512051720 METAR COR EGLL 051720Z AUTO 22019KT 9999 OVC028 13/07 Q1016
                        NOSIG=
201512051650 METAR COR EGLL 051650Z AUTO 22020KT 9999 BKN029 13/07 Q1016
                        NOSIG=
201512051620 METAR COR EGLL 051620Z AUTO 22020G31KT 9999 OVC026 12/07
                        Q1016 NOSIG=
201512051550 METAR COR EGLL 051550Z AUTO 22020G30KT 190V250 9999 BKN021
                        12/08 Q1016 NOSIG=
201512051520 METAR COR EGLL 051520Z AUTO 23020G31KT 9999 OVC022 13/07
                        Q1016 NOSIG=
201512051450 METAR COR EGLL 051450Z AUTO 22021G32KT 9999 OVC026 13/07
                        Q1017 NOSIG=
201512051420 METAR COR EGLL 051420Z AUTO 22023KT 9999 OVC027 12/07 Q1017
                        NOSIG=
201512051350 METAR COR EGLL 051350Z AUTO 22021G31KT 9999 OVC025 12/07
                        Q1017 NOSIG=
201512051320 METAR COR EGLL 051320Z AUTO 23020G33KT 9999 OVC025 13/07
                        Q1018 NOSIG=
201512051250 METAR COR EGLL 051250Z AUTO 23026G37KT 9999 OVC027 13/07
                        Q1018 NOSIG=
201512051220 METAR COR EGLL 051220Z AUTO 22023G33KT 9999 OVC027 12/07
                        Q1018 NOSIG=
201512051150 METAR COR EGLL 051150Z AUTO 23023KT 9999 OVC028 12/06 Q1019
                        NOSIG=
201512051120 METAR COR EGLL 051120Z AUTO 22019G29KT 9999 OVC028 12/06
                        Q1019 NOSIG=
201512051050 METAR COR EGLL 051050Z AUTO 22023G33KT 9999 BKN026 12/07
                        Q1020 NOSIG=
201512051020 METAR COR EGLL 051020Z AUTO 22021G32KT 9999 BKN026 12/07
                        Q1020 NOSIG=
201512050950 METAR COR EGLL 050950Z AUTO 22020G33KT 9999 BKN026 12/07
                        Q1020 NOSIG=
201512050920 METAR COR EGLL 050920Z AUTO 23022G34KT 9999 BKN025 12/07
                        Q1020 NOSIG=
201512050850 METAR COR EGLL 050850Z AUTO 23021G32KT 9999 BKN026 12/07
                        Q1020 NOSIG=
201512050820 METAR EGLL 050820Z AUTO 22021G31KT 9999 SCT026 12/07 Q1020=
201512050750 METAR EGLL 050750Z AUTO 22019G30KT 9999 FEW027 12/07 Q1020=
201512050720 METAR COR EGLL 050720Z AUTO 22019G32KT 9999 NCD 12/07 Q1021
                        NOSIG=
201512050650 METAR COR EGLL 050650Z AUTO 22019G29KT 9999 NCD 12/07 Q1021
                        NOSIG=
201512050620 METAR COR EGLL 050620Z AUTO 22019KT 9999 NCD 12/07 Q1021
                        NOSIG=
201512050550 METAR COR EGLL 050550Z AUTO 23020G30KT 9999 NCD 12/07 Q1021
                        NOSIG=
201512050520 METAR COR EGLL 050520Z AUTO 22019G33KT 9999 NCD 12/07 Q1021
                        NOSIG=
201512050450 METAR COR EGLL 050450Z AUTO 23019G29KT 9999 NCD 12/07 Q1021
                        NOSIG=
201512050420 METAR COR EGLL 050420Z AUTO 23018G28KT 9999 NCD 12/07 Q1021
                        NOSIG=
201512050350 METAR COR EGLL 050350Z AUTO 23020G30KT 9999 NCD 12/07 Q1021
                        NOSIG=
201512050320 METAR COR EGLL 050320Z AUTO 22020G34KT 9999 FEW025 12/07
                        Q1022 NOSIG=
201512050250 METAR COR EGLL 050250Z AUTO 23020G32KT 9999 FEW025 12/06
                        Q1022 NOSIG=
201512050220 METAR COR EGLL 050220Z AUTO 23019KT 9999 FEW024 12/07 Q1022
                        NOSIG=
201512050150 METAR COR EGLL 050150Z AUTO 22019KT 9999 FEW026 12/06 Q1023
                        NOSIG=
201512050120 METAR COR EGLL 050120Z AUTO 22020G30KT 9999 BKN025 12/07
                        Q1023 NOSIG=
201512050050 METAR COR EGLL 050050Z AUTO 22020KT 9999 BKN026 12/07 Q1024
                        NOSIG=
201512050020 METAR COR EGLL 050020Z AUTO 23020KT 9999 BKN024 12/07 Q1024
                        NOSIG=
201512042350 METAR COR EGLL 042350Z AUTO 22016G27KT 9999 OVC024 12/07
                        Q1024 NOSIG=
201512042320 METAR COR EGLL 042320Z AUTO 22017KT 9999 BKN026 12/07 Q1025
                        NOSIG=
201512042250 METAR COR EGLL 042250Z AUTO 22015KT 9999 BKN024 12/07 Q1025
                        NOSIG=
201512042220 METAR COR EGLL 042220Z AUTO 22018G28KT 9999 BKN024 12/07
                        Q1026 NOSIG=
201512042150 METAR COR EGLL 042150Z AUTO 22014G25KT 190V250 9999 BKN024
                        12/07 Q1026 NOSIG=
201512042120 METAR COR EGLL 042120Z AUTO 23018G29KT 9999 OVC023 12/07
                        Q1026 NOSIG=
201512042050 METAR COR EGLL 042050Z AUTO 23017G28KT 9999 BKN024 12/08
                        Q1027 NOSIG=
201512042020 METAR COR EGLL 042020Z AUTO 23016KT 9999 SCT027 12/08 Q1027
                        NOSIG=
201512041950 METAR COR EGLL 041950Z AUTO 23018KT 9999 FEW026 12/07 Q1027
                        NOSIG=
201512041920 METAR COR EGLL 041920Z AUTO 23017KT 9999 FEW026 12/07 Q1027
                        NOSIG=
201512041850 METAR COR EGLL 041850Z AUTO 22013KT 9999 SCT042 11/08 Q1027
                        NOSIG=
201512041820 METAR COR EGLL 041820Z AUTO 22013KT 9999 BKN044 12/08 Q1027
                        NOSIG=
201512041750 METAR COR EGLL 041750Z AUTO 22014KT 180V240 9999 FEW020 OVC044
                        12/08 Q1027 NOSIG=
201512041720 METAR COR EGLL 041720Z AUTO 22014KT 9999 OVC043 12/08 Q1028
                        NOSIG=
201512041650 METAR COR EGLL 041650Z AUTO 23015KT 9999 OVC040 12/07 Q1028
                        NOSIG=
201512041620 METAR COR EGLL 041620Z AUTO 22014KT 9999 BKN037 12/07 Q1027
                        NOSIG=
201512041550 METAR COR EGLL 041550Z AUTO 22012KT 9999 OVC042 12/07 Q1027
                        NOSIG=
201512041520 METAR COR EGLL 041520Z AUTO 21014KT 9999 OVC041 12/06 Q1027
                        NOSIG=
201512041450 METAR COR EGLL 041450Z AUTO 22015KT 200V260 9999 OVC037 12/07
                        Q1027 NOSIG=
201512041420 METAR COR EGLL 041420Z AUTO 23014KT 9999 SCT030 SCT041 12/07
                        Q1027 NOSIG=
201512041350 METAR COR EGLL 041350Z AUTO 24014KT 9999 SCT027 SCT041 12/07
                        Q1028 NOSIG=
201512041320 METAR COR EGLL 041320Z AUTO 23016KT 9999 BKN026 12/07 Q1028
                        NOSIG=
201512041250 METAR COR EGLL 041250Z AUTO 23016KT 210V270 9999 FEW026 12/07
                        Q1028 NOSIG=
201512041220 METAR COR EGLL 041220Z AUTO 23012KT 9999 FEW026 12/07 Q1028
                        NOSIG=
201512041150 METAR COR EGLL 041150Z AUTO 23013KT 9999 FEW027 12/07 Q1028
                        NOSIG=
201512041120 METAR COR EGLL 041120Z AUTO 24013KT 9999 BKN028 11/07 Q1028
                        NOSIG=
201512041050 METAR COR EGLL 041050Z AUTO 24011KT 9999 BKN042 11/06 Q1028
                        NOSIG=
201512041020 METAR COR EGLL 041020Z AUTO 22010KT 9999 SCT042 09/06 Q1028
                        NOSIG=
201512040950 METAR COR EGLL 040950Z AUTO 23010KT 9999 BKN039 09/05 Q1028
                        NOSIG=
201512040920 METAR COR EGLL 040920Z AUTO 24010KT 9999 NCD 07/04 Q1027
                        NOSIG=
201512040850 METAR COR EGLL 040850Z AUTO 22007KT 9999 NCD 06/04 Q1027
                        NOSIG=
201512040820 METAR COR EGLL 040820Z AUTO 22008KT 9999 NCD 06/03 Q1026
                        NOSIG=
201512040750 METAR COR EGLL 040750Z AUTO 22008KT 180V260 9999 NCD 06/03
                        Q1026 NOSIG=
201512040720 METAR COR EGLL 040720Z AUTO 21008KT 9999 FEW028 06/03 Q1026
                        NOSIG=
201512040650 METAR COR EGLL 040650Z AUTO 23009KT 9999 NCD 06/03 Q1025
                        NOSIG=
201512040620 METAR COR EGLL 040620Z AUTO 24009KT 9999 NCD 06/03 Q1025
                        NOSIG=
201512040550 METAR COR EGLL 040550Z AUTO 23008KT 9999 NCD 07/03 Q1024
                        NOSIG=
201512040520 METAR COR EGLL 040520Z AUTO 25008KT 9999 NCD 07/03 Q1023
                        NOSIG=
201512040450 METAR COR EGLL 040450Z AUTO 26008KT 9999 NCD 07/03 Q1023
                        NOSIG=
201512040420 METAR COR EGLL 040420Z AUTO 26008KT 9999 NCD 07/04 Q1022
                        NOSIG=
201512040350 METAR COR EGLL 040350Z AUTO 27006KT 9999 NCD 07/04 Q1021
                        NOSIG=
201512040320 METAR COR EGLL 040320Z AUTO 29007KT 9999 FEW029 07/04 Q1020
                        NOSIG=
201512040250 METAR COR EGLL 040250Z AUTO 30008KT 9999 BKN027 09/05 Q1019
                        NOSIG=
201512040150 METAR COR EGLL 040150Z AUTO 31011KT 9999 SCT028 09/06 Q1017
                        NOSIG=
201512040120 METAR COR EGLL 040120Z AUTO 31011KT 9999 SCT024 BKN042 10/06
                        Q1016 NOSIG=
201512040050 METAR COR EGLL 040050Z AUTO 29014KT 9999 SCT019 BKN034 11/08
                        Q1015 NOSIG=
201512040020 METAR COR EGLL 040020Z AUTO 28012KT 9999 SCT020/// OVC047///
                        //////CB 11/09 Q1013 RERA NOSIG=
201512032350 METAR COR EGLL 032350Z AUTO 26021G32KT 2900 +RA BKN014///
                        OVC048/// //////CB 12/09 Q1012 TEMPO
                        TSRA BKN009=
201512032320 METAR COR EGLL 032320Z AUTO 22016G27KT 9999 -RA BKN011///
                        //////CB 13/12 Q1011 TEMPO 4000 +RA
                        BKN009=
201512032250 METAR COR EGLL 032250Z AUTO 21014KT 180V240 9999 -RA BKN010
                        OVC023 12/11 Q1011 TEMPO RA=
201512032220 METAR COR EGLL 032220Z AUTO 21017KT 9000 -RA OVC010 12/10
                        Q1011 TEMPO RA=
201512032150 METAR COR EGLL 032150Z AUTO 20016G27KT 9999 -RA OVC012 12/10
                        Q1011 TEMPO RA=
201512032120 METAR COR EGLL 032120Z AUTO 20018G30KT 9999 -RA OVC012 12/10
                        Q1012 TEMPO RA=
201512032050 METAR COR EGLL 032050Z AUTO 20018KT 9999 -RA BKN014/// 12/09
                        Q1012 TEMPO RA=
201512032020 METAR COR EGLL 032020Z AUTO 20017KT 9999 -RA OVC018 12/09
                        Q1013 TEMPO RA BKN014=
201512031950 METAR COR EGLL 031950Z AUTO 19017KT 150V220 9999 -RA FEW022
                        BKN035 12/09 Q1013 TEMPO RA=
201512031920 METAR COR EGLL 031920Z AUTO 19016KT 9999 -RA BKN031 BKN044
                        12/09 Q1013 TEMPO RA=
201512031850 METAR COR EGLL 031850Z AUTO 19019KT 9999 -RA NCD 13/08 Q1014
                        TEMPO RA=
201512031820 METAR COR EGLL 031820Z AUTO 18015KT 160V230 9999 -RA NCD
                        13/08 Q1014 NOSIG=
201512031750 METAR COR EGLL 031750Z AUTO 18017KT 160V220 9999 NCD 12/08
                        Q1015 NOSIG=
201512031720 METAR COR EGLL 031720Z AUTO 19016KT 170V230 9999 NCD 12/08
                        Q1015 NOSIG=
201512031650 METAR COR EGLL 031650Z AUTO 18015KT 160V230 9999 NCD 12/08
                        Q1016 NOSIG=
201512031620 METAR COR EGLL 031620Z AUTO 17012KT 150V230 9999 NCD 12/08
                        Q1017 NOSIG=
201512031550 METAR COR EGLL 031550Z AUTO 19012KT 160V230 9999 NCD 12/08
                        Q1018 NOSIG=
201512031520 METAR COR EGLL 031520Z AUTO 19014KT 170V230 9999 FEW019 12/08
                        Q1018 NOSIG=
201512031450 METAR COR EGLL 031450Z AUTO 19013KT 9999 NCD 12/09 Q1018
                        NOSIG=
201512031420 METAR COR EGLL 031420Z AUTO 18014KT 9999 NCD 13/09 Q1019
                        NOSIG=
201512031350 METAR COR EGLL 031350Z AUTO 19013KT 9999 NCD 13/09 Q1019
                        NOSIG=
201512031320 METAR COR EGLL 031320Z AUTO 18014KT 9999 FEW014 13/09 Q1020
                        NOSIG=
201512031250 METAR COR EGLL 031250Z AUTO 19013KT 160V220 9999 BKN013 BKN044
                        13/10 Q1020 TEMPO BKN015=
201512031220 METAR COR EGLL 031220Z AUTO 20011KT 9999 OVC012 12/09 Q1021
                        BECMG BKN015=
201512031150 METAR COR EGLL 031150Z AUTO 19012KT 9999 OVC013 12/10 Q1020
                        BECMG BKN015=
201512031120 METAR COR EGLL 031120Z AUTO 20012KT 160V220 9999 OVC012 12/10
                        Q1021 NOSIG=
201512031050 METAR COR EGLL 031050Z AUTO 20013KT 9999 OVC011 12/10 Q1021
                        NOSIG=
201512031020 METAR COR EGLL 031020Z AUTO 18013KT 9999 OVC012 12/10 Q1021
                        NOSIG=
201512030950 METAR COR EGLL 030950Z AUTO 18011KT 9999 OVC012 12/10 Q1022
                        NOSIG=
201512030920 METAR COR EGLL 030920Z AUTO 18011KT 9999 BKN013 12/10 Q1022
                        NOSIG=
201512030850 METAR COR EGLL 030850Z AUTO 20011KT 9999 BKN014 12/10 Q1022
                        NOSIG=
201512030820 METAR COR EGLL 030820Z AUTO 19010KT 9999 OVC014 13/10 Q1022
                        NOSIG=
201512030750 METAR COR EGLL 030750Z AUTO 21009KT 9999 OVC014 13/10 Q1023
                        TEMPO BKN015=
201512030720 METAR COR EGLL 030720Z AUTO 20010KT 9999 OVC014 13/10 Q1022
                        TEMPO BKN015=
201512030650 METAR COR EGLL 030650Z AUTO 21010KT 9999 OVC014 13/10 Q1022
                        TEMPO SCT014 BKN016=
201512030620 METAR COR EGLL 030620Z AUTO 21011KT 9999 BKN015 OVC049 13/10
                        Q1022 TEMPO BKN012=
201512030550 METAR COR EGLL 030550Z AUTO 20013KT 9999 BKN016 OVC044 13/10
                        Q1022 TEMPO BKN014=
201512030520 METAR COR EGLL 030520Z AUTO 21011KT 9999 BKN017 OVC046 13/09
                        Q1022 TEMPO BKN014=
201512030450 METAR COR EGLL 030450Z AUTO 21011KT 9999 FEW018 OVC041 13/09
                        Q1022 NOSIG=
201512030420 METAR COR EGLL 030420Z AUTO 21010KT 9999 FEW022 SCT033 13/09
                        Q1022 NOSIG=
201512030350 METAR COR EGLL 030350Z AUTO 21011KT 9999 NCD 13/09 Q1022
                        NOSIG=
201512030320 METAR COR EGLL 030320Z AUTO 21010KT 9999 NCD 13/09 Q1022
                        NOSIG=
201512030250 METAR COR EGLL 030250Z AUTO 21010KT 9999 NCD 13/09 Q1023
                        NOSIG=
201512030220 METAR COR EGLL 030220Z AUTO 20009KT 9999 FEW025 13/09 Q1023
                        NOSIG=
201512030150 METAR COR EGLL 030150Z AUTO 21010KT 9999 FEW022 13/09 Q1023
                        NOSIG=
201512030120 METAR COR EGLL 030120Z AUTO 21009KT 9999 BKN022 13/09 Q1023
                        NOSIG=
201512030050 METAR COR EGLL 030050Z AUTO 21011KT 9999 BKN020 13/10 Q1023
                        NOSIG=
201512030020 METAR COR EGLL 030020Z AUTO 21010KT 9999 FEW020 BKN044 13/10
                        Q1023 NOSIG=
201512022350 METAR COR EGLL 022350Z AUTO 21010KT 9999 FEW018 OVC041 13/10
                        Q1023 NOSIG=
201512022320 METAR COR EGLL 022320Z AUTO 20010KT 9999 SCT019 OVC047 13/10
                        Q1023 NOSIG=
201512022250 METAR COR EGLL 022250Z AUTO 21009KT 9999 SCT020 OVC046 13/09
                        Q1023 NOSIG=
201512022220 METAR COR EGLL 022220Z AUTO 22011KT 9999 BKN020 13/09 Q1023
                        NOSIG=
201512022150 METAR COR EGLL 022150Z AUTO 22011KT 180V250 9999 BKN018 13/09
                        Q1023 NOSIG=
201512022120 METAR COR EGLL 022120Z AUTO 22013KT 9999 OVC019 13/10 Q1023
                        NOSIG=
201512022050 METAR COR EGLL 022050Z AUTO 22012KT 9999 BKN020 13/09 Q1023
                        NOSIG=
201512022020 METAR COR EGLL 022020Z AUTO 22011KT 9999 FEW019 13/09 Q1023
                        NOSIG=
201512021950 METAR COR EGLL 021950Z AUTO 22010KT 9999 FEW020 OVC043 13/09
                        Q1023 NOSIG=
201512021920 METAR COR EGLL 021920Z AUTO 21010KT 190V260 9999 SCT018 OVC043
                        13/09 Q1023 NOSIG=
201512021850 METAR COR EGLL 021850Z AUTO 21008KT 170V260 9999 BKN018 12/09
                        Q1023 NOSIG=
201512021820 METAR COR EGLL 021820Z AUTO 21010KT 180V260 9999 SCT021 12/09
                        Q1023 NOSIG=
201512021750 METAR COR EGLL 021750Z AUTO 21009KT 170V240 9999 FEW038 12/09
                        Q1023 NOSIG=
201512021720 METAR COR EGLL 021720Z AUTO 20010KT 180V240 9999 FEW021 12/09
                        Q1022 NOSIG=
201512021650 METAR COR EGLL 021650Z AUTO 21010KT 9999 FEW020 12/09 Q1022
                        NOSIG=
201512021620 METAR COR EGLL 021620Z AUTO 21011KT 9999 SCT021 12/09 Q1022
                        NOSIG=
201512021550 METAR COR EGLL 021550Z AUTO 22011G21KT 9999 FEW022 12/09
                        Q1022 NOSIG=
201512021520 METAR COR EGLL 021520Z AUTO 21012KT 9999 FEW023 13/09 Q1022
                        NOSIG=
201512021450 METAR COR EGLL 021450Z AUTO 22013KT 9999 FEW021 13/09 Q1022
                        NOSIG=
201512021420 METAR COR EGLL 021420Z AUTO 22013KT 9999 FEW021 13/09 Q1022
                        NOSIG=
201512021350 METAR COR EGLL 021350Z AUTO 22014KT 9999 FEW023 13/09 Q1022
                        NOSIG=
201512021320 METAR COR EGLL 021320Z AUTO 22013KT 9999 SCT023 13/09 Q1022
                        NOSIG=
201512021250 METAR COR EGLL 021250Z AUTO 22014KT 9999 FEW022 BKN047 13/09
                        Q1022 NOSIG=
201512021220 METAR COR EGLL 021220Z AUTO 22012KT 9999 BKN021 BKN047 13/09
                        Q1022 NOSIG=
201512021150 METAR COR EGLL 021150Z AUTO 22013KT 9999 SCT019 BKN036 12/09
                        Q1022 NOSIG=
201512021120 METAR COR EGLL 021120Z AUTO 22012KT 200V260 9999 BKN020 BKN047
                        13/09 Q1023 NOSIG=
201512021050 METAR COR EGLL 021050Z AUTO 21010KT 9999 FEW022 BKN038 13/08
                        Q1023 NOSIG=
201512021020 METAR COR EGLL 021020Z AUTO 22010KT 9999 NCD 13/08 Q1023
                        NOSIG=
201512020950 METAR COR EGLL 020950Z AUTO 22011KT 9999 NCD 12/07 Q1023
                        NOSIG=
201512020920 METAR COR EGLL 020920Z AUTO 22011KT 9999 NCD 12/07 Q1023
                        NOSIG=
201512020850 METAR COR EGLL 020850Z AUTO 22011KT 9999 OVC047 12/07 Q1022
                        NOSIG=
201512020820 METAR COR EGLL 020820Z AUTO 21011KT 190V250 9999 OVC046 12/08
                        Q1022 NOSIG=
201512020750 METAR COR EGLL 020750Z AUTO 22011KT 9999 FEW025 12/08 Q1022
                        NOSIG=
201512020720 METAR COR EGLL 020720Z AUTO 21011KT 9999 FEW024 12/08 Q1022
                        NOSIG=
201512020650 METAR COR EGLL 020650Z AUTO 21010KT 180V240 9999 NCD 12/08
                        Q1022 NOSIG=
201512020620 METAR COR EGLL 020620Z AUTO 22010KT 9999 NCD 12/08 Q1022
                        NOSIG=
201512020550 METAR COR EGLL 020550Z AUTO 22011KT 9999 NCD 12/06 Q1022
                        NOSIG=
201512020520 METAR COR EGLL 020520Z AUTO 21012KT 9999 NCD 12/07 Q1022
                        NOSIG=
201512020450 METAR COR EGLL 020450Z AUTO 21010KT 9999 NCD 12/07 Q1022
                        NOSIG=
201512020420 METAR COR EGLL 020420Z AUTO 21009KT 9999 NCD 12/06 Q1022
                        NOSIG=
201512020350 METAR COR EGLL 020350Z AUTO 23011KT 9999 FEW038 12/06 Q1022
                        NOSIG=
201512020320 METAR COR EGLL 020320Z AUTO 22012KT 9999 OVC040 12/06 Q1023
                        NOSIG=
201512020250 METAR COR EGLL 020250Z AUTO 22009KT 9999 OVC047 12/06 Q1023
                        NOSIG=
201512020220 METAR COR EGLL 020220Z AUTO 22009KT 9999 NCD 12/06 Q1023
                        NOSIG=
201512020150 METAR COR EGLL 020150Z AUTO 23012KT 9999 OVC045 12/05 Q1023
                        NOSIG=
201512020120 METAR COR EGLL 020120Z AUTO 22010KT 9999 OVC042 12/05 Q1023
                        NOSIG=
201512020050 METAR COR EGLL 020050Z AUTO 22012KT 9999 OVC043 12/05 Q1023
                        NOSIG=
201512020020 METAR COR EGLL 020020Z AUTO 23011KT 9999 OVC047 12/06 Q1023
                        NOSIG=
201512012350 METAR COR EGLL 012350Z AUTO 21012KT 9999 OVC042 12/06 Q1023
                        NOSIG=
201512012320 METAR COR EGLL 012320Z AUTO 23015KT 9999 OVC043 13/06 Q1024
                        NOSIG=
201512012250 METAR COR EGLL 012250Z AUTO 22011KT 9999 OVC043 12/07 Q1024
                        NOSIG=
201512012220 METAR COR EGLL 012220Z AUTO 22011KT 9999 OVC042 13/06 Q1024
                        NOSIG=
201512012150 METAR COR EGLL 012150Z AUTO 22012KT 9999 OVC037 13/06 Q1024
                        NOSIG=
201512012120 METAR COR EGLL 012120Z AUTO 23012KT 9999 OVC042 13/05 Q1024
                        NOSIG=
201512012050 METAR COR EGLL 012050Z AUTO 24014KT 9999 OVC043 13/05 Q1024
                        NOSIG=
201512012020 METAR COR EGLL 012020Z AUTO 23012KT 9999 OVC041 13/05 Q1024
                        NOSIG=
201512011950 METAR COR EGLL 011950Z AUTO 23013KT 9999 OVC038 13/05 Q1025
                        NOSIG=
201512011920 METAR COR EGLL 011920Z AUTO 24013KT 9999 OVC037 13/06 Q1024
                        NOSIG=
201512011850 METAR COR EGLL 011850Z AUTO 23015KT 9999 OVC048 13/06 Q1024
                        NOSIG=
201512011820 METAR COR EGLL 011820Z AUTO 24014KT 9999 OVC048 13/06 Q1024
                        NOSIG=
201512011750 METAR COR EGLL 011750Z AUTO 23014KT 9999 OVC048 13/07 Q1024
                        NOSIG=
201512011720 METAR COR EGLL 011720Z AUTO 23012KT 9999 OVC046 14/07 Q1024
                        NOSIG=
201512011650 METAR COR EGLL 011650Z AUTO 24012KT 9999 OVC044 13/07 Q1024
                        NOSIG=
201512011620 METAR COR EGLL 011620Z AUTO 24015KT 9999 OVC043 14/08 Q1023
                        NOSIG=
201512011550 METAR COR EGLL 011550Z AUTO 23012KT 9999 OVC042 14/08 Q1023
                        NOSIG=
201512011520 METAR COR EGLL 011520Z AUTO 24012KT 9999 BKN032 14/08 Q1023
                        NOSIG=
201512011450 METAR COR EGLL 011450Z AUTO 24014KT 9999 OVC028 14/08 Q1023
                        NOSIG=
201512011420 METAR COR EGLL 011420Z AUTO 24014KT 9999 OVC029 14/09 Q1023
                        NOSIG=
201512011350 METAR COR EGLL 011350Z AUTO 24014KT 9999 BKN028 OVC043 14/09
                        Q1023 NOSIG=
201512011320 METAR COR EGLL 011320Z AUTO 24014KT 9999 BKN042 14/09 Q1023
                        NOSIG=
201512011250 METAR COR EGLL 011250Z AUTO 23016KT 9999 BKN024 14/09 Q1023
                        NOSIG=
201512011220 METAR COR EGLL 011220Z AUTO 23012KT 9999 FEW028 BKN039 14/09
                        Q1023 NOSIG=
201512011150 METAR COR EGLL 011150Z AUTO 23013KT 9999 BKN033 14/09 Q1023
                        NOSIG=
201512011120 METAR COR EGLL 011120Z AUTO 24014KT 9999 OVC022 14/09 Q1024
                        NOSIG=
201512011050 METAR COR EGLL 011050Z AUTO 25016KT 9999 OVC022 14/09 Q1024
                        NOSIG=
201512011020 METAR COR EGLL 011020Z AUTO 24014KT 9999 OVC020 14/10 Q1023
                        NOSIG=
201512010950 METAR COR EGLL 010950Z AUTO 24014KT 9999 OVC017 14/10 Q1023
                        NOSIG=
201512010920 METAR COR EGLL 010920Z AUTO 24012KT 9999 OVC017 13/10 Q1023
                        NOSIG=
201512010850 METAR COR EGLL 010850Z AUTO 25015KT 9999 BKN011 13/11 Q1022
                        TEMPO BKN015=
201512010820 METAR COR EGLL 010820Z AUTO 25013KT 9999 OVC015 13/11 Q1022
                        TEMPO BKN014=
201512010750 METAR COR EGLL 010750Z AUTO 25014KT 9999 BKN012 13/11 Q1022
                        NOSIG=
201512010720 METAR COR EGLL 010720Z AUTO 25014KT 9999 BKN011 13/11 Q1021
                        NOSIG=
201512010650 METAR COR EGLL 010650Z AUTO 25013KT 9999 OVC011 13/11 Q1021
                        NOSIG=
201512010620 METAR COR EGLL 010620Z AUTO 25013KT 9999 OVC012 13/11 Q1021
                        BECMG SCT012 BKN018=
201512010550 METAR COR EGLL 010550Z AUTO 25012KT 9999 OVC008 13/12 Q1021
                        BECMG SCT009 BKN020=
201512010520 METAR COR EGLL 010520Z AUTO 25011KT 8000 BKN006 13/12 Q1020
                        BECMG SCT006 BKN010=
201512010450 METAR COR EGLL 010450Z AUTO 25012KT 3800 HZ BKN006 13/12
                        Q1020 BECMG 6000 SCT006 BKN010=
201512010420 METAR COR EGLL 010420Z AUTO 25012KT 8000 OVC007 13/12 Q1020
                        TEMPO SCT007 BKN010=
201512010350 METAR COR EGLL 010350Z AUTO 24010KT 9999 BKN006 13/12 Q1020
                        TEMPO SCT006 BKN015=
201512010320 METAR COR EGLL 010320Z AUTO 27001KT 3600 -DZ OVC003 12/12
                        Q1020 REDZ BECMG SCT005 BKN008=
201512010250 METAR COR EGLL 010250Z AUTO 03003KT 3500 BR OVC003 10/09
                        Q1020 TEMPO OVC006=
201512010220 METAR COR EGLL 010220Z AUTO VRB03KT 6000 -RA OVC003 10/09
                        Q1020 TEMPO SCT004 BKN005=
201512010150 METAR COR EGLL 010150Z AUTO 04004KT 360V070 9000 -RA BKN003
                        10/09 Q1019 TEMPO SCT005 BKN009=
201512010120 METAR COR EGLL 010120Z AUTO 28008KT 240V360 9999 -RA OVC007
                        13/12 Q1019 TEMPO FEW007=
201512010050 METAR COR EGLL 010050Z AUTO 25010KT 7000 -RA BKN006 13/12
                        Q1019 TEMPO FEW007=
201512010020 METAR COR EGLL 010020Z AUTO 24012KT 7000 BKN007 OVC028 13/12
                        Q1018 TEMPO FEW007=

</pre>

</body>
</html>
