##########################################################
# Query made at 12/27/2012 09:43:35 UTC
# Time interval: from 12/01/2010 00:00  to 12/31/2010 23:59  UTC
##########################################################

##########################################################
# EGLL, London / Heathrow Airport (United Kingdom)
# WMO index: 03772
# Latitude 51-29N. Longitude 000-27W. Altitude 24 m.
##########################################################

###################################
#  METAR/SPECI from EGLL
###################################
201012312350 METAR EGLL 312350Z 32004KT 9000 OVC021 06/02 Q1026=
201012312320 METAR COR EGLL 312320Z 34004KT 8000 OVC024 06/03 Q1026 NOSIG=
201012312250 METAR COR EGLL 312250Z VRB03KT 7000 OVC024 06/03 Q1026 NOSIG=
201012312220 METAR COR EGLL 312220Z VRB02KT 7000 OVC026 06/04 Q1026 NOSIG=
201012312150 METAR COR EGLL 312150Z 31002KT 7000 OVC026 06/04 Q1026 NOSIG=
201012312120 METAR COR EGLL 312120Z 31003KT 6000 BKN026 06/04 Q1026 NOSIG=
201012312050 METAR COR EGLL 312050Z 31003KT 7000 OVC025 06/04 Q1026 NOSIG=
201012312020 METAR COR EGLL 312020Z VRB03KT 6000 OVC026 06/04 Q1026 NOSIG=
201012311950 METAR COR EGLL 311950Z 31003KT 6000 OVC024 06/04 Q1026 NOSIG=
201012311920 METAR COR EGLL 311920Z 31003KT 6000 OVC024 06/04 Q1026 NOSIG=
201012311850 METAR COR EGLL 311850Z VRB03KT 5000 BR OVC024 06/04 Q1026
                        NOSIG=
201012311820 METAR COR EGLL 311820Z 36003KT 7000 OVC025 06/04 Q1026 NOSIG=
201012311750 METAR COR EGLL 311750Z VRB03KT 7000 BKN026 06/04 Q1026 NOSIG=
201012311720 METAR COR EGLL 311720Z 35003KT 7000 BKN025 06/04 Q1026 NOSIG=
201012311650 METAR COR EGLL 311650Z VRB03KT 8000 BKN025 06/04 Q1026 NOSIG=
201012311620 METAR COR EGLL 311620Z VRB03KT 7000 FEW019 OVC025 06/04 Q1026
                        NOSIG=
201012311550 METAR COR EGLL 311550Z 31002KT 8000 FEW021 OVC024 06/04 Q1026
                        NOSIG=
201012311520 METAR COR EGLL 311520Z 00000KT 9000 OVC023 07/05 Q1026 NOSIG=
201012311450 METAR COR EGLL 311450Z 36002KT 8000 BKN022 07/05 Q1026 NOSIG=
201012311420 METAR COR EGLL 311420Z 35003KT 9000 BKN022 07/05 Q1026 NOSIG=
201012311350 METAR EGLL 311350Z VRB02KT 8000 BKN022 07/05 Q1026=
201012311320 METAR COR EGLL 311320Z 36002KT 7000 BKN022 07/04 Q1026 NOSIG=
201012311250 METAR COR EGLL 311250Z 35003KT 7000 BKN023 07/04 Q1026 NOSIG=
201012311220 METAR COR EGLL 311220Z 04003KT 7000 BKN023 07/04 Q1027 NOSIG=
201012311150 METAR EGLL 311150Z 04003KT 7000 BKN023 06/04 Q1027=
201012311120 METAR COR EGLL 311120Z 05002KT 7000 BKN024 06/04 Q1027 NOSIG=
201012311050 METAR COR EGLL 311050Z VRB02KT 7000 BKN025 06/04 Q1027 NOSIG=
201012311020 METAR COR EGLL 311020Z VRB02KT 7000 BKN025 06/04 Q1027 NOSIG=
201012310950 METAR COR EGLL 310950Z VRB02KT 8000 BKN026 06/04 Q1027 NOSIG=
201012310920 METAR COR EGLL 310920Z VRB02KT 7000 BKN027 05/04 Q1027 NOSIG=
201012310850 METAR COR EGLL 310850Z VRB02KT 6000 BKN028 05/04 Q1027 NOSIG=
201012310820 METAR COR EGLL 310820Z VRB03KT 6000 BKN028 05/04 Q1027 NOSIG=
201012310750 METAR COR EGLL 310750Z VRB03KT 8000 BKN029 05/04 Q1027 NOSIG=
201012310720 METAR COR EGLL 310720Z 36003KT 8000 BKN029 05/04 Q1026 NOSIG=
201012310650 METAR COR EGLL 310650Z 36003KT 8000 BKN030 05/04 Q1026 NOSIG=
201012310620 METAR COR EGLL 310620Z 36004KT 9000 BKN027 05/04 Q1026 NOSIG=
201012310550 METAR COR EGLL 310550Z 00000KT 9999 BKN025 05/03 Q1026 NOSIG=
201012310520 METAR COR EGLL 310520Z 00000KT 9999 BKN023 06/03 Q1026 NOSIG=
201012310450 METAR COR EGLL 310450Z 00000KT 9999 BKN020 05/03 Q1026 NOSIG=
201012310420 METAR COR EGLL 310420Z 00000KT 9999 BKN019 05/03 Q1026 NOSIG=
201012310350 METAR COR EGLL 310350Z 10003KT 9000 BKN018 05/04 Q1026 NOSIG=
201012310320 METAR COR EGLL 310320Z 11003KT 9000 BKN015 05/03 Q1026 NOSIG=
201012310250 METAR COR EGLL 310250Z 10004KT 9000 BKN016 05/04 Q1026 NOSIG=
201012310220 METAR COR EGLL 310220Z 10004KT 9000 BKN016 05/03 Q1026 NOSIG=
201012310150 METAR COR EGLL 310150Z 10004KT 9999 BKN016 05/03 Q1025 NOSIG=
201012310120 METAR COR EGLL 310120Z 10005KT 9999 BKN012 BKN016 05/03 Q1025
                        NOSIG=
201012310050 METAR COR EGLL 310050Z 08008KT 040V110 9999 BKN011 06/03
                        Q1025 NOSIG=
201012310020 METAR COR EGLL 310020Z 07006KT 9999 BKN013 06/03 Q1025 NOSIG=
201012302350 METAR COR EGLL 302350Z 07006KT 9999 BKN014 06/03 Q1026 NOSIG=
201012302320 METAR COR EGLL 302320Z 06007KT 9000 FEW011 BKN014 06/03 Q1026
                        TEMPO 4000 BKN005=
201012302250 METAR COR EGLL 302250Z 07006KT 7000 FEW008 BKN013 06/04 Q1026
                        TEMPO 4000 BKN006=
201012302220 METAR COR EGLL 302220Z 08006KT 6000 FEW006 BKN012 06/04 Q1025
                        TEMPO BKN005=
201012302150 METAR COR EGLL 302150Z 10006KT 6000 FEW006 BKN020 06/04 Q1025
                        NOSIG=
201012302120 METAR COR EGLL 302120Z 07004KT 6000 FEW008 BKN020 06/04 Q1025
                        TEMPO 4000 BKN005=
201012302050 METAR COR EGLL 302050Z 07005KT 6000 SCT006 BKN020 06/04 Q1025
                        TEMPO 4000 BKN005=
201012302020 METAR COR EGLL 302020Z 06005KT 020V090 5000 BR FEW006 BKN018
                        06/05 Q1025 TEMPO BKN005=
201012301950 METAR COR EGLL 301950Z 06005KT 5000 BR FEW006 BKN020 06/05
                        Q1025 TEMPO BKN005=
201012301920 METAR COR EGLL 301920Z 06006KT 4500 BR FEW005 BKN019 06/05
                        Q1025 BECMG BKN005=
201012301850 METAR COR EGLL 301850Z 06005KT 3800 BR SCT003 BKN005 BKN019
                        06/05 Q1025 NOSIG=
201012301820 METAR COR EGLL 301820Z 06005KT 3500 BR FEW002 BKN003 07/06
                        Q1025 NOSIG=
201012301750 METAR COR EGLL 301750Z 06004KT 4500 BR FEW004 SCT006 07/06
                        Q1024 BECMG BKN005=
201012301720 METAR COR EGLL 301720Z 06005KT 4500 BR FEW004 BKN006 07/06
                        Q1024 NOSIG=
201012301650 METAR EGLL 301650Z 06004KT 4400 BR FEW004 BKN007 07/06 Q1024=
201012301620 METAR COR EGLL 301620Z VRB03KT 3200 BR SCT005 BKN010 07/06
                        Q1024 NOSIG=
201012301550 METAR EGLL 301550Z 06004KT 2800 -DZ SCT004 BKN006 07/06 Q1024=
201012301520 METAR COR EGLL 301520Z 06004KT 020V090 2600 -DZ FEW004 BKN006
                        07/06 Q1024 NOSIG=
201012301450 METAR COR EGLL 301450Z VRB03KT 4000 BR SCT007 BKN010 07/06
                        Q1024 NOSIG=
201012301420 METAR EGLL 301420Z 04003KT 4500 BR FEW007 BKN008 07/06 Q1024=
201012301350 METAR EGLL 301350Z 08003KT 6000 BKN008 07/06 Q1024=
201012301320 METAR COR EGLL 301320Z 08004KT 6000 BKN009 08/06 Q1024 NOSIG=
201012301250 METAR COR EGLL 301250Z 11003KT 6000 SCT006 BKN009 07/06 Q1025
                        NOSIG=
201012301220 METAR COR EGLL 301220Z 09004KT 6000 BKN006 07/06 Q1025 NOSIG=
201012301150 METAR COR EGLL 301150Z 09005KT 6000 BKN006 07/06 Q1025 NOSIG=
201012301120 METAR COR EGLL 301120Z 07003KT 4500 BR SCT006 BKN008 07/05
                        Q1025 NOSIG=
201012301050 METAR COR EGLL 301050Z VRB02KT 9000 4300NE BR SCT006 BKN008
                        07/05 Q1025 NOSIG=
201012301020 METAR COR EGLL 301020Z 00000KT 6000 FEW005 BKN007 07/05 Q1025
                        NOSIG=
201012300950 METAR COR EGLL 300950Z 16003KT 6000 SCT004 BKN009 06/05 Q1025
                        TEMPO 4000 BR BKN004=
201012300920 METAR COR EGLL 300920Z 17004KT 2100 BR SCT003 BKN004 06/05
                        Q1025 TEMPO 5000 HZ BKN008=
201012300850 METAR EGLL 300850Z 12005KT 3700 BR FEW003 BKN004 06/05 Q1024=
201012300820 METAR EGLL 300820Z 14004KT 4000 BR SCT005 BKN006 07/05 Q1024=
201012300750 METAR COR EGLL 300750Z 11004KT 5000 BR BKN007 06/06 Q1024
                        TEMPO 4000 BR BKN004=
201012300720 METAR COR EGLL 300720Z 09004KT 5000 BR FEW003 BKN006 07/06
                        Q1024 TEMPO 4000 BR BKN004=
201012300650 METAR COR EGLL 300650Z 08004KT 4900 BR SCT002 BKN006 06/06
                        Q1024 TEMPO BKN004=
201012300620 METAR COR EGLL 300620Z 10004KT 4000 BR SCT002 BKN003 06/06
                        Q1024 NOSIG=
201012300550 METAR COR EGLL 300550Z 09004KT 4000 BR SCT002 BKN004 07/06
                        Q1024 NOSIG=
201012300520 METAR COR EGLL 300520Z 09004KT 2000 BR BKN001 BKN004 06/06
                        Q1023 TEMPO 1200=
201012300450 METAR COR EGLL 300450Z 07005KT 2500 BR BKN002 BKN005 07/06
                        Q1023 NOSIG=
201012300420 METAR COR EGLL 300420Z 09004KT 4400 BR BKN003 07/06 Q1023
                        NOSIG=
201012300350 METAR COR EGLL 300350Z 10005KT 3400 BR BKN003 BKN006 07/06
                        Q1023 NOSIG=
201012300320 METAR EGLL 300320Z 09006KT 3400 BR BKN003 BKN006 07/06 Q1023=
201012300250 METAR COR EGLL 300250Z 10005KT 3000 HZ BKN003 BKN008 07/06
                        Q1023 TEMPO 1200=
201012300220 METAR COR EGLL 300220Z 09005KT 3200 BR OVC003 07/06 Q1022
                        NOSIG=
201012300150 METAR COR EGLL 300150Z 09004KT 3400 BR BKN003 07/06 Q1022
                        BECMG 2500=
201012300120 METAR COR EGLL 300120Z 10005KT 2400 BR BKN003 07/06 Q1022
                        BECMG 1400=
201012300050 METAR COR EGLL 300050Z 09005KT 1800 DZ BR FEW002 BKN004 07/07
                        Q1022 BECMG 1200=
201012300020 METAR COR EGLL 300020Z 10005KT 1800 DZ BR BKN003 BKN008 07/07
                        Q1022 BECMG 1200=
201012292350 METAR COR EGLL 292350Z 09005KT 3000 BR BKN003 08/07 Q1022
                        BECMG 1400=
201012292320 METAR COR EGLL 292320Z 08005KT 1900 DZ BR BKN003 08/07 Q1022
                        BECMG 1400=
201012292250 METAR COR EGLL 292250Z 09005KT 2800 BR BKN003 BKN006 08/07
                        Q1022 NOSIG=
201012292220 METAR COR EGLL 292220Z 09004KT 060V130 2800 -DZ BR BKN002
                        BKN008 08/07 Q1022 TEMPO 1400=
201012292150 METAR COR EGLL 292150Z 10005KT 2000 -DZRA BR FEW002 BKN004
                        08/07 Q1022 TEMPO 1200=
201012292120 METAR COR EGLL 292120Z 11006KT 080V160 2300 -DZ BR FEW002
                        BKN003 08/07 Q1022 TEMPO 1400=
201012292050 METAR COR EGLL 292050Z 10006KT 2500 -DZ BR FEW001 SCT002
                        BKN004 08/08 Q1021 TEMPO 1400=
201012292020 METAR COR EGLL 292020Z 11006KT 2000 -DZ FEW001 BKN004 08/08
                        Q1021 BECMG 1400 BR BKN001=
201012291950 METAR COR EGLL 291950Z 12005KT 100V180 3200 -DZ SCT003 BKN006
                        BKN010 08/08 Q1021 REDZ=
201012291920 METAR COR EGLL 291920Z VRB02KT 3200 DZ SCT003 BKN010 08/08
                        Q1021 BECMG BKN007=
201012291850 METAR COR EGLL 291850Z 14004KT 7000 -DZ SCT004 BKN009 09/08
                        Q1021 BECMG 3000 BR=
201012291820 METAR COR EGLL 291820Z 15004KT 110V210 7000 SCT004 BKN008
                        09/08 Q1020 BECMG 3000 BR=
201012291750 METAR COR EGLL 291750Z 13005KT 110V170 3000 -DZ BKN003 BKN009
                        09/08 Q1020 NOSIG=
201012291720 METAR COR EGLL 291720Z 12005KT 7000 SCT002 BKN005 09/08 Q1020
                        BECMG 3000 BR=
201012291650 METAR COR EGLL 291650Z 12005KT 090V190 7000 FEW001 SCT003
                        BKN005 09/08 Q1020 BECMG 3000 BR=
201012291620 METAR COR EGLL 291620Z 11005KT 090V160 2900 -RADZ BR FEW003
                        BKN005 09/08 Q1020 NOSIG=
201012291550 METAR COR EGLL 291550Z 11005KT 090V160 2600 -DZ BR SCT003
                        BKN005 09/08 Q1020 NOSIG=
201012291520 METAR COR EGLL 291520Z VRB02KT 2500 -DZ BR SCT003 BKN005
                        09/08 Q1019 NOSIG=
201012291450 METAR COR EGLL 291450Z VRB03KT 2100 -DZ BR SCT002 BKN003
                        09/08 Q1019 NOSIG=
201012291420 METAR COR EGLL 291420Z VRB03KT 5000 BR BKN003 09/08 Q1019
                        BECMG 3000=
201012291350 METAR COR EGLL 291350Z VRB03KT 5000 -DZ BKN004 09/08 Q1019
                        BECMG 3000 BR=
201012291320 METAR COR EGLL 291320Z 17004KT 110V250 5000 BR BKN003 09/08
                        Q1019 BECMG 3000=
201012291250 METAR COR EGLL 291250Z VRB04KT 3700 BR BKN003 09/08 Q1019
                        NOSIG=
201012291220 METAR COR EGLL 291220Z 19004KT 130V270 3500 BR BKN003 BKN013
                        09/08 Q1020 NOSIG=
201012291150 METAR COR EGLL 291150Z 19005KT 140V250 4500 BR FEW002 BKN005
                        BKN013 09/08 Q1020 NOSIG=
201012291120 METAR COR EGLL 291120Z VRB03KT 4000 BR FEW002 BKN005 BKN012
                        09/08 Q1020 NOSIG=
201012291050 METAR COR EGLL 291050Z VRB03KT 3500 BR FEW002 BKN005 BKN010
                        08/08 Q1020 TEMPO BKN004=
201012291020 METAR COR EGLL 291020Z VRB02KT 3300 BR FEW002 BKN003 BKN008
                        08/08 Q1020 NOSIG=
201012290950 METAR COR EGLL 290950Z VRB03KT 3000 BR FEW001 BKN004 08/08
                        Q1020 NOSIG=
201012290920 METAR COR EGLL 290920Z 13004KT 080V170 1500 BR SCT001 BKN004
                        08/07 Q1020 TEMPO 0800 FG BKN001=
201012290850 METAR COR EGLL 290850Z VRB03KT 1600 BR FEW002 SCT003 BKN006
                        08/07 Q1019 NOSIG=
201012290820 METAR COR EGLL 290820Z VRB03KT 1400 1000SW R27L/0800 R27R/P1500
                        PRFG SCT002 BKN006 08/07 Q1019 TEMPO
                        0300 FG VV///=
201012290750 METAR COR EGLL 290750Z 14004KT 110V190 1400 0900S R27L/1100
                        R27R/P1500 PRFG BKN001 07/07 Q1019
                        TEMPO 0400 FG=
201012290720 METAR EGLL 290720Z VRB03KT 0700 R27L/0900 R27R/P1500 FG BKN001
                        07/07 Q1019=
201012290650 METAR COR EGLL 290650Z VRB02KT 0800 R27L/1400 R27R/P1500
                        FG BKN001 07/07 Q1018 TEMPO 0600=
201012290620 METAR COR EGLL 290620Z VRB02KT 1200 R27L/1500 R27R/P1500
                        BR VV/// 07/06 Q1018 TEMPO 0800 FG=
201012290550 METAR COR EGLL 290550Z VRB03KT 0300 R27R/1400 FG VV/// 07/06
                        Q1018 TEMPO 0600=
201012290520 METAR COR EGLL 290520Z VRB02KT 0200 R27R/0600 FG VV/// 07/06
                        Q1018 NOSIG=
201012290450 METAR COR EGLL 290450Z VRB03KT 0150 R27R/0400 FG VV/// 07/06
                        Q1018 NOSIG=
201012290420 METAR EGLL 290420Z VRB02KT 0150 R27R/0750 FG VV/// 07/06
                        Q1018=
201012290350 METAR COR EGLL 290350Z 00000KT 0200 FG VV/// 07/06 Q1018
                        NOSIG=
201012290320 METAR COR EGLL 290320Z 00000KT 0200 FG VV/// 07/06 Q1018
                        NOSIG=
201012290250 METAR COR EGLL 290250Z 10002KT 0300 R27R/0500 FG VV/// 07/06
                        Q1018 TEMPO 0500=
201012290220 METAR COR EGLL 290220Z 10002KT 0500 R27R/0650 FG BKN001 07/06
                        Q1017 TEMPO 0800=
201012290150 METAR COR EGLL 290150Z 10002KT 0500 R27R/0650 FG BKN001 07/06
                        Q1017 TEMPO 0800=
201012290120 METAR COR EGLL 290120Z 13003KT 1000 0450S R27R/0550 FG BKN001
                        07/06 Q1017 TEMPO 1500 BR BKN002=
201012290050 METAR COR EGLL 290050Z 14003KT 2300 BR BKN002 BKN003 07/06
                        Q1017 TEMPO 1400=
201012290020 METAR COR EGLL 290020Z 00000KT 2900 BR BKN002 BKN005 07/06
                        Q1017 TEMPO 1400=
201012282350 METAR COR EGLL 282350Z VRB02KT 3600 BR BKN002 BKN006 07/07
                        Q1017 NOSIG=
201012282320 METAR COR EGLL 282320Z 19002KT 4500 BR BKN002 BKN006 OVC009
                        07/07 Q1017 NOSIG=
201012282250 METAR COR EGLL 282250Z 20005KT 4400 BR BKN002 BKN006 08/07
                        Q1017 NOSIG=
201012282220 METAR COR EGLL 282220Z 16003KT 2700 BR BKN002 07/07 Q1017
                        NOSIG=
201012282150 METAR COR EGLL 282150Z VRB03KT 1800 BR BKN003 08/07 Q1017
                        TEMPO 1400=
201012282120 METAR COR EGLL 282120Z VRB02KT 1900 -DZ BR BKN003 07/06 Q1017
                        TEMPO 1400=
201012282050 METAR EGLL 282050Z 14004KT 2200 BR SCT002 OVC004 07/06 Q1016=
201012282020 METAR COR EGLL 282020Z 16004KT 120V210 2300 BR SCT002 OVC003
                        07/06 Q1016 TEMPO 1400=
201012281950 METAR COR EGLL 281950Z 15004KT 110V210 1700 BR FEW001 OVC002
                        07/06 Q1016 TEMPO 0800 FG BKN001=
201012281920 METAR COR EGLL 281920Z 14004KT 100V200 1700 0700SE R27R/P1500
                        R27L/P1500 BR BKN002 OVC003 07/06
                        Q1016 TEMPO 0800 FG BKN001=
201012281850 METAR COR EGLL 281850Z 15004KT 110V210 1700 BR BKN002 OVC003
                        07/06 Q1016 NOSIG=
201012281820 METAR COR EGLL 281820Z 14004KT 120V180 1500 BR BKN002 OVC003
                        07/06 Q1015 NOSIG=
201012281750 METAR COR EGLL 281750Z VRB03KT 2300 BR SCT002 OVC004 07/06
                        Q1015 TEMPO 1200 BKN002=
201012281720 METAR EGLL 281720Z 14004KT 110V180 1600 DZ BR BKN003 OVC004
                        07/06 Q1015=
201012281650 METAR COR EGLL 281650Z 14004KT 100V190 4000 BR BKN003 OVC004
                        07/06 Q1015 NOSIG=
201012281620 METAR COR EGLL 281620Z 15004KT 100V220 1700 HZ BKN002 OVC004
                        07/06 Q1015 NOSIG=
201012281550 METAR COR EGLL 281550Z 14004KT 110V200 1500 BR BKN002 OVC003
                        07/06 Q1015 NOSIG=
201012281520 METAR COR EGLL 281520Z 20004KT 150V250 2300 BR SCT002 OVC003
                        07/06 Q1014 TEMPO BKN002=
201012281450 METAR COR EGLL 281450Z 21003KT 3000 BR OVC003 07/06 Q1014
                        TEMPO BKN002=
201012281420 METAR COR EGLL 281420Z 18002KT 2600 -DZ BR FEW001 OVC003
                        07/06 Q1014 TEMPO BKN002=
201012281350 METAR COR EGLL 281350Z 14003KT 2700 -DZ BR OVC003 07/06 Q1014
                        TEMPO 1200=
201012281320 METAR COR EGLL 281320Z 16003KT 4000 BR OVC003 07/05 Q1014
                        NOSIG=
201012281250 METAR COR EGLL 281250Z 13003KT 4800 BR FEW002 BKN003 06/05
                        Q1014 NOSIG=
201012281220 METAR COR EGLL 281220Z 14004KT 3000 BR FEW002 BKN003 06/05
                        Q1014 NOSIG=
201012281150 METAR EGLL 281150Z 14004KT 3500 BR SCT002 BKN004 06/05 Q1014
                        NOSIG=
201012281120 METAR COR EGLL 281120Z 15006KT 2700 BR BKN002 05/04 Q1014
                        NOSIG=
201012281050 METAR COR EGLL 281050Z 17006KT 1400 R09L/P1500 R09R/P1500
                        BR FEW001 BKN002 05/04 Q1013 NOSIG=
201012281020 METAR COR EGLL 281020Z 15008KT 1100 -DZ BR FEW001 BKN002
                        05/04 Q1013 TEMPO 2000 BKN003=
201012280950 METAR COR EGLL 280950Z 15005KT 2700 -RA SCT002 BKN004 05/04
                        Q1013 TEMPO BKN002=
201012280920 METAR COR EGLL 280920Z 15006KT 2500 -RADZ FEW002 BKN006 04/03
                        Q1013 TEMPO BKN003=
201012280850 METAR COR EGLL 280850Z 14005KT 3000 -RADZ FEW002 BKN006 04/03
                        Q1013 TEMPO BKN003=
201012280820 METAR COR EGLL 280820Z 15006KT 2500 HZ FEW003 SCT005 BKN006
                        04/03 Q1013 TEMPO BKN003=
201012280750 METAR COR EGLL 280750Z 14005KT 3500 BR FEW002 BKN006 BKN007
                        04/03 Q1012 TEMPO BKN004=
201012280720 METAR COR EGLL 280720Z 14005KT 3500 BR FEW002 OVC006 04/03
                        Q1012 BECMG BKN003=
201012280650 METAR COR EGLL 280650Z 14006KT 3200 BR BKN007 03/02 Q1012
                        BECMG BKN004=
201012280620 METAR COR EGLL 280620Z 13005KT 4000 -RADZ BR FEW004 BKN009
                        03/02 Q1012 BECMG BKN004=
201012280550 METAR COR EGLL 280550Z 14006KT 3000 RA FEW004 BKN010 03/02
                        Q1012 BECMG BR BKN004=
201012280520 METAR COR EGLL 280520Z 15006KT 3500 RADZ BR FEW008 BKN009
                        03/02 Q1011 NOSIG=
201012280450 METAR COR EGLL 280450Z 13006KT 5000 -RA BR BKN011 03/02 Q1011
                        RERA BECMG BKN008=
201012280420 METAR COR EGLL 280420Z 14006KT 4000 -RA BR BKN012 03/02 Q1012
                        RERA BECMG BKN008=
201012280350 METAR COR EGLL 280350Z 14006KT 4000 -RA SCT011 BKN024 03/01
                        Q1011 BECMG BKN008=
201012280320 METAR COR EGLL 280320Z 13006KT 9999 BKN025 03/01 Q1012 BECMG
                        BKN012=
201012280250 METAR COR EGLL 280250Z 11006KT 9000 BKN025 03/01 Q1011 BECMG
                        BKN012=
201012280220 METAR COR EGLL 280220Z 13006KT 9999 BKN027 03/01 Q1012 BECMG
                        BKN012=
201012280150 METAR COR EGLL 280150Z 13008KT 9999 BKN030 03/01 Q1012 NOSIG=
201012280120 METAR COR EGLL 280120Z 13006KT 9999 BKN032 03/01 Q1012 BECMG
                        BKN012=
201012280050 METAR COR EGLL 280050Z 14007KT 110V170 8000 -RA BKN039 03/01
                        Q1012 BECMG BKN012=
201012280020 METAR COR EGLL 280020Z 13009KT 9999 -RA SCT039 03/01 Q1012
                        TEMPO RA=
201012272350 METAR COR EGLL 272350Z 13007KT 8000 RA SCT048 03/01 Q1012
                        TEMPO 3500 RASN BKN012=
201012272320 METAR COR EGLL 272320Z 14007KT 6000 RA FEW035 BKN045 03/00
                        Q1012 TEMPO 3500 RASN BKN012=
201012272250 METAR COR EGLL 272250Z 14007KT 8000 RA NSC 03/M00 Q1012 TEMPO
                        3500 RASN BKN012=
201012272220 METAR COR EGLL 272220Z 15008KT 9999 -RA NSC 03/M01 Q1012
                        TEMPO RA=
201012272150 METAR COR EGLL 272150Z 15009KT CAVOK 04/M02 Q1013 TEMPO RA=
201012272120 METAR COR EGLL 272120Z 15009KT 120V180 CAVOK 04/M02 Q1013
                        NOSIG=
201012272050 METAR COR EGLL 272050Z 15009KT 100V180 CAVOK 04/M02 Q1013
                        NOSIG=
201012272020 METAR COR EGLL 272020Z 15009KT CAVOK 03/M02 Q1013 NOSIG=
201012271950 METAR COR EGLL 271950Z 14008KT 090V160 CAVOK 03/M01 Q1014
                        NOSIG=
201012271920 METAR COR EGLL 271920Z 14008KT CAVOK 03/M02 Q1014 NOSIG=
201012271850 METAR COR EGLL 271850Z 14008KT 090V170 CAVOK 03/M01 Q1014
                        NOSIG=
201012271820 METAR COR EGLL 271820Z 14008KT 030V160 CAVOK 04/M01 Q1014
                        NOSIG=
201012271750 METAR COR EGLL 271750Z 14009KT CAVOK 04/M01 Q1014 NOSIG=
201012271720 METAR COR EGLL 271720Z 15008KT 110V170 CAVOK 03/M01 Q1014
                        NOSIG=
201012271650 METAR COR EGLL 271650Z 15009KT 090V170 CAVOK 03/M01 Q1014
                        NOSIG=
201012271620 METAR COR EGLL 271620Z 15008KT CAVOK 04/M01 Q1015 NOSIG=
201012271550 METAR EGLL 271550Z 15009KT CAVOK 04/M01 Q1015=
201012271520 METAR COR EGLL 271520Z 15008KT 100V180 CAVOK 04/M01 Q1015
                        NOSIG=
201012271450 METAR COR EGLL 271450Z 17008KT 140V230 CAVOK 04/M01 Q1015
                        NOSIG=
201012271420 METAR COR EGLL 271420Z 17010KT 140V230 CAVOK 04/M00 Q1015
                        NOSIG=
201012271350 METAR COR EGLL 271350Z 18011KT 150V230 CAVOK 04/M00 Q1015
                        NOSIG=
201012271320 METAR COR EGLL 271320Z 18011KT 150V240 CAVOK 04/M00 Q1015
                        NOSIG=
201012271250 METAR COR EGLL 271250Z 17012KT 140V240 CAVOK 04/00 Q1015
                        NOSIG=
201012271220 METAR COR EGLL 271220Z 18013KT 150V240 CAVOK 04/00 Q1015
                        NOSIG=
201012271150 METAR COR EGLL 271150Z 18013KT 140V230 CAVOK 04/00 Q1016
                        NOSIG=
201012271120 METAR COR EGLL 271120Z 17012KT 140V230 9999 FEW017 04/00
                        Q1016 NOSIG=
201012271050 METAR COR EGLL 271050Z 19012KT 160V240 9999 FEW020 04/00
                        Q1017 NOSIG=
201012271020 METAR COR EGLL 271020Z 19012KT 170V240 CAVOK 04/00 Q1017
                        NOSIG=
201012270950 METAR COR EGLL 270950Z 18011KT 170V230 CAVOK 04/00 Q1017
                        NOSIG=
201012270920 METAR COR EGLL 270920Z 18010KT 150V220 CAVOK 03/M00 Q1017
                        NOSIG=
201012270850 METAR COR EGLL 270850Z 19008KT 150V240 9999 FEW020 03/M00
                        Q1017 NOSIG=
201012270820 METAR COR EGLL 270820Z 18009KT 150V210 9999 FEW020 03/00
                        Q1017 NOSIG=
201012270750 METAR COR EGLL 270750Z 17009KT 140V220 9999 FEW020 03/00
                        Q1018 NOSIG=
201012270720 METAR COR EGLL 270720Z 18007KT 150V230 9999 FEW020 03/00
                        Q1018 NOSIG=
201012270650 METAR COR EGLL 270650Z 18007KT 9999 FEW019 03/M00 Q1018 NOSIG=
201012270620 METAR COR EGLL 270620Z 19007KT 9999 FEW025 03/M00 Q1018 NOSIG=
201012270550 METAR COR EGLL 270550Z 18006KT CAVOK 03/M00 Q1018 NOSIG=
201012270520 METAR COR EGLL 270520Z 18006KT CAVOK 03/M00 Q1018 NOSIG=
201012270450 METAR COR EGLL 270450Z 17005KT 9999 FEW023 02/M01 Q1019 NOSIG=
201012270420 METAR COR EGLL 270420Z 17005KT CAVOK 03/M01 Q1019 NOSIG=
201012270350 METAR COR EGLL 270350Z 17006KT CAVOK 02/M01 Q1019 NOSIG=
201012270320 METAR COR EGLL 270320Z 17006KT CAVOK 02/M01 Q1020 NOSIG=
201012270250 METAR COR EGLL 270250Z 18004KT CAVOK 02/M01 Q1021 NOSIG=
201012270220 METAR COR EGLL 270220Z 19005KT CAVOK 02/M01 Q1021 NOSIG=
201012270150 METAR COR EGLL 270150Z 18005KT CAVOK 02/M01 Q1021 NOSIG=
201012270120 METAR COR EGLL 270120Z 19004KT CAVOK 02/M01 Q1021 NOSIG=
201012270050 METAR COR EGLL 270050Z 20005KT CAVOK 01/M01 Q1022 NOSIG=
201012270020 METAR COR EGLL 270020Z 19003KT CAVOK 01/M01 Q1022 NOSIG=
201012262350 METAR COR EGLL 262350Z 17003KT CAVOK 01/M02 Q1022 NOSIG=
201012262320 METAR COR EGLL 262320Z 16004KT 140V250 CAVOK 01/M02 Q1023
                        NOSIG=
201012262250 METAR COR EGLL 262250Z 18005KT 110V250 CAVOK 01/M03 Q1023
                        NOSIG=
201012262220 METAR COR EGLL 262220Z 17006KT 100V240 CAVOK 01/M03 Q1023
                        NOSIG=
201012262150 METAR COR EGLL 262150Z 17006KT 130V230 CAVOK 01/M03 Q1023
                        NOSIG=
201012262120 METAR COR EGLL 262120Z 16005KT 110V250 CAVOK 01/M03 Q1024
                        NOSIG=
201012262050 METAR COR EGLL 262050Z 16006KT 130V230 CAVOK 01/M02 Q1024
                        NOSIG=
201012262020 METAR COR EGLL 262020Z 18005KT 110V240 CAVOK 01/M03 Q1024
                        NOSIG=
201012261950 METAR COR EGLL 261950Z 17005KT 140V240 CAVOK M00/M04 Q1025
                        NOSIG=
201012261920 METAR COR EGLL 261920Z 18004KT 160V250 CAVOK 00/M04 Q1025
                        NOSIG=
201012261850 METAR COR EGLL 261850Z 19005KT 170V250 CAVOK 01/M04 Q1025
                        NOSIG=
201012261820 METAR COR EGLL 261820Z 18005KT 160V240 CAVOK 01/M04 Q1026
                        NOSIG=
201012261750 METAR EGLL 261750Z 20005KT 150V260 CAVOK 01/M04 Q1026=
201012261720 METAR COR EGLL 261720Z 19004KT 160V230 CAVOK 00/M04 Q1026
                        NOSIG=
201012261650 METAR COR EGLL 261650Z 20005KT 150V250 CAVOK 01/M05 Q1026
                        NOSIG=
201012261620 METAR EGLL 261620Z 20005KT 140V260 CAVOK 01/M04 Q1026=
201012261550 METAR COR EGLL 261550Z 17004KT 110V270 CAVOK 01/M04 Q1026
                        NOSIG=
201012261520 METAR COR EGLL 261520Z VRB03KT CAVOK 01/M04 Q1026 NOSIG=
201012261450 METAR COR EGLL 261450Z 17004KT 130V270 CAVOK 01/M04 Q1026
                        NOSIG=
201012261420 METAR COR EGLL 261420Z VRB03KT CAVOK 01/M04 Q1027 NOSIG=
201012261350 METAR COR EGLL 261350Z 17004KT 130V200 CAVOK 00/M04 Q1027
                        NOSIG=
201012261320 METAR COR EGLL 261320Z VRB03KT CAVOK 00/M03 Q1027 NOSIG=
201012261250 METAR COR EGLL 261250Z VRB02KT CAVOK M00/M04 Q1028 NOSIG=
201012261220 METAR COR EGLL 261220Z VRB03KT CAVOK M00/M04 Q1029 NOSIG=
201012261150 METAR COR EGLL 261150Z 18004KT 140V200 CAVOK M00/M04 Q1029
                        NOSIG=
201012261120 METAR EGLL 261120Z 20004KT CAVOK M01/M05 Q1029=
201012261050 METAR COR EGLL 261050Z VRB02KT CAVOK M01/M05 Q1029 NOSIG=
201012261020 METAR COR EGLL 261020Z VRB02KT CAVOK M03/M05 Q1029 NOSIG=
201012260950 METAR COR EGLL 260950Z VRB02KT CAVOK M04/M06 Q1029 NOSIG=
201012260920 METAR COR EGLL 260920Z 00000KT CAVOK M05/M07 Q1029 NOSIG=
201012260850 METAR COR EGLL 260850Z 00000KT CAVOK M05/M07 Q1029 NOSIG=
201012260820 METAR EGLL 260820Z 00000KT CAVOK M06/M08 Q1029=
201012260750 METAR COR EGLL 260750Z 36002KT CAVOK M06/M07 Q1029 NOSIG=
201012260720 METAR COR EGLL 260720Z VRB03KT CAVOK M06/M07 Q1029 NOSIG=
201012260650 METAR COR EGLL 260650Z VRB02KT CAVOK M06/M07 Q1029 NOSIG=
201012260620 METAR COR EGLL 260620Z 27004KT 220V280 CAVOK M06/M08 Q1029
                        NOSIG=
201012260550 METAR COR EGLL 260550Z VRB02KT CAVOK M06/M07 Q1029 NOSIG=
201012260520 METAR COR EGLL 260520Z VRB03KT CAVOK M06/M07 Q1029 NOSIG=
201012260450 METAR COR EGLL 260450Z 30003KT CAVOK M06/M07 Q1029 NOSIG=
201012260420 METAR COR EGLL 260420Z 29004KT CAVOK M06/M07 Q1029 NOSIG=
201012260350 METAR COR EGLL 260350Z 29004KT CAVOK M07/M08 Q1029 NOSIG=
201012260320 METAR COR EGLL 260320Z 18002KT CAVOK M05/M07 Q1029 NOSIG=
201012260250 METAR COR EGLL 260250Z 00000KT CAVOK M05/M07 Q1029 NOSIG=
201012260220 METAR COR EGLL 260220Z 29002KT 9000 NSC M05/M07 Q1030 NOSIG=
201012260150 METAR COR EGLL 260150Z VRB03KT 9000 NSC M05/M07 Q1030 NOSIG=
201012260120 METAR EGLL 260120Z 30004KT CAVOK M05/M06 Q1029=
201012260050 METAR COR EGLL 260050Z 29003KT CAVOK M05/M06 Q1029 NOSIG=
201012260020 METAR COR EGLL 260020Z 27005KT CAVOK M05/M06 Q1029 NOSIG=
201012252350 METAR EGLL 252350Z 28005KT CAVOK M04/M06 Q1029=
201012252320 METAR COR EGLL 252320Z 28004KT CAVOK M04/M06 Q1029 NOSIG=
201012252250 METAR COR EGLL 252250Z 28004KT CAVOK M04/M06 Q1029 NOSIG=
201012252220 METAR EGLL 252220Z 27005KT 240V300 CAVOK M04/M06 Q1029=
201012252150 METAR COR EGLL 252150Z 27005KT CAVOK M04/M06 Q1029 NOSIG=
201012252120 METAR COR EGLL 252120Z VRB03KT CAVOK M04/M06 Q1029 NOSIG=
201012252050 METAR COR EGLL 252050Z 28004KT CAVOK M04/M06 Q1029 NOSIG=
201012252020 METAR COR EGLL 252020Z 28005KT 8000 NSC M04/M06 Q1029 NOSIG=
201012251950 METAR COR EGLL 251950Z 27006KT 9000 NSC M03/M06 Q1029 NOSIG=
201012251920 METAR EGLL 251920Z 28006KT 9000 NSC M04/M06 Q1029=
201012251850 METAR COR EGLL 251850Z 28007KT 8000 NSC M04/M05 Q1030 NOSIG=
201012251820 METAR COR EGLL 251820Z 27006KT 8000 NSC M04/M06 Q1030 NOSIG=
201012251750 METAR COR EGLL 251750Z 28006KT 7000 NSC M03/M05 Q1030 NOSIG=
201012251720 METAR COR EGLL 251720Z 27007KT 7000 NSC M03/M05 Q1030 NOSIG=
201012251650 METAR COR EGLL 251650Z 25006KT 7000 NSC M03/M04 Q1029 NOSIG=
201012251620 METAR COR EGLL 251620Z 25006KT 7000 NSC M02/M03 Q1029 NOSIG=
201012251550 METAR COR EGLL 251550Z 25006KT 8000 NSC M02/M04 Q1029 NOSIG=
201012251520 METAR COR EGLL 251520Z 27005KT 8000 FEW008 M01/M03 Q1029
                        NOSIG=
201012251450 METAR COR EGLL 251450Z 29004KT 260V350 8000 BKN006 M01/M03
                        Q1029 BECMG SCT009=
201012251420 METAR COR EGLL 251420Z 31005KT 7000 BKN006 M01/M03 Q1029
                        BECMG SCT008=
201012251350 METAR COR EGLL 251350Z 28006KT 5000 BR OVC005 M01/M03 Q1029
                        BECMG NSW SCT005 BKN010=
201012251320 METAR COR EGLL 251320Z 29006KT 5000 BR OVC004 M01/M03 Q1029
                        BECMG NSW BKN007=
201012251250 METAR COR EGLL 251250Z 29005KT 260V330 5000 BR OVC004 M02/M03
                        Q1029 BECMG NSW BKN007=
201012251220 METAR COR EGLL 251220Z 29005KT 260V330 6000 OVC004 M02/M03
                        Q1029 BECMG SCT007 BKN010=
201012251150 METAR COR EGLL 251150Z 30005KT 5000 BR OVC004 M02/M03 Q1029
                        BECMG SCT007 BKN010=
201012251120 METAR COR EGLL 251120Z VRB03KT 4000 BR OVC004 M02/M03 Q1029
                        TEMPO 2500=
201012251050 METAR COR EGLL 251050Z 34004KT 300V020 3000 BR OVC004 M02/M03
                        Q1029 BECMG 5000 SCT006 BKN010=
201012251020 METAR COR EGLL 251020Z 35005KT 320V030 5000 BR OVC004 M01/M03
                        Q1029 BECMG SCT005 BKN010=
201012250950 METAR COR EGLL 250950Z 36004KT 6000 BKN005 OVC006 M01/M03
                        Q1028 BECMG SCT007 BKN010=
201012250920 METAR COR EGLL 250920Z 31004KT 270V340 5000 BR BKN004 M01/M03
                        Q1028 TEMPO 3500=
201012250850 METAR COR EGLL 250850Z 28002KT 5000 BR BKN005 M01/M03 Q1028
                        TEMPO 3500 BKN003=
201012250820 METAR COR EGLL 250820Z VRB02KT 5000 BR BKN005 M02/M03 Q1027
                        TEMPO 3000 BKN003=
201012250750 METAR COR EGLL 250750Z 32004KT 6000 BKN006 M01/M03 Q1027
                        NOSIG=
201012250720 METAR COR EGLL 250720Z VRB03KT 6000 BKN005 M01/M03 Q1027
                        TEMPO BKN004=
201012250650 METAR EGLL 250650Z 36003KT 7000 BKN006 M02/M03 Q1027=
201012250620 METAR COR EGLL 250620Z VRB03KT 6000 SCT004 SCT005 M02/M03
                        Q1026 BECMG BKN005=
201012250550 METAR COR EGLL 250550Z 36004KT 320V030 6000 BKN005 M02/M03
                        Q1026 TEMPO SCT007=
201012250520 METAR COR EGLL 250520Z 35006KT 300V050 7000 FEW007 SCT008
                        M02/M04 Q1026 TEMPO BKN007=
201012250450 METAR EGLL 250450Z 31003KT 9999 SCT011 M02/M04 Q1025=
201012250420 METAR COR EGLL 250420Z VRB03KT 9999 BKN011 M01/M04 Q1025
                        TEMPO BKN008=
201012250350 METAR COR EGLL 250350Z 31005KT 9999 SCT011 M01/M04 Q1025
                        TEMPO BKN008=
201012250320 METAR COR EGLL 250320Z 31004KT 9999 BKN010 M01/M03 Q1025
                        BECMG BKN008=
201012250250 METAR COR EGLL 250250Z 33004KT 9999 BKN010 M00/M03 Q1025
                        BECMG BKN008=
201012250220 METAR COR EGLL 250220Z 32004KT 9999 BKN011 M00/M03 Q1024
                        TEMPO BKN009=
201012250150 METAR COR EGLL 250150Z 32004KT 9999 BKN011 M00/M03 Q1024
                        TEMPO BKN009=
201012250120 METAR COR EGLL 250120Z 34004KT 300V020 9999 BKN011 M00/M03
                        Q1024 TEMPO BKN009=
201012250050 METAR COR EGLL 250050Z 36004KT 320V090 9999 BKN010 M00/M03
                        Q1024 TEMPO BKN009=
201012250020 METAR COR EGLL 250020Z 36005KT 310V040 9999 BKN011 M00/M03
                        Q1024 TEMPO BKN009=
201012242350 METAR COR EGLL 242350Z 33006KT 9999 OVC013 M00/M03 Q1024
                        TEMPO SCT009 BKN015=
201012242320 METAR COR EGLL 242320Z 32004KT 9999 OVC015 00/M03 Q1023 BECMG
                        BKN013=
201012242250 METAR COR EGLL 242250Z 32004KT 280V360 9999 OVC015 00/M02
                        Q1023 BECMG BKN013=
201012242220 METAR COR EGLL 242220Z 32004KT 9999 OVC013 00/M03 Q1023 NOSIG=
201012242150 METAR EGLL 242150Z 34004KT 300V020 9999 BKN013 00/M03 Q1022=
201012242120 METAR COR EGLL 242120Z 32004KT 9999 BKN014 00/M03 Q1022 NOSIG=
201012242050 METAR COR EGLL 242050Z 31004KT 9999 BKN014 00/M02 Q1022 NOSIG=
201012242020 METAR COR EGLL 242020Z 36004KT 320V040 9999 BKN013 01/M02
                        Q1022 NOSIG=
201012241950 METAR COR EGLL 241950Z 33005KT 300V010 9999 BKN014 01/M02
                        Q1022 NOSIG=
201012241920 METAR COR EGLL 241920Z 34004KT 300V020 9999 FEW011 BKN014
                        01/M02 Q1022 NOSIG=
201012241850 METAR COR EGLL 241850Z 36005KT 320V030 9999 BKN012 01/M02
                        Q1022 NOSIG=
201012241820 METAR COR EGLL 241820Z 35006KT 300V030 9999 BKN011 01/M02
                        Q1021 TEMPO BKN008=
201012241750 METAR COR EGLL 241750Z 36006KT 310V030 9999 BKN011 01/M01
                        Q1021 TEMPO BKN008=
201012241720 METAR COR EGLL 241720Z 35005KT 9999 BKN011 01/M01 Q1021 TEMPO
                        BKN008=
201012241650 METAR COR EGLL 241650Z 34005KT 300V010 9999 OVC010 01/M01
                        Q1020 TEMPO BKN008=
201012241620 METAR COR EGLL 241620Z VRB03KT 9999 OVC010 01/M01 Q1020 TEMPO
                        BKN008=
201012241550 METAR COR EGLL 241550Z 34005KT 310V030 9999 SCT011 BKN048
                        01/M01 Q1020 TEMPO BKN010=
201012241520 METAR COR EGLL 241520Z 33005KT 300V360 9999 SCT011 BKN047
                        01/M01 Q1020 BECMG BKN010=
201012241450 METAR COR EGLL 241450Z 34006KT 300V010 9999 FEW011 BKN048
                        02/M01 Q1019 BECMG BKN010=
201012241420 METAR COR EGLL 241420Z 33006KT 300V010 9999 SCT049 02/M01
                        Q1019 NOSIG=
201012241350 METAR COR EGLL 241350Z 34006KT 310V010 9999 SCT014 BKN047
                        02/M01 Q1019 TEMPO BKN012=
201012241320 METAR COR EGLL 241320Z 35005KT 310V020 9999 SCT014 02/M02
                        Q1019 NOSIG=
201012241250 METAR COR EGLL 241250Z 35005KT 320V020 9999 SCT043 01/M02
                        Q1019 NOSIG=
201012241220 METAR COR EGLL 241220Z 34004KT 300V020 9999 SCT040 01/M02
                        Q1019 NOSIG=
201012241150 METAR COR EGLL 241150Z 36005KT 310V040 9999 FEW010 SCT040
                        01/M02 Q1019 TEMPO BKN010=
201012241120 METAR COR EGLL 241120Z 34005KT 310V020 9999 FEW013 01/M02
                        Q1019 TEMPO BKN011=
201012241050 METAR COR EGLL 241050Z 35005KT 330V030 9999 FEW013 01/M02
                        Q1019 TEMPO BKN011=
201012241020 METAR COR EGLL 241020Z 36006KT 320V020 9999 FEW012 01/M02
                        Q1019 TEMPO BKN010=
201012240950 METAR COR EGLL 240950Z 36005KT 320V030 CAVOK 01/M02 Q1018
                        NOSIG=
201012240920 METAR COR EGLL 240920Z 36005KT 9000 FEW037 M00/M02 Q1018
                        TEMPO BKN010=
201012240850 METAR COR EGLL 240850Z 35005KT 9000 NSC M00/M03 Q1018 TEMPO
                        BKN010=
201012240820 METAR COR EGLL 240820Z 36005KT CAVOK M01/M03 Q1018 TEMPO
                        BKN010=
201012240750 METAR COR EGLL 240750Z 35005KT 320V020 9000 FEW028 M01/M03
                        Q1017 NOSIG=
201012240720 METAR COR EGLL 240720Z 36006KT 9999 FEW035 M01/M03 Q1017
                        NOSIG=
201012240650 METAR COR EGLL 240650Z 36005KT 320V030 9999 FEW035 M01/M04
                        Q1017 NOSIG=
201012240620 METAR COR EGLL 240620Z 36007KT 330V050 CAVOK M00/M04 Q1017
                        NOSIG=
201012240550 METAR COR EGLL 240550Z 36007KT CAVOK M00/M04 Q1016 NOSIG=
201012240520 METAR COR EGLL 240520Z 36008KT 330V040 CAVOK 00/M04 Q1016
                        NOSIG=
201012240450 METAR COR EGLL 240450Z 36007KT 330V040 CAVOK 01/M04 Q1016
                        NOSIG=
201012240420 METAR COR EGLL 240420Z 01008KT 340V050 CAVOK 01/M04 Q1016
                        NOSIG=
201012240350 METAR COR EGLL 240350Z 01009KT CAVOK 01/M03 Q1015 NOSIG=
201012240320 METAR COR EGLL 240320Z 01009KT 340V040 CAVOK 01/M03 Q1015
                        NOSIG=
201012240250 METAR COR EGLL 240250Z 01008KT CAVOK 01/M03 Q1015 NOSIG=
201012240220 METAR COR EGLL 240220Z 01009KT 9999 FEW035 01/M04 Q1015 NOSIG=
201012240150 METAR COR EGLL 240150Z 01008KT 340V050 9999 FEW029 SCT034
                        01/M03 Q1014 NOSIG=
201012240120 METAR EGLL 240120Z 01008KT 330V040 CAVOK 01/M04 Q1014=
201012240050 METAR COR EGLL 240050Z 01008KT CAVOK 01/M03 Q1014 NOSIG=
201012240020 METAR COR EGLL 240020Z 01009KT 330V050 9999 FEW046 01/M03
                        Q1014 NOSIG=
201012232350 METAR COR EGLL 232350Z 01008KT 9999 FEW049 01/M03 Q1014 NOSIG=
201012232320 METAR COR EGLL 232320Z 01009KT 340V050 9999 FEW049 01/M03
                        Q1014 NOSIG=
201012232250 METAR COR EGLL 232250Z 02008KT 350V060 CAVOK 01/M03 Q1014
                        NOSIG=
201012232220 METAR COR EGLL 232220Z 01009KT 330V040 CAVOK 02/M03 Q1013
                        NOSIG=
201012232150 METAR COR EGLL 232150Z 01009KT 9999 BKN049 02/M03 Q1013 NOSIG=
201012232120 METAR COR EGLL 232120Z 01009KT 9999 BKN048 02/M03 Q1013 NOSIG=
201012232050 METAR COR EGLL 232050Z 02008KT 340V050 9999 BKN044 02/M03
                        Q1013 NOSIG=
201012232020 METAR COR EGLL 232020Z 01009KT 340V040 9999 BKN041 02/M02
                        Q1013 NOSIG=
201012231950 METAR COR EGLL 231950Z 01009KT 340V050 9999 FEW034 BKN042
                        02/M02 Q1013 NOSIG=
201012231920 METAR COR EGLL 231920Z 01010KT 9999 BKN042 02/M02 Q1012 NOSIG=
201012231850 METAR COR EGLL 231850Z 01010KT 340V040 9999 BKN039 02/M02
                        Q1012 NOSIG=
201012231820 METAR COR EGLL 231820Z 01009KT 340V050 9999 BKN040 02/M03
                        Q1012 NOSIG=
201012231750 METAR COR EGLL 231750Z 02010KT 350V050 9999 FEW033 BKN042
                        02/M03 Q1011 NOSIG=
201012231720 METAR COR EGLL 231720Z 01010KT 340V050 9999 FEW034 BKN044
                        02/M03 Q1011 NOSIG=
201012231650 METAR EGLL 231650Z 02010KT 340V040 9999 BKN043 02/M03 Q1011=
201012231620 METAR COR EGLL 231620Z 02009KT 350V050 9999 BKN045 02/M02
                        Q1011 NOSIG=
201012231550 METAR COR EGLL 231550Z 01010G21KT 350V060 9999 FEW028 BKN045
                        02/M02 Q1011 NOSIG=
201012231520 METAR COR EGLL 231520Z 02010KT 330V040 9999 FEW025 BKN046
                        02/M02 Q1010 NOSIG=
201012231450 METAR COR EGLL 231450Z 02009KT 340V050 9999 FEW024 BKN044
                        02/M02 Q1010 NOSIG=
201012231420 METAR COR EGLL 231420Z 01009KT 340V050 9999 FEW032 BKN044
                        02/M02 Q1010 NOSIG=
201012231350 METAR COR EGLL 231350Z 02009KT 9999 FEW032 BKN044 02/M02
                        Q1010 NOSIG=
201012231320 METAR COR EGLL 231320Z 02009KT 340V050 9999 SCT032 BKN045
                        02/M02 Q1010 NOSIG=
201012231250 METAR COR EGLL 231250Z 02008KT 340V050 9999 SCT038 BKN040
                        02/M02 Q1010 NOSIG=
201012231220 METAR COR EGLL 231220Z 02008KT 9999 FEW030 BKN044 02/M02
                        Q1010 NOSIG=
201012231150 METAR COR EGLL 231150Z 02008KT 340V050 9999 FEW035 BKN043
                        02/M02 Q1010 NOSIG=
201012231120 METAR EGLL 231120Z 02008KT 350V050 9999 FEW030 OVC045 02/M02
                        Q1010=
201012231050 METAR COR EGLL 231050Z 02008G18KT 340V050 9999 FEW030 02/M02
                        Q1010 NOSIG=
201012231020 METAR COR EGLL 231020Z 02007KT 350V050 CAVOK 02/M03 Q1010
                        NOSIG=
201012230950 METAR COR EGLL 230950Z 02007KT 330V060 CAVOK 01/M03 Q1010
                        NOSIG=
201012230920 METAR COR EGLL 230920Z 01007KT 340V050 9999 BKN049 01/M03
                        Q1009 NOSIG=
201012230850 METAR COR EGLL 230850Z 01008KT 330V040 CAVOK 01/M03 Q1009
                        NOSIG=
201012230820 METAR COR EGLL 230820Z 01008KT 340V040 9999 FEW030 BKN048
                        01/M03 Q1009 NOSIG=
201012230750 METAR COR EGLL 230750Z 01008KT 9999 FEW040 BKN049 00/M03
                        Q1009 NOSIG=
201012230720 METAR COR EGLL 230720Z 01008KT 340V040 9999 BKN047 M00/M04
                        Q1009 NOSIG=
201012230650 METAR COR EGLL 230650Z 02006KT 340V080 9999 BKN048 M01/M04
                        Q1009 NOSIG=
201012230620 METAR COR EGLL 230620Z 01007KT 9999 SCT048 M01/M04 Q1008
                        NOSIG=
201012230550 METAR COR EGLL 230550Z 36008KT CAVOK M01/M05 Q1008 NOSIG=
201012230520 METAR COR EGLL 230520Z 36007KT 320V030 CAVOK M01/M04 Q1008
                        NOSIG=
201012230450 METAR COR EGLL 230450Z 36006KT 330V030 CAVOK M01/M04 Q1008
                        NOSIG=
201012230420 METAR COR EGLL 230420Z 36006KT CAVOK M01/M04 Q1008 NOSIG=
201012230350 METAR COR EGLL 230350Z 01009KT CAVOK M01/M03 Q1008 NOSIG=
201012230320 METAR COR EGLL 230320Z 02007KT 340V040 9999 FEW034 M01/M03
                        Q1009 NOSIG=
201012230250 METAR COR EGLL 230250Z 01006KT 340V060 9000 NSC M01/M03 Q1009
                        NOSIG=
201012230220 METAR EGLL 230220Z 36006KT 9999 FEW030 M01/M03 Q1009=
201012230150 METAR COR EGLL 230150Z 01006KT 350V050 9999 FEW029 M01/M03
                        Q1009 NOSIG=
201012230120 METAR COR EGLL 230120Z 02006KT 350V050 CAVOK M01/M03 Q1009
                        NOSIG=
201012230050 METAR COR EGLL 230050Z 02006KT 340V050 CAVOK M00/M03 Q1009
                        NOSIG=
201012230020 METAR COR EGLL 230020Z 02007KT 340V040 CAVOK 00/M03 Q1009
                        NOSIG=
201012222350 METAR COR EGLL 222350Z 02007KT 9999 FEW030 00/M03 Q1009 NOSIG=
201012222320 METAR COR EGLL 222320Z 02007KT 350V050 9999 SCT030 00/M02
                        Q1009 NOSIG=
201012222250 METAR COR EGLL 222250Z 02007KT 340V050 9999 SCT030 00/M02
                        Q1009 NOSIG=
201012222220 METAR COR EGLL 222220Z 01007KT 350V060 CAVOK 00/M03 Q1008
                        NOSIG=
201012222150 METAR COR EGLL 222150Z 02006KT 350V050 CAVOK M00/M03 Q1008
                        NOSIG=
201012222120 METAR COR EGLL 222120Z 02006KT 340V050 CAVOK 00/M02 Q1008
                        NOSIG=
201012222050 METAR COR EGLL 222050Z 03007KT 350V050 CAVOK 00/M02 Q1007
                        NOSIG=
201012222020 METAR COR EGLL 222020Z 02007KT CAVOK 00/M02 Q1007 NOSIG=
201012221950 METAR COR EGLL 221950Z 02005KT 330V060 CAVOK 00/M02 Q1007
                        NOSIG=
201012221920 METAR COR EGLL 221920Z 03007KT 350V060 9999 SCT032 01/M02
                        Q1007 NOSIG=
201012221850 METAR COR EGLL 221850Z 03007KT 350V060 9999 FEW020 SCT032
                        01/M02 Q1007 NOSIG=
201012221820 METAR COR EGLL 221820Z 02007KT 350V060 9999 FEW020 BKN031
                        01/M02 Q1007 TEMPO BKN012=
201012221750 METAR COR EGLL 221750Z 03007KT 360V060 9999 FEW015 BKN030
                        01/M02 Q1007 TEMPO BKN009=
201012221720 METAR COR EGLL 221720Z 03010KT 9999 SCT015 01/M01 Q1007 TEMPO
                        BKN009=
201012221650 METAR COR EGLL 221650Z 04008KT 360V070 9999 FEW004 BKN010
                        01/M00 Q1007 TEMPO BKN008=
201012221620 METAR COR EGLL 221620Z 03009KT 350V060 7000 FEW005 BKN006
                        01/M00 Q1006 TEMPO 4800 HZ SCT007
                        BKN014=
201012221550 METAR COR EGLL 221550Z 02007KT 350V050 8000 BKN007 01/M00
                        Q1006 TEMPO SCT008 BKN014=
201012221520 METAR COR EGLL 221520Z 01005KT 340V050 5000 BR BKN007 01/M00
                        Q1006 TEMPO SCT008 BKN015=
201012221450 METAR COR EGLL 221450Z 01008KT 340V040 5000 BR BKN007 01/M00
                        Q1006 TEMPO SCT007 BKN015=
201012221420 METAR COR EGLL 221420Z 01006KT 6000 BKN007 01/M00 Q1005 BECMG
                        SCT007 BKN014=
201012221350 METAR COR EGLL 221350Z 36005KT 330V030 5000 BR BKN007 02/M00
                        Q1005 BECMG SCT007 BKN014=
201012221320 METAR EGLL 221320Z 01005KT 340V050 5000 BR BKN008 02/M00
                        Q1005=
201012221250 METAR COR EGLL 221250Z 36006KT 4000 BR SCT006 BKN010 01/M00
                        Q1005 TEMPO 6000 NSW BKN007=
201012221220 METAR COR EGLL 221220Z 36006KT 320V040 3700 BR FEW006 SCT007
                        BKN011 01/M00 Q1005 TEMPO 5000 BKN006=
201012221150 METAR COR EGLL 221150Z 36006KT 330V040 3500 BR BKN006 01/M00
                        Q1006 TEMPO 5000 BKN004=
201012221120 METAR COR EGLL 221120Z 36004KT 330V030 3500 BR BKN005 01/M00
                        Q1006 TEMPO 5000 BKN004=
201012221050 METAR COR EGLL 221050Z 35005KT 310V010 3800 BR BKN005 01/M00
                        Q1006 TEMPO 5000 SCT005 BKN010=
201012221020 METAR COR EGLL 221020Z 36005KT 3200 BR BKN004 01/M00 Q1006
                        BECMG BKN005=
201012220950 METAR COR EGLL 220950Z 36005KT 2500 BR BKN003 OVC004 01/M00
                        Q1005 BECMG 4000 BKN005=
201012220920 METAR COR EGLL 220920Z 35004KT 1700 BR SCT003 BKN004 01/M00
                        Q1005 BECMG 3000 BKN005=
201012220850 METAR COR EGLL 220850Z 35004KT 1700 BR SCT003 BKN004 01/00
                        Q1005 TEMPO 3000 BKN005=
201012220820 METAR COR EGLL 220820Z 36005KT 320V020 2200 BR BKN003 BKN011
                        01/M00 Q1005 TEMPO 3500 BKN005=
201012220750 METAR COR EGLL 220750Z VRB03KT 2900 BR FEW003 BKN004 OVC012
                        01/M00 Q1005 TEMPO 3500 BKN005=
201012220720 METAR COR EGLL 220720Z 35004KT 3300 BR BKN004 OVC012 01/M00
                        Q1005 NOSIG=
201012220650 METAR COR EGLL 220650Z 35004KT 2500 BR BKN005 01/M00 Q1004
                        NOSIG=
201012220620 METAR COR EGLL 220620Z 36004KT 2500 HZ BKN005 BKN009 01/M00
                        Q1004 NOSIG=
201012220550 METAR COR EGLL 220550Z VRB03KT 2500 HZ BKN004 BKN010 01/M00
                        Q1004 NOSIG=
201012220520 METAR COR EGLL 220520Z VRB03KT 2700 HZ BKN004 BKN012 01/M00
                        Q1004 TEMPO BKN005=
201012220450 METAR COR EGLL 220450Z 36004KT 3300 HZ BKN004 BKN020 01/M00
                        Q1004 TEMPO BKN005=
201012220420 METAR EGLL 220420Z 36003KT 3300 HZ BKN004 BKN017 01/M00 Q1004=
201012220350 METAR COR EGLL 220350Z 36004KT 3300 HZ BKN004 BKN015 01/M00
                        Q1004 TEMPO BKN005=
201012220320 METAR COR EGLL 220320Z 36003KT 3400 HZ BKN004 BKN008 01/M00
                        Q1004 TEMPO BKN005=
201012220250 METAR COR EGLL 220250Z VRB02KT 3400 BR BKN005 BKN010 01/M00
                        Q1004 TEMPO BKN004=
201012220220 METAR COR EGLL 220220Z VRB03KT 3400 BR BKN005 BKN010 01/00
                        Q1004 TEMPO BKN004=
201012220150 METAR COR EGLL 220150Z 02004KT 360V060 4200 BR SCT005 BKN008
                        01/00 Q1004 NOSIG=
201012220120 METAR EGLL 220120Z 04003KT 4000 BR BKN005 01/00 Q1004=
201012220050 METAR COR EGLL 220050Z 04003KT 4100 BR FEW005 BKN006 01/00
                        Q1004 NOSIG=
201012220020 METAR COR EGLL 220020Z 04004KT 010V080 4500 BR BKN006 01/00
                        Q1004 NOSIG=
201012212350 METAR COR EGLL 212350Z VRB03KT 4300 BR OVC006 01/00 Q1004
                        NOSIG=
201012212320 METAR COR EGLL 212320Z 03003KT 4000 BR BKN006 01/00 Q1004
                        NOSIG=
201012212250 METAR COR EGLL 212250Z VRB03KT 4100 BR OVC006 01/00 Q1004
                        NOSIG=
201012212220 METAR COR EGLL 212220Z VRB03KT 4300 BR OVC006 01/00 Q1004
                        NOSIG=
201012212150 METAR COR EGLL 212150Z 02003KT 4500 BR OVC005 01/00 Q1004
                        TEMPO 5000=
201012212120 METAR COR EGLL 212120Z 04003KT 5000 BR OVC006 01/00 Q1004
                        TEMPO 4000=
201012212050 METAR COR EGLL 212050Z 06003KT 6000 OVC005 01/00 Q1004 TEMPO
                        4000 BR=
201012212020 METAR COR EGLL 212020Z VRB03KT 6000 BKN006 01/00 Q1004 TEMPO
                        4000 BR=
201012211950 METAR COR EGLL 211950Z 07004KT 5000 BR BKN005 01/00 Q1004
                        TEMPO 4000=
201012211920 METAR COR EGLL 211920Z VRB03KT 6000 FEW004 BKN006 01/00 Q1004
                        TEMPO 4000 BR=
201012211850 METAR COR EGLL 211850Z VRB03KT 6000 FEW004 BKN006 01/00 Q1004
                        TEMPO BKN010=
201012211820 METAR COR EGLL 211820Z 06004KT 030V100 6000 FEW005 BKN010
                        01/00 Q1004 NOSIG=
201012211750 METAR COR EGLL 211750Z 06004KT 030V090 5000 BR FEW005 BKN010
                        BKN044 01/00 Q1003 TEMPO SCT010=
201012211720 METAR COR EGLL 211720Z 06005KT 4800 BR SCT004 BKN045 01/00
                        Q1003 TEMPO BKN007=
201012211650 METAR COR EGLL 211650Z 04005KT 4800 BR SCT011 BKN033 01/M00
                        Q1003 TEMPO BKN011=
201012211620 METAR COR EGLL 211620Z 05004KT 4000 BR BKN012 BKN036 01/M00
                        Q1003 NOSIG=
201012211550 METAR COR EGLL 211550Z 04004KT 010V070 3500 -DZ FEW007 BKN012
                        01/M00 Q1003 NOSIG=
201012211520 METAR COR EGLL 211520Z 05004KT 3700 -DZ FEW007 BKN010 01/M00
                        Q1003 NOSIG=
201012211450 METAR COR EGLL 211450Z 05004KT 020V080 4800 BR FEW009 BKN010
                        02/M00 Q1003 NOSIG=
201012211420 METAR COR EGLL 211420Z 06004KT 6000 FEW011 BKN023 02/M00
                        Q1003 NOSIG=
201012211350 METAR COR EGLL 211350Z 05004KT 020V080 6000 FEW010 SCT022
                        02/M00 Q1003 NOSIG=
201012211320 METAR COR EGLL 211320Z 05004KT 020V080 4700 BR SCT012 BKN026
                        01/M00 Q1003 TEMPO BKN012=
201012211250 METAR COR EGLL 211250Z 03005KT 4700 BR SCT011 BKN026 01/M00
                        Q1003 TEMPO BKN011=
201012211220 METAR COR EGLL 211220Z 03005KT 4700 BR FEW012 SCT020 BKN023
                        01/M00 Q1003 TEMPO BKN012=
201012211150 METAR COR EGLL 211150Z 03004KT 4000 BR SCT009 BKN021 01/M01
                        Q1003 NOSIG=
201012211120 METAR COR EGLL 211120Z 36005KT 3900 BR BKN009 01/M01 Q1003
                        TEMPO 6000 NSW BKN010=
201012211050 METAR COR EGLL 211050Z 35005KT 4500 BR BKN008 01/M01 Q1003
                        TEMPO 6000 NSW BKN010=
201012211020 METAR COR EGLL 211020Z 36004KT 4200 BR BKN008 01/M01 Q1003
                        NOSIG=
201012210950 METAR COR EGLL 210950Z 35004KT 4200 BR BKN008 01/M01 Q1003
                        NOSIG=
201012210920 METAR COR EGLL 210920Z VRB03KT 4100 BR BKN008 00/M01 Q1002
                        BECMG 6000 NSW=
201012210850 METAR COR EGLL 210850Z 01004KT 340V050 4000 BR BKN008 00/M01
                        Q1002 BECMG 6000 NSW=
201012210820 METAR COR EGLL 210820Z VRB03KT 5000 BR BKN007 00/M01 Q1002
                        NOSIG=
201012210750 METAR COR EGLL 210750Z 01005KT 340V050 5000 BR BKN007 00/M01
                        Q1002 NOSIG=
201012210720 METAR COR EGLL 210720Z 36005KT 320V030 5000 BR BKN007 01/M01
                        Q1001 NOSIG=
201012210650 METAR COR EGLL 210650Z 36005KT 5000 HZ BKN007 01/M01 Q1001
                        NOSIG=
201012210620 METAR COR EGLL 210620Z 05004KT 010V070 6000 SCT008 BKN012
                        01/M00 Q1001 TEMPO BKN008=
201012210550 METAR COR EGLL 210550Z 04005KT 6000 FEW007 BKN010 01/M00
                        Q1001 TEMPO BKN008=
201012210520 METAR COR EGLL 210520Z 05004KT 020V080 5000 HZ BKN006 01/M00
                        Q1001 TEMPO 4000=
201012210450 METAR COR EGLL 210450Z 04005KT 3700 BR SCT004 BKN006 01/M00
                        Q1001 TEMPO BKN004=
201012210420 METAR COR EGLL 210420Z 05005KT 010V090 2500 BR BKN004 01/M00
                        Q1001 TEMPO BKN005=
201012210350 METAR COR EGLL 210350Z 04005KT 4600 HZ BKN004 01/M00 Q1001
                        TEMPO 5000 BKN005=
201012210320 METAR COR EGLL 210320Z 05006KT 5000 HZ FEW003 BKN005 01/M00
                        Q1000 NOSIG=
201012210250 METAR COR EGLL 210250Z 06006KT 6000 BKN006 01/M00 Q1000 NOSIG=
201012210220 METAR COR EGLL 210220Z 07009KT 6000 FEW006 BKN008 01/M00
                        Q1000 NOSIG=
201012210150 METAR COR EGLL 210150Z 06007KT 6000 FEW005 BKN007 01/M01
                        Q1000 NOSIG=
201012210120 METAR COR EGLL 210120Z 07007KT 5000 BR FEW005 BKN007 01/M01
                        Q1000 NOSIG=
201012210050 METAR COR EGLL 210050Z 07007KT 5000 BR FEW005 BKN007 01/M00
                        Q1000 TEMPO 4000 SCT007=
201012210020 METAR COR EGLL 210020Z 07007KT 5000 BR FEW005 BKN007 01/M00
                        Q1000 TEMPO 3000 SCT007=
201012202350 METAR COR EGLL 202350Z 06005KT 4000 -SN FEW005 SCT007 BKN022
                        00/M00 Q1000 TEMPO 5000 BKN007=
201012202320 METAR COR EGLL 202320Z 06005KT 4000 -SN FEW006 SCT008 BKN024
                        01/M00 Q1000 TEMPO 5000 BKN008=
201012202250 METAR COR EGLL 202250Z 07006KT 6000 FEW006 SCT008 BKN024
                        01/M00 Q1000 TEMPO BKN008=
201012202220 METAR COR EGLL 202220Z 08008KT 5000 -SN FEW007 SCT009 BKN022
                        00/M00 Q1000 TEMPO BKN008=
201012202150 METAR COR EGLL 202150Z 08008KT 5000 -SN SCT005 BKN007 BKN020
                        00/M01 Q1000 RESN NOSIG=
201012202120 METAR COR EGLL 202120Z 08010KT 4000 SN FEW005 SCT008 BKN020
                        00/M01 Q1000 TEMPO -SN BKN007=
201012202050 METAR COR EGLL 202050Z 08010KT 4800 -SN FEW007 SCT009 BKN020
                        00/M01 Q1000 RESN TEMPO BKN008=
201012202020 METAR COR EGLL 202020Z 09012KT 4200 SN FEW007 BKN011 00/M01
                        Q1000 TEMPO 2500 BKN007=
201012201950 METAR COR EGLL 201950Z 09011KT 5000 -SN FEW009 BKN010 00/M02
                        Q1000 TEMPO 2000 SN BKN008=
201012201920 METAR COR EGLL 201920Z 09011KT 9999 SCT016 SCT020 01/M02
                        Q1001 BECMG 4000 -SN BKN008=
201012201850 METAR COR EGLL 201850Z 08009KT 9999 FEW026 01/M02 Q1001 TEMPO
                        4000 -SN BKN010=
201012201820 METAR COR EGLL 201820Z 09011G22KT 9999 SCT028 01/M02 Q1001
                        TEMPO 4000 -SN BKN010=
201012201750 METAR COR EGLL 201750Z 09011KT 9999 BKN028 01/M02 Q1001 TEMPO
                        4000 -SN BKN010=
201012201720 METAR COR EGLL 201720Z 10013G23KT 9999 BKN027 01/M02 Q1001
                        TEMPO 4000 -SN BKN010=
201012201650 METAR COR EGLL 201650Z 09011KT 9999 -SN BKN036 BKN042 01/M02
                        Q1001 TEMPO 4000 -SN BKN010=
201012201620 METAR COR EGLL 201620Z 10011KT 9000 -SN FEW031 BKN047 01/M02
                        Q1001 TEMPO 4000 -SN BKN010=
201012201550 METAR COR EGLL 201550Z 10009KT 9999 BKN042 01/M02 Q1001 TEMPO
                        4000 -SN BKN010=
201012201520 METAR COR EGLL 201520Z 08009KT 9999 FEW038 BKN044 01/M02
                        Q1001 TEMPO 4000 -SN BKN010=
201012201450 METAR COR EGLL 201450Z 08008KT 9000 BKN038 BKN048 00/M02
                        Q1001 TEMPO 4000 -SN BKN010=
201012201420 METAR COR EGLL 201420Z 09008KT 6000 -SN BKN048 00/M02 Q1001
                        TEMPO 4000 -SN BKN010=
201012201350 METAR COR EGLL 201350Z 09007KT 5000 -SN NSC M00/M03 Q1001
                        TEMPO 4000 -SN BKN014=
201012201320 METAR COR EGLL 201320Z 09008KT 8000 NSC M00/M03 Q1001 TEMPO
                        4000 -SN BKN014=
201012201250 METAR COR EGLL 201250Z 09008KT 9000 NSC M01/M03 Q1001 TEMPO
                        -SN BKN014=
201012201220 METAR COR EGLL 201220Z 08007KT CAVOK M01/M04 Q1002 TEMPO
                        -SN BKN014=
201012201150 METAR COR EGLL 201150Z 07006KT CAVOK M01/M04 Q1002 TEMPO
                        -SN BKN014=
201012201120 METAR COR EGLL 201120Z 06007KT 9999 SCT030 M02/M04 Q1002
                        TEMPO -SN BKN014=
201012201050 METAR COR EGLL 201050Z 07007KT 9999 SCT033 SCT042 M02/M05
                        Q1002 NOSIG=
201012201020 METAR COR EGLL 201020Z 06007KT 9999 FEW031 BKN044 M03/M05
                        Q1002 NOSIG=
201012200950 METAR COR EGLL 200950Z 07007KT 9000 SCT033 BKN048 M03/M05
                        Q1002 NOSIG=
201012200920 METAR COR EGLL 200920Z 06005KT 7000 FEW026 SCT031 M04/M06
                        Q1002 NOSIG=
201012200850 METAR COR EGLL 200850Z 05004KT 6000 SCT028 M06/M07 Q1001
                        NOSIG=
201012200820 METAR COR EGLL 200820Z 05002KT 5000 BR SCT028 M07/M08 Q1001
                        NOSIG=
201012200750 METAR COR EGLL 200750Z 00000KT 4800 BR FEW025 M07/M08 Q1001
                        BECMG 7000 NSW=
201012200720 METAR COR EGLL 200720Z 05003KT 6000 NSC M08/M09 Q1001 TEMPO
                        3500 BR=
201012200650 METAR COR EGLL 200650Z 03004KT 4500 BR NSC M07/M09 Q1001
                        NOSIG=
201012200620 METAR COR EGLL 200620Z 03004KT 4500 BR NSC M08/M09 Q1001
                        NOSIG=
201012200550 METAR COR EGLL 200550Z 00000KT 4700 BR NSC M08/M09 Q1001
                        NOSIG=
201012200520 METAR COR EGLL 200520Z 00000KT 5000 BR NSC M09/M10 Q1001
                        TEMPO 3500=
201012200450 METAR COR EGLL 200450Z 31002KT 5000 BR NSC M09/M11 Q1001
                        TEMPO 3500=
201012200420 METAR COR EGLL 200420Z 00000KT 6000 NSC M08/M10 Q1001 TEMPO
                        4000 BR=
201012200350 METAR COR EGLL 200350Z 31003KT 8000 NSC M08/M09 Q1001 BECMG
                        4000 BR=
201012200320 METAR COR EGLL 200320Z 31003KT CAVOK M09/M10 Q1000 BECMG
                        4000 BR=
201012200250 METAR COR EGLL 200250Z 31002KT CAVOK M09/M10 Q1000 BECMG
                        4000 BR=
201012200220 METAR COR EGLL 200220Z 00000KT CAVOK M08/M09 Q1000 BECMG
                        4000 BR=
201012200150 METAR COR EGLL 200150Z 31002KT CAVOK M07/M08 Q1000 NOSIG=
201012200120 METAR COR EGLL 200120Z 31002KT CAVOK M09/M10 Q1001 NOSIG=
201012200050 METAR COR EGLL 200050Z 00000KT CAVOK M07/M08 Q1001 NOSIG=
201012200020 METAR COR EGLL 200020Z 31002KT CAVOK M06/M07 Q1000 NOSIG=
201012192350 METAR COR EGLL 192350Z 31002KT CAVOK M07/M08 Q1000 NOSIG=
201012192320 METAR COR EGLL 192320Z 31003KT CAVOK M06/M07 Q1000 NOSIG=
201012192250 METAR COR EGLL 192250Z 00000KT CAVOK M06/M07 Q0999 NOSIG=
201012192220 METAR COR EGLL 192220Z 31003KT CAVOK M05/M07 Q0999 NOSIG=
201012192150 METAR COR EGLL 192150Z 32005KT CAVOK M05/M07 Q0999 NOSIG=
201012192120 METAR COR EGLL 192120Z 35003KT CAVOK M05/M07 Q0998 NOSIG=
201012192050 METAR COR EGLL 192050Z 36003KT CAVOK M03/M06 Q0997 NOSIG=
201012192020 METAR COR EGLL 192020Z 02003KT CAVOK M03/M06 Q0997 NOSIG=
201012191950 METAR COR EGLL 191950Z 02004KT CAVOK M03/M06 Q0997 NOSIG=
201012191920 METAR COR EGLL 191920Z 36005KT CAVOK M02/M05 Q0996 NOSIG=
201012191850 METAR COR EGLL 191850Z 36006KT 9999 FEW036 M02/M05 Q0995
                        NOSIG=
201012191820 METAR COR EGLL 191820Z 36008KT 9999 BKN037 M02/M04 Q0995
                        NOSIG=
201012191750 METAR COR EGLL 191750Z 01006KT 340V050 CAVOK M02/M04 Q0994
                        NOSIG=
201012191720 METAR EGLL 191720Z 01007KT 9999 SCT036 M02/M04 Q0994=
201012191650 METAR COR EGLL 191650Z 02007KT 340V050 9999 SCT034 M02/M04
                        Q0993 NOSIG=
201012191620 METAR COR EGLL 191620Z 01007KT 9999 BKN035 M01/M04 Q0993
                        NOSIG=
201012191550 METAR COR EGLL 191550Z 02006KT 340V050 9999 BKN034 M01/M03
                        Q0992 NOSIG=
201012191520 METAR COR EGLL 191520Z 03007KT 9999 SCT031 BKN038 M01/M03
                        Q0992 NOSIG=
201012191450 METAR COR EGLL 191450Z 05007KT 010V070 9999 SCT032 M00/M03
                        Q0992 NOSIG=
201012191420 METAR COR EGLL 191420Z 04007KT 020V080 9999 BKN031 00/M03
                        Q0991 NOSIG=
201012191350 METAR COR EGLL 191350Z 06006KT 020V080 9999 BKN029 00/M03
                        Q0991 NOSIG=
201012191320 METAR COR EGLL 191320Z 06007KT 9999 BKN029 M00/M03 Q0991
                        NOSIG=
201012191250 METAR COR EGLL 191250Z 05005KT 9999 BKN026 M00/M03 Q0991
                        NOSIG=
201012191220 METAR COR EGLL 191220Z 05005KT 9999 FEW023 BKN044 M01/M03
                        Q0991 NOSIG=
201012191150 METAR COR EGLL 191150Z 06007KT 9999 FEW022 BKN038 M01/M03
                        Q0992 NOSIG=
201012191120 METAR COR EGLL 191120Z 05005KT 9999 BKN039 M02/M04 Q0992
                        NOSIG=
201012191050 METAR COR EGLL 191050Z 06008KT 9999 BKN034 M02/M04 Q0992
                        NOSIG=
201012191020 METAR COR EGLL 191020Z 05007KT 9999 BKN033 M02/M04 Q0993
                        NOSIG=
201012190950 METAR EGLL 190950Z 06006KT CAVOK M03/M04 Q0993 NOSIG=
201012190920 METAR COR EGLL 190920Z 05006KT CAVOK M03/M05 Q0993 NOSIG=
201012190850 METAR COR EGLL 190850Z 04004KT 9999 FEW026 M03/M05 Q0993
                        88CLRD99 NOSIG=
201012190820 METAR COR EGLL 190820Z 04003KT 9999 FEW026 M04/M05 Q0994
                        993210// NOSIG=
201012190750 METAR COR EGLL 190750Z 06003KT CAVOK M04/M05 Q0994 993210//
                        NOSIG=
201012190720 METAR COR EGLL 190720Z 07004KT CAVOK M05/M06 Q0994 993210//
                        NOSIG=
201012190650 METAR COR EGLL 190650Z 03003KT CAVOK M05/M06 Q0994 773210//
                        NOSIG=
201012190620 METAR COR EGLL 190620Z 03003KT CAVOK M05/M06 Q0994 SNOCLO
                        NOSIG=
201012190550 METAR COR EGLL 190550Z 03002KT CAVOK M06/M07 Q0995 SNOCLO
                        TEMPO 4000 BR=
201012190520 METAR COR EGLL 190520Z 03002KT 9000 NSC M05/M06 Q0995 SNOCLO
                        TEMPO 4000 BR=
201012190450 METAR COR EGLL 190450Z 03002KT CAVOK M05/M06 Q0995 SNOCLO
                        TEMPO 4000 BR=
201012190420 METAR COR EGLL 190420Z 03003KT CAVOK M05/M06 Q0995 SNOCLO
                        TEMPO 4000 BR=
201012190350 METAR COR EGLL 190350Z 03003KT CAVOK M05/M06 Q0995 SNOCLO
                        NOSIG=
201012190320 METAR COR EGLL 190320Z 00000KT CAVOK M05/M06 Q0996 SNOCLO
                        NOSIG=
201012190250 METAR COR EGLL 190250Z 36004KT CAVOK M04/M06 Q0996 SNOCLO
                        NOSIG=
201012190220 METAR COR EGLL 190220Z 35003KT 9999 SCT030 M04/M05 Q0996
                        SNOCLO NOSIG=
201012190150 METAR COR EGLL 190150Z 36005KT 9999 SCT030 M03/M05 Q0995
                        SNOCLO NOSIG=
201012190120 METAR COR EGLL 190120Z 36005KT 9999 BKN025 M03/M04 Q0995
                        SNOCLO NOSIG=
201012190050 METAR COR EGLL 190050Z 36004KT 9000 FEW040 M03/M04 Q0995
                        SNOCLO NOSIG=
201012190020 METAR COR EGLL 190020Z 36006KT 9000 FEW030 M02/M03 Q0995
                        SNOCLO NOSIG=
201012182350 METAR COR EGLL 182350Z 36006KT 9999 FEW016 SCT030 M01/M02
                        Q0994 SNOCLO NOSIG=
201012182320 METAR COR EGLL 182320Z 36007KT 9999 BKN010 M01/M02 Q0994
                        SNOCLO BECMG SCT015=
201012182250 METAR COR EGLL 182250Z 35006KT 9999 -SN BKN009 M01/M01 Q0994
                        SNOCLO BECMG SCT009 BKN014=
201012182220 METAR COR EGLL 182220Z 29005KT 9999 BKN008 M01/M01 Q0993
                        SNOCLO TEMPO SCT009=
201012182150 METAR COR EGLL 182150Z 26004KT 9000 BKN007 BKN013 M01/M02
                        Q0993 SNOCLO NOSIG=
201012182120 METAR COR EGLL 182120Z 26004KT 7000 BKN007 BKN020 M01/M02
                        Q0993 SNOCLO TEMPO 4000 BR=
201012182050 METAR COR EGLL 182050Z 25004KT 7000 FEW006 BKN039 M02/M03
                        Q0992 SNOCLO TEMPO 4000 BR BKN005=
201012182020 METAR COR EGLL 182020Z 25002KT 8000 SCT007 BKN025 M02/M03
                        Q0992 SNOCLO TEMPO 4000 BR BKN005=
201012181950 METAR COR EGLL 181950Z 25003KT 9000 BKN011 OVC032 M02/M03
                        Q0992 SNOCLO TEMPO BKN008=
201012181920 METAR COR EGLL 181920Z 25003KT 9999 FEW009 BKN039 M02/M03
                        Q0991 SNOCLO NOSIG=
201012181850 METAR COR EGLL 181850Z 00000KT 9999 BKN018 BKN039 M02/M03
                        Q0991 SNOCLO NOSIG=
201012181820 METAR EGLL 181820Z AUTO 00000KT 7000NDV SG BKN011/// BKN016///
                        M02/M03 Q0991 SNOCLO=
201012181750 METAR COR EGLL 181750Z 25002KT 7000 -SN OVC014 M02/M03 Q0991
                        SNOCLO TEMPO BKN008=
201012181720 METAR COR EGLL 181720Z 25004KT 9999 BKN016 M02/M03 Q0991
                        SNOCLO NOSIG=
201012181650 METAR COR EGLL 181650Z 24009KT 9999 FEW009 BKN021 M02/M03
                        Q0990 SNOCLO NOSIG=
201012181620 METAR COR EGLL 181620Z 25008KT 9999 BKN018 M02/M03 Q0990
                        SNOCLO NOSIG=
201012181550 METAR COR EGLL 181550Z 24008KT 9999 BKN010 BKN017 M01/M02
                        Q0990 SNOCLO BECMG BKN008=
201012181520 METAR COR EGLL 181520Z 24008KT 9999 BKN009 BKN012 M01/M01
                        Q0989 SNOCLO NOSIG=
201012181450 METAR COR EGLL 181450Z 24012KT 9999 BKN007 BKN019 M01/M01
                        Q0989 SNOCLO NOSIG=
201012181420 METAR COR EGLL 181420Z 23012KT 9999 BKN007 M01/M01 Q0989
                        SNOCLO NOSIG=
201012181350 METAR COR EGLL 181350Z 22011KT 9999 -RA FEW003 BKN006 M00/M01
                        Q0988 SNOCLO NOSIG=
201012181320 METAR COR EGLL 181320Z 19010KT 6000 BKN004 M00/M01 Q0988
                        SNOCLO BECMG FEW004 BKN008=
201012181250 METAR COR EGLL 181250Z 11008KT 5000 -SG SCT004 BKN008 M00/M01
                        Q0988 SNOCLO TEMPO 3000 -SN BKN004=
201012181220 METAR COR EGLL 181220Z 08010KT 0600 R09L/0600 R09R/0650 SN
                        VV/// M00/M01 Q0989 SNOCLO BECMG
                        2000 -SN BKN002=
201012181150 METAR COR EGLL 181150Z 08009KT 0400 R09L/0500 R09R/0550 +SN
                        VV/// M00/M01 Q0989 SNOCLO BECMG
                        0800 SN BKN001=
201012181120 METAR COR EGLL 181120Z 09010KT 0300 R09L/0450 R09R/0400 +SN
                        VV/// M00/M01 Q0990 594906// TEMPO
                        0400 SN=
201012181050 METAR COR EGLL 181050Z 10012KT 0500 R09L/0750 R09R/0900 +SN
                        VV/// M00/M01 Q0990 TEMPO 0200=
201012181020 METAR COR EGLL 181020Z 09009KT 0700 R09L/0800 R09R/0750 SN
                        BKN003 M02/M03 Q0991 TEMPO 0300 +SN
                        VV///=
201012180950 METAR COR EGLL 180950Z 09009KT 3000 SN BKN013 M01/M04 Q0991
                        TEMPO 0300 +SN BKN002=
201012180920 METAR COR EGLL 180920Z 09009KT 9999 -SN FEW037 BKN040 M02/M04
                        Q0991 BECMG 1200 SN BKN005=
201012180850 METAR COR EGLL 180850Z 08006KT 9999 -SN FEW019 SCT045 M02/M04
                        Q0991 BECMG 1200 SN=
201012180820 METAR COR EGLL 180820Z 09004KT 7000 -SN BKN025 M02/M04 Q0992
                        TEMPO 1500 SN=
201012180750 METAR COR EGLL 180750Z 09006KT CAVOK M03/M05 Q0992 TEMPO
                        4000 -SHSN=
201012180720 METAR COR EGLL 180720Z 09006KT CAVOK M03/M05 Q0992 TEMPO
                        4000 -SHSN BKN009=
201012180650 METAR EGLL 180650Z 09006KT CAVOK M03/M05 Q0992=
201012180620 METAR COR EGLL 180620Z 09005KT CAVOK M04/M06 Q0992 NOSIG=
201012180550 METAR COR EGLL 180550Z 08004KT CAVOK M05/M06 Q0992 NOSIG=
201012180520 METAR COR EGLL 180520Z 07004KT CAVOK M05/M06 Q0993 NOSIG=
201012180450 METAR EGLL 180450Z 10005KT 060V150 CAVOK M06/M07 Q0993=
201012180420 METAR COR EGLL 180420Z 07004KT CAVOK M06/M07 Q0994 NOSIG=
201012180350 METAR COR EGLL 180350Z 09004KT CAVOK M06/M07 Q0994 NOSIG=
201012180320 METAR COR EGLL 180320Z 12003KT 9000 NSC M06/M07 Q0994 NOSIG=
201012180250 METAR COR EGLL 180250Z 18003KT 9000 FEW021 M05/M06 Q0994
                        NOSIG=
201012180220 METAR COR EGLL 180220Z VRB03KT 9000 NSC M05/M06 Q0994 NOSIG=
201012180150 METAR COR EGLL 180150Z 22002KT 9000 NSC M05/M06 Q0994 NOSIG=
201012180120 METAR EGLL 180120Z 18002KT 8000 NSC M05/M06 Q0994=
201012180050 METAR COR EGLL 180050Z 00000KT 8000 NSC M05/M06 Q0995 NOSIG=
201012180020 METAR COR EGLL 180020Z 13003KT 9000 NSC M05/M06 Q0995 NOSIG=
201012172350 METAR COR EGLL 172350Z 14004KT 9000 NSC M05/M06 Q0995 NOSIG=
201012172320 METAR COR EGLL 172320Z VRB03KT CAVOK M05/M06 Q0995 NOSIG=
201012172250 METAR COR EGLL 172250Z VRB03KT CAVOK M05/M06 Q0995 NOSIG=
201012172220 METAR COR EGLL 172220Z 24006KT CAVOK M05/M06 Q0996 NOSIG=
201012172150 METAR EGLL 172150Z 22005KT CAVOK M05/M06 Q0996=
201012172120 METAR COR EGLL 172120Z 22005KT CAVOK M04/M06 Q0996 NOSIG=
201012172050 METAR COR EGLL 172050Z 27005KT CAVOK M04/M06 Q0996 NOSIG=
201012172020 METAR COR EGLL 172020Z 28005KT CAVOK M05/M07 Q0996 NOSIG=
201012171950 METAR COR EGLL 171950Z 28006KT CAVOK M04/M06 Q0996 NOSIG=
201012171920 METAR COR EGLL 171920Z 28006KT CAVOK M04/M06 Q0996 NOSIG=
201012171850 METAR COR EGLL 171850Z 28004KT CAVOK M05/M06 Q0996 NOSIG=
201012171820 METAR COR EGLL 171820Z 32003KT CAVOK M04/M05 Q0997 NOSIG=
201012171750 METAR COR EGLL 171750Z 32003KT CAVOK M03/M05 Q0997 NOSIG=
201012171720 METAR COR EGLL 171720Z 32003KT CAVOK M03/M04 Q0997 NOSIG=
201012171650 METAR COR EGLL 171650Z 29004KT CAVOK M03/M05 Q0997 NOSIG=
201012171620 METAR COR EGLL 171620Z 28005KT CAVOK M03/M04 Q0997 NOSIG=
201012171550 METAR COR EGLL 171550Z 28004KT 250V320 CAVOK M04/M05 Q0997
                        NOSIG=
201012171520 METAR COR EGLL 171520Z 29005KT 9999 FEW039 M02/M04 Q0997
                        NOSIG=
201012171450 METAR COR EGLL 171450Z 29009KT 9999 FEW025 SCT039 M01/M03
                        Q0997 NOSIG=
201012171420 METAR COR EGLL 171420Z 30007KT 9999 FEW026 SCT032 M01/M03
                        Q0997 NOSIG=
201012171350 METAR COR EGLL 171350Z 30007KT 9999 SCT031 M02/M03 Q0997
                        NOSIG=
201012171320 METAR COR EGLL 171320Z 30012KT 1100 R27L/P1500 R27R/P1500
                        SN SCT010 SCT042 M02/M03 Q0997 RESN
                        BECMG 9999 NSW=
201012171250 METAR COR EGLL 171250Z 35005KT 310V020 6000 SCT021 BKN024
                        M02/M03 Q0998 RESN NOSIG=
201012171220 METAR COR EGLL 171220Z 29009KT 9999 6000N VCSH SCT025 00/M04
                        Q0997 TEMPO 1500 SHSN BKN006=
201012171150 METAR COR EGLL 171150Z 28008KT 9999 VCSH FEW034 M01/M04 Q0998
                        TEMPO 4000 -SHSN=
201012171120 METAR COR EGLL 171120Z 28012KT 9999 FEW040 M01/M04 Q0998
                        TEMPO 4000 -SHSN=
201012171050 METAR COR EGLL 171050Z 28011KT 9999 FEW040 M01/M04 Q0998
                        TEMPO 4000 -SHSN=
201012171020 METAR COR EGLL 171020Z 29010KT CAVOK M01/M04 Q0999 TEMPO
                        4000 -SHSN=
201012170950 METAR COR EGLL 170950Z 28009KT CAVOK M01/M04 Q0999 NOSIG=
201012170920 METAR COR EGLL 170920Z 27010KT CAVOK M02/M04 Q0999 NOSIG=
201012170850 METAR COR EGLL 170850Z 27010KT CAVOK M02/M05 Q0999 NOSIG=
201012170820 METAR COR EGLL 170820Z 27007KT CAVOK M03/M05 Q0999 NOSIG=
201012170750 METAR COR EGLL 170750Z 28009KT CAVOK M03/M05 Q0999 NOSIG=
201012170720 METAR COR EGLL 170720Z 28008KT CAVOK M03/M06 Q0999 NOSIG=
201012170650 METAR COR EGLL 170650Z 28006KT CAVOK M04/M06 Q1000 NOSIG=
201012170620 METAR COR EGLL 170620Z 27008KT CAVOK M04/M06 Q1000 NOSIG=
201012170550 METAR COR EGLL 170550Z 27008KT CAVOK M04/M06 Q1000 NOSIG=
201012170520 METAR EGLL 170520Z 27009KT CAVOK M04/M07 Q1000=
201012170450 METAR COR EGLL 170450Z 27008KT CAVOK M04/M07 Q1001 NOSIG=
201012170420 METAR COR EGLL 170420Z 29007KT CAVOK M04/M07 Q1001 NOSIG=
201012170350 METAR EGLL 170350Z 29008KT CAVOK M04/M07 Q1002=
201012170320 METAR COR EGLL 170320Z 29008KT CAVOK M04/M07 Q1002 NOSIG=
201012170250 METAR COR EGLL 170250Z 28008KT CAVOK M04/M07 Q1002 NOSIG=
201012170220 METAR COR EGLL 170220Z 28006KT CAVOK M03/M07 Q1002 NOSIG=
201012170150 METAR EGLL 170150Z 31007KT CAVOK M03/M06 Q1002=
201012170120 METAR COR EGLL 170120Z 32006KT 280V340 CAVOK M03/M06 Q1002
                        NOSIG=
201012170050 METAR COR EGLL 170050Z 32007KT CAVOK M02/M06 Q1003 NOSIG=
201012170020 METAR COR EGLL 170020Z 31007KT CAVOK M02/M06 Q1003 NOSIG=
201012162350 METAR COR EGLL 162350Z 32005KT 280V350 CAVOK M02/M06 Q1003
                        NOSIG=
201012162320 METAR COR EGLL 162320Z 32007KT 290V010 CAVOK M02/M06 Q1003
                        NOSIG=
201012162250 METAR COR EGLL 162250Z 33008KT 290V360 9999 FEW048 M01/M05
                        Q1003 NOSIG=
201012162220 METAR COR EGLL 162220Z 33008KT 9999 FEW020 M01/M05 Q1003
                        NOSIG=
201012162150 METAR EGLL 162150Z 33008KT 300V040 9999 FEW020 M00/M04 Q1003=
201012162120 METAR COR EGLL 162120Z 34008KT 310V020 9999 FEW020 00/M04
                        Q1003 NOSIG=
201012162050 METAR COR EGLL 162050Z 34007KT 310V030 9999 FEW020 01/M02
                        Q1003 NOSIG=
201012162020 METAR COR EGLL 162020Z 33008KT 290V360 9999 FEW030 SCT040
                        01/M01 Q1003 NOSIG=
201012161950 METAR COR EGLL 161950Z 35006KT 330V050 9999 FEW030 01/M01
                        Q1003 NOSIG=
201012161920 METAR COR EGLL 161920Z 01008KT 330V040 9999 -SN SCT012 01/M01
                        Q1003 NOSIG=
201012161850 METAR COR EGLL 161850Z 36009KT 330V060 7000 -SN BKN010 01/M01
                        Q1003 BECMG NSW SCT015=
201012161820 METAR COR EGLL 161820Z 01009KT 340V060 8000 -RASN BKN008
                        01/M00 Q1003 TEMPO 4000 RASN=
201012161750 METAR COR EGLL 161750Z 02009G19KT 6000 -RASN FEW006 BKN009
                        02/M00 Q1002 TEMPO 4000 RASN=
201012161720 METAR COR EGLL 161720Z 01007KT 330V040 4000 -RASN SCT006
                        SCT012 01/00 Q1002 TEMPO BKN006=
201012161650 METAR COR EGLL 161650Z 01012KT 8000 RA BKN008 03/01 Q1002
                        TEMPO 4000 RASN=
201012161620 METAR COR EGLL 161620Z 36006KT 330V030 4000 -RA BKN009 03/01
                        Q1002 RERA TEMPO 6000 SCT010=
201012161550 METAR COR EGLL 161550Z 34008KT 280V050 7000 -RA SCT021 SCT027
                        05/03 Q1001 TEMPO 4000 RASN BKN008=
201012161520 METAR COR EGLL 161520Z 29009KT 9999 -RA FEW020 SCT046 05/03
                        Q1002 BECMG 01015KT=
201012161450 METAR COR EGLL 161450Z 30009KT 9999 -RA FEW024 SCT033 06/03
                        Q1002 BECMG 01018KT=
201012161420 METAR COR EGLL 161420Z 30012KT 9999 FEW016 SCT027 07/03 Q1002
                        BECMG 01018KT=
201012161350 METAR COR EGLL 161350Z 29016KT 9999 -RA SCT017 BKN020 07/05
                        Q1002 BECMG 01018KT=
201012161320 METAR COR EGLL 161320Z 27019KT 9999 -RA SCT019 BKN022 07/05
                        Q1003 BECMG 01018KT=
201012161250 METAR COR EGLL 161250Z 27017KT 9999 FEW018 SCT023 07/04 Q1004
                        TEMPO RA BKN014=
201012161220 METAR COR EGLL 161220Z 27018KT 9999 -RA SCT019 SCT022 06/04
                        Q1005 TEMPO RA BKN014=
201012161150 METAR COR EGLL 161150Z 26016KT 9999 -RA FEW021 SCT024 06/04
                        Q1006 TEMPO BKN014=
201012161120 METAR COR EGLL 161120Z 26016KT 9999 -RA SCT015 BKN020 06/04
                        Q1007 TEMPO BKN014=
201012161050 METAR EGLL 161050Z 26017KT 9999 -RA BKN020 BKN023 07/04 Q1008=
201012161020 METAR COR EGLL 161020Z 26017KT 9999 -RA SCT019 BKN023 06/04
                        Q1009 TEMPO BKN014=
201012160950 METAR COR EGLL 160950Z 26015KT 9999 SCT014 BKN023 06/03 Q1010
                        TEMPO BKN014=
201012160920 METAR COR EGLL 160920Z 26014KT 9999 SCT015 BKN019 06/03 Q1011
                        TEMPO BKN014=
201012160850 METAR COR EGLL 160850Z 26014KT 9999 SCT016 BKN019 06/03 Q1012
                        TEMPO BKN014=
201012160820 METAR COR EGLL 160820Z 26014KT 9999 BKN019 BKN023 06/03 Q1013
                        NOSIG=
201012160750 METAR COR EGLL 160750Z 26013KT 9999 SCT018 BKN025 06/03 Q1014
                        NOSIG=
201012160720 METAR COR EGLL 160720Z 26014KT 9999 SCT019 SCT028 06/03 Q1015
                        NOSIG=
201012160650 METAR COR EGLL 160650Z 26012KT 9999 SCT034 SCT040 06/03 Q1015
                        NOSIG=
201012160620 METAR COR EGLL 160620Z 26012KT 9999 FEW038 SCT043 05/02 Q1016
                        NOSIG=
201012160550 METAR COR EGLL 160550Z 26012KT 9999 BKN036 05/02 Q1017 NOSIG=
201012160520 METAR COR EGLL 160520Z 25011KT 9999 FEW026 BKN036 05/02 Q1018
                        NOSIG=
201012160450 METAR COR EGLL 160450Z 26009KT 9999 BKN026 05/02 Q1019 NOSIG=
201012160420 METAR EGLL 160420Z 26009KT 9999 BKN026 04/02 Q1020=
201012160350 METAR COR EGLL 160350Z 26009KT 9999 BKN028 04/02 Q1021 NOSIG
                        NOSIG=
201012160320 METAR COR EGLL 160320Z 26009KT 9999 FEW012 BKN028 04/02 Q1021
                        NOSIG=
201012160250 METAR COR EGLL 160250Z 26009KT 9999 FEW012 BKN029 04/02 Q1022
                        NOSIG=
201012160220 METAR COR EGLL 160220Z 26007KT 9000 FEW013 BKN028 04/02 Q1023
                        NOSIG=
201012160150 METAR COR EGLL 160150Z 27006KT 9000 FEW021 SCT029 04/02 Q1024
                        NOSIG=
201012160120 METAR COR EGLL 160120Z 28005KT 9000 FEW016 SCT025 03/02 Q1025
                        NOSIG=
201012160050 METAR COR EGLL 160050Z 27006KT 9000 SCT018 SCT027 03/01 Q1025
                        NOSIG=
201012160020 METAR COR EGLL 160020Z 27006KT 9999 SCT026 SCT033 03/01 Q1026
                        NOSIG=
201012152350 METAR COR EGLL 152350Z 27005KT 9999 BKN030 03/01 Q1027 NOSIG=
201012152320 METAR COR EGLL 152320Z 27006KT 9999 BKN029 03/00 Q1028 NOSIG=
201012152250 METAR COR EGLL 152250Z 28007KT 9999 SCT034 02/M00 Q1028 NOSIG=
201012152220 METAR COR EGLL 152220Z 30006KT 9999 SCT034 03/00 Q1029 NOSIG=
201012152150 METAR COR EGLL 152150Z 29006KT 9999 SCT026 03/00 Q1029 NOSIG=
201012152120 METAR COR EGLL 152120Z 29006KT 9999 FEW026 SCT037 03/00 Q1030
                        NOSIG=
201012152050 METAR EGLL 152050Z 31005KT 9999 BKN026 03/00 Q1031=
201012152020 METAR COR EGLL 152020Z 30005KT 9999 BKN025 03/01 Q1031 NOSIG=
201012151950 METAR COR EGLL 151950Z 31004KT 9999 FEW026 03/01 Q1031 NOSIG=
201012151920 METAR COR EGLL 151920Z 31006KT 9999 FEW027 SCT039 04/01 Q1032
                        NOSIG=
201012151850 METAR COR EGLL 151850Z 32007KT 9999 BKN027 04/01 Q1032 NOSIG=
201012151820 METAR COR EGLL 151820Z 32007KT 300V360 9999 FEW015 SCT022
                        05/02 Q1032 NOSIG=
201012151750 METAR EGLL 151750Z 31007KT 9999 -RA BKN012 05/03 Q1032=
201012151720 METAR COR EGLL 151720Z 33007KT 9000 BKN012 05/03 Q1033 NOSIG=
201012151650 METAR COR EGLL 151650Z 33005KT 300V010 9000 SCT008 BKN013
                        05/03 Q1033 TEMPO BKN008=
201012151620 METAR COR EGLL 151620Z 34006KT 310V010 5000 -RA BKN006 BKN012
                        05/04 Q1033 TEMPO SCT006 BKN012=
201012151550 METAR COR EGLL 151550Z 34005KT 300V010 5000 -RA FEW006 BKN010
                        05/04 Q1033 NOSIG=
201012151520 METAR EGLL 151520Z 32006KT 4000 -RA SCT007 BKN008 05/03 Q1033=
201012151450 METAR EGLL 151450Z 32007KT 4500 -RA BKN008 05/03 Q1034=
201012151420 METAR COR EGLL 151420Z 32008KT 5000 -RA BKN010 05/03 Q1034
                        NOSIG=
201012151350 METAR COR EGLL 151350Z 32007KT 290V350 4600 -RA FEW006 SCT008
                        BKN010 05/03 Q1034 BECMG 6000=
201012151320 METAR COR EGLL 151320Z 32007KT 5000 BR FEW007 BKN008 05/03
                        Q1034 NOSIG=
201012151250 METAR COR EGLL 151250Z 32007KT 9000 BKN009 05/02 Q1035 NOSIG=
201012151220 METAR COR EGLL 151220Z 29007KT 4000 BR OVC010 04/02 Q1035
                        TEMPO BKN008=
201012151150 METAR COR EGLL 151150Z 29006KT 3000 BR FEW008 SCT009 BKN010
                        03/02 Q1035 NOSIG=
201012151120 METAR COR EGLL 151120Z 29006KT 2500 BR SCT006 SCT008 03/01
                        Q1036 TEMPO BKN008=
201012151050 METAR COR EGLL 151050Z 28007KT 2100 BR BKN005 02/01 Q1036
                        BECMG 4000=
201012151020 METAR EGLL 151020Z 28005KT 2200 BR SCT005 BKN006 02/01 Q1037=
201012150950 METAR COR EGLL 150950Z 29006KT 2000 BR FEW004 SCT005 BKN006
                        01/00 Q1037 BECMG 4000=
201012150920 METAR COR EGLL 150920Z 31005KT 270V330 2000 BR FEW004 SCT005
                        01/00 Q1037 TEMPO BKN004=
201012150850 METAR COR EGLL 150850Z 32005KT 280V350 1000 R27L/P1500 R27R/P1500
                        BR FEW003 SCT004 01/M00 Q1037 BECMG
                        2000 BKN003=
201012150820 METAR COR EGLL 150820Z 32005KT 1000 BR BKN003 00/M01 Q1038
                        BECMG 2000=
201012150750 METAR COR EGLL 150750Z 31004KT 280V350 2000 BR BKN004 00/M01
                        Q1037 NOSIG=
201012150720 METAR EGLL 150720Z NIL=
201012150650 METAR COR EGLL 150650Z 28005KT CAVOK M01/M03 Q1037 NOSIG=
201012150620 METAR COR EGLL 150620Z 29003KT 9999 FEW041 00/M02 Q1037 NOSIG=
201012150550 METAR COR EGLL 150550Z 31004KT 9999 SCT041 01/M01 Q1037 NOSIG=
201012150520 METAR COR EGLL 150520Z 32004KT 9999 FEW027 SCT046 01/M02
                        Q1037 NOSIG=
201012150450 METAR COR EGLL 150450Z VRB03KT 9999 FEW026 SCT043 01/M02
                        Q1037 NOSIG=
201012150420 METAR EGLL 150420Z VRB02KT 9999 SCT043 01/M02 Q1038=
201012150350 METAR COR EGLL 150350Z 00000KT 9999 BKN049 01/M02 Q1038 NOSIG=
201012150320 METAR COR EGLL 150320Z VRB03KT CAVOK M00/M02 Q1038 NOSIG=
201012150250 METAR COR EGLL 150250Z VRB03KT CAVOK M01/M03 Q1038 NOSIG=
201012150220 METAR COR EGLL 150220Z 32004KT CAVOK M00/M03 Q1038 NOSIG=
201012150150 METAR COR EGLL 150150Z 32004KT 300V360 CAVOK 00/M02 Q1037
                        NOSIG=
201012150120 METAR COR EGLL 150120Z 32004KT CAVOK 00/M02 Q1037 NOSIG=
201012150050 METAR COR EGLL 150050Z 32004KT CAVOK 00/M02 Q1037 NOSIG=
201012150020 METAR COR EGLL 150020Z 34002KT CAVOK 01/M02 Q1037 NOSIG=
201012142350 METAR COR EGLL 142350Z VRB03KT CAVOK 01/M02 Q1037 NOSIG=
201012142320 METAR COR EGLL 142320Z 33002KT CAVOK 01/M01 Q1037 NOSIG=
201012142250 METAR COR EGLL 142250Z 00000KT CAVOK 02/M01 Q1037 NOSIG=
201012142220 METAR COR EGLL 142220Z VRB03KT CAVOK 02/M01 Q1037 NOSIG=
201012142150 METAR EGLL 142150Z 04004KT 010V070 CAVOK 02/M01 Q1037=
201012142120 METAR COR EGLL 142120Z 05004KT 020V080 CAVOK 02/M01 Q1037
                        NOSIG=
201012142050 METAR COR EGLL 142050Z 05004KT CAVOK 03/M00 Q1037 NOSIG=
201012142020 METAR COR EGLL 142020Z 04004KT 360V080 CAVOK 03/M00 Q1036
                        NOSIG=
201012141950 METAR COR EGLL 141950Z VRB03KT CAVOK 03/00 Q1036 NOSIG=
201012141920 METAR COR EGLL 141920Z VRB03KT CAVOK 03/00 Q1036 NOSIG=
201012141850 METAR COR EGLL 141850Z VRB02KT CAVOK 03/00 Q1035 NOSIG=
201012141820 METAR COR EGLL 141820Z VRB03KT 9999 FEW020 03/00 Q1035 NOSIG=
201012141750 METAR COR EGLL 141750Z 35003KT 9999 FEW019 03/00 Q1035 NOSIG=
201012141720 METAR COR EGLL 141720Z 36003KT 9999 SCT019 03/00 Q1035 NOSIG=
201012141650 METAR COR EGLL 141650Z 04004KT 360V090 9999 FEW017 SCT022
                        03/00 Q1035 NOSIG=
201012141620 METAR COR EGLL 141620Z 01004KT 340V060 9999 BKN026 04/00
                        Q1035 NOSIG=
201012141550 METAR COR EGLL 141550Z 36004KT 330V040 9999 SCT020 04/00
                        Q1034 NOSIG=
201012141520 METAR COR EGLL 141520Z 01004KT 330V050 9999 SCT021 05/01
                        Q1034 NOSIG=
201012141450 METAR COR EGLL 141450Z 04004KT 340V070 9999 SCT025 05/01
                        Q1034 NOSIG=
201012141420 METAR COR EGLL 141420Z 36004KT 320V050 CAVOK 05/M00 Q1034
                        NOSIG=
201012141350 METAR COR EGLL 141350Z 36004KT 9999 FEW023 05/M00 Q1033 NOSIG=
201012141320 METAR COR EGLL 141320Z 03004KT 340V070 9999 SCT047 05/00
                        Q1033 NOSIG=
201012141250 METAR COR EGLL 141250Z VRB03KT 9999 FEW024 SCT030 05/00 Q1033
                        NOSIG=
201012141220 METAR COR EGLL 141220Z 05004KT 020V080 9999 SCT030 05/01
                        Q1033 NOSIG=
201012141150 METAR COR EGLL 141150Z 07004KT 020V090 9999 SCT038 05/01
                        Q1033 NOSIG=
201012141120 METAR COR EGLL 141120Z 06005KT 020V090 9999 BKN038 05/01
                        Q1033 NOSIG=
201012141050 METAR COR EGLL 141050Z 03005KT 360V060 9999 BKN036 04/02
                        Q1033 NOSIG=
201012141020 METAR COR EGLL 141020Z 03005KT 360V070 9000 SCT034 04/02
                        Q1033 NOSIG=
201012140950 METAR COR EGLL 140950Z 03005KT 340V070 8000 FEW009 SCT037
                        04/02 Q1033 NOSIG=
201012140920 METAR COR EGLL 140920Z 04004KT 350V070 8000 SCT009 04/02
                        Q1032 NOSIG=
201012140850 METAR COR EGLL 140850Z 01005KT 9999 SCT009 BKN018 04/02 Q1032
                        TEMPO BKN009=
201012140820 METAR COR EGLL 140820Z 03005KT 350V060 9999 SCT009 BKN019
                        04/03 Q1032 TEMPO BKN009=
201012140750 METAR COR EGLL 140750Z 03005KT 350V070 9999 SCT011 BKN026
                        04/03 Q1031 TEMPO BKN011=
201012140720 METAR COR EGLL 140720Z 01005KT 340V040 9999 FEW013 BKN022
                        04/03 Q1031 TEMPO BKN013=
201012140650 METAR COR EGLL 140650Z 36006KT 9000 SCT007 BKN012 04/03 Q1030
                        TEMPO BKN007=
201012140620 METAR COR EGLL 140620Z 01005KT 330V030 7000 -RA FEW007 BKN011
                        04/03 Q1030 TEMPO BKN007=
201012140550 METAR COR EGLL 140550Z 01005KT 340V050 8000 -RA SCT008 BKN011
                        04/03 Q1030 TEMPO BKN008=
201012140520 METAR COR EGLL 140520Z 36006KT 330V040 9999 FEW008 BKN010
                        04/03 Q1030 TEMPO BKN008=
201012140450 METAR COR EGLL 140450Z 36005KT 320V020 9999 SCT012 SCT023
                        04/03 Q1029 TEMPO BKN012=
201012140420 METAR COR EGLL 140420Z 35005KT 310V020 9999 FEW008 SCT015
                        04/03 Q1029 TEMPO BKN008=
201012140350 METAR COR EGLL 140350Z 35005KT 310V020 7000 -RA SCT008 SCT012
                        04/03 Q1029 TEMPO BKN008=
201012140320 METAR COR EGLL 140320Z 36005KT 7000 -RA SCT008 SCT011 04/03
                        Q1029 TEMPO BKN008=
201012140250 METAR COR EGLL 140250Z 36006KT 310V030 8000 BKN010 04/02
                        Q1029 TEMPO BKN008=
201012140220 METAR COR EGLL 140220Z 36005KT 330V030 8000 BKN008 04/02
                        Q1029 TEMPO SCT008 BKN012=
201012140150 METAR COR EGLL 140150Z 36005KT 9000 BKN012 04/02 Q1028 TEMPO
                        BKN008=
201012140120 METAR COR EGLL 140120Z 36006KT 9000 SCT016 04/02 Q1028 TEMPO
                        BKN010=
201012140050 METAR COR EGLL 140050Z 36005KT 9000 BKN011 04/02 Q1028 TEMPO
                        BKN008=
201012140020 METAR COR EGLL 140020Z 35006KT 9000 FEW007 SCT020 04/02 Q1028
                        BECMG BKN007=
201012132350 METAR COR EGLL 132350Z 35006KT 320V020 9999 SCT012 SCT040
                        04/02 Q1028 BECMG BKN012=
201012132320 METAR COR EGLL 132320Z 35006KT 320V030 9999 FEW008 SCT013
                        04/02 Q1028 BECMG BKN008=
201012132250 METAR COR EGLL 132250Z 33006KT 9999 FEW018 04/02 Q1028 NOSIG=
201012132220 METAR COR EGLL 132220Z 33007KT 9999 FEW017 SCT041 03/02 Q1028
                        NOSIG=
201012132150 METAR COR EGLL 132150Z 34005KT 310V010 9000 -RA SCT020 SCT030
                        03/01 Q1028 NOSIG=
201012132120 METAR COR EGLL 132120Z 31004KT 9000 SCT020 03/01 Q1028 NOSIG=
201012132050 METAR COR EGLL 132050Z 31004KT 8000 FEW024 SCT032 02/01 Q1028
                        NOSIG=
201012132020 METAR COR EGLL 132020Z 31003KT 7000 SCT019 02/00 Q1028 NOSIG=
201012131950 METAR COR EGLL 131950Z 28004KT 9000 SCT037 02/00 Q1028 NOSIG=
201012131920 METAR COR EGLL 131920Z 30004KT 9000 FEW032 02/00 Q1028 NOSIG=
201012131850 METAR COR EGLL 131850Z 29003KT 9000 FEW028 02/M00 Q1028 NOSIG=
201012131820 METAR COR EGLL 131820Z VRB03KT 9999 FEW018 02/M00 Q1028 NOSIG=
201012131750 METAR COR EGLL 131750Z 31004KT 9999 FEW019 03/00 Q1027 NOSIG=
201012131720 METAR COR EGLL 131720Z 30005KT 9999 FEW017 SCT022 03/01 Q1028
                        NOSIG=
201012131650 METAR COR EGLL 131650Z 29005KT 9999 SCT019 SCT030 03/01 Q1028
                        NOSIG=
201012131620 METAR COR EGLL 131620Z 29005KT 9000 BKN025 03/01 Q1028 NOSIG=
201012131550 METAR COR EGLL 131550Z 29004KT 9999 SCT033 SCT039 03/01 Q1028
                        NOSIG=
201012131520 METAR COR EGLL 131520Z 29004KT 9999 FEW034 BKN039 03/01 Q1027
                        NOSIG=
201012131450 METAR COR EGLL 131450Z 28004KT 9000 SCT040 04/01 Q1027 NOSIG=
201012131420 METAR COR EGLL 131420Z 26004KT 9999 SCT034 03/01 Q1027 NOSIG=
201012131350 METAR COR EGLL 131350Z 28004KT 7000 FEW008 BKN032 03/01 Q1027
                        NOSIG=
201012131320 METAR COR EGLL 131320Z 30003KT 5000 BR FEW006 BKN030 03/02
                        Q1028 NOSIG=
201012131250 METAR COR EGLL 131250Z VRB03KT 4500 BR FEW008 BKN033 03/02
                        Q1028 BECMG 6000=
201012131220 METAR COR EGLL 131220Z 30003KT 4500 BR FEW006 BKN031 02/01
                        Q1028 BECMG 6000 NSW=
201012131150 METAR EGLL 131150Z 27003KT 5000 BR SCT005 BKN031 02/01 Q1028=
201012131120 METAR COR EGLL 131120Z VRB02KT 4000 BR FEW004 BKN006 02/01
                        Q1028 BECMG 6000 NSW SCT012=
201012131050 METAR COR EGLL 131050Z VRB03KT 2800 BR FEW002 BKN004 02/01
                        Q1028 BECMG 6000 NSW SCT012=
201012131020 METAR COR EGLL 131020Z 29002KT 1200 R09L/P1500 R09R/P1500
                        HZ FEW001 BKN002 01/01 Q1028 BECMG
                        4000 BR BKN006=
201012130950 METAR COR EGLL 130950Z VRB02KT 1000 R09L/P1500 R09R/P1500
                        BR SCT001 BKN002 01/00 Q1028 BECMG
                        3000 BKN006=
201012130920 METAR COR EGLL 130920Z VRB02KT 0500 R09L/0600 R09R/P1500
                        FG VV/// 01/00 Q1028 BECMG 3000 BR
                        BKN006=
201012130850 METAR COR EGLL 130850Z VRB03KT 0600 R09L/1200 R09R/1100 FG
                        VV/// 01/M00 Q1028 BECMG 3000 BR
                        BKN006=
201012130820 METAR COR EGLL 130820Z VRB03KT 0800 R09L/0800 R09R/1300 FG
                        VV/// 01/00 Q1028 NOSIG=
201012130750 METAR COR EGLL 130750Z VRB03KT 0800 R09L/P1500 R09R/1500
                        FG BKN001 01/00 Q1028 NOSIG=
201012130720 METAR COR EGLL 130720Z VRB03KT 1200 R09L/P1500 R09R/1400
                        BR BKN001 01/00 Q1027 TEMPO 0500
                        FG=
201012130650 METAR COR EGLL 130650Z 03004KT 340V070 1200 R09L/P1500 R09R/P1500
                        BR BKN002 01/00 Q1027 TEMPO 0500
                        FG=
201012130620 METAR COR EGLL 130620Z 36004KT 330V050 1200 R09L/P1500 R09R/P1500
                        BR SCT002 SCT034 01/01 Q1027 TEMPO
                        0500 FG=
201012130550 METAR COR EGLL 130550Z 04002KT 2000 BR FEW003 BKN034 01/00
                        Q1027 TEMPO 0500 FG BKN000=
201012130520 METAR COR EGLL 130520Z 05002KT 2500 1000W R09R/P1500 BR FEW002
                        BKN032 01/00 Q1027 TEMPO 0500 FG
                        BKN000=
201012130450 METAR COR EGLL 130450Z 01003KT 0800 R09R/P1500 FZFG FEW002
                        OVC034 00/M00 Q1027 BECMG 2000 BR=
201012130420 METAR COR EGLL 130420Z 00000KT 3000 R09R/0650 BR FEW003 SCT032
                        M01/M02 Q1026 TEMPO 2000 BKN003=
201012130350 METAR COR EGLL 130350Z 00000KT 3000 BR NSC M01/M01 Q1026
                        TEMPO 2000 BKN003=
201012130320 METAR COR EGLL 130320Z VRB02KT 3500 R09R/0375 BR SCT003 M00/M01
                        Q1026 TEMPO 2000 BKN003=
201012130250 METAR COR EGLL 130250Z 10004KT 030V120 3000 BR SCT003 01/00
                        Q1026 TEMPO 2000 BKN003=
201012130220 METAR COR EGLL 130220Z VRB03KT 3000 BR SCT003 01/00 Q1026
                        TEMPO 2000 BKN003=
201012130150 METAR COR EGLL 130150Z 03005KT 360V070 4800 BR NSC 02/00
                        Q1026 TEMPO 2000=
201012130120 METAR COR EGLL 130120Z VRB03KT 7000 NSC 02/01 Q1026 TEMPO
                        4000 BR=
201012130050 METAR COR EGLL 130050Z VRB03KT 8000 NSC 03/01 Q1026 NOSIG=
201012130020 METAR EGLL 130020Z 35004KT 9000 NSC 03/01 Q1026=
201012122350 METAR COR EGLL 122350Z 35003KT 9999 SCT032 04/02 Q1026 TEMPO
                        BKN007=
201012122320 METAR COR EGLL 122320Z VRB03KT 9999 BKN032 04/02 Q1026 TEMPO
                        BKN007=
201012122250 METAR COR EGLL 122250Z 36003KT 9999 FEW010 BKN032 04/02 Q1026
                        TEMPO BKN007=
201012122220 METAR COR EGLL 122220Z 36005KT 330V030 9999 FEW010 BKN031
                        04/02 Q1026 BECMG BKN007=
201012122150 METAR COR EGLL 122150Z 36005KT 9999 BKN031 04/02 Q1026 BECMG
                        BKN007=
201012122120 METAR COR EGLL 122120Z 36004KT 330V040 9999 BKN030 04/02
                        Q1026 BECMG BKN007=
201012122050 METAR COR EGLL 122050Z 02004KT 340V040 9999 BKN029 04/02
                        Q1026 BECMG BKN007=
201012122020 METAR COR EGLL 122020Z 01004KT 330V050 9999 FEW009 BKN035
                        04/02 Q1026 TEMPO BKN009=
201012121950 METAR COR EGLL 121950Z 05004KT 020V080 9999 SCT008 SCT034
                        04/02 Q1026 TEMPO BKN009=
201012121920 METAR COR EGLL 121920Z 02004KT 340V050 9999 SCT009 SCT030
                        04/02 Q1026 TEMPO BKN009=
201012121850 METAR COR EGLL 121850Z 03007KT 340V070 9999 SCT009 BKN028
                        05/02 Q1025 TEMPO BKN009=
201012121820 METAR COR EGLL 121820Z 01004KT 320V050 9999 BKN030 05/02
                        Q1025 NOSIG=
201012121750 METAR COR EGLL 121750Z 36004KT 330V040 9999 SCT011 BKN033
                        05/02 Q1025 NOSIG=
201012121720 METAR COR EGLL 121720Z 36004KT 330V030 9999 FEW024 BKN031
                        05/02 Q1025 NOSIG=
201012121650 METAR COR EGLL 121650Z VRB03KT 9999 FEW024 BKN033 05/02 Q1025
                        NOSIG=
201012121620 METAR EGLL 121620Z 35004KT 320V020 9999 BKN031 05/02 Q1025=
201012121550 METAR COR EGLL 121550Z 36005KT 330V030 9999 FEW014 BKN032
                        05/02 Q1025 NOSIG=
201012121520 METAR COR EGLL 121520Z 36005KT 9999 BKN030 06/02 Q1024 NOSIG=
201012121450 METAR COR EGLL 121450Z 36005KT 9999 BKN032 06/02 Q1024 NOSIG=
201012121420 METAR COR EGLL 121420Z 36005KT 9999 BKN030 06/02 Q1025 NOSIG=
201012121350 METAR COR EGLL 121350Z 36005KT 320V040 9999 FEW018 BKN032
                        06/02 Q1025 NOSIG=
201012121320 METAR COR EGLL 121320Z 36005KT 9999 BKN035 06/02 Q1024 NOSIG=
201012121250 METAR COR EGLL 121250Z 35006KT 310V030 9999 FEW020 06/02
                        Q1024 NOSIG=
201012121220 METAR COR EGLL 121220Z 35005KT CAVOK 05/02 Q1025 NOSIG=
201012121150 METAR COR EGLL 121150Z 36006KT 340V040 9999 SCT040 05/02
                        Q1025 NOSIG=
201012121120 METAR COR EGLL 121120Z 36005KT 340V060 9999 SCT037 05/01
                        Q1025 NOSIG=
201012121050 METAR COR EGLL 121050Z 36006KT 9000 BKN036 04/01 Q1025 NOSIG=
201012121020 METAR COR EGLL 121020Z 35003KT 9000 NSC 03/01 Q1025 NOSIG=
201012120950 METAR COR EGLL 120950Z 31003KT 8000 NSC 02/00 Q1025 NOSIG=
201012120920 METAR COR EGLL 120920Z VRB03KT 7000 NSC 01/M00 Q1024 NOSIG=
201012120850 METAR COR EGLL 120850Z 28004KT 9000 NSC 00/M01 Q1024 NOSIG=
201012120820 METAR COR EGLL 120820Z 28003KT 9000 NSC 00/M01 Q1024 NOSIG=
201012120750 METAR COR EGLL 120750Z 34002KT 9000 NSC M01/M02 Q1024 NOSIG=
201012120720 METAR COR EGLL 120720Z 00000KT CAVOK 01/M01 Q1023 NOSIG=
201012120650 METAR COR EGLL 120650Z 36004KT 9000 NSC 02/M00 Q1023 NOSIG=
201012120620 METAR COR EGLL 120620Z 36004KT 9000 NSC 02/M00 Q1023 NOSIG=
201012120550 METAR COR EGLL 120550Z VRB03KT 9000 NSC 02/M00 Q1023 NOSIG=
201012120520 METAR COR EGLL 120520Z VRB02KT 9000 NSC 02/00 Q1023 NOSIG=
201012120450 METAR COR EGLL 120450Z 36004KT 9000 NSC 02/00 Q1023 NOSIG=
201012120420 METAR COR EGLL 120420Z 36004KT 9000 NSC 02/01 Q1023 NOSIG=
201012120350 METAR EGLL 120350Z 36004KT 330V030 9000 NSC 03/01 Q1023=
201012120320 METAR EGLL 120320Z 35003KT 9000 NSC 03/01 Q1023=
201012120250 METAR COR EGLL 120250Z 35004KT 9000 NSC 03/01 Q1023 NOSIG=
201012120220 METAR COR EGLL 120220Z VRB03KT 9000 NSC 03/02 Q1023 NOSIG=
201012120150 METAR COR EGLL 120150Z 35002KT 8000 NSC 04/02 Q1022 NOSIG=
201012120120 METAR COR EGLL 120120Z 02002KT 9000 NSC 04/02 Q1022 NOSIG=
201012120050 METAR COR EGLL 120050Z VRB03KT 9000 NSC 04/02 Q1022 NOSIG=
201012120020 METAR COR EGLL 120020Z 36004KT 330V040 CAVOK 05/02 Q1022
                        NOSIG=
201012112350 METAR COR EGLL 112350Z 36006KT 330V050 9999 FEW017 06/03
                        Q1022 NOSIG=
201012112320 METAR COR EGLL 112320Z 36005KT 330V040 9999 SCT017 07/03
                        Q1022 NOSIG=
201012112250 METAR COR EGLL 112250Z 32005KT 280V360 9999 BKN020 07/03
                        Q1022 NOSIG=
201012112220 METAR COR EGLL 112220Z 31004KT 9999 BKN022 07/03 Q1022 NOSIG=
201012112150 METAR COR EGLL 112150Z 31005KT 280V350 9999 BKN025 07/03
                        Q1023 NOSIG=
201012112120 METAR COR EGLL 112120Z 33005KT 300V010 9999 BKN024 07/03
                        Q1023 NOSIG=
201012112050 METAR COR EGLL 112050Z 31005KT 9999 BKN024 07/03 Q1023 NOSIG=
201012112020 METAR COR EGLL 112020Z 32005KT 9999 BKN024 07/03 Q1023 NOSIG=
201012111950 METAR COR EGLL 111950Z 31007KT 9999 BKN025 07/03 Q1024 NOSIG=
201012111920 METAR COR EGLL 111920Z 30005KT 9999 BKN024 07/03 Q1023 NOSIG=
201012111850 METAR COR EGLL 111850Z 30004KT 9999 BKN024 07/03 Q1023 NOSIG=
201012111820 METAR COR EGLL 111820Z 29006KT 9999 BKN024 07/04 Q1024 NOSIG=
201012111750 METAR EGLL 111750Z 28007KT 9999 BKN025 07/04 Q1024=
201012111720 METAR COR EGLL 111720Z 28007KT 9999 BKN025 07/04 Q1024 NOSIG=
201012111650 METAR COR EGLL 111650Z 27009KT 9999 BKN025 07/04 Q1024 NOSIG=
201012111620 METAR COR EGLL 111620Z 28008KT 9999 BKN026 07/04 Q1024 NOSIG=
201012111550 METAR COR EGLL 111550Z 29006KT 9999 BKN025 08/04 Q1024 NOSIG=
201012111520 METAR COR EGLL 111520Z 29007KT 9999 BKN025 08/04 Q1024 NOSIG=
201012111450 METAR COR EGLL 111450Z 30005KT 9999 BKN024 08/04 Q1025 NOSIG=
201012111420 METAR COR EGLL 111420Z 30007KT 9999 BKN023 08/04 Q1025 NOSIG=
201012111350 METAR COR EGLL 111350Z 31006KT 280V340 9999 BKN022 08/04
                        Q1025 NOSIG=
201012111320 METAR COR EGLL 111320Z 31007KT 9999 BKN020 09/04 Q1025 NOSIG=
201012111250 METAR COR EGLL 111250Z 28009KT 9999 BKN021 09/04 Q1026 NOSIG=
201012111220 METAR COR EGLL 111220Z 28007KT 9999 BKN019 08/04 Q1026 NOSIG=
201012111150 METAR COR EGLL 111150Z 31006KT 270V350 9999 BKN017 08/04
                        Q1026 NOSIG=
201012111120 METAR COR EGLL 111120Z 32007KT 280V350 9999 BKN016 08/04
                        Q1026 NOSIG=
201012111050 METAR COR EGLL 111050Z 32006KT 280V360 9999 BKN017 08/04
                        Q1026 NOSIG=
201012111020 METAR COR EGLL 111020Z 31006KT 9999 BKN017 07/04 Q1027 NOSIG=
201012110950 METAR COR EGLL 110950Z 27004KT 230V320 9999 BKN017 07/04
                        Q1027 NOSIG=
201012110920 METAR COR EGLL 110920Z 28005KT 9999 BKN016 07/04 Q1026 TEMPO
                        BKN014=
201012110850 METAR COR EGLL 110850Z 30005KT 9999 BKN018 07/04 Q1027 TEMPO
                        BKN014=
201012110820 METAR COR EGLL 110820Z 32007KT 290V360 9999 BKN014 07/04
                        Q1027 TEMPO BKN016=
201012110750 METAR EGLL 110750Z 31007KT 280V350 9999 OVC013 07/04 Q1027=
201012110720 METAR COR EGLL 110720Z 29005KT 9999 BKN015 06/03 Q1027 TEMPO
                        BKN012=
201012110650 METAR COR EGLL 110650Z 27005KT 9999 BKN016 06/03 Q1027 TEMPO
                        BKN012=
201012110620 METAR COR EGLL 110620Z 26005KT 230V290 9999 BKN016 06/03
                        Q1027 TEMPO BKN012=
201012110550 METAR COR EGLL 110550Z 26006KT 9999 BKN017 06/03 Q1027 TEMPO
                        BKN014=
201012110520 METAR COR EGLL 110520Z 28007KT 9999 BKN018 06/03 Q1027 NOSIG=
201012110450 METAR COR EGLL 110450Z 28007KT 9999 BKN018 06/03 Q1027 NOSIG=
201012110420 METAR COR EGLL 110420Z 28009KT 9999 BKN020 06/03 Q1027 NOSIG=
201012110350 METAR COR EGLL 110350Z 28008KT 9999 BKN018 06/03 Q1027 NOSIG=
201012110320 METAR COR EGLL 110320Z 29008KT 9999 BKN018 06/03 Q1027 NOSIG=
201012110250 METAR COR EGLL 110250Z 29008KT 9999 BKN019 06/03 Q1027 NOSIG=
201012110220 METAR COR EGLL 110220Z 29009KT 9999 BKN019 06/03 Q1028 NOSIG=
201012110150 METAR COR EGLL 110150Z 28008KT 9999 BKN018 06/03 Q1028 NOSIG=
201012110120 METAR COR EGLL 110120Z 27008KT 9999 BKN018 05/03 Q1028 NOSIG=
201012110050 METAR COR EGLL 110050Z 28006KT 9999 BKN016 05/03 Q1028 BECMG
                        BKN012=
201012110020 METAR COR EGLL 110020Z 28007KT 9999 BKN016 05/03 Q1028 BECMG
                        BKN012=
201012102350 METAR COR EGLL 102350Z 27009KT 9999 BKN015 05/03 Q1028 BECMG
                        BKN012=
201012102320 METAR COR EGLL 102320Z 26012KT 9999 BKN015 05/03 Q1029 BECMG
                        BKN012=
201012102250 METAR COR EGLL 102250Z 26011KT 9999 BKN013 05/03 Q1029 NOSIG=
201012102220 METAR COR EGLL 102220Z 26011KT 9999 BKN013 05/03 Q1029 NOSIG=
201012102150 METAR COR EGLL 102150Z 27012KT 9999 BKN014 06/03 Q1029 NOSIG=
201012102120 METAR COR EGLL 102120Z 27010KT 9999 OVC013 06/03 Q1029 NOSIG=
201012102050 METAR COR EGLL 102050Z 27012KT 9999 OVC014 06/03 Q1029 NOSIG=
201012102020 METAR COR EGLL 102020Z 27011KT 9999 OVC015 06/03 Q1030 BECMG
                        OVC014=
201012101950 METAR COR EGLL 101950Z 27013KT 9999 OVC016 06/03 Q1030 BECMG
                        OVC014=
201012101920 METAR COR EGLL 101920Z 26012KT 9999 OVC017 06/03 Q1030 NOSIG=
201012101850 METAR COR EGLL 101850Z 27015KT 9999 BKN018 06/03 Q1030 NOSIG=
201012101820 METAR COR EGLL 101820Z 27012KT 9999 SCT019 05/03 Q1030 NOSIG=
201012101750 METAR COR EGLL 101750Z 27012KT 9999 FEW021 05/03 Q1030 NOSIG=
201012101720 METAR COR EGLL 101720Z 27012KT 9999 FEW021 05/02 Q1030 NOSIG=
201012101650 METAR COR EGLL 101650Z 27012KT 9999 BKN023 06/03 Q1030 NOSIG=
201012101620 METAR EGLL 101620Z 28009KT 9999 BKN024 07/04 Q1031=
201012101550 METAR COR EGLL 101550Z 28010KT 9999 BKN022 07/04 Q1031 NOSIG=
201012101520 METAR COR EGLL 101520Z 28011KT 9999 BKN023 07/04 Q1031 NOSIG=
201012101450 METAR COR EGLL 101450Z 27009KT 9999 BKN022 07/04 Q1031 NOSIG=
201012101420 METAR COR EGLL 101420Z 27010KT 9999 BKN021 07/04 Q1031 NOSIG=
201012101350 METAR COR EGLL 101350Z 27008KT 9999 BKN023 07/04 Q1031 NOSIG=
201012101320 METAR COR EGLL 101320Z 26007KT 9999 BKN024 07/04 Q1032 NOSIG=
201012101250 METAR COR EGLL 101250Z 26008KT 9999 BKN025 06/04 Q1032 NOSIG=
201012101220 METAR COR EGLL 101220Z 27008KT 9999 BKN025 06/03 Q1032 NOSIG=
201012101150 METAR COR EGLL 101150Z 27009KT 9999 BKN026 06/03 Q1033 NOSIG=
201012101120 METAR COR EGLL 101120Z 26006KT 220V290 9999 BKN029 06/04
                        Q1033 NOSIG=
201012101050 METAR COR EGLL 101050Z 27006KT 9999 BKN029 05/03 Q1033 NOSIG=
201012101020 METAR COR EGLL 101020Z 28006KT 9999 BKN027 05/03 Q1033 NOSIG=
201012100950 METAR COR EGLL 100950Z 26008KT 9999 BKN027 05/03 Q1032 NOSIG=
201012100920 METAR COR EGLL 100920Z 26008KT 9999 BKN029 04/02 Q1033 NOSIG=
201012100850 METAR COR EGLL 100850Z 26006KT 9999 BKN029 04/02 Q1033 NOSIG=
201012100820 METAR COR EGLL 100820Z 25009KT 9999 BKN030 04/02 Q1033 NOSIG=
201012100750 METAR COR EGLL 100750Z 27006KT 9999 FEW021 SCT031 03/02 Q1033
                        NOSIG=
201012100720 METAR COR EGLL 100720Z 27006KT 9999 SCT021 03/02 Q1033 NOSIG=
201012100650 METAR COR EGLL 100650Z 27007KT 9999 SCT017 02/01 Q1033 NOSIG=
201012100620 METAR COR EGLL 100620Z 27006KT 9999 SCT019 BKN034 03/02 Q1033
                        NOSIG=
201012100550 METAR COR EGLL 100550Z 28005KT 9999 BKN031 03/02 Q1032 NOSIG=
201012100520 METAR COR EGLL 100520Z 27008KT 9999 BKN027 03/02 Q1032 NOSIG=
201012100450 METAR COR EGLL 100450Z 28007KT 9999 BKN027 03/02 Q1032 NOSIG=
201012100420 METAR COR EGLL 100420Z 27006KT 9999 BKN028 03/01 Q1032 NOSIG=
201012100350 METAR COR EGLL 100350Z 28006KT 9999 BKN028 02/01 Q1032 TEMPO
                        BKN014=
201012100320 METAR COR EGLL 100320Z 28007KT 9999 FEW015 SCT029 01/M00
                        Q1032 BECMG BKN014=
201012100250 METAR COR EGLL 100250Z 26007KT 9999 FEW015 01/M01 Q1032 BECMG
                        BKN014=
201012100220 METAR EGLL 100220Z AUTO 29006KT 8000NDV FEW017/// 02/00 Q1032=
201012100150 METAR EGLL 100150Z AUTO 28006KT 9999NDV NCD 02/M00 Q1032=
201012100120 METAR EGLL 100120Z AUTO 29009KT 9999NDV NCD 02/00 Q1032=
201012100050 METAR COR EGLL 100050Z 29011KT CAVOK 02/00 Q1032 NOSIG=
201012100020 METAR COR EGLL 100020Z 28008KT CAVOK 01/M00 Q1032 NOSIG=
201012092350 METAR COR EGLL 092350Z 27008KT CAVOK 01/M00 Q1032 NOSIG=
201012092320 METAR COR EGLL 092320Z 27010KT CAVOK 02/00 Q1032 NOSIG=
201012092250 METAR COR EGLL 092250Z 27012KT CAVOK 02/M00 Q1032 NOSIG=
201012092220 METAR COR EGLL 092220Z 28010KT CAVOK 02/M00 Q1032 NOSIG=
201012092150 METAR COR EGLL 092150Z 28011KT CAVOK 01/M00 Q1032 NOSIG=
201012092120 METAR COR EGLL 092120Z 28008KT CAVOK 02/M00 Q1032 NOSIG=
201012092050 METAR COR EGLL 092050Z 27010KT CAVOK 02/M00 Q1032 NOSIG=
201012092020 METAR COR EGLL 092020Z 28008KT CAVOK 02/M00 Q1032 NOSIG=
201012091950 METAR COR EGLL 091950Z 28010KT CAVOK 01/M01 Q1031 NOSIG=
201012091920 METAR COR EGLL 091920Z 27010KT CAVOK 01/M01 Q1032 NOSIG=
201012091850 METAR COR EGLL 091850Z 28010KT CAVOK 02/M01 Q1032 NOSIG=
201012091820 METAR EGLL 091820Z 27010KT CAVOK 01/M01 Q1032=
201012091750 METAR COR EGLL 091750Z 28009KT CAVOK 02/M01 Q1032 NOSIG=
201012091720 METAR COR EGLL 091720Z 28007KT CAVOK 02/M01 Q1031 NOSIG=
201012091650 METAR COR EGLL 091650Z 28009KT CAVOK 03/M01 Q1031 NOSIG=
201012091620 METAR COR EGLL 091620Z 28009KT CAVOK 02/M01 Q1031 NOSIG=
201012091550 METAR COR EGLL 091550Z 28009KT 9999 FEW020 03/M01 Q1031 NOSIG=
201012091520 METAR COR EGLL 091520Z 28011KT 9999 FEW023 03/M01 Q1031 NOSIG=
201012091450 METAR COR EGLL 091450Z 28010KT 9999 FEW023 04/M01 Q1031 NOSIG=
201012091420 METAR COR EGLL 091420Z 27007KT 9999 FEW024 04/M01 Q1031 NOSIG=
201012091350 METAR COR EGLL 091350Z 28008KT 9999 FEW042 03/M01 Q1031 NOSIG=
201012091320 METAR COR EGLL 091320Z 28008KT 9999 FEW043 03/M01 Q1031 NOSIG=
201012091250 METAR COR EGLL 091250Z 28011KT CAVOK 04/M02 Q1031 NOSIG=
201012091220 METAR COR EGLL 091220Z 28010KT CAVOK 03/M02 Q1031 NOSIG=
201012091150 METAR COR EGLL 091150Z 28009KT 9999 FEW025 02/M02 Q1031 NOSIG=
201012091120 METAR COR EGLL 091120Z 28010KT 9999 SCT045 02/M02 Q1031 NOSIG=
201012091050 METAR EGLL 091050Z 28009KT 9999 BKN047 01/M03 Q1031=
201012091020 METAR EGLL 091020Z 29011KT CAVOK 01/M03 Q1031=
201012090950 METAR COR EGLL 090950Z 28009KT 9999 FEW048 01/M03 Q1030 NOSIG=
201012090920 METAR EGLL 090920Z 28008KT 9999 FEW047 M00/M03 Q1030=
201012090850 METAR COR EGLL 090850Z 28009KT 9999 FEW047 M01/M03 Q1030
                        NOSIG=
201012090820 METAR COR EGLL 090820Z 27008KT 9999 SCT048 M01/M03 Q1030
                        NOSIG=
201012090750 METAR COR EGLL 090750Z 28007KT 9999 FEW049 M01/M04 Q1030
                        NOSIG=
201012090720 METAR COR EGLL 090720Z 28007KT CAVOK M02/M04 Q1029 NOSIG=
201012090650 METAR COR EGLL 090650Z 29007KT CAVOK M02/M04 Q1029 NOSIG=
201012090620 METAR COR EGLL 090620Z 29007KT CAVOK M02/M05 Q1028 NOSIG=
201012090550 METAR COR EGLL 090550Z 29005KT CAVOK M02/M05 Q1028 NOSIG=
201012090520 METAR COR EGLL 090520Z 29006KT CAVOK M02/M05 Q1028 NOSIG=
201012090450 METAR COR EGLL 090450Z 30005KT CAVOK M02/M05 Q1028 NOSIG=
201012090420 METAR COR EGLL 090420Z 31004KT CAVOK M02/M06 Q1027 NOSIG=
201012090350 METAR COR EGLL 090350Z 29006KT CAVOK M02/M06 Q1027 NOSIG=
201012090320 METAR COR EGLL 090320Z 31005KT CAVOK M02/M06 Q1027 NOSIG=
201012090250 METAR COR EGLL 090250Z 29006KT CAVOK M02/M06 Q1026 NOSIG=
201012090220 METAR COR EGLL 090220Z AUTO 29006KT 9999NDV NCD M02/M06 Q1026=
201012090150 METAR COR EGLL 090150Z AUTO 29005KT 9999NDV NCD M02/M06 Q1026=
201012090120 METAR COR EGLL 090120Z AUTO 29007KT 9999NDV NCD M02/M06 Q1025=
201012090050 METAR COR EGLL 090050Z 30008KT CAVOK M02/M06 Q1025 NOSIG=
201012090020 METAR COR EGLL 090020Z 29007KT CAVOK M02/M06 Q1025 NOSIG=
201012082350 METAR COR EGLL 082350Z 30006KT CAVOK M02/M06 Q1024 NOSIG=
201012082320 METAR COR EGLL 082320Z 31005KT 270V340 CAVOK M02/M05 Q1024
                        NOSIG=
201012082250 METAR COR EGLL 082250Z 31005KT CAVOK M02/M05 Q1023 NOSIG=
201012082220 METAR COR EGLL 082220Z 32007KT CAVOK M01/M05 Q1023 NOSIG=
201012082150 METAR COR EGLL 082150Z 33006KT 290V350 CAVOK M01/M05 Q1022
                        NOSIG=
201012082120 METAR COR EGLL 082120Z 32007KT 290V010 CAVOK M00/M04 Q1022
                        NOSIG=
201012082050 METAR COR EGLL 082050Z 31004KT 270V010 CAVOK M00/M04 Q1021
                        NOSIG=
201012082020 METAR COR EGLL 082020Z 33005KT 280V360 CAVOK 00/M03 Q1021
                        NOSIG=
201012081950 METAR COR EGLL 081950Z VRB03KT CAVOK 00/M03 Q1020 NOSIG=
201012081920 METAR EGLL 081920Z AUTO VRB03KT 9999NDV NCD 00/M03 Q1019=
201012081850 METAR COR EGLL 081850Z 32005KT 9999 FEW018 01/M02 Q1019 NOSIG=
201012081820 METAR COR EGLL 081820Z 35006KT 300V040 9999 BKN018 01/M02
                        Q1018 NOSIG=
201012081750 METAR COR EGLL 081750Z 35007KT 290V010 9999 BKN017 01/M02
                        Q1017 NOSIG=
201012081720 METAR COR EGLL 081720Z 34007KT 310V010 9999 SCT018 SCT026
                        02/M02 Q1017 NOSIG=
201012081650 METAR COR EGLL 081650Z 35007KT 310V020 9999 SCT017 BKN022
                        02/M01 Q1016 TEMPO BKN012=
201012081620 METAR COR EGLL 081620Z 36007KT 330V030 9999 BKN017 02/M01
                        Q1015 TEMPO BKN012=
201012081550 METAR COR EGLL 081550Z 36008KT 9999 BKN015 02/M01 Q1015 TEMPO
                        BKN012=
201012081520 METAR COR EGLL 081520Z 36007KT 9999 FEW016 02/M01 Q1014 TEMPO
                        BKN012=
201012081450 METAR COR EGLL 081450Z 36008KT 320V030 CAVOK 03/M01 Q1014
                        NOSIG=
201012081420 METAR COR EGLL 081420Z 36007KT 310V020 CAVOK 03/M01 Q1013
                        NOSIG=
201012081350 METAR COR EGLL 081350Z 36009KT 340V040 CAVOK 03/M01 Q1013
                        TEMPO BKN014=
201012081320 METAR COR EGLL 081320Z 01006KT 340V050 9999 SCT013 03/M00
                        Q1013 TEMPO BKN014=
201012081250 METAR COR EGLL 081250Z 02008KT 340V050 9999 SCT009 SCT011
                        02/M00 Q1012 NOSIG=
201012081220 METAR COR EGLL 081220Z 01009KT 340V060 9999 SCT008 BKN010
                        02/M00 Q1012 NOSIG=
201012081150 METAR COR EGLL 081150Z 36008KT 330V040 8000 SCT007 BKN009
                        01/M00 Q1012 BECMG BKN010=
201012081120 METAR COR EGLL 081120Z 01007KT 340V050 8000 SCT006 BKN008
                        01/M00 Q1012 NOSIG=
201012081050 METAR COR EGLL 081050Z 01008KT 330V050 6000 FEW005 BKN006
                        01/M00 Q1012 NOSIG=
201012081020 METAR COR EGLL 081020Z 01006KT 340V050 6000 SCT005 BKN006
                        01/M00 Q1011 NOSIG=
201012080950 METAR COR EGLL 080950Z 36007KT 6000 FEW004 SCT005 BKN006
                        01/M00 Q1011 NOSIG=
201012080920 METAR COR EGLL 080920Z 36008KT 310V040 4800 BR SCT004 BKN005
                        01/M01 Q1011 BECMG 6000 NSW=
201012080850 METAR COR EGLL 080850Z 36008KT 330V040 4800 BR BKN004 01/M01
                        Q1010 BECMG 6000 NSW BKN005=
201012080820 METAR COR EGLL 080820Z 36008KT 320V020 3800 BR BKN004 00/M01
                        Q1010 BECMG 5000 BKN005=
201012080750 METAR COR EGLL 080750Z 36008KT 6000 BKN005 00/M01 Q1010 TEMPO
                        BKN004=
201012080720 METAR COR EGLL 080720Z 01007KT 340V040 6000 SCT005 SCT006
                        00/M01 Q1009 BECMG BKN005=
201012080650 METAR COR EGLL 080650Z 01007KT 320V040 6000 FEW004 BKN005
                        00/M01 Q1009 TEMPO BKN004=
201012080620 METAR COR EGLL 080620Z 02006KT 350V050 6000 SCT004 BKN005
                        00/M01 Q1009 TEMPO BKN004=
201012080550 METAR COR EGLL 080550Z 02007KT 340V050 6000 FEW003 BKN004
                        00/M01 Q1008 NOSIG=
201012080520 METAR COR EGLL 080520Z 01005KT 330V050 6000 FEW003 BKN004
                        00/M01 Q1008 NOSIG=
201012080450 METAR COR EGLL 080450Z 02008KT 6000 FEW003 BKN004 M00/M01
                        Q1008 NOSIG=
201012080420 METAR COR EGLL 080420Z 01007KT 340V040 5000 BR FEW003 BKN004
                        M00/M01 Q1008 TEMPO 2000=
201012080350 METAR COR EGLL 080350Z 01007KT 330V040 6000 OVC004 M01/M02
                        Q1008 NOSIG=
201012080320 METAR COR EGLL 080320Z 36007KT 330V040 7000 BKN004 M01/M02
                        Q1008 TEMPO 3000 BR=
201012080250 METAR COR EGLL 080250Z 36008KT 6000 BKN004 M01/M02 Q1008
                        BECMG 3000 BR=
201012080220 METAR COR EGLL 080220Z 01007KT 5000 BR FEW004 BKN006 M01/M02
                        Q1007 TEMPO 2000=
201012080150 METAR COR EGLL 080150Z 01007KT 340V060 5000 BR FEW003 BKN005
                        M01/M02 Q1007 TEMPO 2000=
201012080120 METAR COR EGLL 080120Z 01009KT 5000 BR FEW003 BKN005 M01/M02
                        Q1007 TEMPO 2000=
201012080050 METAR COR EGLL 080050Z 02006KT 340V050 5000 BR BKN004 M01/M02
                        Q1007 TEMPO 2000=
201012080020 METAR COR EGLL 080020Z 36007KT 9000 NSC M01/M03 Q1007 BECMG
                        4000 BR BKN006=
201012072350 METAR COR EGLL 072350Z 01006KT 340V050 CAVOK M01/M03 Q1007
                        NOSIG=
201012072320 METAR COR EGLL 072320Z 01005KT 340V050 CAVOK M00/M03 Q1007
                        NOSIG=
201012072250 METAR COR EGLL 072250Z 01006KT 9999 FEW049 M00/M03 Q1007
                        NOSIG=
201012072220 METAR COR EGLL 072220Z 02005KT 340V050 9999 BKN049 M00/M03
                        Q1007 NOSIG=
201012072150 METAR COR EGLL 072150Z 02005KT 9999 SCT034 SCT047 M00/M03
                        Q1007 NOSIG=
201012072120 METAR COR EGLL 072120Z 01006KT 9999 BKN048 M00/M03 Q1007
                        NOSIG=
201012072050 METAR COR EGLL 072050Z 02005KT 340V080 9999 FEW033 SCT047
                        M01/M03 Q1007 NOSIG=
201012072020 METAR COR EGLL 072020Z 01004KT 340V050 9999 FEW046 M01/M04
                        Q1007 NOSIG=
201012071950 METAR COR EGLL 071950Z VRB03KT 9999 FEW042 M01/M04 Q1006
                        NOSIG=
201012071920 METAR COR EGLL 071920Z 03005KT CAVOK M01/M04 Q1006 NOSIG=
201012071850 METAR COR EGLL 071850Z 03005KT 360V070 9999 BKN046 M01/M04
                        Q1006 NOSIG=
201012071820 METAR COR EGLL 071820Z 03006KT 9999 FEW035 SCT047 M00/M05
                        Q1006 NOSIG=
201012071750 METAR COR EGLL 071750Z 03006KT 350V060 9999 SCT037 BKN048
                        M01/M04 Q1006 NOSIG=
201012071720 METAR COR EGLL 071720Z 03006KT 9999 FEW048 M01/M04 Q1006
                        NOSIG=
201012071650 METAR COR EGLL 071650Z 01004KT 350V070 9999 SCT047 M00/M03
                        Q1005 NOSIG=
201012071620 METAR COR EGLL 071620Z 01004KT 330V050 9999 SCT047 M00/M03
                        Q1005 NOSIG=
201012071550 METAR COR EGLL 071550Z 02005KT 340V070 9999 FEW023 BKN048
                        01/M02 Q1005 NOSIG=
201012071520 METAR COR EGLL 071520Z 02005KT 340V060 9999 SCT022 SCT030
                        BKN049 01/M02 Q1005 NOSIG=
201012071450 METAR COR EGLL 071450Z 02005KT 340V050 9999 FEW016 SCT046
                        01/M02 Q1005 NOSIG=
201012071420 METAR COR EGLL 071420Z 36005KT 9999 FEW019 SCT035 01/M02
                        Q1005 NOSIG=
201012071350 METAR COR EGLL 071350Z 05005KT 010V080 9999 FEW018 BKN040
                        01/M02 Q1005 NOSIG=
201012071320 METAR COR EGLL 071320Z 04005KT 9999 SCT026 BKN034 02/M01
                        Q1005 NOSIG=
201012071250 METAR COR EGLL 071250Z 06005KT 9999 BKN020 01/M02 Q1005 NOSIG=
201012071220 METAR COR EGLL 071220Z 06004KT 020V090 9999 BKN017 01/M02
                        Q1005 NOSIG=
201012071150 METAR COR EGLL 071150Z 06004KT 010V090 9000 SCT017 01/M02
                        Q1005 NOSIG=
201012071120 METAR COR EGLL 071120Z 01005KT 340V050 9000 SCT017 00/M02
                        Q1005 NOSIG=
201012071050 METAR COR EGLL 071050Z 36004KT 330V040 9000 BKN015 M00/M02
                        Q1006 NOSIG=
201012071020 METAR COR EGLL 071020Z 03004KT 350V050 7000 BKN014 M00/M02
                        Q1006 BECMG SCT015=
201012070950 METAR COR EGLL 070950Z 04004KT 6000 BKN014 M01/M02 Q1006
                        NOSIG=
201012070920 METAR COR EGLL 070920Z 02004KT 330V060 6000 FEW014 M01/M02
                        Q1005 NOSIG=
201012070850 METAR COR EGLL 070850Z VRB03KT 6000 SCT012 SCT022 M00/M02
                        Q1005 NOSIG=
201012070820 METAR COR EGLL 070820Z 05004KT 010V070 6000 FEW014 SCT019
                        M00/M02 Q1005 NOSIG=
201012070750 METAR COR EGLL 070750Z 35004KT 330V030 5000 BR BKN015 M00/M01
                        Q1005 NOSIG=
201012070720 METAR COR EGLL 070720Z VRB03KT 5000 BR FEW006 BKN014 M00/M01
                        Q1005 BECMG SCT014=
201012070650 METAR COR EGLL 070650Z VRB02KT 4900 BR FEW007 BKN009 M00/M01
                        Q1005 NOSIG=
201012070620 METAR COR EGLL 070620Z VRB03KT 4400 BR FEW006 BKN008 M01/M01
                        Q1005 NOSIG=
201012070550 METAR COR EGLL 070550Z VRB03KT 4500 BR FEW005 BKN007 M01/M01
                        Q1004 NOSIG=
201012070520 METAR COR EGLL 070520Z 35002KT 3200 BR SCT005 BKN008 M01/M01
                        Q1004 NOSIG=
201012070450 METAR COR EGLL 070450Z 34002KT 2700 BR FEW001 SCT003 BKN005
                        M01/M01 Q1004 TEMPO BKN004=
201012070420 METAR COR EGLL 070420Z VRB02KT 2200 BR FEW001 BKN003 M01/M02
                        Q1004 NOSIG=
201012070350 METAR COR EGLL 070350Z 00000KT 2200 BR FEW001 SCT002 BKN004
                        M01/M02 Q1004 NOSIG=
201012070320 METAR COR EGLL 070320Z VRB02KT 1700 BR FEW001 BKN002 M01/M02
                        Q1004 TEMPO 0900 FZFG=
201012070250 METAR COR EGLL 070250Z VRB02KT 1400 R27L/P1500 BR FEW001
                        BKN002 M02/M02 Q1004 NOSIG=
201012070220 METAR COR EGLL 070220Z 05004KT 010V100 1400 R27L/P1500 BR
                        FEW001 BKN003 M02/M02 Q1004 BECMG
                        FZFG=
201012070150 METAR COR EGLL 070150Z VRB03KT 0800 R27L/P1500 FZFG SCT001
                        OVC002 M02/M02 Q1004 TEMPO 0500 BKN001=
201012070120 METAR COR EGLL 070120Z 36004KT 0900 R27L/P1500 FZFG OVC001
                        M02/M02 Q1004 TEMPO 0500=
201012070050 METAR COR EGLL 070050Z VRB03KT 0900 R27L/P1500 FZFG BKN001
                        BKN002 M02/M02 Q1004 TEMPO 0500=
201012070020 METAR COR EGLL 070020Z 36003KT 0900 R27L/P1500 R27R/P1500
                        FZFG OVC002 M02/M03 Q1004 NOSIG=
201012062350 METAR COR EGLL 062350Z 35005KT 320V020 0900 R27L/1200 R27R/1400
                        FZFG OVC001 M02/M03 Q1004 TEMPO 1200
                        BR BKN002=
201012062320 METAR COR EGLL 062320Z 36004KT 3400 BR FEW003 BKN005 M02/M03
                        Q1004 TEMPO 2000 BKN003=
201012062250 METAR COR EGLL 062250Z 36004KT 4500 BR FEW003 BKN005 M02/M03
                        Q1003 NOSIG=
201012062220 METAR COR EGLL 062220Z 34004KT 310V010 5000 BR SCT004 BKN005
                        M02/M03 Q1003 TEMPO 2000 BKN004=
201012062150 METAR COR EGLL 062150Z VRB03KT 6000 SCT006 BKN008 M01/M02
                        Q1003 NOSIG=
201012062120 METAR COR EGLL 062120Z VRB03KT 6000 SCT006 BKN008 M01/M02
                        Q1003 TEMPO 3000 BR BKN004=
201012062050 METAR COR EGLL 062050Z 36004KT 320V040 6000 SCT005 BKN007
                        M01/M02 Q1003 TEMPO 3000 BR BKN004=
201012062020 METAR COR EGLL 062020Z 04003KT 5000 BR BKN007 M01/M02 Q1003
                        TEMPO 1500 BKN003=
201012061950 METAR COR EGLL 061950Z VRB03KT 5000 BR FEW003 SCT004 M01/M02
                        Q1003 BECMG 1200 BKN003=
201012061920 METAR COR EGLL 061920Z 05004KT 360V090 3800 BR FEW002 SCT003
                        M02/M02 Q1003 BECMG 1300 BKN003=
201012061850 METAR COR EGLL 061850Z 03004KT 340V080 3400 BR FEW002 SCT003
                        OVC004 M02/M02 Q1003 BECMG 1300=
201012061820 METAR COR EGLL 061820Z 01005KT 340V050 3000 BR SCT002 OVC004
                        M01/M02 Q1003 BECMG 1300=
201012061750 METAR COR EGLL 061750Z 36004KT 320V050 3900 BR BKN002 OVC004
                        M01/M02 Q1003 BECMG 1300=
201012061720 METAR COR EGLL 061720Z 36004KT 3000 BR BKN003 OVC004 M01/M02
                        Q1003 BECMG 1300=
201012061650 METAR COR EGLL 061650Z 01004KT 340V050 3000 BR BKN003 OVC004
                        M01/M02 Q1002 BECMG 1300=
201012061620 METAR COR EGLL 061620Z 35005KT 2000 HZ BKN003 OVC004 M01/M02
                        Q1002 BECMG 1300 BR=
201012061550 METAR COR EGLL 061550Z VRB03KT 2500 BR BKN003 OVC004 M01/M02
                        Q1002 BECMG 1300 BKN002=
201012061520 METAR COR EGLL 061520Z 05004KT 010V090 2500 BR BKN003 OVC004
                        M01/M02 Q1002 NOSIG=
201012061450 METAR COR EGLL 061450Z 08005KT 030V110 2500 BR BKN003 OVC004
                        M01/M02 Q1002 NOSIG=
201012061420 METAR COR EGLL 061420Z VRB03KT 2500 BR SCT003 BKN004 M01/M02
                        Q1002 NOSIG=
201012061350 METAR COR EGLL 061350Z VRB02KT 2700 HZ SCT003 BKN004 M01/M02
                        Q1002 NOSIG=
201012061320 METAR EGLL 061320Z 09005KT 050V150 2600 BR SCT003 BKN004
                        M01/M02 Q1002=
201012061250 METAR COR EGLL 061250Z VRB03KT 2600 BR SCT002 BKN003 M01/M02
                        Q1002 NOSIG=
201012061220 METAR COR EGLL 061220Z VRB03KT 2200 BR SCT002 BKN003 M02/M02
                        Q1002 NOSIG=
201012061150 METAR COR EGLL 061150Z 36004KT 310V040 1400 R27R/P1500 R27L/P1500
                        BR SCT002 BKN003 M02/M03 Q1003 BECMG
                        1600=
201012061120 METAR COR EGLL 061120Z 04004KT 010V080 1200 R27R/P1500 R27L/P1500
                        BR BKN002 BKN003 M02/M03 Q1003 BECMG
                        1500 SCT002 BKN004=
201012061050 METAR COR EGLL 061050Z 04004KT 020V080 1100 R27R/P1500 R27L/1500
                        BR BKN002 BKN003 M02/M03 Q1003 BECMG
                        1500 FEW002 BKN003=
201012061020 METAR COR EGLL 061020Z 07004KT 040V100 0900 R27R/1500 R27L/1100
                        FZFG BKN001 BKN002 M03/M03 Q1003
                        BECMG 1600 BR=
201012060950 METAR COR EGLL 060950Z VRB03KT 0600 R27R/P1500 R27L/0900
                        FZFG VV/// M03/M03 Q1003 TEMPO 0300=
201012060920 METAR COR EGLL 060920Z 35004KT 310V030 0800 R27R/1300 R27L/1400
                        FZFG VV/// M03/M03 Q1003 TEMPO 0300=
201012060850 METAR COR EGLL 060850Z 36004KT 320V040 0800 R27R/P1500 R27L/1400=
201012060820 METAR EGLL 060820Z VRB03KT 0800 R27R/P1500 R27L/0800 FZFG
                        BKN001 BKN002 M03/M03 Q1003 TEMPO
                        0300=
201012060750 METAR COR EGLL 060750Z 01004KT 340V060 0800 R27R/P1500 R27L/P1500=
201012060720 METAR EGLL 060720Z 33004KT 290V010 1900 BR SCT002 BKN003
                        M03/M03 Q1002=
201012060650 METAR COR EGLL 060650Z VRB03KT 2000 BR SCT002 BKN003 M03/M03
                        Q1002 TEMPO 0300 FZFG VV///=
201012060620 METAR COR EGLL 060620Z VRB03KT 1500 R27R/P1500 R27L/P1500
                        BR SCT002 BKN003 M03/M03 Q1003 TEMPO
                        0300 FZFG VV///=
201012060550 METAR COR EGLL 060550Z VRB03KT 1500 BR BKN002 M03/M03 Q1003
                        TEMPO 0300 FZFG VV///=
201012060520 METAR COR EGLL 060520Z VRB03KT 2000 BR SCT002 BKN003 M02/M03
                        Q1003 TEMPO 0300 FZFG VV///=
201012060450 METAR COR EGLL 060450Z 31002KT 2000 BR FEW002 BKN004 M02/M03
                        Q1003 TEMPO 0300 FZFG VV///=
201012060420 METAR COR EGLL 060420Z VRB03KT 2200 BR SCT003 BKN005 M02/M03
                        Q1003 NOSIG=
201012060350 METAR COR EGLL 060350Z 35004KT 290V010 1600 BR SCT002 BKN004
                        M02/M03 Q1003 TEMPO 0500 FZFG BKN000=
201012060320 METAR COR EGLL 060320Z VRB02KT 0800 R27R/P1500 FZFG VV///
                        M02/M02 Q1003 TEMPO 0500=
201012060250 METAR COR EGLL 060250Z VRB02KT 0500 R27R/P1500 FZFG VV///
                        M02/M02 Q1003 NOSIG=
201012060220 METAR COR EGLL 060220Z 32002KT 0400 R27R/1400 FZFG VV///
                        M02/M02 Q1003 NOSIG=
201012060150 METAR COR EGLL 060150Z VRB02KT 0300 R27R/1400 FZFG VV///
                        M02/M02 Q1003 NOSIG=
201012060120 METAR COR EGLL 060120Z 01004KT 320V060 0300 R27R/1300 FZFG
                        VV/// M02/M02 Q1003 NOSIG=
201012060050 METAR COR EGLL 060050Z VRB02KT 0200 R27R/0700 FZFG VV///
                        M02/M02 Q1004 NOSIG=
201012060020 METAR COR EGLL 060020Z 00000KT 0200 R27R/0500 FZFG VV///
                        M02/M02 Q1004 NOSIG=
201012052350 METAR COR EGLL 052350Z VRB03KT 0300 R27R/0550 FZFG VV///
                        M02/M02 Q1004 NOSIG=
201012052320 METAR COR EGLL 052320Z 01003KT 0300 R27L/0800 R27R/0650 FZFG
                        VV/// M01/M02 Q1004 NOSIG=
201012052250 METAR COR EGLL 052250Z VRB03KT 0300 R27L/1500 R27R/1000 FZFG
                        VV/// M01/M01 Q1004 NOSIG=
201012052220 METAR COR EGLL 052220Z 33004KT 300V010 0300 R27L/P1500 R27R/0750=
201012052150 METAR COR EGLL 052150Z VRB03KT 0300 R27L/P1500 R27R/0800
                        FZFG BKN001 M01/M01 Q1005 NOSIG=
201012052120 METAR COR EGLL 052120Z VRB02KT 0300 R27L/0600 R27R/1300 FZFG
                        BKN001 M01/M01 Q1005 NOSIG=
201012052050 METAR EGLL 052050Z VRB02KT 0300 R27L/1400 R27R/1000 FZFG
                        BKN001 M01/M02 Q1005=
201012052020 METAR COR EGLL 052020Z VRB03KT 0500 R27L/P1500 R27R/1300
                        FZFG BKN001 M01/M02 Q1005 TEMPO 1200
                        BR BKN002=
201012051950 METAR COR EGLL 051950Z 34003KT 6000 FEW008 M00/M01 Q1005
                        NOSIG=
201012051920 METAR COR EGLL 051920Z 31002KT 9000 FEW009 00/M01 Q1005 TEMPO
                        BKN010=
201012051850 METAR COR EGLL 051850Z 00000KT CAVOK M00/M01 Q1005 NOSIG=
201012051820 METAR COR EGLL 051820Z 32004KT 290V360 CAVOK 00/M01 Q1004
                        NOSIG=
201012051750 METAR COR EGLL 051750Z 32004KT CAVOK 01/M01 Q1004 BECMG 7000=
201012051720 METAR COR EGLL 051720Z 32004KT 9999 SCT020 01/M01 Q1004 BECMG
                        9000=
201012051650 METAR COR EGLL 051650Z 36003KT 9000 FEW018 SCT023 02/M01
                        Q1004 NOSIG=
201012051620 METAR COR EGLL 051620Z VRB02KT 9000 FEW023 03/M00 Q1004 NOSIG=
201012051550 METAR COR EGLL 051550Z 32002KT 9999 FEW029 03/M00 Q1004 NOSIG=
201012051520 METAR COR EGLL 051520Z 26004KT 210V280 9999 FEW019 04/00
                        Q1004 NOSIG=
201012051450 METAR COR EGLL 051450Z 26005KT 200V300 9999 FEW017 04/01
                        Q1004 NOSIG=
201012051420 METAR COR EGLL 051420Z 28005KT CAVOK 04/01 Q1004 NOSIG=
201012051350 METAR COR EGLL 051350Z 27005KT 240V310 9999 FEW013 04/01
                        Q1004 NOSIG=
201012051320 METAR COR EGLL 051320Z VRB03KT 9999 FEW012 04/01 Q1004 NOSIG=
201012051250 METAR COR EGLL 051250Z 29004KT 250V320 9999 FEW010 03/01
                        Q1004 NOSIG=
201012051220 METAR COR EGLL 051220Z 28006KT 250V330 9999 SCT008 03/01
                        Q1004 NOSIG=
201012051150 METAR COR EGLL 051150Z 30006KT 8000 SCT009 03/01 Q1005 NOSIG=
201012051120 METAR COR EGLL 051120Z 29007KT 9000 SCT007 BKN009 02/00 Q1005
                        BECMG SCT009=
201012051050 METAR COR EGLL 051050Z 31005KT 270V340 9000 SCT005 BKN009
                        02/00 Q1005 TEMPO SCT009=
201012051020 METAR COR EGLL 051020Z 30006KT 260V350 9000 SCT006 BKN007
                        02/00 Q1005 NOSIG=
201012050950 METAR COR EGLL 050950Z 32005KT 290V360 6000 SCT005 BKN007
                        01/00 Q1005 TEMPO 4000 BR=
201012050920 METAR COR EGLL 050920Z 32006KT 6000 OVC006 01/00 Q1005 TEMPO
                        3000 BR BKN004=
201012050850 METAR COR EGLL 050850Z 32006KT 6000 VCFG OVC005 01/M00 Q1005
                        TEMPO 3000 BR BKN004=
201012050820 METAR COR EGLL 050820Z 30006KT 5000 BR OVC005 01/M00 Q1005
                        TEMPO 3000 BKN004=
201012050750 METAR COR EGLL 050750Z VRB03KT 6000 VCFG OVC006 01/M00 Q1004
                        TEMPO 3000 BR=
201012050720 METAR COR EGLL 050720Z 31004KT 7000 BKN010 01/M00 Q1004 TEMPO
                        4000 BR BKN005=
201012050650 METAR COR EGLL 050650Z 32003KT 9000 BKN008 01/M00 Q1004 TEMPO
                        4000 BR BKN004=
201012050620 METAR COR EGLL 050620Z 32004KT 8000 FEW007 BKN008 02/00 Q1004
                        TEMPO 4000 BR=
201012050550 METAR COR EGLL 050550Z 32003KT 8000 SCT008 02/00 Q1004 BECMG
                        4500 BR BKN005=
201012050520 METAR COR EGLL 050520Z 31004KT 9999 SCT008 02/00 Q1004 BECMG
                        4500 BR BKN005=
201012050450 METAR COR EGLL 050450Z 32005KT 290V350 9000 SCT008 SCT010
                        02/01 Q1004 BECMG BKN006=
201012050420 METAR COR EGLL 050420Z 30005KT 280V340 9000 FEW008 BKN010
                        03/01 Q1004 BECMG BKN005=
201012050350 METAR COR EGLL 050350Z 31004KT 9999 SCT008 BKN010 03/01 Q1004
                        BECMG BKN006=
201012050320 METAR COR EGLL 050320Z 31006KT 9999 FEW008 BKN010 03/01 Q1004
                        TEMPO BKN008=
201012050250 METAR COR EGLL 050250Z 31006KT 9999 FEW008 BKN010 03/02 Q1004
                        TEMPO BKN007=
201012050220 METAR COR EGLL 050220Z 30006KT 8000 FEW008 BKN010 04/02 Q1004
                        TEMPO BKN007=
201012050150 METAR COR EGLL 050150Z 29007KT 6000 FEW008 SCT010 04/03 Q1004
                        TEMPO BKN008=
201012050120 METAR COR EGLL 050120Z 27006KT 6000 SCT009 BKN011 04/03 Q1004
                        TEMPO 4000 BR BKN007=
201012050050 METAR COR EGLL 050050Z 27005KT 6000 FEW008 BKN012 04/03 Q1004
                        BECMG 4000 BR BKN006=
201012050020 METAR COR EGLL 050020Z 28006KT 6000 FEW006 SCT010 04/03 Q1004
                        BECMG 2000 BR BKN004=
201012042350 METAR COR EGLL 042350Z 28007KT 4600 BR FEW004 SCT009 04/04
                        Q1004 BECMG 2000 BKN004=
201012042320 METAR COR EGLL 042320Z 26006KT 4500 BR FEW004 SCT008 04/04
                        Q1003 TEMPO 2000 BKN003=
201012042250 METAR COR EGLL 042250Z 28006KT 4700 BR FEW003 SCT008 04/04
                        Q1003 TEMPO 2500 BKN003=
201012042220 METAR COR EGLL 042220Z 27007KT 4700 BR SCT003 BKN012 04/04
                        Q1003 BECMG BKN003=
201012042150 METAR COR EGLL 042150Z 28007KT 5000 BR FEW004 BKN006 04/04
                        Q1003 BECMG 3500=
201012042120 METAR COR EGLL 042120Z 28005KT 8000 FEW006 BKN007 05/04 Q1003
                        BECMG 4000 BR=
201012042050 METAR COR EGLL 042050Z 28005KT 240V300 9000 SCT007 BKN024
                        04/04 Q1002 BECMG 4500 BR BKN006=
201012042020 METAR COR EGLL 042020Z 25007KT 8000 -RA FEW011 SCT032 05/04
                        Q1002 NOSIG=
201012041950 METAR COR EGLL 041950Z 22006KT 190V250 7000 -RA FEW007 SCT037
                        05/04 Q1002 RERA TEMPO BKN007=
201012041920 METAR COR EGLL 041920Z 22005KT 6000 RA FEW007 BKN025 05/04
                        Q1002 TEMPO BKN008=
201012041850 METAR COR EGLL 041850Z 22004KT 190V250 8000 -RA FEW005 BKN008
                        05/04 Q1002 NOSIG=
201012041820 METAR COR EGLL 041820Z VRB03KT 9000 FEW007 BKN012 05/04 Q1002
                        NOSIG=
201012041750 METAR COR EGLL 041750Z VRB03KT 9999 FEW019 05/04 Q1003 NOSIG=
201012041720 METAR COR EGLL 041720Z 25005KT 210V290 9999 FEW011 BKN039
                        04/03 Q1003 NOSIG=
201012041650 METAR EGLL 041650Z 22005KT 9999 FEW027 BKN039 05/04 Q1003=
201012041620 METAR EGLL 041620Z 20007KT 9999 FEW028 BKN038 06/04 Q1003=
201012041550 METAR EGLL 041550Z 19008KT 9999 FEW013 BKN043 06/04 Q1003=
201012041520 METAR COR EGLL 041520Z 16005KT 130V200 9999 FEW012 BKN042
                        06/04 Q1003 TEMPO BKN012=
201012041450 METAR COR EGLL 041450Z 17005KT 120V230 9999 -RA FEW012 BKN045
                        06/04 Q1003 TEMPO BKN012=
201012041420 METAR COR EGLL 041420Z 18004KT 130V240 9999 FEW026 06/04
                        Q1004 TEMPO RA BKN014=
201012041350 METAR EGLL 041350Z 21004KT 160V260 9999 SCT012 06/03 Q1004=
201012041320 METAR COR EGLL 041320Z 21005KT 160V260 CAVOK 06/03 Q1004
                        TEMPO RA BKN020=
201012041250 METAR COR EGLL 041250Z 20006KT 160V270 CAVOK 06/04 Q1004
                        TEMPO 4000 -RA BKN005=
201012041220 METAR COR EGLL 041220Z 22007KT 150V260 CAVOK 05/03 Q1005
                        TEMPO 4000 BR BKN005=
201012041150 METAR COR EGLL 041150Z 23005KT 200V260 8000 SCT004 05/04
                        Q1005 TEMPO 4000 BR BKN004=
201012041120 METAR COR EGLL 041120Z 23006KT 190V270 4000 BR SCT003 04/03
                        Q1005 TEMPO BKN004=
201012041050 METAR EGLL 041050Z 25004KT 210V310 2500 BR BKN002 03/03 Q1005
                        NOSIG=
201012041020 METAR COR EGLL 041020Z 25005KT 180V280 1500 R27L/0800 R27R/P1500
                        BR BKN001 03/03 Q1006 TEMPO 1000
                        BR=
201012040950 METAR EGLL 040950Z 26005KT 2500 BR BKN002 03/02 Q1006=
201012040920 METAR COR EGLL 040920Z 24005KT 200V290 2500 BR BKN002 03/02
                        Q1006=
201012040850 METAR COR EGLL 040850Z 23004KT 3000 BR BKN003 03/02 Q1005
                        NOSIG=
201012040820 METAR COR EGLL 040820Z 23007KT 3000 BR OVC004 03/02 Q1005
                        NOSIG=
201012040750 METAR COR EGLL 040750Z 21006KT 180V250 4000 BR BKN007 03/02
                        Q1005 NOSIG=
201012040720 METAR COR EGLL 040720Z 21005KT 170V250 9000 SCT011 03/02
                        Q1005 TEMPO 4000 BR BKN007=
201012040650 METAR COR EGLL 040650Z 21006KT 9999 SCT011 03/02 Q1005 TEMPO
                        BKN007=
201012040620 METAR COR EGLL 040620Z 22006KT 9999 BKN011 03/02 Q1005 TEMPO
                        BKN007=
201012040550 METAR COR EGLL 040550Z 27005KT 240V300 9000 FEW005 BKN017
                        02/01 Q1005 TEMPO 4000 BR BKN005=
201012040520 METAR COR EGLL 040520Z VRB02KT 9999 FEW010 BKN022 03/02 Q1004
                        TEMPO 4000 BR BKN005=
201012040450 METAR COR EGLL 040450Z 14004KT 9999 SCT011 SCT013 03/02 Q1004
                        TEMPO 4000 BR BKN005=
201012040420 METAR COR EGLL 040420Z 14008KT 9999 FEW012 BKN029 BKN034
                        03/02 Q1004 BECMG 4000 BR BKN005=
201012040350 METAR COR EGLL 040350Z 18008KT 9999 -RA SCT010 BKN031 02/01
                        Q1005 BECMG 4000 BR BKN005=
201012040320 METAR COR EGLL 040320Z 19007KT 8000 -RA BKN012 02/01 Q1005
                        TEMPO 4000 RADZ BKN007=
201012040250 METAR COR EGLL 040250Z 19011KT 9999 -RA BKN011 03/01 Q1006
                        TEMPO 4000 RADZ=
201012040220 METAR COR EGLL 040220Z 20011KT 9000 -RA BKN013 03/01 Q1006
                        TEMPO 4000 RADZ BKN007=
201012040150 METAR COR EGLL 040150Z 20012KT 9999 -RA FEW015 BKN018 03/01
                        Q1006 TEMPO BKN012=
201012040120 METAR COR EGLL 040120Z 19009KT 9999 FEW023 BKN029 03/00 Q1006
                        TEMPO BKN014=
201012040050 METAR COR EGLL 040050Z 18011KT 160V230 9999 FEW026 03/00
                        Q1007 TEMPO BKN014=
201012040020 METAR COR EGLL 040020Z 19012G22KT 170V250 9999 SCT034 03/M00
                        Q1007 NOSIG=
201012032350 METAR COR EGLL 032350Z 19013KT 9999 FEW026 03/M01 Q1007 NOSIG=
201012032320 METAR COR EGLL 032320Z 19009KT 170V230 CAVOK 02/M01 Q1008
                        NOSIG=
201012032250 METAR COR EGLL 032250Z 17007KT 140V200 CAVOK M00/M03 Q1008
                        NOSIG=
201012032220 METAR COR EGLL 032220Z 15008KT 9999 BKN047 M01/M04 Q1008
                        TEMPO -FZRA=
201012032150 METAR COR EGLL 032150Z 16007KT 120V210 9999 FEW048 M02/M04
                        Q1009 TEMPO -FZRA=
201012032120 METAR COR EGLL 032120Z 15006KT 120V190 CAVOK M03/M05 Q1009
                        NOSIG=
201012032050 METAR COR EGLL 032050Z 16004KT 140V200 8000 NSC M03/M05 Q1010
                        NOSIG=
201012032020 METAR COR EGLL 032020Z VRB03KT 8000 NSC M03/M05 Q1010 NOSIG=
201012031950 METAR COR EGLL 031950Z 14005KT 110V200 7000 NSC M03/M05 Q1010
                        NOSIG=
201012031920 METAR COR EGLL 031920Z 15005KT 110V210 7000 NSC M03/M05 Q1011
                        NOSIG=
201012031850 METAR COR EGLL 031850Z 18004KT 120V220 7000 NSC M03/M05 Q1011
                        NOSIG=
201012031820 METAR EGLL 031820Z 21004KT 170V250 7000 NSC M04/M05 Q1012=
201012031750 METAR COR EGLL 031750Z 22005KT 180V260 7000 NSC M04/M06 Q1012
                        NOSIG=
201012031720 METAR COR EGLL 031720Z 22006KT 7000 NSC M04/M06 Q1012 NOSIG=
201012031650 METAR COR EGLL 031650Z 22006KT 7000 NSC M04/M06 Q1012 NOSIG=
201012031620 METAR COR EGLL 031620Z 21005KT 180V260 6000 FEW005 SCT007
                        M04/M05 Q1012 TEMPO BKN007=
201012031550 METAR COR EGLL 031550Z 21005KT 180V260 5000 BR SCT007 M04/M05
                        Q1012 TEMPO BKN005=
201012031520 METAR COR EGLL 031520Z 26005KT 210V290 7000 FEW006 SCT007
                        M04/M05 Q1012 TEMPO BKN007=
201012031450 METAR COR EGLL 031450Z 23005KT 180V250 7000 BKN007 M03/M04
                        Q1012 NOSIG=
201012031420 METAR COR EGLL 031420Z 27006KT 7000 FEW005 BKN007 M03/M04
                        Q1012 NOSIG=
201012031350 METAR COR EGLL 031350Z 22007KT 190V270 4000 -SG BR FEW004
                        BKN006 M03/M04 Q1012 BECMG 5000=
201012031320 METAR COR EGLL 031320Z 25007KT 210V280 4000 BR FEW004 BKN005
                        M03/M04 Q1012 BECMG 5000=
201012031250 METAR COR EGLL 031250Z 27007KT 4000 -SG BR OVC005 M02/M04
                        Q1012 BECMG 5000=
201012031220 METAR COR EGLL 031220Z 27007KT 230V300 4400 -SG BR SCT004
                        BKN005 M03/M04 Q1012 BECMG 5000=
201012031150 METAR COR EGLL 031150Z 27007KT 230V290 4000 -SG BR SCT004
                        BKN005 M03/M04 Q1013 BECMG 5000=
201012031120 METAR COR EGLL 031120Z 27006KT 220V290 3000 BR SCT005 BKN006
                        M03/M04 Q1013 NOSIG=
201012031050 METAR COR EGLL 031050Z 27005KT 220V300 4000 BR SCT004 BKN005
                        M03/M04 Q1013 BECMG 5000=
201012031020 METAR COR EGLL 031020Z 29004KT 230V330 4000 BR SCT004 BKN006
                        M03/M04 Q1013 BECMG 5000=
201012030950 METAR COR EGLL 030950Z 29005KT 3000 BR OVC004 M03/M04 Q1013
                        BECMG 5000 OVC005=
201012030920 METAR COR EGLL 030920Z 31005KT 280V340 3000 BR OVC004 M03/M04
                        Q1013 BECMG 5000 OVC005=
201012030850 METAR COR EGLL 030850Z 32004KT 270V020 2000 BR OVC003 M04/M05
                        Q1013 TEMPO 1400=
201012030820 METAR EGLL 030820Z 35004KT 300V020 3000 BR FEW003 BKN005
                        M04/M04 Q1013 TEMPO BKN003=
201012030750 METAR COR EGLL 030750Z 30006KT 2800 BR SCT004 BKN005 M04/M05
                        Q1013 TEMPO BKN003=
201012030720 METAR COR EGLL 030720Z 31004KT 1800 BR FEW002 BKN003 M04/M05
                        Q1012 NOSIG=
201012030650 METAR COR EGLL 030650Z 31004KT 280V350 2000 BR FEW002 BKN003
                        M04/M05 Q1012 NOSIG=
201012030620 METAR COR EGLL 030620Z 33005KT 300V010 3000 BR BKN003 M05/M06
                        Q1012 NOSIG=
201012030550 METAR EGLL 030550Z 32005KT 8000 FEW005 M05/M06 Q1012=
201012030520 METAR EGLL 030520Z 30005KT 270V340 8000 FEW006 M05/M06 Q1012=
201012030450 METAR COR EGLL 030450Z 36003KT 8000 FEW005 M04/M05 Q1012
                        TEMPO 3000 BR BKN005=
201012030420 METAR COR EGLL 030420Z 36004KT 8000 FEW005 M04/M05 Q1012
                        TEMPO 2000 BR BKN005=
201012030350 METAR COR EGLL 030350Z 35004KT 310V020 CAVOK M03/M05 Q1012
                        TEMPO 2000 BR BKN005=
201012030320 METAR COR EGLL 030320Z 35004KT 300V030 CAVOK M03/M05 Q1012
                        TEMPO 2000 BR BKN005=
201012030250 METAR COR EGLL 030250Z 35004KT CAVOK M03/M05 Q1012 TEMPO
                        2000 BR BKN005=
201012030220 METAR COR EGLL 030220Z 36005KT CAVOK M03/M05 Q1012 NOSIG=
201012030150 METAR COR EGLL 030150Z 02004KT 340V050 CAVOK M03/M05 Q1011
                        NOSIG=
201012030120 METAR COR EGLL 030120Z 36006KT 330V050 CAVOK M02/M05 Q1011
                        NOSIG=
201012030050 METAR COR EGLL 030050Z 36006KT CAVOK M02/M05 Q1011 NOSIG=
201012030020 METAR COR EGLL 030020Z 36007KT 330V030 CAVOK M02/M05 Q1011
                        NOSIG=
201012022350 METAR COR EGLL 022350Z 36006KT CAVOK M02/M05 Q1011 NOSIG=
201012022320 METAR COR EGLL 022320Z 35004KT CAVOK M02/M05 Q1011 NOSIG=
201012022250 METAR COR EGLL 022250Z 01005KT 330V050 9999 FEW034 M02/M05
                        Q1011 NOSIG=
201012022220 METAR COR EGLL 022220Z 03004KT 330V060 9999 SCT029 M02/M05
                        Q1011 NOSIG=
201012022150 METAR COR EGLL 022150Z 02005KT 340V060 9999 SCT017 M02/M05
                        Q1011 NOSIG=
201012022120 METAR COR EGLL 022120Z 02006KT 340V060 9999 SCT018 SCT028
                        M01/M04 Q1010 NOSIG=
201012022050 METAR COR EGLL 022050Z 02006KT 330V050 9999 SCT016 SCT036
                        M01/M04 Q1010 NOSIG=
201012022020 METAR COR EGLL 022020Z 03007KT 340V060 9999 FEW018 SCT048
                        M01/M04 Q1010 NOSIG=
201012021950 METAR COR EGLL 021950Z 03006KT 350V060 9999 FEW020 M01/M05
                        Q1010 NOSIG=
201012021920 METAR COR EGLL 021920Z 03007KT 360V080 9999 FEW025 M01/M05
                        Q1009 NOSIG=
201012021850 METAR COR EGLL 021850Z 02006KT 340V060 9999 FEW030 M01/M05
                        Q1009 NOSIG=
201012021820 METAR COR EGLL 021820Z 01005KT 340V060 9999 SCT028 M01/M04
                        Q1009 NOSIG=
201012021750 METAR COR EGLL 021750Z 03008KT 350V060 9999 FEW020 SCT033
                        M01/M04 Q1009 NOSIG=
201012021720 METAR COR EGLL 021720Z 02007KT 340V060 9999 -SN SCT020 BKN040
                        M00/M03 Q1009 NOSIG=
201012021650 METAR COR EGLL 021650Z 02006KT 340V040 9999 -SN SCT019 BKN047
                        M00/M03 Q1008 TEMPO 2000 SN BKN008=
201012021620 METAR COR EGLL 021620Z 03009KT 350V060 9999 FEW018 SCT028
                        M00/M04 Q1008 NOSIG=
201012021550 METAR COR EGLL 021550Z 04009KT 9999 SCT026 M00/M04 Q1008
                        NOSIG=
201012021520 METAR COR EGLL 021520Z 03008KT 9999 BKN023 M00/M04 Q1008
                        88CLRD99 TEMPO 3000 -SN BKN010=
201012021450 METAR COR EGLL 021450Z 05007KT 360V090 9999 FEW016 BKN023
                        M00/M03 Q1008 091100// 591100// TEMPO
                        3000 -SN BKN010=
201012021420 METAR COR EGLL 021420Z 05007KT 010V070 5000 -SN BKN018 BKN024
                        M00/M04 Q1008 991100// 991100// TEMPO
                        3000 BKN010=
201012021350 METAR COR EGLL 021350Z 05009KT 9999 SCT017 BKN022 M00/M04
                        Q1008 091100// 591100// NOSIG=
201012021320 METAR COR EGLL 021320Z 05009KT 010V070 9999 BKN017 M00/M04
                        Q1008 992100// 992100// NOSIG=
201012021250 METAR COR EGLL 021250Z 05008KT 9999 SCT020 BKN034 M00/M04
                        Q1008 992100// 992100// NOSIG=
201012021220 METAR COR EGLL 021220Z 05009KT 010V080 9999 SCT017 BKN023
                        M01/M04 Q1008 992100// 993100// NOSIG=
201012021150 METAR COR EGLL 021150Z 05008KT 010V080 9999 SCT015 BKN021
                        M01/M04 Q1008 992100// 993100// TEMPO
                        3000 -SN BKN010=
201012021120 METAR COR EGLL 021120Z 05008KT 020V080 9000 FEW014 SCT018
                        BKN023 M01/M04 Q1008 992100// 993100//
                        TEMPO 3000 -SN BKN010=
201012021050 METAR COR EGLL 021050Z 05008KT 010V090 7000 SCT017 BKN044
                        M01/M04 Q1007 992100// 993100// TEMPO
                        3000 -SN BKN010=
201012021020 METAR COR EGLL 021020Z 06010KT 9999 FEW015 SCT021 BKN044
                        M01/M04 Q1007 092100// 593100// TEMPO
                        3000 -SN BKN010=
201012020950 METAR COR EGLL 020950Z 06008KT 020V080 9000 -SN FEW016 BKN023
                        M01/M03 Q1007 992100// 992100// NOSIG=
201012020920 METAR COR EGLL 020920Z 06010KT 9999 -SN FEW019 SCT023 BKN030
                        M01/M03 Q1007 992100// 992100// NOSIG=
201012020850 METAR COR EGLL 020850Z 06009KT 7000 -SN SCT010 BKN015 M01/M03
                        Q1007 092100// 592100// NOSIG=
201012020820 METAR COR EGLL 020820Z 05007KT 020V080 7000 -SN BKN010 BKN014
                        M01/M02 Q1006 092100// 592100// TEMPO
                        1200 SN BKN008=
201012020750 METAR COR EGLL 020750Z 05006KT 010V080 2300 SN BKN010 BKN018
                        M01/M02 Q1006 992100// 992100// TEMPO
                        1200 BKN008=
201012020720 METAR COR EGLL 020720Z 05008KT 010V080 4000 -SN SCT011 BKN016
                        M01/M02 Q1006 092100// 592100// NOSIG=
201012020650 METAR COR EGLL 020650Z 05008KT 010V080 6000 -SN OVC013 M01/M03
                        Q1006 092100// 592100// NOSIG=
201012020620 METAR COR EGLL 020620Z 04008KT 010V080 4500 -SN OVC013 M01/M02
                        Q1006 992100// 992100// NOSIG=
201012020550 METAR COR EGLL 020550Z 04007KT 360V070 4200 -SN OVC015 M01/M02
                        Q1005 092100// 592100// NOSIG=
201012020520 METAR COR EGLL 020520Z 05008KT 4000 -SN OVC014 M01/M03 Q1005
                        092100// 592100// NOSIG=
201012020450 METAR COR EGLL 020450Z 05010KT 360V080 9000 OVC014 M00/M03
                        Q1005 092100// 595520// TEMPO 4000
                        -SN=
201012020420 METAR COR EGLL 020420Z 06009KT 020V080 9999 OVC013 M00/M03
                        Q1005 995510// 995220// NOSIG=
201012020350 METAR COR EGLL 020350Z 06011KT 9000 OVC013 M01/M03 Q1005
                        595910// 095520// NOSIG=
201012020320 METAR COR EGLL 020320Z 05011KT 6000 BKN014 M01/M02 Q1005
                        TEMPO 4000 -SN=
201012020250 METAR COR EGLL 020250Z 05009KT 4200 -SN BKN014 BKN018 M01/M02
                        Q1005 NOSIG=
201012020220 METAR COR EGLL 020220Z 05008KT 010V080 3800 -SN BKN014 M01/M02
                        Q1005 TEMPO SN BKN008=
201012020150 METAR COR EGLL 020150Z 05009KT 4100 -SN BKN014 M01/M02 Q1005
                        TEMPO SN BKN008=
201012020120 METAR COR EGLL 020120Z 05010KT 020V080 4000 -SN BKN015 M01/M02
                        Q1005 TEMPO SN BKN008=
201012020050 METAR COR EGLL 020050Z 05009KT 4300 -SN SCT014 BKN018 M01/M02
                        Q1005 TEMPO 2500 SN BKN008=
201012020020 METAR COR EGLL 020020Z 04008KT 010V080 5000 -SN SCT015 BKN018
                        M00/M02 Q1005 TEMPO 4000 SN BKN008=
201012012350 METAR COR EGLL 012350Z 05010KT 020V090 8000 -SN BKN017 BKN028
                        M00/M03 Q1005 TEMPO 4500 SN BKN008=
201012012320 METAR COR EGLL 012320Z 05010KT 010V080 9000 -SN BKN018 BKN026
                        M00/M03 Q1006 TEMPO 4500 SN BKN008=
201012012250 METAR COR EGLL 012250Z 06012KT 020V090 8000 -SN SCT016 BKN019
                        M00/M03 Q1006 TEMPO 5000 SN=
201012012220 METAR COR EGLL 012220Z 05009KT 6000 -SN BKN017 M00/M03 Q1006
                        TEMPO 5000 SN=
201012012150 METAR COR EGLL 012150Z 04011KT 360V070 9000 -SG OVC022 00/M04
                        Q1006 NOSIG=
201012012120 METAR COR EGLL 012120Z 03011KT 9999 -SG OVC023 M00/M04 Q1006
                        TEMPO 5000 SN=
201012012050 METAR COR EGLL 012050Z 04010G20KT 360V070 9999 -SG OVC023
                        00/M05 Q1006 RESN TEMPO 5000 SN=
201012012020 METAR COR EGLL 012020Z 05010KT 9999 -SN OVC024 00/M06 Q1006
                        NOSIG=
201012011950 METAR COR EGLL 011950Z 03010KT 350V060 9999 BKN026 00/M07
                        Q1006 NOSIG=
201012011920 METAR COR EGLL 011920Z 03009KT 340V060 9999 BKN037 00/M07
                        Q1006 NOSIG=
201012011850 METAR COR EGLL 011850Z 03011KT 9999 BKN038 M00/M08 Q1006
                        NOSIG=
201012011820 METAR COR EGLL 011820Z 03010KT 340V050 9999 BKN035 M00/M08
                        Q1006 NOSIG=
201012011750 METAR COR EGLL 011750Z 03010KT 350V050 9999 FEW035 BKN040
                        M00/M08 Q1006 NOSIG=
201012011720 METAR COR EGLL 011720Z 04009KT 360V070 9999 BKN035 M00/M08
                        Q1006 NOSIG=
201012011650 METAR COR EGLL 011650Z 03010G20KT 9999 BKN034 M00/M07 Q1006
                        NOSIG=
201012011620 METAR COR EGLL 011620Z 03011KT 9999 BKN035 M00/M07 Q1006
                        NOSIG=
201012011550 METAR COR EGLL 011550Z 04011KT 360V070 9999 BKN033 M00/M07
                        Q1006 NOSIG=
201012011520 METAR COR EGLL 011520Z 04010KT 350V070 9999 OVC032 M00/M07
                        Q1006 NOSIG=
201012011450 METAR COR EGLL 011450Z 04010G20KT 360V080 9999 OVC032 M00/M07
                        Q1006 NOSIG=
201012011420 METAR COR EGLL 011420Z 03011KT 9999 BKN033 M00/M07 Q1006
                        NOSIG=
201012011350 METAR COR EGLL 011350Z 04012KT 010V070 9999 BKN032 M00/M07
                        Q1006 NOSIG=
201012011320 METAR COR EGLL 011320Z 04012G22KT 350V080 9999 FEW031 BKN035
                        M00/M07 Q1006 NOSIG=
201012011250 METAR COR EGLL 011250Z 03013KT 360V070 9999 BKN038 M00/M06
                        Q1006 NOSIG=
201012011220 METAR COR EGLL 011220Z 03011KT 9999 BKN038 M00/M07 Q1007
                        NOSIG=
201012011150 METAR COR EGLL 011150Z 03012KT 360V060 9999 BKN040 M00/M06
                        Q1007 NOSIG=
201012011120 METAR COR EGLL 011120Z 03013G25KT 360V060 9999 BKN040 M00/M06
                        Q1007 NOSIG=
201012011050 METAR COR EGLL 011050Z 03010KT 340V050 9999 BKN039 M01/M06
                        Q1007 NOSIG=
201012011020 METAR COR EGLL 011020Z 02009KT 340V060 9999 BKN039 M01/M06
                        Q1008 NOSIG=
201012010950 METAR COR EGLL 010950Z 03009KT 350V050 9999 BKN038 M01/M06
                        Q1008 NOSIG=
201012010920 METAR COR EGLL 010920Z 02009KT 340V060 9999 BKN036 M01/M06
                        Q1008 NOSIG=
201012010850 METAR COR EGLL 010850Z 02008KT 330V050 9999 BKN036 M01/M06
                        Q1008 NOSIG=
201012010820 METAR COR EGLL 010820Z 01008KT 340V050 9999 SCT034 SCT038
                        M01/M06 Q1008 NOSIG=
201012010750 METAR COR EGLL 010750Z 03010KT 360V060 9999 OVC034 M00/M06
                        Q1008 NOSIG=
201012010720 METAR COR EGLL 010720Z 04010KT 360V080 9999 BKN035 M00/M06
                        Q1008 NOSIG=
201012010650 METAR COR EGLL 010650Z 04009KT 360V070 9999 BKN034 M00/M06
                        Q1008 NOSIG=
201012010620 METAR COR EGLL 010620Z 04010KT 360V090 9999 -SN FEW028 BKN036
                        M00/M05 Q1008 NOSIG=
201012010550 METAR COR EGLL 010550Z 03011KT 9999 -SN FEW027 BKN037 M00/M05
                        Q1008 NOSIG=
201012010520 METAR COR EGLL 010520Z 05011G22KT 360V080 9999 FEW029 BKN036
                        M00/M05 Q1008 NOSIG=
201012010450 METAR COR EGLL 010450Z 04008KT 360V070 9999 FEW022 BKN037
                        M00/M04 Q1008 NOSIG=
201012010420 METAR COR EGLL 010420Z 05009KT 360V080 9999 -SN FEW027 BKN038
                        M00/M04 Q1009 NOSIG=
201012010350 METAR COR EGLL 010350Z 04009KT 360V070 9999 -SN BKN043 M00/M04
                        Q1009 NOSIG=
201012010320 METAR COR EGLL 010320Z 03011KT 360V070 9999 FEW022 BKN048
                        M00/M04 Q1009 NOSIG=
201012010250 METAR COR EGLL 010250Z 04010G21KT 360V080 9999 FEW021 M00/M04
                        Q1009 NOSIG=
201012010220 METAR COR EGLL 010220Z 05008KT 010V080 9000 FEW034 M01/M04
                        Q1010 NOSIG=
201012010150 METAR COR EGLL 010150Z 05009KT 9999 FEW034 M00/M04 Q1010
                        NOSIG=
201012010120 METAR COR EGLL 010120Z 05010KT 010V080 9999 FEW016 M01/M04
                        Q1010 NOSIG=
201012010050 METAR COR EGLL 010050Z 05011KT 020V080 9000 -SHSN BKN013
                        M00/M03 Q1010 NOSIG=
201012010020 METAR COR EGLL 010020Z 05010KT 9999 -SHSN SCT014 SCT023 M00/M03
                        Q1010 NOSIG=

# No short TAF reports from EGLL in databse.

###################################
#  large TAF from EGLL
###################################
201012312300 TAF AMD EGLL 010353Z 0104/0206 31004KT 9999 BKN020
                      TEMPO 0104/0109 6000 BKN014
                      TEMPO 0109/0118 BKN009
                      BECMG 0114/0117 02010KT 9999
                      TEMPO 0200/0206 7000=
201012312258 TAF EGLL 312258Z 0100/0206 31004KT 7000 BKN026
                      TEMPO 0100/0109 4000 BR BKN008
                      TEMPO 0109/0118 BKN008
                      BECMG 0114/0117 02010KT 9999
                      TEMPO 0200/0206 7000=
201012311700 TAF EGLL 311700Z 3118/0124 31005KT 6000 BKN025
                      PROB40 3118/3121 9999
                      PROB30 TEMPO 3118/0103 4000 BR BKN006
                      BECMG 0108/0111 BKN012
                      TEMPO 0111/0124 BKN020
                      BECMG 0121/0124 SCT025=
201012311056 TAF EGLL 311056Z 3112/0118 07007KT 7000 BKN025
                      PROB30 TEMPO 3112/3118 9999
                      PROB30 TEMPO 3118/0103 4000 BR BKN006=
201012310504 TAF EGLL 310504Z 3106/0112 07007KT 9999 SCT008 BKN018
                      PROB30 TEMPO 3106/3112 4500 BR BKN006
                      PROB40 TEMPO 3117/0112 3500 BR BKN005=
201012310236 TAF AMD EGLL 310236Z 3102/0106 09007KT 9999 SCT005 BKN015
                      TEMPO 3102/0106 7000 BKN008
                      PROB30 3118/0106 1400 BR BKN003=
201012310034 TAF AMD EGLL 310034Z 3100/0106 09007KT 9999 SCT005 BKN015
                      TEMPO 3100/0106 4000 BR BKN006
                      PROB30 3103/3110 1200 BKN002
                      PROB30 3118/0106 1400 BKN002=
201012302300 TAF AMD EGLL 310236Z 3102/0106 09007KT 9999 SCT005 BKN015
                      TEMPO 3102/0106 7000 BKN008
                      PROB30 3118/0106 1400 BR BKN003=
201012302002 TAF AMD EGLL 302002Z 3020/3124 10005KT 5000 BR SCT005 BKN020
                      TEMPO 3020/3111 1200 BR BKN003=
201012301659 TAF EGLL 301659Z 3018/3124 10005KT 4000 BR BKN008
                      PROB40 3018/3111 1500 BR BKN003
                      BECMG 3112/3115 7000 NSW BKN010=
201012301053 TAF EGLL 301053Z 3012/3118 10005KT 6000 BKN012
                      PROB30 TEMPO 3012/3018 4000 BR BKN006
                      BECMG 3018/3020 3000 BR BKN005
                      PROB30 TEMPO 3018/3112 6000 NSW BKN011
                      BECMG 3112/3115 7000 NSW BKN010=
201012300657 TAF AMD EGLL 300657Z 3007/3112 10005KT 3000 BR BKN003
                      PROB30 TEMPO 3007/3012 6000 NSW BKN006
                      BECMG 3012/3015 7000 NSW BKN012
                      BECMG 3017/3020 3000 BR BKN007
                      TEMPO 3022/3108 6000 NSW BKN011
                      PROB30 TEMPO 3108/3112 BKN004=
201012300459 TAF EGLL 300459Z 3006/3112 10005KT 2000 BR BKN003
                      PROB30 TEMPO 3007/3009 0800 FG
                      PROB30 TEMPO 3009/3012 6000 NSW BKN006
                      BECMG 3012/3015 7000 NSW BKN012
                      BECMG 3017/3020 3000 BR BKN007
                      TEMPO 3022/3108 6000 NSW BKN011
                      PROB30 TEMPO 3108/3112 BKN004=
201012300222 TAF AMD EGLL 300222Z 3000/3106 09005KT 3000 BR BKN004
                      BECMG 3003/3006 0800 FG BKN001
                      PROB30 TEMPO 3004/3008 0400
                      BECMG 3008/3011 4000 BR BKN006
                      BECMG 3011/3014 7000 NSW BKN012
                      BECMG 3017/3020 3000 BR BKN007
                      TEMPO 3102/3106 6000 NSW BKN011=
201012292300 TAF AMD EGLL 300222Z 3000/3106 09005KT 3000 BR BKN004
                      BECMG 3003/3006 0800 FG BKN001
                      PROB30 TEMPO 3004/3008 0400
                      BECMG 3008/3011 4000 BR BKN006
                      BECMG 3011/3014 7000 NSW BKN012
                      BECMG 3017/3020 3000 BR BKN007
                      TEMPO 3102/3106 6000 NSW BKN011=
201012292255 TAF EGLL 292255Z 3000/3106 09005KT 3000 BR BKN004
                      BECMG 3001/3004 0600 FG BKN001
                      PROB30 TEMPO 3003/3008 0100
                      BECMG 3008/3011 4000 BR BKN006
                      BECMG 3011/3014 7000 NSW BKN012
                      BECMG 3017/3020 3000 BR BKN007
                      TEMPO 3102/3106 6000 NSW BKN011=
201012291658 TAF EGLL 291658Z 2918/3024 09005KT 6000 BKN006
                      BECMG 2918/2920 3000 BR
                      PROB30 TEMPO 2919/2923 0600 FG BKN001
                      BECMG 2923/3002 0600 FG BKN001
                      PROB30 TEMPO 2923/3008 0100 FG
                      BECMG 3008/3011 4000 BR BKN006
                      BECMG 3011/3014 7000 NSW BKN012
                      PROB30 TEMPO 3021/3024 3000 BR BKN007=
201012291327 TAF AMD EGLL 291327Z 2913/3018 VRB05KT 6000 BKN006
                      PROB40 TEMPO 2913/2918 BKN004
                      BECMG 2914/2917 3000 BR
                      TEMPO 2918/2921 0600 FG BKN001
                      BECMG 2921/2924 0600 FG BKN001
                      PROB30 TEMPO 2921/3008 0100 FG
                      BECMG 3008/3011 4000 BR BKN006
                      PROB30 3011/3018 7000 NSW BKN012=
201012291057 TAF EGLL 291057Z 2912/3018 VRB05KT 3000 BR BKN008
                      PROB40 TEMPO 2912/2918 BKN004
                      TEMPO 2918/2921 0600 FG BKN001
                      BECMG 2921/2924 0600 FG BKN001
                      PROB30 TEMPO 2921/3008 0100 FG
                      BECMG 3008/3011 4000 BR BKN006
                      PROB30 3011/3018 7000 NSW BKN012=
201012290857 TAF AMD EGLL 290857Z 2909/3012 10002KT 3000 BR BKN006
                      TEMPO 2909/2912 0600 FG BKN001
                      PROB40 TEMPO 2912/2918 BKN003
                      TEMPO 2918/2921 0600 FG BKN001
                      BECMG 2921/2924 0600 FG BKN001
                      PROB30 TEMPO 2921/3008 0100 FG
                      BECMG 3008/3011 4000 BR BKN006=
201012290459 TAF EGLL 290459Z 2906/3012 10002KT 0300 FG VV///
                      TEMPO 2906/2912 0800 BKN001
                      BECMG 2912/2915 3000 BR BKN004
                      TEMPO 2915/2921 0800 FG BKN001
                      BECMG 2921/2924 0800 FG BKN001
                      PROB30 TEMPO 2921/3006 0300 FG VV///
                      BECMG 3008/3011 4000 BR BKN006=
201012290312 TAF AMD EGLL 290312Z 2903/3006 10002KT 0300 FG VV///
                      TEMPO 2906/2912 0800 BKN002
                      BECMG 2912/2915 3000 BR BKN004
                      TEMPO 2915/2921 0800 FG BKN002
                      PROB30 TEMPO 2921/2924 0300 FG VV///=
201012282332 TAF EGLL 282332Z 2900/3006 19005KT 3000 BR BKN004
                      PROB30 TEMPO 2900/2911 0300 FG VV///
                      PROB30 TEMPO 2911/2918 0800 FG BKN002
                      PROB30 TEMPO 2918/2924 0300 FG VV///=
201012282300 TAF AMD EGLL 290312Z 2903/3006 10002KT 0300 FG VV///
                      TEMPO 2906/2912 0800 BKN002
                      BECMG 2912/2915 3000 BR BKN004
                      TEMPO 2915/2921 0800 FG BKN002
                      PROB30 TEMPO 2921/2924 0300 FG VV///=
201012282057 TAF AMD EGLL 282057Z 2818/2924 19005KT 3000 BR BKN004
                      PROB40 TEMPO 2818/2911 0300 FG VV///
                      PROB30 TEMPO 2911/2918 0500 FG BKN001
                      TEMPO 2918/2924 0300 FG VV///=
201012281658 TAF EGLL 281658Z 2818/2924 19005KT 3000 BR BKN002
                      TEMPO 2818/2911 0300 FG VV///
                      PROB30 TEMPO 2911/2918 0500 FG BKN001
                      TEMPO 2918/2924 0300 FG VV///=
201012281107 TAF EGLL 281107Z 2812/2918 18005KT 1800 BR BKN003
                      PROB40 TEMPO 2812/2912 0500 FG VV///
                      PROB30 TEMPO 2912/2918 6000 NSW BKN006=
201012280456 TAF EGLL 280456Z 2806/2912 16007KT 6000 BKN006
                      BECMG 2806/2808 BKN003
                      PROB30 TEMPO 2806/2813 0800 BCFG BKN000
                      BECMG 2818/2821 3000 BR
                      TEMPO 2819/2912 0600 FG BKN000=
201012280358 TAF AMD EGLL 280358Z 2804/2906 15007KT 8000 SCT012 BKN030
                      BECMG 2804/2806 2500 BR BKN007
                      BECMG 2805/2808 BKN004
                      PROB40 TEMPO 2809/2906 0800 BCFG BKN000=
201012280234 TAF AMD EGLL 280234Z 2802/2906 15007KT 9999 FEW012 BKN030
                      BECMG 2802/2805 BKN008
                      BECMG 2805/2808 3000 BR BKN004
                      PROB40 TEMPO 2809/2906 0800 BCFG BKN000=
201012272300 TAF AMD EGLL 280358Z 2804/2906 15007KT 8000 SCT012 BKN030
                      BECMG 2804/2806 2500 BR BKN007
                      BECMG 2805/2808 BKN004
                      PROB40 TEMPO 2809/2906 0800 BCFG BKN000=
201012272257 TAF EGLL 272257Z 2800/2906 16007KT 8000 -RA FEW012 BKN030
                      BECMG 2800/2803 BKN008
                      PROB40 TEMPO 2800/2804 1500 RASN FZRA BKN002
                       BECMG 2804/2807 3000 BR BKN004
                      PROB40 TEMPO 2806/2906 0800 BCFG BKN000=
201012271707 TAF EGLL 271707Z 2718/2824 16010KT 9999 SCT030
                      BECMG 2723/2802 5000 -RASN BKN007
                      PROB30 TEMPO 2801/2804 1000 SN BKN001
                      BECMG 2803/2806 3000 BR -DZ BKN004
                      PROB30 TEMPO 2803/2806 -FZRA
                      PROB40 TEMPO 2807/2824 0800 BCFG BKN001=
201012271102 TAF EGLL 271102Z 2712/2818 16009KT 9999 FEW025
                      PROB30 TEMPO 2720/2723 5000 -RADZ -RASN FEW007
                       BKN014
                      BECMG 2723/2802 4000 -SN BKN007
                      PROB30 TEMPO 2801/2804 0500 +SN VV///
                      BECMG 2803/2806 BR -DZ BKN004
                      PROB40 TEMPO 2808/2818 0800 BCFG DZ BKN001=
201012270456 TAF EGLL 270456Z 2706/2812 16009KT 9999 FEW025
                      TEMPO 2719/2722 5000 -RADZ -RASN FEW007 BKN014
                       BECMG 2722/2801 4000 -SN BKN007
                      PROB40 TEMPO 2800/2805 0500 +SN VV///
                      BECMG 2805/2808 BR -DZ BKN004
                      PROB40 TEMPO 2808/2812 0800 BCFG DZ BKN001=
201012262345 TAF COR EGLL 262345Z 2700/2806 16007KT CAVOK
                      BECMG 2715/2718 FEW015 BKN045
                      TEMPO 2719/2722 5000 -RASN BKN012
                      BECMG 2722/2801 3000 -SN RASN BKN006
                      PROB40 TEMPO 2800/2804 0500 +SN VV///
                      BECMG 2804/2806 BR -DZ BKN004=
201012262303 TAF EGLL 262303Z 2700/2806 16007KT CAVOK
                      BECMG 2715/2718 FEW015 BKN045
                      TEMPO 2719/2722 5000 -RASN BKN012
                      BECMG 2722/2801 3000 -SN RASN BKN006
                      PROB40 TEMPO 2800/2804 0500 +SN VV///
                      BECMG 2804/2806 3000 BR -DZ BKN004=
201012261656 TAF EGLL 261656Z 2618/2724 17004KT CAVOK
                      PROB30 TEMPO 2618/2621 5000 HZ=
201012261057 TAF EGLL 261057Z 2612/2718 25004KT CAVOK
                      PROB30 TEMPO 2616/2709 5000 HZ=
201012260500 TAF EGLL 260500Z NIL=
201012260455 TAF EGLL 260455Z 2606/2712 25004KT CAVOK
                      PROB30 2606/2609 3000 BR
                      PROB40 2616/2709 4000 HZ
                      PROB30 TEMPO 2708/2711 BKN010=
201012252258 TAF EGLL 252258Z 2600/2706 25004KT CAVOK
                      PROB30 2600/2611 3000 BR
                      PROB40 2616/2706 4000 HZ=
201012252019 TAF AMD EGLL 252019Z 2520/2624 25004KT 7000 NSC
                      PROB40 2521/2603 9999
                      PROB30 2603/2611 3000 BR
                      PROB40 2614/2624 4000 HZ=
201012251657 TAF EGLL 251657Z 2518/2624 25004KT 6000 NSC
                      BECMG 2520/2523 3500 BR
                      PROB30 2520/2611 BKN003
                      BECMG 2611/2614 6000 NSW
                      PROB40 2614/2624 4000 HZ=
201012251424 TAF AMD EGLL 251424Z 2514/2618 29005KT 6000 BKN006
                      BECMG 2514/2516 9999 FEW012
                      BECMG 2521/2524 4000 HZ
                      PROB40 2602/2610 1200 BR BKN004
                      BECMG 2610/2613 9000 NSW
                      PROB30 2613/2618 4000 HZ=
201012251059 TAF EGLL 251059Z 2512/2618 29005KT 6000 FEW007 BKN010
                      PROB40 2512/2514 3500 BR BKN004
                      BECMG 2513/2516 FEW012
                      BECMG 2521/2524 4000 HZ
                      PROB40 2602/2610 1200 BR BKN004
                      BECMG 2610/2613 9000 NSW
                      PROB30 2613/2618 4000 HZ=
201012250505 TAF EGLL 250505Z 2506/2612 31005KT 7000 BKN007
                      TEMPO 2506/2515 9999 SCT012
                      PROB30 TEMPO 2508/2513 3500 BR OVC004
                      BECMG 2515/2518 9999 FEW015
                      BECMG 2600/2604 7000
                      PROB30 2604/2611 0300 FZFG VV///=
201012242302 TAF EGLL 242302Z 2500/2606 32005KT 9999 SCT009 BKN016
                      TEMPO 2500/2518 7000 BKN007
                      PROB30 TEMPO 2506/2518 3500 BR BKN004
                      BECMG 2518/2521 7000 NSC
                      PROB30 2521/2606 0300 FZFG VV///=
201012241658 TAF EGLL 241658Z 2418/2524 28006KT 9999 BKN010
                      TEMPO 2418/2510 6000 BKN007
                      PROB30 2502/2510 2500 BR BKN003
                      TEMPO 2510/2518 6000 NSC
                      BECMG 2518/2521 3000 BR BKN004
                      PROB30 2521/2524 0200 FZFG VV///=
201012241057 TAF EGLL 241057Z 2412/2518 36010KT 9999 FEW014
                      PROB30 TEMPO 2412/2418 BKN012
                      PROB40 2418/2502 6000 BKN008
                      PROB30 2502/2510 2500 BR BKN003
                      BECMG 2504/2507 VRB04KT
                      PROB30 2510/2518 6000 BKN008=
201012240757 TAF AMD EGLL 240757Z 2408/2512 36010KT 8000 FEW040
                      PROB30 TEMPO 2408/2418 BKN012
                      BECMG 2409/2412 9999
                      PROB40 2418/2502 7000 BKN009
                      PROB30 TEMPO 2502/2510 3000 BR BKN003
                      BECMG 2506/2509 24007KT=
201012240456 TAF EGLL 240456Z 2406/2512 01011KT 9999 FEW040
                      PROB30 TEMPO 2409/2418 BKN012
                      PROB40 2418/2509 7000 BKN009
                      PROB30 TEMPO 2502/2509 3000 BR
                      BECMG 2506/2509 29006KT=
201012232257 TAF EGLL 232257Z 2400/2506 01011KT 9999 SCT040
                      PROB40 TEMPO 2406/2418 7000 BKN012
                      BECMG 2418/2421 31006KT 7000 BKN012
                      PROB40 2421/2503 3000 BR BKN007=
201012231703 TAF EGLL 231703Z 2318/2424 02012KT 9999 FEW020 SCT040
                      PROB30 TEMPO 2318/2322 02016G26KT 6000 -SHSN
                       BKN013
                      TEMPO 2407/2417 7000 BKN012
                      BECMG 2417/2421 32006KT 5000 HZ BKN007=
201012231104 TAF EGLL 231104Z 2312/2418 02013KT 9999 SCT030
                      TEMPO 2312/2324 02017G27KT
                      PROB40 TEMPO 2312/2321 6000 -SHSN BKN013
                       TEMPO 2407/2418 6000 BKN012
                      PROB30 2408/2411 BKN008=
201012230502 TAF EGLL 230502Z 2306/2412 02013KT 9999 SCT030
                      TEMPO 2306/2409 02017G27KT
                      PROB30 TEMPO 2312/2321 5000 -SHSN BKN012
                       PROB30 2409/2412 6000 BKN007=
201012222303 TAF EGLL 222303Z 2300/2406 02013KT 9999 SCT030
                      TEMPO 2300/2406 02017G27KT
                      PROB30 TEMPO 2312/2324 5000 -SHSN BKN012=
201012221703 TAF EGLL 221703Z 2218/2324 02013KT 9999 FEW012 BKN025
                      TEMPO 2218/2221 8000 BKN008
                      TEMPO 2309/2324 02017G28KT 5000 -SN BKN010=
201012221538 TAF AMD EGLL 221538Z 2215/2318 02010KT 6000 SCT007 BKN014
                      TEMPO 2215/2218 4500 BR BKN006
                      BECMG 2218/2221 9999 SCT020
                      PROB30 TEMPO 2309/2318 5000 -SN BKN010=
201012221056 TAF EGLL 221056Z 2212/2318 02010KT 4500 BR BKN004
                      BECMG 2212/2215 7000 NSW SCT007 BKN014
                      BECMG 2215/2218 9999 SCT020
                      PROB30 TEMPO 2308/2318 5000 -SN BKN010=
201012220457 TAF EGLL 220457Z 2206/2312 34005KT 3500 BR BKN005
                      PROB40 TEMPO 2206/2211 BKN003
                      BECMG 2211/2214 7000 NSW
                      PROB40 TEMPO 2211/2219 BKN010
                      BECMG 2220/2223 02015KT 9999 FEW030=
201012212304 TAF EGLL 212304Z 2200/2306 35005KT 5000 BR BKN005
                      BECMG 2200/2203 3000 BR
                      PROB40 TEMPO 2200/2211 1200 -SN BR BKN003
                       BECMG 2211/2214 7000 NSW BKN006
                      PROB40 TEMPO 2211/2219 BKN010
                      BECMG 2220/2223 03015KT 9999 FEW030=
201012211704 TAF EGLL 211704Z 2118/2224 04005KT 5000 BR SCT012 BKN030
                      PROB30 TEMPO 2118/2124 3000 -SN BKN008
                      TEMPO 2200/2211 1400 -SN BKN003
                      BECMG 2211/2214 7000 NSW
                      PROB40 2211/2219 BKN007
                      BECMG 2218/2221 9999 FEW030=
201012211057 TAF EGLL 211057Z 2112/2218 02005KT 4000 BR BKN008
                      TEMPO 2112/2121 7000 NSW BKN015
                      TEMPO 2121/2212 -SN BKN004
                      PROB30 TEMPO 2203/2210 1000 SN BKN001=
201012210502 TAF EGLL 210502Z 2106/2212 04007KT 5000 BR SCT004 BKN015
                      TEMPO 2106/2121 3000 BKN004
                      PROB40 2112/2118 9999 NSW
                      BECMG 2121/2124 -SN BKN008
                      TEMPO 2200/2212 BKN003
                      PROB40 TEMPO 2206/2212 1000 SN BKN001=
201012210357 TAF AMD EGLL 210357Z 2103/2206 04007KT 6000 SCT005 BKN020
                      TEMPO 2103/2112 4000 BR BKN004
                      TEMPO 2112/2119 9999 BKN009
                      BECMG 2121/2124 4000 -SN BR BKN008
                      TEMPO 2200/2206 BKN004
                      PROB40 TEMPO 2203/2206 1000 SN BKN002=
201012202317 TAF EGLL 202317Z 2100/2206 04007KT 6000 SCT008 BKN025
                      TEMPO 2100/2121 BKN008
                      PROB40 2100/2109 4000 BR -SN
                      TEMPO 2112/2119 9999
                      BECMG 2121/2124 4000 -SN BR BKN008
                      TEMPO 2200/2206 BKN004
                      PROB40 TEMPO 2203/2206 1000 SN BKN002=
201012202300 TAF AMD EGLL 210357Z 2103/2206 04007KT 6000 SCT005 BKN020
                      TEMPO 2103/2112 4000 BR BKN004
                      TEMPO 2112/2119 9999 BKN009
                      BECMG 2121/2124 4000 -SN BR BKN008
                      TEMPO 2200/2206 BKN004
                      PROB40 TEMPO 2203/2206 1000 SN BKN002=
201012201700 TAF EGLL 201700Z 2018/2124 07010KT 9000 SCT020
                      TEMPO 2018/2105 4000 -SN BKN010
                      PROB40 TEMPO 2018/2101 1200 SN BKN003
                      BECMG 2020/2023 3500 BR BKN003
                      PROB40 TEMPO 2111/2118 8000 NSW BKN010=
201012201324 TAF AMD EGLL 201324Z 2013/2118 07010KT 9000 SCT020
                      TEMPO 2013/2105 4000 -SN BKN010
                      PROB40 TEMPO 2015/2101 1200 SN BKN003
                      BECMG 2020/2023 4000 BR BKN003
                      PROB40 TEMPO 2111/2118 8000 NSW BKN010=
201012201101 TAF EGLL 201101Z 2012/2118 07008KT 8000 SCT022
                      BECMG 2012/2014 9999
                      TEMPO 2013/2104 5000 -SN BKN014
                      PROB30 TEMPO 2015/2024 1200 SN BKN003
                      BECMG 2103/2106 03012KT BKN007
                      PROB40 TEMPO 2106/2118 4000 BR BKN003=
201012200458 TAF EGLL 200458Z 2006/2112 VRB03KT 5000 BR NSC
                      PROB30 2006/2010 0400 FZFG VV///
                      BECMG 2010/2013 09010KT 9999 NSW FEW018 BKN040
                       TEMPO 2015/2104 5000 -SN BKN014
                      PROB30 TEMPO 2017/2024 1200 SN BKN003
                      BECMG 2103/2106 03012KT BKN007=
201012192304 TAF EGLL 192304Z 2000/2106 VRB04KT CAVOK
                      BECMG 2000/2003 6000
                      PROB30 2002/2010 0400 FZFG VV///
                      BECMG 2010/2013 09010KT 9999 FEW022 BKN040
                       BECMG 2016/2019 5000 -SN
                      PROB40 TEMPO 2017/2102 1200 SN BKN002
                      BECMG 2102/2105 03008KT NSW BKN006=
201012191708 TAF EGLL 191708Z 1918/2024 02007KT 9999 FEW015 SCT030
                      PROB30 2002/2010 0200 FZFG VV///
                      BECMG 2010/2013 09010KT
                      BECMG 2015/2018 5000 -SN BKN009
                      TEMPO 2018/2023 1000 SN BKN002=
201012191108 TAF EGLL 191108Z 1912/2018 04008KT 9999 FEW015 SCT030
                      PROB30 2002/2010 0200 FZFG VV///
                      BECMG 2010/2012 09010KT
                      PROB40 TEMPO 2016/2018 1000 SN BKN002=
201012190458 TAF EGLL 190458Z 1906/2012 VRB03KT 9999 FEW018
                      PROB30 1906/1910 0700 FZFG BKN001
                      BECMG 1910/1913 03010KT
                      BECMG 1918/1921 VRB03KT
                      PROB30 1921/2010 0200 FZFG VV///
                      BECMG 2010/2012 09010KT=
201012190150 TAF AMD EGLL 190150Z 1901/2006 02006KT 9999 FEW025
                      PROB30 1903/1910 0800 FZFG BKN001
                      BECMG 1920/1923 5000 BR
                      PROB30 1922/2006 0600 FZFG BKN000=
201012182300 TAF AMD EGLL 190150Z 1901/2006 02006KT 9999 FEW025
                      PROB30 1903/1910 0800 FZFG BKN001
                      BECMG 1920/1923 5000 BR
                      PROB30 1922/2006 0600=
201012182259 TAF EGLL 182259Z 1900/2006 30010KT 6000 SCT007 BKN012
                      BECMG 1900/1903 03005KT NSC
                      PROB30 1901/1910 0800 FZFG BKN001
                      BECMG 1910/1913 9999
                      BECMG 1920/1923 5000 BR
                      PROB30 1922/2006 0600 FZFG BKN000=
201012181858 TAF AMD EGLL 181858Z 1818/1924 25010KT 9999 BKN020
                      PROB30 TEMPO 1818/1824 5000 -SHSN BKN006
                       BECMG 1819/1822 01010KT
                      PROB40 1900/1910 3000 BR BKN003
                      BECMG 1920/1923 3000 BR=
201012181701 TAF EGLL 181701Z 1818/1924 25010KT 9999 BKN020
                      PROB40 TEMPO 1818/1824 1000 SHSN BKN003
                      BECMG 1819/1822 01010KT
                      PROB40 1900/1910 3000 BR BKN003
                      BECMG 1920/1923 3000 BR=
201012181624 TAF AMD EGLL 181624Z 1816/1918 22010KT 9999 SCT004 BKN020
                      TEMPO 1818/1824 0800 SHSN BKN003
                      BECMG 1818/1821 33010KT
                      PROB40 1900/1910 2000 BR BKN002=
201012181357 TAF AMD EGLL 181357Z 1813/1918 22010KT 9999 SCT004 BKN008
                      PROB40 TEMPO 1813/1815 0800 SN BKN004
                      TEMPO 1816/1824 0800 SHSN BKN003
                      BECMG 1818/1821 33010KT
                      PROB40 1900/1910 2000 BR BKN002
                      BECMG 1910/1913 9999 SCT020=
201012181307 TAF AMD EGLL 181307Z 1813/1918 10010KT 6000 SCT004 BKN008
                      PROB40 TEMPO 1813/1815 0800 SN BKN004
                      BECMG 1814/1817 20010KT
                      TEMPO 1816/1824 0800 SHSN BKN003
                      BECMG 1818/1821 33010KT
                      PROB40 1900/1910 2000 BR BKN002
                      BECMG 1910/1913 9999 SCT020=
201012181110 TAF EGLL 181110Z 1812/1918 10010KT 1200 SN BKN003
                      TEMPO 1812/1816 0200 +SN VV///
                      BECMG 1815/1818 20010KT 6000 NSW BKN005
                      TEMPO 1816/1824 1200 SHSN BKN003
                      BECMG 1818/1821 33010KT
                      PROB40 1900/1910 2000 BR BKN002
                      BECMG 1910/1913 9999 SCT020=
201012180504 TAF EGLL 180504Z 1806/1912 11010KT 9999 SCT030
                      PROB30 TEMPO 1807/1809 4000 -SHSN BKN009
                       BECMG 1809/1812 1500 SN BKN005
                      TEMPO 1811/1816 0300 +SN VV///
                      BECMG 1816/1819 VRB05KT 6000 NSW SCT007 BKN020
                       TEMPO 1819/1824 1300 SN BKN004
                      TEMPO 1900/1909 3000 BR BKN004=
201012180043 TAF AMD EGLL 180043Z 1800/1906 17007KT 9999 SCT030
                      TEMPO 1800/1806 6000
                      PROB30 TEMPO 1806/1810 5000 -SN BKN010
                      BECMG 1810/1813 11010KT 2000 SN BKN006
                      TEMPO 1813/1817 0300 +SN VV///
                      BECMG 1817/1820 VRB05KT 5000 -SN
                      TEMPO 1820/1824 1300 SN BKN004
                      TEMPO 1900/1906 3000 BR BKN004=
201012172306 TAF EGLL 172306Z 1800/1906 17007KT 9999 SCT030
                      PROB30 TEMPO 1806/1810 5000 -SN BKN010
                      BECMG 1810/1813 11010KT 2000 SN BKN006
                      TEMPO 1813/1817 0300 +SN VV///
                      BECMG 1817/1820 VRB05KT 5000 -SN
                      TEMPO 1820/1824 1300 SN BKN004
                      TEMPO 1900/1906 3000 BR BKN004=
201012172300 TAF AMD EGLL 180043Z 1800/1906 17007KT 9999 SCT030
                      TEMPO 1800/1806 6000
                      PROB30 TEMPO 1806/1810 5000 -SN BKN010
                      BECMG 1810/1813 11010KT 2000 SN BKN006
                      TEMPO 1813/1817 0300 +SN VV///
                      BECMG 1817/1820 VRB05KT 5000 -SN
                      TEMPO 1820/1824 1300 SN BKN004
                      TEMPO 1900/1906 3000 BR BKN004=
201012171659 TAF EGLL 171659Z 1718/1824 29010KT 9999 FEW040
                      BECMG 1718/1721 VRB05KT
                      PROB30 1721/1806 6000
                      TEMPO 1806/1810 4000 -SHSN BKN008
                      BECMG 1810/1813 06012KT 4000 -SN BKN008
                      TEMPO 1811/1819 1200 SN BKN004
                      PROB30 TEMPO 1812/1818 0300 +SN VV///
                      PROB30 1819/1824 VRB04KT BKN003=
201012171403 TAF AMD EGLL 171403Z 1714/1818 29010KT 9999 FEW025
                      BECMG 1722/1801 17007KT
                      PROB40 TEMPO 1803/1810 2000 -SHSN BKN006
                       BECMG 1810/1813 08014KT 5000 -SN BKN008
                       TEMPO 1813/1818 1200 SN BKN003
                      PROB30 TEMPO 1813/1818 0300 +SN VV///=
201012171326 TAF AMD EGLL 171326Z 1713/1818 29010KT 9999 FEW025
                      PROB30 TEMPO 1713/1715 1000 SHSN BKN008 SCT015CB
                       BECMG 1722/1801 17007KT
                      PROB40 TEMPO 1803/1810 2000 -SHSN BKN006
                       BECMG 1810/1813 08014KT 5000 -SN BKN008
                       TEMPO 1813/1818 1200 SN BKN003
                      PROB30 TEMPO 1813/1818 0300 +SN VV///=
201012171102 TAF EGLL 171102Z 1712/1818 29010KT 9999 FEW025
                      PROB30 TEMPO 1712/1714 2000 -SHSN BKN008
                       SCT015CB
                      BECMG 1722/1801 17007KT
                      PROB40 TEMPO 1803/1810 2000 -SHSN BKN006
                       BECMG 1810/1813 08014KT 5000 -SN BKN008
                       TEMPO 1813/1818 1200 SN BKN003
                      PROB30 TEMPO 1813/1818 0300 +SN VV///=
201012170500 TAF EGLL 170500Z 1706/1812 29010KT 9999 FEW030
                      TEMPO 1709/1713 5000 -SN BKN014
                      PROB30 TEMPO 1709/1713 2500 SN BKN008
                      BECMG 1720/1724 20005KT
                      TEMPO 1800/1812 6000 -SN BKN013
                      PROB30 1810/1812 3000 SN BKN010=
201012162253 TAF EGLL 162253Z 1700/1806 31012KT 9999 FEW030
                      TEMPO 1708/1713 5000 -SN BKN013
                      PROB30 TEMPO 1709/1712 2000 SN BKN008
                      BECMG 1717/1721 24008KT
                      PROB30 TEMPO 1722/1806 5000 -SN BKN013=
201012161702 TAF EGLL 161702Z 1618/1724 36012KT 9999 -RA BKN012
                      TEMPO 1618/1620 35015G25KT 4000 RASN BKN008
                       PROB30
                      TEMPO 1618/1620 1200 SN BKN004
                      BECMG 1619/1621 NSW FEW025
                      BECMG 1623/1702 30007KT=
201012161527 TAF AMD EGLL 161527Z 1615/1718 28014KT 9999 -RA BKN018
                      BECMG 1615/1616 35012KT BKN014
                      TEMPO 1616/1619 35016G27KT 3000 RASN BKN008
                       PROB30
                      TEMPO 1617/1619 1200 SN BKN004
                      BECMG 1618/1620 NSW FEW025=
201012161059 TAF EGLL 161059Z 1612/1718 28014KT 9999 -RA BKN018
                      BECMG 1612/1614 BKN014
                      TEMPO 1612/1614 28017G27KT 4000 RA BKN008
                       BECMG 1614/1615 35012KT
                      TEMPO 1614/1619 35016G27KT 3000 RASN BKN008
                       PROB30
                      TEMPO 1615/1619 1200 SN BKN005
                      BECMG 1618/1620 NSW FEW025=
201012161031 TAF AMD EGLL 161031Z 1610/1712 28014KT 9999 BKN018
                      TEMPO 1610/1613 28017G27KT 4000 RA BKN008
                       BECMG 1613/1615 35017G27KT
                      TEMPO 1613/1618 3000 RASN BKN008
                      PROB40 TEMPO 1614/1618 1200 SN BKN005
                      BECMG 1617/1619 36014KT 9999 NSW FEW025=
201012160506 TAF EGLL 160506Z 1606/1712 28014KT 9999 SCT018
                      BECMG 1606/1609 7000 -RA BKN012
                      TEMPO 1608/1613 28017G27KT 4000 RA BKN008
                       BECMG 1612/1615 35017G27KT
                      TEMPO 1613/1618 3000 RASN BKN008
                      PROB40 TEMPO 1614/1618 1200 SN BKN005
                      BECMG 1617/1619 36014KT 9999 NSW FEW025=
201012160203 TAF AMD EGLL 160203Z 1602/1706 28014KT 9999 SCT018
                      TEMPO 1602/1606 8000 BKN009
                      BECMG 1606/1609 7000 -RA BKN012
                      TEMPO 1608/1613 28017G27KT 4000 RA BKN008
                       BECMG 1612/1615 35015KT
                      TEMPO 1613/1618 3000 RASN BKN008
                      PROB40 TEMPO 1614/1618 1200 SN
                      BECMG 1617/1619 9999 NSW FEW025=
201012152300 TAF AMD EGLL 160203Z 1602/1706 28014KT 9999 SCT018
                      TEMPO 1602/1606 8000 BKN009
                      BECMG 1606/1609 7000 -RA BKN012
                      TEMPO 1608/1613 28017G27KT 4000 RA BKN008
                       BECMG 1612/1615 35015KT
                      TEMPO 1613/1618 3000 RASN BKN008
                      PROB40 TEMPO 1614/1618 1200 SN
                      BECMG 1617/1619 9999 NSW FEW025=
201012152255 TAF EGLL 152255Z 1600/1706 28014KT 9999 SCT018
                      TEMPO 1600/1606 BKN009
                      BECMG 1606/1609 7000 -RA BKN012
                      TEMPO 1608/1613 28017G27KT 4000 RA BKN008
                       BECMG 1612/1615 35015KT
                      TEMPO 1613/1618 3000 RASN BKN008
                      PROB40 TEMPO 1614/1618 1200 SN
                      BECMG 1617/1619 9999 NSW FEW025=
201012151824 TAF AMD EGLL 151824Z 1518/1624 34007KT 9999 SCT018
                      PROB30 TEMPO 1518/1520 4000 -RADZ BKN008
                       BECMG 1600/1603 28014KT
                      TEMPO 1600/1606 BKN008
                      BECMG 1606/1609 7000 -RA BKN012
                      TEMPO 1608/1613 28017G27KT 4000 RA BKN008
                       BECMG 1612/1615 35015KT
                      TEMPO 1613/1616 3000 RASN BKN008
                      BECMG 1616/1618 9999 NSW FEW025=
201012151818 TAF AMD EGLL 151818Z 1518/1624 34007KT 9999 BKN012
                      PROB30 TEMPO 1518/1520 4000 -RADZ BKN008
                       BECMG 1520/1523 SCT018
                      BECMG 1600/1603 28014KT
                      TEMPO 1600/1606 BKN008
                      BECMG 1606/1609 7000 -RA BKN012
                      TEMPO 1608/1613 28017G27KT 4000 RA BKN008
                       BECMG 1612/1615 35015KT
                      TEMPO 1613/1616 3000 RASN BKN008
                      BECMG 1616/1618 9999 NSW FEW025=
201012151702 TAF EGLL 151702Z 1518/1624 34007KT 8000 BKN012
                      TEMPO 1518/1520 4000 -RADZ BKN008
                      BECMG 1520/1523 9999 SCT018
                      BECMG 1600/1603 28014KT
                      TEMPO 1600/1606 BKN008
                      BECMG 1606/1609 7000 -RA BKN012
                      TEMPO 1608/1613 28017G27KT 4000 RA BKN008
                       BECMG 1612/1615 35015KT
                      TEMPO 1613/1616 3000 RASN BKN008
                      BECMG 1616/1618 9999 NSW FEW025=
201012151356 TAF AMD EGLL 151356Z 1513/1618 28005KT 8000 BKN007
                      TEMPO 1513/1516 4000 BR
                      TEMPO 1516/1520 -RA BKN012
                      BECMG 1520/1523 9999 NSW SCT018
                      BECMG 1600/1603 28015KT
                      TEMPO 1600/1606 BKN008
                      BECMG 1606/1609 7000 -RA BKN012
                      TEMPO 1608/1613 28017G27KT 4000 RA BKN008
                       BECMG 1613/1615 35015KT
                      TEMPO 1613/1616 3000 RASN BKN008
                      BECMG 1616/1618 9999 NSW FEW025=
201012151315 TAF AMD EGLL 151315Z 1513/1618 28005KT 8000 BKN007
                      PROB30 TEMPO 1513/1516 BKN004
                      TEMPO 1515/1520 -RA BKN012
                      BECMG 1520/1523 9999 NSW SCT018
                      BECMG 1600/1603 28015KT
                      TEMPO 1600/1606 BKN008
                      BECMG 1606/1609 7000 -RA BKN012
                      TEMPO 1608/1613 28017G27KT 4000 RA BKN008
                       BECMG 1613/1615 35015KT
                      TEMPO 1613/1616 3000 RASN BKN008
                      BECMG 1616/1618 9999 NSW FEW025=
201012151109 TAF EGLL 151109Z 1512/1618 28005KT 3000 BR BKN006
                      TEMPO 1512/1516 BKN004
                      TEMPO 1515/1520 6000 -RA BKN012
                      BECMG 1520/1523 9999 NSW SCT018
                      BECMG 1600/1603 28015KT
                      TEMPO 1600/1606 BKN008
                      BECMG 1606/1609 7000 -RA BKN012
                      TEMPO 1608/1613 28017G27KT 4000 RA BKN008
                       BECMG 1613/1615 35015KT
                      TEMPO 1613/1616 3000 RASN BKN008
                      BECMG 1616/1618 9999 NSW FEW025=
201012150859 TAF AMD EGLL 150859Z 1509/1612 34007KT 1000 BR SCT025
                      TEMPO 1509/1512 BKN003
                      BECMG 1509/1512 7000 NSW BKN012
                      TEMPO 1512/1521 9999 BKN016
                      BECMG 1521/1524 BKN030
                      BECMG 1600/1603 28014KT BKN008
                      TEMPO 1608/1612 28017G27KT 6000 RA BKN015=
201012150457 TAF EGLL 150457Z 1506/1612 34007KT 9999 SCT025 BKN040
                      PROB30 TEMPO 1506/1512 4000 BR BKN004
                      BECMG 1508/1511 7000 BKN012
                      TEMPO 1512/1521 9999 NSW BKN016
                      BECMG 1521/1524 BKN030
                      BECMG 1600/1603 28014KT BKN008
                      TEMPO 1608/1612 28017G27KT 6000 RA BKN015=
201012150414 TAF AMD EGLL 150414Z 1504/1606 33007KT 9999 SCT025 BKN040
                      PROB30 TEMPO 1506/1512 4000 BR BKN004
                      BECMG 1508/1511 BKN010
                      TEMPO 1512/1519 9999 NSW BKN016
                      BECMG 1518/1521 9999 NSW BKN030
                      BECMG 1600/1603 28015KT=
201012142312 TAF EGLL 142312Z 1500/1606 33007KT 9999 SCT025
                      BECMG 1501/1504 8000
                      PROB40 TEMPO 1505/1512 4000 BR BKN004
                      BECMG 1508/1511 BKN010
                      TEMPO 1512/1519 9999 NSW BKN016
                      BECMG 1518/1521 9999 NSW BKN030
                      BECMG 1600/1603 28015KT=
201012142300 TAF AMD EGLL 150414Z 1504/1606 33007KT 9999 SCT025 BKN040
                      PROB30 TEMPO 1506/1512 4000 BR BKN004
                      BECMG 1508/1511 BKN010
                      TEMPO 1512/1519 9999 NSW BKN016
                      BECMG 1518/1521 9999 NSW BKN030
                      BECMG 1600/1603 28015KT=
201012142200 TAF AMD EGLL 142200Z 1422/1524 35005KT 9999 SCT025
                      BECMG 1500/1503 8000
                      PROB40 TEMPO 1505/1512 4000 BR BKN004
                      BECMG 1508/1511 BKN010
                      TEMPO 1512/1519 9999 NSW BKN016
                      BECMG 1518/1521 29010KT 9999 NSW BKN030=
201012141700 TAF EGLL 141700Z 1418/1524 35005KT 9999 SCT025
                      BECMG 1419/1422 8000
                      BECMG 1422/1501 4000 BR
                      BECMG 1503/1506 BKN004
                      TEMPO 1505/1509 1400 BKN001
                      BECMG 1509/1512 BKN008
                      TEMPO 1512/1519 9999 NSW BKN016
                      BECMG 1518/1521 29010KT 9999 NSW BKN030=
201012141055 TAF EGLL 141055Z 1412/1518 03007KT 9999 FEW012 SCT035
                      BECMG 1418/1421 7000
                      BECMG 1421/1424 4000 BR
                      PROB40 1500/1504 BKN005
                      TEMPO 1503/1510 1200 DZ
                      BECMG 1504/1507 BKN004
                      BECMG 1509/1512 BKN008
                      TEMPO 1512/1518 8000 BKN016=
201012141028 TAF AMD EGLL 141028Z 1410/1512 03006KT 9999 FEW012 SCT020
                      TEMPO 1410/1412 8000
                      BECMG 1418/1421 3000 BR
                      BECMG 1506/1509 BKN006
                      TEMPO 1506/1512 1200 DZ BKN003=
201012140503 TAF EGLL 140503Z 1406/1512 03006KT 9999 FEW012 SCT020
                      TEMPO 1406/1410 3000 BR -DZ BKN008
                      BECMG 1418/1421 3000 BR
                      BECMG 1506/1509 BKN006
                      TEMPO 1506/1512 1200 DZ BKN003=
201012132300 TAF EGLL 132300Z 1400/1506 33010KT 9999 FEW020 SCT030
                      BECMG 1400/1403 03006KT
                      PROB40 1400/1410 3000 BR -DZ BKN008
                      BECMG 1418/1421 3000 HZ
                      PROB30 1500/1503 1200 BR=
201012132254 TAF AMD EGLL 132254Z 1322/1424 34007KT 9999 SCT030
                      TEMPO 1322/1410 BKN007
                      PROB40 1322/1407 3000 RADZ BR BKN004
                      PROB40 1418/1424 4000 BR=
201012132131 TAF AMD EGLL 132131Z 1321/1424 34007KT 8000 SCT030
                      TEMPO 1321/1410 BKN007
                      PROB40 1322/1407 3000 RADZ BR BKN004
                      BECMG 1410/1413 9999
                      PROB40 1418/1424 4000 BR=
201012131701 TAF EGLL 131701Z 1318/1424 34007KT 8000 SCT030
                      BECMG 1318/1321 BKN007
                      PROB40 1320/1407 3000 RADZ BR BKN004
                      BECMG 1410/1413 9999 SCT020
                      PROB40 1418/1424 4000 BR=
201012131059 TAF EGLL 131059Z 1312/1418 34005KT 6000 SCT012
                      PROB30 TEMPO 1312/1314 4000 BR BKN006
                      TEMPO 1313/1317 9999
                      BECMG 1317/1320 7000 BKN007
                      PROB40 1318/1406 3000 RADZ BR BKN004
                      BECMG 1410/1413 9999 SCT020=
201012130854 TAF AMD EGLL 130854Z 1308/1412 02005KT 0600 FG BKN000
                      BECMG 1309/1312 6000 NSW SCT012
                      TEMPO 1313/1317 9999
                      BECMG 1317/1320 8000 BKN007
                      PROB40 1318/1406 3000 RADZ BR BKN006
                      TEMPO 1406/1412 9999 SCT015=
201012130500 TAF EGLL 130500Z 1306/1412 02005KT 3000 BR SCT030
                      TEMPO 1306/1309 0500 FZFG BKN000
                      BECMG 1310/1313 6000 NSW
                      TEMPO 1313/1317 9999
                      BECMG 1317/1320 8000 BKN007
                      PROB40 1318/1406 3000 RADZ BR BKN006
                      TEMPO 1406/1412 9999 SCT015=
201012130456 TAF AMD EGLL 130456Z 1305/1406 02005KT 3000 BR SCT030
                      TEMPO 1305/1309 0500 FZFG BKN000
                      BECMG 1309/1312 9999 NSW
                      BECMG 1317/1320 8000 BKN007
                      PROB40 1318/1406 3000 BR BKN006=
201012122300 TAF AMD EGLL 130456Z 1305/1406 02005KT 3000 BR SCT030
                      TEMPO 1305/1309 0500 FZFG BKN000
                      BECMG 1309/1312 9999 NSW
                      BECMG 1317/1320 8000 BKN007
                      PROB40 1318/1406 3000 BR BKN006=
201012122258 TAF EGLL 122258Z 1300/1406 02005KT 8000 SCT030
                      TEMPO 1300/1312 BKN007
                      PROB40 1300/1311 2000 BR BKN003
                      TEMPO 1311/1320 9999
                      BECMG 1317/1320 BKN007
                      PROB40 1318/1406 3000 BR BKN006=
201012121658 TAF EGLL 121658Z 1218/1324 35005KT 9999 SCT030
                      BECMG 1218/1221 8000
                      BECMG 1220/1223 BKN007
                      PROB40 1221/1311 2000 BR BKN003
                      TEMPO 1311/1320 9999 SCT015
                      PROB40 1318/1324 3000 BR BKN006=
201012121058 TAF EGLL 121058Z 1212/1318 35005KT 9999 FEW030
                      BECMG 1216/1219 8000
                      BECMG 1219/1222 BKN007
                      PROB40 TEMPO 1221/1311 3000 BR BKN003
                      TEMPO 1311/1318 9999 SCT015=
201012120752 TAF AMD EGLL 120752Z 1207/1312 36006KT 9999 FEW030
                      PROB30 TEMPO 1207/1210 7000
                      PROB40 TEMPO 1210/1214 BKN008
                      BECMG 1218/1221 8000 BKN007
                      PROB40 TEMPO 1221/1311 3000 BR BKN003=
201012120459 TAF EGLL 120459Z 1206/1312 36006KT 7000 FEW008
                      PROB30 TEMPO 1206/1211 4000 BR BKN003
                      BECMG 1210/1213 9999
                      TEMPO 1211/1214 BKN008
                      BECMG 1218/1221 8000 BKN007
                      PROB40 TEMPO 1221/1311 3000 BR BKN003=
201012112305 TAF EGLL 112305Z 1200/1306 35006KT 9999 SCT020
                      BECMG 1200/1203 6000
                      PROB30 TEMPO 1203/1211 4000 BR BKN003
                      BECMG 1210/1213 9999
                      TEMPO 1211/1214 BKN008
                      BECMG 1218/1221 7000 BKN007
                      TEMPO 1221/1306 3000 BR BKN003=
201012111656 TAF EGLL 111656Z 1118/1224 28008KT 9999 BKN020
                      PROB30 TEMPO 1118/1121 7000
                      BECMG 1121/1124 6000 BKN012
                      PROB30 TEMPO 1122/1203 BKN008
                      BECMG 1203/1206 9999 SCT015
                      PROB40 1203/1210 4000 BR
                      BECMG 1218/1221 7000 BKN007=
201012111055 TAF EGLL 111055Z 1112/1218 28008KT 9999 BKN020
                      PROB30 TEMPO 1112/1114 BKN012
                      PROB30 TEMPO 1118/1121 7000
                      BECMG 1121/1124 6000 BKN012
                      PROB30 TEMPO 1122/1203 BKN008
                      BECMG 1203/1206 SCT015
                      PROB40 1203/1210 4000 BR=
201012110503 TAF EGLL 110503Z 1106/1212 28008KT 9999 BKN020
                      TEMPO 1106/1114 BKN012
                      TEMPO 1122/1212 6000 BKN008=
201012110033 TAF AMD EGLL 110033Z 1100/1206 28008KT 9999 BKN016
                      BECMG 1101/1104 BKN012
                      PROB30 1104/1110 4000 BR BKN004
                      BECMG 1110/1113 BKN012
                      BECMG 1113/1116 SCT020
                      TEMPO 1120/1206 6000 BKN004
                      PROB40 TEMPO 1203/1206 3000 BR=
201012102303 TAF EGLL 102303Z 1100/1206 28008KT 9999 BKN014
                      BECMG 1100/1103 BKN008
                      PROB30 1102/1110 4000 BR BKN004
                      BECMG 1110/1113 BKN012
                      BECMG 1113/1116 SCT020
                      TEMPO 1120/1206 6000 BKN004
                      PROB40 TEMPO 1203/1206 3000 BR=
201012102300 TAF AMD EGLL 110033Z 1100/1206 28008KT 9999 BKN016
                      BECMG 1101/1104 BKN012
                      PROB30 1104/1110 4000 BR BKN004
                      BECMG 1110/1113 BKN012
                      BECMG 1113/1116 SCT020
                      TEMPO 1120/1206 6000 BKN004
                      PROB40 TEMPO 1203/1206 3000 BR=
201012102218 TAF AMD EGLL 102218Z 1022/1124 28007KT 9999 BKN014
                      BECMG 1100/1103 BKN008
                      PROB30 1102/1110 4000 BR BKN004
                      BECMG 1110/1113 BKN012
                      BECMG 1115/1118 9999 BKN016
                      PROB40 1118/1124 7000 BKN010=
201012101702 TAF EGLL 101702Z 1018/1124 28007KT 9999 BKN025
                      PROB30 TEMPO 1018/1020 8000
                      BECMG 1020/1023 9000 BKN008
                      PROB30 1100/1110 4000 BR BKN004
                      BECMG 1110/1113 BKN012
                      BECMG 1115/1118 9999 BKN016
                      PROB40 1118/1124 7000 BKN010=
201012101059 TAF EGLL 101059Z 1012/1118 28010KT 9999 BKN025
                      PROB30 TEMPO 1017/1020 8000
                      BECMG 1020/1023 9000 BKN008
                      PROB30 1100/1110 4000 BR BKN004
                      BECMG 1110/1113 BKN012
                      BECMG 1115/1118 9999 BKN016=
201012100501 TAF EGLL 100501Z 1006/1112 28010KT 9999 BKN025
                      PROB30 1006/1011 7000 BKN010
                      PROB40 1020/1111 9000 BKN008=
201012092303 TAF EGLL 092303Z 1000/1106 28010KT 9999 FEW035
                      PROB30 1000/1003 9000
                      BECMG 1003/1006 5000 BR
                      PROB40 1003/1011 BKN008
                      BECMG 1009/1012 9999
                      PROB40 1020/1106 9000 BKN008=
201012091704 TAF EGLL 091704Z 0918/1024 28010KT 9999 FEW035
                      BECMG 0921/0924 8000
                      PROB40 TEMPO 0922/1012 4000 BR BKN009
                      PROB40 1012/1018 9999
                      PROB40 1020/1024 BKN008=
201012091104 TAF EGLL 091104Z 0912/1018 28010KT 9999 FEW035
                      BECMG 0921/0924 8000
                      PROB40 1003/1010 2500 BR BKN004
                      PROB30 TEMPO 1010/1012 BKN008
                      PROB40 1010/1018 9999=
201012090458 TAF EGLL 090458Z 0906/1012 30010KT 9999 FEW035
                      BECMG 0921/0924 8000
                      PROB40 1003/1010 2500 BR
                      PROB30 TEMPO 1006/1012 BKN012=
201012082258 TAF EGLL 082258Z 0900/1006 33010KT 9999 FEW030
                      BECMG 0917/0920 27007KT
                      PROB40 1000/1006 5000 BR=
201012081702 TAF EGLL 081702Z 0818/0924 33010KT 9999 SCT020
                      TEMPO 0818/0820 BKN010
                      BECMG 0914/0917 27007KT=
201012081106 TAF EGLL 081106Z 0812/0918 36010KT 7000 BKN006
                      BECMG 0812/0815 9999 SCT025
                      TEMPO 0812/0821 36015G25KT
                      TEMPO 0815/0819 BKN010
                      BECMG 0914/0917 28007KT=
201012080500 TAF EGLL 080500Z 0806/0912 01007KT 6000 BKN005
                      PROB40 TEMPO 0806/0810 3000 BR BKN004
                      BECMG 0810/0813 9999 BKN014
                      TEMPO 0810/0821 36015G25KT
                      BECMG 0813/0816 SCT025=
201012072305 TAF EGLL 072305Z 0800/0906 01007KT 9999 SCT035
                      BECMG 0800/0803 6000 BKN006
                      PROB40 TEMPO 0800/0809 3000 BR BKN003
                      BECMG 0810/0813 9999 SCT030
                      TEMPO 0810/0821 36015G25KT=
201012072019 TAF COR EGLL 072019Z 0720/0824 02008KT 9999 SCT030
                      PROB40 TEMPO 0720/0721 6000 BKN012
                      BECMG 0721/0724 6000 BKN006
                      PROB30 TEMPO 0722/0809 3000 BR BKN003
                      BECMG 0809/0812 9999 SCT030
                      TEMPO 0810/0821 36015G25KT=
201012071657 TAF EGLL 071657Z 0718/0824 02008KT 9999 SCT030
                      PROB40 TEMPO 0718/0721 6000 BKN012
                      BECMG 0721/0724 BKN006
                      PROB30 TEMPO 0722/0809 3000 BR BKN003
                      BECMG 0809/0812 9999 SCT030
                      TEMPO 0810/0821 36015G25KT=
201012071056 TAF EGLL 071056Z 0712/0818 03007KT 9999 SCT014
                      PROB40 TEMPO 0712/0718 8000 BKN012
                      TEMPO 0718/0809 3000 BR BKN006
                      BECMG 0809/0812 9999 SCT016=
201012070727 TAF AMD EGLL 070727Z 0707/0812 VRB04KT 5000 BR SCT003 BKN016
                      PROB30 TEMPO 0707/0711 0500 FZFG BKN001
                      PROB40 TEMPO 0711/0718 NSW
                      TEMPO 0718/0808 2000 BKN006
                      BECMG 0803/0806 01010KT
                      BECMG 0809/0812 9999 NSW=
201012070708 TAF AMD EGLL 070708Z 0707/0812 VRB04KT 5000 BR SCT003 BKN009
                      PROB30 TEMPO 0707/0711 0500 FZFG BKN001
                      PROB40 TEMPO 0711/0718 NSW SCT009
                      TEMPO 0718/0808 2000
                      BECMG 0803/0806 01010KT
                      BECMG 0809/0812 9999 NSW SCT014=
201012070500 TAF EGLL 070500Z 0706/0812 VRB04KT 3000 BR SCT003 BKN005
                      PROB40 TEMPO 0706/0711 0500 FZFG BKN001
                      PROB40 TEMPO 0711/0718 6000 NSW SCT009
                      BECMG 0803/0806 01010KT
                      BECMG 0809/0812 9999 NSW SCT014=
201012070303 TAF AMD EGLL 070303Z 0703/0806 01004KT 2000 BR BKN003
                      TEMPO 0703/0711 0200 FZFG VV///
                      BECMG 0709/0712 BKN005
                      PROB40 0711/0718 6000 NSW SCT009=
201012070114 TAF AMD EGLL 070114Z 0701/0806 01004KT 0900 FZFG BKN002
                      TEMPO 0701/0711 0200 VV///
                      BECMG 0709/0712 3000 BR BKN005
                      PROB40 0711/0718 6000 NSW SCT009=
201012062307 TAF EGLL 062307Z 0700/0806 01004KT 5000 BR SCT004 BKN005
                      PROB40 0700/0711 0200 FZFG VV///
                      PROB40 0711/0718 NSW SCT009
                      PROB40 TEMPO 0718/0806 2000=
201012062300 TAF AMD EGLL 070303Z 0703/0806 01004KT 2000 BR BKN003
                      TEMPO 0703/0711 0200 FZFG VV///
                      BECMG 0709/0712 BKN005
                      PROB40 0711/0718 6000 NSW SCT009=
201012062011 TAF AMD EGLL 062011Z 0620/0724 VRB04KT 5000 BR SCT003
                      BECMG 0621/0623 0200 FZFG VV///
                      PROB30 0623/0707 1200 BR BKN002
                      BECMG 0707/0710 04010KT 5000 BR BKN003
                      PROB40 0711/0718 NSW SCT009
                      BECMG 0717/0720 2000=
201012061927 TAF AMD EGLL 061927Z 0619/0724 VRB04KT 3000 BR SCT003
                      BECMG 0620/0623 0200 FZFG VV///
                      PROB30 0623/0707 1200 BR BKN002
                      BECMG 0707/0710 04010KT 5000 BR BKN003
                      PROB40 0711/0718 NSW SCT009
                      BECMG 0717/0720 2000=
201012061705 TAF EGLL 061705Z 0618/0724 VRB04KT 3000 BR BKN003
                      BECMG 0618/0620 0200 FZFG VV///
                      PROB30 0620/0707 1200 BR BKN002
                      BECMG 0707/0710 04010KT 5000 BR BKN003
                      PROB40 0711/0718 NSW SCT009
                      BECMG 0717/0720 2000=
201012061333 TAF AMD EGLL 061333Z 0613/0718 VRB04KT 2600 BR BKN004
                      BECMG 0616/0619 0200 FZFG VV///
                      PROB30 0620/0706 1200 BR BKN002
                      BECMG 0707/0710 04010KT 5000 BKN003
                      PROB40 0711/0718 NSW SCT009=
201012061103 TAF EGLL 061103Z 0612/0718 02004KT 1500 BR BKN004
                      BECMG 0612/0614 5000 BR BKN008
                      PROB30 TEMPO 0614/0619 9999 NSW SCT010
                      BECMG 0619/0621 4000 BKN004
                      PROB30 0620/0710 1200 BKN002
                      PROB40 0710/0718 7000 NSW SCT009=
201012060500 TAF EGLL 060500Z 0606/0712 32003KT 2000 BR BKN004
                      PROB40 0606/0611 0300 FZFG VV///
                      BECMG 0611/0614 6000 NSW BKN008
                      PROB30 TEMPO 0611/0618 SCT010
                      BECMG 0618/0620 4000 BR BKN007
                      PROB30 0620/0710 1200 BKN002=
201012060354 TAF AMD EGLL 060354Z 0603/0706 33004KT 0300 FZFG VV///
                      TEMPO 0603/0611 2000 BR BKN005
                      BECMG 0611/0614 6000 NSW SCT008
                      BECMG 0618/0620 4000 BR BKN007
                      PROB30 0620/0706 1200 BKN002=
201012052300 TAF AMD EGLL 060354Z 0603/0706 33004KT 0300 FZFG VV///
                      TEMPO 0603/0611 2000 BR BKN005
                      BECMG 0611/0614 6000 NSW SCT008
                      BECMG 0618/0620 4000 BR BKN007
                      PROB30 0620/0706 1200 BKN002=
201012052257 TAF EGLL 052257Z 0600/0706 33004KT 0300 FZFG VV///
                      PROB30 0600/0611 1200 BR BKN002
                      BECMG 0611/0614 6000 NSW SCT008
                      BECMG 0618/0620 4000 BR BKN007
                      PROB30 0620/0706 1200 BKN002=
201012052200 TAF AMD EGLL 052200Z 0522/0624 33004KT 0300 FZFG VV///
                      PROB30 0522/0610 1200 BR BKN002
                      BECMG 0610/0613 9000 NSW SCT008
                      BECMG 0613/0615 9999
                      BECMG 0618/0620 7000
                      PROB40 0620/0623 4000 BR BKN008=
201012052155 TAF AMD EGLL 052155Z 0522/0624 33004KT 0300 FZFG
                      PROB30 0522/0610 1200 BR BKN002
                      BECMG 0610/0613 9000 NSW SCT008
                      BECMG 0613/0615 9999
                      BECMG 0618/0620 7000
                      PROB40 0620/0623 4000 BR BKN008=
201012051702 TAF EGLL 051702Z 0518/0624 33004KT 9000 FEW025
                      PROB30 0518/0520 9999
                      BECMG 0520/0523 4000 BR BKN010
                      BECMG 0523/0602 BKN005
                      PROB30 0600/0610 0200 FZFG VV///
                      BECMG 0610/0613 9000 NSW SCT008
                      BECMG 0613/0615 9999
                      BECMG 0618/0620 7000
                      PROB40 0620/0623 4000 BR BKN008=
201012051630 TAF AMD EGLL 051630Z 0516/0618 30004KT 9000 SCT008
                      PROB30 0517/0520 9999
                      BECMG 0520/0523 4000 BR BKN010
                      BECMG 0523/0602 BKN005
                      PROB30 0523/0610 0200 FZFG VV///
                      BECMG 0610/0613 9000 NSW SCT008
                      BECMG 0613/0615 9999=
201012051104 TAF EGLL 051104Z 0512/0618 30004KT 9999 SCT008
                      PROB30 0512/0515 5000 BR BKN007
                      BECMG 0518/0521 4000 BR BKN010
                      BECMG 0523/0602 BKN005
                      PROB30 0523/0610 0200 FZFG VV///
                      BECMG 0610/0613 9000 NSW SCT008
                      BECMG 0613/0615 9999=
201012050457 TAF EGLL 050457Z 0506/0612 VRB04KT 6000 BKN006
                      PROB30 0506/0511 0200 FZFG VV///
                      BECMG 0511/0514 31010KT FEW008
                      TEMPO 0514/0520 9999
                      BECMG 0520/0523 VRB03KT 4000 BR
                      PROB30 0523/0611 0200 FZFG VV///=
201012050159 TAF AMD EGLL 050159Z 0502/0606 VRB04KT 8000 SCT007 BKN020
                      TEMPO 0502/0505 4000 BR -DZ BKN007
                      BECMG 0505/0507 3000 BR BKN005
                      PROB30 0505/0511 0200 FZFG VV///
                      BECMG 0511/0514 31010KT 9000 NSW FEW008
                      TEMPO 0514/0520 9999
                      BECMG 0520/0523 VRB03KT 4000 BR
                      PROB30 0523/0606 0200 FZFG VV///=
201012042300 TAF AMD EGLL 050159Z 0502/0606 VRB04KT 8000 SCT007 BKN020
                      TEMPO 0502/0505 4000 BR -DZ BKN007
                      BECMG 0505/0507 3000 BR BKN005
                      PROB30 0505/0511 0200 FZFG VV///
                      BECMG 0511/0514 31010KT 9000 NSW FEW008
                      TEMPO 0514/0520 9999
                      BECMG 0520/0523 VRB03KT 4000 BR
                      PROB30 0523/0606 0200 FZFG VV///=
201012042258 TAF EGLL 042258Z 0500/0606 VRB04KT 5000 BR SCT003 SCT015
                      BECMG 0500/0503 2500 BKN003
                      PROB40 0501/0506 0500 FG BKN000
                      PROB30 0506/0511 0200 FZFG VV///
                      BECMG 0511/0514 31010KT 9000 NSW FEW008
                      TEMPO 0514/0520 9999
                      BECMG 0520/0523 VRB03KT 4000 BR
                      PROB30 0523/0606 0200 FZFG VV///=
201012041905 TAF AMD EGLL 041905Z 0419/0524 VRB04KT 9999 SCT012
                      TEMPO 0419/0421 6000 -RA BKN008
                      BECMG 0421/0424 6000 BKN008
                      PROB30 0423/0509 0800 DZ FG BKN001
                      BECMG 0509/0512 31010KT 9999 NSW SCT007
                      TEMPO 0518/0524 6000=
201012041802 TAF EGLL 041802Z 0418/0524 VRB04KT 9999 SCT012
                      TEMPO 0418/0421 6000 -RA BKN012
                      BECMG 0421/0424 6000 BKN008
                      PROB30 0423/0509 0800 DZ FG BKN001
                      BECMG 0509/0512 31010KT 9999 NSW SCT007
                      TEMPO 0518/0524 6000=
201012041700 TAF EGLL 041700Z NIL=
201012041303 TAF AMD EGLL 041303Z 0413/0518 VRB04KT 9999 SCT012
                      TEMPO 0413/0417 6000 -RA BKN012
                      PROB30 0423/0509 0800 DZ FG BKN001
                      BECMG 0509/0512 31010KT 9999 NSW SCT007=
201012041101 TAF EGLL 041101Z 0412/0518 VRB04KT 3000 BR BKN005
                      TEMPO 0412/0414 0800 FG BKN001
                      TEMPO 0412/0417 8000 -RA SCT008 BKN014
                      PROB30 0423/0509 0800 DZ FG BKN001
                      BECMG 0509/0512 31010KT 9999 NSW SCT007=
201012041031 TAF AMD EGLL 041031Z 0410/0512 VRB04KT 3000 BR BKN005
                      TEMPO 0410/0414 0800 FG BKN001
                      TEMPO 0414/0417 8000 -RA SCT008 BKN014
                      PROB30 0423/0507 0800 DZ FG BKN001
                      BECMG 0507/0510 31010KT 9999 NSW SCT007=
201012040505 TAF EGLL 040505Z 0406/0512 VRB04KT 9999 SCT008 SCT030
                      PROB30 0406/0412 4000 BR BKN004
                      BECMG 0412/0415 8000 -RA SCT008 BKN014
                      BECMG 0417/0420 4000 BR BKN006
                      PROB30 0423/0507 0800 DZ FG BKN001
                      BECMG 0507/0510 31010KT 9999 NSW SCT007=
201012032301 TAF EGLL 032301Z 0400/0506 18008KT 9999 FEW012 BKN040
                      BECMG 0400/0402 8000 -RA
                      TEMPO 0400/0404 3000 RADZ BKN007
                      PROB30 TEMPO 0400/0404 FZRA
                      BECMG 0404/0407 2500 BR BKN005
                      PROB40 0406/0412 0800 BCFG BKN000
                      BECMG 0412/0415 6000 -RA SCT007 BKN030
                      BECMG 0415/0418 3000 BKN004
                      BECMG 0419/0422 0400 FG BKN000
                      PROB30 0421/0506 FZFG=
201012032157 TAF AMD EGLL 032157Z 0321/0424 VRB04KT CAVOKT
                      BECMG 0322/0401 8000 -RA SCT012 BKN040
                      PROB30 TEMPO 0322/0404 3000 FZRA BKN008
                      BECMG 0404/0407 2000 BR BKN003
                      PROB40 0406/0410 0500 FG BKN000
                      BECMG 0410/0413 6000 NSW SCT010
                      BECMG 0416/0419 3000 BR -RADZ BKN006
                      PROB40 0420/0424 1000 RADZ BKN001=
201012031712 TAF EGLL 031712Z 0318/0424 20006KT 7000 SCT007
                      PROB30 TEMPO 0318/0320 BKN005
                      BECMG 0401/0404 -RA SCT004 BKN007
                      TEMPO 0403/0405 RA
                      BECMG 0404/0407 2000 BR BKN003
                      PROB40 0406/0410 0500 FG BKN000
                      BECMG 0410/0413 6000 NSW SCT010
                      BECMG 0416/0419 3000 BR -RADZ BKN006
                      PROB40 0420/0424 1000 RADZ BKN001=
201012031700 TAF EGLL 031700Z NIL=
201012031531 TAF AMD EGLL 031531Z 0315/0418 24006KT 7000 SCT007
                      TEMPO 0315/0320 BKN005
                      PROB40 0318/0402 9999
                      BECMG 0401/0404 -RA SCT004 BKN007
                      TEMPO 0403/0405 RA
                      BECMG 0404/0407 2000 BR BKN003
                      PROB40 0406/0410 0500 FG BKN000
                      BECMG 0410/0413 6000 NSW SCT010
                      PROB40 0416/0418 3000 BR -RADZ BKN007=
201012031102 TAF EGLL 031102Z 0312/0418 24006KT 5000 BR SCT003 BKN005
                      PROB40 TEMPO 0312/0315 4000 BKN003
                      BECMG 0319/0322 9999 NSW
                      BECMG 0401/0404 5000 BR -RA SCT005 BKN010
                       TEMPO 0403/0405 RA
                      BECMG 0404/0407 3000 BKN003
                      PROB40 0406/0411 0500 FG BKN000
                      BECMG 0410/0413 6000 NSW SCT010
                      PROB40 0416/0418 3000 BR -RADZ BKN007=
201012030507 TAF EGLL 030507Z 0306/0412 35006KT 7000 SCT005
                      TEMPO 0306/0318 3500 BR BKN005
                      PROB30 0306/0311 0600 FZFG VV///
                      BECMG 0308/0311 28010KT
                      PROB30 0313/0319 9999
                      BECMG 0319/0322 19012KT 9999
                      BECMG 0322/0401 7000 -RA -RASN SCT005 BKN010
                       TEMPO 0402/0407 2000 RA RASN BKN005
                      PROB40 0406/0412 0400 FG VV///=
201012022259 TAF EGLL 022259Z 0300/0406 02010KT 9999 SCT025
                      PROB30 TEMPO 0300/0304 7000 BKN014
                      BECMG 0304/0307 31005KT 4000 BR OVC005
                      PROB30 0306/0311 0400 FZFG VV///
                      PROB40 0313/0319 9999 NSW SCT005
                      BECMG 0319/0322 19012KT 9999 NSW
                      BECMG 0322/0401 7000 -RA -RASN SCT005 BKN010
                       PROB40
                      TEMPO 0402/0406 2000 RA RASN BKN005=
201012021700 TAF EGLL 021700Z 0218/0324 02010KT 9999 SCT025
                      TEMPO 0218/0222 5000 -SN BKN012
                      BECMG 0304/0307 29005KT 4000 BR OVC004
                      PROB30 0307/0312 0500 FZFG OVC000
                      BECMG 0312/0315 6000 NSW FEW004
                      TEMPO 0315/0318 BKN004
                      BECMG 0319/0322 19012KT 9999=
201012021100 TAF EGLL 021100Z 0212/0318 05010KT 9999 SCT010 BKN020
                      TEMPO 0212/0220 5000 -SN BKN010
                      PROB30 TEMPO 0212/0216 1200 SN BKN006
                      BECMG 0303/0306 34005KT 4000 BR OVC004
                      PROB30 0306/0312 0500 FZFG BKN001
                      BECMG 0312/0315 6000 NSW SCT004
                      TEMPO 0315/0318 BKN004=
201012020502 TAF EGLL 020502Z 0206/0312 04012KT 9999 SCT012 BKN020
                      TEMPO 0206/0220 7000 -SN BKN012
                      PROB30 TEMPO 0206/0217 1200 SN BKN006
                      BECMG 0300/0303 34005KT
                      PROB40 0304/0312 3500 BR BKN003=
201012012256 TAF EGLL 012256Z 0200/0306 05012KT 8000 -SN SCT008 BKN018
                      TEMPO 0200/0215 1400 SN BKN003
                      PROB30 TEMPO 0200/0203 0500 +SN BKN001
                      BECMG 0216/0219 9999 NSW
                      PROB30 TEMPO 0219/0302 9000 -SN
                      BECMG 0300/0303 34005KT=
201012011710 TAF EGLL 011710Z 0118/0224 03010KT 9999 BKN030
                      TEMPO 0121/0212 4000 -SN BKN007
                      PROB40 TEMPO 0122/0208 1400 SN BKN002=
201012011108 TAF EGLL 011108Z 0112/0218 02012KT 9999 SCT020 BKN040
                      TEMPO 0112/0122 04015G25KT
                      PROB30 TEMPO 0113/0119 5000 -SN BKN010
                      TEMPO 0119/0218 4000 -SN BKN005
                      PROB40 TEMPO 0121/0212 1400 SN BKN002=
201012010502 TAF EGLL 010502Z 0106/0212 03012KT 9999 SCT020
                      TEMPO 0106/0208 6000 -SN BKN012
                      TEMPO 0109/0206 04017G28KT
                      PROB30 TEMPO 0111/0206 2000 SN BKN005=
