##########################################################
# Query made at 01/13/2020 14:45:33 UTC
# Time interval: from 12/01/2019 00:00  to 12/31/2019 23:59  UTC
##########################################################

##########################################################
# EGLL, London / Heathrow Airport (United Kingdom)
# WMO index: 03772
# Latitude 51-29N. Longitude 000-27W. Altitude 24 m.
##########################################################

###################################
#  METAR/SPECI from EGLL
###################################
201912312350 METAR COR EGLL 312350Z AUTO 14005KT 6000 NCD 04/04 Q1031
                        NOSIG=
201912312320 METAR COR EGLL 312320Z AUTO 12007KT 6000 NCD 04/04 Q1031
                        NOSIG=
201912312250 METAR COR EGLL 312250Z AUTO 13004KT 7000 NCD 06/05 Q1031
                        NOSIG=
201912312220 METAR COR EGLL 312220Z AUTO 12009KT 8000 NCD 06/05 Q1031
                        NOSIG=
201912312150 METAR COR EGLL 312150Z AUTO 12009KT 9999 BKN014 07/06 Q1031
                        TEMPO BKN015=
201912312120 METAR COR EGLL 312120Z AUTO 12009KT 9999 BKN015 08/07 Q1031
                        NOSIG=
201912312050 METAR COR EGLL 312050Z AUTO 10008KT 9999 BKN016 07/06 Q1031
                        NOSIG=
201912312020 METAR COR EGLL 312020Z AUTO 11009KT 9999 BKN017 08/07 Q1031
                        NOSIG=
201912311950 METAR COR EGLL 311950Z AUTO 10008KT 8000 BKN015 08/07 Q1031
                        NOSIG=
201912311920 METAR COR EGLL 311920Z AUTO 10007KT 8000 OVC015 09/08 Q1031
                        NOSIG=
201912311850 METAR COR EGLL 311850Z AUTO 10009KT 7000 BKN012 OVC021 09/08
                        Q1031 TEMPO SCT012=
201912311820 METAR COR EGLL 311820Z AUTO 09009KT 6000 SCT011 OVC015 09/08
                        Q1031 TEMPO BKN011=
201912311750 METAR COR EGLL 311750Z AUTO 09008KT 7000 BKN011 OVC020 09/08
                        Q1031 TEMPO SCT011=
201912311720 METAR COR EGLL 311720Z AUTO 09009KT 7000 OVC013 09/09 Q1031
                        TEMPO BKN009=
201912311650 METAR COR EGLL 311650Z AUTO 09009KT 7000 OVC011 09/08 Q1031
                        TEMPO BKN009=
201912311620 METAR COR EGLL 311620Z AUTO 09008KT 7000 OVC015 09/08 Q1031
                        TEMPO BKN014=
201912311550 METAR COR EGLL 311550Z AUTO 09008KT 7000 BKN011 OVC019 09/08
                        Q1031 TEMPO SCT011=
201912311520 METAR COR EGLL 311520Z AUTO 09008KT 8000 SCT008 OVC015 09/08
                        Q1031 TEMPO 4000 HZ BKN008=
201912311450 METAR COR EGLL 311450Z AUTO 09008KT 7000 SCT007 SCT010 OVC018
                        09/08 Q1032 TEMPO 4000 HZ BKN006=
201912311420 METAR COR EGLL 311420Z AUTO 09007KT 4400 HZ BKN006 OVC020
                        09/08 Q1032 TEMPO 5000=
201912311350 METAR EGLL 311350Z AUTO 09008KT 3500 HZ BKN005 OVC010 09/08
                        Q1032=
201912311320 METAR COR EGLL 311320Z AUTO 09009KT 3400 HZ BKN004 OVC008
                        09/08 Q1032 TEMPO BKN006=
201912311250 METAR COR EGLL 311250Z AUTO 09008KT 2800 HZ BKN004 OVC007
                        09/08 Q1032 TEMPO BKN006=
201912311220 METAR COR EGLL 311220Z AUTO 09007KT 2700 HZ BKN005 OVC008
                        08/08 Q1033 NOSIG=
201912311150 METAR COR EGLL 311150Z AUTO 09009KT 3100 HZ OVC005 08/07
                        Q1033 NOSIG=
201912311120 METAR COR EGLL 311120Z AUTO 10007KT 4200 HZ OVC007 08/07
                        Q1033 TEMPO 5000=
201912311050 METAR COR EGLL 311050Z AUTO 10008KT 5000 HZ BKN008 OVC018
                        08/07 Q1033 TEMPO 4000=
201912311020 METAR COR EGLL 311020Z AUTO 10008KT 5000 HZ SCT007 OVC019
                        08/07 Q1033 TEMPO BKN007=
201912310950 METAR COR EGLL 310950Z AUTO 10009KT 5000 HZ BKN019 OVC024
                        08/07 Q1033 TEMPO BKN014=
201912310920 METAR COR EGLL 310920Z AUTO 10006KT 5000 HZ OVC018 08/07
                        Q1032 TEMPO BKN014=
201912310850 METAR COR EGLL 310850Z AUTO 06003KT 5000 BR BKN018 07/06
                        Q1032 TEMPO BKN014=
201912310820 METAR COR EGLL 310820Z AUTO 09005KT 5000 BR SCT008 BKN019
                        06/06 Q1032 TEMPO BKN008=
201912310750 METAR COR EGLL 310750Z AUTO 07003KT 4900 BR BKN008 06/06
                        Q1032 BECMG 5000=
201912310720 METAR COR EGLL 310720Z AUTO 08005KT 4000 BR SCT021 07/06
                        Q1032 TEMPO 5000=
201912310650 METAR COR EGLL 310650Z AUTO 07005KT 4100 BR BKN021 06/06
                        Q1031 TEMPO 5000=
201912310620 METAR COR EGLL 310620Z AUTO 08003KT 3600 BR BKN017 06/05
                        Q1031 TEMPO 5000=
201912310550 METAR COR EGLL 310550Z AUTO 26001KT 1800 BR OVC018 05/05
                        Q1031 TEMPO 3000=
201912310520 METAR COR EGLL 310520Z 04003KT 1100 R09L/P1500 R09R/P1500
                        BR FEW001 OVC017 05/05 Q1031 TEMPO
                        BKN002=
201912310450 METAR COR EGLL 310450Z 08001KT 1000 R09L/P1500 R09R/P1500
                        BR BKN001 05/05 Q1031 BECMG 2500
                        BKN001=
201912310420 METAR COR EGLL 310420Z VRB02KT 0400 R09L/0800 R09R/0600 FG
                        VV/// 05/05 Q1031 BECMG 2500 BR OVC001=
201912310350 METAR COR EGLL 310350Z AUTO 05004KT 010V080 0150 R27L/0450
                        FG VV/// 06/05 Q1031 BECMG 2500 BR
                        BKN001=
201912310320 METAR COR EGLL 310320Z AUTO VRB03KT 0150 R27L/0550 FG VV///
                        06/05 Q1031 TEMPO 0800 BKN001=
201912310250 METAR COR EGLL 310250Z AUTO VRB02KT 0300 R27L/P1500 FG VV///
                        06/05 Q1031 TEMPO 0800 BKN001=
201912310220 METAR COR EGLL 310220Z AUTO VRB02KT 0500 R27L/P1500 FG VV///
                        06/06 Q1030 TEMPO 0800 BKN001=
201912310150 METAR COR EGLL 310150Z AUTO VRB01KT 0700 R27L/P1500 FG VV///
                        06/06 Q1030 NOSIG=
201912310120 METAR COR EGLL 310120Z AUTO VRB02KT 0650 R27L/P1500 FG OVC001
                        06/06 Q1030 NOSIG=
201912310050 METAR COR EGLL 310050Z AUTO 25003KT 1100 R27L/P1500 BR OVC001
                        06/06 Q1030 NOSIG=
201912310020 METAR COR EGLL 310020Z AUTO 26004KT 1400 R27L/P1500 BR OVC001
                        06/06 Q1030 TEMPO 2000 BKN002=
201912302350 METAR COR EGLL 302350Z AUTO 26005KT 1400 R27L/P1500 BR OVC001
                        06/06 Q1030 TEMPO 2000 BKN002=
201912302320 METAR COR EGLL 302320Z 30004KT 270V340 1500 BR OVC001 06/06
                        Q1031 TEMPO BKN002=
201912302250 METAR COR EGLL 302250Z 27005KT 240V300 0600 R27R/1300 R27L/P1500
                        FG BKN001 06/06 Q1031 TEMPO 1200
                        BR BKN002=
201912302220 METAR COR EGLL 302220Z AUTO 26005KT 1900 BR BKN002 OVC006
                        07/06 Q1031 TEMPO 4000 BKN003=
201912302150 METAR COR EGLL 302150Z AUTO 27006KT 2200 BR OVC002 07/07
                        Q1030 TEMPO 4000 BKN003=
201912302120 METAR COR EGLL 302120Z AUTO 27006KT 2200 BR OVC002 07/07
                        Q1030 TEMPO 4000 BKN003=
201912302050 METAR COR EGLL 302050Z AUTO 28005KT 2400 BR OVC002 07/07
                        Q1030 NOSIG=
201912302020 METAR COR EGLL 302020Z AUTO 24006KT 1900 BR OVC002 07/06
                        Q1029 TEMPO 1200 BR BKN001=
201912301950 METAR COR EGLL 301950Z AUTO 28006KT 2300 BR BKN003 06/05
                        Q1029 TEMPO 1200 BR BKN001=
201912301920 METAR COR EGLL 301920Z AUTO 23006KT 5000 HZ NCD 06/05 Q1029
                        BECMG 2000 BR=
201912301850 METAR COR EGLL 301850Z AUTO 23007KT 200V270 9000 NCD 06/05
                        Q1029 BECMG 3000 BR BKN003=
201912301820 METAR COR EGLL 301820Z AUTO 23006KT 9000 NCD 07/06 Q1029
                        BECMG 4000 BR BKN004=
201912301750 METAR COR EGLL 301750Z AUTO 23008KT 9999 NCD 07/05 Q1028
                        TEMPO 4000 BR BKN004=
201912301720 METAR COR EGLL 301720Z AUTO 25007KT 9999 NCD 07/05 Q1028
                        TEMPO 4000 BR BKN004=
201912301650 METAR COR EGLL 301650Z AUTO 24007KT 9999 NCD 07/05 Q1028
                        NOSIG=
201912301620 METAR COR EGLL 301620Z AUTO 22006KT 8000 NCD 09/06 Q1028
                        TEMPO 4000 BR BKN004=
201912301550 METAR COR EGLL 301550Z AUTO 22007KT 9999 NCD 10/07 Q1028
                        NOSIG=
201912301520 METAR COR EGLL 301520Z AUTO 24006KT 210V270 9999 NCD 10/07
                        Q1028 NOSIG=
201912301450 METAR COR EGLL 301450Z AUTO 24008KT 9999 NCD 11/07 Q1028
                        NOSIG=
201912301420 METAR COR EGLL 301420Z AUTO 23007KT 9999 NCD 11/07 Q1028
                        NOSIG=
201912301350 METAR COR EGLL 301350Z AUTO 23008KT 190V260 9999 NCD 11/07
                        Q1028 NOSIG=
201912301320 METAR COR EGLL 301320Z AUTO 23008KT 9999 NCD 11/08 Q1028
                        NOSIG=
201912301250 METAR COR EGLL 301250Z AUTO 23009KT 9999 NCD 10/07 Q1028
                        NOSIG=
201912301220 METAR COR EGLL 301220Z AUTO 25010KT 9999 NCD 09/07 Q1029
                        NOSIG=
201912301150 METAR COR EGLL 301150Z AUTO 24007KT 9000 NCD 09/07 Q1029
                        NOSIG=
201912301120 METAR COR EGLL 301120Z AUTO 22007KT 190V260 6000 FEW005 08/07
                        Q1029 NOSIG=
201912301050 METAR EGLL 301050Z AUTO 24008KT 5000 HZ BKN004 07/06 Q1030=
201912301020 METAR COR EGLL 301020Z AUTO 23008KT 5000 HZ BKN004 07/06
                        Q1030 BECMG BKN005=
201912300950 METAR COR EGLL 300950Z AUTO 23007KT 170V260 3800 HZ BKN004
                        07/06 Q1030 TEMPO BKN005=
201912300920 METAR COR EGLL 300920Z AUTO 23007KT 3700 BR BKN004 06/06
                        Q1030 TEMPO BKN005=
201912300850 METAR COR EGLL 300850Z AUTO 21006KT 4300 BR OVC005 06/06
                        Q1030 TEMPO BKN004=
201912300820 METAR COR EGLL 300820Z AUTO 21006KT 4700 BR OVC005 06/06
                        Q1029 TEMPO BKN004=
201912300750 METAR COR EGLL 300750Z AUTO 22005KT 4100 BR OVC004 06/05
                        Q1030 NOSIG=
201912300720 METAR COR EGLL 300720Z AUTO 23009KT 3900 BR OVC004 06/05
                        Q1030 NOSIG=
201912300650 METAR COR EGLL 300650Z AUTO 23009KT 3800 BR BKN003 OVC008
                        05/05 Q1030 TEMPO BKN002=
201912300620 METAR COR EGLL 300620Z AUTO 23008KT 2500 1000SE R27L/P1500
                        BCFG SCT001/// BKN003/// 05/05 Q1030
                        TEMPO 1200 BKN002=
201912300550 METAR COR EGLL 300550Z 21004KT 2500 1000SE R27L/P1500 BCFG
                        SCT001 BKN003 04/04 Q1030 TEMPO 0400
                        FG BKN001=
201912300520 METAR COR EGLL 300520Z 21006KT 2500 1200SE R27L/0550 BCFG
                        SCT000 BKN003 03/03 Q1030 TEMPO 0400
                        FG BKN001=
201912300450 METAR COR EGLL 300450Z 23004KT 4000 1800S VCFG FEW001 03/03
                        Q1030 TEMPO 0400 FG BKN000=
201912300420 METAR COR EGLL 300420Z 27005KT 4000 BR NSC 02/02 Q1030 TEMPO
                        0400 FG BKN000=
201912300350 METAR COR EGLL 300350Z VRB02KT 4000 1800S BCFG SCT001 03/03
                        Q1030 TEMPO 0400 FG BKN000=
201912300320 METAR COR EGLL 300320Z 21004KT 5000 1500W BCFG SCT000 04/04
                        Q1030 TEMPO 0400 FG BKN000=
201912300250 METAR COR EGLL 300250Z 24004KT 4000 BR FEW002 04/04 Q1030
                        TEMPO 0500 FG BKN000=
201912300220 METAR COR EGLL 300220Z 26004KT 0600 R27L/1100 FG SCT001 03/03
                        Q1030 BECMG 0300 BKN000=
201912300150 METAR COR EGLL 300150Z VRB02KT 0200 R27L/0450 FG VV/// 04/04
                        Q1031 NOSIG=
201912300120 METAR COR EGLL 300120Z 20003KT 0100 R27L/0325 FG VV/// 04/04
                        Q1031 RERA NOSIG=
201912300050 METAR COR EGLL 300050Z AUTO 24003KT 0150 R27L/0400 FG VV///
                        05/04 Q1031 NOSIG=
201912300020 METAR COR EGLL 300020Z 26005KT 0200 R27L/0600 FG VV/// 05/05
                        Q1031 RERA TEMPO 0100=
201912292350 METAR COR EGLL 292350Z AUTO 23004KT 0250 R27L/0500 FG VV///
                        05/05 Q1031 TEMPO 0100=
201912292320 METAR COR EGLL 292320Z 23004KT 1000 R27L/1200 BR BKN001 05/05
                        Q1031 TEMPO 0400 FG BKN000=
201912292250 METAR COR EGLL 292250Z 24008KT 2500 BR SCT002 BKN004 05/05
                        Q1031 TEMPO BKN001=
201912292220 METAR COR EGLL 292220Z 25007KT 3000 BR OVC002 06/05 Q1032
                        NOSIG=
201912292150 METAR COR EGLL 292150Z 24008KT 3000 BR SCT002 BKN004 06/05
                        Q1032 TEMPO 2000 BKN002=
201912292120 METAR COR EGLL 292120Z AUTO 25008KT 3200 BR OVC002 06/05
                        Q1032 TEMPO 2500 SCT002 BKN003=
201912292050 METAR COR EGLL 292050Z 26007KT 3000 BR SCT002 BKN004 05/05
                        Q1032 TEMPO 2000 BKN002=
201912292020 METAR COR EGLL 292020Z AUTO 22008KT 190V260 4500 BR BKN004
                        06/06 Q1032 TEMPO 5000=
201912291950 METAR COR EGLL 291950Z AUTO 20007KT 160V240 5000 BR BKN004
                        06/05 Q1032 TEMPO 4000=
201912291920 METAR COR EGLL 291920Z AUTO 22007KT 200V260 7000 SCT005 05/05
                        Q1032 TEMPO BKN004=
201912291850 METAR COR EGLL 291850Z AUTO 21006KT 7000 NCD 05/05 Q1032
                        NOSIG=
201912291820 METAR COR EGLL 291820Z AUTO 21007KT 180V250 9000 NCD 06/05
                        Q1032 NOSIG=
201912291750 METAR COR EGLL 291750Z AUTO 20006KT 170V250 9999 NCD 06/05
                        Q1032 NOSIG=
201912291720 METAR COR EGLL 291720Z AUTO 20007KT 170V240 9999 NCD 06/05
                        Q1032 NOSIG=
201912291650 METAR COR EGLL 291650Z AUTO 18008KT 150V230 9999 NCD 07/05
                        Q1032 NOSIG=
201912291620 METAR COR EGLL 291620Z AUTO 19007KT 160V240 9999 NCD 07/06
                        Q1032 NOSIG=
201912291550 METAR COR EGLL 291550Z AUTO 20008KT 150V250 9999 NCD 08/06
                        Q1032 NOSIG=
201912291520 METAR COR EGLL 291520Z AUTO 19007KT 140V240 9999 NCD 09/06
                        Q1032 NOSIG=
201912291450 METAR COR EGLL 291450Z AUTO 21009KT 170V240 9999 NCD 09/06
                        Q1032 NOSIG=
201912291420 METAR COR EGLL 291420Z AUTO 20010KT 180V260 9999 NCD 10/06
                        Q1032 NOSIG=
201912291350 METAR COR EGLL 291350Z AUTO 20009KT 160V240 9999 NCD 09/06
                        Q1032 NOSIG=
201912291320 METAR COR EGLL 291320Z AUTO 22009KT 190V250 9999 SCT014 09/06
                        Q1033 NOSIG=
201912291250 METAR COR EGLL 291250Z AUTO 21009KT 9999 SCT013 09/06 Q1033
                        TEMPO BKN013=
201912291220 METAR COR EGLL 291220Z AUTO 21010KT 170V240 9999 SCT013 08/06
                        Q1033 TEMPO BKN013=
201912291150 METAR COR EGLL 291150Z AUTO 21010KT 190V260 9999 BKN012 08/06
                        Q1033 TEMPO SCT012=
201912291120 METAR COR EGLL 291120Z AUTO 19009KT 170V230 9999 BKN012 08/06
                        Q1034 NOSIG=
201912291050 METAR COR EGLL 291050Z AUTO 19009KT 160V250 9999 BKN012 08/06
                        Q1034 NOSIG=
201912291020 METAR COR EGLL 291020Z AUTO 20009KT 170V230 9999 BKN012 07/05
                        Q1034 NOSIG=
201912290950 METAR COR EGLL 290950Z AUTO 20009KT 9999 OVC012 08/05 Q1034
                        NOSIG=
201912290920 METAR COR EGLL 290920Z AUTO 19010KT 9999 OVC013 08/06 Q1034
                        NOSIG=
201912290850 METAR COR EGLL 290850Z AUTO 20007KT 160V230 9999 OVC013 07/05
                        Q1034 NOSIG=
201912290820 METAR COR EGLL 290820Z AUTO 19008KT 9999 OVC014 07/05 Q1034
                        NOSIG=
201912290750 METAR COR EGLL 290750Z AUTO 20007KT 170V240 9999 OVC014 07/05
                        Q1034 TEMPO BKN016=
201912290720 METAR COR EGLL 290720Z AUTO 20007KT 170V260 9999 OVC014 07/05
                        Q1034 TEMPO BKN015=
201912290650 METAR COR EGLL 290650Z AUTO 20007KT 160V240 9999 OVC014 07/05
                        Q1034 NOSIG=
201912290620 METAR COR EGLL 290620Z AUTO 20007KT 9999 OVC014 08/05 Q1034
                        NOSIG=
201912290550 METAR COR EGLL 290550Z AUTO 21007KT 9999 OVC014 08/05 Q1034
                        NOSIG=
201912290520 METAR COR EGLL 290520Z AUTO 21006KT 9999 OVC014 08/05 Q1034
                        TEMPO BKN015=
201912290450 METAR COR EGLL 290450Z AUTO 18006KT 9999 OVC015 07/05 Q1034
                        TEMPO BKN013=
201912290420 METAR COR EGLL 290420Z 21005KT 9999 OVC015 08/05 Q1035 TEMPO
                        BKN014=
201912290350 METAR COR EGLL 290350Z 20006KT 9999 OVC015 08/05 Q1035 TEMPO
                        BKN012=
201912290320 METAR COR EGLL 290320Z AUTO 21005KT 9999 OVC012 08/06 Q1035
                        TEMPO BKN015=
201912290250 METAR COR EGLL 290250Z AUTO 21007KT 9999 OVC012 08/06 Q1035
                        TEMPO BKN015=
201912290220 METAR COR EGLL 290220Z AUTO 20007KT 9999 OVC012 08/06 Q1035
                        TEMPO BKN015=
201912290150 METAR COR EGLL 290150Z AUTO 21007KT 9999 OVC012 08/06 Q1035
                        TEMPO BKN015=
201912290120 METAR COR EGLL 290120Z AUTO 22008KT 9999 OVC013 08/06 Q1035
                        NOSIG=
201912290050 METAR COR EGLL 290050Z AUTO 21006KT 9999 OVC013 08/06 Q1035
                        NOSIG=
201912290020 METAR COR EGLL 290020Z AUTO 21008KT 9999 OVC013 08/06 Q1036
                        NOSIG=
201912282350 METAR COR EGLL 282350Z AUTO 18009KT 9999 OVC013 08/06 Q1036
                        NOSIG=
201912282320 METAR COR EGLL 282320Z AUTO 19009KT 9999 OVC013 08/06 Q1036
                        NOSIG=
201912282250 METAR COR EGLL 282250Z AUTO 19009KT 150V240 9999 OVC013 08/06
                        Q1036 NOSIG=
201912282220 METAR COR EGLL 282220Z AUTO 21008KT 160V260 9999 OVC012 08/06
                        Q1036 NOSIG=
201912282150 METAR COR EGLL 282150Z AUTO 19009KT 150V240 9999 OVC012 08/06
                        Q1036 NOSIG=
201912282120 METAR COR EGLL 282120Z AUTO 19008KT 150V250 9999 OVC012 08/06
                        Q1036 NOSIG=
201912282050 METAR COR EGLL 282050Z AUTO 19009KT 160V240 9999 OVC013 08/06
                        Q1036 NOSIG=
201912282020 METAR COR EGLL 282020Z AUTO 19007KT 140V220 9999 OVC013 08/06
                        Q1037 NOSIG=
201912281950 METAR COR EGLL 281950Z AUTO 18009KT 140V230 9999 OVC013 08/06
                        Q1036 NOSIG=
201912281920 METAR COR EGLL 281920Z AUTO 19008KT 170V250 9999 OVC013 08/06
                        Q1036 NOSIG=
201912281850 METAR COR EGLL 281850Z AUTO 18008KT 150V230 9999 OVC015 08/06
                        Q1036 TEMPO BKN014=
201912281820 METAR COR EGLL 281820Z AUTO 19008KT 160V240 9999 OVC015 08/06
                        Q1036 TEMPO BKN014=
201912281750 METAR COR EGLL 281750Z AUTO 19007KT 150V250 9999 OVC015 08/06
                        Q1036 TEMPO BKN014=
201912281720 METAR COR EGLL 281720Z AUTO 20007KT 170V250 9999 OVC015 09/06
                        Q1037 TEMPO BKN014=
201912281650 METAR COR EGLL 281650Z AUTO 21007KT 180V240 9999 OVC015 09/06
                        Q1036 TEMPO BKN014=
201912281620 METAR COR EGLL 281620Z AUTO 21007KT 160V250 9999 OVC016 09/07
                        Q1036 TEMPO BKN014=
201912281550 METAR COR EGLL 281550Z AUTO 20008KT 160V250 9999 OVC014 09/07
                        Q1037 TEMPO OVC015=
201912281520 METAR COR EGLL 281520Z AUTO 19008KT 150V250 9999 BKN014 OVC019
                        09/07 Q1036 NOSIG=
201912281450 METAR COR EGLL 281450Z AUTO 19007KT 9999 OVC015 09/07 Q1036
                        TEMPO BKN014=
201912281420 METAR COR EGLL 281420Z AUTO 19005KT 150V220 9999 OVC015 09/07
                        Q1036 TEMPO BKN014=
201912281350 METAR COR EGLL 281350Z AUTO 21007KT 180V260 9999 OVC016 09/07
                        Q1036 NOSIG=
201912281320 METAR COR EGLL 281320Z AUTO 21006KT 9999 OVC015 09/07 Q1036
                        NOSIG=
201912281250 METAR COR EGLL 281250Z AUTO 20007KT 170V260 9999 OVC015 09/07
                        Q1036 TEMPO BKN014=
201912281220 METAR COR EGLL 281220Z AUTO 20006KT 160V250 9999 OVC015 09/08
                        Q1037 TEMPO BKN012=
201912281150 METAR COR EGLL 281150Z AUTO 21006KT 180V260 9999 BKN012 OVC017
                        09/08 Q1037 NOSIG=
201912281120 METAR COR EGLL 281120Z AUTO 21005KT 170V260 9999 OVC011 09/08
                        Q1037 NOSIG=
201912281050 METAR COR EGLL 281050Z AUTO VRB04KT 9999 OVC011 08/08 Q1037
                        NOSIG=
201912281020 METAR COR EGLL 281020Z AUTO 18005KT 110V230 8000 OVC011 08/08
                        Q1037 NOSIG=
201912280950 METAR COR EGLL 280950Z AUTO 18007KT 150V230 8000 OVC011 08/08
                        Q1037 NOSIG=
201912280920 METAR COR EGLL 280920Z AUTO 17004KT 120V220 7000 OVC011 08/07
                        Q1037 NOSIG=
201912280850 METAR COR EGLL 280850Z AUTO 15004KT 100V180 5000 BR OVC011
                        08/07 Q1037 NOSIG=
201912280820 METAR COR EGLL 280820Z AUTO VRB03KT 5000 BR OVC010 08/07
                        Q1036 NOSIG=
201912280750 METAR COR EGLL 280750Z AUTO 16004KT 140V210 4700 BR OVC010
                        08/07 Q1036 BECMG 5000=
201912280720 METAR COR EGLL 280720Z AUTO 14005KT 070V190 4900 BR OVC009
                        08/07 Q1036 BECMG BKN011=
201912280650 METAR COR EGLL 280650Z AUTO 15004KT 100V210 5000 BR OVC009
                        08/07 Q1036 BECMG BKN012=
201912280620 METAR COR EGLL 280620Z AUTO 17004KT 130V310 5000 BR OVC010
                        08/07 Q1036 TEMPO 4500=
201912280550 METAR COR EGLL 280550Z AUTO 17004KT 7000 BKN010 OVC016 08/07
                        Q1036 NOSIG=
201912280520 METAR COR EGLL 280520Z AUTO 18004KT 6000 OVC010 07/07 Q1036
                        NOSIG=
201912280450 METAR COR EGLL 280450Z AUTO 16004KT 4900 BR OVC011 07/07
                        Q1036 TEMPO 6000=
201912280420 METAR COR EGLL 280420Z AUTO 14004KT 3700 BR OVC011 07/07
                        Q1036 NOSIG=
201912280350 METAR COR EGLL 280350Z AUTO 15004KT 4200 BR OVC012 07/07
                        Q1036 NOSIG=
201912280320 METAR COR EGLL 280320Z AUTO 16004KT 3300 BR BKN010 07/07
                        Q1036 TEMPO 2500=
201912280250 METAR COR EGLL 280250Z 18003KT 2200 BR SCT006 BKN009 OVC012
                        07/07 Q1036 TEMPO BKN004=
201912280220 METAR COR EGLL 280220Z 14003KT 2500 BR FEW004 BKN009 OVC015
                        07/07 Q1036 TEMPO BKN004=
201912280150 METAR COR EGLL 280150Z 15002KT 2500 BR SCT003 BKN009 OVC018
                        07/07 Q1035 TEMPO BKN003=
201912280120 METAR COR EGLL 280120Z 14003KT 2500 BR BKN004 BKN012 07/07
                        Q1035 TEMPO SCT004 BKN012=
201912280050 METAR COR EGLL 280050Z 20002KT 1200 R27L/P1500 R27R/P1500
                        BR FEW001 BKN003 OVC011 07/07 Q1035
                        TEMPO 2000 SCT003 BKN010=
201912280020 METAR COR EGLL 280020Z 22003KT 1500 0800W R27L/P1500 R27R/P1500
                        -DZ PRFG BKN002 BKN006 07/07 Q1035
                        NOSIG=
201912272350 METAR COR EGLL 272350Z 16001KT 0900 R27L/P1500 R27R/P1500
                        -DZ FG BKN002 OVC007 07/07 Q1035
                        TEMPO 1500 BR=
201912272320 METAR COR EGLL 272320Z 10003KT 2000 0900SW R27L/1400 R27R/P1500
                        BCFG SCT001 BKN002 07/07 Q1035 TEMPO
                        1400 BKN001=
201912272250 METAR COR EGLL 272250Z VRB03KT 2000 BR FEW001 SCT002 BKN004
                        07/07 Q1035 TEMPO BKN002=
201912272220 METAR COR EGLL 272220Z VRB04KT 4500 2000SE BR SCT004 BKN010
                        OVC018 07/06 Q1035 TEMPO 2500 BKN004=
201912272150 METAR COR EGLL 272150Z 18004KT 130V260 4500 2000SE BR SCT005
                        BKN010 OVC019 07/06 Q1034 TEMPO BKN008=
201912272120 METAR COR EGLL 272120Z 19004KT 080V260 6000 BKN008 OVC016
                        07/06 Q1035 TEMPO 4000 BR=
201912272050 METAR COR EGLL 272050Z AUTO VRB02KT 7000 BKN009 OVC022 07/06
                        Q1034 NOSIG=
201912272020 METAR COR EGLL 272020Z AUTO VRB03KT 8000 BKN009 OVC014 07/06
                        Q1034 TEMPO SCT009=
201912271950 METAR COR EGLL 271950Z AUTO VRB03KT 7000 BKN010 OVC023 07/06
                        Q1033 NOSIG=
201912271920 METAR COR EGLL 271920Z AUTO VRB04KT 9000 BKN011 OVC016 07/06
                        Q1034 NOSIG=
201912271850 METAR COR EGLL 271850Z AUTO VRB03KT 9999 BKN012 OVC017 07/06
                        Q1033 NOSIG=
201912271820 METAR COR EGLL 271820Z AUTO VRB03KT 9000 OVC014 07/06 Q1033
                        TEMPO SCT014=
201912271750 METAR COR EGLL 271750Z AUTO VRB03KT 9999 BKN016 OVC026 07/06
                        Q1033 NOSIG=
201912271720 METAR COR EGLL 271720Z AUTO VRB04KT 9999 BKN018 OVC025 07/06
                        Q1032 NOSIG=
201912271650 METAR COR EGLL 271650Z AUTO VRB01KT 9999 BKN021 06/05 Q1033
                        NOSIG=
201912271620 METAR COR EGLL 271620Z AUTO 32003KT 9999 SCT041 06/05 Q1033
                        NOSIG=
201912271550 METAR COR EGLL 271550Z AUTO VRB03KT 9999 NCD 07/05 Q1032
                        NOSIG=
201912271520 METAR COR EGLL 271520Z AUTO VRB03KT 9999 BKN010 07/06 Q1032
                        TEMPO SCT010=
201912271450 METAR EGLL 271450Z AUTO 22005KT 9999 OVC010 08/06 Q1032=
201912271420 METAR EGLL 271420Z AUTO 16005KT 120V200 9999 OVC011 08/06
                        Q1031=
201912271350 METAR COR EGLL 271350Z AUTO 18004KT 140V260 9999 OVC011 08/06
                        Q1031 NOSIG=
201912271320 METAR COR EGLL 271320Z AUTO 15004KT 080V200 9999 OVC011 08/06
                        Q1030 TEMPO SCT011=
201912271250 METAR COR EGLL 271250Z AUTO VRB03KT 9999 OVC011 08/06 Q1030
                        TEMPO SCT011=
201912271220 METAR COR EGLL 271220Z AUTO VRB02KT 9999 OVC011 08/06 Q1030
                        TEMPO SCT011=
201912271150 METAR COR EGLL 271150Z AUTO VRB02KT 9999 OVC010 08/06 Q1030
                        TEMPO SCT010=
201912271120 METAR COR EGLL 271120Z AUTO VRB02KT 9999 OVC010 08/06 Q1030
                        NOSIG=
201912271050 METAR COR EGLL 271050Z AUTO VRB03KT 9999 OVC010 08/06 Q1030
                        NOSIG=
201912271020 METAR COR EGLL 271020Z AUTO VRB03KT 9999 OVC010 08/06 Q1029
                        NOSIG=
201912270950 METAR COR EGLL 270950Z AUTO 06004KT 9999 OVC010 08/06 Q1029
                        NOSIG=
201912270920 METAR COR EGLL 270920Z AUTO 04004KT 010V090 9999 BKN007 OVC011
                        07/06 Q1029 BECMG SCT007 OVC011=
201912270850 METAR COR EGLL 270850Z AUTO 05004KT 010V080 9999 BKN007 OVC011
                        07/06 Q1028 NOSIG=
201912270820 METAR COR EGLL 270820Z AUTO 36004KT 330V040 9999 OVC007 07/06
                        Q1028 NOSIG=
201912270750 METAR COR EGLL 270750Z AUTO 35004KT 310V040 9999 OVC007 07/06
                        Q1027 NOSIG=
201912270720 METAR COR EGLL 270720Z AUTO VRB03KT 9999 OVC007 07/06 Q1027
                        NOSIG=
201912270650 METAR COR EGLL 270650Z AUTO VRB03KT 9999 OVC008 07/06 Q1026
                        NOSIG=
201912270620 METAR COR EGLL 270620Z AUTO 01005KT 330V040 9999 OVC008 07/06
                        Q1025 NOSIG=
201912270550 METAR COR EGLL 270550Z AUTO 36005KT 320V030 9999 OVC008 07/06
                        Q1025 NOSIG=
201912270520 METAR COR EGLL 270520Z AUTO 34004KT 310V030 9999 OVC008 07/06
                        Q1025 NOSIG=
201912270450 METAR COR EGLL 270450Z AUTO 01009KT 330V040 9999 OVC009 07/06
                        Q1024 NOSIG=
201912270420 METAR COR EGLL 270420Z AUTO 35004KT 300V030 9999 OVC010 07/06
                        Q1024 TEMPO BKN008=
201912270350 METAR COR EGLL 270350Z AUTO 31005KT 280V340 9999 OVC011 07/06
                        Q1023 TEMPO BKN008=
201912270320 METAR COR EGLL 270320Z AUTO 30006KT 9999 OVC011 07/06 Q1023
                        TEMPO BKN008=
201912270250 METAR COR EGLL 270250Z AUTO 32006KT 290V360 9999 OVC009 07/06
                        Q1023 NOSIG=
201912270220 METAR COR EGLL 270220Z AUTO 31007KT 9999 OVC010 07/06 Q1022
                        TEMPO BKN008=
201912270150 METAR COR EGLL 270150Z AUTO 33009KT 300V010 9999 OVC010 07/05
                        Q1021 BECMG BKN008=
201912270120 METAR COR EGLL 270120Z AUTO 32007KT 9999 BKN011 OVC016 07/06
                        Q1021 BECMG BKN008=
201912270050 METAR COR EGLL 270050Z AUTO 32009KT 290V020 9999 BKN010 OVC016
                        07/06 Q1020 BECMG BKN008=
201912270020 METAR COR EGLL 270020Z AUTO 32009KT 9999 BKN011 OVC020 08/06
                        Q1019 BECMG BKN008=
201912262350 METAR COR EGLL 262350Z AUTO 34009KT 300V010 9999 OVC013 09/07
                        Q1019 BECMG BKN008=
201912262320 METAR COR EGLL 262320Z AUTO 31010KT 280V350 9999 OVC017 09/07
                        Q1018 BECMG BKN012=
201912262250 METAR COR EGLL 262250Z AUTO 30006KT 9000 SCT022 OVC026 09/08
                        Q1018 NOSIG=
201912262220 METAR COR EGLL 262220Z AUTO 29007KT 8000 SCT028 08/07 Q1017
                        NOSIG=
201912262150 METAR COR EGLL 262150Z AUTO 28011KT 8000 SCT048 08/07 Q1016
                        NOSIG=
201912262120 METAR COR EGLL 262120Z AUTO 27012KT 8000 NCD 09/08 Q1016
                        NOSIG=
201912262050 METAR COR EGLL 262050Z AUTO 27012KT 8000 NCD 09/08 Q1016
                        NOSIG=
201912262020 METAR COR EGLL 262020Z AUTO 27012KT 8000 SCT033 10/08 Q1016
                        NOSIG=
201912261950 METAR COR EGLL 261950Z AUTO 26009KT 8000 SCT021 BKN027 BKN036
                        09/08 Q1015 NOSIG=
201912261920 METAR COR EGLL 261920Z AUTO 24009KT 8000 BKN025/// BKN033///
                        //////CB 09/08 Q1015 NOSIG=
201912261850 METAR COR EGLL 261850Z AUTO 24009KT 8000 SCT023 BKN033 09/08
                        Q1015 NOSIG=
201912261820 METAR COR EGLL 261820Z AUTO 24008KT 9999 SCT025 BKN036 BKN045
                        09/08 Q1015 NOSIG=
201912261750 METAR COR EGLL 261750Z AUTO 24009KT 9999 BKN040 10/08 Q1015
                        NOSIG=
201912261720 METAR COR EGLL 261720Z AUTO 25008KT 9999 SCT017 SCT031 BKN046
                        10/08 Q1015 NOSIG=
201912261650 METAR COR EGLL 261650Z AUTO 26014KT 7000 -RA SCT017 BKN025
                        BKN029 10/08 Q1014 NOSIG=
201912261620 METAR COR EGLL 261620Z AUTO 27014KT 9999 NCD 10/07 Q1014
                        NOSIG=
201912261550 METAR COR EGLL 261550Z AUTO 27017KT 9999 FEW021 SCT026 10/08
                        Q1013 NOSIG=
201912261520 METAR COR EGLL 261520Z AUTO 26017KT 9999 SCT019 BKN024 10/08
                        Q1013 NOSIG=
201912261450 METAR COR EGLL 261450Z AUTO 25019KT 9999 SCT018 BKN023 10/08
                        Q1012 TEMPO BKN012=
201912261420 METAR COR EGLL 261420Z AUTO 25020KT 9999 BKN018 OVC024 10/08
                        Q1011 TEMPO BKN012=
201912261350 METAR COR EGLL 261350Z AUTO 23017KT 9999 -RA BKN013 OVC020
                        10/09 Q1010 TEMPO SCT013=
201912261320 METAR COR EGLL 261320Z AUTO 21014KT 4600 -RA SCT009/// BKN013///
                        OVC018/// //////TCU 09/09 Q1010 RERA
                        REDZ TEMPO 6000 SCT013=
201912261250 METAR COR EGLL 261250Z 20015G25KT 3500 RADZ FEW008 BKN010
                        OVC018 09/09 Q1010 REDZ TEMPO 5000
                        -RADZ BKN008=
201912261220 METAR COR EGLL 261220Z AUTO 17016KT 9999 -RA SCT022/// BKN027///
                        OVC033/// //////TCU 10/09 Q1011 TEMPO
                        4000 RADZ BKN008=
201912261150 METAR COR EGLL 261150Z AUTO 16015KT 9999 -RA BKN020/// BKN030///
                        //////TCU 10/09 Q1011 TEMPO 4000
                        RADZ BKN012=
201912261120 METAR COR EGLL 261120Z AUTO 15014KT 9999 -RA SCT017 BKN029
                        BKN043 09/08 Q1012 TEMPO 4000 RADZ
                        BKN012=
201912261050 METAR COR EGLL 261050Z AUTO 15013KT 8000 -RA SCT012 BKN021
                        BKN026 08/08 Q1013 TEMPO 4000 RADZ
                        BKN008=
201912261020 METAR COR EGLL 261020Z AUTO 14014KT 9999 SCT009 BKN015 BKN022
                        08/07 Q1014 TEMPO 4000 RADZ BKN008=
201912260950 METAR COR EGLL 260950Z AUTO 14014KT 7000 BKN009/// OVC023///
                        //////TCU 07/06 Q1015 TEMPO SCT009=
201912260920 METAR COR EGLL 260920Z AUTO 13012KT 9999 -RA BKN011 07/06
                        Q1015 TEMPO 4000 RADZ BKN008=
201912260850 METAR COR EGLL 260850Z AUTO 14012KT 9999 -RA BKN015/// //////TCU
                        07/05 Q1016 TEMPO 4500 RADZ BKN010=
201912260820 METAR COR EGLL 260820Z AUTO 12010KT 9999 -RA BKN019 BKN026
                        06/05 Q1017 TEMPO RA BKN012=
201912260750 METAR COR EGLL 260750Z AUTO 12012KT 9999 FEW019 06/05 Q1016
                        TEMPO RA BKN012=
201912260720 METAR COR EGLL 260720Z AUTO 12011KT 9999 NCD 06/05 Q1017
                        TEMPO RA=
201912260650 METAR COR EGLL 260650Z AUTO 11012KT 9999 NCD 06/05 Q1017
                        NOSIG=
201912260620 METAR COR EGLL 260620Z AUTO 12011KT 9999 FEW028 06/05 Q1018
                        NOSIG=
201912260550 METAR COR EGLL 260550Z AUTO 12009KT 9999 NCD 05/05 Q1019
                        NOSIG=
201912260520 METAR COR EGLL 260520Z AUTO 11010KT 9999 NCD 05/04 Q1019
                        NOSIG=
201912260450 METAR COR EGLL 260450Z AUTO 10007KT 9999 NCD 04/04 Q1019
                        NOSIG=
201912260420 METAR COR EGLL 260420Z AUTO 09007KT 9999 NCD 04/03 Q1020
                        NOSIG=
201912260350 METAR COR EGLL 260350Z AUTO 10006KT 9999 NCD 03/03 Q1020
                        NOSIG=
201912260320 METAR COR EGLL 260320Z AUTO 10007KT 9999 NCD 03/03 Q1020
                        NOSIG=
201912260250 METAR COR EGLL 260250Z AUTO 09007KT 9999 NCD 03/03 Q1021
                        NOSIG=
201912260220 METAR COR EGLL 260220Z AUTO 09006KT 9999 NCD 02/02 Q1022
                        NOSIG=
201912260150 METAR COR EGLL 260150Z AUTO 08005KT 9000 NCD 01/01 Q1022
                        NOSIG=
201912260120 METAR COR EGLL 260120Z AUTO 09002KT 9999 NCD 02/02 Q1023
                        NOSIG=
201912260050 METAR COR EGLL 260050Z AUTO 09004KT 9999 NCD 02/02 Q1023
                        NOSIG=
201912260020 METAR COR EGLL 260020Z AUTO 09006KT 9000 NCD 01/01 Q1023
                        NOSIG=
201912252350 METAR COR EGLL 252350Z AUTO 09004KT 9000 NCD 02/01 Q1023
                        NOSIG=
201912252320 METAR COR EGLL 252320Z AUTO 08004KT 7000 NCD 01/01 Q1024
                        NOSIG=
201912252250 METAR COR EGLL 252250Z AUTO 05003KT 6000 NCD 02/01 Q1024
                        TEMPO 4000 BR=
201912252220 METAR COR EGLL 252220Z AUTO VRB02KT 4700 BR NCD 02/02 Q1024
                        TEMPO 6000 NSW=
201912252150 METAR COR EGLL 252150Z AUTO VRB02KT 7000 NCD 01/01 Q1024
                        TEMPO 4000 BR=
201912252120 METAR COR EGLL 252120Z AUTO VRB03KT 3400 BR NCD 02/01 Q1025
                        TEMPO 6000 NSW=
201912252050 METAR COR EGLL 252050Z AUTO VRB02KT 8000 NCD 02/01 Q1025
                        NOSIG=
201912252020 METAR COR EGLL 252020Z AUTO 06002KT 8000 NCD 02/01 Q1025
                        NOSIG=
201912251950 METAR COR EGLL 251950Z AUTO VRB03KT 9999 NCD 03/02 Q1025
                        NOSIG=
201912251920 METAR COR EGLL 251920Z AUTO VRB03KT 9999 NCD 03/02 Q1025
                        NOSIG=
201912251850 METAR COR EGLL 251850Z AUTO VRB03KT 9999 NCD 03/02 Q1025
                        NOSIG=
201912251820 METAR COR EGLL 251820Z AUTO 14003KT 9999 NCD 03/02 Q1025
                        NOSIG=
201912251750 METAR COR EGLL 251750Z AUTO VRB03KT 9999 NCD 04/03 Q1025
                        NOSIG=
201912251720 METAR COR EGLL 251720Z AUTO 19004KT 160V250 9999 NCD 05/03
                        Q1025 NOSIG=
201912251650 METAR COR EGLL 251650Z AUTO 20005KT 160V260 9999 NCD 05/03
                        Q1025 NOSIG=
201912251620 METAR COR EGLL 251620Z AUTO 04002KT 9999 NCD 06/03 Q1025
                        NOSIG=
201912251550 METAR COR EGLL 251550Z AUTO VRB01KT 9999 NCD 08/03 Q1025
                        NOSIG=
201912251520 METAR COR EGLL 251520Z AUTO 06001KT 9999 NCD 08/03 Q1025
                        NOSIG=
201912251450 METAR COR EGLL 251450Z AUTO VRB01KT 9999 NCD 09/04 Q1025
                        NOSIG=
201912251420 METAR COR EGLL 251420Z AUTO VRB02KT 9999 NCD 08/04 Q1025
                        NOSIG=
201912251350 METAR COR EGLL 251350Z AUTO VRB03KT 9999 NCD 08/04 Q1025
                        NOSIG=
201912251320 METAR COR EGLL 251320Z AUTO 31004KT 270V350 9999 NCD 08/04
                        Q1025 NOSIG=
201912251250 METAR COR EGLL 251250Z AUTO 30004KT 9999 NCD 08/04 Q1025
                        NOSIG=
201912251220 METAR COR EGLL 251220Z AUTO 30005KT 9999 NCD 08/04 Q1025
                        NOSIG=
201912251150 METAR COR EGLL 251150Z AUTO 29005KT 9999 NCD 07/04 Q1025
                        NOSIG=
201912251120 METAR COR EGLL 251120Z AUTO 29006KT 9999 NCD 07/04 Q1025
                        NOSIG=
201912251050 METAR COR EGLL 251050Z AUTO 27007KT 9999 NCD 06/04 Q1025
                        NOSIG=
201912251020 METAR COR EGLL 251020Z AUTO 27006KT 9999 NCD 06/04 Q1025
                        NOSIG=
201912250950 METAR COR EGLL 250950Z AUTO 27005KT 9999 NCD 05/03 Q1025
                        NOSIG=
201912250920 METAR COR EGLL 250920Z AUTO 28005KT 9999 NCD 05/03 Q1024
                        NOSIG=
201912250850 METAR COR EGLL 250850Z AUTO 28005KT 9999 NCD 04/03 Q1024
                        NOSIG=
201912250820 METAR COR EGLL 250820Z AUTO 27007KT 9999 NCD 04/03 Q1023
                        NOSIG=
201912250750 METAR COR EGLL 250750Z AUTO 27008KT 9999 NCD 04/02 Q1023
                        NOSIG=
201912250720 METAR COR EGLL 250720Z AUTO 27007KT 9999 NCD 04/03 Q1023
                        NOSIG=
201912250650 METAR COR EGLL 250650Z AUTO 28005KT 9999 NCD 04/02 Q1022
                        NOSIG=
201912250620 METAR COR EGLL 250620Z AUTO 27007KT 9999 NCD 04/02 Q1021
                        NOSIG=
201912250550 METAR EGLL 250550Z AUTO 28006KT 9999 NCD 04/03 Q1021=
201912250520 METAR COR EGLL 250520Z AUTO 27007KT 9999 NCD 05/03 Q1021
                        NOSIG=
201912250450 METAR COR EGLL 250450Z AUTO 28006KT 9999 NCD 04/03 Q1021
                        NOSIG=
201912250420 METAR EGLL 250420Z AUTO 27008KT 9999 NCD 04/03 Q1020=
201912250350 METAR EGLL 250350Z AUTO 27007KT 9999 NCD 05/03 Q1020=
201912250320 METAR COR EGLL 250320Z AUTO 29006KT 9999 FEW036 06/03 Q1019
                        NOSIG=
201912250250 METAR COR EGLL 250250Z AUTO 30007KT 9999 BKN036 07/04 Q1019
                        NOSIG=
201912250220 METAR COR EGLL 250220Z AUTO 30008KT 9999 SCT037 07/03 Q1019
                        NOSIG=
201912250150 METAR COR EGLL 250150Z AUTO 29009KT 9999 BKN037 08/04 Q1018
                        NOSIG=
201912250120 METAR COR EGLL 250120Z AUTO 29008KT 9999 BKN038 08/04 Q1018
                        NOSIG=
201912250050 METAR COR EGLL 250050Z AUTO 29009KT 9999 BKN039 08/04 Q1018
                        NOSIG=
201912250020 METAR COR EGLL 250020Z AUTO 29009KT 9999 OVC040 08/05 Q1017
                        NOSIG=
201912242350 METAR COR EGLL 242350Z AUTO 29009KT 9999 FEW026 BKN035 OVC044
                        09/05 Q1017 NOSIG=
201912242320 METAR COR EGLL 242320Z AUTO 30010KT 9999 FEW023 OVC039 09/06
                        Q1016 NOSIG=
201912242250 METAR COR EGLL 242250Z AUTO 30010KT 9999 OVC038 09/06 Q1015
                        NOSIG=
201912242220 METAR COR EGLL 242220Z AUTO 31009KT 9999 BKN035 OVC042 10/07
                        Q1014 NOSIG=
201912242150 METAR COR EGLL 242150Z AUTO 29010KT 9999 FEW021 SCT027 BKN035
                        10/08 Q1014 NOSIG=
201912242120 METAR COR EGLL 242120Z AUTO 28008KT 9999 -RA FEW019 SCT026
                        BKN039 10/09 Q1013 NOSIG=
201912242050 METAR COR EGLL 242050Z AUTO 27010KT 9999 FEW015 SCT019 BKN038
                        10/09 Q1012 NOSIG=
201912242020 METAR COR EGLL 242020Z AUTO 26007KT 9999 SCT014 OVC044 10/09
                        Q1012 TEMPO BKN014=
201912241950 METAR EGLL 241950Z AUTO 25007KT 9999 SCT012 BKN044 09/08
                        Q1011=
201912241920 METAR COR EGLL 241920Z AUTO 24007KT 9999 BKN013 09/08 Q1011
                        TEMPO SCT014=
201912241850 METAR COR EGLL 241850Z AUTO 25008KT 9999 SCT014 09/08 Q1011
                        TEMPO BKN014=
201912241820 METAR COR EGLL 241820Z AUTO 26010KT 9999 FEW018 10/08 Q1010
                        NOSIG=
201912241750 METAR COR EGLL 241750Z AUTO 25011KT 9999 SCT019 BKN024 BKN039
                        10/08 Q1009 TEMPO 4000 -SHRA=
201912241720 METAR EGLL 241720Z AUTO 25012KT 9999 BKN034 10/08 Q1009=
201912241650 METAR COR EGLL 241650Z AUTO 24015KT 9999 FEW019 SCT028 BKN034
                        10/07 Q1009 NOSIG=
201912241620 METAR EGLL 241620Z AUTO 24013KT 9999 FEW043 10/07 Q1008=
201912241550 METAR COR EGLL 241550Z AUTO 24011KT 9999 FEW037 11/07 Q1008
                        TEMPO SHRA=
201912241520 METAR COR EGLL 241520Z AUTO 25015G26KT 9999 NCD 11/07 Q1008
                        NOSIG=
201912241450 METAR COR EGLL 241450Z AUTO 24016KT 9999 FEW047 11/07 Q1008
                        NOSIG=
201912241420 METAR COR EGLL 241420Z AUTO 24016KT 9999 SCT041 12/07 Q1007
                        NOSIG=
201912241350 METAR COR EGLL 241350Z AUTO 24016KT 9999 FEW035 SCT043 12/07
                        Q1008 NOSIG=
201912241320 METAR EGLL 241320Z AUTO 25016KT 9999 SCT032 BKN038 12/07
                        Q1008=
201912241250 METAR EGLL 241250Z AUTO 25017KT 9999 FEW032 12/07 Q1007=
201912241220 METAR COR EGLL 241220Z AUTO 26016KT 9999 SCT030 SCT045 11/08
                        Q1007 NOSIG=
201912241150 METAR COR EGLL 241150Z AUTO 25016KT 9999 FEW034 BKN049 11/07
                        Q1008 NOSIG=
201912241120 METAR COR EGLL 241120Z AUTO 25016KT 9999 FEW035 11/07 Q1007
                        NOSIG=
201912241050 METAR COR EGLL 241050Z AUTO 24016KT 9999 SCT034 10/08 Q1007
                        NOSIG=
201912241020 METAR COR EGLL 241020Z AUTO 24017G28KT 9999 SCT037/// //////TCU
                        10/07 Q1007 NOSIG=
201912240950 METAR COR EGLL 240950Z 24014KT 9000 -SHRA FEW030TCU BKN045
                        10/07 Q1007 TEMPO SHRA=
201912240920 METAR COR EGLL 240920Z 24012KT 9999 NSC 09/07 Q1007 TEMPO
                        SHRA=
201912240850 METAR COR EGLL 240850Z 23010KT 9999 FEW033 08/07 Q1007 NOSIG=
201912240820 METAR EGLL 240820Z AUTO 23013KT 9000 FEW029 08/07 Q1007=
201912240750 METAR EGLL 240750Z AUTO 22011KT 9999 NCD 08/07 Q1006=
201912240720 METAR COR EGLL 240720Z AUTO 23011KT 9000 BKN025 BKN039 08/07
                        Q1006 NOSIG=
201912240650 METAR COR EGLL 240650Z AUTO 25013KT 9999 SCT027 09/08 Q1006
                        NOSIG=
201912240620 METAR COR EGLL 240620Z AUTO 24011KT 9999 NCD 09/08 Q1005
                        NOSIG=
201912240550 METAR COR EGLL 240550Z AUTO 24009KT 9999 FEW022 SCT028 08/08
                        Q1006 NOSIG=
201912240520 METAR COR EGLL 240520Z AUTO 23006KT 9999 FEW012 SCT021 BKN046
                        08/08 Q1005 NOSIG=
201912240450 METAR COR EGLL 240450Z AUTO 25005KT 220V280 9999 SCT005 SCT011
                        BKN016 08/08 Q1005 NOSIG=
201912240420 METAR COR EGLL 240420Z AUTO VRB03KT 6000 -RA SCT008 BKN016
                        BKN022 08/08 Q1005 TEMPO BKN004=
201912240350 METAR COR EGLL 240350Z AUTO 20004KT 160V230 7000 -RA BKN007
                        BKN012 OVC019 08/08 Q1005 NOSIG=
201912240320 METAR COR EGLL 240320Z AUTO 16007KT 9999 -RA BKN008 OVC017
                        08/07 Q1006 NOSIG=
201912240250 METAR COR EGLL 240250Z AUTO 16007KT 7000 -RA BKN006 OVC018
                        08/07 Q1006 RERA TEMPO 3500 RADZ=
201912240220 METAR COR EGLL 240220Z AUTO 16005KT 6000 -RA OVC010 08/07
                        Q1007 TEMPO 4000 RA=
201912240150 METAR COR EGLL 240150Z AUTO 17006KT 6000 -RA BKN016 BKN024
                        OVC034 08/07 Q1007 TEMPO 4000 RA
                        BKN012=
201912240120 METAR COR EGLL 240120Z AUTO 13006KT 9000 -RA BKN031 OVC049
                        08/07 Q1008 TEMPO RA BKN010=
201912240050 METAR COR EGLL 240050Z AUTO 15006KT 9000 -RA BKN044 08/07
                        Q1009 TEMPO RA=
201912240020 METAR COR EGLL 240020Z AUTO 15006KT 9999 -RA NCD 08/07 Q1009
                        NOSIG=
201912232350 METAR COR EGLL 232350Z AUTO 14006KT 9999 NCD 08/07 Q1010
                        TEMPO RA=
201912232320 METAR COR EGLL 232320Z AUTO 16004KT 140V230 9000 NCD 07/06
                        Q1010 NOSIG=
201912232250 METAR COR EGLL 232250Z AUTO 17005KT 150V220 9999 NCD 07/06
                        Q1010 NOSIG=
201912232220 METAR COR EGLL 232220Z AUTO 19006KT 150V250 9999 NCD 08/06
                        Q1011 NOSIG=
201912232150 METAR COR EGLL 232150Z 21008KT 180V250 CAVOK 08/06 Q1011
                        NOSIG=
201912232120 METAR COR EGLL 232120Z AUTO 21008KT 170V250 9999 NCD 08/06
                        Q1011 NOSIG=
201912232050 METAR COR EGLL 232050Z AUTO 22009KT 9999 NCD 08/06 Q1011
                        NOSIG=
201912232020 METAR COR EGLL 232020Z AUTO 21008KT 9999 NCD 08/06 Q1012
                        NOSIG=
201912231950 METAR COR EGLL 231950Z AUTO 20008KT 160V240 9999 NCD 08/06
                        Q1012 NOSIG=
201912231920 METAR COR EGLL 231920Z AUTO 20008KT 170V240 9999 NCD 08/06
                        Q1012 NOSIG=
201912231850 METAR COR EGLL 231850Z AUTO 19007KT 140V230 9999 FEW029 08/06
                        Q1012 NOSIG=
201912231820 METAR COR EGLL 231820Z AUTO 20008KT 170V250 9999 SCT029 08/06
                        Q1012 NOSIG=
201912231750 METAR COR EGLL 231750Z AUTO 21008KT 170V250 9999 FEW043 08/06
                        Q1012 NOSIG=
201912231720 METAR COR EGLL 231720Z AUTO 22008KT 9999 SCT044 08/05 Q1012
                        NOSIG=
201912231650 METAR COR EGLL 231650Z AUTO 21007KT 170V250 9999 BKN033 09/05
                        Q1012 NOSIG=
201912231620 METAR COR EGLL 231620Z AUTO 24010KT 9999 SCT033 BKN042 09/05
                        Q1012 NOSIG=
201912231550 METAR COR EGLL 231550Z AUTO 24011KT 9999 NCD 09/05 Q1011
                        NOSIG=
201912231520 METAR COR EGLL 231520Z AUTO 24010KT 9999 FEW036 09/05 Q1011
                        NOSIG=
201912231450 METAR COR EGLL 231450Z AUTO 24010KT 9999 SCT035 10/04 Q1011
                        NOSIG=
201912231420 METAR COR EGLL 231420Z AUTO 26012KT 9999 BKN039 10/04 Q1011
                        NOSIG=
201912231350 METAR COR EGLL 231350Z AUTO 26012KT 9999 BKN036 BKN046 11/05
                        Q1010 NOSIG=
201912231320 METAR COR EGLL 231320Z AUTO 26013KT 9999 SCT035 BKN043 11/05
                        Q1010 NOSIG=
201912231250 METAR COR EGLL 231250Z AUTO 27014KT 9999 FEW048 10/04 Q1010
                        NOSIG=
201912231220 METAR COR EGLL 231220Z AUTO 26014KT 9999 FEW045 10/05 Q1010
                        NOSIG=
201912231150 METAR COR EGLL 231150Z AUTO 26013KT 9999 FEW031 10/05 Q1009
                        NOSIG=
201912231120 METAR COR EGLL 231120Z AUTO 26014KT 9999 NCD 10/05 Q1009
                        NOSIG=
201912231050 METAR COR EGLL 231050Z AUTO 26013KT 9999 NCD 09/06 Q1009
                        NOSIG=
201912231020 METAR COR EGLL 231020Z AUTO 26013KT 9999 NCD 09/06 Q1008
                        NOSIG=
201912230950 METAR COR EGLL 230950Z AUTO 26013KT 9999 SCT047 09/06 Q1008
                        NOSIG=
201912230920 METAR COR EGLL 230920Z AUTO 24010KT 9999 BKN047 08/05 Q1007
                        NOSIG=
201912230850 METAR COR EGLL 230850Z AUTO 27008KT 9999 BKN046 08/05 Q1007
                        NOSIG=
201912230820 METAR COR EGLL 230820Z AUTO 26010KT 9999 BKN046 08/05 Q1006
                        NOSIG=
201912230750 METAR COR EGLL 230750Z AUTO 25011KT 9999 NCD 08/05 Q1006
                        NOSIG=
201912230720 METAR COR EGLL 230720Z AUTO 25012KT 9999 BKN037 08/05 Q1005
                        NOSIG=
201912230650 METAR COR EGLL 230650Z AUTO 26010KT 9999 NCD 08/05 Q1004
                        NOSIG=
201912230620 METAR COR EGLL 230620Z AUTO 27009KT 9999 FEW044 08/05 Q1004
                        NOSIG=
201912230550 METAR COR EGLL 230550Z AUTO 27012KT 9999 BKN042 09/06 Q1003
                        NOSIG=
201912230520 METAR COR EGLL 230520Z AUTO 26012KT 9999 OVC046 09/06 Q1002
                        NOSIG=
201912230450 METAR COR EGLL 230450Z AUTO 25010KT 9999 FEW025 SCT033 OVC048
                        08/07 Q1002 NOSIG=
201912230420 METAR COR EGLL 230420Z AUTO 25009KT 9999 OVC035 08/06 Q1001
                        NOSIG=
201912230350 METAR COR EGLL 230350Z AUTO 24008KT 9999 BKN017 BKN022 BKN037
                        07/06 Q1001 NOSIG=
201912230320 METAR COR EGLL 230320Z AUTO 24008KT 9999 BKN040 OVC047 07/06
                        Q1000 NOSIG=
201912230250 METAR COR EGLL 230250Z AUTO 25008KT 9999 FEW031 SCT040 07/05
                        Q1000 NOSIG=
201912230220 METAR COR EGLL 230220Z AUTO 25007KT 9999 NCD 07/05 Q0999
                        NOSIG=
201912230150 METAR COR EGLL 230150Z AUTO 26010KT 9999 NCD 07/05 Q0999
                        NOSIG=
201912230120 METAR COR EGLL 230120Z AUTO 25011KT 9999 NCD 07/05 Q0998
                        NOSIG=
201912230050 METAR COR EGLL 230050Z AUTO 24009KT 9999 NCD 07/06 Q0998
                        NOSIG=
201912230020 METAR COR EGLL 230020Z AUTO 25011KT 9999 NCD 07/06 Q0997
                        NOSIG=
201912222350 METAR COR EGLL 222350Z AUTO 26006KT 9999 NCD 07/06 Q0997
                        NOSIG=
201912222320 METAR COR EGLL 222320Z AUTO 26009KT 9999 NCD 07/06 Q0997
                        NOSIG=
201912222250 METAR COR EGLL 222250Z AUTO 26010KT 9999 NCD 07/06 Q0996
                        TEMPO BKN014=
201912222220 METAR COR EGLL 222220Z AUTO 26010KT 9999 NCD 07/06 Q0996
                        TEMPO 4000 SHRA BKN014=
201912222150 METAR COR EGLL 222150Z AUTO 26008KT 9999 NCD 07/06 Q0995
                        NOSIG=
201912222120 METAR COR EGLL 222120Z AUTO 26011KT 9999 FEW017 07/06 Q0994
                        NOSIG=
201912222050 METAR COR EGLL 222050Z AUTO 25011KT 9999 BKN038 08/06 Q0994
                        NOSIG=
201912222020 METAR COR EGLL 222020Z AUTO 25010KT 9999 SCT039 07/06 Q0993
                        NOSIG=
201912221950 METAR COR EGLL 221950Z AUTO 24009KT 9999 SCT043 07/06 Q0993
                        NOSIG=
201912221920 METAR COR EGLL 221920Z AUTO 22006KT 190V250 9999 NCD 07/05
                        Q0992 NOSIG=
201912221850 METAR COR EGLL 221850Z AUTO 22008KT 200V260 9999 NCD 07/06
                        Q0992 NOSIG=
201912221820 METAR COR EGLL 221820Z AUTO 23007KT 9999 SCT037 07/06 Q0991
                        NOSIG=
201912221750 METAR COR EGLL 221750Z AUTO 22005G15KT 180V270 9999 FEW031
                        07/06 Q0991 NOSIG=
201912221720 METAR COR EGLL 221720Z AUTO 21006KT 9999 FEW041 07/06 Q0991
                        NOSIG=
201912221650 METAR COR EGLL 221650Z AUTO 23008KT 9999 NCD 08/06 Q0990
                        NOSIG=
201912221620 METAR COR EGLL 221620Z AUTO 24010KT 9999 FEW026 BKN030 09/07
                        Q0990 NOSIG=
201912221550 METAR COR EGLL 221550Z AUTO 24009KT 9999 FEW026 08/06 Q0989
                        NOSIG=
201912221520 METAR COR EGLL 221520Z AUTO 25011KT 9999 FEW039 09/06 Q0989
                        NOSIG=
201912221450 METAR COR EGLL 221450Z AUTO 25011KT 9999 FEW028 SCT040 09/07
                        Q0988 NOSIG=
201912221420 METAR COR EGLL 221420Z AUTO 26014KT 9999 FEW045 09/06 Q0988
                        NOSIG=
201912221350 METAR COR EGLL 221350Z AUTO 26014KT 9999 SCT020 SCT025 09/06
                        Q0988 NOSIG=
201912221320 METAR COR EGLL 221320Z AUTO 26012KT 9999 SCT022 09/06 Q0987
                        NOSIG=
201912221250 METAR COR EGLL 221250Z AUTO 25013KT 9999 NCD 09/06 Q0987
                        NOSIG=
201912221220 METAR COR EGLL 221220Z AUTO 26012KT 9999 NCD 09/06 Q0987
                        NOSIG=
201912221150 METAR COR EGLL 221150Z AUTO 27013KT 9999 NCD 08/06 Q0987
                        NOSIG=
201912221120 METAR COR EGLL 221120Z AUTO 27012KT 9999 NCD 08/06 Q0986
                        NOSIG=
201912221050 METAR COR EGLL 221050Z AUTO 27013KT 9999 NCD 08/06 Q0986
                        NOSIG=
201912221020 METAR COR EGLL 221020Z AUTO 27014KT 9999 NCD 08/06 Q0986
                        NOSIG=
201912220950 METAR COR EGLL 220950Z AUTO 28012KT 9999 SCT045 08/06 Q0985
                        NOSIG=
201912220920 METAR COR EGLL 220920Z AUTO 28013KT 9999 FEW030 BKN037 OVC049
                        08/07 Q0985 NOSIG=
201912220850 METAR COR EGLL 220850Z AUTO 28011KT 9999 SCT017 BKN027 BKN035
                        08/07 Q0984 NOSIG=
201912220820 METAR COR EGLL 220820Z AUTO 28013KT 9999 BKN015 OVC029 08/07
                        Q0983 NOSIG=
201912220750 METAR COR EGLL 220750Z AUTO 29010KT 9999 BKN013 OVC022 08/07
                        Q0982 BECMG BKN018=
201912220720 METAR COR EGLL 220720Z AUTO 29010KT 9999 -RA BKN011 OVC020
                        08/07 Q0981 NOSIG=
201912220650 METAR COR EGLL 220650Z AUTO 29011KT 9999 -RA BKN011 BKN017
                        08/07 Q0980 NOSIG=
201912220620 METAR COR EGLL 220620Z AUTO 29011KT 9999 -RA BKN010 OVC016
                        08/07 Q0979 TEMPO RA BKN008=
201912220550 METAR COR EGLL 220550Z AUTO 29010KT 9000 -RA BKN009 OVC042
                        08/07 Q0979 TEMPO RA=
201912220520 METAR COR EGLL 220520Z AUTO 30010KT 9999 -RA FEW008 BKN011
                        OVC027 08/08 Q0978 TEMPO RA BKN008=
201912220450 METAR COR EGLL 220450Z AUTO 27010KT 2900 -RADZ BKN006 BKN010
                        08/08 Q0977 TEMPO RADZ=
201912220420 METAR COR EGLL 220420Z AUTO 23006KT 7000 -RA FEW009 BKN032
                        BKN044 08/08 Q0976 TEMPO 4000 RA
                        BKN008=
201912220350 METAR COR EGLL 220350Z AUTO 22005KT 7000 -RA SCT037 BKN047
                        08/08 Q0975 TEMPO 4000 RA BKN012=
201912220320 METAR COR EGLL 220320Z AUTO 22004KT 7000 SCT049 08/08 Q0975
                        TEMPO 4000 RA BKN012=
201912220250 METAR COR EGLL 220250Z AUTO 23004KT 6000 FEW012 SCT035 BKN046
                        08/08 Q0975 TEMPO 4000 RA BKN012=
201912220220 METAR COR EGLL 220220Z AUTO 25004KT 220V300 5000 -DZ SCT014///
                        BKN023/// BKN036/// //////TCU 09/08
                        Q0974 TEMPO 4000 RA BKN012=
201912220150 METAR COR EGLL 220150Z AUTO 21005KT 7000 FEW027/// BKN036///
                        BKN048/// //////TCU 09/08 Q0974 TEMPO
                        4000 RA BKN012=
201912220120 METAR COR EGLL 220120Z AUTO 19006KT 7000 -RA BKN024/// BKN033///
                        BKN047/// //////TCU 09/09 Q0973 TEMPO
                        4000 RA BKN012=
201912220050 METAR COR EGLL 220050Z AUTO 19005KT 7000 -RA FEW035/// BKN044///
                        //////TCU 09/08 Q0973 NOSIG=
201912220020 METAR COR EGLL 220020Z AUTO 19006KT 8000 -RA FEW031/// BKN037///
                        //////TCU 09/08 Q0973 TEMPO SHRA=
201912212350 METAR COR EGLL 212350Z AUTO 19004KT 9999 -RA FEW021/// SCT028///
                        BKN042/// //////TCU 09/08 Q0972 TEMPO
                        SHRA=
201912212320 METAR COR EGLL 212320Z AUTO 22005KT 7000 -RA FEW025/// BKN033///
                        BKN043/// //////TCU 09/09 Q0972 TEMPO
                        RA=
201912212250 METAR COR EGLL 212250Z AUTO 20007KT 9999 -RA BKN040/// //////CB
                        09/08 Q0972 TEMPO BKN012=
201912212220 METAR COR EGLL 212220Z AUTO 17006KT 8000 -RA SCT014/// BKN023///
                        BKN032/// //////TCU 08/08 Q0972 TEMPO
                        SHRA BKN009=
201912212150 METAR COR EGLL 212150Z AUTO 12009KT 9999 -RA SCT009/// BKN012///
                        //////TCU 08/08 Q0971 TEMPO SHRA
                        BKN009=
201912212120 METAR COR EGLL 212120Z AUTO 11011KT 9999 -RA OVC010/// //////TCU
                        08/07 Q0971 TEMPO RA BKN009=
201912212050 METAR COR EGLL 212050Z AUTO 09013KT 8000 -RA BKN016/// BKN022///
                        OVC032/// //////TCU 07/07 Q0971 TEMPO
                        4000 RA BKN012=
201912212020 METAR COR EGLL 212020Z AUTO 10014KT 9999 -RA SCT018 BKN025
                        BKN030 07/06 Q0972 TEMPO RA BKN014=
201912211950 METAR COR EGLL 211950Z AUTO 10012KT 9999 -RA BKN027/// OVC048///
                        //////TCU 08/07 Q0972 TEMPO RA BKN014=
201912211920 METAR COR EGLL 211920Z AUTO 12013KT 9999 -RA SCT031 BKN037
                        08/06 Q0973 TEMPO 4000 RA=
201912211850 METAR COR EGLL 211850Z AUTO 15012KT 9999 -RA BKN033/// //////TCU
                        08/07 Q0974 TEMPO RA=
201912211820 METAR COR EGLL 211820Z AUTO 14010KT 9000 -RA FEW019/// SCT031///
                        BKN040/// //////TCU 09/08 Q0974 TEMPO
                        4000 RA BKN010=
201912211750 METAR COR EGLL 211750Z AUTO 14008KT 9999 FEW020/// SCT049///
                        //////CB 09/07 Q0975 RERA TEMPO RA=
201912211720 METAR COR EGLL 211720Z 16009KT 7000 RA SCT017CB BKN021 BKN027
                        09/08 Q0975 TEMPO BKN012=
201912211650 METAR EGLL 211650Z AUTO 14009KT 9000 -RA BKN022/// BKN039///
                        //////TCU 09/08 Q0976=
201912211620 METAR COR EGLL 211620Z AUTO 16009KT 9999 SCT021 09/08 Q0977
                        NOSIG=
201912211550 METAR COR EGLL 211550Z AUTO 18012KT 9999 SCT020 BKN048 10/08
                        Q0977 NOSIG=
201912211520 METAR COR EGLL 211520Z AUTO 17011KT 9999 -RA SCT019 BKN038
                        10/08 Q0978 NOSIG=
201912211450 METAR COR EGLL 211450Z AUTO 18011KT 150V230 9999 SCT017///
                        BKN023/// BKN032/// //////TCU 10/08
                        Q0978 NOSIG=
201912211420 METAR COR EGLL 211420Z AUTO 18010KT 140V230 9999 SCT018 BKN023
                        10/08 Q0978 TEMPO SHRA=
201912211350 METAR COR EGLL 211350Z AUTO 18012KT 150V230 9999 BKN020///
                        BKN029/// //////TCU 10/08 Q0978 TEMPO
                        SHRA=
201912211320 METAR COR EGLL 211320Z AUTO 18011KT 160V240 9999 FEW044 10/08
                        Q0979 TEMPO SHRA=
201912211250 METAR COR EGLL 211250Z AUTO 18012KT 160V230 9999 SCT017 10/08
                        Q0979 TEMPO SHRA=
201912211220 METAR COR EGLL 211220Z AUTO 19010KT 160V230 9999 NCD 10/08
                        Q0980 TEMPO SHRA=
201912211150 METAR COR EGLL 211150Z AUTO 19009KT 160V230 9999 NCD 10/09
                        Q0980 NOSIG=
201912211120 METAR COR EGLL 211120Z AUTO 20008KT 140V250 9999 FEW022 SCT041
                        09/08 Q0981 NOSIG=
201912211050 METAR COR EGLL 211050Z AUTO 22010KT 180V250 9999 -RA FEW022///
                        SCT037/// //////CB 09/08 Q0981 NOSIG=
201912211020 METAR COR EGLL 211020Z AUTO 21008KT 170V250 6000 -RA FEW014///
                        SCT023/// BKN031/// //////CB 09/08
                        Q0982 TEMPO 4000 SHRA BKN014=
201912210950 METAR COR EGLL 210950Z AUTO 18008G18KT 130V240 9999 -RA SCT020
                        SCT032 08/07 Q0981 TEMPO 4000 SHRA
                        BKN008=
201912210920 METAR COR EGLL 210920Z AUTO 18008KT 150V240 9999 NCD 07/07
                        Q0982 TEMPO SHRA=
201912210850 METAR COR EGLL 210850Z AUTO 20007KT 170V250 9999 NCD 07/07
                        Q0982 TEMPO SHRA=
201912210820 METAR COR EGLL 210820Z AUTO 18007KT 150V240 9999 -RA FEW031///
                        SCT045/// //////CB 07/06 Q0982 TEMPO
                        SHRA=
201912210750 METAR COR EGLL 210750Z AUTO 20007KT 9999 //////CB 07/06 Q0982
                        TEMPO SHRA=
201912210720 METAR COR EGLL 210720Z AUTO 18008KT 150V220 9999 //////CB
                        07/07 Q0982 TEMPO SHRA=
201912210650 METAR COR EGLL 210650Z AUTO 18011KT 9999 -RA SCT030/// BKN040///
                        //////TCU 07/07 Q0982 RESHRA TEMPO
                        SHRA=
201912210620 METAR COR EGLL 210620Z AUTO 21010KT 9999 -RA FEW014/// SCT019///
                        BKN028/// //////CB 08/07 Q0982 RESHRA
                        RERA TEMPO SHRA BKN014=
201912210550 METAR COR EGLL 210550Z AUTO 19015KT 9999 -RA FEW021/// SCT026///
                        BKN031/// //////CB 08/07 Q0982 RESHRA
                        TEMPO SHRA=
201912210520 METAR COR EGLL 210520Z AUTO 15007G17KT 080V180 9999 FEW029///
                        //////CB 07/07 Q0982 TEMPO 4000 SHRA
                        BKN014CB=
201912210450 METAR COR EGLL 210450Z AUTO 16007KT 090V220 9999 SCT020///
                        BKN027/// //////TCU 07/07 Q0982 TEMPO
                        4000 SHRA BKN014CB=
201912210420 METAR COR EGLL 210420Z AUTO 18006KT 9999 SCT016 SCT025 07/07
                        Q0983 TEMPO 4000 SHRA BKN014CB=
201912210350 METAR COR EGLL 210350Z AUTO 19007KT 9999 SCT019/// SCT027///
                        BKN039/// //////CB 08/07 Q0983 TEMPO
                        SHRA=
201912210320 METAR COR EGLL 210320Z AUTO 18009KT 9999 SCT035/// //////CB
                        08/07 Q0983 TEMPO SHRA=
201912210250 METAR COR EGLL 210250Z AUTO 19009KT 9999 SCT030/// BKN049///
                        //////TCU 08/07 Q0983 TEMPO SHRA=
201912210220 METAR COR EGLL 210220Z AUTO 17007KT 9999 -RA FEW033/// SCT042///
                        //////TCU 07/07 Q0983 TEMPO SHRA=
201912210150 METAR COR EGLL 210150Z AUTO 17007KT 9999 -RA SCT046/// //////CB
                        07/06 Q0984 TEMPO SHRA=
201912210120 METAR COR EGLL 210120Z AUTO 18006KT 9999 BKN039 07/06 Q0984
                        TEMPO SHRA=
201912210050 METAR COR EGLL 210050Z AUTO 19007KT 9999 -RA BKN038 07/06
                        Q0984 TEMPO SHRA=
201912210020 METAR COR EGLL 210020Z AUTO 19009KT 9999 FEW038/// BKN045///
                        //////CB 07/06 Q0984 TEMPO 7000 SHRA=
201912202350 METAR COR EGLL 202350Z AUTO 18006KT 9999 -RA FEW032/// SCT047///
                        //////TCU 06/05 Q0984 TEMPO 5000
                        SHRA=
201912202320 METAR COR EGLL 202320Z AUTO 15004KT 9999 NCD 04/04 Q0984
                        TEMPO SHRA=
201912202250 METAR COR EGLL 202250Z AUTO 18006KT 9999 NCD 05/04 Q0984
                        NOSIG=
201912202220 METAR COR EGLL 202220Z AUTO 18008KT 9999 NCD 05/05 Q0984
                        NOSIG=
201912202150 METAR COR EGLL 202150Z AUTO 19007KT 150V240 9999 NCD 06/05
                        Q0984 NOSIG=
201912202120 METAR COR EGLL 202120Z AUTO 20008KT 9999 NCD 05/05 Q0984
                        NOSIG=
201912202050 METAR COR EGLL 202050Z AUTO 21009KT 9999 NCD 06/05 Q0984
                        NOSIG=
201912202020 METAR COR EGLL 202020Z AUTO 21010KT 180V250 9999 NCD 06/05
                        Q0984 NOSIG=
201912201950 METAR COR EGLL 201950Z AUTO 22009KT 9999 NCD 06/05 Q0984
                        NOSIG=
201912201920 METAR COR EGLL 201920Z AUTO 23009KT 9999 NCD 07/06 Q0983
                        NOSIG=
201912201850 METAR COR EGLL 201850Z AUTO 23009KT 9999 NCD 07/06 Q0983
                        NOSIG=
201912201820 METAR EGLL 201820Z AUTO 22007KT 9999 FEW025 07/07 Q0983=
201912201750 METAR COR EGLL 201750Z AUTO 23008KT 9999 NCD 07/06 Q0982
                        NOSIG=
201912201720 METAR COR EGLL 201720Z AUTO 26008KT 9999 BKN045 07/06 Q0982
                        NOSIG=
201912201650 METAR COR EGLL 201650Z AUTO 27010KT 9999 -RA FEW026/// BKN032///
                        BKN040/// //////CB 07/06 Q0982 NOSIG=
201912201620 METAR COR EGLL 201620Z AUTO 27013KT 6000 -RA FEW013/// SCT021///
                        BKN026/// //////TCU 08/07 Q0981 TEMPO
                        4000 RA BKN013=
201912201550 METAR COR EGLL 201550Z AUTO 26016KT 8000 -RA SCT017/// BKN026///
                        BKN031/// //////TCU 08/07 Q0980 TEMPO
                        4000 RA=
201912201520 METAR COR EGLL 201520Z AUTO 24014KT 9999 SCT022/// SCT039///
                        BKN047/// //////CB 09/07 Q0979 NOSIG=
201912201450 METAR COR EGLL 201450Z AUTO 22012KT 9999 FEW030/// //////TCU
                        09/07 Q0979 TEMPO SHRA=
201912201420 METAR COR EGLL 201420Z AUTO 23012KT 9999 SCT028/// BKN049///
                        //////TCU 09/07 Q0979 RERA TEMPO
                        SHRA=
201912201350 METAR EGLL 201350Z AUTO 23014KT 3700 RA FEW019/// SCT025///
                        BKN030/// //////CB 10/08 Q0978=
201912201320 METAR COR EGLL 201320Z AUTO 23013KT 9999 SCT018 BKN022 BKN048
                        10/08 Q0978 TEMPO SHRA=
201912201250 METAR COR EGLL 201250Z AUTO 23014KT 9999 SCT016/// BKN023///
                        BKN036/// //////TCU 10/09 Q0978 TEMPO
                        SHRA=
201912201220 METAR COR EGLL 201220Z AUTO 23013KT 9999 SCT016 BKN043 10/09
                        Q0978 TEMPO SHRA=
201912201150 METAR COR EGLL 201150Z AUTO 23011KT 9999 -RA SCT012 SCT022
                        BKN033 09/09 Q0978 NOSIG=
201912201120 METAR COR EGLL 201120Z AUTO 24010KT 9999 -RA SCT011 BKN017
                        09/09 Q0978 NOSIG=
201912201050 METAR COR EGLL 201050Z AUTO 26012KT 9999 -RA BKN038 09/09
                        Q0978 NOSIG=
201912201020 METAR COR EGLL 201020Z AUTO 27014KT 9999 -RA FEW008/// SCT025///
                        BKN037/// //////TCU 09/09 Q0978 NOSIG=
201912200950 METAR COR EGLL 200950Z AUTO 24014KT 9000 -RA FEW002/// BKN008///
                        BKN020/// //////TCU 09/09 Q0977 RERA
                        BECMG BKN012=
201912200920 METAR COR EGLL 200920Z AUTO 22005KT 180V260 3800 RA SCT003///
                        BKN012/// BKN019/// //////TCU 09/09
                        Q0977 TEMPO BKN003=
201912200850 METAR COR EGLL 200850Z AUTO 23005KT 3700 -RA SCT003 BKN015
                        OVC038 09/09 Q0977 TEMPO BKN005=
201912200820 METAR COR EGLL 200820Z AUTO VRB02KT 3900 -RA BKN004 OVC031
                        09/09 Q0977 RERA BECMG BKN005=
201912200750 METAR COR EGLL 200750Z AUTO 29002KT 4200 RA BKN003 OVC006
                        09/09 Q0977 BECMG BKN005=
201912200720 METAR COR EGLL 200720Z AUTO 36001KT 4400 -RA BKN003/// OVC030///
                        //////TCU 09/09 Q0977 TEMPO 5000=
201912200650 METAR COR EGLL 200650Z AUTO 03002KT 3700 -RADZ BKN003 BKN014
                        OVC032 09/09 Q0977 TEMPO 5000=
201912200620 METAR COR EGLL 200620Z AUTO 06003KT 5000 -RA BKN003 OVC034
                        09/09 Q0978 RERA TEMPO 4000 RA=
201912200550 METAR COR EGLL 200550Z AUTO 06006KT 4300 RA SCT018 BKN031
                        BKN043 09/09 Q0978 TEMPO BKN003=
201912200520 METAR COR EGLL 200520Z AUTO 06005KT 5000 -RA FEW026/// SCT033///
                        BKN040/// //////TCU 09/09 Q0979 TEMPO
                        4000 RA BKN004=
201912200450 METAR COR EGLL 200450Z AUTO 07004KT 7000 -RA FEW004/// SCT027///
                        BKN037/// //////TCU 09/09 Q0980 TEMPO
                        4000 RA BKN004=
201912200420 METAR COR EGLL 200420Z AUTO 08006KT 9000 -RA FEW029/// BKN036///
                        //////TCU 09/09 Q0981 TEMPO 4000
                        RA BKN006=
201912200350 METAR COR EGLL 200350Z AUTO 07005KT 9999 -RA FEW006/// SCT038///
                        BKN044/// //////TCU 09/08 Q0981 TEMPO
                        4000 RA BKN006=
201912200320 METAR COR EGLL 200320Z AUTO 09005KT 9999 -RA SCT022/// BKN031///
                        BKN044/// //////TCU 08/08 Q0982 TEMPO
                        4000 RA BKN008=
201912200250 METAR COR EGLL 200250Z AUTO 09006KT 9999 -RA FEW036 BKN042
                        08/08 Q0983 TEMPO 4000 RA BKN014=
201912200220 METAR COR EGLL 200220Z AUTO 13005KT 7000 -RA FEW020/// SCT031///
                        BKN040/// //////TCU 09/08 Q0984 TEMPO
                        4000 RA BKN014=
201912200150 METAR COR EGLL 200150Z AUTO 13006KT 8000 -RA BKN045/// //////TCU
                        09/08 Q0985 TEMPO RA=
201912200120 METAR COR EGLL 200120Z AUTO 11007KT 9999 -RA NCD 09/08 Q0985
                        TEMPO RA=
201912200050 METAR COR EGLL 200050Z AUTO 13006KT 9999 NCD 09/08 Q0986
                        NOSIG=
201912200020 METAR COR EGLL 200020Z AUTO 13008KT 9999 FEW046 08/08 Q0987
                        TEMPO RA=
201912192350 METAR COR EGLL 192350Z AUTO 13005KT 100V160 9999 BKN048 09/08
                        Q0987 NOSIG=
201912192320 METAR COR EGLL 192320Z AUTO 16008KT 9999 NCD 10/09 Q0988
                        NOSIG=
201912192250 METAR COR EGLL 192250Z AUTO 18012KT 9999 FEW047 10/08 Q0989
                        TEMPO RA=
201912192220 METAR COR EGLL 192220Z AUTO 18013KT 9999 -RA SCT040 10/08
                        Q0989 TEMPO RA=
201912192150 METAR COR EGLL 192150Z AUTO 18017KT 9999 -RA NCD 12/08 Q0989
                        TEMPO RA=
201912192120 METAR COR EGLL 192120Z AUTO 17014KT 9999 NCD 12/08 Q0989
                        TEMPO RA=
201912192050 METAR COR EGLL 192050Z AUTO 19012KT 9999 FEW038 12/09 Q0990
                        NOSIG=
201912192020 METAR COR EGLL 192020Z AUTO 19014KT 9999 NCD 13/09 Q0990
                        NOSIG=
201912191950 METAR COR EGLL 191950Z AUTO 19013G23KT 9999 FEW037 13/09
                        Q0990 NOSIG=
201912191920 METAR COR EGLL 191920Z AUTO 17017KT 140V240 9999 FEW031///
                        SCT043/// //////TCU 13/09 Q0990 NOSIG=
201912191850 METAR COR EGLL 191850Z AUTO 18015KT 9999 SCT030/// BKN036///
                        BKN045/// //////CB 13/09 Q0991 NOSIG=
201912191820 METAR COR EGLL 191820Z AUTO 17012KT 9999 -RA BKN039/// //////CB
                        12/10 Q0991 TEMPO 4000 SHRA=
201912191750 METAR COR EGLL 191750Z AUTO 15011KT 9999 -RA FEW043/// //////CB
                        12/10 Q0991 TEMPO 4000 SHRA=
201912191720 METAR COR EGLL 191720Z AUTO 16011KT 9999 NCD 11/09 Q0992
                        TEMPO 4000 SHRA=
201912191650 METAR COR EGLL 191650Z AUTO 18014KT 9999 NCD 12/09 Q0992
                        TEMPO 4000 SHRA=
201912191620 METAR EGLL 191620Z 20019KT 9999 -SHRA SCT024CB BKN040 12/10
                        Q0993 RESHRA=
201912191550 METAR COR EGLL 191550Z AUTO 18018KT 9999 -RA SCT023 BKN030
                        13/10 Q0993 TEMPO 4000 SHRA=
201912191520 METAR COR EGLL 191520Z AUTO 17017KT 9999 BKN024 OVC044 12/10
                        Q0992 TEMPO 4000 SHRA=
201912191450 METAR COR EGLL 191450Z AUTO 16017KT 9999 SCT020 BKN029 OVC033
                        12/10 Q0993 TEMPO 4000 SHRA BKN012=
201912191420 METAR COR EGLL 191420Z AUTO 15014KT 9000 -RA SCT019/// BKN034///
                        BKN043/// //////TCU 11/10 Q0993 TEMPO
                        4000 SHRA BKN012=
201912191350 METAR COR EGLL 191350Z AUTO 16012KT 6000 -RA SCT019/// BKN023///
                        BKN038/// //////CB 12/10 Q0994 RERA
                        TEMPO 4000 RA=
201912191320 METAR EGLL 191320Z AUTO 15013KT 9999 -RA FEW024 BKN046 12/10
                        Q0994=
201912191250 METAR COR EGLL 191250Z AUTO 15010KT 120V200 9999 SCT023 13/10
                        Q0995 TEMPO RA=
201912191220 METAR COR EGLL 191220Z AUTO 16011KT 130V230 9999 FEW029 13/10
                        Q0997 TEMPO RA=
201912191150 METAR COR EGLL 191150Z AUTO 14010KT 120V200 9999 FEW027 13/10
                        Q0997 TEMPO RA=
201912191120 METAR COR EGLL 191120Z AUTO 17011KT 140V220 9999 BKN027 13/10
                        Q0998 NOSIG=
201912191050 METAR COR EGLL 191050Z AUTO 17010KT 140V220 9999 OVC031 13/10
                        Q0998 NOSIG=
201912191020 METAR COR EGLL 191020Z AUTO 16009KT 130V230 9999 BKN033 12/10
                        Q0999 NOSIG=
201912190950 METAR COR EGLL 190950Z AUTO 18010KT 150V240 9999 OVC038 12/11
                        Q0999 NOSIG=
201912190920 METAR COR EGLL 190920Z AUTO 18009KT 150V230 9999 SCT017 BKN027
                        BKN040 12/10 Q0999 NOSIG=
201912190850 METAR COR EGLL 190850Z AUTO 18009KT 9999 SCT015 BKN021 OVC030
                        12/11 Q0999 NOSIG=
201912190820 METAR COR EGLL 190820Z AUTO 18011KT 160V220 9999 BKN010 BKN015
                        OVC022 12/11 Q0999 BECMG SCT010=
201912190750 METAR COR EGLL 190750Z 18011KT 160V220 9000 -RA BKN010 OVC022
                        12/11 Q0999 TEMPO BKN009=
201912190720 METAR COR EGLL 190720Z AUTO 18011KT 9999 SCT013 BKN017 OVC028
                        12/11 Q0999 TEMPO BKN013=
201912190650 METAR COR EGLL 190650Z AUTO 18013G24KT 150V220 9999 BKN013
                        BKN019 OVC024 12/11 Q0999 TEMPO SCT012=
201912190620 METAR COR EGLL 190620Z AUTO 18016KT 9999 BKN013 BKN018 OVC040
                        12/10 Q0999 TEMPO SCT013=
201912190550 METAR COR EGLL 190550Z AUTO 18013KT 9999 BKN016 OVC031 11/10
                        Q1000 NOSIG=
201912190520 METAR COR EGLL 190520Z AUTO 16014G26KT 9999 BKN027 11/10
                        Q1000 NOSIG=
201912190450 METAR COR EGLL 190450Z AUTO 16012KT 9999 BKN028 11/10 Q1000
                        NOSIG=
201912190420 METAR COR EGLL 190420Z AUTO 16013KT 9999 -RA FEW048 11/10
                        Q1000 NOSIG=
201912190350 METAR COR EGLL 190350Z AUTO 15010KT 9999 -RA SCT014/// SCT037///
                        BKN049/// //////TCU 11/10 Q1000 NOSIG=
201912190320 METAR COR EGLL 190320Z AUTO 16010KT 9999 -RA BKN010/// OVC021///
                        //////TCU 11/10 Q1001 NOSIG=
201912190250 METAR COR EGLL 190250Z AUTO 17010KT 9999 -RA BKN011/// BKN016///
                        //////TCU 10/10 Q1001 TEMPO 4500
                        RA=
201912190220 METAR COR EGLL 190220Z AUTO 17010KT 9999 -RA BKN012/// BKN018///
                        //////TCU 10/10 Q1002 RERA TEMPO
                        4500 RA SCT012=
201912190150 METAR COR EGLL 190150Z 17011KT 9000 RA FEW009 BKN012 10/10
                        Q1002 TEMPO 4500 SCT012=
201912190120 METAR COR EGLL 190120Z AUTO 17010KT 9999 -RA SCT014 BKN046
                        10/09 Q1001 TEMPO 4500 RA BKN014=
201912190050 METAR COR EGLL 190050Z AUTO 17010KT 9999 -RA SCT014 SCT049
                        10/09 Q1002 TEMPO RA BKN014=
201912190020 METAR COR EGLL 190020Z AUTO 17011KT 9999 -RA FEW015/// SCT031///
                        //////TCU 10/09 Q1002 TEMPO 4500
                        RA=
201912182350 METAR COR EGLL 182350Z AUTO 17013KT 9999 -RA FEW039/// //////TCU
                        10/09 Q1003 TEMPO 4500 RA=
201912182320 METAR COR EGLL 182320Z AUTO 18014KT 9999 -RA NCD 10/09 Q1003
                        TEMPO RA=
201912182250 METAR COR EGLL 182250Z AUTO 17011KT 9999 -RA SCT043 10/09
                        Q1003 TEMPO RA=
201912182220 METAR COR EGLL 182220Z AUTO 17009KT 9999 -RA BKN047 10/09
                        Q1003 TEMPO RA=
201912182150 METAR COR EGLL 182150Z AUTO 17012KT 9999 -RA SCT045 10/09
                        Q1003 NOSIG=
201912182120 METAR COR EGLL 182120Z AUTO 16014KT 9999 -RA //////TCU 10/09
                        Q1003 TEMPO RA=
201912182050 METAR COR EGLL 182050Z AUTO 16014KT 9999 -RA SCT018 SCT038
                        10/09 Q1003 TEMPO RA BKN012=
201912182020 METAR COR EGLL 182020Z AUTO 15013KT 9999 -RA FEW045 10/09
                        Q1003 TEMPO RA BKN012=
201912181950 METAR COR EGLL 181950Z AUTO 16014KT 9999 -RA BKN018 BKN049
                        09/09 Q1004 TEMPO RA BKN012=
201912181920 METAR COR EGLL 181920Z AUTO 15012KT 9999 -RA FEW026 BKN046
                        09/08 Q1004 TEMPO 4000 RA=
201912181850 METAR COR EGLL 181850Z AUTO 15012KT 9999 -RA FEW031 BKN039
                        BKN046 09/08 Q1004 TEMPO 4000 RA=
201912181820 METAR COR EGLL 181820Z AUTO 15012KT 9999 -RA SCT027 BKN039
                        BKN046 09/07 Q1005 TEMPO 4000 RA=
201912181750 METAR COR EGLL 181750Z AUTO 14013KT 9999 -RA FEW026 09/07
                        Q1005 TEMPO 4000 RA=
201912181720 METAR COR EGLL 181720Z AUTO 15014KT 9999 NCD 09/06 Q1005
                        TEMPO 4000 RA=
201912181650 METAR COR EGLL 181650Z AUTO 13012KT 9999 NCD 09/06 Q1005
                        NOSIG=
201912181620 METAR COR EGLL 181620Z AUTO 14012KT 9999 NCD 09/06 Q1006
                        NOSIG=
201912181550 METAR COR EGLL 181550Z AUTO 13011KT 9999 NCD 09/06 Q1006
                        NOSIG=
201912181520 METAR COR EGLL 181520Z AUTO 13012KT 9999 NCD 09/06 Q1007
                        NOSIG=
201912181450 METAR COR EGLL 181450Z AUTO 13011KT 9999 NCD 09/06 Q1007
                        NOSIG=
201912181420 METAR COR EGLL 181420Z AUTO 14011KT 9999 NCD 09/07 Q1008
                        NOSIG=
201912181350 METAR EGLL 181350Z AUTO 16011KT 9999 FEW039 09/07 Q1008=
201912181320 METAR COR EGLL 181320Z AUTO 16011KT 9999 FEW032 SCT039 10/07
                        Q1009 NOSIG=
201912181250 METAR COR EGLL 181250Z AUTO 15010KT 9999 FEW027 SCT032 10/07
                        Q1009 NOSIG=
201912181220 METAR COR EGLL 181220Z AUTO 15010KT 9999 NCD 10/08 Q1010
                        NOSIG=
201912181150 METAR COR EGLL 181150Z AUTO 15008KT 9999 NCD 09/08 Q1010
                        NOSIG=
201912181120 METAR COR EGLL 181120Z AUTO 16007KT 9999 NCD 08/07 Q1010
                        NOSIG=
201912181050 METAR COR EGLL 181050Z AUTO 16008KT 9999 NCD 07/07 Q1010
                        NOSIG=
201912181020 METAR COR EGLL 181020Z AUTO 14007KT 9999 NCD 07/06 Q1011
                        NOSIG=
201912180950 METAR COR EGLL 180950Z AUTO 15004KT 9999 NCD 05/05 Q1011
                        NOSIG=
201912180920 METAR COR EGLL 180920Z AUTO 16005KT 130V220 9999 NCD 05/05
                        Q1010 NOSIG=
201912180850 METAR COR EGLL 180850Z AUTO 14007KT 120V220 9999 NCD 04/04
                        Q1010 NOSIG=
201912180820 METAR COR EGLL 180820Z AUTO 17006KT 140V230 9999 NCD 04/03
                        Q1010 NOSIG=
201912180750 METAR COR EGLL 180750Z AUTO 18006KT 140V220 9999 FEW044 03/03
                        Q1010 NOSIG=
201912180720 METAR COR EGLL 180720Z AUTO 18006KT 150V230 9999 NCD 03/03
                        Q1010 NOSIG=
201912180650 METAR COR EGLL 180650Z AUTO 18006KT 160V220 9999 FEW049 03/03
                        Q1010 NOSIG=
201912180620 METAR COR EGLL 180620Z 16004KT 120V210 9000 BKN047 02/02
                        Q1010 NOSIG=
201912180550 METAR COR EGLL 180550Z 16004KT 110V240 8000 NSC 03/03 Q1009
                        NOSIG=
201912180520 METAR COR EGLL 180520Z VRB03KT 8000 3000S VCFG NSC 01/01
                        Q1009 NOSIG=
201912180450 METAR COR EGLL 180450Z VRB02KT 7000 2000S VCFG NSC 01/01
                        Q1009 BECMG 9999=
201912180420 METAR COR EGLL 180420Z 07002KT 1500 0800SW BR BCFG BKN000
                        01/01 Q1009 TEMPO 3000=
201912180350 METAR COR EGLL 180350Z VRB01KT 0300 FG BKN000 02/02 Q1009
                        NOSIG=
201912180320 METAR COR EGLL 180320Z AUTO 01001KT 0150 R27R/0275 FG FEW000
                        02/02 Q1009 NOSIG=
201912180250 METAR COR EGLL 180250Z 04001KT 0350 R27R/0650 FG VV/// 02/02
                        Q1009 NOSIG=
201912180220 METAR COR EGLL 180220Z 04001KT 0350 R27R/0650 FG BKN000 02/02
                        Q1009 NOSIG=
201912180150 METAR COR EGLL 180150Z AUTO 16001KT 0150 R27R/0300 FG NCD
                        03/03 Q1008 TEMPO 3000 BR=
201912180120 METAR COR EGLL 180120Z VRB02KT 1000 R27R/0400 BR BCFG SCT000
                        04/04 Q1008 TEMPO 5000 BR FEW001=
201912180050 METAR COR EGLL 180050Z 18003KT 0400 R27R/1100 FG BKN000 05/04
                        Q1008 TEMPO 5000 BR FEW001=
201912180020 METAR COR EGLL 180020Z 20003KT 2500 1000S R27R/P1500 BR PRFG
                        BKN002 05/05 Q1007 TEMPO 0500 FG
                        BKN001=
201912172350 METAR COR EGLL 172350Z 20004KT 4500 BR SCT004 BKN005 06/05
                        Q1007 TEMPO BKN004=
201912172320 METAR COR EGLL 172320Z VRB03KT 3500 BR BKN004 OVC006 06/05
                        Q1007 TEMPO 2500 BR SCT004=
201912172250 METAR COR EGLL 172250Z VRB01KT 6000 BKN005 06/06 Q1007 TEMPO
                        4000 BR SCT005=
201912172220 METAR COR EGLL 172220Z VRB02KT 5000 BR BKN006 06/05 Q1006
                        BECMG 3000=
201912172150 METAR COR EGLL 172150Z AUTO VRB03KT 6000 SCT008 06/05 Q1006
                        TEMPO BKN006=
201912172120 METAR COR EGLL 172120Z AUTO 24004KT 7000 NCD 06/05 Q1006
                        NOSIG=
201912172050 METAR COR EGLL 172050Z AUTO 24007KT 9999 BKN008 06/05 Q1005
                        TEMPO FEW008=
201912172020 METAR COR EGLL 172020Z AUTO 23008KT 6000 BKN012 06/06 Q1005
                        TEMPO BKN006=
201912171950 METAR COR EGLL 171950Z AUTO 23007KT 6000 FEW008 BKN013 BKN032
                        06/06 Q1005 TEMPO BKN006=
201912171920 METAR COR EGLL 171920Z 23008KT 8000 FEW010 BKN030 07/06 Q1004
                        TEMPO BKN006=
201912171850 METAR COR EGLL 171850Z 24007KT 6000 FEW006 BKN030 07/06 Q1004
                        NOSIG=
201912171820 METAR COR EGLL 171820Z 22006KT 8000 SCT020 BKN035 07/06 Q1004
                        NOSIG=
201912171750 METAR COR EGLL 171750Z 22006KT 9999 FEW007 BKN025 07/07 Q1003
                        NOSIG=
201912171720 METAR COR EGLL 171720Z AUTO 23006KT 200V260 7000 BKN027 BKN037
                        07/07 Q1003 NOSIG=
201912171650 METAR COR EGLL 171650Z AUTO 25006KT 9999 SCT024 BKN029 BKN033
                        07/07 Q1003 NOSIG=
201912171620 METAR COR EGLL 171620Z AUTO 25008KT 5000 -RA FEW007/// SCT013///
                        BKN023/// 07/07 Q1002 NOSIG=
201912171550 METAR COR EGLL 171550Z AUTO 22006KT 180V250 7000 -RA FEW016
                        BKN025 OVC043 07/07 Q1002 NOSIG=
201912171520 METAR COR EGLL 171520Z AUTO 22007KT 6000 -RA SCT027 BKN032
                        BKN039 07/07 Q1002 NOSIG=
201912171450 METAR COR EGLL 171450Z AUTO 25008KT 220V290 7000 -RA SCT009
                        SCT019 BKN028 07/07 Q1001 NOSIG=
201912171420 METAR COR EGLL 171420Z AUTO 28006KT 7000 -RA FEW010 SCT016
                        BKN022 07/07 Q1001 TEMPO 4000 RADZ
                        BKN008=
201912171350 METAR EGLL 171350Z AUTO 27008KT 8000 -RA SCT022 BKN030 OVC038
                        07/07 Q1001=
201912171320 METAR COR EGLL 171320Z AUTO 28006KT 8000 -RA FEW017 SCT027
                        BKN031 08/07 Q1001 TEMPO 4000 RADZ
                        BKN008=
201912171250 METAR COR EGLL 171250Z AUTO 27007KT 9999 -RA FEW008 BKN013
                        08/07 Q1000 TEMPO 4000 RADZ BKN008=
201912171220 METAR COR EGLL 171220Z AUTO 30004KT 9999 SCT014 BKN032 BKN038
                        08/07 Q1000 TEMPO 4000 RADZ BKN008=
201912171150 METAR COR EGLL 171150Z AUTO 29004KT 9000 SCT013 SCT032 BKN040
                        07/07 Q1000 NOSIG=
201912171120 METAR COR EGLL 171120Z AUTO 30004KT 260V330 9999 FEW013 BKN032
                        07/06 Q1000 NOSIG=
201912171050 METAR COR EGLL 171050Z AUTO 31003KT 9999 FEW011 07/06 Q0999
                        NOSIG=
201912171020 METAR COR EGLL 171020Z AUTO 32004KT 290V350 9000 -RA FEW010
                        07/06 Q0999 NOSIG=
201912170950 METAR COR EGLL 170950Z AUTO VRB03KT 7000 -RA SCT026 BKN040
                        07/06 Q0999 NOSIG=
201912170920 METAR COR EGLL 170920Z AUTO 32004KT 290V360 8000 -RA BKN032
                        BKN039 07/06 Q0998 NOSIG=
201912170850 METAR COR EGLL 170850Z AUTO VRB02KT 8000 -RA BKN045 06/06
                        Q0998 NOSIG=
201912170820 METAR COR EGLL 170820Z AUTO 35003KT 7000 -RA NCD 06/06 Q0997
                        NOSIG=
201912170750 METAR COR EGLL 170750Z AUTO 35003KT 7000 -RA FEW007 06/06
                        Q0997 TEMPO BKN007=
201912170720 METAR COR EGLL 170720Z AUTO VRB03KT 7000 -RA FEW007 06/06
                        Q0997 TEMPO BKN007=
201912170650 METAR COR EGLL 170650Z AUTO VRB02KT 6000 -RA SCT023 BKN029
                        BKN035 06/06 Q0997 RERA TEMPO 4000=
201912170620 METAR COR EGLL 170620Z AUTO VRB03KT 5000 -RA BKN024 OVC046
                        06/06 Q0997 TEMPO BKN014=
201912170550 METAR COR EGLL 170550Z AUTO 36004KT 6000 -RA BKN030 06/06
                        Q0997 TEMPO BKN014=
201912170520 METAR COR EGLL 170520Z AUTO 36004KT 6000 -RA SCT014 BKN036
                        06/06 Q0997 TEMPO BKN014=
201912170450 METAR COR EGLL 170450Z AUTO 01004KT 330V040 6000 -RA BKN011
                        07/06 Q0997 TEMPO SCT011=
201912170420 METAR COR EGLL 170420Z AUTO VRB03KT 6000 -RA FEW013 07/06
                        Q0997 TEMPO BKN013=
201912170350 METAR COR EGLL 170350Z AUTO 05005KT 6000 -RA FEW011 07/06
                        Q0997 NOSIG=
201912170320 METAR COR EGLL 170320Z AUTO VRB03KT 5000 -DZ SCT005 SCT008
                        BKN012 07/07 Q0997 TEMPO BKN005=
201912170250 METAR COR EGLL 170250Z AUTO VRB02KT 6000 -RA SCT005 BKN012
                        BKN040 07/07 Q0997 TEMPO BKN005=
201912170220 METAR EGLL 170220Z AUTO 07003KT 8000 -RA FEW009 SCT016 BKN022
                        07/07 Q0998=
201912170150 METAR COR EGLL 170150Z AUTO 07002KT 9999 -RA NCD 07/07 Q0998
                        NOSIG=
201912170120 METAR COR EGLL 170120Z AUTO 05003KT 9999 -RA SCT029 SCT038
                        07/07 Q0997 NOSIG=
201912170050 METAR COR EGLL 170050Z AUTO 08003KT 9999 -RA BKN038 07/07
                        Q0998 NOSIG=
201912170020 METAR COR EGLL 170020Z AUTO 07003KT 9999 -RA BKN038 07/07
                        Q0997 NOSIG=
201912162350 METAR COR EGLL 162350Z AUTO 08003KT 9000 -RA BKN037 07/07
                        Q0998 TEMPO RA=
201912162320 METAR COR EGLL 162320Z AUTO 10004KT 9000 -RA BKN027 07/07
                        Q0998 TEMPO RA=
201912162250 METAR COR EGLL 162250Z AUTO 09004KT 5000 -RA FEW009 OVC028
                        07/07 Q0998 TEMPO RA=
201912162220 METAR COR EGLL 162220Z AUTO 09003KT 7000 -RA FEW011 SCT027
                        BKN035 07/07 Q0998 TEMPO RA=
201912162150 METAR COR EGLL 162150Z AUTO 09004KT 7000 -RA FEW019 BKN032
                        07/07 Q0998 TEMPO RA=
201912162120 METAR COR EGLL 162120Z AUTO 09004KT 8000 -RA SCT016 BKN035
                        BKN045 07/07 Q0999 TEMPO RA=
201912162050 METAR COR EGLL 162050Z AUTO 08003KT 9000 -RA BKN040 07/07
                        Q0999 TEMPO RA=
201912162020 METAR COR EGLL 162020Z AUTO 09004KT 8000 -RA SCT014 BKN039
                        07/07 Q0999 TEMPO 5000 RA BKN014=
201912161950 METAR COR EGLL 161950Z AUTO 08003KT 9999 -RA SCT042 BKN049
                        07/06 Q0999 TEMPO RA=
201912161920 METAR COR EGLL 161920Z AUTO 08002KT 9999 SCT045 07/06 Q0999
                        NOSIG=
201912161850 METAR COR EGLL 161850Z AUTO VRB02KT 9999 NCD 07/06 Q0999
                        NOSIG=
201912161820 METAR COR EGLL 161820Z AUTO VRB02KT 9999 -RA FEW027 07/06
                        Q1000 NOSIG=
201912161750 METAR COR EGLL 161750Z AUTO 13004KT 090V190 9999 NCD 08/07
                        Q1000 NOSIG=
201912161720 METAR COR EGLL 161720Z AUTO 13004KT 070V180 9999 FEW049 07/06
                        Q1000 NOSIG=
201912161650 METAR COR EGLL 161650Z AUTO 14005KT 060V170 9999 BKN044 08/07
                        Q1000 NOSIG=
201912161620 METAR COR EGLL 161620Z AUTO 14006KT 9999 BKN046 08/07 Q1000
                        NOSIG=
201912161550 METAR COR EGLL 161550Z AUTO 14005KT 070V200 9999 BKN045 08/06
                        Q1000 NOSIG=
201912161520 METAR COR EGLL 161520Z AUTO VRB06KT 9999 BKN048 08/07 Q1000
                        NOSIG=
201912161450 METAR COR EGLL 161450Z AUTO 19006KT 130V240 9999 BKN048 08/06
                        Q1000 NOSIG=
201912161420 METAR COR EGLL 161420Z AUTO 19005KT 140V250 9999 FEW039 08/06
                        Q1000 NOSIG=
201912161350 METAR COR EGLL 161350Z AUTO 18007KT 140V230 9999 NCD 08/06
                        Q1000 NOSIG=
201912161320 METAR COR EGLL 161320Z AUTO 19006KT 160V250 9999 NCD 08/07
                        Q1000 NOSIG=
201912161250 METAR COR EGLL 161250Z AUTO 20007KT 150V250 9999 NCD 08/07
                        Q1000 NOSIG=
201912161220 METAR COR EGLL 161220Z AUTO 21008KT 160V260 9999 NCD 08/07
                        Q1001 NOSIG=
201912161150 METAR COR EGLL 161150Z AUTO 21010KT 170V250 9999 NCD 08/07
                        Q1001 NOSIG=
201912161120 METAR COR EGLL 161120Z AUTO 20008KT 170V250 9999 NCD 08/07
                        Q1001 NOSIG=
201912161050 METAR COR EGLL 161050Z AUTO 21008KT 170V240 9999 NCD 08/06
                        Q1002 NOSIG=
201912161020 METAR COR EGLL 161020Z AUTO 19008KT 160V240 9999 NCD 07/06
                        Q1001 NOSIG=
201912160950 METAR COR EGLL 160950Z AUTO 20009KT 160V240 9999 NCD 07/06
                        Q1001 NOSIG=
201912160920 METAR COR EGLL 160920Z AUTO 20007KT 170V240 9999 NCD 07/05
                        Q1001 NOSIG=
201912160850 METAR COR EGLL 160850Z AUTO 20006KT 170V260 9999 NCD 07/05
                        Q1001 NOSIG=
201912160820 METAR COR EGLL 160820Z AUTO 20006KT 170V240 9999 NCD 07/05
                        Q1001 NOSIG=
201912160750 METAR COR EGLL 160750Z AUTO 19007KT 9999 NCD 07/05 Q1000
                        NOSIG=
201912160720 METAR COR EGLL 160720Z AUTO 20008KT 9999 NCD 07/06 Q1000
                        NOSIG=
201912160650 METAR COR EGLL 160650Z AUTO 19006KT 150V220 9999 NCD 07/06
                        Q0999 NOSIG=
201912160620 METAR COR EGLL 160620Z AUTO 20005KT 140V290 9999 NCD 07/06
                        Q0999 NOSIG=
201912160550 METAR COR EGLL 160550Z AUTO 19006KT 140V230 9999 NCD 07/06
                        Q0999 NOSIG=
201912160520 METAR COR EGLL 160520Z AUTO 20007KT 9999 NCD 07/06 Q0999
                        NOSIG=
201912160450 METAR COR EGLL 160450Z AUTO 21006KT 160V250 9999 NCD 07/06
                        Q0999 NOSIG=
201912160420 METAR COR EGLL 160420Z AUTO 20006KT 9999 NCD 07/06 Q0999
                        NOSIG=
201912160350 METAR COR EGLL 160350Z AUTO 21005KT 9999 NCD 07/06 Q0999
                        NOSIG=
201912160320 METAR COR EGLL 160320Z AUTO 20008KT 9999 NCD 07/06 Q0999
                        NOSIG=
201912160250 METAR COR EGLL 160250Z AUTO 19008KT 9999 NCD 07/06 Q0999
                        NOSIG=
201912160220 METAR COR EGLL 160220Z AUTO 19008KT 9999 NCD 07/05 Q0999
                        NOSIG=
201912160150 METAR COR EGLL 160150Z AUTO 20010KT 9999 NCD 07/05 Q0999
                        NOSIG=
201912160120 METAR COR EGLL 160120Z AUTO 20010KT 9999 NCD 07/05 Q0999
                        NOSIG=
201912160050 METAR COR EGLL 160050Z AUTO 19009KT 9999 //////TCU 06/05
                        Q0999 NOSIG=
201912160020 METAR COR EGLL 160020Z AUTO 20009KT 9999 //////TCU 06/05
                        Q0999 NOSIG=
201912152350 METAR COR EGLL 152350Z AUTO 21008KT 9999 -RA SCT040/// //////CB
                        06/05 Q0999 TEMPO RA=
201912152320 METAR COR EGLL 152320Z 22011KT 9999 -RA FEW022CB SCT027 BKN032
                        05/05 Q0999 TEMPO RA=
201912152250 METAR COR EGLL 152250Z 26022G35KT 7000 -RA SCT016CB SCT027
                        BKN043 07/05 Q0999 RETS NOSIG=
201912152220 METAR COR EGLL 152220Z AUTO 19011KT 160V240 9999 FEW040///
                        //////CB 08/06 Q0998 TEMPO 4000 SHRA=
201912152150 METAR COR EGLL 152150Z AUTO 18011KT 140V240 9999 //////CB
                        07/06 Q0999 TEMPO 4000 RA=
201912152120 METAR COR EGLL 152120Z AUTO 20010KT 160V240 9999 FEW043///
                        //////CB 07/05 Q0999 TEMPO 4000 SHRA=
201912152050 METAR COR EGLL 152050Z AUTO 21012KT 180V250 9999 -RA SCT020///
                        BKN027/// BKN034/// //////TCU 07/06
                        Q0999 RESHRA TEMPO 4000 SHRA=
201912152020 METAR COR EGLL 152020Z AUTO 21011KT 180V250 9999 -RA BKN038///
                        //////CB 08/05 Q0999 TEMPO 4000 SHRA=
201912151950 METAR COR EGLL 151950Z AUTO 20012KT 9999 //////CB 08/05 Q0999
                        TEMPO 4000 SHRA=
201912151920 METAR COR EGLL 151920Z AUTO 19008KT 160V240 9999 SCT029///
                        SCT043/// //////TCU 07/05 Q0999 RESHRA
                        TEMPO 4000 SHRA=
201912151850 METAR COR EGLL 151850Z 22009KT 190V250 9999 SHRA FEW024 BKN034
                        BKN046 08/06 Q0999 TEMPO 4000=
201912151820 METAR COR EGLL 151820Z AUTO 21011KT 180V250 9999 -RA FEW034
                        SCT047 08/05 Q0999 TEMPO SHRA=
201912151750 METAR COR EGLL 151750Z AUTO 21013KT 9999 NCD 08/05 Q0999
                        NOSIG=
201912151720 METAR COR EGLL 151720Z AUTO 21014KT 180V240 9999 NCD 08/05
                        Q0998 TEMPO SHRA=
201912151650 METAR COR EGLL 151650Z AUTO 21011KT 180V250 9999 NCD 08/04
                        Q0998 NOSIG=
201912151620 METAR COR EGLL 151620Z AUTO 21011KT 9999 NCD 08/03 Q0998
                        NOSIG=
201912151550 METAR COR EGLL 151550Z AUTO 22012KT 9999 NCD 09/02 Q0998
                        NOSIG=
201912151520 METAR COR EGLL 151520Z AUTO 24015KT 9999 NCD 09/02 Q0998
                        NOSIG=
201912151450 METAR COR EGLL 151450Z AUTO 23015KT 9999 NCD 10/03 Q0998
                        NOSIG=
201912151420 METAR COR EGLL 151420Z AUTO 24016KT 9999 NCD 10/03 Q0997
                        NOSIG=
201912151350 METAR COR EGLL 151350Z AUTO 24015KT 9999 NCD 10/04 Q0997
                        NOSIG=
201912151320 METAR COR EGLL 151320Z AUTO 24014KT 9999 NCD 10/04 Q0997
                        NOSIG=
201912151250 METAR COR EGLL 151250Z AUTO 24014KT 9999 NCD 10/04 Q0997
                        NOSIG=
201912151220 METAR COR EGLL 151220Z AUTO 24013KT 9999 NCD 10/04 Q0997
                        NOSIG=
201912151150 METAR COR EGLL 151150Z AUTO 24014G25KT 9999 NCD 09/04 Q0997
                        NOSIG=
201912151120 METAR COR EGLL 151120Z AUTO 24016KT 9999 FEW047 09/04 Q0996
                        NOSIG=
201912151050 METAR COR EGLL 151050Z AUTO 23012KT 9999 NCD 09/04 Q0996
                        NOSIG=
201912151020 METAR COR EGLL 151020Z AUTO 23015KT 9999 NCD 08/04 Q0996
                        NOSIG=
201912150950 METAR COR EGLL 150950Z AUTO 23015KT 9999 NCD 08/04 Q0995
                        NOSIG=
201912150920 METAR COR EGLL 150920Z AUTO 22012KT 9999 SCT036 SCT045 07/04
                        Q0995 NOSIG=
201912150850 METAR COR EGLL 150850Z AUTO 22012KT 9999 SCT042 06/03 Q0995
                        NOSIG=
201912150820 METAR COR EGLL 150820Z AUTO 22009KT 9999 SCT049 06/03 Q0994
                        NOSIG=
201912150750 METAR COR EGLL 150750Z AUTO 21011KT 9999 NCD 06/02 Q0994
                        NOSIG=
201912150720 METAR COR EGLL 150720Z AUTO 23011KT 9999 NCD 06/02 Q0993
                        NOSIG=
201912150650 METAR COR EGLL 150650Z AUTO 23012KT 9999 NCD 06/02 Q0993
                        TEMPO SHRA=
201912150620 METAR COR EGLL 150620Z AUTO 24014KT 9999 FEW037 05/02 Q0993
                        TEMPO SHRA=
201912150550 METAR COR EGLL 150550Z AUTO 24013KT 9999 FEW035 05/02 Q0992
                        NOSIG=
201912150520 METAR COR EGLL 150520Z AUTO 23014KT 9999 NCD 05/02 Q0992
                        TEMPO SHRA=
201912150450 METAR COR EGLL 150450Z AUTO 24014KT 9999 NCD 05/01 Q0992
                        NOSIG=
201912150420 METAR COR EGLL 150420Z AUTO 24016KT 9999 NCD 06/02 Q0991
                        NOSIG=
201912150350 METAR COR EGLL 150350Z AUTO 24017KT 9999 NCD 06/02 Q0990
                        NOSIG=
201912150320 METAR COR EGLL 150320Z AUTO 25016KT 9999 NCD 06/04 Q0990
                        NOSIG=
201912150250 METAR COR EGLL 150250Z AUTO 25016KT 9999 NCD 06/04 Q0989
                        NOSIG=
201912150220 METAR COR EGLL 150220Z AUTO 24013KT 9999 FEW025 07/05 Q0988
                        NOSIG=
201912150150 METAR COR EGLL 150150Z AUTO 23013KT 9999 -RA SCT027/// //////TCU
                        06/05 Q0988 TEMPO SHRA=
201912150120 METAR COR EGLL 150120Z AUTO 23011KT 9999 NCD 06/05 Q0988
                        TEMPO SHRA=
201912150050 METAR COR EGLL 150050Z AUTO 23010KT 9999 FEW048 07/06 Q0987
                        NOSIG=
201912150020 METAR COR EGLL 150020Z AUTO 27016KT 9999 -RA SCT020 BKN034
                        07/05 Q0988 NOSIG=
201912142350 METAR COR EGLL 142350Z AUTO 24015KT 9999 -RA FEW028/// SCT032///
                        BKN039/// //////CB 07/06 Q0987 TEMPO
                        4000 RA=
201912142320 METAR COR EGLL 142320Z AUTO 22012KT 6000 -RA SCT025/// BKN029///
                        //////CB 07/06 Q0987 TEMPO 4000 RA=
201912142250 METAR COR EGLL 142250Z AUTO 21008KT 180V260 9999 FEW031///
                        SCT042/// //////CB 07/06 Q0988 RETS
                        RERA TEMPO 4000 RA=
201912142220 METAR COR EGLL 142220Z 26016KT 3000 +TSRA SCT014CB BKN023
                        08/07 Q0989 TEMPO 6000 RA BKN014=
201912142150 METAR COR EGLL 142150Z AUTO 22016KT 6000 -RA SCT024/// BKN029///
                        BKN036/// //////CB 09/07 Q0989 TEMPO
                        3000 +RA=
201912142120 METAR COR EGLL 142120Z AUTO 20015G25KT 170V250 9999 -RA FEW027///
                        SCT040/// //////CB 09/05 Q0989 TEMPO
                        4000 RA=
201912142050 METAR COR EGLL 142050Z AUTO 19014G25KT 160V240 9999 -RA BKN046///
                        //////TCU 09/05 Q0990 TEMPO 4000
                        RA=
201912142020 METAR COR EGLL 142020Z AUTO 18012KT 150V220 9999 FEW027 BKN039
                        08/04 Q0990 TEMPO 4000 RA=
201912141950 METAR COR EGLL 141950Z AUTO 17010KT 140V250 9999 NCD 07/03
                        Q0991 TEMPO 4000 RA=
201912141920 METAR COR EGLL 141920Z AUTO 17007KT 130V240 9999 NCD 06/02
                        Q0992 NOSIG=
201912141850 METAR COR EGLL 141850Z AUTO 17008KT 140V240 9999 NCD 06/01
                        Q0993 NOSIG=
201912141820 METAR COR EGLL 141820Z AUTO 20010KT 170V240 9999 NCD 06/01
                        Q0994 NOSIG=
201912141750 METAR COR EGLL 141750Z AUTO 20010KT 9999 NCD 06/00 Q0994
                        NOSIG=
201912141720 METAR COR EGLL 141720Z AUTO 22010KT 9999 NCD 06/00 Q0994
                        NOSIG=
201912141650 METAR COR EGLL 141650Z AUTO 23012KT 9999 NCD 06/01 Q0995
                        NOSIG=
201912141620 METAR COR EGLL 141620Z AUTO 24012KT 9999 FEW040 07/01 Q0995
                        NOSIG=
201912141550 METAR COR EGLL 141550Z AUTO 25010KT 9999 SCT031 07/02 Q0995
                        NOSIG=
201912141520 METAR COR EGLL 141520Z AUTO 25014KT 9999 SCT032 SCT040 07/01
                        Q0994 NOSIG=
201912141450 METAR COR EGLL 141450Z AUTO 26015KT 9999 SCT033 BKN041 07/01
                        Q0994 NOSIG=
201912141420 METAR COR EGLL 141420Z AUTO 27016KT 9999 BKN040 BKN047 07/00
                        Q0994 NOSIG=
201912141350 METAR COR EGLL 141350Z AUTO 27018KT 9999 SCT046 08/M00 Q0993
                        NOSIG=
201912141320 METAR COR EGLL 141320Z AUTO 28021G32KT 9999 FEW049 08/M00
                        Q0993 NOSIG=
201912141250 METAR COR EGLL 141250Z AUTO 27020G30KT 9999 SCT046 08/00
                        Q0992 NOSIG=
201912141220 METAR COR EGLL 141220Z AUTO 27022KT 9999 FEW044 08/01 Q0992
                        NOSIG=
201912141150 METAR COR EGLL 141150Z AUTO 26024KT 9999 NCD 07/01 Q0991
                        NOSIG=
201912141120 METAR COR EGLL 141120Z AUTO 26022KT 9999 FEW037/// //////TCU
                        07/02 Q0990 NOSIG=
201912141050 METAR COR EGLL 141050Z AUTO 27026G36KT 9999 FEW033/// //////TCU
                        08/03 Q0990 TEMPO SHRA=
201912141020 METAR COR EGLL 141020Z AUTO 23021G31KT 200V270 9999 SCT029
                        BKN033 BKN040 08/04 Q0989 NOSIG=
201912140950 METAR COR EGLL 140950Z AUTO 22010KT 9999 -RA SCT039/// BKN047///
                        //////TCU 07/04 Q0989 TEMPO SHRA=
201912140920 METAR COR EGLL 140920Z AUTO 24014KT 9999 -RA BKN048 07/03
                        Q0989 TEMPO 6000 SHRA=
201912140850 METAR COR EGLL 140850Z AUTO 23011KT 9999 NCD 06/03 Q0989
                        TEMPO 6000 SHRA=
201912140820 METAR COR EGLL 140820Z AUTO 24012KT 9999 NCD 06/02 Q0990
                        NOSIG=
201912140750 METAR COR EGLL 140750Z AUTO 23013KT 9999 NCD 05/02 Q0989
                        NOSIG=
201912140720 METAR COR EGLL 140720Z AUTO 24010KT 9999 NCD 05/01 Q0989
                        NOSIG=
201912140650 METAR COR EGLL 140650Z AUTO 24012KT 9999 NCD 05/01 Q0989
                        NOSIG=
201912140620 METAR COR EGLL 140620Z AUTO 25014KT 9999 NCD 06/01 Q0989
                        NOSIG=
201912140550 METAR COR EGLL 140550Z AUTO 27019KT 9999 NCD 05/01 Q0988
                        NOSIG=
201912140520 METAR COR EGLL 140520Z AUTO 27020KT 9999 FEW043 06/02 Q0987
                        NOSIG=
201912140450 METAR COR EGLL 140450Z AUTO 27014G24KT 9999 FEW031/// //////TCU
                        06/03 Q0987 NOSIG=
201912140420 METAR COR EGLL 140420Z AUTO 24011KT 9999 -RA SCT024/// SCT038///
                        //////TCU 05/04 Q0986 NOSIG=
201912140350 METAR COR EGLL 140350Z AUTO 25012KT 9999 NCD 05/04 Q0986
                        NOSIG=
201912140320 METAR COR EGLL 140320Z AUTO 25015KT 9999 NCD 05/04 Q0985
                        NOSIG=
201912140250 METAR COR EGLL 140250Z AUTO 25012KT 9999 NCD 05/04 Q0985
                        NOSIG=
201912140220 METAR COR EGLL 140220Z AUTO 26011KT 9999 NCD 05/04 Q0984
                        NOSIG=
201912140150 METAR COR EGLL 140150Z AUTO 27012KT 9999 NCD 05/04 Q0984
                        NOSIG=
201912140120 METAR COR EGLL 140120Z AUTO 26011KT 9999 FEW043 05/04 Q0983
                        NOSIG=
201912140050 METAR COR EGLL 140050Z AUTO 28008KT 9999 FEW033 BKN040 05/05
                        Q0983 NOSIG=
201912140020 METAR COR EGLL 140020Z AUTO 28005KT 7000 -RA SCT009/// BKN023///
                        BKN035/// //////TCU 05/05 Q0982 NOSIG=
201912132350 METAR COR EGLL 132350Z 32004KT 290V360 4000 -DZ FEW004 BKN012
                        OVC020 05/05 Q0982 REDZ TEMPO 2500
                        RADZ BKN006=
201912132320 METAR COR EGLL 132320Z AUTO VRB02KT 2700 DZ FEW007 BKN010
                        OVC020 05/05 Q0981 TEMPO BKN007=
201912132250 METAR COR EGLL 132250Z AUTO 05003KT 4000 -RADZ BKN010 BKN033
                        OVC042 05/05 Q0980 TEMPO BKN008=
201912132220 METAR COR EGLL 132220Z AUTO VRB03KT 6000 -RA FEW030 BKN038
                        BKN044 05/05 Q0981 NOSIG=
201912132150 METAR COR EGLL 132150Z AUTO 24005KT 210V290 9999 -RA SCT038
                        BKN047 06/05 Q0981 NOSIG=
201912132120 METAR COR EGLL 132120Z AUTO 23009KT 5000 -RA SCT020 BKN029
                        06/04 Q0982 NOSIG=
201912132050 METAR EGLL 132050Z AUTO 23014KT 9999 -RA BKN033 BKN042 07/03
                        Q0982=
201912132020 METAR COR EGLL 132020Z AUTO 23014KT 9999 NCD 07/02 Q0982
                        NOSIG=
201912131950 METAR COR EGLL 131950Z AUTO 22013KT 9999 NCD 07/02 Q0982
                        NOSIG=
201912131920 METAR COR EGLL 131920Z AUTO 23012G22KT 9999 NCD 07/02 Q0983
                        NOSIG=
201912131850 METAR COR EGLL 131850Z AUTO 24012KT 9999 NCD 07/02 Q0984
                        NOSIG=
201912131820 METAR COR EGLL 131820Z AUTO 25013KT 9999 NCD 07/02 Q0984
                        NOSIG=
201912131750 METAR COR EGLL 131750Z AUTO 24012KT 9999 NCD 07/01 Q0985
                        NOSIG=
201912131720 METAR COR EGLL 131720Z AUTO 24012KT 9999 NCD 07/01 Q0985
                        NOSIG=
201912131650 METAR COR EGLL 131650Z AUTO 25015KT 9999 NCD 07/01 Q0984
                        NOSIG=
201912131620 METAR COR EGLL 131620Z AUTO 25014KT 9999 FEW041 07/02 Q0985
                        NOSIG=
201912131550 METAR COR EGLL 131550Z AUTO 27017KT 9999 FEW040 08/02 Q0985
                        NOSIG=
201912131520 METAR COR EGLL 131520Z AUTO 27021KT 9999 BKN038 08/02 Q0984
                        NOSIG=
201912131450 METAR COR EGLL 131450Z AUTO 27016KT 9999 BKN037 08/02 Q0984
                        NOSIG=
201912131420 METAR EGLL 131420Z AUTO 27018KT 9999 BKN042 08/02 Q0984=
201912131350 METAR COR EGLL 131350Z AUTO 27019KT 9999 BKN042 08/02 Q0983
                        NOSIG=
201912131320 METAR COR EGLL 131320Z AUTO 27018G29KT 9999 FEW041 08/02
                        Q0983 NOSIG=
201912131250 METAR COR EGLL 131250Z AUTO 27018KT 9999 NCD 08/03 Q0983
                        NOSIG=
201912131220 METAR COR EGLL 131220Z AUTO 27018KT 9999 SCT035 08/03 Q0982
                        NOSIG=
201912131150 METAR COR EGLL 131150Z AUTO 27016KT 9999 BKN034 08/03 Q0982
                        NOSIG=
201912131120 METAR COR EGLL 131120Z AUTO 28019KT 9999 BKN034 08/03 Q0982
                        NOSIG=
201912131050 METAR COR EGLL 131050Z AUTO 27011KT 9999 BKN032 OVC039 08/03
                        Q0982 NOSIG=
201912131020 METAR COR EGLL 131020Z AUTO 27014KT 9999 BKN032 07/04 Q0981
                        NOSIG=
201912130950 METAR COR EGLL 130950Z AUTO 28015KT 9999 BKN035 07/03 Q0981
                        NOSIG=
201912130920 METAR COR EGLL 130920Z AUTO 28014KT 9999 BKN035 OVC042 07/04
                        Q0980 NOSIG=
201912130850 METAR COR EGLL 130850Z AUTO 28014KT 9999 OVC034 07/04 Q0979
                        NOSIG=
201912130820 METAR COR EGLL 130820Z AUTO 27015KT 9999 BKN033 OVC041 07/04
                        Q0978 NOSIG=
201912130750 METAR COR EGLL 130750Z AUTO 27015KT 9999 BKN033 OVC042 07/04
                        Q0978 NOSIG=
201912130720 METAR COR EGLL 130720Z AUTO 27018KT 9999 BKN027 OVC040 07/04
                        Q0977 NOSIG=
201912130650 METAR COR EGLL 130650Z AUTO 28014KT 9999 SCT028 BKN033 07/04
                        Q0976 NOSIG=
201912130620 METAR COR EGLL 130620Z AUTO 28014KT 9999 -RA BKN028 BKN038
                        BKN048 07/04 Q0975 NOSIG=
201912130550 METAR COR EGLL 130550Z AUTO 29016KT 9999 -RA FEW029 SCT049
                        07/04 Q0975 NOSIG=
201912130520 METAR COR EGLL 130520Z AUTO 29017KT 9999 -RA SCT028 BKN033
                        07/04 Q0974 NOSIG=
201912130450 METAR COR EGLL 130450Z AUTO 28016KT 9999 BKN026 07/04 Q0973
                        NOSIG=
201912130420 METAR COR EGLL 130420Z AUTO 28014KT 9999 BKN024 OVC030 07/05
                        Q0973 NOSIG=
201912130350 METAR COR EGLL 130350Z AUTO 28016KT 9999 BKN023 OVC044 07/05
                        Q0973 NOSIG=
201912130320 METAR COR EGLL 130320Z AUTO 28015KT 9999 BKN024 OVC043 07/05
                        Q0972 NOSIG=
201912130250 METAR COR EGLL 130250Z AUTO 29015KT 9999 BKN023 BKN031 OVC049
                        07/06 Q0972 NOSIG=
201912130220 METAR COR EGLL 130220Z AUTO 28011KT 9999 -RA BKN020 BKN030
                        OVC039 07/06 Q0971 NOSIG=
201912130150 METAR COR EGLL 130150Z AUTO 28010KT 9999 -RA SCT018/// BKN024///
                        OVC048/// //////TCU 07/06 Q0971 NOSIG=
201912130120 METAR COR EGLL 130120Z AUTO 28014KT 9999 -RA FEW019/// BKN023///
                        BKN028/// //////TCU 07/06 Q0971 NOSIG=
201912130050 METAR COR EGLL 130050Z AUTO 23009KT 9999 FEW024/// SCT034///
                        BKN046/// //////TCU 07/06 Q0971 TEMPO
                        4000 SHRA BKN014=
201912130020 METAR COR EGLL 130020Z AUTO 25007KT 9999 -RA SCT029/// BKN035///
                        BKN041/// //////TCU 07/07 Q0971 TEMPO
                        4000 SHRA BKN014=
201912122350 METAR COR EGLL 122350Z AUTO 25012KT 9000 -RA FEW009/// SCT018///
                        BKN025/// //////CB 07/07 Q0972 RERA
                        TEMPO 4000 SHRA BKN014=
201912122320 METAR COR EGLL 122320Z AUTO 20007KT 7000 -RA SCT026/// BKN033///
                        OVC042/// //////CB 07/07 Q0973 TEMPO
                        4000 SHRA BKN014=
201912122250 METAR COR EGLL 122250Z AUTO 22009KT 9999 -RA BKN035/// OVC043///
                        //////TCU 08/07 Q0973 TEMPO 4000
                        SHRA BKN014=
201912122220 METAR COR EGLL 122220Z AUTO 22009KT 200V260 9999 SCT034///
                        BKN040/// //////TCU 08/07 Q0974 TEMPO
                        4000 SHRA BKN014=
201912122150 METAR COR EGLL 122150Z AUTO 22009G19KT 190V250 9999 SCT031
                        08/07 Q0975 TEMPO 4000 SHRA BKN014=
201912122120 METAR COR EGLL 122120Z AUTO 22010KT 190V250 9999 FEW045 08/07
                        Q0975 TEMPO 4000 SHRA BKN014=
201912122050 METAR COR EGLL 122050Z 23011KT 9999 FEW014 SCT020 BKN049
                        08/07 Q0976 TEMPO 4000 SHRA BKN014=
201912122020 METAR COR EGLL 122020Z AUTO 24011KT 9999 FEW025 BKN042 09/07
                        Q0977 NOSIG=
201912121950 METAR COR EGLL 121950Z AUTO 25013KT 9999 OVC031 08/07 Q0977
                        NOSIG=
201912121920 METAR COR EGLL 121920Z AUTO 25012KT 9999 BKN031 08/07 Q0978
                        NOSIG=
201912121850 METAR COR EGLL 121850Z AUTO 26012KT 9999 SCT017 SCT030 08/08
                        Q0978 NOSIG=
201912121820 METAR COR EGLL 121820Z AUTO 26011KT 9999 -RA FEW025 SCT041
                        08/08 Q0978 NOSIG=
201912121750 METAR COR EGLL 121750Z AUTO 21009KT 180V250 6000 -RA SCT013///
                        BKN022/// BKN031/// //////TCU 08/08
                        Q0978 BECMG 27010KT=
201912121720 METAR COR EGLL 121720Z AUTO 21009KT 9999 -RA FEW012/// SCT018///
                        BKN027/// //////CB 08/08 Q0979 TEMPO
                        RA BKN012=
201912121650 METAR COR EGLL 121650Z AUTO 18011KT 140V230 9999 -RA SCT009///
                        BKN014/// BKN030/// //////TCU 08/08
                        Q0979 TEMPO RA BKN009=
201912121620 METAR COR EGLL 121620Z AUTO 18013KT 150V230 9999 -RA FEW023///
                        BKN031/// BKN038/// //////TCU 08/08
                        Q0980 TEMPO RA BKN014=
201912121550 METAR COR EGLL 121550Z AUTO 18012KT 150V230 9999 -RA BKN030///
                        BKN044/// //////TCU 09/08 Q0980 TEMPO
                        RA BKN014=
201912121520 METAR COR EGLL 121520Z AUTO 19011KT 170V240 9999 -RA FEW021///
                        SCT027/// BKN032/// //////TCU 09/08
                        Q0981 TEMPO RA BKN014=
201912121450 METAR COR EGLL 121450Z AUTO 19013KT 9999 -RA FEW016/// SCT025///
                        BKN031/// //////TCU 09/08 Q0982 TEMPO
                        RA BKN014=
201912121420 METAR COR EGLL 121420Z AUTO 18016KT 9999 -RA SCT013 BKN018
                        09/08 Q0983 TEMPO RA BKN013=
201912121350 METAR COR EGLL 121350Z AUTO 18015KT 9999 -RA BKN012 BKN017
                        OVC025 09/08 Q0984 TEMPO 4000 RA
                        BKN008=
201912121320 METAR COR EGLL 121320Z AUTO 18016KT 9999 BKN009 OVC017 09/08
                        Q0984 TEMPO 4000 RADZ=
201912121250 METAR COR EGLL 121250Z AUTO 19015KT 5000 -RADZ BKN007 OVC015
                        09/08 Q0985 RERA REDZ TEMPO 3000
                        RADZ=
201912121220 METAR EGLL 121220Z AUTO 18015KT 7000 -RA BKN007/// OVC014///
                        //////TCU 09/08 Q0986=
201912121150 METAR COR EGLL 121150Z AUTO 17012KT 5000 -DZ SCT007/// BKN011///
                        OVC017/// //////TCU 08/07 Q0987 TEMPO
                        3500 RADZ BKN007=
201912121120 METAR COR EGLL 121120Z AUTO 16012KT 4900 -RA BKN010/// OVC024///
                        //////TCU 08/07 Q0989 TEMPO RA BKN008=
201912121050 METAR COR EGLL 121050Z AUTO 17012KT 9999 -RA BKN012/// BKN017///
                        OVC042/// //////TCU 07/07 Q0990 NOSIG=
201912121020 METAR COR EGLL 121020Z AUTO 15010KT 9999 -RA BKN012/// BKN018///
                        OVC045/// //////TCU 07/06 Q0991 TEMPO
                        RA BKN008=
201912120950 METAR COR EGLL 120950Z AUTO 15009KT 9999 -RA BKN012/// BKN020///
                        OVC038/// //////TCU 06/06 Q0992 TEMPO
                        RA BKN008=
201912120920 METAR COR EGLL 120920Z AUTO 15009KT 9999 -RA FEW019/// BKN027///
                        BKN043/// //////TCU 05/04 Q0993 TEMPO
                        RA BKN012=
201912120850 METAR COR EGLL 120850Z AUTO 15008KT 120V190 9999 -RA SCT034
                        BKN044 04/04 Q0994 TEMPO RA BKN012=
201912120820 METAR COR EGLL 120820Z AUTO 15007KT 110V180 9999 -RA SCT030
                        BKN040 04/03 Q0995 TEMPO RA=
201912120750 METAR COR EGLL 120750Z AUTO 15007KT 130V190 9999 FEW048 03/03
                        Q0996 TEMPO RA BKN010=
201912120720 METAR COR EGLL 120720Z AUTO 15007KT 110V210 9999 -RA NCD
                        03/02 Q0997 TEMPO RA BKN010=
201912120650 METAR COR EGLL 120650Z AUTO 16007KT 100V180 9999 NCD 02/01
                        Q0998 TEMPO RA=
201912120620 METAR COR EGLL 120620Z AUTO 16007KT 120V180 9999 NCD 01/01
                        Q0999 TEMPO RA=
201912120550 METAR COR EGLL 120550Z AUTO 16004KT 9999 NCD 01/01 Q0999
                        TEMPO RA=
201912120520 METAR EGLL 120520Z AUTO 18005KT 9999 NCD 01/01 Q1000=
201912120450 METAR COR EGLL 120450Z AUTO 18006KT 160V260 9999 NCD 01/01
                        Q1000 NOSIG=
201912120420 METAR COR EGLL 120420Z AUTO 17005KT 9999 NCD 01/01 Q1001
                        NOSIG=
201912120350 METAR COR EGLL 120350Z AUTO 17005KT 9999 NCD 01/01 Q1001
                        NOSIG=
201912120320 METAR COR EGLL 120320Z AUTO 22006KT 9999 NCD 01/01 Q1002
                        NOSIG=
201912120250 METAR COR EGLL 120250Z AUTO 21004KT 9999 NCD 01/01 Q1002
                        NOSIG=
201912120220 METAR COR EGLL 120220Z AUTO 22003KT 9999 NCD 01/01 Q1003
                        NOSIG=
201912120150 METAR COR EGLL 120150Z AUTO 22005KT 9999 NCD 01/01 Q1003
                        NOSIG=
201912120120 METAR COR EGLL 120120Z AUTO 22005KT 9999 NCD 02/01 Q1003
                        NOSIG=
201912120050 METAR COR EGLL 120050Z AUTO 21003KT 9999 NCD 01/00 Q1003
                        NOSIG=
201912120020 METAR COR EGLL 120020Z AUTO 24006KT 9999 NCD 02/01 Q1003
                        NOSIG=
201912112350 METAR COR EGLL 112350Z AUTO 25005KT 9999 NCD 02/01 Q1003
                        NOSIG=
201912112320 METAR COR EGLL 112320Z AUTO 25008KT 9999 NCD 02/01 Q1003
                        NOSIG=
201912112250 METAR COR EGLL 112250Z AUTO 25009KT 9999 NCD 03/02 Q1003
                        NOSIG=
201912112220 METAR COR EGLL 112220Z AUTO 26009KT 9999 NCD 03/02 Q1003
                        NOSIG=
201912112150 METAR COR EGLL 112150Z AUTO 26010KT 9999 NCD 04/02 Q1003
                        NOSIG=
201912112120 METAR COR EGLL 112120Z AUTO 26011KT 9999 NCD 03/02 Q1003
                        NOSIG=
201912112050 METAR COR EGLL 112050Z AUTO 27009KT 9999 NCD 03/02 Q1003
                        NOSIG=
201912112020 METAR COR EGLL 112020Z AUTO 28009KT 9999 NCD 03/02 Q1003
                        NOSIG=
201912111950 METAR COR EGLL 111950Z AUTO 27009KT 9999 NCD 04/02 Q1002
                        NOSIG=
201912111920 METAR COR EGLL 111920Z AUTO 28009KT 9999 NCD 04/03 Q1002
                        NOSIG=
201912111850 METAR COR EGLL 111850Z AUTO 27011KT 9999 NCD 05/03 Q1002
                        NOSIG=
201912111820 METAR COR EGLL 111820Z AUTO 27011KT 9999 NCD 05/03 Q1002
                        NOSIG=
201912111750 METAR COR EGLL 111750Z AUTO 25009KT 9999 NCD 06/04 Q1002
                        NOSIG=
201912111720 METAR COR EGLL 111720Z AUTO 25010KT 9999 FEW031 06/04 Q1001
                        NOSIG=
201912111650 METAR COR EGLL 111650Z AUTO 24011KT 9999 BKN031 06/04 Q1001
                        NOSIG=
201912111620 METAR COR EGLL 111620Z AUTO 24009KT 9999 BKN036 06/04 Q1001
                        NOSIG=
201912111550 METAR COR EGLL 111550Z AUTO 22010KT 9999 BKN034 07/05 Q1001
                        NOSIG=
201912111520 METAR COR EGLL 111520Z AUTO 22010KT 170V250 9999 BKN023 BKN031
                        07/05 Q1001 NOSIG=
201912111450 METAR COR EGLL 111450Z AUTO 20008KT 170V260 9999 BKN037 07/05
                        Q1001 NOSIG=
201912111420 METAR COR EGLL 111420Z AUTO 19009KT 9999 SCT025/// //////TCU
                        07/05 Q1001 NOSIG=
201912111350 METAR EGLL 111350Z 20011KT 9999 -SHRA FEW030CB BKN040 08/05
                        Q1002=
201912111320 METAR COR EGLL 111320Z AUTO 20008KT 160V270 9999 FEW044 08/04
                        Q1002 TEMPO SHRA=
201912111250 METAR COR EGLL 111250Z AUTO 20010KT 9999 NCD 08/04 Q1002
                        TEMPO SHRA=
201912111220 METAR COR EGLL 111220Z AUTO 21011KT 180V240 9999 NCD 08/05
                        Q1003 TEMPO SHRA=
201912111150 METAR COR EGLL 111150Z AUTO 21010KT 9999 NCD 07/05 Q1004
                        TEMPO SHRA=
201912111120 METAR COR EGLL 111120Z AUTO 21009KT 190V250 9999 NCD 07/05
                        Q1004 NOSIG=
201912111050 METAR COR EGLL 111050Z AUTO 23010KT 9999 NCD 07/05 Q1005
                        NOSIG=
201912111020 METAR COR EGLL 111020Z AUTO 22010KT 9999 NCD 07/04 Q1005
                        NOSIG=
201912110950 METAR COR EGLL 110950Z AUTO 22010KT 9999 NCD 06/04 Q1006
                        NOSIG=
201912110920 METAR COR EGLL 110920Z AUTO 21009KT 180V240 9999 NCD 05/04
                        Q1006 NOSIG=
201912110850 METAR COR EGLL 110850Z AUTO 21007KT 9999 NCD 04/03 Q1006
                        NOSIG=
201912110820 METAR COR EGLL 110820Z AUTO 20007KT 170V240 9999 NCD 04/03
                        Q1007 NOSIG=
201912110750 METAR COR EGLL 110750Z AUTO 20006KT 160V250 9999 NCD 04/03
                        Q1007 NOSIG=
201912110720 METAR COR EGLL 110720Z AUTO 20007KT 170V240 9999 NCD 03/03
                        Q1007 NOSIG=
201912110650 METAR COR EGLL 110650Z AUTO 17006KT 100V250 9999 NCD 03/02
                        Q1007 NOSIG=
201912110620 METAR COR EGLL 110620Z AUTO 22007KT 9999 NCD 04/03 Q1007
                        NOSIG=
201912110550 METAR COR EGLL 110550Z AUTO 22008KT 9999 NCD 04/03 Q1007
                        NOSIG=
201912110520 METAR COR EGLL 110520Z AUTO 22007KT 9999 NCD 04/03 Q1008
                        NOSIG=
201912110450 METAR COR EGLL 110450Z AUTO 23008KT 9999 NCD 04/03 Q1008
                        NOSIG=
201912110420 METAR COR EGLL 110420Z AUTO 22007KT 9999 NCD 05/03 Q1008
                        NOSIG=
201912110350 METAR COR EGLL 110350Z AUTO 22008KT 9999 NCD 05/04 Q1008
                        NOSIG=
201912110320 METAR COR EGLL 110320Z AUTO 21007KT 9999 NCD 05/04 Q1008
                        NOSIG=
201912110250 METAR COR EGLL 110250Z AUTO 21007KT 9999 NCD 05/04 Q1009
                        NOSIG=
201912110220 METAR COR EGLL 110220Z AUTO 21006KT 9999 NCD 06/04 Q1009
                        NOSIG=
201912110150 METAR COR EGLL 110150Z AUTO 22007KT 9999 NCD 06/05 Q1009
                        NOSIG=
201912110120 METAR COR EGLL 110120Z AUTO 22007KT 9999 NCD 06/05 Q1009
                        NOSIG=
201912110050 METAR COR EGLL 110050Z AUTO 23008KT 9999 NCD 07/05 Q1008
                        NOSIG=
201912110020 METAR COR EGLL 110020Z AUTO 23007KT 9999 NCD 07/05 Q1008
                        NOSIG=
201912102350 METAR COR EGLL 102350Z AUTO 24008KT 9999 NCD 08/05 Q1008
                        NOSIG=
201912102320 METAR COR EGLL 102320Z AUTO 24010KT 9999 NCD 08/06 Q1008
                        NOSIG=
201912102250 METAR COR EGLL 102250Z AUTO 24013KT 9999 NCD 09/06 Q1007
                        NOSIG=
201912102220 METAR COR EGLL 102220Z AUTO 25013KT 9999 SCT026 09/07 Q1007
                        NOSIG=
201912102150 METAR COR EGLL 102150Z AUTO 25013KT 9999 SCT029 SCT047 09/07
                        Q1007 NOSIG=
201912102120 METAR COR EGLL 102120Z AUTO 26017KT 9999 -RA NCD 10/07 Q1006
                        NOSIG=
201912102050 METAR COR EGLL 102050Z AUTO 26018KT 9999 -RA FEW021/// BKN045///
                        //////TCU 10/08 Q1006 NOSIG=
201912102020 METAR COR EGLL 102020Z AUTO 26019G29KT 9999 -RA FEW016///
                        SCT026/// OVC032/// //////CB 10/09
                        Q1005 RERA NOSIG=
201912101950 METAR COR EGLL 101950Z AUTO 23018G29KT 190V270 4700 RA SCT009///
                        BKN012/// BKN017/// //////CB 12/11
                        Q1004 REDZ TEMPO 6000 -RA SCT012=
201912101920 METAR COR EGLL 101920Z AUTO 21018KT 4900 -RADZ BKN010 OVC017
                        11/11 Q1003 TEMPO RA BKN009=
201912101850 METAR COR EGLL 101850Z AUTO 21018KT 4600 -RA BKN009 OVC021
                        11/11 Q1003 TEMPO +RA=
201912101820 METAR COR EGLL 101820Z AUTO 21020KT 6000 -RA SCT009 BKN014
                        OVC023 11/10 Q1004 TEMPO 4000 +RA
                        BKN008=
201912101750 METAR COR EGLL 101750Z AUTO 20018KT 4700 -RA BKN009 OVC020
                        11/10 Q1004 TEMPO 6000 BKN010=
201912101720 METAR COR EGLL 101720Z AUTO 20019KT 4900 -RADZ BKN009 BKN014
                        OVC021 10/10 Q1005 TEMPO 6000 -RA
                        BKN010=
201912101650 METAR COR EGLL 101650Z AUTO 20019G30KT 4200 -RADZ BKN010
                        OVC017 10/10 Q1005 TEMPO BKN009=
201912101620 METAR EGLL 101620Z AUTO 20017KT 170V230 6000 BKN010 BKN017
                        OVC022 10/09 Q1006 TEMPO BKN009=
201912101550 METAR COR EGLL 101550Z AUTO 20018G29KT 7000 BKN010 OVC019
                        10/09 Q1007 TEMPO -RA BKN009=
201912101520 METAR COR EGLL 101520Z AUTO 20017KT 7000 -RA BKN010 OVC015
                        10/09 Q1008 TEMPO BKN009=
201912101450 METAR COR EGLL 101450Z AUTO 20015KT 3000 DZ BKN009/// OVC021///
                        10/09 Q1009 TEMPO 6000 -DZ BKN010=
201912101420 METAR COR EGLL 101420Z AUTO 20015G28KT 5000 BR BKN009 OVC015
                        10/09 Q1009 TEMPO BKN010=
201912101350 METAR EGLL 101350Z AUTO 19016KT 7000 SCT007 BKN011 OVC017
                        09/09 Q1010 TEMPO BKN009=
201912101320 METAR COR EGLL 101320Z AUTO 19015KT 4900 BR BKN008 BKN013
                        OVC017 09/08 Q1011 TEMPO BKN010=
201912101250 METAR EGLL 101250Z AUTO 19017KT 9999 BKN010 OVC020 09/08
                        Q1012 TEMPO BKN009=
201912101220 METAR COR EGLL 101220Z 19015KT 7000 -RADZ FEW009 BKN012 OVC016
                        09/08 Q1012 NOSIG=
201912101150 METAR COR EGLL 101150Z AUTO 19015KT 8000 -RA BKN011/// OVC017///
                        //////TCU 09/08 Q1013 TEMPO 4000
                        RA BKN009=
201912101120 METAR COR EGLL 101120Z AUTO 20014KT 8000 -RA BKN012 BKN016
                        OVC023 09/08 Q1014 TEMPO 4000 RA=
201912101050 METAR COR EGLL 101050Z AUTO 20014KT 8000 -RA BKN014 OVC019
                        09/08 Q1015 TEMPO 4000 RA=
201912101020 METAR EGLL 101020Z AUTO 19014G25KT 9999 OVC017 09/07 Q1016
                        TEMPO RA=
201912100950 METAR EGLL 100950Z AUTO 19014KT 9999 FEW020 BKN025 BKN031
                        09/07 Q1016 TEMPO RA=
201912100920 METAR EGLL 100920Z AUTO 19012KT 9999 SCT020/// BKN029///
                        BKN034/// //////TCU 09/07 Q1017 TEMPO
                        RA=
201912100850 METAR EGLL 100850Z AUTO 20013KT 9999 SCT031 08/06 Q1018 TEMPO
                        RA=
201912100820 METAR COR EGLL 100820Z AUTO 19015KT 9999 FEW025 BKN029 08/06
                        Q1018 NOSIG=
201912100750 METAR COR EGLL 100750Z AUTO 20012KT 9999 FEW028 BKN033 07/05
                        Q1019 NOSIG=
201912100720 METAR EGLL 100720Z AUTO VRB05KT 9999 BKN031 04/03 Q1019 NOSIG=
201912100650 METAR COR EGLL 100650Z AUTO 16006KT 130V250 9999 FEW033 04/03
                        Q1020 NOSIG=
201912100620 METAR COR EGLL 100620Z AUTO 15006KT 9999 SCT035 02/02 Q1020
                        NOSIG=
201912100550 METAR COR EGLL 100550Z AUTO 17004KT 9999 NCD 02/01 Q1021
                        NOSIG=
201912100520 METAR COR EGLL 100520Z AUTO 18004KT 150V240 9999 SCT029 01/01
                        Q1022 NOSIG=
201912100450 METAR COR EGLL 100450Z AUTO 18004KT 150V240 9999 NCD 01/00
                        Q1022 NOSIG=
201912100420 METAR COR EGLL 100420Z AUTO VRB03KT 9999 NCD 01/00 Q1023
                        NOSIG=
201912100350 METAR COR EGLL 100350Z AUTO 18004KT 9999 NCD 01/00 Q1023
                        NOSIG=
201912100320 METAR COR EGLL 100320Z AUTO 19005KT 9999 NCD 02/01 Q1024
                        NOSIG=
201912100250 METAR COR EGLL 100250Z AUTO 19005KT 9999 NCD 02/01 Q1024
                        NOSIG=
201912100220 METAR COR EGLL 100220Z AUTO VRB01KT 9999 NCD 02/01 Q1024
                        NOSIG=
201912100150 METAR COR EGLL 100150Z AUTO 17003KT 9999 NCD 01/00 Q1024
                        NOSIG=
201912100120 METAR EGLL 100120Z AUTO 19004KT 9999 NCD 02/01 Q1024=
201912100050 METAR COR EGLL 100050Z AUTO 27001KT 9999 NCD 02/01 Q1025
                        NOSIG=
201912100020 METAR COR EGLL 100020Z AUTO 23003KT 9999 NCD 02/01 Q1025
                        NOSIG=
201912092350 METAR COR EGLL 092350Z AUTO VRB03KT 9999 NCD 02/00 Q1025
                        NOSIG=
201912092320 METAR COR EGLL 092320Z AUTO VRB03KT 9999 NCD 02/01 Q1025
                        NOSIG=
201912092250 METAR COR EGLL 092250Z AUTO 24005KT 170V300 9999 NCD 03/01
                        Q1025 NOSIG=
201912092220 METAR COR EGLL 092220Z AUTO 23005KT 190V260 9999 NCD 03/01
                        Q1025 NOSIG=
201912092150 METAR COR EGLL 092150Z AUTO 23006KT 180V270 9999 NCD 03/01
                        Q1025 NOSIG=
201912092120 METAR COR EGLL 092120Z AUTO 28005KT 9999 NCD 04/01 Q1025
                        NOSIG=
201912092050 METAR COR EGLL 092050Z AUTO 29006KT 9999 NCD 04/01 Q1024
                        NOSIG=
201912092020 METAR COR EGLL 092020Z AUTO 28006KT 9999 NCD 05/01 Q1024
                        NOSIG=
201912091950 METAR COR EGLL 091950Z AUTO 28006KT 9999 NCD 05/01 Q1024
                        NOSIG=
201912091920 METAR COR EGLL 091920Z AUTO 30004KT 9999 NCD 06/01 Q1023
                        NOSIG=
201912091850 METAR COR EGLL 091850Z AUTO 29006KT 9999 NCD 06/01 Q1023
                        NOSIG=
201912091820 METAR EGLL 091820Z AUTO 29005KT 9999 NCD 06/01 Q1022 NOSIG=
201912091750 METAR COR EGLL 091750Z AUTO 30004KT 9999 NCD 07/01 Q1022
                        NOSIG=
201912091720 METAR EGLL 091720Z AUTO 28005KT 9999 NCD 07/01 Q1021=
201912091650 METAR EGLL 091650Z AUTO 31004KT 280V350 9999 NCD 07/01 Q1020
                        NOSIG=
201912091620 METAR EGLL 091620Z AUTO 32005KT 9999 NCD 08/01 Q1020 NOSIG=
201912091550 METAR COR EGLL 091550Z AUTO 32008KT 9999 NCD 08/01 Q1019
                        NOSIG=
201912091520 METAR EGLL 091520Z AUTO 32011G22KT 280V350 9999 NCD 09/00
                        Q1018 NOSIG=
201912091450 METAR EGLL 091450Z AUTO 31013KT 280V350 9999 NCD 09/01 Q1017=
201912091420 METAR EGLL 091420Z AUTO 32013KT 9999 FEW043 10/01 Q1016=
201912091350 METAR EGLL 091350Z AUTO 31014KT 9999 FEW047 10/01 Q1015 NOSIG=
201912091320 METAR EGLL 091320Z AUTO 32014G24KT 290V360 9999 FEW043 10/01
                        Q1014 NOSIG=
201912091250 METAR EGLL 091250Z AUTO 32013G23KT 290V360 9999 FEW041 10/02
                        Q1013 NOSIG=
201912091220 METAR EGLL 091220Z AUTO 32015G32KT 290V010 9999 NCD 10/01
                        Q1013 NOSIG=
201912091150 METAR COR EGLL 091150Z AUTO 32016G26KT 290V360 9999 NCD 10/02
                        Q1012 NOSIG=
201912091120 METAR EGLL 091120Z AUTO 32016G27KT 9999 NCD 10/01 Q1011 NOSIG=
201912091050 METAR EGLL 091050Z AUTO 32016G26KT 9999 NCD 10/02 Q1010 NOSIG=
201912091020 METAR COR EGLL 091020Z AUTO 31014KT 9999 NCD 09/03 Q1009
                        NOSIG=
201912090950 METAR EGLL 090950Z AUTO 31014G25KT 9999 NCD 09/03 Q1008 NOSIG=
201912090920 METAR EGLL 090920Z AUTO 31012KT 290V350 9999 NCD 09/03 Q1007
                        NOSIG=
201912090850 METAR EGLL 090850Z AUTO 31012KT 9999 FEW042 09/03 Q1006 NOSIG=
201912090820 METAR COR EGLL 090820Z AUTO 31014KT 9999 SCT041 08/03 Q1004
                        NOSIG=
201912090750 METAR COR EGLL 090750Z AUTO 32014KT 9999 NCD 08/03 Q1002
                        NOSIG=
201912090720 METAR EGLL 090720Z AUTO 31014KT 9999 SCT033 BKN039 09/04
                        Q1001 NOSIG=
201912090650 METAR COR EGLL 090650Z AUTO 31014KT 270V350 9999 SCT031 OVC041
                        09/05 Q1000 NOSIG=
201912090620 METAR COR EGLL 090620Z AUTO 31011KT 9999 SCT031 BKN040 BKN048
                        08/05 Q0998 NOSIG=
201912090550 METAR COR EGLL 090550Z AUTO 31014KT 9999 -RA SCT021 BKN032
                        BKN042 08/06 Q0997 NOSIG=
201912090520 METAR COR EGLL 090520Z AUTO 30012KT 270V340 9999 BKN022 BKN039
                        09/06 Q0995 NOSIG=
201912090450 METAR COR EGLL 090450Z AUTO 29014KT 9999 BKN022 OVC044 09/06
                        Q0994 NOSIG=
201912090420 METAR COR EGLL 090420Z AUTO 26015KT 9999 BKN024 OVC031 08/05
                        Q0993 NOSIG=
201912090350 METAR COR EGLL 090350Z AUTO 26014KT 9999 BKN026 BKN031 OVC041
                        08/05 Q0993 TEMPO SHRA=
201912090320 METAR COR EGLL 090320Z AUTO 26014KT 9999 -RA BKN031 BKN043
                        08/05 Q0993 TEMPO SHRA=
201912090250 METAR COR EGLL 090250Z AUTO 26014KT 9999 SCT035 BKN047 08/04
                        Q0992 NOSIG=
201912090220 METAR COR EGLL 090220Z AUTO 27012KT 9999 BKN038 08/04 Q0992
                        NOSIG=
201912090150 METAR COR EGLL 090150Z AUTO 28014KT 9999 NCD 07/04 Q0992
                        NOSIG=
201912090120 METAR COR EGLL 090120Z AUTO 28017KT 9999 FEW022 SCT034 07/05
                        Q0991 NOSIG=
201912090050 METAR COR EGLL 090050Z AUTO 27017G27KT 9999 SCT019 BKN024
                        BKN029 08/06 Q0991 NOSIG=
201912090020 METAR EGLL 090020Z AUTO 23015KT 9999 -RA BKN020 BKN029 OVC046
                        08/06 Q0990=
201912082350 METAR COR EGLL 082350Z AUTO 21010KT 9999 -RA BKN025/// BKN043///
                        //////TCU 08/05 Q0991 NOSIG=
201912082320 METAR COR EGLL 082320Z AUTO 21010KT 9999 BKN030 07/04 Q0992
                        TEMPO SHRA=
201912082250 METAR COR EGLL 082250Z AUTO 23012KT 9999 -RA SCT041/// //////TCU
                        07/04 Q0993 TEMPO SHRA=
201912082220 METAR COR EGLL 082220Z AUTO 22016KT 9999 NCD 07/03 Q0993
                        TEMPO SHRA=
201912082150 METAR COR EGLL 082150Z AUTO 23016KT 9999 NCD 07/03 Q0994
                        NOSIG=
201912082120 METAR COR EGLL 082120Z AUTO 23018KT 9999 NCD 07/03 Q0995
                        NOSIG=
201912082050 METAR COR EGLL 082050Z AUTO 23016KT 9999 NCD 07/03 Q0996
                        NOSIG=
201912082020 METAR COR EGLL 082020Z AUTO 24018KT 9999 NCD 07/03 Q0996
                        NOSIG=
201912081950 METAR COR EGLL 081950Z AUTO 24016KT 9999 NCD 07/03 Q0996
                        NOSIG=
201912081920 METAR COR EGLL 081920Z AUTO 24017KT 9999 NCD 07/03 Q0997
                        NOSIG=
201912081850 METAR COR EGLL 081850Z AUTO 23016KT 9999 NCD 07/03 Q0997
                        NOSIG=
201912081820 METAR COR EGLL 081820Z AUTO 23016G28KT 9999 FEW045 07/04
                        Q0998 NOSIG=
201912081750 METAR COR EGLL 081750Z AUTO 24014KT 9999 SCT034 07/04 Q0998
                        NOSIG=
201912081720 METAR COR EGLL 081720Z AUTO 24014KT 9999 NCD 07/04 Q0998
                        TEMPO SHRA=
201912081650 METAR COR EGLL 081650Z AUTO 24014KT 9999 SCT031 07/04 Q0998
                        TEMPO SHRA=
201912081620 METAR COR EGLL 081620Z AUTO 24014KT 9999 NCD 07/04 Q0999
                        NOSIG=
201912081550 METAR COR EGLL 081550Z AUTO 23015KT 9999 NCD 07/04 Q0999
                        NOSIG=
201912081520 METAR COR EGLL 081520Z AUTO 24017KT 9999 FEW037/// //////CB
                        08/04 Q0999 TEMPO SHRA=
201912081450 METAR COR EGLL 081450Z AUTO 25016KT 9999 SCT042/// //////TCU
                        09/05 Q0999 TEMPO 4000 SHRA=
201912081420 METAR COR EGLL 081420Z AUTO 24017KT 9999 SCT037 BKN044 10/04
                        Q0999 NOSIG=
201912081350 METAR COR EGLL 081350Z AUTO 25020KT 9999 FEW044 10/03 Q0999
                        NOSIG=
201912081320 METAR COR EGLL 081320Z AUTO 24020KT 9999 FEW039 11/04 Q1000
                        NOSIG=
201912081250 METAR COR EGLL 081250Z AUTO 25021G31KT 9999 SCT036 BKN045
                        11/04 Q1000 NOSIG=
201912081220 METAR COR EGLL 081220Z AUTO 24019KT 9999 SCT032 11/05 Q1001
                        NOSIG=
201912081150 METAR COR EGLL 081150Z AUTO 25023KT 9999 FEW034 11/05 Q1001
                        NOSIG=
201912081120 METAR COR EGLL 081120Z AUTO 25023KT 9999 NCD 11/05 Q1001
                        NOSIG=
201912081050 METAR COR EGLL 081050Z AUTO 25018KT 9999 FEW032 11/06 Q1001
                        NOSIG=
201912081020 METAR COR EGLL 081020Z AUTO 24018KT 9999 SCT031 10/06 Q1002
                        NOSIG=
201912080950 METAR COR EGLL 080950Z AUTO 25016KT 9999 SCT030 BKN049 10/06
                        Q1002 NOSIG=
201912080920 METAR COR EGLL 080920Z AUTO 25016KT 9999 BKN030 BKN037 10/06
                        Q1002 NOSIG=
201912080850 METAR COR EGLL 080850Z AUTO 25017KT 9999 SCT032 SCT038 BKN049
                        10/06 Q1001 NOSIG=
201912080820 METAR COR EGLL 080820Z 25019KT 9999 FEW031 10/06 Q1001 NOSIG=
201912080750 METAR COR EGLL 080750Z AUTO 25017KT 9999 SCT031 10/06 Q1000
                        NOSIG=
201912080720 METAR COR EGLL 080720Z AUTO 25016G27KT 9999 NCD 10/06 Q1000
                        NOSIG=
201912080650 METAR COR EGLL 080650Z AUTO 25018KT 9999 NCD 11/06 Q1000
                        NOSIG=
201912080620 METAR COR EGLL 080620Z AUTO 25021KT 9999 NCD 11/07 Q1000
                        NOSIG=
201912080550 METAR COR EGLL 080550Z AUTO 27021KT 9999 SCT029 11/08 Q1000
                        NOSIG=
201912080520 METAR COR EGLL 080520Z AUTO 24015KT 9999 FEW012 SCT038 12/10
                        Q0999 NOSIG=
201912080450 METAR COR EGLL 080450Z AUTO 23014KT 8000 -RA BKN010 OVC020
                        12/11 Q0999 BECMG SCT020=
201912080420 METAR COR EGLL 080420Z AUTO 22015KT 9000 BKN010 OVC028 11/11
                        Q0999 TEMPO SCT010=
201912080350 METAR COR EGLL 080350Z AUTO 22016KT 9999 BKN012 11/10 Q1000
                        TEMPO SCT012=
201912080320 METAR COR EGLL 080320Z AUTO 22017G28KT 9999 BKN014 OVC019
                        11/10 Q1000 TEMPO SCT014=
201912080250 METAR COR EGLL 080250Z AUTO 21017KT 9999 -RA FEW013 BKN017
                        11/10 Q1001 TEMPO 4000 RA BKN013=
201912080220 METAR COR EGLL 080220Z AUTO 21014KT 9999 -RA BKN014 BKN020
                        10/10 Q1002 TEMPO 4000 RA=
201912080150 METAR COR EGLL 080150Z AUTO 21015KT 6000 -RA BKN016/// //////TCU
                        11/09 Q1003 BECMG 4000 RA BKN010=
201912080120 METAR COR EGLL 080120Z AUTO 21016KT 9999 -RA BKN016 11/09
                        Q1003 BECMG 4000 RA BKN010=
201912080050 METAR COR EGLL 080050Z AUTO 22017KT 9999 BKN015 OVC019 11/09
                        Q1004 BECMG 4000 RA BKN010=
201912080020 METAR COR EGLL 080020Z AUTO 22017G29KT 9999 BKN013 11/09
                        Q1004 NOSIG=
201912072350 METAR COR EGLL 072350Z AUTO 21016KT 9999 OVC011 11/09 Q1005
                        NOSIG=
201912072320 METAR COR EGLL 072320Z AUTO 21012KT 9999 OVC013 11/09 Q1006
                        NOSIG=
201912072250 METAR COR EGLL 072250Z AUTO 22015KT 9999 OVC014 11/09 Q1007
                        NOSIG=
201912072220 METAR COR EGLL 072220Z AUTO 22014G24KT 9999 OVC014 11/08
                        Q1008 NOSIG=
201912072150 METAR COR EGLL 072150Z AUTO 23015KT 9999 OVC015 11/08 Q1009
                        TEMPO BKN014=
201912072120 METAR COR EGLL 072120Z AUTO 23017KT 9999 OVC016 11/08 Q1009
                        TEMPO BKN014=
201912072050 METAR COR EGLL 072050Z AUTO 22013KT 9999 OVC016 11/08 Q1009
                        NOSIG=
201912072020 METAR COR EGLL 072020Z AUTO 22011KT 9999 OVC016 11/08 Q1010
                        NOSIG=
201912071950 METAR COR EGLL 071950Z AUTO 22011KT 9999 OVC018 10/07 Q1011
                        NOSIG=
201912071920 METAR COR EGLL 071920Z AUTO 24010KT 9999 OVC019 10/07 Q1011
                        NOSIG=
201912071850 METAR COR EGLL 071850Z AUTO 23011KT 9999 OVC019 10/07 Q1012
                        NOSIG=
201912071820 METAR COR EGLL 071820Z AUTO 23010KT 200V260 9999 OVC021 10/06
                        Q1012 NOSIG=
201912071750 METAR COR EGLL 071750Z AUTO 23012KT 9999 OVC024 10/06 Q1012
                        NOSIG=
201912071720 METAR COR EGLL 071720Z AUTO 22010KT 9999 BKN027 10/06 Q1013
                        NOSIG=
201912071650 METAR COR EGLL 071650Z AUTO 22009KT 9999 OVC026 10/06 Q1013
                        NOSIG=
201912071620 METAR COR EGLL 071620Z AUTO 24011KT 9999 BKN027 10/06 Q1013
                        NOSIG=
201912071550 METAR COR EGLL 071550Z AUTO 24012KT 9999 OVC028 11/06 Q1013
                        NOSIG=
201912071520 METAR COR EGLL 071520Z AUTO 24011KT 9999 OVC029 11/06 Q1013
                        NOSIG=
201912071450 METAR COR EGLL 071450Z AUTO 24010KT 9999 OVC030 11/06 Q1013
                        NOSIG=
201912071420 METAR COR EGLL 071420Z AUTO 24014KT 9999 OVC029 11/06 Q1013
                        NOSIG=
201912071350 METAR COR EGLL 071350Z AUTO 24011KT 9999 BKN027 11/06 Q1013
                        NOSIG=
201912071320 METAR COR EGLL 071320Z AUTO 23012KT 9999 FEW033 11/06 Q1014
                        NOSIG=
201912071250 METAR COR EGLL 071250Z AUTO 23011KT 9999 OVC033 11/06 Q1014
                        NOSIG=
201912071220 METAR COR EGLL 071220Z AUTO 23012KT 9999 OVC037 10/07 Q1014
                        NOSIG=
201912071150 METAR COR EGLL 071150Z AUTO 24011KT 9999 BKN034 10/06 Q1015
                        NOSIG=
201912071120 METAR COR EGLL 071120Z AUTO 24011KT 9999 BKN036 10/07 Q1014
                        NOSIG=
201912071050 METAR COR EGLL 071050Z AUTO 24011KT 9999 OVC035 10/07 Q1014
                        NOSIG=
201912071020 METAR COR EGLL 071020Z AUTO 22010KT 9999 OVC037 09/07 Q1015
                        NOSIG=
201912070950 METAR COR EGLL 070950Z AUTO 22008KT 180V250 9999 BKN039 09/07
                        Q1015 NOSIG=
201912070920 METAR EGLL 070920Z AUTO 22007KT 180V250 9999 BKN039 09/07
                        Q1015=
201912070850 METAR COR EGLL 070850Z AUTO 24008KT 9999 OVC038 08/06 Q1014
                        NOSIG=
201912070820 METAR COR EGLL 070820Z AUTO 23007KT 9999 OVC040 08/06 Q1014
                        NOSIG=
201912070750 METAR COR EGLL 070750Z AUTO 24007KT 9999 OVC042 08/06 Q1014
                        NOSIG=
201912070720 METAR COR EGLL 070720Z AUTO 22006KT 180V250 9999 BKN041 07/06
                        Q1014 NOSIG=
201912070650 METAR COR EGLL 070650Z AUTO 23005KT 180V250 9999 NCD 07/06
                        Q1014 NOSIG=
201912070620 METAR COR EGLL 070620Z AUTO 24005KT 190V270 9999 SCT039 08/06
                        Q1013 NOSIG=
201912070550 METAR COR EGLL 070550Z AUTO 25007KT 9999 FEW040 08/06 Q1012
                        NOSIG=
201912070520 METAR COR EGLL 070520Z AUTO 26007KT 9999 NCD 08/06 Q1012
                        NOSIG=
201912070450 METAR COR EGLL 070450Z AUTO 27006KT 9999 FEW043 08/06 Q1012
                        NOSIG=
201912070420 METAR COR EGLL 070420Z AUTO 27007KT 9999 SCT040 09/06 Q1011
                        NOSIG=
201912070350 METAR COR EGLL 070350Z AUTO 27009KT 9999 BKN041 09/06 Q1011
                        NOSIG=
201912070320 METAR COR EGLL 070320Z AUTO 27010KT 9999 OVC040 09/06 Q1011
                        NOSIG=
201912070250 METAR COR EGLL 070250Z AUTO 27009KT 9999 OVC043 09/06 Q1011
                        NOSIG=
201912070220 METAR COR EGLL 070220Z AUTO 27011KT 9999 OVC045 09/06 Q1011
                        NOSIG=
201912070150 METAR COR EGLL 070150Z AUTO 25009KT 9999 OVC042 09/06 Q1011
                        NOSIG=
201912070120 METAR COR EGLL 070120Z AUTO 26011KT 9999 OVC042 09/06 Q1010
                        NOSIG=
201912070050 METAR COR EGLL 070050Z AUTO 26012KT 9999 OVC040 09/06 Q1010
                        NOSIG=
201912070020 METAR COR EGLL 070020Z AUTO 28009KT 9999 OVC038 09/06 Q1010
                        NOSIG=
201912062350 METAR COR EGLL 062350Z AUTO 26010KT 9999 BKN036 OVC045 09/07
                        Q1010 NOSIG=
201912062320 METAR COR EGLL 062320Z AUTO 25010KT 9999 BKN046 09/06 Q1009
                        NOSIG=
201912062250 METAR COR EGLL 062250Z AUTO 25010KT 9999 NCD 09/06 Q1009
                        NOSIG=
201912062220 METAR COR EGLL 062220Z AUTO 25010KT 9999 NCD 09/06 Q1009
                        NOSIG=
201912062150 METAR COR EGLL 062150Z AUTO 26011KT 9999 NCD 09/07 Q1008
                        NOSIG=
201912062120 METAR COR EGLL 062120Z AUTO 26011KT 9999 SCT031 09/06 Q1008
                        NOSIG=
201912062050 METAR COR EGLL 062050Z AUTO 26010KT 9999 BKN036 10/07 Q1007
                        NOSIG=
201912062020 METAR COR EGLL 062020Z AUTO 27011KT 9999 BKN037 OVC046 10/07
                        Q1007 NOSIG=
201912061950 METAR COR EGLL 061950Z AUTO 27011KT 9999 BKN045 10/07 Q1006
                        NOSIG=
201912061920 METAR COR EGLL 061920Z AUTO 27011KT 9999 BKN046 10/07 Q1006
                        NOSIG=
201912061850 METAR COR EGLL 061850Z AUTO 27012KT 9999 BKN045 10/07 Q1005
                        NOSIG=
201912061820 METAR COR EGLL 061820Z AUTO 27014KT 9999 SCT044 10/07 Q1004
                        NOSIG=
201912061750 METAR COR EGLL 061750Z AUTO 26015KT 9999 BKN044 11/08 Q1004
                        NOSIG=
201912061720 METAR COR EGLL 061720Z AUTO 25017KT 9999 FEW025 SCT042 11/08
                        Q1003 NOSIG=
201912061650 METAR COR EGLL 061650Z AUTO 26016KT 9999 FEW023 SCT039 11/09
                        Q1003 NOSIG=
201912061620 METAR COR EGLL 061620Z AUTO 25017KT 9999 FEW030 11/09 Q1002
                        NOSIG=
201912061550 METAR COR EGLL 061550Z AUTO 26019KT 9999 -RA FEW023/// BKN030///
                        BKN039/// //////CB 11/09 Q1002 TEMPO
                        SHRA=
201912061520 METAR COR EGLL 061520Z AUTO 24012KT 8000 -RA FEW027/// SCT034///
                        BKN042/// //////CB 11/10 Q1002 TEMPO
                        4000 +SHRA BKN014=
201912061450 METAR COR EGLL 061450Z AUTO 24015KT 4900 -RA SCT022 BKN028
                        BKN038 12/10 Q1002 BECMG 9999 NSW=
201912061420 METAR COR EGLL 061420Z AUTO 25012KT 9999 FEW028 SCT036 BKN047
                        13/10 Q1002 NOSIG=
201912061350 METAR COR EGLL 061350Z AUTO 25018KT 9999 FEW026 BKN030 OVC046
                        13/09 Q1002 NOSIG=
201912061320 METAR COR EGLL 061320Z AUTO 25018KT 9999 FEW031 BKN038 13/10
                        Q1003 NOSIG=
201912061250 METAR COR EGLL 061250Z AUTO 25018KT 9999 FEW017 SCT025 BKN033
                        13/11 Q1003 NOSIG=
201912061220 METAR COR EGLL 061220Z AUTO 24015KT 7000 -RA BKN013 OVC022
                        13/11 Q1003 BECMG BKN018=
201912061150 METAR COR EGLL 061150Z AUTO 23016KT 9999 BKN013 OVC024 13/12
                        Q1004 BECMG BKN018=
201912061120 METAR COR EGLL 061120Z AUTO 23018KT 9999 BKN010 BKN016 OVC020
                        13/12 Q1004 TEMPO 4000 RADZ=
201912061050 METAR COR EGLL 061050Z AUTO 23017KT 9999 BKN011 OVC018 13/12
                        Q1005 NOSIG=
201912061020 METAR COR EGLL 061020Z AUTO 23015KT 9999 OVC011 12/11 Q1005
                        NOSIG=
201912060950 METAR COR EGLL 060950Z AUTO 23015KT 200V320 9999 OVC010 12/11
                        Q1005 NOSIG=
201912060920 METAR COR EGLL 060920Z AUTO 23014KT 6000 -RA SCT009 BKN014
                        OVC029 12/11 Q1006 TEMPO 4000 RADZ=
201912060850 METAR EGLL 060850Z AUTO 24016KT 9999 BKN011 OVC015 12/11
                        Q1006=
201912060820 METAR COR EGLL 060820Z AUTO 23016KT 9999 BKN011 OVC021 12/11
                        Q1006 NOSIG=
201912060750 METAR COR EGLL 060750Z AUTO 22012KT 9999 BKN011/// BKN015///
                        OVC020/// //////TCU 12/11 Q1006 NOSIG=
201912060720 METAR COR EGLL 060720Z AUTO 22013KT 9999 -RA BKN010/// OVC019///
                        //////TCU 12/11 Q1007 NOSIG=
201912060650 METAR COR EGLL 060650Z AUTO 22011KT 9999 SCT010 BKN016 OVC042
                        11/11 Q1007 RERA TEMPO RA BKN012=
201912060620 METAR COR EGLL 060620Z 22011KT 7000 RA BKN011 BKN015 11/11
                        Q1007 TEMPO -RA BKN009=
201912060550 METAR COR EGLL 060550Z AUTO 23014KT 9999 BKN013/// //////TCU
                        12/11 Q1008 TEMPO BKN009=
201912060520 METAR COR EGLL 060520Z AUTO 23013KT 9999 BKN012 OVC041 12/10
                        Q1008 TEMPO BKN009=
201912060450 METAR COR EGLL 060450Z AUTO 23013KT 9999 BKN011 OVC018 11/10
                        Q1008 TEMPO BKN009=
201912060420 METAR COR EGLL 060420Z AUTO 22012KT 9999 OVC011 11/10 Q1009
                        TEMPO BKN009=
201912060350 METAR COR EGLL 060350Z AUTO 22010KT 9999 -RA BKN010 OVC015
                        11/10 Q1009 TEMPO BKN009=
201912060320 METAR COR EGLL 060320Z AUTO 22010KT 9999 -RA BKN010 OVC015
                        11/10 Q1009 TEMPO BKN009=
201912060250 METAR COR EGLL 060250Z AUTO 22012KT 9999 -RA BKN010 OVC016
                        11/10 Q1010 TEMPO BKN009=
201912060220 METAR COR EGLL 060220Z AUTO 22013KT 9999 -RA OVC010 11/10
                        Q1010 TEMPO BKN009=
201912060150 METAR COR EGLL 060150Z AUTO 22012KT 9999 -RA BKN010 OVC017
                        10/10 Q1010 TEMPO BKN009=
201912060120 METAR COR EGLL 060120Z AUTO 23013KT 9999 -RA BKN009 OVC015
                        10/10 Q1011 TEMPO BKN012=
201912060050 METAR COR EGLL 060050Z AUTO 22012KT 9999 BKN008 OVC012 10/09
                        Q1011 TEMPO SCT008 BKN012=
201912060020 METAR COR EGLL 060020Z AUTO 22014KT 9999 -RA BKN010 OVC023
                        10/09 Q1011 TEMPO BKN009=
201912052350 METAR COR EGLL 052350Z AUTO 23015KT 9999 -RA OVC011 10/09
                        Q1012 NOSIG=
201912052320 METAR COR EGLL 052320Z AUTO 23015KT 9999 OVC014 10/08 Q1012
                        NOSIG=
201912052250 METAR COR EGLL 052250Z AUTO 22013KT 9999 BKN015 OVC022 10/08
                        Q1012 BECMG BKN012=
201912052220 METAR COR EGLL 052220Z AUTO 22014KT 9999 BKN016 OVC021 10/08
                        Q1013 BECMG BKN014=
201912052150 METAR COR EGLL 052150Z AUTO 23017KT 9999 BKN017 OVC045 10/07
                        Q1013 BECMG BKN012=
201912052120 METAR COR EGLL 052120Z AUTO 23017KT 9999 BKN019 OVC038 10/07
                        Q1014 NOSIG=
201912052050 METAR COR EGLL 052050Z AUTO 23013KT 9999 SCT027 BKN037 10/07
                        Q1014 NOSIG=
201912052020 METAR COR EGLL 052020Z AUTO 23013KT 9999 SCT030 10/07 Q1014
                        NOSIG=
201912051950 METAR COR EGLL 051950Z AUTO 23014KT 9999 BKN035 10/07 Q1015
                        NOSIG=
201912051920 METAR COR EGLL 051920Z AUTO 23013KT 9999 NCD 10/07 Q1015
                        NOSIG=
201912051850 METAR COR EGLL 051850Z AUTO 23014KT 9999 NCD 10/07 Q1015
                        NOSIG=
201912051820 METAR COR EGLL 051820Z AUTO 23015KT 9999 NCD 09/07 Q1015
                        NOSIG=
201912051750 METAR COR EGLL 051750Z AUTO 23013KT 9999 -RA NCD 09/07 Q1015
                        NOSIG=
201912051720 METAR COR EGLL 051720Z AUTO 23015KT 9999 -RA NCD 09/07 Q1016
                        NOSIG=
201912051650 METAR COR EGLL 051650Z AUTO 22013KT 9999 NCD 09/07 Q1016
                        NOSIG=
201912051620 METAR COR EGLL 051620Z AUTO 22011KT 9999 NCD 08/07 Q1016
                        NOSIG=
201912051550 METAR COR EGLL 051550Z AUTO 22010KT 9999 NCD 08/07 Q1017
                        NOSIG=
201912051520 METAR COR EGLL 051520Z AUTO 22009KT 190V270 9999 NCD 08/07
                        Q1017 NOSIG=
201912051450 METAR COR EGLL 051450Z AUTO 23010KT 9999 NCD 08/07 Q1017
                        NOSIG=
201912051420 METAR COR EGLL 051420Z AUTO 22007KT 180V260 9999 FEW015 08/07
                        Q1018 NOSIG=
201912051350 METAR COR EGLL 051350Z AUTO 22007KT 190V250 9999 SCT013 08/07
                        Q1018 NOSIG=
201912051320 METAR COR EGLL 051320Z AUTO 23009KT 9999 NCD 07/06 Q1019
                        NOSIG=
201912051250 METAR COR EGLL 051250Z AUTO 23009KT 9000 NCD 06/06 Q1019
                        NOSIG=
201912051220 METAR COR EGLL 051220Z AUTO 23009KT 9000 NCD 06/06 Q1020
                        NOSIG=
201912051150 METAR COR EGLL 051150Z AUTO 24008KT 8000 NCD 06/06 Q1020
                        NOSIG=
201912051120 METAR COR EGLL 051120Z AUTO 24007KT 190V270 7000 NCD 04/04
                        Q1021 NOSIG=
201912051050 METAR COR EGLL 051050Z AUTO 23007KT 190V260 7000 NCD 04/04
                        Q1021 NOSIG=
201912051020 METAR COR EGLL 051020Z AUTO 23007KT 6000 NCD 03/03 Q1021
                        NOSIG=
201912050950 METAR COR EGLL 050950Z AUTO 23005KT 160V270 5000 BR NCD 02/02
                        Q1021 BECMG 6000 NSW=
201912050920 METAR COR EGLL 050920Z AUTO 24007KT 5000 BR FEW034 02/02
                        Q1021 NOSIG=
201912050850 METAR EGLL 050850Z AUTO 26005KT 4500 BR BKN013 02/02 Q1022=
201912050820 METAR COR EGLL 050820Z AUTO VRB03KT 3900 BR BKN012 02/02
                        Q1021 BECMG SCT012=
201912050750 METAR COR EGLL 050750Z AUTO 28004KT 4000 BR OVC010 01/01
                        Q1021 BECMG 5000 SCT010=
201912050720 METAR COR EGLL 050720Z AUTO VRB03KT 4100 BR BKN010 01/01
                        Q1021 BECMG 5000=
201912050650 METAR COR EGLL 050650Z AUTO VRB03KT 3500 BR SCT012 SCT031
                        M00/M00 Q1021 BECMG 5000=
201912050620 METAR COR EGLL 050620Z AUTO 18004KT 140V240 3400 BR NCD 00/00
                        Q1021 BECMG 5000=
201912050550 METAR COR EGLL 050550Z AUTO VRB01KT 3600 BR FEW029 00/00
                        Q1021 BECMG 5000=
201912050520 METAR COR EGLL 050520Z AUTO 18004KT 2400 BR OVC029 M00/M00
                        Q1021 BECMG 4000=
201912050450 METAR COR EGLL 050450Z AUTO 21001KT 2100 BR OVC029 M00/M00
                        Q1021 BECMG 4000=
201912050420 METAR COR EGLL 050420Z AUTO 26002KT 0900 R27L/P1500 FZFG
                        FEW001 OVC025 M00/M00 Q1021 BECMG
                        1500 BR=
201912050350 METAR COR EGLL 050350Z AUTO VRB02KT 0150 FZFG VV/// M01/M01
                        Q1021 NOSIG=
201912050320 METAR COR EGLL 050320Z AUTO 18002KT 0150 R27R/0400 FZFG VV///
                        M01/M01 Q1021 NOSIG=
201912050250 METAR COR EGLL 050250Z AUTO VRB01KT 0050 R27R/0375 R27L/0350
                        FZFG VV/// M01/M01 Q1021 NOSIG=
201912050220 METAR COR EGLL 050220Z AUTO 26003KT 0100 R27R/0400 R27L/0350
                        FZFG VV/// M01/M01 Q1021 NOSIG=
201912050150 METAR COR EGLL 050150Z AUTO 26003KT 0100 R27R/0350 R27L/0400
                        FZFG VV/// M01/M01 Q1021 NOSIG=
201912050120 METAR COR EGLL 050120Z AUTO 27004KT 0100 R27R/0400 R27L/0400
                        FZFG VV/// M01/M01 Q1021 NOSIG=
201912050050 METAR COR EGLL 050050Z 27004KT 0100 R27R/0375 R27L/0375 FZFG
                        VV/// M00/M00 Q1021 NOSIG=
201912050020 METAR COR EGLL 050020Z 27003KT 0100 R27R/0375 R27L/0350 FZFG
                        VV/// M00/M00 Q1021 NOSIG=
201912042350 METAR COR EGLL 042350Z VRB02KT 0100 R27R/0400 R27L/0275 FZFG
                        VV/// M00/M00 Q1021 NOSIG=
201912042320 METAR COR EGLL 042320Z 27003KT 0100 R27R/0300 R27L/0400 FG
                        VV/// 00/00 Q1021 NOSIG=
201912042250 METAR COR EGLL 042250Z 28005KT 0100 R27R/0450 R27L/0400 FG
                        VV/// 01/00 Q1021 NOSIG=
201912042220 METAR COR EGLL 042220Z VRB02KT 0100 R27R/0300 R27L/0450 FG
                        VV/// 01/01 Q1021 NOSIG=
201912042150 METAR COR EGLL 042150Z VRB03KT 0100 R27R/0275 R27L/P1500
                        FG BKN000 02/01 Q1021 NOSIG=
201912042120 METAR COR EGLL 042120Z VRB03KT 4000 1500W BR NSC 03/03 Q1020
                        BECMG 0800 FG=
201912042050 METAR COR EGLL 042050Z 35001KT 3500 1200W BR FEW002 03/02
                        Q1020 BECMG 1200=
201912042020 METAR COR EGLL 042020Z 31001KT 3000 BR NSC 02/01 Q1021 BECMG
                        2000=
201912041950 METAR COR EGLL 041950Z VRB01KT 6000 NSC 03/02 Q1021 BECMG
                        4000 BR=
201912041920 METAR COR EGLL 041920Z 30002KT 6000 NSC 05/03 Q1021 BECMG
                        4000 BR=
201912041850 METAR COR EGLL 041850Z AUTO 30002KT 7000 NCD 04/03 Q1020
                        BECMG 4000 BR=
201912041820 METAR COR EGLL 041820Z AUTO 31003KT 9000 NCD 06/04 Q1020
                        NOSIG=
201912041750 METAR COR EGLL 041750Z AUTO 29002KT 8000 NCD 05/03 Q1020
                        NOSIG=
201912041720 METAR COR EGLL 041720Z AUTO 29001KT 9999 NCD 05/03 Q1020
                        NOSIG=
201912041650 METAR COR EGLL 041650Z AUTO 00000KT 9999 NCD 06/03 Q1020
                        NOSIG=
201912041620 METAR COR EGLL 041620Z AUTO VRB03KT 9999 NCD 06/03 Q1019
                        NOSIG=
201912041550 METAR COR EGLL 041550Z AUTO 19005KT 9999 NCD 06/03 Q1019
                        NOSIG=
201912041520 METAR COR EGLL 041520Z AUTO 17005KT 130V200 9999 NCD 07/03
                        Q1019 NOSIG=
201912041450 METAR COR EGLL 041450Z AUTO 25005KT 190V320 9999 NCD 08/04
                        Q1019 NOSIG=
201912041420 METAR COR EGLL 041420Z AUTO 22004KT 190V250 9999 NCD 09/04
                        Q1019 NOSIG=
201912041350 METAR COR EGLL 041350Z AUTO VRB03KT 9999 NCD 09/04 Q1019
                        NOSIG=
201912041320 METAR COR EGLL 041320Z AUTO 16004KT 130V260 9999 NCD 08/04
                        Q1020 NOSIG=
201912041250 METAR COR EGLL 041250Z AUTO 15004KT 110V240 9999 NCD 09/05
                        Q1020 NOSIG=
201912041220 METAR COR EGLL 041220Z AUTO VRB03KT 9999 NCD 08/05 Q1020
                        NOSIG=
201912041150 METAR COR EGLL 041150Z AUTO VRB04KT 9999 NCD 08/05 Q1020
                        NOSIG=
201912041120 METAR COR EGLL 041120Z AUTO VRB02KT 9999 NCD 08/05 Q1021
                        NOSIG=
201912041050 METAR COR EGLL 041050Z AUTO 25004KT 170V310 9999 NCD 06/04
                        Q1021 NOSIG=
201912041020 METAR COR EGLL 041020Z AUTO VRB03KT 9000 NCD 06/05 Q1021
                        NOSIG=
201912040950 METAR COR EGLL 040950Z AUTO VRB02KT 6000 NCD 04/04 Q1021
                        NOSIG=
201912040920 METAR COR EGLL 040920Z AUTO VRB02KT 5000 BR NCD 03/03 Q1021
                        NOSIG=
201912040850 METAR COR EGLL 040850Z AUTO 02001KT 5000 BR NCD 02/02 Q1021
                        TEMPO 4000 BR=
201912040820 METAR COR EGLL 040820Z AUTO 05002KT 7000 NCD 02/02 Q1021
                        NOSIG=
201912040750 METAR COR EGLL 040750Z VRB02KT 7000 NSC 02/02 Q1021 TEMPO
                        4000 BR=
201912040720 METAR COR EGLL 040720Z 35002KT 8000 3000SE BR NSC 02/02 Q1021
                        TEMPO 4000=
201912040650 METAR COR EGLL 040650Z AUTO VRB01KT 3500 BR NCD 01/01 Q1021
                        TEMPO 5000=
201912040620 METAR COR EGLL 040620Z VRB03KT 5000 BR NSC 01/01 Q1021 BECMG
                        3000=
201912040550 METAR COR EGLL 040550Z 08002KT 5000 1200S BR NSC 01/01 Q1021
                        BECMG 4000=
201912040520 METAR COR EGLL 040520Z AUTO 04001KT 5000 BR NCD 02/02 Q1021
                        BECMG 4000=
201912040450 METAR COR EGLL 040450Z AUTO VRB01KT 6000 NCD 02/02 Q1021
                        TEMPO 4000 BR=
201912040420 METAR COR EGLL 040420Z 10002KT 4500 BR NSC 02/02 Q1021 TEMPO
                        2500=
201912040350 METAR COR EGLL 040350Z AUTO VRB01KT 4900 BR BKN023 02/02
                        Q1021 TEMPO 5000=
201912040320 METAR COR EGLL 040320Z AUTO VRB01KT 6000 BKN023 03/03 Q1022
                        NOSIG=
201912040250 METAR COR EGLL 040250Z AUTO 20001KT 5000 BR OVC023 03/03
                        Q1022 NOSIG=
201912040220 METAR COR EGLL 040220Z AUTO 16001KT 5000 BR OVC023 03/03
                        Q1023 NOSIG=
201912040150 METAR COR EGLL 040150Z AUTO 16001KT 5000 BR BKN023 02/02
                        Q1023 NOSIG=
201912040120 METAR EGLL 040120Z 15001KT 6000 BKN023 02/02 Q1023=
201912040050 METAR COR EGLL 040050Z 12002KT 6000 NSC 01/01 Q1023 BECMG
                        4000 BR=
201912040020 METAR COR EGLL 040020Z 00000KT 6000 NSC 02/02 Q1023 BECMG
                        4000 BR=
201912032350 METAR COR EGLL 032350Z 20001KT 6000 NSC 02/01 Q1023 BECMG
                        4000 BR=
201912032320 METAR COR EGLL 032320Z 18003KT 8000 NSC 03/02 Q1024 NOSIG=
201912032250 METAR COR EGLL 032250Z AUTO 19005KT 9999 NCD 04/03 Q1024
                        NOSIG=
201912032220 METAR COR EGLL 032220Z AUTO 21005KT 190V260 9999 NCD 04/03
                        Q1024 NOSIG=
201912032150 METAR COR EGLL 032150Z AUTO 21007KT 9999 NCD 05/04 Q1024
                        NOSIG=
201912032120 METAR COR EGLL 032120Z AUTO 21006KT 9999 NCD 06/04 Q1024
                        NOSIG=
201912032050 METAR COR EGLL 032050Z AUTO 20006KT 150V260 9999 NCD 06/04
                        Q1024 NOSIG=
201912032020 METAR COR EGLL 032020Z AUTO 20006KT 9999 NCD 06/04 Q1025
                        NOSIG=
201912031950 METAR COR EGLL 031950Z AUTO 21007KT 9999 NCD 05/04 Q1025
                        NOSIG=
201912031920 METAR COR EGLL 031920Z AUTO 21007KT 9999 NCD 06/04 Q1025
                        NOSIG=
201912031850 METAR COR EGLL 031850Z AUTO 21006KT 170V240 9999 NCD 06/03
                        Q1025 NOSIG=
201912031820 METAR COR EGLL 031820Z AUTO 21006KT 180V240 9999 NCD 06/03
                        Q1025 NOSIG=
201912031750 METAR COR EGLL 031750Z AUTO 22005KT 9999 NCD 07/03 Q1025
                        NOSIG=
201912031720 METAR COR EGLL 031720Z AUTO 22006KT 9999 NCD 07/03 Q1025
                        NOSIG=
201912031650 METAR COR EGLL 031650Z AUTO 22006KT 9999 NCD 07/03 Q1025
                        NOSIG=
201912031620 METAR COR EGLL 031620Z AUTO 22006KT 9999 NCD 07/03 Q1025
                        NOSIG=
201912031550 METAR EGLL 031550Z AUTO 24006KT 9999 NCD 08/03 Q1025=
201912031520 METAR EGLL 031520Z AUTO 24007KT 9999 NCD 08/02 Q1025=
201912031450 METAR COR EGLL 031450Z AUTO 23010KT 9999 NCD 09/02 Q1025
                        NOSIG=
201912031420 METAR COR EGLL 031420Z AUTO 23010KT 9999 NCD 09/03 Q1026
                        NOSIG=
201912031350 METAR COR EGLL 031350Z AUTO 24007KT 9999 NCD 10/03 Q1026
                        NOSIG=
201912031320 METAR COR EGLL 031320Z AUTO 27009KT 9999 NCD 09/03 Q1026
                        NOSIG=
201912031250 METAR COR EGLL 031250Z AUTO 25009KT 9999 NCD 09/03 Q1027
                        NOSIG=
201912031220 METAR COR EGLL 031220Z AUTO 26005KT 230V290 9999 NCD 09/04
                        Q1027 NOSIG=
201912031150 METAR COR EGLL 031150Z AUTO 28005KT 9999 NCD 08/04 Q1028
                        NOSIG=
201912031120 METAR COR EGLL 031120Z AUTO 24005KT 9999 NCD 07/04 Q1028
                        NOSIG=
201912031050 METAR COR EGLL 031050Z AUTO 25007KT 220V280 9999 NCD 07/04
                        Q1028 NOSIG=
201912031020 METAR COR EGLL 031020Z AUTO 23006KT 180V270 9999 NCD 06/04
                        Q1029 NOSIG=
201912030950 METAR COR EGLL 030950Z AUTO 24005KT 9999 NCD 05/03 Q1029
                        NOSIG=
201912030920 METAR COR EGLL 030920Z AUTO 24005KT 9999 NCD 04/03 Q1029
                        NOSIG=
201912030850 METAR COR EGLL 030850Z AUTO 25005KT 9999 NCD 04/02 Q1029
                        NOSIG=
201912030820 METAR COR EGLL 030820Z AUTO 25005KT 220V280 9999 NCD 03/02
                        Q1029 NOSIG=
201912030750 METAR COR EGLL 030750Z AUTO 24003KT 9999 NCD 03/02 Q1029
                        NOSIG=
201912030720 METAR COR EGLL 030720Z AUTO 22004KT 9999 NCD 03/02 Q1029
                        NOSIG=
201912030650 METAR COR EGLL 030650Z AUTO VRB03KT 9999 NCD 02/02 Q1029
                        NOSIG=
201912030620 METAR COR EGLL 030620Z AUTO 17004KT 150V230 9999 NCD 02/01
                        Q1029 NOSIG=
201912030550 METAR COR EGLL 030550Z AUTO 18003KT 9999 NCD 02/01 Q1029
                        NOSIG=
201912030520 METAR COR EGLL 030520Z AUTO VRB01KT 9999 NCD 02/01 Q1029
                        NOSIG=
201912030450 METAR COR EGLL 030450Z AUTO VRB01KT 9999 NCD 02/01 Q1029
                        NOSIG=
201912030420 METAR COR EGLL 030420Z AUTO 20001KT 9999 NCD 02/01 Q1029
                        NOSIG=
201912030350 METAR COR EGLL 030350Z AUTO VRB01KT 9999 NCD 02/01 Q1030
                        NOSIG=
201912030320 METAR COR EGLL 030320Z AUTO VRB01KT 9999 NCD 02/01 Q1030
                        NOSIG=
201912030250 METAR COR EGLL 030250Z AUTO 31002KT 9999 NCD 02/01 Q1030
                        NOSIG=
201912030220 METAR COR EGLL 030220Z AUTO 28002KT 9999 NCD 02/01 Q1030
                        NOSIG=
201912030150 METAR COR EGLL 030150Z AUTO 22001KT 9999 NCD 02/01 Q1030
                        NOSIG=
201912030120 METAR COR EGLL 030120Z AUTO VRB02KT 9999 NCD 02/01 Q1031
                        NOSIG=
201912030050 METAR COR EGLL 030050Z AUTO 19002KT 9999 NCD 02/01 Q1031
                        NOSIG=
201912030020 METAR COR EGLL 030020Z AUTO 25002KT 9999 NCD 03/01 Q1031
                        NOSIG=
201912022350 METAR COR EGLL 022350Z AUTO 25003KT 9999 NCD 03/02 Q1031
                        NOSIG=
201912022320 METAR COR EGLL 022320Z AUTO VRB03KT 9999 NCD 03/02 Q1031
                        NOSIG=
201912022250 METAR COR EGLL 022250Z AUTO 27005KT 9999 NCD 03/02 Q1031
                        NOSIG=
201912022220 METAR COR EGLL 022220Z AUTO 27004KT 9999 NCD 04/02 Q1031
                        NOSIG=
201912022150 METAR COR EGLL 022150Z AUTO 28003KT 9999 NCD 03/02 Q1031
                        NOSIG=
201912022120 METAR COR EGLL 022120Z AUTO 27004KT 9999 NCD 04/02 Q1031
                        NOSIG=
201912022050 METAR COR EGLL 022050Z AUTO 30002KT 9999 NCD 03/02 Q1031
                        NOSIG=
201912022020 METAR EGLL 022020Z AUTO 30002KT 9999 NCD 03/01 Q1031=
201912021950 METAR COR EGLL 021950Z AUTO VRB02KT 9999 NCD 03/01 Q1031
                        NOSIG=
201912021920 METAR COR EGLL 021920Z AUTO 30003KT 9999 NCD 04/02 Q1031
                        NOSIG=
201912021850 METAR COR EGLL 021850Z AUTO 29005KT 9999 NCD 04/02 Q1031
                        NOSIG=
201912021820 METAR COR EGLL 021820Z AUTO 28006KT 9999 NCD 03/01 Q1031
                        NOSIG=
201912021750 METAR COR EGLL 021750Z AUTO 26005KT 9999 NCD 04/02 Q1031
                        NOSIG=
201912021720 METAR COR EGLL 021720Z AUTO 28003KT 9999 NCD 04/02 Q1031
                        NOSIG=
201912021650 METAR COR EGLL 021650Z AUTO 30003KT 9999 NCD 06/02 Q1031
                        NOSIG=
201912021620 METAR COR EGLL 021620Z AUTO VRB02KT 9999 NCD 06/03 Q1031
                        NOSIG=
201912021550 METAR COR EGLL 021550Z AUTO VRB02KT 9999 NCD 07/03 Q1031
                        NOSIG=
201912021520 METAR COR EGLL 021520Z AUTO 32005KT 290V350 9999 NCD 07/03
                        Q1031 NOSIG=
201912021450 METAR COR EGLL 021450Z AUTO 31004KT 280V350 9999 NCD 07/02
                        Q1031 NOSIG=
201912021420 METAR COR EGLL 021420Z AUTO 31005KT 280V350 9999 NCD 07/02
                        Q1031 NOSIG=
201912021350 METAR COR EGLL 021350Z AUTO 35004KT 310V020 9999 NCD 07/02
                        Q1031 NOSIG=
201912021320 METAR COR EGLL 021320Z AUTO 28004KT 9999 NCD 07/02 Q1031
                        NOSIG=
201912021250 METAR COR EGLL 021250Z AUTO 27005KT 230V310 9999 NCD 06/02
                        Q1031 NOSIG=
201912021220 METAR COR EGLL 021220Z AUTO 29005KT 9999 NCD 05/02 Q1032
                        NOSIG=
201912021150 METAR COR EGLL 021150Z AUTO 28004KT 240V330 9999 NCD 05/01
                        Q1032 NOSIG=
201912021120 METAR COR EGLL 021120Z AUTO 28005KT 9999 NCD 04/00 Q1032
                        NOSIG=
201912021050 METAR COR EGLL 021050Z AUTO 28006KT 9999 NCD 03/00 Q1032
                        NOSIG=
201912021020 METAR COR EGLL 021020Z AUTO 28005KT 9999 NCD 02/M00 Q1032
                        NOSIG=
201912020950 METAR COR EGLL 020950Z AUTO 29004KT 9999 NCD 02/M00 Q1032
                        NOSIG=
201912020920 METAR COR EGLL 020920Z AUTO 27006KT 8000 NCD 01/M00 Q1032
                        NOSIG=
201912020850 METAR COR EGLL 020850Z AUTO 27006KT 7000 NCD 00/M01 Q1032
                        NOSIG=
201912020820 METAR COR EGLL 020820Z AUTO 27003KT 8000 NCD M00/M02 Q1031
                        NOSIG=
201912020750 METAR COR EGLL 020750Z AUTO 30003KT 9999 NCD 01/M01 Q1031
                        NOSIG=
201912020720 METAR COR EGLL 020720Z AUTO 31003KT 9999 NCD 01/M01 Q1031
                        NOSIG=
201912020650 METAR COR EGLL 020650Z AUTO 31005KT 9999 NCD 01/M01 Q1031
                        NOSIG=
201912020620 METAR COR EGLL 020620Z AUTO 31004KT 9999 NCD 00/M01 Q1031
                        NOSIG=
201912020550 METAR COR EGLL 020550Z AUTO 32005KT 9999 NCD 00/M01 Q1030
                        NOSIG=
201912020520 METAR COR EGLL 020520Z AUTO 31004KT 9999 NCD 00/M01 Q1030
                        NOSIG=
201912020450 METAR COR EGLL 020450Z AUTO 31004KT 260V360 9999 NCD 00/M01
                        Q1030 NOSIG=
201912020420 METAR COR EGLL 020420Z AUTO VRB02KT 9999 NCD 00/M01 Q1030
                        NOSIG=
201912020350 METAR COR EGLL 020350Z AUTO 35004KT 310V030 9999 NCD 00/M01
                        Q1030 NOSIG=
201912020320 METAR COR EGLL 020320Z AUTO VRB03KT 9999 NCD M00/M01 Q1030
                        NOSIG=
201912020250 METAR COR EGLL 020250Z AUTO VRB01KT 9999 NCD 00/M01 Q1030
                        NOSIG=
201912020220 METAR COR EGLL 020220Z AUTO VRB01KT 9999 NCD 00/M01 Q1030
                        NOSIG=
201912020150 METAR COR EGLL 020150Z AUTO VRB03KT 9999 NCD 01/M01 Q1030
                        NOSIG=
201912020120 METAR COR EGLL 020120Z AUTO 30004KT 9999 NCD 01/M01 Q1029
                        NOSIG=
201912020050 METAR COR EGLL 020050Z AUTO 30004KT 9999 NCD 01/M01 Q1029
                        NOSIG=
201912020020 METAR COR EGLL 020020Z AUTO 31004KT 9999 NCD 01/M01 Q1029
                        NOSIG=
201912012350 METAR COR EGLL 012350Z AUTO 29003KT 9999 NCD 01/M00 Q1029
                        NOSIG=
201912012320 METAR COR EGLL 012320Z AUTO 28003KT 9999 NCD 02/00 Q1029
                        NOSIG=
201912012250 METAR COR EGLL 012250Z AUTO VRB02KT 9999 NCD 02/01 Q1029
                        NOSIG=
201912012220 METAR COR EGLL 012220Z AUTO VRB03KT 9999 NCD 03/01 Q1029
                        NOSIG=
201912012150 METAR COR EGLL 012150Z AUTO VRB03KT 9999 NCD 03/01 Q1029
                        NOSIG=
201912012120 METAR COR EGLL 012120Z AUTO 35004KT 300V030 9999 NCD 03/02
                        Q1028 NOSIG=
201912012050 METAR COR EGLL 012050Z AUTO 36005KT 310V030 9999 NCD 03/02
                        Q1028 NOSIG=
201912012020 METAR COR EGLL 012020Z AUTO VRB03KT 9999 NCD 03/02 Q1027
                        NOSIG=
201912011950 METAR COR EGLL 011950Z AUTO 34004KT 300V050 9999 NCD 03/02
                        Q1027 NOSIG=
201912011920 METAR COR EGLL 011920Z AUTO VRB03KT 9999 NCD 04/02 Q1027
                        NOSIG=
201912011850 METAR COR EGLL 011850Z AUTO 36005KT 330V050 9999 NCD 04/02
                        Q1027 NOSIG=
201912011820 METAR COR EGLL 011820Z AUTO 36006KT 9999 NCD 04/03 Q1026
                        NOSIG=
201912011750 METAR COR EGLL 011750Z AUTO 01006KT 330V040 9999 FEW046 05/03
                        Q1026 NOSIG=
201912011720 METAR COR EGLL 011720Z AUTO 01007KT 330V040 9999 SCT017 BKN048
                        06/03 Q1026 NOSIG=
201912011650 METAR COR EGLL 011650Z AUTO 01008KT 330V040 9999 -RA FEW019
                        SCT031 BKN037 06/04 Q1026 NOSIG=
201912011620 METAR COR EGLL 011620Z AUTO 01008KT 340V050 9999 FEW021 OVC039
                        06/04 Q1025 NOSIG=
201912011550 METAR COR EGLL 011550Z AUTO 01007KT 340V040 9999 -RA FEW020
                        SCT026 BKN036 06/04 Q1025 NOSIG=
201912011520 METAR COR EGLL 011520Z AUTO 01006KT 340V050 9999 SCT038 BKN044
                        07/04 Q1024 NOSIG=
201912011450 METAR COR EGLL 011450Z AUTO 36008KT 330V030 9999 FEW025 BKN031
                        BKN037 07/04 Q1024 NOSIG=
201912011420 METAR COR EGLL 011420Z AUTO 01007KT 9999 FEW020 OVC028 07/04
                        Q1023 NOSIG=
201912011350 METAR COR EGLL 011350Z AUTO 02008KT 340V060 9999 FEW021 BKN029
                        07/04 Q1023 NOSIG=
201912011320 METAR COR EGLL 011320Z AUTO 04007KT 360V070 9999 FEW023 SCT030
                        BKN039 07/04 Q1023 NOSIG=
201912011250 METAR COR EGLL 011250Z AUTO 03008KT 9999 BKN041 06/03 Q1023
                        NOSIG=
201912011220 METAR COR EGLL 011220Z AUTO 02008KT 340V050 9999 BKN041 07/04
                        Q1023 NOSIG=
201912011150 METAR COR EGLL 011150Z AUTO 03008KT 350V050 9999 FEW041 07/04
                        Q1023 NOSIG=
201912011120 METAR COR EGLL 011120Z AUTO 02006KT 320V070 9999 FEW041 06/04
                        Q1023 NOSIG=
201912011050 METAR COR EGLL 011050Z AUTO 02006KT 340V050 9999 NCD 05/03
                        Q1023 NOSIG=
201912011020 METAR COR EGLL 011020Z AUTO 02005KT 340V060 9999 FEW042 05/03
                        Q1023 NOSIG=
201912010950 METAR COR EGLL 010950Z AUTO 02005KT 340V040 9999 FEW046 04/03
                        Q1023 NOSIG=
201912010920 METAR COR EGLL 010920Z AUTO 02005KT 350V050 9999 BKN044 05/03
                        Q1023 NOSIG=
201912010850 METAR COR EGLL 010850Z AUTO 02004KT 350V060 9999 BKN047 05/03
                        Q1022 NOSIG=
201912010820 METAR COR EGLL 010820Z AUTO 04006KT 9999 SCT046 04/03 Q1021
                        NOSIG=
201912010750 METAR COR EGLL 010750Z AUTO 03007KT 360V070 9999 NCD 04/03
                        Q1021 NOSIG=
201912010720 METAR COR EGLL 010720Z AUTO 03005KT 360V060 9999 BKN046 04/03
                        Q1021 NOSIG=
201912010650 METAR COR EGLL 010650Z AUTO VRB03KT 9999 BKN048 03/02 Q1021
                        NOSIG=
201912010620 METAR COR EGLL 010620Z AUTO 01004KT 340V040 9999 FEW047 03/02
                        Q1020 NOSIG=
201912010550 METAR COR EGLL 010550Z AUTO 01004KT 9999 NCD 02/01 Q1020
                        NOSIG=
201912010520 METAR COR EGLL 010520Z AUTO 01004KT 340V050 9999 NCD 03/03
                        Q1020 NOSIG=
201912010450 METAR COR EGLL 010450Z AUTO 01004KT 330V050 9999 NCD 02/02
                        Q1020 NOSIG=
201912010420 METAR COR EGLL 010420Z AUTO 01004KT 340V050 9999 NCD 03/02
                        Q1020 NOSIG=
201912010350 METAR COR EGLL 010350Z AUTO VRB03KT 9999 NCD 02/02 Q1020
                        NOSIG=
201912010320 METAR COR EGLL 010320Z AUTO 04004KT 350V060 9999 NCD 02/02
                        Q1020 NOSIG=
201912010250 METAR COR EGLL 010250Z AUTO 01004KT 340V050 9999 NCD 01/01
                        Q1020 NOSIG=
201912010220 METAR COR EGLL 010220Z AUTO 04003KT 9999 NCD 03/02 Q1020
                        NOSIG=
201912010150 METAR COR EGLL 010150Z AUTO 04004KT 9999 NCD 03/02 Q1020
                        NOSIG=
201912010120 METAR EGLL 010120Z AUTO 02003KT 9999 NCD 02/01 Q1020=
201912010050 METAR COR EGLL 010050Z AUTO VRB03KT 9999 FEW031 SCT040 02/02
                        Q1021 NOSIG=
201912010020 METAR COR EGLL 010020Z AUTO VRB03KT 9999 NCD 02/01 Q1021
                        NOSIG=

</pre>

</body>
</html>
