##########################################################
# Query made at 01/13/2020 13:26:05 UTC
# Time interval: from 12/01/2017 00:00  to 12/31/2017 23:59  UTC
##########################################################

##########################################################
# EGLL, London / Heathrow Airport (United Kingdom)
# WMO index: 03772
# Latitude 51-29N. Longitude 000-27W. Altitude 24 m.
##########################################################

###################################
#  METAR/SPECI from EGLL
###################################
201712312350 METAR COR EGLL 312350Z AUTO 25015KT 9999 NCD 07/03 Q0997
                        NOSIG=
201712312320 METAR COR EGLL 312320Z AUTO 25018KT 9999 NCD 07/03 Q0996
                        NOSIG=
201712312250 METAR COR EGLL 312250Z AUTO 26021KT 9999 NCD 07/03 Q0995
                        NOSIG=
201712312220 METAR COR EGLL 312220Z AUTO 26022KT 9999 NCD 07/03 Q0994
                        NOSIG=
201712312150 METAR COR EGLL 312150Z AUTO 26025G35KT 9999 FEW023 SCT028
                        BKN034 08/04 Q0993 NOSIG=
201712312120 METAR COR EGLL 312120Z AUTO 24018KT 9999 BKN027 08/04 Q0992
                        TEMPO SHRA=
201712312050 METAR COR EGLL 312050Z AUTO 23022G34KT 9999 BKN030 09/04
                        Q0992 TEMPO SHRA=
201712312020 METAR COR EGLL 312020Z AUTO 23017KT 9999 BKN028 09/04 Q0992
                        TEMPO SHRA=
201712311950 METAR COR EGLL 311950Z AUTO 22012KT 9999 BKN037 08/04 Q0992
                        TEMPO SHRA=
201712311920 METAR COR EGLL 311920Z AUTO 22014KT 9999 NCD 08/04 Q0992
                        NOSIG=
201712311850 METAR COR EGLL 311850Z AUTO 22014KT 9999 NCD 09/05 Q0992
                        NOSIG=
201712311820 METAR COR EGLL 311820Z 22013KT 9999 NSC 09/05 Q0992 NOSIG=
201712311750 METAR COR EGLL 311750Z AUTO 22011KT 9999 FEW040TCU 09/06
                        Q0992 NOSIG=
201712311720 METAR COR EGLL 311720Z AUTO 22012KT 9999 FEW045 09/06 Q0992
                        NOSIG=
201712311650 METAR COR EGLL 311650Z AUTO 22014G25KT 9999 NCD 09/06 Q0992
                        NOSIG=
201712311620 METAR COR EGLL 311620Z AUTO 20011KT 180V240 9999 NCD 08/06
                        Q0993 NOSIG=
201712311550 METAR COR EGLL 311550Z AUTO 22011KT 190V260 9999 NCD 09/06
                        Q0993 NOSIG=
201712311520 METAR COR EGLL 311520Z AUTO 24013KT 9999 -RA SCT018 SCT032
                        BKN045CB 09/06 Q0993 RERA NOSIG=
201712311450 METAR COR EGLL 311450Z AUTO 20013KT 170V240 5000 -RA SCT024
                        BKN033CB 11/07 Q0993 TEMPO 3000 +RA
                        BKN014CB=
201712311420 METAR COR EGLL 311420Z AUTO 21009KT 9999 FEW027TCU 11/08
                        Q0993 TEMPO 7000 SHRA BKN014=
201712311350 METAR COR EGLL 311350Z AUTO 21010KT 9999 -RA SCT023TCU 11/08
                        Q0994 NOSIG=
201712311320 METAR COR EGLL 311320Z AUTO 22012KT 190V270 9999 SCT022 11/08
                        Q0994 NOSIG=
201712311250 METAR COR EGLL 311250Z AUTO 22009G20KT 190V250 9999 BKN020
                        BKN025 11/08 Q0995 NOSIG=
201712311220 METAR COR EGLL 311220Z AUTO 22009KT 9999 BKN019 11/08 Q0995
                        NOSIG=
201712311150 METAR COR EGLL 311150Z AUTO 23010KT 9999 BKN019 11/08 Q0995
                        NOSIG=
201712311120 METAR COR EGLL 311120Z AUTO 22011KT 9999 SCT020 11/08 Q0995
                        NOSIG=
201712311050 METAR COR EGLL 311050Z AUTO 22013KT 9999 FEW024 11/08 Q0996
                        NOSIG=
201712311020 METAR COR EGLL 311020Z AUTO 23014KT 9999 NCD 11/08 Q0996
                        NOSIG=
201712310950 METAR COR EGLL 310950Z AUTO 22011KT 9999 NCD 11/09 Q0996
                        NOSIG=
201712310920 METAR COR EGLL 310920Z AUTO 22013KT 9999 NCD 11/08 Q0995
                        NOSIG=
201712310850 METAR COR EGLL 310850Z AUTO 23012KT 9999 -RA SCT047TCU 11/09
                        Q0995 NOSIG=
201712310820 METAR COR EGLL 310820Z 24021KT 8000 -RA SCT014CB BKN019 BKN028
                        11/09 Q0995 RERA TEMPO BKN014CB=
201712310750 METAR COR EGLL 310750Z AUTO 23018KT 8000 -RA BKN016 BKN024
                        BKN034CB 12/10 Q0995 TEMPO RA BKN012=
201712310720 METAR COR EGLL 310720Z 23020KT 6000 -RADZ SCT015 BKN022 BKN033
                        12/10 Q0994 TEMPO RA BKN012=
201712310650 METAR COR EGLL 310650Z AUTO 22014KT 9000 -RA SCT017 BKN028
                        13/11 Q0994 TEMPO RA BKN012=
201712310620 METAR COR EGLL 310620Z AUTO 22014KT 8000 -RA SCT015 BKN021
                        BKN029 13/11 Q0995 TEMPO RA BKN014=
201712310550 METAR COR EGLL 310550Z AUTO 23016KT 9999 BKN018 BKN026 BKN037
                        13/10 Q0995 TEMPO RA BKN014=
201712310520 METAR COR EGLL 310520Z AUTO 22017KT 9999 SCT015 BKN021 13/11
                        Q0995 NOSIG=
201712310450 METAR COR EGLL 310450Z AUTO 22017KT 9000 BKN013 BKN018 OVC025
                        13/11 Q0995 NOSIG=
201712310420 METAR COR EGLL 310420Z AUTO 22016KT 9000 BKN013 OVC018 13/11
                        Q0996 NOSIG=
201712310350 METAR COR EGLL 310350Z AUTO 22014KT 6000 -RA BKN011 OVC018
                        13/11 Q0996 NOSIG=
201712310320 METAR COR EGLL 310320Z AUTO 22012KT 6000 -RA SCT012 BKN017
                        OVC021 13/11 Q0996 NOSIG=
201712310250 METAR COR EGLL 310250Z AUTO 21013KT 7000 -RA BKN013 BKN021
                        OVC027 12/11 Q0997 NOSIG=
201712310220 METAR COR EGLL 310220Z AUTO 22013KT 8000 -RA BKN011 BKN016
                        OVC024 12/11 Q0997 NOSIG=
201712310150 METAR COR EGLL 310150Z AUTO 22014KT 6000 -RA BKN010 OVC020
                        12/11 Q0997 TEMPO BKN009=
201712310120 METAR COR EGLL 310120Z AUTO 21011KT 9999 OVC011 12/11 Q0997
                        TEMPO BKN009=
201712310050 METAR COR EGLL 310050Z AUTO 21009KT 9999 -RA BKN012 OVC026
                        11/10 Q0998 TEMPO RA BKN009=
201712310020 METAR COR EGLL 310020Z AUTO 21008KT 9999 -RA BKN012 OVC020
                        10/09 Q0998 TEMPO BKN009=
201712302350 METAR COR EGLL 302350Z AUTO 20009KT 9999 -RA BKN009 OVC015
                        10/09 Q0999 TEMPO SCT009 BKN014=
201712302320 METAR COR EGLL 302320Z AUTO 19008KT 170V250 7000 -RA BKN007
                        OVC013 09/08 Q0999 TEMPO 23018G28KT
                        SCT007 BKN013=
201712302250 METAR COR EGLL 302250Z AUTO 20008KT 3800 -RADZ BKN008 BKN014
                        OVC020 09/08 Q1000 TEMPO 23018G28KT
                        RA SCT008 BKN014=
201712302220 METAR COR EGLL 302220Z AUTO 18008KT 150V240 5000 -RADZ BKN013
                        OVC023 09/07 Q1000 TEMPO SCT013 BKN023=
201712302150 METAR COR EGLL 302150Z AUTO 20009KT 180V250 8000 -RA BKN028
                        OVC034 10/08 Q1001 TEMPO RA=
201712302120 METAR COR EGLL 302120Z AUTO 20010KT 170V250 7000 -RA BKN037
                        10/08 Q1001 TEMPO RA=
201712302050 METAR COR EGLL 302050Z AUTO 21011KT 7000 -RA OVC046 11/08
                        Q1001 TEMPO RA=
201712302020 METAR COR EGLL 302020Z AUTO 21009KT 7000 -RA NCD 11/07 Q1001
                        TEMPO RA=
201712301950 METAR COR EGLL 301950Z AUTO 24009KT 8000 -RA NCD 12/07 Q1002
                        TEMPO RA=
201712301920 METAR COR EGLL 301920Z AUTO 23010KT 8000 NCD 12/07 Q1002
                        TEMPO RA=
201712301850 METAR COR EGLL 301850Z AUTO 25012KT 8000 NCD 12/07 Q1002
                        TEMPO RA=
201712301820 METAR COR EGLL 301820Z AUTO 26015KT 8000 -RA NCD 12/06 Q1002
                        NOSIG=
201712301750 METAR COR EGLL 301750Z AUTO 25016KT 8000 NCD 12/06 Q1001
                        NOSIG=
201712301720 METAR COR EGLL 301720Z AUTO 26018KT 8000 NCD 12/06 Q1001
                        NOSIG=
201712301650 METAR COR EGLL 301650Z AUTO 26020KT 8000 NCD 12/06 Q1001
                        NOSIG=
201712301620 METAR COR EGLL 301620Z AUTO 27020KT 8000 FEW030 SCT038 13/07
                        Q1000 NOSIG=
201712301550 METAR COR EGLL 301550Z AUTO 27019KT 9000 SCT032 BKN042 13/08
                        Q1000 NOSIG=
201712301520 METAR COR EGLL 301520Z AUTO 26015KT 9999 SCT033 BKN041 14/08
                        Q1000 NOSIG=
201712301450 METAR COR EGLL 301450Z AUTO 25016KT 9999 BKN034 14/08 Q0999
                        NOSIG=
201712301420 METAR COR EGLL 301420Z AUTO 26022G34KT 9999 FEW037 14/08
                        Q0998 NOSIG=
201712301350 METAR COR EGLL 301350Z AUTO 26022KT 9999 SCT033 14/08 Q0998
                        NOSIG=
201712301320 METAR COR EGLL 301320Z AUTO 26020G30KT 9999 SCT032 14/08
                        Q0998 NOSIG=
201712301250 METAR COR EGLL 301250Z AUTO 25019KT 9999 BKN032 14/08 Q0997
                        NOSIG=
201712301220 METAR COR EGLL 301220Z AUTO 25018KT 9999 BKN034 14/08 Q0997
                        NOSIG=
201712301150 METAR COR EGLL 301150Z AUTO 25020G33KT 9999 NCD 14/07 Q0996
                        NOSIG=
201712301120 METAR COR EGLL 301120Z AUTO 25019G29KT 9999 NCD 14/08 Q0997
                        NOSIG=
201712301050 METAR COR EGLL 301050Z 26022KT 9999 FEW034 13/08 Q0996 NOSIG=
201712301020 METAR COR EGLL 301020Z AUTO 26020KT 9999 BKN032 14/08 Q0996
                        NOSIG=
201712300950 METAR COR EGLL 300950Z AUTO 26020KT 9999 BKN032 13/08 Q0995
                        NOSIG=
201712300920 METAR COR EGLL 300920Z AUTO 27019KT 9000 BKN030 13/08 Q0994
                        NOSIG=
201712300850 METAR COR EGLL 300850Z AUTO 26024G36KT 9000 SCT029 12/08
                        Q0993 NOSIG=
201712300820 METAR COR EGLL 300820Z AUTO 26022KT 9000 BKN030 13/08 Q0993
                        NOSIG=
201712300750 METAR COR EGLL 300750Z AUTO 26019KT 8000 BKN029 12/08 Q0992
                        NOSIG=
201712300720 METAR COR EGLL 300720Z AUTO 26022G32KT 8000 BKN028 13/08
                        Q0992 NOSIG=
201712300650 METAR COR EGLL 300650Z AUTO 26023KT 9000 BKN028 13/08 Q0991
                        NOSIG=
201712300620 METAR COR EGLL 300620Z AUTO 26019KT 9000 BKN030 BKN036 13/09
                        Q0990 NOSIG=
201712300550 METAR COR EGLL 300550Z AUTO 26018KT 9000 SCT028 BKN032 OVC038
                        13/10 Q0990 NOSIG=
201712300520 METAR COR EGLL 300520Z AUTO 25017KT 9999 FEW021 BKN026 OVC030
                        12/10 Q0990 NOSIG=
201712300450 METAR COR EGLL 300450Z AUTO 23013KT 9000 -RA BKN012 OVC026
                        10/10 Q0989 TEMPO SCT012 BKN026=
201712300420 METAR COR EGLL 300420Z AUTO 21012KT 6000 -RA FEW012 BKN018
                        BKN025 09/09 Q0989 TEMPO BKN012=
201712300350 METAR COR EGLL 300350Z AUTO 20015KT 5000 -RADZ SCT008 BKN013
                        BKN019 09/08 Q0990 TEMPO 3500 DZ
                        BKN008=
201712300320 METAR COR EGLL 300320Z AUTO 19014KT 7000 -RA SCT007 BKN010
                        OVC032 09/08 Q0990 TEMPO 3500 DZ
                        BKN007=
201712300250 METAR COR EGLL 300250Z AUTO 17009KT 4600 -DZ SCT005 BKN009
                        OVC034 07/07 Q0991 TEMPO 5000 SCT005
                        BKN012=
201712300220 METAR COR EGLL 300220Z AUTO 16011KT 4200 -DZ BKN007 07/06
                        Q0992 RERA REDZ TEMPO 5000 SCT007
                        BKN012=
201712300150 METAR COR EGLL 300150Z AUTO 16010KT 5000 -DZ BKN010 BKN021
                        BKN027 06/05 Q0994 TEMPO BKN008=
201712300120 METAR COR EGLL 300120Z AUTO 16009KT 6000 -RA SCT020 BKN027
                        OVC043 05/04 Q0995 BECMG RA BKN012=
201712300050 METAR COR EGLL 300050Z AUTO 15007KT 9000 -RA BKN038/// OVC047///
                        //////TCU 05/04 Q0996 BECMG RA BKN012=
201712300020 METAR COR EGLL 300020Z AUTO 18007KT 8000 -RA BKN031/// BKN039///
                        OVC049/// //////TCU 05/03 Q0997 BECMG
                        BKN012=
201712292350 METAR COR EGLL 292350Z AUTO 17005KT 9999 -RA BKN039/// BKN046///
                        //////TCU 06/02 Q0998 BECMG BKN014=
201712292320 METAR COR EGLL 292320Z AUTO 17008KT 9999 //////TCU 06/02
                        Q0999 TEMPO RA=
201712292250 METAR COR EGLL 292250Z AUTO 21008KT 9999 NCD 06/02 Q1000
                        NOSIG=
201712292220 METAR COR EGLL 292220Z AUTO 20009KT 170V250 9999 NCD 05/01
                        Q1000 NOSIG=
201712292150 METAR COR EGLL 292150Z AUTO 22009KT 190V250 9999 NCD 05/01
                        Q1000 NOSIG=
201712292120 METAR COR EGLL 292120Z AUTO 23010KT 190V250 9999 NCD 05/01
                        Q1000 NOSIG=
201712292050 METAR COR EGLL 292050Z AUTO 22011KT 9999 NCD 05/00 Q1000
                        NOSIG=
201712292020 METAR COR EGLL 292020Z AUTO 24009KT 9999 NCD 06/00 Q1000
                        NOSIG=
201712291950 METAR COR EGLL 291950Z AUTO 25013KT 9999 NCD 06/00 Q1000
                        NOSIG=
201712291920 METAR COR EGLL 291920Z AUTO 25013KT 9999 NCD 06/00 Q0999
                        NOSIG=
201712291850 METAR COR EGLL 291850Z AUTO 26016KT 9999 NCD 06/00 Q0999
                        NOSIG=
201712291820 METAR COR EGLL 291820Z AUTO 27016KT 9999 NCD 06/01 Q0999
                        NOSIG=
201712291750 METAR COR EGLL 291750Z AUTO 26017KT 9999 NCD 06/01 Q0998
                        NOSIG=
201712291720 METAR COR EGLL 291720Z AUTO 26017KT 9999 NCD 06/01 Q0998
                        NOSIG=
201712291650 METAR COR EGLL 291650Z AUTO 27020KT 9999 NCD 07/01 Q0997
                        NOSIG=
201712291620 METAR COR EGLL 291620Z AUTO 27014KT 9999 NCD 07/02 Q0997
                        NOSIG=
201712291550 METAR COR EGLL 291550Z AUTO 27017KT 9999 OVC048 07/02 Q0996
                        NOSIG=
201712291520 METAR COR EGLL 291520Z AUTO 27018KT 9999 NCD 07/02 Q0996
                        NOSIG=
201712291450 METAR COR EGLL 291450Z AUTO 28017KT 9999 BKN043 08/03 Q0995
                        NOSIG=
201712291420 METAR COR EGLL 291420Z AUTO 28013KT 9999 SCT034 07/04 Q0994
                        NOSIG=
201712291350 METAR COR EGLL 291350Z AUTO 28015KT 9999 -RA SCT023/// BKN037///
                        //////CB 07/04 Q0993 NOSIG=
201712291320 METAR COR EGLL 291320Z 26019KT 7000 -SHRA FEW016CB BKN034
                        BKN045 07/04 Q0993 TEMPO 3000 +SHRA
                        BKN014=
201712291250 METAR COR EGLL 291250Z AUTO 26016KT 9999 FEW037/// //////TCU
                        07/03 Q0992 TEMPO SHRA=
201712291220 METAR COR EGLL 291220Z AUTO 27017KT 9999 //////TCU 08/02
                        Q0992 TEMPO SHRA=
201712291150 METAR COR EGLL 291150Z AUTO 26016KT 9999 //////TCU 09/04
                        Q0991 TEMPO SHRA=
201712291120 METAR COR EGLL 291120Z AUTO 25017G27KT 9999 SCT026 BKN032
                        10/05 Q0991 TEMPO SHRA=
201712291050 METAR COR EGLL 291050Z AUTO 24018KT 9999 NCD 09/05 Q0991
                        TEMPO SHRA=
201712291020 METAR COR EGLL 291020Z AUTO 24015KT 9999 -RA SCT037/// BKN048///
                        //////TCU 08/05 Q0991 TEMPO SHRA=
201712290950 METAR COR EGLL 290950Z AUTO 19014KT 9999 -RA FEW028/// BKN034///
                        BKN041/// //////TCU 07/05 Q0990 BECMG
                        26018G28KT=
201712290920 METAR EGLL 290920Z AUTO 17014KT 9999 -RA FEW015/// BKN040///
                        //////TCU 06/05 Q0991 RERA=
201712290850 METAR COR EGLL 290850Z AUTO 18021G32KT 3700 RA BKN017///
                        //////CB 07/05 Q0991 RERA TEMPO BKN012=
201712290820 METAR COR EGLL 290820Z AUTO 17011KT 9999 -RA SCT013/// BKN023///
                        BKN042/// //////CB 06/05 Q0993 TEMPO
                        3000 +SHRA BKN012=
201712290750 METAR COR EGLL 290750Z AUTO 15008KT 9000 -RA FEW013/// SCT020///
                        BKN029/// //////CB 05/04 Q0994 RERA
                        TEMPO 3000 +RA BKN012=
201712290720 METAR COR EGLL 290720Z AUTO 16006KT 3600 RA SCT019/// BKN031///
                        //////TCU 05/04 Q0995 TEMPO BKN012=
201712290650 METAR COR EGLL 290650Z AUTO 16007G18KT 130V200 9999 -RA SCT028///
                        BKN032/// //////TCU 04/04 Q0996 TEMPO
                        RA=
201712290620 METAR COR EGLL 290620Z AUTO 17009KT 7000 -RA SCT009/// BKN025///
                        BKN030/// //////TCU 04/03 Q0997 RERA
                        REDZ TEMPO BKN010=
201712290550 METAR COR EGLL 290550Z AUTO 16008KT 9999 FEW010 SCT020 03/02
                        Q0998 TEMPO BKN012=
201712290520 METAR COR EGLL 290520Z AUTO 15007KT 9000 -RA SCT026/// BKN031///
                        //////TCU 03/02 Q0999 RERA TEMPO
                        BKN012=
201712290450 METAR COR EGLL 290450Z AUTO 14008KT 9999 -RA FEW029 BKN033
                        02/01 Q1000 TEMPO BKN012=
201712290420 METAR COR EGLL 290420Z AUTO 14007KT 9999 SCT024 BKN034 BKN043
                        01/00 Q1001 TEMPO BKN012=
201712290350 METAR COR EGLL 290350Z AUTO 11003KT 9999 BKN014 OVC019 00/M00
                        Q1002 TEMPO SCT014=
201712290320 METAR COR EGLL 290320Z AUTO 09003KT 9999 BKN022 OVC029 M00/M01
                        Q1003 NOSIG=
201712290250 METAR COR EGLL 290250Z AUTO 12003KT 9999 SCT025 OVC029 M01/M01
                        Q1004 NOSIG=
201712290220 METAR COR EGLL 290220Z AUTO VRB02KT 9999 BKN036 M02/M02 Q1004
                        NOSIG=
201712290150 METAR COR EGLL 290150Z VRB02KT 9000 FEW039 M02/M02 Q1004
                        NOSIG=
201712290120 METAR COR EGLL 290120Z 11003KT CAVOK M02/M03 Q1005 NOSIG=
201712290050 METAR COR EGLL 290050Z VRB02KT CAVOK M03/M03 Q1005 NOSIG=
201712290020 METAR COR EGLL 290020Z AUTO VRB01KT 6000 NCD M02/M03 Q1006
                        NOSIG=
201712282350 METAR COR EGLL 282350Z AUTO 14001KT 8000 NCD M02/M02 Q1006
                        NOSIG=
201712282320 METAR COR EGLL 282320Z AUTO VRB03KT 8000 NCD M01/M02 Q1007
                        NOSIG=
201712282250 METAR COR EGLL 282250Z AUTO 20005KT 170V250 9999 NCD M01/M02
                        Q1007 NOSIG=
201712282220 METAR COR EGLL 282220Z AUTO 22005KT 160V270 9999 NCD M00/M01
                        Q1007 NOSIG=
201712282150 METAR COR EGLL 282150Z AUTO VRB03KT 9999 NCD M01/M02 Q1007
                        NOSIG=
201712282120 METAR COR EGLL 282120Z AUTO 24006KT 210V290 9999 NCD 01/M01
                        Q1007 NOSIG=
201712282050 METAR COR EGLL 282050Z AUTO 23005KT 190V280 9999 NCD M00/M01
                        Q1006 NOSIG=
201712282020 METAR COR EGLL 282020Z AUTO 23005KT 200V260 9999 NCD M00/M02
                        Q1006 NOSIG=
201712281950 METAR COR EGLL 281950Z AUTO 20006KT 170V260 9999 NCD M01/M02
                        Q1006 NOSIG=
201712281920 METAR COR EGLL 281920Z AUTO 23005KT 190V260 9999 NCD 01/M01
                        Q1006 NOSIG=
201712281850 METAR COR EGLL 281850Z AUTO 21004KT 180V240 9999 NCD 00/M02
                        Q1006 NOSIG=
201712281820 METAR COR EGLL 281820Z AUTO 24007KT 9999 NCD 02/M01 Q1006
                        NOSIG=
201712281750 METAR COR EGLL 281750Z AUTO 24007KT 9999 NCD 03/M00 Q1005
                        NOSIG=
201712281720 METAR COR EGLL 281720Z AUTO 24007KT 9999 NCD 03/M01 Q1005
                        NOSIG=
201712281650 METAR COR EGLL 281650Z AUTO 25007KT 220V280 9999 NCD 03/M01
                        Q1005 NOSIG=
201712281620 METAR COR EGLL 281620Z AUTO 27010KT 9999 NCD 03/M01 Q1005
                        NOSIG=
201712281550 METAR COR EGLL 281550Z AUTO 27010KT 9999 NCD 03/M01 Q1005
                        NOSIG=
201712281520 METAR COR EGLL 281520Z AUTO 27008KT 9999 NCD 04/M00 Q1004
                        NOSIG=
201712281450 METAR COR EGLL 281450Z AUTO 28008KT 9999 NCD 05/M00 Q1004
                        NOSIG=
201712281420 METAR COR EGLL 281420Z AUTO 26009KT 9999 NCD 05/M00 Q1004
                        NOSIG=
201712281350 METAR COR EGLL 281350Z AUTO 27010KT 240V300 9999 NCD 05/M00
                        Q1004 NOSIG=
201712281320 METAR COR EGLL 281320Z AUTO 26009KT 9999 NCD 05/M00 Q1004
                        NOSIG=
201712281250 METAR COR EGLL 281250Z AUTO 27009KT 9999 NCD 05/M00 Q1004
                        NOSIG=
201712281220 METAR COR EGLL 281220Z AUTO 27008KT 9999 NCD 05/00 Q1003
                        NOSIG=
201712281150 METAR COR EGLL 281150Z AUTO 27009KT 9999 NCD 04/00 Q1003
                        NOSIG=
201712281120 METAR COR EGLL 281120Z AUTO 27008KT 9999 NCD 04/00 Q1003
                        NOSIG=
201712281050 METAR COR EGLL 281050Z AUTO 27008KT 9999 NCD 03/M00 Q1003
                        NOSIG=
201712281020 METAR COR EGLL 281020Z AUTO 27008KT 9999 NCD 02/M00 Q1003
                        NOSIG=
201712280950 METAR COR EGLL 280950Z AUTO 27007KT 9999 NCD 02/M01 Q1003
                        NOSIG=
201712280920 METAR COR EGLL 280920Z AUTO 28006KT 9999 NCD 01/M01 Q1002
                        NOSIG=
201712280850 METAR COR EGLL 280850Z AUTO 28007KT 9999 NCD 00/M01 Q1002
                        NOSIG=
201712280820 METAR COR EGLL 280820Z AUTO 26008KT 9999 NCD 00/M01 Q1002
                        NOSIG=
201712280750 METAR COR EGLL 280750Z AUTO 26007KT 9999 NCD 00/M01 Q1002
                        NOSIG=
201712280720 METAR COR EGLL 280720Z AUTO 27006KT 9999 NCD 01/M01 Q1002
                        NOSIG=
201712280650 METAR COR EGLL 280650Z AUTO 27008KT 9999 NCD 00/M01 Q1002
                        NOSIG=
201712280620 METAR COR EGLL 280620Z AUTO 28008KT 9999 NCD M00/M02 Q1001
                        NOSIG=
201712280550 METAR COR EGLL 280550Z AUTO 27009KT 9999 NCD M00/M01 Q1001
                        NOSIG=
201712280520 METAR COR EGLL 280520Z AUTO 27008KT 9999 NCD 00/M01 Q1001
                        NOSIG=
201712280450 METAR COR EGLL 280450Z AUTO 26009KT 9999 NCD 01/M01 Q1001
                        NOSIG=
201712280420 METAR COR EGLL 280420Z AUTO 27007KT 9999 NCD 00/M01 Q1001
                        NOSIG=
201712280350 METAR COR EGLL 280350Z AUTO 28006KT 9999 FEW032 M01/M02 Q1001
                        NOSIG=
201712280320 METAR COR EGLL 280320Z AUTO 28006KT 9999 FEW034 M01/M02 Q1001
                        NOSIG=
201712280250 METAR COR EGLL 280250Z AUTO 27006KT 9999 SCT033 M00/M02 Q1001
                        NOSIG=
201712280220 METAR COR EGLL 280220Z AUTO 27008KT 9999 NCD M00/M02 Q1001
                        NOSIG=
201712280150 METAR COR EGLL 280150Z AUTO 27009KT 9999 NCD 00/M02 Q1000
                        NOSIG=
201712280120 METAR COR EGLL 280120Z AUTO 27008KT 9999 NCD 00/M02 Q1000
                        NOSIG=
201712280050 METAR COR EGLL 280050Z AUTO 28008KT 9999 NCD M00/M02 Q1000
                        NOSIG=
201712280020 METAR COR EGLL 280020Z AUTO 28009KT 9999 NCD M00/M02 Q1000
                        NOSIG=
201712272350 METAR COR EGLL 272350Z AUTO 28008KT 9999 NCD 00/M02 Q1000
                        NOSIG=
201712272320 METAR COR EGLL 272320Z AUTO 28006KT 9999 NCD 00/M01 Q1000
                        NOSIG=
201712272250 METAR COR EGLL 272250Z AUTO 28009KT 9999 NCD 00/M01 Q0999
                        NOSIG=
201712272220 METAR COR EGLL 272220Z AUTO 28009KT 9999 NCD 01/M01 Q0999
                        NOSIG=
201712272150 METAR COR EGLL 272150Z AUTO 27008KT 9999 NCD 01/M01 Q0999
                        NOSIG=
201712272120 METAR COR EGLL 272120Z AUTO 29007KT 9999 NCD 02/M01 Q0998
                        NOSIG=
201712272050 METAR COR EGLL 272050Z AUTO 28003KT 9999 NCD 02/M02 Q0998
                        NOSIG=
201712272020 METAR COR EGLL 272020Z AUTO 28006KT 9999 NCD 02/M01 Q0998
                        NOSIG=
201712271950 METAR COR EGLL 271950Z AUTO 29009KT 9999 NCD 03/M01 Q0998
                        NOSIG=
201712271920 METAR COR EGLL 271920Z AUTO 29009KT 9999 NCD 03/M01 Q0997
                        NOSIG=
201712271850 METAR COR EGLL 271850Z AUTO 29007KT 9999 NCD 03/M01 Q0997
                        NOSIG=
201712271820 METAR COR EGLL 271820Z AUTO 29005KT 9999 NCD 03/M01 Q0997
                        NOSIG=
201712271750 METAR COR EGLL 271750Z AUTO 30007KT 9999 NCD 03/M01 Q0996
                        NOSIG=
201712271720 METAR COR EGLL 271720Z AUTO 30008KT 9999 NCD 03/M02 Q0996
                        NOSIG=
201712271650 METAR COR EGLL 271650Z AUTO 30010KT 9999 NCD 03/M02 Q0995
                        NOSIG=
201712271620 METAR COR EGLL 271620Z AUTO 31011KT 9999 NCD 03/M02 Q0995
                        NOSIG=
201712271550 METAR COR EGLL 271550Z AUTO 31013KT 280V350 9999 NCD 03/M01
                        Q0994 NOSIG=
201712271520 METAR COR EGLL 271520Z AUTO 31013KT 9999 NCD 03/M00 Q0993
                        NOSIG=
201712271450 METAR COR EGLL 271450Z AUTO 31013KT 9999 NCD 04/00 Q0992
                        NOSIG=
201712271420 METAR COR EGLL 271420Z AUTO 31012KT 9999 NCD 04/01 Q0992
                        NOSIG=
201712271350 METAR COR EGLL 271350Z AUTO 31013G23KT 290V350 9999 FEW022
                        04/01 Q0991 NOSIG=
201712271320 METAR COR EGLL 271320Z AUTO 32014KT 9999 -RA SCT015 SCT022
                        BKN033 04/02 Q0990 NOSIG=
201712271250 METAR COR EGLL 271250Z AUTO 31016G29KT 9000 -RA BKN013 BKN018
                        OVC027 03/01 Q0990 BECMG SCT013 BKN020=
201712271220 METAR COR EGLL 271220Z AUTO 32015KT 9999 -RA BKN013 OVC025
                        03/01 Q0989 BECMG FEW013 BKN020=
201712271150 METAR COR EGLL 271150Z AUTO 32015KT 290V350 6000 -RA BKN011
                        BKN016 OVC026 03/02 Q0988 BECMG FEW011
                        BKN016=
201712271120 METAR COR EGLL 271120Z AUTO 32013G23KT 8000 -RA BKN012 BKN019
                        OVC033 03/01 Q0987 BECMG BKN020=
201712271050 METAR COR EGLL 271050Z AUTO 32014KT 280V350 9999 -RA BKN012
                        BKN017 03/01 Q0987 BECMG BKN020=
201712271020 METAR COR EGLL 271020Z AUTO 32012KT 290V350 9999 -RA BKN012
                        OVC024 03/01 Q0986 NOSIG=
201712270950 METAR COR EGLL 270950Z AUTO 33013KT 300V360 9999 -RA BKN010
                        BKN015 OVC027 03/01 Q0985 NOSIG=
201712270920 METAR COR EGLL 270920Z AUTO 32014G24KT 290V360 6000 -RA BKN009
                        BKN014 OVC022 02/01 Q0984 TEMPO 4000
                        RASN SCT009 BKN014=
201712270850 METAR COR EGLL 270850Z 33013KT 310V020 6000 -RASN BKN009
                        BKN016 OVC020 02/01 Q0983 RESN TEMPO
                        SCT009 BKN016=
201712270820 METAR COR EGLL 270820Z AUTO 34013G23KT 310V020 9000 -RA BKN012///
                        BKN019/// OVC038/// //////TCU 02/01
                        Q0982 TEMPO 2000 RASN BKN008=
201712270750 METAR COR EGLL 270750Z AUTO 34011G21KT 310V010 4900 -RADZ
                        BKN012 OVC028 03/01 Q0981 TEMPO RASN
                        BKN008=
201712270720 METAR COR EGLL 270720Z AUTO 35011G21KT 310V020 6000 -RASN
                        BKN012/// BKN018/// OVC029/// //////TCU
                        02/01 Q0981 TEMPO 3000 RASN BKN008=
201712270650 METAR COR EGLL 270650Z AUTO 36012KT 330V030 9999 -RA BKN012///
                        BKN019/// OVC033/// //////TCU 02/01
                        Q0980 TEMPO 3000 RASN=
201712270620 METAR COR EGLL 270620Z AUTO 36013KT 320V020 9999 -RA BKN011///
                        BKN016/// BKN021/// //////TCU 03/01
                        Q0979 BECMG 3000 RASN BKN008=
201712270550 METAR COR EGLL 270550Z AUTO 01012KT 9999 SCT009/// OVC014///
                        //////TCU 03/02 Q0978 BECMG 3000
                        RASN BKN008=
201712270520 METAR COR EGLL 270520Z AUTO 30008KT 270V030 9999 OVC008///
                        //////TCU 04/03 Q0978 TEMPO 4000
                        RASN=
201712270450 METAR COR EGLL 270450Z AUTO 26007KT 220V290 9999 SCT007 BKN012
                        BKN016 06/04 Q0977 BECMG BKN007=
201712270420 METAR COR EGLL 270420Z AUTO 19003KT 9999 SCT020 BKN027 BKN036
                        05/04 Q0977 BECMG BKN010=
201712270350 METAR COR EGLL 270350Z AUTO 18004KT 9999 -RA SCT016 SCT021
                        BKN032 05/04 Q0977 BECMG BKN010=
201712270320 METAR COR EGLL 270320Z AUTO 14004KT 9999 SCT031 BKN045 05/04
                        Q0977 NOSIG=
201712270250 METAR COR EGLL 270250Z AUTO 20004KT 9999 FEW026 BKN033 05/04
                        Q0978 NOSIG=
201712270220 METAR COR EGLL 270220Z AUTO 19005KT 9999 FEW026 SCT039 05/04
                        Q0978 NOSIG=
201712270150 METAR COR EGLL 270150Z AUTO 18006KT 9999 FEW032 06/04 Q0978
                        NOSIG=
201712270120 METAR COR EGLL 270120Z AUTO 21005KT 9999 NCD 06/05 Q0978
                        NOSIG=
201712270050 METAR COR EGLL 270050Z AUTO 22008KT 9999 NCD 07/05 Q0978
                        NOSIG=
201712270020 METAR COR EGLL 270020Z 22011KT 9999 SCT012 BKN018 BKN034
                        08/06 Q0978 TEMPO RA BKN012=
201712262350 METAR COR EGLL 262350Z 18006KT 6000 -RA FEW007 BKN015 BKN024
                        08/07 Q0978 RERA TEMPO RA BKN010=
201712262320 METAR COR EGLL 262320Z AUTO 16005KT 7000 -RA SCT012/// BKN017///
                        BKN026/// //////TCU 08/07 Q0979 TEMPO
                        BKN012=
201712262250 METAR COR EGLL 262250Z AUTO 16007KT 9999 FEW013/// BKN028///
                        BKN040/// //////TCU 08/06 Q0979 TEMPO
                        RA=
201712262220 METAR COR EGLL 262220Z AUTO 17009KT 9999 BKN015 08/06 Q0980
                        NOSIG=
201712262150 METAR COR EGLL 262150Z AUTO 14009KT 4900 -RADZ FEW012 BKN016
                        07/06 Q0980 RERA REDZ TEMPO BKN012=
201712262120 METAR COR EGLL 262120Z AUTO 14010KT 9000 -RA BKN013/// OVC046///
                        //////TCU 07/06 Q0981 BECMG BKN020=
201712262050 METAR COR EGLL 262050Z AUTO 12010KT 7000 -RA SCT015/// BKN020///
                        OVC032/// //////CB 07/06 Q0982 TEMPO
                        RA BKN014=
201712262020 METAR COR EGLL 262020Z AUTO 13009KT 8000 -RA BKN014/// OVC029///
                        //////CB 07/06 Q0983 TEMPO RA=
201712261950 METAR COR EGLL 261950Z AUTO 14008KT 9000 -RA FEW015/// BKN019///
                        BKN029/// //////TCU 07/06 Q0985 TEMPO
                        RA BKN014=
201712261920 METAR COR EGLL 261920Z AUTO 14008KT 9000 -RA BKN014/// BKN023///
                        OVC027/// //////CB 07/06 Q0986 TEMPO
                        RA SCT014=
201712261850 METAR COR EGLL 261850Z AUTO 15009KT 9999 -RA FEW017/// BKN022///
                        OVC031/// //////CB 07/05 Q0987 TEMPO
                        RA BKN012=
201712261820 METAR COR EGLL 261820Z AUTO 13009KT 9999 -RA SCT017/// BKN022///
                        BKN028/// //////TCU 07/05 Q0988 TEMPO
                        RA BKN012=
201712261750 METAR EGLL 261750Z AUTO 13008KT 9999 -RA SCT018/// BKN023///
                        BKN028/// //////TCU 07/05 Q0989=
201712261720 METAR COR EGLL 261720Z AUTO 13007KT 9999 -RA FEW023 BKN029
                        OVC049 07/05 Q0990 TEMPO RA BKN012=
201712261650 METAR COR EGLL 261650Z AUTO 16009KT 9999 -RA SCT019 BKN028
                        BKN039 07/05 Q0991 NOSIG=
201712261620 METAR COR EGLL 261620Z AUTO 13007KT 9999 BKN017 BKN023 OVC043
                        07/04 Q0992 NOSIG=
201712261550 METAR COR EGLL 261550Z AUTO 15007KT 7000 -RA BKN023 BKN038
                        07/04 Q0993 NOSIG=
201712261520 METAR EGLL 261520Z AUTO 17007KT 9999 -RA SCT027/// BKN039///
                        //////TCU 07/03 Q0993=
201712261450 METAR COR EGLL 261450Z AUTO 20011KT 170V240 9999 SCT037 BKN046
                        08/02 Q0994 TEMPO RA=
201712261420 METAR COR EGLL 261420Z AUTO 21009KT 9999 NCD 08/02 Q0995
                        NOSIG=
201712261350 METAR COR EGLL 261350Z AUTO 22008KT 9999 NCD 08/03 Q0995
                        NOSIG=
201712261320 METAR COR EGLL 261320Z AUTO 23009KT 9999 NCD 07/02 Q0996
                        NOSIG=
201712261250 METAR COR EGLL 261250Z AUTO 22012KT 9999 NCD 07/02 Q0997
                        NOSIG=
201712261220 METAR COR EGLL 261220Z AUTO 23012KT 9999 NCD 07/02 Q0997
                        NOSIG=
201712261150 METAR COR EGLL 261150Z AUTO 23011KT 9999 NCD 07/02 Q0998
                        NOSIG=
201712261120 METAR COR EGLL 261120Z AUTO 23011KT 9999 NCD 06/02 Q0998
                        NOSIG=
201712261050 METAR COR EGLL 261050Z AUTO 23010KT 9999 NCD 06/02 Q0999
                        NOSIG=
201712261020 METAR COR EGLL 261020Z AUTO 22012KT 9999 NCD 05/02 Q0999
                        NOSIG=
201712260950 METAR COR EGLL 260950Z AUTO 23011KT 9999 NCD 04/02 Q0999
                        NOSIG=
201712260920 METAR COR EGLL 260920Z AUTO 23012KT 9999 NCD 04/02 Q0999
                        NOSIG=
201712260850 METAR COR EGLL 260850Z AUTO 23011KT 9999 NCD 04/01 Q0999
                        NOSIG=
201712260820 METAR COR EGLL 260820Z AUTO 23012KT 9999 NCD 04/02 Q0999
                        NOSIG=
201712260750 METAR COR EGLL 260750Z AUTO 23012KT 9999 NCD 04/02 Q0999
                        NOSIG=
201712260720 METAR COR EGLL 260720Z AUTO 23010KT 9999 NCD 04/02 Q0998
                        NOSIG=
201712260650 METAR COR EGLL 260650Z AUTO 24011KT 9999 NCD 04/02 Q0998
                        NOSIG=
201712260620 METAR COR EGLL 260620Z AUTO 25013KT 9999 NCD 04/02 Q0998
                        NOSIG=
201712260550 METAR COR EGLL 260550Z AUTO 24010KT 9999 NCD 04/02 Q0998
                        NOSIG=
201712260520 METAR COR EGLL 260520Z AUTO 24013KT 9999 NCD 04/02 Q0998
                        NOSIG=
201712260450 METAR COR EGLL 260450Z AUTO 24011KT 9999 NCD 04/02 Q0997
                        NOSIG=
201712260420 METAR COR EGLL 260420Z AUTO 24010KT 9999 NCD 05/02 Q0997
                        NOSIG=
201712260350 METAR COR EGLL 260350Z AUTO 24011KT 9999 NCD 05/03 Q0997
                        NOSIG=
201712260320 METAR COR EGLL 260320Z AUTO 24010KT 9999 SCT015 05/03 Q0998
                        NOSIG=
201712260250 METAR COR EGLL 260250Z AUTO 24012KT 9999 NCD 05/03 Q0998
                        NOSIG=
201712260220 METAR COR EGLL 260220Z AUTO 25011KT 9999 NCD 05/03 Q0997
                        NOSIG=
201712260150 METAR COR EGLL 260150Z AUTO 24011KT 9999 NCD 05/04 Q0997
                        NOSIG=
201712260120 METAR COR EGLL 260120Z AUTO 25013KT 9999 -RA FEW029 05/04
                        Q0997 NOSIG=
201712260050 METAR COR EGLL 260050Z AUTO 25014KT 9999 -RA FEW015 BKN021
                        BKN028 05/04 Q0997 NOSIG=
201712260020 METAR COR EGLL 260020Z AUTO 26011KT 9999 -RA SCT015 SCT024
                        BKN031 05/03 Q0997 TEMPO RA=
201712252350 METAR COR EGLL 252350Z AUTO 27013KT 9999 -RA SCT015/// BKN021///
                        BKN027/// //////TCU 05/03 Q0996 NOSIG=
201712252320 METAR EGLL 252320Z AUTO 27016KT 7000 -RA SCT014/// BKN021///
                        BKN029/// //////CB 05/04 Q0996=
201712252250 METAR COR EGLL 252250Z AUTO 25017KT 7000 -RA SCT016/// SCT026///
                        BKN032/// //////CB 07/05 Q0995 RERA
                        TEMPO BKN014=
201712252220 METAR COR EGLL 252220Z AUTO 20021G32KT 2900 +RA BKN018///
                        OVC035/// //////CB 09/07 Q0994 BECMG
                        6000 RA=
201712252150 METAR COR EGLL 252150Z AUTO 20023G35KT 170V240 9999 BKN017///
                        OVC023/// //////CB 10/06 Q0995 TEMPO
                        4000 +RA BKN014=
201712252120 METAR COR EGLL 252120Z AUTO 20020G30KT 9999 BKN017 OVC027
                        10/07 Q0995 TEMPO 4000 +RA BKN014=
201712252050 METAR COR EGLL 252050Z AUTO 20021KT 170V230 9999 BKN015 OVC025
                        10/07 Q0996 TEMPO RA BKN014=
201712252020 METAR COR EGLL 252020Z AUTO 19018KT 6000 -RA SCT013 BKN017
                        OVC024 09/07 Q0997 TEMPO RA BKN014=
201712251950 METAR COR EGLL 251950Z AUTO 19021KT 9000 -RA BKN015 OVC020
                        10/07 Q0997 TEMPO RA BKN014=
201712251920 METAR COR EGLL 251920Z AUTO 19023KT 9000 -RA BKN016 OVC020
                        10/07 Q0998 TEMPO RA BKN014=
201712251850 METAR COR EGLL 251850Z AUTO 20020KT 9999 BKN016 OVC025 10/07
                        Q0999 TEMPO RA BKN012=
201712251820 METAR COR EGLL 251820Z AUTO 20020KT 9999 BKN015 OVC026 10/07
                        Q1000 TEMPO BKN012=
201712251750 METAR COR EGLL 251750Z AUTO 19018G28KT 9999 -RA BKN016 BKN021
                        OVC037 10/07 Q1001 TEMPO BKN012=
201712251720 METAR COR EGLL 251720Z AUTO 20019KT 9999 BKN015 OVC020 10/07
                        Q1001 TEMPO BKN012=
201712251650 METAR COR EGLL 251650Z AUTO 20018KT 9999 BKN017 OVC035 11/07
                        Q1002 TEMPO BKN012=
201712251620 METAR COR EGLL 251620Z AUTO 20017KT 9999 BKN016 BKN022 OVC043
                        11/08 Q1003 NOSIG=
201712251550 METAR COR EGLL 251550Z AUTO 20016G29KT 9999 BKN016 OVC032
                        11/08 Q1003 NOSIG=
201712251520 METAR COR EGLL 251520Z AUTO 20017KT 9999 BKN016 11/08 Q1004
                        TEMPO BKN012=
201712251450 METAR COR EGLL 251450Z AUTO 20014KT 9999 OVC015 11/08 Q1004
                        TEMPO BKN012=
201712251420 METAR COR EGLL 251420Z AUTO 19013KT 9999 BKN014 BKN018 OVC027
                        11/08 Q1005 TEMPO BKN015=
201712251350 METAR COR EGLL 251350Z AUTO 19013KT 9999 BKN015 BKN023 10/08
                        Q1006 TEMPO BKN014=
201712251320 METAR COR EGLL 251320Z AUTO 20016KT 9999 BKN014 BKN018 OVC029
                        10/08 Q1007 TEMPO SCT014=
201712251250 METAR COR EGLL 251250Z AUTO 20014KT 9999 BKN015 10/08 Q1007
                        TEMPO BKN012=
201712251220 METAR COR EGLL 251220Z AUTO 20014KT 9999 BKN015 OVC025 10/08
                        Q1008 TEMPO BKN012=
201712251150 METAR COR EGLL 251150Z AUTO 21013KT 9999 BKN013 BKN022 BKN026
                        10/08 Q1009 TEMPO SCT013=
201712251120 METAR COR EGLL 251120Z AUTO 21012KT 9000 -RA OVC012 10/08
                        Q1009 TEMPO SCT012 BKN018=
201712251050 METAR COR EGLL 251050Z AUTO 20013KT 9999 BKN012 OVC041 10/08
                        Q1010 TEMPO SCT012=
201712251020 METAR COR EGLL 251020Z AUTO 20014KT 9000 -RA BKN010 OVC016
                        10/08 Q1010 TEMPO BKN008=
201712250950 METAR COR EGLL 250950Z AUTO 20011KT 9999 -RA BKN009 OVC014
                        10/08 Q1011 TEMPO SCT009=
201712250920 METAR COR EGLL 250920Z AUTO 20012KT 7000 -RA BKN008 OVC020
                        09/08 Q1011 TEMPO FEW008=
201712250850 METAR COR EGLL 250850Z AUTO 19011KT 9000 -RA BKN009 BKN013
                        OVC038 09/08 Q1011 TEMPO FEW009=
201712250820 METAR COR EGLL 250820Z AUTO 21013KT 9999 SCT013 BKN037 OVC044
                        10/08 Q1012 NOSIG=
201712250750 METAR COR EGLL 250750Z AUTO 21011KT 9999 -RA SCT015 BKN024
                        OVC034 10/08 Q1012 NOSIG=
201712250720 METAR COR EGLL 250720Z AUTO 21013KT 9999 BKN017 OVC037 10/07
                        Q1012 NOSIG=
201712250650 METAR COR EGLL 250650Z AUTO 21012KT 9999 SCT016 BKN022 OVC035
                        10/07 Q1013 NOSIG=
201712250620 METAR COR EGLL 250620Z AUTO 22012KT 9000 -RA BKN013 OVC021
                        10/07 Q1013 BECMG BKN020=
201712250550 METAR COR EGLL 250550Z AUTO 21010KT 9999 SCT015 OVC036 10/08
                        Q1013 NOSIG=
201712250520 METAR COR EGLL 250520Z AUTO 21010KT 9999 -RA BKN010 OVC038
                        10/08 Q1014 BECMG BKN018=
201712250450 METAR COR EGLL 250450Z AUTO 22011KT 6000 -RA BKN013 OVC036
                        10/08 Q1014 NOSIG=
201712250420 METAR COR EGLL 250420Z AUTO 22013KT 9999 SCT018 OVC035 10/07
                        Q1014 NOSIG=
201712250350 METAR COR EGLL 250350Z AUTO 21012KT 9999 OVC036 11/07 Q1015
                        NOSIG=
201712250320 METAR COR EGLL 250320Z AUTO 22015KT 9999 SCT016 BKN021 OVC036
                        11/08 Q1015 NOSIG=
201712250250 METAR COR EGLL 250250Z AUTO 22013KT 9999 -RA BKN015 BKN021
                        OVC036 10/08 Q1016 NOSIG=
201712250220 METAR COR EGLL 250220Z AUTO 22009KT 9999 FEW018 OVC030 10/08
                        Q1016 NOSIG=
201712250150 METAR COR EGLL 250150Z AUTO 22011KT 9999 FEW023 BKN033 OVC039
                        10/07 Q1016 NOSIG=
201712250120 METAR EGLL 250120Z AUTO 22010KT 9999 OVC034 10/07 Q1017=
201712250050 METAR EGLL 250050Z AUTO 23015KT 9999 FEW020 OVC030 10/07
                        Q1017=
201712250020 METAR COR EGLL 250020Z AUTO 23013KT 9999 FEW021 OVC025 11/07
                        Q1017 NOSIG=
201712242350 METAR COR EGLL 242350Z AUTO 23013KT 9999 BKN026 OVC034 11/07
                        Q1018 NOSIG=
201712242320 METAR COR EGLL 242320Z AUTO 23014KT 9999 SCT017 OVC022 11/07
                        Q1018 NOSIG=
201712242250 METAR COR EGLL 242250Z AUTO 24014KT 9999 SCT015 OVC025 10/07
                        Q1019 NOSIG=
201712242220 METAR COR EGLL 242220Z AUTO 22011KT 9999 SCT012 BKN019 OVC024
                        10/08 Q1019 NOSIG=
201712242150 METAR COR EGLL 242150Z AUTO 22011KT 9999 BKN015 OVC024 10/07
                        Q1019 NOSIG=
201712242120 METAR COR EGLL 242120Z AUTO 23012KT 9999 BKN018 OVC024 10/07
                        Q1019 NOSIG=
201712242050 METAR COR EGLL 242050Z AUTO 24011KT 9999 OVC013 10/07 Q1020
                        NOSIG=
201712242020 METAR COR EGLL 242020Z AUTO 22012KT 9999 SCT015 OVC024 10/08
                        Q1020 NOSIG=
201712241950 METAR COR EGLL 241950Z AUTO 23012KT 9999 OVC022 10/07 Q1020
                        NOSIG=
201712241920 METAR COR EGLL 241920Z AUTO 23011KT 9999 OVC023 10/07 Q1020
                        NOSIG=
201712241850 METAR COR EGLL 241850Z AUTO 23013KT 9999 OVC024 10/06 Q1021
                        NOSIG=
201712241820 METAR COR EGLL 241820Z AUTO 22011KT 9999 OVC023 10/07 Q1021
                        NOSIG=
201712241750 METAR COR EGLL 241750Z AUTO 23013KT 9999 OVC023 10/07 Q1021
                        NOSIG=
201712241720 METAR COR EGLL 241720Z AUTO 24010KT 9999 SCT015 BKN019 OVC023
                        10/07 Q1021 NOSIG=
201712241650 METAR COR EGLL 241650Z AUTO 23009KT 9999 OVC014 10/08 Q1021
                        BECMG BKN020=
201712241620 METAR COR EGLL 241620Z AUTO 23011KT 9999 BKN015 OVC020 10/08
                        Q1021 NOSIG=
201712241550 METAR COR EGLL 241550Z AUTO 23012KT 9999 BKN015 OVC020 10/08
                        Q1022 NOSIG=
201712241520 METAR COR EGLL 241520Z AUTO 24013KT 9999 BKN015 OVC020 11/08
                        Q1022 NOSIG=
201712241450 METAR COR EGLL 241450Z AUTO 24014KT 9999 BKN015 OVC021 11/07
                        Q1022 NOSIG=
201712241420 METAR COR EGLL 241420Z AUTO 24014KT 9999 BKN014 OVC018 10/07
                        Q1022 BECMG BKN015=
201712241350 METAR COR EGLL 241350Z AUTO 24014KT 9999 BKN014 OVC021 10/07
                        Q1023 BECMG BKN015=
201712241320 METAR COR EGLL 241320Z AUTO 24013G23KT 9999 OVC012 10/07
                        Q1023 BECMG BKN015=
201712241250 METAR COR EGLL 241250Z AUTO 23015KT 9999 OVC009 10/08 Q1023
                        BECMG BKN012=
201712241220 METAR COR EGLL 241220Z AUTO 24014KT 9999 OVC009 10/08 Q1024
                        BECMG BKN012=
201712241150 METAR COR EGLL 241150Z AUTO 23014KT 9999 OVC009 10/08 Q1024
                        BECMG BKN010=
201712241120 METAR COR EGLL 241120Z AUTO 23011KT 9999 OVC009 10/08 Q1025
                        NOSIG=
201712241050 METAR COR EGLL 241050Z AUTO 23012KT 9999 OVC008 09/08 Q1026
                        TEMPO BKN010=
201712241020 METAR COR EGLL 241020Z AUTO 23010KT 9999 OVC007 09/07 Q1026
                        NOSIG=
201712240950 METAR COR EGLL 240950Z AUTO 23012KT 9999 BKN008 OVC012 09/07
                        Q1026 NOSIG=
201712240920 METAR COR EGLL 240920Z AUTO 23010KT 190V250 9999 OVC007 09/07
                        Q1026 NOSIG=
201712240850 METAR COR EGLL 240850Z AUTO 24010KT 9999 OVC008 09/07 Q1026
                        NOSIG=
201712240820 METAR COR EGLL 240820Z AUTO 24011KT 9999 BKN008 OVC011 09/07
                        Q1027 NOSIG=
201712240750 METAR COR EGLL 240750Z AUTO 24010KT 9999 OVC008 09/07 Q1027
                        NOSIG=
201712240720 METAR COR EGLL 240720Z AUTO 24010KT 9999 OVC007 09/07 Q1027
                        NOSIG=
201712240650 METAR COR EGLL 240650Z AUTO 24010KT 9999 BKN008 OVC011 08/07
                        Q1027 NOSIG=
201712240620 METAR COR EGLL 240620Z AUTO 24008KT 9999 BKN007 OVC011 08/07
                        Q1027 NOSIG=
201712240550 METAR COR EGLL 240550Z AUTO 25011KT 9999 BKN006 OVC013 08/07
                        Q1027 BECMG SCT006 BKN013=
201712240520 METAR COR EGLL 240520Z AUTO 25011KT 9999 BKN007 OVC010 08/07
                        Q1027 NOSIG=
201712240450 METAR COR EGLL 240450Z AUTO 25009KT 9999 BKN006 OVC010 08/07
                        Q1028 NOSIG=
201712240420 METAR COR EGLL 240420Z AUTO 25011KT 9999 OVC006 08/07 Q1028
                        NOSIG=
201712240350 METAR COR EGLL 240350Z AUTO 25009KT 9999 OVC007 08/07 Q1028
                        NOSIG=
201712240320 METAR COR EGLL 240320Z AUTO 25010KT 7000 OVC007 08/07 Q1029
                        NOSIG=
201712240250 METAR COR EGLL 240250Z AUTO 25010KT 9999 OVC007 08/07 Q1029
                        NOSIG=
201712240220 METAR COR EGLL 240220Z AUTO 25014KT 9999 OVC007 08/07 Q1029
                        NOSIG=
201712240150 METAR COR EGLL 240150Z AUTO 24010KT 9999 OVC007 08/07 Q1029
                        NOSIG=
201712240120 METAR COR EGLL 240120Z AUTO 25011KT 9999 OVC007 09/07 Q1030
                        NOSIG=
201712240050 METAR COR EGLL 240050Z AUTO 25009KT 9999 OVC008 09/07 Q1030
                        NOSIG=
201712240020 METAR COR EGLL 240020Z AUTO 24011KT 9999 OVC008 09/07 Q1030
                        NOSIG=
201712232350 METAR COR EGLL 232350Z AUTO 24009KT 9999 OVC009 09/07 Q1030
                        NOSIG=
201712232320 METAR EGLL 232320Z AUTO 25008KT 9999 OVC010 09/07 Q1030=
201712232250 METAR COR EGLL 232250Z AUTO 25010KT 9999 OVC010 09/07 Q1031
                        NOSIG=
201712232220 METAR COR EGLL 232220Z AUTO 26013KT 9999 OVC009 09/07 Q1031
                        NOSIG=
201712232150 METAR COR EGLL 232150Z AUTO 26013KT 9999 OVC008 09/07 Q1031
                        NOSIG=
201712232120 METAR COR EGLL 232120Z AUTO 26011KT 9999 BKN009 OVC012 09/07
                        Q1031 NOSIG=
201712232050 METAR COR EGLL 232050Z AUTO 25011KT 9999 OVC008 09/07 Q1031
                        NOSIG=
201712232020 METAR COR EGLL 232020Z AUTO 25011KT 9999 OVC008 09/07 Q1031
                        NOSIG=
201712231950 METAR COR EGLL 231950Z AUTO 24011KT 9999 OVC008 09/07 Q1031
                        NOSIG=
201712231920 METAR COR EGLL 231920Z AUTO 25010KT 9999 OVC009 09/07 Q1032
                        NOSIG=
201712231850 METAR COR EGLL 231850Z AUTO 25010KT 9999 OVC009 09/07 Q1032
                        TEMPO BKN010=
201712231820 METAR EGLL 231820Z AUTO 24011KT 9999 OVC008 09/07 Q1031=
201712231750 METAR COR EGLL 231750Z AUTO 25012KT 9999 OVC008 09/07 Q1031
                        TEMPO BKN010=
201712231720 METAR COR EGLL 231720Z AUTO 25012KT 9999 BKN009 OVC013 09/07
                        Q1031 TEMPO BKN010=
201712231650 METAR COR EGLL 231650Z AUTO 24010KT 9999 OVC010 09/07 Q1032
                        NOSIG=
201712231620 METAR COR EGLL 231620Z AUTO 24011KT 9999 OVC009 09/07 Q1032
                        TEMPO BKN010=
201712231550 METAR COR EGLL 231550Z AUTO 24009KT 9999 BKN009 OVC012 10/07
                        Q1032 NOSIG=
201712231520 METAR COR EGLL 231520Z AUTO 23010KT 9999 OVC009 10/07 Q1032
                        NOSIG=
201712231450 METAR COR EGLL 231450Z AUTO 25010KT 9999 BKN009 OVC013 10/08
                        Q1032 TEMPO BKN010=
201712231420 METAR COR EGLL 231420Z AUTO 24011KT 9999 OVC008 10/08 Q1032
                        TEMPO BKN010=
201712231350 METAR COR EGLL 231350Z AUTO 25011KT 9999 BKN007 OVC013 10/08
                        Q1032 NOSIG=
201712231320 METAR COR EGLL 231320Z AUTO 25012KT 9999 BKN007 OVC011 10/08
                        Q1033 TEMPO BKN010=
201712231250 METAR COR EGLL 231250Z AUTO 26012KT 9999 OVC007 09/08 Q1033
                        TEMPO BKN010=
201712231220 METAR COR EGLL 231220Z AUTO 25012KT 9999 OVC007 09/08 Q1033
                        NOSIG=
201712231150 METAR COR EGLL 231150Z AUTO 26011KT 9999 OVC006 09/08 Q1034
                        NOSIG=
201712231120 METAR COR EGLL 231120Z AUTO 26012KT 9999 OVC007 09/08 Q1034
                        NOSIG=
201712231050 METAR COR EGLL 231050Z AUTO 26011KT 8000 OVC007 09/08 Q1034
                        NOSIG=
201712231020 METAR COR EGLL 231020Z AUTO 27011KT 7000 BKN006 OVC012 09/08
                        Q1035 NOSIG=
201712230950 METAR COR EGLL 230950Z AUTO 27010KT 6000 BKN006 OVC009 09/08
                        Q1035 NOSIG=
201712230920 METAR COR EGLL 230920Z AUTO 27011KT 2900 HZ BKN006 OVC012
                        08/07 Q1035 BECMG 9999 NSW=
201712230850 METAR COR EGLL 230850Z AUTO 26014KT 6000 BKN006 OVC009 08/07
                        Q1035 TEMPO 4000 -RADZ=
201712230820 METAR COR EGLL 230820Z AUTO 26013KT 9999 OVC005 09/08 Q1034
                        NOSIG=
201712230750 METAR COR EGLL 230750Z AUTO 26013KT 9999 OVC006 09/08 Q1034
                        NOSIG=
201712230720 METAR COR EGLL 230720Z AUTO 25010KT 9999 OVC007 09/08 Q1034
                        NOSIG=
201712230650 METAR COR EGLL 230650Z AUTO 25010KT 9999 OVC008 09/08 Q1034
                        NOSIG=
201712230620 METAR COR EGLL 230620Z AUTO 26010KT 9999 OVC008 09/08 Q1035
                        NOSIG=
201712230550 METAR COR EGLL 230550Z AUTO 24010KT 9999 OVC008 10/08 Q1035
                        TEMPO BKN010=
201712230520 METAR COR EGLL 230520Z AUTO 26010KT 9999 OVC009 10/08 Q1035
                        NOSIG=
201712230450 METAR COR EGLL 230450Z AUTO 25008KT 9999 OVC010 10/08 Q1035
                        TEMPO BKN009=
201712230420 METAR COR EGLL 230420Z AUTO 24006KT 9999 OVC011 10/08 Q1035
                        NOSIG=
201712230350 METAR COR EGLL 230350Z AUTO 24007KT 9999 BKN012 OVC019 10/08
                        Q1035 NOSIG=
201712230320 METAR COR EGLL 230320Z AUTO 23007KT 9999 BKN011 OVC017 10/08
                        Q1036 TEMPO SCT011 BKN017=
201712230250 METAR COR EGLL 230250Z AUTO 22007KT 9999 OVC014 10/08 Q1036
                        NOSIG=
201712230220 METAR COR EGLL 230220Z AUTO 22006KT 9999 OVC013 10/08 Q1036
                        NOSIG=
201712230150 METAR COR EGLL 230150Z AUTO 23006KT 9999 OVC011 10/08 Q1036
                        NOSIG=
201712230120 METAR COR EGLL 230120Z AUTO 23006KT 9999 OVC012 10/08 Q1036
                        NOSIG=
201712230050 METAR COR EGLL 230050Z AUTO 24006KT 9999 OVC011 10/08 Q1036
                        NOSIG=
201712230020 METAR COR EGLL 230020Z AUTO 26007KT 9999 OVC011 10/08 Q1037
                        NOSIG=
201712222350 METAR COR EGLL 222350Z AUTO 25005KT 9999 OVC013 10/08 Q1037
                        NOSIG=
201712222320 METAR COR EGLL 222320Z AUTO 27006KT 9999 OVC014 10/08 Q1037
                        TEMPO BKN016=
201712222250 METAR COR EGLL 222250Z AUTO 25006KT 9999 OVC014 11/08 Q1037
                        TEMPO BKN016=
201712222220 METAR COR EGLL 222220Z AUTO 25006KT 190V270 9999 OVC015 11/08
                        Q1037 TEMPO BKN014=
201712222150 METAR COR EGLL 222150Z AUTO 24006KT 210V280 9999 OVC015 11/08
                        Q1037 TEMPO BKN014=
201712222120 METAR COR EGLL 222120Z AUTO 22006KT 180V270 9999 BKN015 OVC019
                        11/08 Q1037 TEMPO BKN014=
201712222050 METAR COR EGLL 222050Z AUTO 22005KT 170V250 9999 OVC017 11/08
                        Q1037 TEMPO BKN014=
201712222020 METAR COR EGLL 222020Z AUTO 25004KT 210V280 9999 OVC018 11/08
                        Q1037 NOSIG=
201712221950 METAR COR EGLL 221950Z AUTO 33003KT 9999 OVC018 11/08 Q1037
                        NOSIG=
201712221920 METAR COR EGLL 221920Z AUTO VRB02KT 9999 OVC019 11/08 Q1037
                        NOSIG=
201712221850 METAR COR EGLL 221850Z AUTO VRB02KT 9999 OVC017 11/08 Q1037
                        NOSIG=
201712221820 METAR COR EGLL 221820Z AUTO 36001KT 9999 OVC016 11/08 Q1037
                        NOSIG=
201712221750 METAR COR EGLL 221750Z AUTO VRB02KT 9999 OVC016 11/08 Q1037
                        NOSIG=
201712221720 METAR COR EGLL 221720Z AUTO 27004KT 230V320 9999 OVC014 11/08
                        Q1037 NOSIG=
201712221650 METAR COR EGLL 221650Z AUTO 27005KT 9999 OVC013 11/08 Q1037
                        NOSIG=
201712221620 METAR COR EGLL 221620Z AUTO 29004KT 9999 OVC013 11/08 Q1036
                        NOSIG=
201712221550 METAR COR EGLL 221550Z AUTO 29005KT 9999 BKN014 OVC019 12/08
                        Q1036 NOSIG=
201712221520 METAR COR EGLL 221520Z AUTO 28004KT 240V310 9999 OVC015 11/09
                        Q1036 NOSIG=
201712221450 METAR COR EGLL 221450Z AUTO 30004KT 9999 OVC013 12/09 Q1036
                        NOSIG=
201712221420 METAR COR EGLL 221420Z AUTO 29002KT 9999 BKN010 OVC019 12/09
                        Q1036 NOSIG=
201712221350 METAR COR EGLL 221350Z AUTO VRB02KT 9999 BKN009 12/09 Q1035
                        NOSIG=
201712221320 METAR COR EGLL 221320Z AUTO VRB01KT 9999 FEW006 OVC010 11/10
                        Q1035 NOSIG=
201712221250 METAR COR EGLL 221250Z VRB02KT 9999 SCT008 BKN015 11/10 Q1036
                        TEMPO BKN008=
201712221220 METAR COR EGLL 221220Z VRB02KT 9999 SCT008 BKN016 11/10 Q1036
                        TEMPO BKN008=
201712221150 METAR COR EGLL 221150Z 29003KT 9999 FEW007 BKN011 11/09 Q1036
                        NOSIG=
201712221120 METAR COR EGLL 221120Z VRB03KT 9999 FEW005 BKN009 11/10 Q1036
                        NOSIG=
201712221050 METAR COR EGLL 221050Z 30003KT 6000 -DZ FEW004 BKN006 11/10
                        Q1036 BECMG 9999 BKN008=
201712221020 METAR COR EGLL 221020Z 28005KT 8000 SCT005 BKN008 10/09 Q1036
                        NOSIG=
201712220950 METAR COR EGLL 220950Z 28006KT 9999 SCT006 BKN012 10/09 Q1036
                        NOSIG=
201712220920 METAR COR EGLL 220920Z 28007KT 9999 FEW005 BKN011 10/09 Q1035
                        NOSIG=
201712220850 METAR COR EGLL 220850Z AUTO 26007KT 9999 SCT005 BKN011 OVC047
                        10/09 Q1035 TEMPO BKN005=
201712220820 METAR COR EGLL 220820Z AUTO 25006KT 9999 FEW008 SCT025 BKN038
                        10/09 Q1035 TEMPO BKN008=
201712220750 METAR COR EGLL 220750Z AUTO 27006KT 9999 BKN007 10/09 Q1035
                        TEMPO BKN006=
201712220720 METAR COR EGLL 220720Z AUTO 27007KT 9999 OVC008 10/09 Q1035
                        NOSIG=
201712220650 METAR COR EGLL 220650Z AUTO 25006KT 9999 OVC010 10/09 Q1034
                        TEMPO BKN008=
201712220620 METAR COR EGLL 220620Z AUTO 25006KT 9999 OVC009 10/09 Q1034
                        TEMPO BKN011=
201712220550 METAR COR EGLL 220550Z AUTO 24006KT 200V280 7000 -RA OVC008
                        10/09 Q1034 NOSIG=
201712220520 METAR COR EGLL 220520Z AUTO 24004KT 6000 BKN006 OVC009 10/09
                        Q1034 TEMPO 4000 BR BKN004=
201712220450 METAR COR EGLL 220450Z AUTO 22005KT 5000 -DZ OVC006 10/09
                        Q1034 TEMPO 4000 BKN004=
201712220420 METAR COR EGLL 220420Z AUTO 25004KT 4700 HZ OVC004 10/09
                        Q1034 TEMPO 5000 BKN005=
201712220350 METAR COR EGLL 220350Z AUTO 25004KT 4000 -RADZ OVC005 10/08
                        Q1034 TEMPO BKN004=
201712220320 METAR COR EGLL 220320Z AUTO 25005KT 7000 -RA OVC006 10/08
                        Q1034 TEMPO BKN004=
201712220250 METAR COR EGLL 220250Z AUTO 25006KT 9000 OVC006 10/08 Q1034
                        TEMPO BKN004=
201712220220 METAR COR EGLL 220220Z AUTO 25007KT 9999 BKN008 09/08 Q1034
                        NOSIG=
201712220150 METAR COR EGLL 220150Z AUTO 25008KT 9999 BKN009 BKN026 09/08
                        Q1034 TEMPO SCT009 BKN011=
201712220120 METAR COR EGLL 220120Z AUTO 25007KT 9999 BKN010 09/08 Q1034
                        BECMG BKN008=
201712220050 METAR COR EGLL 220050Z AUTO 24005KT 9999 BKN012 09/08 Q1035
                        NOSIG=
201712220020 METAR COR EGLL 220020Z AUTO 25006KT 9999 OVC012 09/08 Q1035
                        NOSIG=
201712212350 METAR COR EGLL 212350Z AUTO 25007KT 9999 BKN013 09/08 Q1035
                        NOSIG=
201712212320 METAR COR EGLL 212320Z AUTO 25008KT 9999 BKN011 10/08 Q1035
                        NOSIG=
201712212250 METAR COR EGLL 212250Z AUTO 24008KT 9999 SCT013 BKN033 11/08
                        Q1035 TEMPO BKN013=
201712212220 METAR COR EGLL 212220Z AUTO 25006KT 9999 BKN032 10/08 Q1035
                        NOSIG=
201712212150 METAR COR EGLL 212150Z AUTO 24008KT 9999 OVC030 11/08 Q1035
                        NOSIG=
201712212120 METAR COR EGLL 212120Z AUTO 26008KT 9999 BKN030 11/08 Q1035
                        NOSIG=
201712212050 METAR COR EGLL 212050Z AUTO 25007KT 9999 OVC026 11/08 Q1035
                        NOSIG=
201712212020 METAR COR EGLL 212020Z AUTO 25008KT 9999 OVC021 11/08 Q1035
                        NOSIG=
201712211950 METAR COR EGLL 211950Z AUTO 26009KT 9999 OVC019 11/08 Q1035
                        NOSIG=
201712211920 METAR COR EGLL 211920Z AUTO 26009KT 9999 OVC017 11/08 Q1035
                        NOSIG=
201712211850 METAR COR EGLL 211850Z AUTO 26010KT 9999 OVC017 11/08 Q1035
                        NOSIG=
201712211820 METAR COR EGLL 211820Z AUTO 25010KT 9999 BKN016 OVC021 11/08
                        Q1035 NOSIG=
201712211750 METAR COR EGLL 211750Z AUTO 26010KT 9999 OVC016 11/08 Q1035
                        NOSIG=
201712211720 METAR COR EGLL 211720Z AUTO 26012KT 9999 BKN017 OVC025 11/08
                        Q1035 NOSIG=
201712211650 METAR COR EGLL 211650Z AUTO 25012KT 9999 OVC026 11/08 Q1035
                        NOSIG=
201712211620 METAR COR EGLL 211620Z AUTO 26010KT 9999 OVC024 12/08 Q1035
                        NOSIG=
201712211550 METAR COR EGLL 211550Z AUTO 26010KT 9999 BKN023 12/08 Q1035
                        NOSIG=
201712211520 METAR COR EGLL 211520Z AUTO 27011KT 9999 SCT020 12/08 Q1035
                        NOSIG=
201712211450 METAR COR EGLL 211450Z AUTO 27014KT 9999 SCT018 12/09 Q1035
                        NOSIG=
201712211420 METAR COR EGLL 211420Z AUTO 28010KT 9999 BKN016 12/10 Q1035
                        NOSIG=
201712211350 METAR COR EGLL 211350Z AUTO 27012KT 9999 SCT015 12/10 Q1035
                        NOSIG=
201712211320 METAR COR EGLL 211320Z AUTO 27013KT 9999 BKN008 OVC013 12/10
                        Q1035 BECMG BKN014=
201712211250 METAR COR EGLL 211250Z AUTO 27014KT 9999 OVC007 12/10 Q1035
                        BECMG BKN010=
201712211220 METAR COR EGLL 211220Z AUTO 27013KT 9999 OVC007 12/10 Q1035
                        BECMG BKN010=
201712211150 METAR COR EGLL 211150Z AUTO 27013KT 9999 OVC007 12/10 Q1036
                        BECMG BKN010=
201712211120 METAR COR EGLL 211120Z AUTO 27011KT 9999 OVC006 12/10 Q1036
                        BECMG BKN010=
201712211050 METAR COR EGLL 211050Z AUTO 26009KT 9999 OVC005 11/10 Q1036
                        TEMPO BKN010=
201712211020 METAR COR EGLL 211020Z 27009KT 7000 FEW004 BKN006 11/10 Q1036
                        NOSIG=
201712210950 METAR COR EGLL 210950Z AUTO 26009KT 5000 HZ OVC004 11/10
                        Q1036 BECMG BKN007=
201712210920 METAR COR EGLL 210920Z AUTO 25007KT 5000 HZ OVC004 11/10
                        Q1036 TEMPO BKN007=
201712210850 METAR COR EGLL 210850Z AUTO 26008KT 4900 HZ OVC004 11/10
                        Q1036 TEMPO BKN006=
201712210820 METAR COR EGLL 210820Z AUTO 26009KT 4700 HZ BKN004 OVC022
                        11/10 Q1036 TEMPO BKN005=
201712210750 METAR COR EGLL 210750Z AUTO 25007KT 4600 HZ BKN003 OVC020
                        11/10 Q1035 TEMPO FEW003 BKN006=
201712210720 METAR COR EGLL 210720Z AUTO 26007KT 3400 -DZ BKN002 OVC018
                        11/10 Q1035 RERA REDZ TEMPO FEW002
                        BKN006=
201712210650 METAR COR EGLL 210650Z AUTO 25006KT 1200 R27L/P1500 R27R/P1500
                        -RADZ OVC002 10/10 Q1035 TEMPO 2000
                        OVC003=
201712210620 METAR COR EGLL 210620Z AUTO 24005KT 2400 HZ OVC004 10/09
                        Q1035 TEMPO 1400 BR=
201712210550 METAR COR EGLL 210550Z AUTO 24005KT 3900 HZ OVC005 10/09
                        Q1035 NOSIG=
201712210520 METAR COR EGLL 210520Z AUTO 22004KT 170V260 3700 HZ OVC005
                        10/09 Q1035 TEMPO BKN003=
201712210450 METAR COR EGLL 210450Z AUTO 24006KT 200V260 3300 HZ OVC005
                        10/09 Q1035 TEMPO 2500 BKN003=
201712210420 METAR COR EGLL 210420Z AUTO 25005KT 2800 HZ OVC005 10/09
                        Q1035 TEMPO BKN002=
201712210350 METAR COR EGLL 210350Z AUTO 24004KT 2600 HZ OVC004 10/09
                        Q1035 TEMPO BKN002=
201712210320 METAR COR EGLL 210320Z AUTO 25004KT 2800 -DZ BKN004 OVC008
                        10/09 Q1035 TEMPO 1400=
201712210250 METAR COR EGLL 210250Z AUTO 25004KT 2600 HZ SCT004 BKN008
                        OVC012 10/09 Q1035 TEMPO 1400 -DZ
                        BKN003=
201712210220 METAR COR EGLL 210220Z AUTO 24005KT 2600 HZ BKN005 OVC009
                        10/09 Q1035 TEMPO 1400 -DZ BKN003=
201712210150 METAR COR EGLL 210150Z AUTO 24005KT 2600 HZ OVC004 10/09
                        Q1035 NOSIG=
201712210120 METAR COR EGLL 210120Z AUTO 25005KT 2200 HZ BKN004 OVC007
                        10/09 Q1035 NOSIG=
201712210050 METAR COR EGLL 210050Z AUTO 26005KT 2400 HZ BKN004 OVC007
                        10/09 Q1036 NOSIG=
201712210020 METAR COR EGLL 210020Z AUTO 28002KT 2200 HZ OVC005 10/09
                        Q1036 TEMPO OVC004=
201712202350 METAR COR EGLL 202350Z AUTO 27005KT 2400 HZ OVC004 10/09
                        Q1036 NOSIG=
201712202320 METAR EGLL 202320Z AUTO 27004KT 2900 HZ OVC004 10/09 Q1036=
201712202250 METAR COR EGLL 202250Z AUTO 28006KT 3200 HZ OVC004 11/10
                        Q1036 BECMG 2500 BR=
201712202220 METAR COR EGLL 202220Z AUTO 28006KT 3700 HZ BKN004 OVC008
                        10/09 Q1036 BECMG 2500 BR=
201712202150 METAR COR EGLL 202150Z AUTO 26008KT 3600 HZ BKN004 OVC019
                        11/10 Q1035 BECMG 2500 BR=
201712202120 METAR COR EGLL 202120Z AUTO 25007KT 4400 HZ BKN005 OVC018
                        11/10 Q1035 BECMG BKN004=
201712202050 METAR COR EGLL 202050Z AUTO 25007KT 5000 HZ OVC006 11/09
                        Q1035 BECMG 4000 BR BKN004=
201712202020 METAR COR EGLL 202020Z AUTO 24007KT 5000 HZ OVC006 11/10
                        Q1035 BECMG 4000 BR OVC004=
201712201950 METAR COR EGLL 201950Z AUTO 23006KT 6000 BKN006 OVC009 10/09
                        Q1035 BECMG 4000 BR BKN004=
201712201920 METAR COR EGLL 201920Z AUTO 22005KT 6000 OVC007 10/09 Q1035
                        BECMG 4000 BR=
201712201850 METAR COR EGLL 201850Z AUTO 24005KT 9999 BKN007 OVC013 11/09
                        Q1036 NOSIG=
201712201820 METAR COR EGLL 201820Z AUTO 23005KT 9999 BKN006 OVC014 11/09
                        Q1035 NOSIG=
201712201750 METAR COR EGLL 201750Z AUTO 23006KT 200V270 9999 OVC011 11/09
                        Q1035 TEMPO BKN008=
201712201720 METAR COR EGLL 201720Z AUTO 22006KT 9999 OVC012 11/09 Q1035
                        BECMG BKN008=
201712201650 METAR COR EGLL 201650Z AUTO 25005KT 210V270 9999 OVC011 11/09
                        Q1035 BECMG BKN008=
201712201620 METAR COR EGLL 201620Z AUTO 24006KT 9999 OVC011 11/09 Q1035
                        BECMG BKN008=
201712201550 METAR COR EGLL 201550Z AUTO 24006KT 9999 OVC011 11/09 Q1035
                        TEMPO BKN008=
201712201520 METAR COR EGLL 201520Z AUTO 25006KT 9999 BKN011 OVC019 11/09
                        Q1035 TEMPO BKN008=
201712201450 METAR COR EGLL 201450Z AUTO 25007KT 220V280 9999 OVC011 11/09
                        Q1034 TEMPO BKN008=
201712201420 METAR COR EGLL 201420Z AUTO 23006KT 9999 OVC013 11/09 Q1034
                        TEMPO BKN008=
201712201350 METAR COR EGLL 201350Z AUTO 26004KT 170V310 9999 BKN010 OVC019
                        10/09 Q1034 TEMPO BKN008=
201712201320 METAR COR EGLL 201320Z AUTO 28005KT 9999 BKN008 OVC013 10/09
                        Q1035 NOSIG=
201712201250 METAR COR EGLL 201250Z AUTO 25006KT 9000 BKN006 OVC010 10/09
                        Q1035 NOSIG=
201712201220 METAR COR EGLL 201220Z AUTO 25007KT 230V290 9000 OVC006 10/09
                        Q1035 NOSIG=
201712201150 METAR COR EGLL 201150Z 25006KT 200V300 9000 FEW005 BKN006
                        09/09 Q1035 NOSIG=
201712201120 METAR COR EGLL 201120Z 24007KT 200V260 9000 FEW004 BKN005
                        09/09 Q1035 NOSIG=
201712201050 METAR COR EGLL 201050Z 27009KT 6000 FEW003 BKN004 09/08 Q1036
                        TEMPO BKN005=
201712201020 METAR COR EGLL 201020Z 27009KT 3600 BR SCT002 BKN003 09/08
                        Q1035 TEMPO 5000 BKN005=
201712200950 METAR COR EGLL 200950Z AUTO 27010KT 2400 BR OVC002 09/08
                        Q1035 TEMPO 3000 BKN003=
201712200920 METAR COR EGLL 200920Z AUTO 25009KT 2500 BR OVC002 08/08
                        Q1035 TEMPO 3000 BKN003=
201712200850 METAR COR EGLL 200850Z AUTO 23008KT 1700 BR BKN002 OVC005
                        08/08 Q1035 TEMPO BKN002=
201712200820 METAR COR EGLL 200820Z AUTO 24008KT 2400 BR BKN003 OVC014
                        08/08 Q1035 TEMPO BKN002=
201712200750 METAR COR EGLL 200750Z AUTO 22007KT 1500 BR BKN001 BKN006
                        OVC014 08/07 Q1035 TEMPO 3000 BKN003=
201712200720 METAR COR EGLL 200720Z AUTO 23006KT 2500 BR OVC002 08/07
                        Q1035 TEMPO 3000 BKN003=
201712200650 METAR COR EGLL 200650Z AUTO 22005KT 190V250 1300 R27L/P1500
                        R27R/P1500 BR OVC002 08/07 Q1034
                        TEMPO 0900 FG BKN001=
201712200620 METAR COR EGLL 200620Z 23006KT 1300 R27L/P1500 R27R/P1500
                        BR FEW001 BKN002 08/07 Q1034 TEMPO
                        0900 FG BKN001=
201712200550 METAR COR EGLL 200550Z 25007KT 1100 R27R/P1500 BR FEW001
                        BKN002 08/07 Q1034 TEMPO 0900 FG
                        BKN001=
201712200520 METAR COR EGLL 200520Z 25006KT 0900 R27R/P1500 FG SCT001
                        BKN002 08/07 Q1034 TEMPO 1200 BR=
201712200450 METAR COR EGLL 200450Z 24007KT 0900 R27R/P1500 FG SCT001
                        BKN002 08/07 Q1034 TEMPO BKN001=
201712200420 METAR COR EGLL 200420Z 26006KT 0900 R27R/1000 FG BKN001 08/07
                        Q1034 TEMPO BKN002=
201712200350 METAR COR EGLL 200350Z 25005KT 0900 R27R/P1500 FG FEW001
                        BKN002 08/07 Q1034 TEMPO BKN001=
201712200320 METAR COR EGLL 200320Z AUTO 25006KT 0900 R27R/P1500 FG OVC001
                        08/07 Q1034 TEMPO OVC002=
201712200250 METAR COR EGLL 200250Z AUTO 26005KT 0700 R27R/P1500 FG BKN001
                        OVC006 08/07 Q1035 TEMPO 1200 BR
                        BKN002=
201712200220 METAR COR EGLL 200220Z AUTO 25004KT 0900 R27R/P1500 FG OVC001
                        07/07 Q1035 TEMPO BKN002=
201712200150 METAR COR EGLL 200150Z AUTO 25004KT 0650 R27R/P1500 FG OVC001
                        07/07 Q1035 TEMPO BKN002=
201712200120 METAR COR EGLL 200120Z AUTO 26004KT 1900 HZ OVC002 08/07
                        Q1035 TEMPO 1200=
201712200050 METAR COR EGLL 200050Z AUTO 27004KT 4300 HZ OVC003 08/06
                        Q1035 NOSIG=
201712200020 METAR COR EGLL 200020Z AUTO 28003KT 7000 BKN004 OVC010 07/06
                        Q1035 BECMG 4000 BR=
201712192350 METAR COR EGLL 192350Z AUTO 28004KT 7000 OVC005 07/06 Q1035
                        NOSIG=
201712192320 METAR COR EGLL 192320Z AUTO 27005KT 7000 OVC006 08/06 Q1035
                        TEMPO 4000 BR BKN004=
201712192250 METAR COR EGLL 192250Z AUTO 27005KT 7000 BKN005 OVC012 08/06
                        Q1035 TEMPO 3500 BR=
201712192220 METAR COR EGLL 192220Z AUTO 26005KT 8000 BKN006 OVC010 08/06
                        Q1035 NOSIG=
201712192150 METAR COR EGLL 192150Z AUTO 27004KT 8000 BKN007 OVC013 07/06
                        Q1035 TEMPO 4000 BR=
201712192120 METAR COR EGLL 192120Z AUTO 28004KT 6000 BKN008 OVC030 07/06
                        Q1035 TEMPO 3500 BR=
201712192050 METAR COR EGLL 192050Z AUTO 27005KT 4700 HZ BKN007 OVC029
                        07/06 Q1035 TEMPO 6000 SCT007 BKN011=
201712192020 METAR COR EGLL 192020Z AUTO 26005KT 230V290 7000 -RA SCT006
                        BKN011 BKN019 07/06 Q1035 REDZ TEMPO
                        4000 -RADZ BR BKN009=
201712191950 METAR COR EGLL 191950Z AUTO 27005KT 8000 SCT009 BKN016 BKN021
                        07/05 Q1035 TEMPO NOSIG=
201712191920 METAR COR EGLL 191920Z AUTO 25007KT 8000 -RA BKN012 BKN023
                        BKN030 07/05 Q1035 TEMPO FEW012=
201712191850 METAR COR EGLL 191850Z AUTO 25006KT 9999 OVC039 07/05 Q1035
                        NOSIG=
201712191820 METAR COR EGLL 191820Z AUTO 26007KT 9999 FEW032 BKN039 OVC046
                        07/05 Q1035 NOSIG=
201712191750 METAR COR EGLL 191750Z AUTO 25007KT 210V280 9999 BKN029 OVC041
                        07/04 Q1035 NOSIG=
201712191720 METAR COR EGLL 191720Z AUTO 25007KT 9999 OVC037 07/04 Q1035
                        NOSIG=
201712191650 METAR COR EGLL 191650Z AUTO 24008KT 9999 BKN039 OVC046 07/04
                        Q1035 NOSIG=
201712191620 METAR COR EGLL 191620Z AUTO 25004KT 220V280 9999 OVC041 07/04
                        Q1035 NOSIG=
201712191550 METAR COR EGLL 191550Z AUTO 24006KT 9999 BKN042 07/04 Q1034
                        NOSIG=
201712191520 METAR COR EGLL 191520Z AUTO 23006KT 9999 FEW044 07/05 Q1034
                        NOSIG=
201712191450 METAR COR EGLL 191450Z AUTO 24008KT 9999 NCD 07/05 Q1034
                        NOSIG=
201712191420 METAR COR EGLL 191420Z AUTO 24007KT 9999 NCD 07/04 Q1034
                        NOSIG=
201712191350 METAR COR EGLL 191350Z AUTO 25007KT 9999 NCD 07/04 Q1035
                        NOSIG=
201712191320 METAR COR EGLL 191320Z AUTO 22005KT 180V250 9999 FEW043 07/04
                        Q1035 NOSIG=
201712191250 METAR COR EGLL 191250Z AUTO 25006KT 9999 NCD 07/04 Q1035
                        NOSIG=
201712191220 METAR COR EGLL 191220Z AUTO 27006KT 9999 NCD 06/04 Q1035
                        NOSIG=
201712191150 METAR COR EGLL 191150Z AUTO 28006KT 9999 NCD 06/03 Q1035
                        NOSIG=
201712191120 METAR COR EGLL 191120Z AUTO 29004KT 9999 NCD 05/03 Q1036
                        NOSIG=
201712191050 METAR COR EGLL 191050Z AUTO 22004KT 170V280 8000 NCD 05/03
                        Q1036 NOSIG=
201712191020 METAR COR EGLL 191020Z AUTO 27004KT 220V310 7000 NCD 03/02
                        Q1036 NOSIG=
201712190950 METAR COR EGLL 190950Z AUTO 28004KT 6000 NCD 02/01 Q1036
                        NOSIG=
201712190920 METAR COR EGLL 190920Z AUTO 24005KT 200V270 6000 NCD 01/01
                        Q1035 NOSIG=
201712190850 METAR COR EGLL 190850Z 24007KT 6000 NSC 00/00 Q1035 TEMPO
                        4000 BR=
201712190820 METAR COR EGLL 190820Z 18004KT 4100 BR NSC M01/M01 Q1035
                        NOSIG=
201712190750 METAR COR EGLL 190750Z 19004KT 150V240 3400 BR NSC M01/M01
                        Q1035 TEMPO 0500 FG BKN000=
201712190720 METAR COR EGLL 190720Z VRB03KT 2900 BR BCFG NSC M02/M02 Q1035
                        TEMPO 0500 FZFG VV///=
201712190650 METAR COR EGLL 190650Z VRB03KT 2600 1000SW R27L/P1500 R27R/P1500
                        BR BCFG FEW001 M02/M02 Q1035 TEMPO
                        0500 FZFG VV///=
201712190620 METAR COR EGLL 190620Z VRB02KT 2500 0500SW R27L/P1500 R27R/1100
                        BR BCFG SCT001 M01/M02 Q1035 TEMPO
                        0500 FZFG=
201712190550 METAR COR EGLL 190550Z AUTO 30002KT 0200 R27R/1300 FZFG VV///
                        M01/M01 Q1035 TEMPO 0350=
201712190520 METAR COR EGLL 190520Z AUTO 32001KT 0150 R27R/0750 FZFG VV///
                        M02/M02 Q1035 NOSIG=
201712190450 METAR COR EGLL 190450Z AUTO VRB03KT 0100 R27R/0600 FZFG VV///
                        M01/M02 Q1034 NOSIG=
201712190420 METAR COR EGLL 190420Z AUTO 26002KT 0150 R27R/0375 FZFG VV///
                        M01/M01 Q1034 NOSIG=
201712190350 METAR COR EGLL 190350Z AUTO 27001KT 0150 FZFG VV/// M01/M01
                        Q1034 NOSIG=
201712190320 METAR COR EGLL 190320Z AUTO 34001KT 0150 FZFG SCT001 M02/M02
                        Q1034 BECMG BKN001=
201712190250 METAR COR EGLL 190250Z AUTO 29003KT 0050 FZFG VV/// M02/M02
                        Q1034 TEMPO 0200=
201712190220 METAR COR EGLL 190220Z 28003KT 1000 0400W R27R/0500 FZFG
                        FEW001 M01/M02 Q1034 TEMPO 0200 FZFG
                        VV///=
201712190150 METAR COR EGLL 190150Z 27002KT 1200 0600W R27R/0300 BR BCFG
                        FEW001 M00/M01 Q1034 BECMG 0200 FZFG
                        VV///=
201712190120 METAR COR EGLL 190120Z 22001KT 1400 0700W R27R/1100 BR BCFG
                        NSC M00/M01 Q1034 BECMG 0600 FZFG=
201712190050 METAR COR EGLL 190050Z 22001KT 1400 R27R/0500 BR BCFG NSC
                        M00/M01 Q1034 BECMG 0600 FG FZFG=
201712190020 METAR COR EGLL 190020Z 26002KT 2500 R27R/0350 BR BCFG NSC
                        00/M00 Q1034 BECMG 1400=
201712182350 METAR COR EGLL 182350Z VRB01KT 3500 BR NSC 00/M00 Q1034 BECMG
                        2500=
201712182320 METAR COR EGLL 182320Z VRB01KT 4800 BR NSC 01/00 Q1034 NOSIG=
201712182250 METAR COR EGLL 182250Z 24001KT 4800 BR NSC 02/01 Q1034 NOSIG=
201712182220 METAR COR EGLL 182220Z 31001KT 5000 BR NSC 02/01 Q1034 TEMPO
                        3000=
201712182150 METAR COR EGLL 182150Z AUTO 32001KT 5000 HZ NCD 02/01 Q1034
                        TEMPO 3000 BR=
201712182120 METAR COR EGLL 182120Z AUTO 32002KT 4900 HZ NCD 02/01 Q1034
                        NOSIG=
201712182050 METAR COR EGLL 182050Z AUTO VRB02KT 6000 NCD 03/02 Q1033
                        BECMG 4000 BR=
201712182020 METAR COR EGLL 182020Z AUTO 27003KT 6000 NCD 03/02 Q1033
                        BECMG 4000 BR=
201712181950 METAR COR EGLL 181950Z AUTO 30003KT 5000 HZ NCD 03/01 Q1033
                        BECMG 3000=
201712181920 METAR COR EGLL 181920Z AUTO 29001KT 6000 NCD 03/01 Q1033
                        BECMG 4000 BR=
201712181850 METAR COR EGLL 181850Z AUTO 32001KT 8000 NCD 03/01 Q1033
                        BECMG 4000 BR=
201712181820 METAR COR EGLL 181820Z AUTO 29001KT 9000 NCD 04/02 Q1032
                        NOSIG=
201712181750 METAR COR EGLL 181750Z AUTO 32001KT 9000 NCD 05/02 Q1032
                        NOSIG=
201712181720 METAR COR EGLL 181720Z AUTO VRB02KT 9999 NCD 06/03 Q1032
                        NOSIG=
201712181650 METAR COR EGLL 181650Z AUTO 35002KT 9999 NCD 06/03 Q1032
                        NOSIG=
201712181620 METAR COR EGLL 181620Z AUTO 32001KT 9999 NCD 07/03 Q1032
                        NOSIG=
201712181550 METAR COR EGLL 181550Z AUTO 34002KT 9999 NCD 07/03 Q1031
                        NOSIG=
201712181520 METAR COR EGLL 181520Z AUTO VRB01KT 9999 NCD 07/03 Q1031
                        NOSIG=
201712181450 METAR COR EGLL 181450Z AUTO VRB02KT 9999 NCD 08/02 Q1031
                        NOSIG=
201712181420 METAR COR EGLL 181420Z AUTO 30003KT 9999 NCD 07/03 Q1031
                        NOSIG=
201712181350 METAR COR EGLL 181350Z AUTO VRB03KT 9999 NCD 08/03 Q1030
                        NOSIG=
201712181320 METAR COR EGLL 181320Z AUTO VRB03KT 9999 NCD 07/03 Q1030
                        NOSIG=
201712181250 METAR COR EGLL 181250Z AUTO VRB03KT 9999 NCD 07/03 Q1030
                        NOSIG=
201712181220 METAR COR EGLL 181220Z AUTO VRB02KT 9999 NCD 07/03 Q1030
                        NOSIG=
201712181150 METAR COR EGLL 181150Z AUTO VRB02KT 9999 NCD 06/03 Q1030
                        NOSIG=
201712181120 METAR COR EGLL 181120Z AUTO VRB03KT 9999 NCD 06/03 Q1030
                        NOSIG=
201712181050 METAR COR EGLL 181050Z AUTO VRB03KT 9999 NCD 05/02 Q1030
                        NOSIG=
201712181020 METAR COR EGLL 181020Z AUTO VRB03KT 9999 NCD 04/02 Q1030
                        NOSIG=
201712180950 METAR COR EGLL 180950Z AUTO 27003KT 9000 NCD 04/02 Q1029
                        NOSIG=
201712180920 METAR COR EGLL 180920Z AUTO 31003KT 9999 NCD 04/02 Q1029
                        NOSIG=
201712180850 METAR COR EGLL 180850Z AUTO 30003KT 9999 NCD 03/02 Q1028
                        NOSIG=
201712180820 METAR COR EGLL 180820Z 29002KT CAVOK 02/00 Q1028 NOSIG=
201712180750 METAR COR EGLL 180750Z 27004KT CAVOK 02/01 Q1027 NOSIG=
201712180720 METAR COR EGLL 180720Z 30003KT CAVOK 03/01 Q1027 NOSIG=
201712180650 METAR COR EGLL 180650Z 28003KT CAVOK 03/01 Q1027 NOSIG=
201712180620 METAR COR EGLL 180620Z VRB02KT CAVOK 03/01 Q1026 NOSIG=
201712180550 METAR COR EGLL 180550Z VRB02KT 9999 NSC 03/01 Q1026 NOSIG=
201712180520 METAR COR EGLL 180520Z VRB03KT 9999 NSC 03/01 Q1025 NOSIG=
201712180450 METAR COR EGLL 180450Z 35003KT 9999 NSC 03/01 Q1025 NOSIG=
201712180420 METAR COR EGLL 180420Z AUTO VRB03KT 9999 NCD 03/01 Q1024
                        NOSIG=
201712180350 METAR COR EGLL 180350Z AUTO VRB03KT 9999 NCD 04/02 Q1024
                        NOSIG=
201712180320 METAR COR EGLL 180320Z AUTO VRB03KT 9999 NCD 04/02 Q1024
                        NOSIG=
201712180250 METAR COR EGLL 180250Z AUTO VRB03KT 9999 NCD 04/02 Q1024
                        NOSIG=
201712180220 METAR COR EGLL 180220Z AUTO VRB03KT 9999 NCD 05/03 Q1023
                        NOSIG=
201712180150 METAR COR EGLL 180150Z AUTO 32004KT 290V360 9999 NCD 05/03
                        Q1023 NOSIG=
201712180120 METAR COR EGLL 180120Z AUTO 31004KT 280V010 9999 NCD 06/03
                        Q1023 NOSIG=
201712180050 METAR COR EGLL 180050Z AUTO VRB03KT 9999 NCD 06/04 Q1022
                        NOSIG=
201712180020 METAR COR EGLL 180020Z AUTO 35004KT 290V030 9999 NCD 07/04
                        Q1022 NOSIG=
201712172350 METAR COR EGLL 172350Z AUTO 35007KT 300V030 9999 NCD 09/06
                        Q1021 NOSIG=
201712172320 METAR COR EGLL 172320Z AUTO 30007KT 9999 FEW021 09/07 Q1021
                        NOSIG=
201712172250 METAR COR EGLL 172250Z AUTO 29006KT 7000 SCT020 BKN026 BKN036
                        09/08 Q1021 NOSIG=
201712172220 METAR COR EGLL 172220Z AUTO 29007KT 9000 FEW007 SCT015 BKN042
                        09/08 Q1020 NOSIG=
201712172150 METAR COR EGLL 172150Z AUTO 28007KT 9999 FEW008 BKN043 09/08
                        Q1020 NOSIG=
201712172120 METAR COR EGLL 172120Z 26012KT 9999 SCT005 SCT008 09/08 Q1020
                        NOSIG=
201712172050 METAR COR EGLL 172050Z 26011KT 9000 SCT005 SCT006 09/08 Q1020
                        TEMPO BKN005=
201712172020 METAR COR EGLL 172020Z AUTO 28008KT 9999 OVC006 09/08 Q1020
                        TEMPO 4000 -RADZ=
201712171950 METAR COR EGLL 171950Z AUTO 27012KT 9999 OVC006 09/08 Q1020
                        NOSIG=
201712171920 METAR COR EGLL 171920Z AUTO 25012KT 9999 OVC008 09/08 Q1019
                        NOSIG=
201712171850 METAR COR EGLL 171850Z AUTO 25011KT 9999 OVC008 09/08 Q1019
                        NOSIG=
201712171820 METAR COR EGLL 171820Z AUTO 24012KT 4000 HZ SCT006 OVC010
                        09/08 Q1019 RERA TEMPO BKN006=
201712171750 METAR COR EGLL 171750Z AUTO 25012KT 2900 -RADZ BKN008 OVC014
                        09/08 Q1019 NOSIG=
201712171720 METAR COR EGLL 171720Z 25012KT 3200 -RADZ SCT008 OVC015 08/07
                        Q1020 TEMPO BKN008=
201712171650 METAR COR EGLL 171650Z AUTO 24011KT 4800 -RADZ BKN011 BKN016
                        OVC020 08/07 Q1020 TEMPO BKN008=
201712171620 METAR COR EGLL 171620Z AUTO 23011KT 6000 -RA SCT009 BKN013
                        OVC028 08/07 Q1020 TEMPO 4000 -RADZ
                        BKN008=
201712171550 METAR COR EGLL 171550Z AUTO 21010KT 7000 -RA FEW009/// SCT013///
                        BKN024/// //////TCU 07/06 Q1020 RERA
                        TEMPO 4000 -RADZ BKN008=
201712171520 METAR COR EGLL 171520Z AUTO 21009KT 180V250 4600 RADZ SCT008///
                        BKN013/// BKN023/// //////TCU 07/06
                        Q1020 TEMPO BKN008=
201712171450 METAR COR EGLL 171450Z AUTO 21010KT 6000 -RA BKN012 BKN028
                        OVC047 06/05 Q1021 TEMPO 4000 RADZ
                        BKN008=
201712171420 METAR COR EGLL 171420Z AUTO 21011KT 8000 -RA FEW015 SCT025
                        BKN032 06/05 Q1021 TEMPO 4000 RA
                        BKN008=
201712171350 METAR COR EGLL 171350Z AUTO 20011G23KT 170V250 9999 -RA BKN017
                        BKN033 OVC048 05/04 Q1022 TEMPO 4000
                        RA BKN008=
201712171320 METAR COR EGLL 171320Z AUTO 20009KT 7000 -RA SCT022 BKN030
                        OVC037 04/03 Q1022 TEMPO 4000 RA
                        BKN012=
201712171250 METAR COR EGLL 171250Z AUTO 21008KT 9000 -RA SCT018 BKN025
                        OVC034 05/03 Q1023 TEMPO 4000 RA
                        BKN012=
201712171220 METAR COR EGLL 171220Z AUTO 21007KT 9999 -RA OVC020 04/02
                        Q1024 TEMPO 4000 RA BKN012=
201712171150 METAR COR EGLL 171150Z AUTO 22007KT 9999 BKN023 BKN031 04/02
                        Q1024 TEMPO 4000 RA BKN012=
201712171120 METAR COR EGLL 171120Z AUTO 21008KT 9999 FEW024 04/02 Q1024
                        NOSIG=
201712171050 METAR COR EGLL 171050Z AUTO 19006KT 150V230 9999 NCD 03/02
                        Q1024 NOSIG=
201712171020 METAR COR EGLL 171020Z AUTO 21006KT 170V250 9999 NCD 02/01
                        Q1025 NOSIG=
201712170950 METAR COR EGLL 170950Z AUTO 23007KT 9999 NCD 02/01 Q1025
                        NOSIG=
201712170920 METAR COR EGLL 170920Z AUTO 19004KT 140V300 7000 NCD 01/00
                        Q1025 NOSIG=
201712170850 METAR COR EGLL 170850Z AUTO VRB03KT 6000 NCD 00/00 Q1025
                        TEMPO 4500 BR=
201712170820 METAR COR EGLL 170820Z 18005KT 120V240 4900 BR NSC M00/M00
                        Q1024 TEMPO 6000 NSW=
201712170750 METAR COR EGLL 170750Z 18005KT 140V230 5000 BR NSC M00/M01
                        Q1025 TEMPO 2000=
201712170720 METAR COR EGLL 170720Z VRB03KT 4000 BR NSC M01/M01 Q1025
                        TEMPO 2500=
201712170650 METAR COR EGLL 170650Z VRB02KT 3400 BR FEW009 M00/M01 Q1025
                        NOSIG=
201712170620 METAR EGLL 170620Z VRB03KT 3500 BR FEW008 SCT012 M00/M01
                        Q1025=
201712170550 METAR COR EGLL 170550Z VRB03KT 3500 BR FEW008 SCT011 M00/M01
                        Q1025 TEMPO 2500=
201712170520 METAR COR EGLL 170520Z VRB03KT 3500 BR FEW009 SCT012 01/00
                        Q1025 TEMPO 2500=
201712170450 METAR COR EGLL 170450Z VRB03KT 3400 BR FEW007 SCT009 00/M00
                        Q1025 TEMPO 2500=
201712170420 METAR COR EGLL 170420Z 28001KT 3400 BR FEW006 SCT008 01/00
                        Q1024 TEMPO 2500=
201712170350 METAR COR EGLL 170350Z 22001KT 3400 BR FEW007 SCT009 00/M00
                        Q1024 TEMPO 2500=
201712170320 METAR COR EGLL 170320Z AUTO VRB02KT 0300 FG SCT009 00/M00
                        Q1024 TEMPO 3000 BR=
201712170250 METAR COR EGLL 170250Z AUTO 26004KT 2700 BR NCD M01/M01 Q1024
                        TEMPO 1400=
201712170220 METAR COR EGLL 170220Z AUTO VRB02KT 4100 BR NCD M00/M01 Q1024
                        TEMPO 2000=
201712170150 METAR COR EGLL 170150Z AUTO VRB02KT 5000 BR NCD 00/M00 Q1024
                        TEMPO 2500=
201712170120 METAR COR EGLL 170120Z AUTO VRB02KT 3800 BR NCD M01/M01 Q1023
                        TEMPO 2500=
201712170050 METAR COR EGLL 170050Z AUTO 29002KT 4600 BR NCD M00/M01 Q1023
                        TEMPO 2500=
201712170020 METAR COR EGLL 170020Z AUTO 28005KT 6000 NCD 00/M01 Q1023
                        BECMG 4000 BR=
201712162350 METAR COR EGLL 162350Z AUTO 28004KT 7000 NCD 00/M01 Q1023
                        NOSIG=
201712162320 METAR COR EGLL 162320Z AUTO 27004KT 9000 NCD 02/01 Q1023
                        NOSIG=
201712162250 METAR COR EGLL 162250Z AUTO VRB02KT 9999 NCD 03/01 Q1023
                        NOSIG=
201712162220 METAR COR EGLL 162220Z AUTO 29004KT 9999 SCT012 03/02 Q1023
                        NOSIG=
201712162150 METAR COR EGLL 162150Z AUTO 31003KT 9999 FEW013 04/02 Q1022
                        NOSIG=
201712162120 METAR COR EGLL 162120Z AUTO 31004KT 9999 NCD 04/02 Q1022
                        NOSIG=
201712162050 METAR COR EGLL 162050Z AUTO 30005KT 9999 NCD 04/02 Q1021
                        NOSIG=
201712162020 METAR COR EGLL 162020Z AUTO 29006KT 9999 FEW029 05/02 Q1021
                        NOSIG=
201712161950 METAR COR EGLL 161950Z AUTO 28007KT 9999 SCT025 04/02 Q1021
                        NOSIG=
201712161920 METAR COR EGLL 161920Z AUTO 29006KT 9999 FEW038 05/02 Q1021
                        NOSIG=
201712161850 METAR COR EGLL 161850Z AUTO 29006KT 9999 SCT037 BKN044 05/02
                        Q1020 NOSIG=
201712161820 METAR COR EGLL 161820Z AUTO 29006KT 9999 BKN025 06/02 Q1020
                        NOSIG=
201712161750 METAR COR EGLL 161750Z AUTO 30006KT 9999 SCT027 BKN032 BKN041
                        06/03 Q1020 NOSIG=
201712161720 METAR COR EGLL 161720Z AUTO 30006KT 9999 -RA BKN023 BKN029
                        06/03 Q1020 NOSIG=
201712161650 METAR COR EGLL 161650Z AUTO 28009KT 9999 BKN028/// BKN033///
                        //////TCU 06/02 Q1019 NOSIG=
201712161620 METAR COR EGLL 161620Z AUTO 28008KT 9999 -RA BKN031 06/02
                        Q1019 NOSIG=
201712161550 METAR COR EGLL 161550Z AUTO 29007KT 9999 BKN029 OVC034 06/02
                        Q1019 NOSIG=
201712161520 METAR COR EGLL 161520Z AUTO 28009KT 9999 BKN030 06/02 Q1019
                        NOSIG=
201712161450 METAR COR EGLL 161450Z AUTO 28007KT 9999 -RA BKN033 06/02
                        Q1019 NOSIG=
201712161420 METAR COR EGLL 161420Z AUTO 28010KT 9999 -RA SCT030/// BKN036///
                        BKN044/// //////TCU 05/02 Q1018 NOSIG=
201712161350 METAR COR EGLL 161350Z AUTO 27008KT 9999 -RA SCT032/// BKN042///
                        //////CB 05/02 Q1018 NOSIG=
201712161320 METAR COR EGLL 161320Z AUTO 29006KT 9999 -RA SCT027/// BKN034///
                        //////TCU 05/01 Q1018 NOSIG=
201712161250 METAR COR EGLL 161250Z AUTO 28008KT 9999 SCT039/// BKN049///
                        //////TCU 05/01 Q1018 NOSIG=
201712161220 METAR COR EGLL 161220Z AUTO 29007KT 9999 -RA FEW040/// //////TCU
                        05/01 Q1018 NOSIG=
201712161150 METAR COR EGLL 161150Z AUTO 29007KT 9999 NCD 04/M00 Q1019
                        NOSIG=
201712161120 METAR COR EGLL 161120Z AUTO 29007KT 9999 NCD 04/00 Q1019
                        NOSIG=
201712161050 METAR COR EGLL 161050Z AUTO 29007KT 9999 NCD 03/M00 Q1018
                        NOSIG=
201712161020 METAR COR EGLL 161020Z AUTO 29005KT 9999 NCD 03/M00 Q1018
                        NOSIG=
201712160950 METAR COR EGLL 160950Z AUTO 29005KT 9999 NCD 02/M00 Q1018
                        NOSIG=
201712160920 METAR COR EGLL 160920Z AUTO 28005KT 9999 NCD 02/M01 Q1018
                        NOSIG=
201712160850 METAR COR EGLL 160850Z AUTO 29006KT 9999 NCD 01/M01 Q1017
                        NOSIG=
201712160820 METAR COR EGLL 160820Z AUTO 29006KT 9999 NCD 01/M01 Q1017
                        NOSIG=
201712160750 METAR COR EGLL 160750Z AUTO 29005KT 9999 NCD 01/M01 Q1016
                        NOSIG=
201712160720 METAR COR EGLL 160720Z AUTO 28005KT 9999 NCD M00/M02 Q1016
                        NOSIG=
201712160650 METAR COR EGLL 160650Z AUTO 29005KT 9999 NCD 01/M01 Q1016
                        NOSIG=
201712160620 METAR COR EGLL 160620Z AUTO 29006KT 9999 NCD 01/M01 Q1015
                        NOSIG=
201712160550 METAR COR EGLL 160550Z AUTO 29005KT 9999 NCD M01/M02 Q1015
                        NOSIG=
201712160520 METAR COR EGLL 160520Z AUTO 29005KT 9999 NCD M00/M02 Q1015
                        NOSIG=
201712160450 METAR COR EGLL 160450Z AUTO 29006KT 9999 NCD M00/M02 Q1014
                        NOSIG=
201712160420 METAR EGLL 160420Z AUTO 28007KT 9999 NCD M01/M02 Q1014=
201712160350 METAR COR EGLL 160350Z AUTO 27006KT 9999 NCD M00/M01 Q1014
                        NOSIG=
201712160320 METAR COR EGLL 160320Z AUTO 28004KT 9999 NCD M01/M02 Q1014
                        NOSIG=
201712160250 METAR COR EGLL 160250Z AUTO 29004KT 9999 NCD 01/M01 Q1013
                        NOSIG=
201712160220 METAR COR EGLL 160220Z AUTO 28003KT 9999 NCD 01/M01 Q1013
                        NOSIG=
201712160150 METAR COR EGLL 160150Z AUTO 28002KT 9999 NCD 01/M01 Q1013
                        NOSIG=
201712160120 METAR COR EGLL 160120Z AUTO 27005KT 9999 NCD 01/M01 Q1012
                        NOSIG=
201712160050 METAR COR EGLL 160050Z AUTO 31005KT 9999 NCD 02/M01 Q1012
                        NOSIG=
201712160020 METAR COR EGLL 160020Z AUTO 31004KT 9999 NCD 02/M00 Q1012
                        NOSIG=
201712152350 METAR COR EGLL 152350Z AUTO 30006KT 9999 NCD 02/M00 Q1012
                        NOSIG=
201712152320 METAR COR EGLL 152320Z AUTO 29004KT 9999 NCD 02/M00 Q1011
                        NOSIG=
201712152250 METAR COR EGLL 152250Z AUTO 32006KT 290V360 9999 NCD 03/00
                        Q1010 NOSIG=
201712152220 METAR COR EGLL 152220Z AUTO 32006KT 290V350 9999 NCD 03/00
                        Q1010 NOSIG=
201712152150 METAR COR EGLL 152150Z AUTO 32006KT 280V360 9999 NCD 04/01
                        Q1010 NOSIG=
201712152120 METAR COR EGLL 152120Z AUTO 33006KT 300V010 9999 NCD 04/01
                        Q1009 NOSIG=
201712152050 METAR COR EGLL 152050Z AUTO 35006KT 310V040 9999 NCD 04/01
                        Q1009 NOSIG=
201712152020 METAR COR EGLL 152020Z AUTO 33008KT 280V010 9999 FEW042 04/01
                        Q1008 NOSIG=
201712151950 METAR COR EGLL 151950Z AUTO 32008KT 9999 SCT018 04/01 Q1008
                        NOSIG=
201712151920 METAR COR EGLL 151920Z AUTO 32008KT 9999 SCT019 BKN024 05/02
                        Q1007 NOSIG=
201712151850 METAR COR EGLL 151850Z AUTO 33008KT 290V360 9999 SCT022 SCT030
                        BKN036 05/02 Q1006 NOSIG=
201712151820 METAR COR EGLL 151820Z AUTO 32008KT 290V350 9999 FEW020 SCT024
                        BKN028 05/02 Q1006 NOSIG=
201712151750 METAR COR EGLL 151750Z AUTO 32008KT 9999 SCT023 BKN034 05/02
                        Q1005 NOSIG=
201712151720 METAR COR EGLL 151720Z AUTO 31009KT 9999 -RA BKN021 BKN027
                        OVC040 05/02 Q1005 NOSIG=
201712151650 METAR COR EGLL 151650Z AUTO 31007KT 9999 BKN024 BKN029 05/01
                        Q1004 NOSIG=
201712151620 METAR COR EGLL 151620Z AUTO 31008KT 9999 SCT026 05/01 Q1004
                        NOSIG=
201712151550 METAR COR EGLL 151550Z AUTO 32008KT 9999 FEW025 05/01 Q1003
                        NOSIG=
201712151520 METAR COR EGLL 151520Z AUTO 32008KT 290V360 9999 NCD 05/01
                        Q1002 NOSIG=
201712151450 METAR COR EGLL 151450Z AUTO 32010KT 290V020 9999 NCD 06/01
                        Q1002 NOSIG=
201712151420 METAR COR EGLL 151420Z AUTO 33009KT 300V010 9999 NCD 06/01
                        Q1001 NOSIG=
201712151350 METAR COR EGLL 151350Z AUTO 32009G19KT 290V360 9999 NCD 06/01
                        Q1000 NOSIG=
201712151320 METAR COR EGLL 151320Z AUTO 33010G21KT 290V010 9999 NCD 06/01
                        Q1000 NOSIG=
201712151250 METAR COR EGLL 151250Z AUTO 32010G21KT 280V360 9999 NCD 06/01
                        Q0999 NOSIG=
201712151220 METAR COR EGLL 151220Z AUTO 32010G20KT 300V360 9999 NCD 06/01
                        Q0999 NOSIG=
201712151150 METAR COR EGLL 151150Z AUTO 33010KT 290V360 9999 NCD 05/01
                        Q0998 NOSIG=
201712151120 METAR COR EGLL 151120Z AUTO 33011KT 290V010 9999 FEW017 05/01
                        Q0998 NOSIG=
201712151050 METAR COR EGLL 151050Z AUTO 32010KT 9999 SCT015 04/01 Q0998
                        NOSIG=
201712151020 METAR COR EGLL 151020Z AUTO 32010KT 290V360 9999 FEW017 04/01
                        Q0997 NOSIG=
201712150950 METAR COR EGLL 150950Z AUTO 32008KT 300V360 9999 FEW016 04/01
                        Q0997 NOSIG=
201712150920 METAR COR EGLL 150920Z AUTO 33008KT 290V020 9999 FEW013 03/01
                        Q0996 NOSIG=
201712150850 METAR COR EGLL 150850Z AUTO 33005KT 300V030 9999 FEW013 SCT035
                        03/02 Q0995 TEMPO BKN014=
201712150820 METAR COR EGLL 150820Z AUTO 35005KT 310V020 9999 -RA FEW014
                        BKN029 BKN045 03/02 Q0994 TEMPO BKN014=
201712150750 METAR COR EGLL 150750Z AUTO VRB03KT 9999 SCT017 BKN029 03/02
                        Q0993 TEMPO 7000 -SHRA BKN014=
201712150720 METAR COR EGLL 150720Z 35005KT 310V030 9999 -RA SCT017 BKN026
                        03/02 Q0993 TEMPO 4000 SHRASN BKN012=
201712150650 METAR COR EGLL 150650Z 32007KT 290V360 5000 -RA SCT014 BKN016
                        04/02 Q0992 TEMPO 4000 SHRASN BKN012=
201712150620 METAR COR EGLL 150620Z 27005KT 230V300 9999 -RA SCT019 BKN023
                        04/02 Q0991 TEMPO 4000 SHRASN BKN012=
201712150550 METAR COR EGLL 150550Z VRB03KT 9999 FEW031 03/02 Q0990 TEMPO
                        SHRA BKN012=
201712150520 METAR COR EGLL 150520Z AUTO 23005KT 190V260 9999 NCD 03/01
                        Q0990 TEMPO SHRA=
201712150450 METAR COR EGLL 150450Z 25010KT CAVOK 04/01 Q0990 TEMPO SHRA=
201712150420 METAR COR EGLL 150420Z AUTO 26008KT 9999 FEW032 03/01 Q0990
                        TEMPO SHRA=
201712150350 METAR COR EGLL 150350Z AUTO 25008KT 9999 FEW033 SCT042 03/01
                        Q0990 NOSIG=
201712150320 METAR COR EGLL 150320Z AUTO 25007KT 9999 FEW044 03/01 Q0990
                        NOSIG=
201712150250 METAR COR EGLL 150250Z AUTO 25009KT 9999 SCT045 04/01 Q0990
                        NOSIG=
201712150220 METAR COR EGLL 150220Z AUTO 25009KT 9999 NCD 03/01 Q0990
                        NOSIG=
201712150150 METAR COR EGLL 150150Z AUTO 27009KT 9999 NCD 03/01 Q0990
                        NOSIG=
201712150120 METAR COR EGLL 150120Z AUTO 26009KT 9999 NCD 03/01 Q0990
                        NOSIG=
201712150050 METAR COR EGLL 150050Z AUTO 26008KT 9999 NCD 02/01 Q0990
                        NOSIG=
201712150020 METAR COR EGLL 150020Z AUTO 27007KT 9999 NCD 02/01 Q0990
                        NOSIG=
201712142350 METAR COR EGLL 142350Z AUTO 27009KT 9999 NCD 02/01 Q0990
                        NOSIG=
201712142320 METAR COR EGLL 142320Z AUTO 28009KT 9999 NCD 02/01 Q0990
                        NOSIG=
201712142250 METAR COR EGLL 142250Z AUTO 27010KT 9999 NCD 02/01 Q0989
                        NOSIG=
201712142220 METAR COR EGLL 142220Z AUTO 28009KT 9999 SCT029 03/01 Q0989
                        NOSIG=
201712142150 METAR COR EGLL 142150Z AUTO 27010KT 9999 NCD 03/01 Q0989
                        NOSIG=
201712142120 METAR COR EGLL 142120Z AUTO 27006KT 9999 NCD 03/01 Q0989
                        NOSIG=
201712142050 METAR COR EGLL 142050Z AUTO 24007KT 9999 NCD 02/01 Q0988
                        NOSIG=
201712142020 METAR COR EGLL 142020Z AUTO 25008KT 9999 NCD 03/01 Q0989
                        NOSIG=
201712141950 METAR COR EGLL 141950Z AUTO 24009KT 9999 FEW033 03/01 Q0989
                        NOSIG=
201712141920 METAR COR EGLL 141920Z AUTO 24009KT 9999 NCD 03/01 Q0988
                        NOSIG=
201712141850 METAR COR EGLL 141850Z AUTO 23010KT 9999 NCD 03/01 Q0988
                        NOSIG=
201712141820 METAR COR EGLL 141820Z AUTO 23010KT 9999 NCD 03/01 Q0988
                        NOSIG=
201712141750 METAR COR EGLL 141750Z AUTO 24009KT 9999 NCD 03/01 Q0988
                        NOSIG=
201712141720 METAR COR EGLL 141720Z AUTO 24010KT 9999 NCD 03/01 Q0988
                        NOSIG=
201712141650 METAR COR EGLL 141650Z AUTO 24009KT 9999 NCD 04/01 Q0989
                        NOSIG=
201712141620 METAR COR EGLL 141620Z AUTO 24009KT 9999 NCD 04/01 Q0989
                        NOSIG=
201712141550 METAR COR EGLL 141550Z AUTO 25013KT 9999 NCD 05/01 Q0989
                        NOSIG=
201712141520 METAR COR EGLL 141520Z AUTO 25014KT 9999 NCD 05/01 Q0989
                        NOSIG=
201712141450 METAR COR EGLL 141450Z AUTO 25015KT 9999 FEW024 06/01 Q0989
                        NOSIG=
201712141420 METAR COR EGLL 141420Z AUTO 25012KT 9999 NCD 06/01 Q0990
                        NOSIG=
201712141350 METAR COR EGLL 141350Z AUTO 24012KT 9999 FEW027 06/01 Q0990
                        NOSIG=
201712141320 METAR COR EGLL 141320Z AUTO 25013KT 9999 NCD 06/01 Q0990
                        NOSIG=
201712141250 METAR COR EGLL 141250Z AUTO 25014KT 9999 SCT025 06/01 Q0991
                        NOSIG=
201712141220 METAR COR EGLL 141220Z AUTO 25015KT 9999 FEW026 07/02 Q0991
                        NOSIG=
201712141150 METAR COR EGLL 141150Z AUTO 24014G25KT 9999 NCD 06/02 Q0991
                        NOSIG=
201712141120 METAR COR EGLL 141120Z AUTO 24014KT 9999 FEW037 05/02 Q0992
                        NOSIG=
201712141050 METAR COR EGLL 141050Z AUTO 24014KT 9999 NCD 06/02 Q0992
                        NOSIG=
201712141020 METAR COR EGLL 141020Z AUTO 25015KT 9999 NCD 05/01 Q0992
                        NOSIG=
201712140950 METAR COR EGLL 140950Z AUTO 24012KT 9999 NCD 05/01 Q0993
                        NOSIG=
201712140920 METAR COR EGLL 140920Z AUTO 24012KT 9999 NCD 04/01 Q0993
                        NOSIG=
201712140850 METAR COR EGLL 140850Z AUTO 24012KT 9999 NCD 04/01 Q0993
                        NOSIG=
201712140820 METAR COR EGLL 140820Z AUTO 23011KT 9999 FEW033 04/01 Q0993
                        NOSIG=
201712140750 METAR COR EGLL 140750Z AUTO 24012KT 9999 FEW039 04/01 Q0993
                        NOSIG=
201712140720 METAR COR EGLL 140720Z AUTO 24011KT 9999 NCD 04/01 Q0993
                        NOSIG=
201712140650 METAR COR EGLL 140650Z AUTO 24012KT 9999 NCD 04/01 Q0993
                        NOSIG=
201712140620 METAR COR EGLL 140620Z AUTO 24014KT 9999 NCD 04/01 Q0993
                        NOSIG=
201712140550 METAR COR EGLL 140550Z AUTO 24016KT 9999 NCD 04/01 Q0993
                        NOSIG=
201712140520 METAR COR EGLL 140520Z AUTO 24018KT 9999 NCD 04/01 Q0993
                        NOSIG=
201712140450 METAR COR EGLL 140450Z AUTO 24016KT 9999 FEW043 05/01 Q0993
                        NOSIG=
201712140420 METAR COR EGLL 140420Z AUTO 25016KT 9999 SCT032 BKN042 05/01
                        Q0993 NOSIG=
201712140350 METAR COR EGLL 140350Z AUTO 25015KT 9999 NCD 05/01 Q0993
                        NOSIG=
201712140320 METAR COR EGLL 140320Z AUTO 26017KT 9999 NCD 05/01 Q0993
                        NOSIG=
201712140250 METAR COR EGLL 140250Z AUTO 25017KT 9999 NCD 04/01 Q0993
                        NOSIG=
201712140220 METAR COR EGLL 140220Z AUTO 25016KT 9999 NCD 04/00 Q0993
                        NOSIG=
201712140150 METAR COR EGLL 140150Z AUTO 25017KT 9999 FEW041 04/00 Q0993
                        NOSIG=
201712140120 METAR COR EGLL 140120Z AUTO 25016KT 9999 NCD 04/M00 Q0993
                        NOSIG=
201712140050 METAR COR EGLL 140050Z AUTO 26016KT 9999 NCD 03/M00 Q0993
                        NOSIG=
201712140020 METAR COR EGLL 140020Z AUTO 26016KT 9999 FEW036 03/00 Q0993
                        NOSIG=
201712132350 METAR COR EGLL 132350Z AUTO 27017KT 9999 NCD 03/00 Q0992
                        NOSIG=
201712132320 METAR EGLL 132320Z AUTO 27021KT 9999 NCD 04/01 Q0991=
201712132250 METAR COR EGLL 132250Z AUTO 27021KT 9999 SCT040 04/01 Q0991
                        NOSIG=
201712132220 METAR COR EGLL 132220Z AUTO 27020KT 9999 -RA SCT018/// BKN036///
                        BKN048/// //////CB 04/02 Q0990 NOSIG=
201712132150 METAR COR EGLL 132150Z AUTO 24013KT 9999 BKN019 BKN030 BKN038
                        04/02 Q0990 TEMPO 4500 SHRA=
201712132120 METAR COR EGLL 132120Z AUTO 24011KT 9999 FEW014/// BKN042///
                        //////TCU 04/02 Q0990 RERA TEMPO
                        SHRA=
201712132050 METAR COR EGLL 132050Z 27018G31KT 3000 +RA SCT012CB BKN020
                        05/02 Q0991 BECMG 9999 NSW=
201712132020 METAR COR EGLL 132020Z AUTO 25012KT 9999 -RA SCT022/// BKN028///
                        BKN042/// //////TCU 05/02 Q0991 TEMPO
                        27020G30KT 3000 +SHRA BKN012=
201712131950 METAR COR EGLL 131950Z AUTO 21009KT 9999 NCD 04/02 Q0991
                        TEMPO 3000 +SHRA BKN012=
201712131920 METAR COR EGLL 131920Z AUTO 24012KT 9999 NCD 05/02 Q0991
                        TEMPO 3000 +SHRA BKN012=
201712131850 METAR COR EGLL 131850Z AUTO 25011KT 9999 NCD 05/02 Q0991
                        TEMPO 3000 +SHRA BKN012=
201712131820 METAR COR EGLL 131820Z AUTO 27012KT 9999 NCD 05/01 Q0992
                        NOSIG=
201712131750 METAR COR EGLL 131750Z AUTO 27017KT 9999 NCD 05/02 Q0992
                        NOSIG=
201712131720 METAR COR EGLL 131720Z AUTO 27013KT 9999 NCD 05/02 Q0992
                        NOSIG=
201712131650 METAR COR EGLL 131650Z AUTO 28015KT 9999 NCD 06/02 Q0992
                        NOSIG=
201712131620 METAR COR EGLL 131620Z AUTO 28015KT 9999 NCD 07/02 Q0992
                        NOSIG=
201712131550 METAR COR EGLL 131550Z AUTO 28014KT 9999 -RA FEW023/// SCT032///
                        BKN043/// //////CB 08/04 Q0992 RERA
                        NOSIG=
201712131520 METAR COR EGLL 131520Z 27021G33KT 4500 RA SCT019CB BKN026
                        BKN032 09/07 Q0991 RERA TEMPO BKN012=
201712131450 METAR COR EGLL 131450Z AUTO 23013G23KT 9999 BKN020/// BKN034///
                        //////TCU 10/07 Q0991 TEMPO RA BKN014=
201712131420 METAR COR EGLL 131420Z AUTO 24014KT 9999 -RA SCT017 BKN022
                        BKN036 10/07 Q0991 TEMPO RA BKN012=
201712131350 METAR COR EGLL 131350Z AUTO 22013KT 9999 SCT015 BKN019 BKN025
                        09/07 Q0992 TEMPO RA BKN012=
201712131320 METAR COR EGLL 131320Z AUTO 22013KT 9999 BKN019/// BKN028///
                        BKN038/// //////TCU 09/07 Q0993 TEMPO
                        RA BKN014=
201712131250 METAR COR EGLL 131250Z AUTO 23010KT 9999 -RA FEW023/// BKN029///
                        OVC044/// //////TCU 08/06 Q0995 NOSIG=
201712131220 METAR COR EGLL 131220Z AUTO 22011KT 9999 -RA FEW029/// SCT035///
                        BKN042/// //////TCU 08/06 Q0996 TEMPO
                        RA=
201712131150 METAR COR EGLL 131150Z AUTO 21009KT 9999 FEW043 08/06 Q0996
                        TEMPO RA=
201712131120 METAR COR EGLL 131120Z AUTO 21009KT 9999 -RA BKN039 07/06
                        Q0997 TEMPO RA=
201712131050 METAR COR EGLL 131050Z AUTO 22009KT 9999 -RA OVC043/// //////TCU
                        07/06 Q0998 NOSIG=
201712131020 METAR COR EGLL 131020Z AUTO 21009KT 9999 -RA FEW028 BKN034
                        07/06 Q0999 NOSIG=
201712130950 METAR COR EGLL 130950Z AUTO 22010KT 9999 -RA BKN036 07/05
                        Q0999 NOSIG=
201712130920 METAR COR EGLL 130920Z AUTO 23010KT 9999 -RA SCT045 06/05
                        Q1000 NOSIG=
201712130850 METAR COR EGLL 130850Z AUTO 22008KT 9999 FEW039 06/05 Q1000
                        NOSIG=
201712130820 METAR COR EGLL 130820Z AUTO 22006KT 9999 -RA BKN037 BKN048
                        06/04 Q1001 NOSIG=
201712130750 METAR COR EGLL 130750Z AUTO 26008KT 9999 NCD 06/04 Q1001
                        NOSIG=
201712130720 METAR COR EGLL 130720Z AUTO 24009KT 9999 NCD 06/04 Q1001
                        NOSIG=
201712130650 METAR COR EGLL 130650Z AUTO 25006KT 9999 NCD 06/04 Q1001
                        NOSIG=
201712130620 METAR COR EGLL 130620Z AUTO 26009KT 9999 NCD 06/04 Q1001
                        NOSIG=
201712130550 METAR COR EGLL 130550Z AUTO 28007KT 260V330 9999 NCD 06/04
                        Q1001 NOSIG=
201712130520 METAR COR EGLL 130520Z AUTO 28010KT 9999 NCD 06/05 Q1001
                        NOSIG=
201712130450 METAR COR EGLL 130450Z AUTO 28011KT 9999 SCT014 07/05 Q1001
                        TEMPO BKN014=
201712130420 METAR COR EGLL 130420Z AUTO 25010KT 9999 OVC013 08/06 Q1000
                        NOSIG=
201712130350 METAR COR EGLL 130350Z AUTO 22008KT 9999 BKN015 BKN020 08/07
                        Q1000 TEMPO BKN012=
201712130320 METAR COR EGLL 130320Z AUTO 23008KT 9999 FEW006 SCT012 08/07
                        Q1001 TEMPO BKN006=
201712130250 METAR COR EGLL 130250Z AUTO 21009KT 6000 -RA FEW008 BKN013
                        OVC027 08/07 Q1001 TEMPO 4000 -RADZ
                        BKN008=
201712130220 METAR COR EGLL 130220Z AUTO 20011KT 7000 -RA SCT007 BKN012
                        OVC031 08/07 Q1001 TEMPO 4000 -RADZ
                        BKN005=
201712130150 METAR COR EGLL 130150Z AUTO 19013KT 8000 -RA BKN007 BKN017
                        OVC029TCU 08/07 Q1002 TEMPO 4000
                        RADZ BKN005=
201712130120 METAR COR EGLL 130120Z AUTO 19012KT 7000 -RA SCT006/// SCT011///
                        BKN016/// //////TCU 07/06 Q1002 TEMPO
                        4000 RADZ BKN006=
201712130050 METAR COR EGLL 130050Z AUTO 19012KT 5000 -DZ SCT007 BKN014
                        BKN021 07/06 Q1003 TEMPO 3000 RADZ
                        BKN007=
201712130020 METAR COR EGLL 130020Z AUTO 19012KT 6000 -RA FEW011 SCT019
                        BKN027 06/05 Q1004 TEMPO BKN012=
201712122350 METAR COR EGLL 122350Z AUTO 20009KT 9999 -RA SCT027 BKN031
                        BKN044 06/05 Q1004 TEMPO 6000 -RA
                        BKN012=
201712122320 METAR COR EGLL 122320Z AUTO 19009KT 170V240 9999 -RA SCT028
                        SCT033 BKN044TCU 06/04 Q1005 TEMPO
                        6000 -RA BKN012=
201712122250 METAR COR EGLL 122250Z AUTO 19008KT 170V240 9999 -RA BKN031TCU
                        06/04 Q1006 TEMPO 7000 RA=
201712122220 METAR COR EGLL 122220Z AUTO 19007KT 140V230 9999 -RA BKN029
                        BKN033TCU 06/04 Q1006 TEMPO 7000
                        RA=
201712122150 METAR COR EGLL 122150Z AUTO 18007KT 150V260 9999 -RA BKN030
                        BKN040TCU 05/03 Q1007 TEMPO 7000
                        RA=
201712122120 METAR COR EGLL 122120Z AUTO 19008KT 140V240 9999 -RA SCT033
                        BKN047 04/02 Q1007 TEMPO 7000 RA=
201712122050 METAR COR EGLL 122050Z AUTO 19009KT 160V240 9999 NCD 03/01
                        Q1008 NOSIG=
201712122020 METAR COR EGLL 122020Z AUTO 20006KT 170V230 9999 NCD 03/01
                        Q1008 NOSIG=
201712121950 METAR COR EGLL 121950Z AUTO 19006KT 160V250 9999 NCD 03/01
                        Q1008 NOSIG=
201712121920 METAR COR EGLL 121920Z AUTO 19007KT 140V260 9999 NCD 02/00
                        Q1009 NOSIG=
201712121850 METAR COR EGLL 121850Z AUTO 18007KT 160V240 9999 NCD 02/M00
                        Q1009 NOSIG=
201712121820 METAR COR EGLL 121820Z AUTO 19008KT 160V240 9999 NCD 02/M00
                        Q1009 NOSIG=
201712121750 METAR COR EGLL 121750Z AUTO 19008KT 150V240 9999 NCD 02/M00
                        Q1009 NOSIG=
201712121720 METAR COR EGLL 121720Z AUTO 18006KT 150V240 9999 NCD 02/M00
                        Q1009 NOSIG=
201712121650 METAR COR EGLL 121650Z AUTO 19007KT 130V230 9999 NCD 02/M00
                        Q1010 NOSIG=
201712121620 METAR COR EGLL 121620Z AUTO 21008KT 180V250 9999 NCD 03/M00
                        Q1010 NOSIG=
201712121550 METAR COR EGLL 121550Z AUTO 21007KT 160V260 9999 NCD 03/M00
                        Q1010 NOSIG=
201712121520 METAR EGLL 121520Z AUTO 21007KT 180V260 9999 NCD 03/M00 Q1010=
201712121450 METAR COR EGLL 121450Z AUTO 19007KT 160V230 9999 NCD 04/00
                        Q1010 NOSIG=
201712121420 METAR COR EGLL 121420Z AUTO 21007KT 9999 NCD 04/00 Q1010
                        NOSIG=
201712121350 METAR COR EGLL 121350Z AUTO 20007KT 160V240 9999 NCD 04/00
                        Q1009 NOSIG=
201712121320 METAR COR EGLL 121320Z AUTO 20006KT 150V280 9999 NCD 04/M00
                        Q1010 NOSIG=
201712121250 METAR COR EGLL 121250Z AUTO 24006KT 200V270 9999 NCD 04/M00
                        Q1009 NOSIG=
201712121220 METAR COR EGLL 121220Z AUTO 22005KT 9999 NCD 03/M00 Q1009
                        NOSIG=
201712121150 METAR COR EGLL 121150Z AUTO 22006KT 9999 NCD 02/M01 Q1010
                        NOSIG=
201712121120 METAR COR EGLL 121120Z AUTO 21004KT 170V250 9999 NCD 02/M01
                        Q1010 NOSIG=
201712121050 METAR COR EGLL 121050Z AUTO 23005KT 9999 NCD 01/M02 Q1010
                        NOSIG=
201712121020 METAR COR EGLL 121020Z AUTO VRB03KT 9999 NCD 00/M02 Q1010
                        NOSIG=
201712120950 METAR COR EGLL 120950Z AUTO 17005KT 140V210 9000 NCD M01/M02
                        Q1009 NOSIG=
201712120920 METAR COR EGLL 120920Z AUTO 24004KT 200V270 9999 NCD M01/M03
                        Q1009 NOSIG=
201712120850 METAR COR EGLL 120850Z AUTO 26006KT 9999 NCD M01/M03 Q1009
                        NOSIG=
201712120820 METAR COR EGLL 120820Z AUTO 27008KT 8000 NCD M02/M04 Q1008
                        NOSIG=
201712120750 METAR COR EGLL 120750Z AUTO 24006KT 7000 NCD M02/M03 Q1008
                        NOSIG=
201712120720 METAR COR EGLL 120720Z AUTO 25005KT 200V280 9000 NCD M02/M04
                        Q1007 NOSIG=
201712120650 METAR COR EGLL 120650Z AUTO 28005KT 9000 NCD M03/M04 Q1006
                        NOSIG=
201712120620 METAR COR EGLL 120620Z AUTO VRB03KT 8000 NCD M03/M04 Q1006
                        NOSIG=
201712120550 METAR COR EGLL 120550Z AUTO 28004KT 9000 NCD M03/M05 Q1005
                        NOSIG=
201712120520 METAR COR EGLL 120520Z AUTO 27003KT 8000 NCD M03/M04 Q1005
                        NOSIG=
201712120450 METAR COR EGLL 120450Z AUTO 28006KT 9999 NCD M04/M05 Q1005
                        NOSIG=
201712120420 METAR COR EGLL 120420Z 28005KT CAVOK M03/M04 Q1004 NOSIG=
201712120350 METAR COR EGLL 120350Z 29007KT CAVOK M03/M04 Q1004 NOSIG=
201712120320 METAR COR EGLL 120320Z AUTO 28006KT 9999 ////// M03/M04 Q1003
                        NOSIG=
201712120250 METAR COR EGLL 120250Z AUTO 27006KT 9999 NCD M03/M04 Q1003
                        NOSIG=
201712120220 METAR COR EGLL 120220Z AUTO 27005KT 9999 NCD M02/M04 Q1002
                        NOSIG=
201712120150 METAR COR EGLL 120150Z AUTO VRB03KT 9999 ////// M02/M04 Q1001
                        NOSIG=
201712120120 METAR COR EGLL 120120Z AUTO 29004KT 9999 ////// M01/M04 Q1001
                        NOSIG=
201712120050 METAR COR EGLL 120050Z AUTO 29005KT 9999 NCD M01/M04 Q1000
                        NOSIG=
201712120020 METAR COR EGLL 120020Z AUTO 29005KT 9999 NCD M01/M04 Q0999
                        NOSIG=
201712112350 METAR COR EGLL 112350Z AUTO 30006KT 9999 NCD M01/M03 Q0999
                        NOSIG=
201712112320 METAR COR EGLL 112320Z AUTO 30007KT 9999 NCD M01/M03 Q0998
                        NOSIG=
201712112250 METAR COR EGLL 112250Z AUTO 30008KT 9999 NCD M00/M03 Q0998
                        NOSIG=
201712112220 METAR COR EGLL 112220Z AUTO 29010KT 9999 NCD M00/M04 Q0998
                        NOSIG=
201712112150 METAR COR EGLL 112150Z AUTO 29008KT 9999 NCD 00/M04 Q0997
                        NOSIG=
201712112120 METAR COR EGLL 112120Z AUTO 29008KT 9999 NCD 00/M04 Q0996
                        NOSIG=
201712112050 METAR COR EGLL 112050Z AUTO 29008KT 9999 NCD 01/M03 Q0996
                        NOSIG=
201712112020 METAR COR EGLL 112020Z AUTO 30007KT 9999 NCD 01/M03 Q0995
                        NOSIG=
201712111950 METAR COR EGLL 111950Z AUTO 31007KT 9999 NCD 01/M02 Q0994
                        NOSIG=
201712111920 METAR COR EGLL 111920Z AUTO 32006KT 290V010 9999 NCD 01/M02
                        Q0993 NOSIG=
201712111850 METAR COR EGLL 111850Z AUTO 32006KT 280V350 9999 NCD 02/M02
                        Q0992 NOSIG=
201712111820 METAR COR EGLL 111820Z AUTO 33006KT 290V360 9999 NCD 02/M01
                        Q0991 NOSIG=
201712111750 METAR COR EGLL 111750Z AUTO 32009KT 9999 NCD 02/M01 Q0991
                        NOSIG=
201712111720 METAR COR EGLL 111720Z AUTO 33008KT 300V020 9999 NCD 02/M01
                        Q0990 NOSIG=
201712111650 METAR COR EGLL 111650Z AUTO 33008KT 300V030 9999 NCD 03/M01
                        Q0989 NOSIG=
201712111620 METAR COR EGLL 111620Z AUTO 35008KT 290V030 9999 NCD 03/M01
                        Q0988 NOSIG=
201712111550 METAR COR EGLL 111550Z AUTO 35009KT 320V030 9999 NCD 03/M00
                        Q0987 NOSIG=
201712111520 METAR COR EGLL 111520Z AUTO 35009KT 310V030 9999 NCD 03/M00
                        Q0986 NOSIG=
201712111450 METAR COR EGLL 111450Z AUTO 35010KT 310V030 9999 NCD 03/00
                        Q0985 NOSIG=
201712111420 METAR COR EGLL 111420Z AUTO 36011KT 9999 FEW045 03/01 Q0985
                        NOSIG=
201712111350 METAR COR EGLL 111350Z AUTO 35009KT 310V020 9999 -RA FEW026
                        BKN037 03/01 Q0984 NOSIG=
201712111320 METAR COR EGLL 111320Z AUTO 36012G22KT 9999 -RA SCT010 SCT017
                        BKN024 02/01 Q0984 NOSIG=
201712111250 METAR COR EGLL 111250Z AUTO 36012KT 7000 -RA BKN008 OVC014
                        02/01 Q0983 TEMPO 3500 RASN=
201712111220 METAR COR EGLL 111220Z AUTO 01010KT 7000 -RA BKN008/// OVC024///
                        //////TCU 02/01 Q0983 TEMPO 3500
                        RASN=
201712111150 METAR COR EGLL 111150Z AUTO 01011KT 6000 -RA BKN008 OVC028
                        02/01 Q0982 TEMPO 4000 RASN=
201712111120 METAR COR EGLL 111120Z AUTO 01010KT 7000 -RA BKN008 OVC019
                        02/01 Q0982 TEMPO 4000 -RASN=
201712111050 METAR COR EGLL 111050Z AUTO 01009KT 330V050 6000 -RA BKN009///
                        OVC026/// //////TCU 02/01 Q0981 TEMPO
                        4000 -RASN=
201712111020 METAR COR EGLL 111020Z 03008G18KT 350V050 6000 -RA BKN009
                        BKN013 OVC026 03/01 Q0981 TEMPO 4000
                        RA=
201712110950 METAR COR EGLL 110950Z AUTO 02009KT 350V060 7000 -RA BKN010///
                        OVC029/// //////TCU 03/01 Q0980 RERA
                        TEMPO 4000 -RASN BKN008=
201712110920 METAR COR EGLL 110920Z AUTO 03011KT 350V050 5000 -RA BKN011///
                        OVC033/// //////TCU 03/01 Q0980 TEMPO
                        4000 -RASN BKN008=
201712110850 METAR COR EGLL 110850Z AUTO 03010KT 350V070 6000 -RA BKN009///
                        BKN015/// OVC028/// //////TCU 03/01
                        Q0980 RERA TEMPO 4500 -RASN=
201712110820 METAR COR EGLL 110820Z AUTO 04011KT 360V070 6000 -RA BKN010
                        BKN017 OVC038 03/01 Q0979 TEMPO 4500
                        -RASN BKN008=
201712110750 METAR COR EGLL 110750Z AUTO 04010KT 010V070 7000 -RA SCT012///
                        BKN021/// 02/01 Q0979 TEMPO 4000-RASN
                        BKN008=
201712110720 METAR COR EGLL 110720Z 03010KT 360V060 7000 -RA SCT012 BKN021
                        02/01 Q0979 RESN RERA TEMPO 4000
                        -RASN BKN008=
201712110650 METAR COR EGLL 110650Z AUTO 04011KT 350V060 5000 -RA SCT010
                        BKN016 BKN024 02/01 Q0979 TEMPO 4000
                        -RASN=
201712110620 METAR COR EGLL 110620Z AUTO 03010KT 360V060 5000 -RA BKN020///
                        OVC043/// //////TCU 02/01 Q0979 RERA
                        TEMPO 4000 -RASN=
201712110550 METAR COR EGLL 110550Z AUTO 04008KT 360V060 8000 -RA BKN023
                        OVC035 02/01 Q0979 TEMPO 4000 -RASN=
201712110520 METAR COR EGLL 110520Z AUTO 05006KT 9999 -RA BKN005 BKN009
                        OVC028 02/01 Q0979 TEMPO 4000 -RASN=
201712110450 METAR COR EGLL 110450Z AUTO 04008KT 8000 BKN005 01/01 Q0978
                        NOSIG=
201712110420 METAR COR EGLL 110420Z AUTO 04008KT 010V080 7000 BKN004 01/01
                        Q0978 TEMPO BKN008=
201712110350 METAR COR EGLL 110350Z AUTO 05007KT 6000 BKN002 OVC008 01/01
                        Q0979 TEMPO BKN006=
201712110320 METAR COR EGLL 110320Z AUTO 06009KT 3800 BR OVC002 01/00
                        Q0980 TEMPO 5000 BKN005=
201712110250 METAR COR EGLL 110250Z AUTO 06008KT 3500 BR OVC002 01/01
                        Q0981 TEMPO 5000 BKN005=
201712110220 METAR COR EGLL 110220Z AUTO 05008KT 4800 BR OVC003 01/01
                        Q0981 TEMPO 5000 BKN005=
201712110150 METAR COR EGLL 110150Z AUTO 05005KT 3100 BR OVC003 01/01
                        Q0981 NOSIG=
201712110120 METAR COR EGLL 110120Z AUTO 06006KT 3200 BR OVC002 01/01
                        Q0981 NOSIG=
201712110050 METAR COR EGLL 110050Z AUTO 06006KT 3200 BR OVC003 01/01
                        Q0981 NOSIG=
201712110020 METAR COR EGLL 110020Z AUTO 05005KT 3800 BR OVC003 02/01
                        Q0981 NOSIG=
201712102350 METAR COR EGLL 102350Z AUTO 06004KT 030V100 3600 BR OVC003
                        02/01 Q0981 NOSIG=
201712102320 METAR COR EGLL 102320Z AUTO 06007KT 4000 BR OVC003 01/01
                        Q0980 NOSIG=
201712102250 METAR COR EGLL 102250Z AUTO 05006KT 4600 HZ OVC004 02/01
                        Q0981 TEMPO 5000 BKN005=
201712102220 METAR COR EGLL 102220Z AUTO 04004KT 6000 OVC004 02/01 Q0981
                        TEMPO BKN005=
201712102150 METAR COR EGLL 102150Z AUTO 07004KT 8000 OVC004 02/01 Q0981
                        NOSIG=
201712102120 METAR COR EGLL 102120Z AUTO 07004KT 7000 OVC005 02/01 Q0981
                        NOSIG=
201712102050 METAR COR EGLL 102050Z AUTO 07004KT 7000 OVC005 02/01 Q0981
                        NOSIG=
201712102020 METAR EGLL 102020Z AUTO 07003KT 9999 OVC005 02/01 Q0980=
201712101950 METAR EGLL 101950Z AUTO VRB02KT 9999 OVC005 02/01 Q0980=
201712101920 METAR COR EGLL 101920Z AUTO VRB01KT 7000 OVC006 02/00 Q0980
                        TEMPO 4000 -RASN BKN004=
201712101850 METAR COR EGLL 101850Z AUTO 28004KT 7000 BKN009 02/00 Q0980
                        RERA REDZ TEMPO 4000 -RASN BKN004=
201712101820 METAR COR EGLL 101820Z AUTO 27004KT 6000 -RA SCT008 BKN036
                        02/01 Q0979 TEMPO 4000 -RASN BKN008=
201712101750 METAR COR EGLL 101750Z AUTO 29004KT 7000 -RA SCT008 SCT036
                        02/01 Q0979 TEMPO 4000 -RASN BKN008=
201712101720 METAR COR EGLL 101720Z AUTO 28005KT 8000 -RA FEW009 SCT036
                        BKN045 02/01 Q0979 TEMPO 4000 -RASN
                        BKN008=
201712101650 METAR COR EGLL 101650Z 29005KT 9999 -RA BKN046 02/00 Q0979
                        TEMPO 4000 -RASN BKN008=
201712101620 METAR COR EGLL 101620Z AUTO 27006KT 9999 -RA OVC008 02/00
                        Q0978 TEMPO 4000 -RASN BKN004=
201712101550 METAR COR EGLL 101550Z AUTO 28005KT 9000 -RA BKN010 BKN032
                        BKN042 02/01 Q0978 TEMPO 4000 -RASN
                        BKN004=
201712101520 METAR COR EGLL 101520Z 28006KT 9000 -RA FEW008 SCT027 BKN033
                        02/01 Q0977 TEMPO 4000 -RASN BKN004=
201712101450 METAR COR EGLL 101450Z 29006KT 9999 -DZ FEW006 SCT030 BKN037
                        02/01 Q0977 TEMPO 4000 -RADZ BKN006=
201712101420 METAR COR EGLL 101420Z 30006KT 9999 -RASN FEW006 BKN026 01/01
                        Q0976 TEMPO 3000 -SN BKN004=
201712101350 METAR EGLL 101350Z 29007KT 2500 R27R/1400 -SN FEW003 SCT005
                        OVC011 01/00 Q0975 RESN=
201712101320 METAR EGLL 101320Z 29006KT 1100 R27R/P1500 R27L/P1500 -SN
                        SCT003 BKN006 OVC012 01/00 Q0975=
201712101250 METAR COR EGLL 101250Z 32005KT 3000 -RASN BKN005 OVC012 01/00
                        Q0973 TEMPO 1000 SN BKN003=
201712101220 METAR COR EGLL 101220Z 03004KT 350V060 5000 -RASN SCT004
                        BKN005 OVC010 01/00 Q0972 TEMPO 2000
                        RASN BKN004=
201712101150 METAR COR EGLL 101150Z 06004KT 020V110 5000 -RASN SCT003
                        BKN005 OVC017 01/00 Q0972 TEMPO 1000
                        SN BKN003=
201712101120 METAR COR EGLL 101120Z 06007KT 4600 -RA SCT004 BKN010 BKN015
                        01/00 Q0972 TEMPO 1000 SN BKN003=
201712101050 METAR COR EGLL 101050Z 05004KT 010V080 4000 -RASN SCT005
                        OVC010 01/00 Q0973 TEMPO 1000 SN
                        BKN003=
201712101020 METAR COR EGLL 101020Z VRB03KT 6000 -RA SCT005 BKN015 01/00
                        Q0973 TEMPO 2000 RASN BKN003=
201712100950 METAR COR EGLL 100950Z 02007KT 290V080 9999 -RA SCT006 BKN015
                        BKN020 01/00 Q0973 RESN TEMPO 1000
                        SN BKN004=
201712100920 METAR COR EGLL 100920Z 04004KT 360V080 2200 SN SCT004 BKN011
                        OVC022 01/00 Q0974 RESN TEMPO 0800
                        +SN BKN002=
201712100850 METAR COR EGLL 100850Z 06006KT 5000 -SN SCT003 BKN006 BKN010
                        01/00 Q0974 RESN TEMPO 0800 SN BKN002=
201712100820 METAR COR EGLL 100820Z 06007KT 1100 R09L/P1500 R09R/P1500
                        SN SCT003 BKN004 OVC013 00/00 Q0975
                        TEMPO 0700 SN BKN002=
201712100750 METAR COR EGLL 100750Z 08011KT 2500 SN SCT004 BKN005 OVC010
                        01/00 Q0977 RESN RERA TEMPO 0700
                        +SN BKN002=
201712100720 METAR COR EGLL 100720Z 09012KT 5000 RASN FEW005 SCT006 BKN010
                        02/01 Q0978 RERA TEMPO 3000 +RASN
                        BKN006=
201712100650 METAR COR EGLL 100650Z 11013KT 6000 RA SCT007 BKN010 OVC016
                        02/02 Q0981 NOSIG=
201712100620 METAR COR EGLL 100620Z 10010KT 6000 RA SCT006 BKN010 OVC016
                        02/02 Q0983 NOSIG=
201712100550 METAR COR EGLL 100550Z 09009KT 6000 RA FEW005 SCT008 BKN016
                        03/02 Q0985 BECMG BKN010=
201712100520 METAR COR EGLL 100520Z 10009KT 6000 RA FEW003 SCT005 BKN011
                        02/02 Q0986 NOSIG=
201712100450 METAR EGLL 100450Z 09011KT 6000 RA FEW004 BKN009 BKN017 02/02
                        Q0989=
201712100420 METAR COR EGLL 100420Z 09010KT 6000 RA FEW008 SCT010 BKN014
                        02/02 Q0990 BECMG BKN008=
201712100350 METAR COR EGLL 100350Z AUTO 09008KT 5000 -RA SCT015/// OVC019///
                        //////TCU 02/01 Q0992 BECMG BKN012=
201712100320 METAR COR EGLL 100320Z AUTO 10007KT 6000 -RA BKN021 OVC027
                        02/M00 Q0994 BECMG BKN012=
201712100250 METAR COR EGLL 100250Z AUTO 11008KT 9000 -RA BKN023 OVC029
                        02/M01 Q0995 BECMG BKN012=
201712100220 METAR COR EGLL 100220Z AUTO 11007KT 9999 BKN022 BKN031 OVC042
                        02/M02 Q0997 BECMG -RA BKN012=
201712100150 METAR COR EGLL 100150Z AUTO 10006KT 9999 -RA BKN038 OVC045
                        01/M02 Q0998 NOSIG=
201712100120 METAR COR EGLL 100120Z AUTO 11004KT 080V140 9999 BKN032 01/M02
                        Q1000 NOSIG=
201712100050 METAR COR EGLL 100050Z AUTO VRB03KT 9999 BKN036 OVC044 01/M02
                        Q1001 NOSIG=
201712100020 METAR COR EGLL 100020Z AUTO 12003KT 9999 OVC044 01/M02 Q1002
                        NOSIG=
201712092350 METAR COR EGLL 092350Z AUTO 16002KT 9999 BKN047 01/M02 Q1003
                        NOSIG=
201712092320 METAR COR EGLL 092320Z AUTO 14002KT 9999 SCT049 00/M02 Q1004
                        NOSIG=
201712092250 METAR COR EGLL 092250Z AUTO VRB01KT 9999 NCD 00/M02 Q1005
                        NOSIG=
201712092220 METAR COR EGLL 092220Z AUTO 21005KT 180V250 9999 NCD 01/M02
                        Q1006 NOSIG=
201712092150 METAR COR EGLL 092150Z 20005KT 160V260 CAVOK 01/M02 Q1007
                        NOSIG=
201712092120 METAR COR EGLL 092120Z AUTO 21006KT 9999 ///////// 02/M01
                        Q1007 NOSIG=
201712092050 METAR COR EGLL 092050Z AUTO 22005KT 9999 NCD 02/M01 Q1008
                        NOSIG=
201712092020 METAR COR EGLL 092020Z AUTO 24006KT 9999 NCD 02/M01 Q1009
                        NOSIG=
201712091950 METAR COR EGLL 091950Z AUTO 23007KT 9999 NCD 03/M01 Q1009
                        NOSIG=
201712091920 METAR COR EGLL 091920Z AUTO 23008KT 9999 NCD 02/M01 Q1010
                        NOSIG=
201712091850 METAR COR EGLL 091850Z AUTO 22006KT 9999 NCD 02/M01 Q1010
                        NOSIG=
201712091820 METAR COR EGLL 091820Z AUTO 22006KT 9999 NCD 02/M01 Q1011
                        NOSIG=
201712091750 METAR COR EGLL 091750Z AUTO 23006KT 9999 NCD 02/M01 Q1011
                        NOSIG=
201712091720 METAR COR EGLL 091720Z AUTO 23007KT 9999 NCD 02/M01 Q1012
                        NOSIG=
201712091650 METAR COR EGLL 091650Z AUTO 23007KT 9999 NCD 02/M01 Q1012
                        NOSIG=
201712091620 METAR COR EGLL 091620Z AUTO 24008KT 9999 NCD 03/M01 Q1012
                        NOSIG=
201712091550 METAR COR EGLL 091550Z AUTO 24007KT 9999 NCD 03/M01 Q1013
                        NOSIG=
201712091520 METAR COR EGLL 091520Z AUTO 25009KT 9999 NCD 03/M01 Q1013
                        NOSIG=
201712091450 METAR COR EGLL 091450Z AUTO 27010KT 9999 NCD 03/M01 Q1013
                        NOSIG=
201712091420 METAR COR EGLL 091420Z AUTO 27011KT 9999 NCD 04/M01 Q1014
                        NOSIG=
201712091350 METAR COR EGLL 091350Z AUTO 27009KT 9999 NCD 04/M01 Q1014
                        NOSIG=
201712091320 METAR COR EGLL 091320Z AUTO 26012KT 9999 NCD 03/M01 Q1015
                        NOSIG=
201712091250 METAR COR EGLL 091250Z AUTO 28008KT 9999 NCD 04/M01 Q1016
                        NOSIG=
201712091220 METAR COR EGLL 091220Z AUTO 27012KT 9999 NCD 04/M01 Q1016
                        NOSIG=
201712091150 METAR COR EGLL 091150Z AUTO 27010KT 9999 NCD 04/M01 Q1016
                        NOSIG=
201712091120 METAR COR EGLL 091120Z AUTO 27013KT 9999 NCD 03/M01 Q1017
                        NOSIG=
201712091050 METAR COR EGLL 091050Z AUTO 27011KT 9999 NCD 02/M01 Q1017
                        NOSIG=
201712091020 METAR COR EGLL 091020Z AUTO 27010KT 9999 NCD 02/M02 Q1018
                        NOSIG=
201712090950 METAR COR EGLL 090950Z AUTO 27010KT 9999 NCD 01/M02 Q1018
                        NOSIG=
201712090920 METAR COR EGLL 090920Z AUTO 27007KT 9999 NCD 01/M02 Q1018
                        NOSIG=
201712090850 METAR COR EGLL 090850Z AUTO 25007KT 9999 NCD 00/M02 Q1018
                        NOSIG=
201712090820 METAR COR EGLL 090820Z AUTO 25008KT 9999 NCD M00/M03 Q1018
                        NOSIG=
201712090750 METAR EGLL 090750Z AUTO 27011KT 9999 NCD M01/M03 Q1018=
201712090720 METAR COR EGLL 090720Z AUTO 27011KT 9999 NCD M01/M03 Q1019
                        NOSIG=
201712090650 METAR COR EGLL 090650Z AUTO 27009KT 9999 NCD M01/M03 Q1018
                        NOSIG=
201712090620 METAR COR EGLL 090620Z AUTO 27009KT 9999 NCD M01/M03 Q1018
                        NOSIG=
201712090550 METAR COR EGLL 090550Z AUTO 28010KT 9999 NCD M00/M03 Q1018
                        NOSIG=
201712090520 METAR COR EGLL 090520Z AUTO 27010KT 9999 NCD M01/M03 Q1018
                        NOSIG=
201712090450 METAR COR EGLL 090450Z AUTO 27011KT 9999 NCD M00/M02 Q1018
                        NOSIG=
201712090420 METAR COR EGLL 090420Z AUTO 28010KT 9999 NCD M01/M02 Q1018
                        NOSIG=
201712090350 METAR COR EGLL 090350Z AUTO 27008KT 9999 NCD M01/M03 Q1018
                        NOSIG=
201712090320 METAR COR EGLL 090320Z AUTO 28005KT 240V310 9999 NCD M01/M03
                        Q1019 NOSIG=
201712090250 METAR COR EGLL 090250Z AUTO 28007KT 9999 NCD M01/M03 Q1019
                        NOSIG=
201712090220 METAR COR EGLL 090220Z AUTO 28009KT 9999 NCD M01/M03 Q1019
                        NOSIG=
201712090150 METAR COR EGLL 090150Z AUTO 29009KT 9999 NCD M00/M03 Q1019
                        NOSIG=
201712090120 METAR COR EGLL 090120Z AUTO 28009KT 9999 NCD M01/M03 Q1019
                        NOSIG=
201712090050 METAR COR EGLL 090050Z AUTO 27009KT 9999 NCD M00/M03 Q1019
                        NOSIG=
201712090020 METAR COR EGLL 090020Z AUTO 27007KT 9999 NCD M00/M03 Q1019
                        NOSIG=
201712082350 METAR COR EGLL 082350Z AUTO 29007KT 9999 NCD 01/M02 Q1019
                        NOSIG=
201712082320 METAR COR EGLL 082320Z AUTO 28009KT 9999 NCD 01/M02 Q1019
                        NOSIG=
201712082250 METAR COR EGLL 082250Z AUTO 29010KT 9999 NCD 01/M02 Q1019
                        NOSIG=
201712082220 METAR COR EGLL 082220Z AUTO 29008KT 9999 NCD 02/M02 Q1019
                        NOSIG=
201712082150 METAR COR EGLL 082150Z AUTO 29010KT 9999 NCD 02/M02 Q1019
                        NOSIG=
201712082120 METAR COR EGLL 082120Z AUTO 29012KT 9999 NCD 02/M02 Q1019
                        NOSIG=
201712082050 METAR COR EGLL 082050Z AUTO 30010KT 9999 NCD 02/M02 Q1018
                        NOSIG=
201712082020 METAR COR EGLL 082020Z AUTO 29009KT 9999 NCD 02/M02 Q1018
                        NOSIG=
201712081950 METAR COR EGLL 081950Z AUTO 28010KT 9999 NCD 01/M02 Q1018
                        NOSIG=
201712081920 METAR COR EGLL 081920Z AUTO 28007KT 9999 NCD 01/M02 Q1019
                        NOSIG=
201712081850 METAR COR EGLL 081850Z AUTO 29010KT 9999 NCD 01/M02 Q1018
                        NOSIG=
201712081820 METAR COR EGLL 081820Z AUTO 28011KT 9999 NCD 01/M02 Q1018
                        NOSIG=
201712081750 METAR COR EGLL 081750Z AUTO 28007KT 9999 NCD 01/M02 Q1018
                        NOSIG=
201712081720 METAR COR EGLL 081720Z AUTO 29011KT 9999 NCD 02/M02 Q1018
                        NOSIG=
201712081650 METAR COR EGLL 081650Z AUTO 28013KT 9999 NCD 02/M02 Q1018
                        NOSIG=
201712081620 METAR COR EGLL 081620Z AUTO 29013KT 9999 NCD 03/M02 Q1017
                        NOSIG=
201712081550 METAR COR EGLL 081550Z AUTO 29010KT 9999 SCT028 03/M02 Q1017
                        NOSIG=
201712081520 METAR COR EGLL 081520Z AUTO 29011KT 9999 FEW029 04/M02 Q1017
                        NOSIG=
201712081450 METAR COR EGLL 081450Z AUTO 29011KT 9999 SCT031 04/M03 Q1017
                        NOSIG=
201712081420 METAR COR EGLL 081420Z AUTO 29012KT 9999 SCT028 BKN033 05/M02
                        Q1017 NOSIG=
201712081350 METAR COR EGLL 081350Z AUTO 30012KT 9999 FEW029 05/M02 Q1016
                        NOSIG=
201712081320 METAR COR EGLL 081320Z AUTO 29015KT 9999 FEW031 04/M02 Q1016
                        NOSIG=
201712081250 METAR COR EGLL 081250Z AUTO 30013KT 9999 SCT029 SCT033 04/M02
                        Q1016 NOSIG=
201712081220 METAR COR EGLL 081220Z AUTO 29015KT 9999 FEW026 04/M01 Q1016
                        NOSIG=
201712081150 METAR COR EGLL 081150Z AUTO 29015KT 9999 SCT027 04/M01 Q1016
                        NOSIG=
201712081120 METAR COR EGLL 081120Z AUTO 28015KT 9999 FEW027 04/M00 Q1016
                        NOSIG=
201712081050 METAR COR EGLL 081050Z AUTO 27015KT 9999 NCD 03/00 Q1016
                        NOSIG=
201712081020 METAR COR EGLL 081020Z AUTO 28012KT 9999 NCD 03/M00 Q1016
                        NOSIG=
201712080950 METAR COR EGLL 080950Z AUTO 29012KT 9999 NCD 03/M01 Q1016
                        NOSIG=
201712080920 METAR COR EGLL 080920Z AUTO 28013KT 9999 //////TCU 02/M01
                        Q1015 NOSIG=
201712080850 METAR COR EGLL 080850Z AUTO 28012KT 9999 NCD 03/M01 Q1015
                        NOSIG=
201712080820 METAR COR EGLL 080820Z AUTO 29010KT 9999 SCT023 03/M01 Q1015
                        NOSIG=
201712080750 METAR COR EGLL 080750Z AUTO 28009KT 9999 NCD 02/M01 Q1014
                        NOSIG=
201712080720 METAR COR EGLL 080720Z AUTO 27010KT 9999 FEW031 02/M01 Q1014
                        NOSIG=
201712080650 METAR COR EGLL 080650Z AUTO 28011KT 9999 SCT034 03/M01 Q1013
                        NOSIG=
201712080620 METAR COR EGLL 080620Z AUTO 28013KT 9999 FEW029 SCT034 03/M01
                        Q1013 NOSIG=
201712080550 METAR COR EGLL 080550Z AUTO 29011KT 9999 FEW033 BKN039 BKN048
                        03/M01 Q1012 NOSIG=
201712080520 METAR COR EGLL 080520Z AUTO 27016KT 9999 BKN038 03/M01 Q1012
                        NOSIG=
201712080450 METAR COR EGLL 080450Z AUTO 27015KT 9999 SCT038 03/M02 Q1012
                        NOSIG=
201712080420 METAR COR EGLL 080420Z AUTO 27015KT 9999 FEW039 03/M02 Q1012
                        NOSIG=
201712080350 METAR COR EGLL 080350Z AUTO 27013KT 9999 NCD 03/M02 Q1012
                        NOSIG=
201712080320 METAR EGLL 080320Z AUTO 27013KT 9999 NCD 03/M01 Q1012=
201712080250 METAR COR EGLL 080250Z AUTO 27011KT 9999 NCD 03/M01 Q1012
                        NOSIG=
201712080220 METAR COR EGLL 080220Z AUTO 26011KT 9999 NCD 03/M01 Q1012
                        NOSIG=
201712080150 METAR COR EGLL 080150Z AUTO 26011KT 9999 NCD 04/M00 Q1013
                        NOSIG=
201712080120 METAR COR EGLL 080120Z AUTO 26011KT 9999 NCD 04/00 Q1012
                        NOSIG=
201712080050 METAR COR EGLL 080050Z AUTO 24009KT 9999 NCD 04/00 Q1012
                        NOSIG=
201712080020 METAR COR EGLL 080020Z AUTO 25012KT 9999 FEW042 04/00 Q1012
                        NOSIG=
201712072350 METAR COR EGLL 072350Z AUTO 25011KT 9999 NCD 04/00 Q1013
                        NOSIG=
201712072320 METAR COR EGLL 072320Z AUTO 27010KT 9999 NCD 04/00 Q1013
                        NOSIG=
201712072250 METAR COR EGLL 072250Z AUTO 27011KT 9999 NCD 04/00 Q1013
                        NOSIG=
201712072220 METAR COR EGLL 072220Z AUTO 27011KT 9999 NCD 05/01 Q1013
                        NOSIG=
201712072150 METAR COR EGLL 072150Z AUTO 27010KT 9999 NCD 05/01 Q1013
                        NOSIG=
201712072120 METAR COR EGLL 072120Z AUTO 27012KT 9999 NCD 05/01 Q1013
                        NOSIG=
201712072050 METAR COR EGLL 072050Z AUTO 27010KT 9999 NCD 06/01 Q1012
                        NOSIG=
201712072020 METAR COR EGLL 072020Z AUTO 27011KT 9999 NCD 06/01 Q1012
                        NOSIG=
201712071950 METAR COR EGLL 071950Z AUTO 27012KT 9999 NCD 06/01 Q1012
                        NOSIG=
201712071920 METAR EGLL 071920Z AUTO 27012KT 9999 NCD 06/01 Q1012=
201712071850 METAR COR EGLL 071850Z AUTO 27012KT 9999 NCD 06/02 Q1011
                        NOSIG=
201712071820 METAR COR EGLL 071820Z AUTO 27011KT 9999 NCD 07/02 Q1011
                        NOSIG=
201712071750 METAR COR EGLL 071750Z AUTO 28012KT 9999 NCD 08/02 Q1011
                        NOSIG=
201712071720 METAR COR EGLL 071720Z AUTO 28011KT 9999 NCD 08/02 Q1010
                        NOSIG=
201712071650 METAR COR EGLL 071650Z AUTO 27008KT 9999 NCD 08/03 Q1010
                        NOSIG=
201712071620 METAR COR EGLL 071620Z AUTO 28008KT 9999 FEW042 08/03 Q1010
                        NOSIG=
201712071550 METAR COR EGLL 071550Z AUTO 29009KT 9999 NCD 09/03 Q1009
                        NOSIG=
201712071520 METAR COR EGLL 071520Z AUTO 30010KT 9999 FEW033 09/04 Q1008
                        NOSIG=
201712071450 METAR COR EGLL 071450Z AUTO 30008KT 9999 NCD 09/03 Q1008
                        NOSIG=
201712071420 METAR COR EGLL 071420Z AUTO 31010KT 9999 NCD 09/03 Q1007
                        NOSIG=
201712071350 METAR COR EGLL 071350Z AUTO 30010KT 9999 SCT043 09/04 Q1008
                        NOSIG=
201712071320 METAR COR EGLL 071320Z AUTO 31008KT 9999 -RA BKN034 BKN044
                        09/05 Q1007 NOSIG=
201712071250 METAR COR EGLL 071250Z AUTO 32009KT 300V360 9000 -RA BKN025///
                        OVC034/// //////CB 09/05 Q1007 NOSIG=
201712071220 METAR COR EGLL 071220Z AUTO 32011KT 290V010 5000 -RADZ BKN006///
                        BKN014/// BKN024/// //////CB 10/09
                        Q1006 RERA REDZ BECMG FEW014 BKN030=
201712071150 METAR COR EGLL 071150Z AUTO 21012KT 4200 -DZ SCT005/// BKN009///
                        OVC014/// //////CB 12/11 Q1005 BECMG
                        9999 NSW FEW009 BKN030=
201712071120 METAR COR EGLL 071120Z AUTO 21012KT 4900 -RADZ BKN006 BKN012
                        OVC028 12/11 Q1005 BECMG 9999 NSW
                        FEW006 BKN030=
201712071050 METAR COR EGLL 071050Z AUTO 22013KT 6000 -RA BKN008/// OVC026///
                        //////TCU 11/10 Q1006 BECMG FEW008
                        BKN030=
201712071020 METAR COR EGLL 071020Z AUTO 20016KT 8000 -RA BKN008/// OVC013///
                        //////TCU 11/10 Q1006 NOSIG=
201712070950 METAR COR EGLL 070950Z AUTO 20015KT 6000 -RA BKN006 BKN010
                        OVC015 11/10 Q1006 NOSIG=
201712070920 METAR COR EGLL 070920Z AUTO 20017KT 3900 -RADZ BKN006 OVC011
                        11/10 Q1006 TEMPO 6000 RA=
201712070850 METAR COR EGLL 070850Z AUTO 21015KT 4800 -RADZ BKN008 OVC016
                        11/10 Q1007 TEMPO SCT008 BKN014=
201712070820 METAR COR EGLL 070820Z AUTO 21014KT 6000 BKN008 OVC012 11/10
                        Q1007 TEMPO SCT008 BKN012=
201712070750 METAR COR EGLL 070750Z AUTO 20014KT 7000 -RA BKN007 OVC010
                        11/09 Q1008 TEMPO BKN010=
201712070720 METAR COR EGLL 070720Z AUTO 20016KT 6000 BKN009 OVC012 11/09
                        Q1008 NOSIG=
201712070650 METAR COR EGLL 070650Z AUTO 20017KT 5000 HZ BKN008 OVC015
                        10/09 Q1009 NOSIG=
201712070620 METAR COR EGLL 070620Z AUTO 21016KT 6000 -RA BKN009 OVC022
                        10/09 Q1009 NOSIG=
201712070550 METAR COR EGLL 070550Z AUTO 20017KT 9999 BKN010 OVC016 10/09
                        Q1009 NOSIG=
201712070520 METAR COR EGLL 070520Z AUTO 21018KT 8000 BKN009 OVC013 10/09
                        Q1010 NOSIG=
201712070450 METAR COR EGLL 070450Z AUTO 20017KT 9999 BKN009 OVC018 10/08
                        Q1011 TEMPO 4000 RA=
201712070420 METAR COR EGLL 070420Z AUTO 20018KT 9999 -RA BKN009 OVC016
                        10/08 Q1011 TEMPO 7000=
201712070350 METAR COR EGLL 070350Z AUTO 20016G27KT 7000 OVC009 10/08
                        Q1012 TEMPO 4000 -RA=
201712070320 METAR COR EGLL 070320Z AUTO 20017KT 9999 BKN010 OVC017 10/08
                        Q1013 TEMPO 6000 -RA=
201712070250 METAR COR EGLL 070250Z AUTO 20015KT 9999 OVC010 10/08 Q1013
                        NOSIG=
201712070220 METAR COR EGLL 070220Z AUTO 20014KT 9999 BKN010 OVC018 09/08
                        Q1014 TEMPO 6000 -RA=
201712070150 METAR COR EGLL 070150Z AUTO 20015KT 9999 BKN010 OVC017 09/08
                        Q1015 TEMPO 6000 -RA=
201712070120 METAR COR EGLL 070120Z AUTO 20014KT 5000 -RADZ BKN011 OVC019
                        09/07 Q1015 TEMPO SCT010 BKN020=
201712070050 METAR COR EGLL 070050Z AUTO 21017G27KT 7000 OVC013 10/07
                        Q1016 TEMPO SCT010 BKN016=
201712070020 METAR COR EGLL 070020Z AUTO 21015KT 9999 OVC015 10/07 Q1017
                        TEMPO BKN014=
201712062350 METAR COR EGLL 062350Z AUTO 20013KT 9999 -RA OVC015 10/06
                        Q1018 BECMG BKN014=
201712062320 METAR COR EGLL 062320Z AUTO 20012KT 9999 BKN016 OVC021 10/06
                        Q1018 BECMG BKN014=
201712062250 METAR COR EGLL 062250Z AUTO 20014KT 9999 BKN017 OVC023 10/06
                        Q1018 BECMG BKN014=
201712062220 METAR COR EGLL 062220Z AUTO 20014KT 9999 BKN018 OVC026 09/06
                        Q1019 BECMG BKN014=
201712062150 METAR COR EGLL 062150Z AUTO 20013KT 9999 BKN017 OVC023 09/05
                        Q1020 TEMPO BKN014=
201712062120 METAR COR EGLL 062120Z AUTO 20017KT 9999 OVC018 10/05 Q1020
                        NOSIG=
201712062050 METAR COR EGLL 062050Z AUTO 21016KT 9999 OVC019 09/05 Q1021
                        NOSIG=
201712062020 METAR COR EGLL 062020Z AUTO 20015KT 9999 OVC021 09/04 Q1022
                        NOSIG=
201712061950 METAR COR EGLL 061950Z AUTO 21014KT 9999 BKN023 OVC027 09/05
                        Q1022 NOSIG=
201712061920 METAR COR EGLL 061920Z AUTO 21016KT 9999 SCT022 BKN027 OVC047
                        10/05 Q1022 NOSIG=
201712061850 METAR COR EGLL 061850Z AUTO 21016KT 9999 SCT024 SCT033 OVC045
                        10/05 Q1022 NOSIG=
201712061820 METAR COR EGLL 061820Z AUTO 21014KT 9999 FEW023 OVC034 10/06
                        Q1023 NOSIG=
201712061750 METAR COR EGLL 061750Z AUTO 21012KT 9999 FEW024 OVC031 10/06
                        Q1023 NOSIG=
201712061720 METAR COR EGLL 061720Z AUTO 20013KT 9999 FEW026 OVC036 10/06
                        Q1023 NOSIG=
201712061650 METAR COR EGLL 061650Z AUTO 20011KT 9999 OVC040 10/06 Q1024
                        NOSIG=
201712061620 METAR COR EGLL 061620Z AUTO 20011KT 9999 OVC039 10/06 Q1024
                        NOSIG=
201712061550 METAR COR EGLL 061550Z AUTO 21012KT 9999 OVC042 10/06 Q1025
                        NOSIG=
201712061520 METAR COR EGLL 061520Z AUTO 21010KT 170V250 9999 OVC039 11/04
                        Q1025 NOSIG=
201712061450 METAR COR EGLL 061450Z AUTO 22010KT 180V250 9999 OVC039 11/04
                        Q1025 NOSIG=
201712061420 METAR COR EGLL 061420Z AUTO 24013G23KT 9999 OVC031 11/04
                        Q1026 NOSIG=
201712061350 METAR COR EGLL 061350Z AUTO 22011KT 180V250 9999 OVC035 11/05
                        Q1026 NOSIG=
201712061320 METAR COR EGLL 061320Z AUTO 23011KT 9999 OVC033 11/05 Q1027
                        NOSIG=
201712061250 METAR COR EGLL 061250Z AUTO 23011KT 9999 OVC034 11/05 Q1027
                        NOSIG=
201712061220 METAR COR EGLL 061220Z AUTO 23012KT 9999 OVC038 11/04 Q1027
                        NOSIG=
201712061150 METAR COR EGLL 061150Z AUTO 22010KT 180V250 9999 OVC040 11/05
                        Q1028 NOSIG=
201712061120 METAR COR EGLL 061120Z AUTO 21008KT 170V240 9999 OVC040 10/05
                        Q1028 NOSIG=
201712061050 METAR COR EGLL 061050Z AUTO 21009KT 9999 OVC040 10/05 Q1029
                        NOSIG=
201712061020 METAR COR EGLL 061020Z AUTO 21009KT 9999 BKN038 OVC044 09/04
                        Q1029 NOSIG=
201712060950 METAR COR EGLL 060950Z AUTO 21008KT 180V240 9999 OVC037 09/04
                        Q1029 NOSIG=
201712060920 METAR COR EGLL 060920Z AUTO 21008KT 9999 OVC039 09/04 Q1029
                        NOSIG=
201712060850 METAR COR EGLL 060850Z AUTO 21008KT 180V260 9999 OVC040 09/04
                        Q1030 NOSIG=
201712060820 METAR COR EGLL 060820Z AUTO 21007KT 9999 OVC039 09/04 Q1030
                        NOSIG=
201712060750 METAR COR EGLL 060750Z AUTO 21007KT 9999 OVC032 09/04 Q1030
                        NOSIG=
201712060720 METAR COR EGLL 060720Z AUTO 21008KT 9999 OVC032 09/04 Q1030
                        NOSIG=
201712060650 METAR COR EGLL 060650Z AUTO 22008KT 9999 OVC041 09/04 Q1030
                        NOSIG=
201712060620 METAR COR EGLL 060620Z AUTO 23007KT 9999 BKN039 OVC045 09/04
                        Q1030 NOSIG=
201712060550 METAR COR EGLL 060550Z AUTO 23007KT 9999 OVC040 09/03 Q1030
                        NOSIG=
201712060520 METAR EGLL 060520Z AUTO 23006KT 9999 OVC041 09/03 Q1031=
201712060450 METAR EGLL 060450Z AUTO 24007KT 9999 OVC040 08/03 Q1031=
201712060420 METAR COR EGLL 060420Z AUTO 22006KT 9999 OVC040 08/03 Q1031
                        NOSIG=
201712060350 METAR COR EGLL 060350Z AUTO 21007KT 9999 OVC040 09/03 Q1031
                        NOSIG=
201712060320 METAR COR EGLL 060320Z AUTO 22007KT 9999 OVC040 09/03 Q1031
                        NOSIG=
201712060250 METAR COR EGLL 060250Z AUTO 22008KT 9999 OVC038 09/03 Q1032
                        NOSIG=
201712060220 METAR COR EGLL 060220Z AUTO 22008KT 9999 OVC036 09/03 Q1032
                        NOSIG=
201712060150 METAR COR EGLL 060150Z AUTO 22008KT 9999 OVC036 09/03 Q1032
                        NOSIG=
201712060120 METAR COR EGLL 060120Z AUTO 23008KT 9999 OVC036 09/03 Q1032
                        NOSIG=
201712060050 METAR COR EGLL 060050Z AUTO 23010KT 9999 OVC036 09/03 Q1033
                        NOSIG=
201712060020 METAR COR EGLL 060020Z AUTO 23008KT 9999 OVC035 08/03 Q1033
                        NOSIG=
201712052350 METAR COR EGLL 052350Z AUTO 23009KT 9999 OVC035 08/03 Q1033
                        NOSIG=
201712052320 METAR COR EGLL 052320Z AUTO 23009KT 9999 OVC032 09/03 Q1033
                        NOSIG=
201712052250 METAR COR EGLL 052250Z AUTO 23010KT 9999 OVC030 09/03 Q1033
                        NOSIG=
201712052220 METAR COR EGLL 052220Z AUTO 25011KT 9999 OVC029 09/03 Q1034
                        NOSIG=
201712052150 METAR EGLL 052150Z AUTO 24010KT 9999 OVC029 09/04 Q1034=
201712052120 METAR COR EGLL 052120Z AUTO 25010KT 9999 BKN027 OVC033 09/04
                        Q1034 NOSIG=
201712052050 METAR COR EGLL 052050Z AUTO 24010KT 9999 OVC028 09/04 Q1034
                        NOSIG=
201712052020 METAR COR EGLL 052020Z AUTO 23010KT 9999 OVC028 09/05 Q1034
                        NOSIG=
201712051950 METAR COR EGLL 051950Z AUTO 24009KT 9999 OVC022 09/05 Q1034
                        NOSIG=
201712051920 METAR COR EGLL 051920Z AUTO 24010KT 9999 OVC028 09/05 Q1034
                        NOSIG=
201712051850 METAR COR EGLL 051850Z AUTO 24009KT 9999 BKN027 OVC036 08/05
                        Q1034 NOSIG=
201712051820 METAR COR EGLL 051820Z AUTO 23010KT 9999 BKN025 OVC030 08/05
                        Q1034 NOSIG=
201712051750 METAR COR EGLL 051750Z AUTO 23008KT 9999 OVC028 08/05 Q1034
                        NOSIG=
201712051720 METAR COR EGLL 051720Z AUTO 23008KT 9999 OVC027 08/05 Q1034
                        NOSIG=
201712051650 METAR COR EGLL 051650Z AUTO 23008KT 9999 OVC025 08/05 Q1034
                        NOSIG=
201712051620 METAR COR EGLL 051620Z AUTO 23009KT 9999 OVC025 08/05 Q1034
                        NOSIG=
201712051550 METAR COR EGLL 051550Z AUTO 23007KT 9999 OVC028 09/05 Q1034
                        NOSIG=
201712051520 METAR COR EGLL 051520Z AUTO 24007KT 9999 OVC027 08/05 Q1034
                        NOSIG=
201712051450 METAR COR EGLL 051450Z AUTO 25009KT 9999 OVC027 09/04 Q1034
                        NOSIG=
201712051420 METAR COR EGLL 051420Z AUTO 25010G20KT 9999 OVC027 09/04
                        Q1035 NOSIG=
201712051350 METAR COR EGLL 051350Z AUTO 26010KT 9999 OVC025 09/04 Q1035
                        NOSIG=
201712051320 METAR COR EGLL 051320Z AUTO 25010KT 9999 OVC027 09/03 Q1035
                        NOSIG=
201712051250 METAR COR EGLL 051250Z AUTO 25010KT 9999 OVC027 08/03 Q1035
                        NOSIG=
201712051220 METAR COR EGLL 051220Z AUTO 25010KT 9999 OVC027 08/03 Q1036
                        NOSIG=
201712051150 METAR COR EGLL 051150Z AUTO 27008KT 9999 OVC027 08/03 Q1036
                        NOSIG=
201712051120 METAR COR EGLL 051120Z AUTO 26011KT 9999 OVC026 08/03 Q1036
                        NOSIG=
201712051050 METAR COR EGLL 051050Z AUTO 27010KT 9999 OVC027 08/03 Q1036
                        NOSIG=
201712051020 METAR COR EGLL 051020Z AUTO 24010KT 9999 OVC027 08/03 Q1036
                        NOSIG=
201712050950 METAR COR EGLL 050950Z AUTO 26010KT 9999 OVC028 08/04 Q1036
                        NOSIG=
201712050920 METAR EGLL 050920Z AUTO 27009KT 9999 OVC028 08/03 Q1036=
201712050850 METAR COR EGLL 050850Z AUTO 27007KT 9999 OVC029 08/04 Q1036
                        NOSIG=
201712050820 METAR COR EGLL 050820Z AUTO 28005KT 9999 OVC030 07/04 Q1036
                        NOSIG=
201712050750 METAR COR EGLL 050750Z AUTO 27007KT 9999 OVC032 07/04 Q1036
                        NOSIG=
201712050720 METAR COR EGLL 050720Z AUTO 28007KT 9999 OVC033 07/04 Q1036
                        NOSIG=
201712050650 METAR COR EGLL 050650Z AUTO 28006KT 9999 OVC034 07/04 Q1036
                        NOSIG=
201712050620 METAR COR EGLL 050620Z AUTO 27006KT 9999 OVC036 07/04 Q1036
                        NOSIG=
201712050550 METAR COR EGLL 050550Z AUTO 27006KT 9999 OVC036 07/04 Q1036
                        NOSIG=
201712050520 METAR COR EGLL 050520Z AUTO 28005KT 9999 OVC037 08/04 Q1036
                        NOSIG=
201712050450 METAR COR EGLL 050450Z AUTO 25006KT 9999 OVC036 07/04 Q1035
                        NOSIG=
201712050420 METAR COR EGLL 050420Z AUTO 27005KT 9999 OVC035 07/05 Q1035
                        NOSIG=
201712050350 METAR COR EGLL 050350Z AUTO 27005KT 9999 BKN036 OVC043 07/05
                        Q1035 NOSIG=
201712050320 METAR COR EGLL 050320Z AUTO 27006KT 9999 OVC035 07/04 Q1035
                        NOSIG=
201712050250 METAR COR EGLL 050250Z AUTO 27006KT 9999 BKN034 OVC041 07/04
                        Q1035 NOSIG=
201712050220 METAR EGLL 050220Z AUTO 27005KT 9999 OVC037 07/04 Q1035=
201712050150 METAR COR EGLL 050150Z AUTO 27005KT 9999 OVC038 07/04 Q1035
                        NOSIG=
201712050120 METAR COR EGLL 050120Z AUTO 28005KT 9999 OVC038 08/04 Q1036
                        NOSIG=
201712050050 METAR COR EGLL 050050Z AUTO 27005KT 9999 OVC037 07/04 Q1036
                        NOSIG=
201712050020 METAR COR EGLL 050020Z AUTO 27004KT 9999 OVC038 08/04 Q1036
                        NOSIG=
201712042350 METAR COR EGLL 042350Z AUTO 30003KT 9999 OVC038 08/04 Q1036
                        NOSIG=
201712042320 METAR COR EGLL 042320Z AUTO 28005KT 9999 OVC039 09/03 Q1036
                        NOSIG=
201712042250 METAR COR EGLL 042250Z AUTO 27006KT 9999 OVC039 09/03 Q1036
                        NOSIG=
201712042220 METAR COR EGLL 042220Z AUTO 27006KT 9999 OVC039 08/04 Q1036
                        NOSIG=
201712042150 METAR COR EGLL 042150Z AUTO 29005KT 250V320 9999 OVC038 09/04
                        Q1036 NOSIG=
201712042120 METAR COR EGLL 042120Z AUTO 27005KT 9999 OVC037 09/04 Q1036
                        NOSIG=
201712042050 METAR COR EGLL 042050Z AUTO 27006KT 9999 OVC036 09/04 Q1036
                        NOSIG=
201712042020 METAR COR EGLL 042020Z AUTO 28006KT 9999 OVC037 09/04 Q1035
                        NOSIG=
201712041950 METAR COR EGLL 041950Z AUTO 28006KT 9999 OVC038 09/04 Q1035
                        NOSIG=
201712041920 METAR COR EGLL 041920Z AUTO 28005KT 9999 OVC037 09/05 Q1035
                        NOSIG=
201712041850 METAR COR EGLL 041850Z AUTO 27007KT 9999 OVC037 09/05 Q1035
                        NOSIG=
201712041820 METAR EGLL 041820Z AUTO 27006KT 9999 OVC031 09/06 Q1035=
201712041750 METAR COR EGLL 041750Z AUTO 27006KT 9999 BKN028 OVC033 09/06
                        Q1035 NOSIG=
201712041720 METAR COR EGLL 041720Z AUTO 28004KT 250V320 9999 OVC031 09/06
                        Q1035 NOSIG=
201712041650 METAR COR EGLL 041650Z AUTO 29006KT 9999 -RA SCT022 OVC031
                        09/06 Q1034 NOSIG=
201712041620 METAR COR EGLL 041620Z AUTO 29006KT 9999 OVC030 10/06 Q1034
                        NOSIG=
201712041550 METAR COR EGLL 041550Z AUTO 27005KT 9999 OVC037 10/06 Q1034
                        NOSIG=
201712041520 METAR COR EGLL 041520Z AUTO 29005KT 9999 FEW020 OVC033 10/06
                        Q1034 NOSIG=
201712041450 METAR COR EGLL 041450Z AUTO 30004KT 9999 OVC030 10/06 Q1033
                        NOSIG=
201712041420 METAR COR EGLL 041420Z AUTO 31005KT 9999 OVC027 10/06 Q1033
                        NOSIG=
201712041350 METAR COR EGLL 041350Z AUTO 29006KT 9999 FEW018 OVC023 10/06
                        Q1033 NOSIG=
201712041320 METAR COR EGLL 041320Z AUTO 29007KT 9999 OVC015 10/07 Q1033
                        NOSIG=
201712041250 METAR COR EGLL 041250Z AUTO 30006KT 260V330 9999 BKN013 OVC024
                        09/07 Q1033 BECMG BKN016=
201712041220 METAR COR EGLL 041220Z AUTO 30007KT 9999 BKN013 OVC021 09/06
                        Q1033 BECMG BKN016=
201712041150 METAR COR EGLL 041150Z AUTO 31004KT 280V340 9999 OVC014 09/06
                        Q1033 BECMG BKN016=
201712041120 METAR COR EGLL 041120Z AUTO 30005KT 9999 OVC014 09/06 Q1034
                        TEMPO BKN016=
201712041050 METAR COR EGLL 041050Z AUTO 29004KT 9999 OVC013 08/06 Q1034
                        TEMPO BKN015=
201712041020 METAR COR EGLL 041020Z AUTO 28005KT 9999 OVC014 08/05 Q1034
                        NOSIG=
201712040950 METAR COR EGLL 040950Z AUTO 30004KT 9999 BKN016 OVC024 08/05
                        Q1033 TEMPO BKN014=
201712040920 METAR COR EGLL 040920Z AUTO 29006KT 9999 BKN012 OVC018 07/05
                        Q1033 TEMPO SCT012 BKN018=
201712040850 METAR COR EGLL 040850Z AUTO 27006KT 9999 BKN012 OVC018 07/05
                        Q1033 NOSIG=
201712040820 METAR COR EGLL 040820Z AUTO 28005KT 9999 BKN013 OVC020 07/04
                        Q1032 NOSIG=
201712040750 METAR COR EGLL 040750Z AUTO 28005KT 9999 BKN011 OVC016 07/04
                        Q1032 TEMPO SCT011 BKN016=
201712040720 METAR COR EGLL 040720Z AUTO 29005KT 9999 BKN012 OVC022 07/04
                        Q1032 TEMPO SCT012 BKN022=
201712040650 METAR COR EGLL 040650Z AUTO 28006KT 9999 SCT019 BKN026 06/04
                        Q1032 NOSIG=
201712040620 METAR COR EGLL 040620Z AUTO 28006KT 9999 SCT021 06/04 Q1031
                        NOSIG=
201712040550 METAR COR EGLL 040550Z AUTO 29005KT 9999 BKN023 06/04 Q1031
                        NOSIG=
201712040520 METAR COR EGLL 040520Z AUTO 28006KT 9999 OVC023 06/04 Q1031
                        NOSIG=
201712040450 METAR COR EGLL 040450Z AUTO 27005KT 9999 BKN025 05/04 Q1031
                        NOSIG=
201712040420 METAR COR EGLL 040420Z AUTO 27006KT 9999 OVC027 05/04 Q1031
                        NOSIG=
201712040350 METAR COR EGLL 040350Z AUTO 27003KT 9999 BKN028 05/04 Q1031
                        NOSIG=
201712040320 METAR COR EGLL 040320Z AUTO 28005KT 9999 BKN026 03/03 Q1031
                        NOSIG=
201712040250 METAR COR EGLL 040250Z AUTO 29006KT 9999 NCD 03/02 Q1031
                        NOSIG=
201712040220 METAR EGLL 040220Z AUTO VRB02KT 9999 NCD 04/03 Q1031=
201712040150 METAR COR EGLL 040150Z AUTO 29004KT 9999 NCD 03/02 Q1031
                        NOSIG=
201712040120 METAR COR EGLL 040120Z AUTO 29004KT 9999 SCT042 05/03 Q1031
                        NOSIG=
201712040050 METAR COR EGLL 040050Z AUTO 29005KT 9999 BKN039 06/03 Q1030
                        NOSIG=
201712040020 METAR COR EGLL 040020Z AUTO 29005KT 9999 BKN040 07/04 Q1030
                        NOSIG=
201712032350 METAR COR EGLL 032350Z AUTO 29005KT 9999 BKN041 07/04 Q1030
                        NOSIG=
201712032320 METAR COR EGLL 032320Z AUTO 31004KT 9999 BKN041 08/04 Q1030
                        NOSIG=
201712032250 METAR COR EGLL 032250Z AUTO 31004KT 280V340 9999 BKN042 08/04
                        Q1030 NOSIG=
201712032220 METAR COR EGLL 032220Z AUTO 31005KT 9999 OVC040 08/04 Q1030
                        NOSIG=
201712032150 METAR EGLL 032150Z AUTO 32004KT 290V360 9999 OVC041 09/05
                        Q1030=
201712032120 METAR COR EGLL 032120Z AUTO 31005KT 9999 OVC041 09/06 Q1029
                        NOSIG=
201712032050 METAR COR EGLL 032050Z AUTO 31005KT 290V360 9999 OVC040 09/06
                        Q1029 NOSIG=
201712032020 METAR COR EGLL 032020Z AUTO 30005KT 9999 OVC040 09/06 Q1029
                        NOSIG=
201712031950 METAR COR EGLL 031950Z AUTO 30004KT 9999 OVC041 09/06 Q1029
                        NOSIG=
201712031920 METAR COR EGLL 031920Z AUTO 30004KT 9999 OVC044 10/06 Q1029
                        NOSIG=
201712031850 METAR COR EGLL 031850Z AUTO 29005KT 9999 OVC045 09/07 Q1028
                        NOSIG=
201712031820 METAR COR EGLL 031820Z AUTO 30003KT 9999 OVC042 10/07 Q1028
                        NOSIG=
201712031750 METAR COR EGLL 031750Z AUTO 31003KT 9999 OVC036 10/07 Q1028
                        NOSIG=
201712031720 METAR COR EGLL 031720Z AUTO 30004KT 9999 -RA OVC034 10/08
                        Q1028 NOSIG=
201712031650 METAR COR EGLL 031650Z AUTO 34004KT 290V010 9999 -RA SCT013
                        SCT023 BKN028 10/08 Q1028 NOSIG=
201712031620 METAR COR EGLL 031620Z AUTO 31004KT 9999 -RA FEW019 SCT031
                        OVC037 10/08 Q1027 NOSIG=
201712031550 METAR COR EGLL 031550Z AUTO 31004KT 9999 SCT021 OVC042 10/07
                        Q1027 NOSIG=
201712031520 METAR COR EGLL 031520Z AUTO 31004KT 9999 BKN043 10/08 Q1027
                        NOSIG=
201712031450 METAR COR EGLL 031450Z AUTO 31005KT 280V340 9999 BKN015 BKN028
                        OVC047 11/08 Q1027 NOSIG=
201712031420 METAR COR EGLL 031420Z AUTO 30004KT 9999 FEW016 SCT021 BKN029
                        11/08 Q1027 NOSIG=
201712031350 METAR COR EGLL 031350Z AUTO 30004KT 9999 SCT016 SCT025 BKN032
                        11/08 Q1026 NOSIG=
201712031320 METAR COR EGLL 031320Z AUTO 31004KT 270V340 9999 FEW014 SCT030
                        BKN041 11/08 Q1026 NOSIG=
201712031250 METAR COR EGLL 031250Z AUTO 30005KT 270V340 9999 SCT021 OVC046
                        11/08 Q1026 NOSIG=
201712031220 METAR COR EGLL 031220Z AUTO 30005KT 9999 BKN011 BKN021 OVC049
                        10/08 Q1027 BECMG SCT011 BKN025=
201712031150 METAR COR EGLL 031150Z AUTO 28006KT 9999 BKN009 BKN018 OVC027
                        10/08 Q1027 BECMG SCT009 BKN018=
201712031120 METAR COR EGLL 031120Z AUTO 29006KT 9999 SCT010 BKN014 BKN024
                        10/08 Q1027 TEMPO BKN010=
201712031050 METAR COR EGLL 031050Z AUTO 29005KT 9999 FEW006 BKN012 09/08
                        Q1027 TEMPO BKN006=
201712031020 METAR COR EGLL 031020Z AUTO 29006KT 4700 HZ FEW005 SCT013
                        BKN018 09/08 Q1027 TEMPO 6000 NSW
                        BKN006=
201712030950 METAR COR EGLL 030950Z AUTO 29006KT 6000 FEW005 BKN012 OVC017
                        08/07 Q1026 TEMPO BKN006=
201712030920 METAR COR EGLL 030920Z AUTO 29006KT 3000 -RADZ BKN003 BKN007
                        OVC016 08/07 Q1026 RERA REDZ TEMPO
                        SCT003 BKN007=
201712030850 METAR COR EGLL 030850Z AUTO 29006KT 2000 -RADZ SCT004 SCT007
                        BKN011 08/07 Q1026 TEMPO BKN004=
201712030820 METAR COR EGLL 030820Z AUTO 29006KT 3000 HZ BKN005 OVC028
                        08/07 Q1026 TEMPO -RADZ BKN004=
201712030750 METAR COR EGLL 030750Z AUTO 28005KT 6000 OVC005 08/07 Q1025
                        TEMPO BKN004=
201712030720 METAR COR EGLL 030720Z AUTO 29004KT 6000 OVC005 07/07 Q1025
                        TEMPO 4000 -RADZ BKN004=
201712030650 METAR COR EGLL 030650Z AUTO 29006KT 8000 OVC006 07/06 Q1025
                        TEMPO 4000 -RADZ BKN004=
201712030620 METAR COR EGLL 030620Z AUTO 28006KT 9000 OVC007 07/06 Q1025
                        TEMPO 4000 -RADZ BKN004=
201712030550 METAR COR EGLL 030550Z AUTO 29005KT 8000 OVC008 07/06 Q1025
                        TEMPO 4000 -RADZ BKN004=
201712030520 METAR COR EGLL 030520Z AUTO 28005KT 8000 FEW004 OVC008 07/06
                        Q1025 TEMPO 4000 -RADZ BKN004=
201712030450 METAR COR EGLL 030450Z AUTO 28005KT 3400 BR BKN003 OVC028
                        07/06 Q1025 REDZ NOSIG=
201712030420 METAR COR EGLL 030420Z AUTO 28005KT 3100 -RADZ BKN003 BKN007
                        OVC015 07/06 Q1025 NOSIG=
201712030350 METAR COR EGLL 030350Z AUTO 28006KT 6000 BKN004 OVC008 07/06
                        Q1025 TEMPO 2000 RADZ BKN003=
201712030320 METAR COR EGLL 030320Z AUTO 27006KT 2400 -RADZ SCT003 BKN007
                        BKN010 06/06 Q1025 REDZ TEMPO BKN003=
201712030250 METAR COR EGLL 030250Z AUTO 27006KT 2000 -RADZ BKN007 BKN017
                        OVC030 07/06 Q1025 TEMPO 5000 SCT007
                        BKN012=
201712030220 METAR COR EGLL 030220Z AUTO 27006KT 6000 SCT009 BKN020 BKN033
                        06/06 Q1025 TEMPO BKN010=
201712030150 METAR COR EGLL 030150Z AUTO 27006KT 5000 HZ BKN008 BKN031
                        BKN040 06/06 Q1025 NOSIG=
201712030120 METAR COR EGLL 030120Z AUTO 28007KT 7000 FEW008 BKN021 BKN031
                        07/06 Q1025 NOSIG=
201712030050 METAR COR EGLL 030050Z AUTO 29005KT 6000 BKN031 OVC038 07/06
                        Q1025 NOSIG=
201712030020 METAR COR EGLL 030020Z AUTO 27007KT 6000 OVC044 07/06 Q1026
                        NOSIG=
201712022350 METAR COR EGLL 022350Z AUTO 27008KT 6000 FEW014 BKN042 OVC049
                        07/06 Q1026 TEMPO BKN014=
201712022320 METAR COR EGLL 022320Z AUTO 28006KT 5000 HZ FEW012 OVC042
                        06/06 Q1026 NOSIG=
201712022250 METAR COR EGLL 022250Z AUTO 28007KT 5000 HZ FEW007 BKN010
                        OVC047 07/06 Q1026 TEMPO BKN008=
201712022220 METAR COR EGLL 022220Z AUTO 28007KT 5000 HZ BKN010 BKN045
                        06/05 Q1026 TEMPO BKN008=
201712022150 METAR COR EGLL 022150Z AUTO 28007KT 4400 HZ SCT009 BKN012
                        BKN024 06/06 Q1026 TEMPO BKN008=
201712022120 METAR COR EGLL 022120Z AUTO 28006KT 5000 HZ FEW007 BKN011
                        BKN015 06/06 Q1026 TEMPO BKN008=
201712022050 METAR COR EGLL 022050Z AUTO 28005KT 4000 HZ BKN005 BKN011
                        OVC016 06/05 Q1026 NOSIG=
201712022020 METAR COR EGLL 022020Z AUTO 26006KT 4200 BR BKN004 OVC007
                        06/05 Q1026 TEMPO BKN007=
201712021950 METAR COR EGLL 021950Z 24006KT 210V280 3200 -RADZ OVC004
                        05/05 Q1026 TEMPO 4000 BKN006=
201712021920 METAR COR EGLL 021920Z 22005KT 170V260 2700 -RADZ BKN003
                        05/05 Q1026 RERA REDZ TEMPO 4000
                        BKN006=
201712021850 METAR COR EGLL 021850Z 23006KT 2300 RADZ BKN004 05/05 Q1026
                        TEMPO 4000 -RADZ BKN006=
201712021820 METAR COR EGLL 021820Z AUTO 21006KT 180V260 6000 OVC005 05/04
                        Q1026 NOSIG=
201712021750 METAR COR EGLL 021750Z AUTO 26006KT 220V300 4200 HZ BKN006
                        OVC010 06/04 Q1026 TEMPO 6000 NSW=
201712021720 METAR COR EGLL 021720Z AUTO 26007KT 9999 BKN007 OVC011 06/04
                        Q1026 NOSIG=
201712021650 METAR COR EGLL 021650Z AUTO 27008KT 9999 BKN007 OVC011 06/04
                        Q1026 TEMPO 4000 -DZ=
201712021620 METAR COR EGLL 021620Z AUTO 27008KT 9999 BKN008 OVC018 06/04
                        Q1026 TEMPO 4000 -DZ=
201712021550 METAR COR EGLL 021550Z AUTO 28007KT 9999 OVC009 06/03 Q1026
                        TEMPO 4000 -DZ=
201712021520 METAR COR EGLL 021520Z AUTO 27006KT 9999 BKN010 OVC016 06/03
                        Q1026 TEMPO 4000 -DZ BKN008=
201712021450 METAR COR EGLL 021450Z AUTO 27005KT 9999 BKN011 BKN016 OVC030
                        05/03 Q1026 TEMPO 4000 -RADZ BKN008=
201712021420 METAR COR EGLL 021420Z AUTO 25008KT 8000 SCT015 BKN020 OVC041
                        06/03 Q1026 BECMG BKN012=
201712021350 METAR COR EGLL 021350Z AUTO 25006KT 9999 SCT014 BKN018 OVC023
                        06/03 Q1027 TEMPO 4000 -RADZ BKN008=
201712021320 METAR EGLL 021320Z AUTO 28006KT 6000 BKN015 OVC027 06/02
                        Q1027=
201712021250 METAR COR EGLL 021250Z AUTO 26006KT 230V290 9999 BKN021 BKN027
                        OVC045 06/02 Q1027 NOSIG=
201712021220 METAR COR EGLL 021220Z AUTO 22005KT 160V240 9999 SCT025 BKN029
                        OVC045 05/01 Q1027 NOSIG=
201712021150 METAR COR EGLL 021150Z AUTO 20005KT 170V230 9999 BKN030 BKN049
                        05/01 Q1027 NOSIG=
201712021120 METAR COR EGLL 021120Z AUTO VRB03KT 9999 SCT037 05/01 Q1028
                        NOSIG=
201712021050 METAR COR EGLL 021050Z AUTO VRB03KT 9999 BKN036 05/00 Q1028
                        NOSIG=
201712021020 METAR COR EGLL 021020Z AUTO 26004KT 220V290 9999 BKN037 OVC044
                        04/M00 Q1028 NOSIG=
201712020950 METAR COR EGLL 020950Z AUTO 26004KT 230V290 9999 BKN042 04/M00
                        Q1028 NOSIG=
201712020920 METAR COR EGLL 020920Z AUTO 26004KT 9999 BKN048 04/M00 Q1028
                        NOSIG=
201712020850 METAR COR EGLL 020850Z AUTO 26004KT 220V280 9999 NCD 03/M00
                        Q1028 NOSIG=
201712020820 METAR COR EGLL 020820Z AUTO 28004KT 9999 NCD 03/00 Q1027
                        NOSIG=
201712020750 METAR COR EGLL 020750Z AUTO 28004KT 9999 NCD 03/00 Q1027
                        NOSIG=
201712020720 METAR COR EGLL 020720Z AUTO 30004KT 9999 NCD 04/M00 Q1027
                        NOSIG=
201712020650 METAR COR EGLL 020650Z AUTO 31005KT 9999 NCD 04/M00 Q1027
                        NOSIG=
201712020620 METAR COR EGLL 020620Z AUTO 30005KT 9999 NCD 03/00 Q1027
                        NOSIG=
201712020550 METAR COR EGLL 020550Z AUTO 27005KT 9999 NCD 03/00 Q1027
                        NOSIG=
201712020520 METAR COR EGLL 020520Z AUTO 29003KT 9999 -RA NCD 03/00 Q1027
                        NOSIG=
201712020450 METAR COR EGLL 020450Z AUTO 27004KT 9999 NCD 03/00 Q1027
                        NOSIG=
201712020420 METAR COR EGLL 020420Z AUTO 29003KT 9999 NCD 03/00 Q1027
                        NOSIG=
201712020350 METAR COR EGLL 020350Z AUTO 30002KT 9999 -RA NCD 03/00 Q1027
                        NOSIG=
201712020320 METAR COR EGLL 020320Z AUTO VRB03KT 9999 NCD 03/00 Q1027
                        NOSIG=
201712020250 METAR COR EGLL 020250Z AUTO VRB02KT 9999 NCD 03/00 Q1027
                        NOSIG=
201712020220 METAR COR EGLL 020220Z AUTO VRB02KT 9999 NCD 03/00 Q1027
                        NOSIG=
201712020150 METAR COR EGLL 020150Z AUTO VRB02KT 9999 NCD 03/01 Q1027
                        NOSIG=
201712020120 METAR COR EGLL 020120Z AUTO VRB02KT 9999 NCD 03/01 Q1027
                        NOSIG=
201712020050 METAR COR EGLL 020050Z AUTO 32004KT 280V010 9999 NCD 03/01
                        Q1027 NOSIG=
201712020020 METAR COR EGLL 020020Z AUTO 30004KT 9999 NCD 03/01 Q1027
                        NOSIG=
201712012350 METAR COR EGLL 012350Z AUTO VRB02KT 9999 NCD 03/00 Q1027
                        NOSIG=
201712012320 METAR COR EGLL 012320Z AUTO 35004KT 300V030 9999 NCD 03/01
                        Q1026 NOSIG=
201712012250 METAR COR EGLL 012250Z AUTO 33004KT 280V020 9999 NCD 04/01
                        Q1026 NOSIG=
201712012220 METAR COR EGLL 012220Z AUTO 35004KT 300V020 9999 NCD 04/01
                        Q1026 NOSIG=
201712012150 METAR COR EGLL 012150Z AUTO 35005KT 9999 NCD 04/01 Q1026
                        NOSIG=
201712012120 METAR COR EGLL 012120Z AUTO 36006KT 9999 NCD 04/01 Q1026
                        NOSIG=
201712012050 METAR COR EGLL 012050Z AUTO 36006KT 320V050 9999 FEW016 SCT040
                        04/01 Q1026 NOSIG=
201712012020 METAR COR EGLL 012020Z AUTO 36007KT 9999 BKN016 05/01 Q1026
                        NOSIG=
201712011950 METAR COR EGLL 011950Z AUTO 36006KT 300V030 9999 SCT017 05/01
                        Q1026 NOSIG=
201712011920 METAR COR EGLL 011920Z AUTO 35006KT 280V030 9999 SCT018 BKN045
                        05/01 Q1025 NOSIG=
201712011850 METAR COR EGLL 011850Z AUTO 36006KT 310V020 9999 BKN018 BKN038
                        05/02 Q1025 NOSIG=
201712011820 METAR COR EGLL 011820Z AUTO 35004KT 310V020 9999 SCT048 05/01
                        Q1025 NOSIG=
201712011750 METAR COR EGLL 011750Z AUTO 35006KT 320V020 9999 FEW018 05/01
                        Q1025 NOSIG=
201712011720 METAR COR EGLL 011720Z AUTO 35006KT 320V030 9999 FEW023 05/01
                        Q1025 NOSIG=
201712011650 METAR COR EGLL 011650Z AUTO 35007KT 300V030 9999 SCT023 SCT032
                        BKN041 05/01 Q1024 NOSIG=
201712011620 METAR EGLL 011620Z AUTO 34005KT 310V020 9999 SCT023 BKN047
                        05/01 Q1024=
201712011550 METAR EGLL 011550Z AUTO 33006KT 300V010 9999 SCT025 06/01
                        Q1024=
201712011520 METAR COR EGLL 011520Z AUTO 35006KT 310V020 9999 FEW025 SCT030
                        06/01 Q1023 NOSIG=
201712011450 METAR COR EGLL 011450Z AUTO 35007KT 310V030 9999 FEW029 06/00
                        Q1023 NOSIG=
201712011420 METAR COR EGLL 011420Z AUTO 01007KT 340V040 9999 NCD 06/M00
                        Q1023 NOSIG=
201712011350 METAR COR EGLL 011350Z AUTO 02009KT 330V050 9999 NCD 07/M01
                        Q1023 NOSIG=
201712011320 METAR COR EGLL 011320Z AUTO 01009KT 340V060 9999 NCD 07/M01
                        Q1022 NOSIG=
201712011250 METAR COR EGLL 011250Z AUTO 02009KT 340V060 9999 NCD 07/M01
                        Q1022 NOSIG=
201712011220 METAR COR EGLL 011220Z AUTO 03008KT 350V060 9999 NCD 06/M00
                        Q1022 NOSIG=
201712011150 METAR COR EGLL 011150Z AUTO 01007KT 340V050 9999 NCD 06/01
                        Q1022 NOSIG=
201712011120 METAR COR EGLL 011120Z AUTO 36009KT 330V040 9999 FEW025 05/01
                        Q1022 NOSIG=
201712011050 METAR COR EGLL 011050Z AUTO 01010KT 330V050 9999 FEW026 SCT042
                        05/01 Q1022 NOSIG=
201712011020 METAR COR EGLL 011020Z AUTO 36009KT 320V030 9999 FEW026 SCT043
                        BKN049 04/01 Q1021 NOSIG=
201712010950 METAR COR EGLL 010950Z AUTO 36008KT 330V040 9999 FEW025 SCT034
                        04/01 Q1021 NOSIG=
201712010920 METAR COR EGLL 010920Z AUTO 01008KT 340V050 9999 FEW021 03/01
                        Q1020 NOSIG=
201712010850 METAR COR EGLL 010850Z AUTO 36010KT 330V040 9999 BKN020 BKN039
                        03/01 Q1020 NOSIG=
201712010820 METAR COR EGLL 010820Z AUTO 36009KT 320V030 9999 -RA SCT019
                        BKN027 BKN035 03/01 Q1019 NOSIG=
201712010750 METAR COR EGLL 010750Z AUTO 35009KT 310V030 9999 FEW020 SCT025
                        BKN034 04/00 Q1019 NOSIG=
201712010720 METAR COR EGLL 010720Z AUTO 35009KT 300V020 9999 -RA SCT020
                        BKN027 BKN036 03/00 Q1018 NOSIG=
201712010650 METAR EGLL 010650Z AUTO 34007KT 280V030 9999 -RA SCT020 BKN028
                        BKN036 03/00 Q1018=
201712010620 METAR COR EGLL 010620Z AUTO 34008KT 300V020 9999 -RA FEW029
                        SCT037 03/00 Q1017 TEMPO BKN012=
201712010550 METAR COR EGLL 010550Z AUTO 34008KT 300V020 9999 -RA FEW018
                        SCT029 BKN042 03/00 Q1017 TEMPO BKN012=
201712010520 METAR COR EGLL 010520Z AUTO 33009KT 9999 SCT039 BKN048 03/M00
                        Q1016 TEMPO -SHRA BKN012=
201712010450 METAR COR EGLL 010450Z AUTO 34007KT 310V020 9999 SCT017 BKN046
                        03/M00 Q1016 TEMPO BKN012=
201712010420 METAR COR EGLL 010420Z AUTO 35007KT 310V030 9999 BKN016 03/M00
                        Q1016 TEMPO BKN012=
201712010350 METAR COR EGLL 010350Z AUTO 35008KT 310V030 9999 BKN016 03/M00
                        Q1015 TEMPO BKN012=
201712010320 METAR COR EGLL 010320Z AUTO 36010KT 310V030 9999 BKN015 OVC021
                        03/M00 Q1015 NOSIG=
201712010250 METAR COR EGLL 010250Z AUTO 36008KT 310V040 9999 BKN017 OVC021
                        03/M00 Q1015 NOSIG=
201712010220 METAR COR EGLL 010220Z AUTO 35008KT 300V020 9999 BKN018 OVC022
                        03/M00 Q1015 NOSIG=
201712010150 METAR COR EGLL 010150Z AUTO 34009KT 310V010 9999 BKN017 OVC021
                        03/M00 Q1014 NOSIG=
201712010120 METAR EGLL 010120Z AUTO 34005KT 280V030 9999 BKN018 OVC025
                        03/M01 Q1014=
201712010050 METAR COR EGLL 010050Z AUTO 34006KT 310V030 9999 OVC019 03/M01
                        Q1014 NOSIG=
201712010020 METAR COR EGLL 010020Z AUTO 35008KT 310V030 9999 BKN019 OVC025
                        03/M01 Q1014 NOSIG=

</pre>

</body>
</html>
