##########################################################
# Query made at 12/24/2012 14:14:59 UTC
# Time interval: from 12/01/2011 00:00  to 12/31/2011 23:59  UTC
##########################################################

##########################################################
# EGLL, London / Heathrow Airport (United Kingdom)
# WMO index: 03772
# Latitude 51-29N. Longitude 000-27W. Altitude 24 m.
##########################################################

###################################
#  METAR/SPECI from EGLL
###################################
201112312350 METAR EGLL 312350Z 23012KT 9999 FEW009 BKN012 12/10 Q1008=
201112312320 METAR COR EGLL 312320Z 22011KT 9999 BKN010 12/10 Q1008 TEMPO
                        BKN007=
201112312250 METAR COR EGLL 312250Z 22011KT 9999 -RA BKN011 BKN017 12/10
                        Q1008 BECMG NSW SCT011 BKN020=
201112312220 METAR COR EGLL 312220Z 22011KT 9999 6000W -RADZ BKN011 12/10
                        Q1008 TEMPO NSW SCT011 BKN020=
201112312150 METAR COR EGLL 312150Z 23013KT 9999 SCT014 SCT018 12/10 Q1009
                        BECMG 7000 -RADZ BKN012=
201112312120 METAR COR EGLL 312120Z 23013KT 9999 BKN012 13/10 Q1009 BECMG
                        7000 -RA BKN008=
201112312050 METAR COR EGLL 312050Z 22012KT 9999 SCT013 SCT019 13/10 Q1009
                        BECMG BKN012=
201112312020 METAR COR EGLL 312020Z 24011KT 9999 SCT016 13/10 Q1009 BECMG
                        BKN014=
201112311950 METAR COR EGLL 311950Z 24012KT 9999 SCT014 SCT019 13/10 Q1009
                        BECMG BKN012=
201112311920 METAR COR EGLL 311920Z 23009KT 9999 BKN013 13/10 Q1009 NOSIG=
201112311850 METAR COR EGLL 311850Z 24011KT 9999 SCT013 13/10 Q1009 TEMPO
                        BKN013=
201112311820 METAR COR EGLL 311820Z 24013KT 9999 BKN013 13/10 Q1009 TEMPO
                        BKN009=
201112311750 METAR COR EGLL 311750Z 25016KT 9999 BKN014 13/10 Q1009 NOSIG=
201112311720 METAR COR EGLL 311720Z 25015KT 9999 BKN014 13/10 Q1009 NOSIG=
201112311650 METAR COR EGLL 311650Z 25013KT 9999 BKN014 13/10 Q1009 NOSIG=
201112311620 METAR COR EGLL 311620Z 25013KT 9999 SCT014 BKN020 12/10 Q1009
                        BECMG BKN014=
201112311550 METAR COR EGLL 311550Z 25014KT 9999 BKN014 BKN020 12/10 Q1009
                        TEMPO SCT014=
201112311520 METAR COR EGLL 311520Z 26015KT 9999 FEW011 BKN014 12/10 Q1010
                        TEMPO SCT014 BKN018=
201112311450 METAR COR EGLL 311450Z 26014KT 9999 FEW012 BKN014 12/10 Q1010
                        TEMPO SCT014 BKN018=
201112311420 METAR COR EGLL 311420Z 26015KT 9999 SCT014 BKN023 13/10 Q1010
                        TEMPO BKN014=
201112311350 METAR COR EGLL 311350Z 26016KT 9999 BKN014 BKN023 13/10 Q1010
                        TEMPO SCT014 BKN022=
201112311320 METAR EGLL 311320Z 26015KT 9999 SCT014 SCT017 13/10 Q1010=
201112311250 METAR COR EGLL 311250Z 26016KT 9999 BKN014 13/10 Q1010 TEMPO
                        SCT014 BKN018=
201112311220 METAR COR EGLL 311220Z 26016KT 9999 BKN014 13/10 Q1010 TEMPO
                        SCT014 BKN020=
201112311150 METAR COR EGLL 311150Z 27015KT 9999 BKN015 13/10 Q1010 TEMPO
                        BKN013=
201112311120 METAR COR EGLL 311120Z 26016KT 9999 BKN013 12/10 Q1010 TEMPO
                        SCT013 BKN020=
201112311050 METAR EGLL 311050Z 26016KT 9999 SCT014 12/09 Q1010=
201112311020 METAR COR EGLL 311020Z 27017KT 9999 BKN015 12/09 Q1011 TEMPO
                        BKN013=
201112310950 METAR COR EGLL 310950Z 27016KT 9999 SCT014 12/09 Q1011 TEMPO
                        BKN012=
201112310920 METAR COR EGLL 310920Z 27013KT 9999 BKN012 12/09 Q1011 TEMPO
                        SCT012 BKN016=
201112310850 METAR COR EGLL 310850Z 27012KT 9999 BKN014 12/09 Q1011 TEMPO
                        SCT012 BKN016=
201112310820 METAR COR EGLL 310820Z 27011KT 9999 FEW013 SCT015 11/09 Q1011
                        TEMPO BKN012=
201112310750 METAR COR EGLL 310750Z 27010KT 9999 SCT012 11/09 Q1011 TEMPO
                        BKN012=
201112310720 METAR COR EGLL 310720Z 27011KT 9999 BKN012 12/09 Q1010 TEMPO
                        SCT012 BKN018=
201112310650 METAR COR EGLL 310650Z 26011KT 9999 SCT013 SCT020 11/09 Q1010
                        TEMPO BKN012=
201112310620 METAR COR EGLL 310620Z 27011KT 9999 FEW011 11/09 Q1010 TEMPO
                        BKN012=
201112310550 METAR COR EGLL 310550Z 26013KT 9999 FEW017 BKN030 11/09 Q1010
                        NOSIG=
201112310520 METAR COR EGLL 310520Z 27014KT 9999 BKN023 11/09 Q1010 NOSIG=
201112310450 METAR COR EGLL 310450Z 26013KT 9999 FEW014 BKN020 11/09 Q1010
                        TEMPO BKN014=
201112310420 METAR COR EGLL 310420Z 26011KT 9999 FEW012 BKN025 11/09 Q1010
                        TEMPO BKN012=
201112310350 METAR COR EGLL 310350Z 26013KT 9999 FEW014 BKN027 11/09 Q1010
                        TEMPO BKN014=
201112310320 METAR COR EGLL 310320Z 27012KT 9999 BKN025 11/09 Q1010 NOSIG=
201112310250 METAR COR EGLL 310250Z 27011KT 9999 BKN029 11/09 Q1010 TEMPO
                        BKN012=
201112310220 METAR EGLL 310220Z AUTO 27011KT 9999 FEW011/// BKN030///
                        11/09 Q1010=
201112310150 METAR EGLL 310150Z AUTO 27010KT 9999 BKN011/// 11/10 Q1010=
201112310120 METAR EGLL 310120Z AUTO 27012KT 9999 OVC011/// 11/10 Q1010=
201112310050 METAR COR EGLL 310050Z 26011KT 9999 BKN012 11/10 Q1010 TEMPO
                        BKN008=
201112310020 METAR COR EGLL 310020Z 26011KT 9999 BKN009 BKN017 11/10 Q1010
                        TEMPO SCT009 BKN015=
201112302350 METAR COR EGLL 302350Z 26011KT 9999 BKN010 11/10 Q1010 NOSIG=
201112302320 METAR COR EGLL 302320Z 26012KT 9999 OVC010 11/10 Q1010 NOSIG=
201112302250 METAR COR EGLL 302250Z 26011KT 9999 BKN010 BKN018 11/10 Q1010
                        NOSIG=
201112302220 METAR COR EGLL 302220Z 26012KT 9999 OVC010 11/09 Q1010 NOSIG=
201112302150 METAR COR EGLL 302150Z 26011KT 9999 BKN007 10/09 Q1011 BECMG
                        BKN012=
201112302120 METAR COR EGLL 302120Z 22008KT 9999 -RA FEW003 BKN006 09/08
                        Q1011 BECMG NSW BKN010=
201112302050 METAR COR EGLL 302050Z 22008KT 8000 -RA FEW002 SCT008 BKN010
                        09/08 Q1011 RERA TEMPO 4000 RADZ
                        BKN004=
201112302020 METAR COR EGLL 302020Z 21008KT 2500 RADZ FEW002 SCT003 BKN004
                        08/07 Q1011 TEMPO BKN002=
201112301950 METAR COR EGLL 301950Z 22007KT 180V250 4500 -RA SCT003 BKN004
                        08/07 Q1012 TEMPO 2000 RADZ=
201112301920 METAR COR EGLL 301920Z 21008KT 9000 -RA BKN004 08/07 Q1013
                        TEMPO 3500 RADZ=
201112301850 METAR COR EGLL 301850Z 21007KT 180V250 9999 FEW003 BKN005
                        07/06 Q1013 TEMPO 4000 -RADZ BKN004=
201112301820 METAR COR EGLL 301820Z 20007KT 150V230 9999 SCT003 BKN005
                        07/06 Q1013 TEMPO 5000 -RADZ BKN004=
201112301750 METAR COR EGLL 301750Z 19007KT 150V240 5000 -RA SCT003 BKN005
                        07/06 Q1014 TEMPO 4000 RADZ BKN004=
201112301720 METAR COR EGLL 301720Z 17008KT 140V210 5000 -RA SCT004 BKN015
                        07/06 Q1014 TEMPO 4000 RA BKN007=
201112301650 METAR COR EGLL 301650Z 19007KT 160V220 6000 -RA FEW008 SCT016
                        BKN019 07/06 Q1015 RERA TEMPO 4000
                        RA SCT008 BKN014=
201112301620 METAR COR EGLL 301620Z 20006KT 160V250 5000 RA BKN020 07/06
                        Q1016 TEMPO 4000 BKN012=
201112301550 METAR COR EGLL 301550Z 22005KT 170V240 6000 -RA BKN024 07/05
                        Q1016 TEMPO 4500 RADZ BKN014=
201112301520 METAR COR EGLL 301520Z 22006KT 200V270 9000 -RA BKN034 07/05
                        Q1017 TEMPO BKN014=
201112301450 METAR COR EGLL 301450Z 21005KT 180V250 8000 -RA BKN041 07/05
                        Q1017 TEMPO BKN014=
201112301420 METAR COR EGLL 301420Z 23007G17KT 190V260 8000 -RA FEW027
                        SCT031 07/04 Q1017 NOSIG=
201112301350 METAR COR EGLL 301350Z 22006KT 190V260 9999 -RA FEW033 07/04
                        Q1018 NOSIG=
201112301320 METAR COR EGLL 301320Z 23005KT 190V270 9999 FEW044 07/04
                        Q1019 NOSIG=
201112301250 METAR COR EGLL 301250Z 25007KT 9999 -RA FEW029 SCT035 07/03
                        Q1019 NOSIG=
201112301220 METAR COR EGLL 301220Z 27009KT 9999 -RA FEW030 BKN034 07/04
                        Q1019 NOSIG=
201112301150 METAR COR EGLL 301150Z 27011KT 9999 -RA FEW011 07/04 Q1020
                        NOSIG=
201112301120 METAR COR EGLL 301120Z 27011KT 9999 -RA FEW019 SCT028 07/04
                        Q1020 NOSIG=
201112301050 METAR COR EGLL 301050Z 27014KT 9999 -RA SCT031 BKN040 07/03
                        Q1021 NOSIG=
201112301020 METAR COR EGLL 301020Z 27011KT CAVOK 06/03 Q1021 NOSIG=
201112300950 METAR COR EGLL 300950Z 27012KT 9999 FEW040 06/03 Q1020 NOSIG=
201112300920 METAR COR EGLL 300920Z 27010KT 9999 FEW048 06/02 Q1020 NOSIG=
201112300850 METAR COR EGLL 300850Z 28008KT 9999 FEW048 06/02 Q1020 NOSIG=
201112300820 METAR COR EGLL 300820Z 28010KT 9999 FEW045 06/02 Q1020 NOSIG=
201112300750 METAR COR EGLL 300750Z 28009KT 9999 FEW045 05/02 Q1020 NOSIG=
201112300720 METAR COR EGLL 300720Z 28008KT 9999 FEW045 05/02 Q1020 NOSIG=
201112300650 METAR COR EGLL 300650Z 28009KT CAVOK 05/02 Q1020 NOSIG=
201112300620 METAR COR EGLL 300620Z 28009KT 9999 FEW048 05/02 Q1019 NOSIG=
201112300550 METAR COR EGLL 300550Z 29009KT 9999 FEW035 SCT048 06/02 Q1019
                        NOSIG=
201112300520 METAR COR EGLL 300520Z 29008KT 9999 SCT036 BKN044 06/02 Q1019
                        NOSIG=
201112300450 METAR COR EGLL 300450Z 29008KT 9999 BKN042 06/02 Q1019 NOSIG=
201112300420 METAR COR EGLL 300420Z 29009KT 9999 BKN036 06/02 Q1019 NOSIG=
201112300350 METAR COR EGLL 300350Z 29009KT 9999 BKN039 06/02 Q1018 NOSIG=
201112300320 METAR COR EGLL 300320Z 29009KT 9999 FEW037 BKN042 06/02 Q1018
                        NOSIG=
201112300250 METAR COR EGLL 300250Z 30009KT 9999 BKN042 06/02 Q1018 NOSIG=
201112300220 METAR EGLL 300220Z AUTO 29010KT 9999 NCD 06/02 Q1017=
201112300150 METAR EGLL 300150Z AUTO 29011KT 9999 NCD 06/02 Q1017=
201112300120 METAR EGLL 300120Z AUTO 30010KT 9999 NCD 06/02 Q1017=
201112300050 METAR EGLL 300050Z 28012KT 9999 FEW040 06/02 Q1017=
201112300020 METAR EGLL 300020Z 28013KT 9999 FEW048 06/02 Q1017=
201112292350 METAR COR EGLL 292350Z 28012KT 9999 FEW044 06/03 Q1017 NOSIG=
201112292320 METAR COR EGLL 292320Z 28010KT 9999 FEW038 07/03 Q1017 NOSIG=
201112292250 METAR COR EGLL 292250Z 30006KT CAVOK 07/03 Q1017 NOSIG=
201112292220 METAR COR EGLL 292220Z 30007KT 9999 SCT028 07/03 Q1017 NOSIG=
201112292150 METAR COR EGLL 292150Z 29017G28KT 7000 -DZ SCT014 08/04 Q1017
                        NOSIG=
201112292120 METAR COR EGLL 292120Z 27010KT 9999 FEW044 08/05 Q1016 NOSIG=
201112292050 METAR COR EGLL 292050Z 27009KT 9999 FEW026 08/05 Q1016 NOSIG=
201112292020 METAR COR EGLL 292020Z 29011KT 9999 SCT024 08/05 Q1016 NOSIG=
201112291950 METAR COR EGLL 291950Z 29013KT 9999 FEW023 08/05 Q1016 NOSIG=
201112291920 METAR COR EGLL 291920Z 28013KT 9999 FEW023 08/05 Q1016 NOSIG=
201112291850 METAR COR EGLL 291850Z 29017KT 9999 FEW034 08/06 Q1016 TEMPO
                        30018G28KT SHRA=
201112291820 METAR COR EGLL 291820Z 29017KT 270V330 9999 -RA FEW034 SCT040
                        09/06 Q1016 RESHRA TEMPO 30018G28KT
                        SHRA=
201112291750 METAR COR EGLL 291750Z 32012KT 290V350 5000 SHRA SCT020 BKN023
                        09/06 Q1016 BECMG 9999 NSW=
201112291720 METAR COR EGLL 291720Z 26020G33KT 9999 SCT029 SCT034 10/05
                        Q1015 TEMPO 6000 SHRA=
201112291650 METAR COR EGLL 291650Z 26019KT 9999 SCT026 SCT032 10/05 Q1016
                        TEMPO 7000 SHRA=
201112291620 METAR COR EGLL 291620Z 26016KT 9999 SCT027 BKN034 10/04 Q1016
                        TEMPO 26020G32KT 7000 SHRA=
201112291550 METAR COR EGLL 291550Z 26018KT 9999 SCT028 BKN036 10/04 Q1017
                        TEMPO 28020G32KT 7000 SHRA=
201112291520 METAR COR EGLL 291520Z 26018KT 9999 SCT029 SCT034 10/04 Q1017
                        NOSIG=
201112291450 METAR COR EGLL 291450Z 26018KT 9999 SCT029 SCT032 10/04 Q1017
                        TEMPO 28020G30KT=
201112291420 METAR COR EGLL 291420Z 26015KT 9999 SCT029 BKN039 10/05 Q1018
                        TEMPO 28020G30KT=
201112291350 METAR COR EGLL 291350Z 26019KT 9999 FEW029 BKN045 10/04 Q1018
                        NOSIG=
201112291320 METAR COR EGLL 291320Z 27021KT 9999 FEW033 BKN045 10/04 Q1018
                        NOSIG=
201112291250 METAR COR EGLL 291250Z 27019KT 9999 SCT036 BKN045 10/04 Q1019
                        TEMPO 28020G30KT=
201112291220 METAR COR EGLL 291220Z 26016KT 9999 SCT036 BKN042 09/04 Q1020
                        TEMPO 27018G28KT=
201112291150 METAR COR EGLL 291150Z 25013KT 9999 SCT035 BKN044 09/04 Q1020
                        TEMPO 27016G28KT=
201112291120 METAR COR EGLL 291120Z 25014KT 9999 SCT035 SCT040 08/04 Q1021
                        TEMPO 26018G28KT=
201112291050 METAR COR EGLL 291050Z 25016KT 9999 SCT035 SCT038 08/04 Q1022
                        TEMPO 27018G28KT=
201112291020 METAR COR EGLL 291020Z 25016KT 9999 SCT029 SCT038 08/04 Q1022
                        NOSIG=
201112290950 METAR COR EGLL 290950Z 25016KT 9999 BKN034 07/03 Q1022 TEMPO
                        26018G28KT=
201112290920 METAR COR EGLL 290920Z 25018KT 9999 BKN034 07/03 Q1022 TEMPO
                        26018G28KT=
201112290850 METAR COR EGLL 290850Z 25017KT 9999 SCT030 BKN036 07/02 Q1023
                        TEMPO 26018G28KT=
201112290820 METAR COR EGLL 290820Z 25015KT 9999 SCT036 BKN041 07/02 Q1023
                        TEMPO 27018G28KT=
201112290750 METAR COR EGLL 290750Z 24015KT 9999 BKN038 06/02 Q1023 TEMPO
                        27018G28KT=
201112290720 METAR COR EGLL 290720Z 25014KT 9999 SCT038 06/02 Q1023 TEMPO
                        26017G28KT=
201112290650 METAR COR EGLL 290650Z 24014KT CAVOK 06/01 Q1023 TEMPO 26016G28KT=
201112290620 METAR COR EGLL 290620Z 23013KT CAVOK 06/01 Q1024 TEMPO 26016G28KT=
201112290550 METAR COR EGLL 290550Z 24014KT CAVOK 06/01 Q1024 TEMPO 26016G28KT=
201112290520 METAR COR EGLL 290520Z 25013KT CAVOK 06/01 Q1025 NOSIG=
201112290450 METAR COR EGLL 290450Z 25012KT CAVOK 06/00 Q1025 NOSIG=
201112290420 METAR COR EGLL 290420Z 27013KT CAVOK 05/00 Q1025 NOSIG=
201112290350 METAR COR EGLL 290350Z 26013KT CAVOK 05/00 Q1026 NOSIG=
201112290320 METAR COR EGLL 290320Z 27012KT CAVOK 05/00 Q1026 NOSIG=
201112290250 METAR COR EGLL 290250Z 27015KT CAVOK 05/00 Q1025 NOSIG=
201112290220 METAR EGLL 290220Z AUTO 28015KT 9999 NCD 05/00 Q1025=
201112290150 METAR EGLL 290150Z AUTO 27014KT 9999 NCD 05/00 Q1025=
201112290120 METAR EGLL 290120Z AUTO 27011KT 9999 NCD 05/00 Q1025=
201112290050 METAR EGLL 290050Z 25012KT CAVOK 06/01 Q1024=
201112290020 METAR EGLL 290020Z 26012KT CAVOK 06/01 Q1024=
201112282350 METAR COR EGLL 282350Z 26013KT CAVOK 06/01 Q1024 NOSIG=
201112282320 METAR COR EGLL 282320Z 26013KT CAVOK 06/01 Q1024 NOSIG=
201112282250 METAR COR EGLL 282250Z 27016KT CAVOK 06/01 Q1024 NOSIG=
201112282220 METAR COR EGLL 282220Z 27013KT CAVOK 06/01 Q1023 NOSIG=
201112282150 METAR COR EGLL 282150Z 27014KT CAVOK 06/01 Q1023 NOSIG=
201112282120 METAR COR EGLL 282120Z 26014KT CAVOK 07/01 Q1023 NOSIG=
201112282050 METAR COR EGLL 282050Z 26014KT CAVOK 07/01 Q1023 NOSIG=
201112282020 METAR COR EGLL 282020Z 27013KT CAVOK 06/01 Q1023 NOSIG=
201112281950 METAR COR EGLL 281950Z 27016KT CAVOK 06/01 Q1022 NOSIG=
201112281920 METAR COR EGLL 281920Z 26017KT CAVOK 07/01 Q1022 NOSIG=
201112281850 METAR COR EGLL 281850Z 26014KT CAVOK 07/01 Q1022 NOSIG=
201112281820 METAR COR EGLL 281820Z 27015KT CAVOK 07/01 Q1021 NOSIG=
201112281750 METAR COR EGLL 281750Z 27016KT CAVOK 07/01 Q1021 NOSIG=
201112281720 METAR COR EGLL 281720Z 26015KT CAVOK 07/01 Q1020 NOSIG=
201112281650 METAR COR EGLL 281650Z 27017KT 9999 FEW024 07/01 Q1020 NOSIG=
201112281620 METAR COR EGLL 281620Z 27016KT 9999 FEW028 08/01 Q1020 NOSIG=
201112281550 METAR COR EGLL 281550Z 27014KT 9999 FEW032 08/01 Q1020 NOSIG=
201112281520 METAR COR EGLL 281520Z 27017KT 9999 FEW028 08/01 Q1020 NOSIG=
201112281450 METAR COR EGLL 281450Z 27016KT 9999 FEW028 09/02 Q1019 NOSIG=
201112281420 METAR COR EGLL 281420Z 27016KT 9999 FEW028 09/02 Q1019 NOSIG=
201112281350 METAR COR EGLL 281350Z 26017KT 9999 FEW032 10/02 Q1019 NOSIG=
201112281320 METAR COR EGLL 281320Z 26017KT 9999 FEW028 10/04 Q1019 NOSIG=
201112281250 METAR COR EGLL 281250Z 27017KT 9999 FEW028 10/05 Q1019 NOSIG=
201112281220 METAR COR EGLL 281220Z 26015G25KT 9999 FEW024 SCT030 10/06
                        Q1019 NOSIG=
201112281150 METAR COR EGLL 281150Z 26016KT 9999 BKN026 10/06 Q1019 NOSIG=
201112281120 METAR COR EGLL 281120Z 25015KT 9999 SCT024 BKN039 11/06 Q1019
                        NOSIG=
201112281050 METAR COR EGLL 281050Z 24014KT 9999 SCT024 BKN036 11/06 Q1020
                        NOSIG=
201112281020 METAR COR EGLL 281020Z 24012KT 9999 SCT026 SCT036 11/06 Q1020
                        NOSIG=
201112280950 METAR COR EGLL 280950Z 24015KT 9999 SCT026 11/07 Q1020 NOSIG=
201112280920 METAR COR EGLL 280920Z 24014KT 9999 FEW021 11/07 Q1019 NOSIG=
201112280850 METAR COR EGLL 280850Z 24013KT CAVOK 10/08 Q1019 NOSIG=
201112280820 METAR COR EGLL 280820Z 24013KT 9999 SCT019 10/08 Q1019 NOSIG=
201112280750 METAR COR EGLL 280750Z 23012KT 9999 -RA SCT010 SCT017 10/09
                        Q1019 NOSIG=
201112280720 METAR COR EGLL 280720Z 22015KT 9999 FEW011 BKN017 11/08 Q1019
                        TEMPO BKN012=
201112280650 METAR COR EGLL 280650Z 23014KT 9999 BKN016 BKN025 11/08 Q1019
                        NOSIG=
201112280620 METAR COR EGLL 280620Z 23015KT 9999 BKN015 11/08 Q1020 TEMPO
                        BKN013=
201112280550 METAR COR EGLL 280550Z 23016KT 9999 BKN016 11/08 Q1020 TEMPO
                        BKN014=
201112280520 METAR COR EGLL 280520Z 22013KT 9999 BKN019 10/07 Q1020 TEMPO
                        BKN014=
201112280450 METAR COR EGLL 280450Z 21011KT 9999 FEW019 BKN022 10/07 Q1020
                        TEMPO BKN014=
201112280420 METAR COR EGLL 280420Z 22010KT 9999 FEW016 SCT023 10/07 Q1021
                        TEMPO BKN014=
201112280350 METAR COR EGLL 280350Z 22009KT 9999 BKN017 10/06 Q1021 TEMPO
                        BKN014=
201112280320 METAR COR EGLL 280320Z 20010KT 9999 FEW018 BKN030 10/06 Q1021
                        NOSIG=
201112280250 METAR COR EGLL 280250Z 22012KT 9999 BKN018 09/06 Q1023 BECMG
                        BKN014=
201112280220 METAR EGLL 280220Z AUTO 23012KT 210V270 9999 OVC015/// 09/06
                        Q1024=
201112280150 METAR EGLL 280150Z AUTO 22011KT 9999 OVC014/// 08/06 Q1024=
201112280120 METAR EGLL 280120Z AUTO 20008KT 9999 BKN015/// 08/06 Q1023=
201112280050 METAR COR EGLL 280050Z 19008KT 9999 BKN015 08/06 Q1024 BECMG
                        BKN013=
201112280020 METAR COR EGLL 280020Z 20007KT 9999 SCT017 08/06 Q1025 BECMG
                        BKN014=
201112272350 METAR COR EGLL 272350Z 19005KT 9999 FEW014 07/05 Q1026 BECMG
                        BKN014=
201112272320 METAR COR EGLL 272320Z 19007KT 9999 BKN013 08/05 Q1027 NOSIG=
201112272250 METAR COR EGLL 272250Z 19006KT 150V240 9999 BKN014 08/05
                        Q1027 NOSIG=
201112272220 METAR COR EGLL 272220Z 20007KT 170V230 9999 BKN015 08/05
                        Q1028 TEMPO BKN014=
201112272150 METAR COR EGLL 272150Z 20007KT 9999 BKN015 08/05 Q1028 TEMPO
                        BKN014=
201112272120 METAR COR EGLL 272120Z 19009KT 9999 OVC017 08/05 Q1029 TEMPO
                        BKN014=
201112272050 METAR COR EGLL 272050Z 19010KT 9999 BKN018 08/05 Q1029 NOSIG=
201112272020 METAR COR EGLL 272020Z 19009KT 9999 SCT019 BKN023 08/05 Q1030
                        NOSIG=
201112271950 METAR COR EGLL 271950Z 19008KT 160V220 9999 BKN027 09/05
                        Q1030 NOSIG=
201112271920 METAR COR EGLL 271920Z 21008KT 9999 BKN028 09/05 Q1031 NOSIG=
201112271850 METAR COR EGLL 271850Z 20008KT 170V240 9999 BKN030 09/06
                        Q1031 NOSIG=
201112271820 METAR COR EGLL 271820Z 20008KT 9999 SCT025 BKN030 09/06 Q1031
                        NOSIG=
201112271750 METAR COR EGLL 271750Z 20009KT 150V220 9999 BKN027 10/06
                        Q1031 NOSIG=
201112271720 METAR COR EGLL 271720Z 18008KT 140V220 9999 SCT023 BKN026
                        10/05 Q1031 NOSIG=
201112271650 METAR COR EGLL 271650Z 22006KT 9999 BKN030 10/05 Q1032 NOSIG=
201112271620 METAR COR EGLL 271620Z 22007KT 9999 BKN023 10/05 Q1032 NOSIG=
201112271550 METAR COR EGLL 271550Z 22009KT 200V260 9999 BKN026 10/05
                        Q1032 NOSIG=
201112271520 METAR COR EGLL 271520Z 20007KT 160V240 9999 BKN026 10/05
                        Q1032 NOSIG=
201112271450 METAR COR EGLL 271450Z 20006KT 160V250 9999 BKN029 10/05
                        Q1032 NOSIG=
201112271420 METAR COR EGLL 271420Z 21005KT 160V280 9999 BKN029 10/05
                        Q1032 NOSIG=
201112271350 METAR COR EGLL 271350Z 22007KT 200V260 9999 BKN028 10/05
                        Q1033 NOSIG=
201112271320 METAR EGLL 271320Z 24006KT 9999 BKN027 10/05 Q1033=
201112271250 METAR COR EGLL 271250Z 25007KT 190V280 9999 BKN026 10/05
                        Q1034 NOSIG=
201112271220 METAR EGLL 271220Z 24008KT 200V280 9999 BKN026 10/05 Q1034=
201112271150 METAR COR EGLL 271150Z 25009KT 210V270 9999 BKN027 10/05
                        Q1034 NOSIG=
201112271120 METAR COR EGLL 271120Z 25010G21KT 9999 BKN028 10/05 Q1034
                        NOSIG=
201112271050 METAR COR EGLL 271050Z 24010KT 210V270 9999 BKN027 11/05
                        Q1035 NOSIG=
201112271020 METAR COR EGLL 271020Z 25008KT 200V300 9999 OVC027 11/05
                        Q1035 NOSIG=
201112270950 METAR COR EGLL 270950Z 25011KT 9999 BKN028 11/05 Q1035 NOSIG=
201112270920 METAR COR EGLL 270920Z 24009KT 9999 SCT030 10/05 Q1035 NOSIG=
201112270850 METAR COR EGLL 270850Z 23008KT 9999 SCT029 10/05 Q1035 NOSIG=
201112270820 METAR COR EGLL 270820Z 24008KT 9999 BKN028 10/05 Q1034 NOSIG=
201112270750 METAR COR EGLL 270750Z 24009KT 9999 OVC028 10/05 Q1034 NOSIG=
201112270720 METAR COR EGLL 270720Z 24010KT 9999 OVC028 10/05 Q1034 NOSIG=
201112270650 METAR COR EGLL 270650Z 24010KT 9999 OVC028 10/05 Q1034 NOSIG=
201112270620 METAR COR EGLL 270620Z 23010KT 9999 OVC029 10/05 Q1034 NOSIG=
201112270550 METAR COR EGLL 270550Z 25010KT 9999 OVC028 10/05 Q1034 NOSIG=
201112270520 METAR COR EGLL 270520Z 25009KT 9999 OVC028 10/05 Q1034 NOSIG=
201112270450 METAR COR EGLL 270450Z 26012KT 9999 OVC028 10/05 Q1034 NOSIG=
201112270420 METAR COR EGLL 270420Z 26012KT 9999 OVC029 10/05 Q1034 NOSIG=
201112270350 METAR COR EGLL 270350Z 26011KT 9999 OVC029 10/05 Q1034 NOSIG=
201112270320 METAR COR EGLL 270320Z 25010KT 9999 OVC028 10/05 Q1033 NOSIG=
201112270250 METAR COR EGLL 270250Z 25010KT 9999 OVC028 10/05 Q1033 NOSIG=
201112270220 METAR EGLL 270220Z AUTO 24010KT 9999 OVC027/// 10/05 Q1033=
201112270150 METAR EGLL 270150Z AUTO 24009KT 9999 OVC027/// 10/05 Q1033=
201112270120 METAR EGLL 270120Z AUTO 24009KT 9999 OVC028/// 10/05 Q1033=
201112270050 METAR COR EGLL 270050Z 25011KT 9999 BKN031 10/04 Q1033 NOSIG=
201112270020 METAR COR EGLL 270020Z 25012KT 9999 BKN028 10/05 Q1033 NOSIG=
201112262350 METAR COR EGLL 262350Z 25010KT 9999 BKN028 10/05 Q1034 NOSIG=
201112262320 METAR COR EGLL 262320Z 25013KT 9999 BKN026 10/05 Q1034 NOSIG=
201112262250 METAR COR EGLL 262250Z 24015KT 9999 BKN025 10/05 Q1033 NOSIG=
201112262220 METAR COR EGLL 262220Z 23011KT 9999 FEW025 BKN028 10/05 Q1033
                        NOSIG=
201112262150 METAR COR EGLL 262150Z 24014KT 200V260 9999 FEW025 BKN029
                        10/05 Q1033 NOSIG=
201112262120 METAR COR EGLL 262120Z 25016KT 9999 BKN025 10/05 Q1034 NOSIG=
201112262050 METAR COR EGLL 262050Z 24014KT 9999 BKN024 10/05 Q1034 NOSIG=
201112262020 METAR COR EGLL 262020Z 24018KT 9999 BKN026 10/05 Q1034 NOSIG=
201112261950 METAR COR EGLL 261950Z 24016KT 9999 BKN024 10/05 Q1034 NOSIG=
201112261920 METAR COR EGLL 261920Z 23014KT 200V270 9999 BKN025 10/05
                        Q1034 NOSIG=
201112261850 METAR COR EGLL 261850Z 23013G23KT 9999 OVC024 10/05 Q1034
                        NOSIG=
201112261820 METAR COR EGLL 261820Z 24013KT 9999 BKN024 11/06 Q1034 NOSIG=
201112261750 METAR COR EGLL 261750Z 22011KT 9999 SCT017 BKN030 10/07 Q1034
                        NOSIG=
201112261720 METAR COR EGLL 261720Z 22011KT 9999 BKN019 11/08 Q1033 NOSIG=
201112261650 METAR EGLL 261650Z 23009KT 9999 SCT021 SCT024 11/08 Q1033=
201112261620 METAR COR EGLL 261620Z 24010KT 9999 SCT020 SCT025 12/08 Q1033
                        NOSIG=
201112261550 METAR COR EGLL 261550Z 24011KT 9999 FEW021 BKN025 12/08 Q1033
                        NOSIG=
201112261520 METAR COR EGLL 261520Z 24014KT 9999 FEW016 SCT021 BKN037
                        12/09 Q1033 NOSIG=
201112261450 METAR COR EGLL 261450Z 24013KT 9999 FEW014 BKN017 12/09 Q1033
                        NOSIG=
201112261420 METAR COR EGLL 261420Z 25014KT 9999 BKN015 12/09 Q1033 NOSIG=
201112261350 METAR COR EGLL 261350Z 24011KT 9999 BKN014 12/09 Q1033 TEMPO
                        SCT015=
201112261320 METAR COR EGLL 261320Z 24015KT 9999 BKN013 13/09 Q1033 TEMPO
                        SCT014=
201112261250 METAR COR EGLL 261250Z 24014KT 9999 BKN014 13/09 Q1033 BECMG
                        SCT014=
201112261220 METAR COR EGLL 261220Z 23012KT 200V260 9999 BKN012 13/10
                        Q1033 BECMG SCT012=
201112261150 METAR COR EGLL 261150Z 23010KT 190V260 9999 BKN011 BKN045
                        12/10 Q1033 BECMG SCT012=
201112261120 METAR COR EGLL 261120Z 24014KT 9999 SCT013 BKN049 12/10 Q1033
                        NOSIG=
201112261050 METAR COR EGLL 261050Z 24011KT 9999 FEW011 BKN048 12/10 Q1034
                        NOSIG=
201112261020 METAR COR EGLL 261020Z 24013KT 9999 FEW012 BKN046 12/10 Q1034
                        NOSIG=
201112260950 METAR COR EGLL 260950Z 24012KT 9999 SCT013 BKN048 12/10 Q1033
                        NOSIG=
201112260920 METAR COR EGLL 260920Z 24010KT 9999 BKN013 BKN048 12/10 Q1033
                        BECMG SCT013=
201112260850 METAR COR EGLL 260850Z 23009KT 9999 BKN012 12/10 Q1033 BECMG
                        SCT012=
201112260820 METAR COR EGLL 260820Z 23010KT 9999 SCT012 BKN015 12/10 Q1033
                        NOSIG=
201112260750 METAR COR EGLL 260750Z 23012KT 9999 SCT023 BKN026 11/09 Q1033
                        NOSIG=
201112260720 METAR COR EGLL 260720Z 22011KT 9999 FEW013 BKN023 12/10 Q1033
                        NOSIG=
201112260650 METAR COR EGLL 260650Z 23010KT 9999 SCT021 BKN025 12/10 Q1033
                        NOSIG=
201112260620 METAR COR EGLL 260620Z 23011KT 9999 SCT018 BKN022 12/09 Q1033
                        TEMPO BKN014=
201112260550 METAR COR EGLL 260550Z 22011KT 9999 BKN020 12/09 Q1032 TEMPO
                        BKN014=
201112260520 METAR COR EGLL 260520Z 24011KT 9999 FEW016 BKN021 12/10 Q1032
                        TEMPO BKN012=
201112260450 METAR COR EGLL 260450Z 24010KT 9999 FEW013 BKN023 12/10 Q1032
                        TEMPO BKN012=
201112260420 METAR COR EGLL 260420Z 25011KT 9999 FEW015 BKN023 12/10 Q1032
                        TEMPO BKN012=
201112260350 METAR COR EGLL 260350Z 24012KT 9999 SCT015 BKN019 12/10 Q1032
                        TEMPO SCT007 BKN012=
201112260320 METAR COR EGLL 260320Z 24011KT 9999 SCT012 BKN019 12/10 Q1032
                        TEMPO SCT007 BKN012=
201112260250 METAR COR EGLL 260250Z 25012KT 9999 FEW014 BKN017 12/10 Q1032
                        TEMPO SCT007 BKN012=
201112260220 METAR EGLL 260220Z AUTO 25012KT 9999 FEW013/// OVC016///
                        12/09 Q1032=
201112260150 METAR EGLL 260150Z AUTO 26013KT 9999 OVC016/// 12/09 Q1032=
201112260120 METAR EGLL 260120Z AUTO 25014KT 9999 OVC016/// 12/09 Q1031=
201112260050 METAR COR EGLL 260050Z 25013KT 9999 BKN016 12/09 Q1031 TEMPO
                        BKN013=
201112260020 METAR COR EGLL 260020Z 25012KT 9999 BKN016 12/09 Q1031 TEMPO
                        BKN012=
201112252350 METAR COR EGLL 252350Z 25012KT 9999 BKN017 12/09 Q1031 TEMPO
                        BKN013=
201112252320 METAR COR EGLL 252320Z 24014KT 9999 BKN016 12/09 Q1031 TEMPO
                        BKN013=
201112252250 METAR COR EGLL 252250Z 24012KT 9999 FEW015 BKN017 12/09 Q1031
                        TEMPO BKN014=
201112252220 METAR COR EGLL 252220Z 25014KT 9999 FEW015 SCT018 BKN023
                        12/09 Q1031 TEMPO BKN014=
201112252150 METAR COR EGLL 252150Z 25014KT 9999 SCT019 BKN025 12/09 Q1031
                        TEMPO BKN014=
201112252120 METAR COR EGLL 252120Z 24011KT 9999 FEW016 BKN025 12/09 Q1031
                        TEMPO BKN014=
201112252050 METAR COR EGLL 252050Z 24012KT 9999 SCT020 SCT028 12/09 Q1030
                        TEMPO BKN014=
201112252020 METAR COR EGLL 252020Z 24014KT 9999 FEW017 BKN025 12/09 Q1030
                        TEMPO BKN014=
201112251950 METAR COR EGLL 251950Z 24012KT 9999 FEW016 BKN018 12/08 Q1030
                        BECMG BKN012=
201112251920 METAR COR EGLL 251920Z 24014KT 9999 BKN017 12/08 Q1030 BECMG
                        BKN012=
201112251850 METAR COR EGLL 251850Z 23014KT 9999 FEW015 BKN019 12/08 Q1029
                        BECMG BKN014=
201112251820 METAR COR EGLL 251820Z 23014G25KT 9999 BKN018 12/08 Q1029
                        NOSIG=
201112251750 METAR COR EGLL 251750Z 22013KT 9999 SCT020 BKN025 11/08 Q1029
                        NOSIG=
201112251720 METAR COR EGLL 251720Z 24015KT 9999 SCT021 SCT024 12/08 Q1029
                        NOSIG=
201112251650 METAR COR EGLL 251650Z 23013KT 9999 SCT022 SCT025 12/08 Q1028
                        NOSIG=
201112251620 METAR COR EGLL 251620Z 23013KT 200V260 9999 BKN021 12/08
                        Q1028 NOSIG=
201112251550 METAR COR EGLL 251550Z 24014KT 9999 BKN021 BKN025 12/08 Q1028
                        NOSIG=
201112251520 METAR COR EGLL 251520Z 23015KT 9999 BKN022 12/07 Q1027 NOSIG=
201112251450 METAR COR EGLL 251450Z 23014KT 9999 BKN023 12/07 Q1028 NOSIG=
201112251420 METAR COR EGLL 251420Z 23013KT 9999 BKN022 12/07 Q1028 NOSIG=
201112251350 METAR COR EGLL 251350Z 24014KT 9999 BKN020 12/07 Q1028 NOSIG=
201112251320 METAR COR EGLL 251320Z 24014KT 9999 BKN020 12/07 Q1028 NOSIG=
201112251250 METAR COR EGLL 251250Z 24016KT 9999 BKN021 12/07 Q1028 NOSIG=
201112251220 METAR COR EGLL 251220Z 25016KT 9999 BKN021 12/07 Q1028 NOSIG=
201112251150 METAR COR EGLL 251150Z 25016KT 9999 OVC020 11/07 Q1028 NOSIG=
201112251120 METAR COR EGLL 251120Z 24013KT 9999 OVC020 11/07 Q1029 NOSIG=
201112251050 METAR COR EGLL 251050Z 24012KT 9999 BKN020 11/07 Q1029 NOSIG=
201112251020 METAR COR EGLL 251020Z 24013KT 9999 OVC020 11/07 Q1028 NOSIG=
201112250950 METAR COR EGLL 250950Z 23012KT 9999 BKN020 11/07 Q1028 NOSIG=
201112250920 METAR COR EGLL 250920Z 23010KT 9999 BKN020 10/07 Q1028 NOSIG=
201112250850 METAR COR EGLL 250850Z 23010KT 9999 BKN022 10/07 Q1028 NOSIG=
201112250820 METAR COR EGLL 250820Z 24013KT 9999 BKN021 10/07 Q1028 NOSIG=
201112250750 METAR COR EGLL 250750Z 24012KT 9999 BKN022 10/07 Q1027 NOSIG=
201112250720 METAR COR EGLL 250720Z 23011KT 9999 BKN022 10/07 Q1027 NOSIG=
201112250650 METAR COR EGLL 250650Z 23008KT 200V260 9999 BKN022 10/07
                        Q1028 NOSIG=
201112250620 METAR COR EGLL 250620Z 24011KT 9999 BKN021 10/07 Q1027 NOSIG=
201112250550 METAR COR EGLL 250550Z 24010KT 9999 BKN019 10/07 Q1027 NOSIG=
201112250520 METAR COR EGLL 250520Z 24011KT 9999 BKN019 10/07 Q1027 NOSIG=
201112250450 METAR COR EGLL 250450Z 24009KT 9999 BKN018 10/07 Q1026 NOSIG=
201112250420 METAR COR EGLL 250420Z 24010KT 9999 BKN018 10/07 Q1026 NOSIG=
201112250350 METAR COR EGLL 250350Z 24012KT 9999 BKN019 10/07 Q1026 NOSIG=
201112250320 METAR COR EGLL 250320Z 24012KT 9999 BKN018 10/07 Q1026 NOSIG=
201112250250 METAR COR EGLL 250250Z 24011KT 9999 BKN019 10/07 Q1026 NOSIG=
201112250220 METAR EGLL 250220Z AUTO 23010KT 9999 OVC017/// 09/07 Q1027=
201112250150 METAR EGLL 250150Z AUTO 23011KT 9999 BKN017/// 09/06 Q1027=
201112250120 METAR EGLL 250120Z AUTO 23010KT 9999 OVC017/// 09/06 Q1027=
201112250050 METAR COR EGLL 250050Z 23010KT 9999 BKN020 09/06 Q1027 NOSIG=
201112250020 METAR COR EGLL 250020Z 23010KT 9999 BKN022 09/06 Q1027 NOSIG=
201112242350 METAR COR EGLL 242350Z 22010KT 9999 BKN020 09/06 Q1027 NOSIG=
201112242320 METAR COR EGLL 242320Z 23009KT 9999 BKN021 09/06 Q1027 NOSIG=
201112242250 METAR COR EGLL 242250Z 24012KT 9999 -RA BKN023 08/06 Q1027
                        NOSIG=
201112242220 METAR COR EGLL 242220Z 23012KT 9999 FEW019 BKN024 08/05 Q1027
                        NOSIG=
201112242150 METAR COR EGLL 242150Z 22011G24KT 9999 -RA BKN023 08/05 Q1027
                        NOSIG=
201112242120 METAR COR EGLL 242120Z 22011KT 9999 -RA SCT027 SCT031 08/05
                        Q1027 NOSIG=
201112242050 METAR COR EGLL 242050Z 21008KT CAVOK 07/05 Q1027 NOSIG=
201112242020 METAR COR EGLL 242020Z 23013KT 9999 SCT036 08/05 Q1027 NOSIG=
201112241950 METAR COR EGLL 241950Z 23013KT 9999 SCT044 07/04 Q1028 NOSIG=
201112241920 METAR COR EGLL 241920Z 23012KT 9999 FEW043 07/04 Q1028 NOSIG=
201112241850 METAR COR EGLL 241850Z 23010KT 9999 FEW044 07/04 Q1028 NOSIG=
201112241820 METAR COR EGLL 241820Z 24011KT 9999 FEW030 07/04 Q1028 NOSIG=
201112241750 METAR COR EGLL 241750Z 23011KT CAVOK 07/04 Q1028 NOSIG=
201112241720 METAR COR EGLL 241720Z 24013KT CAVOK 08/04 Q1027 NOSIG=
201112241650 METAR COR EGLL 241650Z 25012KT CAVOK 08/04 Q1028 NOSIG=
201112241620 METAR COR EGLL 241620Z 25013KT CAVOK 08/04 Q1028 NOSIG=
201112241550 METAR COR EGLL 241550Z 24013KT CAVOK 08/04 Q1028 NOSIG=
201112241520 METAR COR EGLL 241520Z 24012KT CAVOK 08/03 Q1028 NOSIG=
201112241450 METAR COR EGLL 241450Z 24012KT 9999 FEW020 08/03 Q1028 NOSIG=
201112241420 METAR COR EGLL 241420Z 24013KT CAVOK 08/03 Q1029 NOSIG=
201112241350 METAR COR EGLL 241350Z 24013KT CAVOK 08/03 Q1029 NOSIG=
201112241320 METAR COR EGLL 241320Z 25014KT CAVOK 08/03 Q1029 NOSIG=
201112241250 METAR COR EGLL 241250Z 26012KT CAVOK 08/03 Q1030 NOSIG=
201112241220 METAR COR EGLL 241220Z 25012KT CAVOK 08/03 Q1030 NOSIG=
201112241150 METAR COR EGLL 241150Z 26010KT CAVOK 07/03 Q1031 NOSIG=
201112241120 METAR COR EGLL 241120Z 27009KT CAVOK 07/03 Q1031 NOSIG=
201112241050 METAR COR EGLL 241050Z 26010KT CAVOK 06/03 Q1031 NOSIG=
201112241020 METAR COR EGLL 241020Z 28010KT CAVOK 06/03 Q1031 NOSIG=
201112240950 METAR COR EGLL 240950Z 27009KT CAVOK 05/02 Q1031 NOSIG=
201112240920 METAR COR EGLL 240920Z 27008KT CAVOK 04/02 Q1031 NOSIG=
201112240850 METAR COR EGLL 240850Z 27010KT CAVOK 04/01 Q1031 NOSIG=
201112240820 METAR COR EGLL 240820Z 27007KT CAVOK 04/01 Q1030 NOSIG=
201112240750 METAR COR EGLL 240750Z 27007KT CAVOK 03/01 Q1030 NOSIG=
201112240720 METAR COR EGLL 240720Z 27010KT CAVOK 03/01 Q1030 NOSIG=
201112240650 METAR COR EGLL 240650Z 26010KT CAVOK 03/00 Q1029 NOSIG=
201112240620 METAR COR EGLL 240620Z 27007KT CAVOK 02/M00 Q1029 NOSIG=
201112240550 METAR COR EGLL 240550Z 27007KT CAVOK 02/M00 Q1029 NOSIG=
201112240520 METAR COR EGLL 240520Z 28009KT CAVOK 03/M00 Q1028 NOSIG=
201112240450 METAR COR EGLL 240450Z 29007KT CAVOK 03/00 Q1028 NOSIG=
201112240420 METAR COR EGLL 240420Z 29009KT CAVOK 03/00 Q1027 NOSIG=
201112240350 METAR COR EGLL 240350Z 29008KT CAVOK 03/00 Q1027 NOSIG=
201112240320 METAR COR EGLL 240320Z 28010KT CAVOK 03/00 Q1026 NOSIG=
201112240250 METAR EGLL 240250Z AUTO 29006KT 9999 NCD 04/00 Q1026=
201112240220 METAR EGLL 240220Z AUTO 29009KT 9999 NCD 04/00 Q1025=
201112240150 METAR EGLL 240150Z AUTO 30013KT 9999 NCD 04/00 Q1025=
201112240120 METAR COR EGLL 240120Z 29013KT CAVOK 04/01 Q1024 NOSIG=
201112240050 METAR COR EGLL 240050Z 28011KT CAVOK 03/01 Q1024 NOSIG=
201112240020 METAR COR EGLL 240020Z 28008KT 9999 FEW034 03/01 Q1023 NOSIG=
201112232350 METAR COR EGLL 232350Z 29009KT 9999 FEW035 04/01 Q1023 NOSIG=
201112232320 METAR COR EGLL 232320Z 29011KT 9999 FEW044 05/01 Q1022 NOSIG=
201112232250 METAR COR EGLL 232250Z 29011KT 9999 FEW016 05/01 Q1021 NOSIG=
201112232220 METAR COR EGLL 232220Z 30010KT CAVOK 05/01 Q1021 NOSIG=
201112232150 METAR COR EGLL 232150Z 30011KT 270V330 9999 FEW031 05/01
                        Q1020 NOSIG=
201112232120 METAR COR EGLL 232120Z 30012KT 9999 FEW035 06/02 Q1019 NOSIG=
201112232050 METAR COR EGLL 232050Z 30014KT 9999 FEW027 06/02 Q1019 NOSIG=
201112232020 METAR COR EGLL 232020Z 30014KT 9999 FEW022 SCT025 06/03 Q1018
                        NOSIG=
201112231950 METAR COR EGLL 231950Z 29013KT 9999 SCT020 BKN025 06/04 Q1017
                        NOSIG=
201112231920 METAR COR EGLL 231920Z 30013KT 9999 -RA SCT015 BKN021 06/04
                        Q1016 NOSIG=
201112231850 METAR COR EGLL 231850Z 30011KT 9999 -RA SCT015 BKN022 06/04
                        Q1016 NOSIG=
201112231820 METAR COR EGLL 231820Z 31010KT 9999 -RA FEW017 BKN021 06/04
                        Q1015 NOSIG=
201112231750 METAR COR EGLL 231750Z 32012KT 9999 -RA SCT018 06/04 Q1014
                        NOSIG=
201112231720 METAR COR EGLL 231720Z 31010KT 9999 -RA SCT017 SCT025 06/04
                        Q1013 TEMPO RA BKN014=
201112231650 METAR COR EGLL 231650Z 32015G28KT 9999 -RA FEW012 BKN015
                        06/04 Q1012 TEMPO RA BKN012=
201112231620 METAR COR EGLL 231620Z 32015G26KT 6000 -RA SCT010 BKN018
                        07/05 Q1011 RERA TEMPO RA BKN010=
201112231550 METAR COR EGLL 231550Z 19012KT 8000 -RA FEW008 SCT018 10/09
                        Q1009 RERA BECMG 27025G35KT 3500
                        +RA BKN008=
201112231520 METAR COR EGLL 231520Z 20011KT 9999 RA FEW009 BKN013 10/09
                        Q1009 BECMG 27025G35KT 3500 +RA BKN009=
201112231450 METAR COR EGLL 231450Z 21011KT 9999 SCT013 BKN016 11/09 Q1010
                        TEMPO 27025G35KT 4000 +RA BKN012=
201112231420 METAR COR EGLL 231420Z 21013KT 9999 BKN012 11/09 Q1011 TEMPO
                        24025G35KT 4000 +RA=
201112231350 METAR COR EGLL 231350Z 22014KT 9999 BKN012 11/09 Q1012 TEMPO
                        23020G32KT RA=
201112231320 METAR COR EGLL 231320Z 22011KT 9999 BKN011 11/09 Q1013 TEMPO
                        23015G26KT RA=
201112231250 METAR COR EGLL 231250Z 21012KT 180V240 9999 -RA BKN011 11/09
                        Q1013 TEMPO 23015G28KT RA=
201112231220 METAR COR EGLL 231220Z 22013KT 9999 -RA BKN011 11/09 Q1014
                        TEMPO 23016G26KT=
201112231150 METAR COR EGLL 231150Z 22013KT 9999 BKN013 11/09 Q1015 TEMPO
                        23016G26KT=
201112231120 METAR COR EGLL 231120Z 23013KT 9999 FEW014 BKN017 11/08 Q1016
                        TEMPO 23016G26KT BKN013=
201112231050 METAR COR EGLL 231050Z 22013KT 180V250 9999 FEW014 BKN016
                        12/08 Q1016 TEMPO 23016G26KT BKN013=
201112231020 METAR COR EGLL 231020Z 21012KT 9999 BKN016 11/08 Q1017 TEMPO
                        22016G26KT BKN014=
201112230950 METAR COR EGLL 230950Z 22013KT 9999 SCT015 SCT035 11/08 Q1017
                        TEMPO 22016G26KT BKN014=
201112230920 METAR COR EGLL 230920Z 22011KT 9999 SCT017 BKN037 11/08 Q1017
                        TEMPO BKN014=
201112230850 METAR COR EGLL 230850Z 22010KT 9999 FEW016 BKN034 11/08 Q1018
                        NOSIG=
201112230820 METAR COR EGLL 230820Z 21009KT 9999 FEW020 BKN030 11/07 Q1018
                        NOSIG=
201112230750 METAR COR EGLL 230750Z 22009KT 9999 FEW024 BKN030 11/07 Q1018
                        NOSIG=
201112230720 METAR COR EGLL 230720Z 23012KT 9999 SCT018 SCT027 11/08 Q1019
                        NOSIG=
201112230650 METAR COR EGLL 230650Z 22011KT 9999 SCT019 SCT026 11/07 Q1019
                        NOSIG=
201112230620 METAR COR EGLL 230620Z 23013KT 9999 SCT020 BKN028 11/08 Q1019
                        NOSIG=
201112230550 METAR EGLL 230550Z 22014KT 9999 BKN020 11/07 Q1020=
201112230520 METAR COR EGLL 230520Z 23012KT 9999 BKN022 11/07 Q1020 NOSIG=
201112230450 METAR COR EGLL 230450Z 23013KT 9999 BKN023 11/07 Q1021 NOSIG=
201112230420 METAR COR EGLL 230420Z 23013KT 9999 BKN025 11/07 Q1021 NOSIG=
201112230350 METAR COR EGLL 230350Z 23011KT 9999 BKN026 11/07 Q1021 NOSIG=
201112230320 METAR COR EGLL 230320Z 24012KT 9999 BKN028 11/07 Q1022 NOSIG=
201112230250 METAR COR EGLL 230250Z 24011KT 9999 BKN029 11/08 Q1022 NOSIG=
201112230220 METAR EGLL 230220Z AUTO 24011KT 9999 OVC027/// 11/08 Q1022=
201112230150 METAR EGLL 230150Z AUTO 23010KT 9999 OVC030/// 11/08 Q1023=
201112230120 METAR EGLL 230120Z AUTO 22009KT 9999 OVC031/// 11/08 Q1023=
201112230050 METAR COR EGLL 230050Z 23008KT 9999 BKN033 11/09 Q1023 NOSIG=
201112230020 METAR COR EGLL 230020Z 23009KT 9999 BKN034 11/09 Q1023 NOSIG=
201112222350 METAR COR EGLL 222350Z 24010KT 9999 BKN038 11/09 Q1024 NOSIG=
201112222320 METAR COR EGLL 222320Z 23010KT 9999 BKN040 11/09 Q1024 NOSIG=
201112222250 METAR COR EGLL 222250Z 24010KT 9999 BKN038 11/09 Q1024 NOSIG=
201112222220 METAR COR EGLL 222220Z 25011KT 9999 SCT041 11/09 Q1025 NOSIG=
201112222150 METAR COR EGLL 222150Z 24010KT 190V260 9999 SCT009 BKN041
                        11/09 Q1025 NOSIG=
201112222120 METAR COR EGLL 222120Z 24009KT 210V270 9999 BKN009 11/09
                        Q1025 BECMG FEW012 BKN040=
201112222050 METAR COR EGLL 222050Z 25011KT 9999 BKN011 11/09 Q1025 BECMG
                        FEW013 BKN040=
201112222020 METAR COR EGLL 222020Z 25010KT 9999 BKN013 BKN032 11/08 Q1025
                        BECMG FEW013=
201112221950 METAR COR EGLL 221950Z 26010KT 9999 FEW014 BKN033 11/08 Q1025
                        NOSIG=
201112221920 METAR COR EGLL 221920Z 27011KT 9999 BKN033 11/08 Q1025 TEMPO
                        BKN014=
201112221850 METAR COR EGLL 221850Z 27009KT 9999 BKN032 11/08 Q1025 NOSIG=
201112221820 METAR COR EGLL 221820Z 26008KT 9999 BKN032 11/08 Q1025 NOSIG=
201112221750 METAR COR EGLL 221750Z 27010KT 9999 BKN032 10/08 Q1025 NOSIG=
201112221720 METAR COR EGLL 221720Z 27010KT 9999 BKN030 10/07 Q1025 NOSIG=
201112221650 METAR COR EGLL 221650Z 27009KT 9999 SCT028 10/07 Q1025 NOSIG=
201112221620 METAR COR EGLL 221620Z 26008KT CAVOK 11/07 Q1025 NOSIG=
201112221550 METAR COR EGLL 221550Z 27011KT 9999 FEW028 11/07 Q1025 NOSIG=
201112221520 METAR COR EGLL 221520Z 27012KT 9999 FEW016 11/07 Q1025 NOSIG=
201112221450 METAR COR EGLL 221450Z 27008KT 9999 FEW016 12/08 Q1025 NOSIG=
201112221420 METAR COR EGLL 221420Z 27011KT 9999 FEW016 12/08 Q1025 NOSIG=
201112221350 METAR COR EGLL 221350Z 27010KT 9999 FEW019 12/08 Q1025 NOSIG=
201112221320 METAR COR EGLL 221320Z 27010KT 9999 FEW019 12/08 Q1025 NOSIG=
201112221250 METAR COR EGLL 221250Z 27010KT 9999 FEW019 12/09 Q1025 NOSIG=
201112221220 METAR COR EGLL 221220Z 27011KT 9999 FEW016 12/08 Q1025 NOSIG=
201112221150 METAR COR EGLL 221150Z 28011KT 9999 FEW017 12/08 Q1025 NOSIG=
201112221120 METAR COR EGLL 221120Z 28012KT 9999 FEW017 11/08 Q1025 NOSIG=
201112221050 METAR COR EGLL 221050Z 27009KT 9999 FEW015 11/08 Q1026 NOSIG=
201112221020 METAR COR EGLL 221020Z 25009KT 9999 FEW015 11/08 Q1026 NOSIG=
201112220950 METAR COR EGLL 220950Z 26007KT CAVOK 10/08 Q1026 NOSIG=
201112220920 METAR COR EGLL 220920Z 25009KT CAVOK 10/08 Q1025 NOSIG=
201112220850 METAR COR EGLL 220850Z 23007KT 9999 FEW012 09/07 Q1025 NOSIG=
201112220820 METAR COR EGLL 220820Z 23009KT 9000 FEW010 09/07 Q1025 TEMPO
                        BKN008=
201112220750 METAR COR EGLL 220750Z 25010KT 9999 FEW009 09/07 Q1025 TEMPO
                        BKN009=
201112220720 METAR COR EGLL 220720Z 25010KT CAVOK 09/07 Q1025 NOSIG=
201112220650 METAR COR EGLL 220650Z 27009KT CAVOK 09/07 Q1025 NOSIG=
201112220620 METAR COR EGLL 220620Z 27010KT CAVOK 08/07 Q1025 NOSIG=
201112220550 METAR COR EGLL 220550Z 28010KT CAVOK 08/07 Q1024 NOSIG=
201112220520 METAR COR EGLL 220520Z 28009KT CAVOK 09/07 Q1024 NOSIG=
201112220450 METAR COR EGLL 220450Z 28008KT CAVOK 09/07 Q1024 NOSIG=
201112220420 METAR COR EGLL 220420Z 27007KT CAVOK 09/07 Q1024 NOSIG=
201112220350 METAR COR EGLL 220350Z VRB03KT CAVOK 09/07 Q1024 NOSIG=
201112220320 METAR COR EGLL 220320Z 27008KT CAVOK 09/07 Q1023 NOSIG=
201112220250 METAR COR EGLL 220250Z 26008KT CAVOK 09/07 Q1023 NOSIG=
201112220220 METAR EGLL 220220Z AUTO 26008KT 9999 NCD 10/07 Q1023=
201112220150 METAR EGLL 220150Z AUTO 27006KT 9999 NCD 09/07 Q1023=
201112220120 METAR EGLL 220120Z AUTO 28007KT 9999 NCD 10/08 Q1023=
201112220050 METAR COR EGLL 220050Z 27007KT CAVOK 10/08 Q1023 NOSIG=
201112220020 METAR COR EGLL 220020Z 27007KT CAVOK 10/08 Q1023 NOSIG=
201112212350 METAR COR EGLL 212350Z 28009KT CAVOK 09/08 Q1023 NOSIG=
201112212320 METAR COR EGLL 212320Z 28009KT CAVOK 10/08 Q1023 NOSIG=
201112212250 METAR COR EGLL 212250Z 28011KT CAVOK 11/08 Q1023 NOSIG=
201112212220 METAR COR EGLL 212220Z 28009KT CAVOK 10/08 Q1022 NOSIG=
201112212150 METAR COR EGLL 212150Z 28008KT CAVOK 11/09 Q1022 NOSIG=
201112212120 METAR COR EGLL 212120Z 29007KT CAVOK 11/09 Q1022 NOSIG=
201112212050 METAR COR EGLL 212050Z 28007KT CAVOK 12/09 Q1022 NOSIG=
201112212020 METAR COR EGLL 212020Z 30006KT CAVOK 12/09 Q1021 NOSIG=
201112211950 METAR COR EGLL 211950Z 29007KT 9999 FEW047 12/09 Q1021 NOSIG=
201112211920 METAR COR EGLL 211920Z 30008KT CAVOK 12/09 Q1021 NOSIG=
201112211850 METAR COR EGLL 211850Z 30005KT 260V330 CAVOK 11/09 Q1020
                        NOSIG=
201112211820 METAR COR EGLL 211820Z 28007KT CAVOK 12/10 Q1020=
201112211750 METAR COR EGLL 211750Z 28006KT CAVOK 12/10 Q1020 NOSIG=
201112211720 METAR COR EGLL 211720Z 28008KT 9999 BKN049 12/10 Q1020 NOSIG=
201112211650 METAR COR EGLL 211650Z 28009KT 9999 SCT017 BKN026 12/10 Q1020
                        NOSIG=
201112211620 METAR COR EGLL 211620Z 28011KT 9999 SCT018 11/10 Q1019 NOSIG=
201112211550 METAR COR EGLL 211550Z 28011KT CAVOK 12/10 Q1019 NOSIG=
201112211520 METAR COR EGLL 211520Z 29011KT 9999 SCT022 BKN047 13/10 Q1019
                        NOSIG=
201112211450 METAR COR EGLL 211450Z 28009KT 9999 FEW015 SCT017 13/11 Q1018
                        NOSIG=
201112211420 METAR COR EGLL 211420Z 27008KT 9999 SCT015 SCT029 13/11 Q1018
                        NOSIG=
201112211350 METAR COR EGLL 211350Z 28010KT 9999 FEW018 BKN020 13/11 Q1018
                        NOSIG=
201112211320 METAR COR EGLL 211320Z 27007KT 9999 FEW014 BKN015 12/10 Q1018
                        NOSIG=
201112211250 METAR COR EGLL 211250Z 28007KT 9999 FEW013 BKN019 12/10 Q1018
                        NOSIG=
201112211220 METAR COR EGLL 211220Z 28006KT 9999 SCT016 BKN021 12/10 Q1018
                        NOSIG=
201112211150 METAR COR EGLL 211150Z 28006KT 9999 FEW012 SCT018 BKN024
                        12/10 Q1018 NOSIG=
201112211120 METAR COR EGLL 211120Z 29006KT 9999 BKN017 12/10 Q1018 NOSIG=
201112211050 METAR COR EGLL 211050Z 29006KT 9999 BKN017 11/10 Q1017 NOSIG=
201112211020 METAR EGLL 211020Z 29006KT 9000 BKN014 11/10 Q1017=
201112210950 METAR COR EGLL 210950Z 28006KT 7000 BKN013 BKN020 10/09 Q1017
                        TEMPO SCT014=
201112210920 METAR COR EGLL 210920Z 28007KT 4800 BR FEW003 SCT015 BKN024
                        10/09 Q1016 BECMG 7000 BKN014=
201112210850 METAR COR EGLL 210850Z 28008KT 4800 BR FEW002 BKN021 09/09
                        Q1016 TEMPO 6000 BKN007=
201112210820 METAR COR EGLL 210820Z 28007KT 2800 BR SCT003 SCT025 09/08
                        Q1015 TEMPO 6000 BKN007=
201112210750 METAR COR EGLL 210750Z 28007KT 3000 BR SCT004 SCT032 09/08
                        Q1015 TEMPO 5000 BKN007=
201112210720 METAR COR EGLL 210720Z 28007KT 2800 BR FEW005 SCT015 09/08
                        Q1015 TEMPO 6000 BKN007=
201112210650 METAR COR EGLL 210650Z 28005KT 9000 FEW006 BKN008 08/07 Q1015
                        TEMPO 4500 BR=
201112210620 METAR COR EGLL 210620Z 25005KT 9000 BKN005 BKN008 08/07 Q1014
                        TEMPO FEW005 BKN009=
201112210550 METAR COR EGLL 210550Z 22005KT 9999 FEW005 BKN006 07/07 Q1014
                        TEMPO 6000 BKN004=
201112210520 METAR COR EGLL 210520Z 23005KT 190V260 9999 FEW002 BKN008
                        07/07 Q1014 TEMPO 6000 BKN004=
201112210450 METAR COR EGLL 210450Z 22005KT 9999 SCT002 BKN009 07/07 Q1014
                        TEMPO 4500 DZ BKN003=
201112210420 METAR COR EGLL 210420Z 23005KT 190V260 6000 FEW001 BKN003
                        07/06 Q1014 TEMPO 3000 BR BKN002=
201112210350 METAR COR EGLL 210350Z 19005KT 2300 BR SCT001 BKN002 07/06
                        Q1014 BECMG FEW001 BKN003=
201112210320 METAR COR EGLL 210320Z 19005KT 2200 -DZ FEW001 BKN002 06/06
                        Q1015 TEMPO FEW002 BKN003=
201112210250 METAR COR EGLL 210250Z 17004KT 2300 BR FEW002 BKN003 06/06
                        Q1015 TEMPO BKN002=
201112210220 METAR EGLL 210220Z AUTO 15006KT 3600 -RA BKN006/// 06/05
                        Q1016=
201112210150 METAR EGLL 210150Z AUTO 18005KT 4400 -DZ SCT008/// BKN017///
                        06/05 Q1016=
201112210120 METAR EGLL 210120Z AUTO 17005KT 5000 -RA FEW015/// SCT022///
                        BKN025/// 06/05 Q1017=
201112210050 METAR COR EGLL 210050Z 20005KT 8000 -RA BKN020 06/05 Q1017
                        BECMG 4500 RADZ BKN014=
201112210020 METAR COR EGLL 210020Z 21005KT 7000 -RA BKN026 06/05 Q1018
                        NOSIG=
201112202350 METAR COR EGLL 202350Z 22005KT 8000 -RA SCT034 BKN043 06/05
                        Q1018 NOSIG=
201112202320 METAR COR EGLL 202320Z 23005KT 9999 -RA BKN048 06/05 Q1018
                        NOSIG=
201112202250 METAR COR EGLL 202250Z 24008KT 9999 -RA BKN040 06/05 Q1018
                        NOSIG=
201112202220 METAR COR EGLL 202220Z 24008KT 9999 -RA BKN035 06/04 Q1018
                        NOSIG=
201112202150 METAR COR EGLL 202150Z 25010KT 9999 -RA FEW040 07/04 Q1019
                        NOSIG=
201112202120 METAR COR EGLL 202120Z 25010KT 9999 -RA NSC 07/04 Q1019 NOSIG=
201112202050 METAR COR EGLL 202050Z 24008KT CAVOK 07/03 Q1019 NOSIG=
201112202020 METAR EGLL 202020Z 21006KT 170V250 CAVOK 06/03 Q1019=
201112201950 METAR COR EGLL 201950Z 21007KT 180V240 CAVOK 06/03 Q1019
                        NOSIG=
201112201920 METAR COR EGLL 201920Z 25009KT CAVOK 06/03 Q1020 NOSIG=
201112201850 METAR COR EGLL 201850Z 24007KT CAVOK 06/03 Q1019 NOSIG=
201112201820 METAR COR EGLL 201820Z 25008KT CAVOK 07/03 Q1019 NOSIG=
201112201750 METAR COR EGLL 201750Z 26009KT CAVOK 06/02 Q1019 NOSIG=
201112201720 METAR EGLL 201720Z 27010KT CAVOK 06/02 Q1019=
201112201650 METAR COR EGLL 201650Z 28008KT CAVOK 06/02 Q1019 NOSIG=
201112201620 METAR COR EGLL 201620Z 29008KT CAVOK 06/03 Q1018 NOSIG=
201112201550 METAR COR EGLL 201550Z 28009KT CAVOK 07/03 Q1018 NOSIG=
201112201520 METAR COR EGLL 201520Z 30006KT CAVOK 07/02 Q1018 NOSIG=
201112201450 METAR COR EGLL 201450Z 30008KT CAVOK 08/02 Q1018 NOSIG=
201112201420 METAR COR EGLL 201420Z 30008KT CAVOK 08/03 Q1017 NOSIG=
201112201350 METAR COR EGLL 201350Z 29010KT CAVOK 08/03 Q1017 NOSIG=
201112201320 METAR COR EGLL 201320Z 30012KT 9999 FEW010 08/02 Q1017 NOSIG=
201112201250 METAR COR EGLL 201250Z 31013KT 9999 FEW010 08/02 Q1016 NOSIG=
201112201220 METAR COR EGLL 201220Z 30010KT 270V330 CAVOK 08/02 Q1016
                        NOSIG=
201112201150 METAR COR EGLL 201150Z 31011KT CAVOK 08/02 Q1016 NOSIG=
201112201120 METAR COR EGLL 201120Z 30012G22KT CAVOK 08/03 Q1016 NOSIG=
201112201050 METAR EGLL 201050Z 30010KT CAVOK 08/03 Q1016=
201112201020 METAR COR EGLL 201020Z 30010KT CAVOK 07/03 Q1016 NOSIG=
201112200950 METAR COR EGLL 200950Z 29009KT CAVOK 07/03 Q1015 NOSIG=
201112200920 METAR COR EGLL 200920Z 28010KT CAVOK 06/03 Q1014 NOSIG=
201112200850 METAR COR EGLL 200850Z 28010KT 9999 FEW036 06/03 Q1014 NOSIG=
201112200820 METAR COR EGLL 200820Z 29008KT 9999 FEW036 06/03 Q1014 NOSIG=
201112200750 METAR COR EGLL 200750Z 30009KT 9999 FEW040 06/03 Q1013 NOSIG=
201112200720 METAR COR EGLL 200720Z 29009KT 9999 FEW038 07/03 Q1013 NOSIG=
201112200650 METAR COR EGLL 200650Z 29011KT 9999 FEW039 06/03 Q1013 NOSIG=
201112200620 METAR COR EGLL 200620Z 28007KT 9999 FEW038 05/03 Q1012 NOSIG=
201112200550 METAR COR EGLL 200550Z 27006KT 9999 FEW038 05/03 Q1012 NOSIG=
201112200520 METAR COR EGLL 200520Z 27007KT 9999 SCT038 06/03 Q1012 NOSIG=
201112200450 METAR COR EGLL 200450Z 27005KT 9999 SCT036 05/03 Q1011 NOSIG=
201112200420 METAR COR EGLL 200420Z 27006KT 9999 BKN040 06/04 Q1011 NOSIG=
201112200350 METAR COR EGLL 200350Z 27005KT CAVOK 06/04 Q1011 NOSIG=
201112200320 METAR COR EGLL 200320Z 27006KT CAVOK 06/04 Q1011 NOSIG=
201112200250 METAR EGLL 200250Z 24005KT CAVOK 06/04 Q1010=
201112200220 METAR EGLL 200220Z AUTO 22006KT 9999 NCD 06/04 Q1010=
201112200150 METAR EGLL 200150Z AUTO 26004KT 9999 NCD 07/04 Q1010=
201112200120 METAR EGLL 200120Z AUTO 28005KT 9999 NCD 06/04 Q1011=
201112200050 METAR EGLL 200050Z 27002KT CAVOK 06/04 Q1010=
201112200020 METAR EGLL 200020Z 28005KT CAVOK 07/04 Q1010=
201112192350 METAR COR EGLL 192350Z 28008KT CAVOK 07/05 Q1010 NOSIG=
201112192320 METAR COR EGLL 192320Z 27007KT CAVOK 07/05 Q1010 NOSIG=
201112192250 METAR COR EGLL 192250Z 28010KT CAVOK 07/05 Q1010 NOSIG=
201112192220 METAR COR EGLL 192220Z 27013KT CAVOK 07/05 Q1010 NOSIG=
201112192150 METAR COR EGLL 192150Z 28007KT CAVOK 07/05 Q1009 NOSIG=
201112192120 METAR COR EGLL 192120Z 28008KT 9000 NSC 07/06 Q1010 NOSIG=
201112192050 METAR COR EGLL 192050Z 28010KT 8000 NSC 07/06 Q1009 NOSIG=
201112192020 METAR COR EGLL 192020Z 28008KT 8000 NSC 06/05 Q1009 NOSIG=
201112191950 METAR COR EGLL 191950Z 28007KT 6000 FEW006 06/05 Q1010 NOSIG=
201112191920 METAR COR EGLL 191920Z 28008KT 7000 FEW003 SCT006 06/05 Q1010
                        NOSIG=
201112191850 METAR COR EGLL 191850Z 26009KT 6000 SCT005 BKN007 06/05 Q1009
                        BECMG 9999 BKN015=
201112191820 METAR COR EGLL 191820Z 24008KT 5000 -RADZ FEW002 SCT004 OVC011
                        06/05 Q1009 TEMPO BKN005=
201112191750 METAR COR EGLL 191750Z 20007KT 160V250 4900 -RADZ SCT002
                        BKN013 06/05 Q1009 TEMPO 7000 -DZ
                        BKN005=
201112191720 METAR COR EGLL 191720Z 20008KT 170V240 5000 -RADZ FEW006
                        BKN013 06/05 Q1009 TEMPO 4500 RADZ
                        BKN006=
201112191650 METAR COR EGLL 191650Z 21009KT 180V250 7000 -RA SCT016 BKN024
                        06/05 Q1009 TEMPO 4500 RADZ BKN012=
201112191620 METAR COR EGLL 191620Z 20009KT 160V240 7000 -RA FEW012 BKN024
                        06/05 Q1010 TEMPO 4500 RADZ BKN012=
201112191550 METAR COR EGLL 191550Z 22008KT 170V270 9000 -RA SCT013 BKN030
                        06/05 Q1010 BECMG BKN012=
201112191520 METAR COR EGLL 191520Z 21008KT 180V240 9000 -RA FEW012 BKN029
                        05/04 Q1011 TEMPO 4500 RA BKN012=
201112191450 METAR COR EGLL 191450Z 21008KT 190V260 9999 -RA FEW006 BKN026
                        05/04 Q1011 TEMPO 4500 RA BKN014=
201112191420 METAR COR EGLL 191420Z 21008KT 180V250 9999 -RA FEW005 BKN028
                        05/04 Q1012 TEMPO 4500 RA BKN014=
201112191350 METAR COR EGLL 191350Z 20007KT 9999 -RA FEW005 BKN028 05/04
                        Q1012 TEMPO 4500 RA=
201112191320 METAR COR EGLL 191320Z 21006KT 180V250 9999 -RA SCT031 SCT036
                        05/04 Q1013 NOSIG=
201112191250 METAR COR EGLL 191250Z 21006KT 9999 -RA FEW033 05/03 Q1014
                        NOSIG=
201112191220 METAR COR EGLL 191220Z 21005KT 180V250 9999 -RA SCT025 SCT030
                        04/03 Q1014 NOSIG=
201112191150 METAR COR EGLL 191150Z 21005KT 180V270 7000 -RA BKN025 04/02
                        Q1015 TEMPO 4500 RA=
201112191120 METAR COR EGLL 191120Z 21005KT 160V250 9999 FEW030 04/02
                        Q1015 NOSIG=
201112191050 METAR EGLL 191050Z 20005KT 150V240 CAVOK 03/02 Q1016 NOSIG=
201112191020 METAR COR EGLL 191020Z 21005KT 170V260 CAVOK 03/01 Q1016
                        NOSIG=
201112190950 METAR COR EGLL 190950Z 21006KT 170V260 9999 FEW048 03/02
                        Q1017 NOSIG=
201112190920 METAR COR EGLL 190920Z 21006KT 9000 NSC 02/01 Q1017 NOSIG=
201112190850 METAR COR EGLL 190850Z 22006KT CAVOK 02/01 Q1017 NOSIG=
201112190820 METAR COR EGLL 190820Z 22005KT 9999 SCT043 SCT049 01/00 Q1017
                        NOSIG=
201112190750 METAR COR EGLL 190750Z 22005KT 200V260 9999 FEW046 01/00
                        Q1017 NOSIG=
201112190720 METAR COR EGLL 190720Z 21005KT 170V260 9999 SCT049 01/00
                        Q1017 BECMG -DZ BKN014=
201112190650 METAR COR EGLL 190650Z 22005KT 9999 BKN045 01/00 Q1017 BECMG
                        -DZ BKN014=
201112190620 METAR COR EGLL 190620Z 21005KT 180V270 9999 BKN025 01/00
                        Q1018 BECMG BKN014=
201112190550 METAR COR EGLL 190550Z 20002KT 9999 SCT026 SCT035 01/M00
                        Q1018 TEMPO 4000 BR=
201112190520 METAR COR EGLL 190520Z 00000KT 9999 BKN035 01/M00 Q1018 TEMPO
                        4000 BR=
201112190450 METAR COR EGLL 190450Z 29002KT 9999 FEW026 BKN036 00/M01
                        Q1018 TEMPO 4000 BR=
201112190420 METAR COR EGLL 190420Z 19002KT 9999 BKN038 BKN043 00/M01
                        Q1018 TEMPO 4000 BR=
201112190350 METAR COR EGLL 190350Z 00000KT 9999 SCT042 M01/M02 Q1018
                        TEMPO 4000 BR=
201112190320 METAR COR EGLL 190320Z 15002KT 9000 NSC M02/M03 Q1018 TEMPO
                        4000 BR=
201112190250 METAR COR EGLL 190250Z VRB03KT CAVOK M01/M02 Q1018 TEMPO
                        4000 BR=
201112190220 METAR EGLL 190220Z AUTO 18003KT 9999 NCD M01/M02 Q1019=
201112190150 METAR EGLL 190150Z AUTO VRB02KT 9999 NCD M01/M02 Q1019=
201112190120 METAR EGLL 190120Z AUTO 25003KT 9999 NCD M01/M02 Q1019=
201112190050 METAR EGLL 190050Z 22002KT CAVOK M01/M02 Q1019=
201112190020 METAR COR EGLL 190020Z 26003KT CAVOK M01/M02 Q1019 NOSIG=
201112182350 METAR COR EGLL 182350Z 27004KT CAVOK M01/M02 Q1019 NOSIG=
201112182320 METAR COR EGLL 182320Z 29004KT CAVOK 00/M02 Q1019 NOSIG=
201112182250 METAR COR EGLL 182250Z 29007KT CAVOK 01/M01 Q1019 NOSIG=
201112182220 METAR COR EGLL 182220Z 28006KT CAVOK 01/M01 Q1019 NOSIG=
201112182150 METAR COR EGLL 182150Z 29005KT CAVOK 02/M01 Q1019 NOSIG=
201112182120 METAR COR EGLL 182120Z 30004KT CAVOK 02/M01 Q1019 NOSIG=
201112182050 METAR COR EGLL 182050Z 31004KT CAVOK 02/M01 Q1018 NOSIG=
201112182020 METAR COR EGLL 182020Z 29005KT CAVOK 02/M01 Q1018 NOSIG=
201112181950 METAR EGLL 181950Z 29006KT CAVOK 02/M01 Q1018=
201112181920 METAR COR EGLL 181920Z VRB02KT CAVOK 03/M01 Q1018 NOSIG=
201112181850 METAR COR EGLL 181850Z 30005KT CAVOK 03/M01 Q1018 NOSIG=
201112181820 METAR COR EGLL 181820Z 31005KT CAVOK 03/M01 Q1018 NOSIG=
201112181750 METAR COR EGLL 181750Z 31006KT 9999 FEW030 03/M01 Q1018 NOSIG=
201112181720 METAR COR EGLL 181720Z 32007KT 9999 FEW013 03/M00 Q1017 NOSIG=
201112181650 METAR COR EGLL 181650Z 30006KT 9999 FEW013CB 04/00 Q1017
                        NOSIG=
201112181620 METAR COR EGLL 181620Z 31006KT 9999 VCSH FEW013CB 04/01 Q1017
                        NOSIG=
201112181550 METAR COR EGLL 181550Z 29006KT 9999 VCSH SCT013CB SCT027
                        04/01 Q1016 NOSIG=
201112181520 METAR COR EGLL 181520Z 29006KT 9999 VCSH SCT013CB SCT027
                        04/02 Q1016 NOSIG=
201112181450 METAR COR EGLL 181450Z 29008KT 9999 4000E -SHRA SCT009 BKN025
                        04/02 Q1016 RERA BECMG NSW=
201112181420 METAR COR EGLL 181420Z 29010KT 7000 SHRA FEW009 BKN025 05/02
                        Q1016 BECMG NSW=
201112181350 METAR COR EGLL 181350Z 29010KT 9999 FEW023 BKN026 06/01 Q1016
                        NOSIG=
201112181320 METAR COR EGLL 181320Z 30011KT 9999 SCT027 BKN036 06/01 Q1016
                        NOSIG=
201112181250 METAR COR EGLL 181250Z 29012KT 9999 SCT022 SCT037 05/01 Q1016
                        NOSIG=
201112181220 METAR COR EGLL 181220Z 28011KT 9999 SCT030 05/01 Q1016 NOSIG=
201112181150 METAR COR EGLL 181150Z 28014KT 9999 FEW031 04/01 Q1016 NOSIG=
201112181120 METAR COR EGLL 181120Z 27014KT CAVOK 03/00 Q1016 NOSIG=
201112181050 METAR COR EGLL 181050Z 27014KT CAVOK 03/M00 Q1016 NOSIG=
201112181020 METAR COR EGLL 181020Z 28010KT CAVOK 03/00 Q1017 NOSIG=
201112180950 METAR COR EGLL 180950Z 28009KT CAVOK 02/M00 Q1017 NOSIG=
201112180920 METAR COR EGLL 180920Z 27013KT CAVOK 02/M01 Q1017 NOSIG=
201112180850 METAR COR EGLL 180850Z 27010KT CAVOK 01/M01 Q1017 NOSIG=
201112180820 METAR COR EGLL 180820Z 29008KT CAVOK 00/M01 Q1016 NOSIG=
201112180750 METAR COR EGLL 180750Z 28004KT CAVOK 01/M01 Q1016 NOSIG=
201112180720 METAR COR EGLL 180720Z 28007KT CAVOK M00/M01 Q1016 NOSIG=
201112180650 METAR COR EGLL 180650Z 28006KT CAVOK M00/M02 Q1016 NOSIG=
201112180620 METAR COR EGLL 180620Z 29004KT CAVOK M00/M01 Q1016 NOSIG=
201112180550 METAR COR EGLL 180550Z VRB03KT CAVOK M00/M02 Q1016 NOSIG=
201112180520 METAR COR EGLL 180520Z 29004KT CAVOK 01/M01 Q1016 NOSIG=
201112180450 METAR COR EGLL 180450Z 30004KT CAVOK 01/M01 Q1016 NOSIG=
201112180420 METAR COR EGLL 180420Z 31005KT 9999 FEW013 01/M01 Q1015 NOSIG=
201112180350 METAR COR EGLL 180350Z 31003KT 9999 FEW013 01/M01 Q1015 NOSIG=
201112180320 METAR COR EGLL 180320Z VRB03KT CAVOK 01/M01 Q1015 NOSIG=
201112180250 METAR EGLL 180250Z AUTO 30005KT 9999 NCD 01/M01 Q1015=
201112180220 METAR EGLL 180220Z AUTO 30006KT 9999 NCD 01/M01 Q1015=
201112180150 METAR EGLL 180150Z AUTO 30008KT 9999 NCD 01/M01 Q1014=
201112180120 METAR COR EGLL 180120Z 30009KT CAVOK 01/M01 Q1014 NOSIG=
201112180050 METAR COR EGLL 180050Z 29007KT CAVOK 01/M01 Q1014 NOSIG=
201112180020 METAR COR EGLL 180020Z 29006KT CAVOK 01/M01 Q1014 NOSIG=
201112172350 METAR COR EGLL 172350Z 31005KT CAVOK 02/M01 Q1014 NOSIG=
201112172320 METAR COR EGLL 172320Z 31007KT CAVOK 02/M01 Q1014 NOSIG=
201112172250 METAR COR EGLL 172250Z 31008KT CAVOK 03/M00 Q1013 NOSIG=
201112172220 METAR COR EGLL 172220Z 31007KT 280V340 9999 FEW038 04/00
                        Q1013 NOSIG=
201112172150 METAR COR EGLL 172150Z 31009KT 9999 SCT020 04/00 Q1012 NOSIG=
201112172120 METAR COR EGLL 172120Z 32007KT 280V350 9999 FEW022 BKN029
                        04/01 Q1012 NOSIG=
201112172050 METAR COR EGLL 172050Z 32010KT 9999 FEW020 BKN030 04/01 Q1012
                        NOSIG=
201112172020 METAR COR EGLL 172020Z 31010KT 9999 BKN040 04/01 Q1011 NOSIG=
201112171950 METAR COR EGLL 171950Z 30011KT 9999 FEW018 BKN047 04/01 Q1011
                        NOSIG=
201112171920 METAR COR EGLL 171920Z 30010KT 9999 SCT020 BKN042 04/01 Q1011
                        NOSIG=
201112171850 METAR COR EGLL 171850Z 29012KT 9999 SCT035 BKN041 04/01 Q1010
                        NOSIG=
201112171820 METAR EGLL 171820Z 28009KT 9999 FEW023 SCT042 04/01 Q1010=
201112171750 METAR COR EGLL 171750Z 29009KT 9999 FEW023 04/01 Q1010 NOSIG=
201112171720 METAR COR EGLL 171720Z 31007KT 9999 VCSH SCT019 05/01 Q1010
                        NOSIG=
201112171650 METAR COR EGLL 171650Z 29008KT 9999 FEW022 BKN031 05/01 Q1009
                        NOSIG=
201112171620 METAR COR EGLL 171620Z 28012KT 9999 FEW028 BKN031 05/01 Q1009
                        NOSIG=
201112171550 METAR COR EGLL 171550Z 29010KT 9999 BKN028 05/01 Q1009 NOSIG=
201112171520 METAR COR EGLL 171520Z 28010KT 9999 SCT025 SCT029 05/01 Q1009
                        NOSIG=
201112171450 METAR COR EGLL 171450Z 29009KT 9999 SCT024 05/01 Q1009 NOSIG=
201112171420 METAR COR EGLL 171420Z 29012KT 9999 FEW028 05/01 Q1009 NOSIG=
201112171350 METAR COR EGLL 171350Z 28013KT 9999 FEW020 06/02 Q1009 NOSIG=
201112171320 METAR COR EGLL 171320Z 28011KT 9999 FEW016 06/02 Q1009 NOSIG=
201112171250 METAR COR EGLL 171250Z 29010KT 9999 FEW012 06/03 Q1009 NOSIG=
201112171220 METAR COR EGLL 171220Z 28012KT 9999 FEW012 05/03 Q1009 NOSIG=
201112171150 METAR COR EGLL 171150Z 27014KT CAVOK 04/02 Q1009 NOSIG=
201112171120 METAR COR EGLL 171120Z 27014KT CAVOK 04/02 Q1009 NOSIG=
201112171050 METAR COR EGLL 171050Z 27011KT 9999 FEW042 03/02 Q1009 NOSIG=
201112171020 METAR COR EGLL 171020Z 29008KT 9999 FEW034 SCT042 02/01 Q1009
                        NOSIG=
201112170950 METAR COR EGLL 170950Z 28012KT 9000 -SHRAGS BKN020 02/01
                        Q1009 BECMG CAVOK=
201112170920 METAR COR EGLL 170920Z 27011KT 9999 VCSH FEW010CB 02/00 Q1009
                        TEMPO 6000 -SHRAGS BKN014=
201112170850 METAR COR EGLL 170850Z 27009KT CAVOK 01/M00 Q1009 TEMPO 6000
                        -SHRAGS BKN014=
201112170820 METAR COR EGLL 170820Z 27009KT CAVOK 01/M01 Q1009 TEMPO 6000
                        -SHRAGS BKN014=
201112170750 METAR COR EGLL 170750Z 28009KT CAVOK 01/M00 Q1008 TEMPO 6000
                        -SHRAGS BKN014=
201112170720 METAR COR EGLL 170720Z 27010KT CAVOK 01/M00 Q1008 NOSIG=
201112170650 METAR COR EGLL 170650Z 27008KT CAVOK 01/M00 Q1008 NOSIG=
201112170620 METAR COR EGLL 170620Z 27007KT 8000 NSC 00/M01 Q1008 NOSIG=
201112170550 METAR COR EGLL 170550Z 28007KT 7000 NSC M01/M02 Q1007 NOSIG=
201112170520 METAR COR EGLL 170520Z 25004KT 7000 NSC 00/M01 Q1007 NOSIG=
201112170450 METAR COR EGLL 170450Z 27006KT 7000 NSC M00/M01 Q1007 TEMPO
                        4000 BR=
201112170420 METAR COR EGLL 170420Z 28005KT 7000 NSC M01/M02 Q1007 TEMPO
                        4000 BR=
201112170350 METAR COR EGLL 170350Z 28005KT 7000 NSC M00/M01 Q1007 TEMPO
                        4000 BR=
201112170320 METAR COR EGLL 170320Z 28006KT 8000 NSC 00/M01 Q1006 TEMPO
                        4000 BR=
201112170250 METAR COR EGLL 170250Z 26003KT 8000 NSC 01/M01 Q1006 NOSIG=
201112170220 METAR EGLL 170220Z AUTO 31005KT 6000 NCD 01/M00 Q1005=
201112170150 METAR EGLL 170150Z AUTO 30007KT 7000 NCD 01/M00 Q1005=
201112170120 METAR EGLL 170120Z AUTO 31005KT 8000 NCD 02/M00 Q1004=
201112170050 METAR COR EGLL 170050Z 31005KT 9000 NSC 02/00 Q1003 NOSIG=
201112170020 METAR COR EGLL 170020Z 31005KT CAVOK 02/00 Q1003 NOSIG=
201112162350 METAR COR EGLL 162350Z 31006KT 9999 FEW049 02/00 Q1002 NOSIG=
201112162320 METAR COR EGLL 162320Z 32005KT 9999 FEW037 03/00 Q1002 NOSIG=
201112162250 METAR COR EGLL 162250Z 31007KT 9999 SCT014 03/00 Q1001 NOSIG=
201112162220 METAR COR EGLL 162220Z 31005KT 9999 SCT016 SCT024 04/01 Q1000
                        NOSIG=
201112162150 METAR COR EGLL 162150Z 32007KT 280V350 9999 SCT016 SCT019
                        04/01 Q0999 NOSIG=
201112162120 METAR COR EGLL 162120Z 31005KT 9999 SCT017 SCT025 03/01 Q0999
                        NOSIG=
201112162050 METAR COR EGLL 162050Z 31007KT 9999 SCT012 SCT018 03/01 Q0998
                        TEMPO BKN012=
201112162020 METAR COR EGLL 162020Z 31008KT 280V340 9999 -RA FEW012 BKN015
                        BKN025 04/01 Q0997 TEMPO BKN012=
201112161950 METAR COR EGLL 161950Z 30008KT 9999 SCT015 SCT020 04/01 Q0997
                        NOSIG=
201112161920 METAR COR EGLL 161920Z 30010KT 9999 SCT017 BKN028 04/01 Q0996
                        NOSIG=
201112161850 METAR COR EGLL 161850Z 29013KT 9999 SCT016 BKN021 04/02 Q0995
                        NOSIG=
201112161820 METAR COR EGLL 161820Z 28011KT 9999 SCT018 BKN027 04/01 Q0995
                        NOSIG=
201112161750 METAR EGLL 161750Z 27011KT 9999 SCT018 SCT042 04/01 Q0994=
201112161720 METAR COR EGLL 161720Z 29014KT 9999 -RA FEW021 BKN024 04/01
                        Q0994 NOSIG=
201112161650 METAR COR EGLL 161650Z 28013KT 9999 SCT025 BKN033 04/00 Q0993
                        NOSIG=
201112161620 METAR COR EGLL 161620Z 28012KT 9999 SCT025 BKN030 04/00 Q0992
                        NOSIG=
201112161550 METAR COR EGLL 161550Z 29009KT 9999 FEW020 04/00 Q0992 NOSIG=
201112161520 METAR COR EGLL 161520Z 28013KT 9999 FEW029 04/00 Q0991 NOSIG=
201112161450 METAR COR EGLL 161450Z 29014KT 9999 SCT025 SCT030 05/00 Q0990
                        NOSIG=
201112161420 METAR COR EGLL 161420Z 28013KT 9999 SCT025 04/00 Q0990 NOSIG=
201112161350 METAR EGLL 161350Z 28015KT 9999 SCT020 05/01 Q0989=
201112161320 METAR COR EGLL 161320Z 29014KT 9999 FEW020 04/01 Q0988 NOSIG=
201112161250 METAR COR EGLL 161250Z 29013KT 9999 BKN019 04/01 Q0988 NOSIG=
201112161220 METAR COR EGLL 161220Z 29012KT 9999 FEW019 BKN025 04/01 Q0987
                        NOSIG=
201112161150 METAR COR EGLL 161150Z 30011KT 9999 FEW020 04/01 Q0987 NOSIG=
201112161120 METAR COR EGLL 161120Z 30010KT 9999 FEW016 SCT040 03/01 Q0987
                        NOSIG=
201112161050 METAR COR EGLL 161050Z 29011KT 9999 FEW010 SCT013 BKN019
                        03/01 Q0986 NOSIG=
201112161020 METAR COR EGLL 161020Z 30009KT 9999 -RA SCT010 BKN035 02/01
                        Q0986 NOSIG=
201112160950 METAR COR EGLL 160950Z 31009KT 9999 -RA FEW008 OVC010 02/01
                        Q0986 BECMG NSW BKN016=
201112160920 METAR COR EGLL 160920Z 30009KT 5000 -RASN FEW006 BKN010 02/01
                        Q0985 BECMG 9999 NSW BKN016=
201112160850 METAR COR EGLL 160850Z 31009KT 6000 -RA FEW006 BKN010 02/01
                        Q0984 TEMPO 2000 SN BKN004=
201112160820 METAR COR EGLL 160820Z 32007KT 6000 -RASN FEW006 SCT008 BKN010
                        02/01 Q0984 TEMPO 2000 SN BKN004=
201112160750 METAR COR EGLL 160750Z 32008KT 5000 -RASN BKN006 BKN011 02/01
                        Q0983 RERA TEMPO 2000 SN BKN004=
201112160720 METAR COR EGLL 160720Z 33008KT 300V360 6000 RA SCT006 BKN012
                        02/01 Q0982 TEMPO 4500 RASN BKN006=
201112160650 METAR COR EGLL 160650Z 34006KT 320V020 6000 RA SCT006 OVC010
                        02/01 Q0982 RERA TEMPO 4500 RASN
                        BKN006=
201112160620 METAR COR EGLL 160620Z 34007KT 290V020 7000 -RA SCT008 BKN011
                        02/01 Q0982 TEMPO 4500 -RASN BKN008=
201112160550 METAR COR EGLL 160550Z 36008KT 320V020 8000 -RA FEW007 BKN010
                        03/01 Q0981 BECMG 4500 -RASN BKN008=
201112160520 METAR COR EGLL 160520Z 01008KT 9999 -RA BKN011 03/01 Q0981
                        BECMG 4500 RA BKN008=
201112160450 METAR COR EGLL 160450Z 02008KT 350V060 9999 FEW009 BKN011
                        03/02 Q0980 BECMG 4500 RA BKN008=
201112160420 METAR COR EGLL 160420Z 03010KT 9999 SCT008 BKN011 03/02 Q0980
                        NOSIG=
201112160350 METAR COR EGLL 160350Z 02007KT 340V050 9999 SCT008 BKN011
                        03/02 Q0980 NOSIG=
201112160320 METAR COR EGLL 160320Z 03010KT 9999 -RA BKN010 04/03 Q0980
                        NOSIG=
201112160250 METAR COR EGLL 160250Z 04008KT 9999 -RA FEW008 BKN010 04/03
                        Q0980 NOSIG=
201112160220 METAR EGLL 160220Z AUTO 05007KT 9999 -RA BKN011/// 04/03
                        Q0981=
201112160150 METAR EGLL 160150Z AUTO 06008KT 9999 -RA FEW008/// BKN013///
                        05/03 Q0981=
201112160120 METAR EGLL 160120Z AUTO 05007KT 9999 -RA SCT010/// SCT013///
                        OVC016/// 04/03 Q0982 RERA=
201112160050 METAR COR EGLL 160050Z 07010KT 9999 -RA FEW008 SCT012 BKN021
                        04/03 Q0983 TEMPO BKN012=
201112160020 METAR COR EGLL 160020Z 07009KT 9999 -RA BKN013 BKN020 04/03
                        Q0985 TEMPO 05015G25KT 4500 RA BKN009=
201112152350 METAR COR EGLL 152350Z 08010KT 9999 -RA FEW009 BKN014 BKN022
                        04/03 Q0987 TEMPO 4500 RA BKN014=
201112152320 METAR COR EGLL 152320Z 09010KT 9000 -RA SCT018 BKN021 04/03
                        Q0988 TEMPO 08015G25KT 4500 RA BKN014=
201112152250 METAR COR EGLL 152250Z 09009KT 9000 -RA SCT016 BKN021 04/03
                        Q0990 BECMG 09015G25 4500 RA BKN014=
201112152220 METAR COR EGLL 152220Z 11009KT 9000 -RA SCT018 SCT022 04/02
                        Q0992 BECMG 10015G25KT 4500 RA BKN014=
201112152150 METAR COR EGLL 152150Z 15007KT 9999 -DZ SCT020 SCT034 05/02
                        Q0993 BECMG 09012KT=
201112152120 METAR COR EGLL 152120Z 14005KT 100V180 9999 FEW024 06/00
                        Q0994 NOSIG=
201112152050 METAR COR EGLL 152050Z VRB02KT 9999 FEW019 SCT046 06/01 Q0995
                        NOSIG=
201112152020 METAR COR EGLL 152020Z 18007KT 110V220 9999 FEW019 SCT024
                        06/02 Q0997 NOSIG=
201112151950 METAR COR EGLL 151950Z 18008KT 130V220 9999 FEW044 06/02
                        Q0998 NOSIG=
201112151920 METAR COR EGLL 151920Z 20006KT 160V290 CAVOK 05/02 Q0998
                        NOSIG=
201112151850 METAR COR EGLL 151850Z 21005KT CAVOK 05/02 Q0999 NOSIG=
201112151820 METAR COR EGLL 151820Z 21006KT 170V250 CAVOK 05/02 Q1000
                        NOSIG=
201112151750 METAR COR EGLL 151750Z 21008KT 190V280 CAVOK 05/02 Q1000
                        NOSIG=
201112151720 METAR COR EGLL 151720Z 23009KT CAVOK 06/02 Q1001 NOSIG=
201112151650 METAR COR EGLL 151650Z 25010KT CAVOK 06/01 Q1001 NOSIG=
201112151620 METAR COR EGLL 151620Z 26012KT 9999 FEW031 06/02 Q1001 NOSIG=
201112151550 METAR COR EGLL 151550Z 25014KT 9999 FEW027 07/02 Q1001 NOSIG=
201112151520 METAR COR EGLL 151520Z 25012KT 9999 FEW016 SCT026 07/03 Q1001
                        NOSIG=
201112151450 METAR COR EGLL 151450Z 25015KT 9999 SCT036 08/03 Q1001 NOSIG=
201112151420 METAR COR EGLL 151420Z 26014KT 9999 SCT024 08/03 Q1001 NOSIG=
201112151350 METAR COR EGLL 151350Z 26018KT 9999 SCT023 SCT028 08/03 Q1000
                        NOSIG=
201112151320 METAR COR EGLL 151320Z 26017KT 9999 SCT024 SCT028 08/03 Q1000
                        NOSIG=
201112151250 METAR COR EGLL 151250Z 26015KT 9999 SCT026 BKN033 08/03 Q1000
                        TEMPO 27018G28KT=
201112151220 METAR COR EGLL 151220Z 25014KT 9999 SCT024 BKN030 08/03 Q1000
                        TEMPO 25017G27KT=
201112151150 METAR EGLL 151150Z 25015KT 9999 BKN023 07/03 Q0999=
201112151120 METAR COR EGLL 151120Z 25015KT 9999 FEW020 07/02 Q0999 NOSIG=
201112151050 METAR COR EGLL 151050Z 26017KT 9999 FEW020 07/02 Q0999 NOSIG=
201112151020 METAR COR EGLL 151020Z 27017KT 9999 FEW024 07/02 Q0999=
201112150950 METAR COR EGLL 150950Z 26020KT 9999 FEW020 06/01 Q0998 NOSIG=
201112150920 METAR COR EGLL 150920Z 26022KT 9999 FEW020 06/01 Q0997 NOSIG=
201112150850 METAR COR EGLL 150850Z 26021KT 9999 FEW028CB 06/01 Q0997
                        NOSIG=
201112150820 METAR COR EGLL 150820Z 27020KT 9999 FEW028 06/01 Q0996 NOSIG=
201112150750 METAR COR EGLL 150750Z 27023KT CAVOK 06/02 Q0995 BECMG 26013KT=
201112150720 METAR COR EGLL 150720Z 27024KT 9999 FEW041 06/02 Q0994 BECMG
                        26014KT=
201112150650 METAR COR EGLL 150650Z 26022KT 9999 SCT030 SCT041 06/02 Q0993
                        NOSIG=
201112150620 METAR COR EGLL 150620Z 25020KT 9999 FEW025 SCT028 06/03 Q0993
                        NOSIG=
201112150550 METAR COR EGLL 150550Z 24020G32KT 9999 FEW023 SCT034 06/03
                        Q0992 NOSIG=
201112150520 METAR COR EGLL 150520Z 24017KT 9999 SCT023 SCT027 06/03 Q0992
                        BECMG 26007KT=
201112150450 METAR COR EGLL 150450Z 23014KT 9999 -RA SCT027 SCT035 06/03
                        Q0992 TEMPO SHRA=
201112150420 METAR COR EGLL 150420Z 19009KT 9999 -DZ SCT035 05/03 Q0992
                        TEMPO SHRA=
201112150350 METAR COR EGLL 150350Z 18008KT CAVOK 05/02 Q0992 TEMPO 7000
                        SHRA=
201112150320 METAR COR EGLL 150320Z 19008KT CAVOK 05/02 Q0993 NOSIG=
201112150250 METAR COR EGLL 150250Z 19008KT CAVOK 04/02 Q0993 NOSIG=
201112150220 METAR COR EGLL 150220Z 19009KT CAVOK 04/02 Q0994 NOSIG=
201112150150 METAR COR EGLL 150150Z 19006KT CAVOK 03/01 Q0994 NOSIG=
201112150120 METAR COR EGLL 150120Z 18007KT CAVOK 03/01 Q0995 NOSIG=
201112150050 METAR COR EGLL 150050Z 20007KT CAVOK 03/01 Q0995 NOSIG=
201112150020 METAR COR EGLL 150020Z 19007KT CAVOK 03/01 Q0995 NOSIG=
201112142350 METAR COR EGLL 142350Z 20006KT CAVOK 03/01 Q0996 NOSIG=
201112142320 METAR COR EGLL 142320Z 21007KT 9999 FEW025 04/01 Q0996 NOSIG=
201112142250 METAR COR EGLL 142250Z 21008KT 9999 FEW025 04/01 Q0996 NOSIG=
201112142220 METAR COR EGLL 142220Z 22007KT 9999 FEW012 04/01 Q0996 NOSIG=
201112142150 METAR COR EGLL 142150Z 22008KT CAVOK 04/01 Q0996 NOSIG=
201112142120 METAR COR EGLL 142120Z 21009KT CAVOK 04/01 Q0996 NOSIG=
201112142050 METAR COR EGLL 142050Z 22008KT CAVOK 05/01 Q0996 NOSIG=
201112142020 METAR COR EGLL 142020Z 22008KT CAVOK 04/01 Q0996 NOSIG=
201112141950 METAR COR EGLL 141950Z 22008KT CAVOK 04/01 Q0996 NOSIG=
201112141920 METAR COR EGLL 141920Z 21008KT CAVOK 04/01 Q0997 NOSIG=
201112141850 METAR COR EGLL 141850Z 21007KT 180V250 CAVOK 04/01 Q0997
                        NOSIG=
201112141820 METAR COR EGLL 141820Z 18007KT CAVOK 04/01 Q0997 NOSIG=
201112141750 METAR COR EGLL 141750Z 19007KT 170V230 9999 FEW045 04/01
                        Q0997 NOSIG=
201112141720 METAR COR EGLL 141720Z 21006KT 9999 FEW037 04/01 Q0997 NOSIG=
201112141650 METAR COR EGLL 141650Z 25009KT 9999 FEW022 05/01 Q0997 NOSIG=
201112141620 METAR COR EGLL 141620Z 26014KT 9999 -SHRA FEW021 SCT033 05/01
                        Q0997 TEMPO SHRA=
201112141550 METAR COR EGLL 141550Z 26018G29KT 9999 FEW024 SCT049 06/01
                        Q0997 TEMPO SHRA=
201112141520 METAR COR EGLL 141520Z 24014KT 9999 FEW024CB 06/00 Q0996
                        TEMPO 25017G27KT SHRA=
201112141450 METAR COR EGLL 141450Z 25012KT 9999 FEW024CB 06/00 Q0996
                        NOSIG=
201112141420 METAR COR EGLL 141420Z 26013KT 9999 FEW024CB 06/01 Q0996
                        NOSIG=
201112141350 METAR COR EGLL 141350Z 27013KT 9999 FEW023CB 05/01 Q0996
                        NOSIG=
201112141320 METAR COR EGLL 141320Z 26018KT 9999 -SHRA FEW024CB 06/00
                        Q0996 NOSIG=
201112141250 METAR COR EGLL 141250Z 25015KT 9999 FEW025 06/01 Q0995 NOSIG=
201112141220 METAR COR EGLL 141220Z 26018KT 9999 FEW025 06/01 Q0995 TEMPO
                        26021G31KT=
201112141150 METAR COR EGLL 141150Z 27020KT 9999 SCT025 05/01 Q0995 TEMPO
                        27020G30KT=
201112141120 METAR COR EGLL 141120Z 27018G29KT CAVOK 06/01 Q0994 NOSIG=
201112141050 METAR COR EGLL 141050Z 26015KT 9999 FEW020CB 06/01 Q0994
                        TEMPO 26018G28KT SHRA=
201112141020 METAR COR EGLL 141020Z 22009KT 190V250 9999 FEW020CB 06/02
                        Q0994 NOSIG=
201112140950 METAR COR EGLL 140950Z 21008KT 190V250 CAVOK 04/02 Q0994
                        NOSIG=
201112140920 METAR COR EGLL 140920Z 22007KT CAVOK 04/01 Q0993 NOSIG=
201112140850 METAR COR EGLL 140850Z 22006KT 190V260 9999 FEW033 03/02
                        Q0992 NOSIG=
201112140820 METAR COR EGLL 140820Z 22006KT 9999 FEW032 04/02 Q0992 NOSIG=
201112140750 METAR COR EGLL 140750Z 21007KT 180V240 CAVOK 04/02 Q0992
                        NOSIG=
201112140720 METAR COR EGLL 140720Z 22007KT 9999 FEW044 04/01 Q0992 NOSIG=
201112140650 METAR COR EGLL 140650Z 21007KT 170V250 9999 FEW043 04/01
                        Q0992 NOSIG=
201112140620 METAR COR EGLL 140620Z 22006KT 190V250 CAVOK 04/01 Q0991
                        NOSIG=
201112140550 METAR COR EGLL 140550Z 21006KT CAVOK 04/01 Q0991 NOSIG=
201112140520 METAR COR EGLL 140520Z 21008KT CAVOK 04/01 Q0991 NOSIG=
201112140450 METAR COR EGLL 140450Z 22009KT CAVOK 05/01 Q0990 NOSIG=
201112140420 METAR COR EGLL 140420Z 22009KT 9999 FEW049 05/01 Q0991 NOSIG=
201112140350 METAR EGLL 140350Z AUTO 23010KT 9999 NCD 06/02 Q0991=
201112140320 METAR EGLL 140320Z AUTO 21007KT 9999 NCD 05/02 Q0992=
201112140250 METAR EGLL 140250Z NIL=
201112140220 METAR EGLL 140220Z NIL=
201112140150 METAR EGLL 140150Z NIL=
201112140120 METAR COR EGLL 140120Z 24009KT CAVOK 06/02 Q0992 NOSIG=
201112140050 METAR COR EGLL 140050Z 21009KT CAVOK 06/02 Q0993 NOSIG=
201112140020 METAR EGLL 140020Z NIL=
201112132350 METAR EGLL 132350Z NIL=
201112132320 METAR EGLL 132320Z NIL=
201112132250 METAR COR EGLL 132250Z 22008KT CAVOK 05/01 Q0994 NOSIG=
201112132220 METAR COR EGLL 132220Z 22012KT CAVOK 05/00 Q0994 NOSIG=
201112132150 METAR COR EGLL 132150Z 22013KT CAVOK 05/00 Q0994 NOSIG=
201112132120 METAR COR EGLL 132120Z 22012KT CAVOK 04/00 Q0994 NOSIG=
201112132050 METAR COR EGLL 132050Z 24013KT CAVOK 05/00 Q0995 NOSIG=
201112132020 METAR COR EGLL 132020Z 24014KT CAVOK 05/M00 Q0994 NOSIG=
201112131950 METAR COR EGLL 131950Z 23019G29KT 9999 FEW029 05/M01 Q0993
                        NOSIG=
201112131920 METAR COR EGLL 131920Z 24019KT CAVOK 06/M00 Q0994 NOSIG=
201112131850 METAR COR EGLL 131850Z 24013KT CAVOK 06/01 Q0994 NOSIG=
201112131820 METAR COR EGLL 131820Z 25015G25KT CAVOK 06/01 Q0994 NOSIG=
201112131750 METAR COR EGLL 131750Z 25014KT 9999 FEW038 06/01 Q0993 NOSIG=
201112131720 METAR COR EGLL 131720Z 25016KT 9999 FEW022CB 06/01 Q0993
                        NOSIG=
201112131650 METAR COR EGLL 131650Z 25021G36KT 9999 FEW020CB SCT034 07/01
                        Q0993 BECMG 25018KT=
201112131620 METAR COR EGLL 131620Z 24018KT 9999 FEW020 07/M00 Q0993 TEMPO
                        4000 SHRAGS BKN014CB=
201112131550 METAR COR EGLL 131550Z 24020KT 9999 FEW020CB 07/M00 Q0992
                        TEMPO 4000 SHRAGS BKN014CB=
201112131520 METAR COR EGLL 131520Z 23015KT 9999 FEW020CB 07/M00 Q0992
                        TEMPO 4000 SHRAGS BKN014CB=
201112131450 METAR COR EGLL 131450Z 27008KT 9999 FEW020CB 05/01 Q0993
                        TEMPO 24018G28KT=
201112131420 METAR COR EGLL 131420Z 30008KT 9999 FEW020CB SCT036 06/01
                        Q0993 NOSIG=
201112131350 METAR COR EGLL 131350Z 25022KT 9999 FEW020CB SCT039 08/00
                        Q0992 NOSIG=
201112131320 METAR COR EGLL 131320Z 25019G31KT 9999 FEW020CB 08/00 Q0992
                        TEMPO 4000 SHRA BKN014CB=
201112131250 METAR COR EGLL 131250Z 25020G32KT 9999 FEW020CB 08/M00 Q0992
                        NOSIG=
201112131220 METAR COR EGLL 131220Z 25020KT 9999 FEW030 08/00 Q0991 NOSIG=
201112131150 METAR COR EGLL 131150Z 24019G29KT 9999 FEW028 08/01 Q0991
                        NOSIG=
201112131120 METAR COR EGLL 131120Z 24018KT 9999 FEW033 08/02 Q0991 NOSIG=
201112131050 METAR COR EGLL 131050Z 25020KT 9999 FEW033 08/02 Q0991 NOSIG=
201112131020 METAR COR EGLL 131020Z 25019KT 9999 FEW016CB 07/01 Q0991
                        NOSIG=
201112130950 METAR COR EGLL 130950Z 24016KT CAVOK 07/02 Q0990 TEMPO 26020G32KT
                        4000 SHRA BKN014CB=
201112130920 METAR COR EGLL 130920Z 25016KT CAVOK 06/02 Q0990 NOSIG=
201112130850 METAR COR EGLL 130850Z 25018G28KT CAVOK 06/02 Q0989 NOSIG=
201112130820 METAR COR EGLL 130820Z 25016KT CAVOK 06/03 Q0989 NOSIG=
201112130750 METAR COR EGLL 130750Z 26017KT 9999 VCSH FEW011 SCT030CB
                        07/02 Q0988 RESHRA NOSIG=
201112130720 METAR COR EGLL 130720Z 27025KT 9999 SHRA SCT020 SCT030CB
                        08/04 Q0988 NOSIG=
201112130650 METAR COR EGLL 130650Z 25018G28KT 9999 FEW040 09/04 Q0987
                        NOSIG=
201112130620 METAR COR EGLL 130620Z 26022KT CAVOK 09/04 Q0986 NOSIG=
201112130550 METAR COR EGLL 130550Z 25019KT 9999 -RA SCT037 10/05 Q0985
                        NOSIG=
201112130520 METAR COR EGLL 130520Z 25018KT 9999 -RA SCT049 10/07 Q0984
                        NOSIG=
201112130450 METAR COR EGLL 130450Z 25017KT 9999 -RA SCT030 SCT040 11/07
                        Q0984 RERA NOSIG=
201112130420 METAR COR EGLL 130420Z 23018KT 9000 RA BKN020 11/09 Q0983
                        NOSIG=
201112130350 METAR COR EGLL 130350Z 22017KT 9999 SCT019 12/09 Q0984 NOSIG=
201112130320 METAR COR EGLL 130320Z 23017KT 9999 SCT021 SCT028 11/08 Q0984
                        NOSIG=
201112130250 METAR COR EGLL 130250Z 24019G31KT 9999 FEW018 SCT029 12/09
                        Q0985 BECMG 25015KT=
201112130220 METAR EGLL 130220Z AUTO 24016KT 9999 SCT022/// SCT027///
                        12/10 Q0985=
201112130150 METAR EGLL 130150Z AUTO 23019G29KT 9999 -RA FEW014/// SCT018///
                        12/10 Q0985 RERA=
201112130120 METAR EGLL 130120Z AUTO 22016G28KT 9999 FEW011/// BKN013///
                        BKN023/// 12/10 Q0985=
201112130050 METAR COR EGLL 130050Z 21016KT 7000 RA FEW010 BKN018 11/10
                        Q0985 RERA TEMPO 20018G28KT BKN012=
201112130020 METAR COR EGLL 130020Z 21015KT 5000 RA BKN011 10/09 Q0986
                        RERA TEMPO 20020G30KT=
201112122350 METAR COR EGLL 122350Z 20018G28KT 5000 RA BKN013 10/09 Q0987
                        NOSIG=
201112122320 METAR COR EGLL 122320Z 20018G29KT 170V240 6000 RA SCT010
                        BKN013 10/08 Q0988 NOSIG=
201112122250 METAR COR EGLL 122250Z 20020KT 180V240 7000 RA BKN014 09/08
                        Q0989 TEMPO 19025G35KT=
201112122220 METAR COR EGLL 122220Z 20022G33KT 170V240 8000 RA SCT014
                        BKN020 09/07 Q0990 TEMPO BKN014=
201112122150 METAR COR EGLL 122150Z 19021KT 170V230 9999 RA BKN012 09/07
                        Q0992 TEMPO 20024G35KT=
201112122120 METAR COR EGLL 122120Z 18019G29KT 160V230 9999 -RA SCT015
                        BKN022 08/07 Q0993 TEMPO BKN014=
201112122050 METAR COR EGLL 122050Z 19017KT 9999 RA BKN016 08/06 Q0995
                        BECMG 20022G32KT BKN014=
201112122020 METAR COR EGLL 122020Z 20018KT 180V240 9999 RA BKN013 08/06
                        Q0996 TEMPO 19022G32KT=
201112121950 METAR COR EGLL 121950Z 19017KT 170V240 9000 -RA BKN016 08/06
                        Q0998 BECMG 19018G28KT BKN014=
201112121920 METAR COR EGLL 121920Z 19015KT 9999 -RA FEW015 BKN020 08/06
                        Q0999 BECMG 19018G28KT BKN014=
201112121850 METAR COR EGLL 121850Z 19012KT 9999 -RA FEW018 SCT021 BKN032
                        08/06 Q1000 BECMG 19018G28KT BKN014=
201112121820 METAR COR EGLL 121820Z 19012KT 9999 -RA SCT029 08/05 Q1001
                        BECMG 19018G28KT BKN014=
201112121750 METAR EGLL 121750Z 19011KT CAVOK 08/04 Q1002=
201112121720 METAR COR EGLL 121720Z 19009KT CAVOK 07/04 Q1003 NOSIG=
201112121650 METAR COR EGLL 121650Z 20011KT CAVOK 08/03 Q1004 NOSIG=
201112121620 METAR COR EGLL 121620Z 19009KT CAVOK 07/03 Q1004 NOSIG=
201112121550 METAR COR EGLL 121550Z 19009KT CAVOK 07/03 Q1005 NOSIG=
201112121520 METAR COR EGLL 121520Z 21007KT 180V250 CAVOK 08/02 Q1005
                        NOSIG=
201112121450 METAR COR EGLL 121450Z 22010KT 190V260 9999 FEW020 08/02
                        Q1006 NOSIG=
201112121420 METAR COR EGLL 121420Z 23011KT 9999 FEW020 08/03 Q1006 NOSIG=
201112121350 METAR COR EGLL 121350Z 22011KT CAVOK 08/03 Q1006 NOSIG=
201112121320 METAR COR EGLL 121320Z 23011KT 200V260 9999 FEW027 08/03
                        Q1006 NOSIG=
201112121250 METAR COR EGLL 121250Z 23012KT 9999 FEW040 08/03 Q1006 NOSIG=
201112121220 METAR COR EGLL 121220Z 24014KT 9999 FEW040 08/03 Q1007 NOSIG=
201112121150 METAR COR EGLL 121150Z 23013KT 9999 FEW016 08/03 Q1007 NOSIG=
201112121120 METAR COR EGLL 121120Z 24014KT CAVOK 07/03 Q1007 NOSIG=
201112121050 METAR COR EGLL 121050Z 24011KT CAVOK 07/03 Q1007 NOSIG=
201112121020 METAR COR EGLL 121020Z 24011KT CAVOK 06/03 Q1007 NOSIG=
201112120950 METAR COR EGLL 120950Z 24010KT CAVOK 06/03 Q1007 NOSIG=
201112120920 METAR COR EGLL 120920Z 26009KT CAVOK 05/02 Q1006 NOSIG=
201112120850 METAR COR EGLL 120850Z 25011KT CAVOK 04/02 Q1006 NOSIG=
201112120820 METAR COR EGLL 120820Z 26012KT CAVOK 04/02 Q1005 NOSIG=
201112120750 METAR COR EGLL 120750Z 24009KT CAVOK 03/01 Q1005 NOSIG=
201112120720 METAR COR EGLL 120720Z 23008KT CAVOK 03/01 Q1005 NOSIG=
201112120650 METAR COR EGLL 120650Z 23010KT CAVOK 03/01 Q1004 NOSIG=
201112120620 METAR COR EGLL 120620Z 21006KT CAVOK 03/01 Q1004 NOSIG=
201112120550 METAR COR EGLL 120550Z 21006KT CAVOK 03/01 Q1004 NOSIG=
201112120520 METAR COR EGLL 120520Z 22006KT CAVOK 03/02 Q1003 NOSIG=
201112120450 METAR COR EGLL 120450Z 26007KT CAVOK 04/02 Q1003 NOSIG=
201112120420 METAR COR EGLL 120420Z 28008KT CAVOK 04/02 Q1003 NOSIG=
201112120350 METAR COR EGLL 120350Z 27007KT CAVOK 04/02 Q1003 NOSIG=
201112120320 METAR COR EGLL 120320Z 26009KT CAVOK 04/03 Q1003 NOSIG=
201112120250 METAR COR EGLL 120250Z 27008KT CAVOK 04/03 Q1002 NOSIG=
201112120220 METAR EGLL 120220Z AUTO 29007KT 9999 NCD 04/03 Q1002=
201112120150 METAR EGLL 120150Z AUTO 28009KT 9999 NCD 05/04 Q1002=
201112120120 METAR EGLL 120120Z AUTO 27008KT 9999 FEW036/// SCT044///
                        06/04 Q1001=
201112120050 METAR COR EGLL 120050Z 28011KT 9999 FEW027 SCT045 06/05 Q1001
                        NOSIG=
201112120020 METAR COR EGLL 120020Z 27009KT 9999 FEW039 06/05 Q1001 NOSIG=
201112112350 METAR COR EGLL 112350Z 27008KT CAVOK 07/05 Q1000 NOSIG=
201112112320 METAR COR EGLL 112320Z 27007KT CAVOK 07/05 Q1000 NOSIG=
201112112250 METAR COR EGLL 112250Z 27009KT CAVOK 07/06 Q1000 NOSIG=
201112112220 METAR COR EGLL 112220Z 25008KT 9999 SCT045 07/06 Q1000 NOSIG=
201112112150 METAR COR EGLL 112150Z 25008KT CAVOK 07/06 Q1000 TEMPO BKN014=
201112112120 METAR COR EGLL 112120Z 23006KT 180V270 9999 FEW012 07/06
                        Q1000 NOSIG=
201112112050 METAR COR EGLL 112050Z 24007KT 200V270 9999 FEW009 08/06
                        Q1000 NOSIG=
201112112020 METAR COR EGLL 112020Z 27005KT 240V310 9999 -RA SCT026 BKN036
                        07/06 Q1000 RERA NOSIG=
201112111950 METAR COR EGLL 111950Z 24009KT 9000 RA FEW006 BKN017 07/06
                        Q1000 RERA TEMPO 5000 BKN008=
201112111920 METAR COR EGLL 111920Z 19011KT 170V250 5000 +RA FEW008 BKN009
                        08/07 Q1000 TEMPO 9999 -RA FEW008
                        BKN014=
201112111850 METAR COR EGLL 111850Z 18012KT 150V230 9999 -RA FEW008 BKN010
                        08/07 Q1001 RERA TEMPO 5000 RA BKN008=
201112111820 METAR COR EGLL 111820Z 19012KT 160V230 6000 VCSH FEW007 BKN009
                        BKN016 08/06 Q1001 TEMPO BKN012=
201112111750 METAR COR EGLL 111750Z 18012KT 160V230 9999 BKN012 BKN022
                        08/06 Q1001 NOSIG=
201112111720 METAR COR EGLL 111720Z 19013KT 160V240 9999 FEW008 BKN012
                        08/06 Q1002 NOSIG=
201112111650 METAR COR EGLL 111650Z 19013KT 170V230 9000 FEW008 BKN010
                        08/06 Q1003 TEMPO BKN008=
201112111620 METAR COR EGLL 111620Z 19015KT 150V230 9999 FEW009 BKN011
                        08/06 Q1003 NOSIG=
201112111550 METAR COR EGLL 111550Z 19015KT 170V230 9999 SCT012 BKN024
                        08/05 Q1003 BECMG BKN012=
201112111520 METAR COR EGLL 111520Z 19013KT 160V240 9999 BKN018 BKN035
                        08/05 Q1004 BECMG BKN014=
201112111450 METAR COR EGLL 111450Z 20014KT 9999 BKN017 08/05 Q1004 BECMG
                        BKN014=
201112111420 METAR COR EGLL 111420Z 20011KT 9999 BKN018 09/05 Q1005 BECMG
                        BKN014=
201112111350 METAR COR EGLL 111350Z 20012KT 9999 SCT019 BKN023 09/06 Q1005
                        TEMPO BKN014=
201112111320 METAR COR EGLL 111320Z 20011G21KT 9999 FEW021 SCT026 09/06
                        Q1006 TEMPO BKN012=
201112111250 METAR COR EGLL 111250Z 19011KT 9999 FEW022 SCT030 09/06 Q1006
                        TEMPO BKN014=
201112111220 METAR COR EGLL 111220Z 19011KT 9999 FEW011 SCT028 08/06 Q1007
                        NOSIG=
201112111150 METAR COR EGLL 111150Z 19010KT 160V220 9999 FEW008 BKN012
                        BKN018 08/06 Q1008 TEMPO BKN020=
201112111120 METAR COR EGLL 111120Z 20010KT 9999 SCT012 BKN020 08/06 Q1008
                        TEMPO BKN012=
201112111050 METAR COR EGLL 111050Z 21010KT 130V240 9999 FEW035 SCT042
                        08/06 Q1009 NOSIG=
201112111020 METAR COR EGLL 111020Z 19010KT 9999 FEW048 08/05 Q1009 NOSIG=
201112110950 METAR COR EGLL 110950Z 20009KT 9999 -RA FEW032 07/05 Q1009
                        NOSIG=
201112110920 METAR COR EGLL 110920Z 21008KT 170V240 9999 FEW045 07/05
                        Q1010 NOSIG=
201112110850 METAR COR EGLL 110850Z 20008KT 9999 FEW040 06/05 Q1010 NOSIG=
201112110820 METAR COR EGLL 110820Z 19008KT 170V230 CAVOK 06/04 Q1010
                        NOSIG=
201112110750 METAR COR EGLL 110750Z 20007KT CAVOK 05/03 Q1010 NOSIG=
201112110720 METAR COR EGLL 110720Z 20007KT 160V230 9999 FEW049 05/03
                        Q1011 NOSIG=
201112110650 METAR COR EGLL 110650Z 20006KT 180V290 CAVOK 05/03 Q1011
                        NOSIG=
201112110620 METAR COR EGLL 110620Z 20007KT 180V240 CAVOK 05/03 Q1011
                        NOSIG=
201112110550 METAR COR EGLL 110550Z 20006KT CAVOK 05/03 Q1011 NOSIG=
201112110520 METAR COR EGLL 110520Z 20005KT CAVOK 04/02 Q1012 NOSIG=
201112110450 METAR COR EGLL 110450Z 20005KT CAVOK 04/02 Q1012 NOSIG=
201112110420 METAR COR EGLL 110420Z 20005KT CAVOK 04/02 Q1012 NOSIG=
201112110350 METAR COR EGLL 110350Z 20005KT CAVOK 03/01 Q1013 NOSIG=
201112110320 METAR COR EGLL 110320Z 21005KT CAVOK 03/01 Q1013 NOSIG=
201112110250 METAR COR EGLL 110250Z 21006KT CAVOK 03/01 Q1013 NOSIG=
201112110220 METAR EGLL 110220Z AUTO 21005KT 9999 NCD 02/01 Q1014=
201112110150 METAR EGLL 110150Z AUTO 21003KT 9999 NCD 02/01 Q1014=
201112110120 METAR EGLL 110120Z AUTO 17005KT 9999 NCD 02/00 Q1014=
201112110050 METAR COR EGLL 110050Z 17004KT CAVOK 02/00 Q1015 NOSIG=
201112110020 METAR COR EGLL 110020Z 17004KT CAVOK 02/00 Q1015 NOSIG=
201112102350 METAR COR EGLL 102350Z 19003KT 9999 SCT038 02/01 Q1015 NOSIG=
201112102320 METAR COR EGLL 102320Z 22005KT 9999 SCT043 03/01 Q1015 NOSIG=
201112102250 METAR COR EGLL 102250Z 22005KT 180V260 9999 BKN046 02/00
                        Q1015 NOSIG=
201112102220 METAR COR EGLL 102220Z 18003KT CAVOK 02/00 Q1016 NOSIG=
201112102150 METAR COR EGLL 102150Z 22006KT 180V260 CAVOK 01/M00 Q1016
                        NOSIG=
201112102120 METAR COR EGLL 102120Z 23006KT 190V280 CAVOK 02/00 Q1016
                        NOSIG=
201112102050 METAR COR EGLL 102050Z VRB03KT CAVOK 02/00 Q1016 NOSIG=
201112102020 METAR COR EGLL 102020Z 23005KT 9999 SCT048 03/00 Q1016 NOSIG=
201112101950 METAR COR EGLL 101950Z 24006KT 210V270 CAVOK 03/01 Q1016
                        NOSIG=
201112101920 METAR COR EGLL 101920Z 23006KT 200V260 CAVOK 03/00 Q1016
                        NOSIG=
201112101850 METAR COR EGLL 101850Z 22005KT 180V250 CAVOK 03/00 Q1016
                        NOSIG=
201112101820 METAR COR EGLL 101820Z 25008KT CAVOK 04/01 Q1016 NOSIG=
201112101750 METAR COR EGLL 101750Z 24007KT CAVOK 04/00 Q1016 NOSIG=
201112101720 METAR COR EGLL 101720Z 24008KT CAVOK 04/00 Q1016 NOSIG=
201112101650 METAR COR EGLL 101650Z 25008KT CAVOK 04/00 Q1016 NOSIG=
201112101620 METAR COR EGLL 101620Z 25009KT CAVOK 05/00 Q1016 NOSIG=
201112101550 METAR COR EGLL 101550Z 25007KT 210V270 CAVOK 04/M00 Q1016
                        NOSIG=
201112101520 METAR COR EGLL 101520Z 25009KT CAVOK 05/M00 Q1016 NOSIG=
201112101450 METAR COR EGLL 101450Z 25011KT CAVOK 06/M00 Q1016 NOSIG=
201112101420 METAR COR EGLL 101420Z 26009KT CAVOK 06/M00 Q1016 NOSIG=
201112101350 METAR COR EGLL 101350Z 26009KT CAVOK 06/M00 Q1016 NOSIG=
201112101320 METAR COR EGLL 101320Z 27008KT CAVOK 06/M00 Q1016 NOSIG=
201112101250 METAR COR EGLL 101250Z 27009KT CAVOK 06/00 Q1016 NOSIG=
201112101220 METAR COR EGLL 101220Z 27011KT CAVOK 06/M00 Q1016 NOSIG=
201112101150 METAR COR EGLL 101150Z 27009KT CAVOK 06/M00 Q1016 NOSIG=
201112101120 METAR COR EGLL 101120Z 27008KT CAVOK 05/00 Q1016 NOSIG=
201112101050 METAR COR EGLL 101050Z 27010KT CAVOK 04/00 Q1016 NOSIG=
201112101020 METAR COR EGLL 101020Z 27009KT CAVOK 04/00 Q1016 NOSIG=
201112100950 METAR COR EGLL 100950Z 27009KT CAVOK 04/M00 Q1016 NOSIG=
201112100920 METAR COR EGLL 100920Z 27008KT CAVOK 03/M01 Q1016 NOSIG=
201112100850 METAR COR EGLL 100850Z 26009KT CAVOK 00/M01 Q1016 NOSIG=
201112100820 METAR COR EGLL 100820Z 27007KT CAVOK M00/M02 Q1015 NOSIG=
201112100750 METAR COR EGLL 100750Z 27006KT CAVOK M00/M02 Q1015 NOSIG=
201112100720 METAR COR EGLL 100720Z 28007KT CAVOK M01/M02 Q1015 NOSIG=
201112100650 METAR COR EGLL 100650Z 27007KT CAVOK M01/M03 Q1015 NOSIG=
201112100620 METAR COR EGLL 100620Z 27006KT CAVOK 01/M02 Q1015 NOSIG=
201112100550 METAR COR EGLL 100550Z 28007KT CAVOK 01/M02 Q1015 NOSIG=
201112100520 METAR COR EGLL 100520Z 27007KT CAVOK 00/M02 Q1015 NOSIG=
201112100450 METAR COR EGLL 100450Z 27006KT CAVOK M01/M02 Q1015 NOSIG=
201112100420 METAR COR EGLL 100420Z 27006KT CAVOK M00/M02 Q1014 NOSIG=
201112100350 METAR COR EGLL 100350Z 25005KT CAVOK 00/M02 Q1014 NOSIG=
201112100320 METAR COR EGLL 100320Z 27006KT CAVOK 01/M02 Q1014 NOSIG=
201112100250 METAR COR EGLL 100250Z 28006KT CAVOK 01/M02 Q1015 NOSIG=
201112100220 METAR EGLL 100220Z AUTO 27006KT 9999 NCD 00/M02 Q1015=
201112100150 METAR EGLL 100150Z AUTO 26007KT 9999 NCD 01/M02 Q1014=
201112100120 METAR EGLL 100120Z AUTO 27004KT 9999 NCD 01/M01 Q1014=
201112100050 METAR COR EGLL 100050Z 27007KT CAVOK 01/M02 Q1014 NOSIG=
201112100020 METAR COR EGLL 100020Z 27006KT CAVOK 00/M02 Q1014 NOSIG=
201112092350 METAR COR EGLL 092350Z 27006KT CAVOK 00/M02 Q1014 NOSIG=
201112092320 METAR COR EGLL 092320Z 28009KT CAVOK 01/M02 Q1014 NOSIG=
201112092250 METAR COR EGLL 092250Z 28010KT CAVOK 02/M01 Q1014 NOSIG=
201112092220 METAR COR EGLL 092220Z 27010KT CAVOK 03/M01 Q1014 NOSIG=
201112092150 METAR COR EGLL 092150Z 27012KT CAVOK 03/M01 Q1014 NOSIG=
201112092120 METAR COR EGLL 092120Z 26009KT CAVOK 03/M00 Q1013 NOSIG=
201112092050 METAR COR EGLL 092050Z 26009KT CAVOK 03/M00 Q1013 NOSIG=
201112092020 METAR COR EGLL 092020Z 27010KT CAVOK 04/M00 Q1013 NOSIG=
201112091950 METAR COR EGLL 091950Z 27010KT CAVOK 03/M00 Q1013 NOSIG=
201112091920 METAR COR EGLL 091920Z 28009KT CAVOK 03/00 Q1012 NOSIG=
201112091850 METAR EGLL 091850Z 27010KT 9999 FEW046 04/01 Q1012=
201112091820 METAR COR EGLL 091820Z 28009KT 9999 FEW047 04/01 Q1012 NOSIG=
201112091750 METAR COR EGLL 091750Z 28009KT 9999 FEW031 04/01 Q1012 NOSIG=
201112091720 METAR COR EGLL 091720Z 28010KT 9999 FEW030 04/01 Q1011 NOSIG=
201112091650 METAR COR EGLL 091650Z 28011KT 9999 FEW031 06/02 Q1011 NOSIG=
201112091620 METAR COR EGLL 091620Z 26013KT 9999 FEW012 06/02 Q1011 NOSIG=
201112091550 METAR COR EGLL 091550Z 26015KT 9999 FEW028 06/02 Q1011 TEMPO
                        5000 SHRA=
201112091520 METAR COR EGLL 091520Z 25012KT 9999 FEW032 07/01 Q1010 NOSIG=
201112091450 METAR COR EGLL 091450Z 25013KT 9999 SCT032 07/01 Q1010 NOSIG=
201112091420 METAR COR EGLL 091420Z 25016KT 9999 SCT032 07/01 Q1010 NOSIG=
201112091350 METAR COR EGLL 091350Z 25016KT 9999 FEW032 08/01 Q1010 NOSIG=
201112091320 METAR COR EGLL 091320Z 26015KT CAVOK 08/00 Q1010 NOSIG=
201112091250 METAR COR EGLL 091250Z 26015KT 9999 FEW032 08/00 Q1011 NOSIG=
201112091220 METAR COR EGLL 091220Z 26016KT CAVOK 08/01 Q1011 NOSIG=
201112091150 METAR COR EGLL 091150Z 27015KT CAVOK 07/01 Q1011 NOSIG=
201112091120 METAR COR EGLL 091120Z 26014KT CAVOK 07/00 Q1011 NO SIG=
201112091050 METAR COR EGLL 091050Z 26013KT CAVOK 07/01 Q1011 NOSIG=
201112091020 METAR COR EGLL 091020Z 25012KT CAVOK 06/00 Q1011 NOSIG=
201112090950 METAR COR EGLL 090950Z 25012KT CAVOK 06/00 Q1011 NOSIG=
201112090920 METAR EGLL 090920Z 24009KT CAVOK 05/M00 Q1011=
201112090850 METAR COR EGLL 090850Z 25007KT 220V280 CAVOK 04/M01 Q1011
                        NOSIG=
201112090820 METAR COR EGLL 090820Z 25011KT CAVOK 04/M01 Q1010 NOSIG=
201112090750 METAR COR EGLL 090750Z 24012KT CAVOK 04/M01 Q1010 NOSIG=
201112090720 METAR COR EGLL 090720Z 26013KT CAVOK 05/M01 Q1010 NOSIG=
201112090650 METAR COR EGLL 090650Z 26015KT CAVOK 04/M01 Q1010 NOSIG=
201112090620 METAR COR EGLL 090620Z 26012KT CAVOK 05/M01 Q1010 NOSIG=
201112090550 METAR COR EGLL 090550Z 25011KT CAVOK 05/M01 Q1010 NOSIG=
201112090520 METAR COR EGLL 090520Z 26014KT CAVOK 05/M01 Q1009 NOSIG=
201112090450 METAR COR EGLL 090450Z 26015KT CAVOK 05/M01 Q1009 NOSIG=
201112090420 METAR COR EGLL 090420Z 26015KT CAVOK 05/M01 Q1008 NOSIG=
201112090350 METAR COR EGLL 090350Z 25015KT CAVOK 05/M01 Q1008 NOSIG=
201112090320 METAR COR EGLL 090320Z 25016KT CAVOK 06/M01 Q1008 NOSIG=
201112090250 METAR COR EGLL 090250Z 25015KT CAVOK 06/M00 Q1008 NOSIG=
201112090220 METAR EGLL 090220Z AUTO 26014KT 9999 NCD 06/M00 Q1008=
201112090150 METAR EGLL 090150Z AUTO 27012KT 9999 NCD 06/00 Q1008=
201112090120 METAR EGLL 090120Z AUTO 27013KT 9999 NCD 06/00 Q1008=
201112090050 METAR EGLL 090050Z 27013KT CAVOK 06/01 Q1007=
201112090020 METAR COR EGLL 090020Z 26013KT CAVOK 06/02 Q1007 NOSIG=
201112082350 METAR COR EGLL 082350Z 27009KT 9999 FEW035 06/02 Q1007 NOSIG=
201112082320 METAR COR EGLL 082320Z 27015KT CAVOK 07/02 Q1006 NOSIG=
201112082250 METAR COR EGLL 082250Z 28015KT 9999 FEW035 07/02 Q1006 NOSIG=
201112082220 METAR COR EGLL 082220Z 27020KT 9999 FEW035 08/03 Q1005 NOSIG=
201112082150 METAR COR EGLL 082150Z 27021KT 9999 FEW036 09/04 Q1004 NOSIG=
201112082120 METAR COR EGLL 082120Z 28016KT 9999 SCT023 SCT033 09/05 Q1004
                        NOSIG=
201112082050 METAR COR EGLL 082050Z 28019KT 9999 SCT033 09/06 Q1004 NOSIG=
201112082020 METAR COR EGLL 082020Z 27022KT 9999 FEW025 SCT032 10/06 Q1003
                        NOSIG=
201112081950 METAR COR EGLL 081950Z 28023G34KT 9999 -RA SCT019 SCT029
                        10/07 Q1003 NOSIG=
201112081920 METAR COR EGLL 081920Z 27023G33KT 9999 -RA FEW014 SCT024
                        11/09 Q1002 NOSIG=
201112081850 METAR COR EGLL 081850Z 24025KT 8000 -RA BKN019 12/10 Q1001
                        TEMPO 4000 +RA BKN009=
201112081820 METAR COR EGLL 081820Z 23024G37KT 9999 SCT020 SCT026 13/09
                        Q1001 TEMPO 5000 RA BKN010=
201112081750 METAR COR EGLL 081750Z 23024G36KT 9999 BKN025 13/09 Q1002
                        TEMPO 5000 RA BKN012=
201112081720 METAR COR EGLL 081720Z 24023G33KT 9999 SCT022 BKN026 13/09
                        Q1002 BECMG 4000 RA BKN010=
201112081650 METAR COR EGLL 081650Z 24022G33KT 9999 SCT021 SCT025 13/09
                        Q1003 BECMG 5000 RA BKN012=
201112081620 METAR COR EGLL 081620Z 23022KT 9999 FEW019 BKN023 13/09 Q1003
                        BECMG 5000 RA BKN012=
201112081550 METAR COR EGLL 081550Z 23020G30KT 9999 -RA BKN019 12/09 Q1004
                        BECMG 5000 RA BKN012=
201112081520 METAR COR EGLL 081520Z 23019G30KT 200V260 9999 BKN018 12/09
                        Q1004 BECMG 5000 RA BKN014=
201112081450 METAR COR EGLL 081450Z 22019KT 9999 SCT017 BKN025 12/09 Q1004
                        TEMPO 5000 RA BKN012=
201112081420 METAR COR EGLL 081420Z 22017KT 9999 SCT014 BKN018 12/09 Q1005
                        TEMPO 5000 RA BKN012=
201112081350 METAR EGLL 081350Z 22016G26KT 9999 -RA FEW009 SCT010 BKN013
                        11/09 Q1006 RERA=
201112081320 METAR COR EGLL 081320Z 22018KT 4000 RA SCT011 BKN013 11/09
                        Q1007 TEMPO 9999 NSW SCT013=
201112081250 METAR COR EGLL 081250Z 22019KT 5000 -RA BKN013 11/09 Q1008
                        TEMPO 9999 SCT013=
201112081220 METAR EGLL 081220Z 22021G31KT 9000 -RA BKN018 11/08 Q1008=
201112081150 METAR COR EGLL 081150Z 22020G32KT 9999 BKN019 11/08 Q1009
                        TEMPO BKN014=
201112081120 METAR COR EGLL 081120Z 22019G31KT 9999 SCT019 BKN029 11/08
                        Q1010 TEMPO BKN014=
201112081050 METAR COR EGLL 081050Z 23020G30KT 9999 SCT020 BKN030 12/08
                        Q1011 TEMPO BKN014=
201112081020 METAR COR EGLL 081020Z 23020G35KT 9999 BKN019 12/08 Q1012
                        TEMPO BKN014=
201112080950 METAR COR EGLL 080950Z 22018KT 9999 SCT019 SCT023 11/08 Q1012
                        TENPO BKN014=
201112080920 METAR COR EGLL 080920Z 23016KT 9999 SCT014 SCT022 10/08 Q1013
                        NOSIG=
201112080850 METAR COR EGLL 080850Z 21008G20KT 9999 FEW014 SCT022 09/07
                        Q1014 NOSIG=
201112080820 METAR COR EGLL 080820Z 21010KT 9999 FEW021 BKN038 09/06 Q1014
                        NOSIG=
201112080750 METAR COR EGLL 080750Z 20011KT 9999 FEW024 BKN030 08/05 Q1014
                        NOSIG=
201112080720 METAR COR EGLL 080720Z 20012KT 9999 FEW038 SCT042 08/05 Q1015
                        NOSIG=
201112080650 METAR COR EGLL 080650Z 20009KT 170V240 9999 SCT047 08/04
                        Q1015 NOSIG=
201112080620 METAR COR EGLL 080620Z 19009KT 9999 SCT048 07/04 Q1016 NOSIG=
201112080550 METAR COR EGLL 080550Z 19007KT 9999 SCT048 06/04 Q1017 NOSIG=
201112080520 METAR COR EGLL 080520Z 20007KT 9999 -RA BKN041 06/03 Q1017
                        NOSIG=
201112080450 METAR COR EGLL 080450Z 21006KT CAVOK 05/03 Q1018 NOSIG=
201112080420 METAR COR EGLL 080420Z 21005KT CAVOK 05/02 Q1018 NOSIG=
201112080350 METAR COR EGLL 080350Z 22007KT CAVOK 05/02 Q1019 NOSIG=
201112080320 METAR COR EGLL 080320Z 24006KT CAVOK 05/02 Q1020 NOSIG=
201112080250 METAR COR EGLL 080250Z 25007KT CAVOK 05/02 Q1020 NOSIG=
201112080220 METAR EGLL 080220Z AUTO 25008KT 9999 NCD 04/02 Q1020=
201112080150 METAR EGLL 080150Z AUTO 25007KT 9999 NCD 04/01 Q1020=
201112080120 METAR EGLL 080120Z AUTO 25008KT 9999 NCD 05/01 Q1019=
201112080050 METAR COR EGLL 080050Z 25011KT CAVOK 04/01 Q1019 NOSIG=
201112080020 METAR COR EGLL 080020Z 24008KT CAVOK 05/01 Q1020 NOSIG=
201112072350 METAR COR EGLL 072350Z 25008KT CAVOK 04/00 Q1020 NOSIG=
201112072320 METAR COR EGLL 072320Z 25010KT CAVOK 05/00 Q1020 NOSIG=
201112072250 METAR COR EGLL 072250Z 24011KT CAVOK 05/00 Q1019 NOSIG=
201112072220 METAR COR EGLL 072220Z 25010KT CAVOK 05/M00 Q1019 NOSIG=
201112072150 METAR COR EGLL 072150Z 27011KT CAVOK 06/M00 Q1019 NOSIG=
201112072120 METAR COR EGLL 072120Z 25011KT CAVOK 06/M00 Q1018 NOSIG=
201112072050 METAR COR EGLL 072050Z 26011KT CAVOK 06/M00 Q1018 NOSIG=
201112072020 METAR COR EGLL 072020Z 26012KT CAVOK 06/M00 Q1017 NOSIG=
201112071950 METAR COR EGLL 071950Z 27013KT CAVOK 06/M01 Q1016 NOSIG=
201112071920 METAR COR EGLL 071920Z 27013KT CAVOK 06/M01 Q1016 NOSIG=
201112071850 METAR COR EGLL 071850Z 27013KT CAVOK 06/M01 Q1016 NOSIG=
201112071820 METAR COR EGLL 071820Z 28013KT CAVOK 06/M01 Q1015 NOSIG=
201112071750 METAR COR EGLL 071750Z 27013KT CAVOK 06/M01 Q1015 NOSIG=
201112071720 METAR COR EGLL 071720Z 28013KT CAVOK 07/M01 Q1014 NOSIG=
201112071650 METAR COR EGLL 071650Z 28012KT CAVOK 07/M01 Q1013 NOSIG=
201112071620 METAR COR EGLL 071620Z 28013KT CAVOK 07/M01 Q1012 NOSIG=
201112071550 METAR COR EGLL 071550Z 28013KT CAVOK 07/M01 Q1011 NOSIG=
201112071520 METAR EGLL 071520Z 28017KT 260V320 9999 FEW049 08/M02 Q1011=
201112071450 METAR COR EGLL 071450Z 29014KT 9999 FEW049 08/M01 Q1010 NOSIG=
201112071420 METAR COR EGLL 071420Z 29016G26KT CAVOK 09/M02 Q1010 NOSIG=
201112071350 METAR COR EGLL 071350Z 28018KT 9999 FEW044 09/M01 Q1009 NOSIG=
201112071320 METAR COR EGLL 071320Z 28019G31KT 9999 FEW044 09/M01 Q1009
                        NOSIG=
201112071250 METAR COR EGLL 071250Z 29020KT 9999 SCT044 09/M00 Q1008 NOSIG=
201112071220 METAR COR EGLL 071220Z 28020KT 9999 FEW036 09/00 Q1008 NOSIG=
201112071150 METAR COR EGLL 071150Z 28021KT 9999 FEW032 09/01 Q1007 NOSIG=
201112071120 METAR COR EGLL 071120Z 27020KT 9999 FEW028 09/01 Q1007 NOSIG=
201112071050 METAR COR EGLL 071050Z 27017KT 9999 FEW028 09/02 Q1007 NOSIG=
201112071020 METAR COR EGLL 071020Z 27016KT CAVOK 08/02 Q1007 NOSIG=
201112070950 METAR COR EGLL 070950Z 28017KT CAVOK 08/02 Q1006 NOSIG=
201112070920 METAR EGLL 070920Z 27015KT CAVOK 07/02 Q1006=
201112070850 METAR COR EGLL 070850Z 28017KT CAVOK 07/02 Q1005 TEMPO 28022G34KT=
201112070820 METAR COR EGLL 070820Z 29018G28KT CAVOK 08/01 Q1005 NOSIG=
201112070750 METAR COR EGLL 070750Z 28016KT CAVOK 08/01 Q1004 TEMPO 27022G34KT=
201112070720 METAR COR EGLL 070720Z 27018KT CAVOK 08/02 Q1003 TEMPO 27022G34KT=
201112070650 METAR COR EGLL 070650Z 27016KT CAVOK 08/03 Q1003 TEMPO 27022G34KT=
201112070620 METAR COR EGLL 070620Z 28015KT CAVOK 08/04 Q1003 TEMPO 27022G34KT=
201112070550 METAR COR EGLL 070550Z 27016KT 9999 FEW038 09/04 Q1002 TEMPO
                        27022G34KT SHRA=
201112070520 METAR COR EGLL 070520Z 27019G30KT 9999 FEW038 09/05 Q1002
                        NOSIG=
201112070450 METAR COR EGLL 070450Z 27015KT 9999 FEW030 09/05 Q1002 TEMPO
                        27022G34KT=
201112070420 METAR COR EGLL 070420Z 25015G25KT 9999 FEW022 SCT030 08/06
                        Q1002 NOSIG=
201112070350 METAR COR EGLL 070350Z 24013KT 9999 FEW030 08/05 Q1002 TEMPO
                        26022G32KT=
201112070320 METAR COR EGLL 070320Z 25018KT CAVOK 09/05 Q1002 TEMPO 26022G34KT=
201112070250 METAR COR EGLL 070250Z 24015KT 9999 FEW021 08/05 Q1002 TEMPO
                        26018G28KT=
201112070220 METAR EGLL 070220Z AUTO 24016KT 9999 FEW032/// 08/05 Q1003=
201112070150 METAR EGLL 070150Z AUTO 25016KT 9999 NCD 08/05 Q1003=
201112070120 METAR EGLL 070120Z AUTO 24013KT 9999 NCD 08/05 Q1003=
201112070050 METAR COR EGLL 070050Z 24015KT 9999 FEW043 08/05 Q1004 TEMPO
                        24018G28KT=
201112070020 METAR COR EGLL 070020Z 23013KT 9999 FEW044 07/05 Q1004 TEMPO
                        24016G26KT=
201112062350 METAR COR EGLL 062350Z 23011KT 9999 FEW048 07/04 Q1005 TEMPO
                        24015G25KT=
201112062320 METAR COR EGLL 062320Z 24012KT 9999 FEW048 06/04 Q1005 TEMPO
                        24015G25KT=
201112062250 METAR COR EGLL 062250Z 23010KT CAVOK 06/04 Q1005 TEMPO 24015G25KT=
201112062220 METAR COR EGLL 062220Z 24011KT 200V270 CAVOK 06/04 Q1006
                        TEMPO 24015G25KT SHRA=
201112062150 METAR COR EGLL 062150Z 23012KT CAVOK 06/03 Q1006 TEMPO 23015G25KT
                        SHRA=
201112062120 METAR COR EGLL 062120Z 22008KT 190V260 9999 FEW020 05/03
                        Q1006 NOSIG=
201112062050 METAR COR EGLL 062050Z 24010KT CAVOK 06/03 Q1007 NOSIG=
201112062020 METAR COR EGLL 062020Z 23008KT CAVOK 06/03 Q1007 NOSIG=
201112061950 METAR COR EGLL 061950Z 22008KT 9999 FEW020 06/03 Q1007 NOSIG=
201112061920 METAR COR EGLL 061920Z 24012KT 9999 FEW040 07/03 Q1007 NOSIG=
201112061850 METAR COR EGLL 061850Z 24011KT 9999 FEW031 BKN041 06/03 Q1007
                        NOSIG=
201112061820 METAR COR EGLL 061820Z 25013KT 9999 SCT047 07/03 Q1007 NOSIG=
201112061750 METAR COR EGLL 061750Z 23011KT 9999 FEW027 SCT040 06/03 Q1007
                        NOSIG=
201112061720 METAR COR EGLL 061720Z 23010KT 9999 FEW027 SCT039 06/03 Q1007
                        NOSIG=
201112061650 METAR COR EGLL 061650Z 22009KT 9999 SCT038 06/03 Q1007 TEMPO
                        7000 -SHRA BKN014=
201112061620 METAR COR EGLL 061620Z 22007KT 190V250 9999 SCT040 06/03
                        Q1008 TEMPO 7000 -SHRA BKN014=
201112061550 METAR COR EGLL 061550Z 22007KT CAVOK 06/02 Q1008 TEMPO 7000
                        -SHRA BKN014=
201112061520 METAR COR EGLL 061520Z 23010KT 200V260 CAVOK 06/02 Q1008
                        NOSIG=
201112061450 METAR COR EGLL 061450Z 23009KT 200V260 CAVOK 06/02 Q1008
                        NOSIG=
201112061420 METAR COR EGLL 061420Z 24011KT 9999 FEW020 07/02 Q1008 NOSIG=
201112061350 METAR COR EGLL 061350Z 24010KT 9999 FEW020 07/02 Q1008 NOSIG=
201112061320 METAR COR EGLL 061320Z 25012KT 9999 FEW020 07/02 Q1009 NOSIG=
201112061250 METAR COR EGLL 061250Z 25014KT 9999 FEW020 07/02 Q1009 NOSIG=
201112061220 METAR COR EGLL 061220Z 25012KT 9999 FEW048 07/02 Q1009 NOSIG=
201112061150 METAR COR EGLL 061150Z 26013KT 9999 FEW048 07/02 Q1008 NOSIG=
201112061120 METAR COR EGLL 061120Z 25013KT CAVOK 06/02 Q1008 NOSIG=
201112061050 METAR COR EGLL 061050Z 25012KT CAVOK 06/02 Q1008 NOSIG=
201112061020 METAR COR EGLL 061020Z 25012KT CAVOK 05/01 Q1008 NOSIG=
201112060950 METAR COR EGLL 060950Z 24008KT CAVOK 05/01 Q1008 NOSIG=
201112060920 METAR COR EGLL 060920Z 24009KT CAVOK 04/01 Q1008 NOSIG=
201112060850 METAR COR EGLL 060850Z 25010KT CAVOK 04/01 Q1008 NOSIG=
201112060820 METAR COR EGLL 060820Z 25011KT CAVOK 04/01 Q1008 NOSIG=
201112060750 METAR COR EGLL 060750Z 27009KT CAVOK 04/01 Q1007 NOSIG=
201112060720 METAR EGLL 060720Z 26012KT CAVOK 05/01 Q1007 NOSIG=
201112060650 METAR COR EGLL 060650Z 27011KT CAVOK 03/01 Q1007 NOSIG=
201112060620 METAR COR EGLL 060620Z 27010KT CAVOK 04/01 Q1006 NOSIG=
201112060550 METAR COR EGLL 060550Z 27012KT CAVOK 04/01 Q1006 NOSIG=
201112060520 METAR COR EGLL 060520Z 26011KT CAVOK 04/01 Q1006 NOSIG=
201112060450 METAR COR EGLL 060450Z 25011KT CAVOK 04/01 Q1006 NOSIG=
201112060420 METAR COR EGLL 060420Z 25011KT CAVOK 04/01 Q1006 NOSIG=
201112060350 METAR COR EGLL 060350Z 25012KT CAVOK 04/01 Q1006 NOSIG=
201112060320 METAR COR EGLL 060320Z 26012KT CAVOK 04/01 Q1006 NOSIG=
201112060250 METAR COR EGLL 060250Z 26013KT CAVOK 04/01 Q1006 NOSIG=
201112060220 METAR EGLL 060220Z AUTO 25013KT 9999 NCD 04/01 Q1006=
201112060150 METAR EGLL 060150Z AUTO 26012KT 9999 NCD 04/01 Q1006=
201112060120 METAR EGLL 060120Z AUTO 26010KT 9999 NCD 04/01 Q1007=
201112060050 METAR COR EGLL 060050Z 27007KT CAVOK 04/00 Q1007 NOSIG=
201112060020 METAR COR EGLL 060020Z 28008KT CAVOK 04/00 Q1007 NOSIG=
201112052350 METAR COR EGLL 052350Z 26010KT CAVOK 04/00 Q1007 NOSIG=
201112052320 METAR COR EGLL 052320Z 27011KT CAVOK 04/00 Q1007 NOSIG=
201112052250 METAR COR EGLL 052250Z 27011KT CAVOK 04/01 Q1007 NOSIG=
201112052220 METAR COR EGLL 052220Z 27013KT CAVOK 04/01 Q1007 NOSIG=
201112052150 METAR COR EGLL 052150Z 27012KT CAVOK 04/00 Q1007 NOSIG=
201112052120 METAR COR EGLL 052120Z 27012KT CAVOK 04/00 Q1007 NOSIG=
201112052050 METAR COR EGLL 052050Z 27012KT CAVOK 05/01 Q1007 NOSIG=
201112052020 METAR COR EGLL 052020Z 27014KT CAVOK 05/01 Q1007 NOSIG=
201112051950 METAR COR EGLL 051950Z 27013KT CAVOK 05/01 Q1007 NOSIG=
201112051920 METAR COR EGLL 051920Z 27012KT CAVOK 05/01 Q1007 NOSIG=
201112051850 METAR COR EGLL 051850Z 26012KT CAVOK 05/01 Q1007 NOSIG=
201112051820 METAR COR EGLL 051820Z 25012KT CAVOK 05/01 Q1006 NOSIG=
201112051750 METAR COR EGLL 051750Z 25013KT CAVOK 05/01 Q1006 NOSIG=
201112051720 METAR COR EGLL 051720Z 25010KT CAVOK 05/01 Q1007 NOSIG=
201112051650 METAR COR EGLL 051650Z 25013KT CAVOK 06/00 Q1007 NOSIG=
201112051620 METAR COR EGLL 051620Z 25012KT 9999 FEW049 06/01 Q1007 NOSIG=
201112051550 METAR EGLL 051550Z 27016KT CAVOK 06/M01 Q1006=
201112051520 METAR COR EGLL 051520Z 26013KT 9999 FEW041 07/M00 Q1006 NOSIG=
201112051450 METAR COR EGLL 051450Z 28014KT 9999 FEW041 07/M01 Q1006 TEMPO
                        27016G26KT=
201112051420 METAR COR EGLL 051420Z 28015KT 9999 FEW044 07/M00 Q1006 TEMPO
                        27017G28KT=
201112051350 METAR EGLL 051350Z 26014KT 9999 FEW043 07/01 Q1006=
201112051320 METAR EGLL 051320Z 27016KT 9999 SCT035 07/02 Q1007=
201112051250 METAR COR EGLL 051250Z 26015KT 9999 SCT025 07/01 Q1007 TEMPO
                        26017G28KT=
201112051220 METAR COR EGLL 051220Z 26018KT 9999 FEW020 07/01 Q1007 NOSIG=
201112051150 METAR COR EGLL 051150Z 26016KT 9999 FEW020 06/01 Q1007 TEMPO
                        26018G28KT=
201112051120 METAR COR EGLL 051120Z 25016KT 9999 FEW020 06/01 Q1007 TEMPO
                        26017G28KT=
201112051050 METAR COR EGLL 051050Z 26016KT CAVOK 06/01 Q1007 TEMPO 26017G28KT=
201112051020 METAR EGLL 051020Z 25016KT CAVOK 06/01 Q1007=
201112050950 METAR COR EGLL 050950Z 25015KT CAVOK 05/01 Q1007 NOSIG=
201112050920 METAR COR EGLL 050920Z 25011KT CAVOK 04/M00 Q1007 NOSIG=
201112050850 METAR COR EGLL 050850Z 24010KT CAVOK 03/M01 Q1006 NOSIG=
201112050820 METAR COR EGLL 050820Z 25012KT CAVOK 04/M01 Q1006 NOSIG=
201112050750 METAR COR EGLL 050750Z 25011KT CAVOK 03/M01 Q1006 NOSIG=
201112050720 METAR COR EGLL 050720Z 25009KT CAVOK 03/M00 Q1006 NOSIG=
201112050650 METAR COR EGLL 050650Z 24010KT CAVOK 03/M00 Q1006 NOSIG=
201112050620 METAR COR EGLL 050620Z 25011KT CAVOK 03/M00 Q1006 NOSIG=
201112050550 METAR COR EGLL 050550Z 26011KT CAVOK 03/M00 Q1005 NOSIG=
201112050520 METAR COR EGLL 050520Z 25012KT CAVOK 03/M00 Q1005 NOSIG=
201112050450 METAR COR EGLL 050450Z 26012KT CAVOK 03/M00 Q1005 NOSIG=
201112050420 METAR COR EGLL 050420Z 25010KT CAVOK 03/M00 Q1005 NOSIG=
201112050350 METAR COR EGLL 050350Z 27010KT CAVOK 03/00 Q1005 NOSIG=
201112050320 METAR COR EGLL 050320Z 27010KT CAVOK 03/00 Q1004 NOSIG=
201112050250 METAR COR EGLL 050250Z 27010KT CAVOK 04/00 Q1004 NOSIG=
201112050220 METAR EGLL 050220Z AUTO 27012KT 9999 NCD 04/01 Q1004=
201112050150 METAR EGLL 050150Z AUTO 28012KT 9999 NCD 04/01 Q1003=
201112050120 METAR EGLL 050120Z AUTO 27011KT 9999 NCD 04/01 Q1003=
201112050050 METAR COR EGLL 050050Z 27011KT CAVOK 03/01 Q1003 NOSIG=
201112050020 METAR COR EGLL 050020Z 27008KT CAVOK 03/01 Q1003 NOSIG=
201112042350 METAR COR EGLL 042350Z 27008KT CAVOK 04/01 Q1002 NOSIG=
201112042320 METAR COR EGLL 042320Z 27009KT CAVOK 04/02 Q1002 NOSIG=
201112042250 METAR COR EGLL 042250Z 27010KT CAVOK 04/02 Q1001 NOSIG=
201112042220 METAR COR EGLL 042220Z 27011KT CAVOK 04/02 Q1001 NOSIG=
201112042150 METAR COR EGLL 042150Z 28010KT CAVOK 05/02 Q1000 NOSIG=
201112042120 METAR COR EGLL 042120Z 29012KT CAVOK 06/02 Q1000 NOSIG=
201112042050 METAR COR EGLL 042050Z 29009KT 9999 FEW026 05/03 Q0999 NOSIG=
201112042020 METAR COR EGLL 042020Z 29009KT CAVOK 06/03 Q0999 NOSIG=
201112041950 METAR COR EGLL 041950Z 30009KT CAVOK 06/03 Q0998 NOSIG=
201112041920 METAR COR EGLL 041920Z 30009KT 9999 FEW029 06/03 Q0998 NOSIG=
201112041850 METAR COR EGLL 041850Z 32010KT 9999 -SHRA FEW015 BKN029 08/05
                        Q0997 NOSIG=
201112041820 METAR COR EGLL 041820Z 27008KT 9999 SCT033 08/05 Q0997 NOSIG=
201112041750 METAR COR EGLL 041750Z 26010KT 9999 SCT032 08/05 Q0997 NOSIG=
201112041720 METAR COR EGLL 041720Z 26011KT 9999 FEW035 BKN046 08/05 Q0997
                        NOSIG=
201112041650 METAR COR EGLL 041650Z 26010KT 9999 FEW037 08/05 Q0997 NOSIG=
201112041620 METAR COR EGLL 041620Z 25010KT 9999 FEW018 08/05 Q0997 NOSIG=
201112041550 METAR COR EGLL 041550Z 27008KT 9999 FEW021 08/06 Q0997 NOSIG=
201112041520 METAR COR EGLL 041520Z 25010KT 9999 SCT017 09/06 Q0998 NOSIG=
201112041450 METAR COR EGLL 041450Z 25010KT 9999 FEW014 SCT017 09/06 Q0998
                        NOSIG=
201112041420 METAR COR EGLL 041420Z 25010KT 9999 -SHRA FEW021 SCT031 BKN036
                        09/07 Q0999 RESHRA TEMPO 25015G25KT
                        SHRA=
201112041350 METAR COR EGLL 041350Z 25011KT 210V280 9999 FEW020 SCT028
                        09/06 Q0999 TEMPO 25015G25KT=
201112041320 METAR COR EGLL 041320Z 24011KT 210V270 9999 5000S -RA FEW010
                        BKN028 09/06 Q1000 TEMPO 25015G25KT
                        SHRA=
201112041250 METAR COR EGLL 041250Z 24013KT 200V270 9999 FEW021 09/06
                        Q1000 TEMPO 25015G25KT=
201112041220 METAR COR EGLL 041220Z 23012KT 200V260 9999 FEW025 09/06
                        Q1000 TEMPO 25015G25KT=
201112041150 METAR COR EGLL 041150Z 24014G25KT 9999 FEW020 09/05 Q1001
                        NOSIG=
201112041120 METAR COR EGLL 041120Z 25015KT CAVOK 09/04 Q1001 NOSIG=
201112041050 METAR COR EGLL 041050Z 24012KT CAVOK 09/04 Q1002 NOSIG=
201112041020 METAR COR EGLL 041020Z 25013KT CAVOK 09/04 Q1002 NOSIG=
201112040950 METAR COR EGLL 040950Z 23011KT 190V260 9999 FEW030 08/04
                        Q1002 NOSIG=
201112040920 METAR COR EGLL 040920Z 24011KT CAVOK 08/03 Q1002 NOSIG=
201112040850 METAR COR EGLL 040850Z 24013KT CAVOK 08/03 Q1003 NOSIG=
201112040820 METAR COR EGLL 040820Z 25011KT CAVOK 08/03 Q1003 NOSIG=
201112040750 METAR COR EGLL 040750Z 24010KT CAVOK 08/03 Q1003 NOSIG=
201112040720 METAR EGLL 040720Z AUTO 25012KT 9999 NCD 08/04 Q1003=
201112040650 METAR EGLL 040650Z AUTO 24010KT 9999 NCD 08/04 Q1003=
201112040620 METAR COR EGLL 040620Z 24008KT CAVOK 07/04 Q1003 NOSIG=
201112040550 METAR COR EGLL 040550Z 22005KT 180V250 CAVOK 07/04 Q1003
                        NOSIG=
201112040520 METAR COR EGLL 040520Z 24007KT CAVOK 07/04 Q1003 NOSIG=
201112040450 METAR COR EGLL 040450Z 23006KT 200V270 CAVOK 07/04 Q1003
                        NOSIG=
201112040420 METAR COR EGLL 040420Z 24007KT CAVOK 07/04 Q1003 NOSIG=
201112040350 METAR COR EGLL 040350Z 27005KT CAVOK 08/03 Q1003 NOSIG=
201112040320 METAR COR EGLL 040320Z 26007KT CAVOK 08/04 Q1003 NOSIG=
201112040250 METAR COR EGLL 040250Z 27011KT 9999 SCT048 08/05 Q1003 NOSIG=
201112040220 METAR EGLL 040220Z AUTO 25010KT 9999 FEW019/// BKN046///
                        09/06 Q1004=
201112040150 METAR EGLL 040150Z AUTO 25011KT 9999 BKN048/// 09/06 Q1003=
201112040120 METAR EGLL 040120Z AUTO 25010KT 9999 NCD 09/06 Q1003=
201112040050 METAR COR EGLL 040050Z 25011KT 9999 BKN046 09/06 Q1003 NOSIG=
201112040020 METAR COR EGLL 040020Z 25010KT 9999 BKN044 09/06 Q1004 NOSIG=
201112032350 METAR COR EGLL 032350Z 24008KT 9999 BKN046 08/06 Q1004 NOSIG=
201112032320 METAR COR EGLL 032320Z 22006KT 9999 SCT047 08/06 Q1004 NOSIG=
201112032250 METAR COR EGLL 032250Z 21005KT 9999 SCT045 08/05 Q1004 NOSIG=
201112032220 METAR COR EGLL 032220Z 23006KT 200V260 CAVOK 08/05 Q1004
                        NOSIG=
201112032150 METAR COR EGLL 032150Z 22008KT CAVOK 08/05 Q1004 NOSIG=
201112032120 METAR COR EGLL 032120Z 23007KT 9999 FEW047 09/05 Q1004 NOSIG=
201112032050 METAR COR EGLL 032050Z 23008KT 190V260 9999 BKN046 08/05
                        Q1005 NOSIG=
201112032020 METAR COR EGLL 032020Z 23007KT 9999 BKN043 08/05 Q1005 NOSIG=
201112031950 METAR COR EGLL 031950Z 22007KT 190V260 9999 BKN043 08/04
                        Q1005 NOSIG=
201112031920 METAR COR EGLL 031920Z 25008KT 9999 SCT041 08/04 Q1005 NOSIG=
201112031850 METAR COR EGLL 031850Z 25009KT 9999 FEW038 09/04 Q1005 NOSIG=
201112031820 METAR EGLL 031820Z AUTO 25012KT 9999 NCD 09/04 Q1005=
201112031750 METAR COR EGLL 031750Z 24012KT 9999 FEW037 09/04 Q1005 NOSIG=
201112031720 METAR COR EGLL 031720Z 25011KT 9999 SCT040 09/04 Q1005 NOSIG=
201112031650 METAR COR EGLL 031650Z 26010KT 9999 BKN040 10/04 Q1004 NOSIG=
201112031620 METAR COR EGLL 031620Z 26011KT 9999 SCT042 10/04 Q1004 NOSIG=
201112031550 METAR COR EGLL 031550Z 27011KT 9999 BKN043 10/04 Q1004 NOSIG=
201112031520 METAR COR EGLL 031520Z 27013KT 9999 SCT039 SCT043 10/03 Q1004
                        NOSIG=
201112031450 METAR COR EGLL 031450Z 28010KT 9999 SCT040 10/04 Q1004 NOSIG=
201112031420 METAR COR EGLL 031420Z 28011KT 9999 SCT039 11/04 Q1004 NOSIG=
201112031350 METAR COR EGLL 031350Z 27012KT 9999 FEW041 11/04 Q1004 NOSIG=
201112031320 METAR COR EGLL 031320Z 28016KT 9999 BKN039 11/04 Q1003 NOSIG=
201112031250 METAR COR EGLL 031250Z 27018KT 9999 BKN039 11/04 Q1003 NOSIG=
201112031220 METAR EGLL 031220Z AUTO 28014KT 9999 FEW024/// SCT046///
                        11/05 Q1003=
201112031150 METAR COR EGLL 031150Z 28011KT 9999 FEW023 BKN048 11/07 Q1003
                        NOSIG=
201112031120 METAR COR EGLL 031120Z 28013KT 9999 FEW036 BKN049 11/07 Q1003
                        NOSIG=
201112031050 METAR COR EGLL 031050Z 28014KT CAVOK 12/07 Q1003 NOSIG=
201112031020 METAR COR EGLL 031020Z 27013KT 9999 BKN049 11/08 Q1003 NOSIG=
201112030950 METAR COR EGLL 030950Z 27013KT 9999 BKN048 11/08 Q1003 NOSIG=
201112030920 METAR COR EGLL 030920Z 27013KT 9999 FEW049 11/08 Q1003 NOSIG=
201112030850 METAR COR EGLL 030850Z 28012KT 9999 SCT026 11/08 Q1002 NOSIG=
201112030820 METAR COR EGLL 030820Z 27014KT 9999 BKN023 11/08 Q1002 NOSIG=
201112030750 METAR COR EGLL 030750Z 25012KT 9999 SCT028 11/09 Q1001 NOSIG=
201112030720 METAR COR EGLL 030720Z 26015KT 9999 FEW022 SCT043 11/09 Q1001
                        NOSIG=
201112030650 METAR COR EGLL 030650Z 25012KT 9999 BKN038 11/09 Q1001 NOSIG=
201112030620 METAR COR EGLL 030620Z 25014KT 9999 FEW017 11/10 Q1001 NOSIG=
201112030550 METAR COR EGLL 030550Z 24014KT 9999 -RA FEW005 SCT012 11/10
                        Q1001 TEMPO 5000 RADZ BKN008=
201112030520 METAR COR EGLL 030520Z 23012KT 9999 SCT013 SCT018 11/10 Q1001
                        TEMPO BKN010=
201112030450 METAR COR EGLL 030450Z 23012KT 9999 SCT014 SCT019 11/09 Q1001
                        TEMPO BKN010=
201112030420 METAR COR EGLL 030420Z 23014KT 9999 SCT014 SCT028 11/09 Q1001
                        TEMPO BKN010=
201112030350 METAR COR EGLL 030350Z 22015KT 7000 FEW012 SCT022 11/09 Q1001
                        TEMPO BKN010=
201112030320 METAR COR EGLL 030320Z 22017KT 9999 FEW018 BKN027 11/09 Q1002
                        TEMPO BKN010=
201112030250 METAR COR EGLL 030250Z 23017KT 9999 SCT018 SCT027 11/08 Q1003
                        TEMPO BKN012=
201112030220 METAR EGLL 030220Z AUTO 23016KT 9999 FEW018/// 11/08 Q1003=
201112030150 METAR EGLL 030150Z AUTO 23017KT 9999 SCT017/// 11/08 Q1004=
201112030120 METAR EGLL 030120Z AUTO 22014KT 9999 FEW014/// BKN017///
                        BKN025/// 10/08 Q1004=
201112030050 METAR COR EGLL 030050Z 22012G23KT 9999 -RA SCT017 10/08 Q1005
                        TEMPO BKN014=
201112030020 METAR COR EGLL 030020Z 21012KT 9999 -RA BKN014 BKN021 09/08
                        Q1006 TEMPO SCT014=
201112022350 METAR COR EGLL 022350Z 21013KT 9999 -RA BKN018 09/07 Q1007
                        TEMPO BKN014=
201112022320 METAR COR EGLL 022320Z 20010KT 9999 SCT014 08/07 Q1007 TEMPO
                        BKN014=
201112022250 METAR COR EGLL 022250Z 21011KT 9999 -RA FEW021 SCT048 08/06
                        Q1008 TEMPO BKN014=
201112022220 METAR COR EGLL 022220Z 21011KT 9999 FEW018 BKN046 08/05 Q1009
                        TEMPO BKN014=
201112022150 METAR COR EGLL 022150Z 22013KT 9999 SCT042 08/05 Q1010 NOSIG=
201112022120 METAR COR EGLL 022120Z 22013KT 9999 SCT038 08/04 Q1010 NOSIG=
201112022050 METAR COR EGLL 022050Z 22012KT 9999 FEW041 08/04 Q1011 NOSIG=
201112022020 METAR COR EGLL 022020Z 23014KT CAVOK 08/04 Q1012 NOSIG=
201112021950 METAR COR EGLL 021950Z 22012KT CAVOK 07/04 Q1012 NOSIG=
201112021920 METAR COR EGLL 021920Z 21008G19KT CAVOK 06/04 Q1012 NOSIG=
201112021850 METAR COR EGLL 021850Z 21008KT CAVOK 06/04 Q1012 NOSIG=
201112021820 METAR COR EGLL 021820Z 21008KT CAVOK 06/04 Q1013 NOSIG=
201112021750 METAR COR EGLL 021750Z 21009KT CAVOK 06/04 Q1013 NOSIG=
201112021720 METAR COR EGLL 021720Z 22009KT 9999 FEW049 06/04 Q1013 NOSIG=
201112021650 METAR COR EGLL 021650Z 22007KT 200V260 9999 SCT047 06/03
                        Q1014 NOSIG=
201112021620 METAR COR EGLL 021620Z 22008KT 170V250 CAVOK 06/03 Q1014
                        NOSIG=
201112021550 METAR COR EGLL 021550Z 21007KT 180V250 CAVOK 06/03 Q1014
                        NOSIG=
201112021520 METAR COR EGLL 021520Z 21007KT 180V240 CAVOK 07/04 Q1014
                        NOSIG=
201112021450 METAR COR EGLL 021450Z 23009KT CAVOK 07/03 Q1014 NOSIG=
201112021420 METAR COR EGLL 021420Z 23010KT CAVOK 08/03 Q1014 NOSIG=
201112021350 METAR COR EGLL 021350Z 23008KT 190V270 CAVOK 07/04 Q1014
                        NOSIG=
201112021320 METAR COR EGLL 021320Z 23008KT 200V260 CAVOK 07/04 Q1015
                        NOSIG=
201112021250 METAR COR EGLL 021250Z 25009KT CAVOK 07/04 Q1015 NOSIG=
201112021220 METAR COR EGLL 021220Z 25009KT 210V270 CAVOK 07/04 Q1015
                        NOSIG=
201112021150 METAR COR EGLL 021150Z 26008KT 230V290 CAVOK 07/04 Q1015
                        NOSIG=
201112021120 METAR COR EGLL 021120Z 28008KT CAVOK 07/04 Q1015 NOSIG=
201112021050 METAR COR EGLL 021050Z 26007KT CAVOK 06/04 Q1015 NOSIG=
201112021020 METAR COR EGLL 021020Z 25006KT 170V330 CAVOK 05/03 Q1015
                        NOSIG=
201112020950 METAR COR EGLL 020950Z 25007KT 210V280 CAVOK 04/03 Q1015
                        NOSIG=
201112020920 METAR COR EGLL 020920Z 28006KT CAVOK 04/02 Q1015 NOSIG=
201112020850 METAR COR EGLL 020850Z 28006KT CAVOK 03/02 Q1014 NOSIG=
201112020820 METAR COR EGLL 020820Z 26005KT 210V280 9000 NSC 02/01 Q1014
                        NOSIG=
201112020750 METAR COR EGLL 020750Z 28005KT CAVOK 02/01 Q1013 NOSIG=
201112020720 METAR COR EGLL 020720Z 28005KT CAVOK 03/02 Q1013 NOSIG=
201112020650 METAR COR EGLL 020650Z 28005KT CAVOK 02/02 Q1012 NOSIG=
201112020620 METAR COR EGLL 020620Z 24005KT 200V290 CAVOK 03/02 Q1012
                        NOSIG=
201112020550 METAR COR EGLL 020550Z 28004KT CAVOK 02/02 Q1012 NOSIG=
201112020520 METAR COR EGLL 020520Z 28006KT CAVOK 02/02 Q1011 NOSIG=
201112020450 METAR COR EGLL 020450Z 29004KT CAVOK 02/02 Q1011 NOSIG=
201112020420 METAR COR EGLL 020420Z 28006KT CAVOK 02/02 Q1010 NOSIG=
201112020350 METAR COR EGLL 020350Z 29004KT CAVOK 03/02 Q1010 NOSIG=
201112020320 METAR COR EGLL 020320Z 30003KT CAVOK 03/02 Q1009 NOSIG=
201112020250 METAR COR EGLL 020250Z 26005KT CAVOK 04/03 Q1009 NOSIG=
201112020220 METAR EGLL 020220Z AUTO 27005KT 9999 NCD 04/03 Q1008=
201112020150 METAR EGLL 020150Z AUTO 31005KT 9999 FEW040/// 04/03 Q1008=
201112020120 METAR EGLL 020120Z AUTO 31005KT 9999 FEW040/// 05/04 Q1008=
201112020050 METAR COR EGLL 020050Z 29005KT 9999 SCT035 05/04 Q1007 NOSIG=
201112020020 METAR COR EGLL 020020Z 28007KT 9999 SCT035 05/04 Q1007 NOSIG=
201112012350 METAR COR EGLL 012350Z 27005KT 9999 FEW030 SCT040 06/05 Q1007
                        NOSIG=
201112012320 METAR COR EGLL 012320Z 29004KT 9999 FEW045 07/05 Q1006 NOSIG=
201112012250 METAR COR EGLL 012250Z 31003KT 9999 FEW020 07/05 Q1005 NOSIG=
201112012220 METAR COR EGLL 012220Z 10004KT 070V130 9999 -RA SCT030 07/05
                        Q1005 RERA NOSIG=
201112012150 METAR COR EGLL 012150Z VRB02KT 9999 RA BKN028 08/04 Q1006
                        BECMG NSW=
201112012120 METAR COR EGLL 012120Z VRB02KT 9999 RA BKN028 08/04 Q1005
                        NOSIG=
201112012050 METAR COR EGLL 012050Z VRB02KT 9999 RA BKN029 08/04 Q1005
                        NOSIG=
201112012020 METAR COR EGLL 012020Z 00000KT 9999 RA FEW021 BKN028 08/04
                        Q1006 NOSIG=
201112011950 METAR COR EGLL 011950Z VRB03KT 9999 RA BKN028 07/06 Q1006
                        NOSIG=
201112011920 METAR COR EGLL 011920Z VRB02KT 9999 RA BKN028 07/06 Q1006
                        NOSIG=
201112011850 METAR COR EGLL 011850Z VRB03KT 9999 -RA FEW023 SCT032 08/06
                        Q1006 NOSIG=
201112011820 METAR COR EGLL 011820Z VRB03KT 9999 RA SCT033 SCT040 08/06
                        Q1006 TEMPO -RA=
201112011750 METAR COR EGLL 011750Z 14004KT 090V200 9999 RA SCT027 BKN034
                        08/06 Q1006 TEMPO -RA=
201112011720 METAR COR EGLL 011720Z 00000KT 9999 RA SCT031 BKN038 08/05
                        Q1006 RERA TEMPO -RA=
201112011650 METAR COR EGLL 011650Z VRB02KT 9999 -RA FEW028 BKN036 09/04
                        Q1006 TEMPO 5000 RA BKN014=
201112011620 METAR COR EGLL 011620Z VRB02KT 9999 -RA FEW028 BKN038 10/03
                        Q1006 NOSIG=
201112011550 METAR EGLL 011550Z 36003KT 9999 SCT029 10/04 Q1006=
201112011520 METAR EGLL 011520Z 36003KT CAVOK 10/04 Q1007=
201112011450 METAR COR EGLL 011450Z 33004KT CAVOK 10/05 Q1007 NOSIG=
201112011420 METAR COR EGLL 011420Z 29005KT CAVOK 10/05 Q1007 NOSIG=
201112011350 METAR COR EGLL 011350Z 26007KT 230V300 CAVOK 10/05 Q1007
                        NOSIG=
201112011320 METAR COR EGLL 011320Z 26006KT 220V320 CAVOK 10/05 Q1007
                        NOSIG=
201112011250 METAR COR EGLL 011250Z 29005KT 270V330 CAVOK 11/05 Q1008
                        NOSIG=
201112011220 METAR COR EGLL 011220Z 28006KT 220V300 CAVOK 10/04 Q1008
                        NOSIG=
201112011150 METAR COR EGLL 011150Z 27009KT CAVOK 10/04 Q1008 NOSIG=
201112011120 METAR COR EGLL 011120Z 27012KT CAVOK 10/04 Q1009 NOSIG=
201112011050 METAR COR EGLL 011050Z 26010KT CAVOK 11/04 Q1008 NOSIG=
201112011020 METAR COR EGLL 011020Z 27010KT 9999 FEW031 11/07 Q1008 NOSIG=
201112010950 METAR COR EGLL 010950Z 27010KT 9999 FEW028 10/08 Q1008 NOSIG=
201112010920 METAR COR EGLL 010920Z 29008KT 9999 FEW016 SCT018 10/08 Q1008
                        NOSIG=
201112010850 METAR COR EGLL 010850Z 28010KT 9999 FEW014 SCT017 11/09 Q1008
                        NOSIG=
201112010820 METAR COR EGLL 010820Z 28009KT 9999 SCT016 SCT038 11/09 Q1008
                        NOSIG=
201112010750 METAR COR EGLL 010750Z 25009KT 9999 FEW028 BKN042 11/09 Q1007
                        NOSIG=
201112010720 METAR COR EGLL 010720Z 25008KT 9999 FEW028 BKN044 11/09 Q1007
                        NOSIG=
201112010650 METAR COR EGLL 010650Z 28009KT 9000 -RA FEW018 SCT024 12/09
                        Q1007 NOSIG=
201112010620 METAR COR EGLL 010620Z 21010KT 190V250 9999 FEW026 SCT031
                        12/08 Q1006 NOSIG=
201112010550 METAR COR EGLL 010550Z 22010KT 200V260 9999 FEW028 11/08
                        Q1006 NOSIG=
201112010520 METAR COR EGLL 010520Z 21010KT 9999 FEW026 11/08 Q1006 NOSIG=
201112010450 METAR COR EGLL 010450Z 21010KT 9999 FEW026 11/08 Q1006 NOSIG=
201112010420 METAR COR EGLL 010420Z 22010KT 9999 FEW026 11/08 Q1006 NOSIG=
201112010350 METAR COR EGLL 010350Z 22012KT 9999 FEW030 11/08 Q1006 NOSIG=
201112010320 METAR COR EGLL 010320Z 22012KT 9999 FEW028 11/08 Q1006 NOSIG=
201112010250 METAR COR EGLL 010250Z 23015KT 9999 FEW025 11/08 Q1007 NOSIG=
201112010220 METAR EGLL 010220Z AUTO 22016KT 9999 SCT013/// BKN018///
                        11/09 Q1006=
201112010150 METAR EGLL 010150Z AUTO 20015KT 9999 BKN013/// 11/10 Q1006=
201112010120 METAR EGLL 010120Z AUTO 20013KT 9999 FEW010/// BKN013///
                        BKN017/// 11/09 Q1007=
201112010050 METAR COR EGLL 010050Z 19016KT 9999 -RA BKN011 10/09 Q1007
                        NOSIG=
201112010020 METAR COR EGLL 010020Z 18014KT 7000 -RA FEW009 BKN012 10/08
                        Q1008 RERA TEMPO 4000 RA=

# No short TAF reports from EGLL in databse.

###################################
#  large TAF from EGLL
###################################
201112312300 TAF EGLL 312300Z 0100/0206 22010KT 9999 SCT012 BKN022
                      TEMPO 0100/0109 BKN012
                      PROB30 TEMPO 0100/0102 7000 -RA BKN007
                      TEMPO 0114/0121 6000 RA
                      PROB30 TEMPO 0115/0120 4000 BKN010
                      BECMG 0118/0121 28012KT
                      BECMG 0202/0205 CAVOK=
201112311703 TAF EGLL 311703Z 3118/0124 23010KT 9999 SCT014 BKN020
                      BECMG 3118/3121 7000 -RADZ BKN012
                      TEMPO 3120/0101 4000 RA BKN007
                      BECMG 0100/0103 9999 NSW SCT012 BKN018
                      PROB30 TEMPO 0103/0112 BKN010
                      TEMPO 0116/0123 6000 RA
                      PROB30 TEMPO 0118/0122 4000 BKN012=
201112311100 TAF EGLL 311100Z 3112/0118 26011KT 9999 SCT012 BKN020
                      TEMPO 3112/3120 7000 -RADZ BKN012
                      BECMG 3120/3122 19011KT 6000 RA BKN008
                      PROB30 TEMPO 3121/0102 4000 BKN004
                      BECMG 0101/0103 25008KT 9999 NSW BKN016
                      TEMPO 0115/0118 5000 RA BKN010=
201112310454 TAF EGLL 310454Z 3106/0112 27012KT 9999 SCT012 BKN025
                      TEMPO 3106/3118 BKN012
                      PROB30 TEMPO 3106/3118 9000 -RA BKN007
                      BECMG 3118/3121 21012KT 8000 -RA BKN007
                      TEMPO 3121/0101 4000 RA BKN004
                      BECMG 0101/0104 9999 NSW SCT018=
201112302312 TAF EGLL 302312Z 3100/0106 27010KT 9999 SCT012 BKN020
                      TEMPO 3100/3118 BKN010
                      PROB30 TEMPO 3106/3118 8000 -RA BKN007
                      BECMG 3118/3121 21012KT 5000 -RADZ BKN007
                       TEMPO 3121/0102 4000 RADZ BKN004
                      BECMG 0102/0105 9999 NSW SCT018=
201112302300 TAF EGLL 302300Z NIL=
201112301704 TAF EGLL 301704Z 3018/3124 18006KT 6000 -RA BKN010
                      TEMPO 3018/3022 4000 RA BKN003
                      BECMG 3022/3024 26010KT 9999 NSW
                      PROB30 TEMPO 3100/3124 7000 -RADZ BKN008=
201112301101 TAF EGLL 301101Z 3012/3118 19006KT 9999 FEW018 SCT035
                      TEMPO 3012/3014 8000 -RA BKN014
                      BECMG 3014/3017 6000 -RA BKN012
                      TEMPO 3016/3022 4000 RA BKN004
                      BECMG 3021/3024 26010KT 9999 NSW BKN018
                      PROB30 TEMPO 3100/3118 7000 -RADZ BKN012=
201112300505 TAF EGLL 300505Z 3006/3112 28010KT 9999 FEW022 SCT040
                      PROB40 TEMPO 3010/3013 8000 -RA BKN014
                      BECMG 3013/3017 19005KT 6000 -RA BKN012
                      TEMPO 3015/3021 4000 RA BKN004
                      BECMG 3019/3022 26010KT 9999 NSW BKN018
                      PROB30 TEMPO 3100/3112 6000 -RADZ BKN012=
201112292306 TAF EGLL 292306Z 3000/3106 28012KT 9999 SCT025
                      TEMPO 3011/3013 8000 -RA
                      BECMG 3012/3015 19005KT
                      BECMG 3013/3016 6000 -RA BKN012
                      PROB30 TEMPO 3016/3020 4000 RA BKN004
                      BECMG 3019/3022 26010KT
                      BECMG 3022/3024 9999 NSW BKN018
                      PROB30 TEMPO 3100/3106 6000 -RADZ BKN014=
201112291700 TAF EGLL 291700Z 2918/3024 28014KT 9999 SCT035
                      TEMPO 2918/2920 30018G28KT 7000 SHRA
                      BECMG 3010/3013 21005KT
                      TEMPO 3012/3024 8000 -RA BKN014
                      PROB30 TEMPO 3015/3022 4000 RADZ BKN004
                      BECMG 3018/3021 27010KT=
201112291101 TAF EGLL 291101Z 2912/3018 26016G28KT 9999 SCT015 BKN030
                      TEMPO 2912/2919 7000 SHRA
                      BECMG 2920/2923 26012KT CAVOK
                      BECMG 3009/3012 20005KT BKN030
                      TEMPO 3010/3018 8000 -RA BKN014
                      PROB30 TEMPO 3014/3018 4000 RADZ BKN004=
201112290458 TAF EGLL 290458Z 2906/3012 26013KT 9999 BKN024
                      BECMG 2906/2910 27016G28KT
                      TEMPO 2907/2919 7000 -RA BKN014
                      BECMG 2919/2922 26012KT
                      BECMG 3009/3012 20008KT
                      PROB30 TEMPO 3009/3012 8000 -RA BKN014=
201112282254 TAF EGLL 282254Z 2900/3006 26013KT CAVOK
                      BECMG 2906/2910 27016G28KT BKN024
                      PROB40 TEMPO 2909/2921 7000 -RA BKN014
                      BECMG 2921/2924 26012KT=
201112281702 TAF EGLL 281702Z 2818/2924 25013KT CAVOK
                      TEMPO 2818/2823 27016G26KT
                      BECMG 2906/2909 SCT018 BKN030
                      TEMPO 2908/2920 27018G30KT 7000 SHRA=
201112281053 TAF EGLL 281053Z 2812/2918 25014KT 9999 SCT030
                      TEMPO 2812/2823 27017G28KT
                      TEMPO 2908/2918 27018G30KT 7000 SHRA=
201112280458 TAF EGLL 280458Z 2806/2912 19012KT 9999 SCT030
                      TEMPO 2806/2808 20016G28KT 7000 -RA BKN010
                       BECMG 2811/2814 26017G28KT
                      BECMG 2821/2824 27012KT
                      PROB40 TEMPO 2909/2912 27017G28KT 7000 SHRA=
201112280338 TAF AMD EGLL 280338Z 2803/2906 19012KT 9999 SCT030
                      TEMPO 2803/2808 20016G28KT 8000 -RA BKN014
                       PROB30
                      TEMPO 2805/2807 4000 RADZ BKN008
                      BECMG 2811/2814 26017G28KT
                      BECMG 2821/2824 27012KT=
201112272300 TAF AMD EGLL 280338Z 2803/2906 19012KT 9999 SCT030
                      TEMPO 2803/2808 20016G28KT 8000 -RA BKN014
                       PROB30
                      TEMPO 2805/2807 4000 RADZ BKN008
                      BECMG 2811/2814 26017G28KT
                      BECMG 2821/2824 27012KT=
201112272257 TAF EGLL 272257Z 2800/2906 19010KT 9999 BKN020
                      BECMG 2800/2803 20016G28KT BKN014
                      TEMPO 2803/2808 8000 -RA BKN008
                      PROB30 TEMPO 2805/2807 4000 RADZ
                      BECMG 2806/2809 SCT030
                      BECMG 2809/2812 26017G28KT
                      BECMG 2821/2824 27012KT=
201112271703 TAF EGLL 271703Z 2718/2824 19007KT 9999 SCT025
                      PROB30 TEMPO 2721/2801 BKN014
                      BECMG 2801/2804 19015G28KT BKN014
                      TEMPO 2803/2808 6000 -RA BKN008
                      PROB30 TEMPO 2806/2808 4000 RA
                      BECMG 2807/2810 SCT026
                      BECMG 2810/2813 26016G28KT=
201112271101 TAF EGLL 271101Z 2712/2818 22008KT 9999 BKN030
                      PROB30 TEMPO 2714/2721 8000 -RA BKN014
                      BECMG 2721/2724 BKN012
                      TEMPO 2721/2808 21015G25KT 6000 -RADZ BKN008
                       BECMG 2807/2810 SCT026
                      BECMG 2810/2813 25015G25KT=
201112270502 TAF EGLL 270502Z 2706/2812 23008KT 9999 BKN030
                      PROB30 TEMPO 2715/2721 BKN012
                      BECMG 2721/2724 BKN014
                      TEMPO 2802/2806 21017G27KT
                      PROB40 TEMPO 2803/2807 7000 -RADZ BKN008
                       BECMG 2807/2809 SCT030
                      BECMG 2809/2812 25015G25KT=
201112262300 TAF EGLL 262300Z 2700/2806 25012KT 9999 BKN024
                      BECMG 2706/2709 19007KT
                      BECMG 2720/2723 BKN014
                      TEMPO 2802/2806 21017G27KT
                      PROB40 TEMPO 2803/2806 7000 -RADZ BKN008=
201112261705 TAF EGLL 261705Z 2618/2724 23008KT 9999 SCT015 BKN035
                      PROB30 TEMPO 2703/2710 8000 BKN014
                      TEMPO 2719/2724 7000 -RA BKN010=
201112261102 TAF EGLL 261102Z 2612/2718 24011KT 9999 FEW015 BKN026
                      PROB30 TEMPO 2703/2710 BKN014
                      BECMG 2711/2714 18008KT=
201112260459 TAF EGLL 260459Z 2606/2712 25012KT 9999 FEW012 BKN020
                      TEMPO 2606/2612 SCT007 BKN012
                      PROB40 TEMPO 2606/2610 9000 -RADZ BKN007
                       BECMG 2708/2711 19008KT=
201112252300 TAF EGLL 252300Z 2600/2706 23012KT 9999 FEW014 BKN022
                      TEMPO 2600/2613 SCT008 BKN014
                      PROB30 TEMPO 2600/2610 8000 -RADZ BKN008=
201112252027 TAF AMD EGLL 252027Z 2520/2624 23014KT 9999 FEW014 BKN022
                      TEMPO 2521/2613 BKN012
                      PROB30 TEMPO 2522/2610 8000 -RADZ BKN008=
201112251702 TAF EGLL 251702Z 2518/2624 23014KT 9999 BKN022
                      BECMG 2518/2521 BKN014
                      PROB40 TEMPO 2520/2610 8000 -RADZ BKN008
                       BECMG 2610/2613 BKN025=
201112251059 TAF EGLL 251059Z 2512/2618 23012KT 9999 SCT020 BKN035
                      PROB40 TEMPO 2512/2519 23015G25KT
                      BECMG 2518/2521 BKN014
                      PROB40 TEMPO 2520/2610 8000 -RADZ BKN008
                       BECMG 2611/2614 BKN025=
201112250457 TAF EGLL 250457Z 2506/2612 23012KT 9999 SCT020 BKN035
                      PROB40 TEMPO 2506/2511 BKN012
                      PROB40 TEMPO 2512/2519 24015G25KT
                      TEMPO 2518/2612 BKN012
                      PROB40 TEMPO 2518/2610 8000 -RADZ BKN009=
201112242300 TAF EGLL 242300Z 2500/2606 23011KT 9999 FEW022 SCT030
                      PROB30 TEMPO 2500/2511 BKN012
                      PROB40 TEMPO 2511/2520 24015G25KT
                      TEMPO 2518/2606 BKN012
                      PROB30 TEMPO 2521/2606 8000 -RADZ BKN009=
201112241656 TAF EGLL 241656Z 2418/2524 23010KT 9999 SCT030
                      PROB30 TEMPO 2421/2511 BKN012
                      PROB40 TEMPO 2512/2520 23015G25KT
                      BECMG 2518/2521 BKN014
                      PROB30 TEMPO 2521/2524 BKN009=
201112241102 TAF EGLL 241102Z 2412/2518 24009KT 9999 SCT040
                      PROB30 TEMPO 2421/2511 BKN012
                      PROB40 TEMPO 2512/2518 23015G25KT=
201112240455 TAF EGLL 240455Z 2406/2512 27009KT CAVOK
                      BECMG 2411/2414 BKN025
                      PROB30 TEMPO 2415/2421 BKN014
                      TEMPO 2421/2510 BKN012=
201112232252 TAF EGLL 232252Z 2400/2506 30010KT CAVOK
                      BECMG 2409/2412 24007KT
                      BECMG 2418/2421 BKN030
                      TEMPO 2423/2506 BKN012=
201112231702 TAF EGLL 231702Z 2318/2424 31015G25KT 9999 FEW018 BKN030
                      PROB40 TEMPO 2318/2320 8000 SHRA RA BKN014
                       BECMG 2321/2324 30010KT CAVOK
                      BECMG 2409/2412 24007KT
                      BECMG 2418/2421 BKN030
                      PROB30 TEMPO 2421/2424 23015G25KT=
201112231547 TAF AMD EGLL 231547Z 2315/2418 22015G25KT 7000 RA BKN012
                      TEMPO 2315/2317 25025G35KT 3000 +RA BKN009
                       BECMG 2316/2318 31015G25KT 9999 NSW BKN030
                       PROB40
                      TEMPO 2317/2320 8000 SHRA RA
                      BECMG 2321/2324 30010KT CAVOK
                      BECMG 2409/2412 24007KT=
201112231059 TAF EGLL 231059Z 2312/2418 22012KT 9999 SCT015 BKN030
                      PROB40 TEMPO 2312/2313 23015G26KT BKN012
                       TEMPO 2313/2316 23022G35KT 5000 RA BKN012
                       PROB30
                      TEMPO 2313/2316 2500 +RA BKN007
                      BECMG 2315/2318 30012KT
                      PROB30 TEMPO 2316/2319 8000 RA SHRA
                      BECMG 2321/2324 CAVOK
                      BECMG 2409/2412 24007KT=
201112230932 TAF AMD EGLL 230932Z 2309/2412 22012KT 9999 FEW015 BKN030
                      PROB40 TEMPO 2309/2313 23015G26KT BKN012
                       TEMPO 2313/2316 23022G35KT 5000 RA BKN012
                       PROB30
                      TEMPO 2313/2316 2500 +RA BKN007
                      BECMG 2315/2318 30012KT
                      PROB30 TEMPO 2316/2319 8000 RA SHRA
                      BECMG 2321/2324 CAVOK
                      BECMG 2409/2412 24007KT=
201112230503 TAF EGLL 230503Z 2306/2412 22014KT 9999 SCT013 BKN025
                      PROB30 TEMPO 2311/2313 8000 -RA BKN014
                      TEMPO 2313/2317 7000 -RA BKN012
                      PROB30 TEMPO 2314/2316 22022G35KT 4000 RA
                       BKN008
                      BECMG 2315/2317 31010KT
                      PROB30 TEMPO 2317/2319 8000 RA SHRA=
201112222302 TAF EGLL 222302Z 2300/2406 22007KT 9999 SCT015 BKN040
                      BECMG 2307/2310 22017KT
                      PROB30 TEMPO 2311/2313 8000 -RA BKN014
                      TEMPO 2313/2315 23022G32KT 4000 RA BKN010
                       BECMG 2315/2317 31010KT
                      PROB30 TEMPO 2315/2319 8000 RA SHRA=
201112222134 TAF AMD EGLL 222134Z 2221/2324 27012KT 9999 FEW015 SCT040
                      BECMG 2221/2224 21007KT
                      TEMPO 2221/2223 BKN009
                      BECMG 2307/2310 22017KT
                      PROB30 TEMPO 2310/2313 8000 -RA BKN014
                      TEMPO 2313/2316 23022G32KT 4000 RA BKN012
                       BECMG 2315/2318 30012KT
                      PROB30 TEMPO 2316/2321 8000 RA SHRA=
201112222029 TAF AMD EGLL 222029Z 2220/2324 27012KT 9999 FEW015 SCT040
                      TEMPO 2220/2222 BKN012
                      BECMG 2221/2224 21007KT
                      BECMG 2307/2310 22017KT
                      PROB30 TEMPO 2310/2313 8000 -RA BKN014
                      TEMPO 2313/2316 23022G32KT 4000 RA BKN012
                       BECMG 2315/2318 30012KT
                      PROB30 TEMPO 2316/2321 8000 RA SHRA=
201112221700 TAF EGLL 221700Z 2218/2324 27012KT 9999 FEW015 SCT040
                      BECMG 2221/2224 21007KT
                      BECMG 2307/2310 22017KT
                      PROB30 TEMPO 2310/2313 8000 -RA BKN014
                      TEMPO 2313/2316 23022G32KT 4000 RA BKN012
                       BECMG 2315/2318 30012KT
                      PROB30 TEMPO 2316/2321 8000 RA SHRA=
201112221055 TAF EGLL 221055Z 2212/2318 27010KT 9999 FEW015 SCT040
                      BECMG 2221/2224 21007KT
                      BECMG 2308/2311 22017KT
                      TEMPO 2313/2316 23022G32KT 4000 RA BKN014
                       BECMG 2315/2318 30012KT=
201112220501 TAF EGLL 220501Z 2206/2312 28007KT 9999 SCT045
                      TEMPO 2206/2213 7000 BKN010
                      PROB30 TEMPO 2206/2210 4500 BR BKN004
                      BECMG 2304/2307 22012KT
                      TEMPO 2309/2312 20015G28KT 8000 RA BKN014=
201112212302 TAF EGLL 212302Z 2200/2306 28008KT 9999 SCT045
                      TEMPO 2202/2213 7000 BKN012
                      PROB30 TEMPO 2205/2209 4000 BR SCT002 BKN004
                       BECMG 2304/2306 22012KT=
201112211802 TAF AMD EGLL 211802Z 2118/2224 28007KT 9999 FEW014 SCT025
                      PROB30 TEMPO 2123/2204 7000 BKN010
                      BECMG 2204/2206 6000 BKN007
                      PROB30 TEMPO 2205/2209 4000 BR BKN004
                      BECMG 2209/2212 9999 BKN012
                      TEMPO 2212/2224 SCT015=
201112211703 TAF EGLL 211703Z 2118/2224 28007KT 9999 SCT014 BKN025
                      PROB30 TEMPO 2123/2204 7000 BKN010
                      BECMG 2204/2206 6000 BKN007
                      PROB30 TEMPO 2205/2209 4000 BR BKN004
                      BECMG 2209/2212 9999 BKN012
                      TEMPO 2212/2224 SCT015=
201112211101 TAF EGLL 211101Z 2112/2218 29008KT 9999 SCT014 BKN025
                      PROB30 TEMPO 2112/2113 BKN014
                      PROB30 TEMPO 2122/2204 7000 BKN008
                      TEMPO 2204/2211 7000 BKN008
                      PROB30 TEMPO 2206/2209 4000 BR BKN004=
201112210814 TAF AMD EGLL 210814Z 2108/2212 27007KT 9999 SCT004 BKN009
                      TEMPO 2108/2110 4000 BR BKN004
                      BECMG 2110/2113 BKN014
                      BECMG 2116/2119 SCT035
                      TEMPO 2202/2212 7000 BKN008
                      PROB30 TEMPO 2205/2209 2000 BR SCT002 BKN004=
201112210509 TAF EGLL 210509Z 2106/2212 27007KT 9999 SCT004 BKN009
                      TEMPO 2106/2110 6000
                      PROB30 TEMPO 2106/2108 2000 BR SCT002 BKN003
                       BECMG 2110/2113 BKN014
                      BECMG 2116/2119 SCT035
                      TEMPO 2202/2212 7000 BKN008
                      PROB30 TEMPO 2205/2209 2000 BR SCT002 BKN004=
201112202303 TAF EGLL 202303Z 2100/2206 24010KT 9999 BKN045
                      BECMG 2100/2103 18005KT 8000 -RA SCT004 BKN014
                       TEMPO 2101/2108 4500 RADZ BKN008
                      PROB30 TEMPO 2102/2106 SCT002 BKN004
                      BECMG 2104/2106 29010KT
                      BECMG 2108/2111 9999 NSW BKN018
                      BECMG 2116/2119 CAVOK
                      TEMPO 2202/2206 7000 BKN010=
201112201704 TAF EGLL 201704Z 2018/2124 27010KT 9999 SCT028 BKN040
                      BECMG 2022/2101 20005KT 8000 -RA BKN012
                      TEMPO 2101/2108 4500 RA BKN008
                      PROB30 TEMPO 2102/2107 BKN004
                      BECMG 2108/2111 28010KT 9999 NSW SCT025
                      PROB30 TEMPO 2122/2124 BKN012=
201112201101 TAF EGLL 201101Z 2012/2118 30010KT 9999 FEW030 SCT045
                      BECMG 2021/2024 21005KT 8000 -RA BKN012
                      TEMPO 2023/2108 4500 RA BKN008
                      PROB30 TEMPO 2102/2108 BKN004
                      BECMG 2107/2110 29010KT 9999 NSW SCT018=
201112200456 TAF EGLL 200456Z 2006/2112 30010KT 9999 FEW025 SCT040
                      BECMG 2021/2024 19006KT 8000 -RA BKN014
                      TEMPO 2023/2109 4000 RA BKN007
                      PROB30 TEMPO 2102/2107 BKN004
                      BECMG 2106/2109 27010KT 9999 NSW BKN016
                      PROB30 TEMPO 2109/2111 6000 -RA BKN010=
201112192258 TAF EGLL 192258Z 2000/2106 30010KT 9999 FEW015 SCT030
                      PROB30 TEMPO 2001/2006 6000 -SHRA BKN012
                       BECMG 2021/2024 21008KT 8000 -RA BKN014
                       TEMPO 2023/2106 4000 RA BKN006=
201112191704 TAF EGLL 191704Z 1918/2024 22008KT 9999 FEW015 SCT030
                      BECMG 1918/1919 30010KT
                      TEMPO 1918/1920 8000 RA BKN012
                      PROB30 TEMPO 1918/1920 BKN006
                      PROB30 TEMPO 2002/2005 9000 -SHRA BKN014
                       BECMG 2021/2024 9000 -RA BKN014=
201112191102 TAF EGLL 191102Z 1912/2018 22006KT 9999 SCT035
                      TEMPO 1912/1919 8000 -RA
                      PROB30 TEMPO 1912/1916 4500 RA BKN012
                      PROB40 TEMPO 1916/1920 4000 RADZ BKN006
                      BECMG 1917/1920 30010KT
                      PROB30 TEMPO 2002/2005 9000 -DZ=
201112190913 TAF AMD EGLL 190913Z 1909/2012 22006KT 9999 SCT040
                      PROB30 TEMPO 1909/1912 7000 -DZ
                      TEMPO 1912/1918 4000 RA BKN012
                      PROB40 1915/1919 RADZ BKN006
                      BECMG 1917/1920 30011KT 9999 NSW FEW025=
201112190458 TAF EGLL 190458Z 1906/2012 23006KT 9999 SCT012 BKN030
                      BECMG 1906/1909 7000 -DZ BKN012
                      PROB30 TEMPO 1906/1911 4000 BR -DZ BKN004
                       TEMPO 1911/1918 4000 RA BKN006
                      BECMG 1917/1920 30011KT 9999 NSW FEW025=
201112182303 TAF EGLL 182303Z 1900/2006 24006KT 9999 SCT030
                      BECMG 1900/1904 6000
                      TEMPO 1902/1911 4000 BR -DZ
                      PROB30 TEMPO 1904/1911 BKN004
                      BECMG 1906/1909 -RADZ BKN012
                      TEMPO 1911/1918 4000 RA BKN006
                      BECMG 1917/1920 30011KT 9999=
201112182207 TAF AMD EGLL 182207Z 1822/1924 26006KT 9999 SCT030
                      BECMG 1900/1904 6000
                      TEMPO 1900/1920 4000 BR
                      PROB30 1904/1907 0800 FG BKN004
                      BECMG 1908/1912 -RADZ BKN012
                      TEMPO 1912/1917 RA BKN006
                      BECMG 1917/1920 29012KT 9999 NSW FEW025=
201112181757 TAF COR EGLL 181757Z 1818/1924 29010KT 9999 SCT030
                      BECMG 1819/1822 VRB04KT 4500 BR
                      TEMPO 1821/1909 BKN005
                      PROB30 1823/1908 0200 FG=
201112181700 TAF EGLL 181700Z 1818/1924 29010KT 9999 SCT030
                      BECMG 1819/1822 VRB04KT 4500 BR
                      TEMPO 1821/1909 BKN005
                      PROB30 1823/1908 0200 FG FZFG BKN001
                      BECMG 1909/1912 23012KT 5000 -RADZ SCT008
                       BKN014
                      TEMPO 1913/1917 4000 RA BKN007
                      BECMG 1917/1919 29012KT 9999 NSW=
201112181108 TAF EGLL 181108Z 1812/1918 29010KT 9999 SCT030
                      BECMG 1822/1901 VRB04KT 7000
                      TEMPO 1901/1909 4000 BR BKN005
                      PROB30 1903/1908 0600 FG FZFG VV///
                      BECMG 1909/1912 23012KT 8000 -RA SCT008 BKN012
                       TEMPO 1912/1918 4000 RA BKN007=
201112180505 TAF EGLL 180505Z 1806/1912 29010KT 9999 FEW014 SCT030
                      PROB30 TEMPO 1809/1812 3500 -SHSN BKN014
                       BECMG 1822/1901 VRB04KT 8000
                      BECMG 1901/1903 4000 BR
                      PROB40 1903/1910 0600 FG FZFG VV///
                      BECMG 1910/1912 23012KT 8000 -RA SCT008 BKN012=
201112172305 TAF EGLL 172305Z 1800/1906 30010KT 9999 FEW018 SCT040
                      TEMPO 1808/1811 8000 -SHRASN
                      PROB30 TEMPO 1808/1811 3000 -SHSN SCT007
                       BKN014CB
                      BECMG 1822/1901 22004KT 8000
                      BECMG 1901/1903 4000 BR
                      PROB40 1903/1906 0600 FG BKN001=
201112171652 TAF EGLL 171652Z 1718/1824 28010KT 9999 SCT026
                      PROB30 TEMPO 1718/1720 8000 -SHRA BKN014
                       PROB40
                      TEMPO 1808/1812 5000 -SHRASN BKN012=
201112171109 TAF EGLL 171109Z 1712/1818 28010KT 9999 SCT026
                      PROB30 TEMPO 1716/1720 8000 -SHRAGS BKN014
                       PROB30
                      TEMPO 1809/1812 6000 -SHRASN BKN014=
201112170504 TAF EGLL 170504Z 1706/1812 29008KT 6000 FEW018 SCT030
                      PROB40 1706/1709 3000 BR
                      BECMG 1709/1712 9999
                      PROB30 TEMPO 1709/1712 -SHRAGS BKN014
                      PROB30 TEMPO 1717/1720 9000 -SHRA
                      TEMPO 1800/1809 8000=
201112162300 TAF EGLL 162300Z 1700/1806 28006KT 9999 FEW018 SCT030
                      PROB40 1703/1709 3000 BR BKN005
                      PROB30 TEMPO 1709/1712 7000 -SHRAGS BKN014
                       PROB30
                      TEMPO 1717/1720 9000 -SHRA
                      BECMG 1800/1803 8000
                      PROB30 1803/1806 4000 BR=
201112161702 TAF EGLL 161702Z 1618/1724 32010KT 9999 SCT026
                      PROB30 TEMPO 1621/1624 8000 -SHRASN BKN009
                       PROB30 1705/1709 6000
                      PROB30 TEMPO 1709/1714 8000 -SHRA BKN012=
201112161058 TAF EGLL 161058Z 1612/1718 32012KT 9999 SCT010 BKN026
                      PROB30 TEMPO 1619/1622 8000 -SHRA BKN009
                       PROB30 1705/1709 6000
                      PROB30 TEMPO 1711/1714 8000 -SHRA BKN012=
201112160506 TAF EGLL 160506Z 1606/1712 03012KT 9999 -RA BKN014
                      BECMG 1606/1608 33013KT 4000 RASN BKN008
                       PROB30
                      TEMPO 1607/1611 35015G25KT 0700 SN VV///
                       BECMG 1611/1614 NSW SCT022
                      BECMG 1618/1621 27008KT
                      PROB30 TEMPO 1621/1624 9000 -SHRASN BKN008
                       PROB30 1704/1709 7000=
201112152303 TAF EGLL 152303Z 1600/1706 11012KT 8000 -RA BKN014
                      TEMPO 1600/1605 3500 +RA BKN004
                      BECMG 1601/1604 03012KT
                      BECMG 1605/1608 33013KT 3500 RASN BKN008
                       PROB40
                      TEMPO 1608/1611 35015G25KT 0700 SN VV///
                       BECMG 1611/1614 9999 NSW SCT022
                      BECMG 1618/1621 26007KT
                      PROB30 TEMPO 1621/1624 9000 -SHRASN BKN008=
201112151655 TAF EGLL 151655Z 1518/1624 24012KT 9999 FEW015 SCT030
                      BECMG 1518/1520 17007KT
                      BECMG 1520/1523 11015G25KT 5000 RA BKN014
                       TEMPO 1523/1605 3500 +RA
                      BECMG 1601/1604 03012KT
                      BECMG 1605/1608 33013KT 3500 RASN BKN008
                       PROB40
                      TEMPO 1608/1611 35015G25KT 0700 SN VV///
                       BECMG 1611/1614 9999 NSW SCT022
                      BECMG 1618/1621 26007KT=
201112151107 TAF EGLL 151107Z 1512/1618 27013KT 9999 FEW030
                      PROB30 TEMPO 1512/1517 27016G26KT 9000 -SHRA
                       BECMG 1517/1520 17012KT
                      BECMG 1520/1523 11015G25KT 5000 RA BKN014
                       BECMG 1605/1608 35014KT 3500 RASN BKN005
                       PROB40
                      TEMPO 1611/1614 36017G27KT 0700 SN BKN001
                       BECMG 1611/1614 9999 NSW FEW025=
201112150749 TAF AMD EGLL 150749Z 1508/1612 27022G32KT 9999 SCT025
                      BECMG 1509/1512 25012KT
                      PROB30 TEMPO 1512/1517 25015G25KT 9000 -SHRA
                       BECMG 1516/1519 17010KT
                      BECMG 1520/1523 11012KT 5000 RA BKN014
                      TEMPO 1523/1605 07015G25KT 3000 +RA BKN008
                       BECMG 1605/1608 36015G28KT 3500 RASN BKN005
                       PROB40
                      TEMPO 1608/1611 1000 SN BKN001=
201112150459 TAF EGLL 150459Z 1506/1612 20008KT 9999 SCT025
                      TEMPO 1506/1508 7000 SHRA
                      PROB30 TEMPO 1506/1507 4500 SHRAGS BKN014CB
                       BECMG 1506/1508 26013KT
                      TEMPO 1507/1511 26018G32KT
                      PROB30 TEMPO 1513/1517 9000 SHRA
                      BECMG 1516/1519 18007KT
                      BECMG 1520/1523 11012KT 5000 RA BKN014
                      TEMPO 1523/1604 07015G25KT 3500 +RA BKN008
                       BECMG 1602/1605 34012KT
                      BECMG 1606/1609 4000 RASN BKN005
                      PROB30 TEMPO 1609/1612 2000 SN BKN001=
201112142304 TAF EGLL 142304Z 1500/1606 20008KT 9999 SCT025
                      TEMPO 1502/1509 7000 SHRA
                      PROB30 TEMPO 1503/1508 4500 SHRAGS BKN014CB
                       BECMG 1505/1508 26013KT
                      TEMPO 1507/1511 26018G32KT
                      PROB30 TEMPO 1513/1517 7000 SHRA
                      BECMG 1516/1519 18007KT
                      BECMG 1520/1523 11012KT 5000 RA BKN014
                      TEMPO 1523/1604 07015G25KT 3500 +RA BKN008
                       BECMG 1602/1605 34012KT=
201112141709 TAF EGLL 141709Z 1418/1524 24012KT 9999 FEW022 SCT035
                      TEMPO 1418/1509 7000 SHRA
                      BECMG 1423/1502 18012KT
                      PROB30 TEMPO 1502/1508 4500 SHRAGS BKN014CB
                       BECMG 1506/1509 26012KT
                      PROB30 TEMPO 1509/1516 26015G25KT 9000 -SHRA
                       BECMG 1516/1519 18007KT
                      BECMG 1519/1522 11012KT 5000 RA BKN014=
201112141107 TAF EGLL 141107Z 1412/1518 23010KT 9999 FEW022 SCT035
                      PROB30 TEMPO 1412/1418 24015G25KT 7000 SHRA
                       TEMPO 1502/1508 5000 SHRAGS
                      PROB40 TEMPO 1502/1508 BKN014CB
                      PROB30 TEMPO 1511/1516 24015G25KT 9000 -SHRA
                       BECMG 1516/1518 17007KT=
201112140457 TAF EGLL 140457Z 1406/1512 23009KT 9999 SCT040
                      PROB40 TEMPO 1411/1418 26015G25KT
                      TEMPO 1500/1506 6000 SHRA
                      BECMG 1503/1506 30010KT
                      BECMG 1509/1512 24012KT=
201112132307 TAF EGLL 132307Z 1400/1506 24010KT 9999 SCT040
                      PROB30 TEMPO 1400/1410 7000 SHRA
                      PROB40 TEMPO 1411/1418 26015G25KT
                      TEMPO 1422/1504 6000 SHRA=
201112131703 TAF EGLL 131703Z 1318/1424 25015KT 9999 SCT030
                      TEMPO 1318/1322 26018G28KT 7000 SHRA
                      BECMG 1322/1401 23005KT
                      PROB30 TEMPO 1322/1408 7000 SHRA
                      BECMG 1408/1411 25015KT
                      TEMPO 1409/1424 25018G28KT 6000 SHRA
                      PROB40 TEMPO 1410/1419 4000 +SHRA TSGS BKN014CB=
201112131102 TAF EGLL 131102Z 1312/1418 25015KT 9999 SCT030
                      TEMPO 1312/1321 26018G28KT 7000 SHRA
                      PROB30 TEMPO 1312/1319 26025G38KT 4000 TSGS
                       BKN014CB
                      PROB30 TEMPO 1321/1409 7000 SHRA
                      BECMG 1320/1323 22010KT
                      TEMPO 1409/1418 25015G25KT 6000 SHGS=
201112130824 TAF AMD EGLL 130824Z 1308/1412 24015KT 9999 SCT030
                      TEMPO 1308/1412 7000 SHRA
                      PROB30 TEMPO 1308/1309 25018G28KT
                      TEMPO 1309/1322 26020G32KT
                      PROB30 TEMPO 1311/1321 4000 TSGS BKN014CB
                       BECMG 1322/1401 24012KT=
201112130503 TAF EGLL 130503Z 1306/1412 24015KT 9999 SCT030
                      TEMPO 1306/1412 7000 SHRA
                      PROB30 TEMPO 1306/1309 25018G28KT
                      TEMPO 1309/1322 26020G32KT
                      PROB30 TEMPO 1311/1321 4000 SHGS BKN014CB
                       BECMG 1322/1401 24012KT=
201112122303 TAF EGLL 122303Z 1300/1406 19020G32KT 8000 -RA BKN014
                      TEMPO 1300/1302 20032G43KT 3000 +RA BKN008
                       BECMG 1301/1304 25014KT 9999 NSW SCT030
                       TEMPO 1304/1307 6000 SHRA BKN014
                      BECMG 1309/1312 26016G28KT
                      TEMPO 1310/1401 5000 SHRAGS
                      BECMG 1321/1324 24012KT=
201112121658 TAF EGLL 121658Z 1218/1324 24012G22KT 9999 BKN040
                      BECMG 1218/1220 19018G32KT 7000 RA BKN014
                       TEMPO 1221/1301 20032G43KT 3000 +RA BKN008
                       BECMG 1301/1304 25014KT 9999 NSW BKN032
                       TEMPO 1303/1307 6000 SHRA BKN014
                      BECMG 1310/1313 26015G28KT NSC
                      PROB30 TEMPO 1310/1319 7000 SHRAGS BKN022
                       BECMG 1317/1320 24012KT=
201112121103 TAF EGLL 121103Z 1212/1318 24010KT 9999 FEW035
                      BECMG 1218/1220 19018G30KT 7000 RA BKN014
                       TEMPO 1221/1301 20032G43KT 3000 +RA BKN008
                       BECMG 1301/1304 24014KT
                      TEMPO 1301/1304 9999 NSW SCT018
                      BECMG 1306/1309 9999 NSW SCT025
                      PROB30 TEMPO 1308/1314 7000 SHRAGS
                      BECMG 1310/1313 26015G28KT=
201112120459 TAF EGLL 120459Z 1206/1312 23011KT 9999 SCT035
                      PROB30 TEMPO 1214/1219 7000 SHRA
                      BECMG 1218/1220 19018G30KT 7000 RA BKN014
                       TEMPO 1221/1224 20028G40KT 3000 +RA BKN008
                       BECMG 1300/1303 24014KT
                      TEMPO 1303/1306 9999 NSW SCT018
                      BECMG 1305/1308 27010KT 9999 NSW SCT025=
201112112255 TAF EGLL 112255Z 1200/1306 24008KT 9999 SCT035
                      PROB30 TEMPO 1213/1217 7000 SHRA
                      BECMG 1217/1220 19018G30KT 7000 RA BKN014
                       TEMPO 1220/1223 20028G43KT 3000 +RA BKN008
                       BECMG 1222/1301 24010KT 9999 NSW SCT018
                       TEMPO 1300/1306 7000 SHRA=
201112111701 TAF EGLL 111701Z 1118/1224 19012KT 9999 BKN014
                      TEMPO 1118/1121 8000 -RA
                      PROB40 TEMPO 1118/1120 20015G25KT 3000 +RA
                       BKN009
                      BECMG 1120/1123 27010KT SCT035
                      PROB40 TEMPO 1209/1217 7000 SHRA
                      BECMG 1212/1215 21012KT
                      BECMG 1217/1220 20018G28KT 7000 RA BKN014
                       TEMPO 1220/1224 20030G43KT 3000 +RA BKN009=
201112111205 TAF AMD EGLL 111205Z 1112/1218 19012KT 9999 BKN030
                      TEMPO 1112/1121 8000 -RA
                      BECMG 1112/1115 BKN012
                      PROB40 TEMPO 1117/1120 20015G25KT 3000 +RA
                       BKN009
                      BECMG 1120/1123 27010KT SCT035
                      PROB40 TEMPO 1209/1218 7000 SHRA
                      BECMG 1212/1215 21012KT
                      PROB30 TEMPO 1216/1218 19018G28KT=
201112111106 TAF EGLL 111106Z 1112/1218 19012KT 9999 SCT040
                      TEMPO 1112/1121 8000 -RA
                      BECMG 1113/1116 BKN014
                      PROB40 TEMPO 1117/1120 20015G25KT 3000 +RA
                       BKN009
                      BECMG 1120/1123 27010KT SCT035
                      PROB40 TEMPO 1209/1218 7000 SHRA
                      BECMG 1212/1215 21012KT
                      PROB30 TEMPO 1216/1218 19018G28KT=
201112110458 TAF EGLL 110458Z 1106/1212 20011KT 9999 SCT045
                      TEMPO 1106/1114 8000 -RA
                      BECMG 1114/1117 6000 RA SCT010 BKN014
                      TEMPO 1117/1121 21015G25KT 3000 +RA BKN008
                       BECMG 1120/1123 28010KT 9999 NSW SCT025=
201112102253 TAF EGLL 102253Z 1100/1206 22010KT CAVOK
                      BECMG 1100/1103 BKN040
                      TEMPO 1107/1116 8000 -RA
                      BECMG 1115/1118 6000 RA SCT010 BKN014
                      TEMPO 1118/1120 21015G25KT 3000 +RA BKN008
                       BECMG 1120/1123 29010KT 9999 NSW SCT015=
201112101659 TAF EGLL 101659Z 1018/1124 25009KT CAVOK
                      PROB30 1019/1102 5000 BR
                      BECMG 1100/1103 BKN040
                      TEMPO 1105/1122 8000 -RA
                      BECMG 1109/1112 19012KT
                      PROB30 TEMPO 1115/1120 4000 +RA BKN009
                      BECMG 1120/1123 29010KT=
201112101058 TAF EGLL 101058Z 1012/1118 26009KT CAVOK
                      PROB30 1019/1102 5000 BR
                      BECMG 1100/1103 BKN040
                      TEMPO 1105/1118 8000 -RA
                      BECMG 1109/1112 19012KT
                      PROB30 TEMPO 1114/1118 4000 RA BKN009=
201112100500 TAF EGLL 100500Z 1006/1112 26006KT CAVOK
                      PROB30 1006/1011 6000
                      PROB30 1018/1106 7000
                      TEMPO 1106/1112 7000 -RA BKN016
                      BECMG 1108/1111 20012KT=
201112092304 TAF EGLL 092304Z 1000/1106 26009KT 9999 SCT040
                      TEMPO 1002/1010 7000
                      PROB30 1004/1009 2000 BR
                      PROB40 TEMPO 1102/1106 7000 -RA BKN012=
201112091700 TAF EGLL 091700Z 0918/1024 26009KT 9999 SCT040
                      TEMPO 1002/1010 7000
                      PROB30 1004/1009 2000 BR=
201112091058 TAF EGLL 091058Z 0912/1018 26010KT 9999 FEW040
                      TEMPO 1002/1010 7000
                      PROB30 1004/1009 1500 BR=
201112090459 TAF EGLL 090459Z 0906/1012 25011KT CAVOK
                      PROB30 TEMPO 0911/0915 28015G25KT -SHRA BKN024
                       PROB40 1003/1010 1200 BR=
201112082300 TAF EGLL 082300Z 0900/1006 26015G25KT CAVOK
                      BECMG 0900/0904 26010KT
                      PROB30 1003/1006 3000 BR=
201112081659 TAF EGLL 081659Z 0818/0924 23020G35KT 9999 SCT012 BKN020
                      TEMPO 0818/0820 5000 RA SCT010 BKN014
                      PROB30 TEMPO 0818/0820 22025G45KT 3000 +RA
                       BKN008
                      BECMG 0820/0822 26013KT CAVOK=
201112081259 TAF AMD EGLL 081259Z 0813/0918 22020G35KT 9999 SCT014 BKN025
                      TEMPO 0813/0817 5000 RA BKN014
                      TEMPO 0817/0820 3000 +RA SCT008 BKN012
                      PROB30 TEMPO 0818/0820 24028G45KT
                      BECMG 0820/0822 26011KT CAVOK=
201112081103 TAF EGLL 081103Z 0812/0918 22020G35KT 9999 SCT014 BKN025
                      TEMPO 0812/0817 BKN014
                      BECMG 0814/0817 6000 RA
                      TEMPO 0817/0820 3000 +RA SCT008 BKN012
                      PROB30 TEMPO 0818/0820 24028G45KT
                      BECMG 0820/0822 26011KT CAVOK=
201112080505 TAF EGLL 080505Z 0806/0912 22010KT CAVOK
                      BECMG 0806/0809 23015G25KT SCT018 BKN035
                       TEMPO 0806/0814 9000 -RA
                      PROB40 TEMPO 0809/0817 BKN014
                      BECMG 0814/0817 23025G35KT 6000 RA
                      PROB40 TEMPO 0817/0820 24028G45KT 2000 +RA
                       SCT008 BKN014
                      BECMG 0820/0822 26012KT CAVOK=
201112072304 TAF EGLL 072304Z 0800/0906 22007KT CAVOK
                      BECMG 0805/0808 22015G25KT SCT018 BKN035
                       TEMPO 0805/0814 8000 -RADZ BKN014
                      BECMG 0814/0817 23022G35KT 6000 RA
                      PROB30 TEMPO 0817/0820 24030G45KT 4000 +RA
                       SCT007 BKN014
                      BECMG 0820/0823 27014KT CAVOK=
201112071704 TAF EGLL 071704Z 0718/0824 28015G25KT CAVOK
                      BECMG 0719/0722 24009KT
                      BECMG 0802/0805 BKN022
                      TEMPO 0804/0821 6000 -RA BKN014
                      BECMG 0808/0811 23016G28KT
                      PROB40 TEMPO 0815/0820 23024G43KT 4000 +RA
                       SCT006 BKN009
                      BECMG 0820/0823 29015G25KT=
201112071103 TAF EGLL 071103Z 0712/0818 28018G28KT CAVOK
                      BECMG 0719/0722 24008KT
                      BECMG 0802/0805 BKN022
                      TEMPO 0804/0818 6000 -RADZ BKN014
                      BECMG 0809/0812 22015G25KT
                      TEMPO 0815/0818 23022G38KT=
201112070501 TAF EGLL 070501Z 0706/0812 25016KT 9999 FEW022 SCT035
                      TEMPO 0706/0720 27022G34KT
                      PROB40 TEMPO 0706/0708 6000 SHRA
                      BECMG 0800/0803 20006KT
                      TEMPO 0804/0812 6000 -RADZ BKN014
                      BECMG 0809/0812 22015G25KT=
201112062258 TAF EGLL 062258Z 0700/0806 23012KT 9999 SCT022
                      TEMPO 0700/0703 24015G25KT 7000 SHRA
                      PROB30 TEMPO 0700/0703 BKN014
                      BECMG 0703/0706 27022G35KT
                      BECMG 0717/0720 26012KT
                      BECMG 0800/0803 20006KT
                      TEMPO 0802/0806 6000 -RADZ=
201112061704 TAF EGLL 061704Z 0618/0724 23010KT 9999 SCT018 BKN026
                      PROB40 TEMPO 0618/0703 6000 -SHRA SCT008
                       BKN013
                      BECMG 0701/0704 27015G25KT
                      TEMPO 0706/0716 28020G35KT
                      BECMG 0716/0719 24010KT CAVOK=
201112061107 TAF EGLL 061107Z 0612/0718 25012KT 9999 FEW040
                      PROB40 TEMPO 0616/0701 7000 SHRA BKN014
                      TEMPO 0701/0709 26016G28KT
                      BECMG 0709/0712 27021G35KT=
201112060504 TAF EGLL 060504Z 0606/0712 26013KT 9999 FEW040
                      PROB40 TEMPO 0614/0621 7000 SHRA
                      TEMPO 0704/0712 27018G28KT=
201112052259 TAF EGLL 052259Z 0600/0706 26013KT 9999 FEW040
                      PROB40 TEMPO 0614/0621 7000 SHRA=
201112051702 TAF EGLL 051702Z 0518/0624 26012KT 9999 FEW040
                      PROB40 TEMPO 0612/0619 6000 SHRA
                      PROB30 TEMPO 0622/0624 8000 -RADZ BKN014=
201112051102 TAF EGLL 051102Z 0512/0618 24012KT 9999 FEW030
                      TEMPO 0512/0516 26017G28KT
                      PROB30 TEMPO 0612/0618 7000 SHRA=
201112050458 TAF EGLL 050458Z 0506/0612 27010KT 9999 SCT030
                      TEMPO 0509/0519 27015G25KT
                      PROB30 TEMPO 0609/0612 26015G25KT=
201112042252 TAF EGLL 042252Z 0500/0606 28010KT 9999 FEW030
                      PROB30 TEMPO 0514/0519 27016G26KT 7000 SHRA
                       -SHGS=
201112041901 TAF AMD EGLL 041901Z 0419/0524 30012KT 9999 FEW018 SCT030
                      TEMPO 0419/0421 6000 SHRA
                      PROB30 TEMPO 0514/0519 27015G25KT 8000 -SHGS
                       BECMG 0521/0524 23007KT=
201112041700 TAF EGLL 041700Z 0418/0524 24008KT 9999 FEW018 SCT030
                      TEMPO 0418/0422 6000 SHRA
                      PROB30 TEMPO 0418/0420 4000 SHRAGS
                      BECMG 0422/0424 30010KT
                      PROB30 TEMPO 0514/0519 28015G25KT 8000 -SHGS
                       BECMG 0521/0524 23007KT=
201112041131 TAF EGLL 041131Z 0412/0518 25012KT 9999 FEW018 SCT030
                      PROB40 TEMPO 0413/0422 26015G25KT 5000 SHRAGS=
201112041100 TAF EGLL 041100Z NIL=
201112040501 TAF EGLL 040501Z 0406/0512 25010KT 9999 SCT035
                      PROB40 TEMPO 0410/0420 7000 SHRA
                      PROB30 TEMPO 0509/0512 25015G25KT=
201112032302 TAF EGLL 032302Z 0400/0506 26011KT 9999 SCT030
                      PROB40 TEMPO 0412/0420 7000 SHRA=
201112031707 TAF EGLL 031707Z 0318/0424 26012KT 9999 SCT030
                      PROB30 TEMPO 0412/0422 7000 SHRA=
201112031100 TAF EGLL 031100Z 0312/0418 27013KT 9999 SCT030
                      PROB30 TEMPO 0412/0418 7000 SHRA=
201112030546 TAF AMD EGLL 030546Z 0306/0412 27013KT 9999 SCT030
                      TEMPO 0306/0307 23016G26KT 4000 RA BKN008=
201112030501 TAF EGLL 030501Z 0306/0412 27013KT 9999 SCT030
                      TEMPO 0306/0307 23016G26KT 7000 RA BKN008=
201112022258 TAF EGLL 022258Z 0300/0406 21012KT 9999 SCT040
                      TEMPO 0300/0306 22015G25KT 7000 RA BKN014
                       BECMG 0305/0308 27013KT=
201112022011 TAF AMD EGLL 022011Z 0220/0324 21010KT 9999 SCT040
                      TEMPO 0222/0306 23015G25KT 7000 RA BKN012
                       BECMG 0306/0309 27013KT
                      PROB40 TEMPO 0310/0319 28016G26KT=
201112021700 TAF EGLL 021700Z 0218/0324 21010KT SCT040
                      TEMPO 0222/0306 23015G25KT 7000 RA BKN012
                       BECMG 0306/0309 27013KT
                      PROB40 TEMPO 0310/0319 28016G26KT=
201112021103 TAF EGLL 021103Z 0212/0318 27005KT FEW040
                      BECMG 0218/0221 21012KT
                      PROB40 TEMPO 0221/0224 7000 RA BKN012
                      BECMG 0222/0301 BKN012
                      PROB30 TEMPO 0222/0307 23015G25KT
                      TEMPO 0300/0308 7000 RA
                      BECMG 0306/0309 SCT025
                      BECMG 0309/0312 27013KT=
201112020501 TAF EGLL 020501Z 0206/0312 28005KT CAVOK
                      TEMPO 0206/0210 5000 BR
                      BECMG 0218/0221 22012KT BKN040
                      TEMPO 0222/0307 23015G25KT 7000 RA SCT009
                       BKN012=
201112020151 TAF COR EGLL 020151Z 0201/0306 30004KT 9999 FEW015
                      PROB30 TEMPO 0204/0209 5000 BR
                      BECMG 0218/0221 22012KT BKN040
                      TEMPO 0222/0306 23015G25KT 7000 RA SCT009
                       BKN012=
201112012300 TAF COR EGLL 020151Z 0201/0306 30004KT 9999 FEW015
                      PROB30 TEMPO 0204/0209 5000 BR
                      BECMG 0218/0221 22012KT BKN040
                      TEMPO 0222/0306 23015G25KT 7000 RA SCT009
                       BKN012=
201112012259 TAF EGLL 012259Z 0200/0306 30004KT 9999 FEW015
                      PROB30 TEMPO 0204/0209 5000 BR
                      BECMG 0218/0221 22012KT BKN040
                      TEMPO 0222/0306 2315G25KT 7000 RA SCT009
                       BKN012=
201112011701 TAF EGLL 011701Z 0118/0224 33005KT 9999 SCT040
                      TEMPO 0118/0201 5000 RA
                      PROB30 TEMPO 0119/0123 BKN014
                      PROB30 TEMPO 0204/0209 5000 BR
                      BECMG 0218/0221 22012KT
                      TEMPO 0222/0224 7000=
201112011059 TAF EGLL 011059Z 0112/0218 VRB05KT 9999 SCT040
                      BECMG 0117/0120 6000 -RA
                      TEMPO 0120/0201 4000 RA BKN012
                      BECMG 0200/0202 9999 NSW
                      PROB30 TEMPO 0205/0209 5000 BR
                      BECMG 0214/0217 24010KT=
201112010454 TAF EGLL 010454Z 0106/0212 23012KT 9999 FEW030 BKN045
                      TEMPO 0106/0110 6000 SHRA BKN012
                      BECMG 0108/0111 VRB04KT
                      BECMG 0116/0119 6000 RA
                      BECMG 0118/0121 03010KT
                      BECMG 0123/0202 30005KT 9999
                      PROB40 0203/0210 5000 BR=
201112010004 TAF COR EGLL 010004Z 0100/0206 19015G26KT 9999 -RA FEW007 BKN018
                       TEMPO 0100/0104 6000 RA SCT007 BKN012
                      PROB30 TEMPO 0100/0102 20022G36KT 4000 +RA
                       BECMG 0103/0106 25012KT 9999 NSW SCT050
                       TEMPO 0106/0111 6000 SHRA BKN012
                      BECMG 0108/0110 VRB04KT
                      BECMG 0115/0118 6000 RA
                      BECMG 0118/0121 03010KT BKN022
                      BECMG 0201/0204 30005KT 3500 BR FEW030=
