##########################################################
# Query made at 12/31/2014 11:07:54 UTC
# Time interval: from 12/01/2014 00:00  to 12/31/2014 23:59  UTC
##########################################################

##########################################################
# EGLL, London / Heathrow Airport (United Kingdom)
# WMO index: 03772
# Latitude 51-29N. Longitude 000-27W. Altitude 24 m.
##########################################################

###################################
#  METAR/SPECI from EGLL
###################################
201412311050 METAR COR EGLL 311050Z 18007KT 160V220 9000 FEW024 03/02
                        Q1034 NOSIG=
201412311020 METAR COR EGLL 311020Z 20005KT 170V250 9000 FEW024 02/02
                        Q1035 NOSIG=
201412310950 METAR COR EGLL 310950Z 22006KT 180V250 7000 SCT025 01/01
                        Q1035 NOSIG=
201412310920 METAR COR EGLL 310920Z 23005KT 190V260 7000 SCT023 01/01
                        Q1034 NOSIG=
201412310850 METAR COR EGLL 310850Z 20006KT 180V250 7000 NSC 00/M00 Q1034
                        NOSIG=
201412310820 METAR COR EGLL 310820Z 20006KT 170V240 5000 BR NSC M01/M01
                        Q1034 TEMPO 4000 BR=
201412310750 METAR COR EGLL 310750Z 20004KT 160V260 5000 BR NSC M01/M01
                        Q1034 TEMPO 4000 BR=
201412310720 METAR COR EGLL 310720Z 20005KT 160V280 6000 NSC M01/M01 Q1034
                        TEMPO 4000 BR=
201412310650 METAR COR EGLL 310650Z 21005KT 160V260 5000 BCFG NSC M02/M02
                        Q1034 TEMPO 1200 BR=
201412310620 METAR COR EGLL 310620Z VRB02KT 6000 MIFG NSC M02/M02 Q1034
                        TEMPO 0800=
201412310550 METAR COR EGLL 310550Z 24003KT 6000 MIFG SCT021 M01/M01 Q1034
                        TEMPO 0800 FG BKN001=
201412310520 METAR COR EGLL 310520Z VRB02KT 5000 2000W BCFG FEW021 M02/M02
                        Q1034 TEMPO 0800 FZFG BKN001=
201412310450 METAR COR EGLL 310450Z VRB02KT 5000 1500W BCFG FEW020 M02/M02
                        Q1034 TEMPO 0800 FZFG BKN001=
201412310420 METAR COR EGLL 310420Z VRB02KT 6000 VCFG NSC M03/M03 Q1034
                        TEMPO 1500 BR=
201412310350 METAR COR EGLL 310350Z 22003KT 6000 VCFG NSC M03/M03 Q1035
                        TEMPO 1500 BR=
201412310320 METAR COR EGLL 310320Z 20002KT 7000 VCFG NSC M02/M02 Q1035
                        TEMPO 1500 BR=
201412310250 METAR COR EGLL 310250Z 00000KT 6000 VCFG NSC M02/M02 Q1035
                        TEMPO 1500 BR=
201412310220 METAR EGLL 310220Z AUTO 00000KT 0250 FG NCD M02/M02 Q1035=
201412310150 METAR EGLL 310150Z AUTO 00000KT 0350 FG NCD M02/M02 Q1035=
201412310120 METAR EGLL 310120Z AUTO 00000KT 0800 NCD M01/M01 Q1035=
201412310050 METAR COR EGLL 310050Z VRB02KT 7000 NSC M01/M01 Q1036 TEMPO
                        4000 BR=
201412310020 METAR COR EGLL 310020Z 00000KT 6000 NSC M00/M01 Q1036 TEMPO
                        4000 BR=
201412302350 METAR COR EGLL 302350Z 00000KT 7000 NSC M01/M02 Q1036 TEMPO
                        4500 BR=
201412302320 METAR COR EGLL 302320Z 28003KT 8000 NSC M01/M01 Q1036 TEMPO
                        4500 BR=
201412302250 METAR COR EGLL 302250Z 29003KT 7000 NSC M01/M01 Q1036 TEMPO
                        4500 BR=
201412302220 METAR COR EGLL 302220Z 27004KT 190V310 8000 NSC 00/M01 Q1036
                        TEMPO 4500 BR=
201412302150 METAR COR EGLL 302150Z 22005KT 180V280 9000 NSC 00/M01 Q1036
                        TEMPO 4500 BR=
201412302120 METAR COR EGLL 302120Z 24006KT CAVOK 01/00 Q1037 NOSIG=
201412302050 METAR COR EGLL 302050Z 24008KT CAVOK 02/01 Q1037 NOSIG=
201412302020 METAR COR EGLL 302020Z 24007KT CAVOK 02/01 Q1037 NOSIG=
201412301950 METAR COR EGLL 301950Z 24007KT CAVOK 02/00 Q1037 NOSIG=
201412301920 METAR COR EGLL 301920Z 24007KT CAVOK 02/01 Q1037 NOSIG=
201412301850 METAR COR EGLL 301850Z 25007KT CAVOK 02/00 Q1037 NOSIG=
201412301820 METAR COR EGLL 301820Z 24006KT CAVOK 03/01 Q1037 NOSIG=
201412301750 METAR COR EGLL 301750Z 23007KT CAVOK 03/01 Q1037 NOSIG=
201412301720 METAR COR EGLL 301720Z 23007KT CAVOK 03/01 Q1037 NOSIG=
201412301650 METAR COR EGLL 301650Z 24007KT CAVOK 03/01 Q1037 NOSIG=
201412301620 METAR COR EGLL 301620Z 25007KT CAVOK 04/01 Q1037 NOSIG=
201412301550 METAR COR EGLL 301550Z 26008KT 9999 FEW038 04/01 Q1037 NOSIG=
201412301520 METAR COR EGLL 301520Z 27005KT 9999 BKN038 05/02 Q1037 NOSIG=
201412301450 METAR COR EGLL 301450Z 22005KT 190V250 9999 SCT039 05/02
                        Q1037 NOSIG=
201412301420 METAR COR EGLL 301420Z VRB04KT 9999 FEW035 04/02 Q1037 NOSIG=
201412301350 METAR EGLL 301350Z 23005KT 190V260 9999 BKN037 04/02 Q1038=
201412301320 METAR COR EGLL 301320Z 25004KT 210V280 9999 BKN036 03/02
                        Q1038 NOSIG=
201412301250 METAR COR EGLL 301250Z 27004KT 210V290 9999 BKN036 03/01
                        Q1038 NOSIG=
201412301220 METAR COR EGLL 301220Z 28005KT 220V290 9999 SCT034 02/01
                        Q1039 NOSIG=
201412301150 METAR COR EGLL 301150Z 26004KT 210V280 CAVOK 02/00 Q1039
                        NOSIG=
201412301120 METAR COR EGLL 301120Z 27004KT 9000 NSC 03/01 Q1040 NOSIG=
201412301050 METAR COR EGLL 301050Z 28003KT 9000 NSC 01/00 Q1040 NOSIG=
201412301020 METAR COR EGLL 301020Z 27004KT 8000 FEW033 01/M00 Q1040 NOSIG=
201412300950 METAR COR EGLL 300950Z VRB03KT 7000 NSC 00/M00 Q1040 NOSIG=
201412300920 METAR COR EGLL 300920Z 23004KT 6000 FEW028 M01/M01 Q1040
                        NOSIG=
201412300850 METAR COR EGLL 300850Z 25004KT 210V280 5000 BR NSC M01/M02
                        Q1041 NOSIG=
201412300820 METAR COR EGLL 300820Z 27005KT 5000 BR FEW028 M02/M02 Q1041
                        NOSIG=
201412300750 METAR COR EGLL 300750Z 28005KT 4400 BR FEW028 M01/M02 Q1041
                        BECMG 6000=
201412300720 METAR COR EGLL 300720Z VRB03KT 5000 BR FEW028 M01/M01 Q1040
                        NOSIG=
201412300650 METAR COR EGLL 300650Z 27003KT 4800 BR NSC M02/M02 Q1040
                        NOSIG=
201412300620 METAR COR EGLL 300620Z VRB03KT 5000 BR NSC M02/M02 Q1040
                        TEMPO 3500=
201412300550 METAR COR EGLL 300550Z 27003KT 6000 NSC M01/M02 Q1040 TEMPO
                        3500 BR=
201412300520 METAR COR EGLL 300520Z 00000KT 6000 NSC M01/M02 Q1040 TEMPO
                        3500 BR=
201412300450 METAR COR EGLL 300450Z 26004KT 6000 NSC M02/M02 Q1040 TEMPO
                        3500 BR=
201412300420 METAR COR EGLL 300420Z 26004KT 6000 NSC M02/M02 Q1040 NOSIG=
201412300350 METAR COR EGLL 300350Z 28004KT 6000 NSC M02/M03 Q1041 TEMPO
                        3500 BR=
201412300320 METAR COR EGLL 300320Z 27005KT 6000 NSC M02/M02 Q1041 NOSIG=
201412300250 METAR COR EGLL 300250Z 28004KT 6000 NSC M02/M03 Q1041 TEMPO
                        3500 BR=
201412300220 METAR EGLL 300220Z AUTO VRB02KT 4700 BR NCD M02/M02 Q1042=
201412300150 METAR EGLL 300150Z AUTO 00000KT 6000 NCD M01/M01 Q1042=
201412300120 METAR EGLL 300120Z AUTO 28004KT 5000 NCD M01/M01 Q1042=
201412300050 METAR COR EGLL 300050Z 00000KT 7000 NSC M01/M02 Q1042 NOSIG=
201412300020 METAR COR EGLL 300020Z 30002KT 7000 NSC M01/M02 Q1042 NOSIG=
201412292350 METAR COR EGLL 292350Z 28004KT 7000 NSC M00/M01 Q1042 NOSIG=
201412292320 METAR COR EGLL 292320Z 30003KT 7000 NSC M00/M01 Q1042 NOSIG=
201412292250 METAR COR EGLL 292250Z 30004KT 7000 NSC 00/M00 Q1042 NOSIG=
201412292220 METAR COR EGLL 292220Z 29003KT 7000 NSC 00/M00 Q1042 NOSIG=
201412292150 METAR COR EGLL 292150Z 30002KT 8000 NSC 01/M00 Q1042 NOSIG=
201412292120 METAR COR EGLL 292120Z 30003KT 8000 NSC 00/M01 Q1042 NOSIG=
201412292050 METAR COR EGLL 292050Z 29003KT 9000 NSC 01/00 Q1042 NOSIG=
201412292020 METAR COR EGLL 292020Z 28004KT 8000 NSC 01/M00 Q1042 NOSIG=
201412291950 METAR COR EGLL 291950Z 27005KT 9000 NSC 01/00 Q1042 NOSIG=
201412291920 METAR COR EGLL 291920Z 28005KT CAVOK 02/01 Q1042 NOSIG=
201412291850 METAR COR EGLL 291850Z 30002KT CAVOK 02/00 Q1042 NOSIG=
201412291820 METAR COR EGLL 291820Z 28002KT CAVOK 03/01 Q1042 NOSIG=
201412291750 METAR COR EGLL 291750Z 30003KT CAVOK 03/01 Q1041 NOSIG=
201412291720 METAR COR EGLL 291720Z 29005KT CAVOK 03/01 Q1041 NOSIG=
201412291650 METAR COR EGLL 291650Z 29005KT CAVOK 03/01 Q1041 NOSIG=
201412291620 METAR COR EGLL 291620Z 30004KT CAVOK 04/01 Q1041 NOSIG=
201412291550 METAR COR EGLL 291550Z 31005KT CAVOK 05/01 Q1041 NOSIG=
201412291520 METAR COR EGLL 291520Z 31003KT CAVOK 05/01 Q1041 NOSIG=
201412291450 METAR COR EGLL 291450Z 32005KT CAVOK 06/01 Q1041 NOSIG=
201412291420 METAR COR EGLL 291420Z 32005KT 300V020 9999 FEW020 06/01
                        Q1041 NOSIG=
201412291350 METAR COR EGLL 291350Z 33005KT 290V010 CAVOK 06/01 Q1040
                        NOSIG=
201412291320 METAR COR EGLL 291320Z 32005KT CAVOK 06/02 Q1040 NOSIG=
201412291250 METAR COR EGLL 291250Z 32005KT 290V360 CAVOK 06/02 Q1040
                        NOSIG=
201412291220 METAR COR EGLL 291220Z 30005KT CAVOK 05/02 Q1041 NOSIG=
201412291150 METAR COR EGLL 291150Z 29005KT CAVOK 04/01 Q1041 NOSIG=
201412291120 METAR COR EGLL 291120Z 29006KT 260V320 CAVOK 03/01 Q1041
                        NOSIG=
201412291050 METAR COR EGLL 291050Z 29004KT CAVOK 03/01 Q1041 NOSIG=
201412291020 METAR COR EGLL 291020Z 27005KT CAVOK 02/00 Q1041 NOSIG=
201412290950 METAR COR EGLL 290950Z 29005KT CAVOK 01/M01 Q1041 NOSIG=
201412290920 METAR COR EGLL 290920Z 28005KT CAVOK 01/M01 Q1041 NOSIG=
201412290850 METAR COR EGLL 290850Z 29004KT CAVOK M01/M01 Q1040 NOSIG=
201412290820 METAR COR EGLL 290820Z 28006KT CAVOK M01/M02 Q1040 NOSIG=
201412290750 METAR COR EGLL 290750Z 28004KT CAVOK M01/M02 Q1040 NOSIG=
201412290720 METAR COR EGLL 290720Z 27004KT CAVOK M01/M02 Q1039 NOSIG=
201412290650 METAR COR EGLL 290650Z 29004KT CAVOK M02/M03 Q1039 NOSIG=
201412290620 METAR COR EGLL 290620Z 28007KT CAVOK M02/M03 Q1038 NOSIG=
201412290550 METAR COR EGLL 290550Z 29006KT 9000 NSC M02/M02 Q1038 NOSIG=
201412290520 METAR COR EGLL 290520Z 28006KT 8000 NSC M02/M03 Q1039 NOSIG=
201412290450 METAR COR EGLL 290450Z 27006KT 8000 NSC M02/M02 Q1039 NOSIG=
201412290420 METAR COR EGLL 290420Z 27005KT 8000 NSC M02/M02 Q1039 NOSIG=
201412290350 METAR COR EGLL 290350Z 26004KT 8000 NSC M01/M02 Q1039 NOSIG=
201412290320 METAR COR EGLL 290320Z 28005KT 7000 NSC M02/M02 Q1039 NOSIG=
201412290250 METAR COR EGLL 290250Z 27006KT 7000 NSC M02/M02 Q1039 NOSIG=
201412290220 METAR EGLL 290220Z AUTO 30005KT 6000 NCD M02/M03 Q1039=
201412290150 METAR EGLL 290150Z AUTO 27005KT 7000 NCD M02/M02 Q1038=
201412290120 METAR EGLL 290120Z AUTO 27006KT 6000 NCD M02/M02 Q1038=
201412290050 METAR COR EGLL 290050Z 27005KT 7000 NSC M01/M02 Q1038 NOSIG=
201412290020 METAR COR EGLL 290020Z 28004KT 7000 NSC M02/M02 Q1038 NOSIG=
201412282350 METAR COR EGLL 282350Z 29004KT 8000 NSC M02/M03 Q1038 NOSIG=
201412282320 METAR COR EGLL 282320Z 29005KT 8000 NSC M02/M02 Q1038 NOSIG=
201412282250 METAR COR EGLL 282250Z 27006KT 8000 NSC M00/M02 Q1038 NOSIG=
201412282220 METAR COR EGLL 282220Z 27004KT CAVOK M00/M02 Q1038 NOSIG=
201412282150 METAR COR EGLL 282150Z 31004KT CAVOK 01/M01 Q1038 NOSIG=
201412282120 METAR COR EGLL 282120Z 31004KT CAVOK 01/M01 Q1038 NOSIG=
201412282050 METAR COR EGLL 282050Z 28005KT CAVOK 01/M01 Q1038 NOSIG=
201412282020 METAR COR EGLL 282020Z 31003KT CAVOK 02/M01 Q1038 NOSIG=
201412281950 METAR COR EGLL 281950Z 34002KT CAVOK 02/M02 Q1038 NOSIG=
201412281920 METAR COR EGLL 281920Z 34002KT CAVOK 03/M01 Q1037 NOSIG=
201412281850 METAR COR EGLL 281850Z 34003KT CAVOK 03/M01 Q1037 NOSIG=
201412281820 METAR COR EGLL 281820Z VRB02KT CAVOK 02/M02 Q1037 NOSIG=
201412281750 METAR COR EGLL 281750Z 35003KT 9999 FEW035 02/M02 Q1036 NOSIG=
201412281720 METAR COR EGLL 281720Z 35004KT 9999 FEW034 02/M02 Q1036 NOSIG=
201412281650 METAR COR EGLL 281650Z 35003KT 9999 FEW033 03/M02 Q1035 NOSIG=
201412281620 METAR COR EGLL 281620Z 36003KT 9999 FEW033 03/M02 Q1035 NOSIG=
201412281550 METAR COR EGLL 281550Z 35004KT 9999 FEW034 04/M02 Q1034 NOSIG=
201412281520 METAR COR EGLL 281520Z VRB03KT CAVOK 05/M02 Q1034 NOSIG=
201412281450 METAR COR EGLL 281450Z 05005KT 9999 FEW032 05/M02 Q1033 NOSIG=
201412281420 METAR COR EGLL 281420Z 06006KT 9999 FEW034 05/M01 Q1033 NOSIG=
201412281350 METAR COR EGLL 281350Z 05007KT 020V080 CAVOK 06/M01 Q1033
                        NOSIG=
201412281320 METAR COR EGLL 281320Z 06009KT CAVOK 06/M01 Q1032 NOSIG=
201412281250 METAR COR EGLL 281250Z 05006KT 010V080 CAVOK 06/M01 Q1032
                        NOSIG=
201412281220 METAR COR EGLL 281220Z 06009KT 010V080 CAVOK 05/M01 Q1032
                        NOSIG=
201412281150 METAR COR EGLL 281150Z 05008KT 010V080 CAVOK 05/M01 Q1031
                        NOSIG=
201412281120 METAR COR EGLL 281120Z 03006KT 350V070 CAVOK 05/M01 Q1031
                        NOSIG=
201412281050 METAR COR EGLL 281050Z 04006KT 360V070 CAVOK 04/M01 Q1031
                        NOSIG=
201412281020 METAR COR EGLL 281020Z 03007KT 9999 FEW046 03/M01 Q1030 NOSIG=
201412280950 METAR COR EGLL 280950Z 03005KT 350V060 CAVOK 02/M01 Q1030
                        NOSIG=
201412280920 METAR COR EGLL 280920Z 02005KT 330V050 CAVOK 01/M02 Q1029
                        NOSIG=
201412280850 METAR COR EGLL 280850Z 03006KT 340V070 CAVOK 01/M02 Q1028
                        NOSIG=
201412280820 METAR COR EGLL 280820Z 02005KT CAVOK 01/M02 Q1027 NOSIG=
201412280750 METAR COR EGLL 280750Z 03005KT 350V070 CAVOK 01/M02 Q1027
                        NOSIG=
201412280720 METAR COR EGLL 280720Z 01005KT 330V040 CAVOK 00/M02 Q1026
                        NOSIG=
201412280650 METAR COR EGLL 280650Z 36005KT CAVOK 01/M02 Q1025 NOSIG=
201412280620 METAR COR EGLL 280620Z 01005KT 340V050 CAVOK 00/M02 Q1024
                        NOSIG=
201412280550 METAR COR EGLL 280550Z 03005KT 350V060 CAVOK 01/M01 Q1023
                        NOSIG=
201412280520 METAR COR EGLL 280520Z 03006KT CAVOK 02/M01 Q1022 NOSIG=
201412280450 METAR COR EGLL 280450Z 02006KT 350V050 CAVOK 01/M01 Q1022
                        NOSIG=
201412280420 METAR COR EGLL 280420Z 01005KT 340V050 CAVOK 01/M01 Q1021
                        NOSIG=
201412280350 METAR COR EGLL 280350Z 02005KT 350V060 CAVOK 01/M01 Q1021
                        NOSIG=
201412280320 METAR COR EGLL 280320Z 02006KT CAVOK 01/M00 Q1020 NOSIG=
201412280250 METAR COR EGLL 280250Z 01007KT 340V040 CAVOK 01/M00 Q1019
                        NOSIG=
201412280220 METAR COR EGLL 280220Z 36006KT 9999 FEW036 01/00 Q1019 NOSIG=
201412280150 METAR COR EGLL 280150Z 35005KT 9999 FEW038 01/00 Q1018 NOSIG=
201412280120 METAR COR EGLL 280120Z 36007KT CAVOK 01/00 Q1017 NOSIG=
201412280050 METAR COR EGLL 280050Z 35006KT 320V030 CAVOK 01/00 Q1016
                        NOSIG=
201412280020 METAR COR EGLL 280020Z 36007KT CAVOK 02/01 Q1016 NOSIG=
201412272350 METAR COR EGLL 272350Z 01007KT 9999 FEW009 02/01 Q1015 NOSIG=
201412272320 METAR COR EGLL 272320Z 01007KT 340V050 9999 FEW009 02/01
                        Q1014 NOSIG=
201412272250 METAR COR EGLL 272250Z 02006KT 330V060 9999 FEW009 02/01
                        Q1014 NOSIG=
201412272220 METAR COR EGLL 272220Z 01008KT 340V040 9999 SCT010 02/01
                        Q1013 NOSIG=
201412272150 METAR COR EGLL 272150Z 01007KT 340V050 9999 SCT010 03/01
                        Q1013 NOSIG=
201412272120 METAR COR EGLL 272120Z 36007KT 330V040 9999 SCT009 02/01
                        Q1012 NOSIG=
201412272050 METAR COR EGLL 272050Z 01007KT 9999 SCT010 03/01 Q1012 NOSIG=
201412272020 METAR COR EGLL 272020Z 36008KT 9999 FEW011 02/01 Q1011 NOSIG=
201412271950 METAR COR EGLL 271950Z 36007KT 320V030 9999 FEW010 03/01
                        Q1010 NOSIG=
201412271920 METAR COR EGLL 271920Z 33008KT 9999 FEW048 03/01 Q1010 NOSIG=
201412271850 METAR COR EGLL 271850Z 36006KT 9999 -RA FEW045 03/01 Q1010
                        TEMPO BKN010=
201412271820 METAR COR EGLL 271820Z 35005KT 9000 BKN018 03/01 Q1010 TEMPO
                        BKN010=
201412271750 METAR COR EGLL 271750Z 32004KT 9999 FEW020 03/01 Q1009 TEMPO
                        BKN012=
201412271720 METAR COR EGLL 271720Z 31004KT 9999 FEW018 03/00 Q1009 NOSIG=
201412271650 METAR COR EGLL 271650Z 33005KT 300V030 9999 FEW020 04/00
                        Q1009 NOSIG=
201412271620 METAR COR EGLL 271620Z 32004KT 290V360 9999 FEW026 04/00
                        Q1008 NOSIG=
201412271550 METAR COR EGLL 271550Z VRB03KT 9999 FEW023 SCT030 04/01 Q1008
                        NOSIG=
201412271520 METAR COR EGLL 271520Z 33005KT 290V010 9999 SCT022 BKN027
                        04/01 Q1008 NOSIG=
201412271450 METAR COR EGLL 271450Z 33006KT 290V010 9999 BKN021 BKN043
                        04/01 Q1008 NOSIG=
201412271420 METAR COR EGLL 271420Z 32009KT 9999 SCT019 BKN029 04/01 Q1008
                        NOSIG=
201412271350 METAR COR EGLL 271350Z 32010KT 9999 BKN020 05/01 Q1008 NOSIG=
201412271320 METAR COR EGLL 271320Z 32010KT 300V360 9999 SCT020 04/01
                        Q1008 NOSIG=
201412271250 METAR COR EGLL 271250Z 32010KT 300V360 9999 SCT020 04/01
                        Q1009 NOSIG=
201412271220 METAR COR EGLL 271220Z 32012KT 9999 SCT019 04/01 Q1009 NOSIG=
201412271150 METAR COR EGLL 271150Z 33011KT 9999 SCT019 04/01 Q1009 NOSIG=
201412271120 METAR COR EGLL 271120Z 31013KT 9999 FEW019 04/01 Q1009 NOSIG=
201412271050 METAR COR EGLL 271050Z 32012KT 9999 FEW020 04/01 Q1009 NOSIG=
201412271020 METAR COR EGLL 271020Z 32011KT 9999 BKN020 04/01 Q1008 NOSIG=
201412270950 METAR COR EGLL 270950Z 33012G22KT 9999 BKN016 03/01 Q1008
                        NOSIG=
201412270920 METAR COR EGLL 270920Z 33012KT 9999 SCT015 03/01 Q1008 NOSIG=
201412270850 METAR COR EGLL 270850Z 33011KT 300V010 9999 SCT015 03/01
                        Q1008 NOSIG=
201412270820 METAR COR EGLL 270820Z 33012KT 9999 BKN016 04/01 Q1008 TEMPO
                        BKN014=
201412270750 METAR COR EGLL 270750Z 32011KT 9999 -RA FEW014 BKN017 04/02
                        Q1007 TEMPO BKN013=
201412270720 METAR COR EGLL 270720Z 32013G23KT 9999 BKN015 04/02 Q1007
                        TEMPO BKN014=
201412270650 METAR COR EGLL 270650Z 33013KT 9999 -RA FEW013 BKN015 04/02
                        Q1006 TEMPO BKN013=
201412270620 METAR COR EGLL 270620Z 33014G24KT 300V360 9999 BKN015 04/02
                        Q1006 TEMPO BKN014=
201412270550 METAR COR EGLL 270550Z 33015G26KT 310V010 9999 BKN015 04/02
                        Q1005 TEMPO BKN013=
201412270520 METAR COR EGLL 270520Z 33015G25KT 9999 BKN014 03/02 Q1005
                        NOSIG=
201412270450 METAR COR EGLL 270450Z 32015G26KT 290V360 9999 BKN013 03/02
                        Q1004 NOSIG=
201412270420 METAR COR EGLL 270420Z 32016G26KT 290V350 9999 BKN013 03/02
                        Q1003 NOSIG=
201412270350 METAR COR EGLL 270350Z 33016G30KT 9000 -RA BKN013 03/01 Q1003
                        NOSIG=
201412270320 METAR COR EGLL 270320Z 32017G30KT 290V350 9999 SCT014 BKN020
                        03/01 Q1002 TEMPO BKN014=
201412270250 METAR COR EGLL 270250Z 31016KT 9999 SCT016 BKN022 03/01 Q1001
                        TEMPO BKN014=
201412270220 METAR COR EGLL 270220Z 31018G30KT 9999 BKN015 02/01 Q1001
                        TEMPO BKN014=
201412270150 METAR COR EGLL 270150Z 30019G30KT 9999 BKN014 02/01 Q1000
                        NOSIG=
201412270120 METAR COR EGLL 270120Z 30021G31KT 9999 BKN014 03/01 Q1000
                        NOSIG=
201412270050 METAR COR EGLL 270050Z 30020G33KT 9999 SCT013 BKN017 05/03
                        Q1000 TEMPO BKN014=
201412270020 METAR COR EGLL 270020Z 28019G30KT 9999 -RA SCT015 BKN022
                        09/07 Q0999 TEMPO BKN014=
201412262350 METAR COR EGLL 262350Z 25014KT 9999 -RA FEW012 SCT023 09/08
                        Q0999 BECMG 31018G28KT=
201412262320 METAR COR EGLL 262320Z 24012KT 9999 -RA FEW030 SCT040 09/08
                        Q1000 BECMG 31018G28KT=
201412262250 METAR COR EGLL 262250Z 25014KT 4000 -RA FEW006 SCT010 BKN022
                        09/08 Q1001 TEMPO 6000 BKN010=
201412262220 METAR COR EGLL 262220Z 24013KT 5000 -RA FEW009 SCT012 09/08
                        Q1002 TEMPO BKN012=
201412262150 METAR COR EGLL 262150Z 23011KT 9000 -RA FEW008 SCT017 BKN033
                        09/08 Q1003 TEMPO BKN014=
201412262120 METAR COR EGLL 262120Z 19009KT 9999 -RA FEW013 SCT019 BKN024
                        08/07 Q1004 RERA TEMPO BKN014=
201412262050 METAR COR EGLL 262050Z 19011KT 9999 SCT019 SCT028 08/07 Q1005
                        TEMPO BKN014=
201412262020 METAR COR EGLL 262020Z 16011KT 9999 -RA FEW010 SCT017 BKN020
                        07/06 Q1007 TEMPO RA BKN010=
201412261950 METAR COR EGLL 261950Z 16010KT 9999 -RA SCT008 SCT015 07/06
                        Q1008 RERA TEMPO 4500 RADZ BKN010=
201412261920 METAR COR EGLL 261920Z 15014KT 8000 RA FEW008 BKN010 06/05
                        Q1010 TEMPO SCT010 BKN015=
201412261850 METAR COR EGLL 261850Z 15015KT 9000 RA FEW010 BKN013 06/05
                        Q1011 TEMPO SCT013 BKN016=
201412261820 METAR COR EGLL 261820Z 15013KT 9999 -RA FEW011 SCT016 BKN020
                        05/04 Q1013 RERA BECMG RA BKN012=
201412261750 METAR COR EGLL 261750Z 15012KT 8000 RA BKN014 05/04 Q1015
                        NOSIG=
201412261720 METAR COR EGLL 261720Z 15009KT 9000 RA BKN014 05/04 Q1017
                        NOSIG=
201412261650 METAR COR EGLL 261650Z 14008KT 9000 RA FEW014 BKN018 04/04
                        Q1019 TEMPO BKN014=
201412261620 METAR COR EGLL 261620Z 14008KT 9000 RA SCT018 BKN023 04/04
                        Q1020 TEMPO BKN014=
201412261550 METAR COR EGLL 261550Z 15006KT 9999 -RA BKN019 05/03 Q1021
                        TEMPO RA BKN014=
201412261520 METAR COR EGLL 261520Z 16005KT 9999 -RA BKN020 05/03 Q1022
                        TEMPO RA=
201412261450 METAR COR EGLL 261450Z 19006KT 150V240 9999 -RA SCT030 BKN037
                        05/03 Q1023 NOSIG=
201412261420 METAR COR EGLL 261420Z 17006KT 120V240 9999 FEW040 SCT047
                        05/03 Q1024 NOSIG=
201412261350 METAR COR EGLL 261350Z 19005KT 140V240 9999 FEW047 04/02
                        Q1024 NOSIG=
201412261320 METAR COR EGLL 261320Z 20006KT 160V250 CAVOK 04/02 Q1025
                        NOSIG=
201412261250 METAR COR EGLL 261250Z 19007KT 140V240 CAVOK 04/02 Q1026
                        NOSIG=
201412261220 METAR COR EGLL 261220Z 21005KT 160V250 CAVOK 03/02 Q1027
                        NOSIG=
201412261150 METAR COR EGLL 261150Z 21004KT 150V250 CAVOK 03/02 Q1028
                        NOSIG=
201412261120 METAR COR EGLL 261120Z 20005KT 170V310 CAVOK 03/01 Q1029
                        NOSIG=
201412261050 METAR COR EGLL 261050Z 25005KT 220V290 CAVOK 03/02 Q1029
                        NOSIG=
201412261020 METAR COR EGLL 261020Z 23006KT 180V270 CAVOK 02/01 Q1030
                        NOSIG=
201412260950 METAR COR EGLL 260950Z 23005KT 180V260 CAVOK 02/01 Q1030
                        NOSIG=
201412260920 METAR COR EGLL 260920Z 21005KT CAVOK 01/01 Q1030 NOSIG=
201412260850 METAR COR EGLL 260850Z 22004KT CAVOK 01/01 Q1030 NOSIG=
201412260820 METAR COR EGLL 260820Z 20003KT CAVOK 01/00 Q1030 NOSIG=
201412260750 METAR COR EGLL 260750Z 22004KT 180V240 CAVOK 01/00 Q1031
                        NOSIG=
201412260720 METAR COR EGLL 260720Z VRB02KT CAVOK 00/M00 Q1031 NOSIG=
201412260650 METAR COR EGLL 260650Z VRB02KT CAVOK M00/M01 Q1031 NOSIG=
201412260620 METAR COR EGLL 260620Z 18004KT 150V220 CAVOK 00/M00 Q1031
                        NOSIG=
201412260550 METAR COR EGLL 260550Z 17002KT CAVOK 01/00 Q1031 NOSIG=
201412260520 METAR COR EGLL 260520Z VRB03KT CAVOK 00/00 Q1032 TEMPO 4500
                        BR=
201412260450 METAR COR EGLL 260450Z VRB02KT CAVOK 01/00 Q1032 TEMPO 4500
                        BR=
201412260420 METAR COR EGLL 260420Z 20002KT CAVOK 00/M00 Q1032 TEMPO 4500
                        BR=
201412260350 METAR COR EGLL 260350Z 00000KT CAVOK 01/01 Q1032 TEMPO 4500
                        BR=
201412260320 METAR COR EGLL 260320Z VRB02KT CAVOK 01/01 Q1032 NOSIG=
201412260250 METAR COR EGLL 260250Z 31003KT CAVOK 00/M01 Q1032 NOSIG=
201412260220 METAR EGLL 260220Z AUTO 28002KT 9999 NCD 01/00 Q1032=
201412260150 METAR EGLL 260150Z AUTO 00000KT 9999 NCD 02/01 Q1032=
201412260120 METAR EGLL 260120Z AUTO 30003KT 9999 NCD 01/00 Q1032=
201412260050 METAR COR EGLL 260050Z 27005KT CAVOK 01/00 Q1032 NOSIG=
201412260020 METAR COR EGLL 260020Z 30002KT CAVOK 01/00 Q1032 NOSIG=
201412252350 METAR COR EGLL 252350Z 27005KT CAVOK 02/01 Q1033 NOSIG=
201412252320 METAR COR EGLL 252320Z 29007KT 9999 FEW041 03/01 Q1033 NOSIG=
201412252250 METAR COR EGLL 252250Z 29008KT 9999 FEW037 04/02 Q1032 NOSIG=
201412252220 METAR COR EGLL 252220Z 28008KT 9999 FEW040 04/02 Q1032 NOSIG=
201412252150 METAR COR EGLL 252150Z 28007KT CAVOK 04/02 Q1032 NOSIG=
201412252120 METAR COR EGLL 252120Z 28007KT CAVOK 04/02 Q1032 NOSIG=
201412252050 METAR COR EGLL 252050Z 28006KT CAVOK 03/01 Q1032 NOSIG=
201412252020 METAR COR EGLL 252020Z 28006KT CAVOK 03/02 Q1032 NOSIG=
201412251950 METAR COR EGLL 251950Z 27008KT CAVOK 03/02 Q1032 NOSIG=
201412251920 METAR COR EGLL 251920Z 27006KT CAVOK 04/02 Q1032 NOSIG=
201412251850 METAR COR EGLL 251850Z 27006KT CAVOK 04/02 Q1031 NOSIG=
201412251820 METAR COR EGLL 251820Z 27007KT CAVOK 04/02 Q1031 NOSIG=
201412251750 METAR COR EGLL 251750Z 27006KT 9999 FEW032 05/02 Q1031 NOSIG=
201412251720 METAR COR EGLL 251720Z 27007KT 9999 FEW032 05/02 Q1031 NOSIG=
201412251650 METAR COR EGLL 251650Z 26006KT 9999 FEW032 06/03 Q1031 NOSIG=
201412251620 METAR COR EGLL 251620Z 28006KT 9999 FEW037 06/02 Q1031 NOSIG=
201412251550 METAR COR EGLL 251550Z 28008KT 9999 FEW035 06/03 Q1030 NOSIG=
201412251520 METAR COR EGLL 251520Z 28009KT 9999 FEW033 07/03 Q1030 NOSIG=
201412251450 METAR COR EGLL 251450Z 29009KT 9999 FEW027 08/03 Q1030 NOSIG=
201412251420 METAR COR EGLL 251420Z 30008KT 9999 FEW029 08/02 Q1030 NOSIG=
201412251350 METAR COR EGLL 251350Z 29010KT 9999 FEW028 08/03 Q1030 NOSIG=
201412251320 METAR COR EGLL 251320Z 30010KT 9999 FEW030 08/03 Q1029 NOSIG=
201412251250 METAR COR EGLL 251250Z 29012KT 9999 FEW030 08/03 Q1029 NOSIG=
201412251220 METAR COR EGLL 251220Z 29011KT 9999 FEW040 08/03 Q1029 NOSIG=
201412251150 METAR COR EGLL 251150Z 27011KT CAVOK 08/03 Q1029 NOSIG=
201412251120 METAR COR EGLL 251120Z 29009KT CAVOK 07/03 Q1029 NOSIG=
201412251050 METAR COR EGLL 251050Z 27007KT CAVOK 07/03 Q1029 NOSIG=
201412251020 METAR COR EGLL 251020Z 26007KT CAVOK 06/03 Q1029 NOSIG=
201412250950 METAR COR EGLL 250950Z 27008KT CAVOK 05/03 Q1029 NOSIG=
201412250920 METAR COR EGLL 250920Z 26010KT CAVOK 05/02 Q1028 NOSIG=
201412250850 METAR COR EGLL 250850Z 27008KT CAVOK 05/02 Q1028 NOSIG=
201412250820 METAR COR EGLL 250820Z 27007KT CAVOK 04/02 Q1028 NOSIG=
201412250750 METAR COR EGLL 250750Z 27005KT CAVOK 03/01 Q1027 NOSIG=
201412250720 METAR COR EGLL 250720Z 28004KT CAVOK 03/01 Q1027 NOSIG=
201412250650 METAR COR EGLL 250650Z 28004KT CAVOK 04/02 Q1027 NOSIG=
201412250620 METAR COR EGLL 250620Z 27008KT CAVOK 04/02 Q1026 NOSIG=
201412250550 METAR COR EGLL 250550Z 28007KT CAVOK 04/02 Q1026 NOSIG=
201412250520 METAR COR EGLL 250520Z 26010KT CAVOK 04/02 Q1026 NOSIG=
201412250450 METAR COR EGLL 250450Z 27011KT CAVOK 04/02 Q1025 NOSIG=
201412250420 METAR COR EGLL 250420Z 26013KT CAVOK 04/02 Q1025 NOSIG=
201412250350 METAR COR EGLL 250350Z 26011KT CAVOK 04/02 Q1025 NOSIG=
201412250320 METAR COR EGLL 250320Z 27010KT CAVOK 04/02 Q1025 NOSIG=
201412250250 METAR COR EGLL 250250Z 27009KT CAVOK 05/02 Q1025 NOSIG=
201412250220 METAR EGLL 250220Z AUTO 27009KT 9999 NCD 04/02 Q1025=
201412250150 METAR EGLL 250150Z AUTO 27008KT 9999 NCD 05/02 Q1025=
201412250120 METAR EGLL 250120Z AUTO 26009KT 9999 NCD 05/02 Q1025=
201412250050 METAR COR EGLL 250050Z 27009KT CAVOK 05/02 Q1025 NOSIG=
201412250020 METAR COR EGLL 250020Z 27008KT CAVOK 05/02 Q1024 NOSIG=
201412242350 METAR COR EGLL 242350Z 27009KT CAVOK 05/02 Q1024 NOSIG=
201412242320 METAR COR EGLL 242320Z 26012KT CAVOK 05/02 Q1024 NOSIG=
201412242250 METAR COR EGLL 242250Z 25011KT CAVOK 04/01 Q1024 NOSIG=
201412242220 METAR COR EGLL 242220Z 25011KT CAVOK 05/01 Q1023 NOSIG=
201412242150 METAR COR EGLL 242150Z 25010KT CAVOK 05/01 Q1023 NOSIG=
201412242120 METAR COR EGLL 242120Z 26010KT CAVOK 06/01 Q1023 NOSIG=
201412242050 METAR COR EGLL 242050Z 25010KT CAVOK 05/01 Q1023 NOSIG=
201412242020 METAR COR EGLL 242020Z 25008KT CAVOK 05/00 Q1023 NOSIG=
201412241950 METAR COR EGLL 241950Z 25010KT CAVOK 05/00 Q1022 NOSIG=
201412241920 METAR COR EGLL 241920Z 25010KT CAVOK 06/00 Q1022 NOSIG=
201412241850 METAR COR EGLL 241850Z 25009KT CAVOK 06/00 Q1022 NOSIG=
201412241820 METAR COR EGLL 241820Z 25010KT CAVOK 06/01 Q1022 NOSIG=
201412241750 METAR COR EGLL 241750Z 25009KT CAVOK 06/01 Q1021 NOSIG=
201412241720 METAR COR EGLL 241720Z 25007KT CAVOK 06/00 Q1021 NOSIG=
201412241650 METAR COR EGLL 241650Z 25009KT CAVOK 07/M00 Q1020 NOSIG=
201412241620 METAR COR EGLL 241620Z 27009KT CAVOK 07/M00 Q1020 NOSIG=
201412241550 METAR COR EGLL 241550Z 29010KT 9999 FEW049 07/00 Q1020 NOSIG=
201412241520 METAR COR EGLL 241520Z 29012KT 9999 SCT048 08/M00 Q1020 NOSIG=
201412241450 METAR COR EGLL 241450Z 29010KT 9999 SCT048 08/01 Q1019 NOSIG=
201412241420 METAR COR EGLL 241420Z 29013KT 9999 FEW041 BKN049 08/01 Q1019
                        NOSIG=
201412241350 METAR COR EGLL 241350Z 29013KT 9999 BKN049 09/02 Q1019 NOSIG=
201412241320 METAR COR EGLL 241320Z 29012KT 9999 BKN048 08/02 Q1018 NOSIG=
201412241250 METAR COR EGLL 241250Z 29012KT 9999 SCT040 SCT045 09/02 Q1018
                        NOSIG=
201412241220 METAR COR EGLL 241220Z 30011KT 280V340 9999 FEW037 09/02
                        Q1018 NOSIG=
201412241150 METAR COR EGLL 241150Z 30010KT 9999 FEW032 09/01 Q1018 NOSIG=
201412241120 METAR COR EGLL 241120Z 30010KT 9999 FEW032 09/01 Q1018 NOSIG=
201412241050 METAR COR EGLL 241050Z 30008KT 9999 FEW039 09/01 Q1017 NOSIG=
201412241020 METAR COR EGLL 241020Z 30009KT 9999 BKN040 09/03 Q1017 NOSIG=
201412240950 METAR COR EGLL 240950Z 30012KT 9999 FEW028 BKN034 09/04 Q1017
                        NOSIG=
201412240920 METAR COR EGLL 240920Z 31008KT 280V340 9999 SCT030 SCT034
                        09/06 Q1016 NOSIG=
201412240850 METAR COR EGLL 240850Z 30011KT 9999 BKN023 10/06 Q1015 NOSIG=
201412240820 METAR COR EGLL 240820Z 29008KT 9999 BKN024 10/08 Q1015 NOSIG=
201412240750 METAR COR EGLL 240750Z 29007KT 9999 -RA SCT025 BKN030 11/09
                        Q1014 NOSIG=
201412240720 METAR COR EGLL 240720Z 25013KT 220V300 9999 -RA SCT011 BKN020
                        12/10 Q1013 TEMPO 5000 RA BKN008=
201412240650 METAR COR EGLL 240650Z 24012KT 9999 FEW010 SCT014 12/10 Q1013
                        TEMPO 5000 RA BKN008=
201412240620 METAR COR EGLL 240620Z 23014KT 9999 -RA SCT010 BKN016 12/10
                        Q1013 TEMPO 5000 RA BKN008=
201412240550 METAR COR EGLL 240550Z 23013KT 9999 -RA FEW009 SCT012 BKN016
                        12/10 Q1012 TEMPO 5000 RA BKN009=
201412240520 METAR COR EGLL 240520Z 23014G24KT 9999 -RA SCT011 BKN016
                        11/10 Q1012 TEMPO RA BKN009=
201412240450 METAR COR EGLL 240450Z 24016KT 9999 BKN012 12/10 Q1012 TEMPO
                        RA=
201412240420 METAR COR EGLL 240420Z 23016KT 9999 BKN013 12/09 Q1012 TEMPO
                        RA=
201412240350 METAR COR EGLL 240350Z 23016KT 9999 BKN014 12/09 Q1012 TEMPO
                        RA=
201412240320 METAR COR EGLL 240320Z 24018KT 9999 BKN014 12/09 Q1012 NOSIG=
201412240250 METAR COR EGLL 240250Z 23016KT 9999 BKN014 11/09 Q1013 NOSIG=
201412240220 METAR EGLL 240220Z AUTO 24016KT 9999 OVC013 11/09 Q1013=
201412240150 METAR EGLL 240150Z AUTO 23017KT 9999 BKN013 11/09 Q1013=
201412240120 METAR EGLL 240120Z AUTO 23017KT 9999 BKN013 11/09 Q1013=
201412240050 METAR COR EGLL 240050Z 23016KT 9999 BKN016 11/08 Q1013 BECMG
                        BKN014=
201412240020 METAR COR EGLL 240020Z 23017KT 9999 BKN019 11/08 Q1013 TEMPO
                        BKN014=
201412232350 METAR COR EGLL 232350Z 23018KT 9999 BKN020 11/08 Q1014 BECMG
                        BKN014=
201412232320 METAR COR EGLL 232320Z 23017KT 9999 BKN022 11/07 Q1014 BECMG
                        BKN014=
201412232250 METAR COR EGLL 232250Z 23017G27KT 9999 BKN024 11/07 Q1014
                        NOSIG=
201412232220 METAR COR EGLL 232220Z 23017KT 9999 SCT024 SCT032 11/06 Q1014
                        NOSIG=
201412232150 METAR COR EGLL 232150Z 22015KT 9999 FEW022 BKN033 11/07 Q1014
                        NOSIG=
201412232120 METAR COR EGLL 232120Z 23016KT 9999 FEW026 BKN033 11/07 Q1015
                        NOSIG=
201412232050 METAR COR EGLL 232050Z 24016KT 9999 FEW021 BKN036 11/07 Q1015
                        NOSIG=
201412232020 METAR COR EGLL 232020Z 24016KT 9999 FEW020 BKN036 11/07 Q1015
                        NOSIG=
201412231950 METAR COR EGLL 231950Z 23016KT 9999 SCT021 BKN033 11/07 Q1015
                        NOSIG=
201412231920 METAR COR EGLL 231920Z 23016KT 9999 FEW028 BKN035 11/07 Q1015
                        NOSIG=
201412231850 METAR COR EGLL 231850Z 24016KT 9999 FEW028 BKN035 11/06 Q1015
                        NOSIG=
201412231820 METAR COR EGLL 231820Z 25021KT 9999 SCT035 SCT039 11/05 Q1015
                        NOSIG=
201412231750 METAR COR EGLL 231750Z 24023G33KT 9999 SCT040 11/06 Q1015
                        NOSIG=
201412231720 METAR COR EGLL 231720Z 24021KT 9999 SCT040 12/06 Q1015 NOSIG=
201412231650 METAR COR EGLL 231650Z 24016KT 9999 FEW029 BKN043 11/07 Q1015
                        NOSIG=
201412231620 METAR COR EGLL 231620Z 24020G31KT 9999 VCSH FEW021 SCT029
                        11/08 Q1015 NOSIG=
201412231550 METAR COR EGLL 231550Z 23016KT 9999 VCSH FEW023 SCT025 12/08
                        Q1015 NOSIG=
201412231520 METAR COR EGLL 231520Z 23017KT 9999 FEW023 SCT030 12/08 Q1016
                        NOSIG=
201412231450 METAR COR EGLL 231450Z 23018G29KT 9999 FEW022 SCT024 BKN047
                        12/09 Q1016 NOSIG=
201412231420 METAR COR EGLL 231420Z 24015G25KT 9999 BKN024 13/08 Q1016
                        NOSIG=
201412231350 METAR COR EGLL 231350Z 24017KT 9999 SCT023 SCT028 13/08 Q1016
                        NOSIG=
201412231320 METAR COR EGLL 231320Z 23014G24KT 9999 SCT026 SCT045 13/08
                        Q1016 NOSIG=
201412231250 METAR COR EGLL 231250Z 23018KT 9999 FEW031 SCT047 13/08 Q1017
                        NOSIG=
201412231220 METAR COR EGLL 231220Z 24018KT 9999 SCT028 13/08 Q1017 NOSIG=
201412231150 METAR COR EGLL 231150Z 24016KT 9999 SCT028 12/08 Q1017 NOSIG=
201412231120 METAR COR EGLL 231120Z 24017KT 9999 SCT023 SCT027 12/08 Q1018
                        NOSIG=
201412231050 METAR COR EGLL 231050Z 24015KT 9999 FEW022 12/08 Q1018 NOSIG=
201412231020 METAR COR EGLL 231020Z 23016KT 9999 FEW022 12/08 Q1018 NOSIG=
201412230950 METAR COR EGLL 230950Z 23015KT 9999 FEW026 SCT043 12/07 Q1018
                        NOSIG=
201412230920 METAR COR EGLL 230920Z 25015KT 9999 SCT028 SCT043 12/07 Q1018
                        NOSIG=
201412230850 METAR COR EGLL 230850Z 24017KT 9999 FEW031 BKN038 12/07 Q1018
                        NOSIG=
201412230820 METAR COR EGLL 230820Z 24017KT 9999 SCT030 SCT045 12/07 Q1018
                        NOSIG=
201412230750 METAR COR EGLL 230750Z 24017KT 9999 SCT025 SCT041 12/08 Q1018
                        NOSIG=
201412230720 METAR COR EGLL 230720Z 24015KT 9999 SCT022 SCT032 12/07 Q1017
                        NOSIG=
201412230650 METAR COR EGLL 230650Z 24016KT 9999 FEW025 SCT034 11/07 Q1017
                        NOSIG=
201412230620 METAR COR EGLL 230620Z 24016KT 9999 FEW023 SCT029 11/07 Q1017
                        NOSIG=
201412230550 METAR COR EGLL 230550Z 23014KT 9999 SCT030 11/07 Q1017 NOSIG=
201412230520 METAR COR EGLL 230520Z 25016KT 9999 FEW030 11/07 Q1017 NOSIG=
201412230450 METAR COR EGLL 230450Z 24015KT 9999 SCT033 11/07 Q1018 NOSIG=
201412230420 METAR COR EGLL 230420Z 25016KT 9999 FEW028 SCT036 11/07 Q1018
                        NOSIG=
201412230350 METAR COR EGLL 230350Z 24018KT 9999 FEW032 BKN039 11/07 Q1018
                        NOSIG=
201412230320 METAR COR EGLL 230320Z 24017KT 9999 FEW032 BKN037 12/07 Q1018
                        NOSIG=
201412230250 METAR COR EGLL 230250Z 25016KT 9999 BKN035 12/06 Q1018 NOSIG=
201412230220 METAR EGLL 230220Z AUTO 25018KT 9999 BKN034 12/06 Q1018=
201412230150 METAR EGLL 230150Z AUTO 25019KT 9999 OVC032 12/07 Q1018=
201412230120 METAR EGLL 230120Z AUTO 24017KT 9999 BKN034 11/07 Q1018=
201412230050 METAR COR EGLL 230050Z 24016KT 9999 BKN036 12/08 Q1018 NOSIG=
201412230020 METAR COR EGLL 230020Z 25016KT 9999 FEW024 BKN035 12/08 Q1018
                        NOSIG=
201412222350 METAR COR EGLL 222350Z 24014KT 9999 FEW025 BKN036 12/08 Q1018
                        NOSIG=
201412222320 METAR COR EGLL 222320Z 24015KT 9999 FEW021 BKN031 12/08 Q1018
                        NOSIG=
201412222250 METAR COR EGLL 222250Z 24016KT 9999 BKN025 12/07 Q1018 NOSIG=
201412222220 METAR COR EGLL 222220Z 24017KT 9999 BKN026 12/07 Q1018 NOSIG=
201412222150 METAR COR EGLL 222150Z 24016KT 9999 BKN024 12/07 Q1018 NOSIG=
201412222120 METAR COR EGLL 222120Z 24016KT 9999 BKN025 12/07 Q1018 NOSIG=
201412222050 METAR COR EGLL 222050Z 24018KT 9999 BKN025 12/07 Q1018 NOSIG=
201412222020 METAR COR EGLL 222020Z 25018KT 9999 BKN027 12/07 Q1018 NOSIG=
201412221950 METAR COR EGLL 221950Z 25017G30KT 9999 FEW030 12/07 Q1018
                        NOSIG=
201412221920 METAR COR EGLL 221920Z 24017KT 9999 FEW020 12/08 Q1017 NOSIG=
201412221850 METAR COR EGLL 221850Z 24016KT 9999 FEW026 12/08 Q1018 NOSIG=
201412221820 METAR COR EGLL 221820Z 23017KT 9999 FEW026 SCT038 12/08 Q1018
                        NOSIG=
201412221750 METAR COR EGLL 221750Z 23014KT 9999 SCT025 12/08 Q1018 NOSIG=
201412221720 METAR COR EGLL 221720Z 24014KT 9999 SCT022 SCT040 13/08 Q1018
                        NOSIG=
201412221650 METAR COR EGLL 221650Z 24016KT 9999 FEW024 BKN028 13/08 Q1018
                        NOSIG=
201412221620 METAR COR EGLL 221620Z 24017G27KT 9999 BKN023 13/08 Q1018
                        NOSIG=
201412221550 METAR COR EGLL 221550Z 24018KT 9999 BKN022 13/09 Q1018 NOSIG=
201412221520 METAR COR EGLL 221520Z 24018KT 9999 BKN021 13/09 Q1018 NOSIG=
201412221450 METAR COR EGLL 221450Z 24016KT 9999 BKN021 13/09 Q1018 NOSIG=
201412221420 METAR COR EGLL 221420Z 24017KT 9999 BKN021 13/09 Q1017 NOSIG=
201412221350 METAR COR EGLL 221350Z 24017KT 9999 BKN020 13/09 Q1017 NOSIG=
201412221320 METAR COR EGLL 221320Z 24017KT 9999 BKN022 13/09 Q1018 NOSIG=
201412221250 METAR COR EGLL 221250Z 24017KT 9999 BKN022 13/09 Q1018 NOSIG=
201412221220 METAR COR EGLL 221220Z 25017KT 9999 BKN025 13/09 Q1018 NOSIG=
201412221150 METAR COR EGLL 221150Z 24018KT 9999 BKN025 13/09 Q1018 NOSIG=
201412221120 METAR COR EGLL 221120Z 25021KT 9999 BKN026 13/09 Q1018 NOSIG=
201412221050 METAR COR EGLL 221050Z 25017G29KT 9999 BKN024 13/09 Q1018
                        NOSIG=
201412221020 METAR COR EGLL 221020Z 25019G30KT 9999 SCT025 BKN030 13/09
                        Q1019 NOSIG=
201412220950 METAR COR EGLL 220950Z 25018G29KT 9999 SCT025 SCT030 13/09
                        Q1018 NOSIG=
201412220920 METAR COR EGLL 220920Z 24019KT 9999 FEW024 BKN027 13/09 Q1018
                        NOSIG=
201412220850 METAR COR EGLL 220850Z 25020KT 9999 FEW026 BKN028 13/09 Q1018
                        NOSIG=
201412220820 METAR COR EGLL 220820Z 25022KT 9999 SCT024 SCT028 13/10 Q1018
                        NOSIG=
201412220750 METAR COR EGLL 220750Z 24019KT 9999 SCT022 SCT027 13/10 Q1018
                        NOSIG=
201412220720 METAR COR EGLL 220720Z 24018G28KT 9999 SCT023 SCT028 13/10
                        Q1018 NOSIG=
201412220650 METAR COR EGLL 220650Z 24018G28KT 9999 SCT020 SCT025 13/10
                        Q1018 NOSIG=
201412220620 METAR COR EGLL 220620Z 24017G27KT 9999 BKN018 13/10 Q1018
                        NOSIG=
201412220550 METAR COR EGLL 220550Z 24016KT 9999 BKN014 BKN033 13/11 Q1018
                        TEMPO SCT014 BKN018=
201412220520 METAR COR EGLL 220520Z 23016KT 9999 SCT012 BKN016 13/11 Q1018
                        TEMPO BKN014=
201412220450 METAR COR EGLL 220450Z 24015KT 9000 BKN014 13/11 Q1018 NOSIG=
201412220420 METAR COR EGLL 220420Z 23016G28KT 9999 BKN011 12/11 Q1019
                        NOSIG=
201412220350 METAR COR EGLL 220350Z 23013KT 9999 FEW008 BKN011 12/11 Q1019
                        NOSIG=
201412220320 METAR COR EGLL 220320Z 23014KT 8000 OVC009 12/11 Q1020 BECMG
                        BKN012=
201412220250 METAR COR EGLL 220250Z 24012KT 9000 FEW008 OVC010 12/11 Q1020
                        TEMPO BKN009=
201412220220 METAR EGLL 220220Z AUTO 23016KT 9999 BKN010 12/10 Q1020=
201412220150 METAR EGLL 220150Z AUTO 24018KT 9999 BKN012 12/10 Q1020=
201412220120 METAR EGLL 220120Z AUTO 24019KT 9999 BKN011 12/10 Q1020=
201412220050 METAR COR EGLL 220050Z 24017KT 9999 BKN012 12/10 Q1020 NOSIG=
201412220020 METAR COR EGLL 220020Z 23018G28KT 9999 BKN014 12/10 Q1020
                        TEMPO BKN015=
201412212350 METAR COR EGLL 212350Z 23016KT 9999 BKN015 12/09 Q1021 TEMPO
                        BKN014=
201412212320 METAR COR EGLL 212320Z 24018KT 9999 BKN015 12/09 Q1021 TEMPO
                        BKN014=
201412212250 METAR COR EGLL 212250Z 24017KT 9999 BKN016 12/09 Q1022 TEMPO
                        BKN014=
201412212220 METAR COR EGLL 212220Z 24018KT 9999 BKN014 12/09 Q1022 TEMPO
                        BKN015=
201412212150 METAR COR EGLL 212150Z 24017KT 9999 BKN016 12/09 Q1022 TEMPO
                        BKN012=
201412212120 METAR COR EGLL 212120Z 24016KT 9999 BKN014 12/09 Q1022 NOSIG=
201412212050 METAR COR EGLL 212050Z 23016KT 9999 BKN014 12/09 Q1022 NOSIG=
201412212020 METAR COR EGLL 212020Z 23016KT 9999 BKN014 11/09 Q1022 NOSIG=
201412211950 METAR COR EGLL 211950Z 23015KT 9999 BKN014 11/09 Q1023 TEMPO
                        SCT014 BKN015=
201412211920 METAR COR EGLL 211920Z 23016KT 9999 BKN014 11/09 Q1023 TEMPO
                        BKN015=
201412211850 METAR COR EGLL 211850Z 24019KT 9999 BKN015 BKN023 11/08 Q1023
                        TEMPO BKN014=
201412211820 METAR COR EGLL 211820Z 24016KT 9999 SCT017 BKN025 11/08 Q1023
                        TEMPO BKN014=
201412211750 METAR COR EGLL 211750Z 23016KT 9999 BKN020 10/07 Q1023 NOSIG=
201412211720 METAR COR EGLL 211720Z 24013G25KT 9999 FEW020 SCT025 10/07
                        Q1023 NOSIG=
201412211650 METAR COR EGLL 211650Z 24016KT 9999 FEW022 BKN027 10/07 Q1024
                        NOSIG=
201412211620 METAR COR EGLL 211620Z 24014KT 9999 FEW022 BKN029 10/07 Q1024
                        NOSIG=
201412211550 METAR COR EGLL 211550Z 24018KT 9999 BKN024 10/06 Q1024 NOSIG=
201412211520 METAR COR EGLL 211520Z 25017KT 9999 BKN024 11/06 Q1025 NOSIG=
201412211450 METAR COR EGLL 211450Z 25016KT 9999 BKN025 10/06 Q1025 NOSIG=
201412211420 METAR COR EGLL 211420Z 25016KT 9999 BKN027 10/06 Q1025 NOSIG=
201412211350 METAR COR EGLL 211350Z 24017KT 9999 BKN025 10/06 Q1025 NOSIG=
201412211320 METAR COR EGLL 211320Z 24017KT 9999 BKN025 10/06 Q1026 NOSIG=
201412211250 METAR COR EGLL 211250Z 24018KT 9999 BKN025 10/06 Q1026 NOSIG=
201412211220 METAR COR EGLL 211220Z 24017KT 9999 FEW022 BKN027 10/06 Q1027
                        NOSIG=
201412211150 METAR COR EGLL 211150Z 24016KT 9999 SCT022 BKN034 10/05 Q1027
                        NOSIG=
201412211120 METAR COR EGLL 211120Z 25018KT 9999 BKN022 10/05 Q1027 NOSIG=
201412211050 METAR COR EGLL 211050Z 24017KT 9999 FEW022 SCT038 09/05 Q1027
                        NOSIG=
201412211020 METAR COR EGLL 211020Z 24014KT 9999 FEW020 BKN035 09/05 Q1028
                        NOSIG=
201412210950 METAR COR EGLL 210950Z 24013KT 9999 BKN035 08/05 Q1028 NOSIG=
201412210920 METAR COR EGLL 210920Z 24015KT 9999 FEW019 BKN036 08/05 Q1028
                        NOSIG=
201412210850 METAR COR EGLL 210850Z 24013KT 9999 FEW020 BKN037 08/05 Q1028
                        NOSIG=
201412210820 METAR COR EGLL 210820Z 23013KT 9999 FEW020 SCT037 08/05 Q1028
                        NOSIG=
201412210750 METAR COR EGLL 210750Z 24013KT 9999 FEW018 SCT035 BKN040
                        08/05 Q1028 NOSIG=
201412210720 METAR COR EGLL 210720Z 23013KT 9999 BKN033 08/05 Q1028 NOSIG=
201412210650 METAR COR EGLL 210650Z 24013KT 9999 BKN033 07/05 Q1028 NOSIG=
201412210620 METAR COR EGLL 210620Z 23011KT 9999 FEW018 BKN035 07/05 Q1029
                        NOSIG=
201412210550 METAR COR EGLL 210550Z 24012KT 9999 FEW017 SCT027 07/05 Q1029
                        NOSIG=
201412210520 METAR COR EGLL 210520Z 23009KT 9999 FEW022 BKN027 07/05 Q1029
                        NOSIG=
201412210450 METAR COR EGLL 210450Z 22007KT 9999 FEW014 BKN021 07/05 Q1030
                        NOSIG=
201412210420 METAR COR EGLL 210420Z 22006KT 9999 FEW017 BKN026 07/05 Q1030
                        NOSIG=
201412210350 METAR COR EGLL 210350Z 23010KT 9999 BKN024 07/05 Q1030 NOSIG=
201412210320 METAR COR EGLL 210320Z 23010KT 9999 BKN025 07/05 Q1030 NOSIG=
201412210250 METAR COR EGLL 210250Z 23008KT 9999 FEW022 BKN036 06/04 Q1030
                        NOSIG=
201412210220 METAR COR EGLL 210220Z 23010KT 9999 BKN036 06/04 Q1031 NOSIG=
201412210150 METAR COR EGLL 210150Z 24008KT 9999 SCT039 05/04 Q1031 NOSIG=
201412210120 METAR EGLL 210120Z 24008KT 9999 FEW041 05/03 Q1031=
201412210050 METAR COR EGLL 210050Z 24008KT CAVOK 05/03 Q1032 NOSIG=
201412210020 METAR COR EGLL 210020Z 23007KT CAVOK 05/03 Q1031 NOSIG=
201412202350 METAR COR EGLL 202350Z 21006KT CAVOK 05/03 Q1031 NOSIG=
201412202320 METAR COR EGLL 202320Z 22007KT CAVOK 05/03 Q1031 NOSIG=
201412202250 METAR COR EGLL 202250Z 25009KT CAVOK 06/03 Q1031 NOSIG=
201412202220 METAR COR EGLL 202220Z 26009KT CAVOK 06/04 Q1031 NOSIG=
201412202150 METAR COR EGLL 202150Z 28007KT CAVOK 05/03 Q1031 NOSIG=
201412202120 METAR COR EGLL 202120Z 28010KT CAVOK 06/03 Q1031 NOSIG=
201412202050 METAR COR EGLL 202050Z 26009KT CAVOK 06/03 Q1031 NOSIG=
201412202020 METAR COR EGLL 202020Z 27011KT CAVOK 06/03 Q1030 NOSIG=
201412201950 METAR COR EGLL 201950Z 27011KT 9999 FEW037 07/03 Q1030 NOSIG=
201412201920 METAR COR EGLL 201920Z 26010KT 9999 FEW038 07/03 Q1030 NOSIG=
201412201850 METAR COR EGLL 201850Z 26014KT 9999 FEW045 07/03 Q1030 NOSIG=
201412201820 METAR COR EGLL 201820Z 26012KT 9999 SCT045 08/04 Q1030 NOSIG=
201412201750 METAR COR EGLL 201750Z 27009KT 9999 FEW046 07/04 Q1029 NOSIG=
201412201720 METAR COR EGLL 201720Z 26011KT 9999 FEW045 07/04 Q1029 NOSIG=
201412201650 METAR COR EGLL 201650Z 28012KT 9999 FEW045 07/04 Q1028 NOSIG=
201412201620 METAR COR EGLL 201620Z 27012KT 9999 SCT047 08/04 Q1028 NOSIG=
201412201550 METAR COR EGLL 201550Z 28012KT 9999 FEW035 08/04 Q1028 NOSIG=
201412201520 METAR COR EGLL 201520Z 28011KT 9999 FEW037 SCT045 09/04 Q1027
                        NOSIG=
201412201450 METAR COR EGLL 201450Z 29013KT 9999 FEW033 SCT045 09/04 Q1027
                        NOSIG=
201412201420 METAR COR EGLL 201420Z 28012KT 9999 FEW030 SCT034 10/04 Q1027
                        NOSIG=
201412201350 METAR COR EGLL 201350Z 28011KT 9999 FEW033 SCT037 09/04 Q1026
                        NOSIG=
201412201320 METAR COR EGLL 201320Z 28016KT 9999 FEW031 SCT036 09/04 Q1026
                        NOSIG=
201412201250 METAR COR EGLL 201250Z 28014G24KT 9999 SCT037 09/04 Q1026
                        NOSIG=
201412201220 METAR COR EGLL 201220Z 27015KT 9999 FEW020 09/04 Q1026 NOSIG=
201412201150 METAR COR EGLL 201150Z 27015KT 9999 FEW020 09/04 Q1026 NOSIG=
201412201120 METAR COR EGLL 201120Z 27016KT 9999 FEW020 09/04 Q1026 NOSIG=
201412201050 METAR COR EGLL 201050Z 25016KT 9999 FEW041 09/04 Q1026 NOSIG=
201412201020 METAR COR EGLL 201020Z 26014KT 9999 FEW037 08/04 Q1026 NOSIG=
201412200950 METAR COR EGLL 200950Z 25014KT 9999 SCT042 08/04 Q1025 NOSIG=
201412200920 METAR COR EGLL 200920Z 25014KT 9999 BKN048 08/04 Q1025 NOSIG=
201412200850 METAR COR EGLL 200850Z 25012KT 9999 BKN048 07/03 Q1025 NOSIG=
201412200820 METAR COR EGLL 200820Z 25012KT 9999 SCT048 07/03 Q1025 NOSIG=
201412200750 METAR COR EGLL 200750Z 25010KT 9999 FEW035 SCT046 07/04 Q1024
                        NOSIG=
201412200720 METAR COR EGLL 200720Z 24010KT 9999 FEW040 SCT048 06/03 Q1024
                        NOSIG=
201412200650 METAR COR EGLL 200650Z 23010KT 9999 FEW042 06/03 Q1024 NOSIG=
201412200620 METAR COR EGLL 200620Z 24011KT 9999 FEW045 06/03 Q1024 NOSIG=
201412200550 METAR COR EGLL 200550Z 23008KT 9999 BKN047 06/03 Q1024 NOSIG=
201412200520 METAR COR EGLL 200520Z 22008KT 9999 SCT046 06/03 Q1024 NOSIG=
201412200450 METAR COR EGLL 200450Z 23010KT 9999 SCT044 06/03 Q1024 NOSIG=
201412200420 METAR COR EGLL 200420Z 23011KT 9999 SCT040 05/03 Q1024 NOSIG=
201412200350 METAR EGLL 200350Z AUTO 21009KT 9999 BKN041 05/03 Q1024=
201412200320 METAR EGLL 200320Z AUTO 22009KT 9999 BKN039 05/03 Q1024=
201412200250 METAR EGLL 200250Z AUTO 21009KT 9999 SCT040 05/03 Q1024=
201412200220 METAR COR EGLL 200220Z 22008KT 9999 FEW040 05/03 Q1024 NOSIG=
201412200150 METAR COR EGLL 200150Z 22008KT CAVOK 05/03 Q1024 NOSIG=
201412200120 METAR COR EGLL 200120Z 23008KT CAVOK 05/03 Q1024 NOSIG=
201412200050 METAR COR EGLL 200050Z 22008KT CAVOK 05/03 Q1024 NOSIG=
201412200020 METAR COR EGLL 200020Z 22008KT CAVOK 05/03 Q1024 NOSIG=
201412192350 METAR COR EGLL 192350Z 21009KT CAVOK 05/03 Q1024 NOSIG=
201412192320 METAR COR EGLL 192320Z 22009KT CAVOK 05/03 Q1024 NOSIG=
201412192250 METAR COR EGLL 192250Z 22008KT 190V250 CAVOK 05/02 Q1023
                        NOSIG=
201412192220 METAR COR EGLL 192220Z 22007KT 190V250 CAVOK 05/02 Q1023
                        NOSIG=
201412192150 METAR COR EGLL 192150Z 23008KT CAVOK 05/02 Q1023 NOSIG=
201412192120 METAR COR EGLL 192120Z 23008KT CAVOK 06/02 Q1022 NOSIG=
201412192050 METAR COR EGLL 192050Z 23007KT CAVOK 06/02 Q1022 NOSIG=
201412192020 METAR COR EGLL 192020Z 24008KT CAVOK 06/03 Q1022 NOSIG=
201412191950 METAR COR EGLL 191950Z 25011KT CAVOK 07/03 Q1022 NOSIG=
201412191920 METAR COR EGLL 191920Z 26011KT CAVOK 07/03 Q1021 NOSIG=
201412191850 METAR COR EGLL 191850Z 27011KT CAVOK 07/03 Q1021 NOSIG=
201412191820 METAR COR EGLL 191820Z 26012KT CAVOK 07/03 Q1020 NOSIG=
201412191750 METAR COR EGLL 191750Z 27011KT CAVOK 07/02 Q1020 NOSIG=
201412191720 METAR COR EGLL 191720Z 27012KT CAVOK 07/02 Q1020 NOSIG=
201412191650 METAR COR EGLL 191650Z 27012KT 9999 FEW040 08/02 Q1019 NOSIG=
201412191620 METAR COR EGLL 191620Z 27014KT 9999 FEW040 08/02 Q1018 NOSIG=
201412191550 METAR COR EGLL 191550Z 26015KT 9999 FEW041 08/02 Q1018 NOSIG=
201412191520 METAR COR EGLL 191520Z 26011KT 9999 FEW043 09/02 Q1018 NOSIG=
201412191450 METAR COR EGLL 191450Z 27013KT 9999 SCT039 09/03 Q1017 NOSIG=
201412191420 METAR COR EGLL 191420Z 27014KT 9999 FEW042 09/03 Q1017 NOSIG=
201412191350 METAR COR EGLL 191350Z 27015KT 9999 FEW044 09/03 Q1017 NOSIG=
201412191320 METAR COR EGLL 191320Z 27015KT 9999 FEW043 10/03 Q1017 NOSIG=
201412191250 METAR COR EGLL 191250Z 27013KT 9999 FEW037 09/03 Q1016 NOSIG=
201412191220 METAR COR EGLL 191220Z 28013KT CAVOK 10/02 Q1016 NOSIG=
201412191150 METAR COR EGLL 191150Z 28012KT CAVOK 09/02 Q1016 NOSIG=
201412191120 METAR COR EGLL 191120Z 28013KT CAVOK 09/03 Q1016 NOSIG=
201412191050 METAR COR EGLL 191050Z 29011KT CAVOK 09/03 Q1016 NOSIG=
201412191020 METAR COR EGLL 191020Z 29010KT 9999 FEW044 09/04 Q1015 NOSIG=
201412190950 METAR COR EGLL 190950Z 30010KT 9999 BKN040 10/05 Q1014 NOSIG=
201412190920 METAR COR EGLL 190920Z 29009KT 270V340 9999 BKN042 10/06
                        Q1013 NOSIG=
201412190850 METAR COR EGLL 190850Z 29009KT 9999 SCT042 10/07 Q1013 NOSIG=
201412190820 METAR COR EGLL 190820Z 29007KT 9999 FEW019 SCT045 10/08 Q1012
                        NOSIG=
201412190750 METAR COR EGLL 190750Z 28010KT 9999 FEW031 10/08 Q1011 NOSIG=
201412190720 METAR COR EGLL 190720Z 29010KT 9999 FEW009 SCT030 11/09 Q1010
                        NOSIG=
201412190650 METAR COR EGLL 190650Z 30012KT 5000 -RADZ FEW006 SCT009 12/11
                        Q1010 TEMPO BKN010=
201412190620 METAR COR EGLL 190620Z 25014KT 9999 -RA SCT014 SCT022 13/11
                        Q1009 TEMPO RADZ BKN014=
201412190550 METAR COR EGLL 190550Z 24013KT 9999 -RA SCT012 BKN015 13/11
                        Q1009 TEMPO RA BKN012=
201412190520 METAR COR EGLL 190520Z 24015KT 9999 BKN015 13/11 Q1008 TEMPO
                        RA BKN012=
201412190450 METAR COR EGLL 190450Z 24014KT 9999 FEW010 SCT018 13/11 Q1008
                        TEMPO RADZ BKN011=
201412190420 METAR COR EGLL 190420Z 24016KT 9999 BKN018 13/11 Q1008 TEMPO
                        4500 RADZ BKN011=
201412190350 METAR COR EGLL 190350Z 23016KT 9999 -DZ SCT012 BKN020 13/11
                        Q1008 TEMPO 4500 RADZ BKN011=
201412190320 METAR COR EGLL 190320Z 23017KT 9999 SCT012 BKN020 13/11 Q1009
                        TEMPO RADZ BKN011=
201412190250 METAR COR EGLL 190250Z 23016KT 9999 SCT014 SCT024 13/11 Q1009
                        TEMPO RADZ BKN011=
201412190220 METAR COR EGLL 190220Z 23017KT 9999 FEW011 BKN015 12/11 Q1009
                        TEMPO RADZ BKN011=
201412190150 METAR COR EGLL 190150Z 23015KT 9999 SCT011 BKN016 12/11 Q1009
                        TEMPO BKN011=
201412190120 METAR COR EGLL 190120Z 23018KT 9999 BKN015 13/11 Q1009 BECMG
                        BKN013=
201412190050 METAR COR EGLL 190050Z 23017KT 9999 BKN014 13/11 Q1010 NOSIG=
201412190020 METAR COR EGLL 190020Z 23018KT 9999 BKN014 13/11 Q1010 NOSIG=
201412182350 METAR COR EGLL 182350Z 24019KT 9999 BKN016 13/11 Q1010 BECMG
                        BKN013=
201412182320 METAR COR EGLL 182320Z 23018KT 9999 BKN016 13/11 Q1010 BECMG
                        BKN013=
201412182250 METAR COR EGLL 182250Z 24018KT 9999 BKN013 13/11 Q1011 NOSIG=
201412182220 METAR COR EGLL 182220Z 23017KT 9999 BKN013 13/11 Q1011 NOSIG=
201412182150 METAR EGLL 182150Z 23017KT 9999 SCT013 BKN020 13/11 Q1011
                        BECMG BKN013=
201412182120 METAR COR EGLL 182120Z 23016KT 9999 BKN010 BKN019 13/10 Q1011
                        NOSIG=
201412182050 METAR COR EGLL 182050Z 24018KT 9999 BKN012 13/11 Q1011 NOSIG=
201412182020 METAR COR EGLL 182020Z 24019KT 9999 BKN014 13/10 Q1011 NOSIG=
201412181950 METAR COR EGLL 181950Z 24019KT 9999 BKN014 BKN019 13/10 Q1011
                        NOSIG=
201412181920 METAR COR EGLL 181920Z 24018KT 9999 BKN014 13/11 Q1011 NOSIG=
201412181850 METAR COR EGLL 181850Z 24018G28KT 9999 BKN013 13/11 Q1010
                        NOSIG=
201412181820 METAR COR EGLL 181820Z 24018KT 9999 BKN013 13/11 Q1010 NOSIG=
201412181750 METAR COR EGLL 181750Z 24018G28KT 9999 FEW012 SCT014 BKN017
                        13/11 Q1010 TEMPO BKN014=
201412181720 METAR COR EGLL 181720Z 24017KT 9999 SCT013 SCT017 13/11 Q1010
                        TEMPO BKN014=
201412181650 METAR COR EGLL 181650Z 24017KT 9999 BKN013 13/11 Q1010 TEMPO
                        BKN009=
201412181620 METAR COR EGLL 181620Z 24017KT 9999 BKN011 13/11 Q1010 TEMPO
                        BKN009=
201412181550 METAR COR EGLL 181550Z 23015KT 9999 BKN011 13/11 Q1010 NOSIG=
201412181520 METAR COR EGLL 181520Z 24017KT 9999 OVC012 13/11 Q1010 TEMPO
                        BKN015=
201412181450 METAR COR EGLL 181450Z 24014KT 9999 OVC014 13/11 Q1010 TEMPO
                        BKN018=
201412181420 METAR COR EGLL 181420Z 24017G28KT 9999 OVC016 13/11 Q1010
                        TEMPO BKN014=
201412181350 METAR COR EGLL 181350Z 24017G27KT 9999 BKN018 13/10 Q1010
                        NOSIG=
201412181320 METAR COR EGLL 181320Z 24016G26KT 9999 BKN019 14/10 Q1010
                        NOSIG=
201412181250 METAR COR EGLL 181250Z 24019G29KT 9999 BKN019 14/10 Q1010
                        NOSIG=
201412181220 METAR COR EGLL 181220Z 25018G30KT 9999 BKN019 14/10 Q1010
                        NOSIG=
201412181150 METAR COR EGLL 181150Z 24019G32KT 9999 SCT012 BKN018 13/11
                        Q1010 TEMPO -DZ BKN012=
201412181120 METAR COR EGLL 181120Z 24018KT 9999 SCT014 BKN016 13/11 Q1011
                        TEMPO BKN014=
201412181050 METAR COR EGLL 181050Z 25017KT 9999 SCT014 BKN016 14/11 Q1011
                        TEMPO BKN014=
201412181020 METAR COR EGLL 181020Z 24015KT 9999 BKN014 13/11 Q1011 TEMPO
                        BKN015=
201412180950 METAR COR EGLL 180950Z 24014KT 9999 FEW011 BKN014 14/11 Q1011
                        TEMPO BKN015=
201412180920 METAR COR EGLL 180920Z 25015KT 9999 FEW012 BKN015 13/11 Q1010
                        TEMPO BKN014=
201412180850 METAR COR EGLL 180850Z 25015KT 9999 BKN015 13/11 Q1010 TEMPO
                        BKN014=
201412180820 METAR COR EGLL 180820Z 25015KT 9999 BKN013 13/11 Q1010 TEMPO
                        SCT014 BKN018=
201412180750 METAR COR EGLL 180750Z 24013KT 9999 FEW011 BKN014 13/11 Q1010
                        TEMPO SCT014 BKN018=
201412180720 METAR COR EGLL 180720Z 24014KT 9999 BKN014 13/11 Q1010 TEMPO
                        SCT014 BKN018=
201412180650 METAR COR EGLL 180650Z 25015KT 9999 BKN014 13/11 Q1010 TEMPO
                        SCT014 BKN018=
201412180620 METAR COR EGLL 180620Z 25016KT 9999 BKN015 13/10 Q1010 NOSIG=
201412180550 METAR COR EGLL 180550Z 25014KT 9999 BKN018 13/11 Q1010 NOSIG=
201412180520 METAR COR EGLL 180520Z 25013KT 9999 BKN016 13/11 Q1010 TEMPO
                        BKN014=
201412180450 METAR COR EGLL 180450Z 25013KT 9999 BKN016 13/11 Q1009 NOSIG=
201412180420 METAR COR EGLL 180420Z 26016KT 9999 BKN016 13/11 Q1010 NOSIG=
201412180350 METAR COR EGLL 180350Z 26015KT 9999 BKN016 13/11 Q1009 TEMPO
                        BKN014=
201412180320 METAR COR EGLL 180320Z 25015KT 9999 BKN015 13/11 Q1009 TEMPO
                        BKN014=
201412180250 METAR COR EGLL 180250Z 26016KT 9999 SCT014 BKN018 13/11 Q1009
                        TEMPO BKN014=
201412180220 METAR EGLL 180220Z AUTO 26014KT 9999 BKN013 13/11 Q1009=
201412180150 METAR EGLL 180150Z AUTO 26015KT 9999 BKN012 13/11 Q1009=
201412180120 METAR EGLL 180120Z AUTO 26015KT 9999 BKN011 12/11 Q1009=
201412180050 METAR COR EGLL 180050Z 26015KT 9999 BKN015 13/11 Q1009 TEMPO
                        BKN013=
201412180020 METAR COR EGLL 180020Z 26016KT 9999 SCT012 BKN016 13/11 Q1009
                        TEMPO BKN014=
201412172350 METAR COR EGLL 172350Z 26014KT 9999 BKN014 12/11 Q1009 TEMPO
                        SCT014 BKN017=
201412172320 METAR COR EGLL 172320Z 26018G30KT 9999 BKN013 12/11 Q1009
                        TEMPO SCT012 BKN016=
201412172250 METAR COR EGLL 172250Z 26016KT 9999 FEW011 BKN012 12/11 Q1009
                        TEMPO SCT012 BKN016=
201412172220 METAR COR EGLL 172220Z 25016KT 9999 BKN013 12/11 Q1008 TEMPO
                        SCT012 BKN018=
201412172150 METAR COR EGLL 172150Z 25014KT 9999 BKN015 12/11 Q1008 TEMPO
                        BKN012=
201412172120 METAR COR EGLL 172120Z 25015KT 9999 BKN012 13/11 Q1008 NOSIG=
201412172050 METAR COR EGLL 172050Z 25013KT 9999 FEW008 BKN012 12/11 Q1009
                        TEMPO SCT012 BKN018=
201412172020 METAR COR EGLL 172020Z 25012KT 9999 SCT020 SCT032 12/11 Q1008
                        TEMPO BKN012=
201412171950 METAR COR EGLL 171950Z 26011KT 9999 FEW009 SCT011 12/11 Q1008
                        TEMPO BKN010=
201412171920 METAR COR EGLL 171920Z 25012KT 9999 FEW009 SCT010 12/11 Q1008
                        TEMPO BKN010=
201412171850 METAR COR EGLL 171850Z 24010KT 9999 SCT011 SCT035 12/11 Q1008
                        NOSIG=
201412171820 METAR COR EGLL 171820Z 25010KT 7000 -RADZ FEW009 BKN013 12/11
                        Q1008 TEMPO BKN009=
201412171750 METAR COR EGLL 171750Z 25012KT 9999 -DZ BKN011 12/10 Q1008
                        TEMPO BKN015=
201412171720 METAR COR EGLL 171720Z 23009KT 9999 BKN017 12/10 Q1008 TEMPO
                        BKN014=
201412171650 METAR COR EGLL 171650Z 24010KT 9999 BKN018 12/10 Q1008 NOSIG=
201412171620 METAR COR EGLL 171620Z 24010KT 9999 BKN021 12/10 Q1008 NOSIG=
201412171550 METAR COR EGLL 171550Z 24008KT 9999 BKN020 13/10 Q1007 NOSIG=
201412171520 METAR COR EGLL 171520Z 24008KT 9999 BKN022 13/10 Q1007 NOSIG=
201412171450 METAR COR EGLL 171450Z 25008KT 9999 BKN022 13/10 Q1007 NOSIG=
201412171420 METAR COR EGLL 171420Z 27009KT 9999 BKN019 13/10 Q1007 NOSIG=
201412171350 METAR COR EGLL 171350Z 27007KT 9999 BKN019 13/10 Q1007 NOSIG=
201412171320 METAR COR EGLL 171320Z 28005KT 250V310 9999 BKN019 13/10
                        Q1006 NOSIG=
201412171250 METAR COR EGLL 171250Z 28008KT 250V320 9999 BKN019 13/10
                        Q1006 NOSIG=
201412171220 METAR COR EGLL 171220Z 29007KT 9999 BKN019 13/10 Q1006 NOSIG=
201412171150 METAR COR EGLL 171150Z 27009KT 9999 BKN019 12/10 Q1006 NOSIG=
201412171120 METAR COR EGLL 171120Z 27011KT 9999 SCT019 12/10 Q1006 NOSIG=
201412171050 METAR COR EGLL 171050Z 27011KT 9999 FEW015 12/10 Q1005 NOSIG=
201412171020 METAR COR EGLL 171020Z 27010KT 9999 FEW022 12/10 Q1005 NOSIG=
201412170950 METAR COR EGLL 170950Z 27009KT 9999 FEW023 11/10 Q1005 NOSIG=
201412170920 METAR COR EGLL 170920Z 26011KT 9999 -RA SCT023 11/10 Q1005
                        NOSIG=
201412170850 METAR COR EGLL 170850Z 26011KT 9999 FEW019 BKN024 11/10 Q1005
                        NOSIG=
201412170820 METAR COR EGLL 170820Z 26011KT 9999 SCT018 BKN023 11/10 Q1004
                        NOSIG=
201412170750 METAR COR EGLL 170750Z 25010KT 9999 SCT019 BKN023 11/10 Q1004
                        TEMPO BKN014=
201412170720 METAR COR EGLL 170720Z 25010KT 9999 FEW009 SCT011 BKN019
                        11/10 Q1004 TEMPO BKN011=
201412170650 METAR COR EGLL 170650Z 26008KT 9999 FEW009 BKN011 11/10 Q1004
                        TEMPO SCT012 BKN015=
201412170620 METAR COR EGLL 170620Z 26010KT 9999 FEW008 BKN011 11/10 Q1004
                        BECMG SCT011 BKN015=
201412170550 METAR COR EGLL 170550Z 27009KT 9999 SCT008 BKN011 11/10 Q1003
                        BECMG SCT012 BKN016=
201412170520 METAR COR EGLL 170520Z 27012KT 9999 SCT008 BKN010 10/10 Q1003
                        NOSIG=
201412170450 METAR COR EGLL 170450Z 27011KT 7000 BKN009 10/10 Q1003 BECMG
                        BKN012=
201412170420 METAR COR EGLL 170420Z 26013KT 4400 HZ FEW009 BKN011 10/10
                        Q1003 BECMG 9999 NSW=
201412170350 METAR COR EGLL 170350Z 26014KT 9999 FEW009 BKN011 11/10 Q1003
                        NOSIG=
201412170320 METAR COR EGLL 170320Z 23011KT 9999 -RA SCT011 BKN015 10/09
                        Q1003 TEMPO BKN010=
201412170250 METAR COR EGLL 170250Z 23011KT 9000 -RA FEW006 SCT011 BKN019
                        10/09 Q1004 RERA REDZ TEMPO BKN008=
201412170220 METAR EGLL 170220Z AUTO 22011KT 9999 -RA BKN006 09/09 Q1004
                        RERA=
201412170150 METAR EGLL 170150Z AUTO 21012KT 9999 RA SCT006/// //////TCU
                        09/08 Q1005 RERA=
201412170120 METAR EGLL 170120Z AUTO 20012KT 9999 RA FEW006 BKN009 08/07
                        Q1006=
201412170050 METAR COR EGLL 170050Z 20012KT 9999 -RA FEW006 SCT027 BKN035
                        07/07 Q1006 RERA TEMPO 4500 RA SCT008
                        BKN012=
201412170020 METAR COR EGLL 170020Z 20012KT 9000 RA FEW006 BKN029 07/07
                        Q1008 BECMG SCT008 BKN012=
201412162350 METAR COR EGLL 162350Z 19011KT 9999 RA FEW020 SCT033 BKN037
                        07/06 Q1009 TEMPO BKN012=
201412162320 METAR COR EGLL 162320Z 20009KT 180V240 9000 RA SCT025 SCT034
                        BKN044 06/06 Q1010 TEMPO BKN012=
201412162250 METAR COR EGLL 162250Z 19008KT 160V240 9000 RA FEW021 SCT035
                        BKN044 06/05 Q1011 TEMPO BKN012=
201412162220 METAR COR EGLL 162220Z 21008KT 180V250 9999 -RA SCT033 BKN048
                        06/04 Q1012 NOSIG=
201412162150 METAR COR EGLL 162150Z 20008KT 9999 BKN034 06/04 Q1012 NOSIG=
201412162120 METAR COR EGLL 162120Z 21008KT 180V240 9999 BKN030 06/04
                        Q1013 NOSIG=
201412162050 METAR COR EGLL 162050Z 21008KT 190V250 9999 BKN034 06/04
                        Q1013 NOSIG=
201412162020 METAR COR EGLL 162020Z 22008KT 9999 BKN036 05/04 Q1014 NOSIG=
201412161950 METAR COR EGLL 161950Z 22007KT 9999 BKN040 05/04 Q1014 NOSIG=
201412161920 METAR COR EGLL 161920Z 20005KT 170V250 9999 SCT042 04/03
                        Q1014 NOSIG=
201412161850 METAR COR EGLL 161850Z 21005KT 170V240 CAVOK 04/03 Q1015
                        NOSIG=
201412161820 METAR COR EGLL 161820Z 19007KT 150V240 CAVOK 04/03 Q1015
                        NOSIG=
201412161750 METAR COR EGLL 161750Z 22006KT CAVOK 04/03 Q1016 NOSIG=
201412161720 METAR COR EGLL 161720Z 23006KT CAVOK 05/03 Q1016 NOSIG=
201412161650 METAR COR EGLL 161650Z 25008KT CAVOK 05/03 Q1015 NOSIG=
201412161620 METAR COR EGLL 161620Z 25008KT CAVOK 06/03 Q1015 NOSIG=
201412161550 METAR COR EGLL 161550Z 27009KT 9999 FEW020 06/03 Q1015 NOSIG=
201412161520 METAR COR EGLL 161520Z 28009KT 9999 FEW023 07/04 Q1015 NOSIG=
201412161450 METAR COR EGLL 161450Z 27008KT 9999 FEW023 07/04 Q1015 NOSIG=
201412161420 METAR COR EGLL 161420Z 25008KT 9999 FEW023 07/04 Q1015 NOSIG=
201412161350 METAR COR EGLL 161350Z 26010KT 9999 FEW030 07/04 Q1015 NOSIG=
201412161320 METAR COR EGLL 161320Z 27010KT 9999 FEW040 07/04 Q1015 NOSIG=
201412161250 METAR COR EGLL 161250Z 27010KT CAVOK 07/04 Q1016 NOSIG=
201412161220 METAR COR EGLL 161220Z 27008KT CAVOK 06/04 Q1016 NOSIG=
201412161150 METAR EGLL 161150Z 27008KT CAVOK 06/04 Q1016 NOSIG=
201412161120 METAR COR EGLL 161120Z 28008KT CAVOK 06/03 Q1016 NOSIG=
201412161050 METAR EGLL 161050Z 27007KT CAVOK 05/03 Q1016 NOSIG=
201412161020 METAR COR EGLL 161020Z 27007KT CAVOK 04/03 Q1016 NOSIG=
201412160950 METAR EGLL 160950Z 28007KT CAVOK 04/02 Q1015 NOSIG=
201412160920 METAR COR EGLL 160920Z 27006KT CAVOK 03/02 Q1016 NOSIG=
201412160850 METAR EGLL 160850Z 27007KT CAVOK 02/02 Q1015 NOSIG=
201412160820 METAR COR EGLL 160820Z 28006KT CAVOK 02/02 Q1015 NOSIG=
201412160750 METAR EGLL 160750Z 28004KT CAVOK 03/02 Q1015 NOSIG=
201412160720 METAR COR EGLL 160720Z 28004KT 230V300 9000 NSC 02/02 Q1015
                        NOSIG=
201412160650 METAR COR EGLL 160650Z 27006KT 9000 NSC 02/02 Q1014 NOSIG=
201412160620 METAR COR EGLL 160620Z 28006KT 7000 NSC 01/01 Q1014 NOSIG=
201412160550 METAR EGLL 160550Z 27006KT 7000 NSC 02/02 Q1014 NOSIG=
201412160520 METAR COR EGLL 160520Z 26005KT 210V290 7000 NSC 02/02 Q1014
                        NOSIG=
201412160450 METAR COR EGLL 160450Z 27005KT 6000 NSC 02/02 Q1014 TEMPO
                        4000 BR=
201412160420 METAR COR EGLL 160420Z 27005KT 3100 BR NSC 01/01 Q1014 TEMPO
                        5000=
201412160350 METAR EGLL 160350Z 28005KT 6000 NSC 03/03 Q1014 TEMPO 4000
                        BR=
201412160320 METAR COR EGLL 160320Z 28005KT 5000 BR NSC 02/02 Q1014 TEMPO
                        3000=
201412160250 METAR EGLL 160250Z 29003KT 4300 BR NSC 02/02 Q1014 TEMPO
                        1400=
201412160220 METAR EGLL 160220Z AUTO 28004KT 1300 R27R/1300 BR NCD 01/01
                        Q1014=
201412160150 METAR EGLL 160150Z AUTO 28004KT 0550 R27R/0350 FG NCD 02/02
                        Q1014=
201412160120 METAR EGLL 160120Z AUTO 25002KT 0350 R27R/0375 FG NCD 02/02
                        Q1014=
201412160050 METAR COR EGLL 160050Z VRB02KT 2800 0800NE R27R/0500 MIFG
                        NSC 03/03 Q1014 TEMPO 1200 BR=
201412160020 METAR COR EGLL 160020Z 27004KT 3200 BR NSC 03/03 Q1013 TEMPO
                        1200 MIFG=
201412152350 METAR COR EGLL 152350Z 28005KT 6000 NSC 04/03 Q1013 BECMG
                        3000 BR=
201412152320 METAR COR EGLL 152320Z 29002KT 6000 NSC 04/03 Q1013 BECMG
                        3000 BR=
201412152250 METAR COR EGLL 152250Z 28006KT 9000 NSC 04/03 Q1013 TEMPO
                        4000 BR=
201412152220 METAR COR EGLL 152220Z 30003KT CAVOK 05/05 Q1013 TEMPO 4000
                        BR=
201412152150 METAR COR EGLL 152150Z 29003KT CAVOK 05/05 Q1013 TEMPO 4000
                        BR=
201412152120 METAR COR EGLL 152120Z VRB02KT CAVOK 06/05 Q1013 TEMPO 4000
                        BR=
201412152050 METAR COR EGLL 152050Z 30003KT 9999 FEW010 07/05 Q1013 TEMPO
                        4000=
201412152020 METAR COR EGLL 152020Z 30003KT CAVOK 07/06 Q1013 NOSIG=
201412151950 METAR EGLL 151950Z 29005KT CAVOK 07/06 Q1013 NOSIG=
201412151920 METAR COR EGLL 151920Z 27004KT CAVOK 06/05 Q1013 NOSIG=
201412151850 METAR EGLL 151850Z 25005KT 210V290 CAVOK 06/05 Q1013 NOSIG=
201412151820 METAR EGLL 151820Z AUTO 24006KT 190V270 9999 NCD 05/04 Q1013=
201412151750 METAR COR EGLL 151750Z 25005KT CAVOK 07/05 Q1013 NOSIG=
201412151720 METAR COR EGLL 151720Z 23006KT 210V280 CAVOK 07/05 Q1013
                        NOSIG=
201412151650 METAR COR EGLL 151650Z 26007KT CAVOK 07/05 Q1013 NOSIG=
201412151620 METAR COR EGLL 151620Z 26008KT 9999 FEW034 07/05 Q1012 NOSIG=
201412151550 METAR EGLL 151550Z 26006KT CAVOK 07/05 Q1012 NOSIG=
201412151520 METAR COR EGLL 151520Z 25008KT CAVOK 07/05 Q1012 NOSIG=
201412151450 METAR COR EGLL 151450Z 25007KT CAVOK 08/05 Q1012 NOSIG=
201412151420 METAR COR EGLL 151420Z 25007KT CAVOK 08/05 Q1012 NOSIG=
201412151350 METAR COR EGLL 151350Z 27007KT 230V290 CAVOK 08/05 Q1012
                        NOSIG=
201412151320 METAR COR EGLL 151320Z 28008KT 9999 FEW012 08/05 Q1013 NOSIG=
201412151250 METAR EGLL 151250Z 26008KT 9999 FEW012 08/05 Q1013 NOSIG=
201412151220 METAR COR EGLL 151220Z 26009KT 9999 FEW012 08/05 Q1013 NOSIG=
201412151150 METAR EGLL 151150Z 27008KT 9999 FEW016 08/04 Q1013 NOSIG=
201412151120 METAR COR EGLL 151120Z 26007KT CAVOK 08/04 Q1013 NOSIG=
201412151050 METAR EGLL 151050Z 24009KT CAVOK 08/04 Q1013 NOSIG=
201412151020 METAR COR EGLL 151020Z 24008KT CAVOK 07/04 Q1013 NOSIG=
201412150950 METAR EGLL 150950Z 25009KT CAVOK 06/04 Q1013 NOSIG=
201412150920 METAR COR EGLL 150920Z 26009KT CAVOK 06/04 Q1013 NOSIG=
201412150850 METAR EGLL 150850Z 25008KT CAVOK 06/04 Q1013 NOSIG=
201412150820 METAR COR EGLL 150820Z 24009KT CAVOK 06/04 Q1012 NOSIG=
201412150750 METAR EGLL 150750Z 24011KT 9999 FEW033 06/04 Q1012 NOSIG=
201412150720 METAR COR EGLL 150720Z 24009KT 9999 FEW033 06/04 Q1012 NOSIG=
201412150650 METAR EGLL 150650Z 23008KT 200V260 9999 FEW029 SCT033 06/05
                        Q1012 NOSIG=
201412150620 METAR COR EGLL 150620Z 23009KT 9999 SCT036 06/05 Q1011 NOSIG=
201412150550 METAR EGLL 150550Z 23007KT CAVOK 06/05 Q1011 NOSIG=
201412150520 METAR COR EGLL 150520Z 25008KT 9999 FEW026 06/05 Q1011 NOSIG=
201412150450 METAR EGLL 150450Z 26011KT 9999 -RA SCT027 BKN031 07/04 Q1011
                        NOSIG=
201412150420 METAR COR EGLL 150420Z 27008KT 9999 -RA FEW026 BKN032 07/04
                        Q1011 NOSIG=
201412150350 METAR COR EGLL 150350Z 26009KT 9999 -RA FEW026 BKN036 07/05
                        Q1010 NOSIG=
201412150320 METAR COR EGLL 150320Z 26009KT CAVOK 07/05 Q1010 NOSIG=
201412150250 METAR EGLL 150250Z 26008KT CAVOK 07/05 Q1009 NOSIG=
201412150220 METAR EGLL 150220Z AUTO 26010KT 9999 NCD 08/05 Q1009=
201412150150 METAR EGLL 150150Z AUTO 26008KT 9999 NCD 08/05 Q1009=
201412150120 METAR EGLL 150120Z AUTO 27010KT 9999 FEW023 08/06 Q1008=
201412150050 METAR COR EGLL 150050Z 26014KT 9999 SCT025 09/06 Q1008 NOSIG=
201412150020 METAR COR EGLL 150020Z 25011KT 9999 SCT046 10/07 Q1008 NOSIG=
201412142350 METAR COR EGLL 142350Z 25013KT 9999 FEW016 SCT040 BKN045
                        10/08 Q1008 NOSIG=
201412142320 METAR COR EGLL 142320Z 24012KT 9999 SCT012 BKN036 10/08 Q1008
                        NOSIG=
201412142250 METAR COR EGLL 142250Z 23013KT 9999 SCT011 BKN014 10/09 Q1008
                        BECMG SCT020=
201412142220 METAR EGLL 142220Z 23014KT 9999 -RA SCT013 BKN018 10/08 Q1008
                        TEMPO BKN012=
201412142150 METAR COR EGLL 142150Z 22013KT 9999 BKN018 10/08 Q1008 TEMPO
                        RA BKN014=
201412142120 METAR COR EGLL 142120Z 22013KT 9999 -RA SCT017 SCT040 10/07
                        Q1008 TEMPO RA BKN014=
201412142050 METAR COR EGLL 142050Z 22011KT 9999 SCT019 10/07 Q1008 TEMPO
                        RA BKN014=
201412142020 METAR COR EGLL 142020Z 22012KT 9999 SCT020 09/07 Q1009 TEMPO
                        RA BKN014=
201412141950 METAR COR EGLL 141950Z 22011KT 9999 FEW019 SCT047 09/07 Q1009
                        NOSIG=
201412141920 METAR COR EGLL 141920Z 22012KT 9999 FEW017 09/07 Q1009 NOSIG=
201412141850 METAR COR EGLL 141850Z 21013KT 9999 FEW043 09/07 Q1009 NOSIG=
201412141820 METAR COR EGLL 141820Z 22011KT 9999 SCT048 09/07 Q1009 NOSIG=
201412141750 METAR EGLL 141750Z 22014G24KT 9999 FEW048 09/06 Q1009 NOSIG=
201412141720 METAR COR EGLL 141720Z 22012KT 9999 FEW024 09/06 Q1009 NOSIG=
201412141650 METAR EGLL 141650Z 21011KT CAVOK 09/06 Q1009 NOSIG=
201412141620 METAR COR EGLL 141620Z 21014KT 9999 FEW036 09/06 Q1009 NOSIG=
201412141550 METAR COR EGLL 141550Z 20011KT 9999 FEW026 09/06 Q1010 NOSIG=
201412141520 METAR COR EGLL 141520Z 21011KT 9999 FEW024 SCT045 09/06 Q1010
                        NOSIG=
201412141450 METAR EGLL 141450Z 21011KT 180V240 9999 SCT045 SCT049 09/06
                        Q1010=
201412141420 METAR COR EGLL 141420Z 21012KT 9999 FEW027 09/06 Q1010 NOSIG=
201412141350 METAR EGLL 141350Z 23013KT 9999 FEW033 09/05 Q1011 NOSIG=
201412141320 METAR COR EGLL 141320Z 22014KT 9999 FEW018 09/05 Q1011 NOSIG=
201412141250 METAR EGLL 141250Z 21014KT 190V250 9999 FEW018 10/05 Q1011
                        NOSIG=
201412141220 METAR COR EGLL 141220Z 22014KT CAVOK 09/05 Q1011 NOSIG=
201412141150 METAR COR EGLL 141150Z 21011KT 180V240 9999 FEW016 09/05
                        Q1012 NOSIG=
201412141120 METAR COR EGLL 141120Z 20011KT 170V240 CAVOK 07/04 Q1012
                        NOSIG=
201412141050 METAR EGLL 141050Z 20010KT CAVOK 06/03 Q1013 NOSIG=
201412141020 METAR COR EGLL 141020Z 21010KT 180V240 CAVOK 05/03 Q1013
                        NOSIG=
201412140950 METAR EGLL 140950Z 21011KT CAVOK 05/02 Q1013 NOSIG=
201412140920 METAR COR EGLL 140920Z 21010KT CAVOK 03/02 Q1013 NOSIG=
201412140850 METAR EGLL 140850Z 21008KT CAVOK 03/01 Q1014 NOSIG=
201412140820 METAR COR EGLL 140820Z 22006KT 190V250 CAVOK 02/00 Q1014
                        NOSIG=
201412140750 METAR EGLL 140750Z 19008KT 170V230 CAVOK 02/00 Q1013 NOSIG=
201412140720 METAR COR EGLL 140720Z 20007KT CAVOK 01/M00 Q1013 NOSIG=
201412140650 METAR COR EGLL 140650Z 23005KT 190V260 CAVOK 01/M00 Q1013
                        NOSIG=
201412140620 METAR COR EGLL 140620Z 21006KT 180V280 CAVOK 01/M00 Q1013
                        NOSIG=
201412140550 METAR EGLL 140550Z 20006KT CAVOK 01/M01 Q1013 NOSIG=
201412140520 METAR COR EGLL 140520Z 21005KT CAVOK 01/M01 Q1014 NOSIG=
201412140450 METAR EGLL 140450Z 21006KT CAVOK 01/M00 Q1014 NOSIG=
201412140420 METAR COR EGLL 140420Z 21007KT CAVOK 01/M00 Q1014 NOSIG=
201412140350 METAR COR EGLL 140350Z 21006KT CAVOK 01/M00 Q1014 NOSIG=
201412140320 METAR COR EGLL 140320Z 22005KT CAVOK 00/M00 Q1014 NOSIG=
201412140250 METAR COR EGLL 140250Z 20006KT CAVOK M00/M00 Q1014 NOSIG=
201412140220 METAR EGLL 140220Z AUTO 21004KT 9000 NCD M00/M01 Q1014=
201412140150 METAR EGLL 140150Z AUTO 23005KT 9999 NCD M00/M01 Q1014=
201412140120 METAR EGLL 140120Z AUTO 22004KT 9999 NCD M00/M00 Q1015=
201412140050 METAR EGLL 140050Z 20003KT CAVOK M00/M01 Q1015 NOSIG=
201412140020 METAR COR EGLL 140020Z 21003KT CAVOK 00/M00 Q1015 NOSIG=
201412132350 METAR EGLL 132350Z 21004KT CAVOK 00/M00 Q1015 NOSIG=
201412132320 METAR COR EGLL 132320Z 19004KT CAVOK 00/M00 Q1015 NOSIG=
201412132250 METAR COR EGLL 132250Z VRB02KT CAVOK 01/M00 Q1015 NOSIG=
201412132220 METAR COR EGLL 132220Z VRB03KT CAVOK 01/M00 Q1015 NOSIG=
201412132150 METAR COR EGLL 132150Z 26004KT 210V360 9000 NSC 01/M00 Q1015
                        NOSIG=
201412132120 METAR COR EGLL 132120Z 28003KT CAVOK 01/00 Q1015 NOSIG=
201412132050 METAR COR EGLL 132050Z 22004KT 180V260 CAVOK 01/00 Q1015
                        NOSIG=
201412132020 METAR COR EGLL 132020Z 22005KT CAVOK 02/01 Q1015 NOSIG=
201412131950 METAR EGLL 131950Z 24006KT CAVOK 02/01 Q1015 NOSIG=
201412131920 METAR COR EGLL 131920Z 26005KT CAVOK 02/01 Q1015 NOSIG=
201412131850 METAR EGLL 131850Z 27004KT CAVOK 03/01 Q1015 NOSIG=
201412131820 METAR COR EGLL 131820Z 27005KT CAVOK 04/01 Q1014 NOSIG=
201412131750 METAR EGLL 131750Z 28005KT CAVOK 04/01 Q1014 NOSIG=
201412131720 METAR COR EGLL 131720Z 29003KT CAVOK 04/01 Q1014 NOSIG=
201412131650 METAR EGLL 131650Z 29003KT CAVOK 04/01 Q1014 NOSIG=
201412131620 METAR COR EGLL 131620Z VRB02KT CAVOK 05/01 Q1013 NOSIG=
201412131550 METAR EGLL 131550Z 31003KT CAVOK 06/01 Q1013 NOSIG=
201412131520 METAR COR EGLL 131520Z VRB02KT CAVOK 06/01 Q1013 NOSIG=
201412131450 METAR COR EGLL 131450Z 33005KT 9999 FEW024 06/01 Q1013 NOSIG=
201412131420 METAR COR EGLL 131420Z 33005KT 300V020 9999 FEW024 06/01
                        Q1012 NOSIG=
201412131350 METAR COR EGLL 131350Z 32005KT 280V350 CAVOK 07/01 Q1012
                        NOSIG=
201412131320 METAR COR EGLL 131320Z 33005KT 300V360 CAVOK 06/01 Q1012
                        NOSIG=
201412131250 METAR EGLL 131250Z 33004KT 290V360 CAVOK 06/01 Q1012 NOSIG=
201412131220 METAR COR EGLL 131220Z 32004KT 280V010 CAVOK 06/02 Q1012
                        NOSIG=
201412131150 METAR EGLL 131150Z VRB03KT CAVOK 05/01 Q1012 NOSIG=
201412131120 METAR COR EGLL 131120Z 29004KT CAVOK 04/01 Q1012 NOSIG=
201412131050 METAR EGLL 131050Z VRB03KT CAVOK 03/01 Q1012 NOSIG=
201412131020 METAR COR EGLL 131020Z 32004KT CAVOK 02/01 Q1012 NOSIG=
201412130950 METAR COR EGLL 130950Z 28004KT CAVOK 01/M00 Q1011 NOSIG=
201412130920 METAR COR EGLL 130920Z 29004KT CAVOK 01/00 Q1011 NOSIG=
201412130850 METAR EGLL 130850Z 28004KT CAVOK 00/M01 Q1010 NOSIG=
201412130820 METAR COR EGLL 130820Z 29004KT CAVOK 01/M00 Q1010 NOSIG=
201412130750 METAR EGLL 130750Z VRB02KT CAVOK 02/M00 Q1010 NOSIG=
201412130720 METAR COR EGLL 130720Z 28003KT CAVOK 01/M00 Q1009 NOSIG=
201412130650 METAR EGLL 130650Z 29003KT CAVOK 02/M00 Q1009 NOSIG=
201412130620 METAR COR EGLL 130620Z 27002KT CAVOK 01/00 Q1008 NOSIG=
201412130550 METAR EGLL 130550Z VRB02KT CAVOK 01/M00 Q1008 NOSIG=
201412130520 METAR COR EGLL 130520Z 28002KT CAVOK 01/M00 Q1008 NOSIG=
201412130450 METAR EGLL 130450Z VRB02KT CAVOK 02/00 Q1008 NOSIG=
201412130420 METAR COR EGLL 130420Z 28005KT CAVOK 02/M00 Q1007 NOSIG=
201412130350 METAR EGLL 130350Z 26003KT 9999 FEW032 02/M00 Q1007 NOSIG=
201412130320 METAR COR EGLL 130320Z 25004KT 9999 SCT031 02/00 Q1007 NOSIG=
201412130250 METAR EGLL 130250Z 25003KT CAVOK 02/M00 Q1007 NOSIG=
201412130220 METAR EGLL 130220Z AUTO 27004KT 9999 NCD 03/00 Q1006=
201412130150 METAR EGLL 130150Z AUTO 27004KT 9999 NCD 02/00 Q1006=
201412130120 METAR EGLL 130120Z AUTO 28005KT 9999 NCD 02/00 Q1005=
201412130050 METAR EGLL 130050Z 27006KT CAVOK 02/00 Q1005 NOSIG=
201412130020 METAR COR EGLL 130020Z 25005KT CAVOK 03/00 Q1005 NOSIG=
201412122350 METAR EGLL 122350Z 24007KT CAVOK 02/00 Q1005 NOSIG=
201412122320 METAR COR EGLL 122320Z 25006KT CAVOK 03/00 Q1005 NOSIG=
201412122250 METAR EGLL 122250Z 24006KT CAVOK 03/00 Q1005 NOSIG=
201412122220 METAR COR EGLL 122220Z 25008KT CAVOK 04/00 Q1004 NOSIG=
201412122150 METAR EGLL 122150Z 28005KT CAVOK 03/01 Q1004 NOSIG=
201412122120 METAR COR EGLL 122120Z 26009KT CAVOK 04/01 Q1004 NOSIG=
201412122050 METAR EGLL 122050Z 27006KT CAVOK 04/01 Q1004 NOSIG=
201412122020 METAR COR EGLL 122020Z 27008KT CAVOK 04/00 Q1003 NOSIG=
201412121950 METAR EGLL 121950Z 28007KT CAVOK 04/00 Q1003 NOSIG=
201412121920 METAR COR EGLL 121920Z 25009KT CAVOK 05/00 Q1002 NOSIG=
201412121850 METAR EGLL 121850Z 25007KT CAVOK 05/00 Q1002 NOSIG=
201412121820 METAR COR EGLL 121820Z 27006KT CAVOK 05/01 Q1002 NOSIG=
201412121750 METAR EGLL 121750Z 27007KT CAVOK 05/01 Q1001 NOSIG=
201412121720 METAR COR EGLL 121720Z 28007KT CAVOK 05/01 Q1000 NOSIG=
201412121650 METAR EGLL 121650Z 28007KT CAVOK 05/01 Q1000 NOSIG=
201412121620 METAR COR EGLL 121620Z 29007KT 9999 FEW022 05/01 Q0999 NOSIG=
201412121550 METAR COR EGLL 121550Z 30004KT 9999 FEW022 06/02 Q0999 NOSIG=
201412121520 METAR COR EGLL 121520Z 31006KT 9999 FEW021 06/02 Q0998 NOSIG=
201412121450 METAR COR EGLL 121450Z 30010KT 9999 FEW023 07/03 Q0997 NOSIG=
201412121420 METAR COR EGLL 121420Z 28013KT 9999 FEW023 07/04 Q0997 NOSIG=
201412121350 METAR COR EGLL 121350Z 27017KT 9999 FEW023 08/04 Q0996 NOSIG=
201412121320 METAR COR EGLL 121320Z 27016KT 9999 FEW026 08/05 Q0996 NOSIG=
201412121250 METAR COR EGLL 121250Z 27013KT 9999 FEW026 09/05 Q0995 NOSIG=
201412121220 METAR COR EGLL 121220Z 26014KT 9999 FEW025 09/05 Q0995 NOSIG=
201412121150 METAR EGLL 121150Z 26012KT 9999 FEW012 09/06 Q0994 NOSIG=
201412121120 METAR COR EGLL 121120Z 26014KT 9999 FEW019 09/06 Q0994 NOSIG=
201412121050 METAR EGLL 121050Z 26012KT 9999 FEW019 09/06 Q0994 NOSIG=
201412121020 METAR COR EGLL 121020Z 25013KT 9999 FEW019 09/06 Q0994 NOSIG=
201412120950 METAR EGLL 120950Z 25014KT 9999 SCT022 09/07 Q0993 NOSIG=
201412120920 METAR COR EGLL 120920Z 26012KT 9999 FEW016 SCT022 09/07 Q0993
                        NOSIG=
201412120850 METAR COR EGLL 120850Z 24010KT 9999 VCSH SCT029 09/07 Q0992
                        NOSIG=
201412120820 METAR COR EGLL 120820Z 25013KT 9999 FEW014 09/07 Q0992 NOSIG=
201412120750 METAR COR EGLL 120750Z 23012KT 9999 FEW015 09/07 Q0992 NOSIG=
201412120720 METAR COR EGLL 120720Z 24012KT 9999 -RA SCT046 09/07 Q0991
                        RERA NOSIG=
201412120650 METAR COR EGLL 120650Z 24015KT 9999 RA BKN046 09/07 Q0991
                        NOSIG=
201412120620 METAR COR EGLL 120620Z 24017G27KT 9999 -RA BKN048 09/07 Q0991
                        NOSIG=
201412120550 METAR COR EGLL 120550Z 25018KT 9999 -RA FEW016 BKN047 10/07
                        Q0991 RERA TEMPO RA BKN014=
201412120520 METAR COR EGLL 120520Z 23020KT 6000 RA SCT014 SCT038 BKN043
                        10/09 Q0991 RERA TEMPO 4000 +RA BKN014=
201412120450 METAR COR EGLL 120450Z 23020G30KT 6000 +RA BKN012 BKN019
                        10/09 Q0991 RERA TEMPO 4000=
201412120420 METAR COR EGLL 120420Z 22018G28KT 8000 -RA SCT014 BKN019
                        10/09 Q0992 RERA TEMPO 4000 +RA BKN014=
201412120350 METAR EGLL 120350Z AUTO 22018KT 9000 -RA OVC012/// //////TCU
                        09/08 Q0993=
201412120320 METAR COR EGLL 120320Z 21018KT 9999 -RA BKN015 BKN024 09/08
                        Q0994 RERA TEMPO 4000 +RA BKN014=
201412120250 METAR EGLL 120250Z AUTO 21016KT 9999 -RA SCT023 BKN030 09/07
                        Q0995 RERA=
201412120220 METAR EGLL 120220Z AUTO 22017KT 9999 RA FEW021/// BKN025///
                        //////TCU 09/07 Q0996 REDZ=
201412120150 METAR EGLL 120150Z AUTO 23016KT 9999 -RA FEW020/// SCT022///
                        BKN026/// //////CB 09/07 Q0997=
201412120120 METAR COR EGLL 120120Z 22015G25KT 9999 -RA FEW024 SCT028
                        09/07 Q0998 NOSIG=
201412120050 METAR EGLL 120050Z 22013KT 9999 -RA SCT025 SCT033 09/06 Q0999
                        NOSIG=
201412120020 METAR COR EGLL 120020Z 23016KT 9999 FEW027 SCT030 10/05 Q1000
                        TEMPO RA=
201412112350 METAR EGLL 112350Z 23015KT 9999 FEW035 09/05 Q1001 TEMPO
                        RA=
201412112320 METAR COR EGLL 112320Z 23015KT 9999 FEW031 SCT049 09/05 Q1002
                        NOSIG=
201412112250 METAR COR EGLL 112250Z 23018KT 9999 FEW030 10/05 Q1003 NOSIG=
201412112220 METAR COR EGLL 112220Z 23016KT CAVOK 10/05 Q1004 NOSIG=
201412112150 METAR COR EGLL 112150Z 23016KT 9999 FEW029 10/05 Q1004 NOSIG=
201412112120 METAR COR EGLL 112120Z 24017KT 9999 SCT030 09/05 Q1005 NOSIG=
201412112050 METAR EGLL 112050Z 24016KT 9999 FEW027 SCT040 09/05 Q1006
                        NOSIG=
201412112020 METAR COR EGLL 112020Z 24019KT 9999 -RA FEW030 SCT040 09/05
                        Q1006 NOSIG=
201412111950 METAR EGLL 111950Z 23016KT 9999 FEW032 09/05 Q1007 NOSIG=
201412111920 METAR EGLL 111920Z 24014KT 9999 -RA FEW022 SCT030 09/06 Q1007=
201412111850 METAR EGLL 111850Z 23015KT 9999 SCT031 SCT040 08/05 Q1007
                        NOSIG=
201412111820 METAR COR EGLL 111820Z 22011KT 9999 -RA FEW022 SCT030 08/05
                        Q1008 NOSIG=
201412111750 METAR EGLL 111750Z 24014KT 9999 -RA FEW044 08/05 Q1008 NOSIG=
201412111720 METAR COR EGLL 111720Z 24015KT CAVOK 08/04 Q1008 NOSIG=
201412111650 METAR EGLL 111650Z 24013KT 9999 FEW038 08/04 Q1009 NOSIG=
201412111620 METAR COR EGLL 111620Z 24013KT 9999 FEW048 08/03 Q1009 NOSIG=
201412111550 METAR COR EGLL 111550Z 25015KT CAVOK 08/03 Q1009 NOSIG=
201412111520 METAR COR EGLL 111520Z 26016KT 9999 FEW038 08/03 Q1009 NOSIG=
201412111450 METAR EGLL 111450Z 27020KT 9999 FEW038 08/02 Q1009 NOSIG=
201412111420 METAR COR EGLL 111420Z 27022KT 9999 FEW038 09/02 Q1009 NOSIG=
201412111350 METAR EGLL 111350Z 26018KT 9999 FEW039 09/02 Q1009 NOSIG=
201412111320 METAR COR EGLL 111320Z 26016KT 9999 FEW020 08/03 Q1009 NOSIG=
201412111250 METAR COR EGLL 111250Z 27015KT 9999 SCT037 08/02 Q1010 NOSIG=
201412111220 METAR COR EGLL 111220Z 27015KT 9999 FEW029 SCT037 08/03 Q1010
                        NOSIG=
201412111150 METAR EGLL 111150Z 27018KT 9999 FEW030 SCT036 08/03 Q1010
                        NOSIG=
201412111120 METAR COR EGLL 111120Z 27017KT 9999 FEW035 SCT044 08/03 Q1010
                        NOSIG=
201412111050 METAR EGLL 111050Z 27018KT 9999 SCT030 08/03 Q1010 NOSIG=
201412111020 METAR COR EGLL 111020Z 26019KT 9999 SCT032 SCT040 08/03 Q1010
                        NOSIG=
201412110950 METAR COR EGLL 110950Z 25017KT 9999 FEW035 SCT041 08/03 Q1009
                        NOSIG=
201412110920 METAR COR EGLL 110920Z 25018KT CAVOK 07/03 Q1009 NOSIG=
201412110850 METAR EGLL 110850Z 25015KT CAVOK 07/03 Q1009 NOSIG=
201412110820 METAR COR EGLL 110820Z 26020KT CAVOK 07/03 Q1009 NOSIG=
201412110750 METAR COR EGLL 110750Z 25018KT CAVOK 07/03 Q1009 NOSIG=
201412110720 METAR COR EGLL 110720Z 25017KT CAVOK 06/03 Q1009 NOSIG=
201412110650 METAR EGLL 110650Z 25017KT CAVOK 07/03 Q1008 NOSIG=
201412110620 METAR COR EGLL 110620Z 24017KT CAVOK 06/03 Q1008 NOSIG=
201412110550 METAR COR EGLL 110550Z 24016KT CAVOK 07/03 Q1009 NOSIG=
201412110520 METAR COR EGLL 110520Z 24016KT 9999 FEW028 06/03 Q1009 NOSIG=
201412110450 METAR COR EGLL 110450Z 24018KT CAVOK 06/03 Q1009 NOSIG=
201412110420 METAR COR EGLL 110420Z 24016KT CAVOK 06/03 Q1009 NOSIG=
201412110350 METAR COR EGLL 110350Z 24017KT 9999 FEW024 06/03 Q1010 NOSIG=
201412110320 METAR COR EGLL 110320Z 24015KT CAVOK 06/03 Q1010 NOSIG=
201412110250 METAR EGLL 110250Z 24015KT CAVOK 06/03 Q1011 NOSIG=
201412110220 METAR EGLL 110220Z AUTO 24015KT 9999 NCD 06/03 Q1011=
201412110150 METAR EGLL 110150Z AUTO 24014KT 9999 NCD 06/03 Q1011=
201412110120 METAR EGLL 110120Z AUTO 25014KT 9999 NCD 06/03 Q1012=
201412110050 METAR EGLL 110050Z 25015KT CAVOK 06/03 Q1012 NOSIG=
201412110020 METAR COR EGLL 110020Z 24017KT CAVOK 06/03 Q1012 NOSIG=
201412102350 METAR COR EGLL 102350Z 25017KT CAVOK 06/03 Q1012 NOSIG=
201412102320 METAR EGLL 102320Z 24015KT CAVOK 06/03 Q1013 NOSIG=
201412102250 METAR COR EGLL 102250Z 24014KT CAVOK 06/03 Q1013 NOSIG=
201412102220 METAR COR EGLL 102220Z 24015KT CAVOK 06/03 Q1013 NOSIG=
201412102150 METAR EGLL 102150Z 23015KT CAVOK 06/03 Q1013 NOSIG=
201412102120 METAR COR EGLL 102120Z 23014KT 9999 FEW035 07/03 Q1014 NOSIG=
201412102050 METAR COR EGLL 102050Z 23013KT 9999 FEW041 06/03 Q1014 NOSIG=
201412102020 METAR COR EGLL 102020Z 23012KT CAVOK 06/02 Q1014 NOSIG=
201412101950 METAR EGLL 101950Z 23014KT CAVOK 06/02 Q1015 NOSIG=
201412101920 METAR COR EGLL 101920Z 23011KT CAVOK 06/02 Q1015 NOSIG=
201412101850 METAR COR EGLL 101850Z 22011KT CAVOK 06/02 Q1015 NOSIG=
201412101820 METAR COR EGLL 101820Z 23011KT CAVOK 06/02 Q1015 NOSIG=
201412101750 METAR EGLL 101750Z 23009KT CAVOK 06/02 Q1015 NOSIG=
201412101720 METAR COR EGLL 101720Z 24011KT CAVOK 07/02 Q1015 NOSIG=
201412101650 METAR EGLL 101650Z 24012KT 9999 FEW040 07/03 Q1015 NOSIG=
201412101620 METAR COR EGLL 101620Z 22012KT 9999 FEW042 07/03 Q1015 NOSIG=
201412101550 METAR EGLL 101550Z 23011KT 9999 FEW042 07/02 Q1016 NOSIG=
201412101520 METAR COR EGLL 101520Z 24012KT 9999 FEW042 08/02 Q1016 NOSIG=
201412101450 METAR EGLL 101450Z 24013KT 9999 FEW040 08/02 Q1016 NOSIG=
201412101420 METAR COR EGLL 101420Z 24013KT 9999 FEW037 08/02 Q1016 NOSIG=
201412101350 METAR EGLL 101350Z 24015KT 9999 FEW032 09/02 Q1016 NOSIG=
201412101320 METAR COR EGLL 101320Z 26018KT 9999 FEW032 09/01 Q1016 NOSIG=
201412101250 METAR EGLL 101250Z 26016KT CAVOK 09/01 Q1016 NOSIG=
201412101220 METAR COR EGLL 101220Z 26015KT CAVOK 08/01 Q1017 NOSIG=
201412101150 METAR EGLL 101150Z 27015KT 9999 FEW024 08/02 Q1017 NOSIG=
201412101120 METAR COR EGLL 101120Z 26017KT 9999 FEW024 08/02 Q1017 NOSIG=
201412101050 METAR EGLL 101050Z 25016KT 9999 FEW028 08/02 Q1017 NOSIG=
201412101020 METAR COR EGLL 101020Z 25013KT CAVOK 08/01 Q1017 NOSIG=
201412100950 METAR EGLL 100950Z 24012KT CAVOK 07/01 Q1017 NOSIG=
201412100920 METAR COR EGLL 100920Z 25012KT CAVOK 07/02 Q1017 NOSIG=
201412100850 METAR EGLL 100850Z 26013KT CAVOK 07/01 Q1017 NOSIG=
201412100820 METAR COR EGLL 100820Z 27008KT CAVOK 06/01 Q1016 NOSIG=
201412100750 METAR EGLL 100750Z 26011KT CAVOK 07/02 Q1016 NOSIG=
201412100720 METAR COR EGLL 100720Z 25011KT CAVOK 07/02 Q1016 NOSIG=
201412100650 METAR EGLL 100650Z 24010KT CAVOK 07/03 Q1016 NOSIG=
201412100620 METAR COR EGLL 100620Z 25010KT CAVOK 07/02 Q1015 NOSIG=
201412100550 METAR EGLL 100550Z 27015KT CAVOK 08/02 Q1015 NOSIG=
201412100520 METAR COR EGLL 100520Z 27012KT CAVOK 08/03 Q1014 NOSIG=
201412100450 METAR EGLL 100450Z 27013KT CAVOK 08/03 Q1014 NOSIG=
201412100420 METAR COR EGLL 100420Z 26016KT 9999 FEW047 09/03 Q1013 NOSIG=
201412100350 METAR EGLL 100350Z 27017KT 9999 FEW047 09/03 Q1013 NOSIG=
201412100320 METAR COR EGLL 100320Z 27022KT 9999 SCT047 10/05 Q1013 NOSIG=
201412100250 METAR EGLL 100250Z 27020KT 9999 FEW040 10/07 Q1013 NOSIG=
201412100220 METAR EGLL 100220Z AUTO 27020KT 9999 FEW013/// SCT017///
                        //////CB 11/08 Q1013=
201412100150 METAR EGLL 100150Z AUTO 24014KT 9999 -RA FEW012/// SCT015///
                        BKN019/// //////TCU 12/10 Q1012=
201412100120 METAR COR EGLL 100120Z 23017KT 9999 SCT015 SCT027 12/10 Q1012
                        NOSIG=
201412100050 METAR EGLL 100050Z 23015KT 9999 SCT015 SCT023 12/10 Q1012
                        NOSIG=
201412100020 METAR COR EGLL 100020Z 23017KT 9999 SCT013 SCT019 12/10 Q1013
                        NOSIG=
201412092350 METAR COR EGLL 092350Z 23018KT 9999 SCT010 SCT014 12/10 Q1013
                        NOSIG=
201412092320 METAR COR EGLL 092320Z 23018G28KT 9999 SCT010 SCT014 12/10
                        Q1013 TEMPO BKN010=
201412092250 METAR EGLL 092250Z 22014KT 9999 SCT009 SCT014 11/10 Q1014
                        TEMPO BKN009=
201412092220 METAR EGLL 092220Z AUTO 22015KT 6000 -RA BKN008 BKN014 11/10
                        Q1014=
201412092150 METAR EGLL 092150Z 21014KT 9000 -DZ SCT007 BKN010 11/10 Q1015
                        TEMPO BKN007=
201412092120 METAR COR EGLL 092120Z 21013KT 7000 -RADZ FEW006 BKN008 10/09
                        Q1016 TEMPO 4000 RADZ=
201412092050 METAR COR EGLL 092050Z 21013KT 8000 FEW006 BKN009 10/09 Q1017
                        TEMPO 4000 RADZ=
201412092020 METAR COR EGLL 092020Z 21014KT 7000 -DZ SCT007 OVC009 10/09
                        Q1017 TEMPO 4000 RADZ=
201412091950 METAR EGLL 091950Z 21015KT 5000 -DZ SCT006 BKN008 09/09 Q1018
                        TEMPO 4000 RADZ=
201412091920 METAR COR EGLL 091920Z 20016KT 4700 -DZ BKN007 BKN013 09/08
                        Q1018 TEMPO 5000=
201412091850 METAR EGLL 091850Z 20017KT 8000 BKN008 09/08 Q1019 TEMPO
                        SCT008 BKN010=
201412091820 METAR COR EGLL 091820Z 20019KT 9999 BKN012 09/07 Q1019 TEMPO
                        BKN009=
201412091750 METAR EGLL 091750Z 22016G26KT 9999 FEW017 BKN019 09/06 Q1020
                        TEMPO BKN010=
201412091720 METAR COR EGLL 091720Z 21016KT 9999 FEW023 BKN029 09/06 Q1020
                        TEMPO BKN012=
201412091650 METAR EGLL 091650Z 20015KT 9999 BKN034 09/05 Q1021 TEMPO
                        BKN013=
201412091620 METAR COR EGLL 091620Z 20015KT 9999 SCT033 BKN038 08/05 Q1021
                        TEMPO BKN014=
201412091550 METAR COR EGLL 091550Z 19013KT 9999 FEW044 08/04 Q1022 NOSIG=
201412091520 METAR COR EGLL 091520Z 20011G22KT 9999 FEW044 07/03 Q1023
                        NOSIG=
201412091450 METAR EGLL 091450Z 20010G20KT 170V240 CAVOK 07/03 Q1024 NOSIG=
201412091420 METAR COR EGLL 091420Z 20010KT 180V240 CAVOK 07/03 Q1025
                        NOSIG=
201412091350 METAR COR EGLL 091350Z 21010KT CAVOK 07/03 Q1026 NOSIG=
201412091320 METAR COR EGLL 091320Z 19010KT 140V240 CAVOK 06/02 Q1026
                        NOSIG=
201412091250 METAR EGLL 091250Z 21010KT CAVOK 06/02 Q1027 NOSIG=
201412091220 METAR COR EGLL 091220Z 20010KT CAVOK 05/02 Q1027 NOSIG=
201412091150 METAR EGLL 091150Z 22010KT 190V260 CAVOK 05/02 Q1027 NOSIG=
201412091120 METAR COR EGLL 091120Z 21008KT 180V250 CAVOK 05/02 Q1028
                        NOSIG=
201412091050 METAR EGLL 091050Z 22006KT 180V260 CAVOK 04/01 Q1029 NOSIG=
201412091020 METAR COR EGLL 091020Z 22006KT 170V260 CAVOK 03/01 Q1028
                        NOSIG=
201412090950 METAR EGLL 090950Z 21006KT 180V250 CAVOK 03/01 Q1028 NOSIG=
201412090920 METAR COR EGLL 090920Z 21006KT 170V250 CAVOK 02/01 Q1029
                        NOSIG=
201412090850 METAR EGLL 090850Z 21004KT CAVOK 01/M00 Q1029 NOSIG=
201412090820 METAR COR EGLL 090820Z 22005KT 180V250 CAVOK 00/M00 Q1029
                        NOSIG=
201412090750 METAR EGLL 090750Z 22004KT CAVOK 00/M01 Q1029 NOSIG=
201412090720 METAR COR EGLL 090720Z 21006KT 170V250 CAVOK 00/M00 Q1029
                        NOSIG=
201412090650 METAR COR EGLL 090650Z 28005KT CAVOK 00/M01 Q1029 NOSIG=
201412090620 METAR COR EGLL 090620Z 26004KT CAVOK 00/M01 Q1029 NOSIG=
201412090550 METAR EGLL 090550Z 26003KT CAVOK M00/M01 Q1029 NOSIG=
201412090520 METAR COR EGLL 090520Z 26002KT CAVOK 00/M00 Q1028 NOSIG=
201412090450 METAR EGLL 090450Z 27003KT CAVOK 00/M01 Q1029 NOSIG=
201412090420 METAR COR EGLL 090420Z 26004KT CAVOK 01/M00 Q1029 NOSIG=
201412090350 METAR EGLL 090350Z 25004KT CAVOK 01/00 Q1028 NOSIG=
201412090320 METAR COR EGLL 090320Z 00000KT CAVOK 02/00 Q1028 NOSIG=
201412090250 METAR EGLL 090250Z 00000KT CAVOK 01/00 Q1028 NOSIG=
201412090220 METAR EGLL 090220Z AUTO 26003KT 9999 NCD 01/M00 Q1028=
201412090150 METAR EGLL 090150Z AUTO 29005KT 9999 NCD 02/00 Q1028=
201412090120 METAR EGLL 090120Z AUTO 29006KT 9999 NCD 02/00 Q1028=
201412090050 METAR COR EGLL 090050Z 29007KT CAVOK 02/00 Q1027 NOSIG=
201412090020 METAR COR EGLL 090020Z 29007KT CAVOK 02/01 Q1027 NOSIG=
201412082350 METAR COR EGLL 082350Z 29007KT CAVOK 01/00 Q1027 NOSIG=
201412082320 METAR COR EGLL 082320Z 29006KT CAVOK 02/01 Q1026 NOSIG=
201412082250 METAR COR EGLL 082250Z 29006KT CAVOK 04/01 Q1026 NOSIG=
201412082220 METAR COR EGLL 082220Z 29006KT CAVOK 04/01 Q1026 NOSIG=
201412082150 METAR COR EGLL 082150Z 29007KT CAVOK 04/01 Q1025 NOSIG=
201412082120 METAR COR EGLL 082120Z 29006KT CAVOK 04/01 Q1025 NOSIG=
201412082050 METAR EGLL 082050Z 30006KT CAVOK 04/01 Q1024 NOSIG=
201412082020 METAR COR EGLL 082020Z 30007KT CAVOK 05/01 Q1024 NOSIG=
201412081950 METAR COR EGLL 081950Z 30008KT 270V340 CAVOK 05/01 Q1024
                        NOSIG=
201412081920 METAR COR EGLL 081920Z 29007KT CAVOK 05/01 Q1023 NOSIG=
201412081850 METAR EGLL 081850Z 29007KT 9999 FEW030 05/01 Q1023 NOSIG=
201412081820 METAR COR EGLL 081820Z 29007KT 9999 FEW030 05/00 Q1022 NOSIG=
201412081750 METAR EGLL 081750Z 29006KT 9999 FEW038 06/01 Q1022 NOSIG=
201412081720 METAR COR EGLL 081720Z 29007KT 9999 SCT038 06/01 Q1021 NOSIG=
201412081650 METAR EGLL 081650Z 29008KT 9999 FEW048 06/00 Q1021 NOSIG=
201412081620 METAR COR EGLL 081620Z 29007KT 9999 SCT046 06/01 Q1021 NOSIG=
201412081550 METAR EGLL 081550Z 29007KT 9999 FEW038 06/01 Q1020=
201412081520 METAR COR EGLL 081520Z 29007KT 9999 FEW038 SCT043 06/01 Q1020
                        NOSIG=
201412081450 METAR COR EGLL 081450Z 30009KT 9999 FEW032 BKN037 06/00 Q1020
                        NOSIG=
201412081420 METAR COR EGLL 081420Z 29010KT 9999 FEW032 SCT037 07/00 Q1019
                        NOSIG=
201412081350 METAR COR EGLL 081350Z 29010KT 260V320 9999 SCT037 07/01
                        Q1019 NOSIG=
201412081320 METAR COR EGLL 081320Z 30010KT 9999 FEW031 07/01 Q1019 NOSIG=
201412081250 METAR EGLL 081250Z 31009KT 270V340 9999 FEW029 07/01 Q1019
                        NOSIG=
201412081220 METAR COR EGLL 081220Z 29009KT 9999 FEW029 07/01 Q1019 NOSIG=
201412081150 METAR EGLL 081150Z 30009KT 9999 FEW020 06/01 Q1019 NOSIG=
201412081120 METAR COR EGLL 081120Z 29008KT 260V330 9999 FEW020 06/02
                        Q1019 NOSIG=
201412081050 METAR EGLL 081050Z 29007KT CAVOK 05/02 Q1019 NOSIG=
201412081020 METAR COR EGLL 081020Z 29007KT CAVOK 05/02 Q1019 NOSIG=
201412080950 METAR EGLL 080950Z 27012KT CAVOK 04/02 Q1018 NOSIG=
201412080920 METAR COR EGLL 080920Z 27011KT 9999 FEW020 03/02 Q1018 NOSIG=
201412080850 METAR EGLL 080850Z 27011KT 9999 FEW020 03/02 Q1018 NOSIG=
201412080820 METAR COR EGLL 080820Z 27010KT 9999 FEW020 03/01 Q1018 NOSIG=
201412080750 METAR EGLL 080750Z 27009KT 9999 FEW025 04/02 Q1017 NOSIG=
201412080720 METAR COR EGLL 080720Z 26012KT CAVOK 04/02 Q1017 NOSIG=
201412080650 METAR EGLL 080650Z 24009KT CAVOK 04/02 Q1017 NOSIG=
201412080620 METAR COR EGLL 080620Z 25007KT CAVOK 04/02 Q1017 NOSIG=
201412080550 METAR COR EGLL 080550Z 24007KT CAVOK 04/02 Q1017 NOSIG=
201412080520 METAR COR EGLL 080520Z 23007KT CAVOK 03/01 Q1017 NOSIG=
201412080450 METAR COR EGLL 080450Z 22007KT CAVOK 03/01 Q1018 NOSIG=
201412080420 METAR COR EGLL 080420Z 22005KT CAVOK 03/01 Q1018 NOSIG=
201412080350 METAR COR EGLL 080350Z 21006KT 9999 FEW023 03/01 Q1018 NOSIG=
201412080320 METAR COR EGLL 080320Z 22006KT 9999 FEW045 02/00 Q1019 TEMPO
                        SHRA=
201412080250 METAR EGLL 080250Z AUTO 21005KT 9999 NCD 02/00 Q1019=
201412080220 METAR EGLL 080220Z AUTO 20005KT 9999 NCD 02/M00 Q1019=
201412080150 METAR EGLL 080150Z AUTO 22006KT 9999 NCD 02/M00 Q1020=
201412080120 METAR EGLL 080120Z AUTO 21006KT 9999 NCD 02/M00 Q1020=
201412080050 METAR EGLL 080050Z 21007KT CAVOK 02/M00 Q1020 NOSIG=
201412080020 METAR COR EGLL 080020Z 21004KT CAVOK 02/M00 Q1020 NOSIG=
201412072350 METAR COR EGLL 072350Z 21004KT CAVOK 02/M00 Q1020 NOSIG=
201412072320 METAR COR EGLL 072320Z 21007KT CAVOK 03/00 Q1020 NOSIG=
201412072250 METAR COR EGLL 072250Z 20006KT CAVOK 03/00 Q1020 NOSIG=
201412072220 METAR COR EGLL 072220Z 22008KT CAVOK 03/00 Q1020 NOSIG=
201412072150 METAR EGLL 072150Z 24009KT CAVOK 03/M00 Q1020 NOSIG=
201412072120 METAR COR EGLL 072120Z 25011KT CAVOK 03/M00 Q1020 NOSIG=
201412072050 METAR EGLL 072050Z 25010KT CAVOK 04/M00 Q1020 NOSIG=
201412072020 METAR COR EGLL 072020Z 26011KT CAVOK 04/M00 Q1020 NOSIG=
201412071950 METAR EGLL 071950Z 26012KT CAVOK 05/M00 Q1020 NOSIG=
201412071920 METAR COR EGLL 071920Z 27010KT CAVOK 05/M00 Q1020 NOSIG=
201412071850 METAR EGLL 071850Z 27010KT CAVOK 03/00 Q1020 NOSIG=
201412071820 METAR COR EGLL 071820Z 28008KT CAVOK 04/M00 Q1020 NOSIG=
201412071750 METAR COR EGLL 071750Z 28010KT CAVOK 05/M00 Q1019 NOSIG=
201412071720 METAR COR EGLL 071720Z 28009KT 9999 FEW030 05/01 Q1019 NOSIG=
201412071650 METAR EGLL 071650Z 28008KT 9999 FEW030 05/02 Q1019 NOSIG=
201412071620 METAR COR EGLL 071620Z 30008KT 9999 FEW028 07/00 Q1018 NOSIG=
201412071550 METAR EGLL 071550Z 29012KT 9999 FEW025 07/02 Q1018 NOSIG=
201412071520 METAR COR EGLL 071520Z 28009KT 9999 FEW028 07/03 Q1018 NOSIG=
201412071450 METAR EGLL 071450Z 28011KT 9999 FEW028 08/04 Q1018 NOSIG=
201412071420 METAR COR EGLL 071420Z 29010KT 9999 FEW028 SCT046 08/05 Q1017
                        NOSIG=
201412071350 METAR COR EGLL 071350Z 30012KT 9999 -RA SCT028 08/05 Q1017
                        NOSIG=
201412071320 METAR COR EGLL 071320Z 30009KT 9999 FEW025 10/05 Q1016 NOSIG=
201412071250 METAR EGLL 071250Z 29012KT 9999 FEW047 10/05 Q1016 NOSIG=
201412071220 METAR COR EGLL 071220Z 29010KT 9999 FEW030 10/06 Q1017 NOSIG=
201412071150 METAR COR EGLL 071150Z 29011KT 9999 SCT030 10/06 Q1017 NOSIG=
201412071120 METAR COR EGLL 071120Z 26019KT 9999 5000NE -RA FEW015 BKN019
                        11/08 Q1016 NOSIG=
201412071050 METAR COR EGLL 071050Z 24014KT 9999 SCT014 SCT019 10/08 Q1016
                        NOSIG=
201412071020 METAR COR EGLL 071020Z 23013KT 9999 -RA FEW016 SCT019 10/08
                        Q1016 TEMPO BKN010=
201412070950 METAR EGLL 070950Z 24011KT 9999 -RA SCT020 09/08 Q1016 TEMPO
                        BKN010=
201412070920 METAR COR EGLL 070920Z 23011KT 9999 -RA FEW015 SCT044 09/08
                        Q1017 TEMPO BKN010=
201412070850 METAR COR EGLL 070850Z 23010KT 9999 SCT014 SCT020 09/08 Q1017
                        TEMPO BKN010=
201412070820 METAR COR EGLL 070820Z 23011KT 9999 -RA FEW020 SCT044 09/08
                        Q1017 TEMPO BKN008=
201412070750 METAR COR EGLL 070750Z 23011KT 9999 FEW010 SCT020 09/07 Q1017
                        TEMPO BKN008=
201412070720 METAR COR EGLL 070720Z 23012KT 9999 SCT010 SCT017 09/07 Q1018
                        TEMPO BKN010=
201412070650 METAR EGLL 070650Z 23012KT 9999 FEW010 SCT013 09/07 Q1018
                        TEMPO BKN010=
201412070620 METAR COR EGLL 070620Z 23011KT 9999 FEW012 08/07 Q1018 TEMPO
                        BKN010=
201412070550 METAR COR EGLL 070550Z 23008KT 9999 BKN013 BKN021 08/06 Q1019
                        TEMPO SCT012 BKN018=
201412070520 METAR COR EGLL 070520Z 22008KT 9999 BKN022 BKN033 07/06 Q1019
                        TEMPO BKN010=
201412070450 METAR COR EGLL 070450Z 22008KT 9999 SCT025 SCT029 BKN033
                        07/06 Q1019 TEMPO BKN012=
201412070420 METAR COR EGLL 070420Z 21009KT 9999 SCT028 07/05 Q1019 TEMPO
                        BKN014=
201412070350 METAR COR EGLL 070350Z 22007KT 9999 SCT034 07/05 Q1020 TEMPO
                        BKN014=
201412070320 METAR COR EGLL 070320Z 22007KT 9999 BKN034 07/05 Q1021 TEMPO
                        BKN012=
201412070250 METAR EGLL 070250Z AUTO 21008KT 9999 BKN034 BKN041 07/05
                        Q1021=
201412070220 METAR EGLL 070220Z AUTO 21009KT 9999 FEW034 06/04 Q1022=
201412070150 METAR EGLL 070150Z AUTO 21008KT 9999 BKN033 06/04 Q1022=
201412070120 METAR EGLL 070120Z AUTO 22007KT 9999 BKN034 05/04 Q1023=
201412070050 METAR EGLL 070050Z 20009KT 9999 BKN036 05/03 Q1023 NOSIG=
201412070020 METAR COR EGLL 070020Z 23006KT 9999 BKN033 05/03 Q1024 NOSIG=
201412062350 METAR COR EGLL 062350Z 21007KT 9999 BKN036 04/03 Q1024 NOSIG=
201412062320 METAR COR EGLL 062320Z 20004KT 9999 BKN036 04/02 Q1024 NOSIG=
201412062250 METAR EGLL 062250Z 26005KT 9999 BKN038 04/02 Q1025 NOSIG=
201412062220 METAR COR EGLL 062220Z 23006KT 170V260 9999 BKN040 03/02
                        Q1025 NOSIG=
201412062150 METAR EGLL 062150Z 23007KT 190V260 9999 FEW040 02/02 Q1025
                        NOSIG=
201412062120 METAR COR EGLL 062120Z 21008KT 170V250 9999 FEW037 02/01
                        Q1026 NOSIG=
201412062050 METAR EGLL 062050Z 21007KT 160V260 9999 FEW037 02/01 Q1026
                        NOSIG=
201412062020 METAR COR EGLL 062020Z 21006KT CAVOK 02/01 Q1026 NOSIG=
201412061950 METAR EGLL 061950Z 23005KT 190V260 CAVOK 02/01 Q1027 NOSIG=
201412061920 METAR COR EGLL 061920Z 24007KT CAVOK 03/01 Q1027 NOSIG=
201412061850 METAR EGLL 061850Z 21005KT 170V250 CAVOK 03/01 Q1027 NOSIG=
201412061820 METAR COR EGLL 061820Z 22007KT 180V250 CAVOK 03/01 Q1027
                        NOSIG=
201412061750 METAR EGLL 061750Z 21006KT CAVOK 03/01 Q1027 NOSIG=
201412061720 METAR COR EGLL 061720Z 23006KT CAVOK 03/01 Q1027 NOSIG=
201412061650 METAR EGLL 061650Z 25008KT CAVOK 04/01 Q1028 NOSIG=
201412061620 METAR COR EGLL 061620Z 24007KT CAVOK 04/01 Q1028 NOSIG=
201412061550 METAR EGLL 061550Z 24007KT CAVOK 05/01 Q1028 NOSIG=
201412061520 METAR COR EGLL 061520Z 24006KT CAVOK 05/01 Q1028 NOSIG=
201412061450 METAR COR EGLL 061450Z 24006KT 210V270 CAVOK 06/01 Q1028
                        NOSIG=
201412061420 METAR COR EGLL 061420Z 24004KT 220V290 CAVOK 06/01 Q1028
                        NOSIG=
201412061350 METAR COR EGLL 061350Z 24004KT CAVOK 06/01 Q1028 NOSIG=
201412061320 METAR COR EGLL 061320Z 26004KT 230V290 CAVOK 06/01 Q1028
                        NOSIG=
201412061250 METAR EGLL 061250Z 24004KT 210V280 CAVOK 06/01 Q1028 NOSIG=
201412061220 METAR COR EGLL 061220Z 28005KT CAVOK 05/00 Q1028 NOSIG=
201412061150 METAR COR EGLL 061150Z 24004KT 200V280 CAVOK 05/M00 Q1028
                        NOSIG=
201412061120 METAR COR EGLL 061120Z 30003KT CAVOK 04/00 Q1029 NOSIG=
201412061050 METAR EGLL 061050Z 30005KT CAVOK 03/00 Q1029 NOSIG=
201412061020 METAR COR EGLL 061020Z 31005KT 280V340 CAVOK 03/00 Q1029
                        NOSIG=
201412060950 METAR EGLL 060950Z 31004KT CAVOK 02/M00 Q1029 NOSIG=
201412060920 METAR COR EGLL 060920Z 31006KT CAVOK 02/M00 Q1029 NOSIG=
201412060850 METAR COR EGLL 060850Z 31005KT CAVOK 01/M00 Q1029 NOSIG=
201412060820 METAR COR EGLL 060820Z 31004KT CAVOK 01/M00 Q1029 NOSIG=
201412060750 METAR COR EGLL 060750Z 30004KT CAVOK 01/M00 Q1028 NOSIG=
201412060720 METAR COR EGLL 060720Z 30004KT CAVOK 01/M00 Q1028 NOSIG=
201412060650 METAR EGLL 060650Z 30004KT CAVOK 01/M00 Q1028 NOSIG=
201412060620 METAR COR EGLL 060620Z 29005KT CAVOK 01/M00 Q1028 NOSIG=
201412060550 METAR EGLL 060550Z 29004KT CAVOK M00/M01 Q1027 NOSIG=
201412060520 METAR COR EGLL 060520Z 29004KT CAVOK 01/M00 Q1027 NOSIG=
201412060450 METAR COR EGLL 060450Z 28003KT CAVOK 01/00 Q1027 NOSIG=
201412060420 METAR COR EGLL 060420Z 29003KT CAVOK M01/M01 Q1027 NOSIG=
201412060350 METAR COR EGLL 060350Z 29003KT CAVOK 00/M01 Q1026 NOSIG=
201412060320 METAR COR EGLL 060320Z 29003KT CAVOK 01/00 Q1026 NOSIG=
201412060250 METAR EGLL 060250Z 30002KT CAVOK 01/00 Q1026 NOSIG=
201412060220 METAR EGLL 060220Z AUTO 29005KT 9999 NCD 02/00 Q1026=
201412060150 METAR EGLL 060150Z AUTO 30003KT 9999 NCD 02/01 Q1025=
201412060120 METAR EGLL 060120Z AUTO 29003KT 9999 NCD 02/01 Q1025=
201412060050 METAR COR EGLL 060050Z 30005KT CAVOK 02/01 Q1025 NOSIG=
201412060020 METAR COR EGLL 060020Z 30004KT CAVOK 02/01 Q1025 NOSIG=
201412052350 METAR COR EGLL 052350Z VRB03KT CAVOK 02/01 Q1025 NOSIG=
201412052320 METAR COR EGLL 052320Z 29005KT CAVOK 03/01 Q1025 NOSIG=
201412052250 METAR EGLL 052250Z 28005KT CAVOK 03/01 Q1024 NOSIG=
201412052220 METAR COR EGLL 052220Z 28006KT CAVOK 03/01 Q1024 NOSIG=
201412052150 METAR EGLL 052150Z 28005KT CAVOK 02/00 Q1024 NOSIG=
201412052120 METAR COR EGLL 052120Z 28006KT CAVOK 03/01 Q1023 NOSIG=
201412052050 METAR COR EGLL 052050Z 29005KT 9999 FEW032 04/01 Q1023 NOSIG=
201412052020 METAR COR EGLL 052020Z 30005KT 9999 FEW012 04/01 Q1023 NOSIG=
201412051950 METAR EGLL 051950Z 29006KT CAVOK 04/02 Q1023 NOSIG=
201412051920 METAR COR EGLL 051920Z 29005KT CAVOK 03/01 Q1022 NOSIG=
201412051850 METAR EGLL 051850Z 28005KT CAVOK 03/02 Q1022 NOSIG=
201412051820 METAR COR EGLL 051820Z 28005KT CAVOK 03/02 Q1022 NOSIG=
201412051750 METAR COR EGLL 051750Z 29005KT CAVOK 05/02 Q1022 NOSIG=
201412051720 METAR COR EGLL 051720Z 30004KT CAVOK 06/03 Q1021 NOSIG=
201412051650 METAR EGLL 051650Z 29005KT CAVOK 06/03 Q1021 NOSIG=
201412051620 METAR COR EGLL 051620Z 30005KT 270V330 CAVOK 06/03 Q1021
                        NOSIG=
201412051550 METAR EGLL 051550Z 31005KT CAVOK 07/03 Q1020 NOSIG=
201412051520 METAR COR EGLL 051520Z 31006KT 280V350 CAVOK 07/03 Q1020
                        NOSIG=
201412051450 METAR EGLL 051450Z 30004KT 260V340 CAVOK 07/04 Q1020=
201412051420 METAR COR EGLL 051420Z 29004KT 9999 FEW045 06/04 Q1020 NOSIG=
201412051350 METAR COR EGLL 051350Z 29006KT 9999 SCT017 SCT045 06/04 Q1020
                        NOSIG=
201412051320 METAR COR EGLL 051320Z 29007KT 9999 BKN017 06/04 Q1020 NOSIG=
201412051250 METAR COR EGLL 051250Z 29008KT 9999 SCT016 SCT034 06/03 Q1020
                        NOSIG=
201412051220 METAR COR EGLL 051220Z 29007KT 9000 BKN038 06/03 Q1020 NOSIG=
201412051150 METAR COR EGLL 051150Z 28006KT 8000 FEW044 05/03 Q1020 NOSIG=
201412051120 METAR COR EGLL 051120Z 29005KT 7000 SCT043 05/03 Q1020 NOSIG=
201412051050 METAR COR EGLL 051050Z 28005KT 7000 NSC 05/03 Q1020 NOSIG=
201412051020 METAR COR EGLL 051020Z 29006KT 6000 NSC 05/03 Q1020 NOSIG=
201412050950 METAR COR EGLL 050950Z 29005KT 6000 FEW008 05/03 Q1019 NOSIG=
201412050920 METAR COR EGLL 050920Z 29005KT 5000 HZ NSC 04/03 Q1019 TEMPO
                        4500=
201412050850 METAR EGLL 050850Z 29005KT 3900 HZ FEW006 03/03 Q1019 TEMPO
                        BKN008=
201412050820 METAR COR EGLL 050820Z 28005KT 4700 HZ FEW008 03/03 Q1019
                        TEMPO BKN008=
201412050750 METAR COR EGLL 050750Z VRB03KT 6000 BKN047 04/03 Q1018 NOSIG=
201412050720 METAR COR EGLL 050720Z VRB03KT 6000 FEW030 BKN046 04/03 Q1018
                        NOSIG=
201412050650 METAR COR EGLL 050650Z 29005KT 7000 FEW010 SCT014 BKN022
                        04/03 Q1018 TEMPO BKN010=
201412050620 METAR COR EGLL 050620Z 29004KT 8000 FEW006 BKN020 04/03 Q1018
                        TEMPO BKN008=
201412050550 METAR EGLL 050550Z 29003KT 8000 FEW006 SCT020 BKN042 04/03
                        Q1018 TEMPO BKN008=
201412050520 METAR COR EGLL 050520Z 30003KT 9000 FEW006 SCT043 04/03 Q1017
                        TEMPO BKN008=
201412050450 METAR COR EGLL 050450Z 30003KT 9000 FEW005 SCT040 04/03 Q1017
                        TEMPO BKN008=
201412050420 METAR COR EGLL 050420Z VRB03KT 9000 FEW010 BKN048 04/03 Q1017
                        TEMPO BKN008=
201412050350 METAR EGLL 050350Z VRB03KT 9000 FEW010 BKN042 04/03 Q1017
                        TEMPO BKN008=
201412050320 METAR COR EGLL 050320Z VRB02KT 9000 BKN037 04/03 Q1017 NOSIG=
201412050250 METAR COR EGLL 050250Z 36002KT 9000 BKN037 04/03 Q1017 NOSIG=
201412050220 METAR EGLL 050220Z AUTO 33003KT 6000 BKN038 04/03 Q1017=
201412050150 METAR EGLL 050150Z AUTO VRB02KT 6000 FEW023 OVC038 04/03
                        Q1016=
201412050120 METAR EGLL 050120Z AUTO VRB02KT 6000 FEW022 OVC040 04/03
                        Q1016=
201412050050 METAR COR EGLL 050050Z VRB03KT 8000 FEW004 BKN022 04/03 Q1016
                        TEMPO BKN008=
201412050020 METAR COR EGLL 050020Z VRB02KT 9000 -RA FEW004 BKN021 04/03
                        Q1016 TEMPO BKN008=
201412042350 METAR EGLL 042350Z 36003KT 9999 -RA FEW005 BKN018 04/03 Q1016
                        TEMPO BKN008=
201412042320 METAR COR EGLL 042320Z 35002KT 9999 FEW007 BKN018 04/03 Q1016
                        TEMPO BKN008=
201412042250 METAR EGLL 042250Z 35002KT 9999 SCT008 BKN018 04/03 Q1016
                        TEMPO BKN008=
201412042220 METAR COR EGLL 042220Z VRB02KT 9000 -RA SCT008 BKN022 04/03
                        Q1016 TEMPO BKN008=
201412042150 METAR COR EGLL 042150Z 35002KT 8000 -RA FEW010 BKN025 04/03
                        Q1016 TEMPO BKN008=
201412042120 METAR COR EGLL 042120Z 35003KT 7000 -RA FEW006 BKN025 04/03
                        Q1015 TEMPO BKN006=
201412042050 METAR COR EGLL 042050Z 35002KT 8000 SCT008 BKN023 04/03 Q1015
                        TEMPO BKN008=
201412042020 METAR COR EGLL 042020Z VRB02KT 9000 FEW003 SCT008 BKN021
                        04/03 Q1015 TEMPO BKN004=
201412041950 METAR EGLL 041950Z VRB02KT 8000 SCT007 BKN014 04/03 Q1015
                        TEMPO BKN007=
201412041920 METAR COR EGLL 041920Z VRB02KT 8000 FEW005 SCT007 BKN012
                        04/03 Q1015 TEMPO BKN007=
201412041850 METAR EGLL 041850Z 00000KT 5000 BR BKN007 BKN012 04/03 Q1015
                        SCT007 BKN012=
201412041820 METAR COR EGLL 041820Z 00000KT 4700 BR FEW006 BKN015 04/03
                        Q1015 TEMPO BKN007=
201412041750 METAR COR EGLL 041750Z 00000KT 4700 BR FEW005 SCT009 BKN015
                        04/03 Q1015 TEMPO BKN010=
201412041720 METAR COR EGLL 041720Z VRB02KT 5000 BR FEW008 BKN015 03/03
                        Q1015 TEMPO BKN012=
201412041650 METAR EGLL 041650Z 16002KT 4500 BR SCT006 BKN011 03/03 Q1014
                        TEMPO BKN006=
201412041620 METAR COR EGLL 041620Z 16004KT 2800 -RADZ BR FEW002 BKN005
                        04/03 Q1014 NOSIG=
201412041550 METAR COR EGLL 041550Z 15003KT 2700 -RADZ BR FEW002 BKN004
                        BKN008 03/03 Q1014 TEMPO SCT004 BKN008=
201412041520 METAR COR EGLL 041520Z VRB02KT 2700 -RADZ BR FEW002 SCT003
                        BKN004 04/03 Q1014 RERA REDZ TEMPO
                        SCT004 BKN007=
201412041450 METAR COR EGLL 041450Z 13003KT 3000 RADZ SCT003 BKN004 03/03
                        Q1014 TEMPO SCT004 BKN007=
201412041420 METAR COR EGLL 041420Z VRB03KT 3000 RADZ FEW002 SCT003 BKN004
                        04/03 Q1015 TEMPO SCT004 BKN006=
201412041350 METAR EGLL 041350Z 00000KT 3000 RADZ FEW002 SCT003 BKN004
                        04/03 Q1015 TEMPO SCT004 BKN010=
201412041320 METAR COR EGLL 041320Z 36004KT 310V080 3000 RADZ FEW002 SCT003
                        BKN005 04/03 Q1015 TEMPO BKN004=
201412041250 METAR COR EGLL 041250Z VRB02KT 2400 -RADZ SCT002 BKN005 04/03
                        Q1015 TEMPO BKN004=
201412041220 METAR COR EGLL 041220Z 00000KT 2400 -RADZ SCT002 BKN004 04/03
                        Q1015 TEMPO SCT004 BKN007=
201412041150 METAR COR EGLL 041150Z VRB02KT 2400 -RADZ SCT002 BKN010 04/03
                        Q1015 TEMPO BKN006=
201412041120 METAR COR EGLL 041120Z VRB02KT 2400 -RADZ BR FEW002 BKN004
                        04/03 Q1016 BECMG SCT006 BKN010=
201412041050 METAR COR EGLL 041050Z 05005KT 3000 -RADZ BR FEW004 SCT005
                        BKN006 04/03 Q1016 TEMPO 6000 NSW
                        SCT006 BKN010=
201412041020 METAR COR EGLL 041020Z 04005KT 3000 -DZ BR FEW005 BKN006
                        BKN010 04/03 Q1016 BECMG 5000 NSW
                        SCT006 BKN010=
201412040950 METAR COR EGLL 040950Z 05005KT 3300 -DZ BR OVC006 04/03 Q1016
                        BECMG 6000 NSW BKN012=
201412040920 METAR COR EGLL 040920Z 06005KT 4000 -DZ FEW008 BKN013 04/03
                        Q1016 TEMPO BKN008=
201412040850 METAR COR EGLL 040850Z 05006KT 4600 HZ BKN011 04/03 Q1016
                        BECMG 7000 NSW=
201412040820 METAR COR EGLL 040820Z 06008KT 6000 BKN014 04/02 Q1016 NOSIG=
201412040750 METAR EGLL 040750Z 07007KT 9000 BKN018 05/02 Q1016 TEMPO
                        BKN014=
201412040720 METAR COR EGLL 040720Z 06008KT 9999 BKN020 05/02 Q1016 TEMPO
                        BKN014=
201412040650 METAR EGLL 040650Z 06009KT 9999 BKN020 05/02 Q1016 TEMPO
                        BKN014=
201412040620 METAR COR EGLL 040620Z 06008KT 9999 BKN022 05/01 Q1016 NOSIG=
201412040550 METAR EGLL 040550Z 05008KT 010V070 9999 BKN022 05/01 Q1017
                        NOSIG=
201412040520 METAR COR EGLL 040520Z 06007KT 9999 BKN023 05/01 Q1017 NOSIG=
201412040450 METAR COR EGLL 040450Z 06011KT 9999 BKN024 05/01 Q1017 NOSIG=
201412040420 METAR COR EGLL 040420Z 06011KT 9999 BKN023 05/01 Q1017 NOSIG=
201412040350 METAR COR EGLL 040350Z 07008KT 020V090 9999 BKN025 05/01
                        Q1017 NOSIG=
201412040320 METAR COR EGLL 040320Z 07012KT 9999 BKN025 05/01 Q1018 NOSIG=
201412040250 METAR EGLL 040250Z 06007KT 020V090 9999 BKN026 05/01 Q1018
                        NOSIG=
201412040220 METAR EGLL 040220Z AUTO 07008KT 9999 FEW026 BKN031 05/02
                        Q1018=
201412040150 METAR EGLL 040150Z AUTO 06007KT 030V090 9999 FEW022 OVC028
                        06/02 Q1018=
201412040120 METAR EGLL 040120Z AUTO 06008KT 9999 FEW018 BKN030 06/03
                        Q1019=
201412040050 METAR EGLL 040050Z 05006KT 9999 FEW020 BKN032 06/04 Q1019
                        NOSIG=
201412040020 METAR COR EGLL 040020Z 04006KT 9999 BKN031 06/04 Q1019 NOSIG=
201412032350 METAR COR EGLL 032350Z 04006KT 9999 FEW032 BKN035 06/04 Q1020
                        NOSIG=
201412032320 METAR COR EGLL 032320Z 02004KT 350V060 9999 FEW016 BKN039
                        06/04 Q1020 TEMPO BKN014=
201412032250 METAR EGLL 032250Z 04005KT 9999 FEW015 BKN041 06/05 Q1020
                        TEMPO BKN012=
201412032220 METAR COR EGLL 032220Z 04006KT 010V070 9999 FEW013 BKN037
                        07/05 Q1020 TEMPO BKN012=
201412032150 METAR COR EGLL 032150Z 04006KT 9999 FEW015 BKN035 07/05 Q1021
                        TEMPO BKN012=
201412032120 METAR COR EGLL 032120Z 04007KT 9999 BKN040 07/05 Q1021 NOSIG=
201412032050 METAR COR EGLL 032050Z 03006KT 350V060 9999 BKN037 07/05
                        Q1021 NOSIG=
201412032020 METAR COR EGLL 032020Z 03004KT 350V060 9999 SCT024 BKN034
                        07/05 Q1021 NOSIG=
201412031950 METAR COR EGLL 031950Z 01005KT 340V050 9999 SCT029 OVC035
                        07/05 Q1021 NOSIG=
201412031920 METAR COR EGLL 031920Z 02005KT 350V050 9999 BKN041 07/05
                        Q1021 NOSIG=
201412031850 METAR EGLL 031850Z 03006KT 360V060 9999 BKN044 07/05 Q1021
                        NOSIG=
201412031820 METAR COR EGLL 031820Z 02006KT 350V060 9999 BKN044 07/05
                        Q1022 NOSIG=
201412031750 METAR EGLL 031750Z 01006KT 9999 BKN045 07/05 Q1022 NOSIG=
201412031720 METAR COR EGLL 031720Z 02005KT 340V040 9999 BKN044 07/05
                        Q1022 NOSIG=
201412031650 METAR EGLL 031650Z 02007KT 350V050 9999 FEW024 BKN044 07/05
                        Q1022 NOSIG=
201412031620 METAR COR EGLL 031620Z 01007KT 330V040 9999 BKN038 07/05
                        Q1022 NOSIG=
201412031550 METAR COR EGLL 031550Z 02008KT 340V050 9000 -RA FEW020 SCT024
                        07/05 Q1022 NOSIG=
201412031520 METAR COR EGLL 031520Z 04009KT 010V070 9999 BKN026 08/04
                        Q1022 NOSIG=
201412031450 METAR COR EGLL 031450Z 03007KT 9999 SCT027 SCT040 08/03 Q1022
                        NOSIG=
201412031420 METAR COR EGLL 031420Z 02008G20KT 340V050 9999 FEW028 SCT039
                        08/03 Q1022 NOSIG=
201412031350 METAR COR EGLL 031350Z 03009KT 350V050 9999 FEW040 SCT045
                        08/03 Q1023 NOSIG=
201412031320 METAR COR EGLL 031320Z 03011KT 9999 SCT045 08/03 Q1023 NOSIG=
201412031250 METAR EGLL 031250Z 03008KT 350V070 9999 FEW045 08/02 Q1023
                        NOSIG=
201412031220 METAR COR EGLL 031220Z 02009KT 340V050 9999 FEW042 08/02
                        Q1023 NOSIG=
201412031150 METAR COR EGLL 031150Z 02009KT 330V050 9999 FEW042 08/03
                        Q1024 NOSIG=
201412031120 METAR COR EGLL 031120Z 02007KT 340V050 9999 SCT042 07/02
                        Q1024 NOSIG=
201412031050 METAR EGLL 031050Z 02007KT 350V060 9999 SCT047 07/02 Q1024
                        NOSIG=
201412031020 METAR COR EGLL 031020Z 02009KT 9999 SCT043 06/02 Q1024 NOSIG=
201412030950 METAR EGLL 030950Z 01007KT 340V050 9999 SCT042 05/02 Q1025
                        NOSIG=
201412030920 METAR COR EGLL 030920Z 01006KT 340V040 9999 SCT042 05/02
                        Q1025 NOSIG=
201412030850 METAR EGLL 030850Z 01006KT 330V050 9999 FEW039 04/02 Q1024=
201412030820 METAR COR EGLL 030820Z 01005KT 330V040 CAVOK 04/02 Q1024
                        NOSIG=
201412030750 METAR EGLL 030750Z 01006KT CAVOK 04/02 Q1024 NOSIG=
201412030720 METAR COR EGLL 030720Z 01007KT 340V040 CAVOK 04/02 Q1024
                        NOSIG=
201412030650 METAR EGLL 030650Z 36006KT 330V030 CAVOK 04/02 Q1024 NOSIG=
201412030620 METAR COR EGLL 030620Z 36007KT 340V040 CAVOK 04/01 Q1024
                        NOSIG=
201412030550 METAR EGLL 030550Z 36007KT 330V040 CAVOK 04/02 Q1024 NOSIG=
201412030520 METAR COR EGLL 030520Z 36007KT 330V040 CAVOK 04/01 Q1024
                        NOSIG=
201412030450 METAR EGLL 030450Z 01007KT 330V040 CAVOK 05/01 Q1024 NOSIG=
201412030420 METAR COR EGLL 030420Z 36008KT CAVOK 05/01 Q1024 NOSIG=
201412030350 METAR COR EGLL 030350Z 36008KT CAVOK 04/01 Q1024 NOSIG=
201412030320 METAR COR EGLL 030320Z 36008KT 330V030 9999 FEW038 05/01
                        Q1024 NOSIG=
201412030250 METAR EGLL 030250Z 36008KT 9999 FEW038 05/01 Q1024 NOSIG=
201412030220 METAR EGLL 030220Z AUTO 36008KT 9999 NCD 05/01 Q1024=
201412030150 METAR EGLL 030150Z AUTO 01009KT 9999 NCD 05/01 Q1024=
201412030120 METAR EGLL 030120Z AUTO 36008KT 330V030 9999 NCD 05/01 Q1023=
201412030050 METAR EGLL 030050Z 36010KT 330V030 CAVOK 06/01 Q1023 NOSIG=
201412030020 METAR COR EGLL 030020Z 01011KT 9999 SCT037 06/02 Q1023 NOSIG=
201412022350 METAR EGLL 022350Z 01011KT 340V040 9999 SCT037 07/02 Q1023
                        NOSIG=
201412022320 METAR COR EGLL 022320Z 36011KT 9999 SCT031 BKN037 07/02 Q1023
                        NOSIG=
201412022250 METAR COR EGLL 022250Z 36011KT 9999 FEW041 06/02 Q1023 NOSIG=
201412022220 METAR COR EGLL 022220Z 36010KT 9999 FEW044 06/02 Q1023 NOSIG=
201412022150 METAR COR EGLL 022150Z 01011KT 340V040 9999 FEW022 07/02
                        Q1023 NOSIG=
201412022120 METAR COR EGLL 022120Z 01010KT CAVOK 07/03 Q1023 NOSIG=
201412022050 METAR COR EGLL 022050Z 01011KT 340V040 9999 FEW024 07/03
                        Q1022 NOSIG=
201412022020 METAR COR EGLL 022020Z 36012KT 9999 FEW020 07/03 Q1022 NOSIG=
201412021950 METAR EGLL 021950Z 36012KT 9999 FEW020 07/03 Q1022 NOSIG=
201412021920 METAR COR EGLL 021920Z 36012KT 340V040 9999 SCT019 07/03
                        Q1022 NOSIG=
201412021850 METAR COR EGLL 021850Z 36011KT 9999 SCT019 SCT023 07/03 Q1022
                        NOSIG=
201412021820 METAR COR EGLL 021820Z 36010KT 340V040 9999 SCT020 07/04
                        Q1021 NOSIG=
201412021750 METAR COR EGLL 021750Z 01011KT 340V040 9999 SCT021 07/04
                        Q1021 NOSIG=
201412021720 METAR COR EGLL 021720Z 36013KT 9999 FEW018 BKN021 08/04 Q1021
                        NOSIG=
201412021650 METAR EGLL 021650Z 01011KT 330V030 9999 FEW020 BKN023 08/04
                        Q1021 NOSIG=
201412021620 METAR COR EGLL 021620Z 36009KT 340V040 9999 FEW020 BKN023
                        08/04 Q1020 NOSIG=
201412021550 METAR EGLL 021550Z 36011KT 330V040 9999 VCSH FEW019 BKN023
                        08/04 Q1020 NOSIG=
201412021520 METAR COR EGLL 021520Z 36010KT 340V050 9999 FEW020 BKN024
                        08/04 Q1020 NOSIG=
201412021450 METAR COR EGLL 021450Z 36011KT 330V040 9999 BKN020 08/04
                        Q1019 NOSIG=
201412021420 METAR COR EGLL 021420Z 01011KT 9999 BKN020 08/04 Q1019 NOSIG=
201412021350 METAR EGLL 021350Z 01011KT 9999 BKN018 08/05 Q1019 NOSIG=
201412021320 METAR COR EGLL 021320Z 01011KT 330V040 9999 BKN016 08/05
                        Q1018 NOSIG=
201412021250 METAR EGLL 021250Z 36011KT 9999 SCT011 BKN015 08/05 Q1018
                        NOSIG=
201412021220 METAR COR EGLL 021220Z 36010KT 320V030 9999 FEW009 BKN012
                        07/05 Q1018 BECMG BKN015=
201412021150 METAR COR EGLL 021150Z 36010KT 330V030 9999 FEW008 BKN014
                        07/06 Q1018 BECMG BKN015=
201412021120 METAR COR EGLL 021120Z 35010KT 320V030 6000 -RA FEW009 BKN013
                        07/05 Q1018 TEMPO 9999 BKN015=
201412021050 METAR COR EGLL 021050Z 36010KT 330V050 9999 BKN014 08/05
                        Q1018 NOSIG=
201412021020 METAR COR EGLL 021020Z 01011KT 9999 FEW008 BKN012 08/05 Q1018
                        NOSIG=
201412020950 METAR COR EGLL 020950Z 36008KT 320V030 9000 SCT008 BKN012
                        08/06 Q1017 TEMPO SCT008 BKN015=
201412020920 METAR COR EGLL 020920Z 36010KT 300V030 9999 SCT008 BKN018
                        08/06 Q1017 NOSIG=
201412020850 METAR EGLL 020850Z 36005KT 320V040 2400 -RADZ FEW004 SCT007
                        BKN010 07/07 Q1017 REDZ RERA BECMG
                        7000=
201412020820 METAR COR EGLL 020820Z VRB03KT 1700 DZRA FEW002 SCT004 BKN011
                        07/06 Q1016 BECMG 5000 -RADZ=
201412020750 METAR EGLL 020750Z VRB03KT 1400 R09L/P1500 R09R/P1500 DZRA
                        FEW002 SCT004 BKN009 07/06 Q1016
                        BECMG 5000 -RADZ BKN012=
201412020720 METAR COR EGLL 020720Z VRB03KT 1900 -DZRA FEW003 SCT006 BKN010
                        07/06 Q1015 TEMPO 5000=
201412020650 METAR EGLL 020650Z VRB03KT 2100 -RADZ FEW003 BKN010 06/05
                        Q1015 TEMPO 6000 BKN009=
201412020620 METAR COR EGLL 020620Z 34004KT 310V020 2100 -RADZ FEW006
                        BKN010 06/05 Q1015 TEMPO 6000 BKN009=
201412020550 METAR COR EGLL 020550Z VRB03KT 5000 HZ FEW009 BKN013 07/05
                        Q1015 TEMPO 4000 -RADZ BKN009=
201412020520 METAR COR EGLL 020520Z VRB03KT 6000 BKN019 07/04 Q1014 TEMPO
                        BKN014=
201412020450 METAR COR EGLL 020450Z 33004KT 300V030 6000 BKN020 07/04
                        Q1014 BECMG BKN014=
201412020420 METAR COR EGLL 020420Z VRB03KT 6000 BKN024 07/04 Q1014 TEMPO
                        BKN014=
201412020350 METAR EGLL 020350Z VRB03KT 7000 BKN011 06/04 Q1014 NOSIG=
201412020320 METAR COR EGLL 020320Z 35005KT 310V030 7000 BKN013 07/04
                        Q1014 NOSIG=
201412020250 METAR COR EGLL 020250Z 33005KT 300V010 7000 BKN014 07/04
                        Q1014 NOSIG=
201412020220 METAR COR EGLL 020220Z 35004KT 310V020 8000 BKN014 06/04
                        Q1014 NOSIG=
201412020150 METAR EGLL 020150Z 36005KT 320V020 8000 SCT014 BKN018 07/04
                        Q1014 BECMG BKN014=
201412020120 METAR COR EGLL 020120Z 36005KT 330V040 8000 BKN016 07/04
                        Q1014 BECMG BKN014=
201412020050 METAR COR EGLL 020050Z 33006KT 300V010 8000 BKN013 07/04
                        Q1014 NOSIG=
201412020020 METAR COR EGLL 020020Z 35005KT 320V050 8000 BKN011 07/04
                        Q1014 NOSIG=
201412012350 METAR COR EGLL 012350Z VRB03KT 7000 BKN011 06/04 Q1014 NOSIG=
201412012320 METAR COR EGLL 012320Z VRB03KT 7000 FEW009 BKN011 06/04 Q1014
                        TEMPO BKN009=
201412012250 METAR EGLL 012250Z 36004KT 330V030 9000 BKN012 06/04 Q1014
                        NOSIG=
201412012220 METAR COR EGLL 012220Z 35004KT 310V040 6000 FEW009 BKN011
                        06/05 Q1014 TEMPO BKN009=
201412012150 METAR EGLL 012150Z 01004KT 330V050 6000 FEW008 BKN011 06/04
                        Q1014 NOSIG=
201412012120 METAR COR EGLL 012120Z 35005KT 320V040 7000 OVC010 06/04
                        Q1014 NOSIG=
201412012050 METAR EGLL 012050Z 01004KT 330V080 6000 OVC010 06/04 Q1014
                        NOSIG=
201412012020 METAR COR EGLL 012020Z VRB03KT 7000 OVC010 07/04 Q1014 NOSIG=
201412011950 METAR EGLL 011950Z 04004KT 7000 OVC010 07/04 Q1014 NOSIG=
201412011920 METAR COR EGLL 011920Z 05006KT 7000 BKN011 07/04 Q1014 NOSIG=
201412011850 METAR EGLL 011850Z 07005KT 7000 OVC010 07/04 Q1014 TEMPO
                        OVC008=
201412011820 METAR COR EGLL 011820Z 04004KT 340V060 7000 OVC010 07/04
                        Q1014 TEMPO OVC008=
201412011750 METAR COR EGLL 011750Z 06005KT 020V090 8000 OVC011 07/04
                        Q1014 TEMPO OVC009=
201412011720 METAR COR EGLL 011720Z 03006KT 340V070 8000 OVC011 07/04
                        Q1013 TEMPO BKN009=
201412011650 METAR COR EGLL 011650Z 03006KT 350V070 7000 OVC011 07/04
                        Q1013 TEMPO BKN009=
201412011620 METAR COR EGLL 011620Z 05006KT 8000 OVC012 07/04 Q1013 NOSIG=
201412011550 METAR EGLL 011550Z 05007KT 8000 OVC013 07/04 Q1013 NOSIG=
201412011520 METAR COR EGLL 011520Z 01006KT 330V030 8000 OVC014 07/04
                        Q1013 NOSIG=
201412011450 METAR EGLL 011450Z 02004KT 330V050 9000 OVC014 07/04 Q1013
                        NOSIG=
201412011420 METAR COR EGLL 011420Z 03005KT 340V060 8000 OVC015 07/04
                        Q1013 TEMPO BKN014=
201412011350 METAR EGLL 011350Z 01005KT 330V050 9000 BKN016 07/04 Q1013
                        TEMPO BKN014=
201412011320 METAR COR EGLL 011320Z 02005KT 340V060 9000 BKN016 07/04
                        Q1013 TEMPO BKN014=
201412011250 METAR EGLL 011250Z 03006KT 340V050 9000 BKN017 07/04 Q1014
                        NOSIG=
201412011220 METAR COR EGLL 011220Z 03005KT 350V070 9000 BKN017 08/04
                        Q1014 NOSIG=
201412011150 METAR COR EGLL 011150Z 05006KT 010V080 9000 BKN017 08/04
                        Q1014 NOSIG=
201412011120 METAR COR EGLL 011120Z 04007KT 360V080 9000 BKN017 07/04
                        Q1014 NOSIG=
201412011050 METAR EGLL 011050Z 03006KT 340V060 9000 BKN017 07/04 Q1014
                        TEMPO BKN014=
201412011020 METAR COR EGLL 011020Z 05009KT 9999 BKN017 08/04 Q1015 TEMPO
                        BKN014=
201412010950 METAR EGLL 010950Z 05008KT 020V080 9999 BKN017 08/04 Q1015
                        TEMPO BKN014=
201412010920 METAR COR EGLL 010920Z 04006KT 330V070 9999 BKN017 07/04
                        Q1014 TEMPO BKN014=
201412010850 METAR EGLL 010850Z 03008KT 340V060 9999 BKN017 07/04 Q1014
                        TEMPO BKN014=
201412010820 METAR COR EGLL 010820Z 04007KT 9999 BKN018 07/04 Q1014 NOSIG=
201412010750 METAR EGLL 010750Z 04006KT 360V070 9999 BKN018 07/04 Q1014
                        NOSIG=
201412010720 METAR COR EGLL 010720Z 03008KT 340V070 9999 BKN018 07/04
                        Q1014 NOSIG=
201412010650 METAR EGLL 010650Z 06008KT 9999 BKN017 08/04 Q1014 NOSIG=
201412010620 METAR COR EGLL 010620Z 04007KT 340V070 9999 BKN017 08/04
                        Q1014 NOSIG=
201412010550 METAR EGLL 010550Z 05008KT 020V080 9999 SCT017 BKN021 08/05
                        Q1013 NOSIG=
201412010520 METAR COR EGLL 010520Z 04008KT 010V080 9999 BKN018 08/05
                        Q1013 NOSIG=
201412010450 METAR EGLL 010450Z 05007KT 010V080 8000 SCT018 BKN020 08/05
                        Q1014 TEMPO BKN014=
201412010420 METAR COR EGLL 010420Z 04008KT 9000 SCT016 BKN018 08/05 Q1014
                        TEMPO BKN014=
201412010350 METAR EGLL 010350Z 04006KT 8000 BKN017 08/05 Q1014 TEMPO
                        BKN014=
201412010320 METAR COR EGLL 010320Z 03006KT 350V080 6000 BKN019 08/05
                        Q1014 TEMPO BKN014=
201412010250 METAR COR EGLL 010250Z 03007KT 7000 BKN013 08/06 Q1014 NOSIG=
201412010220 METAR COR EGLL 010220Z 03007KT 350V060 8000 SCT013 BKN018
                        08/06 Q1014 TEMPO BKN013=
201412010150 METAR COR EGLL 010150Z 04009KT 9999 BKN013 09/06 Q1014 NOSIG=
201412010120 METAR COR EGLL 010120Z 03008KT 350V070 9999 SCT013 BKN018
                        09/06 Q1014 TEMPO BKN013=
201412010050 METAR EGLL 010050Z 02007KT 350V050 9999 SCT015 BKN019 09/07
                        Q1014 TEMPO BKN014=
201412010020 METAR COR EGLL 010020Z 03008KT 8000 -RADZ SCT014 BKN019 10/07
                        Q1014 TEMPO BKN014=

</pre>

</body>
</html>
