##########################################################
# Query made at 12/27/2012 09:20:53 UTC
# Time interval: from 12/01/2012 00:00  to 12/31/2012 23:59  UTC
##########################################################

##########################################################
# EGLL, London / Heathrow Airport (United Kingdom)
# WMO index: 03772
# Latitude 51-29N. Longitude 000-27W. Altitude 24 m.
##########################################################

###################################
#  METAR/SPECI from EGLL
###################################
201212270850 METAR COR EGLL 270850Z 22007KT 180V250 9999 FEW016 SCT042
                        08/06 Q0997 TEMPO 4500 SHRA BKN014=
201212270820 METAR COR EGLL 270820Z 19008KT 170V240 7000 -RA FEW014 SCT036
                        08/06 Q0997 TEMPO 4500 SHRA=
201212270750 METAR COR EGLL 270750Z 18009KT 160V220 7000 -RA FEW020 SCT029
                        BKN036 07/06 Q0998 TEMPO 4500 SHRA=
201212270720 METAR COR EGLL 270720Z 20009KT 9999 -RA BKN046 07/05 Q0999
                        TEMPO 4500 SHRA=
201212270650 METAR COR EGLL 270650Z 20007KT 9999 FEW046 07/04 Q0999 NOSIG=
201212270620 METAR COR EGLL 270620Z 21009KT CAVOK 06/04 Q1000 NOSIG=
201212270550 METAR COR EGLL 270550Z 22008KT CAVOK 06/04 Q1000 NOSIG=
201212270520 METAR COR EGLL 270520Z 21007KT CAVOK 06/04 Q1001 NOSIG=
201212270450 METAR COR EGLL 270450Z 21007KT 190V250 9999 FEW024 06/04
                        Q1001 NOSIG=
201212270420 METAR COR EGLL 270420Z 19005KT 9999 FEW047 06/04 Q1002 NOSIG=
201212270350 METAR COR EGLL 270350Z 20005KT 9999 FEW024 06/04 Q1002 NOSIG=
201212270320 METAR COR EGLL 270320Z 23009KT 9999 FEW037 07/04 Q1002 NOSIG=
201212270250 METAR COR EGLL 270250Z 23011KT 9999 SCT037 08/05 Q1002 NOSIG=
201212270220 METAR EGLL 270220Z AUTO 23012KT 9999 BKN040/// 08/05 Q1002=
201212270150 METAR EGLL 270150Z AUTO 24011KT 9999 NCD 07/04 Q1003=
201212270120 METAR EGLL 270120Z AUTO 24010KT 9999 NCD 08/04 Q1003=
201212270050 METAR COR EGLL 270050Z 24011KT CAVOK 08/05 Q1003 NOSIG=
201212270020 METAR COR EGLL 270020Z 24012KT CAVOK 08/04 Q1003 NOSIG=
201212262350 METAR COR EGLL 262350Z 25015KT CAVOK 08/05 Q1003 NOSIG=
201212262320 METAR COR EGLL 262320Z 24016KT 9999 FEW031 08/05 Q1003 NOSIG=
201212262250 METAR COR EGLL 262250Z 24016KT 9999 FEW037 09/04 Q1003 NOSIG=
201212262220 METAR COR EGLL 262220Z 25016KT 9999 FEW037 09/05 Q1002 NOSIG=
201212262150 METAR COR EGLL 262150Z 25014KT 9999 FEW035 09/05 Q1002 NOSIG=
201212262120 METAR COR EGLL 262120Z 26015KT 9999 FEW031 10/05 Q1002 NOSIG=
201212262050 METAR COR EGLL 262050Z 26015KT 9999 SCT033 09/06 Q1001 NOSIG=
201212262020 METAR COR EGLL 262020Z 25015KT 9999 FEW027 SCT038 10/06 Q1001
                        NOSIG=
201212261950 METAR COR EGLL 261950Z 25015KT 9999 SCT030 10/07 Q1000 NOSIG=
201212261920 METAR COR EGLL 261920Z 25014KT 9999 SCT032 10/08 Q1000 RESHRA
                        NOSIG=
201212261850 METAR COR EGLL 261850Z 24015KT 6000 SHRA FEW019 SCT030 10/08
                        Q1000 BECMG NSW=
201212261820 METAR COR EGLL 261820Z 23014KT 9999 FEW040 10/08 Q1000 NOSIG=
201212261750 METAR COR EGLL 261750Z 24015KT 9999 FEW017 SCT022 10/08 Q1000
                        NOSIG=
201212261720 METAR COR EGLL 261720Z 21012KT 9999 FEW017 SCT025 10/09 Q1000
                        TEMPO RA BKN014=
201212261650 METAR COR EGLL 261650Z 20010KT 9999 SCT016 10/08 Q1000 TEMPO
                        4500 SHRA BKN012=
201212261620 METAR COR EGLL 261620Z 21011KT 9999 -RA SCT017 SCT022 09/08
                        Q1001 TEMPO 4500 RA BKN014=
201212261550 METAR COR EGLL 261550Z 21012KT 9999 -RA FEW009 SCT011 BKN031
                        09/08 Q1002 RERA TEMPO 4500 RA BKN012=
201212261520 METAR COR EGLL 261520Z 21013G24KT 7000 RA SCT017 BKN023 10/07
                        Q1002 TEMPO 4500 RA BKN014=
201212261450 METAR COR EGLL 261450Z 22015KT 8000 -RA SCT024 SCT043 10/08
                        Q1003 RESHRA TEMPO 4500 RA BKN014=
201212261420 METAR COR EGLL 261420Z 21009KT 180V240 9999 -RA SCT024 SCT047
                        10/08 Q1003 4500 RA BKN014=
201212261350 METAR COR EGLL 261350Z 22012KT 9999 -RA FEW014 SCT023 10/07
                        Q1005 TEMPO RA BKN014=
201212261320 METAR COR EGLL 261320Z 22013KT 190V250 9999 FEW019 SCT023
                        10/07 Q1005 TEMPO RA BKN014=
201212261250 METAR EGLL 261250Z 23013KT 9999 FEW019 10/06 Q1006=
201212261220 METAR COR EGLL 261220Z 22012KT 190V260 9999 FEW029 09/06
                        Q1006 NOSIG=
201212261150 METAR COR EGLL 261150Z 23013KT 9999 FEW022 09/06 Q1007 NOSIG=
201212261120 METAR COR EGLL 261120Z 24013KT 9999 FEW021 SCT029 09/06 Q1007
                        NOSIG=
201212261050 METAR COR EGLL 261050Z 25012KT 9999 SCT023 09/06 Q1008 NOSIG=
201212261020 METAR COR EGLL 261020Z 24015KT 9999 FEW025 08/06 Q1008 NOSIG=
201212260950 METAR COR EGLL 260950Z 24012KT 9999 VCSH FEW027 08/05 Q1007
                        NOSIG=
201212260920 METAR COR EGLL 260920Z 23009KT CAVOK 06/05 Q1007 NOSIG=
201212260850 METAR COR EGLL 260850Z 23009KT 9999 FEW025 06/04 Q1007 NOSIG=
201212260820 METAR COR EGLL 260820Z 22007KT CAVOK 05/04 Q1007 NOSIG=
201212260750 METAR COR EGLL 260750Z 23007KT 9999 FEW025 05/03 Q1007 NOSIG=
201212260720 METAR COR EGLL 260720Z 23011KT CAVOK 05/04 Q1006 NOSIG=
201212260650 METAR COR EGLL 260650Z 22011KT CAVOK 05/03 Q1006 NOSIG=
201212260620 METAR COR EGLL 260620Z 22009KT 170V250 9999 FEW021 05/03
                        Q1006 NOSIG=
201212260550 METAR COR EGLL 260550Z 20006KT 170V270 9999 FEW026 05/03
                        Q1006 NOSIG=
201212260520 METAR COR EGLL 260520Z 23007KT 200V270 CAVOK 05/03 Q1006
                        NOSIG=
201212260450 METAR COR EGLL 260450Z 25009KT CAVOK 05/03 Q1006 NOSIG=
201212260420 METAR COR EGLL 260420Z 25012KT CAVOK 06/04 Q1005 NOSIG=
201212260350 METAR COR EGLL 260350Z 26012KT CAVOK 06/04 Q1005 NOSIG=
201212260320 METAR COR EGLL 260320Z 26011KT 9999 FEW038 06/04 Q1005 NOSIG=
201212260250 METAR COR EGLL 260250Z 26007KT 9999 FEW047 05/04 Q1004 NOSIG=
201212260220 METAR EGLL 260220Z AUTO VRB02KT 9999 FEW040/// 04/03 Q1004=
201212260150 METAR EGLL 260150Z AUTO VRB03KT 9999 NCD 04/02 Q1004=
201212260120 METAR EGLL 260120Z AUTO VRB02KT 9999 FEW029/// SCT046///
                        05/04 Q1003=
201212260050 METAR COR EGLL 260050Z 24005KT 9999 FEW048 05/03 Q1003 NOSIG=
201212260020 METAR COR EGLL 260020Z VRB03KT CAVOK 05/03 Q1003 NOSIG=
201212252350 METAR COR EGLL 252350Z 22006KT CAVOK 06/04 Q1003 NOSIG=
201212252320 METAR COR EGLL 252320Z 22005KT CAVOK 06/04 Q1003 NOSIG=
201212252250 METAR COR EGLL 252250Z 23006KT 180V250 CAVOK 06/04 Q1003
                        NOSIG=
201212252220 METAR COR EGLL 252220Z 23010KT CAVOK 07/04 Q1002 NOSIG=
201212252150 METAR COR EGLL 252150Z 23009KT 9999 FEW042 07/03 Q1002 NOSIG=
201212252120 METAR COR EGLL 252120Z 24010KT 9999 SCT042 08/04 Q1002 NOSIG=
201212252050 METAR COR EGLL 252050Z 25013KT 9999 BKN041 08/04 Q1001 NOSIG=
201212252020 METAR COR EGLL 252020Z 26014KT 9999 BKN040 08/04 Q1001 NOSIG=
201212251950 METAR COR EGLL 251950Z 25012KT 9999 BKN040 08/05 Q1001 NOSIG=
201212251920 METAR COR EGLL 251920Z 25012KT 9999 BKN041 08/05 Q1000 NOSIG=
201212251850 METAR COR EGLL 251850Z 25014KT 9999 BKN043 08/05 Q0999 NOSIG=
201212251820 METAR COR EGLL 251820Z 25013KT 9999 BKN045 08/05 Q0999 NOSIG=
201212251750 METAR COR EGLL 251750Z 25012KT 9999 FEW036 SCT044 08/05 Q0998
                        NOSIG=
201212251720 METAR COR EGLL 251720Z 26010KT 9999 SCT043 08/05 Q0998 NOSIG=
201212251650 METAR COR EGLL 251650Z 26017KT 9999 -SHRA FEW030 BKN042 09/05
                        Q0997 NOSIG=
201212251620 METAR COR EGLL 251620Z 25012KT 9999 FEW022 BKN047 09/06 Q0996
                        NOSIG=
201212251550 METAR COR EGLL 251550Z 26013KT 9999 FEW034 BKN043 09/06 Q0995
                        NOSIG=
201212251520 METAR COR EGLL 251520Z 25016KT 9999 FEW020 BKN039 09/06 Q0995
                        NOSIG=
201212251450 METAR COR EGLL 251450Z 25014KT 9999 SCT030 SCT042 09/06 Q0994
                        NOSIG=
201212251420 METAR COR EGLL 251420Z 25014G24KT 9999 VCSH SCT030 SCT039
                        09/06 Q0993 NOSIG=
201212251350 METAR COR EGLL 251350Z 26014KT 9999 SCT020 SCT033 09/06 Q0993
                        NOSIG=
201212251320 METAR COR EGLL 251320Z 26016KT 9999 SCT019 SCT033 09/06 Q0992
                        NOSIG=
201212251250 METAR COR EGLL 251250Z 26016KT 9999 FEW014 SCT023 09/07 Q0992
                        NOSIG=
201212251220 METAR COR EGLL 251220Z 25011KT 9999 FEW014 SCT040 08/07 Q0991
                        NOSIG=
201212251150 METAR COR EGLL 251150Z 23008KT 9999 FEW023 SCT040 08/07 Q0991
                        NOSIG=
201212251120 METAR COR EGLL 251120Z 22007KT 190V260 9999 -SHRA FEW022CB
                        SCT036 08/06 Q0990 TEMPO SHRA BKN014=
201212251050 METAR COR EGLL 251050Z 19009KT 9999 FEW022CB BKN030 07/06
                        Q0991 TEMPO SHRA BKN014=
201212251020 METAR COR EGLL 251020Z 19009KT 160V240 9999 SCT028 SCT043
                        07/06 Q0991 TEMPO SHRA BKN014=
201212250950 METAR COR EGLL 250950Z 21009KT 9999 -SHRA FEW020CB BKN028
                        07/06 Q0991 TEMPO 4000 +SHRA BKN014=
201212250920 METAR COR EGLL 250920Z 22011KT 9999 -SHRA FEW020CB BKN030
                        08/06 Q0992 RERA TEMPO 4000 +SHRA
                        BKN014=
201212250850 METAR COR EGLL 250850Z 23012KT 170V250 9999 SHRA FEW020CB
                        SCT039 08/06 Q0992 TEMPO 4000 +SHRA
                        BKN014=
201212250820 METAR COR EGLL 250820Z 19008KT 9999 FEW020CB SCT039 07/06
                        Q0992 TEMPO 4000 +SHRA BKN014=
201212250750 METAR COR EGLL 250750Z 16009KT 130V230 9999 -SHRA FEW020CB
                        BKN038 07/06 Q0992 TEMPO 4000 +SHRA
                        BKN014=
201212250720 METAR COR EGLL 250720Z 19007KT 9999 FEW018CB SCT038 07/06
                        Q0993 RESHRA TEMPO 4000 +SHRA BKN014=
201212250650 METAR COR EGLL 250650Z 23006KT 160V260 9000 SHRA SCT018CB
                        08/07 Q0993 TEMPO 4000 +SHRA BKN014=
201212250620 METAR COR EGLL 250620Z 21004KT 130V250 9999 -SHRA SCT019
                        07/06 Q0993 TEMPO 4000 SHRA BKN014CB=
201212250550 METAR COR EGLL 250550Z 16006KT 9999 FEW030 07/06 Q0993 TEMPO
                        4000 +SHRA BKN014CB=
201212250520 METAR COR EGLL 250520Z 18008KT 090V230 9999 FEW018 07/06
                        Q0993 RERA TEMPO 4000 +SHRA BKN014=
201212250450 METAR COR EGLL 250450Z 18007KT 160V230 9999 FEW013 07/06
                        Q0994 RERA TEMPO 4000 SHRA=
201212250420 METAR COR EGLL 250420Z 22007G17KT 180V270 5000 SHRA FEW010
                        BKN015CB 08/06 Q0994 TEMPO 4000 +SHRA=
201212250350 METAR COR EGLL 250350Z 18006KT 9999 FEW018 07/06 Q0995 NOSIG=
201212250320 METAR COR EGLL 250320Z 18007KT 9999 FEW015 07/06 Q0995 NOSIG=
201212250250 METAR EGLL 250250Z AUTO 17009KT 9999 FEW023/// 08/06 Q0995=
201212250220 METAR EGLL 250220Z AUTO 18006KT 9999 SCT020/// SCT024///
                        08/06 Q0995=
201212250150 METAR EGLL 250150Z AUTO 21008KT 9999 FEW026/// BKN035///
                        08/06 Q0995 RERA=
201212250120 METAR COR EGLL 250120Z 24015G26KT 9999 -RA FEW014 SCT033
                        08/06 Q0996 NOSIG=
201212250050 METAR COR EGLL 250050Z 19009KT 9999 FEW040 BKN047 08/07 Q0996
                        NOSIG=
201212250020 METAR COR EGLL 250020Z 19009KT 9999 SCT043 09/07 Q0995 NOSIG=
201212242350 METAR COR EGLL 242350Z 19011KT 9999 -RA FEW037 BKN041 09/07
                        Q0995 NOSIG=
201212242320 METAR COR EGLL 242320Z 21009KT 9999 -RA BKN036 09/07 Q0996
                        NOSIG=
201212242250 METAR COR EGLL 242250Z 21007KT 9999 -RA FEW013 SCT040 09/08
                        Q0996 TEMPO BKN014=
201212242220 METAR COR EGLL 242220Z 20006KT 170V240 9999 FEW017 09/08
                        Q0996 TEMPO 7000 -RA BKN014=
201212242150 METAR COR EGLL 242150Z 20007KT 9999 FEW016 SCT020 09/08 Q0996
                        TEMPO 7000 -RA BKN014=
201212242120 METAR COR EGLL 242120Z 19007KT 9999 -DZ SCT015 SCT020 09/08
                        Q0996 NOSIG=
201212242050 METAR COR EGLL 242050Z 19007KT 170V240 9999 FEW015 SCT017
                        BKN035 09/07 Q0997 NOSIG=
201212242020 METAR COR EGLL 242020Z 19007KT 9999 FEW020 SCT024 09/07 Q0997
                        NOSIG=
201212241950 METAR COR EGLL 241950Z VRB07KT 9999 FEW016 08/07 Q0997 NOSIG=
201212241920 METAR COR EGLL 241920Z 19006KT 150V240 CAVOK 08/07 Q0997
                        NOSIG=
201212241850 METAR COR EGLL 241850Z 21008KT CAVOK 08/07 Q0997 NOSIG=
201212241820 METAR COR EGLL 241820Z 21007KT CAVOK 09/07 Q0997 NOSIG=
201212241750 METAR COR EGLL 241750Z 21007KT 190V260 9999 FEW017 09/07
                        Q0997 NOSIG=
201212241720 METAR COR EGLL 241720Z 23010KT 9999 FEW015 SCT026 09/07 Q0997
                        NOSIG=
201212241650 METAR COR EGLL 241650Z 25011KT 9999 SCT018 BKN025 09/07 Q0997
                        NOSIG=
201212241620 METAR COR EGLL 241620Z 25014KT 9999 SCT018 BKN020 09/06 Q0996
                        NOSIG=
201212241550 METAR COR EGLL 241550Z 27015KT 9999 FEW018 BKN021 09/07 Q0996
                        TEMPO BKN012=
201212241520 METAR COR EGLL 241520Z 27015G26KT 9999 SCT021 10/07 Q0995
                        NOSIG=
201212241450 METAR COR EGLL 241450Z 27019KT 9999 SCT020 11/08 Q0994 NOSIG=
201212241420 METAR COR EGLL 241420Z 22015KT 9999 4000S RA BKN010 BKN017
                        12/10 Q0992 BECMG 9999 NSW SCT016=
201212241350 METAR COR EGLL 241350Z 21015KT 5000 -RADZ FEW008 BKN011 11/10
                        Q0992 BECMG 24016G28KT 4000 RA BKN009=
201212241320 METAR COR EGLL 241320Z 21015KT 5000 -RADZ SCT011 BKN014 11/10
                        Q0992 TEMPO 3500 +RA BKN008=
201212241250 METAR COR EGLL 241250Z 20019KT 170V240 9000 -RA SCT012 BKN018
                        12/10 Q0993 TEMPO 3000 +RA BKN008=
201212241220 METAR COR EGLL 241220Z 19017KT 170V230 9999 -RA SCT016 BKN021
                        12/10 Q0994 TEMPO 4500 RA BKN012=
201212241150 METAR COR EGLL 241150Z 19016KT 160V230 9000 -RA FEW017 BKN020
                        12/10 Q0995 TEMPO 4500 RA BKN012=
201212241120 METAR COR EGLL 241120Z 19014KT 160V240 9999 FEW017 BKN020
                        12/10 Q0996 TEMPO 20016G28KT 4500
                        RA BKN012=
201212241050 METAR COR EGLL 241050Z 19014KT 150V250 9999 BKN018 12/10
                        Q0996 TEMPO 20017G30KT BKN014=
201212241020 METAR COR EGLL 241020Z 19013KT 9999 BKN017 12/10 Q0997 NOSIG=
201212240950 METAR COR EGLL 240950Z 20013KT 9999 BKN016 12/10 Q0998 NOSIG=
201212240920 METAR COR EGLL 240920Z 20012KT 9999 BKN018 12/10 Q0998 TEMPO
                        BKN013=
201212240850 METAR COR EGLL 240850Z 20009KT 9000 BKN018 11/10 Q0998 BECMG
                        20019G30KT BKN013=
201212240820 METAR COR EGLL 240820Z 19007KT 150V230 9000 BKN018 10/09
                        Q0999 TEMPO BKN013=
201212240750 METAR COR EGLL 240750Z 16006KT 8000 -DZ FEW004 SCT008 BKN012
                        08/08 Q0999 BECMG 20015G25KT SCT010
                        BKN018=
201212240720 METAR COR EGLL 240720Z 12006KT 3200 -DZ BR FEW003 SCT004
                        BKN006 08/07 Q1000 BECMG 20014KT
                        9999 SCT006 BKN011=
201212240650 METAR COR EGLL 240650Z 12009KT 4500 -DZ FEW002 SCT004 BKN006
                        08/07 Q1000 REDZ TEMPO 6000=
201212240620 METAR COR EGLL 240620Z 11008KT 2600 DZ FEW002 BKN003 08/07
                        Q1001 TEMPO 5000 -DZ SCT003 BKN010=
201212240550 METAR COR EGLL 240550Z 11007KT 3300 RADZ FEW002 BKN003 BKN016
                        08/07 Q1002 TEMPO -RADZ SCT003 BKN012=
201212240520 METAR COR EGLL 240520Z 12007KT 4000 RADZ FEW002 BKN003 08/07
                        Q1002 TEMPO 6000 -RADZ=
201212240450 METAR COR EGLL 240450Z 13006KT 090V160 5000 -RADZ BKN003
                        BKN022 08/07 Q1003 TEMPO 3000 RADZ
                        SCT003 BKN012=
201212240420 METAR COR EGLL 240420Z 15005KT 9999 -RA FEW004 BKN026 08/07
                        Q1004 TEMPO FEW004 BKN012=
201212240350 METAR COR EGLL 240350Z 15005KT 9999 -RA SCT011 BKN033 08/07
                        Q1004 TEMPO BKN012=
201212240320 METAR COR EGLL 240320Z 16006KT 9999 -RA FEW012 SCT030 08/07
                        Q1005 RERA NOSIG=
201212240250 METAR EGLL 240250Z AUTO 17006KT 9999 RA BKN038/// 08/07 Q1005=
201212240220 METAR EGLL 240220Z AUTO 18007KT 9000 -RA BKN044/// 08/08
                        Q1006=
201212240150 METAR EGLL 240150Z AUTO 18005KT 9999 -RA SCT037/// BKN048///
                        09/08 Q1006=
201212240120 METAR EGLL 240120Z 18006KT 8000 -RA SCT034 09/08 Q1006=
201212240050 METAR COR EGLL 240050Z 19006KT 7000 -RA SCT011 09/08 Q1006
                        NOSIG=
201212240020 METAR EGLL 240020Z NIL=
201212232350 METAR COR EGLL 232350Z 18004KT CAVOK 09/07 Q1007 NOSIG=
201212232320 METAR COR EGLL 232320Z 19005KT CAVOK 09/07 Q1007 NOSIG=
201212232250 METAR COR EGLL 232250Z 20005KT 160V270 CAVOK 09/07 Q1007
                        NOSIG=
201212232220 METAR COR EGLL 232220Z 20005KT 140V260 CAVOK 09/07 Q1007
                        NOSIG=
201212232150 METAR COR EGLL 232150Z 20007KT 160V250 CAVOK 09/07 Q1006
                        NOSIG=
201212232120 METAR COR EGLL 232120Z 23007KT 190V270 CAVOK 09/07 Q1007
                        NOSIG=
201212232050 METAR COR EGLL 232050Z 21006KT 180V250 CAVOK 09/07 Q1006
                        NOSIG=
201212232020 METAR COR EGLL 232020Z 22006KT 190V270 CAVOK 10/07 Q1006
                        NOSIG=
201212231950 METAR COR EGLL 231950Z 24010KT CAVOK 10/07 Q1006 NOSIG=
201212231920 METAR COR EGLL 231920Z 24011KT CAVOK 11/07 Q1006 NOSIG=
201212231850 METAR COR EGLL 231850Z 25013KT CAVOK 11/07 Q1006 NOSIG=
201212231820 METAR COR EGLL 231820Z 25012KT CAVOK 11/07 Q1006 NOSIG=
201212231750 METAR COR EGLL 231750Z 24012KT CAVOK 11/08 Q1006 NOSIG=
201212231720 METAR COR EGLL 231720Z 24012KT 9999 FEW044 11/08 Q1005 NOSIG=
201212231650 METAR COR EGLL 231650Z 24013KT 9999 FEW044 11/08 Q1006 NOSIG=
201212231620 METAR COR EGLL 231620Z 23012KT 9999 FEW025 11/07 Q1006 NOSIG=
201212231550 METAR COR EGLL 231550Z 24012KT 9999 FEW048 11/07 Q1005 NOSIG=
201212231520 METAR COR EGLL 231520Z 24010KT 9999 FEW024 11/08 Q1005 NOSIG=
201212231450 METAR COR EGLL 231450Z 25009KT 9999 FEW024 11/08 Q1005 NOSIG=
201212231420 METAR COR EGLL 231420Z 25010KT 9999 FEW026 11/08 Q1005 NOSIG=
201212231350 METAR COR EGLL 231350Z 26011KT 9999 SCT025 BKN031 11/08 Q1005
                        NOSIG=
201212231320 METAR COR EGLL 231320Z 25012KT 9999 VCSH SCT028 SCT033 11/08
                        Q1004 NOSIG=
201212231250 METAR COR EGLL 231250Z 25013KT 9999 VCSH SCT037 12/08 Q1005
                        NOSIG=
201212231220 METAR COR EGLL 231220Z 25015KT 9999 FEW046 12/07 Q1004 NOSIG=
201212231150 METAR COR EGLL 231150Z 25015KT 9999 SCT040 12/08 Q1004 NOSIG=
201212231120 METAR COR EGLL 231120Z 25016KT 9999 SCT036 12/08 Q1004 NOSIG=
201212231050 METAR COR EGLL 231050Z 24013KT 9999 FEW024 12/08 Q1004 NOSIG=
201212231020 METAR COR EGLL 231020Z 24014KT 9999 FEW022 SCT030 12/09 Q1004
                        NOSIG=
201212230950 METAR COR EGLL 230950Z 24013KT 9999 FEW022 SCT034 12/09 Q1003
                        NOSIG=
201212230920 METAR COR EGLL 230920Z 25014KT 9999 FEW023 SCT033 12/09 Q1003
                        NOSIG=
201212230850 METAR EGLL 230850Z 24014KT 9999 SCT040 12/09 Q1002=
201212230820 METAR COR EGLL 230820Z 24014KT 9999 FEW023 SCT032 12/09 Q1002
                        NOSIG=
201212230750 METAR COR EGLL 230750Z 23015KT 9999 FEW022 SCT034 12/10 Q1001
                        NOSIG=
201212230720 METAR COR EGLL 230720Z 23015KT 9999 FEW021 SCT036 12/10 Q1001
                        NOSIG=
201212230650 METAR COR EGLL 230650Z 24014KT 9999 FEW018 SCT037 13/10 Q1001
                        NOSIG=
201212230620 METAR COR EGLL 230620Z 23015KT 9999 SCT019 13/10 Q1000 NOSIG=
201212230550 METAR COR EGLL 230550Z 23015KT 9999 FEW014 SCT020 13/11 Q1000
                        NOSIG=
201212230520 METAR COR EGLL 230520Z 23015KT 9999 FEW009 BKN014 13/11 Q1000
                        TEMPO FEW010 BKN015=
201212230450 METAR EGLL 230450Z 22012KT 9999 -RA SCT010 BKN014 13/11 Q1000=
201212230420 METAR COR EGLL 230420Z 22013KT 9999 -RA FEW010 BKN015 13/11
                        Q1000 NOSIG=
201212230350 METAR COR EGLL 230350Z 23017G27KT 9999 -RA BKN012 13/11 Q1000
                        NOSIG=
201212230320 METAR COR EGLL 230320Z 23015KT 9999 -RA BKN012 13/12 Q1000
                        NOSIG=
201212230250 METAR COR EGLL 230250Z 23015KT 9999 -RA BKN013 13/12 Q1001
                        NOSIG=
201212230220 METAR EGLL 230220Z AUTO 23016KT 9999 FEW008/// OVC010///
                        13/12 Q1001=
201212230150 METAR EGLL 230150Z AUTO 22015KT 9999 BKN009/// 13/12 Q1000=
201212230120 METAR EGLL 230120Z AUTO 23013KT 9999 -RA BKN010/// 13/12
                        Q1001=
201212230050 METAR COR EGLL 230050Z 23012KT 9999 -RA BKN013 13/12 Q1001
                        NOSIG=
201212230020 METAR COR EGLL 230020Z 22012KT 9999 -RA FEW007 BKN012 13/12
                        Q1001 RERA NOSIG=
201212222350 METAR COR EGLL 222350Z 23013KT 9999 -RA BKN011 13/11 Q1001
                        RERA NOSIG=
201212222320 METAR COR EGLL 222320Z 23013KT 9999 RA BKN012 13/11 Q1001
                        NOSIG=
201212222250 METAR COR EGLL 222250Z 23015KT 9999 -RA BKN015 13/11 Q1001
                        TEMPO BKN012=
201212222220 METAR COR EGLL 222220Z 24015KT 9999 BKN014 13/11 Q1001 TEMPO
                        RA=
201212222150 METAR COR EGLL 222150Z 23015KT 9999 FEW012 BKN016 13/11 Q1001
                        TEMPO BKN012=
201212222120 METAR COR EGLL 222120Z 23018KT 9999 -RA BKN012 13/12 Q1001
                        NOSIG=
201212222050 METAR COR EGLL 222050Z 23016KT 9999 -RA BKN011 13/12 Q1001
                        TEMPO RA BKN008=
201212222020 METAR COR EGLL 222020Z 23015KT 9999 -RA FEW008 BKN010 13/12
                        Q1001 TEMPO BKN008=
201212221950 METAR COR EGLL 221950Z 23014KT 9999 FEW009 BKN010 13/12 Q1001
                        TEMPO BKN008=
201212221920 METAR COR EGLL 221920Z 23015KT 9999 -RA BKN010 13/12 Q1001
                        TEMPO RA BKN008=
201212221850 METAR COR EGLL 221850Z 23015KT 9999 -RA BKN010 13/12 Q1001
                        TEMPO RA BKN008=
201212221820 METAR COR EGLL 221820Z 24013KT 9999 -RA OVC009 13/12 Q1001
                        TEMPO RA=
201212221750 METAR COR EGLL 221750Z 23011KT 9999 RA OVC009 13/12 Q1001
                        TEMPO BKN012=
201212221720 METAR COR EGLL 221720Z 23012KT 9999 -RA FEW007 BKN010 13/12
                        Q1001 TEMPO RA BKN008=
201212221650 METAR COR EGLL 221650Z 23012G22KT 9999 -RA BKN008 13/12 Q1001
                        TEMPO RA=
201212221620 METAR COR EGLL 221620Z 23012KT 9999 BKN009 13/12 Q1001 TEMPO
                        4000 RA=
201212221550 METAR COR EGLL 221550Z 23013KT 9999 BKN010 13/12 Q1001 TEMPO
                        RA BKN008=
201212221520 METAR COR EGLL 221520Z 23011KT 9999 FEW009 BKN011 13/12 Q1001
                        TEMPO RA BKN008=
201212221450 METAR COR EGLL 221450Z 24011KT 9999 SCT010 BKN014 13/12 Q1001
                        TEMPO RA BKN008=
201212221420 METAR COR EGLL 221420Z 23010KT 9999 FEW008 BKN010 13/12 Q1001
                        TEMPO RA BKN008=
201212221350 METAR COR EGLL 221350Z 22009KT 9999 -RA SCT006 SCT011 BKN014
                        12/11 Q1001 TEMPO 4000 RA BKN008=
201212221320 METAR COR EGLL 221320Z 22007KT 9999 FEW004 BKN011 12/11 Q1001
                        TEMPO 4000 RA BKN008=
201212221250 METAR COR EGLL 221250Z 21007KT 170V240 9999 SCT004 BKN011
                        11/10 Q1001 TEMPO BKN008=
201212221220 METAR COR EGLL 221220Z 20008KT 160V240 4800 -RA SCT002 SCT004
                        BKN011 10/10 Q1002 TEMPO BKN004=
201212221150 METAR COR EGLL 221150Z 19006KT 160V230 5000 -RA FEW003 BKN004
                        BKN010 10/09 Q1002 TEMPO 4000=
201212221120 METAR COR EGLL 221120Z 15005KT 080V190 6000 RA FEW004 BKN006
                        10/09 Q1002 TEMPO 4000 BKN004=
201212221050 METAR COR EGLL 221050Z 17006KT 9000 RA SCT007 BKN010 09/08
                        Q1003 TEMPO 4000 BKN008=
201212221020 METAR COR EGLL 221020Z 15007KT 9000 RA SCT006 BKN011 09/08
                        Q1003 TEMPO 4000 +RA BKN008=
201212220950 METAR COR EGLL 220950Z 16010KT 9999 -RA FEW007 BKN010 09/08
                        Q1004 TEMPO 4000 +RA BKN008=
201212220920 METAR COR EGLL 220920Z 15010KT 9999 -RA SCT009 BKN012 08/07
                        Q1004 TEMPO 4000 RA BKN008=
201212220850 METAR COR EGLL 220850Z 14012KT 9999 -RA SCT008 BKN010 08/07
                        Q1005 RERA TEMPO 4000 RA BKN008=
201212220820 METAR COR EGLL 220820Z 15011KT 9999 RA FEW008 SCT013 BKN015
                        08/07 Q1005 TEMPO 4000 BKN008=
201212220750 METAR COR EGLL 220750Z 15012KT 9999 RA FEW009 SCT011 BKN014
                        08/07 Q1006 NOSIG=
201212220720 METAR COR EGLL 220720Z 15011KT 9999 RA SCT010 BKN015 08/07
                        Q1006 NOSIG=
201212220650 METAR COR EGLL 220650Z 15010KT 9999 RA SCT010 BKN014 BKN020
                        08/07 Q1007 NOSIG=
201212220620 METAR COR EGLL 220620Z 15009KT 9999 RA FEW010 BKN011 BKN016
                        08/07 Q1007 NOSIG=
201212220550 METAR COR EGLL 220550Z 15010KT 9999 -RA SCT010 BKN012 08/06
                        Q1008 TEMPO RA=
201212220520 METAR COR EGLL 220520Z 16009KT 9999 -RA SCT013 SCT039 08/06
                        Q1009 TEMPO RA BKN012=
201212220450 METAR COR EGLL 220450Z 17009KT 9999 -RA FEW015 BKN039 08/06
                        Q1010 TEMPO BKN012=
201212220420 METAR COR EGLL 220420Z 18009KT 9999 -RA FEW015 BKN039 08/06
                        Q1010 NOSIG=
201212220350 METAR COR EGLL 220350Z 20007KT 9999 -RA FEW015 SCT024 08/07
                        Q1011 TEMPO BKN012=
201212220320 METAR COR EGLL 220320Z 21007KT 9999 -RA FEW012 SCT024 08/07
                        Q1012 TEMPO BKN012=
201212220250 METAR EGLL 220250Z 19005KT 7000 -RA FEW033 SCT038 08/07 Q1012=
201212220220 METAR EGLL 220220Z AUTO 18004KT 8000 -RA SCT006/// 07/06
                        Q1013=
201212220150 METAR EGLL 220150Z AUTO 18004KT 9999 SCT044/// 07/06 Q1013=
201212220120 METAR EGLL 220120Z AUTO 18004KT 9999 NCD 06/06 Q1013=
201212220050 METAR COR EGLL 220050Z 19003KT 9999 FEW048 06/05 Q1014 NOSIG=
201212220020 METAR COR EGLL 220020Z 17004KT CAVOK 06/05 Q1014 NOSIG=
201212212350 METAR COR EGLL 212350Z 21004KT CAVOK 06/05 Q1014 NOSIG=
201212212320 METAR COR EGLL 212320Z 21004KT CAVOK 06/05 Q1014 NOSIG=
201212212250 METAR COR EGLL 212250Z 22005G15KT 190V260 CAVOK 06/05 Q1014
                        NOSIG=
201212212220 METAR COR EGLL 212220Z 22006G17KT CAVOK 06/05 Q1014 NOSIG=
201212212150 METAR COR EGLL 212150Z 22007KT 180V260 9999 FEW028 06/05
                        Q1014 NOSIG=
201212212120 METAR COR EGLL 212120Z 22007KT 160V250 9999 FEW028 06/05
                        Q1014 NOSIG=
201212212050 METAR COR EGLL 212050Z 23008KT 9999 SCT028 07/06 Q1014 NOSIG=
201212212020 METAR COR EGLL 212020Z 23006KT 200V260 9999 FEW030 SCT040
                        07/06 Q1014 NOSIG=
201212211950 METAR COR EGLL 211950Z 24007KT 200V270 9999 FEW033 SCT042
                        07/05 Q1014 NOSIG=
201212211920 METAR COR EGLL 211920Z 23008KT 190V270 9999 BKN041 07/05
                        Q1014 NOSIG=
201212211850 METAR EGLL 211850Z 23009KT CAVOK 07/05 Q1014=
201212211820 METAR EGLL 211820Z AUTO 24008KT 9999 NCD 07/05 Q1014=
201212211750 METAR COR EGLL 211750Z 24007KT CAVOK 07/05 Q1013 NOSIG=
201212211720 METAR COR EGLL 211720Z 24007KT 200V270 CAVOK 07/05 Q1013
                        NOSIG=
201212211650 METAR COR EGLL 211650Z 25009KT CAVOK 08/05 Q1013 NOSIG=
201212211620 METAR COR EGLL 211620Z 24007KT 200V270 CAVOK 08/05 Q1012
                        NOSIG=
201212211550 METAR COR EGLL 211550Z 28009KT 9999 FEW032 08/05 Q1012 NOSIG=
201212211520 METAR COR EGLL 211520Z 28010KT 9999 FEW030 08/05 Q1012 NOSIG=
201212211450 METAR COR EGLL 211450Z 27009KT 9999 FEW028 SCT036 09/06 Q1012
                        NOSIG=
201212211420 METAR COR EGLL 211420Z 27009KT 9999 SCT034 09/06 Q1011 NOSIG=
201212211350 METAR COR EGLL 211350Z 27007KT 9999 FEW023 SCT030 09/05 Q1011
                        NOSIG=
201212211320 METAR COR EGLL 211320Z 27011KT 9999 FEW029 SCT033 09/06 Q1011
                        NOSIG=
201212211250 METAR COR EGLL 211250Z 27010KT 9999 FEW032 10/07 Q1011 NOSIG=
201212211220 METAR COR EGLL 211220Z 27011KT 9999 SCT031 BKN034 09/07 Q1011
                        NOSIG=
201212211150 METAR COR EGLL 211150Z 27010KT 9999 FEW029 SCT034 09/07 Q1010
                        NOSIG=
201212211120 METAR COR EGLL 211120Z 25010KT 9999 FEW009 SCT029 09/07 Q1010
                        NOSIG=
201212211050 METAR COR EGLL 211050Z 26010KT 9999 FEW009 SCT030 09/07 Q1010
                        NOSIG=
201212211020 METAR COR EGLL 211020Z 25010KT 9999 FEW007 08/07 Q1010 NOSIG=
201212210950 METAR COR EGLL 210950Z 25009KT 9999 FEW008 08/07 Q1009 NOSIG=
201212210920 METAR COR EGLL 210920Z 24007KT 9999 FEW010 07/06 Q1009 NOSIG=
201212210850 METAR COR EGLL 210850Z 24007KT 200V270 9000 NSC 06/05 Q1008
                        NOSIG=
201212210820 METAR COR EGLL 210820Z 24007KT 9000 NSC 06/05 Q1007 NOSIG=
201212210750 METAR COR EGLL 210750Z 22007KT 9999 FEW008 06/06 Q1007 NOSIG=
201212210720 METAR COR EGLL 210720Z 22007KT 9999 SCT011 07/06 Q1007 NOSIG=
201212210650 METAR COR EGLL 210650Z 21006KT 9999 SCT011 BKN013 06/06 Q1006
                        BECMG SCT014=
201212210620 METAR EGLL 210620Z 21005KT 9999 SCT015 06/06 Q1006=
201212210550 METAR EGLL 210550Z 21004KT 9999 FEW011 SCT015 06/06 Q1006=
201212210520 METAR COR EGLL 210520Z 19004KT 9999 SCT017 06/06 Q1005 TEMPO
                        BKN012=
201212210450 METAR COR EGLL 210450Z 18003KT 9999 SCT030 06/05 Q1005 NOSIG=
201212210420 METAR COR EGLL 210420Z 23007KT 9999 FEW028 07/06 Q1005 TEMPO
                        BKN014=
201212210350 METAR COR EGLL 210350Z 24008KT 9999 FEW011 SCT017 07/06 Q1005
                        TEMPO BKN014=
201212210320 METAR COR EGLL 210320Z 23007KT 9999 SCT016 07/06 Q1005 TEMPO
                        BKN014=
201212210250 METAR EGLL 210250Z AUTO 23008KT 9999 NCD 07/06 Q1005=
201212210220 METAR EGLL 210220Z AUTO 22007KT 9999 FEW042/// 07/06 Q1004=
201212210150 METAR EGLL 210150Z AUTO 23007KT 9999 SCT036/// 07/06 Q1004=
201212210120 METAR COR EGLL 210120Z 22006KT CAVOK 07/06 Q1004 NOSIG=
201212210050 METAR COR EGLL 210050Z 23007KT CAVOK 07/06 Q1004 NOSIG=
201212210020 METAR COR EGLL 210020Z 22006KT CAVOK 08/06 Q1003 NOSIG=
201212202350 METAR COR EGLL 202350Z 23008KT 9999 FEW045 08/06 Q1003 NOSIG=
201212202320 METAR COR EGLL 202320Z 23009KT CAVOK 08/07 Q1003 NOSIG=
201212202250 METAR COR EGLL 202250Z 24010KT 9999 FEW047 08/06 Q1002 NOSIG=
201212202220 METAR COR EGLL 202220Z 23009KT 9999 FEW033 08/06 Q1002 NOSIG=
201212202150 METAR COR EGLL 202150Z 24011KT 9999 FEW045 08/06 Q1002 NOSIG=
201212202120 METAR COR EGLL 202120Z 23010KT 9999 FEW030 08/06 Q1001 NOSIG=
201212202050 METAR COR EGLL 202050Z 24010KT 9999 FEW030 09/07 Q1001 NOSIG=
201212202020 METAR COR EGLL 202020Z 25010KT 9999 FEW018 09/07 Q1001 NOSIG=
201212201950 METAR COR EGLL 201950Z 25013KT 9999 SCT018 09/07 Q1000 TEMPO
                        BKN014=
201212201920 METAR COR EGLL 201920Z 24013KT 9999 FEW010 BKN018 09/08 Q1000
                        TEMPO BKN012=
201212201850 METAR COR EGLL 201850Z 25011KT 9999 FEW006 BKN014 10/08 Q0999
                        TEMPO SCT012 BKN040=
201212201820 METAR EGLL 201820Z AUTO 25012KT 9999 BKN031/// 10/08 Q0999=
201212201750 METAR COR EGLL 201750Z 25012KT 9999 FEW004 SCT032 10/09 Q0998
                        NOSIG=
201212201720 METAR COR EGLL 201720Z 16008KT 130V220 9000 -RADZ FEW004
                        BKN007 10/09 Q0998 BECMG 25012KT
                        FEW008 BKN012=
201212201650 METAR COR EGLL 201650Z 13007KT 070V200 9999 BKN004 09/09
                        Q0997 BECMG 25013KT FEW006 BKN012=
201212201620 METAR COR EGLL 201620Z 15007KT 5000 -RADZ SCT004 BKN007 09/08
                        Q0997 BECMG 25014KT SCT005 BKN010=
201212201550 METAR COR EGLL 201550Z 13009KT 6000 -RADZ FEW004 BKN005 09/08
                        Q0997 TEMPO 4500=
201212201520 METAR COR EGLL 201520Z 12010KT 5000 -RADZ FEW004 BKN006 09/08
                        Q0997 TEMPO 4000=
201212201450 METAR COR EGLL 201450Z 12010KT 5000 -RADZ FEW006 BKN008 09/08
                        Q0998 NOSIG=
201212201420 METAR COR EGLL 201420Z 12012KT 9999 -RADZ FEW006 BKN010 09/08
                        Q0998 TEMPO BKN008=
201212201350 METAR EGLL 201350Z AUTO 13010KT 9000 -RA OVC009/// 09/08
                        Q0998 RERA=
201212201320 METAR COR EGLL 201320Z 13010KT 7000 -RADZ FEW006 BKN010 10/08
                        Q0999 TEMPO RADZ BKN008=
201212201250 METAR COR EGLL 201250Z 14011KT 9999 -RADZ FEW007 BKN010 10/09
                        Q0999 TEMPO RADZ BKN008=
201212201220 METAR COR EGLL 201220Z 14010KT 9999 -RADZ FEW008 BKN010 10/09
                        Q0999 RERA REDZ TEMPO RADZ BKN008=
201212201150 METAR COR EGLL 201150Z 13010KT 9999 -RADZ FEW006 SCT007 BKN010
                        10/09 Q1000 RERA REDZ TEMPO RADZ
                        BKN008=
201212201120 METAR COR EGLL 201120Z 13009KT 6000 RADZ FEW005 SCT007 BKN009
                        10/09 Q1000 TEMPO 4500=
201212201050 METAR COR EGLL 201050Z 12009KT 7000 RADZ SCT007 BKN009 10/09
                        Q1001 TEMPO 4500=
201212201020 METAR COR EGLL 201020Z 12010KT 9999 -RA SCT007 BKN009 10/09
                        Q1001 RERA REDZ TEMPO RADZ=
201212200950 METAR COR EGLL 200950Z 11010KT 9999 -RADZ FEW005 SCT007 BKN011
                        10/09 Q1001 RERA REDZ TEMPO BKN008=
201212200920 METAR COR EGLL 200920Z 11009KT 9999 -RADZ FEW006 BKN008 09/09
                        Q1001 NOSIG=
201212200850 METAR COR EGLL 200850Z 11008KT 9999 -RADZ FEW004 SCT006 BKN008
                        09/08 Q1002 NOSIG=
201212200820 METAR COR EGLL 200820Z 10007KT 9000 -RADZ FEW005 BKN007 08/08
                        Q1002 REDZ TEMPO RADZ=
201212200750 METAR COR EGLL 200750Z 09007KT 9000 -RADZ SCT007 BKN008 08/08
                        Q1002 REDZ TEMPO 4500 RADZ=
201212200720 METAR COR EGLL 200720Z 10008KT 7000 -RADZ SCT006 BKN008 08/07
                        Q1003 RERA TEMPO 4500 RADZ=
201212200650 METAR COR EGLL 200650Z 10008KT 9999 -RA FEW007 BKN008 08/07
                        Q1003 TEMPO 4500 RADZ=
201212200620 METAR COR EGLL 200620Z 10009KT 8000 RA SCT008 BKN010 08/07
                        Q1003 TEMPO 4500 RADZ BKN008=
201212200550 METAR COR EGLL 200550Z 10009KT 7000 RA SCT008 BKN010 07/07
                        Q1004 TEMPO 4500 RADZ BKN008=
201212200520 METAR COR EGLL 200520Z 10009KT 7000 RA FEW006 SCT008 BKN010
                        07/07 Q1004 REDZ TEMPO 4500 RADZ
                        BKN008=
201212200450 METAR COR EGLL 200450Z 10009KT 5000 RADZ FEW005 SCT007 BKN010
                        07/06 Q1005 NOSIG=
201212200420 METAR COR EGLL 200420Z 11009KT 5000 RADZ FEW006 SCT008 BKN010
                        07/06 Q1005 NOSIG=
201212200350 METAR COR EGLL 200350Z 11010KT 8000 -RA FEW007 BKN010 07/06
                        Q1005 RERA TEMPO 4500 RADZ BKN008=
201212200320 METAR COR EGLL 200320Z 10011KT 9000 RA FEW007 BKN011 07/06
                        Q1006 TEMPO 4500 RADZ BKN008=
201212200250 METAR COR EGLL 200250Z 11011KT 7000 RA FEW007 BKN011 07/06
                        Q1007 TEMPO 4500 RADZ BKN008=
201212200220 METAR EGLL 200220Z AUTO 11009KT 6000 RA BKN005/// 07/06 Q1007
                        RERA=
201212200150 METAR EGLL 200150Z AUTO 11011KT 5000 RA OVC005/// BKN008///
                        07/06 Q1008=
201212200120 METAR EGLL 200120Z AUTO 11010KT 7000 RA OVC006/// 07/06 Q1008
                        RERA=
201212200050 METAR COR EGLL 200050Z 11010KT 4500 RADZ SCT008 BKN010 07/06
                        Q1009 TEMPO BKN008=
201212200020 METAR COR EGLL 200020Z 11011KT 7000 RA FEW006 SCT008 BKN011
                        07/06 Q1009 TEMPO 4500 RADZ BKN007=
201212192350 METAR COR EGLL 192350Z 12010KT 5000 RA FEW006 SCT008 BKN010
                        07/06 Q1010 NOSIG=
201212192320 METAR COR EGLL 192320Z 12011KT 9999 FEW006 BKN007 07/06 Q1010
                        NOSIG=
201212192250 METAR COR EGLL 192250Z 11012KT 6000 -RA FEW006 BKN008 07/06
                        Q1011 RERA REDZ NOSIG=
201212192220 METAR COR EGLL 192220Z 12010KT 5000 RADZ BKN008 07/06 Q1011
                        NOSIG=
201212192150 METAR COR EGLL 192150Z 12010KT 3700 +DZ BKN007 07/06 Q1011
                        BECMG 6000 -RADZ=
201212192120 METAR COR EGLL 192120Z 12011KT 3500 +RADZ FEW007 BKN008 07/06
                        Q1012 BECMG 7000 -RA=
201212192050 METAR COR EGLL 192050Z 13011KT 9000 -DZ OVC008 07/06 Q1012
                        NOSIG=
201212192020 METAR COR EGLL 192020Z 13010KT 9000 -DZ FEW007 OVC009 07/06
                        Q1012 NOSIG=
201212191950 METAR COR EGLL 191950Z 12013KT 6000 -DZ FEW007 OVC009 07/06
                        Q1012 NOSIG=
201212191920 METAR COR EGLL 191920Z 12011KT 8000 -RADZ FEW007 BKN009 07/05
                        Q1013 RERA TEMPO BKN010=
201212191850 METAR COR EGLL 191850Z 12012KT 9999 -RADZ FEW007 OVC009 07/06
                        Q1013 TEMPO BKN010=
201212191820 METAR EGLL 191820Z AUTO 11011KT 5000 +DZ BKN010/// 06/05
                        Q1013=
201212191750 METAR COR EGLL 191750Z 12010KT 3800 RADZ FEW009 BKN012 BKN025
                        06/05 Q1014 RERA TEMPO 7000=
201212191720 METAR COR EGLL 191720Z 12011KT 4500 RA SCT012 BKN027 06/05
                        Q1014 BECMG 8000 -RA BKN012=
201212191650 METAR COR EGLL 191650Z 11011KT 6000 RA SCT022 BKN038 06/05
                        Q1014 BECMG BKN012=
201212191620 METAR COR EGLL 191620Z 12013KT 9999 SCT024 07/04 Q1014 NOSIG=
201212191550 METAR COR EGLL 191550Z 12014KT 9999 -RA NSC 07/04 Q1015 NOSIG=
201212191520 METAR COR EGLL 191520Z 11012KT 9999 FEW038 07/04 Q1015 NOSIG=
201212191450 METAR COR EGLL 191450Z 11011KT 9999 -RA SCT038 07/05 Q1015
                        NOSIG=
201212191420 METAR COR EGLL 191420Z 11012KT 9999 -RA FEW038 BKN044 07/05
                        Q1016 NOSIG=
201212191350 METAR COR EGLL 191350Z 11010KT 9999 -RA SCT033 07/05 Q1016
                        NOSIG=
201212191320 METAR COR EGLL 191320Z 12010KT 9999 -RA SCT025 SCT033 07/04
                        Q1016 NOSIG=
201212191250 METAR COR EGLL 191250Z 12011KT 9999 -RA FEW025 BKN035 07/04
                        Q1017 NOSIG=
201212191220 METAR COR EGLL 191220Z 13010KT 100V160 9999 -RA FEW025 07/04
                        Q1017 NOSIG=
201212191150 METAR COR EGLL 191150Z 13012KT 9999 FEW025 07/04 Q1017 NOSIG=
201212191120 METAR COR EGLL 191120Z 12012KT 9999 FEW025 08/04 Q1017 NOSIG=
201212191050 METAR COR EGLL 191050Z 12010KT 9999 FEW025 07/05 Q1017 NOSIG=
201212191020 METAR COR EGLL 191020Z 11010KT 9999 FEW025 07/05 Q1017 NOSIG=
201212190950 METAR COR EGLL 190950Z 10006KT CAVOK 06/05 Q1017 NOSIG=
201212190920 METAR COR EGLL 190920Z 11008KT 9999 FEW025 06/04 Q1018 NOSIG=
201212190850 METAR COR EGLL 190850Z 09006KT 9000 NSC 05/04 Q1018 NOSIG=
201212190820 METAR COR EGLL 190820Z 10008KT 9000 FEW025 05/04 Q1018 NOSIG=
201212190750 METAR COR EGLL 190750Z 10008KT 8000 FEW025 05/04 Q1018 NOSIG=
201212190720 METAR COR EGLL 190720Z 10007KT 9000 FEW036 05/04 Q1018 NOSIG=
201212190650 METAR COR EGLL 190650Z 10007KT 9999 SCT036 04/03 Q1018 NOSIG=
201212190620 METAR COR EGLL 190620Z 09006KT 6000 SCT037 04/03 Q1018 NOSIG=
201212190550 METAR COR EGLL 190550Z 10006KT 6000 SCT038 03/02 Q1018 NOSIG=
201212190520 METAR COR EGLL 190520Z 09007KT 7000 SCT038 03/02 Q1018 NOSIG=
201212190450 METAR COR EGLL 190450Z 08006KT 6000 SCT036 02/02 Q1019 NOSIG=
201212190420 METAR COR EGLL 190420Z 08005KT 6000 FEW035 02/01 Q1019 NOSIG=
201212190350 METAR COR EGLL 190350Z 08004KT 6000 NSC 02/01 Q1019 NOSIG=
201212190320 METAR COR EGLL 190320Z 06004KT 6000 NSC 02/02 Q1019 TEMPO
                        4000 BR=
201212190250 METAR COR EGLL 190250Z 09003KT 6000 NSC 02/02 Q1019 TEMPO
                        4000 BR=
201212190220 METAR COR EGLL 190220Z 00000KT 6000 NSC 03/02 Q1019 TEMPO
                        4000 BR=
201212190150 METAR COR EGLL 190150Z 09003KT 6000 NSC 03/02 Q1019 TEMPO
                        3000 BR=
201212190120 METAR COR EGLL 190120Z 08004KT 6000 NSC 03/02 Q1019 TEMPO
                        3000 BR=
201212190050 METAR COR EGLL 190050Z 07003KT 6000 NSC 03/02 Q1020 TEMPO
                        3000 BR=
201212190020 METAR EGLL 190020Z NIL=
201212182350 METAR COR EGLL 182350Z VRB02KT 6000 NSC 03/02 Q1020 TEMPO
                        3000 BR=
201212182320 METAR COR EGLL 182320Z VRB03KT 6000 NSC 03/02 Q1020 TEMPO
                        4500 BR=
201212182250 METAR COR EGLL 182250Z 18004KT 120V250 6000 NSC 04/03 Q1020
                        TEMPO 4500 BR=
201212182220 METAR COR EGLL 182220Z VRB04KT 8000 FEW018 05/03 Q1020 TEMPO
                        4500 BR=
201212182150 METAR COR EGLL 182150Z 07002KT 9999 SCT034 06/04 Q1019 TEMPO
                        4500 BR=
201212182120 METAR COR EGLL 182120Z 06003KT 9000 SCT034 06/04 Q1019 TEMPO
                        4500 BR=
201212182050 METAR COR EGLL 182050Z VRB03KT 9999 BKN035 07/04 Q1019 NOSIG=
201212182020 METAR COR EGLL 182020Z VRB02KT 9999 FEW018 BKN036 07/04 Q1020
                        NOSIG=
201212181950 METAR COR EGLL 181950Z VRB02KT 9999 FEW018 BKN037 07/04 Q1020
                        NOSIG=
201212181920 METAR COR EGLL 181920Z 35002KT 9999 FEW018 BKN038 07/04 Q1019
                        NOSIG=
201212181850 METAR COR EGLL 181850Z 00000KT 9999 FEW018 BKN038 07/04 Q1019
                        NOSIG=
201212181820 METAR COR EGLL 181820Z 28003KT 9999 FEW017 BKN038 07/04 Q1019
                        NOSIG=
201212181750 METAR COR EGLL 181750Z 29003KT 9999 FEW017 BKN039 07/04 Q1019
                        NOSIG=
201212181720 METAR COR EGLL 181720Z VRB03KT 9999 BKN040 07/04 Q1018 NOSIG=
201212181650 METAR COR EGLL 181650Z 36003KT 9999 BKN041 07/04 Q1018 NOSIG=
201212181620 METAR COR EGLL 181620Z VRB03KT 9999 BKN042 08/04 Q1018 NOSIG=
201212181550 METAR COR EGLL 181550Z 30004KT 9999 BKN043 08/04 Q1018 NOSIG=
201212181520 METAR COR EGLL 181520Z 30005KT 9999 FEW016 BKN043 08/04 Q1018
                        NOSIG=
201212181450 METAR COR EGLL 181450Z 31004KT 280V340 9999 FEW016 BKN043
                        08/05 Q1017 NOSIG=
201212181420 METAR COR EGLL 181420Z 30005KT 270V350 9999 FEW016 BKN042
                        08/05 Q1017 NOSIG=
201212181350 METAR EGLL 181350Z NIL=
201212181320 METAR COR EGLL 181320Z 32005KT 290V360 9999 BKN042 08/05
                        Q1016 NOSIG=
201212181250 METAR COR EGLL 181250Z 31005KT 280V350 9999 BKN042 08/05
                        Q1016 NOSIG=
201212181220 METAR COR EGLL 181220Z 30005KT 9999 BKN042 08/04 Q1016 NOSIG=
201212181150 METAR COR EGLL 181150Z 30006KT 9999 BKN043 07/04 Q1016 NOSIG=
201212181120 METAR COR EGLL 181120Z 27009KT 9999 BKN044 07/04 Q1016 NOSIG=
201212181050 METAR COR EGLL 181050Z 27008KT 9999 BKN044 07/04 Q1016 NOSIG=
201212181020 METAR COR EGLL 181020Z 28006KT 9999 BKN046 07/04 Q1015 NOSIG=
201212180950 METAR COR EGLL 180950Z 30005KT 9999 BKN044 07/04 Q1015 NOSIG=
201212180920 METAR COR EGLL 180920Z 31005KT 9999 BKN045 07/04 Q1014 NOSIG=
201212180850 METAR COR EGLL 180850Z 30006KT 9999 SCT046 06/04 Q1013 NOSIG=
201212180820 METAR EGLL 180820Z 29006KT 9999 FEW026 06/03 Q1013=
201212180750 METAR COR EGLL 180750Z 31005KT 9999 FEW046 06/03 Q1013 NOSIG=
201212180720 METAR COR EGLL 180720Z 31007KT 9999 SCT046 07/03 Q1012 NOSIG=
201212180650 METAR COR EGLL 180650Z 30006KT 9999 BKN047 07/03 Q1012 NOSIG=
201212180620 METAR COR EGLL 180620Z 29006KT 9999 BKN036 07/04 Q1011 NOSIG=
201212180550 METAR COR EGLL 180550Z 30006KT 9999 FEW026 BKN036 07/04 Q1011
                        NOSIG=
201212180520 METAR COR EGLL 180520Z 29006KT 9999 FEW020 BKN035 06/04 Q1010
                        NOSIG=
201212180450 METAR COR EGLL 180450Z 28006KT 9999 FEW020 BKN039 06/04 Q1010
                        NOSIG=
201212180420 METAR COR EGLL 180420Z 29006KT 9999 FEW022 BKN044 06/04 Q1009
                        NOSIG=
201212180350 METAR COR EGLL 180350Z 29007KT 9999 BKN044 05/04 Q1009 NOSIG=
201212180320 METAR COR EGLL 180320Z 27005KT 9999 SCT042 05/04 Q1009 NOSIG=
201212180250 METAR COR EGLL 180250Z 28005KT 9999 SCT044 05/04 Q1008 NOSIG=
201212180220 METAR EGLL 180220Z AUTO 27007KT 9999 SCT042/// 04/03 Q1008=
201212180150 METAR EGLL 180150Z AUTO 28008KT 9999 SCT033/// 04/03 Q1007=
201212180120 METAR EGLL 180120Z AUTO 27007KT 9999 BKN033/// 05/04 Q1006=
201212180050 METAR COR EGLL 180050Z 27007KT 9999 FEW047 05/03 Q1006 NOSIG=
201212180020 METAR COR EGLL 180020Z 26006KT CAVOK 05/03 Q1006 NOSIG=
201212172350 METAR COR EGLL 172350Z 21004KT CAVOK 05/03 Q1006 NOSIG=
201212172320 METAR COR EGLL 172320Z 24006KT 200V260 CAVOK 05/03 Q1005
                        NOSIG=
201212172250 METAR COR EGLL 172250Z 24008KT CAVOK 06/03 Q1005 NOSIG=
201212172220 METAR COR EGLL 172220Z 23009KT 9999 FEW047 06/04 Q1005 NOSIG=
201212172150 METAR COR EGLL 172150Z 23009KT 200V260 CAVOK 06/04 Q1005
                        NOSIG=
201212172120 METAR COR EGLL 172120Z 24010KT CAVOK 06/04 Q1005 NOSIG=
201212172050 METAR COR EGLL 172050Z 23009KT CAVOK 06/04 Q1005 NOSIG=
201212172020 METAR EGLL 172020Z AUTO 23009KT 210V270 9999 NCD 07/04 Q1005=
201212171950 METAR COR EGLL 171950Z 22009KT CAVOK 07/04 Q1004 NOSIG=
201212171920 METAR COR EGLL 171920Z 23010KT CAVOK 07/04 Q1004 NOSIG=
201212171850 METAR COR EGLL 171850Z 23011KT CAVOK 07/04 Q1004 NOSIG=
201212171820 METAR COR EGLL 171820Z 23013KT CAVOK 07/04 Q1004 NOSIG=
201212171750 METAR COR EGLL 171750Z 22009KT CAVOK 06/03 Q1004 NOSIG=
201212171720 METAR EGLL 171720Z AUTO 22008KT 190V250 9999 NCD 06/03 Q1004=
201212171650 METAR COR EGLL 171650Z 23010KT 9999 FEW022 07/03 Q1004 NOSIG=
201212171620 METAR COR EGLL 171620Z 24010KT CAVOK 08/03 Q1003 NOSIG=
201212171550 METAR COR EGLL 171550Z 25011KT 9999 FEW028 08/04 Q1003 NOSIG=
201212171520 METAR EGLL 171520Z 24011KT 9999 FEW028 08/04 Q1003=
201212171450 METAR COR EGLL 171450Z 25011KT 9999 FEW028 09/04 Q1003 NOSIG=
201212171420 METAR COR EGLL 171420Z 25010KT 9999 FEW028 09/04 Q1003 NOSIG=
201212171350 METAR COR EGLL 171350Z 26012KT 9999 FEW020 09/04 Q1003 NOSIG=
201212171320 METAR COR EGLL 171320Z 26011KT 9999 FEW020 09/05 Q1003 NOSIG=
201212171250 METAR COR EGLL 171250Z 26011G21KT 9999 FEW022 09/05 Q1002
                        NOSIG=
201212171220 METAR COR EGLL 171220Z 27011KT 9999 FEW021 09/05 Q1002 NOSIG=
201212171150 METAR COR EGLL 171150Z 27011KT 9999 FEW021 09/05 Q1002 NOSIG=
201212171120 METAR COR EGLL 171120Z 27011KT 9999 FEW037 08/05 Q1002 NOSIG=
201212171050 METAR COR EGLL 171050Z 25011KT 9999 FEW037 08/05 Q1002 NOSIG=
201212171020 METAR COR EGLL 171020Z 25010KT CAVOK 08/05 Q1002 NOSIG=
201212170950 METAR COR EGLL 170950Z 24011KT 9999 FEW040 07/04 Q1001 NOSIG=
201212170920 METAR COR EGLL 170920Z 24009KT 9999 FEW040 06/04 Q1001 NOSIG=
201212170850 METAR COR EGLL 170850Z 24009KT 9999 SCT043 06/04 Q1000 NOSIG=
201212170820 METAR COR EGLL 170820Z 24009KT 9999 SCT044 06/04 Q1000 NOSIG=
201212170750 METAR COR EGLL 170750Z 25009KT 9999 FEW021 06/04 Q1000 NOSIG=
201212170720 METAR COR EGLL 170720Z 24008KT CAVOK 05/04 Q1000 NOSIG=
201212170650 METAR COR EGLL 170650Z 23008KT CAVOK 05/04 Q0999 NOSIG=
201212170620 METAR COR EGLL 170620Z 22006KT 190V270 CAVOK 05/04 Q0999
                        NOSIG=
201212170550 METAR COR EGLL 170550Z 21004KT CAVOK 05/04 Q0998 NOSIG=
201212170520 METAR COR EGLL 170520Z 21004KT 9999 FEW043 05/04 Q0998 NOSIG=
201212170450 METAR COR EGLL 170450Z 22005KT 9999 FEW049 06/04 Q0998 NOSIG=
201212170420 METAR COR EGLL 170420Z 21006KT 9999 FEW049 06/05 Q0998 NOSIG=
201212170350 METAR COR EGLL 170350Z 22007KT CAVOK 06/05 Q0998 NOSIG=
201212170320 METAR COR EGLL 170320Z 21007KT CAVOK 06/05 Q0998 NOSIG=
201212170250 METAR COR EGLL 170250Z 21006KT 9000 NSC 06/05 Q0998 NOSIG=
201212170220 METAR EGLL 170220Z AUTO 21006KT 9000 NCD 06/05 Q0998=
201212170150 METAR EGLL 170150Z AUTO 21008KT 9000 NCD 06/05 Q0998=
201212170120 METAR EGLL 170120Z AUTO 21007KT 9999 NCD 06/05 Q0998=
201212170050 METAR COR EGLL 170050Z 20006KT CAVOK 06/05 Q0998 NOSIG=
201212170020 METAR COR EGLL 170020Z 18006KT CAVOK 06/05 Q0999 NOSIG=
201212162350 METAR COR EGLL 162350Z 19008KT CAVOK 06/05 Q0999 NOSIG=
201212162320 METAR EGLL 162320Z 20006KT CAVOK 06/05 Q0999=
201212162250 METAR COR EGLL 162250Z 21007KT CAVOK 06/05 Q0998 NOSIG=
201212162220 METAR COR EGLL 162220Z 20008KT 9999 FEW045 07/05 Q0998 NOSIG=
201212162150 METAR COR EGLL 162150Z 21007KT 9999 SCT039 07/06 Q0998 NOSIG=
201212162120 METAR COR EGLL 162120Z 19009KT 150V210 9999 SCT030 SCT038
                        07/05 Q0999 NOSIG=
201212162050 METAR COR EGLL 162050Z 17006KT 130V230 9999 FEW035 06/05
                        Q0999 NOSIG=
201212162020 METAR COR EGLL 162020Z 16007KT 110V220 9999 FEW022 06/05
                        Q0999 NOSIG=
201212161950 METAR COR EGLL 161950Z 16008KT 110V180 9999 FEW029 06/05
                        Q0999 NOSIG=
201212161920 METAR COR EGLL 161920Z 16008KT 140V200 9999 FEW025 07/05
                        Q0999 NOSIG=
201212161850 METAR COR EGLL 161850Z 18009KT 150V230 9999 FEW025 06/05
                        Q0999 NOSIG=
201212161820 METAR COR EGLL 161820Z 18009G19KT 9999 FEW028 06/05 Q0999
                        NOSIG=
201212161750 METAR COR EGLL 161750Z 16008KT 130V220 9999 FEW047 06/04
                        Q1000 TEMPO SHRA=
201212161720 METAR COR EGLL 161720Z 18009KT 150V240 9999 FEW049 06/04
                        Q1000 TEMPO SHRA=
201212161650 METAR COR EGLL 161650Z 19010KT 9999 FEW021 SCT030CB 07/05
                        Q1000 RESHRA NOSIG=
201212161620 METAR COR EGLL 161620Z 21009KT 9999 -SHRA SCT021CB SCT035
                        09/06 Q1000 RESHRA NOSIG=
201212161550 METAR COR EGLL 161550Z 15006KT 120V280 9999 VCSH SCT023CB
                        08/05 Q0999 TEMPO 20015G25KT 4500
                        +SHRA BKN014CB=
201212161520 METAR COR EGLL 161520Z 16007KT 100V280 9999 SCT025CB 09/05
                        Q0999 TEMPO 4500 +SHRA BKN014CB=
201212161450 METAR COR EGLL 161450Z 20008KT 150V240 9999 FEW025 09/05
                        Q1000 NOSIG=
201212161420 METAR EGLL 161420Z 21007KT 160V250 9999 FEW025 09/05 Q1000=
201212161350 METAR COR EGLL 161350Z 21007KT 170V270 9999 SCT027 10/06
                        Q1000 NOSIG=
201212161320 METAR COR EGLL 161320Z 21009KT 170V250 9999 SCT027 10/06
                        Q1000 NOSIG=
201212161250 METAR COR EGLL 161250Z 21009KT 180V260 9999 FEW022 10/06
                        Q1000 NOSIG=
201212161220 METAR COR EGLL 161220Z 22007KT 180V270 9999 FEW016 10/06
                        Q1001 NOSIG=
201212161150 METAR COR EGLL 161150Z 24009KT 190V260 9999 FEW016 10/06
                        Q1001 NOSIG=
201212161120 METAR COR EGLL 161120Z 23009KT CAVOK 09/06 Q1001 NOSIG=
201212161050 METAR COR EGLL 161050Z 23007KT 190V270 CAVOK 08/05 Q1001
                        NOSIG=
201212161020 METAR COR EGLL 161020Z 24010KT CAVOK 08/05 Q1001 NOSIG=
201212160950 METAR COR EGLL 160950Z 24009KT CAVOK 07/05 Q1001 NOSIG=
201212160920 METAR COR EGLL 160920Z 23008KT 9999 FEW046 07/05 Q1001 NOSIG=
201212160850 METAR COR EGLL 160850Z 24007KT 9999 FEW046 06/05 Q1001 NOSIG=
201212160820 METAR COR EGLL 160820Z 23009KT 9999 SCT045 06/05 Q1000 NOSIG=
201212160750 METAR COR EGLL 160750Z 23007KT 9999 SCT044 06/05 Q1000 NOSIG=
201212160720 METAR COR EGLL 160720Z 22008KT 9999 SCT043 06/05 Q1000 NOSIG=
201212160650 METAR COR EGLL 160650Z 22007KT 9999 SCT041 06/05 Q1000 NOSIG=
201212160620 METAR COR EGLL 160620Z 23005KT 180V260 9999 FEW042 05/04
                        Q0999 NOSIG=
201212160550 METAR COR EGLL 160550Z 23004KT 9999 FEW042 06/04 Q0999 NOSIG=
201212160520 METAR COR EGLL 160520Z 21005KT 9999 FEW042 06/05 Q0999 NOSIG=
201212160450 METAR COR EGLL 160450Z 21004KT 9999 FEW048 06/04 Q0999 NOSIG=
201212160420 METAR COR EGLL 160420Z 21005KT 9999 FEW048 06/04 Q0999 NOSIG=
201212160350 METAR COR EGLL 160350Z 20005KT 9999 FEW048 06/04 Q0999 NOSIG=
201212160320 METAR COR EGLL 160320Z 20005KT 9999 FEW048 05/04 Q0998 NOSIG=
201212160250 METAR COR EGLL 160250Z 20004KT CAVOK 05/04 Q0998 NOSIG=
201212160220 METAR EGLL 160220Z AUTO VRB02KT 9999 NCD 05/04 Q0998=
201212160150 METAR EGLL 160150Z AUTO 17003KT 9999 NCD 05/04 Q0998=
201212160120 METAR EGLL 160120Z AUTO 20004KT 9999 FEW032/// BKN045///
                        05/04 Q0998=
201212160050 METAR COR EGLL 160050Z 21006KT 9999 FEW025 SCT030 06/04 Q0998
                        NOSIG=
201212160020 METAR COR EGLL 160020Z 22006KT 9999 SCT042 06/04 Q0998 NOSIG=
201212152350 METAR COR EGLL 152350Z 22007KT 9999 FEW033 06/04 Q0997 NOSIG=
201212152320 METAR COR EGLL 152320Z 22004KT 9999 SCT039 06/05 Q0997 NOSIG=
201212152250 METAR COR EGLL 152250Z 23008KT 9999 SCT043 07/05 Q0997 NOSIG=
201212152220 METAR COR EGLL 152220Z 23008KT 9999 SCT044 07/05 Q0996 NOSIG=
201212152150 METAR COR EGLL 152150Z 22008KT 9999 FEW033 SCT044 08/05 Q0996
                        NOSIG=
201212152120 METAR COR EGLL 152120Z 24008KT 9999 SCT041 08/06 Q0995 NOSIG=
201212152050 METAR COR EGLL 152050Z 23008KT 9999 FEW020 SCT045 08/06 Q0995
                        NOSIG=
201212152020 METAR COR EGLL 152020Z 21007KT 9999 FEW019 SCT040 08/06 Q0995
                        NOSIG=
201212151950 METAR COR EGLL 151950Z 20008KT 180V250 9999 FEW024 SCT044
                        08/06 Q0995 NOSIG=
201212151920 METAR COR EGLL 151920Z 20008KT 160V230 9999 FEW033 08/06
                        Q0994 NOSIG=
201212151850 METAR COR EGLL 151850Z 20008KT 190V250 9999 FEW032 SCT041
                        08/05 Q0994 NOSIG=
201212151820 METAR COR EGLL 151820Z 21008KT 9999 FEW032 SCT043 09/06 Q0994
                        TEMPO SHRA=
201212151750 METAR COR EGLL 151750Z 21008KT 9999 FEW032 09/05 Q0994 TEMPO
                        SHRA=
201212151720 METAR COR EGLL 151720Z 21008KT 9999 FEW045 09/06 Q0994 TEMPO
                        SHRA=
201212151650 METAR COR EGLL 151650Z 21009KT 9999 FEW020 09/06 Q0993 TEMPO
                        SHRA=
201212151620 METAR COR EGLL 151620Z 22010KT 9999 -SHRA FEW020CB SCT041
                        10/06 Q0993 TEMPO SHRA=
201212151550 METAR COR EGLL 151550Z 21009KT 9999 VCSH SCT020CB SCT030
                        10/06 Q0993 TEMPO SHRA=
201212151520 METAR COR EGLL 151520Z 21010KT 9999 SCT020CB SCT031 10/06
                        Q0993 TEMPO SHRA BKN014=
201212151450 METAR COR EGLL 151450Z 21011KT 9999 SCT022 SCT027 10/06 Q0993
                        TEMPO SHRA BKN014CB=
201212151420 METAR COR EGLL 151420Z 22013KT 9999 FEW023 SCT029 11/07 Q0992
                        TEMPO SHRA BKN014=
201212151350 METAR COR EGLL 151350Z 22013KT 180V250 9999 FEW024 SCT031
                        11/07 Q0992 TEMPO SHRA BKN014=
201212151320 METAR COR EGLL 151320Z 22011KT 9999 FEW027 SCT033 11/07 Q0992
                        TEMPO SHRA=
201212151250 METAR COR EGLL 151250Z 22011KT 9999 FEW028 11/07 Q0992 NOSIG=
201212151220 METAR COR EGLL 151220Z 22012KT 9999 SCT028 11/07 Q0992 NOSIG=
201212151150 METAR COR EGLL 151150Z 22014KT 190V250 9999 VCSH SCT023 11/07
                        Q0992 NOSIG=
201212151120 METAR COR EGLL 151120Z 22012KT 9999 FEW020 11/07 Q0992 NOSIG=
201212151050 METAR COR EGLL 151050Z 21012G23KT 190V250 9999 FEW030 10/07
                        Q0992 NOSIG=
201212151020 METAR COR EGLL 151020Z 21009KT 180V250 CAVOK 09/07 Q0992
                        NOSIG=
201212150950 METAR COR EGLL 150950Z 21010KT 180V250 CAVOK 08/06 Q0992
                        NOSIG=
201212150920 METAR EGLL 150920Z AUTO 20010KT 170V240 9999 NCD 08/06 Q0991=
201212150850 METAR COR EGLL 150850Z 21009KT 9999 FEW028 08/06 Q0991 NOSIG=
201212150820 METAR COR EGLL 150820Z 22009KT 9999 FEW049 08/06 Q0990 NOSIG=
201212150750 METAR COR EGLL 150750Z 22012KT 9999 FEW049 08/06 Q0990 NOSIG=
201212150720 METAR COR EGLL 150720Z 22012KT 9999 FEW049 08/06 Q0989 NOSIG=
201212150650 METAR COR EGLL 150650Z 21010KT 9999 FEW046 08/06 Q0989 NOSIG=
201212150620 METAR COR EGLL 150620Z 21010KT 9999 FEW046 08/06 Q0988 NOSIG=
201212150550 METAR COR EGLL 150550Z 21009KT 9999 FEW028 SCT047 08/06 Q0988
                        NOSIG=
201212150520 METAR COR EGLL 150520Z 20007KT 9999 FEW049 07/06 Q0988 NOSIG=
201212150450 METAR COR EGLL 150450Z 21008KT 9999 FEW049 07/05 Q0988 NOSIG=
201212150420 METAR COR EGLL 150420Z 22010KT CAVOK 08/05 Q0987 NOSIG=
201212150350 METAR COR EGLL 150350Z 22008KT 9999 FEW049 08/05 Q0987 NOSIG=
201212150320 METAR COR EGLL 150320Z 22010KT CAVOK 07/05 Q0987 NOSIG=
201212150250 METAR EGLL 150250Z AUTO 22010KT 9999 NCD 08/05 Q0987=
201212150220 METAR EGLL 150220Z AUTO 22010KT 9999 NCD 08/05 Q0986=
201212150150 METAR EGLL 150150Z AUTO 21010KT 9999 NCD 08/05 Q0986=
201212150120 METAR EGLL 150120Z 21009KT CAVOK 08/05 Q0985=
201212150050 METAR COR EGLL 150050Z 21008KT 9999 FEW020 08/05 Q0985 NOSIG=
201212150020 METAR COR EGLL 150020Z 21008KT CAVOK 08/05 Q0985 NOSIG=
201212142350 METAR COR EGLL 142350Z 21009KT 9999 FEW020 08/05 Q0984 NOSIG=
201212142320 METAR COR EGLL 142320Z 22011KT 9999 FEW020 08/05 Q0984 NOSIG=
201212142250 METAR COR EGLL 142250Z 22013KT CAVOK 08/05 Q0984 NOSIG=
201212142220 METAR COR EGLL 142220Z 22014KT CAVOK 08/05 Q0983 NOSIG=
201212142150 METAR COR EGLL 142150Z 23014KT 9999 FEW020 08/05 Q0982 NOSIG=
201212142120 METAR COR EGLL 142120Z 22014KT CAVOK 08/05 Q0981 NOSIG=
201212142050 METAR COR EGLL 142050Z 22014KT CAVOK 08/05 Q0981 NOSIG=
201212142020 METAR COR EGLL 142020Z 22012KT CAVOK 08/05 Q0980 NOSIG=
201212141950 METAR COR EGLL 141950Z 22015KT 9999 FEW020 09/04 Q0980 NOSIG=
201212141920 METAR COR EGLL 141920Z 23017KT CAVOK 09/04 Q0979 NOSIG=
201212141850 METAR COR EGLL 141850Z 23017KT 9999 FEW024 09/05 Q0979 NOSIG=
201212141820 METAR COR EGLL 141820Z 23019KT 9999 FEW024 09/06 Q0978 NOSIG=
201212141750 METAR COR EGLL 141750Z 22015KT 9999 FEW024 09/06 Q0978 NOSIG=
201212141720 METAR COR EGLL 141720Z 23017KT 9999 FEW020 SCT040 09/06 Q0977
                        NOSIG=
201212141650 METAR COR EGLL 141650Z 24020G31KT 9999 SCT020 SCT026 10/06
                        Q0976 NOSIG=
201212141620 METAR COR EGLL 141620Z 22021KT 9999 SCT022 10/07 Q0975 NOSIG=
201212141550 METAR COR EGLL 141550Z 21017KT 9999 SCT022 SCT025 10/07 Q0975
                        NOSIG=
201212141520 METAR COR EGLL 141520Z 21014KT 9999 SCT020 SCT029 11/09 Q0975
                        NOSIG=
201212141450 METAR COR EGLL 141450Z 19009KT 9999 FEW005 SCT017 09/09 Q0975
                        NOSIG=
201212141420 METAR COR EGLL 141420Z 13007KT 7000 -RA FEW004 SCT009 BKN011
                        09/08 Q0976 BECMG 22015KT SCT020=
201212141350 METAR COR EGLL 141350Z 11008KT 6000 -RA FEW007 SCT009 BKN012
                        09/08 Q0976 BECMG 22015KT SCT020=
201212141320 METAR COR EGLL 141320Z 13012KT 7000 -RA FEW005 BKN009 09/08
                        Q0977 TEMPO 4000 RA=
201212141250 METAR COR EGLL 141250Z 14010KT 6000 -RA SCT006 BKN008 09/08
                        Q0978 TEMPO 4000 RA=
201212141220 METAR COR EGLL 141220Z 13012KT 9999 -RA FEW007 BKN009 08/07
                        Q0979 TEMPO 4000 RA=
201212141150 METAR COR EGLL 141150Z 12013KT 8000 -RA FEW008 BKN010 08/07
                        Q0980 TEMPO 4000 RA BKN008=
201212141120 METAR COR EGLL 141120Z 12016KT 8000 -RA FEW007 BKN009 07/06
                        Q0981 TEMPO 4000 RA=
201212141050 METAR COR EGLL 141050Z 13014KT 9000 -RA SCT009 BKN012 07/06
                        Q0982 TEMPO 4000 RA BKN008=
201212141020 METAR COR EGLL 141020Z 12016KT 7000 -RA SCT008 BKN010 07/06
                        Q0983 TEMPO 3000 RA BKN008=
201212140950 METAR COR EGLL 140950Z 12016G28KT 7000 -RA SCT008 BKN010
                        07/06 Q0984 TEMPO 4000 RA BKN008=
201212140920 METAR COR EGLL 140920Z 12014KT 100V160 9999 SCT006 BKN009
                        07/06 Q0985 BECMG 7000 BKN010=
201212140850 METAR COR EGLL 140850Z 12014KT 7000 BKN007 07/06 Q0986 TEMPO
                        4000 RA BKN010=
201212140820 METAR COR EGLL 140820Z 12015KT 6000 BKN006 07/05 Q0987 BECMG
                        BKN010=
201212140750 METAR COR EGLL 140750Z 13014KT 5000 BR BKN007 06/05 Q0988
                        BECMG BKN010=
201212140720 METAR COR EGLL 140720Z 13012KT 3900 -DZ BR BKN007 06/05 Q0989
                        BECMG 7000 BKN010=
201212140650 METAR COR EGLL 140650Z 13013KT 6000 BKN008 06/05 Q0990 BECMG
                        BKN010=
201212140620 METAR COR EGLL 140620Z 12013KT 4400 BR BKN006 06/05 Q0991
                        BECMG 6000 -RA BKN010=
201212140550 METAR COR EGLL 140550Z 11013KT 3500 BR BKN004 06/05 Q0992
                        BECMG BKN008=
201212140520 METAR COR EGLL 140520Z 11010KT 2000 BR SCT002 BKN003 05/05
                        Q0993 NOSIG=
201212140450 METAR COR EGLL 140450Z 11011KT 1600 BR SCT002 BKN003 05/05
                        Q0993 TEMPO BKN002=
201212140420 METAR COR EGLL 140420Z 09007KT 1400 R09R/P1500 BR FEW002
                        BKN003 05/04 Q0994 TEMPO BKN002=
201212140350 METAR COR EGLL 140350Z 09006KT 1400 R09R/P1500 BR SCT002
                        BKN003 04/04 Q0995 TEMPO BKN002=
201212140320 METAR COR EGLL 140320Z 09007KT 1500 BR FEW002 BKN003 04/03
                        Q0996 TEMPO BKN002=
201212140250 METAR COR EGLL 140250Z 10008KT 1500 BR FEW001 BKN002 03/03
                        Q0997 TEMPO 1400=
201212140220 METAR EGLL 140220Z AUTO 09006KT 1100 R09R/P1500 BR BKN002///
                        03/02 Q0997=
201212140150 METAR EGLL 140150Z AUTO 09008KT 1000 R09R/P1500 BR BKN002///
                        02/02 Q0997=
201212140120 METAR COR EGLL 140120Z AUTO 09007KT 1000 R09R/P1500 BR OVC002///
                        02/01 Q0998 NOSIG=
201212140050 METAR COR EGLL 140050Z 08006KT 1400 BR BKN003 02/01 Q0999
                        TEMPO BKN002=
201212140020 METAR COR EGLL 140020Z 09005KT 1500 BR BKN003 02/01 Q0999
                        TEMPO 1400 BKN002=
201212132350 METAR COR EGLL 132350Z 09006KT 1900 BR BKN003 01/01 Q0999
                        TEMPO 1400 BKN002=
201212132320 METAR COR EGLL 132320Z 10009KT 2300 BR BKN004 01/00 Q1000
                        TEMPO 1400 BKN002=
201212132250 METAR COR EGLL 132250Z 09008KT 2500 BR BKN005 01/00 Q1000
                        TEMPO BKN003=
201212132220 METAR COR EGLL 132220Z 09010KT 2700 BR BKN005 01/00 Q1000
                        TEMPO BKN003=
201212132150 METAR COR EGLL 132150Z 09008KT 2400 BR FEW004 SCT006 BKN008
                        01/M00 Q1000 NOSIG=
201212132120 METAR COR EGLL 132120Z 08007KT 3300 BR FEW005 BKN008 01/M00
                        Q1001 NOSIG=
201212132050 METAR COR EGLL 132050Z 09005KT 3500 -DZ BKN009 01/M01 Q1002
                        NOSIG=
201212132020 METAR COR EGLL 132020Z 07004KT 6000 FEW009 BKN011 01/M01
                        Q1002 BECMG BKN008=
201212131950 METAR COR EGLL 131950Z 06004KT 7000 BKN010 01/M01 Q1002 BECMG
                        BKN007=
201212131920 METAR COR EGLL 131920Z 06005KT 7000 BKN012 01/M01 Q1002 BECMG
                        BKN008=
201212131850 METAR EGLL 131850Z AUTO 05004KT 020V080 7000 OVC014/// 01/M02
                        Q1002=
201212131820 METAR EGLL 131820Z AUTO 05004KT 020V080 7000 OVC014/// 01/M01
                        Q1002=
201212131750 METAR COR EGLL 131750Z 04004KT 010V080 7000 SCT017 BKN021
                        01/M02 Q1002 NOSIG=
201212131720 METAR COR EGLL 131720Z 06005KT 7000 FEW018 BKN024 01/M02
                        Q1002 NOSIG=
201212131650 METAR COR EGLL 131650Z 06004KT 7000 SCT021 BKN027 01/M02
                        Q1002 NOSIG=
201212131620 METAR COR EGLL 131620Z 07004KT 7000 FEW019 BKN022 01/M02
                        Q1003 NOSIG=
201212131550 METAR COR EGLL 131550Z 06004KT 8000 FEW019 BKN023 01/M02
                        Q1003 NOSIG=
201212131520 METAR COR EGLL 131520Z 07005KT 9000 FEW018 BKN023 02/M02
                        Q1003 NOSIG=
201212131450 METAR COR EGLL 131450Z 07005KT 9000 BKN023 01/M02 Q1003 NOSIG=
201212131420 METAR EGLL 131420Z 06004KT 9000 BKN021 01/M02 Q1003 NOSIG=
201212131350 METAR EGLL 131350Z 06005KT 9999 BKN021 01/M02 Q1004=
201212131320 METAR COR EGLL 131320Z 07005KT 9999 BKN020 01/M02 Q1004 NOSIG=
201212131250 METAR EGLL 131250Z 09005KT 9999 BKN019 01/M02 Q1004 NOSIG=
201212131220 METAR COR EGLL 131220Z 09008KT 9999 BKN019 01/M02 Q1005 NOSIG=
201212131150 METAR COR EGLL 131150Z 09006KT 7000 BKN019 01/M02 Q1005 NOSIG=
201212131120 METAR COR EGLL 131120Z 09006KT 7000 BKN020 01/M01 Q1005 NOSIG=
201212131050 METAR COR EGLL 131050Z 07005KT 6000 BKN020 01/M02 Q1006 NOSIG=
201212131020 METAR COR EGLL 131020Z 06005KT 7000 SCT020 00/M01 Q1006 NOSIG=
201212130950 METAR COR EGLL 130950Z 06005KT 6000 BKN019 M00/M02 Q1006
                        NOSIG=
201212130920 METAR COR EGLL 130920Z 06005KT 6000 SCT019 M01/M02 Q1006
                        NOSIG=
201212130850 METAR COR EGLL 130850Z 06005KT 6000 FEW022 M02/M03 Q1006
                        NOSIG=
201212130820 METAR COR EGLL 130820Z 05004KT 6000 FEW020 M02/M04 Q1006
                        NOSIG=
201212130750 METAR EGLL 130750Z 08004KT 6000 FEW020 M03/M04 Q1006 TEMPO
                        4500 BR=
201212130720 METAR COR EGLL 130720Z 07004KT 6000 SCT020 M02/M03 Q1006
                        NOSIG=
201212130650 METAR COR EGLL 130650Z 06005KT 7000 SCT020 M01/M03 Q1007
                        NOSIG=
201212130620 METAR COR EGLL 130620Z 06004KT 6000 BKN021 M01/M02 Q1007
                        NOSIG=
201212130550 METAR COR EGLL 130550Z 04004KT 7000 BKN021 M01/M02 Q1007
                        NOSIG=
201212130520 METAR COR EGLL 130520Z 08005KT 7000 SCT020 M01/M03 Q1007
                        NOSIG=
201212130450 METAR COR EGLL 130450Z 07005KT 8000 FEW021 M01/M03 Q1008
                        NOSIG=
201212130420 METAR COR EGLL 130420Z 08005KT 7000 FEW022 M02/M03 Q1008
                        NOSIG=
201212130350 METAR EGLL 130350Z 10006KT 7000 NSC M02/M03 Q1009 NOSIG=
201212130320 METAR COR EGLL 130320Z 10005KT 9000 NSC M01/M02 Q1009 NOSIG=
201212130250 METAR COR EGLL 130250Z 08005KT 9000 NSC M01/M02 Q1010 NOSIG=
201212130220 METAR EGLL 130220Z AUTO 09006KT 8000 NCD M01/M03 Q1010=
201212130150 METAR EGLL 130150Z AUTO 09006KT 9000 NCD M02/M03 Q1010=
201212130120 METAR EGLL 130120Z AUTO 07005KT 9000 NCD M02/M03 Q1011=
201212130050 METAR COR EGLL 130050Z 08005KT CAVOK M01/M02 Q1011 NOSIG=
201212130020 METAR COR EGLL 130020Z 09006KT CAVOK M03/M04 Q1012 NOSIG=
201212122350 METAR COR EGLL 122350Z 09005KT CAVOK M01/M03 Q1012 NOSIG=
201212122320 METAR COR EGLL 122320Z 09006KT CAVOK M01/M02 Q1013 NOSIG=
201212122250 METAR COR EGLL 122250Z 10007KT CAVOK M02/M03 Q1013 NOSIG=
201212122220 METAR COR EGLL 122220Z 09006KT CAVOK M01/M02 Q1013 NOSIG=
201212122150 METAR COR EGLL 122150Z 11008KT CAVOK M01/M03 Q1014 NOSIG=
201212122120 METAR COR EGLL 122120Z 10007KT CAVOK M00/M02 Q1014 NOSIG=
201212122050 METAR COR EGLL 122050Z 10007KT CAVOK M00/M02 Q1014 NOSIG=
201212122020 METAR COR EGLL 122020Z 11007KT CAVOK M01/M02 Q1015 NOSIG=
201212121950 METAR EGLL 121950Z 12005KT 8000 NSC M01/M02 Q1015 NOSIG=
201212121920 METAR COR EGLL 121920Z 11007KT 100V160 8000 NSC M01/M02 Q1015
                        NOSIG=
201212121850 METAR COR EGLL 121850Z 10007KT 9000 NSC M01/M01 Q1015 NOSIG=
201212121820 METAR COR EGLL 121820Z 11006KT 080V150 6000 NSC M01/M01 Q1016
                        NOSIG=
201212121750 METAR COR EGLL 121750Z 11004KT 080V150 CAVOK M01/M02 Q1016
                        NOSIG=
201212121720 METAR COR EGLL 121720Z VRB03KT 9999 FEW048 M01/M02 Q1016
                        NOSIG=
201212121650 METAR COR EGLL 121650Z VRB02KT 5000 BR FEW048 M01/M01 Q1017
                        TEMPO 4000=
201212121620 METAR COR EGLL 121620Z VRB02KT 5000 BR SCT048 M01/M01 Q1017
                        TEMPO 4000=
201212121550 METAR COR EGLL 121550Z VRB02KT 5000 BR BKN048 M01/M01 Q1017
                        TEMPO 4000=
201212121520 METAR COR EGLL 121520Z VRB02KT 6000 BKN048 M01/M01 Q1018
                        TEMPO 4000 BR=
201212121450 METAR COR EGLL 121450Z VRB02KT 5000 BR BKN043 M01/M01 Q1018
                        TEMPO 4000=
201212121420 METAR COR EGLL 121420Z 00000KT 5000 BR BKN042 M01/M01 Q1018
                        NOSIG=
201212121350 METAR COR EGLL 121350Z VRB02KT 5000 BR FEW033 BKN043 M01/M02
                        Q1019 NOSIG=
201212121320 METAR EGLL 121320Z VRB03KT 5000 BR FEW040 BKN045 M02/M02
                        Q1019=
201212121250 METAR COR EGLL 121250Z 21004KT 130V260 4200 BR FEW038 BKN048
                        M02/M02 Q1019 BECMG 6000=
201212121220 METAR COR EGLL 121220Z VRB02KT 4000 BR FEW005 BKN040 M02/M02
                        Q1020 BECMG 6000=
201212121150 METAR COR EGLL 121150Z 00000KT 2400 BR FEW002 M02/M03 Q1020
                        NOSIG=
201212121120 METAR COR EGLL 121120Z 06003KT 1700 R27L/1200 R27R/1000 BR
                        FEW000 SCT001 M03/M03 Q1021 NOSIG=
201212121050 METAR COR EGLL 121050Z VRB02KT 2200 0900S R27L/0700 R27R/P1500
                        FZFG FEW000 SCT001 M03/M04 Q1021
                        BECMG BR=
201212121020 METAR COR EGLL 121020Z VRB02KT 2200 0650S R27L/0450 R27R/1400
                        FZFG SCT001 M03/M04 Q1022 BECMG BR=
201212120950 METAR EGLL 120950Z VRB02KT 1100 0500S R27L/0500 R27R/P1500
                        FZFG SCT002 M03/M04 Q1022 BECMG 3000
                        BR=
201212120920 METAR COR EGLL 120920Z VRB02KT 0700 R27L/0750 R27R/1300 FZFG
                        SCT002 M04/M04 Q1022 BECMG 3000 BR=
201212120850 METAR EGLL 120850Z VRB02KT 0700 R27R/P1500 R27L/0600 FZFG
                        SCT002 M04/M04 Q1022 BECMG 3000 BR=
201212120820 METAR COR EGLL 120820Z VRB02KT 0600 R27R/P1500 R27L/1000
                        FZFG SCT001 SCT002 M04/M05 Q1022
                        BECMG 3000 BR=
201212120750 METAR COR EGLL 120750Z VRB03KT 0600 R27R/P1500 R27L/0650
                        FZFG SCT001 SCT002 M04/M04 Q1023
                        BECMG 3000 BR=
201212120720 METAR COR EGLL 120720Z VRB02KT 0700 R27R/P1500 R27L/1400
                        FZFG SCT001 M04/M05 Q1023 TEMPO 3000
                        BR=
201212120650 METAR COR EGLL 120650Z VRB03KT 0450 R27R/P1500 R27L/1100
                        FZFG OVC001 M04/M05 Q1023 TEMPO 0800=
201212120620 METAR COR EGLL 120620Z VRB02KT 0450 R27L/0800 R27R/P1500
                        FZFG OVC001 M04/M04 Q1023 NOSIG=
201212120550 METAR COR EGLL 120550Z 00000KT 0450 R27L/0700 FZFG OVC001
                        M04/M04 Q1023 NOSIG=
201212120520 METAR COR EGLL 120520Z 00000KT 0400 R27L/0900 FZFG OVC001
                        M04/M04 Q1024 NOSIG=
201212120450 METAR COR EGLL 120450Z VRB02KT 0250 R27L/0600 FZFG OVC001
                        M04/M04 Q1024 TEMPO 0500=
201212120420 METAR EGLL 120420Z VRB02KT 0200 R27R/0400 R27L/0500 FZFG
                        OVC001 M04/M04 Q1024 NOSIG=
201212120350 METAR COR EGLL 120350Z 00000KT 0200 R27R/0400 R27L/0900 FZFG
                        OVC001 M04/M04 Q1025 NOSIG=
201212120320 METAR EGLL 120320Z 00000KT 0250 R27R/0500 R27L/0450 FZFG
                        OVC001 M04/M04 Q1025=
201212120250 METAR EGLL 120250Z VRB02KT 0300 R27R/0400 R27L/0450 FZFG
                        OVC001 M03/M04 Q1026 NOSIG=
201212120220 METAR EGLL 120220Z AUTO VRB02KT 0150 R27R/0550 R27L/0550
                        FG VV/// M03/M04 Q1026=
201212120150 METAR EGLL 120150Z AUTO VRB03KT 0150 R27R/0450 R27L/0450
                        FG VV/// M03/M04 Q1026=
201212111820 METAR COR EGLL 111820Z 01004KT 340V050 0250 R27R/0550 R27L/0600
                        FZFG SCT000 BKN001 M02/M02 Q1029
                        NOSIG=
201212111750 METAR COR EGLL 111750Z 36004KT 0300 R27R/0450 R27L/0500 FZFG
                        BKN000 M02/M02 Q1029 NOSIG=
201212111720 METAR COR EGLL 111720Z VRB03KT 0600 R27R/0600 R27L/P1500
                        FZFG NSC M01/M02 Q1029 BECMG BKN000=
201212111650 METAR COR EGLL 111650Z 01004KT 340V050 7000 NSC 01/M01 Q1029
                        BECMG 2000 BR BKN006=
201212111620 METAR COR EGLL 111620Z 36004KT 9000 NSC 01/M01 Q1029 BECMG
                        4000 BR=
201212111550 METAR COR EGLL 111550Z 36004KT CAVOK 02/M01 Q1029 BECMG 4000
                        BR=
201212111520 METAR COR EGLL 111520Z VRB03KT CAVOK 02/M01 Q1029 NOSIG=
201212111450 METAR COR EGLL 111450Z 01004KT 340V050 CAVOK 02/M01 Q1029
                        NOSIG=
201212111420 METAR COR EGLL 111420Z 01004KT 320V050 CAVOK 03/M01 Q1030
                        NOSIG=
201212111350 METAR COR EGLL 111350Z 35004KT CAVOK 03/M01 Q1030 NOSIG=
201212111320 METAR COR EGLL 111320Z 35004KT 320V020 CAVOK 02/M00 Q1030
                        NOSIG=
201212111250 METAR COR EGLL 111250Z 34004KT 280V030 8000 FEW007 01/M00
                        Q1030 NOSIG=
201212111220 METAR COR EGLL 111220Z 36004KT 320V030 7000 SCT005 02/M00
                        Q1030 TEMPO BKN005=
201212111150 METAR COR EGLL 111150Z VRB03KT 7000 FEW004 BKN006 01/M00
                        Q1031 NOSIG=
201212111120 METAR EGLL 111120Z 34004KT 290V010 6000 FEW004 SCT006 01/M01
                        Q1031=
201212111050 METAR COR EGLL 111050Z 35004KT 310V020 6000 SCT003 BKN006
                        00/M01 Q1031 TEMPO SCT006=
201212111020 METAR COR EGLL 111020Z 34004KT 300V020 6000 FEW010 01/M01
                        Q1031 NOSIG=
201212110950 METAR EGLL 110950Z AUTO 36005KT 5000 NCD 00/M01 Q1031=
201212110920 METAR EGLL 110920Z AUTO 36004KT 6000 NCD M00/M01 Q1031=
201212110850 METAR EGLL 110850Z AUTO VRB02KT 7000 NCD M00/M02 Q1030=
201212110820 METAR EGLL 110820Z AUTO VRB03KT 7000 NCD M00/M01 Q1030=
201212110750 METAR EGLL 110750Z AUTO VRB02KT 8000 NCD M00/M02 Q1030=
201212110720 METAR EGLL 110720Z AUTO 31002KT 8000 NCD M00/M01 Q1030=
201212110650 METAR EGLL 110650Z AUTO 35003KT 7000 NCD M00/M01 Q1030=
201212110620 METAR COR EGLL 110620Z 35003KT 8000 NSC M00/M01 Q1030 NOSIG=
201212110550 METAR EGLL 110550Z VRB03KT 9000 NSC M01/M02 Q1029=
201212110520 METAR COR EGLL 110520Z VRB03KT 9000 NSC M00/M01 Q1029 NOSIG=
201212110450 METAR COR EGLL 110450Z 36004KT 320V020 9000 NSC M00/M01 Q1029
                        NOSIG=
201212110420 METAR COR EGLL 110420Z VRB03KT 9000 FEW038 M00/M02 Q1029
                        NOSIG=
201212110350 METAR COR EGLL 110350Z VRB03KT CAVOK M01/M02 Q1029 NOSIG=
201212110320 METAR COR EGLL 110320Z 36004KT CAVOK M01/M02 Q1029 NOSIG=
201212110250 METAR COR EGLL 110250Z 35005KT 330V030 CAVOK M00/M01 Q1029
                        NOSIG=
201212110220 METAR EGLL 110220Z AUTO 36005KT 9999 NCD M00/M02 Q1029=
201212110150 METAR EGLL 110150Z AUTO 35005KT 9999 NCD 00/M01 Q1028=
201212110120 METAR EGLL 110120Z AUTO 34005KT 320V020 9999 NCD 00/M01 Q1028=
201212110050 METAR COR EGLL 110050Z 36005KT CAVOK 01/M01 Q1028 NOSIG=
201212110020 METAR COR EGLL 110020Z 35006KT CAVOK 01/M01 Q1028 NOSIG=
201212102350 METAR COR EGLL 102350Z 34004KT CAVOK 01/M01 Q1028 NOSIG=
201212102320 METAR COR EGLL 102320Z 33006KT 290V360 CAVOK 01/M01 Q1028
                        NOSIG=
201212102250 METAR COR EGLL 102250Z 31005KT CAVOK 02/M01 Q1028 NOSIG=
201212102220 METAR COR EGLL 102220Z 31003KT CAVOK 02/M01 Q1028 NOSIG=
201212102150 METAR COR EGLL 102150Z 31004KT CAVOK 02/M00 Q1027 NOSIG=
201212102120 METAR COR EGLL 102120Z 32004KT 300V360 CAVOK 03/00 Q1027
                        NOSIG=
201212102050 METAR COR EGLL 102050Z 32004KT 290V350 CAVOK 02/M00 Q1027
                        NOSIG=
201212102020 METAR EGLL 102020Z 32004KT CAVOK 03/M00 Q1027=
201212101950 METAR COR EGLL 101950Z 35004KT CAVOK 03/M00 Q1026 NOSIG=
201212101920 METAR COR EGLL 101920Z 36004KT CAVOK 03/M00 Q1026 NOSIG=
201212101850 METAR COR EGLL 101850Z 36005KT 9999 FEW035 03/00 Q1026 NOSIG=
201212101820 METAR EGLL 101820Z AUTO 36005KT 320V030 9999 NCD 04/00 Q1026=
201212101750 METAR COR EGLL 101750Z 35004KT 9999 FEW024 04/00 Q1026 NOSIG=
201212101720 METAR COR EGLL 101720Z 36006KT 330V040 9999 FEW024 05/00
                        Q1025 NOSIG=
201212101650 METAR COR EGLL 101650Z 32005KT 300V010 9999 FEW036 05/01
                        Q1025 NOSIG=
201212101620 METAR COR EGLL 101620Z 35004KT 310V020 9999 FEW036 05/01
                        Q1024 NOSIG=
201212101550 METAR COR EGLL 101550Z 36006KT 9999 SCT026 06/01 Q1024 NOSIG=
201212101520 METAR COR EGLL 101520Z 36006KT 9999 SCT025 06/01 Q1024 NOSIG=
201212101450 METAR COR EGLL 101450Z 35006KT 310V030 9999 SCT029 SCT035
                        05/00 Q1024 NOSIG=
201212101420 METAR COR EGLL 101420Z 36008KT 9999 SCT025 05/01 Q1023 NOSIG=
201212101350 METAR EGLL 101350Z AUTO 36008KT 320V030 9999 SCT022/// 06/01
                        Q1023=
201212101320 METAR COR EGLL 101320Z 36007KT 330V030 9999 SCT025 06/01
                        Q1023 NOSIG=
201212101250 METAR COR EGLL 101250Z 36008KT 9999 SCT022 06/01 Q1023 NOSIG=
201212101220 METAR COR EGLL 101220Z 36008KT 330V040 9999 FEW020 06/01
                        Q1023 NOSIG=
201212101150 METAR COR EGLL 101150Z 35009KT 310V020 9999 FEW021 05/01
                        Q1023 NOSIG=
201212101120 METAR COR EGLL 101120Z 36006KT 320V030 9999 FEW021 05/00
                        Q1023 NOSIG=
201212101050 METAR COR EGLL 101050Z 34007KT 300V020 9999 FEW021 05/00
                        Q1023 NOSIG=
201212101020 METAR COR EGLL 101020Z 35007KT 300V020 9999 FEW040 04/00
                        Q1022 NOSIG=
201212100950 METAR COR EGLL 100950Z 33008KT 9999 FEW036 04/M00 Q1022 NOSIG=
201212100920 METAR EGLL 100920Z 33007KT 290V020 9999 FEW036 04/M00 Q1022=
201212100850 METAR COR EGLL 100850Z 32007KT 290V360 CAVOK 03/M00 Q1021
                        NOSIG=
201212100820 METAR COR EGLL 100820Z 32006KT 280V350 CAVOK 03/M00 Q1021
                        NOSIG=
201212100750 METAR COR EGLL 100750Z 31004KT 270V350 CAVOK 03/M00 Q1020
                        NOSIG=
201212100720 METAR COR EGLL 100720Z 32005KT 290V360 CAVOK 03/M00 Q1020
                        NOSIG=
201212100650 METAR COR EGLL 100650Z 32005KT 300V360 CAVOK 03/M00 Q1020
                        NOSIG=
201212100620 METAR COR EGLL 100620Z 31007KT 280V340 CAVOK 03/M00 Q1019
                        NOSIG=
201212100550 METAR COR EGLL 100550Z 31006KT 280V350 CAVOK 03/M00 Q1019
                        NOSIG=
201212100520 METAR COR EGLL 100520Z 31008KT CAVOK 03/M00 Q1019 NOSIG=
201212100450 METAR COR EGLL 100450Z 32009KT CAVOK 03/M00 Q1019 NOSIG=
201212100420 METAR COR EGLL 100420Z 32008KT CAVOK 03/M00 Q1019 NOSIG=
201212100350 METAR COR EGLL 100350Z 31009KT CAVOK 03/00 Q1019 NOSIG=
201212100320 METAR COR EGLL 100320Z 30007KT CAVOK 03/00 Q1018 NOSIG=
201212100250 METAR COR EGLL 100250Z 31007KT CAVOK 04/00 Q1018 NOSIG=
201212100220 METAR COR EGLL 100220Z 31009KT CAVOK 04/00 Q1018 NOSIG=
201212100150 METAR COR EGLL 100150Z 30007KT CAVOK 03/01 Q1018 NOSIG=
201212100120 METAR COR EGLL 100120Z 31006KT CAVOK 04/01 Q1018 NOSIG=
201212100050 METAR COR EGLL 100050Z 31006KT CAVOK 04/01 Q1017 NOSIG=
201212100020 METAR COR EGLL 100020Z 30007KT CAVOK 07/01 Q1017 NOSIG=
201212092350 METAR COR EGLL 092350Z 30006KT CAVOK 03/00 Q1017 NOSIG=
201212092320 METAR COR EGLL 092320Z 29007KT CAVOK 04/01 Q1017 NOSIG=
201212092250 METAR COR EGLL 092250Z 29008KT CAVOK 05/01 Q1017 NOSIG=
201212092220 METAR COR EGLL 092220Z 29008KT CAVOK 05/01 Q1017 NOSIG=
201212092150 METAR COR EGLL 092150Z 29008KT CAVOK 05/01 Q1017 NOSIG=
201212092120 METAR COR EGLL 092120Z 29010KT CAVOK 06/01 Q1017 NOSIG=
201212092050 METAR COR EGLL 092050Z 30009KT CAVOK 06/01 Q1017 NOSIG=
201212092020 METAR COR EGLL 092020Z 29010KT CAVOK 07/01 Q1017 NOSIG=
201212091950 METAR COR EGLL 091950Z 29010KT CAVOK 07/01 Q1016 NOSIG=
201212091920 METAR COR EGLL 091920Z 29011KT CAVOK 07/01 Q1016 NOSIG=
201212091850 METAR COR EGLL 091850Z 29010KT 270V330 9999 FEW045 07/01
                        Q1017 NOSIG=
201212091820 METAR COR EGLL 091820Z 31011KT 9999 FEW025 08/03 Q1017 NOSIG=
201212091750 METAR EGLL 091750Z AUTO 29007KT 9999 SCT020/// BKN024///
                        08/04 Q1017=
201212091720 METAR COR EGLL 091720Z 30007KT 9999 SCT021 BKN026 08/04 Q1016
                        NOSIG=
201212091650 METAR COR EGLL 091650Z 29010KT 9999 FEW022 BKN028 08/04 Q1016
                        NOSIG=
201212091620 METAR COR EGLL 091620Z 30009KT 9999 BKN023 09/04 Q1016 NOSIG=
201212091550 METAR COR EGLL 091550Z 29009KT 9999 BKN024 08/04 Q1016 NOSIG=
201212091520 METAR COR EGLL 091520Z 29013KT 9999 BKN025 09/04 Q1016 NOSIG=
201212091450 METAR COR EGLL 091450Z 29012KT 9999 BKN024 09/04 Q1016 NOSIG=
201212091420 METAR COR EGLL 091420Z 29012KT 9999 BKN024 09/04 Q1016 NOSIG=
201212091350 METAR EGLL 091350Z AUTO 28013KT 9999 BKN025/// 09/04 Q1016=
201212091320 METAR COR EGLL 091320Z 28014KT 9999 BKN024 09/04 Q1017 NOSIG=
201212091250 METAR COR EGLL 091250Z 28016KT 9999 BKN025 08/04 Q1017 NOSIG=
201212091220 METAR COR EGLL 091220Z 27016KT 9999 BKN024 08/04 Q1017 NOSIG=
201212091150 METAR COR EGLL 091150Z 27014KT 9999 BKN024 08/04 Q1018 NOSIG=
201212091120 METAR COR EGLL 091120Z 26015KT 9999 SCT030 08/04 Q1018 NOSIG=
201212091050 METAR COR EGLL 091050Z 26015KT 9999 SCT040 08/04 Q1019 NOSIG=
201212091020 METAR COR EGLL 091020Z 27014KT 9999 SCT020 BKN042 08/05 Q1019
                        NOSIG=
201212090950 METAR COR EGLL 090950Z 28014KT 9999 FEW020 BKN032 08/05 Q1020
                        NOSIG=
201212090920 METAR COR EGLL 090920Z 28013KT 9999 FEW021 BKN027 07/05 Q1020
                        NOSIG=
201212090850 METAR COR EGLL 090850Z 27014KT 9999 BKN017 07/05 Q1020 NOSIG=
201212090820 METAR COR EGLL 090820Z 27014KT 9999 SCT015 BKN024 07/05 Q1020
                        TEMPO BKN014=
201212090750 METAR COR EGLL 090750Z 26012KT 9999 BKN016 07/05 Q1020 TEMPO
                        BKN014=
201212090720 METAR COR EGLL 090720Z 26012KT 9999 BKN018 07/04 Q1020 NOSIG=
201212090650 METAR COR EGLL 090650Z 26013KT 9999 BKN022 07/05 Q1020 NOSIG=
201212090620 METAR EGLL 090620Z 26009KT 9999 BKN019 07/04 Q1021=
201212090550 METAR COR EGLL 090550Z 27011KT 9999 BKN018 07/04 Q1021 NOSIG=
201212090520 METAR COR EGLL 090520Z 26011KT 9999 BKN019 07/04 Q1021 NOSIG=
201212090450 METAR COR EGLL 090450Z 26011KT 9999 SCT017 BKN020 07/04 Q1021
                        NOSIG=
201212090420 METAR COR EGLL 090420Z 25007KT 9999 BKN018 06/04 Q1022 NOSIG=
201212090350 METAR COR EGLL 090350Z 23006KT 9999 BKN018 05/03 Q1022 NOSIG=
201212090320 METAR COR EGLL 090320Z 25006KT 9999 BKN017 05/03 Q1023 NOSIG=
201212090250 METAR COR EGLL 090250Z 25008KT 9999 FEW047 05/03 Q1023 NOSIG=
201212090220 METAR EGLL 090220Z AUTO 26010KT 9999 NCD 05/03 Q1023=
201212090150 METAR EGLL 090150Z AUTO 26011KT 9999 NCD 05/03 Q1023=
201212090120 METAR EGLL 090120Z AUTO 26008KT 9999 SCT042/// 05/02 Q1024=
201212090050 METAR COR EGLL 090050Z 26009KT 9999 BKN042 05/02 Q1024 NOSIG=
201212090020 METAR COR EGLL 090020Z 26009KT 9999 BKN041 05/02 Q1024 NOSIG=
201212082350 METAR COR EGLL 082350Z 26009KT CAVOK 04/02 Q1024 NOSIG=
201212082320 METAR COR EGLL 082320Z 26009KT CAVOK 03/01 Q1025 NOSIG=
201212082250 METAR COR EGLL 082250Z 26010KT CAVOK 04/01 Q1025 NOSIG=
201212082220 METAR COR EGLL 082220Z 27011KT CAVOK 04/01 Q1025 NOSIG=
201212082150 METAR COR EGLL 082150Z 26011KT CAVOK 03/01 Q1025 NOSIG=
201212082120 METAR COR EGLL 082120Z 26011KT 9999 FEW048 04/01 Q1025 NOSIG=
201212082050 METAR COR EGLL 082050Z 25008KT 9999 FEW048 03/00 Q1026 NOSIG=
201212082020 METAR COR EGLL 082020Z 24006KT 210V280 CAVOK 03/01 Q1026
                        NOSIG=
201212081950 METAR COR EGLL 081950Z 25007KT CAVOK 04/01 Q1026 NOSIG=
201212081920 METAR EGLL 081920Z 27008KT CAVOK 04/01 Q1026=
201212081850 METAR COR EGLL 081850Z 25007KT CAVOK 04/01 Q1026 NOSIG=
201212081820 METAR COR EGLL 081820Z 28009KT CAVOK 04/01 Q1026 NOSIG=
201212081750 METAR EGLL 081750Z 28007KT CAVOK 04/02 Q1026=
201212081720 METAR COR EGLL 081720Z 28008KT CAVOK 04/01 Q1026 NOSIG=
201212081650 METAR COR EGLL 081650Z 28007KT CAVOK 04/01 Q1026 NOSIG=
201212081620 METAR COR EGLL 081620Z 28007KT CAVOK 04/01 Q1026 NOSIG=
201212081550 METAR COR EGLL 081550Z 29006KT CAVOK 06/01 Q1026 NOSIG=
201212081520 METAR COR EGLL 081520Z 28006KT CAVOK 06/02 Q1025 NOSIG=
201212081450 METAR COR EGLL 081450Z 25006KT CAVOK 06/02 Q1025 NOSIG=
201212081420 METAR COR EGLL 081420Z 27005KT 9999 FEW015 06/02 Q1025 NOSIG=
201212081350 METAR COR EGLL 081350Z 29006KT 260V320 9999 FEW015 06/03
                        Q1025 NOSIG=
201212081320 METAR COR EGLL 081320Z 29006KT 270V330 9999 FEW035 06/03
                        Q1025 NOSIG=
201212081250 METAR COR EGLL 081250Z 30007KT 270V330 9999 FEW035 06/02
                        Q1025 NOSIG=
201212081220 METAR COR EGLL 081220Z 30006KT 280V340 9999 FEW035 06/02
                        Q1025 NOSIG=
201212081150 METAR COR EGLL 081150Z 29008KT 270V340 9999 FEW035 06/02
                        Q1025 NOSIG=
201212081120 METAR COR EGLL 081120Z 29005KT 9999 FEW045 06/02 Q1025 NOSIG=
201212081050 METAR COR EGLL 081050Z 29005KT 260V320 9999 FEW045 05/02
                        Q1025 NOSIG=
201212081020 METAR COR EGLL 081020Z 30005KT 270V340 9999 FEW045 05/02
                        Q1025 NOSIG=
201212080950 METAR COR EGLL 080950Z 30006KT CAVOK 04/02 Q1025 TEMPO BKN012=
201212080920 METAR COR EGLL 080920Z 31005KT CAVOK 04/02 Q1024 TEMPO BKN012=
201212080850 METAR COR EGLL 080850Z 31004KT 9999 FEW040 04/02 Q1024 TEMPO
                        BKN012=
201212080820 METAR COR EGLL 080820Z VRB02KT 9999 FEW039 04/02 Q1023 TEMPO
                        BKN010=
201212080750 METAR COR EGLL 080750Z 35004KT 9999 FEW039 04/02 Q1023 TEMPO
                        BKN012=
201212080720 METAR COR EGLL 080720Z 34004KT 300V030 9999 BKN041 05/02
                        Q1022 BKN012=
201212080650 METAR COR EGLL 080650Z 33004KT 290V010 9999 BKN043 05/02
                        Q1022 NOSIG=
201212080620 METAR EGLL 080620Z 33004KT 300V030 9999 BKN038 05/02 Q1022=
201212080550 METAR EGLL 080550Z AUTO 32004KT 290V360 9999 BKN038/// 05/02
                        Q1021=
201212080520 METAR EGLL 080520Z AUTO 31004KT 9999 OVC039/// 05/02 Q1021=
201212080450 METAR EGLL 080450Z AUTO 31003KT 9999 OVC038/// 05/02 Q1021=
201212080420 METAR EGLL 080420Z AUTO 31004KT 280V350 9999 OVC037/// 05/02
                        Q1020=
201212080350 METAR EGLL 080350Z AUTO 32004KT 280V360 9999 OVC036/// 05/02
                        Q1020=
201212080320 METAR EGLL 080320Z AUTO VRB03KT 9999 BKN037/// 05/01 Q1019=
201212080250 METAR EGLL 080250Z AUTO 36004KT 320V030 9999 OVC036/// 05/01
                        Q1019=
201212080220 METAR EGLL 080220Z AUTO 36005KT 330V060 9999 OVC036/// 05/01
                        Q1018=
201212080150 METAR EGLL 080150Z AUTO 36005KT 9999 OVC034/// 05/01 Q1018=
201212080120 METAR EGLL 080120Z AUTO 36006KT 340V040 9999 OVC033/// 05/01
                        Q1017=
201212080050 METAR EGLL 080050Z AUTO 36006KT 340V070 9999 FEW019/// BKN033///
                        05/02 Q1016=
201212080020 METAR EGLL 080020Z AUTO 36006KT 320V030 9999 BKN032/// 05/02
                        Q1016=
201212072350 METAR EGLL 072350Z AUTO 36008KT 9999 FEW019/// BKN033///
                        05/02 Q1015=
201212072320 METAR EGLL 072320Z AUTO 01008KT 330V040 9999 SCT017/// SCT024///
                        BKN039/// 05/02 Q1015=
201212072250 METAR EGLL 072250Z AUTO 36009KT 9999 SCT017/// SCT025///
                        BKN044/// 05/02 Q1014=
201212072220 METAR EGLL 072220Z AUTO 36009KT 330V040 9999 BKN018/// 05/02
                        Q1013=
201212072150 METAR COR EGLL 072150Z 35008KT 300V030 9999 BKN019 05/02
                        Q1013 NOSIG=
201212072120 METAR COR EGLL 072120Z 34008KT 310V010 9999 BKN021 05/02
                        Q1012 NOSIG=
201212072050 METAR COR EGLL 072050Z 34007KT 300V040 9999 BKN021 05/01
                        Q1011 NOSIG=
201212072020 METAR COR EGLL 072020Z 34008KT 300V010 9999 SCT045 05/01
                        Q1010 NOSIG=
201212071950 METAR COR EGLL 071950Z 33012KT 9999 SCT039 05/01 Q1009 NOSIG=
201212071920 METAR COR EGLL 071920Z 33012KT 290V360 9999 SCT023 SCT040
                        05/01 Q1009 NOSIG=
201212071850 METAR COR EGLL 071850Z 33013KT 9999 BKN030 05/00 Q1008 NOSIG=
201212071820 METAR COR EGLL 071820Z 33011KT 9999 BKN029 05/00 Q1008 NOSIG=
201212071750 METAR COR EGLL 071750Z 33012KT 9999 SCT030 SCT034 05/00 Q1007
                        NOSIG=
201212071720 METAR COR EGLL 071720Z 32009KT 9999 SCT034 SCT037 05/00 Q1006
                        NOSIG=
201212071650 METAR COR EGLL 071650Z 32009KT 9999 FEW032 SCT041 05/00 Q1005
                        NOSIG=
201212071620 METAR COR EGLL 071620Z 32011KT 280V360 9999 FEW047 06/01
                        Q1005 NOSIG=
201212071550 METAR COR EGLL 071550Z 32010KT 280V350 9999 FEW032 06/01
                        Q1004 NOSIG=
201212071520 METAR COR EGLL 071520Z 31012KT 9999 FEW034 06/01 Q1003 NOSIG=
201212071450 METAR COR EGLL 071450Z 31013KT 9999 FEW030 07/01 Q1002 NOSIG=
201212071420 METAR COR EGLL 071420Z 31013KT 280V340 9999 FEW030 07/00
                        Q1002 NOSIG=
201212071350 METAR COR EGLL 071350Z 31013KT 280V350 9999 FEW039 07/M00
                        Q1002 NOSIG=
201212071320 METAR COR EGLL 071320Z 31012KT 9999 FEW029 07/M00 Q1001 NOSIG=
201212071250 METAR COR EGLL 071250Z 31013KT 9999 FEW028 07/00 Q1001 NOSIG=
201212071220 METAR COR EGLL 071220Z 31014KT 9999 FEW024 07/01 Q1000 NOSIG=
201212071150 METAR COR EGLL 071150Z 31013G23KT 9999 FEW022 06/01 Q1000
                        NOSIG=
201212071120 METAR COR EGLL 071120Z 31014G26KT 9999 FEW022 SCT027 06/01
                        Q1000 NOSIG=
201212071050 METAR COR EGLL 071050Z 31015G27KT 280V340 9999 FEW021 SCT025
                        05/02 Q1000 NOSIG=
201212071020 METAR COR EGLL 071020Z 31013KT 9999 BKN022 05/02 Q1000 NOSIG=
201212070950 METAR COR EGLL 070950Z 31011KT 9999 FEW013 BKN020 04/02 Q0999
                        NOSIG=
201212070920 METAR COR EGLL 070920Z 30013KT 8000 -RA SCT009 BKN015 03/01
                        Q0998 RERA RESN NOSIG=
201212070850 METAR COR EGLL 070850Z 29016KT 7000 RASN SCT011 BKN017 03/01
                        Q0998 TEMPO BKN010=
201212070820 METAR COR EGLL 070820Z 28016KT 9999 -RA SCT022 BKN030 03/01
                        Q0997 TEMPO 5000 RASN BKN010=
201212070750 METAR COR EGLL 070750Z 27012KT 9999 FEW020 03/01 Q0997 TEMPO
                        6000 RASN BKN010=
201212070720 METAR COR EGLL 070720Z 27011KT 9999 FEW020 03/01 Q0997 TEMPO
                        6000 RASN BKN010=
201212070650 METAR COR EGLL 070650Z 27011KT 9999 FEW020 03/00 Q0997 NOSIG=
201212070620 METAR COR EGLL 070620Z 27011KT 9999 FEW020 03/00 Q0997 NOSIG=
201212070550 METAR COR EGLL 070550Z 27010KT 9999 FEW030 03/00 Q0997 NOSIG=
201212070520 METAR COR EGLL 070520Z 27010KT CAVOK 03/00 Q0997 NOSIG=
201212070450 METAR COR EGLL 070450Z 27009KT CAVOK 03/00 Q0997 NOSIG=
201212070420 METAR COR EGLL 070420Z 27010KT CAVOK 03/01 Q0997 NOSIG=
201212070350 METAR COR EGLL 070350Z 28011KT 9999 FEW033 03/01 Q0997 NOSIG=
201212070320 METAR COR EGLL 070320Z 28010KT 9999 FEW032 03/01 Q0997 NOSIG=
201212070250 METAR COR EGLL 070250Z 28012KT CAVOK 04/02 Q0997 NOSIG=
201212070220 METAR EGLL 070220Z AUTO 27012KT 9999 NCD 04/02 Q0997=
201212070150 METAR COR EGLL 070150Z AUTO 29011KT 9999 NCD 04/02 Q0997
                        NOSIG=
201212070120 METAR EGLL 070120Z AUTO 28013KT 9999 SCT028/// SCT034///
                        05/03 Q0997=
201212070050 METAR COR EGLL 070050Z 26014KT 9999 FEW015 SCT035 06/03 Q0997
                        NOSIG=
201212070020 METAR COR EGLL 070020Z 25019KT 9999 SCT015 06/04 Q0997 NOSIG=
201212062350 METAR COR EGLL 062350Z 24016KT 9999 -RA FEW017 BKN020 06/04
                        Q0998 TEMPO RA=
201212062320 METAR COR EGLL 062320Z 22013KT 9999 FEW015 BKN026 05/04 Q0998
                        TEMPO RA=
201212062250 METAR COR EGLL 062250Z 20014KT 9999 -RA FEW012 SCT020 05/03
                        Q0999 TEMPO RA=
201212062220 METAR COR EGLL 062220Z 20013KT 9999 -RA FEW015 BKN031 05/03
                        Q1000 TEMPO RA=
201212062150 METAR COR EGLL 062150Z 20011KT 180V240 9999 -RA BKN030 05/03
                        Q1002 TEMPO RA=
201212062120 METAR COR EGLL 062120Z 20012KT 170V250 9999 -RA FEW021 BKN030
                        04/03 Q1003 TEMPO RA=
201212062050 METAR COR EGLL 062050Z 20011KT 9999 -RA FEW021 BKN030 04/03
                        Q1004 TEMPO RA=
201212062020 METAR COR EGLL 062020Z 20011KT 9999 -RA BKN024 04/02 Q1005
                        NOSIG=
201212061950 METAR COR EGLL 061950Z 20010KT 9999 -RA SCT028 SCT033 04/02
                        Q1006 NOSIG=
201212061920 METAR COR EGLL 061920Z 21009KT 9999 SCT038 SCT048 04/02 Q1006
                        NOSIG=
201212061850 METAR COR EGLL 061850Z 20010KT 180V250 CAVOK 04/02 Q1007
                        NOSIG=
201212061820 METAR COR EGLL 061820Z 20010KT 180V240 CAVOK 04/02 Q1008
                        NOSIG=
201212061750 METAR COR EGLL 061750Z 20011KT 180V240 CAVOK 04/02 Q1009
                        NOSIG=
201212061720 METAR COR EGLL 061720Z 19009KT CAVOK 04/01 Q1010 NOSIG=
201212061650 METAR COR EGLL 061650Z 19008KT 150V240 9999 FEW035 03/01
                        Q1010 NOSIG=
201212061620 METAR COR EGLL 061620Z 19008KT 160V230 9999 FEW030 03/01
                        Q1011 NOSIG=
201212061550 METAR COR EGLL 061550Z 20011KT CAVOK 03/01 Q1012 NOSIG=
201212061520 METAR COR EGLL 061520Z 19010KT 160V240 9999 FEW030 04/M00
                        Q1012 NOSIG=
201212061450 METAR COR EGLL 061450Z 19008KT 9999 FEW030 03/M01 Q1013 NOSIG=
201212061420 METAR COR EGLL 061420Z 20010KT 180V240 CAVOK 03/M01 Q1013
                        NOSIG=
201212061350 METAR COR EGLL 061350Z 20008KT 170V230 CAVOK 03/M02 Q1014
                        NOSIG=
201212061320 METAR COR EGLL 061320Z 21007KT CAVOK 03/M02 Q1015 NOSIG=
201212061250 METAR COR EGLL 061250Z 21008KT CAVOK 02/M03 Q1015 NOSIG=
201212061220 METAR COR EGLL 061220Z 20008KT 150V230 CAVOK 02/M02 Q1016
                        NOSIG=
201212061150 METAR COR EGLL 061150Z 21007KT CAVOK 01/M03 Q1016 NOSIG=
201212061120 METAR COR EGLL 061120Z 20007KT 170V250 CAVOK 00/M03 Q1017
                        NOSIG=
201212061050 METAR COR EGLL 061050Z 21005KT 170V260 CAVOK 00/M03 Q1017
                        NOSIG=
201212061020 METAR COR EGLL 061020Z 21006KT 180V250 CAVOK M01/M03 Q1018
                        NOSIG=
201212060950 METAR COR EGLL 060950Z 21004KT CAVOK M01/M03 Q1018 NOSIG=
201212060920 METAR COR EGLL 060920Z 22004KT 170V260 CAVOK M01/M03 Q1018
                        NOSIG=
201212060850 METAR COR EGLL 060850Z 20005KT CAVOK M02/M03 Q1018 NOSIG=
201212060820 METAR COR EGLL 060820Z 20005KT CAVOK M02/M04 Q1018 NOSIG=
201212060750 METAR COR EGLL 060750Z 20005KT 170V250 CAVOK M03/M04 Q1018
                        NOSIG=
201212060720 METAR COR EGLL 060720Z 21004KT 170V240 CAVOK M03/M04 Q1018
                        NOSIG=
201212060650 METAR COR EGLL 060650Z 24005KT CAVOK M03/M05 Q1018 NOSIG=
201212060620 METAR COR EGLL 060620Z VRB03KT CAVOK M02/M04 Q1018 NOSIG=
201212060550 METAR COR EGLL 060550Z 00000KT CAVOK M02/M04 Q1018 NOSIG=
201212060520 METAR COR EGLL 060520Z 28002KT CAVOK M02/M04 Q1018 NOSIG=
201212060450 METAR COR EGLL 060450Z 27005KT CAVOK M03/M05 Q1018 NOSIG=
201212060420 METAR COR EGLL 060420Z 28005KT CAVOK M03/M05 Q1018 NOSIG=
201212060350 METAR COR EGLL 060350Z 28006KT CAVOK M03/M05 Q1018 NOSIG=
201212060320 METAR COR EGLL 060320Z 28005KT CAVOK M03/M05 Q1018 NOSIG=
201212060250 METAR COR EGLL 060250Z 27006KT CAVOK M03/M05 Q1017 NOSIG=
201212060220 METAR EGLL 060220Z AUTO 28005KT 9999 NCD M03/M05 Q1017=
201212060150 METAR EGLL 060150Z AUTO 27004KT 9999 NCD M02/M04 Q1017=
201212060120 METAR EGLL 060120Z AUTO 31004KT 9999 NCD M02/M04 Q1017=
201212060050 METAR COR EGLL 060050Z 32004KT 290V360 CAVOK M01/M04 Q1017
                        NOSIG=
201212060020 METAR COR EGLL 060020Z 32004KT CAVOK M01/M03 Q1017 NOSIG=
201212052350 METAR COR EGLL 052350Z 31004KT CAVOK M00/M03 Q1016 NOSIG=
201212052320 METAR COR EGLL 052320Z 30006KT CAVOK 00/M03 Q1016 NOSIG=
201212052250 METAR COR EGLL 052250Z 31006KT CAVOK 00/M03 Q1015 NOSIG=
201212052220 METAR COR EGLL 052220Z 30006KT CAVOK 01/M03 Q1015 NOSIG=
201212052150 METAR COR EGLL 052150Z 30007KT CAVOK 01/M03 Q1015 NOSIG=
201212052120 METAR COR EGLL 052120Z 30006KT CAVOK 01/M03 Q1015 NOSIG=
201212052050 METAR COR EGLL 052050Z 31006KT CAVOK 01/M03 Q1014 NOSIG=
201212052020 METAR COR EGLL 052020Z 31006KT CAVOK 01/M03 Q1014 NOSIG=
201212051950 METAR COR EGLL 051950Z 31006KT 270V340 9999 FEW040 02/M03
                        Q1014 NOSIG=
201212051920 METAR COR EGLL 051920Z 30005KT 280V340 CAVOK 02/M03 Q1013
                        NOSIG=
201212051850 METAR COR EGLL 051850Z 31005KT 270V340 CAVOK 02/M02 Q1013
                        NOSIG=
201212051820 METAR COR EGLL 051820Z 31007KT 9999 SCT032 03/M02 Q1013 NOSIG=
201212051750 METAR COR EGLL 051750Z 31006KT 280V340 9999 BKN032 03/M02
                        Q1012 NOSIG=
201212051720 METAR COR EGLL 051720Z 32006KT 9999 BKN031 03/M02 Q1012 NOSIG=
201212051650 METAR COR EGLL 051650Z 33008KT 290V350 9999 BKN031 03/M02
                        Q1011 NOSIG=
201212051620 METAR COR EGLL 051620Z 31008KT CAVOK 03/M02 Q1011 NOSIG=
201212051550 METAR COR EGLL 051550Z 31007KT CAVOK 03/M02 Q1010 NOSIG=
201212051520 METAR COR EGLL 051520Z 31008KT 290V350 9999 FEW028 03/M02
                        Q1010 NOSIG=
201212051450 METAR COR EGLL 051450Z 32009KT 280V350 9999 FEW027 04/M01
                        Q1010 NOSIG=
201212051420 METAR COR EGLL 051420Z 32011KT 9999 FEW023 04/M01 Q1009 NOSIG=
201212051350 METAR COR EGLL 051350Z 32010KT 280V350 9999 SCT023 04/M01
                        Q1009 NOSIG=
201212051320 METAR COR EGLL 051320Z 32009KT 280V350 9999 SCT024 04/M00
                        Q1009 NOSIG=
201212051250 METAR COR EGLL 051250Z 32009KT 9999 SCT019 04/M00 Q1009 NOSIG=
201212051220 METAR COR EGLL 051220Z 33008KT 9999 FEW019 04/00 Q1009 NOSIG=
201212051150 METAR COR EGLL 051150Z 33008KT 300V360 9999 FEW017 04/00
                        Q1009 NOSIG=
201212051120 METAR COR EGLL 051120Z 32008KT 280V350 9999 SCT013 04/01
                        Q1008 NOSIG=
201212051050 METAR COR EGLL 051050Z 34006KT 290V010 9999 FEW010 03/01
                        Q1008 NOSIG=
201212051020 METAR COR EGLL 051020Z 35006KT 310V030 9999 SCT009 03/01
                        Q1008 NOSIG=
201212050950 METAR COR EGLL 050950Z 36005KT 310V020 9000 SCT008 SCT010
                        03/01 Q1008 TEMPO BKN010=
201212050920 METAR EGLL 050920Z 01006KT 340V040 9000 FEW008 BKN010 02/01
                        Q1007=
201212050850 METAR COR EGLL 050850Z 36006KT 330V030 6000 FEW007 BKN010
                        02/01 Q1007 TEMPO BKN006=
201212050820 METAR COR EGLL 050820Z 35005KT 320V020 4500 BR FEW004 BKN005
                        02/01 Q1006 TEMPO BKN004=
201212050750 METAR COR EGLL 050750Z VRB03KT 9000 -SN BKN011 02/01 Q1005
                        TEMPO -DZ BKN006=
201212050720 METAR COR EGLL 050720Z VRB03KT 5000 -RASN FEW010 SCT030 01/00
                        Q1005 TEMPO 3000 -SN BKN005=
201212050650 METAR COR EGLL 050650Z VRB02KT 9999 -SN FEW009 SCT045 01/00
                        Q1004 TEMPO 2000 SN BKN005=
201212050620 METAR COR EGLL 050620Z 30003KT 8000 FEW032 BKN040 01/00 Q1004
                        TEMPO 2000 SN BKN005=
201212050550 METAR COR EGLL 050550Z 27004KT 8000 FEW032 BKN040 00/M00
                        Q1003 TEMPO 4000 -RASN BKN010=
201212050520 METAR COR EGLL 050520Z 25004KT 7000 FEW030 SCT037 M00/M01
                        Q1003 TEMPO 4000 -RASN BKN010=
201212050450 METAR COR EGLL 050450Z 28005KT 7000 SCT038 M01/M02 Q1003
                        NOSIG=
201212050420 METAR COR EGLL 050420Z 27003KT 8000 FEW042 M01/M02 Q1003
                        TEMPO 4500 BR=
201212050350 METAR COR EGLL 050350Z 00000KT 7000 FEW042 M01/M02 Q1003
                        TEMPO 4500 BR=
201212050320 METAR COR EGLL 050320Z 00000KT 9000 NSC M01/M02 Q1002 TEMPO
                        4500 BR=
201212050250 METAR COR EGLL 050250Z 00000KT 9000 NSC M01/M02 Q1002 NOSIG=
201212050220 METAR EGLL 050220Z AUTO 00000KT 9000 NCD M01/M01 Q1002=
201212050150 METAR EGLL 050150Z AUTO 00000KT 7000 NCD M01/M02 Q1002=
201212050120 METAR EGLL 050120Z AUTO 00000KT 8000 NCD M01/M02 Q1003=
201212050050 METAR COR EGLL 050050Z 18002KT CAVOK M00/M01 Q1003 NOSIG=
201212050020 METAR COR EGLL 050020Z 20003KT CAVOK 00/M01 Q1003 NOSIG=
201212042350 METAR COR EGLL 042350Z 24003KT CAVOK 00/M01 Q1003 NOSIG=
201212042320 METAR COR EGLL 042320Z 00000KT CAVOK 01/M00 Q1003 NOSIG=
201212042250 METAR COR EGLL 042250Z 19004KT 180V250 CAVOK 00/M01 Q1003
                        NOSIG=
201212042220 METAR COR EGLL 042220Z 24005KT 170V300 CAVOK 01/M01 Q1003
                        NOSIG=
201212042150 METAR COR EGLL 042150Z 28005KT CAVOK 03/M00 Q1003 NOSIG=
201212042120 METAR COR EGLL 042120Z 28006KT CAVOK 02/00 Q1003 NOSIG=
201212042050 METAR COR EGLL 042050Z 29007KT CAVOK 02/M00 Q1003 NOSIG=
201212042020 METAR COR EGLL 042020Z 27009KT CAVOK 02/00 Q1003 NOSIG=
201212041950 METAR COR EGLL 041950Z 26009KT CAVOK 02/00 Q1003 NOSIG=
201212041920 METAR COR EGLL 041920Z 27009KT CAVOK 03/01 Q1003 NOSIG=
201212041850 METAR COR EGLL 041850Z 28008KT CAVOK 03/01 Q1003 NOSIG=
201212041820 METAR COR EGLL 041820Z 28009KT CAVOK 04/01 Q1003 NOSIG=
201212041750 METAR COR EGLL 041750Z 27010KT CAVOK 04/01 Q1003 NOSIG=
201212041720 METAR COR EGLL 041720Z 27011KT CAVOK 05/01 Q1004 NOSIG=
201212041650 METAR COR EGLL 041650Z 27010KT CAVOK 04/01 Q1003 NOSIG=
201212041620 METAR COR EGLL 041620Z 28008KT CAVOK 04/01 Q1003 NOSIG=
201212041550 METAR COR EGLL 041550Z 28009KT 9999 FEW039 06/01 Q1003 NOSIG=
201212041520 METAR COR EGLL 041520Z 29010KT 9999 FEW032 07/02 Q1003 NOSIG=
201212041450 METAR COR EGLL 041450Z 29012KT 9999 FEW032 07/02 Q1003 NOSIG=
201212041420 METAR COR EGLL 041420Z 29012KT 9999 FEW032 SCT038 08/02 Q1003
                        NOSIG=
201212041350 METAR COR EGLL 041350Z 28013KT 9999 FEW035 07/02 Q1003 NOSIG=
201212041320 METAR COR EGLL 041320Z 29011KT 9999 FEW030 08/02 Q1003 NOSIG=
201212041250 METAR COR EGLL 041250Z 28016KT 9999 FEW026 08/03 Q1004 NOSIG=
201212041220 METAR COR EGLL 041220Z 29012KT 9999 FEW020 08/03 Q1004 NOSIG=
201212041150 METAR COR EGLL 041150Z 29014KT CAVOK 07/02 Q1004 NOSIG=
201212041120 METAR COR EGLL 041120Z 29013KT CAVOK 07/03 Q1004 NOSIG=
201212041050 METAR COR EGLL 041050Z 29015KT CAVOK 07/03 Q1004 NOSIG=
201212041020 METAR COR EGLL 041020Z 28013KT CAVOK 06/03 Q1004 NOSIG=
201212040950 METAR COR EGLL 040950Z 28012KT CAVOK 05/02 Q1004 NOSIG=
201212040920 METAR COR EGLL 040920Z 27012KT CAVOK 05/02 Q1004 NOSIG=
201212040850 METAR COR EGLL 040850Z 28012KT CAVOK 04/02 Q1004 NOSIG=
201212040820 METAR COR EGLL 040820Z 29008KT CAVOK 04/02 Q1004 NOSIG=
201212040750 METAR COR EGLL 040750Z 28008KT CAVOK 03/01 Q1003 NOSIG=
201212040720 METAR COR EGLL 040720Z 27009KT CAVOK 03/01 Q1003 NOSIG=
201212040650 METAR COR EGLL 040650Z 26010KT CAVOK 03/01 Q1003 NOSIG=
201212040620 METAR COR EGLL 040620Z 26011KT CAVOK 03/01 Q1003 NOSIG=
201212040550 METAR COR EGLL 040550Z 26010KT CAVOK 03/01 Q1003 NOSIG=
201212040520 METAR COR EGLL 040520Z 27008KT CAVOK 02/01 Q1003 NOSIG=
201212040450 METAR COR EGLL 040450Z 27009KT CAVOK 03/01 Q1003 NOSIG=
201212040420 METAR COR EGLL 040420Z 26009KT CAVOK 03/01 Q1003 NOSIG=
201212040350 METAR COR EGLL 040350Z 28006KT CAVOK 01/00 Q1003 NOSIG=
201212040320 METAR COR EGLL 040320Z 28007KT CAVOK 02/01 Q1003 NOSIG=
201212040250 METAR COR EGLL 040250Z 27008KT CAVOK 02/01 Q1003 NOSIG=
201212040220 METAR EGLL 040220Z AUTO 28008KT 9999 NCD 02/01 Q1003=
201212040150 METAR EGLL 040150Z AUTO 27006KT 9999 NCD 03/01 Q1003=
201212040120 METAR EGLL 040120Z AUTO 27007KT 9999 NCD 03/01 Q1003=
201212040050 METAR COR EGLL 040050Z 27008KT CAVOK 03/01 Q1004 NOSIG=
201212040020 METAR COR EGLL 040020Z 26008KT CAVOK 04/01 Q1004 NOSIG=
201212032350 METAR COR EGLL 032350Z 27007KT CAVOK 02/01 Q1004 NOSIG=
201212032320 METAR COR EGLL 032320Z 27008KT CAVOK 04/01 Q1004 NOSIG=
201212032250 METAR COR EGLL 032250Z 28007KT CAVOK 05/01 Q1004 NOSIG=
201212032220 METAR COR EGLL 032220Z 28011KT CAVOK 04/01 Q1004 NOSIG=
201212032150 METAR COR EGLL 032150Z 27013KT CAVOK 06/02 Q1004 NOSIG=
201212032120 METAR COR EGLL 032120Z 26014KT CAVOK 06/02 Q1004 NOSIG=
201212032050 METAR COR EGLL 032050Z 27011KT CAVOK 06/02 Q1005 NOSIG=
201212032020 METAR COR EGLL 032020Z 27009KT CAVOK 06/03 Q1005 NOSIG=
201212031950 METAR COR EGLL 031950Z 27012KT CAVOK 06/03 Q1005 NOSIG=
201212031920 METAR COR EGLL 031920Z 28010KT CAVOK 05/03 Q1006 NOSIG=
201212031850 METAR COR EGLL 031850Z 28010KT CAVOK 06/03 Q1006 NOSIG=
201212031820 METAR COR EGLL 031820Z 26010KT CAVOK 06/03 Q1006 NOSIG=
201212031750 METAR COR EGLL 031750Z 24011KT CAVOK 06/03 Q1006 NOSIG=
201212031720 METAR COR EGLL 031720Z 25010KT CAVOK 06/03 Q1006 NOSIG=
201212031650 METAR COR EGLL 031650Z 26010KT CAVOK 06/03 Q1007 NOSIG=
201212031620 METAR COR EGLL 031620Z 25010KT 9999 FEW040 07/03 Q1007 NOSIG=
201212031550 METAR COR EGLL 031550Z 25012KT CAVOK 07/03 Q1007 NOSIG=
201212031520 METAR COR EGLL 031520Z 27014KT 9999 FEW030 07/03 Q1007 NOSIG=
201212031450 METAR COR EGLL 031450Z 27012KT 9999 FEW032 08/03 Q1007 NOSIG=
201212031420 METAR COR EGLL 031420Z 28013KT 9999 FEW032 08/04 Q1007 NOSIG=
201212031350 METAR COR EGLL 031350Z 29013KT 9999 FEW032 08/04 Q1007 NOSIG=
201212031320 METAR COR EGLL 031320Z 28012KT 9999 FEW032 09/05 Q1007 NOSIG=
201212031250 METAR COR EGLL 031250Z 29011KT 9999 FEW020 09/05 Q1007 NOSIG=
201212031220 METAR COR EGLL 031220Z 29014KT 9999 FEW020 10/07 Q1007 NOSIG=
201212031150 METAR COR EGLL 031150Z 28014KT 9999 VCSH FEW020 BKN033 09/07
                        Q1007 NOSIG=
201212031120 METAR COR EGLL 031120Z 27010KT 9999 FEW035 BKN043 10/08 Q1006
                        NOSIG=
201212031050 METAR COR EGLL 031050Z 28011KT 9999 FEW042 10/08 Q1006 NOSIG=
201212031020 METAR COR EGLL 031020Z 27010KT 9999 FEW011 SCT038 10/09 Q1006
                        RERA REDZ NOSIG=
201212030950 METAR COR EGLL 030950Z 26014KT 3500 RADZ SCT011 BKN019 11/09
                        Q1006 BECMG 9999 NSW=
201212030920 METAR COR EGLL 030920Z 25010KT 9999 FEW014 BKN019 11/09 Q1006
                        NOSIG=
201212030850 METAR COR EGLL 030850Z 25011KT 9999 BKN014 10/09 Q1006 BECMG
                        BKN018=
201212030820 METAR COR EGLL 030820Z 25009KT 9999 BKN014 10/09 Q1006 BECMG
                        BKN018=
201212030750 METAR COR EGLL 030750Z 26011KT 9999 BKN013 10/09 Q1007 NOSIG=
201212030720 METAR COR EGLL 030720Z 26010KT 9999 FEW009 BKN026 10/08 Q1006
                        TEMPO BKN012=
201212030650 METAR COR EGLL 030650Z 26012KT 9999 FEW008 BKN010 10/09 Q1006
                        TEMPO 7000 BKN008=
201212030620 METAR COR EGLL 030620Z 25010KT 9999 FEW007 BKN010 09/08 Q1006
                        TEMPO 7000 BKN008=
201212030550 METAR COR EGLL 030550Z 23008KT 9999 FEW003 SCT008 BKN013
                        08/08 Q1007 TEMPO 7000 BKN008=
201212030520 METAR COR EGLL 030520Z 23011KT 5000 BR BKN004 BKN008 08/07
                        Q1007 TEMPO 9999 NSW FEW004 BKN008=
201212030450 METAR COR EGLL 030450Z 21006G16KT 6000 FEW002 SCT003 BKN011
                        07/07 Q1007 TEMPO 4000 BKN003=
201212030420 METAR EGLL 030420Z 22004KT 180V270 4400 -RADZ BKN003 BKN005
                        07/06 Q1008=
201212030350 METAR COR EGLL 030350Z VRB03KT 5000 -RA SCT003 BKN005 06/05
                        Q1009 TEMPO 4000 BKN004=
201212030320 METAR COR EGLL 030320Z 17003KT 4000 -RA BR FEW003 BKN005
                        04/04 Q1009 RERA TEMPO 6000 BKN004=
201212030250 METAR COR EGLL 030250Z 16004KT 4700 RA BKN005 04/03 Q1010
                        TEMPO 6000=
201212030220 METAR EGLL 030220Z AUTO 15005KT 6000 -RA BKN007/// 04/03
                        Q1011 RERA=
201212030150 METAR EGLL 030150Z AUTO 14006KT 6000 -RA BKN008/// 04/03
                        Q1011=
201212030120 METAR EGLL 030120Z AUTO 14005KT 5000 -RA FEW020/// BKN026///
                        BKN032/// 03/03 Q1012 RERA=
201212030050 METAR COR EGLL 030050Z 15005KT 6000 -RA BKN032 03/02 Q1013
                        TEMPO 4000 RA BKN012=
201212030020 METAR EGLL 030020Z 15006KT 8000 -RA FEW023 BKN025 03/02 Q1013=
201212022350 METAR COR EGLL 022350Z 15006KT 8000 -RA BKN024 03/01 Q1014
                        TEMPO 4000 RA BKN012=
201212022320 METAR COR EGLL 022320Z 16005KT 9999 -RA BKN027 03/01 Q1014
                        BECMG 6000=
201212022250 METAR COR EGLL 022250Z 21005KT 190V250 9999 -RA BKN030 03/01
                        Q1015 BECMG 6000 RA=
201212022220 METAR COR EGLL 022220Z 21006KT 9999 -RA SCT039 03/00 Q1015
                        BECMG 6000 RA=
201212022150 METAR COR EGLL 022150Z 20006KT 180V240 9999 FEW046 03/00
                        Q1015 BECMG 6000 RA=
201212022120 METAR COR EGLL 022120Z 18005KT 100V220 CAVOK 03/00 Q1015
                        NOSIG=
201212022050 METAR COR EGLL 022050Z 19005KT CAVOK 03/00 Q1016 BECMG 6000
                        RA=
201212022020 METAR COR EGLL 022020Z 21006KT 180V260 CAVOK 03/00 Q1016
                        NOSIG=
201212021950 METAR COR EGLL 021950Z 21005KT 180V250 CAVOK 03/00 Q1016
                        NOSIG=
201212021920 METAR COR EGLL 021920Z 21005KT 170V270 CAVOK 03/00 Q1016
                        NOSIG=
201212021850 METAR COR EGLL 021850Z 22007KT CAVOK 03/M00 Q1016 NOSIG=
201212021820 METAR COR EGLL 021820Z 21005KT 170V300 CAVOK 04/00 Q1016
                        NOSIG=
201212021750 METAR COR EGLL 021750Z 22005KT 180V250 CAVOK 03/M00 Q1016
                        NOSIG=
201212021720 METAR COR EGLL 021720Z 22005KT 180V260 CAVOK 03/M01 Q1016
                        NOSIG=
201212021650 METAR COR EGLL 021650Z 22005KT CAVOK 03/M01 Q1016 NOSIG=
201212021620 METAR COR EGLL 021620Z 23006KT 190V260 CAVOK 03/M00 Q1016
                        NOSIG=
201212021550 METAR COR EGLL 021550Z 27004KT 230V290 CAVOK 03/M01 Q1016
                        NOSIG=
201212021520 METAR EGLL 021520Z 27005KT CAVOK 04/M00 Q1016=
201212021450 METAR COR EGLL 021450Z 28006KT CAVOK 04/M00 Q1016 NOSIG=
201212021420 METAR COR EGLL 021420Z 28006KT CAVOK 04/00 Q1016 NOSIG=
201212021350 METAR COR EGLL 021350Z 29005KT CAVOK 06/00 Q1017 NOSIG=
201212021320 METAR COR EGLL 021320Z 28006KT CAVOK 05/M00 Q1017 NOSIG=
201212021250 METAR COR EGLL 021250Z 28007KT CAVOK 05/00 Q1017 NOSIG=
201212021220 METAR COR EGLL 021220Z 29006KT CAVOK 04/00 Q1017 NOSIG=
201212021150 METAR COR EGLL 021150Z 28007KT CAVOK 04/M00 Q1017 NOSIG=
201212021120 METAR COR EGLL 021120Z 28007KT CAVOK 03/M00 Q1017 NOSIG=
201212021050 METAR COR EGLL 021050Z 29006KT CAVOK 03/M01 Q1018 NOSIG=
201212021020 METAR COR EGLL 021020Z 28006KT CAVOK 02/M01 Q1017 NOSIG=
201212020950 METAR COR EGLL 020950Z 28006KT CAVOK 01/M01 Q1017 NOSIG=
201212020920 METAR COR EGLL 020920Z 28006KT CAVOK 00/M01 Q1017 NOSIG=
201212020850 METAR COR EGLL 020850Z 28006KT CAVOK M01/M02 Q1017 NOSIG=
201212020820 METAR COR EGLL 020820Z 28005KT CAVOK M01/M03 Q1017 NOSIG=
201212020750 METAR COR EGLL 020750Z 30003KT CAVOK M01/M03 Q1017 NOSIG=
201212020720 METAR COR EGLL 020720Z 29004KT CAVOK M00/M02 Q1016 NOSIG=
201212020650 METAR COR EGLL 020650Z 29004KT CAVOK M02/M03 Q1016 NOSIG=
201212020620 METAR COR EGLL 020620Z 29004KT CAVOK M02/M03 Q1016 NOSIG=
201212020550 METAR COR EGLL 020550Z 27006KT CAVOK M03/M04 Q1016 NOSIG=
201212020520 METAR COR EGLL 020520Z 29003KT CAVOK M03/M03 Q1016 NOSIG=
201212020450 METAR COR EGLL 020450Z 28006KT CAVOK M02/M03 Q1016 NOSIG=
201212020420 METAR COR EGLL 020420Z 28006KT CAVOK M03/M03 Q1016 NOSIG=
201212020350 METAR COR EGLL 020350Z 27005KT CAVOK M02/M03 Q1016 NOSIG=
201212020320 METAR COR EGLL 020320Z 28005KT CAVOK M02/M03 Q1016 NOSIG=
201212020250 METAR COR EGLL 020250Z 30004KT CAVOK M02/M03 Q1016 NOSIG=
201212020220 METAR COR EGLL 020220Z 29005KT CAVOK M02/M03 Q1016 NOSIG=
201212020150 METAR EGLL 020150Z NIL=
201212020120 METAR EGLL 020120Z NIL=
201212020050 METAR COR EGLL 020050Z 28005KT CAVOK M02/M03 Q1016 NOSIG=
201212020020 METAR COR EGLL 020020Z 30003KT CAVOK M01/M03 Q1016 NOSIG=
201212012350 METAR EGLL 012350Z NIL=
201212012320 METAR EGLL 012320Z NIL=
201212012250 METAR COR EGLL 012250Z 29006KT CAVOK 01/M01 Q1016 NOSIG=
201212012220 METAR COR EGLL 012220Z 29006KT CAVOK 02/M01 Q1016 NOSIG=
201212012150 METAR COR EGLL 012150Z 29007KT CAVOK 02/M01 Q1015 NOSIG=
201212012120 METAR COR EGLL 012120Z 30005KT CAVOK 02/M00 Q1015 NOSIG=
201212012050 METAR COR EGLL 012050Z 29006KT CAVOK 03/M01 Q1015 NOSIG=
201212012020 METAR COR EGLL 012020Z 30006KT CAVOK 03/M00 Q1015 NOSIG=
201212011950 METAR COR EGLL 011950Z 29006KT CAVOK 02/M00 Q1015 NOSIG=
201212011920 METAR COR EGLL 011920Z 30005KT CAVOK 03/M00 Q1015 NOSIG=
201212011850 METAR COR EGLL 011850Z 30005KT CAVOK 03/00 Q1015 NOSIG=
201212011820 METAR COR EGLL 011820Z 31006KT CAVOK 04/00 Q1015 NOSIG=
201212011750 METAR COR EGLL 011750Z 30005KT CAVOK 04/M00 Q1015 NOSIG=
201212011720 METAR COR EGLL 011720Z 32005KT 9999 FEW029 05/00 Q1014 NOSIG=
201212011650 METAR COR EGLL 011650Z 33007KT 9999 SCT029 05/00 Q1014 NOSIG=
201212011620 METAR COR EGLL 011620Z 31007KT 9999 SCT036 05/01 Q1014 NOSIG=
201212011550 METAR COR EGLL 011550Z 31005KT 9999 FEW024 BKN034 06/01 Q1014
                        NOSIG=
201212011520 METAR COR EGLL 011520Z 30007KT 9999 FEW028 SCT034 06/01 Q1014
                        NOSIG=
201212011450 METAR EGLL 011450Z 31008KT 9999 FEW023 BKN030 06/01 Q1013=
201212011420 METAR COR EGLL 011420Z 30008KT 9999 SCT023 BKN030 06/02 Q1013
                        NOSIG=
201212011350 METAR COR EGLL 011350Z 30009KT 9999 FEW018 SCT023 06/03 Q1013
                        NOSIG=
201212011320 METAR COR EGLL 011320Z 29009KT 9999 SCT022 06/03 Q1013 NOSIG=
201212011250 METAR COR EGLL 011250Z 27014KT 9999 FEW032 05/03 Q1013 NOSIG=
201212011220 METAR COR EGLL 011220Z 28010KT 9999 FEW025 SCT034 05/03 Q1014
                        NOSIG=
201212011150 METAR COR EGLL 011150Z 28010KT 9999 SCT034 04/02 Q1014 NOSIG=
201212011120 METAR COR EGLL 011120Z 27011KT 9999 FEW020 04/03 Q1014 NOSIG=
201212011050 METAR COR EGLL 011050Z 27007KT 9999 FEW020 02/02 Q1014 NOSIG=
201212011020 METAR COR EGLL 011020Z 24005KT 170V310 7000 NSC 01/01 Q1015
                        NOSIG=
201212010950 METAR COR EGLL 010950Z 23005KT 200V270 5000 BR FEW002 00/M00
                        Q1015 NOSIG=
201212010920 METAR COR EGLL 010920Z 24006KT 200V280 4000 BR SCT002 M00/M01
                        Q1015 BECMG 9999 NSW=
201212010850 METAR COR EGLL 010850Z 21005KT 2500 BR SCT002 SCT003 M01/M01
                        Q1014 BECMG 6000=
201212010820 METAR COR EGLL 010820Z 22005KT 1500 BR SCT002 BKN003 M01/M01
                        Q1015 BECMG 5000 BKN005=
201212010750 METAR COR EGLL 010750Z 21005KT 180V270 2000 BR SCT002 BKN003
                        M01/M01 Q1015 BECMG 5000 SCT005=
201212010720 METAR COR EGLL 010720Z 21005KT 190V260 1200 R27R/P1500 R27L/P1500
                        BR SCT001 BKN003 M01/M01 Q1015 BECMG
                        3000 BR SCT002 BKN005=
201212010650 METAR COR EGLL 010650Z 20004KT 160V230 0300 R27R/P1500 R27L/P1500=
201212010620 METAR COR EGLL 010620Z 23005KT 200V270 0200 R27R/0700 R27L/0350
                        FZFG FEW000 BKN001 M01/M01 Q1015
                        BECMG 0800 BCFG SCT001 BKN003=
201212010550 METAR COR EGLL 010550Z 26004KT 0200 R27R/0350 R27L/0350 FZFG
                        SCT000 BKN001 M00/M01 Q1015 BECMG
                        0600=
201212010520 METAR COR EGLL 010520Z VRB03KT 0250 R27R/0400 R27L/0300 FZFG
                        FEW000 BKN001 M01/M01 Q1015 BECMG
                        0600=
201212010450 METAR COR EGLL 010450Z VRB03KT 0250 R27R/0350 FZFG SCT000
                        BKN001 M01/M01 Q1015 BECMG 0600=
201212010420 METAR COR EGLL 010420Z 27002KT 0250 R27R/0350 FZFG SCT000
                        BKN001 M01/M01 Q1015 NOSIG=
201212010350 METAR COR EGLL 010350Z 30003KT 0250 R27R/0550 FZFG SCT000
                        BKN001 M01/M01 Q1015 NOSIG=
201212010320 METAR COR EGLL 010320Z 30004KT 0250 R27R/0500 FZFG VV///
                        M01/M01 Q1015 TEMPO 0600=
201212010250 METAR COR EGLL 010250Z 30005KT 0700 R27R/0650 FZFG BKN001
                        M01/M02 Q1015 TEMPO 0250=
201212010220 METAR EGLL 010220Z AUTO 30005KT 2800 BR NCD M01/M01 Q1015=
201212010150 METAR EGLL 010150Z AUTO VRB02KT 0600 R27R/P1500 FG NCD M01/M01
                        Q1015=
201212010120 METAR EGLL 010120Z AUTO 27003KT 1900 BR NCD M00/M01 Q1015=
201212010050 METAR COR EGLL 010050Z VRB03KT 6000 NSC M00/M01 Q1015 TEMPO
                        2000 BR VCFG=
201212010020 METAR COR EGLL 010020Z 32003KT 6000 NSC M00/M01 Q1014 TEMPO
                        3000 BR=

# No short TAF reports from EGLL in databse.

###################################
#  large TAF from EGLL
###################################
201212270504 TAF EGLL 270504Z 2706/2812 22008KT 9999 SCT025
                      TEMPO 2707/2714 6000 RA BKN014
                      PROB40 TEMPO 2708/2712 4000 +RA
                      BECMG 2709/2712 34013KT
                      TEMPO 2709/2714 34016G26KT
                      BECMG 2719/2722 25006KT
                      BECMG 2802/2805 18010KT 8000 -RA BKN008
                      TEMPO 2805/2810 4000 RADZ BKN004=
201212262305 TAF EGLL 262305Z 2700/2806 24012KT 9999 FEW035
                      TEMPO 2706/2713 6000 RA BKN012
                      BECMG 2709/2712 34012KT
                      PROB40 TEMPO 2709/2714 34015G25KT
                      BECMG 2715/2718 27005KT
                      TEMPO 2802/2806 7000 RA
                      BECMG 2803/2806 BKN008=
201212262045 TAF AMD EGLL 262045Z 2620/2724 22012KT 9999 SCT020
                      TEMPO 2706/2710 21016G26KT 5000 SHRA BKN012CB
                       TEMPO 2710/2713 26015G25KT 7000 RA BKN014
                       BECMG 2713/2716 33012KT=
201212261705 TAF EGLL 261705Z 2618/2724 22012KT 9999 SCT020
                      PROB30 TEMPO 2618/2619 22017G28KT 4000 SHRA
                       BKN012
                      TEMPO 2619/2623 25016G28KT
                      TEMPO 2706/2710 21016G26KT 5000 SHRA BKN012CB
                       TEMPO 2710/2713 26015G25KT 7000 RA BKN014
                       BECMG 2713/2716 33012KT=
201212261105 TAF EGLL 261105Z 2612/2718 23012KT 9999 SCT020
                      TEMPO 2614/2618 21017G28KT 7000 SHRA
                      PROB30 TEMPO 2615/2617 4000 +SHRA BKN014CB
                       BECMG 2617/2619 26015G25KT
                      BECMG 2621/2624 24011KT
                      TEMPO 2707/2715 27016G27KT 6000 SHRA BKN012CB
                       BECMG 2712/2715 33012KT=
201212260506 TAF EGLL 260506Z 2606/2712 23010KT 9999 SCT020
                      TEMPO 2612/2621 21020G30KT 7000 SHRA
                      PROB40 TEMPO 2613/2619 4000 +SHRA BKN012CB
                       TEMPO 2708/2712 29018G28KT 4000 +SHRA BKN010CB=
201212252301 TAF EGLL 252301Z 2600/2706 23008KT 9999 SCT020
                      PROB30 TEMPO 2600/2603 7000 SHRA
                      TEMPO 2612/2621 23020G30KT 7000 SHRA
                      PROB40 TEMPO 2613/2619 4000 +SHRA BKN012CB=
201212251705 TAF EGLL 251705Z 2518/2624 26012KT 9999 FEW030 BKN040
                      PROB30 2600/2602 9000 -RA
                      TEMPO 2609/2617 26015G25KT 6000 RA BKN010
                       PROB30
                      TEMPO 2613/2616 4000 +RA=
201212251101 TAF EGLL 251101Z 2512/2618 21009KT 9999 FEW020 BKN030
                      TEMPO 2512/2515 7000 SHRA
                      PROB30 TEMPO 2512/2513 22015G25KT 4000 +SHRA
                       BKN014CB
                      BECMG 2514/2517 27012KT
                      PROB30 2523/2602 9000 -RA BKN012
                      TEMPO 2608/2618 6000 RA BKN010
                      PROB40 TEMPO 2614/2618 26015G25KT 4000 +RA=
201212250454 TAF EGLL 250454Z 2506/2612 19010KT 9999 SCT015
                      TEMPO 2506/2512 19015G25KT 4000 +SHRA BKN014CB
                       BECMG 2512/2515 26012KT
                      PROB30 TEMPO 2512/2516 25015G25KT 8000 SHRA
                       TEMPO 2521/2602 7000 -SHRA BKN012
                      PROB30 TEMPO 2608/2612 6000 -SHRA=
201212250418 TAF AMD EGLL 250418Z 2504/2606 22008KT 9999 SCT015
                      TEMPO 2504/2511 19015G25KT 4000 +SHRA BKN014CB
                       PROB30
                      TEMPO 2511/2516 8000 SHRA=
201212242301 TAF EGLL 242301Z 2500/2606 22008KT 9999 SCT015
                      PROB30 TEMPO 2500/2503 7000 -RA BKN012
                      TEMPO 2507/2511 19015G25KT 4000 +SHRA BKN014CB
                       PROB30
                      TEMPO 2511/2516 8000 SHRA=
201212242300 TAF AMD EGLL 250418Z 2504/2606 22008KT 9999 SCT015
                      TEMPO 2504/2511 19015G25KT 4000 +SHRA BKN014CB
                       PROB30
                      TEMPO 2511/2516 8000 SHRA=
201212241658 TAF EGLL 241658Z 2418/2524 23012KT 9999 SCT020
                      PROB30 TEMPO 2420/2503 7000 -RA BKN009
                      TEMPO 2507/2511 19015G25KT 4000 +SHRA BKN012
                       PROB30
                      TEMPO 2511/2517 9000 -SHRA
                      PROB30 TEMPO 2522/2524 7000 SHRA=
201212241101 TAF EGLL 241101Z 2412/2518 19015KT 9999 SCT012 BKN018
                      TEMPO 2412/2416 20016G28KT 4500 RA BKN008
                       BECMG 2415/2418 23015G25KT
                      PROB30 TEMPO 2419/2503 7000 -RA BKN006
                      BECMG 2420/2423 23010KT
                      TEMPO 2507/2513 19016G26KT 4000 +SHRA BKN012CB=
201212240501 TAF EGLL 240501Z 2406/2512 17005KT 9999 FEW010 SCT040
                      TEMPO 2406/2416 7000 -RA BKN012
                      PROB30 TEMPO 2406/2409 3000 RADZ SCT003 BKN004
                       BECMG 2407/2409 20018G28KT
                      BECMG 2413/2416 22008KT
                      PROB30 TEMPO 2413/2416 4000 RA BKN008
                      PROB30 TEMPO 2421/2504 8000 -RA BKN010
                      PROB40 TEMPO 2508/2512 23016G26KT 4000 +SHRA
                       BKN014CB=
201212240102 TAF AMD EGLL 240102Z 2401/2506 17005KT 9999 FEW010 SCT045
                      TEMPO 2401/2415 7000 -RA BKN010
                      PROB30 TEMPO 2403/2409 3000 RADZ SCT003 BKN005
                       BECMG 2406/2409 20018G28KT
                      BECMG 2413/2416 22008KT
                      PROB30 TEMPO 2413/2416 4000 RA BKN008
                      PROB30 TEMPO 2421/2506 8000 -RA BKN010=
201212232310 TAF EGLL 232310Z 2400/2506 17005KT 9999 FEW010 SCT045
                      TEMPO 2402/2415 7000 -RA BKN010
                      PROB30 TEMPO 2403/2409 3000 RADZ SCT003 BKN005
                       BECMG 2406/2409 20018G28KT
                      BECMG 2413/2416 22008KT
                      PROB30 TEMPO 2413/2416 4000 RA BKN008
                      PROB30 TEMPO 2421/2506 8000 -RA BKN010=
201212232300 TAF AMD EGLL 240102Z 2401/2506 17005KT 9999 FEW010 SCT045
                      TEMPO 2401/2415 7000 -RA BKN010
                      PROB30 TEMPO 2403/2409 3000 RADZ SCT003 BKN005
                       BECMG 2406/2409 20018G28KT
                      BECMG 2413/2416 22008KT
                      PROB30 TEMPO 2413/2416 4000 RA BKN008
                      PROB30 TEMPO 2421/2506 8000 -RA BKN010=
201212231654 TAF EGLL 231654Z 2318/2424 24010KT 9999 SCT020
                      BECMG 2321/2324 17006KT
                      BECMG 2400/2403 8000 -RA BKN012
                      PROB40 TEMPO 2400/2408 17015G25KT 4000 RA
                       BKN008
                      TEMPO 2408/2418 20020G32KT 4000 RA BKN008
                       BECMG 2415/2418 23012KT 9999 NSW FEW012
                       PROB30
                      TEMPO 2421/2424 6000 -RA BKN006=
201212231101 TAF EGLL 231101Z 2312/2418 26012KT 9999 SCT020
                      BECMG 2321/2324 20006KT
                      TEMPO 2321/2409 4000 RA BKN008
                      PROB30 TEMPO 2402/2408 16015G25KT
                      TEMPO 2409/2418 6000 RA BKN012
                      PROB40 TEMPO 2410/2415 3000 RADZ BKN005=
201212230511 TAF EGLL 230511Z 2306/2412 23012KT 9999 BKN012
                      BECMG 2306/2309 SCT018
                      PROB30 TEMPO 2306/2307 8000 -RA
                      TEMPO 2309/2315 25015G25KT
                      TEMPO 2322/2410 5000 RA BKN010
                      PROB40 TEMPO 2404/2410 18016G26KT
                      PROB30 TEMPO 2410/2412 26018G28KT=
201212230500 TAF EGLL 230500Z NIL=
201212222303 TAF EGLL 222303Z 2300/2406 23012KT 9999 -RA BKN010
                      TEMPO 2300/2308 5000 RA
                      PROB40 TEMPO 2300/2306 22015G25KT BKN015
                       BECMG 2306/2309 NSW SCT018
                      TEMPO 2310/2315 25015G25KT
                      TEMPO 2322/2406 4000 RA BKN012
                      PROB30 2404/2406 19015G25KT=
201212221700 TAF EGLL 221700Z 2218/2324 23012KT 9999 -RA BKN012
                      TEMPO 2218/2308 5000 RA BKN008
                      PROB40 TEMPO 2302/2308 22015G25KT BKN015
                       BECMG 2308/2311 NSW SCT015 BKN040
                      TEMPO 2321/2324 4000 RA BKN012=
201212221102 TAF EGLL 221102Z 2212/2318 23012KT 9999 -RA BKN012
                      TEMPO 2212/2302 4000 RA BKN008
                      PROB30 TEMPO 2212/2214 SCT002 BKN004
                      PROB30 TEMPO 2302/2308 22015G25KT 7000 BKN015
                       BECMG 2308/2311 NSW FEW014 BKN040=
201212220805 TAF AMD EGLL 220805Z 2208/2312 16014KT 9999 -RA BKN012
                      TEMPO 2208/2302 4000 +RA BKN008
                      BECMG 2210/2213 23015KT
                      PROB30 TEMPO 2211/2214 SCT002 BKN004
                      TEMPO 2302/2308 22015G25KT 7000 BKN015
                      BECMG 2308/2311 NSW FEW014 BKN040=
201212220502 TAF EGLL 220502Z 2206/2312 16014KT 9999 FEW010 BKN040
                      BECMG 2206/2208 7000 -RA BKN012
                      TEMPO 2206/2302 4000 +RA BKN008
                      BECMG 2210/2213 23015KT
                      PROB30 TEMPO 2211/2214 SCT002 BKN004
                      TEMPO 2301/2308 22015G25KT 9999 NSW BKN015
                       BECMG 2308/2311 9999 NSW FEW014 BKN040=
201212212303 TAF EGLL 212303Z 2200/2306 21005KT 9999 FEW005
                      PROB30 TEMPO 2200/2202 7000
                      TEMPO 2202/2204 3000 -RA BKN004
                      BECMG 2204/2207 15014KT 7000 -RA BKN012
                      TEMPO 2204/2301 4000 RA +RA BKN008
                      BECMG 2210/2212 23015KT
                      PROB30 TEMPO 2210/2213 SCT002 BKN004
                      TEMPO 2301/2306 22015G25KT 9999 NSW BKN015=
201212211701 TAF EGLL 211701Z 2118/2224 26006KT 9999 FEW030
                      BECMG 2121/2124 7000
                      PROB30 TEMPO 2122/2202 0800 BCFG BKN001
                      PROB40 TEMPO 2202/2204 3000 BR BKN004
                      BECMG 2204/2206 17012KT -RA BKN012
                      TEMPO 2204/2224 4000 RA BKN008
                      PROB30 TEMPO 2206/2210 16015G25KT
                      BECMG 2209/2212 23010KT
                      PROB30 TEMPO 2210/2214 3000 RADZ BR SCT002
                       BKN004=
201212211131 TAF COR EGLL 211131Z 2112/2218 26008KT 9999 FEW010
                      PROB30 TEMPO 2112/2115 BKN012
                      BECMG 2117/2120 6000
                      PROB30 2119/2202 0800 FG BKN001
                      TEMPO 2200/2204 4000 BR BKN004
                      BECMG 2203/2206 17012KT RA BKN012
                      TEMPO 2204/2210 16018G28KT 4000 +RA RADZ
                       BKN007
                      TEMPO 2210/2218 BKN008
                      PROB30 TEMPO 2211/2215 3000 DZ BKN004
                      BECMG 2212/2215 23012KT 9999 -RA=
201212211104 TAF EGLL 211104Z 2112/2218 26008KT 9999 FEW010
                      PROB30 TEMPO 2112/1215 BKN012
                      BECMG 2117/2120 6000
                      PROB30 2119/2202 0800 FG BKN001
                      TEMPO 2200/2204 4000 BR BKN004
                      BECMG 2203/2206 17012KT RA BKN012
                      TEMPO 2204/2210 16018G28KT 4000 +RA RADZ
                       BKN007
                      TEMPO 2210/2218 BKN008
                      PROB30 TEMPO 2211/2215 3000 DZ BKN004
                      BECMG 2212/2215 23012KT 9999 -RA=
201212210857 TAF AMD EGLL 210857Z 2108/2212 23007KT 9999 FEW025 SCT040
                      TEMPO 2108/2110 8000
                      TEMPO 2119/2202 7000
                      BECMG 2202/2205 17011KT 6000 RA BKN012
                      TEMPO 2207/2212 17015G25KT 4000 RADZ BKN006=
201212210453 TAF EGLL 210453Z 2106/2212 23007KT 9999 FEW025 SCT040
                      TEMPO 2119/2202 7000
                      BECMG 2202/2205 17011KT 6000 RA BKN012
                      TEMPO 2207/2212 17015G25KT 4000 RADZ BKN006=
201212202256 TAF EGLL 202256Z 2100/2206 24010KT 9999 FEW020 SCT040
                      PROB30 TEMPO 2100/2104 BKN010
                      PROB30 TEMPO 2104/2109 6000 BKN008
                      BECMG 2117/2120 7000
                      PROB40 TEMPO 2120/2201 4500 BR
                      PROB30 TEMPO 2121/2124 0800 BCFG BKN001
                      BECMG 2202/2205 17013KT 5000 RA BKN012=
201212201703 TAF EGLL 201703Z 2018/2124 25011KT 9999 FEW015 SCT045
                      PROB30 TEMPO 2018/2021 7000 -RA BKN010
                      PROB30 TEMPO 2021/2104 BKN010
                      PROB30 TEMPO 2104/2109 5000 BR BKN008
                      BECMG 2116/2119 19004KT 6000
                      PROB40 2119/2124 0500 FG BKN000=
201212201101 TAF EGLL 201101Z 2012/2118 14011KT 9999 -RA FEW006 BKN012
                      TEMPO 2012/2018 4500 RADZ +RA BKN006
                      BECMG 2016/2018 25010KT NSW SCT015
                      PROB30 TEMPO 2017/2020 27015G25KT -RA BKN012
                       PROB40
                      TEMPO 2020/2109 BKN008
                      PROB30 TEMPO 2105/2109 19005KT 5000 BR=
201212200500 TAF EGLL 200500Z 2006/2112 14010KT 8000 -RA BKN012
                      TEMPO 2006/2019 4000 RADZ +RA BKN006
                      BECMG 2018/2021 25010KT 9999 NSW SCT015
                      TEMPO 2023/2110 BKN012
                      PROB30 TEMPO 2103/2108 BKN008=
201212192302 TAF EGLL 192302Z 2000/2106 13010KT 8000 -RA BKN012
                      TEMPO 2000/2019 4000 RADZ +RA BKN006
                      BECMG 2017/2020 25008KT 9999 NSW SCT015
                      PROB30 TEMPO 2023/2106 BKN008=
201212191741 TAF AMD EGLL 191741Z 1918/2024 13012KT 7000 -RA BKN012
                      PROB40 TEMPO 1918/1924 3000 +RA RADZ BKN007
                       TEMPO 2000/2021 3000 +RA RADZ BKN006
                      BECMG 2018/2021 25010KT 9999 NSW SCT015=
201212191700 TAF EGLL 191700Z 1918/2024 13012KT 9999 -RA BKN040
                      BECMG 1918/1921 7000 BKN012
                      TEMPO 1920/2021 BKN007
                      PROB30 TEMPO 1920/1924 13015G25KT 4000 +RA
                       PROB40
                      TEMPO 2000/2011 4000 +RA RADZ
                      BECMG 2018/2021 25010KT 9999 NSW SCT015=
201212191100 TAF EGLL 191100Z 1912/2018 13012KT 9999 SCT045
                      TEMPO 1912/1919 8000 -RA
                      PROB30 TEMPO 1916/1923 11015G25KT
                      BECMG 1919/1922 7000 -RA BKN012
                      TEMPO 1920/2011 4000 +RA RADZ BKN007
                      TEMPO 2011/2018 9999 BKN007=
201212190801 TAF AMD EGLL 190801Z 1908/2012 11008KT 9999 FEW020
                      TEMPO 1908/1912 7000
                      PROB40 TEMPO 1913/1917 9000 -RA
                      BECMG 1917/1920 8000 -RA
                      TEMPO 1921/2012 RA BKN010
                      PROB40 TEMPO 1922/2004 11015G25KT 4500 +RA
                       BKN007
                      TEMPO 2007/2012 9999=
201212190502 TAF EGLL 190502Z 1906/2012 11008KT 9999 FEW020
                      PROB30 TEMPO 1906/1908 7000
                      PROB40 TEMPO 1913/1917 9000 -RA
                      BECMG 1917/1920 8000 -RA
                      TEMPO 1921/2012 RA BKN010
                      PROB40 TEMPO 1922/2004 11015G25KT 4500 +RA
                       BKN007
                      TEMPO 2007/2012 9999=
201212182306 TAF EGLL 182306Z 1900/2006 VRB04KT 9999 FEW018 SCT035
                      TEMPO 1900/1907 7000
                      PROB30 TEMPO 1900/1904 4000 BR BKN004
                      BECMG 1907/1910 11012KT
                      PROB40 TEMPO 1913/1918 9000 -RA
                      BECMG 1918/1920 8000 -RA
                      TEMPO 1922/2006 RA BKN010
                      PROB40 TEMPO 1922/2004 11015G25KT 4500 +RA
                       BKN007=
201212182100 TAF AMD EGLL 182100Z 1821/1924 VRB03KT 9999 SCT040
                      TEMPO 1821/1905 7000
                      PROB30 1823/1903 3000 BR BKN003
                      BECMG 1904/1907 11012KT
                      PROB40 TEMPO 1913/1916 9000 -RA
                      BECMG 1916/1919 8000 -RA
                      TEMPO 1918/1924 RA BKN012
                      PROB30 TEMPO 1922/1924 10015G25KT 4000 +RA
                       BKN008=
201212181702 TAF EGLL 181702Z 1818/1924 VRB03KT 9999 SCT040
                      BECMG 1818/1820 7000
                      PROB30 1820/1903 3000 BR BKN003
                      BECMG 1904/1907 11012KT 9999
                      PROB40 TEMPO 1913/1916 9000 -RA
                      BECMG 1916/1919 8000 -RA
                      TEMPO 1918/1924 RA BKN012
                      PROB30 TEMPO 1922/1924 10015G25KT 4000 +RA
                       BKN008=
201212181101 TAF EGLL 181101Z 1812/1918 33010KT 9999 SCT025
                      BECMG 1816/1819 VRB03KT 7000
                      PROB30 1819/1904 2000 BR BKN004
                      BECMG 1905/1908 11011KT 9999
                      PROB40 TEMPO 1913/1916 8000 -RA
                      BECMG 1916/1918 6000 -RADZ BKN012
                      TEMPO 1917/1918 4000 RA BKN008=
201212180458 TAF EGLL 180458Z 1806/1912 31010KT 9999 SCT020 BKN040
                      PROB30 TEMPO 1806/1812 BKN012
                      BECMG 1818/1821 VRB03KT 7000
                      PROB30 TEMPO 1819/1902 2000 MIFG
                      BECMG 1903/1906 11010KT 9999=
201212172255 TAF EGLL 172255Z 1800/1906 25008KT 9999 FEW020
                      BECMG 1800/1803 31010KT
                      PROB30 TEMPO 1803/1813 BKN012
                      BECMG 1818/1821 VRB03KT 6000
                      TEMPO 1819/1902 2000 MIFG
                      PROB30 TEMPO 1820/1902 1200 BKN005
                      BECMG 1903/1906 11010KT 9999=
201212171700 TAF EGLL 171700Z 1718/1824 24010KT 9999 SCT020
                      PROB30 TEMPO 1718/1801 7000 SHRA BKN014
                      TEMPO 1801/1810 BKN012
                      BECMG 1815/1818 VRB02KT 7000 BKN010
                      PROB30 TEMPO 1820/1824 3000 BR BKN005=
201212171103 TAF EGLL 171103Z 1712/1818 24010KT 9999 FEW025
                      PROB30 TEMPO 1716/1802 24015G25KT 7000 SHRA
                       BKN014
                      TEMPO 1812/1818 BKN012
                      BECMG 1814/1817 VRB03KT BKN007=
201212170501 TAF EGLL 170501Z 1706/1812 24008KT 9999 FEW020
                      PROB30 1706/1709 8000
                      PROB30 TEMPO 1721/1801 6000 SHRA
                      PROB30 TEMPO 1809/1812 BKN012=
201212170303 TAF AMD EGLL 170303Z 1703/1806 22008KT 9999 SCT030
                      PROB40 1703/1709 8000
                      PROB30 TEMPO 1721/1724 6000 SHRA=
201212162300 TAF AMD EGLL 170303Z 1703/1806 22008KT 9999 SCT030
                      PROB40 1703/1709 8000
                      PROB30 TEMPO 1721/1724 6000 SHRA=
201212162257 TAF EGLL 162257Z 1700/1806 22008KT 9999 SCT030
                      PROB30 TEMPO 1721/1724 6000 SHRA=
201212161700 TAF EGLL 161700Z 1618/1724 20008KT 9999 SCT030
                      PROB30 TEMPO 1618/1706 7000 SHRA BKN014CB
                       BECMG 1709/1712 26010KT
                      PROB30 TEMPO 1716/1721 25015G25KT 8000 -SHRA
                       PROB30
                      TEMPO 1721/1724 BKN012=
201212161508 TAF AMD EGLL 161508Z 1615/1718 19007KT 9999 SCT025
                      PROB40 1616/1618 20015G25KT 4000 +SHRA TSRA
                       BKN012CB
                      PROB30 TEMPO 1618/1706 7000 SHRA BKN014CB
                       BECMG 1709/1711 26010KT
                      PROB30 TEMPO 1715/1718 25015G25KT 8000 -SHRA=
201212161102 TAF EGLL 161102Z 1612/1718 19007KT 9999 SCT025
                      PROB30 TEMPO 1619/1706 7000 SHRA BKN014CB
                       BECMG 1709/1711 26010KT
                      PROB30 TEMPO 1715/1718 25015G25KT 8000 -SHRA=
201212160455 TAF EGLL 160455Z 1606/1712 22009KT 9999 FEW040
                      PROB30 1606/1609 9000
                      PROB30 TEMPO 1620/1624 5000 SHRA BKN012CB
                       PROB30
                      TEMPO 1710/1712 27015G25KT=
201212152259 TAF EGLL 152259Z 1600/1706 22009KT 9999 FEW035
                      PROB30 1603/1610 7000
                      PROB30 TEMPO 1621/1624 5000 SHRA BKN012CB=
201212151656 TAF EGLL 151656Z 1518/1624 21010KT 9999 FEW020
                      PROB30 TEMPO 1518/1520 6000 SHRA
                      PROB30 1603/1610 5000 BR
                      PROB30 TEMPO 1622/1624 5000 +SHRA BKN014CB=
201212151101 TAF EGLL 151101Z 1512/1618 21010KT 9999 FEW020
                      PROB30 TEMPO 1514/1520 6000 SHRA BKN012CB
                       PROB30 1603/1610 5000 BR=
201212150510 TAF EGLL 150510Z 1506/1612 21014KT 9999 FEW030
                      PROB30 TEMPO 1514/1520 6000 SHRA BKN012CB=
201212150500 TAF EGLL 150500Z NIL=
201212142256 TAF EGLL 142256Z 1500/1606 21011KT 9999 FEW030
                      PROB30 TEMPO 1507/1515 8000 -SHRA
                      PROB40 TEMPO 1515/1521 6000 SHRA BKN010CB=
201212141658 TAF EGLL 141658Z 1418/1524 22020G35KT 9999 SCT020
                      PROB30 TEMPO 1418/1420 6000 RA BKN014
                      BECMG 1420/1423 22008KT
                      PROB30 TEMPO 1506/1517 6000 SHRA BKN014CB
                       TEMPO 1517/1524 4000 SHRA BKN010CB=
201212141220 TAF AMD EGLL 141220Z 1412/1518 14015KT 9999 BKN012
                      TEMPO 1412/1416 7000 RA BKN008
                      PROB30 TEMPO 1412/1416 14018G28KT 3000 +RA
                       BECMG 1414/1417 22018G32KT SCT020
                      BECMG 1420/1423 23012KT
                      PROB30 TEMPO 1509/1518 6000 SHRA BKN014CB=
201212141100 TAF EGLL 141100Z 1412/1518 14018G28KT 7000 -RA BKN012
                      TEMPO 1412/1416 3000 +RA BKN008
                      BECMG 1414/1417 22018G32KT 9999 NSW SCT020
                       BECMG 1420/1423 23012KT
                      PROB30 TEMPO 1509/1518 6000 SHRA BKN014CB=
201212140937 TAF AMD EGLL 140937Z 1406/1512 14012KT 7000 -RA BKN012
                      TEMPO 1409/1417 3000 +RA BKN008
                      PROB40 TEMPO 1409/1414 9999 14015G25KT
                      BECMG 1414/1417 22018G28KT 9999 NSW SCT020
                       PROB30
                      TEMPO 1416/1420 22022G38KT
                      BECMG 1420/1423 22010KT=
201212140501 TAF EGLL 140501Z 1406/1512 08007KT 1400 BR BKN003
                      BECMG 1406/1409 14012KT 7000 -RA BKN010
                      TEMPO 1409/1417 4000 +RA BKN008
                      PROB40 TEMPO 1409/1414 14015G25KT
                      BECMG 1415/1418 22018G28KT 9999 NSW SCT040
                       PROB30
                      TEMPO 1416/1420 22022G38KT
                      BECMG 1420/1423 22010KT=
201212132306 TAF EGLL 132306Z 1400/1506 08007KT 2500 -DZ BR BKN005
                      TEMPO 1400/1405 1400 BKN002
                      BECMG 1405/1408 14012KT 7000 -RA BKN010
                      TEMPO 1408/1418 4000 +RA RADZ BKN008
                      PROB40 TEMPO 1408/1414 14015G25KT
                      BECMG 1414/1417 22017G27KT 9999 NSW SCT040
                       PROB30
                      TEMPO 1417/1420 23020G37KT
                      BECMG 1421/1424 22009KT=
201212132044 TAF AMD EGLL 132044Z 1320/1424 10009KT 6000 -DZ BKN012
                      BECMG 1320/1323 BKN005
                      TEMPO 1320/1404 1800 BR DZ BKN002
                      BECMG 1404/1407 9999 NSW BKN010
                      BECMG 1408/1411 7000 -RA
                      TEMPO 1410/1418 3000 +RA RADZ BKN008
                      PROB30 TEMPO 1411/1415 14015G25KT
                      BECMG 1416/1419 21013KT 9999 NSW FEW020=
201212131703 TAF EGLL 131703Z 1318/1424 10009KT 6000 BKN016
                      PROB30 TEMPO 1318/1320 BKN012
                      BECMG 1319/1322 -DZ BKN005
                      TEMPO 1321/1404 1800 BR DZ BKN002
                      BECMG 1404/1407 9999 NSW BKN010
                      BECMG 1408/1411 7000 -RA
                      TEMPO 1410/1418 3000 +RA RADZ BKN008
                      PROB30 TEMPO 1411/1415 14015G25KT
                      BECMG 1416/1419 21013KT 9999 NSW FEW020=
201212131059 TAF EGLL 131059Z 1312/1418 12008KT 7000 SCT018
                      PROB30 TEMPO 1313/1316 9999
                      PROB30 TEMPO 1318/1320 -SG BKN010
                      BECMG 1319/1322 -DZ BKN006
                      TEMPO 1321/1404 2000 DZ BKN003
                      BECMG 1403/1405 9999 NSW BKN012
                      BECMG 1408/1411 7000 -RA
                      TEMPO 1410/1418 3000 +RA RADZ BKN008
                      PROB30 TEMPO 1410/1413 13015G25KT
                      BECMG 1417/1418 23014KT 9999 NSW FEW020=
201212130455 TAF EGLL 130455Z 1306/1412 09005KT 7000 FEW045
                      PROB40 1306/1311 4000 BR
                      BECMG 1311/1314 9999
                      BECMG 1318/1321 5000 -DZ BKN008
                      PROB30 1322/1404 0600 FG VV///
                      BECMG 1408/1411 15014KT 4000 RA
                      TEMPO 1408/1412 15017G27KT=
201212122257 TAF EGLL 122257Z 1300/1406 10007KT 9999 FEW045
                      PROB40 1300/1302 8000
                      BECMG 1302/1305 6000
                      PROB40 1305/1310 4000 BR
                      BECMG 1310/1313 9999
                      BECMG 1317/1320 5000 -DZ BKN008
                      PROB40 1322/1404 0600 FG VV///=
201212121740 TAF AMD EGLL 121740Z 1218/1324 09003KT 9999 FEW045
                      PROB40 1218/1312 6000
                      PROB30 TEMPO 1218/1221 2500 BR
                      PROB30 TEMPO 1304/1310 3000 BR
                      PROB30 TEMPO 1316/1319 7000 BKN010
                      BECMG 1319/1322 15010KT 5000 -DZ BKN005
                      PROB40 TEMPO 1321/1324 2000 DZ BKN002=
201212121706 TAF EGLL 121706Z 1218/1324 09003KT 6000 SCT045
                      PROB30 TEMPO 1218/1221 0600 FZFG BKN000
                      PROB30 TEMPO 1304/1310 3000 BR
                      BECMG 1310/1313 9999
                      PROB30 TEMPO 1316/1319 7000 BKN010
                      BECMG 1319/1322 14010KT 5000 -DZ BKN005
                      PROB40 TEMPO 1321/1324 2000 DZ BKN002=
201212121102 TAF EGLL 121102Z 1212/1318 VRB03KT 4500 BR FEW005 SCT045
                      BECMG 1212/1214 7000 NSW
                      PROB30 1214/1216 9999
                      PROB30 TEMPO 1216/1222 0400 FZFG OVC000
                      PROB30 TEMPO 1304/1310 0600 BCFG BKN001
                      BECMG 1311/1313 9999
                      PROB30 TEMPO 1316/1318 7000 BKN010=
201212120935 TAF AMD EGLL 120935Z 1209/1312 VRB03KT 1400 BR BKN001
                      BECMG 1209/1210 3000 BR FEW005 SCT045
                      TEMPO 1209/1210 0300 FZFG SCT000
                      BECMG 1210/1212 7000 NSW
                      BECMG 1212/1214 9999
                      PROB40 1218/1310 7000
                      PROB30 TEMPO 1221/1308 0800 BCFG BKN001=
201212120746 TAF AMD EGLL 120746Z 1207/1312 VRB03KT 1400 BR BKN001
                      TEMPO 1207/1209 0300 FZFG SCT000
                      BECMG 1208/1210 4000 BR FEW005 SCT045
                      BECMG 1210/1212 7000 NSW
                      BECMG 1212/1214 9999
                      PROB40 1218/1310 7000
                      PROB30 TEMPO 1221/1308 0800 BCFG BKN001=
201212120502 TAF EGLL 120502Z 1206/1312 VRB03KT 0200 FZFG VV///
                      PROB30 TEMPO 1208/1210 0800
                      BECMG 1210/1213 3000 BR BKN004
                      BECMG 1213/1215 9999 NSW SCT040
                      PROB40 1218/1310 7000
                      PROB30 TEMPO 1221/1308 0800 BCFG BKN001=
201212111834 TAF AMD EGLL 111834Z 1118/1224 36004KT 0200 FZFG VV///
                      BECMG 1207/1210 4000 BR BKN006
                      BECMG 1210/1213 9999 NSW FEW040=
201212111709 TAF EGLL 111709Z 1118/1224 36004KT 3000 BR BKN005
                      BECMG 1118/1121 0200 FG VV///
                      BECMG 1207/1210 4000 BR BKN006
                      BECMG 1210/1213 9999 FEW040=
201212111102 TAF EGLL 111102Z 1112/1218 36005KT 6000 BKN006
                      TEMPO 1112/1117 9999 SCT006
                      BECMG 1117/1120 3000 BR
                      PROB40 1120/1122 0600 FG VV///
                      BECMG 1122/1201 0200 FZFG VV///
                      BECMG 1207/1210 6000 NSW BKN003
                      BECMG 1210/1213 9999 FEW045=
201212111054 TAF AMD EGLL 111054Z 1110/1212 34005KT 6000 FEW025
                      TEMPO 1110/1114 BKN005
                      BECMG 1118/1121 3500 BR
                      BECMG 1121/1124 0500 FZFG VV///
                      PROB40 1122/1209 0200
                      BECMG 1209/1212 7000 NSW NSC=
201212110734 TAF COR EGLL 110734Z 1107/1212 34005KT 9999 FEW025
                      TEMPO 1107/1111 7000
                      PROB30 TEMPO 1107/1110 1200 BR BKN003
                      BECMG 1116/1118 6000
                      BECMG 1118/1120 3500 BR
                      BECMG 1121/1124 0800 FZFG VV///
                      PROB40 1122/1209 0200
                      BECMG 1210/1212 7000 NSW NSC=
201212110502 TAF EGLL 110502Z 1106/1212 34005KT 9999 FEW025
                      TEMPO 1106/1111 7000
                      PROB30 TEMPO 1106/1110 1200 BR BKN003
                      BECMG 1116/1118 6000
                      BECMG 1118/1120 3500 BR
                      BECMG 1121/1124 0800 FZFG VV///
                      PROB40 1122/1209 0200
                      BECMG 1210/1212 7000 NSC=
201212102257 TAF EGLL 102257Z 1100/1206 31005KT 9999 SCT020
                      TEMPO 1100/1111 6000
                      PROB30 TEMPO 1106/1110 0800 BCFG BKN002
                      BECMG 1116/1119 5000 BR
                      BECMG 1121/1124 0800 FZFG VV///
                      PROB40 1122/1206 0200=
201212101707 TAF EGLL 101707Z 1018/1124 36006KT 9999 SCT025
                      BECMG 1021/1024 6000
                      TEMPO 1101/1111 2000 MIFG BR BKN006
                      PROB30 1103/1110 0400 FZFG VV///
                      BECMG 1111/1114 9999
                      BECMG 1117/1120 4000 BR BKN005
                      BECMG 1121/1124 0800 FG VV///
                      PROB30 1121/1124 0200 FZFG=
201212101059 TAF EGLL 101059Z 1012/1118 35007KT 9999 FEW035
                      BECMG 1022/1101 6000
                      TEMPO 1101/1110 2000 MIFG
                      PROB30 1103/1109 0400 FG VV///
                      BECMG 1111/1114 9999
                      PROB30 1117/1118 6000 BKN010=
201212100456 TAF EGLL 100456Z 1006/1112 33010KT 9999 FEW020
                      BECMG 1100/1103 5000 BR
                      TEMPO 1103/1110 2000 MIFG
                      PROB30 1104/1109 0500 FZFG VV///
                      BECMG 1109/1112 9999 NSW=
201212092256 TAF EGLL 092256Z 1000/1106 30010KT 9999 FEW020
                      BECMG 1012/1015 36006KT
                      BECMG 1100/1103 5000 BR
                      PROB30 1104/1106 0500 FZFG VV///=
201212091702 TAF EGLL 091702Z 0918/1024 28013KT 9999 SCT028
                      BECMG 1003/1006 34010KT=
201212091101 TAF EGLL 091101Z 0912/1018 27014KT 9999 FEW018 SCT030
                      PROB30 TEMPO 0913/0917 9000 -RA BKN014
                      BECMG 1002/1005 34010KT=
201212090457 TAF EGLL 090457Z 0906/1012 27014KT 9999 FEW015 SCT045
                      PROB30 TEMPO 0913/0916 9000 -RA
                      BECMG 0922/1001 33008KT
                      PROB30 TEMPO 1010/1012 7000 -SHRA -SHRASN
                       BKN010=
201212082258 TAF EGLL 082258Z 0900/1006 27013KT 9999 FEW014 SCT045
                      PROB30 TEMPO 0914/0917 9000 -RA
                      BECMG 0922/1001 33008KT=
201212081659 TAF EGLL 081659Z 0818/0924 24006KT 9999 SCT030
                      PROB40 0822/0908 BKN012
                      TEMPO 0910/0917 27015G25KT
                      PROB30 TEMPO 0913/0917 7000 -RADZ BKN014
                       BECMG 0918/0921 31010KT=
201212081101 TAF EGLL 081101Z 0812/0918 28008KT 9999 SCT030
                      PROB30 TEMPO 0812/0813 BKN014
                      PROB40 TEMPO 0821/0908 BKN012
                      TEMPO 0910/0918 27015G25KT
                      PROB30 TEMPO 0914/0918 6000 -RADZ BKN012=
201212080652 TAF EGLL 080652Z 0806/0912 30005KT 9999 SCT040
                      PROB40 TEMPO 0808/0811 7000 BKN008
                      PROB30 TEMPO 0811/0813 BKN012
                      BECMG 0910/0912 27015KT=
201212080500 TAF EGLL 080500Z NIL=
201212080000 TAF EGLL 080000Z 0800/0906 CNL=
201212072300 TAF AMD EGLL 080000Z 0800/0906 CNL=
201212071655 TAF EGLL 071655Z 0718/0824 33012KT 9999 SCT025
                      PROB30 TEMPO 0804/0810 5000 BR BKN006
                      TEMPO 0811/0814 BKN012
                      BECMG 0812/0815 27008KT
                      PROB40 TEMPO 0821/0824 7000 -RA BKN012=
201212071057 TAF EGLL 071057Z 0712/0818 32018G28KT 9999 SCT022
                      BECMG 0718/0721 36012KT
                      PROB30 0804/0808 5000 BR
                      BECMG 0809/0812 30006KT=
201212070502 TAF EGLL 070502Z 0706/0812 28012KT 9999 FEW035
                      BECMG 0707/0710 28020G32KT
                      PROB30 TEMPO 0707/0711 6000 RASN BKN010
                      BECMG 0719/0722 35012KT
                      BECMG 0803/0806 6000
                      PROB30 0805/0809 3000 BR BKN007
                      BECMG 0809/0812 29005KT 9999=
201212070305 TAF COR EGLL 070305Z 0703/0806 27012KT 9999 SCT030
                      PROB30 TEMPO 0707/0710 27017G27KT 6000 RASN
                       BKN009
                      BECMG 0710/0712 27020G32KT
                      BECMG 0719/0722 36008KT=
201212062303 TAF EGLL 062303Z 0700/0806 20010KT 9999 SCT030
                      PROB40 TEMPO 0700/0701 20015G25KT 6000 RA
                       BKN014
                      BECMG 0702/0705 27012KT
                      PROB30 TEMPO 0707/0710 27017G27KT 6000 RASN
                       BKN009
                      BECMG 0707/0710 27020G32KT
                      BECMG 0719/0722 36008KT=
201212062300 TAF COR EGLL 070305Z 0703/0806 27012KT 9999 SCT030
                      PROB30 TEMPO 0707/0710 27017G27KT 6000 RASN
                       BKN009
                      BECMG 0710/0712 27020G32KT
                      BECMG 0719/0722 36008KT=
201212061658 TAF EGLL 061658Z 0618/0724 19005KT 9999 FEW030
                      BECMG 0618/0621 21015KT
                      TEMPO 0619/0702 7000 RA SHRA
                      PROB30 TEMPO 0622/0624 26017G27KT 4000 +RA
                       BKN014
                      BECMG 0623/0702 27013KT
                      PROB30 TEMPO 0706/0709 31016G26KT 7000 -SHRASN
                       BKN014
                      BECMG 0709/0712 32020G32KT
                      PROB30 TEMPO 0715/0722 7000 -SHRA BKN014
                       BECMG 0716/0719 35012KT=
201212061107 TAF EGLL 061107Z 0612/0718 19005KT 9999 FEW030
                      BECMG 0617/0620 21015KT 9000 -RA
                      TEMPO 0620/0702 RA SHRA
                      PROB30 TEMPO 0622/0624 26017G27KT 4000 +RA
                       BKN014
                      BECMG 0623/0702 29012KT 9999 NSW
                      PROB30 TEMPO 0706/0709 31015G25KT 7000 -SHRASN
                       BKN014
                      BECMG 0709/0712 32017G27KT
                      PROB30 TEMPO 0715/0718 7000 -SHRA BKN014
                       BECMG 0716/0718 35013KT=
201212060458 TAF EGLL 060458Z 0606/0712 28006KT 9999 FEW040
                      BECMG 0612/0615 18012KT
                      PROB30 TEMPO 0616/0619 9000 -RA
                      BECMG 0619/0622 26012KT 6000 RA
                      TEMPO 0620/0624 26015G27KT 4000 +RA BKN012
                       BECMG 0700/0703 9999 NSW
                      PROB30 TEMPO 0706/0710 6000 RASN BKN008=
201212052300 TAF EGLL 052300Z 0600/0706 30006KT 9999 FEW040
                      BECMG 0611/0614 18010KT
                      PROB30 TEMPO 0611/0614 9000 -RASN
                      BECMG 0614/0617 7000 -RA
                      TEMPO 0615/0622 4000 +RA BKN014
                      BECMG 0619/0622 25015KT
                      BECMG 0700/0703 9999 NSW
                      PROB30 0704/0706 BKN012=
201212051706 TAF EGLL 051706Z 0518/0624 32010KT 9999 FEW020
                      BECMG 0522/0601 VRB03KT
                      BECMG 0610/0613 21015KT
                      BECMG 0617/0620 8000 -RA
                      TEMPO 0619/0623 4000 +RA BKN014
                      BECMG 0622/0624 29012KT=
201212051103 TAF EGLL 051103Z 0512/0618 33010KT 9999 FEW015
                      BECMG 0522/0601 VRB03KT
                      BECMG 0610/0613 21014KT
                      BECMG 0617/0618 9000 -RA=
201212050457 TAF EGLL 050457Z 0506/0612 28002KT 9999 FEW040
                      TEMPO 0506/0510 7000 -RA BKN010
                      PROB40 TEMPO 0506/0510 3000 RASN BKN005
                      BECMG 0506/0509 34012KT
                      BECMG 0518/0521 VRB03KT
                      BECMG 0609/0612 20012KT=
201212042256 TAF EGLL 042256Z 0500/0606 VRB03KT 9999 FEW040
                      TEMPO 0500/0510 7000 -RA BKN010
                      PROB30 TEMPO 0500/0506 3000 BR
                      PROB30 TEMPO 0506/0510 4000 -RASN BKN005
                       BECMG 0506/0509 34010KT=
201212042140 TAF AMD EGLL 042140Z 0421/0524 28010KT 9999 FEW040
                      BECMG 0421/0424 VRB03KT
                      TEMPO 0500/0510 7000 -RA BKN010
                      PROB30 TEMPO 0500/0506 3000 BR
                      PROB30 TEMPO 0506/0510 4000 -RASN BKN005
                       BECMG 0506/0509 34010KT=
201212041702 TAF EGLL 041702Z 0418/0524 28010KT 9999 FEW040
                      BECMG 0421/0424 VRB03KT
                      TEMPO 0500/0510 7000 -RA BKN010
                      PROB30 0500/0509 3000 BR BKN008
                      BECMG 0506/0509 34010KT=
201212041101 TAF EGLL 041101Z 0412/0518 28012KT 9999 FEW040
                      BECMG 0421/0424 VRB03KT
                      TEMPO 0422/0509 7000 -RA BKN010
                      PROB30 0502/0509 4000 BR
                      BECMG 0506/0509 35010KT=
201212040458 TAF EGLL 040458Z 0406/0512 27010KT 9999 FEW030
                      BECMG 0421/0424 VRB03KT
                      PROB30 0421/0503 5000 BR
                      PROB30 TEMPO 0503/0510 7000 -SHRA BKN010
                       BECMG 0509/0512 33012KT=
201212032303 TAF EGLL 032303Z 0400/0506 27010KT 9999 FEW030
                      BECMG 0421/0424 VRB03KT
                      PROB30 TEMPO 0503/0506 7000 -SHRA BKN010=
201212031658 TAF EGLL 031658Z 0318/0424 26010KT 9999 FEW040
                      BECMG 0421/0424 VRB03KT=
201212031056 TAF EGLL 031056Z 0312/0418 27012KT 9999 SCT035
                      PROB30 TEMPO 0312/0316 27015G25KT=
201212030956 TAF AMD EGLL 030956Z 0309/0412 26012KT 4000 RADZ SCT015 BKN025
                       PROB30 0309/0311 BKN014
                      BECMG 0310/0313 9999 NSW=
201212030500 TAF EGLL 030500Z 0306/0412 26010KT 9999 BKN012
                      TEMPO 0306/0309 7000 SCT004 BKN008
                      PROB30 TEMPO 0306/0308 2000 RADZ BR BKN003
                       BECMG 0307/0310 SCT020=
201212022304 TAF EGLL 022304Z 0300/0406 14005KT 9999 BKN030
                      BECMG 0300/0303 20010KT 6000 BKN012
                      TEMPO 0302/0310 4000 RA SCT004 BKN008
                      PROB30 TEMPO 0303/0308 2000 RADZ BR BKN002
                       BECMG 0309/0312 28010KT 9999 SCT020=
201212022116 TAF AMD EGLL 022116Z 0221/0324 19004KT 9999 SCT030
                      BECMG 0222/0301 15010KT 6000
                      TEMPO 0301/0309 4500 RADZ SCT005 BKN008
                      PROB40 0303/0309 SCT002 BKN004
                      PROB30 TEMPO 0305/0308 1400 BKN001
                      BECMG 0309/0312 28010KT 9999=
201212021705 TAF EGLL 021705Z 0218/0324 21004KT CAVOK
                      BECMG 0218/0221 6000
                      PROB40 TEMPO 0220/0223 3000 BR
                      BECMG 0222/0301 15010KT SCT010 BKN020
                      TEMPO 0301/0309 4500 RADZ SCT005 BKN008
                      PROB40 0303/0309 SCT002 BKN004
                      PROB30 TEMPO 0305/0308 1400 BKN001
                      BECMG 0309/0312 28010KT 9999=
201212021106 TAF EGLL 021106Z 0212/0318 25005KT CAVOK
                      BECMG 0217/0220 6000
                      TEMPO 0220/0223 3000 BR
                      BECMG 0223/0302 16010KT RA SCT010 BKN020
                       BECMG 0302/0304 22005KT 3500 RADZ SCT002
                       BKN005
                      PROB30 TEMPO 0305/0308 1200 BKN001
                      BECMG 0309/0312 28010KT 9999 NSW SCT022=
201212020459 TAF EGLL 020459Z 0206/0312 28006KT CAVOK
                      PROB30 0206/0208 9000
                      BECMG 0217/0220 6000
                      PROB30 0220/0223 2000 BR
                      BECMG 0222/0301 16010KT 9999 SCT015 BKN040
                       BECMG 0301/0304 5000 RADZ BKN007
                      TEMPO 0302/0308 2000 DZ SCT002 BKN004
                      BECMG 0303/0306 22005KT
                      PROB30 TEMPO 0304/0308 BKN001
                      BECMG 0308/0311 28013KT 9999 NSW SCT018=
201212012258 TAF EGLL 012258Z 0200/0306 28006KT CAVOK
                      PROB30 0204/0208 8000
                      BECMG 0217/0220 6000
                      PROB30 0220/0223 1500 BR MIFG
                      BECMG 0222/0301 16012KT 9999 SCT015 BKN040
                       BECMG 0301/0304 5000 RADZ BR BKN008
                      TEMPO 0303/0306 2000 DZ SCT002 BKN004
                      BECMG 0304/0306 22005KT=
201212011717 TAF EGLL 011717Z 0118/0224 30008KT 9999 FEW020
                      PROB30 0203/0208 7000
                      TEMPO 0220/0224 4000 BR=
201212011700 TAF EGLL 011700Z NIL=
201212011103 TAF EGLL 011103Z 0112/0218 28006KT 9999 FEW018
                      PROB40 TEMPO 0112/0114 6000 -SHRA BKN014
                       PROB30 0121/0208 5000 BR=
201212010842 TAF AMD EGLL 010842Z 0108/0212 VRB04KT 3500 BR BKN003
                      BECMG 0108/0111 29010KT 9999 NSW SCT015 BKN030
                       TEMPO 0111/0113 5000 -SHRA BR SCT005 BKN012
                       BECMG 0118/0121 VRB04KT CAVOK
                      PROB40 0122/0209 5000 BR=
201212010455 TAF EGLL 010455Z 0106/0212 VRB04KT 0400 FZFG BKN000
                      BECMG 0106/0108 3500 BR BKN005
                      BECMG 0108/0111 29010KT 9999 NSW SCT015 BKN030
                       TEMPO 0108/0113 5000 -SHRA BR SCT005 BKN012
                       BECMG 0118/0121 VRB04KT CAVOK
                      PROB40 0122/0209 5000 BR=
201212010117 TAF AMD EGLL 010117Z 0101/0206 VRB04KT 5000 BR VCFG NSC
                      TEMPO 0101/0109 0400 FZFG BKN000
                      BECMG 0109/0112 30010KT 9999 NSW SCT015 BKN030
                       TEMPO 0109/0112 5000 -SHRA BR SCT004 BKN012
                       BECMG 0118/0121 VRB04KT CAVOK
                      PROB40 0122/0206 5000 BR=
