##########################################################
# Query made at 12/27/2012 10:50:25 UTC
# Time interval: from 12/01/2008 00:00  to 12/31/2008 23:59  UTC
##########################################################

##########################################################
# EGLL, London / Heathrow Airport (United Kingdom)
# WMO index: 03772
# Latitude 51-29N. Longitude 000-27W. Altitude 24 m.
##########################################################

###################################
#  METAR/SPECI from EGLL
###################################
200812312350 METAR COR EGLL 312350Z 05004KT 020V080 4900 HZ OVC010 01/M01
                        Q1030 NOSIG=
200812312320 METAR COR EGLL 312320Z 03004KT 360V060 4700 HZ OVC010 01/M01
                        Q1030 NOSIG=
200812312250 METAR COR EGLL 312250Z 07005KT 030V100 4800 HZ OVC010 01/M01
                        Q1030 NOSIG=
200812312220 METAR COR EGLL 312220Z 05004KT 010V080 4900 HZ OVC010 01/M01
                        Q1029 NOSIG=
200812312150 METAR COR EGLL 312150Z 06005KT 020V090 4800 BR OVC010 01/M01
                        Q1029 NOSIG=
200812312120 METAR COR EGLL 312120Z 07004KT 030V090 5000 BR OVC010 01/M01
                        Q1029 TEMPO 4000 BKN008=
200812312050 METAR COR EGLL 312050Z 08005KT 030V100 4900 BR OVC010 01/M01
                        Q1029 BECMG BKN008=
200812312020 METAR COR EGLL 312020Z 04004KT 4900 BR OVC010 01/M01 Q1029
                        BECMG BKN008=
200812311950 METAR COR EGLL 311950Z 04005KT 010V070 5000 BR OVC010 01/M01
                        Q1028 BECMG 4000 BKN008=
200812311920 METAR COR EGLL 311920Z 07006KT 5000 BR OVC010 01/M02 Q1028
                        BECMG 4000 BKN008=
200812311850 METAR COR EGLL 311850Z 07006KT 5000 BR OVC010 00/M02 Q1028
                        BECMG 4000 BKN008=
200812311820 METAR COR EGLL 311820Z 05005KT 360V090 4800 BR OVC010 00/M01
                        Q1028 BECMG BKN008=
200812311750 METAR COR EGLL 311750Z 02004KT 330V070 4500 BR OVC010 01/M01
                        Q1028 BECMG BKN008=
200812311720 METAR COR EGLL 311720Z 03005KT 360V090 4500 BR OVC010 01/M01
                        Q1028 BECMG BKN008=
200812311650 METAR COR EGLL 311650Z 03004KT 350V070 4600 BR OVC010 01/M01
                        Q1028 BECMG BKN008=
200812311620 METAR COR EGLL 311620Z VRB03KT 4600 BR OVC010 01/M01 Q1028
                        NOSIG=
200812311550 METAR COR EGLL 311550Z VRB03KT 4500 BR OVC010 01/M01 Q1028
                        NOSIG=
200812311520 METAR COR EGLL 311520Z 03004KT 360V070 4200 BR OVC010 01/M01
                        Q1028 NOSIG=
200812311450 METAR COR EGLL 311450Z 04005KT 010V080 4500 BR OVC010 01/M01
                        Q1028 NOSIG=
200812311420 METAR COR EGLL 311420Z 06006KT 4500 BR OVC010 01/M01 Q1028
                        NOSIG=
200812311350 METAR COR EGLL 311350Z 04005KT 360V080 4500 BR OVC010 01/M01
                        Q1028 NOSIG=
200812311320 METAR COR EGLL 311320Z 07005KT 020V090 4700 BR OVC010 01/M01
                        Q1028 NOSIG=
200812311250 METAR COR EGLL 311250Z 07006KT 4500 BR OVC010 01/M01 Q1028
                        NOSIG=
200812311220 METAR COR EGLL 311220Z 03006KT 360V080 4500 BR OVC010 01/M01
                        Q1028 NOSIG=
200812311150 METAR COR EGLL 311150Z 04005KT 360V070 4700 BR OVC010 01/M01
                        Q1029 TEMPO 6000 NSW=
200812311120 METAR COR EGLL 311120Z 05004KT 020V080 4500 BR OVC010 01/M01
                        Q1029 TEMPO 6000 NSW=
200812311050 METAR COR EGLL 311050Z 05005KT 360V090 4500 BR OVC009 01/M01
                        Q1030 TEMPO 6000 NSW BKN012=
200812311020 METAR COR EGLL 311020Z 03005KT 4500 BR OVC009 00/M01 Q1029
                        TEMPO 6000 NSW BKN012=
200812310950 METAR COR EGLL 310950Z 04005KT 350V080 4200 BR OVC008 00/M02
                        Q1029 NOSIG=
200812310920 METAR COR EGLL 310920Z 03005KT 350V070 4200 BR OVC008 M00/M02
                        Q1029 NOSIG=
200812310850 METAR COR EGLL 310850Z 04006KT 360V070 4500 BR BKN008 M00/M02
                        Q1029 NOSIG=
200812310820 METAR COR EGLL 310820Z 03005KT 350V060 4400 BR BKN008 M01/M02
                        Q1029 NOSIG=
200812310750 METAR COR EGLL 310750Z 03005KT 360V070 4000 BR BKN007 M01/M02
                        Q1029 NOSIG=
200812310720 METAR COR EGLL 310720Z 06005KT 010V080 4000 BR BKN006 M01/M02
                        Q1029 NOSIG=
200812310650 METAR COR EGLL 310650Z 04004KT 360V080 3200 BR BKN005 M01/M02
                        Q1029 TEMPO BKN004=
200812310620 METAR COR EGLL 310620Z 05004KT 360V080 3200 BR OVC004 M01/M02
                        Q1029 TEMPO BKN005=
200812310550 METAR COR EGLL 310550Z 05005KT 2800 BR OVC003 M01/M02 Q1029
                        TEMPO 3000 BKN002=
200812310520 METAR COR EGLL 310520Z 03004KT 350V070 2000 BR BKN003 M01/M02
                        Q1029 TEMPO BKN002=
200812310450 METAR COR EGLL 310450Z 04006KT 010V080 1600 BR OVC002 M01/M02
                        Q1029 TEMPO 1200=
200812310420 METAR COR EGLL 310420Z 02005KT 340V070 1500 R09L/P1500 BR
                        BKN002 M01/M01 Q1029 TEMPO 1200=
200812310350 METAR COR EGLL 310350Z 03005KT 1500 BR OVC002 M01/M01 Q1029
                        TEMPO 1200=
200812310320 METAR COR EGLL 310320Z VRB03KT 2200 BR BKN004 M01/M01 Q1029
                        TEMPO BKN005=
200812310250 METAR COR EGLL 310250Z VRB03KT 2300 BR BKN005 M01/M02 Q1029
                        TEMPO BKN004=
200812310220 METAR EGLL 310220Z AUTO 01002KT 1900NDV BR BKN009/// M02/M03
                        Q1029=
200812310150 METAR EGLL 310150Z AUTO VRB03KT 2000NDV BR FEW010/// M02/M03
                        Q1029=
200812310120 METAR EGLL 310120Z AUTO 00000KT 1900NDV BR NCD M02/M03 Q1029=
200812310050 METAR COR EGLL 310050Z VRB03KT 2200 BR NSC M02/M03 Q1029
                        TEMPO 1400 BKN008=
200812310020 METAR COR EGLL 310020Z 04004KT 2400 BR NSC M02/M02 Q1029
                        TEMPO 1400 BKN008=
200812302350 METAR COR EGLL 302350Z 05003KT 2400 BR NSC M02/M03 Q1030
                        TEMPO 1200=
200812302320 METAR COR EGLL 302320Z 01004KT 2300 BR NSC M02/M02 Q1030
                        TEMPO 1200=
200812302250 METAR COR EGLL 302250Z 02004KT 2300 BR NSC M02/M03 Q1030
                        NOSIG=
200812302220 METAR COR EGLL 302220Z 02004KT 2100 BR NSC M02/M03 Q1030
                        NOSIG=
200812302150 METAR COR EGLL 302150Z 35005KT 2400 BR NSC M01/M02 Q1030
                        NOSIG=
200812302120 METAR COR EGLL 302120Z 34004KT 2400 BR NSC M01/M02 Q1030
                        NOSIG=
200812302050 METAR COR EGLL 302050Z 35004KT 2600 BR NSC M01/M02 Q1030
                        NOSIG=
200812302020 METAR COR EGLL 302020Z 01004KT 2700 BR NSC 00/M01 Q1030 NOSIG=
200812301950 METAR COR EGLL 301950Z VRB03KT 2700 BR NSC M01/M02 Q1030
                        NOSIG=
200812301920 METAR COR EGLL 301920Z 03005KT 3000 BR NSC M00/M01 Q1030
                        NOSIG=
200812301850 METAR COR EGLL 301850Z 35004KT 3000 BR NSC M01/M02 Q1030
                        NOSIG=
200812301820 METAR COR EGLL 301820Z 36003KT 3400 BR NSC M01/M02 Q1030
                        NOSIG=
200812301750 METAR COR EGLL 301750Z VRB03KT 3700 BR NSC 00/M01 Q1030 NOSIG=
200812301720 METAR COR EGLL 301720Z VRB03KT 4100 BR NSC 02/M00 Q1030 NOSIG=
200812301650 METAR COR EGLL 301650Z 04004KT 3800 BR NSC 01/M01 Q1030 NOSIG=
200812301620 METAR COR EGLL 301620Z 04003KT 2900 BR NSC 02/M01 Q1030 NOSIG=
200812301550 METAR COR EGLL 301550Z 04003KT 4500 BR NSC 02/M00 Q1030 NOSIG=
200812301520 METAR COR EGLL 301520Z VRB03KT 4400 BR NSC 02/M01 Q1030 NOSIG=
200812301450 METAR COR EGLL 301450Z 36004KT 330V040 5000 BR NSC 02/M00
                        Q1030 NOSIG=
200812301420 METAR COR EGLL 301420Z 03004KT 360V070 5000 BR NSC 03/M00
                        Q1030 NOSIG=
200812301350 METAR COR EGLL 301350Z VRB03KT 5000 BR NSC 03/M00 Q1030 NOSIG=
200812301320 METAR EGLL 301320Z 35004KT 310V030 5000 BR NSC 03/M00 Q1030
                        NOSIG=
200812301250 METAR COR EGLL 301250Z VRB03KT 5000 BR NSC 02/M01 Q1031 NOSIG=
200812301220 METAR COR EGLL 301220Z 36003KT 5000 BR NSC 02/M01 Q1031 NOSIG=
200812301150 METAR COR EGLL 301150Z VRB03KT 4700 HZ NSC 02/M01 Q1031 TEMPO
                        6000 NSW=
200812301120 METAR EGLL 301120Z VRB02KT 4700 BR NSC 01/M01 Q1031 TEMPO
                        6000 NSW=
200812301050 METAR COR EGLL 301050Z VRB03KT 3500 BR NSC 00/M01 Q1031 NOSIG=
200812301020 METAR COR EGLL 301020Z 03004KT 3800 BR NSC M00/M02 Q1031
                        NOSIG=
200812300950 METAR COR EGLL 300950Z 04003KT 4200 BR NSC M01/M02 Q1031
                        BECMG 6000 NSW=
200812300920 METAR COR EGLL 300920Z VRB03KT 4000 BR NSC M02/M03 Q1031
                        BECMG 6000 NSW=
200812300850 METAR COR EGLL 300850Z VRB02KT 3800 BR NSC M03/M04 Q1031
                        BECMG 5000=
200812300820 METAR COR EGLL 300820Z 00000KT 4200 BR SCT013 M03/M04 Q1031
                        BECMG 6000 NSW=
200812300750 METAR COR EGLL 300750Z 00000KT 4500 BR BKN013 M02/M03 Q1031
                        BECMG 6000 NSW SCT015=
200812300720 METAR COR EGLL 300720Z 35003KT 4500 BR BKN013 M02/M04 Q1031
                        BECMG SCT015=
200812300650 METAR COR EGLL 300650Z VRB03KT 4500 BR BKN013 M02/M03 Q1031
                        BECMG SCT015=
200812300620 METAR COR EGLL 300620Z 33003KT 4200 BR BKN014 M03/M04 Q1030
                        BECMG SCT015=
200812300550 METAR COR EGLL 300550Z VRB02KT 4500 BR BKN014 M03/M03 Q1030
                        TEMPO 6000 NSW SCT014=
200812300520 METAR COR EGLL 300520Z 00000KT 4500 BR NSC M03/M04 Q1030
                        TEMPO 6000 NSW=
200812300450 METAR COR EGLL 300450Z 03004KT 4400 BR NSC M03/M04 Q1030
                        NOSIG=
200812300420 METAR COR EGLL 300420Z 06003KT 4600 BR NSC M02/M03 Q1030
                        NOSIG=
200812300350 METAR COR EGLL 300350Z 08003KT 4500 BR NSC M02/M03 Q1030
                        NOSIG=
200812300320 METAR COR EGLL 300320Z 09004KT 4700 BR NSC M02/M04 Q1030
                        NOSIG=
200812300250 METAR COR EGLL 300250Z 08004KT 5000 HZ NSC M03/M04 Q1030
                        TEMPO 2500 BR=
200812300220 METAR EGLL 300220Z AUTO 03003KT 5000NDV NCD M02/M04 Q1030=
200812300150 METAR EGLL 300150Z AUTO 04002KT 4800NDV HZ FEW019/// M02/M03
                        Q1030=
200812300120 METAR EGLL 300120Z AUTO VRB03KT 5000NDV FEW019/// M01/M03
                        Q1030=
200812300050 METAR COR EGLL 300050Z 09003KT 5000 BR BKN019 M01/M02 Q1030
                        TEMPO 3500 NSC=
200812300020 METAR COR EGLL 300020Z VRB03KT 6000 BKN018 M01/M02 Q1030
                        TEMPO 4000 BR NSC=
200812292350 METAR COR EGLL 292350Z 08002KT 6000 SCT020 M01/M02 Q1030
                        TEMPO 4500 BR=
200812292320 METAR COR EGLL 292320Z 06003KT 6000 NSC M00/M03 Q1029 TEMPO
                        4500 HZ=
200812292250 METAR COR EGLL 292250Z 00000KT 7000 NSC 00/M02 Q1029 TEMPO
                        4500 HZ=
200812292220 METAR COR EGLL 292220Z 03002KT 8000 NSC 01/M02 Q1029 TEMPO
                        4500 HZ=
200812292150 METAR COR EGLL 292150Z 06004KT 8000 FEW018 01/M02 Q1029 NOSIG=
200812292120 METAR COR EGLL 292120Z 08007KT 8000 SCT018 01/M02 Q1029 NOSIG=
200812292050 METAR COR EGLL 292050Z 07004KT 8000 BKN018 01/M02 Q1029 TEMPO
                        NSC=
200812292020 METAR COR EGLL 292020Z 07004KT 8000 BKN017 01/M02 Q1029 TEMPO
                        NSC=
200812291950 METAR COR EGLL 291950Z 08005KT 7000 BKN017 01/M02 Q1029 NOSIG=
200812291920 METAR COR EGLL 291920Z 07004KT 7000 BKN018 01/M02 Q1029 NOSIG=
200812291850 METAR COR EGLL 291850Z 06006KT 030V090 7000 BKN017 01/M02
                        Q1029 NOSIG=
200812291820 METAR COR EGLL 291820Z 06006KT 7000 BKN018 01/M02 Q1029 NOSIG=
200812291750 METAR COR EGLL 291750Z 07007KT 7000 BKN018 01/M02 Q1029 NOSIG=
200812291720 METAR COR EGLL 291720Z 07007KT 7000 FEW020 01/M02 Q1029 NOSIG=
200812291650 METAR COR EGLL 291650Z 06006KT 7000 SCT020 01/M02 Q1028 NOSIG=
200812291620 METAR COR EGLL 291620Z 07007KT 8000 SCT020 02/M02 Q1028 NOSIG=
200812291550 METAR COR EGLL 291550Z 07007KT 8000 FEW021 02/M02 Q1028 NOSIG=
200812291520 METAR COR EGLL 291520Z 08006KT 8000 NSC 02/M02 Q1028 NOSIG=
200812291450 METAR COR EGLL 291450Z 07008KT 8000 FEW021 03/M02 Q1028 NOSIG=
200812291420 METAR COR EGLL 291420Z 07008KT 8000 FEW021 03/M02 Q1028 NOSIG=
200812291350 METAR COR EGLL 291350Z 10007KT 9000 FEW020 03/M02 Q1028 NOSIG=
200812291320 METAR COR EGLL 291320Z 09010KT 8000 FEW020 03/M02 Q1028 NOSIG=
200812291250 METAR COR EGLL 291250Z 09009KT 8000 FEW020 03/M02 Q1028 NOSIG=
200812291220 METAR COR EGLL 291220Z 09009KT 8000 FEW020 03/M02 Q1029 NOSIG=
200812291150 METAR COR EGLL 291150Z 09008KT 8000 FEW020 02/M02 Q1029 NOSIG=
200812291120 METAR COR EGLL 291120Z 10008KT 9000 FEW018 02/M02 Q1029 NOSIG=
200812291050 METAR COR EGLL 291050Z 10008KT 8000 FEW018 02/M03 Q1029 NOSIG=
200812291020 METAR COR EGLL 291020Z 10006KT 9000 FEW019 01/M04 Q1030 NOSIG=
200812290950 METAR COR EGLL 290950Z 09006KT 9999 FEW018 01/M04 Q1029 NOSIG=
200812290920 METAR COR EGLL 290920Z 09007KT 9000 NSC 00/M03 Q1029 NOSIG=
200812290850 METAR COR EGLL 290850Z 10006KT 8000 FEW018 M01/M03 Q1029
                        NOSIG=
200812290820 METAR COR EGLL 290820Z 09005KT 7000 SCT018 M01/M03 Q1029
                        NOSIG=
200812290750 METAR COR EGLL 290750Z 09006KT 7000 SCT019 M00/M03 Q1029
                        NOSIG=
200812290720 METAR COR EGLL 290720Z 10006KT 7000 SCT018 00/M02 Q1028 NOSIG=
200812290650 METAR COR EGLL 290650Z 10007KT 7000 SCT018 M00/M02 Q1028
                        NOSIG=
200812290620 METAR COR EGLL 290620Z 10005KT 8000 BKN019 00/M02 Q1028 NOSIG=
200812290550 METAR COR EGLL 290550Z 08006KT 9000 BKN019 01/M02 Q1028 NOSIG=
200812290520 METAR COR EGLL 290520Z 08007KT 9000 BKN019 02/M02 Q1028 NOSIG=
200812290450 METAR COR EGLL 290450Z 07007KT 9000 BKN019 01/M02 Q1028 NOSIG=
200812290420 METAR COR EGLL 290420Z 07006KT 9000 OVC019 01/M02 Q1028 NOSIG=
200812290350 METAR COR EGLL 290350Z 07006KT 9999 BKN019 01/M02 Q1028 NOSIG=
200812290320 METAR COR EGLL 290320Z 07007KT 9999 OVC019 01/M02 Q1028 NOSIG=
200812290250 METAR COR EGLL 290250Z 07006KT 9999 BKN018 01/M02 Q1028 NOSIG=
200812290220 METAR EGLL 290220Z AUTO 06007KT 8000NDV OVC018/// 02/M02
                        Q1028=
200812290150 METAR EGLL 290150Z AUTO 07007KT 9000NDV OVC017/// 02/M02
                        Q1028=
200812290120 METAR EGLL 290120Z AUTO 06008KT 9000NDV BKN018/// 02/M02
                        Q1028=
200812290050 METAR COR EGLL 290050Z 07007KT 9000 OVC017 02/M02 Q1028 NOSIG=
200812290020 METAR COR EGLL 290020Z 07009KT 9000 OVC017 02/M01 Q1028 NOSIG=
200812282350 METAR COR EGLL 282350Z 07011KT 9999 OVC018 02/M01 Q1028 NOSIG=
200812282320 METAR COR EGLL 282320Z 09012KT 9999 OVC019 03/M01 Q1028 NOSIG=
200812282250 METAR COR EGLL 282250Z 09014KT 9999 BKN020 03/M01 Q1028 NOSIG=
200812282220 METAR COR EGLL 282220Z 09010KT 9999 BKN020 03/M01 Q1028 NOSIG=
200812282150 METAR COR EGLL 282150Z 07007KT 020V110 9999 BKN019 03/M01
                        Q1028 NOSIG=
200812282120 METAR COR EGLL 282120Z 07009KT 040V100 9999 BKN018 03/M01
                        Q1028 NOSIG=
200812282050 METAR COR EGLL 282050Z 07009KT 030V100 9999 BKN017 03/M00
                        Q1028 NOSIG=
200812282020 METAR COR EGLL 282020Z 06012KT 9999 BKN016 03/M00 Q1028 TEMPO
                        BKN014=
200812281950 METAR COR EGLL 281950Z 06010KT 9999 BKN016 02/M01 Q1028 TEMPO
                        BKN014=
200812281920 METAR COR EGLL 281920Z 06011KT 9999 BKN016 02/M01 Q1028 TEMPO
                        BKN014=
200812281850 METAR COR EGLL 281850Z 06009KT 9999 BKN015 02/M01 Q1028 TEMPO
                        BKN014=
200812281820 METAR COR EGLL 281820Z 06008KT 9999 SCT015 02/M01 Q1028 TEMPO
                        BKN014=
200812281750 METAR COR EGLL 281750Z 06008KT 9999 SCT015 02/M01 Q1028 TEMPO
                        BKN014=
200812281720 METAR COR EGLL 281720Z 06009KT 9999 SCT016 02/M01 Q1028 NOSIG=
200812281650 METAR COR EGLL 281650Z 06013KT 9999 FEW017 02/M01 Q1028 NOSIG=
200812281620 METAR COR EGLL 281620Z 06012KT 9999 FEW021 03/M01 Q1028 NOSIG=
200812281550 METAR COR EGLL 281550Z 06011KT 9999 FEW021 03/M01 Q1028 NOSIG=
200812281520 METAR COR EGLL 281520Z 06010KT 9999 FEW021 03/M01 Q1028 NOSIG=
200812281450 METAR COR EGLL 281450Z 07009KT 9999 FEW021 03/M01 Q1028 NOSIG=
200812281420 METAR COR EGLL 281420Z 06011KT 9999 SCT020 04/M00 Q1028 NOSIG=
200812281350 METAR COR EGLL 281350Z 06011KT 9999 SCT022 04/M00 Q1028 NOSIG=
200812281320 METAR COR EGLL 281320Z 07009KT 9999 SCT020 04/M00 Q1029 NOSIG=
200812281250 METAR COR EGLL 281250Z 07010KT 9999 SCT018 04/00 Q1029 NOSIG=
200812281220 METAR COR EGLL 281220Z 07009KT 9999 SCT019 04/00 Q1029 NOSIG=
200812281150 METAR COR EGLL 281150Z 06010KT 9999 SCT016 04/00 Q1029 NOSIG=
200812281120 METAR COR EGLL 281120Z 07011KT 9999 BKN015 03/00 Q1029 NOSIG=
200812281050 METAR COR EGLL 281050Z 06011KT 9999 BKN013 03/00 Q1030 TEMPO
                        BKN015=
200812281020 METAR COR EGLL 281020Z 06008KT 9000 BKN015 03/00 Q1030 TEMPO
                        BKN014=
200812280950 METAR COR EGLL 280950Z 05007KT 8000 BKN013 02/00 Q1030 TEMPO
                        SCT015=
200812280920 METAR COR EGLL 280920Z 05005KT 020V080 8000 BKN014 02/00
                        Q1030 TEMPO SCT015=
200812280850 METAR COR EGLL 280850Z 05005KT 010V080 8000 BKN013 02/M00
                        Q1030 NOSIG=
200812280820 METAR COR EGLL 280820Z 05007KT 020V080 8000 BKN013 01/M00
                        Q1030 NOSIG=
200812280750 METAR COR EGLL 280750Z 05006KT 8000 BKN013 01/M00 Q1030 TEMPO
                        SCT013=
200812280720 METAR COR EGLL 280720Z 05006KT 010V080 7000 FEW015 01/M01
                        Q1030 NOSIG=
200812280650 METAR COR EGLL 280650Z 06006KT 8000 FEW015 01/M01 Q1030 NOSIG=
200812280620 METAR COR EGLL 280620Z 05005KT 360V080 9000 FEW014 01/M01
                        Q1030 NOSIG=
200812280550 METAR COR EGLL 280550Z 05006KT 020V090 9000 FEW012 02/M00
                        Q1030 NOSIG=
200812280520 METAR COR EGLL 280520Z 05008KT 9000 SCT014 02/M00 Q1030 NOSIG=
200812280450 METAR COR EGLL 280450Z 06008KT 020V080 9000 SCT014 02/M00
                        Q1030 NOSIG=
200812280420 METAR EGLL 280420Z 06010KT 9000 BKN014 02/M00 Q1031=
200812280350 METAR EGLL 280350Z 06011KT 9000 SCT014 02/M00 Q1031=
200812280320 METAR COR EGLL 280320Z 06011KT 9999 FEW015 02/M00 Q1031 NOSIG=
200812280250 METAR COR EGLL 280250Z 06011KT 9999 SCT016 02/M01 Q1031 NOSIG=
200812280220 METAR EGLL 280220Z AUTO 06010KT 9000NDV FEW016/// 02/M01
                        Q1032=
200812280150 METAR EGLL 280150Z AUTO 06010KT 9999NDV SCT018/// 02/M01
                        Q1032=
200812280120 METAR EGLL 280120Z AUTO 06010KT 9999NDV SCT017/// 02/M01
                        Q1032=
200812280050 METAR COR EGLL 280050Z 06009KT 9000 SCT016 BKN020 02/M00
                        Q1032 NOSIG=
200812280020 METAR COR EGLL 280020Z 06009KT 9000 BKN015 03/M00 Q1032 TEMPO
                        BKN014=
200812272350 METAR COR EGLL 272350Z 06010KT 9999 BKN016 03/M00 Q1032 NOSIG=
200812272320 METAR COR EGLL 272320Z 06012KT 9999 BKN015 03/M00 Q1033 TEMPO
                        BKN013=
200812272250 METAR COR EGLL 272250Z 06011KT 9999 BKN014 02/M00 Q1033 NOSIG=
200812272220 METAR COR EGLL 272220Z 06012KT 9999 BKN014 02/M00 Q1033 NOSIG=
200812272150 METAR COR EGLL 272150Z 06013KT 9999 BKN015 03/M00 Q1033 NOSIG=
200812272120 METAR COR EGLL 272120Z 06010KT 9999 BKN016 03/M00 Q1034 NOSIG=
200812272050 METAR COR EGLL 272050Z 06011KT 9999 BKN017 03/M00 Q1034 NOSIG=
200812272020 METAR COR EGLL 272020Z 06010KT 9999 BKN017 03/M01 Q1034 NOSIG=
200812271950 METAR COR EGLL 271950Z 05009KT 020V080 9999 BKN016 02/M01
                        Q1034 NOSIG=
200812271920 METAR COR EGLL 271920Z 06010KT 9999 BKN016 02/M01 Q1034 TEMPO
                        NSC=
200812271850 METAR COR EGLL 271850Z 05010KT 9999 BKN017 02/M01 Q1034 NOSIG=
200812271820 METAR COR EGLL 271820Z 06012KT 020V080 9999 BKN018 02/M01
                        Q1034 NOSIG=
200812271750 METAR COR EGLL 271750Z 06011KT 9999 BKN017 02/M01 Q1034 NOSIG=
200812271720 METAR COR EGLL 271720Z 06012KT 9999 BKN017 02/M01 Q1034 NOSIG=
200812271650 METAR COR EGLL 271650Z 06010KT 9999 BKN017 02/M01 Q1034 NOSIG=
200812271620 METAR COR EGLL 271620Z 06011KT 9999 BKN018 02/M01 Q1034 NOSIG=
200812271550 METAR COR EGLL 271550Z 06011KT 9999 SCT018 02/M01 Q1034 NOSIG=
200812271520 METAR COR EGLL 271520Z 06010KT 9999 SCT018 03/M01 Q1034 NOSIG=
200812271450 METAR COR EGLL 271450Z 06011KT 9999 SCT020 03/M01 Q1034 NOSIG=
200812271420 METAR COR EGLL 271420Z 07010KT 040V100 9999 SCT019 03/M01
                        Q1034 NOSIG=
200812271350 METAR COR EGLL 271350Z 07009KT 9999 SCT021 03/M01 Q1035 NOSIG=
200812271320 METAR COR EGLL 271320Z 06013KT 9999 SCT018 03/M01 Q1035 NOSIG=
200812271250 METAR EGLL 271250Z 06011KT 9999 BKN017 03/M00 Q1035=
200812271220 METAR COR EGLL 271220Z 06011KT 9999 BKN016 03/M00 Q1036 TEMPO
                        BKN014=
200812271150 METAR COR EGLL 271150Z 06012KT 9999 OVC015 03/M00 Q1036 TEMPO
                        BKN012=
200812271120 METAR COR EGLL 271120Z 06013KT 9999 BKN017 03/M00 Q1036 TEMPO
                        BKN014=
200812271050 METAR COR EGLL 271050Z 06012KT 9999 BKN017 03/00 Q1036 TEMPO
                        BKN014=
200812271020 METAR COR EGLL 271020Z 06008KT 9999 BKN015 03/00 Q1036 TEMPO
                        BKN013=
200812270950 METAR COR EGLL 270950Z 05007KT 010V080 9999 BKN014 02/M00
                        Q1036 TEMPO SCT016=
200812270920 METAR COR EGLL 270920Z 05006KT CAVOK 01/M00 Q1036 NOSIG=
200812270850 METAR COR EGLL 270850Z 05005KT 010V080 CAVOK 01/M01 Q1036
                        NOSIG=
200812270820 METAR COR EGLL 270820Z 05004KT 010V080 CAVOK 01/M01 Q1036
                        NOSIG=
200812270750 METAR COR EGLL 270750Z 04005KT 020V080 CAVOK 01/M01 Q1036
                        NOSIG=
200812270720 METAR COR EGLL 270720Z 05006KT 010V080 9999 FEW013 01/M00
                        Q1036 NOSIG=
200812270650 METAR COR EGLL 270650Z 05005KT 360V130 9999 FEW012 01/M00
                        Q1036 NOSIG=
200812270620 METAR COR EGLL 270620Z 04006KT 9000 FEW015 01/M00 Q1036 TEMPO
                        BKN010=
200812270550 METAR COR EGLL 270550Z 03006KT 360V060 8000 FEW015 01/M00
                        Q1036 NOSIG=
200812270520 METAR COR EGLL 270520Z 03006KT 8000 SCT008 01/00 Q1036 TEMPO
                        BKN008=
200812270450 METAR COR EGLL 270450Z 03007KT 350V060 8000 OVC009 02/00
                        Q1036 NOSIG=
200812270420 METAR COR EGLL 270420Z 03006KT 8000 BKN008 02/01 Q1036 TEMPO
                        SCT010=
200812270350 METAR COR EGLL 270350Z 04007KT 360V070 7000 BKN009 02/01
                        Q1036 TEMPO SCT009=
200812270320 METAR COR EGLL 270320Z 04008KT 010V070 8000 BKN008 02/01
                        Q1037 TEMPO SCT010=
200812270250 METAR EGLL 270250Z 05008KT 8000 BKN008 03/01 Q1037=
200812270220 METAR EGLL 270220Z AUTO 05006KT 8000NDV OVC009/// 03/01 Q1037=
200812270150 METAR EGLL 270150Z AUTO 05007KT 010V080 8000NDV OVC009///
                        03/01 Q1037=
200812270120 METAR EGLL 270120Z AUTO 05006KT 010V070 8000NDV OVC010///
                        03/01 Q1037=
200812270050 METAR COR EGLL 270050Z 05005KT 020V090 7000 BKN011 02/01
                        Q1037 TEMPO SCT012=
200812270020 METAR COR EGLL 270020Z 02004KT 340V070 7000 BKN011 02/01
                        Q1037 TEMPO SCT012=
200812262350 METAR COR EGLL 262350Z 01003KT 7000 SCT013 01/00 Q1037 TEMPO
                        BKN013=
200812262320 METAR COR EGLL 262320Z VRB03KT 8000 FEW014 01/00 Q1038 TEMPO
                        BKN012=
200812262250 METAR COR EGLL 262250Z 04005KT 010V070 9000 NSC 02/00 Q1038
                        NOSIG=
200812262220 METAR COR EGLL 262220Z 05006KT 9000 NSC 02/00 Q1038 NOSIG=
200812262150 METAR COR EGLL 262150Z 04006KT 360V070 9000 FEW012 02/00
                        Q1037 TEMPO BKN010=
200812262120 METAR COR EGLL 262120Z 05006KT 9000 FEW012 02/00 Q1037 TEMPO
                        BKN010=
200812262050 METAR COR EGLL 262050Z 05006KT 9000 NSC 02/00 Q1037 NOSIG=
200812262020 METAR COR EGLL 262020Z 05007KT 9000 FEW013 02/00 Q1037 NOSIG=
200812261950 METAR EGLL 261950Z 04006KT 9999 FEW013 02/00 Q1037=
200812261920 METAR COR EGLL 261920Z 03005KT 9999 FEW012 02/00 Q1037 NOSIG=
200812261850 METAR COR EGLL 261850Z 05006KT 9999 FEW012 02/00 Q1037 NOSIG=
200812261820 METAR COR EGLL 261820Z 06007KT 9999 FEW015 02/M00 Q1037 NOSIG=
200812261750 METAR COR EGLL 261750Z 06009KT CAVOK 03/00 Q1037 NOSIG=
200812261720 METAR COR EGLL 261720Z 06007KT 020V080 CAVOK 03/M00 Q1037
                        NOSIG=
200812261650 METAR COR EGLL 261650Z 05008KT CAVOK 03/M00 Q1037 NOSIG=
200812261620 METAR COR EGLL 261620Z 06011KT CAVOK 03/M00 Q1037 NOSIG=
200812261550 METAR COR EGLL 261550Z 06011KT 9999 FEW020 04/M00 Q1037 NOSIG=
200812261520 METAR COR EGLL 261520Z 06010KT 9999 FEW020 04/M01 Q1037 NOSIG=
200812261450 METAR COR EGLL 261450Z 06008KT CAVOK 05/M00 Q1037 NOSIG=
200812261420 METAR COR EGLL 261420Z 06009KT 020V080 CAVOK 05/M00 Q1037
                        NOSIG=
200812261350 METAR COR EGLL 261350Z 06012KT 020V080 CAVOK 05/M00 Q1037
                        NOSIG=
200812261320 METAR COR EGLL 261320Z 06013KT CAVOK 05/M00 Q1037 NOSIG=
200812261250 METAR COR EGLL 261250Z 06012KT CAVOK 05/M01 Q1037 NOSIG=
200812261220 METAR COR EGLL 261220Z 06014KT CAVOK 05/M00 Q1037 NOSIG=
200812261150 METAR COR EGLL 261150Z 07012KT 9999 FEW020 05/M00 Q1037 NOSIG=
200812261120 METAR COR EGLL 261120Z 07012KT 9999 FEW022 05/M00 Q1038 NOSIG=
200812261050 METAR COR EGLL 261050Z 08011KT 9999 FEW022 04/M00 Q1038 NOSIG=
200812261020 METAR COR EGLL 261020Z 08012KT 9999 FEW020 04/M01 Q1038 NOSIG=
200812260950 METAR COR EGLL 260950Z 08015KT 9999 FEW020 04/M01 Q1038 NOSIG=
200812260920 METAR COR EGLL 260920Z 07009KT 9999 SCT020 03/M01 Q1038 NOSIG=
200812260850 METAR COR EGLL 260850Z 07009KT 050V120 9999 SCT020 03/M01
                        Q1037 NOSIG=
200812260820 METAR COR EGLL 260820Z 07009KT 9999 SCT022 03/M01 Q1037 NOSIG=
200812260750 METAR COR EGLL 260750Z 07009KT 9999 FEW024 02/M01 Q1037 NOSIG=
200812260720 METAR COR EGLL 260720Z 07009KT 9999 FEW024 03/M01 Q1037 NOSIG=
200812260650 METAR COR EGLL 260650Z 07011KT 9999 SCT026 03/M02 Q1036 NOSIG=
200812260620 METAR COR EGLL 260620Z 07012KT 9999 SCT027 04/M01 Q1036 NOSIG=
200812260550 METAR COR EGLL 260550Z 07012KT 9999 SCT027 04/M01 Q1036 NOSIG=
200812260520 METAR COR EGLL 260520Z 07012KT 9999 BKN024 04/M00 Q1036 NOSIG=
200812260450 METAR COR EGLL 260450Z 06012KT 9999 BKN024 04/M01 Q1036 NOSIG=
200812260420 METAR COR EGLL 260420Z 07013KT 9999 BKN023 04/M01 Q1036 NOSIG=
200812260350 METAR COR EGLL 260350Z 07011KT 020V100 9999 BKN021 04/00
                        Q1036 NOSIG=
200812260320 METAR COR EGLL 260320Z 06011KT 9999 BKN020 05/01 Q1036 NOSIG=
200812260250 METAR COR EGLL 260250Z 07009KT 9999 BKN020 05/01 Q1036 NOSIG=
200812260220 METAR EGLL 260220Z AUTO 07009KT 9999NDV BKN020/// 05/01 Q1036=
200812260150 METAR EGLL 260150Z AUTO 07010KT 9999NDV BKN021/// 05/01 Q1036=
200812260120 METAR EGLL 260120Z AUTO 07014KT 9999NDV OVC021/// 06/01 Q1036=
200812260050 METAR COR EGLL 260050Z 06012KT 9999 BKN024 06/02 Q1035 NOSIG=
200812260020 METAR COR EGLL 260020Z 06012KT 9999 BKN024 06/02 Q1035 NOSIG=
200812252350 METAR COR EGLL 252350Z 07009KT 9999 BKN024 06/02 Q1035 NOSIG=
200812252320 METAR COR EGLL 252320Z 07008KT 9999 BKN024 06/02 Q1035 NOSIG=
200812252250 METAR COR EGLL 252250Z 06010KT 9999 BKN024 07/02 Q1035 NOSIG=
200812252220 METAR COR EGLL 252220Z 06008KT 9999 BKN024 07/02 Q1035 NOSIG=
200812252150 METAR COR EGLL 252150Z 06007KT 9999 BKN022 06/02 Q1035 NOSIG=
200812252120 METAR COR EGLL 252120Z 06010KT 9999 BKN021 06/02 Q1035 NOSIG=
200812252050 METAR COR EGLL 252050Z 06007KT 020V080 9999 BKN021 06/02
                        Q1036 NOSIG=
200812252020 METAR COR EGLL 252020Z 07009KT 9999 BKN020 06/02 Q1036 NOSIG=
200812251950 METAR COR EGLL 251950Z 06009KT 9999 BKN017 06/03 Q1036 NOSIG=
200812251920 METAR COR EGLL 251920Z 06009KT 9999 BKN016 06/03 Q1036 TEMPO
                        BKN014=
200812251850 METAR COR EGLL 251850Z 06010KT 9999 BKN015 06/02 Q1036 TEMPO
                        BKN014=
200812251820 METAR COR EGLL 251820Z 07008KT 9999 OVC015 06/02 Q1036 TEMPO
                        BKN012=
200812251750 METAR COR EGLL 251750Z 07012KT 9999 FEW017 BKN020 06/02 Q1035
                        NOSIG=
200812251720 METAR EGLL 251720Z 07009KT 9999 BKN020 06/02 Q1035=
200812251650 METAR COR EGLL 251650Z 07009KT 9999 BKN023 06/02 Q1035 NOSIG=
200812251620 METAR COR EGLL 251620Z 07010KT 9999 BKN023 06/02 Q1035 NOSIG=
200812251550 METAR COR EGLL 251550Z 06009KT 9999 FEW023 BKN026 07/02 Q1034
                        NOSIG=
200812251520 METAR COR EGLL 251520Z 06009KT 9999 BKN024 07/02 Q1034 NOSIG=
200812251450 METAR COR EGLL 251450Z 08009KT 9999 BKN029 07/01 Q1034 NOSIG=
200812251420 METAR COR EGLL 251420Z 06011KT 9999 FEW026 BKN035 07/01 Q1034
                        NOSIG=
200812251350 METAR EGLL 251350Z 07009KT 9999 FEW023 BKN026 07/04 Q1034=
200812251320 METAR COR EGLL 251320Z 06009KT 9999 FEW015 BKN031 07/04 Q1034
                        NOSIG=
200812251250 METAR COR EGLL 251250Z 06009KT 9999 SCT017 BKN031 07/04 Q1034
                        NOSIG=
200812251220 METAR COR EGLL 251220Z 06008KT 9999 BKN034 07/04 Q1034 NOSIG=
200812251150 METAR COR EGLL 251150Z 05006KT 010V080 9999 BKN031 07/04
                        Q1034 NOSIG=
200812251120 METAR COR EGLL 251120Z 05005KT 010V090 9999 BKN034 07/04
                        Q1034 NOSIG=
200812251050 METAR COR EGLL 251050Z 05006KT 010V070 9999 BKN035 06/04
                        Q1035 NOSIG=
200812251020 METAR COR EGLL 251020Z 04005KT 010V080 9999 FEW011 SCT034
                        06/04 Q1035 TEMPO BKN014=
200812250950 METAR COR EGLL 250950Z 06006KT 9999 BKN011 BKN033 06/03 Q1035
                        TEMPO SCT012=
200812250920 METAR COR EGLL 250920Z 05005KT 010V090 9999 FEW018 SCT029
                        05/03 Q1035 TEMPO BKN012=
200812250850 METAR COR EGLL 250850Z 06006KT 020V090 9999 BKN018 06/03
                        Q1035 TEMPO BKN012=
200812250820 METAR COR EGLL 250820Z 06008KT 9999 BKN010 06/03 Q1034 NOSIG=
200812250750 METAR COR EGLL 250750Z 06007KT 9999 BKN010 BKN032 06/04 Q1034
                        NOSIG=
200812250720 METAR EGLL 250720Z 04006KT 010V080 9999 FEW011 BKN033 06/04
                        Q1034=
200812250650 METAR COR EGLL 250650Z 04005KT 010V070 9999 FEW009 BKN035
                        06/05 Q1034 NOSIG=
200812250620 METAR COR EGLL 250620Z 04005KT 010V080 9000 FEW009 BKN035
                        06/05 Q1033 NOSIG=
200812250550 METAR COR EGLL 250550Z 05006KT 8000 SCT011 BKN038 06/05 Q1033
                        TEMPO BKN011=
200812250520 METAR COR EGLL 250520Z 02005KT 340V050 7000 FEW008 BKN010
                        06/05 Q1033 TEMPO BKN008=
200812250450 METAR COR EGLL 250450Z 03004KT 7000 FEW009 BKN034 07/05 Q1033
                        NOSIG=
200812250420 METAR COR EGLL 250420Z 06004KT 6000 FEW006 SCT012 BKN035
                        07/06 Q1033 TEMPO BKN012=
200812250350 METAR COR EGLL 250350Z 05004KT 4500 HZ BKN009 07/06 Q1033
                        TEMPO 6000 NSW BKN012=
200812250320 METAR COR EGLL 250320Z VRB03KT 6000 BKN009 07/05 Q1033 TEMPO
                        BKN012=
200812250250 METAR COR EGLL 250250Z VRB03KT 7000 BKN012 BKN037 07/06 Q1034
                        NOSIG=
200812250220 METAR EGLL 250220Z AUTO VRB03KT 5000NDV OVC009/// 07/06 Q1034=
200812250150 METAR EGLL 250150Z AUTO 04004KT 5000NDV FEW010/// OVC014///
                        07/05 Q1034=
200812250120 METAR EGLL 250120Z AUTO VRB03KT 7000NDV OVC012/// 07/05 Q1034=
200812250050 METAR COR EGLL 250050Z 06005KT 6000 BKN011 07/05 Q1034 TEMPO
                        BKN009=
200812250020 METAR COR EGLL 250020Z 05005KT 010V080 6000 OVC010 07/05
                        Q1034 TEMPO BKN008=
200812242350 METAR COR EGLL 242350Z 06004KT 6000 BKN011 07/05 Q1034 NOSIG=
200812242320 METAR COR EGLL 242320Z 05005KT 020V090 6000 BKN011 07/05
                        Q1034 TEMPO BKN008=
200812242250 METAR COR EGLL 242250Z 05005KT 010V080 6000 BKN011 BKN020
                        07/05 Q1034 TEMPO BKN008=
200812242220 METAR COR EGLL 242220Z 06007KT 8000 BKN015 BKN038 07/05 Q1034
                        TEMPO BKN012=
200812242150 METAR COR EGLL 242150Z 05006KT 9999 BKN034 08/04 Q1034 NOSIG=
200812242120 METAR COR EGLL 242120Z 02005KT 350V060 9999 OVC034 08/04
                        Q1034 NOSIG=
200812242050 METAR COR EGLL 242050Z 36004KT 310V040 9999 BKN034 08/04
                        Q1034 NOSIG=
200812242020 METAR COR EGLL 242020Z 35003KT 9999 BKN034 07/04 Q1034 NOSIG=
200812241950 METAR COR EGLL 241950Z VRB03KT 9999 OVC032 08/03 Q1034 NOSIG=
200812241920 METAR COR EGLL 241920Z 35003KT 9999 BKN031 08/03 Q1034 NOSIG=
200812241850 METAR COR EGLL 241850Z 35004KT 9999 OVC030 08/03 Q1034 NOSIG=
200812241820 METAR COR EGLL 241820Z VRB03KT 9999 OVC029 08/03 Q1034 NOSIG=
200812241750 METAR COR EGLL 241750Z VRB03KT 9999 OVC029 08/03 Q1034 NOSIG=
200812241720 METAR COR EGLL 241720Z 31003KT 9999 OVC030 08/03 Q1034 NOSIG=
200812241650 METAR EGLL 241650Z 30004KT 9999 OVC029 08/03 Q1034=
200812241620 METAR COR EGLL 241620Z 29004KT 9999 BKN028 07/03 Q1034 NOSIG=
200812241550 METAR COR EGLL 241550Z 30004KT 9999 BKN025 07/02 Q1034 NOSIG=
200812241520 METAR COR EGLL 241520Z 30006KT 9999 BKN025 07/02 Q1034 NOSIG=
200812241450 METAR COR EGLL 241450Z 31004KT 280V340 9999 OVC024 08/02
                        Q1034 NOSIG=
200812241420 METAR COR EGLL 241420Z VRB03KT 9999 OVC024 08/02 Q1034 NOSIG=
200812241350 METAR COR EGLL 241350Z 31004KT 270V030 9999 OVC024 08/03
                        Q1034 NOSIG=
200812241320 METAR COR EGLL 241320Z VRB03KT 9999 OVC024 08/03 Q1034 NOSIG=
200812241250 METAR COR EGLL 241250Z VRB03KT 9999 OVC024 08/03 Q1034 NOSIG=
200812241220 METAR COR EGLL 241220Z 36004KT 300V040 9999 OVC023 08/03
                        Q1035 NOSIG=
200812241150 METAR COR EGLL 241150Z 35004KT 300V010 9999 BKN024 08/03
                        Q1035 NOSIG=
200812241120 METAR EGLL 241120Z 33004KT 300V360 9999 BKN024 08/03 Q1035=
200812241050 METAR COR EGLL 241050Z VRB03KT 9999 BKN025 08/03 Q1036 NOSIG=
200812241020 METAR COR EGLL 241020Z VRB03KT 9999 FEW023 BKN026 08/03 Q1036
                        NOSIG=
200812240950 METAR COR EGLL 240950Z VRB03KT 9999 FEW026 BKN028 08/04 Q1036
                        NOSIG=
200812240920 METAR COR EGLL 240920Z VRB03KT 9999 BKN027 08/04 Q1036 NOSIG=
200812240850 METAR COR EGLL 240850Z 03004KT 360V060 9999 BKN026 08/04
                        Q1036 NOSIG=
200812240820 METAR COR EGLL 240820Z 03005KT 360V070 9999 BKN025 08/04
                        Q1036 NOSIG=
200812240750 METAR COR EGLL 240750Z 02005KT 350V050 9999 BKN026 08/05
                        Q1036 NOSIG=
200812240720 METAR COR EGLL 240720Z VRB03KT 9999 BKN021 08/06 Q1036 NOSIG=
200812240650 METAR COR EGLL 240650Z 31003KT 9999 FEW017 BKN020 08/06 Q1035
                        NOSIG=
200812240620 METAR COR EGLL 240620Z 27003KT 9999 BKN020 08/06 Q1035 NOSIG=
200812240550 METAR COR EGLL 240550Z VRB03KT 8000 BKN021 08/07 Q1035 NOSIG=
200812240520 METAR COR EGLL 240520Z 27005KT 8000 BKN019 08/07 Q1035 NOSIG=
200812240450 METAR COR EGLL 240450Z 27004KT 6000 BKN018 08/07 Q1035 NOSIG=
200812240420 METAR COR EGLL 240420Z 29003KT 9999 BKN020 08/07 Q1035 NOSIG=
200812240350 METAR COR EGLL 240350Z 26005KT 7000 BKN019 08/07 Q1035 NOSIG=
200812240320 METAR COR EGLL 240320Z 27004KT 9999 BKN017 08/06 Q1035 NOSIG=
200812240250 METAR COR EGLL 240250Z VRB03KT 9000 BKN017 08/07 Q1035 NOSIG=
200812240220 METAR EGLL 240220Z AUTO VRB03KT 3300NDV BR OVC015/// 08/07
                        Q1036=
200812240150 METAR EGLL 240150Z AUTO 00000KT 3700NDV BR FEW007/// OVC016///
                        08/07 Q1035=
200812240120 METAR EGLL 240120Z AUTO 27003KT 4700NDV BR OVC016/// 08/07
                        Q1035=
200812240050 METAR COR EGLL 240050Z 00000KT 5000 BR FEW005 BKN016 08/07
                        Q1036 NOSIG=
200812240020 METAR COR EGLL 240020Z 18004KT 5000 BR FEW006 BKN017 08/07
                        Q1035 NOSIG=
200812232350 METAR COR EGLL 232350Z 19002KT 6000 FEW007 BKN017 08/07 Q1036
                        NOSIG=
200812232320 METAR COR EGLL 232320Z VRB02KT 7000 BKN017 08/07 Q1036 NOSIG=
200812232250 METAR COR EGLL 232250Z VRB02KT 7000 FEW009 BKN017 08/07 Q1036
                        NOSIG=
200812232220 METAR COR EGLL 232220Z 35003KT 9999 FEW009 BKN017 08/07 Q1036
                        NOSIG=
200812232150 METAR COR EGLL 232150Z VRB02KT 9999 FEW009 OVC017 08/07 Q1036
                        NOSIG=
200812232120 METAR COR EGLL 232120Z 28002KT 9999 FEW008 OVC017 08/07 Q1036
                        TEMPO BKN013=
200812232050 METAR COR EGLL 232050Z VRB03KT 8000 FEW008 OVC012 08/07 Q1037
                        TEMPO BKN009=
200812232020 METAR COR EGLL 232020Z 34004KT 5000 -DZ BKN007 BKN010 08/07
                        Q1037 NOSIG=
200812231950 METAR COR EGLL 231950Z 35004KT 5000 -DZ SCT005 BKN008 08/07
                        Q1036 NOSIG=
200812231920 METAR COR EGLL 231920Z 35003KT 7000 BKN007 08/07 Q1036 NOSIG=
200812231850 METAR COR EGLL 231850Z 32005KT 9000 SCT007 BKN009 09/07 Q1036
                        NOSIG=
200812231820 METAR COR EGLL 231820Z VRB03KT 9000 FEW007 BKN009 09/07 Q1036
                        TEMPO BKN012=
200812231750 METAR COR EGLL 231750Z VRB02KT 8000 BKN007 09/07 Q1036 NOSIG=
200812231720 METAR COR EGLL 231720Z 30004KT 9000 BKN007 09/07 Q1036 NOSIG=
200812231650 METAR COR EGLL 231650Z 29006KT 9999 BKN007 OVC009 09/07 Q1036
                        NOSIG=
200812231620 METAR COR EGLL 231620Z 28006KT 9999 BKN007 OVC010 09/07 Q1036
                        NOSIG=
200812231550 METAR COR EGLL 231550Z 28006KT 9999 BKN009 09/07 Q1036 NOSIG=
200812231520 METAR COR EGLL 231520Z 28007KT 9999 BKN009 09/07 Q1035 NOSIG=
200812231450 METAR COR EGLL 231450Z 28007KT 9999 OVC010 09/07 Q1036 NOSIG=
200812231420 METAR COR EGLL 231420Z 27008KT 9999 BKN010 09/07 Q1036 NOSIG=
200812231350 METAR COR EGLL 231350Z 25008KT 210V280 9999 BKN009 09/08
                        Q1036 TEMPO BKN012=
200812231320 METAR COR EGLL 231320Z 26008KT 220V290 9999 BKN010 10/08
                        Q1036 NOSIG=
200812231250 METAR COR EGLL 231250Z 24008KT 220V280 9999 BKN010 10/08
                        Q1036 NOSIG=
200812231220 METAR COR EGLL 231220Z 25009KT 9999 BKN010 10/08 Q1036 NOSIG=
200812231150 METAR COR EGLL 231150Z 22009KT 190V250 9999 OVC011 10/07
                        Q1036 NOSIG=
200812231120 METAR COR EGLL 231120Z 24008KT 9999 OVC012 10/07 Q1036 NOSIG=
200812231050 METAR COR EGLL 231050Z 24008KT 9999 OVC014 11/08 Q1036 NOSIG=
200812231020 METAR COR EGLL 231020Z 23007KT 9999 BKN015 11/08 Q1036 NOSIG=
200812230950 METAR COR EGLL 230950Z 21005KT 170V240 9999 BKN015 10/08
                        Q1036 NOSIG=
200812230920 METAR COR EGLL 230920Z 22006KT 190V250 9999 BKN013 10/08
                        Q1036 NOSIG=
200812230850 METAR COR EGLL 230850Z 20005KT 170V240 9999 BKN012 BKN015
                        10/08 Q1036 NOSIG=
200812230820 METAR COR EGLL 230820Z 21006KT 190V250 9999 BKN013 10/08
                        Q1036 NOSIG=
200812230750 METAR COR EGLL 230750Z 21005KT 180V240 9999 SCT010 BKN013
                        10/08 Q1036 TEMPO BKN009=
200812230720 METAR COR EGLL 230720Z 23007KT 190V250 9999 OVC009 10/08
                        Q1035 TEMPO BKN010=
200812230650 METAR COR EGLL 230650Z 21006KT 180V260 9999 OVC009 10/08
                        Q1035 TEMPO BKN010=
200812230620 METAR COR EGLL 230620Z 22005KT 180V270 9999 OVC009 10/08
                        Q1035 TEMPO BKN010=
200812230550 METAR COR EGLL 230550Z 21005KT 9999 OVC009 10/08 Q1035 TEMPO
                        BKN010=
200812230520 METAR COR EGLL 230520Z 20004KT 170V250 9999 OVC010 10/08
                        Q1035 TEMPO BKN009=
200812230450 METAR COR EGLL 230450Z 22005KT 180V260 9999 OVC010 10/08
                        Q1035 TEMPO BKN009=
200812230420 METAR COR EGLL 230420Z 19004KT 9999 OVC010 10/08 Q1035 TEMPO
                        BKN009=
200812230350 METAR COR EGLL 230350Z 21004KT 160V270 9999 BKN011 10/08
                        Q1035 TEMPO BKN009=
200812230320 METAR EGLL 230320Z NIL=
200812230250 METAR COR EGLL 230250Z 26003KT 9999 BKN011 10/08 Q1036 TEMPO
                        BKN009=
200812230220 METAR EGLL 230220Z AUTO 28004KT 9999NDV BKN012/// 10/09 Q1036=
200812230150 METAR EGLL 230150Z AUTO 27004KT 250V310 9000NDV BKN013///
                        10/09 Q1035=
200812230120 METAR EGLL 230120Z AUTO 26004KT 8000NDV OVC014/// 11/09 Q1035=
200812230050 METAR COR EGLL 230050Z 27004KT 9999 BKN015 11/09 Q1035 NOSIG=
200812230020 METAR COR EGLL 230020Z 26006KT 9999 BKN017 11/09 Q1035 NOSIG=
200812222350 METAR COR EGLL 222350Z 26005KT 9999 OVC016 11/09 Q1035 NOSIG=
200812222320 METAR COR EGLL 222320Z 27005KT 9999 BKN017 11/09 Q1035 NOSIG=
200812222250 METAR COR EGLL 222250Z 25005KT 9999 OVC016 11/09 Q1035 NOSIG=
200812222220 METAR COR EGLL 222220Z 29004KT 9000 BKN015 11/09 Q1035 NOSIG=
200812222150 METAR COR EGLL 222150Z 27004KT 230V320 9000 BKN017 11/09
                        Q1035 NOSIG=
200812222120 METAR COR EGLL 222120Z VRB02KT 9000 BKN017 11/09 Q1035 BECMG
                        BKN014=
200812222050 METAR COR EGLL 222050Z 28004KT 9000 BKN016 11/09 Q1035 BECMG
                        BKN014=
200812222020 METAR COR EGLL 222020Z 27004KT 9000 BKN016 11/09 Q1035 NOSIG=
200812221950 METAR COR EGLL 221950Z 28004KT 9000 OVC017 11/09 Q1035 NOSIG=
200812221920 METAR COR EGLL 221920Z 25005KT 200V280 9000 OVC017 11/09
                        Q1035 NOSIG=
200812221850 METAR COR EGLL 221850Z 26005KT 9000 OVC019 11/09 Q1035 NOSIG=
200812221820 METAR COR EGLL 221820Z VRB03KT 8000 OVC019 11/09 Q1035 NOSIG=
200812221750 METAR COR EGLL 221750Z 26005KT 240V300 9000 OVC019 11/09
                        Q1035 NOSIG=
200812221720 METAR COR EGLL 221720Z 28006KT 9999 OVC019 11/09 Q1035 BECMG
                        7000=
200812221650 METAR COR EGLL 221650Z 28007KT 9999 OVC019 11/09 Q1035 BECMG
                        7000=
200812221620 METAR COR EGLL 221620Z 28007KT 9999 BKN019 11/09 Q1035 BECMG
                        7000=
200812221550 METAR COR EGLL 221550Z 27007KT 9999 BKN019 12/09 Q1035 BECMG
                        7000=
200812221520 METAR COR EGLL 221520Z 27008KT 9999 BKN019 12/09 Q1034 TEMPO
                        7000=
200812221450 METAR COR EGLL 221450Z 27008KT 9999 BKN020 12/09 Q1034 TEMPO
                        7000=
200812221420 METAR COR EGLL 221420Z 27009KT 9999 FEW016 BKN019 12/10 Q1034
                        TEMPO 7000 BKN014=
200812221350 METAR COR EGLL 221350Z 26008KT 9999 SCT018 BKN023 12/09 Q1034
                        NOSIG=
200812221320 METAR COR EGLL 221320Z 26007KT 9999 BKN023 13/09 Q1034 NOSIG=
200812221250 METAR COR EGLL 221250Z 26008KT 9999 BKN022 13/10 Q1034 NOSIG=
200812221220 METAR COR EGLL 221220Z 27007KT 9999 SCT012 BKN019 12/10 Q1035
                        NOSIG=
200812221150 METAR COR EGLL 221150Z 26006KT 9999 SCT012 SCT023 13/10 Q1035
                        NOSIG=
200812221120 METAR COR EGLL 221120Z 24006KT 9999 FEW021 BKN023 12/10 Q1035
                        NOSIG=
200812221050 METAR COR EGLL 221050Z 25007KT 9999 BKN020 12/09 Q1035 TEMPO
                        BKN014=
200812221020 METAR COR EGLL 221020Z 26008KT 9999 SCT009 BKN019 11/09 Q1035
                        TEMPO BKN010=
200812220950 METAR COR EGLL 220950Z 25007KT 220V300 9999 BKN008 11/09
                        Q1035 TEMPO BKN010=
200812220920 METAR COR EGLL 220920Z 25007KT 9999 BKN008 10/09 Q1034 NOSIG=
200812220850 METAR COR EGLL 220850Z 26008KT 9999 FEW009 BKN029 10/09 Q1034
                        NOSIG=
200812220820 METAR COR EGLL 220820Z 26007KT 230V290 9999 SCT010 SCT029
                        10/09 Q1034 TEMPO BKN008=
200812220750 METAR COR EGLL 220750Z 27007KT 9999 BKN010 10/09 Q1034 TEMPO
                        BKN008=
200812220720 METAR COR EGLL 220720Z 26006KT 9999 BKN010 10/09 Q1034 TEMPO
                        BKN008=
200812220650 METAR COR EGLL 220650Z 26006KT 220V290 9999 SCT011 10/09
                        Q1033 TEMPO BKN009=
200812220620 METAR COR EGLL 220620Z 27008KT 9999 SCT011 10/09 Q1033 TEMPO
                        BKN009=
200812220550 METAR COR EGLL 220550Z 27009KT 9999 BKN012 11/09 Q1033 TEMPO
                        BKN009=
200812220520 METAR COR EGLL 220520Z 26009KT 9999 BKN011 11/09 Q1033 TEMPO
                        BKN008=
200812220450 METAR COR EGLL 220450Z 25011KT 9999 SCT010 11/09 Q1033 TEMPO
                        BKN009=
200812220420 METAR COR EGLL 220420Z 26009KT 9999 OVC010 11/09 Q1033 TEMPO
                        BKN008=
200812220350 METAR COR EGLL 220350Z 27010KT 9999 OVC011 11/09 Q1033 NOSIG=
200812220320 METAR COR EGLL 220320Z 27009KT 9999 OVC010 11/09 Q1033 TEMPO
                        BKN008=
200812220250 METAR COR EGLL 220250Z 26011KT 9999 OVC011 11/09 Q1032 TEMPO
                        BKN008=
200812220220 METAR EGLL 220220Z AUTO 26014KT 9999NDV OVC012/// 11/09 Q1032=
200812220150 METAR EGLL 220150Z AUTO 26014KT 9999NDV BKN012/// BKN026///
                        11/09 Q1032=
200812220120 METAR EGLL 220120Z AUTO 26013KT 9999NDV OVC013/// 11/09 Q1032=
200812220050 METAR COR EGLL 220050Z 26012KT 9999 OVC013 11/09 Q1032 TEMPO
                        BKN008=
200812220020 METAR COR EGLL 220020Z 26015KT 9999 OVC012 11/09 Q1032 TEMPO
                        BKN008=
200812212350 METAR COR EGLL 212350Z 25015KT 9999 OVC012 11/09 Q1032 TEMPO
                        BKN009=
200812212320 METAR COR EGLL 212320Z 26013KT 9999 BKN013 11/09 Q1032 TEMPO
                        BKN009=
200812212250 METAR COR EGLL 212250Z 26015KT 9999 OVC013 11/08 Q1032 TEMPO
                        BKN009=
200812212220 METAR COR EGLL 212220Z 26012KT 9999 OVC013 11/08 Q1032 TEMPO
                        BKN008=
200812212150 METAR COR EGLL 212150Z 25015KT 9999 BKN013 11/08 Q1032 TEMPO
                        BKN009=
200812212120 METAR COR EGLL 212120Z 25016KT 9999 BKN015 11/08 Q1032 BECMG
                        BKN012=
200812212050 METAR COR EGLL 212050Z 25017KT 9999 BKN015 11/08 Q1031 BECMG
                        BKN013=
200812212020 METAR COR EGLL 212020Z 25013KT 9999 BKN016 11/08 Q1032 TEMPO
                        BKN014=
200812211950 METAR COR EGLL 211950Z 25013KT 9999 BKN016 11/08 Q1031 TEMPO
                        BKN014=
200812211920 METAR COR EGLL 211920Z 25016KT 9999 BKN017 11/08 Q1032 NOSIG=
200812211850 METAR COR EGLL 211850Z 26015KT 9999 BKN019 11/08 Q1032 NOSIG=
200812211820 METAR COR EGLL 211820Z 26015KT 9999 BKN019 11/08 Q1032 NOSIG=
200812211750 METAR COR EGLL 211750Z 26016KT 9999 BKN019 11/08 Q1031 NOSIG=
200812211720 METAR COR EGLL 211720Z 25014KT 9999 BKN019 11/08 Q1031 NOSIG=
200812211650 METAR COR EGLL 211650Z 25016KT 9999 BKN020 11/08 Q1031 NOSIG=
200812211620 METAR COR EGLL 211620Z 25014KT 9999 BKN021 12/07 Q1031 NOSIG=
200812211550 METAR COR EGLL 211550Z 25017KT 9999 BKN022 12/07 Q1031 NOSIG=
200812211520 METAR COR EGLL 211520Z 25018KT 9999 BKN023 12/07 Q1030 NOSIG=
200812211450 METAR COR EGLL 211450Z 25020G30KT 9999 BKN023 12/07 Q1030
                        NOSIG=
200812211420 METAR COR EGLL 211420Z 25021KT 9999 BKN023 12/07 Q1030 NOSIG=
200812211350 METAR COR EGLL 211350Z 25020KT 9999 BKN025 12/07 Q1030 NOSIG=
200812211320 METAR COR EGLL 211320Z 26020KT 9999 BKN026 12/07 Q1031 NOSIG=
200812211250 METAR COR EGLL 211250Z 26021KT 9999 BKN027 12/07 Q1031 NOSIG=
200812211220 METAR COR EGLL 211220Z 25018KT 9999 BKN028 12/07 Q1031 NOSIG=
200812211150 METAR COR EGLL 211150Z 26018KT 9999 BKN029 12/07 Q1031 NOSIG=
200812211120 METAR COR EGLL 211120Z 26017KT 9999 BKN029 11/07 Q1031 NOSIG=
200812211050 METAR COR EGLL 211050Z 25015KT 9999 BKN028 11/06 Q1031 NOSIG=
200812211020 METAR COR EGLL 211020Z 25014KT 9999 BKN028 11/06 Q1031 NOSIG=
200812210950 METAR COR EGLL 210950Z 25016KT 9999 BKN027 11/06 Q1031 NOSIG=
200812210920 METAR COR EGLL 210920Z 26017KT 9999 BKN027 11/06 Q1030 NOSIG=
200812210850 METAR COR EGLL 210850Z 25015KT 9999 BKN026 11/06 Q1030 NOSIG=
200812210820 METAR COR EGLL 210820Z 25015KT 9999 BKN027 11/06 Q1030 NOSIG=
200812210750 METAR COR EGLL 210750Z 25015KT 9999 BKN026 11/06 Q1030 NOSIG=
200812210720 METAR COR EGLL 210720Z 25013KT 9999 BKN028 11/07 Q1031 NOSIG=
200812210650 METAR COR EGLL 210650Z 26014KT 9999 BKN025 11/07 Q1031 TEMPO
                        27016G26KT=
200812210620 METAR COR EGLL 210620Z 25014KT 9999 SCT025 11/07 Q1031 TEMPO
                        26016G27KT=
200812210550 METAR COR EGLL 210550Z 27018KT 9999 BKN029 11/06 Q1030 TEMPO
                        27018G28KT=
200812210520 METAR COR EGLL 210520Z 26016KT 9999 BKN031 11/06 Q1030 TEMPO
                        27016G27KT=
200812210450 METAR COR EGLL 210450Z 26015KT 9999 BKN033 11/06 Q1030 TEMPO
                        27016G27KT=
200812210420 METAR COR EGLL 210420Z 26016KT 9999 BKN032 11/06 Q1030 TEMPO
                        26015G26KT=
200812210350 METAR COR EGLL 210350Z 27017KT 9999 BKN030 11/07 Q1030 TEMPO
                        27015G25KT=
200812210320 METAR EGLL 210320Z NIL=
200812210250 METAR COR EGLL 210250Z 25012KT 9999 BKN028 11/08 Q1030 NOSIG=
200812210220 METAR EGLL 210220Z AUTO 25012KT 9999NDV FEW021/// OVC029///
                        11/08 Q1029=
200812210150 METAR EGLL 210150Z AUTO 26011KT 9999NDV BKN027/// 11/08 Q1029=
200812210120 METAR EGLL 210120Z AUTO 25010KT 9999NDV BKN028/// 11/08 Q1029=
200812210050 METAR COR EGLL 210050Z 27008KT 9999 BKN028 10/07 Q1030 NOSIG=
200812210020 METAR COR EGLL 210020Z 27011KT 9999 FEW015 09/07 Q1030 NOSIG=
200812202350 METAR COR EGLL 202350Z 27013KT CAVOK 10/07 Q1029 NOSIG=
200812202320 METAR COR EGLL 202320Z 27011KT CAVOK 10/07 Q1029 NOSIG=
200812202250 METAR COR EGLL 202250Z 26011KT 9999 FEW015 10/07 Q1029 NOSIG=
200812202220 METAR COR EGLL 202220Z 26013KT 9999 FEW015 10/08 Q1029 NOSIG=
200812202150 METAR COR EGLL 202150Z 25013KT 9999 FEW015 SCT019 11/08 Q1029
                        NOSIG=
200812202120 METAR COR EGLL 202120Z 25012KT 9999 FEW018 11/08 Q1029 NOSIG=
200812202050 METAR COR EGLL 202050Z 25011KT 9999 FEW014 11/09 Q1029 NOSIG=
200812202020 METAR COR EGLL 202020Z 24010KT 9999 FEW014 11/09 Q1028 TEMPO
                        BKN014=
200812201950 METAR COR EGLL 201950Z 27010KT 9999 FEW013 11/09 Q1028 TEMPO
                        BKN014=
200812201920 METAR COR EGLL 201920Z 26011KT CAVOK 11/09 Q1028 NOSIG=
200812201850 METAR COR EGLL 201850Z 26012KT 9999 FEW013 11/09 Q1028 NOSIG=
200812201820 METAR COR EGLL 201820Z 27011KT 9999 FEW013 11/09 Q1027 NOSIG=
200812201750 METAR COR EGLL 201750Z 27010KT 9999 FEW019 11/09 Q1027 NOSIG=
200812201720 METAR COR EGLL 201720Z 26012KT CAVOK 12/09 Q1027 NOSIG=
200812201650 METAR COR EGLL 201650Z 26011KT CAVOK 12/09 Q1026 NOSIG=
200812201620 METAR COR EGLL 201620Z 27012KT CAVOK 12/09 Q1026 NOSIG=
200812201550 METAR COR EGLL 201550Z 27013KT 9999 FEW016 12/09 Q1026 NOSIG=
200812201520 METAR COR EGLL 201520Z 27012KT 9999 FEW016 12/09 Q1025 NOSIG=
200812201450 METAR COR EGLL 201450Z 27017KT 9999 FEW016 12/09 Q1025 NOSIG=
200812201420 METAR COR EGLL 201420Z 27017KT 9999 FEW019 12/09 Q1025 NOSIG=
200812201350 METAR COR EGLL 201350Z 27017KT 9999 FEW017 13/09 Q1025 NOSIG=
200812201320 METAR COR EGLL 201320Z 27016KT 9999 SCT017 12/09 Q1025 NOSIG=
200812201250 METAR COR EGLL 201250Z 27016KT 9999 SCT017 13/09 Q1025 NOSIG=
200812201220 METAR COR EGLL 201220Z 26015KT 9999 SCT016 13/09 Q1025 NOSIG=
200812201150 METAR COR EGLL 201150Z 26015KT 9999 FEW019 13/09 Q1025 NOSIG=
200812201120 METAR EGLL 201120Z 26016KT 9999 FEW018 12/09 Q1025=
200812201050 METAR COR EGLL 201050Z 26017KT 9999 FEW018 12/09 Q1025 NOSIG=
200812201020 METAR COR EGLL 201020Z 27015KT 9999 SCT020 12/09 Q1025 NOSIG=
200812200950 METAR COR EGLL 200950Z 26016KT 9999 SCT018 12/09 Q1024 NOSIG=
200812200920 METAR COR EGLL 200920Z 26014KT 9999 BKN018 12/09 Q1024 TEMPO
                        BKN014=
200812200850 METAR COR EGLL 200850Z 26013KT 9999 BKN017 12/09 Q1024 TEMPO
                        BKN014=
200812200820 METAR EGLL 200820Z 26013KT 9999 BKN016 12/09 Q1024=
200812200750 METAR COR EGLL 200750Z 26012KT 9999 BKN017 12/09 Q1024 TEMPO
                        BKN014=
200812200720 METAR COR EGLL 200720Z 26012KT 9999 BKN018 12/09 Q1023 NOSIG=
200812200650 METAR EGLL 200650Z 25012KT 9999 SCT021 SCT035 12/09 Q1023=
200812200620 METAR COR EGLL 200620Z 25013KT 9999 SCT020 BKN036 12/09 Q1023
                        NOSIG=
200812200550 METAR COR EGLL 200550Z 25013KT 9999 FEW022 BKN036 12/09 Q1022
                        NOSIG=
200812200520 METAR COR EGLL 200520Z 25013KT 9999 FEW018 BKN038 12/09 Q1022
                        NOSIG=
200812200450 METAR EGLL 200450Z 25012KT 9999 FEW033 BKN037 12/09 Q1022=
200812200420 METAR COR EGLL 200420Z 25015KT 9999 FEW020 BKN034 12/09 Q1022
                        NOSIG=
200812200350 METAR COR EGLL 200350Z 24012KT 9999 SCT020 BKN033 12/09 Q1022
                        NOSIG=
200812200320 METAR COR EGLL 200320Z 24011KT 9999 BKN017 BKN026 11/09 Q1021
                        NOSIG=
200812200250 METAR COR EGLL 200250Z 25012KT 8000 -RA SCT014 BKN018 BKN024
                        11/09 Q1021 NOSIG=
200812200220 METAR EGLL 200220Z AUTO 26013KT 9999NDV BKN015/// 11/09 Q1021=
200812200150 METAR EGLL 200150Z AUTO 25013KT 9999NDV BKN016/// 11/09 Q1021=
200812200120 METAR EGLL 200120Z AUTO 26014KT 9999NDV OVC016/// 11/09 Q1021=
200812200050 METAR COR EGLL 200050Z 26016KT 9999 BKN016 11/08 Q1021 TEMPO
                        BKN014=
200812200020 METAR COR EGLL 200020Z 26015KT 9999 BKN017 11/08 Q1021 NOSIG=
200812192350 METAR COR EGLL 192350Z 25015KT 9999 BKN018 11/07 Q1020 NOSIG=
200812192320 METAR COR EGLL 192320Z 24015KT 9999 BKN020 10/07 Q1020 TEMPO
                        24018G28KT=
200812192250 METAR COR EGLL 192250Z 24018KT 9999 BKN023 10/07 Q1020 TEMPO
                        24018G28KT=
200812192220 METAR COR EGLL 192220Z 24015KT 9999 BKN022 11/07 Q1020 TEMPO
                        24015G25KT=
200812192150 METAR COR EGLL 192150Z 23015G28KT 9999 BKN026 11/07 Q1020
                        TEMPO 23015KT=
200812192120 METAR COR EGLL 192120Z 23015KT 9999 FEW020 BKN027 10/07 Q1020
                        TEMPO 23017G27KT=
200812192050 METAR COR EGLL 192050Z 24015KT 9999 BKN019 OVC027 10/07 Q1021
                        TEMPO 24017G27KT=
200812192020 METAR COR EGLL 192020Z 24017G27KT 9999 BKN021 10/06 Q1021
                        TEMPO 24016KT=
200812191950 METAR COR EGLL 191950Z 24016KT 9999 SCT022 BKN032 10/06 Q1021
                        TEMPO 24018G28KT=
200812191920 METAR COR EGLL 191920Z 23017KT 9999 FEW019 BKN033 09/06 Q1022
                        TEMPO 23018G28KT=
200812191850 METAR COR EGLL 191850Z 23017G28KT 9999 BKN019 09/06 Q1022
                        NOSIG=
200812191820 METAR COR EGLL 191820Z 23015KT 9999 FEW019 09/06 Q1022 TEMPO
                        23015G25KT=
200812191750 METAR COR EGLL 191750Z 23015KT 9999 FEW022 08/05 Q1023 TEMPO
                        23018G28KT=
200812191720 METAR COR EGLL 191720Z 22013KT CAVOK 08/05 Q1023 NOSIG=
200812191650 METAR COR EGLL 191650Z 22012KT CAVOK 08/04 Q1023 NOSIG=
200812191620 METAR COR EGLL 191620Z 21009KT CAVOK 08/04 Q1023 NOSIG=
200812191550 METAR COR EGLL 191550Z 21009KT 9999 FEW040 07/04 Q1024 NOSIG=
200812191520 METAR COR EGLL 191520Z 21009KT 9999 FEW044 07/04 Q1024 NOSIG=
200812191450 METAR COR EGLL 191450Z 22009KT 180V250 CAVOK 07/04 Q1024
                        NOSIG=
200812191420 METAR COR EGLL 191420Z 21008KT CAVOK 07/04 Q1025 NOSIG=
200812191350 METAR COR EGLL 191350Z 23009KT 190V260 CAVOK 07/03 Q1025
                        NOSIG=
200812191320 METAR COR EGLL 191320Z 23009KT CAVOK 07/03 Q1025 NOSIG=
200812191250 METAR COR EGLL 191250Z 24009KT 190V260 CAVOK 07/03 Q1025
                        NOSIG=
200812191220 METAR COR EGLL 191220Z 26008KT CAVOK 07/03 Q1025 NOSIG=
200812191150 METAR COR EGLL 191150Z 26011KT CAVOK 07/03 Q1026 NOSIG=
200812191120 METAR COR EGLL 191120Z 26010KT CAVOK 07/03 Q1026 NOSIG=
200812191050 METAR COR EGLL 191050Z 26009KT CAVOK 06/03 Q1027 NOSIG=
200812191020 METAR COR EGLL 191020Z 27010KT CAVOK 05/02 Q1027 NOSIG=
200812190950 METAR COR EGLL 190950Z 26009KT CAVOK 05/02 Q1027 NOSIG=
200812190920 METAR COR EGLL 190920Z 26009KT CAVOK 04/02 Q1026 NOSIG=
200812190850 METAR EGLL 190850Z 27009KT CAVOK 04/02 Q1026=
200812190820 METAR COR EGLL 190820Z 28007KT CAVOK 03/01 Q1026 NOSIG=
200812190750 METAR COR EGLL 190750Z 28008KT CAVOK 03/01 Q1026 NOSIG=
200812190720 METAR COR EGLL 190720Z 28008KT CAVOK 03/01 Q1025 NOSIG=
200812190650 METAR COR EGLL 190650Z 27007KT CAVOK 03/02 Q1025 NOSIG=
200812190620 METAR COR EGLL 190620Z 27007KT CAVOK 03/01 Q1024 NOSIG=
200812190550 METAR COR EGLL 190550Z 28006KT CAVOK 04/02 Q1023 NOSIG=
200812190520 METAR COR EGLL 190520Z 27008KT CAVOK 04/02 Q1023 NOSIG=
200812190450 METAR EGLL 190450Z NIL=
200812190420 METAR COR EGLL 190420Z 27005KT CAVOK 04/02 Q1022 NOSIG=
200812190350 METAR COR EGLL 190350Z 27006KT CAVOK 05/03 Q1022 NOSIG=
200812190320 METAR COR EGLL 190320Z 28008KT CAVOK 04/02 Q1022 NOSIG=
200812190250 METAR COR EGLL 190250Z 28007KT CAVOK 05/03 Q1021 NOSIG=
200812190220 METAR EGLL 190220Z AUTO 28006KT 9999NDV NCD 05/03 Q1021=
200812190150 METAR EGLL 190150Z AUTO 28007KT 9999NDV NCD 06/03 Q1020=
200812190120 METAR EGLL 190120Z AUTO 28006KT 9999NDV NCD 07/04 Q1020=
200812190050 METAR COR EGLL 190050Z 27009KT CAVOK 08/05 Q1020 NOSIG=
200812190020 METAR COR EGLL 190020Z 27006KT 9999 SCT041 09/07 Q1019 NOSIG=
200812182350 METAR COR EGLL 182350Z 30006KT 9999 -RA BKN025 09/07 Q1019
                        NOSIG=
200812182320 METAR COR EGLL 182320Z 29006KT 6000 -RA BKN020 09/08 Q1019
                        RERA NOSIG=
200812182250 METAR COR EGLL 182250Z 28008KT 260V320 9000 FEW015 BKN031
                        10/07 Q1018 NOSIG=
200812182220 METAR COR EGLL 182220Z 27007KT 9999 FEW031 10/07 Q1018 NOSIG=
200812182150 METAR COR EGLL 182150Z 27010KT 9999 FEW022 10/07 Q1017 NOSIG=
200812182120 METAR COR EGLL 182120Z 25013KT 9999 SCT020 10/06 Q1017 TEMPO
                        RA BKN014=
200812182050 METAR COR EGLL 182050Z 24012KT 9999 SCT023 10/06 Q1017 TEMPO
                        -RA BKN014=
200812182020 METAR COR EGLL 182020Z 23013KT 9999 SCT022 SCT036 10/06 Q1017
                        TEMPO -RA BKN014=
200812181950 METAR COR EGLL 181950Z 24011KT 9999 BKN026 10/06 Q1017 NOSIG=
200812181920 METAR COR EGLL 181920Z 23010KT 9999 FEW027 SCT049 10/06 Q1017
                        TEMPO RA=
200812181850 METAR COR EGLL 181850Z 23011KT 9999 FEW028 BKN048 11/06 Q1017
                        TEMPO RA=
200812181820 METAR COR EGLL 181820Z 24011KT 9999 BKN045 11/06 Q1017 NOSIG=
200812181750 METAR COR EGLL 181750Z 23010KT 9999 OVC042 11/06 Q1017 NOSIG=
200812181720 METAR COR EGLL 181720Z 23011KT 9999 BKN043 11/07 Q1016 NOSIG=
200812181650 METAR COR EGLL 181650Z 23012KT 9999 BKN045 11/07 Q1016 NOSIG=
200812181620 METAR COR EGLL 181620Z 23012KT 9999 BKN043 BKN046 11/07 Q1016
                        NOSIG=
200812181550 METAR COR EGLL 181550Z 23013KT 9999 FEW033 BKN043 11/07 Q1016
                        NOSIG=
200812181520 METAR COR EGLL 181520Z 23011KT 9999 FEW028 BKN037 11/08 Q1017
                        NOSIG=
200812181450 METAR COR EGLL 181450Z 23013KT 9999 BKN043 11/08 Q1017 NOSIG=
200812181420 METAR COR EGLL 181420Z 23011KT 9999 FEW020 SCT035 BKN044
                        11/08 Q1017 NOSIG=
200812181350 METAR COR EGLL 181350Z 23012KT 9999 FEW018 BKN038 11/08 Q1017
                        NOSIG=
200812181320 METAR COR EGLL 181320Z 24011KT 9999 FEW018 BKN043 11/08 Q1017
                        NOSIG=
200812181250 METAR COR EGLL 181250Z 22010KT 180V260 9999 FEW013 BKN018
                        11/08 Q1017 TEMPO BKN014=
200812181220 METAR COR EGLL 181220Z 24012KT 9999 FEW017 BKN047 11/08 Q1017
                        NOSIG=
200812181150 METAR COR EGLL 181150Z 23010KT 9999 SCT044 11/08 Q1017 NOSIG=
200812181120 METAR COR EGLL 181120Z 24011KT 9999 BKN044 11/07 Q1018 NOSIG=
200812181050 METAR COR EGLL 181050Z 25012KT 9999 FEW016 BKN040 11/07 Q1018
                        NOSIG=
200812181020 METAR COR EGLL 181020Z 24011KT 9999 BKN042 10/07 Q1018 NOSIG=
200812180950 METAR COR EGLL 180950Z 24012KT 9999 BKN042 10/07 Q1018 NOSIG=
200812180920 METAR COR EGLL 180920Z 24010KT 9999 BKN043 10/07 Q1018 NOSIG=
200812180850 METAR COR EGLL 180850Z 23008KT 9999 BKN045 09/07 Q1018 NOSIG=
200812180820 METAR COR EGLL 180820Z 22006KT 9999 OVC035 09/07 Q1018 NOSIG=
200812180750 METAR COR EGLL 180750Z 22009KT 9999 BKN016 BKN033 09/07 Q1018
                        TEMPO BKN012=
200812180720 METAR EGLL 180720Z 23010KT 9999 BKN018 BKN031 09/07 Q1018=
200812180650 METAR COR EGLL 180650Z 24009KT 9999 FEW010 BKN030 09/07 Q1018
                        NOSIG=
200812180620 METAR COR EGLL 180620Z 23007KT 9999 FEW009 SCT014 BKN034
                        09/07 Q1018 BECMG BKN014=
200812180550 METAR COR EGLL 180550Z 23008KT 9999 SCT008 BKN016 09/07 Q1017
                        TEMPO BKN008=
200812180520 METAR COR EGLL 180520Z 24010KT 9999 BKN008 09/07 Q1017 TEMPO
                        BKN012=
200812180450 METAR COR EGLL 180450Z 25010KT 9999 BKN008 09/07 Q1017 TEMPO
                        BKN012=
200812180420 METAR COR EGLL 180420Z 25010KT 9999 BKN010 09/07 Q1017 NOSIG=
200812180350 METAR COR EGLL 180350Z 26011KT 9999 FEW009 SCT012 BKN016
                        08/06 Q1017 TEMPO BKN012=
200812180320 METAR COR EGLL 180320Z 25010KT 9999 BKN010 08/06 Q1017 TEMPO
                        BKN007=
200812180250 METAR COR EGLL 180250Z 25010KT 9999 SCT011 BKN039 08/06 Q1017
                        TEMPO BKN011=
200812180220 METAR EGLL 180220Z AUTO 26008KT 9999NDV SCT012/// SCT018///
                        07/05 Q1017=
200812180150 METAR EGLL 180150Z AUTO 25009KT 9999NDV SCT036/// 07/05 Q1017=
200812180120 METAR EGLL 180120Z AUTO 26011KT 9999NDV FEW034/// 07/04 Q1017=
200812180050 METAR COR EGLL 180050Z 26011KT 9999 SCT014 BKN039 07/04 Q1017
                        NOSIG=
200812180020 METAR COR EGLL 180020Z 25008KT 9999 FEW045 06/03 Q1017 NOSIG=
200812172350 METAR COR EGLL 172350Z 23004KT 9999 FEW048 05/03 Q1017 NOSIG=
200812172320 METAR COR EGLL 172320Z 21005KT CAVOK 05/03 Q1017 NOSIG=
200812172250 METAR COR EGLL 172250Z 21007KT 9999 FEW039 05/02 Q1017 NOSIG=
200812172220 METAR COR EGLL 172220Z 22009KT 9999 FEW047 05/02 Q1018 NOSIG=
200812172150 METAR COR EGLL 172150Z 22008KT CAVOK 04/02 Q1018 NOSIG=
200812172120 METAR COR EGLL 172120Z 21008KT CAVOK 04/02 Q1018 NOSIG=
200812172050 METAR COR EGLL 172050Z 19007KT 170V280 CAVOK 04/01 Q1018
                        NOSIG=
200812172020 METAR COR EGLL 172020Z 22007KT CAVOK 04/01 Q1018 NOSIG=
200812171950 METAR COR EGLL 171950Z 21006KT 180V240 CAVOK 04/01 Q1018
                        NOSIG=
200812171920 METAR COR EGLL 171920Z 21007KT CAVOK 04/01 Q1018 NOSIG=
200812171850 METAR COR EGLL 171850Z 21007KT CAVOK 04/01 Q1018 NOSIG=
200812171820 METAR COR EGLL 171820Z 22008KT 190V250 CAVOK 05/01 Q1018
                        NOSIG=
200812171750 METAR COR EGLL 171750Z 23007KT CAVOK 05/01 Q1017 NOSIG=
200812171720 METAR COR EGLL 171720Z 23007KT CAVOK 05/01 Q1017 NOSIG=
200812171650 METAR COR EGLL 171650Z 25008KT CAVOK 05/01 Q1017 NOSIG=
200812171620 METAR COR EGLL 171620Z 24007KT CAVOK 06/01 Q1017 NOSIG=
200812171550 METAR COR EGLL 171550Z 26005KT CAVOK 06/01 Q1017 NOSIG=
200812171520 METAR COR EGLL 171520Z 27006KT CAVOK 06/01 Q1017 NOSIG=
200812171450 METAR COR EGLL 171450Z 28005KT CAVOK 07/02 Q1016 NOSIG=
200812171420 METAR COR EGLL 171420Z 28006KT CAVOK 07/01 Q1016 NOSIG=
200812171350 METAR COR EGLL 171350Z 29006KT CAVOK 07/02 Q1016 NOSIG=
200812171320 METAR COR EGLL 171320Z 29007KT 9999 FEW028 08/01 Q1016 NOSIG=
200812171250 METAR COR EGLL 171250Z 29007KT 270V330 9999 FEW021 07/02
                        Q1016 NOSIG=
200812171220 METAR COR EGLL 171220Z 31004KT 280V360 9999 FEW016 07/03
                        Q1016 NOSIG=
200812171150 METAR COR EGLL 171150Z 28005KT 250V320 CAVOK 07/03 Q1016
                        NOSIG=
200812171120 METAR COR EGLL 171120Z 28006KT CAVOK 07/03 Q1016 NOSIG=
200812171050 METAR COR EGLL 171050Z 29005KT CAVOK 06/03 Q1016 NOSIG=
200812171020 METAR COR EGLL 171020Z 28004KT CAVOK 06/03 Q1015 NOSIG=
200812170950 METAR COR EGLL 170950Z 27005KT CAVOK 05/03 Q1015 NOSIG=
200812170920 METAR COR EGLL 170920Z 29005KT CAVOK 05/02 Q1015 NOSIG=
200812170850 METAR COR EGLL 170850Z 30004KT CAVOK 03/01 Q1014 NOSIG=
200812170820 METAR COR EGLL 170820Z 28006KT 9999 FEW040 04/02 Q1014 NOSIG=
200812170750 METAR COR EGLL 170750Z 30004KT CAVOK 04/02 Q1013 NOSIG=
200812170720 METAR COR EGLL 170720Z 29005KT CAVOK 05/02 Q1013 NOSIG=
200812170650 METAR COR EGLL 170650Z 28004KT CAVOK 04/02 Q1013 NOSIG=
200812170620 METAR COR EGLL 170620Z 29005KT CAVOK 04/03 Q1012 NOSIG=
200812170550 METAR COR EGLL 170550Z 28004KT CAVOK 03/02 Q1012 NOSIG=
200812170520 METAR EGLL 170520Z NIL=
200812170450 METAR COR EGLL 170450Z 28004KT CAVOK 05/03 Q1011 NOSIG=
200812170420 METAR COR EGLL 170420Z 30004KT CAVOK 06/04 Q1011 NOSIG=
200812170350 METAR COR EGLL 170350Z 30006KT 9999 SCT024 08/05 Q1011 NOSIG=
200812170320 METAR COR EGLL 170320Z 30007KT 9999 SCT024 08/05 Q1010 NOSIG=
200812170250 METAR COR EGLL 170250Z 30005KT 9999 BKN014 OVC033 09/07 Q1010
                        BECMG SCT020=
200812170220 METAR EGLL 170220Z AUTO 30006KT 9999NDV FEW003/// BKN025///
                        08/08 Q1009=
200812170150 METAR EGLL 170150Z AUTO 31005KT 2300NDV DZ FEW002/// BKN008///
                        08/07 Q1009=
200812170120 METAR EGLL 170120Z AUTO 21006KT 2300NDV DZ SCT001/// BKN012///
                        BKN020/// 08/07 Q1009=
200812170050 METAR COR EGLL 170050Z 20007KT 2500 DZ SCT002 OVC014 08/07
                        Q1009 BECMG 6000 NSW=
200812170020 METAR COR EGLL 170020Z 20006KT 2300 DZ FEW002 OVC022 07/07
                        Q1009 TEMPO BKN002=
200812162350 METAR COR EGLL 162350Z 20006KT 2400 DZ FEW003 BKN020 07/06
                        Q1009 RERA TEMPO BKN003=
200812162320 METAR COR EGLL 162320Z 20007KT 4200 -RA BKN006 SCT010 07/06
                        Q1010 TEMPO BKN003=
200812162250 METAR COR EGLL 162250Z 18008KT 5000 HZ OVC005 07/05 Q1010
                        TEMPO 3000 BR BKN003=
200812162220 METAR COR EGLL 162220Z 20007KT 4100 HZ BKN005 06/05 Q1010
                        NOSIG=
200812162150 METAR COR EGLL 162150Z 21007KT 4500 HZ OVC005 06/05 Q1011
                        NOSIG=
200812162120 METAR COR EGLL 162120Z 21006KT 170V250 3300 HZ BKN004 05/04
                        Q1011 NOSIG=
200812162050 METAR COR EGLL 162050Z 19007KT 1400 R27R/P1500 R27L/P1500
                        BR FEW003 BKN004 05/04 Q1011 TEMPO
                        BKN002=
200812162020 METAR COR EGLL 162020Z 18006KT 1200 R27R/P1500 R27L/P1500
                        BR BKN002 05/04 Q1011 NOSIG=
200812161950 METAR COR EGLL 161950Z 21006KT 1400 R27R/P1500 R27L/P1500
                        BR SCT003 BKN004 05/04 Q1012 TEMPO
                        BKN002=
200812161920 METAR COR EGLL 161920Z 20005KT 1400 R27R/P1500 R27L/P1500
                        BR FEW002 SCT003 BKN004 04/03 Q1012
                        TEMPO BKN002=
200812161850 METAR COR EGLL 161850Z 21005KT 1400 R27R/P1500 R27L/P1500
                        BR FEW002 SCT003 BKN004 04/03 Q1012
                        TEMPO BKN002=
200812161820 METAR COR EGLL 161820Z 19006KT 160V240 1500 R27R/P1500 R27L/P1500
                        BR OVC003 04/02 Q1012 NOSIG=
200812161750 METAR COR EGLL 161750Z 21007KT 3000 BR OVC004 03/02 Q1012
                        NOSIG=
200812161720 METAR COR EGLL 161720Z 20007KT 6000 FEW007 BKN008 03/02 Q1012
                        TEMPO SCT008=
200812161650 METAR COR EGLL 161650Z 21006KT 190V250 6000 FEW044 03/02
                        Q1013 NOSIG=
200812161620 METAR COR EGLL 161620Z 21006KT 170V240 5000 BR SCT049 03/02
                        Q1013 NOSIG=
200812161550 METAR EGLL 161550Z 21006KT 180V250 5000 BR SCT006 SCT016
                        BKN036 03/02 Q1013 TEMPO BKN006=
200812161520 METAR COR EGLL 161520Z 20006KT 5000 BR BKN005 03/02 Q1013
                        TEMPO BKN004=
200812161450 METAR COR EGLL 161450Z 21006KT 170V250 5000 BR SCT004 BKN005
                        03/02 Q1013 TEMPO BKN004=
200812161420 METAR COR EGLL 161420Z 19007KT 140V240 2000 BR SCT002 BKN003
                        03/02 Q1014 TEMPO 5000 SCT005=
200812161350 METAR COR EGLL 161350Z 21007KT 170V260 1900 BR SCT001 BKN002
                        03/02 Q1014 TEMPO 3000 BKN005=
200812161320 METAR COR EGLL 161320Z 21007KT 160V270 1100 R27L/P1500 R27R/P1500
                        BR SCT001 OVC002 03/02 Q1015 NOSIG=
200812161250 METAR COR EGLL 161250Z 22006KT 160V270 0900 R27L/1200 R27R/P1500
                        FG SCT001 OVC002 02/02 Q1015 NOSIG=
200812161220 METAR COR EGLL 161220Z 20006KT 150V260 0800 R27L/P1500 R27R/P1500
                        FG OVC001 02/01 Q1015 TEMPO 1500
                        BKN002=
200812161150 METAR COR EGLL 161150Z 26007KT 210V290 0500 R27L/P1500 R27R/P1500
                        FG OVC001 02/01 Q1016 TEMPO 1500
                        BR BKN002=
200812161120 METAR COR EGLL 161120Z 22006KT 170V280 0800 R27L/1000 R27R/P1500
                        FG OVC001 02/01 Q1016 TEMPO 2000
                        BR BKN002=
200812161050 METAR COR EGLL 161050Z 18006KT 120V260 0800 R27L/P1500 R27R/1500
                        FG BKN002 02/01 Q1016 TEMPO 2000
                        BR=
200812161020 METAR COR EGLL 161020Z 21006KT 150V250 1300 R27L/P1500 R27R/P1500
                        BR BKN002 02/01 Q1017 TEMPO 2000=
200812160950 METAR COR EGLL 160950Z 21006KT 170V250 2300 BR BKN003 02/01
                        Q1017 NOSIG=
200812160920 METAR COR EGLL 160920Z 21006KT 170V250 3100 BR BKN003 02/01
                        Q1017 NOSIG=
200812160850 METAR COR EGLL 160850Z 23006KT 3500 BR SCT002 BKN003 02/01
                        Q1017 TEMPO BKN002=
200812160820 METAR COR EGLL 160820Z 27007KT 2700 BR BKN002 02/01 Q1017
                        TEMPO 3500=
200812160750 METAR COR EGLL 160750Z 27009KT 1500 R27L/P1500 R27R/P1500
                        BR BKN002 02/01 Q1017 TEMPO 1000=
200812160720 METAR EGLL 160720Z 23006KT 190V270 1600 BR BKN003 02/01 Q1017=
200812160650 METAR COR EGLL 160650Z 22006KT 180V250 1500 BR BKN003 02/01
                        Q1017 TEMPO 1400 BR BKN002=
200812160620 METAR COR EGLL 160620Z 21005KT 140V260 2700 BR BKN003 02/01
                        Q1017 TEMPO BKN002=
200812160550 METAR COR EGLL 160550Z 22005KT 190V270 2700 BR BKN003 03/02
                        Q1017 TEMPO BKN002=
200812160520 METAR COR EGLL 160520Z 20004KT 160V240 3400 BR OVC004 03/02
                        Q1017 NOSIG=
200812160450 METAR EGLL 160450Z 20005KT 3700 BR OVC004 03/02 Q1018=
200812160420 METAR COR EGLL 160420Z VRB03KT 3800 BR OVC004 03/02 Q1018
                        NOSIG=
200812160350 METAR COR EGLL 160350Z 19004KT 160V230 3800 BR OVC004 03/02
                        Q1018 NOSIG=
200812160320 METAR COR EGLL 160320Z VRB03KT 3800 BR OVC005 03/02 Q1018
                        BECMG BKN004=
200812160250 METAR COR EGLL 160250Z 20004KT 4500 BR BKN005 03/02 Q1019
                        TEMPO BKN004=
200812160220 METAR EGLL 160220Z AUTO VRB03KT 4300NDV HZ OVC005/// 04/02
                        Q1019=
200812160150 METAR EGLL 160150Z AUTO 00000KT 4300NDV HZ OVC005/// 04/02
                        Q1019=
200812160120 METAR EGLL 160120Z AUTO 00000KT 4100NDV HZ OVC005/// 04/02
                        Q1019=
200812160050 METAR COR EGLL 160050Z VRB02KT 4500 BR BKN006 04/02 Q1019
                        NOSIG=
200812160020 METAR COR EGLL 160020Z VRB02KT 4500 BR BKN006 04/02 Q1019
                        NOSIG=
200812152350 METAR COR EGLL 152350Z VRB03KT 4800 BR BKN006 04/02 Q1019
                        NOSIG=
200812152320 METAR COR EGLL 152320Z VRB03KT 4600 BR BKN006 04/02 Q1020
                        NOSIG=
200812152250 METAR COR EGLL 152250Z VRB02KT 4900 BR BKN006 04/02 Q1019
                        NOSIG=
200812152220 METAR COR EGLL 152220Z VRB03KT 4800 BR BKN007 04/02 Q1019
                        NOSIG=
200812152150 METAR COR EGLL 152150Z 11005KT 5000 BR BKN007 04/02 Q1019
                        TEMPO 3000 BR=
200812152120 METAR COR EGLL 152120Z 10004KT 5000 BR OVC007 05/03 Q1019
                        BECMG 3000 BR=
200812152050 METAR COR EGLL 152050Z 07004KT 5000 BR OVC007 05/03 Q1020
                        BECMG 3000=
200812152020 METAR COR EGLL 152020Z 01004KT 330V070 6000 OVC008 05/03
                        Q1020 TEMPO 3000 BR=
200812151950 METAR COR EGLL 151950Z 03004KT 360V090 6000 BKN008 05/03
                        Q1020 BECMG 3000 BR=
200812151920 METAR COR EGLL 151920Z VRB03KT 6000 OVC007 05/03 Q1020 BECMG
                        4000 BR=
200812151850 METAR COR EGLL 151850Z VRB03KT 6000 OVC008 05/03 Q1020 BECMG
                        4000 BR=
200812151820 METAR COR EGLL 151820Z 04004KT 340V080 6000 BKN008 05/03
                        Q1020 TEMPO 4000 BR=
200812151750 METAR COR EGLL 151750Z 03005KT 350V070 6000 OVC008 05/03
                        Q1020 NOSIG=
200812151720 METAR COR EGLL 151720Z 36004KT 310V050 6000 FEW008 BKN009
                        05/03 Q1019 TEMPO BR=
200812151650 METAR COR EGLL 151650Z 35004KT 320V020 6000 BKN009 05/03
                        Q1019 TEMPO 4000 BR=
200812151620 METAR COR EGLL 151620Z 01004KT 320V060 6000 OVC009 06/03
                        Q1019 TEMPO 4000 BR=
200812151550 METAR COR EGLL 151550Z 34005KT 300V010 6000 OVC010 06/03
                        Q1019 TEMPO BKN008=
200812151520 METAR COR EGLL 151520Z 35005KT 7000 OVC010 06/03 Q1018 NOSIG=
200812151450 METAR COR EGLL 151450Z 04004KT 7000 BKN010 06/03 Q1018 NOSIG=
200812151420 METAR COR EGLL 151420Z 06004KT 010V080 9000 BKN010 06/03
                        Q1018 NOSIG=
200812151350 METAR COR EGLL 151350Z 05004KT 010V080 9999 BKN010 06/03
                        Q1018 NOSIG=
200812151320 METAR COR EGLL 151320Z 01005KT 330V060 9000 BKN011 06/03
                        Q1019 NOSIG=
200812151250 METAR COR EGLL 151250Z 02005KT 350V060 9999 OVC010 06/03
                        Q1019 NOSIG=
200812151220 METAR COR EGLL 151220Z 01006KT 340V050 9999 OVC010 06/03
                        Q1019 NOSIG=
200812151150 METAR COR EGLL 151150Z 02006KT 340V070 9000 OVC009 06/03
                        Q1019 TEMPO BKN012=
200812151120 METAR COR EGLL 151120Z 02006KT 320V060 9000 OVC009 06/03
                        Q1019 TEMPO BKN012=
200812151050 METAR COR EGLL 151050Z 02006KT 340V060 9000 OVC008 05/03
                        Q1018 TEMPO BKN010=
200812151020 METAR COR EGLL 151020Z 03006KT 360V070 8000 OVC007 05/03
                        Q1018 TEMPO BKN010=
200812150950 METAR COR EGLL 150950Z 02006KT 350V060 7000 OVC006 05/03
                        Q1018 NOSIG=
200812150920 METAR COR EGLL 150920Z 01005KT 330V040 7000 SCT006 BKN008
                        05/03 Q1018 NOSIG=
200812150850 METAR COR EGLL 150850Z 02006KT 330V050 8000 BKN006 BKN008
                        05/03 Q1017 NOSIG=
200812150820 METAR COR EGLL 150820Z 36006KT 330V040 6000 BKN005 BKN008
                        05/03 Q1017 NOSIG=
200812150750 METAR COR EGLL 150750Z 35006KT 7000 SCT006 BKN008 05/03 Q1017
                        NOSIG=
200812150720 METAR COR EGLL 150720Z 02005KT 330V070 7000 BKN006 05/03
                        Q1016 NOSIG=
200812150650 METAR COR EGLL 150650Z 01005KT 350V050 6000 BKN006 05/03
                        Q1015 TEMPO BKN004=
200812150620 METAR COR EGLL 150620Z 01005KT 340V040 6000 OVC005 05/03
                        Q1015 TEMPO BKN004=
200812150550 METAR COR EGLL 150550Z 02006KT 340V050 7000 OVC006 05/03
                        Q1015 NOSIG=
200812150520 METAR COR EGLL 150520Z 01006KT 340V050 7000 OVC006 05/03
                        Q1014 NOSIG=
200812150450 METAR EGLL 150450Z 03008KT 360V060 7000 BKN006 05/03 Q1014=
200812150420 METAR EGLL 150420Z 01006KT 300V040 7000 OVC006 05/03 Q1014=
200812150350 METAR COR EGLL 150350Z 02005KT 340V060 6000 OVC006 04/03
                        Q1013 NOSIG=
200812150320 METAR COR EGLL 150320Z 02007KT 340V050 6000 OVC006 04/03
                        Q1013 NOSIG=
200812150250 METAR COR EGLL 150250Z 01007KT 340V050 6000 OVC006 04/03
                        Q1013 NOSIG=
200812150220 METAR EGLL 150220Z AUTO 36005KT 300V040 6000NDV BKN006///
                        04/03 Q1012=
200812150150 METAR EGLL 150150Z AUTO 02006KT 340V050 6000NDV OVC006///
                        04/03 Q1012=
200812150120 METAR EGLL 150120Z AUTO 01006KT 330V040 7000NDV OVC006///
                        04/03 Q1012=
200812150050 METAR COR EGLL 150050Z 02007KT 340V060 7000 OVC006 04/03
                        Q1011 NOSIG=
200812150020 METAR COR EGLL 150020Z 01006KT 340V060 8000 OVC007 04/02
                        Q1011 NOSIG=
200812142350 METAR COR EGLL 142350Z 03005KT 350V060 7000 OVC007 04/02
                        Q1010 NOSIG=
200812142320 METAR COR EGLL 142320Z 01007KT 8000 BKN008 04/02 Q1010 NOSIG=
200812142250 METAR EGLL 142250Z 03005KT 340V070 8000 BKN011 04/02 Q1010=
200812142220 METAR EGLL 142220Z 01006KT 340V040 8000 BKN012 04/02 Q1009=
200812142150 METAR COR EGLL 142150Z 01006KT 330V050 9999 SCT009 BKN011
                        BKN014 04/02 Q1009 TEMPO BKN009=
200812142120 METAR COR EGLL 142120Z 03007KT 350V070 9999 BKN008 BKN010
                        04/02 Q1009 NOSIG=
200812142050 METAR COR EGLL 142050Z 04009KT 9999 SCT008 BKN010 04/02 Q1008
                        TEMPO BKN008=
200812142020 METAR COR EGLL 142020Z 04008KT 360V070 9999 BKN009 05/02
                        Q1008 NOSIG=
200812141950 METAR COR EGLL 141950Z 02006KT 350V060 9999 OVC009 05/02
                        Q1008 NOSIG=
200812141920 METAR COR EGLL 141920Z 03006KT 350V070 9999 BKN009 04/02
                        Q1007 NOSIG=
200812141850 METAR COR EGLL 141850Z 02006KT 340V060 9999 BKN010 05/02
                        Q1006 NOSIG=
200812141820 METAR COR EGLL 141820Z 36006KT 330V050 9999 BKN011 05/02
                        Q1006 NOSIG=
200812141750 METAR COR EGLL 141750Z 04009KT 360V070 9999 BKN012 05/02
                        Q1006 NOSIG=
200812141720 METAR COR EGLL 141720Z 04006KT 360V070 9999 BKN012 05/02
                        Q1005 NOSIG=
200812141650 METAR COR EGLL 141650Z 02007KT 340V060 9999 BKN013 BKN017
                        05/02 Q1004 NOSIG=
200812141620 METAR COR EGLL 141620Z 01006KT 340V050 9999 FEW016 BKN020
                        05/02 Q1003 NOSIG=
200812141550 METAR COR EGLL 141550Z 01005KT 330V050 9999 BKN018 05/02
                        Q1003 NOSIG=
200812141520 METAR COR EGLL 141520Z 01005KT 330V050 9999 BKN018 05/02
                        Q1003 NOSIG=
200812141450 METAR COR EGLL 141450Z 04006KT 360V070 9999 BKN018 06/02
                        Q1002 NOSIG=
200812141420 METAR COR EGLL 141420Z 03005KT 360V060 9999 BKN017 06/02
                        Q1001 NOSIG=
200812141350 METAR COR EGLL 141350Z 04004KT 010V070 9999 FEW010 BKN015
                        05/03 Q1001 NOSIG=
200812141320 METAR COR EGLL 141320Z 07004KT 8000 SCT007 OVC013 05/03 Q1001
                        NOSIG=
200812141250 METAR COR EGLL 141250Z VRB03KT 6000 SCT009 BKN014 05/03 Q1000
                        NOSIG=
200812141220 METAR COR EGLL 141220Z 35003KT 4200 BR SCT007 BKN018 05/04
                        Q1000 TEMPO BKN007=
200812141150 METAR COR EGLL 141150Z VRB03KT 4200 VCFG FEW007 BKN019 05/04
                        Q1000 NOSIG=
200812141120 METAR COR EGLL 141120Z VRB03KT 4400 2000S VCFG FEW004 SCT006
                        BKN015 04/03 Q0999 TEMPO BKN004=
200812141050 METAR COR EGLL 141050Z VRB02KT 4500 BR FEW003 SCT012 03/03
                        Q0999 TEMPO 6000 NSW=
200812141020 METAR COR EGLL 141020Z VRB02KT 2500 BR SCT002 BKN012 03/02
                        Q0999 TEMPO 5000 NSW=
200812140950 METAR COR EGLL 140950Z VRB02KT 0900 R27R/P1500 R27L/P1500
                        FG BKN002 03/02 Q0999 BECMG 1500
                        BR BKN005=
200812140920 METAR COR EGLL 140920Z VRB02KT 0900 R27R/P1500 R27L/P1500
                        FG FEW001 BKN002 03/02 Q0998 BECMG
                        1500 BR BKN004=
200812140850 METAR COR EGLL 140850Z VRB03KT 0900 R27R/1300 R27L/P1500
                        FG VV/// 02/02 Q0998 BECMG 1500 BR
                        BKN004=
200812140820 METAR COR EGLL 140820Z VRB03KT 0700 R27R/P1500 R27L/1400
                        FG BKN002 02/02 Q0997 BECMG 1500
                        BR BKN004=
200812140750 METAR COR EGLL 140750Z VRB03KT 0500 R27R/0900 R27L/1200 FG
                        BKN002 02/02 Q0996 NOSIG=
200812140720 METAR COR EGLL 140720Z VRB03KT 0400 R27R/0800 R27L/P1500
                        FG BKN002 02/02 Q0996 TEMPO 0800
                        FG=
200812140650 METAR COR EGLL 140650Z VRB02KT 0350 R27R/0500 R27L/1000 FG
                        BKN001 02/01 Q0995 TEMPO 1200 BR
                        BKN002=
200812140620 METAR EGLL 140620Z 31004KT 280V350 0350 R27R/0600 R27L/0500
                        FG BKN001 02/01 Q0995=
200812140550 METAR COR EGLL 140550Z 27003KT 0300 R27R/0375 R27L/0550 FG
                        BKN001 02/01 Q0994 NOSIG=
200812140520 METAR COR EGLL 140520Z 35003KT 0300 R27L/0325 FG BKN001 02/01
                        Q0994 NOSIG=
200812140450 METAR COR EGLL 140450Z VRB03KT 0300 R27L/0400 FG BKN001 02/02
                        Q0993 NOSIG=
200812140420 METAR COR EGLL 140420Z 27005KT 0200 R27L/0400 FG BKN001 02/01
                        Q0992 TEMPO 0600 FG=
200812140350 METAR COR EGLL 140350Z 26005KT 0600 R27L/0375 FG BKN001 02/01
                        Q0992 TEMPO 1200 BR=
200812140320 METAR COR EGLL 140320Z 26003KT 3000 1400W BR FEW003 03/02
                        Q0992 BECMG 1800=
200812140250 METAR EGLL 140250Z 00000KT 3400 BR FEW003 03/02 Q0991=
200812140220 METAR EGLL 140220Z AUTO 27004KT 5000NDV SCT004/// 03/02 Q0991=
200812140150 METAR EGLL 140150Z AUTO 25004KT 8000NDV NCD 03/02 Q0990=
200812140120 METAR EGLL 140120Z AUTO 26006KT 7000NDV NCD 03/02 Q0990=
200812140050 METAR COR EGLL 140050Z 28005KT 8000 -RA NSC 04/03 Q0990 NOSIG=
200812140020 METAR COR EGLL 140020Z 29006KT 9999 -RA FEW005 04/03 Q0989
                        NOSIG=
200812132350 METAR COR EGLL 132350Z 29005KT 8000 -RA FEW005 BKN030 04/03
                        Q0988 RERA NOSIG=
200812132320 METAR COR EGLL 132320Z 29006KT 8000 RA FEW005 BKN029 04/03
                        Q0989 BECMG -RA=
200812132250 METAR COR EGLL 132250Z 31005KT 7000 RA FEW005 BKN020 04/03
                        Q0988 BECMG -RA=
200812132220 METAR COR EGLL 132220Z 33004KT 300V360 9000 RA SCT026 BKN032
                        04/03 Q0987 TEMPO -RA BKN008=
200812132150 METAR COR EGLL 132150Z 34005KT 7000 RA FEW013 BKN019 04/03
                        Q0987 TEMPO -RA BKN008=
200812132120 METAR COR EGLL 132120Z 35006KT 320V020 7000 RA BKN008 BKN010
                        04/03 Q0987 BECMG -RA=
200812132050 METAR COR EGLL 132050Z 33005KT 300V360 6000 RA BKN006 BKN010
                        04/03 Q0987 TEMPO 4500 RA=
200812132020 METAR COR EGLL 132020Z 33004KT 300V020 5000 RA BKN007 OVC010
                        05/03 Q0987 TEMPO 4000 -RADZ=
200812131950 METAR COR EGLL 131950Z 35005KT 4700 RA BKN006 OVC010 05/03
                        Q0987 TEMPO 6000=
200812131920 METAR EGLL 131920Z 01004KT 5000 RA FEW007 BKN011 05/04 Q0986=
200812131850 METAR COR EGLL 131850Z 02005KT 6000 RA BKN010 05/04 Q0986
                        TEMPO BKN008=
200812131820 METAR COR EGLL 131820Z 04005KT 8000 RA BKN009 BKN012 05/04
                        Q0986 NOSIG=
200812131750 METAR COR EGLL 131750Z 05005KT 9000 RA OVC010 05/04 Q0986
                        TEMPO BKN008=
200812131720 METAR COR EGLL 131720Z 07006KT 9999 RA BKN011 05/04 Q0987
                        TEMPO BKN009=
200812131650 METAR EGLL 131650Z 07007KT 9999 RA FEW008 BKN012 05/04 Q0987=
200812131620 METAR COR EGLL 131620Z 07007KT 9000 RA FEW008 BKN012 OVC019
                        05/04 Q0987 TEMPO BKN008=
200812131550 METAR COR EGLL 131550Z 08007KT 9000 RA BKN017 05/04 Q0987
                        TEMPO BKN012=
200812131520 METAR COR EGLL 131520Z 10007KT 6000 RA BKN012 BKN020 05/04
                        Q0987 TEMPO BKN009=
200812131450 METAR COR EGLL 131450Z 10007KT 5000 RA FEW007 BKN010 OVC017
                        06/04 Q0987 TEMPO 4000 BKN007=
200812131420 METAR EGLL 131420Z 12006KT 6000 RA FEW009 BKN011 06/05 Q0987=
200812131350 METAR COR EGLL 131350Z 18008KT 140V210 7000 RA FEW017 SCT020
                        BKN025 06/04 Q0987 NOSIG=
200812131320 METAR COR EGLL 131320Z 17010KT 7000 RA FEW008 BKN020 06/04
                        Q0987 TEMPO BKN010=
200812131250 METAR COR EGLL 131250Z 17011KT 7000 RA BKN008 06/05 Q0987
                        NOSIG=
200812131220 METAR EGLL 131220Z 15015KT 9000 RA BKN009 06/05 Q0987=
200812131150 METAR EGLL 131150Z 14016KT 9999 -RA SCT010 BKN016 06/05 Q0988=
200812131120 METAR COR EGLL 131120Z 14015KT 9999 -RA BKN010 06/05 Q0988
                        RERA TEMPO 14018G28KT RA BKN008=
200812131050 METAR COR EGLL 131050Z 14017KT 9999 RA FEW008 BKN011 06/05
                        Q0988 TEMPO 14018G28KT=
200812131020 METAR COR EGLL 131020Z 14018KT 9000 -RA FEW009 BKN010 06/05
                        Q0989 RERA TEMPO 14020G30KT RA BKN008=
200812130950 METAR EGLL 130950Z 14019KT 9000 RA BKN009 06/05 Q0989=
200812130920 METAR COR EGLL 130920Z 13019KT 8000 RA BKN010 06/05 Q0989
                        TEMPO 13020G30KT BKN008=
200812130850 METAR COR EGLL 130850Z 13017KT 9000 -RA BKN009 06/05 Q0990
                        RERA TEMPO 14020G30KT RA=
200812130820 METAR COR EGLL 130820Z 13018KT 9000 RA BKN009 06/05 Q0990
                        TEMPO 14020G30KT=
200812130750 METAR COR EGLL 130750Z 14016KT 9000 RA SCT009 BKN012 06/05
                        Q0991 TEMPO 14020G35KT BKN009=
200812130720 METAR COR EGLL 130720Z 14016KT 9000 RA BKN009 06/05 Q0991
                        TEMPO 15020G35KT BKN010=
200812130650 METAR COR EGLL 130650Z 14016KT 9999 RA FEW009 OVC010 06/04
                        Q0992 TEMPO 15020G35KT BKN009=
200812130620 METAR COR EGLL 130620Z 15016KT 9999 RA BKN010 06/04 Q0992
                        TEMPO BKN009=
200812130550 METAR COR EGLL 130550Z 15016KT 9999 RA BKN010 06/04 Q0993
                        TEMPO BKN009=
200812130520 METAR COR EGLL 130520Z 15017KT 8000 RA BKN010 06/04 Q0993
                        TEMPO BKN009=
200812130450 METAR COR EGLL 130450Z 16018KT 9000 RA BKN010 07/05 Q0994
                        TEMPO BKN008=
200812130420 METAR COR EGLL 130420Z 16019KT 9999 -RA BKN010 07/05 Q0994
                        TEMPO RA BKN009=
200812130350 METAR COR EGLL 130350Z 16020KT 9999 -RA BKN010 07/05 Q0995
                        BECMG RA=
200812130320 METAR EGLL 130320Z 16018KT 9000 -RA BKN010 07/05 Q0996=
200812130250 METAR COR EGLL 130250Z 16018KT 9999 -RA BKN011 07/05 Q0997
                        RERA BECMG RA=
200812130220 METAR EGLL 130220Z AUTO 17018KT 9999NDV -RA OVC010/// 07/05
                        Q0997=
200812130150 METAR EGLL 130150Z AUTO 17019KT 9000NDV -RA OVC010/// 07/05
                        Q0998=
200812130120 METAR EGLL 130120Z AUTO 17018KT 9000NDV -RA BKN011/// 07/05
                        Q0999=
200812130050 METAR COR EGLL 130050Z 18018KT 9999 -RA BKN012 08/05 Q0999
                        TEMPO RA=
200812130020 METAR COR EGLL 130020Z 18018KT 150V230 9999 -RA BKN013 08/05
                        Q1000 TEMPO RA=
200812122350 METAR COR EGLL 122350Z 18016KT 9999 BKN013 08/05 Q1001 TEMPO
                        RA=
200812122320 METAR COR EGLL 122320Z 18018G29KT 9999 BKN012 BKN017 08/05
                        Q1001 TEMPO BKN015=
200812122250 METAR COR EGLL 122250Z 18017KT 150V220 9999 BKN012 BKN017
                        08/06 Q1002 NOSIG=
200812122220 METAR COR EGLL 122220Z 19018KT 9999 BKN012 08/06 Q1003 NOSIG=
200812122150 METAR COR EGLL 122150Z 18017G31KT 160V220 9999 BKN012 09/06
                        Q1003 NOSIG=
200812122120 METAR COR EGLL 122120Z 19016KT 9999 BKN013 08/06 Q1004 NOSIG=
200812122050 METAR COR EGLL 122050Z 18014KT 160V230 9999 BKN012 08/06
                        Q1005 NOSIG=
200812122020 METAR COR EGLL 122020Z 18015KT 160V220 9999 BKN014 08/06
                        Q1005 TEMPO BKN016=
200812121950 METAR COR EGLL 121950Z 18014G25KT 150V230 9999 BKN014 BKN016
                        08/05 Q1006 TEMPO BKN016=
200812121920 METAR COR EGLL 121920Z 18013KT 9999 BKN011 08/06 Q1006 TEMPO
                        BKN015=
200812121850 METAR COR EGLL 121850Z 18015KT 150V220 9999 BKN010 BKN012
                        08/06 Q1007 BECMG BKN015=
200812121820 METAR COR EGLL 121820Z 17012KT 150V230 9999 BKN010 08/06
                        Q1007 TEMPO BKN008=
200812121750 METAR COR EGLL 121750Z 18014KT 150V220 9000 BKN009 08/06
                        Q1008 TEMPO BKN014=
200812121720 METAR COR EGLL 121720Z 18012KT 150V230 7000 BKN006 07/06
                        Q1008 NOSIG=
200812121650 METAR COR EGLL 121650Z 17011KT 150V230 6000 OVC006 07/06
                        Q1008 NOSIG=
200812121620 METAR EGLL 121620Z 18012KT 160V220 7000 -DZ BKN007 07/06
                        Q1009=
200812121550 METAR COR EGLL 121550Z 18011KT 150V220 6000 BKN008 07/05
                        Q1009 NOSIG=
200812121520 METAR COR EGLL 121520Z 17010KT 140V220 7000 BKN008 07/05
                        Q1010 NOSIG=
200812121450 METAR COR EGLL 121450Z 17011KT 9000 BKN010 07/04 Q1010 TEMPO
                        BKN008=
200812121420 METAR COR EGLL 121420Z 17011KT 9000 BKN012 07/04 Q1010 NOSIG=
200812121350 METAR COR EGLL 121350Z 17013KT 9999 BKN015 BKN039 07/04 Q1011
                        BECMG BKN014=
200812121320 METAR COR EGLL 121320Z 18012KT 9999 SCT018 BKN044 07/04 Q1011
                        TEMPO BKN014=
200812121250 METAR COR EGLL 121250Z 19010KT 9000 BKN045 07/04 Q1012 TEMPO
                        BKN014=
200812121220 METAR COR EGLL 121220Z 18008KT 060V230 9000 BKN043 06/04
                        Q1012 NOSIG=
200812121150 METAR COR EGLL 121150Z 17006KT 120V230 8000 BKN044 04/02
                        Q1013 NOSIG=
200812121120 METAR COR EGLL 121120Z 17005KT 100V230 8000 SCT041 03/02
                        Q1013 NOSIG=
200812121050 METAR EGLL 121050Z 13004KT 050V170 9000 BKN029 03/01 Q1013=
200812121020 METAR COR EGLL 121020Z 15005KT 100V180 9000 FEW042 02/00
                        Q1014 NOSIG=
200812120950 METAR COR EGLL 120950Z 15004KT 100V220 9000 -RA FEW043 01/M00
                        Q1014 NOSIG=
200812120920 METAR COR EGLL 120920Z VRB03KT 9000 FEW040 00/M01 Q1014 NOSIG=
200812120850 METAR COR EGLL 120850Z VRB03KT 9000 FEW040 M00/M01 Q1014
                        NOSIG=
200812120820 METAR COR EGLL 120820Z VRB03KT 9000 NSC M01/M02 Q1014 NOSIG=
200812120750 METAR COR EGLL 120750Z 19004KT 160V260 CAVOK M01/M02 Q1014
                        NOSIG=
200812120720 METAR COR EGLL 120720Z 21004KT 180V270 8000 NSC M01/M02 Q1014
                        NOSIG=
200812120650 METAR COR EGLL 120650Z VRB03KT 6000 NSC M01/M02 Q1014 TEMPO
                        4000 BR=
200812120620 METAR COR EGLL 120620Z VRB03KT 5000 BR FEW004 M02/M03 Q1014
                        TEMPO 3000=
200812120550 METAR COR EGLL 120550Z 18002KT 5000 BR FEW005 M02/M03 Q1014
                        TEMPO 3000=
200812120520 METAR COR EGLL 120520Z 00000KT 4500 BR NSC M02/M02 Q1014
                        NOSIG=
200812120450 METAR COR EGLL 120450Z 00000KT 4400 BR NSC M02/M03 Q1014
                        TEMPO 1400=
200812120420 METAR COR EGLL 120420Z 18002KT 4500 R27L/1300 BR NSC M03/M04
                        Q1014 TEMPO 1200=
200812120350 METAR COR EGLL 120350Z 18002KT 4500 R27L/1500 BR NSC M02/M03
                        Q1014 TEMPO 1200=
200812120320 METAR COR EGLL 120320Z 13002KT 4900 BR NSC M02/M03 Q1014
                        TEMPO 1200=
200812120250 METAR COR EGLL 120250Z 00000KT 5000 BR NSC M02/M02 Q1014
                        BECMG 3000=
200812120220 METAR EGLL 120220Z AUTO 18003KT 5000NDV NCD M01/M02 Q1014=
200812120150 METAR EGLL 120150Z AUTO VRB02KT 4900NDV HZ NCD M01/M02 Q1014=
200812120120 METAR EGLL 120120Z AUTO 27002KT 4500NDV BR NCD M01/M02 Q1014=
200812120050 METAR COR EGLL 120050Z 27003KT 6000 NSC M01/M02 Q1014 BECMG
                        3000 BR=
200812120020 METAR COR EGLL 120020Z 27004KT 6000 NSC 00/M01 Q1014 BECMG
                        3000 BR=
200812112350 METAR COR EGLL 112350Z 24002KT 6000 NSC 00/M01 Q1014 BECMG
                        3000 BR=
200812112320 METAR COR EGLL 112320Z 25004KT 7000 FEW045 01/M00 Q1014 BECMG
                        4000 BR=
200812112250 METAR COR EGLL 112250Z 27004KT 230V300 8000 SCT045 01/00
                        Q1014 BECMG 4000 BR=
200812112220 METAR COR EGLL 112220Z 29003KT 8000 SCT046 02/00 Q1013 NOSIG=
200812112150 METAR COR EGLL 112150Z VRB02KT 8000 BKN047 01/M00 Q1013 NOSIG=
200812112120 METAR COR EGLL 112120Z 28004KT 9000 BKN048 02/00 Q1013 NOSIG=
200812112050 METAR COR EGLL 112050Z 29004KT 8000 BKN047 02/00 Q1013 NOSIG=
200812112020 METAR COR EGLL 112020Z 27005KT 240V310 9000 BKN046 02/M00
                        Q1013 NOSIG=
200812111950 METAR COR EGLL 111950Z 29003KT 9000 FEW012 02/00 Q1013 NOSIG=
200812111920 METAR EGLL 111920Z 28006KT 9000 BKN046 02/00 Q1013=
200812111850 METAR COR EGLL 111850Z 28006KT 9000 BKN047 03/01 Q1013 NOSIG=
200812111820 METAR COR EGLL 111820Z 29003KT 9999 BKN048 04/01 Q1012 NOSIG=
200812111750 METAR COR EGLL 111750Z 29002KT 9000 FEW012 BKN048 04/01 Q1012
                        NOSIG=
200812111720 METAR EGLL 111720Z 35002KT 9000 FEW013 BKN048 04/01 Q1012=
200812111650 METAR COR EGLL 111650Z 36003KT 9999 BKN045 04/01 Q1012 NOSIG=
200812111620 METAR COR EGLL 111620Z VRB03KT 9999 FEW012 BKN046 04/01 Q1012
                        NOSIG=
200812111550 METAR COR EGLL 111550Z 29005KT 9999 FEW013 BKN047 04/01 Q1012
                        NOSIG=
200812111520 METAR COR EGLL 111520Z 28006KT 9999 FEW013 SCT047 03/01 Q1011
                        NOSIG=
200812111450 METAR COR EGLL 111450Z 27005KT 9999 SCT015 SCT048 04/01 Q1011
                        NOSIG=
200812111420 METAR COR EGLL 111420Z 27008KT 9999 SCT014 SCT046 04/01 Q1011
                        NOSIG=
200812111350 METAR COR EGLL 111350Z 26004KT 220V280 9999 FEW013 SCT048
                        05/02 Q1011 NOSIG=
200812111320 METAR COR EGLL 111320Z VRB02KT 9000 BKN048 04/01 Q1011 NOSIG=
200812111250 METAR COR EGLL 111250Z VRB02KT 9000 BKN048 05/01 Q1011 NOSIG=
200812111220 METAR COR EGLL 111220Z VRB03KT 9000 SCT025 BKN048 04/01 Q1011
                        NOSIG=
200812111150 METAR COR EGLL 111150Z 28004KT 260V320 9000 SCT011 BKN040
                        04/01 Q1012 NOSIG=
200812111120 METAR COR EGLL 111120Z 26004KT 210V280 9999 SCT011 BKN040
                        03/01 Q1012 NOSIG=
200812111050 METAR COR EGLL 111050Z 25004KT 9000 SCT031 BKN048 03/01 Q1011
                        NOSIG=
200812111020 METAR COR EGLL 111020Z 28004KT 8000 FEW033 BKN046 03/01 Q1011
                        NOSIG=
200812110950 METAR COR EGLL 110950Z 28006KT 7000 BKN046 03/01 Q1011 NOSIG=
200812110920 METAR COR EGLL 110920Z 29006KT 5000 HZ BKN044 02/01 Q1011
                        NOSIG=
200812110850 METAR COR EGLL 110850Z 29005KT 6000 BKN044 01/M00 Q1011 NOSIG=
200812110820 METAR COR EGLL 110820Z 26006KT 9000 SCT043 01/M00 Q1011 NOSIG=
200812110750 METAR COR EGLL 110750Z 28004KT 9000 FEW028 00/M01 Q1011 NOSIG=
200812110720 METAR COR EGLL 110720Z 30004KT 9000 FEW027 00/M01 Q1010 NOSIG=
200812110650 METAR COR EGLL 110650Z 28006KT 9000 FEW030 00/M01 Q1010 NOSIG=
200812110620 METAR COR EGLL 110620Z 28005KT 9000 FEW045 01/M00 Q1010 NOSIG=
200812110550 METAR COR EGLL 110550Z 27005KT 8000 BKN047 01/M00 Q1010 NOSIG=
200812110520 METAR COR EGLL 110520Z 26004KT 8000 BKN040 02/00 Q1011 NOSIG=
200812110450 METAR COR EGLL 110450Z 28003KT 9000 BKN038 02/00 Q1011 NOSIG=
200812110420 METAR COR EGLL 110420Z 27006KT 9000 BKN040 01/00 Q1011 NOSIG=
200812110350 METAR COR EGLL 110350Z 26005KT 9999 BKN046 01/00 Q1011 NOSIG=
200812110320 METAR EGLL 110320Z NIL=
200812110250 METAR COR EGLL 110250Z 29006KT 9999 -DZ BKN021 BKN031 02/00
                        Q1011 NOSIG=
200812110220 METAR EGLL 110220Z AUTO 28006KT 9999NDV SCT019/// SCT025///
                        BKN044/// 02/00 Q1012=
200812110150 METAR EGLL 110150Z AUTO 28006KT 9999NDV -DZ FEW021/// SCT031///
                        02/00 Q1012=
200812110120 METAR EGLL 110120Z AUTO 27006KT 9999NDV BKN024/// 02/00 Q1012=
200812110050 METAR COR EGLL 110050Z 28006KT 9999 BKN025 02/M00 Q1012 NOSIG=
200812110020 METAR COR EGLL 110020Z 30006KT 9999 BKN030 02/M00 Q1012 NOSIG=
200812102350 METAR COR EGLL 102350Z 30006KT 9999 BKN030 02/M00 Q1012 NOSIG=
200812102320 METAR COR EGLL 102320Z 29008KT 9999 SCT029 01/M01 Q1013 NOSIG=
200812102250 METAR COR EGLL 102250Z 28007KT 9999 FEW038 01/M01 Q1013 NOSIG=
200812102220 METAR COR EGLL 102220Z 27009KT 9999 BKN037 01/M01 Q1013 NOSIG=
200812102150 METAR COR EGLL 102150Z 27008KT 9999 BKN036 01/M01 Q1013 NOSIG=
200812102120 METAR COR EGLL 102120Z 27007KT 9999 FEW036 SCT049 01/M01
                        Q1014 NOSIG=
200812102050 METAR COR EGLL 102050Z 28007KT 9999 SCT047 01/M01 Q1014 NOSIG=
200812102020 METAR COR EGLL 102020Z 27008KT 9999 FEW042 01/M01 Q1014 NOSIG=
200812101950 METAR COR EGLL 101950Z 27009KT 9999 SCT039 01/M01 Q1014 NOSIG=
200812101920 METAR COR EGLL 101920Z 28008KT 9999 SCT040 02/M01 Q1014 NOSIG=
200812101850 METAR COR EGLL 101850Z 28007KT 9999 FEW037 02/M01 Q1015 NOSIG=
200812101820 METAR COR EGLL 101820Z 28006KT CAVOK 01/M01 Q1015 NOSIG=
200812101750 METAR COR EGLL 101750Z 28009KT CAVOK 01/M01 Q1015 NOSIG=
200812101720 METAR COR EGLL 101720Z 28007KT CAVOK 02/M01 Q1015 NOSIG=
200812101650 METAR COR EGLL 101650Z 28005KT CAVOK 03/M01 Q1015 NOSIG=
200812101620 METAR COR EGLL 101620Z 29006KT CAVOK 04/M01 Q1015 NOSIG=
200812101550 METAR COR EGLL 101550Z 30005KT CAVOK 04/M01 Q1015 NOSIG=
200812101520 METAR COR EGLL 101520Z 27006KT 9999 FEW016 04/M00 Q1016 NOSIG=
200812101450 METAR COR EGLL 101450Z 27007KT 9999 SCT045 04/M00 Q1016 NOSIG=
200812101420 METAR COR EGLL 101420Z 29007KT 9999 SCT045 05/M00 Q1016 NOSIG=
200812101350 METAR COR EGLL 101350Z 29007KT 9999 SCT045 05/M00 Q1016 NOSIG=
200812101320 METAR COR EGLL 101320Z 30007KT 9999 BKN046 05/M00 Q1017 NOSIG=
200812101250 METAR COR EGLL 101250Z 29007KT 9999 BKN048 04/M00 Q1017 NOSIG=
200812101220 METAR COR EGLL 101220Z 28007KT 9999 BKN047 04/M00 Q1017 NOSIG=
200812101150 METAR COR EGLL 101150Z 29006KT 9999 BKN046 04/M00 Q1018 NOSIG=
200812101120 METAR COR EGLL 101120Z 29006KT 9999 BKN047 03/M00 Q1018 NOSIG=
200812101050 METAR COR EGLL 101050Z 30006KT 280V340 9999 BKN048 03/M00
                        Q1019 NOSIG=
200812101020 METAR COR EGLL 101020Z 30006KT 270V350 9999 BKN044 03/M01
                        Q1019 NOSIG=
200812100950 METAR COR EGLL 100950Z 29006KT 9999 SCT043 02/M01 Q1019 NOSIG=
200812100920 METAR COR EGLL 100920Z 28008KT 9000 SCT044 02/M01 Q1019 NOSIG=
200812100850 METAR COR EGLL 100850Z 28007KT 9000 NSC 01/M01 Q1020 NOSIG=
200812100820 METAR COR EGLL 100820Z 29007KT CAVOK 01/M01 Q1020 NOSIG=
200812100750 METAR COR EGLL 100750Z 29006KT 9999 SCT048 01/M01 Q1020 NOSIG=
200812100720 METAR COR EGLL 100720Z 28008KT 9999 BKN048 01/M01 Q1020 NOSIG=
200812100650 METAR COR EGLL 100650Z 29007KT CAVOK 01/M02 Q1020 NOSIG=
200812100620 METAR COR EGLL 100620Z 29007KT CAVOK 01/M02 Q1020 NOSIG=
200812100550 METAR COR EGLL 100550Z 30006KT CAVOK 01/M02 Q1020 NOSIG=
200812100520 METAR COR EGLL 100520Z 30006KT CAVOK 01/M02 Q1020 NOSIG=
200812100450 METAR COR EGLL 100450Z 29006KT CAVOK 01/M02 Q1020 NOSIG=
200812100420 METAR COR EGLL 100420Z 29005KT CAVOK 01/M02 Q1020 NOSIG=
200812100350 METAR COR EGLL 100350Z 29006KT CAVOK M00/M02 Q1021 NOSIG=
200812100320 METAR COR EGLL 100320Z 28004KT CAVOK M01/M03 Q1021 NOSIG=
200812100250 METAR COR EGLL 100250Z 29003KT CAVOK 00/M02 Q1021 NOSIG=
200812100220 METAR EGLL 100220Z AUTO 31005KT 280V340 9999NDV NCD 01/M02
                        Q1021=
200812100150 METAR EGLL 100150Z AUTO 30004KT 270V330 9999NDV NCD 01/M02
                        Q1021=
200812100120 METAR EGLL 100120Z AUTO 32004KT 270V360 9999NDV NCD 01/M02
                        Q1021=
200812100050 METAR COR EGLL 100050Z 32005KT 300V360 CAVOK 01/M02 Q1021
                        NOSIG=
200812100020 METAR EGLL 100020Z NIL=
200812092350 METAR COR EGLL 092350Z VRB03KT CAVOK 01/M02 Q1022 NOSIG=
200812092320 METAR COR EGLL 092320Z 32004KT 280V360 CAVOK 01/M01 Q1022
                        NOSIG=
200812092250 METAR COR EGLL 092250Z VRB03KT CAVOK 02/M01 Q1021 NOSIG=
200812092220 METAR COR EGLL 092220Z 31003KT CAVOK 02/M01 Q1021 NOSIG=
200812092150 METAR COR EGLL 092150Z 32004KT 270V010 CAVOK 02/M00 Q1021
                        NOSIG=
200812092120 METAR COR EGLL 092120Z 32005KT 290V360 CAVOK 03/M00 Q1021
                        NOSIG=
200812092050 METAR COR EGLL 092050Z 32006KT 290V360 CAVOK 03/M00 Q1021
                        NOSIG=
200812092020 METAR COR EGLL 092020Z 32005KT 290V360 CAVOK 03/00 Q1021
                        NOSIG=
200812091950 METAR COR EGLL 091950Z 32005KT 9999 FEW027 03/00 Q1021 NOSIG=
200812091920 METAR COR EGLL 091920Z 33004KT 290V010 9999 SCT023 04/01
                        Q1021 NOSIG=
200812091850 METAR COR EGLL 091850Z 32005KT 290V360 9999 SCT026 04/01
                        Q1020 NOSIG=
200812091820 METAR COR EGLL 091820Z 32004KT 280V360 CAVOK 04/01 Q1020
                        NOSIG=
200812091750 METAR COR EGLL 091750Z 34004KT 300V010 9999 SCT025 04/01
                        Q1020 NOSIG=
200812091720 METAR COR EGLL 091720Z 32004KT 280V350 9999 SCT022 BKN027
                        04/01 Q1019 NOSIG=
200812091650 METAR COR EGLL 091650Z 32005KT 9999 FEW030 04/01 Q1019 NOSIG=
200812091620 METAR COR EGLL 091620Z 32006KT 9999 FEW025 05/01 Q1019 NOSIG=
200812091550 METAR COR EGLL 091550Z 32007KT 290V350 9999 FEW023 SCT040
                        05/01 Q1018 NOSIG=
200812091520 METAR COR EGLL 091520Z 32006KT 9999 SCT022 SCT042 05/02 Q1018
                        NOSIG=
200812091450 METAR COR EGLL 091450Z 32007KT 9999 FEW018 SCT021 BKN042
                        06/02 Q1018 NOSIG=
200812091420 METAR COR EGLL 091420Z 32008KT 9999 FEW016 BKN024 06/02 Q1018
                        NOSIG=
200812091350 METAR COR EGLL 091350Z 32009KT 9999 SCT018 BKN027 06/02 Q1018
                        NOSIG=
200812091320 METAR COR EGLL 091320Z 31009KT 280V340 9999 SCT020 BKN027
                        06/02 Q1018 NOSIG=
200812091250 METAR COR EGLL 091250Z 31007KT 9999 BKN018 BKN023 06/02 Q1018
                        NOSIG=
200812091220 METAR COR EGLL 091220Z 31008KT 9999 FEW015 SCT018 BKN024
                        06/02 Q1019 NOSIG=
200812091150 METAR COR EGLL 091150Z 31008KT 9999 FEW017 BKN024 06/03 Q1019
                        NOSIG=
200812091120 METAR COR EGLL 091120Z 31005KT 270V340 9999 FEW017 SCT026
                        05/02 Q1019 NOSIG=
200812091050 METAR COR EGLL 091050Z 30009KT 280V340 9999 FEW013 SCT017
                        05/03 Q1020 NOSIG=
200812091020 METAR COR EGLL 091020Z 30007KT 9999 FEW010 SCT015 05/02 Q1020
                        NOSIG=
200812090950 METAR COR EGLL 090950Z 31007KT 8000 FEW012 04/02 Q1020 NOSIG=
200812090920 METAR COR EGLL 090920Z 30007KT 7000 FEW012 04/02 Q1020 NOSIG=
200812090850 METAR COR EGLL 090850Z 30007KT 9999 6000S NSC 03/01 Q1019
                        NOSIG=
200812090820 METAR COR EGLL 090820Z 29006KT 6000 FEW008 03/01 Q1019 NOSIG=
200812090750 METAR COR EGLL 090750Z 30005KT 6000 NSC 03/01 Q1019 NOSIG=
200812090720 METAR COR EGLL 090720Z 30004KT 280V350 6000 FEW008 03/01
                        Q1019 NOSIG=
200812090650 METAR COR EGLL 090650Z 32004KT 290V350 8000 FEW009 02/01
                        Q1019 NOSIG=
200812090620 METAR COR EGLL 090620Z 30005KT 7000 FEW010 02/01 Q1019 NOSIG=
200812090550 METAR COR EGLL 090550Z 31006KT CAVOK 02/01 Q1019 NOSIG=
200812090520 METAR COR EGLL 090520Z 30004KT CAVOK 03/01 Q1019 NOSIG=
200812090450 METAR COR EGLL 090450Z 30005KT 9999 FEW010 03/01 Q1018 NOSIG=
200812090420 METAR COR EGLL 090420Z 30005KT 9999 SCT010 03/01 Q1018 NOSIG=
200812090350 METAR COR EGLL 090350Z VRB03KT 9999 SCT010 BKN012 03/02 Q1018
                        BECMG BKN015=
200812090320 METAR COR EGLL 090320Z 34004KT 300V030 9999 BKN008 BKN012
                        03/02 Q1018 BECMG BKN015=
200812090250 METAR COR EGLL 090250Z 36006KT 320V080 9999 BKN008 BKN010
                        03/02 Q1018 BECMG SCT015=
200812090220 METAR EGLL 090220Z AUTO 34006KT 310V010 9999NDV -RA BKN009///
                        BKN021/// 04/02 Q1018=
200812090150 METAR EGLL 090150Z AUTO 34006KT 9999NDV -RA BKN007/// 04/02
                        Q1018=
200812090120 METAR EGLL 090120Z AUTO 34005KT 300V010 9999NDV -RA BKN007///
                        05/03 Q1018=
200812090050 METAR COR EGLL 090050Z 34005KT 300V020 7000 -RA SCT007 BKN032
                        05/04 Q1017 NOSIG=
200812090020 METAR COR EGLL 090020Z 31003KT 4300 -RA BKN012 BKN029 OVC039
                        05/04 Q1017 NOSIG=
200812082350 METAR COR EGLL 082350Z 31004KT 4800 -DZ FEW004 SCT007 OVC012
                        05/04 Q1017 TEMPO BKN007=
200812082320 METAR COR EGLL 082320Z 30004KT 4800 -RA BKN008 OVC012 05/04
                        Q1017 RERA NOSIG=
200812082250 METAR COR EGLL 082250Z 27004KT 6000 -RA BKN009 05/04 Q1017
                        NOSIG=
200812082220 METAR COR EGLL 082220Z 26007KT 240V300 7000 OVC011 06/04
                        Q1017 TEMPO BKN009=
200812082150 METAR COR EGLL 082150Z 25007KT 8000 -DZ SCT013 OVC017 06/04
                        Q1017 TEMPO BKN012=
200812082120 METAR COR EGLL 082120Z 23007KT 9999 FEW014 BKN019 06/03 Q1017
                        NOSIG=
200812082050 METAR COR EGLL 082050Z 20006KT 150V260 9999 SCT019 BKN024
                        05/03 Q1017 NOSIG=
200812082020 METAR COR EGLL 082020Z 18005KT 140V250 9999 BKN034 05/03
                        Q1017 NOSIG=
200812081950 METAR COR EGLL 081950Z 18006KT 150V230 9999 BKN037 05/03
                        Q1017 NOSIG=
200812081920 METAR COR EGLL 081920Z 18006KT 150V230 9999 BKN039 05/03
                        Q1017 NOSIG=
200812081850 METAR COR EGLL 081850Z 19007KT 140V240 9999 BKN042 05/03
                        Q1017 NOSIG=
200812081820 METAR COR EGLL 081820Z 20006KT 160V240 9999 BKN040 05/03
                        Q1018 NOSIG=
200812081750 METAR COR EGLL 081750Z 19005KT 150V230 9999 SCT046 05/03
                        Q1018 NOSIG=
200812081720 METAR COR EGLL 081720Z 19007KT 140V230 9999 FEW021 05/04
                        Q1018 NOSIG=
200812081650 METAR COR EGLL 081650Z 19007KT 140V240 9999 FEW021 06/04
                        Q1018 NOSIG=
200812081620 METAR COR EGLL 081620Z 18007KT 140V240 9000 FEW021 06/04
                        Q1018 NOSIG=
200812081550 METAR COR EGLL 081550Z 21006KT 150V260 9000 NSC 06/04 Q1019
                        NOSIG=
200812081520 METAR COR EGLL 081520Z 21006KT CAVOK 07/05 Q1019 NOSIG=
200812081450 METAR COR EGLL 081450Z 21007KT 9999 FEW020 07/05 Q1019 NOSIG=
200812081420 METAR COR EGLL 081420Z 21007KT 140V230 9999 FEW030 07/04
                        Q1019 NOSIG=
200812081350 METAR COR EGLL 081350Z 21007KT 180V250 9999 FEW025 07/05
                        Q1020 NOSIG=
200812081320 METAR COR EGLL 081320Z 20008KT 9999 FEW008 08/05 Q1020 NOSIG=
200812081250 METAR COR EGLL 081250Z 20008KT 170V240 9000 FEW030 07/05
                        Q1021 NOSIG=
200812081220 METAR COR EGLL 081220Z 20007KT 170V240 9000 FEW030 06/04
                        Q1021 NOSIG=
200812081150 METAR COR EGLL 081150Z 20008KT 150V230 9000 FEW030 06/04
                        Q1022 NOSIG=
200812081120 METAR COR EGLL 081120Z 20009G19KT 8000 FEW029 06/04 Q1022
                        NOSIG=
200812081050 METAR COR EGLL 081050Z 20009KT 8000 SCT030 05/04 Q1023 NOSIG=
200812081020 METAR COR EGLL 081020Z 20008KT 190V260 7000 BKN030 05/03
                        Q1023 NOSIG=
200812080950 METAR COR EGLL 080950Z 21007KT 7000 BKN030 04/03 Q1024 NOSIG=
200812080920 METAR COR EGLL 080920Z 19007KT 140V220 6000 BKN028 03/02
                        Q1024 NOSIG=
200812080850 METAR COR EGLL 080850Z 19006KT 150V240 5000 BR FEW008 BKN030
                        02/02 Q1024 NOSIG=
200812080820 METAR COR EGLL 080820Z 20005KT 170V230 5000 BR BKN008 BKN025
                        02/01 Q1024 BECMG SCT010=
200812080750 METAR COR EGLL 080750Z 23006KT 180V260 5000 BR SCT008 01/01
                        Q1025 NOSIG=
200812080720 METAR COR EGLL 080720Z VRB04KT 6000 FEW024 01/00 Q1025 TEMPO
                        4000 BR=
200812080650 METAR COR EGLL 080650Z 19006KT 160V240 6000 NSC 01/00 Q1025
                        TEMPO 4000 BR=
200812080620 METAR COR EGLL 080620Z 20005KT 170V280 7000 NSC 00/M00 Q1025
                        TEMPO 4000 BR=
200812080550 METAR COR EGLL 080550Z 17004KT 100V220 9000 BCFG FEW024 00/M00
                        Q1025 NOSIG=
200812080520 METAR COR EGLL 080520Z VRB03KT 8000 BCFG FEW026 01/M00 Q1025
                        TEMPO 4000 BR=
200812080450 METAR COR EGLL 080450Z VRB03KT 8000 BCFG SCT025 00/M00 Q1025
                        TEMPO 4000 BR=
200812080420 METAR COR EGLL 080420Z 17003KT 6000 2500W BCFG BKN024 00/M00
                        Q1026 TEMPO 4000 BR=
200812080350 METAR COR EGLL 080350Z 00000KT 6000 1200W BCFG BKN023 00/M00
                        Q1026 TEMPO 4000 BR=
200812080320 METAR COR EGLL 080320Z 00000KT 8000 BKN023 00/M01 Q1026 TEMPO
                        3000 BR NSC=
200812080250 METAR COR EGLL 080250Z 00000KT 8000 BKN024 M00/M01 Q1027
                        TEMPO 3000 BR NSC=
200812080220 METAR EGLL 080220Z AUTO 00000KT 0500NDV FG FEW022/// M00/M01
                        Q1027=
200812080150 METAR EGLL 080150Z AUTO 02002KT 2200NDV HZ NCD M00/M01 Q1027=
200812080120 METAR EGLL 080120Z AUTO 00000KT 0400NDV FG NCD M00/M01 Q1027=
200812080050 METAR COR EGLL 080050Z 20002KT 4500 BR NSC M00/M01 Q1027
                        TEMPO 1200=
200812080020 METAR COR EGLL 080020Z 18003KT 3000 BR NSC M00/M01 Q1027
                        TEMPO 0800=
200812072350 METAR COR EGLL 072350Z 18003KT 4900 BR FEW018 00/M00 Q1028
                        TEMPO 1400 VCFG=
200812072320 METAR COR EGLL 072320Z 23002KT 6000 NSC 00/M00 Q1028 TEMPO
                        4500 BR=
200812072250 METAR COR EGLL 072250Z 22004KT 180V270 8000 NSC 01/00 Q1028
                        TEMPO 4500 BR=
200812072220 METAR COR EGLL 072220Z 21005KT 8000 NSC 02/01 Q1028 TEMPO
                        4500 BR=
200812072150 METAR COR EGLL 072150Z 22004KT 7000 NSC 02/00 Q1028 TEMPO
                        4500 BR=
200812072120 METAR COR EGLL 072120Z 23005KT 190V260 7000 NSC 02/01 Q1028
                        TEMPO 4500 BR=
200812072050 METAR COR EGLL 072050Z 21005KT 8000 NSC 02/01 Q1028 TEMPO
                        4500 BR=
200812072020 METAR COR EGLL 072020Z 22006KT 190V290 8000 NSC 02/01 Q1028
                        TEMPO 4500 BR=
200812071950 METAR COR EGLL 071950Z 21007KT 8000 NSC 02/01 Q1028 TEMPO
                        4500 BR=
200812071920 METAR COR EGLL 071920Z 21007KT 190V250 9000 NSC 02/01 Q1028
                        NOSIG=
200812071850 METAR COR EGLL 071850Z 21006KT 9000 NSC 03/01 Q1028 NOSIG=
200812071820 METAR COR EGLL 071820Z 21006KT 180V250 8000 NSC 03/01 Q1028
                        NOSIG=
200812071750 METAR COR EGLL 071750Z 22006KT 9000 NSC 04/01 Q1028 NOSIG=
200812071720 METAR COR EGLL 071720Z 22006KT 9000 NSC 04/02 Q1028 NOSIG=
200812071650 METAR COR EGLL 071650Z 21005KT CAVOK 05/02 Q1028 NOSIG=
200812071620 METAR COR EGLL 071620Z 18004KT 140V230 CAVOK 05/02 Q1028
                        NOSIG=
200812071550 METAR COR EGLL 071550Z VRB03KT CAVOK 05/02 Q1028 NOSIG=
200812071520 METAR COR EGLL 071520Z 21004KT 160V240 CAVOK 06/02 Q1028
                        NOSIG=
200812071450 METAR COR EGLL 071450Z 20005KT 150V260 CAVOK 07/02 Q1028
                        NOSIG=
200812071420 METAR COR EGLL 071420Z 20005KT 140V280 CAVOK 07/02 Q1028
                        NOSIG=
200812071350 METAR COR EGLL 071350Z 21004KT 180V260 CAVOK 07/02 Q1029
                        NOSIG=
200812071320 METAR COR EGLL 071320Z 24004KT 190V290 CAVOK 06/02 Q1029
                        NOSIG=
200812071250 METAR COR EGLL 071250Z VRB02KT CAVOK 06/02 Q1029 NOSIG=
200812071220 METAR COR EGLL 071220Z 23004KT 180V290 CAVOK 06/02 Q1029
                        NOSIG=
200812071150 METAR COR EGLL 071150Z 00000KT CAVOK 05/02 Q1029 NOSIG=
200812071120 METAR COR EGLL 071120Z VRB03KT CAVOK 04/01 Q1029 NOSIG=
200812071050 METAR COR EGLL 071050Z 30004KT CAVOK 03/01 Q1029 NOSIG=
200812071020 METAR COR EGLL 071020Z 30003KT 9999 7000SW NSC 02/01 Q1029
                        NOSIG=
200812070950 METAR COR EGLL 070950Z 30003KT 9999 7000SW NSC 01/M01 Q1029
                        NOSIG=
200812070920 METAR COR EGLL 070920Z 29002KT 9999 5000SW NSC M01/M01 Q1028
                        TEMPO 4000 BR=
200812070850 METAR COR EGLL 070850Z VRB02KT 9000 4000SE VCFG NSC M02/M03
                        Q1028 TEMPO 0800 FG=
200812070820 METAR COR EGLL 070820Z 29004KT 8000 NSC M01/M02 Q1028 TEMPO
                        3000 MIFG=
200812070750 METAR COR EGLL 070750Z 27004KT 8000 NSC M01/M02 Q1028 TEMPO
                        3000 MIFG=
200812070720 METAR COR EGLL 070720Z 30004KT 9000 NSC 00/M01 Q1027 TEMPO
                        3000 MIFG=
200812070650 METAR COR EGLL 070650Z 31003KT 9000 NSC 00/M01 Q1027 TEMPO
                        4000 MIFG=
200812070620 METAR COR EGLL 070620Z 31002KT 7000 NSC M01/M02 Q1027 TEMPO
                        3000 MIFG=
200812070550 METAR COR EGLL 070550Z VRB02KT 5000 BR NSC M01/M02 Q1026
                        BECMG 2000 MIFG=
200812070520 METAR COR EGLL 070520Z 00000KT 6000 NSC M02/M03 Q1026 TEMPO
                        3000 MIFG=
200812070450 METAR COR EGLL 070450Z VRB02KT 6000 NSC M02/M02 Q1026 BECMG
                        3000 MIFG=
200812070420 METAR COR EGLL 070420Z 00000KT 7000 NSC M01/M02 Q1026 TEMPO
                        3000 MIFG=
200812070350 METAR COR EGLL 070350Z 19002KT 7000 NSC M01/M02 Q1026 TEMPO
                        3000 MIFG=
200812070320 METAR COR EGLL 070320Z 00000KT 7000 NSC M01/M02 Q1025 TEMPO
                        3000 BR=
200812070250 METAR COR EGLL 070250Z 00000KT 8000 NSC M01/M02 Q1025 TEMPO
                        3000 BR=
200812070220 METAR EGLL 070220Z AUTO 26002KT 8000NDV NCD M00/M01 Q1025=
200812070150 METAR EGLL 070150Z AUTO 00000KT 9000NDV NCD 00/M01 Q1025=
200812070120 METAR COR EGLL 070120Z 31002KT 8000 NSC 00/M01 Q1024 TEMPO
                        4000 BR=
200812070050 METAR EGLL 070050Z NIL=
200812070020 METAR COR EGLL 070020Z 30003KT CAVOK 01/M01 Q1024 NOSIG=
200812062350 METAR COR EGLL 062350Z 32003KT CAVOK 01/M00 Q1023 NOSIG=
200812062320 METAR COR EGLL 062320Z VRB03KT CAVOK 02/M00 Q1023 NOSIG=
200812062250 METAR COR EGLL 062250Z 32003KT CAVOK 04/01 Q1023 NOSIG=
200812062220 METAR COR EGLL 062220Z 29003KT CAVOK 04/01 Q1022 NOSIG=
200812062150 METAR COR EGLL 062150Z 28003KT CAVOK 03/00 Q1022 NOSIG=
200812062120 METAR COR EGLL 062120Z 30003KT CAVOK 04/01 Q1022 NOSIG=
200812062050 METAR COR EGLL 062050Z 27004KT CAVOK 04/01 Q1021 NOSIG=
200812062020 METAR COR EGLL 062020Z 00000KT CAVOK 04/01 Q1021 NOSIG=
200812061950 METAR COR EGLL 061950Z 29004KT CAVOK 04/01 Q1021 NOSIG=
200812061920 METAR COR EGLL 061920Z 31005KT CAVOK 05/01 Q1020 NOSIG=
200812061850 METAR COR EGLL 061850Z 29005KT CAVOK 05/01 Q1020 NOSIG=
200812061820 METAR COR EGLL 061820Z 30004KT CAVOK 05/01 Q1020 NOSIG=
200812061750 METAR COR EGLL 061750Z 30004KT CAVOK 06/01 Q1019 NOSIG=
200812061720 METAR COR EGLL 061720Z 31004KT CAVOK 06/02 Q1019 NOSIG=
200812061650 METAR COR EGLL 061650Z 31005KT CAVOK 06/02 Q1018 NOSIG=
200812061620 METAR EGLL 061620Z VRB02KT CAVOK 06/02 Q1018=
200812061550 METAR COR EGLL 061550Z VRB03KT 9999 FEW025 07/02 Q1017 NOSIG=
200812061520 METAR COR EGLL 061520Z 34005KT 9999 FEW025 07/02 Q1016 NOSIG=
200812061450 METAR COR EGLL 061450Z 34005KT CAVOK 07/01 Q1016 NOSIG=
200812061420 METAR COR EGLL 061420Z 33005KT 300V360 CAVOK 07/02 Q1016
                        NOSIG=
200812061350 METAR COR EGLL 061350Z 33006KT 290V360 CAVOK 08/02 Q1016
                        NOSIG=
200812061320 METAR COR EGLL 061320Z 33006KT 300V010 CAVOK 08/02 Q1015
                        NOSIG=
200812061250 METAR COR EGLL 061250Z 33007KT 300V360 9999 FEW016 08/03
                        Q1015 NOSIG=
200812061220 METAR COR EGLL 061220Z 33004KT 290V020 9999 FEW016 07/03
                        Q1015 NOSIG=
200812061150 METAR COR EGLL 061150Z 34005KT 290V020 CAVOK 07/03 Q1014
                        NOSIG=
200812061120 METAR COR EGLL 061120Z 35007KT CAVOK 07/03 Q1014 NOSIG=
200812061050 METAR COR EGLL 061050Z 34006KT 290V040 9999 FEW044 06/03
                        Q1014 NOSIG=
200812061020 METAR COR EGLL 061020Z 32005KT 270V350 9999 FEW044 06/02
                        Q1013 NOSIG=
200812060950 METAR COR EGLL 060950Z 28006KT CAVOK 05/02 Q1013 NOSIG=
200812060920 METAR COR EGLL 060920Z 29006KT CAVOK 04/02 Q1012 NOSIG=
200812060850 METAR COR EGLL 060850Z 28007KT CAVOK 03/02 Q1011 NOSIG=
200812060820 METAR COR EGLL 060820Z 27006KT CAVOK 03/01 Q1011 NOSIG=
200812060750 METAR COR EGLL 060750Z 28004KT 9999 FEW012 03/01 Q1010 NOSIG=
200812060720 METAR COR EGLL 060720Z 28006KT 9999 FEW012 04/02 Q1010 NOSIG=
200812060650 METAR COR EGLL 060650Z 29005KT 260V320 9999 SCT013 05/02
                        Q1009 NOSIG=
200812060620 METAR EGLL 060620Z 31005KT 9999 SCT014 05/02 Q1008=
200812060550 METAR COR EGLL 060550Z 29005KT 9999 OVC014 05/03 Q1008 TEMPO
                        SCT015=
200812060520 METAR COR EGLL 060520Z 30005KT 9999 BKN015 05/03 Q1007 TEMPO
                        BKN014=
200812060450 METAR COR EGLL 060450Z VRB03KT 9999 BKN018 BKN037 05/02 Q1006
                        TEMPO BKN014=
200812060420 METAR COR EGLL 060420Z 34005KT 310V020 9999 FEW015 BKN038
                        05/02 Q1005 NOSIG=
200812060350 METAR COR EGLL 060350Z 32006KT 300V360 9999 SCT013 SCT037
                        05/02 Q1005 NOSIG=
200812060320 METAR COR EGLL 060320Z 31007KT 270V340 9999 FEW014 SCT042
                        05/02 Q1004 TEMPO BKN012=
200812060250 METAR EGLL 060250Z 31007KT 9999 BKN014 BKN030 05/03 Q1003=
200812060220 METAR EGLL 060220Z AUTO 33007KT 300V360 9999NDV BKN014///
                        05/03 Q1002=
200812060150 METAR EGLL 060150Z AUTO 33007KT 9999NDV BKN013/// 05/03 Q1002=
200812060120 METAR EGLL 060120Z AUTO 33007KT 310V010 9999NDV BKN011///
                        05/03 Q1001=
200812060050 METAR COR EGLL 060050Z 32011KT 9999 BKN011 05/03 Q1000 NOSIG=
200812060020 METAR COR EGLL 060020Z 32011KT 290V350 9999 BKN013 06/03
                        Q0999 TEMPO BKN018=
200812052350 METAR COR EGLL 052350Z 32011KT 9999 -RA BKN017 06/03 Q0998
                        BECMG BKN014=
200812052320 METAR COR EGLL 052320Z 30012KT 9999 -RA BKN021 07/03 Q0997
                        BEDCMG BKN014=
200812052250 METAR COR EGLL 052250Z 28013KT 9999 BKN022 07/03 Q0996 BECMG
                        BKN014=
200812052220 METAR COR EGLL 052220Z 28012KT 9999 FEW024 06/03 Q0996 NOSIG=
200812052150 METAR COR EGLL 052150Z 26010KT CAVOK 06/03 Q0995 NOSIG=
200812052120 METAR COR EGLL 052120Z 25009KT CAVOK 06/03 Q0995 NOSIG=
200812052050 METAR COR EGLL 052050Z 24009KT 9999 FEW036 06/03 Q0995 NOSIG=
200812052020 METAR COR EGLL 052020Z 25007KT 9999 FEW022 06/03 Q0995 NOSIG=
200812051950 METAR COR EGLL 051950Z 26009KT 9999 FEW034 06/03 Q0994 NOSIG=
200812051920 METAR COR EGLL 051920Z 27009KT 9999 FEW038 SCT044 06/03 Q0994
                        NOSIG=
200812051850 METAR COR EGLL 051850Z 27011KT 9999 FEW037 SCT041 07/03 Q0993
                        NOSIG=
200812051820 METAR COR EGLL 051820Z 27010KT 9999 FEW042 07/03 Q0993 NOSIG=
200812051750 METAR COR EGLL 051750Z 27014KT 9999 FEW049 06/03 Q0992 NOSIG=
200812051720 METAR COR EGLL 051720Z 27011KT CAVOK 07/03 Q0992 TEMPO SHRA=
200812051650 METAR COR EGLL 051650Z 27009KT 9999 SCT040 07/03 Q0991 NOSIG=
200812051620 METAR COR EGLL 051620Z 27008KT 9999 SCT047 07/03 Q0991 NOSIG=
200812051550 METAR COR EGLL 051550Z 27010KT 9999 FEW042 SCT049 07/03 Q0991
                        NOSIG=
200812051520 METAR COR EGLL 051520Z 27010KT 9999 BKN031 BKN043 08/03 Q0990
                        NOSIG=
200812051450 METAR COR EGLL 051450Z 27012KT 9999 SCT032 BKN040 08/03 Q0990
                        NOSIG=
200812051420 METAR COR EGLL 051420Z 27012KT 9999 -SHRA FEW018 SCT025 BKN038
                        08/03 Q0989 TEMPO SHRA=
200812051350 METAR COR EGLL 051350Z 27011KT 9999 FEW022 BKN025 08/04 Q0989
                        NOSIG=
200812051320 METAR COR EGLL 051320Z 30007KT 9999 FEW024 07/03 Q0989 NOSIG=
200812051250 METAR COR EGLL 051250Z 30010KT 9999 FEW023 08/03 Q0988 NOSIG=
200812051220 METAR COR EGLL 051220Z 30008KT 9999 FEW015 07/03 Q0987 NOSIG=
200812051150 METAR COR EGLL 051150Z 29006KT 9999 FEW015 06/04 Q0987 NOSIG=
200812051120 METAR COR EGLL 051120Z 28004KT 9999 FEW037 06/03 Q0986 NOSIG=
200812051050 METAR COR EGLL 051050Z 30005KT 9999 FEW037 SCT042 05/03 Q0986
                        NOSIG=
200812051020 METAR COR EGLL 051020Z 29007KT 9999 FEW034 BKN041 05/03 Q0985
                        NOSIG=
200812050950 METAR COR EGLL 050950Z 32003KT 9999 BKN041 04/03 Q0985 NOSIG=
200812050920 METAR COR EGLL 050920Z VRB03KT 9999 FEW033 BKN041 04/02 Q0984
                        NOSIG=
200812050850 METAR COR EGLL 050850Z VRB02KT 9999 FEW044 03/02 Q0983 TEMPO
                        4000 BR=
200812050820 METAR COR EGLL 050820Z VRB02KT 9999 FEW040 02/01 Q0983 TEMPO
                        4000 BR=
200812050750 METAR COR EGLL 050750Z 25004KT 9999 FEW039 02/02 Q0982 NOSIG=
200812050720 METAR COR EGLL 050720Z 22005KT 190V250 9999 SCT049 02/01
                        Q0982 NOSIG=
200812050650 METAR COR EGLL 050650Z 18004KT 150V240 9999 FEW042 02/01
                        Q0981 NOSIG=
200812050620 METAR COR EGLL 050620Z 22005KT 180V280 CAVOK 03/01 Q0981
                        NOSIG=
200812050550 METAR COR EGLL 050550Z 20005KT 180V240 CAVOK 03/01 Q0981
                        NOSIG=
200812050520 METAR COR EGLL 050520Z 20004KT 150V230 CAVOK 02/01 Q0981
                        NOSIG=
200812050450 METAR EGLL 050450Z NIL=
200812050420 METAR COR EGLL 050420Z 20004KT CAVOK 03/02 Q0981 NOSIG=
200812050350 METAR EGLL 050350Z NIL=
200812050320 METAR COR EGLL 050320Z 22005KT CAVOK 04/02 Q0980 NOSIG=
200812050250 METAR COR EGLL 050250Z 24007KT CAVOK 04/02 Q0980 NOSIG=
200812050220 METAR EGLL 050220Z AUTO 23009KT 9999NDV NCD 05/02 Q0980=
200812050150 METAR EGLL 050150Z AUTO 23008KT 9999NDV NCD 05/03 Q0980=
200812050120 METAR EGLL 050120Z AUTO 22005KT 9999NDV NCD 05/03 Q0980=
200812050050 METAR COR EGLL 050050Z 21005KT CAVOK 05/03 Q0980 NOSIG=
200812050020 METAR EGLL 050020Z 21005KT CAVOK 05/03 Q0980=
200812042350 METAR COR EGLL 042350Z 22007KT CAVOK 05/03 Q0980 NOSIG=
200812042320 METAR COR EGLL 042320Z 23009KT CAVOK 05/03 Q0980 NOSIG=
200812042250 METAR COR EGLL 042250Z 23009KT CAVOK 05/03 Q0980 NOSIG=
200812042220 METAR COR EGLL 042220Z 22009KT 9999 FEW030 05/03 Q0980 NOSIG=
200812042150 METAR COR EGLL 042150Z 21008KT CAVOK 05/03 Q0980 NOSIG=
200812042120 METAR COR EGLL 042120Z 22010KT CAVOK 06/03 Q0980 NOSIG=
200812042050 METAR COR EGLL 042050Z 23010KT CAVOK 05/03 Q0980 NOSIG=
200812042020 METAR COR EGLL 042020Z 23009KT CAVOK 05/03 Q0980 NOSIG=
200812041950 METAR COR EGLL 041950Z 21008KT 9999 FEW030 06/03 Q0980 NOSIG=
200812041920 METAR COR EGLL 041920Z 21009KT 9999 SCT039 06/03 Q0980 NOSIG=
200812041850 METAR COR EGLL 041850Z 21010KT 9999 FEW044 06/03 Q0981 NOSIG=
200812041820 METAR COR EGLL 041820Z 23012KT 9999 FEW030 SCT042 07/03 Q0981
                        NOSIG=
200812041750 METAR COR EGLL 041750Z 24014KT 9999 FEW048 07/04 Q0981 NOSIG=
200812041720 METAR COR EGLL 041720Z 24010KT 9999 BKN032 08/04 Q0981 NOSIG=
200812041650 METAR COR EGLL 041650Z 23010KT 9999 SCT025 SCT035 08/04 Q0981
                        NOSIG=
200812041620 METAR COR EGLL 041620Z 24009KT 9999 FEW031 SCT036 08/03 Q0981
                        NOSIG=
200812041550 METAR COR EGLL 041550Z 24013KT 9999 FEW020 FEW025CB 08/03
                        Q0980 NOSIG=
200812041520 METAR COR EGLL 041520Z 24012KT 9999 FEW033 09/03 Q0980 NOSIG=
200812041450 METAR COR EGLL 041450Z 25014KT 9999 FEW037 09/03 Q0980 NOSIG=
200812041420 METAR COR EGLL 041420Z 25018KT 9999 FEW037 10/03 Q0980 NOSIG=
200812041350 METAR COR EGLL 041350Z 26014KT 9999 SCT035 09/03 Q0980 NOSIG=
200812041320 METAR COR EGLL 041320Z 26020KT 9999 SCT038 09/03 Q0980 NOSIG=
200812041250 METAR COR EGLL 041250Z 26020KT 9999 FEW036 09/04 Q0980 NOSIG=
200812041220 METAR COR EGLL 041220Z 27020KT 9999 FEW032 09/04 Q0980 NOSIG=
200812041150 METAR COR EGLL 041150Z 26022KT 9999 FEW026 09/04 Q0980 NOSIG=
200812041120 METAR COR EGLL 041120Z 26021G31KT 9999 FEW030 09/04 Q0980
                        TEMPO 25017KT=
200812041050 METAR COR EGLL 041050Z 26019G29KT 9999 FEW023 09/05 Q0980
                        NOSIG=
200812041020 METAR COR EGLL 041020Z 26018KT 9999 SCT018 08/05 Q0980 NOSIG=
200812040950 METAR COR EGLL 040950Z 26017KT 9999 FEW009 SCT019 08/06 Q0979
                        NOSIG=
200812040920 METAR COR EGLL 040920Z 23013KT 9999 FEW009 SCT015 BKN021
                        08/06 Q0979 NOSIG=
200812040850 METAR COR EGLL 040850Z 19014KT 9999 -RA FEW009 BKN012 BKN015
                        07/06 Q0979 RERA TEMPO 18018G28KT
                        RA BKN009=
200812040820 METAR COR EGLL 040820Z 17013KT 9999 -RA FEW009 BKN011 BKN014
                        07/05 Q0980 TEMPO 17018G28KT 4000
                        RA BKN009=
200812040750 METAR COR EGLL 040750Z 17013KT 150V220 9999 -RA BKN012 BKN014
                        06/04 Q0981 TEMPO 18017G28KT 4000
                        RA=
200812040720 METAR COR EGLL 040720Z 17015KT 140V210 9999 -RA SCT012 BKN016
                        06/04 Q0982 RERA TEMPO RA BKN012=
200812040650 METAR COR EGLL 040650Z 17016KT 9999 RA BKN013 BKN015 05/04
                        Q0984 TEMPO 4000=
200812040620 METAR COR EGLL 040620Z 17016KT 9999 RA BKN012 05/03 Q0985
                        TEMPO 4000=
200812040550 METAR COR EGLL 040550Z 17015KT 9999 -RA BKN014 05/03 Q0986
                        TEMPO RA=
200812040520 METAR COR EGLL 040520Z 17015KT 9999 -RA SCT017 SCT021 05/02
                        Q0988 TEMPO RA BKN014=
200812040450 METAR COR EGLL 040450Z 17013KT 9999 -RA SCT020 05/01 Q0989
                        TEMPO RA BKN014=
200812040420 METAR COR EGLL 040420Z 16012KT 9999 FEW023 SCT028 04/01 Q0991
                        TEMPO RA=
200812040350 METAR COR EGLL 040350Z 16010KT 9999 -RA SCT028 04/01 Q0992
                        TEMPO RA=
200812040320 METAR EGLL 040320Z 17009KT CAVOK 04/00 Q0993=
200812040250 METAR COR EGLL 040250Z 16010KT 9999 SCT044 03/01 Q0995 NOSIG=
200812040220 METAR EGLL 040220Z AUTO 15009KT 7000NDV NCD 02/00 Q0996=
200812040150 METAR EGLL 040150Z AUTO 13007KT 7000NDV NCD 02/00 Q0997=
200812040120 METAR EGLL 040120Z AUTO 12005KT 6000NDV FEW027/// SCT038///
                        01/M00 Q0998=
200812040050 METAR COR EGLL 040050Z 11003KT 7000 NSC 00/M01 Q0999 NOSIG=
200812040020 METAR COR EGLL 040020Z 15002KT 7000 NSC 01/M00 Q1000 NOSIG=
200812032350 METAR COR EGLL 032350Z VRB03KT 6000 NSC 01/M01 Q1001 TEMPO
                        4000 BR=
200812032320 METAR COR EGLL 032320Z 17004KT 6000 NSC 01/M00 Q1001 TEMPO
                        4000 BR=
200812032250 METAR COR EGLL 032250Z 20005KT 7000 NSC 01/M00 Q1002 NOSIG=
200812032220 METAR COR EGLL 032220Z 18004KT 150V230 7000 NSC 00/M01 Q1002
                        NOSIG=
200812032150 METAR COR EGLL 032150Z 18005KT 160V230 8000 NSC 00/M01 Q1002
                        NOSIG=
200812032120 METAR COR EGLL 032120Z 21006KT 190V280 8000 NSC 00/M01 Q1003
                        NOSIG=
200812032050 METAR COR EGLL 032050Z 21005KT 8000 NSC 01/M01 Q1003 NOSIG=
200812032020 METAR COR EGLL 032020Z 20006KT 7000 NSC 00/M01 Q1003 TEMPO
                        4000 BR=
200812031950 METAR COR EGLL 031950Z 23005KT 200V260 9000 NSC 00/M01 Q1003
                        NOSIG=
200812031920 METAR COR EGLL 031920Z 20005KT CAVOK 01/M01 Q1004 NOSIG=
200812031850 METAR COR EGLL 031850Z 22006KT 190V270 9000 NSC 01/M01 Q1004
                        NOSIG=
200812031820 METAR EGLL 031820Z 29003KT CAVOK 02/M00 Q1004=
200812031750 METAR COR EGLL 031750Z 30005KT CAVOK 03/00 Q1004 NOSIG=
200812031720 METAR COR EGLL 031720Z 28005KT CAVOK 02/M00 Q1004 NOSIG=
200812031650 METAR COR EGLL 031650Z 29003KT CAVOK 04/00 Q1003 NOSIG=
200812031620 METAR COR EGLL 031620Z 29003KT CAVOK 04/00 Q1003 NOSIG=
200812031550 METAR COR EGLL 031550Z VRB03KT CAVOK 04/00 Q1003 NOSIG=
200812031520 METAR COR EGLL 031520Z 31004KT 280V340 CAVOK 04/00 Q1003
                        NOSIG=
200812031450 METAR COR EGLL 031450Z 33005KT 290V020 CAVOK 04/01 Q1003
                        NOSIG=
200812031420 METAR COR EGLL 031420Z 33005KT 280V010 9999 FEW013 04/01
                        Q1003 NOSIG=
200812031350 METAR COR EGLL 031350Z 32005KT 280V350 CAVOK 05/01 Q1003
                        NOSIG=
200812031320 METAR COR EGLL 031320Z 30006KT CAVOK 04/01 Q1002 NOSIG=
200812031250 METAR EGLL 031250Z 29005KT 250V320 9000 SCT010 04/02 Q1002=
200812031220 METAR COR EGLL 031220Z 30006KT 280V340 9000 SCT008 03/01
                        Q1001 NOSIG=
200812031150 METAR COR EGLL 031150Z 29005KT 8000 BKN008 02/00 Q1000 BECMG
                        FEW015=
200812031120 METAR COR EGLL 031120Z 28004KT 8000 BKN008 02/00 Q1001 BECMG
                        SCT012=
200812031050 METAR COR EGLL 031050Z 31004KT 280V360 8000 BKN008 02/M00
                        Q1001 BECMG SCT012=
200812031020 METAR COR EGLL 031020Z 28004KT 7000 BKN008 01/M01 Q1001 BECMG
                        SCT010=
200812030950 METAR COR EGLL 030950Z 31004KT 280V350 8000 OVC008 00/M01
                        Q1001 BECMG BKN010=
200812030920 METAR COR EGLL 030920Z 33004KT 290V020 8000 BKN007 00/M01
                        Q1000 NOSIG=
200812030850 METAR COR EGLL 030850Z 33005KT 300V020 7000 SCT006 BKN008
                        M00/M02 Q1000 NOSIG=
200812030820 METAR COR EGLL 030820Z 30005KT CAVOK 00/M02 Q0999 TEMPO BKN008=
200812030750 METAR COR EGLL 030750Z VRB02KT CAVOK 00/M01 Q0998 TEMPO BKN008=
200812030720 METAR COR EGLL 030720Z 35002KT 9000 NSC 00/M01 Q0998 NOSIG=
200812030650 METAR EGLL 030650Z VRB03KT CAVOK 00/M01 Q0998=
200812030620 METAR COR EGLL 030620Z VRB02KT CAVOK 01/M01 Q0997 NOSIG=
200812030550 METAR COR EGLL 030550Z 30003KT 9999 FEW035 01/M01 Q0997 NOSIG=
200812030520 METAR COR EGLL 030520Z VRB02KT 9999 SCT030 01/M00 Q0997 NOSIG=
200812030450 METAR COR EGLL 030450Z 32002KT 9999 FEW033 00/M01 Q0997 NOSIG=
200812030420 METAR COR EGLL 030420Z 00000KT 7000 FEW030 M01/M02 Q0996
                        TEMPO 4000 BR=
200812030350 METAR COR EGLL 030350Z VRB02KT 8000 NSC M01/M02 Q0996 TEMPO
                        4000 BR=
200812030320 METAR COR EGLL 030320Z 30003KT CAVOK 00/M01 Q0997 NOSIG=
200812030250 METAR COR EGLL 030250Z 27002KT CAVOK 00/M01 Q0997 NOSIG=
200812030220 METAR EGLL 030220Z AUTO 00000KT 9999NDV NCD M00/M01 Q0997=
200812030150 METAR EGLL 030150Z AUTO 28003KT 9999NDV NCD M01/M02 Q0997=
200812030120 METAR EGLL 030120Z AUTO 27003KT 9999NDV NCD 01/M00 Q0997=
200812030050 METAR EGLL 030050Z 28004KT CAVOK 00/M01 Q0997=
200812030020 METAR COR EGLL 030020Z 28004KT CAVOK 00/M01 Q0997 NOSIG=
200812022350 METAR COR EGLL 022350Z 26004KT CAVOK 01/M00 Q0998 NOSIG=
200812022320 METAR COR EGLL 022320Z 25004KT CAVOK 01/M00 Q0998 NOSIG=
200812022250 METAR COR EGLL 022250Z 26004KT CAVOK 01/M00 Q0998 NOSIG=
200812022220 METAR COR EGLL 022220Z 19003KT CAVOK 02/M00 Q0998 NOSIG=
200812022150 METAR COR EGLL 022150Z 23005KT 200V270 CAVOK 02/M00 Q0999
                        NOSIG=
200812022120 METAR EGLL 022120Z VRB03KT CAVOK 02/00 Q0999=
200812022050 METAR COR EGLL 022050Z 24007KT CAVOK 02/00 Q0999 NOSIG=
200812022020 METAR COR EGLL 022020Z 24008KT CAVOK 02/01 Q1000 NOSIG=
200812021950 METAR EGLL 021950Z 24007KT CAVOK 02/00 Q1000=
200812021920 METAR COR EGLL 021920Z 25007KT CAVOK 03/01 Q1001 NOSIG=
200812021850 METAR COR EGLL 021850Z 25010KT CAVOK 03/01 Q1001 NOSIG=
200812021820 METAR COR EGLL 021820Z 24010KT CAVOK 04/01 Q1001 NOSIG=
200812021750 METAR COR EGLL 021750Z 25010KT CAVOK 04/01 Q1002 NOSIG=
200812021720 METAR COR EGLL 021720Z 24009KT CAVOK 04/01 Q1002 NOSIG=
200812021650 METAR COR EGLL 021650Z 27007KT 9999 FEW020 04/02 Q1002 NOSIG=
200812021620 METAR COR EGLL 021620Z 25009KT 9999 FEW016 04/02 Q1002 NOSIG=
200812021550 METAR COR EGLL 021550Z 27007KT 9999 FEW020 05/02 Q1003 NOSIG=
200812021520 METAR COR EGLL 021520Z 27008KT 9999 -SHRA FEW012 SCT025 04/02
                        Q1003 NOSIG=
200812021450 METAR COR EGLL 021450Z 27011KT 9999 SCT020 SCT026 05/02 Q1003
                        NOSIG=
200812021420 METAR COR EGLL 021420Z 27010KT 9999 FEW014 05/03 Q1003 NOSIG=
200812021350 METAR COR EGLL 021350Z 27012KT 9999 SCT013 SCT028 05/03 Q1003
                        NOSIG=
200812021320 METAR EGLL 021320Z 25011KT 9999 BKN013 05/03 Q1004=
200812021250 METAR COR EGLL 021250Z 26010KT 9999 -RA BKN014 05/03 Q1004
                        BECMG SCT018=
200812021220 METAR COR EGLL 021220Z 25010KT 8000 -RA BKN015 BKN020 05/02
                        Q1005 RERA TEMPO BKN012=
200812021150 METAR COR EGLL 021150Z 23013KT 9999 6000SW RA FEW018 BKN026
                        06/02 Q1005 BECMG BKN010=
200812021120 METAR COR EGLL 021120Z 22010KT 190V250 9999 FEW020 BKN028
                        05/01 Q1005 BECMG BKN012=
200812021050 METAR COR EGLL 021050Z 23009KT 190V260 9999 SCT030 SCT037
                        05/01 Q1006 BECMG BKN012=
200812021020 METAR COR EGLL 021020Z 23011KT 9999 FEW016 04/00 Q1006 BECMG
                        BKN012=
200812020950 METAR COR EGLL 020950Z 22009KT 190V250 CAVOK 03/M00 Q1007
                        BECMG BKN014=
200812020920 METAR COR EGLL 020920Z 23009KT CAVOK 02/M01 Q1007 NOSIG=
200812020850 METAR COR EGLL 020850Z 21007KT CAVOK 01/M02 Q1007 NOSIG=
200812020820 METAR COR EGLL 020820Z 21007KT 180V250 CAVOK 00/M02 Q1008
                        NOSIG=
200812020750 METAR COR EGLL 020750Z 21006KT CAVOK 00/M02 Q1008 NOSIG=
200812020720 METAR COR EGLL 020720Z 21005KT CAVOK 00/M02 Q1008 NOSIG=
200812020650 METAR COR EGLL 020650Z 23007KT CAVOK 01/M02 Q1009 NOSIG=
200812020620 METAR COR EGLL 020620Z 27008KT CAVOK M00/M02 Q1009 NOSIG=
200812020550 METAR COR EGLL 020550Z 27007KT CAVOK M00/M02 Q1009 NOSIG=
200812020520 METAR COR EGLL 020520Z 27005KT CAVOK 00/M02 Q1009 NOSIG=
200812020450 METAR COR EGLL 020450Z 27004KT CAVOK M00/M02 Q1009 NOSIG=
200812020420 METAR EGLL 020420Z 28006KT CAVOK 00/M02 Q1009=
200812020350 METAR COR EGLL 020350Z 28006KT CAVOK 01/M02 Q1009 NOSIG=
200812020320 METAR COR EGLL 020320Z 29005KT CAVOK 02/M01 Q1009 NOSIG=
200812020250 METAR COR EGLL 020250Z 30006KT 9999 SCT023 03/M01 Q1009 NOSIG=
200812020220 METAR EGLL 020220Z AUTO 31007KT 9999NDV FEW024/// SCT037///
                        03/M00 Q1009=
200812020150 METAR EGLL 020150Z AUTO 31007KT 9999NDV OVC033/// 04/M00
                        Q1008=
200812020120 METAR EGLL 020120Z AUTO 31009KT 9999NDV BKN035/// 04/M00
                        Q1008=
200812020050 METAR COR EGLL 020050Z 30008KT 9999 BKN021 04/00 Q1008 TEMPO
                        BKN014=
200812020020 METAR COR EGLL 020020Z 31008KT 9999 BKN021 04/00 Q1008=
200812012350 METAR COR EGLL 012350Z 31007KT 9999 BKN018 04/01 Q1008 TEMPO
                        BKN012=
200812012320 METAR COR EGLL 012320Z 31008KT 9999 BKN018 04/01 Q1008 TEMPO
                        BKN012=
200812012250 METAR COR EGLL 012250Z 31008KT 9999 OVC018 05/01 Q1008 TEMPO
                        BKN012=
200812012220 METAR COR EGLL 012220Z 30009KT 9999 OVC019 04/01 Q1008 TEMPO
                        BKN010=
200812012150 METAR COR EGLL 012150Z 30007KT 9999 BKN017 04/01 Q1008 TEMPO
                        BKN010=
200812012120 METAR COR EGLL 012120Z 29008KT 9999 BKN018 04/02 Q1008 TEMPO
                        BKN008=
200812012050 METAR COR EGLL 012050Z 29007KT 9999 -RA BKN014 04/02 Q1007
                        TEMPO BKN008=
200812012020 METAR COR EGLL 012020Z 29007KT 9999 -RA BKN015 BKN022 04/01
                        Q1007 TEMPO BKN012=
200812011950 METAR COR EGLL 011950Z 29007KT 9999 BKN016 BKN023 04/01 Q1007
                        TEMPO BKN012=
200812011920 METAR COR EGLL 011920Z 30006KT 9999 BKN017 04/01 Q1007 TEMPO
                        BKN012=
200812011850 METAR EGLL 011850Z 30007KT 9999 SCT018 SCT027 BKN039 04/00
                        Q1007=
200812011820 METAR COR EGLL 011820Z 29006KT 9999 SCT026 BKN030 04/00 Q1007
                        NOSIG=
200812011750 METAR EGLL 011750Z 29007KT 9999 BKN028 04/00 Q1007=
200812011720 METAR COR EGLL 011720Z 30007KT 9999 BKN025 04/00 Q1006 NOSIG=
200812011650 METAR COR EGLL 011650Z 30007KT 280V340 9999 FEW018 BKN028
                        04/M00 Q1006 NOSIG=
200812011620 METAR EGLL 011620Z 31007KT 9999 BKN024 04/M01 Q1006=
200812011550 METAR COR EGLL 011550Z 31008KT 9999 BKN023 04/M01 Q1006 NOSIG=
200812011520 METAR COR EGLL 011520Z 31008KT 9999 BKN024 04/M01 Q1005 NOSIG=
200812011450 METAR COR EGLL 011450Z 31010KT 9999 FEW024 04/M01 Q1005 NOSIG=
200812011420 METAR COR EGLL 011420Z 32008KT 290V350 9999 FEW020 05/M01
                        Q1005 NOSIG=
200812011350 METAR COR EGLL 011350Z 32007KT 300V360 9999 FEW020 05/M01
                        Q1005 NOSIG=
200812011320 METAR EGLL 011320Z 32007KT 290V360 9999 FEW020 05/M00 Q1005=
200812011250 METAR COR EGLL 011250Z 32009KT 290V360 9999 FEW020 05/M00
                        Q1005 NOSIG=
200812011220 METAR COR EGLL 011220Z 33008KT 300V360 9999 FEW020 05/00
                        Q1004 NOSIG=
200812011150 METAR EGLL 011150Z 34009KT CAVOK 05/00 Q1004=
200812011120 METAR EGLL 011120Z 33008KT CAVOK 04/00 Q1004=
200812011050 METAR COR EGLL 011050Z 33009KT 300V020 CAVOK 04/00 Q1004
                        NOSIG=
200812011020 METAR COR EGLL 011020Z 32008KT 300V360 CAVOK 03/00 Q1004
                        NOSIG=
200812010950 METAR COR EGLL 010950Z 32008KT CAVOK 03/00 Q1004 NOSIG=
200812010920 METAR COR EGLL 010920Z 32006KT CAVOK 03/M00 Q1003 NOSIG=
200812010850 METAR COR EGLL 010850Z 33007KT 300V360 CAVOK 03/M00 Q1003
                        NOSIG=
200812010820 METAR COR EGLL 010820Z 32006KT 300V360 CAVOK 02/M00 Q1003
                        NOSIG=
200812010750 METAR COR EGLL 010750Z 32008KT 300V360 CAVOK 02/M00 Q1002
                        NOSIG=
200812010720 METAR COR EGLL 010720Z 32005KT 290V350 CAVOK 02/00 Q1002
                        NOSIG=
200812010650 METAR COR EGLL 010650Z 34005KT 300V010 CAVOK 03/00 Q1002
                        NOSIG=
200812010620 METAR COR EGLL 010620Z 34006KT 9999 FEW034 03/01 Q1001 NOSIG=
200812010550 METAR COR EGLL 010550Z 35007KT 310V020 9999 SCT034 03/01
                        Q1001 NOSIG=
200812010520 METAR COR EGLL 010520Z 35008KT 9999 FEW014 BKN034 03/01 Q1001
                        NOSIG=
200812010450 METAR COR EGLL 010450Z 35005KT 310V020 9999 SCT023 BKN028
                        03/01 Q1000 NOSIG=
200812010420 METAR EGLL 010420Z 35008KT 9999 SCT015 BKN020 03/01 Q1000=
200812010350 METAR COR EGLL 010350Z 35007KT 310V010 9999 SCT013 SCT029
                        04/02 Q1000 TEMPO BKN012=
200812010320 METAR COR EGLL 010320Z 34007KT 9999 FEW013 SCT026 04/02 Q1000
                        TEMPO BKN014=
200812010250 METAR COR EGLL 010250Z 35007KT 9999 FEW010 SCT023 04/02 Q0999
                        TEMPO BKN012=
200812010220 METAR EGLL 010220Z AUTO 35007KT 310V020 9999NDV -DZ FEW011///
                        04/02 Q0999=
200812010150 METAR EGLL 010150Z AUTO 35008KT 9999NDV -DZ BKN011/// 04/02
                        Q0999=
200812010120 METAR EGLL 010120Z AUTO 35008KT 310V020 9999NDV DZ BKN012///
                        04/02 Q0999=
200812010050 METAR COR EGLL 010050Z 35009KT 9999 -RA BKN009 04/03 Q0999
                        TEMPO BKN012=
200812010020 METAR COR EGLL 010020Z 35009KT 9999 -RA SCT009 BKN015 04/03
                        Q0999 TEMPO BKN008=

# No short TAF reports from EGLL in databse.

###################################
#  large TAF from EGLL
###################################
200812312259 TAF EGLL 312259Z 0100/0206 04005KT 6000 BKN012
                      TEMPO 0100/0110 4000 BR BKN008
                      BECMG 0112/0115 BKN016
                      PROB30 0121/0206 3000 BR BKN006=
200812311657 TAF EGLL 311657Z 3118/0124 04005KT 4000 BR BKN012
                      PROB30 TEMPO 3118/3120 6000 NSW
                      BECMG 3118/3121 BKN008
                      PROB30 3121/0110 BKN004
                      PROB40 0110/0124 6000 NSW BKN018=
200812311057 TAF EGLL 311057Z 3112/0118 04005KT 4000 BR OVC009
                      TEMPO 3112/3120 6000 NSW BKN015
                      PROB30 TEMPO 3121/0110 BKN004=
200812310628 TAF AMD EGLL 310628Z 3106/0112 04005KT 3000 BR OVC004
                      BECMG 3107/3110 BKN007
                      PROB40 TEMPO 3107/3111 5000
                      TEMPO 3111/3120 5000 HZ BKN015
                      PROB30 TEMPO 3121/0110 1400 BKN004=
200812310503 TAF EGLL 310503Z 3106/0112 04005KT 2000 BR OVC003
                      TEMPO 3106/3110 1200 BKN001
                      BECMG 3109/3112 BKN007
                      TEMPO 3113/3120 5000 HZ BKN013
                      PROB30 TEMPO 3121/0110 1400 BKN004=
200812302309 TAF EGLL 302309Z 3100/0106 04004KT 2500 BR FEW010
                      TEMPO 3101/3112 1400
                      PROB40 3102/3110 0300 FZFG BKN000
                      BECMG 3105/3109 BKN008
                      TEMPO 3113/3120 5000 HZ BKN013
                      PROB40 3121/0106 1400 BKN004=
200812301703 TAF EGLL 301703Z 3018/3124 07004KT 4000 BR NSC
                      PROB40 3018/3114 1400
                      PROB30 3021/3111 0600 FZFG VV////
                      TEMPO 3112/3118 7000 NSW
                      PROB40 3111/3124 BKN008=
200812301057 TAF EGLL 301057Z 3012/3118 07004KT 4000 BR NSC
                      TEMPO 3012/3018 6000 NSW
                      PROB40 3018/3112 1400
                      PROB30 3021/3110 0600 FZFG VV////
                      TEMPO 3112/3118 7000 NSW=
200812300947 TAF AMD EGLL 300947Z 3009/3112 VRB04KT 6000 NSC
                      TEMPO 3009/3012 3500 BR BKN014
                      BECMG 3018/3021 4500 BR
                      PROB40 3022/3110 0800 BCFG
                      TEMPO 3110/3112 8000 NSW=
200812300646 TAF AMD EGLL 300646Z 3006/3112 VRB04KT 6000 NSC
                      TEMPO 3006/3010 3500 BR BKN014
                      TEMPO 3010/3018 CAVOK
                      BECMG 3018/3021 4500 BR
                      PROB40 3022/3110 0800 BCFG
                      TEMPO 3110/3112 8000 NSW=
200812300432 TAF EGLL 300432Z 3006/3112 VRB04KT 6000 NSC
                      TEMPO 3006/3010 3500 BR
                      TEMPO 3010/3018 CAVOK
                      BECMG 3018/3021 4500 BR
                      PROB40 3022/3110 0800 BCFG
                      TEMPO 3110/3112 8000 NSW=
200812292231 TAF EGLL 292231Z 3000/3106 06004KT 6000 NSC
                      PROB40 TEMPO 3000/3009 3500 BR BKN014
                      TEMPO 3009/3018 CAVOK
                      BECMG 3018/3021 4500 BR
                      PROB40 3022/3106 0800 BCFG=
200812291915 TAF AMD EGLL 291915Z 2919/3024 06006KT 8000 SCT020
                      TEMPO 2919/3011 BKN014
                      PROB30 3000/3010 4000 HZ
                      BECMG 3021/3024 2000 BR=
200812291706 TAF EGLL 291706Z 2918/3024 06006KT 8000 SCT020
                      PROB30 3000/3010 4000 HZ
                      BECMG 3018/3021 6000
                      BECMG 3021/3024 2000 BR=
200812291056 TAF EGLL 291056Z 2912/3018 10006KT 9000 SCT018
                      TEMPO 2912/3018 9999=
200812290440 TAF EGLL 290440Z 2906/3012 08007KT 9999 SCT018
                      TEMPO 2906/2910 8000
                      BECMG 2919/2922 7000
                      TEMPO 3010/3012 9999=
200812282242 TAF EGLL 282242Z 2900/3006 08009KT 9999 SCT018
                      TEMPO 2900/2910 BKN013
                      PROB40 2900/2910 8000
                      BECMG 2919/2922 8000=
200812281637 TAF EGLL 281637Z 2818/2924 07010KT 9999 SCT017
                      TEMPO 2819/2910 BKN013
                      BECMG 2900/2903 8000
                      PROB30 2905/2909 4000 BR
                      BECMG 2909/2912 9999
                      BECMG 2919/2922 8000=
200812281056 TAF EGLL 281056Z 2812/2918 07010KT 9999 SCT015
                      TEMPO 2812/2910 BKN013
                      BECMG 2900/2903 8000
                      TEMPO 2911/2917 9999=
200812280457 TAF EGLL 280457Z 2806/2912 07013KT 9999 SCT018
                      TEMPO 2806/2810 9000 BKN014
                      PROB30 TEMPO 2821/2908 9000 BKN014=
200812272304 TAF EGLL 272304Z 2800/2906 07009KT 9999 BKN014
                      PROB40 TEMPO 2800/2810 6000 BKN006
                      BECMG 2808/2810 SCT018
                      PROB30 TEMPO 2821/2906 8000 BKN014=
200812271626 TAF EGLL 271626Z 2718/2824 05009KT 9999 SCT018
                      TEMPO 2718/2824 BKN013
                      PROB30 TEMPO 2800/2812 6000 BKN006=
200812271027 TAF EGLL 271027Z 2712/2818 05009KT 9999 SCT018
                      TEMPO 2712/2818 BKN013
                      PROB30 TEMPO 2722/2812 6000 BKN006=
200812270953 TAF AMD EGLL 270953Z 2710/2812 04012KT 9999 SCT018
                      TEMPO 2710/2812 BKN013
                      PROB30 TEMPO 2722/2812 6000 BKN006=
200812270506 TAF EGLL 270506Z 2706/2812 04012KT 7000 BKN008
                      BECMG 2706/2710 9999 FEW020=
200812270300 TAF AMD EGLL 270300Z 2703/2806 05012KT 9999 FEW020
                      TEMPO 2703/2710 8000 BKN008=
200812262306 TAF EGLL 262306Z 2700/2806 05012KT 9999 FEW020
                      PROB30 TEMPO 2700/2710 9000 BKN010=
200812262300 TAF AMD EGLL 270300Z 2703/2806 05012KT 9999 FEW020
                      TEMPO 2703/2710 8000 BKN008=
200812262156 TAF AMD EGLL 262156Z 2621/2724 05012KT 9999 FEW020
                      PROB30 TEMPO 2621/2710 9000 BKN010=
200812261637 TAF EGLL 261637Z 2618/2724 05012KT 9999 FEW020=
200812261056 TAF EGLL 261056Z 2612/2718 07012KT 9999 FEW020=
200812260457 TAF EGLL 260457Z 2606/2712 07012KT 9999 BKN025
                      BECMG 2606/2609 CAVOK
                      PROB30 TEMPO 2610/2618 07015G25KT
                      PROB30 2702/2709 8000=
200812252256 TAF EGLL 252256Z 2600/2706 07010KT 9999 BKN025
                      PROB30 TEMPO 2600/2605 8000 BKN014
                      BECMG 2604/2607 CAVOK
                      PROB30 2610/2618 07015G25KT
                      PROB30 2702/2706 8000=
200812251701 TAF EGLL 251701Z 2518/2624 07009KT 9999 SCT020
                      PROB40 TEMPO 2518/2605 8000 BKN014
                      PROB30 TEMPO 2600/2605 4000 BR BKN007
                      PROB30 2610/2615 07015G25KT=
200812251108 TAF EGLL 251108Z 2512/2618 07009KT 9999 SCT020
                      PROB40 TEMPO 2512/2606 8000 BKN014
                      PROB30 TEMPO 2602/2606 4000 BR BKN006=
200812250641 TAF AMD EGLL 250641Z 2507/2612 05008KT 7000 BKN030
                      TEMPO 2507/2603 BKN014
                      PROB40 TEMPO 2507/2521 9999
                      PROB30 TEMPO 2507/2509 4000 BR BKN008
                      BECMG 2521/2601 9999=
200812250501 TAF EGLL 250501Z 2506/2612 05008KT 7000 BKN030
                      TEMPO 2506/2603 BKN014
                      PROB30 TEMPO 2506/2509 4000 BR BKN008
                      TEMPO 2509/2521 9999
                      BECMG 2521/2601 9999=
200812242302 TAF EGLL 242302Z 2500/2606 05006KT 8000 BKN025
                      TEMPO 2500/2602 BKN014
                      PROB30 TEMPO 2500/2509 4000 BR BKN008
                      TEMPO 2509/2521 9999
                      BECMG 2521/2601 9999=
200812242216 TAF AMD EGLL 242216Z 2422/2524 35005KT 9999 BKN025
                      TEMPO 2422/2510 7000 BKN014
                      PROB30 TEMPO 2500/2509 4000 BR BKN008
                      BECMG 2510/2513 06010KT
                      PROB30 TEMPO 2510/2524 7000 BKN012=
200812241652 TAF EGLL 241652Z 2418/2524 35005KT 9999 BKN018
                      BECMG 2418/2421 7000
                      TEMPO 2418/2510 BKN012
                      PROB30 TEMPO 2421/2509 4000 BR BKN006
                      BECMG 2510/2513 06010KT 9999
                      PROB30 TEMPO 2510/2524 7000 BKN012=
200812241053 TAF EGLL 241053Z 2412/2518 35005KT 9999 BKN025
                      TEMPO 2421/2509 7000 BKN012
                      BECMG 2509/2512 06010KT
                      PROB30 TEMPO 2509/2512 7000 BKN012=
200812240553 TAF AMD EGLL 240553Z 2406/2512 VRB05KT 8000 OVC020
                      BECMG 2407/2410 9999
                      PROB40 TEMPO 2420/2508 7000 BKN012
                      BECMG 2509/2512 06010KT=
200812240435 TAF EGLL 240435Z 2406/2512 VRB05KT 9999 OVC020
                      PROB40 TEMPO 2420/2508 7000 BKN012
                      BECMG 2509/2512 06010KT=
200812232257 TAF EGLL 232257Z 2400/2506 VRB03KT 9999 FEW010 BKN017
                      TEMPO 2400/2506 5000 BR BKN008=
200812232031 TAF AMD EGLL 232031Z 2320/2424 VRB03KT 9999 BKN008
                      TEMPO 2320/2424 4000 -DZ BR BKN013=
200812231700 TAF EGLL 231700Z 2318/2424 VRB03KT 9999 BKN008
                      BECMG 2318/2321 6000
                      TEMPO 2318/2410 BKN012
                      PROB30 TEMPO 2318/2410 4000 BR
                      BECMG 2410/2413 9999
                      TEMPO 2410/2418 BKN015=
200812231103 TAF EGLL 231103Z 2312/2418 23005KT 9999 BKN012
                      TEMPO 2312/2316 BKN015
                      BECMG 2317/2320 6000
                      PROB30 TEMPO 2318/2410 BKN008
                      BECMG 2410/2413 9999 BKN015=
200812230505 TAF EGLL 230505Z 2306/2412 23005KT 9999 BKN010
                      TEMPO 2306/2312 6000 BKN008
                      BECMG 2309/2312 BKN018
                      TEMPO 2317/2412 6000 BKN012
                      PROB30 TEMPO 2318/2412 BKN008=
200812222258 TAF EGLL 222258Z 2300/2406 28005KT 9999 BKN016
                      TEMPO 2300/2406 8000 BKN012
                      PROB30 2300/2311 4000 BR BKN008=
200812222140 TAF AMD EGLL 222140Z 2221/2324 26005KT 9999 BKN015
                      TEMPO 2220/2312 3000 BR BKN004
                      PROB30 2300/2311 1200=
200812221659 TAF EGLL 221659Z 2218/2324 26005KT 9999 BKN015
                      BECMG 2218/2220 6000 BKN009
                      BECMG 2220/2223 3000 BR BKN004
                      PROB30 2300/2311 1200
                      TEMPO 2311/2318 7000 NSW BKN007
                      BECMG 2318/2321 1200 BR=
200812221106 TAF EGLL 221106Z 2212/2318 26007KT 9999 BKN012
                      TEMPO 2212/2218 BKN018
                      BECMG 2216/2219 6000 BKN009
                      PROB40 2218/2224 3000 BR BKN004
                      BECMG 2300/2303 3000 BR
                      TEMPO 2303/2311 1200 BKN002
                      TEMPO 2311/2318 7000 NSW=
200812220502 TAF EGLL 220502Z 2206/2312 26010KT 9999 SCT022
                      TEMPO 2206/2210 BKN008
                      BECMG 2215/2218 VRB03KT
                      TEMPO 2217/2312 8000 BKN012
                      PROB40 TEMPO 2221/2311 4000 BR BKN006=
200812212255 TAF EGLL 212255Z 2200/2306 25011KT 9999 BKN013
                      TEMPO 2200/2210 8000 BKN008
                      BECMG 2209/2212 SCT025
                      BECMG 2216/2219 VRB03KT
                      TEMPO 2217/2306 BKN012
                      PROB30 TEMPO 2221/2306 4000 BR BKN006=
200812211656 TAF EGLL 211656Z 2118/2224 24010KT 9999 BKN018
                      BECMG 2121/2124 BKN014
                      TEMPO 2203/2224 8000 BKN009
                      PROB40 TEMPO 2210/2217 SCT015=
200812211033 TAF EGLL 211033Z 2112/2218 24013KT 9999 BKN020
                      PROB30 TEMPO 2112/2118 24015G25KT
                      TEMPO 2122/2218 BKN014
                      PROB40 TEMPO 2203/2218 8000 BKN008=
200812210439 TAF EGLL 210439Z 2106/2212 24012KT 9999 FEW022 BKN035
                      TEMPO 2106/2120 25015G26KT
                      PROB30 TEMPO 2106/2110 BKN014
                      TEMPO 2122/2212 BKN014
                      PROB30 TEMPO 2200/2210 8000 BKN009=
200812202233 TAF EGLL 202233Z 2100/2206 24012KT 9999 SCT022
                      PROB40 TEMPO 2100/2110 BKN014
                      TEMPO 2110/2120 25015G25KT
                      TEMPO 2122/2206 BKN014
                      PROB30 TEMPO 2200/2206 BKN009=
200812201708 TAF EGLL 201708Z 2018/2124 25010KT 9999 SCT020
                      PROB30 TEMPO 2102/2112 7000 -DZ BKN014
                      TEMPO 2111/2117 25015G25KT=
200812201107 TAF EGLL 201107Z 2012/2118 25010KT 9999 BKN020
                      TEMPO 2012/2017 24015G25KT
                      PROB30 TEMPO 2018/2112 7000 -RA BKN014=
200812200554 TAF COR EGLL 200554Z 2006/2112 23012KT 9999 BKN020
                      PROB30 TEMPO 2006/2017 23015G25KT 7000 -RA
                       BKN014=
200812200514 TAF COR EGLL 200514Z 2006/2112 23012KT 9999 BKN020
                      PROB30 TEMPO 2006/2117 23015G25KT 7000 -RA
                       BKN014=
200812200509 TAF EGLL 200509Z 2006/2112 23018KT 9999 BKN020
                      PROB30 TEMPO 2006/2117 23018G28KT 7000 -RA
                       BKN014=
200812192301 TAF EGLL 192301Z 2000/2106 23018KT 9999 BKN018
                      TEMPO 2000/2018 23018G28KT
                      TEMPO 2000/2106 BKN014=
200812191710 TAF EGLL 191710Z 1918/2024 23018KT 9999 BKN018
                      TEMPO 1919/2018 23022G32KT
                      TEMPO 1921/2024 BKN014=
200812191107 TAF EGLL 191107Z 1912/2018 23012KT 9999 SCT030
                      TEMPO 1919/2018 23022G32KT
                      PROB40 TEMPO 1921/2018 BKN014=
200812190631 TAF EGLL 190631Z 1906/2012 27010KT CAVOK
                      BECMG 1912/1915 21010KT
                      BECMG 1918/1921 BKN022
                      TEMPO 1919/2012 23017G27KT
                      PROB40 TEMPO 1921/2012 BKN014=
200812190500 TAF EGLL 190500Z NIL=
200812182227 TAF EGLL 182227Z 1900/2006 27010KT 9999 FEW030
                      BECMG 1912/1915 21008KT
                      TEMPO 1918/2006 23017G28KT
                      TEMPO 1920/2006 BKN014=
200812181634 TAF EGLL 181634Z 1818/1924 23012KT 9999 FEW018 BKN030
                      TEMPO 1819/1823 8000 -RA BKN014
                      PROB30 TEMPO 1820/1823 25015G25KT 4000 RADZ
                       BKN008
                      BECMG 1821/1824 30010KT
                      BECMG 1900/1903 CAVOK
                      BECMG 1912/1915 22009KT BKN040
                      TEMPO 1915/1924 22016G28KT
                      BECMG 1916/1919 BKN012=
200812181034 TAF EGLL 181034Z 1812/1918 24012KT 9999 FEW018 BKN030
                      TEMPO 1819/1823 8000 -RA BKN014
                      PROB30 TEMPO 1820/1823 25015G25KT 4000 RADZ
                       BKN008
                      BECMG 1821/1824 30010KT
                      BECMG 1900/1903 CAVOK
                      BECMG 1912/1915 22009KT BKN040
                      TEMPO 1915/1918 22016G28KT=
200812180657 TAF AMD EGLL 180657Z 1806/1912 24012KT 9999 BKN030
                      TEMPO 1806/1810 8000 BKN014
                      PROB40 TEMPO 1806/1809 4000 BR -DZ BKN007
                       TEMPO 1819/1823 8000 -RA BKN014
                      BECMG 1821/1824 30010KT=
200812180455 TAF EGLL 180455Z 1806/1912 24012KT 9999 BKN014
                      TEMPO 1806/1811 8000
                      PROB40 TEMPO 1806/1810 4000 BR -DZ BKN007
                       BECMG 1809/1812 SCT017
                      TEMPO 1819/1823 8000 -RA BKN014
                      BECMG 1821/1824 30010KT=
200812172256 TAF EGLL 172256Z 1800/1906 22008KT 9999 SCT035
                      BECMG 1801/1804 BKN014
                      TEMPO 1803/1810 8000
                      PROB40 1804/1809 4000 BR -DZ BKN006
                      BECMG 1809/1812 SCT017
                      PROB40 TEMPO 1819/1823 8000 -RA BKN014
                      BECMG 1821/1824 30010KT=
200812171654 TAF EGLL 171654Z 1718/1824 24008KT 9999 FEW030
                      BECMG 1802/1804 8000 BKN009
                      PROB40 1804/1809 4000 BR -DZ BKN004
                      BECMG 1810/1813 9999 BKN015
                      PROB40 TEMPO 1818/1822 BKN013
                      BECMG 1821/1823 30010KT=
200812171516 TAF COR EGLL 171516Z 1715/1818 30010KT 9999 FEW025
                      BECMG 1716/1719 24006KT
                      BECMG 1802/1804 8000 BKN009
                      PROB40 1804/1809 3000 BR -DZ BKN004
                      BECMG 1810/1813 9999 BKN015
                      PROB40 TEMPO 1813/1818 BKN013=
200812171020 TAF EGLL 171020Z 1712/1818 30010KT 9999 FEW025
                      BECMG 1716/1719 24006KT
                      PROB30 1719/1724 7000
                      BECMG 1700/1803 7000 BKN012
                      TEMPO 1804/1810 BKN008
                      PROB40 0409 3000 BR -DZ BKN004
                      BECMG 1810/1813 9999 BKN015
                      PROB40 TEMPO 1813/1818 BKN013=
200812170456 TAF EGLL 170456Z 1706/1812 30010KT 9999 SCT035
                      BECMG 1716/1719 24006KT
                      PROB30 1719/1723 7000
                      BECMG 1723/1802 7000 BKN012
                      TEMPO 1800/1810 4000 -RADZ BKN007
                      PROB30 TEMPO 1809/1812 9999 SCT015=
200812162301 TAF EGLL 162301Z 1700/1806 21008KT 5000 BR BKN005
                      TEMPO 1700/1702 3000 -RADZ BKN002
                      BECMG 1701/1704 32010KT 9999 NSW SCT020
                      BECMG 1718/1721 24006KT
                      BECMG 1722/1801 7000 BKN012
                      TEMPO 1800/1806 4000 -RADZ BKN006=
200812161928 TAF COR EGLL 161928Z 1618/1724 21005KT 2000 BR BKN003
                      TEMPO 1619/1702 1400 -RADZ BKN001
                      PROB40 TEMPO 1621/1701 0800 FG
                      BECMG 1701/1703 32010KT 9999 NSW SCT010
                      PROB30 1706/1710 7000
                      PROB40 1717/1724 7000
                      BECMG 1718/1721 24006KT=
200812161830 TAF AMD EGLL 161830Z 1618/1724 21005KT 2000 BR BKN003
                      TEMPO TEMPO 1619/1702 1400 -RADZ BKN001
                      PROB40 TEMPO 1621/1701 0800 FG
                      BECMG 1701/1703 32010KT 9999 NSW SCT010
                      PROB30 1706/1710 7000
                      PROB40 1717/1724 7000
                      BECMG 1718/1721 24006KT=
200812161803 TAF AMD EGLL 161803Z 1618/1724 21005KT 3000 BR BKN004
                      TEMPO 1618/1621 SCT005
                      TEMPO 1622/1702 1400 -RADZ
                      PROB40 TEMPO 1622/1701 0800 FG BKN001
                      BECMG 1701/1703 32010KT 9999 NSW SCT010
                      PROB30 1706/1710 7000
                      PROB40 1717/1724 7000
                      BECMG 1718/1721 24006KT=
200812161702 TAF EGLL 161702Z 1618/1724 21005KT 6000 FEW010
                      BECMG 1619/1622 4000 BR BKN006
                      TEMPO 1622/1702 2000 -RADZ BR BKN003
                      PROB40 TEMPO 1622/1701 0800 FG BKN001
                      BECMG 1701/1703 32010KT 9999 NSW SCT010
                      PROB30 1706/1710 7000
                      PROB40 1717/1724 7000
                      BECMG 1718/1721 24006KT=
200812161507 TAF COR EGLL 161507Z 1612/1718 22005KT 2000 BR BKN003
                      TEMPO 1612/1614 0500 FG BKN001
                      TEMPO 1614/1621 6000 NSW SCT005
                      TEMPO 1621/1702 1400 BKN001
                      BECMG 1701/1703 32010KT 9999 NSW SCT010
                      PROB40 1706/1711 7000
                      PROB30 1717/1718 8000=
200812161500 TAF AMD EGLL 161500Z 1612/1718 22005KT 2000 BR BKN003
                      TEMPO 1612/1614 0500 FG BKN001
                      TEMPO 1614/1621 6000 NSW SCT005
                      TEMPO 1621/1702 BKN001 1400 BKN001
                      BECMG 1701/1703 32010KT 9999 NSW SCT010
                      PROB40 1706/1711 7000
                      PROB30 1717/1718 8000=
200812161212 TAF AMD EGLL 161212Z 1612/1718 22005KT 2000 BR BKN003
                      TEMPO 1612/1703 0500 BKN001
                      PROB40 TEMPO 1615/1702 BKN005
                      BECMG 1701/1703 32010KT 9999 NSW SCT010
                      PROB40 1706/1711 7000
                      PROB30 1717/1718 8000=
200812161106 TAF EGLL 161106Z 1612/1718 22005KT 2000 BR BKN003
                      TEMPO 1612/1703 1200 BKN005
                      PROB40 TEMPO 1612/1702 BKN001
                      BECMG 1701/1703 32010KT 9999 NSW SCT010
                      PROB40 1706/1711 7000
                      PROB30 1717/1718 8000=
200812160523 TAF COR EGLL 160523Z 1606/1712 21005KT 4000 BR BKN007
                      TEMPO 1606/1611 1200 BKN001
                      PROB30 1606/1610 0600 FG
                      BECMG 1610/1614 6000 NSW BKN008
                      PROB40 TEMPO 1611/1618 SCT012
                      TEMPO 1621/1701 3000 RA BKN004
                      BECMG 1700/1703 32005KT 9999 SCT008=
200812160516 TAF EGLL 160516Z 1606/1712 21005KT 4000 BR BKN007
                      TEMPO 1600/1611 1200 BKN001
                      PROB30 1600/1610 0600 FG
                      BECMG 1610/1614 6000 NSW BKN008
                      PROB40 TEMPO 1611/1618 SCT012
                      TEMPO 1621/1701 3000 RA BKN004
                      BECMG 1700/1703 32005KT 9999 SCT008=
200812160500 TAF EGLL 160500Z NIL=
200812152238 TAF EGLL 152238Z 1600/1706 VRB05KT 5000 BR BKN007
                      TEMPO 1600/1612 1200 BKN001
                      PROB30 1600/1611 0400 FG
                      BECMG 1610/1614 6000 NSW BKN008
                      PROB30 TEMPO 1613/1618 SCT012
                      BECMG 1618/1621 21010KT
                      TEMPO 1622/1701 3000 RA BKN004
                      BECMG 1700/1703 32005KT 9999 SCT008=
200812151655 TAF EGLL 151655Z 1518/1624 VRB05KT 7000 BKN010
                      BECMG 1518/1521 3000 BR BKN006
                      TEMPO 1520/1612 1200 BKN001
                      PROB40 1522/1611 0400 FG
                      BECMG 1610/1614 6000 NSW BKN008
                      PROB30 TEMPO 1613/1618 SCT012
                      BECMG 1618/1621 21010KT
                      TEMPO 1621/1624 3000 RA BKN004=
200812151225 TAF AMD EGLL 151225Z 1512/1618 01006KT 7000 BKN008
                      PROB30 TEMPO 1512/1518 9999 BKN012
                      BECMG 1517/1520 3000 BR BKN004
                      PROB40 1518/1612 1200 BKN001
                      PROB30 TEMPO 1522/1611 0400 FG
                      BECMG 1610/1614 6000 NSW BKN008
                      PROB30 TEMPO 1613/1618 SCT012=
200812151047 TAF EGLL 151047Z 1512/1618 01006KT 7000 BKN008
                      PROB30 TEMPO 1512/1518 BKN012
                      BECMG 1517/1520 3000 BR BKN004
                      PROB40 1518/1612 1200 BKN001
                      PROB30 TEMPO 1522/1611 0400 FG
                      BECMG 1610/1614 6000 NSW BKN008
                      PROB30 TEMPO 1613/1618 SCT012=
200812150504 TAF EGLL 150504Z 1506/1612 01004KT 8000 BKN006
                      PROB30 TEMPO 1506/1512 3000 BR BKN003
                      PROB30 TEMPO 1511/1515 BKN012
                      BECMG 1515/1518 3000 BR BKN003
                      PROB40 1518/1611 1200 BKN001
                      PROB30 TEMPO 1600/1610 0400 FG OVC000=
200812142248 TAF EGLL 142248Z 1500/1606 01004KT 9999 BKN012
                      BECMG 1501/1504 7000
                      TEMPO 1500/1515 BKN006
                      PROB40 TEMPO 1506/1512 3000 BR BKN003
                      BECMG 1515/1518 3000 BR BKN003
                      TEMPO 1518/1606 1200 BKN001
                      PROB30 TEMPO 1600/1606 0400 FG OVC000=
200812141656 TAF EGLL 141656Z 1418/1524 01009KT 9999 BKN015
                      BECMG 1418/1421 6000 BKN012
                      TEMPO 1421/1514 2000 BR BKN006
                      PROB40 TEMPO 1500/1512 BKN003
                      BECMG 1515/1518 3000 BR BKN003
                      TEMPO 1518/1524 1200 BKN001=
200812141354 TAF AMD EGLL 141354Z 1412/1518 01006KT 3000 BR BKN005
                      TEMPO 1412/1418 6000 NSW BKN012
                      PROB30 TEMPO 1413/1418 9999 SCT015
                      TEMPO 1418/1512 1400 BKN002
                      PROB40 1515/1518 BKN003=
200812141057 TAF EGLL 141057Z 1412/1518 01006KT 3000 BR BKN005
                      TEMPO 1412/1418 6000 NSW BKN012
                      PROB30 TEMPO 1413/1418 SCT015
                      TEMPO 1418/1512 1400 BKN002
                      PROB40 1515/1518 BKN003=
200812140525 TAF EGLL 140525Z 1406/1512 VRB06KT 3000 BR SCT005 BKN015
                      TEMPO 1406/1411 0300 FG BKN001
                      BECMG 1410/1413 01010KT BKN007
                      TEMPO 1413/1418 5000 HZ BKN012
                      PROB30 TEMPO 1413/1418 SCT015
                      TEMPO 1420/1512 BKN004=
200812140500 TAF EGLL 140500Z NIL=
200812140338 TAF AMD EGLL 140338Z 1403/1506 VRB06KT 3000 BR SCT005
                      TEMPO 1403/1412 1400 BR BKN003
                      PROB30 TEMPO 1405/1411 0600 FG BKN001
                      BECMG 1412/1415 01010KT
                      TEMPO 1412/1418 5000 HZ BKN006
                      TEMPO 1418/1506 2500 BR BKN004=
200812132323 TAF EGLL 132323Z 1400/1506 VRB06KT 7000 SCT020
                      PROB40 TEMPO 1400/1405 4000 -RA BR BKN007
                       TEMPO 1405/1411 2000 BR BKN005
                      BECMG 1411/1415 01010KT BKN012
                      BECMG 1417/1421 BKN007
                      BECMG 1421/1424 3000 BR
                      TEMPO 1500/1506 BKN004
                      PROB30 1503/1506 1400=
200812132300 TAF AMD EGLL 140338Z 1403/1506 VRB06KT 3000 BR SCT005
                      TEMPO 1403/1412 1400 BR BKN003
                      PROB30 TEMPO 1405/1411 0600 FG BKN001
                      BECMG 1412/1415 01010KT
                      TEMPO 1412/1418 5000 HZ BKN006
                      TEMPO 1418/1506 2500 BR BKN004=
200812132159 TAF AMD EGLL 132159Z 1322/1424 VRB05KT 8000 -RA BKN015
                      TEMPO 1322/1403 4000 BR BKN006
                      TEMPO 1403/1418 3000 BR BKN004
                      PROB30 TEMPO 1405/1410 1200 BKN001=
200812131913 TAF COR EGLL 131913Z 1318/1424 VRB05KT 8000 -RA BKN014
                      BECMG 1318/1321 4000 BR
                      TEMPO 1318/1403 RADZ BKN005
                      BECMG 1403/1406 7000 NSW SCT020
                      TEMPO 1404/1418 3000 BR BKN004
                      PROB30 TEMPO 1405/1410 1200 BKN001=
200812131718 TAF EGLL 131718Z 1318/1424 VRB05KT 8000 -RA BKN014
                      BECMG 1318/1321 4000 BR
                      TEMPO 1318/1403 RADZ BKN005
                      BECMG 1403/1406 NSW SCT020
                      TEMPO 1404/1418 3000 BR BKN004
                      PROB30 TEMPO 1405/1410 1200 BKN001=
200812131700 TAF EGLL 131700Z NIL=
200812131111 TAF EGLL 131111Z 1312/1418 16018G28KT 9999 -RA BKN014
                      TEMPO 1312/1318 4000 RA BKN007
                      BECMG 1314/1318 VRB06KT
                      BECMG 1318/1321 4000 BR
                      TEMPO 1318/1412 RADZ BKN005
                      PROB30 TEMPO 1403/1410 1200 -DZ BKN002
                      BECMG 1406/1409 8000 NSW SCT015
                      TEMPO 1409/1418 4000 BR BKN008=
200812131100 TAF EGLL 131100Z NIL=
200812130516 TAF EGLL 130516Z 1306/1412 16015G25KT 9999 -RA BKN014
                      TEMPO 1306/1318 4000 RA BKN007
                      TEMPO 1306/1311 16022G35KT
                      BECMG 1314/1318 VRB06KT
                      BECMG 1318/1321 4000 BR SCT015
                      TEMPO 1318/1412 BKN005
                      PROB30 TEMPO 1403/1410 1200 -DZ BKN002=
200812130500 TAF EGLL 130500Z NIL=
200812122312 TAF EGLL 122312Z 1300/1406 17015KT 9999 -RA BKN014
                      TEMPO 1300/1318 4000 RADZ BKN008
                      TEMPO 1300/1310 16020G32KT
                      BECMG 1312/1316 VRB05KT
                      BECMG 1318/1321 3000 BR BKN007
                      TEMPO 1321/1406 1400 -DZ BKN003
                      PROB30 TEMPO 1321/1406 SCT007=
200812122300 TAF EGLL 122300Z NIL=
200812121702 TAF EGLL 121702Z 1218/1324 18013KT 6000 -RA BKN008
                      PROB40 TEMPO 1218/1315 3000 DZ RA BKN004
                       TEMPO 1220/1224 9999 BKN015
                      TEMPO 1300/1313 17020G30KT
                      BECMG 1312/1315 30005KT 9999 SCT020
                      PROB40 TEMPO 1321/1324 4000 BR=
200812121529 TAF AMD EGLL 121529Z 1215/1318 18012KT 9999 SCT030
                      TEMPO 1215/1217 5000 -RA BKN008
                      BECMG 1217/1220 BKN014
                      PROB40 TEMPO 1217/1224 4000 -DZ BKN006
                      TEMPO 1300/1314 17020G30KT 4000 RA BKN006
                       BECMG 1311/1314 30008KT SCT020=
200812121119 TAF EGLL 121119Z 1212/1318 VRB03KT 9999 SCT030
                      BECMG 1212/1215 18012KT
                      TEMPO 1212/1217 5000 -RA BKN014
                      BECMG 1217/1220 BKN014
                      PROB40 TEMPO 1217/1224 4000 -DZ BKN006
                      TEMPO 1300/1314 17020G30KT 4000 RA BKN006
                       BECMG 1311/1314 30008KT SCT020=
200812121100 TAF EGLL 121100Z NIL=
200812120734 TAF AMD EGLL 120734Z 1206/1312 18002KT 8000 FEW045
                      PROB30 TEMPO 1206/1209 4000 BR
                      BECMG 1210/1213 18012KT -RA BKN010
                      TEMPO 1213/1224 4000 -DZ BKN006
                      BECMG 1218/1221 18017G27KT
                      TEMPO 1300/1312 17023G37KT 4000 RA BKN008
                       BECMG 1310/1312 30010KT=
200812120506 TAF EGLL 120506Z 1206/1312 18002KT 4000 BR FEW045
                      PROB30 TEMPO 1206/1209 0400 FZFG OVC000
                      BECMG 1210/1213 18012KT 8000 -RA BKN010
                      TEMPO 1213/1224 4000 -DZ BKN006
                      BECMG 1218/1221 18017G27KT
                      TEMPO 1300/1312 17023G37KT 4000 RA BKN008
                       BECMG 1310/1312 30010KT=
200812112303 TAF EGLL 112303Z 1200/1306 24003KT 6000 SCT045
                      BECMG 1200/1202 2500 BR
                      PROB40 1202/1210 0300 FZFG OVC000
                      BECMG 1210/1213 18012KT -RA BKN006
                      TEMPO 1213/1224 8000 BKN012
                      BECMG 1218/1221 18017G27KT
                      TEMPO 1300/1306 17023G37KT 4000 RA=
200812111726 TAF EGLL 111726Z 1118/1224 24005KT 9999 SCT020
                      PROB40 1118/1120 7000
                      BECMG 1120/1123 5000 HZ
                      BECMG 1123/1202 2500 BR
                      PROB40 1200/1210 0300 FZFG OVC000
                      BECMG 1210/1213 18012KT -RA BKN004
                      BECMG 1213/1217 7000 BKN008
                      TEMPO 1217/1224 18017G27KT BKN012=
200812111700 TAF EGLL 111700Z NIL=
200812111127 TAF EGLL 111127Z 1112/1218 28010KT 8000 SCT020
                      PROB40 TEMPO 1112/1118 9999
                      BECMG 1118/1121 3000 BR
                      BECMG 1121/1201 20005KT
                      PROB40 1121/1211 0300 FZFG VV///
                      BECMG 1211/1215 6000 BKN010
                      TEMPO 1214/1218 18015G25KT 3000 -DZ BKN005=
200812111100 TAF EGLL 111100Z NIL=
200812110503 TAF EGLL 110503Z 1106/1212 28006KT 9999 BKN040
                      PROB40 TEMPO 1106/1110 4000 BR BKN008
                      BECMG 1117/1119 6000
                      BECMG 1119/1122 3000 BR
                      PROB30 1122/1210 0500 FZFG VV///
                      TEMPO 1210/1212 -DZ BKN005=
200812102304 TAF EGLL 102304Z 1100/1206 28007KT 9999 BKN035
                      PROB30 TEMPO 1100/1104 8000 -RA BKN014
                      PROB40 1105/1110 4000 BR
                      BECMG 1117/1119 6000
                      BECMG 1119/1122 3000 BR
                      PROB30 1122/1206 0500 FZFG VV///=
200812101717 TAF EGLL 101717Z 1018/1124 30010KT 9999 BKN030
                      TEMPO 1021/1105 7000 -RA BKN014
                      TEMPO 1105/1113 3500 BR -DZ BKN007
                      TEMPO 1113/1117 7000
                      BECMG 1117/1119 5000 HZ
                      PROB40 1119/1124 2000 BR=
200812101700 TAF EGLL 101700Z NIL=
200812101108 TAF EGLL 101108Z 1012/1118 30008KT 9999 SCT035
                      BECMG 1021/1024 6000 -RA BKN014
                      PROB40 TEMPO 1102/1112 3500 BR BKN007
                      BECMG 1112/1115 SCT030
                      PROB40 1112/1116 9999
                      PROB40 TEMPO 1116/1118 4500 BR=
200812100502 TAF EGLL 100502Z 1006/1112 32008KT 9999 FEW035
                      PROB30 1006/1010 8000
                      PROB30 TEMPO 1022/1102 7000 -SHRASN BKN014
                       BECMG 1102/1104 7000
                      PROB30 1103/1112 3000 BR BKN009=
200812092256 TAF EGLL 092256Z 1000/1106 32008KT 9999 FEW035
                      PROB30 1002/1010 8000
                      PROB30 TEMPO 1020/1024 7000 -SHRASN BKN014
                       BECMG 1100/1103 7000
                      PROB30 1103/1106 3000 BR BKN009=
200812091701 TAF EGLL 091701Z 0918/1024 32008KT 9999 FEW025
                      PROB30 1002/1009 8000=
200812091059 TAF EGLL 091059Z 0912/1018 32010KT 9999 SCT018
                      PROB30 TEMPO 0912/0916 6000 SHRAGS BKN014CB
                       PROB30 1002/1009 8000=
200812090637 TAF AMD EGLL 090637Z 0906/1012 33009KT 9999 SCT035
                      TEMPO 0906/0909 7000
                      PROB30 1001/1009 8000=
200812090501 TAF EGLL 090501Z 0906/1012 33009KT 9999 SCT035
                      PROB30 1001/1009 8000=
200812082256 TAF EGLL 082256Z 0900/1006 22006KT 7000 -RA BKN016
                      TEMPO 0900/0904 4000 RADZ BKN009
                      BECMG 0903/0906 32010KT CAVOK
                      PROB30 0923/1006 8000=
200812081654 TAF EGLL 081654Z 0818/0924 20007KT 9999 BKN040
                      BECMG 0818/0821 7000 -RA BKN014
                      TEMPO 0821/0903 4000 RADZ BKN008
                      BECMG 0902/0905 35010KT CAVOK=
200812081053 TAF EGLL 081053Z 0812/0918 21008KT 9999 FEW015 BKN030
                      PROB30 0812/0814 8000
                      BECMG 0817/0820 7000 -RA BKN014
                      TEMPO 0819/0902 4000 RADZ BKN008
                      BECMG 0902/0905 35010KT CAVOK=
200812080444 TAF EGLL 080444Z 0806/0912 22006KT 6000 SCT022
                      PROB30 0806/0809 3000 BR BKN003
                      BECMG 0806/0809 9999
                      BECMG 0817/0820 7000 -RA
                      TEMPO 0818/0902 4000 RADZ BKN009
                      BECMG 0902/0905 35010KT CAVOK=
200812072230 TAF EGLL 072230Z 0800/0906 22006KT 6000 NSC
                      PROB40 0800/0806 0800 BCFG
                      PROB30 0804/0809 BKN003
                      BECMG 0806/0809 9999
                      BECMG 0817/0820 7000 -RA BKN020
                      TEMPO 0818/0902 4000 RADZ BKN009
                      BECMG 0902/0905 35010KT CAVOK=
200812071704 TAF EGLL 071704Z 0718/0824 21006KT 9999 FEW030
                      BECMG 0718/0721 6000
                      PROB40 0721/0806 4000 BR BKN004
                      PROB30 TEMPO 0723/0803 0200 FZFG VV///
                      BECMG 0806/0809 9999
                      BECMG 0816/0819 7000 -RA BKN014
                      TEMPO 0818/1823 4000 RA BKN009=
200812071112 TAF EGLL 071112Z 0712/0818 21004KT 9999 FEW030
                      BECMG 0717/0720 6000
                      PROB40 0721/0806 4000 BR BKN004
                      PROB30 TEMPO 0723/0803 0200 FZFG VV///
                      BECMG 0806/0809 9999
                      BECMG 0816/0818 7000 RA BKN014=
200812071100 TAF EGLL 071100Z NIL=
200812070456 TAF EGLL 070456Z 0706/0812 24003KT 5000 HZ NSC
                      PROB40 0706/0711 0200 FZFG VV///
                      TEMPO 0711/0717 CAVOK
                      PROB40 0717/0809 0200 FZFG VV///
                      BECMG 0809/0812 9999 SCT025=
200812062308 TAF EGLL 062308Z 0700/0806 24003KT CAVOK
                      BECMG 0700/0703 5000 HZ
                      PROB40 0702/0712 0200 FZFG VV///
                      PROB40 0717/0806 0100 FZFG VV///=
200812061707 TAF EGLL 061707Z 0618/0724 31005KT CAVOK
                      BECMG 0619/0623 6000
                      BECMG 0623/0703 3000 BR
                      PROB40 0702/0712 0200 FZFG VV///
                      BECMG 0712/0715 7000 NSW
                      PROB30 0714/0719 CAVOK=
200812061051 TAF EGLL 061051Z 0612/0718 33010KT 9999 FEW025
                      BECMG 0619/0623 VRB04KT 6000
                      BECMG 0623/0702 3000 BR
                      PROB40 0702/0712 0200 FZFG VV///
                      BECMG 0712/0715 7000 NSW=
200812060511 TAF EGLL 060511Z 0606/0712 33010KT 9999 SCT025
                      TEMPO 0606/0611 9000 BKN014
                      BECMG 0618/0621 6000
                      BECMG 0621/0624 3000 BR
                      BECMG 0700/0703 1200 MIFG
                      TEMPO 0702/0712 VRB05KT 0200 FZFG VV///=
200812052311 TAF EGLL 052311Z 0600/0706 27010KT 9999 SCT020
                      BECMG 0600/0603 33010KT
                      TEMPO 0600/0611 7000 -RA BKN014
                      PROB30 TEMPO 0600/0611 4000 -DZ BR BKN008
                       PROB30 0611/0621 7000
                      BECMG 0621/0624 3000 BR
                      BECMG 0700/0703 1200
                      PROB40 TEMPO 0702/0706 0200 FZFG VV///=
200812052300 TAF EGLL 052300Z NIL=
200812051703 TAF EGLL 051703Z 0518/0624 27010KT 9999 SCT025
                      TEMPO 0518/0612 6000 -SHRA BKN014
                      BECMG 0522/0601 34008KT
                      PROB40 TEMPO 0523/0611 4000 -DZ BR BKN008
                       BECMG 0621/0624 3000 BR=
200812051607 TAF AMD EGLL 051607Z 0512/0618 28010KT 9999 SCT025
                      TEMPO 0515/0612 6000 -SHRA BKN014
                      BECMG 0523/0602 34008KT
                      PROB40 TEMPO 0523/0611 4000 -DZ BR BKN008=
200812051056 TAF EGLL 051056Z 0512/0618 28010KT 9999 SCT025
                      TEMPO 0515/0612 6000 -SHRA HZ BKN014
                      BECMG 0523/0602 34008KT
                      PROB40 TEMPO 0523/0611 4000 -DZ BR BKN008=
200812050504 TAF EGLL 050504Z 0506/0612 22005KT 9999 SCT025
                      BECMG 0508/0511 28012KT
                      PROB30 0508/0511 7000
                      BECMG 0520/0523 BKN014
                      BECMG 0523/0603 34010KT 8000
                      TEMPO 0600/0611 4000 -DZ BR BKN008=
200812042327 TAF EGLL 042327Z 0500/0606 20007KT 9999 SCT030
                      BECMG 0503/0506 7000
                      BECMG 0506/0508 3000 BR
                      PROB30 0508/0510 1400 BKN004
                      BECMG 0509/0512 31010KT 5000 HZ
                      PROB40 TEMPO 0512/0518 9999
                      TEMPO 0514/0522 25010KT
                      BECMG 0521/0524 BKN014
                      TEMPO 0600/0606 BKN007=
200812042300 TAF EGLL 042300Z NIL=
200812041640 TAF EGLL 041640Z 0418/0524 24010KT 9999 SCT030
                      BECMG 0503/0506 8000
                      TEMPO 0506/0513 3000 BR -DZ BKN008
                      PROB30 0507/0510 1200 BKN003
                      BECMG 0509/0512 30010KT
                      BECMG 0512/0514 9999=
200812041102 TAF EGLL 041102Z 0412/0518 25016G27KT 9999 SCT025
                      BECMG 0412/0414 25012KT
                      BECMG 0503/0506 8000
                      TEMPO 0506/0513 3000 BR -RADZ BKN008
                      PROB40 0507/0512 1200 BKN003
                      BECMG 0509/0512 30010KT
                      BECMG 0512/0514 9999=
200812040509 TAF EGLL 040509Z 0406/0512 18016G27KT 9000 BKN030
                      TEMPO 0406/0411 3000 RA BR BKN007
                      BECMG 0409/0412 26017G27KT 9999
                      BECMG 0415/0419 24009KT
                      PROB30 TEMPO 0415/0423 5000 SHRA
                      BECMG 0506/0509 7000 BKN012
                      PROB30 TEMPO 0509/0512 4000 RADZ BKN009=
200812032303 TAF EGLL 032303Z 0400/0506 18008KT 9000 SCT030
                      PROB30 TEMPO 0400/0403 4000 BR
                      TEMPO 0403/0411 18017G27KT 3000 RA BR BKN007
                       BECMG 0409/0412 26017G27KT 9999
                      BECMG 0415/0419 24009KT
                      PROB30 TEMPO 0415/0423 5000 SHRA=
200812031732 TAF EGLL 031732Z 0318/0424 23006KT 9999 SCT030
                      BECMG 0318/0321 7000
                      TEMPO 0321/0403 3000 BR
                      TEMPO 0403/0411 18017G27KT 3000 RA BKN007
                       BECMG 0409/0412 26017G27KT 9999
                      BECMG 0415/0418 24012KT
                      PROB30 TEMPO 0415/0420 5000 SHRA=
200812031700 TAF EGLL 031700Z NIL=
200812031142 TAF EGLL 031142Z 0312/0418 31010KT 8000 FEW020
                      TEMPO 0312/0317 9999
                      PROB30 0312/0313 BKN010
                      BECMG 0317/0321 25006KT 4000 BR
                      PROB30 0321/0324 1400 BR
                      BECMG 0400/0403 17012KT 7000
                      TEMPO 0403/0410 17017G27KT 3000 RA BKN008
                       BECMG 0409/0412 26017G27KT 9999
                      BECMG 0415/0418 24012KT=
200812031100 TAF EGLL 031100Z NIL=
200812030814 TAF AMD EGLL 030814Z 0308/0412 33007KT 9999 FEW015
                      TEMPO 0308/0310 4000 BR BKN008
                      PROB30 0308/0310 1400 BKN004
                      BECMG 0310/0313 BKN012
                      TEMPO 0313/0317 SCT014
                      TEMPO 0317/0403 1400 BR BKN004
                      BECMG 0402/0406 18015KT 9999 -RA BKN018
                      TEMPO 0404/0408 5000 RA BKN010
                      BECMG 0407/0409 27017G27KT=
200812030503 TAF EGLL 030503Z 0306/0412 33007KT 9000 FEW015
                      TEMPO 0306/0310 4000 BR
                      PROB40 0306/0310 1200 BKN004
                      BECMG 0310/0313 BKN012
                      TEMPO 0313/0317 9999 SCT014
                      TEMPO 0317/0403 1400 BR BKN004
                      BECMG 0402/0406 18015KT 9999 -RA BKN018
                      TEMPO 0404/0408 5000 RA BKN010
                      BECMG 0407/0409 27017G27KT=
200812022255 TAF EGLL 022255Z 0300/0406 28007KT 9999 FEW025
                      BECMG 0300/0304 7000
                      TEMPO 0302/0310 2500 BR
                      PROB40 0303/0310 1200 BKN004
                      BECMG 0310/0313 BKN008
                      TEMPO 0313/0317 9999 SCT012
                      TEMPO 0317/0403 1400 BR BKN004
                      BECMG 0402/0406 18015KT 9999 -RA BKN018=
200812021731 TAF COR EGLL 021731Z 0218/0324 25007KT 9999 SCT025
                      BECMG 0219/0223 7000
                      TEMPO 0223/0303 2500 BR
                      BECMG 0303/0306 31010KT 2500 BR
                      TEMPO 0303/0310 1200 BR
                      BECMG 0307/0310 BKN004
                      BECMG 0310/0313 BKN008
                      TEMPO 0313/0317 5000 HZ SCT012
                      TEMPO 0317/0324 1400 BR
                      PROB30 TEMPO 0317/0324 BKN004
                      BECMG 0318/0321 20008KT=
200812021722 TAF EGLL 021722Z 0218/0324 25007KT 9999 SCT025
                      BECMG 0219/0223 7000
                      BECMG 0223//0303 2500 BR
                      BECMG 0303/0306 31010KT
                      TEMPO 0303/0310 1200 BR
                      BECMG 0307/0310 BKN004
                      BECMG 0310/0313 BKN008
                      TEMPO 0313/0317 5000 HZ SCT012
                      TEMPO 0317/0324 1400 BR
                      PROB30 TEMPO 0317/0324 BKN004
                      BECMG 0318/0321 20008KT=
200812021700 TAF EGLL 021700Z NIL=
200812021138 TAF EGLL 021138Z 0212/0318 25010KT 9999 SCT025
                      TEMPO 0212/0216 5000 RA BKN012
                      BECMG 0218/0221 5000 HZ
                      BECMG 0221//0224 2500 BR
                      BECMG 0300/0303 34007KT
                      TEMPO 0300/0310 1200 BR
                      BECMG 0307/0310 BKN004
                      BECMG 0310/0313 BKN008
                      PROB40 TEMPO 0313/0318 5000 HZ SCT010=
200812021100 TAF EGLL 021100Z NIL=
200812020431 TAF EGLL 020431Z 0206/0312 25006KT CAVOK
                      BECMG 0207/0209 BKN030
                      TEMPO 0209/0214 6000 -RA BKN014
                      PROB40 TEMPO 0209/0213 4000 -RADZ BKN006
                       BECMG 0217/0220 CAVOK
                      BECMG 0220/0223 6000
                      TEMPO 0223/0310 4000 BR
                      PROB40 0302/0309 1200
                      BECMG 0307/0310 BKN005=
200812012232 TAF EGLL 012232Z 0200/0306 32010KT 9999 BKN020
                      PROB30 TEMPO 0200/0202 6000 BKN008
                      BECMG 0202/0205 25007KT CAVOK
                      BECMG 0207/0209 BKN025
                      TEMPO 0209/0213 7000 -RA BKN011
                      PROB30 TEMPO 0209/0211 4000 -RADZ -RASN BKN007
                       BECMG 0213/0216 CAVOK
                      BECMG 0219/0222 6000
                      PROB30 0300/0306 1200 BR MIFG=
200812011700 TAF EGLL 011700Z 0118/0224 32010KT 9999 BKN020
                      BECMG 0120/0123 BKN012
                      TEMPO 0121/0203 7000 BKN007
                      BECMG 0203/0205 SCT020
                      BECMG 0205/0207 26010KT
                      TEMPO 0210/0213 7000 -RA -RASN BKN009
                      PROB30 TEMPO 0216/0224 3000 BR=
200812011104 TAF EGLL 011104Z 0112/0218 34010KT 9999 SCT020
                      BECMG 0120/0123 BKN012
                      TEMPO 0121/0203 7000 BKN007
                      BECMG 0203/0206 SCT020
                      BECMG 0205/0207 27010KT
                      TEMPO 0210/0213 7000 -RA -RASN BKN009
                      PROB30 TEMPO 0216/0218 3000 BR=
200812010508 TAF EGLL 010508Z 0106/0212 34010KT 9999 BKN020
                      TEMPO 0109/0113 BKN012
                      BECMG 0120/0123 BKN012
                      TEMPO 0123/0202 7000 BKN007
                      BECMG 0202/0205 SCT025
                      TEMPO 0210/0212 7000 -RASN BKN009=
200812010259 TAF AMD EGLL 010259Z 0103/0206 34010KT 9999 BKN020
                      TEMPO 0103/0105 8000 BKN009
                      TEMPO 0109/0113 BKN012
                      BECMG 0120/0123 BKN012
                      TEMPO 0123/0206 7000 BKN007=
