##########################################################
# Query made at 12/31/2014 10:29:48 UTC
# Time interval: from 07/01/2013 00:00  to 07/31/2013 23:59  UTC
##########################################################

##########################################################
# EGLL, London / Heathrow Airport (United Kingdom)
# WMO index: 03772
# Latitude 51-29N. Longitude 000-27W. Altitude 24 m.
##########################################################

###################################
#  METAR/SPECI from EGLL
###################################
201307312350 METAR COR EGLL 312350Z 19007KT 9999 BKN036 20/17 Q1014 NOSIG=
201307312320 METAR COR EGLL 312320Z 20006KT 9999 BKN035 20/17 Q1014 NOSIG=
201307312250 METAR COR EGLL 312250Z 21006KT 9999 BKN032 20/17 Q1014 NOSIG=
201307312220 METAR COR EGLL 312220Z 21008KT 180V250 9999 BKN029 20/17
                        Q1015 NOSIG=
201307312150 METAR COR EGLL 312150Z 20008KT 170V250 9999 BKN030 20/17
                        Q1015 NOSIG=
201307312120 METAR COR EGLL 312120Z 22009KT 190V260 9999 BKN032 20/17
                        Q1015 NOSIG=
201307312050 METAR COR EGLL 312050Z 23010KT 200V260 9999 FEW017 BKN029
                        20/17 Q1015 TEMPO BKN014=
201307312020 METAR COR EGLL 312020Z 22009KT 190V250 9999 SCT019 BKN023
                        20/17 Q1015 NOSIG=
201307311950 METAR COR EGLL 311950Z 21010KT 190V250 9999 BKN022 21/17
                        Q1015 NOSIG=
201307311920 METAR COR EGLL 311920Z 21012KT 180V250 9999 BKN022 21/16
                        Q1015 NOSIG=
201307311850 METAR COR EGLL 311850Z 22013KT 9999 BKN025 21/16 Q1014 NOSIG=
201307311820 METAR COR EGLL 311820Z 22013KT 9999 FEW022 BKN024 21/16 Q1014
                        NOSIG=
201307311750 METAR COR EGLL 311750Z 22013KT 190V250 9999 FEW021 BKN026
                        21/16 Q1014 NOSIG=
201307311720 METAR EGLL 311720Z AUTO 21013KT 190V250 9999 SCT022/// 22/17
                        Q1014=
201307311650 METAR COR EGLL 311650Z 21013KT 9999 FEW022 BKN041 22/17 Q1015
                        NOSIG=
201307311620 METAR COR EGLL 311620Z 22015KT 9999 FEW024 BKN043 23/17 Q1015
                        NOSIG=
201307311550 METAR COR EGLL 311550Z 22013KT 180V240 9999 FEW025 BKN049
                        23/17 Q1015 NOSIG=
201307311520 METAR COR EGLL 311520Z 22013KT 9999 FEW031 BKN048 23/17 Q1015
                        NOSIG=
201307311450 METAR COR EGLL 311450Z 22014G26KT 180V250 9999 VCSH SCT024
                        SCT029 23/18 Q1015 NOSIG=
201307311420 METAR COR EGLL 311420Z 23016KT 9999 SCT026 BKN049 24/17 Q1015
                        NOSIG=
201307311350 METAR COR EGLL 311350Z 23015KT 9999 SCT023 BKN049 24/17 Q1015
                        NOSIG=
201307311320 METAR COR EGLL 311320Z 23013KT 190V250 9999 SCT018 BKN024
                        24/17 Q1015 NOSIG=
201307311250 METAR COR EGLL 311250Z 22014KT 9999 SCT016 BKN019 23/18 Q1015
                        NOSIG=
201307311220 METAR COR EGLL 311220Z 22011KT 9999 SCT015 BKN022 21/18 Q1016
                        NOSIG=
201307311150 METAR COR EGLL 311150Z 23014KT 9999 BKN016 21/17 Q1016 NOSIG=
201307311120 METAR COR EGLL 311120Z 22012KT 9999 BKN016 22/17 Q1016 TEMPO
                        BKN014=
201307311050 METAR COR EGLL 311050Z 23015KT 9999 BKN016 22/17 Q1016 TEMPO
                        -RADZ BKN014=
201307311020 METAR COR EGLL 311020Z 23011KT 9999 SCT013 BKN017 21/17 Q1015
                        TEMPO BKN014=
201307310950 METAR COR EGLL 310950Z 23012KT 9999 BKN013 20/17 Q1015 TEMPO
                        -RADZ BKN008=
201307310920 METAR COR EGLL 310920Z 22009KT 9999 BKN011 20/17 Q1016 TEMPO
                        -RADZ BKN007=
201307310850 METAR COR EGLL 310850Z 21009KT 9999 BKN010 19/17 Q1016 TEMPO
                        4000 -RADZ BKN007=
201307310820 METAR COR EGLL 310820Z 19008KT 9999 BKN010 18/16 Q1016 TEMPO
                        4000 -RADZ BKN007=
201307310750 METAR COR EGLL 310750Z 19007KT 140V220 9999 BKN012 BKN015
                        17/16 Q1016 TEMPO 4500 -RADZ BKN009=
201307310720 METAR COR EGLL 310720Z 20006KT 170V240 9999 SCT012 BKN023
                        17/16 Q1016 TEMPO 5000 -RADZ BKN010=
201307310650 METAR COR EGLL 310650Z 21007KT 180V250 9999 FEW012 BKN031
                        17/15 Q1016 TEMPO 7000 -RADZ BKN010=
201307310620 METAR COR EGLL 310620Z 22008KT 9999 FEW012 BKN038 17/15 Q1016
                        TEMPO 7000 -RADZ BKN010=
201307310550 METAR COR EGLL 310550Z 21008KT 9999 BKN044 17/15 Q1016 BECMG
                        BKN012=
201307310520 METAR COR EGLL 310520Z 21008KT 180V260 9999 FEW035 SCT039
                        BKN046 17/15 Q1016 NOSIG=
201307310450 METAR COR EGLL 310450Z 23008KT 9999 FEW041 17/15 Q1016 NOSIG=
201307310420 METAR COR EGLL 310420Z 24009KT CAVOK 17/15 Q1015 NOSIG=
201307310350 METAR COR EGLL 310350Z 23008KT CAVOK 17/15 Q1015 NOSIG=
201307310320 METAR COR EGLL 310320Z 24008KT CAVOK 17/15 Q1015 NOSIG=
201307310250 METAR COR EGLL 310250Z 23010KT CAVOK 17/15 Q1015 NOSIG=
201307310220 METAR COR EGLL 310220Z 23009KT CAVOK 17/15 Q1015 NOSIG=
201307310150 METAR COR EGLL 310150Z 23009KT CAVOK 17/14 Q1015 NOSIG=
201307310120 METAR EGLL 310120Z AUTO 25007KT 9999 NCD 17/14 Q1015=
201307310050 METAR EGLL 310050Z AUTO 25008KT 9999 NCD 17/14 Q1015=
201307310020 METAR EGLL 310020Z AUTO 24008KT 9999 NCD 17/14 Q1015=
201307302350 METAR COR EGLL 302350Z 24007KT CAVOK 18/14 Q1015 NOSIG=
201307302320 METAR COR EGLL 302320Z 25010KT CAVOK 18/14 Q1015 NOSIG=
201307302250 METAR COR EGLL 302250Z 25010KT CAVOK 18/14 Q1014 NOSIG=
201307302220 METAR COR EGLL 302220Z 26011KT CAVOK 18/14 Q1014 NOSIG=
201307302150 METAR COR EGLL 302150Z 26011KT CAVOK 18/15 Q1014 NOSIG=
201307302120 METAR COR EGLL 302120Z 26012KT CAVOK 19/15 Q1014 NOSIG=
201307302050 METAR COR EGLL 302050Z 25012KT CAVOK 19/16 Q1013 NOSIG=
201307302020 METAR COR EGLL 302020Z 24011KT CAVOK 19/16 Q1013 NOSIG=
201307301950 METAR COR EGLL 301950Z 25011KT CAVOK 20/16 Q1012 NOSIG=
201307301920 METAR COR EGLL 301920Z 24012KT CAVOK 20/16 Q1012 NOSIG=
201307301850 METAR COR EGLL 301850Z 25012KT CAVOK 21/16 Q1012 NOSIG=
201307301820 METAR COR EGLL 301820Z 25012KT 210V270 CAVOK 22/16 Q1012
                        NOSIG=
201307301750 METAR COR EGLL 301750Z 24014KT CAVOK 22/17 Q1011 NOSIG=
201307301720 METAR COR EGLL 301720Z 24012KT 9999 FEW019 22/17 Q1012 NOSIG=
201307301650 METAR EGLL 301650Z AUTO 25012KT 9999 FEW020/// SCT036///
                        21/17 Q1011=
201307301620 METAR EGLL 301620Z AUTO 23012KT 9999 FEW018/// 22/17 Q1011=
201307301550 METAR EGLL 301550Z AUTO 24013KT 200V260 9999 FEW015/// 22/17
                        Q1011=
201307301520 METAR EGLL 301520Z AUTO 25013KT 9999 SCT013/// BKN020///
                        22/17 Q1011=
201307301450 METAR EGLL 301450Z AUTO 23009KT 190V270 9999 FEW011/// BKN016///
                        21/18 Q1011=
201307301420 METAR EGLL 301420Z AUTO 23011KT 9999 SCT011/// BKN037///
                        21/18 Q1011=
201307301350 METAR COR EGLL 301350Z 25011KT 9999 SCT010 BKN015 19/18 Q1011
                        TEMPO BKN014=
201307301320 METAR COR EGLL 301320Z 23009KT 9999 FEW008 SCT010 BKN014
                        19/18 Q1011 BECMG BKN015=
201307301250 METAR COR EGLL 301250Z 22007KT 190V250 7000 -RADZ FEW003
                        BKN008 18/17 Q1012 BECMG BKN012=
201307301220 METAR COR EGLL 301220Z 20009KT 170V240 4700 -RADZ FEW004
                        BKN005 BKN011 17/17 Q1012 BECMG 9999
                        NSW BKN010=
201307301150 METAR COR EGLL 301150Z 20010KT 180V240 5000 -RADZ BKN006
                        BKN012 17/17 Q1012 TEMPO 4000 RADZ
                        BKN010=
201307301120 METAR COR EGLL 301120Z 19011KT 9999 -RADZ BKN006 BKN012 17/16
                        Q1012 RERA REDZ TEMPO 4000 RADZ BKN010=
201307301050 METAR COR EGLL 301050Z 20010KT 3800 RADZ BKN006 BKN012 17/16
                        Q1013 TEMPO 8000 -RADZ BKN010=
201307301020 METAR COR EGLL 301020Z 19010KT 170V230 9999 -RADZ BKN006
                        BKN012 17/16 Q1013 TEMPO 3500 RADZ=
201307300950 METAR COR EGLL 300950Z 18008KT 140V220 5000 -RADZ SCT005
                        BKN010 16/16 Q1013 TEMPO 3000 RADZ
                        BKN006=
201307300920 METAR COR EGLL 300920Z 18007KT 160V220 7000 -RADZ BKN008
                        BKN012 16/16 Q1014 TEMPO 3500 RADZ=
201307300850 METAR COR EGLL 300850Z 18007KT 090V250 6000 -RADZ FEW006
                        SCT011 BKN023 16/15 Q1014 RERA REDZ
                        TEMPO 4000 RADZ BKN008=
201307300820 METAR COR EGLL 300820Z 18009KT 150V210 6000 -RA FEW010 SCT018
                        BKN037 16/15 Q1014 TEMPO 4000 RADZ
                        BKN009=
201307300750 METAR COR EGLL 300750Z 18007KT 150V230 9999 -RA FEW010 SCT049
                        17/15 Q1014 TEMPO 4000 RADZ BKN009=
201307300720 METAR COR EGLL 300720Z 19007KT 150V230 9999 -RA FEW010 16/15
                        Q1014 BECMG BKN010=
201307300650 METAR COR EGLL 300650Z 21008KT 180V240 9999 -RA FEW017 16/15
                        Q1015 BECMG BKN010=
201307300620 METAR COR EGLL 300620Z 21008KT 170V240 9999 FEW005 16/15
                        Q1015 TEMPO -RA BKN010=
201307300550 METAR COR EGLL 300550Z 20007KT 170V240 9999 FEW004 16/15
                        Q1014 TEMPO BKN010=
201307300520 METAR COR EGLL 300520Z 19008G20KT 150V220 CAVOK 16/15 Q1014
                        NOSIG=
201307300450 METAR COR EGLL 300450Z 20007KT 190V250 CAVOK 15/15 Q1015
                        NOSIG=
201307300420 METAR COR EGLL 300420Z 20007KT 170V250 CAVOK 15/14 Q1015
                        NOSIG=
201307300350 METAR COR EGLL 300350Z 20007KT CAVOK 15/14 Q1015 NOSIG=
201307300320 METAR COR EGLL 300320Z 21006KT CAVOK 15/14 Q1015 NOSIG=
201307300250 METAR COR EGLL 300250Z 21008KT CAVOK 15/14 Q1015 NOSIG=
201307300220 METAR COR EGLL 300220Z 22007KT CAVOK 15/15 Q1015 NOSIG=
201307300150 METAR COR EGLL 300150Z 21007KT CAVOK 15/15 Q1015 NOSIG=
201307300120 METAR EGLL 300120Z AUTO 23007KT 9999 NCD 15/15 Q1015=
201307300050 METAR EGLL 300050Z AUTO 22007KT 9999 FEW015/// 15/14 Q1015=
201307300020 METAR EGLL 300020Z AUTO 22007KT 9999 NCD 16/15 Q1015=
201307292350 METAR COR EGLL 292350Z 21007KT 9999 SCT015 16/15 Q1015 TEMPO
                        BKN012=
201307292320 METAR COR EGLL 292320Z 23011KT 9999 SCT018 16/15 Q1015 NOSIG=
201307292250 METAR COR EGLL 292250Z 22010KT 9999 FEW022 16/15 Q1015 NOSIG=
201307292220 METAR COR EGLL 292220Z 22010KT 9999 FEW020 16/15 Q1015 NOSIG=
201307292150 METAR COR EGLL 292150Z 22008KT 180V260 9999 FEW040 16/15
                        Q1015 TEMPO SHRA=
201307292120 METAR COR EGLL 292120Z 21009KT 9999 FEW032 16/15 Q1015 TEMPO
                        SHRA=
201307292050 METAR COR EGLL 292050Z 27012KT 9999 6000NE VCSH SCT030CB
                        SCT040 16/14 Q1015 TEMPO SHRA=
201307292020 METAR COR EGLL 292020Z 24010KT 9999 SCT040CB 17/14 Q1014
                        TEMPO SHRA=
201307291950 METAR COR EGLL 291950Z 22010KT 190V250 9999 FEW040 17/14
                        Q1014 TEMPO SHRA=
201307291920 METAR COR EGLL 291920Z 21010KT 170V250 9999 6000S VCTS -SHRA
                        SCT031CB 17/14 Q1014 TEMPO 4000 +SHRA=
201307291850 METAR COR EGLL 291850Z 24012KT 9999 SCT031CB 18/13 Q1013
                        TEMPO 4000 +SHRA=
201307291820 METAR COR EGLL 291820Z 22014KT 9999 VCSH FEW023 SCT032CB
                        19/15 Q1013 RESHRA TEMPO 4000 TSRA=
201307291750 METAR COR EGLL 291750Z 26010KT 9999 SHRA SCT031CB SCT040
                        19/15 Q1013 TEMPO 4000 TSRA=
201307291720 METAR COR EGLL 291720Z 23016KT 190V260 9999 FEW040 SCT043CB
                        22/13 Q1012 TEMPO 4000 TSRA=
201307291650 METAR COR EGLL 291650Z 22014G25KT 9999 SCT041 SCT047 23/13
                        Q1012 TEMPO 4000 TSRA=
201307291620 METAR COR EGLL 291620Z 23016KT 9999 SCT039 23/13 Q1012 TEMPO
                        4500 TSRA=
201307291550 METAR COR EGLL 291550Z 21015KT 9999 SCT042 24/13 Q1012 NOSIG=
201307291520 METAR COR EGLL 291520Z 22016KT 190V250 9999 SCT040TCU 23/13
                        Q1012 NOSIG=
201307291450 METAR COR EGLL 291450Z 22017KT 9999 SCT035 SCT039TCU 24/13
                        Q1012 NOSIG=
201307291420 METAR COR EGLL 291420Z 23019G30KT 9999 SCT034 SCT039TCU 23/13
                        Q1012 NOSIG=
201307291350 METAR COR EGLL 291350Z 22017KT 9999 SCT043TCU 23/14 Q1011
                        NOSIG=
201307291320 METAR COR EGLL 291320Z 22017KT 9999 SCT037 24/14 Q1011 NOSIG=
201307291250 METAR COR EGLL 291250Z 22019KT 9999 SCT033 24/13 Q1011 TEMPO
                        SHRA=
201307291220 METAR COR EGLL 291220Z 22019KT 9999 FEW030 SCT033 23/14 Q1011
                        TEMPO SHRA=
201307291150 METAR COR EGLL 291150Z 23017KT 9999 SCT028CB SCT033 23/15
                        Q1011 TEMPO SHRA=
201307291120 METAR COR EGLL 291120Z 21013KT 9999 VCSH FEW029CB SCT045
                        22/15 Q1011 TEMPO SHRA=
201307291050 METAR COR EGLL 291050Z 22013KT 180V250 9999 FEW027CB 23/14
                        Q1011 TEMPO SHRA=
201307291020 METAR COR EGLL 291020Z 21011G22KT 180V250 9999 FEW023 FEW027CB
                        22/15 Q1011 TEMPO SHRA=
201307290950 METAR COR EGLL 290950Z 23012KT 9999 VCSH FEW023 SCT027 20/15
                        Q1011 TEMPO SHRA=
201307290920 METAR EGLL 290920Z 23012KT 9999 -SHRA SCT026 SCT035 20/15
                        Q1011=
201307290850 METAR COR EGLL 290850Z 23012KT 9999 SCT020 BKN026 20/15 Q1011
                        TEMPO SHRA=
201307290820 METAR COR EGLL 290820Z 22011KT 9999 FEW019 SCT040 20/15 Q1011
                        NOSIG=
201307290750 METAR COR EGLL 290750Z 23013KT 200V260 9999 SCT016 BKN026
                        19/15 Q1010 NOSIG=
201307290720 METAR COR EGLL 290720Z 22010KT 9999 FEW016 BKN028 19/16 Q1010
                        NOSIG=
201307290650 METAR COR EGLL 290650Z 21009KT 190V250 9999 FEW016 BKN023
                        18/16 Q1010 NOSIG=
201307290620 METAR COR EGLL 290620Z 21008KT 9999 SCT013 BKN023 17/16 Q1010
                        NOSIG=
201307290550 METAR COR EGLL 290550Z 21008KT 180V250 9999 FEW019 BKN024
                        17/16 Q1010 NOSIG=
201307290520 METAR COR EGLL 290520Z 20008KT 180V240 9999 FEW016 16/15
                        Q1010 NOSIG=
201307290450 METAR COR EGLL 290450Z 21006KT 9999 FEW016 SCT034 16/15 Q1009
                        NOSIG=
201307290420 METAR COR EGLL 290420Z 21006KT 180V250 9999 FEW016 16/15
                        Q1009 NOSIG=
201307290350 METAR COR EGLL 290350Z 22007KT 9999 VCSH FEW008 16/15 Q1009
                        TEMPO BKN012=
201307290320 METAR COR EGLL 290320Z 20007KT 9999 FEW010 SCT013 16/15 Q1009
                        TEMPO BKN012=
201307290250 METAR COR EGLL 290250Z 20009KT 9999 FEW009 SCT026 16/16 Q1009
                        NOSIG=
201307290220 METAR COR EGLL 290220Z 19009KT 9999 FEW009 SCT024 16/15 Q1009
                        NOSIG=
201307290150 METAR COR EGLL 290150Z 20010KT 9999 SCT018 17/16 Q1009 NOSIG=
201307290120 METAR EGLL 290120Z AUTO 19008KT 9999 BKN040/// 17/16 Q1009=
201307290050 METAR EGLL 290050Z AUTO 17006KT 9999 FEW019/// SCT030///
                        16/16 Q1009=
201307290020 METAR EGLL 290020Z AUTO 17006KT 9999 SCT047/// 16/16 Q1009=
201307282350 METAR COR EGLL 282350Z 18007KT CAVOK 16/16 Q1009 NOSIG=
201307282320 METAR COR EGLL 282320Z 17008KT CAVOK 16/16 Q1009 NOSIG=
201307282250 METAR COR EGLL 282250Z 17010KT 9999 -SHRA FEW022 16/16 Q1009
                        RESHRA NOSIG=
201307282220 METAR COR EGLL 282220Z 20010KT 170V240 7000 SHRA FEW018 SCT030
                        17/16 Q1008 BECMG NSW=
201307282150 METAR COR EGLL 282150Z 18009KT 140V230 9999 -SHRA SCT045
                        19/15 Q1008 TEMPO SHRA=
201307282120 METAR COR EGLL 282120Z 16012KT 9999 FEW045 19/14 Q1008 TEMPO
                        SHRA=
201307282050 METAR COR EGLL 282050Z 15009KT 9999 FEW044 19/14 Q1008 TEMPO
                        SHRA=
201307282020 METAR COR EGLL 282020Z 15010KT 9999 FEW046 20/14 Q1008 NOSIG=
201307281950 METAR COR EGLL 281950Z 15008KT CAVOK 20/14 Q1008 NOSIG=
201307281920 METAR COR EGLL 281920Z 15010KT 120V180 9999 FEW048 21/14
                        Q1008 NOSIG=
201307281850 METAR COR EGLL 281850Z 18011KT 9999 FEW047 21/13 Q1008 NOSIG=
201307281820 METAR COR EGLL 281820Z 17011KT 120V210 9999 FEW047 21/13
                        Q1008 NOSIG=
201307281750 METAR COR EGLL 281750Z 19013KT 170V230 9999 FEW047 21/13
                        Q1008 NOSIG=
201307281720 METAR COR EGLL 281720Z 20014KT 9999 FEW042 22/13 Q1008 NOSIG=
201307281650 METAR COR EGLL 281650Z 19013G24KT 170V230 9999 FEW038 22/13
                        Q1008 TEMPO SHRA=
201307281620 METAR COR EGLL 281620Z 20015KT 9999 FEW035 23/13 Q1008 NOSIG=
201307281550 METAR COR EGLL 281550Z 19016KT 9999 FEW036 23/14 Q1008 NOSIG=
201307281520 METAR COR EGLL 281520Z 22012KT 9999 SCT038 20/15 Q1008 NOSIG=
201307281450 METAR COR EGLL 281450Z 23015KT 9999 -SHRA FEW023 SCT041 21/16
                        Q1008 RESHRA TEMPO SHRA=
201307281420 METAR COR EGLL 281420Z 22013KT 190V250 9999 VCSH SCT042 23/13
                        Q1008 TEMPO SHRA=
201307281350 METAR COR EGLL 281350Z 20013KT 170V240 9999 FEW047 24/12
                        Q1008 NOSIG=
201307281320 METAR COR EGLL 281320Z 20014KT 170V250 9999 SCT046 24/12
                        Q1008 NOSIG=
201307281250 METAR COR EGLL 281250Z 20016KT 180V240 9999 SCT040 SCT044
                        24/13 Q1007 NOSIG=
201307281220 METAR COR EGLL 281220Z 21016KT 180V250 9999 SCT040 24/13
                        Q1007 NOSIG=
201307281150 METAR COR EGLL 281150Z 20014KT 180V240 9999 SCT040 SCT048
                        24/12 Q1007 NOSIG=
201307281120 METAR COR EGLL 281120Z 23016KT 190V260 9999 SCT037 24/13
                        Q1007 NOSIG=
201307281050 METAR COR EGLL 281050Z 22013KT 190V250 9999 SCT036 23/13
                        Q1007 NOSIG=
201307281020 METAR COR EGLL 281020Z 23015KT 200V270 9999 SCT032 SCT045
                        23/14 Q1007 NOSIG=
201307280950 METAR COR EGLL 280950Z 22013KT 9999 FEW028 SCT041 21/14 Q1007
                        NOSIG=
201307280920 METAR COR EGLL 280920Z 25014KT 9999 SCT024 SCT031 21/14 Q1007
                        NOSIG=
201307280850 METAR COR EGLL 280850Z 22013KT 9999 SCT026 BKN033 20/14 Q1007
                        NOSIG=
201307280820 METAR COR EGLL 280820Z 24014KT 9999 SCT018 BKN024 19/15 Q1007
                        NOSIG=
201307280750 METAR COR EGLL 280750Z 23014KT 9999 BKN019 19/15 Q1007 NOSIG=
201307280720 METAR COR EGLL 280720Z 24014KT 9999 SCT012 SCT017 18/15 Q1007
                        TEMPO BKN014=
201307280650 METAR COR EGLL 280650Z 24014KT 9999 FEW012 17/15 Q1006 NOSIG=
201307280620 METAR COR EGLL 280620Z 23014KT 9999 FEW010 16/14 Q1006 NOSIG=
201307280550 METAR COR EGLL 280550Z 24012KT 9999 SCT010 16/14 Q1006 NOSIG=
201307280520 METAR COR EGLL 280520Z 25014KT 9999 SCT008 SCT010 15/14 Q1006
                        TEMPO BKN010=
201307280450 METAR COR EGLL 280450Z 22012KT 9999 BKN008 15/14 Q1005 BECMG
                        SCT015=
201307280420 METAR COR EGLL 280420Z 21010KT 9999 FEW009 15/14 Q1005 NOSIG=
201307280350 METAR COR EGLL 280350Z 23014KT 9999 FEW009 15/14 Q1005 NOSIG=
201307280320 METAR COR EGLL 280320Z 23013KT 9999 SCT009 16/15 Q1005 NOSIG=
201307280250 METAR COR EGLL 280250Z 24012KT 9999 BKN010 16/15 Q1004 BECMG
                        SCT012=
201307280220 METAR COR EGLL 280220Z 23012KT 9999 SCT008 16/15 Q1004 NOSIG=
201307280150 METAR EGLL 280150Z AUTO 24010KT 9999 FEW011/// SCT037///
                        BKN043/// 16/16 Q1004=
201307280120 METAR EGLL 280120Z AUTO 27011KT 9999 BKN009/// 16/16 Q1003=
201307280050 METAR EGLL 280050Z AUTO 25010KT 9999 SCT004/// BKN010///
                        17/16 Q1003=
201307280020 METAR COR EGLL 280020Z 25012KT 2900 -DZ BKN004 17/16 Q1003
                        BECMG 6000 SCT010=
201307272350 METAR COR EGLL 272350Z 24010KT 9000 BKN005 BKN012 17/16 Q1003
                        BECMG BKN012=
201307272320 METAR COR EGLL 272320Z 25010KT 9999 FEW006 BKN012 17/16 Q1003
                        BECMG SCT015=
201307272250 METAR COR EGLL 272250Z 26009KT 8000 -RA FEW005 BKN008 17/16
                        Q1002 BECMG SCT012=
201307272220 METAR COR EGLL 272220Z 28006KT 9999 8000S -RA FEW008 BKN025
                        17/16 Q1002 NOSIG=
201307272150 METAR COR EGLL 272150Z 29006KT 9999 SCT007 BKN022 17/17 Q1002
                        NOSIG=
201307272120 METAR COR EGLL 272120Z VRB03KT 9000 -DZ SCT007 BKN021 17/17
                        Q1002 NOSIG=
201307272050 METAR COR EGLL 272050Z 30003KT 9999 -RA SCT021 SCT028 17/17
                        Q1002 RERA NOSIG=
201307272020 METAR COR EGLL 272020Z 31005KT 9999 RA FEW006 BKN020 17/17
                        Q1002 BECMG -RA=
201307271950 METAR COR EGLL 271950Z 31006KT 6000 RA FEW006 BKN020 17/17
                        Q1002 TEMPO BKN012=
201307271920 METAR COR EGLL 271920Z 30006KT 8000 RA VCTS BKN015CB 17/17
                        Q1003 TEMPO 4500 +RA TSRA BKN014=
201307271850 METAR COR EGLL 271850Z 28012KT 9000 SHRA SCT015 SCT020 18/16
                        Q1003 TEMPO 4000 +RA=
201307271820 METAR COR EGLL 271820Z 19008KT 9999 -SHRA FEW042 22/19 Q1003
                        TEMPO 4000 +RA=
201307271750 METAR COR EGLL 271750Z 17008KT CAVOK 22/18 Q1003 TEMPO 3000
                        TSRA=
201307271720 METAR COR EGLL 271720Z 19006KT CAVOK 22/18 Q1003 TEMPO 3000
                        TSRA=
201307271650 METAR COR EGLL 271650Z 17008KT 140V200 CAVOK 23/17 Q1003
                        TEMPO 3000 TSRA=
201307271620 METAR COR EGLL 271620Z 12006KT 9999 FEW024 23/17 Q1004 NOSIG=
201307271550 METAR COR EGLL 271550Z 14010KT 9999 -SHRA FEW022 23/17 Q1004
                        NOSIG=
201307271520 METAR COR EGLL 271520Z 11013KT 9999 FEW049 27/15 Q1004 NOSIG=
201307271450 METAR COR EGLL 271450Z 11007KT 070V150 CAVOK 28/12 Q1004
                        TEMPO 4500 RA=
201307271420 METAR EGLL 271420Z 10007KT CAVOK 28/12 Q1005=
201307271350 METAR COR EGLL 271350Z VRB03KT CAVOK 29/11 Q1006 NOSIG=
201307271320 METAR COR EGLL 271320Z 09005KT 360V160 CAVOK 27/10 Q1006
                        NOSIG=
201307271250 METAR COR EGLL 271250Z 12006KT 050V190 CAVOK 28/10 Q1006
                        NOSIG=
201307271220 METAR COR EGLL 271220Z VRB05KT CAVOK 27/10 Q1006 NOSIG=
201307271150 METAR COR EGLL 271150Z 14006KT 070V190 CAVOK 26/09 Q1007
                        NOSIG=
201307271120 METAR COR EGLL 271120Z VRB04KT CAVOK 26/09 Q1007 NOSIG=
201307271050 METAR COR EGLL 271050Z VRB03KT CAVOK 26/09 Q1007 NOSIG=
201307271020 METAR COR EGLL 271020Z 08004KT 030V140 CAVOK 24/10 Q1007
                        NOSIG=
201307270950 METAR COR EGLL 270950Z VRB03KT CAVOK 23/10 Q1007 NOSIG=
201307270920 METAR COR EGLL 270920Z VRB02KT CAVOK 23/12 Q1008 NOSIG=
201307270850 METAR COR EGLL 270850Z VRB02KT CAVOK 21/13 Q1008 NOSIG=
201307270820 METAR COR EGLL 270820Z VRB03KT CAVOK 20/13 Q1008 NOSIG=
201307270750 METAR COR EGLL 270750Z VRB03KT CAVOK 18/13 Q1008 NOSIG=
201307270720 METAR COR EGLL 270720Z 31004KT CAVOK 16/13 Q1008 NOSIG=
201307270650 METAR COR EGLL 270650Z VRB03KT CAVOK 16/12 Q1009 NOSIG=
201307270620 METAR COR EGLL 270620Z VRB02KT CAVOK 15/12 Q1009 NOSIG=
201307270550 METAR COR EGLL 270550Z VRB02KT CAVOK 15/12 Q1009 NOSIG=
201307270520 METAR COR EGLL 270520Z 00000KT CAVOK 15/12 Q1009 NOSIG=
201307270450 METAR COR EGLL 270450Z 32003KT CAVOK 14/12 Q1009 NOSIG=
201307270420 METAR EGLL 270420Z 00000KT CAVOK 14/12 Q1009=
201307270350 METAR COR EGLL 270350Z 19002KT CAVOK 15/12 Q1010 NOSIG=
201307270320 METAR COR EGLL 270320Z 18003KT CAVOK 15/12 Q1010 NOSIG=
201307270250 METAR COR EGLL 270250Z 20002KT CAVOK 15/12 Q1010 NOSIG=
201307270220 METAR COR EGLL 270220Z 00000KT CAVOK 15/12 Q1010 NOSIG=
201307270150 METAR EGLL 270150Z AUTO 24002KT 9999 NCD 16/11 Q1010=
201307270120 METAR EGLL 270120Z AUTO 23004KT 9999 NCD 16/12 Q1011=
201307270050 METAR EGLL 270050Z AUTO 20004KT 9999 NCD 17/12 Q1011=
201307270020 METAR COR EGLL 270020Z 27005KT CAVOK 16/11 Q1011 NOSIG=
201307262350 METAR COR EGLL 262350Z 27006KT CAVOK 17/11 Q1011 NOSIG=
201307262320 METAR COR EGLL 262320Z 25005KT CAVOK 17/11 Q1011 NOSIG=
201307262250 METAR COR EGLL 262250Z 23005KT 9999 FEW048 17/11 Q1011 NOSIG=
201307262220 METAR COR EGLL 262220Z 25006KT CAVOK 18/11 Q1011 NOSIG=
201307262150 METAR COR EGLL 262150Z 23007KT CAVOK 19/10 Q1012 NOSIG=
201307262120 METAR COR EGLL 262120Z 23008KT CAVOK 20/10 Q1012 NOSIG=
201307262050 METAR COR EGLL 262050Z 22009KT CAVOK 22/11 Q1012 NOSIG=
201307262020 METAR COR EGLL 262020Z 22007KT CAVOK 22/11 Q1011 NOSIG=
201307261950 METAR COR EGLL 261950Z 24008KT 200V260 CAVOK 22/11 Q1011
                        NOSIG=
201307261920 METAR COR EGLL 261920Z 23010KT CAVOK 24/11 Q1011 NOSIG=
201307261850 METAR COR EGLL 261850Z 24008KT CAVOK 24/12 Q1011 NOSIG=
201307261820 METAR COR EGLL 261820Z 24009KT CAVOK 25/12 Q1011 NOSIG=
201307261750 METAR COR EGLL 261750Z 25008KT 190V280 CAVOK 25/12 Q1011
                        NOSIG=
201307261720 METAR COR EGLL 261720Z 23006KT 190V270 CAVOK 26/12 Q1011
                        NOSIG=
201307261650 METAR COR EGLL 261650Z 21009G19KT 190V250 CAVOK 25/13 Q1011
                        NOSIG=
201307261620 METAR COR EGLL 261620Z 20008KT 170V250 CAVOK 27/13 Q1011
                        NOSIG=
201307261550 METAR COR EGLL 261550Z 23006KT 140V290 CAVOK 25/13 Q1011
                        NOSIG=
201307261520 METAR COR EGLL 261520Z VRB05KT CAVOK 26/13 Q1011 NOSIG=
201307261450 METAR COR EGLL 261450Z 21005KT 090V260 9999 FEW049 25/13
                        Q1011 NOSIG=
201307261420 METAR COR EGLL 261420Z 27005KT 210V340 CAVOK 26/13 Q1012
                        NOSIG=
201307261350 METAR COR EGLL 261350Z VRB06KT 9999 FEW049 25/13 Q1012 NOSIG=
201307261320 METAR COR EGLL 261320Z 17005KT 110V280 9999 SCT049 25/13
                        Q1012 NOSIG=
201307261250 METAR COR EGLL 261250Z 25009KT 200V310 9999 SCT046 26/13
                        Q1012 NOSIG=
201307261220 METAR COR EGLL 261220Z VRB05KT 9999 SCT049 25/12 Q1012 NOSIG=
201307261150 METAR COR EGLL 261150Z VRB05KT 9999 BKN046 24/11 Q1012 NOSIG=
201307261120 METAR COR EGLL 261120Z 23006KT 120V290 9999 BKN047 24/11
                        Q1013 NOSIG=
201307261050 METAR COR EGLL 261050Z VRB05KT 9999 BKN048 22/12 Q1013 NOSIG=
201307261020 METAR COR EGLL 261020Z 18005KT 150V240 9999 FEW049 22/12
                        Q1013 NOSIG=
201307260950 METAR COR EGLL 260950Z 22005KT 170V290 9999 SCT049 22/12
                        Q1013 NOSIG=
201307260920 METAR COR EGLL 260920Z VRB04KT CAVOK 21/14 Q1013 NOSIG=
201307260850 METAR COR EGLL 260850Z 26004KT 200V350 CAVOK 20/14 Q1013
                        NOSIG=
201307260820 METAR COR EGLL 260820Z VRB05KT CAVOK 20/14 Q1013 NOSIG=
201307260750 METAR COR EGLL 260750Z VRB03KT CAVOK 18/15 Q1013 NOSIG=
201307260720 METAR COR EGLL 260720Z 23005KT CAVOK 18/15 Q1013 NOSIG=
201307260650 METAR COR EGLL 260650Z VRB05KT CAVOK 17/14 Q1013 NOSIG=
201307260620 METAR COR EGLL 260620Z 21005KT 170V250 CAVOK 16/14 Q1013
                        NOSIG=
201307260550 METAR COR EGLL 260550Z 27004KT CAVOK 16/14 Q1013 NOSIG=
201307260520 METAR COR EGLL 260520Z 25005KT 210V280 CAVOK 15/14 Q1013
                        NOSIG=
201307260450 METAR COR EGLL 260450Z 19004KT 160V260 CAVOK 14/13 Q1013
                        NOSIG=
201307260420 METAR COR EGLL 260420Z VRB03KT CAVOK 14/13 Q1013 NOSIG=
201307260350 METAR COR EGLL 260350Z 27004KT CAVOK 13/12 Q1013 NOSIG=
201307260320 METAR EGLL 260320Z 23006KT CAVOK 14/13 Q1013=
201307260250 METAR COR EGLL 260250Z 23007KT CAVOK 14/13 Q1013 NOSIG=
201307260220 METAR EGLL 260220Z AUTO 21005KT 9999 NCD 15/14 Q1013=
201307260150 METAR EGLL 260150Z AUTO 22007KT 9999 NCD 14/13 Q1013=
201307260120 METAR EGLL 260120Z AUTO 22005KT 9999 NCD 16/13 Q1013=
201307260050 METAR COR EGLL 260050Z 21006KT CAVOK 16/13 Q1013 NOSIG=
201307260020 METAR EGLL 260020Z 22005KT CAVOK 16/13 Q1013=
201307252350 METAR COR EGLL 252350Z 21004KT 180V250 CAVOK 15/13 Q1013
                        NOSIG=
201307252320 METAR EGLL 252320Z 25005KT CAVOK 16/13 Q1014=
201307252250 METAR COR EGLL 252250Z 21006KT CAVOK 17/13 Q1014 NOSIG=
201307252220 METAR COR EGLL 252220Z 21009KT 180V250 CAVOK 18/14 Q1013
                        NOSIG=
201307252150 METAR COR EGLL 252150Z 22008KT 180V250 CAVOK 18/14 Q1013
                        NOSIG=
201307252120 METAR COR EGLL 252120Z 22009KT CAVOK 19/14 Q1013 NOSIG=
201307252050 METAR COR EGLL 252050Z 21007KT CAVOK 20/15 Q1013 NOSIG=
201307252020 METAR COR EGLL 252020Z 22007KT CAVOK 20/15 Q1013 NOSIG=
201307251950 METAR COR EGLL 251950Z 22009KT CAVOK 20/15 Q1013 NOSIG=
201307251920 METAR COR EGLL 251920Z 21009KT 9999 FEW034 21/15 Q1013 NOSIG=
201307251850 METAR COR EGLL 251850Z 22011KT 9999 FEW034 22/14 Q1013 NOSIG=
201307251820 METAR COR EGLL 251820Z 23012KT 9999 FEW034 23/15 Q1012 NOSIG=
201307251750 METAR COR EGLL 251750Z 23011KT 190V250 9999 FEW045 23/15
                        Q1012 NOSIG=
201307251720 METAR COR EGLL 251720Z 23013KT 9999 FEW045 24/14 Q1012 NOSIG=
201307251650 METAR COR EGLL 251650Z 22012KT 9999 FEW045 25/14 Q1012 NOSIG=
201307251620 METAR COR EGLL 251620Z 23012KT 180V260 9999 FEW047 26/13
                        Q1012 NOSIG=
201307251550 METAR COR EGLL 251550Z 21013KT 9999 FEW049 26/13 Q1012 NOSIG=
201307251520 METAR COR EGLL 251520Z 22012KT 190V250 9999 FEW044 26/14
                        Q1012 NOSIG=
201307251450 METAR COR EGLL 251450Z 20012KT 170V250 9999 FEW037 25/14
                        Q1012 NOSIG=
201307251420 METAR COR EGLL 251420Z 19013KT 9999 FEW027 25/15 Q1012 NOSIG=
201307251350 METAR COR EGLL 251350Z 21012KT 180V240 9999 SCT024 26/17
                        Q1012 NOSIG=
201307251320 METAR COR EGLL 251320Z 18012KT 160V220 9999 FEW023 SCT037
                        25/17 Q1012 NOSIG=
201307251250 METAR COR EGLL 251250Z 20012KT 170V240 9999 FEW027 24/17
                        Q1012 NOSIG=
201307251220 METAR COR EGLL 251220Z 19012KT 150V240 9999 FEW025 24/18
                        Q1012 NOSIG=
201307251150 METAR COR EGLL 251150Z 20010KT 160V250 9999 SCT023 23/17
                        Q1012 NOSIG=
201307251120 METAR COR EGLL 251120Z 20010KT 160V240 9999 FEW023 SCT028
                        23/18 Q1012 NOSIG=
201307251050 METAR COR EGLL 251050Z 20009KT 140V260 9999 FEW018 SCT024
                        23/18 Q1013 NOSIG=
201307251020 METAR COR EGLL 251020Z 21008KT 170V260 9999 FEW014 BKN024
                        22/18 Q1013 NOSIG=
201307250950 METAR COR EGLL 250950Z 23009KT 160V260 9999 FEW014 SCT017
                        21/18 Q1013 NOSIG=
201307250920 METAR COR EGLL 250920Z 20007KT 150V260 9999 FEW019 BKN026
                        21/18 Q1013 NOSIG=
201307250850 METAR COR EGLL 250850Z 20008KT 150V250 9999 BKN012 20/17
                        Q1013 BECMG SCT018=
201307250820 METAR COR EGLL 250820Z 21006KT 170V260 9999 BKN012 19/17
                        Q1013 NOSIG=
201307250750 METAR COR EGLL 250750Z 23007KT 200V260 9999 BKN012 19/17
                        Q1013 NOSIG=
201307250720 METAR COR EGLL 250720Z 20006KT 130V230 9999 SCT015 BKN035
                        19/17 Q1012 TEMPO BKN012=
201307250650 METAR COR EGLL 250650Z 18006KT 140V220 9999 FEW009 BKN035
                        18/17 Q1012 TEMPO BKN012=
201307250620 METAR COR EGLL 250620Z 15006KT 110V220 9999 FEW016 SCT038
                        18/17 Q1012 TEMPO BKN012=
201307250550 METAR COR EGLL 250550Z VRB06KT 9999 FEW016 17/16 Q1013 TEMPO
                        BKN012=
201307250520 METAR COR EGLL 250520Z 13005KT 090V170 9999 FEW048 17/16
                        Q1013 TEMPO BKN012=
201307250450 METAR COR EGLL 250450Z 12004KT 090V160 9999 FEW007 BKN022
                        17/16 Q1013 TEMPO BKN012=
201307250420 METAR COR EGLL 250420Z VRB02KT 9999 FEW007 SCT017 BKN026
                        17/16 Q1013 TEMPO 4000 RADZ BKN010=
201307250350 METAR COR EGLL 250350Z 17004KT 130V210 6000 -RA FEW005 SCT010
                        BKN023 17/16 Q1013 RERA TEMPO 4000
                        RADZ BKN010=
201307250320 METAR COR EGLL 250320Z 16005KT 3500 +RA FEW014 BKN032 18/17
                        Q1013 BECMG 6000 RA=
201307250250 METAR COR EGLL 250250Z VRB02KT 9999 -RA BKN048 18/16 Q1013
                        TEMPO RA=
201307250220 METAR EGLL 250220Z AUTO VRB02KT 9999 BKN045/// 18/16 Q1013=
201307250150 METAR EGLL 250150Z AUTO VRB02KT 9999 -RA SCT044/// 18/16
                        Q1013=
201307250120 METAR EGLL 250120Z AUTO 22004KT 9999 -DZ SCT049/// 18/16
                        Q1014=
201307250050 METAR COR EGLL 250050Z 21004KT CAVOK 18/16 Q1014 NOSIG=
201307250020 METAR COR EGLL 250020Z 19006KT 170V240 CAVOK 18/16 Q1014
                        NOSIG=
201307242350 METAR COR EGLL 242350Z 19007KT CAVOK 19/16 Q1014 NOSIG=
201307242320 METAR COR EGLL 242320Z 18005KT CAVOK 19/15 Q1014 NOSIG=
201307242250 METAR COR EGLL 242250Z 19004KT CAVOK 19/15 Q1014 NOSIG=
201307242220 METAR COR EGLL 242220Z 21006KT 170V250 CAVOK 20/14 Q1014
                        NOSIG=
201307242150 METAR COR EGLL 242150Z 22008G18KT 190V260 CAVOK 20/15 Q1014
                        NOSIG=
201307242120 METAR COR EGLL 242120Z 21007KT CAVOK 20/15 Q1014 NOSIG=
201307242050 METAR COR EGLL 242050Z 21008KT 170V240 CAVOK 21/15 Q1014
                        NOSIG=
201307242020 METAR COR EGLL 242020Z 21008KT 180V240 CAVOK 21/15 Q1014
                        NOSIG=
201307241950 METAR COR EGLL 241950Z 23010KT CAVOK 22/15 Q1014 NOSIG=
201307241920 METAR COR EGLL 241920Z 23010KT CAVOK 23/14 Q1013 NOSIG=
201307241850 METAR COR EGLL 241850Z 22011KT 9999 FEW036 23/15 Q1013 NOSIG=
201307241820 METAR COR EGLL 241820Z 24012KT 9999 FEW040 24/15 Q1013 NOSIG=
201307241750 METAR COR EGLL 241750Z 23012KT 9999 FEW041 25/15 Q1013 NOSIG=
201307241720 METAR COR EGLL 241720Z 23011KT 200V260 9999 FEW044 25/14
                        Q1013 NOSIG=
201307241650 METAR COR EGLL 241650Z 21010KT 170V250 9999 FEW042 26/14
                        Q1014 NOSIG=
201307241620 METAR COR EGLL 241620Z 22012KT 190V260 9999 FEW044 26/14
                        Q1014 NOSIG=
201307241550 METAR COR EGLL 241550Z 23014KT 9999 SCT047 27/14 Q1014 NOSIG=
201307241520 METAR COR EGLL 241520Z 24014KT 9999 BKN047 26/14 Q1014 NOSIG=
201307241450 METAR COR EGLL 241450Z 23011KT 200V260 9999 FEW046 27/14
                        Q1014 NOSIG=
201307241420 METAR COR EGLL 241420Z 23011KT 200V260 9999 FEW049 26/13
                        Q1014 NOSIG=
201307241350 METAR COR EGLL 241350Z 23013G24KT 190V260 CAVOK 27/12 Q1014
                        NOSIG=
201307241320 METAR COR EGLL 241320Z 25011KT 210V300 9999 SCT045 27/12
                        Q1014 NOSIG=
201307241250 METAR COR EGLL 241250Z 23007KT 160V270 9999 FEW045 26/13
                        Q1014 NOSIG=
201307241220 METAR COR EGLL 241220Z 23007KT 190V270 9999 FEW039 26/13
                        Q1014 NOSIG=
201307241150 METAR COR EGLL 241150Z 24008KT 200V290 9999 FEW035 24/14
                        Q1015 NOSIG=
201307241120 METAR COR EGLL 241120Z 24007KT 190V290 9999 FEW030 24/15
                        Q1015 NOSIG=
201307241050 METAR COR EGLL 241050Z 25007KT 210V330 9999 FEW026 22/15
                        Q1015 NOSIG=
201307241020 METAR COR EGLL 241020Z 24008KT 200V300 9999 FEW020 21/15
                        Q1015 NOSIG=
201307240950 METAR COR EGLL 240950Z 23009KT 190V260 9999 FEW017 20/15
                        Q1015 NOSIG=
201307240920 METAR COR EGLL 240920Z 27009KT 230V300 CAVOK 19/15 Q1015
                        NOSIG=
201307240850 METAR EGLL 240850Z 25009G20KT 220V280 9999 FEW013 19/15 Q1015=
201307240820 METAR COR EGLL 240820Z 26007KT 230V300 CAVOK 18/15 Q1015
                        NOSIG=
201307240750 METAR COR EGLL 240750Z 28007KT CAVOK 18/15 Q1015 NOSIG=
201307240720 METAR COR EGLL 240720Z 28007KT CAVOK 18/15 Q1015 NOSIG=
201307240650 METAR COR EGLL 240650Z 28005KT CAVOK 17/14 Q1015 NOSIG=
201307240620 METAR COR EGLL 240620Z 28004KT CAVOK 17/14 Q1015 NOSIG=
201307240550 METAR COR EGLL 240550Z 25005KT 210V290 CAVOK 16/14 Q1015
                        NOSIG=
201307240520 METAR COR EGLL 240520Z 25006KT 210V280 CAVOK 16/14 Q1015
                        NOSIG=
201307240450 METAR COR EGLL 240450Z 25006KT CAVOK 15/14 Q1015 NOSIG=
201307240420 METAR COR EGLL 240420Z 27005KT 230V290 CAVOK 14/13 Q1014
                        NOSIG=
201307240350 METAR COR EGLL 240350Z 25005KT CAVOK 15/13 Q1014 NOSIG=
201307240320 METAR COR EGLL 240320Z 24005KT CAVOK 15/13 Q1014 NOSIG=
201307240250 METAR COR EGLL 240250Z 24007KT 9999 FEW040 15/14 Q1014 NOSIG=
201307240220 METAR COR EGLL 240220Z 25007KT 9999 FEW040 16/14 Q1014 NOSIG=
201307240150 METAR COR EGLL 240150Z 23007KT 9999 FEW036 SCT044 17/14 Q1014
                        NOSIG=
201307240120 METAR EGLL 240120Z AUTO 22005KT 9999 BKN032/// 17/14 Q1014=
201307240050 METAR EGLL 240050Z AUTO 23005KT 9999 FEW034/// 17/14 Q1014=
201307240020 METAR EGLL 240020Z AUTO 22007KT 9999 NCD 17/15 Q1014=
201307232350 METAR COR EGLL 232350Z 23008KT CAVOK 18/15 Q1014 NOSIG=
201307232320 METAR COR EGLL 232320Z 22007KT CAVOK 18/15 Q1014 NOSIG=
201307232250 METAR COR EGLL 232250Z 22007KT CAVOK 19/15 Q1014 NOSIG=
201307232220 METAR COR EGLL 232220Z 23008KT 200V260 CAVOK 19/15 Q1013
                        NOSIG=
201307232150 METAR COR EGLL 232150Z 24009KT 210V270 CAVOK 20/15 Q1013
                        NOSIG=
201307232120 METAR COR EGLL 232120Z 25008KT CAVOK 20/16 Q1013 NOSIG=
201307232050 METAR COR EGLL 232050Z 25009KT CAVOK 20/15 Q1013 NOSIG=
201307232020 METAR COR EGLL 232020Z 23011KT CAVOK 22/15 Q1013 NOSIG=
201307231950 METAR COR EGLL 231950Z 20008KT CAVOK 23/16 Q1013 NOSIG=
201307231920 METAR COR EGLL 231920Z 23010KT CAVOK 23/16 Q1013 NOSIG=
201307231850 METAR COR EGLL 231850Z 21009KT 180V250 CAVOK 24/16 Q1013
                        NOSIG=
201307231820 METAR COR EGLL 231820Z 21009KT 180V260 CAVOK 25/17 Q1013
                        NOSIG=
201307231750 METAR COR EGLL 231750Z 22010KT CAVOK 26/17 Q1013 NOSIG=
201307231720 METAR COR EGLL 231720Z 17009KT 130V220 CAVOK 26/18 Q1012
                        NOSIG=
201307231650 METAR COR EGLL 231650Z 17009KT 120V200 CAVOK 26/18 Q1012
                        NOSIG=
201307231620 METAR COR EGLL 231620Z 16009KT 120V200 CAVOK 26/17 Q1012
                        TEMPO SHRA=
201307231550 METAR COR EGLL 231550Z 18009KT 130V230 CAVOK 26/17 Q1012
                        NOSIG=
201307231520 METAR COR EGLL 231520Z 17009KT 140V200 9999 FEW041 27/17
                        Q1012 TEMPO SHRA=
201307231450 METAR COR EGLL 231450Z 15012KT 9999 FEW038 28/17 Q1012 TEMPO
                        TSRA=
201307231420 METAR COR EGLL 231420Z 15008KT 090V180 9999 SCT037 30/17
                        Q1012 TEMPO TSRA=
201307231350 METAR COR EGLL 231350Z 16007KT 100V260 9999 SCT036 29/17
                        Q1013 NOSIG=
201307231320 METAR COR EGLL 231320Z 16006KT 110V230 9999 SCT031 28/19
                        Q1013 NOSIG=
201307231250 METAR EGLL 231250Z 19007KT 150V270 9999 SCT031 27/18 Q1013=
201307231220 METAR EGLL 231220Z VRB05KT 9999 FEW028 27/19 Q1013=
201307231150 METAR COR EGLL 231150Z 16006KT 090V220 9999 FEW024 26/19
                        Q1013 NOSIG=
201307231120 METAR COR EGLL 231120Z 17006KT 130V250 9999 FEW024CB 25/19
                        Q1013 TEMPO SHRA=
201307231050 METAR COR EGLL 231050Z 16006KT 120V230 9999 VCTS FEW010CB
                        BKN048 25/20 Q1013 RETS TEMPO SHRA=
201307231020 METAR COR EGLL 231020Z 19006KT 140V260 9999 4000E TSRA SCT011CB
                        24/19 Q1013 BECMG NSW=
201307230950 METAR COR EGLL 230950Z 11007KT 070V180 9999 FEW032CB 26/18
                        Q1013 TEMPO 4500 +TSRA=
201307230920 METAR COR EGLL 230920Z 13007KT 090V240 9999 FEW032 25/18
                        Q1013 TEMPO TSRA=
201307230850 METAR COR EGLL 230850Z 15007KT 100V220 9999 FEW010 25/17
                        Q1013 TEMPO TSRA=
201307230820 METAR COR EGLL 230820Z VRB05KT 9999 FEW010CB 24/17 Q1013
                        TEMPO SHRA=
201307230750 METAR COR EGLL 230750Z 10008KT 070V140 9999 FEW010CB 23/19
                        Q1013 TEMPO SHRA=
201307230720 METAR COR EGLL 230720Z 07006KT 9999 FEW010CB 22/19 Q1013
                        TEMPO SHRA=
201307230650 METAR COR EGLL 230650Z 07005KT 9999 FEW010CB 22/18 Q1014
                        TEMPO SHRA=
201307230620 METAR COR EGLL 230620Z 02004KT 330V060 9999 FEW010 22/18
                        Q1013 TEMPO TSRA=
201307230550 METAR COR EGLL 230550Z 03004KT 340V070 9999 FEW010 21/18
                        Q1013 TEMPO TSRA=
201307230520 METAR COR EGLL 230520Z VRB03KT 9999 SCT084CB 20/18 Q1014
                        TEMPO TSRA=
201307230450 METAR COR EGLL 230450Z 25006KT 210V280 9999 VCTS SCT084CB
                        21/18 Q1013 TEMPO TSRA=
201307230420 METAR COR EGLL 230420Z VRB02KT 9999 VCTS SCT076CB 22/17 Q1013
                        TEMPO TSRA=
201307230350 METAR COR EGLL 230350Z 12005KT 9999 VCTS SCT077CB 21/17 Q1013
                        RETS TEMPO TSRA=
201307230320 METAR COR EGLL 230320Z 09005KT 9999 -TSRA FEW030CB 21/18
                        Q1013 TEMPO NSW=
201307230250 METAR COR EGLL 230250Z 16004KT 9999 VCTS SCT070CB 22/17 Q1014
                        TEMPO 4000 TSRA BKN045CB=
201307230220 METAR COR EGLL 230220Z 16004KT CAVOK 22/17 Q1013 TEMPO TSRA
                        BKN045CB=
201307230150 METAR COR EGLL 230150Z 00000KT 9999 VCTS FEW064CB 22/16 Q1013
                        TEMPO NSW=
201307230120 METAR EGLL 230120Z AUTO 09004KT 9999 NCD 22/16 Q1013=
201307230050 METAR EGLL 230050Z AUTO VRB03KT 9999 NCD 23/16 Q1014=
201307230020 METAR EGLL 230020Z AUTO 15002KT 9999 NCD 22/17 Q1014=
201307222350 METAR COR EGLL 222350Z 00000KT 9999 VCTS NSC 23/17 Q1015
                        NOSIG=
201307222320 METAR COR EGLL 222320Z 16004KT 9999 VCTS NSC 23/17 Q1015
                        TEMPO TSRA BKN045CB=
201307222250 METAR COR EGLL 222250Z 17004KT 140V280 CAVOK 23/17 Q1014
                        TEMPO TSRA BKN045CB=
201307222220 METAR COR EGLL 222220Z 20005KT 170V260 CAVOK 24/17 Q1014
                        TEMPO TSRA BKN035CB=
201307222150 METAR COR EGLL 222150Z 22007KT 180V250 CAVOK 25/16 Q1015
                        TEMPO TSRA BKN045CB=
201307222120 METAR COR EGLL 222120Z 20006KT 160V220 CAVOK 25/16 Q1015
                        NOSIG=
201307222050 METAR COR EGLL 222050Z 20008KT 180V240 CAVOK 25/16 Q1015
                        NOSIG=
201307222020 METAR COR EGLL 222020Z 21008KT 180V250 9999 FEW010 26/16
                        Q1015 NOSIG=
201307221950 METAR COR EGLL 221950Z 21007KT 180V270 9999 FEW010CB 26/16
                        Q1015 TEMPO 5000 TSRA BKN045CB=
201307221920 METAR COR EGLL 221920Z 20008KT 9999 FEW010CB 27/15 Q1015
                        TEMPO 5000 TSRA BKN045CB=
201307221850 METAR COR EGLL 221850Z 20010KT CAVOK 28/15 Q1014 TEMPO 5000
                        TSRA BKN045CB=
201307221820 METAR COR EGLL 221820Z 21010KT 170V240 CAVOK 29/15 Q1014
                        TEMPO 5000 TSRA BKN045CB=
201307221750 METAR COR EGLL 221750Z 20010KT 170V240 CAVOK 30/15 Q1014
                        NOSIG=
201307221720 METAR COR EGLL 221720Z 18009KT 140V240 CAVOK 31/14 Q1014
                        NOSIG=
201307221650 METAR COR EGLL 221650Z 20009KT 170V240 CAVOK 31/14 Q1014
                        NOSIG=
201307221620 METAR COR EGLL 221620Z 20010KT 180V240 CAVOK 32/13 Q1014
                        NOSIG=
201307221550 METAR COR EGLL 221550Z 19009G21KT 160V230 CAVOK 33/14 Q1014
                        NOSIG=
201307221520 METAR COR EGLL 221520Z 21011KT 180V240 CAVOK 32/15 Q1014
                        NOSIG=
201307221450 METAR COR EGLL 221450Z 19010KT 140V240 CAVOK 32/14 Q1015
                        NOSIG=
201307221420 METAR COR EGLL 221420Z 17012KT 140V230 CAVOK 33/14 Q1015
                        NOSIG=
201307221350 METAR COR EGLL 221350Z 18009KT 130V240 CAVOK 33/14 Q1015
                        NOSIG=
201307221320 METAR COR EGLL 221320Z 16009KT 130V200 CAVOK 32/14 Q1015
                        NOSIG=
201307221250 METAR COR EGLL 221250Z 14009KT CAVOK 32/16 Q1015 NOSIG=
201307221220 METAR COR EGLL 221220Z 14007KT 090V180 CAVOK 31/17 Q1015
                        NOSIG=
201307221150 METAR COR EGLL 221150Z 15006KT 110V190 CAVOK 30/17 Q1016
                        NOSIG=
201307221120 METAR COR EGLL 221120Z 14005KT 090V220 CAVOK 30/17 Q1016
                        NOSIG=
201307221050 METAR COR EGLL 221050Z 16005KT 080V190 CAVOK 28/18 Q1016
                        NOSIG=
201307221020 METAR COR EGLL 221020Z 10004KT 030V190 CAVOK 27/18 Q1016
                        NOSIG=
201307220950 METAR COR EGLL 220950Z 11005KT 050V180 CAVOK 26/18 Q1016
                        NOSIG=
201307220920 METAR COR EGLL 220920Z 08007KT 040V120 CAVOK 24/18 Q1016
                        NOSIG=
201307220850 METAR COR EGLL 220850Z 08006KT 040V120 CAVOK 23/18 Q1017
                        NOSIG=
201307220820 METAR COR EGLL 220820Z 10006KT 060V120 8000 NSC 22/17 Q1017
                        NOSIG=
201307220750 METAR COR EGLL 220750Z 06006KT 040V120 8000 NSC 21/17 Q1017
                        NOSIG=
201307220720 METAR COR EGLL 220720Z 07005KT 8000 NSC 20/17 Q1017 NOSIG=
201307220650 METAR COR EGLL 220650Z VRB03KT 7000 NSC 19/16 Q1017 NOSIG=
201307220620 METAR COR EGLL 220620Z VRB02KT 7000 NSC 18/16 Q1017 NOSIG=
201307220550 METAR COR EGLL 220550Z VRB02KT 7000 VCTS FEW011 FEW021CB
                        18/16 Q1017 BECMG NSW=
201307220520 METAR COR EGLL 220520Z 05005KT 020V130 7000 -SHRA TS FEW011
                        FEW020CB 18/16 Q1016 BECMG NSW=
201307220450 METAR COR EGLL 220450Z 06004KT 020V110 7000 NSC 18/16 Q1016
                        TEMPO SHRA=
201307220420 METAR COR EGLL 220420Z VRB03KT 7000 NSC 18/16 Q1016 TEMPO
                        SHRA=
201307220350 METAR COR EGLL 220350Z VRB03KT 6000 NSC 18/16 Q1016 NOSIG=
201307220320 METAR COR EGLL 220320Z 05007KT 6000 NSC 18/16 Q1016 NOSIG=
201307220250 METAR EGLL 220250Z 05005KT 020V080 7000 NSC 19/16 Q1017=
201307220220 METAR COR EGLL 220220Z 05005KT 7000 NSC 18/16 Q1017 NOSIG=
201307220150 METAR COR EGLL 220150Z 06005KT 030V190 7000 NSC 19/16 Q1017
                        NOSIG=
201307220120 METAR EGLL 220120Z AUTO VRB02KT 5000 NCD 19/16 Q1018=
201307220050 METAR EGLL 220050Z AUTO 00000KT 6000 NCD 19/16 Q1018=
201307220020 METAR EGLL 220020Z AUTO 07004KT 6000 NCD 20/16 Q1018=
201307212350 METAR COR EGLL 212350Z 07004KT 9000 NSC 20/16 Q1018 NOSIG=
201307212320 METAR COR EGLL 212320Z 07004KT 9000 NSC 20/16 Q1018 NOSIG=
201307212250 METAR COR EGLL 212250Z 06004KT 9000 NSC 21/16 Q1018 NOSIG=
201307212220 METAR COR EGLL 212220Z 08005KT 060V120 CAVOK 21/16 Q1018
                        NOSIG=
201307212150 METAR COR EGLL 212150Z 10007KT 070V150 CAVOK 21/16 Q1018
                        NOSIG=
201307212120 METAR COR EGLL 212120Z 09007KT CAVOK 22/16 Q1018 NOSIG=
201307212050 METAR COR EGLL 212050Z 10008KT CAVOK 22/16 Q1018 NOSIG=
201307212020 METAR COR EGLL 212020Z 10008KT CAVOK 23/16 Q1018 NOSIG=
201307211950 METAR COR EGLL 211950Z 10009KT CAVOK 23/16 Q1017 NOSIG=
201307211920 METAR COR EGLL 211920Z 10010KT CAVOK 24/16 Q1017 NOSIG=
201307211850 METAR COR EGLL 211850Z 11009KT CAVOK 25/16 Q1017 NOSIG=
201307211820 METAR COR EGLL 211820Z 08008KT 050V110 CAVOK 26/16 Q1017
                        NOSIG=
201307211750 METAR COR EGLL 211750Z 10009KT CAVOK 26/15 Q1017 NOSIG=
201307211720 METAR COR EGLL 211720Z 11009KT CAVOK 27/15 Q1017 NOSIG=
201307211650 METAR COR EGLL 211650Z 10009KT CAVOK 27/15 Q1017 NOSIG=
201307211620 METAR COR EGLL 211620Z 09009KT CAVOK 27/15 Q1018 NOSIG=
201307211550 METAR COR EGLL 211550Z 09009KT 050V130 CAVOK 27/15 Q1018
                        NOSIG=
201307211520 METAR COR EGLL 211520Z 08007KT 010V130 CAVOK 27/14 Q1018
                        NOSIG=
201307211450 METAR COR EGLL 211450Z 07008KT 010V100 CAVOK 27/15 Q1018
                        NOSIG=
201307211420 METAR COR EGLL 211420Z 08007KT 030V140 CAVOK 26/15 Q1019
                        NOSIG=
201307211350 METAR COR EGLL 211350Z 10007KT 040V160 CAVOK 26/15 Q1019
                        NOSIG=
201307211320 METAR COR EGLL 211320Z 08007KT 010V130 CAVOK 25/15 Q1019
                        NOSIG=
201307211250 METAR COR EGLL 211250Z 10007KT 060V140 9999 FEW036 24/15
                        Q1019 NOSIG=
201307211220 METAR COR EGLL 211220Z 07006KT 010V120 9999 FEW027 23/15
                        Q1019 NOSIG=
201307211150 METAR COR EGLL 211150Z 07007KT 360V140 9999 FEW021 SCT025
                        23/15 Q1020 NOSIG=
201307211120 METAR COR EGLL 211120Z 08007KT 050V120 9999 BKN021 21/15
                        Q1020 NOSIG=
201307211050 METAR COR EGLL 211050Z 08006KT 040V110 9999 BKN017 20/15
                        Q1020 NOSIG=
201307211020 METAR COR EGLL 211020Z 07007KT 040V120 9999 BKN016 19/15
                        Q1020 NOSIG=
201307210950 METAR COR EGLL 210950Z 07006KT 9999 SCT013 BKN015 18/15 Q1020
                        TEMPO BKN013=
201307210920 METAR COR EGLL 210920Z 08007KT 040V120 9999 OVC011 18/15
                        Q1020 BECMG BNK015=
201307210850 METAR COR EGLL 210850Z 07007KT 9000 BKN012 18/15 Q1020 BECMG
                        BKN015=
201307210820 METAR COR EGLL 210820Z 07007KT 9000 BKN014 18/15 Q1020 BECMG
                        BKN018=
201307210750 METAR COR EGLL 210750Z 07007KT 9999 SCT012 SCT018 BKN022
                        18/15 Q1020 NOSIG=
201307210720 METAR COR EGLL 210720Z 06006KT 9999 BKN015 BKN021 18/15 Q1021
                        NOSIG=
201307210650 METAR COR EGLL 210650Z 06006KT 9999 SCT013 BKN019 18/15 Q1021
                        NOSIG=
201307210620 METAR COR EGLL 210620Z 06005KT 020V080 9999 BKN013 BKN019
                        17/15 Q1020 NOSIG=
201307210550 METAR COR EGLL 210550Z 05006KT 010V080 9999 BKN013 BKN023
                        17/15 Q1020 NOSIG=
201307210520 METAR COR EGLL 210520Z 05005KT 010V070 9999 SCT014 BKN025
                        17/14 Q1020 BECMG BKN010=
201307210450 METAR COR EGLL 210450Z 05006KT 9999 FEW015 BKN025 17/14 Q1020
                        BECMG BKN010=
201307210420 METAR COR EGLL 210420Z 05005KT 010V090 9999 FEW017 BKN026
                        17/14 Q1020 BECMG BKN010=
201307210350 METAR COR EGLL 210350Z 05006KT 9999 FEW017 BKN026 17/13 Q1021
                        BECMG BKN010=
201307210320 METAR COR EGLL 210320Z 06006KT 030V090 9999 FEW020 BKN026
                        17/13 Q1021 BECMG BKN012=
201307210250 METAR COR EGLL 210250Z 05005KT 020V080 9999 BKN025 17/13
                        Q1021 TEMPO BKN010=
201307210220 METAR COR EGLL 210220Z 05006KT 010V070 9999 BKN026 17/13
                        Q1021 TEMPO BKN012=
201307210150 METAR COR EGLL 210150Z 06006KT 030V090 9999 BKN027 17/12
                        Q1021 NOSIG=
201307210120 METAR EGLL 210120Z AUTO 06008KT 9999 BKN025/// 17/12 Q1022=
201307210050 METAR EGLL 210050Z AUTO 07008KT 9999 OVC025/// 17/12 Q1022=
201307210020 METAR EGLL 210020Z AUTO 07009KT 9999 BKN025/// 17/12 Q1022=
201307202350 METAR COR EGLL 202350Z 08010KT 9999 BKN024 18/13 Q1022 NOSIG=
201307202320 METAR COR EGLL 202320Z 07009KT 9999 BKN024 18/13 Q1022 NOSIG=
201307202250 METAR COR EGLL 202250Z 08010KT 9999 FEW023 BKN026 18/13 Q1022
                        NOSIG=
201307202220 METAR COR EGLL 202220Z 06010KT 9999 FEW020 BKN023 19/14 Q1022
                        NOSIG=
201307202150 METAR COR EGLL 202150Z 06010KT 9999 BKN025 19/14 Q1022 NOSIG=
201307202120 METAR COR EGLL 202120Z 06010KT 9999 BKN029 19/14 Q1022 NOSIG=
201307202050 METAR COR EGLL 202050Z 06010KT 9999 FEW026 BKN028 20/14 Q1022
                        NOSIG=
201307202020 METAR COR EGLL 202020Z 07009KT 9999 BKN030 20/14 Q1022 NOSIG=
201307201950 METAR COR EGLL 201950Z 06010KT 9999 BKN030 21/14 Q1021 NOSIG=
201307201920 METAR COR EGLL 201920Z 07010KT 9999 BKN033 21/14 Q1021 NOSIG=
201307201850 METAR COR EGLL 201850Z 07012KT 9999 BKN034 21/14 Q1022 NOSIG=
201307201820 METAR COR EGLL 201820Z 06010KT 9999 SCT030 SCT035 22/15 Q1021
                        NOSIG=
201307201750 METAR COR EGLL 201750Z 06009KT 9999 BKN036 23/15 Q1021 NOSIG=
201307201720 METAR COR EGLL 201720Z 06010KT 020V090 9999 BKN037 23/15
                        Q1021 NOSIG=
201307201650 METAR COR EGLL 201650Z 05009KT 020V090 9999 BKN033 24/15
                        Q1022 NOSIG=
201307201620 METAR COR EGLL 201620Z 05009KT 010V090 9999 BKN033 23/15
                        Q1022 NOSIG=
201307201550 METAR COR EGLL 201550Z 06010KT 020V080 9999 SCT033 SCT035
                        24/15 Q1022 NOSIG=
201307201520 METAR COR EGLL 201520Z 06010KT 010V100 9999 SCT033 SCT036
                        24/15 Q1022 NOSIG=
201307201450 METAR COR EGLL 201450Z 07011KT 030V100 9999 BKN034 24/15
                        Q1022 NOSIG=
201307201420 METAR COR EGLL 201420Z 07010KT 020V090 9999 SCT031 BKN035
                        23/15 Q1023 NOSIG=
201307201350 METAR COR EGLL 201350Z 04008KT 360V080 9999 SCT032 SCT037
                        23/15 Q1023 NOSIG=
201307201320 METAR COR EGLL 201320Z 05007KT 350V090 9999 FEW027 BKN029
                        21/15 Q1023 NOSIG=
201307201250 METAR COR EGLL 201250Z 08010KT 9999 BKN024 20/14 Q1024 NOSIG=
201307201220 METAR COR EGLL 201220Z 06010KT 020V080 9999 BKN023 20/15
                        Q1024 NOSIG=
201307201150 METAR COR EGLL 201150Z 06009KT 9999 BKN023 21/15 Q1024 NOSIG=
201307201120 METAR COR EGLL 201120Z 06010KT 9999 OVC024 21/14 Q1024 NOSIG=
201307201050 METAR COR EGLL 201050Z 07010KT 9999 BKN028 21/14 Q1024 NOSIG=
201307201020 METAR COR EGLL 201020Z 07010KT 030V090 9999 BKN024 21/14
                        Q1024 NOSIG=
201307200950 METAR COR EGLL 200950Z 06010KT 9999 BKN023 21/15 Q1024 NOSIG=
201307200920 METAR COR EGLL 200920Z 06010KT 9999 BKN023 21/15 Q1024 NOSIG=
201307200850 METAR COR EGLL 200850Z 06010KT 020V090 9999 BKN025 21/15
                        Q1024 NOSIG=
201307200820 METAR COR EGLL 200820Z 06007KT 020V100 9999 SCT022 BKN026
                        20/15 Q1024 NOSIG=
201307200750 METAR COR EGLL 200750Z 07006KT 030V110 9999 SCT023 BKN028
                        20/14 Q1024 NOSIG=
201307200720 METAR COR EGLL 200720Z 08008KT 9999 FEW017 SCT043 20/15 Q1024
                        NOSIG=
201307200650 METAR COR EGLL 200650Z 05006KT 360V090 9999 BKN045 19/15
                        Q1024 NOSIG=
201307200620 METAR COR EGLL 200620Z 06006KT 010V080 9999 SCT046 18/15
                        Q1024 TEMPO BKN012=
201307200550 METAR COR EGLL 200550Z 06005KT 010V090 9999 SCT046 17/15
                        Q1024 TEMPO BKN010=
201307200520 METAR COR EGLL 200520Z 05006KT 9999 FEW008 SCT046 17/15 Q1024
                        TEMPO BKN010=
201307200450 METAR COR EGLL 200450Z 05006KT 010V080 9999 FEW008 SCT046
                        16/15 Q1024 TEMPO BKN010=
201307200420 METAR EGLL 200420Z 04006KT CAVOK 16/15 Q1024=
201307200350 METAR COR EGLL 200350Z 04006KT CAVOK 17/15 Q1024 NOSIG=
201307200320 METAR COR EGLL 200320Z 04006KT CAVOK 17/15 Q1024 NOSIG=
201307200250 METAR COR EGLL 200250Z 05005KT CAVOK 17/15 Q1024 NOSIG=
201307200220 METAR COR EGLL 200220Z 05005KT CAVOK 18/15 Q1024 NOSIG=
201307200150 METAR COR EGLL 200150Z 05005KT CAVOK 18/15 Q1024 NOSIG=
201307200120 METAR EGLL 200120Z AUTO 07006KT 9999 NCD 18/15 Q1024=
201307200050 METAR EGLL 200050Z AUTO 07006KT 9999 NCD 19/15 Q1024=
201307200020 METAR EGLL 200020Z AUTO 07008KT 9999 NCD 19/15 Q1024=
201307192350 METAR COR EGLL 192350Z 07006KT CAVOK 19/14 Q1025 NOSIG=
201307192320 METAR COR EGLL 192320Z 06006KT CAVOK 20/14 Q1025 NOSIG=
201307192250 METAR COR EGLL 192250Z 08005KT CAVOK 19/14 Q1025 NOSIG=
201307192220 METAR COR EGLL 192220Z 08008KT CAVOK 20/14 Q1025 NOSIG=
201307192150 METAR COR EGLL 192150Z 09009KT CAVOK 21/14 Q1025 NOSIG=
201307192120 METAR COR EGLL 192120Z 07008KT 030V100 CAVOK 22/14 Q1025
                        NOSIG=
201307192050 METAR COR EGLL 192050Z 08008KT CAVOK 22/14 Q1024 NOSIG=
201307192020 METAR COR EGLL 192020Z 07011KT CAVOK 23/14 Q1024 NOSIG=
201307191950 METAR COR EGLL 191950Z 09009KT CAVOK 23/15 Q1024 NOSIG=
201307191920 METAR COR EGLL 191920Z 10012KT CAVOK 24/15 Q1023 NOSIG=
201307191850 METAR COR EGLL 191850Z 09013KT CAVOK 25/14 Q1023 NOSIG=
201307191820 METAR COR EGLL 191820Z 09011KT 060V120 CAVOK 26/13 Q1023
                        NOSIG=
201307191750 METAR COR EGLL 191750Z 10012KT CAVOK 27/13 Q1023 NOSIG=
201307191720 METAR COR EGLL 191720Z 11013KT CAVOK 27/13 Q1023 NOSIG=
201307191650 METAR COR EGLL 191650Z 10012KT CAVOK 27/13 Q1023 NOSIG=
201307191620 METAR COR EGLL 191620Z 10012KT 060V120 CAVOK 28/13 Q1023
                        NOSIG=
201307191550 METAR COR EGLL 191550Z 10012KT CAVOK 29/12 Q1023 NOSIG=
201307191520 METAR COR EGLL 191520Z 08010KT 040V110 CAVOK 29/11 Q1024
                        NOSIG=
201307191450 METAR COR EGLL 191450Z 08010KT 030V110 CAVOK 29/11 Q1024
                        NOSIG=
201307191420 METAR COR EGLL 191420Z 09012KT 040V110 CAVOK 29/11 Q1024
                        NOSIG=
201307191350 METAR COR EGLL 191350Z 08012KT 040V100 CAVOK 28/11 Q1024
                        NOSIG=
201307191320 METAR COR EGLL 191320Z 06010KT 030V090 CAVOK 28/11 Q1025
                        NOSIG=
201307191250 METAR COR EGLL 191250Z 07010KT 360V110 CAVOK 27/12 Q1025
                        NOSIG=
201307191220 METAR COR EGLL 191220Z 06011KT 020V100 CAVOK 27/12 Q1025
                        NOSIG=
201307191150 METAR COR EGLL 191150Z 07011KT CAVOK 27/12 Q1025 NOSIG=
201307191120 METAR COR EGLL 191120Z 07011KT 020V130 CAVOK 27/12 Q1025
                        NOSIG=
201307191050 METAR COR EGLL 191050Z 05010KT CAVOK 26/12 Q1025 NOSIG=
201307191020 METAR EGLL 191020Z 08012KT 040V110 CAVOK 26/12 Q1026=
201307190950 METAR COR EGLL 190950Z 07011KT CAVOK 25/12 Q1026 NOSIG=
201307190920 METAR COR EGLL 190920Z 08010KT 050V120 CAVOK 24/12 Q1026
                        NOSIG=
201307190850 METAR COR EGLL 190850Z 07011KT CAVOK 23/12 Q1026 NOSIG=
201307190820 METAR COR EGLL 190820Z 08012KT CAVOK 22/11 Q1026 NOSIG=
201307190750 METAR COR EGLL 190750Z 07010KT CAVOK 22/11 Q1026 NOSIG=
201307190720 METAR COR EGLL 190720Z 07009KT CAVOK 20/11 Q1026 NOSIG=
201307190650 METAR COR EGLL 190650Z 06008KT CAVOK 19/11 Q1026 NOSIG=
201307190620 METAR COR EGLL 190620Z 06008KT CAVOK 18/11 Q1026 NOSIG=
201307190550 METAR COR EGLL 190550Z 05006KT 010V080 CAVOK 17/11 Q1026
                        NOSIG=
201307190520 METAR COR EGLL 190520Z 05005KT 020V080 CAVOK 16/11 Q1026
                        NOSIG=
201307190450 METAR COR EGLL 190450Z 04006KT CAVOK 16/10 Q1026 NOSIG=
201307190420 METAR COR EGLL 190420Z 03005KT CAVOK 16/10 Q1026 NOSIG=
201307190350 METAR COR EGLL 190350Z 04005KT CAVOK 16/10 Q1026 NOSIG=
201307190320 METAR COR EGLL 190320Z 03005KT CAVOK 16/10 Q1026 NOSIG=
201307190250 METAR COR EGLL 190250Z 04005KT CAVOK 17/10 Q1026 NOSIG=
201307190220 METAR COR EGLL 190220Z 04005KT CAVOK 17/11 Q1026 NOSIG=
201307190150 METAR COR EGLL 190150Z 04004KT CAVOK 17/11 Q1026 NOSIG=
201307190120 METAR EGLL 190120Z AUTO 06004KT 9999 NCD 18/11 Q1026=
201307190050 METAR EGLL 190050Z AUTO 06005KT 9999 NCD 18/12 Q1026=
201307190020 METAR EGLL 190020Z AUTO 06005KT 9999 NCD 18/12 Q1026=
201307182350 METAR COR EGLL 182350Z 06005KT 020V080 CAVOK 19/12 Q1026
                        NOSIG=
201307182320 METAR COR EGLL 182320Z 07006KT CAVOK 19/12 Q1027 NOSIG=
201307182250 METAR COR EGLL 182250Z 07006KT CAVOK 20/12 Q1027 NOSIG=
201307182220 METAR COR EGLL 182220Z 07007KT CAVOK 20/13 Q1027 NOSIG=
201307182150 METAR COR EGLL 182150Z 08004KT CAVOK 20/14 Q1026 NOSIG=
201307182120 METAR COR EGLL 182120Z 09006KT CAVOK 20/14 Q1026 NOSIG=
201307182050 METAR COR EGLL 182050Z 10008KT CAVOK 21/14 Q1026 NOSIG=
201307182020 METAR EGLL 182020Z 10009KT CAVOK 21/14 Q1026=
201307181950 METAR COR EGLL 181950Z 10010KT CAVOK 22/15 Q1026 NOSIG=
201307181920 METAR EGLL 181920Z 10009KT CAVOK 23/15 Q1025=
201307181850 METAR COR EGLL 181850Z 10011KT CAVOK 25/15 Q1025 NOSIG=
201307181820 METAR COR EGLL 181820Z 09011KT CAVOK 26/15 Q1025 NOSIG=
201307181750 METAR COR EGLL 181750Z 07010KT 030V090 CAVOK 28/12 Q1025
                        NOSIG=
201307181720 METAR COR EGLL 181720Z 07010KT CAVOK 28/12 Q1025 NOSIG=
201307181650 METAR COR EGLL 181650Z 04009KT 010V070 CAVOK 28/11 Q1025
                        NOSIG=
201307181620 METAR COR EGLL 181620Z 06009KT 010V080 CAVOK 28/12 Q1025
                        NOSIG=
201307181550 METAR COR EGLL 181550Z 05007KT 360V090 CAVOK 29/11 Q1025
                        NOSIG=
201307181520 METAR COR EGLL 181520Z 03008KT 360V060 CAVOK 29/11 Q1025
                        NOSIG=
201307181450 METAR COR EGLL 181450Z 04008KT 340V080 CAVOK 29/12 Q1025
                        NOSIG=
201307181420 METAR COR EGLL 181420Z 04009KT 350V090 CAVOK 29/12 Q1026
                        NOSIG=
201307181350 METAR COR EGLL 181350Z 05010KT 360V080 CAVOK 29/12 Q1026
                        NOSIG=
201307181320 METAR COR EGLL 181320Z 06010KT 360V100 CAVOK 29/12 Q1026
                        NOSIG=
201307181250 METAR COR EGLL 181250Z 05009KT 350V080 CAVOK 29/13 Q1026
                        NOSIG=
201307181220 METAR COR EGLL 181220Z 06008KT 340V090 CAVOK 28/13 Q1026
                        NOSIG=
201307181150 METAR COR EGLL 181150Z 04009KT CAVOK 28/13 Q1026 NOSIG=
201307181120 METAR COR EGLL 181120Z 05008KT 340V090 CAVOK 27/12 Q1026
                        NOSIG=
201307181050 METAR COR EGLL 181050Z 05008KT 010V080 CAVOK 27/12 Q1026
                        NOSIG=
201307181020 METAR COR EGLL 181020Z 06009KT CAVOK 26/13 Q1027 NOSIG=
201307180950 METAR COR EGLL 180950Z 04007KT 360V100 CAVOK 26/13 Q1027
                        NOSIG=
201307180920 METAR COR EGLL 180920Z 05007KT 360V080 CAVOK 25/13 Q1027
                        NOSIG=
201307180850 METAR COR EGLL 180850Z 07007KT 030V100 CAVOK 24/14 Q1027
                        NOSIG=
201307180820 METAR COR EGLL 180820Z 05007KT 020V080 CAVOK 23/15 Q1027
                        NOSIG=
201307180750 METAR COR EGLL 180750Z 07007KT 030V090 CAVOK 23/14 Q1027
                        NOSIG=
201307180720 METAR COR EGLL 180720Z 05004KT 360V090 CAVOK 22/14 Q1027
                        NOSIG=
201307180650 METAR COR EGLL 180650Z 07005KT 020V110 CAVOK 21/14 Q1027
                        NOSIG=
201307180620 METAR COR EGLL 180620Z 07005KT CAVOK 20/14 Q1026 NOSIG=
201307180550 METAR COR EGLL 180550Z 05004KT 020V090 CAVOK 19/13 Q1026
                        NOSIG=
201307180520 METAR COR EGLL 180520Z 06004KT 030V100 CAVOK 19/13 Q1026
                        NOSIG=
201307180450 METAR COR EGLL 180450Z 05003KT CAVOK 18/14 Q1026 NOSIG=
201307180420 METAR COR EGLL 180420Z 06004KT CAVOK 18/14 Q1026 NOSIG=
201307180350 METAR COR EGLL 180350Z 05004KT CAVOK 19/14 Q1026 NOSIG=
201307180320 METAR COR EGLL 180320Z 08003KT CAVOK 19/13 Q1026 NOSIG=
201307180250 METAR EGLL 180250Z AUTO 07004KT 9999 NCD 19/13 Q1026=
201307180220 METAR COR EGLL 180220Z AUTO 07004KT 9999 NCD 20/13 Q1026=
201307180150 METAR EGLL 180150Z AUTO 07004KT 9999 NCD 20/13 Q1026=
201307180120 METAR EGLL 180120Z AUTO 07004KT 9999 NCD 20/13 Q1026=
201307180050 METAR COR EGLL 180050Z 08004KT CAVOK 20/13 Q1026 NOSIG=
201307180020 METAR COR EGLL 180020Z 09006KT CAVOK 20/14 Q1026 NOSIG=
201307172350 METAR COR EGLL 172350Z 09006KT CAVOK 22/15 Q1025 NOSIG=
201307172320 METAR COR EGLL 172320Z 09006KT CAVOK 21/15 Q1025 NOSIG=
201307172250 METAR COR EGLL 172250Z 09005KT CAVOK 23/14 Q1025 NOSIG=
201307172220 METAR COR EGLL 172220Z VRB02KT CAVOK 24/12 Q1025 NOSIG=
201307172150 METAR COR EGLL 172150Z VRB02KT CAVOK 24/13 Q1025 NOSIG=
201307172120 METAR COR EGLL 172120Z VRB03KT CAVOK 24/13 Q1025 NOSIG=
201307172050 METAR COR EGLL 172050Z 21005KT 170V260 CAVOK 25/13 Q1025
                        NOSIG=
201307172020 METAR COR EGLL 172020Z 21006KT CAVOK 25/14 Q1024 NOSIG=
201307171950 METAR COR EGLL 171950Z 20010KT CAVOK 26/14 Q1024 NOSIG=
201307171920 METAR COR EGLL 171920Z 20008KT CAVOK 26/14 Q1024 NOSIG=
201307171850 METAR COR EGLL 171850Z 19009KT 9999 FEW070CB 27/14 Q1023
                        NOSIG=
201307171820 METAR EGLL 171820Z 20010KT 9999 FEW070CB 28/14 Q1023=
201307171750 METAR COR EGLL 171750Z 13009KT 9999 FEW071CB 29/14 Q1023
                        NOSIG=
201307171720 METAR COR EGLL 171720Z 09007KT 060V130 CAVOK 30/12 Q1023
                        NOSIG=
201307171650 METAR COR EGLL 171650Z VRB02KT CAVOK 29/12 Q1023 NOSIG=
201307171620 METAR EGLL 171620Z VRB03KT CAVOK 30/12 Q1023=
201307171550 METAR COR EGLL 171550Z 12005KT 080V150 CAVOK 30/12 Q1023
                        NOSIG=
201307171520 METAR COR EGLL 171520Z VRB02KT CAVOK 31/11 Q1023 NOSIG=
201307171450 METAR EGLL 171450Z VRB03KT CAVOK 32/12 Q1023=
201307171420 METAR COR EGLL 171420Z VRB03KT CAVOK 31/12 Q1023 NOSIG=
201307171350 METAR COR EGLL 171350Z 13006KT 090V240 CAVOK 31/13 Q1023
                        NOSIG=
201307171320 METAR COR EGLL 171320Z 16007KT 100V200 CAVOK 31/13 Q1024
                        NOSIG=
201307171250 METAR COR EGLL 171250Z 17007KT 120V230 CAVOK 31/13 Q1024
                        NOSIG=
201307171220 METAR COR EGLL 171220Z VRB05KT CAVOK 30/13 Q1024 NOSIG=
201307171150 METAR COR EGLL 171150Z 09005KT 360V160 CAVOK 29/13 Q1024
                        NOSIG=
201307171120 METAR COR EGLL 171120Z VRB04KT CAVOK 29/13 Q1024 NOSIG=
201307171050 METAR EGLL 171050Z 20005KT 130V240 CAVOK 28/14 Q1024=
201307171020 METAR COR EGLL 171020Z 12005KT 050V170 CAVOK 27/14 Q1024
                        NOSIG=
201307170950 METAR COR EGLL 170950Z 13005KT 090V190 CAVOK 27/15 Q1024
                        NOSIG=
201307170920 METAR COR EGLL 170920Z 16005KT 110V200 CAVOK 26/14 Q1024
                        NOSIG=
201307170850 METAR COR EGLL 170850Z VRB03KT CAVOK 25/14 Q1024 NOSIG=
201307170820 METAR COR EGLL 170820Z VRB02KT CAVOK 24/15 Q1024 NOSIG=
201307170750 METAR COR EGLL 170750Z VRB03KT CAVOK 23/15 Q1024 NOSIG=
201307170720 METAR COR EGLL 170720Z VRB03KT CAVOK 22/14 Q1024 NOSIG=
201307170650 METAR COR EGLL 170650Z VRB02KT CAVOK 21/14 Q1024 NOSIG=
201307170620 METAR COR EGLL 170620Z VRB03KT CAVOK 20/14 Q1024 NOSIG=
201307170550 METAR COR EGLL 170550Z 00000KT CAVOK 19/14 Q1024 NOSIG=
201307170520 METAR COR EGLL 170520Z 00000KT CAVOK 18/14 Q1024 NOSIG=
201307170450 METAR COR EGLL 170450Z 31002KT CAVOK 17/14 Q1024 NOSIG=
201307170420 METAR COR EGLL 170420Z VRB02KT CAVOK 17/14 Q1023 NOSIG=
201307170350 METAR COR EGLL 170350Z 28004KT CAVOK 17/13 Q1023 NOSIG=
201307170320 METAR COR EGLL 170320Z 23004KT CAVOK 17/13 Q1023 NOSIG=
201307170250 METAR EGLL 170250Z AUTO 22004KT 9999 NCD 17/13 Q1023=
201307170220 METAR COR EGLL 170220Z AUTO 20005KT 9999 NCD 19/13 Q1023=
201307170150 METAR EGLL 170150Z AUTO 20005KT 9999 NCD 20/13 Q1023=
201307170120 METAR EGLL 170120Z AUTO 19004KT 9999 NCD 20/13 Q1023=
201307170050 METAR COR EGLL 170050Z 19006KT CAVOK 21/13 Q1023 NOSIG=
201307170020 METAR COR EGLL 170020Z 20005KT CAVOK 21/13 Q1023 NOSIG=
201307162350 METAR COR EGLL 162350Z 20005KT CAVOK 22/13 Q1023 NOSIG=
201307162320 METAR COR EGLL 162320Z 20006KT CAVOK 22/13 Q1023 NOSIG=
201307162250 METAR COR EGLL 162250Z 22005KT CAVOK 23/13 Q1023 NOSIG=
201307162220 METAR COR EGLL 162220Z 22006KT 190V260 CAVOK 24/13 Q1023
                        NOSIG=
201307162150 METAR COR EGLL 162150Z 22007KT 140V260 CAVOK 24/13 Q1023
                        NOSIG=
201307162120 METAR COR EGLL 162120Z 26007KT 220V290 CAVOK 24/12 Q1023
                        NOSIG=
201307162050 METAR COR EGLL 162050Z 27008KT CAVOK 25/12 Q1023 NOSIG=
201307162020 METAR COR EGLL 162020Z 27006KT 240V300 CAVOK 25/12 Q1022
                        NOSIG=
201307161950 METAR COR EGLL 161950Z 26010KT CAVOK 26/12 Q1022 NOSIG=
201307161920 METAR COR EGLL 161920Z 30006KT CAVOK 27/12 Q1022 NOSIG=
201307161850 METAR COR EGLL 161850Z 29006KT CAVOK 28/11 Q1022 NOSIG=
201307161820 METAR COR EGLL 161820Z 30007KT CAVOK 29/11 Q1021 NOSIG=
201307161750 METAR COR EGLL 161750Z 29006KT 240V350 CAVOK 29/11 Q1021
                        NOSIG=
201307161720 METAR COR EGLL 161720Z 30006KT 270V350 CAVOK 30/11 Q1021
                        NOSIG=
201307161650 METAR COR EGLL 161650Z 25006KT 200V330 CAVOK 30/12 Q1022
                        NOSIG=
201307161620 METAR COR EGLL 161620Z 27007KT 210V310 CAVOK 30/12 Q1022
                        NOSIG=
201307161550 METAR COR EGLL 161550Z VRB05KT CAVOK 30/12 Q1022 NOSIG=
201307161520 METAR COR EGLL 161520Z 31006KT 270V340 CAVOK 31/12 Q1022
                        NOSIG=
201307161450 METAR EGLL 161450Z VRB06KT CAVOK 30/12 Q1022=
201307161420 METAR COR EGLL 161420Z 25010KT 210V270 CAVOK 30/13 Q1022
                        NOSIG=
201307161350 METAR COR EGLL 161350Z 25004KT 170V340 CAVOK 30/13 Q1022
                        NOSIG=
201307161320 METAR COR EGLL 161320Z VRB03KT CAVOK 29/13 Q1023 NOSIG=
201307161250 METAR COR EGLL 161250Z 28005KT 220V330 CAVOK 29/13 Q1023
                        NOSIG=
201307161220 METAR COR EGLL 161220Z 19006KT 130V270 CAVOK 29/13 Q1023
                        NOSIG=
201307161150 METAR COR EGLL 161150Z 28004KT 230V350 CAVOK 29/11 Q1023
                        NOSIG=
201307161120 METAR COR EGLL 161120Z 23006KT 160V320 CAVOK 29/12 Q1023
                        NOSIG=
201307161050 METAR COR EGLL 161050Z VRB05KT CAVOK 28/14 Q1023 NOSIG=
201307161020 METAR COR EGLL 161020Z VRB02KT CAVOK 27/15 Q1023 NOSIG=
201307160950 METAR COR EGLL 160950Z VRB03KT CAVOK 26/14 Q1023 NOSIG=
201307160920 METAR EGLL 160920Z 21004KT 150V270 CAVOK 25/14 Q1024=
201307160850 METAR COR EGLL 160850Z VRB03KT CAVOK 23/15 Q1024 NOSIG=
201307160820 METAR COR EGLL 160820Z VRB03KT CAVOK 22/15 Q1024 NOSIG=
201307160750 METAR COR EGLL 160750Z 04004KT 330V080 CAVOK 21/15 Q1024
                        NOSIG=
201307160720 METAR COR EGLL 160720Z 34005KT 310V040 CAVOK 20/15 Q1023
                        NOSIG=
201307160650 METAR COR EGLL 160650Z 36004KT 330V050 CAVOK 19/14 Q1023
                        NOSIG=
201307160620 METAR COR EGLL 160620Z 35004KT CAVOK 19/14 Q1023 NOSIG=
201307160550 METAR COR EGLL 160550Z 35004KT CAVOK 18/13 Q1023 NOSIG=
201307160520 METAR COR EGLL 160520Z VRB03KT CAVOK 17/14 Q1023 NOSIG=
201307160450 METAR COR EGLL 160450Z VRB03KT CAVOK 17/13 Q1023 NOSIG=
201307160420 METAR COR EGLL 160420Z VRB02KT CAVOK 17/13 Q1023 NOSIG=
201307160350 METAR COR EGLL 160350Z VRB03KT CAVOK 17/14 Q1023 NOSIG=
201307160320 METAR COR EGLL 160320Z 35003KT CAVOK 18/13 Q1023 NOSIG=
201307160250 METAR COR EGLL 160250Z 34003KT CAVOK 18/13 Q1023 NOSIG=
201307160050 METAR COR EGLL 160050Z VRB02KT CAVOK 19/13 Q1023 NOSIG=
201307160020 METAR COR EGLL 160020Z 36002KT CAVOK 21/11 Q1023 NOSIG=
201307152350 METAR COR EGLL 152350Z VRB02KT CAVOK 21/12 Q1023 NOSIG=
201307152320 METAR COR EGLL 152320Z VRB02KT CAVOK 22/12 Q1023 NOSIG=
201307152250 METAR COR EGLL 152250Z 35004KT CAVOK 22/11 Q1023 NOSIG=
201307152220 METAR COR EGLL 152220Z 34003KT CAVOK 23/11 Q1023 NOSIG=
201307152150 METAR COR EGLL 152150Z VRB02KT CAVOK 23/09 Q1023 NOSIG=
201307152120 METAR COR EGLL 152120Z 00000KT CAVOK 24/08 Q1023 NOSIG=
201307152050 METAR EGLL 152050Z VRB02KT CAVOK 25/09 Q1023=
201307152020 METAR COR EGLL 152020Z 36003KT CAVOK 25/08 Q1023 NOSIG=
201307151950 METAR COR EGLL 151950Z 36005KT CAVOK 26/08 Q1022 NOSIG=
201307151920 METAR COR EGLL 151920Z 36005KT CAVOK 26/08 Q1022 NOSIG=
201307151850 METAR COR EGLL 151850Z 33005KT 310V020 CAVOK 27/07 Q1022
                        NOSIG=
201307151820 METAR COR EGLL 151820Z 32007KT CAVOK 27/06 Q1022 NOSIG=
201307151750 METAR COR EGLL 151750Z 32007KT 280V360 CAVOK 28/06 Q1022
                        NOSIG=
201307151720 METAR COR EGLL 151720Z 29006KT 250V350 CAVOK 29/05 Q1022
                        NOSIG=
201307151650 METAR COR EGLL 151650Z 30005KT 220V010 CAVOK 30/05 Q1022
                        NOSIG=
201307151620 METAR COR EGLL 151620Z 32005KT 280V040 CAVOK 29/05 Q1022
                        NOSIG=
201307151550 METAR COR EGLL 151550Z VRB03KT CAVOK 30/05 Q1022 NOSIG=
201307151520 METAR COR EGLL 151520Z VRB04KT CAVOK 30/05 Q1023 NOSIG=
201307151450 METAR COR EGLL 151450Z VRB06KT CAVOK 30/05 Q1023 NOSIG=
201307151420 METAR COR EGLL 151420Z VRB04KT CAVOK 30/04 Q1023 NOSIG=
201307151350 METAR COR EGLL 151350Z VRB05KT CAVOK 29/04 Q1023 NOSIG=
201307151320 METAR COR EGLL 151320Z VRB04KT CAVOK 29/04 Q1023 NOSIG=
201307151250 METAR COR EGLL 151250Z VRB04KT CAVOK 29/04 Q1023 NOSIG=
201307151220 METAR COR EGLL 151220Z VRB05KT CAVOK 28/04 Q1023 NOSIG=
201307151150 METAR COR EGLL 151150Z VRB04KT CAVOK 29/03 Q1024 NOSIG=
201307151120 METAR COR EGLL 151120Z 29006KT 240V340 CAVOK 27/03 Q1024
                        NOSIG=
201307151050 METAR COR EGLL 151050Z 35004KT 280V060 CAVOK 27/04 Q1024
                        NOSIG=
201307151020 METAR COR EGLL 151020Z 33004KT 270V060 CAVOK 26/07 Q1024
                        NOSIG=
201307150950 METAR COR EGLL 150950Z 25006KT 190V300 CAVOK 25/07 Q1024
                        NOSIG=
201307150920 METAR COR EGLL 150920Z VRB03KT CAVOK 24/06 Q1024 NOSIG=
201307150850 METAR COR EGLL 150850Z VRB03KT CAVOK 23/07 Q1024 NOSIG=
201307150820 METAR COR EGLL 150820Z VRB03KT CAVOK 22/08 Q1024 NOSIG=
201307150750 METAR COR EGLL 150750Z VRB03KT CAVOK 21/08 Q1024 NOSIG=
201307150720 METAR COR EGLL 150720Z VRB03KT CAVOK 20/09 Q1024 NOSIG=
201307150650 METAR COR EGLL 150650Z 35004KT 290V030 CAVOK 19/09 Q1024
                        NOSIG=
201307150620 METAR COR EGLL 150620Z 36005KT 320V030 CAVOK 19/10 Q1024
                        NOSIG=
201307150550 METAR COR EGLL 150550Z VRB03KT CAVOK 18/11 Q1024 NOSIG=
201307150520 METAR COR EGLL 150520Z VRB03KT CAVOK 18/12 Q1023 NOSIG=
201307150450 METAR COR EGLL 150450Z 36003KT CAVOK 17/12 Q1023 NOSIG=
201307150420 METAR EGLL 150420Z AUTO VRB03KT 9999 NCD 18/13 Q1023=
201307150350 METAR EGLL 150350Z AUTO 36005KT 9999 NCD 18/13 Q1023=
201307150320 METAR COR EGLL 150320Z 36004KT CAVOK 19/13 Q1023 NOSIG=
201307150250 METAR COR EGLL 150250Z 36004KT 330V040 CAVOK 19/13 Q1023
                        NOSIG=
201307150220 METAR EGLL 150220Z AUTO 36004KT 340V040 9999 NCD 19/13 Q1023=
201307150150 METAR EGLL 150150Z AUTO 36005KT 9999 NCD 19/14 Q1023=
201307150120 METAR EGLL 150120Z AUTO 02004KT 340V060 9999 NCD 21/13 Q1023=
201307150050 METAR COR EGLL 150050Z 01004KT 340V040 CAVOK 21/14 Q1023
                        NOSIG=
201307150020 METAR COR EGLL 150020Z 36005KT CAVOK 21/15 Q1023 NOSIG=
201307142350 METAR COR EGLL 142350Z 36003KT CAVOK 22/15 Q1023 NOSIG=
201307142320 METAR COR EGLL 142320Z 36004KT CAVOK 23/15 Q1023 NOSIG=
201307142250 METAR COR EGLL 142250Z 04003KT CAVOK 23/14 Q1023 NOSIG=
201307142220 METAR COR EGLL 142220Z VRB03KT CAVOK 24/14 Q1023 NOSIG=
201307142150 METAR COR EGLL 142150Z 04004KT CAVOK 24/14 Q1023 NOSIG=
201307142120 METAR COR EGLL 142120Z 05005KT CAVOK 25/14 Q1023 NOSIG=
201307142050 METAR COR EGLL 142050Z 05004KT 020V080 CAVOK 25/12 Q1022
                        NOSIG=
201307142020 METAR COR EGLL 142020Z 02004KT 330V050 CAVOK 26/11 Q1022
                        NOSIG=
201307141950 METAR COR EGLL 141950Z 36004KT 320V030 CAVOK 26/11 Q1022
                        NOSIG=
201307141920 METAR COR EGLL 141920Z 36005KT 340V050 CAVOK 26/11 Q1022
                        NOSIG=
201307141850 METAR COR EGLL 141850Z 03005KT 350V070 CAVOK 27/11 Q1022
                        NOSIG=
201307141820 METAR COR EGLL 141820Z 03006KT 340V060 CAVOK 27/12 Q1022
                        NOSIG=
201307141750 METAR COR EGLL 141750Z 33007KT 300V030 CAVOK 28/11 Q1022
                        NOSIG=
201307141720 METAR COR EGLL 141720Z 32007KT 290V020 CAVOK 28/11 Q1022
                        NOSIG=
201307141650 METAR COR EGLL 141650Z 30010KT CAVOK 29/11 Q1022 NOSIG=
201307141620 METAR COR EGLL 141620Z 31009KT 260V350 CAVOK 29/12 Q1022
                        NOSIG=
201307141550 METAR COR EGLL 141550Z 32009KT 290V350 CAVOK 29/12 Q1023
                        NOSIG=
201307141520 METAR COR EGLL 141520Z 32009KT 280V360 CAVOK 29/12 Q1023
                        NOSIG=
201307141450 METAR COR EGLL 141450Z 31007KT 280V350 CAVOK 29/12 Q1023
                        NOSIG=
201307141420 METAR COR EGLL 141420Z 32009KT 280V020 CAVOK 29/13 Q1023
                        NOSIG=
201307141350 METAR COR EGLL 141350Z 33007KT 280V010 CAVOK 29/13 Q1023
                        NOSIG=
201307141320 METAR COR EGLL 141320Z 30008KT 260V020 CAVOK 28/13 Q1023
                        NOSIG=
201307141250 METAR COR EGLL 141250Z 31007KT 260V350 CAVOK 28/13 Q1023
                        NOSIG=
201307141220 METAR EGLL 141220Z 31007KT 230V030 CAVOK 28/13 Q1024=
201307141150 METAR COR EGLL 141150Z VRB05KT CAVOK 28/14 Q1024 NOSIG=
201307141120 METAR COR EGLL 141120Z 33006KT 280V040 9999 FEW041 27/14
                        Q1024 NOSIG=
201307141050 METAR COR EGLL 141050Z 33006KT 270V050 CAVOK 26/15 Q1024
                        NOSIG=
201307141020 METAR COR EGLL 141020Z 31006KT 230V030 CAVOK 26/16 Q1024
                        NOSIG=
201307140950 METAR COR EGLL 140950Z 31005KT 240V040 CAVOK 25/17 Q1024
                        NOSIG=
201307140920 METAR COR EGLL 140920Z 01005KT 330V050 CAVOK 24/17 Q1024
                        NOSIG=
201307140850 METAR COR EGLL 140850Z 33004KT 290V020 CAVOK 23/17 Q1024
                        NOSIG=
201307140820 METAR COR EGLL 140820Z VRB05KT CAVOK 23/17 Q1024 NOSIG=
201307140750 METAR COR EGLL 140750Z 32004KT 270V020 CAVOK 22/17 Q1024
                        NOSIG=
201307140720 METAR COR EGLL 140720Z 33004KT 270V040 CAVOK 21/17 Q1024
                        NOSIG=
201307140650 METAR COR EGLL 140650Z VRB03KT CAVOK 20/16 Q1024 NOSIG=
201307140620 METAR COR EGLL 140620Z 28004KT CAVOK 19/16 Q1024 NOSIG=
201307140550 METAR COR EGLL 140550Z 26004KT 220V280 CAVOK 18/16 Q1024
                        NOSIG=
201307140520 METAR COR EGLL 140520Z 24005KT 210V270 CAVOK 18/16 Q1024
                        NOSIG=
201307140450 METAR COR EGLL 140450Z 21004KT CAVOK 17/15 Q1024 NOSIG=
201307140420 METAR COR EGLL 140420Z 20004KT 160V300 9999 FEW015TCU 17/15
                        Q1024 NOSIG=
201307140350 METAR COR EGLL 140350Z 22004KT CAVOK 17/15 Q1024 NOSIG=
201307140320 METAR EGLL 140320Z AUTO 19003KT 9999 NCD 18/15 Q1024=
201307140250 METAR COR EGLL 140250Z 18004KT CAVOK 18/15 Q1024 NOSIG=
201307140220 METAR COR EGLL 140220Z 17004KT CAVOK 19/15 Q1024 NOSIG=
201307140150 METAR EGLL 140150Z AUTO 17004KT 9999 NCD 19/15 Q1024=
201307140120 METAR EGLL 140120Z AUTO 17004KT 9999 NCD 19/16 Q1024=
201307140050 METAR EGLL 140050Z AUTO 21004KT 170V260 9999 NCD 20/16 Q1025=
201307140020 METAR COR EGLL 140020Z 21004KT 170V250 CAVOK 20/15 Q1025
                        NOSIG=
201307132350 METAR COR EGLL 132350Z 20005KT 180V250 CAVOK 20/15 Q1025
                        NOSIG=
201307132320 METAR COR EGLL 132320Z 20005KT CAVOK 20/15 Q1025 NOSIG=
201307132250 METAR COR EGLL 132250Z 18004KT 130V200 CAVOK 21/16 Q1025
                        NOSIG=
201307132220 METAR COR EGLL 132220Z 16005KT 120V190 CAVOK 21/16 Q1024
                        NOSIG=
201307132150 METAR COR EGLL 132150Z 19007KT CAVOK 22/16 Q1024 NOSIG=
201307132120 METAR COR EGLL 132120Z 20008KT CAVOK 23/17 Q1024 NOSIG=
201307132050 METAR COR EGLL 132050Z 18006KT CAVOK 24/17 Q1024 NOSIG=
201307132020 METAR COR EGLL 132020Z 18007KT 150V240 CAVOK 25/18 Q1024
                        NOSIG=
201307131950 METAR COR EGLL 131950Z 16007KT 130V200 CAVOK 26/18 Q1024
                        NOSIG=
201307131920 METAR COR EGLL 131920Z 07005KT CAVOK 28/15 Q1023 NOSIG=
201307131850 METAR COR EGLL 131850Z 05004KT 010V080 CAVOK 29/15 Q1023
                        NOSIG=
201307131820 METAR COR EGLL 131820Z 06005KT 030V090 9999 FEW062TCU 29/15
                        Q1023 NOSIG=
201307131750 METAR COR EGLL 131750Z 06006KT 010V100 9999 FEW064TCU 30/14
                        Q1023 NOSIG=
201307131720 METAR COR EGLL 131720Z 01005KT 330V040 CAVOK 30/15 Q1023
                        NOSIG=
201307131650 METAR COR EGLL 131650Z 03005KT 340V080 CAVOK 31/15 Q1023
                        NOSIG=
201307131620 METAR COR EGLL 131620Z 06006KT 020V150 CAVOK 31/13 Q1023
                        NOSIG=
201307131550 METAR COR EGLL 131550Z VRB05KT CAVOK 31/14 Q1023 NOSIG=
201307131520 METAR EGLL 131520Z 36006KT 310V050 CAVOK 30/14 Q1023=
201307131450 METAR COR EGLL 131450Z 01006KT 310V100 CAVOK 31/14 Q1023
                        NOSIG=
201307131420 METAR COR EGLL 131420Z 06006KT 030V130 CAVOK 31/14 Q1023
                        NOSIG=
201307131350 METAR COR EGLL 131350Z 05007KT 360V090 CAVOK 30/14 Q1023
                        NOSIG=
201307131320 METAR COR EGLL 131320Z 01006KT 280V090 CAVOK 30/15 Q1023
                        NOSIG=
201307131250 METAR COR EGLL 131250Z 36006KT 310V070 9999 FEW049 30/16
                        Q1024 NOSIG=
201307131220 METAR COR EGLL 131220Z 01006KT 320V060 9999 SCT047 29/16
                        Q1024 NOSIG=
201307131150 METAR EGLL 131150Z 36005KT 320V050 9999 SCT042 28/16 Q1024=
201307131120 METAR COR EGLL 131120Z 35007KT 330V040 9999 SCT041 28/17
                        Q1024 NOSIG=
201307131050 METAR COR EGLL 131050Z 35006KT 300V030 9999 SCT039 28/17
                        Q1024 NOSIG=
201307131020 METAR COR EGLL 131020Z 34006KT 300V030 9999 FEW036 27/17
                        Q1024 NOSIG=
201307130950 METAR COR EGLL 130950Z 03004KT 310V090 CAVOK 26/17 Q1024
                        NOSIG=
201307130920 METAR COR EGLL 130920Z VRB04KT CAVOK 25/17 Q1024 NOSIG=
201307130850 METAR COR EGLL 130850Z VRB03KT CAVOK 24/16 Q1024 NOSIG=
201307130820 METAR COR EGLL 130820Z VRB03KT CAVOK 23/16 Q1024 NOSIG=
201307130750 METAR COR EGLL 130750Z VRB03KT CAVOK 21/16 Q1024 NOSIG=
201307130720 METAR COR EGLL 130720Z VRB03KT CAVOK 20/15 Q1024 NOSIG=
201307130650 METAR COR EGLL 130650Z VRB03KT CAVOK 18/15 Q1024 NOSIG=
201307130620 METAR COR EGLL 130620Z 28005KT CAVOK 17/15 Q1024 NOSIG=
201307130550 METAR COR EGLL 130550Z 28005KT CAVOK 16/15 Q1024 NOSIG=
201307130520 METAR COR EGLL 130520Z 26006KT CAVOK 15/14 Q1024 NOSIG=
201307130450 METAR COR EGLL 130450Z 28005KT CAVOK 15/14 Q1024 NOSIG=
201307130420 METAR COR EGLL 130420Z 31004KT 290V360 CAVOK 16/14 Q1024
                        NOSIG=
201307130350 METAR COR EGLL 130350Z VRB02KT 9999 FEW046 15/14 Q1024 NOSIG=
201307130320 METAR EGLL 130320Z AUTO 30004KT 9999 BKN046/// 16/14 Q1024=
201307130250 METAR COR EGLL 130250Z 28003KT 9999 SCT047 16/14 Q1024 NOSIG=
201307130220 METAR COR EGLL 130220Z VRB03KT 9999 FEW045 16/15 Q1024 NOSIG=
201307130150 METAR EGLL 130150Z AUTO 21003KT 9999 NCD 16/14 Q1024=
201307130120 METAR EGLL 130120Z AUTO 15003KT 9999 NCD 16/15 Q1024=
201307130050 METAR EGLL 130050Z AUTO 16003KT 9999 NCD 17/15 Q1024=
201307130020 METAR COR EGLL 130020Z 16003KT 9999 FEW045 17/14 Q1024 NOSIG=
201307122350 METAR COR EGLL 122350Z 15003KT CAVOK 18/14 Q1024 NOSIG=
201307122320 METAR COR EGLL 122320Z 12003KT CAVOK 19/14 Q1024 NOSIG=
201307122250 METAR COR EGLL 122250Z 07003KT CAVOK 20/14 Q1024 NOSIG=
201307122220 METAR COR EGLL 122220Z 08003KT CAVOK 20/14 Q1024 NOSIG=
201307122150 METAR COR EGLL 122150Z 36003KT CAVOK 20/14 Q1024 NOSIG=
201307122120 METAR COR EGLL 122120Z 35002KT CAVOK 20/14 Q1024 NOSIG=
201307122050 METAR COR EGLL 122050Z VRB02KT CAVOK 22/14 Q1024 NOSIG=
201307122020 METAR COR EGLL 122020Z VRB02KT CAVOK 22/14 Q1024 NOSIG=
201307121950 METAR COR EGLL 121950Z VRB03KT CAVOK 23/13 Q1024 NOSIG=
201307121920 METAR COR EGLL 121920Z 36005KT CAVOK 24/13 Q1023 NOSIG=
201307121850 METAR COR EGLL 121850Z 35004KT 310V030 CAVOK 24/13 Q1023
                        NOSIG=
201307121820 METAR COR EGLL 121820Z VRB03KT CAVOK 25/13 Q1023 NOSIG=
201307121750 METAR COR EGLL 121750Z 02004KT 330V080 CAVOK 25/13 Q1023
                        NOSIG=
201307121720 METAR COR EGLL 121720Z VRB03KT CAVOK 25/12 Q1023 NOSIG=
201307121650 METAR COR EGLL 121650Z VRB03KT CAVOK 25/12 Q1024 NOSIG=
201307121620 METAR COR EGLL 121620Z 03005KT 340V100 CAVOK 25/13 Q1024
                        NOSIG=
201307121550 METAR EGLL 121550Z 04006KT 010V090 CAVOK 25/12 Q1024=
201307121520 METAR COR EGLL 121520Z 05004KT 280V090 CAVOK 25/12 Q1024
                        NOSIG=
201307121450 METAR COR EGLL 121450Z VRB04KT CAVOK 24/13 Q1024 NOSIG=
201307121420 METAR COR EGLL 121420Z VRB03KT CAVOK 23/12 Q1025 NOSIG=
201307121350 METAR COR EGLL 121350Z 06005KT 360V130 CAVOK 23/12 Q1025
                        NOSIG=
201307121320 METAR COR EGLL 121320Z VRB04KT CAVOK 22/12 Q1025 NOSIG=
201307121250 METAR COR EGLL 121250Z 04004KT 350V100 CAVOK 21/12 Q1025
                        NOSIG=
201307121220 METAR COR EGLL 121220Z VRB04KT CAVOK 20/11 Q1025 NOSIG=
201307121150 METAR COR EGLL 121150Z 08004KT 350V170 CAVOK 19/11 Q1026
                        NOSIG=
201307121120 METAR COR EGLL 121120Z VRB03KT CAVOK 19/12 Q1026 NOSIG=
201307121050 METAR COR EGLL 121050Z VRB04KT 9999 SCT021 18/11 Q1026 NOSIG=
201307121020 METAR EGLL 121020Z 03005KT 340V070 9999 BKN019 17/11 Q1026=
201307120950 METAR COR EGLL 120950Z 08004KT 360V140 9999 BKN017 16/11
                        Q1026 NOSIG=
201307120920 METAR COR EGLL 120920Z 06004KT 360V100 9999 BKN015 15/11
                        Q1026 NOSIG=
201307120850 METAR COR EGLL 120850Z 10005KT 050V130 9999 BKN015 15/11
                        Q1026 NOSIG=
201307120820 METAR EGLL 120820Z AUTO 11005KT 070V140 9999 OVC015/// 15/11
                        Q1026=
201307120750 METAR EGLL 120750Z AUTO 09005KT 040V130 9999 OVC015/// 14/10
                        Q1026=
201307120720 METAR EGLL 120720Z AUTO 08006KT 040V110 9999 BKN015/// 14/10
                        Q1026=
201307120650 METAR EGLL 120650Z AUTO 07006KT 9999 OVC017/// 13/10 Q1026=
201307120620 METAR EGLL 120620Z AUTO 06007KT 9999 SCT017/// 13/10 Q1026=
201307120550 METAR EGLL 120550Z AUTO 05005KT 360V080 9999 NCD 13/10 Q1026=
201307120520 METAR COR EGLL 120520Z 04005KT 340V070 CAVOK 12/10 Q1025
                        TEMPO BKN014=
201307120450 METAR COR EGLL 120450Z 04004KT CAVOK 12/10 Q1025 TEMPO BKN014=
201307120420 METAR COR EGLL 120420Z 05005KT 010V080 CAVOK 12/10 Q1025
                        TEMPO BKN014=
201307120350 METAR COR EGLL 120350Z 06006KT 9999 FEW016 13/10 Q1025 TEMPO
                        BKN014=
201307120320 METAR COR EGLL 120320Z 06004KT 030V090 9999 BKN017 13/10
                        Q1025 TEMPO BKN014=
201307120250 METAR COR EGLL 120250Z 05005KT 020V090 9999 BKN018 14/11
                        Q1025 TEMPO BKN014=
201307120220 METAR EGLL 120220Z AUTO 07005KT 9999 OVC018/// 14/11 Q1025=
201307120150 METAR EGLL 120150Z AUTO 06005KT 9999 OVC018/// 14/11 Q1025=
201307120120 METAR EGLL 120120Z AUTO 07003KT 9999 OVC018/// 14/11 Q1025=
201307120050 METAR COR EGLL 120050Z 10003KT 9999 SCT019 13/11 Q1026 NOSIG=
201307120020 METAR COR EGLL 120020Z 09004KT CAVOK 13/11 Q1026 NOSIG=
201307112350 METAR COR EGLL 112350Z 11005KT 070V150 CAVOK 13/11 Q1025
                        NOSIG=
201307112320 METAR COR EGLL 112320Z 10006KT CAVOK 13/11 Q1025 NOSIG=
201307112250 METAR COR EGLL 112250Z 10005KT CAVOK 14/11 Q1025 NOSIG=
201307112220 METAR COR EGLL 112220Z 10007KT CAVOK 14/11 Q1025 NOSIG=
201307112150 METAR COR EGLL 112150Z 10008KT 050V150 CAVOK 15/11 Q1025
                        NOSIG=
201307112120 METAR COR EGLL 112120Z 10008KT CAVOK 15/11 Q1025 NOSIG=
201307112050 METAR COR EGLL 112050Z 10008KT CAVOK 16/11 Q1025 NOSIG=
201307112020 METAR COR EGLL 112020Z 09007KT CAVOK 18/11 Q1024 NOSIG=
201307111950 METAR COR EGLL 111950Z 09008KT CAVOK 20/10 Q1024 NOSIG=
201307111920 METAR COR EGLL 111920Z 04007KT 010V080 CAVOK 21/09 Q1024
                        NOSIG=
201307111850 METAR COR EGLL 111850Z 03007KT 350V070 CAVOK 21/08 Q1024
                        NOSIG=
201307111820 METAR COR EGLL 111820Z 03008KT 350V070 CAVOK 22/08 Q1024
                        NOSIG=
201307111750 METAR COR EGLL 111750Z 03007KT 340V080 CAVOK 22/09 Q1024
                        NOSIG=
201307111720 METAR COR EGLL 111720Z 02007KT 330V080 CAVOK 22/08 Q1024
                        NOSIG=
201307111650 METAR COR EGLL 111650Z 05008KT 360V110 CAVOK 23/08 Q1024
                        NOSIG=
201307111620 METAR COR EGLL 111620Z 03007KT 340V090 CAVOK 23/09 Q1024
                        NOSIG=
201307111550 METAR COR EGLL 111550Z 06008KT 030V090 CAVOK 23/08 Q1024
                        NOSIG=
201307111520 METAR COR EGLL 111520Z 03007KT 330V100 CAVOK 23/08 Q1024
                        NOSIG=
201307111450 METAR EGLL 111450Z 04007KT 340V130 CAVOK 23/08 Q1024=
201307111420 METAR COR EGLL 111420Z 04007KT 340V100 CAVOK 22/09 Q1025
                        NOSIG=
201307111350 METAR COR EGLL 111350Z VRB06KT CAVOK 22/08 Q1025 NOSIG=
201307111320 METAR COR EGLL 111320Z 02007KT 330V080 CAVOK 21/08 Q1025
                        NOSIG=
201307111250 METAR COR EGLL 111250Z 06007KT 010V090 CAVOK 21/08 Q1025
                        NOSIG=
201307111220 METAR COR EGLL 111220Z 05007KT 340V110 CAVOK 20/08 Q1025
                        NOSIG=
201307111150 METAR COR EGLL 111150Z VRB06KT CAVOK 20/08 Q1025 NOSIG=
201307111120 METAR COR EGLL 111120Z 04007KT 330V080 CAVOK 19/08 Q1025
                        NOSIG=
201307111050 METAR COR EGLL 111050Z 04008KT 010V080 CAVOK 18/08 Q1026
                        NOSIG=
201307111020 METAR COR EGLL 111020Z 05008KT 010V090 CAVOK 17/08 Q1026
                        NOSIG=
201307110950 METAR COR EGLL 110950Z 05007KT 330V090 9999 FEW032 16/08
                        Q1026 NOSIG=
201307110920 METAR COR EGLL 110920Z 08008KT 9999 FEW030 16/08 Q1026 NOSIG=
201307110850 METAR COR EGLL 110850Z 04008KT 330V070 9999 FEW028 15/08
                        Q1026 NOSIG=
201307110820 METAR COR EGLL 110820Z 08007KT 340V100 9999 SCT025 15/08
                        Q1026 NOSIG=
201307110750 METAR COR EGLL 110750Z 04007KT 340V100 9999 SCT020 14/08
                        Q1026 NOSIG=
201307110720 METAR COR EGLL 110720Z 06007KT 010V090 9999 SCT020 13/07
                        Q1026 NOSIG=
201307110650 METAR COR EGLL 110650Z 02007KT 330V060 9999 SCT020 13/08
                        Q1026 NOSIG=
201307110620 METAR COR EGLL 110620Z 06009KT 020V090 9999 SCT020 12/07
                        Q1026 NOSIG=
201307110550 METAR COR EGLL 110550Z 04007KT 360V080 9999 BKN022 12/07
                        Q1026 NOSIG=
201307110520 METAR COR EGLL 110520Z 03007KT 9999 OVC023 12/07 Q1026 NOSIG=
201307110450 METAR COR EGLL 110450Z 03006KT 350V070 9999 BKN022 12/07
                        Q1026 NOSIG=
201307110420 METAR COR EGLL 110420Z 03008KT 9999 BKN022 12/07 Q1026 NOSIG=
201307110350 METAR COR EGLL 110350Z 06005KT 360V100 9999 BKN022 12/07
                        Q1026 NOSIG=
201307110320 METAR COR EGLL 110320Z 03006KT 360V060 9999 BKN022 12/07
                        Q1026 NOSIG=
201307110250 METAR COR EGLL 110250Z 03007KT 9999 BKN022 12/07 Q1026 NOSIG=
201307110220 METAR EGLL 110220Z AUTO 03007KT 360V070 9999 BKN022/// 12/07
                        Q1026=
201307110150 METAR EGLL 110150Z AUTO 04007KT 340V080 9999 OVC021/// 12/08
                        Q1026=
201307110120 METAR EGLL 110120Z AUTO 05008KT 020V100 9999 OVC020/// 12/08
                        Q1026=
201307110050 METAR COR EGLL 110050Z 05008KT 010V080 9999 BKN020 12/08
                        Q1026 NOSIG=
201307110020 METAR COR EGLL 110020Z 05006KT 360V080 9999 FEW021 12/09
                        Q1026 NOSIG=
201307102350 METAR COR EGLL 102350Z 04006KT 360V070 CAVOK 12/09 Q1026
                        NOSIG=
201307102320 METAR COR EGLL 102320Z 04007KT CAVOK 12/09 Q1026 NOSIG=
201307102250 METAR COR EGLL 102250Z 04007KT 360V070 CAVOK 13/09 Q1026
                        NOSIG=
201307102220 METAR COR EGLL 102220Z 03008KT 340V060 CAVOK 13/09 Q1026
                        NOSIG=
201307102150 METAR COR EGLL 102150Z 02008KT 350V060 CAVOK 14/10 Q1026
                        NOSIG=
201307102120 METAR COR EGLL 102120Z 03007KT 350V070 CAVOK 14/10 Q1026
                        NOSIG=
201307102050 METAR COR EGLL 102050Z 02009KT 340V070 CAVOK 15/10 Q1025
                        NOSIG=
201307102020 METAR COR EGLL 102020Z 02009KT 350V050 CAVOK 16/11 Q1025
                        NOSIG=
201307101950 METAR COR EGLL 101950Z 01009KT 350V050 CAVOK 17/11 Q1025
                        NOSIG=
201307101920 METAR COR EGLL 101920Z 02009KT 350V060 CAVOK 18/12 Q1025
                        NOSIG=
201307101850 METAR COR EGLL 101850Z 02009KT 330V050 CAVOK 19/12 Q1025
                        NOSIG=
201307101820 METAR COR EGLL 101820Z 01008KT 340V070 CAVOK 20/12 Q1024
                        NOSIG=
201307101750 METAR COR EGLL 101750Z 01010KT 340V050 CAVOK 21/12 Q1024
                        NOSIG=
201307101720 METAR COR EGLL 101720Z 01009KT 9999 FEW040 22/12 Q1024 NOSIG=
201307101650 METAR COR EGLL 101650Z 03010KT 360V060 9999 FEW040 22/12
                        Q1024 NOSIG=
201307101620 METAR COR EGLL 101620Z 01009KT 340V060 9999 FEW039 23/13
                        Q1025 NOSIG=
201307101550 METAR COR EGLL 101550Z 02010KT 340V050 9999 FEW038 SCT044
                        23/13 Q1025 NOSIG=
201307101520 METAR COR EGLL 101520Z 04009KT 360V080 9999 FEW038 SCT040
                        23/13 Q1025 NOSIG=
201307101450 METAR COR EGLL 101450Z 03010KT 9999 FEW036 SCT042 23/14 Q1025
                        NOSIG=
201307101420 METAR COR EGLL 101420Z 02010KT 350V060 9999 FEW035 SCT042
                        24/14 Q1025 NOSIG=
201307101350 METAR EGLL 101350Z 04010KT 020V080 9999 FEW037 SCT043 24/14
                        Q1025=
201307101320 METAR COR EGLL 101320Z 05011KT 010V080 9999 SCT038 24/14
                        Q1025 NOSIG=
201307101250 METAR COR EGLL 101250Z 04011KT 010V080 9999 FEW034 SCT040
                        24/14 Q1025 NOSIG=
201307101220 METAR COR EGLL 101220Z 04010KT 340V080 9999 SCT035 23/14
                        Q1025 NOSIG=
201307101150 METAR COR EGLL 101150Z 06011KT 020V090 9999 FEW033 SCT036
                        23/14 Q1025 NOSIG=
201307101120 METAR COR EGLL 101120Z 04009KT 010V080 9999 SCT035 23/14
                        Q1025 NOSIG=
201307101050 METAR COR EGLL 101050Z 04008KT 350V080 9999 FEW048 23/13
                        Q1026 NOSIG=
201307101020 METAR COR EGLL 101020Z 04009KT 360V080 9999 FEW048 23/11
                        Q1026 NOSIG=
201307100950 METAR COR EGLL 100950Z 04009KT 010V080 9999 FEW048 23/11
                        Q1026 NOSIG=
201307100920 METAR COR EGLL 100920Z 06009KT 010V090 CAVOK 22/12 Q1026
                        NOSIG=
201307100850 METAR COR EGLL 100850Z 04008KT 010V080 CAVOK 22/12 Q1026
                        NOSIG=
201307100820 METAR COR EGLL 100820Z 07009KT 020V090 CAVOK 21/12 Q1026
                        NOSIG=
201307100750 METAR EGLL 100750Z 05008KT 010V080 CAVOK 20/11 Q1026=
201307100720 METAR COR EGLL 100720Z 07010KT CAVOK 19/10 Q1026 NOSIG=
201307100650 METAR COR EGLL 100650Z 06008KT CAVOK 18/10 Q1026 NOSIG=
201307100620 METAR COR EGLL 100620Z 06007KT CAVOK 17/10 Q1026 NOSIG=
201307100550 METAR COR EGLL 100550Z 05007KT CAVOK 15/09 Q1026 NOSIG=
201307100520 METAR COR EGLL 100520Z 04004KT 010V080 CAVOK 14/07 Q1026
                        NOSIG=
201307100450 METAR COR EGLL 100450Z 05004KT 010V080 CAVOK 14/07 Q1026
                        NOSIG=
201307100420 METAR COR EGLL 100420Z 05005KT CAVOK 14/09 Q1026 NOSIG=
201307100350 METAR COR EGLL 100350Z 04004KT CAVOK 14/10 Q1026 NOSIG=
201307100250 METAR COR EGLL 100250Z 04005KT 010V070 CAVOK 15/11 Q1025
                        NOSIG=
201307100220 METAR COR EGLL 100220Z 04004KT CAVOK 15/11 Q1025 NOSIG=
201307100150 METAR EGLL 100150Z AUTO 04003KT 9999 NCD 16/11 Q1025=
201307100120 METAR EGLL 100120Z AUTO 05003KT 9999 NCD 16/11 Q1025=
201307100050 METAR EGLL 100050Z AUTO VRB02KT 9999 NCD 17/11 Q1026=
201307100020 METAR COR EGLL 100020Z 00000KT CAVOK 17/11 Q1026 NOSIG=
201307092350 METAR COR EGLL 092350Z 09003KT CAVOK 17/11 Q1026 NOSIG=
201307092320 METAR COR EGLL 092320Z 10003KT CAVOK 16/10 Q1026 NOSIG=
201307092250 METAR EGLL 092250Z 12006KT 080V160 CAVOK 18/10 Q1026=
201307092220 METAR COR EGLL 092220Z 14005KT 060V180 CAVOK 19/10 Q1026
                        NOSIG=
201307092150 METAR COR EGLL 092150Z 11006KT 080V160 CAVOK 19/09 Q1026
                        NOSIG=
201307092120 METAR COR EGLL 092120Z 07005KT CAVOK 21/09 Q1026 NOSIG=
201307092050 METAR COR EGLL 092050Z 07005KT CAVOK 21/09 Q1026 NOSIG=
201307092020 METAR EGLL 092020Z 07004KT 010V110 CAVOK 22/09 Q1026=
201307091950 METAR COR EGLL 091950Z 08006KT CAVOK 23/09 Q1025 NOSIG=
201307091920 METAR COR EGLL 091920Z 04007KT 010V070 CAVOK 24/08 Q1025
                        NOSIG=
201307091850 METAR COR EGLL 091850Z 02007KT 340V060 CAVOK 25/07 Q1025
                        NOSIG=
201307091820 METAR COR EGLL 091820Z 03007G17KT 350V080 CAVOK 25/06 Q1025
                        NOSIG=
201307091750 METAR COR EGLL 091750Z 03006KT 340V070 CAVOK 26/07 Q1025
                        NOSIG=
201307091720 METAR COR EGLL 091720Z 03007KT 350V100 CAVOK 26/07 Q1025
                        NOSIG=
201307091650 METAR COR EGLL 091650Z 03007KT 330V070 CAVOK 26/07 Q1026
                        NOSIG=
201307091620 METAR COR EGLL 091620Z 05009KT 010V090 CAVOK 26/07 Q1026
                        NOSIG=
201307091550 METAR COR EGLL 091550Z 04007KT 360V070 CAVOK 27/06 Q1026
                        NOSIG=
201307091520 METAR COR EGLL 091520Z 04007KT 330V110 CAVOK 26/06 Q1026
                        NOSIG=
201307091450 METAR COR EGLL 091450Z 05007KT 360V090 CAVOK 26/06 Q1026
                        NOSIG=
201307091420 METAR COR EGLL 091420Z 05008KT 340V100 CAVOK 27/05 Q1027
                        NOSIG=
201307091350 METAR COR EGLL 091350Z 05008KT 360V080 CAVOK 26/04 Q1027
                        NOSIG=
201307091320 METAR COR EGLL 091320Z 02006KT 320V080 CAVOK 26/05 Q1027
                        NOSIG=
201307091250 METAR COR EGLL 091250Z 04008KT 340V090 CAVOK 25/04 Q1027
                        NOSIG=
201307091220 METAR COR EGLL 091220Z 04008KT 010V090 CAVOK 25/04 Q1028
                        NOSIG=
201307091150 METAR COR EGLL 091150Z 06007KT 010V100 CAVOK 24/03 Q1028
                        NOSIG=
201307091120 METAR COR EGLL 091120Z 06007KT 010V090 CAVOK 24/04 Q1028
                        NOSIG=
201307091050 METAR EGLL 091050Z 06008KT CAVOK 23/04 Q1029=
201307091020 METAR COR EGLL 091020Z 06007KT 360V100 CAVOK 22/04 Q1029
                        NOSIG=
201307090950 METAR COR EGLL 090950Z 05007KT 360V080 CAVOK 21/04 Q1029
                        NOSIG=
201307090920 METAR COR EGLL 090920Z 03007KT 350V080 CAVOK 20/05 Q1029
                        NOSIG=
201307090850 METAR COR EGLL 090850Z 06007KT 020V100 CAVOK 19/05 Q1029
                        NOSIG=
201307090820 METAR COR EGLL 090820Z 04007KT 360V070 CAVOK 18/06 Q1030
                        NOSIG=
201307090750 METAR COR EGLL 090750Z 05008KT 010V090 CAVOK 17/07 Q1030
                        NOSIG=
201307090720 METAR COR EGLL 090720Z 05007KT 010V090 CAVOK 16/08 Q1030
                        NOSIG=
201307090650 METAR COR EGLL 090650Z 05007KT 020V080 CAVOK 15/08 Q1030
                        NOSIG=
201307090620 METAR COR EGLL 090620Z 06007KT 030V090 CAVOK 14/09 Q1030
                        NOSIG=
201307090550 METAR COR EGLL 090550Z 05007KT 020V090 CAVOK 13/10 Q1030
                        NOSIG=
201307090520 METAR COR EGLL 090520Z 05007KT CAVOK 13/10 Q1030 NOSIG=
201307090450 METAR COR EGLL 090450Z 04005KT CAVOK 12/10 Q1030 NOSIG=
201307090420 METAR COR EGLL 090420Z 04006KT 010V070 CAVOK 12/10 Q1030
                        NOSIG=
201307090350 METAR COR EGLL 090350Z 04006KT CAVOK 13/11 Q1030 NOSIG=
201307090320 METAR EGLL 090320Z 04006KT CAVOK 13/11 Q1030=
201307090250 METAR COR EGLL 090250Z 04007KT 010V070 CAVOK 14/10 Q1030
                        NOSIG=
201307090220 METAR COR EGLL 090220Z 04005KT CAVOK 14/10 Q1031 NOSIG=
201307090150 METAR EGLL 090150Z AUTO 04006KT 9999 NCD 15/11 Q1031=
201307090120 METAR EGLL 090120Z AUTO 04007KT 010V080 9999 NCD 15/12 Q1031=
201307090050 METAR EGLL 090050Z AUTO 05006KT 9999 NCD 16/13 Q1031=
201307090020 METAR COR EGLL 090020Z 06006KT 020V090 CAVOK 16/13 Q1031
                        NOSIG=
201307082350 METAR COR EGLL 082350Z 05007KT 010V080 CAVOK 17/13 Q1031
                        NOSIG=
201307082320 METAR COR EGLL 082320Z 05006KT CAVOK 17/13 Q1031 NOSIG=
201307082250 METAR COR EGLL 082250Z 06007KT CAVOK 18/13 Q1031 NOSIG=
201307082220 METAR COR EGLL 082220Z 06010KT CAVOK 18/14 Q1031 NOSIG=
201307082150 METAR COR EGLL 082150Z 06007KT CAVOK 19/15 Q1031 NOSIG=
201307082120 METAR COR EGLL 082120Z 06010KT CAVOK 19/15 Q1031 NOSIG=
201307082050 METAR COR EGLL 082050Z 06010KT CAVOK 20/15 Q1031 NOSIG=
201307082020 METAR COR EGLL 082020Z 05009KT 020V080 CAVOK 21/14 Q1031
                        NOSIG=
201307081950 METAR COR EGLL 081950Z 06010KT CAVOK 22/14 Q1031 NOSIG=
201307081920 METAR EGLL 081920Z 06010KT 010V080 CAVOK 23/13 Q1031=
201307081850 METAR COR EGLL 081850Z 06010KT CAVOK 24/14 Q1030 NOSIG=
201307081820 METAR COR EGLL 081820Z 05008KT 010V080 9999 FEW046 24/16
                        Q1030 NOSIG=
201307081750 METAR EGLL 081750Z 02008KT 350V060 9999 FEW044 25/16 Q1030=
201307081720 METAR COR EGLL 081720Z 03010KT 360V060 9999 FEW041 26/16
                        Q1030 NOSIG=
201307081650 METAR COR EGLL 081650Z 04010KT 360V060 9999 FEW043 26/16
                        Q1031 NOSIG=
201307081620 METAR COR EGLL 081620Z 04009KT 360V090 CAVOK 27/14 Q1031
                        NOSIG=
201307081550 METAR COR EGLL 081550Z 06010KT 020V090 CAVOK 27/14 Q1031
                        NOSIG=
201307081520 METAR COR EGLL 081520Z 04009KT 010V070 CAVOK 28/13 Q1031
                        NOSIG=
201307081450 METAR COR EGLL 081450Z 04010KT 350V080 CAVOK 27/13 Q1031
                        NOSIG=
201307081420 METAR COR EGLL 081420Z 05010KT 020V080 CAVOK 27/13 Q1032
                        NOSIG=
201307081350 METAR COR EGLL 081350Z 07010KT 020V110 CAVOK 27/13 Q1032
                        NOSIG=
201307081320 METAR COR EGLL 081320Z 05008KT 350V090 CAVOK 27/12 Q1032
                        NOSIG=
201307081250 METAR COR EGLL 081250Z 06009KT 020V090 CAVOK 26/12 Q1032
                        NOSIG=
201307081220 METAR COR EGLL 081220Z 06010KT 030V100 CAVOK 26/12 Q1033
                        NOSIG=
201307081150 METAR COR EGLL 081150Z 07010KT 010V110 CAVOK 26/12 Q1033
                        NOSIG=
201307081120 METAR COR EGLL 081120Z 07010KT 030V100 CAVOK 25/12 Q1033
                        NOSIG=
201307081050 METAR COR EGLL 081050Z 06011KT 020V090 CAVOK 25/12 Q1033
                        NOSIG=
201307081020 METAR COR EGLL 081020Z 05010KT 010V070 CAVOK 24/11 Q1033
                        NOSIG=
201307080950 METAR COR EGLL 080950Z 07010KT CAVOK 24/10 Q1033 NOSIG=
201307080920 METAR COR EGLL 080920Z 05009KT 010V070 CAVOK 23/10 Q1034
                        NOSIG=
201307080850 METAR COR EGLL 080850Z 06008KT 020V090 CAVOK 22/10 Q1034
                        NOSIG=
201307080820 METAR COR EGLL 080820Z 05009KT 020V080 CAVOK 21/10 Q1034
                        NOSIG=
201307080750 METAR COR EGLL 080750Z 06009KT 010V080 CAVOK 20/10 Q1034
                        NOSIG=
201307080720 METAR COR EGLL 080720Z 06007KT CAVOK 19/11 Q1034 NOSIG=
201307080650 METAR COR EGLL 080650Z 05006KT 360V080 CAVOK 18/12 Q1034
                        NOSIG=
201307080620 METAR COR EGLL 080620Z 05008KT CAVOK 17/12 Q1034 NOSIG=
201307080550 METAR COR EGLL 080550Z 05007KT 010V080 CAVOK 16/13 Q1034
                        NOSIG=
201307080520 METAR COR EGLL 080520Z 04006KT CAVOK 16/13 Q1034 NOSIG=
201307080450 METAR COR EGLL 080450Z 04006KT 010V080 CAVOK 15/12 Q1034
                        NOSIG=
201307080420 METAR COR EGLL 080420Z 03006KT CAVOK 15/13 Q1034 NOSIG=
201307080350 METAR COR EGLL 080350Z AUTO 04005KT 9999 NCD 16/13 Q1034
                        NOSIG=
201307080320 METAR COR EGLL 080320Z 05005KT 010V080 CAVOK 16/13 Q1034
                        NOSIG=
201307080250 METAR COR EGLL 080250Z 05004KT 020V100 CAVOK 17/14 Q1034
                        NOSIG=
201307080220 METAR EGLL 080220Z AUTO 06004KT 9999 NCD 17/14 Q1034=
201307080150 METAR EGLL 080150Z AUTO 05004KT 9999 NCD 17/14 Q1034=
201307080120 METAR EGLL 080120Z AUTO 06006KT 9999 NCD 18/14 Q1034=
201307080050 METAR COR EGLL 080050Z 06007KT CAVOK 18/14 Q1034 NOSIG=
201307080020 METAR COR EGLL 080020Z 06005KT CAVOK 19/14 Q1034 NOSIG=
201307072350 METAR COR EGLL 072350Z 05005KT 020V080 CAVOK 19/14 Q1033
                        NOSIG=
201307072320 METAR COR EGLL 072320Z 06004KT CAVOK 20/14 Q1033 NOSIG=
201307072250 METAR COR EGLL 072250Z 07005KT CAVOK 20/14 Q1033 NOSIG=
201307072220 METAR COR EGLL 072220Z 08007KT CAVOK 20/14 Q1033 NOSIG=
201307072150 METAR COR EGLL 072150Z 07006KT CAVOK 21/13 Q1033 NOSIG=
201307072120 METAR COR EGLL 072120Z 07006KT CAVOK 22/14 Q1033 NOSIG=
201307072050 METAR COR EGLL 072050Z 07006KT CAVOK 22/13 Q1033 NOSIG=
201307072020 METAR COR EGLL 072020Z 10009KT CAVOK 22/13 Q1032 NOSIG=
201307071950 METAR COR EGLL 071950Z 11010KT 9999 FEW044 23/13 Q1032 NOSIG=
201307071920 METAR COR EGLL 071920Z 10010KT 9999 FEW044 24/13 Q1032 NOSIG=
201307071850 METAR COR EGLL 071850Z 09010KT CAVOK 25/13 Q1031 NOSIG=
201307071820 METAR COR EGLL 071820Z 10011KT CAVOK 26/14 Q1031 NOSIG=
201307071750 METAR COR EGLL 071750Z 09011KT CAVOK 27/14 Q1031 NOSIG=
201307071720 METAR COR EGLL 071720Z 09012KT CAVOK 28/14 Q1031 NOSIG=
201307071650 METAR COR EGLL 071650Z 09009KT CAVOK 29/11 Q1031 NOSIG=
201307071620 METAR EGLL 071620Z 03008KT 350V070 CAVOK 29/11 Q1031=
201307071550 METAR COR EGLL 071550Z 04007KT 320V080 CAVOK 29/11 Q1031
                        NOSIG=
201307071520 METAR COR EGLL 071520Z 06007KT 020V100 CAVOK 29/10 Q1031
                        NOSIG=
201307071450 METAR COR EGLL 071450Z 03006KT 340V120 CAVOK 29/10 Q1031
                        NOSIG=
201307071420 METAR EGLL 071420Z 04007KT 350V080 CAVOK 29/10 Q1031=
201307071350 METAR COR EGLL 071350Z VRB06KT CAVOK 29/11 Q1031 NOSIG=
201307071320 METAR COR EGLL 071320Z 03006KT 330V100 CAVOK 29/11 Q1032
                        NOSIG=
201307071250 METAR COR EGLL 071250Z 07008KT 020V110 CAVOK 28/12 Q1032
                        NOSIG=
201307071220 METAR COR EGLL 071220Z 04006KT 320V100 CAVOK 28/13 Q1032
                        NOSIG=
201307071150 METAR COR EGLL 071150Z 05007KT 340V100 CAVOK 27/13 Q1032
                        NOSIG=
201307071120 METAR EGLL 071120Z 06007KT 010V110 CAVOK 27/13 Q1032=
201307071050 METAR COR EGLL 071050Z 07006KT 320V130 CAVOK 27/14 Q1032
                        NOSIG=
201307071020 METAR COR EGLL 071020Z 06008KT 010V090 CAVOK 26/14 Q1032
                        NOSIG=
201307070950 METAR COR EGLL 070950Z 07007KT 040V100 CAVOK 26/14 Q1032
                        NOSIG=
201307070920 METAR COR EGLL 070920Z 04006KT 360V100 CAVOK 25/14 Q1032
                        NOSIG=
201307070850 METAR COR EGLL 070850Z 06006KT 020V100 CAVOK 24/14 Q1032
                        NOSIG=
201307070820 METAR COR EGLL 070820Z 06006KT 010V100 CAVOK 23/15 Q1032
                        NOSIG=
201307070750 METAR COR EGLL 070750Z VRB03KT 8000 NSC 22/15 Q1032 NOSIG=
201307070720 METAR COR EGLL 070720Z VRB03KT 6000 NSC 20/16 Q1032 NOSIG=
201307070650 METAR COR EGLL 070650Z VRB03KT 4800 HZ NSC 19/16 Q1032 BECMG
                        9000=
201307070620 METAR COR EGLL 070620Z VRB03KT 4500 HZ NSC 18/16 Q1031 BECMG
                        7000=
201307070550 METAR COR EGLL 070550Z 35003KT 4000 HZ NSC 17/15 Q1031 BECMG
                        6000=
201307070520 METAR COR EGLL 070520Z 35003KT 4000 HZ NSC 16/15 Q1031 BECMG
                        6000=
201307070450 METAR COR EGLL 070450Z 35003KT 3700 HZ NSC 16/15 Q1031 BECMG
                        5000=
201307070420 METAR COR EGLL 070420Z 04003KT 3700 HZ NSC 17/15 Q1031 BECMG
                        5000=
201307070350 METAR COR EGLL 070350Z 03003KT 4200 HZ NSC 17/15 Q1031 BECMG
                        5000=
201307070320 METAR COR EGLL 070320Z VRB03KT 4300 HZ NSC 17/15 Q1031 TEMPO
                        5000=
201307070250 METAR COR EGLL 070250Z 04003KT 4000 HZ NSC 17/15 Q1031 TEMPO
                        5000=
201307070220 METAR COR EGLL 070220Z 06003KT 4000 HZ NSC 18/16 Q1031 TEMPO
                        5000=
201307070150 METAR COR EGLL 070150Z VRB03KT 5000 HZ NSC 18/16 Q1031 TEMPO
                        4500=
201307070120 METAR EGLL 070120Z AUTO 07003KT 5000 NCD 18/16 Q1031=
201307070050 METAR EGLL 070050Z AUTO 09004KT 5000 NCD 19/16 Q1031=
201307070020 METAR EGLL 070020Z AUTO 08005KT 5000 NCD 18/16 Q1030=
201307062350 METAR COR EGLL 062350Z 09006KT 6000 NSC 19/16 Q1030 TEMPO
                        4500 HZ=
201307062320 METAR COR EGLL 062320Z 10007KT 7000 NSC 19/16 Q1030 TEMPO
                        4500 HZ=
201307062250 METAR COR EGLL 062250Z 09007KT 9000 NSC 20/16 Q1030 NOSIG=
201307062220 METAR COR EGLL 062220Z 11010KT 080V160 CAVOK 20/16 Q1030
                        NOSIG=
201307062150 METAR COR EGLL 062150Z 09007KT 070V140 CAVOK 22/16 Q1030
                        NOSIG=
201307062120 METAR COR EGLL 062120Z 11006KT CAVOK 22/16 Q1030 NOSIG=
201307062050 METAR COR EGLL 062050Z 10009KT CAVOK 23/16 Q1029 NOSIG=
201307062020 METAR COR EGLL 062020Z 07008KT 030V100 9999 FEW048 24/16
                        Q1029 NOSIG=
201307061950 METAR COR EGLL 061950Z 31006KT CAVOK 25/13 Q1028 NOSIG=
201307061920 METAR COR EGLL 061920Z 31004KT CAVOK 25/12 Q1028 NOSIG=
201307061850 METAR COR EGLL 061850Z 32005KT 270V350 CAVOK 26/12 Q1028
                        NOSIG=
201307061820 METAR COR EGLL 061820Z VRB05KT CAVOK 27/12 Q1028 NOSIG=
201307061750 METAR COR EGLL 061750Z 33004KT 260V060 CAVOK 27/12 Q1028
                        NOSIG=
201307061720 METAR COR EGLL 061720Z VRB02KT CAVOK 27/11 Q1028 NOSIG=
201307061650 METAR EGLL 061650Z VRB03KT CAVOK 27/11 Q1028=
201307061620 METAR COR EGLL 061620Z 02004KT 300V080 CAVOK 27/11 Q1028
                        NOSIG=
201307061550 METAR COR EGLL 061550Z VRB06KT CAVOK 28/11 Q1028 NOSIG=
201307061520 METAR COR EGLL 061520Z 15007KT 090V220 CAVOK 27/12 Q1028
                        NOSIG=
201307061450 METAR COR EGLL 061450Z VRB04KT CAVOK 27/12 Q1028 NOSIG=
201307061420 METAR COR EGLL 061420Z 23007KT 130V290 CAVOK 27/12 Q1028
                        NOSIG=
201307061350 METAR COR EGLL 061350Z 22005KT 140V310 CAVOK 27/12 Q1028
                        NOSIG=
201307061320 METAR COR EGLL 061320Z 18004KT 140V240 CAVOK 26/12 Q1029
                        NOSIG=
201307061250 METAR COR EGLL 061250Z VRB04KT 9999 FEW045 26/13 Q1029 NOSIG=
201307061220 METAR COR EGLL 061220Z VRB04KT 9999 FEW044 25/13 Q1029 NOSIG=
201307061150 METAR COR EGLL 061150Z VRB05KT 9999 FEW041 25/13 Q1029 NOSIG=
201307061120 METAR COR EGLL 061120Z VRB05KT 9999 SCT040 25/13 Q1029 NOSIG=
201307061050 METAR COR EGLL 061050Z VRB03KT 9999 SCT038 24/13 Q1029 NOSIG=
201307061020 METAR COR EGLL 061020Z 20005KT 150V260 9999 FEW032 23/13
                        Q1030 NOSIG=
201307060950 METAR COR EGLL 060950Z VRB03KT 9999 FEW032 23/13 Q1030 NOSIG=
201307060920 METAR COR EGLL 060920Z VRB03KT CAVOK 22/13 Q1030 NOSIG=
201307060850 METAR COR EGLL 060850Z VRB03KT CAVOK 21/13 Q1030 NOSIG=
201307060820 METAR COR EGLL 060820Z VRB03KT CAVOK 21/12 Q1030 NOSIG=
201307060750 METAR COR EGLL 060750Z VRB03KT CAVOK 20/11 Q1030 NOSIG=
201307060720 METAR COR EGLL 060720Z 10004KT 070V150 CAVOK 19/11 Q1030
                        NOSIG=
201307060650 METAR EGLL 060650Z AUTO VRB03KT 9999 NCD 18/12 Q1030=
201307060620 METAR EGLL 060620Z AUTO VRB03KT 9999 FEW020/// 16/12 Q1030=
201307060550 METAR EGLL 060550Z AUTO VRB02KT 9999 SCT019/// 15/12 Q1030=
201307060520 METAR COR EGLL 060520Z 35002KT 9999 SCT019 14/12 Q1030 NOSIG=
201307060450 METAR COR EGLL 060450Z 00000KT CAVOK 14/12 Q1030 NOSIG=
201307060420 METAR COR EGLL 060420Z 07002KT CAVOK 14/11 Q1030 NOSIG=
201307060350 METAR COR EGLL 060350Z 08004KT CAVOK 15/11 Q1030 NOSIG=
201307060320 METAR EGLL 060320Z AUTO 08003KT 9999 NCD 15/11 Q1030=
201307060250 METAR COR EGLL 060250Z 07003KT CAVOK 15/11 Q1030 NOSIG=
201307060220 METAR COR EGLL 060220Z 08003KT CAVOK 16/12 Q1030 NOSIG=
201307060150 METAR COR EGLL 060150Z 09003KT CAVOK 15/11 Q1030 NOSIG=
201307060120 METAR EGLL 060120Z AUTO 12004KT 090V150 9999 NCD 16/12 Q1030=
201307060050 METAR EGLL 060050Z AUTO 10003KT 9999 NCD 15/12 Q1030=
201307060020 METAR EGLL 060020Z AUTO VRB03KT 9999 NCD 15/13 Q1030=
201307052350 METAR EGLL 052350Z 18003KT CAVOK 16/13 Q1030=
201307052320 METAR EGLL 052320Z 18003KT CAVOK 16/13 Q1030=
201307052250 METAR COR EGLL 052250Z VRB02KT CAVOK 17/13 Q1030 NOSIG=
201307052220 METAR EGLL 052220Z VRB03KT CAVOK 18/13 Q1030=
201307052150 METAR COR EGLL 052150Z 20005KT 120V260 CAVOK 18/14 Q1030
                        NOSIG=
201307052120 METAR COR EGLL 052120Z 21006KT 170V250 CAVOK 19/14 Q1030
                        NOSIG=
201307052050 METAR COR EGLL 052050Z 20008KT 160V250 CAVOK 19/14 Q1030
                        NOSIG=
201307052020 METAR COR EGLL 052020Z 19008KT 170V240 CAVOK 20/14 Q1030
                        NOSIG=
201307051950 METAR COR EGLL 051950Z 19009KT 170V240 CAVOK 21/15 Q1029
                        NOSIG=
201307051920 METAR COR EGLL 051920Z 19010KT CAVOK 22/15 Q1029 NOSIG=
201307051850 METAR COR EGLL 051850Z 19010KT CAVOK 23/15 Q1029 NOSIG=
201307051820 METAR COR EGLL 051820Z 14008KT CAVOK 24/12 Q1029 NOSIG=
201307051750 METAR COR EGLL 051750Z 09006KT CAVOK 25/12 Q1028 NOSIG=
201307051720 METAR COR EGLL 051720Z VRB04KT CAVOK 25/11 Q1028 NOSIG=
201307051650 METAR COR EGLL 051650Z 12006KT 070V170 CAVOK 25/10 Q1028
                        NOSIG=
201307051620 METAR COR EGLL 051620Z 13005KT 070V220 CAVOK 26/11 Q1028
                        NOSIG=
201307051550 METAR COR EGLL 051550Z 11007KT 080V140 CAVOK 26/10 Q1029
                        NOSIG=
201307051520 METAR COR EGLL 051520Z 16005KT 110V220 CAVOK 25/10 Q1029
                        NOSIG=
201307051450 METAR COR EGLL 051450Z VRB05KT CAVOK 26/10 Q1029 NOSIG=
201307051420 METAR COR EGLL 051420Z 17004KT 100V270 CAVOK 25/10 Q1029
                        NOSIG=
201307051350 METAR COR EGLL 051350Z VRB02KT CAVOK 25/10 Q1029 NOSIG=
201307051320 METAR COR EGLL 051320Z 07004KT 020V130 CAVOK 24/10 Q1029
                        NOSIG=
201307051250 METAR COR EGLL 051250Z VRB04KT 9999 FEW048 24/10 Q1029 NOSIG=
201307051220 METAR COR EGLL 051220Z 10005KT 050V160 9999 FEW047 23/11
                        Q1029 NOSIG=
201307051150 METAR COR EGLL 051150Z 03004KT 310V090 9999 FEW045 23/11
                        Q1030 NOSIG=
201307051120 METAR COR EGLL 051120Z VRB03KT 9999 FEW041 23/12 Q1030 NOSIG=
201307051050 METAR COR EGLL 051050Z VRB04KT 9999 FEW039 22/12 Q1030 NOSIG=
201307051020 METAR COR EGLL 051020Z VRB03KT 9999 FEW037 22/12 Q1030 NOSIG=
201307050950 METAR COR EGLL 050950Z VRB03KT CAVOK 22/12 Q1030 NOSIG=
201307050920 METAR COR EGLL 050920Z VRB03KT CAVOK 21/12 Q1029 NOSIG=
201307050850 METAR COR EGLL 050850Z 05004KT 330V150 CAVOK 20/12 Q1029
                        NOSIG=
201307050820 METAR COR EGLL 050820Z 06004KT 020V180 CAVOK 19/12 Q1029
                        NOSIG=
201307050750 METAR COR EGLL 050750Z VRB03KT 9999 FEW040 18/12 Q1029 NOSIG=
201307050720 METAR COR EGLL 050720Z VRB03KT 9999 FEW040 17/12 Q1029 NOSIG=
201307050650 METAR COR EGLL 050650Z VRB02KT CAVOK 16/12 Q1029 NOSIG=
201307050620 METAR COR EGLL 050620Z VRB02KT CAVOK 14/12 Q1028 NOSIG=
201307050550 METAR COR EGLL 050550Z 29002KT CAVOK 13/12 Q1028 NOSIG=
201307050520 METAR COR EGLL 050520Z 30003KT CAVOK 12/12 Q1028 NOSIG=
201307050450 METAR COR EGLL 050450Z 31002KT 9999 FEW040 12/11 Q1028 NOSIG=
201307050420 METAR COR EGLL 050420Z 32003KT 9999 FEW035 12/11 Q1027 NOSIG=
201307050350 METAR COR EGLL 050350Z VRB03KT 9000 FEW037 12/11 Q1027 NOSIG=
201307050320 METAR COR EGLL 050320Z 27003KT CAVOK 11/11 Q1027 NOSIG=
201307050250 METAR EGLL 050250Z AUTO 28005KT 9999 NCD 12/11 Q1026=
201307050220 METAR EGLL 050220Z AUTO 27004KT 9999 NCD 12/11 Q1026=
201307050150 METAR EGLL 050150Z AUTO 28003KT 9999 NCD 12/11 Q1026=
201307050120 METAR COR EGLL 050120Z 26004KT CAVOK 13/11 Q1026 NOSIG=
201307050050 METAR COR EGLL 050050Z 28005KT CAVOK 13/12 Q1026 NOSIG=
201307050020 METAR COR EGLL 050020Z 28006KT CAVOK 13/11 Q1026 NOSIG=
201307042350 METAR COR EGLL 042350Z 27005KT CAVOK 13/11 Q1025 NOSIG=
201307042320 METAR COR EGLL 042320Z 27006KT CAVOK 14/11 Q1025 NOSIG=
201307042250 METAR COR EGLL 042250Z 27008KT CAVOK 16/03 Q1025 NOSIG=
201307042220 METAR COR EGLL 042220Z 28009KT CAVOK 16/04 Q1024 NOSIG=
201307042150 METAR COR EGLL 042150Z 28010KT CAVOK 17/06 Q1024 NOSIG=
201307042120 METAR COR EGLL 042120Z 29010KT CAVOK 18/08 Q1024 NOSIG=
201307042050 METAR COR EGLL 042050Z 28007KT CAVOK 19/09 Q1023 NOSIG=
201307042020 METAR COR EGLL 042020Z 29007KT CAVOK 20/12 Q1023 NOSIG=
201307041950 METAR COR EGLL 041950Z 29008KT 9999 FEW036 20/12 Q1022 NOSIG=
201307041920 METAR COR EGLL 041920Z 29010KT 9999 FEW036 21/12 Q1022 NOSIG=
201307041850 METAR COR EGLL 041850Z 31008KT 9999 FEW036 22/13 Q1022 NOSIG=
201307041820 METAR COR EGLL 041820Z 28010KT 9999 FEW038 23/13 Q1021 NOSIG=
201307041750 METAR COR EGLL 041750Z 28012KT 9999 FEW038 23/14 Q1021 NOSIG=
201307041720 METAR COR EGLL 041720Z 26011KT 9999 SCT038 24/14 Q1021 NOSIG=
201307041650 METAR COR EGLL 041650Z 25009KT 200V290 9999 SCT032 24/14
                        Q1020 NOSIG=
201307041620 METAR COR EGLL 041620Z 25010KT 230V290 9999 SCT029 24/15
                        Q1020 NOSIG=
201307041550 METAR COR EGLL 041550Z 25013KT 9999 SCT032 23/15 Q1020 NOSIG=
201307041520 METAR COR EGLL 041520Z 25014KT 220V290 9999 FEW027 SCT030
                        24/16 Q1020 NOSIG=
201307041450 METAR COR EGLL 041450Z 26014KT 230V290 9999 SCT026 24/16
                        Q1020 NOSIG=
201307041420 METAR COR EGLL 041420Z 25014KT 9999 SCT026 BKN039 23/16 Q1020
                        NOSIG=
201307041350 METAR EGLL 041350Z 25014KT 9999 BKN028 22/16 Q1020=
201307041320 METAR COR EGLL 041320Z 25013KT 9999 BKN028 23/16 Q1020 NOSIG=
201307041250 METAR COR EGLL 041250Z 22011KT 190V260 9999 BKN026 22/15
                        Q1020 NOSIG=
201307041220 METAR COR EGLL 041220Z 23014KT 9999 BKN027 22/15 Q1019 NOSIG=
201307041150 METAR COR EGLL 041150Z 23012KT 200V280 9999 BKN026 22/15
                        Q1019 NOSIG=
201307041120 METAR COR EGLL 041120Z 24014KT 9999 FEW023 OVC030 22/15 Q1019
                        NOSIG=
201307041050 METAR COR EGLL 041050Z 26014KT 9999 SCT024 BKN035 22/15 Q1019
                        NOSIG=
201307041020 METAR COR EGLL 041020Z 24010KT 200V270 9999 SCT022 BKN030
                        20/15 Q1019 NOSIG=
201307040950 METAR COR EGLL 040950Z 23011KT 9999 SCT017 BKN023 20/15 Q1019
                        NOSIG=
201307040920 METAR COR EGLL 040920Z 24010KT 9999 BKN015 19/15 Q1019 NOSIG=
201307040850 METAR COR EGLL 040850Z 24010KT 9999 BKN015 18/15 Q1019 NOSIG=
201307040820 METAR COR EGLL 040820Z 23012KT 9999 FEW010 BKN015 18/14 Q1018
                        TEMPO BKN014=
201307040750 METAR COR EGLL 040750Z 23010KT 190V270 9999 FEW010 BKN015
                        18/14 Q1018 TEMPO BKN014=
201307040720 METAR COR EGLL 040720Z 21010KT 9999 FEW012 BKN018 17/14 Q1017
                        TEMPO BKN014=
201307040650 METAR COR EGLL 040650Z 21008KT 180V240 9999 FEW008 SCT010
                        BKN016 16/14 Q1017 TEMPO BKN012=
201307040620 METAR COR EGLL 040620Z 20008KT 180V260 9999 FEW007 SCT010
                        BKN017 15/14 Q1018 TEMPO BKN012=
201307040550 METAR COR EGLL 040550Z 21006KT 180V240 9999 FEW006 BKN008
                        14/13 Q1018 TEMPO BKN010=
201307040520 METAR COR EGLL 040520Z 20007KT 9999 BKN008 14/13 Q1018 TEMPO
                        BKN010=
201307040450 METAR COR EGLL 040450Z 22009KT 9000 FEW006 BKN008 14/13 Q1017
                        NOSIG=
201307040420 METAR COR EGLL 040420Z 21006KT 190V260 9999 BKN008 14/13
                        Q1017 NOSIG=
201307040350 METAR COR EGLL 040350Z 21007KT 9999 BKN008 13/12 Q1017 TEMPO
                        BKN010=
201307040320 METAR COR EGLL 040320Z 22007KT 9000 BKN008 13/12 Q1017 TEMPO
                        BKN010=
201307040250 METAR COR EGLL 040250Z 24007KT 9999 BKN010 13/12 Q1017 TEMPO
                        BKN008=
201307040220 METAR COR EGLL 040220Z 25007KT 9999 BKN010 13/12 Q1017 TEMPO
                        BKN008=
201307040150 METAR COR EGLL 040150Z 24007KT 9999 SCT010 12/11 Q1017 BECMG
                        BKN010=
201307040120 METAR EGLL 040120Z AUTO 24007KT 9999 NCD 13/11 Q1017=
201307040050 METAR EGLL 040050Z AUTO 25007KT 9999 NCD 13/11 Q1017=
201307040020 METAR EGLL 040020Z AUTO 24007KT 9999 NCD 13/11 Q1017=
201307032350 METAR COR EGLL 032350Z 25005KT CAVOK 13/11 Q1017 NOSIG=
201307032320 METAR COR EGLL 032320Z 27008KT CAVOK 13/12 Q1017 NOSIG=
201307032250 METAR COR EGLL 032250Z 28008KT CAVOK 14/12 Q1017 NOSIG=
201307032220 METAR COR EGLL 032220Z 26010KT 9999 FEW036 15/12 Q1016 NOSIG=
201307032150 METAR COR EGLL 032150Z 27009KT 230V290 9999 SCT036 16/12
                        Q1016 NOSIG=
201307032120 METAR COR EGLL 032120Z 26009KT 9999 SCT036 16/13 Q1016 NOSIG=
201307032050 METAR COR EGLL 032050Z 26010KT 9999 FEW030 17/13 Q1016 NOSIG=
201307032020 METAR COR EGLL 032020Z 27009KT 9999 SCT033 17/13 Q1015 NOSIG=
201307031950 METAR COR EGLL 031950Z 28009KT 9999 SCT027 SCT037 18/13 Q1015
                        NOSIG=
201307031920 METAR COR EGLL 031920Z 28006KT 250V320 9999 BKN037 18/13
                        Q1014 NOSIG=
201307031850 METAR COR EGLL 031850Z 29008KT 9999 BKN035 18/12 Q1014 NOSIG=
201307031820 METAR COR EGLL 031820Z 29007KT 9999 BKN040 19/12 Q1014 NOSIG=
201307031750 METAR COR EGLL 031750Z 29010KT 9999 BKN040 19/12 Q1013 NOSIG=
201307031720 METAR COR EGLL 031720Z 28010KT 9999 BKN040 19/12 Q1013 NOSIG=
201307031650 METAR COR EGLL 031650Z 30010KT 9999 SCT045 19/12 Q1012 NOSIG=
201307031620 METAR COR EGLL 031620Z 30011KT 9999 FEW032 SCT040 20/13 Q1012
                        NOSIG=
201307031550 METAR COR EGLL 031550Z 29012KT 9999 FEW042 SCT045 20/12 Q1012
                        NOSIG=
201307031520 METAR COR EGLL 031520Z 29011KT 260V320 9999 SCT036 20/13
                        Q1011 NOSIG=
201307031450 METAR COR EGLL 031450Z 29011KT 260V320 9999 SCT035 21/12
                        Q1011 NOSIG=
201307031420 METAR COR EGLL 031420Z 29011KT 9999 SCT032 19/12 Q1011 NOSIG=
201307031350 METAR COR EGLL 031350Z 30008KT 9999 SCT032 20/13 Q1010 NOSIG=
201307031320 METAR COR EGLL 031320Z 28011KT 9999 SCT030 21/13 Q1010 NOSIG=
201307031250 METAR COR EGLL 031250Z 28008KT 230V320 9999 SCT030 21/13
                        Q1009 NOSIG=
201307031220 METAR COR EGLL 031220Z 29008KT 260V320 9999 SCT020 SCT030
                        19/14 Q1009 NOSIG=
201307031150 METAR COR EGLL 031150Z 29008KT 9999 SCT022 SCT028 18/14 Q1009
                        NOSIG=
201307031120 METAR COR EGLL 031120Z 27010KT 9999 FEW021 BKN022 17/14 Q1008
                        NOSIG=
201307031050 METAR COR EGLL 031050Z 28010KT 9999 BKN017 17/14 Q1008 NOSIG=
201307031020 METAR COR EGLL 031020Z 29006KT 260V320 9999 BKN019 17/14
                        Q1008 NOSIG=
201307030950 METAR COR EGLL 030950Z 28008KT 9999 FEW014 BKN017 17/14 Q1007
                        NOSIG=
201307030920 METAR COR EGLL 030920Z 27009KT 9999 FEW014 BKN017 16/14 Q1007
                        NOSIG=
201307030850 METAR COR EGLL 030850Z 27010KT 9999 SCT012 BKN016 16/14 Q1006
                        NOSIG=
201307030820 METAR COR EGLL 030820Z 27010KT 9999 BKN012 16/14 Q1006 BECMG
                        SCT012=
201307030750 METAR COR EGLL 030750Z 28010KT 9999 BKN012 16/14 Q1006 BECMG
                        SCT012=
201307030720 METAR COR EGLL 030720Z 27011KT 9999 BKN012 16/14 Q1005 BECMG
                        SCT012=
201307030650 METAR COR EGLL 030650Z 26012KT 9999 SCT013 BKN017 16/14 Q1005
                        TEMPO BKN013=
201307030620 METAR COR EGLL 030620Z 24010KT 9999 FEW007 SCT010 BKN017
                        16/15 Q1004 TEMPO BKN008=
201307030550 METAR COR EGLL 030550Z 23008KT 210V280 9999 SCT011 BKN013
                        16/15 Q1004 TEMPO BKN008=
201307030520 METAR COR EGLL 030520Z 22008KT 9999 FEW007 BKN014 15/15 Q1004
                        TEMPO BKN008=
201307030450 METAR COR EGLL 030450Z 24008KT 9999 FEW005 BKN017 15/14 Q1003
                        TEMPO BKN008=
201307030420 METAR COR EGLL 030420Z 24008KT 9999 FEW006 BKN008 15/14 Q1003
                        TEMPO BKN010=
201307030350 METAR COR EGLL 030350Z 23007KT 9999 FEW007 SCT008 BKN010
                        15/14 Q1003 TEMPO BKN008=
201307030320 METAR COR EGLL 030320Z 22008KT 9999 FEW006 SCT008 BKN010
                        14/14 Q1003 TEMPO BKN007=
201307030250 METAR COR EGLL 030250Z 22006KT 9999 -RA FEW003 SCT005 BKN010
                        14/14 Q1003 TEMPO BKN006=
201307030220 METAR COR EGLL 030220Z 22006KT 7000 -RADZ FEW004 BKN008 14/14
                        Q1003 TEMPO 4000 RADZ=
201307030150 METAR COR EGLL 030150Z 22009KT 9999 -RA FEW007 BKN009 15/14
                        Q1003 TEMPO 4000 RADZ=
201307030120 METAR EGLL 030120Z AUTO 21009KT 9999 OVC009/// 15/13 Q1003=
201307030050 METAR EGLL 030050Z AUTO 21010KT 9999 OVC010/// 15/13 Q1004=
201307030020 METAR EGLL 030020Z AUTO 22011KT 9999 BKN010/// 15/13 Q1004=
201307022350 METAR COR EGLL 022350Z 21010KT 9999 FEW009 BKN010 15/13 Q1004
                        BECMG BKN008=
201307022320 METAR COR EGLL 022320Z 22013KT 9999 BKN010 15/13 Q1004 BECMG
                        BKN008=
201307022250 METAR COR EGLL 022250Z 22011KT 9999 BKN011 15/13 Q1005 TEMPO
                        -RA BKN009=
201307022220 METAR COR EGLL 022220Z 22012KT 9999 BKN013 15/13 Q1005 TEMPO
                        -RA BKN009=
201307022150 METAR COR EGLL 022150Z 22012KT 9999 BKN015 15/13 Q1005 BECMG
                        BKN010=
201307022120 METAR COR EGLL 022120Z 22012KT 190V250 9999 BKN015 15/12
                        Q1006 BECMG BKN010=
201307022050 METAR COR EGLL 022050Z 23014KT 9999 BKN015 15/12 Q1006 BECMG
                        BKN012=
201307022020 METAR COR EGLL 022020Z 22013KT 9999 BKN014 15/12 Q1006 NOSIG=
201307021950 METAR COR EGLL 021950Z 21010KT 180V250 9999 BKN016 15/12
                        Q1006 BECMG BKN012=
201307021920 METAR COR EGLL 021920Z 22011KT 9999 SCT016 BKN020 15/12 Q1006
                        BECMG BKN014=
201307021850 METAR COR EGLL 021850Z 21012KT 180V260 9999 BKN018 16/12
                        Q1007 BECMG BKN014=
201307021820 METAR COR EGLL 021820Z 21010KT 180V240 9999 BKN020 16/12
                        Q1007 BECMG BKN014=
201307021750 METAR COR EGLL 021750Z 20011KT 180V250 9999 FEW020 16/12
                        Q1007 NOSIG=
201307021720 METAR COR EGLL 021720Z 19012KT 170V240 9999 BKN020 16/12
                        Q1007 NOSIG=
201307021650 METAR COR EGLL 021650Z 20012KT 170V240 9999 SCT023 16/11
                        Q1008 NOSIG=
201307021620 METAR COR EGLL 021620Z 18012KT 160V230 9999 FEW030 16/11
                        Q1008 NOSIG=
201307021550 METAR COR EGLL 021550Z 18011KT 150V240 9999 FEW033 16/11
                        Q1008 NOSIG=
201307021520 METAR COR EGLL 021520Z 16010KT 130V230 9999 FEW040 17/11
                        Q1009 NOSIG=
201307021450 METAR EGLL 021450Z 19010KT 160V240 CAVOK 17/11 Q1009=
201307021420 METAR COR EGLL 021420Z 21012KT 170V240 CAVOK 17/09 Q1010
                        NOSIG=
201307021350 METAR COR EGLL 021350Z 20009KT 160V220 CAVOK 17/10 Q1010
                        NOSIG=
201307021320 METAR COR EGLL 021320Z 19011KT 9999 SCT033 17/11 Q1010 NOSIG=
201307021250 METAR COR EGLL 021250Z 17010KT 9999 -DZ FEW033 16/11 Q1010
                        NOSIG=
201307021220 METAR COR EGLL 021220Z 15009KT 110V190 CAVOK 16/10 Q1011
                        NOSIG=
201307021150 METAR COR EGLL 021150Z 15010KT CAVOK 16/10 Q1011 NOSIG=
201307021120 METAR COR EGLL 021120Z 16010KT 120V190 9999 FEW024 16/10
                        Q1011 NOSIG=
201307021050 METAR COR EGLL 021050Z 19011KT 170V240 CAVOK 16/10 Q1012
                        NOSIG=
201307021020 METAR COR EGLL 021020Z 16009KT 120V240 CAVOK 16/10 Q1012
                        NOSIG=
201307020950 METAR COR EGLL 020950Z 17008KT 130V200 CAVOK 15/10 Q1013
                        NOSIG=
201307020920 METAR COR EGLL 020920Z 20009KT 170V240 CAVOK 15/10 Q1013
                        NOSIG=
201307020850 METAR COR EGLL 020850Z 20008KT 160V230 CAVOK 15/10 Q1013
                        NOSIG=
201307020820 METAR COR EGLL 020820Z 19007KT 140V270 CAVOK 14/10 Q1013
                        NOSIG=
201307020750 METAR COR EGLL 020750Z 16005KT 090V210 CAVOK 14/10 Q1013
                        NOSIG=
201307020720 METAR COR EGLL 020720Z 20005KT 160V330 CAVOK 14/10 Q1014
                        NOSIG=
201307020650 METAR COR EGLL 020650Z VRB03KT CAVOK 14/10 Q1014 NOSIG=
201307020620 METAR COR EGLL 020620Z 18005KT 160V220 CAVOK 13/10 Q1014
                        NOSIG=
201307020550 METAR COR EGLL 020550Z 22004KT 180V260 CAVOK 12/10 Q1014
                        NOSIG=
201307020520 METAR COR EGLL 020520Z 24005KT 200V260 CAVOK 12/10 Q1015
                        NOSIG=
201307020450 METAR COR EGLL 020450Z 24004KT 190V290 CAVOK 12/10 Q1015
                        NOSIG=
201307020420 METAR EGLL 020420Z 24006KT CAVOK 11/10 Q1015=
201307020350 METAR COR EGLL 020350Z 28005KT CAVOK 11/09 Q1015 NOSIG=
201307020320 METAR EGLL 020320Z 27004KT CAVOK 11/09 Q1015=
201307020250 METAR COR EGLL 020250Z 27004KT CAVOK 11/09 Q1015 NOSIG=
201307020220 METAR COR EGLL 020220Z 25006KT CAVOK 12/10 Q1015 NOSIG=
201307020150 METAR COR EGLL 020150Z 25005KT CAVOK 12/10 Q1015 NOSIG=
201307020120 METAR EGLL 020120Z AUTO 27006KT 9999 FEW039/// 12/09 Q1015=
201307020050 METAR EGLL 020050Z AUTO 28006KT 9999 NCD 12/09 Q1016=
201307020020 METAR EGLL 020020Z AUTO 27007KT 9999 NCD 12/09 Q1016=
201307012350 METAR COR EGLL 012350Z 28006KT CAVOK 13/09 Q1016 NOSIG=
201307012320 METAR COR EGLL 012320Z 27007KT CAVOK 13/09 Q1016 NOSIG=
201307012250 METAR COR EGLL 012250Z 28008KT CAVOK 12/09 Q1016 NOSIG=
201307012220 METAR COR EGLL 012220Z 28008KT CAVOK 14/09 Q1016 NOSIG=
201307012150 METAR COR EGLL 012150Z 27010KT CAVOK 16/08 Q1016 NOSIG=
201307012120 METAR EGLL 012120Z 27009KT CAVOK 16/09 Q1016=
201307012050 METAR COR EGLL 012050Z 25010KT CAVOK 16/09 Q1016 NOSIG=
201307012020 METAR EGLL 012020Z 25009KT CAVOK 16/08 Q1016=
201307011950 METAR COR EGLL 011950Z 28009KT CAVOK 17/08 Q1016 NOSIG=
201307011920 METAR COR EGLL 011920Z 27008KT 180V290 9999 FEW049 18/08
                        Q1016 NOSIG=
201307011850 METAR COR EGLL 011850Z 25008KT CAVOK 19/08 Q1016 NOSIG=
201307011820 METAR EGLL 011820Z 27009KT 240V300 9999 FEW049 18/08 Q1016=
201307011750 METAR COR EGLL 011750Z 26011KT 9999 FEW049 19/08 Q1016 NOSIG=
201307011720 METAR COR EGLL 011720Z 28010KT 240V310 9999 FEW048 19/08
                        Q1016 NOSIG=
201307011650 METAR COR EGLL 011650Z 30010KT 270V340 9999 FEW048 20/08
                        Q1016 NOSIG=
201307011620 METAR COR EGLL 011620Z 26014KT 9999 SCT048 20/08 Q1016 NOSIG=
201307011550 METAR COR EGLL 011550Z 29010KT 9999 SCT048 20/08 Q1016 NOSIG=
201307011520 METAR COR EGLL 011520Z 27014KT 9999 SCT047 19/09 Q1017 NOSIG=
201307011450 METAR COR EGLL 011450Z 28013KT 250V320 9999 FEW042 SCT047
                        19/09 Q1017 NOSIG=
201307011420 METAR COR EGLL 011420Z 27013KT 9999 FEW041 SCT048 20/09 Q1017
                        NOSIG=
201307011350 METAR COR EGLL 011350Z 29011KT 9999 SCT042 SCT048 20/10 Q1016
                        NOSIG=
201307011320 METAR COR EGLL 011320Z 28011KT 9999 FEW042 SCT047 19/09 Q1016
                        NOSIG=
201307011250 METAR COR EGLL 011250Z 28010KT 9999 FEW041 SCT043 20/09 Q1016
                        NOSIG=
201307011220 METAR COR EGLL 011220Z 25012KT 220V290 9999 FEW038 SCT043
                        20/09 Q1017 NOSIG=
201307011150 METAR COR EGLL 011150Z 28012KT 9999 SCT038 SCT045 20/09 Q1017
                        NOSIG=
201307011120 METAR COR EGLL 011120Z 27011KT 220V300 9999 FEW037 SCT043
                        19/09 Q1017 NOSIG=
201307011050 METAR COR EGLL 011050Z 27010KT 230V300 9999 SCT037 18/09
                        Q1017 NOSIG=
201307011020 METAR COR EGLL 011020Z 26012KT 220V280 9999 BKN035 19/09
                        Q1017 NOSIG=
201307010950 METAR COR EGLL 010950Z 25011KT 220V290 9999 BKN032 18/09
                        Q1017 NOSIG=
201307010920 METAR COR EGLL 010920Z 27010KT 240V310 9999 SCT032 SCT037
                        17/10 Q1017 NOSIG=
201307010850 METAR COR EGLL 010850Z 28009KT 240V320 9999 SCT027 SCT032
                        17/10 Q1018 NOSIG=
201307010820 METAR COR EGLL 010820Z 28008KT 240V300 9999 FEW024 SCT030
                        16/10 Q1018 NOSIG=
201307010750 METAR COR EGLL 010750Z 27009KT 230V290 9999 FEW022 16/11
                        Q1018 NOSIG=
201307010720 METAR COR EGLL 010720Z 27010KT 230V300 9999 FEW020 16/11
                        Q1018 NOSIG=
201307010650 METAR COR EGLL 010650Z 28010KT 9999 FEW018 15/11 Q1018 NOSIG=
201307010620 METAR COR EGLL 010620Z 27011KT 9999 FEW020 15/11 Q1018 NOSIG=
201307010550 METAR COR EGLL 010550Z 26009KT CAVOK 14/11 Q1018 NOSIG=
201307010520 METAR COR EGLL 010520Z 25009KT CAVOK 14/11 Q1018 NOSIG=
201307010450 METAR COR EGLL 010450Z 25009KT 9999 FEW025 13/11 Q1017 NOSIG=
201307010420 METAR COR EGLL 010420Z 26009KT 9999 FEW024 13/11 Q1017 NOSIG=
201307010350 METAR COR EGLL 010350Z 25007KT 9999 FEW020 13/11 Q1017 NOSIG=
201307010320 METAR COR EGLL 010320Z 27009KT 9999 FEW016 BKN033 14/12 Q1017
                        NOSIG=
201307010250 METAR COR EGLL 010250Z 26010KT 9999 FEW015 BKN019 14/12 Q1017
                        NOSIG=
201307010220 METAR COR EGLL 010220Z 25008KT 9999 FEW020 BKN027 15/11 Q1017
                        NOSIG=
201307010150 METAR COR EGLL 010150Z 23008KT 9999 FEW020 BKN027 15/11 Q1018
                        NOSIG=
201307010120 METAR EGLL 010120Z AUTO 22006KT 9999 BKN028/// 15/11 Q1018=
201307010050 METAR EGLL 010050Z AUTO 23009KT 9999 SCT022/// 14/11 Q1018=
201307010020 METAR EGLL 010020Z AUTO 28011KT 9999 BKN022/// 14/11 Q1019=
