##########################################################
# Query made at 12/27/2012 10:42:39 UTC
# Time interval: from 12/01/2009 00:00  to 12/31/2009 23:59  UTC
##########################################################

##########################################################
# EGLL, London / Heathrow Airport (United Kingdom)
# WMO index: 03772
# Latitude 51-29N. Longitude 000-27W. Altitude 24 m.
##########################################################

###################################
#  METAR/SPECI from EGLL
###################################
200912312350 METAR COR EGLL 312350Z 02006KT 350V060 CAVOK 01/M02 Q1001
                        NOSIG=
200912312320 METAR COR EGLL 312320Z 01005KT 340V040 CAVOK 01/M01 Q1001
                        NOSIG=
200912312250 METAR COR EGLL 312250Z 01006KT 330V050 CAVOK 01/M01 Q1001
                        NOSIG=
200912312220 METAR COR EGLL 312220Z 01006KT 330V060 CAVOK 02/M01 Q1001
                        NOSIG=
200912312150 METAR COR EGLL 312150Z 02006KT 340V050 CAVOK 02/M01 Q1001
                        NOSIG=
200912312120 METAR COR EGLL 312120Z 01006KT 330V040 CAVOK 02/M01 Q1001
                        NOSIG=
200912312050 METAR COR EGLL 312050Z 02007KT 350V050 CAVOK 02/M01 Q1001
                        NOSIG=
200912312020 METAR COR EGLL 312020Z 02007KT CAVOK 03/M01 Q1001 NOSIG=
200912311950 METAR COR EGLL 311950Z 01007KT 340V060 9999 SCT035 03/M01
                        Q1001 NOSIG=
200912311920 METAR COR EGLL 311920Z 02007KT 330V040 9999 FEW031 03/M01
                        Q1000 NOSIG=
200912311850 METAR COR EGLL 311850Z 02008KT 340V050 CAVOK 03/M01 Q1000
                        NOSIG=
200912311820 METAR COR EGLL 311820Z 02008KT 9999 FEW032 03/M01 Q1000 NOSIG=
200912311750 METAR COR EGLL 311750Z 02009KT 9999 FEW026 03/M00 Q1000 NOSIG=
200912311720 METAR COR EGLL 311720Z 02007KT 350V060 9999 SCT026 03/M00
                        Q1000 NOSIG=
200912311650 METAR COR EGLL 311650Z 02008KT 9999 SCT027 03/M00 Q1000 NOSIG=
200912311620 METAR COR EGLL 311620Z 02009KT 350V050 9999 SCT026 04/00
                        Q1000 NOSIG=
200912311550 METAR COR EGLL 311550Z 03007KT 360V060 9999 FEW048 04/00
                        Q1000 NOSIG=
200912311520 METAR COR EGLL 311520Z 03008KT 350V060 9999 SCT030 SCT038
                        04/M00 Q0999 NOSIG=
200912311450 METAR COR EGLL 311450Z 03008KT 9999 FEW022 BKN030 04/00 Q0999
                        NOSIG=
200912311420 METAR COR EGLL 311420Z 05008KT 010V070 9999 SCT023 04/00
                        Q0999 NOSIG=
200912311350 METAR COR EGLL 311350Z 03008KT 360V070 9999 SCT021 04/00
                        Q0999 NOSIG=
200912311320 METAR COR EGLL 311320Z 03007KT 9999 SCT023 04/01 Q0999 NOSIG=
200912311250 METAR COR EGLL 311250Z 05009KT 9999 SCT019 04/01 Q0999 NOSIG=
200912311220 METAR COR EGLL 311220Z 04008KT 360V080 9999 SCT018 SCT023
                        04/01 Q0999 TEMPO 03015G25KT=
200912311150 METAR COR EGLL 311150Z 04008KT 360V070 9999 SCT019 SCT029
                        04/01 Q1000 TEMPO 03015G25KT=
200912311120 METAR COR EGLL 311120Z 04010KT 010V070 9999 FEW018 SCT023
                        04/01 Q1000 TEMPO 03015G25KT=
200912311050 METAR COR EGLL 311050Z 04008KT 360V070 9999 FEW016 SCT020
                        04/01 Q1000 TEMPO 03015G25KT=
200912311020 METAR COR EGLL 311020Z 03009KT 9999 FEW013 SCT020 04/01 Q1000
                        TEMPO 03015G25KT=
200912310950 METAR COR EGLL 310950Z 03008KT 350V060 9999 SCT015 SCT025
                        04/01 Q1000 TEMPO 03015G25KT=
200912310920 METAR COR EGLL 310920Z 03009KT 360V060 9999 SCT013 SCT030
                        04/01 Q0999 TEMPO 03015G25KT=
200912310850 METAR COR EGLL 310850Z 03007KT 360V070 9999 SCT015 SCT048
                        04/01 Q0999 TEMPO 03015G25KT=
200912310820 METAR COR EGLL 310820Z 03007KT 360V080 9999 SCT016 SCT032
                        03/01 Q0999 NOSIG=
200912310750 METAR COR EGLL 310750Z 03007KT 360V070 9999 FEW012 SCT037
                        03/02 Q0998 NOSIG=
200912310720 METAR COR EGLL 310720Z 03008KT 350V060 9999 SCT020 BKN031
                        04/01 Q0998 NOSIG=
200912310650 METAR COR EGLL 310650Z 04009KT 010V070 9999 BKN015 04/01
                        Q0998 NOSIG=
200912310620 METAR COR EGLL 310620Z 04008KT 360V070 9999 SCT014 BKN018
                        04/01 Q0998 NOSIG=
200912310550 METAR COR EGLL 310550Z 04009KT 360V060 9999 BKN015 04/01
                        Q0998 NOSIG=
200912310520 METAR COR EGLL 310520Z 04008KT 360V070 9999 BKN015 04/01
                        Q0998 NOSIG=
200912310450 METAR COR EGLL 310450Z 03008KT 360V070 9999 BKN015 04/01
                        Q0998 NOSIG=
200912310420 METAR COR EGLL 310420Z 04008KT 360V070 9999 BKN016 04/01
                        Q0998 NOSIG=
200912310350 METAR COR EGLL 310350Z 04008KT 010V070 9999 SCT015 BKN047
                        04/02 Q0997 NOSIG=
200912310320 METAR COR EGLL 310320Z 04010KT 360V080 9999 SCT012 SCT017
                        BKN037 04/02 Q0997 NOSIG=
200912310250 METAR COR EGLL 310250Z 04009KT 360V070 9999 BKN012 BKN019
                        04/02 Q0997 BECMG FEW016 BKN028=
200912310220 METAR EGLL 310220Z AUTO 04008KT 360V080 9999NDV SCT014///
                        SCT018/// 04/02 Q0997=
200912310150 METAR EGLL 310150Z AUTO 05007KT 010V080 9000NDV -DZ BKN011///
                        04/02 Q0997=
200912310120 METAR EGLL 310120Z AUTO 05008KT 360V070 9000NDV FEW011///
                        BKN014/// BKN019/// 04/02 Q0997=
200912310050 METAR COR EGLL 310050Z 05008KT 360V070 9000 FEW010 OVC012
                        04/02 Q0997 BECMG BKN028=
200912310020 METAR COR EGLL 310020Z 05008KT 9999 FEW011 BKN014 04/02 Q0997
                        BECMG BKN025=
200912302350 METAR COR EGLL 302350Z 05008KT 9999 FEW008 BKN010 04/02 Q0997
                        BECMG FEW010 BKN028=
200912302320 METAR COR EGLL 302320Z 05009KT 9000 -RA FEW008 BKN010 04/02
                        Q0997 TEMPO RA=
200912302250 METAR COR EGLL 302250Z 05008KT 9000 -RA SCT010 BKN049 04/02
                        Q0997 NOSIG=
200912302220 METAR COR EGLL 302220Z 05008KT 8000 -RA FEW008 OVC010 04/02
                        Q0997 NOSIG=
200912302150 METAR COR EGLL 302150Z 05008KT 7000 RA BKN010 04/02 Q0996
                        NOSIG=
200912302120 METAR COR EGLL 302120Z 06009KT 8000 RA SCT007 03/02 Q0996
                        BECMG NSW=
200912302050 METAR COR EGLL 302050Z 06009KT 8000 RA BKN006 04/02 Q0996
                        BECMG NSW SCT008 BKN014=
200912302020 METAR COR EGLL 302020Z 05009KT 4700 RA FEW006 BKN007 03/02
                        Q0996 BECMG 6000 NSW SCT008 BKN014=
200912301950 METAR COR EGLL 301950Z 05007KT 010V070 4000 RA FEW004 BKN006
                        04/02 Q0995 BECMG 6000 NSW SCT006
                        BKN014=
200912301920 METAR COR EGLL 301920Z 05008KT 9000 -DZ BKN006 04/02 Q0995
                        REDZ TEMPO BKN004=
200912301850 METAR COR EGLL 301850Z 05007KT 9000 DZ BKN005 04/02 Q0995
                        TEMPO 4000 BKN003=
200912301820 METAR COR EGLL 301820Z 05007KT 020V080 9000 -DZ BKN006 04/03
                        Q0994 TEMPO 4000 BKN004=
200912301750 METAR COR EGLL 301750Z 06010KT 6000 -DZ FEW005 BKN007 04/03
                        Q0994 TEMPO 4000 BKN004=
200912301720 METAR COR EGLL 301720Z 06009KT 6000 DZ BKN007 04/03 Q0994
                        TEMPO 4000 BKN004=
200912301650 METAR COR EGLL 301650Z 06010KT 9000 -RA SCT007 BKN009 04/03
                        Q0994 TEMPO 4000 BKN004=
200912301620 METAR COR EGLL 301620Z 06009KT 9999 SCT009 BKN011 04/03 Q0993
                        TEMPO 4000 -DZ BKN008=
200912301550 METAR COR EGLL 301550Z 05009KT 9999 -RA SCT009 BKN014 04/03
                        Q0993 TEMPO 4000 -DZ BKN008=
200912301520 METAR COR EGLL 301520Z 06009KT 9999 -RA SCT007 BKN010 04/03
                        Q0993 NOSIG=
200912301450 METAR COR EGLL 301450Z 06008KT 5000 DZ BKN005 04/03 Q0992
                        TEMPO NSW SCT007 BKN012=
200912301420 METAR COR EGLL 301420Z 06009KT 2900 -RADZ SCT004 BKN006 05/04
                        Q0992 TEMPO 6000 SCT007 BKN010=
200912301350 METAR COR EGLL 301350Z 06009KT 2900 -RADZ SCT004 BKN006 05/04
                        Q0992 TEMPO BKN003=
200912301320 METAR COR EGLL 301320Z 06008KT 3200 -RADZ SCT004 BKN007 05/04
                        Q0992 TEMPO BKN004=
200912301250 METAR COR EGLL 301250Z 06008KT 2200 -RADZ SCT005 BKN008 05/04
                        Q0992 TEMPO BKN004=
200912301220 METAR COR EGLL 301220Z 06009KT 3300 -RADZ SCT006 BKN009 05/04
                        Q0992 TEMPO BKN004=
200912301150 METAR COR EGLL 301150Z 06008KT 6000 -RA SCT006 BKN009 05/04
                        Q0992 TEMPO SCT009 BKN012=
200912301120 METAR COR EGLL 301120Z 06009KT 6000 -RA SCT005 BKN008 05/04
                        Q0992 TEMPO SCT008 BKN012=
200912301050 METAR COR EGLL 301050Z 06009KT 4500 -RA SCT005 BKN008 05/04
                        Q0992 TEMPO 7000 NSW SCT007 BKN012=
200912301020 METAR COR EGLL 301020Z 06008KT 2500 -RADZ SCT004 BKN008 05/04
                        Q0991 TEMPO 7000 NSW SCT005 BKN010=
200912300950 METAR COR EGLL 300950Z 06009KT 3200 -RADZ SCT003 BKN005 05/04
                        Q0991 TEMPO 7000 NSW SCT004 BKN009=
200912300920 METAR COR EGLL 300920Z 07007KT 3500 -RADZ SCT003 OVC005 05/04
                        Q0991 TEMPO 7000 NSW SCT004 BKN009=
200912300850 METAR COR EGLL 300850Z 07007KT 3500 -RA SCT003 OVC005 05/04
                        Q0991 TEMPO 7000 NSW SCT004 BKN009=
200912300820 METAR COR EGLL 300820Z 07007KT 3400 -RADZ FEW002 BKN003 BKN005
                        05/04 Q0990 TEMPO 5000 SCT003 BKN008=
200912300750 METAR COR EGLL 300750Z 06007KT 3900 BR FEW002 BKN003 OVC005
                        05/04 Q0990 TEMPO 2000 DZ BKN002=
200912300720 METAR COR EGLL 300720Z 06007KT 3300 -RA FEW002 OVC003 05/04
                        Q0990 TEMPO 2500 DZ BKN002=
200912300650 METAR COR EGLL 300650Z 06005KT 030V090 3000 -RA FEW002 OVC003
                        05/04 Q0990 TEMPO 2500 DZ BKN002=
200912300620 METAR COR EGLL 300620Z 06006KT 2700 BR FEW002 OVC003 04/04
                        Q0990 NOSIG=
200912300550 METAR COR EGLL 300550Z 05004KT 360V070 3500 -RADZ FEW002
                        OVC003 04/04 Q0990 TEMPO 2500 DZ
                        BKN002=
200912300520 METAR COR EGLL 300520Z 04005KT 010V090 5000 -DZ BKN003 04/04
                        Q0990 TEMPO 2500 DZ=
200912300450 METAR COR EGLL 300450Z 05005KT 010V070 5000 BR BKN003 04/04
                        Q0990 NOSIG=
200912300420 METAR COR EGLL 300420Z 04005KT 010V070 4500 BR BKN003 05/04
                        Q0990 NOSIG=
200912300350 METAR COR EGLL 300350Z 04005KT 360V080 4000 -RA BKN002 05/04
                        Q0990 TEMPO 2500 DZ=
200912300320 METAR COR EGLL 300320Z 06005KT 020V080 4000 -RA BKN002 05/04
                        Q0990 TEMPO 2500 DZ=
200912300250 METAR COR EGLL 300250Z 05007KT 2900 -RA FEW002 OVC003 05/04
                        Q0989 TEMPO BKN002=
200912300220 METAR EGLL 300220Z AUTO 06006KT 2600NDV BR OVC002/// 04/04
                        Q0990=
200912300150 METAR EGLL 300150Z AUTO 06007KT 2700NDV BR BKN003/// 04/04
                        Q0990=
200912300120 METAR EGLL 300120Z AUTO 06006KT 3700NDV BR OVC003/// 04/03
                        Q0990=
200912300050 METAR COR EGLL 300050Z 06007KT 3000 BR BKN003 04/03 Q0990
                        TEMPO 2000 DZ BKN002=
200912300020 METAR COR EGLL 300020Z 06007KT 2700 BR FEW003 BKN004 04/03
                        Q0990 NOSIG=
200912292350 METAR COR EGLL 292350Z 05006KT 3200 BR BKN004 04/03 Q0990
                        TEMPO 6000 NSW=
200912292320 METAR COR EGLL 292320Z 05006KT 6000 OVC004 04/03 Q0991 NOSIG=
200912292250 METAR COR EGLL 292250Z 06007KT 6000 BKN004 04/03 Q0991 NOSIG=
200912292220 METAR COR EGLL 292220Z 05006KT 6000 BKN004 04/03 Q0991 NOSIG=
200912292150 METAR COR EGLL 292150Z 06006KT 4900 -DZ FEW004 BKN005 04/03
                        Q0991 TEMPO 7000 NSW=
200912292120 METAR COR EGLL 292120Z 06006KT 4800 BR BKN004 BKN005 04/03
                        Q0991 TEMPO 2500 RADZ=
200912292050 METAR COR EGLL 292050Z 06009KT 2100 DZ FEW003 OVC004 04/03
                        Q0991 NOSIG=
200912292020 METAR COR EGLL 292020Z 07010KT 3200 BR BKN004 OVC007 04/03
                        Q0991 TEMPO 2500 DZ=
200912291950 METAR COR EGLL 291950Z 07008KT 3900 BR BKN006 OVC007 04/03
                        Q0991 TEMPO 2500 DZ BKN004=
200912291920 METAR COR EGLL 291920Z 06007KT 2800 -DZ OVC006 04/03 Q0991
                        BECMG BKN004=
200912291850 METAR COR EGLL 291850Z 06009KT 3000 -RASN BKN004 04/03 Q0991
                        BECMG 5000 RA=
200912291820 METAR COR EGLL 291820Z 07009KT 3500 -RA FEW003 BKN004 04/03
                        Q0991 NOSIG=
200912291750 METAR COR EGLL 291750Z 07008KT 2800 -RA SCT004 BKN007 04/03
                        Q0991 NOSIG=
200912291720 METAR COR EGLL 291720Z 06008KT 2800 RA OVC007 04/03 Q0991
                        BECMG 5000 BKN012=
200912291650 METAR COR EGLL 291650Z 06009KT 8000 -RA FEW007 BKN018 04/03
                        Q0992 BECMG BKN012=
200912291620 METAR COR EGLL 291620Z 06010KT 8000 -RA FEW005 BKN007 04/03
                        Q0992 NOSIG=
200912291550 METAR COR EGLL 291550Z 07010KT 6000 -RA FEW006 SCT008 OVC011
                        04/03 Q0992 RERA TEMPO BKN008=
200912291520 METAR COR EGLL 291520Z 09010KT 4000 -RA BKN007 BKN015 04/03
                        Q0992 RERA TEMPO 6000 SCT008 BKN018=
200912291450 METAR COR EGLL 291450Z 08008KT 2200 RA FEW010 BKN020 04/03
                        Q0992 RERA BECMG BKN012=
200912291420 METAR COR EGLL 291420Z 07012KT 9000 -RA FEW009 BKN011 05/03
                        Q0992 RERA TEMPO BKN009=
200912291350 METAR COR EGLL 291350Z 07012KT 040V100 7000 -RA FEW009 BKN016
                        05/03 Q0992 TEMPO 4000 BKN009=
200912291320 METAR COR EGLL 291320Z 08012G26KT 6000 -RA SCT008 BKN013
                        05/03 Q0993 TEMPO RA BKN008=
200912291250 METAR COR EGLL 291250Z 07011KT 4000 -RA FEW007 SCT008 BKN010
                        05/03 Q0993 TEMPO RA BKN008=
200912291220 METAR COR EGLL 291220Z 07012KT 3000 -RA FEW007 BKN010 05/03
                        Q0993 TEMPO RA BKN007=
200912291150 METAR COR EGLL 291150Z 07012KT 3900 -RA FEW008 BKN012 05/03
                        Q0994 BECMG RA BKN009=
200912291120 METAR COR EGLL 291120Z 08014KT 4000 -RA FEW009 BKN013 05/03
                        Q0994 TEMPO RA BKN009=
200912291050 METAR COR EGLL 291050Z 07014KT 5000 -RA FEW008 BKN009 05/03
                        Q0994 NOSIG=
200912291020 METAR COR EGLL 291020Z 07013KT 6000 -RA FEW008 SCT010 BKN012
                        05/03 Q0995 TEMPO 4000 RA BKN009=
200912290950 METAR COR EGLL 290950Z 07012KT 6000 -RA SCT011 BKN014 04/03
                        Q0995 BECMG 4000 RA BKN009=
200912290920 METAR COR EGLL 290920Z 07012KT 6000 -RA SCT011 BKN015 04/03
                        Q0996 NOSIG=
200912290850 METAR COR EGLL 290850Z 07010KT 6000 -RA SCT011 BKN013 04/03
                        Q0996 TEMPO 4000 RA BKN009=
200912290820 METAR COR EGLL 290820Z 08014KT 7000 -RA SCT013 BKN016 BKN024
                        05/02 Q0996 BECMG 4000 RA BKN009=
200912290750 METAR COR EGLL 290750Z 08013KT 9999 SCT015 BKN024 05/02 Q0996
                        TEMPO BKN009=
200912290720 METAR COR EGLL 290720Z 08012KT 9999 FEW015 05/02 Q0996 NOSIG=
200912290650 METAR COR EGLL 290650Z 08013KT 9999 FEW016 04/02 Q0996 NOSIG=
200912290620 METAR COR EGLL 290620Z 08015KT 9999 FEW015 04/02 Q0996 NOSIG=
200912290550 METAR COR EGLL 290550Z 08013KT 9999 FEW030 04/02 Q0997 NOSIG=
200912290520 METAR COR EGLL 290520Z 08015KT CAVOK 04/02 Q0997 NOSIG=
200912290450 METAR COR EGLL 290450Z 08013KT CAVOK 04/02 Q0997 NOSIG=
200912290420 METAR COR EGLL 290420Z 08013KT CAVOK 04/02 Q0998 NOSIG=
200912290350 METAR COR EGLL 290350Z 08012KT CAVOK 04/01 Q0999 NOSIG=
200912290320 METAR COR EGLL 290320Z 08009KT CAVOK 03/01 Q0999 NOSIG=
200912290250 METAR COR EGLL 290250Z 07007KT CAVOK 03/01 Q0999 NOSIG=
200912290220 METAR COR EGLL 290220Z 06007KT CAVOK 03/01 Q1000 NOSIG=
200912290150 METAR COR EGLL 290150Z 07008KT CAVOK 03/01 Q1000 NOSIG=
200912290120 METAR COR EGLL 290120Z 07009KT CAVOK 03/01 Q1000 NOSIG=
200912290050 METAR COR EGLL 290050Z 07008KT CAVOK 02/01 Q1000 NOSIG=
200912290020 METAR COR EGLL 290020Z 06006KT 9000 NSC 02/01 Q1001 NOSIG=
200912282350 METAR COR EGLL 282350Z 06006KT 7000 NSC 02/01 Q1001 NOSIG=
200912282320 METAR COR EGLL 282320Z 06005KT 7000 NSC 02/01 Q1002 NOSIG=
200912282250 METAR COR EGLL 282250Z 07006KT 6000 NSC 03/01 Q1002 NOSIG=
200912282220 METAR COR EGLL 282220Z 07006KT 6000 NSC 02/01 Q1002 NOSIG=
200912282150 METAR COR EGLL 282150Z 07005KT 4500 BR NSC 03/01 Q1003 BECMG
                        6000 NSW=
200912282120 METAR COR EGLL 282120Z 07005KT 5000 BR SCT004 02/01 Q1003
                        TEMPO 4000 BKN004=
200912282050 METAR COR EGLL 282050Z 07005KT 5000 BR SCT004 02/01 Q1003
                        TEMPO 4000 BKN004=
200912282020 METAR COR EGLL 282020Z 07004KT 4500 BR BKN004 03/02 Q1003
                        TEMPO SCT004=
200912281950 METAR COR EGLL 281950Z 08008KT 7000 SCT006 03/02 Q1003 TEMPO
                        BKN006=
200912281920 METAR COR EGLL 281920Z 07006KT 7000 FEW006 03/02 Q1003 NOSIG=
200912281850 METAR COR EGLL 281850Z 06006KT 8000 FEW007 03/01 Q1003 NOSIG=
200912281820 METAR COR EGLL 281820Z 06005KT 8000 NSC 02/01 Q1003 NOSIG=
200912281750 METAR COR EGLL 281750Z 07005KT 9000 NSC 02/01 Q1003 NOSIG=
200912281720 METAR COR EGLL 281720Z 07005KT CAVOK 03/01 Q1003 NOSIG=
200912281650 METAR COR EGLL 281650Z 06004KT CAVOK 03/01 Q1003 NOSIG=
200912281620 METAR COR EGLL 281620Z 08004KT CAVOK 03/01 Q1003 NOSIG=
200912281550 METAR EGLL 281550Z 07005KT CAVOK 03/01 Q1003=
200912281520 METAR EGLL 281520Z 09005KT CAVOK 04/01 Q1003=
200912281450 METAR COR EGLL 281450Z 12007KT 9999 FEW019 05/02 Q1003 NOSIG=
200912281420 METAR COR EGLL 281420Z 10007KT 9999 FEW019 05/02 Q1003 NOSIG=
200912281350 METAR COR EGLL 281350Z 09007KT 9999 FEW015 05/02 Q1004 NOSIG=
200912281320 METAR COR EGLL 281320Z 10006KT 9999 FEW015 05/02 Q1004 NOSIG=
200912281250 METAR COR EGLL 281250Z 09006KT CAVOK 05/02 Q1004 NOSIG=
200912281220 METAR COR EGLL 281220Z 08006KT CAVOK 05/02 Q1004 NOSIG=
200912281150 METAR COR EGLL 281150Z 09005KT CAVOK 04/01 Q1005 NOSIG=
200912281120 METAR COR EGLL 281120Z VRB02KT CAVOK 03/01 Q1005 NOSIG=
200912281050 METAR COR EGLL 281050Z VRB02KT CAVOK 03/01 Q1005 NOSIG=
200912281020 METAR COR EGLL 281020Z VRB02KT CAVOK 02/00 Q1005 NOSIG=
200912280950 METAR COR EGLL 280950Z 03002KT CAVOK 00/M00 Q1005 NOSIG=
200912280920 METAR COR EGLL 280920Z 05003KT CAVOK M00/M01 Q1005 NOSIG=
200912280850 METAR COR EGLL 280850Z 00000KT CAVOK M01/M02 Q1005 NOSIG=
200912280820 METAR COR EGLL 280820Z 07003KT CAVOK M01/M03 Q1005 NOSIG=
200912280750 METAR COR EGLL 280750Z 09003KT CAVOK M00/M02 Q1005 NOSIG=
200912280720 METAR COR EGLL 280720Z 02002KT CAVOK 01/M01 Q1005 NOSIG=
200912280650 METAR COR EGLL 280650Z 09002KT CAVOK 00/M01 Q1005 NOSIG=
200912280620 METAR COR EGLL 280620Z 00000KT CAVOK M00/M01 Q1005 NOSIG=
200912280550 METAR COR EGLL 280550Z VRB02KT 9999 FEW030 M01/M02 Q1005
                        NOSIG=
200912280520 METAR COR EGLL 280520Z VRB02KT 9999 FEW029 M00/M01 Q1005
                        NOSIG=
200912280450 METAR COR EGLL 280450Z VRB03KT CAVOK M00/M01 Q1005 NOSIG=
200912280420 METAR COR EGLL 280420Z 21004KT CAVOK M00/M01 Q1005 NOSIG=
200912280350 METAR COR EGLL 280350Z 20002KT CAVOK M00/M01 Q1005 NOSIG=
200912280320 METAR COR EGLL 280320Z 13002KT CAVOK M01/M02 Q1005 NOSIG=
200912280250 METAR COR EGLL 280250Z VRB02KT CAVOK M00/M01 Q1005 NOSIG=
200912280220 METAR COR EGLL 280220Z 26002KT CAVOK M00/M02 Q1005 NOSIG=
200912280150 METAR COR EGLL 280150Z 26005KT CAVOK 01/M01 Q1005 NOSIG=
200912280120 METAR COR EGLL 280120Z 27004KT CAVOK 01/M01 Q1005 NOSIG=
200912280050 METAR COR EGLL 280050Z 27006KT CAVOK 02/M00 Q1005 NOSIG=
200912280020 METAR COR EGLL 280020Z 30004KT 270V340 CAVOK 02/M00 Q1005
                        NOSIG=
200912272350 METAR COR EGLL 272350Z 29007KT CAVOK 02/M00 Q1005 NOSIG=
200912272320 METAR COR EGLL 272320Z 28010KT CAVOK 03/M00 Q1005 NOSIG=
200912272250 METAR COR EGLL 272250Z 27012KT CAVOK 03/00 Q1005 NOSIG=
200912272220 METAR COR EGLL 272220Z 26014KT CAVOK 04/00 Q1005 NOSIG=
200912272150 METAR COR EGLL 272150Z 25008KT CAVOK 04/00 Q1004 NOSIG=
200912272120 METAR COR EGLL 272120Z 25010KT CAVOK 04/00 Q1004 NOSIG=
200912272050 METAR COR EGLL 272050Z 27007KT CAVOK 03/00 Q1003 NOSIG=
200912272020 METAR COR EGLL 272020Z 27009KT CAVOK 04/00 Q1003 NOSIG=
200912271950 METAR COR EGLL 271950Z 29010KT CAVOK 05/00 Q1003 NOSIG=
200912271920 METAR COR EGLL 271920Z 27013KT CAVOK 04/01 Q1003 NOSIG=
200912271850 METAR COR EGLL 271850Z 26016KT CAVOK 05/01 Q1003 NOSIG=
200912271820 METAR COR EGLL 271820Z 26014KT CAVOK 05/01 Q1003 NOSIG=
200912271750 METAR COR EGLL 271750Z 27016KT CAVOK 05/00 Q1002 NOSIG=
200912271720 METAR COR EGLL 271720Z 26013KT 9999 FEW043 05/00 Q1002 NOSIG=
200912271650 METAR COR EGLL 271650Z 27014KT 9999 FEW045 05/00 Q1001 NOSIG=
200912271620 METAR COR EGLL 271620Z 28015KT 9999 FEW042 05/00 Q1001 NOSIG=
200912271550 METAR COR EGLL 271550Z 27015KT 9999 FEW042 06/00 Q1001 NOSIG=
200912271520 METAR COR EGLL 271520Z 28016KT 9999 SCT042 06/01 Q1000 NOSIG=
200912271450 METAR COR EGLL 271450Z 27015KT 9999 FEW032 BKN039 07/02 Q0999
                        NOSIG=
200912271420 METAR COR EGLL 271420Z 27016KT 9999 FEW032 SCT037 07/02 Q0999
                        NOSIG=
200912271350 METAR COR EGLL 271350Z 28014KT 9999 SCT028 BKN036 07/02 Q0999
                        NOSIG=
200912271320 METAR COR EGLL 271320Z 27014KT 9999 BKN033 07/02 Q0998 NOSIG=
200912271250 METAR COR EGLL 271250Z 28013KT 9999 BKN028 BKN033 07/02 Q0998
                        NOSIG=
200912271220 METAR COR EGLL 271220Z 28016KT 9999 FEW027 SCT032 07/02 Q0998
                        NOSIG=
200912271150 METAR COR EGLL 271150Z 27019KT 9999 FEW030 07/03 Q0997 NOSIG=
200912271120 METAR EGLL 271120Z 26017KT 9999 SCT024 07/03 Q0997=
200912271050 METAR COR EGLL 271050Z 25017KT 9999 SCT021 BKN046 07/03 Q0997
                        NOSIG=
200912271020 METAR COR EGLL 271020Z 24015KT 9999 FEW021 SCT023 BKN045
                        07/03 Q0997 NOSIG=
200912270950 METAR COR EGLL 270950Z 24015KT 9999 FEW016 BKN045 07/03 Q0996
                        NOSIG=
200912270920 METAR COR EGLL 270920Z 24012KT 9999 FEW037 06/02 Q0996 NOSIG=
200912270850 METAR COR EGLL 270850Z 23012KT 9999 FEW035CB 06/03 Q0996
                        NOSIG=
200912270820 METAR COR EGLL 270820Z 21009KT 9999 SCT038 06/03 Q0996 NOSIG=
200912270750 METAR COR EGLL 270750Z 21009KT 9999 FEW040 06/03 Q0996 NOSIG=
200912270720 METAR COR EGLL 270720Z 21009KT CAVOK 05/02 Q0996 NOSIG=
200912270650 METAR COR EGLL 270650Z 22009KT CAVOK 05/02 Q0996 NOSIG=
200912270620 METAR COR EGLL 270620Z 21008KT CAVOK 05/02 Q0996 NOSIG=
200912270550 METAR COR EGLL 270550Z 22008KT 9999 FEW048 05/02 Q0996 NOSIG=
200912270520 METAR COR EGLL 270520Z 21008KT 9999 FEW040 SCT045 05/02 Q0996
                        NOSIG=
200912270450 METAR COR EGLL 270450Z 21007KT 9999 FEW047 04/02 Q0996 NOSIG=
200912270420 METAR COR EGLL 270420Z 20008KT CAVOK 05/02 Q0997 NOSIG=
200912270350 METAR COR EGLL 270350Z 20008KT CAVOK 05/02 Q0997 NOSIG=
200912270320 METAR COR EGLL 270320Z 21008KT CAVOK 05/03 Q0997 NOSIG=
200912270250 METAR COR EGLL 270250Z 21008KT CAVOK 05/03 Q0997 NOSIG=
200912270220 METAR COR EGLL 270220Z 21009KT CAVOK 05/03 Q0997 NOSIG=
200912270150 METAR COR EGLL 270150Z 20007KT CAVOK 05/03 Q0997 NOSIG=
200912270120 METAR COR EGLL 270120Z 20007KT CAVOK 05/03 Q0998 NOSIG=
200912270050 METAR EGLL 270050Z 20008KT CAVOK 05/04 Q0998=
200912270020 METAR COR EGLL 270020Z 21008KT CAVOK 06/04 Q0998 NOSIG=
200912262350 METAR COR EGLL 262350Z 21008KT CAVOK 06/04 Q0998 NOSIG=
200912262320 METAR EGLL 262320Z 21009KT 9999 FEW041 06/04 Q0998=
200912262250 METAR COR EGLL 262250Z 20009KT 160V240 CAVOK 06/04 Q0998
                        NOSIG=
200912262220 METAR COR EGLL 262220Z 20007KT 180V240 CAVOK 05/04 Q0999
                        NOSIG=
200912262150 METAR COR EGLL 262150Z 19005KT 140V250 CAVOK 05/03 Q0999
                        NOSIG=
200912262120 METAR COR EGLL 262120Z 22007KT 190V250 CAVOK 05/04 Q0999
                        NOSIG=
200912262050 METAR COR EGLL 262050Z 22010KT CAVOK 06/04 Q0999 NOSIG=
200912262020 METAR COR EGLL 262020Z 20009KT 180V240 CAVOK 06/04 Q0999
                        NOSIG=
200912261950 METAR COR EGLL 261950Z 20012KT 180V240 CAVOK 07/04 Q0999
                        NOSIG=
200912261920 METAR COR EGLL 261920Z 21009KT 180V240 CAVOK 06/04 Q0999
                        NOSIG=
200912261850 METAR COR EGLL 261850Z 21009KT 170V240 CAVOK 06/04 Q0999
                        NOSIG=
200912261820 METAR COR EGLL 261820Z 21009KT CAVOK 07/05 Q0999 NOSIG=
200912261750 METAR COR EGLL 261750Z 20010KT 170V240 CAVOK 07/05 Q0999
                        NOSIG=
200912261720 METAR COR EGLL 261720Z 21008KT 170V240 9999 FEW047 07/05
                        Q0999 NOSIG=
200912261650 METAR COR EGLL 261650Z 19008KT 150V240 9999 FEW036 06/05
                        Q0999 NOSIG=
200912261620 METAR COR EGLL 261620Z 21007KT 180V240 9999 FEW020 07/05
                        Q1000 NOSIG=
200912261550 METAR COR EGLL 261550Z 21007KT 190V250 9999 FEW020 07/05
                        Q1000 NOSIG=
200912261520 METAR COR EGLL 261520Z 22011KT 9999 SCT020 08/05 Q1000 NOSIG=
200912261450 METAR COR EGLL 261450Z 22010KT 9999 FEW021 SCT023 09/05 Q1000
                        NOSIG=
200912261420 METAR COR EGLL 261420Z 22009KT 190V250 9999 FEW018 BKN020
                        09/06 Q1000 NOSIG=
200912261350 METAR COR EGLL 261350Z 22010KT 9999 FEW020 09/06 Q1000 NOSIG=
200912261320 METAR COR EGLL 261320Z 22009KT 9999 FEW018 SCT041 09/06 Q1000
                        NOSIG=
200912261250 METAR COR EGLL 261250Z 22010KT 9999 SCT016 09/06 Q1000 NOSIG=
200912261220 METAR COR EGLL 261220Z 21010KT 9999 SCT016 09/06 Q1000 NOSIG=
200912261150 METAR COR EGLL 261150Z 21010KT 9999 FEW015 09/06 Q1000 NOSIG=
200912261120 METAR COR EGLL 261120Z 21010KT 9999 FEW020 08/06 Q1001 NOSIG=
200912261050 METAR COR EGLL 261050Z 20009KT 9999 FEW025 SCT040 08/06 Q1001
                        NOSIG=
200912261020 METAR COR EGLL 261020Z 21009KT 9999 FEW029 BKN042 08/06 Q1001
                        NOSIG=
200912260950 METAR COR EGLL 260950Z 20009KT 9999 FEW019 07/06 Q1001 NOSIG=
200912260920 METAR COR EGLL 260920Z 23008KT 200V270 9999 FEW009 SCT019
                        07/05 Q1001 NOSIG=
200912260850 METAR COR EGLL 260850Z 21007KT 9999 -SHRA FEW029 SCT037 06/05
                        Q1001 TEMPO SHRA=
200912260820 METAR COR EGLL 260820Z 20008KT 180V250 9999 FEW020 SCT042
                        06/04 Q1000 TEMPO SHRA=
200912260750 METAR COR EGLL 260750Z 21007KT 9999 FEW042 06/04 Q1000 NOSIG=
200912260720 METAR COR EGLL 260720Z 20009KT 9999 FEW025 06/04 Q1000 NOSIG=
200912260650 METAR COR EGLL 260650Z 20008KT 180V250 9999 FEW024 06/04
                        Q1000 NOSIG=
200912260620 METAR COR EGLL 260620Z 21008KT 9999 SCT025 07/04 Q1000 NOSIG=
200912260550 METAR COR EGLL 260550Z 20010KT 9999 FEW039 07/05 Q1000 NOSIG=
200912260520 METAR COR EGLL 260520Z 22014KT 9999 -RA FEW017 SCT040 08/05
                        Q1000 RERA NOSIG=
200912260450 METAR COR EGLL 260450Z 21009KT 8000 -RA SCT025 08/06 Q1000
                        TEMPO SHRA=
200912260420 METAR COR EGLL 260420Z 21007KT 9999 FEW025 07/05 Q1001 TEMPO
                        SHRA=
200912260350 METAR COR EGLL 260350Z 19006KT 9999 FEW020 07/05 Q1001 NOSIG=
200912260320 METAR COR EGLL 260320Z 19004KT 9999 FEW019 07/05 Q1001 NOSIG=
200912260250 METAR COR EGLL 260250Z 20006KT 9999 -SHRA FEW029 07/05 Q1001
                        NOSIG=
200912260220 METAR COR EGLL 260220Z 20007KT 9999 FEW022 SCT030 06/05 Q1001
                        NOSIG=
200912260150 METAR COR EGLL 260150Z 20007KT 9999 FEW018 SCT032 06/05 Q1001
                        NOSIG=
200912260120 METAR COR EGLL 260120Z 19009KT 9000 -SHRA FEW019 SCT042 06/05
                        Q1002 NOSIG=
200912260050 METAR COR EGLL 260050Z 20005KT 9999 FEW022 SCT048 06/04 Q1002
                        NOSIG=
200912260020 METAR COR EGLL 260020Z 20008KT 9999 FEW029 06/04 Q1002 NOSIG=
200912252350 METAR COR EGLL 252350Z 20006KT 9999 FEW030 05/04 Q1002 NOSIG=
200912252320 METAR COR EGLL 252320Z 19005KT CAVOK 05/03 Q1002 NOSIG=
200912252250 METAR COR EGLL 252250Z 19006KT 170V230 CAVOK 05/03 Q1002
                        NOSIG=
200912252220 METAR COR EGLL 252220Z 19007KT 150V230 CAVOK 04/03 Q1002
                        NOSIG=
200912252150 METAR COR EGLL 252150Z 20007KT 170V240 CAVOK 03/02 Q1003
                        NOSIG=
200912252120 METAR COR EGLL 252120Z 19007KT 170V240 CAVOK 03/01 Q1003
                        NOSIG=
200912252050 METAR COR EGLL 252050Z 19007KT 150V240 CAVOK 02/01 Q1003
                        NOSIG=
200912252020 METAR COR EGLL 252020Z 19006KT CAVOK 03/01 Q1003 NOSIG=
200912251950 METAR COR EGLL 251950Z 19006KT 160V240 CAVOK 02/00 Q1003
                        NOSIG=
200912251920 METAR COR EGLL 251920Z 19007KT 160V250 9999 FEW041 03/01
                        Q1003 NOSIG=
200912251850 METAR COR EGLL 251850Z 20005KT 9999 SCT041 03/01 Q1003 NOSIG=
200912251820 METAR COR EGLL 251820Z 20005KT CAVOK 03/01 Q1003 NOSIG=
200912251750 METAR COR EGLL 251750Z 21006KT CAVOK 03/01 Q1003 NOSIG=
200912251720 METAR COR EGLL 251720Z 21006KT 170V240 CAVOK 03/01 Q1003
                        NOSIG=
200912251650 METAR COR EGLL 251650Z 21005KT 190V250 CAVOK 03/01 Q1003
                        NOSIG=
200912251620 METAR COR EGLL 251620Z 22006KT 200V260 CAVOK 03/01 Q1002
                        NOSIG=
200912251550 METAR COR EGLL 251550Z 23007KT CAVOK 04/01 Q1002 NOSIG=
200912251520 METAR COR EGLL 251520Z 25009KT CAVOK 05/01 Q1002 NOSIG=
200912251450 METAR COR EGLL 251450Z 26009KT CAVOK 05/01 Q1002 NOSIG=
200912251420 METAR COR EGLL 251420Z 25009KT CAVOK 04/02 Q1001 NOSIG=
200912251350 METAR COR EGLL 251350Z 25010KT 9999 FEW009 04/02 Q1001 NOSIG=
200912251320 METAR COR EGLL 251320Z 25010KT 9999 FEW008 BKN010 04/01 Q1001
                        NOSIG=
200912251250 METAR COR EGLL 251250Z 26012KT 9999 BKN010 03/01 Q1001 NOSIG=
200912251220 METAR COR EGLL 251220Z 26010KT 9000 FEW008 BKN009 03/01 Q1000
                        BECMG BKN012=
200912251150 METAR COR EGLL 251150Z 29007KT 9999 FEW009 BKN012 03/01 Q1000
                        NOSIG=
200912251120 METAR COR EGLL 251120Z 29010KT 260V330 9000 FEW006 BKN009
                        03/01 Q1000 BECMG BKN012=
200912251050 METAR COR EGLL 251050Z 27011KT 8000 BKN005 02/01 Q0999 BECMG
                        BKN010=
200912251020 METAR COR EGLL 251020Z 27011KT 6000 OVC005 02/01 Q0999 BECMG
                        BKN010=
200912250950 METAR COR EGLL 250950Z 27011KT 8000 OVC005 02/01 Q0998 NOSIG=
200912250920 METAR COR EGLL 250920Z 27010KT 8000 BKN005 02/01 Q0997 NOSIG=
200912250850 METAR COR EGLL 250850Z 27010KT 6000 OVC005 02/01 Q0997 NOSIG=
200912250820 METAR COR EGLL 250820Z 27010KT 6000 FEW004 OVC005 02/01 Q0996
                        NOSIG=
200912250750 METAR COR EGLL 250750Z 27009KT 4000 BR FEW004 BKN005 02/01
                        Q0995 BECMG 6000 NSW=
200912250720 METAR COR EGLL 250720Z 28010KT 5000 BR BKN005 02/01 Q0994
                        TEMPO 4000=
200912250650 METAR COR EGLL 250650Z 29007KT 260V320 9000 BKN005 02/01
                        Q0994 TEMPO 4000 BR=
200912250620 METAR COR EGLL 250620Z 30007KT 9000 BKN005 02/01 Q0993 TEMPO
                        4000 BR=
200912250550 METAR COR EGLL 250550Z 29007KT 9999 BKN005 02/01 Q0992 TEMPO
                        4000=
200912250520 METAR COR EGLL 250520Z 29006KT 9999 FEW005 SCT008 BKN020
                        02/02 Q0992 BECMG 4000 BR BKN009=
200912250450 METAR COR EGLL 250450Z 29006KT 7000 -RA FEW005 SCT008 BKN023
                        03/02 Q0991 BECMG 4000 BR BKN006=
200912250420 METAR COR EGLL 250420Z 29007KT 5000 -RA BKN005 BKN020 03/02
                        Q0991 NOSIG=
200912250350 METAR COR EGLL 250350Z 30006KT 5000 -RA BKN003 BKN015 03/02
                        Q0990 TEMPO 4000 BKN006=
200912250320 METAR COR EGLL 250320Z 29007KT 4200 -RA BKN004 OVC011 03/02
                        Q0990 TEMPO BKN006=
200912250250 METAR COR EGLL 250250Z 29006KT 4500 -RA BKN005 OVC011 03/02
                        Q0989 TEMPO BKN003=
200912250220 METAR COR EGLL 250220Z 29005KT 6000 BKN004 OVC011 03/02 Q0989
                        TEMPO BKN006=
200912250150 METAR COR EGLL 250150Z 30004KT 5000 -RA SCT004 OVC011 03/02
                        Q0989 TEMPO BKN009=
200912250120 METAR COR EGLL 250120Z 31004KT 4500 BR BKN003 OVC009 03/02
                        Q0988 NOSIG=
200912250050 METAR COR EGLL 250050Z 31004KT 280V350 4000 -DZ BKN003 03/02
                        Q0988 NOSIG=
200912250020 METAR COR EGLL 250020Z 34005KT 310V020 4200 DZ BKN003 03/02
                        Q0988 NOSIG=
200912242350 METAR COR EGLL 242350Z 33005KT 300V360 3900 BR OVC002 03/02
                        Q0988 TEMPO 1200=
200912242320 METAR COR EGLL 242320Z 35004KT 300V010 4000 BR OVC003 03/02
                        Q0987 TEMPO 1200=
200912242250 METAR COR EGLL 242250Z 35005KT 5000 1500W PRFG OVC003 03/02
                        Q0987 TEMPO 1200 BR=
200912242220 METAR COR EGLL 242220Z 02004KT 340V060 5000 BR BKN005 03/02
                        Q0987 TEMPO 4000 BKN004=
200912242150 METAR COR EGLL 242150Z 03005KT 350V070 4900 BR BKN004 04/02
                        Q0987 TEMPO BKN006=
200912242120 METAR COR EGLL 242120Z 03005KT 350V060 3300 BR FEW002 SCT004
                        BKN005 04/03 Q0986 NOSIG=
200912242050 METAR COR EGLL 242050Z 36004KT 330V040 5000 BR SCT003 BKN011
                        04/03 Q0986 BECMG 4000 BKN009=
200912242020 METAR COR EGLL 242020Z 01004KT 350V050 7000 BKN011 05/03
                        Q0986 BECMG 4000 BR BKN009=
200912241950 METAR COR EGLL 241950Z VRB02KT 8000 BKN010 05/03 Q0986 BECMG
                        4000 BR BKN008=
200912241920 METAR COR EGLL 241920Z 05003KT 7000 SCT008 BKN012 05/03 Q0986
                        BECMG 4000 BR BKN008=
200912241850 METAR COR EGLL 241850Z 07002KT 6000 BKN010 05/03 Q0986 BECMG
                        4000 BR BKN008=
200912241820 METAR COR EGLL 241820Z 09005KT 8000 FEW010 BKN017 04/03 Q0986
                        BECMG BKN010=
200912241750 METAR COR EGLL 241750Z VRB03KT 8000 SCT009 BKN016 05/04 Q0985
                        TEMPO BKN010=
200912241720 METAR COR EGLL 241720Z 07005KT 8000 FEW007 BKN019 05/04 Q0985
                        TEMPO BKN014=
200912241650 METAR COR EGLL 241650Z 06004KT 9000 BKN017 05/04 Q0986 TEMPO
                        BKN014=
200912241620 METAR COR EGLL 241620Z 07003KT 8000 SCT015 05/03 Q0987 TEMPO
                        BKN014=
200912241550 METAR COR EGLL 241550Z 10005KT 8000 SCT009 BKN013 05/04 Q0987
                        NOSIG=
200912241520 METAR COR EGLL 241520Z 10005KT 9000 NSC 05/04 Q0987 NOSIG=
200912241450 METAR COR EGLL 241450Z 09004KT 9999 FEW018 06/04 Q0987 NOSIG=
200912241420 METAR COR EGLL 241420Z 14004KT 9999 SCT034 06/04 Q0987 NOSIG=
200912241350 METAR COR EGLL 241350Z 13005KT 9999 SCT034 06/04 Q0987 NOSIG=
200912241320 METAR COR EGLL 241320Z 14004KT 9999 SCT035 06/04 Q0987 NOSIG=
200912241250 METAR COR EGLL 241250Z 16004KT 9999 BKN032 06/04 Q0987 NOSIG=
200912241220 METAR COR EGLL 241220Z 17004KT 9999 FEW025 05/04 Q0987 NOSIG=
200912241150 METAR COR EGLL 241150Z 14006KT 9999 FEW025 06/04 Q0988 TEMPO
                        SHRA=
200912241120 METAR COR EGLL 241120Z 13007KT 9999 FEW013 SCT028 05/04 Q0988
                        TEMPO SHRA BKN013=
200912241050 METAR COR EGLL 241050Z 14006KT 9999 SCT013 SCT018 05/04 Q0988
                        TEMPO SHRA BKN013=
200912241020 METAR COR EGLL 241020Z 13006KT 9999 FEW013 SCT017 04/03 Q0988
                        NOSIG=
200912240950 METAR COR EGLL 240950Z 12007KT 9999 FEW024 SCT029 04/03 Q0988
                        NOSIG=
200912240920 METAR COR EGLL 240920Z 14005KT 100V220 9999 FEW024 SCT031
                        03/03 Q0988 NOSIG=
200912240850 METAR COR EGLL 240850Z 13006KT 110V190 9999 FEW030 03/02
                        Q0988 NOSIG=
200912240820 METAR COR EGLL 240820Z 13005KT 110V210 9999 FEW030 SCT045
                        03/02 Q0988 NOSIG=
200912240750 METAR COR EGLL 240750Z 15005KT 110V250 9999 SCT032 SCT045
                        03/02 Q0988 RERA NOSIG=
200912240720 METAR COR EGLL 240720Z 14006KT 110V200 9999 -RA BKN018 04/03
                        Q0988 NOSIG=
200912240650 METAR COR EGLL 240650Z 18006KT 150V220 9999 -SHRA SCT025
                        SCT032 04/03 Q0989 TEMPO 4000 SHRA=
200912240620 METAR COR EGLL 240620Z 19007KT 170V250 9999 -SHRA FEW030
                        SCT036 04/03 Q0989 TEMPO 4000 SHRA=
200912240550 METAR COR EGLL 240550Z 19008KT 150V220 9999 SCT019 04/02
                        Q0989 TEMPO 4000 SHRA=
200912240520 METAR COR EGLL 240520Z 21005KT CAVOK 04/02 Q0988 TEMPO 4000
                        SHRA=
200912240450 METAR COR EGLL 240450Z 19006KT 160V260 CAVOK 04/02 Q0988
                        NOSIG=
200912240420 METAR COR EGLL 240420Z 17007KT CAVOK 03/02 Q0989 NOSIG=
200912240350 METAR COR EGLL 240350Z 19005KT CAVOK 03/02 Q0989 NOSIG=
200912240320 METAR COR EGLL 240320Z 18006KT CAVOK 03/02 Q0989 NOSIG=
200912240250 METAR COR EGLL 240250Z 18005KT CAVOK 03/02 Q0989 NOSIG=
200912240220 METAR COR EGLL 240220Z AUTO 16008KT 9999NDV NCD 03/02 Q0989=
200912240150 METAR COR EGLL 240150Z AUTO 16007KT 9999NDV NCD 03/02 Q0989=
200912240120 METAR COR EGLL 240120Z AUTO 16008KT 140V230 9999NDV NCD 03/02
                        Q0989=
200912240050 METAR COR EGLL 240050Z 16009KT 9999 FEW045 03/02 Q0989 NOSIG=
200912240020 METAR COR EGLL 240020Z 17005KT 140V210 9999 -RA FEW029 SCT034
                        03/01 Q0989 NOSIG=
200912232350 METAR COR EGLL 232350Z 22005KT 9999 -RA FEW021 SCT032 02/01
                        Q0990 NOSIG=
200912232320 METAR COR EGLL 232320Z 18008KT 140V240 9999 FEW019 02/01
                        Q0989 NOSIG=
200912232250 METAR COR EGLL 232250Z 14007KT 110V200 9999 -RA BKN019 02/01
                        Q0989 NOSIG=
200912232220 METAR COR EGLL 232220Z 18008KT 150V240 9000 -RA FEW015 BKN019
                        02/01 Q0990 TEMPO 4000 SHRA BKN014CB=
200912232150 METAR COR EGLL 232150Z 22007KT 9000 -RA FEW012 BKN020 02/01
                        Q0990 TEMPO 4000 RA BKN012CB=
200912232120 METAR COR EGLL 232120Z 23007KT 200V270 9999 FEW024 BKN028
                        02/01 Q0990 NOSIG=
200912232050 METAR COR EGLL 232050Z 20007KT 170V240 8000 -RA BKN015 BKN020
                        02/01 Q0990 RERA TEMPO BKN014=
200912232020 METAR COR EGLL 232020Z 24012KT 7000 RA BKN017 02/01 Q0990
                        NOSIG=
200912231950 METAR COR EGLL 231950Z 19008KT 9999 VCTS FEW015CB SCT031
                        05/04 Q0989 TEMPO 4000 SHRA BKN014CB=
200912231920 METAR COR EGLL 231920Z 17007KT 9999 BKN020 05/03 Q0989 TEMPO
                        4000 SHRA BKN014=
200912231850 METAR COR EGLL 231850Z 16009KT 9000 SCT013 BKN019 05/04 Q0989
                        TEMPO 4000 SHRA BKN013=
200912231820 METAR COR EGLL 231820Z 14008KT 8000 -RA SCT016 BKN019 05/04
                        Q0989 RERA TEMPO 4000 SHRA BKN014=
200912231750 METAR COR EGLL 231750Z 14009KT 9999 -RA FEW015 SCT048 05/04
                        Q0989 TEMPO 4000 SHRA BKN014=
200912231720 METAR COR EGLL 231720Z 14007KT 9000 -RA BKN017 05/04 Q0989
                        TEMPO 4000 SHRA BKN014=
200912231650 METAR COR EGLL 231650Z 14008KT 7000 DZ BKN015 04/03 Q0989
                        TEMPO 4000 BKN014=
200912231620 METAR COR EGLL 231620Z 13006KT 8000 SCT017 SCT026 04/03 Q0989
                        TEMPO 4000 SHRA=
200912231550 METAR COR EGLL 231550Z 11007KT 7000 SCT018 SCT028 04/03 Q0990
                        TEMPO 4000 SHRA=
200912231520 METAR COR EGLL 231520Z 11007KT 7000 SCT025 03/02 Q0990 NOSIG=
200912231450 METAR COR EGLL 231450Z 11007KT 9000 SCT025 04/03 Q0990 NOSIG=
200912231420 METAR COR EGLL 231420Z 11006KT 090V160 6000 SCT020 03/02
                        Q0990 TEMPO 4000 SHRA=
200912231350 METAR COR EGLL 231350Z 12005KT 090V160 6000 FEW023 03/02
                        Q0990 TEMPO 4000 SHRA=
200912231320 METAR COR EGLL 231320Z 13006KT 5000 BR FEW016 SCT024 02/01
                        Q0990 NOSIG=
200912231250 METAR COR EGLL 231250Z 12004KT 040V170 6000 -SHRA FEW028
                        SCT045 02/01 Q0991 TEMPO 4000 SHRA=
200912231220 METAR COR EGLL 231220Z 12004KT 080V180 6000 FEW035 SCT044
                        01/01 Q0991 TEMPO 4000 SHRA=
200912231150 METAR COR EGLL 231150Z 12004KT 060V180 4600 BR FEW029 SCT039
                        00/M00 Q0991 TEMPO 5000 SHRA=
200912231120 METAR COR EGLL 231120Z VRB03KT 5000 BR FEW027 SCT037 M00/M01
                        Q0991 TEMPO 4000 SHRA=
200912231050 METAR COR EGLL 231050Z VRB02KT 5000 BR FEW046 M01/M01 Q0991
                        TEMPO 4000=
200912231020 METAR COR EGLL 231020Z VRB02KT 5000 BR FEW039 M02/M02 Q0991
                        TEMPO 4000=
200912230950 METAR COR EGLL 230950Z VRB02KT 4800 BR SCT044 M02/M03 Q0991
                        TEMPO 2500=
200912230920 METAR COR EGLL 230920Z 04002KT 2100 0900NE R27R/P1500 R27L/P1500
                        BR FEW036 M03/M04 Q0991 TEMPO 0800
                        FZFG=
200912230850 METAR COR EGLL 230850Z 35002KT 0700 R27R/0300 R27L/P1500
                        FZFG FEW004 M04/M05 Q0991 TEMPO 0500=
200912230820 METAR COR EGLL 230820Z 35002KT 0400 R27R/1500 R27L/P1500
                        FZFG FEW001 M04/M04 Q0991 TEMPO 0300=
200912230750 METAR COR EGLL 230750Z 36003KT 0800 R27R/0650 R27L/P1500
                        FZFG NSC M04/M05 Q0991 TEMPO 0500=
200912230720 METAR EGLL 230720Z 35002KT 0300 R27R/0600 R27L/P1500 FZFG
                        NSC M04/M05 Q0991=
200912230650 METAR EGLL 230650Z 05002KT 0600 R27R/1400 R27L/P1500 FZFG
                        SCT001 M04/M04 Q0991=
200912230620 METAR COR EGLL 230620Z VRB02KT 0300 R27R/0800 R27L/0700 FZFG
                        BKN001 M05/M05 Q0991 NOSIG=
200912230550 METAR COR EGLL 230550Z VRB02KT 0250 R27R/0550 R27L/0500 FZFG
                        BKN001 M05/M05 Q0991 NOSIG=
200912230520 METAR COR EGLL 230520Z 00000KT 0250 R27R/0700 FZFG BKN001
                        M05/M05 Q0991 NOSIG=
200912230450 METAR COR EGLL 230450Z VRB02KT 0500 R27R/0750 FZFG SCT002
                        M05/M05 Q0991 NOSIG=
200912230420 METAR COR EGLL 230420Z 00000KT 0700 R27R/0400 FZFG FEW001
                        SCT035 M05/M05 Q0991 BECMG BKN001=
200912230350 METAR COR EGLL 230350Z 00000KT 0700 R27R/0600 FZFG FEW001
                        SCT038 M05/M05 Q0991 NOSIG=
200912230320 METAR EGLL 230320Z VRB02KT 0500 R27R/0900 FZFG BKN001 M05/M05
                        Q0991=
200912230250 METAR COR EGLL 230250Z 05002KT 0300 R27L/0400 R27R/0500 FZFG
                        VV/// M04/M05 Q0991 NOSIG=
200912230220 METAR EGLL 230220Z 36004KT 0300 R27L/P1500 R27R/0450 FZFG
                        VV/// M04/M05 Q0991=
200912230150 METAR COR EGLL 230150Z VRB02KT 3000 0200SW R27L/0375 R27R/1400
                        PRFG SCT002 M04/M05 Q0991 BECMG 0600
                        FZFG BKN001=
200912230120 METAR COR EGLL 230120Z VRB02KT 1000 0200NW R27L/0375 R27R/P1500
                        PRFG BKN001 M04/M04 Q0991 BECMG 0600
                        FZFG=
200912230050 METAR COR EGLL 230050Z VRB02KT 0650 R27L/0650 R27R/0900 FZFG
                        BKN001 M04/M04 Q0991 NOSIG=
200912230020 METAR COR EGLL 230020Z 00000KT 0700 R27L/P1500 R27R/0500
                        FZFG VV/// M04/M04 Q0991 NOSIG=
200912222350 METAR COR EGLL 222350Z VRB02KT 5000 1000NW R27L/P1500 R27R/1500
                        PRFG NSC M03/M04 Q0990 BECMG 1200=
200912222320 METAR COR EGLL 222320Z 01002KT 6000 0700NW R27L/P1500 R27R/0750
                        PRFG NSC M03/M04 Q0990 BECMG 1200=
200912222250 METAR COR EGLL 222250Z 34003KT 5000 0700NW R27L/P1500 R27R/0900
                        PRFG NSC M03/M04 Q0990 BECMG 1200=
200912222220 METAR COR EGLL 222220Z 32004KT 4700 0900NW R27L/P1500 R27R/0550
                        PRFG NSC M03/M04 Q0990 BECMG 0800
                        FG=
200912222150 METAR COR EGLL 222150Z 33003KT 5000 1200W R27L/P1500 R27R/1300
                        PRFG NSC M02/M03 Q0990 BECMG 1200=
200912222120 METAR EGLL 222120Z 34003KT 6000 0800W R27L/P1500 R27R/P1500
                        PRFG NSC M01/M02 Q0990=
200912222050 METAR COR EGLL 222050Z 00000KT 7000 0450N R27L/P1500 R27R/P1500
                        PRFG NSC M01/M02 Q0989 BECMG 0800
                        FZFG BKN001=
200912222020 METAR COR EGLL 222020Z 35003KT 7000 0450W R27L/P1500 R27R/P1500
                        PRFG NSC M00/M01 Q0989 BECMG 0800
                        FZFG BKN001=
200912221950 METAR COR EGLL 221950Z 22004KT 200V260 7000 1300W VCFG NSC
                        00/M01 Q0989 BECMG 1200=
200912221920 METAR COR EGLL 221920Z VRB03KT 9000 3000N VCFG NSC M00/M01
                        Q0989 BECMG 2000 BR=
200912221850 METAR COR EGLL 221850Z 32003KT 8000 2800N VCFG NSC M00/M01
                        Q0989 BECMG 2000 FG=
200912221820 METAR COR EGLL 221820Z 30002KT 9000 NSC 01/M01 Q0989 BECMG
                        2000 BR=
200912221750 METAR COR EGLL 221750Z 25006KT 210V270 9000 NSC 00/M01 Q0989
                        BECMG 2000 BR=
200912221720 METAR COR EGLL 221720Z 24007KT 210V270 CAVOK 01/M01 Q0988
                        BECMG 2000 BR=
200912221650 METAR COR EGLL 221650Z 25007KT 200V280 CAVOK 01/M01 Q0988
                        BECMG 2000 BR=
200912221620 METAR EGLL 221620Z 25010KT CAVOK 01/M01 Q0988=
200912221550 METAR COR EGLL 221550Z 25010KT CAVOK 02/M00 Q0988 NOSIG=
200912221520 METAR COR EGLL 221520Z 24010KT 210V270 CAVOK 02/M00 Q0988
                        NOSIG=
200912221450 METAR COR EGLL 221450Z 25009KT CAVOK 03/00 Q0988 NOSIG=
200912221420 METAR COR EGLL 221420Z 24008KT 200V270 CAVOK 03/00 Q0988
                        NOSIG=
200912221350 METAR COR EGLL 221350Z 25009KT 9999 FEW012 03/00 Q0987 NOSIG=
200912221320 METAR COR EGLL 221320Z 24008KT 9999 SCT009 02/00 Q0987 NOSIG=
200912221250 METAR COR EGLL 221250Z 22008KT 170V250 9999 SCT008 02/00
                        Q0987 NOSIG=
200912221220 METAR COR EGLL 221220Z 23010KT 9000 BKN005 02/00 Q0988 BECMG
                        BKN010=
200912221150 METAR COR EGLL 221150Z 24009KT 210V270 9000 BKN004 01/M00
                        Q0988 BECMG BKN006=
200912221120 METAR EGLL 221120Z 24008KT 8000 BKN004 01/M00 Q0988=
200912221050 METAR COR EGLL 221050Z 25009KT 9999 BKN006 01/M00 Q0987 NOSIG=
200912221020 METAR COR EGLL 221020Z 25009KT 9999 BKN006 01/M00 Q0987 TEMPO
                        3000 BR=
200912220950 METAR COR EGLL 220950Z 25009KT 210V280 9999 BKN004 00/M01
                        Q0987 TEMPO 3000 BR=
200912220920 METAR COR EGLL 220920Z 26009KT 8000 OVC005 00/M01 Q0986 TEMPO
                        3000 BR BKN004=
200912220850 METAR COR EGLL 220850Z 26009KT 6000 OVC004 00/M01 Q0986 TEMPO
                        3000 BR=
200912220820 METAR COR EGLL 220820Z 25008KT 8000 OVC005 00/M01 Q0986 BECMG
                        2000 BR BKN002=
200912220750 METAR COR EGLL 220750Z 27007KT 230V290 9000 BKN005 00/M01
                        Q0985 BECMG 2000 BR BKN002=
200912220720 METAR COR EGLL 220720Z 28007KT 9999 BKN004 00/M00 Q0985 BECMG
                        2500 BR BKN002=
200912220650 METAR COR EGLL 220650Z 30005KT 280V340 9999 OVC006 01/M00
                        Q0985 BECMG 2500 BR BKN004=
200912220620 METAR COR EGLL 220620Z 30006KT 8000 FEW004 OVC007 01/00 Q0984
                        BECMG 1200 BR BKN003=
200912220550 METAR COR EGLL 220550Z 30005KT 6000 BKN004 01/00 Q0984 BECMG
                        1200 BR BKN002=
200912220520 METAR COR EGLL 220520Z 29005KT 8000 FEW004 SCT006 BKN041
                        01/00 Q0984 BECMG 3200 BR BKN004=
200912220450 METAR COR EGLL 220450Z 30003KT 8000 -RA FEW004 BKN040 01/00
                        Q0984 BECMG 3500 BR BKN004=
200912220420 METAR COR EGLL 220420Z 30003KT 7000 -RA SCT005 SCT013 01/00
                        Q0984 BECMG 3200 BR BKN004=
200912220350 METAR EGLL 220350Z 28005KT 5000 -SN SCT003 BKN008 01/00 Q0984=
200912220320 METAR COR EGLL 220320Z VRB02KT 2900 -RASN SCT005 BKN031 01/00
                        Q0983 BECMG 3500 BR=
200912220250 METAR COR EGLL 220250Z 00000KT 3200 -SN BKN004 01/M00 Q0983
                        NOSIG=
200912220220 METAR COR EGLL 220220Z VRB02KT 4900 -RA SCT004 BKN034 01/00
                        Q0983 TEMPO 2500 -RASN BKN004=
200912220150 METAR EGLL 220150Z AUTO VRB03KT 3700NDV -RA BKN002/// BKN014///
                        01/00 Q0983=
200912220120 METAR EGLL 220120Z AUTO 31003KT 3400NDV -RA BKN003/// BKN012///
                        01/01 Q0983=
200912220050 METAR COR EGLL 220050Z 31003KT 4900 -DZ BKN005 BKN020 01/01
                        Q0983 TEMPO 2500 -RASN=
200912220020 METAR COR EGLL 220020Z 34002KT 3600 BR BKN006 01/00 Q0984
                        TEMPO 2500 RASN=
200912212350 METAR COR EGLL 212350Z VRB03KT 4900 BR FEW006 OVC049 02/01
                        Q0984 BECMG -RASN BKN012=
200912212320 METAR COR EGLL 212320Z VRB02KT 3200 BR FEW035 BKN049 01/00
                        Q0984 BECMG -RASN BKN012=
200912212250 METAR COR EGLL 212250Z 00000KT 6000 FEW022 BKN048 02/01 Q0984
                        NOSIG=
200912212220 METAR COR EGLL 212220Z 34002KT 4700 BR FEW004 SCT020 BKN040
                        01/01 Q0984 BECMG 2000 BKN004=
200912212150 METAR COR EGLL 212150Z 03002KT 4000 BR FEW007 BKN023 02/01
                        Q0984 BECMG 2000 BKN004=
200912212120 METAR COR EGLL 212120Z VRB02KT 4000 BR FEW005 BKN020 02/01
                        Q0984 BECMG 2000 BKN004=
200912212050 METAR COR EGLL 212050Z 02002KT 4000 BR SCT006 SCT022 01/01
                        Q0984 BECMG 2000 BKN004=
200912212020 METAR COR EGLL 212020Z 07002KT 6000 SCT007 BKN013 01/00 Q0984
                        BECMG 2000 BR BKN004=
200912211950 METAR COR EGLL 211950Z VRB03KT 5000 BR BKN024 OVC037 01/00
                        Q0985 BECMG 2000 BKN004=
200912211920 METAR COR EGLL 211920Z 09005KT 3800 BR SCT004 BKN010 BKN035
                        01/00 Q0985 BECMG 2000 BKN004=
200912211850 METAR COR EGLL 211850Z 09006KT 060V130 5000 BR SCT005 BKN013
                        01/00 Q0985 RERA RESN BECMG 2000
                        BKN004=
200912211820 METAR COR EGLL 211820Z 07008KT 5000 -RA BKN004 OVC013 01/00
                        Q0986 TEMPO 2000 RASN=
200912211750 METAR COR EGLL 211750Z 07008KT 6000 FEW003 BKN014 01/00 Q0986
                        TEMPO 2000 SN BKN004=
200912211720 METAR COR EGLL 211720Z 06007KT 4000 BR FEW002 BKN013 01/M00
                        Q0986 RERA RESN TEMPO SN BKN004=
200912211650 METAR COR EGLL 211650Z 06007KT 1600 -SNRA FEW003 SCT005 BKN015
                        00/M00 Q0987 TEMPO SN BKN004=
200912211620 METAR COR EGLL 211620Z 05005KT 1500 R09L/P1500 R09R/P1500
                        -SNRA FEW003 BKN011 01/M00 Q0987
                        RESN RERA TEMPO SN BKN004=
200912211550 METAR COR EGLL 211550Z 07006KT 1200 SNRA FEW004 BKN009 BKN019
                        01/00 Q0988 TEMPO BKN004=
200912211520 METAR COR EGLL 211520Z 07006KT 4600 -RA FEW008 BKN015 01/00
                        Q0988 RESN RERA TEMPO 2000 SN BKN010=
200912211450 METAR COR EGLL 211450Z 09007KT 5000 RASN FEW008 BKN011 02/01
                        Q0989 TEMPO 2000 SN BKN004=
200912211420 METAR COR EGLL 211420Z 10007KT 6000 RASN OVC012 02/01 Q0989
                        TEMPO 2000 SN BKN004=
200912211350 METAR COR EGLL 211350Z 10006KT 6000 RA BKN012 02/01 Q0989
                        TEMPO 4000 RASN=
200912211320 METAR COR EGLL 211320Z 12007KT 9000 -RA BKN018 02/01 Q0990
                        TEMPO BKN010=
200912211250 METAR COR EGLL 211250Z 13007KT 9999 -RA SCT025 03/01 Q0990
                        TEMPO BKN010=
200912211220 METAR COR EGLL 211220Z 10005KT 9999 FEW027 SCT049 02/01 Q0991
                        TEMPO BKN010=
200912211150 METAR COR EGLL 211150Z 07004KT 9999 -RA SCT021 02/01 Q0991
                        BECMG BKN010=
200912211120 METAR COR EGLL 211120Z VRB03KT 9999 SCT040 01/M00 Q0992 BECMG
                        BKN010=
200912211050 METAR COR EGLL 211050Z 11004KT 080V140 9999 -RASN SCT022
                        01/M00 Q0993 BECMG BKN010=
200912211020 METAR COR EGLL 211020Z 07003KT 9999 SCT030 M00/M01 Q0993
                        NOSIG=
200912210950 METAR COR EGLL 210950Z 07004KT 9999 FEW035 M01/M02 Q0993
                        NOSIG=
200912210920 METAR COR EGLL 210920Z 09004KT 9999 FEW040 M01/M02 Q0994
                        NOSIG=
200912210850 METAR COR EGLL 210850Z 00000KT 9999 SCT040 M01/M02 Q0994
                        NOSIG=
200912210820 METAR COR EGLL 210820Z 15005KT 9999 FEW030 SCT040 M01/M03
                        Q0994 NOSIG=
200912210750 METAR COR EGLL 210750Z VRB05KT 9999 FEW030 M02/M03 Q0994
                        NOSIG=
200912210720 METAR COR EGLL 210720Z 14004KT 070V240 CAVOK M02/M03 Q0994
                        NOSIG=
200912210650 METAR EGLL 210650Z VRB03KT CAVOK M03/M04 Q0995=
200912210620 METAR COR EGLL 210620Z VRB03KT CAVOK M03/M04 Q0995 NOSIG=
200912210550 METAR COR EGLL 210550Z 16003KT CAVOK M03/M04 Q0995 NOSIG=
200912210520 METAR COR EGLL 210520Z VRB02KT CAVOK M03/M04 Q0996 NOSIG=
200912210450 METAR EGLL 210450Z 17003KT CAVOK M03/M04 Q0996=
200912210420 METAR COR EGLL 210420Z 17003KT CAVOK M03/M04 Q0996 NOSIG=
200912210350 METAR COR EGLL 210350Z 19003KT CAVOK M02/M04 Q0997 NOSIG=
200912210320 METAR COR EGLL 210320Z 19003KT CAVOK M01/M03 Q0997 NOSIG=
200912210250 METAR COR EGLL 210250Z VRB03KT CAVOK M00/M03 Q0997 NOSIG=
200912210220 METAR COR EGLL 210220Z 27004KT CAVOK M00/M03 Q0997 NOSIG=
200912210150 METAR COR EGLL 210150Z 23006KT CAVOK 00/M03 Q0997 NOSIG=
200912210120 METAR COR EGLL 210120Z 27005KT CAVOK M00/M03 Q0997 NOSIG=
200912210050 METAR COR EGLL 210050Z 25005KT 9999 FEW049 M00/M03 Q0998
                        NOSIG=
200912210020 METAR COR EGLL 210020Z 22007KT CAVOK M00/M03 Q0998 NOSIG=
200912202350 METAR COR EGLL 202350Z 22007KT CAVOK M00/M03 Q0998 NOSIG=
200912202320 METAR COR EGLL 202320Z 21009KT CAVOK 00/M03 Q0998 NOSIG=
200912202250 METAR COR EGLL 202250Z 23010KT CAVOK 01/M02 Q0998 NOSIG=
200912202220 METAR COR EGLL 202220Z 24011KT CAVOK 00/M03 Q0998 NOSIG=
200912202150 METAR COR EGLL 202150Z 22007KT 200V260 CAVOK 00/M02 Q0998
                        NOSIG=
200912202120 METAR COR EGLL 202120Z 22009KT CAVOK 00/M02 Q0998 NOSIG=
200912202050 METAR EGLL 202050Z 23011KT CAVOK 01/M02 Q0998=
200912202020 METAR COR EGLL 202020Z 23011KT CAVOK 00/M03 Q0998 NOSIG=
200912201950 METAR COR EGLL 201950Z 23010KT CAVOK 01/M03 Q0998 NOSIG=
200912201920 METAR COR EGLL 201920Z 23011KT CAVOK 01/M03 Q0998 NOSIG=
200912201850 METAR COR EGLL 201850Z 24012KT CAVOK 01/M03 Q0998 NOSIG=
200912201820 METAR COR EGLL 201820Z 23011KT CAVOK 01/M03 Q0998 NOSIG=
200912201750 METAR COR EGLL 201750Z 23011KT CAVOK 01/M03 Q0998 NOSIG=
200912201720 METAR COR EGLL 201720Z 22008KT CAVOK 01/M03 Q0998 NOSIG=
200912201650 METAR COR EGLL 201650Z 22007KT CAVOK 01/M03 Q0998 NOSIG=
200912201620 METAR COR EGLL 201620Z 24013KT CAVOK 02/M03 Q0998 NOSIG=
200912201550 METAR COR EGLL 201550Z 24012KT CAVOK 02/M03 Q0998 NOSIG=
200912201520 METAR COR EGLL 201520Z 22008KT CAVOK 02/M03 Q0998 NOSIG=
200912201450 METAR COR EGLL 201450Z 24010KT CAVOK 02/M03 Q0998 NOSIG=
200912201420 METAR EGLL 201420Z 26012KT CAVOK 02/M03 Q0998=
200912201350 METAR COR EGLL 201350Z 25010KT CAVOK 02/M04 Q0998 NOSIG=
200912201320 METAR EGLL 201320Z 26012KT CAVOK 02/M03 Q0998=
200912201250 METAR COR EGLL 201250Z 26013KT CAVOK 02/M04 Q0999 NOSIG=
200912201220 METAR COR EGLL 201220Z 26012KT CAVOK 01/M04 Q0999 NOSIG=
200912201150 METAR COR EGLL 201150Z 27012KT CAVOK 00/M04 Q0999 NOSIG=
200912201120 METAR COR EGLL 201120Z 27010KT CAVOK M00/M04 Q0999 NOSIG=
200912201050 METAR COR EGLL 201050Z 27009KT CAVOK M01/M05 Q0999 NOSIG=
200912201020 METAR COR EGLL 201020Z 28007KT CAVOK M01/M05 Q0999 NOSIG=
200912200950 METAR COR EGLL 200950Z 28007KT CAVOK M02/M06 Q1000 NOSIG=
200912200920 METAR COR EGLL 200920Z 29005KT CAVOK M02/M06 Q1000 NOSIG=
200912200850 METAR COR EGLL 200850Z 28008KT CAVOK M02/M07 Q0999 NOSIG=
200912200820 METAR COR EGLL 200820Z 29007KT CAVOK M02/M06 Q0999 NOSIG=
200912200750 METAR COR EGLL 200750Z 31007KT CAVOK M02/M05 Q0999 NOSIG=
200912200720 METAR COR EGLL 200720Z 31007KT CAVOK M01/M04 Q0999 NOSIG=
200912200650 METAR COR EGLL 200650Z 30008KT CAVOK M01/M03 Q0999 NOSIG=
200912200620 METAR COR EGLL 200620Z 32009KT 280V340 9999 FEW029 SCT037
                        M00/M03 Q0998 NOSIG=
200912200550 METAR COR EGLL 200550Z 32009KT 280V360 9999 SCT030 BKN045
                        00/M03 Q0998 NOSIG=
200912200520 METAR COR EGLL 200520Z 31006KT 9999 FEW037 BKN045 01/M02
                        Q0998 NOSIG=
200912200450 METAR COR EGLL 200450Z 31008KT 290V360 9999 SCT016 SCT031
                        BKN042 01/M01 Q0998 NOSIG=
200912200420 METAR COR EGLL 200420Z 30007KT 9999 FEW022 01/M01 Q0998 NOSIG=
200912200350 METAR COR EGLL 200350Z 28010KT 9999 FEW026 SCT032 01/M00
                        Q0999 NOSIG=
200912200320 METAR COR EGLL 200320Z 27007KT 9999 SCT025 01/M00 Q0999 NOSIG=
200912200250 METAR COR EGLL 200250Z 27008KT 9999 FEW035 01/00 Q0999 NOSIG=
200912200220 METAR COR EGLL 200220Z 26009KT 9999 FEW007 SCT014 01/00 Q0999
                        NOSIG=
200912200150 METAR COR EGLL 200150Z 27009KT 9999 -RA FEW007 SCT011 02/00
                        Q1000 TEMPO BKN010=
200912200120 METAR COR EGLL 200120Z 26011KT 9999 -SHRASN FEW009 SCT013
                        BKN014 02/00 Q1000 TEMPO 4000=
200912200050 METAR COR EGLL 200050Z 24009KT 9000 -SHRASN FEW013 SCT016
                        02/00 Q1000 RERA TEMPO 4000=
200912200020 METAR COR EGLL 200020Z 24011KT 9999 -SHSN SCT016 02/M00 Q1000
                        TEMPO 4000=
200912192350 METAR COR EGLL 192350Z 23008KT CAVOK 02/M01 Q1001 TEMPO 4000
                        -SN=
200912192320 METAR COR EGLL 192320Z 22008KT CAVOK 02/M01 Q1001 NOSIG=
200912192250 METAR COR EGLL 192250Z 22009KT CAVOK 01/M01 Q1002 NOSIG=
200912192220 METAR COR EGLL 192220Z 24009KT CAVOK 01/M01 Q1003 NOSIG=
200912192150 METAR COR EGLL 192150Z 23009KT CAVOK 01/M02 Q1003 NOSIG=
200912192120 METAR COR EGLL 192120Z 23010KT CAVOK 01/M02 Q1004 NOSIG=
200912192050 METAR COR EGLL 192050Z 23009KT CAVOK 01/M02 Q1004 NOSIG=
200912192020 METAR COR EGLL 192020Z 23009KT CAVOK 00/M03 Q1005 NOSIG=
200912191950 METAR COR EGLL 191950Z 22008KT 9999 FEW032 00/M03 Q1005 NOSIG=
200912191920 METAR COR EGLL 191920Z 23009KT 9999 FEW022 SCT032 00/M03
                        Q1006 NOSIG=
200912191850 METAR COR EGLL 191850Z 21007KT 9999 FEW022 BKN032 M00/M04
                        Q1006 NOSIG=
200912191820 METAR COR EGLL 191820Z 21007KT 9999 FEW040 M01/M04 Q1007
                        NOSIG=
200912191750 METAR EGLL 191750Z 21006KT 190V260 CAVOK M00/M04 Q1007=
200912191720 METAR COR EGLL 191720Z 21006KT CAVOK M00/M04 Q1008 NOSIG=
200912191650 METAR COR EGLL 191650Z 21006KT 180V250 CAVOK M00/M04 Q1008
                        NOSIG=
200912191620 METAR COR EGLL 191620Z 22006KT CAVOK M00/M04 Q1008 NOSIG=
200912191550 METAR COR EGLL 191550Z 25006KT CAVOK 00/M04 Q1009 NOSIG=
200912191520 METAR COR EGLL 191520Z 26006KT 210V280 CAVOK 00/M04 Q1010
                        NOSIG=
200912191450 METAR EGLL 191450Z 27007KT CAVOK M00/M04 Q1010=
200912191420 METAR COR EGLL 191420Z 26010KT CAVOK 00/M04 Q1011 NOSIG=
200912191350 METAR EGLL 191350Z 27008KT CAVOK 00/M04 Q1011=
200912191320 METAR COR EGLL 191320Z 28007KT CAVOK 00/M03 Q1011 NOSIG=
200912191250 METAR COR EGLL 191250Z 28008KT CAVOK 00/M03 Q1011 NOSIG=
200912191220 METAR COR EGLL 191220Z 26008KT CAVOK 00/M03 Q1012 NOSIG=
200912191150 METAR EGLL 191150Z 28005KT CAVOK M00/M04 Q1012=
200912191120 METAR COR EGLL 191120Z 30004KT 260V340 CAVOK M00/M04 Q1013
                        NOSIG=
200912191050 METAR EGLL 191050Z 31005KT 280V350 CAVOK M01/M04 Q1013=
200912191020 METAR COR EGLL 191020Z 31005KT CAVOK M01/M04 Q1014 NOSIG=
200912190950 METAR COR EGLL 190950Z 30005KT 270V330 CAVOK M02/M05 Q1014
                        NOSIG=
200912190920 METAR COR EGLL 190920Z 30005KT CAVOK M02/M05 Q1014 NOSIG=
200912190850 METAR COR EGLL 190850Z 31005KT CAVOK M03/M05 Q1014 NOSIG=
200912190820 METAR COR EGLL 190820Z 30005KT CAVOK M03/M05 Q1014 NOSIG=
200912190750 METAR COR EGLL 190750Z 32005KT 290V360 CAVOK M03/M05 Q1014
                        NOSIG=
200912190720 METAR COR EGLL 190720Z 34004KT CAVOK M03/M05 Q1014 NOSIG=
200912190650 METAR COR EGLL 190650Z 35004KT 310V020 CAVOK M03/M05 Q1014
                        NOSIG=
200912190620 METAR COR EGLL 190620Z 33007KT 300V360 CAVOK M03/M05 Q1014
                        NOSIG=
200912190550 METAR COR EGLL 190550Z 32006KT 290V350 CAVOK M03/M05 Q1014
                        NOSIG=
200912190520 METAR COR EGLL 190520Z 32007KT CAVOK M03/M05 Q1014 NOSIG=
200912190450 METAR COR EGLL 190450Z 32007KT 9999 FEW042 M03/M05 Q1014
                        NOSIG=
200912190420 METAR COR EGLL 190420Z 32007KT 9999 FEW018 M03/M05 Q1015
                        TEMPO BKN011=
200912190350 METAR COR EGLL 190350Z 31004KT 280V350 CAVOK M03/M06 Q1015
                        NOSIG=
200912190320 METAR COR EGLL 190320Z 32005KT 280V360 9999 FEW031 M03/M06
                        Q1015 NOSIG=
200912190250 METAR COR EGLL 190250Z 34005KT 290V010 9999 SCT031 M03/M05
                        Q1015 NOSIG=
200912190220 METAR COR EGLL 190220Z 34005KT 300V020 CAVOK M03/M05 Q1015
                        NOSIG=
200912190150 METAR COR EGLL 190150Z 32008KT CAVOK M02/M05 Q1015 NOSIG=
200912190120 METAR COR EGLL 190120Z 34007KT CAVOK M02/M05 Q1015 NOSIG=
200912190050 METAR COR EGLL 190050Z 35005KT 310V020 CAVOK M02/M05 Q1015
                        NOSIG=
200912190020 METAR COR EGLL 190020Z 35006KT 310V030 CAVOK M02/M04 Q1015
                        NOSIG=
200912182350 METAR COR EGLL 182350Z 35006KT 320V020 CAVOK M01/M04 Q1016
                        NOSIG=
200912182320 METAR COR EGLL 182320Z 35008KT 320V020 9999 SCT041 M01/M04
                        Q1016 NOSIG=
200912182250 METAR COR EGLL 182250Z 35007KT 310V010 9999 BKN042 M00/M03
                        Q1016 NOSIG=
200912182220 METAR COR EGLL 182220Z 35007KT 300V030 9999 FEW013 BKN047
                        M00/M03 Q1016 NOSIG=
200912182150 METAR COR EGLL 182150Z 34007KT 300V010 9999 BKN013 00/M02
                        Q1016 BECMG SCT015=
200912182120 METAR COR EGLL 182120Z 36009KT 320V020 9999 BKN012 00/M02
                        Q1016 NOSIG=
200912182050 METAR COR EGLL 182050Z 35006KT 310V020 9999 BKN013 00/M02
                        Q1016 NOSIG=
200912182020 METAR COR EGLL 182020Z 34006KT 310V010 9999 BKN014 01/M02
                        Q1016 NOSIG=
200912181950 METAR COR EGLL 181950Z 35008KT 320V020 9999 BKN015 01/M02
                        Q1016 TEMPO BKN012=
200912181920 METAR EGLL 181920Z 36009KT 310V030 9999 BKN015 01/M02 Q1016=
200912181850 METAR COR EGLL 181850Z 35007KT 310V020 9999 BKN013 01/M02
                        Q1016 BECMG BKN015=
200912181820 METAR COR EGLL 181820Z 35007KT 310V030 9999 BKN013 00/M02
                        Q1016 BECMG BKN016=
200912181750 METAR COR EGLL 181750Z 36008KT 310V030 9999 BKN013 01/M01
                        Q1016 NOSIG=
200912181720 METAR COR EGLL 181720Z 35007KT 9999 -SN FEW010 BKN012 01/M01
                        Q1016 NOSIG=
200912181650 METAR COR EGLL 181650Z 34005KT 300V020 9999 -SN BKN012 01/M01
                        Q1016 NOSIG=
200912181620 METAR COR EGLL 181620Z 35006KT 8000 FEW013 BKN022 01/M01
                        Q1016 NOSIG=
200912181550 METAR COR EGLL 181550Z 35005KT 300V020 9999 BKN018 01/M02
                        Q1016 NOSIG=
200912181520 METAR COR EGLL 181520Z 35008KT 320V020 9999 BKN015 01/M02
                        Q1016 TEMPO BKN010=
200912181450 METAR COR EGLL 181450Z 36007KT 9999 SCT014 01/M01 Q1016 NOSIG=
200912181420 METAR COR EGLL 181420Z 35007KT CAVOK 01/M02 Q1016 NOSIG=
200912181350 METAR COR EGLL 181350Z 36009KT CAVOK 01/M02 Q1015 NOSIG=
200912181320 METAR COR EGLL 181320Z 35007KT 320V030 9999 FEW035 01/M02
                        Q1015 NOSIG=
200912181250 METAR COR EGLL 181250Z 36007KT 340V060 9999 FEW035 SCT046
                        01/M02 Q1015 NOSIG=
200912181220 METAR COR EGLL 181220Z 36006KT 330V050 9999 FEW039 SCT043
                        01/M03 Q1015 NOSIG=
200912181150 METAR COR EGLL 181150Z 02007KT 9999 SCT033 SCT043 01/M03
                        Q1015 NOSIG=
200912181120 METAR COR EGLL 181120Z 03006KT 360V070 9999 FEW033 01/M03
                        Q1015 NOSIG=
200912181050 METAR COR EGLL 181050Z 04006KT 360V070 9999 SCT034 00/M03
                        Q1015 NOSIG=
200912181020 METAR COR EGLL 181020Z 02006KT 350V050 9999 FEW034 00/M03
                        Q1015 88CLRD99 NOSIG=
200912180950 METAR COR EGLL 180950Z 02008KT 9999 SCT040 SCT048 00/M03
                        Q1015 591///95 091///95 NOSIG=
200912180920 METAR COR EGLL 180920Z 03009KT 360V060 9999 FEW025 BKN035
                        00/M03 Q1014 99110095 99110095 NOSIG=
200912180850 METAR COR EGLL 180850Z 02008KT 9999 VCSH SCT026 BKN036 00/M03
                        Q1014 99110095 99110095 NOSIG=
200912180820 METAR COR EGLL 180820Z 02008KT 340V040 9999 BKN038 M00/M03
                        Q1013 99110095 99110095 NOSIG=
200912180750 METAR COR EGLL 180750Z 01008KT 350V060 9999 FEW043 M01/M03
                        Q1013 99110095 99110095 NOSIG=
200912180720 METAR COR EGLL 180720Z 36008KT 9999 SCT038 M00/M02 Q1012
                        99110095 99110095 NOSIG=
200912180650 METAR COR EGLL 180650Z 01010KT 330V040 9999 FEW013 SCT040
                        M00/M01 Q1012 99110095 99110095 TEMPO
                        BKN012=
200912180620 METAR COR EGLL 180620Z 02009KT 350V050 7000 -SN FEW010 SCT014
                        00/M01 Q1012 09110095 59110095 TEMPO
                        4000 BKN008=
200912180550 METAR COR EGLL 180550Z 02010KT 9999 -SN BKN012 00/M01 Q1012
                        09110095 59110095 TEMPO 4000 BKN008=
200912180520 METAR EGLL 180520Z 02009KT 9999 BKN012 00/M01 Q1012 99110295
                        99110195=
200912180450 METAR COR EGLL 180450Z 02009KT 340V060 9999 -SN FEW006 BKN009
                        00/M00 Q1012 99110295 99110195 TEMPO
                        3000 BKN006=
200912180420 METAR COR EGLL 180420Z 01007KT 340V040 2300 -SN FEW005 SCT007
                        BKN010 00/M00 Q1011 09110295 59110195
                        TEMPO 8000 NSW BKN004=
200912180350 METAR COR EGLL 180350Z 01008KT 5000 -SHSN SCT010 BKN020 00/M01
                        Q1011 09110295 59110195 TEMPO 2000
                        BKN007=
200912180320 METAR COR EGLL 180320Z 01010KT 340V040 9999 -SHSN SCT009
                        BKN027 00/M00 Q1011 99110195 99110195
                        TEMPO 01015G28KT 2000 BKN007=
200912180250 METAR COR EGLL 180250Z 02010KT 340V040 9000 SCT008 BKN016
                        00/M00 Q1011 99110195 59110195 TEMPO
                        02018G30KT 2000 -SHSN BKN006=
200912180220 METAR COR EGLL 180220Z 02011KT 3100 -SHSN FEW007 SCT012 BKN022
                        00/M01 Q1011 RESHSN 09119295 99119295
                        TEMPO 9999 NSW BKN008=
200912180150 METAR COR EGLL 180150Z 02012G22KT 1200 R09R/1500 SHSN BKN010
                        00/M01 Q1010 09110195 59110395 TEMPO
                        0200 +SN VV///=
200912180120 METAR COR EGLL 180120Z 01014G26KT 9999 BKN016 01/M01 Q1010
                        993/0294 993/0294 TEMPO 0800 SHSN
                        BKN003=
200912180050 METAR COR EGLL 180050Z 01015G27KT 330V050 9999 BKN015 01/M01
                        Q1009 593/0294 593/0294 TEMPO 0800
                        SHSN BKN001=
200912180020 METAR COR EGLL 180020Z 01017G29KT 340V040 9999 -SHSN BKN013
                        01/M01 Q1009 994/0594 TEMPO 0800
                        SHSN BKN001=
200912172350 METAR COR EGLL 172350Z 01014KT 330V040 8000 -SHSN FEW007
                        BKN012 01/M01 Q1009 TEMPO 01018G30KT
                        0800 SHSN BKN001=
200912172320 METAR COR EGLL 172320Z 35013G23KT 310V020 4000 -SHSN FEW007
                        BKN010 M00/M01 Q1009 TEMPO 36018G35KT
                        0600 SHSN BKN004 BKN014CB=
200912172250 METAR COR EGLL 172250Z 35011KT 310V010 2000 -SHSN FEW007
                        SCT010 BKN015 M00/M01 Q1009 TEMPO
                        36022G32KT 0200 +SN VV///=
200912172220 METAR COR EGLL 172220Z 34011G22KT 1600 -SHSN FEW003 BKN010
                        M01/M01 Q1009 TEMPO 35020G32KT 0200
                        +SN VV///=
200912172150 METAR COR EGLL 172150Z 35012KT 320V040 0900 R09L/0750 R09R/0900
                        - SHSN SCT005 SCT007 BKN016 M01/M02
                        Q1010 RESHSN REBLSN TEMPO 36018G30KT
                        0200 +SHSN VV///=
200912172120 METAR COR EGLL 172120Z 34013KT 2000 R09L/1500 -SHSN FEW007
                        SCT010 BKN016 M01/M02 Q1010 TEMPO
                        36020G30KT 0600 +SHSN VV///=
200912172050 METAR COR EGLL 172050Z 35013KT 320V020 5000 -SHSN FEW024
                        SCT036 00/M03 Q1010 TEMPO 36018G28KT
                        2000 BKN014=
200912172020 METAR COR EGLL 172020Z 35012G23KT CAVOK 00/M04 Q1010 BECMG
                        2000 - SHSN SCT005 BKN014=
200912171950 METAR COR EGLL 171950Z 34011KT 310V010 CAVOK 01/M05 Q1010
                        BECMG 3000 -SHSN BKN014=
200912171920 METAR COR EGLL 171920Z 35011KT 320V030 9999 FEW040 01/M05
                        Q1011 NOSIG=
200912171850 METAR COR EGLL 171850Z 35012KT 320V020 CAVOK 01/M05 Q1011
                        NOSIG=
200912171820 METAR COR EGLL 171820Z 35010KT 310V020 CAVOK 01/M04 Q1011
                        NOSIG=
200912171750 METAR COR EGLL 171750Z 35010KT CAVOK 01/M03 Q1011 NOSIG=
200912171720 METAR COR EGLL 171720Z 35007G18KT 320V030 9999 FEW018 01/M02
                        Q1011 NOSIG=
200912171650 METAR EGLL 171650Z 36013KT 9999 FEW018 01/M02 Q1011=
200912171620 METAR COR EGLL 171620Z 36011G21KT 330V050 9999 FEW022 01/M02
                        Q1011 NOSIG=
200912171550 METAR COR EGLL 171550Z 36009KT 330V030 9999 FEW014 SCT030
                        02/M01 Q1011 NOSIG=
200912171520 METAR COR EGLL 171520Z 01009KT 9999 FEW007 SCT015 02/M00
                        Q1011 NOSIG=
200912171450 METAR COR EGLL 171450Z 03008G18KT 350V070 9999 3000N VCSH
                        SCT022 SCT030 02/M00 Q1010 NOSIG=
200912171420 METAR COR EGLL 171420Z 36011KT 320V030 9999 SCT021 BKN040
                        03/M00 Q1010 NOSIG=
200912171350 METAR COR EGLL 171350Z 36012KT 320V030 9999 FEW007 SCT040
                        02/M00 Q1010 RERA NOSIG=
200912171320 METAR COR EGLL 171320Z 36013KT 320V040 9999 FEW024 SCT039
                        04/M01 Q1010 NOSIG=
200912171250 METAR COR EGLL 171250Z 36012KT 310V040 9999 FEW024 SCT036
                        04/M00 Q1010 NOSIG=
200912171220 METAR COR EGLL 171220Z 36010KT 320V030 9999 FEW026 04/M00
                        Q1010 NOSIG=
200912171150 METAR COR EGLL 171150Z 36008KT 330V040 9999 FEW021 04/00
                        Q1010 NOSIG=
200912171120 METAR COR EGLL 171120Z 35009KT CAVOK 03/00 Q1010 NOSIG=
200912171050 METAR COR EGLL 171050Z 36009KT 320V030 9999 FEW017 SCT024
                        03/00 Q1010 NOSIG=
200912171020 METAR COR EGLL 171020Z 36006KT 300V030 9999 FEW018 BKN023
                        03/00 Q1010 NOSIG=
200912170950 METAR COR EGLL 170950Z 36008KT 320V030 9999 FEW018 BKN038
                        03/00 Q1010 NOSIG=
200912170920 METAR COR EGLL 170920Z 35008KT 310V020 9999 FEW022 BKN029
                        02/00 Q1010 NOSIG=
200912170850 METAR COR EGLL 170850Z 34008KT 300V010 9999 SCT045 02/M00
                        Q1009 NOSIG=
200912170820 METAR COR EGLL 170820Z 33006KT 300V010 9999 SCT047 02/M00
                        Q1009 NOSIG=
200912170750 METAR COR EGLL 170750Z 32008KT 290V350 9999 SCT046 02/M00
                        Q1009 NOSIG=
200912170720 METAR COR EGLL 170720Z 34005KT 310V020 CAVOK 02/M00 Q1009
                        NOSIG=
200912170650 METAR COR EGLL 170650Z 35006KT CAVOK 02/M00 Q1009 NOSIG=
200912170620 METAR COR EGLL 170620Z 34005KT 320V020 CAVOK 02/M00 Q1009
                        NOSIG=
200912170550 METAR COR EGLL 170550Z 34005KT 310V030 CAVOK 02/M00 Q1008
                        NOSIG=
200912170520 METAR COR EGLL 170520Z 35006KT 9999 FEW036 02/00 Q1008 NOSIG=
200912170450 METAR COR EGLL 170450Z 35005KT 9999 FEW040 02/00 Q1008 NOSIG=
200912170420 METAR COR EGLL 170420Z 36004KT 330V050 CAVOK 02/01 Q1008
                        NOSIG=
200912170350 METAR COR EGLL 170350Z 02006KT 350V080 CAVOK 03/01 Q1008
                        NOSIG=
200912170320 METAR COR EGLL 170320Z 02005KT 330V040 CAVOK 04/02 Q1008
                        NOSIG=
200912170250 METAR COR EGLL 170250Z 01005KT 330V040 6000 FEW028 04/03
                        Q1008 NOSIG=
200912170220 METAR COR EGLL 170220Z 01004KT 340V060 5000 BR FEW005 SCT028
                        04/03 Q1008 NOSIG=
200912170150 METAR COR EGLL 170150Z VRB03KT 4200 BR SCT005 SCT030 04/03
                        Q1007 BECMG 5000=
200912170120 METAR COR EGLL 170120Z 36005KT 330V030 3600 -RA SCT005 BKN012
                        04/03 Q1007 BECMG 7000 NSW=
200912170050 METAR COR EGLL 170050Z VRB03KT 3300 -RA SCT007 BKN013 03/03
                        Q1007 BECMG 7000 BKN015=
200912170020 METAR COR EGLL 170020Z 30002KT 3000 -RA FEW009 SCT013 BKN017
                        04/03 Q1007 NOSIG=
200912162350 METAR COR EGLL 162350Z 31004KT 2800 -RA FEW005 BKN017 BKN026
                        04/03 Q1007 BECMG 3000=
200912162320 METAR COR EGLL 162320Z 32003KT 2800 -RA FEW005 BKN012 BKN017
                        04/03 Q1007 NOSIG=
200912162250 METAR COR EGLL 162250Z 30004KT 2800 -RA FEW005 BKN012 BKN017
                        04/03 Q1007 BECMG 3000 BKN015=
200912162220 METAR COR EGLL 162220Z 27003KT 2500 -RA FEW005 BKN013 04/02
                        Q1007 BECMG 3000=
200912162150 METAR COR EGLL 162150Z 28005KT 2500 -RA FEW004 BKN018 04/03
                        Q1007 BECMG 3000=
200912162120 METAR COR EGLL 162120Z 27005KT 2500 -RA FEW003 BKN005 BKN015
                        04/03 Q1007 NOSIG=
200912162050 METAR COR EGLL 162050Z 27006KT 2500 -RA FEW004 BKN006 BKN016
                        03/02 Q1007 NOSIG=
200912162020 METAR COR EGLL 162020Z 28006KT 2600 -RA FEW004 BKN008 BKN015
                        03/02 Q1007 NOSIG=
200912161950 METAR COR EGLL 161950Z 27007KT 2500 -RA FEW003 BKN005 BKN018
                        03/02 Q1007 NOSIG=
200912161920 METAR COR EGLL 161920Z 27006KT 2500 -RA FEW003 BKN006 BKN020
                        03/02 Q1008 NOSIG=
200912161850 METAR COR EGLL 161850Z 23006KT 2500 -RA FEW004 SCT005 BKN006
                        02/01 Q1008 TEMPO BKN004=
200912161820 METAR COR EGLL 161820Z 24007KT 210V270 2300 -RA SCT004 BKN006
                        02/01 Q1008 TEMPO BKN004=
200912161750 METAR COR EGLL 161750Z 24007KT 2700 -RA SCT004 BKN006 02/01
                        Q1008 TEMPO BKN004=
200912161720 METAR COR EGLL 161720Z 25007KT 2500 -RA SCT004 BKN006 02/01
                        Q1009 TEMPO BKN004=
200912161650 METAR COR EGLL 161650Z 26007KT 2700 -RA SCT004 OVC006 02/01
                        Q1009 TEMPO BKN004=
200912161620 METAR COR EGLL 161620Z 25008KT 2500 -RA FEW004 BKN005 BKN006
                        02/01 Q1009 TEMPO BKN004=
200912161550 METAR COR EGLL 161550Z 24007KT 2200 -RA BKN005 OVC007 01/00
                        Q1009 TEMPO BKN004=
200912161520 METAR COR EGLL 161520Z 24009KT 2100 -RASN BKN005 OVC007 01/00
                        Q1010 TEMPO BKN004=
200912161450 METAR COR EGLL 161450Z 27008KT 2200 -RASN BKN005 BKN007 02/00
                        Q1010 NOSIG=
200912161420 METAR COR EGLL 161420Z 27009KT 4000 -RA OVC005 01/00 Q1010
                        TEMPO 2500 BKN004=
200912161350 METAR COR EGLL 161350Z 23007KT 180V280 2300 -SN OVC006 01/M00
                        Q1010 TEMPO 1200 BKN002=
200912161320 METAR COR EGLL 161320Z 22007KT 190V250 3000 SN BKN005 BKN010
                        01/M00 Q1011 TEMPO 1200 BKN002=
200912161250 METAR COR EGLL 161250Z 23009KT 200V260 2200 SN SCT005 SCT011
                        OVC014 00/M01 Q1011 BECMG BKN005=
200912161220 METAR COR EGLL 161220Z 25009KT 2100 SN OVC015 00/M01 Q1012
                        BECMG BKN008=
200912161150 METAR COR EGLL 161150Z 25010KT 3000 SN OVC021 00/M01 Q1012
                        TEMPO 2000=
200912161120 METAR COR EGLL 161120Z 25009KT 190V280 3500 -SN OVC018 00/M02
                        Q1013 RESN NOSIG=
200912161050 METAR COR EGLL 161050Z 23007KT 200V260 5000 BR OVC018 00/M02
                        Q1013 BECMG 4000 -SN=
200912161020 METAR COR EGLL 161020Z 29004KT 4900 BR BKN019 00/M02 Q1013
                        NOSIG=
200912160950 METAR COR EGLL 160950Z 23006KT 190V260 4900 BR BKN020 BKN024
                        M01/M03 Q1014 BECMG 6000 NSW=
200912160920 METAR COR EGLL 160920Z 21006KT 4900 BR BKN021 M01/M03 Q1014
                        BECMG 6000 NSW=
200912160850 METAR COR EGLL 160850Z 21006KT 180V260 4000 BR BKN022 M01/M03
                        Q1014 BECMG 5000=
200912160820 METAR COR EGLL 160820Z 20007KT 170V250 4000 BR BKN022 M01/M03
                        Q1014 BECMG 5000=
200912160750 METAR COR EGLL 160750Z 25006KT 180V300 3500 BR BKN022 M01/M02
                        Q1015 TEMPO 5000=
200912160720 METAR COR EGLL 160720Z 29004KT 5000 BR BKN023 M02/M03 Q1015
                        NOSIG=
200912160650 METAR COR EGLL 160650Z 26004KT 3500 BR BKN027 M02/M02 Q1015
                        NOSIG=
200912160620 METAR COR EGLL 160620Z 27004KT 3500 BR BKN028 M03/M03 Q1016
                        NOSIG=
200912160550 METAR COR EGLL 160550Z 27004KT 0700 0200E R27L/0300 FZFG
                        NSC M03/M04 Q1016 NOSIG=
200912160520 METAR COR EGLL 160520Z 27003KT 5000 0500W R27L/P1500 PRFG
                        NSC M02/M03 Q1016 BECMG 3000=
200912160450 METAR COR EGLL 160450Z 28003KT 5000 BCFG NSC M03/M04 Q1017
                        BECMG 4000=
200912160420 METAR COR EGLL 160420Z 32002KT 6000 NSC M02/M04 Q1017 NOSIG=
200912160350 METAR COR EGLL 160350Z 00000KT 6000 NSC M02/M04 Q1017 NOSIG=
200912160320 METAR COR EGLL 160320Z 00000KT 6000 NSC M02/M03 Q1017 NOSIG=
200912160250 METAR COR EGLL 160250Z 00000KT 6000 NSC M02/M04 Q1018 NOSIG=
200912160220 METAR COR EGLL 160220Z 33002KT 4600 HZ NSC M02/M03 Q1018
                        NOSIG=
200912160150 METAR EGLL 160150Z VRB03KT 5000 BR SCT033 M01/M03 Q1018=
200912160120 METAR COR EGLL 160120Z 30002KT 5000 BR BKN032 M01/M03 Q1018
                        BECMG 4000=
200912160050 METAR COR EGLL 160050Z 26002KT 6000 BKN021 BKN031 00/M03
                        Q1018 NOSIG=
200912160020 METAR COR EGLL 160020Z 23002KT 6000 SCT018 BKN021 00/M02
                        Q1019 BECMG 4000=
200912152350 METAR COR EGLL 152350Z 19002KT 6000 SCT018 OVC032 00/M02
                        Q1019 BECMG 4000=
200912152320 METAR COR EGLL 152320Z 16002KT 5000 BR FEW018 BKN031 00/M02
                        Q1019 BECMG 4000=
200912152250 METAR COR EGLL 152250Z 16003KT 6000 BKN032 00/M02 Q1019 NOSIG=
200912152220 METAR COR EGLL 152220Z 18004KT 6000 BKN032 01/M02 Q1019 NOSIG=
200912152150 METAR COR EGLL 152150Z 17003KT 6000 BKN031 01/M02 Q1019 NOSIG=
200912152120 METAR COR EGLL 152120Z 00000KT 7000 BKN030 01/M02 Q1019 NOSIG=
200912152050 METAR COR EGLL 152050Z 00000KT 7000 BKN025 01/M02 Q1019 NOSIG=
200912152020 METAR COR EGLL 152020Z 09002KT 6000 BKN024 00/M02 Q1019 NOSIG=
200912151950 METAR COR EGLL 151950Z 14003KT 6000 BKN023 00/M02 Q1019 NOSIG=
200912151920 METAR COR EGLL 151920Z 16003KT 6000 FEW024 00/M02 Q1019 NOSIG=
200912151850 METAR COR EGLL 151850Z 17004KT 6000 NSC 01/M02 Q1019 NOSIG=
200912151820 METAR COR EGLL 151820Z 17004KT 6000 NSC 01/M02 Q1019 NOSIG=
200912151750 METAR EGLL 151750Z 17003KT 6000 NSC 01/M02 Q1019=
200912151720 METAR COR EGLL 151720Z 18004KT 6000 NSC 01/M02 Q1018 NOSIG=
200912151650 METAR COR EGLL 151650Z 14004KT 8000 NSC 02/M02 Q1018 NOSIG=
200912151620 METAR EGLL 151620Z 14004KT 8000 BKN028 01/M03 Q1018 NOSIG=
200912151550 METAR COR EGLL 151550Z 13004KT 8000 BKN028 01/M03 Q1018 NOSIG=
200912151520 METAR COR EGLL 151520Z VRB03KT 9000 FEW037 02/M03 Q1018 NOSIG=
200912151450 METAR COR EGLL 151450Z 12003KT 8000 SCT037 03/M02 Q1019 NOSIG=
200912151420 METAR COR EGLL 151420Z 14003KT 9000 BKN028 03/M02 Q1019 NOSIG=
200912151350 METAR COR EGLL 151350Z VRB03KT 7000 BKN029 BKN039 03/M01
                        Q1019 NOSIG=
200912151320 METAR COR EGLL 151320Z VRB03KT 7000 BKN030 02/M01 Q1019 NOSIG=
200912151250 METAR COR EGLL 151250Z 09005KT 070V140 7000 OVC030 03/M01
                        Q1019 NOSIG=
200912151220 METAR COR EGLL 151220Z 09006KT 7000 BKN028 BKN033 02/M01
                        Q1019 NOSIG=
200912151150 METAR COR EGLL 151150Z 11007KT 7000 BKN028 BKN033 02/M01
                        Q1019 NOSIG=
200912151120 METAR COR EGLL 151120Z 13006KT 7000 BKN027 BKN036 02/M01
                        Q1019 NOSIG=
200912151050 METAR COR EGLL 151050Z 13007KT 7000 SCT029 BKN039 02/M01
                        Q1019 NOSIG=
200912151020 METAR COR EGLL 151020Z 11007KT 7000 SCT026 BKN039 02/M01
                        Q1019 NOSIG=
200912150950 METAR COR EGLL 150950Z 12007KT 7000 SCT029 BKN039 02/M01
                        Q1019 NOSIG=
200912150920 METAR COR EGLL 150920Z 11008KT 7000 SCT024 BKN030 02/M00
                        Q1019 NOSIG=
200912150850 METAR COR EGLL 150850Z 10005KT 7000 SCT026 SCT030 02/M00
                        Q1019 NOSIG=
200912150820 METAR COR EGLL 150820Z 11005KT 6000 SCT024 SCT030 BKN045
                        02/M00 Q1019 NOSIG=
200912150750 METAR COR EGLL 150750Z 13005KT 6000 BKN024 BKN042 02/M00
                        Q1019 NOSIG=
200912150720 METAR COR EGLL 150720Z 13006KT 8000 SCT025 SCT040 02/M00
                        Q1019 NOSIG=
200912150650 METAR COR EGLL 150650Z 13007KT 7000 BKN042 02/M00 Q1019 NOSIG=
200912150620 METAR COR EGLL 150620Z 13006KT 7000 FEW023 BKN042 02/00 Q1019
                        NOSIG=
200912150550 METAR COR EGLL 150550Z 13004KT 7000 FEW023 BKN040 02/00 Q1018
                        NOSIG=
200912150520 METAR COR EGLL 150520Z 14005KT 8000 BKN041 03/01 Q1018 NOSIG=
200912150450 METAR COR EGLL 150450Z 15003KT 9000 BKN040 03/01 Q1019 NOSIG=
200912150420 METAR COR EGLL 150420Z 13003KT 9999 BKN041 03/01 Q1019 NOSIG=
200912150350 METAR EGLL 150350Z 17004KT 9999 BKN041 03/00 Q1019=
200912150320 METAR COR EGLL 150320Z 17004KT 9000 BKN040 03/01 Q1019 NOSIG=
200912150250 METAR COR EGLL 150250Z 15003KT 8000 SCT040 03/01 Q1019 NOSIG=
200912150220 METAR COR EGLL 150220Z 19004KT 8000 FEW010 BKN040 03/01 Q1019
                        NOSIG=
200912150150 METAR COR EGLL 150150Z 17003KT 7000 FEW010 BKN041 03/02 Q1019
                        NOSIG=
200912150120 METAR COR EGLL 150120Z 17003KT 8000 FEW036 BKN044 03/02 Q1019
                        NOSIG=
200912150050 METAR COR EGLL 150050Z 15004KT 7000 BKN042 03/02 Q1019 NOSIG=
200912150020 METAR COR EGLL 150020Z 17004KT 7000 FEW021 BKN044 03/02 Q1019
                        NOSIG=
200912142350 METAR COR EGLL 142350Z 16004KT 4400 HZ FEW006 SCT019 BKN043
                        03/02 Q1019 TEMPO BKN006=
200912142320 METAR COR EGLL 142320Z 17005KT 4700 HZ FEW005 SCT019 BKN043
                        04/03 Q1019 TEMPO BKN009=
200912142250 METAR COR EGLL 142250Z 20004KT 6000 FEW009 BKN043 04/03 Q1020
                        TEMPO 4000 BR BKN009=
200912142220 METAR COR EGLL 142220Z 24004KT 190V260 7000 FEW009 SCT029
                        BKN042 04/03 Q1020 NOSIG=
200912142150 METAR COR EGLL 142150Z 25005KT 200V280 7000 FEW011 SCT043
                        04/03 Q1020 NOSIG=
200912142120 METAR COR EGLL 142120Z VRB03KT 6000 -RA FEW009 SCT043 04/03
                        Q1020 TEMPO 4000 BKN009=
200912142050 METAR EGLL 142050Z 22005KT 4500 -RA FEW009 SCT015 BKN040
                        04/03 Q1020=
200912142020 METAR COR EGLL 142020Z 22004KT 190V280 5000 -RA FEW009 SCT014
                        BKN024 04/03 Q1020 TEMPO 4000 BKN009=
200912141950 METAR EGLL 141950Z 23004KT 190V260 5000 -RA FEW009 SCT017
                        BKN020 04/03 Q1020=
200912141920 METAR COR EGLL 141920Z 21004KT 6000 -RA FEW009 SCT019 BKN030
                        04/03 Q1020 NOSIG=
200912141850 METAR COR EGLL 141850Z 23004KT 180V260 6000 -RA SCT019 OVC030
                        04/03 Q1020 NOSIG=
200912141820 METAR COR EGLL 141820Z 21004KT 7000 -RA BKN016 BKN028 04/03
                        Q1020 NOSIG=
200912141750 METAR COR EGLL 141750Z 21004KT 8000 -RA FEW015 BKN038 04/03
                        Q1020 NOSIG=
200912141720 METAR COR EGLL 141720Z 18005KT 8000 SCT015 BKN038 04/03 Q1020
                        NOSIG=
200912141650 METAR COR EGLL 141650Z 20005KT 8000 FEW012 BKN020 04/02 Q1020
                        NOSIG=
200912141620 METAR COR EGLL 141620Z 20004KT 9000 SCT012 05/02 Q1021 NOSIG=
200912141550 METAR COR EGLL 141550Z 19002KT 9999 SCT012 SCT040 05/02 Q1021
                        NOSIG=
200912141520 METAR COR EGLL 141520Z 00000KT 9999 FEW018 SCT040 05/02 Q1021
                        NOSIG=
200912141450 METAR COR EGLL 141450Z 00000KT 9999 FEW013 SCT040 05/02 Q1021
                        NOSIG=
200912141420 METAR COR EGLL 141420Z VRB02KT 9999 SCT013 05/02 Q1021 NOSIG=
200912141350 METAR COR EGLL 141350Z 35003KT 9999 SCT012 05/02 Q1021 NOSIG=
200912141320 METAR COR EGLL 141320Z VRB03KT 9999 SCT015CB 05/02 Q1021
                        NOSIG=
200912141250 METAR COR EGLL 141250Z VRB02KT 9999 FEW028 BKN042 05/03 Q1022
                        NOSIG=
200912141220 METAR COR EGLL 141220Z VRB02KT 9000 SCT006 05/03 Q1022 NOSIG=
200912141150 METAR COR EGLL 141150Z VRB03KT 8000 FEW005 SCT006 04/03 Q1022
                        NOSIG=
200912141120 METAR COR EGLL 141120Z VRB03KT 8000 FEW005 BKN006 04/03 Q1022
                        BECMG BKN010=
200912141050 METAR COR EGLL 141050Z 35004KT 300V040 6000 2900NE BR SCT004
                        BKN005 04/03 Q1023 BECMG BKN010=
200912141020 METAR COR EGLL 141020Z 02004KT 330V050 2500 BR SCT003 BKN004
                        03/02 Q1023 TEMPO BKN012=
200912140950 METAR COR EGLL 140950Z VRB03KT 2300 BR BKN002 03/02 Q1023
                        BECMG BKN006=
200912140920 METAR COR EGLL 140920Z VRB03KT 1200 R09L/P1500 R09R/P1500
                        BR BKN002 03/02 Q1023 TEMPO 5000
                        BKN008=
200912140850 METAR COR EGLL 140850Z VRB02KT 1500 R09L/P1500 R09R/P1500
                        BR BKN002 03/02 Q1023 TEMPO BKN008=
200912140820 METAR COR EGLL 140820Z 34003KT 2000 BR BKN002 03/02 Q1023
                        TEMPO 7000 BKN008=
200912140750 METAR COR EGLL 140750Z 08003KT 7000 FEW004 BKN005 02/01 Q1023
                        NOSIG=
200912140720 METAR COR EGLL 140720Z 07004KT 360V120 8000 FEW004 SCT035
                        02/01 Q1023 NOSIG=
200912140650 METAR COR EGLL 140650Z 35003KT 6000 NSC 02/01 Q1023 NOSIG=
200912140620 METAR COR EGLL 140620Z 36004KT 8000 FEW048 02/01 Q1023 NOSIG=
200912140550 METAR COR EGLL 140550Z 35004KT 7000 FEW040 01/01 Q1023 NOSIG=
200912140520 METAR COR EGLL 140520Z 36004KT 8000 FEW030 01/00 Q1023 NOSIG=
200912140450 METAR EGLL 140450Z NIL=
200912140420 METAR COR EGLL 140420Z 35003KT 9999 SCT043 01/00 Q1024 NOSIG=
200912140350 METAR COR EGLL 140350Z 36002KT CAVOK 02/00 Q1024 NOSIG=
200912140320 METAR COR EGLL 140320Z 35004KT CAVOK 02/00 Q1024 NOSIG=
200912140250 METAR EGLL 140250Z VRB02KT CAVOK 02/01 Q1024=
200912140220 METAR COR EGLL 140220Z 36004KT CAVOK 02/01 Q1024 NOSIG=
200912140150 METAR COR EGLL 140150Z 35004KT 9999 SCT049 02/01 Q1025 NOSIG=
200912140120 METAR COR EGLL 140120Z 35004KT 9999 FEW047 03/01 Q1025 NOSIG=
200912140050 METAR COR EGLL 140050Z 36004KT 9999 FEW047 02/01 Q1025 NOSIG=
200912140020 METAR COR EGLL 140020Z 36004KT 340V050 CAVOK 03/01 Q1025
                        NOSIG=
200912132350 METAR COR EGLL 132350Z 01004KT 9999 SCT047 04/02 Q1025 NOSIG=
200912132320 METAR COR EGLL 132320Z 02004KT 9999 SCT048 04/02 Q1026 NOSIG=
200912132250 METAR COR EGLL 132250Z 02006KT 9999 SCT047 04/02 Q1026 NOSIG=
200912132220 METAR COR EGLL 132220Z 01004KT 330V050 9999 FEW028 04/02
                        Q1026 NOSIG=
200912132150 METAR COR EGLL 132150Z 02004KT 350V050 CAVOK 04/02 Q1026
                        NOSIG=
200912132120 METAR COR EGLL 132120Z VRB03KT CAVOK 04/02 Q1026 NOSIG=
200912132050 METAR COR EGLL 132050Z 02004KT CAVOK 05/02 Q1026 NOSIG=
200912132020 METAR COR EGLL 132020Z 02004KT 340V050 CAVOK 05/03 Q1026
                        NOSIG=
200912131950 METAR COR EGLL 131950Z 02006KT CAVOK 05/03 Q1026 NOSIG=
200912131920 METAR COR EGLL 131920Z 02006KT 350V050 9999 FEW048 05/03
                        Q1026 NOSIG=
200912131850 METAR COR EGLL 131850Z 01004KT 340V050 9999 FEW039 BKN049
                        05/03 Q1026 NOSIG=
200912131820 METAR COR EGLL 131820Z 36005KT 340V050 9999 FEW024 BKN036
                        05/03 Q1026 NOSIG=
200912131750 METAR COR EGLL 131750Z 01005KT 330V040 9999 SCT023 BKN039
                        05/03 Q1026 NOSIG=
200912131720 METAR COR EGLL 131720Z 02006KT 350V050 9999 -RA FEW020 SCT026
                        BKN038 05/03 Q1026 TEMPO SHRA=
200912131650 METAR COR EGLL 131650Z 03006KT 9999 -SHRA FEW024 BKN041 06/03
                        Q1026 TEMPO SHRA=
200912131620 METAR COR EGLL 131620Z 02006KT 350V050 9999 VCSH FEW027 BKN040
                        06/03 Q1026 TEMPO SHRA=
200912131550 METAR COR EGLL 131550Z 02007KT 9999 VCSH FEW021 SCT025 06/03
                        Q1026 TEMPO SHRA=
200912131520 METAR EGLL 131520Z 02007KT 340V060 9999 VCSH FEW022 SCT027
                        06/02 Q1026 TEMPO SHRA=
200912131450 METAR COR EGLL 131450Z 03008KT 350V070 9999 VCSH FEW025 SCT031
                        BKN038 07/03 Q1026 TEMPO SHRA=
200912131420 METAR COR EGLL 131420Z 02009KT 9999 FEW025 SCT043 07/03 Q1026
                        NOSIG=
200912131350 METAR COR EGLL 131350Z 02010KT 340V060 9999 FEW022 SCT036
                        07/02 Q1026 TEMPO SHRA=
200912131320 METAR COR EGLL 131320Z 03011KT 350V050 9999 FEW021 SCT030
                        07/03 Q1026 TEMPO SHRA=
200912131250 METAR COR EGLL 131250Z 03009KT 350V060 9999 FEW026 SCT049
                        07/03 Q1027 NOSIG=
200912131220 METAR COR EGLL 131220Z 02008KT 9999 FEW023 07/03 Q1027 NOSIG=
200912131150 METAR COR EGLL 131150Z 02008KT 350V060 CAVOK 06/03 Q1028
                        TEMPO SHRA BKN025=
200912131120 METAR COR EGLL 131120Z 03008KT 9999 SCT045 06/03 Q1028 NOSIG=
200912131050 METAR COR EGLL 131050Z 02008KT 350V050 9999 FEW031 SCT037
                        05/03 Q1028 NOSIG=
200912131020 METAR COR EGLL 131020Z 01006KT 9999 FEW033 SCT040 05/03 Q1028
                        NOSIG=
200912130950 METAR COR EGLL 130950Z 01005KT 330V050 9999 -RA FEW030 SCT040
                        05/03 Q1029 TEMPO SHRA=
200912130920 METAR COR EGLL 130920Z 02006KT 9999 SCT027 SCT041 05/03 Q1029
                        TEMPO SHRA=
200912130850 METAR COR EGLL 130850Z 04006KT 360V070 9999 SCT029 SCT032
                        05/03 Q1029 TEMPO SHRA=
200912130820 METAR COR EGLL 130820Z 01005KT 330V040 9999 SCT037 SCT043
                        05/02 Q1029 NOSIG=
200912130750 METAR COR EGLL 130750Z 01005KT 340V040 9999 SCT035 04/02
                        Q1028 NOSIG=
200912130720 METAR COR EGLL 130720Z 01005KT 340V040 CAVOK 04/02 Q1028
                        NOSIG=
200912130650 METAR COR EGLL 130650Z 02006KT 350V050 CAVOK 04/02 Q1028
                        NOSIG=
200912130620 METAR COR EGLL 130620Z 02006KT 340V070 CAVOK 04/02 Q1028
                        NOSIG=
200912130550 METAR COR EGLL 130550Z 02006KT CAVOK 04/02 Q1029 NOSIG=
200912130520 METAR COR EGLL 130520Z 02006KT 350V060 CAVOK 04/02 Q1029
                        NOSIG=
200912130450 METAR EGLL 130450Z NIL=
200912130420 METAR COR EGLL 130420Z 01006KT 340V050 CAVOK 05/03 Q1029
                        NOSIG=
200912130350 METAR COR EGLL 130350Z 02006KT 340V050 CAVOK 04/03 Q1029
                        NOSIG=
200912130320 METAR COR EGLL 130320Z 01006KT CAVOK 04/02 Q1029 NOSIG=
200912130250 METAR COR EGLL 130250Z 02006KT 350V060 CAVOK 05/03 Q1029
                        NOSIG=
200912130220 METAR COR EGLL 130220Z 01007KT 340V040 CAVOK 04/03 Q1029
                        NOSIG=
200912130150 METAR COR EGLL 130150Z 01005KT 340V040 CAVOK 04/02 Q1030
                        NOSIG=
200912130120 METAR COR EGLL 130120Z 36005KT 340V040 CAVOK 03/02 Q1030
                        NOSIG=
200912130050 METAR COR EGLL 130050Z 36006KT CAVOK 03/02 Q1030 NOSIG=
200912130020 METAR COR EGLL 130020Z 01005KT CAVOK 04/02 Q1030 NOSIG=
200912122350 METAR COR EGLL 122350Z 01006KT 330V030 CAVOK 04/02 Q1031
                        NOSIG=
200912122320 METAR COR EGLL 122320Z 02006KT 9999 FEW037 04/03 Q1031 NOSIG=
200912122250 METAR COR EGLL 122250Z 02006KT 350V050 9999 SCT035 04/03
                        Q1030 NOSIG=
200912122220 METAR COR EGLL 122220Z 36006KT 340V040 9999 BKN038 04/03
                        Q1030 NOSIG=
200912122150 METAR COR EGLL 122150Z 02005KT 350V050 CAVOK 04/03 Q1030
                        NOSIG=
200912122120 METAR COR EGLL 122120Z 01005KT 340V040 CAVOK 04/03 Q1030
                        NOSIG=
200912122050 METAR COR EGLL 122050Z 36004KT CAVOK 04/03 Q1030 NOSIG=
200912122020 METAR COR EGLL 122020Z 01005KT 330V050 9999 FEW040 05/03
                        Q1031 NOSIG=
200912121950 METAR COR EGLL 121950Z 02005KT 330V060 9999 FEW044 05/03
                        Q1031 NOSIG=
200912121920 METAR EGLL 121920Z 02006KT 350V060 CAVOK 05/03 Q1031=
200912121850 METAR COR EGLL 121850Z 36005KT 330V040 CAVOK 05/04 Q1031
                        NOSIG=
200912121820 METAR EGLL 121820Z 36005KT CAVOK 05/03 Q1031 NOSIG=
200912121750 METAR COR EGLL 121750Z VRB03KT CAVOK 05/03 Q1031 NOSIG=
200912121720 METAR EGLL 121720Z 36004KT 330V030 CAVOK 05/03 Q1031=
200912121650 METAR EGLL 121650Z VRB03KT CAVOK 06/03 Q1031=
200912121620 METAR EGLL 121620Z 04006KT 360V070 9999 FEW030 06/03 Q1031=
200912121550 METAR COR EGLL 121550Z 05006KT 010V080 9999 SCT030 07/02
                        Q1031 NOSIG=
200912121520 METAR COR EGLL 121520Z 05008KT 9999 SCT026 07/03 Q1031 NOSIG=
200912121450 METAR COR EGLL 121450Z 05005KT 010V070 9999 SCT030 08/04
                        Q1031 NOSIG=
200912121420 METAR COR EGLL 121420Z 05007KT 020V080 9999 VCSH FEW028 SCT044
                        07/04 Q1031 NOSIG=
200912121350 METAR COR EGLL 121350Z 05007KT 350V070 9999 FEW025 SCT033
                        08/04 Q1031 NOSIG=
200912121320 METAR COR EGLL 121320Z 04008KT 360V070 9999 FEW025 SCT030
                        08/04 Q1031 NOSIG=
200912121250 METAR COR EGLL 121250Z 05008KT 9999 FEW030 09/04 Q1031 NOSIG=
200912121220 METAR EGLL 121220Z 04007KT 350V070 9999 FEW034 08/04 Q1031=
200912121150 METAR COR EGLL 121150Z 03007KT 350V060 9999 FEW016 08/04
                        Q1032 NOSIG=
200912121120 METAR COR EGLL 121120Z 04007KT 360V070 9999 FEW039 07/04
                        Q1032 NOSIG=
200912121050 METAR COR EGLL 121050Z 04008KT 360V060 9999 FEW015 07/05
                        Q1032 NOSIG=
200912121020 METAR COR EGLL 121020Z 02007KT 340V070 9999 FEW009 07/05
                        Q1032 NOSIG=
200912120950 METAR EGLL 120950Z 02007KT 350V060 9999 FEW009 SCT039 06/05
                        Q1032=
200912120920 METAR COR EGLL 120920Z 02006KT 9999 SCT040 06/04 Q1032 NOSIG=
200912120850 METAR COR EGLL 120850Z 02006KT 9999 FEW011 SCT045 05/04 Q1032
                        NOSIG=
200912120820 METAR COR EGLL 120820Z 36004KT 330V060 9999 FEW011 05/03
                        Q1032 NOSIG=
200912120750 METAR COR EGLL 120750Z 02006KT 350V050 9999 SCT041 05/04
                        Q1032 NOSIG=
200912120720 METAR COR EGLL 120720Z 01006KT 340V050 9999 FEW041 05/04
                        Q1032 NOSIG=
200912120650 METAR COR EGLL 120650Z 02005KT 350V050 9999 FEW008 05/04
                        Q1032 NOSIG=
200912120620 METAR COR EGLL 120620Z VRB03KT 7000 FEW005 BKN008 05/04 Q1032
                        NOSIG=
200912120550 METAR COR EGLL 120550Z 03005KT 350V060 7000 FEW005 BKN008
                        05/04 Q1032 NOSIG=
200912120520 METAR COR EGLL 120520Z 01006KT 340V050 9000 SCT008 04/03
                        Q1032 TEMPO BKN008=
200912120450 METAR COR EGLL 120450Z 35004KT CAVOK 04/03 Q1032 NOSIG=
200912120420 METAR COR EGLL 120420Z 35004KT 9000 NSC 04/03 Q1032 NOSIG=
200912120350 METAR COR EGLL 120350Z 00000KT 8000 FEW007 05/04 Q1032 NOSIG=
200912120320 METAR COR EGLL 120320Z VRB03KT 8000 BKN007 05/04 Q1032 TEMPO
                        SCT010=
200912120250 METAR COR EGLL 120250Z VRB03KT 8000 BKN008 05/04 Q1032 TEMPO
                        SCT010=
200912120220 METAR COR EGLL 120220Z 02004KT 350V050 7000 BKN006 05/04
                        Q1032 NOSIG=
200912120150 METAR COR EGLL 120150Z VRB03KT 6000 BKN005 05/04 Q1032 NOSIG=
200912120120 METAR COR EGLL 120120Z 35002KT 7000 FEW007 04/03 Q1032 TEMPO
                        BKN007=
200912120050 METAR COR EGLL 120050Z 31003KT 7000 NSC 05/04 Q1033 TEMPO
                        BKN006=
200912120020 METAR COR EGLL 120020Z VRB03KT 6000 SCT008 05/04 Q1033 TEMPO
                        BKN006=
200912112350 METAR COR EGLL 112350Z 35004KT 7000 BKN006 06/04 Q1033 NOSIG=
200912112320 METAR COR EGLL 112320Z 35003KT 7000 BKN006 06/05 Q1033 TEMPO
                        4000 BR=
200912112250 METAR COR EGLL 112250Z VRB03KT 5000 BR BKN005 06/05 Q1033
                        NOSIG=
200912112220 METAR COR EGLL 112220Z VRB03KT 4500 BR BKN004 06/04 Q1033
                        TEMPO 7000 NSW BKN006=
200912112150 METAR COR EGLL 112150Z 01004KT 340V040 7000 BKN005 05/04
                        Q1033 NOSIG=
200912112120 METAR COR EGLL 112120Z 36005KT 8000 BKN005 BKN045 05/04 Q1033
                        NOSIG=
200912112050 METAR COR EGLL 112050Z 36004KT 330V040 9000 BKN005 BKN045
                        05/04 Q1033 NOSIG=
200912112020 METAR COR EGLL 112020Z 01004KT 330V050 9000 SCT005 BKN045
                        05/04 Q1033 TEMPO BKN005=
200912111950 METAR COR EGLL 111950Z 04004KT 330V090 9999 SCT005 SCT006
                        06/04 Q1033 TEMPO BKN005=
200912111920 METAR EGLL 111920Z 05005KT 010V080 9999 OVC005 06/04 Q1033=
200912111850 METAR COR EGLL 111850Z 04005KT 360V070 9000 OVC005 06/04
                        Q1033 TEMPO BKN004=
200912111820 METAR COR EGLL 111820Z 06007KT 020V090 9999 BKN005 06/04
                        Q1033 BECMG BKN004=
200912111750 METAR COR EGLL 111750Z 05006KT 9999 BKN006 06/04 Q1033 BECMG
                        BKN004=
200912111720 METAR COR EGLL 111720Z 05005KT 360V080 9999 BKN006 06/04
                        Q1033 BECMG 4500 BR BKN004=
200912111650 METAR COR EGLL 111650Z 05007KT 010V080 9999 BKN007 06/05
                        Q1033 BECMG 4500 BR BKN004=
200912111620 METAR COR EGLL 111620Z 04006KT 010V080 9999 BKN007 06/05
                        Q1033 BECMG 4500 BR BKN004=
200912111550 METAR COR EGLL 111550Z 05006KT 020V100 9999 FEW008 BKN010
                        07/05 Q1033 BECMG BKN006=
200912111520 METAR COR EGLL 111520Z 02006KT 340V050 9999 BKN011 07/05
                        Q1032 TEMPO BKN008=
200912111450 METAR COR EGLL 111450Z 01005KT 340V040 9999 FEW011 BKN016
                        08/06 Q1032 TEMPO BKN006=
200912111420 METAR COR EGLL 111420Z 02005KT 350V050 9999 FEW011 BKN015
                        07/06 Q1032 TEMPO BKN006=
200912111350 METAR COR EGLL 111350Z 36005KT 330V040 9000 SCT006 BKN010
                        07/06 Q1032 TEMPO BKN005=
200912111320 METAR COR EGLL 111320Z 36005KT 320V030 9000 SCT005 BKN011
                        07/05 Q1032 TEMPO BKN005=
200912111250 METAR COR EGLL 111250Z 35005KT 310V030 9000 SCT006 BKN012
                        06/05 Q1033 TEMPO BKN005=
200912111220 METAR COR EGLL 111220Z 35005KT 320V020 9000 SCT005 BKN011
                        06/05 Q1033 TEMPO BKN005=
200912111150 METAR COR EGLL 111150Z 35004KT 320V030 8000 SCT004 BKN010
                        06/05 Q1033 TEMPO 4000 BR BKN004=
200912111120 METAR COR EGLL 111120Z 02005KT 4500 BR FEW003 BKN004 BKN013
                        05/05 Q1033 BECMG 6000 NSW BKN006=
200912111050 METAR COR EGLL 111050Z 02004KT 340V060 4000 BR BKN002 OVC003
                        05/04 Q1033 BECMG 6000 NSW FEW003
                        BKN006=
200912111020 METAR COR EGLL 111020Z 05007KT 1600 BR OVC002 05/04 Q1034
                        BECMG 6000 FEW003 BKN006=
200912110950 METAR COR EGLL 110950Z 03004KT 340V070 0600 R09L/0900 R09R/0800
                        FG VV/// 04/04 Q1034 BECMG 2000 BR
                        BKN002=
200912110920 METAR COR EGLL 110920Z 05005KT 010V080 0400 R09L/0900 R09R/1000
                        FG VV/// 04/03 Q1033 BECMG 1500 BR
                        BKN002=
200912110850 METAR EGLL 110850Z VRB03KT 0300 R09L/0550 R09R/0600 FG VV///
                        03/03 Q1033=
200912110820 METAR EGLL 110820Z VRB03KT 0250 R09L/0550 R09R/0450 FG VV///
                        03/03 Q1033=
200912110750 METAR EGLL 110750Z 03004KT 350V070 0250 R09L/0650 R09R/0450
                        FG VV/// 03/03 Q1033=
200912110720 METAR COR EGLL 110720Z 36004KT 330V040 0350 R09L/0650 R09R/0650
                        FG VV/// 03/03 Q1033 TEMPO 0300=
200912110650 METAR COR EGLL 110650Z 35003KT 0300 R09L/0650 R09R/0550 FG
                        VV/// 03/02 Q1033 TEMPO 0400=
200912110620 METAR COR EGLL 110620Z 33003KT 0400 R09L/1000 R09R/1100 FG
                        SCT001 BKN002 03/02 Q1033 TEMPO 0300
                        BKN001=
200912110550 METAR COR EGLL 110550Z 35004KT 2000 BCFG SCT004 BKN006 02/02
                        Q1033 TEMPO 1200 BKN004=
200912110520 METAR COR EGLL 110520Z VRB02KT 5000 2200SW VCFG BKN006 02/01
                        Q1033 TEMPO 4000=
200912110450 METAR COR EGLL 110450Z 33003KT 5000 2200SW VCFG BKN006 01/01
                        Q1033 TEMPO 3000 BR=
200912110420 METAR COR EGLL 110420Z 34003KT 6000 2500SW VCFG NSC 01/00
                        Q1033 TEMPO 4000 BR=
200912110350 METAR COR EGLL 110350Z 35004KT 6000 2800SW VCFG NSC 02/01
                        Q1033 BECMG 4000 BR=
200912110320 METAR COR EGLL 110320Z 34004KT 5000 2000SW PRFG NSC 00/M00
                        Q1033 BECMG 4000 BR=
200912110250 METAR COR EGLL 110250Z 33004KT 5000 2000SW PRFG NSC 02/01
                        Q1033 BECMG 4000 BR=
200912110220 METAR COR EGLL 110220Z 29003KT 6000 NSC 03/02 Q1033 BECMG
                        4000 BR=
200912110150 METAR COR EGLL 110150Z 29003KT 6000 NSC 02/01 Q1032 BECMG
                        4000 BR=
200912110120 METAR COR EGLL 110120Z 30002KT 7000 NSC 02/01 Q1032 NOSIG=
200912110050 METAR COR EGLL 110050Z 00000KT 7000 NSC 04/03 Q1032 NOSIG=
200912110020 METAR COR EGLL 110020Z 00000KT 7000 NSC 04/03 Q1032 NOSIG=
200912102350 METAR EGLL 102350Z 08002KT 7000 NSC 04/03 Q1032=
200912102320 METAR COR EGLL 102320Z 05004KT 8000 NSC 04/03 Q1032 NOSIG=
200912102250 METAR COR EGLL 102250Z 06003KT 8000 NSC 05/04 Q1032 NOSIG=
200912102220 METAR COR EGLL 102220Z 05004KT 9000 NSC 05/04 Q1032 NOSIG=
200912102150 METAR COR EGLL 102150Z 35003KT CAVOK 06/04 Q1032 NOSIG=
200912102120 METAR COR EGLL 102120Z 34003KT CAVOK 06/04 Q1032 NOSIG=
200912102050 METAR COR EGLL 102050Z VRB03KT CAVOK 06/04 Q1032 NOSIG=
200912102020 METAR COR EGLL 102020Z 36003KT CAVOK 06/04 Q1032 NOSIG=
200912101950 METAR COR EGLL 101950Z 31004KT CAVOK 07/04 Q1032 NOSIG=
200912101920 METAR COR EGLL 101920Z VRB02KT CAVOK 07/04 Q1031 NOSIG=
200912101850 METAR COR EGLL 101850Z VRB02KT CAVOK 08/05 Q1031 NOSIG=
200912101820 METAR COR EGLL 101820Z 31003KT CAVOK 08/05 Q1031 NOSIG=
200912101750 METAR COR EGLL 101750Z 30004KT CAVOK 08/05 Q1031 NOSIG=
200912101720 METAR COR EGLL 101720Z 30004KT CAVOK 08/05 Q1031 NOSIG=
200912101650 METAR COR EGLL 101650Z 30004KT CAVOK 09/05 Q1031 NOSIG=
200912101620 METAR COR EGLL 101620Z 29004KT CAVOK 09/05 Q1030 NOSIG=
200912101550 METAR COR EGLL 101550Z 31004KT 270V340 CAVOK 09/05 Q1030
                        NOSIG=
200912101520 METAR COR EGLL 101520Z 31004KT CAVOK 09/05 Q1030 NOSIG=
200912101450 METAR COR EGLL 101450Z 30006KT 270V330 CAVOK 10/05 Q1030
                        NOSIG=
200912101420 METAR COR EGLL 101420Z 31007KT 280V350 9999 FEW024 10/05
                        Q1029 NOSIG=
200912101350 METAR COR EGLL 101350Z 33006KT 280V020 9999 FEW024 11/05
                        Q1029 NOSIG=
200912101320 METAR COR EGLL 101320Z 31007KT 280V340 9999 FEW020 11/05
                        Q1029 NOSIG=
200912101250 METAR COR EGLL 101250Z 30008KT 9999 FEW020 11/05 Q1029 NOSIG=
200912101220 METAR COR EGLL 101220Z 30007KT 270V360 9999 FEW020 10/05
                        Q1029 NOSIG=
200912101150 METAR COR EGLL 101150Z 30006KT 270V340 9999 FEW016 10/05
                        Q1029 NOSIG=
200912101120 METAR COR EGLL 101120Z 27006KT CAVOK 10/06 Q1029 NOSIG=
200912101050 METAR COR EGLL 101050Z 29007KT CAVOK 09/06 Q1028 NOSIG=
200912101020 METAR COR EGLL 101020Z 27010KT CAVOK 08/05 Q1028 NOSIG=
200912100950 METAR COR EGLL 100950Z 27009KT CAVOK 08/05 Q1028 NOSIG=
200912100920 METAR COR EGLL 100920Z 27007KT CAVOK 07/05 Q1027 NOSIG=
200912100850 METAR COR EGLL 100850Z 27008KT CAVOK 07/05 Q1027 NOSIG=
200912100820 METAR COR EGLL 100820Z 27007KT CAVOK 06/05 Q1026 NOSIG=
200912100750 METAR COR EGLL 100750Z 26008KT CAVOK 07/05 Q1026 NOSIG=
200912100720 METAR COR EGLL 100720Z 25008KT CAVOK 07/05 Q1025 NOSIG=
200912100650 METAR COR EGLL 100650Z 26005KT CAVOK 07/05 Q1025 NOSIG=
200912100620 METAR COR EGLL 100620Z 27007KT CAVOK 08/05 Q1024 NOSIG=
200912100550 METAR COR EGLL 100550Z 27007KT CAVOK 07/05 Q1024 NOSIG=
200912100520 METAR COR EGLL 100520Z 28007KT CAVOK 08/06 Q1023 NOSIG=
200912100450 METAR COR EGLL 100450Z 28009KT CAVOK 08/06 Q1023 NOSIG=
200912100420 METAR COR EGLL 100420Z 26009KT CAVOK 08/07 Q1023 NOSIG=
200912100350 METAR COR EGLL 100350Z 26009KT 9999 FEW022 09/07 Q1022 NOSIG=
200912100320 METAR COR EGLL 100320Z 26010KT 9999 SCT027 10/07 Q1022 NOSIG=
200912100250 METAR COR EGLL 100250Z 26012KT 9999 BKN030 10/08 Q1021 NOSIG=
200912100220 METAR COR EGLL 100220Z 25012KT 9999 FEW018 11/08 Q1021 NOSIG=
200912100150 METAR COR EGLL 100150Z 25012KT 9999 FEW040 11/08 Q1021 NOSIG=
200912100120 METAR COR EGLL 100120Z 25012KT 8000 -RA NSC 11/09 Q1021 TEMPO
                        SHRA BKN012=
200912100050 METAR COR EGLL 100050Z 25010KT CAVOK 11/09 Q1020 TEMPO SHRA
                        BKN012=
200912100020 METAR COR EGLL 100020Z 24008KT 8000 FEW010 11/09 Q1020 TEMPO
                        SHRA BKN010=
200912092350 METAR COR EGLL 092350Z 22005KT 7000 BKN011 10/09 Q1021 TEMPO
                        SHRA=
200912092320 METAR COR EGLL 092320Z 22006KT 7000 FEW012 10/09 Q1020 TEMPO
                        SHRA BKN012=
200912092250 METAR COR EGLL 092250Z 22007KT 6000 FEW012 10/09 Q1020 TEMPO
                        SHRA BKN012=
200912092220 METAR COR EGLL 092220Z 22009KT 190V250 6000 SCT012 10/09
                        Q1020 TEMPO BKN012=
200912092150 METAR COR EGLL 092150Z 22009KT 6000 FEW046 10/09 Q1020 NOSIG=
200912092120 METAR COR EGLL 092120Z 20006KT 170V250 6000 FEW015 10/09
                        Q1020 NOSIG=
200912092050 METAR COR EGLL 092050Z 22006KT 190V250 6000 NSC 10/09 Q1020
                        NOSIG=
200912092020 METAR COR EGLL 092020Z 22007KT 6000 NSC 11/10 Q1020 NOSIG=
200912091950 METAR COR EGLL 091950Z 20007KT 180V250 6000 NSC 11/10 Q1020
                        NOSIG=
200912091920 METAR COR EGLL 091920Z 20007KT 150V250 7000 FEW019 11/10
                        Q1020 NOSIG=
200912091850 METAR COR EGLL 091850Z 22005KT 190V250 7000 FEW015 11/10
                        Q1020 NOSIG=
200912091820 METAR COR EGLL 091820Z 21006KT 7000 NSC 11/10 Q1020 NOSIG=
200912091750 METAR COR EGLL 091750Z 20006KT 160V260 7000 FEW024 12/10
                        Q1019 NOSIG=
200912091720 METAR COR EGLL 091720Z 19006KT 160V230 7000 FEW024 12/10
                        Q1019 NOSIG=
200912091650 METAR COR EGLL 091650Z 21005KT 160V260 8000 FEW035 12/10
                        Q1019 NOSIG=
200912091620 METAR COR EGLL 091620Z 19006KT 160V240 8000 SCT018 12/10
                        Q1019 NOSIG=
200912091550 METAR COR EGLL 091550Z 19006KT 150V230 8000 NSC 12/10 Q1019
                        NOSIG=
200912091520 METAR COR EGLL 091520Z 19006KT 150V250 8000 NSC 12/10 Q1019
                        NOSIG=
200912091450 METAR COR EGLL 091450Z 21005KT 160V270 8000 NSC 12/10 Q1019
                        NOSIG=
200912091420 METAR COR EGLL 091420Z 21006KT 190V250 9000 NSC 13/10 Q1019
                        NOSIG=
200912091350 METAR COR EGLL 091350Z 21005KT 180V250 9000 NSC 12/10 Q1019
                        NOSIG=
200912091320 METAR EGLL 091320Z 20006KT 170V250 8000 FEW007 SCT012 12/10
                        Q1019=
200912091250 METAR COR EGLL 091250Z 21005KT 190V260 8000 FEW008 SCT012
                        12/10 Q1018 NOSIG=
200912091220 METAR COR EGLL 091220Z 22007KT 190V250 8000 BKN008 12/10
                        Q1018 TEMPO SCT008=
200912091150 METAR COR EGLL 091150Z 22006KT 8000 -RA FEW008 SCT015 12/10
                        Q1019 NOSIG=
200912091120 METAR COR EGLL 091120Z 21006KT 9000 FEW007 BKN012 11/10 Q1019
                        TEMPO SCT012=
200912091050 METAR COR EGLL 091050Z 22008KT 8000 SCT007 BKN012 11/09 Q1019
                        NOSIG=
200912091020 METAR COR EGLL 091020Z 21006KT 190V260 7000 SCT005 10/09
                        Q1018 NOSIG=
200912090950 METAR COR EGLL 090950Z VRB06KT 8000 FEW005 10/09 Q1018 NOSIG=
200912090920 METAR COR EGLL 090920Z 21007KT 180V250 8000 NSC 10/09 Q1018
                        NOSIG=
200912090850 METAR COR EGLL 090850Z 20006KT 160V230 9000 NSC 09/09 Q1017
                        NOSIG=
200912090820 METAR COR EGLL 090820Z 21005KT 190V250 7000 NSC 09/08 Q1017
                        NOSIG=
200912090750 METAR COR EGLL 090750Z 20006KT 7000 NSC 09/08 Q1017 NOSIG=
200912090720 METAR COR EGLL 090720Z 19006KT 160V230 7000 NSC 09/08 Q1017
                        NOSIG=
200912090650 METAR COR EGLL 090650Z 20006KT 180V280 7000 NSC 09/08 Q1017
                        NOSIG=
200912090620 METAR COR EGLL 090620Z 21005KT 180V320 7000 NSC 09/08 Q1016
                        NOSIG=
200912090550 METAR COR EGLL 090550Z 20003KT 8000 NSC 09/09 Q1016 NOSIG=
200912090520 METAR COR EGLL 090520Z 20005KT 8000 NSC 09/09 Q1016 NOSIG=
200912090450 METAR COR EGLL 090450Z 20004KT 9000 NSC 10/09 Q1015 NOSIG=
200912090420 METAR COR EGLL 090420Z 20004KT 9000 FEW015 10/09 Q1015 NOSIG=
200912090350 METAR COR EGLL 090350Z 21004KT 9999 FEW016 11/09 Q1015 TEMPO
                        BKN014=
200912090320 METAR COR EGLL 090320Z 20005KT 9999 BKN016 11/10 Q1015 TEMPO
                        BKN012=
200912090250 METAR COR EGLL 090250Z 20004KT 9999 FEW012 BKN020 11/10 Q1014
                        NOSIG=
200912090220 METAR COR EGLL 090220Z 19004KT 9999 SCT016 BKN022 11/10 Q1014
                        NOSIG=
200912090150 METAR COR EGLL 090150Z 21005KT 9999 FEW011 BKN023 11/10 Q1014
                        NOSIG=
200912090120 METAR COR EGLL 090120Z 21006KT 9999 FEW007 BKN026 11/10 Q1013
                        NOSIG=
200912090050 METAR COR EGLL 090050Z 22005KT 9999 FEW004 SCT007 BKN030
                        11/11 Q1013 NOSIG=
200912090020 METAR COR EGLL 090020Z 21006KT 9999 -DZ SCT003 BKN006 11/11
                        Q1012 TEMPO SCT006 BKN012=
200912082350 METAR COR EGLL 082350Z 19007KT 9999 SCT004 BKN006 11/10 Q1012
                        TEMPO RADZ SCT006 BKN010=
200912082320 METAR COR EGLL 082320Z 18009KT 9999 BKN004 BKN013 11/10 Q1012
                        TEMPO 4500 DZ SCT004 BKN013=
200912082250 METAR COR EGLL 082250Z 18008KT 140V240 5000 -DZ SCT004 BKN006
                        11/10 Q1012 TEMPO 4000 DZ BKN004=
200912082220 METAR COR EGLL 082220Z 17010KT 150V220 6000 -DZ SCT004 BKN006
                        11/10 Q1012 TEMPO 4000 RADZ BKN004=
200912082150 METAR COR EGLL 082150Z 17008KT 140V240 9999 BKN006 11/09
                        Q1012 TEMPO 4500 RADZ=
200912082120 METAR COR EGLL 082120Z 15009KT 130V230 9000 BKN006 10/09
                        Q1012 TEMPO 4000 RADZ BKN004=
200912082050 METAR COR EGLL 082050Z 16010KT 130V230 4800 -RADZ BKN007
                        10/09 Q1012 TEMPO 6000 RADZ=
200912082020 METAR COR EGLL 082020Z 16010KT 140V220 9999 -RA BKN007 10/09
                        Q1012 TEMPO 4500 RADZ=
200912081950 METAR COR EGLL 081950Z 17010KT 150V220 9999 BKN009 10/08
                        Q1012 TEMPO RADZ=
200912081920 METAR COR EGLL 081920Z 16011KT 140V220 9999 BKN009 10/08
                        Q1012 NOSIG=
200912081850 METAR COR EGLL 081850Z 17009KT 140V240 9999 BKN010 BKN029
                        10/08 Q1012 TEMPO BKN008=
200912081820 METAR COR EGLL 081820Z 17010KT 150V220 9999 BKN010 09/08
                        Q1012 TEMPO BKN008=
200912081750 METAR COR EGLL 081750Z 18009KT 140V210 9999 -RA BKN010 BKN033
                        09/07 Q1012 TEMPO BKN008=
200912081720 METAR COR EGLL 081720Z 17009KT 140V220 9999 -RA SCT011 BKN032
                        09/07 Q1012 TEMPO BKN012=
200912081650 METAR COR EGLL 081650Z 17009KT 140V220 9999 FEW011 BKN036
                        09/07 Q1012 NOSIG=
200912081620 METAR COR EGLL 081620Z 18008KT 140V240 9999 -RA FEW023 SCT042
                        09/07 Q1012 NOSIG=
200912081550 METAR COR EGLL 081550Z 20008KT 160V230 9999 SCT023 10/06
                        Q1012 NOSIG=
200912081520 METAR COR EGLL 081520Z 17007KT 150V240 9999 -RA BKN025 10/06
                        Q1012 NOSIG=
200912081450 METAR COR EGLL 081450Z 15006KT 100V180 CAVOK 10/06 Q1012
                        NOSIG=
200912081420 METAR COR EGLL 081420Z 14006KT 120V180 9999 FEW033 10/06
                        Q1012 NOSIG=
200912081350 METAR COR EGLL 081350Z 17005KT 120V200 CAVOK 10/05 Q1012
                        NOSIG=
200912081320 METAR COR EGLL 081320Z 19006KT 160V270 CAVOK 10/05 Q1012
                        NOSIG=
200912081250 METAR COR EGLL 081250Z 20006KT 170V240 CAVOK 09/05 Q1012
                        NOSIG=
200912081220 METAR EGLL 081220Z 21006KT 180V250 CAVOK 09/05 Q1012=
200912081150 METAR COR EGLL 081150Z 22009KT 190V260 CAVOK 09/05 Q1012
                        NOSIG=
200912081120 METAR COR EGLL 081120Z 21007KT 170V240 CAVOK 08/05 Q1012
                        NOSIG=
200912081050 METAR COR EGLL 081050Z 22007KT CAVOK 08/05 Q1012 NOSIG=
200912081020 METAR COR EGLL 081020Z 22008KT CAVOK 08/05 Q1012 NOSIG=
200912080950 METAR COR EGLL 080950Z 20005KT 180V260 CAVOK 07/04 Q1012
                        NOSIG=
200912080920 METAR COR EGLL 080920Z 22007KT CAVOK 06/04 Q1011 NOSIG=
200912080850 METAR COR EGLL 080850Z 21005KT 180V250 CAVOK 06/04 Q1011
                        NOSIG=
200912080820 METAR COR EGLL 080820Z 24008KT CAVOK 05/04 Q1010 NOSIG=
200912080750 METAR COR EGLL 080750Z 23008KT CAVOK 05/04 Q1010 NOSIG=
200912080720 METAR COR EGLL 080720Z 23009KT 210V270 9999 FEW049 06/04
                        Q1009 NOSIG=
200912080650 METAR COR EGLL 080650Z 24010KT 9999 FEW041 06/04 Q1009 NOSIG=
200912080620 METAR COR EGLL 080620Z 26009KT 9999 BKN039 07/04 Q1008 NOSIG=
200912080550 METAR COR EGLL 080550Z 25008KT 9999 BKN045 06/04 Q1008 NOSIG=
200912080520 METAR COR EGLL 080520Z 26009KT 9999 SCT044 06/04 Q1007 NOSIG=
200912080450 METAR COR EGLL 080450Z 25008KT 9999 FEW047 06/04 Q1007 NOSIG=
200912080420 METAR COR EGLL 080420Z 25011KT 9999 FEW040 06/04 Q1006 NOSIG=
200912080350 METAR COR EGLL 080350Z 25010KT CAVOK 06/03 Q1006 NOSIG=
200912080320 METAR COR EGLL 080320Z 25009KT CAVOK 06/03 Q1005 NOSIG=
200912080250 METAR COR EGLL 080250Z 23005KT CAVOK 05/03 Q1005 NOSIG=
200912080220 METAR COR EGLL 080220Z 23008KT CAVOK 05/03 Q1004 NOSIG=
200912080150 METAR COR EGLL 080150Z 22007KT CAVOK 05/03 Q1004 NOSIG=
200912080120 METAR COR EGLL 080120Z 25008KT CAVOK 06/03 Q1003 NOSIG=
200912080050 METAR COR EGLL 080050Z 25009KT CAVOK 06/03 Q1003 NOSIG=
200912080020 METAR COR EGLL 080020Z 25009KT CAVOK 06/03 Q1002 NOSIG=
200912072350 METAR COR EGLL 072350Z 27009KT CAVOK 05/03 Q1002 NOSIG=
200912072320 METAR COR EGLL 072320Z 27011KT 9999 FEW019 05/03 Q1001 NOSIG=
200912072250 METAR COR EGLL 072250Z 27013KT 9999 SCT018 06/04 Q1001 NOSIG=
200912072220 METAR COR EGLL 072220Z 26014KT 9999 FEW020 BKN031 07/04 Q1000
                        NOSIG=
200912072150 METAR COR EGLL 072150Z 25011KT 9999 SCT028 07/04 Q0999 NOSIG=
200912072120 METAR COR EGLL 072120Z 24011KT 9999 FEW028 07/04 Q0998 NOSIG=
200912072050 METAR COR EGLL 072050Z 24010KT 9999 FEW038 07/05 Q0998 NOSIG=
200912072020 METAR COR EGLL 072020Z 23011KT CAVOK 07/05 Q0998 NOSIG=
200912071950 METAR COR EGLL 071950Z 22008KT CAVOK 08/06 Q0997 NOSIG=
200912071920 METAR COR EGLL 071920Z 21007KT 180V250 CAVOK 08/06 Q0997
                        NOSIG=
200912071850 METAR COR EGLL 071850Z 21007KT 160V260 CAVOK 08/06 Q0997
                        NOSIG=
200912071820 METAR COR EGLL 071820Z 23009KT 9999 FEW040 08/06 Q0997 NOSIG=
200912071750 METAR COR EGLL 071750Z 24009KT 200V270 9999 FEW042 09/07
                        Q0996 NOSIG=
200912071720 METAR COR EGLL 071720Z 27009KT 9999 FEW035 09/07 Q0996 NOSIG=
200912071650 METAR COR EGLL 071650Z 24012KT 9999 -RA SCT014 SCT020 09/08
                        Q0996 RERA NOSIG=
200912071620 METAR COR EGLL 071620Z 23015KT 9999 -RA FEW011 SCT014 BKN042
                        10/08 Q0995 TEMPO BKN014 RA=
200912071550 METAR COR EGLL 071550Z 18013KT 150V240 9999 -RA SCT015 BKN023
                        10/08 Q0995 RERA TEMPO 18015G25KT
                        RA BKN014=
200912071520 METAR COR EGLL 071520Z 17014KT 140V220 9999 -RA BKN015 BKN022
                        10/08 Q0995 TEMPO RA BKN014=
200912071450 METAR COR EGLL 071450Z 17013KT 9999 SCT014 BKN022 10/08 Q0995
                        TEMPO RA BKN014=
200912071420 METAR COR EGLL 071420Z 18015KT 9000 -RA FEW013 BKN016 10/08
                        Q0996 TEMPO RA BKN013=
200912071350 METAR COR EGLL 071350Z 18013KT 8000 -RA BKN010 10/08 Q0996
                        TEMPO RA=
200912071320 METAR COR EGLL 071320Z 18015KT 140V210 5000 -DZ SCT013 BKN030
                        10/08 Q0997 TEMPO RA BKN012=
200912071250 METAR COR EGLL 071250Z 18016KT 9999 VCSH SCT016 BKN030 11/08
                        Q0997 RERA TEMPO RA=
200912071220 METAR COR EGLL 071220Z 19018KT 9999 -SHRA FEW020 SCT025 11/08
                        Q0998 TEMPO RA=
200912071150 METAR COR EGLL 071150Z 18017KT 9999 -SHRA SCT020 BKN030 11/08
                        Q0998 TEMPO RA=
200912071120 METAR COR EGLL 071120Z 18017KT 9999 -SHRA SCT019 BKN024 11/08
                        Q0999 TEMPO RA=
200912071050 METAR COR EGLL 071050Z 18016KT 9999 SCT020 SCT026 11/08 Q0999
                        TEMPO RA=
200912071020 METAR COR EGLL 071020Z 18016KT 9999 SCT020 BKN027 11/08 Q1000
                        TEMPO RA=
200912070950 METAR COR EGLL 070950Z 18014G25KT 9999 -RA FEW019 SCT030
                        11/08 Q1000 TEMPO RA=
200912070920 METAR COR EGLL 070920Z 19014G24KT 9999 FEW022 SCT040 11/08
                        Q1001 TEMPO RA=
200912070850 METAR COR EGLL 070850Z 18012KT 9999 VCSH FEW020 SCT025 10/08
                        Q1001 TEMPO 19015G25KT RA=
200912070820 METAR COR EGLL 070820Z 18011KT 9999 VCSH FEW028 SCT040 10/08
                        Q1001 TEMPO 19015G25KT RA=
200912070750 METAR COR EGLL 070750Z 18011KT 9999 FEW021 SCT040 BKN047
                        10/07 Q1001 TEMPO 19015G25KT RA=
200912070720 METAR COR EGLL 070720Z 18010KT 150V230 9999 FEW022 SCT042
                        10/07 Q1002 TEMPO 19015G25KT RA=
200912070650 METAR COR EGLL 070650Z 17008KT 130V200 9999 FEW027 09/07
                        Q1002 TEMPO RA=
200912070620 METAR COR EGLL 070620Z 18009KT 130V220 9999 FEW034 09/06
                        Q1002 NOSIG=
200912070550 METAR COR EGLL 070550Z 17008KT CAVOK 08/06 Q1002 BECMG BKN030=
200912070520 METAR COR EGLL 070520Z 17008KT 090V200 CAVOK 08/06 Q1003
                        BECMG BKN030=
200912070450 METAR COR EGLL 070450Z 18008KT 150V250 9999 FEW023 08/05
                        Q1003 NOSIG=
200912070420 METAR COR EGLL 070420Z 17005KT 9999 FEW042 07/05 Q1003 BECMG
                        18015KT=
200912070350 METAR COR EGLL 070350Z 20008KT 9999 FEW045 08/06 Q1003 NOSIG=
200912070320 METAR COR EGLL 070320Z 19006KT 9999 FEW025 08/05 Q1004 BECMG
                        20016KT=
200912070250 METAR EGLL 070250Z 20006KT CAVOK 08/05 Q1004=
200912070220 METAR EGLL 070220Z 19007KT CAVOK 08/05 Q1004=
200912070150 METAR EGLL 070150Z 17005KT CAVOK 07/04 Q1004=
200912070120 METAR COR EGLL 070120Z 20007KT CAVOK 08/05 Q1004 NOSIG=
200912070050 METAR COR EGLL 070050Z 21008KT CAVOK 08/05 Q1004NOSIG=
200912070020 METAR COR EGLL 070020Z 21008KT CAVOK 08/05 Q1004 NOSIG=
200912062350 METAR COR EGLL 062350Z 21007KT CAVOK 07/05 Q1004 NOSIG=
200912062320 METAR COR EGLL 062320Z 21008KT CAVOK 07/04 Q1004 NOSIG=
200912062250 METAR COR EGLL 062250Z 21007KT CAVOK 08/04 Q1004 NOSIG=
200912062220 METAR COR EGLL 062220Z 21008KT CAVOK 08/04 Q1004 NOSIG=
200912062150 METAR COR EGLL 062150Z 23010KT CAVOK 08/04 Q1003 NOSIG=
200912062120 METAR COR EGLL 062120Z 23013KT CAVOK 09/04 Q1003 NOSIG=
200912062050 METAR COR EGLL 062050Z 22011KT CAVOK 09/04 Q1002 NOSIG=
200912062020 METAR COR EGLL 062020Z 22011KT CAVOK 09/04 Q1002 NOSIG=
200912061950 METAR COR EGLL 061950Z 22014KT CAVOK 08/05 Q1002 NOSIG=
200912061920 METAR COR EGLL 061920Z 22012KT CAVOK 08/05 Q1001 NOSIG=
200912061850 METAR COR EGLL 061850Z 23012KT CAVOK 08/05 Q1001 NOSIG=
200912061820 METAR COR EGLL 061820Z 23015KT CAVOK 09/05 Q1001 NOSIG=
200912061750 METAR COR EGLL 061750Z 22014KT CAVOK 09/05 Q1000 NOSIG=
200912061720 METAR COR EGLL 061720Z 22010KT CAVOK 08/06 Q1000 NOSIG=
200912061650 METAR COR EGLL 061650Z 23014KT 9999 FEW033 SCT044 09/06 Q1000
                        NOSIG=
200912061620 METAR COR EGLL 061620Z 23016KT 9999 -SHRA FEW026 SCT041 09/05
                        Q0999 NOSIG=
200912061550 METAR COR EGLL 061550Z 22014KT 9999 -RA FEW044 10/04 Q0999
                        NOSIG=
200912061520 METAR COR EGLL 061520Z 22015KT CAVOK 10/04 Q0999 NOSIG=
200912061450 METAR COR EGLL 061450Z 24016KT 9999 FEW035 11/04 Q0998 NOSIG=
200912061420 METAR COR EGLL 061420Z 24017KT 9999 FEW040 11/04 Q0998 NOSIG=
200912061350 METAR EGLL 061350Z 24016KT 9999 SCT036 11/04 Q0997=
200912061320 METAR EGLL 061320Z 24015KT 9999 SCT035 11/04 Q0997=
200912061250 METAR EGLL 061250Z 25016G28KT 9999 FEW034 11/05 Q0997=
200912061220 METAR EGLL 061220Z 25017KT 9999 FEW035 11/05 Q0996=
200912061150 METAR EGLL 061150Z 25018KT 9999 FEW030 11/05 Q0996=
200912061120 METAR COR EGLL 061120Z 25015KT 9999 FEW035 11/06 Q0995 NOSIG=
200912061050 METAR COR EGLL 061050Z 24017KT 9999 FEW022 11/07 Q0994 NOSIG=
200912061020 METAR COR EGLL 061020Z 23012KT 9999 FEW020 10/08 Q0994 NOSIG=
200912060950 METAR COR EGLL 060950Z 22011KT 9999 FEW032 10/07 Q0993 NOSIG=
200912060920 METAR COR EGLL 060920Z 24014KT 9999 FEW014 SCT046 10/08 Q0992
                        NOSIG=
200912060850 METAR COR EGLL 060850Z 27019KT 9000 -RA FEW013 SCT029 11/09
                        Q0992 RERA BECMG BKN013=
200912060820 METAR COR EGLL 060820Z 19014KT 9000 -RA SCT012 BKN018 12/10
                        Q0990 BECMG BKN012=
200912060750 METAR COR EGLL 060750Z 20015KT 9000 -RA SCT014 BKN018 12/10
                        Q0991 BECMG BKN014=
200912060720 METAR COR EGLL 060720Z 19017KT 9999 -RA FEW012 BKN014 12/10
                        Q0991 TEMPO 20022G35KT RA=
200912060650 METAR COR EGLL 060650Z 20017KT 9999 -RA SCT015 BKN020 12/10
                        Q0991 RERA TEMPO 21022G34KT RA BKN012=
200912060620 METAR COR EGLL 060620Z 20018KT 9000 RA SCT013 BKN022 13/11
                        Q0991 TEMPO 21022G34KT 4000 +RA BKN010=
200912060550 METAR COR EGLL 060550Z 18017KT 9000 -RA SCT009 SCT013 BKN016
                        12/11 Q0991 TEMPO 19020G32KT RA BKN009=
200912060520 METAR COR EGLL 060520Z 19015G27KT 9000 -RA FEW008 BKN010
                        12/11 Q0991 TEMPO RA BKN008=
200912060450 METAR COR EGLL 060450Z 18015KT 9999 BKN011 13/11 Q0992 BECMG
                        21018G28KT=
200912060420 METAR COR EGLL 060420Z 19014KT 9999 BKN013 13/10 Q0993 BECMG
                        21016G28KT=
200912060350 METAR COR EGLL 060350Z 19013KT 9999 SCT013 SCT020 13/10 Q0993
                        BECMG 21016G27KT BKN013=
200912060320 METAR COR EGLL 060320Z 18013KT 9999 SCT020 SCT026 13/10 Q0993
                        BECMG 21016G27KT=
200912060250 METAR COR EGLL 060250Z 19013G24KT 9999 FEW021 SCT029 13/10
                        Q0994 NOSIG=
200912060220 METAR COR EGLL 060220Z 19015KT 9999 FEW019 BKN027 13/10 Q0995
                        TEMPO 21015G25KT=
200912060150 METAR COR EGLL 060150Z 19013KT 9999 FEW020 SCT024 13/10 Q0995
                        TEMPO 21015G25KT=
200912060120 METAR COR EGLL 060120Z 19013KT 9999 FEW022 BKN037 13/10 Q0995
                        TEMPO 21015G25KT=
200912060050 METAR COR EGLL 060050Z 19014KT 9999 BKN036 13/10 Q0996 TEMPO
                        21015G25KT=
200912060020 METAR COR EGLL 060020Z 20014KT 9999 FEW017 SCT047 12/10 Q0996
                        TEMPO 21015G25KT=
200912052350 METAR COR EGLL 052350Z 20013KT 9999 BKN017 12/10 Q0997 TEMPO
                        21015G25KT RA BKN014=
200912052320 METAR COR EGLL 052320Z 19012KT 170V240 9999 SCT017 SCT030
                        12/10 Q0997 TEMPO 21015G25KT RA BKN014=
200912052250 METAR COR EGLL 052250Z 20012KT 9999 FEW019 SCT028 12/10 Q0997
                        TEMPO 21015G25KT RA=
200912052220 METAR COR EGLL 052220Z 19012KT 9999 -RA SCT018 11/10 Q0997
                        TEMPO RA BKN014=
200912052150 METAR COR EGLL 052150Z 19011KT 9999 -RA FEW019 SCT026 11/09
                        Q0998 TEMPO RA=
200912052120 METAR COR EGLL 052120Z 20010KT 9999 -RA FEW032 11/09 Q0998
                        NOSIG=
200912052050 METAR COR EGLL 052050Z 21011KT 9999 -RA FEW032 11/10 Q0998
                        NOSIG=
200912052020 METAR COR EGLL 052020Z 20010KT 180V240 9999 -RA FEW024 SCT037
                        11/10 Q0998 TEMPO RA=
200912051950 METAR COR EGLL 051950Z 21010KT 9999 -RA FEW021 11/10 Q0998
                        RERA TEMPO RA=
200912051920 METAR COR EGLL 051920Z 19011KT 7000 RA FEW012 SCT023 11/10
                        Q0998 TEMPO -RA=
200912051850 METAR COR EGLL 051850Z 18009KT 8000 -RA SCT024 SCT031 11/10
                        Q0998 TEMPO RA=
200912051820 METAR COR EGLL 051820Z 18009KT 8000 -RA SCT022 SCT031 11/10
                        Q0998 TEMPO RA BKN014=
200912051750 METAR COR EGLL 051750Z 17008KT 140V200 9999 -RA FEW012 11/09
                        Q0999 TEMPO RA=
200912051720 METAR COR EGLL 051720Z 18010KT 130V210 8000 -RA SCT017 SCT028
                        11/09 Q0999 TEMPO RA=
200912051650 METAR COR EGLL 051650Z 17009KT 120V210 8000 -RA FEW021 SCT032
                        10/09 Q0999 TEMPO RA=
200912051620 METAR COR EGLL 051620Z 18009KT 160V220 9999 -RA SCT035 SCT045
                        11/08 Q0999 TEMPO RA=
200912051550 METAR COR EGLL 051550Z 21007KT 9999 FEW032 11/08 Q1000 TEMPO
                        RA=
200912051520 METAR COR EGLL 051520Z 19008KT 160V240 9999 -RA FEW046 10/07
                        Q1000 NOSIG=
200912051450 METAR COR EGLL 051450Z 19008KT 150V240 9999 -RA FEW046 10/07
                        Q1000 NOSIG=
200912051420 METAR COR EGLL 051420Z 19008KT 170V250 9999 FEW028 10/07
                        Q1000 NOSIG=
200912051350 METAR COR EGLL 051350Z 20007KT 170V240 CAVOK 10/07 Q1001
                        NOSIG=
200912051320 METAR COR EGLL 051320Z 21009KT 190V250 CAVOK 10/06 Q1000
                        NOSIG=
200912051250 METAR COR EGLL 051250Z 22012KT CAVOK 10/06 Q1000 NOSIG=
200912051220 METAR COR EGLL 051220Z 23012KT CAVOK 10/06 Q1000 NOSIG=
200912051150 METAR COR EGLL 051150Z 24013KT CAVOK 11/06 Q1000 NOSIG=
200912051120 METAR COR EGLL 051120Z 23011KT 9999 FEW018 10/06 Q1000 NOSIG=
200912051050 METAR COR EGLL 051050Z 22009KT CAVOK 10/06 Q1000 NOSIG=
200912051020 METAR COR EGLL 051020Z 21010KT CAVOK 09/06 Q1000 NOSIG=
200912050950 METAR COR EGLL 050950Z 21010KT CAVOK 09/05 Q1000 NOSIG=
200912050920 METAR COR EGLL 050920Z 22009KT CAVOK 09/06 Q0999 NOSIG=
200912050850 METAR COR EGLL 050850Z 22011KT CAVOK 08/06 Q0999 NOSIG=
200912050820 METAR COR EGLL 050820Z 22009KT CAVOK 08/06 Q0999 NOSIG=
200912050750 METAR COR EGLL 050750Z 21007KT CAVOK 08/06 Q0998 NOSIG=
200912050720 METAR COR EGLL 050720Z 21009KT CAVOK 08/06 Q0999 NOSIG=
200912050650 METAR COR EGLL 050650Z 22009KT CAVOK 08/06 Q0999 NOSIG=
200912050620 METAR COR EGLL 050620Z 23012KT CAVOK 09/06 Q0999 NOSIG=
200912050550 METAR COR EGLL 050550Z 24012KT CAVOK 09/06 Q0998 NOSIG=
200912050520 METAR COR EGLL 050520Z 22010KT 190V250 CAVOK 09/07 Q0998
                        NOSIG=
200912050450 METAR COR EGLL 050450Z 21008KT 9999 FEW037 09/08 Q0998 NOSIG=
200912050420 METAR COR EGLL 050420Z 21007KT 9999 FEW040 10/08 Q0998 NOSIG=
200912050350 METAR COR EGLL 050350Z 21008KT 9999 FEW017 SCT040 10/08 Q0998
                        NOSIG=
200912050320 METAR COR EGLL 050320Z 21009KT 9999 FEW021 10/08 Q0998 NOSIG=
200912050250 METAR COR EGLL 050250Z 18010KT 9999 FEW030 10/09 Q0998 NOSIG=
200912050220 METAR COR EGLL 050220Z 17011KT 9999 -RA SCT007 SCT012 10/09
                        Q0999 NOSIG=
200912050150 METAR COR EGLL 050150Z 17009KT 9999 -RA BKN007 10/09 Q0999
                        TEMPO RA=
200912050120 METAR COR EGLL 050120Z 17009KT 8000 -RA BKN006 10/09 Q1000
                        RERA TEMPO RA=
200912050050 METAR COR EGLL 050050Z 17009KT 5000 -RA BKN006 09/09 Q1000
                        TEMPO 4000 RA=
200912050020 METAR COR EGLL 050020Z 16008KT 3900 HZ BKN005 09/08 Q1001
                        NOSIG=
200912042350 METAR COR EGLL 042350Z 16008KT 4600 -RADZ BKN006 09/08 Q1002
                        TEMPO 7000=
200912042320 METAR COR EGLL 042320Z 16009KT 9999 BKN004 08/08 Q1002 TEMPO
                        BKN008=
200912042250 METAR COR EGLL 042250Z 15009KT 110V170 9999 FEW003 BKN007
                        08/07 Q1003 NOSIG=
200912042220 METAR COR EGLL 042220Z 17008KT 140V230 4100 -RADZ FEW004
                        BKN009 BKN015 08/07 Q1004 TEMPO 7000=
200912042150 METAR COR EGLL 042150Z 16007KT 120V210 5000 -RADZ FEW004
                        BKN006 BKN021 07/06 Q1004 TEMPO 3000=
200912042120 METAR COR EGLL 042120Z 15008KT 110V190 9999 BKN010 07/06
                        Q1005 NOSIG=
200912042050 METAR COR EGLL 042050Z 13007KT 9000 -RA SCT010 BKN018 06/05
                        Q1005 BECMG BKN010=
200912042020 METAR COR EGLL 042020Z 12007KT 080V150 9999 FEW014 SCT023
                        BKN038 06/04 Q1006 BECMG BKN012=
200912041950 METAR COR EGLL 041950Z 13007KT 9999 BKN022 06/04 Q1006 BECMG
                        BKN010=
200912041920 METAR COR EGLL 041920Z 14005KT 080V180 9999 -RA SCT026 SCT035
                        06/04 Q1007 NOSIG=
200912041850 METAR COR EGLL 041850Z 15006KT 110V200 9999 -RA BKN031 BKN039
                        06/03 Q1007 NOSIG=
200912041820 METAR COR EGLL 041820Z 15005KT 130V190 9999 -RA BKN034 06/03
                        Q1008 NOSIG=
200912041750 METAR COR EGLL 041750Z 18006KT 110V220 9999 -RA SCT035 06/03
                        Q1008 NOSIG=
200912041720 METAR COR EGLL 041720Z 17006KT 140V200 9999 FEW039 06/02
                        Q1008 NOSIG=
200912041650 METAR COR EGLL 041650Z 19006KT 160V230 9999 FEW040 07/03
                        Q1008 NOSIG=
200912041620 METAR COR EGLL 041620Z 20006KT 170V240 CAVOK 06/03 Q1008
                        NOSIG=
200912041550 METAR COR EGLL 041550Z 21006KT CAVOK 06/03 Q1008 NOSIG=
200912041520 METAR EGLL 041520Z 21006KT CAVOK 07/02 Q1008 NOSIG=
200912041450 METAR COR EGLL 041450Z 24007KT 200V270 CAVOK 07/02 Q1008
                        NOSIG=
200912041420 METAR COR EGLL 041420Z 25009KT CAVOK 07/02 Q1008 NOSIG=
200912041350 METAR COR EGLL 041350Z 25008KT CAVOK 07/03 Q1008 NOSIG=
200912041320 METAR COR EGLL 041320Z 27009KT 9999 FEW025 07/02 Q1008 NOSIG=
200912041250 METAR COR EGLL 041250Z 27010KT 9999 FEW040 07/03 Q1008 NOSIG=
200912041220 METAR COR EGLL 041220Z 26012KT CAVOK 07/03 Q1008 NOSIG=
200912041150 METAR COR EGLL 041150Z 28010KT CAVOK 07/02 Q1009 NOSIG=
200912041120 METAR COR EGLL 041120Z 28010KT CAVOK 06/02 Q1009 NOSIG=
200912041050 METAR COR EGLL 041050Z 28009KT CAVOK 05/02 Q1009 NOSIG=
200912041020 METAR COR EGLL 041020Z 29010KT CAVOK 05/01 Q1009 NOSIG=
200912040950 METAR COR EGLL 040950Z 28009KT CAVOK 04/01 Q1009 NOSIG=
200912040920 METAR COR EGLL 040920Z 27008KT CAVOK 03/01 Q1008 NOSIG=
200912040850 METAR COR EGLL 040850Z 27009KT CAVOK 02/00 Q1008 NOSIG=
200912040820 METAR COR EGLL 040820Z 27008KT CAVOK 02/M00 Q1008 NOSIG=
200912040750 METAR COR EGLL 040750Z 27009KT CAVOK 02/M00 Q1008 NOSIG=
200912040720 METAR COR EGLL 040720Z 27009KT CAVOK 02/00 Q1007 NOSIG=
200912040650 METAR COR EGLL 040650Z 27009KT CAVOK 02/M00 Q1007 NOSIG=
200912040620 METAR COR EGLL 040620Z 27009KT CAVOK 02/M00 Q1006 NOSIG=
200912040550 METAR COR EGLL 040550Z 27010KT CAVOK 02/M00 Q1006 NOSIG=
200912040520 METAR COR EGLL 040520Z 26009KT CAVOK 03/M00 Q1006 NOSIG=
200912040450 METAR COR EGLL 040450Z 27008KT CAVOK 02/M00 Q1006 NOSIG=
200912040420 METAR COR EGLL 040420Z 27009KT CAVOK 02/M00 Q1006 NOSIG=
200912040350 METAR COR EGLL 040350Z 27009KT CAVOK 02/M00 Q1005 NOSIG=
200912040320 METAR COR EGLL 040320Z 27008KT CAVOK 02/M00 Q1005 NOSIG=
200912040250 METAR COR EGLL 040250Z 27009KT CAVOK 02/M00 Q1005 NOSIG=
200912040220 METAR COR EGLL 040220Z 27009KT CAVOK 02/M00 Q1005 NOSIG=
200912040150 METAR COR EGLL 040150Z 27006KT CAVOK 02/M00 Q1004 NOSIG=
200912040120 METAR COR EGLL 040120Z 27008KT CAVOK 02/M00 Q1004 NOSIG=
200912040050 METAR COR EGLL 040050Z 27008KT CAVOK 02/M00 Q1004 NOSIG=
200912040020 METAR COR EGLL 040020Z 26009KT CAVOK 03/00 Q1004 NOSIG=
200912032350 METAR COR EGLL 032350Z 27009KT CAVOK 02/00 Q1003 NOSIG=
200912032320 METAR COR EGLL 032320Z 27010KT CAVOK 02/00 Q1003 NOSIG=
200912032250 METAR COR EGLL 032250Z 27007KT CAVOK 03/00 Q1003 NOSIG=
200912032220 METAR COR EGLL 032220Z 27008KT CAVOK 03/00 Q1003 NOSIG=
200912032150 METAR COR EGLL 032150Z 27009KT CAVOK 03/00 Q1002 NOSIG=
200912032120 METAR COR EGLL 032120Z 27009KT CAVOK 03/00 Q1002 NOSIG=
200912032050 METAR COR EGLL 032050Z 27009KT CAVOK 04/01 Q1002 NOSIG=
200912032020 METAR COR EGLL 032020Z 27011KT CAVOK 04/01 Q1002 NOSIG=
200912031950 METAR COR EGLL 031950Z 26010KT CAVOK 04/01 Q1001 NOSIG=
200912031920 METAR COR EGLL 031920Z 27009KT CAVOK 04/01 Q1001 NOSIG=
200912031850 METAR COR EGLL 031850Z 27012KT CAVOK 05/01 Q1001 NOSIG=
200912031820 METAR COR EGLL 031820Z 28012KT CAVOK 05/01 Q1001 NOSIG=
200912031750 METAR COR EGLL 031750Z 28013KT CAVOK 05/01 Q1000 NOSIG=
200912031720 METAR COR EGLL 031720Z 28011KT CAVOK 05/01 Q1000 NOSIG=
200912031650 METAR COR EGLL 031650Z 27013KT CAVOK 05/01 Q1000 NOSIG=
200912031620 METAR COR EGLL 031620Z 27013KT 9999 FEW038 06/02 Q1000 NOSIG=
200912031550 METAR COR EGLL 031550Z 27016KT 9999 SCT037 06/01 Q0999 NOSIG=
200912031520 METAR COR EGLL 031520Z 27015KT 9999 FEW036 06/01 Q0999 NOSIG=
200912031450 METAR COR EGLL 031450Z 28015KT 9999 FEW030 07/01 Q0999 NOSIG=
200912031420 METAR COR EGLL 031420Z 27014KT 9999 FEW031 07/02 Q0998 NOSIG=
200912031350 METAR COR EGLL 031350Z 27016KT 9999 FEW028 SCT041 07/02 Q0998
                        NOSIG=
200912031320 METAR COR EGLL 031320Z 28014KT 9999 FEW025 SCT047 07/02 Q0998
                        TEMPO 28015G25KT=
200912031250 METAR COR EGLL 031250Z 28016KT 9999 -RA SCT022 BKN031 07/03
                        Q0998 TEMPO 28015G25KT=
200912031220 METAR COR EGLL 031220Z 28017KT 9999 SCT025 BKN030 07/04 Q0998
                        TEMPO 28015G25KT=
200912031150 METAR COR EGLL 031150Z 27015KT 9999 -RA FEW019 SCT023 BKN025
                        07/04 Q0998 TEMPO 28015G25KT=
200912031120 METAR COR EGLL 031120Z 28016KT 9999 SCT025 SCT031 07/04 Q0997
                        TEMPO 28015G25KT=
200912031050 METAR COR EGLL 031050Z 27018KT 9999 SCT020 SCT035 08/05 Q0997
                        NOSIG=
200912031020 METAR COR EGLL 031020Z 27013KT 9999 -RA FEW014 SCT020 BKN032
                        08/06 Q0997 NOSIG=
200912030950 METAR COR EGLL 030950Z 27010KT 9999 SCT017 SCT035 08/06 Q0997
                        NOSIG=
200912030920 METAR COR EGLL 030920Z 27014KT 9000 -RA FEW011 BKN015 08/07
                        Q0996 TEMPO RA BKN010=
200912030850 METAR COR EGLL 030850Z 26013KT 8000 -RA BKN009 08/07 Q0996
                        TEMPO SCT009=
200912030820 METAR COR EGLL 030820Z 26011KT 9999 SCT008 BKN032 08/07 Q0996
                        TEMPO RA BKN009=
200912030750 METAR COR EGLL 030750Z 25009KT 9999 BKN007 08/06 Q0996 TEMPO
                        SCT008=
200912030720 METAR COR EGLL 030720Z 27008KT 9999 FEW008 BKN045 08/06 Q0995
                        TEMPO BKN008=
200912030650 METAR COR EGLL 030650Z 26008KT 220V280 9999 FEW007 BKN041
                        08/07 Q0995 NOSIG=
200912030620 METAR COR EGLL 030620Z 25008KT 9000 SCT008 BKN040 08/07 Q0995
                        TEMPO BKN008=
200912030550 METAR COR EGLL 030550Z 27008KT 9000 FEW006 BKN041 08/07 Q0995
                        TEMPO BKN006=
200912030520 METAR COR EGLL 030520Z 26009KT 9999 SCT007 BKN039 08/07 Q0994
                        TEMPO BKN007=
200912030450 METAR COR EGLL 030450Z 27006KT 9999 FEW006 BKN044 08/07 Q0994
                        TEMPO BKN012=
200912030420 METAR COR EGLL 030420Z 27005KT 9000 SCT011 BKN047 07/07 Q0994
                        BECMG BKN011=
200912030350 METAR COR EGLL 030350Z 27006KT 9999 SCT004 BKN011 08/07 Q0994
                        TEMPO BKN005=
200912030320 METAR COR EGLL 030320Z 25006KT 9999 FEW008 SCT011 BKN039
                        08/07 Q0993 BECMG BKN011=
200912030250 METAR COR EGLL 030250Z 25005KT 9999 FEW004 SCT006 BKN046
                        07/06 Q0993 BECMG BKN012=
200912030220 METAR COR EGLL 030220Z 00000KT 9999 FEW004 BKN046 07/06 Q0993
                        BECMG BKN012=
200912030150 METAR EGLL 030150Z NIL=
200912030120 METAR COR EGLL 030120Z 00000KT 9999 FEW010 SCT045 07/06 Q0993
                        NOSIG=
200912030050 METAR EGLL 030050Z NIL=
200912030020 METAR COR EGLL 030020Z 15003KT 9999 FEW020 SCT040 07/06 Q0993
                        NOSIG=
200912022350 METAR COR EGLL 022350Z 14005KT 9999 FEW025 07/06 Q0993 NOSIG=
200912022320 METAR COR EGLL 022320Z 13004KT 9999 FEW020 08/07 Q0993 TEMPO
                        SHRA=
200912022250 METAR EGLL 022250Z VRB03KT 9999 FEW030 SCT043 08/07 Q0993=
200912022220 METAR COR EGLL 022220Z 17005KT 150V210 8000 -RA FEW033 BKN043
                        08/07 Q0994 TEMPO SHRA=
200912022150 METAR COR EGLL 022150Z 14005KT 100V180 9999 FEW038 BKN048
                        08/07 Q0994 TEMPO SHRA=
200912022120 METAR EGLL 022120Z 13005KT 9999 SCT048 07/07 Q0994=
200912022050 METAR COR EGLL 022050Z 12006KT 9999 FEW023CB 07/06 Q0994
                        TEMPO SHRA=
200912022020 METAR COR EGLL 022020Z 11007KT 080V140 9999 FEW019CB FEW023
                        SCT031 08/07 Q0994 TEMPO SHRA=
200912021950 METAR COR EGLL 021950Z 12006KT 9999 FEW025 SCT030 08/07 Q0994
                        TEMPO SHRA=
200912021920 METAR COR EGLL 021920Z 13007KT 090V160 9999 SCT016CB SCT025
                        08/07 Q0994 RESHRA TEMPO SHRA=
200912021850 METAR COR EGLL 021850Z 11006KT 9999 SCT026CB BKN033 08/07
                        Q0994 RESHRA TEMPO SHRA BKN014CB=
200912021820 METAR COR EGLL 021820Z 14005KT 100V200 9999 SHRA FEW030CB
                        SCT039 08/07 Q0995 BECMG NSW=
200912021750 METAR EGLL 021750Z 21005KT 9999 SHRA FEW032 SCT048 08/07
                        Q0995 BECMG NSW=
200912021720 METAR COR EGLL 021720Z 27005KT 7000 SHRA FEW017 SCT022CB
                        SCT029 08/07 Q0995 BECMG NSW=
200912021650 METAR COR EGLL 021650Z 28009KT 6000 SHRA FEW010 SCT022CB
                        BKN030 08/07 Q0996 RERA BECMG NSW=
200912021620 METAR COR EGLL 021620Z 14008KT 8000 SHRA FEW020CB SCT030
                        09/08 Q0995 BECMG NSW=
200912021550 METAR COR EGLL 021550Z 14005KT 100V160 9999 FEW020 SCT035
                        09/08 Q0995 TEMPO SHRA=
200912021520 METAR COR EGLL 021520Z 14006KT 090V190 9999 FEW010 SCT030
                        09/08 Q0995 RESHRA NOSIG=
200912021450 METAR COR EGLL 021450Z 17006KT 110V240 9999 SHRA FEW011 SCT018
                        BKN027 09/08 Q0996 NOSIG=
200912021420 METAR COR EGLL 021420Z VRB05KT 9000 -SHRA SCT023 SCT039 09/07
                        Q0996 NOSIG=
200912021350 METAR COR EGLL 021350Z 19009KT 160V220 9000 -SHRA SCT033
                        10/07 Q0996 TEMPO SHRA=
200912021320 METAR COR EGLL 021320Z 16009KT 130V230 9999 VCSH FEW037 11/07
                        Q0997 TEMPO SHRA=
200912021250 METAR COR EGLL 021250Z 18009KT 140V220 9999 FEW020 11/07
                        Q0997 NOSIG=
200912021220 METAR COR EGLL 021220Z 18006KT 130V260 9999 FEW019 11/07
                        Q0998 NOSIG=
200912021150 METAR COR EGLL 021150Z 18007KT 140V230 9999 FEW010 11/07
                        Q0998 NOSIG=
200912021120 METAR COR EGLL 021120Z 19007KT 140V240 9999 FEW010 11/08
                        Q0998 NOSIG=
200912021050 METAR COR EGLL 021050Z 19008KT 150V240 9999 FEW009 10/08
                        Q0999 NOSIG=
200912021020 METAR COR EGLL 021020Z 19007KT 9999 FEW020 10/08 Q0999 NOSIG=
200912020950 METAR COR EGLL 020950Z 19007KT 9999 FEW020 10/08 Q0999 NOSIG=
200912020920 METAR COR EGLL 020920Z 19005KT 9999 FEW015 09/08 Q0999 NOSIG=
200912020850 METAR COR EGLL 020850Z 18005KT 9999 FEW018 09/08 Q0999 NOSIG=
200912020820 METAR COR EGLL 020820Z VRB02KT 9999 FEW016 09/08 Q0999 NOSIG=
200912020750 METAR COR EGLL 020750Z 16005KT 9999 FEW008 SCT014 09/08 Q0999
                        TEMPO BKN008=
200912020720 METAR COR EGLL 020720Z 16006KT 9999 FEW008 BKN015 09/08 Q0999
                        NOSIG=
200912020650 METAR COR EGLL 020650Z 17006KT 9999 SCT007 SCT020 09/08 Q1000
                        TEMPO BKN007=
200912020620 METAR COR EGLL 020620Z 17007KT 9999 SCT006 09/08 Q1000 TEMPO
                        RA BKN010=
200912020550 METAR COR EGLL 020550Z 16007KT 9999 BKN007 BKN020 08/07 Q1000
                        TEMPO SCT007=
200912020520 METAR COR EGLL 020520Z 16010KT 9999 BKN007 08/07 Q1000 TEMPO
                        SCT007 BKN012=
200912020450 METAR COR EGLL 020450Z 15009KT 9999 BKN006 08/07 Q1000 TEMPO
                        FEW006 BKN010=
200912020420 METAR COR EGLL 020420Z 15011KT 9999 BKN007 08/07 Q1000 TEMPO
                        BKN010=
200912020350 METAR COR EGLL 020350Z 16009KT 9999 BKN008 08/07 Q1001 TEMPO
                        BKN010=
200912020320 METAR COR EGLL 020320Z 15009KT 9999 SCT007 OVC010 08/06 Q1001
                        TEMPO BKN007=
200912020250 METAR COR EGLL 020250Z 16009KT 9999 BKN008 07/06 Q1002 TEMPO
                        BKN010=
200912020220 METAR COR EGLL 020220Z 16009KT 9999 FEW011 SCT024 BKN040
                        07/06 Q1003 TEMPO RA BKN011=
200912020150 METAR COR EGLL 020150Z 17007KT 9999 FEW009 BKN038 07/06 Q1003
                        TEMPO BKN009=
200912020120 METAR COR EGLL 020120Z 17010KT 9999 -RA FEW008 BKN012 07/05
                        Q1003 TEMPO RA BKN008=
200912020050 METAR COR EGLL 020050Z 16010KT 9999 FEW011 BKN018 07/05 Q1004
                        TEMPO BKN011=
200912020020 METAR COR EGLL 020020Z 16010KT 9999 SCT013 BKN025 06/04 Q1004
                        TEMPO RA BKN013=
200912012350 METAR COR EGLL 012350Z 16009KT 8000 RA BKN017 06/04 Q1005
                        TEMPO 4000 BKN014=
200912012320 METAR COR EGLL 012320Z 15009KT 9999 BKN020 06/04 Q1005 NOSIG=
200912012250 METAR COR EGLL 012250Z 17010KT 9000 -RA SCT025 BKN030 06/03
                        Q1006 TEMPO BKN014=
200912012220 METAR COR EGLL 012220Z 15008KT 9999 -RA SCT032 06/02 Q1006
                        TEMPO BKN014=
200912012150 METAR COR EGLL 012150Z 14009KT 9999 -RA NSC 06/02 Q1006 TEMPO
                        BKN014=
200912012120 METAR COR EGLL 012120Z 14007KT CAVOK 06/02 Q1006 NOSIG=
200912012050 METAR COR EGLL 012050Z 15008KT CAVOK 06/01 Q1007 NOSIG=
200912012020 METAR COR EGLL 012020Z 14009KT 9999 FEW039 06/01 Q1007 NOSIG=
200912011950 METAR COR EGLL 011950Z 14007KT 9999 SCT039 06/01 Q1008 NOSIG=
200912011920 METAR COR EGLL 011920Z 13008KT CAVOK 05/01 Q1008 NOSIG=
200912011850 METAR COR EGLL 011850Z 13007KT CAVOK 05/01 Q1008 NOSIG=
200912011820 METAR COR EGLL 011820Z 13008KT CAVOK 05/01 Q1009 NOSIG=
200912011750 METAR COR EGLL 011750Z 14008KT CAVOK 05/01 Q1009 NOSIG=
200912011720 METAR COR EGLL 011720Z 13007KT CAVOK 05/01 Q1010 NOSIG=
200912011650 METAR COR EGLL 011650Z 14005KT CAVOK 05/02 Q1010 NOSIG=
200912011620 METAR COR EGLL 011620Z 13006KT CAVOK 05/02 Q1010 NOSIG=
200912011550 METAR COR EGLL 011550Z 14004KT CAVOK 05/02 Q1011 NOSIG=
200912011520 METAR COR EGLL 011520Z 15004KT CAVOK 05/02 Q1011 NOSIG=
200912011450 METAR COR EGLL 011450Z 19004KT 090V270 CAVOK 05/02 Q1011
                        NOSIG=
200912011420 METAR COR EGLL 011420Z VRB03KT CAVOK 05/02 Q1011 NOSIG=
200912011350 METAR COR EGLL 011350Z 19004KT 130V260 CAVOK 05/02 Q1012
                        NOSIG=
200912011320 METAR COR EGLL 011320Z 22006KT 160V260 CAVOK 05/02 Q1012
                        NOSIG=
200912011250 METAR COR EGLL 011250Z VRB05KT CAVOK 05/02 Q1012 NOSIG=
200912011220 METAR COR EGLL 011220Z 28004KT CAVOK 05/01 Q1013 NOSIG=
200912011150 METAR COR EGLL 011150Z 28004KT CAVOK 05/02 Q1013 NOSIG=
200912011120 METAR COR EGLL 011120Z 00000KT CAVOK 05/01 Q1013 NOSIG=
200912011050 METAR COR EGLL 011050Z VRB02KT CAVOK 04/01 Q1014 NOSIG=
200912011020 METAR COR EGLL 011020Z VRB02KT CAVOK 03/01 Q1014 NOSIG=
200912010950 METAR COR EGLL 010950Z VRB02KT CAVOK 02/01 Q1014 NOSIG=
200912010920 METAR COR EGLL 010920Z 28004KT CAVOK 01/M00 Q1014 NOSIG=
200912010850 METAR COR EGLL 010850Z 29002KT CAVOK 01/M01 Q1013 NOSIG=
200912010820 METAR COR EGLL 010820Z 28005KT CAVOK M00/M01 Q1014 NOSIG=
200912010750 METAR COR EGLL 010750Z 28004KT 9999 FEW030 00/M01 Q1014 NOSIG=
200912010720 METAR COR EGLL 010720Z VRB03KT CAVOK 01/M01 Q1013 NOSIG=
200912010650 METAR COR EGLL 010650Z 30003KT CAVOK 01/M01 Q1013 NOSIG=
200912010620 METAR COR EGLL 010620Z 29005KT CAVOK 01/M01 Q1013 NOSIG=
200912010550 METAR COR EGLL 010550Z VRB03KT CAVOK 01/M01 Q1013 NOSIG=
200912010520 METAR COR EGLL 010520Z 36004KT CAVOK 01/M01 Q1013 NOSIG=
200912010450 METAR COR EGLL 010450Z 31004KT 280V350 CAVOK 01/M01 Q1013
                        NOSIG=
200912010420 METAR EGLL 010420Z 33005KT 290V010 CAVOK 01/M00 Q1012 NOSIG=
200912010350 METAR COR EGLL 010350Z 35005KT 310V020 CAVOK 01/M00 Q1012
                        NOSIG=
200912010320 METAR COR EGLL 010320Z 32006KT CAVOK 01/M00 Q1012 NOSIG=
200912010250 METAR COR EGLL 010250Z 30005KT CAVOK 01/M00 Q1012 NOSIG=
200912010220 METAR COR EGLL 010220Z 30005KT CAVOK 01/M00 Q1012 NOSIG=
200912010150 METAR COR EGLL 010150Z 30005KT CAVOK 02/M00 Q1011 NOSIG=
200912010120 METAR COR EGLL 010120Z 32004KT 290V360 CAVOK 02/M00 Q1011
                        NOSIG=
200912010050 METAR COR EGLL 010050Z 31005KT CAVOK 02/M00 Q1011 NOSIG=
200912010020 METAR COR EGLL 010020Z 31005KT CAVOK 03/00 Q1011 NOSIG=

# No short TAF reports from EGLL in databse.

###################################
#  large TAF from EGLL
###################################
200912312300 TAF EGLL 312300Z 0100/0206 35008KT 9999 SCT040
                      PROB30 0117/0206 6000=
200912311658 TAF EGLL 311658Z 3118/0124 04010KT 9999 FEW018 SCT040
                      BECMG 3119/3122 34008KT
                      PROB30 0117/0124 6000=
200912311057 TAF EGLL 311057Z 3112/0118 04010KT 9999 FEW016 SCT022
                      PROB30 TEMPO 3112/3119 03015G25KT 6000 -SHRASN
                       BKN014
                      BECMG 3119/3122 34008KT=
200912310503 TAF EGLL 310503Z 3106/0112 04008KT 9999 FEW016 SCT028
                      BECMG 3108/3111 02015G25KT
                      PROB30 TEMPO 3110/3119 6000 -SN BKN012
                      BECMG 3119/3122 34007KT=
200912302303 TAF EGLL 302303Z 3100/0106 05007KT 9999 FEW016 SCT028
                      TEMPO 3100/3108 6000 RA BKN012
                      BECMG 3108/3111 02015G25KT
                      PROB30 TEMPO 3111/3119 6000 -SN BKN012
                      BECMG 3119/3122 34008KT=
200912301659 TAF EGLL 301659Z 3018/3124 06007KT 9000 SCT006 BKN014
                      TEMPO 3018/3109 4000 DZ BR BKN004
                      BECMG 3109/3112 03015G25KT 9999 FEW016 BKN025
                       PROB30
                      TEMPO 3112/3119 6000 -SN BKN014
                      BECMG 3119/3122 36010KT=
200912301057 TAF EGLL 301057Z 3012/3118 06007KT 6000 SCT004 BKN010
                      TEMPO 3012/3015 2500 DZ BR BKN004
                      PROB40 TEMPO 3015/3109 4000 -DZ BR BKN006
                       BECMG 3109/3112 03015G25KT 9999 SCT012 BKN025
                       PROB30
                      TEMPO 3112/3118 6000 -SN BKN012=
200912300500 TAF EGLL 300500Z 3006/3112 04005KT 6000 -RA BKN003
                      TEMPO 3006/3011 2500 RADZ BR BKN001
                      BECMG 3011/3014 9999 NSW BKN007
                      BECMG 3014/3017 BKN012
                      BECMG 3106/3109 02015KT SCT018=
200912292300 TAF EGLL 292300Z 3000/3106 04007KT 7000 BKN005
                      TEMPO 3000/3011 2000 DZ BR BKN003
                      BECMG 3011/3014 9999 BKN010=
200912291700 TAF EGLL 291700Z 2918/3024 06009KT 8000 -RA BKN018
                      TEMPO 2918/2920 3000 RA BKN004
                      PROB30 2920/3011 2000 BR DZ BKN003
                      PROB40 3011/3024 BKN012
                      BECMG 3021/3024 9999 NSW=
200912291459 TAF AMD EGLL 291459Z 2914/3018 07012KT 6000 -RA BKN020
                      TEMPO 2914/2920 3000 RA BKN004
                      PROB40 2920/3011 2000 BR DZ BKN003
                      TEMPO 3011/3018 BKN012=
200912291101 TAF EGLL 291101Z 2912/3018 07012KT 6000 -RA BKN012
                      TEMPO 2912/2920 3000 RA BKN004
                      PROB30 2912/2914 RASN
                      PROB40 2920/3011 2000 BR DZ BKN003=
200912290501 TAF EGLL 290501Z 2906/3012 08012KT CAVOK
                      BECMG 2907/2910 BKN009
                      TEMPO 2909/2913 3000 RA RASN BKN004
                      TEMPO 2913/2918 3000 RA BKN004
                      PROB30 2918/3012 0800 FG DZ BKN001=
200912282302 TAF EGLL 282302Z 2900/3006 09010KT 6000 FEW004
                      BECMG 2900/2903 9999
                      BECMG 2906/2909 7000 -RA BKN009
                      TEMPO 2909/2919 3000 +RA RASN BKN004
                      PROB30 TEMPO 2916/2920 1200 SN BKN001
                      PROB30 2920/3006 0800 FG DZ BKN001=
200912282030 TAF AMD EGLL 282030Z 2820/2924 03004KT 4000 BR BKN004
                      BECMG 2820/2823 09012KT 6000 NSW SCT004
                      BECMG 2904/2907 -RA
                      BECMG 2907/2910 BKN009
                      TEMPO 2909/2916 3500 RASN BKN004
                      PROB40 2916/2918 9999 NSW SCT012
                      BECMG 2918/2921 4000 -DZ BR BKN002=
200912281957 TAF AMD EGLL 281957Z 2819/2924 03004KT 7000 SCT006
                      BECMG 2820/2823 09012KT
                      TEMPO 2820/2824 BKN006
                      BECMG 2904/2907 -RA BKN018
                      BECMG 2907/2910 BKN009
                      TEMPO 2909/2916 3500 RASN BKN004
                      PROB40 2916/2918 9999 NSW SCT012
                      BECMG 2918/2921 4000 -DZ BR BKN002=
200912281856 TAF AMD EGLL 281856Z 2818/2924 03004KT 9000 NSC
                      BECMG 2820/2823 09012KT
                      BECMG 2904/2907 -RA BKN018
                      BECMG 2907/2910 BKN009
                      TEMPO 2909/2916 3500 RASN BKN004
                      PROB40 2916/2918 9999 NSW SCT012
                      BECMG 2918/2921 4000 -DZ BR BKN002=
200912281700 TAF EGLL 281700Z 2818/2924 03004KT CAVOK
                      BECMG 2820/2823 09012KT
                      BECMG 2904/2907 7000 -RA BKN018
                      BECMG 2907/2910 BKN009
                      TEMPO 2909/2916 3500 RASN BKN004
                      PROB40 2916/2918 9999 NSW SCT012
                      BECMG 2918/2921 4000 -DZ BR BKN002=
200912281102 TAF EGLL 281102Z 2812/2918 03004KT CAVOK
                      BECMG 2820/2823 09012KT
                      BECMG 2903/2906 7000 -RA BKN018
                      BECMG 2906/2909 BKN009
                      TEMPO 2907/2915 3500 RASN BKN004
                      BECMG 2915/2918 9999 NSW BKN012=
200912280503 TAF EGLL 280503Z 2806/2912 VRB04KT CAVOK
                      PROB30 2806/2811 7000
                      BECMG 2820/2823 09012KT
                      BECMG 2901/2904 7000 RA BKN009
                      TEMPO 2904/2912 2000 +RA RASN BKN004=
200912272258 TAF EGLL 272258Z 2800/2906 25010KT CAVOK
                      PROB30 2803/2811 4000 BR BKN007
                      BECMG 2820/2823 10010KT
                      BECMG 2823/2902 8000 -RA BKN008
                      TEMPO 2902/2906 3000 +RA BKN003=
200912271701 TAF EGLL 271701Z 2718/2824 26015G25KT 9999 FEW030
                      BECMG 2718/2721 23006KT
                      BECMG 2803/2806 2000 BR
                      PROB40 2805/2811 0200 FZFG BKN000
                      BECMG 2811/2814 6000 NSW
                      PROB40 2816/2821 4000 BR
                      BECMG 2819/2821 10010KT=
200912271101 TAF EGLL 271101Z 2712/2818 26015G25KT 9999 FEW025
                      BECMG 2718/2721 23006KT
                      BECMG 2803/2806 2000 BR BKN003
                      PROB40 2805/2811 0200 FZFG OVC001
                      BECMG 2811/2814 6000 NSW SCT006
                      PROB40 2816/2818 4000 BR=
200912270503 TAF EGLL 270503Z 2706/2812 21008KT 9999 FEW025
                      PROB30 TEMPO 2706/2710 8000 SHRA
                      BECMG 2709/2712 27015G25KT
                      BECMG 2718/2721 23005KT
                      BECMG 2803/2806 2000 BR BKN003
                      PROB40 2805/2811 0200 FZFG OVC001=
200912262305 TAF EGLL 262305Z 2700/2806 20008KT 9999 FEW025
                      BECMG 2709/2712 26015KT
                      PROB30 TEMPO 2709/2712 9000 SHRA BKN014
                      BECMG 2721/2724 23005KT
                      PROB40 2803/2806 2000 BR=
200912261702 TAF EGLL 261702Z 2618/2724 20012KT 9999 FEW025
                      PROB30 TEMPO 2618/2620 7000 SHRA BKN012
                      BECMG 2709/2712 26013KT
                      PROB30 TEMPO 2712/2718 27016G26KT=
200912261100 TAF EGLL 261100Z 2612/2718 20012KT 9999 SCT035
                      PROB40 TEMPO 2612/2617 7000 SHRA BKN012
                      BECMG 2709/2712 26014KT=
200912260502 TAF EGLL 260502Z 2606/2712 20010KT 9999 SCT025
                      TEMPO 2606/2617 7000 SHRA BKN014
                      PROB40 TEMPO 2606/2614 +SHRA=
200912260424 TAF AMD EGLL 260424Z 2604/2706 20012KT 9999 SCT025
                      TEMPO 2605/2617 7000 SHRA BKN014
                      PROB40 TEMPO 2606/2614 +SHRA=
200912252300 TAF AMD EGLL 260424Z 2604/2706 20012KT 9999 SCT025
                      TEMPO 2605/2617 7000 SHRA BKN014
                      PROB40 TEMPO 2606/2614 +SHRA=
200912252258 TAF EGLL 252258Z 2600/2706 20012KT 9999 SCT030
                      TEMPO 2606/2612 7000 SHRA BKN014
                      PROB40 TEMPO 2607/2612 +SHRA=
200912251700 TAF EGLL 251700Z 2518/2624 21006KT 9999 FEW030
                      PROB30 2520/2606 4000 BR
                      BECMG 2603/2606 20016KT
                      TEMPO 2606/2613 7000 SHRA BKN014
                      BECMG 2618/2621 22006KT=
200912251058 TAF EGLL 251058Z 2512/2618 27010KT 8000 BKN012
                      PROB30 TEMPO 2512/2513 BKN009
                      BECMG 2512/2515 9999 SCT020
                      BECMG 2516/2519 20012KT
                      PROB30 2518/2603 5000 BR
                      TEMPO 2603/2611 8000 SHRA BKN014=
200912250828 TAF AMD EGLL 250828Z 2508/2612 27010KT 6000 BKN008
                      PROB40 2508/2510 3000 BR BKN003
                      BECMG 2509/2511 BKN012
                      BECMG 2510/2513 9999 SCT020
                      BECMG 2516/2519 20012KT
                      PROB30 TEMPO 2600/2612 8000 SHRA BKN014=
200912250504 TAF EGLL 250504Z 2506/2612 29006KT 7000 SCT008 BKN020
                      PROB40 2506/2509 3000 BR BKN004
                      BECMG 2509/2512 9999
                      BECMG 2516/2519 20012KT
                      PROB30 TEMPO 2600/2612 8000 SHRA BKN014=
200912250501 TAF AMD EGLL 250501Z 2505/2606 35005KT 4000 BR BKN006
                      TEMPO 2505/2507 SCT009
                      PROB40 2505/2507 1200 BKN003
                      BECMG 2505/2507 28010KT 6000 NSW
                      BECMG 2510/2513 9999 SCT025
                      BECMG 2515/2518 21010KT
                      PROB40 TEMPO 2521/2603 20015G26KT 8000 SHRA
                       BKN014=
200912242310 TAF EGLL 242310Z 2500/2606 35005KT 4000 BR BKN006
                      PROB40 2500/2507 1200 BKN003
                      BECMG 2504/2507 28010KT 6000 NSW
                      BECMG 2510/2513 9999 SCT025
                      BECMG 2515/2518 21010KT
                      PROB40 TEMPO 2521/2603 20015G26KT 8000 SHRA
                       BKN014=
200912242300 TAF AMD EGLL 250501Z 2505/2606 35005KT 4000 BR BKN006
                      TEMPO 2505/2507 SCT009
                      PROB40 2505/2507 1200 BKN003
                      BECMG 2505/2507 28010KT 6000 NSW
                      BECMG 2510/2513 9999 SCT025
                      BECMG 2515/2518 21010KT
                      PROB40 TEMPO 2521/2603 20015G26KT 8000 SHRA
                       BKN014=
200912242158 TAF AMD EGLL 242158Z 2421/2524 03005KT 4000 BR BKN006
                      PROB40 2421/2509 1200 BKN003
                      BECMG 2502/2505 30010KT
                      BECMG 2509/2512 9999 NSW FEW006 SCT025
                      BECMG 2515/2518 21010KT
                      TEMPO 2521/2524 8000 SHRA BKN014=
200912241709 TAF EGLL 241709Z 2418/2524 07010KT 8000 FEW010 SCT015
                      BECMG 2419/2422 01005KT 4000 BR BKN008
                      PROB40 2501/2509 1200 BKN003
                      BECMG 2502/2505 30010KT
                      BECMG 2509/2512 9999 NSW FEW007 SCT025
                      BECMG 2515/2518 21010KT
                      TEMPO 2521/2524 8000 SHRA BKN014=
200912241101 TAF EGLL 241101Z 2412/2518 10010KT 9999 SCT013 BKN020
                      TEMPO 2412/2421 6000 SHRA BKN013
                      BECMG 2418/2421 01005KT 6000 -RA BKN007
                      PROB30 2421/2509 2000 BR BKN004
                      BECMG 2500/2503 31010KT
                      BECMG 2509/2512 9999 NSW FEW007 SCT025=
200912240506 TAF EGLL 240506Z 2406/2512 18006KT 9999 FEW015
                      TEMPO 2406/2421 6000 -SHRA BKN009
                      BECMG 2421/2424 3000 BR BKN004
                      PROB30 2500/2508 0600 FG BKN001
                      BECMG 2507/2510 30010KT 9999 NSW SCT020=
200912232309 TAF EGLL 232309Z 2400/2506 17006KT 9999 FEW015 BKN020
                      TEMPO 2400/2421 4000 SHRA BKN007
                      PROB30 TEMPO 2400/2402 TSRAGS
                      BECMG 2421/2424 3000 BR BKN004
                      PROB30 2500/2506 0600 FG BKN001=
200912232000 TAF AMD EGLL 232000Z 2320/2424 15006KT 9999 FEW008 SCT016
                      PROB30 TEMPO 2320/2324 TSRA TSSN BKN014CB
                       TEMPO 2320/2421 4000 SHRA BKN007
                      BECMG 2421/2424 3000 BR BKN004=
200912231709 TAF EGLL 231709Z 2318/2424 15006KT 9999 FEW008 SCT016
                      TEMPO 2318/2421 4000 SHRA BKN007
                      BECMG 2421/2424 3000 BR BKN004=
200912231104 TAF EGLL 231104Z 2312/2418 16008KT 6000 FEW007 SCT030
                      TEMPO 2312/2418 4000 SHRA BKN007
                      PROB30 TEMPO 2312/2314 1200 BR BKN003
                      BECMG 2314/2317 9999=
200912231032 TAF AMD EGLL 231032Z 2310/2412 18004KT 6000 FEW006 SCT030
                      TEMPO 2312/2412 4000 -SHRA BKN006
                      PROB30 TEMPO 2312/2314 SHRASN BKN004=
200912230751 TAF AMD EGLL 230751Z 2307/2412 18004KT 0300 FZFG VV///
                      PROB30 TEMPO 2307/2311 1500 BR BKN002
                      BECMG 2311/2314 8000 -RA BKN008
                      PROB30 TEMPO 2311/2314 4000 SHRASN
                      TEMPO 2314/2320 4000 SHRA
                      TEMPO 2320/2323 1200 +RA
                      BECMG 2323/2402 4000 BR BKN004
                      BECMG 2407/2410 8000 BKN009=
200912230513 TAF EGLL 230513Z 2306/2412 18004KT 0600 FZFG VV///
                      PROB30 TEMPO 2306/2311 1500 BR BKN002
                      BECMG 2311/2314 8000 -RA BKN008
                      PROB30 TEMPO 2311/2314 4000 SHRASN
                      TEMPO 2314/2320 4000 SHRA
                      TEMPO 2320/2323 1200 +RA
                      BECMG 2323/2402 4000 BR BKN004
                      BECMG 2407/2410 8000 BKN009=
200912230500 TAF EGLL 230500Z NIL=
200912222313 TAF COR EGLL 222313Z 2300/2406 23005KT 5000 BR FEW025
                      BECMG 2300/2303 2500
                      PROB40 2300/2311 0500 FZFG BKN001
                      BECMG 2311/2314 8000 BKN014
                      PROB30 TEMPO 2314/2321 4000 SHRA
                      TEMPO 2321/2401 1200 +RA BKN008
                      BECMG 2401/2404 4000 BR BKN007=
200912222305 TAF EGLL 222305Z 2300/2406 23005KT 4000 BR FEW025
                      BECMG 2300/2303 2500
                      PROB40 2300/2311 0500 FZFG BKN001
                      BECMG 2311/2314 8000 BKN014
                      PROB30 TEMPO 2314/2321 4000 SHRA
                      TEMPO 2321/2401 1200 +RA BKN008
                      BECMG 2401/2404 4000 BR BKN007=
200912221916 TAF AMD EGLL 221916Z 2219/2324 29005KT 3000 BR FEW006
                      PROB40 2220/2310 0800 FG FZFG BKN001
                      BECMG 2310/2312 8000 NSW
                      PROB40 TEMPO 2315/2324 7000 -RA -SHRA BKN014=
200912221706 TAF EGLL 221706Z 2218/2324 24009KT 9999 FEW006
                      BECMG 2218/2220 4000 BR
                      PROB40 2300/2310 0800 FG FZFG BKN001
                      BECMG 2310/2312 8000 NSW
                      PROB40 TEMPO 2315/2324 7000 -RA -SHRA BKN014=
200912221159 TAF AMD EGLL 221159Z 2212/2318 32005KT 8000 BKN004
                      PROB40 TEMPO 2212/2216 9999 FEW020
                      BECMG 2216/2219 4000 BR FEW006
                      PROB30 2300/2310 0800 FG FZFG BKN001
                      BECMG 2310/2312 8000 NSW
                      PROB40 TEMPO 2315/2318 7000 -RA BKN014=
200912221106 TAF EGLL 221106Z 2212/2318 32005KT 9999 BKN006
                      PROB40 TEMPO 2212/2216 FEW020
                      BECMG 2216/2219 4000 BR FEW006
                      PROB30 2300/2310 0800 FG FZFG BKN001
                      BECMG 2310/2312 8000 NSW
                      PROB40 TEMPO 2315/2318 7000 -RA BKN014=
200912220842 TAF AMD EGLL 220842Z 2208/2312 32005KT 8000 BKN005
                      PROB30 2208/2211 0500 FZFG BKN001
                      BECMG 2210/2212 BKN010
                      TEMPO 2212/2216 9999 FEW025
                      BECMG 2216/2219 4000 BR
                      PROB40 TEMPO 2300/2309 1200
                      BECMG 2309/2311 9999=
200912220516 TAF COR EGLL 220516Z 2206/2312 32005KT 3200 -SN BKN004
                      PROB40 TEMPO 2206/2210 0500 FZFG BKN001
                      BECMG 2210/2212 8000 NSW BKN007
                      TEMPO 2212/2216 9999 FEW025
                      BECMG 2216/2219 4000 BR
                      PROB40 TEMPO 2300/2309 1200
                      BECMG 2309/2311 9999=
200912220508 TAF EGLL 220508Z 2206/2312 32005KT 3200 -SN BKN004
                      PROB40 TEMPO 2206/2210 0500 FZFG BKN001
                      BECMG 2210/2212 8000 NSW BKN007
                      TEMPO 2212/2216 9999 FEW025
                      BECMG 2216/2219 4000 BR
                      PROB40 TEMPO 2300/2306 1200=
200912220329 TAF AMD EGLL 220329Z 2203/2306 32005KT 3200 -SN BKN004
                      PROB30 TEMPO 2203/2206 0800 SN VV///
                      PROB30 TEMPO 2205/2209 0500 FZFG BKN001
                      BECMG 2207/2210 8000 NSW BKN009
                      TEMPO 2210/2216 9999 FEW025
                      BECMG 2216/2219 4000 BR
                      PROB40 TEMPO 2300/2306 1200=
200912212310 TAF EGLL 212310Z 2200/2306 17003KT 6000 BKN030
                      BECMG 2200/2202 32010KT -RASN BKN012
                      TEMPO 2200/2207 0800 SN VV///
                      BECMG 2206/2209 8000 NSW BKN009
                      BECMG 2216/2219 3000 BR
                      PROB40 2216/2224 BKN003
                      PROB40 2300/2306 1200 BKN001=
200912212300 TAF AMD EGLL 220329Z 2203/2306 32005KT 3200 -SN BKN004
                      PROB30 TEMPO 2203/2206 0800 SN VV///
                      PROB30 TEMPO 2205/2209 0500 FZFG BKN001
                      BECMG 2207/2210 8000 NSW BKN009
                      TEMPO 2210/2216 9999 FEW025
                      BECMG 2216/2219 4000 BR
                      PROB40 TEMPO 2300/2306 1200=
200912211806 TAF AMD EGLL 211806Z 2118/2224 08006KT 6000 -RASN BKN014
                      TEMPO 2118/2207 1200 SN BR RASN BKN001
                      BECMG 2206/2209 28010KT 8000 NSW BKN009
                      BECMG 2216/2219 3000 BR
                      PROB40 2216/2224 BKN003=
200912211709 TAF EGLL 211709Z 2118/2224 08006KT 4000 -RASN BKN012
                      TEMPO 2118/2207 1200 SN BR RASN BKN001
                      BECMG 2206/2209 28010KT 8000 NSW BKN009
                      BECMG 2216/2219 3000 BR
                      PROB40 2216/2224 BKN003=
200912211108 TAF EGLL 211108Z 2112/2218 13007KT 9999 SCT030
                      BECMG 2112/2115 8000 -RASN BKN010
                      BECMG 2115/2118 1200 SN BKN001
                      BECMG 2118/2121 4000 -RASN BR BKN005
                      PROB40 2202/2206 1200 SN BKN001
                      BECMG 2206/2209 29010KT 8000 NSW SCT008
                      PROB40 2209/2215 9999=
200912210506 TAF EGLL 210506Z 2106/2212 16007KT 9999 FEW030
                      BECMG 2112/2114 8000 -RASN BKN010
                      BECMG 2114/2116 1200 SN VV///
                      BECMG 2117/2119 4000 -RASN BR BKN005
                      PROB40 2200/2204 1200 SN VV///
                      BECMG 2204/2207 29010KT 8000 NSW SCT008
                      PROB40 2209/2212 9999=
200912202302 TAF EGLL 202302Z 2100/2206 24010KT 9999 FEW030
                      BECMG 2107/2110 16008KT
                      BECMG 2112/2115 8000 -RASN BKN010
                      PROB40 2116/2206 1200 SN BR VV///=
200912201707 TAF EGLL 201707Z 2018/2124 24013KT 9999 FEW030
                      BECMG 2107/2110 16008KT
                      BECMG 2113/2116 8000 -RASN BKN014
                      PROB40 2116/2120 1200 SN VV///
                      BECMG 2118/2121 3000 BR BKN004=
200912201105 TAF EGLL 201105Z 2012/2118 27012KT 9999 SCT030
                      PROB30 TEMPO 2100/2105 5000 -SHSN
                      PROB30 TEMPO 2109/2113 7000 -SHRASN -SHSN=
200912200457 TAF EGLL 200457Z 2006/2112 32012KT 9999 SCT030
                      PROB30 TEMPO 2006/2007 BKN008
                      BECMG 2009/2012 27012KT
                      PROB30 TEMPO 2100/2105 5000 -SHSN
                      PROB30 TEMPO 2109/2112 7000 -SHRASN -SHSN=
200912192259 TAF EGLL 192259Z 2000/2106 24012KT 9999 SCT015
                      BECMG 2000/2002 5000 -SN
                      PROB40 TEMPO 2001/2003 1200 SN BKN001
                      BECMG 2003/2006 33012KT
                      TEMPO 2003/2007 BKN008
                      BECMG 2006/2008 9999 NSW
                      BECMG 2009/2012 27012KT=
200912191703 TAF EGLL 191703Z 1918/2024 25007KT CAVOK
                      BECMG 1922/2001 3000 -SN BKN006
                      PROB40 TEMPO 2001/2003 0500 +SN VV///
                      BECMG 2003/2006 33012KT
                      BECMG 2006/2008 CAVOK
                      BECMG 2009/2012 27012KT=
200912191103 TAF EGLL 191103Z 1912/2018 31010KT CAVOK
                      BECMG 1912/1915 25007KT
                      BECMG 1923/2002 3000 -SN BKN006
                      PROB40 TEMPO 2001/2003 0500 +SN VV///
                      BECMG 2003/2006 33012KT
                      BECMG 2006/2009 CAVOK
                      BECMG 2009/2012 27012KT=
200912190500 TAF EGLL 190500Z 1906/2012 31010KT 9999 FEW012
                      PROB30 TEMPO 1906/1911 BKN007
                      BECMG 1909/1912 24007KT
                      PROB30 TEMPO 1919/1923 4000 -SN BKN007
                      BECMG 1923/2002 3000 -SN BKN006
                      PROB40 TEMPO 2001/2003 0500 +SN VV///
                      BECMG 2006/2009 30013KT CAVOK=
200912182306 TAF EGLL 182306Z 1900/2006 34010KT 9999 FEW012 SCT045
                      PROB40 TEMPO 1900/1909 3000 -SHSN SCT003
                       BKN008
                      BECMG 1909/1912 24007KT
                      PROB40 TEMPO 1918/1924 7000 -SN BKN010
                      BECMG 2000/2003 3000 -SN BKN006
                      PROB40 TEMPO 2002/2006 0600 SN BKN001
                      BECMG 2004/2006 31014KT=
200912181657 TAF EGLL 181657Z 1818/1924 35008KT 9999 SCT030
                      PROB30 TEMPO 1818/1904 5000 -SHSN BKN008
                       BECMG 1921/1924 24010KT=
200912181058 TAF EGLL 181058Z 1812/1918 02010KT 9999 SCT030
                      TEMPO 1812/1903 2500 -SHSN BKN008
                      BECMG 1821/1824 VRB05KT=
200912180455 TAF EGLL 180455Z 1806/1912 01012KT 9999 FEW012 BKN030
                      TEMPO 1806/1907 2500 -SHSN BKN008
                      PROB40 TEMPO 1806/1812 02015G30KT 0600 +SHSN
                       VV///
                      BECMG 1821/1824 VRB05KT
                      BECMG 1909/1912 CAVOK=
200912172256 TAF EGLL 172256Z 1800/1906 35015KT 9999 SCT018
                      TEMPO 1800/1810 36018G30KT 0600 +SHSN VV///
                       TEMPO 1810/1816 02015G25KT 2000 -SHSN DRSN
                       BKN007 BKN015CB
                      TEMPO 1816/1904 6000 DRSN
                      PROB40 TEMPO 1819/1906 1500 SHSN BKN004
                      BECMG 1901/1904 VRB05KT=
200912171700 TAF EGLL 171700Z 1718/1824 01015G25KT 9999 SCT025
                      TEMPO 1718/1815 2000 SHSN BKN008
                      PROB40 TEMPO 1721/1809 0600 +SHSN BKN003
                       PROB30
                      TEMPO 1721/1806 01025G35KT
                      BECMG 1806/1809 02012KT
                      PROB40 TEMPO 1820/1824 3000 SHSN BKN004=
200912171056 TAF EGLL 171056Z 1712/1818 35012KT 9999 SCT025
                      BECMG 1712/1714 01017G28KT
                      TEMPO 1718/1815 2000 SHSN BKN008
                      PROB30 TEMPO 1721/1806 01025G38KT 0600 +SHSN
                       BKN003
                      BECMG 1806/1809 02012KT=
200912170501 TAF EGLL 170501Z 1706/1812 02008KT 9999 SCT030
                      BECMG 1711/1714 01017G28KT
                      TEMPO 1717/1812 2000 SHSN BKN008
                      PROB30 TEMPO 1718/1806 01025G38KT 1200=
200912162303 TAF EGLL 162303Z 1700/1806 30005KT 2000 -RA BR BKN015
                      PROB30 TEMPO 1700/1703 RADZ BKN005
                      BECMG 1703/1706 36010KT 9999 NSW
                      BECMG 1710/1713 01017G28KT
                      TEMPO 1718/1806 2000 SHSN BKN008
                      PROB30 TEMPO 1718/1806 01025G38KT 1200=
200912161703 TAF EGLL 161703Z 1618/1724 25005KT 2500 -RA BR BKN006
                      TEMPO 1618/1702 RADZ BKN003
                      BECMG 1702/1705 36010KT 9999 NSW SCT025
                      BECMG 1712/1715 35017G27KT
                      TEMPO 1718/1724 2000 SHSN BKN008
                      PROB40 TEMPO 1718/1724 36025G37KT=
200912161201 TAF AMD EGLL 161201Z 1612/1718 25005KT 3000 -SN BR SCT009 BKN020
                       BECMG 1612/1614 BKN008
                      TEMPO 1612/1618 1000 SN BKN001
                      TEMPO 1618/1702 RADZ BKN004
                      BECMG 1702/1705 36010KT 9999 NSW BKN025
                      BECMG 1713/1716 35017G27KT
                      TEMPO 1715/1718 2000 SHRASN SHSN BKN010=
200912161136 TAF AMD EGLL 161136Z 1612/1718 25005KT 4500 HZ BKN020
                      BECMG 1612/1614 -RASN -SN BKN008
                      PROB40 TEMPO 1613/1618 1000 SN BKN001
                      TEMPO 1615/1702 RADZ BKN004
                      BECMG 1702/1705 36010KT 9999 NSW BKN025
                      BECMG 1713/1716 35017G27KT
                      TEMPO 1715/1718 2000 SHRASN SHSN BKN010=
200912161104 TAF EGLL 161104Z 1612/1718 25005KT 4500 HZ BKN020
                      BECMG 1612/1614 -RASN -SN BKN008
                      TEMPO 1615/1702 RADZ BKN004
                      PROB30 TEMPO 1615/1618 1000 SN BKN001
                      BECMG 1702/1705 36010KT 9999 NSW BKN025
                      BECMG 1713/1716 35017G27KT
                      TEMPO 1715/1718 2000 SHRASN SHSN BKN010=
200912160814 TAF AMD EGLL 160814Z 1608/1712 VRB05KT 3500 BR BKN020
                      BECMG 1608/1610 6000 NSW
                      BECMG 1611/1614 4000 -RASN -SN BKN008
                      TEMPO 1614/1702 RADZ BKN004
                      PROB30 TEMPO 1614/1618 1000 SN BR BKN001
                       BECMG 1701/1704 36010KT 9999 NSW SCT025=
200912160715 TAF AMD EGLL 160715Z 1607/1712 VRB05KT 4000 BR BKN030
                      BECMG 1607/1609 9999 NSW
                      BECMG 1611/1614 -RASN -SN BKN008
                      TEMPO 1614/1702 BKN004
                      PROB30 TEMPO 1614/1619 1000 SN BKN001
                      BECMG 1619/1621 RADZ
                      BECMG 1700/1703 35010KT 9999 NSW SCT035=
200912160625 TAF AMD EGLL 160625Z 1606/1712 VRB05KT 0600 FZFG FEW030
                      PROB40 TEMPO 1606/1610 0300 VV///
                      BECMG 1606/1609 9999 NSW
                      BECMG 1611/1614 -RASN -SN BKN008
                      TEMPO 1614/1702 BKN004
                      PROB30 TEMPO 1614/1619 1000 SN BKN001
                      BECMG 1619/1621 RADZ
                      BECMG 1700/1703 35010KT 9999 NSW SCT035=
200912160600 TAF AMD EGLL 160600Z 1606/1712 VRB05KT 0600 FZFG FEW030
                      PROB40 TEMPO 1606/1610 0300 VV///
                      BECMG 1607/1610 9999 NSW
                      BECMG 1611/1614 -RASN -SN BKN008
                      TEMPO 1614/1702 BKN004
                      PROB30 TEMPO 1614/1619 1000 SN BKN001
                      BECMG 1619/1621 RADZ
                      BECMG 1700/1703 35010KT 9999 NSW SCT035=
200912160502 TAF EGLL 160502Z 1606/1712 VRB05KT 5000 BR FEW030
                      PROB30 TEMPO 1606/1610 1200
                      BECMG 1611/1614 -RASN -SN BKN008
                      TEMPO 1614/1702 BKN004
                      PROB30 TEMPO 1614/1619 1000 SN BKN001
                      BECMG 1619/1621 RADZ
                      BECMG 1700/1703 35010KT 9999 NSW SCT035=
200912160301 TAF AMD EGLL 160301Z 1603/1706 VRB05KT 6000 FEW030
                      PROB30 TEMPO 1603/1610 1200 BKN002
                      BECMG 1612/1615 -RASN -SN BKN008
                      TEMPO 1614/1706 BKN004
                      BECMG 1617/1620 RADZ=
200912152300 TAF AMD EGLL 160301Z 1603/1706 VRB05KT 6000 FEW030
                      PROB30 TEMPO 1603/1610 1200 BKN002
                      BECMG 1612/1615 -RASN -SN BKN008
                      TEMPO 1614/1706 BKN004
                      BECMG 1617/1620 RADZ=
200912152257 TAF EGLL 152257Z 1600/1706 VRB05KT 7000 FEW030
                      BECMG 1600/1602 4000 BR
                      PROB30 TEMPO 1600/1610 1200 BKN002
                      BECMG 1612/1615 -RASN -SN BKN008
                      TEMPO 1614/1706 BKN004
                      BECMG 1617/1620 RADZ=
200912151703 TAF EGLL 151703Z 1518/1624 VRB05KT 7000 FEW030
                      BECMG 1519/1522 4000 BR
                      PROB40 TEMPO 1523/1610 1200 BKN002
                      BECMG 1611/1614 -RASN -SN BKN008
                      TEMPO 1614/1624 BKN004
                      PROB40 TEMPO 1613/1617 1000 SN BKN001=
200912151106 TAF EGLL 151106Z 1512/1618 11006KT 7000 SCT030
                      BECMG 1519/1522 4000 BR
                      PROB40 TEMPO 1523/1610 1200 BKN002
                      TEMPO 1611/1618 3000 -RASN -SN BR BKN004
                       PROB30 1612/1616 1000 SN BKN001=
200912150505 TAF EGLL 150505Z 1506/1612 15003KT 9999 FEW015 SCT040
                      PROB40 1506/1510 6000 BKN010
                      BECMG 1519/1522 7000
                      PROB30 TEMPO 1523/1606 1500 BR BKN007
                      PROB40 1610/1612 9999=
200912142304 TAF EGLL 142304Z 1500/1606 24003KT 8000 SCT012
                      PROB40 1500/1510 2000 BR BKN005
                      BECMG 1510/1512 9999
                      BECMG 1519/1522 7000
                      PROB30 TEMPO 1523/1606 1500 BR BKN007=
200912141655 TAF EGLL 141655Z 1418/1524 VRB03KT 8000 SCT012
                      PROB40 1418/1510 2000 BR BKN005
                      BECMG 1510/1512 9999
                      PROB40 TEMPO 1520/1524 7000=
200912141216 TAF AMD EGLL 141216Z 1412/1518 VRB04KT 8000 SCT006
                      BECMG 1412/1416 9999
                      PROB40 1416/1500 3000 BR BKN008
                      PROB30 1500/1510 1200 BR BKN003
                      BECMG 1508/1511 9999 BKN015
                      TEMPO 1508/1518 6000 RADZ BKN012
                      PROB30 TEMPO 1508/1518 3000 RASN BKN008=
200912141102 TAF EGLL 141102Z 1412/1518 VRB04KT 7000 BR BKN006
                      BECMG 1412/1416 9999 BKN014
                      PROB40 1416/1500 3000 BR BKN008
                      PROB30 1500/1510 1200 BR BKN003
                      BECMG 1508/1511 9999 BKN015
                      TEMPO 1508/1518 6000 RADZ BKN012
                      PROB30 TEMPO 1508/1518 3000 RASN BKN008=
200912140828 TAF AMD EGLL 140828Z 1408/1512 VRB04KT 2000 BR BKN003
                      BECMG 1408/1411 9999 SCT030
                      BECMG 1421/1424 8000
                      PROB30 1500/1510 3000 BR BKN005=
200912140458 TAF EGLL 140458Z 1406/1512 VRB04KT 9999 SCT030
                      PROB40 1406/1410 8000
                      PROB30 TEMPO 1406/1409 2000 BR BKN005
                      BECMG 1421/1424 8000
                      PROB30 1500/1510 3000 BR BKN005=
200912140303 TAF AMD EGLL 140303Z 1403/1506 VRB04KT 9999 SCT030
                      PROB40 1403/1410 8000
                      PROB30 TEMPO 1405/1409 2000 BR BKN005
                      BECMG 1421/1424 8000
                      PROB30 1500/1506 3000 BR BKN005=
200912132300 TAF AMD EGLL 140303Z 1403/1506 VRB04KT 9999 SCT030
                      PROB40 1403/1410 8000
                      PROB30 TEMPO 1405/1409 2000 BR BKN005
                      BECMG 1421/1424 8000
                      PROB30 1500/1506 3000 BR BKN005=
200912132257 TAF EGLL 132257Z 1400/1506 VRB04KT 9999 SCT030
                      BECMG 1402/1405 8000
                      PROB40 1405/1411 2000 BR BKN003
                      BECMG 1421/1424 4000 BR
                      PROB30 1500/1506 0600 FG BKN000=
200912131703 TAF EGLL 131703Z 1318/1424 02010KT 9999 FEW022 SCT030
                      PROB30 TEMPO 1318/1320 8000 SHRA
                      BECMG 1400/1402 VRB04KT 8000
                      PROB30 1402/1409 2000 BR BKN003
                      PROB40 TEMPO 1409/1424 3000 -DZ BKN005=
200912131058 TAF EGLL 131058Z 1312/1418 02012KT 9999 FEW022 SCT030
                      PROB40 TEMPO 1312/1317 6000 SHRA
                      BECMG 1400/1403 VRB04KT
                      PROB30 1403/1410 6000 BKN008
                      BECMG 1410/1413 8000 -RADZ BKN012
                      TEMPO 1410/1418 3000 -DZ BKN005=
200912130501 TAF EGLL 130501Z 1306/1412 02010KT 9999 FEW040
                      PROB30 TEMPO 1309/1315 7000 SHRA BKN014TCU
                       PROB30 1402/1410 7000=
200912122304 TAF EGLL 122304Z 1300/1406 02006KT 9999 SCT040
                      PROB30 TEMPO 1309/1315 7000 SHRA BKN014TCU
                       PROB30 1402/1406 7000=
200912121701 TAF EGLL 121701Z 1218/1324 02007KT 9999 FEW020 SCT040
                      TEMPO 1218/1324 9000 -SHRA=
200912121059 TAF EGLL 121059Z 1212/1318 03008KT 9999 FEW020 SCT040=
200912120457 TAF EGLL 120457Z 1206/1312 02007KT 9999 FEW025
                      PROB40 TEMPO 1206/1208 7000 BKN008=
200912112257 TAF EGLL 112257Z 1200/1306 02005KT 6000 BKN004
                      PROB40 1200/1208 3000 BR
                      PROB30 TEMPO 1200/1206 SCT012
                      BECMG 1206/1209 SCT015
                      BECMG 1208/1211 9999
                      PROB30 1300/1306 8000=
200912111958 TAF AMD EGLL 111958Z 1120/1224 03005KT 9999 SCT006 SCT030
                      BECMG 1120/1123 8000
                      PROB40 1120/1209 3000 BR
                      PROB30 TEMPO 1120/1209 BKN005
                      BECMG 1209/1212 9999
                      PROB30 1221/1224 8000=
200912111704 TAF EGLL 111704Z 1118/1224 03005KT 7000 BKN006
                      TEMPO 1118/1209 3000 BR BKN003
                      PROB30 TEMPO 1121/1203 SCT008 SCT035
                      BECMG 1209/1212 9999 FEW007 SCT015
                      BECMG 1218/1221 7000=
200912111105 TAF EGLL 111105Z 1112/1218 02005KT 6000 SCT005 SCT012
                      TEMPO 1112/1209 3000 BR BKN002
                      BECMG 1209/1212 9999=
200912110505 TAF EGLL 110505Z 1106/1212 VRB05KT 6000 BKN006
                      PROB40 1106/1111 0200 FG BKN001
                      BECMG 1116/1119 03010KT 9999 FEW006 SCT012
                       PROB30 1119/1210 6000 BKN006=
200912102258 TAF EGLL 102258Z 1100/1206 VRB05KT 8000 NSC
                      BECMG 1101/1104 3000 BR
                      PROB40 1104/1111 0300 FG OVC001
                      BECMG 1110/1113 BKN004
                      BECMG 1118/1121 04010KT 8000 NSW FEW004 SCT010
                       TEMPO 1121/1206 3000 BR BKN006=
200912102156 TAF AMD EGLL 102156Z 1021/1124 VRB05KT 9999 FEW040
                      BECMG 1022/1024 8000
                      BECMG 1100/1103 3000 BR
                      PROB40 1100/1111 0300 FG OVC001
                      BECMG 1110/1113 BKN004
                      PROB40 1113/1124 8000 NSW SCT010=
200912101659 TAF EGLL 101659Z 1018/1124 VRB05KT 9999 FEW040
                      BECMG 1019/1022 8000
                      BECMG 1022/1101 3000 BR
                      PROB40 1100/1111 0300 FG OVC001
                      BECMG 1110/1113 BKN004
                      PROB40 1113/1124 8000 NSW SCT010=
200912101055 TAF EGLL 101055Z 1012/1118 28010KT 9999 FEW040
                      BECMG 1019/1022 02005KT 8000
                      BECMG 1022/1101 3000 BR
                      PROB40 1100/1111 0300 FG OVC001
                      BECMG 1110/1113 BKN004
                      PROB40 1113/1118 8000 NSW SCT010=
200912100458 TAF EGLL 100458Z 1006/1112 27010KT 9999 FEW020
                      BECMG 1019/1022 02005KT 7000
                      BECMG 1022/1101 3000 BR
                      PROB40 1100/1110 0300 FG OVC001
                      BECMG 1110/1112 8000 NSW=
200912092301 TAF EGLL 092301Z 1000/1106 24006KT 6000 SCT012
                      TEMPO 1000/1003 3000 SHRA BKN012
                      BECMG 1002/1005 CAVOK
                      BECMG 1019/1022 7000
                      BECMG 1022/1101 3000 BR
                      PROB40 1101/1106 0900 FG BKN002=
200912091658 TAF EGLL 091658Z 0918/1024 21007KT 8000 SCT015
                      TEMPO 0918/1002 BKN012
                      PROB40 TEMPO 0922/1002 3500 RA BKN007
                      BECMG 1001/1003 27010KT 9999
                      BECMG 1017/1020 34007KT 7000
                      BECMG 1021/1024 4000 BR
                      PROB30 TEMPO 1021/1024 1200=
200912091057 TAF EGLL 091057Z 0912/1018 21008KT 8000 SCT012
                      PROB40 0912/0919 9999
                      PROB30 TEMPO 0912/0921 BKN008
                      PROB40 TEMPO 0921/1002 4000 -RA BR BKN006
                       BECMG 1001/1004 28010KT 9999=
200912090505 TAF EGLL 090505Z 0906/1012 20007KT 9999 SCT015
                      TEMPO 0906/0911 7000
                      PROB30 0906/0910 4000 BR BKN010
                      BECMG 0918/0921 5000 BR
                      PROB40 0920/0924 4000 BKN006
                      BECMG 1000/1003 27010KT 9999 NSW FEW015=
200912090428 TAF AMD EGLL 090428Z 0904/1006 17010KT 9999 SCT015
                      TEMPO 0904/0911 6000
                      PROB30 0905/0910 4000 BR BKN010
                      BECMG 0918/0921 5000 BR BKN006
                      BECMG 1000/1003 9999 NSW FEW015=
200912082305 TAF EGLL 082305Z 0900/1006 17010KT 6000 -RA SCT004 BKN010
                      TEMPO 0900/0902 3500 RADZ BKN004
                      BECMG 0901/0904 23007KT 9999 NSW SCT006
                      TEMPO 0904/0910 4500 BR BKN004
                      BECMG 0918/0921 5000 BR BKN006
                      BECMG 1000/1003 9999 NSW FEW015=
200912082300 TAF AMD EGLL 090428Z 0904/1006 17010KT 9999 SCT015
                      TEMPO 0904/0911 6000
                      PROB30 0905/0910 4000 BR BKN010
                      BECMG 0918/0921 5000 BR BKN006
                      BECMG 1000/1003 9999 NSW FEW015=
200912081654 TAF EGLL 081654Z 0818/0924 17010KT 9999 -RA SCT012 BKN025
                      BECMG 0818/0821 8000 BKN012
                      TEMPO 0819/0911 3500 RADZ BKN006
                      PROB30 TEMPO 0900/0910 1200 BR BKN003
                      BECMG 0901/0904 24007KT
                      PROB40 0910/0919 9999 NSW SCT014
                      PROB40 TEMPO 0921/0924 4000 RA BKN008=
200912081055 TAF EGLL 081055Z 0812/0918 24008KT 9999 SCT030
                      BECMG 0816/0819 17010KT 8000 -RA BKN012
                      TEMPO 0819/0911 4000 RADZ BKN006
                      PROB30 TEMPO 0900/0910 1200 BR BKN003
                      BECMG 0901/0903 24007KT
                      BECMG 0910/0913 9999 NSW SCT014=
200912080459 TAF EGLL 080459Z 0806/0912 25010KT 9999 SCT030
                      BECMG 0816/0819 18012KT 7000 -RA BKN010
                      TEMPO 0820/0910 3500 RADZ BKN006
                      PROB30 TEMPO 0900/0909 BR BKN003
                      BECMG 0903/0906 24007KT
                      BECMG 0909/0912 9999 NSW SCT012=
200912072256 TAF EGLL 072256Z 0800/0906 25010KT 9999 SCT025
                      BECMG 0816/0819 18012KT 6000 -RA BKN012
                      TEMPO 0820/0906 4000 RADZ BKN006
                      PROB30 TEMPO 0900/0904 BKN004
                      BECMG 0903/0906 24007KT=
200912071659 TAF EGLL 071659Z 0718/0824 25009KT 9999 SCT025
                      BECMG 0815/0818 18010KT 6000 -RA BKN012
                      PROB30 TEMPO 0818/0824 4000 RADZ BKN006=
200912071057 TAF EGLL 071057Z 0712/0818 17015G25KT 9999 SCT015 SCT025
                      TEMPO 0712/0718 6000 RA BKN014
                      PROB30 TEMPO 0715/0717 18025G35KT 4000 +RA
                       BECMG 0716/0719 24008KT
                      BECMG 0815/0818 18010KT 6000 RA=
200912070505 TAF EGLL 070505Z 0706/0812 17013KT 9999 SCT018 BKN030
                      TEMPO 0706/0717 18016G26KT 6000 RA SHRA BKN014
                       PROB40
                      TEMPO 0714/0716 19022G36KT 4000 +RA
                      BECMG 0717/0719 24008KT
                      PROB30 TEMPO 0722/0801 8000 -SHRA=
200912062259 TAF EGLL 062259Z 0700/0806 22009KT CAVOK
                      BECMG 0705/0708 16014KT SCT018 BKN030
                      TEMPO 0706/0716 17016G26KT 6000 RA BKN014
                       PROB40
                      TEMPO 0714/0716 19022G36KT 4000 +RA
                      BECMG 0716/0719 24008KT
                      PROB40 TEMPO 0722/0804 27015G25KT 8000 -SHRA
                       BKN014=
200912061657 TAF EGLL 061657Z 0618/0724 23012KT 9999 SCT035
                      BECMG 0706/0709 17012KT
                      TEMPO 0706/0718 17016G26KT 6000 RA BKN014
                       BECMG 0715/0718 24008KT=
200912061057 TAF EGLL 061057Z 0612/0718 23012KT 9999 SCT030
                      TEMPO 0612/0619 23015G25KT
                      BECMG 0706/0709 17012KT
                      TEMPO 0709/0717 17016G26KT 6000 RA BKN014
                       BECMG 0716/0718 24005KT=
200912060855 TAF AMD EGLL 060855Z 0608/0712 20016G26KT 6000 -RA FEW012 SCT030
                       PROB40
                      TEMPO 0608/0609 21022G36KT 3000 +RA BKN009
                       BECMG 0609/0611 24013KT 9999 NSW
                      TEMPO 0611/0618 25016G26KT
                      BECMG 0703/0706 18008KT
                      TEMPO 0703/0709 8000
                      BECMG 0709/0712 19015G25KT 6000 RA BKN014=
200912060502 TAF EGLL 060502Z 0606/0712 20016G26KT 6000 RA BKN012
                      PROB40 TEMPO 0606/0609 21022G36KT 3000 +RA
                       BKN009
                      BECMG 0609/0611 24013KT 9999 NSW FEW030
                      TEMPO 0611/0618 25016G26KT
                      BECMG 0703/0706 18008KT
                      TEMPO 0703/0709 8000
                      BECMG 0709/0712 19015G25KT 6000 RA BKN014=
200912052300 TAF EGLL 052300Z 0600/0706 20012KT 9999 SCT014 BKN030
                      TEMPO 0600/0604 8000 -RADZ BKN012
                      BECMG 0603/0606 20016G26KT 6000 RA BKN012
                       PROB40
                      TEMPO 0606/0609 21022G36KT 3000 +RA BKN009
                       BECMG 0609/0611 24013KT 9999 NSW FEW030
                       TEMPO 0611/0618 25016G26KT
                      BECMG 0703/0706 18008KT 8000=
200912051700 TAF EGLL 051700Z 0518/0624 20014KT 9999 -RA BKN025
                      TEMPO 0518/0610 7000 RA SCT009 BKN014
                      PROB40 TEMPO 0523/0610 19019G29KT 4000 RADZ
                       BKN009
                      PROB30 TEMPO 0606/0610 +RA
                      BECMG 0608/0611 26014KT=
200912051058 TAF EGLL 051058Z 0512/0618 21012KT 9999 SCT025
                      BECMG 0515/0518 9000 -RA
                      TEMPO 0517/0610 RA SCT009 BKN014
                      PROB40 TEMPO 0523/0610 19018G28KT 4000 RADZ
                       BKN009
                      PROB30 TEMPO 0606/0609 +RA
                      BECMG 0608/0611 26015G25KT 9999 NSW=
200912050501 TAF EGLL 050501Z 0506/0612 22008KT 9999 SCT030
                      PROB30 TEMPO 0506/0508 7000 SHRA
                      BECMG 0515/0518 18018KT 8000 -RA
                      PROB40 0523/0610 4000 RADZ BKN009
                      PROB30 TEMPO 0606/0609 +RA
                      BECMG 0608/0611 26015G25KT 9999 NSW=
200912042257 TAF EGLL 042257Z 0500/0606 16010KT 9999 BKN009
                      PROB40 TEMPO 0500/0503 3000 RA BKN004
                      BECMG 0502/0505 24012KT SCT030
                      PROB30 TEMPO 0505/0508 7000 SHRA
                      BECMG 0515/0518 18017KT 8000 -RA
                      PROB40 0523/0606 4000 RADZ BKN012
                      PROB30 TEMPO 0602/0606 BKN008=
200912041703 TAF EGLL 041703Z 0418/0524 17012KT 9999 SCT025
                      BECMG 0419/0422 8000 -RADZ BKN007
                      PROB40 TEMPO 0423/0502 3000 RA BKN004
                      BECMG 0501/0504 24012KT 9999 NSW FEW020 SCT030
                       BECMG 0515/0518 8000 -RA BKN012
                      TEMPO 0518/0524 4000 RADZ BKN008=
200912041104 TAF EGLL 041104Z 0412/0518 25008KT 9999 SCT040
                      BECMG 0419/0422 17013KT 8000 -RADZ BKN007
                       PROB40
                      TEMPO 0423/0502 18015G25KT 3000 RA BKN004
                       BECMG 0501/0504 24015KT 9999 NSW SCT030
                       PROB30
                      TEMPO 0505/0509 24015G25KT 7000 SHRA=
200912040455 TAF EGLL 040455Z 0406/0512 27008KT 9999 SCT040
                      BECMG 0419/0422 17013KT 8000 -RADZ BKN007
                       PROB40
                      TEMPO 0423/0502 3000 RA BKN004
                      BECMG 0501/0504 25010KT 9999 NSW SCT030
                      PROB30 TEMPO 0505/0509 7000 SHRA=
200912032317 TAF AMD EGLL 032317Z 0400/0506 27008KT 9999 FEW025 SCT040
                      BECMG 0418/0421 17013KT 8000 -RADZ BKN007
                       PROB40
                      TEMPO 0422/0501 3000 RA BKN004
                      BECMG 0500/0503 25010KT 9999 NSW SCT030=
200912032305 TAF EGLL 032305Z 0400/0506 27008KT 9999 FEW025 SCT040
                      BECMG 0418/0421 17013KT 8000 -RADZ BKN007
                       PROB40
                      TEMPO 0422/0501 3000 RA BKN004
                      BECMG 0500/0503 25010KT 9999 SCT030=
200912031703 TAF EGLL 031703Z 0318/0424 27012KT 9999 FEW025 SCT040
                      BECMG 0414/0417 17010KT
                      BECMG 0418/0421 5000 -RADZ BKN007
                      PROB40 TEMPO 0421/0424 4000 RADZ BKN004=
200912031101 TAF EGLL 031101Z 0312/0418 28014KT 9999 FEW015 SCT040
                      PROB40 TEMPO 0312/0314 28015G25KT 7000 SHRA
                       BKN014
                      BECMG 0413/0417 18008KT=
200912030457 TAF EGLL 030457Z 0306/0412 27010KT 9999 FEW006 SCT045
                      PROB40 0306/0310 8000 BKN004
                      TEMPO 0310/0313 4000 RADZ BKN012=
200912022358 TAF COR EGLL 022358Z 0300/0406 15005KT 9999 SCT030
                      BECMG 0303/0306 27010KT BKN012
                      PROB40 0305/0309 8000 BKN005
                      PROB40 TEMPO 0309/0313 4000 RA BKN006
                      BECMG 0311/0314 SCT030=
200912022301 TAF EGLL 022301Z 0300/0406 15005KT 9999 SCT030
                      BECMG 0303/0306 27010KT BKN012
                      PROB40 0305/0309 8000 BKN005
                      PROB40 TEMPO 0309/0313 4000 RA BKN006
                      BECMG 0311/0314 9999 SCT030=
200912022300 TAF EGLL 022300Z NIL=
200912021656 TAF EGLL 021656Z 0218/0324 15005KT 9999 SCT030
                      TEMPO 0218/0224 7000 SHRA BKN014TCU
                      BECMG 0304/0307 27010KT 8000 BKN012
                      PROB40 0305/0309 BKN005
                      PROB40 TEMPO 0309/0314 RA BKN006
                      BECMG 0313/0316 9999 SCT030=
200912021059 TAF EGLL 021059Z 0212/0318 18010KT 9999 SCT020
                      TEMPO 0212/0224 7000 SHRA BKN014TCU
                      BECMG 0301/0304 27005KT
                      BECMG 0304/0307 8000 BKN012
                      PROB40 0306/0309 BKN005
                      PROB40 TEMPO 0309/0313 RA BKN006
                      BECMG 0312/0315 9999 SCT030=
200912020655 TAF AMD EGLL 020655Z 0207/0312 16012KT 9999 SCT020
                      TEMPO 0207/0210 7000 RA BKN006
                      TEMPO 0212/0312 7000 SHRA BKN014
                      BECMG 0223/0302 25008KT
                      PROB40 0302/0309 BKN006=
200912020500 TAF EGLL 020500Z 0206/0312 16012KT 9999 SCT006 BKN010
                      TEMPO 0206/0209 7000 RA BKN006
                      BECMG 0208/0211 FEW010 SCT020
                      TEMPO 0212/0312 7000 SHRA BKN014
                      BECMG 0223/0302 25008KT
                      PROB40 0302/0309 BKN006=
200912020328 TAF AMD EGLL 020328Z 0203/0306 16012KT 9999 SCT020 BKN030
                      TEMPO 0203/0209 4000 RA BKN008
                      TEMPO 0212/0221 7000 SHRA BKN014
                      BECMG 0223/0302 25008KT
                      PROB40 0302/0306 BKN006=
200912012301 TAF EGLL 012301Z 0200/0306 16012KT 9999 SCT020 BKN030
                      BECMG 0200/0203 8000 -RA
                      TEMPO 0201/0209 4000 RA BKN008
                      BECMG 0209/0212 9999 NSW
                      TEMPO 0212/0221 7000 SHRA BKN014
                      BECMG 0223/0302 25008KT
                      PROB40 0302/0306 BKN006=
200912012300 TAF AMD EGLL 020328Z 0203/0306 16012KT 9999 SCT020 BKN030
                      TEMPO 0203/0209 4000 RA BKN008
                      TEMPO 0212/0221 7000 SHRA BKN014
                      BECMG 0223/0302 25008KT
                      PROB40 0302/0306 BKN006=
200912011657 TAF EGLL 011657Z 0118/0224 15005KT 9999 FEW040
                      BECMG 0122/0201 16017KT 8000 -RA BKN014
                      PROB40 TEMPO 0200/0208 4000 RA BKN007
                      BECMG 0207/0210 18007KT 9999 NSW SCT025
                      PROB40 TEMPO 0212/0221 7000 SHRA=
200912011057 TAF EGLL 011057Z 0112/0218 VRB05KT 9999 FEW040
                      BECMG 0122/0201 17015KT 8000 -RA BKN014
                      PROB40 TEMPO 0200/0207 4000 RA BKN007
                      BECMG 0206/0209 23008KT 9999 NSW SCT025
                      PROB40 TEMPO 0212/0218 19015G25KT 7000 SHRA=
200912010503 TAF EGLL 010503Z 0106/0212 32005KT 9999 FEW030
                      PROB30 0106/0110 5000 BR
                      BECMG 0123/0202 17011KT
                      TEMPO 0123/0208 8000 RA BKN014
                      PROB40 TEMPO 0201/0206 17015G27KT 4000 RADZ
                       BKN009
                      PROB30 TEMPO 0208/0212 8000 SHRA=
