##########################################################
# Query made at 12/24/2012 13:53:20 UTC
# Time interval: from 02/01/2012 00:00  to 03/02/2012 23:59  UTC
##########################################################

##########################################################
# EGLL, London / Heathrow Airport (United Kingdom)
# WMO index: 03772
# Latitude 51-29N. Longitude 000-27W. Altitude 24 m.
##########################################################

###################################
#  METAR/SPECI from EGLL
###################################
201203022350 METAR COR EGLL 022350Z 12005KT 2100 HZ BKN003 07/06 Q1020
                        TEMPO 1200 BKN002=
201203022320 METAR EGLL 022320Z 10005KT 2200 HZ BKN004 07/06 Q1020=
201203022250 METAR COR EGLL 022250Z 11005KT 2300 HZ SCT004 BKN006 07/06
                        Q1021 TEMPO 1400 BKN004=
201203022220 METAR COR EGLL 022220Z 10005KT 2200 HZ SCT004 BKN006 07/06
                        Q1021 TEMPO 1400 BKN004=
201203022150 METAR COR EGLL 022150Z 11005KT 2300 HZ SCT004 BKN006 07/06
                        Q1021 TEMPO BKN004=
201203022120 METAR COR EGLL 022120Z 10006KT 2300 HZ SCT004 BKN006 07/06
                        Q1022 TEMPO 1400 BKN004=
201203022050 METAR COR EGLL 022050Z 11006KT 2400 HZ FEW004 BKN006 07/06
                        Q1022 TEMPO BKN004=
201203022020 METAR COR EGLL 022020Z 09006KT 2700 HZ FEW006 BKN007 08/06
                        Q1022 NOSIG=
201203021950 METAR COR EGLL 021950Z 10007KT 3000 HZ FEW006 BKN008 08/06
                        Q1022 NOSIG=
201203021920 METAR COR EGLL 021920Z 10008KT 3800 HZ BKN009 08/06 Q1023
                        NOSIG=
201203021850 METAR COR EGLL 021850Z 10007KT 4500 HZ BKN011 08/05 Q1023
                        BECMG BKN008=
201203021820 METAR COR EGLL 021820Z 10008KT 4500 HZ BKN011 08/05 Q1023
                        BECMG BKN008=
201203021750 METAR COR EGLL 021750Z 09009KT 3900 HZ BKN008 07/05 Q1023
                        NOSIG=
201203021720 METAR COR EGLL 021720Z 10010KT 3500 HZ BKN008 08/05 Q1024
                        NOSIG=
201203021650 METAR COR EGLL 021650Z 10009KT 3800 HZ BKN009 08/06 Q1024
                        NOSIG=
201203021620 METAR COR EGLL 021620Z 11010KT 4000 HZ BKN010 08/06 Q1024
                        BECMG BKN008=
201203021550 METAR COR EGLL 021550Z 11011KT 4500 HZ NSC 09/06 Q1024 TEMPO
                        BKN008=
201203021520 METAR COR EGLL 021520Z 10009KT 6000 NSC 10/06 Q1024 TEMPO
                        4000 BR BKN008=
201203021450 METAR COR EGLL 021450Z 11008KT 070V140 6000 NSC 10/06 Q1024
                        TEMPO 4000 BR BKN008=
201203021420 METAR COR EGLL 021420Z 10007KT 060V120 6000 NSC 11/06 Q1024
                        NOSIG=
201203021350 METAR COR EGLL 021350Z 11007KT 6000 NSC 11/06 Q1025 NOSIG=
201203021320 METAR COR EGLL 021320Z 11007KT 6000 FEW026 11/06 Q1025 NOSIG=
201203021250 METAR COR EGLL 021250Z 10007KT 6000 FEW026 11/06 Q1025 NOSIG=
201203021220 METAR COR EGLL 021220Z 08006KT 050V130 6000 NSC 11/06 Q1026
                        NOSIG=
201203021150 METAR COR EGLL 021150Z 10005KT 050V130 4500 HZ NSC 11/07
                        Q1026 BECMG 5000 NSW=
201203021120 METAR COR EGLL 021120Z 12005KT 060V170 3500 HZ SCT012 10/06
                        Q1026 BECMG 5000 NSW=
201203021050 METAR COR EGLL 021050Z 12005KT 2300 HZ FEW006 BKN008 09/07
                        Q1027 BECMG 6000 NSW SCT008=
201203021020 METAR COR EGLL 021020Z VRB03KT 1900 BR SCT002 BKN004 09/07
                        Q1027 BECMG 4000 HZ BKN006=
201203020950 METAR COR EGLL 020950Z 05003KT 1900 R09L/1300 BR OVC002 08/07
                        Q1027 BECMG 3000 HZ BKN005=
201203020920 METAR COR EGLL 020920Z VRB03KT 0800 R09L/0750 R09R/1400 FG
                        VV/// 07/06 Q1027 BECMG 1200 BR BKN004=
201203020850 METAR COR EGLL 020850Z 05004KT 030V090 0600 R09L/0550 R09R/1100
                        FG VV/// 06/06 Q1027 BECMG 1200 BR
                        BKN004=
201203020820 METAR EGLL 020820Z 06004KT 020V090 0400 R09L/0650 R09R/0800
                        FG VV/// 06/06 Q1027=
201203020750 METAR COR EGLL 020750Z VRB03KT 0300 R09L/0550 R09R/0900 FG
                        VV/// 06/06 Q1027 TEMPO 1200 BR SCT002
                        BKN020=
201203020720 METAR COR EGLL 020720Z VRB03KT 0150 R09L/0375 R09R/0400 FG
                        VV/// 06/05 Q1027 TEMPO 1200 BR SCT002
                        BKN020=
201203020650 METAR COR EGLL 020650Z 07004KT 0150 R09L/0400 R09R/0500 FG
                        VV/// 06/05 Q1027 TEMPO 1200 BR SCT002
                        BKN020=
201203020620 METAR COR EGLL 020620Z 07004KT 0000 R09L/0350 R09R/0375 FG
                        BKN000 06/05 Q1027 TEMPO 1200 BR
                        SCT002 BKN020=
201203020550 METAR COR EGLL 020550Z 06004KT 030V100 0100 R09L/0400 FG
                        BKN000 05/04 Q1027 TEMPO 1200 BR
                        SCT002 BKN020=
201203020520 METAR COR EGLL 020520Z VRB02KT 3000 HZ FEW002 04/03 Q1027
                        TEMPO 1200 BKN002=
201203020450 METAR COR EGLL 020450Z 01002KT 4500 HZ NSC 04/03 Q1027 NOSIG=
201203020420 METAR COR EGLL 020420Z 34002KT 4900 HZ NSC 04/03 Q1027 NOSIG=
201203020350 METAR COR EGLL 020350Z 34002KT 5000 HZ NSC 04/03 Q1027 TEMPO
                        2500 BR=
201203020320 METAR COR EGLL 020320Z 00000KT 6000 NSC 05/03 Q1027 TEMPO
                        3500 BR=
201203020250 METAR COR EGLL 020250Z 35002KT 6000 NSC 04/03 Q1027 TEMPO
                        4000 HZ=
201203020220 METAR EGLL 020220Z AUTO 27002KT 4400 HZ NCD 04/03 Q1027=
201203020150 METAR EGLL 020150Z AUTO 00000KT 5000 NCD 05/03 Q1028=
201203020120 METAR EGLL 020120Z AUTO 32002KT 6000 NCD 05/03 Q1028=
201203020050 METAR COR EGLL 020050Z 00000KT 7000 NSC 06/04 Q1028 BECMG
                        4000 HZ=
201203020020 METAR COR EGLL 020020Z 34002KT 8000 NSC 06/04 Q1028 BECMG
                        4000 HZ=
201203012350 METAR COR EGLL 012350Z 34003KT 8000 NSC 07/04 Q1028 NOSIG=
201203012320 METAR COR EGLL 012320Z 36003KT 9000 NSC 07/04 Q1028 NOSIG=
201203012250 METAR COR EGLL 012250Z 36004KT 9000 NSC 08/04 Q1028 NOSIG=
201203012220 METAR COR EGLL 012220Z VRB02KT CAVOK 09/05 Q1028 NOSIG=
201203012150 METAR COR EGLL 012150Z 35003KT CAVOK 10/05 Q1028 NOSIG=
201203012120 METAR COR EGLL 012120Z 35003KT CAVOK 10/05 Q1028 NOSIG=
201203012050 METAR COR EGLL 012050Z 00000KT CAVOK 10/05 Q1027 NOSIG=
201203012020 METAR COR EGLL 012020Z 00000KT CAVOK 10/05 Q1027 NOSIG=
201203011950 METAR COR EGLL 011950Z 34002KT CAVOK 10/04 Q1027 NOSIG=
201203011920 METAR COR EGLL 011920Z 35004KT CAVOK 11/04 Q1027 NOSIG=
201203011850 METAR COR EGLL 011850Z 36003KT CAVOK 11/04 Q1027 NOSIG=
201203011820 METAR COR EGLL 011820Z 33004KT 9000 NSC 12/05 Q1027 NOSIG=
201203011750 METAR COR EGLL 011750Z 32004KT 8000 NSC 12/06 Q1027 NOSIG=
201203011720 METAR COR EGLL 011720Z 29005KT 7000 NSC 12/07 Q1026 NOSIG=
201203011650 METAR COR EGLL 011650Z 28006KT 8000 NSC 13/07 Q1026 NOSIG=
201203011620 METAR COR EGLL 011620Z 28005KT 8000 NSC 14/07 Q1026 NOSIG=
201203011550 METAR COR EGLL 011550Z VRB03KT 7000 NSC 14/07 Q1026 NOSIG=
201203011520 METAR COR EGLL 011520Z 28004KT 240V310 7000 NSC 14/06 Q1026
                        NOSIG=
201203011450 METAR COR EGLL 011450Z 24004KT 180V300 6000 NSC 14/07 Q1026
                        NOSIG=
201203011420 METAR COR EGLL 011420Z VRB03KT 6000 NSC 13/07 Q1026 NOSIG=
201203011350 METAR COR EGLL 011350Z VRB03KT 5000 HZ NSC 13/07 Q1026 NOSIG=
201203011320 METAR COR EGLL 011320Z 21004KT 140V290 4800 HZ NSC 12/07
                        Q1026 BECMG 6000=
201203011250 METAR COR EGLL 011250Z VRB03KT 4400 HZ NSC 11/07 Q1027 BECMG
                        6000=
201203011220 METAR COR EGLL 011220Z VRB02KT 4000 HZ SCT007 11/07 Q1027
                        BECMG 6000=
201203011150 METAR COR EGLL 011150Z 28004KT 240V330 3000 HZ SCT004 08/07
                        Q1027 BECMG 6000=
201203011120 METAR COR EGLL 011120Z 31004KT 280V350 1100 R27L/P1500 R27R/P1500
                        BR SCT002 BKN004 07/06 Q1027 BECMG
                        3000 HZ SCT004=
201203011050 METAR COR EGLL 011050Z VRB03KT 0900 R27L/P1500 R27R/1400
                        FG BKN001 06/06 Q1027 BECMG 1800
                        BR BKN004=
201203011020 METAR COR EGLL 011020Z 30004KT 0700 R27L/1300 R27R/0700 FG
                        BKN001 06/05 Q1027 BECMG 1800 BR
                        SCT002=
201203010950 METAR COR EGLL 010950Z 29004KT 270V350 0400 R27L/0450 R27R/0500
                        FG BKN001 06/05 Q1027 BECMG 1800
                        BR SCT002=
201203010920 METAR COR EGLL 010920Z 27004KT 230V330 0350 R27L/0375 R27R/0400
                        FG BKN001 05/04 Q1027 BECMG 1800
                        BR SCT002=
201203010850 METAR COR EGLL 010850Z VRB03KT 0400 R27R/0350 R27L/1300 FG
                        BKN001 04/04 Q1026 TEMPO 0200 FG=
201203010820 METAR COR EGLL 010820Z 27004KT 0700 R27R/0900 R27L/1300 FG
                        SCT001 05/04 Q1026 TEMPO 0200 FG
                        BKN001=
201203010750 METAR COR EGLL 010750Z 30003KT 0800 R27R/0350 R27L/P1500
                        FG FEW001 04/03 Q1026 TEMPO 0200
                        FG BKN001=
201203010720 METAR COR EGLL 010720Z 30004KT 1100 R27R/0375 R27L/P1500
                        BR BCFG FEW001 04/03 Q1026 TEMPO
                        0200 FG BKN001=
201203010650 METAR COR EGLL 010650Z VRB03KT 2100 1400NW R27R/0550 R27L/P1500
                        BR BCFG NSC 05/03 Q1025 TEMPO 0800
                        FG BKN001=
201203010620 METAR COR EGLL 010620Z 30002KT 2200 HZ NSC 05/04 Q1025 TEMPO
                        1200 BR BKN003=
201203010550 METAR COR EGLL 010550Z 28004KT 3200 HZ NSC 05/04 Q1025 TEMPO
                        1200 BR BKN003=
201203010520 METAR COR EGLL 010520Z 27004KT 3500 HZ NSC 06/05 Q1025 TEMPO
                        1200 BR BKN003=
201203010450 METAR COR EGLL 010450Z 25003KT 3500 HZ NSC 06/05 Q1025 TEMPO
                        1200 BR BKN005=
201203010420 METAR COR EGLL 010420Z 22003KT 3500 HZ NSC 07/05 Q1024 NOSIG=
201203010350 METAR COR EGLL 010350Z 18003KT 4500 HZ NSC 06/05 Q1024 TEMPO
                        0800 BCFG=
201203010320 METAR COR EGLL 010320Z 00000KT 4900 HZ NSC 07/05 Q1024 TEMPO
                        0800 BCFG=
201203010250 METAR COR EGLL 010250Z 00000KT 6000 NSC 07/05 Q1024 BECMG
                        2500 BR=
201203010220 METAR EGLL 010220Z AUTO 27003KT 4800 HZ NCD 08/06 Q1024=
201203010150 METAR EGLL 010150Z AUTO 26004KT 5000 NCD 08/06 Q1024=
201203010120 METAR EGLL 010120Z AUTO 27003KT 5000 NCD 08/06 Q1024=
201203010050 METAR COR EGLL 010050Z 27005KT 7000 NSC 08/06 Q1025 BECMG
                        4000 HZ=
201203010020 METAR COR EGLL 010020Z 25004KT 220V280 8000 NSC 09/06 Q1025
                        BECMG 4000 HZ=
201202292350 METAR COR EGLL 292350Z 22005KT 8000 NSC 09/06 Q1025 BECMG
                        4000 HZ=
201202292320 METAR COR EGLL 292320Z 22005KT 8000 NSC 09/06 Q1025 BECMG
                        4000 HZ=
201202292250 METAR COR EGLL 292250Z 23007KT 9000 NSC 09/06 Q1025 NOSIG=
201202292220 METAR COR EGLL 292220Z 23008KT 200V260 9000 NSC 09/07 Q1025
                        NOSIG=
201202292150 METAR COR EGLL 292150Z 22007KT 190V260 7000 NSC 10/07 Q1025
                        NOSIG=
201202292120 METAR COR EGLL 292120Z 24008KT 8000 NSC 10/07 Q1025 NOSIG=
201202292050 METAR COR EGLL 292050Z 23008KT 8000 NSC 10/07 Q1024 NOSIG=
201202292020 METAR COR EGLL 292020Z 23007KT 8000 NSC 11/07 Q1024 NOSIG=
201202291950 METAR COR EGLL 291950Z 23008KT 8000 NSC 11/07 Q1024 NOSIG=
201202291920 METAR COR EGLL 291920Z 22006KT 180V260 9000 NSC 11/07 Q1024
                        NOSIG=
201202291850 METAR COR EGLL 291850Z 22006KT 170V250 CAVOK 12/07 Q1024
                        NOSIG=
201202291820 METAR COR EGLL 291820Z 23007KT 180V260 CAVOK 12/07 Q1024
                        NOSIG=
201202291750 METAR COR EGLL 291750Z 23006KT 170V270 9000 NSC 12/08 Q1024
                        NOSIG=
201202291720 METAR COR EGLL 291720Z 22006KT 180V260 CAVOK 12/08 Q1024
                        NOSIG=
201202291650 METAR COR EGLL 291650Z 22007KT 170V250 CAVOK 13/08 Q1024
                        NOSIG=
201202291620 METAR COR EGLL 291620Z 22006KT 190V250 CAVOK 13/08 Q1024
                        NOSIG=
201202291550 METAR COR EGLL 291550Z 21006KT 170V250 9999 FEW020 13/08
                        Q1024 NOSIG=
201202291520 METAR COR EGLL 291520Z 22006KT 180V250 9999 FEW020 13/08
                        Q1024 NOSIG=
201202291450 METAR COR EGLL 291450Z 22005KT 9999 FEW018 12/08 Q1024 NOSIG=
201202291420 METAR COR EGLL 291420Z 22005KT 180V290 9999 FEW018 12/08
                        Q1024 NOSIG=
201202291350 METAR COR EGLL 291350Z 22006KT 180V270 9999 FEW015 12/08
                        Q1024 NOSIG=
201202291320 METAR COR EGLL 291320Z 24007KT 9999 FEW015 12/08 Q1024 NOSIG=
201202291250 METAR COR EGLL 291250Z 24007KT 9000 FEW012 BKN015 12/08 Q1025
                        NOSIG=
201202291220 METAR COR EGLL 291220Z 22007KT 9000 BKN012 11/08 Q1025 BECMG
                        9999 BKN015=
201202291150 METAR COR EGLL 291150Z 23007KT 7000 BKN011 11/08 Q1025 NOSIG=
201202291120 METAR COR EGLL 291120Z 22006KT 190V260 5000 HZ BKN009 11/08
                        Q1025 BECMG BKN012=
201202291050 METAR COR EGLL 291050Z 21007KT 5000 HZ BKN008 11/08 Q1025
                        BECMG BKN012=
201202291020 METAR COR EGLL 291020Z 21006KT 5000 HZ BKN006 11/09 Q1025
                        BECMG BKN010=
201202290950 METAR COR EGLL 290950Z 22007KT 180V280 4800 HZ BKN007 10/08
                        Q1025 BECMG 5000 BKN010=
201202290920 METAR COR EGLL 290920Z 22007KT 4500 HZ FEW005 BKN007 10/08
                        Q1025 BECMG 5000 BKN010=
201202290850 METAR COR EGLL 290850Z 22007KT 4600 HZ SCT008 BKN013 10/08
                        Q1025 TEMPO BKN008=
201202290820 METAR COR EGLL 290820Z 22007KT 4700 HZ BKN012 10/08 Q1025
                        TEMPO BKN006=
201202290750 METAR COR EGLL 290750Z 22006KT 4800 HZ SCT015 09/08 Q1025
                        TEMPO BKN006=
201202290720 METAR COR EGLL 290720Z 22006KT 190V300 5000 HZ SCT017 09/08
                        Q1025 NOSIG=
201202290650 METAR COR EGLL 290650Z 23007KT 5000 HZ SCT017 09/08 Q1025
                        NOSIG=
201202290620 METAR COR EGLL 290620Z 22006KT 190V250 5000 HZ SCT016 09/08
                        Q1025 NOSIG=
201202290550 METAR COR EGLL 290550Z 21005KT 5000 HZ SCT017 09/07 Q1024
                        TEMPO 4000 BR=
201202290520 METAR COR EGLL 290520Z 22004KT 5000 HZ FEW010 09/07 Q1024
                        TEMPO 4000 BR=
201202290450 METAR COR EGLL 290450Z 23005KT 6000 SCT008 09/07 Q1024 NOSIG=
201202290420 METAR COR EGLL 290420Z 25004KT 7000 SCT009 SCT012 09/07 Q1024
                        TEMPO BKN009=
201202290350 METAR COR EGLL 290350Z 25006KT 6000 BKN012 09/07 Q1024 NOSIG=
201202290320 METAR COR EGLL 290320Z 23008KT 6000 SCT008 BKN009 09/07 Q1024
                        BECMG BKN012=
201202290250 METAR COR EGLL 290250Z 23006KT 6000 SCT007 BKN010 09/08 Q1024
                        NOSIG=
201202290220 METAR EGLL 290220Z AUTO 22005KT 6000 SCT006/// BKN010///
                        10/08 Q1025=
201202290150 METAR EGLL 290150Z AUTO 21004KT 5000 OVC009/// 10/08 Q1025=
201202290120 METAR EGLL 290120Z AUTO 21003KT 5000 OVC009/// 10/08 Q1025=
201202290050 METAR COR EGLL 290050Z 21003KT 7000 BKN009 BKN011 10/08 Q1025
                        BECMG BKN011=
201202290020 METAR COR EGLL 290020Z 26004KT 6000 BKN008 BKN010 10/08 Q1025
                        BECMG BKN010=
201202282350 METAR COR EGLL 282350Z 26006KT 4000 HZ BKN007 BKN009 10/08
                        Q1025 BECMG 6000 NSW BKN012=
201202282320 METAR COR EGLL 282320Z 25007KT 3000 HZ BKN005 BKN006 10/08
                        Q1025 NOSIG=
201202282250 METAR COR EGLL 282250Z 26007KT 230V290 3000 HZ BKN005 BKN006
                        10/08 Q1025 NOSIG=
201202282220 METAR COR EGLL 282220Z 27008KT 210V290 4000 HZ BKN006 BKN007
                        10/08 Q1025 BECMG 6000 NSW=
201202282150 METAR COR EGLL 282150Z 23009KT 3500 HZ BKN006 BKN007 10/08
                        Q1025 NOSIG=
201202282120 METAR COR EGLL 282120Z 28007KT 4200 HZ BKN006 10/08 Q1025
                        TEMPO 6000 NSW=
201202282050 METAR COR EGLL 282050Z 27008KT 230V290 5000 HZ BKN006 10/08
                        Q1025 NOSIG=
201202282020 METAR COR EGLL 282020Z 28006KT 6000 BKN007 10/08 Q1025 NOSIG=
201202281950 METAR COR EGLL 281950Z 28006KT 7000 SCT007 BKN008 10/08 Q1025
                        NOSIG=
201202281920 METAR COR EGLL 281920Z 29007KT 6000 SCT007 BKN008 10/08 Q1025
                        NOSIG=
201202281850 METAR COR EGLL 281850Z 28008KT 7000 BKN008 BKN010 10/08 Q1025
                        NOSIG=
201202281820 METAR COR EGLL 281820Z 28008KT 8000 BKN010 11/08 Q1024 TEMPO
                        BKN007=
201202281750 METAR COR EGLL 281750Z 29007KT 9000 OVC011 11/09 Q1024 TEMPO
                        BKN008=
201202281720 METAR COR EGLL 281720Z 30006KT 9000 OVC012 12/09 Q1024 NOSIG=
201202281650 METAR COR EGLL 281650Z 30005KT 9000 OVC013 12/09 Q1024 NOSIG=
201202281620 METAR COR EGLL 281620Z 30005KT 9000 BKN013 12/09 Q1024 NOSIG=
201202281550 METAR COR EGLL 281550Z 28006KT 9000 BKN011 12/09 Q1024 NOSIG=
201202281520 METAR COR EGLL 281520Z 29007KT 9000 BKN013 12/09 Q1024 TEMPO
                        SCT014=
201202281450 METAR COR EGLL 281450Z 29007KT 9000 BKN015 13/09 Q1024 NOSIG=
201202281420 METAR COR EGLL 281420Z 29006KT 9999 BKN015 13/09 Q1024 NOSIG=
201202281350 METAR COR EGLL 281350Z 28006KT 250V310 9999 BKN015 13/09
                        Q1024 NOSIG=
201202281320 METAR COR EGLL 281320Z 29006KT 9000 BKN014 13/09 Q1024 TEMPO
                        SCT015=
201202281250 METAR COR EGLL 281250Z 28006KT 8000 SCT012 13/09 Q1024 TEMPO
                        BKN014=
201202281220 METAR COR EGLL 281220Z 29006KT 8000 SCT011 SCT015 13/09 Q1025
                        NOSIG=
201202281150 METAR COR EGLL 281150Z 28007KT 7000 SCT008 BKN013 12/09 Q1025
                        TEMPO BKN008=
201202281120 METAR COR EGLL 281120Z 28008KT 7000 BKN008 BKN015 12/09 Q1025
                        BECMG SCT012 BKN040=
201202281050 METAR COR EGLL 281050Z 28007KT 7000 BKN010 12/09 Q1025 TEMPO
                        SCT012 BKN040=
201202281020 METAR COR EGLL 281020Z 28008KT 8000 BKN009 11/09 Q1025 BECMG
                        BKN013=
201202280950 METAR COR EGLL 280950Z 26007KT 8000 BKN010 11/08 Q1024 TEMPO
                        BKN008=
201202280920 METAR COR EGLL 280920Z 26005KT 220V290 8000 SCT007 BKN009
                        11/08 Q1024 BECGM SCT009 BKN012=
201202280850 METAR COR EGLL 280850Z 27005KT 8000 SCT008 BKN009 10/08 Q1024
                        BECMG FEW008 BKN014=
201202280820 METAR COR EGLL 280820Z 25007KT 8000 FEW007 SCT008 BKN009
                        10/08 Q1024 TEMPO SCT007 BKN014=
201202280750 METAR COR EGLL 280750Z 27007KT 8000 BKN008 BKN012 10/08 Q1024
                        TEMPO SCT008 BKN014=
201202280720 METAR COR EGLL 280720Z 27006KT 8000 BKN009 10/08 Q1024 NOSIG=
201202280650 METAR COR EGLL 280650Z 27006KT 8000 BKN009 10/08 Q1023 TEMPO
                        BKN012=
201202280620 METAR COR EGLL 280620Z 25006KT 9000 SCT008 BKN010 BKN040
                        10/08 Q1023 NOSIG=
201202280550 METAR COR EGLL 280550Z 25007KT 9000 SCT009 BKN040 10/08 Q1023
                        TEMPO BKN009=
201202280520 METAR COR EGLL 280520Z 26007KT 9000 BKN009 BKN040 10/08 Q1023
                        TEMPO BKN012=
201202280450 METAR COR EGLL 280450Z 26005KT 9000 BKN010 10/08 Q1023 NOSIG=
201202280420 METAR COR EGLL 280420Z 25006KT 9999 BKN011 10/08 Q1023 NOSIG=
201202280350 METAR COR EGLL 280350Z 27007KT 9999 BKN011 10/08 Q1023 NOSIG=
201202280320 METAR COR EGLL 280320Z 27007KT 9000 BKN011 10/07 Q1023 NOSIG=
201202280250 METAR COR EGLL 280250Z 26007KT 9000 BKN011 BKN028 10/07 Q1023
                        NOSIG=
201202280220 METAR EGLL 280220Z AUTO 25006KT 9999 OVC010/// 10/08 Q1023=
201202280150 METAR EGLL 280150Z AUTO 25007KT 9000 BKN010/// BKN025///
                        10/07 Q1023=
201202280120 METAR EGLL 280120Z AUTO 25007KT 8000 BKN011/// BKN025///
                        10/07 Q1023=
201202280050 METAR COR EGLL 280050Z 26007KT 9000 BKN012 10/07 Q1023 NOSIG=
201202280020 METAR COR EGLL 280020Z 25007KT 9999 SCT012 BKN042 10/07 Q1023
                        TEMPO BKN012=
201202272350 METAR COR EGLL 272350Z 25006KT 9999 FEW013 SCT027 BKN043
                        10/07 Q1023 NOSIG=
201202272320 METAR COR EGLL 272320Z 26006KT 9999 FEW027 SCT034 10/07 Q1023
                        NOSIG=
201202272250 METAR COR EGLL 272250Z 27009KT 9999 FEW048 10/07 Q1023 NOSIG=
201202272220 METAR COR EGLL 272220Z 27009KT 9999 SCT036 BKN040 10/07 Q1023
                        NOSIG=
201202272150 METAR COR EGLL 272150Z 27009KT 9999 BKN041 10/07 Q1023 NOSIG=
201202272120 METAR COR EGLL 272120Z 26010KT 9999 FEW016 BKN041 10/07 Q1023
                        NOSIG=
201202272050 METAR EGLL 272050Z 27009KT 9999 BKN046 10/07 Q1024=
201202272020 METAR COR EGLL 272020Z 27008KT 9999 -RA SCT017 OVC048 10/07
                        Q1023 NOSIG=
201202271950 METAR COR EGLL 271950Z 27011KT 9999 BKN018 11/07 Q1023 NOSIG=
201202271920 METAR COR EGLL 271920Z 26011KT 9999 SCT021 11/07 Q1023 NOSIG=
201202271850 METAR COR EGLL 271850Z 26010KT 9999 -RA SCT021 11/07 Q1023
                        NOSIG=
201202271820 METAR COR EGLL 271820Z 27011KT 9999 SCT026 11/07 Q1023 NOSIG=
201202271750 METAR COR EGLL 271750Z 25009KT 9999 FEW020 BKN026 11/07 Q1023
                        NOSIG=
201202271720 METAR COR EGLL 271720Z 25010KT 9999 BKN023 11/07 Q1023 NOSIG=
201202271650 METAR COR EGLL 271650Z 27012KT 9999 BKN022 11/07 Q1023 NOSIG=
201202271620 METAR COR EGLL 271620Z 26013KT 9999 BKN019 11/07 Q1023 NOSIG=
201202271550 METAR COR EGLL 271550Z 26010KT 9999 FEW016 BKN026 11/07 Q1023
                        NOSIG=
201202271520 METAR COR EGLL 271520Z 27010KT 9999 BKN017 11/07 Q1023 NOSIG=
201202271450 METAR COR EGLL 271450Z 25010KT 9999 BKN018 11/07 Q1023 NOSIG=
201202271420 METAR COR EGLL 271420Z 27010KT 9999 BKN016 11/07 Q1024 NOSIG=
201202271350 METAR COR EGLL 271350Z 26010KT 9999 BKN018 11/07 Q1024 NOSIG=
201202271320 METAR COR EGLL 271320Z 28009KT 9999 BKN016 11/07 Q1024 NOSIG=
201202271250 METAR COR EGLL 271250Z 27010KT 9999 BKN016 11/07 Q1024 NOSIG=
201202271220 METAR COR EGLL 271220Z 25010KT 9999 BKN014 10/07 Q1025 TEMPO
                        BKN018=
201202271150 METAR COR EGLL 271150Z 27011KT 9999 BKN017 10/06 Q1025 NOSIG=
201202271120 METAR COR EGLL 271120Z 26010KT 9999 BKN015 10/06 Q1025 NOSIG=
201202271050 METAR COR EGLL 271050Z 25009KT 220V280 9999 BKN014 10/06
                        Q1025 BECMG SCT014 BKN025=
201202271020 METAR COR EGLL 271020Z 25011KT 9999 BKN014 10/06 Q1025 BECMG
                        SCT014 BKN025=
201202270950 METAR COR EGLL 270950Z 25011KT 9999 FEW012 BKN018 09/06 Q1025
                        NOSIG=
201202270920 METAR COR EGLL 270920Z 25010KT 9999 SCT012 BKN018 09/06 Q1025
                        TEMPO BKN012=
201202270850 METAR COR EGLL 270850Z 25010KT 9999 BKN012 09/06 Q1025 NOSIG=
201202270820 METAR COR EGLL 270820Z 25009KT 9999 FEW008 BKN010 08/06 Q1025
                        TEMPO 4500 -DZ BKN008=
201202270750 METAR COR EGLL 270750Z 24010KT 9000 BKN008 08/06 Q1025 TEMPO
                        4500 -DZ=
201202270720 METAR COR EGLL 270720Z 25008KT 200V270 8000 FEW007 BKN009
                        07/05 Q1025 TEMPO 4500 -DZ=
201202270650 METAR COR EGLL 270650Z 23007KT 190V260 7000 FEW009 BKN010
                        07/05 Q1025 TEMPO 4000 -DZ BKN007=
201202270620 METAR COR EGLL 270620Z 23007KT 7000 BKN010 07/05 Q1026 NOSIG=
201202270550 METAR COR EGLL 270550Z 25007KT 7000 BKN010 07/05 Q1026 TEMPO
                        BKN008=
201202270520 METAR COR EGLL 270520Z 22006KT 6000 BKN010 07/05 Q1026 TEMPO
                        4500 BKN007=
201202270450 METAR COR EGLL 270450Z 22006KT 190V260 6000 BKN010 BKN017
                        06/05 Q1026 TEMPO BKN007=
201202270420 METAR COR EGLL 270420Z 22005KT 6000 -RA BKN010 06/05 Q1026
                        TEMPO BKN008=
201202270350 METAR COR EGLL 270350Z 23005KT 8000 SCT010 BKN020 06/04 Q1026
                        BECMG BKN010=
201202270320 METAR COR EGLL 270320Z 22006KT 8000 SCT009 06/04 Q1026 TEMPO
                        4500 -RADZ BKN008=
201202270250 METAR EGLL 270250Z AUTO 23009KT 8000 SCT013/// BKN042///
                        OVC048/// 06/04 Q1027=
201202270220 METAR EGLL 270220Z AUTO 23007KT 9000 NCD 06/03 Q1027=
201202270150 METAR EGLL 270150Z AUTO 22006KT 9999 NCD 06/03 Q1027=
201202270120 METAR EGLL 270120Z AUTO 20006KT 9999 NCD 06/03 Q1027=
201202270050 METAR COR EGLL 270050Z 21005KT CAVOK 06/03 Q1027 NOSIG=
201202270020 METAR COR EGLL 270020Z 21005KT CAVOK 06/03 Q1027 NOSIG=
201202262350 METAR COR EGLL 262350Z 21006KT 190V260 CAVOK 06/03 Q1028
                        NOSIG=
201202262320 METAR COR EGLL 262320Z 22007KT CAVOK 07/03 Q1028 NOSIG=
201202262250 METAR COR EGLL 262250Z 21006KT CAVOK 07/03 Q1028 NOSIG=
201202262220 METAR COR EGLL 262220Z 22008KT 190V250 CAVOK 07/03 Q1028
                        NOSIG=
201202262150 METAR COR EGLL 262150Z 22009KT CAVOK 07/04 Q1028 NOSIG=
201202262120 METAR COR EGLL 262120Z 22008KT CAVOK 08/04 Q1028 NOSIG=
201202262050 METAR COR EGLL 262050Z 22008KT CAVOK 08/04 Q1028 NOSIG=
201202262020 METAR COR EGLL 262020Z 22008KT 190V260 CAVOK 08/04 Q1028
                        NOSIG=
201202261950 METAR COR EGLL 261950Z 19007KT 160V250 CAVOK 08/04 Q1028
                        NOSIG=
201202261920 METAR COR EGLL 261920Z 20005KT 190V270 CAVOK 09/04 Q1028
                        NOSIG=
201202261850 METAR COR EGLL 261850Z 25004KT 200V280 CAVOK 09/04 Q1028
                        NOSIG=
201202261820 METAR COR EGLL 261820Z 28003KT 9999 FEW041 10/04 Q1028 NOSIG=
201202261750 METAR COR EGLL 261750Z 29005KT 9999 FEW041 10/04 Q1028 NOSIG=
201202261720 METAR COR EGLL 261720Z 27004KT 9999 SCT041 11/04 Q1028 NOSIG=
201202261650 METAR COR EGLL 261650Z 27006KT 9999 SCT043 11/04 Q1028 NOSIG=
201202261620 METAR COR EGLL 261620Z 28007KT 240V320 9999 SCT033 11/04
                        Q1028 NOSIG=
201202261550 METAR COR EGLL 261550Z 30005KT 250V330 9999 SCT032 12/04
                        Q1028 NOSIG=
201202261520 METAR COR EGLL 261520Z 28006KT 230V360 9999 SCT031 13/04
                        Q1028 NOSIG=
201202261450 METAR COR EGLL 261450Z 24007KT 210V290 9999 SCT030 13/04
                        Q1028 NOSIG=
201202261420 METAR COR EGLL 261420Z 25005KT 170V340 9999 FEW031 13/05
                        Q1028 NOSIG=
201202261350 METAR COR EGLL 261350Z 29005KT 250V310 9999 SCT030 12/04
                        Q1029 NOSIG=
201202261320 METAR COR EGLL 261320Z 24005KT 180V290 9999 SCT028 12/04
                        Q1029 NOSIG=
201202261250 METAR COR EGLL 261250Z 22005KT 150V280 9999 SCT028 11/04
                        Q1029 NOSIG=
201202261220 METAR COR EGLL 261220Z 21005KT 100V250 9999 FEW028 12/04
                        Q1029 NOSIG=
201202261150 METAR COR EGLL 261150Z VRB04KT 9999 FEW048 11/04 Q1029 NOSIG=
201202261120 METAR COR EGLL 261120Z VRB04KT 9999 FEW048 10/04 Q1029 NOSIG=
201202261050 METAR COR EGLL 261050Z VRB02KT 9999 FEW049 09/04 Q1029 NOSIG=
201202261020 METAR COR EGLL 261020Z VRB03KT 9999 FEW049 08/04 Q1029 NOSIG=
201202260950 METAR COR EGLL 260950Z VRB03KT 9999 FEW049 07/03 Q1029 NOSIG=
201202260920 METAR COR EGLL 260920Z 27003KT 9999 FEW049 06/03 Q1029 NOSIG=
201202260850 METAR COR EGLL 260850Z 28004KT CAVOK 05/02 Q1029 NOSIG=
201202260820 METAR COR EGLL 260820Z 28004KT 9000 NSC 03/02 Q1029 NOSIG=
201202260750 METAR COR EGLL 260750Z 28004KT 9000 NSC 02/01 Q1029 NOSIG=
201202260720 METAR COR EGLL 260720Z 29004KT 9000 NSC 02/M00 Q1028 NOSIG=
201202260650 METAR COR EGLL 260650Z 28004KT CAVOK 03/01 Q1028 NOSIG=
201202260620 METAR COR EGLL 260620Z 26004KT 9000 NSC 02/00 Q1028 NOSIG=
201202260550 METAR COR EGLL 260550Z 27004KT CAVOK 02/01 Q1028 NOSIG=
201202260520 METAR COR EGLL 260520Z VRB03KT CAVOK 02/00 Q1028 NOSIG=
201202260450 METAR COR EGLL 260450Z 28003KT CAVOK 03/01 Q1028 NOSIG=
201202260420 METAR EGLL 260420Z AUTO 00000KT 9999 NCD 03/01 Q1028=
201202260350 METAR COR EGLL 260350Z 29003KT CAVOK 03/01 Q1027 NOSIG=
201202260320 METAR COR EGLL 260320Z VRB03KT CAVOK 03/01 Q1027 NOSIG=
201202260250 METAR COR EGLL 260250Z 32003KT CAVOK 04/01 Q1027 NOSIG=
201202260220 METAR EGLL 260220Z AUTO 32004KT 9999 NCD 04/01 Q1027=
201202260150 METAR EGLL 260150Z AUTO 30003KT 9999 NCD 05/01 Q1027=
201202260120 METAR EGLL 260120Z AUTO 00000KT 9999 NCD 05/01 Q1028=
201202260050 METAR COR EGLL 260050Z VRB02KT CAVOK 05/01 Q1028 NOSIG=
201202260020 METAR COR EGLL 260020Z VRB03KT CAVOK 05/02 Q1028 NOSIG=
201202252350 METAR COR EGLL 252350Z 32004KT CAVOK 06/02 Q1028 NOSIG=
201202252320 METAR COR EGLL 252320Z 31004KT CAVOK 07/02 Q1027 NOSIG=
201202252250 METAR COR EGLL 252250Z 31002KT 9999 FEW034 08/02 Q1027 NOSIG=
201202252220 METAR COR EGLL 252220Z 30003KT 9999 FEW033 08/02 Q1027 NOSIG=
201202252150 METAR COR EGLL 252150Z 35002KT 9999 FEW036 09/03 Q1027 NOSIG=
201202252120 METAR COR EGLL 252120Z 36003KT 9999 FEW038 09/03 Q1027 NOSIG=
201202252050 METAR COR EGLL 252050Z 00000KT 9999 SCT038 09/03 Q1027 NOSIG=
201202252020 METAR COR EGLL 252020Z VRB03KT 9999 BKN038 09/03 Q1027 NOSIG=
201202251950 METAR COR EGLL 251950Z 30002KT 9999 SCT038 10/03 Q1027 NOSIG=
201202251920 METAR COR EGLL 251920Z 30003KT 9999 FEW039 10/02 Q1027 NOSIG=
201202251850 METAR COR EGLL 251850Z 31002KT 9999 FEW036 10/02 Q1026 NOSIG=
201202251820 METAR COR EGLL 251820Z 30002KT 9999 FEW035 10/03 Q1026 NOSIG=
201202251750 METAR COR EGLL 251750Z VRB03KT 9999 FEW037 10/02 Q1026 NOSIG=
201202251720 METAR COR EGLL 251720Z 31005KT 9999 FEW032 10/02 Q1026 NOSIG=
201202251650 METAR COR EGLL 251650Z 30007KT 260V330 9999 FEW036 10/02
                        Q1026 NOSIG=
201202251620 METAR COR EGLL 251620Z 29008KT 270V330 9999 FEW035 11/02
                        Q1026 NOSIG=
201202251550 METAR COR EGLL 251550Z 28009KT 9999 FEW034 11/03 Q1026 NOSIG=
201202251520 METAR COR EGLL 251520Z 27010KT 9999 FEW035 11/03 Q1026 NOSIG=
201202251450 METAR COR EGLL 251450Z 27012KT 9999 FEW036 11/03 Q1026 NOSIG=
201202251420 METAR COR EGLL 251420Z 27010KT 9999 FEW036 12/03 Q1026 NOSIG=
201202251350 METAR COR EGLL 251350Z 29006KT 240V330 9999 FEW032 12/03
                        Q1026 NOSIG=
201202251320 METAR COR EGLL 251320Z 29007KT 240V320 9999 FEW034 11/02
                        Q1027 NOSIG=
201202251250 METAR COR EGLL 251250Z 28007KT 250V320 9999 FEW033 11/02
                        Q1027 NOSIG=
201202251220 METAR COR EGLL 251220Z 29006KT 240V340 9999 FEW034 11/02
                        Q1027 NOSIG=
201202251150 METAR COR EGLL 251150Z 28007KT 250V320 9999 FEW030 10/02
                        Q1028 NOSIG=
201202251120 METAR COR EGLL 251120Z 28007KT 240V310 9999 SCT029 10/02
                        Q1028 NOSIG=
201202251050 METAR COR EGLL 251050Z 31005KT 260V020 9999 SCT029 09/02
                        Q1028 NOSIG=
201202251020 METAR COR EGLL 251020Z 34005KT 300V030 9999 BKN028 09/02
                        Q1028 NOSIG=
201202250950 METAR COR EGLL 250950Z 33006KT 290V030 9999 BKN025 08/02
                        Q1028 NOSIG=
201202250920 METAR COR EGLL 250920Z VRB03KT 9999 BKN027 08/03 Q1028 NOSIG=
201202250850 METAR COR EGLL 250850Z VRB02KT 9999 BKN024 08/03 Q1028 NOSIG=
201202250820 METAR COR EGLL 250820Z 28003KT 9999 BKN019 08/03 Q1028 NOSIG=
201202250750 METAR COR EGLL 250750Z 33006KT 290V020 9999 BKN020 08/03
                        Q1028 NOSIG=
201202250720 METAR COR EGLL 250720Z VRB03KT 9999 BKN022 07/03 Q1028 NOSIG=
201202250650 METAR COR EGLL 250650Z 30005KT 9999 BKN020 08/03 Q1028 NOSIG=
201202250620 METAR COR EGLL 250620Z 28004KT 220V340 9999 BKN022 08/03
                        Q1027 NOSIG=
201202250550 METAR COR EGLL 250550Z 30004KT 9999 BKN020 07/03 Q1028 NOSIG=
201202250520 METAR COR EGLL 250520Z VRB02KT 9999 BKN020 08/03 Q1027 NOSIG=
201202250450 METAR COR EGLL 250450Z VRB03KT 9999 BKN021 08/03 Q1028 NOSIG=
201202250420 METAR COR EGLL 250420Z VRB02KT 9999 OVC020 08/03 Q1028 NOSIG=
201202250350 METAR COR EGLL 250350Z VRB03KT 9999 BKN019 07/04 Q1028 NOSIG=
201202250320 METAR COR EGLL 250320Z 35005KT 320V030 9999 BKN019 BKN022
                        08/04 Q1029 NOSIG=
201202250250 METAR EGLL 250250Z AUTO 36004KT 310V020 9999 BKN019/// BKN025///
                        08/04 Q1029=
201202250220 METAR EGLL 250220Z AUTO 35005KT 310V010 9999 OVC021/// 09/02
                        Q1029=
201202250150 METAR EGLL 250150Z AUTO 35005KT 320V020 9999 SCT021/// BKN026///
                        09/03 Q1029=
201202250120 METAR COR EGLL 250120Z 02004KT 330V060 9999 FEW023 BKN026
                        10/04 Q1029 NOSIG=
201202250050 METAR COR EGLL 250050Z 36005KT 330V030 9999 BKN027 10/04
                        Q1029 NOSIG=
201202250020 METAR COR EGLL 250020Z 02005KT 340V050 9999 FEW015 BKN028
                        10/05 Q1029 NOSIG=
201202242350 METAR COR EGLL 242350Z 02004KT 350V060 9999 SCT014 BKN029
                        10/07 Q1029 TEMPO BKN014=
201202242320 METAR COR EGLL 242320Z 31005KT 8000 SCT009 BKN012 10/08 Q1029
                        BECMG SCT010 BKN015=
201202242250 METAR COR EGLL 242250Z 27006KT 9000 SCT008 BKN009 10/08 Q1029
                        TEMPO SCT010 BKN022=
201202242220 METAR COR EGLL 242220Z 27007KT 9999 BKN009 10/08 Q1029 TEMPO
                        SCT012 BKN022=
201202242150 METAR COR EGLL 242150Z 27007KT 9999 BKN011 10/08 Q1029 TEMPO
                        SCT012 BKN022=
201202242120 METAR COR EGLL 242120Z 27008KT 9999 BKN012 11/08 Q1029 TEMPO
                        SCT012 BKN025=
201202242050 METAR COR EGLL 242050Z 27008KT 9999 SCT019 BKN034 11/08 Q1029
                        TEMPO BKN012=
201202242020 METAR COR EGLL 242020Z 27009KT 9999 SCT022 SCT036 11/08 Q1028
                        TEMPO BKN014=
201202241950 METAR COR EGLL 241950Z 28009KT 9999 BKN036 11/08 Q1028 TEMPO
                        BKN014=
201202241920 METAR COR EGLL 241920Z 27010KT 9999 BKN036 11/08 Q1028 TEMPO
                        BKN012=
201202241850 METAR COR EGLL 241850Z 28009KT 9999 FEW029 BKN036 12/08 Q1028
                        NOSIG=
201202241820 METAR COR EGLL 241820Z 26011KT 9999 BKN037 12/08 Q1028 NOSIG=
201202241750 METAR COR EGLL 241750Z 27011KT 9999 BKN038 12/08 Q1028 NOSIG=
201202241720 METAR COR EGLL 241720Z 27010KT 9999 BKN039 12/08 Q1028 NOSIG=
201202241650 METAR EGLL 241650Z 27011KT 9999 BKN035 12/08 Q1027=
201202241620 METAR COR EGLL 241620Z 26011KT 9999 FEW035 13/08 Q1027 NOSIG=
201202241550 METAR COR EGLL 241550Z 27012KT 9999 FEW040 13/08 Q1027 NOSIG=
201202241520 METAR COR EGLL 241520Z 28012KT 9999 FEW021 13/08 Q1027 NOSIG=
201202241450 METAR COR EGLL 241450Z 28014KT 9999 FEW021 14/08 Q1027 NOSIG=
201202241420 METAR COR EGLL 241420Z 29012KT 9999 SCT022 14/08 Q1027 NOSIG=
201202241350 METAR EGLL 241350Z 27015KT 9999 SCT020 13/08 Q1027=
201202241320 METAR COR EGLL 241320Z 26015KT 9999 SCT020 13/08 Q1027 NOSIG=
201202241250 METAR COR EGLL 241250Z 27012KT 9999 SCT018 14/08 Q1027 NOSIG=
201202241220 METAR COR EGLL 241220Z 27013KT 9999 BKN016 13/08 Q1027 NOSIG=
201202241150 METAR COR EGLL 241150Z 27014KT 9999 BKN018 13/08 Q1028 NOSIG=
201202241120 METAR COR EGLL 241120Z 26013KT 9999 BKN018 12/08 Q1028 NOSIG=
201202241050 METAR COR EGLL 241050Z 26013KT 9999 BKN014 12/08 Q1028 BECMG
                        SCT018=
201202241020 METAR COR EGLL 241020Z 26013KT 9999 BKN012 11/08 Q1027 BECMG
                        SCT015=
201202240950 METAR COR EGLL 240950Z 26012KT 9999 BKN013 11/08 Q1027 BECMG
                        SCT015=
201202240920 METAR COR EGLL 240920Z 25012KT 9999 BKN012 11/08 Q1027 BECMG
                        SCT015=
201202240850 METAR COR EGLL 240850Z 25010KT 9999 FEW010 BKN012 10/08 Q1027
                        BECMG SCT012=
201202240820 METAR COR EGLL 240820Z 25010KT 9999 FEW009 BKN011 10/08 Q1027
                        NOSIG=
201202240750 METAR COR EGLL 240750Z 26012KT 9999 FEW009 BKN011 10/08 Q1027
                        TEMPO BKN008=
201202240720 METAR COR EGLL 240720Z 26011KT 9999 BKN010 10/08 Q1027 TEMPO
                        BKN008=
201202240650 METAR COR EGLL 240650Z 25010KT 9999 BKN010 10/07 Q1027 TEMPO
                        SCT012=
201202240620 METAR COR EGLL 240620Z 26011KT 9999 BKN009 09/07 Q1026 TEMPO
                        BKN012=
201202240550 METAR COR EGLL 240550Z 26013KT 9999 BKN010 09/07 Q1026 TEMPO
                        BKN008=
201202240520 METAR COR EGLL 240520Z 25010KT 9999 BKN010 09/07 Q1026 TEMPO
                        BKN008=
201202240450 METAR COR EGLL 240450Z 25010KT 9999 FEW008 BKN010 09/07 Q1026
                        TEMPO BKN008=
201202240420 METAR COR EGLL 240420Z 25007KT 9999 SCT010 09/07 Q1026 TEMPO
                        BKN008=
201202240350 METAR COR EGLL 240350Z 26008KT 9999 BKN010 10/08 Q1026 TEMPO
                        SCT012=
201202240320 METAR COR EGLL 240320Z 26012KT 9999 BKN009 10/08 Q1026 TEMPO
                        BKN012=
201202240250 METAR COR EGLL 240250Z 25008KT 9999 BKN010 10/08 Q1026 TEMPO
                        BKN008=
201202240220 METAR EGLL 240220Z AUTO 26011KT 9999 BKN009/// 10/08 Q1026=
201202240150 METAR EGLL 240150Z AUTO 26010KT 9999 OVC009/// 10/08 Q1027=
201202240120 METAR EGLL 240120Z AUTO 27011KT 9999 OVC009/// 10/08 Q1027=
201202240050 METAR COR EGLL 240050Z 27009KT 9999 BKN010 10/08 Q1027 TEMPO
                        SCT012=
201202240020 METAR COR EGLL 240020Z 26010KT 9999 BKN009 10/08 Q1026 TEMPO
                        BKN012=
201202232350 METAR COR EGLL 232350Z 25010KT 9999 BKN009 10/08 Q1026 TEMPO
                        SCT012=
201202232320 METAR COR EGLL 232320Z 26010KT 9999 BKN009 10/07 Q1026 TEMPO
                        SCT012=
201202232250 METAR COR EGLL 232250Z 27010KT 9999 SCT010 10/08 Q1026 TEMPO
                        BKN008=
201202232220 METAR COR EGLL 232220Z 27010KT 9999 FEW012 10/08 Q1026 TEMPO
                        BKN010=
201202232150 METAR COR EGLL 232150Z 26012KT 9999 SCT012 10/08 Q1026 TEMPO
                        BKN010=
201202232120 METAR COR EGLL 232120Z 26012KT 9999 SCT012 11/09 Q1025 TEMPO
                        BKN010=
201202232050 METAR COR EGLL 232050Z 27010KT 9999 FEW011 12/09 Q1025 BECMG
                        BKN010=
201202232020 METAR COR EGLL 232020Z 26012KT 9999 SCT011 12/09 Q1025 BECMG
                        BKN010=
201202231950 METAR COR EGLL 231950Z 26014KT 9999 FEW012 12/09 Q1025 TEMPO
                        BKN010=
201202231920 METAR COR EGLL 231920Z 26014KT 9999 FEW018 12/09 Q1025 TEMPO
                        BKN013=
201202231850 METAR COR EGLL 231850Z 25013KT CAVOK 13/09 Q1025 NOSIG=
201202231820 METAR COR EGLL 231820Z 25009KT CAVOK 13/10 Q1024 NOSIG=
201202231750 METAR COR EGLL 231750Z 25010KT CAVOK 14/09 Q1024 NOSIG=
201202231720 METAR COR EGLL 231720Z 25011KT CAVOK 15/09 Q1024 NOSIG=
201202231650 METAR COR EGLL 231650Z 27011KT CAVOK 15/10 Q1024 NOSIG=
201202231620 METAR COR EGLL 231620Z 26012KT CAVOK 16/10 Q1024 NOSIG=
201202231550 METAR COR EGLL 231550Z 27011KT CAVOK 16/11 Q1024 NOSIG=
201202231520 METAR COR EGLL 231520Z 27010KT CAVOK 17/10 Q1024 NOSIG=
201202231450 METAR COR EGLL 231450Z 28011KT 9999 FEW024 17/11 Q1024 NOSIG=
201202231420 METAR COR EGLL 231420Z 28013KT 9999 FEW020 16/11 Q1024 NOSIG=
201202231350 METAR COR EGLL 231350Z 27016KT 9999 FEW015 16/11 Q1024 NOSIG=
201202231320 METAR COR EGLL 231320Z 26015KT 9999 FEW015 16/11 Q1024 NOSIG=
201202231250 METAR COR EGLL 231250Z 28012KT 9999 FEW015 15/11 Q1025 NOSIG=
201202231220 METAR COR EGLL 231220Z 28013KT 9999 SCT012 14/11 Q1025 NOSIG=
201202231150 METAR COR EGLL 231150Z 26011KT 9999 SCT013 14/10 Q1025 NOSIG=
201202231120 METAR COR EGLL 231120Z 27012KT 9999 FEW010 SCT013 14/11 Q1025
                        TEMPO BKN014=
201202231050 METAR COR EGLL 231050Z 28010KT 9999 BKN010 13/10 Q1024 BECMG
                        FEW010=
201202231020 METAR COR EGLL 231020Z 27014KT 9999 BKN010 13/10 Q1024 BECMG
                        FEW012=
201202230950 METAR COR EGLL 230950Z 27011KT 9999 BKN010 13/10 Q1024 TEMPO
                        BKN008=
201202230920 METAR COR EGLL 230920Z 26011KT 9999 FEW009 SCT018 12/10 Q1024
                        TEMPO BKN012=
201202230850 METAR COR EGLL 230850Z 27012KT 9999 BKN018 12/10 Q1023 NOSIG=
201202230820 METAR COR EGLL 230820Z 27011KT 9999 BKN019 12/10 Q1023 TEMPO
                        BKN012=
201202230750 METAR COR EGLL 230750Z 26010KT 9999 BKN020 12/10 Q1023 TEMPO
                        BKN012=
201202230720 METAR COR EGLL 230720Z 27009KT 9999 BKN021 12/10 Q1022 TEMPO
                        BKN012=
201202230650 METAR COR EGLL 230650Z 25008KT 9999 SCT018 BKN021 12/10 Q1022
                        NOSIG=
201202230620 METAR COR EGLL 230620Z 25007KT 9999 BKN014 12/09 Q1022 NOSIG=
201202230550 METAR COR EGLL 230550Z 26007KT 9999 BKN012 12/09 Q1022 TEMPO
                        BKN007=
201202230520 METAR COR EGLL 230520Z 26006KT 9999 BKN012 BKN017 12/09 Q1021
                        TEMPO BKN008=
201202230450 METAR COR EGLL 230450Z 25007KT 9999 BKN016 12/09 Q1021 TEMPO
                        BKN012=
201202230420 METAR COR EGLL 230420Z 25007KT 9999 BKN018 12/09 Q1020 TEMPO
                        BKN012=
201202230350 METAR COR EGLL 230350Z 25008KT 9999 BKN018 12/09 Q1020 TEMPO
                        BKN012=
201202230320 METAR COR EGLL 230320Z 25008KT 9999 BKN018 12/09 Q1020 TEMPO
                        BKN012=
201202230250 METAR COR EGLL 230250Z 26011KT 9999 BKN020 12/10 Q1020 TEMPO
                        BKN012=
201202230220 METAR EGLL 230220Z AUTO 26013KT 9999 OVC021/// 12/10 Q1020=
201202230150 METAR EGLL 230150Z AUTO 25010KT 9999 BKN023/// 11/10 Q1020=
201202230120 METAR EGLL 230120Z AUTO 26008KT 9999 FEW009/// BKN012///
                        BKN028/// 11/10 Q1020=
201202230050 METAR COR EGLL 230050Z 26010KT 9999 SCT009 SCT010 BKN015
                        11/09 Q1019 BECMG BKN007=
201202230020 METAR COR EGLL 230020Z 26010KT 9999 FEW007 SCT009 BKN012
                        11/09 Q1019 BECMG BKN007=
201202222350 METAR COR EGLL 222350Z 25011KT 9999 BKN007 SCT009 11/09 Q1019
                        NOSIG=
201202222320 METAR COR EGLL 222320Z 25011KT 9999 SCT008 SCT009 BKN010
                        11/09 Q1019 BECMG BKN007=
201202222250 METAR COR EGLL 222250Z 25013KT 9999 SCT009 BKN011 11/09 Q1019
                        BECMG BKN007=
201202222220 METAR COR EGLL 222220Z 25011KT 9999 SCT007 SCT009 BKN011
                        11/09 Q1019 BECMG BKN007=
201202222150 METAR COR EGLL 222150Z 24012KT 9999 FEW007 SCT009 BKN012
                        10/09 Q1019 TEMPO BKN007=
201202222120 METAR COR EGLL 222120Z 23013KT 8000 BKN007 OVC008 10/08 Q1019
                        NOSIG=
201202222050 METAR COR EGLL 222050Z 23015KT 9999 SCT007 BKN008 10/08 Q1019
                        NOSIG=
201202222020 METAR COR EGLL 222020Z 23017KT 9999 SCT006 BKN007 OVC008
                        10/08 Q1019 NOSIG=
201202221950 METAR COR EGLL 221950Z 23019KT 9999 BKN007 OVC008 09/08 Q1019
                        NOSIG=
201202221920 METAR COR EGLL 221920Z 23018KT 9999 BKN006 BKN007 OVC008
                        09/08 Q1019 NOSIG=
201202221850 METAR COR EGLL 221850Z 22015G25KT 9999 SCT006 BKN007 OVC009
                        09/07 Q1020 NOSIG=
201202221820 METAR COR EGLL 221820Z 23017KT 9999 SCT007 BKN009 09/07 Q1020
                        NOSIG=
201202221750 METAR COR EGLL 221750Z 23020G30KT 9000 OVC009 09/07 Q1020
                        TEMPO SCT009 BKN010=
201202221720 METAR COR EGLL 221720Z 23019KT 9999 OVC010 09/07 Q1020 TEMPO
                        BKN009=
201202221650 METAR COR EGLL 221650Z 23015KT 9999 BKN010 09/07 Q1020 TEMPO
                        SCT010 BKN015=
201202221620 METAR COR EGLL 221620Z 23017KT 8000 -RA BKN011 09/07 Q1020
                        TEMPO SCT011 BKN015=
201202221550 METAR COR EGLL 221550Z 23018KT 3500 -DZ BKN012 09/06 Q1021
                        BECMG 9999 NSW SCT012 BKN015=
201202221520 METAR COR EGLL 221520Z 22015KT 9999 OVC013 09/06 Q1021 TEMPO
                        SCT012 BKN016=
201202221450 METAR COR EGLL 221450Z 23019KT 9999 -RA BKN016 09/06 Q1021
                        TEMPO BKN013=
201202221420 METAR COR EGLL 221420Z 23016KT 9999 -RA FEW019 BKN035 08/06
                        Q1022 TEMPO BKN014=
201202221350 METAR COR EGLL 221350Z 23016KT 9999 -RA FEW020 BKN034 08/05
                        Q1022 TEMPO BKN014=
201202221320 METAR COR EGLL 221320Z 22018KT 190V250 9999 -RA SCT022 BKN035
                        09/05 Q1023 TEMPO BKN014=
201202221250 METAR COR EGLL 221250Z 23017KT 9000 -RA SCT023 BKN036 09/05
                        Q1023 RERA NOSIG=
201202221220 METAR COR EGLL 221220Z 22019KT 9999 BKN024 10/04 Q1024 NOSIG=
201202221150 METAR COR EGLL 221150Z 23018G30KT 9999 BKN025 10/04 Q1024
                        NOSIG=
201202221120 METAR COR EGLL 221120Z 23020G30KT 9999 BKN025 10/04 Q1024
                        NOSIG=
201202221050 METAR COR EGLL 221050Z 22017KT 9999 BKN026 10/04 Q1025 NOSIG=
201202221020 METAR COR EGLL 221020Z 22017KT 9999 FEW022 BKN034 09/04 Q1025
                        NOSIG=
201202220950 METAR COR EGLL 220950Z 22013KT 9999 FEW020 BKN035 09/04 Q1025
                        NOSIG=
201202220920 METAR COR EGLL 220920Z 22014G24KT 9999 FEW020 BKN037 08/04
                        Q1026 NOSIG=
201202220850 METAR COR EGLL 220850Z 22012KT 9999 SCT017 BKN037 08/04 Q1026
                        NOSIG=
201202220820 METAR COR EGLL 220820Z 22014KT 9999 FEW017 BKN035 08/04 Q1026
                        NOSIG=
201202220750 METAR COR EGLL 220750Z 21011KT 9999 FEW016 BKN039 08/04 Q1026
                        TEMPO BKN014=
201202220720 METAR COR EGLL 220720Z 21011KT 9999 BKN039 08/04 Q1026 NOSIG=
201202220650 METAR COR EGLL 220650Z 22011KT 9999 FEW020 BKN038 08/04 Q1026
                        NOSIG=
201202220620 METAR COR EGLL 220620Z 22012KT 9999 FEW016 BKN037 08/05 Q1026
                        NOSIG=
201202220550 METAR COR EGLL 220550Z 22012KT 9999 FEW016 BKN035 08/05 Q1026
                        NOSIG=
201202220520 METAR COR EGLL 220520Z 22011KT 9999 FEW016 BKN041 08/05 Q1027
                        NOSIG=
201202220450 METAR COR EGLL 220450Z 22011KT 200V260 9999 FEW015 BKN042
                        08/05 Q1027 NOSIG=
201202220420 METAR COR EGLL 220420Z 21009KT 9999 BKN042 08/05 Q1027 NOSIG=
201202220350 METAR COR EGLL 220350Z 22011KT 9999 FEW015 BKN042 08/05 Q1027
                        NOSIG=
201202220320 METAR COR EGLL 220320Z 22011KT 9999 FEW015 BKN042 08/05 Q1027
                        NOSIG=
201202220250 METAR COR EGLL 220250Z 21010KT 9999 FEW015 BKN042 08/05 Q1027
                        NOSIG=
201202220220 METAR EGLL 220220Z AUTO 22011KT 9999 FEW016/// OVC045///
                        08/05 Q1028=
201202220150 METAR EGLL 220150Z AUTO 23011KT 9999 OVC042/// 08/05 Q1028=
201202220120 METAR EGLL 220120Z AUTO 22009KT 9999 OVC042/// 08/05 Q1028=
201202220050 METAR COR EGLL 220050Z 22010KT 9999 BKN045 08/05 Q1029 NOSIG=
201202220020 METAR COR EGLL 220020Z 22010KT 9999 BKN045 08/05 Q1029 NOSIG=
201202212350 METAR COR EGLL 212350Z 22010KT 9999 FEW015 BKN045 08/05 Q1029
                        NOSIG=
201202212320 METAR COR EGLL 212320Z 23012KT 9999 SCT015 BKN044 09/05 Q1029
                        NOSIG=
201202212250 METAR COR EGLL 212250Z 23009KT 9999 FEW016 BKN043 08/05 Q1029
                        NOSIG=
201202212220 METAR COR EGLL 212220Z 23011KT 9999 FEW016 BKN043 09/05 Q1029
                        NOSIG=
201202212150 METAR COR EGLL 212150Z 23011KT 9999 BKN040 09/05 Q1029 NOSIG=
201202212120 METAR COR EGLL 212120Z 22008KT 9999 FEW038 BKN044 09/05 Q1029
                        NOSIG=
201202212050 METAR COR EGLL 212050Z 23009KT 9999 BKN045 09/05 Q1029 NOSIG=
201202212020 METAR COR EGLL 212020Z 23011KT 9999 BKN046 09/05 Q1029 NOSIG=
201202211950 METAR COR EGLL 211950Z 23012KT 9999 FEW023 BKN046 09/05 Q1029
                        NOSIG=
201202211920 METAR COR EGLL 211920Z 23011KT 9999 FEW020 SCT025 BKN042
                        09/05 Q1029 NOSIG=
201202211850 METAR COR EGLL 211850Z 24011KT 9999 FEW020 SCT023 BKN041
                        10/05 Q1029 NOSIG=
201202211820 METAR COR EGLL 211820Z 24011KT 9999 FEW023 BKN042 10/05 Q1029
                        NOSIG=
201202211750 METAR COR EGLL 211750Z 24011KT 9999 FEW022 BKN035 10/05 Q1029
                        NOSIG=
201202211720 METAR COR EGLL 211720Z 25011KT 9999 FEW024 BKN038 10/05 Q1028
                        NOSIG=
201202211650 METAR COR EGLL 211650Z 24012KT 9999 SCT029 BKN034 10/04 Q1028
                        NOSIG=
201202211620 METAR COR EGLL 211620Z 25013KT 9999 BKN029 BKN034 11/04 Q1028
                        NOSIG=
201202211550 METAR COR EGLL 211550Z 25013KT 9999 BKN029 BKN036 11/04 Q1028
                        NOSIG=
201202211520 METAR COR EGLL 211520Z 25014KT 9999 SCT032 BKN040 11/04 Q1028
                        NOSIG=
201202211450 METAR COR EGLL 211450Z 25013KT 9999 FEW032 SCT035 BKN046
                        12/04 Q1028 NOSIG=
201202211420 METAR COR EGLL 211420Z 25015KT 9999 FEW039 BKN046 12/04 Q1028
                        NOSIG=
201202211350 METAR COR EGLL 211350Z 25013KT 9999 FEW032 BKN046 12/03 Q1028
                        NOSIG=
201202211320 METAR COR EGLL 211320Z 25015KT 9999 SCT032 BKN044 12/03 Q1028
                        NOSIG=
201202211250 METAR COR EGLL 211250Z 27016KT 9999 SCT032 BKN046 11/03 Q1028
                        NOSIG=
201202211220 METAR COR EGLL 211220Z 26015KT 9999 FEW028 BKN048 11/04 Q1029
                        NOSIG=
201202211150 METAR COR EGLL 211150Z 25015KT 9999 FEW030 BKN049 11/04 Q1029
                        NOSIG=
201202211120 METAR COR EGLL 211120Z 25014KT 9999 FEW023 BKN049 10/04 Q1029
                        NOSIG=
201202211050 METAR COR EGLL 211050Z 26016KT 9999 FEW024 BKN049 11/04 Q1029
                        NOSIG=
201202211020 METAR COR EGLL 211020Z 26012KT 220V290 9999 FEW024 BKN049
                        10/04 Q1029 NOSIG=
201202210950 METAR COR EGLL 210950Z 26011KT 9999 FEW020 BKN049 10/04 Q1029
                        NOSIG=
201202210920 METAR COR EGLL 210920Z 25012KT 9999 FEW020 BKN049 09/04 Q1029
                        NOSIG=
201202210850 METAR COR EGLL 210850Z 25011KT CAVOK 09/04 Q1029 NOSIG=
201202210820 METAR COR EGLL 210820Z 25010KT CAVOK 07/04 Q1029 NOSIG=
201202210750 METAR COR EGLL 210750Z 24010KT 9999 BKN049 07/04 Q1029 NOSIG=
201202210720 METAR COR EGLL 210720Z 24010KT 9999 BKN049 07/04 Q1028 NOSIG=
201202210650 METAR COR EGLL 210650Z 24009KT 9999 BKN047 07/03 Q1028 NOSIG=
201202210620 METAR COR EGLL 210620Z 24009KT 9999 BKN045 07/03 Q1028 NOSIG=
201202210550 METAR COR EGLL 210550Z 23009KT 9999 BKN044 07/03 Q1028 NOSIG=
201202210520 METAR COR EGLL 210520Z 24007KT 9999 BKN044 07/03 Q1028 NOSIG=
201202210450 METAR COR EGLL 210450Z 24008KT 9999 BKN044 07/03 Q1028 NOSIG=
201202210420 METAR COR EGLL 210420Z 25007KT 9999 BKN048 07/02 Q1028 NOSIG=
201202210350 METAR COR EGLL 210350Z 25008KT 9999 BKN048 06/02 Q1028 NOSIG=
201202210320 METAR COR EGLL 210320Z 25007KT 9999 BKN046 07/02 Q1028 NOSIG=
201202210250 METAR COR EGLL 210250Z 24009KT 9999 BKN047 06/03 Q1028 NOSIG=
201202210220 METAR EGLL 210220Z AUTO 24009KT 9999 BKN046/// 06/03 Q1029=
201202210150 METAR EGLL 210150Z AUTO 24010KT 9999 OVC045/// 06/03 Q1029=
201202210120 METAR EGLL 210120Z AUTO 23006KT 9999 OVC045/// 06/02 Q1029=
201202210050 METAR COR EGLL 210050Z 24007KT 9999 BKN046 06/02 Q1029 NOSIG=
201202210020 METAR COR EGLL 210020Z 22008KT 9999 SCT046 05/02 Q1030 NOSIG=
201202202350 METAR COR EGLL 202350Z 21006KT 9999 SCT047 05/02 Q1030 NOSIG=
201202202320 METAR COR EGLL 202320Z 22007KT CAVOK 05/02 Q1030 NOSIG=
201202202250 METAR COR EGLL 202250Z 23008KT CAVOK 05/02 Q1030 NOSIG=
201202202220 METAR COR EGLL 202220Z 22009KT CAVOK 05/02 Q1030 NOSIG=
201202202150 METAR COR EGLL 202150Z 23010KT CAVOK 06/01 Q1030 NOSIG=
201202202120 METAR COR EGLL 202120Z 23010KT CAVOK 06/01 Q1030 NOSIG=
201202202050 METAR COR EGLL 202050Z 22010KT CAVOK 06/01 Q1030 NOSIG=
201202202020 METAR COR EGLL 202020Z 22010KT 9999 FEW045 06/00 Q1030 NOSIG=
201202201950 METAR COR EGLL 201950Z 21010KT 190V260 9999 BKN043 06/M00
                        Q1030 NOSIG=
201202201920 METAR COR EGLL 201920Z 21008KT 9999 SCT043 06/M01 Q1030 NOSIG=
201202201850 METAR COR EGLL 201850Z 21009KT 9999 BKN042 06/M01 Q1030 NOSIG=
201202201820 METAR COR EGLL 201820Z 22008KT 9999 BKN042 07/M01 Q1030 NOSIG=
201202201750 METAR COR EGLL 201750Z 22010KT 9999 SCT045 07/M01 Q1030 NOSIG=
201202201720 METAR COR EGLL 201720Z 24010KT 9999 BKN048 08/M02 Q1030 NOSIG=
201202201650 METAR COR EGLL 201650Z 23011KT 9999 BKN049 08/M02 Q1030 NOSIG=
201202201620 METAR COR EGLL 201620Z 23011KT 9999 FEW047 08/M03 Q1030=
201202201550 METAR COR EGLL 201550Z 25013KT 9999 FEW040 08/M03 Q1030 NOSIG=
201202201520 METAR COR EGLL 201520Z 24014KT 9999 FEW040 09/M03 Q1031 NOSIG=
201202201450 METAR COR EGLL 201450Z 22012KT 9999 FEW040 08/M03 Q1031 NOSIG=
201202201420 METAR EGLL 201420Z 23011KT 9999 FEW040 09/M03 Q1031=
201202201350 METAR COR EGLL 201350Z 22010KT 9999 FEW040 09/M03 Q1031 NOSIG=
201202201320 METAR COR EGLL 201320Z 25012KT 9999 FEW040 08/M03 Q1032 NOSIG=
201202201250 METAR COR EGLL 201250Z 24010KT 9999 FEW040 08/M03 Q1032 NOSIG=
201202201220 METAR COR EGLL 201220Z 23012KT 190V260 9999 FEW038 08/M03
                        Q1032 NOSIG=
201202201150 METAR COR EGLL 201150Z 24011KT 200V270 9999 FEW036 08/M02
                        Q1033 NOSIG=
201202201120 METAR COR EGLL 201120Z 23011KT 9999 FEW032 07/M01 Q1033 NOSIG=
201202201050 METAR COR EGLL 201050Z 22009KT 190V260 9999 FEW020 06/M00
                        Q1033 NOSIG=
201202201020 METAR COR EGLL 201020Z 20008KT 160V250 9999 FEW020 05/M00
                        Q1033 NOSIG=
201202200950 METAR COR EGLL 200950Z 22005KT 160V260 9999 FEW020 03/M01
                        Q1033 NOSIG=
201202200920 METAR COR EGLL 200920Z 23005KT 190V260 9999 FEW020 02/M02
                        Q1033 NOSIG=
201202200850 METAR COR EGLL 200850Z 21004KT 180V250 CAVOK 01/M02 Q1033
                        NOSIG=
201202200820 METAR COR EGLL 200820Z VRB03KT CAVOK M01/M03 Q1033 NOSIG=
201202200750 METAR COR EGLL 200750Z 22004KT 170V250 CAVOK M02/M03 Q1033
                        NOSIG=
201202200720 METAR COR EGLL 200720Z 25004KT 220V280 CAVOK M03/M04 Q1033
                        NOSIG=
201202200650 METAR COR EGLL 200650Z VRB03KT CAVOK M03/M04 Q1033 NOSIG=
201202200620 METAR COR EGLL 200620Z 18004KT CAVOK M03/M04 Q1033 NOSIG=
201202200550 METAR COR EGLL 200550Z 00000KT CAVOK M03/M04 Q1033 NOSIG=
201202200520 METAR COR EGLL 200520Z VRB03KT CAVOK M03/M04 Q1033 NOSIG=
201202200450 METAR COR EGLL 200450Z 20004KT 160V260 9999 FEW049 M02/M04
                        Q1033 NOSIG=
201202200420 METAR COR EGLL 200420Z 15002KT 9999 FEW035 M02/M04 Q1033
                        NOSIG=
201202200350 METAR COR EGLL 200350Z 00000KT 9999 FEW035 M02/M04 Q1033
                        NOSIG=
201202200320 METAR COR EGLL 200320Z 00000KT CAVOK M02/M04 Q1033 NOSIG=
201202200250 METAR COR EGLL 200250Z 00000KT CAVOK M02/M04 Q1033 NOSIG=
201202200220 METAR EGLL 200220Z AUTO 18002KT 9999 NCD M02/M04 Q1033=
201202200150 METAR EGLL 200150Z AUTO 00000KT 9999 NCD M02/M04 Q1033=
201202200120 METAR EGLL 200120Z AUTO 00000KT 9999 NCD M02/M04 Q1033=
201202200050 METAR COR EGLL 200050Z 17002KT CAVOK M01/M03 Q1033 NOSIG=
201202200020 METAR COR EGLL 200020Z 00000KT CAVOK M01/M04 Q1033 NOSIG=
201202192350 METAR COR EGLL 192350Z 00000KT CAVOK M00/M04 Q1032 NOSIG=
201202192320 METAR COR EGLL 192320Z 30003KT CAVOK 00/M04 Q1032 NOSIG=
201202192250 METAR COR EGLL 192250Z 31004KT CAVOK 00/M04 Q1032 NOSIG=
201202192220 METAR COR EGLL 192220Z 31004KT CAVOK 00/M04 Q1032 NOSIG=
201202192150 METAR COR EGLL 192150Z 29004KT CAVOK 01/M05 Q1032 NOSIG=
201202192120 METAR COR EGLL 192120Z 31004KT CAVOK 03/M05 Q1031 NOSIG=
201202192050 METAR COR EGLL 192050Z VRB02KT CAVOK 03/M05 Q1031 NOSIG=
201202192020 METAR COR EGLL 192020Z 31004KT CAVOK 02/M06 Q1031 NOSIG=
201202191950 METAR COR EGLL 191950Z 30004KT CAVOK 03/M06 Q1030 NOSIG=
201202191920 METAR COR EGLL 191920Z 30003KT CAVOK 04/M07 Q1030 NOSIG=
201202191850 METAR COR EGLL 191850Z 31003KT CAVOK 04/M07 Q1030 NOSIG=
201202191820 METAR COR EGLL 191820Z 31003KT CAVOK 05/M07 Q1029 NOSIG=
201202191750 METAR COR EGLL 191750Z 31003KT CAVOK 05/M07 Q1029 NOSIG=
201202191720 METAR COR EGLL 191720Z 33004KT 300V010 9999 FEW049 05/M06
                        Q1028 NOSIG=
201202191650 METAR COR EGLL 191650Z 32006KT 290V350 9999 FEW049 05/M06
                        Q1028 NOSIG=
201202191620 METAR COR EGLL 191620Z 32007KT 290V350 9999 FEW049 06/M05
                        Q1028 NOSIG=
201202191550 METAR COR EGLL 191550Z 32008KT 290V350 9999 FEW049 06/M05
                        Q1027 NOSIG=
201202191520 METAR COR EGLL 191520Z 33009KT 9999 FEW049 06/M05 Q1027 NOSIG=
201202191450 METAR COR EGLL 191450Z 33010KT 310V010 9999 FEW049 07/M05
                        Q1027 NOSIG=
201202191420 METAR COR EGLL 191420Z 32008KT 290V010 9999 SCT049 07/M05
                        Q1026 NOSIG=
201202191350 METAR COR EGLL 191350Z 32009KT 280V360 9999 SCT043 07/M04
                        Q1026 NOSIG=
201202191320 METAR COR EGLL 191320Z 32010KT 9999 FEW028 SCT041 07/M03
                        Q1026 NOSIG=
201202191250 METAR COR EGLL 191250Z 30009KT 9999 FEW028 SCT048 07/M02
                        Q1026 NOSIG=
201202191220 METAR COR EGLL 191220Z 32009KT 270V360 9999 SCT034 06/M03
                        Q1025 NOSIG=
201202191150 METAR COR EGLL 191150Z 34010KT 290V010 9999 SCT034 06/M03
                        Q1025 NOSIG=
201202191120 METAR COR EGLL 191120Z 33009KT 290V010 9999 FEW032 SCT036
                        06/M03 Q1025 NOSIG=
201202191050 METAR COR EGLL 191050Z 33009KT 310V020 9999 FEW029 SCT034
                        05/M02 Q1025 NOSIG=
201202191020 METAR EGLL 191020Z 32010KT 290V360 9999 FEW024 05/M02 Q1024=
201202190950 METAR COR EGLL 190950Z 32010KT 290V350 9999 FEW024 05/M01
                        Q1024 NOSIG=
201202190920 METAR COR EGLL 190920Z 32009KT 290V360 CAVOK 04/M01 Q1023
                        NOSIG=
201202190850 METAR COR EGLL 190850Z 30008KT CAVOK 04/M01 Q1023 NOSIG=
201202190820 METAR COR EGLL 190820Z 29006KT CAVOK 02/M01 Q1022 NOSIG=
201202190750 METAR COR EGLL 190750Z 29006KT 9999 FEW032 01/M02 Q1022 NOSIG=
201202190720 METAR COR EGLL 190720Z 28003KT 9999 FEW032 01/M02 Q1021 NOSIG=
201202190650 METAR COR EGLL 190650Z 28005KT 9999 FEW035 01/M02 Q1021 NOSIG=
201202190620 METAR COR EGLL 190620Z 28006KT CAVOK 01/M02 Q1020 NOSIG=
201202190550 METAR COR EGLL 190550Z 28007KT CAVOK 01/M02 Q1020 NOSIG=
201202190520 METAR COR EGLL 190520Z 29007KT CAVOK 02/M02 Q1019 NOSIG=
201202190450 METAR COR EGLL 190450Z 29009KT CAVOK 02/M02 Q1018 NOSIG=
201202190420 METAR COR EGLL 190420Z 29010KT CAVOK 02/M02 Q1018 NOSIG=
201202190350 METAR COR EGLL 190350Z 30009KT CAVOK 02/M02 Q1018 NOSIG=
201202190320 METAR COR EGLL 190320Z 29010KT CAVOK 02/M02 Q1017 NOSIG=
201202190250 METAR COR EGLL 190250Z 29009KT CAVOK 02/M02 Q1017 NOSIG=
201202190220 METAR COR EGLL 190220Z 30009KT CAVOK 02/M02 Q1017 NOSIG=
201202190150 METAR EGLL 190150Z NIL=
201202190120 METAR COR EGLL 190120Z 29010KT CAVOK 02/M01 Q1016 NOSIG=
201202190050 METAR COR EGLL 190050Z 28010KT CAVOK 02/M01 Q1016 NOSIG=
201202190020 METAR EGLL 190020Z NIL=
201202182350 METAR EGLL 182350Z NIL=
201202182320 METAR EGLL 182320Z NIL=
201202182250 METAR COR EGLL 182250Z 29009KT CAVOK 03/M01 Q1014 NOSIG=
201202182220 METAR COR EGLL 182220Z 29008KT CAVOK 03/M01 Q1014 NOSIG=
201202182150 METAR EGLL 182150Z 29010KT CAVOK 03/M01 Q1013=
201202182120 METAR COR EGLL 182120Z 28011KT CAVOK 04/M00 Q1013 NOSIG=
201202182050 METAR COR EGLL 182050Z 28009KT CAVOK 03/M00 Q1012 NOSIG=
201202182020 METAR COR EGLL 182020Z 29008KT 9999 FEW048 05/M00 Q1012 NOSIG=
201202181950 METAR COR EGLL 181950Z 29010KT CAVOK 05/00 Q1011 NOSIG=
201202181920 METAR COR EGLL 181920Z 29009KT 9999 FEW047 05/02 Q1010 NOSIG=
201202181850 METAR COR EGLL 181850Z 28008KT CAVOK 05/03 Q1010 NOSIG=
201202181820 METAR COR EGLL 181820Z 27008KT 9999 FEW040 05/03 Q1010 NOSIG=
201202181750 METAR COR EGLL 181750Z 28007KT 9999 FEW029 05/03 Q1009 NOSIG=
201202181720 METAR COR EGLL 181720Z 29006KT 9999 FEW029 SCT048 06/03 Q1009
                        NOSIG=
201202181650 METAR COR EGLL 181650Z 30005KT 9999 SCT029 BKN042 BKN048
                        06/04 Q1008 RERA REDZ NOSIG=
201202181620 METAR COR EGLL 181620Z 32012KT 3000 RADZ SCT011 BKN029 BKN035
                        07/05 Q1008 RERA BECMG 9999 NSW=
201202181550 METAR COR EGLL 181550Z 23015KT 8000 -RA BKN016 09/07 Q1007
                        TEMPO 24020G35KT 4000 RA BKN010=
201202181520 METAR COR EGLL 181520Z 23015G25KT 200V260 9999 -RA FEW020
                        SCT029 BKN040 09/07 Q1007 TEMPO 24020G35KT
                        4000 RA BKN010=
201202181450 METAR COR EGLL 181450Z 23015KT 9000 -RA FEW021 SCT024 BKN030
                        09/06 Q1008 RERA TEMPO 24020G35KT
                        4000 RA BKN011=
201202181420 METAR COR EGLL 181420Z 24018KT 7000 DZ BKN022 BKN033 10/06
                        Q1008 TEMPO 4000 RADZ BKN012=
201202181350 METAR COR EGLL 181350Z 24017KT 9999 -RA BKN030 10/04 Q1009
                        TEMPO RA BKN012=
201202181320 METAR COR EGLL 181320Z 24016KT 9999 -RA BKN032 11/04 Q1009
                        TEMPO RA BKN012=
201202181250 METAR COR EGLL 181250Z 24017G27KT 9999 BKN033 11/03 Q1009
                        TEMPO BKN014=
201202181220 METAR COR EGLL 181220Z 25017G27KT 9999 BKN031 11/03 Q1010
                        NOSIG=
201202181150 METAR COR EGLL 181150Z 24018KT 9999 SCT031 SCT036 11/03 Q1010
                        NOSIG=
201202181120 METAR COR EGLL 181120Z 25019KT 9999 SCT025 SCT035 11/03 Q1011
                        NOSIG=
201202181050 METAR COR EGLL 181050Z 24017KT 9999 FEW024 BKN043 11/04 Q1011
                        NOSIG=
201202181020 METAR COR EGLL 181020Z 24018G28KT 9999 FEW026 BKN045 10/04
                        Q1011 NOSIG=
201202180950 METAR COR EGLL 180950Z 24017G27KT 9999 FEW023 BKN043 09/04
                        Q1012 NOSIG=
201202180920 METAR COR EGLL 180920Z 24018KT 9999 SCT023 SCT047 09/04 Q1012
                        TEMPO BKN014=
201202180850 METAR COR EGLL 180850Z 24020KT 9999 SCT021 SCT023 09/04 Q1012
                        TEMPO BKN014=
201202180820 METAR COR EGLL 180820Z 24018KT 9999 SCT022 SCT026 09/04 Q1013
                        NOSIG=
201202180750 METAR COR EGLL 180750Z 24016KT 9999 SCT022 SCT040 08/04 Q1013
                        TEMPO 25020G30KT=
201202180720 METAR COR EGLL 180720Z 24016KT 9999 SCT021 SCT035 08/04 Q1013
                        TEMPO 25020G30KT=
201202180650 METAR COR EGLL 180650Z 24016KT 9999 FEW021 BKN023 09/04 Q1013
                        TEMPO 25020G30KT=
201202180620 METAR COR EGLL 180620Z 24014KT 9999 SCT026 SCT040 09/04 Q1014
                        TEMPO 25017G27KT=
201202180550 METAR COR EGLL 180550Z 23014KT 9999 SCT022 SCT027 09/04 Q1014
                        TEMPO 24017G27KT=
201202180520 METAR COR EGLL 180520Z 24014KT 9999 SCT020 SCT038 09/04 Q1014
                        TEMPO 25017G27KT=
201202180450 METAR COR EGLL 180450Z 24012KT 9999 SCT026 BKN032 09/04 Q1015
                        NOSIG=
201202180420 METAR COR EGLL 180420Z 23012KT 9999 FEW022 BKN037 09/04 Q1015
                        NOSIG=
201202180350 METAR COR EGLL 180350Z 24012KT 9999 FEW022 BKN027 09/04 Q1016
                        NOSIG=
201202180320 METAR COR EGLL 180320Z 25013KT 9999 SCT020 SCT030 09/04 Q1016
                        NOSIG=
201202180250 METAR COR EGLL 180250Z 25015KT 9999 BKN020 09/05 Q1017 NOSIG=
201202180220 METAR EGLL 180220Z AUTO 26016KT 9999 BKN017/// 09/05 Q1017=
201202180150 METAR EGLL 180150Z AUTO 25015KT 9999 OVC017/// 08/05 Q1018=
201202180120 METAR EGLL 180120Z AUTO 25014KT 9999 OVC016/// 08/05 Q1018=
201202180050 METAR COR EGLL 180050Z 25012KT 9999 BKN017 08/05 Q1018 NOSIG=
201202180020 METAR COR EGLL 180020Z 26011KT 9999 SCT017 08/05 Q1018 NOSIG=
201202172350 METAR COR EGLL 172350Z 26014KT 9999 FEW020 09/05 Q1019 NOSIG=
201202172320 METAR COR EGLL 172320Z 26012KT 9999 FEW034 09/05 Q1019 NOSIG=
201202172250 METAR COR EGLL 172250Z 26010KT 9999 FEW034 09/05 Q1019 NOSIG=
201202172220 METAR COR EGLL 172220Z 26013KT 9999 SCT038 09/05 Q1020 NOSIG=
201202172150 METAR COR EGLL 172150Z 27016KT 9999 SCT032 10/06 Q1020 NOSIG=
201202172120 METAR COR EGLL 172120Z 27014KT 9999 SCT029 10/06 Q1020 NOSIG=
201202172050 METAR COR EGLL 172050Z 26013KT 9999 FEW032 10/07 Q1020 NOSIG=
201202172020 METAR EGLL 172020Z 27014KT 9999 FEW014 10/07 Q1020=
201202171950 METAR EGLL 171950Z 27015KT 9999 SCT014 10/07 Q1021=
201202171920 METAR EGLL 171920Z 27011KT 9999 FEW016 10/07 Q1021=
201202171850 METAR EGLL 171850Z 25012KT 9999 FEW020 10/07 Q1021=
201202171820 METAR EGLL 171820Z 27012KT 9999 FEW027 11/07 Q1021=
201202171750 METAR EGLL 171750Z 27010KT 9999 BKN028 11/08 Q1021=
201202171720 METAR EGLL 171720Z 27010KT 9999 SCT020 BKN022 12/08 Q1021=
201202171650 METAR COR EGLL 171650Z 25010KT 9999 FEW023 BKN027 12/07 Q1021
                        NOSIG=
201202171620 METAR COR EGLL 171620Z 26009KT 9999 SCT022 SCT036 12/07 Q1022
                        NOSIG=
201202171550 METAR COR EGLL 171550Z 25009KT 210V270 9999 FEW021 BKN024
                        12/07 Q1022 NOSIG=
201202171520 METAR COR EGLL 171520Z 25008KT 9999 SCT021 BKN024 12/07 Q1022
                        NOSIG=
201202171450 METAR COR EGLL 171450Z 26009KT 9999 FEW021 BKN025 12/07 Q1022
                        NOSIG=
201202171420 METAR COR EGLL 171420Z 25009KT 9999 BKN024 12/07 Q1022 NOSIG=
201202171350 METAR COR EGLL 171350Z 27008KT 9999 BKN020 12/07 Q1023 NOSIG=
201202171320 METAR COR EGLL 171320Z 26009KT 9999 BKN019 12/07 Q1023 NOSIG=
201202171250 METAR COR EGLL 171250Z 27009KT 9999 BKN020 12/07 Q1023 NOSIG=
201202171220 METAR COR EGLL 171220Z 27009KT 9999 BKN019 12/07 Q1024 NOSIG=
201202171150 METAR COR EGLL 171150Z 27009KT 9999 FEW014 BKN019 11/08 Q1024
                        NOSIG=
201202171120 METAR COR EGLL 171120Z 27009KT 9999 BKN022 11/07 Q1024 TEMPO
                        BKN012=
201202171050 METAR COR EGLL 171050Z 28008KT 9999 FEW012 BKN018 10/07 Q1024
                        TEMPO BKN012=
201202171020 METAR COR EGLL 171020Z 28007KT 9999 BKN018 10/07 Q1024 NOSIG=
201202170950 METAR COR EGLL 170950Z 27006KT 9999 FEW019 BKN021 10/07 Q1024
                        NOSIG=
201202170920 METAR COR EGLL 170920Z 25007KT 9999 SCT021 09/07 Q1024 NOSIG=
201202170850 METAR COR EGLL 170850Z 25006KT 9999 SCT022 08/06 Q1024 NOSIG=
201202170820 METAR COR EGLL 170820Z 24005KT 200V270 9999 SCT024 08/06
                        Q1024 NOSIG=
201202170750 METAR COR EGLL 170750Z 24005KT 180V270 9999 FEW040 07/06
                        Q1024 NOSIG=
201202170720 METAR COR EGLL 170720Z 24006KT 9999 FEW030 07/05 Q1024 NOSIG=
201202170650 METAR COR EGLL 170650Z 20004KT 160V230 9000 FEW020 06/05
                        Q1024 TEMPO BKN012=
201202170620 METAR COR EGLL 170620Z 24005KT 9000 SCT021 06/05 Q1024 TEMPO
                        BKN012=
201202170550 METAR COR EGLL 170550Z 25005KT 9000 BKN021 07/05 Q1024 TEMPO
                        BKN012=
201202170520 METAR COR EGLL 170520Z 25006KT 8000 FEW012 BKN021 06/05 Q1025
                        TEMPO BKN012=
201202170450 METAR COR EGLL 170450Z 28005KT 9000 BKN019 06/05 Q1025 BECMG
                        BKN012=
201202170420 METAR COR EGLL 170420Z 27005KT 9000 BKN023 06/05 Q1025 BECMG
                        BKN012=
201202170350 METAR COR EGLL 170350Z 25005KT 9000 BKN023 07/05 Q1025 BECMG
                        BKN012=
201202170320 METAR COR EGLL 170320Z 26006KT 8000 BKN023 06/05 Q1025 BECMG
                        BKN012=
201202170250 METAR COR EGLL 170250Z 25006KT 9000 FEW026 06/04 Q1025 BECMG
                        BKN012=
201202170220 METAR EGLL 170220Z AUTO 26004KT 9999 NCD 06/04 Q1025=
201202170150 METAR EGLL 170150Z AUTO 27006KT 9999 FEW011/// 07/04 Q1025=
201202170120 METAR EGLL 170120Z AUTO 26008KT 9999 NCD 07/04 Q1025=
201202170050 METAR COR EGLL 170050Z 26009KT 9999 FEW028 07/04 Q1026 BECMG
                        BKN012=
201202170020 METAR COR EGLL 170020Z 27007KT CAVOK 07/04 Q1026 BECMG BKN012=
201202162350 METAR COR EGLL 162350Z 27008KT 9999 FEW032 07/04 Q1026 NOSIG=
201202162320 METAR COR EGLL 162320Z 28008KT CAVOK 07/04 Q1026 NOSIG=
201202162250 METAR COR EGLL 162250Z 27011KT CAVOK 07/04 Q1026 NOSIG=
201202162220 METAR COR EGLL 162220Z 27013KT CAVOK 07/04 Q1026 NOSIG=
201202162150 METAR COR EGLL 162150Z 27012KT 9999 SCT024 08/03 Q1026 NOSIG=
201202162120 METAR COR EGLL 162120Z 26009KT 9999 FEW025 08/03 Q1026 NOSIG=
201202162050 METAR COR EGLL 162050Z 26008KT 9999 FEW025 08/03 Q1026 NOSIG=
201202162020 METAR COR EGLL 162020Z 28009KT CAVOK 08/03 Q1026 NOSIG=
201202161950 METAR COR EGLL 161950Z 27009KT 9999 FEW034 08/02 Q1026 NOSIG=
201202161920 METAR COR EGLL 161920Z 27013KT 9999 SCT034 09/03 Q1026 NOSIG=
201202161850 METAR COR EGLL 161850Z 27010KT 9999 SCT032 09/02 Q1026 NOSIG=
201202161820 METAR COR EGLL 161820Z 28009KT 9999 BKN035 09/02 Q1026 NOSIG=
201202161750 METAR COR EGLL 161750Z 28008KT 9999 SCT037 09/02 Q1026 NOSIG=
201202161720 METAR COR EGLL 161720Z 28009KT 9999 SCT040 09/02 Q1026 NOSIG=
201202161650 METAR COR EGLL 161650Z 30004KT 9999 FEW042 09/02 Q1026 NOSIG=
201202161620 METAR COR EGLL 161620Z 30008KT 9999 FEW038 SCT044 10/02 Q1026
                        NOSIG=
201202161550 METAR COR EGLL 161550Z 30007KT 9999 FEW045 10/02 Q1026 NOSIG=
201202161520 METAR COR EGLL 161520Z 30007KT 9999 FEW040 10/02 Q1026 NOSIG=
201202161450 METAR COR EGLL 161450Z 31007KT 9999 FEW040 11/02 Q1027 NOSIG=
201202161420 METAR COR EGLL 161420Z 30009KT 9999 SCT035 11/03 Q1027 NOSIG=
201202161350 METAR COR EGLL 161350Z 30007KT 270V350 9999 FEW031 SCT036
                        11/03 Q1027 NOSIG=
201202161320 METAR COR EGLL 161320Z 30010KT 9999 FEW031 SCT037 11/03 Q1027
                        NOSIG=
201202161250 METAR COR EGLL 161250Z 30011KT 9999 FEW032 11/03 Q1027 NOSIG=
201202161220 METAR COR EGLL 161220Z 28010KT 9999 FEW030 11/03 Q1028 NOSIG=
201202161150 METAR COR EGLL 161150Z 29011KT 9999 SCT029 10/03 Q1028 NOSIG=
201202161120 METAR COR EGLL 161120Z 29010KT 9999 FEW031 SCT035 10/03 Q1028
                        NOSIG=
201202161050 METAR COR EGLL 161050Z 27010KT 9999 SCT038 09/02 Q1028 NOSIG=
201202161020 METAR COR EGLL 161020Z 27009KT 9999 BKN037 09/03 Q1029 NOSIG=
201202160950 METAR COR EGLL 160950Z 29007KT 9999 BKN037 09/02 Q1029 NOSIG=
201202160920 METAR COR EGLL 160920Z 30006KT 9999 BKN037 08/02 Q1029 NOSIG=
201202160850 METAR COR EGLL 160850Z 30006KT 9999 BKN043 08/03 Q1029 NOSIG=
201202160820 METAR COR EGLL 160820Z 30004KT 9999 BKN044 07/03 Q1029 NOSIG=
201202160750 METAR COR EGLL 160750Z 29006KT 9999 BKN046 07/03 Q1028 NOSIG=
201202160720 METAR COR EGLL 160720Z 29006KT 9999 BKN045 07/03 Q1028 NOSIG=
201202160650 METAR COR EGLL 160650Z 29005KT 9999 BKN046 06/03 Q1028 NOSIG=
201202160620 METAR COR EGLL 160620Z 28004KT 9999 BKN045 06/03 Q1028 NOSIG=
201202160550 METAR COR EGLL 160550Z 28004KT 9999 BKN045 04/02 Q1028 NOSIG=
201202160520 METAR COR EGLL 160520Z 26005KT 9999 FEW046 04/02 Q1028 NOSIG=
201202160450 METAR COR EGLL 160450Z 26005KT CAVOK 04/01 Q1028 NOSIG=
201202160420 METAR COR EGLL 160420Z 27005KT CAVOK 04/01 Q1028 NOSIG=
201202160350 METAR COR EGLL 160350Z 00000KT CAVOK 05/02 Q1028 NOSIG=
201202160320 METAR COR EGLL 160320Z VRB02KT CAVOK 03/01 Q1028 NOSIG=
201202160250 METAR COR EGLL 160250Z 30005KT CAVOK 04/02 Q1028 NOSIG=
201202160220 METAR EGLL 160220Z AUTO 29006KT 9999 NCD 04/01 Q1028=
201202160150 METAR EGLL 160150Z AUTO 29003KT 9999 NCD 05/01 Q1029=
201202160120 METAR EGLL 160120Z AUTO 32003KT 9999 NCD 06/03 Q1029=
201202160050 METAR COR EGLL 160050Z 29008KT CAVOK 07/03 Q1028 NOSIG=
201202160020 METAR COR EGLL 160020Z 31008KT CAVOK 07/03 Q1028 NOSIG=
201202152350 METAR COR EGLL 152350Z 31006KT 270V340 CAVOK 08/04 Q1028
                        NOSIG=
201202152320 METAR COR EGLL 152320Z 32007KT CAVOK 08/04 Q1028 NOSIG=
201202152250 METAR COR EGLL 152250Z 32009KT CAVOK 08/04 Q1028 NOSIG=
201202152220 METAR COR EGLL 152220Z 32008KT CAVOK 09/04 Q1028 NOSIG=
201202152150 METAR COR EGLL 152150Z 32008KT 9999 BKN049 09/04 Q1028 NOSIG=
201202152120 METAR COR EGLL 152120Z 32007KT 290V360 9999 SCT048 09/04
                        Q1028 NOSIG=
201202152050 METAR COR EGLL 152050Z 32008KT 9999 BKN048 09/04 Q1028 NOSIG=
201202152020 METAR EGLL 152020Z 31008KT 9999 BKN045 09/03 Q1028=
201202151950 METAR COR EGLL 151950Z 30007KT 9999 BKN045 09/03 Q1027 NOSIG=
201202151920 METAR COR EGLL 151920Z 31009KT 9999 BKN047 09/03 Q1027 NOSIG=
201202151850 METAR COR EGLL 151850Z 31008KT 9999 SCT048 09/03 Q1027 NOSIG=
201202151820 METAR COR EGLL 151820Z 31008KT 9999 FEW049 09/04 Q1027 NOSIG=
201202151750 METAR COR EGLL 151750Z 31011KT CAVOK 10/04 Q1026 NOSIG=
201202151720 METAR COR EGLL 151720Z 30010KT 9999 FEW032 SCT049 10/04 Q1026
                        NOSIG=
201202151650 METAR COR EGLL 151650Z 31008KT 280V340 9999 SCT049 10/04
                        Q1026 NOSIG=
201202151620 METAR COR EGLL 151620Z 32011KT 9999 FEW040 SCT049 11/03 Q1026
                        NOSIG=
201202151550 METAR COR EGLL 151550Z 32007KT 290V360 9999 FEW040 SCT048
                        11/02 Q1026 NOSIG=
201202151520 METAR COR EGLL 151520Z 33008KT 310V010 9999 BKN048 11/03
                        Q1026 NOSIG=
201202151450 METAR COR EGLL 151450Z 32007KT 9999 SCT048 11/03 Q1026 NOSIG=
201202151420 METAR COR EGLL 151420Z 33009KT 300V010 9999 FEW035 BKN047
                        11/03 Q1026 NOSIG=
201202151350 METAR COR EGLL 151350Z 32009KT 290V360 9999 FEW034 BKN040
                        11/03 Q1026 NOSIG=
201202151320 METAR COR EGLL 151320Z 34010KT 300V020 9999 SCT035 SCT040
                        11/03 Q1026 TEMPO 34015G25KT=
201202151250 METAR COR EGLL 151250Z 33011G21KT 290V360 9999 FEW033 SCT044
                        11/03 Q1026 TEMPO 33015G25KT=
201202151220 METAR COR EGLL 151220Z 33012KT 290V040 9999 SCT038 11/03
                        Q1026 TEMPO 33015G25KT=
201202151150 METAR COR EGLL 151150Z 32011KT 290V010 9999 SCT033 11/03
                        Q1026 TEMPO 33015G25KT=
201202151120 METAR COR EGLL 151120Z 32011KT 9999 FEW037 11/03 Q1026 NOSIG=
201202151050 METAR COR EGLL 151050Z 33013KT 9999 FEW028 10/03 Q1026 NOSIG=
201202151020 METAR COR EGLL 151020Z 32010KT 300V360 9999 FEW032 10/02
                        Q1026 NOSIG=
201202150950 METAR COR EGLL 150950Z 33009KT 290V360 9999 SCT049 09/02
                        Q1026 NOSIG=
201202150920 METAR COR EGLL 150920Z 32008KT 9999 BKN049 08/02 Q1025 NOSIG=
201202150850 METAR COR EGLL 150850Z 31008KT 280V340 9999 BKN048 08/03
                        Q1025 NOSIG=
201202150820 METAR COR EGLL 150820Z 32008KT 290V350 9999 SCT034 BKN046
                        08/03 Q1025 NOSIG=
201202150750 METAR COR EGLL 150750Z 31008KT 9999 SCT044 BKN049 07/03 Q1025
                        NOSIG=
201202150720 METAR COR EGLL 150720Z 32009KT 290V350 9999 -SHRA SCT033
                        SCT041 07/03 Q1025 NOSIG=
201202150650 METAR COR EGLL 150650Z 32010KT 9999 BKN039 07/03 Q1024 NOSIG=
201202150620 METAR COR EGLL 150620Z 32010KT 9999 BKN037 07/03 Q1024 NOSIG=
201202150550 METAR COR EGLL 150550Z 32010KT 9999 BKN040 07/04 Q1024 NOSIG=
201202150520 METAR COR EGLL 150520Z 32010KT 9999 SCT044 07/04 Q1024 NOSIG=
201202150450 METAR COR EGLL 150450Z 33011KT 9999 -SHRA FEW032 SCT040 07/04
                        Q1024 NOSIG=
201202150420 METAR COR EGLL 150420Z 33011KT 9999 -SHRA FEW040 BKN045 08/04
                        Q1024 NOSIG=
201202150350 METAR COR EGLL 150350Z 32011KT 9999 BKN045 08/04 Q1023 NOSIG=
201202150320 METAR COR EGLL 150320Z 33012KT 9999 BKN045 08/04 Q1023 NOSIG=
201202150250 METAR COR EGLL 150250Z 33012KT 9999 BKN045 07/04 Q1023 NOSIG=
201202150220 METAR EGLL 150220Z AUTO 32011KT 9999 SCT046/// 07/04 Q1023=
201202150150 METAR EGLL 150150Z AUTO 32011G21KT 290V360 9999 NCD 07/04
                        Q1023=
201202150120 METAR EGLL 150120Z AUTO 31011KT 9999 NCD 07/04 Q1023=
201202150050 METAR COR EGLL 150050Z 31009KT 9999 FEW040 07/04 Q1023 NOSIG=
201202150020 METAR COR EGLL 150020Z 31009KT 9999 FEW040 07/04 Q1023 NOSIG=
201202142350 METAR COR EGLL 142350Z 32009KT 290V360 CAVOK 07/04 Q1023
                        NOSIG=
201202142320 METAR COR EGLL 142320Z 31008KT 9999 SCT044 07/04 Q1023 NOSIG=
201202142250 METAR COR EGLL 142250Z 31008KT 280V350 CAVOK 07/03 Q1023
                        NOSIG=
201202142220 METAR EGLL 142220Z 30007KT 9999 FEW048 07/03 Q1023=
201202142150 METAR COR EGLL 142150Z 31006KT CAVOK 07/03 Q1023 NOSIG=
201202142120 METAR COR EGLL 142120Z 31007KT 9999 FEW041 SCT049 07/03 Q1023
                        NOSIG=
201202142050 METAR COR EGLL 142050Z 31007KT 9000 FEW039 07/03 Q1023 NOSIG=
201202142020 METAR COR EGLL 142020Z 32008KT 9000 NSC 07/03 Q1023 NOSIG=
201202141950 METAR COR EGLL 141950Z 32009KT 9999 FEW023 07/03 Q1023 NOSIG=
201202141920 METAR COR EGLL 141920Z 31008KT CAVOK 08/03 Q1023 NOSIG=
201202141850 METAR COR EGLL 141850Z 31009KT CAVOK 08/03 Q1023 NOSIG=
201202141820 METAR COR EGLL 141820Z 32008KT 9999 FEW027 08/03 Q1023 NOSIG=
201202141750 METAR COR EGLL 141750Z 31007KT 280V350 9999 FEW027 08/03
                        Q1023 NOSIG=
201202141720 METAR COR EGLL 141720Z 31008KT CAVOK 08/02 Q1023 NOSIG=
201202141650 METAR COR EGLL 141650Z 31007KT CAVOK 08/02 Q1024 NOSIG=
201202141620 METAR COR EGLL 141620Z 31008KT CAVOK 09/02 Q1024 NOSIG=
201202141550 METAR COR EGLL 141550Z 31008KT CAVOK 08/02 Q1024 NOSIG=
201202141520 METAR COR EGLL 141520Z 32009KT CAVOK 09/02 Q1024 NOSIG=
201202141450 METAR COR EGLL 141450Z 32009KT CAVOK 09/02 Q1024 NOSIG=
201202141420 METAR COR EGLL 141420Z 31009KT CAVOK 09/02 Q1024 NOSIG=
201202141350 METAR COR EGLL 141350Z 29009KT CAVOK 08/02 Q1025 NOSIG=
201202141320 METAR COR EGLL 141320Z 31007KT 280V350 CAVOK 08/02 Q1025
                        NOSIG=
201202141250 METAR COR EGLL 141250Z 31009KT 9999 FEW037 08/02 Q1026 NOSIG=
201202141220 METAR COR EGLL 141220Z 32007KT 9999 FEW037 07/01 Q1026 NOSIG=
201202141150 METAR COR EGLL 141150Z 33007KT 290V010 9999 FEW040 07/01
                        Q1026 NOSIG=
201202141120 METAR COR EGLL 141120Z 33007KT 290V030 9999 FEW037 07/01
                        Q1027 NOSIG=
201202141050 METAR COR EGLL 141050Z 33005KT 290V010 9999 FEW036 06/01
                        Q1027 NOSIG=
201202141020 METAR COR EGLL 141020Z 32005KT 290V030 9999 FEW040 05/00
                        Q1026 NOSIG=
201202140950 METAR COR EGLL 140950Z 32005KT 290V360 9999 FEW040 05/00
                        Q1026 NOSIG=
201202140920 METAR COR EGLL 140920Z 33005KT 290V030 9999 SCT037 05/01
                        Q1027 NOSIG=
201202140850 METAR COR EGLL 140850Z 33005KT 300V360 9999 SCT039 05/01
                        Q1027 NOSIG=
201202140820 METAR COR EGLL 140820Z 35006KT 320V030 CAVOK 05/01 Q1026
                        NOSIG=
201202140750 METAR COR EGLL 140750Z 34007KT 310V020 9999 FEW028 SCT034
                        05/01 Q1026 NOSIG=
201202140720 METAR COR EGLL 140720Z 33007KT 300V360 9999 SCT027 BKN035
                        05/01 Q1026 NOSIG=
201202140650 METAR COR EGLL 140650Z 33006KT 9999 FEW027 SCT040 04/01 Q1025
                        NOSIG=
201202140620 METAR COR EGLL 140620Z 34005KT 300V010 9999 FEW020 SCT037
                        05/01 Q1025 NOSIG=
201202140550 METAR COR EGLL 140550Z 34007KT 310V010 9999 FEW020 BKN038
                        05/01 Q1025 NOSIG=
201202140520 METAR COR EGLL 140520Z 36007KT 320V030 9999 FEW020 SCT025
                        BKN043 05/01 Q1026 NOSIG=
201202140450 METAR COR EGLL 140450Z 35007KT 310V020 9999 FEW022 SCT026
                        BKN047 05/01 Q1025 NOSIG=
201202140420 METAR COR EGLL 140420Z 35007KT 9999 SCT027 SCT039 05/01 Q1025
                        NOSIG=
201202140350 METAR COR EGLL 140350Z 35008G18KT 330V040 9999 FEW022 BKN044
                        05/01 Q1025 NOSIG=
201202140320 METAR COR EGLL 140320Z 35006KT 320V020 9999 SCT023 BKN044
                        05/01 Q1024 NOSIG=
201202140250 METAR COR EGLL 140250Z 35008KT 9999 FEW022 BKN044 05/01 Q1024
                        NOSIG=
201202140220 METAR EGLL 140220Z AUTO 35007KT 310V020 9999 SCT023/// BKN041///
                        05/01 Q1025=
201202140150 METAR EGLL 140150Z AUTO 35008KT 320V020 9999 FEW028/// SCT032///
                        BKN045/// 05/01 Q1025=
201202140120 METAR COR EGLL 140120Z AUTO 35008KT 320V020 9999 SCT024///
                        BKN037/// 06/02 Q1025=
201202140050 METAR COR EGLL 140050Z 35009KT 320V030 9999 SCT023 SCT031
                        06/02 Q1025 NOSIG=
201202140020 METAR COR EGLL 140020Z 35007KT 310V020 9999 SCT028 SCT045
                        06/02 Q1025 NOSIG=
201202132350 METAR COR EGLL 132350Z 35008KT 310V040 9999 BKN028 SCT039
                        06/02 Q1025 NOSIG=
201202132320 METAR COR EGLL 132320Z 34007KT 9999 FEW029 BKN040 06/02 Q1024
                        NOSIG=
201202132250 METAR COR EGLL 132250Z 33006KT 9999 FEW028 BKN044 05/03 Q1024
                        NOSIG=
201202132220 METAR COR EGLL 132220Z 33007KT 9999 FEW029 BKN044 06/03 Q1024
                        NOSIG=
201202132150 METAR COR EGLL 132150Z 32006KT 9999 FEW027 SCT049 06/03 Q1024
                        NOSIG=
201202132120 METAR COR EGLL 132120Z 33005KT 290V360 9999 FEW024 SCT028
                        06/03 Q1024 NOSIG=
201202132050 METAR COR EGLL 132050Z 32006KT 9999 -SHRA SCT029 06/03 Q1024
                        NOSIG=
201202132020 METAR COR EGLL 132020Z 32005KT 9999 FEW047 06/03 Q1024 NOSIG=
201202131950 METAR COR EGLL 131950Z 32006KT 9999 SCT041 06/03 Q1024 NOSIG=
201202131920 METAR COR EGLL 131920Z 32006KT 290V360 9999 SCT034 06/03
                        Q1024 NOSIG=
201202131850 METAR COR EGLL 131850Z 33004KT 300V360 9999 FEW032 06/04
                        Q1024 NOSIG=
201202131820 METAR COR EGLL 131820Z 32007KT 290V350 9999 FEW019 SCT032
                        06/04 Q1023 NOSIG=
201202131750 METAR COR EGLL 131750Z 32007KT 9999 SCT032 07/04 Q1023 NOSIG=
201202131720 METAR COR EGLL 131720Z 32008KT 9999 FEW026 BKN038 07/04 Q1023
                        NOSIG=
201202131650 METAR COR EGLL 131650Z 32008KT 9999 -RA FEW017 BKN035 07/04
                        Q1023 NOSIG=
201202131620 METAR EGLL 131620Z 29007KT 9999 FEW017 SCT021 BKN036 06/04
                        Q1023=
201202131550 METAR COR EGLL 131550Z 31007KT 7000 -RA SCT020 BKN028 06/04
                        Q1023 NOSIG=
201202131520 METAR COR EGLL 131520Z 30008KT 9999 BKN020 06/04 Q1024 NOSIG=
201202131450 METAR COR EGLL 131450Z 29009KT 9999 -RA FEW020 BKN023 07/03
                        Q1024 NOSIG=
201202131420 METAR COR EGLL 131420Z 29010KT 9999 SCT023 SCT027 07/03 Q1024
                        NOSIG=
201202131350 METAR COR EGLL 131350Z 30010KT 9999 SCT023 SCT026 07/03 Q1024
                        NOSIG=
201202131320 METAR COR EGLL 131320Z 30012KT 9999 -RA FEW025 BKN046 07/02
                        Q1025 NOSIG=
201202131250 METAR COR EGLL 131250Z 30011KT 9999 FEW020 BKN028 BKN047
                        07/02 Q1026 NOSIG=
201202131220 METAR COR EGLL 131220Z 30010KT 9999 SCT027 BKN037 07/02 Q1026
                        NOSIG=
201202131150 METAR COR EGLL 131150Z 29010KT 9000 FEW032 BKN039 BKN048
                        07/03 Q1026 NOSIG=
201202131120 METAR COR EGLL 131120Z 28009KT 8000 FEW022 SCT047 06/03 Q1027
                        NOSIG=
201202131050 METAR COR EGLL 131050Z 29009KT 6000 SCT046 05/03 Q1027 NOSIG=
201202131020 METAR COR EGLL 131020Z 28010KT 6000 BKN046 05/03 Q1027 NOSIG=
201202130950 METAR COR EGLL 130950Z 28008KT 5000 BR FEW020 SCT032 04/03
                        Q1028 NOSIG=
201202130920 METAR COR EGLL 130920Z 27008KT 2500 BR FEW006 BKN047 04/02
                        Q1028 BECMG 5000 BKN008=
201202130850 METAR COR EGLL 130850Z 27008KT 1900 BR SCT003 BKN041 03/02
                        Q1029 BECMG 4000 BKN007=
201202130820 METAR COR EGLL 130820Z 27008KT 1200 R27R/P1500 R27L/P1500
                        BR SCT002 SCT003 BKN041 03/02 Q1029
                        BECMG 3500 BKN007=
201202130750 METAR COR EGLL 130750Z 28005KT 1000 R27R/P1500 R27L/P1500
                        BR BKN002 BKN003 BKN004 02/02 Q1030
                        BECMG 3500 SCT003 BKN006=
201202130720 METAR COR EGLL 130720Z 27008KT 0700 R27R/P1500 R27L/P1500
                        BR BKN001 BKN002 03/02 Q1030 BECMG
                        3000 SCT002 BKN005=
201202130650 METAR COR EGLL 130650Z 28007KT 0700 R27R/P1500 R27L/P1500
                        BR BKN001 BKN002 BKN004 03/02 Q1030
                        BECMG 3000 BR BKN004=
201202130620 METAR COR EGLL 130620Z 28005KT 1900 BR BKN002 BKN003 03/02
                        Q1030 BECMG 5000 HZ BKN005=
201202130550 METAR COR EGLL 130550Z 29006KT 3000 BR FEW002 BKN003 03/02
                        Q1031 BECMG 5000 BR BKN006=
201202130520 METAR COR EGLL 130520Z 29006KT 2200 BR BKN003 BKN038 02/01
                        Q1031 BECMG 5000 BKN006=
201202130450 METAR COR EGLL 130450Z 28006KT 2500 BR FEW002 BKN004 BKN039
                        03/02 Q1031 BECMG 5000 SCT004 BKN006=
201202130420 METAR COR EGLL 130420Z 29006KT 2500 BR FEW002 SCT004 BKN038
                        02/01 Q1031 TEMPO BKN004=
201202130350 METAR COR EGLL 130350Z 28004KT 3000 BR BKN039 01/00 Q1031
                        TEMPO 5000=
201202130320 METAR COR EGLL 130320Z 29003KT 3500 BR BKN040 01/M00 Q1031
                        TEMPO 5000=
201202130250 METAR COR EGLL 130250Z 28003KT 5000 BR BKN040 01/M00 Q1032
                        TEMPO 3000=
201202130220 METAR EGLL 130220Z AUTO 30003KT 2900 HZ BKN040/// 02/00 Q1032=
201202130150 METAR EGLL 130150Z AUTO 32003KT 3600 HZ BKN042/// 02/01 Q1033=
201202130120 METAR EGLL 130120Z AUTO VRB02KT 4000 HZ OVC042/// 03/01 Q1033=
201202130050 METAR COR EGLL 130050Z VRB02KT 4400 HZ BKN045 03/01 Q1033
                        NOSIG=
201202130020 METAR COR EGLL 130020Z 32004KT 290V360 4800 HZ OVC047 03/01
                        Q1034 TEMPO 5000 HZ=
201202122350 METAR COR EGLL 122350Z 31004KT 4500 BR FEW042 BKN048 03/02
                        Q1034 TEMPO 5000 HZ=
201202122320 METAR COR EGLL 122320Z 31004KT 5000 BR SCT034 OVC045 04/02
                        Q1034 TEMPO 4500 BR=
201202122250 METAR COR EGLL 122250Z 29004KT 7000 SCT033 SCT037 BKN045
                        04/02 Q1034 NOSIG=
201202122220 METAR COR EGLL 122220Z VRB03KT 8000 SCT034 BKN041 05/02 Q1034
                        NOSIG=
201202122150 METAR COR EGLL 122150Z VRB03KT 8000 BKN039 04/02 Q1034 NOSIG=
201202122120 METAR COR EGLL 122120Z VRB03KT 8000 BKN040 05/02 Q1034 TEMPO
                        4000 HZ=
201202122050 METAR EGLL 122050Z VRB03KT 7000 BKN028 BKN038 04/02 Q1034=
201202122020 METAR COR EGLL 122020Z VRB02KT 7000 BKN028 BKN036 05/02 Q1034
                        TEMPO 4000=
201202121950 METAR COR EGLL 121950Z 35003KT 7000 SCT027 BKN035 04/02 Q1034
                        TEMPO 4000=
201202121920 METAR COR EGLL 121920Z 36004KT 330V050 8000 BKN025 04/02
                        Q1033 TEMPO 4000=
201202121850 METAR COR EGLL 121850Z 35004KT 320V030 7000 SCT024 BKN040
                        04/02 Q1033 TEMPO 4000=
201202121820 METAR COR EGLL 121820Z 34004KT 290V020 7000 FEW030 BKN042
                        05/02 Q1033 TEMPO 4500=
201202121750 METAR COR EGLL 121750Z 30004KT 7000 FEW029 BKN049 05/02 Q1033
                        TEMPO 4500 BR=
201202121720 METAR COR EGLL 121720Z VRB03KT 7000 FEW025 05/02 Q1033 TEMPO
                        4500=
201202121650 METAR COR EGLL 121650Z VRB03KT 8000 BKN024 05/02 Q1033 NOSIG=
201202121620 METAR COR EGLL 121620Z 32004KT 290V360 8000 BKN009 BKN018
                        05/02 Q1033 TEMPO SCT010 BKN018=
201202121550 METAR COR EGLL 121550Z VRB03KT 9000 BKN011 05/02 Q1033 TEMPO
                        SCT011 BKN018=
201202121520 METAR COR EGLL 121520Z 34004KT 310V030 8000 SCT010 BKN020
                        05/02 Q1033 TEMPO BKN012=
201202121450 METAR COR EGLL 121450Z 33006KT 300V360 7000 SCT009 BKN019
                        05/02 Q1033 TEMPO BKN012=
201202121420 METAR COR EGLL 121420Z 32005KT 290V010 7000 BKN010 05/02
                        Q1033 NOSIG=
201202121350 METAR COR EGLL 121350Z 33006KT 300V360 6000 -RA SCT007 BKN009
                        05/02 Q1033 TEMPO SCT009 BKN014=
201202121320 METAR COR EGLL 121320Z 35005KT 300V030 9000 FEW007 BKN009
                        05/02 Q1034 TEMPO 4500 SCT006 BKN011=
201202121250 METAR COR EGLL 121250Z 34006KT 300V010 5000 HZ BKN009 05/02
                        Q1034 TEMPO SCT009 BKN014=
201202121220 METAR COR EGLL 121220Z 30004KT 4500 HZ BKN009 04/01 Q1034
                        BECMG BKN013=
201202121150 METAR COR EGLL 121150Z 29004KT 270V330 4200 HZ BKN011 03/00
                        Q1034 TEMPO SCT011 BKN018=
201202121120 METAR COR EGLL 121120Z 30004KT 4100 HZ BKN012 03/00 Q1035
                        TEMPO SCT012 BKN020=
201202121050 METAR COR EGLL 121050Z VRB03KT 4000 HZ BKN018 BKN033 02/M01
                        Q1035 TEMPO BKN010=
201202121020 METAR COR EGLL 121020Z 29004KT 4000 HZ BKN017 SCT032 01/M02
                        Q1035 TEMPO BKN012=
201202120950 METAR COR EGLL 120950Z 29005KT 4100 HZ SCT007 SCT012 BKN033
                        M01/M03 Q1035 TEMPO BKN010=
201202120920 METAR COR EGLL 120920Z 27005KT 3900 HZ SCT007 BKN012 M02/M04
                        Q1035 TEMPO BKN007=
201202120850 METAR COR EGLL 120850Z 27004KT 230V310 3900 HZ BKN014 M02/M04
                        Q1035 TEMPO BKN008=
201202120820 METAR COR EGLL 120820Z 29004KT 3900 HZ BKN014 BKN019 M02/M05
                        Q1035 TEMPO BKN008=
201202120750 METAR COR EGLL 120750Z 29004KT 4000 HZ BKN012 BKN022 M03/M05
                        Q1035 BECMG BKN008=
201202120720 METAR COR EGLL 120720Z 28003KT 3900 HZ BKN014 M03/M05 Q1035
                        BECMG BKN008=
201202120650 METAR COR EGLL 120650Z VRB03KT 3700 HZ FEW014 BKN016 M03/M05
                        Q1035 BECMG BKN007=
201202120620 METAR COR EGLL 120620Z VRB03KT 3600 BR SCT011 BKN025 M04/M06
                        Q1035 BECMG BKN007=
201202120550 METAR COR EGLL 120550Z 27002KT 3300 BR BKN012 M04/M06 Q1035
                        BECMG BKN007=
201202120520 METAR COR EGLL 120520Z 26003KT 3300 HZ BKN014 M04/M06 Q1035
                        BECMG BKN007=
201202120450 METAR COR EGLL 120450Z 24004KT 2800 BR SCT012 BKN024 M04/M06
                        Q1035 BECMG BKN012=
201202120420 METAR COR EGLL 120420Z 26003KT 2900 BR BKN026 M05/M07 Q1035
                        BECMG BKN014=
201202120350 METAR COR EGLL 120350Z 29004KT 3200 BR NSC M06/M07 Q1035
                        NOSIG=
201202120320 METAR COR EGLL 120320Z 32004KT 2500 BR NSC M06/M07 Q1036
                        NOSIG=
201202120250 METAR COR EGLL 120250Z 31004KT 2500 BR NSC M06/M07 Q1035
                        NOSIG=
201202120220 METAR EGLL 120220Z AUTO 31002KT 2100 HZ NCD M06/M08 Q1036=
201202120150 METAR EGLL 120150Z AUTO 28003KT 2900 HZ NCD M06/M08 Q1036=
201202120120 METAR EGLL 120120Z AUTO 29002KT 2700 HZ NCD M06/M08 Q1036=
201202120050 METAR COR EGLL 120050Z 28003KT 4000 BR NSC M05/M07 Q1036
                        NOSIG=
201202120020 METAR COR EGLL 120020Z 27003KT 5000 HZ NSC M06/M08 Q1037
                        BECMG 3000 BR=
201202112350 METAR COR EGLL 112350Z 00000KT 4900 HZ NSC M04/M06 Q1037
                        NOSIG=
201202112320 METAR COR EGLL 112320Z VRB02KT 4600 HZ NSC M03/M06 Q1037
                        NOSIG=
201202112250 METAR COR EGLL 112250Z 35003KT 5000 BR NSC M03/M06 Q1037
                        BECMG 3500=
201202112220 METAR COR EGLL 112220Z VRB02KT 6000 NSC M02/M05 Q1036 NOSIG=
201202112150 METAR COR EGLL 112150Z 36004KT 6000 NSC M01/M05 Q1036 NOSIG=
201202112120 METAR COR EGLL 112120Z 36002KT 6000 NSC M01/M05 Q1037 NOSIG=
201202112050 METAR COR EGLL 112050Z 36002KT 6000 NSC M02/M05 Q1037 NOSIG=
201202112020 METAR COR EGLL 112020Z 01002KT 7000 NSC M01/M05 Q1037 NOSIG=
201202111950 METAR COR EGLL 111950Z 00000KT 7000 NSC M01/M06 Q1037 NOSIG=
201202111920 METAR COR EGLL 111920Z VRB02KT 7000 NSC M00/M06 Q1036 NOSIG=
201202111850 METAR COR EGLL 111850Z 36003KT 8000 NSC 00/M06 Q1036 NOSIG=
201202111820 METAR COR EGLL 111820Z 01003KT 8000 NSC 00/M06 Q1036 NOSIG=
201202111750 METAR COR EGLL 111750Z VRB03KT 7000 NSC 00/M05 Q1036 NOSIG=
201202111720 METAR COR EGLL 111720Z VRB03KT 9000 NSC 00/M05 Q1036 NOSIG=
201202111650 METAR COR EGLL 111650Z VRB03KT 9000 NSC 01/M05 Q1036 NOSIG=
201202111620 METAR COR EGLL 111620Z 36004KT 8000 NSC 02/M05 Q1036 NOSIG=
201202111550 METAR COR EGLL 111550Z 35004KT 300V020 8000 NSC 02/M05 Q1036
                        NOSIG=
201202111520 METAR COR EGLL 111520Z 36004KT 8000 NSC 02/M05 Q1036 NOSIG=
201202111450 METAR COR EGLL 111450Z 35004KT 300V040 8000 NSC 02/M05 Q1036
                        NOSIG=
201202111420 METAR COR EGLL 111420Z 31004KT 260V010 8000 NSC 02/M04 Q1036
                        NOSIG=
201202111350 METAR EGLL 111350Z VRB03KT 8000 NSC 01/M05 Q1036=
201202111320 METAR COR EGLL 111320Z VRB02KT 7000 FEW049 01/M05 Q1036 NOSIG=
201202111250 METAR COR EGLL 111250Z VRB03KT 7000 NSC 01/M04 Q1036 NOSIG=
201202111220 METAR COR EGLL 111220Z VRB03KT 7000 NSC 01/M04 Q1037 NOSIG=
201202111150 METAR COR EGLL 111150Z VRB02KT 6000 NSC M00/M05 Q1037 NOSIG=
201202111120 METAR COR EGLL 111120Z VRB02KT 6000 NSC M01/M05 Q1037 NOSIG=
201202111050 METAR COR EGLL 111050Z VRB02KT 6000 NSC M02/M05 Q1037 NOSIG=
201202111020 METAR COR EGLL 111020Z 00000KT 6000 NSC M03/M06 Q1037 NOSIG=
201202110950 METAR EGLL 110950Z VRB02KT 6000 NSC M04/M06 Q1037=
201202110920 METAR COR EGLL 110920Z 36002KT 6000 NSC M05/M07 Q1037 NOSIG=
201202110850 METAR COR EGLL 110850Z 32002KT 6000 NSC M06/M07 Q1037 NOSIG=
201202110820 METAR EGLL 110820Z VRB02KT 6000 NSC M07/M09 Q1037=
201202110750 METAR COR EGLL 110750Z 06002KT 6000 NSC M07/M09 Q1037 NOSIG=
201202110720 METAR COR EGLL 110720Z 35003KT 6000 NSC M07/M09 Q1037 NOSIG=
201202110650 METAR COR EGLL 110650Z 00000KT 7000 NSC M07/M09 Q1036 NOSIG=
201202110620 METAR COR EGLL 110620Z VRB02KT 7000 NSC M07/M09 Q1036 NOSIG=
201202110550 METAR COR EGLL 110550Z 35003KT 7000 NSC M06/M08 Q1036 NOSIG=
201202110520 METAR COR EGLL 110520Z VRB03KT 8000 NSC M06/M08 Q1036 NOSIG=
201202110450 METAR COR EGLL 110450Z 36003KT 8000 NSC M06/M08 Q1036 NOSIG=
201202110420 METAR COR EGLL 110420Z 00000KT 8000 NSC M06/M08 Q1036 NOSIG=
201202110350 METAR EGLL 110350Z AUTO 36003KT 7000 NCD M06/M08 Q1036=
201202110320 METAR EGLL 110320Z AUTO 01003KT 7000 NCD M06/M08 Q1036=
201202110250 METAR EGLL 110250Z AUTO 36003KT 8000 NCD M05/M07 Q1036=
201202110220 METAR COR EGLL 110220Z 36004KT 8000 NSC M05/M07 Q1037 NOSIG=
201202110150 METAR COR EGLL 110150Z VRB02KT 8000 NSC M05/M07 Q1037 NOSIG=
201202110120 METAR COR EGLL 110120Z 04004KT 9000 FEW023 M05/M07 Q1037
                        NOSIG=
201202110050 METAR COR EGLL 110050Z 05003KT 9999 FEW025 M04/M07 Q1037
                        NOSIG=
201202110020 METAR COR EGLL 110020Z 05003KT CAVOK M04/M07 Q1037 NOSIG=
201202102350 METAR COR EGLL 102350Z 04005KT CAVOK M03/M07 Q1037 NOSIG=
201202102320 METAR COR EGLL 102320Z 04005KT CAVOK M03/M07 Q1037 NOSIG=
201202102250 METAR COR EGLL 102250Z 04005KT CAVOK M03/M07 Q1037 NOSIG=
201202102220 METAR COR EGLL 102220Z 04004KT CAVOK M02/M06 Q1037 NOSIG=
201202102150 METAR COR EGLL 102150Z VRB02KT CAVOK M02/M06 Q1037 NOSIG=
201202102120 METAR COR EGLL 102120Z 01002KT CAVOK M01/M06 Q1037 NOSIG=
201202102050 METAR COR EGLL 102050Z 06002KT CAVOK M02/M06 Q1037 NOSIG=
201202102020 METAR COR EGLL 102020Z 05004KT CAVOK M03/M07 Q1037 NOSIG=
201202101950 METAR COR EGLL 101950Z 09004KT CAVOK M03/M07 Q1037 NOSIG=
201202101920 METAR COR EGLL 101920Z 09005KT CAVOK M03/M07 Q1037 NOSIG=
201202101850 METAR COR EGLL 101850Z 09004KT CAVOK M02/M07 Q1037 NOSIG=
201202101820 METAR COR EGLL 101820Z 11004KT CAVOK M01/M07 Q1037 NOSIG=
201202101750 METAR COR EGLL 101750Z 13005KT CAVOK M01/M07 Q1037 NOSIG=
201202101720 METAR COR EGLL 101720Z 13005KT CAVOK M01/M07 Q1037 NOSIG=
201202101650 METAR COR EGLL 101650Z 11005KT 9999 FEW030 M00/M06 Q1037
                        NOSIG=
201202101620 METAR EGLL 101620Z 09005KT 9999 FEW031 01/M06 Q1037=
201202101550 METAR COR EGLL 101550Z 16004KT 9999 FEW030 01/M06 Q1037 NOSIG=
201202101520 METAR COR EGLL 101520Z 16005KT 9999 SCT030 01/M05 Q1037 NOSIG=
201202101450 METAR COR EGLL 101450Z 16006KT 9999 BKN030 01/M06 Q1037 NOSIG=
201202101420 METAR COR EGLL 101420Z 14006KT 100V170 9999 BKN029 02/M05
                        Q1038 NOSIG=
201202101350 METAR COR EGLL 101350Z 10005KT 9999 BKN028 02/M04 Q1038 NOSIG=
201202101320 METAR COR EGLL 101320Z 13007KT 100V180 9999 BKN027 02/M04
                        Q1038 NOSIG=
201202101250 METAR COR EGLL 101250Z 15006KT 9999 BKN027 01/M04 Q1039 NOSIG=
201202101220 METAR COR EGLL 101220Z 12007KT 9999 BKN025 01/M04 Q1039 NOSIG=
201202101150 METAR COR EGLL 101150Z 12008KT 9999 BKN028 01/M04 Q1039 NOSIG=
201202101120 METAR COR EGLL 101120Z 15010KT 9999 FEW017 BKN026 01/M04
                        Q1039 NOSIG=
201202101050 METAR COR EGLL 101050Z 14008KT 9999 FEW016 BKN027 01/M02
                        Q1039 NOSIG=
201202101020 METAR COR EGLL 101020Z 11007KT 6000 FEW012 BKN028 01/M01
                        Q1038 NOSIG=
201202100950 METAR COR EGLL 100950Z 11007KT 4200 HZ FEW010 BKN028 00/M01
                        Q1038 BECMG 6000 NSW=
201202100920 METAR COR EGLL 100920Z 11005KT 4400 HZ SCT015 BKN029 00/M01
                        Q1038 BECMG 6000 NSW=
201202100850 METAR COR EGLL 100850Z 10004KT 4500 HZ SCT022 BKN029 M00/M01
                        Q1038 BECMG 6000 NSW=
201202100820 METAR EGLL 100820Z 09005KT 4600 HZ BKN032 M00/M01 Q1038=
201202100750 METAR COR EGLL 100750Z 09005KT 4500 HZ BKN033 M01/M02 Q1038
                        BECMG 6000 NSW=
201202100720 METAR COR EGLL 100720Z 09005KT 4700 HZ BKN034 M01/M02 Q1038
                        BECMG 6000 NSW=
201202100650 METAR COR EGLL 100650Z 09005KT 4500 HZ BKN037 M01/M02 Q1038
                        BECMG 6000 NSW=
201202100620 METAR COR EGLL 100620Z 09005KT 4000 HZ BKN032 M01/M02 Q1037
                        BECMG 6000 NSW=
201202100550 METAR COR EGLL 100550Z 09005KT 3000 HZ FEW032 M02/M02 Q1037
                        NOSIG=
201202100520 METAR EGLL 100520Z 08003KT 3000 HZ NSC M02/M03 Q1037=
201202100450 METAR COR EGLL 100450Z 09004KT 3000 BR NSC M02/M03 Q1037
                        NOSIG=
201202100420 METAR COR EGLL 100420Z 14004KT 4400 BR NSC M01/M02 Q1037
                        NOSIG=
201202100350 METAR COR EGLL 100350Z 13005KT 4500 -SN SCT030 M01/M01 Q1038
                        BECMG 7000=
201202100320 METAR COR EGLL 100320Z 10004KT 2500 -SN SCT031 M01/M01 Q1038
                        NOSIG=
201202100250 METAR EGLL 100250Z AUTO 10005KT 2000 -SN BKN018/// M00/M01
                        Q1038=
201202100220 METAR EGLL 100220Z AUTO 11007KT 1700 -SN SCT008/// SCT013///
                        M00/M01 Q1038=
201202100150 METAR COR EGLL 100150Z AUTO 10006KT 1900 -SN FEW016/// SCT034///
                        M00/M01 Q1038=
201202100120 METAR COR EGLL 100120Z 10006KT 2300 -SN BKN033 M01/M01 Q1038
                        NOSIG=
201202100050 METAR COR EGLL 100050Z 12006KT 3000 -SN FEW025 BKN030 M01/M01
                        Q1038 NOSIG=
201202100020 METAR COR EGLL 100020Z 11006KT 1600 -SN BKN010 M00/M01 Q1038
                        TEMPO 4000=
201202092350 METAR COR EGLL 092350Z 14006KT 1200 R27L/P1500 -SN BKN009
                        M00/M01 Q1038 RESN TEMPO 3000=
201202092320 METAR COR EGLL 092320Z 13006KT 1200 R27L/P1500 SN OVC005
                        M00/M01 Q1038 TEMPO 4000 -SN=
201202092250 METAR COR EGLL 092250Z 13006KT 1200 R27R/P1500 R27L/P1500
                        SN OVC003 00/M01 Q1038 TEMPO 4000
                        -SN BKN008=
201202092220 METAR COR EGLL 092220Z 13005KT 100V170 0800 R27R/P1500 R27L/P1500
                        SN BKN003 00/M01 Q1038 RESN TEMPO
                        3000 -SN BKN008=
201202092150 METAR COR EGLL 092150Z 14005KT 090V170 1000 R27R/P1500 R27L/P1500
                        SN SCT004 BKN008 00/M01 Q1038 TEMPO
                        4000 -SN=
201202092120 METAR COR EGLL 092120Z 15005KT 2500 -SN BKN010 01/M02 Q1038
                        NOSIG=
201202092050 METAR COR EGLL 092050Z 14005KT 110V180 3300 -SN BKN010 01/M02
                        Q1038 NOSIG=
201202092020 METAR COR EGLL 092020Z 14004KT 120V180 7000 -SN SCT034 01/M03
                        Q1038 TEMPO 4000 BKN014=
201202091950 METAR COR EGLL 091950Z VRB02KT 8000 -SN SCT034 01/M03 Q1038
                        TEMPO 4000 BKN014=
201202091920 METAR COR EGLL 091920Z VRB03KT 8000 NSC 01/M03 Q1038 TEMPO
                        4000 -SN BKN014=
201202091850 METAR COR EGLL 091850Z 07003KT 8000 NSC 01/M04 Q1038 TEMPO
                        4500 -SN BKN014=
201202091820 METAR COR EGLL 091820Z 00000KT 9000 NSC 01/M04 Q1038 TEMPO
                        4500 -SN BKN014=
201202091750 METAR COR EGLL 091750Z VRB02KT 9000 NSC 01/M04 Q1038 NOSIG=
201202091720 METAR COR EGLL 091720Z 36003KT 9000 NSC 01/M04 Q1038 NOSIG=
201202091650 METAR COR EGLL 091650Z VRB02KT 8000 NSC 01/M04 Q1038 NOSIG=
201202091620 METAR COR EGLL 091620Z VRB02KT 9000 FEW020 01/M04 Q1038 NOSIG=
201202091550 METAR COR EGLL 091550Z VRB03KT 9999 FEW019 01/M04 Q1038 NOSIG=
201202091520 METAR COR EGLL 091520Z VRB03KT 9999 FEW020 01/M04 Q1038 NOSIG=
201202091450 METAR COR EGLL 091450Z 30004KT 260V360 9999 FEW020 01/M04
                        Q1038 NOSIG=
201202091420 METAR COR EGLL 091420Z 25004KT 220V300 9999 FEW020 01/M04
                        Q1038 NOSIG=
201202091350 METAR COR EGLL 091350Z 20004KT 180V260 9999 FEW017 01/M04
                        Q1038 NOSIG=
201202091320 METAR COR EGLL 091320Z VRB02KT 9999 BKN017 01/M04 Q1039 NOSIG=
201202091250 METAR COR EGLL 091250Z VRB02KT 9999 BKN015 00/M04 Q1039 NOSIG=
201202091220 METAR COR EGLL 091220Z VRB02KT 9999 BKN016 00/M04 Q1039 NOSIG=
201202091150 METAR COR EGLL 091150Z 00000KT 9999 BKN015 00/M04 Q1039 NOSIG=
201202091120 METAR COR EGLL 091120Z 00000KT 9999 BKN014 M00/M04 Q1039
                        BECMG BKN017=
201202091050 METAR COR EGLL 091050Z VRB02KT 9999 BKN014 M00/M04 Q1040
                        BECMG BKN017=
201202091020 METAR COR EGLL 091020Z VRB03KT 9999 BKN012 M01/M04 Q1040
                        BECMG BKN017=
201202090950 METAR COR EGLL 090950Z 00000KT 9999 BKN014 M01/M04 Q1040
                        BECMG BKN017=
201202090920 METAR COR EGLL 090920Z VRB02KT 9999 BKN014 M01/M04 Q1040
                        BECMG BKN017=
201202090850 METAR COR EGLL 090850Z 00000KT 9999 BKN013 M01/M04 Q1040
                        BECMG BKN015=
201202090820 METAR COR EGLL 090820Z 35003KT 9999 BKN012 M01/M04 Q1040
                        NOSIG=
201202090750 METAR COR EGLL 090750Z VRB03KT 9999 BKN012 M01/M04 Q1040
                        NOSIG=
201202090720 METAR COR EGLL 090720Z VRB03KT 9999 OVC013 M01/M04 Q1040
                        BECMG BKN015=
201202090650 METAR COR EGLL 090650Z VRB03KT 9999 OVC012 M01/M04 Q1039
                        NOSIG=
201202090620 METAR COR EGLL 090620Z 34004KT 300V010 9999 BKN012 M01/M04
                        Q1039 NOSIG=
201202090550 METAR COR EGLL 090550Z VRB03KT 9999 BKN012 M01/M04 Q1039
                        NOSIG=
201202090520 METAR COR EGLL 090520Z 36004KT 9999 BKN013 M01/M04 Q1039
                        NOSIG=
201202090450 METAR COR EGLL 090450Z 33004KT 9999 BKN013 M01/M04 Q1040
                        NOSIG=
201202090420 METAR COR EGLL 090420Z VRB03KT 9999 BKN014 M01/M04 Q1040
                        NOSIG=
201202090350 METAR COR EGLL 090350Z VRB02KT 9999 BKN014 M00/M04 Q1040
                        NOSIG=
201202090320 METAR COR EGLL 090320Z VRB03KT 9999 OVC014 M00/M03 Q1040
                        NOSIG=
201202090250 METAR COR EGLL 090250Z VRB03KT 9999 OVC014 M00/M03 Q1040
                        NOSIG=
201202090220 METAR EGLL 090220Z AUTO VRB03KT 9999 BKN014/// M00/M03 Q1040=
201202090150 METAR EGLL 090150Z AUTO 03004KT 360V070 9999 BKN014/// M00/M03
                        Q1040=
201202090120 METAR EGLL 090120Z AUTO 05004KT 010V090 9999 OVC013/// M00/M03
                        Q1041=
201202090050 METAR COR EGLL 090050Z 04004KT 350V070 9999 OVC014 M00/M03
                        Q1041 NOSIG=
201202090020 METAR EGLL 090020Z 05004KT 010V080 9999 OVC014 M00/M03 Q1041=
201202082350 METAR COR EGLL 082350Z 06005KT 9999 OVC014 M00/M03 Q1041
                        TEMPO BKN016=
201202082320 METAR COR EGLL 082320Z 07005KT 9999 OVC012 M00/M03 Q1041
                        NOSIG=
201202082250 METAR COR EGLL 082250Z 06006KT 9999 OVC013 M00/M03 Q1040
                        NOSIG=
201202082220 METAR COR EGLL 082220Z 07004KT 030V090 9999 OVC014 M00/M03
                        Q1040 NOSIG=
201202082150 METAR COR EGLL 082150Z 08006KT 9999 OVC014 M00/M03 Q1040
                        NOSIG=
201202082120 METAR COR EGLL 082120Z 06006KT 9999 BKN015 M00/M03 Q1040
                        TEMPO BKN012=
201202082050 METAR COR EGLL 082050Z 07005KT 9999 BKN017 00/M04 Q1040 NOSIG=
201202082020 METAR COR EGLL 082020Z 07007KT 9999 OVC016 00/M04 Q1041 TEMPO
                        BKN014=
201202081950 METAR COR EGLL 081950Z 06006KT 9999 OVC016 00/M04 Q1041 TEMPO
                        BKN014=
201202081920 METAR COR EGLL 081920Z 06007KT 9999 BKN017 00/M04 Q1040 NOSIG=
201202081850 METAR COR EGLL 081850Z 07008KT 9999 OVC018 00/M04 Q1040 NOSIG=
201202081820 METAR COR EGLL 081820Z 06007KT 010V080 9999 OVC018 00/M04
                        Q1040 NOSIG=
201202081750 METAR COR EGLL 081750Z 05007KT 010V080 9999 OVC020 00/M04
                        Q1040 NOSIG=
201202081720 METAR COR EGLL 081720Z 06006KT 020V090 9999 BKN019 01/M03
                        Q1040 NOSIG=
201202081650 METAR COR EGLL 081650Z 05006KT 010V080 9999 SCT018 OVC021
                        01/M03 Q1040 NOSIG=
201202081620 METAR COR EGLL 081620Z 04007KT 360V070 9999 BKN018 01/M03
                        Q1040 NOSIG=
201202081550 METAR COR EGLL 081550Z 04006KT 9999 BKN018 BKN024 01/M03
                        Q1040 NOSIG=
201202081520 METAR COR EGLL 081520Z 04007KT 360V070 9999 BKN020 01/M03
                        Q1040 NOSIG=
201202081450 METAR COR EGLL 081450Z 03008KT 9999 BKN017 BKN022 01/M03
                        Q1040 NOSIG=
201202081420 METAR COR EGLL 081420Z 03007KT 9999 BKN022 01/M03 Q1040 NOSIG=
201202081350 METAR COR EGLL 081350Z 04006KT 360V070 9999 OVC017 00/M03
                        Q1040 NOSIG=
201202081320 METAR COR EGLL 081320Z 03007KT 360V080 9999 BKN018 00/M04
                        Q1041 NOSIG=
201202081250 METAR COR EGLL 081250Z 04008KT 010V070 9999 BKN019 00/M04
                        Q1041 NOSIG=
201202081220 METAR COR EGLL 081220Z 05008KT 020V090 9999 BKN017 00/M04
                        Q1041 NOSIG=
201202081150 METAR COR EGLL 081150Z 06009KT 350V080 9999 OVC018 00/M04
                        Q1041 NOSIG=
201202081120 METAR COR EGLL 081120Z 05009KT 9999 OVC018 00/M04 Q1041 NOSIG=
201202081050 METAR COR EGLL 081050Z 05008KT 9999 OVC020 00/M04 Q1041 NOSIG=
201202081020 METAR COR EGLL 081020Z 05008KT 020V080 9999 BKN021 00/M04
                        Q1041 NOSIG=
201202080950 METAR COR EGLL 080950Z 05008KT 360V070 9999 BKN021 M00/M05
                        Q1041 NOSIG=
201202080920 METAR COR EGLL 080920Z 05008KT 010V090 9999 BKN023 M00/M05
                        Q1041 NOSIG=
201202080850 METAR COR EGLL 080850Z 05007KT 010V080 9999 BKN024 M00/M05
                        Q1041 NOSIG=
201202080820 METAR COR EGLL 080820Z 05007KT 360V080 9999 BKN026 M00/M05
                        Q1041 NOSIG=
201202080750 METAR COR EGLL 080750Z 04007KT 360V070 9999 BKN027 M00/M05
                        Q1041 NOSIG=
201202080720 METAR COR EGLL 080720Z 04007KT 010V080 9999 BKN027 M00/M05
                        Q1041 NOSIG=
201202080650 METAR COR EGLL 080650Z 04007KT 360V060 9999 BKN026 M01/M05
                        Q1041 NOSIG=
201202080620 METAR COR EGLL 080620Z 05006KT 020V080 9999 BKN028 M01/M06
                        Q1041 NOSIG=
201202080550 METAR COR EGLL 080550Z 03006KT 360V070 9999 BKN028 M01/M05
                        Q1041 NOSIG=
201202080520 METAR COR EGLL 080520Z 02006KT 350V050 9999 BKN029 M01/M06
                        Q1041 NOSIG=
201202080450 METAR COR EGLL 080450Z 03007KT 9999 BKN027 M01/M06 Q1041
                        NOSIG=
201202080420 METAR COR EGLL 080420Z 03008KT 360V060 9999 BKN027 M01/M06
                        Q1041 NOSIG=
201202080350 METAR COR EGLL 080350Z 04006KT 360V080 9999 BKN027 M02/M06
                        Q1041 NOSIG=
201202080320 METAR COR EGLL 080320Z 03007KT 350V060 9999 BKN027 M02/M06
                        Q1041 NOSIG=
201202080250 METAR COR EGLL 080250Z 03006KT 350V060 9999 BKN027 M02/M06
                        Q1041 NOSIG=
201202080220 METAR EGLL 080220Z AUTO 02006KT 9999 BKN026/// M02/M07 Q1042=
201202080150 METAR EGLL 080150Z AUTO 02007KT 340V060 9999 OVC025/// M02/M07
                        Q1042=
201202080120 METAR EGLL 080120Z AUTO 02006KT 340V050 9999 OVC025/// M02/M07
                        Q1042=
201202080050 METAR COR EGLL 080050Z 01006KT 340V040 9999 BKN027 M02/M07
                        Q1042 NOSIG=
201202080020 METAR COR EGLL 080020Z 01007KT 9999 BKN029 M03/M07 Q1042
                        NOSIG=
201202072350 METAR COR EGLL 072350Z 01005KT 340V050 9999 BKN032 M03/M08
                        Q1043 NOSIG=
201202072320 METAR COR EGLL 072320Z 03006KT 350V050 9999 BKN032 M03/M08
                        Q1043 NOSIG=
201202072250 METAR COR EGLL 072250Z 35005KT 9999 BKN033 M03/M08 Q1043
                        NOSIG=
201202072220 METAR COR EGLL 072220Z 01004KT 320V060 9999 SCT033 M03/M08
                        Q1043 NOSIG=
201202072150 METAR COR EGLL 072150Z 04004KT 010V080 9999 FEW030 M03/M09
                        Q1043 NOSIG=
201202072120 METAR COR EGLL 072120Z 05006KT 9999 SCT030 M03/M09 Q1043
                        NOSIG=
201202072050 METAR COR EGLL 072050Z 06006KT 9999 FEW029 M03/M09 Q1043
                        NOSIG=
201202072020 METAR COR EGLL 072020Z 07009KT CAVOK M03/M09 Q1043 NOSIG=
201202071950 METAR COR EGLL 071950Z 07010KT CAVOK M03/M09 Q1043 NOSIG=
201202071920 METAR COR EGLL 071920Z 07011KT CAVOK M03/M09 Q1043 NOSIG=
201202071850 METAR COR EGLL 071850Z 07008KT CAVOK M02/M09 Q1043 NOSIG=
201202071820 METAR COR EGLL 071820Z 07012KT CAVOK M02/M08 Q1042 NOSIG=
201202071750 METAR COR EGLL 071750Z 08011KT CAVOK M01/M08 Q1042 NOSIG=
201202071720 METAR COR EGLL 071720Z 07010KT CAVOK M01/M06 Q1042 NOSIG=
201202071650 METAR COR EGLL 071650Z 07008KT 9999 FEW049 M00/M06 Q1041
                        NOSIG=
201202071620 METAR COR EGLL 071620Z 08008KT 9999 FEW049 00/M05 Q1041 NOSIG=
201202071550 METAR COR EGLL 071550Z 08009KT 9999 SCT049 01/M05 Q1041 NOSIG=
201202071520 METAR COR EGLL 071520Z 06009KT 9999 FEW049 02/M05 Q1041 NOSIG=
201202071450 METAR COR EGLL 071450Z 06008KT 9999 FEW049 03/M06 Q1041 NOSIG=
201202071420 METAR COR EGLL 071420Z 06007KT 9999 SCT045 03/M06 Q1041 NOSIG=
201202071350 METAR COR EGLL 071350Z 06006KT 020V090 9999 SCT038 03/M04
                        Q1041 NOSIG=
201202071320 METAR COR EGLL 071320Z 08006KT 050V110 9999 FEW038 04/M04
                        Q1041 NOSIG=
201202071250 METAR COR EGLL 071250Z 09007KT 050V120 9999 FEW026 04/M04
                        Q1040 NOSIG=
201202071220 METAR COR EGLL 071220Z 07005KT 010V110 9999 FEW026 04/M04
                        Q1040 NOSIG=
201202071150 METAR COR EGLL 071150Z 09006KT 060V120 9999 FEW022 03/M03
                        Q1040 NOSIG=
201202071120 METAR COR EGLL 071120Z 10005KT 060V140 9000 FEW019 03/M02
                        Q1040 NOSIG=
201202071050 METAR COR EGLL 071050Z 10005KT 070V130 9999 SCT017 03/M02
                        Q1040 NOSIG=
201202071020 METAR EGLL 071020Z 09006KT 9999 BKN017 02/M02 Q1040=
201202070950 METAR COR EGLL 070950Z 11004KT 9000 SCT017 SCT044 02/M02
                        Q1040 NOSIG=
201202070920 METAR COR EGLL 070920Z 11004KT 9000 FEW016 BKN043 02/M01
                        Q1039 NOSIG=
201202070850 METAR COR EGLL 070850Z 10006KT 8000 SCT016 BKN031 02/M01
                        Q1039 NOSIG=
201202070820 METAR COR EGLL 070820Z 10005KT 8000 BKN016 01/M01 Q1039 NOSIG=
201202070750 METAR COR EGLL 070750Z 10004KT 7000 BKN016 01/M01 Q1038 NOSIG=
201202070720 METAR COR EGLL 070720Z 10004KT 8000 OVC015 01/M01 Q1038 NOSIG=
201202070650 METAR COR EGLL 070650Z 10006KT 8000 OVC015 01/M01 Q1038 NOSIG=
201202070620 METAR COR EGLL 070620Z 09005KT 6000 SCT008 BKN010 BKN015
                        01/M00 Q1037 TEMPO 4000 BR BKN006=
201202070550 METAR COR EGLL 070550Z 06004KT 3300 HZ BKN005 BKN009 02/01
                        Q1037 NOSIG=
201202070520 METAR COR EGLL 070520Z 04003KT 4300 HZ BKN006 BKN011 02/01
                        Q1037 TEMPO BKN004=
201202070450 METAR COR EGLL 070450Z VRB03KT 4300 HZ FEW003 BKN006 02/01
                        Q1037 TEMPO BKN004=
201202070420 METAR COR EGLL 070420Z VRB03KT 3100 -RA FEW003 BKN006 02/01
                        Q1036 TEMPO BKN004=
201202070350 METAR COR EGLL 070350Z VRB03KT 2600 -RASN FEW001 SCT002 BKN004
                        02/01 Q1036 TEMPO 1400 -DZ BKN002=
201202070320 METAR COR EGLL 070320Z 35005KT 320V020 2400 -RASN SCT002
                        BKN005 02/01 Q1036 TEMPO 1400 BKN003=
201202070250 METAR COR EGLL 070250Z 36004KT 330V030 3100 -RASN FEW002
                        BKN007 02/01 Q1036 BECMG BR BKN004=
201202070220 METAR EGLL 070220Z AUTO 35003KT 3100 HZ OVC008/// 02/01 Q1036=
201202070150 METAR EGLL 070150Z AUTO 35003KT 2800 HZ SCT005/// BKN008///
                        03/01 Q1036=
201202070120 METAR EGLL 070120Z AUTO VRB02KT 2800 HZ BKN006/// BKN010///
                        03/01 Q1036=
201202070050 METAR COR EGLL 070050Z 36002KT 3400 HZ FEW008 BKN009 03/01
                        Q1036 NOSIG=
201202070020 METAR COR EGLL 070020Z 36003KT 3400 HZ BKN010 03/01 Q1036
                        TEMPO BKN007=
201202062350 METAR COR EGLL 062350Z 36004KT 3400 HZ SCT009 BKN013 03/01
                        Q1036 TEMPO BKN009=
201202062320 METAR COR EGLL 062320Z 34003KT 5000 HZ SCT010 BKN013 03/01
                        Q1036 TEMPO 4000 BR BKN010=
201202062250 METAR COR EGLL 062250Z 00000KT 5000 HZ FEW009 SCT010 BKN014
                        03/01 Q1035 TEMPO 3500 BR BKN010=
201202062220 METAR COR EGLL 062220Z 00000KT 5000 HZ FEW010 SCT012 BKN019
                        03/01 Q1035 TEMPO 4000 BR BKN010=
201202062150 METAR COR EGLL 062150Z VRB03KT 5000 HZ FEW009 SCT013 BKN032
                        03/01 Q1035 TEMPO 4000 BR BKN010=
201202062120 METAR COR EGLL 062120Z VRB03KT 5000 HZ FEW007 BKN009 BKN016
                        04/01 Q1035 TEMPO 4000 BR SCT009=
201202062050 METAR COR EGLL 062050Z 07004KT 5000 HZ BKN011 03/01 Q1035
                        BECMG 3500 BKN009=
201202062020 METAR COR EGLL 062020Z 12006KT 6000 FEW010 BKN012 03/01 Q1035
                        TEMPO 4500 BR=
201202061950 METAR COR EGLL 061950Z 06003KT 6000 BKN016 04/01 Q1034 TEMPO
                        4000 BR BKN012=
201202061920 METAR COR EGLL 061920Z 05004KT 7000 BKN013 BKN031 04/01 Q1034
                        TEMPO SCT013=
201202061850 METAR COR EGLL 061850Z VRB03KT 6000 BKN016 04/02 Q1034 NOSIG=
201202061820 METAR COR EGLL 061820Z 02002KT 4000 HZ BKN015 04/02 Q1034
                        TEMPO BKN010=
201202061750 METAR COR EGLL 061750Z VRB03KT 4000 HZ BKN016 04/02 Q1033
                        NOSIG=
201202061720 METAR COR EGLL 061720Z 32004KT 3500 HZ FEW008 BKN015 04/02
                        Q1033 NOSIG=
201202061650 METAR COR EGLL 061650Z 32003KT 3200 HZ BKN010 BKN020 05/02
                        Q1033 TEMPO SCT010=
201202061620 METAR COR EGLL 061620Z VRB02KT 3200 HZ BKN011 BKN024 05/02
                        Q1033 NOSIG=
201202061550 METAR COR EGLL 061550Z 32003KT 3100 HZ FEW009 BKN013 05/02
                        Q1033 NOSIG=
201202061520 METAR COR EGLL 061520Z VRB02KT 3000 HZ SCT009 BKN015 BKN022
                        05/02 Q1033 TEMPO BKN009=
201202061450 METAR COR EGLL 061450Z 32004KT 3000 HZ SCT009 BKN011 BKN017
                        05/02 Q1033 NOSIG=
201202061420 METAR COR EGLL 061420Z 31004KT 3000 HZ SCT007 BKN010 BKN016
                        04/02 Q1033 NOSIG=
201202061350 METAR COR EGLL 061350Z 32004KT 3200 HZ FEW008 BKN011 05/03
                        Q1033 NOSIG=
201202061320 METAR COR EGLL 061320Z VRB03KT 3000 HZ FEW006 SCT009 BKN034
                        04/02 Q1033 NOSIG=
201202061250 METAR COR EGLL 061250Z 32003KT 3200 HZ FEW004 BKN009 04/02
                        Q1033 TEMPO SCT009=
201202061220 METAR COR EGLL 061220Z 27004KT 230V320 3200 HZ SCT012 BKN017
                        04/02 Q1033 NOSIG=
201202061150 METAR COR EGLL 061150Z VRB03KT 3100 HZ FEW006 SCT010 BKN018
                        04/02 Q1033 TEMPO 6000 NSW=
201202061120 METAR COR EGLL 061120Z VRB03KT 2700 BR FEW004 SCT008 BKN018
                        04/03 Q1033 NOSIG=
201202061050 METAR COR EGLL 061050Z VRB03KT 2200 BR BKN004 BKN017 03/02
                        Q1033 BECMG BKN008=
201202061020 METAR COR EGLL 061020Z 08004KT 070V140 2100 BR FEW003 BKN005
                        OVC018 03/02 Q1033 NOSIG=
201202060950 METAR COR EGLL 060950Z 07004KT 1900 BR FEW001 SCT002 BKN003
                        03/02 Q1033 NOSIG=
201202060920 METAR COR EGLL 060920Z 07003KT 2100 R27R/1300 BR FEW001 BKN003
                        02/02 Q1033 TEMPO 1200 BKN001=
201202060850 METAR COR EGLL 060850Z VRB03KT 2400 BR SCT002 BKN003 BKN016
                        02/01 Q1032 TEMPO 1200 BKN001=
201202060820 METAR COR EGLL 060820Z 04003KT 2200 BR FEW002 BKN004 BKN016
                        02/01 Q1032 TEMPO 0600 FG BKN001=
201202060750 METAR COR EGLL 060750Z VRB02KT 2900 BR FEW002 BKN004 BKN017
                        02/01 Q1032 TEMPO 0600 FG BKN001=
201202060720 METAR COR EGLL 060720Z 05002KT 3100 BR FEW003 BKN004 02/01
                        Q1032 NOSIG=
201202060650 METAR COR EGLL 060650Z VRB03KT 3500 BR FEW004 BKN005 02/01
                        Q1032 TEMPO 2000 BKN004=
201202060620 METAR COR EGLL 060620Z 00000KT 2500 HZ FEW004 BKN005 02/01
                        Q1032 TEMPO 1200 BKN003=
201202060550 METAR COR EGLL 060550Z VRB02KT 2000 BR FEW003 BKN008 02/01
                        Q1032 R99L/CLRD// R99R/CLRD// TEMPO
                        0700 FG BKN001=
201202060520 METAR COR EGLL 060520Z VRB02KT 2000 0900W R27L/P1500 R27R/P1500
                        BCFG BR SCT001 SCT004 BKN014 02/01
                        Q1031 R27L/CLRD// R27R/CLRD// TEMPO
                        0700 FG BKN001=
201202060450 METAR COR EGLL 060450Z 29002KT 1100 0900NW R27L/P1500 R27R/P1500
                        BCFG BR BKN001 BKN013 01/01 Q1031
                        R/CLRD// TEMPO 0700 FG=
201202060420 METAR COR EGLL 060420Z VRB03KT 0900 R27R/P1500 FG BKN001
                        BKN014 01/01 Q1031 R/CLRD// TEMPO
                        2000 BR BKN012=
201202060350 METAR COR EGLL 060350Z 36002KT 2700 HZ FEW005 BKN017 01/01
                        Q1031 R/CLRD// NOSIG=
201202060320 METAR COR EGLL 060320Z 00000KT 3000 HZ BKN018 02/01 Q1031
                        R/CLRD// TEMPO 2000=
201202060250 METAR COR EGLL 060250Z 28005KT 3100 HZ BKN019 02/01 Q1031
                        TEMPO 2500 BKN008=
201202060220 METAR EGLL 060220Z AUTO 27003KT 3400 HZ BKN021/// 02/01 Q1031=
201202060150 METAR EGLL 060150Z AUTO 26005KT 3800 HZ FEW008/// OVC021///
                        02/01 Q1031=
201202060120 METAR EGLL 060120Z AUTO 23004KT 3400 HZ BKN007/// BKN020///
                        02/01 Q1031=
201202060050 METAR COR EGLL 060050Z 18002KT 2700 HZ SCT006 BKN007 01/01
                        Q1031 BECMG BKN004=
201202060020 METAR COR EGLL 060020Z 00000KT 2500 HZ FEW006 SCT007 BKN010
                        01/01 Q1031 BECMG BKN006=
201202052350 METAR COR EGLL 052350Z 19003KT 3100 HZ BKN007 BKN010 02/01
                        Q1031 BECMG 2500 BKN004=
201202052320 METAR COR EGLL 052320Z 21002KT 3200 HZ BKN007 BKN015 02/01
                        Q1031 BECMG 2500 BKN004=
201202052250 METAR COR EGLL 052250Z 22004KT 190V270 3200 HZ BKN007 BKN015
                        02/01 Q1031 BECMG BKN004=
201202052220 METAR COR EGLL 052220Z 19005KT 150V250 3700 HZ BKN007 OVC018
                        02/01 Q1031 TEMPO BKN004=
201202052150 METAR COR EGLL 052150Z 23006KT 170V270 4000 BR BKN007 BKN021
                        02/01 Q1031 TEMPO BKN004=
201202052120 METAR COR EGLL 052120Z 23006KT 190V260 5000 BR BKN007 BKN015
                        02/01 Q1031 TEMPO 4000 BKN004=
201202052050 METAR COR EGLL 052050Z 22005KT 5000 BR BKN004 BKN008 02/01
                        Q1031 BECMG 3500=
201202052020 METAR COR EGLL 052020Z 22004KT 170V270 6000 BKN005 BKN008
                        02/01 Q1031 TEMPO 4500 BKN004=
201202051950 METAR COR EGLL 051950Z 19004KT 140V240 7000 BKN006 BKN011
                        02/00 Q1031 BECMG 4500 BKN004=
201202051920 METAR COR EGLL 051920Z 00000KT 7000 BKN005 BKN009 02/00 Q1031
                        BECMG 4500 BKN004=
201202051850 METAR COR EGLL 051850Z 29004KT 6000 SCT006 BKN011 02/01 Q1031
                        BECMG 4500 BR BKN006=
201202051820 METAR COR EGLL 051820Z 30003KT 8000 BKN006 BKN010 02/00 Q1030
                        BECMG 4500 BR=
201202051750 METAR COR EGLL 051750Z 30002KT 6000 BKN006 02/00 Q1030 TEMPO
                        4500 BR BKN004=
201202051720 METAR COR EGLL 051720Z 30004KT 8000 BKN007 02/00 Q1030 BECMG
                        4500 BR=
201202051650 METAR COR EGLL 051650Z 31003KT 6000 BKN007 02/00 Q1030 BECMG
                        4500 BR=
201202051620 METAR COR EGLL 051620Z 31003KT 6000 BKN007 02/00 Q1030 BECMG
                        4500 BR=
201202051550 METAR COR EGLL 051550Z 30003KT 7000 BKN008 02/00 Q1030 NOSIG=
201202051520 METAR COR EGLL 051520Z 29005KT 7000 BKN009 02/00 Q1029 NOSIG=
201202051450 METAR COR EGLL 051450Z 30003KT 9000 BKN008 02/00 Q1029 NOSIG=
201202051420 METAR COR EGLL 051420Z VRB02KT 9000 BKN009 02/M00 Q1029 TEMPO
                        SCT009 BKN012=
201202051350 METAR COR EGLL 051350Z 00000KT 9999 FEW009 BKN010 02/M00
                        Q1029 NOSIG=
201202051320 METAR COR EGLL 051320Z VRB02KT 9999 FEW009 BKN011 02/M00
                        Q1029 NOSIG=
201202051250 METAR COR EGLL 051250Z VRB03KT 9999 FEW009 BKN010 02/M00
                        Q1029 NOSIG=
201202051220 METAR COR EGLL 051220Z VRB03KT 9999 FEW006 BKN012 02/M00
                        Q1029 TEMPO SCT014=
201202051150 METAR COR EGLL 051150Z 33004KT 9999 FEW010 BKN013 02/00 Q1028
                        TEMPO SCT014=
201202051120 METAR COR EGLL 051120Z 01004KT 320V060 9999 FEW010 BKN013
                        02/00 Q1028 TEMPO SCT014=
201202051050 METAR COR EGLL 051050Z 35004KT 8000 FEW010 BKN014 01/01 Q1028
                        NOSIG=
201202051020 METAR COR EGLL 051020Z VRB03KT 4800 BR FEW004 BKN014 01/01
                        Q1027 TEMPO 6000 SCT014=
201202050950 METAR COR EGLL 050950Z 31003KT 3800 BR FEW004 BKN017 01/01
                        Q1027 TEMPO BKN007=
201202050920 METAR COR EGLL 050920Z VRB02KT 3100 BR FEW002 BKN007 01/00
                        Q1026 TEMPO 2800 BKN004=
201202050850 METAR COR EGLL 050850Z 31003KT 2500 BR FEW002 BKN006 01/00
                        Q1026 TEMPO 3400 BKN004=
201202050820 METAR COR EGLL 050820Z VRB03KT 3400 BR SCT003 BKN008 01/00
                        Q1026 TEMPO 2800 BKN004=
201202050750 METAR COR EGLL 050750Z 35003KT 3900 BR FEW003 SCT005 BKN008
                        01/00 Q1025 TEMPO 2800 BKN004=
201202050720 METAR COR EGLL 050720Z 00000KT 3800 BR FEW003 OVC009 00/00
                        Q1025 TEMPO BKN004=
201202050650 METAR COR EGLL 050650Z 05002KT 3800 BR FEW002 OVC010 00/00
                        Q1024 NOSIG=
201202050620 METAR COR EGLL 050620Z 06003KT 3500 BR SCT002 SCT006 BKN008
                        00/M00 Q1024 TEMPO 4000 BKN002=
201202050550 METAR COR EGLL 050550Z VRB03KT 3200 BR FEW002 SCT006 BKN012
                        00/M00 Q1024 TEMPO 4000 BKN002=
201202050520 METAR COR EGLL 050520Z 06003KT 3000 -SN SCT002 SCT005 BKN007
                        00/M00 Q1023 TEMPO 4000 BKN002=
201202050450 METAR COR EGLL 050450Z VRB03KT 2000 -SN BR FEW001 BKN005
                        BKN008 00/M00 Q1023 BECMG 4000 FEW005
                        BKN008=
201202050420 METAR COR EGLL 050420Z 06003KT 3000 -SN BR FEW001 BKN004
                        BKN008 00/M00 Q1023 TEMPO 1200 FEW004
                        BKN008=
201202050350 METAR COR EGLL 050350Z 05004KT 1500 -SN BR FEW003 OVC004
                        00/M00 Q1022 BECMG 3000 BKN008=
201202050320 METAR COR EGLL 050320Z VRB03KT 3500 BR FEW005 OVC007 00/M00
                        Q1022 NOSIG=
201202050250 METAR COR EGLL 050250Z 08003KT 2400 -SN FEW004 OVC006 00/M00
                        Q1022 R09L/CLRD99 R09R/590599 BECMG
                        3500 BR=
201202050220 METAR EGLL 050220Z AUTO VRB04KT 2500 -SN FEW005/// BKN007///
                        BKN014/// 00/M00 Q1022=
201202050150 METAR EGLL 050150Z AUTO 11003KT 2000 -SN OVC006/// 00/M00
                        Q1022=
201202050120 METAR EGLL 050120Z AUTO 17004KT 2800 -SN FEW006/// 00/M00
                        Q1022=
201202050050 METAR COR EGLL 050050Z 16004KT 2000 -SN VV/// 00/M00 Q1023
                        RESN R09R/5905// R09L/6/03// BECMG
                        3000 BKN007=
201202050020 METAR COR EGLL 050020Z 16007KT 1800 -SN VV/// 00/M00 Q1023
                        RESN R09R/5905// TEMPO 0600 SN=
201202042350 METAR COR EGLL 042350Z 16007KT 0900 R09R/P1500 SN VV/// 00/M00
                        Q1024 R09R/5905// BECMG 1200 BKN005=
201202042320 METAR COR EGLL 042320Z 16007KT 0900 R09R/P1500 SN VV/// 00/M00
                        Q1024 TEMPO 1500 -SN BKN005=
201202042250 METAR COR EGLL 042250Z 17006KT 0750 R09R/P1500 SN VV/// 00/M00
                        Q1025 RESN TEMPO 2000 -SN BKN005=
201202042220 METAR COR EGLL 042220Z 16008KT 0700 R09R/P1500 SN VV/// M00/M01
                        Q1026 RESN TEMPO 1200 -SN BKN005=
201202042150 METAR COR EGLL 042150Z 17009KT 0600 R09R/P1500 SN VV/// M00/M01
                        Q1027 RESN TEMPO 0400=
201202042120 METAR COR EGLL 042120Z 16007KT 0700 R09R/1400 SN VV/// M00/M01
                        Q1028 TEMPO 1200 BKN006=
201202042050 METAR COR EGLL 042050Z 15009KT 1000 SN BKN005 BKN012 M00/M01
                        Q1028 TEMPO 0600 BKN003=
201202042020 METAR COR EGLL 042020Z 16009KT 1800 -SN SCT008 BKN012 M01/M01
                        Q1029 BECMG 0600 SN BKN004=
201202041950 METAR COR EGLL 041950Z 15009KT 2000 -SN BKN009 BKN014 M01/M02
                        Q1029 BECMG 1200 SN BKN004=
201202041920 METAR COR EGLL 041920Z 15010KT 2000 -SN BKN010 M01/M02 Q1030
                        BECMG 1200 SN BKN004=
201202041850 METAR COR EGLL 041850Z 16012KT 3000 -SN BKN012 BKN018 M01/M03
                        Q1031 BECMG 1200 SN BKN004=
201202041820 METAR COR EGLL 041820Z 16010KT 9000 -SN BKN018 M01/M03 Q1032
                        TEMPO 2500 BKN012=
201202041750 METAR COR EGLL 041750Z 16010KT 6000 -SN OVC019 M00/M03 Q1032
                        TEMPO 2500 BKN012=
201202041720 METAR COR EGLL 041720Z 16011KT 8000 -SN OVC019 00/M04 Q1033
                        TEMPO 4000 BKN012=
201202041650 METAR COR EGLL 041650Z 17011KT 9999 BKN020 00/M04 Q1033 TEMPO
                        4000 -SN BKN012=
201202041620 METAR COR EGLL 041620Z 17009KT 8000 BKN018 01/M03 Q1034 TEMPO
                        4000 -SN=
201202041550 METAR COR EGLL 041550Z 15010KT 8000 SCT018 BKN024 01/M03
                        Q1034 TEMPO 4000 -SN=
201202041520 METAR COR EGLL 041520Z 16008KT 8000 SCT021 BKN024 02/M03
                        Q1035 TEMPO 4000 -SN=
201202041450 METAR COR EGLL 041450Z 17008KT 9000 SCT022 BKN048 02/M03
                        Q1035 NOSIG=
201202041420 METAR COR EGLL 041420Z 18008KT 9999 BKN025 02/M03 Q1036 NOSIG=
201202041350 METAR COR EGLL 041350Z 17009KT 9999 BKN018 01/M03 Q1036 NOSIG=
201202041320 METAR COR EGLL 041320Z 15008KT 9999 BKN016 01/M03 Q1037 NOSIG=
201202041250 METAR COR EGLL 041250Z 16008KT 9999 BKN016 01/M03 Q1037=
201202041220 METAR COR EGLL 041220Z 16009KT 9000 BKN016 01/M04 Q1037 TEMPO
                        BKN012=
201202041150 METAR COR EGLL 041150Z 16006KT 130V200 9000 SCT017 01/M04
                        Q1038 TEMPO BKN012=
201202041120 METAR COR EGLL 041120Z 16006KT 8000 FEW020 M00/M05 Q1038
                        NOSIG=
201202041050 METAR COR EGLL 041050Z 14004KT 110V180 8000 NSC M01/M05 Q1039
                        TEMPO BKN010=
201202041020 METAR COR EGLL 041020Z 14004KT 8000 NSC M02/M05 Q1038 TEMPO
                        BKN008=
201202040950 METAR COR EGLL 040950Z 14004KT 100V190 8000 NSC M02/M05 Q1039
                        TEMPO BKN008=
201202040920 METAR COR EGLL 040920Z 14005KT 110V180 8000 NSC M04/M06 Q1038
                        NOSIG=
201202040850 METAR COR EGLL 040850Z 00000KT 9000 NSC M04/M07 Q1039 NOSIG=
201202040820 METAR COR EGLL 040820Z VRB02KT 9000 NSC M05/M07 Q1039 NOSIG=
201202040750 METAR COR EGLL 040750Z 31002KT 9000 NSC M05/M07 Q1039 NOSIG=
201202040720 METAR COR EGLL 040720Z 31004KT 9000 NSC M05/M07 Q1039 NOSIG=
201202040650 METAR COR EGLL 040650Z 29003KT CAVOK M06/M08 Q1039 NOSIG=
201202040620 METAR COR EGLL 040620Z 00000KT CAVOK M05/M07 Q1038 TEMPO
                        6000=
201202040550 METAR COR EGLL 040550Z 00000KT CAVOK M05/M07 Q1039 TEMPO
                        6000=
201202040520 METAR COR EGLL 040520Z 00000KT CAVOK M04/M07 Q1039 NOSIG=
201202040450 METAR COR EGLL 040450Z 00000KT 9999 FEW045 M05/M07 Q1039
                        NOSIG=
201202040420 METAR COR EGLL 040420Z 00000KT 9999 BKN045 M04/M07 Q1039
                        NOSIG=
201202040350 METAR COR EGLL 040350Z 29002KT 9999 BKN042 M04/M07 Q1039
                        NOSIG=
201202040320 METAR COR EGLL 040320Z 29004KT 9999 BKN037 M05/M08 Q1039
                        NOSIG=
201202040250 METAR COR EGLL 040250Z 00000KT CAVOK M05/M08 Q1039 NOSIG=
201202040220 METAR EGLL 040220Z AUTO 31004KT 9999 NCD M05/M07 Q1039=
201202040150 METAR EGLL 040150Z AUTO 30003KT 9999 NCD M06/M08 Q1039=
201202040120 METAR EGLL 040120Z AUTO 00000KT 9999 NCD M05/M08 Q1039=
201202040050 METAR EGLL 040050Z 29004KT CAVOK M05/M08 Q1039=
201202040020 METAR COR EGLL 040020Z 30003KT CAVOK M04/M07 Q1039 NOSIG=
201202032350 METAR COR EGLL 032350Z 30004KT CAVOK M03/M07 Q1039 NOSIG=
201202032320 METAR COR EGLL 032320Z 31004KT CAVOK M03/M07 Q1040 NOSIG=
201202032250 METAR COR EGLL 032250Z 32003KT CAVOK M02/M07 Q1040 NOSIG=
201202032220 METAR COR EGLL 032220Z 29004KT CAVOK M02/M06 Q1040 NOSIG=
201202032150 METAR COR EGLL 032150Z 29005KT CAVOK M02/M06 Q1040 NOSIG=
201202032120 METAR COR EGLL 032120Z 31004KT CAVOK M02/M06 Q1040 NOSIG=
201202032050 METAR COR EGLL 032050Z 31004KT CAVOK M02/M06 Q1040 NOSIG=
201202032020 METAR EGLL 032020Z 31005KT CAVOK M01/M06 Q1040=
201202031950 METAR COR EGLL 031950Z 31005KT CAVOK M01/M06 Q1040 NOSIG=
201202031920 METAR COR EGLL 031920Z 30003KT CAVOK M01/M06 Q1040 NOSIG=
201202031850 METAR COR EGLL 031850Z 31004KT CAVOK M00/M06 Q1040 NOSIG=
201202031820 METAR COR EGLL 031820Z 31004KT 9999 FEW031 M00/M06 Q1040
                        NOSIG=
201202031750 METAR COR EGLL 031750Z 31004KT 9999 SCT031 00/M06 Q1040 NOSIG=
201202031720 METAR COR EGLL 031720Z 31004KT 9999 SCT031 00/M06 Q1040 NOSIG=
201202031650 METAR COR EGLL 031650Z 32005KT 9999 SCT031 01/M06 Q1039 NOSIG=
201202031620 METAR COR EGLL 031620Z 33005KT 270V360 9999 SCT030 01/M06
                        Q1039 NOSIG=
201202031550 METAR COR EGLL 031550Z 33004KT 260V020 9999 FEW029 01/M06
                        Q1039 NOSIG=
201202031520 METAR COR EGLL 031520Z 36006KT 330V040 9999 FEW031 02/M06
                        Q1039 NOSIG=
201202031450 METAR COR EGLL 031450Z 35005KT 310V020 9999 FEW032 02/M07
                        Q1039 NOSIG=
201202031420 METAR COR EGLL 031420Z 34006KT 310V020 9999 FEW032 02/M07
                        Q1039 NOSIG=
201202031350 METAR EGLL 031350Z 36005KT 330V040 9999 FEW034 01/M07 Q1039=
201202031320 METAR COR EGLL 031320Z 33005KT 290V020 9999 FEW033 02/M07
                        Q1039 NOSIG=
201202031250 METAR COR EGLL 031250Z 35006KT 300V020 9999 FEW032 01/M07
                        Q1039 NOSIG=
201202031220 METAR COR EGLL 031220Z 35004KT 300V100 9999 FEW036 01/M07
                        Q1040 NOSIG=
201202031150 METAR COR EGLL 031150Z 01005KT 290V100 9999 FEW035 01/M08
                        Q1040 NOSIG=
201202031120 METAR COR EGLL 031120Z 03004KT 9999 FEW035 01/M08 Q1040 NOSIG=
201202031050 METAR COR EGLL 031050Z 03004KT 320V090 9999 FEW035 00/M08
                        Q1040 NOSIG=
201202031020 METAR COR EGLL 031020Z 03005KT 360V070 9999 FEW035 00/M07
                        Q1040 NOSIG=
201202030950 METAR COR EGLL 030950Z 02004KT 340V060 9999 BKN036 M00/M05
                        Q1040 NOSIG=
201202030920 METAR EGLL 030920Z 35004KT 9999 BKN038 M02/M06 Q1040=
201202030850 METAR COR EGLL 030850Z 36004KT 9999 BKN039 M03/M06 Q1040
                        NOSIG=
201202030820 METAR COR EGLL 030820Z VRB03KT 9999 BKN039 M03/M06 Q1040
                        NOSIG=
201202030750 METAR COR EGLL 030750Z VRB03KT 9999 BKN039 M04/M07 Q1040
                        NOSIG=
201202030720 METAR COR EGLL 030720Z 03005KT 360V060 9999 BKN039 M04/M07
                        Q1039 NOSIG=
201202030650 METAR COR EGLL 030650Z 01004KT 340V050 9999 SCT040 M05/M07
                        Q1039 NOSIG=
201202030620 METAR COR EGLL 030620Z 36004KT 9999 SCT035 M05/M08 Q1039
                        NOSIG=
201202030550 METAR COR EGLL 030550Z 36005KT 9999 SCT035 M05/M07 Q1039
                        NOSIG=
201202030520 METAR COR EGLL 030520Z 36005KT 9999 FEW037 M05/M08 Q1038
                        NOSIG=
201202030450 METAR COR EGLL 030450Z 36005KT 9999 SCT035 M04/M08 Q1038
                        NOSIG=
201202030420 METAR COR EGLL 030420Z 36006KT 9999 SCT033 M03/M07 Q1038
                        NOSIG=
201202030350 METAR COR EGLL 030350Z 01004KT 340V050 9999 SCT034 M04/M07
                        Q1038 NOSIG=
201202030320 METAR COR EGLL 030320Z 01004KT 340V050 9999 FEW035 M04/M08
                        Q1038 NOSIG=
201202030250 METAR COR EGLL 030250Z 02004KT 340V050 CAVOK M04/M08 Q1038
                        NOSIG=
201202030220 METAR EGLL 030220Z AUTO VRB03KT 9999 NCD M04/M08 Q1038=
201202030150 METAR EGLL 030150Z AUTO 03005KT 360V070 9999 NCD M03/M07
                        Q1038=
201202030120 METAR EGLL 030120Z AUTO 04005KT 350V070 9999 NCD M03/M07
                        Q1038=
201202030050 METAR COR EGLL 030050Z 04005KT CAVOK M03/M07 Q1038 NOSIG=
201202030020 METAR COR EGLL 030020Z 03005KT CAVOK M03/M07 Q1038 NOSIG=
201202022350 METAR COR EGLL 022350Z 02005KT 340V050 CAVOK M03/M07 Q1038
                        NOSIG=
201202022320 METAR COR EGLL 022320Z 02004KT 340V050 CAVOK M03/M08 Q1038
                        NOSIG=
201202022250 METAR COR EGLL 022250Z 02004KT 350V060 CAVOK M03/M08 Q1038
                        NOSIG=
201202022220 METAR COR EGLL 022220Z 03004KT 340V070 CAVOK M03/M08 Q1037
                        NOSIG=
201202022150 METAR COR EGLL 022150Z 04005KT 350V060 CAVOK M02/M08 Q1037
                        NOSIG=
201202022120 METAR COR EGLL 022120Z 04005KT 360V070 CAVOK M02/M08 Q1037
                        NOSIG=
201202022050 METAR COR EGLL 022050Z 04005KT CAVOK M02/M08 Q1037 NOSIG=
201202022020 METAR COR EGLL 022020Z 05005KT CAVOK M02/M08 Q1037 NOSIG=
201202021950 METAR COR EGLL 021950Z 06007KT 020V080 CAVOK M02/M08 Q1037
                        NOSIG=
201202021920 METAR COR EGLL 021920Z 05006KT CAVOK M01/M08 Q1037 NOSIG=
201202021850 METAR COR EGLL 021850Z 05008KT CAVOK M01/M08 Q1037 NOSIG=
201202021820 METAR COR EGLL 021820Z 05009KT CAVOK M01/M09 Q1036 NOSIG=
201202021750 METAR COR EGLL 021750Z 05006KT CAVOK M01/M11 Q1036 NOSIG=
201202021720 METAR COR EGLL 021720Z 06009KT CAVOK M00/M11 Q1036 NOSIG=
201202021650 METAR COR EGLL 021650Z 06010KT 9999 FEW044 00/M11 Q1036 NOSIG=
201202021620 METAR COR EGLL 021620Z 05008KT 010V090 CAVOK 00/M11 Q1035
                        NOSIG=
201202021550 METAR COR EGLL 021550Z 06010KT 9999 FEW040 01/M11 Q1035 NOSIG=
201202021520 METAR EGLL 021520Z 06010KT 9999 FEW049 01/M11 Q1035=
201202021450 METAR COR EGLL 021450Z 07010KT 020V090 9999 FEW049 01/M11
                        Q1035 NOSIG=
201202021420 METAR COR EGLL 021420Z 07011KT 9999 FEW049 02/M11 Q1035 NOSIG=
201202021350 METAR COR EGLL 021350Z 05008KT 020V080 9999 FEW049 02/M12
                        Q1035 NOSIG=
201202021320 METAR COR EGLL 021320Z 06010KT 030V090 9999 FEW049 02/M12
                        Q1035 NOSIG=
201202021250 METAR EGLL 021250Z 07011KT 9999 FEW040 02/M12 Q1035=
201202021220 METAR COR EGLL 021220Z 06011KT 030V090 9999 FEW040 01/M10
                        Q1036 NOSIG=
201202021150 METAR COR EGLL 021150Z 06012KT 9999 FEW040 01/M10 Q1036 NOSIG=
201202021120 METAR COR EGLL 021120Z 07013KT CAVOK 01/M10 Q1036 NOSIG=
201202021050 METAR EGLL 021050Z 07011KT 9999 FEW049 01/M10 Q1036=
201202021020 METAR COR EGLL 021020Z 07014KT 9999 FEW049 00/M09 Q1036 NOSIG=
201202020950 METAR COR EGLL 020950Z 06011G22KT CAVOK M00/M08 Q1036 NOSIG=
201202020920 METAR EGLL 020920Z 06009KT CAVOK M01/M07 Q1036=
201202020850 METAR COR EGLL 020850Z 04006KT 360V070 CAVOK M02/M07 Q1036
                        NOSIG=
201202020820 METAR EGLL 020820Z 03006KT CAVOK M03/M07 Q1036=
201202020750 METAR COR EGLL 020750Z 03005KT 350V060 9999 FEW040 M03/M07
                        Q1036 NOSIG=
201202020720 METAR COR EGLL 020720Z 03006KT CAVOK M02/M07 Q1035 NOSIG=
201202020650 METAR COR EGLL 020650Z 05006KT CAVOK M02/M07 Q1035 NOSIG=
201202020620 METAR COR EGLL 020620Z 05007KT CAVOK M02/M07 Q1035 NOSIG=
201202020550 METAR COR EGLL 020550Z 05007KT 360V070 CAVOK M02/M08 Q1035
                        NOSIG=
201202020520 METAR COR EGLL 020520Z 06008KT CAVOK M02/M08 Q1035 NOSIG=
201202020450 METAR COR EGLL 020450Z 05006KT 020V080 CAVOK M02/M08 Q1035
                        NOSIG=
201202020420 METAR COR EGLL 020420Z 04007KT CAVOK M02/M08 Q1035 NOSIG=
201202020350 METAR COR EGLL 020350Z 03008KT 360V070 CAVOK M02/M08 Q1035
                        NOSIG=
201202020320 METAR COR EGLL 020320Z 04007KT 010V080 CAVOK M02/M08 Q1035
                        NOSIG=
201202020250 METAR COR EGLL 020250Z 03006KT 360V070 CAVOK M02/M08 Q1035
                        NOSIG=
201202020220 METAR EGLL 020220Z AUTO 02006KT 9999 NCD M02/M08 Q1035=
201202020150 METAR EGLL 020150Z AUTO 03007KT 350V060 9999 NCD M02/M08
                        Q1035=
201202020120 METAR EGLL 020120Z AUTO 03006KT 9999 NCD M02/M08 Q1035=
201202020050 METAR COR EGLL 020050Z 04006KT 010V090 CAVOK M01/M08 Q1035
                        NOSIG=
201202020020 METAR COR EGLL 020020Z 05008KT CAVOK M01/M08 Q1035 NOSIG=
201202012350 METAR COR EGLL 012350Z 05010KT CAVOK M01/M08 Q1035 NOSIG=
201202012320 METAR COR EGLL 012320Z 04008KT CAVOK M01/M08 Q1035 NOSIG=
201202012250 METAR COR EGLL 012250Z 04008KT 360V070 CAVOK M01/M08 Q1035
                        NOSIG=
201202012220 METAR COR EGLL 012220Z 04009KT 360V070 CAVOK M01/M08 Q1035
                        NOSIG=
201202012150 METAR COR EGLL 012150Z 04009KT CAVOK M01/M08 Q1035 NOSIG=
201202012120 METAR COR EGLL 012120Z 05007KT 020V090 CAVOK M01/M08 Q1035
                        NOSIG=
201202012050 METAR COR EGLL 012050Z 04007KT 010V070 CAVOK M01/M08 Q1035
                        NOSIG=
201202012020 METAR COR EGLL 012020Z 05009KT 010V080 CAVOK M01/M08 Q1034
                        NOSIG=
201202011950 METAR COR EGLL 011950Z 05008KT CAVOK M00/M08 Q1034 NOSIG=
201202011920 METAR COR EGLL 011920Z 05008KT 020V090 CAVOK M00/M08 Q1034
                        NOSIG=
201202011850 METAR COR EGLL 011850Z 05009KT CAVOK 00/M08 Q1034 NOSIG=
201202011820 METAR COR EGLL 011820Z 06010KT CAVOK 00/M08 Q1034 NOSIG=
201202011750 METAR COR EGLL 011750Z 05009KT CAVOK 01/M08 Q1034 NOSIG=
201202011720 METAR COR EGLL 011720Z 06009KT 030V090 CAVOK 01/M08 Q1034
                        NOSIG=
201202011650 METAR COR EGLL 011650Z 06013G23KT 9999 FEW040 02/M08 Q1033
                        NOSIG=
201202011620 METAR COR EGLL 011620Z 05011KT 9999 FEW040 02/M08 Q1033 NOSIG=
201202011550 METAR COR EGLL 011550Z 06014KT 9999 FEW040 03/M09 Q1033 NOSIG=
201202011520 METAR COR EGLL 011520Z 07014KT 9999 FEW040 03/M09 Q1033 NOSIG=
201202011450 METAR EGLL 011450Z 07015KT 9999 FEW040 03/M08 Q1033=
201202011420 METAR COR EGLL 011420Z 06011KT 9999 FEW040 04/M07 Q1033 NOSIG=
201202011350 METAR COR EGLL 011350Z 06014KT 9999 FEW033 03/M07 Q1033 NOSIG=
201202011320 METAR EGLL 011320Z 07013KT 9999 FEW033 03/M05 Q1033=
201202011250 METAR COR EGLL 011250Z 07012KT 9999 FEW028 03/M04 Q1033 NOSIG=
201202011220 METAR COR EGLL 011220Z 07012KT 020V090 9999 SCT026 02/M04
                        Q1033 NOSIG=
201202011150 METAR COR EGLL 011150Z 07011KT 9999 SCT023 02/M04 Q1033 NOSIG=
201202011120 METAR COR EGLL 011120Z 07010KT 9999 SCT023 02/M04 Q1033 NOSIG=
201202011050 METAR COR EGLL 011050Z 07013G24KT 9999 SCT022 01/M04 Q1033
                        NOSIG=
201202011020 METAR COR EGLL 011020Z 06011KT 9999 FEW030 01/M04 Q1033 NOSIG=
201202010950 METAR COR EGLL 010950Z 06010KT CAVOK 01/M04 Q1032 NOSIG=
201202010920 METAR COR EGLL 010920Z 05008KT 9000 NSC M00/M04 Q1032 NOSIG=
201202010850 METAR COR EGLL 010850Z 04008KT 010V070 9000 NSC M01/M04 Q1032
                        NOSIG=
201202010820 METAR COR EGLL 010820Z 04007KT 010V080 7000 NSC M01/M04 Q1032
                        NOSIG=
201202010750 METAR COR EGLL 010750Z 04007KT 9000 SCT025 M01/M04 Q1032
                        NOSIG=
201202010720 METAR COR EGLL 010720Z 05008KT 9000 BKN026 M00/M04 Q1031
                        NOSIG=
201202010650 METAR EGLL 010650Z 06008KT 010V080 9999 BKN026 M00/M04 Q1031=
201202010620 METAR EGLL 010620Z 06010KT 9999 BKN025 M00/M04 Q1031=
201202010550 METAR EGLL 010550Z 06009KT 9999 BKN025 00/M04 Q1031=
201202010520 METAR EGLL 010520Z 06011KT 9000 BKN024 00/M04 Q1030=
201202010450 METAR COR EGLL 010450Z 06010KT 9000 BKN025 00/M04 Q1030 NOSIG=
201202010420 METAR COR EGLL 010420Z 05008KT 010V080 9000 BKN026 00/M03
                        Q1030 NOSIG=
201202010350 METAR EGLL 010350Z AUTO 05008KT 010V070 9000 OVC023/// 01/M03
                        Q1030=
201202010320 METAR EGLL 010320Z AUTO 06008KT 9000 BKN021/// 01/M03 Q1029=
201202010250 METAR EGLL 010250Z AUTO 06012KT 9000 OVC024/// 01/M03 Q1030=
201202010220 METAR COR EGLL 010220Z 06010KT 9000 BKN022 01/M03 Q1030 NOSIG=
201202010150 METAR COR EGLL 010150Z 06010KT 9000 BKN024 01/M03 Q1030 NOSIG=
201202010120 METAR COR EGLL 010120Z 06008KT 9000 BKN022 01/M03 Q1029 NOSIG=
201202010050 METAR COR EGLL 010050Z 06009KT 9000 BKN024 01/M03 Q1029 NOSIG=
201202010020 METAR COR EGLL 010020Z 06009KT 9000 SCT025 01/M03 Q1029 NOSIG=
