##########################################################
# Query made at 01/13/2020 12:19:24 UTC
# Time interval: from 02/01/2016 00:00  to 03/02/2016 23:59  UTC
##########################################################

##########################################################
# EGLL, London / Heathrow Airport (United Kingdom)
# WMO index: 03772
# Latitude 51-29N. Longitude 000-27W. Altitude 24 m.
##########################################################

###################################
#  METAR/SPECI from EGLL
###################################
201603022350 METAR COR EGLL 022350Z AUTO 29017KT 9999 SCT027 BKN041 06/02
                        Q1000 TEMPO SHRA BKN014=
201603022320 METAR COR EGLL 022320Z AUTO 28016KT 9999 BKN032 06/02 Q1000
                        TEMPO SHRA=
201603022250 METAR COR EGLL 022250Z AUTO 28016KT 9999 SCT032 BKN047 06/02
                        Q1000 TEMPO SHRA=
201603022220 METAR COR EGLL 022220Z AUTO 28016KT 9999 BKN035 06/02 Q1000
                        TEMPO SHRA=
201603022150 METAR COR EGLL 022150Z AUTO 28013KT 9999 SCT035 SCT042 06/02
                        Q1000 TEMPO SHRA=
201603022120 METAR COR EGLL 022120Z AUTO 28012KT 9999 BKN034 05/02 Q1000
                        TEMPO SHRA=
201603022050 METAR COR EGLL 022050Z AUTO 28014KT 9999 FEW032 SCT044 05/02
                        Q1000 TEMPO SHRA=
201603022020 METAR COR EGLL 022020Z AUTO 27015KT 9999 -RA BKN031 05/02
                        Q1000 TEMPO SHRA=
201603021950 METAR COR EGLL 021950Z AUTO 27014KT 9999 -RA SCT033/// BKN047///
                        //////TCU 06/01 Q0999 TEMPO SHRA=
201603021920 METAR COR EGLL 021920Z AUTO 27014KT 9999 NCD 06/01 Q0999
                        TEMPO SHRA=
201603021850 METAR COR EGLL 021850Z AUTO 27012KT 9999 NCD 06/00 Q0999
                        TEMPO SHRA=
201603021820 METAR COR EGLL 021820Z AUTO 27008KT 9999 NCD 05/00 Q0999
                        NOSIG=
201603021750 METAR COR EGLL 021750Z AUTO 27009KT 9999 SCT045 05/01 Q0999
                        NOSIG=
201603021720 METAR COR EGLL 021720Z AUTO 28012KT 9999 SCT045 05/01 Q0999
                        NOSIG=
201603021650 METAR COR EGLL 021650Z AUTO 28012KT 9999 NCD 05/01 Q0999
                        NOSIG=
201603021620 METAR COR EGLL 021620Z AUTO 29014KT 9999 //////CB 05/01 Q0998
                        NOSIG=
201603021550 METAR COR EGLL 021550Z AUTO 29015G27KT 9999 FEW021/// //////CB
                        05/01 Q0998 TEMPO SHRA=
201603021520 METAR COR EGLL 021520Z AUTO 30016G28KT 9999 -RA SCT012///
                        SCT027/// //////CB 05/01 Q0998 TEMPO
                        SHRA BKN014=
201603021450 METAR COR EGLL 021450Z AUTO 30018G31KT 9999 FEW029 BKN036
                        07/M01 Q0997 TEMPO 4000 SHRASN BKN014=
201603021420 METAR COR EGLL 021420Z AUTO 30018G29KT 9999 BKN032 07/M00
                        Q0996 TEMPO SHRA=
201603021350 METAR COR EGLL 021350Z AUTO 29020G32KT 9999 BKN027 OVC047
                        06/01 Q0996 NOSIG=
201603021320 METAR COR EGLL 021320Z AUTO 29021G37KT 9999 SCT014 BKN035
                        06/02 Q0995 TEMPO SHRA BKN014=
201603021250 METAR COR EGLL 021250Z AUTO 29027G38KT 9999 -RA BKN014 05/02
                        Q0995 TEMPO 4000 SHRASN=
201603021220 METAR COR EGLL 021220Z AUTO 27027KT 9999 -RA SCT012 BKN025
                        05/02 Q0994 TEMPO SHRA BKN014=
201603021150 METAR COR EGLL 021150Z AUTO 25021KT 9999 BKN020 05/02 Q0994
                        TEMPO 4000 SHRA BKN014=
201603021120 METAR EGLL 021120Z AUTO 24019KT 9999 FEW010 04/02 Q0995 RETS
                        RERA TEMPO SHRA BKN014=
201603021050 METAR COR EGLL 021050Z AUTO 26015KT 220V280 3500 TSRA BKN008///
                        OVC034/// //////CB 04/02 Q0997 TEMPO
                        9999 NSW FEW008 SCT020=
201603021020 METAR COR EGLL 021020Z AUTO 24018KT 8000 -RA BKN011/// OVC037///
                        //////CB 04/02 Q0997 RERA TEMPO 3000
                        +SHRAGS BKN009 BKN013CB=
201603020950 METAR COR EGLL 020950Z AUTO 24017KT 9999 -RA FEW008/// BKN013///
                        BKN025/// //////TCU 05/03 Q0997 TEMPO
                        4000 SHRA=
201603020920 METAR COR EGLL 020920Z AUTO 25019KT 9999 SCT017/// //////TCU
                        05/02 Q0998 TEMPO 4000 +SHRA BKN014CB=
201603020850 METAR COR EGLL 020850Z AUTO 25018KT 9999 SCT014/// //////TCU
                        05/01 Q0999 TEMPO 4000 +SHRA BKN014CB=
201603020820 METAR COR EGLL 020820Z AUTO 24013KT 9999 BKN027/// //////TCU
                        05/00 Q0999 TEMPO 3500 +SHRA BKN014CB=
201603020750 METAR COR EGLL 020750Z AUTO 23013KT 9999 FEW037 04/00 Q1000
                        TEMPO SHRA=
201603020720 METAR COR EGLL 020720Z AUTO 24012KT 9999 NCD 04/M00 Q1000
                        NOSIG=
201603020650 METAR COR EGLL 020650Z AUTO 25015KT 9999 NCD 04/M01 Q1001
                        NOSIG=
201603020620 METAR COR EGLL 020620Z AUTO 27015KT 9999 NCD 04/M01 Q1001
                        NOSIG=
201603020550 METAR COR EGLL 020550Z AUTO 26017KT 9999 SCT027 05/00 Q1001
                        NOSIG=
201603020520 METAR COR EGLL 020520Z AUTO 25012KT 9999 FEW040 05/01 Q1001
                        NOSIG=
201603020450 METAR COR EGLL 020450Z AUTO 27012KT 9999 FEW033 05/00 Q1001
                        NOSIG=
201603020420 METAR COR EGLL 020420Z AUTO 26013KT 9999 FEW032 05/01 Q1001
                        NOSIG=
201603020350 METAR COR EGLL 020350Z AUTO 27008KT 9999 SCT026 05/03 Q1002
                        NOSIG=
201603020320 METAR COR EGLL 020320Z AUTO 28010KT 9999 NCD 05/02 Q1002
                        NOSIG=
201603020250 METAR COR EGLL 020250Z AUTO 27011KT 9999 FEW028/// //////TCU
                        06/03 Q1002 NOSIG=
201603020220 METAR COR EGLL 020220Z AUTO 29012KT 9999 -RA SCT012/// BKN025///
                        //////TCU 06/04 Q1002 RERA REDZ TEMPO
                        BKN012=
201603020150 METAR COR EGLL 020150Z AUTO 25019KT 9999 -RA BKN022/// //////TCU
                        08/04 Q1002 TEMPO SHRA BKN014=
201603020120 METAR COR EGLL 020120Z AUTO 23015KT 9999 SCT028/// BKN043///
                        //////CB 08/04 Q1002 TEMPO SHRA BKN014=
201603020050 METAR COR EGLL 020050Z AUTO 23014KT 9999 SCT022 OVC037 08/04
                        Q1002 NOSIG=
201603020020 METAR COR EGLL 020020Z AUTO 24014KT 9999 FEW023 08/04 Q1003
                        NOSIG=
201603012350 METAR COR EGLL 012350Z AUTO 25014KT 9999 FEW021 08/04 Q1003
                        TEMPO SHRA BKN014=
201603012320 METAR COR EGLL 012320Z AUTO 25013KT 9999 BKN022 BKN040 09/05
                        Q1004 TEMPO SHRA BKN014=
201603012250 METAR COR EGLL 012250Z AUTO 24013KT 9999 SCT022 BKN045 09/05
                        Q1004 TEMPO SHRA BKN014=
201603012220 METAR COR EGLL 012220Z AUTO 24014KT 9999 BKN046 09/05 Q1004
                        NOSIG=
201603012150 METAR COR EGLL 012150Z AUTO 24015KT 9999 OVC044 09/05 Q1004
                        NOSIG=
201603012120 METAR COR EGLL 012120Z AUTO 24014KT 9999 FEW023 OVC042 10/05
                        Q1005 NOSIG=
201603012050 METAR COR EGLL 012050Z AUTO 24014KT 9999 FEW026 OVC036 10/05
                        Q1005 NOSIG=
201603012020 METAR EGLL 012020Z AUTO 25016KT 9999 BKN026 10/05 Q1005=
201603011950 METAR COR EGLL 011950Z AUTO 25016KT 9999 NCD 10/05 Q1005
                        NOSIG=
201603011920 METAR COR EGLL 011920Z AUTO 25019KT 9999 NCD 11/05 Q1005
                        NOSIG=
201603011850 METAR COR EGLL 011850Z AUTO 25018KT 9999 NCD 11/05 Q1006
                        NOSIG=
201603011820 METAR COR EGLL 011820Z AUTO 25019KT 9999 FEW025 10/06 Q1006
                        NOSIG=
201603011750 METAR COR EGLL 011750Z AUTO 26016KT 9999 BKN022 11/07 Q1006
                        NOSIG=
201603011720 METAR COR EGLL 011720Z AUTO 26016KT 9999 OVC021/// 12/07
                        Q1006 NOSIG=
201603011650 METAR COR EGLL 011650Z AUTO 26020KT 9999 OVC018 12/08 Q1006
                        NOSIG=
201603011620 METAR EGLL 011620Z AUTO 26020G30KT 9999 BKN018 12/09 Q1006=
201603011550 METAR COR EGLL 011550Z AUTO 25017KT 9999 BKN017/// OVC033///
                        13/09 Q1006 NOSIG=
201603011520 METAR COR EGLL 011520Z AUTO 25015KT 9999 BKN017 13/09 Q1006
                        NOSIG=
201603011450 METAR COR EGLL 011450Z AUTO 27013KT 9999 BKN016 13/09 Q1007
                        NOSIG=
201603011420 METAR COR EGLL 011420Z AUTO 25015KT 9999 BKN014 13/09 Q1007
                        BECMG SCT014=
201603011350 METAR COR EGLL 011350Z AUTO 25016KT 9999 BKN012 12/10 Q1007
                        BECMG SCT012 BKN020=
201603011320 METAR COR EGLL 011320Z AUTO 23016KT 9999 BKN010 OVC022 12/10
                        Q1007 BECMG SCT010 BKN022=
201603011250 METAR COR EGLL 011250Z AUTO 24015KT 9999 BKN010 11/09 Q1007
                        TEMPO SCT010=
201603011220 METAR EGLL 011220Z AUTO 23015KT 9999 BKN010 11/09 Q1008=
201603011150 METAR COR EGLL 011150Z AUTO 22014KT 9999 -RA BKN008 OVC021
                        10/09 Q1008 BECMG BKN010=
201603011120 METAR COR EGLL 011120Z AUTO 22014KT 9000 -RA BKN008 OVC021
                        10/09 Q1009 BECMG BKN010=
201603011050 METAR EGLL 011050Z AUTO 22014KT 9000 -RA BKN008/// OVC020///
                        //////TCU 10/09 Q1009=
201603011020 METAR EGLL 011020Z AUTO 22015KT 8000 -RA OVC008 10/09 Q1010=
201603010950 METAR COR EGLL 010950Z AUTO 21015KT 4300 -RA BKN007 10/09
                        Q1010 TEMPO 6000 RA=
201603010920 METAR COR EGLL 010920Z AUTO 22014KT 3600 -RADZ BKN006 OVC015
                        10/08 Q1011 TEMPO 6000 NSW=
201603010850 METAR COR EGLL 010850Z AUTO 20013KT 4000 -DZ BKN005 OVC017
                        09/08 Q1012 TEMPO 9999 NSW=
201603010820 METAR COR EGLL 010820Z AUTO 20013KT 9999 BKN005 BKN015 08/07
                        Q1012 NOSIG=
201603010750 METAR COR EGLL 010750Z AUTO 20012KT 9999 OVC005 08/07 Q1013
                        NOSIG=
201603010720 METAR COR EGLL 010720Z AUTO 19012KT 9999 -RA OVC005 07/06
                        Q1013 NOSIG=
201603010650 METAR COR EGLL 010650Z AUTO 20012KT 170V240 9999 -RA OVC005
                        07/06 Q1014 TEMPO SCT006 BKN010=
201603010620 METAR COR EGLL 010620Z AUTO 20013KT 8000 -RA OVC005 07/06
                        Q1015 TEMPO SCT008 BKN010=
201603010550 METAR COR EGLL 010550Z AUTO 19013KT 9999 BKN005 OVC014 06/05
                        Q1016 TEMPO SCT008 BKN014=
201603010520 METAR COR EGLL 010520Z AUTO 19015KT 4500 -RADZ OVC005 06/05
                        Q1016 TEMPO 7000 SCT006 BKN010=
201603010450 METAR COR EGLL 010450Z AUTO 20013KT 8000 OVC005 06/05 Q1017
                        TEMPO SCT006 BKN010=
201603010420 METAR COR EGLL 010420Z AUTO 20013KT 4600 HZ OVC005 05/04
                        Q1018 TEMPO FEW005 BKN007=
201603010350 METAR COR EGLL 010350Z AUTO 20011KT 4100 -RADZ OVC005 05/04
                        Q1018 TEMPO SCT006 BKN008=
201603010320 METAR COR EGLL 010320Z AUTO 20010KT 4600 -DZ OVC006 05/04
                        Q1019 TEMPO 7000 -RA SCT007 BKN010=
201603010250 METAR COR EGLL 010250Z AUTO 19010KT 9999 BKN008 05/03 Q1020
                        TEMPO SCT009 BKN012=
201603010220 METAR COR EGLL 010220Z AUTO 19011KT 6000 -RA BKN009 BKN019
                        04/03 Q1021 TEMPO SCT009 BKN014=
201603010150 METAR COR EGLL 010150Z AUTO 19011KT 9999 FEW013 BKN022 04/02
                        Q1021 BECMG BKN012=
201603010120 METAR COR EGLL 010120Z AUTO 19011KT 9999 -RA FEW015 BKN022
                        BKN038 04/02 Q1022 TEMPO BKN014=
201603010050 METAR COR EGLL 010050Z AUTO 20008KT 9999 -RA OVC021 05/02
                        Q1023 NOSIG=
201603010020 METAR COR EGLL 010020Z AUTO 21009KT 9999 -RA BKN023 OVC037
                        05/01 Q1023 NOSIG=
201602292350 METAR COR EGLL 292350Z AUTO 23011KT 9999 -RA OVC030 05/00
                        Q1024 NOSIG=
201602292320 METAR COR EGLL 292320Z AUTO 20007KT 9999 -RA BKN030 05/00
                        Q1024 NOSIG=
201602292250 METAR COR EGLL 292250Z AUTO 21007KT 9999 OVC036 05/00 Q1024
                        NOSIG=
201602292220 METAR COR EGLL 292220Z AUTO 22009KT 9999 BKN049 06/00 Q1025
                        NOSIG=
201602292150 METAR COR EGLL 292150Z AUTO 22009KT 9999 NCD 06/00 Q1025
                        NOSIG=
201602292120 METAR COR EGLL 292120Z AUTO 22007KT 9999 NCD 06/M00 Q1025
                        NOSIG=
201602292050 METAR COR EGLL 292050Z AUTO 20007KT 160V230 9999 NCD 06/M01
                        Q1025 NOSIG=
201602292020 METAR COR EGLL 292020Z AUTO 18008KT 160V220 9999 NCD 06/M01
                        Q1025 NOSIG=
201602291950 METAR COR EGLL 291950Z AUTO 18008KT 150V220 9999 NCD 06/M01
                        Q1025 NOSIG=
201602291920 METAR COR EGLL 291920Z AUTO 18007KT 150V220 9999 NCD 06/M02
                        Q1025 NOSIG=
201602291850 METAR COR EGLL 291850Z AUTO 18006KT 080V240 9999 NCD 07/M02
                        Q1025 NOSIG=
201602291820 METAR COR EGLL 291820Z AUTO 18005KT 140V260 9999 NCD 07/M02
                        Q1026 NOSIG=
201602291750 METAR COR EGLL 291750Z AUTO 15004KT 9999 NCD 07/M02 Q1026
                        NOSIG=
201602291720 METAR COR EGLL 291720Z AUTO VRB02KT 9999 NCD 07/M02 Q1026
                        NOSIG=
201602291650 METAR COR EGLL 291650Z AUTO VRB03KT 9999 NCD 08/M02 Q1026
                        NOSIG=
201602291620 METAR COR EGLL 291620Z AUTO VRB01KT 9999 FEW042 08/M02 Q1026
                        NOSIG=
201602291550 METAR COR EGLL 291550Z AUTO 28004KT 230V320 9999 FEW043 08/M02
                        Q1026 NOSIG=
201602291520 METAR COR EGLL 291520Z AUTO VRB02KT 9999 NCD 08/M02 Q1026
                        NOSIG=
201602291450 METAR COR EGLL 291450Z AUTO 17004KT 9999 NCD 09/M02 Q1026
                        NOSIG=
201602291420 METAR COR EGLL 291420Z AUTO VRB02KT 9999 NCD 08/M02 Q1026
                        NOSIG=
201602291350 METAR COR EGLL 291350Z AUTO 13004KT 100V170 9999 FEW040 08/M02
                        Q1026 NOSIG=
201602291320 METAR COR EGLL 291320Z AUTO VRB02KT 9999 SCT039 08/M02 Q1027
                        NOSIG=
201602291250 METAR COR EGLL 291250Z AUTO 11004KT 080V150 9999 SCT039 08/M02
                        Q1027 NOSIG=
201602291220 METAR COR EGLL 291220Z AUTO VRB02KT 9999 FEW036 08/M01 Q1027
                        NOSIG=
201602291150 METAR COR EGLL 291150Z AUTO VRB03KT 9999 FEW035 08/M01 Q1027
                        NOSIG=
201602291120 METAR COR EGLL 291120Z AUTO 06006KT 010V120 9999 FEW032 07/M01
                        Q1027 NOSIG=
201602291050 METAR COR EGLL 291050Z AUTO 05006KT 010V100 9999 NCD 07/M01
                        Q1027 NOSIG=
201602291020 METAR COR EGLL 291020Z AUTO 06006KT 040V100 9999 NCD 07/M01
                        Q1028 NOSIG=
201602290950 METAR COR EGLL 290950Z AUTO 06006KT 020V080 9999 NCD 06/M01
                        Q1028 NOSIG=
201602290920 METAR COR EGLL 290920Z AUTO 06005KT 010V080 9999 NCD 05/M00
                        Q1028 NOSIG=
201602290850 METAR COR EGLL 290850Z AUTO 04004KT 9999 NCD 04/00 Q1028
                        NOSIG=
201602290820 METAR COR EGLL 290820Z AUTO VRB03KT 9999 NCD 02/M00 Q1028
                        NOSIG=
201602290750 METAR COR EGLL 290750Z AUTO VRB02KT 9999 NCD 01/M01 Q1028
                        NOSIG=
201602290720 METAR COR EGLL 290720Z AUTO 35004KT 320V020 9999 NCD 00/M01
                        Q1027 NOSIG=
201602290650 METAR COR EGLL 290650Z AUTO VRB03KT 9999 NCD M00/M02 Q1027
                        NOSIG=
201602290620 METAR COR EGLL 290620Z AUTO 00000KT 9999 NCD 00/M01 Q1027
                        NOSIG=
201602290550 METAR COR EGLL 290550Z AUTO 36004KT 330V050 9999 NCD 00/M01
                        Q1027 NOSIG=
201602290520 METAR COR EGLL 290520Z AUTO 01004KT 9999 SCT028 01/M01 Q1026
                        NOSIG=
201602290450 METAR COR EGLL 290450Z AUTO 36004KT 340V040 9999 BKN027 01/M01
                        Q1026 NOSIG=
201602290420 METAR COR EGLL 290420Z AUTO VRB03KT 9999 NCD 00/M02 Q1026
                        NOSIG=
201602290350 METAR COR EGLL 290350Z AUTO VRB02KT 9999 NCD 01/M01 Q1026
                        NOSIG=
201602290320 METAR COR EGLL 290320Z AUTO 02005KT 340V040 9999 NCD 01/M01
                        Q1026 NOSIG=
201602290250 METAR COR EGLL 290250Z AUTO 01004KT 9999 NCD 01/M01 Q1026
                        NOSIG=
201602290220 METAR COR EGLL 290220Z AUTO VRB03KT 9999 NCD 01/M01 Q1026
                        NOSIG=
201602290150 METAR COR EGLL 290150Z AUTO VRB03KT 9999 NCD 01/M01 Q1026
                        NOSIG=
201602290120 METAR COR EGLL 290120Z AUTO 02004KT 340V050 9999 NCD 02/M01
                        Q1026 NOSIG=
201602290050 METAR COR EGLL 290050Z AUTO 36004KT 9999 SCT029 03/M01 Q1026
                        NOSIG=
201602290020 METAR COR EGLL 290020Z AUTO 02004KT 360V060 9999 BKN029 03/M01
                        Q1026 NOSIG=
201602282350 METAR COR EGLL 282350Z AUTO 02005KT 340V050 9999 BKN032 04/M01
                        Q1026 NOSIG=
201602282320 METAR COR EGLL 282320Z AUTO 04005KT 9999 BKN035 04/M01 Q1026
                        NOSIG=
201602282250 METAR COR EGLL 282250Z AUTO 03006KT 350V050 9999 OVC034 05/M01
                        Q1026 NOSIG=
201602282220 METAR COR EGLL 282220Z AUTO 04006KT 9999 OVC031 05/M02 Q1026
                        NOSIG=
201602282150 METAR COR EGLL 282150Z AUTO 06007KT 9999 OVC032 05/M01 Q1026
                        NOSIG=
201602282120 METAR COR EGLL 282120Z AUTO 05006KT 9999 OVC030 05/M01 Q1026
                        NOSIG=
201602282050 METAR COR EGLL 282050Z AUTO 05007KT 020V080 9999 BKN027 04/M01
                        Q1025 NOSIG=
201602282020 METAR COR EGLL 282020Z AUTO 05006KT 9999 BKN030 04/M02 Q1025
                        NOSIG=
201602281950 METAR COR EGLL 281950Z AUTO 05008KT 9999 FEW036 04/M02 Q1025
                        NOSIG=
201602281920 METAR COR EGLL 281920Z AUTO 05007KT 9999 SCT035 05/M02 Q1025
                        NOSIG=
201602281850 METAR COR EGLL 281850Z AUTO 05006KT 010V070 9999 FEW036 05/M03
                        Q1024 NOSIG=
201602281820 METAR COR EGLL 281820Z AUTO 05007KT 9999 FEW044 05/M03 Q1024
                        NOSIG=
201602281750 METAR COR EGLL 281750Z AUTO 05009KT 020V080 9999 SCT043 06/M04
                        Q1023 NOSIG=
201602281720 METAR COR EGLL 281720Z AUTO 06007KT 020V080 9999 SCT043 06/M04
                        Q1023 NOSIG=
201602281650 METAR COR EGLL 281650Z AUTO 06011KT 030V090 9999 BKN046 07/M04
                        Q1022 NOSIG=
201602281620 METAR COR EGLL 281620Z AUTO 05010KT 010V080 9999 BKN044 07/M04
                        Q1022 NOSIG=
201602281550 METAR COR EGLL 281550Z AUTO 04013KT 9999 BKN044 07/M03 Q1022
                        NOSIG=
201602281520 METAR COR EGLL 281520Z AUTO 05011KT 9999 BKN045 07/M04 Q1022
                        NOSIG=
201602281450 METAR COR EGLL 281450Z AUTO 05011KT 010V080 9999 BKN047 08/M03
                        Q1022 NOSIG=
201602281420 METAR COR EGLL 281420Z AUTO 07014KT 9999 BKN048 08/M04 Q1021
                        NOSIG=
201602281350 METAR COR EGLL 281350Z AUTO 06012KT 030V090 9999 BKN047 07/M04
                        Q1021 NOSIG=
201602281320 METAR COR EGLL 281320Z AUTO 05010KT 010V070 9999 BKN039 07/M03
                        Q1021 NOSIG=
201602281250 METAR COR EGLL 281250Z AUTO 06012KT 020V080 9999 SCT033 BKN049
                        07/M02 Q1021 NOSIG=
201602281220 METAR COR EGLL 281220Z AUTO 05012KT 020V080 9999 SCT031 07/M01
                        Q1022 NOSIG=
201602281150 METAR COR EGLL 281150Z AUTO 06013KT 9999 BKN027 07/M01 Q1022
                        NOSIG=
201602281120 METAR COR EGLL 281120Z AUTO 06014KT 9999 SCT027 07/00 Q1021
                        NOSIG=
201602281050 METAR COR EGLL 281050Z AUTO 06010KT 9999 FEW025 06/00 Q1021
                        NOSIG=
201602281020 METAR COR EGLL 281020Z AUTO 05009KT 360V090 9999 NCD 05/M00
                        Q1021 NOSIG=
201602280950 METAR COR EGLL 280950Z AUTO 05010KT 9999 NCD 05/M00 Q1021
                        NOSIG=
201602280920 METAR COR EGLL 280920Z AUTO 06008KT 010V080 9999 OVC049 05/M00
                        Q1021 NOSIG=
201602280850 METAR COR EGLL 280850Z AUTO 04008KT 9999 NCD 04/M01 Q1020
                        NOSIG=
201602280820 METAR COR EGLL 280820Z AUTO 04008KT 9999 BKN049 04/M01 Q1020
                        NOSIG=
201602280750 METAR COR EGLL 280750Z AUTO 04007KT 010V080 9999 OVC039 04/M01
                        Q1020 NOSIG=
201602280720 METAR COR EGLL 280720Z AUTO 04008KT 010V070 9999 OVC037 04/M01
                        Q1019 NOSIG=
201602280650 METAR COR EGLL 280650Z AUTO 04007KT 9999 SCT047 03/M01 Q1019
                        NOSIG=
201602280620 METAR COR EGLL 280620Z AUTO 04006KT 9999 NCD 03/M02 Q1018
                        NOSIG=
201602280550 METAR COR EGLL 280550Z AUTO 04008KT 9999 NCD 03/M02 Q1018
                        NOSIG=
201602280520 METAR COR EGLL 280520Z AUTO 04008KT 9999 NCD 03/M02 Q1017
                        NOSIG=
201602280450 METAR COR EGLL 280450Z AUTO 04007KT 9999 NCD 03/M02 Q1017
                        NOSIG=
201602280420 METAR COR EGLL 280420Z AUTO 04007KT 9999 FEW041 03/M02 Q1017
                        NOSIG=
201602280350 METAR COR EGLL 280350Z AUTO 04007KT 9999 FEW038 03/M02 Q1017
                        NOSIG=
201602280320 METAR COR EGLL 280320Z AUTO 04008KT 020V080 9999 BKN039 03/M02
                        Q1017 NOSIG=
201602280250 METAR COR EGLL 280250Z AUTO 03007KT 9999 BKN040 03/M02 Q1017
                        NOSIG=
201602280220 METAR COR EGLL 280220Z AUTO 04007KT 010V070 9999 BKN036 03/M02
                        Q1017 NOSIG=
201602280150 METAR COR EGLL 280150Z AUTO 03008KT 360V060 9999 BKN036 03/M02
                        Q1016 NOSIG=
201602280120 METAR COR EGLL 280120Z AUTO 04008KT 9999 BKN038 03/M02 Q1016
                        NOSIG=
201602280050 METAR COR EGLL 280050Z AUTO 04008KT 9999 BKN041 03/M02 Q1016
                        NOSIG=
201602280020 METAR COR EGLL 280020Z AUTO 04008KT 360V060 9999 OVC039 03/M02
                        Q1016 NOSIG=
201602272350 METAR COR EGLL 272350Z AUTO 03008KT 9999 OVC038 04/M02 Q1016
                        NOSIG=
201602272320 METAR COR EGLL 272320Z AUTO 04007KT 010V070 9999 BKN040 04/M02
                        Q1016 NOSIG=
201602272250 METAR COR EGLL 272250Z AUTO 04007KT 360V080 9999 BKN039 04/M02
                        Q1016 NOSIG=
201602272220 METAR COR EGLL 272220Z AUTO 04009KT 010V070 9999 BKN040 04/M02
                        Q1016 NOSIG=
201602272150 METAR COR EGLL 272150Z AUTO 04008KT 010V070 9999 FEW039 04/M03
                        Q1015 NOSIG=
201602272120 METAR COR EGLL 272120Z AUTO 05007KT 010V070 9999 FEW040 04/M03
                        Q1015 NOSIG=
201602272050 METAR COR EGLL 272050Z AUTO 05009KT 9999 NCD 04/M03 Q1015
                        NOSIG=
201602272020 METAR COR EGLL 272020Z AUTO 05008KT 9999 NCD 04/M03 Q1014
                        NOSIG=
201602271950 METAR COR EGLL 271950Z AUTO 05008KT 020V090 9999 FEW041 04/M03
                        Q1014 NOSIG=
201602271920 METAR COR EGLL 271920Z AUTO 06010KT 9999 SCT041 04/M03 Q1014
                        NOSIG=
201602271850 METAR COR EGLL 271850Z AUTO 06011KT 9999 BKN037 05/M04 Q1013
                        NOSIG=
201602271820 METAR COR EGLL 271820Z AUTO 06011KT 9999 BKN038 05/M03 Q1013
                        NOSIG=
201602271750 METAR COR EGLL 271750Z AUTO 06013KT 9999 BKN043 05/M04 Q1013
                        NOSIG=
201602271720 METAR COR EGLL 271720Z AUTO 06012KT 9999 BKN044 05/M04 Q1012
                        NOSIG=
201602271650 METAR COR EGLL 271650Z AUTO 06012KT 9999 SCT042 05/M04 Q1012
                        NOSIG=
201602271620 METAR COR EGLL 271620Z AUTO 07012KT 9999 OVC042 05/M04 Q1012
                        NOSIG=
201602271550 METAR COR EGLL 271550Z AUTO 06013KT 9999 OVC042 05/M04 Q1012
                        NOSIG=
201602271520 METAR COR EGLL 271520Z AUTO 07015KT 9999 OVC042 05/M04 Q1012
                        NOSIG=
201602271450 METAR COR EGLL 271450Z AUTO 06014KT 9999 BKN043 06/M04 Q1011
                        NOSIG=
201602271420 METAR COR EGLL 271420Z AUTO 07012KT 9999 OVC041 06/M04 Q1011
                        NOSIG=
201602271350 METAR COR EGLL 271350Z AUTO 07012KT 9999 OVC042 06/M04 Q1011
                        NOSIG=
201602271320 METAR COR EGLL 271320Z AUTO 06013KT 9999 OVC038 06/M03 Q1011
                        NOSIG=
201602271250 METAR COR EGLL 271250Z AUTO 06011KT 9999 OVC038 06/M03 Q1011
                        NOSIG=
201602271220 METAR COR EGLL 271220Z AUTO 07012KT 9999 OVC032 05/M02 Q1011
                        NOSIG=
201602271150 METAR COR EGLL 271150Z AUTO 06010KT 9999 OVC034 06/M02 Q1011
                        NOSIG=
201602271120 METAR COR EGLL 271120Z AUTO 07010KT 9999 OVC043 06/M02 Q1011
                        NOSIG=
201602271050 METAR COR EGLL 271050Z AUTO 07009KT 9999 OVC035 06/M02 Q1010
                        NOSIG=
201602271020 METAR COR EGLL 271020Z AUTO 07010KT 9999 BKN043 05/M02 Q1010
                        NOSIG=
201602270950 METAR COR EGLL 270950Z AUTO 06009KT 9999 BKN042 05/M02 Q1010
                        NOSIG=
201602270920 METAR COR EGLL 270920Z AUTO 06009KT 9999 FEW045 05/M02 Q1010
                        NOSIG=
201602270850 METAR COR EGLL 270850Z AUTO 06009KT 9999 NCD 05/M02 Q1010
                        NOSIG=
201602270820 METAR COR EGLL 270820Z AUTO 06007KT 9999 NCD 04/M02 Q1009
                        NOSIG=
201602270750 METAR COR EGLL 270750Z AUTO 06007KT 9999 FEW032 OVC038 04/M01
                        Q1009 NOSIG=
201602270720 METAR COR EGLL 270720Z AUTO 06005KT 9999 BKN048 03/M01 Q1009
                        NOSIG=
201602270650 METAR COR EGLL 270650Z AUTO 06005KT 9999 NCD 03/M02 Q1008
                        NOSIG=
201602270620 METAR COR EGLL 270620Z AUTO 05004KT 9999 SCT039 03/M02 Q1008
                        NOSIG=
201602270550 METAR COR EGLL 270550Z AUTO 06006KT 9999 OVC044 03/M02 Q1008
                        NOSIG=
201602270520 METAR COR EGLL 270520Z AUTO 06005KT 9999 NCD 03/M02 Q1007
                        NOSIG=
201602270450 METAR COR EGLL 270450Z AUTO 05005KT 9999 NCD 03/M01 Q1007
                        NOSIG=
201602270420 METAR COR EGLL 270420Z AUTO 04005KT 9999 NCD 03/M01 Q1007
                        NOSIG=
201602270350 METAR COR EGLL 270350Z AUTO 05005KT 9999 NCD 03/M01 Q1007
                        NOSIG=
201602270320 METAR COR EGLL 270320Z AUTO 04004KT 9999 NCD 04/M01 Q1007
                        NOSIG=
201602270250 METAR COR EGLL 270250Z AUTO 04005KT 9999 NCD 04/M01 Q1007
                        NOSIG=
201602270220 METAR COR EGLL 270220Z AUTO 04004KT 9999 NCD 04/M01 Q1007
                        NOSIG=
201602270150 METAR COR EGLL 270150Z AUTO 06005KT 9000 NCD 04/M00 Q1007
                        NOSIG=
201602270120 METAR COR EGLL 270120Z AUTO 05005KT 9999 NCD 04/M01 Q1007
                        NOSIG=
201602270050 METAR COR EGLL 270050Z AUTO 07005KT 9999 NCD 04/M01 Q1007
                        NOSIG=
201602270020 METAR COR EGLL 270020Z AUTO 06005KT 9999 NCD 05/M01 Q1007
                        NOSIG=
201602262350 METAR COR EGLL 262350Z AUTO 07005KT 9999 NCD 05/M01 Q1007
                        NOSIG=
201602262320 METAR COR EGLL 262320Z AUTO 08007KT 9999 NCD 05/M01 Q1007
                        NOSIG=
201602262250 METAR COR EGLL 262250Z AUTO 09007KT 9999 NCD 05/M00 Q1007
                        NOSIG=
201602262220 METAR COR EGLL 262220Z AUTO 09008KT 9999 NCD 05/M00 Q1007
                        NOSIG=
201602262150 METAR COR EGLL 262150Z AUTO 09006KT 9999 NCD 05/M00 Q1007
                        NOSIG=
201602262120 METAR COR EGLL 262120Z AUTO 10008KT 9999 NCD 05/M00 Q1007
                        NOSIG=
201602262050 METAR COR EGLL 262050Z AUTO 10007KT 9999 NCD 05/M00 Q1007
                        NOSIG=
201602262020 METAR COR EGLL 262020Z AUTO 10008KT 9999 OVC047 05/00 Q1007
                        NOSIG=
201602261950 METAR COR EGLL 261950Z AUTO 10008KT 9999 SCT037 05/M00 Q1007
                        NOSIG=
201602261920 METAR COR EGLL 261920Z AUTO 10009KT 9999 BKN034 05/M00 Q1007
                        NOSIG=
201602261850 METAR COR EGLL 261850Z AUTO 10010KT 9999 BKN034 05/M01 Q1007
                        NOSIG=
201602261820 METAR COR EGLL 261820Z AUTO 11010KT 9999 SCT031 05/M01 Q1007
                        NOSIG=
201602261750 METAR COR EGLL 261750Z AUTO 11010KT 9999 FEW035 04/M02 Q1007
                        NOSIG=
201602261720 METAR COR EGLL 261720Z AUTO 12012KT 9999 NCD 05/M01 Q1007
                        NOSIG=
201602261650 METAR COR EGLL 261650Z AUTO 12012KT 9999 NCD 06/M01 Q1007
                        NOSIG=
201602261620 METAR COR EGLL 261620Z AUTO 12011KT 9999 OVC044 06/M02 Q1007
                        NOSIG=
201602261550 METAR COR EGLL 261550Z AUTO 13009KT 9999 BKN036 06/M02 Q1007
                        NOSIG=
201602261520 METAR COR EGLL 261520Z AUTO 12010KT 9999 BKN037 07/M01 Q1007
                        NOSIG=
201602261450 METAR COR EGLL 261450Z AUTO 12009KT 9999 FEW040 07/M02 Q1007
                        NOSIG=
201602261420 METAR COR EGLL 261420Z AUTO 13008KT 9999 FEW042 08/M02 Q1008
                        NOSIG=
201602261350 METAR COR EGLL 261350Z AUTO 13008KT 090V160 9999 FEW044 08/M03
                        Q1008 NOSIG=
201602261320 METAR COR EGLL 261320Z AUTO 12009KT 9999 FEW044 08/M03 Q1008
                        NOSIG=
201602261250 METAR COR EGLL 261250Z AUTO 13007KT 080V180 9999 FEW045 08/M03
                        Q1009 NOSIG=
201602261220 METAR COR EGLL 261220Z AUTO 14007KT 9999 NCD 08/M03 Q1009
                        NOSIG=
201602261150 METAR COR EGLL 261150Z AUTO 14008KT 110V180 9999 NCD 08/M03
                        Q1010 NOSIG=
201602261120 METAR COR EGLL 261120Z AUTO 15009KT 9999 NCD 07/M02 Q1010
                        NOSIG=
201602261050 METAR COR EGLL 261050Z AUTO 14007KT 110V170 9999 FEW049 06/M03
                        Q1010 NOSIG=
201602261020 METAR COR EGLL 261020Z AUTO 13006KT 9999 FEW049 05/M03 Q1010
                        NOSIG=
201602260950 METAR COR EGLL 260950Z AUTO 12009KT 9999 OVC046 04/M03 Q1011
                        NOSIG=
201602260920 METAR COR EGLL 260920Z AUTO 11007KT 9999 OVC045 03/M03 Q1011
                        NOSIG=
201602260850 METAR COR EGLL 260850Z AUTO 10005KT 9999 OVC045 03/M03 Q1011
                        NOSIG=
201602260820 METAR COR EGLL 260820Z AUTO 11005KT 9999 OVC044 02/M02 Q1011
                        NOSIG=
201602260750 METAR COR EGLL 260750Z AUTO 12005KT 9999 BKN044 02/M03 Q1011
                        NOSIG=
201602260720 METAR COR EGLL 260720Z AUTO 12003KT 9999 BKN043 02/M03 Q1011
                        NOSIG=
201602260650 METAR COR EGLL 260650Z AUTO 13005KT 9999 BKN042 01/M03 Q1012
                        NOSIG=
201602260620 METAR COR EGLL 260620Z AUTO 09005KT 9999 BKN042 01/M02 Q1012
                        NOSIG=
201602260550 METAR COR EGLL 260550Z AUTO 09003KT 9999 OVC044 01/M03 Q1012
                        NOSIG=
201602260520 METAR COR EGLL 260520Z AUTO 08002KT 9999 NCD 01/M03 Q1012
                        NOSIG=
201602260450 METAR COR EGLL 260450Z AUTO VRB02KT 9999 NCD 01/M03 Q1012
                        NOSIG=
201602260420 METAR COR EGLL 260420Z AUTO 13003KT 9999 NCD 01/M03 Q1012
                        NOSIG=
201602260350 METAR COR EGLL 260350Z AUTO 19002KT 9999 NCD 01/M02 Q1013
                        NOSIG=
201602260320 METAR COR EGLL 260320Z AUTO 10002KT 9999 NCD 01/M02 Q1013
                        NOSIG=
201602260250 METAR COR EGLL 260250Z AUTO 11002KT 9999 OVC049 01/M02 Q1014
                        NOSIG=
201602260220 METAR COR EGLL 260220Z AUTO 10002KT 9999 OVC049 01/M03 Q1014
                        NOSIG=
201602260150 METAR COR EGLL 260150Z AUTO 12001KT 9999 BKN046 01/M03 Q1014
                        NOSIG=
201602260120 METAR COR EGLL 260120Z AUTO 17002KT 9999 OVC048 01/M03 Q1015
                        NOSIG=
201602260050 METAR COR EGLL 260050Z AUTO 16001KT 9999 OVC048 01/M03 Q1015
                        NOSIG=
201602260020 METAR COR EGLL 260020Z AUTO 17001KT 9999 OVC048 01/M02 Q1015
                        NOSIG=
201602252350 METAR COR EGLL 252350Z AUTO 18001KT 9999 OVC048 01/M02 Q1015
                        NOSIG=
201602252320 METAR COR EGLL 252320Z AUTO VRB01KT 9999 BKN048 00/M03 Q1016
                        NOSIG=
201602252250 METAR COR EGLL 252250Z AUTO 23004KT 180V330 9999 BKN048 00/M03
                        Q1016 NOSIG=
201602252220 METAR COR EGLL 252220Z AUTO 23005KT 190V270 9999 BKN048 01/M03
                        Q1016 NOSIG=
201602252150 METAR COR EGLL 252150Z AUTO VRB01KT 9999 SCT047 01/M03 Q1016
                        NOSIG=
201602252120 METAR COR EGLL 252120Z AUTO 24004KT 190V340 9999 FEW047 01/M04
                        Q1017 NOSIG=
201602252050 METAR COR EGLL 252050Z AUTO 26004KT 210V300 9999 NCD 01/M04
                        Q1017 NOSIG=
201602252020 METAR COR EGLL 252020Z AUTO 31001KT 9999 NCD 02/M05 Q1017
                        NOSIG=
201602251950 METAR COR EGLL 251950Z AUTO VRB01KT 9999 NCD 03/M06 Q1017
                        NOSIG=
201602251920 METAR COR EGLL 251920Z AUTO 36002KT 9999 NCD 04/M06 Q1017
                        NOSIG=
201602251850 METAR COR EGLL 251850Z AUTO 35002KT 9999 NCD 04/M06 Q1017
                        NOSIG=
201602251820 METAR COR EGLL 251820Z AUTO 36002KT 9999 FEW049 04/M06 Q1017
                        NOSIG=
201602251750 METAR COR EGLL 251750Z AUTO VRB03KT 9999 BKN046 05/M05 Q1016
                        NOSIG=
201602251720 METAR COR EGLL 251720Z AUTO 35005KT 320V030 9999 BKN045 05/M06
                        Q1016 NOSIG=
201602251650 METAR COR EGLL 251650Z AUTO 36005KT 9999 BKN045 05/M05 Q1016
                        NOSIG=
201602251620 METAR COR EGLL 251620Z AUTO 01005KT 330V060 9999 BKN044 05/M05
                        Q1016 NOSIG=
201602251550 METAR COR EGLL 251550Z AUTO 35006KT 310V020 9999 BKN043 06/M05
                        Q1016 NOSIG=
201602251520 METAR COR EGLL 251520Z AUTO 01008KT 9999 BKN043 06/M03 Q1016
                        NOSIG=
201602251450 METAR COR EGLL 251450Z AUTO 30007KT 280V340 9999 BKN041 06/M04
                        Q1016 NOSIG=
201602251420 METAR COR EGLL 251420Z AUTO 29007KT 260V340 9999 BKN039 06/M04
                        Q1017 NOSIG=
201602251350 METAR COR EGLL 251350Z AUTO 28008KT 9999 SCT046 05/M03 Q1017
                        NOSIG=
201602251320 METAR COR EGLL 251320Z AUTO 29005KT 260V320 9999 SCT027 BKN046
                        05/M03 Q1017 NOSIG=
201602251250 METAR COR EGLL 251250Z AUTO 34006KT 300V020 9999 SCT024 SCT037
                        05/M02 Q1017 NOSIG=
201602251220 METAR COR EGLL 251220Z AUTO 33005KT 290V020 9999 BKN020 05/M02
                        Q1017 NOSIG=
201602251150 METAR COR EGLL 251150Z AUTO 32004KT 260V030 9999 BKN017 04/M01
                        Q1018 NOSIG=
201602251120 METAR COR EGLL 251120Z AUTO 32005KT 290V350 9999 BKN015 04/M01
                        Q1018 NOSIG=
201602251050 METAR COR EGLL 251050Z AUTO 31005KT 270V350 9999 BKN014 04/M00
                        Q1017 BECMG SCT014=
201602251020 METAR COR EGLL 251020Z AUTO 32004KT 280V360 9999 BKN012 03/M01
                        Q1017 BECMG SCT012=
201602250950 METAR EGLL 250950Z AUTO 32007KT 290V360 9999 BKN012 04/M00
                        Q1017=
201602250920 METAR COR EGLL 250920Z AUTO 30006KT 9999 NCD 03/M00 Q1017
                        NOSIG=
201602250850 METAR COR EGLL 250850Z AUTO 29005KT 9999 FEW045 02/M01 Q1017
                        NOSIG=
201602250820 METAR COR EGLL 250820Z AUTO 27004KT 9999 FEW014 01/M01 Q1017
                        NOSIG=
201602250750 METAR EGLL 250750Z AUTO 27004KT 9999 FEW023 00/M02 Q1017=
201602250720 METAR COR EGLL 250720Z AUTO 27006KT 9000 FEW023 00/M02 Q1016
                        NOSIG=
201602250650 METAR COR EGLL 250650Z AUTO 25006KT 210V280 9000 NCD M00/M02
                        Q1016 NOSIG=
201602250620 METAR COR EGLL 250620Z AUTO 26004KT 9999 NCD M00/M02 Q1016
                        NOSIG=
201602250550 METAR COR EGLL 250550Z AUTO 27004KT 9999 NCD M00/M02 Q1016
                        NOSIG=
201602250520 METAR COR EGLL 250520Z AUTO 28003KT 9999 NCD M01/M03 Q1016
                        NOSIG=
201602250450 METAR COR EGLL 250450Z AUTO VRB03KT 9999 NCD M01/M03 Q1016
                        NOSIG=
201602250420 METAR COR EGLL 250420Z AUTO 26003KT 9999 NCD M01/M03 Q1016
                        NOSIG=
201602250350 METAR COR EGLL 250350Z AUTO 27004KT 9999 NCD M01/M03 Q1016
                        NOSIG=
201602250320 METAR COR EGLL 250320Z AUTO 28005KT 9999 NCD M01/M03 Q1016
                        NOSIG=
201602250250 METAR COR EGLL 250250Z AUTO 26003KT 9999 NCD M01/M04 Q1016
                        NOSIG=
201602250220 METAR COR EGLL 250220Z AUTO 26003KT 9999 NCD M01/M04 Q1016
                        NOSIG=
201602250150 METAR COR EGLL 250150Z AUTO 30004KT 9999 NCD M01/M03 Q1016
                        NOSIG=
201602250120 METAR COR EGLL 250120Z AUTO 28003KT 9999 NCD M00/M03 Q1016
                        NOSIG=
201602250050 METAR COR EGLL 250050Z AUTO 28004KT 9999 NCD M00/M03 Q1016
                        NOSIG=
201602250020 METAR COR EGLL 250020Z AUTO 27003KT 9999 NCD M00/M03 Q1016
                        NOSIG=
201602242350 METAR COR EGLL 242350Z AUTO 30003KT 9999 NCD 01/M03 Q1016
                        NOSIG=
201602242320 METAR COR EGLL 242320Z AUTO 32003KT 9999 NCD 02/M04 Q1016
                        NOSIG=
201602242250 METAR COR EGLL 242250Z AUTO 32003KT 9999 NCD 02/M04 Q1016
                        NOSIG=
201602242220 METAR COR EGLL 242220Z AUTO VRB02KT 9999 NCD 02/M04 Q1016
                        NOSIG=
201602242150 METAR COR EGLL 242150Z AUTO 34003KT 9999 NCD 03/M04 Q1016
                        NOSIG=
201602242120 METAR COR EGLL 242120Z AUTO 34003KT 9999 NCD 03/M05 Q1016
                        NOSIG=
201602242050 METAR COR EGLL 242050Z AUTO 33002KT 9999 NCD 04/M05 Q1016
                        NOSIG=
201602242020 METAR COR EGLL 242020Z AUTO 34003KT 9999 NCD 04/M05 Q1016
                        NOSIG=
201602241950 METAR COR EGLL 241950Z AUTO 35003KT 9999 NCD 04/M05 Q1016
                        NOSIG=
201602241920 METAR COR EGLL 241920Z AUTO 34003KT 9999 NCD 05/M05 Q1016
                        NOSIG=
201602241850 METAR COR EGLL 241850Z AUTO 35003KT 9999 NCD 05/M04 Q1016
                        NOSIG=
201602241820 METAR COR EGLL 241820Z AUTO 35003KT 9999 NCD 05/M04 Q1016
                        NOSIG=
201602241750 METAR COR EGLL 241750Z AUTO 35003KT 9999 NCD 05/M04 Q1016
                        NOSIG=
201602241720 METAR COR EGLL 241720Z AUTO 36005KT 9999 NCD 06/M04 Q1015
                        NOSIG=
201602241650 METAR COR EGLL 241650Z AUTO 35005KT 9999 FEW047 06/M04 Q1015
                        NOSIG=
201602241620 METAR COR EGLL 241620Z AUTO 35004KT 240V030 9999 FEW048 06/M05
                        Q1015 NOSIG=
201602241550 METAR COR EGLL 241550Z AUTO 01004KT 320V060 9999 FEW047 06/M04
                        Q1015 NOSIG=
201602241520 METAR COR EGLL 241520Z AUTO 03006KT 330V080 9999 SCT043 07/M04
                        Q1015 NOSIG=
201602241450 METAR COR EGLL 241450Z AUTO 36005KT 300V060 9999 FEW042 08/M03
                        Q1016 NOSIG=
201602241420 METAR COR EGLL 241420Z AUTO 34006KT 300V020 9999 SCT045///
                        07/M04 Q1016 NOSIG=
201602241350 METAR COR EGLL 241350Z AUTO 35005KT 9999 BKN044 08/M04 Q1016
                        NOSIG=
201602241320 METAR COR EGLL 241320Z AUTO 35004KT 280V060 9999 FEW044 07/M04
                        Q1017 NOSIG=
201602241250 METAR COR EGLL 241250Z AUTO 03005KT 330V080 9999 BKN042 08/M03
                        Q1017 NOSIG=
201602241220 METAR COR EGLL 241220Z AUTO VRB03KT 9999 BKN040 07/M04 Q1017
                        NOSIG=
201602241150 METAR COR EGLL 241150Z AUTO VRB02KT 9999 NCD 08/M03 Q1018
                        NOSIG=
201602241120 METAR COR EGLL 241120Z AUTO VRB03KT 9999 NCD 08/M01 Q1018
                        NOSIG=
201602241050 METAR COR EGLL 241050Z AUTO VRB02KT 9999 NCD 07/M00 Q1018
                        NOSIG=
201602241020 METAR COR EGLL 241020Z AUTO VRB02KT 9999 NCD 05/M00 Q1018
                        NOSIG=
201602240950 METAR COR EGLL 240950Z AUTO VRB02KT 9999 NCD 04/M00 Q1019
                        NOSIG=
201602240920 METAR COR EGLL 240920Z AUTO VRB02KT 9999 NCD 03/M01 Q1019
                        NOSIG=
201602240850 METAR COR EGLL 240850Z AUTO VRB01KT 9999 NCD 02/M01 Q1019
                        NOSIG=
201602240820 METAR COR EGLL 240820Z AUTO 35001KT 9999 NCD 01/M01 Q1019
                        NOSIG=
201602240750 METAR COR EGLL 240750Z AUTO 36002KT 9999 NCD 01/M02 Q1019
                        NOSIG=
201602240720 METAR COR EGLL 240720Z AUTO VRB01KT 9999 NCD 01/M02 Q1019
                        NOSIG=
201602240650 METAR COR EGLL 240650Z AUTO 01002KT 9999 NCD 00/M02 Q1019
                        NOSIG=
201602240620 METAR COR EGLL 240620Z AUTO VRB03KT 9999 NCD M00/M02 Q1019
                        NOSIG=
201602240550 METAR COR EGLL 240550Z AUTO 36003KT 9999 NCD M01/M03 Q1019
                        NOSIG=
201602240520 METAR COR EGLL 240520Z AUTO VRB01KT 9999 NCD 00/M02 Q1019
                        NOSIG=
201602240450 METAR COR EGLL 240450Z AUTO 01002KT 9999 NCD M00/M02 Q1020
                        NOSIG=
201602240420 METAR COR EGLL 240420Z AUTO 36002KT 9999 FEW045 M00/M02 Q1020
                        NOSIG=
201602240350 METAR COR EGLL 240350Z AUTO 00000KT 9999 FEW045 M00/M02 Q1020
                        NOSIG=
201602240320 METAR COR EGLL 240320Z AUTO 04002KT 9999 BKN045 M00/M02 Q1020
                        NOSIG=
201602240250 METAR COR EGLL 240250Z AUTO 02001KT 9999 BKN046 00/M02 Q1020
                        NOSIG=
201602240220 METAR COR EGLL 240220Z AUTO 05001KT 9999 FEW048 00/M02 Q1020
                        NOSIG=
201602240150 METAR COR EGLL 240150Z AUTO 02001KT 9999 FEW045 01/M01 Q1021
                        NOSIG=
201602240120 METAR COR EGLL 240120Z AUTO 36003KT 9999 BKN045 01/M01 Q1021
                        NOSIG=
201602240050 METAR COR EGLL 240050Z AUTO VRB01KT 9999 FEW046 01/M02 Q1021
                        NOSIG=
201602240020 METAR COR EGLL 240020Z AUTO 35001KT 9000 NCD 02/M01 Q1021
                        NOSIG=
201602232350 METAR COR EGLL 232350Z AUTO 36001KT 9999 NCD 02/M01 Q1021
                        NOSIG=
201602232320 METAR COR EGLL 232320Z AUTO 02001KT 9999 NCD 03/M02 Q1021
                        NOSIG=
201602232250 METAR COR EGLL 232250Z AUTO 36003KT 9999 NCD 04/M01 Q1021
                        NOSIG=
201602232220 METAR COR EGLL 232220Z AUTO VRB01KT 9999 NCD 03/M02 Q1021
                        NOSIG=
201602232150 METAR COR EGLL 232150Z AUTO 03001KT 9999 NCD 04/M02 Q1021
                        NOSIG=
201602232120 METAR COR EGLL 232120Z AUTO 06002KT 9999 NCD 05/M02 Q1021
                        NOSIG=
201602232050 METAR COR EGLL 232050Z AUTO 05002KT 9999 NCD 05/M01 Q1021
                        NOSIG=
201602232020 METAR COR EGLL 232020Z AUTO 04003KT 9999 NCD 05/M01 Q1021
                        NOSIG=
201602231950 METAR COR EGLL 231950Z AUTO 04003KT 9999 NCD 05/M02 Q1021
                        NOSIG=
201602231920 METAR COR EGLL 231920Z AUTO 05003KT 9999 NCD 06/M01 Q1020
                        NOSIG=
201602231850 METAR COR EGLL 231850Z AUTO 01003KT 9999 NCD 06/M01 Q1020
                        NOSIG=
201602231820 METAR COR EGLL 231820Z AUTO 36003KT 9999 NCD 07/M01 Q1020
                        NOSIG=
201602231750 METAR COR EGLL 231750Z AUTO 36003KT 9999 NCD 07/M01 Q1020
                        NOSIG=
201602231720 METAR COR EGLL 231720Z AUTO 01005KT 9999 FEW037 07/M01 Q1019
                        NOSIG=
201602231650 METAR COR EGLL 231650Z AUTO 35005KT 310V020 9999 FEW042 08/M01
                        Q1019 NOSIG=
201602231620 METAR COR EGLL 231620Z AUTO 32006KT 280V360 9999 NCD 08/00
                        Q1019 NOSIG=
201602231550 METAR COR EGLL 231550Z AUTO 33004KT 280V010 9999 NCD 08/M00
                        Q1019 NOSIG=
201602231520 METAR COR EGLL 231520Z AUTO 33005KT 290V010 9999 FEW029 08/01
                        Q1018 NOSIG=
201602231450 METAR COR EGLL 231450Z AUTO 33006KT 290V020 9999 NCD 09/00
                        Q1018 NOSIG=
201602231420 METAR COR EGLL 231420Z AUTO 36007KT 320V030 9999 FEW019///
                        //////TCU 08/03 Q1018 NOSIG=
201602231350 METAR COR EGLL 231350Z AUTO 34006KT 300V020 9999 FEW027 09/01
                        Q1018 NOSIG=
201602231320 METAR COR EGLL 231320Z AUTO 34006KT 310V030 9999 FEW027 08/02
                        Q1018 NOSIG=
201602231250 METAR COR EGLL 231250Z AUTO 33006KT 290V360 9999 SCT026 BKN044
                        08/02 Q1018 NOSIG=
201602231220 METAR COR EGLL 231220Z AUTO 33006KT 280V010 9999 SCT026 BKN039
                        08/02 Q1018 NOSIG=
201602231150 METAR COR EGLL 231150Z AUTO 01007KT 9999 SCT023 08/02 Q1018
                        NOSIG=
201602231120 METAR COR EGLL 231120Z AUTO 32007KT 290V350 9999 BKN022 09/03
                        Q1017 NOSIG=
201602231050 METAR COR EGLL 231050Z AUTO 32008KT 9999 FEW021 SCT036 08/02
                        Q1017 NOSIG=
201602231020 METAR COR EGLL 231020Z AUTO 32006KT 290V040 9999 FEW023 BKN035
                        08/02 Q1017 NOSIG=
201602230950 METAR COR EGLL 230950Z AUTO 31005KT 290V350 9999 SCT034 07/02
                        Q1017 NOSIG=
201602230920 METAR COR EGLL 230920Z AUTO 30006KT 9999 NCD 06/02 Q1016
                        NOSIG=
201602230850 METAR COR EGLL 230850Z AUTO 29007KT 9999 FEW041 06/02 Q1016
                        NOSIG=
201602230820 METAR COR EGLL 230820Z AUTO 29006KT 9999 NCD 05/02 Q1016
                        NOSIG=
201602230750 METAR COR EGLL 230750Z AUTO 28006KT 9999 NCD 04/01 Q1015
                        NOSIG=
201602230720 METAR COR EGLL 230720Z AUTO 28006KT 9999 OVC048 04/01 Q1015
                        NOSIG=
201602230650 METAR COR EGLL 230650Z AUTO 28005KT 9999 NCD 04/01 Q1014
                        NOSIG=
201602230620 METAR COR EGLL 230620Z AUTO 28006KT 9999 NCD 04/01 Q1014
                        NOSIG=
201602230550 METAR COR EGLL 230550Z AUTO 27007KT 9999 BKN049 03/01 Q1014
                        NOSIG=
201602230520 METAR COR EGLL 230520Z AUTO 28005KT 9999 NCD 03/M00 Q1014
                        NOSIG=
201602230450 METAR COR EGLL 230450Z AUTO 26004KT 9999 BKN049 04/01 Q1013
                        NOSIG=
201602230420 METAR COR EGLL 230420Z AUTO 28005KT 9999 NCD 04/01 Q1013
                        NOSIG=
201602230350 METAR COR EGLL 230350Z AUTO 28006KT 9999 NCD 04/01 Q1013
                        NOSIG=
201602230320 METAR COR EGLL 230320Z AUTO 28006KT 9999 NCD 04/01 Q1013
                        NOSIG=
201602230250 METAR COR EGLL 230250Z AUTO 29006KT 9999 NCD 04/01 Q1013
                        NOSIG=
201602230220 METAR COR EGLL 230220Z AUTO 27007KT 9999 NCD 04/00 Q1013
                        NOSIG=
201602230150 METAR COR EGLL 230150Z AUTO 29005KT 9999 NCD 04/00 Q1013
                        NOSIG=
201602230120 METAR COR EGLL 230120Z AUTO 29005KT 9999 NCD 04/M00 Q1013
                        NOSIG=
201602230050 METAR COR EGLL 230050Z AUTO 29005KT 9999 NCD 04/M00 Q1013
                        NOSIG=
201602230020 METAR COR EGLL 230020Z AUTO 29005KT 9999 NCD 04/M01 Q1012
                        NOSIG=
201602222350 METAR COR EGLL 222350Z AUTO 29005KT 9999 NCD 04/M01 Q1012
                        NOSIG=
201602222320 METAR COR EGLL 222320Z AUTO 29004KT 9999 NCD 05/M01 Q1012
                        NOSIG=
201602222250 METAR COR EGLL 222250Z AUTO 30005KT 9999 NCD 05/M00 Q1012
                        NOSIG=
201602222220 METAR COR EGLL 222220Z AUTO 30003KT 9999 NCD 05/M00 Q1012
                        NOSIG=
201602222150 METAR COR EGLL 222150Z AUTO 29005KT 9999 NCD 06/M01 Q1012
                        NOSIG=
201602222120 METAR COR EGLL 222120Z AUTO 29006KT 9999 NCD 06/M00 Q1012
                        NOSIG=
201602222050 METAR COR EGLL 222050Z AUTO 29005KT 9999 NCD 06/00 Q1012
                        NOSIG=
201602222020 METAR COR EGLL 222020Z AUTO 29005KT 9999 NCD 07/M01 Q1012
                        NOSIG=
201602221950 METAR COR EGLL 221950Z AUTO 29005KT 9999 NCD 07/M00 Q1011
                        NOSIG=
201602221920 METAR COR EGLL 221920Z AUTO 29005KT 9999 NCD 07/M01 Q1011
                        NOSIG=
201602221850 METAR COR EGLL 221850Z AUTO 30005KT 9999 FEW049 07/M00 Q1011
                        NOSIG=
201602221820 METAR COR EGLL 221820Z AUTO 29004KT 9999 NCD 08/M01 Q1011
                        NOSIG=
201602221750 METAR COR EGLL 221750Z AUTO 31004KT 9999 FEW042 08/M01 Q1010
                        NOSIG=
201602221720 METAR COR EGLL 221720Z AUTO 32006KT 9999 BKN044 08/M01 Q1010
                        NOSIG=
201602221650 METAR COR EGLL 221650Z AUTO 31006KT 9999 SCT045 08/M01 Q1010
                        NOSIG=
201602221620 METAR COR EGLL 221620Z AUTO 31007KT 9999 FEW045 08/M01 Q1009
                        NOSIG=
201602221550 METAR COR EGLL 221550Z AUTO 30007KT 9999 SCT043 09/M01 Q1009
                        NOSIG=
201602221520 METAR COR EGLL 221520Z AUTO 31008KT 280V350 9999 FEW042 09/M00
                        Q1009 NOSIG=
201602221450 METAR COR EGLL 221450Z AUTO 30011KT 9999 FEW037 09/M01 Q1009
                        NOSIG=
201602221420 METAR COR EGLL 221420Z AUTO 31010KT 270V340 9999 BKN036 09/01
                        Q1009 NOSIG=
201602221350 METAR COR EGLL 221350Z AUTO 29010KT 9999 FEW034 09/02 Q1009
                        NOSIG=
201602221320 METAR COR EGLL 221320Z AUTO 29009KT 9999 FEW032 09/02 Q1009
                        NOSIG=
201602221250 METAR COR EGLL 221250Z AUTO 28009KT 9999 FEW031 09/03 Q1009
                        NOSIG=
201602221220 METAR COR EGLL 221220Z AUTO 29009KT 9999 BKN048 09/04 Q1009
                        NOSIG=
201602221150 METAR COR EGLL 221150Z AUTO 29008KT 9999 -RA OVC045/// //////TCU
                        08/04 Q1009 NOSIG=
201602221120 METAR COR EGLL 221120Z AUTO 28008KT 9999 -RA BKN035/// //////CB
                        08/04 Q1009 NOSIG=
201602221050 METAR COR EGLL 221050Z AUTO 30006KT 9999 -RA FEW020/// OVC038///
                        //////TCU 08/04 Q1009 TEMPO BKN014=
201602221020 METAR COR EGLL 221020Z AUTO 31007KT 270V340 9999 -RA SCT017///
                        BKN031/// //////TCU 08/05 Q1009 TEMPO
                        BKN014=
201602220950 METAR COR EGLL 220950Z AUTO 30008KT 9999 -RA SCT019/// OVC035///
                        //////TCU 08/06 Q1009 TEMPO BKN012=
201602220920 METAR COR EGLL 220920Z AUTO 28009KT 9999 -RA BKN027 08/06
                        Q1009 TEMPO BKN012=
201602220850 METAR COR EGLL 220850Z AUTO 27008KT 9999 -RA OVC033 08/07
                        Q1009 TEMPO BKN012=
201602220820 METAR COR EGLL 220820Z AUTO 27008KT 9999 OVC026 08/07 Q1008
                        NOSIG=
201602220750 METAR COR EGLL 220750Z AUTO 27007KT 9999 FEW015 OVC026 08/07
                        Q1008 NOSIG=
201602220720 METAR COR EGLL 220720Z AUTO 29004KT 260V340 9999 FEW007 OVC026
                        09/07 Q1008 TEMPO BKN014=
201602220650 METAR COR EGLL 220650Z AUTO 28007KT 9000 -RA BKN004 OVC023
                        09/08 Q1008 BECMG 9999 NSW BKN040=
201602220620 METAR COR EGLL 220620Z AUTO 29008KT 2500 -RADZ BKN004 OVC014
                        09/08 Q1008 BECMG 9999 NSW BKN040=
201602220550 METAR COR EGLL 220550Z AUTO 30009KT 2500 -RA BKN007 09/08
                        Q1008 RERA REDZ BECMG 9999 NSW BKN020=
201602220520 METAR COR EGLL 220520Z AUTO 26011KT 4500 -DZ OVC010 11/09
                        Q1007 TEMPO BKN008=
201602220450 METAR COR EGLL 220450Z AUTO 25011KT 9999 OVC011 11/09 Q1007
                        TEMPO 4000 RADZ BKN008=
201602220420 METAR COR EGLL 220420Z AUTO 26013KT 9999 OVC011 11/09 Q1007
                        TEMPO 4000 RADZ BKN008=
201602220350 METAR COR EGLL 220350Z AUTO 25013KT 9999 OVC010 11/09 Q1007
                        TEMPO 4000 RADZ BKN008=
201602220320 METAR COR EGLL 220320Z AUTO 25013KT 9999 BKN009 11/10 Q1007
                        NOSIG=
201602220250 METAR COR EGLL 220250Z AUTO 24012KT 9999 BKN006 11/10 Q1007
                        NOSIG=
201602220220 METAR COR EGLL 220220Z AUTO 24012KT 8000 BKN008 OVC038 11/10
                        Q1008 NOSIG=
201602220150 METAR COR EGLL 220150Z AUTO 24014KT 4000 -RADZ BKN007 OVC017
                        11/10 Q1007 TEMPO 5000=
201602220120 METAR COR EGLL 220120Z AUTO 25015KT 8000 -RA BKN012 OVC025
                        12/09 Q1008 TEMPO 4900=
201602220050 METAR COR EGLL 220050Z AUTO 25015KT 6000 -RA OVC013 12/09
                        Q1008 TEMPO 4900=
201602220020 METAR COR EGLL 220020Z AUTO 25014KT 4900 -DZ BKN013 12/09
                        Q1007 TEMPO 6000 NSW=
201602212350 METAR COR EGLL 212350Z AUTO 25017KT 9999 OVC013 12/09 Q1007
                        NOSIG=
201602212320 METAR COR EGLL 212320Z AUTO 24014KT 9999 BKN012 12/09 Q1008
                        NOSIG=
201602212250 METAR COR EGLL 212250Z AUTO 24016KT 9999 BKN011 OVC025 12/09
                        Q1008 NOSIG=
201602212220 METAR COR EGLL 212220Z AUTO 24016KT 9999 OVC011 12/09 Q1008
                        NOSIG=
201602212150 METAR COR EGLL 212150Z AUTO 23016KT 9999 OVC012 12/09 Q1008
                        NOSIG=
201602212120 METAR COR EGLL 212120Z AUTO 24018KT 9999 OVC014 12/09 Q1008
                        NOSIG=
201602212050 METAR COR EGLL 212050Z AUTO 24018KT 9999 OVC016 13/09 Q1008
                        NOSIG=
201602212020 METAR COR EGLL 212020Z AUTO 24017KT 9999 OVC016 13/09 Q1008
                        NOSIG=
201602211950 METAR COR EGLL 211950Z AUTO 24016KT 9999 OVC018 13/09 Q1008
                        NOSIG=
201602211920 METAR COR EGLL 211920Z AUTO 23016KT 9999 OVC018 13/09 Q1008
                        NOSIG=
201602211850 METAR EGLL 211850Z AUTO 22016KT 9999 BKN019 13/09 Q1008=
201602211820 METAR COR EGLL 211820Z AUTO 24013KT 9999 BKN016 13/10 Q1009
                        TEMPO BKN014=
201602211750 METAR COR EGLL 211750Z AUTO 24013KT 9999 OVC018 14/10 Q1008
                        NOSIG=
201602211720 METAR COR EGLL 211720Z AUTO 24016KT 9999 OVC022 14/10 Q1008
                        NOSIG=
201602211650 METAR COR EGLL 211650Z AUTO 24017KT 9999 OVC019 14/10 Q1008
                        NOSIG=
201602211620 METAR COR EGLL 211620Z AUTO 24021KT 9999 OVC020 15/10 Q1008
                        TEMPO BKN014=
201602211550 METAR COR EGLL 211550Z AUTO 24020KT 9999 OVC016 14/11 Q1009
                        TEMPO BKN014=
201602211520 METAR COR EGLL 211520Z AUTO 24022KT 9999 OVC015 14/11 Q1009
                        NOSIG=
201602211450 METAR COR EGLL 211450Z AUTO 25022KT 9999 OVC016 15/10 Q1009
                        NOSIG=
201602211420 METAR COR EGLL 211420Z AUTO 24022KT 9999 BKN015 15/11 Q1009
                        NOSIG=
201602211350 METAR COR EGLL 211350Z AUTO 24019G29KT 9999 OVC015 14/10
                        Q1009 NOSIG=
201602211320 METAR COR EGLL 211320Z AUTO 24018G28KT 9999 OVC017 14/10
                        Q1010 NOSIG=
201602211250 METAR COR EGLL 211250Z AUTO 25021KT 9999 OVC019 14/10 Q1010
                        NOSIG=
201602211220 METAR COR EGLL 211220Z AUTO 25020G30KT 9999 OVC017 14/10
                        Q1010 NOSIG=
201602211150 METAR COR EGLL 211150Z AUTO 25019G32KT 9999 OVC016 14/10
                        Q1011 NOSIG=
201602211120 METAR COR EGLL 211120Z AUTO 25020KT 9999 OVC016 13/10 Q1011
                        NOSIG=
201602211050 METAR COR EGLL 211050Z AUTO 25018KT 9999 OVC017 13/10 Q1011
                        NOSIG=
201602211020 METAR COR EGLL 211020Z AUTO 25017KT 9999 OVC016 13/10 Q1011
                        NOSIG=
201602210950 METAR COR EGLL 210950Z AUTO 25018KT 9999 OVC016 13/09 Q1012
                        TEMPO BKN014=
201602210920 METAR COR EGLL 210920Z AUTO 24016KT 9999 OVC016 13/09 Q1011
                        TEMPO BKN014=
201602210850 METAR COR EGLL 210850Z AUTO 25015KT 9999 OVC015 13/09 Q1011
                        TEMPO BKN013=
201602210820 METAR COR EGLL 210820Z AUTO 25018KT 9999 OVC015 12/09 Q1012
                        TEMPO BKN012=
201602210750 METAR COR EGLL 210750Z AUTO 25018KT 9999 OVC015 12/09 Q1012
                        TEMPO BKN013=
201602210720 METAR COR EGLL 210720Z AUTO 24016KT 9999 OVC012 12/09 Q1011
                        TEMPO SCT012 BKN018=
201602210650 METAR COR EGLL 210650Z AUTO 24017KT 9999 OVC011 12/10 Q1011
                        NOSIG=
201602210620 METAR COR EGLL 210620Z AUTO 25017KT 9000 OVC011 12/10 Q1011
                        NOSIG=
201602210550 METAR COR EGLL 210550Z AUTO 25016KT 9000 OVC010 11/10 Q1011
                        NOSIG=
201602210520 METAR COR EGLL 210520Z AUTO 25015KT 6000 OVC010 11/10 Q1011
                        NOSIG=
201602210450 METAR COR EGLL 210450Z AUTO 24015KT 8000 OVC010 11/10 Q1011
                        NOSIG=
201602210420 METAR COR EGLL 210420Z AUTO 24012KT 9999 OVC013 12/10 Q1011
                        NOSIG=
201602210350 METAR COR EGLL 210350Z AUTO 26018KT 9000 OVC015 12/09 Q1012
                        TEMPO BKN014=
201602210320 METAR COR EGLL 210320Z AUTO 25013KT 9999 OVC014 12/09 Q1012
                        NOSIG=
201602210250 METAR COR EGLL 210250Z AUTO 25015KT 9999 OVC014 12/09 Q1011
                        NOSIG=
201602210220 METAR COR EGLL 210220Z AUTO 26016KT 9999 OVC013 12/09 Q1012
                        NOSIG=
201602210150 METAR COR EGLL 210150Z AUTO 25015KT 9999 OVC015 12/09 Q1012
                        TEMPO BKN013=
201602210120 METAR COR EGLL 210120Z AUTO 25017KT 9999 BKN017 12/09 Q1011
                        NOSIG=
201602210050 METAR COR EGLL 210050Z AUTO 25018KT 9999 OVC018 12/09 Q1011
                        NOSIG=
201602210020 METAR COR EGLL 210020Z AUTO 25017G28KT 9999 BKN018 12/09
                        Q1011 NOSIG=
201602202350 METAR COR EGLL 202350Z AUTO 25016G27KT 9999 BKN019 12/09
                        Q1010 NOSIG=
201602202320 METAR COR EGLL 202320Z AUTO 25018KT 9999 BKN018 12/09 Q1010
                        NOSIG=
201602202250 METAR COR EGLL 202250Z AUTO 26017KT 9999 BKN018 12/09 Q1010
                        NOSIG=
201602202220 METAR COR EGLL 202220Z AUTO 26021KT 9999 OVC017 12/09 Q1010
                        NOSIG=
201602202150 METAR COR EGLL 202150Z AUTO 26020G30KT 9999 OVC017 13/09
                        Q1010 NOSIG=
201602202120 METAR COR EGLL 202120Z AUTO 26021KT 9999 OVC016 12/09 Q1009
                        TEMPO BKN014=
201602202050 METAR COR EGLL 202050Z AUTO 26020G30KT 9999 OVC015 12/09
                        Q1009 TEMPO BKN014=
201602202020 METAR COR EGLL 202020Z AUTO 26024KT 9999 OVC016 12/09 Q1009
                        TEMPO BKN014=
201602201950 METAR COR EGLL 201950Z AUTO 26024KT 9999 OVC015 12/09 Q1008
                        TEMPO BKN014=
201602201920 METAR COR EGLL 201920Z AUTO 26024KT 9999 OVC014 12/09 Q1008
                        NOSIG=
201602201850 METAR COR EGLL 201850Z AUTO 26023KT 9999 OVC015 12/10 Q1008
                        TEMPO BKN012=
201602201820 METAR COR EGLL 201820Z AUTO 26022KT 9999 -RA OVC015 12/10
                        Q1008 TEMPO BKN012=
201602201750 METAR COR EGLL 201750Z AUTO 26022G32KT 9999 OVC013 13/10
                        Q1008 NOSIG=
201602201720 METAR COR EGLL 201720Z AUTO 26022KT 9999 OVC012 13/10 Q1008
                        NOSIG=
201602201650 METAR COR EGLL 201650Z AUTO 25020KT 9999 -RA OVC012 12/10
                        Q1008 NOSIG=
201602201620 METAR COR EGLL 201620Z AUTO 25019KT 9000 -RA BKN008 11/10
                        Q1008 TEMPO SCT009 BKN012=
201602201550 METAR COR EGLL 201550Z AUTO 25017KT 8000 -RA BKN008 11/10
                        Q1008 TEMPO SCT008 BKN012=
201602201520 METAR COR EGLL 201520Z AUTO 24016KT 7000 -RA OVC008 11/10
                        Q1008 TEMPO BKN012=
201602201450 METAR COR EGLL 201450Z AUTO 24015KT 9999 -RA BKN007/// //////TCU
                        11/09 Q1008 TEMPO BKN012=
201602201420 METAR COR EGLL 201420Z AUTO 24014KT 9999 -RA OVC008 11/09
                        Q1009 TEMPO BKN012=
201602201350 METAR EGLL 201350Z AUTO 24016KT 9999 -RA OVC009 11/09 Q1009=
201602201320 METAR EGLL 201320Z AUTO 24014KT 4100 -RA BKN009 10/09 Q1009=
201602201250 METAR COR EGLL 201250Z AUTO 24014KT 9999 -RA BKN014 11/08
                        Q1010 TEMPO SCT014 BKN018=
201602201220 METAR COR EGLL 201220Z AUTO 24014KT 9999 -RA OVC019 11/07
                        Q1010 NOSIG=
201602201150 METAR COR EGLL 201150Z AUTO 26017KT 9999 -RA BKN028 OVC044
                        11/06 Q1010 NOSIG=
201602201120 METAR COR EGLL 201120Z AUTO 26017G27KT 9999 SCT035 11/05
                        Q1011 NOSIG=
201602201050 METAR COR EGLL 201050Z AUTO 25021KT 9999 FEW031 12/05 Q1011
                        NOSIG=
201602201020 METAR COR EGLL 201020Z AUTO 26016KT 9999 BKN026 11/06 Q1011
                        NOSIG=
201602200950 METAR COR EGLL 200950Z AUTO 26019KT 9999 BKN025 11/06 Q1011
                        NOSIG=
201602200920 METAR COR EGLL 200920Z AUTO 26017KT 9999 BKN024 10/06 Q1010
                        NOSIG=
201602200850 METAR COR EGLL 200850Z AUTO 25014KT 9999 SCT023 SCT039 10/06
                        Q1010 NOSIG=
201602200820 METAR COR EGLL 200820Z AUTO 24012KT 9999 BKN020/// 09/07
                        Q1010 NOSIG=
201602200750 METAR COR EGLL 200750Z AUTO 23011KT 9999 BKN023 09/06 Q1010
                        NOSIG=
201602200720 METAR COR EGLL 200720Z AUTO 24010KT 9999 BKN023 09/06 Q1010
                        NOSIG=
201602200650 METAR COR EGLL 200650Z AUTO 24013KT 9999 FEW042 09/06 Q1010
                        NOSIG=
201602200620 METAR COR EGLL 200620Z AUTO 25012KT 9999 FEW026 BKN034 09/06
                        Q1010 NOSIG=
201602200550 METAR COR EGLL 200550Z AUTO 26013KT 9999 FEW036 09/06 Q1010
                        NOSIG=
201602200520 METAR COR EGLL 200520Z AUTO 26013KT 9999 NCD 09/06 Q1009
                        NOSIG=
201602200450 METAR COR EGLL 200450Z AUTO 26013KT 9999 FEW031 SCT040 09/06
                        Q1009 NOSIG=
201602200420 METAR COR EGLL 200420Z AUTO 26013KT 9999 NCD 09/06 Q1009
                        NOSIG=
201602200350 METAR COR EGLL 200350Z AUTO 26014KT 9999 FEW018 SCT032 09/06
                        Q1009 NOSIG=
201602200320 METAR COR EGLL 200320Z AUTO 26014KT 9999 BKN017 BKN033 10/07
                        Q1008 NOSIG=
201602200250 METAR COR EGLL 200250Z AUTO 26015KT 9999 BKN016/// 10/07
                        Q1008 NOSIG=
201602200220 METAR COR EGLL 200220Z AUTO 25011KT 9999 BKN012 10/08 Q1008
                        BECMG BKN015=
201602200150 METAR COR EGLL 200150Z AUTO 23012KT 9999 OVC013 10/08 Q1008
                        BECMG BKN015=
201602200120 METAR COR EGLL 200120Z AUTO 25012KT 9999 OVC015 10/08 Q1009
                        NOSIG=
201602200050 METAR COR EGLL 200050Z AUTO 24011KT 9999 OVC012 10/08 Q1009
                        BECMG BKN015=
201602200020 METAR COR EGLL 200020Z AUTO 23011KT 8000 -RA OVC010 10/08
                        Q1008 NOSIG=
201602192350 METAR COR EGLL 192350Z AUTO 22010KT 9999 OVC008 09/08 Q1009
                        NOSIG=
201602192320 METAR EGLL 192320Z AUTO 22011KT 9999 BKN006 OVC015 09/08
                        Q1008=
201602192250 METAR COR EGLL 192250Z AUTO 21011KT 9999 BKN004 OVC014 09/08
                        Q1009 BECMG BKN008=
201602192220 METAR COR EGLL 192220Z AUTO 21013KT 4900 -RADZ BKN004 BKN016
                        08/08 Q1009 BECMG 7000 BKN007=
201602192150 METAR COR EGLL 192150Z AUTO 22012KT 4400 -RADZ OVC005 08/07
                        Q1010 TEMPO BKN004=
201602192120 METAR COR EGLL 192120Z AUTO 21014KT 5000 -RA OVC006 08/07
                        Q1010 NOSIG=
201602192050 METAR COR EGLL 192050Z AUTO 21013KT 7000 OVC006 08/07 Q1010
                        NOSIG=
201602192020 METAR COR EGLL 192020Z AUTO 21015KT 7000 OVC006 08/07 Q1010
                        TEMPO 4000 RADZ BKN004=
201602191950 METAR COR EGLL 191950Z AUTO 20014KT 4100 -RADZ OVC005 08/07
                        Q1011 TEMPO 6000=
201602191920 METAR COR EGLL 191920Z AUTO 20015KT 7000 BKN006 OVC016 08/06
                        Q1011 NOSIG=
201602191850 METAR COR EGLL 191850Z AUTO 20014KT 5000 -RADZ OVC006 07/06
                        Q1012 TEMPO 4500 RADZ=
201602191820 METAR COR EGLL 191820Z AUTO 20014KT 5000 -RADZ BKN007 07/06
                        Q1012 TEMPO 4500 RADZ=
201602191750 METAR COR EGLL 191750Z AUTO 20015KT 7000 -RA BKN010 08/06
                        Q1013 NOSIG=
201602191720 METAR COR EGLL 191720Z AUTO 20013KT 9999 BKN013 08/05 Q1013
                        TEMPO BKN015=
201602191650 METAR COR EGLL 191650Z AUTO 20013KT 9999 BKN016 08/05 Q1013
                        TEMPO BKN014=
201602191620 METAR COR EGLL 191620Z AUTO 21013KT 9999 SCT016 BKN030 08/05
                        Q1014 NOSIG=
201602191550 METAR COR EGLL 191550Z AUTO 21013KT 9999 SCT022 08/04 Q1015
                        NOSIG=
201602191520 METAR COR EGLL 191520Z AUTO 22014KT 9999 BKN031 09/03 Q1014
                        NOSIG=
201602191450 METAR COR EGLL 191450Z AUTO 22014KT 9999 BKN031 10/02 Q1015
                        NOSIG=
201602191420 METAR COR EGLL 191420Z AUTO 21011KT 9999 BKN030 10/03 Q1015
                        NOSIG=
201602191350 METAR COR EGLL 191350Z AUTO 22012KT 190V250 9999 SCT033 10/02
                        Q1016 NOSIG=
201602191320 METAR COR EGLL 191320Z AUTO 22013KT 9999 BKN031 BKN046 10/02
                        Q1016 NOSIG=
201602191250 METAR COR EGLL 191250Z AUTO 22012KT 9999 BKN029 10/02 Q1017
                        NOSIG=
201602191220 METAR COR EGLL 191220Z AUTO 22013KT 180V260 9999 BKN029 09/02
                        Q1017 NOSIG=
201602191150 METAR COR EGLL 191150Z AUTO 22011KT 180V250 9999 SCT026 09/03
                        Q1017 NOSIG=
201602191120 METAR COR EGLL 191120Z AUTO 21011KT 180V240 9999 FEW032 08/03
                        Q1018 NOSIG=
201602191050 METAR COR EGLL 191050Z AUTO 21009KT 170V250 9999 NCD 08/03
                        Q1018 NOSIG=
201602191020 METAR COR EGLL 191020Z AUTO 21008KT 180V240 9999 NCD 06/02
                        Q1018 NOSIG=
201602190950 METAR COR EGLL 190950Z AUTO 21009KT 180V250 9999 NCD 05/02
                        Q1018 NOSIG=
201602190920 METAR COR EGLL 190920Z AUTO 21008KT 180V250 9999 NCD 04/01
                        Q1018 NOSIG=
201602190850 METAR COR EGLL 190850Z AUTO 22008KT 9999 NCD 02/01 Q1018
                        NOSIG=
201602190820 METAR COR EGLL 190820Z AUTO 21006KT 180V250 9999 NCD 01/M00
                        Q1018 NOSIG=
201602190750 METAR COR EGLL 190750Z AUTO 22004KT 180V250 9999 NCD 00/M01
                        Q1018 NOSIG=
201602190720 METAR COR EGLL 190720Z AUTO 22005KT 190V250 9999 NCD M00/M01
                        Q1018 NOSIG=
201602190650 METAR COR EGLL 190650Z AUTO 19004KT 140V240 9999 NCD M00/M01
                        Q1018 NOSIG=
201602190620 METAR COR EGLL 190620Z AUTO 20004KT 160V250 9999 NCD M01/M02
                        Q1018 NOSIG=
201602190550 METAR COR EGLL 190550Z AUTO 21003KT 9999 NCD M00/M01 Q1018
                        NOSIG=
201602190520 METAR COR EGLL 190520Z AUTO 18005KT 9999 NCD M00/M01 Q1018
                        NOSIG=
201602190450 METAR COR EGLL 190450Z AUTO 19005KT 160V220 9999 NCD M00/M01
                        Q1018 NOSIG=
201602190420 METAR COR EGLL 190420Z AUTO VRB03KT 9999 NCD M00/M01 Q1018
                        NOSIG=
201602190350 METAR COR EGLL 190350Z AUTO 19004KT 9999 NCD M00/M01 Q1018
                        NOSIG=
201602190320 METAR COR EGLL 190320Z AUTO 21004KT 9999 NCD M00/M01 Q1018
                        NOSIG=
201602190250 METAR COR EGLL 190250Z AUTO 25002KT 9999 NCD 00/M01 Q1018
                        NOSIG=
201602190220 METAR COR EGLL 190220Z AUTO VRB01KT 9999 NCD 00/M01 Q1018
                        NOSIG=
201602190150 METAR COR EGLL 190150Z AUTO VRB02KT 9999 NCD 01/M01 Q1018
                        NOSIG=
201602190120 METAR COR EGLL 190120Z AUTO 22004KT 9999 NCD 01/M01 Q1018
                        NOSIG=
201602190050 METAR COR EGLL 190050Z AUTO 22003KT 9999 NCD 01/M01 Q1018
                        NOSIG=
201602190020 METAR COR EGLL 190020Z AUTO 18004KT 9999 NCD 01/M02 Q1018
                        NOSIG=
201602182350 METAR COR EGLL 182350Z AUTO 21003KT 9999 NCD 01/M01 Q1018
                        NOSIG=
201602182320 METAR COR EGLL 182320Z AUTO 21005KT 9999 NCD 02/M01 Q1018
                        NOSIG=
201602182250 METAR COR EGLL 182250Z AUTO 23004KT 9999 NCD 02/M01 Q1018
                        NOSIG=
201602182220 METAR COR EGLL 182220Z AUTO 23005KT 9999 NCD 02/M02 Q1018
                        NOSIG=
201602182150 METAR COR EGLL 182150Z AUTO 25005KT 9999 NCD 02/M02 Q1018
                        NOSIG=
201602182120 METAR COR EGLL 182120Z AUTO 23006KT 9999 NCD 03/M02 Q1018
                        NOSIG=
201602182050 METAR COR EGLL 182050Z AUTO 24006KT 9999 FEW040 04/M02 Q1018
                        NOSIG=
201602182020 METAR COR EGLL 182020Z AUTO 23006KT 9999 FEW041 04/M03 Q1018
                        NOSIG=
201602181950 METAR COR EGLL 181950Z AUTO 23006KT 9999 FEW047 03/M03 Q1017
                        NOSIG=
201602181920 METAR COR EGLL 181920Z AUTO 23006KT 9999 SCT047 04/M03 Q1017
                        NOSIG=
201602181850 METAR COR EGLL 181850Z AUTO 26004KT 210V310 9999 NCD 04/M03
                        Q1017 NOSIG=
201602181820 METAR COR EGLL 181820Z AUTO 26003KT 9999 NCD 05/M03 Q1017
                        NOSIG=
201602181750 METAR COR EGLL 181750Z AUTO 28001KT 9999 NCD 06/M04 Q1017
                        NOSIG=
201602181720 METAR COR EGLL 181720Z AUTO 30003KT 9999 NCD 05/M04 Q1016
                        NOSIG=
201602181650 METAR COR EGLL 181650Z AUTO 30005KT 260V330 9999 NCD 07/M05
                        Q1016 NOSIG=
201602181620 METAR COR EGLL 181620Z AUTO 30005KT 270V340 9999 NCD 07/M05
                        Q1016 NOSIG=
201602181550 METAR COR EGLL 181550Z AUTO 29006KT 9999 NCD 07/M03 Q1016
                        NOSIG=
201602181520 METAR COR EGLL 181520Z AUTO 31006KT 280V340 9999 FEW042 08/M02
                        Q1016 NOSIG=
201602181450 METAR COR EGLL 181450Z AUTO 29007KT 9999 FEW043 07/M01 Q1015
                        NOSIG=
201602181420 METAR COR EGLL 181420Z AUTO 30007KT 270V340 9999 SCT033 07/M01
                        Q1015 NOSIG=
201602181350 METAR COR EGLL 181350Z AUTO 32007KT 9999 BKN031 08/M00 Q1015
                        NOSIG=
201602181320 METAR COR EGLL 181320Z AUTO 32006KT 9999 BKN030 07/00 Q1015
                        NOSIG=
201602181250 METAR COR EGLL 181250Z AUTO 33005KT 280V010 9999 BKN025 07/00
                        Q1015 NOSIG=
201602181220 METAR COR EGLL 181220Z AUTO 33006KT 290V010 9999 SCT022 07/01
                        Q1015 NOSIG=
201602181150 METAR COR EGLL 181150Z AUTO 33007KT 290V020 9999 BKN021 06/01
                        Q1015 NOSIG=
201602181120 METAR COR EGLL 181120Z AUTO 31005KT 270V350 9999 BKN017 06/01
                        Q1015 NOSIG=
201602181050 METAR COR EGLL 181050Z AUTO 33006KT 280V020 9999 SCT014 06/02
                        Q1014 NOSIG=
201602181020 METAR COR EGLL 181020Z AUTO 33005KT 290V010 9999 SCT011 05/02
                        Q1014 NOSIG=
201602180950 METAR COR EGLL 180950Z AUTO 32007KT 9999 BKN009 BKN038 04/02
                        Q1014 BECMG FEW030=
201602180920 METAR EGLL 180920Z AUTO 31005KT 8000 FEW009 OVC035 04/02
                        Q1014=
201602180850 METAR COR EGLL 180850Z AUTO 31005KT 9000 SCT010 OVC029 04/02
                        Q1013 NOSIG=
201602180820 METAR COR EGLL 180820Z AUTO 30006KT 7000 FEW012 BKN026 04/02
                        Q1013 NOSIG=
201602180750 METAR COR EGLL 180750Z AUTO 30006KT 6000 BKN011 04/02 Q1013
                        BECMG SCT020=
201602180720 METAR COR EGLL 180720Z AUTO 30004KT 7000 OVC010 04/02 Q1012
                        TEMPO BKN008=
201602180650 METAR COR EGLL 180650Z AUTO 31004KT 9999 BKN010 04/02 Q1012
                        TEMPO BKN008=
201602180620 METAR COR EGLL 180620Z AUTO 32004KT 290V360 9999 SCT012 BKN023
                        04/02 Q1011 TEMPO BKN012=
201602180550 METAR COR EGLL 180550Z AUTO 32004KT 290V350 9999 BKN012 04/02
                        Q1011 TEMPO BKN008=
201602180520 METAR COR EGLL 180520Z AUTO 33004KT 290V360 9999 BKN010 03/02
                        Q1011 TEMPO BKN008=
201602180450 METAR COR EGLL 180450Z AUTO 33005KT 9999 SCT010 BKN023 BKN036
                        04/02 Q1010 TEMPO BKN008=
201602180420 METAR COR EGLL 180420Z AUTO 32005KT 290V360 9999 SCT013 BKN022
                        04/02 Q1010 TEMPO BKN013=
201602180350 METAR COR EGLL 180350Z AUTO 31005KT 9999 SCT006 OVC013 04/02
                        Q1010 TEMPO BKN006=
201602180320 METAR COR EGLL 180320Z AUTO 31005KT 9999 OVC007 04/02 Q1010
                        TEMPO BKN004=
201602180250 METAR COR EGLL 180250Z AUTO 31005KT 270V340 9999 -RA OVC008
                        04/02 Q1010 TEMPO BKN004=
201602180220 METAR COR EGLL 180220Z AUTO 29007KT 9999 -RA OVC005 04/03
                        Q1010 TEMPO BKN004=
201602180150 METAR COR EGLL 180150Z AUTO 27008KT 9000 -RA BKN006/// OVC016///
                        //////TCU 03/02 Q1010 TEMPO BKN004=
201602180120 METAR COR EGLL 180120Z AUTO 25008KT 9999 -RA BKN007 OVC044
                        03/02 Q1010 TEMPO BKN004=
201602180050 METAR COR EGLL 180050Z AUTO 25008KT 9999 -RA BKN008 BKN020
                        04/02 Q1009 TEMPO BKN004=
201602180020 METAR COR EGLL 180020Z AUTO 25009KT 8000 -RA SCT004/// BKN013///
                        //////TCU 04/03 Q1010 TEMPO RA BKN004=
201602172350 METAR COR EGLL 172350Z AUTO 20010KT 6000 -RA BKN003 OVC014
                        04/03 Q1009 TEMPO RA SCT003 OVC014=
201602172320 METAR COR EGLL 172320Z AUTO 20009KT 9999 -RA BKN005 OVC015
                        04/03 Q1009 TEMPO RA BKN004=
201602172250 METAR COR EGLL 172250Z AUTO 19010KT 9999 -RA SCT006 OVC016
                        04/03 Q1009 TEMPO RA BKN006=
201602172220 METAR COR EGLL 172220Z AUTO 18009KT 9999 -RA FEW006 BKN013
                        04/04 Q1009 TEMPO RA BKN006=
201602172150 METAR COR EGLL 172150Z AUTO 18008KT 9999 -RA FEW004 BKN013
                        04/04 Q1010 TEMPO BKN006=
201602172120 METAR COR EGLL 172120Z AUTO 17008KT 130V200 9999 -RA SCT005
                        BKN010 OVC025 05/04 Q1010 TEMPO RA
                        BKN005=
201602172050 METAR COR EGLL 172050Z AUTO 18009KT 9000 -RA SCT004 BKN011
                        OVC024 05/04 Q1010 TEMPO RA BKN008=
201602172020 METAR COR EGLL 172020Z AUTO 17007KT 140V240 7000 -RA BKN004
                        BKN014 05/04 Q1010 TEMPO 4500 RA
                        SCT005 OVC010=
201602171950 METAR COR EGLL 171950Z AUTO 16006KT 130V190 7000 -RA BKN005
                        OVC025 05/04 Q1010 TEMPO RA SCT005
                        OVC012=
201602171920 METAR COR EGLL 171920Z AUTO 15006KT 120V190 8000 -RA BKN005
                        OVC014 05/04 Q1010 TEMPO SCT005 OVC014=
201602171850 METAR COR EGLL 171850Z AUTO 15006KT 110V180 9000 -RA FEW006
                        BKN014 OVC028 05/04 Q1011 TEMPO RA=
201602171820 METAR COR EGLL 171820Z AUTO 16006KT 8000 -RA FEW006 BKN012
                        OVC025 05/04 Q1011 TEMPO RA=
201602171750 METAR COR EGLL 171750Z AUTO 15007KT 100V190 8000 -RA FEW011
                        OVC017 05/03 Q1011 TEMPO RA=
201602171720 METAR COR EGLL 171720Z AUTO 18007KT 150V250 9000 -RA BKN011///
                        //////TCU 05/03 Q1011 TEMPO RA=
201602171650 METAR COR EGLL 171650Z AUTO 18008KT 9999 -RA OVC014 05/03
                        Q1011 TEMPO RA=
201602171620 METAR COR EGLL 171620Z AUTO 19008KT 9999 -RA OVC013 05/03
                        Q1012 TEMPO RA=
201602171550 METAR COR EGLL 171550Z AUTO 19007KT 9999 -RA OVC013 05/03
                        Q1012 TEMPO RA=
201602171520 METAR COR EGLL 171520Z AUTO 20008KT 170V230 9999 -RA OVC016
                        05/03 Q1012 TEMPO RA BKN014=
201602171450 METAR COR EGLL 171450Z AUTO 20010KT 170V240 9999 -RA OVC018
                        06/02 Q1013 TEMPO RA=
201602171420 METAR COR EGLL 171420Z AUTO 19010KT 150V230 9999 -RA OVC019
                        06/02 Q1013 TEMPO RA=
201602171350 METAR COR EGLL 171350Z AUTO 20010KT 170V240 9999 OVC021 06/01
                        Q1013 TEMPO RA=
201602171320 METAR COR EGLL 171320Z AUTO 19010KT 170V240 9999 OVC022 06/01
                        Q1014 TEMPO RA=
201602171250 METAR EGLL 171250Z AUTO 20013KT 170V250 9999 OVC022 06/01
                        Q1014=
201602171220 METAR COR EGLL 171220Z AUTO 19012KT 160V230 9999 OVC023 06/01
                        Q1015 NOSIG=
201602171150 METAR COR EGLL 171150Z AUTO 20014KT 170V230 9999 BKN025 06/00
                        Q1016 TEMPO RA=
201602171120 METAR COR EGLL 171120Z AUTO 19014KT 9999 SCT027 06/M00 Q1016
                        TEMPO RA=
201602171050 METAR COR EGLL 171050Z AUTO 18013KT 160V230 9999 BKN034 06/M00
                        Q1017 TEMPO RA=
201602171020 METAR COR EGLL 171020Z AUTO 18013KT 160V220 9999 BKN031 06/M00
                        Q1017 NOSIG=
201602170950 METAR COR EGLL 170950Z AUTO 20010KT 170V230 9999 OVC030 05/M00
                        Q1018 NOSIG=
201602170920 METAR COR EGLL 170920Z AUTO 19010KT 170V230 9999 OVC029 05/M00
                        Q1018 NOSIG=
201602170850 METAR COR EGLL 170850Z AUTO 19010KT 160V230 9999 OVC028 05/M01
                        Q1019 NOSIG=
201602170820 METAR COR EGLL 170820Z AUTO 17007KT 130V220 9999 OVC028 04/M01
                        Q1019 NOSIG=
201602170750 METAR COR EGLL 170750Z AUTO 17005KT 140V220 9999 BKN028 04/M01
                        Q1019 NOSIG=
201602170720 METAR COR EGLL 170720Z AUTO 16009KT 130V220 9999 FEW029 03/M01
                        Q1020 NOSIG=
201602170650 METAR COR EGLL 170650Z AUTO 15009KT 120V200 9999 BKN029 03/M01
                        Q1020 NOSIG=
201602170620 METAR COR EGLL 170620Z AUTO 15009G19KT 100V180 9999 BKN030
                        03/M01 Q1020 NOSIG=
201602170550 METAR COR EGLL 170550Z AUTO 15007KT 9999 OVC030 03/M01 Q1021
                        NOSIG=
201602170520 METAR COR EGLL 170520Z AUTO 15004KT 9999 BKN030 02/M02 Q1021
                        NOSIG=
201602170450 METAR COR EGLL 170450Z AUTO VRB08KT 9999 SCT030 03/M02 Q1022
                        NOSIG=
201602170420 METAR COR EGLL 170420Z AUTO 16005KT 9999 NCD 02/M01 Q1022
                        NOSIG=
201602170350 METAR COR EGLL 170350Z AUTO 18007KT 9999 NCD 02/M01 Q1023
                        NOSIG=
201602170320 METAR COR EGLL 170320Z AUTO 17005KT 9999 NCD 02/M01 Q1023
                        NOSIG=
201602170250 METAR COR EGLL 170250Z AUTO 13006KT 9999 FEW031 01/M01 Q1024
                        NOSIG=
201602170220 METAR COR EGLL 170220Z AUTO 15005KT 9999 BKN028 02/M01 Q1024
                        NOSIG=
201602170150 METAR COR EGLL 170150Z AUTO 15004KT 9999 SCT031 02/M01 Q1025
                        NOSIG=
201602170120 METAR COR EGLL 170120Z AUTO 14004KT 9999 NCD 02/M01 Q1026
                        NOSIG=
201602170050 METAR COR EGLL 170050Z AUTO 16004KT 9999 FEW034 02/M01 Q1026
                        NOSIG=
201602170020 METAR COR EGLL 170020Z AUTO 15005KT 9999 SCT033 03/M01 Q1027
                        NOSIG=
201602162350 METAR COR EGLL 162350Z AUTO 14005KT 9999 OVC033 03/M00 Q1027
                        NOSIG=
201602162320 METAR COR EGLL 162320Z AUTO 15004KT 120V230 9999 OVC033 03/M00
                        Q1028 NOSIG=
201602162250 METAR COR EGLL 162250Z AUTO 14004KT 9999 BKN034 01/M01 Q1028
                        NOSIG=
201602162220 METAR COR EGLL 162220Z AUTO 14005KT 110V180 9999 BKN033 01/M01
                        Q1029 NOSIG=
201602162150 METAR COR EGLL 162150Z AUTO 15006KT 130V190 9999 FEW034 02/M01
                        Q1029 NOSIG=
201602162120 METAR COR EGLL 162120Z AUTO 16006KT 9999 SCT033 03/M01 Q1030
                        NOSIG=
201602162050 METAR COR EGLL 162050Z AUTO 17007KT 120V230 9999 FEW033 03/M01
                        Q1030 NOSIG=
201602162020 METAR COR EGLL 162020Z AUTO 15006KT 9999 FEW034 03/M01 Q1030
                        NOSIG=
201602161950 METAR COR EGLL 161950Z AUTO 15006KT 100V190 9999 FEW033 03/M01
                        Q1031 NOSIG=
201602161920 METAR COR EGLL 161920Z AUTO 16007KT 9999 BKN033 04/M01 Q1031
                        NOSIG=
201602161850 METAR COR EGLL 161850Z AUTO 17006KT 130V230 9999 BKN035 04/M01
                        Q1031 NOSIG=
201602161820 METAR COR EGLL 161820Z AUTO 19008KT 160V230 9999 NCD 04/M01
                        Q1031 NOSIG=
201602161750 METAR COR EGLL 161750Z AUTO 18009KT 9999 NCD 05/M01 Q1031
                        NOSIG=
201602161720 METAR COR EGLL 161720Z AUTO 20008KT 160V220 9999 FEW032 05/M01
                        Q1031 NOSIG=
201602161650 METAR COR EGLL 161650Z AUTO 20009KT 160V230 9999 FEW035 06/M01
                        Q1031 NOSIG=
201602161620 METAR COR EGLL 161620Z AUTO 20012KT 170V240 9999 FEW033 06/M01
                        Q1032 NOSIG=
201602161550 METAR COR EGLL 161550Z AUTO 22011KT 9999 NCD 07/M01 Q1032
                        NOSIG=
201602161520 METAR COR EGLL 161520Z AUTO 19011G22KT 160V220 9999 NCD 07/M01
                        Q1032 NOSIG=
201602161450 METAR COR EGLL 161450Z AUTO 20011KT 170V230 9999 NCD 07/M01
                        Q1032 NOSIG=
201602161420 METAR COR EGLL 161420Z AUTO 17012KT 140V240 9999 NCD 07/M01
                        Q1033 NOSIG=
201602161350 METAR COR EGLL 161350Z AUTO 19010KT 140V240 9999 NCD 07/M01
                        Q1033 NOSIG=
201602161320 METAR COR EGLL 161320Z AUTO 20011KT 170V230 9999 NCD 07/M02
                        Q1034 NOSIG=
201602161250 METAR COR EGLL 161250Z AUTO 21010KT 160V240 9999 NCD 07/M02
                        Q1034 NOSIG=
201602161220 METAR COR EGLL 161220Z AUTO 21008KT 160V250 9999 NCD 07/M00
                        Q1035 NOSIG=
201602161150 METAR COR EGLL 161150Z AUTO 19009KT 160V240 9999 NCD 06/01
                        Q1035 NOSIG=
201602161120 METAR COR EGLL 161120Z AUTO 21007KT 160V250 9999 NCD 05/01
                        Q1036 NOSIG=
201602161050 METAR COR EGLL 161050Z AUTO 24006KT 190V280 9999 NCD 05/00
                        Q1036 NOSIG=
201602161020 METAR COR EGLL 161020Z AUTO 21005KT 160V240 9999 NCD 04/00
                        Q1036 NOSIG=
201602160950 METAR COR EGLL 160950Z AUTO VRB03KT 9000 NCD 03/M00 Q1036
                        NOSIG=
201602160920 METAR COR EGLL 160920Z AUTO VRB03KT 8000 NCD 01/M00 Q1036
                        NOSIG=
201602160850 METAR COR EGLL 160850Z AUTO VRB03KT 8000 NCD M00/M02 Q1036
                        NOSIG=
201602160820 METAR COR EGLL 160820Z AUTO 33001KT 8000 NCD M01/M02 Q1036
                        TEMPO 4000 BR=
201602160750 METAR COR EGLL 160750Z AUTO VRB02KT 9000 NCD M01/M03 Q1036
                        TEMPO 4000 BR=
201602160720 METAR COR EGLL 160720Z AUTO 31003KT 9000 NCD M01/M02 Q1036
                        TEMPO 4000 BR=
201602160650 METAR COR EGLL 160650Z AUTO 31003KT 9000 NCD M01/M02 Q1036
                        TEMPO 4000 BR=
201602160620 METAR COR EGLL 160620Z AUTO 28002KT 8000 NCD M02/M03 Q1036
                        TEMPO 4000 MIFG=
201602160550 METAR COR EGLL 160550Z AUTO VRB03KT 7000 NCD M02/M03 Q1035
                        TEMPO 4000 MIFG=
201602160520 METAR COR EGLL 160520Z AUTO VRB01KT 9000 NCD M02/M03 Q1036
                        NOSIG=
201602160450 METAR COR EGLL 160450Z AUTO 06002KT 9000 NCD M02/M03 Q1036
                        NOSIG=
201602160420 METAR COR EGLL 160420Z AUTO VRB02KT 9999 NCD M02/M03 Q1035
                        NOSIG=
201602160350 METAR EGLL 160350Z AUTO VRB02KT 9999 NCD M01/M03 Q1035=
201602160320 METAR COR EGLL 160320Z AUTO 27001KT 9000 NCD M01/M02 Q1035
                        NOSIG=
201602160250 METAR COR EGLL 160250Z AUTO VRB03KT 9999 NCD M01/M03 Q1035
                        NOSIG=
201602160220 METAR COR EGLL 160220Z AUTO 33002KT 9999 NCD M00/M02 Q1035
                        NOSIG=
201602160150 METAR COR EGLL 160150Z AUTO 29002KT 9999 NCD M00/M02 Q1035
                        NOSIG=
201602160120 METAR COR EGLL 160120Z AUTO 31002KT 9999 NCD 00/M02 Q1035
                        NOSIG=
201602160050 METAR COR EGLL 160050Z AUTO VRB01KT 9999 NCD 01/M02 Q1035
                        NOSIG=
201602160020 METAR COR EGLL 160020Z AUTO VRB02KT 9999 NCD 01/M01 Q1035
                        NOSIG=
201602152350 METAR COR EGLL 152350Z AUTO VRB02KT 9999 NCD 01/M01 Q1035
                        NOSIG=
201602152320 METAR COR EGLL 152320Z AUTO 30003KT 9999 NCD 02/M01 Q1035
                        NOSIG=
201602152250 METAR COR EGLL 152250Z AUTO VRB02KT 9999 NCD 03/M00 Q1035
                        NOSIG=
201602152220 METAR COR EGLL 152220Z AUTO VRB02KT 9999 NCD 03/M00 Q1034
                        NOSIG=
201602152150 METAR COR EGLL 152150Z AUTO VRB03KT 9999 FEW037 03/M01 Q1034
                        NOSIG=
201602152120 METAR COR EGLL 152120Z AUTO 36004KT 9999 FEW036 04/M00 Q1034
                        NOSIG=
201602152050 METAR COR EGLL 152050Z AUTO VRB03KT 9999 FEW040 04/M00 Q1034
                        NOSIG=
201602152020 METAR COR EGLL 152020Z AUTO 33005KT 300V010 9999 SCT038 04/M01
                        Q1033 NOSIG=
201602151950 METAR COR EGLL 151950Z AUTO VRB03KT 9999 FEW035 04/M01 Q1033
                        NOSIG=
201602151920 METAR COR EGLL 151920Z AUTO 32005KT 290V360 9999 FEW031 04/M01
                        Q1032 NOSIG=
201602151850 METAR COR EGLL 151850Z AUTO 34004KT 9999 FEW032 SCT042 05/M01
                        Q1032 NOSIG=
201602151820 METAR COR EGLL 151820Z AUTO 35004KT 9999 FEW028 05/M01 Q1031
                        NOSIG=
201602151750 METAR COR EGLL 151750Z AUTO 33006KT 9999 BKN035 05/M02 Q1031
                        NOSIG=
201602151720 METAR COR EGLL 151720Z AUTO 35005KT 9999 FEW038 06/M02 Q1030
                        NOSIG=
201602151650 METAR COR EGLL 151650Z AUTO 35006KT 320V020 9999 FEW037 06/M02
                        Q1029 NOSIG=
201602151620 METAR COR EGLL 151620Z AUTO 35008KT 310V020 9999 SCT036 06/M02
                        Q1029 NOSIG=
201602151550 METAR COR EGLL 151550Z AUTO 35008KT 300V030 9999 FEW034 06/M02
                        Q1028 NOSIG=
201602151520 METAR COR EGLL 151520Z AUTO 36009KT 320V050 9999 FEW035 07/M02
                        Q1028 NOSIG=
201602151450 METAR COR EGLL 151450Z AUTO 36010KT 310V020 9999 SCT033 SCT048
                        07/M01 Q1028 NOSIG=
201602151420 METAR COR EGLL 151420Z AUTO 35008KT 310V030 9999 BKN031 06/M01
                        Q1027 NOSIG=
201602151350 METAR COR EGLL 151350Z AUTO 01009KT 330V040 9999 BKN031 06/M01
                        Q1027 NOSIG=
201602151320 METAR COR EGLL 151320Z AUTO 01011KT 340V050 9999 BKN029 07/M01
                        Q1027 NOSIG=
201602151250 METAR COR EGLL 151250Z AUTO 36011KT 9999 SCT028 06/M01 Q1027
                        NOSIG=
201602151220 METAR COR EGLL 151220Z AUTO 34008KT 9999 SCT027 06/M01 Q1026
                        NOSIG=
201602151150 METAR COR EGLL 151150Z AUTO 36012KT 330V030 9999 FEW028 06/M01
                        Q1026 NOSIG=
201602151120 METAR COR EGLL 151120Z AUTO 35009KT 310V030 9999 FEW026 05/M01
                        Q1026 NOSIG=
201602151050 METAR COR EGLL 151050Z AUTO 35011KT 9999 FEW025 05/M01 Q1025
                        NOSIG=
201602151020 METAR COR EGLL 151020Z AUTO 36009KT 330V030 9999 FEW022 04/M01
                        Q1025 NOSIG=
201602150950 METAR COR EGLL 150950Z AUTO 36009KT 310V040 9999 FEW018 03/M01
                        Q1024 NOSIG=
201602150920 METAR COR EGLL 150920Z AUTO 35007KT 310V030 9999 FEW017 03/M01
                        Q1024 NOSIG=
201602150850 METAR COR EGLL 150850Z AUTO 34008KT 310V020 9999 BKN014 02/M01
                        Q1023 BECMG SCT014=
201602150820 METAR COR EGLL 150820Z AUTO 35007KT 320V020 9999 SCT015 SCT042
                        02/M01 Q1023 TEMPO BKN014=
201602150750 METAR COR EGLL 150750Z AUTO 35007KT 310V030 9999 BKN014 02/M01
                        Q1022 BECMG SCT014=
201602150720 METAR COR EGLL 150720Z AUTO 35007KT 320V030 9999 BKN012 02/M01
                        Q1021 BECMG SCT012=
201602150650 METAR COR EGLL 150650Z AUTO 33006KT 290V040 9999 BKN013 01/M01
                        Q1020 BECMG SCT013=
201602150620 METAR COR EGLL 150620Z AUTO 35004KT 310V020 9999 NCD 01/M01
                        Q1020 NOSIG=
201602150550 METAR COR EGLL 150550Z AUTO 34005KT 310V020 9999 NCD 00/M02
                        Q1019 NOSIG=
201602150520 METAR COR EGLL 150520Z AUTO 33005KT 9999 NCD 00/M02 Q1019
                        NOSIG=
201602150450 METAR COR EGLL 150450Z AUTO 33004KT 310V010 9999 NCD 00/M02
                        Q1018 NOSIG=
201602150420 METAR COR EGLL 150420Z AUTO 36004KT 9999 NCD M00/M02 Q1017
                        NOSIG=
201602150350 METAR COR EGLL 150350Z AUTO 36004KT 320V030 9999 NCD 00/M02
                        Q1017 NOSIG=
201602150320 METAR COR EGLL 150320Z AUTO 36005KT 9999 NCD 00/M02 Q1016
                        NOSIG=
201602150250 METAR COR EGLL 150250Z AUTO 34005KT 310V020 9999 NCD 00/M02
                        Q1016 NOSIG=
201602150220 METAR COR EGLL 150220Z AUTO 35004KT 320V020 9999 NCD 01/M02
                        Q1015 NOSIG=
201602150150 METAR COR EGLL 150150Z AUTO 34005KT 310V010 9999 FEW017 01/M02
                        Q1014 NOSIG=
201602150120 METAR COR EGLL 150120Z AUTO 34005KT 310V020 9999 FEW041 01/M02
                        Q1014 NOSIG=
201602150050 METAR COR EGLL 150050Z AUTO 34005KT 300V050 9999 FEW039 01/M02
                        Q1013 NOSIG=
201602150020 METAR COR EGLL 150020Z AUTO 32005KT 9999 NCD 01/M02 Q1013
                        NOSIG=
201602142350 METAR COR EGLL 142350Z AUTO 35005KT 320V030 9999 NCD 01/M02
                        Q1012 NOSIG=
201602142320 METAR COR EGLL 142320Z AUTO 35006KT 310V020 9999 NCD 02/M02
                        Q1011 NOSIG=
201602142250 METAR COR EGLL 142250Z AUTO 36006KT 320V040 9999 NCD 02/M02
                        Q1010 NOSIG=
201602142220 METAR COR EGLL 142220Z AUTO 35006KT 320V020 9999 NCD 02/M02
                        Q1010 TEMPO -SHSN=
201602142150 METAR COR EGLL 142150Z AUTO 36007KT 330V030 9999 NCD 03/M02
                        Q1009 TEMPO -SHSN=
201602142120 METAR COR EGLL 142120Z AUTO 36008KT 320V020 9999 NCD 03/M02
                        Q1008 TEMPO -SHSN=
201602142050 METAR COR EGLL 142050Z AUTO 35007KT 320V030 9999 NCD 03/M03
                        Q1008 TEMPO -SHSN=
201602142020 METAR COR EGLL 142020Z AUTO 35007KT 320V030 9999 NCD 03/M03
                        Q1007 NOSIG=
201602141950 METAR COR EGLL 141950Z AUTO 35005KT 9999 NCD 03/M03 Q1006
                        NOSIG=
201602141920 METAR COR EGLL 141920Z AUTO 36007KT 9999 NCD 03/M04 Q1006
                        NOSIG=
201602141850 METAR COR EGLL 141850Z AUTO 36008KT 9999 NCD 03/M03 Q1005
                        NOSIG=
201602141820 METAR COR EGLL 141820Z AUTO 01008KT 9999 NCD 03/M03 Q1004
                        NOSIG=
201602141750 METAR COR EGLL 141750Z AUTO 01006KT 320V040 9999 NCD 04/M04
                        Q1004 NOSIG=
201602141720 METAR COR EGLL 141720Z AUTO 02008KT 340V050 9999 NCD 04/M05
                        Q1003 NOSIG=
201602141650 METAR COR EGLL 141650Z AUTO 01008KT 340V050 9999 FEW045 04/M04
                        Q1002 NOSIG=
201602141620 METAR COR EGLL 141620Z AUTO 02010KT 9999 NCD 05/M05 Q1002
                        NOSIG=
201602141550 METAR COR EGLL 141550Z AUTO 01011KT 350V050 9999 FEW036 05/M03
                        Q1001 NOSIG=
201602141520 METAR COR EGLL 141520Z AUTO 01011G21KT 330V050 9999 SCT035
                        05/M02 Q1000 NOSIG=
201602141450 METAR COR EGLL 141450Z AUTO 02009KT 340V060 9999 SCT038 06/M02
                        Q0999 NOSIG=
201602141420 METAR COR EGLL 141420Z AUTO 02010KT 350V050 9999 SCT031 BKN045
                        06/M01 Q0999 NOSIG=
201602141350 METAR COR EGLL 141350Z AUTO 01009KT 330V050 9999 SCT030 OVC045
                        06/M00 Q0998 NOSIG=
201602141320 METAR COR EGLL 141320Z AUTO 02008KT 340V050 9999 BKN031 06/M00
                        Q0997 NOSIG=
201602141250 METAR COR EGLL 141250Z AUTO 03008KT 9999 SCT027 06/00 Q0997
                        NOSIG=
201602141220 METAR COR EGLL 141220Z AUTO 04011KT 010V080 9999 BKN025 06/01
                        Q0996 NOSIG=
201602141150 METAR COR EGLL 141150Z AUTO 04012KT 9999 BKN024 06/01 Q0996
                        NOSIG=
201602141120 METAR COR EGLL 141120Z AUTO 04011KT 010V070 9999 FEW024 06/01
                        Q0995 NOSIG=
201602141050 METAR COR EGLL 141050Z AUTO 05008KT 9999 FEW021 05/01 Q0995
                        NOSIG=
201602141020 METAR COR EGLL 141020Z AUTO 04008KT 010V070 9999 FEW021 05/01
                        Q0994 NOSIG=
201602140950 METAR COR EGLL 140950Z AUTO 03008KT 360V090 9999 NCD 05/01
                        Q0994 NOSIG=
201602140920 METAR COR EGLL 140920Z AUTO 04010KT 360V060 9999 NCD 04/01
                        Q0993 NOSIG=
201602140850 METAR EGLL 140850Z AUTO 04008KT 010V070 9999 NCD 04/01 Q0993=
201602140820 METAR COR EGLL 140820Z AUTO 04006KT 350V070 9999 NCD 03/01
                        Q0992 NOSIG=
201602140750 METAR COR EGLL 140750Z AUTO 03005KT 9999 NCD 03/01 Q0992
                        NOSIG=
201602140720 METAR COR EGLL 140720Z AUTO 03006KT 9999 NCD 02/01 Q0991
                        NOSIG=
201602140650 METAR COR EGLL 140650Z AUTO 03004KT 360V070 8000 NCD 02/01
                        Q0991 NOSIG=
201602140620 METAR COR EGLL 140620Z AUTO 03004KT 350V060 7000 NCD 01/00
                        Q0990 NOSIG=
201602140550 METAR COR EGLL 140550Z AUTO VRB03KT 6000 NCD 02/00 Q0990
                        NOSIG=
201602140520 METAR COR EGLL 140520Z AUTO 01004KT 5000 HZ NCD 02/01 Q0990
                        NOSIG=
201602140450 METAR COR EGLL 140450Z AUTO 36004KT 6000 FEW046 02/01 Q0989
                        NOSIG=
201602140420 METAR COR EGLL 140420Z AUTO 02004KT 330V050 5000 HZ FEW021
                        03/02 Q0989 RERA NOSIG=
201602140350 METAR COR EGLL 140350Z AUTO VRB03KT 4200 -RA BKN017 BKN033
                        03/02 Q0989 BECMG 9999 NSW=
201602140320 METAR COR EGLL 140320Z AUTO 36003KT 4700 -RA BKN017 03/02
                        Q0989 TEMPO BKN014=
201602140250 METAR COR EGLL 140250Z AUTO VRB03KT 4700 -RADZ BKN014 03/02
                        Q0989 TEMPO SCT014=
201602140220 METAR COR EGLL 140220Z AUTO 02004KT 340V040 4500 -RADZ BKN010
                        03/02 Q0989 TEMPO SCT012=
201602140150 METAR COR EGLL 140150Z AUTO 02004KT 340V040 4200 -RADZ SCT010
                        SCT024 03/02 Q0988 TEMPO BKN010=
201602140120 METAR COR EGLL 140120Z AUTO 01005KT 5000 -RA BKN019 03/02
                        Q0988 TEMPO 4500 RADZ BKN009=
201602140050 METAR COR EGLL 140050Z AUTO VRB03KT 5000 -RA FEW027 SCT035
                        03/02 Q0988 TEMPO 4500 RADZ BKN009=
201602140020 METAR COR EGLL 140020Z AUTO VRB03KT 4900 -RA BKN019 03/02
                        Q0988 BECMG 6000=
201602132350 METAR COR EGLL 132350Z AUTO 02004KT 330V050 5000 -RA FEW030
                        03/02 Q0988 NOSIG=
201602132320 METAR COR EGLL 132320Z AUTO 01004KT 340V040 5000 -RADZ FEW012
                        OVC040 04/02 Q0988 NOSIG=
201602132250 METAR EGLL 132250Z AUTO 03004KT 350V060 6000 -RA FEW010 BKN037
                        04/02 Q0987=
201602132220 METAR COR EGLL 132220Z AUTO 02005KT 340V050 6000 -RA BKN010
                        04/02 Q0987 NOSIG=
201602132150 METAR COR EGLL 132150Z AUTO 03005KT 350V070 6000 -RA OVC010
                        04/02 Q0987 NOSIG=
201602132120 METAR COR EGLL 132120Z AUTO 02006KT 5000 -DZ OVC008 04/03
                        Q0987 NOSIG=
201602132050 METAR COR EGLL 132050Z AUTO 01006KT 330V050 4400 -DZ OVC008
                        04/03 Q0987 TEMPO 5000 BKN010=
201602132020 METAR COR EGLL 132020Z AUTO 01006KT 4900 -RADZ BKN009 BKN024
                        04/03 Q0987 TEMPO 5000 BKN010=
201602131950 METAR COR EGLL 131950Z AUTO 01005KT 340V040 6000 -RA BKN010
                        04/02 Q0987 NOSIG=
201602131920 METAR COR EGLL 131920Z AUTO 03006KT 350V050 5000 -RADZ BKN009
                        OVC021 04/03 Q0987 TEMPO BKN010=
201602131850 METAR COR EGLL 131850Z AUTO 01005KT 330V040 5000 -DZ BKN011
                        04/03 Q0986 NOSIG=
201602131820 METAR COR EGLL 131820Z AUTO 03005KT 350V050 6000 -RA BKN011
                        BKN024 04/02 Q0986 TEMPO SCT012 BKN016=
201602131750 METAR COR EGLL 131750Z AUTO 04008KT 350V060 8000 -RA BKN011
                        OVC026 04/02 Q0986 TEMPO SCT011 BKN016=
201602131720 METAR COR EGLL 131720Z AUTO 04007KT 9999 -RA BKN013 05/02
                        Q0985 TEMPO SCT012 BKN016=
201602131650 METAR COR EGLL 131650Z AUTO 04007KT 010V070 9999 -RA BKN012
                        OVC025 05/03 Q0985 TEMPO SCT012 OVC025=
201602131620 METAR COR EGLL 131620Z AUTO 05008KT 9999 -RA BKN012 OVC025
                        05/02 Q0985 TEMPO SCT015=
201602131550 METAR COR EGLL 131550Z AUTO 04008KT 9999 -RA BKN012 OVC027
                        05/02 Q0984 TEMPO BKN015=
201602131520 METAR COR EGLL 131520Z AUTO 05007KT 010V090 9999 -RA BKN013
                        05/02 Q0984 TEMPO BKN015=
201602131450 METAR COR EGLL 131450Z AUTO 07010KT 9999 -RA OVC015 05/02
                        Q0984 NOSIG=
201602131420 METAR COR EGLL 131420Z AUTO 07010KT 9999 -RA OVC012 05/02
                        Q0983 TEMPO SCT012 BKN015=
201602131350 METAR COR EGLL 131350Z AUTO 06011KT 9999 -RA BKN013 05/03
                        Q0983 NOSIG=
201602131320 METAR COR EGLL 131320Z AUTO 06012KT 9999 -RA BKN014 05/02
                        Q0983 TEMPO SCT012 BKN015=
201602131250 METAR COR EGLL 131250Z AUTO 07011KT 9999 -RA BKN012 05/02
                        Q0983 TEMPO SCT012 BKN015=
201602131220 METAR COR EGLL 131220Z AUTO 09012KT 9999 -RA OVC012 04/02
                        Q0983 NOSIG=
201602131150 METAR COR EGLL 131150Z AUTO 09013KT 9000 -RA OVC012 04/02
                        Q0983 TEMPO SCT012 BKN015=
201602131120 METAR COR EGLL 131120Z AUTO 08012KT 050V120 9999 -RA BKN013
                        04/02 Q0983 NOSIG=
201602131050 METAR COR EGLL 131050Z AUTO 08012KT 9000 -RA OVC014 04/02
                        Q0984 NOSIG=
201602131020 METAR COR EGLL 131020Z AUTO 08014KT 7000 -RA OVC013 04/02
                        Q0984 NOSIG=
201602130950 METAR COR EGLL 130950Z AUTO 09012KT 7000 -RA OVC013 04/02
                        Q0984 NOSIG=
201602130920 METAR COR EGLL 130920Z AUTO 09014KT 8000 -RA OVC012 04/01
                        Q0984 NOSIG=
201602130850 METAR COR EGLL 130850Z AUTO 09012KT 9000 -RA OVC011 04/02
                        Q0985 NOSIG=
201602130820 METAR COR EGLL 130820Z AUTO 09012KT 9000 -RA BKN012 04/02
                        Q0985 TEMPO 4800=
201602130750 METAR COR EGLL 130750Z AUTO 08012KT 8000 OVC023 03/02 Q0986
                        TEMPO 4800 RADZ BKN014=
201602130720 METAR COR EGLL 130720Z AUTO 08011KT 6000 -RA OVC023 03/01
                        Q0986 TEMPO 4500 RADZ BKN012=
201602130650 METAR COR EGLL 130650Z AUTO 08011KT 5000 -RA BKN015 03/01
                        Q0987 TEMPO BKN014=
201602130620 METAR COR EGLL 130620Z AUTO 09010KT 9999 BKN016 03/01 Q0987
                        NOSIG=
201602130550 METAR COR EGLL 130550Z AUTO 08009KT 9999 FEW021 OVC033 03/01
                        Q0988 NOSIG=
201602130520 METAR COR EGLL 130520Z AUTO 09010KT 9999 OVC031 03/01 Q0989
                        NOSIG=
201602130450 METAR COR EGLL 130450Z AUTO 09010KT 9999 BKN032 03/01 Q0989
                        NOSIG=
201602130420 METAR COR EGLL 130420Z AUTO 09008KT 9999 NCD 03/01 Q0990
                        NOSIG=
201602130350 METAR COR EGLL 130350Z AUTO 09008KT 9999 NCD 03/01 Q0990
                        NOSIG=
201602130320 METAR COR EGLL 130320Z AUTO 08007KT 9999 NCD 03/01 Q0991
                        NOSIG=
201602130250 METAR COR EGLL 130250Z AUTO 09006KT 9000 SCT048 02/01 Q0991
                        NOSIG=
201602130220 METAR COR EGLL 130220Z AUTO 08005KT 8000 NCD 01/00 Q0992
                        NOSIG=
201602130150 METAR COR EGLL 130150Z AUTO 07003KT 8000 NCD 02/01 Q0993
                        NOSIG=
201602130120 METAR COR EGLL 130120Z AUTO 08004KT 9000 NCD 02/00 Q0993
                        NOSIG=
201602130050 METAR COR EGLL 130050Z AUTO 07004KT 9999 FEW041 03/01 Q0993
                        NOSIG=
201602130020 METAR COR EGLL 130020Z AUTO 09006KT 9999 BKN027 04/01 Q0993
                        NOSIG=
201602122350 METAR COR EGLL 122350Z AUTO 11005KT 9999 OVC025 05/02 Q0994
                        NOSIG=
201602122320 METAR COR EGLL 122320Z AUTO 09007KT 9999 BKN023 05/02 Q0994
                        NOSIG=
201602122250 METAR COR EGLL 122250Z AUTO 09006KT 9999 BKN025 04/02 Q0994
                        NOSIG=
201602122220 METAR COR EGLL 122220Z AUTO 08004KT 9999 BKN025 04/02 Q0995
                        NOSIG=
201602122150 METAR COR EGLL 122150Z AUTO 08004KT 9999 SCT047 04/02 Q0995
                        NOSIG=
201602122120 METAR EGLL 122120Z AUTO 09005KT 9999 FEW023 BKN047 05/02
                        Q0996=
201602122050 METAR COR EGLL 122050Z AUTO 10005KT 9999 SCT018 04/02 Q0996
                        NOSIG=
201602122020 METAR COR EGLL 122020Z AUTO 10005KT 9999 SCT019 05/02 Q0996
                        NOSIG=
201602121950 METAR COR EGLL 121950Z AUTO 10007KT 9999 OVC021 05/02 Q0996
                        NOSIG=
201602121920 METAR COR EGLL 121920Z AUTO 10007KT 9999 OVC017 05/02 Q0995
                        NOSIG=
201602121850 METAR COR EGLL 121850Z AUTO 10007KT 9999 OVC018 05/02 Q0995
                        NOSIG=
201602121820 METAR COR EGLL 121820Z AUTO 09006KT 9999 BKN018 05/02 Q0995
                        NOSIG=
201602121750 METAR COR EGLL 121750Z AUTO 07005KT 9999 BKN019 05/02 Q0995
                        NOSIG=
201602121720 METAR COR EGLL 121720Z AUTO 07006KT 9999 BKN019 05/01 Q0995
                        NOSIG=
201602121650 METAR COR EGLL 121650Z AUTO 07007KT 9999 BKN018 05/02 Q0995
                        NOSIG=
201602121620 METAR COR EGLL 121620Z AUTO 06007KT 9999 OVC017 05/01 Q0995
                        NOSIG=
201602121550 METAR COR EGLL 121550Z AUTO 07007KT 9999 OVC017 05/01 Q0994
                        NOSIG=
201602121520 METAR COR EGLL 121520Z AUTO 06008KT 9999 BKN018 05/01 Q0994
                        TEMPO BKN014=
201602121450 METAR COR EGLL 121450Z AUTO 09008KT 9999 OVC018 05/01 Q0994
                        TEMPO BKN014=
201602121420 METAR COR EGLL 121420Z AUTO 08008KT 9999 OVC016 05/02 Q0994
                        TEMPO BKN014=
201602121350 METAR COR EGLL 121350Z AUTO 09010KT 9999 BKN016 06/02 Q0994
                        TEMPO BKN014=
201602121320 METAR COR EGLL 121320Z AUTO 09009KT 9999 OVC014 06/03 Q0994
                        TEMPO SCT014 BKN016=
201602121250 METAR EGLL 121250Z AUTO 11010KT 9999 OVC014 05/02 Q0994=
201602121220 METAR EGLL 121220Z AUTO 09010KT 9999 OVC015 05/02 Q0994=
201602121150 METAR COR EGLL 121150Z AUTO 09010KT 9999 OVC016 06/02 Q0994
                        NOSIG=
201602121120 METAR COR EGLL 121120Z AUTO 11012KT 9999 BKN015 06/02 Q0994
                        NOSIG=
201602121050 METAR COR EGLL 121050Z AUTO 11011KT 9999 BKN013 06/03 Q0994
                        BECMG SCT015=
201602121020 METAR COR EGLL 121020Z AUTO 11009KT 9999 BKN014 06/04 Q0994
                        BECMG SCT015=
201602120950 METAR COR EGLL 120950Z AUTO 09007KT 9999 BKN013 05/04 Q0994
                        BECMG SCT016=
201602120920 METAR COR EGLL 120920Z AUTO 09006KT 9999 NCD 04/03 Q0994
                        TEMPO BKN014=
201602120850 METAR COR EGLL 120850Z AUTO 10008KT 9999 FEW017 04/03 Q0994
                        TEMPO BKN014=
201602120820 METAR COR EGLL 120820Z AUTO 09007KT 9999 NCD 03/02 Q0994
                        NOSIG=
201602120750 METAR COR EGLL 120750Z AUTO 09008KT 9999 NCD 02/01 Q0995
                        NOSIG=
201602120720 METAR COR EGLL 120720Z AUTO 08007KT 9999 NCD 02/01 Q0995
                        NOSIG=
201602120650 METAR COR EGLL 120650Z AUTO 09007KT 9999 NCD 02/01 Q0995
                        NOSIG=
201602120620 METAR COR EGLL 120620Z AUTO 09005KT 9999 NCD 01/00 Q0995
                        NOSIG=
201602120550 METAR COR EGLL 120550Z AUTO 09005KT 9999 FEW026 01/00 Q0996
                        NOSIG=
201602120520 METAR COR EGLL 120520Z 10005KT 9999 FEW025 01/00 Q0996 NOSIG=
201602120450 METAR COR EGLL 120450Z AUTO 06004KT 9999 NCD 01/00 Q0996
                        NOSIG=
201602120420 METAR COR EGLL 120420Z AUTO 08004KT 9999 FEW023 01/00 Q0997
                        NOSIG=
201602120350 METAR COR EGLL 120350Z AUTO VRB02KT 9999 FEW009/// BKN021///
                        //////TCU 02/01 Q0997 NOSIG=
201602120320 METAR COR EGLL 120320Z AUTO 08004KT 9999 BKN024/// //////TCU
                        01/00 Q0998 NOSIG=
201602120250 METAR COR EGLL 120250Z AUTO VRB02KT 9999 FEW020/// //////TCU
                        01/00 Q0998 NOSIG=
201602120220 METAR COR EGLL 120220Z AUTO 13004KT 9999 NCD 02/01 Q0999
                        NOSIG=
201602120150 METAR COR EGLL 120150Z AUTO 15004KT 9999 NCD 02/01 Q0999
                        NOSIG=
201602120120 METAR COR EGLL 120120Z AUTO 14005KT 9999 NCD 01/00 Q0999
                        NOSIG=
201602120050 METAR EGLL 120050Z AUTO 13003KT 9999 FEW022 02/00 Q0999=
201602120020 METAR COR EGLL 120020Z AUTO 17001KT 9999 NCD 02/01 Q1000
                        NOSIG=
201602112350 METAR COR EGLL 112350Z AUTO 16003KT 9999 FEW045 02/01 Q1000
                        NOSIG=
201602112320 METAR COR EGLL 112320Z AUTO 16003KT 9999 FEW023 02/01 Q1000
                        NOSIG=
201602112250 METAR COR EGLL 112250Z AUTO 18005KT 120V260 9999 FEW022 02/01
                        Q1001 NOSIG=
201602112220 METAR COR EGLL 112220Z AUTO 17004KT 150V250 9999 SCT043 02/01
                        Q1001 NOSIG=
201602112150 METAR COR EGLL 112150Z AUTO 18006KT 120V240 9999 NCD 02/01
                        Q1002 NOSIG=
201602112120 METAR COR EGLL 112120Z AUTO 19007KT 160V240 9999 FEW040 03/01
                        Q1002 NOSIG=
201602112050 METAR COR EGLL 112050Z AUTO 17005KT 150V220 9999 NCD 03/M00
                        Q1002 NOSIG=
201602112020 METAR COR EGLL 112020Z AUTO 19006KT 160V240 9999 NCD 04/00
                        Q1002 NOSIG=
201602111950 METAR COR EGLL 111950Z AUTO 19006KT 160V240 9999 NCD 04/M00
                        Q1002 NOSIG=
201602111920 METAR COR EGLL 111920Z AUTO 18008KT 140V250 9999 FEW035 SCT045
                        05/M00 Q1003 NOSIG=
201602111850 METAR COR EGLL 111850Z AUTO 20005KT 170V260 9999 OVC042 06/00
                        Q1003 NOSIG=
201602111820 METAR COR EGLL 111820Z AUTO 23006KT 200V260 9999 BKN045 06/M00
                        Q1003 NOSIG=
201602111750 METAR COR EGLL 111750Z AUTO 23006KT 180V270 9999 SCT040 06/M01
                        Q1003 NOSIG=
201602111720 METAR COR EGLL 111720Z AUTO 23006KT 9999 BKN038 06/M01 Q1003
                        NOSIG=
201602111650 METAR COR EGLL 111650Z AUTO 25007KT 220V280 9999 FEW041 07/M01
                        Q1003 NOSIG=
201602111620 METAR COR EGLL 111620Z AUTO 24005KT 190V280 9999 NCD 07/M01
                        Q1003 NOSIG=
201602111550 METAR COR EGLL 111550Z AUTO 26009KT 9999 NCD 08/M01 Q1003
                        NOSIG=
201602111520 METAR COR EGLL 111520Z AUTO 28004KT 250V320 9999 FEW041 08/M01
                        Q1003 NOSIG=
201602111450 METAR COR EGLL 111450Z AUTO 25005KT 220V320 9999 SCT034 08/M01
                        Q1003 NOSIG=
201602111420 METAR COR EGLL 111420Z AUTO 27004KT 190V320 9999 FEW032 08/00
                        Q1003 NOSIG=
201602111350 METAR COR EGLL 111350Z AUTO 25005KT 210V290 9999 NCD 07/01
                        Q1004 NOSIG=
201602111320 METAR COR EGLL 111320Z AUTO 22005KT 9999 FEW026 07/01 Q1004
                        NOSIG=
201602111250 METAR COR EGLL 111250Z AUTO 21005KT 190V250 9999 NCD 07/01
                        Q1004 NOSIG=
201602111220 METAR EGLL 111220Z AUTO 25004KT 210V300 9999 NCD 07/02 Q1004=
201602111150 METAR EGLL 111150Z AUTO 24004KT 220V300 9999 NCD 07/02 Q1004=
201602111120 METAR COR EGLL 111120Z AUTO VRB03KT 9999 NCD 07/02 Q1005
                        NOSIG=
201602111050 METAR COR EGLL 111050Z AUTO VRB02KT 9999 NCD 05/02 Q1005
                        NOSIG=
201602111020 METAR COR EGLL 111020Z AUTO VRB02KT 8000 NCD 04/02 Q1005
                        NOSIG=
201602110950 METAR COR EGLL 110950Z AUTO VRB01KT 9000 NCD 03/02 Q1005
                        NOSIG=
201602110920 METAR COR EGLL 110920Z AUTO 35001KT 8000 NCD 02/01 Q1005
                        NOSIG=
201602110850 METAR EGLL 110850Z AUTO 29001KT 7000 NCD 00/M00 Q1005=
201602110820 METAR EGLL 110820Z AUTO VRB02KT 9999 NCD M00/M01 Q1005=
201602110750 METAR COR EGLL 110750Z AUTO 00000KT 7000 NCD M01/M02 Q1005
                        NOSIG=
201602110720 METAR COR EGLL 110720Z AUTO 03001KT 9999 NCD M01/M01 Q1004
                        NOSIG=
201602110650 METAR COR EGLL 110650Z AUTO 32001KT 8000 NCD M00/M01 Q1004
                        TEMPO 4500 BR=
201602110620 METAR COR EGLL 110620Z AUTO 34001KT 9000 NCD M00/M01 Q1004
                        NOSIG=
201602110550 METAR COR EGLL 110550Z AUTO VRB01KT 6000 NCD M00/M01 Q1004
                        TEMPO 4500 BR=
201602110520 METAR COR EGLL 110520Z AUTO VRB02KT 9000 NCD M00/M01 Q1004
                        NOSIG=
201602110450 METAR COR EGLL 110450Z AUTO VRB02KT 7000 NCD M00/M01 Q1004
                        TEMPO 4500 BR=
201602110420 METAR COR EGLL 110420Z AUTO 26003KT 6000 NCD M00/M01 Q1004
                        TEMPO 4500 BR=
201602110350 METAR COR EGLL 110350Z AUTO 27003KT 6000 NCD M00/M01 Q1004
                        NOSIG=
201602110320 METAR COR EGLL 110320Z AUTO 31001KT 9999 NCD M00/M01 Q1004
                        NOSIG=
201602110250 METAR COR EGLL 110250Z AUTO VRB01KT 9999 NCD M00/M01 Q1005
                        NOSIG=
201602110220 METAR COR EGLL 110220Z AUTO VRB02KT 7000 NCD 00/M01 Q1005
                        NOSIG=
201602110150 METAR COR EGLL 110150Z AUTO VRB01KT 9000 FEW039 01/M01 Q1004
                        NOSIG=
201602110120 METAR COR EGLL 110120Z AUTO VRB01KT 9999 NCD 01/00 Q1004
                        NOSIG=
201602110050 METAR COR EGLL 110050Z AUTO VRB01KT 9999 NCD 01/M00 Q1004
                        NOSIG=
201602110020 METAR COR EGLL 110020Z AUTO 27002KT 9999 NCD 02/M00 Q1004
                        NOSIG=
201602102350 METAR COR EGLL 102350Z AUTO 29001KT 9999 FEW048 03/00 Q1004
                        NOSIG=
201602102320 METAR COR EGLL 102320Z AUTO 27003KT 9999 SCT047 02/01 Q1004
                        NOSIG=
201602102250 METAR COR EGLL 102250Z AUTO 28005KT 9999 BKN044 02/00 Q1004
                        NOSIG=
201602102220 METAR COR EGLL 102220Z AUTO 30003KT 9999 SCT039 03/01 Q1003
                        NOSIG=
201602102150 METAR COR EGLL 102150Z AUTO 29005KT 9999 NCD 03/00 Q1003
                        NOSIG=
201602102120 METAR COR EGLL 102120Z AUTO 28006KT 9999 NCD 04/01 Q1003
                        NOSIG=
201602102050 METAR COR EGLL 102050Z AUTO 28006KT 9999 NCD 04/01 Q1003
                        NOSIG=
201602102020 METAR COR EGLL 102020Z AUTO 28006KT 9999 NCD 04/01 Q1002
                        NOSIG=
201602101950 METAR COR EGLL 101950Z AUTO 28005KT 9999 NCD 05/01 Q1002
                        NOSIG=
201602101920 METAR COR EGLL 101920Z AUTO 28006KT 9999 NCD 05/00 Q1002
                        NOSIG=
201602101850 METAR COR EGLL 101850Z AUTO 28005KT 9999 NCD 04/01 Q1002
                        NOSIG=
201602101820 METAR COR EGLL 101820Z AUTO 29005KT 9999 NCD 05/01 Q1001
                        NOSIG=
201602101750 METAR COR EGLL 101750Z AUTO 29004KT 9999 FEW045 07/01 Q1001
                        NOSIG=
201602101720 METAR COR EGLL 101720Z AUTO 30006KT 9999 FEW029 07/01 Q1000
                        NOSIG=
201602101650 METAR COR EGLL 101650Z AUTO 30006KT 9999 SCT026 BKN042 08/02
                        Q1000 NOSIG=
201602101620 METAR COR EGLL 101620Z AUTO 30007KT 9999 SCT026 OVC042 08/02
                        Q1000 NOSIG=
201602101550 METAR COR EGLL 101550Z AUTO 30007KT 270V340 9999 BKN028 08/02
                        Q0999 NOSIG=
201602101520 METAR COR EGLL 101520Z AUTO 30007KT 9999 FEW024 BKN039 08/02
                        Q0999 NOSIG=
201602101450 METAR COR EGLL 101450Z AUTO 27010KT 9999 FEW021 BKN036 08/04
                        Q0999 NOSIG=
201602101420 METAR COR EGLL 101420Z AUTO 28008KT 9999 BKN021 BKN037 09/04
                        Q0998 NOSIG=
201602101350 METAR COR EGLL 101350Z AUTO 29008KT 9999 BKN022 08/04 Q0998
                        NOSIG=
201602101320 METAR COR EGLL 101320Z AUTO 29007KT 270V330 9999 OVC023 08/03
                        Q0998 NOSIG=
201602101250 METAR COR EGLL 101250Z AUTO 30007KT 260V330 9999 BKN023 08/03
                        Q0998 NOSIG=
201602101220 METAR COR EGLL 101220Z 31006KT 280V360 9999 FEW019 SCT028
                        07/03 Q0997 NOSIG=
201602101150 METAR COR EGLL 101150Z AUTO 29007KT 270V330 9999 BKN013 OVC026
                        07/03 Q0997 BECMG SCT013=
201602101120 METAR EGLL 101120Z AUTO 29009KT 9999 BKN012 07/04 Q0997=
201602101050 METAR COR EGLL 101050Z AUTO 29008KT 9999 SCT013 BKN021 BKN036
                        07/04 Q0997 NOSIG=
201602101020 METAR COR EGLL 101020Z AUTO 29011KT 9999 -RA BKN015 06/03
                        Q0996 NOSIG=
201602100950 METAR COR EGLL 100950Z AUTO 29007KT 9999 -RA BKN017 06/03
                        Q0996 NOSIG=
201602100920 METAR EGLL 100920Z AUTO 27007KT 9999 -RA BKN017 05/03 Q0995=
201602100850 METAR EGLL 100850Z AUTO 27009KT 9999 -RA OVC017 05/03 Q0995=
201602100820 METAR COR EGLL 100820Z AUTO 27009KT 9999 OVC018 05/03 Q0995
                        NOSIG=
201602100750 METAR COR EGLL 100750Z 27010KT 9999 7000E -RA BKN021 05/03
                        Q0994 NOSIG=
201602100720 METAR COR EGLL 100720Z 27011KT 9999 SCT022 BKN025 05/02 Q0994
                        NOSIG=
201602100650 METAR COR EGLL 100650Z 27011KT 9999 FEW022 BKN031 05/02 Q0993
                        NOSIG=
201602100620 METAR COR EGLL 100620Z AUTO 27012KT 9999 OVC021 05/02 Q0993
                        NOSIG=
201602100550 METAR COR EGLL 100550Z AUTO 26011KT 9999 -RA BKN020 05/02
                        Q0993 NOSIG=
201602100520 METAR EGLL 100520Z AUTO 26011KT 9999 FEW030 04/02 Q0993=
201602100450 METAR COR EGLL 100450Z AUTO 26011KT 9999 NCD 04/02 Q0992
                        NOSIG=
201602100420 METAR COR EGLL 100420Z AUTO 27010KT 9999 SCT021 04/02 Q0992
                        NOSIG=
201602100350 METAR COR EGLL 100350Z AUTO 27011KT 9999 SCT020 05/02 Q0992
                        NOSIG=
201602100320 METAR COR EGLL 100320Z AUTO 27012KT 9999 SCT019 BKN035 05/02
                        Q0992 NOSIG=
201602100250 METAR COR EGLL 100250Z AUTO 27013KT 9999 SCT018 BKN032 05/02
                        Q0991 NOSIG=
201602100220 METAR EGLL 100220Z AUTO 27012KT 9999 OVC019 05/03 Q0991=
201602100150 METAR COR EGLL 100150Z AUTO 28013KT 9999 OVC020 06/03 Q0991
                        NOSIG=
201602100120 METAR COR EGLL 100120Z AUTO 26012KT 9999 -RA OVC021 06/02
                        Q0990 NOSIG=
201602100050 METAR COR EGLL 100050Z AUTO 26012KT 9999 OVC023 06/02 Q0990
                        NOSIG=
201602100020 METAR COR EGLL 100020Z AUTO 26013KT 9999 BKN020 OVC036 05/02
                        Q0990 NOSIG=
201602092350 METAR COR EGLL 092350Z AUTO 27015KT 9999 -RA BKN023 OVC037
                        05/02 Q0990 NOSIG=
201602092320 METAR COR EGLL 092320Z AUTO 26012KT 9999 -RA BKN020 BKN036
                        05/02 Q0989 NOSIG=
201602092250 METAR COR EGLL 092250Z AUTO 25013KT 9999 -RA BKN022 OVC037
                        05/02 Q0989 NOSIG=
201602092220 METAR COR EGLL 092220Z AUTO 25013KT 9999 BKN023 05/02 Q0989
                        NOSIG=
201602092150 METAR COR EGLL 092150Z AUTO 25016KT 9999 BKN021 OVC036 05/02
                        Q0988 NOSIG=
201602092120 METAR COR EGLL 092120Z AUTO 24014KT 9999 BKN022 OVC038 05/02
                        Q0988 NOSIG=
201602092050 METAR COR EGLL 092050Z AUTO 24013KT 9999 BKN034 05/02 Q0988
                        NOSIG=
201602092020 METAR COR EGLL 092020Z AUTO 24011KT 9999 NCD 05/02 Q0988
                        NOSIG=
201602091950 METAR COR EGLL 091950Z AUTO 25014KT 9999 -RA SCT019 05/02
                        Q0988 NOSIG=
201602091920 METAR COR EGLL 091920Z AUTO 24011KT 9999 FEW014/// BKN038///
                        //////TCU 04/02 Q0988 NOSIG=
201602091850 METAR COR EGLL 091850Z AUTO 26016KT 8000 -RA BKN012/// //////TCU
                        04/02 Q0988 TEMPO SHRA=
201602091820 METAR COR EGLL 091820Z AUTO 27014KT 9999 FEW017 BKN025 OVC042
                        05/01 Q0988 NOSIG=
201602091750 METAR COR EGLL 091750Z AUTO 26012KT 9999 BKN030 BKN045 04/01
                        Q0987 TEMPO SHRA=
201602091720 METAR EGLL 091720Z AUTO 26020G30KT 4900 RADZ FEW011/// SCT026///
                        BKN044/// //////TCU 05/01 Q0987 RETS=
201602091650 METAR COR EGLL 091650Z AUTO 25012KT 9999 FEW043/// //////CB
                        06/M02 Q0986 TEMPO SHRA=
201602091620 METAR COR EGLL 091620Z AUTO 26013KT 9999 NCD 07/M02 Q0986
                        NOSIG=
201602091550 METAR COR EGLL 091550Z AUTO 26014KT 9999 NCD 07/M01 Q0986
                        NOSIG=
201602091520 METAR COR EGLL 091520Z AUTO 27013KT 9999 NCD 07/M01 Q0985
                        NOSIG=
201602091450 METAR COR EGLL 091450Z AUTO 27014KT 9999 FEW041 07/M01 Q0985
                        NOSIG=
201602091420 METAR COR EGLL 091420Z AUTO 28015KT 260V320 9999 FEW039 08/M02
                        Q0985 NOSIG=
201602091350 METAR COR EGLL 091350Z AUTO 28013KT 250V320 9999 FEW038 08/M00
                        Q0985 NOSIG=
201602091320 METAR COR EGLL 091320Z AUTO 29011KT 9999 FEW029 07/00 Q0985
                        NOSIG=
201602091250 METAR COR EGLL 091250Z AUTO 28011KT 9999 SCT023 07/01 Q0985
                        NOSIG=
201602091220 METAR COR EGLL 091220Z AUTO 29009KT 9999 FEW020 06/02 Q0985
                        NOSIG=
201602091150 METAR COR EGLL 091150Z AUTO 28010KT 9999 NCD 06/02 Q0985
                        NOSIG=
201602091120 METAR COR EGLL 091120Z AUTO 28009KT 9999 FEW017 06/02 Q0985
                        NOSIG=
201602091050 METAR COR EGLL 091050Z AUTO 29008KT 270V330 9999 NCD 05/02
                        Q0985 NOSIG=
201602091020 METAR COR EGLL 091020Z AUTO 28008KT 9999 NCD 05/02 Q0985
                        NOSIG=
201602090950 METAR COR EGLL 090950Z AUTO 27008KT 9999 NCD 05/03 Q0985
                        NOSIG=
201602090920 METAR EGLL 090920Z AUTO 25008KT 9999 NCD 06/03 Q0986=
201602090850 METAR EGLL 090850Z AUTO 23006KT 190V260 9999 NCD 05/03 Q0986=
201602090820 METAR COR EGLL 090820Z AUTO 20004KT 130V250 9999 FEW023 05/03
                        Q0986 NOSIG=
201602090750 METAR COR EGLL 090750Z AUTO 21006KT 9999 FEW023 05/03 Q0987
                        NOSIG=
201602090720 METAR COR EGLL 090720Z AUTO 19007KT 160V220 9999 -RA FEW040
                        05/02 Q0987 NOSIG=
201602090650 METAR COR EGLL 090650Z AUTO 19007KT 150V220 9999 -RA BKN032
                        05/02 Q0988 NOSIG=
201602090620 METAR COR EGLL 090620Z AUTO 18007KT 160V250 9999 BKN040 04/01
                        Q0989 NOSIG=
201602090550 METAR COR EGLL 090550Z AUTO 19006KT 140V250 9999 FEW049 04/01
                        Q0989 NOSIG=
201602090520 METAR COR EGLL 090520Z AUTO 18006KT 150V270 9999 NCD 03/01
                        Q0990 NOSIG=
201602090450 METAR COR EGLL 090450Z AUTO 14004KT 070V170 9999 NCD 03/00
                        Q0991 NOSIG=
201602090420 METAR COR EGLL 090420Z AUTO VRB03KT 9999 NCD 04/00 Q0991
                        NOSIG=
201602090350 METAR COR EGLL 090350Z AUTO 20005KT 9999 NCD 04/00 Q0992
                        NOSIG=
201602090320 METAR COR EGLL 090320Z AUTO 23010KT 9999 FEW026 05/01 Q0993
                        NOSIG=
201602090250 METAR COR EGLL 090250Z AUTO 24012KT 9999 SCT024 05/01 Q0993
                        NOSIG=
201602090220 METAR COR EGLL 090220Z AUTO 24011KT 9999 SCT027 BKN038 05/01
                        Q0994 NOSIG=
201602090150 METAR COR EGLL 090150Z AUTO 24012KT 9999 NCD 06/01 Q0994
                        NOSIG=
201602090120 METAR COR EGLL 090120Z AUTO 23009KT 9999 FEW029 05/01 Q0994
                        NOSIG=
201602090050 METAR COR EGLL 090050Z AUTO 23011KT 9999 FEW027 06/01 Q0994
                        NOSIG=
201602090020 METAR COR EGLL 090020Z AUTO 23014KT 9999 FEW049 06/01 Q0994
                        NOSIG=
201602082350 METAR COR EGLL 082350Z AUTO 24014KT 9999 FEW029 06/01 Q0995
                        NOSIG=
201602082320 METAR COR EGLL 082320Z AUTO 24015KT 9999 FEW034 SCT044 06/01
                        Q0995 NOSIG=
201602082250 METAR COR EGLL 082250Z AUTO 24016KT 9999 FEW035 06/00 Q0995
                        NOSIG=
201602082220 METAR COR EGLL 082220Z AUTO 24018KT 9999 FEW033 07/01 Q0994
                        NOSIG=
201602082150 METAR COR EGLL 082150Z AUTO 25022KT 9999 -RA FEW025 SCT031
                        07/01 Q0994 NOSIG=
201602082120 METAR COR EGLL 082120Z AUTO 24020G31KT 9999 BKN031 07/01
                        Q0994 NOSIG=
201602082050 METAR COR EGLL 082050Z AUTO 25019G29KT 9999 SCT029 07/01
                        Q0994 NOSIG=
201602082020 METAR COR EGLL 082020Z AUTO 25022KT 9999 BKN030 08/02 Q0993
                        NOSIG=
201602081950 METAR COR EGLL 081950Z AUTO 25025KT 9999 BKN027 08/02 Q0993
                        NOSIG=
201602081920 METAR COR EGLL 081920Z AUTO 26026KT 9999 BKN029 09/03 Q0992
                        NOSIG=
201602081850 METAR COR EGLL 081850Z AUTO 26028G38KT 9999 OVC030 09/03
                        Q0992 NOSIG=
201602081820 METAR COR EGLL 081820Z AUTO 26026KT 9999 BKN025 OVC041 09/03
                        Q0991 NOSIG=
201602081750 METAR COR EGLL 081750Z AUTO 25029G39KT 8000 BKN025 09/04
                        Q0990 NOSIG=
201602081720 METAR COR EGLL 081720Z AUTO 26025G36KT 9999 BKN022 OVC037
                        09/04 Q0989 NOSIG=
201602081650 METAR COR EGLL 081650Z AUTO 25023G37KT 9999 -RA BKN022 08/04
                        Q0989 TEMPO SHRA=
201602081620 METAR COR EGLL 081620Z AUTO 25029KT 9999 BKN025 OVC046 08/04
                        Q0988 TEMPO SHRA=
201602081550 METAR COR EGLL 081550Z AUTO 25027KT 9999 -RA BKN024/// OVC038///
                        //////TCU 08/04 Q0987 TEMPO SHRA=
201602081520 METAR COR EGLL 081520Z AUTO 25025G36KT 6000 -RA BKN019///
                        //////TCU 08/05 Q0986 TEMPO SHRA=
201602081450 METAR COR EGLL 081450Z AUTO 25027G38KT 9000 -RA BKN027 09/04
                        Q0986 TEMPO SHRA=
201602081420 METAR COR EGLL 081420Z AUTO 25025G37KT 210V270 9999 BKN020
                        OVC035 09/05 Q0985 NOSIG=
201602081350 METAR COR EGLL 081350Z AUTO 25024G38KT 9000 -RA BKN020 OVC035
                        09/05 Q0985 TEMPO SHRA=
201602081320 METAR COR EGLL 081320Z AUTO 25025G43KT 7000 -RA BKN020///
                        OVC037/// //////TCU 08/05 Q0985 RERA
                        TEMPO SHRA=
201602081250 METAR COR EGLL 081250Z AUTO 25027G37KT 4900 RA BKN017///
                        //////TCU 07/04 Q0985 BECMG 8000
                        -SHRA=
201602081220 METAR COR EGLL 081220Z AUTO 24026G39KT 9999 -RA BKN030 09/03
                        Q0984 TEMPO 4000 +SHRA=
201602081150 METAR COR EGLL 081150Z AUTO 24028G42KT 9999 BKN032 09/03
                        Q0984 NOSIG=
201602081120 METAR COR EGLL 081120Z AUTO 24027G39KT 9999 BKN031 BKN046
                        09/02 Q0984 TEMPO SHRA=
201602081050 METAR COR EGLL 081050Z AUTO 24029G42KT 9999 BKN032 09/02
                        Q0984 TEMPO SHRA=
201602081020 METAR COR EGLL 081020Z AUTO 23024KT 9999 SCT031 09/02 Q0983
                        NOSIG=
201602080950 METAR COR EGLL 080950Z AUTO 24028G39KT 9999 BKN031/// //////TCU
                        08/02 Q0984 TEMPO SHRA=
201602080920 METAR COR EGLL 080920Z AUTO 23024KT 9999 SCT027 08/02 Q0984
                        NOSIG=
201602080850 METAR COR EGLL 080850Z AUTO 24023KT 9999 BKN031 08/02 Q0984
                        NOSIG=
201602080820 METAR COR EGLL 080820Z AUTO 23021KT 9999 SCT026 07/02 Q0984
                        TEMPO SHRA=
201602080750 METAR COR EGLL 080750Z AUTO 23018KT 9999 SCT028 07/02 Q0984
                        NOSIG=
201602080720 METAR COR EGLL 080720Z AUTO 23018G28KT 9999 BKN033 07/02
                        Q0984 TEMPO SHRA=
201602080650 METAR COR EGLL 080650Z AUTO 22014KT 9999 FEW031/// BKN045///
                        //////TCU 07/02 Q0984 TEMPO SHRA=
201602080620 METAR COR EGLL 080620Z AUTO 23016KT 9999 SCT034 07/02 Q0984
                        TEMPO SHRA=
201602080550 METAR COR EGLL 080550Z AUTO 23017KT 9999 SCT035 07/02 Q0984
                        TEMPO SHRA=
201602080520 METAR EGLL 080520Z AUTO 24020KT 9999 FEW033 08/02 Q0984=
201602080450 METAR COR EGLL 080450Z AUTO 23017KT 9999 FEW036 07/03 Q0984
                        TEMPO SHRA=
201602080420 METAR EGLL 080420Z AUTO 24017KT 9999 FEW034 08/03 Q0984=
201602080350 METAR COR EGLL 080350Z AUTO 23018KT 9999 FEW039 08/03 Q0984
                        NOSIG=
201602080320 METAR COR EGLL 080320Z AUTO 22014KT 9999 FEW045 08/03 Q0984
                        NOSIG=
201602080250 METAR COR EGLL 080250Z AUTO 24017KT 9999 NCD 08/03 Q0984
                        NOSIG=
201602080220 METAR COR EGLL 080220Z AUTO 24017G27KT 9999 FEW028 08/04
                        Q0984 NOSIG=
201602080150 METAR COR EGLL 080150Z AUTO 23017KT 9999 FEW027/// //////CB
                        09/05 Q0984 NOSIG=
201602080120 METAR COR EGLL 080120Z AUTO 22018KT 9999 -RA FEW020/// //////TCU
                        08/05 Q0984 NOSIG=
201602080050 METAR COR EGLL 080050Z AUTO 22012KT 9999 FEW035/// //////TCU
                        08/05 Q0985 NOSIG=
201602080020 METAR COR EGLL 080020Z AUTO 22015KT 9999 FEW031/// SCT040///
                        //////TCU 08/05 Q0984 NOSIG=
201602072350 METAR COR EGLL 072350Z AUTO 25025G36KT 9000 -RA BKN024///
                        OVC039/// //////CB 09/05 Q0985 TEMPO
                        4800 +RA=
201602072320 METAR COR EGLL 072320Z AUTO 23022KT 9999 FEW017/// //////CB
                        10/07 Q0985 TEMPO 4800 SHRA BKN013CB=
201602072250 METAR COR EGLL 072250Z 22019G29KT 9999 -SHRA FEW006CB BKN015
                        08/07 Q0985 RESHGR RESHRA RERA TEMPO
                        4800 RA BKN010=
201602072220 METAR COR EGLL 072220Z AUTO 23012KT 190V270 2400 +RA BKN006///
                        //////CB 09/08 Q0985 BECMG 9999 NSW
                        SCT008 BKN016=
201602072150 METAR COR EGLL 072150Z AUTO 21019KT 5000 -RA BKN009/// //////TCU
                        10/08 Q0986 RERA TEMPO 4000 +RA=
201602072120 METAR COR EGLL 072120Z AUTO 20018KT 8000 -RA BKN007 09/07
                        Q0987 TEMPO SCT007 BKN014=
201602072050 METAR COR EGLL 072050Z AUTO 19017G27KT 5000 -RA BKN008 08/07
                        Q0988 TEMPO BKN012=
201602072020 METAR COR EGLL 072020Z AUTO 20021G33KT 6000 -RA BKN008///
                        //////TCU 08/06 Q0989 RERA TEMPO
                        SCT008 BKN014=
201602071950 METAR COR EGLL 071950Z AUTO 20020KT 4300 RADZ BKN010 OVC023
                        07/06 Q0990 TEMPO 7000 -RA=
201602071920 METAR COR EGLL 071920Z AUTO 20019KT 9999 -RA BKN011/// OVC024///
                        //////TCU 07/06 Q0991 TEMPO 4500
                        RA=
201602071850 METAR COR EGLL 071850Z AUTO 20016KT 9999 -RA BKN013 07/05
                        Q0992 TEMPO RA=
201602071820 METAR COR EGLL 071820Z AUTO 20015KT 9999 -RA BKN016 07/05
                        Q0993 TEMPO RA BKN014=
201602071750 METAR COR EGLL 071750Z AUTO 22017G27KT 9999 -RA BKN019 BKN034
                        07/04 Q0994 TEMPO RA BKN014=
201602071720 METAR COR EGLL 071720Z AUTO 22017KT 9999 -RA BKN023 08/04
                        Q0994 TEMPO RA BKN014=
201602071650 METAR COR EGLL 071650Z AUTO 22019KT 9999 SCT034 09/02 Q0994
                        NOSIG=
201602071620 METAR COR EGLL 071620Z AUTO 22018KT 9999 FEW038 09/02 Q0994
                        NOSIG=
201602071550 METAR EGLL 071550Z AUTO 23021G31KT 9999 FEW039 09/01 Q0995=
201602071520 METAR EGLL 071520Z AUTO 23018KT 9999 SCT038 10/01 Q0995=
201602071450 METAR EGLL 071450Z AUTO 23022KT 9999 SCT038 10/01 Q0995=
201602071420 METAR COR EGLL 071420Z AUTO 23018KT 9999 FEW040 10/02 Q0995
                        NOSIG=
201602071350 METAR COR EGLL 071350Z AUTO 23019KT 9999 FEW037 10/01 Q0995
                        NOSIG=
201602071320 METAR COR EGLL 071320Z AUTO 24018G28KT 9999 SCT033 10/02
                        Q0995 NOSIG=
201602071250 METAR COR EGLL 071250Z AUTO 24018KT 9999 BKN033 10/02 Q0995
                        NOSIG=
201602071220 METAR COR EGLL 071220Z AUTO 25022KT 9999 BKN030 09/02 Q0995
                        NOSIG=
201602071150 METAR COR EGLL 071150Z AUTO 24020KT 210V280 9999 BKN029 09/02
                        Q0995 NOSIG=
201602071120 METAR COR EGLL 071120Z AUTO 24021G31KT 9999 BKN028 09/03
                        Q0995 NOSIG=
201602071050 METAR COR EGLL 071050Z AUTO 24018G28KT 9999 SCT030 09/02
                        Q0995 NOSIG=
201602071020 METAR COR EGLL 071020Z AUTO 23018G29KT 9999 NCD 08/03 Q0994
                        NOSIG=
201602070950 METAR COR EGLL 070950Z AUTO 23016KT 9999 FEW028 BKN039 08/02
                        Q0994 NOSIG=
201602070920 METAR COR EGLL 070920Z AUTO 22014KT 9999 NCD 07/02 Q0994
                        NOSIG=
201602070850 METAR COR EGLL 070850Z AUTO 22011KT 9999 NCD 06/02 Q0993
                        NOSIG=
201602070820 METAR COR EGLL 070820Z AUTO 22011KT 9999 NCD 05/02 Q0993
                        NOSIG=
201602070750 METAR COR EGLL 070750Z AUTO 21010KT 9999 NCD 05/02 Q0993
                        NOSIG=
201602070720 METAR COR EGLL 070720Z AUTO 21009KT 9999 NCD 05/02 Q0992
                        NOSIG=
201602070650 METAR COR EGLL 070650Z AUTO 21010KT 190V250 9999 FEW026 05/02
                        Q0992 NOSIG=
201602070620 METAR COR EGLL 070620Z AUTO 21008KT 9999 BKN030 05/02 Q0992
                        NOSIG=
201602070550 METAR COR EGLL 070550Z AUTO 21008KT 9999 NCD 05/02 Q0991
                        NOSIG=
201602070520 METAR COR EGLL 070520Z AUTO 21007KT 9999 NCD 05/03 Q0991
                        NOSIG=
201602070450 METAR COR EGLL 070450Z AUTO 22009KT 9999 NCD 05/03 Q0991
                        NOSIG=
201602070420 METAR COR EGLL 070420Z AUTO 23008KT 9999 NCD 05/03 Q0991
                        NOSIG=
201602070350 METAR COR EGLL 070350Z AUTO 22007KT 9999 NCD 05/03 Q0991
                        NOSIG=
201602070320 METAR COR EGLL 070320Z AUTO 21009KT 9999 NCD 06/04 Q0990
                        NOSIG=
201602070250 METAR COR EGLL 070250Z AUTO 21010KT 9999 NCD 06/04 Q0990
                        NOSIG=
201602070220 METAR COR EGLL 070220Z AUTO 20010KT 9999 NCD 06/04 Q0990
                        NOSIG=
201602070150 METAR COR EGLL 070150Z AUTO 21008KT 9999 NCD 06/04 Q0989
                        NOSIG=
201602070120 METAR COR EGLL 070120Z AUTO 22008KT 9999 NCD 06/04 Q0989
                        NOSIG=
201602070050 METAR COR EGLL 070050Z AUTO 20007KT 9999 FEW029 06/04 Q0989
                        NOSIG=
201602070020 METAR COR EGLL 070020Z AUTO 22008KT 9999 FEW034 SCT042 06/04
                        Q0989 NOSIG=
201602062350 METAR COR EGLL 062350Z AUTO 25005KT 230V290 9999 -RA BKN049
                        07/04 Q0988 NOSIG=
201602062320 METAR COR EGLL 062320Z AUTO 28015KT 9999 -RA FEW016 BKN027
                        BKN043 06/05 Q0988 NOSIG=
201602062250 METAR COR EGLL 062250Z AUTO 24022G39KT 8000 -RA FEW011///
                        BKN016/// BKN041/// //////TCU 09/07
                        Q0987 NOSIG=
201602062220 METAR COR EGLL 062220Z AUTO 22016G26KT 9000 -RA BKN010///
                        OVC035/// //////CB 09/08 Q0986 BECMG
                        SCT018=
201602062150 METAR COR EGLL 062150Z AUTO 19020KT 8000 -RA BKN013/// //////TCU
                        09/08 Q0986 TEMPO 4000 +RA=
201602062120 METAR COR EGLL 062120Z AUTO 19022G32KT 160V220 7000 -RA BKN015
                        OVC033 10/08 Q0986 TEMPO 4000 +RA
                        BKN014=
201602062050 METAR COR EGLL 062050Z AUTO 19022KT 8000 -RA BKN016/// OVC030///
                        //////TCU 10/07 Q0987 TEMPO 4000
                        +RA BKN014=
201602062020 METAR COR EGLL 062020Z AUTO 18018G28KT 9999 -RA BKN019 OVC035
                        09/07 Q0988 TEMPO 4500 +RA BKN014=
201602061950 METAR COR EGLL 061950Z AUTO 19020KT 170V230 8000 -RA BKN023///
                        //////TCU 10/07 Q0988 TEMPO 4800
                        +RA=
201602061920 METAR COR EGLL 061920Z AUTO 18020KT 9999 -RA OVC030 10/06
                        Q0989 TEMPO RA BKN014=
201602061850 METAR COR EGLL 061850Z AUTO 18021KT 9999 -RA OVC033/// //////TCU
                        11/06 Q0989 TEMPO RA=
201602061820 METAR COR EGLL 061820Z AUTO 19023G36KT 160V230 9999 -RA BKN034
                        11/06 Q0990 TEMPO RA=
201602061750 METAR COR EGLL 061750Z AUTO 19022KT 9999 -RA BKN030 11/07
                        Q0990 TEMPO RA=
201602061720 METAR COR EGLL 061720Z AUTO 20024G37KT 9999 -RA BKN029 11/07
                        Q0991 TEMPO RA=
201602061650 METAR COR EGLL 061650Z AUTO 20025G40KT 9999 -RA BKN029 BKN045
                        12/06 Q0991 TEMPO RA=
201602061620 METAR COR EGLL 061620Z AUTO 20026G38KT 9999 BKN028 OVC046
                        12/06 Q0992 TEMPO RA=
201602061550 METAR COR EGLL 061550Z AUTO 20022G33KT 9999 BKN028 OVC045
                        12/07 Q0992 NOSIG=
201602061520 METAR COR EGLL 061520Z AUTO 20025G35KT 9999 SCT027 OVC042
                        12/07 Q0993 NOSIG=
201602061450 METAR COR EGLL 061450Z AUTO 20023KT 9999 SCT025 OVC044 12/07
                        Q0993 NOSIG=
201602061420 METAR COR EGLL 061420Z AUTO 20025G37KT 9999 BKN025 BKN044
                        12/07 Q0994 NOSIG=
201602061350 METAR COR EGLL 061350Z AUTO 20024KT 9999 OVC026 12/07 Q0995
                        NOSIG=
201602061320 METAR COR EGLL 061320Z AUTO 20025G37KT 9999 OVC025 12/07
                        Q0996 NOSIG=
201602061250 METAR COR EGLL 061250Z AUTO 20023G36KT 9999 OVC022 12/07
                        Q0996 NOSIG=
201602061220 METAR COR EGLL 061220Z AUTO 20024G36KT 9999 OVC018 11/08
                        Q0997 NOSIG=
201602061150 METAR COR EGLL 061150Z AUTO 21022KT 9999 OVC015 11/08 Q0998
                        TEMPO OVC013=
201602061120 METAR COR EGLL 061120Z AUTO 20020G36KT 9999 OVC013 11/08
                        Q0999 TEMPO BKN018=
201602061050 METAR COR EGLL 061050Z AUTO 20022G33KT 9999 OVC015 11/08
                        Q0999 TEMPO OVC014=
201602061020 METAR COR EGLL 061020Z AUTO 20018G29KT 9999 OVC012 11/08
                        Q0999 TEMPO 4500 -RADZ BKN008=
201602060950 METAR COR EGLL 060950Z AUTO 19017KT 5000 -RADZ OVC010 10/08
                        Q1000 TEMPO 4500 -RADZ BKN008=
201602060920 METAR COR EGLL 060920Z AUTO 19018KT 9999 -RA OVC013 10/08
                        Q1001 TEMPO 4500 -RADZ BKN008=
201602060850 METAR COR EGLL 060850Z AUTO 19016KT 170V230 9999 OVC013 10/08
                        Q1001 TEMPO 4500 -RADZ BKN008=
201602060820 METAR COR EGLL 060820Z AUTO 19016KT 9999 OVC012 10/08 Q1002
                        TEMPO 4500 -RADZ BKN008=
201602060750 METAR COR EGLL 060750Z AUTO 19014KT 9999 OVC012 10/08 Q1002
                        TEMPO 4500 -RADZ BKN008=
201602060720 METAR COR EGLL 060720Z AUTO 20013KT 9999 OVC011 10/08 Q1003
                        TEMPO 4500 -RADZ BKN008=
201602060650 METAR COR EGLL 060650Z AUTO 20013KT 9999 OVC010 10/08 Q1003
                        TEMPO 4500 -RADZ BKN008=
201602060620 METAR COR EGLL 060620Z AUTO 20012KT 9999 OVC009 10/08 Q1004
                        TEMPO 4500 RADZ=
201602060550 METAR COR EGLL 060550Z AUTO 19010KT 9999 BKN008 OVC022 09/08
                        Q1004 TEMPO 4500 -RADZ=
201602060520 METAR COR EGLL 060520Z AUTO 20011KT 9999 -RA BKN006 BKN016
                        09/08 Q1005 TEMPO 4500=
201602060450 METAR COR EGLL 060450Z AUTO 20010KT 9999 BKN008 OVC022 10/08
                        Q1005 TEMPO 4500 -RADZ=
201602060420 METAR COR EGLL 060420Z AUTO 19011KT 9999 SCT005 BKN014 OVC026
                        09/08 Q1005 TEMPO 4500 RA BKN008=
201602060350 METAR COR EGLL 060350Z AUTO 19011KT 8000 -RA BKN005 09/08
                        Q1006 TEMPO 4500 RADZ=
201602060320 METAR COR EGLL 060320Z AUTO 19011KT 9999 BKN006 09/08 Q1006
                        TEMPO 4500 RADZ=
201602060250 METAR COR EGLL 060250Z AUTO 20009KT 9999 BKN009 09/08 Q1007
                        TEMPO 4500 -RA=
201602060220 METAR COR EGLL 060220Z AUTO 20010KT 9999 -RA BKN007 09/08
                        Q1007 TEMPO 4500=
201602060150 METAR COR EGLL 060150Z AUTO 21010KT 9999 -RA BKN006 09/08
                        Q1008 TEMPO 4000=
201602060120 METAR COR EGLL 060120Z AUTO 21010KT 5000 -RA OVC008 09/08
                        Q1008 RERA TEMPO 4800 RADZ=
201602060050 METAR COR EGLL 060050Z AUTO 21012KT 9999 -RA OVC010 10/08
                        Q1008 TEMPO BKN009=
201602060020 METAR COR EGLL 060020Z AUTO 21015KT 9999 -RA OVC013 10/07
                        Q1008 TEMPO BKN009=
201602052350 METAR COR EGLL 052350Z AUTO 20015KT 9999 OVC016 10/07 Q1009
                        TEMPO BKN014=
201602052320 METAR COR EGLL 052320Z AUTO 20015KT 9999 OVC016 10/07 Q1009
                        TEMPO -RA BKN014=
201602052250 METAR COR EGLL 052250Z AUTO 20016KT 9999 BKN015 BKN029 10/07
                        Q1009 TEMPO -RA BKN013=
201602052220 METAR COR EGLL 052220Z AUTO 21015KT 9999 -RA BKN011 10/08
                        Q1009 NOSIG=
201602052150 METAR COR EGLL 052150Z AUTO 20014KT 9999 -RA OVC011 10/08
                        Q1010 NOSIG=
201602052120 METAR COR EGLL 052120Z AUTO 20014KT 9999 -RA BKN010 10/08
                        Q1010 NOSIG=
201602052050 METAR COR EGLL 052050Z AUTO 20014G24KT 9999 BKN011 OVC036
                        10/08 Q1011 TEMPO SCT011 BKN030=
201602052020 METAR COR EGLL 052020Z AUTO 20017KT 9999 -RA BKN013 OVC034
                        10/08 Q1011 TEMPO SCT012=
201602051950 METAR COR EGLL 051950Z AUTO 19014KT 9999 -RA SCT014 OVC032
                        10/08 Q1012 TEMPO BKN014=
201602051920 METAR COR EGLL 051920Z AUTO 20015KT 9999 -RA BKN016 OVC031
                        10/07 Q1012 TEMPO BKN014=
201602051850 METAR COR EGLL 051850Z AUTO 20014KT 9999 FEW015 OVC026 10/07
                        Q1012 TEMPO BKN014=
201602051820 METAR COR EGLL 051820Z AUTO 21013KT 9999 -RA BKN014 10/07
                        Q1013 NOSIG=
201602051750 METAR COR EGLL 051750Z AUTO 21014KT 9999 OVC019 10/06 Q1013
                        NOSIG=
201602051720 METAR EGLL 051720Z AUTO 21015KT 9999 OVC021 11/06 Q1014=
201602051650 METAR COR EGLL 051650Z AUTO 21012KT 9999 BKN022 OVC037 11/06
                        Q1014 NOSIG=
201602051620 METAR COR EGLL 051620Z AUTO 21013G23KT 9999 BKN019 OVC036
                        11/07 Q1014 NOSIG=
201602051550 METAR COR EGLL 051550Z AUTO 22015KT 9999 BKN017 OVC034 11/07
                        Q1015 TEMPO BKN014=
201602051520 METAR COR EGLL 051520Z AUTO 22012KT 9999 BKN014 OVC028 11/07
                        Q1015 TEMPO SCT014 BKN030=
201602051450 METAR COR EGLL 051450Z AUTO 22012KT 9999 OVC013 11/08 Q1016
                        TEMPO SCT013 BKN030=
201602051420 METAR COR EGLL 051420Z AUTO 22015KT 9999 OVC010 11/08 Q1016
                        TEMPO SCT012 BKN016=
201602051350 METAR COR EGLL 051350Z AUTO 21014KT 9999 BKN011 OVC023 11/08
                        Q1017 TEMPO SCT012=
201602051320 METAR COR EGLL 051320Z AUTO 22014KT 9999 BKN013 OVC042 11/08
                        Q1017 TEMPO SCT012=
201602051250 METAR EGLL 051250Z AUTO 22012KT 9999 BKN009 BKN040 11/08
                        Q1018=
201602051220 METAR COR EGLL 051220Z AUTO 22014G25KT 9999 OVC010 11/08
                        Q1018 TEMPO 4800 DZ BKN009=
201602051150 METAR COR EGLL 051150Z AUTO 21013KT 180V250 4900 HZ OVC012
                        11/08 Q1019 BECMG 9999 NSW SCT012
                        BKN015=
201602051120 METAR COR EGLL 051120Z AUTO 22012KT 9999 BKN015 BKN038 11/08
                        Q1019 TEMPO BKN012=
201602051050 METAR COR EGLL 051050Z AUTO 22012KT 9999 OVC035 11/08 Q1020
                        NOSIG=
201602051020 METAR COR EGLL 051020Z AUTO 23013KT 9999 FEW010 OVC036 11/08
                        Q1020 TEMPO BKN014=
201602050950 METAR COR EGLL 050950Z AUTO 23011KT 9999 BKN008 10/09 Q1020
                        TEMPO SCT008 BKN015=
201602050920 METAR COR EGLL 050920Z AUTO 23013G23KT 9999 BKN010 10/08
                        Q1021 TEMPO SCT010 BKN015=
201602050850 METAR COR EGLL 050850Z AUTO 23010KT 9999 BKN015 OVC028 10/08
                        Q1021 TEMPO BKN012=
201602050820 METAR COR EGLL 050820Z AUTO 23008KT 9999 OVC015 09/08 Q1021
                        TEMPO BKN012=
201602050750 METAR COR EGLL 050750Z AUTO 25010KT 9999 -RA BKN007 09/08
                        Q1021 BECMG SCT009 BKN012=
201602050720 METAR COR EGLL 050720Z AUTO 25011KT 4600 -DZ BKN005 09/08
                        Q1021 BECMG 9999 NSW BKN012=
201602050650 METAR COR EGLL 050650Z AUTO 24008KT 6000 -RA BKN006 09/08
                        Q1022 TEMPO SCT015=
201602050620 METAR COR EGLL 050620Z AUTO 22008KT 3600 -DZ BKN007 OVC019
                        09/08 Q1022 TEMPO 6000 SCT019=
201602050550 METAR EGLL 050550Z AUTO 22009KT 5000 -RADZ BKN010 OVC022
                        10/08 Q1022=
201602050520 METAR COR EGLL 050520Z AUTO 21009KT 9999 FEW017 BKN025 OVC039
                        10/07 Q1022 NOSIG=
201602050450 METAR COR EGLL 050450Z AUTO 21007KT 9999 BKN025 10/07 Q1023
                        NOSIG=
201602050420 METAR COR EGLL 050420Z AUTO 22007KT 9999 OVC038 10/07 Q1023
                        NOSIG=
201602050350 METAR COR EGLL 050350Z AUTO 23009KT 9999 OVC038 10/07 Q1023
                        NOSIG=
201602050320 METAR COR EGLL 050320Z AUTO 23008KT 9999 OVC037 10/07 Q1024
                        NOSIG=
201602050250 METAR COR EGLL 050250Z AUTO 23007KT 9999 FEW019 OVC036 10/07
                        Q1024 NOSIG=
201602050220 METAR COR EGLL 050220Z AUTO 24009KT 9999 BKN016 BKN037 10/07
                        Q1024 NOSIG=
201602050150 METAR COR EGLL 050150Z AUTO 25009KT 9999 SCT018 11/07 Q1025
                        NOSIG=
201602050120 METAR COR EGLL 050120Z AUTO 25009KT 9999 OVC017 11/07 Q1025
                        TEMPO BKN014=
201602050050 METAR COR EGLL 050050Z AUTO 25009KT 9999 OVC018 11/07 Q1025
                        NOSIG=
201602050020 METAR COR EGLL 050020Z AUTO 25010KT 9999 OVC016 11/08 Q1025
                        NOSIG=
201602042350 METAR COR EGLL 042350Z AUTO 25010KT 9999 BKN015 11/08 Q1025
                        NOSIG=
201602042320 METAR COR EGLL 042320Z AUTO 25010KT 9999 BKN010 11/09 Q1026
                        TEMPO BKN009=
201602042250 METAR EGLL 042250Z AUTO 23008KT 9999 OVC010 11/09 Q1026=
201602042220 METAR COR EGLL 042220Z AUTO 23008KT 9999 BKN011 11/08 Q1026
                        TEMPO BKN008=
201602042150 METAR COR EGLL 042150Z AUTO 24008KT 9999 BKN010 11/08 Q1026
                        TEMPO BKN009=
201602042120 METAR COR EGLL 042120Z AUTO 24009KT 9999 BKN010 11/08 Q1026
                        TEMPO BKN009=
201602042050 METAR COR EGLL 042050Z AUTO 24009KT 9999 SCT012 11/08 Q1026
                        TEMPO BKN012=
201602042020 METAR COR EGLL 042020Z AUTO 25009KT 9999 NCD 11/08 Q1026
                        TEMPO BKN014=
201602041950 METAR COR EGLL 041950Z AUTO 25010KT 9999 NCD 11/08 Q1026
                        TEMPO BKN014=
201602041920 METAR COR EGLL 041920Z AUTO 26007KT 9999 FEW019 11/08 Q1026
                        TEMPO BKN012=
201602041850 METAR COR EGLL 041850Z AUTO 27007KT 9999 FEW016 11/08 Q1026
                        NOSIG=
201602041820 METAR COR EGLL 041820Z AUTO 26007KT 9999 SCT022 11/08 Q1026
                        NOSIG=
201602041750 METAR EGLL 041750Z AUTO 27008KT 9999 NCD 11/07 Q1026=
201602041720 METAR COR EGLL 041720Z AUTO 27007KT 9999 NCD 11/07 Q1026
                        NOSIG=
201602041650 METAR COR EGLL 041650Z AUTO 28007KT 9999 NCD 12/08 Q1025
                        NOSIG=
201602041620 METAR COR EGLL 041620Z AUTO 29008KT 250V320 9999 FEW028 13/08
                        Q1025 NOSIG=
201602041550 METAR COR EGLL 041550Z AUTO 29011KT 9999 BKN027 13/08 Q1025
                        NOSIG=
201602041520 METAR COR EGLL 041520Z AUTO 29014KT 9999 FEW026 BKN038 14/08
                        Q1025 NOSIG=
201602041450 METAR COR EGLL 041450Z AUTO 29012KT 9999 SCT026 SCT041 14/08
                        Q1025 NOSIG=
201602041420 METAR COR EGLL 041420Z AUTO 28012KT 9999 SCT024 BKN037 13/08
                        Q1025 NOSIG=
201602041350 METAR COR EGLL 041350Z AUTO 28013KT 9999 BKN026 OVC042 13/08
                        Q1025 NOSIG=
201602041320 METAR COR EGLL 041320Z AUTO 29013KT 9999 BKN026 OVC042 13/08
                        Q1025 NOSIG=
201602041250 METAR COR EGLL 041250Z AUTO 28013KT 9999 BKN025 OVC041 13/08
                        Q1024 NOSIG=
201602041220 METAR COR EGLL 041220Z AUTO 28011KT 9999 OVC022 13/08 Q1024
                        NOSIG=
201602041150 METAR EGLL 041150Z AUTO 27012KT 9999 BKN022 12/08 Q1024=
201602041120 METAR COR EGLL 041120Z AUTO 27014KT 9999 BKN021 12/08 Q1024
                        NOSIG=
201602041050 METAR COR EGLL 041050Z AUTO 27014KT 9999 BKN020 12/08 Q1024
                        NOSIG=
201602041020 METAR COR EGLL 041020Z AUTO 27015KT 9999 BKN022 OVC037 11/08
                        Q1024 NOSIG=
201602040950 METAR COR EGLL 040950Z AUTO 27014KT 9999 FEW020 BKN035 11/08
                        Q1024 NOSIG=
201602040920 METAR COR EGLL 040920Z AUTO 27014KT 9999 SCT020 BKN033 10/08
                        Q1023 NOSIG=
201602040850 METAR COR EGLL 040850Z AUTO 27012KT 9999 FEW014 10/08 Q1023
                        TEMPO BKN014=
201602040820 METAR COR EGLL 040820Z AUTO 26012KT 9999 NCD 09/07 Q1023
                        TEMPO BKN014=
201602040750 METAR COR EGLL 040750Z AUTO 26014KT 9999 NCD 09/07 Q1023
                        TEMPO BKN010=
201602040720 METAR COR EGLL 040720Z AUTO 26016KT 7000 BKN010 BKN034 09/07
                        Q1023 RERA TEMPO 4000 -RADZ BKN009=
201602040650 METAR COR EGLL 040650Z AUTO 26013KT 7000 BKN011 09/07 Q1022
                        TEMPO BKN009=
201602040620 METAR COR EGLL 040620Z AUTO 26016KT 9999 OVC012 09/06 Q1022
                        TEMPO BKN009=
201602040550 METAR COR EGLL 040550Z AUTO 25017KT 9999 BKN014 08/05 Q1022
                        NOSIG=
201602040520 METAR COR EGLL 040520Z AUTO 25013KT 9999 OVC016 08/05 Q1023
                        TEMPO BKN012=
201602040450 METAR COR EGLL 040450Z AUTO 24013KT 9999 BKN018 OVC031 07/04
                        Q1023 TEMPO BKN014=
201602040420 METAR COR EGLL 040420Z AUTO 24010KT 9999 -RA BKN024 BKN039
                        06/03 Q1024 BECMG BKN014=
201602040350 METAR COR EGLL 040350Z AUTO 24012KT 9999 -RA BKN032 OVC046
                        06/03 Q1024 BECMG BKN014=
201602040320 METAR COR EGLL 040320Z AUTO 23011KT 9999 -RA NCD 06/02 Q1025
                        BECMG BKN014=
201602040250 METAR COR EGLL 040250Z AUTO 23009KT 9999 NCD 05/02 Q1026
                        BECMG BKN014=
201602040220 METAR COR EGLL 040220Z AUTO 24010KT 9999 NCD 05/02 Q1026
                        TEMPO BKN014=
201602040150 METAR COR EGLL 040150Z AUTO 24009KT 9999 NCD 05/02 Q1027
                        TEMPO BKN014=
201602040120 METAR COR EGLL 040120Z AUTO 24009KT 9999 NCD 05/02 Q1027
                        NOSIG=
201602040050 METAR COR EGLL 040050Z AUTO 23009KT 9999 NCD 05/02 Q1027
                        NOSIG=
201602040020 METAR COR EGLL 040020Z AUTO 24006KT 9999 NCD 05/02 Q1028
                        NOSIG=
201602032350 METAR COR EGLL 032350Z AUTO 26009KT 9999 NCD 05/02 Q1028
                        NOSIG=
201602032320 METAR COR EGLL 032320Z AUTO 27008KT 9999 NCD 05/02 Q1028
                        NOSIG=
201602032250 METAR COR EGLL 032250Z AUTO 25008KT 9999 NCD 05/02 Q1028
                        NOSIG=
201602032220 METAR COR EGLL 032220Z AUTO 26006KT 9999 NCD 05/02 Q1028
                        NOSIG=
201602032150 METAR COR EGLL 032150Z AUTO 27008KT 9999 BKN047 05/01 Q1029
                        NOSIG=
201602032120 METAR COR EGLL 032120Z AUTO 27008KT 9999 NCD 05/01 Q1029
                        NOSIG=
201602032050 METAR COR EGLL 032050Z AUTO 27008KT 9999 NCD 05/01 Q1028
                        NOSIG=
201602032020 METAR COR EGLL 032020Z AUTO 28006KT 9999 NCD 05/01 Q1028
                        NOSIG=
201602031950 METAR COR EGLL 031950Z AUTO 28008KT 9999 NCD 05/01 Q1028
                        NOSIG=
201602031920 METAR COR EGLL 031920Z AUTO 28007KT 9999 NCD 06/01 Q1027
                        NOSIG=
201602031850 METAR COR EGLL 031850Z AUTO 28006KT 9999 NCD 05/01 Q1027
                        NOSIG=
201602031820 METAR COR EGLL 031820Z AUTO 27007KT 9999 FEW037 06/00 Q1027
                        NOSIG=
201602031750 METAR COR EGLL 031750Z AUTO 30005KT 9999 FEW040 07/01 Q1026
                        NOSIG=
201602031720 METAR COR EGLL 031720Z AUTO 30006KT 9999 NCD 07/00 Q1026
                        NOSIG=
201602031650 METAR COR EGLL 031650Z AUTO 31009KT 9999 FEW045 08/00 Q1025
                        NOSIG=
201602031620 METAR COR EGLL 031620Z AUTO 31014KT 9999 BKN041 08/M00 Q1025
                        NOSIG=
201602031550 METAR COR EGLL 031550Z AUTO 31010KT 9999 SCT044 09/M00 Q1024
                        NOSIG=
201602031520 METAR COR EGLL 031520Z AUTO 30012KT 9999 BKN039 10/00 Q1023
                        NOSIG=
201602031450 METAR COR EGLL 031450Z AUTO 30015KT 9999 BKN037 09/01 Q1023
                        NOSIG=
201602031420 METAR COR EGLL 031420Z AUTO 29011KT 9999 BKN030 BKN046 09/02
                        Q1023 NOSIG=
201602031350 METAR COR EGLL 031350Z AUTO 28013KT 9999 BKN034 08/03 Q1023
                        NOSIG=
201602031320 METAR COR EGLL 031320Z AUTO 29015KT 4900 -DZ FEW013 SCT026
                        BKN041 08/03 Q1022 BECMG 9999 NSW=
201602031250 METAR COR EGLL 031250Z AUTO 30010KT 9999 -RA BKN026 08/02
                        Q1022 NOSIG=
201602031220 METAR COR EGLL 031220Z AUTO 28012KT 9999 BKN025 OVC041 08/02
                        Q1021 NOSIG=
201602031150 METAR COR EGLL 031150Z AUTO 29014KT 9999 OVC026 07/02 Q1021
                        NOSIG=
201602031120 METAR COR EGLL 031120Z AUTO 29014KT 9999 OVC024 07/01 Q1021
                        NOSIG=
201602031050 METAR COR EGLL 031050Z AUTO 28015KT 9999 BKN026 07/01 Q1020
                        NOSIG=
201602031020 METAR COR EGLL 031020Z AUTO 28015KT 9999 -RA BKN026 06/01
                        Q1020 NOSIG=
201602030950 METAR COR EGLL 030950Z AUTO 27016KT 9999 BKN030 BKN040 06/00
                        Q1019 NOSIG=
201602030920 METAR COR EGLL 030920Z AUTO 27018KT 9999 FEW035 BKN041 05/M00
                        Q1019 NOSIG=
201602030850 METAR COR EGLL 030850Z AUTO 27015KT 9999 FEW041 05/M01 Q1019
                        NOSIG=
201602030820 METAR COR EGLL 030820Z AUTO 26014KT 9999 SCT036 04/M01 Q1018
                        NOSIG=
201602030750 METAR COR EGLL 030750Z AUTO 26011KT 9999 NCD 04/M01 Q1018
                        NOSIG=
201602030720 METAR COR EGLL 030720Z AUTO 26012KT 9999 NCD 03/M01 Q1018
                        NOSIG=
201602030650 METAR COR EGLL 030650Z AUTO 26014KT 9999 NCD 04/M01 Q1018
                        NOSIG=
201602030620 METAR COR EGLL 030620Z AUTO 26011KT 9999 NCD 03/M01 Q1018
                        NOSIG=
201602030550 METAR COR EGLL 030550Z AUTO 25013KT 9999 NCD 03/M01 Q1018
                        NOSIG=
201602030520 METAR COR EGLL 030520Z AUTO 25011KT 9999 NCD 03/M00 Q1018
                        NOSIG=
201602030450 METAR COR EGLL 030450Z AUTO 26011KT 9999 NCD 03/00 Q1018
                        NOSIG=
201602030420 METAR COR EGLL 030420Z AUTO 26008KT 9999 NCD 03/01 Q1018
                        NOSIG=
201602030350 METAR COR EGLL 030350Z AUTO 26006KT 9999 NCD 03/01 Q1018
                        NOSIG=
201602030320 METAR COR EGLL 030320Z AUTO 27007KT 9999 NCD 03/01 Q1018
                        NOSIG=
201602030250 METAR COR EGLL 030250Z AUTO 27009KT 9999 NCD 03/01 Q1018
                        NOSIG=
201602030220 METAR COR EGLL 030220Z AUTO 27008KT 9999 NCD 04/01 Q1018
                        NOSIG=
201602030150 METAR COR EGLL 030150Z AUTO 26008KT 9999 NCD 04/02 Q1018
                        NOSIG=
201602030120 METAR COR EGLL 030120Z AUTO 27007KT 9999 NCD 04/02 Q1018
                        NOSIG=
201602030050 METAR COR EGLL 030050Z AUTO 27009KT 9999 NCD 04/02 Q1018
                        NOSIG=
201602030020 METAR COR EGLL 030020Z AUTO 27008KT 9999 NCD 05/02 Q1017
                        NOSIG=
201602022350 METAR COR EGLL 022350Z AUTO 26010KT 9999 NCD 05/02 Q1017
                        NOSIG=
201602022320 METAR COR EGLL 022320Z AUTO 25013KT 9999 FEW032 05/02 Q1017
                        NOSIG=
201602022250 METAR COR EGLL 022250Z AUTO 25011KT 9999 NCD 05/02 Q1017
                        NOSIG=
201602022220 METAR COR EGLL 022220Z AUTO 25011KT 9999 NCD 05/02 Q1017
                        NOSIG=
201602022150 METAR COR EGLL 022150Z AUTO 25010KT 9999 NCD 05/01 Q1017
                        NOSIG=
201602022120 METAR COR EGLL 022120Z AUTO 24010KT 9999 NCD 06/01 Q1017
                        NOSIG=
201602022050 METAR COR EGLL 022050Z AUTO 24011KT 9999 SCT041 06/01 Q1017
                        NOSIG=
201602022020 METAR COR EGLL 022020Z AUTO 25012KT 9999 SCT038 06/01 Q1017
                        NOSIG=
201602021950 METAR COR EGLL 021950Z AUTO 25014KT 9999 NCD 06/01 Q1016
                        NOSIG=
201602021920 METAR COR EGLL 021920Z AUTO 25013KT 9999 NCD 07/01 Q1016
                        NOSIG=
201602021850 METAR COR EGLL 021850Z AUTO 25016KT 9999 NCD 07/01 Q1016
                        NOSIG=
201602021820 METAR COR EGLL 021820Z AUTO 25014KT 9999 NCD 07/00 Q1016
                        NOSIG=
201602021750 METAR COR EGLL 021750Z AUTO 26015KT 9999 NCD 07/M00 Q1016
                        NOSIG=
201602021720 METAR COR EGLL 021720Z AUTO 26013KT 9999 NCD 07/00 Q1015
                        NOSIG=
201602021650 METAR COR EGLL 021650Z AUTO 26014KT 9999 SCT038 08/01 Q1015
                        NOSIG=
201602021620 METAR COR EGLL 021620Z AUTO 26017KT 9999 BKN040 08/00 Q1015
                        NOSIG=
201602021550 METAR COR EGLL 021550Z AUTO 26020KT 9999 FEW041 09/00 Q1014
                        NOSIG=
201602021520 METAR COR EGLL 021520Z AUTO 27018KT 9999 BKN048 09/M01 Q1014
                        NOSIG=
201602021450 METAR COR EGLL 021450Z AUTO 27021KT 9999 FEW046 09/M01 Q1014
                        NOSIG=
201602021420 METAR COR EGLL 021420Z AUTO 27023KT 9999 BKN045 10/M00 Q1014
                        NOSIG=
201602021350 METAR COR EGLL 021350Z AUTO 26022KT 9999 FEW047 10/00 Q1014
                        NOSIG=
201602021320 METAR COR EGLL 021320Z AUTO 26020KT 9999 FEW038 09/01 Q1014
                        NOSIG=
201602021250 METAR COR EGLL 021250Z AUTO 27022KT 9999 SCT036 09/01 Q1014
                        NOSIG=
201602021220 METAR COR EGLL 021220Z AUTO 27022KT 9999 FEW039 10/01 Q1014
                        NOSIG=
201602021150 METAR COR EGLL 021150Z AUTO 27020KT 9999 FEW044 10/01 Q1014
                        NOSIG=
201602021120 METAR COR EGLL 021120Z AUTO 27019KT 9999 NCD 09/02 Q1014
                        NOSIG=
201602021050 METAR COR EGLL 021050Z AUTO 26015KT 9999 NCD 09/03 Q1014
                        NOSIG=
201602021020 METAR COR EGLL 021020Z AUTO 27014KT 9999 -RA SCT014 08/05
                        Q1015 NOSIG=
201602020950 METAR COR EGLL 020950Z AUTO 27014KT 9999 FEW007 BKN019 BKN036
                        08/05 Q1015 NOSIG=
201602020920 METAR COR EGLL 020920Z AUTO 28013KT 8000 -RA BKN018 BKN030
                        09/04 Q1014 NOSIG=
201602020850 METAR COR EGLL 020850Z AUTO 26016KT 9999 NCD 09/04 Q1014
                        NOSIG=
201602020820 METAR COR EGLL 020820Z AUTO 26014KT 9999 SCT024 09/04 Q1014
                        NOSIG=
201602020750 METAR COR EGLL 020750Z AUTO 25016KT 9999 FEW031 09/04 Q1014
                        NOSIG=
201602020720 METAR COR EGLL 020720Z AUTO 25016KT 9999 FEW030 09/04 Q1014
                        NOSIG=
201602020650 METAR COR EGLL 020650Z AUTO 24016KT 9999 FEW029 09/04 Q1014
                        NOSIG=
201602020620 METAR COR EGLL 020620Z AUTO 24013KT 9999 FEW034 09/04 Q1014
                        NOSIG=
201602020550 METAR COR EGLL 020550Z AUTO 24013KT 9999 SCT030 09/04 Q1014
                        NOSIG=
201602020520 METAR COR EGLL 020520Z AUTO 24011KT 9999 BKN027 09/04 Q1015
                        NOSIG=
201602020450 METAR COR EGLL 020450Z AUTO 23011KT 9999 FEW031 08/04 Q1015
                        NOSIG=
201602020420 METAR COR EGLL 020420Z AUTO 24009KT 9999 FEW026 09/04 Q1015
                        NOSIG=
201602020350 METAR COR EGLL 020350Z AUTO 24011KT 9999 FEW032 09/04 Q1015
                        NOSIG=
201602020320 METAR COR EGLL 020320Z AUTO 24012KT 9999 FEW026 09/04 Q1015
                        NOSIG=
201602020250 METAR COR EGLL 020250Z AUTO 25013KT 9999 FEW031 09/03 Q1015
                        NOSIG=
201602020220 METAR COR EGLL 020220Z AUTO 24016KT 9999 BKN034 10/03 Q1016
                        NOSIG=
201602020150 METAR COR EGLL 020150Z AUTO 25015KT 9999 SCT035 09/03 Q1016
                        NOSIG=
201602020120 METAR COR EGLL 020120Z AUTO 25014KT 9999 FEW036 09/04 Q1016
                        NOSIG=
201602020050 METAR COR EGLL 020050Z AUTO 25015KT 9999 SCT035 10/04 Q1016
                        NOSIG=
201602020020 METAR COR EGLL 020020Z AUTO 24016KT 9999 SCT035 09/04 Q1016
                        NOSIG=
201602012350 METAR COR EGLL 012350Z AUTO 25017KT 9999 SCT036 10/03 Q1016
                        NOSIG=
201602012320 METAR COR EGLL 012320Z AUTO 25016KT 9999 FEW043 10/03 Q1015
                        NOSIG=
201602012250 METAR COR EGLL 012250Z AUTO 25016KT 9999 SCT036 10/03 Q1016
                        NOSIG=
201602012220 METAR COR EGLL 012220Z AUTO 25018KT 9999 BKN034 11/04 Q1016
                        NOSIG=
201602012150 METAR COR EGLL 012150Z AUTO 25016KT 9999 FEW038 10/03 Q1016
                        NOSIG=
201602012120 METAR COR EGLL 012120Z AUTO 26019KT 9999 BKN036 11/04 Q1016
                        NOSIG=
201602012050 METAR COR EGLL 012050Z AUTO 24020KT 9999 BKN035 11/04 Q1015
                        NOSIG=
201602012020 METAR COR EGLL 012020Z AUTO 25018KT 9999 BKN036 12/04 Q1015
                        NOSIG=
201602011950 METAR COR EGLL 011950Z AUTO 26020KT 9999 FEW043 12/04 Q1015
                        NOSIG=
201602011920 METAR COR EGLL 011920Z AUTO 26024G34KT 9999 SCT039 12/05
                        Q1015 NOSIG=
201602011850 METAR COR EGLL 011850Z AUTO 25018KT 9999 BKN031 13/07 Q1014
                        NOSIG=
201602011820 METAR COR EGLL 011820Z AUTO 25020KT 9999 SCT026 BKN042 13/08
                        Q1014 NOSIG=
201602011750 METAR COR EGLL 011750Z AUTO 24020KT 9999 SCT027 OVC043 13/08
                        Q1014 NOSIG=
201602011720 METAR COR EGLL 011720Z AUTO 24017KT 9999 BKN026 OVC042 13/08
                        Q1014 NOSIG=
201602011650 METAR COR EGLL 011650Z AUTO 24018KT 9999 BKN029 OVC045 14/08
                        Q1014 NOSIG=
201602011620 METAR COR EGLL 011620Z AUTO 25021KT 9999 BKN033 OVC049 14/07
                        Q1014 NOSIG=
201602011550 METAR COR EGLL 011550Z AUTO 25017KT 9999 BKN029 OVC046 14/08
                        Q1014 NOSIG=
201602011520 METAR COR EGLL 011520Z AUTO 25019KT 9999 BKN028 OVC042 15/08
                        Q1014 NOSIG=
201602011450 METAR COR EGLL 011450Z AUTO 24020G33KT 9999 BKN023 BKN039
                        14/09 Q1014 NOSIG=
201602011420 METAR COR EGLL 011420Z AUTO 24021KT 9999 BKN024 OVC040 14/09
                        Q1014 NOSIG=
201602011350 METAR COR EGLL 011350Z AUTO 24020KT 9999 BKN024 OVC038 14/09
                        Q1014 NOSIG=
201602011320 METAR COR EGLL 011320Z AUTO 24022KT 9999 SCT015 OVC036 13/09
                        Q1014 TEMPO BKN014=
201602011250 METAR COR EGLL 011250Z AUTO 24020G34KT 9999 BKN019 13/09
                        Q1015 NOSIG=
201602011220 METAR COR EGLL 011220Z AUTO 24018KT 9999 BKN019 13/09 Q1015
                        NOSIG=
201602011150 METAR COR EGLL 011150Z AUTO 24019KT 9999 OVC020 13/08 Q1015
                        NOSIG=
201602011120 METAR COR EGLL 011120Z AUTO 23018G29KT 9999 OVC019 13/08
                        Q1015 NOSIG=
201602011050 METAR COR EGLL 011050Z AUTO 24019KT 9999 OVC021 12/08 Q1015
                        NOSIG=
201602011020 METAR COR EGLL 011020Z AUTO 23018KT 9999 BKN019 OVC037 12/08
                        Q1015 NOSIG=
201602010950 METAR COR EGLL 010950Z AUTO 24019KT 9999 BKN018 12/08 Q1015
                        NOSIG=
201602010920 METAR COR EGLL 010920Z AUTO 24023G35KT 9999 OVC021 12/07
                        Q1016 NOSIG=
201602010850 METAR COR EGLL 010850Z AUTO 24019KT 9999 OVC020 12/07 Q1016
                        NOSIG=
201602010820 METAR COR EGLL 010820Z AUTO 24017G27KT 9999 OVC021 12/07
                        Q1015 NOSIG=
201602010750 METAR COR EGLL 010750Z AUTO 24018KT 9999 BKN026 12/07 Q1015
                        NOSIG=
201602010720 METAR COR EGLL 010720Z AUTO 24021G31KT 9999 OVC026 12/07
                        Q1015 NOSIG=
201602010650 METAR COR EGLL 010650Z AUTO 25018KT 9999 OVC025 12/07 Q1015
                        NOSIG=
201602010620 METAR COR EGLL 010620Z AUTO 25018KT 9999 OVC028 12/06 Q1015
                        NOSIG=
201602010550 METAR COR EGLL 010550Z AUTO 25017KT 9999 BKN030 12/06 Q1015
                        NOSIG=
201602010520 METAR COR EGLL 010520Z AUTO 25018KT 9999 OVC028 12/06 Q1015
                        NOSIG=
201602010450 METAR COR EGLL 010450Z AUTO 25015KT 9999 BKN024 12/07 Q1015
                        TEMPO BKN014=
201602010420 METAR COR EGLL 010420Z AUTO 24015KT 9999 BKN015 12/09 Q1015
                        TEMPO BKN014=
201602010350 METAR COR EGLL 010350Z AUTO 25016KT 9999 BKN011 OVC026 12/09
                        Q1015 TEMPO OVC015=
201602010320 METAR COR EGLL 010320Z AUTO 25013KT 9999 BKN012 12/09 Q1015
                        TEMPO OVC015=
201602010250 METAR COR EGLL 010250Z AUTO 25014KT 9999 OVC015 12/09 Q1015
                        TEMPO OVC014=
201602010220 METAR COR EGLL 010220Z AUTO 25019KT 9999 OVC014 12/09 Q1015
                        TEMPO OVC015=
201602010150 METAR COR EGLL 010150Z AUTO 25017KT 9999 OVC016 12/09 Q1015
                        TEMPO OVC014=
201602010120 METAR COR EGLL 010120Z AUTO 26017KT 9999 OVC014 12/09 Q1014
                        TEMPO OVC015=
201602010050 METAR COR EGLL 010050Z AUTO 26017KT 9999 OVC015 12/09 Q1014
                        TEMPO OVC014=
201602010020 METAR COR EGLL 010020Z AUTO 26015KT 9999 OVC015/// 13/10
                        Q1014 TEMPO OVC014=

</pre>

</body>
</html>
