##########################################################
# Query made at 12/31/2014 10:36:37 UTC
# Time interval: from 02/01/2014 00:00  to 03/03/2014 23:59  UTC
##########################################################

##########################################################
# EGLL, London / Heathrow Airport (United Kingdom)
# WMO index: 03772
# Latitude 51-29N. Longitude 000-27W. Altitude 24 m.
##########################################################

###################################
#  METAR/SPECI from EGLL
###################################
201403032350 METAR COR EGLL 032350Z 30005KT 9999 FEW045 04/03 Q0996 NOSIG=
201403032320 METAR COR EGLL 032320Z VRB03KT 9999 FEW035 04/03 Q0996 NOSIG=
201403032250 METAR COR EGLL 032250Z VRB02KT 9999 FEW031 05/03 Q0995 NOSIG=
201403032220 METAR COR EGLL 032220Z VRB02KT 9999 SCT031 05/03 Q0995 NOSIG=
201403032150 METAR COR EGLL 032150Z VRB03KT 9999 SCT033 05/03 Q0994 NOSIG=
201403032120 METAR COR EGLL 032120Z VRB03KT 9999 FEW014 BKN031 06/04 Q0994
                        NOSIG=
201403032050 METAR COR EGLL 032050Z VRB03KT 9999 BKN031 06/04 Q0993 NOSIG=
201403032020 METAR COR EGLL 032020Z VRB03KT 9999 SCT029 06/04 Q0992 NOSIG=
201403031950 METAR COR EGLL 031950Z VRB03KT 9999 FEW015 07/04 Q0992 NOSIG=
201403031920 METAR COR EGLL 031920Z 35004KT 300V020 9999 BKN017 07/04
                        Q0991 NOSIG=
201403031850 METAR COR EGLL 031850Z VRB02KT 9999 FEW018 06/03 Q0990 NOSIG=
201403031820 METAR COR EGLL 031820Z VRB03KT 9999 FEW016 SCT026 07/04 Q0990
                        NOSIG=
201403031750 METAR COR EGLL 031750Z VRB03KT 9999 SCT016 SCT026 07/04 Q0989
                        NOSIG=
201403031720 METAR COR EGLL 031720Z VRB03KT 9999 SCT033CB 07/04 Q0988
                        NOSIG=
201403031650 METAR COR EGLL 031650Z 07004KT 9999 FEW028 SCT033 07/04 Q0988
                        NOSIG=
201403031620 METAR COR EGLL 031620Z 06005KT 9999 BKN020 08/04 Q0987 TEMPO
                        SHRA=
201403031550 METAR COR EGLL 031550Z 05004KT 020V080 9999 FEW021 SCT028
                        08/03 Q0986 NOSIG=
201403031520 METAR COR EGLL 031520Z VRB02KT 9999 SCT030TCU 08/04 Q0986
                        NOSIG=
201403031450 METAR COR EGLL 031450Z VRB03KT 9999 FEW022 SCT031 SCT041TCU
                        08/05 Q0985 NOSIG=
201403031420 METAR COR EGLL 031420Z 00000KT 9999 SCT030 SCT037 07/03 Q0985
                        NOSIG=
201403031350 METAR COR EGLL 031350Z VRB02KT 9999 SCT033 07/03 Q0985 TEMPO
                        SHRA=
201403031320 METAR COR EGLL 031320Z 20006KT 9999 -RA BKN022 06/04 Q0985
                        TEMPO SHRA BKN020CB=
201403031250 METAR COR EGLL 031250Z 20009KT 9999 -SHRA BKN020CB 07/03
                        Q0984 TEMPO SHRA=
201403031220 METAR COR EGLL 031220Z 15005KT 9999 FEW027 SCT033 09/04 Q0984
                        TEMPO SHRA=
201403031150 METAR COR EGLL 031150Z 19006KT 9999 FEW020 SCT030 BKN037
                        07/04 Q0984 TEMPO SHRA=
201403031120 METAR COR EGLL 031120Z 18007KT 9999 -SHRA FEW014TCU SCT028
                        07/04 Q0984 TEMPO SHRA=
201403031050 METAR COR EGLL 031050Z 16010KT 9999 SCT014 SCT022 07/05 Q0983
                        TEMPO SHRA=
201403031020 METAR COR EGLL 031020Z 16010KT 9999 -SHRA SCT018CB 08/05
                        Q0983 TEMPO 4000 SHRA=
201403030950 METAR COR EGLL 030950Z 15007KT 9999 FEW030 07/04 Q0983 TEMPO
                        4000 SHRA BKN020CB=
201403030920 METAR COR EGLL 030920Z 16009KT 9999 FEW045 06/03 Q0983 TEMPO
                        SHRA=
201403030850 METAR COR EGLL 030850Z 13007KT 9999 FEW042 06/03 Q0983 TEMPO
                        SHRA=
201403030820 METAR COR EGLL 030820Z 15006KT 110V200 9999 FEW041 04/03
                        Q0983 TEMPO SHRA=
201403030750 METAR COR EGLL 030750Z 16005KT 140V210 9999 FEW030 04/03
                        Q0983 TEMPO SHRA=
201403030720 METAR COR EGLL 030720Z 16005KT 140V210 9999 FEW042 03/02
                        Q0983 NOSIG=
201403030650 METAR COR EGLL 030650Z 18006KT 120V220 CAVOK 03/02 Q0983
                        NOSIG=
201403030620 METAR COR EGLL 030620Z VRB05KT CAVOK 03/02 Q0983 NOSIG=
201403030550 METAR COR EGLL 030550Z 20006KT CAVOK 03/02 Q0983 NOSIG=
201403030520 METAR COR EGLL 030520Z 22007KT CAVOK 04/03 Q0983 NOSIG=
201403030450 METAR COR EGLL 030450Z 24006KT CAVOK 05/03 Q0982 NOSIG=
201403030420 METAR COR EGLL 030420Z 24008KT CAVOK 05/04 Q0982 NOSIG=
201403030350 METAR COR EGLL 030350Z 24006KT CAVOK 05/04 Q0982 NOSIG=
201403030320 METAR COR EGLL 030320Z 23007KT CAVOK 06/04 Q0982 NOSIG=
201403030250 METAR COR EGLL 030250Z 24006KT CAVOK 06/05 Q0982 NOSIG=
201403030220 METAR EGLL 030220Z AUTO 22007KT 9999 BKN023 06/05 Q0982=
201403030150 METAR EGLL 030150Z AUTO 23006KT 9999 BKN029 BKN042 06/05
                        Q0982 REDZ=
201403030120 METAR EGLL 030120Z AUTO 22005KT 9999 DZ SCT008 BKN023 06/05
                        Q0982=
201403030050 METAR COR EGLL 030050Z 20005KT 9999 FEW012 SCT025 06/05 Q0982
                        NOSIG=
201403030020 METAR COR EGLL 030020Z 21006KT 9999 FEW010 SCT028 06/05 Q0982
                        NOSIG=
201403022350 METAR COR EGLL 022350Z 21005KT 9999 FEW013 SCT018 06/05 Q0982
                        NOSIG=
201403022320 METAR COR EGLL 022320Z 22007KT 190V260 9999 -RA SCT021 BKN028
                        06/05 Q0982 NOSIG=
201403022250 METAR COR EGLL 022250Z 22006KT 190V250 9999 -RA FEW007 SCT018
                        06/05 Q0982 NOSIG=
201403022220 METAR COR EGLL 022220Z 20008KT 160V250 9999 -RA FEW008 SCT018
                        BKN023 07/05 Q0982 RERA TEMPO RA
                        BKN010=
201403022150 METAR COR EGLL 022150Z 21009KT 9999 RA FEW013 SCT016 BKN028
                        07/06 Q0983 TEMPO BKN013=
201403022120 METAR COR EGLL 022120Z 19016G26KT 160V230 9999 -RA FEW012
                        SCT018 BKN028 08/06 Q0983 RERA TEMPO
                        RA BKN012=
201403022050 METAR COR EGLL 022050Z 17016KT 150V210 9999 RA FEW012 SCT015
                        BKN018 08/06 Q0983 TEMPO BKN012=
201403022020 METAR COR EGLL 022020Z 17015KT 150V210 9000 RA FEW012 BKN014
                        08/06 Q0983 NOSIG=
201403021950 METAR COR EGLL 021950Z 17017KT 140V220 9999 -RA SCT012 BKN016
                        08/06 Q0984 RERA TEMPO RA BKN012=
201403021920 METAR COR EGLL 021920Z 17017KT 150V220 9999 -RA SCT015 SCT021
                        08/06 Q0984 TEMPO RA BKN014=
201403021850 METAR COR EGLL 021850Z 17017KT 140V220 9999 -RA SCT011 BKN015
                        08/06 Q0985 RERA TEMPO BKN012=
201403021820 METAR COR EGLL 021820Z 17016KT 150V220 8000 RA FEW012 BKN014
                        08/06 Q0986 TEMPO BKN009=
201403021750 METAR COR EGLL 021750Z 17016KT 140V220 8000 -RA FEW011 BKN013
                        08/06 Q0987 TEMPO RA BKN009=
201403021720 METAR COR EGLL 021720Z 17018KT 160V230 9999 -RA BKN013 08/06
                        Q0988 TEMPO RA BKN009=
201403021650 METAR COR EGLL 021650Z 18017KT 160V230 9999 BKN015 09/06
                        Q0988 TEMPO RA BKN014=
201403021620 METAR COR EGLL 021620Z 19017KT 160V220 9999 -RA BKN012 09/06
                        Q0989 TEMPO RA BKN009=
201403021550 METAR COR EGLL 021550Z 18018KT 160V220 9999 SCT009 BKN011
                        08/06 Q0990 TEMPO RA BKN009=
201403021520 METAR COR EGLL 021520Z 18016KT 160V220 9999 FEW011 BKN014
                        08/06 Q0991 TEMPO RA=
201403021450 METAR COR EGLL 021450Z 19018G29KT 9000 -RA SCT015 BKN017
                        09/06 Q0992 TEMPO RA BKN014=
201403021420 METAR COR EGLL 021420Z 18017KT 9999 BKN016 09/05 Q0992 TEMPO
                        RA BKN014=
201403021350 METAR COR EGLL 021350Z 19016KT 9999 BKN016 09/05 Q0993 TEMPO
                        RA BKN014=
201403021320 METAR COR EGLL 021320Z 19017KT 9999 BKN019 09/05 Q0994 TEMPO
                        BKN014=
201403021250 METAR COR EGLL 021250Z 19014KT 9999 BKN020 09/05 Q0995 TEMPO
                        RA BKN014=
201403021220 METAR COR EGLL 021220Z 20017G27KT 9999 BKN020 09/05 Q0996
                        TEMPO BKN014=
201403021150 METAR COR EGLL 021150Z 21014KT 9999 SCT020 SCT025 10/05 Q0997
                        TEMPO RA BKN014=
201403021120 METAR COR EGLL 021120Z 20014KT 9999 SCT022 SCT031 10/05 Q0997
                        NOSIG=
201403021050 METAR COR EGLL 021050Z 19016KT 9999 FEW022 SCT031 10/05 Q0997
                        NOSIG=
201403021020 METAR COR EGLL 021020Z 20013KT 170V240 9999 FEW019 SCT025
                        10/06 Q0997 NOSIG=
201403020950 METAR COR EGLL 020950Z 20014KT 9999 SCT019 10/06 Q0998 NOSIG=
201403020920 METAR COR EGLL 020920Z 19012KT 9999 FEW012 09/06 Q0998 NOSIG=
201403020850 METAR COR EGLL 020850Z 19011KT 9999 FEW011 08/06 Q0999 NOSIG=
201403020820 METAR COR EGLL 020820Z 19012KT 9999 FEW032 08/06 Q0999 NOSIG=
201403020750 METAR COR EGLL 020750Z 19011KT 9999 FEW022 07/05 Q0999 NOSIG=
201403020720 METAR COR EGLL 020720Z 20011KT 180V260 9999 FEW027 06/05
                        Q0999 NOSIG=
201403020650 METAR COR EGLL 020650Z 20011G22KT 9999 FEW023 06/05 Q0999
                        NOSIG=
201403020620 METAR COR EGLL 020620Z 20011KT 9999 FEW024 06/05 Q1000 NOSIG=
201403020550 METAR COR EGLL 020550Z 20009KT 9999 -RA SCT024 SCT041 06/04
                        Q1000 NOSIG=
201403020520 METAR COR EGLL 020520Z 20008KT 9999 -RA FEW027 BKN039 06/04
                        Q1000 NOSIG=
201403020450 METAR COR EGLL 020450Z 19007KT 9999 FEW021 BKN046 05/03 Q1000
                        NOSIG=
201403020420 METAR COR EGLL 020420Z VRB03KT 9999 FEW022 BKN044 05/03 Q1000
                        NOSIG=
201403020350 METAR COR EGLL 020350Z 21005KT CAVOK 04/03 Q1000 NOSIG=
201403020320 METAR COR EGLL 020320Z 20006KT CAVOK 04/02 Q1000 NOSIG=
201403020250 METAR COR EGLL 020250Z 18005KT CAVOK 03/02 Q1001 NOSIG=
201403020220 METAR EGLL 020220Z AUTO 19006KT 9999 NCD 03/01 Q1001=
201403020150 METAR EGLL 020150Z AUTO 18005KT 9999 NCD 02/01 Q1001=
201403020120 METAR EGLL 020120Z AUTO 18003KT 9999 NCD 03/01 Q1001=
201403020050 METAR COR EGLL 020050Z 17004KT CAVOK 03/01 Q1001 NOSIG=
201403020020 METAR COR EGLL 020020Z 21005KT CAVOK 03/01 Q1001 NOSIG=
201403012350 METAR COR EGLL 012350Z 21004KT CAVOK 03/01 Q1001 NOSIG=
201403012320 METAR COR EGLL 012320Z 21005KT CAVOK 03/01 Q1001 NOSIG=
201403012250 METAR COR EGLL 012250Z 22007KT 180V250 CAVOK 04/01 Q1002
                        NOSIG=
201403012220 METAR COR EGLL 012220Z 23008KT 190V260 CAVOK 04/01 Q1002
                        NOSIG=
201403012150 METAR COR EGLL 012150Z 23006KT CAVOK 04/00 Q1002 NOSIG=
201403012120 METAR COR EGLL 012120Z 23007KT 190V280 CAVOK 04/00 Q1002
                        NOSIG=
201403012050 METAR COR EGLL 012050Z 28005KT CAVOK 05/00 Q1002 NOSIG=
201403012020 METAR COR EGLL 012020Z 27007KT 9999 FEW048 06/00 Q1002 NOSIG=
201403011950 METAR COR EGLL 011950Z 24007KT 9999 FEW048 06/00 Q1002 NOSIG=
201403011920 METAR COR EGLL 011920Z 22005KT 9999 FEW048 06/M00 Q1002 NOSIG=
201403011850 METAR COR EGLL 011850Z 24006KT 9999 FEW048 06/M00 Q1002 NOSIG=
201403011820 METAR COR EGLL 011820Z 22006KT 140V260 9999 FEW048 07/M00
                        Q1001 NOSIG=
201403011750 METAR COR EGLL 011750Z 26006KT 9999 FEW048 07/M01 Q1001 NOSIG=
201403011720 METAR COR EGLL 011720Z 28006KT 9999 FEW048 08/M01 Q1001 NOSIG=
201403011650 METAR COR EGLL 011650Z 29005KT 250V330 9999 FEW047 09/M01
                        Q1001 NOSIG=
201403011620 METAR COR EGLL 011620Z VRB03KT 9999 FEW047 09/M00 Q1001 NOSIG=
201403011550 METAR COR EGLL 011550Z VRB03KT 9999 FEW040 09/M01 Q1001 NOSIG=
201403011520 METAR COR EGLL 011520Z 30004KT 260V350 9999 SCT042 09/M02
                        Q1001 NOSIG=
201403011450 METAR COR EGLL 011450Z 35005KT 280V040 9999 SCT045 09/00
                        Q1001 NOSIG=
201403011420 METAR COR EGLL 011420Z 30004KT 200V010 9999 SCT043 09/M00
                        Q1001 NOSIG=
201403011350 METAR COR EGLL 011350Z 26004KT 220V290 9999 SCT026 SCT039
                        08/00 Q1002 NOSIG=
201403011320 METAR COR EGLL 011320Z VRB03KT 9999 SCT024 08/02 Q1002 NOSIG=
201403011250 METAR COR EGLL 011250Z VRB03KT 9999 SCT022 SCT033 08/03 Q1002
                        NOSIG=
201403011220 METAR COR EGLL 011220Z VRB03KT 9999 SCT014 SCT020 08/04 Q1002
                        NOSIG=
201403011150 METAR COR EGLL 011150Z VRB03KT 9000 SCT013 07/04 Q1002 NOSIG=
201403011120 METAR COR EGLL 011120Z VRB03KT 7000 FEW007 SCT013 07/03 Q1002
                        NOSIG=
201403011050 METAR COR EGLL 011050Z VRB02KT 5000 HZ FEW007 05/03 Q1003
                        NOSIG=
201403011020 METAR COR EGLL 011020Z 29005KT 260V340 4100 HZ FEW003 SCT004
                        04/03 Q1003 BECMG 6000 NSW=
201403010950 METAR EGLL 010950Z VRB02KT 3600 1500NW HZ FEW003 SCT004 04/03
                        Q1003=
201403010920 METAR COR EGLL 010920Z VRB02KT 3200 1300N R27R/P1500 R27L/P1500
                        BR FEW003 03/02 Q1003 BECMG 6000
                        NSW=
201403010850 METAR COR EGLL 010850Z VRB02KT 0500 R27R/0800 R27L/P1500
                        FG SCT001 SCT002 02/01 Q1003 BECMG
                        4000 BR BKN005=
201403010820 METAR COR EGLL 010820Z VRB03KT 0700 R27R/0750 R27L/1200 FG
                        SCT001 SCT002 01/01 Q1003 TEMPO BKN003=
201403010750 METAR COR EGLL 010750Z 29006KT 4800 2000N BR VCFG FEW001
                        SCT004 02/01 Q1003 TEMPO 1200 BR
                        BKN004=
201403010720 METAR COR EGLL 010720Z 29004KT 4800 BR FEW029 02/01 Q1003
                        TEMPO BKN006=
201403010650 METAR COR EGLL 010650Z 28005KT 4800 BR FEW029 02/01 Q1003
                        BECMG 7000=
201403010620 METAR COR EGLL 010620Z 29005KT 6000 FEW030 02/01 Q1003 TEMPO
                        4500 BR=
201403010550 METAR COR EGLL 010550Z 30003KT 7000 FEW028 02/01 Q1003 TEMPO
                        3500 BR BKN004=
201403010520 METAR COR EGLL 010520Z 30003KT 7000 FEW028 02/01 Q1003 TEMPO
                        4000 BR BKN004=
201403010450 METAR COR EGLL 010450Z 28006KT 7000 FEW028 03/02 Q1003 TEMPO
                        3500 BR BKN005=
201403010420 METAR COR EGLL 010420Z 30004KT 7000 FEW012 SCT029 03/02 Q1003
                        TEMPO 4500 BR=
201403010350 METAR EGLL 010350Z VRB02KT 7000 BKN032 03/02 Q1003=
201403010320 METAR COR EGLL 010320Z VRB03KT 8000 BKN035 03/02 Q1003 TEMPO
                        4500 BR=
201403010250 METAR EGLL 010250Z VRB02KT 8000 FEW039 03/02 Q1003=
201403010220 METAR EGLL 010220Z AUTO 31003KT 4700 HZ FEW012 03/02 Q1003=
201403010150 METAR EGLL 010150Z AUTO 32004KT 290V010 5000 BKN012 04/03
                        Q1004=
201403010120 METAR EGLL 010120Z AUTO 30004KT 5000 FEW045 04/03 Q1004=
201403010050 METAR COR EGLL 010050Z 31005KT 8000 FEW018 SCT027 04/03 Q1004
                        TEMPO BKN010=
201403010020 METAR COR EGLL 010020Z 30005KT 9000 FEW018 BKN046 05/03 Q1004
                        TEMPO BKN007=
201402282350 METAR COR EGLL 282350Z 33006KT 290V350 9000 SCT012 05/03
                        Q1004 TEMPO BKN009=
201402282320 METAR COR EGLL 282320Z 34004KT 310V020 8000 BKN012 05/04
                        Q1003 TEMPO BKN009=
201402282250 METAR COR EGLL 282250Z 34004KT 310V020 8000 FEW012 BKN014
                        05/04 Q1003 TEMPO BKN009=
201402282220 METAR COR EGLL 282220Z 32004KT 290V360 9999 SCT013 05/03
                        Q1003 TEMPO BKN012=
201402282150 METAR COR EGLL 282150Z 31004KT 9999 SCT016 SCT022 05/03 Q1003
                        TEMPO BKN012=
201402282120 METAR COR EGLL 282120Z 31005KT 280V340 9999 SCT019 SCT024
                        05/03 Q1003 TEMPO BKN012=
201402282050 METAR COR EGLL 282050Z 32005KT 9999 SCT023 BKN036 05/03 Q1003
                        NOSIG=
201402282020 METAR COR EGLL 282020Z 36004KT 320V030 9999 -RA FEW025 SCT037
                        BKN047 05/03 Q1003 TEMPO BKN014=
201402281950 METAR COR EGLL 281950Z 34004KT 310V020 9999 -RA SCT023 SCT038
                        05/03 Q1003 TEMPO BKN014=
201402281920 METAR COR EGLL 281920Z 01006KT 330V050 9999 -RA FEW021 BKN029
                        05/03 Q1003 RERA NOSIG=
201402281850 METAR COR EGLL 281850Z 36006KT 330V030 9999 RA SCT014 BKN024
                        05/04 Q1002 TEMPO BKN014=
201402281820 METAR COR EGLL 281820Z 36005KT 330V030 9999 RA BKN014 05/03
                        Q1002 TEMPO -RA SCT014 BKN018=
201402281750 METAR COR EGLL 281750Z 01008KT 9999 -RA FEW010 BKN017 05/03
                        Q1001 TEMPO RA BKN012=
201402281720 METAR COR EGLL 281720Z 01007KT 330V040 9999 -RA SCT012 BKN018
                        05/04 Q1001 TEMPO RA BKN012=
201402281650 METAR EGLL 281650Z 01010KT 340V040 9999 -RA FEW011 BKN016
                        05/03 Q1000=
201402281620 METAR COR EGLL 281620Z 01009KT 9999 -SHRA SCT009 BKN014 05/04
                        Q1000 TEMPO RA=
201402281550 METAR COR EGLL 281550Z 36009KT 9999 -RA SCT012 BKN017 06/04
                        Q0999 TEMPO BKN014=
201402281520 METAR COR EGLL 281520Z 01010KT 9999 BKN014 06/04 Q0999 NOSIG=
201402281450 METAR EGLL 281450Z 02009KT 340V040 9999 BKN014 07/04 Q0998=
201402281420 METAR COR EGLL 281420Z 02010KT 350V050 9999 BKN017 08/04
                        Q0998 NOSIG=
201402281350 METAR COR EGLL 281350Z 03008KT 340V090 9999 FEW014 SCT018
                        08/04 Q0997 NOSIG=
201402281320 METAR COR EGLL 281320Z 03008KT 9999 FEW014 SCT044 08/05 Q0997
                        TEMPO BKN014=
201402281250 METAR COR EGLL 281250Z 06009KT 020V080 9999 FEW013 SCT033
                        07/04 Q0997 NOSIG=
201402281220 METAR COR EGLL 281220Z 06010KT 9999 -RA FEW014 SCT031 07/05
                        Q0996 NOSIG=
201402281150 METAR COR EGLL 281150Z 06008KT 9999 SCT015 SCT025 07/05 Q0996
                        NOSIG=
201402281120 METAR COR EGLL 281120Z 08009KT 9999 SCT028 SCT040 08/05 Q0996
                        NOSIG=
201402281050 METAR COR EGLL 281050Z 09010KT 9999 FEW010 SCT016 BKN025
                        07/05 Q0995 NOSIG=
201402281020 METAR COR EGLL 281020Z 12009KT 9999 FEW014 SCT027 08/05 Q0995
                        NOSIG=
201402280950 METAR COR EGLL 280950Z 11007KT 9999 SCT022 SCT025 07/05 Q0995
                        TEMPO BKN014=
201402280920 METAR COR EGLL 280920Z 11008KT 9999 FEW010 BKN015 06/05 Q0994
                        TEMPO BKN012=
201402280850 METAR COR EGLL 280850Z 09009KT 9999 BKN011 06/04 Q0994 TEMPO
                        SCT013 BKN020=
201402280820 METAR COR EGLL 280820Z 09009KT 9999 -RA FEW008 BKN012 05/04
                        Q0993 TEMPO SCT013 BKN020=
201402280750 METAR COR EGLL 280750Z 08011KT 9999 -RA FEW009 SCT014 BKN021
                        05/04 Q0993 TEMPO BKN014=
201402280720 METAR COR EGLL 280720Z 07010KT 9999 -RA FEW014 BKN019 05/04
                        Q0994 RERA TEMPO RA BKN014=
201402280650 METAR COR EGLL 280650Z 09009KT 9000 RA FEW017 BKN024 05/04
                        Q0994 TEMPO BKN014=
201402280620 METAR COR EGLL 280620Z 10009KT 9999 -RA SCT014 SCT018 05/04
                        Q0994 TEMPO RA BKN012=
201402280550 METAR COR EGLL 280550Z 10009KT 9999 -RA FEW015 BKN020 05/04
                        Q0995 RERA TEMPO RA BKN014=
201402280520 METAR COR EGLL 280520Z 10009KT 9000 RA FEW013 BKN015 05/03
                        Q0995 TEMPO BKN013=
201402280450 METAR COR EGLL 280450Z 10007KT 9999 -RA FEW018 BKN022 05/03
                        Q0996 TEMPO RA BKN012=
201402280420 METAR COR EGLL 280420Z 09007KT 9999 -RA FEW019 BKN043 05/03
                        Q0996 TEMPO RA BKN014=
201402280350 METAR COR EGLL 280350Z 09006KT 9999 -RA FEW030 BKN040 04/03
                        Q0997 TEMPO RA BKN014=
201402280320 METAR COR EGLL 280320Z 11008KT 9999 FEW029 BKN048 04/03 Q0998
                        TEMPO RA BKN014=
201402280250 METAR COR EGLL 280250Z 12007KT 9999 FEW029 04/03 Q0999 NOSIG=
201402280220 METAR EGLL 280220Z AUTO 12008KT 9999 NCD 03/02 Q1000=
201402280150 METAR EGLL 280150Z AUTO 12007KT 9999 NCD 02/01 Q1000=
201402280120 METAR EGLL 280120Z AUTO 13006KT 9999 NCD 02/01 Q1001=
201402280050 METAR COR EGLL 280050Z 13005KT 9999 FEW031 02/00 Q1002 NOSIG=
201402280020 METAR COR EGLL 280020Z 17005KT 9999 FEW031 03/01 Q1003 NOSIG=
201402272350 METAR COR EGLL 272350Z 16005KT CAVOK 03/01 Q1003 NOSIG=
201402272320 METAR COR EGLL 272320Z 18006KT CAVOK 03/02 Q1004 NOSIG=
201402272250 METAR COR EGLL 272250Z 19006KT 150V250 CAVOK 03/02 Q1004
                        NOSIG=
201402272220 METAR COR EGLL 272220Z 20008G18KT 170V240 CAVOK 04/02 Q1005
                        NOSIG=
201402272150 METAR COR EGLL 272150Z 21008KT 180V250 CAVOK 04/02 Q1005
                        NOSIG=
201402272120 METAR COR EGLL 272120Z 22008KT 180V250 CAVOK 05/02 Q1006
                        NOSIG=
201402272050 METAR COR EGLL 272050Z 23009KT CAVOK 05/02 Q1006 NOSIG=
201402272020 METAR COR EGLL 272020Z 21008KT 9999 FEW035 05/02 Q1006 NOSIG=
201402271950 METAR COR EGLL 271950Z 22008KT 180V260 9999 FEW030 06/03
                        Q1007 NOSIG=
201402271920 METAR COR EGLL 271920Z 22009KT 9999 FEW030 06/03 Q1007 NOSIG=
201402271850 METAR COR EGLL 271850Z 22008KT 9999 FEW037CB 06/03 Q1007
                        NOSIG=
201402271820 METAR COR EGLL 271820Z 23010KT 9999 VCSH FEW037CB 07/03 Q1007
                        NOSIG=
201402271750 METAR COR EGLL 271750Z 22011KT 9999 VCSH FEW040CB 08/03 Q1006
                        NOSIG=
201402271720 METAR COR EGLL 271720Z 22011KT 9999 FEW040CB 08/03 Q1006
                        TEMPO SHRA=
201402271650 METAR COR EGLL 271650Z 24012KT 9999 FEW040CB 09/02 Q1006
                        TEMPO SHRA=
201402271620 METAR EGLL 271620Z AUTO 24013KT 9999 NCD 10/02 Q1006=
201402271550 METAR COR EGLL 271550Z 26015KT 9999 FEW037CB 10/01 Q1006
                        NOSIG=
201402271520 METAR COR EGLL 271520Z 26011KT 230V300 9999 SCT037CB SCT043
                        11/03 Q1006 NOSIG=
201402271450 METAR COR EGLL 271450Z 28006KT 250V330 9999 VCSH SCT039CB
                        10/03 Q1006 TEMPO SHRA=
201402271420 METAR COR EGLL 271420Z 28010KT 9999 VCSH BKN039CB 11/03 Q1006
                        TEMPO SHRA=
201402271350 METAR COR EGLL 271350Z 27012KT 9999 SCT040TCU 10/02 Q1006
                        NOSIG=
201402271320 METAR COR EGLL 271320Z 26015KT 9999 SCT040 SCT049 10/02 Q1006
                        NOSIG=
201402271250 METAR COR EGLL 271250Z 27013KT 9999 SCT040 11/03 Q1006 NOSIG=
201402271220 METAR COR EGLL 271220Z 27017KT 9999 SCT037 11/03 Q1006 NOSIG=
201402271150 METAR COR EGLL 271150Z 28015KT 9999 FEW030 SCT035 11/04 Q1006
                        NOSIG=
201402271120 METAR COR EGLL 271120Z 27017KT 9999 FEW030 SCT035 10/04 Q1006
                        NOSIG=
201402271050 METAR COR EGLL 271050Z 27017KT 9999 SCT028 10/04 Q1006 NOSIG=
201402271020 METAR COR EGLL 271020Z 27016KT 9999 FEW020 09/05 Q1006 NOSIG=
201402270950 METAR COR EGLL 270950Z 27015KT CAVOK 08/05 Q1005 NOSIG=
201402270920 METAR COR EGLL 270920Z 27014KT CAVOK 08/05 Q1005 NOSIG=
201402270850 METAR COR EGLL 270850Z 27013KT 9999 FEW020 08/05 Q1005 NOSIG=
201402270820 METAR COR EGLL 270820Z 27014KT 9999 SCT020 08/06 Q1004 NOSIG=
201402270750 METAR COR EGLL 270750Z 24012KT 9999 SCT011 SCT027 08/07 Q1004
                        RERA REDZ NOSIG=
201402270720 METAR COR EGLL 270720Z 20012KT 9999 5000E RADZ FEW007 SCT008
                        BKN011 08/06 Q1003 BECMG 9999 NSW
                        FEW008 BKN018=
201402270650 METAR COR EGLL 270650Z 18016G27KT 6000 -RADZ FEW009 BKN011
                        07/06 Q1004 TEMPO 4800 RADZ BKN009=
201402270620 METAR COR EGLL 270620Z 18016G27KT 130V200 9999 -RA FEW009
                        SCT012 BKN018 07/06 Q1004 TEMPO RA
                        BKN012=
201402270550 METAR COR EGLL 270550Z 18016KT 9999 -RA FEW011 BKN018 07/06
                        Q1005 RERA TEMPO RA BKN012=
201402270520 METAR COR EGLL 270520Z 17016KT 9000 RA FEW012 BKN014 07/05
                        Q1005 TEMPO -RA SCT014 BKN025=
201402270450 METAR COR EGLL 270450Z 18018KT 9999 -RA BKN014 07/05 Q1006
                        TEMPO RA SCT014 BKN025=
201402270420 METAR COR EGLL 270420Z 18015KT 9999 -RA FEW018 SCT026 07/05
                        Q1007 TEMPO RA BKN012=
201402270350 METAR COR EGLL 270350Z 19015KT 9999 -RA SCT022 SCT038 07/05
                        Q1008 TEMPO RA BKN014=
201402270320 METAR COR EGLL 270320Z 19014KT 9999 -RA SCT023 SCT038 07/04
                        Q1009 TEMPO RA BKN014=
201402270250 METAR COR EGLL 270250Z 19014G24KT 9999 -RA FEW031 SCT040
                        08/04 Q1010 TEMPO RA BKN014=
201402270220 METAR EGLL 270220Z AUTO 19014KT 9999 NCD 08/04 Q1011=
201402270150 METAR EGLL 270150Z AUTO 18012KT 9999 NCD 07/04 Q1011=
201402270120 METAR EGLL 270120Z AUTO 18012KT 9999 FEW044 07/04 Q1012=
201402270050 METAR COR EGLL 270050Z 17009KT 9999 FEW040 06/04 Q1012 NOSIG=
201402270020 METAR COR EGLL 270020Z 16010KT CAVOK 06/04 Q1013 NOSIG=
201402262350 METAR COR EGLL 262350Z 18010KT CAVOK 06/04 Q1014 NOSIG=
201402262320 METAR COR EGLL 262320Z 18008KT CAVOK 06/03 Q1014 NOSIG=
201402262250 METAR COR EGLL 262250Z 19008KT 180V240 CAVOK 06/03 Q1015
                        NOSIG=
201402262220 METAR COR EGLL 262220Z 20008KT 160V240 CAVOK 06/03 Q1015
                        NOSIG=
201402262150 METAR COR EGLL 262150Z 22010KT CAVOK 06/04 Q1016 NOSIG=
201402262120 METAR COR EGLL 262120Z 22010KT 180V250 CAVOK 06/04 Q1016
                        NOSIG=
201402262050 METAR COR EGLL 262050Z 22010KT 180V250 CAVOK 06/03 Q1016
                        NOSIG=
201402262020 METAR COR EGLL 262020Z 21007KT 190V250 CAVOK 06/03 Q1016
                        NOSIG=
201402261950 METAR COR EGLL 261950Z 20006KT 170V240 CAVOK 06/03 Q1016
                        NOSIG=
201402261920 METAR COR EGLL 261920Z 21010KT CAVOK 07/03 Q1016 NOSIG=
201402261850 METAR COR EGLL 261850Z 21008KT 130V250 CAVOK 07/03 Q1016
                        NOSIG=
201402261820 METAR COR EGLL 261820Z 23009KT CAVOK 08/03 Q1016 NOSIG=
201402261750 METAR COR EGLL 261750Z 24012KT CAVOK 09/02 Q1016 NOSIG=
201402261720 METAR COR EGLL 261720Z 25013KT 9999 FEW036 10/02 Q1015 NOSIG=
201402261650 METAR COR EGLL 261650Z 25013KT 9999 FEW045 10/01 Q1015 NOSIG=
201402261620 METAR COR EGLL 261620Z 25012KT 9999 FEW045 11/02 Q1015 NOSIG=
201402261550 METAR COR EGLL 261550Z 26011KT 9999 FEW044 11/02 Q1015 TEMPO
                        SHRA=
201402261520 METAR COR EGLL 261520Z 27013KT 9999 SCT047CB 11/01 Q1015
                        NOSIG=
201402261450 METAR COR EGLL 261450Z 27013KT 9999 VCSH SCT045CB 12/02 Q1015
                        NOSIG=
201402261420 METAR COR EGLL 261420Z 25013KT 9999 SCT042CB 12/01 Q1015
                        NOSIG=
201402261350 METAR COR EGLL 261350Z 24015KT 9999 SCT043 12/01 Q1014 NOSIG=
201402261320 METAR COR EGLL 261320Z 25012KT 9999 BKN040 12/03 Q1014 NOSIG=
201402261250 METAR COR EGLL 261250Z 25011KT 9999 SCT036TCU 11/03 Q1014
                        NOSIG=
201402261220 METAR COR EGLL 261220Z 26014KT 9999 SCT036 12/03 Q1014 NOSIG=
201402261150 METAR COR EGLL 261150Z 24011KT 9999 FEW030 11/04 Q1014 NOSIG=
201402261120 METAR COR EGLL 261120Z 25012KT 9999 SCT027 10/04 Q1014 NOSIG=
201402261050 METAR COR EGLL 261050Z 26010KT 220V290 9999 BKN024 09/04
                        Q1014 NOSIG=
201402261020 METAR COR EGLL 261020Z 24008KT 9999 FEW021 09/05 Q1013 NOSIG=
201402260950 METAR COR EGLL 260950Z 24008KT CAVOK 08/04 Q1013 NOSIG=
201402260920 METAR COR EGLL 260920Z 24009KT CAVOK 07/04 Q1013 NOSIG=
201402260850 METAR COR EGLL 260850Z 23008KT CAVOK 06/04 Q1012 NOSIG=
201402260820 METAR COR EGLL 260820Z 22007KT 180V250 CAVOK 05/04 Q1012
                        NOSIG=
201402260750 METAR COR EGLL 260750Z 20006KT 170V240 CAVOK 04/03 Q1012
                        NOSIG=
201402260720 METAR COR EGLL 260720Z 22007KT 190V260 CAVOK 04/03 Q1011
                        NOSIG=
201402260650 METAR COR EGLL 260650Z 21007KT 190V250 CAVOK 04/03 Q1011
                        NOSIG=
201402260620 METAR COR EGLL 260620Z 22007KT CAVOK 04/03 Q1010 NOSIG=
201402260550 METAR COR EGLL 260550Z 21006KT CAVOK 04/03 Q1010 NOSIG=
201402260520 METAR COR EGLL 260520Z 21005KT CAVOK 04/03 Q1010 NOSIG=
201402260450 METAR COR EGLL 260450Z 22006KT CAVOK 04/03 Q1009 NOSIG=
201402260420 METAR COR EGLL 260420Z 22005KT CAVOK 04/03 Q1009 NOSIG=
201402260350 METAR COR EGLL 260350Z 21006KT CAVOK 04/03 Q1008 NOSIG=
201402260320 METAR COR EGLL 260320Z 21005KT CAVOK 05/03 Q1008 NOSIG=
201402260250 METAR COR EGLL 260250Z 21006KT CAVOK 05/04 Q1008 NOSIG=
201402260220 METAR EGLL 260220Z AUTO 21007KT 9999 NCD 05/04 Q1008=
201402260150 METAR EGLL 260150Z AUTO 20006KT 9999 NCD 05/04 Q1007=
201402260120 METAR EGLL 260120Z AUTO 20006KT 9999 NCD 06/04 Q1007=
201402260050 METAR EGLL 260050Z 19006KT 9999 FEW036 SCT040 06/04 Q1007=
201402260020 METAR EGLL 260020Z 20006KT 9999 BKN039 07/04 Q1007=
201402252350 METAR COR EGLL 252350Z 19006KT 9999 BKN039 06/04 Q1006 NOSIG=
201402252320 METAR COR EGLL 252320Z 20007KT 9999 SCT040 06/04 Q1006 NOSIG=
201402252250 METAR COR EGLL 252250Z 20007KT 170V240 9999 SCT038 06/04
                        Q1005 NOSIG=
201402252220 METAR COR EGLL 252220Z 21009KT 9999 SCT040 06/04 Q1005 NOSIG=
201402252150 METAR COR EGLL 252150Z 21008KT 9999 SCT040 06/04 Q1005 NOSIG=
201402252120 METAR COR EGLL 252120Z 22009KT 9999 FEW025 06/04 Q1004 NOSIG=
201402252050 METAR COR EGLL 252050Z 22008KT 180V250 CAVOK 07/04 Q1004
                        NOSIG=
201402252020 METAR COR EGLL 252020Z 20006KT 170V240 CAVOK 07/04 Q1003
                        NOSIG=
201402251950 METAR COR EGLL 251950Z 20009KT 170V260 CAVOK 07/04 Q1003
                        NOSIG=
201402251920 METAR COR EGLL 251920Z 20010KT 170V240 CAVOK 07/04 Q1003
                        NOSIG=
201402251850 METAR COR EGLL 251850Z 20008KT 160V240 9999 FEW025 08/04
                        Q1003 NOSIG=
201402251820 METAR COR EGLL 251820Z 21011KT 9999 FEW025 08/04 Q1002 NOSIG=
201402251750 METAR COR EGLL 251750Z 21011KT 9999 FEW024 09/03 Q1002 NOSIG=
201402251720 METAR COR EGLL 251720Z 21010KT 170V250 9999 SCT034 09/05
                        Q1001 NOSIG=
201402251650 METAR COR EGLL 251650Z 19010KT 9999 FEW028 SCT038 09/05 Q1001
                        NOSIG=
201402251620 METAR COR EGLL 251620Z 21013KT 180V240 9999 VCSH SCT032 10/05
                        Q1000 NOSIG=
201402251550 METAR COR EGLL 251550Z 21014KT 9999 SCT019 10/06 Q1000 TEMPO
                        SHRA=
201402251520 METAR COR EGLL 251520Z 20011KT 160V240 9999 SCT019 09/06
                        Q1000 RESHRA TEMPO SHRA=
201402251450 METAR COR EGLL 251450Z 21009KT 130V240 9999 7000SW VCSH SCT028CB
                        10/05 Q1000 TEMPO SHRA=
201402251420 METAR COR EGLL 251420Z 22015KT 190V260 9999 8000N -SHRA SCT029CB
                        09/06 Q1000 RESHRA TEMPO SHRA=
201402251350 METAR COR EGLL 251350Z 20014KT 9999 VCSH SCT029TCU 10/06
                        Q0999 TEMPO SHRA=
201402251320 METAR COR EGLL 251320Z 20015KT 160V230 9999 FEW021CB BKN026
                        09/06 Q0999 RESHRA TEMPO SHRA=
201402251250 METAR COR EGLL 251250Z 19014KT 9999 VCSH SCT020 SCT024 10/06
                        Q0999 TEMPO SHRA=
201402251220 METAR COR EGLL 251220Z 20012KT 9999 SCT023 10/06 Q1000 NOSIG=
201402251150 METAR COR EGLL 251150Z 20011KT 170V240 9999 FEW013 SCT017
                        09/06 Q1000 NOSIG=
201402251120 METAR COR EGLL 251120Z 20009KT 170V240 9999 FEW042 07/05
                        Q1000 NOSIG=
201402251050 METAR COR EGLL 251050Z 23010KT 9999 FEW013 SCT020 07/04 Q0999
                        NOSIG=
201402251020 METAR COR EGLL 251020Z 26015KT 9000 -SHRA SCT013CB BKN018
                        07/05 Q0999 RESHRA BECMG 9999 NSW
                        FEW013CB=
201402250950 METAR COR EGLL 250950Z 20015KT 9000 SHRA FEW015 SCT024CB
                        08/06 Q0998 BECMG NSW=
201402250920 METAR COR EGLL 250920Z 19015KT 9999 FEW019 SCT023 09/06 Q0998
                        TEMPO SHRA=
201402250850 METAR COR EGLL 250850Z 18015G25KT 9999 FEW021 SCT028 09/06
                        Q0998 TEMPO SHRA=
201402250820 METAR COR EGLL 250820Z 18011KT 140V230 9999 FEW024 SCT034
                        09/06 Q0998 TEMPO SHRA=
201402250750 METAR COR EGLL 250750Z 18009KT 090V250 9999 FEW018 SCT023
                        09/07 Q0998 TEMPO SHRA=
201402250720 METAR COR EGLL 250720Z 16007KT 130V220 9999 FEW017 SCT025
                        09/07 Q0998 TEMPO SHRA BKN014=
201402250650 METAR COR EGLL 250650Z 18008KT 140V210 9999 FEW019 SCT023
                        09/06 Q0998 TEMPO SHRA BKN014=
201402250620 METAR COR EGLL 250620Z 18008KT 160V250 9999 SCT023 08/06
                        Q0998 TEMPO SHRA=
201402250550 METAR COR EGLL 250550Z 20009KT CAVOK 09/06 Q0998 TEMPO SHRA=
201402250520 METAR COR EGLL 250520Z 21011KT 9999 FEW020 09/06 Q0998 NOSIG=
201402250450 METAR COR EGLL 250450Z 20012KT 9999 FEW018 SCT044 09/06 Q0998
                        NOSIG=
201402250420 METAR COR EGLL 250420Z 20012KT 9999 -DZ BKN015 BKN020 09/07
                        Q0998 NOSIG=
201402250350 METAR COR EGLL 250350Z 18015KT 9999 -RA FEW012 SCT014 BKN024
                        09/07 Q0998 TEMPO BKN014=
201402250320 METAR COR EGLL 250320Z 18013KT 9999 -RA FEW014 SCT026 BKN030
                        08/07 Q0998 TEMPO BKN014=
201402250250 METAR COR EGLL 250250Z 18015KT 9999 -RA FEW026 SCT032 08/06
                        Q0999 NOSIG=
201402250220 METAR EGLL 250220Z AUTO 20017KT 9999 -RA BKN029/// //////TCU
                        08/06 Q1000 RERA=
201402250150 METAR EGLL 250150Z AUTO 20019G29KT 9999 -RA BKN027/// //////TCU
                        09/06 Q1000 RERA REDZ=
201402250120 METAR EGLL 250120Z AUTO 21017KT 9999 -DZ FEW031 SCT037 10/06
                        Q1000 REDZ=
201402250050 METAR COR EGLL 250050Z 21016KT 9999 SCT030 10/07 Q1000 RERA
                        TEMPO RA BKN014=
201402250020 METAR COR EGLL 250020Z 20017KT 8000 RA FEW020 SCT023 11/08
                        Q1000 TEMPO RA BKN014=
201402242350 METAR COR EGLL 242350Z 18017KT 9999 FEW020 11/08 Q1000 TEMPO
                        RA BKN014=
201402242320 METAR COR EGLL 242320Z 19014KT 9999 FEW023 12/08 Q1001 TEMPO
                        RA BKN014=
201402242250 METAR COR EGLL 242250Z 19016KT 9999 FEW025 12/08 Q1001 TEMPO
                        RA BKN014=
201402242220 METAR COR EGLL 242220Z 19017G27KT 170V240 9999 FEW030 12/08
                        Q1001 NOSIG=
201402242150 METAR COR EGLL 242150Z 19017KT 9999 FEW033 12/07 Q1001 NOSIG=
201402242120 METAR COR EGLL 242120Z 18012KT 150V230 9999 FEW037 12/08
                        Q1002 NOSIG=
201402242050 METAR COR EGLL 242050Z 18007KT 160V240 9999 FEW037 10/08
                        Q1002 NOSIG=
201402242020 METAR COR EGLL 242020Z 18007KT 140V220 9999 FEW033 10/08
                        Q1003 NOSIG=
201402241950 METAR COR EGLL 241950Z 18006KT 150V240 9999 FEW037 SCT045
                        10/08 Q1003 NOSIG=
201402241920 METAR COR EGLL 241920Z 21006KT 180V250 9999 -RA FEW027 SCT038
                        10/08 Q1004 NOSIG=
201402241850 METAR COR EGLL 241850Z 21006KT 160V250 9999 -RA SCT022 SCT032
                        10/08 Q1004 NOSIG=
201402241820 METAR COR EGLL 241820Z 18007KT 140V230 9999 BKN038 11/07
                        Q1004 NOSIG=
201402241750 METAR COR EGLL 241750Z 18008KT 160V230 9999 BKN037 BKN046
                        10/08 Q1004 NOSIG=
201402241720 METAR COR EGLL 241720Z 19010KT 170V230 9999 -RA FEW024 BKN035
                        11/07 Q1004 NOSIG=
201402241650 METAR COR EGLL 241650Z 18009KT 140V220 9999 SCT024 SCT030
                        10/08 Q1004 NOSIG=
201402241620 METAR COR EGLL 241620Z 21012KT 9000 -RA FEW019 BKN024 10/08
                        Q1005 RERA NOSIG=
201402241550 METAR COR EGLL 241550Z 20014KT 9999 VCSH SCT021 SCT042 11/07
                        Q1005 NOSIG=
201402241520 METAR COR EGLL 241520Z 20014KT 170V230 9999 BKN026 12/07
                        Q1004 NOSIG=
201402241450 METAR COR EGLL 241450Z 20013G23KT 9999 SCT027 12/07 Q1004
                        NOSIG=
201402241420 METAR COR EGLL 241420Z 20015KT 9999 SCT033 13/07 Q1004 NOSIG=
201402241350 METAR COR EGLL 241350Z 20015G27KT 9999 SCT030 SCT034 13/07
                        Q1005 NOSIG=
201402241320 METAR EGLL 241320Z 20014KT 9999 BKN029 14/07 Q1005=
201402241250 METAR COR EGLL 241250Z 19013KT 160V220 9999 BKN030 14/07
                        Q1005 NOSIG=
201402241220 METAR COR EGLL 241220Z 20012KT 9999 SCT030 14/07 Q1005 NOSIG=
201402241150 METAR COR EGLL 241150Z 19012KT 150V220 9999 SCT034 14/07
                        Q1005 NOSIG=
201402241120 METAR COR EGLL 241120Z 19012KT 170V230 9999 FEW030 13/07
                        Q1005 NOSIG=
201402241050 METAR COR EGLL 241050Z 19012KT 140V220 9999 FEW020 12/07
                        Q1005 NOSIG=
201402241020 METAR COR EGLL 241020Z 19011KT 9999 FEW020 12/07 Q1005 NOSIG=
201402240950 METAR COR EGLL 240950Z 20011KT 9999 FEW020 11/06 Q1005 NOSIG=
201402240920 METAR COR EGLL 240920Z 20013KT 9999 FEW020 10/06 Q1005 NOSIG=
201402240850 METAR COR EGLL 240850Z 19012KT CAVOK 09/06 Q1005 NOSIG=
201402240820 METAR COR EGLL 240820Z 19010KT 170V270 CAVOK 09/06 Q1005
                        NOSIG=
201402240750 METAR COR EGLL 240750Z 18009KT 140V220 CAVOK 08/05 Q1005
                        NOSIG=
201402240720 METAR COR EGLL 240720Z 17008KT CAVOK 08/05 Q1005 NOSIG=
201402240650 METAR COR EGLL 240650Z 17008KT CAVOK 08/05 Q1005 NOSIG=
201402240620 METAR COR EGLL 240620Z 15008KT CAVOK 08/05 Q1005 NOSIG=
201402240550 METAR COR EGLL 240550Z 16008KT CAVOK 07/05 Q1005 NOSIG=
201402240520 METAR COR EGLL 240520Z 15008KT CAVOK 08/05 Q1005 NOSIG=
201402240450 METAR COR EGLL 240450Z 15007KT 100V210 CAVOK 08/05 Q1005
                        NOSIG=
201402240420 METAR COR EGLL 240420Z 15005KT CAVOK 08/05 Q1006 NOSIG=
201402240350 METAR COR EGLL 240350Z 15006KT CAVOK 08/05 Q1006 NOSIG=
201402240320 METAR COR EGLL 240320Z 15008KT CAVOK 08/05 Q1006 NOSIG=
201402240250 METAR COR EGLL 240250Z 15007KT CAVOK 08/05 Q1006 NOSIG=
201402240220 METAR EGLL 240220Z AUTO 15009KT 9999 NCD 09/05 Q1007=
201402240150 METAR EGLL 240150Z AUTO 15009KT 9999 NCD 09/06 Q1007=
201402240120 METAR EGLL 240120Z AUTO 16010KT 9999 NCD 09/05 Q1008=
201402240050 METAR COR EGLL 240050Z 17010KT CAVOK 09/06 Q1008 NOSIG=
201402240020 METAR COR EGLL 240020Z 17013KT CAVOK 09/06 Q1008 NOSIG=
201402232350 METAR COR EGLL 232350Z 16013KT CAVOK 09/06 Q1008 NOSIG=
201402232320 METAR COR EGLL 232320Z 16013KT CAVOK 10/06 Q1009 NOSIG=
201402232250 METAR COR EGLL 232250Z 17010KT 140V220 CAVOK 10/06 Q1009
                        NOSIG=
201402232220 METAR COR EGLL 232220Z 17012KT CAVOK 10/06 Q1009 NOSIG=
201402232150 METAR COR EGLL 232150Z 17010G20KT 130V200 CAVOK 11/06 Q1010
                        NOSIG=
201402232120 METAR COR EGLL 232120Z 17014KT CAVOK 11/06 Q1010 NOSIG=
201402232050 METAR COR EGLL 232050Z 17012KT 140V220 CAVOK 11/06 Q1010
                        NOSIG=
201402232020 METAR COR EGLL 232020Z 18014KT CAVOK 11/06 Q1010 NOSIG=
201402231950 METAR COR EGLL 231950Z 19015KT CAVOK 11/06 Q1010 NOSIG=
201402231920 METAR COR EGLL 231920Z 19013KT CAVOK 11/06 Q1010 NOSIG=
201402231850 METAR COR EGLL 231850Z 20014KT 9999 FEW032 11/06 Q1010 NOSIG=
201402231820 METAR COR EGLL 231820Z 19016KT 9999 FEW030 11/06 Q1010 NOSIG=
201402231750 METAR COR EGLL 231750Z 19015KT 9999 FEW025 11/07 Q1010 NOSIG=
201402231720 METAR COR EGLL 231720Z 20014KT 9999 FEW027 SCT041 11/07 Q1010
                        NOSIG=
201402231650 METAR COR EGLL 231650Z 20018KT 9999 FEW030 BKN038 12/07 Q1009
                        NOSIG=
201402231620 METAR COR EGLL 231620Z 20019KT 9999 SCT034 SCT042 12/07 Q1009
                        NOSIG=
201402231550 METAR COR EGLL 231550Z 21016KT 9999 BKN027 BKN035 12/07 Q1009
                        NOSIG=
201402231520 METAR COR EGLL 231520Z 21018KT 9999 BKN023 12/07 Q1009 NOSIG=
201402231450 METAR EGLL 231450Z 21016G26KT 180V250 9999 BKN030 12/07 Q1009=
201402231420 METAR COR EGLL 231420Z 21018G28KT 9999 SCT025 BKN035 12/07
                        Q1009 NOSIG=
201402231350 METAR COR EGLL 231350Z 21016KT 9999 BKN024 BKN031 12/07 Q1009
                        NOSIG=
201402231320 METAR COR EGLL 231320Z 21020KT 180V250 9999 BKN022 BKN028
                        12/07 Q1009 NOSIG=
201402231250 METAR COR EGLL 231250Z 21019G32KT 9999 BKN023 12/07 Q1010
                        NOSIG=
201402231220 METAR COR EGLL 231220Z 22019G30KT 9999 BKN022 12/07 Q1010
                        NOSIG=
201402231150 METAR COR EGLL 231150Z 21018G28KT 9999 BKN024 12/07 Q1010
                        NOSIG=
201402231120 METAR COR EGLL 231120Z 21017KT 180V240 9999 FEW021 BKN024
                        12/07 Q1010 NOSIG=
201402231050 METAR COR EGLL 231050Z 21015G25KT 9999 VCSH BKN021 11/07
                        Q1010 NOSIG=
201402231020 METAR COR EGLL 231020Z 20015G26KT 9999 -RA BKN021 11/07 Q1010
                        NOSIG=
201402230950 METAR COR EGLL 230950Z 20017KT 9999 -RA SCT020 BKN026 11/07
                        Q1010 NOSIG=
201402230920 METAR COR EGLL 230920Z 20016KT 9999 8000NW -RA SCT017 BKN022
                        11/07 Q1010 NOSIG=
201402230850 METAR COR EGLL 230850Z 20014KT 9999 -SHRA SCT019 SCT022 10/07
                        Q1010 NOSIG=
201402230820 METAR COR EGLL 230820Z 20014KT 170V230 9999 VCSH SCT020 SCT027
                        10/07 Q1010 NOSIG=
201402230750 METAR COR EGLL 230750Z 21013KT 9999 VCSH FEW020 SCT025 10/07
                        Q1010 NOSIG=
201402230720 METAR COR EGLL 230720Z 21016KT 9999 SCT020 SCT025 10/07 Q1010
                        NOSIG=
201402230650 METAR COR EGLL 230650Z 20015KT 9999 SCT017 SCT022 10/07 Q1010
                        TEMPO BKN014=
201402230620 METAR COR EGLL 230620Z 20016G27KT 9999 SCT017 SCT019 10/07
                        Q1010 TEMPO BKN014=
201402230550 METAR COR EGLL 230550Z 20013KT 9999 SCT014 SCT017 10/07 Q1010
                        TEMPO BKN014=
201402230520 METAR COR EGLL 230520Z 20014KT 9999 SCT014 BKN017 10/07 Q1010
                        TEMPO BKN014=
201402230450 METAR COR EGLL 230450Z 20012KT 9999 SCT015 BKN018 09/07 Q1010
                        TEMPO BKN014=
201402230420 METAR COR EGLL 230420Z 20013KT 9999 BKN013 09/07 Q1010 TEMPO
                        BKN015=
201402230350 METAR COR EGLL 230350Z 20014KT 9999 BKN016 09/06 Q1010 TEMPO
                        BKN014=
201402230320 METAR COR EGLL 230320Z 20013KT 9999 BKN017 09/06 Q1010 TEMPO
                        BKN014=
201402230250 METAR COR EGLL 230250Z 20013KT 9999 BKN018 09/06 Q1010 REDZ
                        NOSIG=
201402230220 METAR EGLL 230220Z AUTO 20014KT 9999 DZ BKN020 09/06 Q1011=
201402230150 METAR EGLL 230150Z AUTO 20013KT 9999 BKN021 BKN039 09/05
                        Q1011=
201402230120 METAR EGLL 230120Z AUTO 20016KT 9999 BKN021 09/05 Q1011=
201402230050 METAR COR EGLL 230050Z 20014KT 9999 BKN028 09/05 Q1011 NOSIG=
201402230020 METAR COR EGLL 230020Z 20013KT 9999 FEW032 09/05 Q1011 NOSIG=
201402222350 METAR COR EGLL 222350Z 20014KT 9999 FEW022 SCT036 09/05 Q1012
                        NOSIG=
201402222320 METAR COR EGLL 222320Z 21013KT 9999 SCT019 BKN039 09/05 Q1012
                        NOSIG=
201402222250 METAR COR EGLL 222250Z 21012KT 9999 SCT021 BKN026 09/05 Q1012
                        NOSIG=
201402222220 METAR COR EGLL 222220Z 21011KT 9999 SCT022 BKN026 09/05 Q1012
                        NOSIG=
201402222150 METAR COR EGLL 222150Z 21012KT 9999 BKN035 09/05 Q1012 NOSIG=
201402222120 METAR COR EGLL 222120Z 21009KT 9999 BKN035 08/05 Q1012 NOSIG=
201402222050 METAR COR EGLL 222050Z 21010KT 9999 SCT038 08/05 Q1012 NOSIG=
201402222020 METAR COR EGLL 222020Z 21008KT 9999 FEW040 08/04 Q1012 NOSIG=
201402221950 METAR COR EGLL 221950Z 21009KT CAVOK 08/04 Q1012 NOSIG=
201402221920 METAR COR EGLL 221920Z 21010KT CAVOK 08/04 Q1012 NOSIG=
201402221850 METAR COR EGLL 221850Z 21009KT CAVOK 08/03 Q1012 NOSIG=
201402221820 METAR COR EGLL 221820Z 21011KT CAVOK 08/03 Q1012 NOSIG=
201402221750 METAR COR EGLL 221750Z 21010KT CAVOK 09/02 Q1011 NOSIG=
201402221720 METAR COR EGLL 221720Z 22011KT 9999 FEW041 10/02 Q1011 NOSIG=
201402221650 METAR COR EGLL 221650Z 24013KT 9999 FEW044 11/01 Q1011 NOSIG=
201402221620 METAR COR EGLL 221620Z 23013KT 9999 FEW048 11/02 Q1011 NOSIG=
201402221550 METAR COR EGLL 221550Z 23013KT 9999 FEW045 11/02 Q1011 NOSIG=
201402221520 METAR COR EGLL 221520Z 23014KT 9999 FEW046 12/01 Q1011 NOSIG=
201402221450 METAR COR EGLL 221450Z 24013KT 9999 FEW047 11/02 Q1011 NOSIG=
201402221420 METAR COR EGLL 221420Z 24013KT 9999 FEW046 11/01 Q1011 NOSIG=
201402221350 METAR COR EGLL 221350Z 23012KT 9999 SCT047 12/02 Q1010 NOSIG=
201402221320 METAR COR EGLL 221320Z 24013KT 9999 SCT047 11/03 Q1010 NOSIG=
201402221250 METAR COR EGLL 221250Z 25012KT 9999 SCT039 12/03 Q1010 NOSIG=
201402221220 METAR COR EGLL 221220Z 25012KT 200V280 9999 FEW035 11/03
                        Q1010 NOSIG=
201402221150 METAR COR EGLL 221150Z 26013KT 9999 FEW029 11/04 Q1010 NOSIG=
201402221120 METAR COR EGLL 221120Z 26015KT 9999 FEW028 10/04 Q1010 NOSIG=
201402221050 METAR COR EGLL 221050Z 25014KT 9999 FEW025 10/04 Q1010 NOSIG=
201402221020 METAR COR EGLL 221020Z 25013KT 9999 FEW022 09/04 Q1010 NOSIG=
201402220950 METAR COR EGLL 220950Z 24011KT CAVOK 08/04 Q1009 NOSIG=
201402220920 METAR COR EGLL 220920Z 24011KT CAVOK 07/03 Q1009 NOSIG=
201402220850 METAR COR EGLL 220850Z 24012KT CAVOK 07/03 Q1009 NOSIG=
201402220820 METAR COR EGLL 220820Z 23009KT CAVOK 05/03 Q1008 NOSIG=
201402220750 METAR COR EGLL 220750Z 22007KT 9999 FEW036 05/02 Q1008 NOSIG=
201402220720 METAR COR EGLL 220720Z 21007KT 9999 FEW035 05/02 Q1007 NOSIG=
201402220650 METAR COR EGLL 220650Z 23009KT CAVOK 05/02 Q1007 NOSIG=
201402220620 METAR COR EGLL 220620Z 23011KT CAVOK 05/02 Q1006 NOSIG=
201402220550 METAR COR EGLL 220550Z 23008KT CAVOK 05/02 Q1006 NOSIG=
201402220520 METAR COR EGLL 220520Z 23010KT CAVOK 05/02 Q1006 NOSIG=
201402220450 METAR COR EGLL 220450Z 22011KT 9999 FEW043 05/02 Q1005 NOSIG=
201402220420 METAR COR EGLL 220420Z 23009KT CAVOK 06/02 Q1005 NOSIG=
201402220350 METAR COR EGLL 220350Z 22010KT 9999 FEW024 05/03 Q1005 NOSIG=
201402220320 METAR COR EGLL 220320Z 23011KT CAVOK 06/03 Q1004 NOSIG=
201402220250 METAR COR EGLL 220250Z 23013KT CAVOK 06/03 Q1004 NOSIG=
201402220220 METAR EGLL 220220Z AUTO 23010KT 9999 NCD 06/03 Q1004=
201402220150 METAR EGLL 220150Z AUTO 23011KT 9999 NCD 06/03 Q1004=
201402220120 METAR EGLL 220120Z AUTO 24012KT 9999 NCD 06/03 Q1004=
201402220050 METAR COR EGLL 220050Z 23011KT 9999 FEW036 07/03 Q1004 NOSIG=
201402220020 METAR COR EGLL 220020Z 23010KT 9999 FEW033 07/03 Q1004 NOSIG=
201402212350 METAR COR EGLL 212350Z 22011KT 9999 FEW024 07/03 Q1004 NOSIG=
201402212320 METAR COR EGLL 212320Z 22010KT 9999 FEW020 07/03 Q1004 NOSIG=
201402212250 METAR COR EGLL 212250Z 21008KT 9999 FEW020 07/04 Q1004 NOSIG=
201402212220 METAR COR EGLL 212220Z 21011KT CAVOK 07/03 Q1004 NOSIG=
201402212150 METAR COR EGLL 212150Z 22010KT CAVOK 07/03 Q1004 NOSIG=
201402212120 METAR COR EGLL 212120Z 22013KT CAVOK 07/03 Q1004 NOSIG=
201402212050 METAR COR EGLL 212050Z 22013KT CAVOK 07/03 Q1004 NOSIG=
201402212020 METAR COR EGLL 212020Z 23014KT CAVOK 07/03 Q1004 NOSIG=
201402211950 METAR COR EGLL 211950Z 22013KT CAVOK 07/02 Q1004 NOSIG=
201402211920 METAR COR EGLL 211920Z 22012KT CAVOK 07/02 Q1004 NOSIG=
201402211850 METAR COR EGLL 211850Z 23014KT 9999 FEW032 08/02 Q1004 NOSIG=
201402211820 METAR EGLL 211820Z 25012KT 9999 BKN036 08/02 Q1004=
201402211750 METAR COR EGLL 211750Z 24012KT 9999 SCT040 08/02 Q1004 NOSIG=
201402211720 METAR EGLL 211720Z 24014KT 9999 FEW040 09/03 Q1004=
201402211650 METAR COR EGLL 211650Z 23015KT 9999 FEW015 SCT041 08/03 Q1004
                        NOSIG=
201402211620 METAR COR EGLL 211620Z 23018KT 9999 SCT048 10/01 Q1003 NOSIG=
201402211550 METAR COR EGLL 211550Z 23015KT 9999 SCT045 10/01 Q1003 NOSIG=
201402211520 METAR COR EGLL 211520Z 24016KT 9999 FEW046 10/01 Q1003 NOSIG=
201402211450 METAR COR EGLL 211450Z 24019KT 9999 SCT046 10/00 Q1003 NOSIG=
201402211420 METAR COR EGLL 211420Z 24018KT 9999 SCT043 10/00 Q1003 NOSIG=
201402211350 METAR COR EGLL 211350Z 25018KT 9999 SCT043 10/01 Q1004 NOSIG=
201402211320 METAR COR EGLL 211320Z 24018G29KT 9999 FEW043 10/01 Q1004
                        NOSIG=
201402211250 METAR COR EGLL 211250Z 24017KT 9999 SCT043 09/00 Q1004 NOSIG=
201402211220 METAR COR EGLL 211220Z 23019G30KT 9999 SCT040 09/01 Q1004
                        NOSIG=
201402211150 METAR COR EGLL 211150Z 24021KT 9999 SCT034 09/01 Q1004 NOSIG=
201402211120 METAR COR EGLL 211120Z 25016KT 9999 FEW034 09/02 Q1005 NOSIG=
201402211050 METAR COR EGLL 211050Z 23016KT 9999 FEW035 09/02 Q1005 NOSIG=
201402211020 METAR COR EGLL 211020Z 24012KT 9999 FEW024 08/02 Q1004 NOSIG=
201402210950 METAR COR EGLL 210950Z 23014KT 9999 FEW020 07/03 Q1004 NOSIG=
201402210920 METAR COR EGLL 210920Z 24011KT CAVOK 06/02 Q1004 NOSIG=
201402210850 METAR COR EGLL 210850Z 23010KT CAVOK 05/02 Q1004 NOSIG=
201402210820 METAR COR EGLL 210820Z 23009KT CAVOK 04/02 Q1004 NOSIG=
201402210750 METAR COR EGLL 210750Z 23010KT CAVOK 04/02 Q1003 NOSIG=
201402210720 METAR COR EGLL 210720Z 23010KT CAVOK 04/02 Q1003 NOSIG=
201402210650 METAR EGLL 210650Z 22009KT CAVOK 04/02 Q1003=
201402210620 METAR COR EGLL 210620Z 22008KT CAVOK 03/01 Q1003 NOSIG=
201402210550 METAR COR EGLL 210550Z 23008KT CAVOK 03/01 Q1003 NOSIG=
201402210520 METAR COR EGLL 210520Z 24007KT 9999 FEW030 04/02 Q1002 NOSIG=
201402210450 METAR COR EGLL 210450Z 25008KT CAVOK 04/02 Q1002 NOSIG=
201402210420 METAR COR EGLL 210420Z 27006KT CAVOK 04/02 Q1002 NOSIG=
201402210350 METAR COR EGLL 210350Z 26008KT CAVOK 04/02 Q1002 NOSIG=
201402210320 METAR EGLL 210320Z 24007KT CAVOK 04/02 Q1002=
201402210250 METAR COR EGLL 210250Z 25006KT CAVOK 05/03 Q1001 NOSIG=
201402210220 METAR EGLL 210220Z AUTO 24007KT 9999 NCD 05/03 Q1001=
201402210150 METAR EGLL 210150Z AUTO 23007KT 9999 FEW040 05/03 Q1001=
201402210120 METAR EGLL 210120Z AUTO 25005KT 9999 NCD 05/03 Q1001=
201402210050 METAR COR EGLL 210050Z 23008KT 9999 SCT044 06/03 Q1001 NOSIG=
201402210020 METAR COR EGLL 210020Z 24006KT 9999 SCT043 05/04 Q1001 NOSIG=
201402202350 METAR COR EGLL 202350Z 23007KT CAVOK 06/04 Q1001 NOSIG=
201402202320 METAR COR EGLL 202320Z 22007KT CAVOK 06/04 Q1001 NOSIG=
201402202250 METAR EGLL 202250Z 22008KT CAVOK 06/04 Q1001=
201402202220 METAR COR EGLL 202220Z 22008KT 9999 FEW044 07/04 Q1001 NOSIG=
201402202150 METAR COR EGLL 202150Z 23010KT 9999 FEW044 07/04 Q1001 NOSIG=
201402202120 METAR COR EGLL 202120Z 22008KT 180V250 9999 SCT040 07/04
                        Q1001 NOSIG=
201402202050 METAR EGLL 202050Z 23008KT 9999 FEW042 07/03 Q1001=
201402202020 METAR COR EGLL 202020Z 24009KT 9999 FEW036 07/04 Q1001 NOSIG=
201402201950 METAR COR EGLL 201950Z 25009KT 9999 FEW033 07/04 Q1000 NOSIG=
201402201920 METAR EGLL 201920Z 25011KT 9999 -SHRA FEW023 SCT032 08/05
                        Q1000=
201402201850 METAR COR EGLL 201850Z 22007KT 9999 FEW035 SCT043 08/05 Q1000
                        NOSIG=
201402201820 METAR COR EGLL 201820Z 23008KT 9999 FEW033 08/05 Q1000 NOSIG=
201402201750 METAR COR EGLL 201750Z 25009KT 9999 FEW038 08/06 Q1000 NOSIG=
201402201720 METAR COR EGLL 201720Z 26012KT 9999 VCSH FEW026 SCT040 08/06
                        Q0999 RESHRA NOSIG=
201402201650 METAR COR EGLL 201650Z 27016KT 9999 SCT031 SCT040 09/05 Q0999
                        NOSIG=
201402201620 METAR COR EGLL 201620Z 28018KT 9999 FEW029 SCT034 12/05 Q0998
                        NOSIG=
201402201550 METAR COR EGLL 201550Z 24017KT 9999 FEW037 12/05 Q0998 TEMPO
                        SHRA=
201402201520 METAR COR EGLL 201520Z 24015KT 9999 SCT043 12/05 Q0998 TEMPO
                        SHRA=
201402201450 METAR COR EGLL 201450Z 26012KT 9999 FEW029 13/06 Q0998 NOSIG=
201402201420 METAR COR EGLL 201420Z 26011KT 9999 FEW034 SCT048 12/08 Q0998
                        NOSIG=
201402201350 METAR COR EGLL 201350Z 27010KT 9999 FEW020 SCT038 11/08 Q0998
                        NOSIG=
201402201320 METAR COR EGLL 201320Z 24011KT 9999 FEW013 SCT020 12/10 Q0998
                        NOSIG=
201402201250 METAR COR EGLL 201250Z 22011KT 190V250 9999 FEW009 BKN013
                        11/10 Q0998 BECMG SCT015=
201402201220 METAR COR EGLL 201220Z 21011KT 180V250 9999 SCT009 BKN013
                        11/10 Q0999 BECMG SCT018=
201402201150 METAR COR EGLL 201150Z 20013KT 170V240 7000 -RA FEW008 BKN012
                        11/10 Q0999 RERA REDZ BECMG SCT018=
201402201120 METAR COR EGLL 201120Z 20014KT 9999 -RA FEW009 BKN011 11/10
                        Q0999 BECMG SCT018=
201402201050 METAR COR EGLL 201050Z 20014KT 170V230 9999 -RA FEW009 BKN011
                        11/10 Q0999 TEMPO 4000 -RADZ BKN009=
201402201020 METAR COR EGLL 201020Z 20013KT 9999 -RA SCT008 BKN011 11/10
                        Q1000 TEMPO 4000 RADZ BKN008=
201402200950 METAR COR EGLL 200950Z 20014KT 170V240 4600 -DZ FEW005 SCT008
                        BKN012 11/10 Q1000 TEMPO RADZ BKN008=
201402200920 METAR COR EGLL 200920Z 20015KT 5000 -DZ FEW006 SCT008 BKN010
                        11/10 Q1000 REDZ TEMPO 4000 RADZ
                        BKN009=
201402200850 METAR COR EGLL 200850Z 20013KT 6000 FEW006 SCT008 BKN010
                        11/09 Q1000 TEMPO RA=
201402200820 METAR COR EGLL 200820Z 20013KT 9999 FEW009 SCT012 BKN020
                        11/09 Q1001 TEMPO BKN010=
201402200750 METAR COR EGLL 200750Z 20013KT 9999 SCT012 BKN020 11/09 Q1001
                        TEMPO BKN012=
201402200720 METAR COR EGLL 200720Z 21011KT 9999 SCT016 BKN020 11/09 Q1001
                        TEMPO BKN012=
201402200650 METAR COR EGLL 200650Z 21011KT 9999 SCT013 BKN020 11/09 Q1001
                        TEMPO BKN013=
201402200620 METAR COR EGLL 200620Z 21010KT 9999 FEW006 BKN008 10/09 Q1002
                        TEMPO SCT008 BKN012=
201402200550 METAR COR EGLL 200550Z 21011G23KT 5000 BR BKN005 10/10 Q1002
                        NOSIG=
201402200520 METAR COR EGLL 200520Z 20012KT 6000 -RA SCT004 BKN006 10/09
                        Q1003 TEMPO 4000 BR BKN004=
201402200450 METAR COR EGLL 200450Z 19012KT 4800 BR SCT004 BKN006 10/09
                        Q1003 TEMPO BKN004=
201402200420 METAR COR EGLL 200420Z 20012KT 6000 FEW003 BKN004 BKN006
                        10/09 Q1003 TEMPO SCT004 BKN006=
201402200350 METAR COR EGLL 200350Z 19013KT 9999 BKN006 10/09 Q1004 TEMPO
                        BKN004=
201402200320 METAR COR EGLL 200320Z 19012KT 9999 BKN006 10/09 Q1005 NOSIG=
201402200250 METAR COR EGLL 200250Z 19013KT 9999 SCT006 BKN011 10/09 Q1005
                        TEMPO BKN006=
201402200220 METAR EGLL 200220Z AUTO 19011KT 9999 BKN006 10/09 Q1006=
201402200150 METAR COR EGLL 200150Z AUTO 19013KT 9999 OVC006 10/09 Q1006
                        NOSIG=
201402200120 METAR EGLL 200120Z AUTO 18011KT 9999 BKN006 10/09 Q1007 REDZ=
201402200050 METAR COR EGLL 200050Z 19011KT 9999 -RA BKN006 10/09 Q1007
                        TEMPO BKN004=
201402200020 METAR COR EGLL 200020Z 19010KT 9999 -RA BKN006 09/08 Q1008
                        TEMPO BKN004=
201402192350 METAR COR EGLL 192350Z 19010KT 9999 -RA BKN006 09/08 Q1009
                        TEMPO BKN004=
201402192320 METAR COR EGLL 192320Z 19010KT 6000 -RA FEW004 BKN006 09/08
                        Q1009 TEMPO 4000 BR BKN004=
201402192250 METAR COR EGLL 192250Z 19011KT 150V240 4600 -RADZ BR BKN004
                        BKN006 09/08 Q1009 TEMPO 5000 FEW004
                        BKN006=
201402192220 METAR COR EGLL 192220Z 18010KT 5000 -RADZ BR SCT004 BKN006
                        09/08 Q1010 NOSIG=
201402192150 METAR COR EGLL 192150Z 19011KT 5000 -RA FEW006 BKN008 09/08
                        Q1010 TEMPO 4000 -DZ=
201402192120 METAR COR EGLL 192120Z 19008KT 9999 BKN009 09/07 Q1011 TEMPO
                        SCT009 BKN012=
201402192050 METAR COR EGLL 192050Z 18008KT 9999 BKN010 09/07 Q1011 TEMPO
                        BKN008=
201402192020 METAR COR EGLL 192020Z 19008KT 150V220 9999 BKN011 09/07
                        Q1011 TEMPO BKN009=
201402191950 METAR COR EGLL 191950Z 20008KT 170V250 9999 BKN013 09/07
                        Q1011 BECMG BKN008=
201402191920 METAR COR EGLL 191920Z 20008KT 9999 BKN017 09/07 Q1011 BECMG
                        BKN012=
201402191850 METAR COR EGLL 191850Z 20008KT 180V260 9999 BKN025 09/07
                        Q1012 NOSIG=
201402191820 METAR COR EGLL 191820Z 19009KT 9999 FEW024 BKN030 09/07 Q1012
                        NOSIG=
201402191750 METAR COR EGLL 191750Z 19008KT 170V260 9999 FEW025 SCT031
                        09/07 Q1012 NOSIG=
201402191720 METAR COR EGLL 191720Z 17006KT 140V200 9999 SCT035 09/07
                        Q1012 NOSIG=
201402191650 METAR COR EGLL 191650Z 19006KT 160V260 9999 FEW022 SCT035
                        09/07 Q1012 NOSIG=
201402191620 METAR COR EGLL 191620Z 21007KT 160V260 9999 SCT022 BKN038
                        09/07 Q1012 NOSIG=
201402191550 METAR COR EGLL 191550Z 21007KT 9999 BKN035 09/07 Q1012 NOSIG=
201402191520 METAR COR EGLL 191520Z 21007KT 9999 FEW027 BKN030 09/07 Q1012
                        NOSIG=
201402191450 METAR COR EGLL 191450Z 24009KT 200V260 9999 FEW013 SCT027
                        BKN033 09/07 Q1012 NOSIG=
201402191420 METAR COR EGLL 191420Z 25012KT 9999 VCSH SCT019 SCT027 10/07
                        Q1012 NOSIG=
201402191350 METAR COR EGLL 191350Z 25012KT 9999 SCT020 SCT040 10/07 Q1013
                        NOSIG=
201402191320 METAR COR EGLL 191320Z 24013KT 9999 SCT019 SCT035 10/07 Q1013
                        NOSIG=
201402191250 METAR COR EGLL 191250Z 26011KT 9999 FEW017 SCT043 10/07 Q1013
                        NOSIG=
201402191220 METAR COR EGLL 191220Z 23010KT 190V260 9999 FEW020 10/07
                        Q1013 NOSIG=
201402191150 METAR COR EGLL 191150Z 24009KT 9999 FEW013 BKN036 09/06 Q1013
                        NOSIG=
201402191120 METAR COR EGLL 191120Z 25009KT 9999 FEW013 BKN039 09/06 Q1013
                        NOSIG=
201402191050 METAR COR EGLL 191050Z 26010KT 210V280 9999 FEW013 BKN046
                        09/06 Q1013 NOSIG=
201402191020 METAR COR EGLL 191020Z 24008KT 9999 FEW013 08/06 Q1012 NOSIG=
201402190950 METAR COR EGLL 190950Z 24008KT 9999 FEW034 08/06 Q1012 NOSIG=
201402190920 METAR COR EGLL 190920Z 23008KT CAVOK 07/06 Q1012 NOSIG=
201402190850 METAR COR EGLL 190850Z 24008KT 9999 FEW034 SCT049 07/06 Q1012
                        NOSIG=
201402190820 METAR COR EGLL 190820Z 25008KT 9999 FEW034 BKN049 06/05 Q1012
                        NOSIG=
201402190750 METAR COR EGLL 190750Z 24007KT CAVOK 05/05 Q1012 NOSIG=
201402190720 METAR COR EGLL 190720Z 21005KT 170V250 CAVOK 05/04 Q1011
                        NOSIG=
201402190650 METAR COR EGLL 190650Z 20005KT 160V240 9999 FEW034 05/04
                        Q1011 TEMPO BKN008=
201402190620 METAR COR EGLL 190620Z 21006KT 180V240 9000 FEW004 BKN049
                        05/04 Q1011 TEMPO BKN008=
201402190550 METAR COR EGLL 190550Z 21004KT 8000 FEW002 BKN048 05/04 Q1011
                        NOSIG=
201402190520 METAR COR EGLL 190520Z 20005KT 150V290 6000 SCT001 SCT038
                        05/04 Q1011 TEMPO 4000 BR BKN001=
201402190450 METAR COR EGLL 190450Z 22005KT 2000 BR FEW001 BKN002 04/04
                        Q1011 TEMPO BKN001=
201402190420 METAR COR EGLL 190420Z 22005KT 0800 R27R/P1500 FG BKN001
                        05/04 Q1011 TEMPO FEW001 BKN003=
201402190350 METAR COR EGLL 190350Z 20007KT 2500 BR BKN005 05/04 Q1010
                        TEMPO BKN003=
201402190320 METAR COR EGLL 190320Z 25006KT 210V290 6000 BKN005 05/04
                        Q1010 TEMPO 4000 BR BKN004=
201402190250 METAR COR EGLL 190250Z 23005KT 180V270 9999 BKN007 06/05
                        Q1011 TEMPO 4000 BR BKN004=
201402190220 METAR EGLL 190220Z AUTO 26008KT 9999 OVC005 06/05 Q1011=
201402190150 METAR EGLL 190150Z AUTO 26008KT 8000 OVC005 06/05 Q1011=
201402190120 METAR EGLL 190120Z AUTO 27007KT 7000 OVC005 06/05 Q1011=
201402190050 METAR COR EGLL 190050Z 26008KT 9999 BKN006 05/04 Q1011 TEMPO
                        4500 BR=
201402190020 METAR COR EGLL 190020Z 26007KT 9999 FEW010 05/04 Q1010 TEMPO
                        BKN006=
201402182350 METAR COR EGLL 182350Z 26005KT 9999 FEW034 05/04 Q1010 TEMPO
                        BKN008=
201402182320 METAR COR EGLL 182320Z 21004KT CAVOK 05/04 Q1010 TEMPO BKN008=
201402182250 METAR COR EGLL 182250Z 23006KT 190V260 CAVOK 06/04 Q1010
                        TEMPO BKN008=
201402182220 METAR COR EGLL 182220Z 25006KT CAVOK 06/05 Q1010 NOSIG=
201402182150 METAR COR EGLL 182150Z 24005KT 9999 FEW040 06/05 Q1010 NOSIG=
201402182120 METAR COR EGLL 182120Z 25008KT 9999 FEW041 07/05 Q1010 NOSIG=
201402182050 METAR COR EGLL 182050Z 23007KT 9999 FEW029 07/05 Q1009 TEMPO
                        4000 BR=
201402182020 METAR COR EGLL 182020Z 23008KT CAVOK 07/06 Q1009 NOSIG=
201402181950 METAR COR EGLL 181950Z 22006KT CAVOK 07/06 Q1009 NOSIG=
201402181920 METAR EGLL 181920Z 22007KT 9999 FEW048 08/06 Q1008=
201402181850 METAR COR EGLL 181850Z 24006KT 9999 FEW047 08/06 Q1008 NOSIG=
201402181820 METAR COR EGLL 181820Z 23006KT 9999 FEW047 08/06 Q1008 NOSIG=
201402181750 METAR COR EGLL 181750Z 21006KT 170V240 9999 FEW043 09/07
                        Q1008 NOSIG=
201402181720 METAR COR EGLL 181720Z 21007KT 9999 FEW043 09/07 Q1008 TEMPO
                        SHRA=
201402181650 METAR COR EGLL 181650Z 21007KT 9999 VCSH FEW030CB SCT039
                        09/07 Q1007 RESHRA TEMPO SHRA=
201402181620 METAR COR EGLL 181620Z 22008KT 9999 VCSH FEW023CB SCT031
                        10/07 Q1007 TEMPO SHRA=
201402181550 METAR COR EGLL 181550Z 22008KT 9999 FEW015CB FEW045 10/08
                        Q1007 TEMPO SHRA=
201402181520 METAR COR EGLL 181520Z 22008KT 9999 FEW044 09/07 Q1007 NOSIG=
201402181450 METAR COR EGLL 181450Z 23011KT 9999 FEW044 10/07 Q1007 NOSIG=
201402181420 METAR COR EGLL 181420Z 21009KT 9999 FEW024 09/07 Q1007 NOSIG=
201402181350 METAR COR EGLL 181350Z 21007KT 170V250 9999 FEW042 09/07
                        Q1008 TEMPO SHRA=
201402181320 METAR COR EGLL 181320Z 24010KT 9999 -SHRA SCT020 SCT027 09/07
                        Q1008 RESHRA TEMPO SHRA=
201402181250 METAR COR EGLL 181250Z 25011KT 9999 5000S -SHRA SCT025 SCT033
                        10/07 Q1008 TEMPO SHRA BKN014CB=
201402181220 METAR COR EGLL 181220Z 22010KT 170V260 9000 3000NE -SHRA
                        SCT010CB SCT025 10/08 Q1008 TEMPO
                        SHRA BKN010=
201402181150 METAR COR EGLL 181150Z 19012KT 140V250 9999 VCSH SCT010CB
                        SCT017 BKN033 10/08 Q1008 TEMPO SHRA
                        BKN010=
201402181120 METAR COR EGLL 181120Z 22007KT 180V260 9999 7000NE -SHRA
                        FEW013 SCT028 BKN033 09/08 Q1009
                        TEMPO SHRA=
201402181050 METAR COR EGLL 181050Z 20008KT 170V250 9999 5000SW -SHRA
                        FEW015 SCT033 09/08 Q1009 TEMPO SHRA=
201402181020 METAR COR EGLL 181020Z 19008KT 150V230 9999 FEW010 SCT032
                        09/08 Q1009 TEMPO SHRA=
201402180950 METAR COR EGLL 180950Z 19008KT 160V250 9999 FEW015 BKN030
                        09/08 Q1009 TEMPO SHRA=
201402180920 METAR COR EGLL 180920Z 18008KT 150V230 9999 SCT034 BKN046
                        09/07 Q1008 TEMPO SHRA=
201402180850 METAR COR EGLL 180850Z 19008KT 170V230 9999 -SHRA FEW015
                        BKN034 09/07 Q1008 TEMPO SHRA=
201402180820 METAR COR EGLL 180820Z 19006KT 140V230 9999 SCT012 BKN016
                        08/07 Q1008 TEMPO SHRA BKN012=
201402180750 METAR COR EGLL 180750Z 18005KT 140V230 9999 FEW009 BKN012
                        08/07 Q1008 TEMPO SHRA=
201402180720 METAR COR EGLL 180720Z 17006KT 150V220 9999 BKN012 08/07
                        Q1008 TEMPO SHRA=
201402180650 METAR COR EGLL 180650Z 16006KT 120V230 9999 BKN012 08/07
                        Q1008 TEMPO SHRA=
201402180620 METAR COR EGLL 180620Z 16006KT 110V220 9999 BKN011 08/07
                        Q1008 TEMPO SHRA=
201402180550 METAR COR EGLL 180550Z 15006KT 9999 BKN014 08/07 Q1008 TEMPO
                        SHRA=
201402180520 METAR COR EGLL 180520Z 15006KT 120V180 9999 FEW010 BKN014
                        08/07 Q1008 TEMPO SHRA=
201402180450 METAR COR EGLL 180450Z 16007KT 110V200 9999 FEW013 08/07
                        Q1008 TEMPO BKN012=
201402180420 METAR COR EGLL 180420Z 17005KT 9999 FEW012 08/07 Q1008 TEMPO
                        BKN008=
201402180350 METAR COR EGLL 180350Z 18006KT 9999 FEW012 BKN014 08/07 Q1008
                        TEMPO BKN008=
201402180320 METAR COR EGLL 180320Z 19006KT 9999 BKN014 08/07 Q1008 NOSIG=
201402180250 METAR COR EGLL 180250Z 19007KT 9999 SCT014 BKN038 08/07 Q1009
                        BECMG BKN014=
201402180220 METAR EGLL 180220Z AUTO 18007KT 9999 SCT018 BKN031 BKN038
                        08/07 Q1009=
201402180150 METAR EGLL 180150Z AUTO 17008KT 9999 -DZ BKN037 08/07 Q1009=
201402180120 METAR EGLL 180120Z AUTO 18009KT 9999 -RA FEW037 BKN042 08/07
                        Q1009 RERA=
201402180050 METAR COR EGLL 180050Z 18011KT 9999 -RA FEW015 BKN045 08/07
                        Q1009 NOSIG=
201402180020 METAR COR EGLL 180020Z 18011KT 9999 -RA BKN044 08/06 Q1009
                        NOSIG=
201402172350 METAR COR EGLL 172350Z 18010KT 9999 -RA FEW015 BKN045 08/06
                        Q1009 TEMPO BKN014=
201402172320 METAR COR EGLL 172320Z 18010KT 9999 -RA FEW015 BKN034 08/06
                        Q1009 TEMPO RA BKN014=
201402172250 METAR COR EGLL 172250Z 18011KT 150V220 9999 -RA FEW015 BKN025
                        08/06 Q1009 TEMPO BKN014=
201402172220 METAR EGLL 172220Z 17009KT 9999 -RA BKN026 08/06 Q1009=
201402172150 METAR COR EGLL 172150Z 17010KT 9999 -RA SCT029 BKN033 08/06
                        Q1009 TEMPO BKN014=
201402172120 METAR COR EGLL 172120Z 18014KT 9999 -RA FEW016 SCT035 BKN040
                        08/06 Q1009 TEMPO BKN014=
201402172050 METAR COR EGLL 172050Z 16012KT 140V200 9999 -RA FEW018 BKN039
                        08/06 Q1009 TEMPO BKN014=
201402172020 METAR COR EGLL 172020Z 17010KT 9999 -RA SCT033 BKN038 09/05
                        Q1009 TEMPO BKN014=
201402171950 METAR COR EGLL 171950Z 17013KT 150V220 9999 -RA BKN035 09/05
                        Q1009 TEMPO BKN014=
201402171920 METAR COR EGLL 171920Z 18013G23KT 9999 -RA SCT036 BKN039
                        09/04 Q1008 REDZ TEMPO BKN012=
201402171850 METAR EGLL 171850Z AUTO 17013KT 100V220 9999 -RA BKN041 10/04
                        Q1008=
201402171820 METAR EGLL 171820Z 17011KT 9999 FEW031 10/04 Q1008=
201402171750 METAR COR EGLL 171750Z 17012KT 110V190 9999 FEW031 09/05
                        Q1008 NOSIG=
201402171720 METAR COR EGLL 171720Z 18013KT 9999 FEW030 09/05 Q1008 NOSIG=
201402171650 METAR COR EGLL 171650Z 18012KT CAVOK 10/05 Q1008 NOSIG=
201402171620 METAR COR EGLL 171620Z 17012KT 150V210 9999 FEW027 10/05
                        Q1008 NOSIG=
201402171550 METAR COR EGLL 171550Z 18014KT 9999 FEW027 10/05 Q1008 NOSIG=
201402171520 METAR COR EGLL 171520Z 17013KT 9999 FEW026 11/05 Q1008 NOSIG=
201402171450 METAR COR EGLL 171450Z 18015KT 9999 FEW030 10/05 Q1008 NOSIG=
201402171420 METAR COR EGLL 171420Z 19013KT 150V230 9999 FEW023 10/05
                        Q1008 NOSIG=
201402171350 METAR EGLL 171350Z AUTO 19013KT 160V230 9999 NCD 10/06 Q1008=
201402171320 METAR COR EGLL 171320Z 19013KT 150V240 9999 FEW027 10/06
                        Q1008 NOSIG=
201402171250 METAR COR EGLL 171250Z 19011KT 160V230 9999 FEW027 BKN048
                        10/06 Q1008 NOSIG=
201402171220 METAR EGLL 171220Z 19011KT 160V250 9999 BKN048 10/06 Q1008=
201402171150 METAR COR EGLL 171150Z 20013KT 9999 FEW020 SCT030 BKN041
                        10/06 Q1008 NOSIG=
201402171120 METAR COR EGLL 171120Z 19013KT 160V240 9999 FEW018 BKN022
                        10/07 Q1008 NOSIG=
201402171050 METAR COR EGLL 171050Z 19011G21KT 170V240 9999 -RA SCT017
                        BKN022 10/07 Q1008 NOSIG=
201402171020 METAR COR EGLL 171020Z 19011KT 160V230 9999 FEW015 09/07
                        Q1008 NOSIG=
201402170950 METAR COR EGLL 170950Z 19012KT 160V240 9999 SCT025 BKN041
                        09/07 Q1008 NOSIG=
201402170920 METAR COR EGLL 170920Z 19012KT 9999 -RA FEW012 SCT035 09/07
                        Q1007 NOSIG=
201402170850 METAR COR EGLL 170850Z 19009KT 170V240 9999 FEW011 08/07
                        Q1007 NOSIG=
201402170820 METAR COR EGLL 170820Z 16006KT 120V200 9999 BKN014 07/06
                        Q1007 TEMPO SCT014 BKN022=
201402170750 METAR COR EGLL 170750Z VRB07KT 9999 SCT016 BKN020 07/06 Q1007
                        TEMPO BKN014=
201402170720 METAR COR EGLL 170720Z 15006KT 120V190 9999 SCT014 BKN018
                        06/06 Q1007 TEMPO BKN012=
201402170650 METAR COR EGLL 170650Z 14007KT 120V210 9999 BKN013 05/05
                        Q1006 NOSIG=
201402170620 METAR COR EGLL 170620Z 13007KT 070V170 9999 FEW011 04/04
                        Q1006 NOSIG=
201402170550 METAR COR EGLL 170550Z 13007KT 090V200 9999 FEW011 05/04
                        Q1006 NOSIG=
201402170520 METAR COR EGLL 170520Z 14006KT 9000 NSC 05/04 Q1006 NOSIG=
201402170450 METAR COR EGLL 170450Z 14006KT 080V190 8000 NSC 05/04 Q1006
                        NOSIG=
201402170420 METAR COR EGLL 170420Z 14005KT 6000 NSC 04/03 Q1006 NOSIG=
201402170350 METAR COR EGLL 170350Z 14004KT 6000 NSC 04/03 Q1006 NOSIG=
201402170320 METAR COR EGLL 170320Z 15005KT 6000 NSC 04/04 Q1006 NOSIG=
201402170250 METAR COR EGLL 170250Z 16003KT 6000 NSC 04/03 Q1006 NOSIG=
201402170220 METAR EGLL 170220Z AUTO 17004KT 5000 NCD 04/04 Q1006=
201402170150 METAR EGLL 170150Z AUTO 18004KT 6000 NCD 05/04 Q1006=
201402170120 METAR EGLL 170120Z AUTO 18004KT 5000 NCD 04/04 Q1006=
201402170050 METAR COR EGLL 170050Z 15004KT 6000 NSC 04/04 Q1006 NOSIG=
201402170020 METAR COR EGLL 170020Z 16004KT 6000 NSC 04/04 Q1007 NOSIG=
201402162350 METAR COR EGLL 162350Z 15004KT 7000 NSC 04/04 Q1007 NOSIG=
201402162320 METAR COR EGLL 162320Z 14004KT 100V200 7000 NSC 05/04 Q1007
                        NOSIG=
201402162250 METAR COR EGLL 162250Z 16005KT 120V250 7000 NSC 05/04 Q1007
                        NOSIG=
201402162220 METAR COR EGLL 162220Z 17004KT 140V260 7000 NSC 04/03 Q1007
                        NOSIG=
201402162150 METAR COR EGLL 162150Z 20005KT 150V250 7000 NSC 04/03 Q1007
                        NOSIG=
201402162120 METAR COR EGLL 162120Z 20006KT 150V250 8000 NSC 05/04 Q1007
                        NOSIG=
201402162050 METAR COR EGLL 162050Z 21006KT 9000 NSC 06/04 Q1007 NOSIG=
201402162020 METAR COR EGLL 162020Z 21005KT 180V240 9000 NSC 06/04 Q1007
                        NOSIG=
201402161950 METAR COR EGLL 161950Z 19007KT 160V230 CAVOK 06/04 Q1007
                        NOSIG=
201402161920 METAR COR EGLL 161920Z 18009KT 150V240 CAVOK 06/04 Q1007
                        NOSIG=
201402161850 METAR COR EGLL 161850Z 18007KT 150V230 CAVOK 07/03 Q1007
                        NOSIG=
201402161820 METAR COR EGLL 161820Z 18008KT 140V230 CAVOK 07/03 Q1007
                        NOSIG=
201402161750 METAR COR EGLL 161750Z 20009KT 170V240 9999 FEW048 08/03
                        Q1007 NOSIG=
201402161720 METAR COR EGLL 161720Z 20007KT 170V260 9999 FEW047 08/02
                        Q1007 NOSIG=
201402161650 METAR EGLL 161650Z 22008KT 9999 FEW036 09/01 Q1007=
201402161620 METAR COR EGLL 161620Z 20010KT 180V250 9999 FEW040 10/01
                        Q1007 NOSIG=
201402161550 METAR COR EGLL 161550Z 21010KT 170V250 9999 FEW045 10/M01
                        Q1007 NOSIG=
201402161520 METAR COR EGLL 161520Z 23011KT 190V260 9999 SCT043 10/01
                        Q1007 NOSIG=
201402161450 METAR COR EGLL 161450Z 23009KT 9999 SCT040 10/01 Q1007 NOSIG=
201402161420 METAR COR EGLL 161420Z 23010KT 9999 SCT038 10/01 Q1008 NOSIG=
201402161350 METAR COR EGLL 161350Z 25011KT 9999 FEW041 10/01 Q1008 NOSIG=
201402161320 METAR COR EGLL 161320Z 25010KT 200V280 9999 FEW037 10/01
                        Q1008 NOSIG=
201402161250 METAR COR EGLL 161250Z 25010KT 9999 FEW036 10/01 Q1008 NOSIG=
201402161220 METAR COR EGLL 161220Z 25009KT 9999 FEW036 10/01 Q1009 NOSIG=
201402161150 METAR COR EGLL 161150Z 25010KT 9999 FEW032 09/M00 Q1009 NOSIG=
201402161120 METAR COR EGLL 161120Z 26009KT 230V290 9999 FEW024 09/01
                        Q1009 NOSIG=
201402161050 METAR COR EGLL 161050Z 24008KT 9999 FEW024 08/02 Q1009 NOSIG=
201402161020 METAR COR EGLL 161020Z 24008KT 9999 FEW020 07/03 Q1008 NOSIG=
201402160950 METAR COR EGLL 160950Z 25007KT CAVOK 05/02 Q1008 NOSIG=
201402160920 METAR COR EGLL 160920Z 24008KT CAVOK 04/02 Q1008 NOSIG=
201402160850 METAR COR EGLL 160850Z 23008KT CAVOK 04/02 Q1008 NOSIG=
201402160820 METAR COR EGLL 160820Z 21006KT 190V250 CAVOK 03/01 Q1008
                        NOSIG=
201402160750 METAR COR EGLL 160750Z 22007KT 190V260 CAVOK 02/01 Q1007
                        NOSIG=
201402160720 METAR COR EGLL 160720Z 26007KT CAVOK 03/01 Q1007 NOSIG=
201402160650 METAR COR EGLL 160650Z 28006KT CAVOK 04/01 Q1006 NOSIG=
201402160620 METAR COR EGLL 160620Z 25007KT CAVOK 03/01 Q1006 NOSIG=
201402160550 METAR COR EGLL 160550Z 25007KT CAVOK 04/01 Q1006 NOSIG=
201402160520 METAR EGLL 160520Z 25009KT CAVOK 04/01 Q1006=
201402160450 METAR COR EGLL 160450Z 25009KT CAVOK 04/01 Q1005=
201402160420 METAR COR EGLL 160420Z 26010KT CAVOK 04/01 Q1005 NOSIG=
201402160350 METAR COR EGLL 160350Z 27007KT CAVOK 05/02 Q1005 NOSIG=
201402160320 METAR EGLL 160320Z 27007KT CAVOK 05/02 Q1005=
201402160250 METAR COR EGLL 160250Z 25011KT CAVOK 05/02 Q1004 NOSIG=
201402160220 METAR EGLL 160220Z AUTO 26009KT 9999 NCD 05/02 Q1004=
201402160150 METAR EGLL 160150Z AUTO 25009KT 9999 NCD 05/02 Q1004=
201402160120 METAR EGLL 160120Z AUTO 25010KT 9999 NCD 05/02 Q1003=
201402160050 METAR EGLL 160050Z 25009KT CAVOK 05/03 Q1003=
201402160020 METAR COR EGLL 160020Z 25009KT CAVOK 05/03 Q1002 NOSIG=
201402152350 METAR COR EGLL 152350Z 25010KT CAVOK 05/03 Q1002 NOSIG=
201402152320 METAR COR EGLL 152320Z 24010KT CAVOK 05/03 Q1002 NOSIG=
201402152250 METAR COR EGLL 152250Z 24010KT CAVOK 06/03 Q1001 NOSIG=
201402152220 METAR COR EGLL 152220Z 25011KT CAVOK 06/03 Q1001 NOSIG=
201402152150 METAR COR EGLL 152150Z 25012KT CAVOK 06/03 Q1000 NOSIG=
201402152120 METAR COR EGLL 152120Z 25013KT CAVOK 07/03 Q0999 NOSIG=
201402152050 METAR COR EGLL 152050Z 25013KT CAVOK 08/03 Q0999 NOSIG=
201402152020 METAR COR EGLL 152020Z 25013KT CAVOK 07/03 Q0998 NOSIG=
201402151950 METAR COR EGLL 151950Z 25015KT 9999 SCT041 08/03 Q0998 NOSIG=
201402151920 METAR COR EGLL 151920Z 25013KT 9999 SCT042 08/03 Q0997 NOSIG=
201402151850 METAR COR EGLL 151850Z 25015KT 9999 SCT045 08/03 Q0997 NOSIG=
201402151820 METAR COR EGLL 151820Z 24015KT 9999 BKN047 08/03 Q0996 NOSIG=
201402151750 METAR COR EGLL 151750Z 25016KT 9999 SCT047 08/03 Q0995 NOSIG=
201402151720 METAR COR EGLL 151720Z 24018KT 9999 FEW030 SCT047 08/04 Q0994
                        NOSIG=
201402151650 METAR COR EGLL 151650Z 25018KT 9999 FEW029 09/03 Q0994 NOSIG=
201402151620 METAR COR EGLL 151620Z 25019KT 9999 FEW027 09/03 Q0993 NOSIG=
201402151550 METAR COR EGLL 151550Z 25021KT 9999 FEW025 SCT030 09/03 Q0992
                        NOSIG=
201402151520 METAR COR EGLL 151520Z 25022G33KT 9999 FEW025 FEW032CB 09/03
                        Q0992 TEMPO SHRA=
201402151450 METAR COR EGLL 151450Z 25021KT 9999 FEW020 SCT032CB 09/04
                        Q0991 TEMPO SHRA=
201402151420 METAR COR EGLL 151420Z 25027G38KT 9999 VCSH SCT033CB SCT040
                        10/04 Q0990 TEMPO SHRA=
201402151350 METAR COR EGLL 151350Z 24020KT 9999 FEW025 SCT040CB 10/04
                        Q0990 TEMPO SHRA=
201402151320 METAR COR EGLL 151320Z 23020KT 9999 FEW025 SCT035 10/05 Q0989
                        TEMPO SHRA=
201402151250 METAR COR EGLL 151250Z 24022G33KT 9999 7000SE VCSH FEW025
                        SCT035 08/05 Q0989 TEMPO SHRA=
201402151220 METAR COR EGLL 151220Z 24022G37KT 9999 8000E -SHRA FEW028
                        SCT032 09/05 Q0989 RESHRA TEMPO SHRA=
201402151150 METAR COR EGLL 151150Z 24025G35KT 9999 VCSH SCT031 10/04
                        Q0988 TEMPO SHRA=
201402151120 METAR COR EGLL 151120Z 23024KT 9999 VCSH FEW031 BKN041 10/04
                        Q0988 TEMPO SHRA=
201402151050 METAR COR EGLL 151050Z 23027G40KT 9999 FEW032 SCT040 09/04
                        Q0988 TEMPO SHRA=
201402151020 METAR COR EGLL 151020Z 24027G39KT 9999 FEW032 SCT039 10/03
                        Q0987 NOSIG=
201402150950 METAR COR EGLL 150950Z 23026G41KT 9999 FEW033 SCT038 10/03
                        Q0987 TEMPO SHRA=
201402150920 METAR COR EGLL 150920Z 23024KT 9999 FEW033 SCT036 09/03 Q0986=
201402150850 METAR COR EGLL 150850Z 23025G37KT 9999 FEW033 BKN039 09/03
                        Q0986 TEMPO SHRA=
201402150820 METAR COR EGLL 150820Z 23026KT 9999 FEW034 SCT036 09/03 Q0985
                        TEMPO SHRA=
201402150750 METAR COR EGLL 150750Z 23025KT 9999 FEW036 BKN044 09/03 Q0985
                        TEMPO SHRA=
201402150720 METAR COR EGLL 150720Z 23024G34KT 9999 FEW035 BKN042 09/02
                        Q0984 TEMPO SHRA=
201402150650 METAR COR EGLL 150650Z 22024KT 9999 FEW035 BKN040 09/03 Q0983
                        TEMPO SHRA=
201402150620 METAR COR EGLL 150620Z 23024G36KT 9999 SCT034 BKN039 09/03
                        Q0983 TEMPO SHRA=
201402150550 METAR COR EGLL 150550Z 23024G35KT 9999 BKN035 09/03 Q0982
                        TEMPO SHRA=
201402150520 METAR COR EGLL 150520Z 23027G40KT 9999 SCT033 BKN041 09/03
                        Q0982 TEMPO SHRA=
201402150450 METAR COR EGLL 150450Z 22026G38KT 9999 SCT032 BKN043 09/03
                        Q0981 NOSIG=
201402150420 METAR COR EGLL 150420Z 23025G38KT 9999 SCT035 SCT042 09/03
                        Q0981 TEMPO SHRA=
201402150350 METAR COR EGLL 150350Z 23028G39KT 9999 SCT036 SCT042 09/03
                        Q0980 TEMPO SHRA=
201402150320 METAR COR EGLL 150320Z 22026G44KT 9999 SCT036 SCT043 09/03
                        Q0979 TEMPO SHRA=
201402150250 METAR COR EGLL 150250Z 22024G40KT 9000 SCT031 SCT048 08/04
                        Q0979 REDZ TEMPO SHRA=
201402150220 METAR EGLL 150220Z AUTO 22025G38KT 9999 FEW033 SCT041 BKN049
                        09/03 Q0979=
201402150150 METAR EGLL 150150Z AUTO 22028G41KT 9999 BKN033 09/03 Q0979=
201402150120 METAR EGLL 150120Z AUTO 22028G46KT 9999 SCT032 09/03 Q0978=
201402150050 METAR COR EGLL 150050Z 23031G41KT 9999 SCT034 SCT041 09/03
                        Q0978 NOSIG=
201402150020 METAR COR EGLL 150020Z 22028G41KT 9000 FEW029 SCT034 10/04
                        Q0977 TEMPO SHRA BKN014=
201402142350 METAR COR EGLL 142350Z 22032G46KT 9000 FEW029 BKN038 10/04
                        Q0977 TEMPO SHRA BKN014=
201402142320 METAR COR EGLL 142320Z 22034G49KT 9000 -SHRA FEW028 BKN031
                        10/04 Q0976 TEMPO SHRA BKN014=
201402142250 METAR COR EGLL 142250Z 22030G48KT 9999 FEW025 BKN033 10/05
                        Q0975 TEMPO SHRA BKN012=
201402142220 METAR COR EGLL 142220Z 21031G45KT 9999 BKN032 10/05 Q0975
                        TEMPO 21034G55KT 4000 SHRA BKN014=
201402142150 METAR COR EGLL 142150Z 20029G41KT 8000 FEW020 BKN032 10/06
                        Q0975 RESHRA TEMPO 4000 SHRA BKN014=
201402142120 METAR COR EGLL 142120Z 19028G39KT 9999 6000S -RA SCT026 BKN033
                        10/07 Q0976 TEMPO 4000 SHRA BKN014CB=
201402142050 METAR COR EGLL 142050Z 20024G34KT 9999 -RA BKN022 10/07 Q0977
                        RERA TEMPO 20028G45KT 4000 SHRA BKN014CB=
201402142020 METAR COR EGLL 142020Z 19027G39KT 8000 RA FEW025 BKN036 11/07
                        Q0977 RERA TEMPO 19028G48KT 4000
                        SHRA BKN014CB=
201402141950 METAR COR EGLL 141950Z 20031G43KT 9999 -RA BKN032 11/06 Q0977
                        TEMPO 4000 +RA BKN014CB=
201402141920 METAR COR EGLL 141920Z 20027G42KT 9999 SCT035 12/06 Q0978
                        TEMPO 4000 +RA BKN014CB=
201402141850 METAR COR EGLL 141850Z 20028G42KT 9999 FEW029 SCT035 12/08
                        Q0979 TEMPO 4500 +SHRA BKN014CB=
201402141820 METAR COR EGLL 141820Z 20025G36KT 9999 -RA FEW014CB SCT027
                        SCT033 12/09 Q0979 TEMPO 4000 +SHRA
                        BKN012CB=
201402141750 METAR COR EGLL 141750Z 19019KT 9999 -RA FEW014 BKN019CB 11/10
                        Q0979 RERA TEMPO 4000 +SHRA BKN014CB=
201402141720 METAR EGLL 141720Z 20022KT 5000 -RADZ BKN023CB 12/09 Q0980=
201402141650 METAR COR EGLL 141650Z 19023G34KT 9999 -RA SCT017 SCT026
                        12/09 Q0980 RERA TEMPO 4500 SHRA
                        BKN012=
201402141620 METAR COR EGLL 141620Z 18021G32KT 160V230 9999 SCT016 BKN023
                        12/09 Q0981 TEMPO 21024G43KT 4500
                        +SHRA BKN012=
201402141550 METAR COR EGLL 141550Z 18019G30KT 160V220 9999 SCT014 BKN017
                        11/09 Q0982 TEMPO SHRA BKN014=
201402141520 METAR EGLL 141520Z 18013KT 9999 -RA BKN010 10/09 Q0984=
201402141450 METAR COR EGLL 141450Z 15012KT 9999 -RA FEW006 BKN018 08/07
                        Q0984 RERA TEMPO BKN012=
201402141420 METAR COR EGLL 141420Z 13011KT 8000 RA FEW005 BKN006 07/06
                        Q0986 REDZ BECMG NSW SCT008 BKN014=
201402141350 METAR COR EGLL 141350Z 14012KT 6000 RADZ SCT007 BKN009 06/05
                        Q0987 TEMPO 4500 +RA=
201402141320 METAR COR EGLL 141320Z 14016KT 9999 -RA BKN010 06/05 Q0988
                        TEMPO 4500 RA BKN009=
201402141250 METAR COR EGLL 141250Z 14014KT 9999 -RA FEW009 BKN012 06/04
                        Q0989 TEMPO 4500 RA BKN009=
201402141220 METAR COR EGLL 141220Z 14018G28KT 9999 -RA SCT010 BKN016
                        05/04 Q0990 BECMG 4500 RA BKN010=
201402141150 METAR EGLL 141150Z 14017G27KT 9999 -RA SCT012 BKN016 05/03
                        Q0992=
201402141120 METAR COR EGLL 141120Z 14018KT 9999 -RA SCT013 BKN019 05/03
                        Q0992 BECMG 4500RA BKN012=
201402141050 METAR COR EGLL 141050Z 14015KT 9999 -RA BKN014 05/03 Q0994
                        TEMPO 45400 RA BKN009=
201402141020 METAR COR EGLL 141020Z 14017KT 9999 -RA SCT012 BKN017 05/03
                        Q0994 BECMG RA BKN010=
201402140950 METAR COR EGLL 140950Z 15013KT 9999 -RA SCT013 BKN020 05/03
                        Q0995 BECMG RA BKN010=
201402140920 METAR COR EGLL 140920Z 15010KT 9999 -RA SCT015 BKN020 05/03
                        Q0996 BECMG RA BKN012=
201402140850 METAR COR EGLL 140850Z 18013KT 9999 -RA FEW015 BKN022 05/03
                        Q0997 BECMG RA BKN012=
201402140820 METAR COR EGLL 140820Z 20016KT 9999 -RA SCT037 06/03 Q0997
                        BECMG RA BKN012=
201402140750 METAR COR EGLL 140750Z 18010KT 9999 FEW020 06/03 Q0997 BECMG
                        RA BKN014=
201402140720 METAR COR EGLL 140720Z 15008KT 9999 FEW044 05/03 Q0998 BECMG
                        RA BKN014=
201402140650 METAR COR EGLL 140650Z 17009KT 9999 FEW044 05/03 Q0998 BECMG
                        RA=
201402140620 METAR COR EGLL 140620Z 16007KT CAVOK 04/02 Q0999 TEMPO RA=
201402140550 METAR COR EGLL 140550Z 17005KT CAVOK 04/02 Q0999 NOSIG=
201402140520 METAR COR EGLL 140520Z 18006KT CAVOK 04/02 Q0999 NOSIG=
201402140450 METAR COR EGLL 140450Z 17005KT CAVOK 04/02 Q0999 NOSIG=
201402140420 METAR COR EGLL 140420Z 18006KT CAVOK 04/01 Q0999 NOSIG=
201402140350 METAR COR EGLL 140350Z 18004KT CAVOK 04/01 Q0999 NOSIG=
201402140320 METAR COR EGLL 140320Z 17003KT CAVOK 03/01 Q0999 NOSIG=
201402140250 METAR COR EGLL 140250Z 20006KT CAVOK 03/01 Q0999 NOSIG=
201402140220 METAR EGLL 140220Z AUTO 21008KT 9999 NCD 04/01 Q1000=
201402140150 METAR EGLL 140150Z AUTO 21008KT 9999 NCD 04/01 Q1000=
201402140120 METAR EGLL 140120Z AUTO 21009KT 9999 NCD 04/00 Q1000=
201402140050 METAR EGLL 140050Z 22010KT CAVOK 04/00 Q1000=
201402140020 METAR COR EGLL 140020Z 21007KT CAVOK 04/00 Q1000 NOSIG=
201402132350 METAR COR EGLL 132350Z 23010KT CAVOK 04/00 Q1000 NOSIG=
201402132320 METAR COR EGLL 132320Z 22008KT CAVOK 04/00 Q1000 NOSIG=
201402132250 METAR COR EGLL 132250Z 23009G19KT CAVOK 04/M00 Q1000 NOSIG=
201402132220 METAR COR EGLL 132220Z 23012KT CAVOK 04/00 Q0999 NOSIG=
201402132150 METAR COR EGLL 132150Z 23012KT CAVOK 04/00 Q0999 NOSIG=
201402132120 METAR COR EGLL 132120Z 25013KT CAVOK 05/00 Q0999 NOSIG=
201402132050 METAR COR EGLL 132050Z 23012KT CAVOK 05/00 Q0998 NOSIG=
201402132020 METAR COR EGLL 132020Z 23010KT 9999 FEW040 05/00 Q0998 NOSIG=
201402131950 METAR COR EGLL 131950Z 25012KT 9999 FEW030 05/00 Q0998 NOSIG=
201402131920 METAR COR EGLL 131920Z 25014G24KT 9999 FEW040 05/00 Q0997
                        NOSIG=
201402131850 METAR COR EGLL 131850Z 24013KT 9999 FEW040 06/00 Q0997 NOSIG=
201402131820 METAR COR EGLL 131820Z 24014KT 9999 FEW040 06/00 Q0996 NOSIG=
201402131750 METAR COR EGLL 131750Z 24012KT 9999 FEW046 07/M00 Q0996 NOSIG=
201402131720 METAR EGLL 131720Z 25013KT 9999 FEW028 07/M00 Q0995=
201402131650 METAR COR EGLL 131650Z 25016KT 9999 FEW028 07/M00 Q0995 NOSIG=
201402131620 METAR COR EGLL 131620Z 25017KT 9999 SCT038 08/M00 Q0994 NOSIG=
201402131550 METAR EGLL 131550Z 26016KT 9999 SCT034 07/00 Q0994=
201402131520 METAR COR EGLL 131520Z 27017KT 9999 FEW041 07/M00 Q0993 NOSIG=
201402131450 METAR COR EGLL 131450Z 26018KT 9999 FEW032 07/M00 Q0992 NOSIG=
201402131420 METAR COR EGLL 131420Z 27019KT 9999 FEW030 07/00 Q0992 NOSIG=
201402131350 METAR COR EGLL 131350Z 25017KT 9999 SCT032 07/00 Q0992 NOSIG=
201402131320 METAR COR EGLL 131320Z 27020KT 9999 SCT032 SCT037 08/01 Q0991
                        NOSIG=
201402131250 METAR COR EGLL 131250Z 26016G26KT 9999 FEW032 08/01 Q0991
                        NOSIG=
201402131220 METAR COR EGLL 131220Z 26016KT 9999 FEW032 08/01 Q0990 NOSIG=
201402131150 METAR COR EGLL 131150Z 27015KT 9999 FEW027 07/02 Q0990 NOSIG=
201402131120 METAR COR EGLL 131120Z 25015KT 9999 FEW027 SCT032 07/01 Q0989
                        NOSIG=
201402131050 METAR COR EGLL 131050Z 25012KT 9999 FEW022 SCT026 07/02 Q0989
                        NOSIG=
201402131020 METAR EGLL 131020Z 23011KT 9999 FEW026 07/02 Q0989=
201402130950 METAR COR EGLL 130950Z 23010KT 9999 FEW023 07/02 Q0989 NOSIG=
201402130920 METAR COR EGLL 130920Z 22008KT 9999 FEW023 06/02 Q0989 NOSIG=
201402130850 METAR COR EGLL 130850Z 21006KT 180V240 CAVOK 05/02 Q0989
                        NOSIG=
201402130820 METAR COR EGLL 130820Z 21008KT 9999 FEW025 05/02 Q0989 NOSIG=
201402130750 METAR COR EGLL 130750Z 21008KT 9999 FEW030 06/01 Q0989 NOSIG=
201402130720 METAR COR EGLL 130720Z 22006KT 190V250 9999 FEW030 SCT048
                        05/01 Q0989 NOSIG=
201402130650 METAR COR EGLL 130650Z 21006KT 170V240 CAVOK 05/01 Q0989
                        NOSIG=
201402130620 METAR COR EGLL 130620Z 20007KT 180V250 CAVOK 05/01 Q0989
                        NOSIG=
201402130550 METAR COR EGLL 130550Z 20007KT 170V250 CAVOK 05/01 Q0989
                        NOSIG=
201402130520 METAR COR EGLL 130520Z 21007KT 9999 FEW041 04/01 Q0989 NOSIG=
201402130450 METAR COR EGLL 130450Z 21007KT CAVOK 04/00 Q0990 NOSIG=
201402130420 METAR COR EGLL 130420Z 21009KT CAVOK 04/00 Q0990 NOSIG=
201402130350 METAR EGLL 130350Z 22012KT CAVOK 04/M00 Q0990=
201402130320 METAR EGLL 130320Z 23014KT CAVOK 04/M00 Q0990=
201402130250 METAR COR EGLL 130250Z 23015KT CAVOK 05/M00 Q0990 NOSIG=
201402130220 METAR EGLL 130220Z AUTO 23016KT 9999 NCD 05/M01 Q0991=
201402130150 METAR EGLL 130150Z AUTO 24017KT 9999 NCD 05/M00 Q0991=
201402130120 METAR EGLL 130120Z AUTO 24018KT 9999 NCD 05/M00 Q0991=
201402130050 METAR COR EGLL 130050Z 23020KT CAVOK 05/M00 Q0990 NOSIG=
201402130020 METAR COR EGLL 130020Z 24018KT CAVOK 05/M01 Q0990 NOSIG=
201402122350 METAR COR EGLL 122350Z 24021KT CAVOK 06/M01 Q0990 NOSIG=
201402122320 METAR COR EGLL 122320Z 24020KT CAVOK 06/M00 Q0989 NOSIG=
201402122250 METAR COR EGLL 122250Z 23018KT CAVOK 06/00 Q0989 NOSIG=
201402122220 METAR COR EGLL 122220Z 23017G28KT 9999 FEW033 06/01 Q0989
                        TEMPO SHRAGS=
201402122150 METAR COR EGLL 122150Z 23018KT 9999 FEW036 06/01 Q0989 NOSIG=
201402122120 METAR COR EGLL 122120Z 23021KT 9999 FEW036 06/01 Q0989 NOSIG=
201402122050 METAR COR EGLL 122050Z 23021KT 9999 SCT036 07/M00 Q0988 TEMPO
                        SHRA=
201402122020 METAR COR EGLL 122020Z 22013KT 9999 FEW040 06/02 Q0987 TEMPO
                        SHRA=
201402121950 METAR EGLL 121950Z 22013KT 9999 FEW039 06/02 Q0988=
201402121920 METAR EGLL 121920Z 23023KT 9999 FEW042CB 08/02 Q0987=
201402121850 METAR COR EGLL 121850Z 22018KT 9999 FEW038CB 08/02 Q0987
                        TEMPO SHRAGS=
201402121820 METAR COR EGLL 121820Z 22019KT 9999 FEW038 08/02 Q0986 TEMPO
                        SHRAGS=
201402121750 METAR COR EGLL 121750Z 22016KT CAVOK 08/03 Q0986 TEMPO SHRAGS=
201402121720 METAR COR EGLL 121720Z 22017KT 190V250 9999 FEW024 08/03
                        Q0986 NOSIG=
201402121650 METAR COR EGLL 121650Z 23021KT 9999 FEW024 08/02 Q0986 NOSIG=
201402121620 METAR COR EGLL 121620Z 22022G32KT 9999 FEW039 08/02 Q0985
                        TEMPO SHRA=
201402121550 METAR EGLL 121550Z 22017G27KT 9999 7000S VCSH FEW012CB SCT019
                        09/05 Q0985=
201402121520 METAR EGLL 121520Z 21018KT 9999 5000NE -RA VCTS FEW013CB
                        SCT019 SCT022 08/06 Q0985 RESHGS
                        RERA=
201402121450 METAR COR EGLL 121450Z 20024G39KT 8000 -RA SCT019 BKN022
                        08/06 Q0986 RERA BECMG 23018G33KT=
201402121420 METAR COR EGLL 121420Z 19023G33KT 6000 RA SCT018 BKN023 07/05
                        Q0986 TEMPO 4000 +RA BKN014=
201402121350 METAR COR EGLL 121350Z 19027G39KT 6000 RA FEW014 BKN017 BKN021
                        06/05 Q0987 TEMPO 4000 +RA BKN014=
201402121320 METAR COR EGLL 121320Z 19028G41KT 5000 RA HZ FEW014 SCT020
                        BKN023 07/05 Q0988 TEMPO 4000 +RA
                        BKN014=
201402121250 METAR COR EGLL 121250Z 19025G40KT 170V240 8000 -RA SCT021
                        BKN026 08/05 Q0989 TEMPO 4000 +RA
                        BKN014=
201402121220 METAR COR EGLL 121220Z 18023G34KT 160V230 9999 -RA SCT023
                        BKN030 08/04 Q0990 TEMPO 20028G44KT
                        RA BKN014=
201402121150 METAR COR EGLL 121150Z 19024KT 9999 -RA SCT025 BKN030 08/04
                        Q0992 TEMPO RA BKN014=
201402121120 METAR COR EGLL 121120Z 19021G31KT 160V230 9999 SCT029 BKN033
                        09/04 Q0993 TEMPO RA BKN014=
201402121050 METAR EGLL 121050Z AUTO 19020KT 9999 SCT023 BKN029 08/04
                        Q0994=
201402121020 METAR COR EGLL 121020Z 19021G31KT 9999 SCT020 BKN025 08/04
                        Q0995 TEMPO RA BKN014=
201402120950 METAR COR EGLL 120950Z 19018KT 9999 FEW014 BKN022 08/05 Q0996
                        NOSIG=
201402120920 METAR COR EGLL 120920Z 19017KT 9999 VCSH FEW014 SCT022 07/05
                        Q0997 NOSIG=
201402120850 METAR COR EGLL 120850Z 19015KT 9999 FEW017 07/04 Q0998 NOSIG=
201402120820 METAR COR EGLL 120820Z 19013KT 9999 FEW043 06/04 Q0999 TEMPO
                        19023G33KT=
201402120750 METAR COR EGLL 120750Z 20011KT 9999 FEW048 06/03 Q0999 NOSIG=
201402120720 METAR COR EGLL 120720Z 19011KT 160V250 9999 FEW048 05/03
                        Q1000 NOSIG=
201402120650 METAR COR EGLL 120650Z 18010KT 9999 FEW048 05/02 Q1000 NOSIG=
201402120620 METAR COR EGLL 120620Z 19010KT 9999 FEW046 05/02 Q1001 NOSIG=
201402120550 METAR COR EGLL 120550Z 20011G21KT CAVOK 05/02 Q1001 NOSIG=
201402120520 METAR COR EGLL 120520Z 20010KT CAVOK 05/02 Q1001 NOSIG=
201402120450 METAR COR EGLL 120450Z 21008KT CAVOK 05/01 Q1002 NOSIG=
201402120420 METAR COR EGLL 120420Z 21006KT 9999 FEW022 SCT046 05/01 Q1002
                        NOSIG=
201402120350 METAR COR EGLL 120350Z 23010KT CAVOK 05/01 Q1002 NOSIG=
201402120320 METAR COR EGLL 120320Z 24008KT 9999 SCT047 04/01 Q1003 NOSIG=
201402120250 METAR EGLL 120250Z 22008KT CAVOK 04/01 Q1003=
201402120220 METAR EGLL 120220Z AUTO 21006KT 9999 NCD 03/00 Q1002=
201402120150 METAR EGLL 120150Z AUTO 22008KT 9999 NCD 03/00 Q1002=
201402120120 METAR EGLL 120120Z AUTO 23012KT 9999 NCD 03/M00 Q1002=
201402120050 METAR EGLL 120050Z 23012KT CAVOK 03/M00 Q1002=
201402120020 METAR EGLL 120020Z 23010KT CAVOK 03/00 Q1002=
201402112350 METAR COR EGLL 112350Z 23008KT CAVOK 03/00 Q1002 NOSIG=
201402112320 METAR EGLL 112320Z 23010KT CAVOK 03/00 Q1001=
201402112250 METAR COR EGLL 112250Z 23011KT CAVOK 04/00 Q1001 NOSIG=
201402112220 METAR EGLL 112220Z 25013KT CAVOK 04/00 Q1001=
201402112150 METAR COR EGLL 112150Z 25012KT CAVOK 05/00 Q1000 NOSIG=
201402112120 METAR COR EGLL 112120Z 25014KT CAVOK 05/01 Q1000 NOSIG=
201402112050 METAR COR EGLL 112050Z 25013KT CAVOK 05/01 Q0999 NOSIG=
201402112020 METAR COR EGLL 112020Z 25013KT CAVOK 05/00 Q0999 NOSIG=
201402111950 METAR COR EGLL 111950Z 25012KT CAVOK 06/00 Q0998 NOSIG=
201402111920 METAR COR EGLL 111920Z 22012KT CAVOK 05/01 Q0998 NOSIG=
201402111850 METAR COR EGLL 111850Z 22010KT 190V250 CAVOK 05/00 Q0998
                        TEMPO SHRA=
201402111820 METAR COR EGLL 111820Z 23010KT CAVOK 06/00 Q0998 TEMPO SHRA=
201402111750 METAR COR EGLL 111750Z 24011KT CAVOK 06/M00 Q0997 TEMPO SHRA=
201402111720 METAR COR EGLL 111720Z 25013KT 9999 FEW046 07/M01 Q0997 NOSIG=
201402111650 METAR EGLL 111650Z 25013KT 9999 FEW045 07/M01 Q0996=
201402111620 METAR COR EGLL 111620Z 25013KT 9999 FEW044 08/M01 Q0996 NOSIG=
201402111550 METAR COR EGLL 111550Z 26013KT 9999 FEW046 08/M00 Q0995 NOSIG=
201402111520 METAR COR EGLL 111520Z 26015KT 9999 FEW040 08/M00 Q0995 NOSIG=
201402111450 METAR COR EGLL 111450Z 25018KT 9999 FEW034 SCT041 08/01 Q0994
                        NOSIG=
201402111420 METAR COR EGLL 111420Z 27015KT 9999 FEW030 SCT037 08/02 Q0994
                        NOSIG=
201402111350 METAR EGLL 111350Z 27013KT 9999 SCT029 SCT034 07/02 Q0994=
201402111320 METAR COR EGLL 111320Z 27017KT 9999 SCT026 SCT032 07/03 Q0993
                        NOSIG=
201402111250 METAR COR EGLL 111250Z 28016KT 9999 SCT020 BKN028 07/03 Q0992
                        NOSIG=
201402111220 METAR COR EGLL 111220Z 29016KT 9999 SCT018 SCT022 07/04 Q0991
                        NOSIG=
201402111150 METAR COR EGLL 111150Z 26022KT 9999 SCT015 BKN019 07/04 Q0990
                        RERA NOSIG=
201402111120 METAR COR EGLL 111120Z 21018G31KT 6000 RA FEW014 BKN018 08/06
                        Q0989 TEMPO BKN014=
201402111050 METAR COR EGLL 111050Z 19020KT 9999 -RA FEW012 SCT016 BKN024
                        07/06 Q0989 RERA TEMPO BKN014=
201402111020 METAR COR EGLL 111020Z 18021KT 140V220 9000 RA SCT016 SCT020
                        07/05 Q0989 RERA TEMPO BKN014=
201402110950 METAR COR EGLL 110950Z 18019KT 160V230 9000 -RA SCT018 SCT022
                        BKN026 07/05 Q0990 TEMPO RA BKN014=
201402110920 METAR COR EGLL 110920Z 17016KT 9999 -RA SCT022 SCT038 07/04
                        Q0991 TEMPO RA BKN014=
201402110850 METAR COR EGLL 110850Z 18014KT 150V210 9999 FEW046 07/04
                        Q0992 TEMPO RA BKN014=
201402110820 METAR COR EGLL 110820Z 18016KT 9999 -RA FEW015 SCT024 07/04
                        Q0993 TEMPO RA BKN014=
201402110750 METAR COR EGLL 110750Z 19016KT 9999 -RA FEW018 BKN025 07/04
                        Q0994 NOSIG=
201402110720 METAR COR EGLL 110720Z 18013KT 9999 FEW018 06/04 Q0995 TEMPO
                        RA=
201402110650 METAR COR EGLL 110650Z 18014KT 9999 -RA FEW023 SCT033 06/04
                        Q0995 TEMPO RA=
201402110620 METAR COR EGLL 110620Z 18012KT 150V210 9999 SCT033 06/03
                        Q0996 TEMPO RA=
201402110550 METAR COR EGLL 110550Z 16009KT 130V230 9999 FEW041 04/02
                        Q0997 NOSIG=
201402110520 METAR COR EGLL 110520Z 16007KT 140V200 9999 FEW036 03/01
                        Q0997 NOSIG=
201402110450 METAR COR EGLL 110450Z 16007KT 120V210 CAVOK 03/01 Q0998
                        NOSIG=
201402110420 METAR COR EGLL 110420Z 18005KT CAVOK 03/01 Q0999 NOSIG=
201402110350 METAR COR EGLL 110350Z 20007KT CAVOK 03/01 Q0999 NOSIG=
201402110320 METAR COR EGLL 110320Z 20007KT CAVOK 03/01 Q1000 NOSIG=
201402110250 METAR COR EGLL 110250Z 21008KT CAVOK 03/01 Q1000 NOSIG=
201402110220 METAR EGLL 110220Z AUTO 22008KT 9999 NCD 03/01 Q1001=
201402110150 METAR EGLL 110150Z AUTO 22006KT 9999 NCD 03/01 Q1001=
201402110120 METAR EGLL 110120Z AUTO 22007KT 9999 NCD 03/01 Q1001=
201402110050 METAR COR EGLL 110050Z 21004KT CAVOK 03/01 Q1001 NOSIG=
201402110020 METAR COR EGLL 110020Z 24005KT CAVOK 03/01 Q1001 NOSIG=
201402102350 METAR COR EGLL 102350Z 25006KT CAVOK 04/01 Q1001 NOSIG=
201402102320 METAR COR EGLL 102320Z 25007KT CAVOK 04/01 Q1000 NOSIG=
201402102250 METAR COR EGLL 102250Z 25009KT CAVOK 04/01 Q1000 NOSIG=
201402102220 METAR COR EGLL 102220Z 27010KT CAVOK 03/01 Q1000 NOSIG=
201402102150 METAR COR EGLL 102150Z 27011KT CAVOK 04/01 Q1000 NOSIG=
201402102120 METAR COR EGLL 102120Z 27009KT 9999 FEW032 04/01 Q0999 NOSIG=
201402102050 METAR COR EGLL 102050Z 28009KT 9999 SCT025 SCT032 04/01 Q0999
                        NOSIG=
201402102020 METAR COR EGLL 102020Z 29007KT 9999 SCT023 SCT027 05/01 Q0998
                        NOSIG=
201402101950 METAR COR EGLL 101950Z 29014KT 9999 BKN025 06/01 Q0998 NOSIG=
201402101920 METAR COR EGLL 101920Z 29011KT 9999 FEW022 SCT025 06/02 Q0997
                        NOSIG=
201402101850 METAR COR EGLL 101850Z 30010KT 9999 SCT021 SCT030 06/02 Q0996
                        NOSIG=
201402101820 METAR COR EGLL 101820Z 29008KT 9999 FEW023 SCT044 06/03 Q0996
                        NOSIG=
201402101750 METAR COR EGLL 101750Z 28009KT 9999 SCT023 SCT028 07/03 Q0995
                        NOSIG=
201402101720 METAR COR EGLL 101720Z 28010KT 9999 SCT026 BKN040 07/03 Q0994
                        NOSIG=
201402101650 METAR COR EGLL 101650Z 28007KT 9999 FEW031TCU BKN044 07/03
                        Q0994 NOSIG=
201402101620 METAR COR EGLL 101620Z 29008KT 9999 FEW028TCU 07/03 Q0993
                        NOSIG=
201402101550 METAR COR EGLL 101550Z 27009KT 9999 FEW020TCU SCT028 07/04
                        Q0993 NOSIG=
201402101520 METAR COR EGLL 101520Z 30004KT 270V350 9999 6000NE VCSH FEW020CB
                        FEW026TCU SCT028 07/05 Q0992 RESHRA
                        NOSIG=
201402101450 METAR COR EGLL 101450Z 27006KT 9999 VCSH FEW021CB FEW026TCU
                        SCT029 07/04 Q0992 NOSIG=
201402101420 METAR COR EGLL 101420Z 31006KT 290V360 9999 VCSH FEW021CB
                        SCT029 07/05 Q0991 RESHRA NOSIG=
201402101350 METAR COR EGLL 101350Z 27014KT 9000 4000S SHRA SCT012TCU
                        BKN026 05/03 Q0992 TEMPO BKN010=
201402101320 METAR COR EGLL 101320Z 21007KT 9999 SCT010 SCT013 10/05 Q0991
                        TEMPO BKN010=
201402101250 METAR COR EGLL 101250Z 20007KT 180V270 9999 FEW010 09/04
                        Q0991 NOSIG=
201402101220 METAR COR EGLL 101220Z 22008KT 9999 SCT010 08/05 Q0992 NOSIG=
201402101150 METAR COR EGLL 101150Z 23008KT 9999 SCT008 BKN010 07/05 Q0992
                        BECMG SCT010=
201402101120 METAR EGLL 101120Z 21007KT 170V250 9999 SCT006 BKN010 07/05
                        Q0992=
201402101050 METAR COR EGLL 101050Z 18005KT 140V210 9999 FEW006 SCT010
                        07/05 Q0991 TEMPO BKN010=
201402101020 METAR COR EGLL 101020Z 15004KT 110V190 9999 FEW008 SCT034
                        06/05 Q0991 NOSIG=
201402100950 METAR COR EGLL 100950Z VRB03KT 9999 FEW018 BKN044 06/05 Q0991
                        NOSIG=
201402100920 METAR COR EGLL 100920Z VRB03KT 9999 FEW007 BKN030 05/04 Q0991
                        TEMPO BKN008=
201402100850 METAR COR EGLL 100850Z VRB03KT 9999 FEW014 BKN035 05/04 Q0991
                        TEMPO BKN014=
201402100820 METAR COR EGLL 100820Z 13004KT 110V180 9999 BKN014 05/04
                        Q0991 TEMPO SCT014 BKN025=
201402100750 METAR COR EGLL 100750Z VRB03KT 9999 SCT017 SCT035 04/04 Q0990
                        NOSIG=
201402100720 METAR COR EGLL 100720Z 11004KT 070V160 9999 FEW033 BKN042
                        04/03 Q0990 NOSIG=
201402100650 METAR COR EGLL 100650Z 11005KT 9999 FEW039 SCT045 04/03 Q0990
                        NOSIG=
201402100620 METAR COR EGLL 100620Z 13006KT 090V180 9999 FEW020 04/03
                        Q0990 NOSIG=
201402100550 METAR COR EGLL 100550Z 11006KT 9999 FEW030 04/03 Q0990 NOSIG=
201402100520 METAR COR EGLL 100520Z 11006KT 9999 SCT023 04/03 Q0989 NOSIG=
201402100450 METAR COR EGLL 100450Z 08003KT 9999 BKN023 05/03 Q0990 NOSIG=
201402100420 METAR COR EGLL 100420Z VRB02KT 9999 -RA FEW023 04/03 Q0990
                        NOSIG=
201402100350 METAR COR EGLL 100350Z 13005KT 9999 FEW030 04/03 Q0989 NOSIG=
201402100320 METAR COR EGLL 100320Z 13007KT 9999 FEW040 04/03 Q0989 NOSIG=
201402100250 METAR COR EGLL 100250Z 15005KT 9999 FEW040 04/03 Q0990 REDZ
                        TEMPO RA=
201402100220 METAR EGLL 100220Z AUTO 15005KT 9999 DZ SCT043/// BKN051///
                        //////TCU 05/03 Q0990=
201402100150 METAR EGLL 100150Z AUTO 15005KT 9999 NCD 05/03 Q0990=
201402100120 METAR EGLL 100120Z AUTO 16006KT 9999 SCT037/// BKN055///
                        //////TCU 05/03 Q0990=
201402100050 METAR COR EGLL 100050Z 20004KT 9999 -RA FEW024 SCT040 05/03
                        Q0991 TEMPO RA=
201402100020 METAR COR EGLL 100020Z 21003KT 9999 -RA FEW028 05/02 Q0991
                        TEMPO RA=
201402092350 METAR COR EGLL 092350Z 19003KT 9999 SCT040 05/02 Q0991 NOSIG=
201402092320 METAR COR EGLL 092320Z 19008KT 9999 FEW040 SCT045 05/01 Q0991
                        NOSIG=
201402092250 METAR COR EGLL 092250Z 18008KT 9999 SCT046 05/01 Q0991 NOSIG=
201402092220 METAR COR EGLL 092220Z 18008KT CAVOK 05/01 Q0990 NOSIG=
201402092150 METAR COR EGLL 092150Z 19006KT 160V240 CAVOK 05/01 Q0990
                        TEMPO BKN025=
201402092120 METAR COR EGLL 092120Z 21008KT CAVOK 05/00 Q0991 TEMPO BKN030=
201402092050 METAR COR EGLL 092050Z 21008KT CAVOK 05/M00 Q0991 TEMPO BKN025=
201402092020 METAR COR EGLL 092020Z 20009KT CAVOK 05/M00 Q0990 TEMPO BKN025=
201402091950 METAR COR EGLL 091950Z 21008KT CAVOK 05/M00 Q0990 NOSIG=
201402091920 METAR EGLL 091920Z AUTO 22010KT 9999 NCD 05/M00 Q0990=
201402091850 METAR EGLL 091850Z AUTO 22009KT 180V250 9999 NCD 05/M00 Q0990=
201402091820 METAR COR EGLL 091820Z 22013KT CAVOK 06/M00 Q0990 NOSIG=
201402091750 METAR COR EGLL 091750Z 23016KT 9999 FEW044 06/M00 Q0989 NOSIG=
201402091720 METAR COR EGLL 091720Z 23013KT 9999 FEW040 07/M01 Q0989 NOSIG=
201402091650 METAR COR EGLL 091650Z 23013KT 9999 FEW048 07/M02 Q0988 NOSIG=
201402091620 METAR COR EGLL 091620Z 24013KT 9999 FEW048 08/M01 Q0988 NOSIG=
201402091550 METAR COR EGLL 091550Z 25011KT 9999 SCT040 08/01 Q0988 NOSIG=
201402091520 METAR COR EGLL 091520Z 27014KT 9999 VCSH SCT042 09/00 Q0988
                        NOSIG=
201402091450 METAR COR EGLL 091450Z 25014KT 9999 VCSH FEW029 SCT039 07/01
                        Q0988 NOSIG=
201402091420 METAR COR EGLL 091420Z 27020KT 9999 -SHRA SCT036 BKN040 08/01
                        Q0987 NOSIG=
201402091350 METAR COR EGLL 091350Z 25020KT 9999 SCT036 SCT042 09/01 Q0987
                        NOSIG=
201402091320 METAR COR EGLL 091320Z 25020KT 9999 SCT034 SCT042 08/01 Q0987
                        NOSIG=
201402091250 METAR EGLL 091250Z 24022KT 9999 FEW033 SCT038 08/01 Q0987=
201402091220 METAR COR EGLL 091220Z 25021KT 9999 SCT034 SCT038 08/01 Q0986
                        NOSIG=
201402091150 METAR COR EGLL 091150Z 25022G34KT 9999 SCT035 08/01 Q0986
                        NOSIG=
201402091120 METAR COR EGLL 091120Z 25022KT 9999 SCT032 08/02 Q0985 NOSIG=
201402091050 METAR EGLL 091050Z AUTO 25024KT 9999 BKN026 07/02 Q0985=
201402091020 METAR EGLL 091020Z 24020KT 9999 SCT027 SCT034 08/02 Q0984=
201402090950 METAR COR EGLL 090950Z 24021KT 9999 FEW029 SCT032 07/02 Q0984
                        NOSIG=
201402090920 METAR COR EGLL 090920Z 24019KT 9999 SCT028 SCT032 07/02 Q0983
                        NOSIG=
201402090850 METAR COR EGLL 090850Z 24022G33KT 9999 SCT028 SCT030 07/02
                        Q0982 NOSIG=
201402090820 METAR COR EGLL 090820Z 24022KT 9999 SCT028 SCT035 07/02 Q0982
                        NOSIG=
201402090750 METAR COR EGLL 090750Z 24019KT 9999 FEW029 BKN034 07/02 Q0981
                        NOSIG=
201402090720 METAR COR EGLL 090720Z 24019KT 9999 BKN032 07/02 Q0981 NOSIG=
201402090650 METAR COR EGLL 090650Z 23020G31KT 9999 BKN031 07/02 Q0980
                        NOSIG=
201402090620 METAR COR EGLL 090620Z 23020KT 9999 SCT028 BKN030 07/03 Q0979
                        NOSIG=
201402090550 METAR EGLL 090550Z 23019KT 9999 -DZ SCT031 07/03 Q0979=
201402090520 METAR COR EGLL 090520Z 23022KT 9999 FEW030 SCT040 07/03 Q0979
                        NOSIG=
201402090450 METAR COR EGLL 090450Z 23019KT 9999 -RA SCT028 SCT035 07/03
                        Q0978 TEMPO SHRA=
201402090420 METAR COR EGLL 090420Z 22019KT 9999 -DZ BKN030 07/03 Q0978
                        TEMPO SHRA=
201402090350 METAR COR EGLL 090350Z 22019KT 9999 -DZ SCT026 BKN035 07/03
                        Q0978 TEMPO SHRA=
201402090320 METAR COR EGLL 090320Z AUTO 22020KT 9999 -RA SCT029 SCT034
                        07/03 Q0978 TEMPO SHRA=
201402090250 METAR COR EGLL 090250Z 22023G34KT 9999 FEW040 07/02 Q0978
                        TEMPO SHRA=
201402090220 METAR EGLL 090220Z AUTO 22022G36KT 9999 -RA SCT031 07/02
                        Q0978=
201402090150 METAR EGLL 090150Z AUTO 22019G32KT 9999 SCT037 07/01 Q0978=
201402090120 METAR EGLL 090120Z AUTO 22021G33KT 9999 NCD 07/01 Q0979=
201402090050 METAR COR EGLL 090050Z 22020KT 9999 SCT035 07/02 Q0979 NOSIG=
201402090020 METAR COR EGLL 090020Z 22020KT 9999 FEW035 07/01 Q0978 NOSIG=
201402082350 METAR COR EGLL 082350Z 23019KT 9999 FEW030 07/01 Q0978 NOSIG=
201402082320 METAR COR EGLL 082320Z 22020KT 9999 FEW030 07/01 Q0978 NOSIG=
201402082250 METAR COR EGLL 082250Z 22019G29KT 9000 SCT025 SCT030 08/00
                        Q0978 NOSIG=
201402082220 METAR COR EGLL 082220Z 22020KT 9000 BKN030 BKN040 08/01 Q0978
                        NOSIG=
201402082150 METAR COR EGLL 082150Z 23018G28KT 9999 FEW035 SCT044 08/02
                        Q0977 NOSIG=
201402082120 METAR COR EGLL 082120Z 22015G27KT 9999 FEW030 BKN048 08/03
                        Q0977 NOSIG=
201402082050 METAR COR EGLL 082050Z 22016G27KT 9999 FEW025 SCT046 07/03
                        Q0977 NOSIG=
201402082020 METAR COR EGLL 082020Z 21014KT 9999 FEW025 SCT038 07/04 Q0977
                        NOSIG=
201402081950 METAR COR EGLL 081950Z 21014KT 9999 FEW022 SCT044 07/04 Q0977
                        NOSIG=
201402081920 METAR COR EGLL 081920Z 21017G27KT 9999 FEW020 SCT029 07/04
                        Q0977 NOSIG=
201402081850 METAR COR EGLL 081850Z 21016KT 9999 SCT022 SCT029 08/04 Q0976
                        TEMPO SHRA=
201402081820 METAR COR EGLL 081820Z 20017KT 180V240 9999 -SHRA SCT023
                        SCT030 07/04 Q0976 TEMPO SHRA=
201402081750 METAR COR EGLL 081750Z 21019G29KT 170V240 9999 -SHRA FEW017
                        BKN023 07/04 Q0976 RESHRA TEMPO SHRA=
201402081720 METAR COR EGLL 081720Z 20022G33KT 7000 SHRA BKN026 07/04
                        Q0976 TEMPO NSW=
201402081650 METAR COR EGLL 081650Z 20017KT 170V230 9999 VCSH SCT029 SCT040
                        07/03 Q0976 TEMPO SHRA=
201402081620 METAR COR EGLL 081620Z 21020G30KT 9999 VCSH BKN033 08/02
                        Q0976 TEMPO SHRA=
201402081550 METAR COR EGLL 081550Z 21020KT 9999 BKN032 08/02 Q0976 TEMPO
                        SHRA=
201402081520 METAR COR EGLL 081520Z 20022G32KT 9999 FEW031 SCT038 08/02
                        Q0976 NOSIG=
201402081450 METAR COR EGLL 081450Z 21022KT 9999 FEW020 08/03 Q0976 NOSIG=
201402081420 METAR EGLL 081420Z 20024KT 9999 VCSH FEW020 SCT032CB 09/03
                        Q0976=
201402081350 METAR COR EGLL 081350Z 21023G37KT 9999 VCSH FEW017CB SCT029
                        09/03 Q0977 RESHRA TEMPO SHRA=
201402081320 METAR COR EGLL 081320Z 21022G33KT 9999 -SHRA BKN032 09/03
                        Q0977 TEMPO SHRA=
201402081250 METAR COR EGLL 081250Z 20019KT 9999 FEW025 08/04 Q0977 TEMPO
                        SHRA=
201402081220 METAR COR EGLL 081220Z 21020G31KT 9999 FEW021 08/03 Q0978
                        TEMPO SHRA=
201402081150 METAR COR EGLL 081150Z 21019KT 9999 FEW021 07/04 Q0979 RESHRA
                        TEMPO SHRA=
201402081120 METAR COR EGLL 081120Z 21017KT 180V240 9999 SHRA FEW026 SCT037CB
                        08/03 Q0979 TEMPO NSW=
201402081050 METAR COR EGLL 081050Z 22019G32KT 9999 VCSH FEW013CB SCT041
                        07/03 Q0979 RESHRA TEMPO SHRA=
201402081020 METAR COR EGLL 081020Z 22020G34KT 9999 VCSH FEW008 SCT038CB
                        09/03 Q0979 TEMPO SHRA=
201402080950 METAR COR EGLL 080950Z 22019G30KT 9999 FEW036 09/04 Q0979
                        TEMPO SHRA=
201402080920 METAR COR EGLL 080920Z 21018G28KT 9999 VCSH FEW032 SCT041CB
                        09/05 Q0979 TEMPO SHRA=
201402080850 METAR COR EGLL 080850Z 20011KT 180V250 9999 -SHRA FEW024
                        SCT028CB 08/05 Q0979 TEMPO SHRA=
201402080820 METAR COR EGLL 080820Z 21013KT 9999 FEW032 08/04 Q0979 NOSIG=
201402080750 METAR COR EGLL 080750Z 21015KT 9999 FEW041 08/03 Q0979 NOSIG=
201402080720 METAR COR EGLL 080720Z 21013KT 9999 FEW032 08/05 Q0979 NOSIG=
201402080650 METAR COR EGLL 080650Z 21012KT 9999 FEW035 09/05 Q0979 NOSIG=
201402080620 METAR COR EGLL 080620Z 21011KT CAVOK 08/06 Q0979 TEMPO SHRA=
201402080550 METAR COR EGLL 080550Z 21011KT 9999 FEW014 08/06 Q0980 NOSIG=
201402080520 METAR COR EGLL 080520Z 22012KT 9999 FEW014 09/06 Q0979 RERA
                        NOSIG=
201402080450 METAR COR EGLL 080450Z 22015G30KT 5000 RA SCT014 SCT021 08/06
                        Q0980 BECMG NSW=
201402080420 METAR COR EGLL 080420Z 20016KT 9999 FEW021 SCT026 09/07 Q0979
                        TEMPO SHRA=
201402080350 METAR COR EGLL 080350Z 20016KT 9999 FEW012 SCT038 09/07 Q0980
                        RERA TEMPO SHRA=
201402080320 METAR COR EGLL 080320Z 21016KT 6000 RA BKN013 BKN016 09/08
                        Q0981 BECMG NSW SCT015=
201402080250 METAR COR EGLL 080250Z 19019G30KT 9999 -RA BKN012 09/07 Q0981
                        RERA BECMG SCT018=
201402080220 METAR EGLL 080220Z AUTO 18020G30KT 8000 -RA BKN011/// //////TCU
                        09/07 Q0981 REDZ=
201402080150 METAR EGLL 080150Z AUTO 18019KT 8000 -RA FEW014 SCT016 08/07
                        Q0982 RERA=
201402080120 METAR COR EGLL 080120Z 18017KT 9999 -RA SCT015 SCT022 08/06
                        Q0983 TEMPO RA BKN012=
201402080050 METAR COR EGLL 080050Z 18019G29KT 9999 -RA SCT015 SCT022
                        BKN029 08/06 Q0984 TEMPO RA BKN014=
201402080020 METAR COR EGLL 080020Z 18017KT 9999 -RA FEW016 SCT018 BKN027
                        08/06 Q0985 TEMPO RA BKN014=
201402072350 METAR COR EGLL 072350Z 17016KT 9999 -RA SCT016 BKN019 08/06
                        Q0987 TEMPO RA=
201402072320 METAR COR EGLL 072320Z 18019G29KT 9999 -RA SCT018 SCT024
                        BKN029 08/05 Q0987 TEMPO RA=
201402072250 METAR COR EGLL 072250Z 18016KT 9999 FEW020 SCT035 08/05 Q0989
                        TEMPO RA=
201402072220 METAR COR EGLL 072220Z 18017KT 9999 FEW022 08/04 Q0989 BECMG
                        RA BKN014=
201402072150 METAR COR EGLL 072150Z 19016KT 9999 FEW022 SCT037 08/05 Q0990
                        BECMG RA BKN014=
201402072120 METAR COR EGLL 072120Z 19015KT 9999 SCT028 08/04 Q0991 BECMG
                        RA BKN014=
201402072050 METAR EGLL 072050Z 19013KT 9999 SCT028 08/05 Q0992=
201402072020 METAR COR EGLL 072020Z 19013KT 9999 FEW030 08/05 Q0993 RESHRA
                        NOSIG=
201402071950 METAR COR EGLL 071950Z 18015KT 8000 SHRA FEW020 SCT032 08/04
                        Q0994 TEMPO NSW=
201402071920 METAR COR EGLL 071920Z 16011KT 120V190 9999 SCT035 08/04
                        Q0994 TEMPO SHRA=
201402071850 METAR COR EGLL 071850Z 18011KT 160V220 9999 FEW025 07/04
                        Q0995 TEMPO SHRA=
201402071820 METAR COR EGLL 071820Z 18011KT 140V210 9999 FEW032 07/02
                        Q0995 TEMPO SHRA=
201402071750 METAR COR EGLL 071750Z 20010KT 9999 FEW047 07/02 Q0995 TEMPO
                        SHRA=
201402071720 METAR COR EGLL 071720Z 20010KT 9999 SCT041 08/01 Q0996 NOSIG=
201402071650 METAR COR EGLL 071650Z 22010KT 9999 FEW041 08/00 Q0996 NOSIG=
201402071620 METAR COR EGLL 071620Z 23012KT 9999 FEW040 09/01 Q0996 NOSIG=
201402071550 METAR COR EGLL 071550Z 23010KT 9999 FEW038 09/01 Q0996 NOSIG=
201402071520 METAR COR EGLL 071520Z 25011KT 210V280 9999 FEW035 10/02
                        Q0996 NOSIG=
201402071450 METAR COR EGLL 071450Z 26014KT 9999 SCT035 10/02 Q0996 NOSIG=
201402071420 METAR COR EGLL 071420Z 27014KT 9999 SCT037 09/01 Q0996 NOSIG=
201402071350 METAR COR EGLL 071350Z 26021G31KT 9999 SCT034 09/02 Q0996
                        NOSIG=
201402071320 METAR COR EGLL 071320Z 27019KT 9999 BKN027 09/03 Q0996 NOSIG=
201402071250 METAR COR EGLL 071250Z 26018KT 9999 FEW027 BKN032 09/03 Q0995
                        NOSIG=
201402071220 METAR COR EGLL 071220Z 26017KT 9999 SCT027 SCT032 09/03 Q0995
                        NOSIG=
201402071150 METAR COR EGLL 071150Z 26017KT 9999 FEW024 SCT028 08/04 Q0994
                        NOSIG=
201402071120 METAR COR EGLL 071120Z 27015KT 9999 FEW020 08/04 Q0994 NOSIG=
201402071050 METAR EGLL 071050Z 27016KT 9999 FEW011 SCT026 07/04 Q0993=
201402071020 METAR COR EGLL 071020Z 28013KT 9999 FEW011 SCT026 07/04 Q0993
                        NOSIG=
201402070950 METAR COR EGLL 070950Z 28015KT 9999 -RA FEW011 BKN019 06/04
                        Q0992 NOSIG=
201402070920 METAR COR EGLL 070920Z 28014KT 9999 FEW011 BKN016 05/03 Q0991
                        NOSIG=
201402070850 METAR COR EGLL 070850Z 29013KT 9999 FEW010 BKN012 05/03 Q0990
                        BECMG FEW012 BKN025=
201402070820 METAR COR EGLL 070820Z 29013KT 9999 -RA FEW012 BKN016 04/03
                        Q0988 NOSIG=
201402070750 METAR COR EGLL 070750Z 29014KT 9999 -RA FEW009 BKN013 04/02
                        Q0987 BECMG FEW013 SCT025=
201402070720 METAR COR EGLL 070720Z 30014KT 9999 SCT010 BKN015 04/02 Q0986
                        TEMPO BKN010=
201402070650 METAR COR EGLL 070650Z 31012KT 270V340 9999 FEW009 BKN012
                        05/03 Q0984 NOSIG=
201402070620 METAR COR EGLL 070620Z 31014KT 9999 SCT013 SCT015 06/04 Q0982
                        TEMPO BKN012=
201402070550 METAR COR EGLL 070550Z 33012KT 8000 -RA FEW008 BKN012 06/05
                        Q0980 NOSIG=
201402070520 METAR COR EGLL 070520Z 35011KT 310V010 6000 -RADZ FEW008
                        SCT010 BKN020 07/06 Q0979 RERA REDZ
                        TEMPO BKN010=
201402070450 METAR COR EGLL 070450Z 23005KT 4000 RADZ FEW005 SCT008 BKN011
                        09/09 Q0977 TEMPO BKN006=
201402070420 METAR COR EGLL 070420Z 22005KT 4900 RADZ SCT008 BKN011 10/09
                        Q0977 TEMPO BKN006=
201402070350 METAR EGLL 070350Z 18007KT 9000 -RA SCT008 BKN013 10/09 Q0977
                        RERA=
201402070320 METAR COR EGLL 070320Z 17008KT 7000 RA FEW008 SCT017 BKN029
                        10/09 Q0977 TEMPO 4000 RADZ BKN006=
201402070250 METAR COR EGLL 070250Z 19009KT 7000 RA FEW005 SCT008 BKN015
                        10/09 Q0978 TEMPO 4000 RADZ BKN006=
201402070220 METAR EGLL 070220Z AUTO 18010KT 4500 -RA FEW009/// BKN011///
                        BKN018/// //////TCU 10/09 Q0978=
201402070150 METAR EGLL 070150Z AUTO 17005KT 9999 BKN014/// //////TCU
                        09/09 Q0978=
201402070120 METAR EGLL 070120Z AUTO VRB03KT 5000 -RA BKN011 BKN015 BKN020
                        09/08 Q0979 RERA=
201402070050 METAR COR EGLL 070050Z 21005KT 170V230 7000 RA SCT013 SCT021
                        09/08 Q0979 TEMPO 4500 +RA=
201402070020 METAR COR EGLL 070020Z 21006KT 7000 RA SCT014 SCT017 09/08
                        Q0980 TEMPO 4500 +RA BKN010=
201402062350 METAR COR EGLL 062350Z 18010KT 8000 RA FEW010 SCT043 09/08
                        Q0980 TEMPO 4500 +RA=
201402062320 METAR COR EGLL 062320Z 18008KT 9999 FEW045 09/08 Q0980 TEMPO
                        4500 +RA=
201402062250 METAR COR EGLL 062250Z 16007KT 140V210 9999 FEW014 09/08
                        Q0981 TEMPO RA=
201402062220 METAR COR EGLL 062220Z 17006KT 140V210 9999 FEW036 09/08
                        Q0981 RERA NOSIG=
201402062150 METAR COR EGLL 062150Z 20009KT 9999 RA SCT009 BKN034 09/08
                        Q0982 TEMPO NSW=
201402062120 METAR COR EGLL 062120Z 18010KT 9999 -RA FEW011 SCT038 10/08
                        Q0982 TEMPO RA=
201402062050 METAR COR EGLL 062050Z 19008KT 9999 -RA FEW013 SCT021 10/09
                        Q0982 NOSIG=
201402062020 METAR COR EGLL 062020Z 21007KT 9999 -RA BKN012 BKN026 10/09
                        Q0982 TEMPO SCT012=
201402061950 METAR COR EGLL 061950Z 21008KT 180V250 9999 -RA FEW009 BKN017
                        10/09 Q0982 TEMPO RA BKN012=
201402061920 METAR COR EGLL 061920Z 19011KT 160V230 9999 -RA SCT019 BKN038
                        10/09 Q0982 NOSIG=
201402061850 METAR COR EGLL 061850Z 19011KT 9999 -RA BKN017 BKN035 10/09
                        Q0982 NOSIG=
201402061820 METAR COR EGLL 061820Z 18012G22KT 160V220 9999 -RA FEW009
                        BKN026 10/09 Q0982 TEMPO RA BKN012=
201402061750 METAR COR EGLL 061750Z 18011KT 9999 -RA FEW008 BKN010 10/09
                        Q0982 BECMG SCT010 BKN018=
201402061720 METAR COR EGLL 061720Z 13010KT 9999 -RA SCT006 BKN010 08/07
                        Q0983 BECMG SCT009 BKN015=
201402061650 METAR COR EGLL 061650Z 11012KT 6000 -RADZ FEW005 SCT008 BKN009
                        06/06 Q0983 RERA REDZ BECMG FEW009
                        BKN014=
201402061620 METAR EGLL 061620Z 11013KT 2200 RADZ FEW006 BKN009 06/05
                        Q0985=
201402061550 METAR COR EGLL 061550Z 11011KT 4000 -RADZ FEW008 OVC012 06/05
                        Q0985 BECMG 8000 -RA SCT012 BKN015=
201402061520 METAR COR EGLL 061520Z 11011KT 9000 -RA OVC012 06/05 Q0987
                        RERA TEMPO SCT012 BKN018=
201402061450 METAR COR EGLL 061450Z 12012KT 9999 RA FEW013 BKN015 06/04
                        Q0988 TEMPO 4800 RADZ BKN012=
201402061420 METAR COR EGLL 061420Z 14012KT 9999 -RA FEW014 BKN017 06/04
                        Q0989 TEMPO 4500 RA BKN014=
201402061350 METAR COR EGLL 061350Z 15013KT 9999 -RA FEW015 SCT021 BKN030
                        06/05 Q0990 RERA TEMPO 4500 RA BKN012=
201402061320 METAR COR EGLL 061320Z 16012KT 9999 -RA FEW012 BKN018 07/05
                        Q0991 TEMPO 4800 RA BKN012=
201402061250 METAR COR EGLL 061250Z 14008KT 9000 -RA FEW018 BKN020 07/05
                        Q0992 TEMPO 4800 RA BKN012=
201402061220 METAR COR EGLL 061220Z 16007KT 120V220 9999 -RA SCT023 BKN036
                        07/05 Q0993 TEMPO 4500 RA BKN014=
201402061150 METAR COR EGLL 061150Z 18011KT 160V230 9999 -RA FEW016 SCT025
                        BKN037 07/05 Q0994 TEMPO 4500 RA
                        BKN014=
201402061120 METAR COR EGLL 061120Z 18013KT 160V230 9999 -RA FEW017 BKN030
                        08/06 Q0995 TEMPO 4500 RA BKN014=
201402061050 METAR COR EGLL 061050Z 19012KT 160V240 8000 -RA SCT018 BKN027
                        08/06 Q0995 TEMPO 4500 RA BKN012=
201402061020 METAR EGLL 061020Z 20009KT 180V250 9000 -RA FEW020 SCT047
                        08/06 Q0996=
201402060950 METAR COR EGLL 060950Z 21008KT 150V250 9999 FEW020 08/06
                        Q0996 TEMPO RA=
201402060920 METAR COR EGLL 060920Z 22012KT 9999 8000NE VCSH SCT020 08/05
                        Q0996 NOSIG=
201402060850 METAR COR EGLL 060850Z 20009KT 180V240 9999 VCSH FEW020 08/04
                        Q0996 NOSIG=
201402060820 METAR COR EGLL 060820Z 20009KT 9999 FEW025 08/04 Q0995 NOSIG=
201402060750 METAR COR EGLL 060750Z 21011KT 9999 FEW025 08/04 Q0995 NOSIG=
201402060720 METAR COR EGLL 060720Z 21010KT 9999 FEW025 07/04 Q0995 NOSIG=
201402060650 METAR COR EGLL 060650Z 21011KT CAVOK 07/04 Q0995 NOSIG=
201402060620 METAR COR EGLL 060620Z 22011KT CAVOK 07/03 Q0995 NOSIG=
201402060550 METAR COR EGLL 060550Z 22014KT CAVOK 07/03 Q0994 NOSIG=
201402060520 METAR COR EGLL 060520Z 22013KT 9999 FEW033 07/03 Q0994 NOSIG=
201402060450 METAR COR EGLL 060450Z 22015KT 9999 SCT033 08/03 Q0994 NOSIG=
201402060420 METAR COR EGLL 060420Z 22014KT 9999 SCT033 08/03 Q0994 NOSIG=
201402060350 METAR COR EGLL 060350Z 23018KT 9999 FEW044 08/03 Q0994 NOSIG=
201402060320 METAR COR EGLL 060320Z 23018KT 9999 FEW035 08/03 Q0993 NOSIG=
201402060250 METAR COR EGLL 060250Z 23019KT 9999 FEW043 08/03 Q0993 NOSIG=
201402060220 METAR EGLL 060220Z AUTO 23019KT 9999 FEW032 08/03 Q0993=
201402060150 METAR EGLL 060150Z AUTO 23016KT 9999 SCT032 08/03 Q0992=
201402060120 METAR EGLL 060120Z AUTO 23018KT 9999 SCT032 08/03 Q0992=
201402060050 METAR COR EGLL 060050Z 22016KT 9999 SCT038 08/03 Q0991 NOSIG=
201402060020 METAR COR EGLL 060020Z 23016KT 9999 FEW035 SCT039 08/03 Q0991
                        NOSIG=
201402052350 METAR COR EGLL 052350Z 23016KT 9999 SCT035 08/03 Q0990 NOSIG=
201402052320 METAR COR EGLL 052320Z 24020KT 9999 SCT035 08/03 Q0990 NOSIG=
201402052250 METAR COR EGLL 052250Z 23021KT 9999 FEW038 09/03 Q0989 NOSIG=
201402052220 METAR COR EGLL 052220Z 23021G31KT 9999 FEW035 08/03 Q0988
                        NOSIG=
201402052150 METAR COR EGLL 052150Z 23019KT 9999 FEW035 09/03 Q0988 NOSIG=
201402052120 METAR COR EGLL 052120Z 23021KT 9999 FEW037 09/03 Q0987 NOSIG=
201402052050 METAR COR EGLL 052050Z 23021KT 9999 FEW039 SCT045 09/03 Q0986
                        NOSIG=
201402052020 METAR COR EGLL 052020Z 23020G31KT 9999 SCT042 09/03 Q0986
                        NOSIG=
201402051950 METAR COR EGLL 051950Z 23019KT 9999 BKN039 10/04 Q0985 NOSIG=
201402051920 METAR COR EGLL 051920Z 23018KT 9999 BKN037 10/04 Q0984 NOSIG=
201402051850 METAR COR EGLL 051850Z 23021KT 9999 SCT033 BKN045 10/05 Q0984
                        NOSIG=
201402051820 METAR COR EGLL 051820Z 23020KT 9999 SCT035 BKN046 10/04 Q0983
                        NOSIG=
201402051750 METAR COR EGLL 051750Z 22022G32KT 9999 FEW039 SCT045 10/05
                        Q0981 NOSIG=
201402051720 METAR COR EGLL 051720Z 23023KT 9999 FEW030 SCT033 10/05 Q0981
                        NOSIG=
201402051650 METAR EGLL 051650Z 22016KT 9999 -RA SCT026 BKN035 10/07 Q0980=
201402051620 METAR COR EGLL 051620Z 21016KT 9999 -RA FEW023 SCT029 BKN039
                        10/07 Q0979 NOSIG=
201402051550 METAR EGLL 051550Z 21016G26KT 9999 FEW027 SCT033 BKN044 10/07
                        Q0978=
201402051520 METAR COR EGLL 051520Z 19016KT 9999 SCT022 BKN028 09/07 Q0977
                        NOSIG=
201402051450 METAR EGLL 051450Z 19017KT 170V230 9999 -RA SCT022 BKN032
                        08/07 Q0977=
201402051420 METAR COR EGLL 051420Z 18020G30KT 9999 -RA SCT012 BKN020
                        08/06 Q0977 TEMPO SHRA=
201402051350 METAR COR EGLL 051350Z 18021KT 160V230 9999 -RA BKN015 BKN022
                        08/06 Q0977 NOSIG=
201402051320 METAR COR EGLL 051320Z 18022KT 9000 -RA FEW016 BKN018 07/05
                        Q0978 TEMPO 4000 RA=
201402051250 METAR COR EGLL 051250Z 18022KT 9000 -RA BKN018 07/05 Q0978
                        TEMPO 4500 RA=
201402051220 METAR COR EGLL 051220Z 18022KT 150V220 9000 -RA FEW020 BKN023
                        07/05 Q0978 TEMPO 4500 RA=
201402051150 METAR COR EGLL 051150Z 18024G36KT 9999 -RA FEW028 BKN031
                        09/04 Q0979 BECMG 4500 RA=
201402051120 METAR COR EGLL 051120Z 18024G36KT 150V220 9999 SCT028 SCT034
                        09/04 Q0979 BECMG 4500 RA=
201402051050 METAR COR EGLL 051050Z 17023G34KT 9999 SCT028 09/04 Q0979
                        BECMG 4500 RA=
201402051020 METAR COR EGLL 051020Z 17023G34KT 9999 FEW030 SCT034 09/03
                        Q0979 BECMG 4500 RA=
201402050950 METAR EGLL 050950Z 18023KT 150V210 9999 SCT031 SCT035 09/04
                        Q0980=
201402050920 METAR COR EGLL 050920Z 17020KT 140V220 9999 SCT032 08/03
                        Q0980 BECMG 4500 RA=
201402050850 METAR COR EGLL 050850Z 17018KT 9999 FEW028 08/03 Q0980 NOSIG=
201402050820 METAR COR EGLL 050820Z 18019KT 9999 FEW028 SCT034 08/03 Q0981
                        NOSIG=
201402050750 METAR COR EGLL 050750Z 19016KT 9999 -SHRA FEW025 SCT032 07/04
                        Q0981 RESHRA NOSIG=
201402050720 METAR COR EGLL 050720Z 18017KT 9999 FEW025 BKN040 08/03 Q0980
                        NOSIG=
201402050650 METAR COR EGLL 050650Z 19015KT 9999 FEW025 SCT031 07/04 Q0980
                        TEMPO SHRA=
201402050620 METAR COR EGLL 050620Z 19017KT 9999 FEW025 07/04 Q0980 TEMPO
                        SHRA=
201402050550 METAR COR EGLL 050550Z 18017KT 9999 SCT023 08/04 Q0980 TEMPO
                        SHRA=
201402050520 METAR COR EGLL 050520Z 17016KT 9999 -RA FEW022 SCT025 08/05
                        Q0980 TEMPO SHRA=
201402050450 METAR COR EGLL 050450Z 17015KT 9999 -RA FEW021 SCT025 08/05
                        Q0980 TEMPO SHRA=
201402050420 METAR COR EGLL 050420Z 17016KT 9999 FEW022 SCT030 08/05 Q0980
                        TEMPO SHRA BKN014=
201402050350 METAR COR EGLL 050350Z 17015KT 9999 SCT019 SCT023 08/05 Q0980
                        TEMPO SHRA BKN014=
201402050320 METAR COR EGLL 050320Z 16017KT 9999 SCT018 BKN025 07/05 Q0981
                        TEMPO SHRA BKN014CB=
201402050250 METAR EGLL 050250Z 16016KT 9999 BKN014 07/05 Q0982 RERA REDZ=
201402050220 METAR EGLL 050220Z AUTO 15015KT 6000 RA BKN014/// //////TCU
                        06/04 Q0982=
201402050150 METAR EGLL 050150Z AUTO 15016KT 9000 RA BKN014/// BKN021///
                        //////TCU 06/04 Q0983=
201402050120 METAR EGLL 050120Z AUTO 15016G30KT 9999 RA BKN016/// //////TCU
                        06/04 Q0984 RERA=
201402050050 METAR COR EGLL 050050Z 15018G33KT 9000 RA BKN016 BKN020 06/04
                        Q0984 TEMPO BKN014=
201402050020 METAR COR EGLL 050020Z 15017KT 9000 RA BKN016 BKN020 06/04
                        Q0985 TEMPO BKN014=
201402042350 METAR COR EGLL 042350Z 15016KT 8000 RA BKN017 BKN020 06/04
                        Q0986 TEMPO BKN014=
201402042320 METAR COR EGLL 042320Z 15018KT 9999 -RA SCT016 BKN019 06/04
                        Q0987 TEMPO RA BKN014=
201402042250 METAR COR EGLL 042250Z 15018KT 9999 -RA FEW018 SCT022 BKN025
                        06/04 Q0988 TEMPO RA BKN014=
201402042220 METAR COR EGLL 042220Z 15018KT 9999 -RA FEW018 BKN022 07/04
                        Q0988 RERA TEMPO RA BKN014=
201402042150 METAR COR EGLL 042150Z 16018KT 9000 RA SCT021 BKN026 07/04
                        Q0989 TEMPO BKN014=
201402042120 METAR COR EGLL 042120Z 15019KT 9999 -RA SCT019 SCT027 07/04
                        Q0990 TEMPO RA BKN014=
201402042050 METAR COR EGLL 042050Z 15018G29KT 9999 -RA FEW026 SCT031
                        BKN039 08/04 Q0990 BECMG RA BKN014=
201402042020 METAR COR EGLL 042020Z 15021KT 9999 SCT026 SCT047 08/03 Q0991
                        BECMG RA BKN014=
201402041950 METAR COR EGLL 041950Z 15018G29KT 9999 SCT030 BKN035 08/03
                        Q0991 BECMG RA BKN014=
201402041920 METAR COR EGLL 041920Z 15018KT 9999 FEW030 SCT039 BKN045
                        08/03 Q0992 NOSIG=
201402041850 METAR COR EGLL 041850Z 15014KT 9999 FEW030 SCT038 BKN048
                        08/03 Q0993 NOSIG=
201402041820 METAR COR EGLL 041820Z 14014KT 9999 SCT030 SCT039 08/03 Q0994
                        NOSIG=
201402041750 METAR COR EGLL 041750Z 14014KT 9999 SCT034 SCT046 08/03 Q0994
                        NOSIG=
201402041720 METAR COR EGLL 041720Z 15013KT 9999 FEW023 SCT035 07/03 Q0995
                        NOSIG=
201402041650 METAR COR EGLL 041650Z 15013KT 9999 FEW030 SCT045 07/03 Q0996
                        NOSIG=
201402041620 METAR COR EGLL 041620Z 16014KT 9999 FEW025 SCT049 07/03 Q0996
                        NOSIG=
201402041550 METAR COR EGLL 041550Z 16017KT 9999 FEW025 SCT048 08/03 Q0997
                        NOSIG=
201402041520 METAR COR EGLL 041520Z 17017KT 9999 FEW024 SCT039 08/03 Q0997
                        NOSIG=
201402041450 METAR COR EGLL 041450Z 17016KT 140V220 9999 FEW028 SCT038
                        08/03 Q0998 NOSIG=
201402041420 METAR COR EGLL 041420Z 17016KT 9999 FEW028 SCT033 08/03 Q0998
                        NOSIG=
201402041350 METAR COR EGLL 041350Z 18017KT 160V230 9999 FEW029 SCT034
                        09/02 Q0999 NOSIG=
201402041320 METAR COR EGLL 041320Z 19011KT 160V220 9999 FEW028 SCT034
                        09/03 Q0999 NOSIG=
201402041250 METAR COR EGLL 041250Z 19015G25KT 150V230 9999 FEW028 09/03
                        Q1000 NOSIG=
201402041220 METAR COR EGLL 041220Z 18015KT 150V230 9999 SCT025 08/03
                        Q1000 NOSIG=
201402041150 METAR COR EGLL 041150Z 19014KT 160V230 9999 SCT025TCU 08/04
                        Q1000 NOSIG=
201402041120 METAR COR EGLL 041120Z 19015KT 160V230 9999 SCT021 08/04
                        Q1000 NOSIG=
201402041050 METAR COR EGLL 041050Z 18011KT 150V230 9999 SCT023 SCT033
                        07/04 Q1000 NOSIG=
201402041020 METAR COR EGLL 041020Z 20009KT 150V240 9999 SCT015 SCT034
                        06/04 Q1001 TEMPO SHRA=
201402040950 METAR EGLL 040950Z 19010KT 160V230 9999 -SHRA FEW015 BKN022CB
                        06/04 Q1001=
201402040920 METAR COR EGLL 040920Z 22006KT 9999 FEW017 SCT022 06/03 Q1001
                        TEMPO SHRA=
201402040850 METAR COR EGLL 040850Z 22007KT 9999 FEW023 SCT028 06/02 Q1001
                        NOSIG=
201402040820 METAR COR EGLL 040820Z 20008KT 170V240 9999 SCT038 05/02
                        Q1000 TEMPO SHRA=
201402040750 METAR COR EGLL 040750Z 18007KT 9999 FEW016 05/01 Q1000 TEMPO
                        SHRA=
201402040720 METAR COR EGLL 040720Z 18007KT 150V240 CAVOK 04/02 Q0999
                        TEMPO SHRA=
201402040650 METAR COR EGLL 040650Z 19006KT 160V240 CAVOK 04/02 Q0999
                        TEMPO SHRA=
201402040620 METAR COR EGLL 040620Z 20008KT 160V240 CAVOK 04/02 Q0999
                        TEMPO SHRA=
201402040550 METAR COR EGLL 040550Z 21008KT CAVOK 04/02 Q0999 NOSIG=
201402040520 METAR COR EGLL 040520Z 22009KT CAVOK 05/02 Q0998 NOSIG=
201402040450 METAR COR EGLL 040450Z 22011KT CAVOK 05/03 Q0998 NOSIG=
201402040420 METAR COR EGLL 040420Z 23010KT CAVOK 06/03 Q0998 NOSIG=
201402040350 METAR COR EGLL 040350Z 25010KT CAVOK 06/03 Q0997 NOSIG=
201402040320 METAR COR EGLL 040320Z 24012KT 9999 FEW015 06/04 Q0997 NOSIG=
201402040250 METAR COR EGLL 040250Z 21010KT 9999 BKN012 07/04 Q0996 BECMG
                        FEW030=
201402040220 METAR EGLL 040220Z AUTO 18009KT 9999 BKN017 06/04 Q0996=
201402040150 METAR EGLL 040150Z AUTO 16009KT 9999 NCD 06/04 Q0995=
201402040120 METAR EGLL 040120Z AUTO 14010KT 9999 -RA FEW011 SCT018 06/04
                        Q0996=
201402040050 METAR COR EGLL 040050Z 14009KT 9999 -RA FEW014 BKN017 06/04
                        Q0996 TEMPO BKN014=
201402040020 METAR COR EGLL 040020Z 15008KT 9999 -RA FEW019 BKN025 06/04
                        Q0996 TEMPO RA BKN014=
201402032350 METAR COR EGLL 032350Z 14008KT 9999 FEW021 BKN025 07/03 Q0997
                        TEMPO RA BKN014=
201402032320 METAR COR EGLL 032320Z 13007KT 9999 FEW027 SCT033 06/03 Q0997
                        TEMPO RA BKN014=
201402032250 METAR COR EGLL 032250Z 13009KT CAVOK 06/03 Q0997 TEMPO RA
                        BKN014=
201402032220 METAR COR EGLL 032220Z 13012KT CAVOK 06/03 Q0997 TEMPO RA
                        BKN014=
201402032150 METAR COR EGLL 032150Z 13010KT CAVOK 06/03 Q0997 TEMPO RA
                        BKN014=
201402032120 METAR COR EGLL 032120Z 14011KT CAVOK 06/03 Q0997 TEMPO RA
                        BKN014=
201402032050 METAR COR EGLL 032050Z 14014KT CAVOK 06/03 Q0998 NOSIG=
201402032020 METAR COR EGLL 032020Z 14012KT 9999 FEW035 06/03 Q0998 NOSIG=
201402031950 METAR COR EGLL 031950Z 14011KT 9999 FEW035 06/03 Q0998 NOSIG=
201402031920 METAR COR EGLL 031920Z 12013KT CAVOK 06/02 Q0998 NOSIG=
201402031850 METAR COR EGLL 031850Z 11010KT CAVOK 06/02 Q0999 NOSIG=
201402031820 METAR COR EGLL 031820Z 11008KT CAVOK 05/02 Q0999 NOSIG=
201402031750 METAR EGLL 031750Z 10010KT CAVOK 06/02 Q0999=
201402031720 METAR COR EGLL 031720Z 11009KT 9999 FEW023 06/02 Q1000 NOSIG=
201402031650 METAR COR EGLL 031650Z 12012KT 9999 FEW021 SCT026 07/02 Q1000
                        NOSIG=
201402031620 METAR COR EGLL 031620Z 13010KT 9999 FEW030 SCT035 07/02 Q1000
                        NOSIG=
201402031550 METAR COR EGLL 031550Z 13013KT 9999 SCT035 08/02 Q1000 NOSIG=
201402031520 METAR COR EGLL 031520Z 15010KT 9999 FEW031 SCT036 08/02 Q1001
                        NOSIG=
201402031450 METAR COR EGLL 031450Z 14009KT 9999 FEW031 SCT038 08/02 Q1001
                        NOSIG=
201402031420 METAR COR EGLL 031420Z 15013KT 9999 FEW028 SCT031 08/02 Q1001
                        NOSIG=
201402031350 METAR COR EGLL 031350Z 15016KT 130V190 9999 SCT026 SCT035
                        08/02 Q1002 NOSIG=
201402031320 METAR COR EGLL 031320Z 15013KT 9999 SCT026 BKN033 08/02 Q1003
                        NOSIG=
201402031250 METAR COR EGLL 031250Z 17014KT 9999 SCT025 BKN031 08/02 Q1003
                        NOSIG=
201402031220 METAR COR EGLL 031220Z 15015KT 9999 BKN022 08/03 Q1003 NOSIG=
201402031150 METAR COR EGLL 031150Z 15013KT 9999 SCT022 BKN031 07/03 Q1004
                        NOSIG=
201402031120 METAR COR EGLL 031120Z 15015KT 9999 SCT024 BKN030 07/04 Q1004
                        NOSIG=
201402031050 METAR COR EGLL 031050Z 16015KT 9999 BKN019 BKN025 07/04 Q1004
                        NOSIG=
201402031020 METAR COR EGLL 031020Z 14012KT 9999 BKN019 08/04 Q1004 NOSIG=
201402030950 METAR COR EGLL 030950Z 14013KT 9999 BKN018 07/04 Q1005 NOSIG=
201402030920 METAR COR EGLL 030920Z 14011KT 9999 SCT017 BKN022 07/05 Q1005
                        NOSIG=
201402030850 METAR COR EGLL 030850Z 13011KT 9999 SCT015 BKN023 06/04 Q1005
                        NOSIG=
201402030820 METAR COR EGLL 030820Z 13009KT 9999 SCT020 06/04 Q1006 NOSIG=
201402030750 METAR COR EGLL 030750Z 11008KT 9999 SCT019 05/04 Q1006 NOSIG=
201402030720 METAR COR EGLL 030720Z 13009KT 9999 FEW021 SCT026 05/04 Q1006
                        NOSIG=
201402030650 METAR COR EGLL 030650Z 13008KT 9999 SCT021 SCT025 05/04 Q1006
                        NOSIG=
201402030620 METAR COR EGLL 030620Z 13009KT 9999 FEW020 05/04 Q1006 NOSIG=
201402030550 METAR COR EGLL 030550Z 14007KT 9999 SCT016 BKN029 06/04 Q1007
                        NOSIG=
201402030520 METAR COR EGLL 030520Z 13008KT 9999 FEW016 BKN018 06/04 Q1007
                        NOSIG=
201402030450 METAR COR EGLL 030450Z 13009KT 9999 SCT012 BKN018 06/04 Q1007
                        NOSIG=
201402030420 METAR COR EGLL 030420Z 14006KT 9999 SCT012 BKN016 06/04 Q1007
                        TEMPO BKN012=
201402030350 METAR COR EGLL 030350Z 15008KT 9999 FEW013 BKN019 06/05 Q1007
                        TEMPO BKN014=
201402030320 METAR COR EGLL 030320Z 11006KT 9999 FEW011 04/03 Q1007 NOSIG=
201402030250 METAR COR EGLL 030250Z 12007KT CAVOK 05/03 Q1008 NOSIG=
201402030220 METAR EGLL 030220Z AUTO 12009KT 9999 NCD 05/03 Q1008=
201402030150 METAR EGLL 030150Z AUTO 12009KT 9999 NCD 05/03 Q1008=
201402030120 METAR EGLL 030120Z AUTO 12007KT 9999 NCD 05/03 Q1009=
201402030050 METAR EGLL 030050Z 13007KT CAVOK 05/03 Q1009=
201402030020 METAR COR EGLL 030020Z 14005KT CAVOK 05/04 Q1010 NOSIG=
201402022350 METAR COR EGLL 022350Z 14005KT CAVOK 05/04 Q1010 NOSIG=
201402022320 METAR COR EGLL 022320Z 15006KT 130V210 CAVOK 06/04 Q1010
                        NOSIG=
201402022250 METAR COR EGLL 022250Z 18008KT CAVOK 06/04 Q1010 NOSIG=
201402022220 METAR COR EGLL 022220Z 19008KT 160V240 CAVOK 06/04 Q1010
                        NOSIG=
201402022150 METAR COR EGLL 022150Z 19007KT 160V240 CAVOK 05/04 Q1011
                        NOSIG=
201402022120 METAR COR EGLL 022120Z 20009KT 160V240 CAVOK 05/04 Q1011
                        NOSIG=
201402022050 METAR COR EGLL 022050Z 18007KT 150V230 CAVOK 05/03 Q1011
                        NOSIG=
201402022020 METAR COR EGLL 022020Z 18007KT 140V240 CAVOK 05/04 Q1010
                        NOSIG=
201402021950 METAR COR EGLL 021950Z 18008KT 140V220 CAVOK 06/03 Q1010
                        NOSIG=
201402021920 METAR COR EGLL 021920Z 19008KT 150V240 CAVOK 06/03 Q1010
                        NOSIG=
201402021850 METAR COR EGLL 021850Z 20008KT 170V240 CAVOK 06/03 Q1010
                        NOSIG=
201402021820 METAR COR EGLL 021820Z 18008KT 140V230 CAVOK 06/02 Q1010
                        NOSIG=
201402021750 METAR COR EGLL 021750Z 19007KT CAVOK 07/02 Q1010 NOSIG=
201402021720 METAR COR EGLL 021720Z 20008KT 170V250 CAVOK 07/02 Q1009
                        NOSIG=
201402021650 METAR COR EGLL 021650Z 23009KT 9999 FEW036 08/02 Q1009 NOSIG=
201402021620 METAR COR EGLL 021620Z 23011KT 9999 FEW034 09/02 Q1009 NOSIG=
201402021550 METAR COR EGLL 021550Z 25011KT 9999 FEW039 10/02 Q1009 NOSIG=
201402021520 METAR COR EGLL 021520Z 24013KT 9999 FEW039 10/02 Q1008 NOSIG=
201402021450 METAR COR EGLL 021450Z 24011KT 9999 FEW038 10/02 Q1008 NOSIG=
201402021420 METAR COR EGLL 021420Z 24013KT 9999 FEW033 10/02 Q1008 NOSIG=
201402021350 METAR COR EGLL 021350Z 23013KT 9999 FEW033 10/02 Q1007 NOSIG=
201402021320 METAR COR EGLL 021320Z 25013KT 9999 SCT035 10/02 Q1007 NOSIG=
201402021250 METAR COR EGLL 021250Z 25014KT 9999 SCT035 10/03 Q1007 NOSIG=
201402021220 METAR COR EGLL 021220Z 24015KT 9999 FEW031 10/02 Q1007 NOSIG=
201402021150 METAR COR EGLL 021150Z 24014KT 9999 FEW030 09/02 Q1007 NOSIG=
201402021120 METAR COR EGLL 021120Z 25015KT 9999 FEW030 09/02 Q1007 NOSIG=
201402021050 METAR COR EGLL 021050Z 24013KT 9999 FEW044 09/03 Q1006 NOSIG=
201402021020 METAR COR EGLL 021020Z 23012KT 9999 FEW044 08/02 Q1006 NOSIG=
201402020950 METAR COR EGLL 020950Z 22011KT CAVOK 08/03 Q1005 NOSIG=
201402020920 METAR COR EGLL 020920Z 22008KT CAVOK 07/03 Q1005 NOSIG=
201402020850 METAR EGLL 020850Z 22008KT 9999 FEW043 06/03 Q1004=
201402020820 METAR COR EGLL 020820Z 21009KT 9999 FEW036 06/03 Q1004 NOSIG=
201402020750 METAR COR EGLL 020750Z 22010KT 9999 FEW041 06/03 Q1003 NOSIG=
201402020720 METAR COR EGLL 020720Z 22011KT 9999 FEW032 06/03 Q1003 NOSIG=
201402020650 METAR EGLL 020650Z 22012KT CAVOK 07/03 Q1002=
201402020620 METAR COR EGLL 020620Z 21010KT 190V270 CAVOK 06/03 Q1002
                        NOSIG=
201402020550 METAR COR EGLL 020550Z 21010KT CAVOK 06/03 Q1001 NOSIG=
201402020520 METAR COR EGLL 020520Z 21009KT CAVOK 06/03 Q1001 NOSIG=
201402020450 METAR COR EGLL 020450Z 21010KT CAVOK 07/03 Q1000 NOSIG=
201402020420 METAR COR EGLL 020420Z 23010KT CAVOK 07/03 Q1000 NOSIG=
201402020350 METAR COR EGLL 020350Z 23011KT 9999 FEW025 07/03 Q1000 NOSIG=
201402020320 METAR COR EGLL 020320Z 23014KT 9999 SCT028 08/03 Q0999 NOSIG=
201402020250 METAR COR EGLL 020250Z 23013KT 9999 SCT028 BKN033 08/04 Q0999
                        NOSIG=
201402020220 METAR EGLL 020220Z AUTO 23013G25KT 9999 SCT030 SCT047 08/04
                        Q0998=
201402020150 METAR EGLL 020150Z AUTO 22015KT 9999 SCT027 BKN044 08/04
                        Q0998=
201402020120 METAR EGLL 020120Z AUTO 22016KT 9999 FEW019 SCT046 08/04
                        Q0997=
201402020050 METAR EGLL 020050Z 22014KT 9999 SCT029 SCT034 08/03 Q0997=
201402020020 METAR COR EGLL 020020Z 22015KT 9999 FEW033 SCT043 08/03 Q0997
                        NOSIG=
201402012350 METAR COR EGLL 012350Z 22016KT 9999 FEW038 08/03 Q0996 NOSIG=
201402012320 METAR COR EGLL 012320Z 21016KT 9999 FEW032 08/03 Q0996 NOSIG=
201402012250 METAR COR EGLL 012250Z 21015G25KT 9999 FEW045 08/03 Q0996
                        NOSIG=
201402012220 METAR COR EGLL 012220Z 22016KT CAVOK 08/03 Q0996 NOSIG=
201402012150 METAR COR EGLL 012150Z 22018G31KT 9999 FEW033 08/02 Q0995
                        NOSIG=
201402012120 METAR COR EGLL 012120Z 21015KT CAVOK 08/02 Q0995 NOSIG=
201402012050 METAR EGLL 012050Z 22017G29KT 9999 FEW029 08/02 Q0995=
201402012020 METAR COR EGLL 012020Z 21016G26KT 9999 FEW029 08/02 Q0995
                        NOSIG=
201402011950 METAR COR EGLL 011950Z 22017G27KT 9999 FEW029 07/02 Q0995
                        NOSIG=
201402011920 METAR COR EGLL 011920Z 21018KT 9999 FEW029 08/02 Q0994 NOSIG=
201402011850 METAR COR EGLL 011850Z 22018KT 9999 FEW026 07/02 Q0994 NOSIG=
201402011820 METAR COR EGLL 011820Z 21015KT 9999 FEW028 07/03 Q0994 NOSIG=
201402011750 METAR COR EGLL 011750Z 22017KT 190V250 9999 FEW030 08/02
                        Q0993 NOSIG=
201402011720 METAR COR EGLL 011720Z 22017G28KT 9999 SCT034 08/02 Q0993
                        NOSIG=
201402011650 METAR COR EGLL 011650Z 21016G26KT 9999 FEW030 SCT037 08/03
                        Q0993 NOSIG=
201402011620 METAR COR EGLL 011620Z 22016KT 9999 SCT034 08/03 Q0992 NOSIG=
201402011550 METAR COR EGLL 011550Z 21014KT 9999 FEW032 SCT037 08/03 Q0992
                        TEMPO SHRA=
201402011520 METAR COR EGLL 011520Z 20016KT 9999 -SHRA FEW025 SCT038 08/03
                        Q0992 TEMPO SHRA=
201402011450 METAR COR EGLL 011450Z 21016KT 9999 SCT031 08/02 Q0991 TEMPO
                        SHRA=
201402011420 METAR COR EGLL 011420Z 21016G26KT 9999 FEW031 08/02 Q0991
                        TEMPO SHRA=
201402011350 METAR COR EGLL 011350Z 22027G38KT 9999 VCSH SCT042 09/01
                        Q0991 TEMPO SHRA=
201402011320 METAR COR EGLL 011320Z 22021KT 9999 -SHRA SCT037 09/01 Q0991
                        TEMPO SHRA=
201402011250 METAR COR EGLL 011250Z 22016KT 9999 FEW041 09/01 Q0991 TEMPO
                        SHRA=
201402011220 METAR EGLL 011220Z 23021G36KT 9999 FEW036 08/M00 Q0991=
201402011150 METAR COR EGLL 011150Z 23018KT 9999 FEW036 08/01 Q0991 NOSIG=
201402011120 METAR COR EGLL 011120Z 23018KT 9999 FEW033 07/01 Q0991 NOSIG=
201402011050 METAR COR EGLL 011050Z 23016KT 9999 FEW033 07/01 Q0991 NOSIG=
201402011020 METAR COR EGLL 011020Z 23016G27KT 9999 FEW029 06/02 Q0990
                        NOSIG=
201402010950 METAR COR EGLL 010950Z 22014G25KT 9999 FEW027 06/02 Q0990
                        NOSIG=
201402010920 METAR COR EGLL 010920Z 20012KT 9999 FEW012 05/02 Q0989 NOSIG=
201402010850 METAR COR EGLL 010850Z 21011KT 9999 FEW012 05/02 Q0989 NOSIG=
201402010820 METAR COR EGLL 010820Z 21008KT 9999 FEW012 05/02 Q0989 NOSIG=
201402010750 METAR COR EGLL 010750Z 22009KT CAVOK 05/03 Q0988 NOSIG=
201402010720 METAR COR EGLL 010720Z 24009KT CAVOK 05/03 Q0988 NOSIG=
201402010650 METAR COR EGLL 010650Z 24010KT CAVOK 06/03 Q0987 NOSIG=
201402010620 METAR EGLL 010620Z 24012KT CAVOK 06/03 Q0987=
201402010550 METAR COR EGLL 010550Z 24011KT 9999 FEW022 07/04 Q0986 NOSIG=
201402010520 METAR COR EGLL 010520Z 24012KT 9999 FEW022 07/04 Q0986 NOSIG=
201402010450 METAR COR EGLL 010450Z 22010KT 9999 FEW020 07/05 Q0985 NOSIG=
201402010420 METAR COR EGLL 010420Z 22008KT CAVOK 07/05 Q0985 NOSIG=
201402010350 METAR COR EGLL 010350Z 23009KT 9999 FEW030 07/05 Q0984 NOSIG=
201402010320 METAR COR EGLL 010320Z 25010KT 9999 FEW030 07/05 Q0984 NOSIG=
201402010250 METAR COR EGLL 010250Z 27022KT 9999 -SHRA FEW009 SCT042 08/05
                        Q0983 RERA NOSIG=
201402010220 METAR EGLL 010220Z AUTO 24013KT 200V270 3900 +RA BKN008///
                        //////CB 10/09 Q0982=
201402010150 METAR EGLL 010150Z AUTO 20006KT 4500 +RA BKN007/// //////CB
                        09/09 Q0983=
201402010120 METAR EGLL 010120Z AUTO 19009KT 9999 -RA FEW008/// SCT014///
                        //////TCU 10/09 Q0983 RERA=
201402010050 METAR COR EGLL 010050Z 19011KT 9000 -RADZ FEW006 SCT010 BKN016
                        09/09 Q0984 TEMPO BKN012=
201402010020 METAR COR EGLL 010020Z 20010KT 9999 FEW004 SCT006 BKN010
                        09/09 Q0984 RERA REDZ TEMPO BKN016=

</pre>

</body>
</html>
