##########################################################
# Query made at 12/27/2012 09:31:50 UTC
# Time interval: from 02/01/2010 00:00  to 03/03/2010 23:59  UTC
##########################################################

##########################################################
# EGLL, London / Heathrow Airport (United Kingdom)
# WMO index: 03772
# Latitude 51-29N. Longitude 000-27W. Altitude 24 m.
##########################################################

###################################
#  METAR/SPECI from EGLL
###################################
201003032350 METAR COR EGLL 032350Z 05007KT 9999 BKN017 03/00 Q1019 NOSIG=
201003032320 METAR COR EGLL 032320Z 06008KT 9999 SCT016 03/00 Q1018 NOSIG=
201003032250 METAR COR EGLL 032250Z 06009KT 9999 SCT017 03/00 Q1018 NOSIG=
201003032220 METAR COR EGLL 032220Z 07011KT 9999 FEW017 03/00 Q1018 NOSIG=
201003032150 METAR COR EGLL 032150Z 07012KT 9999 FEW020 03/M00 Q1018 NOSIG=
201003032120 METAR COR EGLL 032120Z 07012KT 9999 FEW016 03/M01 Q1018 NOSIG=
201003032050 METAR COR EGLL 032050Z 07012KT CAVOK 03/M01 Q1018 NOSIG=
201003032020 METAR COR EGLL 032020Z 07011KT CAVOK 03/M01 Q1018 NOSIG=
201003031950 METAR COR EGLL 031950Z 07012KT CAVOK 04/M01 Q1018 NOSIG=
201003031920 METAR COR EGLL 031920Z 07013KT CAVOK 03/M01 Q1018 NOSIG=
201003031850 METAR COR EGLL 031850Z 07012KT CAVOK 04/M01 Q1018 NOSIG=
201003031820 METAR COR EGLL 031820Z 07012KT CAVOK 04/M02 Q1018 NOSIG=
201003031750 METAR COR EGLL 031750Z 07011KT CAVOK 04/M02 Q1018 NOSIG=
201003031720 METAR COR EGLL 031720Z 08011KT 050V110 CAVOK 04/M03 Q1018
                        NOSIG=
201003031650 METAR COR EGLL 031650Z 08014KT CAVOK 05/M03 Q1018 TEMPO 08016G26KT=
201003031620 METAR EGLL 031620Z 08011KT CAVOK 05/M03 Q1018=
201003031550 METAR COR EGLL 031550Z 08012KT CAVOK 06/M03 Q1019 TEMPO 08015G25KT=
201003031520 METAR COR EGLL 031520Z 08012KT CAVOK 06/M02 Q1019 TEMPO 08015G25KT=
201003031450 METAR COR EGLL 031450Z 08013KT CAVOK 06/M02 Q1019 TEMPO 08015G25KT=
201003031420 METAR COR EGLL 031420Z 08014KT CAVOK 06/M01 Q1019 TEMPO 09016G26KT=
201003031350 METAR COR EGLL 031350Z 09014KT CAVOK 06/M01 Q1019 TEMPO 09016G26KT=
201003031320 METAR COR EGLL 031320Z 09012KT CAVOK 06/M01 Q1020 TEMPO 09016G26KT=
201003031250 METAR COR EGLL 031250Z 08012KT CAVOK 06/M01 Q1020 TEMPO 09016G26KT=
201003031220 METAR COR EGLL 031220Z 09013KT CAVOK 06/M01 Q1021 TEMPO 09016G26KT=
201003031150 METAR COR EGLL 031150Z 10013KT CAVOK 06/M01 Q1021 NOSIG=
201003031120 METAR COR EGLL 031120Z 08013KT CAVOK 05/M01 Q1021 NOSIG=
201003031050 METAR COR EGLL 031050Z 09014KT 9999 FEW024 05/M01 Q1021 NOSIG=
201003031020 METAR COR EGLL 031020Z 09014KT 9999 FEW020 05/M00 Q1021 NOSIG=
201003030950 METAR COR EGLL 030950Z 10015KT 9999 FEW016 04/M00 Q1022 NOSIG=
201003030920 METAR COR EGLL 030920Z 09014KT 9999 FEW016 04/00 Q1022 NOSIG=
201003030850 METAR COR EGLL 030850Z 09013KT 9999 FEW016 04/00 Q1022 NOSIG=
201003030820 METAR COR EGLL 030820Z 08012KT 9999 FEW012 03/00 Q1022 NOSIG=
201003030750 METAR COR EGLL 030750Z 09012KT 9999 FEW012 03/M00 Q1022 NOSIG=
201003030720 METAR COR EGLL 030720Z 09009KT 9999 FEW012 03/M00 Q1022 NOSIG=
201003030650 METAR COR EGLL 030650Z 08010KT 9999 FEW010 03/M00 Q1022 NOSIG=
201003030620 METAR COR EGLL 030620Z 09010KT 9999 FEW010 03/M00 Q1022 NOSIG=
201003030550 METAR COR EGLL 030550Z 08009KT CAVOK 03/00 Q1022 NOSIG=
201003030520 METAR COR EGLL 030520Z 09009KT CAVOK 02/00 Q1023 NOSIG=
201003030450 METAR COR EGLL 030450Z 08008KT CAVOK 02/00 Q1023 NOSIG=
201003030420 METAR EGLL 030420Z 09008KT CAVOK 02/00 Q1023 NOSIG=
201003030350 METAR COR EGLL 030350Z 10008KT CAVOK 03/01 Q1024 NOSIG=
201003030320 METAR COR EGLL 030320Z 09008KT CAVOK 03/00 Q1024 NOSIG=
201003030250 METAR COR EGLL 030250Z 09008KT CAVOK 03/01 Q1024 NOSIG=
201003030220 METAR COR EGLL 030220Z 09008KT CAVOK 03/01 Q1024 NOSIG=
201003030150 METAR COR EGLL 030150Z 09008KT CAVOK 03/01 Q1024 NOSIG=
201003030120 METAR COR EGLL 030120Z 09008KT CAVOK 03/01 Q1024 NOSIG=
201003030050 METAR COR EGLL 030050Z 08008KT 9000 NSC 03/01 Q1025 NOSIG=
201003030020 METAR COR EGLL 030020Z 08007KT CAVOK 03/M00 Q1025 NOSIG=
201003022350 METAR COR EGLL 022350Z 09006KT CAVOK 03/M00 Q1025 NOSIG=
201003022320 METAR COR EGLL 022320Z 10006KT CAVOK 04/M00 Q1025 NOSIG=
201003022250 METAR COR EGLL 022250Z 05004KT CAVOK 05/M00 Q1025 NOSIG=
201003022220 METAR COR EGLL 022220Z 06007KT CAVOK 05/M01 Q1025 NOSIG=
201003022150 METAR COR EGLL 022150Z 07005KT CAVOK 04/M01 Q1025 NOSIG=
201003022120 METAR COR EGLL 022120Z 08005KT CAVOK 04/M00 Q1025 NOSIG=
201003022050 METAR COR EGLL 022050Z 06007KT CAVOK 05/M00 Q1025 NOSIG=
201003022020 METAR COR EGLL 022020Z 07007KT CAVOK 05/M00 Q1025 NOSIG=
201003021950 METAR COR EGLL 021950Z 07006KT CAVOK 05/M00 Q1025 NOSIG=
201003021920 METAR COR EGLL 021920Z 07007KT CAVOK 06/M00 Q1025 NOSIG=
201003021850 METAR COR EGLL 021850Z 06007KT CAVOK 07/M01 Q1025 NOSIG=
201003021820 METAR COR EGLL 021820Z 06006KT CAVOK 07/M03 Q1025 NOSIG=
201003021750 METAR COR EGLL 021750Z 05004KT CAVOK 07/M04 Q1024 NOSIG=
201003021720 METAR COR EGLL 021720Z 06005KT CAVOK 08/M04 Q1024 NOSIG=
201003021650 METAR COR EGLL 021650Z 06006KT CAVOK 09/M04 Q1024 NOSIG=
201003021620 METAR COR EGLL 021620Z 06005KT CAVOK 09/M04 Q1024 NOSIG=
201003021550 METAR COR EGLL 021550Z 07006KT 030V100 CAVOK 10/M05 Q1024
                        NOSIG=
201003021520 METAR COR EGLL 021520Z 08005KT 030V130 CAVOK 10/M05 Q1024
                        NOSIG=
201003021450 METAR COR EGLL 021450Z 02005KT 310V070 CAVOK 10/M05 Q1024
                        NOSIG=
201003021420 METAR COR EGLL 021420Z VRB03KT CAVOK 10/M05 Q1024 NOSIG=
201003021350 METAR COR EGLL 021350Z VRB04KT CAVOK 10/M05 Q1024 NOSIG=
201003021320 METAR COR EGLL 021320Z 02004KT 310V100 CAVOK 10/M05 Q1024
                        NOSIG=
201003021250 METAR COR EGLL 021250Z VRB04KT CAVOK 10/M03 Q1024 NOSIG=
201003021220 METAR COR EGLL 021220Z 03006KT 360V070 9999 FEW042 09/M02
                        Q1024 NOSIG=
201003021150 METAR COR EGLL 021150Z 04004KT 300V090 9999 FEW048 09/M02
                        Q1024 NOSIG=
201003021120 METAR COR EGLL 021120Z 35004KT 270V060 CAVOK 09/M02 Q1024
                        NOSIG=
201003021050 METAR COR EGLL 021050Z VRB03KT CAVOK 08/M01 Q1023 NOSIG=
201003021020 METAR COR EGLL 021020Z VRB02KT CAVOK 07/M00 Q1023 NOSIG=
201003020950 METAR COR EGLL 020950Z VRB02KT 9999 FEW046 06/M00 Q1023 NOSIG=
201003020920 METAR COR EGLL 020920Z 04004KT 350V070 9999 FEW048 05/M00
                        Q1023 NOSIG=
201003020850 METAR COR EGLL 020850Z 35003KT 9999 FEW030 03/M00 Q1022 NOSIG=
201003020820 METAR COR EGLL 020820Z 30003KT CAVOK 02/M00 Q1022 NOSIG=
201003020750 METAR COR EGLL 020750Z VRB02KT CAVOK 01/M01 Q1021 NOSIG=
201003020720 METAR COR EGLL 020720Z VRB02KT CAVOK 00/M01 Q1021 NOSIG=
201003020650 METAR COR EGLL 020650Z 00000KT CAVOK M00/M01 Q1020 NOSIG=
201003020620 METAR COR EGLL 020620Z VRB02KT CAVOK M00/M01 Q1020 NOSIG=
201003020550 METAR COR EGLL 020550Z 27002KT CAVOK 01/M01 Q1020 NOSIG=
201003020520 METAR COR EGLL 020520Z VRB02KT CAVOK 01/M01 Q1019 NOSIG=
201003020450 METAR COR EGLL 020450Z 31002KT CAVOK 01/M01 Q1019 NOSIG=
201003020420 METAR EGLL 020420Z NIL=
201003020350 METAR COR EGLL 020350Z 00000KT 9999 SCT041 02/M01 Q1018 NOSIG=
201003020320 METAR COR EGLL 020320Z 32003KT 9999 BKN046 02/M00 Q1018 NOSIG=
201003020250 METAR COR EGLL 020250Z 28002KT 9999 BKN047 01/M00 Q1018 NOSIG=
201003020220 METAR COR EGLL 020220Z 00000KT CAVOK 01/M01 Q1018 NOSIG=
201003020150 METAR COR EGLL 020150Z 00000KT CAVOK 02/M00 Q1018 NOSIG=
201003020120 METAR COR EGLL 020120Z 28002KT CAVOK 02/M01 Q1017 NOSIG=
201003020050 METAR COR EGLL 020050Z VRB02KT CAVOK 02/M01 Q1017 NOSIG=
201003020020 METAR COR EGLL 020020Z 00000KT CAVOK 02/M01 Q1017 NOSIG=
201003012350 METAR COR EGLL 012350Z VRB02KT CAVOK 02/M01 Q1016 NOSIG=
201003012320 METAR COR EGLL 012320Z 34002KT CAVOK 04/M00 Q1016 NOSIG=
201003012250 METAR COR EGLL 012250Z VRB03KT CAVOK 03/M01 Q1016 NOSIG=
201003012220 METAR COR EGLL 012220Z 18005KT 130V250 CAVOK 03/M01 Q1016
                        NOSIG=
201003012150 METAR COR EGLL 012150Z VRB04KT CAVOK 03/M01 Q1016 NOSIG=
201003012120 METAR COR EGLL 012120Z 06003KT CAVOK 04/M02 Q1015 NOSIG=
201003012050 METAR COR EGLL 012050Z 07003KT CAVOK 06/M01 Q1015=
201003012020 METAR COR EGLL 012020Z 03003KT CAVOK 06/M02 Q1014 NOSIG=
201003011950 METAR COR EGLL 011950Z 04003KT CAVOK 07/M02 Q1014 NOSIG=
201003011920 METAR COR EGLL 011920Z 03003KT CAVOK 07/M02 Q1014 NOSIG=
201003011850 METAR EGLL 011850Z VRB03KT CAVOK 07/M02 Q1014=
201003011820 METAR COR EGLL 011820Z VRB03KT CAVOK 07/M02 Q1014 NOSIG=
201003011750 METAR COR EGLL 011750Z VRB03KT 9999 FEW046 08/M02 Q1013 NOSIG=
201003011720 METAR COR EGLL 011720Z 36004KT 9999 SCT048 08/M02 Q1013 NOSIG=
201003011650 METAR COR EGLL 011650Z 33004KT 300V010 9999 FEW048 08/M01
                        Q1013 NOSIG=
201003011620 METAR COR EGLL 011620Z 30004KT 260V360 9999 FEW048 09/M01
                        Q1012 NOSIG=
201003011550 METAR COR EGLL 011550Z 28008KT CAVOK 09/M01 Q1012 NOSIG=
201003011520 METAR COR EGLL 011520Z 26007KT 220V290 CAVOK 09/M01 Q1012
                        NOSIG=
201003011450 METAR EGLL 011450Z 26008KT 230V300 9999 FEW045 09/M01 Q1012=
201003011420 METAR COR EGLL 011420Z 23007KT 190V270 9999 FEW044 09/M01
                        Q1012 NOSIG=
201003011350 METAR COR EGLL 011350Z 27004KT 220V330 9999 FEW036 09/M01
                        Q1012 NOSIG=
201003011320 METAR COR EGLL 011320Z 25007KT 220V290 9999 FEW034 09/M00
                        Q1012 NOSIG=
201003011250 METAR COR EGLL 011250Z 28005KT 210V350 CAVOK 09/01 Q1012
                        NOSIG=
201003011220 METAR COR EGLL 011220Z VRB05KT 9999 FEW026 08/01 Q1012 NOSIG=
201003011150 METAR COR EGLL 011150Z 26005KT 180V320 9999 FEW026 08/01
                        Q1012 NOSIG=
201003011120 METAR COR EGLL 011120Z 23004KT 140V280 9999 FEW024 07/01
                        Q1011 NOSIG=
201003011050 METAR COR EGLL 011050Z 27005KT 210V310 9999 FEW024 07/01
                        Q1011 NOSIG=
201003011020 METAR COR EGLL 011020Z 31006KT 280V350 CAVOK 06/01 Q1011
                        NOSIG=
201003010950 METAR COR EGLL 010950Z 29005KT CAVOK 05/01 Q1011 NOSIG=
201003010920 METAR COR EGLL 010920Z 29004KT CAVOK 04/01 Q1010 NOSIG=
201003010850 METAR COR EGLL 010850Z 27004KT CAVOK 03/01 Q1010 NOSIG=
201003010820 METAR COR EGLL 010820Z 27005KT CAVOK 02/00 Q1010 NOSIG=
201003010750 METAR EGLL 010750Z 27006KT CAVOK 01/M00 Q1009=
201003010720 METAR COR EGLL 010720Z 27005KT CAVOK 01/M01 Q1009 NOSIG=
201003010650 METAR COR EGLL 010650Z 27006KT CAVOK 01/M00 Q1008 NOSIG=
201003010620 METAR COR EGLL 010620Z 27006KT CAVOK 00/M01 Q1008 NOSIG=
201003010550 METAR COR EGLL 010550Z 29005KT 260V330 CAVOK M00/M01 Q1008
                        NOSIG=
201003010520 METAR COR EGLL 010520Z 28004KT CAVOK M00/M02 Q1008 NOSIG=
201003010450 METAR COR EGLL 010450Z 28006KT CAVOK M00/M01 Q1007 NOSIG=
201003010420 METAR COR EGLL 010420Z 27006KT CAVOK 00/M01 Q1007 NOSIG=
201003010350 METAR COR EGLL 010350Z 28006KT CAVOK 01/M01 Q1007 NOSIG=
201003010320 METAR COR EGLL 010320Z 25006KT CAVOK 02/M00 Q1006 NOSIG=
201003010250 METAR COR EGLL 010250Z 25007KT CAVOK 02/M01 Q1006 NOSIG=
201003010220 METAR COR EGLL 010220Z 26006KT CAVOK 02/M00 Q1006 NOSIG=
201003010150 METAR COR EGLL 010150Z 27006KT CAVOK 01/M01 Q1005 NOSIG=
201003010120 METAR COR EGLL 010120Z 27007KT CAVOK 02/M00 Q1005 NOSIG=
201003010050 METAR COR EGLL 010050Z 27007KT CAVOK 02/M01 Q1004 NOSIG=
201003010020 METAR COR EGLL 010020Z 27007KT CAVOK 02/M01 Q1004 NOSIG=
201002282350 METAR COR EGLL 282350Z 27009KT CAVOK 02/M01 Q1004 NOSIG=
201002282320 METAR COR EGLL 282320Z 27008KT CAVOK 03/M00 Q1003 NOSIG=
201002282250 METAR COR EGLL 282250Z 27008KT CAVOK 03/M00 Q1003 NOSIG=
201002282220 METAR COR EGLL 282220Z 28009KT CAVOK 04/00 Q1002 NOSIG=
201002282150 METAR COR EGLL 282150Z 27009KT CAVOK 05/00 Q1002 NOSIG=
201002282120 METAR COR EGLL 282120Z 28009KT 9999 FEW033 BKN048 05/01 Q1001
                        NOSIG=
201002282050 METAR COR EGLL 282050Z 29007KT 9999 BKN038 05/01 Q1001 NOSIG=
201002282020 METAR COR EGLL 282020Z 29005KT 9999 BKN039 BKN044 05/01 Q1000
                        NOSIG=
201002281950 METAR COR EGLL 281950Z 28007KT 9999 BKN038 05/01 Q0999 NOSIG=
201002281920 METAR COR EGLL 281920Z 29007KT 9999 BKN042 06/02 Q0999 NOSIG=
201002281850 METAR COR EGLL 281850Z 29008KT 9999 FEW010 BKN040 05/02 Q0998
                        NOSIG=
201002281820 METAR COR EGLL 281820Z 32012KT 9999 6000NE -RA SCT020 BKN040
                        06/03 Q0998 NOSIG=
201002281750 METAR COR EGLL 281750Z 26011KT 9999 8000E -RA SCT025 BKN040
                        06/03 Q0997 NOSIG=
201002281720 METAR COR EGLL 281720Z 27010KT 9999 SCT031 06/02 Q0996 NOSIG=
201002281650 METAR COR EGLL 281650Z 27011KT 9999 FEW037 BKN044 06/02 Q0995
                        NOSIG=
201002281620 METAR COR EGLL 281620Z 28012KT 9999 FEW022 SCT046 07/01 Q0995
                        NOSIG=
201002281550 METAR COR EGLL 281550Z 29012KT 9999 BKN022 07/02 Q0994 NOSIG=
201002281520 METAR COR EGLL 281520Z 29012KT 270V330 9999 SCT019 BKN028
                        07/03 Q0994 NOSIG=
201002281450 METAR COR EGLL 281450Z 28011KT 9999 FEW018 BKN024 06/03 Q0993
                        NOSIG=
201002281420 METAR COR EGLL 281420Z 29010KT 9999 FEW012 BKN017 06/03 Q0992
                        NOSIG=
201002281350 METAR COR EGLL 281350Z 29009KT 9999 FEW012 BKN016 05/03 Q0991
                        NOSIG=
201002281320 METAR COR EGLL 281320Z 30010KT 9999 -RA SCT012 BKN018 05/03
                        Q0991 NOSIG=
201002281250 METAR COR EGLL 281250Z 30011KT 9999 -DZ SCT012 BKN018 05/03
                        Q0990 TEMPO BKN014=
201002281220 METAR COR EGLL 281220Z 31010KT 9999 BKN012 BKN018 05/02 Q0989
                        BECMG SCT012=
201002281150 METAR COR EGLL 281150Z 31010KT 270V340 9999 -RA BKN011 BKN018
                        05/03 Q0988 BECMG SCT011=
201002281120 METAR COR EGLL 281120Z 31012KT 9999 -RA SCT011 BKN018 05/03
                        Q0987 NOSIG=
201002281050 METAR COR EGLL 281050Z 31011KT 290V350 9999 -RA SCT013 BKN017
                        05/03 Q0986 RERA NOSIG=
201002281020 METAR COR EGLL 281020Z 32013KT 9999 -RA SCT011 BKN019 05/03
                        Q0985 TEMPO RA BKN011=
201002280950 METAR EGLL 280950Z 32011KT 9999 -RA SCT011 BKN019 05/04 Q0983=
201002280920 METAR COR EGLL 280920Z 32011KT 9000 -RA SCT011 BKN020 06/04
                        Q0983 TEMPO RA BKN011=
201002280850 METAR EGLL 280850Z 33010KT 9999 -RA SCT012 BKN020 06/04 Q0982=
201002280820 METAR EGLL 280820Z 35008KT 310V010 9999 -RA SCT009 BKN014
                        06/04 Q0981=
201002280750 METAR COR EGLL 280750Z 36009KT 320V030 9000 -RA SCT011 BKN016
                        05/04 Q0980 RERA TEMPO RA BKN011=
201002280720 METAR COR EGLL 280720Z 36009KT 340V040 7000 RA SCT010 BKN020
                        06/04 Q0980 RERA NOSIG=
201002280650 METAR COR EGLL 280650Z 02010KT 350V050 6000 RA SCT010 BKN019
                        06/04 Q0980 NOSIG=
201002280620 METAR COR EGLL 280620Z 01008KT 340V050 5000 RA FEW013 BKN020
                        06/04 Q0980 TEMPO 4000 BKN012=
201002280550 METAR COR EGLL 280550Z 01007KT 330V040 6000 RA FEW011 BKN025
                        06/04 Q0979 TEMPO 4000 BKN012=
201002280520 METAR COR EGLL 280520Z 02010KT 5000 RA SCT008 BKN027 06/05
                        Q0979 TEMPO 4000 BKN012=
201002280450 METAR COR EGLL 280450Z 03009KT 7000 RA SCT009 BKN026 06/05
                        Q0980 RERA TEMPO 4000 BKN012=
201002280420 METAR EGLL 280420Z 02007KT 6000 RA FEW006 BKN027 06/05 Q0980
                        TEMPO 4000 BKN012=
201002280350 METAR COR EGLL 280350Z 36005KT 5000 RA FEW008 SCT020 BKN030
                        06/05 Q0981 TEMPO BKN012=
201002280320 METAR COR EGLL 280320Z 03005KT 350V060 6000 RA SCT020 BKN029
                        06/05 Q0981 TEMPO BKN012=
201002280250 METAR COR EGLL 280250Z 05005KT 6000 RA BKN026 06/05 Q0982
                        TEMPO BKN012=
201002280220 METAR COR EGLL 280220Z 05007KT 6000 RA SCT025 BKN035 06/05
                        Q0982 TEMPO BKN012=
201002280150 METAR COR EGLL 280150Z 04005KT 9000 -RA SCT040 07/05 Q0983
                        NOSIG=
201002280120 METAR COR EGLL 280120Z 02004KT 320V070 9999 -RA FEW032 SCT039
                        07/05 Q0983 NOSIG=
201002280050 METAR COR EGLL 280050Z 04005KT 020V080 9999 -RA SCT043 07/05
                        Q0984 NOSIG=
201002280020 METAR COR EGLL 280020Z 04004KT 010V070 9999 SCT046 07/05
                        Q0984 NOSIG=
201002272350 METAR COR EGLL 272350Z 05004KT 9999 SCT044 07/05 Q0985 NOSIG=
201002272320 METAR COR EGLL 272320Z 06005KT 9999 -DZ SCT046 07/05 Q0985
                        NOSIG=
201002272250 METAR COR EGLL 272250Z 07004KT CAVOK 08/05 Q0986 NOSIG=
201002272220 METAR COR EGLL 272220Z 07004KT 9999 FEW028 08/05 Q0986 NOSIG=
201002272150 METAR COR EGLL 272150Z 07005KT 9999 FEW028 08/06 Q0987 NOSIG=
201002272120 METAR COR EGLL 272120Z 07004KT 9999 SCT030 07/06 Q0987 NOSIG=
201002272050 METAR COR EGLL 272050Z 08004KT 040V110 9999 SCT025 BKN030
                        07/06 Q0988 NOSIG=
201002272020 METAR COR EGLL 272020Z 14003KT 9999 -RA SCT024 07/06 Q0988
                        NOSIG=
201002271950 METAR COR EGLL 271950Z 14005KT 9999 SCT021 BKN029 08/06 Q0988
                        NOSIG=
201002271920 METAR COR EGLL 271920Z 14006KT 9999 SCT029 SCT046 08/06 Q0989
                        NOSIG=
201002271850 METAR COR EGLL 271850Z 14007KT 080V210 9999 FEW022 BKN040
                        08/06 Q0989 NOSIG=
201002271820 METAR COR EGLL 271820Z 15006KT 110V180 9999 FEW030 08/06
                        Q0990 NOSIG=
201002271750 METAR COR EGLL 271750Z 17007KT 130V200 9999 VCSH SCT021 BKN030
                        09/06 Q0990 NOSIG=
201002271720 METAR COR EGLL 271720Z 16006KT 120V230 9999 7000E VCSH FEW023
                        SCT030 09/06 Q0990 NOSIG=
201002271650 METAR COR EGLL 271650Z 22007KT 9999 VCSH FEW026 SCT030 09/06
                        Q0990 NOSIG=
201002271620 METAR COR EGLL 271620Z 19011KT 9999 VCSH FEW021CB SCT038
                        10/06 Q0990 NOSIG=
201002271550 METAR COR EGLL 271550Z 20009KT 180V260 9999 BKN024 10/06
                        Q0991 NOSIG=
201002271520 METAR COR EGLL 271520Z 19012KT 9999 SCT019 SCT023 10/06 Q0991
                        NOSIG=
201002271450 METAR COR EGLL 271450Z 20010KT 170V230 9999 VCSH SCT020 SCT032
                        10/07 Q0991 NOSIG=
201002271420 METAR COR EGLL 271420Z 19012KT 170V240 9999 SCT020 SCT028
                        10/06 Q0992 NOSIG=
201002271350 METAR COR EGLL 271350Z 20009KT 170V240 9999 FEW015 BKN022
                        10/07 Q0992 NOSIG=
201002271320 METAR COR EGLL 271320Z 20009KT 160V240 9999 BKN018 10/06
                        Q0993 NOSIG=
201002271250 METAR COR EGLL 271250Z 20005KT 140V270 9999 FEW017 SCT028
                        09/06 Q0993 NOSIG=
201002271220 METAR COR EGLL 271220Z 22007KT 180V250 9999 FEW013 SCT025
                        09/06 Q0994 NOSIG=
201002271150 METAR COR EGLL 271150Z 22007KT 170V250 9999 FEW024 SCT034
                        08/06 Q0994 NOSIG=
201002271120 METAR COR EGLL 271120Z 22009KT 180V250 9999 FEW018 SCT025
                        07/05 Q0994 RERA NOSIG=
201002271050 METAR COR EGLL 271050Z 23013G23KT 200V260 8000 -SHRA BKN012
                        07/04 Q0994 BECMG SCT015=
201002271020 METAR COR EGLL 271020Z 18008KT 160V230 8000 3500W -SHRA FEW013
                        BKN021CB 09/06 Q0994 TEMPO 4000 +SHRA
                        BKN014CB=
201002270950 METAR COR EGLL 270950Z 22011KT 9999 FEW015 BKN027CB 08/05
                        Q0994 TEMPO 4000 +SHRA BKN014CB=
201002270920 METAR COR EGLL 270920Z 21009KT 190V250 9999 SCT015 08/06
                        Q0994 NOSIG=
201002270850 METAR COR EGLL 270850Z 20009KT 170V250 9999 SCT017 08/06
                        Q0994 NOSIG=
201002270820 METAR COR EGLL 270820Z 21008KT 9999 SCT018 07/06 Q0994 NOSIG=
201002270750 METAR COR EGLL 270750Z 21010KT 9999 -SHRA SCT011 SCT024 07/06
                        Q0994 NOSIG=
201002270720 METAR COR EGLL 270720Z 19009KT 9999 SCT011 BKN023CB 07/05
                        Q0994 TEMPO 4000 +SHRA BKN008 BKN014CB=
201002270650 METAR COR EGLL 270650Z 19009KT 170V240 9999 SCT013 BKN040
                        07/05 Q0995 TEMPO 4000 +SHRA BKN008
                        BKN014CB=
201002270620 METAR COR EGLL 270620Z 19009KT 170V240 9999 FEW012 SCT014
                        BKN019 07/05 Q0995 TEMPO 4000 +SHRA
                        BKN008 BKN014CB=
201002270550 METAR COR EGLL 270550Z 19008KT 9999 BKN012 07/05 Q0995 TEMPO
                        4000 +SHRA BKN008 BKN014CB=
201002270520 METAR COR EGLL 270520Z 19009KT 9999 FEW008 BKN018 07/05 Q0995
                        TEMPO 4000 +SHRA BKN008 BKN014CB=
201002270450 METAR COR EGLL 270450Z 17007KT 130V210 8000 FEW010 BKN012
                        06/05 Q0995 TEMPO SHRA BKN008=
201002270420 METAR COR EGLL 270420Z 15006KT 8000 -DZ FEW006 BKN017 06/05
                        Q0996 TEMPO SHRA BKN006=
201002270350 METAR COR EGLL 270350Z 14006KT 4200 -RADZ FEW017 SCT025 05/04
                        Q0996 TEMPO SHRA BKN012=
201002270320 METAR COR EGLL 270320Z 14005KT 9999 -RA SCT020 BKN024 05/04
                        Q0996 TEMPO SHRA BKN014=
201002270250 METAR COR EGLL 270250Z 15005KT 9999 BKN029 06/04 Q0997 TEMPO
                        SHRA BKN014=
201002270220 METAR COR EGLL 270220Z 17005KT 9999 -SHRA FEW033 BKN038 05/04
                        Q0997 TEMPO SHRA BKN014=
201002270150 METAR COR EGLL 270150Z 18005KT 9999 FEW038 BKN045 05/03 Q0998
                        TEMPO SHRA BKN014=
201002270120 METAR COR EGLL 270120Z 20006KT 180V280 9999 SCT035 05/03
                        Q0998 TEMPO SHRA BKN014=
201002270050 METAR COR EGLL 270050Z 21007KT 9999 FEW028 SCT036 04/02 Q0998
                        NOSIG=
201002270020 METAR COR EGLL 270020Z 21007KT 9999 FEW035 04/02 Q0999 NOSIG=
201002262350 METAR COR EGLL 262350Z 22007KT CAVOK 04/01 Q0999 NOSIG=
201002262320 METAR COR EGLL 262320Z 22009KT CAVOK 04/01 Q0999 NOSIG=
201002262250 METAR COR EGLL 262250Z 22008KT 9999 FEW034 04/01 Q0999 NOSIG=
201002262220 METAR COR EGLL 262220Z 21007KT 9999 FEW043 SCT048 05/00 Q0999
                        NOSIG=
201002262150 METAR COR EGLL 262150Z 22008KT CAVOK 04/M00 Q0998 NOSIG=
201002262120 METAR COR EGLL 262120Z 22008KT CAVOK 05/M00 Q0998 NOSIG=
201002262050 METAR COR EGLL 262050Z 22009KT CAVOK 05/M00 Q0998 NOSIG=
201002262020 METAR COR EGLL 262020Z 24009KT CAVOK 05/01 Q0998 NOSIG=
201002261950 METAR COR EGLL 261950Z 26012KT 9999 FEW047 06/01 Q0997 NOSIG=
201002261920 METAR COR EGLL 261920Z 26015KT 9999 FEW044 06/01 Q0997 NOSIG=
201002261850 METAR COR EGLL 261850Z 26016KT 9999 FEW047 06/00 Q0997 NOSIG=
201002261820 METAR EGLL 261820Z 25015KT 9999 SCT038 07/M00 Q0997 NOSIG=
201002261750 METAR COR EGLL 261750Z 26017KT CAVOK 07/M01 Q0996 NOSIG=
201002261720 METAR COR EGLL 261720Z 26023KT CAVOK 07/M02 Q0995 NOSIG=
201002261650 METAR COR EGLL 261650Z 26021KT CAVOK 07/M02 Q0995 NOSIG=
201002261620 METAR COR EGLL 261620Z 26025KT CAVOK 08/M02 Q0994 NOSIG=
201002261550 METAR COR EGLL 261550Z 26026KT 9999 SCT040 08/M01 Q0994 NOSIG=
201002261520 METAR COR EGLL 261520Z 27028G38KT 9999 SCT037 BKN045 08/M00
                        Q0993 NOSIG=
201002261450 METAR COR EGLL 261450Z 26026KT 9999 SCT035 BKN043 08/00 Q0993
                        NOSIG=
201002261420 METAR COR EGLL 261420Z 26026G38KT 9999 FEW036 BKN044 08/00
                        Q0992 NOSIG=
201002261350 METAR COR EGLL 261350Z 27023KT 9999 FEW039 BKN044 08/00 Q0992
                        NOSIG=
201002261320 METAR COR EGLL 261320Z 27020KT 9999 SCT039 BKN047 08/00 Q0991
                        NOSIG=
201002261250 METAR COR EGLL 261250Z 27020KT 9999 SCT035 BKN041 08/01 Q0991
                        NOSIG=
201002261220 METAR COR EGLL 261220Z 27024KT 9999 SCT031 BKN040 07/01 Q0990
                        NOSIG=
201002261150 METAR COR EGLL 261150Z 27025KT 9999 SCT034 BKN043 07/01 Q0990
                        NOSIG=
201002261120 METAR COR EGLL 261120Z 27021KT 9999 FEW034 BKN039 07/00 Q0989
                        NOSIG=
201002261050 METAR COR EGLL 261050Z 27021KT 9999 FEW030 SCT034 07/01 Q0989
                        NOSIG=
201002261020 METAR COR EGLL 261020Z 27022KT CAVOK 06/01 Q0988 NOSIG=
201002260950 METAR COR EGLL 260950Z 27022KT CAVOK 06/01 Q0987 NOSIG=
201002260920 METAR COR EGLL 260920Z 27021KT CAVOK 06/01 Q0987 NOSIG=
201002260850 METAR COR EGLL 260850Z 27019KT 9999 FEW022 BKN045 06/02 Q0986
                        NOSIG=
201002260820 METAR COR EGLL 260820Z 27018KT 9999 FEW022 BKN032 05/02 Q0986
                        NOSIG=
201002260750 METAR COR EGLL 260750Z 27017KT 9999 BKN020 05/03 Q0985 NOSIG=
201002260720 METAR COR EGLL 260720Z 27017KT 9999 BKN015 05/03 Q0984 NOSIG=
201002260650 METAR EGLL 260650Z 27016KT 9999 SCT012 BKN015 05/03 Q0984=
201002260620 METAR COR EGLL 260620Z 27015KT 9999 BKN015 05/03 Q0983 NOSIG=
201002260550 METAR COR EGLL 260550Z 27015KT 9999 -RA BKN016 05/03 Q0983
                        NOSIG=
201002260520 METAR EGLL 260520Z 27013KT 9999 -RA SCT013 BKN016 05/04 Q0982=
201002260450 METAR EGLL 260450Z 27013KT 9999 -RA SCT011 BKN016 05/04 Q0981=
201002260420 METAR COR EGLL 260420Z 27013KT 9999 -RA SCT008 BKN014 06/04
                        Q0981 BECMG BKN018=
201002260350 METAR COR EGLL 260350Z 27014KT 9999 -RA SCT009 BKN017 06/04
                        Q0980 NOSIG=
201002260320 METAR EGLL 260320Z 27012KT 9999 -RA FEW008 BKN020 06/05 Q0980=
201002260250 METAR COR EGLL 260250Z 26011KT 9000 -RA FEW007 BKN023 06/05
                        Q0980 NOSIG=
201002260220 METAR COR EGLL 260220Z 24010KT 9999 FEW006 BKN010 06/05 Q0979
                        TEMPO BKN007=
201002260150 METAR EGLL 260150Z NIL=
201002260120 METAR COR EGLL 260120Z 23012KT 8000 FEW004 BKN006 07/05 Q0979
                        BECMG BKN012=
201002260050 METAR EGLL 260050Z 21009KT 9999 FEW005 BKN007 07/05 Q0979=
201002260020 METAR COR EGLL 260020Z 21011KT 9999 FEW006 BKN008 07/05 Q0978
                        BECMG SCT014=
201002252350 METAR COR EGLL 252350Z 21012KT 9999 FEW009 BKN012 07/05 Q0978
                        NOSIG=
201002252320 METAR COR EGLL 252320Z 20011KT 180V240 9999 BKN012 08/05
                        Q0978 NOSIG=
201002252250 METAR COR EGLL 252250Z 20012KT 9999 BKN013 08/05 Q0978 BECMG
                        SCT014=
201002252220 METAR COR EGLL 252220Z 21012KT 9999 BKN016 09/06 Q0978 NOSIG=
201002252150 METAR COR EGLL 252150Z 20013KT 9999 BKN014 09/06 Q0978 BECMG
                        SCT014=
201002252120 METAR COR EGLL 252120Z 20013KT 9999 BKN014 OVC021 09/07 Q0978
                        BECMG SCT014=
201002252050 METAR COR EGLL 252050Z 18010KT 9999 SCT014 BKN020 09/07 Q0978
                        TEMPO BKN014=
201002252020 METAR COR EGLL 252020Z 10006KT 9999 -RA FEW007 SCT015 BKN024
                        08/07 Q0978 RERA TEMPO BKN012=
201002251950 METAR COR EGLL 251950Z 10007KT 7000 RA FEW005 BKN011 07/07
                        Q0979 NOSIG=
201002251920 METAR COR EGLL 251920Z 09009KT 8000 RA FEW005 BKN013 07/06
                        Q0979 RERA TEMPO -RA BKN008=
201002251850 METAR COR EGLL 251850Z 08011KT 9000 RA FEW005 SCT008 BKN020
                        07/06 Q0980 TEMPO BKN008=
201002251820 METAR COR EGLL 251820Z 08011KT 9999 RA SCT007 BKN015 07/06
                        Q0980 TEMPO BKN010=
201002251750 METAR COR EGLL 251750Z 07008KT 9000 RA BKN009 BKN018 07/05
                        Q0981 TEMPO BKN010=
201002251720 METAR COR EGLL 251720Z 07009KT 8000 RA FEW010 SCT013 BKN017
                        07/05 Q0982 TEMPO -RA BKN014=
201002251650 METAR COR EGLL 251650Z 07008KT 8000 RA FEW015 BKN024 07/06
                        Q0982 TEMPO -RA BKN014=
201002251620 METAR COR EGLL 251620Z 10009KT 7000 RA FEW011 SCT023 BKN028
                        07/06 Q0983 RERA TEMPO -RA BKN014=
201002251550 METAR COR EGLL 251550Z 13008KT 9000 RA FEW012 SCT018 BKN030
                        08/06 Q0984 RERA TEMPO -RA BKN014=
201002251520 METAR COR EGLL 251520Z 10008KT 9999 9000S -RA FEW016 SCT020
                        BKN031 08/06 Q0985 BECMG RA BKN014=
201002251450 METAR COR EGLL 251450Z 12009KT 9999 -RA SCT020 BKN030 09/06
                        Q0985 BECMG RA BKN014=
201002251420 METAR COR EGLL 251420Z 14007KT 100V210 9999 SCT017 BKN022
                        09/06 Q0986 BECMG RA BKN014=
201002251350 METAR COR EGLL 251350Z 15008KT 110V200 9999 SCT018 BKN038
                        09/05 Q0987 NOSIG=
201002251320 METAR COR EGLL 251320Z 16008KT 130V220 9999 FEW018 BKN041
                        09/05 Q0987 NOSIG=
201002251250 METAR COR EGLL 251250Z 17008KT 120V230 9999 SCT016 BKN030
                        09/05 Q0988 NOSIG=
201002251220 METAR COR EGLL 251220Z 17008KT 130V240 9999 SCT016 BKN030
                        09/05 Q0989 NOSIG=
201002251150 METAR COR EGLL 251150Z 19010KT 150V240 9999 FEW010 BKN015
                        09/05 Q0989 NOSIG=
201002251120 METAR EGLL 251120Z 19010KT 150V240 9999 FEW013 SCT019 09/06
                        Q0990=
201002251050 METAR COR EGLL 251050Z 19010KT 160V240 9999 FEW013 SCT016
                        09/06 Q0990 NOSIG=
201002251020 METAR COR EGLL 251020Z 19010KT 150V230 9999 SCT012 09/07
                        Q0991 NOSIG=
201002250950 METAR COR EGLL 250950Z 18007KT 140V230 9999 FEW026 BKN030
                        08/07 Q0991 NOSIG=
201002250920 METAR COR EGLL 250920Z 17007KT 140V220 8000 FEW005 BKN047
                        08/06 Q0991 NOSIG=
201002250850 METAR COR EGLL 250850Z 17005KT 130V220 7000 FEW009 BKN045
                        07/06 Q0991 TEMPO BKN012=
201002250820 METAR COR EGLL 250820Z 18006KT 140V230 8000 SCT006 BKN045
                        07/06 Q0991 TEMPO BKN009=
201002250750 METAR COR EGLL 250750Z 20005KT 160V260 8000 BKN009 07/05
                        Q0991 TEMPO BKN012=
201002250720 METAR COR EGLL 250720Z 20004KT 160V240 6000 SCT009 BKN011
                        07/05 Q0990 NOSIG=
201002250650 METAR COR EGLL 250650Z 24007KT 9000 FEW006 BKN010 07/05 Q0991
                        NOSIG=
201002250620 METAR COR EGLL 250620Z 23006KT 190V270 7000 FEW005 BKN009
                        07/06 Q0991 NOSIG=
201002250550 METAR COR EGLL 250550Z 21006KT 180V250 7000 BKN007 07/06
                        Q0991 NOSIG=
201002250520 METAR COR EGLL 250520Z 20004KT 170V230 7000 BKN008 07/06
                        Q0991 NOSIG=
201002250450 METAR COR EGLL 250450Z 21005KT 7000 BKN008 07/06 Q0991 NOSIG=
201002250420 METAR COR EGLL 250420Z 22006KT 6000 BKN006 07/06 Q0991 NOSIG=
201002250350 METAR EGLL 250350Z 25004KT 5000 BR SCT006 07/06 Q0991=
201002250320 METAR EGLL 250320Z 25005KT 5000 BR BKN006 07/06 Q0991=
201002250250 METAR COR EGLL 250250Z 27006KT 3900 BR SCT005 BKN006 07/06
                        Q0991 NOSIG=
201002250220 METAR EGLL 250220Z 26006KT 3200 BR OVC005 07/06 Q0990=
201002250150 METAR COR EGLL 250150Z 27007KT 3600 BR OVC006 07/06 Q0990
                        TEMPO BKN003=
201002250120 METAR COR EGLL 250120Z 28007KT 4100 BR FEW006 SCT008 BKN024
                        07/06 Q0990 TEMPO BKN006=
201002250050 METAR COR EGLL 250050Z 27006KT 6000 FEW006 BKN010 07/06 Q0989
                        NOSIG=
201002250020 METAR COR EGLL 250020Z 28006KT 9000 SCT007 BKN010 07/06 Q0989
                        NOSIG=
201002242350 METAR COR EGLL 242350Z 30005KT 6000 FEW003 BKN007 07/06 Q0988
                        TEMPO 4000 BR=
201002242320 METAR COR EGLL 242320Z VRB03KT 3800 -DZ FEW002 BKN003 07/06
                        Q0988 NOSIG=
201002242250 METAR COR EGLL 242250Z 34004KT 300V010 3400 BR SCT003 BKN008
                        08/06 Q0987 TEMPO 5000=
201002242220 METAR EGLL 242220Z 35005KT 310V010 3400 BR BKN004 OVC010
                        08/07 Q0987=
201002242150 METAR COR EGLL 242150Z 35004KT 310V020 6000 -RADZ SCT004
                        SCT010 08/07 Q0987 TEMPO 4000 RADZ
                        BKN008=
201002242120 METAR COR EGLL 242120Z 02006KT 3300 -RADZ BKN010 BKN017 08/07
                        Q0986 TEMPO 6000=
201002242050 METAR COR EGLL 242050Z 02005KT 340V050 7000 -RA SCT020 BKN027
                        08/07 Q0986 TEMPO 9999=
201002242020 METAR EGLL 242020Z 05005KT 010V070 9999 -RA BKN031 08/07
                        Q0986 RERA=
201002241950 METAR COR EGLL 241950Z 08006KT 9999 RA FEW017 BKN032 08/07
                        Q0986 NOSIG=
201002241920 METAR COR EGLL 241920Z 07007KT 9999 -RA SCT017 BKN026 08/07
                        Q0986 NOSIG=
201002241850 METAR COR EGLL 241850Z 06007KT 9999 BKN024 08/07 Q0987 TEMPO
                        RA=
201002241820 METAR COR EGLL 241820Z 07006KT 8000 -RA SCT030 BKN034 08/07
                        Q0987 RERA NOSIG=
201002241750 METAR COR EGLL 241750Z 14007KT 9999 RA FEW027 SCT035 09/06
                        Q0987 NOSIG=
201002241720 METAR EGLL 241720Z 14010KT 9999 -RA FEW019 SCT022 09/06 Q0988=
201002241650 METAR COR EGLL 241650Z 12010KT 9999 BKN023 10/06 Q0988 TEMPO
                        SHRA BKN012=
201002241620 METAR COR EGLL 241620Z 14006KT 9999 FEW024 SCT028 10/07 Q0988
                        RERA TEMPO SHRA BKN012=
201002241550 METAR COR EGLL 241550Z 14008KT 9999 FEW025 10/07 Q0988 NOSIG=
201002241520 METAR COR EGLL 241520Z 15009KT 110V170 9999 FEW025 SCT037
                        10/07 Q0989 TEMPO SHRA BKN012=
201002241450 METAR COR EGLL 241450Z 15008KT 110V220 9999 -RA SCT019 BKN023
                        10/07 Q0989 NOSIG=
201002241420 METAR COR EGLL 241420Z 15008KT 120V200 9999 SCT016 BKN021
                        10/07 Q0990 NOSIG=
201002241350 METAR COR EGLL 241350Z 15008KT 110V220 9999 FEW014 SCT021
                        11/07 Q0990 NOSIG=
201002241320 METAR COR EGLL 241320Z 17007KT 130V220 9999 SCT016 BKN020
                        10/07 Q0990 NOSIG=
201002241250 METAR COR EGLL 241250Z 18008KT 140V230 9999 BKN016 09/07
                        Q0991 NOSIG=
201002241220 METAR COR EGLL 241220Z 19010KT 140V240 9999 BKN012 09/06
                        Q0991 TEMPO BKN015=
201002241150 METAR COR EGLL 241150Z 18010KT 160V230 9999 SCT012 SCT022
                        09/07 Q0991 NOSIG=
201002241120 METAR COR EGLL 241120Z 18007KT 130V230 7000 -RA SCT006 SCT010
                        BKN039 08/07 Q0991 NOSIG=
201002241050 METAR COR EGLL 241050Z 17006KT 130V260 8000 -RA FEW010 SCT035
                        BKN048 08/07 Q0991 NOSIG=
201002241020 METAR COR EGLL 241020Z 17007KT 130V240 8000 -RA FEW005 SCT017
                        BKN038 08/07 Q0991 TEMPO BKN010=
201002240950 METAR COR EGLL 240950Z 15006KT 120V210 5000 -RA BKN005 08/07
                        Q0991 BECMG BKN010=
201002240920 METAR COR EGLL 240920Z 16006KT 130V220 4500 -DZ SCT008 BKN038
                        08/06 Q0991 TEMPO RA BKN012=
201002240850 METAR COR EGLL 240850Z 15006KT 120V220 5000 -DZ BKN010 07/06
                        Q0991 TEMPO RA BKN008=
201002240820 METAR COR EGLL 240820Z 15007KT 130V200 6000 BKN009 07/06
                        Q0991 TEMPO RA=
201002240750 METAR COR EGLL 240750Z 17006KT 130V230 6000 BKN009 07/06
                        Q0991 TEMPO RA=
201002240720 METAR COR EGLL 240720Z 16007KT 130V210 6000 BKN008 06/05
                        Q0991 TEMPO SCT008 BKN014=
201002240650 METAR COR EGLL 240650Z 16005KT 130V210 7000 BKN009 05/05
                        Q0991 TEMPO SCT012=
201002240620 METAR COR EGLL 240620Z 15005KT 110V230 8000 BKN009 04/04
                        Q0991 NOSIG=
201002240550 METAR COR EGLL 240550Z 15004KT 8000 SCT010 05/04 Q0991 TEMPO
                        BKN008=
201002240520 METAR COR EGLL 240520Z 17006KT 130V200 9000 BKN011 05/04
                        Q0991 TEMPO BKN008=
201002240450 METAR COR EGLL 240450Z 15006KT 8000 BKN011 05/04 Q0991 TEMPO
                        BKN008=
201002240420 METAR COR EGLL 240420Z 15005KT 9000 -DZ FEW011 SCT032 05/04
                        Q0991 TEMPO BKN008=
201002240350 METAR COR EGLL 240350Z 16005KT 9000 FEW021 SCT030 05/04 Q0991
                        NOSIG=
201002240320 METAR COR EGLL 240320Z 16006KT 7000 FEW027 05/04 Q0991 NOSIG=
201002240250 METAR COR EGLL 240250Z 15006KT 8000 FEW046 05/04 Q0991 TEMPO
                        SHRA=
201002240220 METAR COR EGLL 240220Z 15006KT 8000 FEW040 05/04 Q0991 TEMPO
                        SHRA=
201002240150 METAR COR EGLL 240150Z 15006KT 7000 SCT035 05/04 Q0991 NOSIG=
201002240120 METAR COR EGLL 240120Z 14005KT 7000 -SHRA BKN030 05/04 Q0992
                        TEMPO SHRA BKN014=
201002240050 METAR COR EGLL 240050Z 13004KT 2700 -RA BR BKN023 05/04 Q0992
                        TEMPO 6000 SHRA BKN012=
201002240020 METAR COR EGLL 240020Z VRB02KT 3200 BR SCT005 BKN014 05/04
                        Q0992 TEMPO 6000 SHRA BKN008=
201002232350 METAR COR EGLL 232350Z 12004KT 3200 BR SCT004 BKN016 04/04
                        Q0991 TEMPO 6000 SHRA BKN009=
201002232320 METAR COR EGLL 232320Z 12005KT 3400 BR BKN004 04/03 Q0991
                        BECMG 5000 SCT004 BKN009=
201002232250 METAR COR EGLL 232250Z 10003KT 3500 BR BKN005 04/03 Q0991
                        BECMG 5000 SCT005 BKN010=
201002232220 METAR COR EGLL 232220Z 10006KT 3500 BR BKN004 04/03 Q0991
                        BECMG BKN006=
201002232150 METAR COR EGLL 232150Z 09005KT 2500 BR FEW003 BKN005 04/03
                        Q0992 TEMPO BKN003=
201002232120 METAR COR EGLL 232120Z 11007KT 2200 BR FEW003 BKN004 04/03
                        Q0992 NOSIG=
201002232050 METAR COR EGLL 232050Z 10006KT 2100 BR SCT003 BKN004 03/03
                        Q0992 TEMPO SCT004 BKN006=
201002232020 METAR COR EGLL 232020Z 10006KT 2100 BR FEW003 BKN004 03/02
                        Q0992 NOSIG=
201002231950 METAR COR EGLL 231950Z 09007KT 2300 BR FEW003 BKN004 03/02
                        Q0992 NOSIG=
201002231920 METAR EGLL 231920Z 09008KT 3000 BR BKN004 03/02 Q0992=
201002231850 METAR COR EGLL 231850Z 09008KT 3500 BR BKN004 03/02 Q0992
                        NOSIG=
201002231820 METAR COR EGLL 231820Z 09009KT 5000 BR FEW005 BKN006 03/02
                        Q0992 NOSIG=
201002231750 METAR EGLL 231750Z 09009KT 6000 FEW005 BKN006 03/02 Q0992=
201002231720 METAR COR EGLL 231720Z 09011KT 6000 -RA FEW005 BKN007 03/02
                        Q0992 NOSIG=
201002231650 METAR COR EGLL 231650Z 09009KT 5000 -RA FEW005 BKN007 03/02
                        Q0992 NOSIG=
201002231620 METAR EGLL 231620Z 09010KT 3300 -RA SCT006 BKN008 02/01 Q0992=
201002231550 METAR COR EGLL 231550Z 07007KT 6000 -RA SCT006 BKN008 03/01
                        Q0992 NOSIG=
201002231520 METAR COR EGLL 231520Z 07007KT 5000 -RA FEW006 SCT007 BKN013
                        03/01 Q0992 NOSIG=
201002231450 METAR EGLL 231450Z 08009KT 7000 -RA SCT008 BKN011 03/01 Q0992=
201002231420 METAR EGLL 231420Z 08010KT 7000 -RA FEW008 BKN015 03/01 Q0992=
201002231350 METAR COR EGLL 231350Z 09013KT 7000 -RA FEW012 BKN019 03/01
                        Q0992 RERA TEMPO BKN012=
201002231320 METAR COR EGLL 231320Z 10013KT 9000 -RA FEW014 BKN021 03/01
                        Q0992 TEMPO BKN014=
201002231250 METAR COR EGLL 231250Z 09015KT 9999 -RA SCT016 BKN021 04/01
                        Q0992 TEMPO BKN014=
201002231220 METAR EGLL 231220Z 10016KT 9999 BKN020 04/00 Q0993=
201002231150 METAR EGLL 231150Z 09015KT 9999 FEW019 BKN025 05/00 Q0993=
201002231120 METAR COR EGLL 231120Z 09012KT 9999 FEW018 BKN021 04/01 Q0993
                        TEMPO BKN014=
201002231050 METAR EGLL 231050Z 09014KT 9999 BKN020 04/00 Q0993=
201002231020 METAR EGLL 231020Z 07009KT 9999 FEW017 BKN021 04/00 Q0993=
201002230950 METAR EGLL 230950Z 07008KT 9999 FEW016 BKN028 04/01 Q0993=
201002230920 METAR COR EGLL 230920Z 07008KT 9999 SCT017 BKN021 03/00 Q0992
                        NOSIG=
201002230850 METAR COR EGLL 230850Z 06010KT 9999 FEW016 BKN023 03/00 Q0992
                        NOSIG=
201002230820 METAR COR EGLL 230820Z 07009KT 9000 BKN026 03/00 Q0992 NOSIG=
201002230750 METAR COR EGLL 230750Z 07008KT 9000 BKN013 02/00 Q0992 NOSIG=
201002230720 METAR COR EGLL 230720Z 07010KT 9000 BKN015 02/00 Q0992 TEMPO
                        BKN012=
201002230650 METAR COR EGLL 230650Z 06010KT 9999 FEW016 BKN022 02/M00
                        Q0992 NOSIG=
201002230620 METAR COR EGLL 230620Z 06007KT 9999 FEW015 BKN020 02/M00
                        Q0992 NOSIG=
201002230550 METAR COR EGLL 230550Z 06007KT 9999 FEW015 BKN020 02/M00
                        Q0992 TEMPO BKN014=
201002230520 METAR COR EGLL 230520Z 06008KT 9999 BKN012 BKN023 02/00 Q0992
                        TEMPO SCT012=
201002230450 METAR COR EGLL 230450Z 06007KT 9999 BKN011 BKN025 02/00 Q0991
                        TEMPO SCT014=
201002230420 METAR COR EGLL 230420Z 06009KT 9999 SCT011 BKN015 OVC030
                        02/00 Q0991 TEMPO BKN012=
201002230350 METAR COR EGLL 230350Z 06009KT 9999 FEW010 SCT035 02/00 Q0991
                        NOSIG=
201002230320 METAR EGLL 230320Z NIL=
201002230250 METAR COR EGLL 230250Z 05007KT 9999 SCT030 03/00 Q0991 NOSIG=
201002230220 METAR COR EGLL 230220Z 06006KT 9999 BKN029 03/00 Q0991 NOSIG=
201002230150 METAR COR EGLL 230150Z 05005KT 010V080 9999 BKN030 03/00
                        Q0991 NOSIG=
201002230120 METAR COR EGLL 230120Z 05006KT 9999 SCT025 03/00 Q0991 NOSIG=
201002230050 METAR COR EGLL 230050Z 05006KT 9999 SCT020 BKN025 03/00 Q0991
                        NOSIG=
201002230020 METAR COR EGLL 230020Z 03006KT 9999 SCT020 BKN024 03/00 Q0991
                        NOSIG=
201002222350 METAR COR EGLL 222350Z 04005KT 360V080 9999 BKN019 03/00
                        Q0991 NOSIG=
201002222320 METAR COR EGLL 222320Z 04005KT 360V080 9999 BKN017 OVC021
                        03/00 Q0991 TEMPO BKN014=
201002222250 METAR COR EGLL 222250Z 02005KT 330V060 9999 BKN017 03/00
                        Q0990 TEMPO BKN014=
201002222220 METAR COR EGLL 222220Z 02005KT 350V050 9999 BKN019 03/00
                        Q0990 TEMPO BKN014=
201002222150 METAR COR EGLL 222150Z 02005KT 340V050 9999 BKN022 03/00
                        Q0990 NOSIG=
201002222120 METAR COR EGLL 222120Z 02006KT 9999 BKN019 03/00 Q0990 TEMPO
                        BKN014=
201002222050 METAR COR EGLL 222050Z 36006KT 9999 BKN023 03/01 Q0989 NOSIG=
201002222020 METAR COR EGLL 222020Z 01005KT 340V050 9999 BKN021 03/01
                        Q0989 NOSIG=
201002221950 METAR COR EGLL 221950Z 01005KT 340V060 9999 OVC027 03/01
                        Q0989 NOSIG=
201002221920 METAR EGLL 221920Z 01005KT 330V060 9999 BKN027 03/01 Q0988=
201002221850 METAR COR EGLL 221850Z 02006KT 340V040 9999 FEW015 BKN024
                        03/01 Q0988 NOSIG=
201002221820 METAR EGLL 221820Z 02006KT 330V060 9999 FEW016 OVC021 03/01
                        Q0988=
201002221750 METAR EGLL 221750Z 02006KT 330V050 9999 BKN017 03/01 Q0987=
201002221720 METAR COR EGLL 221720Z 01007KT 330V050 9999 BKN013 03/01
                        Q0986 TEMPO BKN018=
201002221650 METAR COR EGLL 221650Z 02008KT 340V070 9999 BKN009 BKN015
                        03/01 Q0986 TEMPO BKN012=
201002221620 METAR COR EGLL 221620Z 02008KT 340V050 9999 VCSH SCT012 02/01
                        Q0985 TEMPO BKN012=
201002221550 METAR COR EGLL 221550Z 03009KT 350V050 9999 7000E -SHSNRA
                        OVC012 02/01 Q0985 NOSIG=
201002221520 METAR COR EGLL 221520Z 02008KT 340V060 9999 FEW009 OVC010
                        03/01 Q0985 TEMPO BKN009=
201002221450 METAR COR EGLL 221450Z 02008KT 350V050 9999 OVC009 03/01
                        Q0984 NOSIG=
201002221420 METAR COR EGLL 221420Z 02012KT 9999 FEW008 BKN010 03/01 Q0984
                        NOSIG=
201002221350 METAR COR EGLL 221350Z 03010KT 9999 BKN008 03/01 Q0983 NOSIG=
201002221320 METAR COR EGLL 221320Z 03009KT 360V070 9999 SCT007 BKN010
                        03/01 Q0983 NOSIG=
201002221250 METAR EGLL 221250Z 04010KT 010V070 9999 SCT007 BKN010 03/01
                        Q0983=
201002221220 METAR COR EGLL 221220Z 04009KT 360V070 9999 -RA BKN007 BKN010
                        03/01 Q0983 NOSIG=
201002221150 METAR COR EGLL 221150Z 04010KT 010V070 9999 FEW006 BKN008
                        02/01 Q0983 NOSIG=
201002221120 METAR EGLL 221120Z 05010KT 8000 -RA SCT006 BKN009 02/01 Q0983=
201002221050 METAR COR EGLL 221050Z 04010KT 010V080 7000 -RA SCT006 BKN008
                        02/01 Q0983 NOSIG=
201002221020 METAR EGLL 221020Z 05010KT 7000 -RA FEW006 BKN009 02/01 Q0983=
201002220950 METAR COR EGLL 220950Z 05010KT 010V070 7000 -RA BKN007 02/01
                        Q0983 NOSIG=
201002220920 METAR COR EGLL 220920Z 04009KT 7000 -RA FEW005 BKN007 02/01
                        Q0983 RERA TEMPO BKN012=
201002220850 METAR COR EGLL 220850Z 05010KT 030V090 6000 RA FEW006 SCT008
                        BKN012 03/01 Q0984 NOSIG=
201002220820 METAR COR EGLL 220820Z 06011KT 8000 RA FEW007 SCT010 BKN016
                        03/01 Q0984 RERA TEMPO BKN010=
201002220750 METAR EGLL 220750Z 06012KT 7000 RA FEW008 BKN012 BKN019 03/02
                        Q0984=
201002220720 METAR COR EGLL 220720Z 08010KT 7000 RA FEW005 BKN013 BKN019
                        04/02 Q0984 TEMPO 4000 BKN007=
201002220650 METAR COR EGLL 220650Z 08008KT 7000 RA FEW004 SCT006 BKN014
                        04/03 Q0985 TEMPO 4000 BKN006=
201002220620 METAR COR EGLL 220620Z 06007KT 4500 RA FEW003 SCT008 BKN016
                        05/04 Q0985 TEMPO 6000 -RA BKN008=
201002220550 METAR COR EGLL 220550Z 06008KT 4100 RA FEW004 SCT006 BKN009
                        04/04 Q0985 TEMPO BKN004=
201002220520 METAR COR EGLL 220520Z 06007KT 4100 -RADZ FEW003 SCT005 BKN008
                        05/04 Q0985 TEMPO RADZ BKN004=
201002220450 METAR COR EGLL 220450Z 06007KT 3400 -RADZ FEW003 SCT006 BKN009
                        05/04 Q0986 TEMPO RADZ BKN003=
201002220420 METAR COR EGLL 220420Z 06006KT 3800 -RADZ FEW005 SCT008 BKN009
                        05/04 Q0986 RERA TEMPO RADZ BKN004=
201002220350 METAR EGLL 220350Z 05006KT 5000 -RA FEW003 SCT008 BKN011
                        05/04 Q0986 RERA=
201002220320 METAR COR EGLL 220320Z 06005KT 4900 -RA FEW009 BKN012 BKN026
                        05/04 Q0987 BECMG RA BKN008=
201002220250 METAR COR EGLL 220250Z 05004KT 4400 -RA FEW010 SCT012 BKN026
                        05/04 Q0987 BECMG RA BKN008=
201002220220 METAR COR EGLL 220220Z 05005KT 5000 DZ BKN014 05/04 Q0988
                        BECMG 3000 RA BKN008=
201002220150 METAR EGLL 220150Z 05004KT 5000 -RA FEW013 BKN015 04/04 Q0989=
201002220120 METAR COR EGLL 220120Z 05003KT 4000 -RA FEW021 OVC024 04/03
                        Q0989 RERA TEMPO 6000 RA BKN010=
201002220050 METAR EGLL 220050Z VRB03KT 5000 DZ SCT025 SCT040 04/03 Q0989=
201002220020 METAR COR EGLL 220020Z 09004KT 8000 -DZ FEW028 SCT035 04/03
                        Q0989 TEMPO SHRA BKN012=
201002212350 METAR COR EGLL 212350Z 14004KT 9000 -RA BKN028 04/03 Q0990
                        TEMPO BKN012=
201002212320 METAR COR EGLL 212320Z 13004KT 9999 BKN020 BKN025 04/03 Q0990
                        TEMPO BKN014=
201002212250 METAR COR EGLL 212250Z 16005KT 120V210 9999 SCT025 04/03
                        Q0990 TEMPO BKN014=
201002212220 METAR COR EGLL 212220Z 16004KT 110V230 CAVOK 04/03 Q0990
                        TEMPO BKN014=
201002212150 METAR COR EGLL 212150Z 16006KT 120V240 9999 FEW017 SCT041
                        05/04 Q0991 TEMPO BKN014=
201002212120 METAR COR EGLL 212120Z 18006KT 140V240 9999 FEW039 SCT044
                        05/04 Q0991 NOSIG=
201002212050 METAR COR EGLL 212050Z 17007KT 130V240 CAVOK 05/04 Q0991
                        NOSIG=
201002212020 METAR COR EGLL 212020Z 19006KT 140V240 CAVOK 05/03 Q0991
                        NOSIG=
201002211950 METAR COR EGLL 211950Z 17006KT 150V220 CAVOK 05/04 Q0991
                        NOSIG=
201002211920 METAR COR EGLL 211920Z 19006KT 140V230 9999 FEW033 SCT040
                        05/04 Q0991 NOSIG=
201002211850 METAR COR EGLL 211850Z 19007KT 140V250 9999 SCT034 05/04
                        Q0991 NOSIG=
201002211820 METAR COR EGLL 211820Z 20006KT 150V250 9999 SCT038 06/04
                        Q0991 NOSIG=
201002211750 METAR COR EGLL 211750Z 19007KT 150V240 9999 FEW020 SCT041
                        06/04 Q0991 TEMPO SHRA=
201002211720 METAR COR EGLL 211720Z 23008KT 200V260 9999 FEW028 BKN046
                        07/03 Q0991 TEMPO SHRA=
201002211650 METAR COR EGLL 211650Z 22008KT 180V250 9999 FEW028 07/02
                        Q0990 NOSIG=
201002211620 METAR COR EGLL 211620Z 23009KT 190V260 9999 SCT024 07/02
                        Q0990 NOSIG=
201002211550 METAR COR EGLL 211550Z 24009KT 9999 SCT024 07/02 Q0990 NOSIG=
201002211520 METAR COR EGLL 211520Z 24009KT 9999 SCT033 07/02 Q0991 NOSIG=
201002211450 METAR COR EGLL 211450Z 24010KT 9999 FEW022 SCT035 07/03 Q0991
                        NOSIG=
201002211420 METAR COR EGLL 211420Z 25008KT 220V280 9999 FEW025 SCT036
                        07/03 Q0991 TEMPO SHRA=
201002211350 METAR COR EGLL 211350Z 24009KT 9999 FEW018 SCT024 07/04 Q0991
                        NOSIG=
201002211320 METAR COR EGLL 211320Z 25008KT 9999 FEW018 BKN042 07/03 Q0991
                        TEMPO SHRA=
201002211250 METAR COR EGLL 211250Z 24010KT 9999 FEW014 SCT042 07/04 Q0991
                        NOSIG=
201002211220 METAR COR EGLL 211220Z 24010KT 9999 FEW013 07/04 Q0991 NOSIG=
201002211150 METAR COR EGLL 211150Z 22010KT 9999 FEW009 SCT017 06/04 Q0991
                        NOSIG=
201002211120 METAR COR EGLL 211120Z 22007KT 190V260 9999 FEW007 BKN027
                        05/04 Q0992 NOSIG=
201002211050 METAR COR EGLL 211050Z 26005KT 210V300 9999 FEW004 BKN006
                        04/03 Q0992 BECMG SCT008 BKN014=
201002211020 METAR COR EGLL 211020Z 21005KT 170V260 9999 FEW006 SCT008
                        BKN012 04/03 Q0992 TEMPO BKN008=
201002210950 METAR COR EGLL 210950Z 20008KT 8000 -RA FEW009 BKN013 03/02
                        Q0992 RERA TEMPO BKN008=
201002210920 METAR COR EGLL 210920Z 20007KT 7000 -SHRA FEW010 BKN024 03/02
                        Q0992 TEMPO SHRA SCT007 BKN010=
201002210850 METAR COR EGLL 210850Z 19009KT 160V230 9999 -RA BKN018 03/02
                        Q0992 TEMPO SHRA SCT008 BKN012=
201002210820 METAR COR EGLL 210820Z 19010KT 160V230 9999 -RA FEW008 SCT022
                        03/02 Q0993 TEMPO RA SCT007 BKN012=
201002210750 METAR COR EGLL 210750Z 18009KT 120V210 7000 -RA FEW025 SCT039
                        02/01 Q0993 TEMPO BKN012=
201002210720 METAR COR EGLL 210720Z 16009KT 110V180 6000 -RA BKN012 02/01
                        Q0993 NOSIG=
201002210650 METAR COR EGLL 210650Z 15008KT 8000 -RASN FEW013 BKN020 02/01
                        Q0993 TEMPO 4000 RASN BKN014=
201002210620 METAR COR EGLL 210620Z 16009KT 110V200 9000 RASN SCT016 BKN020
                        02/01 Q0994 TEMPO -RA=
201002210550 METAR COR EGLL 210550Z 14006KT 9999 FEW028 SCT037 01/00 Q0995
                        TEMPO 4000 RASN=
201002210520 METAR COR EGLL 210520Z 13007KT 8000 NSC 00/M01 Q0995 TEMPO
                        4000 RASN=
201002210450 METAR COR EGLL 210450Z 13006KT 6000 NSC M00/M01 Q0995 NOSIG=
201002210420 METAR COR EGLL 210420Z 13005KT 5000 BR NSC M01/M01 Q0996
                        NOSIG=
201002210350 METAR COR EGLL 210350Z 09004KT 2500 R27L/1300 BR NSC M02/M03
                        Q0996 TEMPO 5000 HZ=
201002210320 METAR COR EGLL 210320Z 14004KT 6000 NSC M01/M02 Q0997 NOSIG=
201002210250 METAR COR EGLL 210250Z 13003KT 8000 NSC M02/M02 Q0997 NOSIG=
201002210220 METAR COR EGLL 210220Z 14003KT 5000 BR NSC M02/M02 Q0997
                        TEMPO 4000=
201002210150 METAR COR EGLL 210150Z 13003KT 2000 R27L/0900 BR NSC M02/M03
                        Q0997 TEMPO 1000=
201002210120 METAR COR EGLL 210120Z 13002KT 3900 BR NSC M02/M03 Q0998
                        NOSIG=
201002210050 METAR COR EGLL 210050Z 11002KT 3000 BR NSC M02/M03 Q0998
                        TEMPO 2500=
201002210020 METAR COR EGLL 210020Z 00000KT 3000 BR NSC M01/M02 Q0998
                        TEMPO 2500=
201002202350 METAR EGLL 202350Z 16003KT 3900 BR NSC M01/M02 Q0998=
201002202320 METAR COR EGLL 202320Z VRB02KT 7000 NSC M01/M02 Q0998 NOSIG=
201002202250 METAR COR EGLL 202250Z 23005KT 170V260 8000 NSC M00/M01 Q0998
                        NOSIG=
201002202220 METAR COR EGLL 202220Z 19004KT 150V250 9000 NSC 00/M01 Q0998
                        NOSIG=
201002202150 METAR COR EGLL 202150Z 20004KT 170V250 9999 FEW028 00/M02
                        Q0998 NOSIG=
201002202120 METAR COR EGLL 202120Z 19004KT 150V260 9999 FEW028 00/M02
                        Q0998 NOSIG=
201002202050 METAR COR EGLL 202050Z 00000KT CAVOK 02/M01 Q0998 NOSIG=
201002202020 METAR COR EGLL 202020Z 34002KT CAVOK 02/M01 Q0998 NOSIG=
201002201950 METAR COR EGLL 201950Z 23006KT 200V270 CAVOK 02/M01 Q0998
                        NOSIG=
201002201920 METAR COR EGLL 201920Z 22006KT 170V260 CAVOK 02/M01 Q0998
                        NOSIG=
201002201850 METAR COR EGLL 201850Z 22006KT CAVOK 02/M01 Q0998 NOSIG=
201002201820 METAR COR EGLL 201820Z 22006KT 190V260 CAVOK 03/M01 Q0998
                        NOSIG=
201002201750 METAR COR EGLL 201750Z 22006KT 190V260 CAVOK 04/M01 Q0997
                        NOSIG=
201002201720 METAR COR EGLL 201720Z 28005KT 9999 SCT042 04/M01 Q0997 NOSIG=
201002201650 METAR COR EGLL 201650Z 26005KT 9999 FEW013 SCT021 04/M02
                        Q0997 NOSIG=
201002201620 METAR COR EGLL 201620Z 25004KT 200V290 9999 FEW013 SCT021
                        05/M01 Q0997 NOSIG=
201002201550 METAR COR EGLL 201550Z 24011KT 9999 -RA SCT013 SCT039 04/M01
                        Q0997 NOSIG=
201002201520 METAR COR EGLL 201520Z 28006KT 9999 FEW042 05/M02 Q0997 NOSIG=
201002201450 METAR COR EGLL 201450Z 23005KT 180V300 9999 FEW040 05/M02
                        Q0997 NOSIG=
201002201420 METAR COR EGLL 201420Z 28006KT 9999 FEW032 SCT048 06/M02
                        Q0997 NOSIG=
201002201350 METAR COR EGLL 201350Z 28006KT 240V300 9999 SCT026 06/M01
                        Q0997 NOSIG=
201002201320 METAR COR EGLL 201320Z 24006KT 190V290 9999 SCT024 05/M01
                        Q0997 NOSIG=
201002201250 METAR COR EGLL 201250Z 27005KT 210V330 9999 FEW024 06/M01
                        Q0997 NOSIG=
201002201220 METAR COR EGLL 201220Z 27004KT 200V330 9999 FEW020 05/M01
                        Q0997 NOSIG=
201002201150 METAR COR EGLL 201150Z 27004KT 200V330 CAVOK 04/M01 Q0998
                        NOSIG=
201002201120 METAR COR EGLL 201120Z 28004KT 230V300 9999 FEW030 04/M00
                        Q0998 NOSIG=
201002201050 METAR COR EGLL 201050Z 26005KT 9999 FEW030 03/M00 Q0998 NOSIG=
201002201020 METAR COR EGLL 201020Z 28005KT CAVOK 02/M00 Q0998 NOSIG=
201002200950 METAR COR EGLL 200950Z 25005KT 210V280 CAVOK 02/M01 Q0998
                        TEMPO 9000=
201002200920 METAR COR EGLL 200920Z 26004KT 230V290 9000 NSC 01/M01 Q0997
                        BECMG CAVOK=
201002200850 METAR COR EGLL 200850Z VRB03KT CAVOK M01/M02 Q0997 NOSIG=
201002200820 METAR COR EGLL 200820Z 20004KT 160V230 8000 NSC M01/M02 Q0997
                        BECMG 9999=
201002200750 METAR COR EGLL 200750Z 20005KT 170V240 6000 NSC M02/M02 Q0997
                        TEMPO 4500 BR=
201002200720 METAR COR EGLL 200720Z VRB03KT 9000 NSC M02/M03 Q0997 NOSIG=
201002200650 METAR COR EGLL 200650Z 25006KT 210V280 5000 BR FEW036 M02/M03
                        Q0997 TEMPO 4000=
201002200620 METAR COR EGLL 200620Z 21004KT 170V250 4300 BR NSC M03/M03
                        Q0997 TEMPO 5000=
201002200550 METAR EGLL 200550Z 25004KT 5000 BR NSC M02/M03 Q0997=
201002200520 METAR COR EGLL 200520Z 25006KT 5000 BR NSC M02/M02 Q0996
                        TEMPO 4000=
201002200450 METAR COR EGLL 200450Z 25006KT 5000 BR NSC M02/M03 Q0996
                        NOSIG=
201002200420 METAR COR EGLL 200420Z 26005KT 6000 NSC M01/M02 Q0996 NOSIG=
201002200350 METAR COR EGLL 200350Z 26003KT 6000 NSC M02/M02 Q0996 NOSIG=
201002200320 METAR COR EGLL 200320Z 24002KT 6000 NSC M01/M02 Q0996 NOSIG=
201002200250 METAR COR EGLL 200250Z 20003KT 7000 NSC M01/M02 Q0996 NOSIG=
201002200220 METAR COR EGLL 200220Z 26003KT 8000 NSC M01/M02 Q0996 NOSIG=
201002200150 METAR COR EGLL 200150Z 25005KT CAVOK M01/M02 Q0997 NOSIG=
201002200120 METAR COR EGLL 200120Z 26004KT CAVOK M01/M02 Q0997 NOSIG=
201002200050 METAR COR EGLL 200050Z 25006KT CAVOK M01/M02 Q0997 NOSIG=
201002200020 METAR COR EGLL 200020Z 27006KT CAVOK M01/M02 Q0997 NOSIG=
201002192350 METAR COR EGLL 192350Z 27006KT CAVOK M01/M03 Q0997 NOSIG=
201002192320 METAR COR EGLL 192320Z 27009KT CAVOK M01/M02 Q0996 NOSIG=
201002192250 METAR COR EGLL 192250Z 28007KT CAVOK 00/M02 Q0996 NOSIG=
201002192220 METAR COR EGLL 192220Z 28008KT CAVOK 01/M01 Q0996 NOSIG=
201002192150 METAR COR EGLL 192150Z 27009KT CAVOK 01/M01 Q0996 NOSIG=
201002192120 METAR COR EGLL 192120Z 26008KT 9999 FEW030 01/M01 Q0996 NOSIG=
201002192050 METAR COR EGLL 192050Z 24008KT CAVOK 01/M01 Q0996 NOSIG=
201002192020 METAR COR EGLL 192020Z 23007KT 200V260 CAVOK 01/M01 Q0996
                        NOSIG=
201002191950 METAR COR EGLL 191950Z 25007KT CAVOK 02/M01 Q0996 NOSIG=
201002191920 METAR EGLL 191920Z AUTO 24006KT 9999NDV NCD 02/M01 Q0996=
201002191850 METAR COR EGLL 191850Z 23007KT 190V270 CAVOK 03/M01 Q0996
                        NOSIG=
201002191820 METAR COR EGLL 191820Z 25008KT 9999 SCT042 04/M01 Q0996 NOSIG=
201002191750 METAR COR EGLL 191750Z 27008KT 9999 FEW038 03/M02 Q0995 NOSIG=
201002191720 METAR COR EGLL 191720Z 27009KT CAVOK 03/M03 Q0995 NOSIG=
201002191650 METAR COR EGLL 191650Z 28008KT CAVOK 04/M03 Q0995 NOSIG=
201002191620 METAR EGLL 191620Z AUTO 28009KT 9999NDV NCD 05/M03 Q0995=
201002191550 METAR COR EGLL 191550Z 28006KT CAVOK 05/M02 Q0995 NOSIG=
201002191520 METAR EGLL 191520Z 27009KT CAVOK 05/M02 Q0995=
201002191450 METAR EGLL 191450Z 27010KT 9999 SCT049 05/M02 Q0995=
201002191420 METAR COR EGLL 191420Z 27012KT 9999 FEW041 SCT048 05/M02
                        Q0995 NOSIG=
201002191350 METAR COR EGLL 191350Z 28011KT 9999 FEW031 SCT041 05/M02
                        Q0995 NOSIG=
201002191320 METAR COR EGLL 191320Z 27010KT 240V310 9999 FEW032 SCT041
                        06/M01 Q0995 NOSIG=
201002191250 METAR COR EGLL 191250Z 26009KT 9999 FEW023 SCT042 04/M00
                        Q0995 NOSIG=
201002191220 METAR COR EGLL 191220Z 29008KT 9999 SCT020 SCT025 05/00 Q0995
                        NOSIG=
201002191150 METAR EGLL 191150Z 29009KT 9999 BKN019 04/00 Q0995=
201002191120 METAR EGLL 191120Z 28008KT 250V310 9999 SCT022 03/M00 Q0995=
201002191050 METAR COR EGLL 191050Z 28009KT 9999 BKN017 03/M00 Q0995 NOSIG=
201002191020 METAR COR EGLL 191020Z 28006KT 9999 SCT012 BKN017 03/01 Q0994
                        NOSIG=
201002190950 METAR COR EGLL 190950Z 29008KT 9999 SCT009 BKN016 03/00 Q0994
                        NOSIG=
201002190920 METAR COR EGLL 190920Z 28006KT 8000 VCSH SCT009 BKN021 02/01
                        Q0994 NOSIG=
201002190850 METAR COR EGLL 190850Z 29007KT 9000 FEW009 BKN026 02/01 Q0994
                        NOSIG=
201002190820 METAR COR EGLL 190820Z 29007KT 8000 FEW009 BKN029 02/01 Q0993
                        TEMPO BKN010=
201002190750 METAR COR EGLL 190750Z 29008KT 8000 FEW024 BKN036 02/00 Q0993
                        TEMPO BKN009=
201002190720 METAR COR EGLL 190720Z 28008KT 6000 -RA FEW008 BKN014 02/00
                        Q0993 BECMG SCT014 BKN020=
201002190650 METAR COR EGLL 190650Z 28008KT 6000 -DZ SCT007 BKN015 01/00
                        Q0992 TEMPO BKN010=
201002190620 METAR COR EGLL 190620Z 29008KT 6000 -DZ BKN007 BKN017 01/00
                        Q0992 BECMG SCT007 BKN010=
201002190550 METAR COR EGLL 190550Z 29009KT 7000 -DZ FEW008 OVC010 02/00
                        Q0992 NOSIG=
201002190520 METAR COR EGLL 190520Z 29008KT 9000 -RA SCT010 BKN013 02/M00
                        Q0991 NOSIG=
201002190450 METAR COR EGLL 190450Z 30009KT 9999 BKN010 02/M00 Q0991 NOSIG=
201002190420 METAR COR EGLL 190420Z 29010KT 9999 BKN010 02/M00 Q0991 NOSIG=
201002190350 METAR COR EGLL 190350Z 30009KT 9999 BKN010 02/M00 Q0991 NOSIG=
201002190320 METAR COR EGLL 190320Z 30009KT 9999 BKN010 02/M00 Q0990 NOSIG=
201002190250 METAR COR EGLL 190250Z 29010KT 9999 OVC010 02/00 Q0990 NOSIG=
201002190220 METAR EGLL 190220Z AUTO 29010KT 9999NDV BKN011/// 02/00 Q0990=
201002190150 METAR EGLL 190150Z AUTO 30010KT 9000NDV BKN011/// 02/00 Q0989=
201002190120 METAR EGLL 190120Z AUTO 30009KT 9999NDV OVC009/// 02/00 Q0989=
201002190050 METAR COR EGLL 190050Z 29009KT 9999 FEW008 OVC010 02/00 Q0989
                        NOSIG=
201002190020 METAR COR EGLL 190020Z 29009KT 9999 FEW008 BKN010 02/00 Q0989
                        NOSIG=
201002182350 METAR COR EGLL 182350Z 29012KT 9999 SCT005 BKN008 02/01 Q0988
                        BECMG SCT008 BKN010=
201002182320 METAR COR EGLL 182320Z 26013KT 4700 -RA BKN004 03/02 Q0988
                        BECMG 6000 BKN005=
201002182250 METAR COR EGLL 182250Z 25011KT 8000 -RA FEW005 BKN006 03/02
                        Q0988 NOSIG=
201002182220 METAR COR EGLL 182220Z 24012KT 9999 -RA BKN007 BKN024 04/02
                        Q0987 BECMG BKN012=
201002182150 METAR COR EGLL 182150Z 23012KT 9999 -SHRA FEW009 BKN015 04/02
                        Q0987 RESHRA BECMG 29010KT BKN010=
201002182120 METAR COR EGLL 182120Z 21010KT 8000 SHRA SCT009 BKN011 04/03
                        Q0987 TEMPO NSW SCT011=
201002182050 METAR COR EGLL 182050Z 20009KT 170V240 9999 -DZ FEW009 SCT020
                        BKN028 05/03 Q0987 TEMPO SHRA BKN014=
201002182020 METAR COR EGLL 182020Z 18007KT 150V240 9999 SCT010 BKN013
                        BKN035 05/03 Q0987 TEMPO SHRA=
201002181950 METAR COR EGLL 181950Z 20007KT 170V250 9999 BKN020 BKN037
                        05/04 Q0987 TEMPO SHRA BKN013=
201002181920 METAR COR EGLL 181920Z 17005KT 130V220 9999 SCT017 BKN030
                        05/04 Q0987 TEMPO BKN014=
201002181850 METAR COR EGLL 181850Z VRB04KT 9999 SCT011 BKN019 05/04 Q0987
                        TEMPO BKN012=
201002181820 METAR COR EGLL 181820Z 14005KT 9999 SCT015 BKN025 05/04 Q0987
                        TEMPO BKN014=
201002181750 METAR COR EGLL 181750Z 20007KT 120V250 6000 -RA SCT010 BKN030
                        05/04 Q0987 RERA TEMPO RA BKN010=
201002181720 METAR COR EGLL 181720Z 11003KT 9000 SCT017 BKN020 05/04 Q0987
                        TEMPO SHRA BKN012=
201002181650 METAR COR EGLL 181650Z 15007KT 130V190 5000 RA SCT011 BKN014
                        06/04 Q0987 NOSIG=
201002181620 METAR COR EGLL 181620Z 13006KT 9000 FEW008 BKN016 06/05 Q0987
                        TEMPO BKN012=
201002181550 METAR COR EGLL 181550Z 14004KT 8000 SCT009 BKN023 06/05 Q0987
                        RERA TEMPO BKN012=
201002181520 METAR COR EGLL 181520Z 14006KT 3000 RA SCT008 BKN018 06/05
                        Q0988 TEMPO 5000 -RA BKN012=
201002181450 METAR COR EGLL 181450Z 12006KT 6000 FEW006 BKN013 06/04 Q0988
                        TEMPO SCT013=
201002181420 METAR COR EGLL 181420Z 11006KT 6000 FEW008 BKN013 05/04 Q0988
                        TEMPO BKN016=
201002181350 METAR COR EGLL 181350Z 14006KT 7000 -RA FEW008 BKN018 05/04
                        Q0989 TEMPO 4000 RA BKN012=
201002181320 METAR COR EGLL 181320Z 15007KT 5000 -RA SCT007 BKN012 05/04
                        Q0989 TEMPO 4000 RA BKN007=
201002181250 METAR COR EGLL 181250Z 12007KT 5000 -RA FEW007 BKN016 05/04
                        Q0990 TEMPO 4000 RA BKN012=
201002181220 METAR COR EGLL 181220Z 12008KT 6000 FEW008 BKN011 05/04 Q0990
                        TEMPO 4000 RA=
201002181150 METAR COR EGLL 181150Z 11007KT 4500 BR FEW007 BKN010 05/04
                        Q0990 TEMPO SCT010=
201002181120 METAR COR EGLL 181120Z 09007KT 1900 BR SCT007 BKN010 04/03
                        Q0991 BECMG 3000=
201002181050 METAR COR EGLL 181050Z 09008KT 1300 R09L/P1500 R09R/P1500
                        BR FEW004 BKN008 03/03 Q0991 BECMG
                        2000=
201002181020 METAR EGLL 181020Z 09007KT 1500 R09L/P1500 R09R/P1500 BR
                        FEW006 BKN008 03/02 Q0991 NOSIG=
201002180950 METAR COR EGLL 180950Z 08005KT 1400 R09L/P1500 R09R/1400
                        RA BKN007 03/02 Q0991 BECMG 2500
                        -RA BKN010=
201002180920 METAR COR EGLL 180920Z 09007KT 1800 -RA BKN008 03/02 Q0991
                        TEMPO RA=
201002180850 METAR COR EGLL 180850Z 08008KT 3000 -RA SCT009 BKN013 03/01
                        Q0991 TEMPO 2500 RA BKN009=
201002180820 METAR COR EGLL 180820Z 08006KT 3300 HZ BKN009 02/01 Q0991
                        TEMPO 2500 RA BKN012=
201002180750 METAR COR EGLL 180750Z 07006KT 3500 HZ SCT040 02/00 Q0991
                        BECMG BKN014=
201002180720 METAR COR EGLL 180720Z 07005KT 4500 HZ FEW014 SCT046 01/M00
                        Q0991 BECMG 8000 -RA BKN014=
201002180650 METAR COR EGLL 180650Z 06005KT 4200 HZ FEW015 BKN048 01/M00
                        Q0991 BECMG 8000 -RA BKN014=
201002180620 METAR COR EGLL 180620Z 08006KT 4500 HZ FEW014 SCT019 01/M00
                        Q0991 NOSIG=
201002180550 METAR COR EGLL 180550Z 09005KT 4400 HZ BKN012 01/M00 Q0991
                        BECMG SCT012=
201002180520 METAR COR EGLL 180520Z 07004KT 4700 HZ SCT011 00/M01 Q0991
                        NOSIG=
201002180450 METAR COR EGLL 180450Z 07004KT 4900 HZ SCT016 00/M01 Q0991
                        NOSIG=
201002180420 METAR COR EGLL 180420Z 06003KT 4900 HZ FEW022 00/M01 Q0991
                        NOSIG=
201002180350 METAR COR EGLL 180350Z 07002KT 4500 HZ FEW022 00/M01 Q0991
                        NOSIG=
201002180320 METAR COR EGLL 180320Z 09003KT 4900 HZ NSC M00/M01 Q0992
                        NOSIG=
201002180250 METAR COR EGLL 180250Z 08002KT 4900 HZ FEW027 M00/M01 Q0992
                        NOSIG=
201002180220 METAR EGLL 180220Z AUTO 00000KT 4200NDV HZ NCD 00/M01 Q0992=
201002180150 METAR EGLL 180150Z AUTO 09003KT 2700NDV BR NCD M01/M02 Q0992=
201002180120 METAR EGLL 180120Z AUTO 11002KT 2400NDV HZ NCD M01/M02 Q0992=
201002180050 METAR COR EGLL 180050Z 00000KT 4500 HZ NSC 00/M01 Q0992 NOSIG=
201002180020 METAR COR EGLL 180020Z 09002KT 4500 HZ NSC 01/M01 Q0992 NOSIG=
201002172350 METAR COR EGLL 172350Z 04002KT 4600 HZ NSC 01/M01 Q0992 NOSIG=
201002172320 METAR COR EGLL 172320Z 08002KT 4900 HZ NSC 00/M01 Q0992 NOSIG=
201002172250 METAR COR EGLL 172250Z VRB02KT 4900 HZ NSC 01/M01 Q0991 NOSIG=
201002172220 METAR COR EGLL 172220Z 00000KT 4700 HZ NSC 01/M01 Q0992 NOSIG=
201002172150 METAR COR EGLL 172150Z 14004KT 6000 NSC 01/M01 Q0992 BECMG
                        4000 BR=
201002172120 METAR COR EGLL 172120Z 11002KT 6000 NSC 01/M01 Q0991 BECMG
                        4000=
201002172050 METAR COR EGLL 172050Z 11002KT 5000 BR NSC 01/M01 Q0991 BECMG
                        4000=
201002172020 METAR COR EGLL 172020Z 11004KT 6000 NSC 02/M01 Q0991 BECMG
                        4000 HZ=
201002171950 METAR COR EGLL 171950Z 14005KT 110V170 7000 NSC 02/M01 Q0991
                        NOSIG=
201002171920 METAR COR EGLL 171920Z 09008KT 8000 NSC 02/M01 Q0991 NOSIG=
201002171850 METAR COR EGLL 171850Z 10009KT 8000 NSC 03/M02 Q0991 NOSIG=
201002171820 METAR COR EGLL 171820Z 08005KT CAVOK 03/M02 Q0990 NOSIG=
201002171750 METAR COR EGLL 171750Z 07005KT CAVOK 04/M03 Q0990 NOSIG=
201002171720 METAR COR EGLL 171720Z 10004KT CAVOK 05/M03 Q0990 NOSIG=
201002171650 METAR COR EGLL 171650Z 09005KT CAVOK 06/M03 Q0989 NOSIG=
201002171620 METAR EGLL 171620Z 09006KT CAVOK 08/M01 Q0989=
201002171550 METAR COR EGLL 171550Z 13005KT 090V160 CAVOK 08/M02 Q0989
                        NOSIG=
201002171520 METAR COR EGLL 171520Z 10004KT CAVOK 08/M02 Q0989 NOSIG=
201002171450 METAR COR EGLL 171450Z 12005KT 080V160 CAVOK 08/M02 Q0989
                        NOSIG=
201002171420 METAR COR EGLL 171420Z 14004KT 100V200 CAVOK 08/M02 Q0990
                        NOSIG=
201002171350 METAR COR EGLL 171350Z 16006KT 130V200 CAVOK 08/M02 Q0990
                        NOSIG=
201002171320 METAR COR EGLL 171320Z 16006KT 130V190 9999 FEW022 08/M03
                        Q0990 NOSIG=
201002171250 METAR COR EGLL 171250Z VRB03KT CAVOK 08/M01 Q0990 NOSIG=
201002171220 METAR COR EGLL 171220Z 10005KT 070V140 8000 FEW019 07/01
                        Q0990 NOSIG=
201002171150 METAR COR EGLL 171150Z 12004KT 080V160 8000 FEW014 07/02
                        Q0991 NOSIG=
201002171120 METAR COR EGLL 171120Z VRB04KT 7000 SCT015 06/02 Q0991 NOSIG=
201002171050 METAR COR EGLL 171050Z 13005KT 5000 HZ FEW012 06/02 Q0991
                        NOSIG=
201002171020 METAR EGLL 171020Z 13006KT 5000 HZ NSC 05/02 Q0991=
201002170950 METAR COR EGLL 170950Z 13005KT 6000 NSC 04/02 Q0991 NOSIG=
201002170920 METAR COR EGLL 170920Z 12005KT 090V150 5000 BR NSC 04/01
                        Q0991 NOSIG=
201002170850 METAR COR EGLL 170850Z 14003KT 7000 FEW025 03/01 Q0991 NOSIG=
201002170820 METAR COR EGLL 170820Z 14006KT 7000 SCT022 03/02 Q0991 NOSIG=
201002170750 METAR COR EGLL 170750Z 14006KT 7000 BKN020 03/02 Q0991 NOSIG=
201002170720 METAR COR EGLL 170720Z 14004KT 6000 BKN017 03/02 Q0990 NOSIG=
201002170650 METAR COR EGLL 170650Z 13004KT 6000 BKN015 03/02 Q0990 NOSIG=
201002170620 METAR COR EGLL 170620Z 11005KT 5000 -RA BKN014 03/02 Q0990
                        NOSIG=
201002170550 METAR COR EGLL 170550Z 10005KT 5000 -RA SCT015 03/02 Q0990
                        NOSIG=
201002170520 METAR COR EGLL 170520Z 11005KT 070V180 4000 -RA SCT030 03/02
                        Q0990 BECMG 7000=
201002170450 METAR COR EGLL 170450Z 11004KT 070V160 4000 -RA SCT016 SCT029
                        03/02 Q0990 BECMG 7000=
201002170420 METAR COR EGLL 170420Z 14003KT 4000 -RA BKN017 03/02 Q0991
                        NOSIG=
201002170350 METAR COR EGLL 170350Z 17004KT 5000 -RA SCT031 BKN049 03/02
                        Q0991 NOSIG=
201002170320 METAR COR EGLL 170320Z 16005KT 5000 -RA BKN029 03/02 Q0991
                        NOSIG=
201002170250 METAR COR EGLL 170250Z 18004KT 5000 -RA SCT013 SCT028 03/02
                        Q0991 NOSIG=
201002170220 METAR COR EGLL 170220Z 16003KT 6000 BKN014 03/02 Q0991 NOSIG=
201002170150 METAR COR EGLL 170150Z 18005KT 6000 BKN015 03/02 Q0991 TEMPO
                        BKN012=
201002170120 METAR COR EGLL 170120Z 19005KT 6000 FEW009 BKN017 03/02 Q0991
                        NOSIG=
201002170050 METAR COR EGLL 170050Z 18006KT 9000 SCT007 BKN010 03/02 Q0991
                        NOSIG=
201002170020 METAR COR EGLL 170020Z 19003KT 9999 -RA BKN010 03/02 Q0991
                        NOSIG=
201002162350 METAR COR EGLL 162350Z 19003KT 9999 -RA SCT014 SCT021 03/02
                        Q0991 NOSIG=
201002162320 METAR COR EGLL 162320Z 19005KT 170V260 9999 -RA BKN025 03/02
                        Q0991 NOSIG=
201002162250 METAR COR EGLL 162250Z 22007KT 180V250 9999 -RA BKN017 03/02
                        Q0992 RERA NOSIG=
201002162220 METAR COR EGLL 162220Z 22008KT 6000 RA SCT016 BKN023 03/02
                        Q0992 TEMPO 9999=
201002162150 METAR COR EGLL 162150Z 21006KT 180V260 4800 RA SCT016 BKN020
                        03/02 Q0992 TEMPO 8000=
201002162120 METAR COR EGLL 162120Z 23007KT 180V250 4400 RA FEW006 BKN020
                        02/01 Q0992 TEMPO 8000=
201002162050 METAR COR EGLL 162050Z 23007KT 200V260 5000 RA FEW016 BKN020
                        03/02 Q0992 TEMPO BKN014=
201002162020 METAR COR EGLL 162020Z 23008KT 5000 RA BKN016 03/02 Q0992
                        TEMPO BKN012=
201002161950 METAR COR EGLL 161950Z 22006KT 180V250 5000 RA SCT015 BKN020
                        03/01 Q0992 NOSIG=
201002161920 METAR COR EGLL 161920Z 22007KT 180V250 7000 RA FEW013 BKN020
                        03/01 Q0992 TEMPO BKN013=
201002161850 METAR COR EGLL 161850Z 21010KT 170V240 7000 -RA FEW008 BKN017
                        03/02 Q0992 BECMG BKN014=
201002161820 METAR COR EGLL 161820Z 18009KT 150V230 9999 -RA FEW007 BKN024
                        03/02 Q0992 BECMG RA BKN014=
201002161750 METAR COR EGLL 161750Z 19009KT 160V230 9999 RA SCT023 BKN029
                        04/02 Q0992 BECMG BKN014=
201002161720 METAR COR EGLL 161720Z 18009KT 150V230 9999 -RA SCT026 BKN030
                        04/03 Q0991 BECMG BKN014=
201002161650 METAR COR EGLL 161650Z 18010KT 160V230 9999 -RA FEW007 BKN014
                        04/03 Q0991 TEMPO RA BKN007=
201002161620 METAR COR EGLL 161620Z 18008KT 140V250 9999 -RA BKN012 05/03
                        Q0991 BECMG SCT012=
201002161550 METAR COR EGLL 161550Z 21009KT 180V250 9999 -RA SCT016 SCT027
                        05/03 Q0992 NOSIG=
201002161520 METAR COR EGLL 161520Z 22009KT 180V240 9999 -RA FEW035 SCT047
                        05/03 Q0992 NOSIG=
201002161450 METAR COR EGLL 161450Z 21009KT 9999 -RA SCT022 BKN030 05/03
                        Q0992 NOSIG=
201002161420 METAR COR EGLL 161420Z 21008KT 9999 -RA FEW011 SCT025 05/03
                        Q0992 RERA NOSIG=
201002161350 METAR COR EGLL 161350Z 24008KT 9999 -RA FEW009 BKN020 05/04
                        Q0992 NOSIG=
201002161320 METAR COR EGLL 161320Z 22005KT 180V250 9999 5000E -RA FEW014
                        BKN022 05/04 Q0992 NOSIG=
201002161250 METAR EGLL 161250Z 21004KT 170V250 9999 -RA SCT018 BKN027
                        05/03 Q0992 NOSIG=
201002161220 METAR COR EGLL 161220Z 22005KT 180V250 9999 -RA SCT027 BKN033
                        05/03 Q0992 NOSIG=
201002161150 METAR COR EGLL 161150Z 22006KT 9999 -RA FEW008 BKN020 05/03
                        Q0993 RERA TEMPO RA BKN012=
201002161120 METAR COR EGLL 161120Z 23007KT 200V260 9999 -RA FEW008 BKN012
                        05/03 Q0993 BECMG SCT012=
201002161050 METAR COR EGLL 161050Z 21005KT 9999 -RA FEW008 BKN016 05/03
                        Q0993 TEMPO RA BKN012=
201002161020 METAR COR EGLL 161020Z 20005KT 150V240 9999 FEW012 SCT027
                        BKN045 04/03 Q0993 TEMPO RA BKN012=
201002160950 METAR COR EGLL 160950Z 21005KT 9999 FEW008 SCT011 BKN024
                        04/03 Q0993 TEMPO RA BKN011=
201002160920 METAR COR EGLL 160920Z 21005KT 190V250 9999 -RA FEW011 BKN024
                        04/03 Q0993 TEMPO RA BKN010=
201002160850 METAR COR EGLL 160850Z 20006KT 170V250 9000 -RA FEW011 BKN015
                        04/02 Q0993 RERA TEMPO RA BKN011=
201002160820 METAR COR EGLL 160820Z 24006KT 5000 RA SCT012 BKN018 04/03
                        Q0993 RERA TEMPO BKN012=
201002160750 METAR COR EGLL 160750Z 23005KT 190V270 8000 -RA SCT015 SCT026
                        04/02 Q0993 RERA TEMPO RA BKN014=
201002160720 METAR EGLL 160720Z 22008KT 170V240 9999 -RA FEW010 BKN019
                        04/03 Q0994=
201002160650 METAR EGLL 160650Z 21006KT 9999 -RA FEW012 BKN022 05/03 Q0994=
201002160620 METAR EGLL 160620Z 24006KT 200V270 9999 -RA FEW011 SCT014
                        BKN023 05/03 Q0994=
201002160550 METAR COR EGLL 160550Z 23008KT 9999 -RA BKN013 05/03 Q0994
                        TEMPO RA BKN009=
201002160520 METAR EGLL 160520Z 21007KT 9999 -RA BKN017 05/03 Q0994=
201002160450 METAR COR EGLL 160450Z 20008KT 170V250 9999 FEW014 SCT020
                        04/03 Q0994 BECMG -RA BKN012=
201002160420 METAR EGLL 160420Z 21009KT 9999 FEW044 04/03 Q0995=
201002160350 METAR COR EGLL 160350Z 21008KT 9999 FEW016 04/03 Q0995 BECMG
                        -RA BKN012=
201002160320 METAR COR EGLL 160320Z 21007KT 9999 FEW042 04/03 Q0995 BECMG
                        -RA BKN012=
201002160250 METAR EGLL 160250Z 20007KT 6000 NSC 04/03 Q0996=
201002160220 METAR COR EGLL 160220Z 19007KT 6000 FEW035 03/03 Q0996 TEMPO
                        BKN010=
201002160150 METAR COR EGLL 160150Z 19007KT 6000 FEW007 BKN032 04/03 Q0997
                        TEMPO BKN009=
201002160120 METAR COR EGLL 160120Z 20007KT 6000 FEW008 04/03 Q0997 TEMPO
                        BKN009=
201002160050 METAR COR EGLL 160050Z 20007KT 6000 BKN007 04/03 Q0997 BECMG
                        SCT013 BKN025=
201002160020 METAR COR EGLL 160020Z 20006KT 6000 BKN009 04/03 Q0998 BECMG
                        SCT012 BKN020=
201002152350 METAR EGLL 152350Z 20006KT 6000 BKN013 04/03 Q0998=
201002152320 METAR COR EGLL 152320Z 19008KT 5000 -RA SCT014 BKN037 04/02
                        Q0998 RERA TEMPO BKN008=
201002152250 METAR COR EGLL 152250Z 20007KT 5000 -RA BKN010 04/02 Q0999
                        TEMPO BKN008=
201002152220 METAR COR EGLL 152220Z 20008KT 180V250 7000 BKN010 04/02
                        Q0999 TEMPO BKN008=
201002152150 METAR COR EGLL 152150Z 19008KT 160V230 7000 FEW038 BKN045
                        04/02 Q1000 TEMPO -RA BKN011=
201002152120 METAR COR EGLL 152120Z 19008KT 170V240 8000 SCT010 BKN045
                        04/02 Q1000 TEMPO -RADZ BKN010=
201002152050 METAR COR EGLL 152050Z 19009KT 160V230 9999 BKN010 04/02
                        Q1000 TEMPO FEW011 BKN015=
201002152020 METAR COR EGLL 152020Z 19009KT 170V240 9999 FEW011 BKN016
                        04/01 Q1000 TEMPO BKN014=
201002151950 METAR COR EGLL 151950Z 19007KT 150V230 9999 FEW011 BKN013
                        03/01 Q1001 TEMPO BKN015=
201002151920 METAR COR EGLL 151920Z 19008KT 150V250 9999 BKN009 03/01
                        Q1001 BECMG BKN012=
201002151850 METAR COR EGLL 151850Z 18008KT 140V230 9999 BKN012 03/01
                        Q1001 TEMPO SCT012=
201002151820 METAR COR EGLL 151820Z 18008KT 150V230 9999 BKN013 03/01
                        Q1002 TEMPO BKN015=
201002151750 METAR COR EGLL 151750Z 18007KT 150V240 9999 BKN015 03/01
                        Q1002 TEMPO BKN014=
201002151720 METAR COR EGLL 151720Z 17008KT 130V220 9999 FEW014 BKN020
                        03/01 Q1002 TEMPO BKN014=
201002151650 METAR COR EGLL 151650Z 18008KT 150V230 9999 FEW011 SCT014
                        BKN016 03/01 Q1002 TEMPO BKN014=
201002151620 METAR COR EGLL 151620Z 19009KT 170V230 9999 -DZ BKN014 04/00
                        Q1003 TEMPO SCT014=
201002151550 METAR COR EGLL 151550Z 19008KT 160V240 9999 SCT014 BKN018
                        03/M00 Q1003 BECMG BKN014=
201002151520 METAR COR EGLL 151520Z 19008KT 170V230 9999 BKN015 03/M00
                        Q1003 BECMG BKN014=
201002151450 METAR COR EGLL 151450Z 19008KT 160V230 9999 OVC015 03/M01
                        Q1004 BECMG BKN014=
201002151420 METAR COR EGLL 151420Z 20006KT 150V240 9999 BKN016 03/M01
                        Q1004 NOSIG=
201002151350 METAR COR EGLL 151350Z 19007KT 160V240 9999 BKN015 03/M02
                        Q1005 NOSIG=
201002151320 METAR COR EGLL 151320Z 19006KT 150V220 9999 BKN016 03/M02
                        Q1005 NOSIG=
201002151250 METAR COR EGLL 151250Z 20006KT 140V250 9999 BKN016 03/M02
                        Q1006 NOSIG=
201002151220 METAR COR EGLL 151220Z 15005KT 120V190 9999 BKN018 03/M02
                        Q1006 NOSIG=
201002151150 METAR COR EGLL 151150Z 19005KT 130V260 9999 BKN022 02/M02
                        Q1007 NOSIG=
201002151120 METAR COR EGLL 151120Z 19006KT 150V260 9999 SCT023 BKN032
                        02/M02 Q1007 NOSIG=
201002151050 METAR COR EGLL 151050Z 20005KT 160V250 9999 FEW023 BKN038
                        02/M01 Q1007 NOSIG=
201002151020 METAR COR EGLL 151020Z 18004KT 150V270 9999 FEW026 BKN038
                        01/M01 Q1007 NOSIG=
201002150950 METAR COR EGLL 150950Z 21005KT 170V270 9000 SCT026 BKN038
                        01/M01 Q1008 NOSIG=
201002150920 METAR COR EGLL 150920Z VRB03KT 9000 FEW027 BKN037 00/M01
                        Q1008 NOSIG=
201002150850 METAR COR EGLL 150850Z 15004KT 120V190 9999 3500SW BR SCT026
                        BKN046 00/M01 Q1008 NOSIG=
201002150820 METAR COR EGLL 150820Z VRB03KT 9000 1500W R27R/P1500 R27L/P1500
                        PRFG FEW003 BKN026 M00/M01 Q1009
                        NOSIG=
201002150750 METAR COR EGLL 150750Z 12004KT 090V170 2000 0400S R27R/P1500
                        R27L/0400 PRFG FEW001 BKN024 M01/M01
                        Q1008 BECMG 7000 NSW=
201002150720 METAR COR EGLL 150720Z VRB03KT 0500 R27R/P1500 R27L/0450
                        FZFG BKN001 M01/M01 Q1008 TEMPO 1200
                        VCFG=
201002150650 METAR COR EGLL 150650Z 17004KT 080V190 9999 3500SE PRFG FEW047
                        M01/M01 Q1008 TEMPO 1500 VCFG=
201002150620 METAR COR EGLL 150620Z 17004KT 100V220 9999 SCT049 M01/M02
                        Q1009 NOSIG=
201002150550 METAR COR EGLL 150550Z 10002KT 9999 FEW024 BKN046 M00/M02
                        Q1009 NOSIG=
201002150520 METAR COR EGLL 150520Z 04003KT 9999 FEW024 BKN044 01/M01
                        Q1009 NOSIG=
201002150450 METAR COR EGLL 150450Z VRB03KT 9999 BKN047 01/M01 Q1009 NOSIG=
201002150420 METAR COR EGLL 150420Z 07003KT 9999 FEW026 BKN048 00/M01
                        Q1010 NOSIG=
201002150350 METAR COR EGLL 150350Z 05003KT 9999 SCT025 00/M01 Q1010 NOSIG=
201002150320 METAR COR EGLL 150320Z VRB02KT 9000 BKN049 01/M00 Q1010 NOSIG=
201002150250 METAR COR EGLL 150250Z 03004KT 350V050 9000 NSC 01/M00 Q1011
                        NOSIG=
201002150220 METAR COR EGLL 150220Z 36003KT 9000 BKN049 01/00 Q1011 NOSIG=
201002150150 METAR COR EGLL 150150Z 35004KT 9000 SCT029 BKN049 01/M00
                        Q1011 NOSIG=
201002150120 METAR COR EGLL 150120Z 35004KT 7000 SCT029 01/M00 Q1012 NOSIG=
201002150050 METAR COR EGLL 150050Z 01002KT 9999 SCT030 01/00 Q1012 NOSIG=
201002150020 METAR COR EGLL 150020Z 35003KT 9999 SCT025 02/00 Q1012 NOSIG=
201002142350 METAR COR EGLL 142350Z 32003KT 9999 SCT025 BKN041 02/01 Q1013
                        NOSIG=
201002142320 METAR COR EGLL 142320Z VRB03KT 9999 FEW006 BKN028 02/01 Q1013
                        NOSIG=
201002142250 METAR COR EGLL 142250Z 35003KT 9000 -DZ FEW009 BKN026 03/01
                        Q1013 NOSIG=
201002142220 METAR COR EGLL 142220Z VRB03KT 9999 FEW009 BKN029 03/01 Q1013
                        NOSIG=
201002142150 METAR COR EGLL 142150Z 05003KT 9999 -RA FEW011 BKN018 03/01
                        Q1013 NOSIG=
201002142120 METAR COR EGLL 142120Z 05004KT 010V080 9999 -RA FEW012 BKN015
                        04/01 Q1013 NOSIG=
201002142050 METAR COR EGLL 142050Z 05004KT 010V090 9999 BKN010 04/01
                        Q1013 BECMG FEW010=
201002142020 METAR COR EGLL 142020Z 00000KT 9999 FEW010 BKN026 04/02 Q1013
                        NOSIG=
201002141950 METAR COR EGLL 141950Z 34002KT 9999 FEW011 SCT022 04/02 Q1013
                        NOSIG=
201002141920 METAR COR EGLL 141920Z 36004KT 9999 FEW012 SCT038 04/02 Q1013
                        NOSIG=
201002141850 METAR COR EGLL 141850Z 35004KT 310V010 9999 FEW034 04/02
                        Q1014 NOSIG=
201002141820 METAR COR EGLL 141820Z 33004KT 280V010 9999 FEW036 04/02
                        Q1014 NOSIG=
201002141750 METAR EGLL 141750Z 32004KT 290V350 9999 BKN035 04/01 Q1014=
201002141720 METAR COR EGLL 141720Z 33006KT 300V360 9999 FEW011 BKN033
                        04/01 Q1014 NOSIG=
201002141650 METAR EGLL 141650Z 32006KT 9999 FEW024 BKN037 05/01 Q1014=
201002141620 METAR EGLL 141620Z 32006KT 9999 FEW015 BKN026 05/01 Q1014=
201002141550 METAR COR EGLL 141550Z 35004KT 290V030 9999 FEW015 BKN024
                        05/01 Q1014 NOSIG=
201002141520 METAR COR EGLL 141520Z 33006KT 300V010 9999 FEW015 BKN028
                        05/01 Q1015 NOSIG=
201002141450 METAR COR EGLL 141450Z 33007KT 9999 FEW013 BKN030 05/01 Q1015
                        NOSIG=
201002141420 METAR COR EGLL 141420Z 33007KT 300V010 9999 SCT015 BKN039
                        05/02 Q1015 NOSIG=
201002141350 METAR COR EGLL 141350Z 35005KT 310V020 9999 FEW015 BKN034
                        05/02 Q1015 TEMPO BKN014=
201002141320 METAR COR EGLL 141320Z 35005KT 320V020 9999 SCT012 BKN015
                        05/02 Q1016 TEMPO BKN012=
201002141250 METAR COR EGLL 141250Z 35005KT 280V020 9999 FEW011 BKN015
                        04/02 Q1016 TEMPO BKN012=
201002141220 METAR COR EGLL 141220Z 34004KT 280V030 9999 BKN011 BKN022
                        04/02 Q1016 TEMPO BKN016=
201002141150 METAR COR EGLL 141150Z 35004KT 310V020 9999 BKN012 04/02
                        Q1016 BECMG BKN016=
201002141120 METAR COR EGLL 141120Z 35004KT 320V030 9999 FEW008 BKN009
                        03/02 Q1017 TEMPO BKN012=
201002141050 METAR EGLL 141050Z 34004KT 300V020 9000 FEW008 SCT009 03/02
                        Q1017=
201002141020 METAR COR EGLL 141020Z 31005KT 290V350 7000 BKN008 03/01
                        Q1017 TEMPO BKN012=
201002140950 METAR COR EGLL 140950Z 29005KT 6000 BKN009 02/01 Q1017 BECMG
                        BKN012=
201002140920 METAR COR EGLL 140920Z 29006KT 5000 -DZ BKN010 02/01 Q1017
                        NOSIG=
201002140850 METAR COR EGLL 140850Z 29004KT 7000 -RA BKN009 02/01 Q1017
                        NOSIG=
201002140820 METAR COR EGLL 140820Z 30004KT 7000 -DZ SCT021 BKN027 02/00
                        Q1017 NOSIG=
201002140750 METAR COR EGLL 140750Z 30004KT 9999 SCT019 SCT032 02/00 Q1017
                        NOSIG=
201002140720 METAR COR EGLL 140720Z 30004KT 9999 BKN032 02/00 Q1018 TEMPO
                        BKN007=
201002140650 METAR COR EGLL 140650Z VRB03KT 9999 BKN030 02/00 Q1018 TEMPO
                        BKN007=
201002140620 METAR COR EGLL 140620Z 35004KT 9999 FEW033 BKN045 02/M00
                        Q1018 TEMPO BKN007=
201002140550 METAR COR EGLL 140550Z VRB02KT 9999 SCT035 BKN040 02/M00
                        Q1018 TEMPO BKN007=
201002140520 METAR COR EGLL 140520Z VRB02KT 9999 OVC038 01/M00 Q1018 NOSIG=
201002140450 METAR COR EGLL 140450Z 30003KT 9999 FEW020 BKN037 01/M00
                        Q1018 TEMPO BKN008=
201002140420 METAR COR EGLL 140420Z 31004KT 290V360 9999 FEW019 BKN030
                        01/M00 Q1018 TEMPO BKN008=
201002140350 METAR COR EGLL 140350Z 30003KT 9999 FEW012 BKN038 01/M01
                        Q1018 TEMPO BKN008=
201002140320 METAR COR EGLL 140320Z 30002KT 9999 FEW033 BKN043 01/M01
                        Q1019 NOSIG=
201002140250 METAR COR EGLL 140250Z 30003KT 9999 BKN047 01/M01 Q1019 NOSIG=
201002140220 METAR COR EGLL 140220Z 32003KT 9999 BKN041 01/M01 Q1019 NOSIG=
201002140150 METAR COR EGLL 140150Z VRB02KT 9999 BKN041 02/M01 Q1019 NOSIG=
201002140120 METAR COR EGLL 140120Z VRB02KT 9999 BKN037 02/M01 Q1019 NOSIG=
201002140050 METAR COR EGLL 140050Z VRB03KT 9999 FEW024 BKN035 02/M01
                        Q1020 NOSIG=
201002140020 METAR COR EGLL 140020Z VRB03KT 9999 BKN037 02/M01 Q1020 NOSIG=
201002132350 METAR COR EGLL 132350Z VRB03KT 9999 BKN035 02/M01 Q1020 NOSIG=
201002132320 METAR COR EGLL 132320Z 04004KT 360V070 9999 BKN036 02/M01
                        Q1020 NOSIG=
201002132250 METAR EGLL 132250Z 05005KT 9999 BKN035 02/M01 Q1020=
201002132220 METAR COR EGLL 132220Z 04005KT 9999 BKN035 02/M01 Q1020 NOSIG=
201002132150 METAR COR EGLL 132150Z 02006KT 350V050 9999 BKN034 03/M01
                        Q1020 NOSIG=
201002132120 METAR COR EGLL 132120Z 04005KT 010V070 9999 BKN034 03/M01
                        Q1020 NOSIG=
201002132050 METAR COR EGLL 132050Z 02006KT 340V050 9999 SCT026 SCT035
                        03/00 Q1020 NOSIG=
201002132020 METAR COR EGLL 132020Z 02008KT 350V060 9999 -SHRA FEW015
                        SCT029 04/00 Q1020 NOSIG=
201002131950 METAR COR EGLL 131950Z 02006KT 350V060 9999 FEW017 SCT021
                        04/00 Q1020 NOSIG=
201002131920 METAR COR EGLL 131920Z 36007KT 330V030 9999 FEW039 03/00
                        Q1020 NOSIG=
201002131850 METAR COR EGLL 131850Z 35007KT 9999 FEW018 03/00 Q1020 NOSIG=
201002131820 METAR COR EGLL 131820Z 35005KT 9999 FEW019 04/00 Q1020 NOSIG=
201002131750 METAR COR EGLL 131750Z 33004KT 290V020 9999 FEW022 04/00
                        Q1020 NOSIG=
201002131720 METAR COR EGLL 131720Z 32004KT 290V010 9999 FEW035 04/00
                        Q1020 NOSIG=
201002131650 METAR COR EGLL 131650Z 34005KT 310V010 9999 FEW022 SCT036
                        04/00 Q1020 NOSIG=
201002131620 METAR COR EGLL 131620Z 32004KT 280V060 9999 FEW018 SCT032
                        03/M00 Q1020 NOSIG=
201002131550 METAR COR EGLL 131550Z 32006KT 300V360 9999 FEW023 SCT032
                        03/M00 Q1020 NOSIG=
201002131520 METAR COR EGLL 131520Z 34007KT 280V020 9999 SCT031 SCT039
                        03/M00 Q1021 NOSIG=
201002131450 METAR COR EGLL 131450Z 36007KT 9999 FEW025 SCT035 BKN041
                        04/M01 Q1021 NOSIG=
201002131420 METAR COR EGLL 131420Z 35007KT 320V030 9999 SCT025 SCT030
                        BKN049 04/M02 Q1021 NOSIG=
201002131350 METAR COR EGLL 131350Z 01008KT 330V050 9999 FEW017 BKN027
                        04/M02 Q1021 NOSIG=
201002131320 METAR COR EGLL 131320Z 03007KT 350V060 9999 FEW017 SCT023
                        BKN031 03/M01 Q1022 NOSIG=
201002131250 METAR COR EGLL 131250Z 03007KT 330V060 9999 SCT017 SCT022
                        03/M01 Q1022 NOSIG=
201002131220 METAR COR EGLL 131220Z 01005KT 320V060 9999 BKN021 03/M01
                        Q1023 NOSIG=
201002131150 METAR COR EGLL 131150Z 36006KT 330V030 9999 FEW018 BKN021
                        03/M02 Q1023 NOSIG=
201002131120 METAR COR EGLL 131120Z 01006KT 330V050 9999 SCT025 SCT031
                        02/M03 Q1023 NOSIG=
201002131050 METAR EGLL 131050Z 36007KT 9999 FEW035 BKN045 02/M04 Q1023=
201002131020 METAR COR EGLL 131020Z 02008KT 320V050 9999 FEW035 BKN043
                        02/M05 Q1023 NOSIG=
201002130950 METAR COR EGLL 130950Z 04008KT 9999 BKN044 02/M05 Q1023 NOSIG=
201002130920 METAR COR EGLL 130920Z 05009KT 010V080 9999 BKN045 02/M05
                        Q1023 NOSIG=
201002130850 METAR COR EGLL 130850Z 05007KT 010V080 9999 SCT042 01/M04
                        Q1024 NOSIG=
201002130820 METAR COR EGLL 130820Z 03006KT 350V070 9999 SCT042 01/M04
                        Q1023 NOSIG=
201002130750 METAR COR EGLL 130750Z 01007KT 340V050 9999 SCT040 01/M04
                        Q1023 NOSIG=
201002130720 METAR COR EGLL 130720Z 02006KT 9999 BKN039 01/M05 Q1023 NOSIG=
201002130650 METAR COR EGLL 130650Z 03006KT 350V060 9999 BKN040 01/M04
                        Q1023 NOSIG=
201002130620 METAR COR EGLL 130620Z 03007KT 360V060 9999 BKN040 01/M04
                        Q1023 NOSIG=
201002130550 METAR EGLL 130550Z 03007KT 350V070 9999 BKN040 01/M03 Q1023=
201002130520 METAR COR EGLL 130520Z 02008KT 350V060 9999 BKN040 01/M02
                        Q1023 NOSIG=
201002130450 METAR COR EGLL 130450Z 01005KT 350V060 9999 BKN042 01/M01
                        Q1023 NOSIG=
201002130420 METAR COR EGLL 130420Z 01006KT 330V050 9999 FEW030 BKN040
                        01/M01 Q1023 NOSIG=
201002130350 METAR COR EGLL 130350Z 01006KT 330V040 9999 SCT041 01/M01
                        Q1023 NOSIG=
201002130320 METAR COR EGLL 130320Z 02008KT 340V050 9999 FEW027 BKN039
                        02/M01 Q1024 NOSIG=
201002130250 METAR COR EGLL 130250Z 02005KT 330V050 9999 FEW027 BKN035
                        02/M02 Q1024 NOSIG=
201002130220 METAR COR EGLL 130220Z 02005KT 350V060 9999 BKN036 02/M02
                        Q1024 NOSIG=
201002130150 METAR COR EGLL 130150Z 01007KT 340V040 9999 FEW033 BKN038
                        02/M03 Q1024 NOSIG=
201002130120 METAR EGLL 130120Z 02005KT 340V050 9999 FEW028 BKN035 02/M02
                        Q1024=
201002130050 METAR COR EGLL 130050Z 02007KT 350V070 9999 SCT016 BKN023
                        02/M01 Q1024 NOSIG=
201002130020 METAR COR EGLL 130020Z 03007KT 350V060 9999 FEW017 BKN027
                        02/M01 Q1024 NOSIG=
201002122350 METAR COR EGLL 122350Z 04007KT 360V070 9999 SCT013 BKN032
                        03/00 Q1024 NOSIG=
201002122320 METAR COR EGLL 122320Z 01007KT 330V040 9999 SCT013 BKN035
                        03/M00 Q1024 NOSIG=
201002122250 METAR COR EGLL 122250Z 02005KT 340V060 9999 FEW018 BKN039
                        03/M00 Q1024 NOSIG=
201002122220 METAR COR EGLL 122220Z 01005KT 340V050 9999 BKN041 03/M01
                        Q1024 NOSIG=
201002122150 METAR COR EGLL 122150Z 01005KT 9999 BKN041 03/M01 Q1024 NOSIG=
201002122120 METAR COR EGLL 122120Z 02006KT 340V050 9999 BKN038 03/M01
                        Q1024 NOSIG=
201002122050 METAR COR EGLL 122050Z 02005KT 350V050 9999 BKN039 03/M02
                        Q1024 NOSIG=
201002122020 METAR COR EGLL 122020Z 02006KT 350V060 9999 BKN039 03/M02
                        Q1024 NOSIG=
201002121950 METAR COR EGLL 121950Z 02006KT 350V050 9999 BKN032 03/M02
                        Q1024 NOSIG=
201002121920 METAR COR EGLL 121920Z 04005KT 010V090 9999 BKN032 03/M01
                        Q1024 NOSIG=
201002121850 METAR COR EGLL 121850Z 06006KT 9999 BKN032 03/M01 Q1024 NOSIG=
201002121820 METAR COR EGLL 121820Z 05005KT 360V100 9999 FEW024 BKN034
                        03/M01 Q1024 NOSIG=
201002121750 METAR COR EGLL 121750Z 06007KT 9999 FEW025 BKN030 03/M01
                        Q1024 NOSIG=
201002121720 METAR COR EGLL 121720Z 06009KT 9999 BKN021 03/M01 Q1024 NOSIG=
201002121650 METAR COR EGLL 121650Z 04006KT 010V070 9999 BKN025 04/M01
                        Q1023 NOSIG=
201002121620 METAR COR EGLL 121620Z 04007KT 010V070 9999 SCT016 BKN024
                        04/M00 Q1023 NOSIG=
201002121550 METAR COR EGLL 121550Z 05006KT 010V080 9999 SCT017 BKN027
                        04/01 Q1023 NOSIG=
201002121520 METAR COR EGLL 121520Z 05005KT 010V080 9999 FEW010 SCT015
                        BKN024 04/01 Q1023 NOSIG=
201002121450 METAR COR EGLL 121450Z 07005KT 9999 FEW008 SCT011 BKN020
                        03/01 Q1023 NOSIG=
201002121420 METAR COR EGLL 121420Z 10005KT 9999 FEW008 SCT017 BKN021
                        03/02 Q1023 NOSIG=
201002121350 METAR COR EGLL 121350Z 11008KT 9999 FEW010 BKN021 03/02 Q1022
                        NOSIG=
201002121320 METAR COR EGLL 121320Z 03008KT 350V070 9999 BKN010 04/02
                        Q1022 BECMG BKN015=
201002121250 METAR COR EGLL 121250Z 01006KT 340V050 9999 -RA BKN011 05/02
                        Q1022 BECMG BKN015=
201002121220 METAR COR EGLL 121220Z 02007KT 340V060 9999 BKN014 05/02
                        Q1023 BECMG BKN017=
201002121150 METAR COR EGLL 121150Z 02005KT 330V060 9000 FEW008 BKN012
                        04/02 Q1023 BECMG BKN017=
201002121120 METAR COR EGLL 121120Z 01005KT 340V050 9000 -RA FEW008 BKN013
                        04/02 Q1023 BECMG BKN017=
201002121050 METAR COR EGLL 121050Z 36006KT 340V040 9000 FEW009 BKN010
                        04/02 Q1023 BECMG BKN015=
201002121020 METAR COR EGLL 121020Z 01006KT 330V040 9000 FEW008 BKN009
                        04/02 Q1023 BECMG BKN015=
201002120950 METAR COR EGLL 120950Z 36006KT 330V040 8000 BKN007 03/02
                        Q1023 NOSIG=
201002120920 METAR COR EGLL 120920Z 36006KT 330V040 9000 BKN008 03/02
                        Q1023 NOSIG=
201002120850 METAR COR EGLL 120850Z 36006KT 320V030 9000 BKN008 OVC010
                        03/02 Q1022 NOSIG=
201002120820 METAR COR EGLL 120820Z 01006KT 330V050 9000 BKN009 03/02
                        Q1022 NOSIG=
201002120750 METAR COR EGLL 120750Z 02005KT 340V050 7000 BKN008 03/02
                        Q1022 NOSIG=
201002120720 METAR COR EGLL 120720Z 02005KT 340V040 7000 BKN008 03/01
                        Q1022 NOSIG=
201002120650 METAR COR EGLL 120650Z 36007KT 6000 BKN007 03/01 Q1022 NOSIG=
201002120620 METAR COR EGLL 120620Z 35006KT 320V020 4500 -RA FEW005 BKN007
                        02/01 Q1022 TEMPO BKN004=
201002120550 METAR EGLL 120550Z 35005KT 4400 -RA FEW007 BKN009 02/01 Q1021=
201002120520 METAR COR EGLL 120520Z 35005KT 5000 -RA OVC009 02/01 Q1021
                        NOSIG=
201002120450 METAR COR EGLL 120450Z 35004KT 5000 -RA BKN010 02/01 Q1021
                        NOSIG=
201002120420 METAR COR EGLL 120420Z 35005KT 4700 -RA BKN010 02/01 Q1021
                        NOSIG=
201002120350 METAR COR EGLL 120350Z 35005KT 6000 -RA OVC010 02/01 Q1021
                        NOSIG=
201002120320 METAR COR EGLL 120320Z 36005KT 9000 SCT010 BKN017 02/00 Q1021
                        TEMPO BKN014=
201002120250 METAR COR EGLL 120250Z 36006KT 9999 SCT011 BKN022 02/00 Q1021
                        NOSIG=
201002120220 METAR COR EGLL 120220Z AUTO 36005KT 320V030 9999NDV OVC010///
                        02/00 Q1022 NOSIG=
201002120150 METAR EGLL 120150Z AUTO 35006KT 9999NDV BKN012/// 02/M00
                        Q1022=
201002120120 METAR EGLL 120120Z AUTO 35005KT 320V030 9999NDV OVC013///
                        02/M00 Q1022=
201002120050 METAR COR EGLL 120050Z 35005KT 310V020 9999 FEW013 OVC017
                        01/M00 Q1022 TEMPO BKN014=
201002120020 METAR COR EGLL 120020Z 35005KT 7000 -RA FEW010 BKN019 02/M00
                        Q1022 NOSIG=
201002112350 METAR COR EGLL 112350Z 35005KT 6000 -SN BKN020 01/M01 Q1022
                        TEMPO 4000 BKN014=
201002112320 METAR COR EGLL 112320Z 29003KT 9999 BKN021 BKN030 01/M02
                        Q1022 NOSIG=
201002112250 METAR COR EGLL 112250Z 29003KT 9999 SCT023 BKN029 01/M03
                        Q1022 NOSIG=
201002112220 METAR COR EGLL 112220Z 31003KT 9999 BKN029 01/M03 Q1022 NOSIG=
201002112150 METAR COR EGLL 112150Z 31004KT 9999 SCT033 01/M03 Q1022 NOSIG=
201002112120 METAR COR EGLL 112120Z 31005KT 9999 SCT037 01/M03 Q1023 NOSIG=
201002112050 METAR COR EGLL 112050Z 32004KT 290V040 9999 SCT024 SCT035
                        01/M03 Q1023 NOSIG=
201002112020 METAR COR EGLL 112020Z VRB03KT 9999 FEW025 SCT035 01/M03
                        Q1023 NOSIG=
201002111950 METAR COR EGLL 111950Z VRB02KT 9999 SCT035 00/M04 Q1023 NOSIG=
201002111920 METAR COR EGLL 111920Z VRB03KT 9999 FEW030 00/M04 Q1023 NOSIG=
201002111850 METAR COR EGLL 111850Z 01004KT 330V060 9999 SCT030 01/M05
                        Q1023 NOSIG=
201002111820 METAR COR EGLL 111820Z 02006KT 9999 FEW030 01/M05 Q1022 NOSIG=
201002111750 METAR COR EGLL 111750Z 02007KT 330V060 9999 FEW032 01/M05
                        Q1022 NOSIG=
201002111720 METAR COR EGLL 111720Z 02008KT 340V050 9999 FEW033 02/M05
                        Q1022 NOSIG=
201002111650 METAR COR EGLL 111650Z 02009KT 9999 FEW036 02/M06 Q1022 NOSIG=
201002111620 METAR COR EGLL 111620Z 01009KT 9999 FEW039 02/M06 Q1022 NOSIG=
201002111550 METAR COR EGLL 111550Z 03011KT 350V050 9999 FEW038 02/M06
                        Q1022 NOSIG=
201002111520 METAR COR EGLL 111520Z 02010KT 340V050 9999 SCT040 03/M06
                        Q1021 NOSIG=
201002111450 METAR COR EGLL 111450Z 03012KT 360V060 9999 SCT043 03/M06
                        Q1021 NOSIG=
201002111420 METAR COR EGLL 111420Z 02013KT 340V050 9999 SCT040 03/M06
                        Q1021 NOSIG=
201002111350 METAR COR EGLL 111350Z 03013KT 9999 SCT040 03/M06 Q1022 NOSIG=
201002111320 METAR COR EGLL 111320Z 03011KT 340V070 9999 BKN038 03/M06
                        Q1022 NOSIG=
201002111250 METAR COR EGLL 111250Z 03012G22KT 340V060 9999 BKN038 02/M07
                        Q1022 NOSIG=
201002111220 METAR COR EGLL 111220Z 03012KT 350V070 9999 SCT038 03/M06
                        Q1022 NOSIG=
201002111150 METAR COR EGLL 111150Z 03013G23KT 360V060 9999 SCT041 04/M07
                        Q1022 NOSIG=
201002111120 METAR COR EGLL 111120Z 03012KT 360V070 9999 SCT039 03/M07
                        Q1022 NOSIG=
201002111050 METAR COR EGLL 111050Z 04013KT 360V070 9999 FEW037 02/M06
                        Q1022 NOSIG=
201002111020 METAR COR EGLL 111020Z 04013KT 010V070 9999 FEW034 02/M06
                        Q1022 NOSIG=
201002110950 METAR COR EGLL 110950Z 04011G21KT 350V070 9999 FEW028 02/M05
                        Q1022 NOSIG=
201002110920 METAR COR EGLL 110920Z 03010KT 360V060 9999 FEW024 01/M04
                        Q1022 NOSIG=
201002110850 METAR COR EGLL 110850Z 03010KT 350V060 9999 FEW040 01/M04
                        Q1021 NOSIG=
201002110820 METAR COR EGLL 110820Z 02010KT 340V050 9999 -SHSN FEW039
                        00/M04 Q1021 NOSIG=
201002110750 METAR COR EGLL 110750Z 03008KT 350V060 9999 -SHSN FEW030
                        M00/M04 Q1021 NOSIG=
201002110720 METAR COR EGLL 110720Z 04008KT 360V060 3500 -SHSN FEW031
                        SCT037 M01/M02 Q1021 BECMG 6000 NSW=
201002110650 METAR COR EGLL 110650Z 03010KT 350V060 9999 -SHSN FEW010
                        SCT033 00/M04 Q1020 NOSIG=
201002110620 METAR COR EGLL 110620Z 03011KT 340V060 9999 -SHSN FEW028
                        BKN038 00/M04 Q1020 NOSIG=
201002110550 METAR COR EGLL 110550Z 01008KT 330V040 9999 FEW042 00/M04
                        Q1020 NOSIG=
201002110520 METAR EGLL 110520Z NIL=
201002110450 METAR COR EGLL 110450Z 01009KT 340V040 CAVOK 00/M04 Q1020
                        NOSIG=
201002110420 METAR COR EGLL 110420Z 36008KT 330V050 CAVOK 00/M03 Q1020
                        NOSIG=
201002110350 METAR COR EGLL 110350Z 02007KT 340V050 9999 FEW010 SCT045
                        M01/M02 Q1020 NOSIG=
201002110320 METAR COR EGLL 110320Z 01010G20KT 340V050 5000 SHSN FEW025
                        SCT030 01/M03 Q1020 BECMG NSW=
201002110250 METAR COR EGLL 110250Z 36008KT 9999 -SN FEW048 01/M04 Q1019
                        NOSIG=
201002110150 METAR EGLL 110150Z AUTO 36008KT 300V030 9999NDV NCD 01/M04
                        Q1019=
201002110120 METAR EGLL 110120Z AUTO 36008KT 9999NDV NCD 00/M04 Q1019=
201002110050 METAR COR EGLL 110050Z 36009KT 9999 FEW048 01/M03 Q1019 NOSIG=
201002110020 METAR COR EGLL 110020Z 36008KT CAVOK 01/M04 Q1019 NOSIG=
201002102350 METAR COR EGLL 102350Z 36009KT CAVOK 00/M04 Q1019 NOSIG=
201002102320 METAR COR EGLL 102320Z 36008KT CAVOK 00/M04 Q1019 NOSIG=
201002102250 METAR COR EGLL 102250Z 36009KT CAVOK M00/M03 Q1020 NOSIG=
201002102220 METAR COR EGLL 102220Z 36007KT 320V030 9999 SCT040 M00/M03
                        Q1020 NOSIG=
201002102150 METAR COR EGLL 102150Z 35006KT 310V020 CAVOK M01/M04 Q1020
                        NOSIG=
201002102120 METAR COR EGLL 102120Z 35006KT 320V020 9999 FEW047 M01/M04
                        Q1020 NOSIG=
201002102050 METAR COR EGLL 102050Z 36006KT CAVOK M01/M04 Q1020 NOSIG=
201002102020 METAR COR EGLL 102020Z 36006KT 320V040 CAVOK M00/M04 Q1020
                        NOSIG=
201002101950 METAR COR EGLL 101950Z 02007KT 350V060 CAVOK 00/M04 Q1020
                        NOSIG=
201002101920 METAR COR EGLL 101920Z 01006KT 330V050 CAVOK 00/M04 Q1019
                        NOSIG=
201002101850 METAR COR EGLL 101850Z 01006KT 340V060 CAVOK 00/M04 Q1019
                        NOSIG=
201002101820 METAR COR EGLL 101820Z 05005KT 340V080 9999 SCT044 00/M04
                        Q1019 NOSIG=
201002101750 METAR COR EGLL 101750Z 02009KT 340V060 9999 SCT041 01/M05
                        Q1019 NOSIG=
201002101720 METAR COR EGLL 101720Z 02011KT 350V050 9999 SCT045 01/M05
                        Q1018 TEMPO SHSN=
201002101650 METAR COR EGLL 101650Z 02010KT 350V060 9999 -SHSN SCT045
                        02/M07 Q1018 NOSIG=
201002101620 METAR COR EGLL 101620Z 01009KT 330V050 9999 FEW046 02/M07
                        Q1018 NOSIG=
201002101550 METAR COR EGLL 101550Z 02011KT 9999 SCT047 03/M07 Q1018 TEMPO
                        SHSN=
201002101520 METAR COR EGLL 101520Z 02010KT 330V070 9999 SCT044 03/M08
                        Q1017 NOSIG=
201002101450 METAR COR EGLL 101450Z 03009KT 350V070 9999 SCT041 03/M07
                        Q1017 NOSIG=
201002101420 METAR COR EGLL 101420Z 03011KT 360V070 9999 SCT032 03/M07
                        Q1017 NOSIG=
201002101350 METAR COR EGLL 101350Z 04011KT 360V090 9999 VCSH SCT033 03/M08
                        Q1017 NOSIG=
201002101320 METAR COR EGLL 101320Z 05010KT 010V080 9999 4000W VCSH SCT010
                        03/M05 Q1017 NOSIG=
201002101250 METAR COR EGLL 101250Z 05011KT 9999 SCT036 03/M04 Q1017 NOSIG=
201002101220 METAR COR EGLL 101220Z 03010KT 350V080 9999 FEW035 SCT040CB
                        03/M05 Q1017 NOSIG=
201002101150 METAR COR EGLL 101150Z 04012KT 010V070 9999 FEW030 SCT040CB
                        02/M05 Q1017 TEMPO SHSN=
201002101120 METAR COR EGLL 101120Z 03009KT 9999 FEW029 SCT035 BKN043
                        02/M03 Q1017 TEMPO SHSN=
201002101050 METAR COR EGLL 101050Z 02007KT 350V050 9999 VCSH SCT023 SCT028
                        01/M02 Q1016 NOSIG=
201002101020 METAR COR EGLL 101020Z 02008KT 340V080 9999 FEW012 SCT021
                        01/M02 Q1016 RESHSN NOSIG=
201002100950 METAR COR EGLL 100950Z 03009KT 340V070 9999 SCT022 SCT043
                        02/M03 Q1016 NOSIG=
201002100920 METAR COR EGLL 100920Z 02011KT 9999 SCT022 SCT028 02/M03
                        Q1015 TEMPO SHSN=
201002100850 METAR COR EGLL 100850Z 36011KT 9999 SCT024 02/M02 Q1015 NOSIG=
201002100820 METAR COR EGLL 100820Z 36008KT 9999 FEW025 02/M02 Q1014 NOSIG=
201002100750 METAR COR EGLL 100750Z 36010KT 9999 FEW020 02/M03 Q1014 TEMPO
                        SHSN=
201002100720 METAR COR EGLL 100720Z 36009KT 300V040 9999 SCT017 SCT031
                        02/M01 Q1014 NOSIG=
201002100650 METAR COR EGLL 100650Z 35008KT 310V030 9999 SCT015 BKN022
                        02/M01 Q1014 NOSIG=
201002100620 METAR COR EGLL 100620Z 33007KT 290V010 9999 SCT041 02/M01
                        Q1014 NOSIG=
201002100550 METAR COR EGLL 100550Z 34007KT 300V030 9999 SCT013 02/M01
                        Q1014 TEMPO BKN013=
201002100520 METAR COR EGLL 100520Z 35008KT 300V020 9999 BKN013 02/M00
                        Q1013 TEMPO BKN015=
201002100450 METAR COR EGLL 100450Z 34008KT 310V020 9999 BKN015 02/M00
                        Q1013 TEMPO BKN014=
201002100420 METAR COR EGLL 100420Z 34007KT 310V020 9999 FEW014 SCT020
                        02/M00 Q1013 TEMPO BKN014=
201002100350 METAR COR EGLL 100350Z 34008KT 300V020 9999 BKN014 02/M00
                        Q1013 NOSIG=
201002100320 METAR COR EGLL 100320Z 35007KT 310V030 9999 BKN012 02/M00
                        Q1013 NOSIG=
201002100250 METAR COR EGLL 100250Z 35006KT 300V010 9999 FEW014 SCT032
                        02/M00 Q1013 BECMG BKN014=
201002100220 METAR COR EGLL 100220Z 35005KT 320V020 CAVOK 02/M00 Q1013
                        BECMG BKN009=
201002100150 METAR COR EGLL 100150Z 35006KT 320V030 CAVOK 02/M00 Q1014
                        BECMG BKN009=
201002100120 METAR COR EGLL 100120Z 35007KT 310V030 9999 SCT012 02/M00
                        Q1014 NOSIG=
201002100050 METAR COR EGLL 100050Z 35007KT 290V040 9999 BKN013 02/M00
                        Q1014 NOSIG=
201002100020 METAR COR EGLL 100020Z 36008KT 9999 BKN013 02/M00 Q1014 NOSIG=
201002092350 METAR COR EGLL 092350Z 35005KT 300V020 9999 SCT015 02/M00
                        Q1014 NOSIG=
201002092320 METAR COR EGLL 092320Z 35006KT 310V020 9999 FEW015 SCT025
                        02/M00 Q1014 NOSIG=
201002092250 METAR COR EGLL 092250Z 35006KT 300V020 9999 FEW015 BKN030
                        02/M00 Q1014 NOSIG=
201002092220 METAR COR EGLL 092220Z 35005KT 310V040 9999 FEW015 BKN035
                        03/M00 Q1014 NOSIG=
201002092150 METAR COR EGLL 092150Z 34004KT 300V010 9999 SCT029 BKN034
                        02/M00 Q1014 NOSIG=
201002092120 METAR COR EGLL 092120Z 35004KT 9999 BKN030 03/M00 Q1014 NOSIG=
201002092050 METAR COR EGLL 092050Z 35004KT 9999 SCT035 02/M00 Q1014 NOSIG=
201002092020 METAR COR EGLL 092020Z 35005KT 310V030 9999 FEW022 02/M01
                        Q1014 NOSIG=
201002091950 METAR COR EGLL 091950Z VRB03KT 9999 FEW020 02/M01 Q1014 NOSIG=
201002091920 METAR COR EGLL 091920Z VRB03KT 9999 SCT021 03/M01 Q1014 NOSIG=
201002091850 METAR COR EGLL 091850Z 36004KT 9999 FEW040 03/M02 Q1013 NOSIG=
201002091820 METAR COR EGLL 091820Z 36005KT 330V050 CAVOK 03/M02 Q1013
                        NOSIG=
201002091750 METAR COR EGLL 091750Z 36007KT 9999 SCT039 03/M02 Q1013 NOSIG=
201002091720 METAR COR EGLL 091720Z 02007KT 340V050 9999 FEW036 04/M02
                        Q1013 NOSIG=
201002091650 METAR COR EGLL 091650Z 02008KT 340V060 9999 FEW034 04/M02
                        Q1012 NOSIG=
201002091620 METAR COR EGLL 091620Z 01006KT 340V050 9999 FEW036 SCT038
                        04/M02 Q1012 NOSIG=
201002091550 METAR COR EGLL 091550Z 02009KT 340V060 9999 FEW036 SCT038
                        05/M02 Q1012 NOSIG=
201002091520 METAR COR EGLL 091520Z 03008KT 350V070 9999 FEW036 SCT045
                        05/M01 Q1011 NOSIG=
201002091450 METAR COR EGLL 091450Z 04008KT 360V080 9999 SCT031 SCT047
                        05/M01 Q1011 NOSIG=
201002091420 METAR COR EGLL 091420Z 04009KT 010V070 9999 NSC 06/M02 Q1011
                        NOSIG=
201002091350 METAR COR EGLL 091350Z 05009KT 360V080 9999 FEW027 SCT039
                        05/M00 Q1011 NOSIG=
201002091320 METAR COR EGLL 091320Z 04009KT 350V070 9999 FEW005 SCT012
                        04/01 Q1011 NOSIG=
201002091250 METAR COR EGLL 091250Z 05010KT 9999 5000E -RA FEW010 BKN020
                        04/00 Q1011 NOSIG=
201002091220 METAR COR EGLL 091220Z 02009KT 350V050 9999 FEW014 SCT031
                        04/00 Q1011 NOSIG=
201002091150 METAR COR EGLL 091150Z 02010KT 350V050 9999 FEW014 SCT029
                        03/00 Q1011 NOSIG=
201002091120 METAR COR EGLL 091120Z 01009KT 9999 FEW015 SCT017 03/M00
                        Q1011 NOSIG=
201002091050 METAR COR EGLL 091050Z 02008KT 330V050 9999 SCT019 SCT035
                        03/M00 Q1011 NOSIG=
201002091020 METAR COR EGLL 091020Z 02008KT 340V060 9999 FEW020 SCT046
                        02/M01 Q1011 NOSIG=
201002090950 METAR COR EGLL 090950Z 01005KT 340V050 9999 FEW011 SCT047
                        02/M01 Q1011 NOSIG=
201002090920 METAR COR EGLL 090920Z 02007KT 350V060 9999 2100E -SHSN SCT022
                        SCT044 01/M02 Q1011 NOSIG=
201002090850 METAR COR EGLL 090850Z 02004KT 340V050 9999 FEW026 SCT047
                        01/M02 Q1011 NOSIG=
201002090820 METAR COR EGLL 090820Z 36005KT 320V030 9999 FEW021 SCT047
                        00/M03 Q1011 NOSIG=
201002090750 METAR COR EGLL 090750Z 03004KT 350V060 9999 FEW021 00/M03
                        Q1011 NOSIG=
201002090720 METAR COR EGLL 090720Z 02005KT 350V050 9999 FEW040 00/M03
                        Q1011 NOSIG=
201002090650 METAR COR EGLL 090650Z 05006KT 360V080 9999 FEW030 00/M03
                        Q1010 NOSIG=
201002090620 METAR COR EGLL 090620Z 03007KT 350V070 CAVOK 00/M03 Q1010
                        NOSIG=
201002090550 METAR COR EGLL 090550Z 04008KT 360V080 9999 SCT024 01/M04
                        Q1010 NOSIG=
201002090520 METAR COR EGLL 090520Z 04009KT 340V070 9999 SCT023 SCT032
                        01/M03 Q1010 NOSIG=
201002090450 METAR COR EGLL 090450Z 04010G20KT 360V070 9999 SCT021 BKN026
                        01/M02 Q1010 NOSIG=
201002090420 METAR COR EGLL 090420Z 05008KT 9999 BKN016 01/M02 Q1010 NOSIG=
201002090350 METAR COR EGLL 090350Z 05007KT 010V080 9999 BKN017 01/M02
                        Q1010 NOSIG=
201002090320 METAR COR EGLL 090320Z 05009KT 360V100 9999 BKN019 01/M02
                        Q1010 NOSIG=
201002090250 METAR COR EGLL 090250Z 03010KT 360V070 9999 BKN024 01/M02
                        Q1010 NOSIG=
201002090220 METAR COR EGLL 090220Z 03006KT 360V070 9999 BKN020 01/M02
                        Q1010 NOSIG=
201002090150 METAR EGLL 090150Z NIL=
201002090120 METAR COR EGLL 090120Z 05007KT 9999 BKN020 01/M03 Q1010 NOSIG=
201002090050 METAR COR EGLL 090050Z 04008KT 010V080 9999 BKN025 01/M03
                        Q1010 NOSIG=
201002090020 METAR COR EGLL 090020Z 05011KT 9999 BKN025 01/M03 Q1010 NOSIG=
201002082350 METAR COR EGLL 082350Z 05011KT 360V070 9999 BKN025 01/M04
                        Q1010 NOSIG=
201002082320 METAR COR EGLL 082320Z 05009KT 360V080 9999 BKN020 01/M03
                        Q1011 NOSIG=
201002082250 METAR COR EGLL 082250Z 05011KT 010V080 9999 BKN021 01/M03
                        Q1011 NOSIG=
201002082220 METAR COR EGLL 082220Z 05011KT 010V070 9999 BKN020 01/M03
                        Q1011 NOSIG=
201002082150 METAR COR EGLL 082150Z 04009KT 010V070 9999 BKN020 01/M03
                        Q1011 NOSIG=
201002082120 METAR COR EGLL 082120Z 05009KT 020V080 9999 BKN019 01/M03
                        Q1011 NOSIG=
201002082050 METAR COR EGLL 082050Z 06010KT 9999 BKN019 00/M02 Q1011 NOSIG=
201002082020 METAR COR EGLL 082020Z 05009KT 020V080 9999 SCT014 BKN020
                        00/M02 Q1011 NOSIG=
201002081950 METAR COR EGLL 081950Z 03008KT 6000 -SN FEW010 BKN015 00/M01
                        Q1011 NOSIG=
201002081920 METAR COR EGLL 081920Z 05008KT 5000 SN BKN012 01/M01 Q1011
                        NOSIG=
201002081850 METAR COR EGLL 081850Z 06011KT 7000 -SN BKN013 01/M01 Q1011
                        NOSIG=
201002081820 METAR COR EGLL 081820Z 06012KT 7000 -SN BKN011 01/M01 Q1010
                        NOSIG=
201002081750 METAR EGLL 081750Z 05011KT 8000 -SN BKN012 01/M01 Q1010=
201002081720 METAR COR EGLL 081720Z 05008KT 7000 BKN012 01/M01 Q1010 NOSIG=
201002081650 METAR EGLL 081650Z 04010KT 6000 -RASN BKN015 01/M01 Q1010=
201002081620 METAR COR EGLL 081620Z 04009KT 010V080 4500 -SN BKN017 01/M01
                        Q1010 TEMPO BKN012=
201002081550 METAR COR EGLL 081550Z 05010KT 020V080 6000 -SN BKN015 01/M01
                        Q1010 TEMPO BKN012=
201002081520 METAR EGLL 081520Z 04009KT 360V070 2000 SN BKN010 01/M00
                        Q1010=
201002081450 METAR EGLL 081450Z 05009KT 3500 SN BKN009 01/M00 Q1010=
201002081420 METAR EGLL 081420Z 04009KT 350V080 6000 -RASN FEW009 BKN010
                        02/M00 Q1010 RESN=
201002081350 METAR COR EGLL 081350Z 04007KT 360V070 5000 SN BKN010 02/M00
                        Q1011 NOSIG=
201002081320 METAR COR EGLL 081320Z 03010KT 360V060 9000 4000E -RASN BKN010
                        02/M00 Q1011 TEMPO RASN BKN007=
201002081250 METAR COR EGLL 081250Z 03010KT 360V070 9999 -RASN BKN013
                        02/M00 Q1011 TEMPO 7000 RASN BKN009=
201002081220 METAR COR EGLL 081220Z 03009KT 360V060 9999 FEW011 BKN012
                        03/M00 Q1011 TEMPO RASN BKN008=
201002081150 METAR COR EGLL 081150Z 03008KT 360V060 9999 -SN FEW013 BKN020
                        03/M00 Q1012 TEMPO 8000 RASN BKN012=
201002081120 METAR EGLL 081120Z 02009KT 350V060 9999 SCT013 BKN018 03/M00
                        Q1012=
201002081050 METAR EGLL 081050Z 05008KT 9999 -SN BKN013 02/M00 Q1012=
201002081020 METAR EGLL 081020Z 04008KT 350V070 9999 SCT013 BKN015 03/M00
                        Q1012=
201002080950 METAR EGLL 080950Z 04007KT 020V080 9999 BKN015 02/M00 Q1012=
201002080920 METAR COR EGLL 080920Z 04008KT 010V070 9999 BKN016 02/M00
                        Q1012 TEMPO BKN012=
201002080850 METAR COR EGLL 080850Z 05008KT 360V070 9999 SCT013 BKN018
                        02/M00 Q1013 BECMG BKN012=
201002080820 METAR COR EGLL 080820Z 04007KT 010V070 9999 SCT014 BKN018
                        02/00 Q1013 BECMG BKN012=
201002080750 METAR EGLL 080750Z 03007KT 340V070 9000 SCT014 BKN018 02/00
                        Q1013=
201002080720 METAR COR EGLL 080720Z 03007KT 360V070 9000 SCT011 BKN018
                        02/00 Q1013 TEMPO -RASN BKN012=
201002080650 METAR COR EGLL 080650Z 03006KT 360V070 8000 SCT014 SCT018
                        02/M00 Q1013 TEMPO BKN012=
201002080620 METAR COR EGLL 080620Z 02007KT 340V060 7000 SCT014 BKN018
                        02/00 Q1014 TEMPO BKN012=
201002080550 METAR COR EGLL 080550Z 03006KT 330V060 7000 SCT014 BKN018
                        02/M00 Q1014 TEMPO BKN012=
201002080520 METAR COR EGLL 080520Z 04006KT 010V080 6000 FEW016 BKN020
                        02/M00 Q1014 TEMPO BKN012=
201002080450 METAR COR EGLL 080450Z 03006KT 360V070 6000 SCT015 BKN021
                        02/M00 Q1014 TEMPO BKN008=
201002080420 METAR COR EGLL 080420Z 03006KT 360V060 6000 BKN015 02/M00
                        Q1015 TEMPO BKN008=
201002080350 METAR COR EGLL 080350Z 02006KT 360V060 6000 FEW039 02/M01
                        Q1015 TEMPO BKN012=
201002080320 METAR COR EGLL 080320Z 02006KT 350V050 6000 SCT038 02/M00
                        Q1015 TEMPO BKN012=
201002080250 METAR COR EGLL 080250Z 03006KT 360V060 6000 NSC 02/M00 Q1016
                        TEMPO BKN012=
201002080220 METAR COR EGLL 080220Z 04006KT 360V070 7000 FEW015 02/M00
                        Q1016 TEMPO BKN012=
201002080150 METAR COR EGLL 080150Z 05008KT 020V090 7000 FEW013 03/M00
                        Q1016 TEMPO BKN012=
201002080120 METAR COR EGLL 080120Z 04007KT 010V070 7000 FEW013 03/00
                        Q1017 TEMPO BKN012=
201002080050 METAR COR EGLL 080050Z 03007KT 360V070 7000 BKN011 BKN049
                        03/01 Q1017 TEMPO BKN008=
201002080020 METAR COR EGLL 080020Z 02006KT 350V060 6000 BKN010 03/01
                        Q1017 NOSIG=
201002072350 METAR COR EGLL 072350Z 02006KT 6000 SCT010 BKN015 BKN020
                        03/01 Q1018 TEMPO BKN012=
201002072320 METAR COR EGLL 072320Z 01004KT 340V060 6000 FEW011 BKN015
                        03/01 Q1018 TEMPO BKN012=
201002072250 METAR COR EGLL 072250Z 35004KT 320V030 6000 BKN010 BKN020
                        03/01 Q1019 NOSIG=
201002072220 METAR COR EGLL 072220Z VRB03KT 6000 BKN010 BKN020 03/01 Q1019
                        NOSIG=
201002072150 METAR COR EGLL 072150Z 35004KT 310V030 6000 SCT010 BKN046
                        03/01 Q1019 TEMPO BKN012=
201002072120 METAR COR EGLL 072120Z VRB03KT 6000 SCT011 BKN046 03/01 Q1019
                        TEMPO BKN012=
201002072050 METAR COR EGLL 072050Z VRB03KT 6000 SCT010 BKN047 03/01 Q1019
                        TEMPO BKN012=
201002072020 METAR COR EGLL 072020Z 04005KT 7000 SCT010 BKN048 03/01 Q1020
                        NOSIG=
201002071950 METAR COR EGLL 071950Z 04005KT 360V070 8000 FEW014 BKN046
                        03/01 Q1020 NOSIG=
201002071920 METAR COR EGLL 071920Z 05005KT 010V080 9000 FEW010 BKN048
                        03/01 Q1020 TEMPO BKN012=
201002071850 METAR COR EGLL 071850Z 06005KT 9999 FEW008 SCT010 BKN040
                        03/01 Q1020 TEMPO BKN012=
201002071820 METAR COR EGLL 071820Z 07008KT 7000 -RA FEW006 SCT008 BKN011
                        03/02 Q1020 NOSIG=
201002071750 METAR COR EGLL 071750Z 36005KT 330V040 5000 -RA BKN012 04/03
                        Q1020 NOSIG=
201002071720 METAR COR EGLL 071720Z 01004KT 330V050 8000 BKN015 05/02
                        Q1020 TEMPO BKN012=
201002071650 METAR EGLL 071650Z 02006KT 330V050 7000 BKN017 05/02 Q1020=
201002071620 METAR COR EGLL 071620Z 36005KT 330V040 9999 FEW017 BKN028
                        05/02 Q1020 TEMPO BKN012=
201002071550 METAR EGLL 071550Z 02005KT 340V070 9999 FEW015 BKN021 05/02
                        Q1021=
201002071520 METAR COR EGLL 071520Z 02004KT 340V060 9999 SCT013 BKN016
                        05/02 Q1021 TEMPO BKN012=
201002071450 METAR COR EGLL 071450Z 02006KT 340V060 9999 BKN014 05/02
                        Q1022 NOSIG=
201002071420 METAR COR EGLL 071420Z 35005KT 320V030 9999 BKN020 05/02
                        Q1022 TEMPO BKN012=
201002071350 METAR COR EGLL 071350Z 36005KT 330V040 9999 BKN010 OVC014
                        05/02 Q1022 TEMPO BKN008=
201002071320 METAR COR EGLL 071320Z 35005KT 9999 FEW008 BKN010 05/02 Q1023
                        TEMPO BKN008=
201002071250 METAR COR EGLL 071250Z 35005KT 310V010 9000 SCT008 OVC011
                        05/03 Q1023 NOSIG=
201002071220 METAR COR EGLL 071220Z 35004KT 310V020 8000 BKN008 05/03
                        Q1023 NOSIG=
201002071150 METAR COR EGLL 071150Z 35005KT 300V020 9000 SCT008 BKN012
                        05/03 Q1024 NOSIG=
201002071120 METAR COR EGLL 071120Z 01005KT 330V050 8000 BKN008 05/03
                        Q1024 NOSIG=
201002071050 METAR EGLL 071050Z 01005KT 330V060 9000 BKN008 04/03 Q1024=
201002071020 METAR COR EGLL 071020Z 36005KT 9000 BKN008 04/02 Q1024 NOSIG=
201002070950 METAR COR EGLL 070950Z 35005KT 320V030 9000 BKN009 BKN040
                        05/02 Q1024 NOSIG=
201002070920 METAR COR EGLL 070920Z 34004KT 300V020 9999 SCT008 SCT015
                        05/02 Q1024 NOSIG=
201002070850 METAR EGLL 070850Z 04005KT 010V070 9999 FEW007 BKN008 04/02
                        Q1024=
201002070820 METAR COR EGLL 070820Z 04004KT 350V070 8000 BKN007 04/03
                        Q1024 NOSIG=
201002070750 METAR COR EGLL 070750Z 04005KT 360V070 9000 BKN007 05/03
                        Q1024 NOSIG=
201002070720 METAR COR EGLL 070720Z VRB03KT 8000 FEW006 SCT007 BKN038
                        04/03 Q1024 TEMPO BKN007=
201002070650 METAR COR EGLL 070650Z 35005KT 300V020 9000 FEW006 BKN038
                        04/02 Q1024 NOSIG=
201002070620 METAR COR EGLL 070620Z 31006KT 9000 BKN035 04/02 Q1024 NOSIG=
201002070550 METAR COR EGLL 070550Z 31004KT 9000 BKN035 04/02 Q1024 NOSIG=
201002070520 METAR COR EGLL 070520Z VRB03KT 9999 BKN036 04/02 Q1024 NOSIG=
201002070450 METAR COR EGLL 070450Z VRB03KT 9999 BKN035 04/02 Q1024 NOSIG=
201002070420 METAR COR EGLL 070420Z 31004KT 9999 FEW010 BKN032 04/02 Q1024
                        NOSIG=
201002070350 METAR COR EGLL 070350Z 30004KT 9999 BKN032 03/02 Q1024 NOSIG=
201002070320 METAR COR EGLL 070320Z 28004KT 9999 BKN030 04/02 Q1024 NOSIG=
201002070250 METAR COR EGLL 070250Z 24002KT 9999 FEW011 BKN022 04/02 Q1024
                        NOSIG=
201002070220 METAR COR EGLL 070220Z 06004KT 360V090 9999 SCT009 04/02
                        Q1024 NOSIG=
201002070150 METAR COR EGLL 070150Z 05009KT 9999 FEW006 SCT010 04/02 Q1024
                        NOSIG=
201002070120 METAR COR EGLL 070120Z 02007KT 340V060 9999 FEW007 SCT009
                        04/02 Q1024 NOSIG=
201002070050 METAR COR EGLL 070050Z 03006KT 9999 FEW008 SCT009 04/03 Q1024
                        NOSIG=
201002070020 METAR COR EGLL 070020Z 02006KT 350V080 9999 FEW006 SCT008
                        04/03 Q1024 NOSIG=
201002062350 METAR COR EGLL 062350Z 02004KT 330V080 9999 SCT006 04/03
                        Q1024 BECMG BKN006=
201002062320 METAR COR EGLL 062320Z 02006KT 350V050 9999 SCT006 04/03
                        Q1024 BECMG BKN006=
201002062250 METAR COR EGLL 062250Z 36006KT 340V050 8000 SCT005 04/03
                        Q1024 BECMG BKN005=
201002062220 METAR COR EGLL 062220Z 36005KT 330V030 9999 FEW005 SCT007
                        04/03 Q1023 BECMG BKN007=
201002062150 METAR COR EGLL 062150Z 36005KT 310V020 7000 SCT004 BKN007
                        04/03 Q1023 TEMPO BKN004=
201002062120 METAR COR EGLL 062120Z 36005KT 320V030 7000 FEW004 BKN006
                        04/03 Q1023 NOSIG=
201002062050 METAR COR EGLL 062050Z 02006KT 330V060 7000 BKN006 04/03
                        Q1022 NOSIG=
201002062020 METAR COR EGLL 062020Z 01006KT 340V050 8000 BKN006 04/03
                        Q1022 NOSIG=
201002061950 METAR COR EGLL 061950Z 03007KT 360V070 7000 BKN006 04/03
                        Q1022 NOSIG=
201002061920 METAR COR EGLL 061920Z 36006KT 330V030 6000 SCT004 BKN006
                        04/03 Q1021 NOSIG=
201002061850 METAR COR EGLL 061850Z 02006KT 350V050 7000 BKN006 04/03
                        Q1021 NOSIG=
201002061820 METAR COR EGLL 061820Z 01005KT 330V040 7000 OVC007 05/03
                        Q1020 NOSIG=
201002061750 METAR COR EGLL 061750Z 02007KT 350V050 7000 BKN006 04/03
                        Q1020 NOSIG=
201002061720 METAR COR EGLL 061720Z 01004KT 330V050 7000 BKN008 05/03
                        Q1020 NOSIG=
201002061650 METAR EGLL 061650Z 02005KT 8000 NSC 05/03 Q1019=
201002061620 METAR COR EGLL 061620Z 36006KT 320V040 9000 NSC 06/04 Q1018
                        TEMPO BKN012=
201002061550 METAR COR EGLL 061550Z 35005KT 330V040 9999 FEW011 07/04
                        Q1018 TEMPO BKN010=
201002061520 METAR COR EGLL 061520Z 02004KT 330V070 9999 FEW011 07/04
                        Q1018 TEMPO BKN010=
201002061450 METAR COR EGLL 061450Z 01005KT 320V070 9000 BKN010 07/04
                        Q1017 NOSIG=
201002061420 METAR COR EGLL 061420Z 02005KT 310V060 9999 SCT009 07/04
                        Q1016 TEMPO BKN008=
201002061350 METAR COR EGLL 061350Z 03006KT 360V070 9999 SCT007 BKN010
                        07/04 Q1016 NOSIG=
201002061320 METAR COR EGLL 061320Z 05007KT 360V080 7000 BKN007 06/04
                        Q1015 BECMG BKN010=
201002061250 METAR COR EGLL 061250Z 35006KT 320V030 7000 BKN008 06/04
                        Q1015 NOSIG=
201002061220 METAR EGLL 061220Z 04006KT 340V070 7000 FEW006 BKN009 06/04
                        Q1015=
201002061150 METAR EGLL 061150Z 02006KT 6000 BKN006 06/04 Q1014=
201002061120 METAR COR EGLL 061120Z 05006KT 360V080 4500 BR FEW004 BKN006
                        05/04 Q1014 NOSIG=
201002061050 METAR COR EGLL 061050Z 04007KT 3100 BR BKN004 05/04 Q1013
                        NOSIG=
201002061020 METAR COR EGLL 061020Z 04006KT 010V080 3100 BR BKN004 05/04
                        Q1012 NOSIG=
201002060950 METAR COR EGLL 060950Z 05005KT 020V080 2500 BR FEW003 BKN004
                        05/04 Q1012 NOSIG=
201002060920 METAR COR EGLL 060920Z 05007KT 010V080 2500 BR BKN003 04/03
                        Q1011 NOSIG=
201002060850 METAR COR EGLL 060850Z 05008KT 010V080 2500 BR BKN005 04/03
                        Q1010 TEMPO BKN004=
201002060820 METAR EGLL 060820Z 05006KT 6000 FEW006 04/03 Q1010=
201002060750 METAR COR EGLL 060750Z 05004KT 7000 NSC 04/03 Q1009 TEMPO
                        4000 BR=
201002060720 METAR COR EGLL 060720Z 04006KT 8000 NSC 04/03 Q1008 TEMPO
                        4000 BR=
201002060650 METAR COR EGLL 060650Z 05006KT 9000 NSC 04/03 Q1007 NOSIG=
201002060620 METAR COR EGLL 060620Z 04006KT 360V070 9999 FEW024 05/03
                        Q1007 NOSIG=
201002060550 METAR COR EGLL 060550Z 05005KT 9999 BKN027 05/03 Q1006 NOSIG=
201002060520 METAR COR EGLL 060520Z 04005KT 9999 BKN029 05/04 Q1006 NOSIG=
201002060450 METAR COR EGLL 060450Z 06007KT 9999 FEW027 SCT033 05/04 Q1005
                        NOSIG=
201002060420 METAR COR EGLL 060420Z 06008KT 9999 SCT030 SCT041 06/04 Q1005
                        NOSIG=
201002060350 METAR COR EGLL 060350Z 06007KT 9999 BKN031 06/04 Q1004 NOSIG=
201002060320 METAR COR EGLL 060320Z 06007KT 9999 FEW025 BKN032 05/04 Q1004
                        NOSIG=
201002060250 METAR COR EGLL 060250Z 06007KT 9999 SCT031 SCT042 06/04 Q1004
                        NOSIG=
201002060220 METAR COR EGLL 060220Z 07008KT 9999 FEW030 05/04 Q1004 NOSIG=
201002060150 METAR COR EGLL 060150Z 08008KT 9999 FEW036 06/04 Q1003 NOSIG=
201002060120 METAR COR EGLL 060120Z 09008KT 9999 FEW049 05/03 Q1003 NOSIG=
201002060050 METAR COR EGLL 060050Z 09009KT 9999 FEW048 05/04 Q1003 NOSIG=
201002060020 METAR COR EGLL 060020Z 08008KT 9999 FEW043 05/03 Q1003 NOSIG=
201002052350 METAR COR EGLL 052350Z 08008KT CAVOK 05/03 Q1003 NOSIG=
201002052320 METAR COR EGLL 052320Z 09008KT CAVOK 05/03 Q1003 NOSIG=
201002052250 METAR COR EGLL 052250Z 09007KT CAVOK 04/02 Q1003 NOSIG=
201002052220 METAR COR EGLL 052220Z 09008KT CAVOK 05/03 Q1003 NOSIG=
201002052150 METAR COR EGLL 052150Z 10007KT CAVOK 04/03 Q1003 NOSIG=
201002052120 METAR COR EGLL 052120Z 10007KT 9999 FEW036 04/03 Q1003 NOSIG=
201002052050 METAR COR EGLL 052050Z 10007KT CAVOK 04/03 Q1003 NOSIG=
201002052020 METAR COR EGLL 052020Z 11007KT CAVOK 04/03 Q1003 NOSIG=
201002051950 METAR COR EGLL 051950Z 13006KT CAVOK 06/04 Q1003 NOSIG=
201002051920 METAR EGLL 051920Z 15006KT 120V210 CAVOK 06/04 Q1003=
201002051850 METAR COR EGLL 051850Z 15007KT 120V220 CAVOK 06/04 Q1003
                        NOSIG=
201002051820 METAR COR EGLL 051820Z 17006KT 120V250 CAVOK 07/04 Q1003
                        NOSIG=
201002051750 METAR EGLL 051750Z 18007KT 150V210 9999 FEW025 07/04 Q1003=
201002051720 METAR EGLL 051720Z 19006KT 160V230 9999 FEW026 08/04 Q1003=
201002051650 METAR COR EGLL 051650Z 21008KT 9999 FEW035CB 09/03 Q1003
                        NOSIG=
201002051620 METAR COR EGLL 051620Z 22011KT 9999 FEW035CB 10/03 Q1002
                        NOSIG=
201002051550 METAR COR EGLL 051550Z 21009KT 180V240 9999 FEW034CB 10/03
                        Q1002 NOSIG=
201002051520 METAR COR EGLL 051520Z 20010KT 170V240 9999 VCSH FEW035CB
                        11/03 Q1002 NOSIG=
201002051450 METAR COR EGLL 051450Z 21008KT 9999 FEW030CB 11/04 Q1001
                        NOSIG=
201002051420 METAR COR EGLL 051420Z 22009KT 9999 FEW030CB 12/04 Q1001
                        NOSIG=
201002051350 METAR EGLL 051350Z 23010KT 190V270 9999 FEW030 SCT038 11/04
                        Q1001=
201002051320 METAR COR EGLL 051320Z 24011KT 9999 FEW025 BKN038 10/05 Q1001
                        NOSIG=
201002051250 METAR COR EGLL 051250Z 23006KT 180V260 9999 FEW012 SCT018
                        11/06 Q1001 NOSIG=
201002051220 METAR EGLL 051220Z 21006KT 190V260 9999 SCT011 BKN018 10/07
                        Q1001=
201002051150 METAR COR EGLL 051150Z 22008KT 9999 SCT013 09/06 Q1001 NOSIG=
201002051120 METAR COR EGLL 051120Z 21008KT 180V260 9999 FEW010 08/06
                        Q1001 NOSIG=
201002051050 METAR COR EGLL 051050Z 21006KT 150V230 9999 FEW010 08/06
                        Q1001 NOSIG=
201002051020 METAR EGLL 051020Z 21006KT 9999 FEW016 08/06 Q1000=
201002050950 METAR EGLL 050950Z 22007KT 190V250 9999 FEW020 07/05 Q1000=
201002050920 METAR COR EGLL 050920Z 22006KT 180V250 9999 FEW020 07/05
                        Q0999 NOSIG=
201002050850 METAR COR EGLL 050850Z 23008KT 9999 FEW018 06/05 Q0999 NOSIG=
201002050820 METAR COR EGLL 050820Z 21006KT CAVOK 06/05 Q0999 NOSIG=
201002050750 METAR COR EGLL 050750Z 23008KT 9999 FEW048 07/05 Q0998 NOSIG=
201002050720 METAR COR EGLL 050720Z 23008KT 9999 FEW030 BKN047 07/05 Q0998
                        NOSIG=
201002050650 METAR COR EGLL 050650Z 22009KT 9999 SCT041 07/05 Q0998 NOSIG=
201002050620 METAR COR EGLL 050620Z 21008KT 9999 FEW014 BKN023 07/06 Q0997
                        NOSIG=
201002050550 METAR COR EGLL 050550Z 20006KT 9000 FEW008 BKN019 07/06 Q0997
                        NOSIG=
201002050520 METAR COR EGLL 050520Z 16006KT 6000 -RA FEW004 BKN007 07/06
                        Q0996 BECMG 22012KT NSW BKN014=
201002050450 METAR COR EGLL 050450Z 14006KT 7000 -RA FEW004 BKN008 07/06
                        Q0996 RERA BECMG 22010KT BKN014=
201002050420 METAR COR EGLL 050420Z 13007KT 7000 RA FEW008 BKN010 07/05
                        Q0996 TEMPO 4000 BKN008=
201002050350 METAR COR EGLL 050350Z 14007KT 7000 RA FEW008 SCT012 BKN015
                        06/05 Q0996 TEMPO BKN012=
201002050320 METAR COR EGLL 050320Z 14008KT 8000 -RA FEW010 BKN014 06/05
                        Q0996 TEMPO RA BKN008=
201002050250 METAR COR EGLL 050250Z 14008KT 9999 -RA OVC014 06/05 Q0997
                        TEMPO RA=
201002050220 METAR COR EGLL 050220Z 14008KT 9999 -RA BKN018 06/04 Q0997
                        BECMG BKN014=
201002050150 METAR COR EGLL 050150Z 14008KT 9999 -RA SCT020 07/04 Q0997
                        BECMG BKN014=
201002050120 METAR COR EGLL 050120Z 13010KT 9999 -RA FEW032 SCT048 07/03
                        Q0997 BECMG BKN014=
201002050050 METAR COR EGLL 050050Z 14010KT 9999 FEW049 07/03 Q0997 BECMG
                        BKN014=
201002050020 METAR COR EGLL 050020Z 14010KT CAVOK 07/03 Q0998 NOSIG=
201002042350 METAR COR EGLL 042350Z 13009KT CAVOK 07/03 Q0998 NOSIG=
201002042320 METAR COR EGLL 042320Z 13008KT CAVOK 07/03 Q0999 NOSIG=
201002042250 METAR COR EGLL 042250Z 13009KT CAVOK 07/03 Q0999 NOSIG=
201002042220 METAR COR EGLL 042220Z 13011KT CAVOK 07/03 Q0999 NOSIG=
201002042150 METAR COR EGLL 042150Z 12009KT CAVOK 07/03 Q1000 NOSIG=
201002042120 METAR COR EGLL 042120Z 13008KT CAVOK 07/03 Q1000 NOSIG=
201002042050 METAR COR EGLL 042050Z 12009KT CAVOK 07/03 Q1001 NOSIG=
201002042020 METAR COR EGLL 042020Z 13010KT CAVOK 07/03 Q1001 NOSIG=
201002041950 METAR COR EGLL 041950Z 12009KT CAVOK 07/03 Q1001 NOSIG=
201002041920 METAR COR EGLL 041920Z 10008KT CAVOK 06/04 Q1002 NOSIG=
201002041850 METAR COR EGLL 041850Z 11009KT CAVOK 06/03 Q1002 NOSIG=
201002041820 METAR COR EGLL 041820Z 11009KT CAVOK 06/04 Q1003 NOSIG=
201002041750 METAR COR EGLL 041750Z 13008KT CAVOK 07/04 Q1003 NOSIG=
201002041720 METAR COR EGLL 041720Z 14008KT CAVOK 07/04 Q1003 NOSIG=
201002041650 METAR COR EGLL 041650Z 15009KT CAVOK 08/04 Q1003 NOSIG=
201002041620 METAR COR EGLL 041620Z 15010KT CAVOK 08/04 Q1003 NOSIG=
201002041550 METAR EGLL 041550Z 15009KT CAVOK 08/05 Q1004=
201002041520 METAR COR EGLL 041520Z 15009KT 9999 FEW020 08/05 Q1004 NOSIG=
201002041450 METAR COR EGLL 041450Z 15007KT 9999 FEW012 08/06 Q1004 NOSIG=
201002041420 METAR COR EGLL 041420Z 16008KT 9999 FEW020 08/06 Q1005 NOSIG=
201002041350 METAR COR EGLL 041350Z 17008KT 9999 SCT011 BKN045 08/06 Q1005
                        NOSIG=
201002041320 METAR COR EGLL 041320Z 18010KT 9000 FEW008 BKN010 08/06 Q1006
                        BECMG BKN015=
201002041250 METAR COR EGLL 041250Z 17008KT 9000 FEW007 BKN010 08/06 Q1006
                        BECMG BKN015=
201002041220 METAR COR EGLL 041220Z 18009KT 5000 -DZ FEW005 BKN013 08/07
                        Q1006 NOSIG=
201002041150 METAR COR EGLL 041150Z 16007KT 4000 -DZ FEW005 BKN012 08/07
                        Q1006 BECMG 6000 NSW=
201002041120 METAR COR EGLL 041120Z 15007KT 6000 FEW007 BKN015 08/07 Q1006
                        TEMPO BKN013=
201002041050 METAR COR EGLL 041050Z 13007KT 6000 FEW009 SCT013 08/07 Q1006
                        TEMPO BKN013=
201002041020 METAR COR EGLL 041020Z 15008KT 120V180 4000 BR BKN004 08/07
                        Q1007 TEMPO 6000 NSW BKN007=
201002040950 METAR COR EGLL 040950Z 14008KT 100V170 3200 BR FEW003 BKN004
                        08/07 Q1007 TEMPO BKN006=
201002040920 METAR COR EGLL 040920Z 15007KT 110V210 2700 BR FEW003 BKN005
                        07/06 Q1007 NOSIG=
201002040850 METAR COR EGLL 040850Z 14006KT 110V190 4000 BR FEW005 BKN006
                        07/06 Q1007 NOSIG=
201002040820 METAR COR EGLL 040820Z 15006KT 110V190 4000 -RA BKN005 07/06
                        Q1007 NOSIG=
201002040750 METAR COR EGLL 040750Z 17006KT 150V240 5000 -RA FEW008 BKN011
                        07/06 Q1007 NOSIG=
201002040720 METAR COR EGLL 040720Z 17007KT 150V250 6000 -RA SCT038 BKN043
                        07/06 Q1007 BECMG BKN012=
201002040650 METAR COR EGLL 040650Z 18007KT 7000 -RA SCT032 BKN042 07/06
                        Q1007 BECMG BKN012=
201002040620 METAR COR EGLL 040620Z 18007KT 150V230 8000 -RA FEW014 BKN034
                        07/06 Q1007 BECMG BKN014=
201002040550 METAR COR EGLL 040550Z 17005KT 9000 -RA FEW026 SCT032 08/06
                        Q1007 BECMG BKN014=
201002040520 METAR COR EGLL 040520Z 21005KT 9999 SCT014 SCT026 08/06 Q1007
                        BECMG BKN014=
201002040450 METAR COR EGLL 040450Z 20005KT 8000 FEW010 BKN012 08/06 Q1007
                        TEMPO RA BKN008=
201002040420 METAR COR EGLL 040420Z 20006KT 8000 BKN012 08/06 Q1007 TEMPO
                        RA BKN008=
201002040350 METAR COR EGLL 040350Z 20006KT 8000 FEW012 BKN018 08/06 Q1007
                        BECMG BKN012=
201002040320 METAR COR EGLL 040320Z 20005KT 8000 FEW008 BKN021 08/06 Q1007
                        BECMG BKN010=
201002040250 METAR COR EGLL 040250Z 21005KT 8000 FEW009 BKN026 08/06 Q1007
                        BECMG BKN010=
201002040220 METAR COR EGLL 040220Z 20004KT 8000 FEW009 BKN028 08/06 Q1008
                        BECMG BKN010=
201002040150 METAR COR EGLL 040150Z 20005KT 9999 BKN008 08/07 Q1008 TEMPO
                        BKN010=
201002040120 METAR COR EGLL 040120Z 21006KT 9999 FEW012 SCT015 BKN027
                        08/07 Q1008 BECMG BKN012=
201002040050 METAR COR EGLL 040050Z 23008KT 9999 FEW012 SCT032 BKN041
                        08/07 Q1008 BECMG BKN012=
201002040020 METAR COR EGLL 040020Z 23008KT 9999 FEW013 SCT026 BKN034
                        08/07 Q1008 NOSIG=
201002032350 METAR COR EGLL 032350Z 23009KT 9999 SCT010 BKN020 09/07 Q1007
                        BECMG BKN010=
201002032320 METAR COR EGLL 032320Z 22011KT 9999 SCT010 BKN030 09/07 Q1007
                        BECMG BKN010=
201002032250 METAR COR EGLL 032250Z 23011KT 9999 BKN010 09/07 Q1007 NOSIG=
201002032220 METAR COR EGLL 032220Z 23013KT 9999 BKN010 09/07 Q1007 TEMPO
                        SCT010 BKN015=
201002032150 METAR COR EGLL 032150Z 23012KT 9999 BKN012 09/07 Q1007 TEMPO
                        SCT012=
201002032120 METAR COR EGLL 032120Z 22012KT 180V250 9999 FEW014 BKN021
                        08/07 Q1006 NOSIG=
201002032050 METAR COR EGLL 032050Z 20011KT 170V240 4700 -RA FEW008 SCT033
                        07/06 Q1006 BECMG 6000 NSW=
201002032020 METAR COR EGLL 032020Z 19009KT 170V230 4100 -RADZ FEW004
                        SCT005 BKN040 07/06 Q1007 BECMG 6000
                        NSW=
201002031950 METAR COR EGLL 031950Z 18008KT 3500 -DZ FEW003 BKN004 06/05
                        Q1007 BECMG 6000 NSW SCT004 BKN005=
201002031920 METAR COR EGLL 031920Z 17005KT 3600 -DZ FEW003 BKN004 06/05
                        Q1007 TEMPO 6000 NSW BKN009=
201002031850 METAR COR EGLL 031850Z 15005KT 4500 -RA BKN004 05/04 Q1007
                        NOSIG=
201002031820 METAR COR EGLL 031820Z 15005KT 5000 -RA OVC005 05/04 Q1008
                        TEMPO 4000 BKN003=
201002031750 METAR COR EGLL 031750Z 14004KT 6000 BKN004 BKN006 04/03 Q1008
                        NOSIG=
201002031720 METAR COR EGLL 031720Z 12004KT 5000 BR BKN004 BKN005 04/03
                        Q1008 NOSIG=
201002031650 METAR COR EGLL 031650Z 14005KT 5000 BR SCT004 BKN005 04/03
                        Q1008 TEMPO BKN010=
201002031620 METAR COR EGLL 031620Z 15006KT 4500 -RA SCT003 BKN007 04/03
                        Q1008 TEMPO 6000 NSW BKN010=
201002031550 METAR COR EGLL 031550Z 14007KT 2500 -DZ BKN004 04/03 Q1009
                        REDZ NOSIG=
201002031520 METAR COR EGLL 031520Z 14006KT 3500 -DZ BKN007 04/03 Q1009
                        TEMPO 6000 NSW BKN010=
201002031450 METAR COR EGLL 031450Z 16007KT 120V240 7000 BKN007 BKN017
                        04/02 Q1009 REDZ NOSIG=
201002031420 METAR COR EGLL 031420Z 15007KT 080V180 8000 DZ SCT011 BKN018
                        04/02 Q1009 TEMPO BKN012=
201002031350 METAR COR EGLL 031350Z 16006KT 110V220 9999 BKN020 05/01
                        Q1009 TEMPO BKN014=
201002031320 METAR COR EGLL 031320Z 18006KT 130V230 9999 BKN022 05/01
                        Q1009 TEMPO BKN014=
201002031250 METAR COR EGLL 031250Z 18005KT 120V270 9999 SCT029 05/00
                        Q1009 TEMPO BKN014=
201002031220 METAR COR EGLL 031220Z 18005KT 140V250 9999 SCT025 05/M00
                        Q1009 NOSIG=
201002031150 METAR COR EGLL 031150Z 20005KT 150V260 9999 SCT033 05/00
                        Q1009 TEMPO RA BKN014=
201002031120 METAR COR EGLL 031120Z 21004KT 160V260 9999 FEW030 SCT040
                        04/01 Q1010 NOSIG=
201002031050 METAR COR EGLL 031050Z 21005KT 9999 SCT032 04/00 Q1010 NOSIG=
201002031020 METAR COR EGLL 031020Z 27004KT 220V290 9999 FEW020 SCT043
                        04/00 Q1010 NOSIG=
201002030950 METAR COR EGLL 030950Z 27005KT 220V290 9999 FEW020 SCT043
                        03/00 Q1009 NOSIG=
201002030920 METAR COR EGLL 030920Z 26005KT 220V290 9999 FEW020 04/00
                        Q1009 TEMPO RA BKN014=
201002030850 METAR COR EGLL 030850Z 24005KT 9999 FEW040 03/M00 Q1009 TEMPO
                        RA BKN014=
201002030820 METAR COR EGLL 030820Z VRB03KT 9999 FEW039 03/00 Q1009 NOSIG=
201002030750 METAR COR EGLL 030750Z 21004KT 150V280 9999 FEW010 04/01
                        Q1009 NOSIG=
201002030720 METAR COR EGLL 030720Z 00000KT 9999 FEW008 03/02 Q1009 TEMPO
                        RA BKN014=
201002030650 METAR COR EGLL 030650Z VRB02KT 9999 FEW006 03/02 Q1008 TEMPO
                        RA BKN014=
201002030620 METAR COR EGLL 030620Z VRB02KT 9000 -RA SCT040 SCT045 04/02
                        Q1008 TEMPO RA BKN014=
201002030550 METAR COR EGLL 030550Z VRB02KT 9000 SCT009 BKN046 03/02 Q1008
                        TEMPO RA BKN014=
201002030520 METAR COR EGLL 030520Z 00000KT 9999 SCT008 BKN014 03/02 Q1008
                        BECMG BKN020=
201002030450 METAR COR EGLL 030450Z 00000KT 9999 BKN046 03/02 Q1008 TEMPO
                        RA BKN014=
201002030420 METAR COR EGLL 030420Z 00000KT 9999 BKN041 03/02 Q1008 TEMPO
                        4000 RA BKN014=
201002030350 METAR COR EGLL 030350Z 00000KT 9999 BKN040 03/02 Q1007 TEMPO
                        4000 RA BKN014=
201002030320 METAR COR EGLL 030320Z VRB02KT 9999 SCT036 SCT046 03/02 Q1007
                        TEMPO 4000 RA BKN014=
201002030250 METAR COR EGLL 030250Z 35003KT 9999 -RA BKN034 04/02 Q1007
                        TEMPO 4000 RA BKN014=
201002030220 METAR COR EGLL 030220Z 36004KT 330V040 9999 -RA BKN030 04/02
                        Q1007 TEMPO 4000 RA BKN014=
201002030150 METAR COR EGLL 030150Z 03004KT 360V070 9000 FEW010 BKN030
                        04/03 Q1007 TEMPO 4000 RA BKN014=
201002030120 METAR EGLL 030120Z NIL=
201002030050 METAR COR EGLL 030050Z 31003KT 9000 FEW004 OVC025 05/03 Q1006
                        TEMPO 4000 RA BKN014=
201002030020 METAR COR EGLL 030020Z VRB03KT 5000 HZ SCT005 BKN021 05/03
                        Q1006 TEMPO 4000 RA BKN010=
201002022350 METAR COR EGLL 022350Z VRB03KT 6000 FEW005 BKN016 05/04 Q1006
                        TEMPO 4000 RA BKN014=
201002022320 METAR COR EGLL 022320Z 03004KT 360V070 4000 -RA BKN012 05/04
                        Q1005 BECMG 9999 FEW012=
201002022250 METAR COR EGLL 022250Z 32005KT 280V340 9000 FEW020 BKN025
                        06/04 Q1005 TEMPO RA BKN014=
201002022220 METAR COR EGLL 022220Z 27011KT 9999 BKN030 06/04 Q1005 TEMPO
                        RA BKN014=
201002022150 METAR COR EGLL 022150Z 26011KT 9999 SCT030 06/04 Q1004 TEMPO
                        RA BKN014=
201002022120 METAR COR EGLL 022120Z 26012KT CAVOK 06/03 Q1004 NOSIG=
201002022050 METAR COR EGLL 022050Z 27011KT CAVOK 06/04 Q1004 NOSIG=
201002022020 METAR COR EGLL 022020Z 27010KT CAVOK 06/04 Q1004 NOSIG=
201002021950 METAR COR EGLL 021950Z 27012KT CAVOK 06/04 Q1003 NOSIG=
201002021920 METAR COR EGLL 021920Z 26013KT CAVOK 07/04 Q1003 NOSIG=
201002021850 METAR COR EGLL 021850Z 26014KT 9999 FEW033 07/04 Q1003 NOSIG=
201002021820 METAR COR EGLL 021820Z 26013KT 9999 FEW039 07/05 Q1003 NOSIG=
201002021750 METAR COR EGLL 021750Z 26013KT 9999 FEW044 08/05 Q1003 NOSIG=
201002021720 METAR COR EGLL 021720Z 25014KT 9999 FEW027 BKN043 08/05 Q1002
                        NOSIG=
201002021650 METAR EGLL 021650Z 26014KT 9999 FEW020 BKN024 08/05 Q1002=
201002021620 METAR COR EGLL 021620Z 26015KT 9999 SCT019 SCT026 08/06 Q1002
                        NOSIG=
201002021550 METAR COR EGLL 021550Z 25016KT 9999 SCT015 BKN032 08/06 Q1002
                        NOSIG=
201002021520 METAR COR EGLL 021520Z 25018KT 9999 6000NW -RA BKN016 BKN024
                        08/06 Q1002 NOSIG=
201002021450 METAR COR EGLL 021450Z 24015KT 9999 -RA SCT015 BKN019 08/06
                        Q1002 NOSIG=
201002021420 METAR COR EGLL 021420Z 25013KT 9999 -RA FEW015 BKN017 08/06
                        Q1003 NOSIG=
201002021350 METAR COR EGLL 021350Z 25015KT 9999 -RA BKN017 08/05 Q1003
                        NOSIG=
201002021320 METAR COR EGLL 021320Z 24014KT 9999 -RA FEW023 SCT041 08/05
                        Q1003 NOSIG=
201002021250 METAR COR EGLL 021250Z 25015KT 9999 -RA FEW016 SCT021 BKN029
                        08/05 Q1004 NOSIG=
201002021220 METAR COR EGLL 021220Z 25017G28KT 9999 -RA SCT018 BKN025
                        08/05 Q1004 TEMPO RA=
201002021150 METAR EGLL 021150Z 25017KT 9999 -RA BKN021 08/04 Q1005=
201002021120 METAR COR EGLL 021120Z 25014G25KT 9999 SCT020 08/04 Q1005
                        TEMPO RA=
201002021050 METAR COR EGLL 021050Z 24015KT 9999 -RA SCT016 SCT048 07/04
                        Q1005 TEMPO RA BKN014=
201002021020 METAR COR EGLL 021020Z 25014KT 9999 -RA FEW015 SCT048 07/04
                        Q1006 TEMPO RA BKN014=
201002020950 METAR COR EGLL 020950Z 25015KT 9999 BKN016 08/04 Q1006 TEMPO
                        BKN014=
201002020920 METAR COR EGLL 020920Z 24013KT 9999 BKN016 07/04 Q1006 TEMPO
                        BKN014=
201002020850 METAR COR EGLL 020850Z 24014KT 9999 FEW013 BKN017 BKN024
                        06/04 Q1007 TEMPO BKN013=
201002020820 METAR COR EGLL 020820Z 23015KT 9999 FEW010 SCT018 BKN023
                        06/04 Q1007 TEMPO BKN010=
201002020750 METAR COR EGLL 020750Z 23014G25KT 9999 SCT013 BKN017 06/04
                        Q1007 TEMPO BKN013=
201002020720 METAR COR EGLL 020720Z 23015KT 9999 SCT013 SCT016 06/03 Q1008
                        TEMPO BKN014=
201002020650 METAR COR EGLL 020650Z 23013KT 9999 FEW011 SCT018 BKN022
                        05/03 Q1008 TEMPO BKN014=
201002020620 METAR EGLL 020620Z NIL=
201002020550 METAR COR EGLL 020550Z 23012KT 9999 -RA BKN025 05/02 Q1010
                        TEMPO BKN014=
201002020520 METAR COR EGLL 020520Z 23011KT 9999 DZ SCT030 SCT040 04/02
                        Q1010 TEMPO BKN014=
201002020450 METAR COR EGLL 020450Z 22008KT 9999 -DZ SCT030 04/02 Q1011
                        TEMPO BKN014=
201002020420 METAR COR EGLL 020420Z 23010KT 9999 FEW047 03/01 Q1011 BECMG
                        BKN014=
201002020350 METAR COR EGLL 020350Z 23009KT CAVOK 03/01 Q1011 BECMG BKN014=
201002020320 METAR COR EGLL 020320Z 21008KT CAVOK 03/01 Q1012 BECMG BKN014=
201002020250 METAR COR EGLL 020250Z 21006KT CAVOK 03/00 Q1012 BECMG BKN014=
201002020220 METAR COR EGLL 020220Z 20006KT 9999 FEW031 02/00 Q1013 BECMG
                        BKN014=
201002020150 METAR COR EGLL 020150Z 21007KT CAVOK 02/M00 Q1014 BECMG BKN014=
201002020120 METAR COR EGLL 020120Z 21007KT CAVOK 02/M00 Q1014 NOSIG=
201002020050 METAR COR EGLL 020050Z 22009KT CAVOK 02/M00 Q1015 NOSIG=
201002020020 METAR COR EGLL 020020Z 22008KT CAVOK 02/M00 Q1015 NOSIG=
201002012350 METAR COR EGLL 012350Z 21006KT CAVOK 02/00 Q1015 NOSIG=
201002012320 METAR COR EGLL 012320Z 23006KT CAVOK 02/M00 Q1015 NOSIG=
201002012250 METAR COR EGLL 012250Z 25010KT CAVOK 02/M00 Q1015 NOSIG=
201002012220 METAR COR EGLL 012220Z 24008KT CAVOK 02/M01 Q1016 NOSIG=
201002012150 METAR COR EGLL 012150Z 24008KT CAVOK 02/M01 Q1016 NOSIG=
201002012120 METAR COR EGLL 012120Z 24008KT CAVOK 02/M01 Q1016 NOSIG=
201002012050 METAR COR EGLL 012050Z 24008KT CAVOK 02/M01 Q1016 NOSIG=
201002012020 METAR COR EGLL 012020Z 22006KT CAVOK 02/M01 Q1016 NOSIG=
201002011950 METAR COR EGLL 011950Z 22006KT 180V260 CAVOK 01/M02 Q1017
                        NOSIG=
201002011920 METAR COR EGLL 011920Z 25007KT CAVOK 02/M02 Q1017 NOSIG=
201002011850 METAR COR EGLL 011850Z 23007KT 200V270 CAVOK 02/M02 Q1017
                        NOSIG=
201002011820 METAR COR EGLL 011820Z 22006KT CAVOK 03/M02 Q1017 NOSIG=
201002011750 METAR COR EGLL 011750Z 25008KT 9999 FEW049 03/M02 Q1016 NOSIG=
201002011720 METAR COR EGLL 011720Z 25008KT CAVOK 04/M01 Q1016 NOSIG=
201002011650 METAR COR EGLL 011650Z 27006KT 9999 FEW041 BKN046 04/M01
                        Q1016 NOSIG=
201002011620 METAR COR EGLL 011620Z 28005KT 9999 BKN045 04/M01 Q1016 NOSIG=
201002011550 METAR COR EGLL 011550Z 29006KT 9999 FEW033 04/M01 Q1016 NOSIG=
201002011520 METAR COR EGLL 011520Z 29008KT 9999 FEW033 05/M02 Q1015 NOSIG=
201002011450 METAR COR EGLL 011450Z 29008KT 9999 FEW032 05/M02 Q1015 NOSIG=
201002011420 METAR COR EGLL 011420Z 30007KT 9999 FEW029 05/M02 Q1015 NOSIG=
201002011350 METAR COR EGLL 011350Z 30008KT 9999 FEW031 05/M01 Q1015 NOSIG=
201002011320 METAR COR EGLL 011320Z 28009KT 9999 FEW028 05/M02 Q1015 NOSIG=
201002011250 METAR COR EGLL 011250Z 29011KT CAVOK 05/M02 Q1014 NOSIG=
201002011220 METAR COR EGLL 011220Z 30010KT 9999 FEW030 05/M03 Q1014 NOSIG=
201002011150 METAR COR EGLL 011150Z 29008KT 9999 FEW020 04/M02 Q1014 NOSIG=
201002011120 METAR COR EGLL 011120Z 29008KT CAVOK 04/M01 Q1014 NOSIG=
201002011050 METAR COR EGLL 011050Z 29009KT CAVOK 03/M01 Q1014 NOSIG=
201002011020 METAR COR EGLL 011020Z 29009KT 9999 FEW010 03/M00 Q1014 NOSIG=
201002010950 METAR COR EGLL 010950Z 28010KT 9999 FEW010 02/M00 Q1014 NOSIG=
201002010920 METAR COR EGLL 010920Z 29007KT CAVOK 01/M01 Q1013 NOSIG=
201002010850 METAR COR EGLL 010850Z 29007KT CAVOK 00/M01 Q1013 NOSIG=
201002010820 METAR COR EGLL 010820Z 27006KT CAVOK M01/M02 Q1012 NOSIG=
201002010750 METAR COR EGLL 010750Z 27007KT CAVOK M01/M02 Q1012 NOSIG=
201002010720 METAR COR EGLL 010720Z 27006KT CAVOK M01/M03 Q1011 NOSIG=
201002010650 METAR EGLL 010650Z 27008KT CAVOK M01/M02 Q1011=
201002010620 METAR COR EGLL 010620Z 29008KT 9000 NSC 00/M01 Q1011 NOSIG=
201002010550 METAR COR EGLL 010550Z 28007KT CAVOK M01/M02 Q1010 NOSIG=
201002010520 METAR COR EGLL 010520Z 29006KT CAVOK M01/M03 Q1010 NOSIG=
201002010450 METAR EGLL 010450Z 27008KT 9999 FEW040 M01/M02 Q1010=
201002010420 METAR EGLL 010420Z 27007KT 9999 FEW025 M01/M02 Q1009=
201002010350 METAR COR EGLL 010350Z 27008KT 9999 FEW027 M01/M02 Q1009
                        TEMPO - SHSN BKN010=
201002010320 METAR COR EGLL 010320Z 27008KT 9999 FEW020 M01/M02 Q1009
                        RESN TEMPO -SHSN BKN010=
201002010250 METAR COR EGLL 010250Z 27008KT 9999 SN SCT010 00/M01 Q1009
                        TEMPO BKN010=
201002010220 METAR COR EGLL 010220Z 27008KT 9999 BKN049 M00/M02 Q1009
                        TEMPO - SHSN BKN012=
201002010150 METAR COR EGLL 010150Z 27007KT CAVOK M01/M03 Q1009 TEMPO
                        -SHSN BKN012=
201002010120 METAR COR EGLL 010120Z 26007KT CAVOK M01/M02 Q1008 TEMPO
                        -SHSN BKN012=
201002010050 METAR COR EGLL 010050Z 27006KT CAVOK M01/M02 Q1008 NOSIG=
201002010020 METAR EGLL 010020Z 27007KT CAVOK M01/M02 Q1008=

# No short TAF reports from EGLL in databse.

###################################
#  large TAF from EGLL
###################################
201003032258 TAF EGLL 032258Z 0400/0506 06010KT 9999 FEW018
                      PROB30 0402/0409 8000 BKN012
                      BECMG 0420/0423 VRB04KT
                      PROB30 0423/0506 8000=
201003031658 TAF EGLL 031658Z 0318/0424 07011KT 9999 FEW022
                      PROB30 0402/0409 9000 BKN013
                      BECMG 0418/0421 01004KT=
201003031055 TAF EGLL 031055Z 0312/0418 07012KT 9999 FEW025
                      TEMPO 0312/0319 09016G26KT=
201003030457 TAF EGLL 030457Z 0306/0412 08010KT 9999 FEW035
                      PROB30 TEMPO 0311/0321 09015G25KT
                      PROB30 0410/0412 06015G25KT=
201003022309 TAF EGLL 022309Z 0300/0406 07010KT 9999 FEW035
                      PROB30 TEMPO 0311/0321 09015G25KT=
201003021701 TAF EGLL 021701Z 0218/0324 07010KT 9999 FEW035
                      TEMPO 0300/0309 8000
                      TEMPO 0310/0318 09016G26KT=
201003021057 TAF EGLL 021057Z 0212/0318 02005KT 9999 FEW040
                      BECMG 0218/0221 08010KT
                      TEMPO 0222/0309 8000
                      BECMG 0312/0315 09016G26KT=
201003020503 TAF EGLL 020503Z 0206/0312 VRB04KT 9999 FEW045
                      PROB40 0206/0209 7000
                      BECMG 0218/0221 09010KT=
201003020302 TAF AMD EGLL 020302Z 0203/0306 VRB05KT 9999 BKN047
                      PROB40 0203/0209 7000
                      BECMG 0218/0221 08010KT=
201003012300 TAF AMD EGLL 020302Z 0203/0306 VRB05KT 9999 BKN047
                      PROB40 0203/0209 7000
                      BECMG 0218/0221 08010KT=
201003012259 TAF EGLL 012259Z 0200/0306 VRB05KT CAVOK
                      PROB40 0202/0209 7000 NSC
                      BECMG 0218/0221 08010KT=
201003011651 TAF EGLL 011651Z 0118/0224 VRB05KT 9999 FEW040
                      BECMG 0201/0204 7000
                      BECMG 0207/0209 9999
                      BECMG 0217/0221 08010KT=
201003011055 TAF EGLL 011055Z 0112/0218 30006KT 9999 FEW035
                      BECMG 0202/0205 7000
                      BECMG 0207/0209 9999=
201003010456 TAF EGLL 010456Z 0106/0212 27006KT 9999 FEW040
                      PROB30 0106/0108 9000
                      PROB40 0202/0208 7000=
201002282303 TAF EGLL 282303Z 0100/0206 27007KT 9999 FEW040
                      PROB30 0103/0109 7000
                      BECMG 0202/0205 6000
                      PROB30 0204/0206 4000 MIFG=
201002281702 TAF EGLL 281702Z 2818/0124 27013KT 9999 SCT025
                      BECMG 0102/0105 26003KT
                      PROB30 0103/0110 6000
                      PROB30 0121/0124 6000=
201002281106 TAF EGLL 281106Z 2812/0118 31017G28KT 9999 -RA SCT012 BKN025
                      PROB40 2812/2814 5000 RA BKN010
                      BECMG 2815/2818 27013KT
                      BECMG 0102/0105 VRB03KT
                      PROB30 0103/0109 6000=
201002280457 TAF EGLL 280457Z 2806/0112 03015G28KT 6000 RA BKN012
                      PROB40 2806/2814 3000 +RA BKN006
                      BECMG 2808/2811 31019G30KT
                      BECMG 2815/2818 27012KT 9999 NSW SCT030
                      PROB30 TEMPO 0103/0108 6000=
201002272258 TAF EGLL 272258Z 2800/0106 09006KT 9999 SCT020
                      BECMG 2803/2806 06017G29KT 6000 RA BKN012
                       PROB40 2806/2814 3000 +RA BKN006
                      BECMG 2808/2811 31019G30KT
                      BECMG 2815/2818 27012KT 9999 NSW SCT030
                      PROB30 TEMPO 0103/0106 6000=
201002271658 TAF EGLL 271658Z 2718/2824 22012KT 9999 SCT020
                      BECMG 2719/2722 12006KT
                      BECMG 2802/2805 06017G29KT 6000 RA BKN012
                       PROB40 2806/2815 3000 +RA BKN006
                      BECMG 2808/2811 31019G30KT
                      BECMG 2815/2818 27012KT 9999 NSW SCT030=
201002271103 TAF EGLL 271103Z 2712/2818 22012KT 9999 SCT020
                      TEMPO 2712/2718 7000 SHRA
                      PROB30 TEMPO 2712/2717 3000 TSRA +SHRA BKN014CB
                       BECMG 2719/2722 12006KT
                      BECMG 2802/2805 06016G28KT 6000 RA BKN012
                       PROB40 2806/2815 3000 +RA BKN006
                      BECMG 2809/2812 31015G28KT
                      BECMG 2815/2818 27012KT 9999 NSW SCT030=
201002270500 TAF EGLL 270500Z 2706/2812 20010KT 9999 SCT012 BKN025
                      TEMPO 2706/2710 6000 SHRA BKN012
                      PROB30 TEMPO 2706/2709 3000 +SHRA BKN006
                       BKN014CB
                      TEMPO 2710/2718 6000 SHRA
                      PROB30 TEMPO 2711/2718 4000 TSRA BKN014CB
                       BECMG 2721/2724 12008KT
                      BECMG 2800/2803 06015G28KT 6000 RA BKN012
                       TEMPO 2803/2812 3000 +RA BKN006
                      BECMG 2809/2812 31015G28KT=
201002262301 TAF EGLL 262301Z 2700/2806 VRB05KT 9999 FEW018 SCT030
                      BECMG 2701/2704 15012KT
                      TEMPO 2702/2707 6000 SHRA BKN014
                      PROB40 TEMPO 2703/2707 3000 +SHRA BKN008
                       BKN014CB
                      BECMG 2707/2709 22012KT BKN008
                      BECMG 2709/2711 SCT018
                      TEMPO 2709/2718 6000 SHRA
                      PROB30 TEMPO 2711/2718 3000 TSRA BKN014CB
                       BECMG 2718/2721 12008KT
                      BECMG 2800/2803 07016G28KT 7000 RA BKN009=
201002261700 TAF EGLL 261700Z 2618/2724 26020KT 9999 SCT030
                      BECMG 2618/2621 22010KT
                      BECMG 2700/2703 BKN014
                      TEMPO 2702/2709 3000 SHRA BKN008 BKN015CB
                       BECMG 2707/2710 FEW020
                      TEMPO 2709/2718 7000 SHRA
                      PROB30 TEMPO 2711/2716 3000 +SHRA
                      BECMG 2720/2723 11006KT
                      PROB40 2721/2724 6000 -RA BKN014=
201002261057 TAF EGLL 261057Z 2612/2718 26020KT 9999 FEW030
                      PROB30 TEMPO 2612/2618 27022G32KT
                      BECMG 2618/2621 22012KT
                      TEMPO 2702/2706 4000 RA BKN008
                      TEMPO 2706/2718 4000 SHRA BKN012
                      PROB30 TEMPO 2711/2716 +SHRA=
201002260507 TAF EGLL 260507Z 2606/2712 27014KT 9999 SCT025
                      BECMG 2610/2613 28018G28KT
                      BECMG 2618/2621 24012KT
                      BECMG 2702/2705 6000 -RA BKN012
                      TEMPO 2702/2705 3000 RA BKN006
                      PROB30 TEMPO 2702/2705 1200 +RA BKN003
                      TEMPO 2705/2712 4000 SHRA BKN008
                      TEMPO 2710/2712 9999 NSW=
201002252303 TAF EGLL 252303Z 2600/2706 26014KT 9999 BKN012
                      TEMPO 2600/2605 4000 BR RA BKN006
                      PROB40 TEMPO 2600/2607 SCT014
                      BECMG 2607/2610 FEW030
                      PROB30 TEMPO 2610/2618 28017G27KT
                      BECMG 2618/2621 20009KT
                      BECMG 2702/2705 6000 -RA BKN012
                      TEMPO 2702/2706 3000 RA BKN006
                      PROB30 TEMPO 2704/2706 1200 +RA BKN003=
201002251825 TAF AMD EGLL 251825Z 2518/2624 13008KT 9999 -RA FEW012 BKN030
                      PROB40 TEMPO 2518/2520 3000 RA BR BKN008
                       PROB40 2520/2523 7000
                      BECMG 2523/2602 26014KT 7000 BKN008
                      TEMPO 2600/2605 2000 RA BR BKN004
                      BECMG 2607/2610 9999 NSW FEW040
                      PROB30 TEMPO 2610/2618 28017G27KT
                      BECMG 2618/2621 20009KT=
201002251656 TAF EGLL 251656Z 2518/2624 13008KT 7000 -RA FEW012 BKN030
                      PROB40 TEMPO 2518/2520 3000 RA BR BKN008
                       PROB40 2520/2524 9999 NSW
                      BECMG 2523/2602 26014KT BKN008
                      TEMPO 2600/2605 2000 RA BR BKN004
                      BECMG 2607/2610 9999 NSW FEW040
                      PROB30 TEMPO 2610/2618 28017G27KT
                      BECMG 2618/2621 20009KT=
201002251059 TAF EGLL 251059Z 2512/2618 16009KT 9999 SCT045
                      BECMG 2514/2517 8000 -RA BKN014
                      TEMPO 2516/2520 3000 RA BR BKN006
                      PROB40 2520/2524 9999 NSW FEW014 BKN030
                      BECMG 2523/2602 BKN008
                      TEMPO 2601/2605 2000 RA BKN004
                      BECMG 2603/2606 28015KT
                      BECMG 2608/2611 9999 NSW FEW040
                      PROB30 TEMPO 2610/2617 27017G27KT=
201002250455 TAF EGLL 250455Z 2506/2612 VRB05KT 6000 BKN007
                      TEMPO 2506/2509 3000 -RADZ BKN004
                      PROB40 TEMPO 2506/2509 SCT007 BKN020
                      BECMG 2509/2512 9999 NSW SCT010 BKN022
                      BECMG 2515/2518 09010KT
                      BECMG 2516/2519 8000 RA BKN014
                      PROB40 TEMPO 2518/2606 3000 BR BKN007
                      BECMG 2521/2524 VRB05KT
                      BECMG 2603/2606 31015KT
                      BECMG 2608/2611 9999 SCT025=
201002242257 TAF EGLL 242257Z 2500/2606 VRB05KT 6000 BKN007
                      TEMPO 2500/2509 2000 -RADZ BKN003
                      BECMG 2509/2512 9999 NSW SCT010 BKN020
                      BECMG 2515/2518 09010KT
                      BECMG 2516/2519 8000 RA BKN014
                      PROB40 TEMPO 2518/2606 3000 BR BKN007
                      BECMG 2521/2524 VRB05KT
                      BECMG 2603/2606 31015KT=
201002241701 TAF EGLL 241701Z 2418/2524 12010KT 9999 BKN025
                      TEMPO 2418/2502 7000 RA BKN012
                      PROB30 TEMPO 2418/2424 4000 +RA BKN007
                      BECMG 2500/2502 VRB03KT 5000 BR BKN007
                      TEMPO 2502/2509 2000 -DZ BKN003
                      BECMG 2509/2512 9999 NSW SCT008 BKN020
                      BECMG 2515/2518 09010KT
                      TEMPO 2516/2524 8000 RA BKN014
                      PROB40 TEMPO 2519/2524 3000 BR BKN007
                      BECMG 2521/2524 01010KT=
201002241101 TAF EGLL 241101Z 2412/2518 16008KT 9999 SCT010 BKN030
                      TEMPO 2412/2420 7000 RA BKN014
                      PROB30 TEMPO 2412/2417 4000 TSRA BKN007 BKN014CB
                       BECMG 2420/2424 VRB03KT 5000 BR BKN007
                      TEMPO 2500/2509 2000 -DZ BKN003
                      BECMG 2509/2512 21010KT 9999 NSW SCT008 BKN020
                       BECMG 2515/2518 VRB04KT
                      PROB40 TEMPO 2516/2518 8000 RA BKN014=
201002240500 TAF EGLL 240500Z 2406/2512 19010KT 9999 FEW010 SCT030
                      TEMPO 2406/2410 6000 SHRA BR BKN008
                      PROB40 TEMPO 2410/2418 4000 TSRA BKN009 BKN014CB
                       BECMG 2421/2424 VRB03KT 5000 BR BKN008
                      TEMPO 2500/2509 2000 -DZ BKN003
                      BECMG 2509/2512 NSW SCT008 BKN020=
201002232258 TAF EGLL 232258Z 2400/2506 VRB04KT 4000 BR BKN006
                      BECMG 2400/2403 20010KT 9999 NSW SCT007 BKN018
                       PROB40
                      TEMPO 2403/2410 5000 BR SHRA BKN008
                      BECMG 2410/2412 14010KT
                      TEMPO 2410/2421 5000 SHRA BKN014
                      PROB30 TEMPO 2411/2415 3500 TSRA BKN009 BKN014CB
                       BECMG 2421/2424 VRB04KT 5000 BR BKN008
                      TEMPO 2500/2506 2000 BKN003=
201002231856 TAF AMD EGLL 231856Z 2318/2424 07010KT 4000 BR BKN004
                      TEMPO 2318/2322 6000 -RA BKN007
                      BECMG 2322/2401 17010KT 9999 NSW BKN020
                      BECMG 2401/2404 6000 BKN010
                      TEMPO 2401/2409 3000 BR BKN004
                      BECMG 2411/2414 9999 BKN022
                      TEMPO 2412/2416 7000 SHRA BKN014
                      BECMG 2416/2418 6000 RA BKN012
                      TEMPO 2418/2424 3000 RADZ BKN006=
201002231707 TAF EGLL 231707Z 2318/2424 07010KT 5000 -RA BKN008
                      BECMG 2322/2401 17010KT 9999 NSW BKN020
                      BECMG 2401/2404 6000 BKN010
                      TEMPO 2401/2409 3000 BR BKN004
                      BECMG 2411/2414 9999 BKN022
                      TEMPO 2412/2416 7000 SHRA BKN014
                      BECMG 2416/2418 6000 RA BKN012
                      TEMPO 2418/2424 3000 RADZ BKN006=
201002231100 TAF EGLL 231100Z 2312/2418 07010KT 9999 FEW010 BKN020
                      BECMG 2312/2315 9000 -RA BKN012
                      BECMG 2315/2318 4500 RA BKN008
                      BECMG 2322/2401 17010KT 9999 NSW BKN020
                      BECMG 2401/2404 6000 BKN010
                      TEMPO 2401/2409 3000 BR BKN004
                      BECMG 2411/2414 9999 BKN022
                      TEMPO 2412/2416 7000 SHRA BKN014
                      BECMG 2416/2418 6000 RA BKN012=
201002230458 TAF EGLL 230458Z 2306/2412 07010KT 9999 FEW012 BKN035
                      PROB40 2306/2312 BKN010
                      BECMG 2312/2315 8000 -RA BKN008
                      PROB40 2313/2316 4500 RA
                      BECMG 2322/2401 17008KT 9999 NSW
                      PROB40 2401/2409 3500 BR BKN004
                      TEMPO 2409/2412 7000 SHRA=
201002222300 TAF EGLL 222300Z 2300/2406 02007KT 9999 BKN020
                      PROB40 2300/2312 7000 BKN010
                      BECMG 2312/2315 8000 -RA BKN012
                      PROB40 2314/2324 4500 RA
                      BECMG 2315/2318 BKN007=
201002221655 TAF EGLL 221655Z 2218/2324 03010KT 9999 BKN018
                      TEMPO 2218/2220 7000 BKN010
                      PROB40 2300/2312 9000 BKN010
                      BECMG 2312/2315 8000 -RA BKN010
                      TEMPO 2315/2324 4000 RA BKN007=
201002221458 TAF AMD EGLL 221458Z 2214/2318 06012KT 9999 BKN008
                      PROB30 TEMPO 2214/2216 6000 -RA
                      BECMG 2218/2221 BKN018
                      PROB40 2300/2312 9000 BKN010
                      BECMG 2312/2315 8000 -RA BKN010
                      TEMPO 2315/2318 4000 RA BKN007=
201002221053 TAF EGLL 221053Z 2212/2318 06012KT 7000 -RA BKN008
                      PROB30 TEMPO 2212/2214 4000 RA
                      BECMG 2218/2221 9999 NSW BKN018
                      PROB40 2300/2312 9000 BKN010
                      BECMG 2312/2315 8000 -RA BKN010
                      TEMPO 2315/2318 4000 RA BKN007=
201002220835 TAF AMD EGLL 220835Z 2208/2312 06012KT 8000 -RA SCT010 BKN015
                      TEMPO 2208/2214 4000 RA BKN008
                      BECMG 2212/2215 9999 NSW
                      PROB40 2300/2312 9000 BKN010=
201002220655 TAF AMD EGLL 220655Z 2207/2312 06012KT 6000 -RA SCT008 BKN015
                      BECMG 2207/2209 BKN007
                      TEMPO 2207/2214 3000 RA BKN004
                      PROB30 TEMPO 2208/2212 06015G25KT +RA
                      BECMG 2215/2218 9999 NSW
                      BECMG 2221/2224 SCT014
                      PROB40 2300/2312 9000 BKN010=
201002220459 TAF EGLL 220459Z 2206/2312 06012KT 6000 -RA BKN008
                      TEMPO 2206/2214 3000 RA BKN004
                      PROB30 TEMPO 2208/2212 06015G25KT +RA
                      BECMG 2215/2218 9999 NSW
                      BECMG 2221/2224 SCT014
                      PROB40 2300/2312 9000 BKN010=
201002212302 TAF EGLL 212302Z 2200/2306 10005KT 9999 FEW016 BKN030
                      PROB40 TEMPO 2200/2202 5000 SHRA BKN010
                      BECMG 2202/2205 6000 -RA BKN008
                      TEMPO 2205/2214 4000 RADZ BKN004
                      PROB30 2208/2212 +RA
                      BECMG 2209/2212 03012KT
                      BECMG 2215/2218 9999 NSW
                      BECMG 2221/2224 SCT014
                      PROB40 2300/2306 BKN010=
201002211656 TAF EGLL 211656Z 2118/2224 23010KT 9999 FEW016 BKN030
                      TEMPO 2118/2124 6000 SHRA BKN014
                      BECMG 2200/2203 14008KT 6000 -RA BKN008
                      TEMPO 2203/2219 4000 RADZ BKN004
                      BECMG 2212/2215 03014KT
                      PROB30 TEMPO 2214/2218 RASN
                      BECMG 2219/2222 32004KT 9999 NSW SCT018=
201002211101 TAF EGLL 211101Z 2112/2218 21010KT 9999 SCT016 BKN030
                      TEMPO 2112/2124 6000 SHRA BKN014
                      PROB30 TEMPO 2112/2124 BKN007
                      BECMG 2200/2203 14008KT 6000 -RA BKN008
                      TEMPO 2203/2215 4000 RADZ BKN004
                      BECMG 2215/2218 03015G25KT
                      PROB40 TEMPO 2215/2218 3000 RASN BKN003=
201002210504 TAF EGLL 210504Z 2106/2212 16006KT 5000 HZ FEW030
                      BECMG 2106/2109 9999 NSW
                      PROB40 TEMPO 2106/2112 3000 SHRASN BKN008
                       PROB40
                      TEMPO 2112/2124 4000 SHRA BKN014
                      BECMG 2200/2203 6000 -RA BKN010
                      PROB40 2202/2212 4000 RA BKN007=
201002210418 TAF AMD EGLL 210418Z 2104/2206 19004KT 2500 BR FEW030
                      TEMPO 2104/2124 7000 -SHRASN
                      BECMG 2107/2110 9999 NSW
                      PROB40 TEMPO 2108/2116 SHRASN BKN008
                      BECMG 2200/2203 7000 -RA BKN010
                      PROB40 2202/2206 4000 RA BKN007=
201002210307 TAF AMD EGLL 210307Z 2103/2206 19004KT 8000 FEW030
                      BECMG 2103/2105 9999 NSW
                      TEMPO 2105/2124 7000 -SHRASN BKN010
                      PROB40 TEMPO 2110/2116 4000 SHRASN BKN008
                       BECMG 2200/2203 7000 -RA BKN010
                      PROB40 2202/2206 4000 RA BKN007=
201002210049 TAF AMD EGLL 210049Z 2100/2206 19004KT 3000 BR FEW030
                      PROB40 2101/2108 1200 BKN002
                      BECMG 2107/2110 9999 NSW
                      TEMPO 2109/2124 7000 -SHRA BKN010
                      PROB40 TEMPO 2110/2116 4000 SHRA BKN008
                      BECMG 2200/2203 7000 -RA BKN010
                      PROB40 2202/2206 4000 RA BKN007=
201002202300 TAF AMD EGLL 210418Z 2104/2206 19004KT 2500 BR FEW030
                      TEMPO 2104/2124 7000 -SHRASN
                      BECMG 2107/2110 9999 NSW
                      PROB40 TEMPO 2108/2116 SHRASN BKN008
                      BECMG 2200/2203 7000 -RA BKN010
                      PROB40 2202/2206 4000 RA BKN007=
201002202257 TAF EGLL 202257Z 2100/2206 19004KT 7000 FEW030
                      PROB30 2102/2108 1200 BR
                      BECMG 2106/2109 9999
                      TEMPO 2109/2124 7000 -SHRA BKN010
                      PROB40 TEMPO 2110/2116 4000 SHRA BKN008
                      BECMG 2200/2203 7000 -RA BKN010
                      PROB40 2202/2206 4000 RA BKN007=
201002202155 TAF AMD EGLL 202155Z 2021/2124 20005KT 9999 FEW030
                      BECMG 2023/2102 8000
                      PROB30 2102/2107 1200 BR
                      BECMG 2107/2110 9999
                      TEMPO 2108/2124 7000 SHRA BKN010
                      PROB40 TEMPO 2108/2112 4000 SHRASN=
201002201658 TAF EGLL 201658Z 2018/2124 20005KT 9999 SCT030
                      BECMG 2019/2022 9000
                      BECMG 2022/2024 4000 BR
                      PROB40 2100/2107 0400 FZFG BKN000
                      BECMG 2107/2110 9999 NSW
                      TEMPO 2108/2124 7000 SHRA BKN010
                      PROB40 TEMPO 2108/2112 4000 SHRASN=
201002201056 TAF EGLL 201056Z 2012/2118 25005KT 9999 SCT030
                      BECMG 2019/2022 9000
                      PROB40 2023/2108 1200 BR BKN002
                      BECMG 2107/2110 9999
                      TEMPO 2108/2118 7000 SHRA BKN008
                      PROB40 TEMPO 2108/2112 4000 SHRASN=
201002200502 TAF EGLL 200502Z 2006/2112 24004KT 6000 FEW030
                      PROB30 2006/2008 4000 BR
                      BECMG 2007/2010 9999
                      PROB30 TEMPO 2012/2018 5000 SHRASN BKN014
                       PROB40 2023/2104 7000
                      TEMPO 2104/2112 4000 SHRASN BKN008=
201002200316 TAF AMD EGLL 200316Z 2003/2106 23005KT 7000 FEW030
                      BECMG 2007/2010 9999
                      PROB30 TEMPO 2012/2020 5000 SHRASN BKN012
                       PROB40 2100/2106 4000 BR BKN006=
201002192300 TAF AMD EGLL 200316Z 2003/2106 23005KT 7000 FEW030
                      BECMG 2007/2010 9999
                      PROB30 TEMPO 2012/2020 5000 SHRASN BKN012
                       PROB40 2100/2106 4000 BR BKN006=
201002192256 TAF EGLL 192256Z 2000/2106 27007KT 9999 FEW030
                      PROB30 2004/2008 7000
                      PROB30 TEMPO 2012/2020 5000 SHRASN BKN012
                       PROB40 2100/2106 4000 BR BKN006=
201002191702 TAF EGLL 191702Z 1918/2024 25006KT 9999 SCT030
                      PROB30 2004/2008 7000
                      TEMPO 2013/2020 5000 SHRASN BKN012
                      PROB30 TEMPO 2013/2020 1200 SHSN BKN005
                      BECMG 2020/2023 6000 BKN005=
201002191101 TAF EGLL 191101Z 1912/2018 28009KT 9999 SCT030
                      PROB30 2005/2008 7000
                      TEMPO 2012/2018 4000 SHRASN BKN012=
201002190504 TAF EGLL 190504Z 1906/2012 28010KT 9999 OVC010
                      PROB30 TEMPO 1906/1908 4000 -RASN BKN006
                       BECMG 1908/1911 FEW010 SCT030
                      BECMG 2003/2006 22005KT
                      PROB30 2005/2008 9000=
201002182304 TAF EGLL 182304Z 1900/2006 28012KT 9999 SCT006 BKN012
                      TEMPO 1900/1909 8000 -RASN BKN006
                      BECMG 1909/1912 FEW012 SCT030
                      BECMG 2003/2006 22005KT=
201002181656 TAF EGLL 181656Z 1818/1924 13006KT 9999 BKN020
                      PROB40 TEMPO 1818/1821 6000 SHRA BKN014
                      BECMG 1821/1824 29010KT BKN010
                      TEMPO 1821/1908 7000 -RASN BKN008
                      BECMG 1907/1910 FEW025=
201002181303 TAF AMD EGLL 181303Z 1813/1918 08005KT 5000 -RA BKN016
                      TEMPO 1813/1817 4500 SHRA BKN010
                      BECMG 1814/1817 9999 NSW
                      TEMPO 1817/1822 5000 SHRA BKN014
                      BECMG 1900/1903 30010KT 8000 -RASN BKN010
                       BECMG 1909/1912 9999 NSW FEW008 SCT025=
201002181105 TAF EGLL 181105Z 1812/1918 08005KT 1300 -RA BR BKN008
                      BECMG 1812/1815 2500 BKN015
                      TEMPO 1812/1815 RA
                      BECMG 1814/1817 9999 NSW
                      TEMPO 1815/1822 5000 SHRA BKN014
                      BECMG 1900/1903 30010KT 8000 -RASN BKN010
                       BECMG 1909/1912 9999 NSW FEW008 SCT025=
201002181005 TAF AMD EGLL 181005Z 1810/1912 12005KT 1400 RA BKN007
                      BECMG 1810/1813 4000 -RA BKN012
                      BECMG 1813/1816 9999 NSW SCT025
                      TEMPO 1813/1824 5000 SHRA BKN014
                      BECMG 1900/1903 30010KT 9000 -RASN BKN010
                       BECMG 1907/1910 9999 NSW FEW010 SCT030=
201002180502 TAF EGLL 180502Z 1806/1912 12005KT 4900 HZ SCT016
                      BECMG 1807/1810 8000 -RA BKN012
                      TEMPO 1808/1812 4000 RA BKN005
                      BECMG 1812/1815 9999 NSW SCT025
                      TEMPO 1815/1824 5000 SHRA BKN014
                      BECMG 1900/1903 30010KT 9000 -RASN BKN010
                       BECMG 1907/1910 9999 NSW FEW010 SCT030=
201002172301 TAF EGLL 172301Z 1800/1906 12005KT 4500 BR NSC
                      PROB30 1801/1806 0500 FZFG BKN001
                      BECMG 1808/1811 8000 -RA BKN012
                      TEMPO 1810/1906 4000 RA BKN005
                      BECMG 1900/1903 32012KT=
201002172140 TAF AMD EGLL 172140Z 1721/1824 13005KT 7000 NSC
                      BECMG 1722/1801 3000 BR
                      PROB30 1801/1806 0500 FZFG BKN001
                      BECMG 1808/1811 6000 -RA BKN006
                      TEMPO 1809/1820 4000 SHRA
                      BECMG 1817/1820 9999 NSW SCT014
                      PROB40 TEMPO 1820/1824 4000 SHRA BKN008=
201002172005 TAF AMD EGLL 172005Z 1720/1824 13005KT 7000 NSC
                      BECMG 1721/1724 3000 BR
                      PROB40 1800/1808 0900 FG BKN002
                      BECMG 1808/1811 6000 -RA BKN006
                      TEMPO 1809/1820 4000 SHRA
                      BECMG 1817/1820 9999 NSW SCT014
                      PROB40 TEMPO 1820/1824 4000 SHRA BKN008=
201002171704 TAF EGLL 171704Z 1718/1824 13005KT CAVOK
                      BECMG 1723/1802 3000 BR
                      PROB40 1802/1808 1000 BKN002
                      BECMG 1808/1811 6000 -RA BKN006
                      TEMPO 1809/1820 4000 SHRA
                      BECMG 1817/1820 9999 NSW SCT014
                      PROB40 TEMPO 1820/1824 4000 SHRA BKN008=
201002171103 TAF EGLL 171103Z 1712/1818 13005KT 6000 FEW025
                      PROB40 1712/1719 9999
                      BECMG 1722/1801 3000 BR
                      PROB40 1800/1808 1000 BKN004
                      BECMG 1808/1811 6000 -RA BKN006
                      TEMPO 1812/1818 4000 SHRA
                      BECMG 1816/1818 SCT014=
201002170459 TAF EGLL 170459Z 1706/1812 13005KT 4000 -RA BKN014
                      BECMG 1706/1708 8000 NSW SCT015
                      PROB40 1708/1719 9999
                      BECMG 1719/1722 3000 BR
                      TEMPO 1722/1808 BKN006
                      PROB40 1722/1808 1000 BKN002
                      BECMG 1808/1811 5000 -RA BKN008=
201002170404 TAF AMD EGLL 170404Z 1704/1806 16005KT 9999 SCT012 BKN025
                      TEMPO 1704/1707 4500 -RA BKN008
                      PROB40 1707/1718 7000
                      BECMG 1718/1721 8000
                      PROB40 TEMPO 1721/1806 4500 BR -RA BKN010=
201002162300 TAF AMD EGLL 170404Z 1704/1806 16005KT 9999 SCT012 BKN025
                      TEMPO 1704/1707 4500 -RA BKN008
                      PROB40 1707/1718 7000
                      BECMG 1718/1721 8000
                      PROB40 TEMPO 1721/1806 4500 BR -RA BKN010=
201002162259 TAF EGLL 162259Z 1700/1806 16005KT 9999 SCT012 BKN025
                      TEMPO 1700/1705 4500 -RA BKN008
                      PROB40 1705/1710 7000
                      BECMG 1718/1721 8000
                      PROB40 TEMPO 1721/1806 4500 BR -RA BKN010=
201002162155 TAF AMD EGLL 162155Z 1622/1724 20008KT 9999 FEW009 SCT014 BKN020
                       TEMPO 1622/1705 4500 RA BKN009
                      TEMPO 1718/1724 6000 RA BKN010=
201002161903 TAF AMD EGLL 161903Z 1619/1724 20008KT 9999 FEW009 SCT014 BKN020
                       TEMPO 1619/1705 6000 RA BKN009
                      TEMPO 1718/1724 6000 RA BKN010=
201002161705 TAF EGLL 161705Z 1618/1724 20008KT 9999 SCT009 BKN014
                      TEMPO 1620/1704 6000 RA BKN009
                      BECMG 1702/1705 9999 FEW014 SCT025
                      TEMPO 1718/1724 6000 RA BKN010=
201002161103 TAF EGLL 161103Z 1612/1718 20008KT 9999 FEW009 SCT012 BKN025
                      TEMPO 1612/1709 5000 RA BKN009=
201002160503 TAF EGLL 160503Z 1606/1712 21010KT 9999 -RA SCT012 BKN020
                      TEMPO 1606/1712 5000 RA BKN008=
201002152303 TAF EGLL 152303Z 1600/1706 21010KT 9999 SCT013 BKN025
                      TEMPO 1600/1603 5000 -RADZ BKN008
                      BECMG 1603/1606 7000 -RA BKN012
                      TEMPO 1606/1622 4000 RA BKN008
                      TEMPO 1622/1706 9999 NSW BKN006=
201002151924 TAF AMD EGLL 151924Z 1519/1624 19008KT 9999 FEW008 SCT014 BKN020
                       TEMPO 1519/1601 6000 -RA BKN008
                      BECMG 1602/1605 6000 -RA BKN012
                      TEMPO 1604/1624 4000 RA BKN008=
201002151702 TAF EGLL 151702Z 1518/1624 19008KT 9999 FEW008 SCT014 BKN020
                      TEMPO 1518/1601 6000 -RA BKN014
                      BECMG 1602/1605 6000 -RA BKN012
                      TEMPO 1604/1624 4000 RA BKN008=
201002151059 TAF EGLL 151059Z 1512/1618 19008KT 9999 FEW008 BKN020
                      TEMPO 1512/1515 6000 -RA BKN008
                      BECMG 1515/1518 9000 FEW004 BKN010
                      TEMPO 1518/1618 4000 RADZ BKN004=
201002150857 TAF AMD EGLL 150857Z 1508/1612 19005KT 9999 FEW010 BKN040
                      TEMPO 1508/1510 3000 BR
                      BECMG 1514/1517 7000 -RA BKN009
                      PROB40 TEMPO 1518/1612 4000 RADZ BR BKN004=
201002150711 TAF AMD EGLL 150711Z 1507/1612 19005KT 0300 FZFG VV///
                      BECMG 1507/1510 7000 NSW FEW010 BKN040
                      BECMG 1510/1512 9999
                      BECMG 1514/1517 7000 -RA BKN009
                      PROB40 TEMPO 1518/1612 4000 -RADZ BR BKN004=
201002150506 TAF EGLL 150506Z 1506/1612 19005KT 9999 FEW010 BKN040
                      TEMPO 1506/1510 4000 BR
                      BECMG 1514/1517 7000 -RA BKN009
                      PROB40 TEMPO 1518/1612 4000 -RADZ BR BKN004=
201002142305 TAF EGLL 142305Z 1500/1606 VRB05KT 9999 FEW010 SCT030
                      TEMPO 1502/1510 4000 BR
                      BECMG 1514/1517 7000 -RA BKN009
                      PROB30 TEMPO 1518/1606 4000 -RADZ BR BKN004=
201002142229 TAF AMD EGLL 142229Z 1422/1524 VRB05KT 9999 FEW010 SCT030
                      TEMPO 1502/1510 4000 BR
                      BECMG 1514/1517 7000 -RA BKN009
                      PROB30 TEMPO 1518/1524 4000 -RADZ BR BKN004=
201002141840 TAF COR EGLL 141840Z 1418/1524 34005KT 9999 SCT030
                      BECMG 1419/1422 7000
                      TEMPO 1502/1510 4000 BR
                      PROB30 1504/1509 0800 FZFG VV///
                      BECMG 1514/1517 -RA BKN009
                      PROB30 TEMPO 1515/1524 4000 RA -RASN BR BKN004=
201002141643 TAF EGLL 141643Z 1418/1524 34005KT 9999 SCT030
                      BECMG 1419/1422 7000
                      TEMPO 1502/1510 4000 BR
                      PROB30 1504/1509 0800 FZFG VV///
                      BECMG 1514/1517 -RA BKN009
                      PROB30 TEMPO 1515/1524 4000 RA -RASN BR BKN004=
201002141057 TAF EGLL 141057Z 1412/1518 34007KT 9999 SCT012 BKN035
                      TEMPO 1412/1418 5000 -SHRA BKN012
                      PROB30 1412/1413 4000 -SHRASN BKN007
                      BECMG 1419/1422 7000
                      PROB30 TEMPO 1504/1509 0400 FZFG VV///
                      BECMG 1509/1512 4000 -RASN BR BKN004
                      TEMPO 1515/1518 7000 BKN009=
201002140500 TAF EGLL 140500Z 1406/1512 34007KT 9999 SCT012 BKN035
                      TEMPO 1406/1418 5000 -SHRA BKN012
                      PROB40 1406/1412 4000 -SHRASN BKN004
                      BECMG 1420/1423 7000
                      PROB30 TEMPO 1504/1509 0400 FZFG VV///
                      BECMG 1509/1512 4000 -RASN BKN004=
201002132302 TAF EGLL 132302Z 1400/1506 35007KT 9999 SCT015 BKN035
                      TEMPO 1400/1418 5000 -SHRA BKN012
                      PROB30 1405/1411 4000 -SHRASN BKN005
                      BECMG 1420/1423 7000=
201002131650 TAF EGLL 131650Z 1318/1424 34008KT 9999 BKN035
                      PROB30 TEMPO 1318/1324 5000 -SHRASN BKN014
                       BECMG 1400/1403 8000
                      BECMG 1403/1406 -RADZ BKN012
                      PROB30 1405/1416 4000 -RASN BKN005
                      BECMG 1415/1418 9999 SCT018
                      BECMG 1420/1423 7000=
201002131056 TAF EGLL 131056Z 1312/1418 04008KT 9999 SCT035
                      PROB30 TEMPO 1312/1320 5000 -SHRA -SHRASN
                       BKN014
                      BECMG 1319/1322 34010KT
                      BECMG 1401/1404 8000 -RADZ BKN012
                      PROB30 1403/1416 4000 -RASN BKN005
                      BECMG 1415/1418 9999 SCT018=
201002130959 TAF AMD EGLL 130959Z 1310/1412 04008KT 9999 SCT035
                      PROB30 TEMPO 1312/1320 5000 -RADZ -RASN BKN014
                       BECMG 1317/1320 34010KT
                      PROB30 1403/1412 4000 -RASN BKN005=
201002130808 TAF COR EGLL 130808Z 1306/1412 04008KT 9999 SCT035
                      BECMG 1317/1320 34010KT 8000 -RADZ BKN010
                       PROB30 1400/1412 4000 -RASN BKN005=
201002130456 TAF EGLL 130456Z 1306/1412 04008KT 9999 SCT035
                      BECMG 1317/1320 34010KT 8000 -RADZ BKN010
                       PROB30 1400/1412 -RASN 4000 BKN005=
201002122258 TAF EGLL 122258Z 1300/1406 04008KT 9999 SCT035
                      BECMG 1317/1320 34010KT 8000 -RADZ BKN010
                       PROB30 1400/1406 -RASN 4000 BKN005=
201002121656 TAF EGLL 121656Z 1218/1324 04008KT 9999 SCT035
                      BECMG 1317/1320 34010KT 8000 -RADZ BKN010=
201002121059 TAF EGLL 121059Z 1212/1318 02009KT 8000 BKN008
                      BECMG 1212/1214 9999 BKN025
                      PROB30 TEMPO 1214/1220 7000 -SHRA
                      BECMG 1314/1317 8000 BKN010=
201002120453 TAF EGLL 120453Z 1206/1312 02012KT 8000 BKN010
                      PROB30 1206/1214 2500 RASN BKN004
                      BECMG 1211/1214 9999 SCT025
                      PROB30 1303/1308 8000 BKN014=
201002112254 TAF EGLL 112254Z 1200/1306 02013KT 9999 FEW030
                      BECMG 1200/1203 8000 BKN010
                      PROB30 1201/1214 2500 RASN BKN004
                      BECMG 1211/1214 9999 SCT025=
201002111657 TAF EGLL 111657Z 1118/1224 02013KT 9999 FEW030
                      BECMG 1122/1201 8000 BKN010
                      PROB30 1202/1212 2500 RASN BKN004
                      BECMG 1211/1214 9999 SCT025=
201002111115 TAF EGLL 111115Z 1112/1218 01013KT 9999 FEW030
                      TEMPO 1112/1118 02015G25KT
                      BECMG 1122/1201 8000 BKN010
                      PROB30 1200/1207 2000 RASN BKN004
                      BECMG 1207/1210 9999 BKN025=
201002111100 TAF EGLL 111100Z NIL=
201002110724 TAF AMD EGLL 110724Z 1107/1212 01010KT 9999 FEW040
                      TEMPO 1107/1109 4000 -SHSN
                      TEMPO 1109/1118 02015G25KT
                      BECMG 1122/1201 8000 BKN010
                      TEMPO 1200/1208 4000 RASN BKN005
                      BECMG 1207/1210 9999 FEW010 BKN030=
201002110458 TAF EGLL 110458Z 1106/1212 01010KT 9999 FEW040
                      TEMPO 1109/1118 02015G25KT
                      BECMG 1122/1201 8000 BKN010
                      TEMPO 1200/1208 4000 RASN BKN005
                      BECMG 1207/1210 9999 FEW010 BKN030=
201002102350 TAF COR EGLL 102350Z 1100/1206 01010KT 9999 FEW040
                      PROB30 TEMPO 1101/1106 5000 -SHSN BKN014
                       TEMPO 1109/1118 02015G25KT
                      BECMG 1122/1201 8000 BKN010
                      TEMPO 1200/1206 3000 -SN BKN005=
201002102257 TAF EGLL 102257Z 1100/1206 01010KT 9999 FEW040
                      PROB30 TEMPO 1100/1101 5000 -SHSN BKN014
                       TEMPO 1109/1118 02015G25KT
                      BECMG 1122/1201 8000 BKN010
                      TEMPO 1200/1206 3000 -SN BKN005=
201002101702 TAF EGLL 101702Z 1018/1124 02012KT 9999 SCT030
                      PROB40 TEMPO 1018/1101 4000 SHSN BKN010
                      TEMPO 1103/1118 02016G26KT=
201002101102 TAF EGLL 101102Z 1012/1118 03012KT 9999
                      TEMPO 1012/1118 03016G26KT
                      PROB40 TEMPO 1012/1018 4000 SHSN BKN010=
201002100504 TAF EGLL 100504Z 1006/1112 33008KT 9999 SCT015
                      TEMPO 1006/1009 BKN014
                      BECMG 1009/1012 03012KT
                      PROB30 TEMPO 1009/1015 6000 -SHSN BKN012=
201002100307 TAF AMD EGLL 100307Z 1003/1106 33008KT 9999 FEW014 SCT020
                      BECMG 1003/1005 BKN014
                      TEMPO 1004/1007 5000 RASN BKN009
                      BECMG 1005/1008 FEW014 SCT025
                      BECMG 1009/1012 03012KT
                      PROB30 TEMPO 1009/1015 5000 SHRASN BKN012=
201002092306 TAF EGLL 092306Z 1000/1106 33008KT 9999 FEW015 SCT020
                      BECMG 1000/1003 BKN009
                      TEMPO 1002/1006 5000 RASN
                      BECMG 1003/1006 FEW009 SCT025
                      BECMG 1009/1012 03012KT
                      PROB30 TEMPO 1009/1015 5000 SHRASN BKN012=
201002092300 TAF AMD EGLL 100307Z 1003/1106 33008KT 9999 FEW014 SCT020
                      BECMG 1003/1005 BKN014
                      TEMPO 1004/1007 5000 RASN BKN009
                      BECMG 1005/1008 FEW014 SCT025
                      BECMG 1009/1012 03012KT
                      PROB30 TEMPO 1009/1015 5000 SHRASN BKN012=
201002091701 TAF EGLL 091701Z 0918/1024 02010KT 9999 SCT030
                      BECMG 0922/1001 32008KT
                      PROB40 TEMPO 1002/1009 8000 BKN008
                      BECMG 1009/1012 04015G25KT
                      TEMPO 1009/1021 7000 -SN BKN014
                      PROB30 TEMPO 1011/1019 4000 SN BKN008=
201002091056 TAF EGLL 091056Z 0912/1018 03010KT 9999 SCT020
                      PROB40 TEMPO 0912/0919 03015G25KT 6000 -SHRASN
                       -SHSN BKN012
                      BECMG 0921/0924 33010KT
                      PROB40 TEMPO 1000/1018 6000 -RASN -SN BKN008
                       BECMG 1009/1012 05015G25KT
                      BECMG 1015/1018 05008KT=
201002090500 TAF EGLL 090500Z 0906/1012 03010KT 9999 BKN020
                      PROB40 TEMPO 0908/0919 03015G25KT 6000 -SHRASN
                       -SHSN BKN014
                      BECMG 0921/0924 33010KT
                      TEMPO 1004/1012 6000 -RASN -SN BKN008
                      BECMG 1009/1012 05015G25KT=
201002082259 TAF EGLL 082259Z 0900/1006 03010KT 9999 BKN020
                      PROB40 TEMPO 0906/0914 03015G25KT 5000 -RASN
                       -SN BKN014
                      BECMG 0921/0924 33007KT
                      PROB40 1003/1006 8000 BKN014=
201002082003 TAF AMD EGLL 082003Z 0820/0924 02007KT 9999 SCT010 BKN015
                      TEMPO 0820/0822 6000 -RASN -SN BKN009
                      PROB40 TEMPO 0908/0916 7000 -SHRASN BKN014=
201002081658 TAF EGLL 081658Z 0818/0924 02007KT 9999 SCT010 BKN015
                      TEMPO 0818/0820 6000 -RA -RASN BKN009
                      PROB40 TEMPO 0904/0910 7000 -SHRASN BKN014=
201002081106 TAF EGLL 081106Z 0812/0918 02010KT 9999 BKN015
                      TEMPO 0812/0818 6000 -RA -RASN BKN008
                      PROB30 TEMPO 0906/0912 7000 -SHRASN BKN014=
201002080500 TAF EGLL 080500Z 0806/0912 03010KT 6000 SCT015 BKN020
                      TEMPO 0806/0819 3000 -RASN -SN BKN006
                      BECMG 0819/0821 9999
                      PROB30 TEMPO 0910/0912 7000 -SHRASN BKN014=
201002080439 TAF COR EGLL 080439Z 0802/0906 03007KT 6000 SCT010 BKN025
                      TEMPO 0802/0819 3000 -DZ BKN007
                      PROB40 TEMPO 0805/0819 -RASN -SN BKN004
                      BECMG 0819/0821 9999=
201002080226 TAF AMD EGLL 080226Z 0802/0906 03007KT 6000 SCT010 BKN025
                      TEMPO 0800/0819 3000 -DZ BKN007
                      PROB40 TEMPO 0805/0819 -RASN -SN BKN004
                      BECMG 0819/0821 9999=
201002072301 TAF EGLL 072301Z 0800/0906 03007KT 6000 BKN010
                      TEMPO 0800/0819 3000 -DZ BKN007
                      PROB40 TEMPO 0805/0819 -RASN -SN BKN004
                      BECMG 0819/0821 9999 BKN018=
201002072300 TAF AMD EGLL 080226Z 0802/0906 03007KT 6000 SCT010 BKN025
                      TEMPO 0800/0819 3000 -DZ BKN007
                      PROB40 TEMPO 0805/0819 -RASN -SN BKN004
                      BECMG 0819/0821 9999=
201002071655 TAF EGLL 071655Z 0718/0824 02005KT 9999 FEW012 BKN018
                      TEMPO 0718/0720 7000 BKN012
                      BECMG 0720/0723 6000 BKN010
                      PROB40 0800/0815 4000 -DZ -RASN
                      TEMPO 0813/0824 9999 BKN015=
201002071617 TAF AMD EGLL 071617Z 0716/0818 02005KT 9999 FEW012 BKN018
                      TEMPO 0716/0719 7000 BKN012
                      BECMG 0719/0722 6000 BKN010
                      PROB40 0800/0815 4000 -DZ -RASN
                      TEMPO 0815/0818 9999 BKN012=
201002071106 TAF EGLL 071106Z 0712/0818 02005KT 8000 BKN008
                      TEMPO 0712/0717 9999 BKN014
                      PROB40 0800/0815 4000 -DZ -RASN
                      TEMPO 0815/0818 9999 BKN012=
201002070458 TAF EGLL 070458Z 0706/0812 VRB04KT 9999 BKN030
                      PROB30 0706/0710 4000 BR BKN004
                      BECMG 0712/0715 04010KT
                      BECMG 0718/0721 7000
                      PROB40 0803/0812 4000 -DZ BR BKN008=
201002062326 TAF AMD EGLL 062326Z 0700/0806 03007KT 9999 SCT007
                      PROB40 0700/0710 4000 BR BKN004
                      PROB30 0703/0708 1200 BR BKN001
                      BECMG 0707/0710 BKN012
                      BECMG 0710/0713 BKN020
                      BECMG 0718/0721 7000
                      BECMG 0721/0724 BKN012
                      PROB30 0800/0806 4000 BR BKN006=
201002062257 TAF EGLL 062257Z 0700/0806 03007KT 8000 BKN007
                      PROB40 0700/0710 4000 BR BKN004
                      PROB30 0703/0708 1200 BR BKN001
                      BECMG 0707/0710 BKN012
                      BECMG 0710/0713 9999 BKN020
                      BECMG 0718/0721 7000
                      BECMG 0721/0724 BKN012
                      PROB30 0800/0806 4000 BR BKN006=
201002061727 TAF AMD EGLL 061727Z 0618/0724 06007KT 8000 BKN008
                      BECMG 0620/0623 4000 BR BKN003
                      PROB30 0700/0708 1200
                      BECMG 0707/0710 BKN010
                      BECMG 0710/0713 9999 BKN016
                      BECMG 0717/0720 7000 BKN008=
201002061703 TAF EGLL 061703Z 0618/0724 06007KT 9999 SCT010
                      BECMG 0618/0620 7000 BKN012
                      BECMG 0620/0623 4000 BR BKN006
                      PROB30 0700/0708 1200 BKN002
                      BECMG 0707/0710 BKN010
                      BECMG 0710/0713 9999 BKN016
                      BECMG 0717/0720 7000 BKN008=
201002061103 TAF EGLL 061103Z 0612/0718 06007KT 3000 BR BKN004
                      BECMG 0612/0615 7000 NSW BKN012
                      PROB40 0615/0619 SCT015
                      BECMG 0618/0621 BKN006
                      PROB30 0700/0708 1500 BR BKN002
                      BECMG 0707/0710 BKN010
                      BECMG 0710/0713 9999 BKN016=
201002060926 TAF AMD EGLL 060926Z 0609/0712 06007KT 3000 BR BKN005
                      TEMPO 0609/0612 BKN003
                      BECMG 0612/0615 BKN012
                      PROB40 0614/0619 SCT015
                      BECMG 0618/0621 8000 BKN006
                      PROB30 0700/0709 2000 BR BKN003
                      BECMG 0709/0712 BKN010=
201002060459 TAF EGLL 060459Z 0606/0712 06007KT 9999 FEW035
                      PROB40 0606/0610 4000 BR BKN005
                      BECMG 0610/0613 BKN012
                      PROB40 0613/0619 SCT015
                      BECMG 0618/0621 8000 BKN006
                      PROB30 0700/0709 2000 BR BKN003
                      BECMG 0709/0712 BKN010=
201002060401 TAF AMD EGLL 060401Z 0604/0706 12007KT 9999 FEW035
                      PROB40 0604/0611 3000 BR BKN003
                      BECMG 0611/0614 BKN012
                      PROB40 0614/0619 SCT015
                      BECMG 0618/0621 8000 BKN006
                      PROB30 0700/0706 1200 BR BKN001=
201002052302 TAF EGLL 052302Z 0600/0706 12007KT 9999 FEW035
                      BECMG 0601/0604 5000 BR
                      PROB40 0604/0611 2000 BKN003
                      BECMG 0611/0614 BKN012
                      PROB40 0614/0619 9999 NSW SCT015
                      BECMG 0618/0621 BKN006
                      PROB30 0700/0706 1200 BKN001=
201002052300 TAF AMD EGLL 060401Z 0604/0706 12007KT 9999 FEW035
                      PROB40 0604/0611 3000 BR BKN003
                      BECMG 0611/0614 BKN012
                      PROB40 0614/0619 SCT015
                      BECMG 0618/0621 8000 BKN006
                      PROB30 0700/0706 1200 BR BKN001=
201002051653 TAF EGLL 051653Z 0518/0624 17007KT 9999 SCT022
                      BECMG 0523/0602 BKN012
                      BECMG 0603/0606 8000 BKN006
                      PROB30 0601/0612 3000 BR BKN003
                      BECMG 0612/0615 9999 BKN012
                      BECMG 0618/0621 7000 BKN006
                      PROB30 0621/0624 4000 BR BKN003=
201002051052 TAF EGLL 051052Z 0512/0618 20010KT 9999 SCT030
                      BECMG 0517/0520 14010KT
                      BECMG 0522/0601 07003KT
                      BECMG 0603/0606 8000 BKN006
                      PROB30 0606/0612 3000 BR BKN003
                      BECMG 0612/0615 9999 NSW BKN012=
201002050505 TAF EGLL 050505Z 0506/0612 15010KT 8000 RA BKN008
                      BECMG 0506/0508 22012KT 9999 NSW SCT030
                      BECMG 0517/0520 14010KT
                      BECMG 0522/0601 07008KT
                      BECMG 0603/0606 8000 BKN006
                      PROB30 0606/0612 BKN003=
201002042255 TAF EGLL 042255Z 0500/0606 13010KT 9999 FEW045
                      BECMG 0501/0504 8000 -RA BKN014
                      TEMPO 0502/0506 4000 RA BKN008
                      BECMG 0504/0507 22012KT 9999 NSW SCT030
                      BECMG 0517/0520 15008KT
                      PROB40 0603/0606 BKN008=
201002041659 TAF EGLL 041659Z 0418/0524 15010KT 9999 FEW035
                      BECMG 0423/0502 8000 -RA BKN014
                      PROB40 0502/0507 4000 RA BKN008
                      BECMG 0506/0509 22012KT 9999 NSW SCT030
                      BECMG 0518/0521 15008KT=
201002041057 TAF EGLL 041057Z 0412/0518 15010KT 6000 BKN012
                      TEMPO 0412/0413 2000 DZ BKN004
                      BECMG 0412/0415 9999 SCT025
                      BECMG 0423/0502 8000 -RA BKN014
                      PROB40 0501/0507 4000 RA BKN008
                      BECMG 0506/0509 22012KT 9999 NSW SCT030=
201002041011 TAF AMD EGLL 041011Z 0410/0512 16010KT 6000 BKN012
                      TEMPO 0410/0414 2000 DZ BKN004
                      BECMG 0413/0416 9999 SCT025
                      BECMG 0500/0503 6000 RA BKN008
                      BECMG 0506/0509 22012KT 9999 NSW SCT030=
201002040654 TAF AMD EGLL 040654Z 0406/0512 21012KT 8000 SCT012 BKN030
                      BECMG 0406/0409 BKN012
                      TEMPO 0407/0412 2000 DZ BKN005
                      BECMG 0412/0415 15012KT 9999 SCT025
                      BECMG 0500/0503 6000 RA BKN008
                      BECMG 0506/0509 22012KT 9999 NSW SCT030=
201002040458 TAF EGLL 040458Z 0406/0512 21012KT 8000 BKN012
                      TEMPO 0406/0412 2000 DZ BKN005
                      BECMG 0412/0415 15012KT 9999 SCT025
                      BECMG 0500/0503 6000 RA BKN008
                      BECMG 0506/0509 22012KT 9999 NSW SCT030=
201002040353 TAF AMD EGLL 040353Z 0404/0506 21012KT 8000 BKN020
                      BECMG 0404/0407 BKN010
                      TEMPO 0404/0412 2000 DZ BKN005
                      BECMG 0412/0415 15012KT
                      BECMG 0500/0503 6000 RA BKN008=
201002040030 TAF AMD EGLL 040030Z 0400/0506 21012KT 9999 BKN025
                      BECMG 0401/0404 BKN010
                      TEMPO 0402/0412 2000 DZ BKN005
                      BECMG 0412/0415 15012KT
                      BECMG 0500/0503 6000 RA BKN008=
201002032306 TAF EGLL 032306Z 0400/0506 21012KT 9999 BKN010
                      TEMPO 0402/0412 2000 DZ BKN005
                      BECMG 0412/0415 15012KT SCT025
                      BECMG 0500/0503 6000 RA BKN008=
201002032300 TAF AMD EGLL 040353Z 0404/0506 21012KT 8000 BKN020
                      BECMG 0404/0407 BKN010
                      TEMPO 0404/0412 2000 DZ BKN005
                      BECMG 0412/0415 15012KT
                      BECMG 0500/0503 6000 RA BKN008=
201002032025 TAF AMD EGLL 032025Z 0320/0424 14005KT 6000 BKN007
                      TEMPO 0320/0322 4100 -RADZ
                      PROB40 0320/0324 9999 SCT010 BKN020
                      PROB40 0400/0411 2000 RADZ BR BKN001
                      BECMG 0412/0415 9999 NSW SCT030
                      BECMG 0415/0418 12010KT=
201002031657 TAF EGLL 031657Z 0318/0424 14005KT 6000 -RA BKN007
                      PROB40 0318/0320 2000 RADZ BR BKN003
                      PROB30 0320/0324 9999 NSW SCT010 BKN020
                      PROB40 0400/0411 2000 RADZ BR BKN001
                      BECMG 0412/0415 9999 NSW SCT030
                      BECMG 0415/0418 12010KT=
201002031058 TAF EGLL 031058Z 0312/0418 14005KT 9999 BKN025
                      BECMG 0312/0315 7000 -RA BKN014
                      PROB40 0315/0410 3000 RADZ BR BKN003
                      BECMG 0411/0414 9999 SCT030
                      BECMG 0415/0418 12010KT=
201002030502 TAF EGLL 030502Z 0306/0412 14005KT 9999 SCT018 BKN025
                      TEMPO 0306/0321 7000 RA BKN014
                      PROB30 TEMPO 0315/0321 BKN008
                      BECMG 0318/0321 21010KT
                      BECMG 0400/0403 13004KT
                      TEMPO 0407/0412 7000 RA BKN014
                      PROB30 TEMPO 0407/0412 4000 RADZ BKN004=
201002022324 TAF COR EGLL 022324Z 0300/0406 27012KT 9999 SCT018 BKN025
                      TEMPO 0300/0406 4000 RA BKN014
                      PROB40 TEMPO 0300/0306 BKN008
                      BECMG 0303/0306 VRB03KT
                      PROB40 TEMPO 0314/0406 BKN008
                      BECMG 0317/0320 20010KT=
201002022259 TAF EGLL 022259Z 0300/0406 27012KT 9999 SCT018 BKN025
                      TEMPO 0300/0406 7000 RA BKN014
                      PROB40 TEMPO 0300/0306 BKN008
                      BECMG 0303/0306 VRB03KT
                      PROB40 TEMPO 0314/0406 BKN008
                      BECMG 0317/0320 20010KT=
201002021705 TAF EGLL 021705Z 0218/0324 27012KT 9999 SCT018 BKN025
                      TEMPO 0223/0324 7000 RA BKN014
                      PROB40 TEMPO 0300/0306 BKN008
                      BECMG 0303/0306 VRB03KT
                      PROB40 TEMPO 0314/0324 BKN008
                      BECMG 0317/0320 20010KT=
201002021243 TAF AMD EGLL 021243Z 0212/0318 25016G27KT 9999 FEW014 SCT022
                      TEMPO 0212/0215 7000 RA BKN014
                      BECMG 0216/0219 25012KT
                      TEMPO 0222/0318 7000 RA BKN014
                      BECMG 0303/0306 11005KT
                      PROB40 TEMPO 0306/0318 BKN008=
201002021104 TAF EGLL 021104Z 0212/0318 26014KT 9999 FEW014 SCT022
                      TEMPO 0212/0215 7000 RA BKN014
                      TEMPO 0222/0318 7000 RA BKN014
                      BECMG 0303/0306 11005KT
                      PROB40 TEMPO 0306/0318 BKN008=
201002020501 TAF EGLL 020501Z 0206/0312 25010KT 9999 SCT014 BKN040
                      TEMPO 0206/0218 7000 -RA
                      PROB40 TEMPO 0207/0215 25015G25KT 4000 RA
                       BKN008
                      BECMG 0221/0224 7000 -RA BKN012
                      PROB40 TEMPO 0300/0312 4000 RA BKN008
                      BECMG 0303/0306 15005KT=
201002020409 TAF AMD EGLL 020409Z 0204/0306 25010KT 9999 FEW035 SCT040
                      BECMG 0204/0206 7000 -RA BKN012
                      TEMPO 0206/0215 25015G25KT 4000 RA BKN008
                       BECMG 0214/0217 9999 NSW FEW012 BKN025
                      BECMG 0221/0224 7000 -RA BKN012
                      PROB40 TEMPO 0300/0306 4000 RA BKN008=
201002012300 TAF AMD EGLL 020409Z 0204/0306 25010KT 9999 FEW035 SCT040
                      BECMG 0204/0206 7000 -RA BKN012
                      TEMPO 0206/0215 25015G25KT 4000 RA BKN008
                       BECMG 0214/0217 9999 NSW FEW012 BKN025
                      BECMG 0221/0224 7000 -RA BKN012
                      PROB40 TEMPO 0300/0306 4000 RA BKN008=
201002012256 TAF EGLL 012256Z 0200/0306 25010KT 9999 FEW035 SCT040
                      BECMG 0202/0204 7000 -RA BKN012
                      TEMPO 0204/0215 25015G25KT 4000 RA BKN008
                       BECMG 0214/0217 9999 NSW FEW012 BKN025
                      BECMG 0221/0224 7000 -RA BKN012
                      PROB40 TEMPO 0300/0306 4000 RA BKN008=
201002011702 TAF EGLL 011702Z 0118/0224 25010KT 9999 FEW035 SCT040
                      BECMG 0201/0204 7000 -RA BKN012
                      TEMPO 0203/0215 25015G25KT 4000 RA BKN008
                       BECMG 0214/0217 9999 NSW FEW012 BKN025
                      BECMG 0221/0224 7000 -RA BKN012=
201002011056 TAF EGLL 011056Z 0112/0218 29009KT 9999 FEW030
                      BECMG 0200/0203 23013KT 7000 -RA BKN012
                      TEMPO 0202/0213 4000 RADZ BKN008
                      BECMG 0213/0216 28015G26KT 9999 NSW FEW012
                       BKN025=
201002010501 TAF EGLL 010501Z 0106/0212 29010KT 9999 FEW030
                      BECMG 0200/0203 23013KT 8000 -RA BKN012
                      TEMPO 0203/0212 4500 RADZ BKN008
                      PROB40 0209/0212 25017G27KT=
