##########################################################
# Query made at 01/13/2020 11:41:06 UTC
# Time interval: from 02/01/2015 00:00  to 03/03/2015 23:59  UTC
##########################################################

##########################################################
# EGLL, London / Heathrow Airport (United Kingdom)
# WMO index: 03772
# Latitude 51-29N. Longitude 000-27W. Altitude 24 m.
##########################################################

###################################
#  METAR/SPECI from EGLL
###################################
201503032350 METAR COR EGLL 032350Z 25012KT CAVOK 04/M00 Q1021 NOSIG=
201503032320 METAR COR EGLL 032320Z 25010KT CAVOK 04/M01 Q1021 NOSIG=
201503032250 METAR COR EGLL 032250Z 24010KT CAVOK 04/M01 Q1021 NOSIG=
201503032220 METAR COR EGLL 032220Z 25010KT CAVOK 04/M01 Q1021 NOSIG=
201503032150 METAR EGLL 032150Z 24013KT CAVOK 05/M01 Q1021=
201503032120 METAR COR EGLL 032120Z 24013KT CAVOK 05/M01 Q1020 NOSIG=
201503032050 METAR EGLL 032050Z 25012KT CAVOK 05/M01 Q1020 NOSIG=
201503032020 METAR COR EGLL 032020Z 25012KT CAVOK 05/M01 Q1020 NOSIG=
201503031950 METAR EGLL 031950Z 25014KT CAVOK 05/M01 Q1019 NOSIG=
201503031920 METAR COR EGLL 031920Z 25014KT CAVOK 06/M01 Q1019 NOSIG=
201503031850 METAR EGLL 031850Z 25013KT CAVOK 06/M02 Q1019 NOSIG=
201503031820 METAR COR EGLL 031820Z 26013KT CAVOK 06/M02 Q1018 NOSIG=
201503031750 METAR EGLL 031750Z 27014KT CAVOK 06/M02 Q1018 NOSIG=
201503031720 METAR COR EGLL 031720Z 27017KT 9999 FEW044 07/M02 Q1017 NOSIG=
201503031650 METAR EGLL 031650Z 26016KT 9999 FEW044 07/M02 Q1017 NOSIG=
201503031620 METAR COR EGLL 031620Z 27017KT 9999 FEW044 08/M01 Q1017 NOSIG=
201503031550 METAR EGLL 031550Z 27018KT 9999 FEW049 08/M02 Q1016 NOSIG=
201503031520 METAR COR EGLL 031520Z 28018KT 9999 FEW049 09/M02 Q1016 NOSIG=
201503031450 METAR EGLL 031450Z 27018KT 9999 FEW046 09/M02 Q1016 NOSIG=
201503031420 METAR COR EGLL 031420Z 27017KT 9999 FEW046 09/M01 Q1016 NOSIG=
201503031350 METAR COR EGLL 031350Z 27020KT 9999 FEW042 09/M02 Q1015 TEMPO
                        SHRA=
201503031320 METAR COR EGLL 031320Z 27016KT 9999 SCT041 08/M00 Q1015 NOSIG=
201503031250 METAR COR EGLL 031250Z 28013KT 9999 SCT037 SCT046 08/01 Q1015
                        NOSIG=
201503031220 METAR COR EGLL 031220Z 27014KT 9999 SCT038 08/00 Q1015 NOSIG=
201503031150 METAR COR EGLL 031150Z 27014KT 9999 SCT038 09/00 Q1015 NOSIG=
201503031120 METAR COR EGLL 031120Z 27015KT 9999 SCT035 08/M00 Q1015 NOSIG=
201503031050 METAR EGLL 031050Z 28015KT 9999 FEW032 07/00 Q1015 NOSIG=
201503031020 METAR COR EGLL 031020Z 27016KT 9999 FEW024 08/02 Q1014 NOSIG=
201503030950 METAR EGLL 030950Z 26010KT 9999 FEW021 07/03 Q1014 NOSIG=
201503030920 METAR COR EGLL 030920Z 26011KT 9999 FEW012 FEW018TCU 06/03
                        Q1014 NOSIG=
201503030850 METAR COR EGLL 030850Z 29010KT 9999 VCSH FEW011 SCT017 BKN019
                        06/03 Q1014 NOSIG=
201503030820 METAR COR EGLL 030820Z 23008KT 9999 VCSH FEW027 SCT032 05/03
                        Q1013 NOSIG=
201503030750 METAR EGLL 030750Z 22008KT 9999 FEW031 SCT046 05/03 Q1013
                        NOSIG=
201503030720 METAR COR EGLL 030720Z 22009KT 9999 FEW021 SCT046 04/03 Q1013
                        NOSIG=
201503030650 METAR COR EGLL 030650Z 21010KT CAVOK 04/03 Q1012 TEMPO 27013KT
                        SHRA=
201503030620 METAR COR EGLL 030620Z 20009KT 9999 FEW032 04/02 Q1012 TEMPO
                        26012KT SHRA=
201503030550 METAR COR EGLL 030550Z 19007KT 9999 FEW032 04/02 Q1013 TEMPO
                        25012KT SHRA=
201503030520 METAR COR EGLL 030520Z 19007KT CAVOK 04/02 Q1013 TEMPO 25012KT
                        SHRA=
201503030450 METAR EGLL 030450Z AUTO 18008KT 9999 FEW045 04/01 Q1013=
201503030420 METAR COR EGLL 030420Z 18007KT 9999 FEW030 04/01 Q1014 TEMPO
                        SHRA=
201503030350 METAR COR EGLL 030350Z 19007KT 9999 SCT030 04/01 Q1014 TEMPO
                        SHRA=
201503030320 METAR COR EGLL 030320Z 21007KT 9999 FEW040 04/01 Q1014 NOSIG=
201503030250 METAR EGLL 030250Z 21006KT CAVOK 03/01 Q1015 NOSIG=
201503030220 METAR EGLL 030220Z AUTO 20003KT 9999 NCD 03/00 Q1015=
201503030150 METAR EGLL 030150Z AUTO 21005KT 9999 BKN049 03/00 Q1015=
201503030120 METAR EGLL 030120Z AUTO 20005KT 9999 SCT037 03/00 Q1016=
201503030050 METAR COR EGLL 030050Z 23008KT CAVOK 04/00 Q1016 NOSIG=
201503030020 METAR COR EGLL 030020Z 24009KT CAVOK 04/00 Q1016 NOSIG=
201503022350 METAR EGLL 022350Z 23008KT CAVOK 04/M00 Q1016 NOSIG=
201503022320 METAR COR EGLL 022320Z 24011KT CAVOK 04/M00 Q1015 NOSIG=
201503022250 METAR EGLL 022250Z 24012KT CAVOK 05/M00 Q1015 NOSIG=
201503022220 METAR COR EGLL 022220Z 24012KT CAVOK 05/00 Q1015 NOSIG=
201503022150 METAR EGLL 022150Z 24013KT CAVOK 04/M00 Q1015 NOSIG=
201503022120 METAR COR EGLL 022120Z 23012KT CAVOK 05/M00 Q1015 NOSIG=
201503022050 METAR EGLL 022050Z 25013KT CAVOK 05/M00 Q1015 NOSIG=
201503022020 METAR COR EGLL 022020Z 24014KT CAVOK 05/M00 Q1014 NOSIG=
201503021950 METAR EGLL 021950Z 24013KT CAVOK 05/M00 Q1014 NOSIG=
201503021920 METAR COR EGLL 021920Z 24013KT CAVOK 05/M00 Q1014 NOSIG=
201503021850 METAR COR EGLL 021850Z 24012KT CAVOK 05/M01 Q1013 NOSIG=
201503021820 METAR COR EGLL 021820Z 25015KT CAVOK 06/M03 Q1013 NOSIG=
201503021750 METAR EGLL 021750Z 25014KT 9999 FEW048 07/M05 Q1013 NOSIG=
201503021720 METAR COR EGLL 021720Z 25015G28KT 9999 FEW048 07/M06 Q1012
                        NOSIG=
201503021650 METAR EGLL 021650Z 27015KT 9999 FEW048 08/M04 Q1012 NOSIG=
201503021620 METAR COR EGLL 021620Z 27015KT 9999 FEW048 08/M03 Q1012 NOSIG=
201503021550 METAR EGLL 021550Z 27015KT 9999 FEW048 08/M04 Q1011 NOSIG=
201503021520 METAR COR EGLL 021520Z 27019KT 9999 FEW048 07/M05 Q1011 NOSIG=
201503021450 METAR COR EGLL 021450Z 27022KT 9999 FEW048 08/M04 Q1011 NOSIG=
201503021420 METAR COR EGLL 021420Z 27022G32KT 9999 FEW048 08/M04 Q1010
                        NOSIG=
201503021350 METAR COR EGLL 021350Z 27021KT 9999 FEW048 08/M02 Q1010 NOSIG=
201503021320 METAR COR EGLL 021320Z 27022G34KT 9999 FEW048 08/M03 Q1009
                        NOSIG=
201503021250 METAR EGLL 021250Z 28021KT 9999 FEW047 08/M03 Q1009 NOSIG=
201503021220 METAR COR EGLL 021220Z 28023KT 9999 FEW046 08/M02 Q1008 NOSIG=
201503021150 METAR COR EGLL 021150Z 28025G35KT 9999 FEW048 07/M03 Q1008
                        NOSIG=
201503021120 METAR COR EGLL 021120Z 27025G35KT 9999 FEW045 07/M02 Q1007
                        NOSIG=
201503021050 METAR COR EGLL 021050Z 27021G31KT 9999 FEW032 SCT044 07/M00
                        Q1007 NOSIG=
201503021020 METAR COR EGLL 021020Z 26019KT 9999 FEW027 06/00 Q1006 NOSIG=
201503020950 METAR EGLL 020950Z 27021KT 9999 FEW024 06/01 Q1006 NOSIG=
201503020920 METAR COR EGLL 020920Z 27018KT 9999 FEW021 05/01 Q1006 NOSIG=
201503020850 METAR EGLL 020850Z 27017KT 9999 FEW017 05/02 Q1005 NOSIG=
201503020820 METAR COR EGLL 020820Z 26016KT 9999 FEW022 05/01 Q1005 TEMPO
                        SHRAGS BKN013CB=
201503020750 METAR EGLL 020750Z 25013KT 9999 FEW022 05/01 Q1004 TEMPO
                        SHRAGS BKN013CB=
201503020720 METAR COR EGLL 020720Z 25011KT 9999 FEW020 04/01 Q1004 TEMPO
                        SHRAGS BKN013CB=
201503020650 METAR EGLL 020650Z 26012KT CAVOK 04/01 Q1003 TEMPO SHRAGS
                        BKN013CB=
201503020620 METAR COR EGLL 020620Z 24013KT CAVOK 04/01 Q1003 TEMPO SHRA
                        BKN014=
201503020550 METAR COR EGLL 020550Z 25013KT CAVOK 04/01 Q1003 TEMPO SHRAGS
                        BKN014CB=
201503020520 METAR COR EGLL 020520Z 24010KT CAVOK 03/01 Q1003 TEMPO SHRAGS
                        BKN011CB=
201503020450 METAR COR EGLL 020450Z 24011KT CAVOK 03/01 Q1003 NOSIG=
201503020420 METAR COR EGLL 020420Z 24012KT CAVOK 03/01 Q1003 NOSIG=
201503020350 METAR EGLL 020350Z 24012KT CAVOK 03/01 Q1002 NOSIG=
201503020320 METAR COR EGLL 020320Z 24009KT CAVOK 03/01 Q1003 NOSIG=
201503020250 METAR EGLL 020250Z 26010KT CAVOK 03/01 Q1002 NOSIG=
201503020220 METAR COR EGLL 020220Z 25010KT CAVOK 03/01 Q1002 NOSIG=
201503020150 METAR EGLL 020150Z 25012KT CAVOK 04/01 Q1002 NOSIG=
201503020120 METAR COR EGLL 020120Z 25013KT CAVOK 04/01 Q1002 NOSIG=
201503020050 METAR COR EGLL 020050Z 24011KT CAVOK 04/01 Q1002 NOSIG=
201503020020 METAR COR EGLL 020020Z 24009KT CAVOK 04/01 Q1001 NOSIG=
201503012350 METAR COR EGLL 012350Z 26010KT CAVOK 05/01 Q1001 NOSIG=
201503012320 METAR COR EGLL 012320Z 26010KT CAVOK 05/02 Q1001 NOSIG=
201503012250 METAR EGLL 012250Z 27015KT CAVOK 05/02 Q1000 NOSIG=
201503012220 METAR COR EGLL 012220Z 27015KT CAVOK 05/02 Q1000 NOSIG=
201503012150 METAR EGLL 012150Z 27015KT CAVOK 06/02 Q1000 NOSIG=
201503012120 METAR COR EGLL 012120Z 27016KT CAVOK 06/03 Q0999 NOSIG=
201503012050 METAR COR EGLL 012050Z 26016KT 9999 FEW032 07/03 Q0999 NOSIG=
201503012020 METAR COR EGLL 012020Z 26017KT 9999 FEW035 07/03 Q0999 NOSIG=
201503011950 METAR COR EGLL 011950Z 26019KT CAVOK 07/03 Q0998 NOSIG=
201503011920 METAR COR EGLL 011920Z 25017KT CAVOK 06/03 Q0998 NOSIG=
201503011850 METAR EGLL 011850Z 24014KT CAVOK 06/03 Q0997 NOSIG=
201503011820 METAR COR EGLL 011820Z 24013KT 9999 FEW012 06/04 Q0997 NOSIG=
201503011750 METAR COR EGLL 011750Z 23012KT 9999 SCT016 BKN020 07/04 Q0997
                        RERA TEMPO 25020G30KT=
201503011720 METAR COR EGLL 011720Z 26021G36KT 9999 7000E R27L/1100 RA
                        VCTS SCT012CB BKN035 08/05 Q0998
                        BECMG 29018KT NSW=
201503011650 METAR EGLL 011650Z 22015KT 9999 SCT030 SCT035 10/04 Q0997
                        TEMPO 25024G36KT 4000 +SHRAGS=
201503011620 METAR COR EGLL 011620Z 22018KT 9999 FEW042 10/03 Q0998 TEMPO
                        25024G36KT 4000 +SHRAGS=
201503011550 METAR COR EGLL 011550Z 22020KT 9999 FEW037 11/02 Q0999 TEMPO
                        RA=
201503011520 METAR COR EGLL 011520Z 22018KT 9999 FEW036 11/02 Q0999 NOSIG=
201503011450 METAR COR EGLL 011450Z 23015KT 200V260 9999 FEW044 11/01
                        Q1000 NOSIG=
201503011420 METAR COR EGLL 011420Z 25013KT 9999 FEW041 11/01 Q1001 NOSIG=
201503011350 METAR COR EGLL 011350Z 24016KT 9999 FEW040 11/01 Q1001 NOSIG=
201503011320 METAR COR EGLL 011320Z 25015KT 9999 FEW040 11/02 Q1002 NOSIG=
201503011250 METAR COR EGLL 011250Z 26017KT 9999 FEW043 10/02 Q1002 NOSIG=
201503011220 METAR COR EGLL 011220Z 26016KT 9999 FEW035 10/02 Q1003 NOSIG=
201503011150 METAR EGLL 011150Z 26018KT 9999 -SHRA FEW027 SCT037 10/02
                        Q1003 NOSIG=
201503011120 METAR COR EGLL 011120Z 26021KT 9999 FEW036 SCT044 09/01 Q1003
                        NOSIG=
201503011050 METAR COR EGLL 011050Z 26018G28KT 9999 SCT033 SCT040 10/02
                        Q1003 NOSIG=
201503011020 METAR COR EGLL 011020Z 25017KT 9999 FEW032 09/02 Q1002 NOSIG=
201503010950 METAR EGLL 010950Z 25018KT 9999 FEW026 09/03 Q1002 NOSIG=
201503010920 METAR COR EGLL 010920Z 25016KT 9999 FEW028 08/03 Q1002 NOSIG=
201503010850 METAR EGLL 010850Z 25014KT 9999 FEW030 08/03 Q1002 NOSIG=
201503010820 METAR COR EGLL 010820Z 25014KT 9999 FEW015 SCT033 08/03 Q1001
                        NOSIG=
201503010750 METAR EGLL 010750Z 25014G24KT 9999 FEW032 08/03 Q1001 NOSIG=
201503010720 METAR COR EGLL 010720Z 24012KT 9999 FEW031 07/03 Q1001 NOSIG=
201503010650 METAR EGLL 010650Z 25014KT 9999 FEW031 07/03 Q1000 NOSIG=
201503010620 METAR COR EGLL 010620Z 25017KT 9999 FEW033 07/03 Q1000 NOSIG=
201503010550 METAR COR EGLL 010550Z 25016KT 9999 SCT035 08/03 Q1000 NOSIG=
201503010520 METAR COR EGLL 010520Z 26017KT CAVOK 08/03 Q0999 NOSIG=
201503010450 METAR COR EGLL 010450Z 26017KT CAVOK 08/03 Q0999 NOSIG=
201503010420 METAR EGLL 010420Z 27017KT CAVOK 08/03 Q0999=
201503010350 METAR COR EGLL 010350Z 26017KT 9999 FEW029 08/04 Q0998 TEMPO
                        -SHRA BKN014=
201503010320 METAR COR EGLL 010320Z 27020KT 9999 FEW029 09/04 Q0998 TEMPO
                        -SHRA BKN014=
201503010250 METAR COR EGLL 010250Z 25017KT 9999 SCT033 09/05 Q0998 NOSIG=
201503010220 METAR COR EGLL 010220Z 27019KT 9999 FEW030 SCT046 09/05 Q0998
                        NOSIG=
201503010150 METAR COR EGLL 010150Z 26020KT 9999 SCT030 SCT043 10/05 Q0998
                        NOSIG=
201503010120 METAR COR EGLL 010120Z 26016KT 9999 SCT030 BKN037 11/06 Q0997
                        NOSIG=
201503010050 METAR COR EGLL 010050Z 26015KT 9999 SCT030 BKN034 11/07 Q0997
                        NOSIG=
201503010020 METAR COR EGLL 010020Z 25014KT 9999 SCT020 BKN028 11/09 Q0996
                        NOSIG=
201502282350 METAR COR EGLL 282350Z 24014KT 9999 SCT016 BKN022 11/10 Q0996
                        NOSIG=
201502282320 METAR COR EGLL 282320Z 22013KT 9999 SCT012 BKN026 10/10 Q0996
                        NOSIG=
201502282250 METAR EGLL 282250Z 22013KT 9999 FEW006 SCT008 BKN016 10/09
                        Q0997 NOSIG=
201502282220 METAR COR EGLL 282220Z 22014KT 9999 FEW008 SCT011 BKN022
                        10/09 Q0997 NOSIG=
201502282150 METAR EGLL 282150Z 21015KT 9999 FEW007 BKN010 09/08 Q0997
                        BECMG SCT010=
201502282120 METAR COR EGLL 282120Z 20017KT 9999 -RA FEW006 BKN010 09/08
                        Q0998 RERA BECMG SCT010=
201502282050 METAR EGLL 282050Z 20017KT 8000 RA FEW006 BKN011 09/08 Q0999
                        TEMPO 4500 RA BKN008=
201502282020 METAR COR EGLL 282020Z 20013KT 180V250 8000 -RA FEW010 BKN012
                        09/08 Q1000 TEMPO 4500 RA BKN009=
201502281950 METAR COR EGLL 281950Z 21014KT 9000 -RA BKN016 09/07 Q1000
                        BECMG BKN014=
201502281920 METAR COR EGLL 281920Z 21016KT 9999 -RA BKN018 10/07 Q1001
                        BECMG BKN012=
201502281850 METAR EGLL 281850Z 21014KT 9999 BKN018 10/07 Q1001 BECMG
                        BKN012=
201502281820 METAR COR EGLL 281820Z 22014G26KT 9999 SCT018 SCT024 10/07
                        Q1002 TEMPO BKN012=
201502281750 METAR COR EGLL 281750Z 21014KT 9999 FEW018 SCT022 10/07 Q1002
                        TEMPO BKN010=
201502281720 METAR COR EGLL 281720Z 22011KT 9999 SCT018 BKN023 10/07 Q1003
                        BECMG BKN012=
201502281650 METAR EGLL 281650Z 22012KT 9999 BKN020 BKN032 10/07 Q1004
                        BECMG BKN012=
201502281620 METAR COR EGLL 281620Z 21012KT 180V250 9999 FEW013 SCT017
                        BKN026 10/08 Q1004 BECMG BKN014=
201502281550 METAR COR EGLL 281550Z 21011KT 9999 FEW013 SCT017 BKN030
                        10/08 Q1005 NOSIG=
201502281520 METAR COR EGLL 281520Z 20011KT 9999 FEW018 SCT023 10/08 Q1005
                        NOSIG=
201502281450 METAR EGLL 281450Z 22013KT 9999 SCT011 BKN018 10/08 Q1005=
201502281420 METAR COR EGLL 281420Z 20012KT 9999 SCT007 BKN010 09/08 Q1006
                        BECMG SCT010 BKN020=
201502281350 METAR COR EGLL 281350Z 20012KT 9999 FEW006 SCT008 BKN013
                        09/08 Q1006 BECMG SCT012 BKN018=
201502281320 METAR COR EGLL 281320Z 20012KT 160V220 9000 FEW005 SCT006
                        BKN008 09/08 Q1007 BECMG SCT009 BKN018=
201502281250 METAR EGLL 281250Z 20013KT 6000 SCT006 BKN009 09/08 Q1008
                        BECMG SCT009 BKN018=
201502281220 METAR COR EGLL 281220Z 20014KT 8000 FEW006 BKN008 09/07 Q1008
                        BECMG SCT009 BKN018=
201502281150 METAR EGLL 281150Z 20012KT 9000 FEW006 BKN009 08/07 Q1009
                        BECMG SCT009 BKN015=
201502281120 METAR COR EGLL 281120Z 19012KT 8000 FEW006 BKN008 08/07 Q1009
                        TEMPO SCT008 BKN012=
201502281050 METAR COR EGLL 281050Z 19012G22KT 9999 FEW007 BKN008 08/07
                        Q1010 TEMPO SCT008 BKN012=
201502281020 METAR COR EGLL 281020Z 19011KT 9999 FEW007 SCT008 BKN011
                        08/07 Q1010 NOSIG=
201502280950 METAR EGLL 280950Z 19012KT 7000 -RA FEW006 SCT008 BKN011
                        07/07 Q1010 TEMPO BKN009=
201502280920 METAR COR EGLL 280920Z 19011KT 4600 -RADZ FEW005 SCT008 BKN010
                        07/06 Q1011 TEMPO 7000 -RA BKN009=
201502280850 METAR EGLL 280850Z 20013KT 7000 -RA FEW006 SCT009 BKN011
                        07/06 Q1011 TEMPO BKN009=
201502280820 METAR COR EGLL 280820Z 19013KT 9999 -RA FEW008 BKN011 07/05
                        Q1011 TEMPO BKN009=
201502280750 METAR EGLL 280750Z 20014KT 9999 FEW008 BKN010 07/05 Q1011
                        TEMPO BKN009=
201502280720 METAR COR EGLL 280720Z 19015KT 9999 FEW009 BKN011 07/05 Q1011
                        NOSIG=
201502280650 METAR COR EGLL 280650Z 19017KT 9999 SCT009 BKN011 07/05 Q1011
                        TEMPO BKN009=
201502280620 METAR COR EGLL 280620Z 19015KT 9999 BKN011 06/04 Q1012 TEMPO
                        BKN009=
201502280550 METAR COR EGLL 280550Z 19014KT 9999 BKN013 BKN019 07/04 Q1013
                        TEMPO SCT013=
201502280520 METAR COR EGLL 280520Z 20015KT 9999 BKN018 BKN042 07/03 Q1013
                        TEMPO -RA BKN014=
201502280450 METAR EGLL 280450Z 20013KT 9999 BKN026 BKN033 07/03 Q1013
                        TEMPO -RA BKN014=
201502280420 METAR COR EGLL 280420Z 20011KT 9999 BKN028 BKN033 07/03 Q1014
                        TEMPO -RA BKN014=
201502280350 METAR EGLL 280350Z 19012KT 9999 BKN031 BKN036 07/03 Q1014
                        TEMPO -RA BKN014=
201502280320 METAR COR EGLL 280320Z 19011KT 9999 OVC029 06/04 Q1015 TEMPO
                        -RA BKN014=
201502280250 METAR EGLL 280250Z 19009KT 9999 BKN031 06/04 Q1015 TEMPO
                        -RA BKN014=
201502280220 METAR EGLL 280220Z AUTO 19011KT 8000 -DZ BKN015 06/05 Q1016=
201502280150 METAR EGLL 280150Z AUTO 19010KT 9999 -DZ FEW011 SCT026 06/04
                        Q1016=
201502280120 METAR EGLL 280120Z AUTO 18010KT 9999 FEW014 BKN028 OVC045
                        06/04 Q1016=
201502280050 METAR COR EGLL 280050Z 18008KT 9999 FEW027 SCT030 06/04 Q1017
                        NOSIG=
201502280020 METAR COR EGLL 280020Z 19009KT 9999 -RA FEW028 SCT033 06/03
                        Q1017 NOSIG=
201502272350 METAR COR EGLL 272350Z 18008KT 9999 FEW044 05/03 Q1018 NOSIG=
201502272320 METAR COR EGLL 272320Z 18009KT CAVOK 05/02 Q1018 NOSIG=
201502272250 METAR COR EGLL 272250Z 20008KT CAVOK 05/02 Q1019 NOSIG=
201502272220 METAR COR EGLL 272220Z 20010KT 170V240 CAVOK 05/02 Q1019
                        NOSIG=
201502272150 METAR EGLL 272150Z 21009KT CAVOK 05/02 Q1019 NOSIG=
201502272120 METAR COR EGLL 272120Z 20008KT 170V250 CAVOK 05/02 Q1019
                        NOSIG=
201502272050 METAR COR EGLL 272050Z 20009KT 160V250 CAVOK 05/02 Q1019
                        NOSIG=
201502272020 METAR COR EGLL 272020Z 22009KT CAVOK 06/02 Q1019 NOSIG=
201502271950 METAR EGLL 271950Z 20009KT 180V250 CAVOK 06/02 Q1019 NOSIG=
201502271920 METAR COR EGLL 271920Z 21010KT 180V240 9999 FEW045 07/01
                        Q1020 NOSIG=
201502271850 METAR EGLL 271850Z 22007KT 9999 FEW047 07/M00 Q1020 NOSIG=
201502271820 METAR COR EGLL 271820Z 24008KT CAVOK 07/M01 Q1020 NOSIG=
201502271750 METAR COR EGLL 271750Z 24008KT 9999 FEW046 07/M01 Q1020 NOSIG=
201502271720 METAR COR EGLL 271720Z 27010KT 9999 FEW046 07/M01 Q1020 NOSIG=
201502271650 METAR EGLL 271650Z 26009KT 9999 FEW049 08/M02 Q1020 NOSIG=
201502271620 METAR COR EGLL 271620Z 27010KT 9999 FEW048 09/M01 Q1019 NOSIG=
201502271550 METAR EGLL 271550Z 26012KT 9999 FEW046 08/M01 Q1019 NOSIG=
201502271520 METAR COR EGLL 271520Z 28010KT 9999 FEW046 09/M01 Q1020 NOSIG=
201502271450 METAR EGLL 271450Z 26009KT 210V290 9999 FEW045 09/M01 Q1020
                        NOSIG=
201502271420 METAR COR EGLL 271420Z 28008KT 230V310 9999 SCT040 09/M01
                        Q1020 NOSIG=
201502271350 METAR COR EGLL 271350Z 27006KT 230V310 9999 FEW035 09/M00
                        Q1020 NOSIG=
201502271320 METAR COR EGLL 271320Z 26010KT 230V290 9999 FEW031 08/00
                        Q1020 NOSIG=
201502271250 METAR COR EGLL 271250Z 27009KT 240V310 9999 SCT031 08/01
                        Q1020 NOSIG=
201502271220 METAR COR EGLL 271220Z 27010KT 9999 FEW031 08/00 Q1020 NOSIG=
201502271150 METAR EGLL 271150Z 31007KT 270V350 9999 FEW031 08/01 Q1020
                        NOSIG=
201502271120 METAR COR EGLL 271120Z 28008KT 9999 FEW024 08/01 Q1020 NOSIG=
201502271050 METAR EGLL 271050Z 26006KT 230V330 9999 FEW016 06/01 Q1021
                        NOSIG=
201502271020 METAR COR EGLL 271020Z 26005KT 220V360 9999 FEW018 05/01
                        Q1021 NOSIG=
201502270950 METAR COR EGLL 270950Z 25006KT 9999 FEW016 05/01 Q1021 NOSIG=
201502270920 METAR COR EGLL 270920Z 22005KT CAVOK 04/00 Q1020 NOSIG=
201502270850 METAR COR EGLL 270850Z 23005KT CAVOK 03/00 Q1020 NOSIG=
201502270820 METAR COR EGLL 270820Z 23005KT CAVOK 02/M00 Q1020 NOSIG=
201502270750 METAR EGLL 270750Z 24006KT CAVOK 01/M01 Q1020 NOSIG=
201502270720 METAR COR EGLL 270720Z 23005KT 200V270 CAVOK 01/M01 Q1019
                        NOSIG=
201502270650 METAR EGLL 270650Z 26004KT 220V290 CAVOK 01/M01 Q1019 NOSIG=
201502270620 METAR COR EGLL 270620Z 27004KT CAVOK 01/M01 Q1019 NOSIG=
201502270550 METAR COR EGLL 270550Z 26004KT CAVOK 01/M01 Q1019 NOSIG=
201502270520 METAR COR EGLL 270520Z 27004KT CAVOK 00/M01 Q1018 NOSIG=
201502270450 METAR COR EGLL 270450Z 28004KT CAVOK 00/M01 Q1018 NOSIG=
201502270420 METAR COR EGLL 270420Z 28005KT CAVOK 01/M01 Q1018 NOSIG=
201502270350 METAR EGLL 270350Z 28006KT CAVOK 00/M01 Q1017 NOSIG=
201502270320 METAR EGLL 270320Z AUTO 27006KT 9999 NCD 00/M01 Q1017=
201502270250 METAR EGLL 270250Z 27006KT CAVOK 01/M01 Q1017 NOSIG=
201502270220 METAR EGLL 270220Z AUTO 28005KT 9999 ////// 00/M01 Q1017=
201502270150 METAR EGLL 270150Z AUTO 28005KT 9999 NCD 01/M01 Q1017=
201502270120 METAR EGLL 270120Z AUTO 28007KT 9999 NCD 01/M01 Q1017=
201502270050 METAR EGLL 270050Z 29006KT CAVOK 02/M01 Q1017 NOSIG=
201502270020 METAR COR EGLL 270020Z 29006KT CAVOK 03/M01 Q1017 NOSIG=
201502262350 METAR COR EGLL 262350Z 29008KT CAVOK 03/M01 Q1016 NOSIG=
201502262320 METAR COR EGLL 262320Z 28008KT CAVOK 03/M01 Q1016 NOSIG=
201502262250 METAR COR EGLL 262250Z 29006KT CAVOK 04/M01 Q1016 NOSIG=
201502262220 METAR COR EGLL 262220Z 30005KT CAVOK 04/M01 Q1016 NOSIG=
201502262150 METAR EGLL 262150Z 31007KT 9999 FEW048 05/M01 Q1015 NOSIG=
201502262120 METAR COR EGLL 262120Z 31007KT 9999 FEW044 05/M00 Q1015 NOSIG=
201502262050 METAR COR EGLL 262050Z 31007KT 9999 FEW048 05/M00 Q1015 NOSIG=
201502262020 METAR COR EGLL 262020Z 31009KT CAVOK 06/01 Q1014 NOSIG=
201502261950 METAR COR EGLL 261950Z 31006KT 290V350 CAVOK 06/01 Q1014
                        NOSIG=
201502261920 METAR COR EGLL 261920Z 31005KT CAVOK 06/02 Q1014 NOSIG=
201502261850 METAR EGLL 261850Z 31004KT 9999 FEW036 06/02 Q1014 NOSIG=
201502261820 METAR COR EGLL 261820Z 32007KT 9999 FEW036 07/03 Q1013 NOSIG=
201502261750 METAR EGLL 261750Z 32007KT 9999 FEW033 SCT046 07/03 Q1013
                        NOSIG=
201502261720 METAR COR EGLL 261720Z 33008KT 300V360 9999 -RA FEW026 BKN033
                        07/04 Q1012 NOSIG=
201502261650 METAR COR EGLL 261650Z 31008KT 290V360 9999 -RA SCT027 SCT032
                        09/04 Q1012 NOSIG=
201502261620 METAR COR EGLL 261620Z 31007KT 290V350 9999 FEW047 09/04
                        Q1011 NOSIG=
201502261550 METAR COR EGLL 261550Z 31009KT 9999 FEW020 SCT048 09/05 Q1011
                        NOSIG=
201502261520 METAR COR EGLL 261520Z 31008KT 9999 FEW018 SCT038 BKN043
                        09/06 Q1011 NOSIG=
201502261450 METAR COR EGLL 261450Z 32008KT 290V350 9999 FEW020 BKN040
                        10/06 Q1010 NOSIG=
201502261420 METAR COR EGLL 261420Z 31009KT 9999 FEW013 SCT019 BKN030
                        10/07 Q1010 NOSIG=
201502261350 METAR EGLL 261350Z 27010KT 9999 -RA SCT011 BKN018 11/10 Q1009
                        TEMPO RADZ BKN012=
201502261320 METAR EGLL 261320Z 26010KT 9999 -RA SCT012 BKN025 11/10 Q1009=
201502261250 METAR COR EGLL 261250Z 24010KT 9999 -RA SCT009 BKN020 11/10
                        Q1009 TEMPO BKN013=
201502261220 METAR EGLL 261220Z 23010KT 5000 -RA FEW007 SCT009 BKN012
                        11/10 Q1009 TEMPO 4000 RADZ BKN008=
201502261150 METAR EGLL 261150Z 23010KT 9999 -RA FEW008 SCT013 BKN021
                        11/10 Q1009 TEMPO 4000 -RADZ BKN014=
201502261120 METAR COR EGLL 261120Z 22010KT 9000 -RA FEW006 SCT009 BKN012
                        11/10 Q1009 TEMPO 4000 RADZ=
201502261050 METAR COR EGLL 261050Z 22012KT 9999 -RA SCT006 BKN008 10/10
                        Q1010 TEMPO 4000 DZRA=
201502261020 METAR COR EGLL 261020Z 23012KT 8000 -RADZ SCT006 BKN008 11/09
                        Q1010 TEMPO 4000 RADZ=
201502260950 METAR EGLL 260950Z 21012KT 9999 SCT007 BKN008 10/09 Q1010
                        TEMPO 4000 RADZ=
201502260920 METAR COR EGLL 260920Z 20011KT 9999 BKN007 10/09 Q1010 TEMPO
                        4000 RADZ=
201502260850 METAR EGLL 260850Z 21011KT 9999 SCT007 BKN008 10/09 Q1011
                        TEMPO 4000 RADZ=
201502260820 METAR COR EGLL 260820Z 21010KT 9999 FEW006 SCT007 BKN008
                        10/09 Q1011 TEMPO 4000 RADZ=
201502260750 METAR EGLL 260750Z 21010KT 9999 FEW007 SCT008 BKN009 10/09
                        Q1011 TEMPO 4000 RADZ=
201502260720 METAR COR EGLL 260720Z 21009KT 170V250 9999 FEW006 SCT007
                        BKN008 10/09 Q1012 TEMPO 4000 RADZ=
201502260650 METAR EGLL 260650Z 20009G19KT 170V240 9999 -DZ SCT007 BKN008
                        10/09 Q1012 TEMPO 4000 -RADZ=
201502260620 METAR COR EGLL 260620Z 22008KT 200V270 9999 BKN007 10/09
                        Q1013 TEMPO 4000 -RADZ=
201502260550 METAR COR EGLL 260550Z 23008KT 9999 BKN007 10/09 Q1013 TEMPO
                        4000 -RADZ BKN004=
201502260520 METAR COR EGLL 260520Z 22008KT 9999 BKN007 10/09 Q1013 TEMPO
                        4000 -RADZ BKN005=
201502260450 METAR COR EGLL 260450Z 21008KT 9999 BKN008 10/09 Q1013 TEMPO
                        4000 -RADZ BKN005=
201502260420 METAR COR EGLL 260420Z 22008KT 9999 FEW006 BKN009 09/09 Q1014
                        TEMPO 4000 -RADZ BKN005=
201502260350 METAR COR EGLL 260350Z 21006KT 6000 BKN005 09/09 Q1014 TEMPO
                        3000 BR BKN004=
201502260320 METAR COR EGLL 260320Z 20007KT 4800 -RA OVC005 09/09 Q1014
                        TEMPO 3000 BR BKN004=
201502260220 METAR EGLL 260220Z AUTO 21005KT 8000 DZ OVC008 09/08 Q1015=
201502260150 METAR EGLL 260150Z AUTO 20006KT 9999 -RA OVC009 10/08 Q1016=
201502260120 METAR EGLL 260120Z AUTO 19007KT 9999 OVC009 10/08 Q1016=
201502260050 METAR EGLL 260050Z 21005KT 9999 BKN012 10/08 Q1016 TEMPO
                        BKN008=
201502260020 METAR COR EGLL 260020Z 21006KT 9999 BKN012 10/08 Q1016 TEMPO
                        BKN008=
201502252350 METAR COR EGLL 252350Z 20007KT 9999 BKN012 10/08 Q1016 NOSIG=
201502252320 METAR EGLL 252320Z 19008KT 9999 BKN018 10/08 Q1016=
201502252250 METAR EGLL 252250Z 20007KT 9999 SCT018 BKN025 10/08 Q1017
                        TEMPO BKN012=
201502252220 METAR COR EGLL 252220Z 20008G20KT 170V250 9999 BKN027 BKN033
                        BKN042 10/07 Q1017 TEMPO BKN012=
201502252150 METAR COR EGLL 252150Z 20008KT 160V250 9999 FEW037 SCT046
                        10/07 Q1017 TEMPO BKN012=
201502252120 METAR COR EGLL 252120Z 22008KT 180V250 CAVOK 10/07 Q1017
                        TEMPO BKN012=
201502252050 METAR COR EGLL 252050Z 22007KT 190V250 CAVOK 10/07 Q1017
                        TEMPO BKN012=
201502252020 METAR COR EGLL 252020Z 21006KT 9999 FEW032 10/07 Q1017 TEMPO
                        BKN012=
201502251950 METAR EGLL 251950Z 22007KT 190V250 9999 FEW032 10/06 Q1017
                        TEMPO BKN012=
201502251920 METAR COR EGLL 251920Z 22007KT 170V250 9999 SCT032 10/06
                        Q1017 NOSIG=
201502251850 METAR EGLL 251850Z 18006KT 150V220 9999 -RA SCT039 11/06
                        Q1017 TEMPO BKN014=
201502251820 METAR COR EGLL 251820Z 19006KT 150V250 9999 -RA SCT040 SCT043
                        11/06 Q1017 TEMPO BKN012=
201502251750 METAR EGLL 251750Z 24006KT 9999 SCT042 SCT045 11/06 Q1017
                        NOSIG=
201502251720 METAR COR EGLL 251720Z 27007KT 9999 FEW043 11/06 Q1017 NOSIG=
201502251650 METAR EGLL 251650Z 26006KT 220V280 9999 SCT030 11/06 Q1017
                        NOSIG=
201502251620 METAR COR EGLL 251620Z VRB03KT 9999 FEW028 SCT031 11/06 Q1016
                        NOSIG=
201502251550 METAR EGLL 251550Z 28006KT 9999 SCT034 11/05 Q1016 NOSIG=
201502251520 METAR COR EGLL 251520Z 29005KT 260V330 9999 SCT027 12/05
                        Q1016 NOSIG=
201502251450 METAR COR EGLL 251450Z 30006KT 9999 SCT027 12/06 Q1016 NOSIG=
201502251420 METAR COR EGLL 251420Z 29007KT 260V320 9999 SCT027 12/06
                        Q1016 NOSIG=
201502251350 METAR EGLL 251350Z AUTO 28005KT 240V310 9999 FEW025 SCT041
                        11/06 Q1016=
201502251320 METAR COR EGLL 251320Z 26005KT 210V330 9999 SCT020 SCT032
                        10/07 Q1015 NOSIG=
201502251250 METAR EGLL 251250Z 28006KT 9999 FEW020 BKN039 10/07 Q1016
                        NOSIG=
201502251220 METAR COR EGLL 251220Z 29005KT 260V340 9999 FEW022 BKN032
                        10/07 Q1015 NOSIG=
201502251150 METAR COR EGLL 251150Z 29006KT 240V320 9999 FEW013 SCT033
                        10/07 Q1015 NOSIG=
201502251120 METAR COR EGLL 251120Z 28007KT 9999 FEW008 SCT012 BKN027
                        09/07 Q1015 NOSIG=
201502251050 METAR COR EGLL 251050Z 28008KT 9999 SCT011 BKN016 09/07 Q1015
                        NOSIG=
201502251020 METAR COR EGLL 251020Z 26007KT 9999 FEW006 SCT008 BKN010
                        08/07 Q1014 BECMG SCT012=
201502250950 METAR COR EGLL 250950Z 24006KT 7000 FEW006 SCT009 BKN012
                        08/07 Q1014 BECMG SCT012=
201502250920 METAR COR EGLL 250920Z 23004KT 190V280 6000 -DZ BKN011 07/06
                        Q1014 BECMG NSW SCT013 BKN020=
201502250850 METAR EGLL 250850Z 22006KT 9999 BKN018 07/06 Q1014 TEMPO
                        -RA BKN014=
201502250820 METAR COR EGLL 250820Z 21005KT 9999 SCT018 BKN040 07/06 Q1013
                        TEMPO -RA BKN013=
201502250750 METAR EGLL 250750Z 22005KT 180V260 9999 -RA SCT016 BKN038
                        07/06 Q1013 TEMPO BKN013=
201502250720 METAR COR EGLL 250720Z 21006KT 180V250 9999 -RA FEW011 BKN031
                        06/06 Q1013 TEMPO BKN013=
201502250650 METAR EGLL 250650Z 21006KT 9999 -RA SCT012 BKN037 06/06 Q1013
                        TEMPO BKN013=
201502250620 METAR COR EGLL 250620Z 20006KT 160V260 9999 -RA SCT011 BKN030
                        06/06 Q1013 TEMPO BKN012=
201502250550 METAR COR EGLL 250550Z 20005KT 9000 -RA SCT011 SCT020 06/05
                        Q1013 TEMPO BKN012=
201502250520 METAR COR EGLL 250520Z 22006KT 9000 -RA BKN032 06/05 Q1013
                        TEMPO BKN012=
201502250450 METAR COR EGLL 250450Z 21007KT 9999 -RA FEW018 SCT037 07/05
                        Q1012 TEMPO BKN012=
201502250420 METAR COR EGLL 250420Z 21007KT 9999 -RA FEW017 SCT038 07/05
                        Q1012 TEMPO BKN012=
201502250350 METAR EGLL 250350Z 20007KT 9999 SCT020 06/04 Q1012 TEMPO
                        BKN012=
201502250320 METAR COR EGLL 250320Z 22007KT 9999 FEW022 06/04 Q1013 NOSIG=
201502250250 METAR EGLL 250250Z AUTO 21007KT 9999 FEW022 06/04 Q1013=
201502250220 METAR EGLL 250220Z AUTO 21007KT 9999 FEW022 SCT032 06/04
                        Q1013=
201502250150 METAR EGLL 250150Z AUTO 21006KT 9999 NCD 05/03 Q1013=
201502250120 METAR EGLL 250120Z 23007KT CAVOK 05/03 Q1014=
201502250050 METAR COR EGLL 250050Z 21006KT 9999 FEW023 05/03 Q1014 NOSIG=
201502250020 METAR COR EGLL 250020Z 23007KT 9999 SCT027 SCT032 05/03 Q1014
                        NOSIG=
201502242350 METAR EGLL 242350Z 22008KT 9999 FEW040 05/02 Q1014 NOSIG=
201502242320 METAR COR EGLL 242320Z 23008KT CAVOK 05/02 Q1014 NOSIG=
201502242250 METAR EGLL 242250Z 21008KT CAVOK 05/01 Q1014 NOSIG=
201502242220 METAR COR EGLL 242220Z 24008KT CAVOK 05/01 Q1014 NOSIG=
201502242150 METAR EGLL 242150Z 23010KT 9999 FEW027 05/01 Q1014 NOSIG=
201502242120 METAR COR EGLL 242120Z 23010KT 200V260 9999 SCT027 05/01
                        Q1014 NOSIG=
201502242050 METAR COR EGLL 242050Z 23009KT 9999 FEW027 SCT048 06/01 Q1014
                        NOSIG=
201502242020 METAR COR EGLL 242020Z 25011KT CAVOK 06/01 Q1014 NOSIG=
201502241950 METAR EGLL 241950Z 26013KT CAVOK 06/01 Q1013 NOSIG=
201502241920 METAR COR EGLL 241920Z 25013KT CAVOK 06/00 Q1013 NOSIG=
201502241850 METAR EGLL 241850Z 25011KT CAVOK 07/00 Q1013 NOSIG=
201502241820 METAR EGLL 241820Z AUTO 27015KT 9999 NCD 07/00 Q1012=
201502241750 METAR COR EGLL 241750Z 28012KT CAVOK 08/M01 Q1012 NOSIG=
201502241720 METAR COR EGLL 241720Z 29012KT 9999 FEW040 08/M02 Q1011 NOSIG=
201502241650 METAR COR EGLL 241650Z 28009KT 9999 FEW036 08/M01 Q1011 NOSIG=
201502241620 METAR COR EGLL 241620Z 28014KT 9999 FEW048 09/M03 Q1010 NOSIG=
201502241550 METAR COR EGLL 241550Z 28018G29KT 9999 FEW044 09/M02 Q1009
                        NOSIG=
201502241520 METAR COR EGLL 241520Z 27018KT 9999 FEW045 09/M01 Q1009 NOSIG=
201502241450 METAR EGLL 241450Z 29013KT 9999 SCT045 10/01 Q1008 NOSIG=
201502241420 METAR COR EGLL 241420Z 27017KT 9999 FEW046 09/01 Q1008 NOSIG=
201502241350 METAR EGLL 241350Z AUTO 27013KT 9999 SCT042 09/00 Q1007=
201502241320 METAR COR EGLL 241320Z 29009KT 9999 FEW037 BKN048 09/01 Q1007
                        NOSIG=
201502241250 METAR EGLL 241250Z 29012KT 9999 FEW045 BKN049 09/01 Q1007
                        NOSIG=
201502241220 METAR COR EGLL 241220Z 29015KT 9999 FEW035 BKN049 08/02 Q1006
                        NOSIG=
201502241150 METAR COR EGLL 241150Z 29014KT 9999 SCT031 BKN040 08/02 Q1006
                        NOSIG=
201502241120 METAR COR EGLL 241120Z 27013KT 9999 SCT032 BKN038 08/02 Q1006
                        NOSIG=
201502241050 METAR COR EGLL 241050Z 28012KT 9999 BKN030 08/03 Q1005 NOSIG=
201502241020 METAR COR EGLL 241020Z 29014KT 9999 BKN029 08/03 Q1004 NOSIG=
201502240950 METAR EGLL 240950Z 28012KT 9999 FEW034 08/03 Q1004 NOSIG=
201502240920 METAR COR EGLL 240920Z 28011KT CAVOK 07/03 Q1003 NOSIG=
201502240850 METAR EGLL 240850Z AUTO 27008KT 9999 NCD 06/02 Q1002=
201502240820 METAR COR EGLL 240820Z 23008KT 9999 FEW030 05/02 Q1002 NOSIG=
201502240750 METAR EGLL 240750Z VRB06KT 9999 FEW030 04/02 Q1001=
201502240720 METAR COR EGLL 240720Z 24008KT 9999 FEW030 04/02 Q1000 NOSIG=
201502240650 METAR COR EGLL 240650Z 24010KT 9999 FEW030 05/02 Q0999 NOSIG=
201502240620 METAR COR EGLL 240620Z 25010KT 9999 FEW035 04/02 Q0998 NOSIG=
201502240550 METAR EGLL 240550Z 27011KT CAVOK 04/02 Q0997 NOSIG=
201502240520 METAR COR EGLL 240520Z 25011KT 9999 FEW023 04/02 Q0996 NOSIG=
201502240450 METAR EGLL 240450Z 25014KT 9999 FEW022 05/02 Q0996 NOSIG=
201502240420 METAR COR EGLL 240420Z 25014KT 9999 FEW023 05/02 Q0995 NOSIG=
201502240350 METAR EGLL 240350Z 25017KT 9999 -SHRA FEW024 SCT028 06/02
                        Q0995 NOSIG=
201502240320 METAR COR EGLL 240320Z 24015KT CAVOK 05/02 Q0994 NOSIG=
201502240250 METAR EGLL 240250Z 24017KT CAVOK 06/02 Q0994 NOSIG=
201502240220 METAR EGLL 240220Z AUTO 24015KT 9999 SCT025 SCT029 06/02
                        Q0993 REDZ=
201502240150 METAR EGLL 240150Z AUTO 25017KT 9999 -RA FEW025/// BKN031///
                        //////TCU 06/02 Q0993=
201502240120 METAR EGLL 240120Z AUTO 23016KT 9999 SCT031/// SCT038///
                        //////TCU 05/02 Q0993=
201502240050 METAR EGLL 240050Z 23014KT 9999 FEW043 05/02 Q0993 NOSIG=
201502240020 METAR COR EGLL 240020Z 24014KT 9999 FEW030 05/02 Q0993 NOSIG=
201502232350 METAR EGLL 232350Z 24015KT 9999 FEW030 SCT043 05/02 Q0993
                        NOSIG=
201502232320 METAR COR EGLL 232320Z 24014KT 9999 FEW025 SCT031 05/02 Q0992
                        RESHRA NOSIG=
201502232250 METAR EGLL 232250Z 24017KT 8000 SHRA BKN018 05/02 Q0992 BECMG
                        NSW=
201502232220 METAR COR EGLL 232220Z 23016KT 9999 FEW040 05/01 Q0992 TEMPO
                        SHRA=
201502232150 METAR COR EGLL 232150Z 23015KT 9999 FEW020 05/01 Q0992 NOSIG=
201502232120 METAR COR EGLL 232120Z 23016KT CAVOK 05/00 Q0992 NOSIG=
201502232050 METAR COR EGLL 232050Z 23013KT CAVOK 05/00 Q0992 NOSIG=
201502232020 METAR COR EGLL 232020Z 23014KT 9999 FEW025 04/00 Q0992 NOSIG=
201502231950 METAR EGLL 231950Z 21013KT 9999 FEW033 04/00 Q0992 NOSIG=
201502231920 METAR COR EGLL 231920Z 21011KT 190V250 9999 FEW036 04/00
                        Q0992 NOSIG=
201502231850 METAR EGLL 231850Z 23014KT 9999 FEW036 04/M00 Q0992 NOSIG=
201502231820 METAR COR EGLL 231820Z 22012KT 9999 FEW048 04/M00 Q0992 NOSIG=
201502231750 METAR COR EGLL 231750Z 23013KT 9999 FEW045 05/M00 Q0992 NOSIG=
201502231720 METAR COR EGLL 231720Z 24015KT 9999 FEW045 05/M00 Q0992 NOSIG=
201502231650 METAR EGLL 231650Z 24018KT 9999 FEW028 06/M00 Q0991 NOSIG=
201502231620 METAR COR EGLL 231620Z 23016G30KT 9999 FEW035 07/M01 Q0991
                        TEMPO 5000 SHRAGS BKN014CB=
201502231550 METAR EGLL 231550Z 25016KT 9999 FEW031 SCT037 06/M00 Q0991
                        TEMPO 5000 SHRAGS BKN014CB=
201502231520 METAR COR EGLL 231520Z 24016KT 9999 FEW032 SCT034 06/00 Q0991
                        TEMPO 5000 SHRAGS BKN014CB=
201502231450 METAR COR EGLL 231450Z 24018KT 9999 FEW029 07/00 Q0991 TEMPO
                        5000 SHRAGS BKN014CB=
201502231420 METAR COR EGLL 231420Z 26021G31KT 9999 SCT038 SCT043 07/M01
                        Q0991 TEMPO 5000 SHRAGS BKN014CB=
201502231350 METAR COR EGLL 231350Z 24019KT 9999 FEW038 08/M00 Q0991 TEMPO
                        5000 SHRAGS BKN014CB=
201502231320 METAR COR EGLL 231320Z 24018KT 9999 FEW036 08/M01 Q0991 TEMPO
                        5000 SHRAGS BKN014CB=
201502231250 METAR COR EGLL 231250Z 24019KT 9999 VCSH FEW036 SCT040 08/M01
                        Q0991 TEMPO 5000 SHRAGS BKN014CB=
201502231220 METAR COR EGLL 231220Z 25015KT 9999 FEW037 SCT046 07/M00
                        Q0991 TEMPO 5000 SHRAGS BKN014=
201502231150 METAR EGLL 231150Z 24016KT 9999 FEW035 SCT042 07/00 Q0992
                        TEMPO 5000 SHRAGS BKN014CB=
201502231120 METAR COR EGLL 231120Z 23014KT 9999 FEW025 FEW031TCU SCT041
                        07/01 Q0992 TEMPO 5000 SHRAGS BKN014=
201502231050 METAR EGLL 231050Z 21009KT 9999 FEW025CB FEW031 SCT041 06/02
                        Q0992 TEMPO 5000 SHRAGS BKN014CB=
201502231020 METAR COR EGLL 231020Z 22012KT 9999 FEW025CB 06/02 Q0993
                        TEMPO 5000 SHRAGS BKN014CB=
201502230950 METAR COR EGLL 230950Z 22013KT 9999 FEW048 06/01 Q0992 TEMPO
                        5000 SHRAGS BKN014CB=
201502230920 METAR COR EGLL 230920Z 25012KT 9999 FEW048 06/M00 Q0992 TEMPO
                        5000 SHRAGS BKN014=
201502230850 METAR COR EGLL 230850Z 24015KT 9999 FEW048 06/01 Q0993 TEMPO
                        5000 SHRAGS BKN014=
201502230820 METAR COR EGLL 230820Z 23012KT CAVOK 05/02 Q0993 TEMPO 5000
                        SHRAGS BKN014=
201502230750 METAR COR EGLL 230750Z 21008KT 190V260 CAVOK 04/02 Q0992
                        TEMPO SHRAGS=
201502230720 METAR COR EGLL 230720Z 22009KT CAVOK 04/01 Q0992 NOSIG=
201502230650 METAR EGLL 230650Z 23011KT CAVOK 04/01 Q0992 TEMPO SHRA=
201502230620 METAR COR EGLL 230620Z 23010KT CAVOK 05/02 Q0992 TEMPO SHRA=
201502230550 METAR COR EGLL 230550Z 23010KT 9999 FEW025 05/02 Q0992 TEMPO
                        SHRA=
201502230520 METAR COR EGLL 230520Z 25007KT 220V290 9999 FEW025 05/02
                        Q0992 TEMPO SHRA=
201502230450 METAR EGLL 230450Z 24008KT 9999 FEW035 05/02 Q0992 TEMPO
                        SHRA=
201502230420 METAR COR EGLL 230420Z 24011KT 9999 FEW048 06/02 Q0992 NOSIG=
201502230350 METAR COR EGLL 230350Z 25010KT CAVOK 06/02 Q0992 NOSIG=
201502230320 METAR COR EGLL 230320Z 26012KT CAVOK 06/03 Q0991 NOSIG=
201502230250 METAR COR EGLL 230250Z 26013KT CAVOK 07/03 Q0991 NOSIG=
201502230220 METAR EGLL 230220Z AUTO 27008KT 9999 NCD 06/04 Q0992=
201502230150 METAR EGLL 230150Z AUTO 28009KT 9999 SCT023 SCT029 06/04
                        Q0992 REDZ=
201502230120 METAR EGLL 230120Z AUTO 25014KT 9999 FEW031 SCT037 08/04
                        Q0991=
201502230050 METAR EGLL 230050Z 26017KT CAVOK 08/04 Q0991 NOSIG=
201502230020 METAR COR EGLL 230020Z 26018KT CAVOK 09/04 Q0991 NOSIG=
201502222350 METAR COR EGLL 222350Z 25018KT 9999 FEW015 09/05 Q0991 NOSIG=
201502222320 METAR COR EGLL 222320Z 25019KT 9999 FEW015 10/06 Q0990 NOSIG=
201502222250 METAR COR EGLL 222250Z 24016KT 9999 FEW014 10/08 Q0990 NOSIG=
201502222220 METAR COR EGLL 222220Z 21012KT 9999 FEW004 SCT007 BKN013
                        09/08 Q0990 BECMG SCT015=
201502222150 METAR EGLL 222150Z 21010KT 5000 BR SCT004 BKN008 08/08 Q0991
                        NOSIG=
201502222120 METAR COR EGLL 222120Z 20012KT 6000 SCT004 BKN008 08/07 Q0991
                        NOSIG=
201502222050 METAR COR EGLL 222050Z 20014KT 6000 -DZ FEW005 BKN007 07/07
                        Q0992 NOSIG=
201502222020 METAR COR EGLL 222020Z 20017KT 7000 -DZ FEW006 BKN008 07/06
                        Q0992 NOSIG=
201502221950 METAR COR EGLL 221950Z 20017KT 4600 -DZ FEW006 BKN008 07/06
                        Q0993 TEMPO 7000=
201502221920 METAR COR EGLL 221920Z 20018G28KT 180V240 7000 -DZ OVC008
                        06/05 Q0994 TEMPO 4000 DZ=
201502221850 METAR COR EGLL 221850Z 20019KT 7000 -DZ BKN008 06/05 Q0994
                        TEMPO 4000 DZ=
201502221820 METAR COR EGLL 221820Z 20020KT 8000 BKN011 06/05 Q0995 TEMPO
                        RADZ BKN009=
201502221750 METAR EGLL 221750Z 20017G27KT 9999 -RA BKN010 05/04 Q0996
                        RERA TEMPO RA BKN009=
201502221720 METAR COR EGLL 221720Z 20017G28KT 170V230 6000 RA BKN011
                        05/04 Q0997 REDZ RERA TEMPO 4500
                        RADZ BKN009=
201502221650 METAR EGLL 221650Z 19017KT 8000 RADZ BKN013 04/03 Q0998 TEMPO
                        BKN009=
201502221620 METAR COR EGLL 221620Z 20017KT 9999 -RA BKN013 05/03 Q0999
                        TEMPO RADZ BKN009=
201502221550 METAR EGLL 221550Z 20019KT 9999 -RA BKN013 05/03 Q0999 TEMPO
                        RADZ BKN009=
201502221520 METAR COR EGLL 221520Z 20019KT 9999 -RADZ FEW010 OVC017 05/03
                        Q1000 RERA REDZ TEMPO 4800 RADZ BKN012=
201502221450 METAR EGLL 221450Z 20018KT 9999 RADZ FEW012 OVC017 05/04
                        Q1001 BECMG BKN012=
201502221420 METAR COR EGLL 221420Z 20016KT 170V230 9000 RA FEW014 BKN019
                        06/04 Q1002 TEMPO 4800 RADZ BKN012=
201502221350 METAR COR EGLL 221350Z 20015KT 9999 -DZ SCT020 BKN029 06/03
                        Q1003 BECMG RA BKN014=
201502221320 METAR COR EGLL 221320Z 20017KT 9999 FEW025 SCT038 BKN043
                        06/03 Q1004 BECMG RA BKN014=
201502221250 METAR COR EGLL 221250Z 20015KT 9999 -DZ BKN024 07/02 Q1004
                        BECMG RA BKN014=
201502221220 METAR COR EGLL 221220Z 19016KT 170V240 9999 SCT034 07/02
                        Q1005 TEMPO RA BKN014=
201502221150 METAR EGLL 221150Z 20013KT 9999 FEW047 06/02 Q1006 NOSIG=
201502221120 METAR COR EGLL 221120Z 20013KT 170V240 CAVOK 06/02 Q1007
                        NOSIG=
201502221050 METAR COR EGLL 221050Z 20012KT CAVOK 05/01 Q1007 NOSIG=
201502221020 METAR COR EGLL 221020Z 19008KT 140V250 CAVOK 04/01 Q1008
                        NOSIG=
201502220950 METAR EGLL 220950Z 19008KT 160V240 CAVOK 03/01 Q1008 NOSIG=
201502220920 METAR COR EGLL 220920Z 21008KT CAVOK 02/01 Q1009 NOSIG=
201502220850 METAR EGLL 220850Z 19007KT 170V230 CAVOK 01/00 Q1009 NOSIG=
201502220820 METAR COR EGLL 220820Z 18006KT 130V230 CAVOK M00/M01 Q1009
                        NOSIG=
201502220750 METAR EGLL 220750Z 20005KT 160V240 CAVOK M01/M01 Q1009 NOSIG=
201502220720 METAR COR EGLL 220720Z 21005KT 170V240 CAVOK M01/M02 Q1009
                        NOSIG=
201502220650 METAR COR EGLL 220650Z 19004KT CAVOK M02/M03 Q1009 NOSIG=
201502220620 METAR COR EGLL 220620Z 23004KT 200V260 CAVOK M01/M02 Q1009
                        NOSIG=
201502220550 METAR COR EGLL 220550Z 21004KT CAVOK M01/M02 Q1009 NOSIG=
201502220520 METAR COR EGLL 220520Z 23004KT 180V360 CAVOK M01/M01 Q1009
                        NOSIG=
201502220450 METAR COR EGLL 220450Z 22005KT CAVOK M01/M01 Q1009 NOSIG=
201502220420 METAR COR EGLL 220420Z 19004KT CAVOK M01/M02 Q1009 NOSIG=
201502220350 METAR EGLL 220350Z 18005KT CAVOK M01/M01 Q1009=
201502220320 METAR COR EGLL 220320Z 18003KT CAVOK M01/M02 Q1009 NOSIG=
201502220250 METAR EGLL 220250Z 22003KT CAVOK M00/M01 Q1009 NOSIG=
201502220220 METAR COR EGLL 220220Z 25003KT CAVOK 00/M01 Q1009 NOSIG=
201502220150 METAR EGLL 220150Z 20005KT CAVOK 00/M01 Q1008 NOSIG=
201502220120 METAR COR EGLL 220120Z 24002KT CAVOK 01/M01 Q1008 NOSIG=
201502220050 METAR COR EGLL 220050Z 28004KT CAVOK 01/M00 Q1008 NOSIG=
201502220020 METAR COR EGLL 220020Z 27005KT CAVOK 01/M01 Q1008 NOSIG=
201502212350 METAR EGLL 212350Z 27006KT CAVOK 01/M00 Q1008 NOSIG=
201502212320 METAR COR EGLL 212320Z 27007KT CAVOK 01/M00 Q1007 NOSIG=
201502212250 METAR EGLL 212250Z 29006KT CAVOK 01/M00 Q1007 NOSIG=
201502212220 METAR COR EGLL 212220Z 27006KT CAVOK 02/00 Q1007 NOSIG=
201502212150 METAR EGLL 212150Z 29005KT CAVOK 03/00 Q1007 NOSIG=
201502212120 METAR COR EGLL 212120Z 30004KT CAVOK 03/00 Q1006 NOSIG=
201502212050 METAR COR EGLL 212050Z 29003KT CAVOK 03/00 Q1006 NOSIG=
201502212020 METAR COR EGLL 212020Z 29005KT CAVOK 03/M00 Q1006 NOSIG=
201502211950 METAR COR EGLL 211950Z 29004KT 9999 FEW048 03/M00 Q1005 NOSIG=
201502211920 METAR COR EGLL 211920Z 30004KT CAVOK 04/M00 Q1005 NOSIG=
201502211850 METAR COR EGLL 211850Z 30005KT CAVOK 05/M00 Q1005 NOSIG=
201502211820 METAR COR EGLL 211820Z 31004KT 9999 FEW025 05/M01 Q1004 NOSIG=
201502211750 METAR EGLL 211750Z 31008KT 9999 VCSH SCT025CB 06/M01 Q1004
                        NOSIG=
201502211720 METAR COR EGLL 211720Z 31007KT 9999 VCSH FEW042CB 07/M01
                        Q1003 NOSIG=
201502211650 METAR EGLL 211650Z 31008KT 270V330 9999 VCSH FEW042 07/M02
                        Q1003 NOSIG=
201502211620 METAR COR EGLL 211620Z 31009KT 9999 SCT042 07/M01 Q1002 NOSIG=
201502211550 METAR EGLL 211550Z 32008KT 280V360 9999 SCT042 07/M01 Q1002
                        NOSIG=
201502211520 METAR COR EGLL 211520Z 30010KT 250V320 9999 FEW041 07/M01
                        Q1002 NOSIG=
201502211450 METAR EGLL 211450Z 30010KT 280V340 9999 FEW030 07/M00 Q1002
                        NOSIG=
201502211420 METAR COR EGLL 211420Z 29011KT 270V340 9999 FEW025 SCT045
                        07/M01 Q1001 NOSIG=
201502211350 METAR COR EGLL 211350Z 31012KT 290V020 9999 FEW025 BKN044
                        07/M01 Q1001 NOSIG=
201502211320 METAR COR EGLL 211320Z 31012KT 9999 FEW024 BKN036 07/M00
                        Q1001 NOSIG=
201502211250 METAR EGLL 211250Z 31007KT 280V350 9999 VCSH FEW027 BKN037
                        06/00 Q1001 NOSIG=
201502211220 METAR COR EGLL 211220Z 31009KT 290V350 9999 FEW027 BKN033
                        06/00 Q1001 NOSIG=
201502211150 METAR EGLL 211150Z 30011KT 9999 FEW023 BKN033 06/01 Q1001
                        NOSIG=
201502211120 METAR COR EGLL 211120Z 30010KT 9999 FEW019 SCT024 05/01 Q1001
                        NOSIG=
201502211050 METAR EGLL 211050Z 31009KT 270V340 9999 SCT018 SCT025 05/02
                        Q1001 NOSIG=
201502211020 METAR COR EGLL 211020Z 29007KT 9999 FEW014 04/02 Q1001 NOSIG=
201502210950 METAR EGLL 210950Z 29008KT 9999 FEW033 04/02 Q1001 NOSIG=
201502210920 METAR COR EGLL 210920Z 29008KT 9999 FEW033 03/02 Q1001 NOSIG=
201502210850 METAR EGLL 210850Z 28006KT 9999 FEW034 03/02 Q1000 NOSIG=
201502210820 METAR COR EGLL 210820Z 28006KT 9999 FEW033 02/02 Q1000 NOSIG=
201502210750 METAR EGLL 210750Z 27006KT 9999 FEW025 SCT032 02/02 Q1000
                        NOSIG=
201502210720 METAR COR EGLL 210720Z 27005KT 9999 FEW015 02/01 Q1000 NOSIG=
201502210650 METAR EGLL 210650Z 31004KT 270V350 8000 -RA SCT017 SCT022
                        02/01 Q0999 TEMPO BKN014=
201502210620 METAR COR EGLL 210620Z 30007KT 8000 -RA FEW007 BKN010 02/02
                        Q0999 TEMPO RA=
201502210550 METAR COR EGLL 210550Z 29007KT 9000 -RA SCT009 SCT010 03/02
                        Q0999 TEMPO RA BKN010=
201502210520 METAR COR EGLL 210520Z 29007KT 9000 -RA SCT013 SCT028 03/02
                        Q0999 TEMPO SHRA BKN013=
201502210450 METAR COR EGLL 210450Z 28006KT 9000 -RA FEW024 SCT030 03/02
                        Q0998 TEMPO SHRA=
201502210420 METAR COR EGLL 210420Z 26005KT CAVOK 03/02 Q0998 TEMPO SHRA=
201502210350 METAR COR EGLL 210350Z 27006KT 9999 FEW040 03/01 Q0999 TEMPO
                        SHRA=
201502210320 METAR COR EGLL 210320Z 27006KT CAVOK 03/01 Q0999 TEMPO SHRA=
201502210250 METAR COR EGLL 210250Z 25005KT 9999 FEW048 03/01 Q0999 NOSIG=
201502210220 METAR COR EGLL 210220Z 25006KT 9999 SCT049 03/02 Q0999 NOSIG=
201502210150 METAR EGLL 210150Z 26004KT CAVOK 02/01 Q1000 NOSIG=
201502210120 METAR COR EGLL 210120Z 25004KT CAVOK 02/02 Q1000 NOSIG=
201502210050 METAR EGLL 210050Z 27007KT 9000 NSC 02/01 Q1000 NOSIG=
201502210020 METAR COR EGLL 210020Z 27006KT CAVOK 01/01 Q1000 NOSIG=
201502202350 METAR COR EGLL 202350Z 27008KT CAVOK 02/01 Q1000 NOSIG=
201502202320 METAR COR EGLL 202320Z 28006KT CAVOK 02/01 Q1000 NOSIG=
201502202250 METAR EGLL 202250Z 28006KT CAVOK 03/02 Q1001 NOSIG=
201502202220 METAR COR EGLL 202220Z 28006KT CAVOK 04/02 Q1001 NOSIG=
201502202150 METAR EGLL 202150Z 28004KT 9999 SCT032 05/02 Q1001 NOSIG=
201502202120 METAR COR EGLL 202120Z 28006KT 9999 -SHRA FEW032 SCT040 05/02
                        Q1002 NOSIG=
201502202050 METAR EGLL 202050Z 28006KT 9999 SCT040 05/01 Q1002 NOSIG=
201502202020 METAR COR EGLL 202020Z 27004KT 9999 FEW028 04/01 Q1002 NOSIG=
201502201950 METAR COR EGLL 201950Z 29003KT CAVOK 05/01 Q1002 NOSIG=
201502201920 METAR COR EGLL 201920Z 30004KT CAVOK 06/01 Q1002 NOSIG=
201502201850 METAR EGLL 201850Z 30004KT 9999 FEW028 06/01 Q1002 NOSIG=
201502201820 METAR COR EGLL 201820Z 31004KT 9999 FEW027 06/01 Q1002 NOSIG=
201502201750 METAR EGLL 201750Z 31004KT 9999 FEW022 06/02 Q1002 NOSIG=
201502201720 METAR COR EGLL 201720Z 32004KT 290V360 9999 FEW022 06/02
                        Q1002 NOSIG=
201502201650 METAR COR EGLL 201650Z 31004KT 280V350 9999 FEW022 07/02
                        Q1002 NOSIG=
201502201620 METAR COR EGLL 201620Z 33004KT 280V020 9999 FEW022 07/01
                        Q1002 NOSIG=
201502201550 METAR EGLL 201550Z VRB03KT 9999 FEW021 07/02 Q1003 NOSIG=
201502201520 METAR COR EGLL 201520Z 32005KT 290V350 9999 FEW021 07/02
                        Q1003 NOSIG=
201502201450 METAR EGLL 201450Z 36004KT 300V030 9999 SCT021 07/02 Q1003
                        NOSIG=
201502201420 METAR COR EGLL 201420Z 35004KT 9999 SCT020 07/02 Q1004 NOSIG=
201502201350 METAR EGLL 201350Z 32004KT 290V010 9999 SCT017 07/03 Q1004
                        NOSIG=
201502201320 METAR COR EGLL 201320Z VRB03KT 9999 SCT015 07/04 Q1005 NOSIG=
201502201250 METAR COR EGLL 201250Z 36004KT 9999 FEW014 07/04 Q1005 NOSIG=
201502201220 METAR COR EGLL 201220Z 35004KT 9999 FEW011 SCT014 06/03 Q1005
                        NOSIG=
201502201150 METAR EGLL 201150Z VRB03KT 9999 SCT013 06/04 Q1006 NOSIG=
201502201120 METAR COR EGLL 201120Z VRB02KT 9999 SCT016 07/03 Q1006 NOSIG=
201502201050 METAR EGLL 201050Z 00000KT 9999 BKN015 06/03 Q1007 NOSIG=
201502201020 METAR COR EGLL 201020Z VRB02KT 9999 SCT012 SCT017 07/03 Q1007
                        NOSIG=
201502200950 METAR COR EGLL 200950Z VRB02KT 9999 FEW013 07/04 Q1007 NOSIG=
201502200920 METAR COR EGLL 200920Z 00000KT 9999 FEW011 06/04 Q1007 NOSIG=
201502200850 METAR EGLL 200850Z VRB03KT 9999 FEW010 06/05 Q1008 NOSIG=
201502200820 METAR COR EGLL 200820Z 29003KT 9999 FEW010 05/04 Q1008 NOSIG=
201502200750 METAR EGLL 200750Z 28003KT 9999 FEW011 05/04 Q1008 NOSIG=
201502200720 METAR COR EGLL 200720Z 28004KT 9999 FEW012 05/04 Q1008 TEMPO
                        BKN012=
201502200650 METAR EGLL 200650Z 28005KT 9999 FEW011 05/04 Q1008 TEMPO
                        BKN011=
201502200620 METAR COR EGLL 200620Z 28005KT 9999 SCT035 05/04 Q1008 NOSIG=
201502200550 METAR COR EGLL 200550Z 27006KT 9999 FEW030 SCT035 06/04 Q1008
                        TEMPO BKN012=
201502200520 METAR COR EGLL 200520Z 29008KT 9999 FEW012 SCT017 BKN027
                        06/05 Q1008 TEMPO BKN012=
201502200450 METAR EGLL 200450Z 24006KT 9999 FEW008 SCT012 07/06 Q1009
                        TEMPO BKN012=
201502200420 METAR COR EGLL 200420Z 23005KT 9999 -RA SCT025 SCT034 07/06
                        Q1009 NOSIG=
201502200350 METAR EGLL 200350Z 24007KT 9999 -RA FEW010 BKN030 07/06 Q1009
                        TEMPO BKN010=
201502200320 METAR COR EGLL 200320Z 22007KT 9999 -RA FEW010 BKN032 07/06
                        Q1009 RERA TEMPO BKN010=
201502200250 METAR COR EGLL 200250Z 22006KT 9000 RA FEW010 BKN031 07/06
                        Q1010 TEMPO BKN010=
201502200220 METAR EGLL 200220Z AUTO 22006KT 9999 -RA SCT033/// BKN037///
                        //////TCU 07/06 Q1010=
201502200150 METAR EGLL 200150Z AUTO 21005KT 9999 -RA SCT024 SCT032 07/06
                        Q1010=
201502200120 METAR EGLL 200120Z AUTO 22008KT 9999 -DZ SCT038 BKN046 07/06
                        Q1010=
201502200050 METAR EGLL 200050Z 22007KT 9999 -RA BKN034 07/06 Q1011 NOSIG=
201502200020 METAR COR EGLL 200020Z 21007KT 9999 -RA FEW018 BKN039 07/06
                        Q1011 NOSIG=
201502192350 METAR EGLL 192350Z 21006KT 9999 -RA SCT031 SCT038 07/06 Q1011
                        NOSIG=
201502192320 METAR COR EGLL 192320Z 21007KT 9999 -RA SCT034 SCT040 07/06
                        Q1012 TEMPO BKN014=
201502192250 METAR COR EGLL 192250Z 21008KT 180V250 9999 -RA SCT030 SCT040
                        07/06 Q1012 TEMPO BKN014=
201502192220 METAR COR EGLL 192220Z 21008KT 9999 -RA SCT022 SCT036 07/06
                        Q1013 TEMPO BKN014=
201502192150 METAR COR EGLL 192150Z 19008KT 9999 -RA FEW011 BKN041 07/06
                        Q1013 TEMPO BKN011=
201502192120 METAR COR EGLL 192120Z 20008KT 9999 -RA SCT011 BKN037 07/06
                        Q1014 TEMPO RA=
201502192050 METAR COR EGLL 192050Z 21009KT 9999 -RA FEW011 SCT025 BKN035
                        07/06 Q1014 TEMPO RA BKN014=
201502192020 METAR COR EGLL 192020Z 20010KT 9999 -RA SCT026 BKN036 07/06
                        Q1015 TEMPO RA BKN014=
201502191950 METAR EGLL 191950Z 20010KT 9999 -RA FEW010 BKN036 07/06 Q1015
                        TEMPO RA BKN010=
201502191920 METAR COR EGLL 191920Z 20011KT 9999 -RA FEW010 SCT033 BKN037
                        07/06 Q1015 TEMPO RA BKN010=
201502191850 METAR COR EGLL 191850Z 20009KT 9999 -RA FEW008 BKN012 07/06
                        Q1015 TEMPO RA=
201502191820 METAR COR EGLL 191820Z 20010KT 180V240 9999 -RA FEW010 BKN041
                        07/06 Q1016 TEMPO RA BKN012=
201502191750 METAR EGLL 191750Z 20011KT 9999 -RA FEW009 BKN029 07/06 Q1016
                        TEMPO RA BKN014=
201502191720 METAR COR EGLL 191720Z 19011KT 9999 -RA BKN035 07/06 Q1016
                        NOSIG=
201502191650 METAR EGLL 191650Z 20013KT 9999 -RA FEW011 SCT037 BKN046
                        07/06 Q1016 TEMPO BKN014=
201502191620 METAR COR EGLL 191620Z 20012KT 9999 -RA FEW008 BKN010 07/06
                        Q1017 TEMPO FEW010 BKN020=
201502191550 METAR EGLL 191550Z 20013KT 9999 -RA FEW008 OVC012 07/06 Q1017
                        TEMPO FEW012 BKN030=
201502191520 METAR COR EGLL 191520Z 20014KT 130V230 9999 -RA FEW013 SCT017
                        BKN020 07/06 Q1018 TEMPO RA BKN014=
201502191450 METAR COR EGLL 191450Z 21014KT 180V240 8000 -RA FEW011 SCT016
                        BKN021 07/06 Q1018 TEMPO RA BKN014=
201502191420 METAR COR EGLL 191420Z 20013KT 180V250 9000 -RA FEW011TCU
                        SCT013 BKN017 07/06 Q1019 TEMPO RA
                        BKN012=
201502191350 METAR COR EGLL 191350Z 21014KT 180V240 9000 -RA OVC014 07/06
                        Q1019 TEMPO RA=
201502191320 METAR COR EGLL 191320Z 20014KT 180V240 9999 -DZ OVC015 08/05
                        Q1019 TEMPO RA BKN014=
201502191250 METAR EGLL 191250Z 20015KT 9999 -RA FEW015 BKN018 08/06 Q1020
                        TEMPO RA BKN012=
201502191220 METAR COR EGLL 191220Z 20013KT 180V240 9999 -RA BKN019 08/05
                        Q1020 TEMPO RA BKN014=
201502191150 METAR COR EGLL 191150Z 21013KT 170V240 9999 -RA BKN018 08/05
                        Q1021 NOSIG=
201502191120 METAR COR EGLL 191120Z 21013KT 9999 BKN017 08/05 Q1022 TEMPO
                        RA BKN014=
201502191050 METAR EGLL 191050Z 21013KT 9999 BKN018 08/05 Q1022 TEMPO
                        RA BKN014=
201502191020 METAR EGLL 191020Z AUTO 22012KT 9999 BKN018 BKN032 08/04
                        Q1022=
201502190950 METAR EGLL 190950Z 21014KT 9999 FEW020 BKN031 08/04 Q1023
                        NOSIG=
201502190920 METAR COR EGLL 190920Z 21010KT 9999 SCT030 07/04 Q1023 NOSIG=
201502190850 METAR EGLL 190850Z 20011KT 9999 SCT030 07/03 Q1023 NOSIG=
201502190820 METAR COR EGLL 190820Z 20010KT CAVOK 06/03 Q1024 NOSIG=
201502190750 METAR EGLL 190750Z 21010KT 9999 FEW027 05/02 Q1024 NOSIG=
201502190720 METAR COR EGLL 190720Z 20009KT 170V230 9999 FEW027 05/02
                        Q1024 TEMPO BKN014=
201502190650 METAR EGLL 190650Z 20009KT 180V240 9999 SCT027 05/03 Q1024
                        TEMPO BKN014=
201502190620 METAR COR EGLL 190620Z 21009KT 9999 SCT028 05/03 Q1025 TEMPO
                        BKN014=
201502190550 METAR EGLL 190550Z 21007KT CAVOK 04/03 Q1025 TEMPO BKN014=
201502190520 METAR COR EGLL 190520Z 21006KT 160V230 9999 FEW027 04/03
                        Q1026 TEMPO BKN014=
201502190450 METAR EGLL 190450Z 20007KT 160V290 9999 SCT027 04/02 Q1026
                        TEMPO BKN014=
201502190420 METAR COR EGLL 190420Z 19005KT 9999 SCT027 04/02 Q1026 TEMPO
                        BKN014=
201502190350 METAR EGLL 190350Z 20007KT 9999 SCT027 04/02 Q1026 NOSIG=
201502190320 METAR COR EGLL 190320Z 19008KT 9999 SCT027 04/02 Q1027 NOSIG=
201502190250 METAR EGLL 190250Z 20007KT 9999 SCT027 05/02 Q1028 NOSIG=
201502190220 METAR EGLL 190220Z AUTO 21007KT 9999 SCT024 05/02 Q1028=
201502190150 METAR EGLL 190150Z AUTO 19008KT 9999 BKN023 05/02 Q1028=
201502190120 METAR EGLL 190120Z AUTO 21008KT 9999 OVC025 06/03 Q1029=
201502190050 METAR COR EGLL 190050Z 21009KT 9999 BKN025 06/03 Q1030 NOSIG=
201502190020 METAR COR EGLL 190020Z 21009KT 9999 BKN025 06/03 Q1030 NOSIG=
201502182350 METAR EGLL 182350Z 21008KT 9999 BKN026 05/02 Q1031 NOSIG=
201502182320 METAR COR EGLL 182320Z 21008KT 9999 BKN026 05/02 Q1031 NOSIG=
201502182250 METAR EGLL 182250Z 22010KT 9999 BKN025 06/02 Q1031 NOSIG=
201502182220 METAR COR EGLL 182220Z 21009KT 9999 SCT024 06/03 Q1032 NOSIG=
201502182150 METAR EGLL 182150Z 22008KT 9999 BKN024 06/03 Q1032 NOSIG=
201502182120 METAR COR EGLL 182120Z 22009KT 9999 BKN024 06/02 Q1032 NOSIG=
201502182050 METAR EGLL 182050Z 22008KT 9999 BKN024 06/02 Q1032 NOSIG=
201502182020 METAR COR EGLL 182020Z 23011KT 9999 SCT023 06/02 Q1032 NOSIG=
201502181950 METAR EGLL 181950Z 23012KT 9999 BKN024 07/02 Q1033 NOSIG=
201502181920 METAR COR EGLL 181920Z 23011KT 9999 BKN025 07/02 Q1033 NOSIG=
201502181850 METAR EGLL 181850Z 22012KT 9999 BKN025 07/02 Q1033 NOSIG=
201502181820 METAR COR EGLL 181820Z 23010KT 9999 BKN025 07/02 Q1033 NOSIG=
201502181750 METAR EGLL 181750Z 23014KT 9999 SCT027 07/02 Q1033 NOSIG=
201502181720 METAR COR EGLL 181720Z 22011KT 9999 FEW028 08/02 Q1033 NOSIG=
201502181650 METAR COR EGLL 181650Z 22013KT 9999 FEW032 08/02 Q1034 NOSIG=
201502181620 METAR COR EGLL 181620Z 22012KT CAVOK 09/02 Q1034 NOSIG=
201502181550 METAR EGLL 181550Z 22012KT CAVOK 10/02 Q1034 NOSIG=
201502181520 METAR COR EGLL 181520Z 23010KT 190V250 9999 FEW032 10/02
                        Q1035 NOSIG=
201502181450 METAR EGLL 181450Z 22012G22KT 9999 FEW032 10/02 Q1035 NOSIG=
201502181420 METAR COR EGLL 181420Z 22012KT 9999 FEW032 10/02 Q1035 NOSIG=
201502181350 METAR EGLL 181350Z 23012KT 9999 FEW032 10/02 Q1036 NOSIG=
201502181320 METAR COR EGLL 181320Z 22011KT 9999 FEW031 10/02 Q1036 NOSIG=
201502181250 METAR EGLL 181250Z 23013KT 9999 FEW032 10/02 Q1037 NOSIG=
201502181220 METAR COR EGLL 181220Z 23013KT 9999 FEW032 10/02 Q1037 NOSIG=
201502181150 METAR EGLL 181150Z 23013KT 9999 FEW032 09/01 Q1038 NOSIG=
201502181120 METAR COR EGLL 181120Z 23011KT 9999 FEW032 09/01 Q1038 NOSIG=
201502181050 METAR EGLL 181050Z 22009KT 190V250 CAVOK 08/02 Q1038 NOSIG=
201502181020 METAR COR EGLL 181020Z 23009KT CAVOK 07/01 Q1039 NOSIG=
201502180950 METAR COR EGLL 180950Z 23009KT CAVOK 06/01 Q1039 NOSIG=
201502180920 METAR COR EGLL 180920Z 23009KT CAVOK 05/01 Q1039 NOSIG=
201502180850 METAR COR EGLL 180850Z 23007KT CAVOK 04/00 Q1039 NOSIG=
201502180820 METAR COR EGLL 180820Z 22006KT CAVOK 02/M00 Q1039 NOSIG=
201502180750 METAR COR EGLL 180750Z 22006KT CAVOK 01/M01 Q1039 NOSIG=
201502180720 METAR COR EGLL 180720Z 23005KT 190V260 9999 FEW031 01/M01
                        Q1039 NOSIG=
201502180650 METAR EGLL 180650Z 20006KT 170V270 9999 FEW031 01/M01 Q1039
                        NOSIG=
201502180620 METAR COR EGLL 180620Z 19005KT 150V240 9999 FEW031 00/M01
                        Q1039 NOSIG=
201502180550 METAR COR EGLL 180550Z 21005KT 170V240 9999 FEW032 00/M01
                        Q1039 NOSIG=
201502180520 METAR COR EGLL 180520Z VRB03KT 9999 SCT032 00/M01 Q1040 NOSIG=
201502180450 METAR EGLL 180450Z VRB04KT 9999 FEW032 00/M01 Q1040 NOSIG=
201502180420 METAR COR EGLL 180420Z VRB03KT CAVOK 00/M01 Q1040 NOSIG=
201502180350 METAR EGLL 180350Z 00000KT CAVOK 00/M01 Q1040 NOSIG=
201502180320 METAR COR EGLL 180320Z VRB02KT CAVOK 01/M01 Q1040 NOSIG=
201502180250 METAR EGLL 180250Z 19005KT CAVOK 01/M01 Q1040 NOSIG=
201502180220 METAR EGLL 180220Z AUTO 00000KT 9999 NCD 01/M01 Q1041=
201502180150 METAR EGLL 180150Z AUTO VRB02KT 9999 NCD 02/M00 Q1041=
201502180120 METAR EGLL 180120Z AUTO 19004KT 9999 NCD 02/M00 Q1041=
201502180050 METAR EGLL 180050Z 18002KT CAVOK 02/M00 Q1041 NOSIG=
201502180020 METAR COR EGLL 180020Z 19003KT CAVOK 02/M00 Q1041 NOSIG=
201502172350 METAR EGLL 172350Z 21004KT 180V250 CAVOK 03/M00 Q1042 NOSIG=
201502172320 METAR COR EGLL 172320Z 21003KT CAVOK 03/M00 Q1041 NOSIG=
201502172250 METAR COR EGLL 172250Z 22005KT 190V250 CAVOK 03/M00 Q1041
                        NOSIG=
201502172220 METAR COR EGLL 172220Z 22005KT 9999 FEW042 04/M00 Q1041 NOSIG=
201502172150 METAR EGLL 172150Z 22006KT 9999 SCT042 04/M00 Q1041 NOSIG=
201502172120 METAR COR EGLL 172120Z 23005KT 9999 SCT042 05/00 Q1041 NOSIG=
201502172050 METAR COR EGLL 172050Z VRB03KT 9999 BKN042 05/M00 Q1041 NOSIG=
201502172020 METAR COR EGLL 172020Z 23004KT 190V260 9999 BKN045 05/M00
                        Q1041 NOSIG=
201502171950 METAR EGLL 171950Z 24004KT 9999 BKN045 05/M01 Q1041 NOSIG=
201502171920 METAR COR EGLL 171920Z 24005KT 9999 SCT045 06/M01 Q1041 NOSIG=
201502171850 METAR EGLL 171850Z VRB02KT 9999 SCT043 06/M01 Q1041 NOSIG=
201502171820 METAR COR EGLL 171820Z 00000KT 9999 SCT043 06/M01 Q1040 NOSIG=
201502171750 METAR EGLL 171750Z VRB03KT CAVOK 06/M01 Q1040 NOSIG=
201502171720 METAR COR EGLL 171720Z 31004KT CAVOK 08/M02 Q1039 NOSIG=
201502171650 METAR COR EGLL 171650Z 31005KT CAVOK 08/M01 Q1039 NOSIG=
201502171620 METAR COR EGLL 171620Z 30006KT CAVOK 09/M02 Q1039 NOSIG=
201502171550 METAR EGLL 171550Z 30007KT 270V340 CAVOK 09/M02 Q1039 NOSIG=
201502171520 METAR COR EGLL 171520Z 30007KT CAVOK 09/M01 Q1039 NOSIG=
201502171450 METAR COR EGLL 171450Z 32006KT 280V360 CAVOK 09/M01 Q1038
                        NOSIG=
201502171420 METAR COR EGLL 171420Z 30009KT 280V340 CAVOK 08/M00 Q1038
                        NOSIG=
201502171350 METAR EGLL 171350Z 31008KT 280V340 9999 FEW032 08/M01 Q1038
                        NOSIG=
201502171320 METAR COR EGLL 171320Z 30008KT 9999 FEW032 08/00 Q1038 NOSIG=
201502171250 METAR EGLL 171250Z 32006KT 280V010 9999 FEW032 08/M01 Q1038
                        NOSIG=
201502171220 METAR COR EGLL 171220Z 32005KT 280V350 9999 FEW032 08/M00
                        Q1038 NOSIG=
201502171150 METAR EGLL 171150Z 32006KT 290V350 9999 FEW024 07/00 Q1038
                        NOSIG=
201502171120 METAR COR EGLL 171120Z 32006KT 290V360 9999 FEW024 07/01
                        Q1037 NOSIG=
201502171050 METAR COR EGLL 171050Z 31006KT 9999 FEW020 06/01 Q1037 NOSIG=
201502171020 METAR COR EGLL 171020Z 33007KT 290V010 9999 FEW020 06/01
                        Q1037 NOSIG=
201502170950 METAR EGLL 170950Z 35004KT 300V060 9999 FEW016 05/01 Q1036
                        NOSIG=
201502170920 METAR COR EGLL 170920Z 32005KT 280V020 CAVOK 05/02 Q1036
                        NOSIG=
201502170850 METAR EGLL 170850Z 31006KT 280V340 CAVOK 04/01 Q1035 NOSIG=
201502170820 METAR COR EGLL 170820Z 30004KT CAVOK 03/01 Q1035 NOSIG=
201502170750 METAR COR EGLL 170750Z 30006KT CAVOK 03/01 Q1034 NOSIG=
201502170720 METAR COR EGLL 170720Z 31005KT CAVOK 03/01 Q1033 NOSIG=
201502170650 METAR EGLL 170650Z 31004KT CAVOK 03/01 Q1033 NOSIG=
201502170620 METAR COR EGLL 170620Z 30005KT CAVOK 03/01 Q1032 NOSIG=
201502170550 METAR EGLL 170550Z 31004KT CAVOK 03/01 Q1031 NOSIG=
201502170520 METAR COR EGLL 170520Z 32006KT CAVOK 03/01 Q1031 NOSIG=
201502170450 METAR COR EGLL 170450Z 32007KT 280V350 CAVOK 03/01 Q1030
                        NOSIG=
201502170420 METAR COR EGLL 170420Z 30006KT CAVOK 03/01 Q1029 NOSIG=
201502170350 METAR EGLL 170350Z 32005KT 290V360 CAVOK 03/01 Q1028 NOSIG=
201502170320 METAR COR EGLL 170320Z 33007KT 300V360 CAVOK 03/01 Q1028
                        NOSIG=
201502170250 METAR COR EGLL 170250Z 32007KT 290V350 CAVOK 03/01 Q1028
                        NOSIG=
201502170220 METAR EGLL 170220Z AUTO 34005KT 310V020 9999 NCD 04/01 Q1027=
201502170150 METAR EGLL 170150Z AUTO 32007KT 9999 NCD 04/02 Q1026=
201502170120 METAR EGLL 170120Z AUTO 32006KT 9999 NCD 04/02 Q1026=
201502170050 METAR EGLL 170050Z 31006KT CAVOK 03/02 Q1025 NOSIG=
201502170020 METAR COR EGLL 170020Z 32005KT 280V350 CAVOK 04/02 Q1024
                        NOSIG=
201502162350 METAR COR EGLL 162350Z 33005KT 300V010 CAVOK 04/02 Q1024
                        NOSIG=
201502162320 METAR COR EGLL 162320Z 32007KT 290V360 9999 FEW019 05/03
                        Q1023 NOSIG=
201502162250 METAR EGLL 162250Z 31007KT 290V350 CAVOK 05/03 Q1022 NOSIG=
201502162220 METAR COR EGLL 162220Z 32005KT 290V350 9999 FEW018 06/04
                        Q1022 NOSIG=
201502162150 METAR EGLL 162150Z 31004KT 9999 FEW018 SCT048 06/04 Q1021
                        NOSIG=
201502162120 METAR COR EGLL 162120Z VRB03KT 9999 FEW017 SCT033 06/04 Q1021
                        NOSIG=
201502162050 METAR COR EGLL 162050Z 32005KT 290V360 9999 -RA FEW023 SCT042
                        06/04 Q1020 NOSIG=
201502162020 METAR COR EGLL 162020Z 35004KT 310V030 9999 -RA SCT034 06/04
                        Q1019 NOSIG=
201502161950 METAR COR EGLL 161950Z 34005KT 300V020 9999 -RA BKN038 06/04
                        Q1019 NOSIG=
201502161920 METAR COR EGLL 161920Z 35006KT 320V020 9999 -RA BKN042 06/04
                        Q1018 NOSIG=
201502161850 METAR EGLL 161850Z 34007KT 310V010 9999 -RA FEW017 SCT039
                        06/04 Q1017 TEMPO BKN014=
201502161820 METAR COR EGLL 161820Z 34007KT 300V020 9999 -RA FEW017 BKN033
                        07/05 Q1016 TEMPO RA BKN014=
201502161750 METAR COR EGLL 161750Z 34006KT 310V020 9999 -RA SCT014 SCT028
                        07/06 Q1016 TEMPO RA BKN014=
201502161720 METAR COR EGLL 161720Z 28005KT 8000 -RA FEW013 BKN035 07/06
                        Q1015 TEMPO BKN014=
201502161650 METAR EGLL 161650Z 20005KT 160V250 9000 -RA FEW020 BKN040
                        07/06 Q1014 TEMPO BKN014=
201502161620 METAR COR EGLL 161620Z VRB04KT 7000 -RA FEW020 BKN040 07/07
                        Q1014 RERA TEMPO BKN014=
201502161550 METAR COR EGLL 161550Z 17007KT 130V200 5000 RA SCT020 BKN035
                        07/06 Q1014 BECMG BKN014=
201502161520 METAR COR EGLL 161520Z 16007KT 5000 RA FEW012 BKN014 07/06
                        Q1014 TEMPO BKN009=
201502161450 METAR EGLL 161450Z 18006KT 120V250 5000 RA SCT014 BKN020
                        08/06 Q1014 TEMPO BKN009=
201502161420 METAR COR EGLL 161420Z 18006KT 140V220 9000 -RA BKN014 08/06
                        Q1014 TEMPO RA BKN009=
201502161350 METAR COR EGLL 161350Z 19007KT 160V250 9999 -RA FEW015 SCT024
                        BKN040 08/06 Q1014 BECMG BKN014=
201502161320 METAR COR EGLL 161320Z 20008KT 170V240 9999 -RA FEW015 BKN040
                        08/06 Q1014 TEMPO BKN014=
201502161250 METAR COR EGLL 161250Z 19009KT 150V240 9999 -RA BKN031 08/05
                        Q1014 TEMPO BKN014=
201502161220 METAR COR EGLL 161220Z 19010KT 170V240 9999 -RA SCT040 08/05
                        Q1014 TEMPO BKN014=
201502161150 METAR EGLL 161150Z 19009KT 160V230 9999 FEW028 08/05 Q1014
                        TEMPO -RA BKN014=
201502161120 METAR COR EGLL 161120Z 18008KT 140V240 9999 FEW038 08/05
                        Q1014 TEMPO -RA BKN014=
201502161050 METAR COR EGLL 161050Z 19009KT 160V240 9999 FEW013 08/05
                        Q1014 TEMPO -RA BKN014=
201502161020 METAR COR EGLL 161020Z 18007KT 140V230 9999 FEW014 08/05
                        Q1014 NOSIG=
201502160950 METAR COR EGLL 160950Z 17007KT 120V240 9999 FEW011 07/06
                        Q1014 NOSIG=
201502160920 METAR COR EGLL 160920Z 17005KT 130V250 4700 BR BKN011 06/06
                        Q1014 BECMG 6000 SCT012=
201502160850 METAR EGLL 160850Z 17005KT 110V230 3000 BR FEW009 BKN011
                        06/05 Q1015 TEMPO BKN008=
201502160820 METAR COR EGLL 160820Z 16005KT 130V230 3200 BR BKN012 05/05
                        Q1015 TEMPO BKN009=
201502160750 METAR COR EGLL 160750Z 14006KT 110V200 2900 BR NSC 05/05
                        Q1014 TEMPO BKN010=
201502160720 METAR COR EGLL 160720Z 15006KT 110V200 2700 BR SCT010 05/04
                        Q1015 TEMPO BKN008=
201502160650 METAR COR EGLL 160650Z 15007KT 130V200 3000 BR FEW008 BKN010
                        04/04 Q1015 TEMPO BKN008=
201502160620 METAR COR EGLL 160620Z 16004KT 110V210 2600 BR SCT007 BKN009
                        03/03 Q1015 BECMG 3000=
201502160550 METAR COR EGLL 160550Z VRB02KT 2600 BR SCT004 BKN008 03/03
                        Q1015 TEMPO BKN004=
201502160520 METAR COR EGLL 160520Z VRB02KT 2300 BR FEW004 SCT006 BKN009
                        03/03 Q1015 TEMPO 3000=
201502160450 METAR EGLL 160450Z VRB03KT 1600 BR FEW002 BKN008 03/03 Q1015
                        TEMPO 3000=
201502160420 METAR COR EGLL 160420Z VRB02KT 1400 R27R/P1500 BR FEW001
                        BKN008 03/02 Q1016 TEMPO 2000=
201502160350 METAR EGLL 160350Z 13002KT 1400 R27R/P1500 BR FEW001 BKN007
                        03/02 Q1016 TEMPO 2000 BKN003=
201502160320 METAR COR EGLL 160320Z 00000KT 1200 R27R/P1500 BR FEW001
                        BKN006 02/02 Q1016 TEMPO 2000 BKN003=
201502160250 METAR COR EGLL 160250Z 18003KT 1400 BR BKN002 02/02 Q1016
                        TEMPO 1500=
201502160220 METAR EGLL 160220Z AUTO 19002KT 3000 BR SCT003 SCT005 02/01
                        Q1016=
201502160150 METAR EGLL 160150Z AUTO VRB02KT 3200 BR NCD 01/00 Q1016=
201502160120 METAR EGLL 160120Z AUTO 00000KT 0300 FG NCD 00/00 Q1016=
201502160050 METAR COR EGLL 160050Z VRB03KT 2800 HZ NSC 01/01 Q1017 TEMPO
                        3000=
201502160020 METAR COR EGLL 160020Z 17003KT 3100 HZ NSC 02/01 Q1017 TEMPO
                        2500 BR=
201502152350 METAR EGLL 152350Z 00000KT 2800 HZ NSC 02/01 Q1017 TEMPO
                        3000=
201502152320 METAR COR EGLL 152320Z 17003KT 4800 HZ NSC 02/02 Q1017 NOSIG=
201502152250 METAR EGLL 152250Z 19004KT 150V250 6000 NSC 03/02 Q1016 BECMG
                        4000=
201502152220 METAR COR EGLL 152220Z VRB03KT 6000 NSC 03/02 Q1016 BECMG
                        4000=
201502152150 METAR EGLL 152150Z VRB02KT 7000 NSC 03/02 Q1016 BECMG 4000=
201502152120 METAR COR EGLL 152120Z VRB03KT 8000 NSC 03/02 Q1016 BECMG
                        4000=
201502152050 METAR EGLL 152050Z VRB03KT 9000 NSC 03/02 Q1016 NOSIG=
201502152020 METAR COR EGLL 152020Z VRB02KT 9000 NSC 04/02 Q1017 NOSIG=
201502151950 METAR EGLL 151950Z 00000KT 9999 FEW024 05/02 Q1017 NOSIG=
201502151920 METAR COR EGLL 151920Z VRB02KT 9999 FEW028 06/02 Q1016 NOSIG=
201502151850 METAR EGLL 151850Z VRB02KT 9999 FEW029 06/03 Q1016 NOSIG=
201502151820 METAR COR EGLL 151820Z 00000KT CAVOK 07/03 Q1016 NOSIG=
201502151750 METAR COR EGLL 151750Z 00000KT CAVOK 07/03 Q1016 NOSIG=
201502151720 METAR COR EGLL 151720Z VRB02KT 9999 FEW027 07/03 Q1015 NOSIG=
201502151650 METAR EGLL 151650Z 00000KT 9999 FEW027 08/03 Q1015 NOSIG=
201502151620 METAR COR EGLL 151620Z VRB02KT 9999 FEW028 09/03 Q1015 NOSIG=
201502151550 METAR EGLL 151550Z VRB03KT 9999 SCT027 09/04 Q1014 NOSIG=
201502151520 METAR COR EGLL 151520Z 08006KT 9999 SCT027 09/04 Q1014 NOSIG=
201502151450 METAR EGLL 151450Z 09005KT 060V120 9999 FEW022 SCT024 09/04
                        Q1014 NOSIG=
201502151420 METAR COR EGLL 151420Z 06003KT 9999 FEW024 SCT028 09/04 Q1015
                        NOSIG=
201502151350 METAR EGLL 151350Z 08005KT 040V120 9999 SCT022 SCT028 08/04
                        Q1014 NOSIG=
201502151320 METAR COR EGLL 151320Z 07007KT 9999 FEW020 SCT023 08/05 Q1014
                        NOSIG=
201502151250 METAR COR EGLL 151250Z 08004KT 040V120 9999 BKN022 08/05
                        Q1015 NOSIG=
201502151220 METAR COR EGLL 151220Z 07004KT 9999 BKN019 08/05 Q1015 NOSIG=
201502151150 METAR EGLL 151150Z 06004KT 020V100 9000 FEW010 BKN016 08/05
                        Q1015 NOSIG=
201502151120 METAR COR EGLL 151120Z 06005KT 8000 FEW010 BKN013 07/05 Q1014
                        BECMG SCT018=
201502151050 METAR EGLL 151050Z 06005KT 6000 FEW009 BKN011 07/05 Q1014
                        NOSIG=
201502151020 METAR COR EGLL 151020Z 06005KT 4500 HZ FEW007 BKN009 07/05
                        Q1014 BECMG 7000 SCT009 BKN014=
201502150950 METAR EGLL 150950Z 05006KT 010V080 4200 HZ FEW006 BKN008
                        07/05 Q1014 BECMG 6000 SCT008 BKN012=
201502150920 METAR COR EGLL 150920Z 05006KT 4200 HZ FEW006 BKN008 07/05
                        Q1013 BECMG 7000 SCT008 BKN012=
201502150850 METAR EGLL 150850Z 02005KT 350V060 4200 HZ FEW006 BKN008
                        06/05 Q1013 BECMG 6000 SCT008 BKN012=
201502150820 METAR COR EGLL 150820Z 04004KT 360V070 4400 HZ SCT007 BKN016
                        06/05 Q1013 BECMG 6000=
201502150750 METAR COR EGLL 150750Z 04004KT 5000 HZ FEW008 BKN015 06/05
                        Q1013 NOSIG=
201502150720 METAR COR EGLL 150720Z 36003KT 5000 HZ FEW008 BKN012 06/05
                        Q1012 TEMPO BKN009=
201502150650 METAR COR EGLL 150650Z 04004KT 4800 HZ SCT008 BKN010 06/05
                        Q1012 TEMPO BKN008=
201502150620 METAR COR EGLL 150620Z 06004KT 020V090 4200 HZ SCT008 BKN009
                        06/05 Q1011 TEMPO 5000 BKN010=
201502150550 METAR COR EGLL 150550Z 06006KT 3800 HZ BKN008 06/05 Q1011
                        NOSIG=
201502150520 METAR COR EGLL 150520Z 06005KT 3300 HZ BKN007 06/05 Q1010
                        NOSIG=
201502150450 METAR EGLL 150450Z 04004KT 010V080 3700 HZ BKN007 06/05 Q1010
                        NOSIG=
201502150420 METAR COR EGLL 150420Z 04004KT 010V070 3900 HZ BKN008 06/05
                        Q1010 NOSIG=
201502150350 METAR EGLL 150350Z 05005KT 010V090 4300 HZ BKN008 06/05 Q1010
                        NOSIG=
201502150320 METAR COR EGLL 150320Z 04005KT 360V070 5000 HZ SCT011 BKN038
                        06/05 Q1009 TEMPO 4500 BKN011=
201502150250 METAR EGLL 150250Z 06006KT 6000 SCT009 BKN011 06/05 Q1009
                        TEMPO BKN009=
201502150220 METAR EGLL 150220Z AUTO 05005KT 6000 FEW010 SCT022 06/05
                        Q1009=
201502150150 METAR EGLL 150150Z AUTO 04005KT 360V070 6000 SCT023 BKN035
                        07/05 Q1009=
201502150120 METAR EGLL 150120Z AUTO 04005KT 7000 BKN009 07/05 Q1009=
201502150050 METAR COR EGLL 150050Z 05006KT 6000 SCT009 BKN013 07/05 Q1009
                        TEMPO BKN009=
201502150020 METAR COR EGLL 150020Z 04006KT 010V070 6000 FEW008 SCT010
                        BKN012 07/05 Q1008 TEMPO BKN009=
201502142350 METAR COR EGLL 142350Z 04005KT 6000 SCT009 BKN012 07/06 Q1008
                        TEMPO BKN009=
201502142320 METAR COR EGLL 142320Z 03004KT 360V060 6000 FEW010 BKN013
                        07/06 Q1008 TEMPO BKN009=
201502142250 METAR EGLL 142250Z 05004KT 010V080 8000 FEW012 BKN018 07/06
                        Q1008 TEMPO BKN012=
201502142220 METAR COR EGLL 142220Z 05004KT 360V070 8000 FEW009 BKN013
                        07/06 Q1008 TEMPO FEW013=
201502142150 METAR EGLL 142150Z 06006KT 030V100 8000 BKN012 07/06 Q1007
                        TEMPO FEW012=
201502142120 METAR COR EGLL 142120Z 06005KT 9000 BKN012 07/06 Q1007 TEMPO
                        FEW012=
201502142050 METAR COR EGLL 142050Z 05005KT 9999 BKN013 07/05 Q1007 TEMPO
                        FEW013=
201502142020 METAR COR EGLL 142020Z 05004KT 010V080 9999 FEW015 BKN022
                        07/05 Q1007 NOSIG=
201502141950 METAR EGLL 141950Z 06008KT 9999 FEW015 BKN021 07/05 Q1007
                        NOSIG=
201502141920 METAR COR EGLL 141920Z 05006KT 010V090 9999 SCT015 SCT019
                        08/05 Q1006 NOSIG=
201502141850 METAR EGLL 141850Z 07008KT 9999 SCT022 SCT028 08/05 Q1006
                        NOSIG=
201502141820 METAR COR EGLL 141820Z 07008KT 9999 FEW017 08/05 Q1005 NOSIG=
201502141750 METAR COR EGLL 141750Z 06007KT 9999 FEW020 SCT045 08/06 Q1005
                        NOSIG=
201502141720 METAR COR EGLL 141720Z 06007KT 9999 SCT017 SCT030 08/06 Q1005
                        NOSIG=
201502141650 METAR COR EGLL 141650Z 06005KT 9999 FEW015 BKN046 08/06 Q1004
                        NOSIG=
201502141620 METAR COR EGLL 141620Z 07005KT 9999 FEW024 BKN043 08/05 Q1004
                        NOSIG=
201502141550 METAR EGLL 141550Z 07006KT 9999 FEW016 SCT024 BKN045 08/05
                        Q1004 NOSIG=
201502141520 METAR COR EGLL 141520Z 07006KT 9999 FEW013 SCT021 BKN044
                        08/06 Q1004 NOSIG=
201502141450 METAR EGLL 141450Z 06007KT 9999 7000NW -SHRA SCT015 SCT021
                        08/06 Q1003 TEMPO BKN014=
201502141420 METAR COR EGLL 141420Z 07006KT 9999 SCT015 SCT024 09/06 Q1003
                        TEMPO BKN014=
201502141350 METAR EGLL 141350Z 08007KT 9999 SCT017 SCT030 08/05 Q1003
                        NOSIG=
201502141320 METAR COR EGLL 141320Z 06006KT 9999 SCT019 SCT026 08/05 Q1003
                        TEMPO BKN014=
201502141250 METAR COR EGLL 141250Z 07006KT 9999 FEW014 BKN027 08/05 Q1003
                        TEMPO BKN014=
201502141220 METAR COR EGLL 141220Z 06005KT 9999 SCT014 BKN027 08/05 Q1003
                        TEMPO BKN014=
201502141150 METAR EGLL 141150Z 09006KT 9999 SCT015 BKN027 08/05 Q1003
                        TEMPO BKN014=
201502141120 METAR COR EGLL 141120Z 09006KT 9999 SCT014 BKN026 08/06 Q1002
                        TEMPO BKN014=
201502141050 METAR EGLL 141050Z 03005KT 360V060 9999 SCT014 SCT023 07/06
                        Q1002 TEMPO BKN014=
201502141020 METAR COR EGLL 141020Z 04004KT 9999 FEW010 SCT040 08/06 Q1002
                        TEMPO BKN014=
201502140950 METAR EGLL 140950Z 05004KT 010V090 9999 VCSH FEW016 SCT024
                        07/05 Q1002 TEMPO BKN014=
201502140920 METAR COR EGLL 140920Z 05003KT 9999 SCT024 06/05 Q1001 NOSIG=
201502140850 METAR COR EGLL 140850Z 04004KT 9999 FEW025 05/04 Q1001 NOSIG=
201502140820 METAR COR EGLL 140820Z 05003KT 9999 FEW025 04/03 Q1001 NOSIG=
201502140750 METAR COR EGLL 140750Z 07003KT 9999 SCT026 03/03 Q1000 TEMPO
                        BKN014=
201502140720 METAR COR EGLL 140720Z 06004KT 9999 FEW012 SCT028 04/03 Q1000
                        TEMPO BKN012=
201502140650 METAR COR EGLL 140650Z 06004KT 9999 FEW012 BKN029 04/04 Q0999
                        TEMPO BKN012=
201502140620 METAR COR EGLL 140620Z 09003KT 9999 FEW012 BKN024 05/04 Q0999
                        TEMPO BKN012=
201502140550 METAR EGLL 140550Z VRB03KT 9999 OVC027 05/04 Q0999 TEMPO
                        BKN012=
201502140520 METAR COR EGLL 140520Z 15003KT 9999 FEW018 BKN024 05/04 Q0999
                        TEMPO BKN008=
201502140450 METAR EGLL 140450Z 17005KT 9999 FEW005 SCT009 05/05 Q0998
                        TEMPO BKN007=
201502140420 METAR COR EGLL 140420Z 20007KT 9999 SCT004 BKN006 05/05 Q0998
                        TEMPO SCT006 BKN010=
201502140350 METAR EGLL 140350Z 19006KT 9999 BKN007 05/05 Q0997 TEMPO
                        SCT007=
201502140320 METAR COR EGLL 140320Z 22004KT 9999 SCT008 SCT020 06/05 Q0997
                        TEMPO BKN008=
201502140250 METAR EGLL 140250Z 14007KT 9999 -RA FEW011 BKN013 06/05 Q0996
                        NOSIG=
201502140220 METAR EGLL 140220Z AUTO 12008KT 9999 BKN015 06/05 Q0996=
201502140150 METAR EGLL 140150Z AUTO 13007KT 9999 BKN016/// //////TCU
                        06/05 Q0996 REDZ=
201502140120 METAR EGLL 140120Z AUTO 13006KT 9999 DZ FEW014/// SCT025///
                        //////TCU 06/05 Q0996=
201502140050 METAR EGLL 140050Z 15005KT 9999 -DZ BKN015 BKN022 06/05 Q0996
                        TEMPO RA BKN014=
201502140020 METAR COR EGLL 140020Z 18008KT 9999 FEW017 SCT022 06/05 Q0996
                        TEMPO RA BKN014=
201502132350 METAR COR EGLL 132350Z 21007KT 140V310 8000 -RA FEW011 SCT021
                        BKN025 06/05 Q0996 TEMPO RA BKN011=
201502132320 METAR COR EGLL 132320Z 12007KT 6000 -RA FEW009 SCT011 06/05
                        Q0996 RERA TEMPO BKN011=
201502132250 METAR EGLL 132250Z 13008KT 8000 RA FEW018 BKN032 06/05 Q0997
                        TEMPO -RA=
201502132220 METAR COR EGLL 132220Z 15009KT 9999 -RA FEW021 BKN026 07/05
                        Q0997 TEMPO RA BKN014=
201502132150 METAR COR EGLL 132150Z 14009KT 120V220 9999 -RA SCT017 SCT025
                        07/05 Q0997 TEMPO RA BKN014=
201502132120 METAR COR EGLL 132120Z 15008KT 130V220 9999 FEW023 07/05
                        Q0997 BECMG RA=
201502132050 METAR EGLL 132050Z 17007KT 130V220 9999 FEW038 06/05 Q0997
                        TEMPO RA=
201502132020 METAR COR EGLL 132020Z 16008KT 130V220 9999 FEW038 06/04
                        Q0997 TEMPO SHRA=
201502131950 METAR EGLL 131950Z 18010KT 160V220 9999 FEW025 06/05 Q0997
                        TEMPO SHRA=
201502131920 METAR COR EGLL 131920Z 17009KT 140V230 9999 FEW023 07/04
                        Q0997 NOSIG=
201502131850 METAR EGLL 131850Z 20012KT 170V240 9999 -SHRA FEW015 SCT028CB
                        07/05 Q0998 RESHRA NOSIG=
201502131820 METAR COR EGLL 131820Z 16012KT 140V210 6000 SHRA SCT013 BKN019CB
                        08/06 Q0997 TEMPO 17020G35KT 4000
                        BKN014CB=
201502131750 METAR COR EGLL 131750Z 17012KT 140V220 9999 -SHRA SCT024
                        08/06 Q0997 TEMPO 18020G30KT 4000
                        BKN014CB=
201502131720 METAR COR EGLL 131720Z 18011KT 150V230 9999 SCT018 08/06
                        Q0997 TEMPO 6000 SHRA BKN014=
201502131650 METAR COR EGLL 131650Z 18011KT 150V230 9999 FEW015 SCT020
                        08/06 Q0998 TEMPO 6000 SHRA=
201502131620 METAR COR EGLL 131620Z 18009KT 150V230 9999 FEW014 SCT018
                        08/06 Q0998 NOSIG=
201502131550 METAR EGLL 131550Z 19012KT 160V230 9999 FEW013 SCT016 08/06
                        Q0998 NOSIG=
201502131520 METAR COR EGLL 131520Z 19013KT 9999 -RA FEW010 BKN013 08/06
                        Q0998 NOSIG=
201502131450 METAR COR EGLL 131450Z 17016KT 9999 -RA SCT013 BKN017 08/06
                        Q0998 TEMPO BKN013=
201502131420 METAR COR EGLL 131420Z 16015KT 9999 -RA BKN016 07/06 Q0998
                        RERA TEMPO 7000 RA BKN014=
201502131350 METAR COR EGLL 131350Z 16016KT 9999 RA BKN016 07/05 Q0999
                        TEMPO 7000 RA BKN014=
201502131320 METAR COR EGLL 131320Z 16016KT 9999 -RA FEW016 BKN018 08/05
                        Q1000 TEMPO 6000 RA BKN014=
201502131250 METAR EGLL 131250Z 17018KT 9999 -RA BKN020 09/05 Q1000 TEMPO
                        6000 RA BKN014=
201502131220 METAR COR EGLL 131220Z 17017G28KT 9999 BKN018 09/05 Q1001
                        TEMPO 6000 RA BKN014=
201502131150 METAR EGLL 131150Z 17014KT 9999 SCT018 SCT024 09/05 Q1002
                        TEMPO 6000 RA BKN014=
201502131120 METAR COR EGLL 131120Z 18014KT 9999 SCT017 SCT020 08/05 Q1003
                        TEMPO 6000 RA BKN014=
201502131050 METAR COR EGLL 131050Z 17014KT 9999 SCT017 SCT022 08/05 Q1003
                        TEMPO 17016G27KT 6000 RA BKN014=
201502131020 METAR COR EGLL 131020Z 18013KT 9999 SCT016 SCT020 08/05 Q1004
                        TEMPO 17016G27KT 6000 RA BKN014=
201502130950 METAR EGLL 130950Z 18012KT 9999 SCT016 BKN019 08/05 Q1004
                        NOSIG=
201502130920 METAR COR EGLL 130920Z 17011KT 9999 SCT016 BKN019 08/05 Q1004
                        NOSIG=
201502130850 METAR EGLL 130850Z 17012KT 9999 SCT015 BKN018 07/05 Q1005
                        NOSIG=
201502130820 METAR COR EGLL 130820Z 17012KT 9999 SCT016 BKN018 07/05 Q1005
                        TEMPO BKN014=
201502130750 METAR EGLL 130750Z 16010KT 8000 SCT014 BKN018 07/05 Q1006
                        TEMPO BKN014=
201502130720 METAR COR EGLL 130720Z 15009KT 6000 SCT014 BKN016 07/05 Q1006
                        TEMPO BKN014=
201502130650 METAR EGLL 130650Z 15010KT 5000 -SHRA BKN015 06/05 Q1007
                        TEMPO BKN014=
201502130620 METAR COR EGLL 130620Z 15010KT 4500 -SHRA BKN016 06/05 Q1007
                        TEMPO 6000 NSW BKN014=
201502130550 METAR EGLL 130550Z 15011KT 4200 -SHRA FEW021 SCT036 BKN041
                        06/05 Q1007 BECMG 6000 NSW=
201502130520 METAR COR EGLL 130520Z 15010KT 3800 -SHRA SCT035 BKN041 06/05
                        Q1008 NOSIG=
201502130450 METAR EGLL 130450Z 15010KT 2900 -SHRA SCT030 05/04 Q1009
                        TEMPO SHRA BKN014=
201502130420 METAR COR EGLL 130420Z 15010KT 3100 HZ SCT019 05/04 Q1009
                        TEMPO SHRA BKN014=
201502130350 METAR EGLL 130350Z 15009KT 3200 HZ BKN017 05/03 Q1010 TEMPO
                        -SHRA BKN014=
201502130320 METAR COR EGLL 130320Z 13007KT 3400 HZ FEW017 04/03 Q1010
                        TEMPO BKN014=
201502130250 METAR EGLL 130250Z 13005KT 3800 HZ SCT017 04/02 Q1011 TEMPO
                        BKN014=
201502130220 METAR EGLL 130220Z AUTO 13006KT 3600 HZ FEW022 03/02 Q1012=
201502130150 METAR EGLL 130150Z AUTO 14005KT 3400 HZ SCT033 SCT048 02/01
                        Q1013=
201502130120 METAR EGLL 130120Z AUTO 12004KT 090V150 3900 HZ SCT035 01/00
                        Q1013=
201502130050 METAR EGLL 130050Z 10005KT 4400 HZ SCT040 01/00 Q1013 NOSIG=
201502130020 METAR COR EGLL 130020Z 10005KT 4100 HZ SCT027 01/M00 Q1014
                        NOSIG=
201502122350 METAR COR EGLL 122350Z 10005KT 6000 FEW019 01/M00 Q1014 TEMPO
                        4500 HZ=
201502122320 METAR COR EGLL 122320Z 10005KT 6000 BKN022 02/00 Q1015 TEMPO
                        4500 HZ=
201502122250 METAR COR EGLL 122250Z VRB05KT 6000 BKN017 02/00 Q1016 TEMPO
                        4500 HZ=
201502122220 METAR COR EGLL 122220Z VRB05KT 6000 SCT018 BKN022 02/M01
                        Q1016 NOSIG=
201502122150 METAR EGLL 122150Z VRB05KT 7000 FEW023 02/M01 Q1016 NOSIG=
201502122120 METAR COR EGLL 122120Z 16004KT 120V230 7000 FEW023 02/M01
                        Q1017 NOSIG=
201502122050 METAR COR EGLL 122050Z 14004KT 110V200 8000 SCT023 02/M01
                        Q1017 NOSIG=
201502122020 METAR COR EGLL 122020Z VRB03KT 9000 OVC024 03/M01 Q1018 NOSIG=
201502121950 METAR EGLL 121950Z 19006KT 140V240 9000 OVC023 04/M01 Q1018
                        NOSIG=
201502121920 METAR COR EGLL 121920Z 20006KT 150V230 9000 BKN024 04/M01
                        Q1018 NOSIG=
201502121850 METAR EGLL 121850Z 21006KT 150V250 9000 OVC024 04/M01 Q1018
                        NOSIG=
201502121820 METAR COR EGLL 121820Z 18006KT 150V250 8000 OVC023 04/M01
                        Q1018 NOSIG=
201502121750 METAR COR EGLL 121750Z 19006KT 150V240 9000 BKN024 04/M00
                        Q1018 NOSIG=
201502121720 METAR COR EGLL 121720Z 19007KT 150V260 9000 BKN025 04/M00
                        Q1018 NOSIG=
201502121650 METAR EGLL 121650Z 20007KT 170V230 9000 BKN025 04/M01 Q1018
                        NOSIG=
201502121620 METAR COR EGLL 121620Z 19007KT 160V230 8000 FEW022 BKN025
                        04/M01 Q1018 NOSIG=
201502121550 METAR EGLL 121550Z 21006KT 170V250 8000 BKN024 04/M00 Q1019
                        NOSIG=
201502121520 METAR COR EGLL 121520Z 23006KT 200V260 7000 FEW020 BKN024
                        04/00 Q1019 NOSIG=
201502121450 METAR EGLL 121450Z 20005KT 160V240 7000 FEW019 OVC025 04/00
                        Q1019 NOSIG=
201502121420 METAR COR EGLL 121420Z 20005KT 130V270 7000 OVC023 04/00
                        Q1019 NOSIG=
201502121350 METAR COR EGLL 121350Z VRB04KT 8000 OVC023 04/00 Q1020 NOSIG=
201502121320 METAR COR EGLL 121320Z 00000KT 8000 OVC022 04/00 Q1020 NOSIG=
201502121250 METAR EGLL 121250Z VRB02KT 8000 OVC021 04/00 Q1020 NOSIG=
201502121220 METAR COR EGLL 121220Z VRB02KT 8000 FEW018 OVC023 04/00 Q1020
                        NOSIG=
201502121150 METAR EGLL 121150Z VRB02KT 8000 FEW018 OVC022 04/00 Q1021
                        NOSIG=
201502121120 METAR COR EGLL 121120Z VRB03KT 8000 FEW022 OVC024 04/00 Q1021
                        NOSIG=
201502121050 METAR EGLL 121050Z VRB02KT 8000 OVC022 04/00 Q1021 NOSIG=
201502121020 METAR COR EGLL 121020Z 00000KT 9000 OVC022 04/M00 Q1021 NOSIG=
201502120950 METAR COR EGLL 120950Z VRB02KT 9000 OVC022 04/M00 Q1021 NOSIG=
201502120920 METAR COR EGLL 120920Z 00000KT 9000 OVC022 04/M00 Q1021 NOSIG=
201502120850 METAR EGLL 120850Z VRB03KT 9000 OVC023 04/M00 Q1021 NOSIG=
201502120820 METAR COR EGLL 120820Z 35003KT 9000 OVC022 04/M00 Q1021 NOSIG=
201502120750 METAR EGLL 120750Z 00000KT 9000 OVC022 04/M00 Q1021 NOSIG=
201502120720 METAR COR EGLL 120720Z VRB02KT 8000 OVC021 04/M00 Q1021 NOSIG=
201502120650 METAR EGLL 120650Z VRB02KT 8000 OVC023 04/M00 Q1021 NOSIG=
201502120620 METAR COR EGLL 120620Z VRB02KT 8000 OVC022 04/M00 Q1021 NOSIG=
201502120550 METAR EGLL 120550Z 36004KT 330V040 8000 OVC022 04/00 Q1021
                        NOSIG=
201502120520 METAR COR EGLL 120520Z VRB03KT 8000 OVC022 04/00 Q1021 NOSIG=
201502120450 METAR COR EGLL 120450Z VRB03KT 8000 OVC021 04/00 Q1021 NOSIG=
201502120420 METAR COR EGLL 120420Z VRB03KT 8000 OVC021 04/00 Q1021 NOSIG=
201502120350 METAR COR EGLL 120350Z VRB02KT 9000 OVC021 04/00 Q1021 NOSIG=
201502120320 METAR COR EGLL 120320Z VRB03KT 9000 OVC021 04/00 Q1021 NOSIG=
201502120250 METAR EGLL 120250Z 01004KT 9000 OVC021 04/00 Q1021 NOSIG=
201502120220 METAR COR EGLL 120220Z VRB03KT 9000 OVC021 04/00 Q1022 NOSIG=
201502120150 METAR COR EGLL 120150Z 35004KT 8000 OVC021 04/00 Q1022 NOSIG=
201502120120 METAR EGLL 120120Z 35004KT 9000 OVC022 04/00 Q1022=
201502120050 METAR EGLL 120050Z VRB03KT 9000 OVC022 04/00 Q1022 NOSIG=
201502112320 METAR COR EGLL 112320Z VRB02KT 9000 OVC022 04/00 Q1022 NOSIG=
201502112250 METAR EGLL 112250Z 35003KT 9999 OVC022 04/00 Q1022 NOSIG=
201502112220 METAR COR EGLL 112220Z 35003KT 9999 OVC022 05/00 Q1022 NOSIG=
201502112150 METAR EGLL 112150Z 32004KT 280V360 9999 OVC022 05/00 Q1022
                        NOSIG=
201502112120 METAR COR EGLL 112120Z 36004KT 320V050 9999 OVC021 05/00
                        Q1022 NOSIG=
201502112050 METAR COR EGLL 112050Z 35003KT 9999 OVC022 05/00 Q1023 NOSIG=
201502112020 METAR COR EGLL 112020Z VRB02KT 9999 OVC022 05/00 Q1023 NOSIG=
201502111950 METAR EGLL 111950Z VRB02KT 9999 OVC022 05/00 Q1023 NOSIG=
201502111920 METAR COR EGLL 111920Z VRB02KT 9999 OVC022 05/01 Q1023 NOSIG=
201502111850 METAR EGLL 111850Z VRB02KT 9999 OVC022 05/01 Q1023 NOSIG=
201502111820 METAR COR EGLL 111820Z VRB02KT 9999 BKN022 05/01 Q1023 NOSIG=
201502111750 METAR COR EGLL 111750Z VRB03KT 9999 BKN023 05/01 Q1023 NOSIG=
201502111720 METAR COR EGLL 111720Z 18004KT 130V250 9999 BKN023 05/01
                        Q1023 NOSIG=
201502111650 METAR COR EGLL 111650Z 22004KT 180V250 9999 OVC022 05/01
                        Q1023 NOSIG=
201502111620 METAR EGLL 111620Z 21004KT 170V300 9999 OVC022 05/00 Q1023=
201502111550 METAR EGLL 111550Z 25004KT 200V330 9999 BKN022 05/01 Q1023
                        NOSIG=
201502111520 METAR COR EGLL 111520Z VRB03KT 9999 BKN021 05/01 Q1023 NOSIG=
201502111450 METAR EGLL 111450Z VRB03KT 9999 OVC020 05/01 Q1023 NOSIG=
201502111420 METAR COR EGLL 111420Z 00000KT 9999 BKN019 05/01 Q1023 NOSIG=
201502111350 METAR COR EGLL 111350Z VRB02KT 9999 BKN020 05/01 Q1023 NOSIG=
201502111320 METAR COR EGLL 111320Z 16002KT 9999 BKN020 05/01 Q1024 NOSIG=
201502111250 METAR EGLL 111250Z 14004KT 120V180 9999 BKN019 05/01 Q1024
                        NOSIG=
201502111220 METAR COR EGLL 111220Z VRB04KT 9999 BKN018 05/01 Q1024 NOSIG=
201502111150 METAR COR EGLL 111150Z 19005KT 9999 BKN018 05/01 Q1024 NOSIG=
201502111120 METAR COR EGLL 111120Z 15006KT 9999 BKN018 05/01 Q1025 NOSIG=
201502111050 METAR COR EGLL 111050Z 15005KT 9999 BKN016 05/02 Q1025 NOSIG=
201502111020 METAR COR EGLL 111020Z 17005KT 9999 BKN016 05/02 Q1025 NOSIG=
201502110950 METAR COR EGLL 110950Z 16004KT 9999 BKN016 05/02 Q1025 NOSIG=
201502110920 METAR COR EGLL 110920Z 15005KT 130V190 9999 BKN016 05/02
                        Q1025 NOSIG=
201502110850 METAR EGLL 110850Z 16005KT 9999 BKN016 05/02 Q1025 NOSIG=
201502110820 METAR COR EGLL 110820Z 13004KT 9999 BKN016 05/02 Q1025 NOSIG=
201502110750 METAR EGLL 110750Z 14004KT 9999 BKN016 05/02 Q1025 NOSIG=
201502110720 METAR COR EGLL 110720Z 16005KT 9999 BKN016 05/01 Q1026 TEMPO
                        BKN014=
201502110650 METAR COR EGLL 110650Z 14005KT 090V180 9999 BKN016 05/02
                        Q1026 NOSIG=
201502110620 METAR COR EGLL 110620Z 15004KT 9999 BKN016 05/02 Q1026 TEMPO
                        BKN014=
201502110550 METAR COR EGLL 110550Z 15004KT 9999 BKN016 05/02 Q1026 TEMPO
                        BKN014=
201502110520 METAR COR EGLL 110520Z 15004KT 9999 BKN016 05/02 Q1026 TEMPO
                        BKN014=
201502110450 METAR COR EGLL 110450Z 16004KT 9999 BKN016 05/01 Q1026 TEMPO
                        BKN014=
201502110420 METAR COR EGLL 110420Z 14004KT 9999 BKN017 05/02 Q1026 TEMPO
                        BKN014=
201502110350 METAR COR EGLL 110350Z 14006KT 9999 BKN017 05/02 Q1026 TEMPO
                        BKN014=
201502110320 METAR COR EGLL 110320Z 15005KT 9999 BKN017 05/02 Q1027 NOSIG=
201502110250 METAR COR EGLL 110250Z 13005KT 9999 BKN017 05/02 Q1027 TEMPO
                        BKN014=
201502110220 METAR COR EGLL 110220Z 14006KT 9999 BKN017 05/01 Q1027 NOSIG=
201502110150 METAR COR EGLL 110150Z 14007KT 9999 BKN018 05/01 Q1027 NOSIG=
201502110120 METAR COR EGLL 110120Z 15006KT 9999 BKN018 05/01 Q1028 NOSIG=
201502110050 METAR COR EGLL 110050Z 14006KT 9999 BKN018 05/02 Q1028 NOSIG=
201502110020 METAR COR EGLL 110020Z 13007KT 9999 BKN018 05/01 Q1028 NOSIG=
201502102350 METAR COR EGLL 102350Z 14006KT 9999 OVC019 05/01 Q1028 NOSIG=
201502102320 METAR COR EGLL 102320Z 12008KT 9999 BKN019 05/01 Q1029 NOSIG=
201502102250 METAR COR EGLL 102250Z 14007KT 9999 BKN019 05/02 Q1029 NOSIG=
201502102220 METAR COR EGLL 102220Z 12007KT 9999 BKN020 05/02 Q1029 NOSIG=
201502102150 METAR COR EGLL 102150Z 12008KT 9999 BKN022 05/02 Q1029 NOSIG=
201502102120 METAR COR EGLL 102120Z 12006KT 9999 BKN020 06/02 Q1030 NOSIG=
201502102050 METAR COR EGLL 102050Z 13006KT 9999 BKN020 06/02 Q1030 NOSIG=
201502102020 METAR COR EGLL 102020Z 12006KT 9999 BKN022 06/02 Q1030 NOSIG=
201502101950 METAR EGLL 101950Z 13005KT 9999 BKN023 06/02 Q1030 NOSIG=
201502101920 METAR EGLL 101920Z 13005KT 9999 BKN023 06/02 Q1030=
201502101850 METAR EGLL 101850Z 13005KT 9999 BKN022 06/02 Q1030 NOSIG=
201502101820 METAR COR EGLL 101820Z 14005KT 9999 OVC023 06/02 Q1030 NOSIG=
201502101750 METAR EGLL 101750Z 14004KT 9999 BKN024 06/01 Q1030 NOSIG=
201502101720 METAR COR EGLL 101720Z 15005KT 9999 BKN024 06/01 Q1030 NOSIG=
201502101650 METAR COR EGLL 101650Z 15005KT 9999 OVC023 06/02 Q1030 NOSIG=
201502101620 METAR COR EGLL 101620Z 18003KT 9999 OVC024 06/01 Q1031 NOSIG=
201502101550 METAR EGLL 101550Z 15004KT 9999 BKN026 06/02 Q1031 NOSIG=
201502101520 METAR COR EGLL 101520Z 17003KT 9999 BKN025 06/01 Q1031 NOSIG=
201502101450 METAR COR EGLL 101450Z VRB03KT 9999 OVC023 06/01 Q1032 NOSIG=
201502101420 METAR COR EGLL 101420Z 14005KT 120V180 9999 BKN022 06/01
                        Q1032 NOSIG=
201502101350 METAR COR EGLL 101350Z VRB03KT 9999 BKN023 06/01 Q1032 NOSIG=
201502101320 METAR COR EGLL 101320Z 18006KT 9999 BKN023 06/01 Q1033 NOSIG=
201502101250 METAR EGLL 101250Z 13005KT 9999 BKN023 06/01 Q1033 NOSIG=
201502101220 METAR COR EGLL 101220Z 14007KT 9999 BKN021 06/01 Q1033 NOSIG=
201502101150 METAR COR EGLL 101150Z 14005KT 100V170 9999 FEW019 BKN021
                        06/02 Q1033 NOSIG=
201502101120 METAR COR EGLL 101120Z 15005KT 9000 FEW014 BKN021 06/03 Q1034
                        NOSIG=
201502101050 METAR EGLL 101050Z 18004KT 8000 BKN022 06/03 Q1034 NOSIG=
201502101020 METAR COR EGLL 101020Z 18003KT 8000 BKN022 05/03 Q1034 NOSIG=
201502100950 METAR EGLL 100950Z 00000KT 7000 BKN022 05/03 Q1034 NOSIG=
201502100920 METAR COR EGLL 100920Z 00000KT 6000 BKN022 05/03 Q1034 NOSIG=
201502100850 METAR EGLL 100850Z 00000KT 6000 BKN021 05/03 Q1034 NOSIG=
201502100820 METAR COR EGLL 100820Z 00000KT 5000 HZ BKN020 04/03 Q1034
                        BECMG NSW=
201502100750 METAR EGLL 100750Z VRB02KT 4800 HZ BKN020 04/03 Q1033 NOSIG=
201502100720 METAR COR EGLL 100720Z 28002KT 4800 HZ BKN020 04/03 Q1033
                        NOSIG=
201502100650 METAR COR EGLL 100650Z 00000KT 4800 HZ BKN020 04/03 Q1033
                        NOSIG=
201502100620 METAR COR EGLL 100620Z VRB02KT 4800 BR BKN020 04/03 Q1033
                        NOSIG=
201502100550 METAR COR EGLL 100550Z VRB02KT 4700 BR BKN020 04/03 Q1033
                        NOSIG=
201502100520 METAR COR EGLL 100520Z VRB02KT 5000 BR BKN020 04/03 Q1033
                        TEMPO 4000=
201502100450 METAR COR EGLL 100450Z VRB02KT 5000 BR BKN020 04/03 Q1033
                        TEMPO 4000=
201502100420 METAR COR EGLL 100420Z 00000KT 5000 BR BKN020 04/03 Q1033
                        TEMPO 4000=
201502100350 METAR EGLL 100350Z 00000KT 5000 BR BKN019 04/03 Q1033 TEMPO
                        4000=
201502100320 METAR COR EGLL 100320Z 00000KT 6000 BKN019 05/03 Q1033 NOSIG=
201502100250 METAR EGLL 100250Z 00000KT 7000 BKN019 05/03 Q1033 NOSIG=
201502100220 METAR EGLL 100220Z AUTO 00000KT 5000 OVC019 05/03 Q1033=
201502100150 METAR EGLL 100150Z AUTO VRB02KT 6000 OVC020 05/03 Q1033=
201502100120 METAR EGLL 100120Z AUTO 00000KT 6000 OVC022 05/03 Q1034=
201502100050 METAR COR EGLL 100050Z 01002KT 7000 BKN023 04/03 Q1034 NOSIG=
201502100020 METAR COR EGLL 100020Z 02003KT 7000 BKN025 04/03 Q1034 NOSIG=
201502092350 METAR EGLL 092350Z 36004KT 7000 BKN025 04/03 Q1034 NOSIG=
201502092320 METAR COR EGLL 092320Z 01004KT 8000 BKN026 05/03 Q1034 NOSIG=
201502092250 METAR COR EGLL 092250Z 02003KT 9000 BKN025 05/03 Q1034 NOSIG=
201502092220 METAR COR EGLL 092220Z 01004KT 9000 BKN025 06/03 Q1034 NOSIG=
201502092150 METAR COR EGLL 092150Z 36004KT 9000 BKN026 06/03 Q1034 NOSIG=
201502092120 METAR COR EGLL 092120Z 36004KT 9000 BKN025 06/03 Q1034 NOSIG=
201502092050 METAR COR EGLL 092050Z 35004KT 9000 BKN025 06/03 Q1034 NOSIG=
201502092020 METAR COR EGLL 092020Z 35004KT 9999 BKN025 07/03 Q1034 NOSIG=
201502091950 METAR COR EGLL 091950Z 34003KT 9000 BKN025 07/03 Q1034 NOSIG=
201502091920 METAR COR EGLL 091920Z 31003KT 9000 BKN026 07/04 Q1034 NOSIG=
201502091850 METAR COR EGLL 091850Z 32003KT 9999 SCT025 07/04 Q1033 NOSIG=
201502091820 METAR COR EGLL 091820Z 32002KT CAVOK 07/03 Q1033 NOSIG=
201502091750 METAR COR EGLL 091750Z 30003KT CAVOK 08/03 Q1033 NOSIG=
201502091720 METAR COR EGLL 091720Z 32004KT CAVOK 08/03 Q1033 NOSIG=
201502091650 METAR COR EGLL 091650Z 31004KT 290V350 CAVOK 08/03 Q1033
                        NOSIG=
201502091620 METAR COR EGLL 091620Z 32004KT 300V360 CAVOK 09/03 Q1033
                        NOSIG=
201502091550 METAR EGLL 091550Z 33004KT 300V010 9999 FEW025 09/03 Q1033
                        NOSIG=
201502091520 METAR COR EGLL 091520Z 34004KT 290V010 9999 FEW025 09/03
                        Q1033 NOSIG=
201502091450 METAR EGLL 091450Z 35005KT 310V020 9999 FEW025 10/03 Q1033
                        NOSIG=
201502091420 METAR COR EGLL 091420Z 36005KT 310V050 9999 FEW026 10/03
                        Q1033 NOSIG=
201502091350 METAR COR EGLL 091350Z 34004KT 280V030 9999 FEW020 09/03
                        Q1033 NOSIG=
201502091320 METAR COR EGLL 091320Z 29004KT 250V350 9999 FEW016 08/03
                        Q1033 NOSIG=
201502091250 METAR COR EGLL 091250Z 27006KT 210V300 9999 FEW016 08/03
                        Q1034 NOSIG=
201502091220 METAR COR EGLL 091220Z 29005KT 250V360 9999 FEW014 07/03
                        Q1034 NOSIG=
201502091150 METAR COR EGLL 091150Z 27005KT 9999 BKN013 07/03 Q1034 BECMG
                        SCT013=
201502091120 METAR COR EGLL 091120Z 31004KT 270V360 9999 BKN012 06/03
                        Q1035 BECMG SCT012=
201502091050 METAR COR EGLL 091050Z 29005KT 9999 BKN011 06/03 Q1035 BECMG
                        SCT011=
201502091020 METAR COR EGLL 091020Z VRB03KT 9999 BKN010 06/03 Q1035 BECMG
                        SCT010=
201502090950 METAR COR EGLL 090950Z VRB02KT 9999 FEW009 BKN010 05/03 Q1035
                        NOSIG=
201502090920 METAR COR EGLL 090920Z VRB02KT 9999 FEW009 BKN011 05/03 Q1035
                        NOSIG=
201502090850 METAR EGLL 090850Z VRB03KT 9000 FEW009 BKN011 05/03 Q1035
                        NOSIG=
201502090820 METAR COR EGLL 090820Z 32004KT 280V010 9000 FEW009 BKN011
                        05/03 Q1034 NOSIG=
201502090750 METAR EGLL 090750Z 27004KT 220V300 8000 FEW009 BKN010 05/03
                        Q1035 TEMPO BKN009=
201502090720 METAR COR EGLL 090720Z VRB03KT 8000 FEW009 BKN010 05/03 Q1035
                        TEMPO BKN009=
201502090650 METAR COR EGLL 090650Z VRB03KT 8000 FEW009 BKN010 05/03 Q1034
                        TEMPO BKN009=
201502090620 METAR COR EGLL 090620Z 28004KT 7000 FEW009 BKN010 04/03 Q1034
                        TEMPO BKN009=
201502090550 METAR COR EGLL 090550Z 27003KT 6000 FEW009 BKN010 04/03 Q1035
                        TEMPO BKN009=
201502090520 METAR COR EGLL 090520Z 30004KT 260V340 6000 SCT009 BKN010
                        04/03 Q1034 TEMPO BKN009=
201502090450 METAR COR EGLL 090450Z 30006KT 6000 SCT008 BKN009 04/03 Q1034
                        TEMPO SCT009 BKN012=
201502090420 METAR COR EGLL 090420Z 31005KT 7000 FEW008 BKN009 04/02 Q1035
                        NOSIG=
201502090350 METAR EGLL 090350Z VRB03KT 7000 BKN009 04/02 Q1035 NOSIG=
201502090320 METAR COR EGLL 090320Z VRB03KT 7000 BKN009 03/02 Q1035 NOSIG=
201502090250 METAR EGLL 090250Z 29004KT 260V330 6000 FEW009 BKN010 03/02
                        Q1035 TEMPO 4500 BR BKN008=
201502090220 METAR EGLL 090220Z AUTO 28005KT 3500 BR OVC010 02/01 Q1036=
201502090150 METAR EGLL 090150Z AUTO 26004KT 3500 HZ BKN010 02/01 Q1036=
201502090050 METAR COR EGLL 090050Z 26004KT 5000 BR SCT006 SCT009 01/00
                        Q1036 TEMPO BKN006=
201502090020 METAR COR EGLL 090020Z 31004KT 280V350 5000 BR BKN006 02/00
                        Q1037 TEMPO 4500 BKN004=
201502082350 METAR EGLL 082350Z 32006KT CAVOK 02/00 Q1036 BECMG SCT006
                        BKN009=
201502082320 METAR COR EGLL 082320Z 31004KT 280V350 CAVOK 02/00 Q1036
                        BECMG SCT006 BKN009=
201502082250 METAR COR EGLL 082250Z 29006KT CAVOK 03/01 Q1036 BECMG BKN007=
201502082220 METAR EGLL 082220Z 29004KT CAVOK 03/01 Q1037 BECMG BKN010=
201502082150 METAR COR EGLL 082150Z 27005KT CAVOK 04/01 Q1037 BECMG BKN007=
201502082120 METAR COR EGLL 082120Z 28005KT CAVOK 04/01 Q1037 BECMG BKN008=
201502082050 METAR EGLL 082050Z 24007KT CAVOK 04/01 Q1037 NOSIG=
201502082020 METAR COR EGLL 082020Z 24006KT 210V280 CAVOK 03/01 Q1037
                        NOSIG=
201502081950 METAR COR EGLL 081950Z VRB03KT CAVOK 04/01 Q1037 NOSIG=
201502081920 METAR COR EGLL 081920Z 30003KT CAVOK 06/02 Q1038 NOSIG=
201502081850 METAR EGLL 081850Z 30004KT CAVOK 06/02 Q1038 NOSIG=
201502081820 METAR COR EGLL 081820Z VRB03KT CAVOK 07/02 Q1038 NOSIG=
201502081750 METAR COR EGLL 081750Z 30003KT CAVOK 07/01 Q1038 NOSIG=
201502081720 METAR COR EGLL 081720Z 31002KT CAVOK 08/02 Q1038 NOSIG=
201502081650 METAR EGLL 081650Z VRB02KT CAVOK 08/01 Q1038 NOSIG=
201502081620 METAR COR EGLL 081620Z 35004KT 300V030 CAVOK 08/01 Q1038
                        NOSIG=
201502081550 METAR COR EGLL 081550Z 34004KT 310V020 CAVOK 08/01 Q1038
                        NOSIG=
201502081520 METAR COR EGLL 081520Z 32005KT 290V010 CAVOK 09/01 Q1038
                        NOSIG=
201502081450 METAR EGLL 081450Z 34006KT 310V020 9999 FEW024 09/01 Q1038
                        NOSIG=
201502081420 METAR COR EGLL 081420Z 34004KT 280V030 9999 FEW024 08/01
                        Q1038 NOSIG=
201502081350 METAR EGLL 081350Z 34006KT 300V030 9999 FEW024 08/02 Q1038
                        NOSIG=
201502081320 METAR COR EGLL 081320Z 36005KT 320V050 9999 FEW024 08/02
                        Q1038 NOSIG=
201502081250 METAR COR EGLL 081250Z 01007KT 340V060 9999 FEW023 08/02
                        Q1039 NOSIG=
201502081220 METAR COR EGLL 081220Z 02007KT 350V050 9999 FEW022 08/02
                        Q1039 NOSIG=
201502081150 METAR COR EGLL 081150Z 02006KT 330V050 9999 FEW020 07/02
                        Q1039 NOSIG=
201502081120 METAR COR EGLL 081120Z 01007KT 320V040 9999 FEW018 07/02
                        Q1039 NOSIG=
201502081050 METAR EGLL 081050Z 30004KT 9999 FEW017 05/02 Q1039 NOSIG=
201502081020 METAR COR EGLL 081020Z 28004KT 9999 FEW015 05/02 Q1040 NOSIG=
201502080950 METAR COR EGLL 080950Z 29005KT 270V330 9999 SCT014 04/01
                        Q1040 NOSIG=
201502080920 METAR COR EGLL 080920Z 28006KT 8000 SCT017 03/01 Q1040 NOSIG=
201502080850 METAR EGLL 080850Z 29005KT 6000 SCT017 02/00 Q1039 NOSIG=
201502080820 METAR COR EGLL 080820Z 29004KT CAVOK 03/01 Q1039 NOSIG=
201502080750 METAR COR EGLL 080750Z 32004KT 9999 FEW021 03/01 Q1039 NOSIG=
201502080720 METAR COR EGLL 080720Z 35004KT 9999 FEW020 04/01 Q1039 NOSIG=
201502080650 METAR EGLL 080650Z 00000KT 9999 SCT020 04/01 Q1039 NOSIG=
201502080620 METAR COR EGLL 080620Z VRB03KT 9999 FEW028 04/01 Q1038 NOSIG=
201502080550 METAR COR EGLL 080550Z 00000KT 9999 FEW025 04/01 Q1038 NOSIG=
201502080520 METAR COR EGLL 080520Z VRB02KT 9999 SCT025 04/01 Q1038 NOSIG=
201502080450 METAR EGLL 080450Z VRB03KT 9999 BKN025 04/01 Q1037 NOSIG=
201502080420 METAR COR EGLL 080420Z VRB03KT 9999 BKN026 04/01 Q1037 NOSIG=
201502080350 METAR EGLL 080350Z 32004KT 9000 BKN028 04/01 Q1037 NOSIG=
201502080320 METAR COR EGLL 080320Z 30004KT 9000 FEW028 03/01 Q1037 NOSIG=
201502080250 METAR EGLL 080250Z 31005KT 8000 FEW025 04/01 Q1038 NOSIG=
201502080220 METAR EGLL 080220Z AUTO 31006KT 7000 OVC025 04/02 Q1038=
201502080150 METAR EGLL 080150Z AUTO 31004KT 6000 BKN025 04/02 Q1038=
201502080120 METAR EGLL 080120Z AUTO 32004KT 6000 OVC025 03/02 Q1038=
201502080050 METAR EGLL 080050Z VRB03KT 5000 HZ BKN026 03/02 Q1038 NOSIG=
201502080020 METAR COR EGLL 080020Z 32004KT 5000 HZ BKN026 02/01 Q1038
                        NOSIG=
201502072350 METAR COR EGLL 072350Z 32004KT 6000 NSC 03/01 Q1038 NOSIG=
201502072320 METAR COR EGLL 072320Z VRB03KT 7000 NSC 03/02 Q1038 NOSIG=
201502072250 METAR COR EGLL 072250Z 33005KT 9000 FEW012 04/02 Q1038 NOSIG=
201502072220 METAR COR EGLL 072220Z VRB03KT 9999 BKN012 05/03 Q1038 BECMG
                        SCT011=
201502072150 METAR EGLL 072150Z 36004KT 9999 BKN013 04/02 Q1038 TEMPO
                        SCT013=
201502072120 METAR COR EGLL 072120Z VRB03KT 9999 BKN016 05/03 Q1038 NOSIG=
201502072050 METAR COR EGLL 072050Z 36004KT 330V040 9999 SCT015 SCT021
                        05/02 Q1038 NOSIG=
201502072020 METAR COR EGLL 072020Z 01005KT 330V040 9999 BKN016 05/03
                        Q1038 NOSIG=
201502071950 METAR COR EGLL 071950Z 02005KT 350V060 9999 BKN016 05/03
                        Q1038 TEMPO BKN012=
201502071920 METAR COR EGLL 071920Z 01006KT 340V050 9999 BKN014 05/03
                        Q1038 TEMPO SCT014 BKN018=
201502071850 METAR EGLL 071850Z 02005KT 340V050 9999 BKN014 05/03 Q1037
                        TEMPO BKN018=
201502071820 METAR COR EGLL 071820Z 03005KT 360V060 9999 BKN014 05/02
                        Q1037 TEMPO BKN018=
201502071750 METAR EGLL 071750Z 03006KT 350V070 9999 BKN014 05/02 Q1037
                        NOSIG=
201502071720 METAR COR EGLL 071720Z 03007KT 350V070 9999 BKN014 05/02
                        Q1037 TEMPO BKN018=
201502071650 METAR COR EGLL 071650Z 03008KT 350V060 9999 BKN015 05/02
                        Q1037 NOSIG=
201502071620 METAR COR EGLL 071620Z 02007KT 330V060 9999 FEW017 BKN018
                        05/02 Q1036 NOSIG=
201502071550 METAR COR EGLL 071550Z 02006KT 340V050 9999 FEW015 BKN018
                        05/02 Q1036 NOSIG=
201502071520 METAR COR EGLL 071520Z 02006KT 340V050 9999 FEW015 BKN018
                        05/02 Q1036 NOSIG=
201502071450 METAR EGLL 071450Z 02006KT 340V050 9999 BKN018 05/02 Q1036
                        NOSIG=
201502071420 METAR COR EGLL 071420Z 02006KT 340V050 9999 FEW015 BKN020
                        05/02 Q1036 NOSIG=
201502071350 METAR EGLL 071350Z 01006KT 340V040 9999 FEW013 BKN016 05/03
                        Q1036 NOSIG=
201502071320 METAR COR EGLL 071320Z 02006KT 340V050 9999 FEW013 BKN018
                        05/02 Q1036 NOSIG=
201502071250 METAR EGLL 071250Z 03004KT 350V060 9999 FEW011 BKN022 05/03
                        Q1036 NOSIG=
201502071220 METAR COR EGLL 071220Z 03006KT 9999 FEW009 SCT011 BKN018
                        05/03 Q1036 TEMPO BKN014=
201502071150 METAR EGLL 071150Z 02006KT 350V060 9999 FEW010 BKN026 05/03
                        Q1036 TEMPO BKN012=
201502071120 METAR COR EGLL 071120Z 03004KT 9999 FEW009 BKN025 04/03 Q1037
                        TEMPO 7000 BKN014=
201502071050 METAR EGLL 071050Z 36006KT 320V040 5000 -DZ FEW006 SCT007
                        BKN012 04/03 Q1037 TEMPO FEW012 BKN016=
201502071020 METAR COR EGLL 071020Z 03004KT 8000 -RA FEW010 BKN015 03/02
                        Q1037 TEMPO BKN012=
201502070950 METAR EGLL 070950Z 02004KT 340V060 9999 SCT014 BKN029 03/02
                        Q1037 TEMPO BKN014=
201502070920 METAR COR EGLL 070920Z 35004KT 9999 BKN026 02/01 Q1037 NOSIG=
201502070850 METAR COR EGLL 070850Z VRB03KT 9000 BKN018 02/01 Q1036 TEMPO
                        BKN014=
201502070820 METAR COR EGLL 070820Z VRB03KT 9999 6000NE FEW014 SCT018
                        BKN020 02/01 Q1036 TEMPO BKN012=
201502070750 METAR COR EGLL 070750Z VRB03KT 9999 BKN022 01/00 Q1036 NOSIG=
201502070720 METAR COR EGLL 070720Z 02004KT 350V050 9999 BKN025 01/M00
                        Q1036 NOSIG=
201502070650 METAR EGLL 070650Z 35005KT 9999 BKN023 00/M00 Q1036 NOSIG=
201502070620 METAR COR EGLL 070620Z 36004KT 9999 BKN021 M00/M01 Q1035
                        TEMPO BKN014=
201502070550 METAR COR EGLL 070550Z 36004KT 320V030 9000 SCT020 M00/M01
                        Q1035 TEMPO BKN014=
201502070520 METAR COR EGLL 070520Z 36005KT CAVOK M01/M01 Q1035 TEMPO
                        BKN014=
201502070450 METAR EGLL 070450Z 35004KT CAVOK M01/M02 Q1034 TEMPO BKN014=
201502070420 METAR COR EGLL 070420Z VRB03KT CAVOK 00/M01 Q1034 NOSIG=
201502070350 METAR COR EGLL 070350Z 04005KT 350V070 CAVOK M00/M01 Q1034
                        NOSIG=
201502070320 METAR COR EGLL 070320Z 05005KT 010V070 CAVOK 01/M01 Q1034
                        NOSIG=
201502070250 METAR EGLL 070250Z 05005KT 010V080 CAVOK 01/M01 Q1034 NOSIG=
201502070220 METAR EGLL 070220Z AUTO 03005KT 350V060 9999 NCD 01/M01 Q1034=
201502070150 METAR EGLL 070150Z AUTO 03005KT 9999 NCD 01/M01 Q1034=
201502070120 METAR EGLL 070120Z AUTO 04005KT 360V060 9999 NCD 01/M01 Q1034=
201502070050 METAR EGLL 070050Z 04005KT CAVOK 01/M01 Q1034 NOSIG=
201502070020 METAR COR EGLL 070020Z 05007KT CAVOK 01/M01 Q1034 NOSIG=
201502062350 METAR COR EGLL 062350Z 04008KT CAVOK 01/M01 Q1034 NOSIG=
201502062320 METAR COR EGLL 062320Z 04008KT 010V080 CAVOK 01/M01 Q1033
                        NOSIG=
201502062250 METAR EGLL 062250Z 04007KT 010V080 CAVOK 01/M01 Q1033 NOSIG=
201502062220 METAR COR EGLL 062220Z 04007KT CAVOK 01/M01 Q1033 NOSIG=
201502062150 METAR EGLL 062150Z 03007KT 350V070 CAVOK 01/M02 Q1033 NOSIG=
201502062120 METAR COR EGLL 062120Z 04007KT CAVOK 02/M02 Q1033 NOSIG=
201502062050 METAR EGLL 062050Z 04008KT CAVOK 02/M02 Q1033 NOSIG=
201502062020 METAR COR EGLL 062020Z 04006KT 010V080 CAVOK 02/M02 Q1033
                        NOSIG=
201502061950 METAR EGLL 061950Z 05007KT CAVOK 02/M02 Q1033 NOSIG=
201502061920 METAR COR EGLL 061920Z 05008KT 9999 FEW020 02/M02 Q1032 NOSIG=
201502061850 METAR EGLL 061850Z 05008KT 010V070 CAVOK 03/M02 Q1032 NOSIG=
201502061820 METAR COR EGLL 061820Z 05007KT 360V090 CAVOK 03/M02 Q1032
                        NOSIG=
201502061750 METAR EGLL 061750Z 05009KT 020V080 CAVOK 03/M02 Q1032 NOSIG=
201502061720 METAR COR EGLL 061720Z 04011KT 9999 FEW029 03/M02 Q1031 NOSIG=
201502061650 METAR COR EGLL 061650Z 04011KT 010V080 9999 FEW030 04/M02
                        Q1031 NOSIG=
201502061620 METAR COR EGLL 061620Z 05012KT 020V080 9999 FEW032 04/M02
                        Q1031 NOSIG=
201502061550 METAR EGLL 061550Z 04014KT 9999 FEW031 05/M02 Q1030 NOSIG=
201502061520 METAR COR EGLL 061520Z 04010KT 020V080 9999 FEW032 05/M02
                        Q1030 NOSIG=
201502061450 METAR COR EGLL 061450Z 04011KT 010V080 9999 FEW032 05/M02
                        Q1030 NOSIG=
201502061420 METAR COR EGLL 061420Z 05012KT 9999 FEW032 05/M02 Q1030 NOSIG=
201502061350 METAR EGLL 061350Z 04012KT 9999 SCT034 05/M02 Q1031 NOSIG=
201502061320 METAR EGLL 061320Z AUTO 05013KT 9999 BKN031 05/M02 Q1030=
201502061250 METAR EGLL 061250Z 05013KT 9999 BKN029 05/M02 Q1030 NOSIG=
201502061220 METAR COR EGLL 061220Z 05012KT 020V080 9999 SCT030 05/M02
                        Q1030 NOSIG=
201502061150 METAR EGLL 061150Z 05013KT 9999 FEW030 04/M02 Q1031 NOSIG=
201502061120 METAR COR EGLL 061120Z 05013G25KT CAVOK 04/M02 Q1031 NOSIG=
201502061050 METAR EGLL 061050Z 04012KT 010V070 9999 FEW039 04/M02 Q1031
                        NOSIG=
201502061020 METAR COR EGLL 061020Z 04010G20KT 360V070 9999 SCT040 03/M03
                        Q1031 NOSIG=
201502060950 METAR EGLL 060950Z 06011KT 9999 BKN039 03/M03 Q1031 NOSIG=
201502060920 METAR COR EGLL 060920Z 05010KT 9999 BKN038 02/M03 Q1031 NOSIG=
201502060850 METAR COR EGLL 060850Z 05010KT 9999 BKN040 02/M03 Q1030 NOSIG=
201502060820 METAR COR EGLL 060820Z 04008KT 360V060 9999 BKN039 02/M03
                        Q1030 NOSIG=
201502060750 METAR EGLL 060750Z 04009KT 360V070 9999 BKN039 02/M03 Q1030
                        NOSIG=
201502060720 METAR COR EGLL 060720Z 04009KT 360V080 9999 BKN040 02/M03
                        Q1030 NOSIG=
201502060650 METAR COR EGLL 060650Z 05009KT 9999 BKN039 02/M03 Q1029 NOSIG=
201502060620 METAR COR EGLL 060620Z 04009KT 9999 BKN040 01/M03 Q1029 NOSIG=
201502060550 METAR COR EGLL 060550Z 05009KT 9999 BKN037 01/M03 Q1030 NOSIG=
201502060520 METAR COR EGLL 060520Z 04009KT 360V070 9999 BKN040 01/M03
                        Q1030 NOSIG=
201502060450 METAR COR EGLL 060450Z 04008KT 360V070 9999 FEW034 01/M03
                        Q1030 NOSIG=
201502060420 METAR COR EGLL 060420Z 04007KT 9999 SCT033 00/M02 Q1029 NOSIG=
201502060350 METAR EGLL 060350Z 04007KT CAVOK 00/M02 Q1029 NOSIG=
201502060320 METAR COR EGLL 060320Z 04007KT 9999 FEW033 01/M03 Q1029 NOSIG=
201502060250 METAR EGLL 060250Z 04007KT 9999 BKN035 01/M03 Q1029 NOSIG=
201502060220 METAR EGLL 060220Z AUTO 03006KT 9999 NCD 00/M03 Q1029=
201502060150 METAR EGLL 060150Z AUTO 02005KT 340V050 9999 NCD M00/M03
                        Q1029=
201502060120 METAR EGLL 060120Z AUTO 03006KT 9999 SCT041 01/M03 Q1029=
201502060050 METAR EGLL 060050Z 03006KT 010V070 9999 FEW030 01/M03 Q1029
                        NOSIG=
201502060020 METAR COR EGLL 060020Z 04007KT 9999 SCT042 01/M03 Q1029 NOSIG=
201502052350 METAR COR EGLL 052350Z 03007KT 350V060 9999 FEW045 01/M03
                        Q1029 NOSIG=
201502052320 METAR COR EGLL 052320Z 05007KT CAVOK 02/M03 Q1029 NOSIG=
201502052250 METAR EGLL 052250Z 05007KT 9999 FEW048 01/M03 Q1029 NOSIG=
201502052220 METAR COR EGLL 052220Z 04006KT 010V070 9999 FEW049 01/M02
                        Q1029 NOSIG=
201502052150 METAR EGLL 052150Z 04007KT 360V060 9999 FEW047 01/M02 Q1029
                        NOSIG=
201502052120 METAR COR EGLL 052120Z 05008KT 010V070 9999 SCT046 02/M01
                        Q1029 NOSIG=
201502052050 METAR COR EGLL 052050Z 05008KT 9999 FEW030 SCT049 02/M01
                        Q1029 NOSIG=
201502052020 METAR COR EGLL 052020Z 04009KT 9999 FEW037 SCT044 02/M02
                        Q1028 NOSIG=
201502051950 METAR EGLL 051950Z 05007KT 9999 FEW039 02/M02 Q1028 NOSIG=
201502051920 METAR COR EGLL 051920Z 04008KT 010V070 CAVOK 02/M02 Q1027
                        NOSIG=
201502051850 METAR EGLL 051850Z 04009KT 360V060 9999 FEW037 03/M02 Q1027
                        NOSIG=
201502051820 METAR COR EGLL 051820Z 05007KT CAVOK 03/M03 Q1027 NOSIG=
201502051750 METAR EGLL 051750Z 05008KT 9999 FEW048 03/M03 Q1026 NOSIG=
201502051720 METAR COR EGLL 051720Z 05007KT 9999 FEW040 03/M04 Q1026 NOSIG=
201502051650 METAR EGLL 051650Z 06012KT 9999 FEW033 04/M02 Q1026 NOSIG=
201502051620 METAR COR EGLL 051620Z 03010KT 360V080 9999 FEW023 SCT027
                        04/00 Q1025 NOSIG=
201502051550 METAR EGLL 051550Z 02008KT 330V050 9999 FEW023 SCT028 04/00
                        Q1025 NOSIG=
201502051520 METAR COR EGLL 051520Z 03008KT 350V060 9999 FEW020 05/01
                        Q1025 NOSIG=
201502051450 METAR COR EGLL 051450Z 02008KT 9999 FEW014 05/01 Q1025 NOSIG=
201502051420 METAR COR EGLL 051420Z 02008KT 350V060 9999 FEW014 04/01
                        Q1025 NOSIG=
201502051350 METAR EGLL 051350Z 01008KT 340V050 9999 FEW011 SCT014 04/02
                        Q1025 NOSIG=
201502051320 METAR COR EGLL 051320Z 02007KT 9999 FEW009 BKN012 04/02 Q1026
                        BECMG SCT012 BKN018=
201502051250 METAR COR EGLL 051250Z 02006KT 340V050 9999 SCT009 BKN012
                        03/02 Q1026 BECMG SCT014 BKN025=
201502051220 METAR COR EGLL 051220Z 02007KT 340V060 9999 SCT010 SCT048
                        03/02 Q1025 NOSIG=
201502051150 METAR COR EGLL 051150Z 02005KT 340V050 9999 SCT012 SCT037
                        03/02 Q1025 NOSIG=
201502051120 METAR COR EGLL 051120Z 02007KT 350V050 9999 FEW008 SCT010
                        BKN012 03/01 Q1026 TEMPO BKN009=
201502051050 METAR EGLL 051050Z 01007KT 330V040 9999 SCT007 BKN008 02/01
                        Q1026 BECMG SCT008 BKN011=
201502051020 METAR COR EGLL 051020Z 01008KT 350V060 9999 SCT007 BKN009
                        02/01 Q1026 BECMG SCT009 BKN012=
201502050950 METAR COR EGLL 050950Z 01007KT 340V040 9999 SCT009 BKN010
                        02/01 Q1025 TEMPO SCT007 BKN009=
201502050920 METAR COR EGLL 050920Z 01006KT 9999 SCT009 BKN010 02/01 Q1026
                        TEMPO SCT007 BKN009=
201502050850 METAR COR EGLL 050850Z 36007KT 9000 FEW008 BKN011 01/00 Q1025
                        TEMPO BKN009=
201502050820 METAR COR EGLL 050820Z 36005KT 310V040 6000 -SHRASN SCT014
                        SCT022 01/00 Q1025 RESHRA RESHSN
                        TEMPO 4500 SHSN SCT008 BKN010=
201502050750 METAR COR EGLL 050750Z 35006KT 4000 SHRASN FEW008 BKN011
                        01/M00 Q1025 TEMPO BKN008=
201502050720 METAR COR EGLL 050720Z 36006KT 330V030 7000 -SN SCT024 SCT030
                        02/M00 Q1024 TEMPO 4000 SHRASN BKN008=
201502050650 METAR COR EGLL 050650Z 36005KT 340V040 9999 FEW020 SCT025
                        02/M00 Q1024 TEMPO -SHRASN BKN014=
201502050620 METAR COR EGLL 050620Z 35005KT 310V030 9000 -SHRASN SCT013
                        SCT037 02/M00 Q1024 TEMPO -SHRASN
                        BKN014=
201502050550 METAR EGLL 050550Z 34006KT 310V020 9999 -SHRA FEW014 SCT040
                        02/00 Q1024 TEMPO -SHRASN BKN014=
201502050520 METAR COR EGLL 050520Z 34006KT 310V010 9999 SCT038 SCT045
                        02/00 Q1024 TEMPO -SHRASN BKN014=
201502050450 METAR EGLL 050450Z 34006KT 310V020 9999 FEW045 02/00 Q1024
                        TEMPO -SHRASN BKN012=
201502050420 METAR COR EGLL 050420Z 35006KT 9999 FEW010 02/00 Q1024 TEMPO
                        BKN009=
201502050350 METAR COR EGLL 050350Z 35006KT 320V030 9999 FEW010 02/00
                        Q1024 TEMPO BKN008=
201502050320 METAR COR EGLL 050320Z 36007KT 320V030 9999 SCT010 02/00
                        Q1024 TEMPO BKN008=
201502050250 METAR COR EGLL 050250Z 35005KT 320V030 9999 FEW011 02/M00
                        Q1024 TEMPO BKN013=
201502050220 METAR EGLL 050220Z AUTO 35006KT 9999 NCD 02/00 Q1024=
201502050150 METAR EGLL 050150Z AUTO 35005KT 320V020 9999 NCD 02/M00 Q1024=
201502050120 METAR EGLL 050120Z AUTO 36005KT 310V030 9999 NCD 02/M00 Q1024=
201502050050 METAR COR EGLL 050050Z 36005KT CAVOK 02/M00 Q1024 TEMPO BKN014=
201502050020 METAR COR EGLL 050020Z 36006KT CAVOK 02/M00 Q1024 TEMPO BKN015=
201502042350 METAR COR EGLL 042350Z 01006KT 330V040 9999 FEW014 02/M00
                        Q1024 TEMPO BKN014=
201502042320 METAR COR EGLL 042320Z 36007KT 320V060 9999 BKN014 02/M00
                        Q1024 TEMPO SCT014=
201502042250 METAR EGLL 042250Z 35005KT 320V030 9999 FEW015 02/M00 Q1024
                        TEMPO BKN014=
201502042220 METAR COR EGLL 042220Z 35005KT 320V020 9999 FEW016 03/M00
                        Q1024 TEMPO BKN014=
201502042150 METAR COR EGLL 042150Z 36006KT 330V030 9999 FEW016 02/M00
                        Q1024 TEMPO BKN014=
201502042120 METAR COR EGLL 042120Z 36007KT 330V030 9999 FEW021 03/M00
                        Q1024 TEMPO BKN014=
201502042050 METAR EGLL 042050Z 36006KT 320V040 9999 SCT020 03/M00 Q1024
                        TEMPO BKN014=
201502042020 METAR COR EGLL 042020Z 36006KT 9999 FEW022 03/M01 Q1023 TEMPO
                        BKN014=
201502041950 METAR EGLL 041950Z 36007KT 9999 FEW022 03/M01 Q1023 NOSIG=
201502041920 METAR COR EGLL 041920Z 36007KT 320V040 9999 FEW034 03/M00
                        Q1023 NOSIG=
201502041850 METAR EGLL 041850Z 36007KT 330V040 9999 FEW023 04/M00 Q1023
                        NOSIG=
201502041820 METAR COR EGLL 041820Z 36007KT 310V030 9999 FEW023 04/M00
                        Q1023 NOSIG=
201502041750 METAR EGLL 041750Z 35007KT 9999 SCT022 SCT039 05/00 Q1022
                        NOSIG=
201502041720 METAR COR EGLL 041720Z 35006KT 320V030 9999 SCT026 SCT031
                        04/00 Q1022 NOSIG=
201502041650 METAR COR EGLL 041650Z 33006KT 290V010 9999 SCT028 SCT034
                        05/00 Q1021 NOSIG=
201502041620 METAR COR EGLL 041620Z 34006KT 290V030 9999 FEW027 SCT033
                        05/00 Q1021 NOSIG=
201502041550 METAR COR EGLL 041550Z 34005KT 300V030 9999 SCT022 SCT031
                        04/01 Q1021 NOSIG=
201502041520 METAR COR EGLL 041520Z 35008KT 320V020 9999 BKN022 05/M00
                        Q1021 NOSIG=
201502041450 METAR COR EGLL 041450Z 34007KT 310V020 9999 FEW020 BKN029
                        04/M00 Q1021 NOSIG=
201502041420 METAR COR EGLL 041420Z 34007KT 310V020 9999 FEW023 BKN026
                        04/M00 Q1020 NOSIG=
201502041350 METAR COR EGLL 041350Z 34007KT 9999 BKN023 04/M00 Q1020 NOSIG=
201502041320 METAR COR EGLL 041320Z 34007KT 280V030 9999 SCT023 SCT028
                        05/M00 Q1020 NOSIG=
201502041250 METAR EGLL 041250Z 35007KT 310V030 9999 SCT021 SCT023 04/M00
                        Q1020 NOSIG=
201502041220 METAR COR EGLL 041220Z 35007KT 310V040 9999 SCT019 SCT021
                        04/M00 Q1020 NOSIG=
201502041150 METAR EGLL 041150Z 34006KT 300V020 9999 SCT017 SCT021 04/M00
                        Q1020 NOSIG=
201502041120 METAR COR EGLL 041120Z 33008KT 310V020 9999 SCT015 04/00
                        Q1020 NOSIG=
201502041050 METAR EGLL 041050Z 34006KT 310V020 9999 SCT014 04/01 Q1020
                        NOSIG=
201502041020 METAR COR EGLL 041020Z 35005KT 300V020 9999 FEW010 BKN012
                        03/00 Q1020 BECMG SCT015=
201502040950 METAR COR EGLL 040950Z 36006KT 320V040 9999 SCT012 SCT014
                        02/00 Q1020 TEMPO BKN012=
201502040920 METAR COR EGLL 040920Z 36007KT 330V030 9999 BKN012 02/00
                        Q1019 TEMPO SCT012=
201502040850 METAR EGLL 040850Z 36006KT 320V020 9999 SCT013 SCT014 02/00
                        Q1019 TEMPO BKN013=
201502040820 METAR COR EGLL 040820Z 01004KT 330V050 9999 SCT011 SCT013
                        02/00 Q1018 TEMPO BKN012=
201502040750 METAR EGLL 040750Z 01007KT 330V050 9999 SCT010 BKN011 02/00
                        Q1018 TEMPO BKN008=
201502040720 METAR COR EGLL 040720Z 36006KT 330V040 9999 SCT009 BKN010
                        02/00 Q1018 TEMPO BKN008=
201502040650 METAR COR EGLL 040650Z 36008KT 320V040 9999 SCT008 BKN009
                        02/00 Q1018 TEMPO SCT009 BKN012=
201502040620 METAR COR EGLL 040620Z 35005KT 310V030 8000 SCT009 BKN010
                        01/00 Q1017 TEMPO BKN009=
201502040550 METAR EGLL 040550Z 36005KT 310V030 7000 SCT007 SCT009 01/00
                        Q1017 TEMPO SCT009 BKN012=
201502040520 METAR COR EGLL 040520Z 35007KT 330V040 7000 SCT007 BKN008
                        01/M00 Q1017 TEMPO SCT012=
201502040450 METAR COR EGLL 040450Z 36008KT 330V030 7000 SCT008 BKN009
                        01/M00 Q1017 TEMPO SCT008 SCT012=
201502040420 METAR COR EGLL 040420Z 01004KT 330V040 8000 FEW010 BKN036
                        01/M01 Q1016 TEMPO BKN014=
201502040350 METAR EGLL 040350Z 01004KT 330V040 9999 SCT044 01/M01 Q1016
                        TEMPO BKN012=
201502040320 METAR COR EGLL 040320Z 01006KT 330V050 9999 BKN043 01/M00
                        Q1016 NOSIG=
201502040250 METAR EGLL 040250Z 36006KT 330V040 9999 BKN043 02/M00 Q1016
                        NOSIG=
201502040220 METAR EGLL 040220Z AUTO 36005KT 9999 BKN041 02/M00 Q1015=
201502040150 METAR EGLL 040150Z AUTO 36005KT 340V040 9999 OVC043 01/M00
                        Q1015=
201502040120 METAR EGLL 040120Z AUTO 01006KT 340V040 9999 BKN044 01/M00
                        Q1015=
201502040050 METAR COR EGLL 040050Z 02005KT 340V050 9999 BKN048 01/M00
                        Q1015 NOSIG=
201502040020 METAR COR EGLL 040020Z 02004KT 350V070 9999 FEW041 BKN049
                        01/M00 Q1015 NOSIG=
201502032350 METAR COR EGLL 032350Z 01006KT 330V040 9999 FEW045 BKN049
                        01/M00 Q1015 NOSIG=
201502032320 METAR COR EGLL 032320Z 36007KT 9999 FEW017 BKN034 01/M01
                        Q1015 TEMPO -SHSN BKN014=
201502032250 METAR COR EGLL 032250Z 36007KT 320V030 9999 SCT041 01/M01
                        Q1014 NOSIG=
201502032220 METAR COR EGLL 032220Z 01007KT CAVOK 01/M00 Q1014 NOSIG=
201502032150 METAR EGLL 032150Z 01006KT 9000 NSC 01/00 Q1014 NOSIG=
201502032120 METAR COR EGLL 032120Z 01006KT 340V040 CAVOK 01/00 Q1014
                        NOSIG=
201502032050 METAR EGLL 032050Z 36006KT CAVOK 01/00 Q1013 NOSIG=
201502032020 METAR COR EGLL 032020Z 01006KT 340V040 CAVOK 01/00 Q1013
                        NOSIG=
201502031950 METAR EGLL 031950Z 01005KT 340V050 CAVOK 02/00 Q1013 NOSIG=
201502031920 METAR COR EGLL 031920Z 01006KT 330V030 9999 FEW020 02/00
                        Q1012 NOSIG=
201502031850 METAR EGLL 031850Z 01006KT 340V060 CAVOK 02/00 Q1012 NOSIG=
201502031820 METAR COR EGLL 031820Z 01005KT 9999 FEW034 SCT041 03/01 Q1011
                        NOSIG=
201502031750 METAR COR EGLL 031750Z 36008KT 9999 FEW042 03/01 Q1011 TEMPO
                        5000 -SN=
201502031720 METAR COR EGLL 031720Z 01007KT 9999 FEW049 03/00 Q1010 TEMPO
                        5000 -SN BKN010=
201502031650 METAR COR EGLL 031650Z 01008KT 330V050 9999 FEW019 SCT040
                        03/01 Q1010 TEMPO 5000 -SN BKN010=
201502031620 METAR COR EGLL 031620Z 01008KT 340V040 9999 FEW018 04/01
                        Q1010 NOSIG=
201502031550 METAR COR EGLL 031550Z 36009KT 330V040 9999 SCT018 SCT032
                        04/01 Q1009 NOSIG=
201502031520 METAR COR EGLL 031520Z 01007KT 340V050 9999 FEW014 04/01
                        Q1009 NOSIG=
201502031450 METAR EGLL 031450Z 02008KT 340V040 9999 SCT014 04/01 Q1009
                        NOSIG=
201502031420 METAR COR EGLL 031420Z 01007KT 9999 SCT012 SCT020 04/01 Q1008
                        NOSIG=
201502031350 METAR COR EGLL 031350Z 02006KT 350V060 9999 SCT012 SCT014
                        03/01 Q1008 NOSIG=
201502031320 METAR COR EGLL 031320Z 01008KT 340V050 9999 SCT011 BKN013
                        03/01 Q1008 BECMG SCT015=
201502031250 METAR COR EGLL 031250Z 02007KT 340V060 9999 BKN010 03/01
                        Q1008 BECMG FEW010=
201502031220 METAR COR EGLL 031220Z 36008KT 320V030 9999 BKN010 03/01
                        Q1008 BECMG FEW010 SCT018=
201502031150 METAR COR EGLL 031150Z 02007KT 340V050 9999 FEW009 BKN010
                        02/01 Q1008 TEMPO FEW010 SCT020=
201502031120 METAR COR EGLL 031120Z 02007KT 320V060 9999 FEW008 BKN009
                        02/01 Q1008 TEMPO FEW009 SCT020=
201502031050 METAR COR EGLL 031050Z 02006KT 350V050 9999 FEW008 BKN009
                        02/01 Q1007 TEMPO 5000 -SN=
201502031020 METAR COR EGLL 031020Z 01007KT 340V050 9999 SCT008 BKN009
                        01/00 Q1007 NOSIG=
201502030950 METAR COR EGLL 030950Z 01005KT 330V050 9999 BKN008 01/M00
                        Q1007 TEMPO FEW008=
201502030920 METAR COR EGLL 030920Z 04008KT 9999 BKN008 01/M00 Q1007 NOSIG=
201502030850 METAR COR EGLL 030850Z 02007KT 340V060 9999 BKN008 00/M00
                        Q1006 TEMPO FEW008=
201502030820 METAR COR EGLL 030820Z 03005KT 320V060 9999 FEW008 00/M00
                        Q1006 TEMPO BKN008=
201502030750 METAR COR EGLL 030750Z 01007KT 340V040 8000 BKN008 00/M00
                        Q1005 NOSIG=
201502030720 METAR COR EGLL 030720Z 03005KT 340V060 8000 -SN FEW006 BKN008
                        00/M00 Q1005 TEMPO 3000 SN=
201502030650 METAR EGLL 030650Z 02006KT 350V050 9000 -SN FEW006 BKN008
                        00/M00 Q1005 RESN TEMPO 3000 SN=
201502030620 METAR COR EGLL 030620Z 01005KT 340V050 4300 -SN FEW008 SCT009
                        BKN010 00/M00 Q1005 TEMPO BKN009=
201502030550 METAR EGLL 030550Z 01005KT 340V040 6000 -SN BKN010 00/M00
                        Q1004 TEMPO 3000 BKN008=
201502030520 METAR COR EGLL 030520Z 02005KT 350V060 9999 BKN010 01/M00
                        Q1004 TEMPO 5000 -SN BKN008=
201502030450 METAR COR EGLL 030450Z 01004KT 320V070 8000 -SN SCT008 BKN009
                        00/00 Q1004 TEMPO 3000=
201502030420 METAR COR EGLL 030420Z 00000KT 2500 -SN FEW007 SCT008 BKN009
                        00/M00 Q1004 NOSIG=
201502030350 METAR COR EGLL 030350Z 30003KT 1500 -SN FEW004 BKN011 00/M00
                        Q1004 TEMPO 2000 SN BKN008=
201502030320 METAR COR EGLL 030320Z VRB03KT 2600 -SN FEW007 BKN011 M00/M00
                        Q1004 TEMPO SN BKN008=
201502030250 METAR COR EGLL 030250Z 29004KT 2400 -SN FEW004 BKN010 M00/M01
                        Q1004 TEMPO SN BKN008=
201502030220 METAR COR EGLL 030220Z 29004KT 2500 -SN FEW005 BKN015 M00/M01
                        Q1004 TEMPO SN BKN008=
201502030150 METAR EGLL 030150Z 30004KT 3700 -SN BKN015 M00/M01 Q1004
                        TEMPO SN BKN012=
201502030120 METAR COR EGLL 030120Z 30003KT 3300 -SN FEW011 SCT013 BKN021
                        00/M02 Q1004 TEMPO BKN012=
201502030050 METAR COR EGLL 030050Z VRB03KT 9999 -SN SCT019 BKN030 00/M02
                        Q1004 TEMPO 4000 SN BKN014=
201502030020 METAR COR EGLL 030020Z 30004KT 9999 -SN FEW028 SCT033 M00/M03
                        Q1004 TEMPO BKN014=
201502022350 METAR COR EGLL 022350Z 27003KT CAVOK M01/M04 Q1004 TEMPO
                        BKN014=
201502022320 METAR COR EGLL 022320Z 29003KT CAVOK M00/M04 Q1004 TEMPO
                        -SHSN BKN014=
201502022250 METAR EGLL 022250Z 30003KT CAVOK 00/M04 Q1004 TEMPO -SHSN
                        BKN014=
201502022220 METAR COR EGLL 022220Z 31003KT CAVOK 00/M04 Q1005 TEMPO -SHSN
                        BKN012=
201502022150 METAR COR EGLL 022150Z 29003KT CAVOK 01/M04 Q1005 TEMPO -SHSN
                        BKN014=
201502022120 METAR COR EGLL 022120Z 30003KT CAVOK 01/M04 Q1005 NOSIG=
201502022050 METAR COR EGLL 022050Z 30004KT CAVOK 01/M03 Q1005 NOSIG=
201502022020 METAR COR EGLL 022020Z 31004KT CAVOK 01/M03 Q1005 NOSIG=
201502021950 METAR EGLL 021950Z 30004KT CAVOK 01/M03 Q1005 NOSIG=
201502021920 METAR COR EGLL 021920Z 31003KT CAVOK 02/M03 Q1005 NOSIG=
201502021850 METAR EGLL 021850Z 31004KT CAVOK 01/M03 Q1005 NOSIG=
201502021820 METAR COR EGLL 021820Z 30004KT CAVOK 02/M03 Q1005 NOSIG=
201502021750 METAR EGLL 021750Z 30004KT CAVOK 02/M03 Q1005 NOSIG=
201502021720 METAR COR EGLL 021720Z 30004KT CAVOK 02/M03 Q1005 NOSIG=
201502021650 METAR EGLL 021650Z 29004KT CAVOK 02/M03 Q1005 NOSIG=
201502021620 METAR COR EGLL 021620Z 30004KT 9999 FEW025 02/M03 Q1005 NOSIG=
201502021550 METAR COR EGLL 021550Z 31005KT 280V350 9999 FEW025 02/M04
                        Q1005 NOSIG=
201502021520 METAR COR EGLL 021520Z 31005KT 9999 FEW024 03/M04 Q1005 NOSIG=
201502021450 METAR EGLL 021450Z 30006KT 9999 FEW024 03/M04 Q1005 NOSIG=
201502021420 METAR COR EGLL 021420Z 32006KT 9999 FEW024 02/M03 Q1006 NOSIG=
201502021350 METAR EGLL 021350Z 30006KT 9999 FEW024 02/M03 Q1006 NOSIG=
201502021320 METAR COR EGLL 021320Z 31006KT 9999 FEW041 02/M03 Q1006 NOSIG=
201502021250 METAR COR EGLL 021250Z 29005KT 270V330 9999 FEW048 02/M03
                        Q1006 NOSIG=
201502021220 METAR COR EGLL 021220Z 29006KT 9999 FEW041 02/M03 Q1006 NOSIG=
201502021150 METAR EGLL 021150Z 30006KT CAVOK 02/M03 Q1006 NOSIG=
201502021120 METAR COR EGLL 021120Z 29007KT CAVOK 02/M02 Q1007 NOSIG=
201502021050 METAR EGLL 021050Z 29007KT CAVOK 01/M03 Q1007 NOSIG=
201502021020 METAR COR EGLL 021020Z 29006KT CAVOK 01/M03 Q1007 NOSIG=
201502020950 METAR EGLL 020950Z 29006KT CAVOK 01/M04 Q1006 NOSIG=
201502020920 METAR COR EGLL 020920Z 29007KT CAVOK 01/M04 Q1006 NOSIG=
201502020850 METAR COR EGLL 020850Z 29006KT CAVOK 00/M04 Q1006 NOSIG=
201502020820 METAR COR EGLL 020820Z 29006KT CAVOK M01/M04 Q1006 NOSIG=
201502020750 METAR EGLL 020750Z 30005KT CAVOK M01/M04 Q1006 NOSIG=
201502020720 METAR COR EGLL 020720Z 30004KT CAVOK M02/M05 Q1006 NOSIG=
201502020650 METAR EGLL 020650Z 27007KT CAVOK M03/M05 Q1006 NOSIG=
201502020620 METAR COR EGLL 020620Z 27007KT CAVOK M02/M05 Q1006 NOSIG=
201502020550 METAR COR EGLL 020550Z 28006KT CAVOK M02/M05 Q1006 NOSIG=
201502020520 METAR COR EGLL 020520Z 28006KT CAVOK M02/M05 Q1006 NOSIG=
201502020450 METAR COR EGLL 020450Z 29006KT CAVOK M02/M05 Q1006 NOSIG=
201502020420 METAR COR EGLL 020420Z 27008KT CAVOK M02/M05 Q1006 NOSIG=
201502020350 METAR EGLL 020350Z 29007KT CAVOK M03/M05 Q1006 NOSIG=
201502020320 METAR COR EGLL 020320Z 29006KT CAVOK M02/M05 Q1006 NOSIG=
201502020250 METAR EGLL 020250Z 29005KT CAVOK M02/M05 Q1006 NOSIG=
201502020220 METAR EGLL 020220Z AUTO 29005KT 9999 NCD M03/M05 Q1006=
201502020150 METAR EGLL 020150Z AUTO 27006KT 9999 NCD M03/M05 Q1006=
201502020120 METAR EGLL 020120Z AUTO 28006KT 9999 NCD M03/M05 Q1006=
201502020050 METAR EGLL 020050Z 27005KT CAVOK M02/M05 Q1006 NOSIG=
201502020020 METAR COR EGLL 020020Z 28005KT CAVOK M02/M05 Q1006 NOSIG=
201502012350 METAR COR EGLL 012350Z 29006KT CAVOK M01/M04 Q1005 NOSIG=
201502012320 METAR COR EGLL 012320Z 30005KT CAVOK 00/M04 Q1005 NOSIG=
201502012250 METAR EGLL 012250Z 29006KT CAVOK 01/M04 Q1005 NOSIG=
201502012220 METAR COR EGLL 012220Z 31005KT CAVOK 01/M04 Q1005 NOSIG=
201502012150 METAR EGLL 012150Z 30005KT CAVOK 01/M04 Q1005 NOSIG=
201502012120 METAR COR EGLL 012120Z 30005KT CAVOK 02/M04 Q1005 NOSIG=
201502012050 METAR COR EGLL 012050Z 31006KT CAVOK 02/M04 Q1005 NOSIG=
201502012020 METAR COR EGLL 012020Z 31006KT 9999 FEW039 02/M03 Q1005 NOSIG=
201502011950 METAR EGLL 011950Z 30005KT 9999 BKN040 03/M03 Q1005 NOSIG=
201502011920 METAR COR EGLL 011920Z 32007KT 290V360 9999 BKN040 03/M03
                        Q1005 NOSIG=
201502011850 METAR EGLL 011850Z 32007KT 290V360 9999 BKN039 03/M03 Q1005
                        NOSIG=
201502011820 METAR COR EGLL 011820Z 32010KT 9999 BKN039 04/M03 Q1004 NOSIG=
201502011750 METAR EGLL 011750Z 31012KT 9999 BKN040 04/M02 Q1004 NOSIG=
201502011720 METAR COR EGLL 011720Z 32008KT 290V350 9999 BKN042 04/M02
                        Q1003 NOSIG=
201502011650 METAR EGLL 011650Z 32010KT 9999 BKN041 04/M02 Q1003 NOSIG=
201502011620 METAR COR EGLL 011620Z 32010KT 9999 BKN036 04/M02 Q1003 NOSIG=
201502011550 METAR EGLL 011550Z 32010G20KT 9999 BKN032 04/M02 Q1003 NOSIG=
201502011520 METAR COR EGLL 011520Z 31012KT 9999 BKN033 05/M02 Q1002 NOSIG=
201502011450 METAR EGLL 011450Z 31010KT 280V350 9999 BKN033 05/M02 Q1002=
201502011420 METAR COR EGLL 011420Z 32012KT 280V360 9999 BKN035 05/M02
                        Q1002 NOSIG=
201502011350 METAR EGLL 011350Z 33012G24KT 300V360 9999 BKN032 05/M01
                        Q1001 NOSIG=
201502011320 METAR COR EGLL 011320Z 32011KT 280V360 9999 BKN032 06/M01
                        Q1001 NOSIG=
201502011250 METAR EGLL 011250Z 32012KT 300V360 9999 BKN032 06/M01 Q1000
                        NOSIG=
201502011220 METAR COR EGLL 011220Z 32013G24KT 290V360 9999 BKN034 05/M01
                        Q1000 NOSIG=
201502011150 METAR EGLL 011150Z 32013KT 9999 SCT032 06/M01 Q1000 NOSIG=
201502011120 METAR COR EGLL 011120Z 33014G26KT 300V010 9999 FEW032 05/M02
                        Q0999 NOSIG=
201502011050 METAR EGLL 011050Z 33014G26KT 300V010 9999 SCT033 05/M02
                        Q0999 NOSIG=
201502011020 METAR COR EGLL 011020Z 32015G26KT 290V010 9999 SCT031 05/M01
                        Q0999 NOSIG=
201502010950 METAR EGLL 010950Z 32014KT 9999 BKN035 04/M01 Q0998 NOSIG=
201502010920 METAR COR EGLL 010920Z 32013G24KT 9999 FEW037 SCT044 04/M01
                        Q0998 NOSIG=
201502010850 METAR EGLL 010850Z 32015KT 9999 FEW037 04/M01 Q0997 NOSIG=
201502010820 METAR COR EGLL 010820Z 32014KT 290V350 9999 FEW029 SCT037
                        04/M01 Q0997 NOSIG=
201502010750 METAR EGLL 010750Z 32012KT 9999 FEW032 BKN039 04/M01 Q0997
                        NOSIG=
201502010720 METAR COR EGLL 010720Z 31014G25KT 9999 BKN035 04/M01 Q0996
                        NOSIG=
201502010650 METAR COR EGLL 010650Z 31013KT 9999 FEW033 BKN037 04/M01
                        Q0996 NOSIG=
201502010620 METAR COR EGLL 010620Z 31014G25KT 9999 SCT030 SCT038 04/M01
                        Q0996 NOSIG=
201502010550 METAR EGLL 010550Z 31012KT 9999 BKN041 04/M01 Q0995 NOSIG=
201502010520 METAR COR EGLL 010520Z 31011KT 280V340 9999 BKN044 03/M01
                        Q0995 NOSIG=
201502010450 METAR EGLL 010450Z 31013KT 9999 BKN042 03/M01 Q0995 NOSIG=
201502010420 METAR COR EGLL 010420Z 31010KT 280V360 9999 -RASN FEW015
                        SCT037 03/M00 Q0995 NOSIG=
201502010350 METAR EGLL 010350Z 31011KT 280V350 9999 -RASN SCT015 SCT030
                        03/M00 Q0995 NOSIG=
201502010320 METAR COR EGLL 010320Z 31009KT 9999 -RASN SCT026 SCT043 02/00
                        Q0995 NOSIG=
201502010250 METAR COR EGLL 010250Z 30009KT 8000 -RASN SCT018 SCT020 02/00
                        Q0995 TEMPO 4500 RASN SCT010 BKN014=
201502010220 METAR EGLL 010220Z AUTO 29009KT 4400 -SN FEW007/// BKN013///
                        //////TCU 01/00 Q0995=
201502010150 METAR EGLL 010150Z AUTO 30011KT 8000 -RASN SCT010/// SCT016///
                        //////TCU 02/M00 Q0994=
201502010120 METAR EGLL 010120Z AUTO 30011KT 9999 BKN041/// //////TCU
                        03/M01 Q0994=
201502010050 METAR EGLL 010050Z 31011KT 9999 BKN043 03/M02 Q0994 TEMPO
                        4500 -SN BKN014=
201502010020 METAR COR EGLL 010020Z 30011KT 9999 FEW041 03/M02 Q0994 NOSIG=

</pre>

</body>
</html>
