##########################################################
# Query made at 01/13/2020 12:57:31 UTC
# Time interval: from 02/01/2017 00:00  to 03/03/2017 23:59  UTC
##########################################################

##########################################################
# EGLL, London / Heathrow Airport (United Kingdom)
# WMO index: 03772
# Latitude 51-29N. Longitude 000-27W. Altitude 24 m.
##########################################################

###################################
#  METAR/SPECI from EGLL
###################################
201703032350 METAR COR EGLL 032350Z AUTO 09005KT 9999 -RA FEW013/// BKN035///
                        //////CB 08/08 Q0990 NOSIG=
201703032320 METAR COR EGLL 032320Z AUTO 15004KT 7000 -RA FEW020/// BKN033///
                        //////TCU 09/08 Q0990 TEMPO SHRA=
201703032250 METAR COR EGLL 032250Z AUTO VRB02KT 9000 -RA FEW025/// BKN041///
                        //////TCU 09/08 Q0990 TEMPO SHRA=
201703032220 METAR COR EGLL 032220Z AUTO 23004KT 180V270 9999 -RA SCT023///
                        BKN039/// //////CB 09/08 Q0991 TEMPO
                        SHRA=
201703032150 METAR COR EGLL 032150Z AUTO 23011KT 7000 -RA VCTS SCT010///
                        BKN022/// //////CB 10/08 Q0991 RERA
                        TEMPO 4500 SHRA BKN010=
201703032120 METAR COR EGLL 032120Z AUTO 14003KT 9999 -RA FEW011/// BKN021///
                        //////CB 10/08 Q0990 RESHRA TEMPO
                        4000 SHRA=
201703032050 METAR COR EGLL 032050Z AUTO 11006KT 9999 FEW046/// //////CB
                        10/08 Q0991 TEMPO SHRA=
201703032020 METAR COR EGLL 032020Z AUTO 12005KT 9999 NCD 10/08 Q0991
                        NOSIG=
201703031950 METAR COR EGLL 031950Z AUTO 13007KT 9999 NCD 10/08 Q0992
                        TEMPO SHRA=
201703031920 METAR COR EGLL 031920Z AUTO 14006KT 9999 NCD 10/08 Q0992
                        NOSIG=
201703031850 METAR COR EGLL 031850Z AUTO 16005KT 9999 NCD 10/08 Q0992
                        NOSIG=
201703031820 METAR COR EGLL 031820Z AUTO 15008KT 9999 NCD 10/08 Q0992
                        NOSIG=
201703031750 METAR COR EGLL 031750Z AUTO 15007KT 9999 NCD 10/08 Q0992
                        NOSIG=
201703031720 METAR COR EGLL 031720Z AUTO 15008KT 9999 NCD 10/08 Q0993
                        NOSIG=
201703031650 METAR COR EGLL 031650Z AUTO 16009KT 9999 FEW017 SCT033 10/08
                        Q0993 NOSIG=
201703031620 METAR EGLL 031620Z AUTO 16010KT 9999 FEW016 11/08 Q0993=
201703031550 METAR COR EGLL 031550Z 16010KT 9999 NSC 11/08 Q0993 NOSIG=
201703031520 METAR COR EGLL 031520Z AUTO 17010KT 9999 FEW015 11/08 Q0994
                        NOSIG=
201703031450 METAR COR EGLL 031450Z AUTO 17011KT 9999 FEW017 11/08 Q0994
                        NOSIG=
201703031420 METAR COR EGLL 031420Z AUTO 16011KT 9999 FEW014 11/08 Q0995
                        NOSIG=
201703031350 METAR COR EGLL 031350Z AUTO 16011KT 9999 SCT012 SCT041 11/09
                        Q0995 NOSIG=
201703031320 METAR COR EGLL 031320Z 16012KT 9999 FEW010 BKN015 10/08 Q0996
                        TEMPO BKN014=
201703031250 METAR COR EGLL 031250Z 15011KT 9999 FEW010 SCT012 BKN015
                        10/08 Q0996 TEMPO BKN013=
201703031220 METAR COR EGLL 031220Z 16011KT 9999 FEW008 BKN012 09/08 Q0997
                        BECMG SCT014 BKN022=
201703031150 METAR COR EGLL 031150Z 15009KT 9999 FEW007 BKN012 09/08 Q0997
                        BECMG FEW014 BKN025=
201703031120 METAR COR EGLL 031120Z 14009KT 9999 FEW007 BKN011 08/07 Q0998
                        BECMG SCT013=
201703031050 METAR COR EGLL 031050Z 14009KT 9000 -RA FEW006 BKN011 08/07
                        Q0998 TEMPO SCT011 BKN018=
201703031020 METAR COR EGLL 031020Z 13009KT 9999 -RA FEW007 SCT009 BKN016
                        07/07 Q0999 TEMPO BKN012=
201703030950 METAR COR EGLL 030950Z 14009KT 9000 -RA FEW007 BKN011 07/06
                        Q0999 TEMPO RA BKN009=
201703030920 METAR COR EGLL 030920Z 14010KT 8000 -RA BKN012 07/06 Q1000
                        TEMPO RA BKN009=
201703030850 METAR COR EGLL 030850Z AUTO 14009KT 9999 -RA OVC011 07/05
                        Q1000 TEMPO RA BKN009=
201703030820 METAR COR EGLL 030820Z AUTO 13010KT 9999 -RA BKN013 BKN033
                        07/05 Q1001 TEMPO RA=
201703030750 METAR COR EGLL 030750Z AUTO 12009KT 9999 -RA FEW015 BKN037
                        07/05 Q1001 TEMPO RA=
201703030720 METAR COR EGLL 030720Z AUTO 12008KT 9999 -RA SCT023/// OVC038///
                        //////TCU 06/05 Q1002 TEMPO RA=
201703030650 METAR COR EGLL 030650Z AUTO 14008KT 9000 -RA BKN025/// OVC040///
                        //////TCU 06/05 Q1003 TEMPO RA=
201703030620 METAR COR EGLL 030620Z AUTO 15009KT 9999 -RA OVC041 07/05
                        Q1003 TEMPO RA=
201703030550 METAR COR EGLL 030550Z AUTO 13006KT 9999 FEW033 07/04 Q1004
                        TEMPO RA=
201703030520 METAR COR EGLL 030520Z AUTO 12006KT 9999 NCD 06/04 Q1004
                        TEMPO RA=
201703030450 METAR COR EGLL 030450Z AUTO 11006KT 9999 NCD 05/04 Q1005
                        NOSIG=
201703030420 METAR COR EGLL 030420Z AUTO 11006KT 9999 NCD 05/04 Q1005
                        NOSIG=
201703030350 METAR COR EGLL 030350Z AUTO 10006KT 9999 NCD 05/04 Q1006
                        NOSIG=
201703030320 METAR COR EGLL 030320Z AUTO 13006KT 9999 NCD 05/04 Q1006
                        NOSIG=
201703030250 METAR COR EGLL 030250Z AUTO 11006KT 9999 NCD 05/04 Q1007
                        NOSIG=
201703030220 METAR COR EGLL 030220Z AUTO 13005KT 9999 NCD 06/04 Q1008
                        NOSIG=
201703030150 METAR COR EGLL 030150Z AUTO 15006KT 9999 NCD 06/04 Q1008
                        NOSIG=
201703030120 METAR COR EGLL 030120Z AUTO 17006KT 9999 NCD 06/04 Q1009
                        NOSIG=
201703030050 METAR COR EGLL 030050Z AUTO 17006KT 9999 NCD 07/04 Q1009
                        NOSIG=
201703030020 METAR COR EGLL 030020Z AUTO 17008KT 9999 NCD 07/04 Q1010
                        NOSIG=
201703022350 METAR EGLL 022350Z AUTO 16004KT 9999 NCD 06/04 Q1010=
201703022320 METAR COR EGLL 022320Z AUTO 17005KT 9999 NCD 06/04 Q1011
                        NOSIG=
201703022250 METAR COR EGLL 022250Z AUTO 18009KT 160V220 9999 NCD 06/04
                        Q1011 NOSIG=
201703022220 METAR COR EGLL 022220Z AUTO 18008KT 9999 NCD 06/04 Q1011
                        NOSIG=
201703022150 METAR COR EGLL 022150Z AUTO 19007KT 150V220 9999 NCD 06/04
                        Q1012 NOSIG=
201703022120 METAR COR EGLL 022120Z AUTO 19007KT 9999 NCD 06/04 Q1012
                        NOSIG=
201703022050 METAR COR EGLL 022050Z AUTO 18008KT 140V220 9999 NCD 07/04
                        Q1012 NOSIG=
201703022020 METAR COR EGLL 022020Z AUTO 17005KT 150V230 9999 NCD 06/04
                        Q1012 NOSIG=
201703021950 METAR COR EGLL 021950Z AUTO 20008KT 9999 NCD 07/03 Q1013
                        NOSIG=
201703021920 METAR COR EGLL 021920Z AUTO 21010KT 9999 NCD 08/03 Q1013
                        NOSIG=
201703021850 METAR COR EGLL 021850Z AUTO 21009KT 9999 NCD 08/02 Q1012
                        NOSIG=
201703021820 METAR COR EGLL 021820Z AUTO 21008KT 9999 NCD 08/00 Q1012
                        NOSIG=
201703021750 METAR COR EGLL 021750Z AUTO 23007KT 9999 NCD 09/M02 Q1012
                        NOSIG=
201703021720 METAR EGLL 021720Z AUTO 24008KT 9999 NCD 10/M03 Q1012=
201703021650 METAR COR EGLL 021650Z AUTO 24012KT 9999 NCD 10/M04 Q1012
                        NOSIG=
201703021620 METAR COR EGLL 021620Z AUTO 26014KT 9999 NCD 10/M06 Q1012
                        NOSIG=
201703021550 METAR COR EGLL 021550Z AUTO 25015KT 9999 NCD 11/M04 Q1012
                        NOSIG=
201703021520 METAR COR EGLL 021520Z AUTO 25015KT 9999 NCD 11/M04 Q1012
                        NOSIG=
201703021450 METAR COR EGLL 021450Z AUTO 26017KT 9999 FEW047 11/M01 Q1011
                        NOSIG=
201703021420 METAR COR EGLL 021420Z AUTO 25016KT 9999 FEW048 11/00 Q1011
                        NOSIG=
201703021350 METAR COR EGLL 021350Z AUTO 27018KT 9999 FEW049 11/00 Q1011
                        NOSIG=
201703021320 METAR COR EGLL 021320Z AUTO 27019KT 9999 NCD 11/01 Q1011
                        NOSIG=
201703021250 METAR COR EGLL 021250Z AUTO 27020KT 9999 FEW040 11/01 Q1011
                        NOSIG=
201703021220 METAR COR EGLL 021220Z AUTO 27017G28KT 9999 SCT038 11/02
                        Q1011 NOSIG=
201703021150 METAR COR EGLL 021150Z AUTO 28018KT 9999 BKN037 11/02 Q1011
                        NOSIG=
201703021120 METAR EGLL 021120Z AUTO 28019KT 9999 SCT035 10/02 Q1010=
201703021050 METAR COR EGLL 021050Z AUTO 27020KT 9999 BKN036 09/02 Q1010
                        NOSIG=
201703021020 METAR COR EGLL 021020Z AUTO 27022G32KT 9999 OVC035 09/02
                        Q1009 NOSIG=
201703020950 METAR COR EGLL 020950Z AUTO 27023KT 9999 OVC036 08/02 Q1009
                        NOSIG=
201703020920 METAR COR EGLL 020920Z AUTO 26025G35KT 9999 BKN035 08/01
                        Q1008 NOSIG=
201703020850 METAR COR EGLL 020850Z AUTO 26022KT 9999 BKN037 08/01 Q1007
                        NOSIG=
201703020820 METAR COR EGLL 020820Z AUTO 26022G34KT 9999 BKN039 07/00
                        Q1006 NOSIG=
201703020750 METAR COR EGLL 020750Z AUTO 26021KT 9999 OVC043 07/00 Q1006
                        NOSIG=
201703020720 METAR EGLL 020720Z AUTO 25017G29KT 9999 BKN037 06/01 Q1005=
201703020650 METAR COR EGLL 020650Z AUTO 25014KT 9999 SCT034 06/00 Q1005
                        NOSIG=
201703020620 METAR COR EGLL 020620Z AUTO 24016KT 9999 BKN036 06/01 Q1005
                        NOSIG=
201703020550 METAR COR EGLL 020550Z AUTO 25016KT 9999 FEW038 06/01 Q1004
                        NOSIG=
201703020520 METAR COR EGLL 020520Z AUTO 25016KT 9999 BKN038 06/01 Q1004
                        NOSIG=
201703020450 METAR COR EGLL 020450Z AUTO 25018KT 9999 FEW039 05/01 Q1004
                        NOSIG=
201703020420 METAR COR EGLL 020420Z AUTO 25019KT 9999 FEW034 SCT047 06/01
                        Q1003 NOSIG=
201703020350 METAR COR EGLL 020350Z AUTO 25020KT 9999 BKN041 06/01 Q1003
                        NOSIG=
201703020320 METAR COR EGLL 020320Z AUTO 25021KT 9999 BKN041 06/01 Q1002
                        NOSIG=
201703020250 METAR COR EGLL 020250Z AUTO 25020KT 9999 SCT042 06/01 Q1002
                        NOSIG=
201703020220 METAR COR EGLL 020220Z AUTO 24018KT 9999 NCD 06/01 Q1002
                        NOSIG=
201703020150 METAR COR EGLL 020150Z AUTO 24022KT 9999 FEW043 06/00 Q1001
                        NOSIG=
201703020120 METAR COR EGLL 020120Z AUTO 26017KT 9999 SCT040 06/M01 Q1001
                        TEMPO SHRA=
201703020050 METAR COR EGLL 020050Z AUTO 25019G29KT 9999 FEW042 06/01
                        Q1001 NOSIG=
201703020020 METAR COR EGLL 020020Z AUTO 26020KT 9999 NCD 06/01 Q1000
                        NOSIG=
201703012350 METAR COR EGLL 012350Z AUTO 26021KT 9999 FEW030 06/01 Q1000
                        NOSIG=
201703012320 METAR COR EGLL 012320Z AUTO 27019KT 9999 SCT027 06/02 Q1000
                        NOSIG=
201703012250 METAR COR EGLL 012250Z AUTO 26022KT 9999 FEW027 07/03 Q0999
                        NOSIG=
201703012220 METAR COR EGLL 012220Z AUTO 26023KT 9999 BKN026 07/03 Q0998
                        NOSIG=
201703012150 METAR COR EGLL 012150Z AUTO 25019KT 9999 BKN018 07/05 Q0998
                        NOSIG=
201703012120 METAR COR EGLL 012120Z 22009KT 9999 FEW007 SCT016 07/06 Q0997
                        NOSIG=
201703012050 METAR COR EGLL 012050Z 21009KT 9999 -RA FEW005 SCT009 07/06
                        Q0997 NOSIG=
201703012020 METAR COR EGLL 012020Z 22009KT 7000 -RA FEW005 BKN011 07/06
                        Q0998 TEMPO 4000 +SHRA BKN007=
201703011950 METAR COR EGLL 011950Z 21008KT 9000 -RA FEW005 BKN013 07/06
                        Q0998 TEMPO 4000 +SHRA BKN007=
201703011920 METAR COR EGLL 011920Z 22007KT 9000 FEW004 BKN013 07/06 Q0998
                        TEMPO 4000 +SHRA=
201703011850 METAR COR EGLL 011850Z 21008KT 170V260 6000 -RA FEW004 SCT007
                        BKN012 07/06 Q0998 TEMPO 4000 SHRA=
201703011820 METAR COR EGLL 011820Z 21007KT 6000 -RA FEW005 SCT011 07/06
                        Q0998 TEMPO BKN012=
201703011750 METAR COR EGLL 011750Z AUTO 22008KT 9999 SCT009 OVC019 07/05
                        Q0998 TEMPO BKN014=
201703011720 METAR COR EGLL 011720Z AUTO 23007KT 9999 -RA OVC029 08/05
                        Q0997 TEMPO BKN014=
201703011650 METAR COR EGLL 011650Z AUTO 23008KT 9999 FEW012 BKN032 08/05
                        Q0997 TEMPO BKN014=
201703011620 METAR COR EGLL 011620Z AUTO 22010KT 9999 -RA FEW016 OVC034
                        08/05 Q0998 TEMPO BKN014=
201703011550 METAR COR EGLL 011550Z AUTO 21010KT 180V240 9999 FEW015 BKN042
                        08/05 Q0997 NOSIG=
201703011520 METAR COR EGLL 011520Z AUTO 21010KT 170V240 9999 -RA BKN015
                        BKN031 09/05 Q0998 NOSIG=
201703011450 METAR COR EGLL 011450Z AUTO 20010KT 170V250 9999 -RA SCT017
                        OVC041 09/06 Q0998 NOSIG=
201703011420 METAR COR EGLL 011420Z AUTO 21010KT 9999 -RA BKN021 BKN040
                        09/05 Q0998 NOSIG=
201703011350 METAR COR EGLL 011350Z AUTO 21008KT 170V240 9999 -RA FEW025
                        09/05 Q0998 NOSIG=
201703011320 METAR COR EGLL 011320Z AUTO 21011KT 9999 -RA SCT023 09/04
                        Q0998 NOSIG=
201703011250 METAR COR EGLL 011250Z AUTO 22008KT 180V250 9999 -RA BKN024
                        09/04 Q0999 NOSIG=
201703011220 METAR COR EGLL 011220Z AUTO 23010KT 9999 SCT025 BKN044 09/04
                        Q0999 NOSIG=
201703011150 METAR COR EGLL 011150Z AUTO 23010KT 190V250 9999 SCT045 09/04
                        Q0999 NOSIG=
201703011120 METAR COR EGLL 011120Z AUTO 23010KT 9999 NCD 09/04 Q1000
                        NOSIG=
201703011050 METAR COR EGLL 011050Z AUTO 24010KT 9999 FEW023 08/04 Q1000
                        NOSIG=
201703011020 METAR COR EGLL 011020Z AUTO 23010KT 9999 NCD 08/04 Q1000
                        NOSIG=
201703010950 METAR COR EGLL 010950Z AUTO 23010KT 9999 NCD 07/04 Q1000
                        NOSIG=
201703010920 METAR COR EGLL 010920Z AUTO 24010KT 9999 NCD 07/03 Q1000
                        NOSIG=
201703010850 METAR COR EGLL 010850Z AUTO 23009KT 9999 NCD 07/04 Q1000
                        NOSIG=
201703010820 METAR COR EGLL 010820Z AUTO 23009KT 9999 NCD 06/04 Q1000
                        NOSIG=
201703010750 METAR COR EGLL 010750Z AUTO 23009KT 9999 FEW044 06/04 Q1000
                        NOSIG=
201703010720 METAR COR EGLL 010720Z AUTO 24008KT 9999 FEW028 BKN036 06/04
                        Q1000 NOSIG=
201703010650 METAR COR EGLL 010650Z AUTO 24009KT 9999 FEW020 OVC040 06/04
                        Q0999 NOSIG=
201703010620 METAR COR EGLL 010620Z AUTO 24008KT 9999 SCT017 BKN027 BKN042
                        06/04 Q0999 NOSIG=
201703010550 METAR COR EGLL 010550Z AUTO 26011KT 9999 BKN027 06/04 Q0999
                        NOSIG=
201703010520 METAR COR EGLL 010520Z AUTO 25011KT 9999 BKN020 BKN036 06/04
                        Q0999 NOSIG=
201703010450 METAR COR EGLL 010450Z AUTO 26009KT 9999 BKN019 OVC034 07/04
                        Q0998 NOSIG=
201703010420 METAR COR EGLL 010420Z AUTO 26008KT 9999 BKN019 OVC034 07/04
                        Q0998 NOSIG=
201703010350 METAR COR EGLL 010350Z AUTO 26009KT 9999 SCT019 OVC034 07/04
                        Q0998 NOSIG=
201703010320 METAR COR EGLL 010320Z AUTO 27010KT 9999 FEW023 BKN036 07/04
                        Q0997 NOSIG=
201703010250 METAR COR EGLL 010250Z AUTO 27008KT 9999 BKN033 07/04 Q0997
                        NOSIG=
201703010220 METAR COR EGLL 010220Z AUTO 27010KT 9999 OVC040 07/04 Q0997
                        NOSIG=
201703010150 METAR COR EGLL 010150Z AUTO 27007KT 9999 SCT045 05/03 Q0997
                        NOSIG=
201703010050 METAR COR EGLL 010050Z AUTO 28012KT 9999 NCD ///// Q////
                        NOSIG=
201702282320 METAR COR EGLL 282320Z AUTO 28016KT 9999 FEW028 SCT034 07/04
                        Q0994 NOSIG=
201702282250 METAR COR EGLL 282250Z AUTO 27015KT 9999 BKN030 07/04 Q0994
                        NOSIG=
201702282220 METAR COR EGLL 282220Z AUTO 27019KT 9999 BKN025 OVC041 08/04
                        Q0993 NOSIG=
201702282150 METAR COR EGLL 282150Z AUTO 26017KT 9999 -RA BKN025 08/04
                        Q0992 NOSIG=
201702282120 METAR COR EGLL 282120Z AUTO 26018KT 9999 -RA FEW023 08/04
                        Q0992 NOSIG=
201702282050 METAR COR EGLL 282050Z AUTO 26016KT 9999 FEW029 SCT043 07/04
                        Q0992 NOSIG=
201702282020 METAR COR EGLL 282020Z AUTO 24015KT 9999 FEW029 BKN040 07/04
                        Q0991 TEMPO SHRA=
201702281950 METAR COR EGLL 281950Z AUTO 24013KT 9999 BKN049 07/04 Q0991
                        NOSIG=
201702281920 METAR COR EGLL 281920Z AUTO 23012KT 9999 FEW029 07/04 Q0991
                        NOSIG=
201702281850 METAR COR EGLL 281850Z AUTO 24011KT 9999 -RA SCT028/// BKN042///
                        //////TCU 06/04 Q0991 TEMPO SHRA=
201702281820 METAR COR EGLL 281820Z AUTO 21009KT 9999 FEW033 05/04 Q0991
                        TEMPO SHRA=
201702281750 METAR COR EGLL 281750Z AUTO 22010KT 9999 FEW025 SCT042 06/04
                        Q0991 TEMPO SHRA=
201702281720 METAR COR EGLL 281720Z AUTO 23011KT 9999 FEW012 06/04 Q0990
                        NOSIG=
201702281650 METAR COR EGLL 281650Z AUTO 23011KT 9999 FEW012 BKN040 05/04
                        Q0990 NOSIG=
201702281620 METAR COR EGLL 281620Z AUTO 23011KT 9999 FEW013 OVC033 05/04
                        Q0990 TEMPO BKN013=
201702281550 METAR COR EGLL 281550Z AUTO 24013KT 9999 -RA BKN010 OVC032
                        05/03 Q0990 RERA BECMG SCT015=
201702281520 METAR COR EGLL 281520Z AUTO 24015KT 4600 RADZ BKN012 BKN023
                        05/02 Q0990 TEMPO 8000 -RA SCT012=
201702281450 METAR COR EGLL 281450Z AUTO 24013KT 9999 -RA BKN015 BKN028
                        06/02 Q0990 TEMPO RA=
201702281420 METAR COR EGLL 281420Z AUTO 25013KT 9999 FEW025 SCT033 07/00
                        Q0989 TEMPO RA=
201702281350 METAR COR EGLL 281350Z AUTO 26016KT 9999 FEW025 BKN034 BKN049
                        07/00 Q0989 TEMPO RA=
201702281320 METAR COR EGLL 281320Z AUTO 26016KT 9999 BKN034 07/01 Q0989
                        TEMPO RA=
201702281250 METAR COR EGLL 281250Z AUTO 27015KT 9999 SCT032 07/00 Q0989
                        TEMPO SHRA=
201702281220 METAR COR EGLL 281220Z AUTO 25014KT 9999 BKN027 07/00 Q0989
                        NOSIG=
201702281150 METAR COR EGLL 281150Z AUTO 27015KT 9999 SCT027 07/01 Q0989
                        NOSIG=
201702281120 METAR COR EGLL 281120Z AUTO 27014KT 9999 BKN020 07/02 Q0989
                        NOSIG=
201702281050 METAR COR EGLL 281050Z AUTO 26012KT 9999 FEW017 06/02 Q0988
                        NOSIG=
201702281020 METAR COR EGLL 281020Z AUTO 27012KT 9999 NCD 05/02 Q0988
                        NOSIG=
201702280950 METAR COR EGLL 280950Z AUTO 27012KT 9999 NCD 05/02 Q0988
                        NOSIG=
201702280920 METAR COR EGLL 280920Z AUTO 25009KT 9999 FEW008 04/02 Q0988
                        NOSIG=
201702280850 METAR COR EGLL 280850Z AUTO 24009KT 9999 FEW007 03/02 Q0988
                        NOSIG=
201702280820 METAR COR EGLL 280820Z AUTO 22006KT 180V250 9999 FEW008 02/01
                        Q0988 NOSIG=
201702280750 METAR COR EGLL 280750Z AUTO 23006KT 9999 FEW009 01/01 Q0987
                        NOSIG=
201702280720 METAR COR EGLL 280720Z AUTO 22006KT 9999 NCD 01/01 Q0987
                        NOSIG=
201702280650 METAR COR EGLL 280650Z AUTO 24008KT 210V270 9999 NCD 01/01
                        Q0986 NOSIG=
201702280620 METAR COR EGLL 280620Z AUTO 27006KT 9999 NCD 01/00 Q0986
                        NOSIG=
201702280550 METAR COR EGLL 280550Z AUTO 27006KT 9999 NCD 02/01 Q0986
                        NOSIG=
201702280520 METAR COR EGLL 280520Z AUTO 24008KT 9999 SCT008 02/01 Q0986
                        NOSIG=
201702280450 METAR COR EGLL 280450Z AUTO 24009KT 9999 BKN009 02/01 Q0985
                        TEMPO BKN010=
201702280420 METAR COR EGLL 280420Z AUTO 24007KT 9999 FEW013 02/01 Q0985
                        TEMPO BKN011=
201702280350 METAR COR EGLL 280350Z AUTO 24009KT 9999 SCT011 03/01 Q0985
                        NOSIG=
201702280320 METAR COR EGLL 280320Z AUTO 25010KT 9999 SCT012 03/02 Q0985
                        TEMPO BKN012=
201702280250 METAR COR EGLL 280250Z AUTO 25009KT 9999 BKN041 02/01 Q0985
                        NOSIG=
201702280220 METAR COR EGLL 280220Z AUTO 23009KT 9999 FEW024 02/01 Q0985
                        NOSIG=
201702280150 METAR COR EGLL 280150Z AUTO 24006KT 9999 SCT030 02/01 Q0984
                        TEMPO SHRA=
201702280120 METAR COR EGLL 280120Z AUTO 21004KT 9999 FEW023 03/01 Q0984
                        TEMPO SHRA=
201702280050 METAR COR EGLL 280050Z AUTO 21006KT 9999 FEW027 03/01 Q0984
                        NOSIG=
201702280020 METAR COR EGLL 280020Z AUTO 22008KT 9999 NCD 03/01 Q0984
                        NOSIG=
201702272350 METAR COR EGLL 272350Z AUTO 22008KT 9999 NCD 03/02 Q0985
                        NOSIG=
201702272320 METAR COR EGLL 272320Z AUTO 21008KT 9999 NCD 03/02 Q0985
                        NOSIG=
201702272250 METAR COR EGLL 272250Z AUTO 22008KT 9999 NCD 03/02 Q0985
                        NOSIG=
201702272220 METAR COR EGLL 272220Z AUTO 22010KT 9999 SCT024 04/02 Q0985
                        NOSIG=
201702272150 METAR COR EGLL 272150Z AUTO 23011KT 9999 SCT026 04/02 Q0985
                        NOSIG=
201702272120 METAR COR EGLL 272120Z AUTO 23010KT 9999 FEW036 04/02 Q0985
                        NOSIG=
201702272050 METAR COR EGLL 272050Z AUTO 21008KT 180V240 9999 SCT035 03/02
                        Q0985 NOSIG=
201702272020 METAR COR EGLL 272020Z AUTO 22008KT 9999 NCD 04/02 Q0985
                        NOSIG=
201702271950 METAR COR EGLL 271950Z 22010KT 9999 -SHRA FEW007 SCT013CB
                        04/02 Q0985 RESHRA RETS NOSIG=
201702271920 METAR COR EGLL 271920Z 22009KT 9999 5000W SHRA SCT014CB SCT023
                        05/02 Q0985 TEMPO SHRA=
201702271850 METAR COR EGLL 271850Z AUTO 23011KT 9999 NCD 05/02 Q0985
                        TEMPO SHRA=
201702271820 METAR COR EGLL 271820Z AUTO 23008KT 9999 FEW030 05/03 Q0985
                        TEMPO SHRA=
201702271750 METAR COR EGLL 271750Z AUTO 23010KT 9999 SCT024 05/03 Q0985
                        TEMPO SHRA=
201702271720 METAR EGLL 271720Z AUTO 23012KT 9999 FEW029/// //////TCU
                        05/03 Q0985=
201702271650 METAR COR EGLL 271650Z AUTO 23013KT 9999 FEW006 06/03 Q0984
                        TEMPO SHRA=
201702271620 METAR COR EGLL 271620Z AUTO 25013KT 9999 -RA SCT014/// BKN026///
                        OVC043/// //////CB 06/03 Q0984 TEMPO
                        BKN014=
201702271550 METAR COR EGLL 271550Z AUTO 26019KT 9999 -RA FEW013/// BKN018///
                        //////CB 06/04 Q0984 RERA REDZ TEMPO
                        SHRA BKN014=
201702271520 METAR COR EGLL 271520Z AUTO 23016G26KT 7000 -RA BKN013///
                        //////CB 07/05 Q0984 TEMPO SHRA=
201702271450 METAR COR EGLL 271450Z AUTO 20013KT 9999 BKN015 07/05 Q0984
                        TEMPO SHRA BKN012=
201702271420 METAR COR EGLL 271420Z AUTO 20010KT 9999 BKN016 07/05 Q0984
                        TEMPO SHRA BKN014=
201702271350 METAR COR EGLL 271350Z AUTO 24009G19KT 190V280 9999 -RA BKN008///
                        OVC022/// //////TCU 07/05 Q0985 TEMPO
                        SHRA BKN012=
201702271320 METAR COR EGLL 271320Z AUTO 20013G23KT 180V250 5000 -RA BKN012///
                        OVC038/// //////CB 07/05 Q0986 TEMPO
                        SHRA=
201702271250 METAR COR EGLL 271250Z AUTO 20011KT 9999 -RA BKN017/// //////TCU
                        07/05 Q0986 TEMPO SHRA=
201702271220 METAR COR EGLL 271220Z AUTO 21013KT 180V250 9999 -RA BKN021///
                        //////TCU 08/05 Q0987 TEMPO SHRA=
201702271150 METAR COR EGLL 271150Z AUTO 21014KT 9999 BKN041 09/06 Q0987
                        TEMPO SHRA=
201702271120 METAR COR EGLL 271120Z AUTO 21012KT 170V240 9999 //////TCU
                        09/06 Q0988 TEMPO SHRA=
201702271050 METAR COR EGLL 271050Z AUTO 20014KT 180V240 9999 -RA SCT023///
                        BKN039/// //////CB 08/06 Q0988 TEMPO
                        SHRA=
201702271020 METAR COR EGLL 271020Z AUTO 21013KT 180V240 8000 -RA SCT015///
                        BKN039/// //////CB 08/06 Q0990 TEMPO
                        SHRA=
201702270950 METAR COR EGLL 270950Z AUTO 21010KT 170V240 6000 -RA BKN012///
                        BKN025/// //////CB 09/07 Q0990 TEMPO
                        SHRA=
201702270920 METAR COR EGLL 270920Z AUTO 19011KT 160V240 9999 BKN013 09/07
                        Q0991 TEMPO SHRA=
201702270850 METAR COR EGLL 270850Z AUTO 20008KT 170V240 9999 BKN011 08/07
                        Q0991 TEMPO SHRA=
201702270820 METAR COR EGLL 270820Z AUTO 22008KT 170V250 9999 -RA BKN014///
                        OVC027/// //////TCU 08/06 Q0992 TEMPO
                        SHRA=
201702270750 METAR COR EGLL 270750Z AUTO 21009KT 8000 -RA FEW015 BKN026
                        BKN048 08/07 Q0993 TEMPO SHRA BKN014=
201702270720 METAR COR EGLL 270720Z AUTO 19010KT 150V230 9999 -RA FEW012
                        BKN038 08/07 Q0993 TEMPO SHRA BKN012=
201702270650 METAR COR EGLL 270650Z AUTO 17009KT 130V220 9999 FEW014 SCT025
                        OVC047 08/07 Q0994 TEMPO SHRA BKN014=
201702270620 METAR COR EGLL 270620Z AUTO 18007KT 120V220 9999 SCT009 BKN023
                        08/07 Q0994 TEMPO SHRA=
201702270550 METAR COR EGLL 270550Z AUTO 19007KT 9999 NCD 08/07 Q0994
                        TEMPO SHRA=
201702270520 METAR COR EGLL 270520Z AUTO 19007KT 9999 -RA FEW015 08/07
                        Q0995 NOSIG=
201702270450 METAR COR EGLL 270450Z AUTO 20008KT 9999 SCT017 08/06 Q0996
                        NOSIG=
201702270420 METAR COR EGLL 270420Z AUTO 20011KT 9999 NCD 08/07 Q0996
                        NOSIG=
201702270350 METAR COR EGLL 270350Z AUTO 20010KT 9999 -RA FEW014/// //////TCU
                        08/07 Q0997 NOSIG=
201702270320 METAR COR EGLL 270320Z AUTO 20009KT 9999 -RA SCT022/// BKN031///
                        //////TCU 08/07 Q0998 NOSIG=
201702270250 METAR COR EGLL 270250Z AUTO 20008KT 9999 -RA SCT018/// BKN033///
                        //////TCU 08/07 Q0998 NOSIG=
201702270220 METAR COR EGLL 270220Z AUTO 20008KT 9999 -RA BKN027/// OVC048///
                        //////TCU 08/07 Q0999 NOSIG=
201702270150 METAR COR EGLL 270150Z AUTO 21010KT 9999 -RA BKN032/// //////TCU
                        09/07 Q0999 TEMPO RA=
201702270120 METAR COR EGLL 270120Z AUTO 21012KT 9999 -RA BKN032/// OVC047///
                        //////TCU 09/08 Q1000 TEMPO RA BKN014=
201702270050 METAR COR EGLL 270050Z AUTO 20011KT 9999 -RA FEW014/// BKN039///
                        //////TCU 09/08 Q1000 TEMPO RA BKN014=
201702270020 METAR COR EGLL 270020Z AUTO 22008KT 9999 -RA FEW018/// BKN036///
                        //////TCU 09/07 Q1000 TEMPO RA BKN014=
201702262350 METAR COR EGLL 262350Z AUTO 23012KT 9999 -RA SCT036 09/07
                        Q1000 TEMPO RA BKN014=
201702262320 METAR COR EGLL 262320Z 22013KT 7000 -RA FEW012 SCT018 09/08
                        Q1001 NOSIG=
201702262250 METAR COR EGLL 262250Z 24013KT 5000 -RA BR FEW006 SCT009
                        BKN017 08/07 Q1001 RERA NOSIG=
201702262220 METAR COR EGLL 262220Z 26016KT 3800 RA BR FEW008 SCT011 BKN014
                        09/08 Q1001 BECMG 9999 NSW SCT018=
201702262150 METAR COR EGLL 262150Z 22015KT 9999 OVC015 11/09 Q1001 TEMPO
                        BKN014=
201702262120 METAR COR EGLL 262120Z 21015KT 9999 OVC013 10/09 Q1001 TEMPO
                        SCT012 BKN015=
201702262050 METAR COR EGLL 262050Z 22015KT 9999 OVC015 10/09 Q1002 TEMPO
                        BKN014=
201702262020 METAR COR EGLL 262020Z 21016G26KT 9999 -RA SCT011 BKN016
                        10/09 Q1002 TEMPO SHRA BKN012=
201702261950 METAR COR EGLL 261950Z 22017KT 9999 -RA SCT011 BKN016 10/08
                        Q1002 TEMPO SHRA BKN014=
201702261920 METAR COR EGLL 261920Z 21016G27KT 9999 SCT012 BKN015 10/08
                        Q1003 TEMPO SHRA BKN012=
201702261850 METAR COR EGLL 261850Z 21015KT 180V250 9999 BKN016 10/08
                        Q1003 TEMPO SHRA BKN012=
201702261820 METAR COR EGLL 261820Z 21017G29KT 9999 BKN021 11/07 Q1003
                        TEMPO 4000 SHRA BKN012=
201702261750 METAR COR EGLL 261750Z 22018G29KT 9999 FEW018 BKN022 11/07
                        Q1003 TEMPO SHRA BKN012=
201702261720 METAR COR EGLL 261720Z 23020KT 9999 SCT019 BKN023 11/07 Q1003
                        TEMPO SHRA BKN012=
201702261650 METAR COR EGLL 261650Z 22018G28KT 9999 SCT020 BKN027 10/07
                        Q1003 NOSIG=
201702261620 METAR COR EGLL 261620Z 22017KT 9999 FEW016 BKN024 10/07 Q1004
                        NOSIG=
201702261550 METAR COR EGLL 261550Z 22018G28KT 9999 SCT018 BKN023 11/07
                        Q1004 NOSIG=
201702261520 METAR COR EGLL 261520Z 22017KT 9999 SCT017 BKN022 11/07 Q1004
                        NOSIG=
201702261450 METAR COR EGLL 261450Z 22016KT 9999 SCT018 BKN022 11/07 Q1005
                        NOSIG=
201702261420 METAR COR EGLL 261420Z 22017KT 9999 -RA SCT023 BKN034 10/08
                        Q1006 NOSIG=
201702261350 METAR COR EGLL 261350Z AUTO 23018KT 9999 BKN019 11/07 Q1006
                        NOSIG=
201702261320 METAR COR EGLL 261320Z AUTO 23019G32KT 9999 OVC023 11/07
                        Q1006 NOSIG=
201702261250 METAR COR EGLL 261250Z AUTO 23021KT 9999 OVC023 11/06 Q1006
                        NOSIG=
201702261220 METAR COR EGLL 261220Z AUTO 23017KT 9999 BKN026/// 12/07
                        Q1007 NOSIG=
201702261150 METAR COR EGLL 261150Z 23017KT 9999 BKN026 11/07 Q1007 NOSIG=
201702261120 METAR COR EGLL 261120Z 24014KT 9999 FEW017 BKN026 11/08 Q1007
                        NOSIG=
201702261050 METAR COR EGLL 261050Z 24011KT 9999 SCT017 BKN027 11/09 Q1007
                        NOSIG=
201702261020 METAR COR EGLL 261020Z 24011KT 9999 FEW012 BKN018 10/08 Q1007
                        NOSIG=
201702260950 METAR COR EGLL 260950Z 24012KT 9999 FEW015 BKN018 11/08 Q1007
                        NOSIG=
201702260920 METAR COR EGLL 260920Z 23009KT 9999 BKN019 11/08 Q1008 NOSIG=
201702260850 METAR COR EGLL 260850Z 24009KT 9999 BKN020 11/08 Q1008 NOSIG=
201702260820 METAR COR EGLL 260820Z 25009KT 9999 SCT013 SCT023 10/09 Q1008
                        NOSIG=
201702260750 METAR COR EGLL 260750Z 27009KT 9999 FEW008 BKN013 10/09 Q1008
                        NOSIG=
201702260720 METAR COR EGLL 260720Z AUTO 23009KT 190V280 9999 -RA BKN007
                        10/09 Q1008 TEMPO BKN012=
201702260650 METAR COR EGLL 260650Z AUTO 22008KT 6000 -RA BKN007 10/09
                        Q1007 BECMG BKN012=
201702260620 METAR COR EGLL 260620Z AUTO 22010KT 9999 BKN007 10/09 Q1007
                        BECMG BKN012=
201702260550 METAR COR EGLL 260550Z AUTO 21007KT 9999 BKN007 10/09 Q1007
                        BECMG BKN012=
201702260520 METAR COR EGLL 260520Z AUTO 21008KT 9999 BKN007 OVC020 10/09
                        Q1007 BECMG BKN012=
201702260450 METAR COR EGLL 260450Z AUTO 22011KT 9999 BKN007 10/09 Q1007
                        BECMG BKN010=
201702260420 METAR COR EGLL 260420Z AUTO 22012KT 9999 BKN006 OVC026 10/09
                        Q1007 BECMG BKN010=
201702260350 METAR COR EGLL 260350Z AUTO 22011KT 9000 OVC006 10/09 Q1007
                        BECMG OVC010=
201702260320 METAR COR EGLL 260320Z AUTO 22012KT 9999 OVC007 10/09 Q1007
                        BECMG OVC010=
201702260250 METAR COR EGLL 260250Z AUTO 22011KT 9999 OVC006 10/09 Q1008
                        BECMG OVC010=
201702260220 METAR COR EGLL 260220Z AUTO 22013KT 9999 OVC008 10/09 Q1008
                        TEMPO OVC012=
201702260150 METAR EGLL 260150Z AUTO 22014KT 9999 OVC009 10/08 Q1008=
201702260120 METAR EGLL 260120Z AUTO 21011KT 9999 OVC006 09/08 Q1008=
201702260050 METAR EGLL 260050Z AUTO 22013KT 8000 OVC007 09/08 Q1009=
201702260020 METAR COR EGLL 260020Z AUTO 22014KT 9999 OVC010 10/08 Q1009
                        TEMPO OVC008=
201702252350 METAR COR EGLL 252350Z AUTO 22013KT 9999 OVC012 10/08 Q1009
                        TEMPO OVC008=
201702252320 METAR COR EGLL 252320Z AUTO 22014KT 9999 -RA OVC011 09/08
                        Q1009 TEMPO BKN008=
201702252250 METAR COR EGLL 252250Z AUTO 22014G24KT 9999 OVC012 10/07
                        Q1009 TEMPO BKN008=
201702252220 METAR COR EGLL 252220Z AUTO 22013KT 180V250 9999 -RA OVC012
                        09/07 Q1010 TEMPO BKN008=
201702252150 METAR COR EGLL 252150Z AUTO 22012KT 9999 OVC012 09/07 Q1010
                        NOSIG=
201702252120 METAR COR EGLL 252120Z AUTO 22014KT 9999 OVC012 09/07 Q1010
                        NOSIG=
201702252050 METAR COR EGLL 252050Z AUTO 22014KT 9999 -RA BKN011 09/08
                        Q1010 NOSIG=
201702252020 METAR COR EGLL 252020Z AUTO 22013KT 9000 -RA OVC012 09/08
                        Q1010 NOSIG=
201702251950 METAR COR EGLL 251950Z AUTO 22014KT 9999 -RA BKN014 09/07
                        Q1010 NOSIG=
201702251920 METAR COR EGLL 251920Z AUTO 22014KT 9999 -RA OVC015 09/07
                        Q1011 TEMPO OVC014=
201702251850 METAR COR EGLL 251850Z AUTO 23015KT 9999 OVC014 09/07 Q1011
                        TEMPO FEW014 BKN020=
201702251820 METAR COR EGLL 251820Z AUTO 22014KT 9999 OVC014 09/07 Q1011
                        TEMPO BKN018=
201702251750 METAR COR EGLL 251750Z AUTO 22011KT 190V250 9999 OVC011 09/07
                        Q1011 TEMPO SCT011 BKN015=
201702251720 METAR COR EGLL 251720Z AUTO 22011KT 9999 -RA OVC011 09/08
                        Q1011 TEMPO SCT012 BKN015=
201702251650 METAR COR EGLL 251650Z AUTO 22012KT 9999 -RA OVC012 09/08
                        Q1011 TEMPO SCT012 BKN015=
201702251620 METAR COR EGLL 251620Z AUTO 23014KT 9999 -RA OVC014 09/07
                        Q1011 TEMPO FEW014 BKN018=
201702251550 METAR COR EGLL 251550Z AUTO 22014KT 9999 -RA OVC018 10/07
                        Q1011 NOSIG=
201702251520 METAR COR EGLL 251520Z AUTO 22016KT 9999 -RA OVC020 10/07
                        Q1011 NOSIG=
201702251450 METAR COR EGLL 251450Z AUTO 22017KT 9999 OVC020 10/06 Q1011
                        NOSIG=
201702251420 METAR COR EGLL 251420Z AUTO 23017KT 9999 OVC022 10/06 Q1012
                        NOSIG=
201702251350 METAR COR EGLL 251350Z AUTO 23015KT 9999 OVC021 10/06 Q1012
                        NOSIG=
201702251320 METAR COR EGLL 251320Z 22014KT 9999 SCT021 BKN036 10/06 Q1012
                        NOSIG=
201702251250 METAR COR EGLL 251250Z AUTO 22013KT 9999 -RA BKN018 10/07
                        Q1013 NOSIG=
201702251220 METAR COR EGLL 251220Z AUTO 23012KT 9999 OVC020 10/07 Q1013
                        NOSIG=
201702251150 METAR COR EGLL 251150Z AUTO 22014KT 9999 OVC020 10/06 Q1013
                        NOSIG=
201702251120 METAR COR EGLL 251120Z AUTO 23015KT 9999 OVC020 10/06 Q1013
                        NOSIG=
201702251050 METAR COR EGLL 251050Z 23015KT 9999 BKN022 10/06 Q1014 NOSIG=
201702251020 METAR COR EGLL 251020Z 22013KT 9999 BKN022 09/06 Q1014 NOSIG=
201702250950 METAR COR EGLL 250950Z 22013KT 9999 SCT012 BKN024 09/06 Q1014
                        TEMPO BKN014=
201702250920 METAR COR EGLL 250920Z 21013KT 9999 FEW011 SCT018 BKN029
                        08/07 Q1014 TEMPO BKN014=
201702250850 METAR COR EGLL 250850Z 21014KT 9999 SCT011 BKN017 08/07 Q1014
                        TEMPO BKN013=
201702250820 METAR COR EGLL 250820Z AUTO 22014KT 9999 FEW016 OVC028 08/06
                        Q1014 NOSIG=
201702250750 METAR COR EGLL 250750Z AUTO 20011KT 9999 OVC029 08/07 Q1014
                        NOSIG=
201702250720 METAR COR EGLL 250720Z 21010KT 180V240 9999 FEW008 BKN031
                        07/07 Q1015 NOSIG=
201702250650 METAR COR EGLL 250650Z 22011KT 6000 -RADZ FEW009 BKN018 08/07
                        Q1015 TEMPO 9999 NSW=
201702250620 METAR COR EGLL 250620Z AUTO 21010KT 9999 BKN019 08/06 Q1015
                        NOSIG=
201702250550 METAR COR EGLL 250550Z AUTO 21009KT 9999 OVC025 08/06 Q1015
                        NOSIG=
201702250520 METAR COR EGLL 250520Z AUTO 21009KT 9999 FEW022 BKN031 07/06
                        Q1015 NOSIG=
201702250450 METAR COR EGLL 250450Z AUTO 21008KT 9999 FEW022 07/06 Q1016
                        NOSIG=
201702250420 METAR COR EGLL 250420Z AUTO 20006KT 9999 -RA SCT018 07/05
                        Q1016 NOSIG=
201702250350 METAR COR EGLL 250350Z AUTO 20006KT 9999 -RA NCD 07/05 Q1017
                        NOSIG=
201702250320 METAR COR EGLL 250320Z AUTO 21007KT 9999 -RA NCD 06/04 Q1016
                        NOSIG=
201702250250 METAR COR EGLL 250250Z AUTO 21007KT 9999 NCD 06/04 Q1017
                        NOSIG=
201702250220 METAR COR EGLL 250220Z AUTO 21008KT 9999 NCD 06/04 Q1017
                        NOSIG=
201702250150 METAR COR EGLL 250150Z AUTO 21007KT 9999 NCD 06/03 Q1017
                        NOSIG=
201702250120 METAR COR EGLL 250120Z AUTO 21007KT 9999 NCD 06/02 Q1018
                        NOSIG=
201702250050 METAR COR EGLL 250050Z AUTO 21007KT 9999 NCD 05/01 Q1018
                        NOSIG=
201702250020 METAR COR EGLL 250020Z AUTO 20006KT 9999 NCD 05/01 Q1018
                        NOSIG=
201702242350 METAR COR EGLL 242350Z AUTO 21007KT 9999 NCD 05/00 Q1019
                        NOSIG=
201702242320 METAR COR EGLL 242320Z AUTO 20007KT 9999 NCD 05/00 Q1019
                        NOSIG=
201702242250 METAR COR EGLL 242250Z AUTO 20008KT 170V250 9999 NCD 05/00
                        Q1019 NOSIG=
201702242220 METAR COR EGLL 242220Z AUTO 22008KT 9999 NCD 05/00 Q1019
                        NOSIG=
201702242150 METAR COR EGLL 242150Z AUTO 21008KT 9999 NCD 05/M00 Q1019
                        NOSIG=
201702242120 METAR COR EGLL 242120Z AUTO 22007KT 180V260 9999 NCD 05/M00
                        Q1019 NOSIG=
201702242050 METAR COR EGLL 242050Z AUTO 21008KT 9999 NCD 05/M00 Q1020
                        NOSIG=
201702242020 METAR COR EGLL 242020Z AUTO 21008KT 160V240 9999 NCD 05/M00
                        Q1019 NOSIG=
201702241950 METAR COR EGLL 241950Z AUTO 22007KT 190V250 9999 NCD 06/M00
                        Q1019 NOSIG=
201702241920 METAR COR EGLL 241920Z AUTO 23006KT 200V270 9999 NCD 06/M01
                        Q1019 NOSIG=
201702241850 METAR COR EGLL 241850Z AUTO 23006KT 9999 NCD 06/M00 Q1019
                        NOSIG=
201702241820 METAR COR EGLL 241820Z AUTO 25006KT 9999 NCD 07/M01 Q1019
                        NOSIG=
201702241750 METAR COR EGLL 241750Z AUTO 28005KT 9999 NCD 07/M01 Q1019
                        NOSIG=
201702241720 METAR COR EGLL 241720Z AUTO 28006KT 9999 NCD 07/M00 Q1019
                        NOSIG=
201702241650 METAR COR EGLL 241650Z AUTO 28005KT 9999 NCD 08/M00 Q1019
                        NOSIG=
201702241620 METAR COR EGLL 241620Z AUTO 29005KT 9999 FEW047 09/M01 Q1018
                        NOSIG=
201702241550 METAR COR EGLL 241550Z AUTO 30005KT 9999 BKN043 09/M01 Q1018
                        NOSIG=
201702241520 METAR COR EGLL 241520Z AUTO 29006KT 270V330 9999 BKN042 09/M00
                        Q1018 NOSIG=
201702241450 METAR EGLL 241450Z AUTO 30008KT 9999 BKN043 09/M00 Q1018=
201702241420 METAR COR EGLL 241420Z AUTO 30009KT 9999 BKN041 10/00 Q1018
                        NOSIG=
201702241350 METAR COR EGLL 241350Z AUTO 31007KT 9999 BKN041 09/M01 Q1018
                        NOSIG=
201702241320 METAR COR EGLL 241320Z AUTO 30007KT 270V340 9999 BKN038 09/M00
                        Q1018 NOSIG=
201702241250 METAR COR EGLL 241250Z AUTO 31009KT 9999 BKN036 09/M00 Q1018
                        NOSIG=
201702241220 METAR COR EGLL 241220Z AUTO 30008KT 9999 BKN033 08/00 Q1018
                        NOSIG=
201702241150 METAR COR EGLL 241150Z AUTO 31010KT 9999 SCT032 09/01 Q1018
                        NOSIG=
201702241120 METAR COR EGLL 241120Z AUTO 31009KT 280V350 9999 SCT031 10/00
                        Q1017 NOSIG=
201702241050 METAR COR EGLL 241050Z AUTO 31009KT 280V340 9999 FEW031 08/01
                        Q1017 NOSIG=
201702241020 METAR COR EGLL 241020Z AUTO 31010KT 270V350 9999 FEW028 08/01
                        Q1017 NOSIG=
201702240950 METAR COR EGLL 240950Z AUTO 30008KT 270V340 9999 NCD 07/01
                        Q1016 NOSIG=
201702240920 METAR COR EGLL 240920Z AUTO 29009KT 9999 NCD 06/01 Q1016
                        NOSIG=
201702240850 METAR COR EGLL 240850Z AUTO 28007KT 9999 NCD 05/01 Q1016
                        NOSIG=
201702240820 METAR COR EGLL 240820Z AUTO 29007KT 9999 NCD 04/01 Q1015
                        NOSIG=
201702240750 METAR COR EGLL 240750Z AUTO 29009KT 9999 NCD 04/01 Q1015
                        NOSIG=
201702240720 METAR COR EGLL 240720Z AUTO 28008KT 9999 NCD 03/01 Q1014
                        NOSIG=
201702240650 METAR COR EGLL 240650Z AUTO 28007KT 9999 NCD 03/01 Q1014
                        NOSIG=
201702240620 METAR COR EGLL 240620Z AUTO 28008KT 9999 NCD 02/01 Q1014
                        NOSIG=
201702240550 METAR COR EGLL 240550Z AUTO 28007KT 9999 NCD 03/01 Q1013
                        NOSIG=
201702240520 METAR COR EGLL 240520Z AUTO 28007KT 9999 NCD 03/01 Q1013
                        NOSIG=
201702240450 METAR COR EGLL 240450Z AUTO 27008KT 9999 FEW036 03/01 Q1012
                        NOSIG=
201702240420 METAR COR EGLL 240420Z AUTO 27009KT 9999 SCT030 03/01 Q1012
                        NOSIG=
201702240350 METAR COR EGLL 240350Z AUTO 27008KT 9999 SCT030 03/01 Q1012
                        NOSIG=
201702240320 METAR COR EGLL 240320Z AUTO 28008KT 9999 BKN030 04/01 Q1011
                        NOSIG=
201702240250 METAR COR EGLL 240250Z AUTO 28008KT 9999 NCD 04/01 Q1011
                        NOSIG=
201702240220 METAR COR EGLL 240220Z AUTO 29009KT 9999 FEW035 04/01 Q1011
                        NOSIG=
201702240150 METAR COR EGLL 240150Z AUTO 29009KT 9999 BKN031 05/02 Q1010
                        NOSIG=
201702240120 METAR COR EGLL 240120Z AUTO 28011KT 9999 SCT030 05/02 Q1010
                        NOSIG=
201702240050 METAR COR EGLL 240050Z AUTO 27009KT 9999 SCT026 05/02 Q1009
                        NOSIG=
201702240020 METAR COR EGLL 240020Z AUTO 28009KT 9999 -RA BKN021 05/03
                        Q1009 NOSIG=
201702232350 METAR COR EGLL 232350Z AUTO 29009KT 9999 BKN020 05/03 Q1008
                        NOSIG=
201702232320 METAR COR EGLL 232320Z AUTO 28010KT 9999 -RA BKN017 BKN034
                        05/03 Q1008 NOSIG=
201702232250 METAR COR EGLL 232250Z AUTO 28011KT 9999 FEW022 BKN035 05/03
                        Q1007 NOSIG=
201702232220 METAR COR EGLL 232220Z AUTO 29011KT 9999 SCT024 SCT035 06/02
                        Q1007 NOSIG=
201702232150 METAR COR EGLL 232150Z AUTO 29012KT 9999 FEW026 SCT043 06/02
                        Q1006 NOSIG=
201702232120 METAR COR EGLL 232120Z AUTO 29011KT 9999 SCT024 07/03 Q1005
                        NOSIG=
201702232050 METAR COR EGLL 232050Z AUTO 30014KT 270V340 9999 FEW027 SCT044
                        07/02 Q1005 NOSIG=
201702232020 METAR EGLL 232020Z AUTO 30012G22KT 9999 SCT025 SCT040 BKN049
                        07/03 Q1004=
201702231950 METAR EGLL 231950Z AUTO 29014KT 9999 -RA FEW023 BKN049 07/03
                        Q1003=
201702231920 METAR COR EGLL 231920Z AUTO 29015KT 9999 BKN027 07/03 Q1003
                        NOSIG=
201702231850 METAR COR EGLL 231850Z AUTO 29017KT 9999 SCT030 BKN041 07/02
                        Q1002 NOSIG=
201702231820 METAR COR EGLL 231820Z AUTO 29021KT 9999 -RA FEW018 SCT028
                        BKN043 08/01 Q1001 NOSIG=
201702231750 METAR COR EGLL 231750Z AUTO 29019G30KT 9999 BKN037 08/01
                        Q1000 NOSIG=
201702231720 METAR COR EGLL 231720Z AUTO 29020G35KT 9999 BKN038 09/01
                        Q0999 NOSIG=
201702231650 METAR COR EGLL 231650Z AUTO 28023G35KT 9999 OVC041 09/01
                        Q0998 NOSIG=
201702231620 METAR COR EGLL 231620Z AUTO 28021KT 9999 BKN040 10/01 Q0997
                        NOSIG=
201702231550 METAR COR EGLL 231550Z AUTO 28028G41KT 9999 BKN043 10/01
                        Q0996 NOSIG=
201702231520 METAR COR EGLL 231520Z AUTO 28029G43KT 9999 BKN046 10/01
                        Q0995 NOSIG=
201702231450 METAR COR EGLL 231450Z AUTO 28027G38KT 9999 BKN045 11/01
                        Q0994 NOSIG=
201702231420 METAR COR EGLL 231420Z AUTO 27030G41KT 9999 BKN042 11/02
                        Q0993 NOSIG=
201702231350 METAR EGLL 231350Z AUTO 27030G41KT 9999 BKN044 11/02 Q0993=
201702231320 METAR COR EGLL 231320Z AUTO 27032G46KT 9999 BKN041 11/02
                        Q0993 NOSIG=
201702231250 METAR COR EGLL 231250Z AUTO 27033G43KT 9999 BKN039 11/02
                        Q0993 NOSIG=
201702231220 METAR COR EGLL 231220Z AUTO 26031G43KT 9999 BKN037 10/03
                        Q0993 NOSIG=
201702231150 METAR COR EGLL 231150Z AUTO 26030G42KT 9999 BKN037 11/03
                        Q0992 NOSIG=
201702231120 METAR COR EGLL 231120Z AUTO 25031G41KT 9999 BKN036 11/03
                        Q0993 NOSIG=
201702231050 METAR COR EGLL 231050Z AUTO 26032G43KT 9999 OVC036 10/03
                        Q0992 NOSIG=
201702231020 METAR COR EGLL 231020Z AUTO 26031KT 9999 BKN033 11/03 Q0992
                        NOSIG=
201702230950 METAR COR EGLL 230950Z AUTO 26027G39KT 9999 BKN033 11/04
                        Q0992 NOSIG=
201702230920 METAR COR EGLL 230920Z AUTO 25023KT 9999 BKN030 10/05 Q0992
                        NOSIG=
201702230850 METAR COR EGLL 230850Z 25022G34KT 9999 SCT039 10/05 Q0992
                        NOSIG=
201702230820 METAR COR EGLL 230820Z 26026G40KT 9999 R27R/1200 -RA FEW010
                        BKN020 10/07 Q0992 RERA NOSIG=
201702230750 METAR COR EGLL 230750Z 22022G34KT 9999 SCT020 BKN031 11/08
                        Q0992 TEMPO 26030G42KT 2500 +RA BKN010=
201702230720 METAR COR EGLL 230720Z 23021KT 9999 FEW025 BKN030 11/08 Q0993
                        TEMPO 3000 +RA BKN014=
201702230650 METAR COR EGLL 230650Z 23021KT 9999 -RA FEW012 BKN022 10/09
                        Q0994 TEMPO 3000 +RA BKN014=
201702230620 METAR COR EGLL 230620Z 23020KT 8000 -RA FEW009 BKN012 10/09
                        Q0995 TEMPO 4000 -RADZ=
201702230550 METAR COR EGLL 230550Z AUTO 21016KT 4900 HZ BKN010 10/09
                        Q0995 TEMPO 24026G40KT=
201702230520 METAR COR EGLL 230520Z AUTO 22016KT 9000 -RA BKN014 10/09
                        Q0997 TEMPO 4000 -RADZ=
201702230450 METAR COR EGLL 230450Z AUTO 23016KT 9999 BKN010 11/09 Q0998
                        NOSIG=
201702230420 METAR COR EGLL 230420Z AUTO 23015KT 9999 -RA BKN007 OVC016
                        10/09 Q0999 TEMPO 4000 -RADZ=
201702230350 METAR COR EGLL 230350Z AUTO 22014KT 9000 OVC008 10/09 Q0999
                        TEMPO 4000 -RADZ=
201702230320 METAR COR EGLL 230320Z AUTO 22012KT 9999 OVC009 11/09 Q1000
                        TEMPO BKN011=
201702230250 METAR COR EGLL 230250Z AUTO 22014KT 9999 OVC010 11/09 Q1001
                        NOSIG=
201702230220 METAR COR EGLL 230220Z AUTO 23015KT 9999 OVC010 11/09 Q1002
                        NOSIG=
201702230150 METAR COR EGLL 230150Z AUTO 22016KT 9999 OVC011 11/09 Q1003
                        NOSIG=
201702230120 METAR COR EGLL 230120Z AUTO 23016KT 9999 BKN010 11/09 Q1003
                        NOSIG=
201702230050 METAR COR EGLL 230050Z AUTO 23017KT 9999 OVC009 11/09 Q1004
                        TEMPO BKN012=
201702230020 METAR COR EGLL 230020Z AUTO 23015KT 9999 OVC008 11/10 Q1004
                        TEMPO BKN012=
201702222350 METAR COR EGLL 222350Z 23014KT 9999 FEW008 BKN012 11/10 Q1005
                        NOSIG=
201702222320 METAR COR EGLL 222320Z 23013KT 9999 FEW006 BKN013 11/10 Q1005
                        NOSIG=
201702222250 METAR COR EGLL 222250Z 23014KT 7000 -RA FEW006 BKN013 11/10
                        Q1005 NOSIG=
201702222220 METAR COR EGLL 222220Z 23013KT 7000 -RA FEW006 BKN015 11/10
                        Q1006 TEMPO BKN012=
201702222150 METAR COR EGLL 222150Z 23011KT 9999 FEW007 BKN015 11/10 Q1006
                        TEMPO BKN012=
201702222120 METAR COR EGLL 222120Z 24012KT 9999 SCT006 BKN013 11/10 Q1007
                        NOSIG=
201702222050 METAR EGLL 222050Z 24010KT 6000 -RA FEW008 BKN010 11/11 Q1007=
201702222020 METAR COR EGLL 222020Z 24012KT 8000 -RA FEW008 BKN010 12/10
                        Q1007 NOSIG=
201702221950 METAR COR EGLL 221950Z 24011KT 9000 -RA FEW009 BKN011 12/10
                        Q1007 NOSIG=
201702221920 METAR COR EGLL 221920Z AUTO 26015KT 9999 -RA BKN011 12/10
                        Q1007 NOSIG=
201702221850 METAR COR EGLL 221850Z AUTO 26016KT 9999 OVC013 12/10 Q1007
                        TEMPO OVC015=
201702221820 METAR COR EGLL 221820Z AUTO 26018KT 9000 OVC014 13/10 Q1007
                        TEMPO OVC016=
201702221750 METAR COR EGLL 221750Z AUTO 26015KT 9999 OVC016 13/09 Q1007
                        NOSIG=
201702221720 METAR COR EGLL 221720Z AUTO 26019G30KT 9999 OVC018 13/09
                        Q1007 NOSIG=
201702221650 METAR COR EGLL 221650Z AUTO 26019KT 9999 OVC018 13/09 Q1007
                        NOSIG=
201702221620 METAR COR EGLL 221620Z AUTO 25020KT 9999 OVC017 13/10 Q1007
                        NOSIG=
201702221550 METAR COR EGLL 221550Z AUTO 26020KT 9999 OVC017 13/10 Q1007
                        NOSIG=
201702221520 METAR COR EGLL 221520Z AUTO 26022KT 9999 OVC016 13/10 Q1007
                        NOSIG=
201702221450 METAR COR EGLL 221450Z AUTO 26017KT 9999 OVC015 13/10 Q1007
                        NOSIG=
201702221420 METAR COR EGLL 221420Z AUTO 25017KT 9999 OVC015 13/10 Q1008
                        NOSIG=
201702221350 METAR COR EGLL 221350Z AUTO 26018KT 9999 OVC015 13/10 Q1008
                        NOSIG=
201702221320 METAR COR EGLL 221320Z 26015KT 9999 SCT018 BKN020 13/10 Q1008
                        NOSIG=
201702221250 METAR COR EGLL 221250Z 26015KT 9999 FEW017 BKN020 13/10 Q1009
                        NOSIG=
201702221220 METAR COR EGLL 221220Z 25017KT 9999 -RA FEW018 BKN020 13/10
                        Q1008 NOSIG=
201702221150 METAR COR EGLL 221150Z 25018KT 9999 FEW017 BKN022 13/10 Q1008
                        NOSIG=
201702221120 METAR COR EGLL 221120Z 25019KT 9999 FEW019 BKN023 13/10 Q1008
                        NOSIG=
201702221050 METAR COR EGLL 221050Z 25018KT 9999 BKN022 13/10 Q1008 NOSIG=
201702221020 METAR COR EGLL 221020Z 25020KT 9999 FEW015 BKN019 13/10 Q1009
                        NOSIG=
201702220950 METAR COR EGLL 220950Z AUTO 25018KT 9999 BKN013 12/10 Q1009
                        TEMPO BKN015=
201702220920 METAR COR EGLL 220920Z 25014KT 9999 BKN014 12/10 Q1009 TEMPO
                        BKN015=
201702220850 METAR COR EGLL 220850Z 25014KT 9999 BKN013 11/10 Q1009 NOSIG=
201702220820 METAR COR EGLL 220820Z 24013KT 9000 -RADZ FEW008 BKN011 11/10
                        Q1009 NOSIG=
201702220750 METAR COR EGLL 220750Z 24013KT 6000 -RADZ FEW008 BKN011 11/10
                        Q1009 NOSIG=
201702220720 METAR COR EGLL 220720Z AUTO 24014KT 9999 OVC012 11/09 Q1009
                        NOSIG=
201702220650 METAR COR EGLL 220650Z AUTO 24014KT 9999 OVC013 12/09 Q1009
                        NOSIG=
201702220620 METAR COR EGLL 220620Z AUTO 25015KT 9999 OVC012 11/09 Q1009
                        TEMPO BKN015=
201702220550 METAR COR EGLL 220550Z AUTO 25015KT 9999 OVC013 11/09 Q1009
                        NOSIG=
201702220520 METAR COR EGLL 220520Z AUTO 25017KT 9999 OVC014 11/09 Q1009
                        TEMPO BKN016=
201702220450 METAR COR EGLL 220450Z AUTO 25017KT 9999 OVC014 11/09 Q1009
                        TEMPO BKN016=
201702220420 METAR COR EGLL 220420Z AUTO 25017KT 9999 OVC015 12/09 Q1009
                        TEMPO BKN012=
201702220350 METAR COR EGLL 220350Z AUTO 25017KT 9999 OVC017 12/09 Q1009
                        NOSIG=
201702220320 METAR COR EGLL 220320Z AUTO 25019KT 9999 OVC020 12/08 Q1009
                        NOSIG=
201702220250 METAR COR EGLL 220250Z AUTO 25020KT 9999 OVC021 12/08 Q1010
                        NOSIG=
201702220220 METAR COR EGLL 220220Z AUTO 25019KT 9999 OVC020 12/08 Q1010
                        NOSIG=
201702220150 METAR COR EGLL 220150Z AUTO 25019G31KT 9999 OVC019 12/09
                        Q1010 NOSIG=
201702220120 METAR COR EGLL 220120Z AUTO 25017KT 9999 OVC018 12/09 Q1010
                        NOSIG=
201702220050 METAR COR EGLL 220050Z AUTO 25020KT 9999 OVC016 12/09 Q1011
                        NOSIG=
201702220020 METAR COR EGLL 220020Z AUTO 25015KT 9999 OVC015 12/09 Q1011
                        TEMPO BKN014=
201702212350 METAR COR EGLL 212350Z AUTO 25016KT 9999 OVC017 12/09 Q1011
                        NOSIG=
201702212320 METAR COR EGLL 212320Z AUTO 24016KT 9999 OVC016 12/09 Q1012
                        NOSIG=
201702212250 METAR COR EGLL 212250Z AUTO 23013KT 9999 BKN016 12/09 Q1012
                        NOSIG=
201702212220 METAR COR EGLL 212220Z AUTO 24015KT 9999 BKN017 12/09 Q1012
                        NOSIG=
201702212150 METAR COR EGLL 212150Z AUTO 24015KT 9999 OVC016 12/09 Q1012
                        NOSIG=
201702212120 METAR COR EGLL 212120Z AUTO 25019KT 9999 OVC016 12/09 Q1012
                        NOSIG=
201702212050 METAR COR EGLL 212050Z AUTO 24015KT 9999 BKN017 12/09 Q1013
                        NOSIG=
201702212020 METAR COR EGLL 212020Z AUTO 24014KT 9999 BKN015 12/09 Q1013
                        NOSIG=
201702211950 METAR COR EGLL 211950Z AUTO 26011KT 9999 OVC015 12/09 Q1013
                        NOSIG=
201702211920 METAR COR EGLL 211920Z AUTO 26017KT 9999 OVC015 12/09 Q1013
                        NOSIG=
201702211850 METAR COR EGLL 211850Z AUTO 26016KT 9999 OVC015 12/10 Q1013
                        NOSIG=
201702211820 METAR COR EGLL 211820Z AUTO 24013KT 9999 BKN015 13/10 Q1013
                        NOSIG=
201702211750 METAR COR EGLL 211750Z AUTO 26012KT 9999 OVC015 13/10 Q1014
                        NOSIG=
201702211720 METAR COR EGLL 211720Z AUTO 26015KT 9999 BKN014 13/10 Q1014
                        TEMPO BKN016=
201702211650 METAR COR EGLL 211650Z AUTO 25013KT 9999 OVC013 13/10 Q1014
                        TEMPO BKN016=
201702211620 METAR COR EGLL 211620Z AUTO 25013KT 9999 OVC013 13/10 Q1014
                        TEMPO BKN016=
201702211550 METAR COR EGLL 211550Z AUTO 25015KT 9999 OVC014 13/10 Q1014
                        BECMG BKN016=
201702211520 METAR COR EGLL 211520Z 25014KT 9999 BKN017 13/10 Q1015 NOSIG=
201702211450 METAR COR EGLL 211450Z AUTO 26016KT 9999 BKN015 13/10 Q1015
                        NOSIG=
201702211420 METAR COR EGLL 211420Z AUTO 25015KT 9999 OVC015 13/10 Q1015
                        NOSIG=
201702211350 METAR COR EGLL 211350Z AUTO 26011KT 9999 OVC015 13/10 Q1016
                        NOSIG=
201702211320 METAR COR EGLL 211320Z AUTO 26012KT 9999 OVC015 13/10 Q1016
                        NOSIG=
201702211250 METAR COR EGLL 211250Z AUTO 26013KT 9999 BKN013 13/10 Q1017
                        TEMPO BKN016=
201702211220 METAR COR EGLL 211220Z 27010KT 9999 BKN014 13/10 Q1017 TEMPO
                        BKN016=
201702211150 METAR COR EGLL 211150Z 27013KT 9999 SCT012 BKN015 13/11 Q1017
                        TEMPO BKN012=
201702211120 METAR COR EGLL 211120Z 26012KT 9999 BKN013 13/11 Q1017 TEMPO
                        BKN015=
201702211050 METAR COR EGLL 211050Z 27011KT 9999 FEW009 BKN012 12/11 Q1017
                        NOSIG=
201702211020 METAR COR EGLL 211020Z 27010KT 9999 FEW009 BKN012 12/11 Q1018
                        TEMPO BKN009=
201702210950 METAR COR EGLL 210950Z 27010KT 9999 BKN011 12/10 Q1018 TEMPO
                        BKN009=
201702210920 METAR COR EGLL 210920Z 27010KT 9999 FEW008 BKN011 11/10 Q1018
                        TEMPO BKN008=
201702210850 METAR COR EGLL 210850Z AUTO 27010KT 9999 OVC007 11/10 Q1018
                        TEMPO BKN010=
201702210820 METAR COR EGLL 210820Z 27010KT 9999 BKN009 11/10 Q1018 TEMPO
                        BKN011=
201702210750 METAR COR EGLL 210750Z 27009KT 9999 BKN008 10/10 Q1017 BECMG
                        BKN012=
201702210720 METAR COR EGLL 210720Z 25010KT 9999 FEW006 SCT008 10/10 Q1017
                        TEMPO BKN008=
201702210650 METAR COR EGLL 210650Z 25010KT 6000 -RADZ FEW004 BKN008 10/10
                        Q1017 TEMPO FEW008 BKN015=
201702210620 METAR COR EGLL 210620Z 26009KT 2400 -RADZ SCT008 BKN011 10/10
                        Q1017 TEMPO BKN008=
201702210550 METAR COR EGLL 210550Z 26009KT 6000 -DZ FEW009 BKN012 10/10
                        Q1017 TEMPO BKN009=
201702210520 METAR COR EGLL 210520Z 24009KT 2300 -RADZ FEW005 SCT008 BKN011
                        10/10 Q1017 TEMPO BKN008=
201702210450 METAR COR EGLL 210450Z 24007KT 3600 -RADZ FEW005 SCT008 BKN019
                        10/10 Q1017 TEMPO BKN008=
201702210420 METAR COR EGLL 210420Z 25008KT 3000 -RADZ FEW006 BKN016 10/10
                        Q1017 TEMPO BKN014=
201702210350 METAR COR EGLL 210350Z 26009KT 3000 -RADZ FEW010 BKN014 10/10
                        Q1018 REDZ TEMPO 7000=
201702210320 METAR COR EGLL 210320Z AUTO 26009KT 2000 DZ OVC008 11/10
                        Q1018 TEMPO 6000 -DZ FEW008 BKN012=
201702210250 METAR EGLL 210250Z AUTO 26010KT 9999 BKN012 OVC031 11/09
                        Q1018=
201702210220 METAR COR EGLL 210220Z AUTO 26009KT 9999 BKN012 11/09 Q1018
                        TEMPO BKN015=
201702210150 METAR COR EGLL 210150Z AUTO 26012KT 9999 BKN011 11/09 Q1018
                        TEMPO BKN015=
201702210120 METAR COR EGLL 210120Z AUTO 26013KT 9999 SCT011 11/09 Q1018
                        BECMG BKN012=
201702210050 METAR COR EGLL 210050Z AUTO 26013KT 9999 FEW011 BKN022 11/09
                        Q1018 BECMG BKN010=
201702210020 METAR COR EGLL 210020Z AUTO 27010KT 9999 SCT032 11/09 Q1018
                        NOSIG=
201702202350 METAR COR EGLL 202350Z AUTO 27010KT 9999 NCD 11/09 Q1018
                        NOSIG=
201702202320 METAR COR EGLL 202320Z AUTO 27012KT 9999 NCD 11/09 Q1018
                        NOSIG=
201702202250 METAR COR EGLL 202250Z AUTO 27014KT 9999 NCD 12/09 Q1018
                        NOSIG=
201702202220 METAR COR EGLL 202220Z AUTO 26013KT 9999 NCD 12/10 Q1018
                        NOSIG=
201702202150 METAR COR EGLL 202150Z AUTO 26013KT 9999 FEW033 12/10 Q1018
                        TEMPO BKN012=
201702202120 METAR COR EGLL 202120Z AUTO 27011KT 9999 OVC030 12/10 Q1018
                        TEMPO BKN012=
201702202050 METAR COR EGLL 202050Z AUTO 27011KT 9999 FEW011 BKN033 12/10
                        Q1018 TEMPO BKN012=
201702202020 METAR COR EGLL 202020Z AUTO 27012KT 9999 BKN036 12/10 Q1018
                        NOSIG=
201702201950 METAR COR EGLL 201950Z AUTO 27014KT 9999 FEW022 BKN036 13/10
                        Q1018 NOSIG=
201702201920 METAR COR EGLL 201920Z AUTO 27015KT 9999 BKN020 OVC035 13/11
                        Q1018 NOSIG=
201702201850 METAR COR EGLL 201850Z AUTO 26013KT 9999 FEW033 OVC039 13/11
                        Q1018 NOSIG=
201702201820 METAR COR EGLL 201820Z AUTO 27013KT 9999 OVC034 13/11 Q1018
                        NOSIG=
201702201750 METAR COR EGLL 201750Z AUTO 27015KT 9999 BKN032 13/11 Q1018
                        NOSIG=
201702201720 METAR COR EGLL 201720Z AUTO 27010KT 9999 FEW017 13/10 Q1018
                        NOSIG=
201702201650 METAR COR EGLL 201650Z AUTO 27014KT 9999 FEW017 14/11 Q1017
                        NOSIG=
201702201620 METAR COR EGLL 201620Z AUTO 26014KT 9999 FEW019 14/11 Q1017
                        NOSIG=
201702201550 METAR COR EGLL 201550Z AUTO 25014KT 9999 FEW019 15/11 Q1018
                        NOSIG=
201702201520 METAR COR EGLL 201520Z AUTO 27015KT 9999 FEW023 15/11 Q1018
                        NOSIG=
201702201450 METAR COR EGLL 201450Z AUTO 27015KT 9999 BKN024 16/11 Q1017
                        NOSIG=
201702201420 METAR COR EGLL 201420Z AUTO 26015KT 9999 FEW028 17/11 Q1017
                        NOSIG=
201702201350 METAR COR EGLL 201350Z AUTO 25013KT 9999 FEW033 18/11 Q1017
                        NOSIG=
201702201320 METAR COR EGLL 201320Z AUTO 28017KT 9999 OVC024 17/12 Q1018
                        NOSIG=
201702201250 METAR COR EGLL 201250Z AUTO 26011KT 230V300 9999 FEW018 17/12
                        Q1018 NOSIG=
201702201220 METAR COR EGLL 201220Z AUTO 25013KT 9999 FEW014 15/11 Q1018
                        NOSIG=
201702201150 METAR COR EGLL 201150Z AUTO 24010KT 9999 NCD 15/11 Q1018
                        NOSIG=
201702201120 METAR COR EGLL 201120Z AUTO 23011KT 9999 FEW012 15/11 Q1018
                        NOSIG=
201702201050 METAR COR EGLL 201050Z AUTO 22009KT 9999 SCT013 13/11 Q1019
                        NOSIG=
201702201020 METAR COR EGLL 201020Z 23008KT 9999 FEW016 12/10 Q1019 NOSIG=
201702200950 METAR COR EGLL 200950Z 24009KT 9999 FEW012 12/10 Q1019 TEMPO
                        BKN012=
201702200920 METAR COR EGLL 200920Z 25010KT 9999 BKN012 12/11 Q1019 NOSIG=
201702200850 METAR COR EGLL 200850Z 28009KT 8000 BKN008 12/11 Q1019 BECMG
                        BKN012=
201702200820 METAR COR EGLL 200820Z 26009KT 6000 OVC009 11/11 Q1019 BECMG
                        BKN012=
201702200750 METAR COR EGLL 200750Z 26009KT 7000 OVC007 11/10 Q1019 NOSIG=
201702200720 METAR COR EGLL 200720Z 25008KT 6000 OVC008 11/10 Q1019 NOSIG=
201702200650 METAR COR EGLL 200650Z 27004KT 6000 OVC008 11/10 Q1019 TEMPO
                        BKN010=
201702200620 METAR COR EGLL 200620Z AUTO 24007KT 5000 BR OVC005 10/10
                        Q1019 TEMPO 4500 BR=
201702200550 METAR COR EGLL 200550Z AUTO 25005KT 5000 BR OVC005 10/10
                        Q1019 TEMPO 4500 BR=
201702200520 METAR COR EGLL 200520Z AUTO 24007KT 6000 OVC005 10/09 Q1019
                        NOSIG=
201702200450 METAR COR EGLL 200450Z AUTO 25007KT 7000 OVC006 10/09 Q1019
                        NOSIG=
201702200420 METAR COR EGLL 200420Z 23007KT 8000 OVC007 10/09 Q1019 NOSIG=
201702200350 METAR COR EGLL 200350Z 24005KT 9999 OVC007 10/09 Q1019 NOSIG=
201702200320 METAR COR EGLL 200320Z 24007KT 9999 OVC007 10/09 Q1019 TEMPO
                        4500 -DZ=
201702200250 METAR COR EGLL 200250Z 25009KT 9000 OVC007 10/09 Q1019 TEMPO
                        4500 -DZ=
201702200220 METAR COR EGLL 200220Z 25008KT 9999 OVC007 10/09 Q1020 NOSIG=
201702200150 METAR COR EGLL 200150Z 26008KT 9999 OVC007 10/09 Q1020 TEMPO
                        4500 -DZ=
201702200120 METAR COR EGLL 200120Z 25008KT 9999 SCT005 BKN007 10/09 Q1020
                        TEMPO 4500 BR=
201702200050 METAR COR EGLL 200050Z 25010KT 7000 SCT005 BKN006 10/09 Q1021
                        TEMPO 45000 BR=
201702200020 METAR EGLL 200020Z 24007KT 9999 SCT006 BKN008 10/09 Q1021=
201702192350 METAR COR EGLL 192350Z 27009KT 9999 SCT008 BKN010 10/09 Q1021
                        BECMG BKN008=
201702192320 METAR COR EGLL 192320Z 23007KT 9999 SCT009 BKN018 10/09 Q1021
                        BECMG BKN009=
201702192250 METAR COR EGLL 192250Z 24008KT 9999 SCT011 BKN015 10/09 Q1021
                        BECMG BKN009=
201702192220 METAR COR EGLL 192220Z 23008KT 9999 SCT009 BKN021 10/09 Q1021
                        BECMG BKN009=
201702192150 METAR COR EGLL 192150Z 23008KT 7000 -DZ FEW006 BKN008 10/09
                        Q1021 TEMPO 4000 BR=
201702192120 METAR COR EGLL 192120Z 23007KT 8000 -DZ FEW006 BKN008 10/09
                        Q1021 TEMPO 4000 -DZ=
201702192050 METAR COR EGLL 192050Z AUTO 23008KT 9999 OVC007 11/09 Q1021
                        NOSIG=
201702192020 METAR COR EGLL 192020Z AUTO 24008KT 9999 OVC009 11/09 Q1021
                        TEMPO BKN010=
201702191950 METAR COR EGLL 191950Z AUTO 23007KT 9999 OVC010 10/08 Q1021
                        BECMG OVC008=
201702191920 METAR COR EGLL 191920Z AUTO 23007KT 9999 OVC012 11/08 Q1022
                        BECMG OVC009=
201702191850 METAR COR EGLL 191850Z AUTO 24008KT 9999 OVC015 11/08 Q1022
                        BECMG BKN012=
201702191820 METAR COR EGLL 191820Z AUTO 25009KT 9999 OVC017 11/08 Q1022
                        BECMG BKN012=
201702191750 METAR COR EGLL 191750Z AUTO 24009KT 9999 OVC017 11/08 Q1022
                        BECMG BKN012=
201702191720 METAR COR EGLL 191720Z AUTO 25008KT 9999 OVC018 11/08 Q1022
                        TEMPO BKN012=
201702191650 METAR COR EGLL 191650Z AUTO 25009KT 9999 OVC018 11/08 Q1021
                        NOSIG=
201702191620 METAR COR EGLL 191620Z AUTO 25009KT 9999 OVC019 11/08 Q1021
                        NOSIG=
201702191550 METAR COR EGLL 191550Z AUTO 26010KT 9999 OVC021 11/07 Q1022
                        NOSIG=
201702191520 METAR COR EGLL 191520Z AUTO 26010KT 9999 OVC023 12/07 Q1022
                        NOSIG=
201702191450 METAR COR EGLL 191450Z AUTO 27009KT 9999 OVC024 12/07 Q1022
                        NOSIG=
201702191420 METAR COR EGLL 191420Z AUTO 27009KT 9999 BKN024 12/07 Q1022
                        NOSIG=
201702191350 METAR COR EGLL 191350Z AUTO 24010KT 9999 BKN022 12/07 Q1022
                        NOSIG=
201702191320 METAR COR EGLL 191320Z AUTO 25009KT 9999 BKN023 12/07 Q1022
                        NOSIG=
201702191250 METAR COR EGLL 191250Z AUTO 27009KT 9999 OVC020 11/06 Q1022
                        NOSIG=
201702191220 METAR EGLL 191220Z AUTO 26011KT 9999 BKN020 11/06 Q1023=
201702191150 METAR COR EGLL 191150Z AUTO 27010KT 9999 OVC017 10/07 Q1023
                        NOSIG=
201702191120 METAR COR EGLL 191120Z AUTO 26010KT 9999 OVC016 10/07 Q1023
                        NOSIG=
201702191050 METAR COR EGLL 191050Z AUTO 27011KT 9999 OVC027 10/07 Q1023
                        NOSIG=
201702191020 METAR COR EGLL 191020Z AUTO 27010KT 9999 OVC028 09/07 Q1023
                        NOSIG=
201702190950 METAR COR EGLL 190950Z AUTO 27011KT 9999 OVC032 09/07 Q1023
                        NOSIG=
201702190920 METAR COR EGLL 190920Z AUTO 26009KT 220V290 9999 SCT033 09/07
                        Q1023 NOSIG=
201702190850 METAR COR EGLL 190850Z AUTO 24009KT 7000 NCD 07/06 Q1023
                        NOSIG=
201702190820 METAR COR EGLL 190820Z AUTO 23006KT 6000 NCD 07/06 Q1023
                        NOSIG=
201702190750 METAR COR EGLL 190750Z AUTO 22005KT 4900 BR FEW011 06/06
                        Q1023 BECMG 6000 NSW=
201702190720 METAR COR EGLL 190720Z 23004KT 4000 BR SCT010 BKN033 06/06
                        Q1023 TEMPO BKN012=
201702190650 METAR COR EGLL 190650Z 21005KT 180V240 3600 BR OVC033 06/05
                        Q1022 TEMPO BKN012=
201702190620 METAR COR EGLL 190620Z 19005KT 160V230 3600 BR FEW003 BKN030
                        06/05 Q1022 TEMPO BKN010=
201702190550 METAR COR EGLL 190550Z VRB03KT 3500 BR FEW009 BKN021 05/05
                        Q1022 TEMPO BKN012=
201702190520 METAR COR EGLL 190520Z VRB03KT 3600 BR FEW002 BKN023 05/05
                        Q1022 TEMPO BKN006=
201702190450 METAR COR EGLL 190450Z 23006KT 3500 BR FEW002 BKN003 05/05
                        Q1022 TEMPO SCT003 BKN022=
201702190420 METAR COR EGLL 190420Z 22007KT 3500 BR BKN003 05/05 Q1022
                        TEMPO SCT003 BKN007=
201702190350 METAR COR EGLL 190350Z 22005KT 3500 BR BKN003 05/04 Q1022
                        TEMPO SCT003 BKN005=
201702190320 METAR COR EGLL 190320Z 28006KT 250V320 3800 BR SCT003 03/03
                        Q1023 TEMPO BKN005=
201702190250 METAR COR EGLL 190250Z 27003KT 5000 BR NSC 04/04 Q1023 TEMPO
                        3500 BR=
201702190220 METAR COR EGLL 190220Z AUTO 24006KT 4100 BR NCD 04/04 Q1022
                        TEMPO 6000=
201702190150 METAR COR EGLL 190150Z AUTO 20002KT 3600 BR NCD 04/04 Q1023
                        BECMG 5000 HZ=
201702190120 METAR COR EGLL 190120Z AUTO 20004KT 3300 BR FEW027 04/04
                        Q1023 NOSIG=
201702190050 METAR COR EGLL 190050Z AUTO VRB03KT 3800 BR FEW024 04/04
                        Q1023 NOSIG=
201702190020 METAR COR EGLL 190020Z AUTO 20003KT 4300 HZ NCD 04/03 Q1024
                        NOSIG=
201702182350 METAR COR EGLL 182350Z AUTO 21005KT 7000 NCD 05/04 Q1024
                        TEMPO 4800 BR=
201702182320 METAR COR EGLL 182320Z AUTO 23005KT 8000 NCD 05/04 Q1024
                        TEMPO 4800 BR=
201702182250 METAR COR EGLL 182250Z AUTO 26005KT 8000 NCD 06/04 Q1024
                        NOSIG=
201702182220 METAR COR EGLL 182220Z AUTO 24006KT 8000 NCD 05/04 Q1024
                        NOSIG=
201702182150 METAR COR EGLL 182150Z AUTO 23006KT 8000 NCD 06/04 Q1024
                        NOSIG=
201702182120 METAR COR EGLL 182120Z AUTO 22006KT 9000 NCD 06/05 Q1023
                        NOSIG=
201702182050 METAR COR EGLL 182050Z AUTO 20008KT 170V240 9999 NCD 07/05
                        Q1023 NOSIG=
201702182020 METAR COR EGLL 182020Z AUTO 19009KT 150V220 9999 NCD 07/05
                        Q1023 NOSIG=
201702181950 METAR COR EGLL 181950Z AUTO 19008KT 160V230 9999 NCD 07/05
                        Q1024 NOSIG=
201702181920 METAR COR EGLL 181920Z AUTO 20009KT 9999 NCD 08/05 Q1024
                        NOSIG=
201702181850 METAR COR EGLL 181850Z AUTO 20008KT 180V260 9999 NCD 09/05
                        Q1024 NOSIG=
201702181820 METAR COR EGLL 181820Z AUTO 21008KT 9999 NCD 10/05 Q1024
                        NOSIG=
201702181750 METAR COR EGLL 181750Z AUTO 21007KT 9999 NCD 10/05 Q1023
                        NOSIG=
201702181720 METAR COR EGLL 181720Z AUTO 22006KT 9999 NCD 11/05 Q1023
                        NOSIG=
201702181650 METAR COR EGLL 181650Z AUTO 21009KT 9999 NCD 12/05 Q1023
                        NOSIG=
201702181620 METAR COR EGLL 181620Z AUTO 22008KT 190V250 9999 NCD 13/05
                        Q1023 NOSIG=
201702181550 METAR COR EGLL 181550Z AUTO VRB02KT 9999 FEW029 13/07 Q1023
                        NOSIG=
201702181520 METAR COR EGLL 181520Z AUTO 23004KT 190V260 9999 NCD 13/07
                        Q1024 NOSIG=
201702181450 METAR COR EGLL 181450Z AUTO 21005KT 150V240 9000 NCD 12/07
                        Q1024 NOSIG=
201702181420 METAR COR EGLL 181420Z 23005KT 190V300 8000 SCT022 12/07
                        Q1024 NOSIG=
201702181350 METAR COR EGLL 181350Z 22004KT 190V270 7000 FEW018 BKN024
                        11/07 Q1024 NOSIG=
201702181320 METAR COR EGLL 181320Z 21005KT 140V270 5000 HZ SCT011 BKN020
                        10/07 Q1025 NOSIG=
201702181250 METAR COR EGLL 181250Z 24007KT 200V270 5000 HZ FEW009 BKN013
                        09/07 Q1025 BECMG SCT014=
201702181220 METAR COR EGLL 181220Z 21007KT 160V240 5000 HZ FEW008 SCT009
                        BKN010 09/07 Q1025 BECMG SCT012=
201702181150 METAR COR EGLL 181150Z AUTO 21007KT 190V260 4700 HZ OVC007
                        08/07 Q1026 BECMG 5000 BKN010=
201702181120 METAR COR EGLL 181120Z AUTO 20007G17KT 140V250 4300 HZ OVC006
                        08/07 Q1026 BECMG 6000 NSW BKN010=
201702181050 METAR COR EGLL 181050Z AUTO 19006KT 160V260 3800 HZ OVC005
                        07/06 Q1026 BECMG 5000=
201702181020 METAR COR EGLL 181020Z AUTO 20007KT 160V250 3700 HZ OVC004
                        07/06 Q1026 BECMG 5000 BKN005=
201702180950 METAR COR EGLL 180950Z AUTO 21007KT 170V260 3100 BR OVC004
                        07/06 Q1026 TEMPO BKN005=
201702180920 METAR COR EGLL 180920Z 20006KT 150V230 3000 BR BKN004 07/06
                        Q1026 TEMPO BKN005=
201702180850 METAR COR EGLL 180850Z 24006KT 200V260 3000 BR SCT003 BKN004
                        07/06 Q1026 TEMPO BKN005=
201702180820 METAR COR EGLL 180820Z 22006KT 3000 BR SCT003 BKN004 06/06
                        Q1026 TEMPO BKN005=
201702180750 METAR COR EGLL 180750Z 22006KT 170V250 3000 BR FEW002 SCT003
                        BKN004 06/06 Q1026 NOSIG=
201702180720 METAR COR EGLL 180720Z 20006KT 160V250 3200 BR SCT003 BKN004
                        06/06 Q1025 NOSIG=
201702180650 METAR COR EGLL 180650Z 21006KT 160V240 3600 BR SCT003 BKN004
                        06/06 Q1025 NOSIG=
201702180620 METAR COR EGLL 180620Z 18005KT 100V230 3400 BR FEW002 BKN004
                        06/06 Q1025 NOSIG=
201702180550 METAR COR EGLL 180550Z 20006KT 3400 BR SCT002 BKN004 06/06
                        Q1025 NOSIG=
201702180520 METAR COR EGLL 180520Z 19004KT 150V240 3000 BR SCT002 BKN004
                        06/06 Q1026 TEMPO SCT003 BKN005=
201702180450 METAR COR EGLL 180450Z 22006KT 4200 BR FEW003 BKN004 06/06
                        Q1026 NOSIG=
201702180420 METAR COR EGLL 180420Z 21008KT 5000 BR FEW003 BKN005 06/05
                        Q1026 TEMPO BKN004=
201702180350 METAR COR EGLL 180350Z 19008KT 7000 FEW002 BKN004 06/05 Q1026
                        NOSIG=
201702180320 METAR COR EGLL 180320Z 19006KT 3500 BR FEW002 BKN003 06/05
                        Q1026 TEMPO BKN002=
201702180250 METAR COR EGLL 180250Z AUTO 20006KT 6000 OVC003 06/06 Q1026
                        TEMPO BKN005=
201702180220 METAR COR EGLL 180220Z AUTO 20005KT 9999 OVC006 06/05 Q1026
                        NOSIG=
201702180150 METAR COR EGLL 180150Z AUTO 19005KT 9999 OVC007 06/05 Q1027
                        NOSIG=
201702180120 METAR COR EGLL 180120Z AUTO 19005KT 9999 OVC007 06/05 Q1027
                        NOSIG=
201702180050 METAR COR EGLL 180050Z AUTO 18004KT 8000 OVC005 06/06 Q1027
                        NOSIG=
201702180020 METAR COR EGLL 180020Z AUTO 20006KT 6000 OVC003 06/06 Q1027
                        TEMPO BKN006=
201702172350 METAR COR EGLL 172350Z AUTO 20007KT 4600 BR OVC002 06/06
                        Q1027 TEMPO BKN005=
201702172320 METAR COR EGLL 172320Z AUTO 19008KT 4000 BR OVC002 06/06
                        Q1027 TEMPO BKN004=
201702172250 METAR COR EGLL 172250Z AUTO 20005KT 170V250 7000 BKN006 06/06
                        Q1027 NOSIG=
201702172220 METAR COR EGLL 172220Z AUTO 19004KT 8000 NCD 06/05 Q1027
                        BECMG 4000 BR BKN005=
201702172150 METAR COR EGLL 172150Z AUTO 20005KT 160V230 9999 NCD 06/05
                        Q1027 BECMG 4000 BR BKN005=
201702172120 METAR COR EGLL 172120Z AUTO 21006KT 160V240 9999 NCD 07/06
                        Q1027 BECMG 4000 BR BKN005=
201702172050 METAR COR EGLL 172050Z AUTO 21007KT 9999 NCD 08/06 Q1027
                        NOSIG=
201702172020 METAR COR EGLL 172020Z AUTO 21006KT 9999 NCD 08/06 Q1027
                        NOSIG=
201702171950 METAR COR EGLL 171950Z AUTO 21007KT 9999 FEW028 08/06 Q1027
                        NOSIG=
201702171920 METAR COR EGLL 171920Z AUTO 20008KT 160V260 9999 BKN027 09/06
                        Q1027 NOSIG=
201702171850 METAR COR EGLL 171850Z AUTO 17005KT 130V230 9999 FEW028 09/06
                        Q1027 NOSIG=
201702171820 METAR COR EGLL 171820Z AUTO 22004KT 9999 NCD 10/06 Q1027
                        NOSIG=
201702171750 METAR COR EGLL 171750Z 23004KT CAVOK 11/06 Q1027 NOSIG=
201702171720 METAR COR EGLL 171720Z 22005KT CAVOK 11/06 Q1027 NOSIG=
201702171650 METAR COR EGLL 171650Z AUTO 22004KT 9999 NCD 11/06 Q1027
                        NOSIG=
201702171620 METAR COR EGLL 171620Z AUTO 22006KT 9999 FEW029 11/06 Q1027
                        NOSIG=
201702171550 METAR COR EGLL 171550Z AUTO 23006KT 200V260 9999 BKN029 12/06
                        Q1027 NOSIG=
201702171520 METAR COR EGLL 171520Z AUTO 19004KT 140V220 9999 FEW028 12/05
                        Q1027 NOSIG=
201702171450 METAR COR EGLL 171450Z AUTO 22005KT 160V270 9999 SCT026 13/06
                        Q1027 NOSIG=
201702171420 METAR COR EGLL 171420Z AUTO VRB03KT 9999 BKN025 13/06 Q1027
                        NOSIG=
201702171350 METAR COR EGLL 171350Z AUTO 28005KT 220V320 9999 FEW025 13/06
                        Q1027 NOSIG=
201702171320 METAR COR EGLL 171320Z AUTO 25005KT 210V340 9999 NCD 12/07
                        Q1028 NOSIG=
201702171250 METAR COR EGLL 171250Z AUTO 25006KT 220V290 9999 FEW018 12/07
                        Q1028 NOSIG=
201702171220 METAR COR EGLL 171220Z AUTO 27006KT 240V310 9999 NCD 11/08
                        Q1028 NOSIG=
201702171150 METAR COR EGLL 171150Z AUTO 27006KT 200V300 9999 NCD 11/08
                        Q1029 NOSIG=
201702171120 METAR COR EGLL 171120Z AUTO 26006KT 230V300 9999 NCD 10/08
                        Q1029 NOSIG=
201702171050 METAR COR EGLL 171050Z AUTO 27006KT 9999 FEW049 10/08 Q1029
                        NOSIG=
201702171020 METAR COR EGLL 171020Z AUTO 28005KT 9999 FEW011 10/08 Q1029
                        NOSIG=
201702170950 METAR COR EGLL 170950Z AUTO 27006KT 9999 FEW044 09/08 Q1028
                        NOSIG=
201702170920 METAR COR EGLL 170920Z AUTO 27007KT 9999 BKN042 09/07 Q1028
                        NOSIG=
201702170850 METAR COR EGLL 170850Z AUTO 27006KT 9999 BKN045 08/07 Q1028
                        NOSIG=
201702170820 METAR COR EGLL 170820Z 27006KT 9000 SCT045 07/07 Q1028 NOSIG=
201702170750 METAR COR EGLL 170750Z 27006KT 9000 BKN046 07/07 Q1028 NOSIG=
201702170720 METAR COR EGLL 170720Z 26007KT 9999 BKN048 07/06 Q1028 NOSIG=
201702170650 METAR COR EGLL 170650Z 25006KT 9999 BKN048 06/06 Q1027 NOSIG=
201702170620 METAR COR EGLL 170620Z AUTO 25007KT 9999 BKN035 07/07 Q1027
                        NOSIG=
201702170550 METAR COR EGLL 170550Z AUTO 25007KT 9999 BKN034 OVC048 07/07
                        Q1028 NOSIG=
201702170520 METAR COR EGLL 170520Z AUTO 25006KT 9999 FEW034 07/07 Q1028
                        NOSIG=
201702170450 METAR COR EGLL 170450Z AUTO 26005KT 220V290 9999 NCD 07/07
                        Q1028 NOSIG=
201702170420 METAR COR EGLL 170420Z AUTO 26005KT 9999 NCD 08/07 Q1028
                        NOSIG=
201702170350 METAR COR EGLL 170350Z AUTO 27004KT 9999 BKN045 08/07 Q1028
                        NOSIG=
201702170320 METAR COR EGLL 170320Z AUTO 28005KT 9999 SCT046 08/07 Q1028
                        NOSIG=
201702170250 METAR COR EGLL 170250Z AUTO 28005KT 9999 BKN044 08/07 Q1028
                        NOSIG=
201702170220 METAR COR EGLL 170220Z AUTO 27008KT 9999 FEW048 08/07 Q1028
                        NOSIG=
201702170150 METAR COR EGLL 170150Z AUTO 26009KT 9999 SCT047 08/07 Q1028
                        NOSIG=
201702170120 METAR COR EGLL 170120Z AUTO 26008KT 9999 OVC038 08/07 Q1028
                        NOSIG=
201702170050 METAR COR EGLL 170050Z AUTO 27007KT 9999 OVC037 08/07 Q1028
                        NOSIG=
201702170020 METAR COR EGLL 170020Z AUTO 27007KT 9999 BKN038 08/07 Q1028
                        NOSIG=
201702162350 METAR EGLL 162350Z AUTO 25007KT 9999 OVC040 08/07 Q1028=
201702162320 METAR COR EGLL 162320Z AUTO 25007KT 9999 BKN042 08/07 Q1028
                        NOSIG=
201702162250 METAR COR EGLL 162250Z AUTO 23007KT 9999 OVC049 08/07 Q1029
                        NOSIG=
201702162220 METAR COR EGLL 162220Z AUTO 23007KT 9999 -RA BKN038 09/07
                        Q1029 NOSIG=
201702162150 METAR COR EGLL 162150Z AUTO 23007KT 9999 -RA OVC041 09/07
                        Q1029 NOSIG=
201702162120 METAR COR EGLL 162120Z AUTO 24006KT 9999 -RA OVC044 08/06
                        Q1029 NOSIG=
201702162050 METAR COR EGLL 162050Z AUTO 25006KT 9999 -RA BKN044 09/06
                        Q1029 NOSIG=
201702162020 METAR COR EGLL 162020Z AUTO 25007KT 9999 -RA BKN046 09/06
                        Q1029 NOSIG=
201702161950 METAR COR EGLL 161950Z AUTO 24007KT 9999 NCD 09/06 Q1028
                        NOSIG=
201702161920 METAR COR EGLL 161920Z AUTO 25009KT 9999 NCD 09/06 Q1029
                        NOSIG=
201702161850 METAR COR EGLL 161850Z AUTO 24007KT 9999 NCD 09/05 Q1029
                        NOSIG=
201702161820 METAR COR EGLL 161820Z AUTO 24009KT 9999 NCD 09/05 Q1029
                        NOSIG=
201702161750 METAR COR EGLL 161750Z AUTO 25008KT 9999 NCD 09/05 Q1028
                        NOSIG=
201702161720 METAR COR EGLL 161720Z AUTO 27008KT 9999 NCD 10/05 Q1028
                        NOSIG=
201702161650 METAR COR EGLL 161650Z AUTO 24009KT 9999 NCD 10/06 Q1028
                        NOSIG=
201702161620 METAR COR EGLL 161620Z AUTO 25010KT 9999 NCD 10/06 Q1028
                        NOSIG=
201702161550 METAR COR EGLL 161550Z AUTO 25010KT 9999 FEW037 11/06 Q1028
                        NOSIG=
201702161520 METAR COR EGLL 161520Z AUTO 25010KT 9999 NCD 11/06 Q1028
                        NOSIG=
201702161450 METAR COR EGLL 161450Z AUTO 26012KT 9999 FEW026 11/06 Q1028
                        NOSIG=
201702161420 METAR COR EGLL 161420Z AUTO 26009KT 220V290 9999 SCT021 11/07
                        Q1028 NOSIG=
201702161350 METAR COR EGLL 161350Z 26010KT CAVOK 11/07 Q1029 NOSIG=
201702161320 METAR COR EGLL 161320Z 28009KT 9999 SCT016 10/08 Q1029 NOSIG=
201702161250 METAR COR EGLL 161250Z 28005KT 9999 SCT016 10/08 Q1029 NOSIG=
201702161220 METAR COR EGLL 161220Z 23006KT 180V280 9999 SCT012 10/08
                        Q1030 NOSIG=
201702161150 METAR COR EGLL 161150Z 27008KT 9999 SCT012 09/07 Q1030 NOSIG=
201702161120 METAR COR EGLL 161120Z 27008KT 9999 SCT012 SCT016 09/08 Q1031
                        NOSIG=
201702161050 METAR COR EGLL 161050Z 27007KT 9999 FEW008 BKN012 09/08 Q1031
                        TEMPO SCT014=
201702161020 METAR COR EGLL 161020Z 23007KT 190V260 9999 SCT006 SCT008
                        09/08 Q1030 TEMPO BKN012=
201702160950 METAR COR EGLL 160950Z 23007KT 190V250 9999 SCT006 SCT008
                        08/08 Q1030 TEMPO BKN012=
201702160920 METAR COR EGLL 160920Z 24008KT 9000 FEW005 BKN006 08/07 Q1030
                        BECMG BKN012=
201702160850 METAR COR EGLL 160850Z AUTO 24008KT 9000 OVC005 07/07 Q1030
                        TEMPO SCT008=
201702160820 METAR COR EGLL 160820Z AUTO 24008KT 9000 OVC005 07/07 Q1030
                        TEMPO SCT008=
201702160750 METAR COR EGLL 160750Z 23007KT 8000 FEW005 BKN006 07/07 Q1030
                        NOSIG=
201702160720 METAR COR EGLL 160720Z 23006KT 200V260 7000 FEW003 BKN005
                        07/07 Q1030 NOSIG=
201702160650 METAR COR EGLL 160650Z 24005KT 7000 FEW004 BKN005 07/07 Q1030
                        NOSIG=
201702160620 METAR COR EGLL 160620Z 22005KT 180V270 7000 BKN005 06/06
                        Q1030 NOSIG=
201702160550 METAR COR EGLL 160550Z AUTO 23005KT 200V260 7000 NCD 06/06
                        Q1030 TEMPO BKN005=
201702160520 METAR COR EGLL 160520Z AUTO 22004KT 190V260 7000 NCD 05/05
                        Q1030 TEMPO BKN006=
201702160450 METAR COR EGLL 160450Z AUTO 22007KT 8000 NCD 06/06 Q1030
                        NOSIG=
201702160420 METAR COR EGLL 160420Z AUTO 23008KT 9999 NCD 07/07 Q1030
                        NOSIG=
201702160350 METAR COR EGLL 160350Z AUTO 22007KT 9999 FEW025 07/07 Q1030
                        NOSIG=
201702160320 METAR COR EGLL 160320Z AUTO 21006KT 9999 BKN021 06/06 Q1030
                        NOSIG=
201702160250 METAR COR EGLL 160250Z AUTO 21006KT 8000 NCD 06/06 Q1030
                        NOSIG=
201702160220 METAR COR EGLL 160220Z AUTO 22006KT 9999 SCT024 06/06 Q1030
                        NOSIG=
201702160150 METAR COR EGLL 160150Z AUTO 21006KT 9999 SCT022 06/06 Q1030
                        NOSIG=
201702160120 METAR COR EGLL 160120Z AUTO 22005KT 9999 BKN021 07/07 Q1030
                        NOSIG=
201702160050 METAR COR EGLL 160050Z AUTO 22007KT 9999 SCT017 07/07 Q1030
                        NOSIG=
201702160020 METAR COR EGLL 160020Z AUTO 24005KT 9999 SCT011 SCT044 07/07
                        Q1030 TEMPO BKN011=
201702152350 METAR COR EGLL 152350Z AUTO 23007KT 9999 BKN010 07/07 Q1030
                        NOSIG=
201702152320 METAR COR EGLL 152320Z AUTO 22006KT 9999 BKN010 07/07 Q1029
                        TEMPO SCT010=
201702152250 METAR COR EGLL 152250Z AUTO 22008KT 9999 BKN010 08/07 Q1029
                        TEMPO SCT010=
201702152220 METAR COR EGLL 152220Z AUTO 22006KT 9999 FEW012 08/07 Q1029
                        TEMPO BKN012=
201702152150 METAR EGLL 152150Z AUTO 23011KT 9999 BKN011 08/08 Q1029=
201702152120 METAR COR EGLL 152120Z AUTO 22010KT 9999 BKN011 08/08 Q1029
                        TEMPO SCT012=
201702152050 METAR COR EGLL 152050Z AUTO 21010KT 9999 SCT049 08/07 Q1029
                        NOSIG=
201702152020 METAR COR EGLL 152020Z AUTO 21011KT 9999 NCD 08/08 Q1029
                        NOSIG=
201702151950 METAR COR EGLL 151950Z AUTO 21009KT 180V250 9999 FEW015 08/08
                        Q1029 NOSIG=
201702151920 METAR COR EGLL 151920Z AUTO 21009KT 9999 SCT013 08/08 Q1029
                        NOSIG=
201702151850 METAR COR EGLL 151850Z AUTO 21010KT 9999 FEW013 08/07 Q1028
                        NOSIG=
201702151820 METAR COR EGLL 151820Z AUTO 21008KT 9999 FEW031 08/08 Q1028
                        NOSIG=
201702151750 METAR COR EGLL 151750Z 21010KT 9999 SCT035 08/08 Q1028 NOSIG=
201702151720 METAR COR EGLL 151720Z 22008KT 9999 -RA SCT048 09/09 Q1028
                        NOSIG=
201702151650 METAR COR EGLL 151650Z 22011KT 9999 -RA SCT020 09/09 Q1027
                        NOSIG=
201702151620 METAR COR EGLL 151620Z 21012KT 9999 -RA FEW011 BKN021 09/09
                        Q1027 NOSIG=
201702151550 METAR COR EGLL 151550Z 21010KT 9999 -RA SCT012 BKN021 09/09
                        Q1027 TEMPO SHRA BKN012=
201702151520 METAR COR EGLL 151520Z 20011KT 9999 -RA FEW015 BKN029 09/09
                        Q1027 TEMPO SHRA=
201702151450 METAR COR EGLL 151450Z 20010KT 170V230 9999 -RA FEW023 SCT044
                        09/09 Q1027 TEMPO RA=
201702151420 METAR COR EGLL 151420Z 21009KT 170V250 9000 -RA FEW009 SCT044
                        09/09 Q1027 TEMPO RA=
201702151350 METAR COR EGLL 151350Z 19013KT 5000 -RA SCT006 BKN009 10/10
                        Q1026 TEMPO 4500 SHRA=
201702151320 METAR COR EGLL 151320Z AUTO 20013KT 170V240 9000 OVC007 10/10
                        Q1026 TEMPO SHRA=
201702151250 METAR COR EGLL 151250Z AUTO 16011KT 130V210 9999 OVC010 11/10
                        Q1026 TEMPO SHRA=
201702151220 METAR COR EGLL 151220Z AUTO 15009KT 130V240 9000 OVC010 11/10
                        Q1027 NOSIG=
201702151150 METAR COR EGLL 151150Z 15008KT 9000 BKN012 11/10 Q1027 NOSIG=
201702151120 METAR COR EGLL 151120Z 17009KT 9000 BKN010 11/09 Q1027 NOSIG=
201702151050 METAR COR EGLL 151050Z 17007KT 9000 OVC010 11/09 Q1027 NOSIG=
201702151020 METAR COR EGLL 151020Z 16007KT 8000 OVC009 10/09 Q1028 TEMPO
                        BKN010=
201702150950 METAR COR EGLL 150950Z 14007KT 6000 SCT008 BKN010 10/09 Q1028
                        NOSIG=
201702150920 METAR COR EGLL 150920Z AUTO 15005KT 5000 BR OVC006 09/09
                        Q1028 TEMPO BKN010=
201702150850 METAR COR EGLL 150850Z AUTO 15005KT 5000 BR OVC007 09/09
                        Q1028 TEMPO BKN010=
201702150820 METAR COR EGLL 150820Z VRB01KT 5000 BR BKN009 09/09 Q1028
                        TEMPO BKN010=
201702150750 METAR COR EGLL 150750Z 08004KT 4700 BR FEW012 08/08 Q1027
                        TEMPO BKN012=
201702150720 METAR COR EGLL 150720Z 08003KT 4500 BR NSC 08/08 Q1027 NOSIG=
201702150650 METAR COR EGLL 150650Z AUTO 10004KT 3500 BR FEW007 09/09
                        Q1027 TEMPO BKN007=
201702150620 METAR COR EGLL 150620Z AUTO 11004KT 3200 BR SCT006 08/08
                        Q1027 TEMPO BKN006=
201702150550 METAR COR EGLL 150550Z 06003KT 3900 BR FEW005 BKN007 08/08
                        Q1027 NOSIG=
201702150520 METAR COR EGLL 150520Z AUTO VRB01KT 1900 BR NCD 08/08 Q1027
                        NOSIG=
201702150450 METAR COR EGLL 150450Z AUTO 11001KT 2400 BR NCD 09/08 Q1027
                        NOSIG=
201702150420 METAR COR EGLL 150420Z AUTO 14003KT 4600 BR FEW007 08/08
                        Q1027 TEMPO BKN007=
201702150350 METAR COR EGLL 150350Z AUTO 13003KT 4900 BR SCT007 08/08
                        Q1027 TEMPO BKN007=
201702150320 METAR COR EGLL 150320Z AUTO VRB02KT 5000 BR BKN007 09/08
                        Q1027 TEMPO 4000=
201702150250 METAR COR EGLL 150250Z AUTO 15003KT 6000 FEW008 BKN023 09/09
                        Q1027 TEMPO 4500 BR BKN008=
201702150220 METAR COR EGLL 150220Z AUTO 14006KT 6000 OVC022 09/09 Q1027
                        TEMPO BKN012=
201702150150 METAR COR EGLL 150150Z AUTO 14006KT 5000 BR FEW008 OVC023
                        09/09 Q1027 TEMPO BKN008=
201702150120 METAR COR EGLL 150120Z AUTO 16004KT 6000 SCT008 OVC028 09/08
                        Q1027 TEMPO BKN008=
201702150050 METAR COR EGLL 150050Z AUTO 15003KT 6000 BKN008 09/08 Q1027
                        NOSIG=
201702150020 METAR COR EGLL 150020Z AUTO 15005KT 6000 BKN009 09/08 Q1027
                        NOSIG=
201702142350 METAR COR EGLL 142350Z AUTO 16005KT 7000 BKN009 09/08 Q1027
                        TEMPO BKN010=
201702142320 METAR COR EGLL 142320Z AUTO 15005KT 7000 OVC010 10/08 Q1027
                        BECMG BKN008=
201702142250 METAR COR EGLL 142250Z AUTO 15003KT 8000 OVC012 10/08 Q1026
                        TEMPO BKN008=
201702142220 METAR COR EGLL 142220Z AUTO 15004KT 8000 OVC011 10/08 Q1026
                        TEMPO BKN008=
201702142150 METAR COR EGLL 142150Z AUTO 14005KT 8000 OVC010 10/08 Q1026
                        TEMPO BKN008=
201702142120 METAR COR EGLL 142120Z AUTO 14005KT 9000 BKN015 10/08 Q1026
                        BECMG BKN012=
201702142050 METAR EGLL 142050Z 15006KT 9999 BKN021 10/07 Q1026=
201702142020 METAR COR EGLL 142020Z AUTO 14006KT 9999 FEW014 BKN020 10/07
                        Q1026 TEMPO BKN014=
201702141950 METAR COR EGLL 141950Z AUTO 15005KT 9999 OVC017 10/07 Q1026
                        TEMPO BKN014=
201702141920 METAR COR EGLL 141920Z AUTO 12006KT 9999 OVC024 10/07 Q1025
                        NOSIG=
201702141850 METAR COR EGLL 141850Z AUTO 12007KT 9999 BKN025 10/07 Q1025
                        NOSIG=
201702141820 METAR COR EGLL 141820Z AUTO 12007KT 9999 BKN025 OVC048 10/07
                        Q1025 NOSIG=
201702141750 METAR COR EGLL 141750Z AUTO 12010KT 9999 BKN022 BKN044 10/07
                        Q1025 NOSIG=
201702141720 METAR COR EGLL 141720Z AUTO 11006KT 9999 BKN022 10/07 Q1024
                        NOSIG=
201702141650 METAR COR EGLL 141650Z AUTO 13006KT 090V160 9999 BKN023 11/07
                        Q1024 NOSIG=
201702141620 METAR COR EGLL 141620Z AUTO VRB03KT 9999 OVC023 11/07 Q1024
                        NOSIG=
201702141550 METAR COR EGLL 141550Z AUTO 15006KT 9999 BKN022 11/07 Q1024
                        NOSIG=
201702141520 METAR COR EGLL 141520Z AUTO 14008KT 9999 FEW023 SCT033 11/07
                        Q1024 NOSIG=
201702141450 METAR COR EGLL 141450Z AUTO 14008KT 9999 BKN022 11/07 Q1024
                        NOSIG=
201702141420 METAR COR EGLL 141420Z AUTO 15008KT 9999 BKN023 11/07 Q1024
                        NOSIG=
201702141350 METAR COR EGLL 141350Z AUTO 14008KT 9999 BKN023 12/07 Q1023
                        NOSIG=
201702141320 METAR COR EGLL 141320Z AUTO 14008KT 9999 SCT025 BKN039 11/07
                        Q1023 NOSIG=
201702141250 METAR COR EGLL 141250Z AUTO 12005KT 070V170 8000 OVC025 10/06
                        Q1023 NOSIG=
201702141220 METAR COR EGLL 141220Z AUTO 10006KT 8000 SCT025 10/05 Q1023
                        NOSIG=
201702141150 METAR COR EGLL 141150Z AUTO 09006KT 070V130 8000 FEW034 10/05
                        Q1023 NOSIG=
201702141120 METAR COR EGLL 141120Z AUTO 10006KT 8000 BKN030 08/05 Q1023
                        NOSIG=
201702141050 METAR COR EGLL 141050Z AUTO 09006KT 7000 SCT033 BKN049 06/04
                        Q1023 NOSIG=
201702141020 METAR COR EGLL 141020Z AUTO 09007KT 7000 OVC034 05/03 Q1023
                        NOSIG=
201702140950 METAR COR EGLL 140950Z AUTO 08006KT 7000 OVC036 05/03 Q1023
                        NOSIG=
201702140920 METAR COR EGLL 140920Z AUTO 08006KT 6000 BKN036 04/03 Q1023
                        NOSIG=
201702140850 METAR COR EGLL 140850Z AUTO 09007KT 6000 BKN047 04/02 Q1023
                        NOSIG=
201702140820 METAR COR EGLL 140820Z AUTO 09007KT 6000 NCD 03/02 Q1022
                        NOSIG=
201702140750 METAR COR EGLL 140750Z AUTO 07006KT 6000 NCD 03/02 Q1021
                        NOSIG=
201702140720 METAR COR EGLL 140720Z AUTO 08007KT 6000 NCD 03/01 Q1021
                        NOSIG=
201702140650 METAR COR EGLL 140650Z AUTO 09007KT 6000 NCD 02/01 Q1021
                        NOSIG=
201702140620 METAR COR EGLL 140620Z AUTO 08006KT 6000 NCD 03/01 Q1021
                        NOSIG=
201702140550 METAR COR EGLL 140550Z AUTO 09007KT 6000 NCD 02/01 Q1021
                        NOSIG=
201702140520 METAR COR EGLL 140520Z AUTO 09007KT 6000 NCD 02/01 Q1021
                        NOSIG=
201702140450 METAR COR EGLL 140450Z AUTO 08007KT 7000 NCD 03/01 Q1020
                        NOSIG=
201702140420 METAR COR EGLL 140420Z AUTO 09007KT 7000 NCD 02/01 Q1021
                        NOSIG=
201702140350 METAR COR EGLL 140350Z AUTO 09010KT 7000 NCD 03/02 Q1020
                        NOSIG=
201702140320 METAR COR EGLL 140320Z AUTO 08009KT 7000 NCD 04/02 Q1020
                        NOSIG=
201702140250 METAR COR EGLL 140250Z AUTO 09009KT 7000 NCD 03/02 Q1020
                        NOSIG=
201702140220 METAR COR EGLL 140220Z AUTO 08007KT 7000 NCD 04/02 Q1020
                        NOSIG=
201702140150 METAR COR EGLL 140150Z AUTO 09008KT 7000 NCD 03/02 Q1020
                        NOSIG=
201702140120 METAR COR EGLL 140120Z AUTO 09009KT 7000 NCD 04/02 Q1020
                        NOSIG=
201702140050 METAR COR EGLL 140050Z AUTO 08008KT 7000 NCD 04/02 Q1021
                        NOSIG=
201702140020 METAR COR EGLL 140020Z AUTO 07008KT 6000 NCD 05/03 Q1021
                        NOSIG=
201702132350 METAR COR EGLL 132350Z AUTO 08008KT 6000 NCD 04/03 Q1021
                        NOSIG=
201702132320 METAR COR EGLL 132320Z AUTO 08008KT 6000 NCD 05/03 Q1021
                        NOSIG=
201702132250 METAR COR EGLL 132250Z AUTO 08010KT 6000 NCD 05/03 Q1021
                        NOSIG=
201702132220 METAR COR EGLL 132220Z AUTO 07009KT 6000 NCD 05/03 Q1021
                        NOSIG=
201702132150 METAR COR EGLL 132150Z AUTO 08009KT 5000 HZ NCD 05/03 Q1021
                        NOSIG=
201702132120 METAR COR EGLL 132120Z AUTO 08008KT 5000 HZ NCD 05/03 Q1021
                        NOSIG=
201702132050 METAR COR EGLL 132050Z AUTO 08009KT 4900 HZ NCD 05/03 Q1021
                        TEMPO 6000=
201702132020 METAR COR EGLL 132020Z AUTO 08012KT 4500 HZ NCD 05/04 Q1021
                        NOSIG=
201702131950 METAR COR EGLL 131950Z AUTO 08012KT 4100 HZ FEW013 05/04
                        Q1021 NOSIG=
201702131920 METAR COR EGLL 131920Z 09010KT 4300 HZ SCT013 05/03 Q1021
                        NOSIG=
201702131850 METAR COR EGLL 131850Z AUTO 08011KT 4000 HZ SCT013 05/03
                        Q1021 NOSIG=
201702131820 METAR COR EGLL 131820Z AUTO 08012KT 4100 HZ SCT014 05/03
                        Q1021 NOSIG=
201702131750 METAR COR EGLL 131750Z AUTO 08013KT 4400 HZ FEW014 05/03
                        Q1021 NOSIG=
201702131720 METAR COR EGLL 131720Z AUTO 08013KT 5000 HZ NCD 06/03 Q1021
                        BECMG 4500=
201702131650 METAR COR EGLL 131650Z AUTO 07011KT 5000 HZ NCD 06/03 Q1020
                        TEMPO 4500=
201702131620 METAR COR EGLL 131620Z AUTO 07012KT 6000 NCD 07/03 Q1020
                        NOSIG=
201702131550 METAR COR EGLL 131550Z AUTO 08015KT 7000 NCD 08/03 Q1020
                        NOSIG=
201702131520 METAR COR EGLL 131520Z AUTO 08013KT 7000 NCD 09/03 Q1020
                        NOSIG=
201702131450 METAR COR EGLL 131450Z AUTO 07013KT 8000 NCD 09/03 Q1020
                        NOSIG=
201702131420 METAR COR EGLL 131420Z AUTO 08014KT 8000 NCD 10/03 Q1020
                        NOSIG=
201702131350 METAR COR EGLL 131350Z AUTO 08016KT 9000 NCD 10/03 Q1020
                        NOSIG=
201702131320 METAR COR EGLL 131320Z AUTO 09013KT 9000 NCD 10/03 Q1021
                        NOSIG=
201702131250 METAR COR EGLL 131250Z AUTO 09015KT 8000 NCD 10/04 Q1021
                        NOSIG=
201702131220 METAR COR EGLL 131220Z AUTO 08015KT 7000 NCD 09/04 Q1022
                        NOSIG=
201702131150 METAR COR EGLL 131150Z AUTO 08013KT 5000 HZ NCD 08/04 Q1022
                        NOSIG=
201702131120 METAR COR EGLL 131120Z AUTO 08015KT 5000 HZ NCD 08/05 Q1022
                        NOSIG=
201702131050 METAR COR EGLL 131050Z AUTO 08012KT 4900 HZ NCD 08/04 Q1023
                        BECMG 5000=
201702131020 METAR COR EGLL 131020Z AUTO 08012KT 4600 HZ NCD 07/04 Q1023
                        BECMG 5000=
201702130950 METAR COR EGLL 130950Z AUTO 08013KT 4200 HZ NCD 06/04 Q1022
                        BECMG 5000=
201702130920 METAR COR EGLL 130920Z AUTO 08013KT 4100 HZ NCD 06/04 Q1022
                        BECMG 5000=
201702130850 METAR COR EGLL 130850Z AUTO 08013KT 3900 HZ NCD 05/04 Q1022
                        NOSIG=
201702130820 METAR COR EGLL 130820Z AUTO 07011KT 3600 HZ NCD 05/04 Q1022
                        NOSIG=
201702130750 METAR COR EGLL 130750Z AUTO 07011KT 3600 HZ FEW011 04/03
                        Q1022 NOSIG=
201702130720 METAR COR EGLL 130720Z AUTO 07012KT 3400 HZ NCD 04/03 Q1022
                        NOSIG=
201702130650 METAR COR EGLL 130650Z AUTO 07012KT 3500 HZ NCD 04/03 Q1022
                        NOSIG=
201702130620 METAR COR EGLL 130620Z AUTO 07012KT 3500 HZ FEW011 04/03
                        Q1022 NOSIG=
201702130550 METAR COR EGLL 130550Z AUTO 07010KT 3300 HZ BKN010 05/04
                        Q1022 BECMG SCT010=
201702130520 METAR COR EGLL 130520Z AUTO 07010KT 3400 HZ BKN010 05/04
                        Q1022 BECMG SCT010=
201702130450 METAR COR EGLL 130450Z AUTO 08010KT 3400 HZ BKN010 05/04
                        Q1022 BECMG SCT010=
201702130420 METAR COR EGLL 130420Z AUTO 08010KT 3400 HZ OVC010 05/04
                        Q1022 BECMG SCT010=
201702130350 METAR COR EGLL 130350Z AUTO 08009KT 3300 HZ OVC010 05/04
                        Q1022 BECMG SCT010=
201702130320 METAR COR EGLL 130320Z 07010KT 4500 HZ BKN010 05/04 Q1022
                        BECMG SCT010=
201702130250 METAR COR EGLL 130250Z AUTO 07011KT 3400 HZ OVC010 05/04
                        Q1022 BECMG SCT010=
201702130220 METAR COR EGLL 130220Z AUTO 07011KT 3300 HZ OVC010 05/04
                        Q1022 BECMG SCT010=
201702130150 METAR COR EGLL 130150Z AUTO 08012KT 3300 HZ OVC010 05/04
                        Q1022 BECMG SCT010=
201702130120 METAR COR EGLL 130120Z AUTO 07013KT 050V110 3200 HZ OVC010
                        05/04 Q1023 BECMG SCT010=
201702130050 METAR COR EGLL 130050Z AUTO 08012KT 3200 HZ BKN009 05/04
                        Q1023 BECMG SCT010=
201702130020 METAR COR EGLL 130020Z 07011KT 4500 HZ BKN010 05/04 Q1023
                        NOSIG=
201702122350 METAR COR EGLL 122350Z 08013KT 4500 HZ BKN010 06/05 Q1023
                        TEMPO 5000=
201702122320 METAR COR EGLL 122320Z 08013KT 4800 HZ BKN010 06/05 Q1022
                        TEMPO 5000=
201702122250 METAR COR EGLL 122250Z 08013KT 4800 HZ BKN010 06/05 Q1023
                        TEMPO 5000=
201702122220 METAR COR EGLL 122220Z 08013KT 4800 HZ BKN010 06/05 Q1023
                        TEMPO 5000=
201702122150 METAR COR EGLL 122150Z AUTO 08012KT 3400 HZ OVC008 06/05
                        Q1023 NOSIG=
201702122120 METAR COR EGLL 122120Z AUTO 08013KT 3200 HZ OVC008 06/05
                        Q1022 NOSIG=
201702122050 METAR COR EGLL 122050Z AUTO 08012KT 3000 HZ OVC007 06/05
                        Q1022 NOSIG=
201702122020 METAR COR EGLL 122020Z AUTO 08013KT 2500 BR OVC006 05/05
                        Q1023 NOSIG=
201702121950 METAR COR EGLL 121950Z AUTO 08013KT 2500 BR OVC007 05/04
                        Q1023 NOSIG=
201702121920 METAR COR EGLL 121920Z AUTO 08012KT 2800 HZ OVC008 05/04
                        Q1022 NOSIG=
201702121850 METAR COR EGLL 121850Z AUTO 07010KT 3600 HZ OVC009 04/03
                        Q1022 NOSIG=
201702121820 METAR COR EGLL 121820Z AUTO 07010KT 5000 HZ OVC012 04/03
                        Q1022 BECMG 4000=
201702121750 METAR COR EGLL 121750Z AUTO 07009KT 5000 HZ OVC014 04/02
                        Q1022 BECMG 4000=
201702121720 METAR COR EGLL 121720Z AUTO 09011KT 5000 HZ OVC015 04/02
                        Q1022 BECMG 4000 BKN012=
201702121650 METAR COR EGLL 121650Z AUTO 09011KT 6000 OVC017 04/01 Q1022
                        NOSIG=
201702121620 METAR COR EGLL 121620Z AUTO 09012KT 7000 OVC019 04/01 Q1022
                        NOSIG=
201702121550 METAR COR EGLL 121550Z AUTO 08011KT 6000 BKN016 OVC029 04/02
                        Q1021 NOSIG=
201702121520 METAR COR EGLL 121520Z AUTO 07009KT 5000 HZ BKN016 OVC032
                        04/02 Q1021 NOSIG=
201702121450 METAR COR EGLL 121450Z AUTO 07008KT 5000 HZ BKN013 OVC030
                        04/02 Q1021 TEMPO SCT013 BKN020=
201702121420 METAR COR EGLL 121420Z AUTO 06010KT 4800 HZ BKN010 OVC037
                        04/02 Q1021 TEMPO 5000 SCT010 BKN020=
201702121350 METAR COR EGLL 121350Z AUTO 06009KT 3900 BR BKN008 OVC022
                        03/03 Q1022 TEMPO SCT008 BKN022=
201702121320 METAR COR EGLL 121320Z AUTO 06007KT 3400 BR BKN005 03/02
                        Q1022 NOSIG=
201702121250 METAR COR EGLL 121250Z AUTO 07006KT 030V100 3100 BR OVC005
                        02/02 Q1022 NOSIG=
201702121220 METAR COR EGLL 121220Z AUTO 06007KT 3500 BR OVC005 02/02
                        Q1022 NOSIG=
201702121150 METAR COR EGLL 121150Z 06007KT 3700 BR BKN006 02/02 Q1022
                        NOSIG=
201702121120 METAR COR EGLL 121120Z 06009KT 3700 BR BKN006 02/02 Q1023
                        NOSIG=
201702121050 METAR COR EGLL 121050Z 06008KT 3400 BR BKN006 02/02 Q1023
                        TEMPO 5000 SCT006 BKN010=
201702121020 METAR COR EGLL 121020Z AUTO 06008KT 5000 HZ OVC008 02/01
                        Q1023 TEMPO 4500=
201702120950 METAR COR EGLL 120950Z AUTO 06007KT 6000 BKN009 02/01 Q1023
                        BECMG BKN011=
201702120920 METAR COR EGLL 120920Z AUTO 06007KT 6000 OVC009 02/01 Q1023
                        BECMG BKN011=
201702120850 METAR COR EGLL 120850Z AUTO 06007KT 7000 BKN010 02/01 Q1023
                        NOSIG=
201702120820 METAR COR EGLL 120820Z AUTO 04006KT 360V080 7000 OVC010 02/01
                        Q1023 TEMPO BKN008=
201702120750 METAR COR EGLL 120750Z 05007KT 010V070 6000 BKN010 02/01
                        Q1022 TEMPO BKN008=
201702120720 METAR COR EGLL 120720Z 04006KT 010V070 5000 -SHRA BKN010
                        02/01 Q1022 RESG TEMPO 4000 -SHRASN
                        BKN008=
201702120650 METAR COR EGLL 120650Z 04007KT 010V070 5000 -SHRASN BKN010
                        02/01 Q1022 TEMPO 4000 BKN008=
201702120620 METAR COR EGLL 120620Z AUTO 05006KT 010V080 6000 OVC009 02/01
                        Q1022 TEMPO 4500 -SHRASN=
201702120550 METAR COR EGLL 120550Z AUTO 04006KT 360V070 5000 HZ OVC010
                        02/01 Q1022 TEMPO 4500 -SHRASN BKN006=
201702120520 METAR COR EGLL 120520Z 04007KT 350V080 6000 BKN012 02/01
                        Q1022 TEMPO 4000 BR BKN006=
201702120450 METAR COR EGLL 120450Z 04009KT 5000 BR BKN009 02/02 Q1022
                        TEMPO SCT009 BKN012=
201702120420 METAR COR EGLL 120420Z 04006KT 360V070 3000 -RADZ BR FEW006
                        BKN009 02/02 Q1022 TEMPO SCT008 BKN012=
201702120350 METAR COR EGLL 120350Z 04006KT 010V080 3000 -RADZ BR FEW004
                        BKN007 02/02 Q1022 NOSIG=
201702120320 METAR COR EGLL 120320Z 04005KT 360V070 3000 -RADZ BR FEW004
                        BKN006 02/02 Q1022 NOSIG=
201702120250 METAR COR EGLL 120250Z AUTO 04006KT 010V070 1500 BR OVC004
                        02/02 Q1022 BECMG SCT005 BKN008=
201702120220 METAR COR EGLL 120220Z AUTO 05006KT 010V080 3100 BR OVC007
                        02/02 Q1022 NOSIG=
201702120150 METAR COR EGLL 120150Z AUTO 04008KT 020V080 4300 BR OVC007
                        02/02 Q1022 NOSIG=
201702120120 METAR EGLL 120120Z AUTO 04008KT 6000 OVC009 02/02 Q1022=
201702120050 METAR EGLL 120050Z 03008KT 360V070 6000 -RADZ BKN010 02/02
                        Q1022=
201702120020 METAR EGLL 120020Z 04008KT 360V060 5000 -SHRASN FEW007 BKN010
                        02/02 Q1022=
201702112350 METAR COR EGLL 112350Z 03006KT 350V060 4500 -SHRASN FEW008
                        BKN010 02/02 Q1022 TEMPO 6000 NSW
                        SCT010 BKN015=
201702112320 METAR COR EGLL 112320Z 02005KT 350V050 4500 -SHRASN FEW008
                        BKN011 03/02 Q1022 TEMPO 6000 NSW
                        FEW012 BKN016=
201702112250 METAR COR EGLL 112250Z 02006KT 340V060 4500 -SHRASN BKN010
                        03/02 Q1022 TEMPO 6000 NSW SCT010
                        BKN016=
201702112220 METAR COR EGLL 112220Z 02006KT 340V050 4500 -SHRASN BKN012
                        03/02 Q1022 TEMPO 6000 NSW SCT012
                        BKN018=
201702112150 METAR COR EGLL 112150Z 01006KT 330V050 6000 SCT012 BKN023
                        03/02 Q1022 TEMPO 4500 BR BKN011=
201702112120 METAR COR EGLL 112120Z 01006KT 330V050 4500 HZ SCT012 BKN018
                        02/02 Q1022 TEMPO 6000=
201702112050 METAR COR EGLL 112050Z 01007KT 340V040 3800 HZ BKN012 02/02
                        Q1022 TEMPO SCT012 BKN020=
201702112020 METAR COR EGLL 112020Z 01006KT 340V040 3600 -RASN SCT012
                        BKN022 02/01 Q1022 TEMPO BKN012=
201702111950 METAR COR EGLL 111950Z 36006KT 330V040 3800 -RASN FEW011
                        BKN025 02/01 Q1022 TEMPO BKN012=
201702111920 METAR COR EGLL 111920Z 36006KT 330V040 3800 -RA SCT012 BKN028
                        02/01 Q1022 TEMPO BKN012=
201702111850 METAR COR EGLL 111850Z 36005KT 330V030 4000 -DZ SCT011 BKN035
                        02/01 Q1022 TEMPO BKN012=
201702111820 METAR COR EGLL 111820Z 01005KT 330V070 4000 -DZ FEW011 BKN026
                        02/01 Q1022 TEMPO BKN015=
201702111750 METAR COR EGLL 111750Z 01005KT 330V050 3800 -RA FEW015 BKN033
                        02/01 Q1022 TEMPO 5000=
201702111720 METAR COR EGLL 111720Z AUTO 02006KT 3900 HZ FEW014 OVC025
                        02/01 Q1022 TEMPO BKN014=
201702111650 METAR COR EGLL 111650Z AUTO 03006KT 350V070 3800 HZ SCT012
                        SCT025 02/01 Q1022 TEMPO 5000 BKN014=
201702111620 METAR COR EGLL 111620Z 02007KT 340V050 4000 -DZ SCT013 BKN022
                        02/01 Q1022 TEMPO BKN015=
201702111550 METAR COR EGLL 111550Z 02005KT 350V050 4500 HZ SCT022 BKN031
                        03/01 Q1022 TEMPO 5000 BKN014=
201702111520 METAR COR EGLL 111520Z 02006KT 350V070 4600 HZ BKN013 BKN043
                        03/01 Q1022 TEMPO 5000 SCT015=
201702111450 METAR COR EGLL 111450Z 03008KT 350V070 4600 HZ BKN015 BKN036
                        03/01 Q1022 TEMPO 5000 BKN014=
201702111420 METAR COR EGLL 111420Z 02008KT 340V050 4500 -RASN BKN011
                        BKN035 02/01 Q1022 TEMPO 5000 BKN015=
201702111350 METAR COR EGLL 111350Z 02007KT 3600 -SN BKN010 BKN035 02/01
                        Q1022 TEMPO BKN009=
201702111320 METAR COR EGLL 111320Z AUTO 03007KT 3800 -RASN BKN010 OVC034
                        02/01 Q1022 TEMPO BKN009=
201702111250 METAR COR EGLL 111250Z AUTO 03009KT 360V070 3800 -RASN OVC010
                        02/01 Q1022 TEMPO BKN009=
201702111220 METAR COR EGLL 111220Z AUTO 03007KT 340V060 3400 -RASN OVC008
                        02/01 Q1023 TEMPO BKN010=
201702111150 METAR COR EGLL 111150Z 02007KT 350V050 3700 -SHRASN BKN010
                        02/01 Q1023 TEMPO SHRASN BKN008=
201702111120 METAR COR EGLL 111120Z 01006KT 330V050 3700 -RASN BKN009
                        01/01 Q1023 TEMPO SHRASN=
201702111050 METAR COR EGLL 111050Z 02007KT 330V050 3900 BR BKN010 01/01
                        Q1023 TEMPO BKN008=
201702111020 METAR COR EGLL 111020Z 01006KT 340V050 4700 BR BKN010 01/00
                        Q1023 TEMPO BKN008=
201702110950 METAR COR EGLL 110950Z 01006KT 330V040 4700 BR BKN010 01/00
                        Q1023 TEMPO BKN009=
201702110920 METAR COR EGLL 110920Z 03006KT 340V060 4500 BR BKN010 01/00
                        Q1022 TEMPO BKN009=
201702110850 METAR COR EGLL 110850Z 03005KT 4700 BR BKN009 01/00 Q1022
                        TEMPO BKN010=
201702110820 METAR COR EGLL 110820Z 02005KT 4500 BR BKN010 01/00 Q1022
                        TEMPO BKN008=
201702110750 METAR COR EGLL 110750Z 02006KT 340V060 4700 BR BKN012 01/00
                        Q1022 TEMPO 5000=
201702110720 METAR COR EGLL 110720Z 04005KT 360V070 5000 -RADZ BKN012
                        01/00 Q1022 TEMPO 4500 -SHRASN=
201702110650 METAR COR EGLL 110650Z 04007KT 360V070 5000 -SHRASN SCT008
                        BKN027 01/00 Q1022 NOSIG=
201702110620 METAR COR EGLL 110620Z 01005KT 320V050 7000 -DZ SCT007 BKN030
                        01/01 Q1022 TEMPO BKN012=
201702110550 METAR COR EGLL 110550Z 36006KT 320V020 4900 -DZ SCT007 BKN014
                        01/01 Q1022 TEMPO 7000 BKN009=
201702110520 METAR COR EGLL 110520Z 35004KT 320V040 3300 -DZ SCT007 BKN010
                        01/01 Q1022 TEMPO BKN009=
201702110450 METAR COR EGLL 110450Z 35005KT 310V020 3100 -DZ FEW008 BKN010
                        01/01 Q1022 TEMPO BKN009=
201702110420 METAR COR EGLL 110420Z 34005KT 280V020 5000 -SN FEW008 BKN010
                        01/01 Q1022 TEMPO BKN009=
201702110350 METAR COR EGLL 110350Z 33005KT 4500 -SN FEW008 BKN012 01/01
                        Q1022 TEMPO 7000 BKN009=
201702110320 METAR COR EGLL 110320Z 32005KT 280V340 5000 -SN SCT011 BKN018
                        01/01 Q1022 TEMPO BKN012=
201702110250 METAR COR EGLL 110250Z 32005KT 2900 -SN FEW003 SCT010 BKN020
                        01/01 Q1022 TEMPO 7000 BKN010=
201702110220 METAR COR EGLL 110220Z 32006KT 8000 -SN SCT015 BKN025 01/01
                        Q1022 TEMPO BKN014=
201702110150 METAR COR EGLL 110150Z AUTO 33005KT 300V010 8000 -RA OVC010
                        01/00 Q1023 TEMPO 4800 BKN008=
201702110120 METAR COR EGLL 110120Z 35005KT 310V030 7000 -SN BKN014 01/00
                        Q1023 TEMPO 4500 BKN008=
201702110050 METAR COR EGLL 110050Z 36004KT 320V030 8000 -SN BKN014 01/00
                        Q1023 TEMPO 4500 BKN008=
201702110020 METAR COR EGLL 110020Z 36007KT 330V050 9999 FEW017 BKN036
                        02/00 Q1023 TEMPO 4500 -SN BKN012=
201702102350 METAR COR EGLL 102350Z 36006KT 330V030 9999 -SN BKN018 02/00
                        Q1023 TEMPO 4500 BKN012=
201702102320 METAR COR EGLL 102320Z 34005KT 310V020 9999 -SN BKN018 02/00
                        Q1023 TEMPO 4500 BKN014=
201702102250 METAR COR EGLL 102250Z 33005KT 300V010 9999 SCT016 BKN047
                        01/00 Q1023 RESN TEMPO BKN014=
201702102220 METAR COR EGLL 102220Z 34006KT 300V030 9999 -SN SCT017 01/00
                        Q1024 TEMPO 4500 BKN014=
201702102150 METAR COR EGLL 102150Z 33005KT 300V010 9000 -SHSN SCT012
                        01/00 Q1024 TEMPO BKN014=
201702102120 METAR COR EGLL 102120Z 33005KT 290V010 9000 -SHSN SCT015
                        01/00 Q1024 TEMPO 4800 BKN014=
201702102050 METAR COR EGLL 102050Z 33005KT 310V040 9999 -SHSN BKN048
                        01/00 Q1024 TEMPO 4800 BKN014=
201702102020 METAR COR EGLL 102020Z 34005KT 300V010 9000 -SHSN NSC 01/00
                        Q1024 TEMPO 4500 BKN014=
201702101950 METAR COR EGLL 101950Z 35005KT 300V030 8000 -SHSN FEW015
                        01/M00 Q1024 TEMPO 4500 BKN014=
201702101920 METAR COR EGLL 101920Z 35004KT 290V020 8000 NSC 01/M00 Q1024
                        TEMPO 4500=
201702101850 METAR COR EGLL 101850Z 36005KT 320V030 8000 FEW015 01/M00
                        Q1024 TEMPO 4500 -SHSN BKN014=
201702101820 METAR COR EGLL 101820Z 36004KT 320V050 7000 -SHSN FEW014
                        BKN042 01/M01 Q1024 TEMPO 4500 BKN014=
201702101750 METAR COR EGLL 101750Z 02005KT 330V050 8000 FEW032 02/M01
                        Q1024 TEMPO 4500 -SHSN BKN014=
201702101720 METAR COR EGLL 101720Z 03005KT 350V060 8000 FEW017 BKN032
                        02/M00 Q1024 TEMPO 4500 -SHSN BKN014=
201702101650 METAR COR EGLL 101650Z 03005KT 340V060 7000 -RASN SCT018
                        BKN030 02/M00 Q1024 TEMPO 4500 -SHSN=
201702101620 METAR COR EGLL 101620Z 04007KT 360V080 6000 -RASN SCT015
                        BKN029 02/M00 Q1024 TEMPO 4500 -SHSN=
201702101550 METAR COR EGLL 101550Z 04007KT 5000 -RASN SCT012 BKN018 02/01
                        Q1023 NOSIG=
201702101520 METAR COR EGLL 101520Z 04005KT 350V080 4500 -RASN SCT010
                        BKN013 02/01 Q1023 TEMPO 5000 BKN015=
201702101450 METAR COR EGLL 101450Z 04006KT 360V080 3400 -RASN SCT010
                        BKN012 02/01 Q1023 TEMPO 5000 BKN015=
201702101420 METAR COR EGLL 101420Z 04005KT 3200 -RASN SCT008 BKN010 02/01
                        Q1023 TEMPO BKN008=
201702101350 METAR COR EGLL 101350Z 04006KT 360V070 2600 -RASN SCT007
                        BKN009 02/01 Q1023 TEMPO BKN010=
201702101320 METAR COR EGLL 101320Z 04007KT 2500 -RASN SCT007 BKN009 02/01
                        Q1023 TEMPO BKN010=
201702101250 METAR COR EGLL 101250Z 03007KT 350V070 2100 BR SCT006 BKN008
                        02/02 Q1024 TEMPO BKN010=
201702101220 METAR COR EGLL 101220Z 03006KT 340V060 2100 -RA FEW005 BKN006
                        BKN007 02/02 Q1024 REDZ NOSIG=
201702101150 METAR EGLL 101150Z 02007KT 350V060 1800 RADZ SCT005 BKN006
                        02/02 Q1024=
201702101120 METAR COR EGLL 101120Z 02007KT 350V050 1600 BR BKN005 01/01
                        Q1024 TEMPO BKN004=
201702101050 METAR COR EGLL 101050Z 02006KT 340V060 1600 BR BKN004 01/01
                        Q1024 TEMPO BKN005=
201702101020 METAR COR EGLL 101020Z 02007KT 340V050 1600 BR FEW004 BKN005
                        01/01 Q1024 TEMPO BKN004=
201702100950 METAR COR EGLL 100950Z 03006KT 340V070 1800 BR SCT004 BKN006
                        01/01 Q1024 TEMPO BKN004=
201702100920 METAR COR EGLL 100920Z 04007KT 360V070 1800 BR FEW003 SCT004
                        BKN006 01/01 Q1024 TEMPO BKN004=
201702100850 METAR COR EGLL 100850Z 04007KT 350V070 2100 BR SCT004 BKN005
                        01/01 Q1024 TEMPO BKN004=
201702100820 METAR COR EGLL 100820Z 03006KT 360V080 2100 BR SCT004 BKN005
                        01/01 Q1024 TEMPO BKN004=
201702100750 METAR COR EGLL 100750Z 04007KT 360V060 2300 BR FEW003 SCT004
                        BKN005 01/01 Q1024 TEMPO BKN004=
201702100720 METAR COR EGLL 100720Z 04008KT 2200 BR FEW003 SCT004 BKN006
                        01/01 Q1024 TEMPO BKN004=
201702100650 METAR COR EGLL 100650Z 04007KT 2200 BR SCT003 BKN004 BKN006
                        01/01 Q1023 TEMPO SCT004 BKN006=
201702100620 METAR COR EGLL 100620Z 04007KT 1200 R09R/P1500 BR SCT003
                        BKN004 01/01 Q1023 TEMPO 1500 BKN005=
201702100550 METAR COR EGLL 100550Z 04006KT 010V080 1300 R09L/P1500 R09R/P1500
                        BR SCT003 BKN004 02/02 Q1023 TEMPO
                        1600 BKN005=
201702100520 METAR COR EGLL 100520Z 04007KT 010V070 1400 R09L/P1500 R09R/P1500
                        BR SCT003 BKN004 02/02 Q1023 TEMPO
                        1600 BKN005=
201702100450 METAR COR EGLL 100450Z 04006KT 1400 R09L/P1500 R09R/P1500
                        -RA BR SCT003 BKN004 02/02 Q1023
                        TEMPO 1600 BKN005=
201702100420 METAR COR EGLL 100420Z 04006KT 010V070 1100 R09L/P1500 R09R/P1500
                        -RADZ SCT003 BKN004 01/01 Q1023 NOSIG=
201702100350 METAR COR EGLL 100350Z 04006KT 1200 R09R/P1500 BR SCT004
                        BKN005 01/01 Q1023 TEMPO BKN004=
201702100320 METAR COR EGLL 100320Z AUTO 04006KT 360V070 1200 R09R/P1500
                        BR OVC003 02/02 Q1024 NOSIG=
201702100250 METAR COR EGLL 100250Z 05006KT 360V070 1400 R09L/P1500 R09R/P1500
                        BR SCT004 BKN005 02/02 Q1024 NOSIG=
201702100220 METAR COR EGLL 100220Z 04005KT 010V080 1300 R09L/P1500 R09R/P1500
                        BR SCT004 BKN005 02/02 Q1024 NOSIG=
201702100150 METAR COR EGLL 100150Z 05006KT 360V070 1200 R09L/P1500 R09R/P1500
                        BR SCT004 BKN005 02/02 Q1024 TEMPO
                        BKN004=
201702100120 METAR COR EGLL 100120Z 05005KT 010V080 1200 R09L/P1500 R09R/P1500
                        -RADZ BR SCT004 BKN005 02/02 Q1024
                        TEMPO BKN004=
201702100050 METAR COR EGLL 100050Z 05006KT 1100 R09L/P1500 R09R/P1500
                        -RADZ BR SCT004 BKN005 01/01 Q1024
                        TEMPO BKN004=
201702100020 METAR COR EGLL 100020Z 05006KT 030V090 1100 R09L/P1500 R09R/P1500
                        -RADZ BR SCT004 BKN005 01/01 Q1024
                        TEMPO BKN004=
201702092350 METAR COR EGLL 092350Z 05006KT 1300 R09L/P1500 R09R/P1500
                        -RADZ BR SCT004 BKN005 01/01 Q1024
                        TEMPO BKN004=
201702092320 METAR COR EGLL 092320Z 05006KT 1100 R09L/P1500 R09R/P1500
                        -RADZ SCT004 BKN005 01/01 Q1024 TEMPO
                        BKN004=
201702092250 METAR COR EGLL 092250Z 05006KT 1300 -RADZ BR SCT004 BKN005
                        01/01 Q1024 TEMPO BKN004=
201702092220 METAR COR EGLL 092220Z 05006KT 1800 -RADZ BR SCT005 BKN006
                        01/01 Q1025 TEMPO 1400 -SHRASN BKN004=
201702092150 METAR COR EGLL 092150Z 05006KT 3500 -RADZ BR FEW005 BKN006
                        02/01 Q1025 NOSIG=
201702092120 METAR COR EGLL 092120Z 06008KT 040V100 4000 -RADZ BR FEW005
                        BKN006 02/01 Q1025 NOSIG=
201702092050 METAR COR EGLL 092050Z 06008KT 020V090 4200 -RADZ FEW006
                        BKN007 02/01 Q1025 NOSIG=
201702092020 METAR COR EGLL 092020Z 06007KT 4200 -RASN FEW006 BKN008 02/01
                        Q1025 NOSIG=
201702091950 METAR COR EGLL 091950Z 06007KT 4500 -SHSN BKN008 02/01 Q1025
                        NOSIG=
201702091920 METAR COR EGLL 091920Z 06007KT 4500 -SHSN FEW007 BKN010 02/01
                        Q1025 TEMPO BKN009=
201702091850 METAR COR EGLL 091850Z 06009KT 6000 -SHSN FEW009 BKN011 02/01
                        Q1025 NOSIG=
201702091820 METAR COR EGLL 091820Z 06008KT 6000 -SHSN BKN011 02/01 Q1025
                        NOSIG=
201702091750 METAR COR EGLL 091750Z 06009KT 6000 -SHSN BKN012 02/01 Q1025
                        NOSIG=
201702091720 METAR COR EGLL 091720Z AUTO 06008KT 5000 HZ OVC011 02/01
                        Q1025 NOSIG=
201702091650 METAR COR EGLL 091650Z AUTO 06009KT 6000 BKN012 02/00 Q1025
                        TEMPO SCT014=
201702091620 METAR COR EGLL 091620Z AUTO 06007KT 6000 BKN013 OVC035 02/01
                        Q1026 TEMPO SCT014=
201702091550 METAR COR EGLL 091550Z AUTO 06008KT 6000 BKN014 OVC033 02/00
                        Q1026 TEMPO SCT014=
201702091520 METAR EGLL 091520Z AUTO 06008KT 7000 OVC014 02/00 Q1026=
201702091450 METAR EGLL 091450Z AUTO 06008KT 7000 BKN013 OVC025 03/00
                        Q1026=
201702091420 METAR COR EGLL 091420Z AUTO 05007KT 7000 BKN013 03/00 Q1026
                        TEMPO SCT013 BKN018=
201702091350 METAR COR EGLL 091350Z AUTO 06007KT 020V080 8000 BKN015 02/00
                        Q1027 TEMPO BKN014=
201702091320 METAR COR EGLL 091320Z AUTO 06007KT 9000 BKN015 OVC027 02/M00
                        Q1027 TEMPO BKN014=
201702091250 METAR COR EGLL 091250Z AUTO 06006KT 9000 BKN016 02/M00 Q1027
                        TEMPO BKN014=
201702091220 METAR COR EGLL 091220Z AUTO 06006KT 9999 BKN017 02/M00 Q1027
                        TEMPO BKN014=
201702091150 METAR COR EGLL 091150Z AUTO 06006KT 9000 OVC028 02/M00 Q1028
                        NOSIG=
201702091120 METAR COR EGLL 091120Z AUTO 06005KT 020V080 9999 FEW018 OVC026
                        02/M00 Q1028 NOSIG=
201702091050 METAR COR EGLL 091050Z AUTO 06006KT 9999 OVC030 02/M00 Q1028
                        NOSIG=
201702091020 METAR COR EGLL 091020Z AUTO 06007KT 9999 OVC030 02/M00 Q1028
                        NOSIG=
201702090950 METAR COR EGLL 090950Z AUTO 06007KT 9999 FEW017 OVC030 02/M00
                        Q1028 NOSIG=
201702090920 METAR COR EGLL 090920Z AUTO 06006KT 020V080 9999 FEW017 OVC028
                        02/M00 Q1028 NOSIG=
201702090850 METAR COR EGLL 090850Z AUTO 06008KT 9999 OVC027 02/M00 Q1029
                        NOSIG=
201702090820 METAR COR EGLL 090820Z AUTO 06007KT 9999 OVC030 02/M00 Q1029
                        NOSIG=
201702090750 METAR COR EGLL 090750Z AUTO 05006KT 9999 FEW015 OVC031 02/M00
                        Q1029 NOSIG=
201702090720 METAR COR EGLL 090720Z AUTO 06006KT 9999 FEW016 OVC033 02/M00
                        Q1029 NOSIG=
201702090650 METAR COR EGLL 090650Z AUTO 05005KT 9999 OVC032 02/M00 Q1029
                        NOSIG=
201702090620 METAR COR EGLL 090620Z AUTO 05005KT 010V080 9999 FEW014 OVC033
                        02/00 Q1029 NOSIG=
201702090550 METAR COR EGLL 090550Z AUTO 04005KT 010V070 9999 FEW014 OVC030
                        02/00 Q1029 NOSIG=
201702090520 METAR COR EGLL 090520Z AUTO 04005KT 9999 OVC033 02/00 Q1029
                        NOSIG=
201702090450 METAR COR EGLL 090450Z AUTO 04004KT 010V080 9999 FEW013 OVC032
                        02/00 Q1029 NOSIG=
201702090420 METAR COR EGLL 090420Z AUTO 05004KT 020V080 9000 FEW013 OVC031
                        02/01 Q1029 TEMPO BKN013=
201702090350 METAR COR EGLL 090350Z AUTO 06004KT 9000 SCT012 OVC032 02/00
                        Q1029 TEMPO BKN012=
201702090320 METAR COR EGLL 090320Z AUTO 06004KT 8000 SCT012 OVC036 02/01
                        Q1029 TEMPO BKN012=
201702090250 METAR COR EGLL 090250Z AUTO 05005KT 010V080 8000 BKN012 OVC035
                        02/01 Q1029 TEMPO SCT012=
201702090220 METAR COR EGLL 090220Z AUTO 05005KT 020V090 8000 BKN014 OVC036
                        02/01 Q1030 NOSIG=
201702090150 METAR COR EGLL 090150Z AUTO 05005KT 8000 FEW013 OVC035 02/00
                        Q1030 TEMPO BKN013=
201702090120 METAR COR EGLL 090120Z AUTO 05005KT 010V080 8000 BKN014 OVC037
                        02/01 Q1030 TEMPO SCT014 BKN037=
201702090050 METAR COR EGLL 090050Z AUTO 05005KT 8000 BKN013 OVC037 02/01
                        Q1030 TEMPO SCT013=
201702090020 METAR COR EGLL 090020Z AUTO 04004KT 010V070 8000 FEW014 OVC038
                        02/01 Q1030 NOSIG=
201702082350 METAR COR EGLL 082350Z AUTO 03004KT 350V070 8000 SCT015 OVC038
                        03/01 Q1030 NOSIG=
201702082320 METAR COR EGLL 082320Z AUTO 02004KT 340V060 8000 SCT014 OVC038
                        03/01 Q1030 NOSIG=
201702082250 METAR COR EGLL 082250Z AUTO 05006KT 9000 FEW014 OVC038 03/01
                        Q1030 NOSIG=
201702082220 METAR COR EGLL 082220Z AUTO VRB03KT 9000 FEW014 OVC036 03/01
                        Q1030 NOSIG=
201702082150 METAR COR EGLL 082150Z AUTO 03005KT 360V060 9999 FEW015 OVC035
                        03/01 Q1030 NOSIG=
201702082120 METAR COR EGLL 082120Z AUTO 05004KT 010V080 9999 OVC040 03/01
                        Q1030 NOSIG=
201702082050 METAR COR EGLL 082050Z AUTO 05004KT 020V090 9999 OVC040 03/00
                        Q1030 NOSIG=
201702082020 METAR COR EGLL 082020Z AUTO 04005KT 010V080 9999 FEW021 OVC040
                        03/00 Q1030 NOSIG=
201702081950 METAR COR EGLL 081950Z AUTO 04005KT 9999 OVC042 04/01 Q1030
                        NOSIG=
201702081920 METAR COR EGLL 081920Z AUTO 04005KT 360V070 9999 OVC044 04/00
                        Q1029 NOSIG=
201702081850 METAR COR EGLL 081850Z AUTO 04005KT 340V060 9999 FEW018 OVC039
                        04/01 Q1029 NOSIG=
201702081820 METAR COR EGLL 081820Z AUTO 03004KT 360V070 9999 OVC039 04/01
                        Q1029 NOSIG=
201702081750 METAR COR EGLL 081750Z AUTO 04004KT 360V070 9999 OVC039 04/01
                        Q1029 NOSIG=
201702081720 METAR COR EGLL 081720Z AUTO 03004KT 350V070 9000 OVC032 04/01
                        Q1029 NOSIG=
201702081650 METAR COR EGLL 081650Z AUTO 02005KT 330V060 9999 OVC028 05/01
                        Q1028 NOSIG=
201702081620 METAR COR EGLL 081620Z 03005KT 350V050 9999 BKN033 05/01
                        Q1028 NOSIG=
201702081550 METAR COR EGLL 081550Z 01004KT 340V050 8000 BKN032 05/02
                        Q1028 NOSIG=
201702081520 METAR COR EGLL 081520Z 01004KT 8000 BKN025 05/02 Q1028 NOSIG=
201702081450 METAR COR EGLL 081450Z 01005KT 340V060 8000 SCT016 BKN023
                        05/02 Q1028 NOSIG=
201702081420 METAR COR EGLL 081420Z 04005KT 360V060 7000 OVC029 05/02
                        Q1028 NOSIG=
201702081350 METAR COR EGLL 081350Z 05005KT 010V080 5000 HZ FEW008 SCT009
                        BKN011 04/03 Q1027 TEMPO SCT011 BKN016=
201702081320 METAR COR EGLL 081320Z 04006KT 360V080 3800 HZ SCT007 BKN009
                        04/03 Q1027 BECMG 9000 NSW FEW009
                        BKN015=
201702081250 METAR COR EGLL 081250Z AUTO 04006KT 360V070 5000 HZ OVC010
                        05/03 Q1027 TEMPO SCT010 BKN025=
201702081220 METAR COR EGLL 081220Z 03004KT 350V060 9999 SCT013 BKN016
                        05/03 Q1027 TEMPO BKN014=
201702081150 METAR COR EGLL 081150Z 04005KT 010V080 9999 FEW011 BKN014
                        05/03 Q1027 TEMPO FEW014 BKN018=
201702081120 METAR COR EGLL 081120Z AUTO 02004KT 320V060 9999 OVC010 05/04
                        Q1027 BECMG FEW014 BKN018=
201702081050 METAR COR EGLL 081050Z AUTO 03005KT 350V070 7000 BKN005 05/04
                        Q1026 BECMG FEW008 BKN018=
201702081020 METAR COR EGLL 081020Z 03004KT 350V070 5000 BR FEW003 SCT004
                        BKN006 04/04 Q1026 BECMG SCT006 BKN010=
201702080950 METAR COR EGLL 080950Z VRB03KT 4000 BR SCT003 BKN004 04/04
                        Q1026 BECMG 7000 NSW SCT004 BKN007=
201702080920 METAR COR EGLL 080920Z AUTO VRB03KT 6000 OVC003 04/03 Q1026
                        TEMPO SCT004 BKN005=
201702080850 METAR COR EGLL 080850Z AUTO 01005KT 330V050 7000 OVC003 04/03
                        Q1025 TEMPO SCT004 BKN005=
201702080820 METAR COR EGLL 080820Z AUTO 02006KT 330V060 5000 BR OVC005
                        04/04 Q1025 TEMPO 4000 BKN004=
201702080750 METAR COR EGLL 080750Z AUTO 05003KT 7000 BKN007 04/04 Q1025
                        TEMPO 4000=
201702080720 METAR COR EGLL 080720Z AUTO VRB03KT 7000 BKN007 05/04 Q1024
                        TEMPO 4000 -DZ BKN004=
201702080650 METAR COR EGLL 080650Z AUTO 33004KT 280V030 6000 BKN007 05/04
                        Q1024 TEMPO 4000 -DZ BKN004=
201702080620 METAR EGLL 080620Z AUTO VRB02KT 7000 OVC009 05/04 Q1024=
201702080550 METAR COR EGLL 080550Z AUTO 30004KT 7000 BKN011 05/04 Q1023
                        TEMPO BKN006=
201702080520 METAR COR EGLL 080520Z AUTO VRB02KT 8000 BKN015 05/04 Q1023
                        TEMPO BKN006=
201702080450 METAR COR EGLL 080450Z AUTO VRB03KT 9000 OVC015 05/04 Q1023
                        BECMG BKN012=
201702080420 METAR COR EGLL 080420Z AUTO 30003KT 9000 BKN015 BKN040 05/04
                        Q1022 BECMG BKN012=
201702080350 METAR COR EGLL 080350Z AUTO 30003KT 9000 BKN042 05/04 Q1022
                        BECMG BKN012=
201702080320 METAR COR EGLL 080320Z AUTO 31003KT 9999 FEW013 BKN041 05/04
                        Q1021 TEMPO BKN012=
201702080250 METAR COR EGLL 080250Z AUTO VRB03KT 9999 OVC014 05/04 Q1021
                        NOSIG=
201702080220 METAR COR EGLL 080220Z AUTO VRB03KT 9999 OVC012 05/04 Q1021
                        TEMPO SCT012 BKN015=
201702080150 METAR COR EGLL 080150Z AUTO VRB03KT 9999 OVC014 05/04 Q1021
                        TEMPO BKN015=
201702080120 METAR COR EGLL 080120Z AUTO VRB03KT 9999 OVC014 05/04 Q1021
                        TEMPO BKN008=
201702080050 METAR COR EGLL 080050Z AUTO VRB02KT 9999 BKN007 05/04 Q1021
                        NOSIG=
201702080020 METAR COR EGLL 080020Z AUTO 36004KT 9999 BKN007 05/03 Q1020
                        TEMPO SCT007 BKN015=
201702072350 METAR COR EGLL 072350Z AUTO VRB02KT 9999 FEW016 04/03 Q1020
                        TEMPO BKN010=
201702072320 METAR COR EGLL 072320Z AUTO 33004KT 270V060 9999 NCD 04/03
                        Q1019 NOSIG=
201702072250 METAR COR EGLL 072250Z AUTO 29004KT 250V010 9999 NCD 03/03
                        Q1019 NOSIG=
201702072220 METAR COR EGLL 072220Z AUTO VRB03KT 9999 NCD 04/03 Q1018
                        NOSIG=
201702072150 METAR COR EGLL 072150Z AUTO 32004KT 9999 NCD 04/03 Q1018
                        NOSIG=
201702072120 METAR COR EGLL 072120Z AUTO 31004KT 9999 NCD 05/04 Q1018
                        NOSIG=
201702072050 METAR COR EGLL 072050Z AUTO VRB03KT 9999 NCD 06/04 Q1018
                        NOSIG=
201702072020 METAR COR EGLL 072020Z AUTO 29005KT 9999 NCD 05/03 Q1017
                        NOSIG=
201702071950 METAR COR EGLL 071950Z AUTO 31002KT 9999 NCD 07/04 Q1017
                        NOSIG=
201702071920 METAR COR EGLL 071920Z AUTO VRB01KT 9999 NCD 07/04 Q1017
                        NOSIG=
201702071850 METAR COR EGLL 071850Z AUTO VRB01KT 9999 NCD 07/04 Q1017
                        NOSIG=
201702071820 METAR COR EGLL 071820Z AUTO 34001KT 9999 NCD 07/04 Q1016
                        NOSIG=
201702071750 METAR COR EGLL 071750Z AUTO VRB02KT 9999 NCD 08/04 Q1016
                        NOSIG=
201702071720 METAR COR EGLL 071720Z AUTO 31003KT 9999 NCD 09/04 Q1016
                        NOSIG=
201702071650 METAR COR EGLL 071650Z AUTO 31004KT 9999 FEW034 09/04 Q1015
                        NOSIG=
201702071620 METAR COR EGLL 071620Z AUTO 31004KT 280V350 9999 SCT033 BKN047
                        10/03 Q1015 NOSIG=
201702071550 METAR COR EGLL 071550Z AUTO 30005KT 250V330 9999 FEW032 10/04
                        Q1015 NOSIG=
201702071520 METAR COR EGLL 071520Z AUTO 31004KT 9999 BKN035 10/04 Q1015
                        NOSIG=
201702071450 METAR COR EGLL 071450Z AUTO 30005KT 280V340 9999 BKN047 10/04
                        Q1014 NOSIG=
201702071420 METAR EGLL 071420Z AUTO 29008KT 9999 SCT031 SCT044 10/03
                        Q1014=
201702071350 METAR COR EGLL 071350Z AUTO 30006KT 9999 BKN029 10/04 Q1014
                        NOSIG=
201702071320 METAR COR EGLL 071320Z AUTO 30007KT 9999 BKN027 11/05 Q1014
                        NOSIG=
201702071250 METAR COR EGLL 071250Z AUTO 30005KT 9999 BKN023 10/05 Q1014
                        NOSIG=
201702071220 METAR COR EGLL 071220Z AUTO 29005KT 9999 BKN019 11/06 Q1014
                        NOSIG=
201702071150 METAR COR EGLL 071150Z AUTO 29008KT 9999 BKN015 10/07 Q1014
                        NOSIG=
201702071120 METAR COR EGLL 071120Z 28008KT 250V310 9999 SCT012 09/07
                        Q1014 NOSIG=
201702071050 METAR COR EGLL 071050Z 29007KT 9999 FEW009 SCT012 08/07 Q1014
                        NOSIG=
201702071020 METAR COR EGLL 071020Z 30006KT 9999 FEW004 08/07 Q1013 NOSIG=
201702070950 METAR COR EGLL 070950Z 27007KT 9000 FEW003 SCT005 07/07 Q1013
                        NOSIG=
201702070920 METAR COR EGLL 070920Z 27008KT 6000 FEW003 SCT009 07/07 Q1013
                        NOSIG=
201702070850 METAR COR EGLL 070850Z 27004KT 6000 FEW004 SCT010 07/07 Q1013
                        NOSIG=
201702070820 METAR COR EGLL 070820Z 24005KT 5000 BR FEW004 SCT006 BKN012
                        06/06 Q1012 BECMG SCT012=
201702070750 METAR EGLL 070750Z 22005KT 190V250 5000 BR FEW003 SCT004
                        BKN008 06/06 Q1012=
201702070720 METAR EGLL 070720Z 19004G14KT 160V220 3800 BR FEW003 BKN004
                        06/06 Q1012=
201702070650 METAR COR EGLL 070650Z 15004KT 090V180 3500 -DZ BR FEW002
                        BKN004 06/06 Q1012 TEMPO SCT002 BKN005=
201702070620 METAR COR EGLL 070620Z VRB03KT 3400 -DZ FEW003 SCT004 BKN006
                        06/06 Q1012 TEMPO BKN003=
201702070550 METAR COR EGLL 070550Z 10003KT 3100 BR SCT004 BKN005 BKN008
                        06/06 Q1011 TEMPO 2000 -DZ BKN003=
201702070520 METAR COR EGLL 070520Z 08003KT 2700 BR FEW003 BKN005 BKN008
                        06/06 Q1011 TEMPO DZ BKN003=
201702070450 METAR COR EGLL 070450Z AUTO 09003KT 2500 RA BKN001 05/05
                        Q1011 TEMPO 3000 DZ SCT002 OVC004=
201702070420 METAR COR EGLL 070420Z AUTO 08004KT 1800 BR OVC001 05/05
                        Q1011 RERA TEMPO 3000 -DZ SCT002
                        BKN004=
201702070350 METAR COR EGLL 070350Z AUTO 08004KT 2500 RA OVC001 05/05
                        Q1011 REDZ TEMPO 3000 -DZ SCT002
                        OVC003=
201702070320 METAR COR EGLL 070320Z AUTO 10004KT 2100 -RADZ OVC001 05/05
                        Q1011 REDZ TEMPO 3000 -DZ FEW002
                        OVC004=
201702070250 METAR COR EGLL 070250Z AUTO 10005KT 2000 DZ OVC002 05/05
                        Q1011 TEMPO 3000 -DZ OVC004=
201702070220 METAR COR EGLL 070220Z 10005KT 2600 -RADZ FEW004 SCT008 BKN010
                        05/05 Q1012 TEMPO 5000 -DZ BKN004=
201702070150 METAR COR EGLL 070150Z 10006KT 6000 FEW002 SCT007 BKN008
                        05/05 Q1012 TEMPO 4000 -DZ=
201702070120 METAR COR EGLL 070120Z 10006KT 4000 -RA BR FEW002 05/05 Q1012
                        TEMPO BKN005=
201702070050 METAR COR EGLL 070050Z 11006KT 3500 -RADZ BR SCT003 BKN005
                        BKN010 05/05 Q1012 NOSIG=
201702070020 METAR COR EGLL 070020Z 10006KT 2800 -RADZ BR FEW003 SCT005
                        BKN009 05/05 Q1012 TEMPO 3500 -DZ
                        SCT005 BKN010=
201702062350 METAR COR EGLL 062350Z 11007KT 4200 -RA BR FEW005 BKN008
                        BKN010 05/05 Q1013 NOSIG=
201702062320 METAR COR EGLL 062320Z 11007KT 4700 -RADZ BR SCT009 BKN010
                        BKN011 05/05 Q1013 TEMPO BKN006=
201702062250 METAR COR EGLL 062250Z 12008KT 9999 -RA FEW007 SCT011 BKN017
                        05/05 Q1013 TEMPO BKN006=
201702062220 METAR COR EGLL 062220Z AUTO 12009KT 8000 -RA OVC009/// //////TCU
                        05/04 Q1013 TEMPO SCT009 OVC012=
201702062150 METAR COR EGLL 062150Z AUTO 12008KT 9999 -RA OVC009 05/04
                        Q1014 TEMPO SCT009 OVC012=
201702062120 METAR COR EGLL 062120Z AUTO 12009KT 9999 -RA OVC017/// //////TCU
                        05/04 Q1014 BECMG BKN012=
201702062050 METAR COR EGLL 062050Z AUTO 12009KT 7000 -RA BKN022/// OVC037///
                        //////TCU 05/04 Q1014 NOSIG=
201702062020 METAR COR EGLL 062020Z AUTO 13008KT 8000 -RA BKN024/// OVC038///
                        //////TCU 05/04 Q1015 RERA NOSIG=
201702061950 METAR COR EGLL 061950Z AUTO 14010KT 9999 -RA SCT020/// OVC036///
                        //////CB 05/04 Q1015 NOSIG=
201702061920 METAR COR EGLL 061920Z AUTO 15009KT 9999 -RA BKN018/// OVC038///
                        //////CB 05/04 Q1015 TEMPO 4000 RA
                        BKN014=
201702061850 METAR COR EGLL 061850Z AUTO 15007KT 7000 -RA SCT020/// BKN035///
                        //////CB 06/05 Q1015 TEMPO 4000 RA
                        BKN014=
201702061820 METAR COR EGLL 061820Z AUTO 18011KT 8000 -RA BKN015 OVC047
                        06/04 Q1016 TEMPO 4000 RA BKN014=
201702061750 METAR COR EGLL 061750Z AUTO 15007KT 9999 -RA SCT020/// BKN039///
                        //////TCU 07/05 Q1016 TEMPO RA BKN014=
201702061720 METAR COR EGLL 061720Z AUTO 16007KT 9999 FEW017/// BKN037///
                        //////TCU 07/04 Q1016 TEMPO -RA BKN014=
201702061650 METAR COR EGLL 061650Z AUTO 15006KT 9999 FEW017 07/04 Q1016
                        NOSIG=
201702061620 METAR COR EGLL 061620Z AUTO 16008KT 9999 SCT017 07/04 Q1017
                        NOSIG=
201702061550 METAR COR EGLL 061550Z AUTO 16008KT 9999 FEW017 07/04 Q1017
                        NOSIG=
201702061520 METAR COR EGLL 061520Z AUTO 16009KT 9999 NCD 07/03 Q1017
                        NOSIG=
201702061450 METAR COR EGLL 061450Z AUTO 16010KT 120V200 9999 NCD 07/03
                        Q1017 NOSIG=
201702061420 METAR COR EGLL 061420Z AUTO 15007KT 9999 NCD 07/03 Q1017
                        NOSIG=
201702061350 METAR COR EGLL 061350Z AUTO 18008KT 130V210 9999 NCD 07/04
                        Q1018 NOSIG=
201702061320 METAR COR EGLL 061320Z AUTO 15005KT 100V180 9999 NCD 07/04
                        Q1018 NOSIG=
201702061250 METAR COR EGLL 061250Z AUTO 14005KT 9000 NCD 06/04 Q1018
                        NOSIG=
201702061220 METAR COR EGLL 061220Z AUTO 14005KT 9999 NCD 06/03 Q1019
                        NOSIG=
201702061150 METAR COR EGLL 061150Z AUTO 13004KT 080V180 9000 NCD 06/04
                        Q1019 NOSIG=
201702061120 METAR COR EGLL 061120Z AUTO VRB03KT 7000 NCD 05/03 Q1019
                        NOSIG=
201702061050 METAR COR EGLL 061050Z AUTO VRB02KT 7000 NCD 05/03 Q1019
                        NOSIG=
201702061020 METAR COR EGLL 061020Z AUTO VRB02KT 6000 NCD 05/04 Q1019
                        NOSIG=
201702060950 METAR COR EGLL 060950Z VRB02KT 5000 BR NSC 02/02 Q1020 NOSIG=
201702060920 METAR COR EGLL 060920Z VRB03KT 5000 BR NSC 01/01 Q1020 TEMPO
                        4000=
201702060850 METAR COR EGLL 060850Z VRB03KT 5000 BR NSC 01/01 Q1019 TEMPO
                        3500=
201702060820 METAR COR EGLL 060820Z VRB03KT 5000 BR NSC 01/01 Q1019 TEMPO
                        3500=
201702060750 METAR COR EGLL 060750Z VRB01KT 5000 BR NSC 01/01 Q1019 TEMPO
                        3500=
201702060720 METAR COR EGLL 060720Z 26001KT 5000 BR NSC 00/00 Q1019 TEMPO
                        2500=
201702060650 METAR COR EGLL 060650Z VRB03KT 5000 BR NSC 00/00 Q1019 TEMPO
                        3500=
201702060620 METAR COR EGLL 060620Z VRB03KT 5000 BR NSC 00/00 Q1019 TEMPO
                        3000=
201702060550 METAR COR EGLL 060550Z VRB01KT 5000 BR NSC M00/M00 Q1019
                        TEMPO 3000=
201702060520 METAR COR EGLL 060520Z 26003KT 5000 BR NSC 00/00 Q1019 TEMPO
                        3500=
201702060450 METAR COR EGLL 060450Z AUTO 27004KT 2500 BR NCD 01/01 Q1018
                        NOSIG=
201702060420 METAR COR EGLL 060420Z VRB02KT 5000 BR NSC 00/00 Q1018 TEMPO
                        3200 MIFG=
201702060350 METAR COR EGLL 060350Z 15002KT 5000 BR NSC 01/01 Q1018 TEMPO
                        4000=
201702060320 METAR COR EGLL 060320Z AUTO VRB02KT 4900 BR NCD 02/02 Q1018
                        TEMPO 6000=
201702060250 METAR COR EGLL 060250Z AUTO VRB02KT 4000 BR NCD 02/01 Q1017
                        TEMPO 5000=
201702060220 METAR COR EGLL 060220Z AUTO VRB02KT 5000 BR NCD 02/02 Q1017
                        TEMPO 4000=
201702060150 METAR COR EGLL 060150Z AUTO 30004KT 4600 BR FEW046 03/02
                        Q1017 TEMPO 6000=
201702060120 METAR COR EGLL 060120Z AUTO 30004KT 4100 BR FEW016 SCT027
                        03/02 Q1017 NOSIG=
201702060050 METAR COR EGLL 060050Z AUTO 29007KT 5000 BR SCT015 OVC024
                        04/03 Q1016 NOSIG=
201702060020 METAR COR EGLL 060020Z AUTO 31004KT 6000 FEW015 SCT047 03/03
                        Q1016 NOSIG=
201702052350 METAR COR EGLL 052350Z AUTO VRB02KT 7000 FEW048 04/03 Q1015
                        NOSIG=
201702052320 METAR COR EGLL 052320Z 31004KT 9000 BKN028 04/03 Q1015 NOSIG=
201702052250 METAR COR EGLL 052250Z AUTO 31005KT 9000 OVC018 05/04 Q1015
                        NOSIG=
201702052220 METAR COR EGLL 052220Z AUTO 31005KT 280V350 8000 OVC019 05/04
                        Q1014 NOSIG=
201702052150 METAR COR EGLL 052150Z AUTO 30004KT 7000 OVC016 05/04 Q1014
                        NOSIG=
201702052120 METAR COR EGLL 052120Z AUTO VRB03KT 6000 BKN012 05/04 Q1013
                        BECMG FEW012 BKN022=
201702052050 METAR COR EGLL 052050Z AUTO VRB02KT 6000 BKN011 05/04 Q1013
                        BECMG SCT013 BKN022=
201702052020 METAR COR EGLL 052020Z AUTO 30003KT 7000 BKN011 05/04 Q1012
                        BECMG FEW012 BKN022=
201702051950 METAR COR EGLL 051950Z AUTO 35003KT 7000 OVC009 05/04 Q1012
                        BECMG FEW009 BKN013=
201702051920 METAR COR EGLL 051920Z AUTO 03004KT 350V080 8000 OVC008 05/04
                        Q1011 BECMG FEW008=
201702051850 METAR COR EGLL 051850Z AUTO 36005KT 330V040 8000 OVC008 05/04
                        Q1010 BECMG FEW008=
201702051820 METAR COR EGLL 051820Z AUTO VRB02KT 9000 BKN008 04/04 Q1009
                        TEMPO FEW008=
201702051750 METAR COR EGLL 051750Z AUTO VRB03KT 9999 NCD 04/03 Q1008
                        NOSIG=
201702051720 METAR COR EGLL 051720Z AUTO VRB03KT 9999 NCD 04/04 Q1008
                        NOSIG=
201702051650 METAR COR EGLL 051650Z AUTO 36004KT 320V040 9999 NCD 05/04
                        Q1007 TEMPO BKN012=
201702051620 METAR COR EGLL 051620Z AUTO 36005KT 310V040 9999 FEW009 05/04
                        Q1007 TEMPO BKN010=
201702051550 METAR COR EGLL 051550Z AUTO 36006KT 330V030 9999 BKN009 05/04
                        Q1006 BECMG SCT012=
201702051520 METAR COR EGLL 051520Z AUTO 01006KT 340V050 9999 BKN009 05/04
                        Q1005 BECMG BKN012=
201702051450 METAR COR EGLL 051450Z AUTO 36008KT 9999 FEW010 05/04 Q1004
                        TEMPO BKN012=
201702051420 METAR COR EGLL 051420Z AUTO 36007KT 9999 FEW007 05/04 Q1004
                        TEMPO BKN010=
201702051350 METAR COR EGLL 051350Z 35006KT 320V020 9999 FEW007 BKN009
                        05/04 Q1004 BECMG BKN010=
201702051320 METAR COR EGLL 051320Z 02006KT 9999 BKN007 05/04 Q1003 BECMG
                        SCT007=
201702051250 METAR COR EGLL 051250Z 03006KT 350V070 9000 FEW006 OVC007
                        05/05 Q1003 BECMG SCT007=
201702051220 METAR COR EGLL 051220Z 04006KT 010V090 9999 OVC007 05/05
                        Q1002 BECMG SCT008=
201702051150 METAR COR EGLL 051150Z 05006KT 010V080 8000 OVC006 05/05
                        Q1002 TEMPO SCT006=
201702051120 METAR COR EGLL 051120Z AUTO 03007KT 360V070 8000 BKN005 05/05
                        Q1001 TEMPO SCT006=
201702051050 METAR COR EGLL 051050Z AUTO 03005KT 350V060 9999 FEW006 05/05
                        Q1001 NOSIG=
201702051020 METAR COR EGLL 051020Z AUTO 04005KT 350V080 9000 SCT006 05/04
                        Q1001 TEMPO BKN006=
201702050950 METAR COR EGLL 050950Z AUTO 03005KT 9000 NCD 05/04 Q1000
                        NOSIG=
201702050920 METAR COR EGLL 050920Z AUTO 04006KT 9000 FEW006 05/04 Q0999
                        NOSIG=
201702050850 METAR COR EGLL 050850Z AUTO 04005KT 9999 FEW006 04/04 Q0999
                        NOSIG=
201702050820 METAR COR EGLL 050820Z AUTO 04005KT 9999 SCT033 05/04 Q0999
                        NOSIG=
201702050750 METAR COR EGLL 050750Z AUTO 03004KT 9999 BKN027 04/04 Q0998
                        NOSIG=
201702050720 METAR COR EGLL 050720Z AUTO 06004KT 9999 OVC040 04/04 Q0998
                        NOSIG=
201702050650 METAR COR EGLL 050650Z AUTO 05005KT 9999 FEW030 OVC040 04/04
                        Q0997 NOSIG=
201702050620 METAR COR EGLL 050620Z AUTO 04003KT 9999 SCT016 OVC032 04/04
                        Q0998 NOSIG=
201702050550 METAR COR EGLL 050550Z AUTO 07004KT 9999 FEW017 BKN036 04/04
                        Q0997 NOSIG=
201702050520 METAR COR EGLL 050520Z AUTO 06004KT 9999 FEW013 BKN029 05/04
                        Q0997 NOSIG=
201702050450 METAR COR EGLL 050450Z AUTO 08005KT 9999 FEW015 BKN029 04/04
                        Q0998 NOSIG=
201702050420 METAR COR EGLL 050420Z AUTO 06004KT 9999 BKN029 OVC041 05/04
                        Q0998 NOSIG=
201702050350 METAR COR EGLL 050350Z AUTO 08004KT 9999 BKN027 04/04 Q0998
                        TEMPO 4000 BR=
201702050320 METAR COR EGLL 050320Z AUTO 08004KT 9999 FEW026 BKN040 03/03
                        Q0998 TEMPO 4000 BR=
201702050250 METAR COR EGLL 050250Z AUTO 11006KT 9999 FEW026 SCT032 04/03
                        Q0998 NOSIG=
201702050220 METAR COR EGLL 050220Z AUTO 10006KT 9999 FEW022 OVC029 04/03
                        Q0998 NOSIG=
201702050150 METAR COR EGLL 050150Z AUTO 10005KT 9999 BKN031 03/03 Q0998
                        NOSIG=
201702050120 METAR COR EGLL 050120Z AUTO 10005KT 9999 BKN031 04/04 Q0998
                        TEMPO 4000 BR=
201702050050 METAR COR EGLL 050050Z AUTO 13007KT 9999 SCT035 04/03 Q0998
                        NOSIG=
201702050020 METAR COR EGLL 050020Z AUTO 13008KT 9999 SCT034 04/03 Q0998
                        NOSIG=
201702042350 METAR COR EGLL 042350Z AUTO 16007KT 9999 -RA BKN026/// //////TCU
                        04/03 Q0999 NOSIG=
201702042320 METAR COR EGLL 042320Z AUTO 21010KT 9999 -RA BKN020/// //////TCU
                        04/03 Q0999 TEMPO RA=
201702042250 METAR COR EGLL 042250Z AUTO 21008KT 9999 -RA SCT023/// BKN040///
                        //////CB 05/03 Q0999 TEMPO 4000 RA
                        BKN014=
201702042220 METAR COR EGLL 042220Z AUTO 17008KT 120V190 9999 -RA SCT018///
                        SCT034/// BKN047/// //////TCU 06/04
                        Q0999 TEMPO 4000 SHRA BKN014=
201702042150 METAR COR EGLL 042150Z AUTO 14005KT 9999 NCD 05/04 Q0999
                        TEMPO 4000 SHRA BKN014=
201702042120 METAR COR EGLL 042120Z AUTO 10007KT 9999 FEW031 04/03 Q0999
                        TEMPO 4000 SHRA BKN014=
201702042050 METAR COR EGLL 042050Z AUTO 12005KT 9999 BKN030 05/03 Q0999
                        TEMPO 4000 SHRA BKN014=
201702042020 METAR COR EGLL 042020Z AUTO 14005KT 110V180 9999 NCD 04/02
                        Q0999 TEMPO 4000 SHRA BKN010=
201702041950 METAR COR EGLL 041950Z AUTO 14005KT 110V170 9999 NCD 05/02
                        Q0999 NOSIG=
201702041920 METAR COR EGLL 041920Z AUTO 15006KT 110V210 9999 NCD 05/03
                        Q0999 NOSIG=
201702041850 METAR COR EGLL 041850Z AUTO 17007KT 120V220 9999 NCD 06/03
                        Q0999 NOSIG=
201702041820 METAR COR EGLL 041820Z AUTO 16005KT 120V280 9999 NCD 06/02
                        Q0999 NOSIG=
201702041750 METAR COR EGLL 041750Z AUTO 19006KT 160V250 9999 SCT035 06/02
                        Q0999 NOSIG=
201702041720 METAR COR EGLL 041720Z AUTO 21005KT 160V270 9999 NCD 06/02
                        Q0999 NOSIG=
201702041650 METAR COR EGLL 041650Z AUTO 20004KT 160V230 9999 NCD 07/02
                        Q0999 NOSIG=
201702041620 METAR COR EGLL 041620Z AUTO 22005KT 180V240 9999 NCD 07/02
                        Q0999 NOSIG=
201702041550 METAR COR EGLL 041550Z AUTO 24005KT 9999 FEW030 08/02 Q0999
                        NOSIG=
201702041520 METAR COR EGLL 041520Z AUTO 23004KT 190V270 9999 SCT026 09/04
                        Q0999 NOSIG=
201702041450 METAR COR EGLL 041450Z AUTO 24005KT 180V290 9999 NCD 09/03
                        Q0998 NOSIG=
201702041420 METAR COR EGLL 041420Z 26005KT 220V300 CAVOK 09/04 Q0998
                        NOSIG=
201702041350 METAR COR EGLL 041350Z AUTO 28004KT 230V340 9999 NCD 09/04
                        Q0998 NOSIG=
201702041320 METAR COR EGLL 041320Z AUTO 28004KT 230V310 9999 NCD 08/04
                        Q0998 NOSIG=
201702041250 METAR COR EGLL 041250Z AUTO 29005KT 250V320 9999 NCD 07/05
                        Q0998 NOSIG=
201702041220 METAR COR EGLL 041220Z AUTO 28006KT 240V310 9999 FEW013 07/05
                        Q0998 NOSIG=
201702041150 METAR COR EGLL 041150Z AUTO VRB02KT 9999 FEW015 07/06 Q0998
                        NOSIG=
201702041120 METAR COR EGLL 041120Z AUTO VRB02KT 9999 FEW011 07/05 Q0998
                        NOSIG=
201702041050 METAR COR EGLL 041050Z VRB02KT 9999 SCT032 SCT042 06/05 Q0998
                        NOSIG=
201702041020 METAR COR EGLL 041020Z AUTO VRB02KT 9999 BKN026 06/05 Q0998
                        NOSIG=
201702040950 METAR COR EGLL 040950Z AUTO 35003KT 9999 SCT028 SCT047 05/05
                        Q0997 NOSIG=
201702040920 METAR COR EGLL 040920Z AUTO 34003KT 8000 BKN030 05/05 Q0997
                        NOSIG=
201702040850 METAR COR EGLL 040850Z AUTO VRB02KT 9999 -RA BKN030 04/04
                        Q0997 NOSIG=
201702040820 METAR COR EGLL 040820Z AUTO VRB02KT 9000 BKN031 04/04 Q0996
                        NOSIG=
201702040750 METAR COR EGLL 040750Z AUTO VRB03KT 9999 -RA FEW020 SCT038
                        05/04 Q0996 NOSIG=
201702040720 METAR COR EGLL 040720Z AUTO 15004KT 130V190 8000 -RA BKN016
                        04/04 Q0995 NOSIG=
201702040650 METAR COR EGLL 040650Z AUTO VRB02KT 9999 -RA FEW029 BKN035
                        03/03 Q0995 NOSIG=
201702040620 METAR COR EGLL 040620Z AUTO VRB02KT 9999 NCD 02/02 Q0995
                        NOSIG=
201702040550 METAR COR EGLL 040550Z AUTO 36003KT 9999 NCD 02/02 Q0995
                        NOSIG=
201702040520 METAR COR EGLL 040520Z AUTO VRB02KT 9999 NCD 03/03 Q0994
                        NOSIG=
201702040450 METAR COR EGLL 040450Z AUTO VRB03KT 9999 NCD 03/03 Q0994
                        NOSIG=
201702040420 METAR COR EGLL 040420Z AUTO 13003KT 9999 NCD 02/02 Q0994
                        NOSIG=
201702040350 METAR COR EGLL 040350Z AUTO 04002KT 8000 NCD 03/03 Q0995
                        NOSIG=
201702040320 METAR COR EGLL 040320Z AUTO 13002KT 9999 FEW028 03/03 Q0995
                        NOSIG=
201702040250 METAR COR EGLL 040250Z AUTO 17003KT 9999 NCD 03/03 Q0995
                        NOSIG=
201702040220 METAR COR EGLL 040220Z AUTO 19002KT 9999 NCD 03/03 Q0995
                        NOSIG=
201702040150 METAR COR EGLL 040150Z AUTO 20004KT 9999 NCD 03/02 Q0995
                        NOSIG=
201702040120 METAR COR EGLL 040120Z AUTO 19006KT 9999 NCD 03/03 Q0994
                        NOSIG=
201702040050 METAR COR EGLL 040050Z AUTO 20006KT 9999 NCD 03/03 Q0994
                        NOSIG=
201702040020 METAR COR EGLL 040020Z AUTO 21005KT 9999 NCD 04/03 Q0995
                        NOSIG=
201702032350 METAR COR EGLL 032350Z AUTO 20007KT 9999 NCD 04/03 Q0994
                        NOSIG=
201702032320 METAR COR EGLL 032320Z AUTO 22009KT 9999 BKN022 05/03 Q0994
                        NOSIG=
201702032250 METAR COR EGLL 032250Z AUTO 23012KT 9999 BKN022 05/03 Q0993
                        NOSIG=
201702032220 METAR COR EGLL 032220Z AUTO 23015KT 9999 SCT022 05/03 Q0992
                        NOSIG=
201702032150 METAR COR EGLL 032150Z AUTO 23017KT 9999 FEW018 05/04 Q0992
                        NOSIG=
201702032120 METAR COR EGLL 032120Z AUTO 23020KT 9999 SCT017 05/04 Q0991
                        NOSIG=
201702032050 METAR COR EGLL 032050Z AUTO 24023G36KT 9999 FEW017 BKN046
                        05/04 Q0991 NOSIG=
201702032020 METAR COR EGLL 032020Z AUTO 23021KT 9999 -RA BKN010/// //////TCU
                        07/06 Q0989 RERA TEMPO RA=
201702031950 METAR COR EGLL 031950Z AUTO 15011KT 9000 -RA BKN012 08/07
                        Q0989 TEMPO RA=
201702031920 METAR EGLL 031920Z AUTO 13012KT 090V150 9999 OVC011 08/07
                        Q0989 TEMPO RA=
201702031850 METAR COR EGLL 031850Z AUTO 13012KT 7000 -RA BKN013 08/07
                        Q0990 TEMPO SCT013 BKN018=
201702031820 METAR COR EGLL 031820Z AUTO 14012KT 9000 -RA BKN011 OVC023
                        08/07 Q0991 NOSIG=
201702031750 METAR COR EGLL 031750Z AUTO 14013KT 9999 -RA BKN012 OVC024
                        08/07 Q0991 TEMPO RA=
201702031720 METAR COR EGLL 031720Z AUTO 15011KT 9999 -RA BKN012/// OVC024///
                        //////TCU 08/07 Q0991 TEMPO RA=
201702031650 METAR COR EGLL 031650Z AUTO 14014KT 7000 -RA BKN013/// BKN025///
                        //////TCU 08/07 Q0991 TEMPO RA=
201702031620 METAR COR EGLL 031620Z AUTO 13012KT 8000 -RA BKN017 BKN032
                        08/07 Q0992 TEMPO RA=
201702031550 METAR COR EGLL 031550Z AUTO 13014G24KT 9000 -RA BKN018///
                        //////TCU 09/07 Q0992 TEMPO RA=
201702031520 METAR COR EGLL 031520Z AUTO 13012KT 9999 -RA OVC021 09/06
                        Q0992 TEMPO RA=
201702031450 METAR COR EGLL 031450Z AUTO 14016KT 9999 BKN023 10/06 Q0993
                        TEMPO RA=
201702031420 METAR COR EGLL 031420Z AUTO 13012KT 9999 BKN023 10/06 Q0993
                        TEMPO RA=
201702031350 METAR COR EGLL 031350Z AUTO 14015G26KT 9999 SCT021 10/06
                        Q0993 TEMPO RA=
201702031320 METAR COR EGLL 031320Z AUTO 15013KT 9999 BKN021 10/06 Q0994
                        TEMPO RA=
201702031250 METAR COR EGLL 031250Z AUTO 15015KT 9999 SCT021 10/07 Q0995
                        TEMPO RA=
201702031220 METAR COR EGLL 031220Z AUTO 15014KT 9999 BKN021 10/06 Q0995
                        NOSIG=
201702031150 METAR COR EGLL 031150Z AUTO 16014KT 130V200 9999 SCT020 BKN046
                        10/07 Q0996 NOSIG=
201702031120 METAR COR EGLL 031120Z AUTO 16013KT 9999 SCT018 10/07 Q0997
                        NOSIG=
201702031050 METAR COR EGLL 031050Z AUTO 16012KT 9999 BKN017 09/07 Q0997
                        NOSIG=
201702031020 METAR COR EGLL 031020Z AUTO 16011KT 9999 BKN014 09/07 Q0998
                        BECMG SCT015=
201702030950 METAR COR EGLL 030950Z AUTO 15008KT 9999 BKN012 09/07 Q0997
                        NOSIG=
201702030920 METAR COR EGLL 030920Z AUTO 15008KT 9999 OVC012 08/07 Q0997
                        NOSIG=
201702030850 METAR COR EGLL 030850Z AUTO 16009KT 9999 OVC012 08/06 Q0997
                        NOSIG=
201702030820 METAR COR EGLL 030820Z AUTO 15006KT 9000 SCT018 07/06 Q0997
                        NOSIG=
201702030750 METAR COR EGLL 030750Z AUTO 16006KT 8000 FEW014 07/06 Q0998
                        NOSIG=
201702030720 METAR COR EGLL 030720Z 18008KT 8000 FEW020 07/07 Q0998 NOSIG=
201702030650 METAR COR EGLL 030650Z 18008KT 8000 BKN018 BKN022 08/07 Q0998
                        NOSIG=
201702030620 METAR EGLL 030620Z AUTO 18008KT 8000 -RA SCT016 BKN033 07/07
                        Q0997=
201702030550 METAR COR EGLL 030550Z AUTO 18007KT 9999 FEW025 06/06 Q0997
                        NOSIG=
201702030520 METAR COR EGLL 030520Z AUTO 20007KT 9999 FEW036 07/06 Q0997
                        NOSIG=
201702030450 METAR COR EGLL 030450Z AUTO 19010KT 9999 -RA SCT029/// BKN045///
                        //////TCU 07/06 Q0997 NOSIG=
201702030420 METAR COR EGLL 030420Z AUTO 21010KT 9999 -RA FEW016/// BKN030///
                        //////TCU 08/06 Q0997 NOSIG=
201702030350 METAR COR EGLL 030350Z AUTO 21013KT 9000 -RA FEW019/// BKN033///
                        //////TCU 09/07 Q0997 TEMPO SHRA=
201702030320 METAR COR EGLL 030320Z AUTO 21012KT 9000 BKN019/// BKN041///
                        //////TCU 09/07 Q0997 TEMPO SHRA=
201702030250 METAR COR EGLL 030250Z AUTO 20013KT 9000 BKN019 BKN034 09/07
                        Q0997 NOSIG=
201702030220 METAR COR EGLL 030220Z AUTO 20011KT 8000 BKN019 OVC036 09/07
                        Q0996 NOSIG=
201702030150 METAR COR EGLL 030150Z AUTO 20011KT 9000 BKN019 OVC037 10/07
                        Q0996 NOSIG=
201702030120 METAR COR EGLL 030120Z AUTO 20010KT 9000 BKN019 10/07 Q0996
                        NOSIG=
201702030050 METAR COR EGLL 030050Z AUTO 20013KT 9000 BKN020 10/08 Q0996
                        NOSIG=
201702030020 METAR COR EGLL 030020Z AUTO 20013KT 8000 -RA SCT020 OVC038
                        10/08 Q0996 NOSIG=
201702022350 METAR COR EGLL 022350Z AUTO 20012KT 9999 SCT022 OVC037 10/08
                        Q0996 NOSIG=
201702022320 METAR COR EGLL 022320Z AUTO 21011KT 9000 BKN018/// OVC035///
                        //////TCU 10/08 Q0996 NOSIG=
201702022250 METAR COR EGLL 022250Z AUTO 20011KT 9999 BKN019 OVC040 10/08
                        Q0996 NOSIG=
201702022220 METAR COR EGLL 022220Z AUTO 20014KT 9999 BKN017 OVC041 10/08
                        Q0995 NOSIG=
201702022150 METAR COR EGLL 022150Z AUTO 19014KT 9999 BKN018 11/09 Q0995
                        NOSIG=
201702022120 METAR COR EGLL 022120Z AUTO 19016KT 9999 BKN018 10/09 Q0995
                        NOSIG=
201702022050 METAR COR EGLL 022050Z AUTO 19016G26KT 9999 FEW015 SCT049
                        10/09 Q0995 NOSIG=
201702022020 METAR COR EGLL 022020Z AUTO 19017KT 9999 -RA FEW015 BKN026
                        10/09 Q0995 NOSIG=
201702021950 METAR COR EGLL 021950Z AUTO 18016KT 9999 SCT014 SCT029 10/09
                        Q0995 NOSIG=
201702021920 METAR COR EGLL 021920Z AUTO 19017KT 9999 SCT018 11/09 Q0994
                        NOSIG=
201702021850 METAR COR EGLL 021850Z AUTO 19016KT 9999 BKN018 OVC036 11/09
                        Q0994 TEMPO BKN014=
201702021820 METAR COR EGLL 021820Z AUTO 18014KT 9999 BKN016 BKN032 11/09
                        Q0994 TEMPO BKN014=
201702021750 METAR COR EGLL 021750Z AUTO 17016KT 9999 -RA BKN014 11/09
                        Q0994 TEMPO BKN015=
201702021720 METAR COR EGLL 021720Z AUTO 18013KT 9999 FEW019 BKN032 BKN048
                        11/09 Q0994 NOSIG=
201702021650 METAR COR EGLL 021650Z AUTO 18014KT 9999 -RA SCT017/// BKN039///
                        //////TCU 11/09 Q0994 NOSIG=
201702021620 METAR COR EGLL 021620Z AUTO 17013KT 9999 BKN016 11/09 Q0993
                        NOSIG=
201702021550 METAR COR EGLL 021550Z AUTO 18013KT 9999 BKN016 11/09 Q0994
                        NOSIG=
201702021520 METAR COR EGLL 021520Z AUTO 18016G28KT 9999 OVC016 11/09
                        Q0994 NOSIG=
201702021450 METAR COR EGLL 021450Z AUTO 18016KT 9999 OVC015 11/09 Q0994
                        NOSIG=
201702021420 METAR COR EGLL 021420Z AUTO 18017KT 9999 OVC014 11/09 Q0994
                        TEMPO SHRA BKN015=
201702021350 METAR COR EGLL 021350Z AUTO 17014KT 9999 OVC014 11/10 Q0994
                        TEMPO BKN015=
201702021320 METAR COR EGLL 021320Z AUTO 17015KT 9999 BKN012 11/10 Q0994
                        BECMG BKN015=
201702021250 METAR COR EGLL 021250Z AUTO 17012KT 9999 BKN010 11/09 Q0995
                        BECMG SCT020=
201702021220 METAR COR EGLL 021220Z AUTO 16015KT 9999 -RA OVC008 10/09
                        Q0995 TEMPO BKN010=
201702021150 METAR COR EGLL 021150Z AUTO 16014KT 5000 -DZ BKN007 10/09
                        Q0996 TEMPO 4500 RADZ BKN010=
201702021120 METAR COR EGLL 021120Z AUTO 16014KT 9000 -RA BKN009/// //////TCU
                        10/09 Q0996 TEMPO BKN012=
201702021050 METAR COR EGLL 021050Z AUTO 17015KT 8000 -RA BKN012/// //////TCU
                        10/09 Q0996 TEMPO RA BKN008=
201702021020 METAR COR EGLL 021020Z AUTO 16016KT 9999 -RA OVC015 11/09
                        Q0997 TEMPO RA BKN014=
201702020950 METAR COR EGLL 020950Z AUTO 17013KT 9999 OVC015 11/09 Q0997
                        TEMPO RA BKN014=
201702020920 METAR COR EGLL 020920Z AUTO 16011KT 9999 OVC014 11/09 Q0997
                        TEMPO RA=
201702020850 METAR COR EGLL 020850Z AUTO 16012KT 9999 BKN014 10/09 Q0997
                        TEMPO RA=
201702020820 METAR COR EGLL 020820Z AUTO 16011KT 9999 BKN016 10/09 Q0998
                        TEMPO RA BKN014=
201702020750 METAR COR EGLL 020750Z AUTO 15010KT 9999 NCD 09/08 Q0998
                        NOSIG=
201702020720 METAR COR EGLL 020720Z AUTO 15010KT 9999 NCD 09/08 Q0998
                        TEMPO RA=
201702020650 METAR COR EGLL 020650Z AUTO 15009KT 9999 -RA FEW012 10/09
                        Q0998 TEMPO RA=
201702020620 METAR COR EGLL 020620Z 16010KT 9999 FEW011 10/09 Q0999 TEMPO
                        RA=
201702020550 METAR COR EGLL 020550Z 16012KT 9999 -RA FEW010 BKN013 10/09
                        Q0999 TEMPO 4000 RADZ BKN008=
201702020520 METAR COR EGLL 020520Z 15010KT 9999 BKN010 10/10 Q0999 TEMPO
                        4000 RADZ=
201702020450 METAR COR EGLL 020450Z 16009KT 9999 -RA SCT006 BKN012 10/10
                        Q1000 TEMPO 4000 RADZ BKN008=
201702020420 METAR COR EGLL 020420Z 17010KT 5000 -RADZ FEW004 SCT005 BKN008
                        10/10 Q1000 REDZ TEMPO 3500 RADZ=
201702020350 METAR COR EGLL 020350Z 17010KT 3300 DZ FEW004 SCT008 BKN011
                        10/10 Q1000 TEMPO BKN008=
201702020320 METAR COR EGLL 020320Z AUTO 18012KT 6000 OVC006 10/10 Q1000
                        NOSIG=
201702020250 METAR COR EGLL 020250Z AUTO 18011KT 4900 -DZ OVC005 10/10
                        Q1001 TEMPO 6000 -RADZ=
201702020220 METAR COR EGLL 020220Z AUTO 18013KT 7000 -RA BKN006 10/10
                        Q1001 TEMPO SCT006 BKN012=
201702020150 METAR COR EGLL 020150Z AUTO 18012KT 9999 OVC008 10/10 Q1001
                        NOSIG=
201702020120 METAR COR EGLL 020120Z AUTO 18011KT 9999 -RA OVC007 10/10
                        Q1001 NOSIG=
201702020050 METAR COR EGLL 020050Z AUTO 19012KT 9999 OVC007 10/10 Q1002
                        NOSIG=
201702020020 METAR COR EGLL 020020Z AUTO 18011KT 6000 -RA OVC006 10/10
                        Q1002 TEMPO 9999 NSW=
201702012350 METAR COR EGLL 012350Z AUTO 18010KT 8000 -RA OVC007 10/10
                        Q1002 NOSIG=
201702012320 METAR COR EGLL 012320Z AUTO 18010KT 9999 OVC008 10/10 Q1002
                        TEMPO OVC010=
201702012250 METAR COR EGLL 012250Z AUTO 19010KT 9999 OVC008 10/10 Q1002
                        TEMPO BKN012=
201702012220 METAR COR EGLL 012220Z AUTO 20009KT 170V230 9999 OVC008 10/10
                        Q1003 TEMPO BKN012=
201702012150 METAR COR EGLL 012150Z AUTO 18009KT 9999 OVC009 10/10 Q1003
                        TEMPO BKN012=
201702012120 METAR COR EGLL 012120Z AUTO 19011KT 9999 BKN009 10/10 Q1003
                        TEMPO BKN012=
201702012050 METAR COR EGLL 012050Z AUTO 19010KT 9999 -RA OVC009 10/10
                        Q1003 TEMPO BKN012=
201702012020 METAR COR EGLL 012020Z AUTO 19013KT 9999 -RA BKN009 OVC021
                        10/10 Q1003 TEMPO BKN012=
201702011950 METAR COR EGLL 011950Z AUTO 19013KT 9999 -RA SCT009 BKN024
                        BKN038 10/10 Q1003 TEMPO BKN012=
201702011920 METAR COR EGLL 011920Z AUTO 18012KT 9999 -RA BKN008 11/10
                        Q1004 TEMPO BKN012=
201702011850 METAR COR EGLL 011850Z AUTO 16009KT 120V200 9999 OVC008 10/09
                        Q1004 TEMPO BKN010=
201702011820 METAR EGLL 011820Z AUTO 16008KT 9999 BKN009 10/09 Q1004=
201702011750 METAR COR EGLL 011750Z AUTO 18008KT 150V230 9999 SCT011 OVC029
                        10/09 Q1004 TEMPO BKN010=
201702011720 METAR COR EGLL 011720Z AUTO 18010KT 9999 BKN010 OVC033 10/09
                        Q1004 TEMPO SCT012 BKN020=
201702011650 METAR COR EGLL 011650Z AUTO 19009KT 160V220 9999 SCT011 OVC022
                        10/09 Q1004 TEMPO BKN010=
201702011620 METAR COR EGLL 011620Z AUTO 17008KT 120V210 9999 BKN010 OVC021
                        11/09 Q1004 TEMPO SCT010 BKN020=
201702011550 METAR COR EGLL 011550Z AUTO 18009KT 9999 BKN011 11/09 Q1004
                        TEMPO SCT012=
201702011520 METAR COR EGLL 011520Z AUTO 17008KT 140V210 9999 BKN011 BKN022
                        11/10 Q1005 TEMPO SCT022=
201702011450 METAR COR EGLL 011450Z 19008KT 140V240 9999 FEW010 SCT028
                        11/10 Q1005 NOSIG=
201702011420 METAR COR EGLL 011420Z 19008KT 140V240 9999 FEW010 BKN021
                        11/10 Q1005 NOSIG=
201702011350 METAR COR EGLL 011350Z 19009KT 160V250 9999 FEW009 SCT015
                        BKN027 11/10 Q1005 TEMPO BKN014=
201702011320 METAR COR EGLL 011320Z 17006KT 140V240 9999 FEW008 SCT021
                        BKN031 12/11 Q1005 NOSIG=
201702011250 METAR COR EGLL 011250Z 19008KT 150V240 9999 FEW008 SCT012
                        BKN031 11/11 Q1006 NOSIG=
201702011220 METAR COR EGLL 011220Z 19008KT 150V260 9999 FEW008 SCT014
                        BKN030 11/11 Q1006 TEMPO BKN014=
201702011150 METAR COR EGLL 011150Z 20008KT 170V240 8000 -RA FEW004 SCT006
                        BKN009 11/11 Q1007 TEMPO BKN010=
201702011120 METAR COR EGLL 011120Z 19007KT 150V240 6000 -RA FEW003 SCT004
                        BKN006 10/10 Q1007 TEMPO BKN010=
201702011050 METAR COR EGLL 011050Z 20008KT 170V240 5000 -RA BR FEW003
                        SCT004 BKN007 10/10 Q1007 TEMPO 4500
                        -RADZ BKN010=
201702011020 METAR COR EGLL 011020Z 20009KT 170V240 5000 -RADZ BR FEW004
                        SCT005 BKN006 10/10 Q1007 TEMPO 4000
                        RADZ BKN010=
201702010950 METAR COR EGLL 010950Z 20008KT 170V240 6000 -RA FEW004 BKN006
                        10/10 Q1007 TEMPO 4000 RADZ=
201702010920 METAR COR EGLL 010920Z 19008KT 150V250 6000 FEW003 BKN006
                        10/10 Q1007 TEMPO BKN010=
201702010850 METAR COR EGLL 010850Z 17008KT 130V210 3500 -RADZ BR FEW003
                        BKN005 10/10 Q1007 TEMPO 5000 BKN010=
201702010820 METAR COR EGLL 010820Z 17008KT 140V210 4000 -RADZ BR FEW004
                        BKN005 10/10 Q1007 TEMPO 5000 BKN010=
201702010750 METAR COR EGLL 010750Z 16008KT 140V210 5000 BR FEW004 BKN008
                        10/10 Q1007 TEMPO 4000 -RADZ BKN010=
201702010720 METAR COR EGLL 010720Z 16008KT 130V220 3500 -RADZ BR FEW004
                        SCT006 BKN010 10/10 Q1007 TEMPO BKN006=
201702010650 METAR COR EGLL 010650Z 17008KT 130V230 3500 -RADZ BR FEW003
                        BKN005 10/10 Q1007 TEMPO SCT006 BKN012=
201702010620 METAR COR EGLL 010620Z 17008G19KT 120V210 3200 -DZ FEW005
                        10/10 Q1008 TEMPO SCT006 BKN008=
201702010550 METAR COR EGLL 010550Z 17007KT 3400 -DZ BKN006 10/10 Q1008
                        NOSIG=
201702010520 METAR COR EGLL 010520Z 16007KT 3400 -DZ BR FEW004 BKN007
                        10/10 Q1008 TEMPO 5000 -RA SCT007
                        BKN010=
201702010450 METAR COR EGLL 010450Z 16007KT 3400 BR FEW007 BKN010 10/10
                        Q1008 TEMPO BKN007=
201702010420 METAR COR EGLL 010420Z 17006KT 3000 BR FEW007 BKN010 10/10
                        Q1009 TEMPO BKN007=
201702010350 METAR COR EGLL 010350Z AUTO 16008KT 2200 BR OVC002 11/11
                        Q1009 TEMPO FEW003 BKN005=
201702010320 METAR COR EGLL 010320Z AUTO 16007KT 3400 BR OVC004 10/10
                        Q1009 TEMPO SCT004 BKN005=
201702010250 METAR COR EGLL 010250Z AUTO 14006KT 3000 BR OVC003 10/10
                        Q1009 TEMPO FEW004 BKN005=
201702010220 METAR COR EGLL 010220Z AUTO 13007KT 3200 BR OVC002 10/10
                        Q1010 TEMPO FEW003 BKN005=
201702010150 METAR COR EGLL 010150Z AUTO 14008KT 3500 BR OVC002 10/10
                        Q1010 TEMPO FEW003 BKN005=
201702010120 METAR COR EGLL 010120Z AUTO 15008KT 4500 BR OVC003 10/10
                        Q1010 NOSIG=
201702010050 METAR COR EGLL 010050Z AUTO 14008KT 8000 OVC003 10/10 Q1010
                        NOSIG=
201702010020 METAR COR EGLL 010020Z AUTO 13006KT 9999 OVC004 10/10 Q1010
                        TEMPO BKN005=

</pre>

</body>
</html>
