##########################################################
# Query made at 12/27/2012 10:37:28 UTC
# Time interval: from 02/01/2009 00:00  to 03/03/2009 23:59  UTC
##########################################################

##########################################################
# EGLL, London / Heathrow Airport (United Kingdom)
# WMO index: 03772
# Latitude 51-29N. Longitude 000-27W. Altitude 24 m.
##########################################################

###################################
#  METAR/SPECI from EGLL
###################################
200903032350 METAR COR EGLL 032350Z 25007KT 9999 RA SCT021 BKN025 05/04
                        Q0984 BECMG NSW=
200903032320 METAR COR EGLL 032320Z 25007KT 9999 RA FEW022 BKN029 06/04
                        Q0985 BECMG NSW=
200903032250 METAR COR EGLL 032250Z 24011KT 9000 RA FEW016 BKN020 06/04
                        Q0985 TEMPO BKN014=
200903032220 METAR COR EGLL 032220Z 24017G28KT 5000 RA SCT010 BKN021 06/04
                        Q0986 TEMPO 4500 +RA BKN010=
200903032150 METAR COR EGLL 032150Z 19021KT 9000 RA BKN015 BKN021 08/06
                        Q0985 TEMPO 19022G35KT 3000 +RA BKN012=
200903032120 METAR COR EGLL 032120Z 19021KT 160V230 9000 RA BKN017 BKN021
                        08/06 Q0986 TEMPO 19023G36KT BKN014=
200903032050 METAR COR EGLL 032050Z 18024KT 9000 RA BKN020 BKN026 08/06
                        Q0987 TEMPO 18025G36KT BKN014=
200903032020 METAR COR EGLL 032020Z 18021KT 160V230 9000 RA SCT015 BKN021
                        08/06 Q0988 TEMPO 18023G37KT BKN014=
200903031950 METAR COR EGLL 031950Z 18021KT 9999 -RA BKN015 BKN022 08/06
                        Q0989 BECMG RA BKN014=
200903031920 METAR COR EGLL 031920Z 18021KT 160V220 9000 -RA SCT014 BKN022
                        08/06 Q0990 BECMG RA BKN014=
200903031850 METAR COR EGLL 031850Z 18020G32KT 9999 -RA SCT015 BKN020
                        08/06 Q0991 BECMG RA BKN014=
200903031820 METAR COR EGLL 031820Z 18020KT 9999 -RA BKN020 08/06 Q0992
                        BECMG 18023G37KT RA BKN014=
200903031750 METAR COR EGLL 031750Z 18022G33KT 160V220 9999 -RA SCT015
                        BKN021 08/06 Q0993 BECMG RA BKN014=
200903031720 METAR COR EGLL 031720Z 18018KT 160V220 9999 -RA SCT014 BKN021
                        08/06 Q0994 BECMG 18022G35KT RA BKN014=
200903031650 METAR COR EGLL 031650Z 19016KT 9000 -RA FEW015 BKN020 08/06
                        Q0996 BECMG 19022G35KT RA BKN014=
200903031620 METAR COR EGLL 031620Z 19016KT 9999 -RA BKN016 08/06 Q0997
                        BECMG 19022G35KT RA=
200903031550 METAR COR EGLL 031550Z 19019KT 9000 -RA SCT018 BKN020 09/05
                        Q0998 BECMG 19022G35KT RA=
200903031520 METAR COR EGLL 031520Z 19017KT 160V240 9999 BKN020 BKN037
                        09/06 Q0999 BECMG 19020G30KT RA=
200903031450 METAR COR EGLL 031450Z 19016KT 9999 FEW017 BKN020 BKN035
                        09/06 Q1000 BECMG 19020G30KT RA=
200903031420 METAR COR EGLL 031420Z 19017KT 9999 FEW019 SCT031 09/06 Q1001
                        BECMG 19020G30KT=
200903031350 METAR COR EGLL 031350Z 19016G26KT 9999 SCT026 SCT032 09/07
                        Q1002 NOSIG=
200903031320 METAR EGLL 031320Z NIL=
200903031250 METAR COR EGLL 031250Z 21014KT 9999 SCT023 SCT027 10/05 Q1004
                        NOSIG=
200903031220 METAR COR EGLL 031220Z 21014G25KT 9999 BKN022 BKN039 10/07
                        Q1004 NOSIG=
200903031150 METAR COR EGLL 031150Z 21012KT 9999 -RA SCT017 BKN034 10/07
                        Q1005 RERA NOSIG=
200903031120 METAR COR EGLL 031120Z 20014KT 9999 SCT020 BKN033 11/06 Q1006
                        NOSIG=
200903031050 METAR COR EGLL 031050Z 22013KT 9999 SCT020 SCT023 10/06 Q1007
                        NOSIG=
200903031020 METAR COR EGLL 031020Z 21011KT 9999 BKN014 10/07 Q1007 NOSIG=
200903030950 METAR COR EGLL 030950Z 21010KT 9999 SCT015 BKN041 09/06 Q1008
                        TEMPO BKN014=
200903030920 METAR COR EGLL 030920Z 21011KT 9999 FEW014 BKN039 09/07 Q1008
                        TEMPO BKN014=
200903030850 METAR COR EGLL 030850Z 20010KT 8000 FEW011 SCT016 08/07 Q1009
                        TEMPO BKN011=
200903030820 METAR COR EGLL 030820Z 20010KT 7000 FEW014 08/07 Q1009 TEMPO
                        BKN010=
200903030750 METAR COR EGLL 030750Z 20010KT 7000 FEW014 08/06 Q1010 TEMPO
                        BKN010=
200903030720 METAR COR EGLL 030720Z 20009KT 170V240 8000 FEW009 SCT045
                        08/06 Q1010 TEMPO BKN010=
200903030650 METAR COR EGLL 030650Z 20008KT 170V270 9999 BKN010 08/06
                        Q1011 NOSIG=
200903030620 METAR COR EGLL 030620Z 21007KT 170V250 9999 BKN010 08/06
                        Q1011 NOSIG=
200903030550 METAR COR EGLL 030550Z 21006KT 9999 BKN010 08/06 Q1012 NOSIG=
200903030520 METAR COR EGLL 030520Z 21007KT 9999 BKN010 07/06 Q1012 NOSIG=
200903030450 METAR COR EGLL 030450Z 21007KT 9999 BKN011 07/06 Q1012 NOSIG=
200903030420 METAR COR EGLL 030420Z 20005KT 9999 BKN009 07/06 Q1012 TEMPO
                        BKN012=
200903030350 METAR COR EGLL 030350Z 21005KT 9999 BKN010 07/05 Q1013 NOSIG=
200903030320 METAR COR EGLL 030320Z 21004KT 9999 BKN011 06/05 Q1013 NOSIG=
200903030250 METAR COR EGLL 030250Z 21005KT CAVOK 07/05 Q1013 TEMPO BKN014=
200903030220 METAR COR EGLL 030220Z 19006KT 9999 FEW022 07/05 Q1014 TEMPO
                        BKN014=
200903030150 METAR COR EGLL 030150Z 20006KT 9999 FEW018 BKN023 07/05 Q1014
                        TEMPO BKN014=
200903030120 METAR COR EGLL 030120Z 20005KT 9999 SCT016 BKN022 07/05 Q1014
                        BECMG BKN012=
200903030050 METAR COR EGLL 030050Z 21006KT 9999 BKN016 BKN022 07/05 Q1015
                        BECMG BKN012=
200903030020 METAR COR EGLL 030020Z 21006KT 9999 FEW016 SCT037 07/05 Q1015
                        BECMG BKN014=
200903022350 METAR COR EGLL 022350Z 22008KT 9999 SCT024 BKN038 07/05 Q1015
                        BECMG BKN014=
200903022320 METAR COR EGLL 022320Z 20006KT 9999 -RA BKN026 BKN044 07/05
                        Q1015 BECMG BKN014=
200903022250 METAR COR EGLL 022250Z 21006KT 9999 BKN026 BKN042 07/05 Q1015
                        BECMG BKN012=
200903022220 METAR COR EGLL 022220Z 22008KT 9999 -RA SCT028 BKN036 08/04
                        Q1015 BECMG BKN014=
200903022150 METAR COR EGLL 022150Z 23008KT 9999 FEW037 08/04 Q1016 NOSIG=
200903022120 METAR COR EGLL 022120Z 25010KT 9999 FEW036 SCT041 08/03 Q1016
                        NOSIG=
200903022050 METAR COR EGLL 022050Z 26012KT CAVOK 08/03 Q1016 NOSIG=
200903022020 METAR COR EGLL 022020Z 26012KT CAVOK 08/02 Q1016 NOSIG=
200903021950 METAR COR EGLL 021950Z 25010KT CAVOK 09/02 Q1016 NOSIG=
200903021920 METAR COR EGLL 021920Z 24010KT CAVOK 09/02 Q1016 NOSIG=
200903021850 METAR COR EGLL 021850Z 25010KT CAVOK 09/02 Q1016 NOSIG=
200903021820 METAR COR EGLL 021820Z 25010KT CAVOK 09/02 Q1016 NOSIG=
200903021750 METAR COR EGLL 021750Z 24011KT CAVOK 09/02 Q1016 NOSIG=
200903021720 METAR COR EGLL 021720Z 26012KT 9999 FEW043 09/02 Q1016 NOSIG=
200903021650 METAR COR EGLL 021650Z 27014KT 9999 FEW043 10/01 Q1016 NOSIG=
200903021620 METAR COR EGLL 021620Z 26012KT 9999 FEW044 11/01 Q1016 NOSIG=
200903021550 METAR COR EGLL 021550Z 26010KT 9999 SCT045 11/01 Q1016 NOSIG=
200903021520 METAR COR EGLL 021520Z 27011KT 9999 SCT045 11/01 Q1016 NOSIG=
200903021450 METAR COR EGLL 021450Z 25012KT 9999 SCT045 10/01 Q1016 NOSIG=
200903021420 METAR COR EGLL 021420Z 26012KT 9999 SCT040 11/01 Q1016 NOSIG=
200903021350 METAR COR EGLL 021350Z 24009KT 210V270 9999 SCT038 11/01
                        Q1016 NOSIG=
200903021320 METAR COR EGLL 021320Z 25011KT 9999 SCT038 11/02 Q1017 NOSIG=
200903021250 METAR COR EGLL 021250Z 31008KT 250V010 9999 FEW036 SCT042
                        11/02 Q1017 NOSIG=
200903021220 METAR COR EGLL 021220Z 27009KT 9999 SCT027 10/02 Q1017 NOSIG=
200903021150 METAR COR EGLL 021150Z 26008KT 9999 SCT024 10/03 Q1017 NOSIG=
200903021120 METAR COR EGLL 021120Z 27007KT 240V310 9999 FEW024 09/03
                        Q1017 NOSIG=
200903021050 METAR COR EGLL 021050Z 28006KT 230V320 9999 FEW024 09/03
                        Q1017 NOSIG=
200903021020 METAR COR EGLL 021020Z 28007KT CAVOK 08/03 Q1017 NOSIG=
200903020950 METAR COR EGLL 020950Z 27006KT CAVOK 07/03 Q1017 NOSIG=
200903020920 METAR COR EGLL 020920Z 27007KT CAVOK 06/03 Q1017 NOSIG=
200903020850 METAR COR EGLL 020850Z 26007KT CAVOK 05/02 Q1017 NOSIG=
200903020820 METAR COR EGLL 020820Z 27006KT CAVOK 04/02 Q1017 NOSIG=
200903020750 METAR COR EGLL 020750Z 27006KT CAVOK 03/01 Q1016 NOSIG=
200903020720 METAR COR EGLL 020720Z 27005KT CAVOK 03/01 Q1016 NOSIG=
200903020650 METAR COR EGLL 020650Z 27005KT CAVOK 02/01 Q1016 NOSIG=
200903020620 METAR COR EGLL 020620Z 27005KT CAVOK 01/00 Q1016 NOSIG=
200903020550 METAR COR EGLL 020550Z 27004KT CAVOK 02/00 Q1015 NOSIG=
200903020520 METAR COR EGLL 020520Z 27005KT CAVOK 01/00 Q1015 NOSIG=
200903020450 METAR COR EGLL 020450Z 27006KT CAVOK 01/M00 Q1015 NOSIG=
200903020420 METAR COR EGLL 020420Z 28006KT CAVOK 01/M00 Q1014 NOSIG=
200903020350 METAR COR EGLL 020350Z 28007KT CAVOK 01/M00 Q1014 NOSIG=
200903020320 METAR COR EGLL 020320Z 28005KT CAVOK 02/00 Q1014 NOSIG=
200903020250 METAR COR EGLL 020250Z 27006KT CAVOK 02/00 Q1014 NOSIG=
200903020220 METAR COR EGLL 020220Z 25005KT CAVOK 03/01 Q1014 NOSIG=
200903020120 METAR COR EGLL 020120Z 27005KT CAVOK 03/00 Q1014 NOSIG=
200903020050 METAR COR EGLL 020050Z 27005KT CAVOK 02/00 Q1014 NOSIG=
200903020020 METAR COR EGLL 020020Z 29006KT CAVOK 03/00 Q1013 NOSIG=
200903012350 METAR COR EGLL 012350Z 29006KT CAVOK 05/01 Q1013 NOSIG=
200903012320 METAR COR EGLL 012320Z 28005KT CAVOK 06/01 Q1013 NOSIG=
200903012250 METAR COR EGLL 012250Z 30004KT CAVOK 07/01 Q1012 NOSIG=
200903012220 METAR EGLL 012220Z 30006KT CAVOK 07/01 Q1012=
200903012150 METAR COR EGLL 012150Z 29007KT CAVOK 07/01 Q1012 NOSIG=
200903012120 METAR COR EGLL 012120Z 29006KT CAVOK 08/01 Q1011 NOSIG=
200903012050 METAR COR EGLL 012050Z 30006KT CAVOK 09/01 Q1011 NOSIG=
200903012020 METAR COR EGLL 012020Z 29006KT CAVOK 09/02 Q1011 NOSIG=
200903011950 METAR COR EGLL 011950Z 29004KT 9999 FEW049 10/02 Q1010 NOSIG=
200903011920 METAR COR EGLL 011920Z 28006KT 9999 FEW049 09/03 Q1010 NOSIG=
200903011850 METAR COR EGLL 011850Z 28005KT 9999 FEW048 09/03 Q1009 NOSIG=
200903011820 METAR COR EGLL 011820Z 28004KT 9999 FEW043 09/03 Q1009 NOSIG=
200903011750 METAR COR EGLL 011750Z 30004KT 9999 FEW043 10/03 Q1009 NOSIG=
200903011720 METAR COR EGLL 011720Z 31006KT 9999 FEW033 11/03 Q1008 NOSIG=
200903011650 METAR COR EGLL 011650Z 30006KT 9999 FEW032 SCT041 11/04 Q1008
                        NOSIG=
200903011620 METAR COR EGLL 011620Z 30007KT 9999 SCT031 BKN035 11/04 Q1008
                        NOSIG=
200903011550 METAR COR EGLL 011550Z 29007KT 9999 BKN032 11/04 Q1007 NOSIG=
200903011520 METAR COR EGLL 011520Z 29006KT 9999 BKN031 11/04 Q1007 NOSIG=
200903011450 METAR COR EGLL 011450Z 30007KT 9999 BKN028 11/04 Q1007 NOSIG=
200903011420 METAR COR EGLL 011420Z 30009KT 9999 SCT030 11/04 Q1007 NOSIG=
200903011350 METAR COR EGLL 011350Z 30008KT 9999 SCT028 11/04 Q1007 NOSIG=
200903011320 METAR COR EGLL 011320Z 29008KT 270V330 9999 FEW021 SCT027
                        11/05 Q1007 NOSIG=
200903011250 METAR COR EGLL 011250Z 27005KT 230V320 6000 SCT019 SCT029
                        10/06 Q1007 NOSIG=
200903011220 METAR COR EGLL 011220Z 28004KT 250V330 5000 HZ BKN028 09/05
                        Q1007 NOSIG=
200903011150 METAR COR EGLL 011150Z 29006KT 6000 BKN028 08/05 Q1007 NOSIG=
200903011120 METAR COR EGLL 011120Z 31004KT 270V350 6000 OVC022 08/04
                        Q1007 NOSIG=
200903011050 METAR COR EGLL 011050Z 29004KT 5000 HZ BKN022 07/04 Q1007
                        TEMPO BKN014=
200903011020 METAR COR EGLL 011020Z VRB03KT 6000 BKN010 07/04 Q1007 NOSIG=
200903010950 METAR COR EGLL 010950Z VRB03KT 6000 BKN011 07/04 Q1007 NOSIG=
200903010920 METAR COR EGLL 010920Z 30003KT 6000 OVC012 07/04 Q1007 NOSIG=
200903010850 METAR COR EGLL 010850Z 32004KT 290V010 6000 OVC012 07/04
                        Q1007 NOSIG=
200903010820 METAR COR EGLL 010820Z VRB03KT 6000 OVC012 07/04 Q1007 NOSIG=
200903010750 METAR COR EGLL 010750Z VRB02KT 6000 OVC013 07/04 Q1007 NOSIG=
200903010720 METAR COR EGLL 010720Z VRB03KT 6000 OVC013 07/04 Q1006 TEMPO
                        4500 BR=
200903010650 METAR COR EGLL 010650Z 04003KT 6000 OVC014 06/04 Q1006 TEMPO
                        4500 BR=
200903010620 METAR COR EGLL 010620Z 03003KT 7000 SCT015 BKN045 06/04 Q1006
                        TEMPO 4500 BR BKN012=
200903010550 METAR COR EGLL 010550Z 06003KT 7000 FEW018 BKN045 06/04 Q1006
                        NOSIG=
200903010520 METAR COR EGLL 010520Z 06003KT 7000 BKN044 06/04 Q1006 NOSIG=
200903010450 METAR COR EGLL 010450Z 07003KT 8000 BKN039 06/04 Q1007 NOSIG=
200903010420 METAR EGLL 010420Z 07004KT 8000 BKN033 06/03 Q1007=
200903010350 METAR COR EGLL 010350Z 07004KT 9000 BKN030 06/03 Q1007 NOSIG=
200903010320 METAR COR EGLL 010320Z 07005KT 9000 BKN029 06/03 Q1007 NOSIG=
200903010250 METAR COR EGLL 010250Z 07005KT 9999 BKN030 06/03 Q1008 NOSIG=
200903010220 METAR COR EGLL 010220Z 08006KT 9999 BKN033 06/03 Q1008 NOSIG=
200903010150 METAR COR EGLL 010150Z 07005KT 9999 BKN034 06/03 Q1008 NOSIG=
200903010120 METAR EGLL 010120Z 05003KT 9999 BKN031 05/03 Q1009=
200903010050 METAR COR EGLL 010050Z 05003KT 9999 SCT029 05/02 Q1009 NOSIG=
200903010020 METAR COR EGLL 010020Z 06003KT 9999 FEW030 04/01 Q1009 NOSIG=
200902282350 METAR COR EGLL 282350Z 06003KT 9999 FEW027 04/01 Q1009 NOSIG=
200902282320 METAR EGLL 282320Z 07003KT CAVOK 04/02 Q1010=
200902282250 METAR COR EGLL 282250Z 08004KT CAVOK 04/02 Q1010 NOSIG=
200902282220 METAR COR EGLL 282220Z 07003KT CAVOK 04/02 Q1010 NOSIG=
200902282150 METAR COR EGLL 282150Z 09005KT CAVOK 05/02 Q1010 NOSIG=
200902282120 METAR COR EGLL 282120Z 12004KT CAVOK 05/02 Q1011 NOSIG=
200902282050 METAR COR EGLL 282050Z 13007KT CAVOK 05/02 Q1011 NOSIG=
200902282020 METAR COR EGLL 282020Z 10005KT CAVOK 05/02 Q1011 NOSIG=
200902281950 METAR COR EGLL 281950Z 11006KT CAVOK 05/02 Q1011 NOSIG=
200902281920 METAR COR EGLL 281920Z 10006KT 060V160 CAVOK 06/02 Q1011
                        NOSIG=
200902281850 METAR COR EGLL 281850Z 13005KT 100V180 CAVOK 06/02 Q1011
                        NOSIG=
200902281820 METAR COR EGLL 281820Z 12004KT 070V190 9999 FEW026 07/02
                        Q1012 NOSIG=
200902281750 METAR COR EGLL 281750Z 13005KT 080V160 9999 BKN026 08/02
                        Q1012 NOSIG=
200902281720 METAR COR EGLL 281720Z 10005KT 9999 BKN026 09/03 Q1012 NOSIG=
200902281650 METAR COR EGLL 281650Z 15004KT 070V200 9999 BKN026 09/03
                        Q1012 NOSIG=
200902281620 METAR COR EGLL 281620Z 17006KT 130V210 9999 BKN028 09/03
                        Q1012 NOSIG=
200902281550 METAR COR EGLL 281550Z 15004KT 110V200 9999 BKN028 09/03
                        Q1012 NOSIG=
200902281520 METAR COR EGLL 281520Z 19005KT 130V260 9999 BKN028 09/03
                        Q1013 NOSIG=
200902281450 METAR COR EGLL 281450Z 20006KT 150V250 9999 BKN030 10/03
                        Q1013 NOSIG=
200902281420 METAR COR EGLL 281420Z VRB05G15KT 9999 BKN032 10/03 Q1013
                        NOSIG=
200902281350 METAR COR EGLL 281350Z 22005KT 9999 BKN032 10/03 Q1014 NOSIG=
200902281320 METAR EGLL 281320Z 21006KT 190V250 9999 BKN031 10/03 Q1014=
200902281250 METAR COR EGLL 281250Z 19005KT 130V250 9999 BKN031 10/03
                        Q1014 NOSIG=
200902281220 METAR COR EGLL 281220Z 19006KT 110V270 9999 BKN033 10/03
                        Q1015 NOSIG=
200902281150 METAR COR EGLL 281150Z 21007KT 160V260 9999 FEW028 BKN035
                        10/03 Q1015 NOSIG=
200902281120 METAR COR EGLL 281120Z 20007KT 150V260 9999 BKN035 10/04
                        Q1015 NOSIG=
200902281050 METAR COR EGLL 281050Z 20008KT 150V250 9999 BKN035 09/04
                        Q1016 NOSIG=
200902281020 METAR COR EGLL 281020Z 18008KT 150V230 9999 BKN035 09/04
                        Q1016 NOSIG=
200902280950 METAR COR EGLL 280950Z 20007KT 150V250 9999 BKN034 09/04
                        Q1016 NOSIG=
200902280920 METAR COR EGLL 280920Z 21008KT 170V250 9999 BKN033 08/03
                        Q1016 NOSIG=
200902280850 METAR COR EGLL 280850Z 20007KT 9999 BKN033 08/03 Q1016 NOSIG=
200902280820 METAR COR EGLL 280820Z 22006KT 190V260 9999 BKN031 08/03
                        Q1016 NOSIG=
200902280750 METAR COR EGLL 280750Z 24006KT 9999 BKN029 08/03 Q1016 NOSIG=
200902280720 METAR COR EGLL 280720Z 26005KT 9999 BKN029 08/03 Q1016 NOSIG=
200902280650 METAR COR EGLL 280650Z 25007KT 9999 BKN029 08/03 Q1016 NOSIG=
200902280620 METAR COR EGLL 280620Z 24006KT 9999 BKN026 08/03 Q1016 NOSIG=
200902280550 METAR COR EGLL 280550Z 24007KT 9999 BKN024 08/04 Q1017 NOSIG=
200902280520 METAR COR EGLL 280520Z 23006KT 9999 BKN023 07/04 Q1017 NOSIG=
200902280450 METAR COR EGLL 280450Z 25004KT 210V280 9999 BKN023 07/04
                        Q1017 NOSIG=
200902280420 METAR COR EGLL 280420Z 27005KT 9999 BKN022 07/04 Q1017 NOSIG=
200902280350 METAR COR EGLL 280350Z 27006KT 9999 FEW022 BKN025 08/04 Q1017
                        NOSIG=
200902280320 METAR COR EGLL 280320Z 27005KT 9999 BKN025 08/04 Q1017 NOSIG=
200902280250 METAR COR EGLL 280250Z 26005KT 9999 BKN025 08/03 Q1018 NOSIG=
200902280220 METAR COR EGLL 280220Z 27006KT 9999 OVC027 08/03 Q1018 NOSIG=
200902280150 METAR COR EGLL 280150Z 27008KT 9999 OVC026 08/03 Q1018 NOSIG=
200902280120 METAR COR EGLL 280120Z 26009KT 9999 OVC026 08/04 Q1018 NOSIG=
200902280050 METAR COR EGLL 280050Z 27007KT 9999 OVC026 08/04 Q1018 NOSIG=
200902280020 METAR COR EGLL 280020Z 25006KT 9999 BKN028 08/05 Q1018 NOSIG=
200902272350 METAR COR EGLL 272350Z 26005KT 9999 OVC029 08/05 Q1018 NOSIG=
200902272320 METAR COR EGLL 272320Z 27007KT 9999 BKN030 08/05 Q1018 NOSIG=
200902272250 METAR COR EGLL 272250Z 27009KT 9999 BKN031 08/05 Q1018 NOSIG=
200902272220 METAR COR EGLL 272220Z 27007KT 9999 BKN031 08/05 Q1018 NOSIG=
200902272150 METAR COR EGLL 272150Z 27008KT 9999 BKN031 09/05 Q1019 NOSIG=
200902272120 METAR COR EGLL 272120Z 27009KT 9999 BKN031 09/05 Q1019 NOSIG=
200902272050 METAR COR EGLL 272050Z 27009KT 9999 BKN030 09/05 Q1019 NOSIG=
200902272020 METAR COR EGLL 272020Z 26009KT 9999 BKN030 09/05 Q1019 NOSIG=
200902271950 METAR COR EGLL 271950Z 26011KT 9999 BKN028 09/05 Q1019 NOSIG=
200902271920 METAR COR EGLL 271920Z 27009KT 9999 BKN028 10/05 Q1019 NOSIG=
200902271850 METAR COR EGLL 271850Z 27010KT 9999 SCT027 10/05 Q1019 NOSIG=
200902271820 METAR COR EGLL 271820Z 27009KT 9999 SCT026 10/05 Q1019 NOSIG=
200902271750 METAR COR EGLL 271750Z 27008KT 9999 BKN026 10/06 Q1019 NOSIG=
200902271720 METAR COR EGLL 271720Z 27010KT 9999 SCT028 11/06 Q1019 NOSIG=
200902271650 METAR COR EGLL 271650Z 27011KT 9999 FEW028 12/06 Q1019 NOSIG=
200902271620 METAR COR EGLL 271620Z 28010KT 9999 FEW031 13/06 Q1019 NOSIG=
200902271550 METAR COR EGLL 271550Z 28011KT 9999 FEW030 13/07 Q1019 NOSIG=
200902271520 METAR COR EGLL 271520Z 28008KT 9999 SCT030 14/07 Q1019 NOSIG=
200902271450 METAR COR EGLL 271450Z 27011KT 230V300 9999 SCT030 14/07
                        Q1019 NOSIG=
200902271420 METAR COR EGLL 271420Z 26010KT 9999 FEW030 14/07 Q1019 NOSIG=
200902271350 METAR COR EGLL 271350Z 26012KT 9999 FEW028 14/07 Q1020 NOSIG=
200902271320 METAR COR EGLL 271320Z 27011KT 9999 FEW028 14/07 Q1020 NOSIG=
200902271250 METAR COR EGLL 271250Z 24012KT 9999 FEW028 14/07 Q1020 NOSIG=
200902271220 METAR COR EGLL 271220Z 26012KT 9999 FEW022 SCT026 13/07 Q1020
                        NOSIG=
200902271150 METAR COR EGLL 271150Z 27010KT 9999 FEW024 12/07 Q1020 NOSIG=
200902271120 METAR COR EGLL 271120Z 28009KT CAVOK 12/07 Q1020 NOSIG=
200902271050 METAR COR EGLL 271050Z 27011KT 9999 FEW015 11/06 Q1020 NOSIG=
200902271020 METAR COR EGLL 271020Z 27011KT 9999 FEW015 SCT037 11/06 Q1020
                        NOSIG=
200902270950 METAR COR EGLL 270950Z 27009KT 9999 BKN038 09/06 Q1020 NOSIG=
200902270920 METAR COR EGLL 270920Z 27010KT 9999 BKN040 09/06 Q1020 NOSIG=
200902270850 METAR COR EGLL 270850Z 26011KT 9999 SCT038 09/06 Q1020 NOSIG=
200902270820 METAR COR EGLL 270820Z 27007KT 9000 FEW041 08/06 Q1020 NOSIG=
200902270750 METAR COR EGLL 270750Z 25009KT 7000 SCT041 07/06 Q1020 NOSIG=
200902270720 METAR COR EGLL 270720Z 26006KT 7000 SCT040 07/06 Q1020 NOSIG=
200902270650 METAR COR EGLL 270650Z 27006KT 7000 FEW047 07/05 Q1020 NOSIG=
200902270620 METAR COR EGLL 270620Z 25007KT 7000 NSC 07/06 Q1020 NOSIG=
200902270550 METAR COR EGLL 270550Z 24009KT 7000 NSC 07/06 Q1020 NOSIG=
200902270520 METAR COR EGLL 270520Z 25009KT 7000 SCT049 08/06 Q1020 NOSIG=
200902270450 METAR COR EGLL 270450Z 24008KT 8000 FEW044 08/06 Q1020 NOSIG=
200902270420 METAR COR EGLL 270420Z 25007KT 8000 FEW044 08/06 Q1020 NOSIG=
200902270350 METAR COR EGLL 270350Z 26008KT 8000 FEW049 07/06 Q1021 NOSIG=
200902270320 METAR COR EGLL 270320Z 25008KT CAVOK 08/05 Q1021 NOSIG=
200902270250 METAR COR EGLL 270250Z 25009KT CAVOK 07/05 Q1021 NOSIG=
200902270220 METAR COR EGLL 270220Z 25007KT CAVOK 07/05 Q1021 NOSIG=
200902270150 METAR COR EGLL 270150Z 24008KT CAVOK 07/04 Q1022 NOSIG=
200902270120 METAR COR EGLL 270120Z 24006KT CAVOK 07/04 Q1021 NOSIG=
200902270050 METAR EGLL 270050Z 24007KT CAVOK 07/04 Q1021=
200902270020 METAR COR EGLL 270020Z 25008KT CAVOK 07/04 Q1021 NOSIG=
200902262350 METAR COR EGLL 262350Z 23006KT CAVOK 07/04 Q1021 NOSIG=
200902262320 METAR COR EGLL 262320Z 24006KT CAVOK 07/04 Q1021 NOSIG=
200902262250 METAR COR EGLL 262250Z 24007KT CAVOK 07/04 Q1021 NOSIG=
200902262220 METAR COR EGLL 262220Z 24009KT CAVOK 07/04 Q1021 NOSIG=
200902262150 METAR COR EGLL 262150Z 25011KT CAVOK 08/04 Q1022 NOSIG=
200902262120 METAR COR EGLL 262120Z 25011KT CAVOK 08/04 Q1022 NOSIG=
200902262050 METAR COR EGLL 262050Z 26012KT CAVOK 08/04 Q1022 NOSIG=
200902262020 METAR COR EGLL 262020Z 25012KT CAVOK 08/04 Q1022 NOSIG=
200902261950 METAR COR EGLL 261950Z 25011KT CAVOK 08/04 Q1022 NOSIG=
200902261920 METAR COR EGLL 261920Z 25010KT CAVOK 09/04 Q1022 NOSIG=
200902261850 METAR COR EGLL 261850Z 25010KT CAVOK 09/04 Q1022 NOSIG=
200902261820 METAR EGLL 261820Z 25008KT CAVOK 09/03 Q1022=
200902261750 METAR COR EGLL 261750Z 25010KT CAVOK 09/03 Q1022 NOSIG=
200902261720 METAR COR EGLL 261720Z 27009KT 9999 FEW030 09/03 Q1022 NOSIG=
200902261650 METAR COR EGLL 261650Z 26012KT 9999 FEW030 09/03 Q1022 NOSIG=
200902261620 METAR EGLL 261620Z 27009KT 9999 FEW028 09/03 Q1022=
200902261550 METAR COR EGLL 261550Z 28012KT 9999 FEW028 09/03 Q1023 NOSIG=
200902261520 METAR COR EGLL 261520Z 28011KT 9999 FEW028 10/03 Q1023 NOSIG=
200902261450 METAR COR EGLL 261450Z 27013KT 9999 FEW028 10/03 Q1023 NOSIG=
200902261420 METAR COR EGLL 261420Z 28010KT 9999 FEW028 10/03 Q1023 NOSIG=
200902261350 METAR COR EGLL 261350Z 28010KT 9999 FEW031 10/03 Q1023 NOSIG=
200902261320 METAR COR EGLL 261320Z 28011KT 9999 FEW028 10/03 Q1024 NOSIG=
200902261250 METAR COR EGLL 261250Z 28012KT 9999 FEW028 10/03 Q1024 NOSIG=
200902261220 METAR COR EGLL 261220Z 27013KT 9999 FEW024 09/03 Q1024 NOSIG=
200902261150 METAR COR EGLL 261150Z 27013KT 9999 FEW023 09/04 Q1024 NOSIG=
200902261120 METAR COR EGLL 261120Z 27013KT 9999 FEW021 09/04 Q1024 NOSIG=
200902261050 METAR COR EGLL 261050Z 27012KT 9999 FEW019 09/04 Q1024 NOSIG=
200902261020 METAR COR EGLL 261020Z 26013KT 9999 FEW012 08/05 Q1024 NOSIG=
200902260950 METAR COR EGLL 260950Z 26011KT CAVOK 08/05 Q1025 NOSIG=
200902260920 METAR COR EGLL 260920Z 26012KT 9000 FEW020 07/05 Q1025 NOSIG=
200902260850 METAR COR EGLL 260850Z 26011KT 8000 FEW020 07/05 Q1024 NOSIG=
200902260820 METAR COR EGLL 260820Z 26010KT 8000 NSC 07/05 Q1024 NOSIG=
200902260750 METAR COR EGLL 260750Z 26008KT 7000 NSC 06/05 Q1024 NOSIG=
200902260720 METAR EGLL 260720Z 25008KT 7000 FEW020 06/05 Q1024 NOSIG=
200902260650 METAR COR EGLL 260650Z 26008KT 7000 NSC 06/05 Q1024 NOSIG=
200902260620 METAR COR EGLL 260620Z 26007KT 7000 NSC 06/05 Q1024 NOSIG=
200902260550 METAR COR EGLL 260550Z 26006KT 6000 NSC 06/05 Q1024 NOSIG=
200902260520 METAR COR EGLL 260520Z 26006KT 6000 NSC 06/05 Q1025 NOSIG=
200902260450 METAR COR EGLL 260450Z 27007KT 6000 NSC 06/05 Q1024 NOSIG=
200902260420 METAR COR EGLL 260420Z 27006KT 8000 NSC 06/05 Q1024 NOSIG=
200902260350 METAR COR EGLL 260350Z 27006KT 8000 NSC 06/05 Q1024 NOSIG=
200902260320 METAR COR EGLL 260320Z 27007KT 8000 NSC 07/05 Q1025 NOSIG=
200902260250 METAR COR EGLL 260250Z 26007KT CAVOK 07/05 Q1025 NOSIG=
200902260220 METAR COR EGLL 260220Z 27006KT 9999 FEW046 06/04 Q1026 NOSIG=
200902260150 METAR COR EGLL 260150Z 27007KT 9999 BKN045 07/05 Q1026 NOSIG=
200902260120 METAR COR EGLL 260120Z 27007KT 9999 BKN044 07/05 Q1026 NOSIG=
200902260050 METAR COR EGLL 260050Z 27009KT 9999 BKN046 07/05 Q1026 NOSIG=
200902260020 METAR COR EGLL 260020Z 27007KT 9999 BKN047 07/05 Q1026 NOSIG=
200902252350 METAR EGLL 252350Z 27008KT 9999 BKN045 08/05 Q1026=
200902252320 METAR COR EGLL 252320Z 26008KT 9999 SCT046 08/05 Q1026 NOSIG=
200902252250 METAR EGLL 252250Z 27007KT 9999 BKN045 08/05 Q1026=
200902252220 METAR COR EGLL 252220Z 26008KT 9999 BKN038 08/05 Q1026 NOSIG=
200902252150 METAR COR EGLL 252150Z 27008KT 9999 BKN035 08/05 Q1027 NOSIG=
200902252120 METAR COR EGLL 252120Z 26008KT 9999 BKN039 08/05 Q1027 NOSIG=
200902252050 METAR COR EGLL 252050Z 26008KT 9999 BKN037 08/05 Q1027 NOSIG=
200902252020 METAR COR EGLL 252020Z 27007KT 9999 BKN036 08/05 Q1027 NOSIG=
200902251950 METAR COR EGLL 251950Z 27008KT 9999 BKN030 08/05 Q1027 NOSIG=
200902251920 METAR COR EGLL 251920Z 25009KT 9999 BKN031 09/05 Q1027 NOSIG=
200902251850 METAR COR EGLL 251850Z 26008KT 9999 FEW021 SCT027 BKN031
                        09/05 Q1027 NOSIG=
200902251820 METAR COR EGLL 251820Z 25009KT 220V290 9999 BKN030 09/05
                        Q1027 NOSIG=
200902251750 METAR COR EGLL 251750Z 26010KT 9999 SCT022 BKN030 09/05 Q1027
                        NOSIG=
200902251720 METAR COR EGLL 251720Z 24008KT 9999 FEW028 BKN034 09/05 Q1027
                        NOSIG=
200902251650 METAR COR EGLL 251650Z 26011KT 9999 FEW020 BKN027 09/05 Q1027
                        NOSIG=
200902251620 METAR COR EGLL 251620Z 26010KT 9999 SCT018 BKN022 09/05 Q1027
                        NOSIG=
200902251550 METAR COR EGLL 251550Z 25011KT 9999 BKN027 09/05 Q1027 NOSIG=
200902251520 METAR COR EGLL 251520Z 26012KT 9999 BKN023 09/05 Q1027 NOSIG=
200902251450 METAR EGLL 251450Z 25012KT 9999 BKN022 09/06 Q1027=
200902251420 METAR COR EGLL 251420Z 26013KT 9999 FEW014 OVC021 09/06 Q1028
                        NOSIG=
200902251350 METAR COR EGLL 251350Z 26013KT 6000 -RA SCT014 BKN022 09/06
                        Q1028 NOSIG=
200902251320 METAR EGLL 251320Z 26011KT 9999 FEW018 BKN029 10/06 Q1028=
200902251250 METAR COR EGLL 251250Z 25013KT 9999 FEW023 BKN027 10/05 Q1028
                        NOSIG=
200902251220 METAR COR EGLL 251220Z 25012KT 9999 FEW023 BKN031 10/05 Q1029
                        NOSIG=
200902251150 METAR COR EGLL 251150Z 26012KT 9999 BKN030 10/05 Q1029 NOSIG=
200902251120 METAR COR EGLL 251120Z 25011KT 9999 BKN028 10/05 Q1029 NOSIG=
200902251050 METAR COR EGLL 251050Z 26012KT 9999 BKN020 BKN026 09/05 Q1029
                        NOSIG=
200902251020 METAR COR EGLL 251020Z 25012KT 9999 FEW020 OVC024 09/05 Q1029
                        NOSIG=
200902250950 METAR COR EGLL 250950Z 25010KT 210V270 9999 BKN025 09/05
                        Q1029 NOSIG=
200902250920 METAR COR EGLL 250920Z 25011KT 9999 BKN026 09/05 Q1029 NOSIG=
200902250850 METAR COR EGLL 250850Z 25010KT 9000 OVC027 09/06 Q1029 NOSIG=
200902250820 METAR COR EGLL 250820Z 27010KT 9000 OVC026 09/05 Q1029 NOSIG=
200902250750 METAR COR EGLL 250750Z 27009KT 9999 OVC027 09/05 Q1029 NOSIG=
200902250720 METAR COR EGLL 250720Z 27008KT 9999 OVC027 09/05 Q1028 NOSIG=
200902250650 METAR COR EGLL 250650Z 27007KT 9999 BKN029 09/05 Q1028 NOSIG=
200902250620 METAR COR EGLL 250620Z 27006KT 9000 OVC030 09/05 Q1028 NOSIG=
200902250550 METAR COR EGLL 250550Z 27006KT 8000 OVC029 08/05 Q1028 NOSIG=
200902250520 METAR COR EGLL 250520Z 27007KT 8000 OVC028 09/05 Q1028 NOSIG=
200902250450 METAR COR EGLL 250450Z 27006KT 7000 OVC028 09/06 Q1028 NOSIG=
200902250420 METAR COR EGLL 250420Z 27005KT 7000 OVC025 09/06 Q1028 NOSIG=
200902250350 METAR COR EGLL 250350Z 27004KT 6000 BKN027 09/06 Q1028 NOSIG=
200902250320 METAR COR EGLL 250320Z 27005KT 6000 BKN027 09/06 Q1028 NOSIG=
200902250250 METAR COR EGLL 250250Z 27005KT 7000 OVC027 09/06 Q1028 NOSIG=
200902250220 METAR COR EGLL 250220Z 27004KT 7000 OVC026 09/06 Q1028 NOSIG=
200902250150 METAR COR EGLL 250150Z 28004KT 7000 OVC028 09/06 Q1028 TEMPO
                        4000=
200902250120 METAR COR EGLL 250120Z 30004KT 6000 OVC029 09/07 Q1029 TEMPO
                        4000=
200902250050 METAR COR EGLL 250050Z 27004KT 5000 HZ OVC029 09/07 Q1029
                        TEMPO 4000=
200902250020 METAR COR EGLL 250020Z 27005KT 5000 HZ BKN030 09/07 Q1029
                        TEMPO 4000=
200902242350 METAR COR EGLL 242350Z 27005KT 4600 HZ BKN031 09/07 Q1029
                        TEMPO 5000=
200902242320 METAR COR EGLL 242320Z 27005KT 6000 BKN033 09/07 Q1029 NOSIG=
200902242250 METAR COR EGLL 242250Z 30005KT 6000 BKN033 10/07 Q1029 NOSIG=
200902242220 METAR COR EGLL 242220Z 29005KT 7000 OVC034 10/07 Q1029 NOSIG=
200902242150 METAR COR EGLL 242150Z 27006KT 7000 OVC036 11/07 Q1028 NOSIG=
200902242120 METAR COR EGLL 242120Z 29004KT 6000 OVC037 11/07 Q1028 NOSIG=
200902242050 METAR COR EGLL 242050Z 28006KT 6000 OVC037 10/07 Q1028 NOSIG=
200902242020 METAR COR EGLL 242020Z 29005KT 5000 BR BKN037 10/07 Q1028
                        NOSIG=
200902241950 METAR COR EGLL 241950Z VRB03KT 6000 OVC037 11/07 Q1028 NOSIG=
200902241920 METAR COR EGLL 241920Z 30005KT 6000 OVC037 11/07 Q1028 NOSIG=
200902241850 METAR COR EGLL 241850Z 30004KT 6000 OVC035 11/07 Q1028 NOSIG=
200902241820 METAR COR EGLL 241820Z 31004KT 6000 BKN036 11/07 Q1028 NOSIG=
200902241750 METAR COR EGLL 241750Z 30004KT 6000 BKN036 11/07 Q1028 NOSIG=
200902241720 METAR COR EGLL 241720Z 30005KT 6000 BKN037 11/07 Q1028 NOSIG=
200902241650 METAR COR EGLL 241650Z 30005KT 7000 FEW018 OVC037 11/07 Q1027
                        NOSIG=
200902241620 METAR COR EGLL 241620Z 28005KT 7000 SCT017 BKN036 11/07 Q1027
                        NOSIG=
200902241550 METAR COR EGLL 241550Z 29004KT 7000 SCT017 BKN038 11/07 Q1027
                        NOSIG=
200902241520 METAR COR EGLL 241520Z 28004KT 7000 BKN017 11/08 Q1027 NOSIG=
200902241450 METAR COR EGLL 241450Z 30004KT 270V360 7000 BKN019 BKN036
                        11/07 Q1027 NOSIG=
200902241420 METAR EGLL 241420Z 30004KT 260V340 7000 BKN016 BKN039 11/07
                        Q1027=
200902241350 METAR COR EGLL 241350Z 30004KT 270V340 6000 BKN014 BKN039
                        11/08 Q1028 TEMPO SCT014=
200902241320 METAR COR EGLL 241320Z 30004KT 260V340 7000 SCT015 BKN035
                        11/07 Q1028 NOSIG=
200902241250 METAR COR EGLL 241250Z VRB03KT 6000 SCT012 BKN033 11/08 Q1028
                        NOSIG=
200902241220 METAR COR EGLL 241220Z VRB02KT 5000 HZ SCT009 BKN035 10/08
                        Q1028 NOSIG=
200902241150 METAR COR EGLL 241150Z 29003KT 5000 HZ FEW010 BKN012 BKN035
                        10/08 Q1028 NOSIG=
200902241120 METAR COR EGLL 241120Z VRB02KT 6000 SCT013 BKN032 10/08 Q1028
                        NOSIG=
200902241050 METAR COR EGLL 241050Z VRB02KT 5000 HZ SCT009 BKN032 10/08
                        Q1028 NOSIG=
200902241020 METAR COR EGLL 241020Z VRB03KT 4000 BR BKN009 BKN019 09/07
                        Q1028 NOSIG=
200902240950 METAR COR EGLL 240950Z VRB03KT 3700 -DZ SCT010 BKN019 09/07
                        Q1028 TEMPO 6000 NSW=
200902240920 METAR COR EGLL 240920Z VRB03KT 6000 SCT021 BKN030 09/07 Q1027
                        NOSIG=
200902240850 METAR COR EGLL 240850Z 31004KT 280V350 6000 BKN031 09/07
                        Q1027 NOSIG=
200902240820 METAR COR EGLL 240820Z VRB02KT 5000 HZ FEW011 BKN033 09/07
                        Q1027 NOSIG=
200902240750 METAR COR EGLL 240750Z 35003KT 5000 HZ SCT020 BKN027 09/07
                        Q1027 NOSIG=
200902240720 METAR COR EGLL 240720Z VRB03KT 4500 HZ SCT029 BKN037 09/07
                        Q1027 BECMG BKN014=
200902240650 METAR COR EGLL 240650Z VRB03KT 5000 HZ BKN036 09/07 Q1026
                        BECMG BKN012=
200902240620 METAR COR EGLL 240620Z 30003KT 6000 BKN037 09/07 Q1026 BECMG
                        BKN014=
200902240550 METAR COR EGLL 240550Z 00000KT 6000 SCT010 BKN037 09/06 Q1026
                        TEMPO BKN010=
200902240520 METAR COR EGLL 240520Z 30003KT 6000 SCT010 BKN036 09/06 Q1026
                        BECMG BKN012=
200902240450 METAR COR EGLL 240450Z 31003KT 6000 FEW015 BKN038 09/06 Q1026
                        BECMG BKN014=
200902240420 METAR COR EGLL 240420Z VRB03KT 6000 FEW023 BKN038 09/06 Q1026
                        BECMG BKN014=
200902240350 METAR COR EGLL 240350Z 30002KT 7000 FEW023 BKN037 09/06 Q1026
                        BECMG BKN014=
200902240320 METAR COR EGLL 240320Z 31002KT 7000 BKN037 08/06 Q1026 BECMG
                        BKN014=
200902240250 METAR COR EGLL 240250Z 27004KT 8000 BKN034 09/06 Q1026 BECMG
                        BKN014=
200902240220 METAR COR EGLL 240220Z VRB02KT 8000 BKN036 09/06 Q1026 BECMG
                        BKN014=
200902240150 METAR COR EGLL 240150Z VRB02KT 8000 BKN035 09/06 Q1026 BECMG
                        BKN014=
200902240120 METAR COR EGLL 240120Z 31004KT 280V350 8000 BKN033 09/06
                        Q1026 NOSIG=
200902240050 METAR COR EGLL 240050Z 32004KT 280V350 8000 BKN033 09/06
                        Q1026 NOSIG=
200902240020 METAR COR EGLL 240020Z VRB03KT 9000 BKN031 09/06 Q1026 NOSIG=
200902232350 METAR COR EGLL 232350Z VRB03KT 9999 FEW016 OVC031 09/06 Q1026
                        NOSIG=
200902232320 METAR COR EGLL 232320Z 35003KT 9000 OVC030 09/06 Q1025 NOSIG=
200902232250 METAR EGLL 232250Z 35003KT 9999 OVC027 09/06 Q1025=
200902232220 METAR COR EGLL 232220Z 35004KT 9999 OVC031 10/06 Q1025 NOSIG=
200902232150 METAR COR EGLL 232150Z VRB03KT 9999 BKN030 10/06 Q1025 NOSIG=
200902232120 METAR COR EGLL 232120Z VRB03KT 9999 BKN030 10/06 Q1025 NOSIG=
200902232050 METAR COR EGLL 232050Z 32004KT 290V360 9999 BKN031 10/05
                        Q1025 NOSIG=
200902232020 METAR COR EGLL 232020Z 32005KT 9999 BKN031 BKN041 10/06 Q1025
                        NOSIG=
200902231950 METAR COR EGLL 231950Z 32005KT 290V010 9999 SCT029 BKN035
                        10/05 Q1025 NOSIG=
200902231920 METAR COR EGLL 231920Z 32005KT 9999 FEW028 OVC038 10/05 Q1025
                        NOSIG=
200902231850 METAR COR EGLL 231850Z 32004KT 9999 BKN028 11/05 Q1025 NOSIG=
200902231820 METAR COR EGLL 231820Z 33005KT 300V360 9999 BKN028 11/05
                        Q1025 NOSIG=
200902231750 METAR COR EGLL 231750Z 32005KT 290V350 9999 BKN034 11/05
                        Q1024 NOSIG=
200902231720 METAR COR EGLL 231720Z 31006KT 9999 BKN027 11/05 Q1024 NOSIG=
200902231650 METAR COR EGLL 231650Z 31005KT 9999 BKN027 11/05 Q1024 NOSIG=
200902231620 METAR COR EGLL 231620Z 31006KT 9999 BKN029 11/05 Q1024 NOSIG=
200902231550 METAR COR EGLL 231550Z 31007KT 9999 FEW028 BKN034 11/05 Q1024
                        NOSIG=
200902231520 METAR COR EGLL 231520Z 32007KT 9999 SCT028 BKN034 11/05 Q1024
                        NOSIG=
200902231450 METAR COR EGLL 231450Z 31008KT 9999 BKN029 11/05 Q1024 NOSIG=
200902231420 METAR COR EGLL 231420Z 31008KT 9999 BKN029 11/05 Q1024 NOSIG=
200902231350 METAR COR EGLL 231350Z 31008KT 9999 BKN027 11/05 Q1024 NOSIG=
200902231320 METAR COR EGLL 231320Z 31006KT 280V350 9999 BKN030 11/05
                        Q1024 NOSIG=
200902231250 METAR COR EGLL 231250Z 32007KT 270V350 9999 BKN024 10/05
                        Q1024 NOSIG=
200902231220 METAR COR EGLL 231220Z 33007KT 290V010 9999 BKN024 10/05
                        Q1025 NOSIG=
200902231150 METAR COR EGLL 231150Z 33008KT 290V010 9999 BKN024 10/05
                        Q1025 NOSIG=
200902231120 METAR COR EGLL 231120Z 33009KT 9999 BKN020 10/05 Q1025 NOSIG=
200902231050 METAR COR EGLL 231050Z 32007KT 290V360 9999 BKN020 10/05
                        Q1025 NOSIG=
200902231020 METAR COR EGLL 231020Z 32009KT 280V010 9999 BKN018 BKN022
                        10/05 Q1025 NOSIG=
200902230950 METAR COR EGLL 230950Z 32007KT 9999 BKN018 BKN025 10/05 Q1024
                        TEMPO BKN014=
200902230920 METAR COR EGLL 230920Z 32007KT 300V010 9999 BKN018 BKN027
                        09/06 Q1024 TEMPO BKN013=
200902230850 METAR COR EGLL 230850Z 32007KT 280V010 9999 SCT014 BKN020
                        09/06 Q1024 TEMPO BKN012=
200902230820 METAR COR EGLL 230820Z 31007KT 9999 BKN015 09/06 Q1024 TEMPO
                        BKN012=
200902230750 METAR COR EGLL 230750Z 31006KT 9999 BKN015 09/05 Q1024 TEMPO
                        BKN012=
200902230720 METAR COR EGLL 230720Z 32007KT 290V350 9999 BKN016 09/05
                        Q1024 TEMPO BKN014=
200902230650 METAR COR EGLL 230650Z 29006KT 9999 BKN017 BKN021 08/05 Q1024
                        TEMPO BKN014=
200902230620 METAR COR EGLL 230620Z 29006KT 9999 BKN018 08/04 Q1024 TEMPO
                        BKN014=
200902230550 METAR COR EGLL 230550Z 30005KT 9999 BKN019 08/05 Q1024 TEMPO
                        BKN014=
200902230520 METAR COR EGLL 230520Z 31006KT 9999 BKN019 08/04 Q1024 NOSIG=
200902230450 METAR COR EGLL 230450Z 31005KT 9999 BKN022 08/04 Q1024 NOSIG=
200902230420 METAR COR EGLL 230420Z 31006KT 9999 BKN022 08/04 Q1025 NOSIG=
200902230350 METAR COR EGLL 230350Z 30006KT 9999 BKN023 08/04 Q1025 NOSIG=
200902230320 METAR COR EGLL 230320Z 30007KT 9999 BKN025 08/04 Q1025 NOSIG=
200902230250 METAR COR EGLL 230250Z 29005KT 9999 SCT024 BKN029 08/03 Q1025
                        NOSIG=
200902230220 METAR COR EGLL 230220Z 29006KT 9999 FEW026 BKN032 07/03 Q1026
                        NOSIG=
200902230150 METAR COR EGLL 230150Z 27005KT 9999 FEW030 BKN034 07/03 Q1026
                        NOSIG=
200902230120 METAR COR EGLL 230120Z 28006KT 9999 BKN034 08/03 Q1026 NOSIG=
200902230050 METAR COR EGLL 230050Z 29005KT 9999 BKN035 07/03 Q1026 NOSIG=
200902230020 METAR COR EGLL 230020Z 31006KT CAVOK 08/03 Q1026 NOSIG=
200902222350 METAR COR EGLL 222350Z 30007KT CAVOK 08/03 Q1026 NOSIG=
200902222320 METAR COR EGLL 222320Z 30005KT 280V350 CAVOK 08/03 Q1026
                        NOSIG=
200902222250 METAR EGLL 222250Z 31005KT CAVOK 08/03 Q1026=
200902222220 METAR COR EGLL 222220Z 30005KT 9999 FEW042 08/03 Q1027 NOSIG=
200902222150 METAR COR EGLL 222150Z 31007KT 9999 FEW038 09/03 Q1027 NOSIG=
200902222120 METAR EGLL 222120Z NIL=
200902222050 METAR COR EGLL 222050Z 31008KT 290V360 9999 BKN034 09/03
                        Q1027 NOSIG=
200902222020 METAR COR EGLL 222020Z 31006KT 9999 BKN036 09/03 Q1027 NOSIG=
200902221950 METAR COR EGLL 221950Z 31009KT 9999 BKN039 10/02 Q1027 NOSIG=
200902221920 METAR COR EGLL 221920Z 32009KT 280V360 9999 BKN040 10/03
                        Q1027 NOSIG=
200902221850 METAR COR EGLL 221850Z 32008KT 290V360 9999 BKN041 10/03
                        Q1027 NOSIG=
200902221820 METAR COR EGLL 221820Z 32010KT 9999 BKN044 10/03 Q1027 NOSIG=
200902221750 METAR COR EGLL 221750Z 34010KT 9999 FEW033 BKN043 10/04 Q1027
                        NOSIG=
200902221720 METAR COR EGLL 221720Z 31008KT 9999 BKN044 11/03 Q1027 NOSIG=
200902221650 METAR COR EGLL 221650Z 32009KT 9999 FEW038 BKN047 11/03 Q1026
                        NOSIG=
200902221620 METAR COR EGLL 221620Z 31007KT 280V350 9999 FEW040 BKN045
                        11/03 Q1026 NOSIG=
200902221550 METAR COR EGLL 221550Z 31009KT 280V360 9999 FEW030 BKN038
                        11/03 Q1026 NOSIG=
200902221520 METAR COR EGLL 221520Z 30010KT 9999 BKN038 11/03 Q1027 NOSIG=
200902221450 METAR COR EGLL 221450Z 31008KT 270V340 9999 FEW034 BKN044
                        12/03 Q1026 NOSIG=
200902221420 METAR COR EGLL 221420Z 32010KT 290V360 9999 FEW034 BKN040
                        11/04 Q1027 NOSIG=
200902221350 METAR COR EGLL 221350Z 33008KT 300V020 9999 SCT034 BKN045
                        11/04 Q1027 NOSIG=
200902221320 METAR COR EGLL 221320Z 33011KT 300V010 9999 SCT034 BKN041
                        12/04 Q1027 NOSIG=
200902221250 METAR COR EGLL 221250Z 34006KT 300V020 9999 BKN033 BKN040
                        12/04 Q1027 NOSIG=
200902221220 METAR COR EGLL 221220Z 34008KT 310V010 9999 SCT035 SCT045
                        12/04 Q1027 NOSIG=
200902221150 METAR COR EGLL 221150Z 32012KT 9999 FEW030 SCT040 12/03 Q1027
                        NOSIG=
200902221120 METAR COR EGLL 221120Z 31011KT 9999 FEW021 BKN042 11/04 Q1027
                        NOSIG=
200902221050 METAR EGLL 221050Z 28006KT 9999 FEW020 SCT027 BKN037 11/06
                        Q1027=
200902221020 METAR COR EGLL 221020Z 28006KT 9999 FEW018 BKN021 09/06 Q1028
                        NOSIG=
200902220950 METAR COR EGLL 220950Z 27007KT 9999 SCT020 09/06 Q1028 NOSIG=
200902220920 METAR COR EGLL 220920Z 26008KT 9999 FEW022 BKN033 09/05 Q1028
                        NOSIG=
200902220850 METAR COR EGLL 220850Z 24007KT 9999 FEW022 BKN035 08/05 Q1027
                        NOSIG=
200902220820 METAR COR EGLL 220820Z 24006KT 210V270 9999 FEW026 SCT036
                        07/04 Q1027 NOSIG=
200902220750 METAR COR EGLL 220750Z 22004KT 160V260 9999 BKN034 07/04
                        Q1028 NOSIG=
200902220720 METAR COR EGLL 220720Z 26004KT 190V340 9999 BKN028 07/04
                        Q1027 TEMPO BKN014=
200902220650 METAR COR EGLL 220650Z 25005KT 200V290 9999 BKN028 07/04
                        Q1027 TEMPO BKN014=
200902220620 METAR COR EGLL 220620Z 24008KT 9999 FEW019 07/04 Q1027 NOSIG=
200902220550 METAR COR EGLL 220550Z 25007KT 9999 SCT022 07/03 Q1027 NOSIG=
200902220520 METAR COR EGLL 220520Z 27008KT 9999 FEW017 06/03 Q1027 TEMPO
                        BKN014=
200902220450 METAR COR EGLL 220450Z 27008KT 9999 BKN019 06/03 Q1028 TEMPO
                        BKN014=
200902220420 METAR COR EGLL 220420Z 27007KT 9999 BKN020 06/03 Q1028 NOSIG=
200902220350 METAR COR EGLL 220350Z 27007KT 9999 BKN020 06/03 Q1028 NOSIG=
200902220320 METAR COR EGLL 220320Z 27008KT 9999 BKN024 05/03 Q1029 NOSIG=
200902220250 METAR COR EGLL 220250Z 27007KT 9999 FEW028 05/03 Q1029 NOSIG=
200902220220 METAR COR EGLL 220220Z 26009KT CAVOK 05/03 Q1029 NOSIG=
200902220150 METAR COR EGLL 220150Z 26007KT CAVOK 06/03 Q1030 NOSIG=
200902220120 METAR COR EGLL 220120Z 27008KT CAVOK 06/03 Q1030 NOSIG=
200902220050 METAR COR EGLL 220050Z 27008KT CAVOK 06/03 Q1030 NOSIG=
200902220020 METAR COR EGLL 220020Z 27008KT CAVOK 06/03 Q1030 NOSIG=
200902212350 METAR COR EGLL 212350Z 27008KT CAVOK 06/04 Q1030 NOSIG=
200902212320 METAR COR EGLL 212320Z 27010KT CAVOK 06/04 Q1030 NOSIG=
200902212250 METAR COR EGLL 212250Z 28010KT 7000 NSC 06/04 Q1030 NOSIG=
200902212220 METAR COR EGLL 212220Z 28010KT 7000 NSC 06/04 Q1030 NOSIG=
200902212150 METAR COR EGLL 212150Z 27009KT 8000 NSC 07/05 Q1030 NOSIG=
200902212120 METAR COR EGLL 212120Z 28009KT 9000 NSC 07/04 Q1030 NOSIG=
200902212050 METAR COR EGLL 212050Z 27008KT CAVOK 08/04 Q1030 NOSIG=
200902212020 METAR COR EGLL 212020Z 28008KT CAVOK 08/05 Q1030 NOSIG=
200902211950 METAR COR EGLL 211950Z 28007KT CAVOK 08/04 Q1030 NOSIG=
200902211920 METAR COR EGLL 211920Z 27007KT CAVOK 09/04 Q1030 NOSIG=
200902211850 METAR COR EGLL 211850Z 28008KT CAVOK 09/04 Q1030 NOSIG=
200902211820 METAR COR EGLL 211820Z 27007KT CAVOK 09/04 Q1030 NOSIG=
200902211750 METAR COR EGLL 211750Z 27009KT CAVOK 09/04 Q1030 NOSIG=
200902211720 METAR COR EGLL 211720Z 27010KT CAVOK 10/05 Q1030 NOSIG=
200902211650 METAR COR EGLL 211650Z 28008KT CAVOK 11/05 Q1030 NOSIG=
200902211620 METAR COR EGLL 211620Z 26010KT CAVOK 12/05 Q1030 NOSIG=
200902211550 METAR COR EGLL 211550Z 26011KT CAVOK 12/05 Q1031 NOSIG=
200902211520 METAR COR EGLL 211520Z 29007KT CAVOK 12/05 Q1031 NOSIG=
200902211450 METAR COR EGLL 211450Z 28008KT CAVOK 12/05 Q1031 NOSIG=
200902211420 METAR COR EGLL 211420Z 28009KT CAVOK 12/05 Q1031 NOSIG=
200902211350 METAR COR EGLL 211350Z 29009KT 270V330 9999 FEW031 12/05
                        Q1032 NOSIG=
200902211320 METAR COR EGLL 211320Z 27008KT 240V320 9999 FEW039 12/05
                        Q1032 NOSIG=
200902211250 METAR COR EGLL 211250Z 27008KT 240V300 CAVOK 11/05 Q1032
                        NOSIG=
200902211220 METAR COR EGLL 211220Z 28008KT CAVOK 11/05 Q1032 NOSIG=
200902211150 METAR COR EGLL 211150Z 28010KT CAVOK 11/04 Q1032 NOSIG=
200902211120 METAR COR EGLL 211120Z 28006KT 250V310 CAVOK 10/04 Q1032
                        NOSIG=
200902211050 METAR COR EGLL 211050Z 27006KT 220V300 CAVOK 09/04 Q1032
                        NOSIG=
200902211020 METAR COR EGLL 211020Z 25007KT CAVOK 08/04 Q1033 NOSIG=
200902210950 METAR COR EGLL 210950Z 27007KT CAVOK 08/03 Q1033 NOSIG=
200902210920 METAR COR EGLL 210920Z 28006KT 250V310 CAVOK 07/03 Q1033
                        NOSIG=
200902210850 METAR COR EGLL 210850Z 26006KT CAVOK 06/03 Q1032 NOSIG=
200902210820 METAR COR EGLL 210820Z 27006KT CAVOK 05/03 Q1032 NOSIG=
200902210750 METAR COR EGLL 210750Z 27005KT CAVOK 05/03 Q1032 NOSIG=
200902210720 METAR COR EGLL 210720Z 27004KT CAVOK 04/02 Q1032 NOSIG=
200902210650 METAR COR EGLL 210650Z 27005KT CAVOK 04/02 Q1032 NOSIG=
200902210620 METAR COR EGLL 210620Z 27004KT CAVOK 04/02 Q1032 NOSIG=
200902210550 METAR COR EGLL 210550Z 27006KT CAVOK 04/02 Q1032 NOSIG=
200902210520 METAR COR EGLL 210520Z 26004KT CAVOK 06/03 Q1032 NOSIG=
200902210450 METAR COR EGLL 210450Z 27005KT CAVOK 06/03 Q1032=
200902210420 METAR COR EGLL 210420Z 26005KT CAVOK 06/03 Q1032 NOSIG=
200902210350 METAR COR EGLL 210350Z 26004KT CAVOK 05/03 Q1032 NOSIG=
200902210320 METAR EGLL 210320Z 27004KT CAVOK 06/03 Q1032=
200902210250 METAR COR EGLL 210250Z 29005KT CAVOK 06/03 Q1033 NOSIG=
200902210220 METAR COR EGLL 210220Z 27004KT CAVOK 06/03 Q1033 NOSIG=
200902210150 METAR COR EGLL 210150Z 28004KT CAVOK 06/02 Q1033 NOSIG=
200902210120 METAR COR EGLL 210120Z 26005KT CAVOK 07/02 Q1033 NOSIG=
200902210050 METAR COR EGLL 210050Z 29004KT CAVOK 06/02 Q1033 NOSIG=
200902210020 METAR COR EGLL 210020Z 28005KT CAVOK 06/02 Q1033 NOSIG=
200902202350 METAR COR EGLL 202350Z 28004KT CAVOK 06/02 Q1033 NOSIG=
200902202320 METAR COR EGLL 202320Z 28005KT CAVOK 06/02 Q1033 NOSIG=
200902202250 METAR COR EGLL 202250Z 28005KT CAVOK 07/02 Q1033 NOSIG=
200902202220 METAR COR EGLL 202220Z 29003KT CAVOK 08/01 Q1033 NOSIG=
200902202150 METAR COR EGLL 202150Z 30003KT CAVOK 08/01 Q1033 NOSIG=
200902202120 METAR COR EGLL 202120Z 30003KT CAVOK 08/01 Q1033 NOSIG=
200902202050 METAR COR EGLL 202050Z VRB02KT CAVOK 08/01 Q1033 NOSIG=
200902202020 METAR COR EGLL 202020Z VRB02KT CAVOK 08/01 Q1033 NOSIG=
200902201950 METAR COR EGLL 201950Z 35003KT CAVOK 08/01 Q1033 NOSIG=
200902201920 METAR COR EGLL 201920Z 35002KT CAVOK 08/01 Q1033 NOSIG=
200902201850 METAR COR EGLL 201850Z 32004KT CAVOK 08/01 Q1032 NOSIG=
200902201820 METAR COR EGLL 201820Z VRB03KT CAVOK 08/01 Q1032 NOSIG=
200902201750 METAR COR EGLL 201750Z 32004KT CAVOK 09/02 Q1032 NOSIG=
200902201720 METAR COR EGLL 201720Z 31005KT 9999 FEW041 09/01 Q1032 NOSIG=
200902201650 METAR COR EGLL 201650Z 29005KT 9999 SCT040 09/02 Q1032 NOSIG=
200902201620 METAR COR EGLL 201620Z 29006KT 9999 SCT037 09/02 Q1032 NOSIG=
200902201550 METAR COR EGLL 201550Z 27008KT 9999 SCT036 09/02 Q1031 NOSIG=
200902201520 METAR COR EGLL 201520Z 29006KT 9999 SCT037 10/02 Q1032 NOSIG=
200902201450 METAR COR EGLL 201450Z 29007KT 260V320 9999 SCT037 10/01
                        Q1032 NOSIG=
200902201420 METAR COR EGLL 201420Z 27009KT 9999 SCT041 10/01 Q1032 NOSIG=
200902201350 METAR COR EGLL 201350Z 30008KT 270V340 9999 SCT043 10/00
                        Q1032 NOSIG=
200902201320 METAR COR EGLL 201320Z 29009KT 9999 SCT043 11/01 Q1032 NOSIG=
200902201250 METAR COR EGLL 201250Z 30007KT 260V350 9999 SCT042 10/01
                        Q1032 NOSIG=
200902201220 METAR COR EGLL 201220Z 32004KT 260V010 9999 SCT036 10/01
                        Q1032 NOSIG=
200902201150 METAR COR EGLL 201150Z 33005KT 280V050 9999 FEW023 SCT026
                        09/02 Q1032 NOSIG=
200902201120 METAR COR EGLL 201120Z VRB03KT 9000 FEW017 SCT040 10/05 Q1032
                        NOSIG=
200902201050 METAR COR EGLL 201050Z 27004KT 200V330 6000 SCT014 09/05
                        Q1032 NOSIG=
200902201020 METAR COR EGLL 201020Z 29005KT 260V320 7000 SCT014 08/05
                        Q1032 NOSIG=
200902200950 METAR COR EGLL 200950Z VRB03KT 9000 SCT013 08/05 Q1032 NOSIG=
200902200920 METAR COR EGLL 200920Z 28003KT 9999 OVC014 07/04 Q1032 BECMG
                        SCT018=
200902200850 METAR COR EGLL 200850Z 29004KT 250V320 5000 BR SCT009 BKN012
                        07/04 Q1032 BECMG NSW SCT015=
200902200820 METAR COR EGLL 200820Z 29004KT 250V340 4900 BR OVC010 07/05
                        Q1031 BECMG 8000 NSW SCT015=
200902200750 METAR COR EGLL 200750Z VRB03KT 4900 BR OVC007 06/05 Q1031
                        BECMG 8000 NSW SCT010=
200902200720 METAR COR EGLL 200720Z 30005KT 4900 HZ OVC008 06/05 Q1031
                        NOSIG=
200902200650 METAR COR EGLL 200650Z 31004KT 5000 HZ BKN009 06/05 Q1031
                        TEMPO 4000 BR=
200902200620 METAR COR EGLL 200620Z VRB02KT 5000 HZ BKN010 06/05 Q1031
                        TEMPO 4000 BR BKN007=
200902200550 METAR COR EGLL 200550Z 31003KT 6000 SCT013 SCT048 05/04 Q1030
                        TEMPO BKN012=
200902200520 METAR COR EGLL 200520Z 29002KT 7000 FEW012 SCT049 06/05 Q1030
                        TEMPO BKN012=
200902200450 METAR COR EGLL 200450Z 36002KT 8000 BKN013 06/05 Q1030 NOSIG=
200902200420 METAR COR EGLL 200420Z 00000KT 9000 FEW009 BKN014 06/05 Q1030
                        NOSIG=
200902200350 METAR COR EGLL 200350Z 28003KT 9000 SCT010 SCT015 04/03 Q1030
                        TEMPO BKN014=
200902200320 METAR COR EGLL 200320Z 27003KT 9000 FEW010 06/05 Q1030 TEMPO
                        BKN010=
200902200250 METAR COR EGLL 200250Z 27003KT 9999 SCT031 SCT046 07/05 Q1030
                        NOSIG=
200902200220 METAR COR EGLL 200220Z 26003KT 9999 FEW012 SCT031 BKN046
                        07/05 Q1030 NOSIG=
200902200150 METAR COR EGLL 200150Z 27004KT 9999 FEW014 BKN042 06/05 Q1030
                        NOSIG=
200902200120 METAR COR EGLL 200120Z 28004KT 9999 BKN042 07/05 Q1029 NOSIG=
200902200050 METAR COR EGLL 200050Z 27005KT 9999 FEW030 BKN044 06/05 Q1029
                        NOSIG=
200902200020 METAR COR EGLL 200020Z 28004KT 9999 BKN045 06/05 Q1029 NOSIG=
200902192350 METAR COR EGLL 192350Z 28004KT CAVOK 07/05 Q1029 NOSIG=
200902192320 METAR COR EGLL 192320Z 28005KT CAVOK 06/04 Q1029 NOSIG=
200902192250 METAR COR EGLL 192250Z 28006KT CAVOK 07/05 Q1029 NOSIG=
200902192220 METAR COR EGLL 192220Z 27006KT CAVOK 07/05 Q1029 NOSIG=
200902192150 METAR COR EGLL 192150Z 27006KT 9000 NSC 07/05 Q1029 NOSIG=
200902192120 METAR COR EGLL 192120Z 27006KT CAVOK 07/05 Q1029 NOSIG=
200902192050 METAR COR EGLL 192050Z 28005KT CAVOK 07/04 Q1029 NOSIG=
200902192020 METAR COR EGLL 192020Z 29004KT CAVOK 06/04 Q1029 NOSIG=
200902191950 METAR COR EGLL 191950Z 28006KT CAVOK 06/04 Q1029 NOSIG=
200902191920 METAR COR EGLL 191920Z 28007KT CAVOK 07/04 Q1028 NOSIG=
200902191850 METAR COR EGLL 191850Z 27006KT CAVOK 07/04 Q1028 NOSIG=
200902191820 METAR COR EGLL 191820Z 28006KT CAVOK 09/05 Q1028 NOSIG=
200902191750 METAR COR EGLL 191750Z 28006KT 9000 NSC 08/05 Q1028 NOSIG=
200902191720 METAR COR EGLL 191720Z 27008KT CAVOK 09/05 Q1027 NOSIG=
200902191650 METAR COR EGLL 191650Z 28006KT CAVOK 09/05 Q1027 NOSIG=
200902191620 METAR COR EGLL 191620Z 28007KT CAVOK 09/05 Q1027 NOSIG=
200902191550 METAR EGLL 191550Z 27007KT 9999 BKN044 09/05 Q1028=
200902191520 METAR COR EGLL 191520Z 27009KT 9999 BKN044 09/05 Q1028 NOSIG=
200902191450 METAR COR EGLL 191450Z 27007KT 9999 FEW024 BKN041 09/05 Q1028
                        NOSIG=
200902191420 METAR COR EGLL 191420Z 29006KT 9999 FEW019 BKN030 09/05 Q1027
                        NOSIG=
200902191350 METAR COR EGLL 191350Z 27006KT 9999 FEW017 SCT035 10/06 Q1027
                        NOSIG=
200902191320 METAR COR EGLL 191320Z 28006KT 9999 FEW022 10/06 Q1027 NOSIG=
200902191250 METAR COR EGLL 191250Z 26006KT 9999 SCT022 09/06 Q1027 NOSIG=
200902191220 METAR COR EGLL 191220Z 25006KT 9999 FEW012 BKN031 09/06 Q1028
                        NOSIG=
200902191150 METAR COR EGLL 191150Z 27007KT 9000 SCT010 BKN025 08/06 Q1028
                        NOSIG=
200902191120 METAR COR EGLL 191120Z 28005KT 240V310 6000 SCT006 SCT013
                        09/06 Q1028 TEMPO BKN008=
200902191050 METAR COR EGLL 191050Z 29004KT 3800 BR SCT006 SCT010 08/07
                        Q1028 BECMG 5000 BKN008=
200902191020 METAR COR EGLL 191020Z 29005KT 3400 BR SCT006 SCT010 08/07
                        Q1028 BECMG 5000 HZ BKN008=
200902190950 METAR COR EGLL 190950Z VRB03KT 3200 BR FEW003 SCT007 08/07
                        Q1028 BECMG 5000 BKN008=
200902190920 METAR COR EGLL 190920Z VRB03KT 2000 BR BKN004 BKN010 07/07
                        Q1027 BECMG 5000 HZ BKN008=
200902190850 METAR COR EGLL 190850Z 15004KT 110V190 1900 1100SW BR FEW003
                        SCT006 BKN046 07/07 Q1027 TEMPO BKN004=
200902190820 METAR COR EGLL 190820Z VRB03KT 2300 BR FEW006 BKN045 07/06
                        Q1027 TEMPO BKN005=
200902190750 METAR COR EGLL 190750Z 36002KT 2200 BR FEW010 BKN048 07/07
                        Q1027 TEMPO BKN004=
200902190720 METAR COR EGLL 190720Z 34002KT 2400 BR SCT004 SCT010 BKN045
                        07/07 Q1027 TEMPO BKN004=
200902190650 METAR COR EGLL 190650Z VRB02KT 2200 -DZ FEW003 SCT005 BKN010
                        07/06 Q1027 TEMPO BKN005=
200902190620 METAR COR EGLL 190620Z VRB02KT 2000 -DZRA SCT002 OVC004 07/06
                        Q1027 NOSIG=
200902190550 METAR COR EGLL 190550Z 00000KT 1900 -DZ FEW001 BKN002 07/06
                        Q1027 NOSIG=
200902190520 METAR COR EGLL 190520Z 26002KT 1400 BR SCT002 BKN003 07/06
                        Q1026 TEMPO 3000=
200902190450 METAR COR EGLL 190450Z VRB02KT 1800 -DZ FEW002 BKN003 OVC016
                        07/06 Q1026 NOSIG=
200902190420 METAR COR EGLL 190420Z VRB02KT 2400 BR BKN004 OVC017 07/06
                        Q1026 NOSIG=
200902190350 METAR COR EGLL 190350Z 00000KT 2400 BR SCT003 BKN014 OVC017
                        07/06 Q1026 TEMPO BKN003=
200902190320 METAR COR EGLL 190320Z 20003KT 2000 BR BKN003 BKN014 07/06
                        Q1026 NOSIG=
200902190250 METAR COR EGLL 190250Z 15003KT 2000 BR BKN003 BKN018 07/06
                        Q1026 NOSIG=
200902190220 METAR COR EGLL 190220Z VRB03KT 1800 BR BKN003 BKN018 07/06
                        Q1026 NOSIG=
200902190150 METAR COR EGLL 190150Z 10002KT 1500 BR BKN003 BKN017 07/06
                        Q1026 NOSIG=
200902190120 METAR COR EGLL 190120Z 09004KT 1700 -DZ SCT004 BKN006 07/06
                        Q1026 NOSIG=
200902190050 METAR COR EGLL 190050Z 10004KT 2100 -DZ BKN004 07/06 Q1026
                        BECMG BKN008=
200902190020 METAR COR EGLL 190020Z 08004KT 2900 -DZ BKN005 BKN009 07/06
                        Q1026 NOSIG=
200902182350 METAR COR EGLL 182350Z 09004KT 2800 -DZ SCT005 BKN009 07/06
                        Q1026 NOSIG=
200902182320 METAR COR EGLL 182320Z 10004KT 080V170 4500 HZ SCT008 BKN010
                        07/06 Q1026 NOSIG=
200902182250 METAR COR EGLL 182250Z VRB04KT 5000 HZ FEW006 BKN010 07/06
                        Q1026 NOSIG=
200902182220 METAR COR EGLL 182220Z VRB04KT 4500 HZ FEW004 SCT008 BKN010
                        07/06 Q1026 TEMPO BKN008=
200902182150 METAR COR EGLL 182150Z VRB04KT 4800 -DZ SCT006 BKN008 BKN016
                        07/06 Q1026 BECMG 6000 NSW=
200902182120 METAR COR EGLL 182120Z VRB04KT 3500 -DZ FEW005 BKN008 07/06
                        Q1026 NOSIG=
200902182050 METAR COR EGLL 182050Z 16005KT 110V220 4000 -DZ BKN007 07/06
                        Q1026 NOSIG=
200902182020 METAR COR EGLL 182020Z VRB03KT 4000 -DZ SCT008 BKN011 07/06
                        Q1026 NOSIG=
200902181950 METAR COR EGLL 181950Z 10004KT 050V180 6000 -DZ SCT008 BKN012
                        08/06 Q1026 TEMPO BKN008=
200902181920 METAR COR EGLL 181920Z 06004KT 9999 BKN010 09/06 Q1026 TEMPO
                        BKN009=
200902181850 METAR COR EGLL 181850Z 07004KT 9999 BKN013 09/06 Q1026 NOSIG=
200902181820 METAR COR EGLL 181820Z VRB03KT 9999 FEW014 BKN016 09/06 Q1026
                        BECMG BKN013=
200902181750 METAR COR EGLL 181750Z VRB03KT 9999 FEW014 BKN017 09/06 Q1026
                        NOSIG=
200902181720 METAR COR EGLL 181720Z 34003KT 9999 FEW012 BKN018 09/06 Q1026
                        NOSIG=
200902181650 METAR EGLL 181650Z VRB02KT 9999 FEW014 BKN020 09/06 Q1026=
200902181620 METAR COR EGLL 181620Z 30004KT 280V340 9999 FEW013 BKN022
                        09/06 Q1026 NOSIG=
200902181550 METAR COR EGLL 181550Z 32004KT 9000 VCSH FEW014 BKN024 09/06
                        Q1026 NOSIG=
200902181520 METAR COR EGLL 181520Z VRB03KT 9999 VCSH FEW016 BKN025 09/06
                        Q1026 NOSIG=
200902181450 METAR COR EGLL 181450Z VRB03KT 9999 FEW017 BKN025 10/05 Q1026
                        NOSIG=
200902181420 METAR COR EGLL 181420Z VRB03KT 9999 FEW017 BKN027 10/06 Q1026
                        NOSIG=
200902181350 METAR COR EGLL 181350Z VRB03KT 9999 SCT017 BKN030 10/06 Q1026
                        NOSIG=
200902181320 METAR COR EGLL 181320Z 29004KT 260V340 9999 BKN020 10/06
                        Q1026 NOSIG=
200902181250 METAR COR EGLL 181250Z VRB03KT 9999 BKN020 10/05 Q1027 NOSIG=
200902181220 METAR COR EGLL 181220Z VRB03KT 9999 BKN020 10/05 Q1027 NOSIG=
200902181150 METAR COR EGLL 181150Z VRB02KT 9999 SCT020 BKN044 10/05 Q1027
                        NOSIG=
200902181120 METAR COR EGLL 181120Z 07004KT 030V110 9999 SCT017 BKN044
                        10/05 Q1027 NOSIG=
200902181050 METAR COR EGLL 181050Z 04004KT 360V080 9999 FEW016 SCT030
                        10/06 Q1027 NOSIG=
200902181020 METAR COR EGLL 181020Z 06004KT 030V090 9999 FEW012 BKN046
                        09/06 Q1027 TEMPO BKN012=
200902180950 METAR COR EGLL 180950Z VRB03KT 9999 FEW012 BKN042 09/06 Q1027
                        TEMPO BKN010=
200902180920 METAR COR EGLL 180920Z 07005KT 9999 FEW015 BKN044 09/06 Q1027
                        TEMPO BKN010=
200902180850 METAR COR EGLL 180850Z 06005KT 9999 FEW015 BKN045 09/06 Q1027
                        TEMPO BKN010=
200902180820 METAR EGLL 180820Z 06006KT 9999 FEW012 BKN039 08/06 Q1027=
200902180750 METAR COR EGLL 180750Z 06004KT 9999 BKN038 08/07 Q1027 TEMPO
                        BKN009=
200902180720 METAR COR EGLL 180720Z VRB02KT 9999 FEW004 BKN038 08/07 Q1027
                        NOSIG=
200902180650 METAR COR EGLL 180650Z VRB02KT 9999 FEW010 BKN037 08/07 Q1027
                        NOSIG=
200902180620 METAR EGLL 180620Z VRB03KT 9999 FEW022 SCT034 BKN041 08/07
                        Q1027=
200902180550 METAR COR EGLL 180550Z 04003KT 7000 FEW005 SCT021 BKN041
                        08/07 Q1027 NOSIG=
200902180520 METAR COR EGLL 180520Z VRB03KT 7000 FEW005 SCT012 BKN030
                        08/07 Q1027 TEMPO BKN012=
200902180450 METAR EGLL 180450Z 05004KT 010V080 3500 BR FEW003 BKN005
                        BKN010 09/08 Q1027=
200902180420 METAR COR EGLL 180420Z 02004KT 350V060 1500 -DZ BKN005 BKN008
                        09/08 Q1027 NOSIG=
200902180350 METAR COR EGLL 180350Z 02004KT 350V050 2200 -DZ BKN005 09/08
                        Q1027 NOSIG=
200902180320 METAR COR EGLL 180320Z 35004KT 3000 BR FEW006 SCT010 BKN033
                        09/08 Q1027 BECMG BKN012=
200902180250 METAR COR EGLL 180250Z 35004KT 3500 BR FEW007 SCT010 BKN034
                        09/07 Q1027 BECMG BKN012=
200902180220 METAR COR EGLL 180220Z 35004KT 3700 BR FEW007 SCT010 BKN038
                        09/07 Q1027 BECMG BKN012=
200902180150 METAR COR EGLL 180150Z 35003KT 4400 HZ FEW008 SCT016 BKN038
                        09/07 Q1027 TEMPO BKN012=
200902180120 METAR COR EGLL 180120Z 35004KT 4900 HZ FEW008 SCT016 BKN037
                        09/08 Q1027 NOSIG=
200902180050 METAR COR EGLL 180050Z VRB03KT 5000 HZ BKN013 09/08 Q1027
                        NOSIG=
200902180020 METAR EGLL 180020Z VRB03KT 5000 HZ BKN015 09/08 Q1027=
200902172350 METAR COR EGLL 172350Z 32004KT 300V360 5000 HZ FEW014 BKN019
                        09/08 Q1027 BECMG BKN014=
200902172320 METAR COR EGLL 172320Z 30004KT 5000 HZ SCT012 BKN014 09/08
                        Q1027 NOSIG=
200902172250 METAR COR EGLL 172250Z VRB03KT 4900 HZ FEW006 SCT012 BKN016
                        09/08 Q1027 TEMPO BKN010=
200902172220 METAR COR EGLL 172220Z 35004KT 5000 HZ SCT007 SCT011 BKN013
                        10/08 Q1027 TEMPO BKN008=
200902172150 METAR EGLL 172150Z 35004KT 7000 BKN009 BKN029 10/08 Q1027=
200902172120 METAR COR EGLL 172120Z VRB03KT 7000 BKN011 10/08 Q1027 NOSIG=
200902172050 METAR COR EGLL 172050Z 34003KT 7000 BKN012 10/08 Q1027 NOSIG=
200902172020 METAR COR EGLL 172020Z VRB03KT 8000 BKN017 10/08 Q1027 BECMG
                        BKN012=
200902171950 METAR COR EGLL 171950Z VRB03KT 9000 OVC019 10/08 Q1027 BECMG
                        BKN012=
200902171920 METAR COR EGLL 171920Z 32005KT 9000 BKN019 10/08 Q1027 NOSIG=
200902171850 METAR COR EGLL 171850Z 32005KT 290V350 9999 SCT019 SCT025
                        10/08 Q1027 NOSIG=
200902171820 METAR COR EGLL 171820Z VRB02KT 9999 SCT022 11/08 Q1027 NOSIG=
200902171750 METAR COR EGLL 171750Z VRB02KT 9000 BKN020 11/08 Q1027 NOSIG=
200902171720 METAR COR EGLL 171720Z VRB03KT 8000 -RA BKN015 BKN017 11/08
                        Q1027 BECMG BKN012=
200902171650 METAR COR EGLL 171650Z 34004KT 9000 -DZ OVC015 11/08 Q1026
                        BECMG BKN012=
200902171620 METAR COR EGLL 171620Z 32005KT 290V360 9999 FEW013 SCT015
                        BKN020 11/08 Q1026 TEMPO BKN014=
200902171550 METAR COR EGLL 171550Z 32006KT 290V010 9999 BKN015 11/08
                        Q1026 BECMG BKN012=
200902171520 METAR COR EGLL 171520Z 32006KT 290V010 9999 BKN018 11/07
                        Q1026 BECMG BKN014=
200902171450 METAR COR EGLL 171450Z 32007KT 290V360 9999 BKN014 BKN026
                        11/07 Q1026 NOSIG=
200902171420 METAR COR EGLL 171420Z 31008KT 9999 BKN013 BKN025 11/07 Q1025
                        NOSIG=
200902171350 METAR COR EGLL 171350Z 31007KT 9999 BKN014 11/07 Q1025 NOSIG=
200902171320 METAR COR EGLL 171320Z 30008KT 280V350 9999 BKN013 BKN022
                        11/07 Q1026 NOSIG=
200902171250 METAR COR EGLL 171250Z 31009KT 9999 BKN014 11/07 Q1026 TEMPO
                        SCT015=
200902171220 METAR COR EGLL 171220Z 31008KT 9999 BKN019 11/07 Q1026 NOSIG=
200902171150 METAR COR EGLL 171150Z 30007KT 9999 FEW017 BKN043 10/06 Q1026
                        NOSIG=
200902171120 METAR COR EGLL 171120Z 31009KT 290V350 9999 FEW015 BKN034
                        10/06 Q1026 NOSIG=
200902171050 METAR COR EGLL 171050Z 32008KT 290V350 9999 FEW015 SCT035
                        BKN040 10/06 Q1026 NOSIG=
200902171020 METAR COR EGLL 171020Z 31008KT 9999 FEW015 SCT030 BKN034
                        10/06 Q1026 NOSIG=
200902170950 METAR COR EGLL 170950Z 31007KT 270V350 9999 BKN035 09/05
                        Q1026 NOSIG=
200902170920 METAR COR EGLL 170920Z 31007KT 9999 BKN037 09/05 Q1026 NOSIG=
200902170850 METAR COR EGLL 170850Z 30005KT 280V340 9999 BKN038 08/05
                        Q1026 NOSIG=
200902170820 METAR COR EGLL 170820Z 29007KT 9999 BKN038 08/05 Q1025 NOSIG=
200902170750 METAR COR EGLL 170750Z 29006KT 9999 BKN038 08/05 Q1025 NOSIG=
200902170720 METAR COR EGLL 170720Z 29006KT 9999 BKN038 07/04 Q1025 NOSIG=
200902170650 METAR COR EGLL 170650Z 28006KT 9999 BKN041 07/04 Q1025 NOSIG=
200902170620 METAR COR EGLL 170620Z 27006KT 9999 BKN041 07/04 Q1025 NOSIG=
200902170550 METAR COR EGLL 170550Z 27004KT 9999 BKN040 07/04 Q1025 NOSIG=
200902170520 METAR COR EGLL 170520Z 28006KT 9999 BKN039 06/04 Q1024 NOSIG=
200902170450 METAR EGLL 170450Z 28008KT 9999 BKN038 06/04 Q1024=
200902170420 METAR COR EGLL 170420Z 28009KT 9999 BKN037 06/04 Q1024 NOSIG=
200902170350 METAR COR EGLL 170350Z 28009KT 9999 BKN038 06/04 Q1024 NOSIG=
200902170320 METAR COR EGLL 170320Z 28009KT 9999 BKN040 05/03 Q1024 NOSIG=
200902170250 METAR COR EGLL 170250Z 28008KT 9999 FEW041 05/03 Q1025 NOSIG=
200902170220 METAR COR EGLL 170220Z 27008KT CAVOK 05/03 Q1025 NOSIG=
200902170150 METAR COR EGLL 170150Z 27007KT CAVOK 05/03 Q1025 NOSIG=
200902170120 METAR COR EGLL 170120Z 28007KT CAVOK 05/03 Q1025 NOSIG=
200902170050 METAR COR EGLL 170050Z 27006KT 9999 FEW037 06/03 Q1025 NOSIG=
200902170020 METAR COR EGLL 170020Z 27007KT 9999 FEW037 06/04 Q1025 NOSIG=
200902162350 METAR COR EGLL 162350Z 28008KT 9999 SCT037 07/04 Q1025 NOSIG=
200902162320 METAR COR EGLL 162320Z 28007KT 9999 BKN038 07/04 Q1025 NOSIG=
200902162250 METAR COR EGLL 162250Z 28008KT 9999 SCT038 06/04 Q1025 NOSIG=
200902162220 METAR COR EGLL 162220Z 28010KT CAVOK 07/04 Q1025 NOSIG=
200902162150 METAR COR EGLL 162150Z 27008KT CAVOK 07/03 Q1025 NOSIG=
200902162120 METAR COR EGLL 162120Z 28007KT CAVOK 08/03 Q1025 NOSIG=
200902162050 METAR COR EGLL 162050Z 28008KT CAVOK 09/03 Q1025 NOSIG=
200902162020 METAR COR EGLL 162020Z 29010KT CAVOK 09/03 Q1025 NOSIG=
200902161950 METAR COR EGLL 161950Z 28008KT CAVOK 08/03 Q1025 NOSIG=
200902161920 METAR COR EGLL 161920Z 27010KT CAVOK 09/03 Q1025 NOSIG=
200902161850 METAR COR EGLL 161850Z 27009KT CAVOK 09/03 Q1025 NOSIG=
200902161820 METAR COR EGLL 161820Z 27008KT CAVOK 09/03 Q1025 NOSIG=
200902161750 METAR COR EGLL 161750Z 28007KT CAVOK 09/04 Q1025 NOSIG=
200902161720 METAR COR EGLL 161720Z 28007KT 9999 FEW041 10/04 Q1025 NOSIG=
200902161650 METAR COR EGLL 161650Z 29006KT 9999 FEW043 10/04 Q1025 NOSIG=
200902161620 METAR COR EGLL 161620Z 30007KT 9999 FEW034 11/04 Q1025 NOSIG=
200902161550 METAR COR EGLL 161550Z 28007KT 9999 FEW024 11/04 Q1025 NOSIG=
200902161520 METAR COR EGLL 161520Z 29006KT 9999 FEW030 11/04 Q1025 NOSIG=
200902161450 METAR COR EGLL 161450Z 29007KT 9999 FEW028 11/04 Q1025 NOSIG=
200902161420 METAR COR EGLL 161420Z 29009KT 9999 FEW024 11/04 Q1025 NOSIG=
200902161350 METAR COR EGLL 161350Z 31008KT 9999 FEW024 12/03 Q1025 NOSIG=
200902161320 METAR COR EGLL 161320Z 30008KT 9999 FEW036 12/04 Q1026 NOSIG=
200902161250 METAR COR EGLL 161250Z 31008KT 9999 FEW036 12/05 Q1026 NOSIG=
200902161220 METAR COR EGLL 161220Z 30007KT 9999 FEW035 11/06 Q1026 NOSIG=
200902161150 METAR COR EGLL 161150Z 29007KT 9999 FEW020 10/06 Q1026 NOSIG=
200902161120 METAR COR EGLL 161120Z 29006KT CAVOK 09/06 Q1026 NOSIG=
200902161050 METAR COR EGLL 161050Z 29007KT CAVOK 08/05 Q1026 NOSIG=
200902161020 METAR COR EGLL 161020Z 28006KT CAVOK 07/05 Q1026 NOSIG=
200902160950 METAR COR EGLL 160950Z 27006KT 9999 FEW046 07/05 Q1026 NOSIG=
200902160920 METAR COR EGLL 160920Z 28005KT 9999 SCT045 06/04 Q1026 NOSIG=
200902160850 METAR COR EGLL 160850Z 27005KT 9999 SCT045 06/04 Q1026 NOSIG=
200902160820 METAR COR EGLL 160820Z 29004KT 9999 FEW040 05/04 Q1026 NOSIG=
200902160750 METAR COR EGLL 160750Z VRB02KT CAVOK 04/03 Q1026 NOSIG=
200902160720 METAR COR EGLL 160720Z 28005KT 9999 FEW041 04/03 Q1026 NOSIG=
200902160650 METAR COR EGLL 160650Z 29006KT 9999 FEW038 05/03 Q1026 NOSIG=
200902160620 METAR COR EGLL 160620Z 29006KT 9999 SCT035 05/03 Q1026 NOSIG=
200902160550 METAR COR EGLL 160550Z 28006KT 9999 SCT034 05/03 Q1026 NOSIG=
200902160520 METAR COR EGLL 160520Z 29006KT 9999 FEW033 04/03 Q1026 NOSIG=
200902160450 METAR COR EGLL 160450Z 27005KT CAVOK 04/03 Q1026 NOSIG=
200902160420 METAR COR EGLL 160420Z 27006KT 9999 FEW015 04/03 Q1026 NOSIG=
200902160350 METAR COR EGLL 160350Z 28006KT 9999 FEW015 04/03 Q1026 NOSIG=
200902160320 METAR COR EGLL 160320Z 27006KT CAVOK 04/03 Q1026 NOSIG=
200902160250 METAR COR EGLL 160250Z 27005KT CAVOK 04/03 Q1026 NOSIG=
200902160220 METAR COR EGLL 160220Z 28004KT 9999 FEW022 04/03 Q1026 NOSIG=
200902160150 METAR COR EGLL 160150Z 29007KT CAVOK 03/02 Q1026 NOSIG=
200902160120 METAR COR EGLL 160120Z 28005KT CAVOK 05/03 Q1026 NOSIG=
200902160050 METAR COR EGLL 160050Z 27006KT CAVOK 04/03 Q1026 NOSIG=
200902160020 METAR COR EGLL 160020Z 29004KT CAVOK 05/03 Q1026 NOSIG=
200902152350 METAR COR EGLL 152350Z 29006KT 9999 SCT031 06/04 Q1026 NOSIG=
200902152320 METAR COR EGLL 152320Z 29007KT 9999 BKN031 07/04 Q1026 NOSIG=
200902152250 METAR COR EGLL 152250Z 28008KT 9999 SCT031 07/05 Q1026 NOSIG=
200902152220 METAR COR EGLL 152220Z 27007KT 9999 SCT035 07/05 Q1026 NOSIG=
200902152150 METAR COR EGLL 152150Z 28006KT 9999 FEW039 07/05 Q1026 NOSIG=
200902152120 METAR COR EGLL 152120Z 28007KT 9999 FEW045 07/05 Q1026 NOSIG=
200902152050 METAR COR EGLL 152050Z 27008KT 9999 FEW046 06/04 Q1026 NOSIG=
200902152020 METAR COR EGLL 152020Z 27007KT 9999 FEW046 06/04 Q1026 NOSIG=
200902151950 METAR COR EGLL 151950Z 28008KT CAVOK 06/04 Q1026 NOSIG=
200902151920 METAR COR EGLL 151920Z 27007KT CAVOK 07/05 Q1026 NOSIG=
200902151850 METAR COR EGLL 151850Z 27008KT CAVOK 07/05 Q1026 NOSIG=
200902151820 METAR COR EGLL 151820Z 27007KT 9999 FEW031 07/05 Q1026 NOSIG=
200902151750 METAR COR EGLL 151750Z 26009KT 9999 FEW043 07/05 Q1026 NOSIG=
200902151720 METAR COR EGLL 151720Z 26010KT 9999 BKN046 08/05 Q1026 NOSIG=
200902151650 METAR COR EGLL 151650Z 25009KT 9999 SCT039 08/05 Q1026 NOSIG=
200902151620 METAR COR EGLL 151620Z 27008KT 9999 FEW022 BKN030 08/05 Q1026
                        REDZ NOSIG=
200902151550 METAR COR EGLL 151550Z 27008KT 9999 5000NE DZ FEW021 BKN029
                        08/05 Q1026 NOSIG=
200902151520 METAR COR EGLL 151520Z 27011KT 9999 5000NE -DZ FEW021 BKN036
                        08/04 Q1026 NOSIG=
200902151450 METAR COR EGLL 151450Z 27010KT 9999 FEW032 BKN046 09/04 Q1026
                        NOSIG=
200902151420 METAR COR EGLL 151420Z 26010KT 9999 FEW044 09/04 Q1027 TEMPO
                        BKN010=
200902151350 METAR COR EGLL 151350Z 27010KT 9999 FEW044 08/04 Q1027 TEMPO
                        BKN009=
200902151320 METAR COR EGLL 151320Z 27011KT CAVOK 08/03 Q1027 TEMPO BKN014=
200902151250 METAR COR EGLL 151250Z 26011KT CAVOK 08/03 Q1027 TEMPO BKN009=
200902151220 METAR COR EGLL 151220Z 27009KT CAVOK 08/04 Q1028 NOSIG=
200902151150 METAR COR EGLL 151150Z 26009KT CAVOK 07/03 Q1028 NOSIG=
200902151120 METAR COR EGLL 151120Z 24009KT CAVOK 07/03 Q1028 NOSIG=
200902151050 METAR COR EGLL 151050Z 26009KT CAVOK 06/03 Q1028 NOSIG=
200902151020 METAR COR EGLL 151020Z 25009KT CAVOK 06/03 Q1028 NOSIG=
200902150950 METAR COR EGLL 150950Z 25008KT CAVOK 06/02 Q1029 NOSIG=
200902150920 METAR COR EGLL 150920Z 25008KT CAVOK 05/02 Q1029 NOSIG=
200902150850 METAR COR EGLL 150850Z 24006KT 200V270 CAVOK 04/01 Q1029
                        NOSIG=
200902150820 METAR COR EGLL 150820Z 24006KT 210V270 CAVOK 04/01 Q1028
                        NOSIG=
200902150750 METAR COR EGLL 150750Z 23006KT CAVOK 04/01 Q1028 NOSIG=
200902150720 METAR COR EGLL 150720Z 24008KT CAVOK 04/01 Q1028 TEMPO BKN030=
200902150650 METAR COR EGLL 150650Z 24008KT 9999 FEW016 04/01 Q1028 NOSIG=
200902150620 METAR COR EGLL 150620Z 23006KT 210V270 9999 FEW014 SCT032
                        04/01 Q1028 NOSIG=
200902150550 METAR COR EGLL 150550Z 23006KT 9999 FEW014 BKN022 04/00 Q1028
                        NOSIG=
200902150520 METAR COR EGLL 150520Z 22004KT 200V260 9999 SCT014 BKN022
                        04/00 Q1028 TEMPO BKN014=
200902150450 METAR COR EGLL 150450Z 23006KT 9999 BKN020 04/00 Q1029 TEMPO
                        BKN014=
200902150420 METAR COR EGLL 150420Z 22005KT 9999 OVC021 04/00 Q1029 TEMPO
                        BKN014=
200902150350 METAR COR EGLL 150350Z 21005KT 9999 BKN022 04/00 Q1029 TEMPO
                        BKN014=
200902150320 METAR COR EGLL 150320Z 23006KT 9999 OVC024 04/M00 Q1029 NOSIG=
200902150250 METAR COR EGLL 150250Z 23005KT 9999 OVC024 04/M00 Q1029 NOSIG=
200902150220 METAR COR EGLL 150220Z 22005KT 9999 OVC026 04/M01 Q1029 NOSIG=
200902150150 METAR COR EGLL 150150Z 22005KT 9999 OVC027 04/M01 Q1029 NOSIG=
200902150120 METAR COR EGLL 150120Z 21005KT 9999 OVC027 04/M01 Q1030 NOSIG=
200902150050 METAR COR EGLL 150050Z 21005KT 9999 BKN029 03/M01 Q1030 NOSIG=
200902150020 METAR COR EGLL 150020Z 21005KT 9999 OVC029 04/M02 Q1030 NOSIG=
200902142350 METAR COR EGLL 142350Z 20005KT 9999 OVC032 04/M02 Q1030 NOSIG=
200902142320 METAR COR EGLL 142320Z 20005KT 9999 BKN034 04/M02 Q1030 NOSIG=
200902142250 METAR COR EGLL 142250Z 21006KT 9999 BKN034 04/M02 Q1030 NOSIG=
200902142220 METAR COR EGLL 142220Z 21006KT 9999 BKN034 04/M02 Q1030 NOSIG=
200902142150 METAR COR EGLL 142150Z 21007KT 170V240 9999 BKN034 04/M02
                        Q1030 NOSIG=
200902142120 METAR COR EGLL 142120Z 21007KT 9999 OVC039 04/M02 Q1030 NOSIG=
200902142050 METAR COR EGLL 142050Z 21006KT 9999 BKN041 04/M02 Q1030 NOSIG=
200902142020 METAR COR EGLL 142020Z 20004KT 170V230 9999 BKN041 04/M02
                        Q1030 NOSIG=
200902141950 METAR COR EGLL 141950Z 21005KT 190V270 9999 BKN043 04/M03
                        Q1030 NOSIG=
200902141920 METAR COR EGLL 141920Z 18004KT CAVOK 04/M03 Q1030 NOSIG=
200902141850 METAR COR EGLL 141850Z 20005KT 170V230 9999 FEW045 04/M03
                        Q1030 NOSIG=
200902141820 METAR COR EGLL 141820Z VRB03KT CAVOK 04/M03 Q1030 NOSIG=
200902141750 METAR COR EGLL 141750Z 14004KT 090V180 9999 FEW046 04/M03
                        Q1030 NOSIG=
200902141720 METAR COR EGLL 141720Z 14004KT 110V180 9999 SCT045 05/M03
                        Q1029 NOSIG=
200902141650 METAR COR EGLL 141650Z VRB02KT 9999 FEW040 05/M03 Q1030 NOSIG=
200902141620 METAR COR EGLL 141620Z VRB02KT 9999 FEW038 05/M03 Q1030 NOSIG=
200902141550 METAR COR EGLL 141550Z VRB03KT 9999 FEW035 SCT042 06/M02
                        Q1030 NOSIG=
200902141520 METAR COR EGLL 141520Z 14004KT 090V190 9999 FEW035 BKN042
                        06/M02 Q1030 NOSIG=
200902141450 METAR COR EGLL 141450Z VRB03KT 9999 BKN034 BKN040 06/M02
                        Q1029 NOSIG=
200902141420 METAR COR EGLL 141420Z VRB04KT 9999 BKN030 BKN043 06/M01
                        Q1029 NOSIG=
200902141350 METAR COR EGLL 141350Z VRB03KT 9999 SCT036 BKN042 06/M01
                        Q1029 NOSIG=
200902141320 METAR COR EGLL 141320Z VRB04KT 9999 SCT023 SCT041 05/M01
                        Q1029 NOSIG=
200902141250 METAR COR EGLL 141250Z VRB03KT 9999 FEW027 SCT045 06/M00
                        Q1030 NOSIG=
200902141220 METAR COR EGLL 141220Z VRB03KT 9999 FEW018 SCT045 06/01 Q1030
                        NOSIG=
200902141150 METAR COR EGLL 141150Z 05004KT 360V100 9999 FEW020 SCT045
                        05/01 Q1030 NOSIG=
200902141120 METAR COR EGLL 141120Z 03004KT 010V070 CAVOK 06/01 Q1030
                        NOSIG=
200902141050 METAR COR EGLL 141050Z 36003KT CAVOK 04/01 Q1029 NOSIG=
200902141020 METAR COR EGLL 141020Z VRB02KT 9000 FEW045 02/00 Q1029 NOSIG=
200902140950 METAR COR EGLL 140950Z 29003KT 9000 SCT044 01/M00 Q1029 NOSIG=
200902140920 METAR COR EGLL 140920Z 30003KT 9000 SCT046 M00/M01 Q1029
                        NOSIG=
200902140850 METAR COR EGLL 140850Z 29003KT 9000 SCT043 M00/M02 Q1029
                        NOSIG=
200902140820 METAR COR EGLL 140820Z 29004KT 9000 SCT041 M00/M02 Q1029
                        NOSIG=
200902140750 METAR COR EGLL 140750Z 31004KT 9000 FEW041 M01/M02 Q1029
                        NOSIG=
200902140720 METAR COR EGLL 140720Z 30004KT 8000 NSC M01/M02 Q1028 NOSIG=
200902140650 METAR COR EGLL 140650Z 29004KT 9000 NSC M00/M02 Q1028 NOSIG=
200902140620 METAR COR EGLL 140620Z VRB03KT 9000 NSC M01/M01 Q1028 NOSIG=
200902140550 METAR COR EGLL 140550Z 29002KT 9000 NSC M01/M02 Q1027 NOSIG=
200902140520 METAR COR EGLL 140520Z 28003KT 9000 NSC M01/M02 Q1027 NOSIG=
200902140450 METAR COR EGLL 140450Z 27005KT 9000 NSC M01/M02 Q1027 NOSIG=
200902140420 METAR EGLL 140420Z 28002KT 9000 NSC M01/M02 Q1027=
200902140350 METAR EGLL 140350Z 26003KT 9000 NSC M01/M02 Q1027=
200902140320 METAR COR EGLL 140320Z 00000KT 9000 NSC M01/M02 Q1027 NOSIG=
200902140250 METAR COR EGLL 140250Z 30002KT 9000 NSC M01/M02 Q1027 NOSIG=
200902140220 METAR COR EGLL 140220Z 26004KT 9000 NSC M01/M02 Q1027 NOSIG=
200902140150 METAR COR EGLL 140150Z 00000KT CAVOK M00/M02 Q1027 NOSIG=
200902140120 METAR COR EGLL 140120Z VRB02KT CAVOK M00/M02 Q1027 NOSIG=
200902140050 METAR COR EGLL 140050Z VRB02KT 9000 NSC M01/M02 Q1027 NOSIG=
200902140020 METAR COR EGLL 140020Z 28003KT CAVOK M00/M02 Q1027 NOSIG=
200902132350 METAR COR EGLL 132350Z 30002KT CAVOK 00/M02 Q1027 NOSIG=
200902132320 METAR COR EGLL 132320Z VRB03KT CAVOK 01/M01 Q1026 NOSIG=
200902132250 METAR COR EGLL 132250Z 35002KT CAVOK 03/M00 Q1026 NOSIG=
200902132220 METAR COR EGLL 132220Z VRB03KT CAVOK 03/M00 Q1026 NOSIG=
200902132150 METAR COR EGLL 132150Z VRB02KT CAVOK 02/M00 Q1026 NOSIG=
200902132120 METAR COR EGLL 132120Z 35003KT CAVOK 03/M00 Q1026 NOSIG=
200902132050 METAR COR EGLL 132050Z 36004KT CAVOK 03/00 Q1026 NOSIG=
200902132020 METAR COR EGLL 132020Z 36004KT CAVOK 03/00 Q1026 NOSIG=
200902131950 METAR COR EGLL 131950Z 35003KT CAVOK 04/00 Q1025 NOSIG=
200902131920 METAR COR EGLL 131920Z 35003KT CAVOK 04/00 Q1025 NOSIG=
200902131850 METAR COR EGLL 131850Z 35004KT CAVOK 04/00 Q1025 NOSIG=
200902131820 METAR COR EGLL 131820Z VRB03KT CAVOK 04/M00 Q1025 NOSIG=
200902131750 METAR COR EGLL 131750Z 01004KT 330V050 9999 SCT024 05/M00
                        Q1025 NOSIG=
200902131720 METAR COR EGLL 131720Z 36005KT 9999 SCT025 BKN040 06/M00
                        Q1024 NOSIG=
200902131650 METAR COR EGLL 131650Z 36006KT 9999 FEW026 BKN038 06/M00
                        Q1024 NOSIG=
200902131620 METAR COR EGLL 131620Z 36007KT 330V030 9999 SCT027 BKN033
                        06/M00 Q1024 NOSIG=
200902131550 METAR COR EGLL 131550Z 02005KT 330V060 9999 FEW029 06/M00
                        Q1024 NOSIG=
200902131520 METAR COR EGLL 131520Z 35008KT 320V030 9999 FEW026 SCT030
                        06/M00 Q1024 NOSIG=
200902131450 METAR COR EGLL 131450Z 35007KT 320V030 9999 FEW026 SCT038
                        06/M00 Q1024 NOSIG=
200902131420 METAR COR EGLL 131420Z 35007KT 310V010 9999 FEW028 BKN038
                        06/00 Q1024 NOSIG=
200902131350 METAR COR EGLL 131350Z 01007KT 330V040 9999 FEW026 SCT033
                        06/00 Q1024 NOSIG=
200902131320 METAR COR EGLL 131320Z 36008KT 330V040 9999 BKN023 06/00
                        Q1023 NOSIG=
200902131250 METAR COR EGLL 131250Z 02008KT 330V080 9999 FEW021 SCT023
                        06/01 Q1023 NOSIG=
200902131220 METAR COR EGLL 131220Z 36008KT 320V020 9999 BKN022 05/01
                        Q1023 NOSIG=
200902131150 METAR COR EGLL 131150Z 36006KT 310V030 9999 SCT024 SCT040
                        06/01 Q1023 NOSIG=
200902131120 METAR EGLL 131120Z 36007KT 320V030 9999 BKN016 05/02 Q1023=
200902131050 METAR COR EGLL 131050Z 36008KT 330V030 9999 SCT015 05/02
                        Q1023 NOSIG=
200902131020 METAR COR EGLL 131020Z 35006KT 320V020 9999 SCT016 BKN032
                        05/02 Q1023 NOSIG=
200902130950 METAR COR EGLL 130950Z 35007KT 310V040 9999 FEW016 SCT032
                        04/01 Q1022 NOSIG=
200902130920 METAR COR EGLL 130920Z 35005KT 320V020 9999 BKN027 04/01
                        Q1022 NOSIG=
200902130850 METAR COR EGLL 130850Z 34005KT 310V020 9999 BKN023 03/01
                        Q1022 NOSIG=
200902130820 METAR COR EGLL 130820Z 35005KT 320V020 9999 BKN023 03/01
                        Q1022 NOSIG=
200902130750 METAR COR EGLL 130750Z 36005KT 330V030 9999 SCT014 BKN022
                        03/01 Q1022 TEMPO BKN014=
200902130720 METAR COR EGLL 130720Z 36006KT 330V040 9999 BKN011 BKN018
                        03/02 Q1021 NOSIG=
200902130650 METAR COR EGLL 130650Z 35007KT 320V040 9999 BKN012 BKN018
                        03/02 Q1021 NOSIG=
200902130620 METAR COR EGLL 130620Z 36007KT 9999 BKN012 03/02 Q1021 TEMPO
                        BKN008=
200902130550 METAR COR EGLL 130550Z 35007KT 320V020 9999 BKN010 03/02
                        Q1020 TEMPO BKN008=
200902130520 METAR EGLL 130520Z NIL=
200902130450 METAR COR EGLL 130450Z 36010KT 9999 BKN005 04/03 Q1020 TEMPO
                        7000 BKN004=
200902130420 METAR COR EGLL 130420Z 36009KT 9999 BKN005 04/03 Q1020 TEMPO
                        7000 BKN004=
200902130350 METAR EGLL 130350Z NIL=
200902130320 METAR EGLL 130320Z 30005KT 8000 BKN008 05/05 Q1019=
200902130250 METAR COR EGLL 130250Z 30003KT 6000 FEW003 OVC008 05/04 Q1019
                        TEMPO 3000 BR BKN003=
200902130220 METAR COR EGLL 130220Z 28004KT 2000 BR BKN003 05/04 Q1019
                        REDZ NOSIG=
200902130150 METAR COR EGLL 130150Z VRB02KT 2000 DZ BKN003 05/04 Q1019
                        NOSIG=
200902130120 METAR COR EGLL 130120Z 30006KT 260V360 2500 -RA FEW004 BKN010
                        04/04 Q1019 REDZ TEMPO BKN004=
200902130050 METAR COR EGLL 130050Z 29007KT 3000 DZ SCT004 SCT010 BKN016
                        04/04 Q1019 TEMPO BKN004=
200902130020 METAR EGLL 130020Z 27010KT 3000 DZ SCT007 OVC018 04/03 Q1019=
200902122350 METAR COR EGLL 122350Z 26010KT 6000 -RA BKN009 BKN020 04/02
                        Q1019 NOSIG=
200902122320 METAR COR EGLL 122320Z 24009KT 9999 OVC012 02/01 Q1020 TEMPO
                        4000 - RASN BKN008=
200902122250 METAR COR EGLL 122250Z 23009KT 9999 OVC015 02/01 Q1020 TEMPO
                        4000 - RASN BKN008=
200902122220 METAR COR EGLL 122220Z 22008KT 9999 OVC017 01/01 Q1021 TEMPO
                        4000 - RASN BKN008=
200902122150 METAR COR EGLL 122150Z 21007KT 5000 -RASN FEW006 BKN020 01/00
                        Q1021 TEMPO 4000=
200902122120 METAR COR EGLL 122120Z 21008KT 170V250 5000 BR FEW006 BKN022
                        01/00 Q1022 RESN TEMPO 4000 -SN BKN007=
200902122050 METAR COR EGLL 122050Z 20008KT 3500 -SN FEW004 SCT007 BKN026
                        01/M00 Q1023 TEMPO 5000 BKN006=
200902122020 METAR COR EGLL 122020Z 21007KT 190V260 3500 SN SCT007 BKN029
                        01/M00 Q1023 TEMPO 1500 -SN BKN004=
200902121950 METAR COR EGLL 121950Z 24010KT 3500 -SN BKN007 01/M01 Q1024
                        TEMPO 1500 BKN004=
200902121920 METAR COR EGLL 121920Z 25012KT 9000 -RASN SCT026 BKN046 03/M03
                        Q1024 TEMPO 4500=
200902121850 METAR COR EGLL 121850Z 23009KT 9999 SCT039 BKN046 03/M02
                        Q1024 NOSIG=
200902121820 METAR COR EGLL 121820Z 19006KT 150V240 9999 FEW032 SCT045
                        03/M02 Q1025 NOSIG=
200902121750 METAR COR EGLL 121750Z 23008KT 190V260 9999 SCT042 BKN048
                        03/M02 Q1025 NOSIG=
200902121720 METAR COR EGLL 121720Z 15004KT 100V200 9999 FEW041 SCT046
                        03/M02 Q1025 NOSIG=
200902121650 METAR COR EGLL 121650Z 28005KT 9999 FEW027 BKN033 03/M03
                        Q1026 NOSIG=
200902121620 METAR COR EGLL 121620Z 27007KT 9999 SCT031 BKN038 03/M02
                        Q1026 NOSIG=
200902121550 METAR COR EGLL 121550Z 27008KT 9999 BKN038 03/M01 Q1026 NOSIG=
200902121520 METAR COR EGLL 121520Z 27010KT 9999 BKN049 03/M01 Q1026 NOSIG=
200902121450 METAR COR EGLL 121450Z 28009KT CAVOK 04/M01 Q1026 NOSIG=
200902121420 METAR COR EGLL 121420Z 28006KT CAVOK 04/M02 Q1026 NOSIG=
200902121350 METAR COR EGLL 121350Z 28004KT CAVOK 04/M02 Q1026 NOSIG=
200902121320 METAR COR EGLL 121320Z 29006KT CAVOK 04/M02 Q1026 NOSIG=
200902121250 METAR COR EGLL 121250Z 31006KT 270V350 CAVOK 04/M02 Q1026
                        NOSIG=
200902121220 METAR COR EGLL 121220Z 26007KT 230V290 CAVOK 04/M01 Q1026
                        NOSIG=
200902121150 METAR COR EGLL 121150Z 31005KT 260V350 CAVOK 04/M01 Q1026
                        NOSIG=
200902121120 METAR COR EGLL 121120Z 32004KT 260V020 CAVOK 04/M02 Q1027
                        NOSIG=
200902121050 METAR COR EGLL 121050Z 31005KT 280V350 CAVOK 04/M02 Q1027
                        NOSIG=
200902121020 METAR COR EGLL 121020Z 32004KT 280V360 CAVOK 03/M02 Q1026
                        NOSIG=
200902120950 METAR COR EGLL 120950Z 31004KT 270V340 CAVOK 02/M03 Q1026
                        NOSIG=
200902120920 METAR COR EGLL 120920Z 31005KT CAVOK 01/M03 Q1026 NOSIG=
200902120850 METAR COR EGLL 120850Z 31004KT 280V350 CAVOK 00/M04 Q1026
                        NOSIG=
200902120820 METAR COR EGLL 120820Z 31004KT 280V350 CAVOK M00/M04 Q1026
                        NOSIG=
200902120750 METAR COR EGLL 120750Z 31004KT 280V340 CAVOK M00/M04 Q1026
                        NOSIG=
200902120720 METAR COR EGLL 120720Z 30005KT CAVOK M01/M04 Q1026 NOSIG=
200902120650 METAR COR EGLL 120650Z 31004KT CAVOK M01/M04 Q1025 NOSIG=
200902120620 METAR COR EGLL 120620Z 32006KT CAVOK M01/M04 Q1025 NOSIG=
200902120550 METAR COR EGLL 120550Z 33004KT CAVOK M01/M04 Q1025 NOSIG=
200902120520 METAR COR EGLL 120520Z 34005KT 300V010 CAVOK M01/M04 Q1025
                        NOSIG=
200902120450 METAR COR EGLL 120450Z 33004KT 300V010 CAVOK M01/M04 Q1024
                        NOSIG=
200902120420 METAR COR EGLL 120420Z 32005KT CAVOK M01/M03 Q1024 NOSIG=
200902120350 METAR COR EGLL 120350Z VRB03KT CAVOK M01/M03 Q1024 NOSIG=
200902120320 METAR COR EGLL 120320Z 32005KT 290V360 CAVOK M01/M03 Q1024
                        NOSIG=
200902120250 METAR COR EGLL 120250Z 33004KT 290V360 CAVOK M00/M03 Q1024
                        NOSIG=
200902120220 METAR COR EGLL 120220Z 35004KT 320V040 CAVOK M00/M02 Q1024
                        NOSIG=
200902120150 METAR COR EGLL 120150Z 34004KT 280V030 CAVOK M00/M02 Q1024
                        NOSIG=
200902120120 METAR COR EGLL 120120Z 33004KT 290V360 CAVOK 00/M02 Q1023
                        NOSIG=
200902120050 METAR COR EGLL 120050Z 33005KT 300V010 CAVOK 00/M02 Q1023
                        NOSIG=
200902120020 METAR COR EGLL 120020Z 32007KT CAVOK 01/M01 Q1023 NOSIG=
200902112350 METAR COR EGLL 112350Z 33004KT 300V020 CAVOK 01/M01 Q1023
                        NOSIG=
200902112320 METAR COR EGLL 112320Z 32004KT CAVOK 01/M01 Q1023 NOSIG=
200902112250 METAR COR EGLL 112250Z 33004KT 300V010 CAVOK 02/M00 Q1022
                        NOSIG=
200902112220 METAR COR EGLL 112220Z 33004KT 300V360 CAVOK 03/00 Q1022
                        NOSIG=
200902112150 METAR COR EGLL 112150Z 32004KT CAVOK 02/00 Q1022 NOSIG=
200902112120 METAR COR EGLL 112120Z 33004KT 290V010 CAVOK 03/01 Q1021
                        NOSIG=
200902112050 METAR COR EGLL 112050Z 34004KT 310V010 9999 FEW035 03/01
                        Q1021 NOSIG=
200902112020 METAR COR EGLL 112020Z 34004KT 300V360 9999 FEW011 SCT033
                        03/01 Q1020 NOSIG=
200902111950 METAR COR EGLL 111950Z 02006KT 340V060 9999 -SHRA SCT011
                        BKN033 04/01 Q1020 NOSIG=
200902111920 METAR COR EGLL 111920Z 02005KT 340V070 9999 FEW014 04/01
                        Q1019 NOSIG=
200902111850 METAR COR EGLL 111850Z 02006KT 340V050 9999 SCT013 SCT026
                        05/02 Q1019 NOSIG=
200902111820 METAR COR EGLL 111820Z 33005KT 300V020 9999 BKN012 06/03
                        Q1019 BECMG SCT015=
200902111750 METAR COR EGLL 111750Z 32006KT 9999 -SHRA BKN014 06/04 Q1018
                        NOSIG=
200902111720 METAR COR EGLL 111720Z 30008KT 9999 FEW026 BKN031 06/03 Q1018
                        TEMPO BKN012=
200902111650 METAR COR EGLL 111650Z 28012KT 9999 8000W FEW015 SCT026 06/03
                        Q1018 TEMPO BKN012=
200902111620 METAR COR EGLL 111620Z 29008KT 9999 FEW036 SCT047 07/02 Q1017
                        TEMPO BKN012=
200902111550 METAR COR EGLL 111550Z 30009KT 9999 SCT049 07/02 Q1017 NOSIG=
200902111520 METAR COR EGLL 111520Z 28009KT 9999 BKN048 07/02 Q1017 NOSIG=
200902111450 METAR COR EGLL 111450Z 29009KT 9999 FEW034 SCT048 07/02 Q1017
                        NOSIG=
200902111420 METAR COR EGLL 111420Z 30010KT 9999 FEW025 BKN033 07/02 Q1017
                        NOSIG=
200902111350 METAR COR EGLL 111350Z 29009KT 9999 SCT022 BKN033 07/02 Q1017
                        NOSIG=
200902111320 METAR COR EGLL 111320Z 29011KT 9999 FEW021 BKN030 07/03 Q1017
                        NOSIG=
200902111250 METAR COR EGLL 111250Z 27010KT 9999 FEW041 BKN046 07/02 Q1017
                        NOSIG=
200902111220 METAR COR EGLL 111220Z 28011KT 9999 BKN048 07/03 Q1017 NOSIG=
200902111150 METAR COR EGLL 111150Z 27009KT 9999 SCT047 07/02 Q1017 NOSIG=
200902111120 METAR COR EGLL 111120Z 28007KT CAVOK 06/02 Q1017 NOSIG=
200902111050 METAR COR EGLL 111050Z 28008KT CAVOK 05/02 Q1017 NOSIG=
200902111020 METAR EGLL 111020Z 27008KT CAVOK 04/01 Q1017=
200902110950 METAR COR EGLL 110950Z 27006KT CAVOK 03/01 Q1017 NOSIG=
200902110920 METAR COR EGLL 110920Z 27005KT CAVOK 02/00 Q1017 NOSIG=
200902110850 METAR COR EGLL 110850Z 27008KT CAVOK 01/M00 Q1017 NOSIG=
200902110820 METAR COR EGLL 110820Z 27006KT CAVOK 00/M01 Q1017 NOSIG=
200902110750 METAR COR EGLL 110750Z 27005KT 9000 NSC M00/M02 Q1017 NOSIG=
200902110720 METAR COR EGLL 110720Z 27006KT 9000 NSC M01/M02 Q1016 NOSIG=
200902110650 METAR COR EGLL 110650Z 27005KT 9000 NSC M01/M01 Q1016 NOSIG=
200902110620 METAR COR EGLL 110620Z 26004KT 9000 FEW048 M01/M02 Q1016
                        NOSIG=
200902110550 METAR COR EGLL 110550Z 26004KT CAVOK M01/M02 Q1016 NOSIG=
200902110520 METAR COR EGLL 110520Z 27006KT CAVOK M01/M02 Q1016 NOSIG=
200902110450 METAR COR EGLL 110450Z 25005KT CAVOK M00/M01 Q1016 NOSIG=
200902110420 METAR COR EGLL 110420Z 28007KT CAVOK M00/M01 Q1016 NOSIG=
200902110350 METAR COR EGLL 110350Z 27006KT CAVOK 01/M01 Q1016 NOSIG=
200902110320 METAR COR EGLL 110320Z 27005KT CAVOK 01/M00 Q1016 NOSIG=
200902110250 METAR COR EGLL 110250Z 27005KT 9999 FEW038 00/M01 Q1016 NOSIG=
200902110220 METAR COR EGLL 110220Z 27005KT 9999 SCT038 01/M00 Q1016 NOSIG=
200902110150 METAR COR EGLL 110150Z 27004KT 9999 SCT038 01/M00 Q1015 NOSIG=
200902110120 METAR COR EGLL 110120Z 28005KT 9999 BKN038 01/M01 Q1015 NOSIG=
200902110050 METAR COR EGLL 110050Z 27005KT 9999 SCT039 01/M00 Q1015 NOSIG=
200902110020 METAR COR EGLL 110020Z 26003KT 9999 FEW040 01/M01 Q1015 NOSIG=
200902102350 METAR COR EGLL 102350Z 31003KT 9999 FEW041 00/M01 Q1015 NOSIG=
200902102320 METAR COR EGLL 102320Z 27006KT 9999 FEW041 01/M01 Q1015 NOSIG=
200902102250 METAR COR EGLL 102250Z 28006KT 9999 FEW041 02/M01 Q1014 NOSIG=
200902102220 METAR COR EGLL 102220Z 27006KT 9999 FEW042 02/M01 Q1014 NOSIG=
200902102150 METAR COR EGLL 102150Z 27006KT CAVOK 03/M01 Q1014 NOSIG=
200902102120 METAR COR EGLL 102120Z 28005KT CAVOK 02/M01 Q1013 NOSIG=
200902102050 METAR COR EGLL 102050Z 28008KT CAVOK 02/M01 Q1013 NOSIG=
200902102020 METAR COR EGLL 102020Z 27005KT CAVOK 02/M01 Q1013 NOSIG=
200902101950 METAR COR EGLL 101950Z 28006KT CAVOK 03/M01 Q1012 NOSIG=
200902101920 METAR COR EGLL 101920Z 28007KT CAVOK 04/M01 Q1012 NOSIG=
200902101850 METAR COR EGLL 101850Z 29006KT CAVOK 04/M01 Q1012 NOSIG=
200902101820 METAR EGLL 101820Z 29006KT CAVOK 04/M01 Q1011=
200902101750 METAR COR EGLL 101750Z 29007KT CAVOK 04/M01 Q1011 NOSIG=
200902101720 METAR COR EGLL 101720Z 29008KT CAVOK 05/M01 Q1010 NOSIG=
200902101650 METAR COR EGLL 101650Z 29009KT CAVOK 05/M01 Q1010 NOSIG=
200902101620 METAR COR EGLL 101620Z 30009KT 9999 FEW045 06/M02 Q1009 NOSIG=
200902101550 METAR COR EGLL 101550Z 30010KT 280V340 9999 FEW042 06/M02
                        Q1009 NOSIG=
200902101520 METAR COR EGLL 101520Z 29014KT CAVOK 06/M02 Q1008 NOSIG=
200902101450 METAR COR EGLL 101450Z 30013G23KT CAVOK 06/M01 Q1007 NOSIG=
200902101420 METAR COR EGLL 101420Z 30013KT CAVOK 06/M01 Q1007 NOSIG=
200902101350 METAR COR EGLL 101350Z 30012KT CAVOK 06/M00 Q1006 NOSIG=
200902101320 METAR COR EGLL 101320Z 30014KT 9999 SCT025 05/01 Q1006 NOSIG=
200902101250 METAR COR EGLL 101250Z 30011KT 9999 BKN022 05/01 Q1005 NOSIG=
200902101220 METAR COR EGLL 101220Z 30011KT 280V350 9999 SCT022 BKN027
                        05/01 Q1004 NOSIG=
200902101150 METAR COR EGLL 101150Z 30013KT 9999 FEW019 BKN025 05/01 Q1003
                        NOSIG=
200902101120 METAR COR EGLL 101120Z 30012KT 9999 FEW011 SCT020 04/01 Q1003
                        NOSIG=
200902101050 METAR EGLL 101050Z 31013KT 270V330 9999 FEW014 SCT026 04/01
                        Q1002=
200902101020 METAR COR EGLL 101020Z 30011KT 9999 SCT015 04/01 Q1001 NOSIG=
200902100950 METAR COR EGLL 100950Z 31011KT 9999 SCT012 SCT044 03/01 Q1000
                        NOSIG=
200902100920 METAR COR EGLL 100920Z 30012KT 9999 -DZ SCT011 BKN018 03/01
                        Q0999 NOSIG=
200902100850 METAR COR EGLL 100850Z 30012KT 9999 -DZ SCT011 BKN015 03/01
                        Q0998 NOSIG=
200902100820 METAR COR EGLL 100820Z 30011KT 9999 -RA SCT011 BKN015 03/01
                        Q0997 NOSIG=
200902100750 METAR COR EGLL 100750Z 31011G21KT 9999 DZ BKN011 BKN019 03/01
                        Q0995 NOSIG=
200902100720 METAR COR EGLL 100720Z 31013KT 9999 -DZ BKN012 03/01 Q0994
                        NOSIG=
200902100650 METAR COR EGLL 100650Z 32012KT 9999 -DZ SCT011 BKN015 03/01
                        Q0992 BECMG BKN012=
200902100620 METAR COR EGLL 100620Z 32014KT 290V350 9999 -RA BKN014 03/01
                        Q0991 NOSIG=
200902100550 METAR COR EGLL 100550Z 31013KT 9999 -RA BKN013 03/01 Q0990
                        NOSIG=
200902100520 METAR COR EGLL 100520Z 32012KT 9999 -RA SCT011 BKN016 03/01
                        Q0988 BECMG BKN012=
200902100450 METAR COR EGLL 100450Z 32014KT 9000 -RA BKN011 02/01 Q0986
                        NOSIG=
200902100420 METAR COR EGLL 100420Z 33014KT 8000 -RA FEW009 BKN011 02/01
                        Q0984 TEMPO 34018G28KT 4000 -RASN
                        BKN009=
200902100350 METAR COR EGLL 100350Z 33013KT 300V360 8000 -RA BKN010 02/01
                        Q0983 TEMPO 34018G28KT 4000 -RASN
                        BKN008=
200902100320 METAR COR EGLL 100320Z 33012KT 290V360 8000 -RA BKN010 02/01
                        Q0982 TEMPO 34018G28KT 4000 -RASN
                        BKN008=
200902100250 METAR COR EGLL 100250Z 34011KT 300V010 8000 -RA FEW008 BKN010
                        02/01 Q0980 TEMPO 35018G28KT 4000
                        -RASN BKN008=
200902100220 METAR COR EGLL 100220Z 35012KT 8000 -RA FEW008 BKN010 02/00
                        Q0979 BECMG 35018G28KT 4000 -RASN
                        BKN008=
200902100150 METAR COR EGLL 100150Z 35011KT 9999 -RA BKN008 02/01 Q0978
                        RERA TEMPO 36018G28KT RA=
200902100120 METAR COR EGLL 100120Z 36010KT 330V040 7000 RA SCT006 BKN013
                        02/01 Q0977 BECMG 36018G29KT 3000
                        -RASN BKN006=
200902100050 METAR COR EGLL 100050Z 36011KT 7000 -RA SCT004 BKN011 02/02
                        Q0977 BECMG 36018G28KT 3000 -RASN
                        BKN005=
200902100020 METAR COR EGLL 100020Z 36008KT 4300 RA SCT003 BKN007 04/03
                        Q0977 TEMPO BKN003=
200902092350 METAR COR EGLL 092350Z 01004KT 330V040 5000 -RA SCT003 BKN008
                        04/03 Q0976 RERA TEMPO BKN003=
200902092320 METAR COR EGLL 092320Z 04006KT 3100 RA SCT003 SCT007 BKN011
                        04/03 Q0977 TEMPO BKN007=
200902092250 METAR COR EGLL 092250Z 04008KT 4600 RA FEW003 BKN010 04/03
                        Q0977 TEMPO BKN005=
200902092220 METAR COR EGLL 092220Z 03007KT 4200 RA FEW004 BKN007 04/03
                        Q0978 NOSIG=
200902092150 METAR COR EGLL 092150Z 05007KT 3400 RA FEW003 BKN004 04/03
                        Q0979 NOSIG=
200902092120 METAR COR EGLL 092120Z 05009KT 4000 RA BKN004 04/03 Q0979
                        NOSIG=
200902092050 METAR COR EGLL 092050Z 06007KT 2400 RA BKN004 04/03 Q0980
                        TEMPO SCT004 BKN008=
200902092020 METAR COR EGLL 092020Z 06009KT 2400 RA BKN004 04/03 Q0981
                        TEMPO 5000 -RA BKN006=
200902091950 METAR COR EGLL 091950Z 06009KT 5000 RA BKN006 04/03 Q0982
                        TEMPO 3000=
200902091920 METAR COR EGLL 091920Z 08011KT 6000 RA BKN007 03/03 Q0983
                        NOSIG=
200902091850 METAR COR EGLL 091850Z 08012KT 6000 RA FEW006 BKN008 03/02
                        Q0984 NOSIG=
200902091820 METAR COR EGLL 091820Z 08012KT 6000 RA BKN008 03/02 Q0985
                        NOSIG=
200902091750 METAR COR EGLL 091750Z 09013KT 7000 RA BKN010 03/02 Q0986
                        NOSIG=
200902091720 METAR COR EGLL 091720Z 09012KT 8000 RA BKN010 03/02 Q0987
                        NOSIG=
200902091650 METAR COR EGLL 091650Z 10013KT 8000 -RA BKN010 04/03 Q0988
                        NOSIG=
200902091620 METAR COR EGLL 091620Z 10012KT 9999 -RA BKN011 04/03 Q0989
                        NOSIG=
200902091550 METAR COR EGLL 091550Z 10011KT 9999 -RA BKN012 04/03 Q0991
                        NOSIG=
200902091520 METAR COR EGLL 091520Z 11012KT 8000 -RA BKN011 BKN017 04/03
                        Q0992 NOSIG=
200902091450 METAR COR EGLL 091450Z 12010KT 9999 -RA SCT010 BKN013 04/03
                        Q0993 NOSIG=
200902091420 METAR COR EGLL 091420Z 13011KT 9000 -RA FEW010 BKN013 05/03
                        Q0993 TEMPO RA=
200902091350 METAR COR EGLL 091350Z 15008KT 120V220 9999 -RA SCT010 BKN015
                        05/04 Q0995 TEMPO BKN010=
200902091320 METAR COR EGLL 091320Z 14007KT 110V200 9999 -RA SCT010 BKN019
                        06/05 Q0995 TEMPO BKN012=
200902091250 METAR COR EGLL 091250Z 16006KT 120V240 9999 -RA BKN015 06/05
                        Q0996 TEMPO BKN014=
200902091220 METAR COR EGLL 091220Z 16006KT 120V220 9000 -RA FEW016 SCT020
                        06/05 Q0997 TEMPO BKN014=
200902091150 METAR COR EGLL 091150Z 16005KT 110V260 9000 -RA FEW016 SCT040
                        05/05 Q0998 RERA NOSIG=
200902091120 METAR COR EGLL 091120Z 15006KT 110V210 7000 RA FEW010 SCT014
                        BKN025 05/04 Q0998 TEMPO BKN014=
200902091050 METAR COR EGLL 091050Z 16006KT 120V230 5000 RA SCT019 BKN021
                        05/04 Q0999 TEMPO BKN014=
200902091020 METAR COR EGLL 091020Z 15006KT 120V220 7000 -RA BKN023 05/04
                        Q0999 RERA NOSIG=
200902090950 METAR COR EGLL 090950Z 17006KT 120V250 6000 RA FEW016 BKN021
                        04/03 Q0999 TEMPO BKN014=
200902090920 METAR COR EGLL 090920Z 18006KT 120V240 7000 RA SCT018 BKN025
                        04/03 Q1000 NOSIG=
200902090850 METAR EGLL 090850Z 17006KT 130V210 8000 -RA FEW025 BKN030
                        04/03 Q1000=
200902090820 METAR COR EGLL 090820Z 15005KT 130V200 8000 -RA SCT027 BKN031
                        03/03 Q1001 TEMPO RA=
200902090750 METAR COR EGLL 090750Z 17005KT 130V220 9000 -RA FEW025 BKN030
                        03/02 Q1001 TEMPO RA=
200902090720 METAR COR EGLL 090720Z 16005KT 130V220 9000 -RA FEW022 BKN028
                        03/02 Q1001 TEMPO RA=
200902090650 METAR COR EGLL 090650Z 17005KT 120V240 9999 -RA BKN028 03/02
                        Q1001 TEMPO RA=
200902090620 METAR COR EGLL 090620Z 18004KT 140V250 9999 BKN034 02/02
                        Q1001 NOSIG=
200902090550 METAR COR EGLL 090550Z 18003KT 9999 BKN037 02/01 Q1002 NOSIG=
200902090520 METAR COR EGLL 090520Z 00000KT 9999 FEW043 02/01 Q1002 TEMPO
                        4000 BR=
200902090450 METAR COR EGLL 090450Z 19004KT 9999 FEW036 02/01 Q1002 TEMPO
                        4000 BR=
200902090420 METAR COR EGLL 090420Z 23006KT CAVOK 01/01 Q1002 TEMPO 4000
                        BR=
200902090350 METAR COR EGLL 090350Z 21005KT CAVOK 01/00 Q1002 TEMPO 4000
                        BR=
200902090320 METAR COR EGLL 090320Z 22006KT CAVOK 01/01 Q1002 TEMPO 4000
                        BR=
200902090250 METAR COR EGLL 090250Z 20005KT CAVOK 01/00 Q1002 TEMPO 4000
                        BR=
200902090220 METAR COR EGLL 090220Z 19004KT CAVOK 01/00 Q1001 NOSIG=
200902090150 METAR COR EGLL 090150Z 22004KT CAVOK 02/01 Q1002 NOSIG=
200902090120 METAR COR EGLL 090120Z 25005KT CAVOK 02/01 Q1002 NOSIG=
200902090050 METAR COR EGLL 090050Z 26006KT CAVOK 02/02 Q1002 NOSIG=
200902090020 METAR COR EGLL 090020Z 27005KT CAVOK 02/01 Q1002 NOSIG=
200902082350 METAR COR EGLL 082350Z 27006KT 9999 SCT019 03/02 Q1001 NOSIG=
200902082320 METAR COR EGLL 082320Z 26006KT 9999 FEW007 BKN012 03/02 Q1001
                        TEMPO SCT014=
200902082250 METAR COR EGLL 082250Z 26008KT 9999 OVC007 04/03 Q1001 TEMPO
                        SCT009 BKN020=
200902082220 METAR COR EGLL 082220Z 25006KT 9999 BKN007 04/03 Q1001 TEMPO
                        SCT009=
200902082150 METAR COR EGLL 082150Z 25005KT 170V290 9999 BKN007 04/03
                        Q1001 TEMPO SCT009=
200902082120 METAR COR EGLL 082120Z 19007KT 140V240 9999 -RA BKN008 03/02
                        Q1000 BECMG SCT010 BKN018=
200902082050 METAR COR EGLL 082050Z 17008KT 140V230 9999 BKN009 03/02
                        Q1000 BECMG SCT009 BKN014=
200902082020 METAR COR EGLL 082020Z 18008KT 150V230 9999 -RA BKN009 03/02
                        Q1000 TEMPO 4500 RADZ=
200902081950 METAR COR EGLL 081950Z 18009KT 130V240 7000 -RA BKN009 03/02
                        Q1001 RERA TEMPO 4500=
200902081920 METAR COR EGLL 081920Z 14007KT 110V180 9999 -RA BKN011 03/02
                        Q1001 RERA TEMPO RA BKN009=
200902081850 METAR COR EGLL 081850Z 14006KT 120V180 6000 RA BKN011 03/02
                        Q1001 TEMPO 4000 BKN009=
200902081820 METAR COR EGLL 081820Z 16006KT 120V230 7000 RA BKN014 03/01
                        Q1001 TEMPO -RASN BKN009=
200902081750 METAR COR EGLL 081750Z 16006KT 120V230 9999 -RA FEW017 BKN019
                        03/01 Q1002 TEMPO RA BKN009=
200902081720 METAR COR EGLL 081720Z 19006KT 130V240 9000 -RA SCT013 SCT017
                        03/01 Q1002 TEMPO BKN013=
200902081650 METAR COR EGLL 081650Z 21008KT 180V240 9999 -RA FEW013 BKN020
                        04/01 Q1002 BECMG BKN014=
200902081620 METAR COR EGLL 081620Z 21009KT 180V260 9999 -RA SCT015 BKN027
                        04/01 Q1002 BECMG BKN014=
200902081550 METAR COR EGLL 081550Z 22010KT 9999 SCT032 SCT037 05/M01
                        Q1002 NOSIG=
200902081520 METAR COR EGLL 081520Z 23009KT 190V260 9999 FEW038 06/M02
                        Q1002 NOSIG=
200902081450 METAR EGLL 081450Z 24011KT 9999 FEW039 06/M02 Q1002=
200902081420 METAR COR EGLL 081420Z 21009KT 9999 FEW032 06/M02 Q1003 NOSIG=
200902081350 METAR COR EGLL 081350Z 21008KT 180V240 9999 FEW028 06/M01
                        Q1003 NOSIG=
200902081320 METAR COR EGLL 081320Z 20007KT 160V230 CAVOK 06/M02 Q1003
                        NOSIG=
200902081250 METAR COR EGLL 081250Z 21009KT 190V250 CAVOK 05/M01 Q1003
                        NOSIG=
200902081220 METAR COR EGLL 081220Z 22007KT 170V250 CAVOK 05/M01 Q1003
                        NOSIG=
200902081150 METAR COR EGLL 081150Z 20006KT 160V240 CAVOK 04/M01 Q1003
                        NOSIG=
200902081120 METAR COR EGLL 081120Z 21004KT 170V260 CAVOK 03/M00 Q1004
                        NOSIG=
200902081050 METAR COR EGLL 081050Z 20005KT 150V230 CAVOK 03/M00 Q1004
                        NOSIG=
200902081020 METAR COR EGLL 081020Z 21004KT 160V250 CAVOK 02/M01 Q1004
                        NOSIG=
200902080950 METAR COR EGLL 080950Z 21005KT 180V240 CAVOK 01/M01 Q1004
                        NOSIG=
200902080920 METAR COR EGLL 080920Z 20004KT CAVOK 01/M01 Q1004 NOSIG=
200902080850 METAR COR EGLL 080850Z 21004KT 170V240 CAVOK 01/M01 Q1004
                        NOSIG=
200902080820 METAR COR EGLL 080820Z 23004KT 180V270 CAVOK 00/M01 Q1004
                        NOSIG=
200902080750 METAR COR EGLL 080750Z 21004KT 180V260 CAVOK 00/M01 Q1004
                        NOSIG=
200902080720 METAR EGLL 080720Z 21005KT 170V260 9999 BKN049 00/M01 Q1004=
200902080650 METAR COR EGLL 080650Z 23005KT 190V270 9999 BKN046 01/M01
                        Q1004 NOSIG=
200902080620 METAR COR EGLL 080620Z VRB03KT 9999 BKN046 01/M01 Q1003 NOSIG=
200902080550 METAR COR EGLL 080550Z 26003KT 9000 OVC044 00/M01 Q1003 NOSIG=
200902080520 METAR COR EGLL 080520Z 26004KT 9000 BKN044 00/M01 Q1003 NOSIG=
200902080450 METAR COR EGLL 080450Z 25004KT 9000 BKN044 00/M01 Q1003 NOSIG=
200902080420 METAR COR EGLL 080420Z VRB03KT 9000 BKN045 00/M01 Q1003 NOSIG=
200902080350 METAR COR EGLL 080350Z 29005KT 260V320 9000 BKN046 00/M01
                        Q1003 NOSIG=
200902080320 METAR COR EGLL 080320Z 28006KT 9000 BKN046 M00/M01 Q1003
                        NOSIG=
200902080250 METAR COR EGLL 080250Z 27006KT 9000 BKN048 M01/M02 Q1003
                        NOSIG=
200902080220 METAR COR EGLL 080220Z 27007KT 9999 SCT047 M02/M03 Q1003
                        NOSIG=
200902080150 METAR COR EGLL 080150Z 26007KT CAVOK M01/M02 Q1002 NOSIG=
200902080120 METAR COR EGLL 080120Z 27005KT 9999 FEW041 00/M01 Q1002 NOSIG=
200902080050 METAR COR EGLL 080050Z 28004KT 9999 SCT040 M01/M02 Q1002
                        NOSIG=
200902080020 METAR COR EGLL 080020Z 28004KT 9999 SCT037 00/M02 Q1002 NOSIG=
200902072350 METAR COR EGLL 072350Z 29005KT 9999 BKN038 02/M01 Q1002 NOSIG=
200902072320 METAR COR EGLL 072320Z 29005KT 9999 FEW035 BKN040 02/M01
                        Q1002 NOSIG=
200902072250 METAR COR EGLL 072250Z 29006KT 9999 FEW035 BKN039 02/M01
                        Q1002 NOSIG=
200902072220 METAR COR EGLL 072220Z 29006KT 9999 BKN036 02/M01 Q1002 NOSIG=
200902072150 METAR EGLL 072150Z 29005KT 9999 BKN040 03/M01 Q1002=
200902072120 METAR COR EGLL 072120Z 30005KT 9999 SCT041 02/M02 Q1001 NOSIG=
200902072050 METAR COR EGLL 072050Z 29005KT 9999 SCT040 03/M02 Q1001 NOSIG=
200902072020 METAR COR EGLL 072020Z 30004KT 9999 BKN040 03/M01 Q1001 NOSIG=
200902071950 METAR COR EGLL 071950Z 31005KT 9999 BKN038 03/M01 Q1000 NOSIG=
200902071920 METAR COR EGLL 071920Z 30005KT 9999 BKN036 03/M01 Q1000 NOSIG=
200902071850 METAR COR EGLL 071850Z 31004KT 9999 BKN038 03/M01 Q1000 NOSIG=
200902071820 METAR COR EGLL 071820Z 30004KT 9999 FEW043 SCT048 03/M01
                        Q1000 NOSIG=
200902071750 METAR COR EGLL 071750Z 30005KT 9999 FEW041 SCT048 03/M01
                        Q0999 NOSIG=
200902071720 METAR COR EGLL 071720Z 31006KT 9999 FEW033 SCT044 04/M01
                        Q0999 NOSIG=
200902071650 METAR COR EGLL 071650Z 31007KT 9999 FEW037 BKN044 04/M01
                        Q0998 NOSIG=
200902071620 METAR COR EGLL 071620Z 32006KT 290V360 9999 SCT040 04/M01
                        Q0998 NOSIG=
200902071550 METAR COR EGLL 071550Z 31007KT 280V350 9999 SCT027 04/M01
                        Q0997 NOSIG=
200902071520 METAR COR EGLL 071520Z 32008KT 9999 SCT024 04/M01 Q0997 NOSIG=
200902071450 METAR EGLL 071450Z 32008KT 9999 SCT026 04/M01 Q0997 NOSIG=
200902071420 METAR COR EGLL 071420Z 32008KT 290V350 9999 SCT022 04/M01
                        Q0996 NOSIG=
200902071350 METAR COR EGLL 071350Z 32007KT 9999 SCT019 04/M00 Q0996 NOSIG=
200902071320 METAR COR EGLL 071320Z 32009KT 9999 BKN020 04/M01 Q0996 NOSIG=
200902071250 METAR COR EGLL 071250Z 31008KT 9999 BKN020 03/M01 Q0996 NOSIG=
200902071220 METAR COR EGLL 071220Z 32005KT 280V350 9999 BKN015 03/M01
                        Q0996 NOSIG=
200902071150 METAR COR EGLL 071150Z 33008KT 290V360 9999 BKN015 03/M01
                        Q0996 NOSIG=
200902071120 METAR COR EGLL 071120Z 31007KT 9999 BKN015 02/M00 Q0996 NOSIG=
200902071050 METAR COR EGLL 071050Z 29006KT 9999 BKN016 02/M01 Q0996 NOSIG=
200902071020 METAR COR EGLL 071020Z 27007KT 9999 BKN016 01/M01 Q0996 NOSIG=
200902070950 METAR COR EGLL 070950Z 29006KT 9999 SCT010 BKN015 01/M01
                        Q0995 NOSIG=
200902070920 METAR COR EGLL 070920Z 30004KT 9999 BKN010 01/M01 Q0995 BECMG
                        SCT015=
200902070850 METAR COR EGLL 070850Z 27005KT 9999 BKN009 M00/M02 Q0995
                        NOSIG=
200902070820 METAR COR EGLL 070820Z 27006KT 9999 BKN009 M01/M02 Q0995
                        BECMG SCT015=
200902070750 METAR COR EGLL 070750Z 27007KT 9999 BKN010 M02/M03 Q0995
                        BECMG SCT015=
200902070720 METAR COR EGLL 070720Z 25005KT CAVOK M02/M04 Q0995 NOSIG=
200902070650 METAR COR EGLL 070650Z 26005KT CAVOK M02/M04 Q0994 NOSIG=
200902070620 METAR COR EGLL 070620Z 28005KT CAVOK M01/M03 Q0994 NOSIG=
200902070550 METAR COR EGLL 070550Z 29004KT CAVOK M02/M04 Q0994 NOSIG=
200902070520 METAR COR EGLL 070520Z 29004KT CAVOK M01/M03 Q0994 NOSIG=
200902070450 METAR COR EGLL 070450Z 28004KT CAVOK M02/M04 Q0994 NOSIG=
200902070420 METAR COR EGLL 070420Z 28004KT CAVOK M03/M04 Q0994 NOSIG=
200902070350 METAR COR EGLL 070350Z VRB03KT CAVOK M02/M04 Q0994 NOSIG=
200902070320 METAR COR EGLL 070320Z 30004KT CAVOK M01/M03 Q0994 NOSIG=
200902070250 METAR COR EGLL 070250Z 32006KT 290V350 CAVOK M01/M03 Q0993
                        NOSIG=
200902070220 METAR COR EGLL 070220Z 31005KT 280V350 CAVOK M00/M03 Q0993
                        NOSIG=
200902070150 METAR COR EGLL 070150Z 32006KT CAVOK M00/M03 Q0993 NOSIG=
200902070120 METAR COR EGLL 070120Z 32006KT CAVOK 00/M03 Q0993 NOSIG=
200902070050 METAR COR EGLL 070050Z 32006KT 290V360 CAVOK 00/M03 Q0993
                        NOSIG=
200902070020 METAR COR EGLL 070020Z 33005KT CAVOK 01/M03 Q0993 NOSIG=
200902062350 METAR COR EGLL 062350Z 35004KT 310V030 CAVOK 01/M03 Q0993
                        NOSIG=
200902062320 METAR COR EGLL 062320Z 32004KT 280V360 CAVOK 01/M02 Q0993
                        NOSIG=
200902062250 METAR COR EGLL 062250Z VRB03KT CAVOK 01/M03 Q0993 NOSIG=
200902062220 METAR COR EGLL 062220Z VRB03KT CAVOK 01/M03 Q0993 NOSIG=
200902062150 METAR COR EGLL 062150Z 35004KT CAVOK 01/M03 Q0993 NOSIG=
200902062120 METAR COR EGLL 062120Z 35005KT 9999 FEW028 01/M03 Q0993 NOSIG=
200902062050 METAR COR EGLL 062050Z 35005KT 300V020 9999 SCT017 BKN029
                        01/M03 Q0993 NOSIG=
200902062020 METAR COR EGLL 062020Z 36005KT 320V030 9999 BKN018 BKN025
                        01/M02 Q0992 NOSIG=
200902061950 METAR COR EGLL 061950Z 35005KT 290V010 9999 OVC018 01/M02
                        Q0992 NOSIG=
200902061920 METAR COR EGLL 061920Z 35005KT 320V030 9999 BKN013 01/M01
                        Q0992 BECMG SCT013=
200902061850 METAR COR EGLL 061850Z 35005KT 9999 SCT012 01/M00 Q0992 NOSIG=
200902061820 METAR COR EGLL 061820Z 36007KT 9000 -RA FEW008 BKN012 01/00
                        Q0992 BECMG SCT012=
200902061750 METAR COR EGLL 061750Z 35005KT 310V040 4900 -RASN FEW006
                        SCT008 BKN010 01/00 Q0992 TEMPO BKN005=
200902061720 METAR COR EGLL 061720Z 36005KT 320V030 3500 -RA FEW004 BKN006
                        01/00 Q0991 TEMPO 2500 SN BKN004=
200902061650 METAR COR EGLL 061650Z 35005KT 310V020 2100 -SNRA FEW004
                        BKN006 01/00 Q0991 RESN TEMPO SNRA
                        BKN004=
200902061620 METAR COR EGLL 061620Z 36006KT 330V040 2500 SN FEW004 BKN005
                        01/00 Q0991 TEMPO BKN004=
200902061550 METAR COR EGLL 061550Z 01006KT 330V040 4900 -RASN FEW006
                        BKN007 01/00 Q0990 TEMPO 2500 SN
                        BKN004=
200902061520 METAR COR EGLL 061520Z 02008KT 8000 -RASN BKN007 BKN028 02/01
                        Q0990 TEMPO RASN BKN004=
200902061450 METAR COR EGLL 061450Z 02008KT 7000 -SN BKN008 BKN026 02/01
                        Q0990 TEMPO 4000 SN BKN004=
200902061420 METAR COR EGLL 061420Z 03009KT 8000 BKN007 02/01 Q0990 TEMPO
                        4000 RASN BKN004=
200902061350 METAR COR EGLL 061350Z 02010KT 350V050 9999 BKN007 BKN016
                        02/01 Q0989 TEMPO 4000 -RA=
200902061320 METAR COR EGLL 061320Z 03009KT 360V060 9999 FEW006 BKN008
                        02/01 Q0989 TEMPO 4000 -RASN BKN004=
200902061250 METAR COR EGLL 061250Z 02008KT 340V070 7000 BKN007 02/01
                        Q0990 TEMPO 4000 -RASN BKN004=
200902061220 METAR COR EGLL 061220Z 02008KT 350V060 9000 BKN007 01/01
                        Q0990 99290094 TEMPO 4000 -RASN BKN005=
200902061150 METAR COR EGLL 061150Z 02007KT 340V050 6000 -RA BKN006 01/00
                        Q0990 99290094 TEMPO 4000 RASN BKN004=
200902061120 METAR COR EGLL 061120Z 02007KT 350V050 4000 -RA BKN006 01/00
                        Q0990 99290094 TEMPO RASN BKN004=
200902061050 METAR COR EGLL 061050Z 02005KT 340V070 4100 -RA BKN006 01/01
                        Q0990 99290094 TEMPO RA=
200902061020 METAR COR EGLL 061020Z 04005KT 360V080 6000 -RA BKN006 02/01
                        Q0989 88290094 NOSIG=
200902060950 METAR COR EGLL 060950Z 05006KT 020V080 9999 BKN007 02/01
                        Q0989 59290094 NOSIG=
200902060920 METAR COR EGLL 060920Z 04008KT 9999 BKN007 BKN013 02/01 Q0989
                        TEMPO SCT007=
200902060850 METAR COR EGLL 060850Z 04008KT 9999 BKN006 BKN015 01/01 Q0989
                        TEMPO SCT006=
200902060820 METAR COR EGLL 060820Z 05006KT 010V090 9999 FEW004 BKN006
                        BKN016 01/00 Q0989 TEMPO BKN004=
200902060750 METAR COR EGLL 060750Z 05007KT 2400 -RASN SCT003 BKN014 BKN022
                        01/00 Q0989 RERA RESN TEMPO BKN003=
200902060720 METAR COR EGLL 060720Z 05007KT 360V080 2400 RASN SCT003 BKN015
                        BKN021 01/00 Q0989 TEMPO BKN008=
200902060650 METAR COR EGLL 060650Z 05007KT 2000 SN SCT004 BKN018 BKN021
                        01/00 Q0989 RETS TEMPO BKN008=
200902060620 METAR COR EGLL 060620Z 04006KT 6000 TSRASN FEW005CB BKN006
                        BKN022 01/01 Q0989 BECMG 4000 RASN=
200902060550 METAR COR EGLL 060550Z 06010KT 3500 TSRASN FEW006CB BKN007
                        02/01 Q0989 BECMG RASN=
200902060520 METAR COR EGLL 060520Z 05009KT 8000 BKN006 02/01 Q0989 BECMG
                        4000 RASN BKN004=
200902060450 METAR COR EGLL 060450Z 05008KT 8000 -RA BKN006 02/01 Q0989
                        TEMPO 4000 RASN BKN005=
200902060420 METAR COR EGLL 060420Z 05006KT 020V080 8000 OVC007 02/01
                        Q0989 TEMPO 4000 RASN BKN004=
200902060350 METAR COR EGLL 060350Z 06007KT 8000 BKN006 02/01 Q0990 BECMG
                        4000 RASN BKN004=
200902060320 METAR COR EGLL 060320Z 06008KT 8000 BKN006 BKN013 02/01 Q0990
                        NOSIG=
200902060250 METAR COR EGLL 060250Z 06008KT 8000 BKN006 BKN011 02/01 Q0990
                        RERA RESN NOSIG=
200902060220 METAR COR EGLL 060220Z 06007KT 8000 RASN BKN006 OVC012 02/01
                        Q0990 TEMPO -RASN=
200902060150 METAR COR EGLL 060150Z 06008KT 8000 SCT006 BKN011 02/01 Q0990
                        TEMPO 4000 BR BKN005=
200902060120 METAR COR EGLL 060120Z 06008KT 8000 SCT005 OVC011 02/01 Q0990
                        TEMPO 4000 BR BKN005=
200902060050 METAR COR EGLL 060050Z 05007KT 5000 -RASN FEW004 BKN030 02/01
                        Q0990 TEMPO 2000 SN BKN006=
200902060020 METAR COR EGLL 060020Z 06007KT 3000 RASN FEW004 BKN005 02/01
                        Q0991 BECMG 1200 SN BKN004=
200902052350 METAR COR EGLL 052350Z 06007KT 6000 BKN004 02/01 Q0991 BECMG
                        4000 - RASN=
200902052320 METAR COR EGLL 052320Z 04006KT 010V080 5000 BR BKN004 02/01
                        Q0991 BECMG 4000 -RASN=
200902052250 METAR COR EGLL 052250Z 05006KT 010V070 5000 BR BKN004 02/01
                        Q0991 BECMG 4000 -RASN=
200902052220 METAR COR EGLL 052220Z 05006KT 5000 -RASN BKN004 02/01 Q0991
                        BECMG 4000=
200902052150 METAR COR EGLL 052150Z 03005KT 360V070 5000 BR OVC004 02/01
                        Q0991 TEMPO 4000=
200902052120 METAR COR EGLL 052120Z 03005KT 360V070 3500 BR FEW003 OVC007
                        02/01 Q0991 NOSIG=
200902052050 METAR COR EGLL 052050Z 04005KT 3500 BR BKN003 BKN008 01/01
                        Q0991 NOSIG=
200902052020 METAR COR EGLL 052020Z 01005KT 340V040 3500 HZ OVC003 01/01
                        Q0991 NOSIG=
200902051950 METAR COR EGLL 051950Z 02005KT 3800 BR OVC004 01/01 Q0991
                        NOSIG=
200902051920 METAR COR EGLL 051920Z 02005KT 350V050 4000 BR BKN006 02/01
                        Q0991 NOSIG=
200902051850 METAR COR EGLL 051850Z 35006KT 320V020 4000 BR BKN006 02/01
                        Q0991 NOSIG=
200902051820 METAR COR EGLL 051820Z 35005KT 320V030 4000 HZ BKN006 02/01
                        Q0990 NOSIG=
200902051750 METAR COR EGLL 051750Z VRB03KT 4000 BR OVC006 02/01 Q0990
                        NOSIG=
200902051720 METAR EGLL 051720Z 35004KT 2500 BR OVC006 03/01 Q0990=
200902051650 METAR COR EGLL 051650Z 34004KT 300V020 5000 BR BKN007 03/02
                        Q0990 BECMG 3500=
200902051620 METAR COR EGLL 051620Z VRB03KT 5000 BR BKN007 BKN014 03/02
                        Q0989 BECMG 3500=
200902051550 METAR COR EGLL 051550Z VRB03KT 5000 BR SCT007 BKN012 03/02
                        Q0989 TEMPO 4000 BR BKN007=
200902051520 METAR COR EGLL 051520Z 36003KT 6000 SCT006 BKN010 04/02 Q0989
                        TEMPO 4000 BR BKN005=
200902051450 METAR COR EGLL 051450Z VRB02KT 6000 SCT006 BKN009 04/02 Q0989
                        TEMPO 4500 BR BKN006=
200902051420 METAR COR EGLL 051420Z 36003KT 6000 FEW005 BKN007 BKN009
                        03/02 Q0988 NOSIG=
200902051350 METAR COR EGLL 051350Z 34004KT 290V010 3500 BR SCT003 BKN005
                        BKN007 03/02 Q0988 TEMPO BKN003=
200902051320 METAR COR EGLL 051320Z 30005KT 3500 BR SCT003 BKN004 BKN006
                        03/02 Q0988 TEMPO 1400 DZ BKN002=
200902051250 METAR COR EGLL 051250Z 33003KT 3500 BR FEW002 BKN003 BKN006
                        03/02 Q0988 TEMPO 1400 DZ BKN002=
200902051220 METAR COR EGLL 051220Z 35004KT 320V030 2000 -RA SCT002 BKN003
                        02/02 Q0988 TEMPO 1400 DZ BR BKN002=
200902051150 METAR COR EGLL 051150Z VRB03KT 1300 R09L/1400 R09R/P1500
                        -DZ SCT002 BKN003 02/02 Q0988 TEMPO
                        1600 BR=
200902051120 METAR COR EGLL 051120Z 35004KT 1400 R09L/P1500 R09R/P1500
                        -DZ SCT002 BKN003 02/02 Q0988 TEMPO
                        1800 RADZ=
200902051050 METAR EGLL 051050Z VRB03KT 1500 R09L/P1500 R09R/P1500 -RADZ
                        BKN002 02/02 Q0988=
200902051020 METAR COR EGLL 051020Z 02004KT 1200 R09L/P1500 R09R/P1500
                        -DZ BKN002 02/02 Q0988 TEMPO 1500
                        BR=
200902050950 METAR COR EGLL 050950Z 03004KT 2500 -DZ FEW002 BKN004 02/01
                        Q0987 NOSIG=
200902050920 METAR COR EGLL 050920Z 02004KT 2500 -RA FEW002 OVC004 02/01
                        Q0987 TEMPO 1400 RADZ BKN005=
200902050850 METAR COR EGLL 050850Z 02004KT 2500 -RA FEW003 OVC004 02/01
                        Q0987 TEMPO 1400 RADZ BKN005=
200902050820 METAR COR EGLL 050820Z 36005KT 1700 -RA OVC003 02/01 Q0987
                        TEMPO 1400 RADZ=
200902050750 METAR COR EGLL 050750Z 35005KT 2300 -DZ BR OVC003 02/01 Q0987
                        TEMPO 1400 RADZ=
200902050720 METAR COR EGLL 050720Z VRB03KT 3000 -DZ BR OVC004 02/01 Q0987
                        TEMPO 1400=
200902050650 METAR COR EGLL 050650Z 36004KT 3000 BR OVC004 02/01 Q0986
                        TEMPO 1400=
200902050620 METAR COR EGLL 050620Z 34004KT 3000 BR SCT003 BKN005 01/01
                        Q0986 RERA RESN TEMPO 1400 BKN003=
200902050550 METAR COR EGLL 050550Z VRB03KT 3000 RASN BKN004 BKN009 02/01
                        Q0986 BECMG RA=
200902050520 METAR EGLL 050520Z 03004KT 4000 RA BKN004 02/01 Q0987=
200902050450 METAR EGLL 050450Z VRB03KT 4000 RA OVC004 02/01 Q0987=
200902050420 METAR COR EGLL 050420Z 06004KT 010V090 4000 RA SCT004 BKN005
                        02/01 Q0987 TEMPO BKN004=
200902050350 METAR COR EGLL 050350Z 06005KT 030V100 4000 RA SCT004 BKN006
                        02/01 Q0987 RESN TEMPO BKN004=
200902050320 METAR COR EGLL 050320Z 07008KT 4000 RASN BKN006 02/01 Q0988
                        BECMG RA BKN004=
200902050250 METAR COR EGLL 050250Z 08010KT 2900 RA OVC006 01/01 Q0988
                        RESN TEMPO RASN=
200902050220 METAR COR EGLL 050220Z 08008KT 4000 -RA BKN007 01/00 Q0989
                        TEMPO RASN=
200902050150 METAR COR EGLL 050150Z 07008KT 4000 -RASN FEW008 BKN010 01/00
                        Q0989 TEMPO RASN BKN008=
200902050120 METAR COR EGLL 050120Z 08008KT 4500 RA BKN009 BKN020 01/M00
                        Q0989 TEMPO RASN=
200902050050 METAR EGLL 050050Z 07008KT 5000 RASN SCT012 BKN023 BKN027
                        01/M00 Q0990=
200902050020 METAR COR EGLL 050020Z 09008KT 5000 -RASN SCT038 BKN041 01/M01
                        Q0990 RESN TEMPO 4000 RASN BKN008=
200902042350 METAR COR EGLL 042350Z 08010KT 2900 SN BKN031 BKN048 01/M01
                        Q0991 TEMPO BKN008=
200902042320 METAR COR EGLL 042320Z 09010KT 3500 SN FEW014 BKN019 01/M02
                        Q0991 BECMG BKN008=
200902042250 METAR COR EGLL 042250Z 09010KT 9000 FEW042 01/M02 Q0991 BECMG
                        4000 RASN BKN010=
200902042220 METAR COR EGLL 042220Z 09011KT CAVOK 01/M03 Q0991 BECMG 4000
                        RASN BKN010=
200902042150 METAR COR EGLL 042150Z 09010KT CAVOK 01/M03 Q0992 NOSIG=
200902042120 METAR COR EGLL 042120Z 09011KT 9999 FEW040 01/M03 Q0992 NOSIG=
200902042050 METAR COR EGLL 042050Z 10010KT 9999 FEW040 01/M03 Q0992 NOSIG=
200902042020 METAR COR EGLL 042020Z 10010KT CAVOK 01/M03 Q0992 NOSIG=
200902041950 METAR COR EGLL 041950Z 10009KT CAVOK 01/M03 Q0993 NOSIG=
200902041920 METAR COR EGLL 041920Z 09010KT CAVOK 02/M03 Q0993 NOSIG=
200902041850 METAR COR EGLL 041850Z 08009KT CAVOK 02/M03 Q0993 NOSIG=
200902041820 METAR COR EGLL 041820Z 09008KT CAVOK 02/M03 Q0993 NOSIG=
200902041750 METAR COR EGLL 041750Z 09008KT CAVOK 02/M03 Q0993 NOSIG=
200902041720 METAR COR EGLL 041720Z 10009KT CAVOK 02/M03 Q0993 NOSIG=
200902041650 METAR COR EGLL 041650Z 10007KT CAVOK 02/M03 Q0993 NOSIG=
200902041620 METAR COR EGLL 041620Z 09008KT CAVOK 03/M02 Q0993 NOSIG=
200902041550 METAR COR EGLL 041550Z 09008KT CAVOK 03/M02 Q0993 NOSIG=
200902041520 METAR COR EGLL 041520Z 11009KT CAVOK 03/M02 Q0993 NOSIG=
200902041450 METAR COR EGLL 041450Z 11010KT CAVOK 04/M02 Q0993 NOSIG=
200902041420 METAR COR EGLL 041420Z 12009KT CAVOK 03/M03 Q0994 NOSIG=
200902041350 METAR COR EGLL 041350Z 11008KT CAVOK 04/M02 Q0994 NOSIG=
200902041320 METAR COR EGLL 041320Z 13007KT CAVOK 04/M02 Q0994 NOSIG=
200902041250 METAR COR EGLL 041250Z 13008KT CAVOK 04/M02 Q0994 NOSIG=
200902041220 METAR EGLL 041220Z 14009KT CAVOK 04/M01 Q0995=
200902041150 METAR COR EGLL 041150Z 12009KT CAVOK 04/M01 Q0995 NOSIG=
200902041120 METAR COR EGLL 041120Z 13010KT 9999 FEW030 04/M01 Q0995 NOSIG=
200902041050 METAR COR EGLL 041050Z 15011KT CAVOK 03/M01 Q0995=
200902041020 METAR COR EGLL 041020Z 13007KT CAVOK 03/M01 Q0995 NOSIG=
200902040950 METAR COR EGLL 040950Z 13006KT CAVOK 03/M01 Q0995 NOSIG=
200902040920 METAR COR EGLL 040920Z 13006KT CAVOK 02/M01 Q0995 NOSIG=
200902040850 METAR COR EGLL 040850Z 11009KT 8000 NSC 01/M01 Q0995 NOSIG=
200902040820 METAR COR EGLL 040820Z 10008KT 8000 NSC M00/M01 Q0995 NOSIG=
200902040750 METAR COR EGLL 040750Z 09007KT 8000 NSC M01/M02 Q0995 NOSIG=
200902040720 METAR COR EGLL 040720Z 10007KT 8000 NSC M02/M02 Q0995 NOSIG=
200902040650 METAR COR EGLL 040650Z 10006KT 8000 FEW030 M02/M02 Q0995
                        NOSIG=
200902040620 METAR COR EGLL 040620Z 10007KT 7000 NSC M01/M02 Q0996 NOSIG=
200902040550 METAR COR EGLL 040550Z 10008KT 7000 NSC M01/M02 Q0996 NOSIG=
200902040520 METAR COR EGLL 040520Z 09007KT 7000 NSC M01/M02 Q0996 NOSIG=
200902040450 METAR COR EGLL 040450Z 09007KT 7000 NSC M01/M02 Q0996 NOSIG=
200902040420 METAR COR EGLL 040420Z 09007KT 7000 FEW020 M01/M02 Q0996
                        NOSIG=
200902040350 METAR COR EGLL 040350Z 08007KT 9000 FEW019 M00/M02 Q0996
                        NOSIG=
200902040320 METAR COR EGLL 040320Z 09008KT 9000 FEW040 M00/M02 Q0996
                        NOSIG=
200902040250 METAR COR EGLL 040250Z 12008KT 9000 FEW040 00/M02 Q0996 NOSIG=
200902040220 METAR COR EGLL 040220Z 11009KT 9000 BKN041 01/M01 Q0996 NOSIG=
200902040150 METAR COR EGLL 040150Z 11009KT 9000 BKN042 01/M01 Q0997 NOSIG=
200902040120 METAR COR EGLL 040120Z 12009KT 9000 BKN047 01/M01 Q0997 NOSIG=
200902040050 METAR COR EGLL 040050Z 13008KT CAVOK 01/M01 Q0997 NOSIG=
200902040020 METAR COR EGLL 040020Z 13009KT CAVOK 01/M01 Q0997 NOSIG=
200902032350 METAR COR EGLL 032350Z 13010KT 9999 FEW038 02/M01 Q0997 NOSIG=
200902032320 METAR COR EGLL 032320Z 13009KT 9999 BKN038 02/M01 Q0997 NOSIG=
200902032250 METAR COR EGLL 032250Z 13011KT 9999 FEW031 01/M01 Q0997 NOSIG=
200902032220 METAR COR EGLL 032220Z 13010KT 9999 BKN030 02/M01 Q0998 NOSIG=
200902032150 METAR COR EGLL 032150Z 11010KT 9999 SCT032 BKN044 01/M01
                        Q0998 NOSIG=
200902032120 METAR COR EGLL 032120Z 11009KT 9999 SCT036 BKN044 01/M01
                        Q0998 NOSIG=
200902032050 METAR COR EGLL 032050Z 11008KT 9999 FEW048 00/M02 Q0998 NOSIG=
200902032020 METAR COR EGLL 032020Z 11008KT 9999 FEW034 00/M02 Q0998 NOSIG=
200902031950 METAR COR EGLL 031950Z 11009KT CAVOK M00/M02 Q0998 NOSIG=
200902031920 METAR COR EGLL 031920Z 11008KT CAVOK M00/M02 Q0998 NOSIG=
200902031850 METAR COR EGLL 031850Z 11007KT CAVOK 00/M02 Q0998 NOSIG=
200902031820 METAR COR EGLL 031820Z 10006KT CAVOK 00/M02 Q0998 NOSIG=
200902031750 METAR COR EGLL 031750Z 13006KT CAVOK 02/M01 Q0998 NOSIG=
200902031720 METAR COR EGLL 031720Z 14007KT 9999 FEW036 02/M01 Q0998 NOSIG=
200902031650 METAR COR EGLL 031650Z 15007KT 9999 SCT033 03/M01 Q0998 NOSIG=
200902031620 METAR EGLL 031620Z 16008KT 9999 SCT028 03/M01 Q0998=
200902031550 METAR COR EGLL 031550Z 16009KT 9999 SCT032 04/M01 Q0997 NOSIG=
200902031520 METAR COR EGLL 031520Z 16008KT 9999 FEW024 BKN032 04/M00
                        Q0997 NOSIG=
200902031450 METAR COR EGLL 031450Z 15007KT 9999 SCT025 SCT035 04/M00
                        Q0997 NOSIG=
200902031420 METAR COR EGLL 031420Z 14008KT 9999 SCT025 BKN034 04/M00
                        Q0997 NOSIG=
200902031350 METAR COR EGLL 031350Z 14008KT 9999 SCT021 SCT032 04/M00
                        Q0997 NOSIG=
200902031320 METAR COR EGLL 031320Z 15009KT 9999 FEW021 BKN030 03/M00
                        Q0997 NOSIG=
200902031250 METAR COR EGLL 031250Z 15011KT 9999 VCSH SCT037 03/M00 Q0997
                        NOSIG=
200902031220 METAR COR EGLL 031220Z 16012KT 9999 FEW027 03/M01 Q0997 NOSIG=
200902031150 METAR COR EGLL 031150Z 15012KT 9999 FEW040 03/M01 Q0997 NOSIG=
200902031120 METAR COR EGLL 031120Z 15012KT CAVOK 02/M01 Q0997 NOSIG=
200902031050 METAR COR EGLL 031050Z 15010KT 9999 FEW030 02/M01 Q0997 NOSIG=
200902031020 METAR COR EGLL 031020Z 14011KT 9999 FEW040 01/M02 Q0997 NOSIG=
200902030950 METAR COR EGLL 030950Z 14008KT 9999 FEW032 01/M02 Q0997 NOSIG=
200902030920 METAR COR EGLL 030920Z 14009KT 9999 FEW048 M01/M02 Q0997
                        NOSIG=
200902030850 METAR EGLL 030850Z 13007KT 9000 SCT048 M02/M03 Q0996 NOSIG=
200902030820 METAR COR EGLL 030820Z 13006KT 9000 NSC M03/M04 Q0996 NOSIG=
200902030750 METAR COR EGLL 030750Z 13006KT 8000 FEW029 M02/M04 Q0996
                        NOSIG=
200902030720 METAR COR EGLL 030720Z 13008KT 8000 FEW029 SCT037 M02/M03
                        Q0996 NOSIG=
200902030650 METAR COR EGLL 030650Z 13008KT 8000 FEW028 M03/M04 Q0995
                        NOSIG=
200902030620 METAR COR EGLL 030620Z 13007KT 8000 FEW040 M03/M04 Q0995
                        NOSIG=
200902030550 METAR COR EGLL 030550Z 15008KT 7000 FEW031 M02/M03 Q0995
                        NOSIG=
200902030520 METAR COR EGLL 030520Z 13006KT 6000 NSC M03/M04 Q0995 TEMPO
                        4000 BR=
200902030450 METAR COR EGLL 030450Z 13007KT 5000 BR NSC M03/M04 Q0995
                        TEMPO 3000=
200902030420 METAR COR EGLL 030420Z 18005KT 5000 BR NSC M03/M04 Q0994
                        TEMPO 4000=
200902030350 METAR EGLL 030350Z 18005KT 6000 NSC M03/M04 Q0994=
200902030320 METAR COR EGLL 030320Z 18003KT 6000 NSC M03/M04 Q0994 TEMPO
                        4000 BR=
200902030250 METAR COR EGLL 030250Z 18003KT 7000 NSC M02/M03 Q0994 NOSIG=
200902030220 METAR COR EGLL 030220Z 18003KT 7000 NSC M02/M03 Q0994 TEMPO
                        4000 BR=
200902030150 METAR COR EGLL 030150Z 18004KT 8000 NSC M02/M03 Q0993 TEMPO
                        BKN010=
200902030120 METAR COR EGLL 030120Z 18005KT CAVOK M01/M03 Q0993 TEMPO
                        BKN010=
200902030050 METAR COR EGLL 030050Z 19009KT 9000 BKN010 M00/M02 Q0993
                        NOSIG=
200902030020 METAR COR EGLL 030020Z 20010KT 7000 SCT008 BKN010 00/M01
                        Q0993 TEMPO 4000 BR BKN007=
200902022350 METAR COR EGLL 022350Z 18010KT 5000 BR SCT006 BKN010 00/M01
                        Q0992 88CLRD95 TEMPO 3000=
200902022320 METAR COR EGLL 022320Z 19007KT 3400 BR BKN005 M00/M01 Q0992
                        99890194 99190095 NOSIG=
200902022250 METAR COR EGLL 022250Z 18007KT 3400 BR SCT004 BKN006 00/M00
                        Q0992 09890194 59190095 NOSIG=
200902022220 METAR COR EGLL 022220Z 17006KT 3800 BR BKN005 00/M00 Q0992
                        09810194 59//0095 NOSIG=
200902022150 METAR COR EGLL 022150Z 18005KT 5000 BR BKN006 01/M00 Q0991
                        99810194 99//0095 NOSIG=
200902022120 METAR COR EGLL 022120Z 17003KT 5000 -RA OVC006 01/M00 Q0991
                        09810194 59//0095 TEMPO 3000 BR=
200902022050 METAR COR EGLL 022050Z 17002KT 5000 BR OVC006 01/M00 Q0991
                        99810194 99//0095 TEMPO 3000=
200902022020 METAR COR EGLL 022020Z 00000KT 5000 BR BKN007 01/M00 Q0991
                        99810194 99//0095 NOSIG=
200902021950 METAR COR EGLL 021950Z VRB03KT 5000 -SN BKN009 00/M00 Q0991
                        99810194 99//0095 TEMPO 4000=
200902021920 METAR COR EGLL 021920Z VRB02KT 5000 -SN SCT007 BKN010 00/M00
                        Q0991 09810194 59//0095 TEMPO 4000=
200902021850 METAR COR EGLL 021850Z VRB03KT 5000 -SN FEW006 SCT009 BKN012
                        00/M00 Q0991 99810194 99//0095 TEMPO
                        4000 BR=
200902021820 METAR COR EGLL 021820Z 36004KT 340V070 5000 -SN BKN006 BKN011
                        00/M00 Q0991 99810194 99//0095 TEMPO
                        4000 BR=
200902021750 METAR COR EGLL 021750Z 36005KT 330V030 5000 -SN SCT007 OVC012
                        00/M00 Q0991 09810194 59//0095 TEMPO
                        4000 BR=
200902021720 METAR COR EGLL 021720Z 36005KT 5000 -SN FEW008 SCT012 BKN019
                        00/M00 Q0992 99//0095 TEMPO BKN012=
200902021650 METAR COR EGLL 021650Z 01006KT 5000 -SG BKN008 BKN019 00/M01
                        Q0992 99//0095 TEMPO 4000=
200902021620 METAR EGLL 021620Z 36006KT 4000 -SN BKN009 00/M01 Q0992 99190095
                        TEMPO 5000 BKN012=
200902021550 METAR EGLL 021550Z 36006KT 2000 -SN SCT008 BKN018 00/M01
                        Q0992 99190094 TEMPO BKN008=
200902021520 METAR COR EGLL 021520Z 36007KT 330V030 2000 SN BKN006 BKN012
                        M00/M01 Q0993 99190094 NOSIG=
200902021450 METAR COR EGLL 021450Z 01007KT 340V050 1700 R09R/1200 SN
                        BKN006 M00/M01 Q0993 99190094 TEMPO
                        BKN004=
200902021420 METAR COR EGLL 021420Z 01005KT 340V050 2000 SN BKN006 M00/M01
                        Q0994 59190094 TEMPO BKN004=
200902021350 METAR EGLL 021350Z 02006KT 340V060 3000 R09R/1100 -SN SCT009
                        M00/M01 Q0994 59190094=
200902021320 METAR COR EGLL 021320Z 02006KT 350V050 6000 -SN FEW012 M01/M02
                        Q0995 59190093 BECMG 4000 BKN012=
200902021250 METAR EGLL 021250Z 02006KT 5000 -SN BKN010 M01/M02 Q0996
                        99190093=
200902021220 METAR COR EGLL 021220Z 02007KT 330V050 3500 -SN BKN010 M01/M02
                        Q0996 59190093 TEMPO 1400 SN BKN008=
200902021150 METAR COR EGLL 021150Z 02006KT 340V050 2500 -SN BKN010 M01/M02
                        Q0997 99190093 TEMPO 5000=
200902021120 METAR COR EGLL 021120Z 03006KT 350V070 5000 -SN FEW008 BKN013
                        M01/M02 Q0997 59190093 BECMG 4000=
200902021050 METAR COR EGLL 021050Z 03006KT 350V070 7000 FEW010 BKN018
                        M01/M02 Q0998 59610193 TEMPO 4000
                        -SN BKN014=
200902021020 METAR COR EGLL 021020Z 03007KT 360V060 7000 FEW010 BKN035
                        M01/M02 Q0998 99590593 TEMPO 4000
                        -SN BKN014=
200902020950 METAR COR EGLL 020950Z 03006KT 3500 -SN BKN010 M02/M02 Q0998
                        99590593 TEMPO SCT010 BKN020=
200902020920 METAR COR EGLL 020920Z 03007KT 360V070 3500 -SN SCT006 BKN018
                        M02/M02 Q0999 99590593 TEMPO BKN014=
200902020850 METAR COR EGLL 020850Z 02007KT 350V050 3000 -SN FEW008 OVC017
                        M02/M02 Q0999 RESN 99590593 TEMPO
                        1400 BKN014=
200902020820 METAR COR EGLL 020820Z 02007KT 1000 R09R/P1500 SN BKN004
                        M02/M02 Q0999 99590593 TEMPO 2000
                        -SN=
200902020750 METAR COR EGLL 020750Z 03007KT 360V060 0700 R09R/1300 SN
                        BKN005 M02/M02 Q1000 99590593 TEMPO
                        1400=
200902020720 METAR COR EGLL 020720Z 03008KT 0800 R09R/1200 SN VV/// M02/M02
                        Q1000 99590593 TEMPO 0200 +SHSN=
200902020650 METAR COR EGLL 020650Z 03008KT 360V070 1500 R09R/1100 SN
                        FEW003 BKN008 M02/M03 Q1000 59590593
                        TEMPO 0200 +SHSN BKN004=
200902020620 METAR COR EGLL 020620Z 02008KT 350V060 1500 SN FEW003 BKN008
                        M02/M03 Q1001 59590593 TEMPO 0200
                        +SN BKN004=
200902020550 METAR EGLL 020550Z 03008KT 350V050 1700 -SN SCT002 SCT011
                        M02/M03 Q1001 59590593=
200902020520 METAR COR EGLL 020520Z 03009KT 360V060 0800 R09R/1400 SN
                        FEW003 BKN010 M02/M03 Q1001 99490893
                        TEMPO 2000 SN BKN004=
200902020450 METAR COR EGLL 020450Z 04008KT 360V070 6000 -SN FEW006 BKN009
                        M02/M03 Q1002 59490893 TEMPO 2000
                        SN BKN005=
200902020420 METAR COR EGLL 020420Z 04007KT 360V070 2200 -SN BKN006 M02/M02
                        Q1002 59491091 TEMPO 1000 SN BKN004=
200902020350 METAR COR EGLL 020350Z 03008KT 0800 R09R/1400 -SN SCT002
                        BKN021 M02/M03 Q1003 59490591 TEMPO
                        2000 SN BKN007=
200902020320 METAR COR EGLL 020320Z 02008KT 5000 -SN FEW009 SCT013 M02/M03
                        Q1003 09492092 59492092 TEMPO 1200
                        SN BKN007=
200902020250 METAR COR EGLL 020250Z 04007KT 360V060 5000 -SN FEW007 BKN010
                        BKN017 M02/M02 Q1003 09492092 59492092
                        TEMPO 0500 +SHSN BKN004=
200902020220 METAR COR EGLL 020220Z 03009KT 4000 -SN FEW003 SCT011 M02/M02
                        Q1004 RESN 09492092 59492092 TEMPO
                        1200 SN BKN004=
200902020150 METAR EGLL 020150Z 02007KT 350V060 0600 R09L/P1500 R09R/P1500
                        SN SCT003 M02/M02 Q1004 09492092
                        59492092=
200902020120 METAR EGLL 020120Z NIL=
200902020050 METAR COR EGLL 020050Z 04008KT 360V070 0600 R09L/P1500 R09R/P1500
                        - SN BKN002 M02/M03 Q1005 RESN TEMPO
                        2000 -SN BKN010=
200902020020 METAR COR EGLL 020020Z 04006KT 010V080 0600 R09L/P1500 R09R/1000
                        SN VV/// M02/M03 Q1006 TEMPO 3000
                        SN BKN010=
200902012350 METAR COR EGLL 012350Z 03007KT 340V070 0600 R09L/0700 R09R/0900
                        SN VV/// M02/M03 Q1006 TEMPO 3000
                        -SN BKN010=
200902012320 METAR COR EGLL 012320Z 03007KT 340V060 1000 R09L/P1500 R09R/P1500
                        SN BKN003 M03/M03 Q1006 RESN TEMPO
                        0200 +SN BKN001=
200902012250 METAR COR EGLL 012250Z 04008KT 4000 -SN BKN009 M03/M04 Q1007
                        TEMPO 1400 SHSN BKN004=
200902012220 METAR COR EGLL 012220Z 04008KT 010V070 8000 FEW018 M03/M04
                        Q1007 TEMPO 3000 SHSN BKN010=
200902012150 METAR COR EGLL 012150Z 05008KT 020V080 7000 1800SE -SHSN
                        FEW007 BKN021 M02/M03 Q1007 TEMPO
                        1000 SHSN BKN010=
200902012120 METAR COR EGLL 012120Z 04009KT 5000 -SHSN FEW010 SCT020 M02/M03
                        Q1007 TEMPO 2000 SHSN BKN010=
200902012050 METAR COR EGLL 012050Z 05009KT 2500 1100W SHSN SCT015 M02/M03
                        Q1008 TEMPO 0500 +SHSN BKN002=
200902012020 METAR COR EGLL 012020Z 05008KT 350V080 9999 SCT018 M02/M03
                        Q1008 RESHSN TEMPO 1000 SHSN BKN007CB=
200902011950 METAR COR EGLL 011950Z 05008KT 020V080 1000 R09L/1500 R09R/1300
                        SHSN OVC005 M02/M04 Q1008 TEMPO 0400
                        +SHSN BKN002=
200902011920 METAR COR EGLL 011920Z 04009KT 9999 SCT028 M02/M05 Q1008
                        NOSIG=
200902011850 METAR COR EGLL 011850Z 04009KT 9999 FEW028 M02/M06 Q1008
                        TEMPO 4000 -SHSN=
200902011820 METAR COR EGLL 011820Z 05010KT 010V080 9999 FEW028 M02/M06
                        Q1008 NOSIG=
200902011750 METAR EGLL 011750Z 06010KT 360V080 9999 FEW028 M01/M06 Q1008=
200902011720 METAR COR EGLL 011720Z 06012KT 030V100 9999 FEW024CB M01/M06
                        Q1009 NOSIG=
200902011650 METAR COR EGLL 011650Z 07017KT 9999 3000E -SHSN SCT020CB
                        00/M07 Q1009 TEMPO 2000 SHSN=
200902011620 METAR COR EGLL 011620Z 07017KT 9999 FEW020CB 00/M08 Q1009
                        TEMPO 4000 -SHSN=
200902011550 METAR COR EGLL 011550Z 07013KT 9999 FEW020CB 01/M08 Q1009
                        TEMPO 4000 -SHSN=
200902011520 METAR COR EGLL 011520Z 06017KT 9999 VCSH FEW020CB 01/M08
                        Q1009 TEMPO -SHSN=
200902011450 METAR EGLL 011450Z 07016KT 9999 VCSH FEW045 02/M07 Q1009=
200902011420 METAR COR EGLL 011420Z 06018KT 9999 FEW045 02/M06 Q1009 NOSIG=
200902011350 METAR COR EGLL 011350Z 06018G28KT 020V090 9999 FEW046 03/M09
                        Q1009 NOSIG=
200902011320 METAR COR EGLL 011320Z 07017KT 9999 SCT026 SCT045 03/M06
                        Q1009 NOSIG=
200902011250 METAR EGLL 011250Z 06015KT 9999 FEW023 SCT030 02/M04 Q1010=
200902011220 METAR COR EGLL 011220Z 07015KT 9999 BKN039 02/M05 Q1010 NOSIG=
200902011150 METAR EGLL 011150Z 07017KT 9999 SCT039 03/M05 Q1011=
200902011120 METAR COR EGLL 011120Z 07016KT 9999 BKN035 02/M05 Q1011 NOSIG=
200902011050 METAR COR EGLL 011050Z 07015KT 9999 BKN032 02/M04 Q1011 NOSIG=
200902011020 METAR COR EGLL 011020Z 07015KT 9999 BKN031 02/M04 Q1012 NOSIG=
200902010950 METAR COR EGLL 010950Z 07015KT 9999 BKN030 02/M04 Q1012 NOSIG=
200902010920 METAR COR EGLL 010920Z 07019KT 9999 BKN030 02/M04 Q1012 NOSIG=
200902010850 METAR COR EGLL 010850Z 07015KT 9999 BKN029 02/M04 Q1012 NOSIG=
200902010820 METAR COR EGLL 010820Z 08016KT 9999 BKN031 02/M04 Q1012 NOSIG=
200902010750 METAR EGLL 010750Z 08014G24KT 9999 BKN030 02/M04 Q1012=
200902010720 METAR COR EGLL 010720Z 08012KT 9999 BKN029 02/M04 Q1012 NOSIG=
200902010650 METAR COR EGLL 010650Z 08010KT 030V130 9999 BKN028 02/M03
                        Q1012 NOSIG=
200902010620 METAR COR EGLL 010620Z 08011KT 9999 BKN032 01/M03 Q1012 NOSIG=
200902010550 METAR COR EGLL 010550Z 09010KT 9999 OVC029 01/M04 Q1012 NOSIG=
200902010520 METAR COR EGLL 010520Z 09011KT 9999 FEW030 00/M04 Q1012 NOSIG=
200902010450 METAR COR EGLL 010450Z 09010KT CAVOK M00/M04 Q1012 NOSIG=
200902010420 METAR COR EGLL 010420Z 09010KT 9000 NSC M00/M04 Q1013 NOSIG=
200902010350 METAR COR EGLL 010350Z 09009KT 9000 NSC M01/M04 Q1013 NOSIG=
200902010320 METAR COR EGLL 010320Z 10014KT 9999 FEW019 M00/M04 Q1013
                        NOSIG=
200902010250 METAR COR EGLL 010250Z 09012KT 9000 BKN018 00/M03 Q1013 NOSIG=
200902010220 METAR COR EGLL 010220Z 09015KT 9000 OVC018 01/M03 Q1013 NOSIG=
200902010150 METAR EGLL 010150Z NIL=
200902010120 METAR COR EGLL 010120Z 09016KT 9000 SCT020 01/M02 Q1013 NOSIG=
200902010050 METAR COR EGLL 010050Z 09012KT 9000 FEW018 01/M02 Q1013 NOSIG=
200902010020 METAR COR EGLL 010020Z 09012KT 9000 SCT020 01/M02 Q1013 NOSIG=

# No short TAF reports from EGLL in databse.

###################################
#  large TAF from EGLL
###################################
200903032306 TAF EGLL 032306Z 0400/0506 26009KT 9999 FEW014 SCT025
                      TEMPO 0400/0404 7000 RA BKN014
                      PROB40 TEMPO 0404/0506 7000 SHRASN BKN014CB
                       PROB30
                      TEMPO 0413/0417 3000 SHSNGS BKN009
                      PROB40 0500/0506 7000=
200903032140 TAF AMD EGLL 032140Z 0321/0424 19023G37KT 7000 RA SCT012 BKN016
                       TEMPO 0321/0402 3000 +RA BKN012
                      BECMG 0323/0402 26008KT
                      BECMG 0404/0407 9999 NSW
                      TEMPO 0410/0424 6000 SHRASN BKN014CB
                      PROB30 TEMPO 0413/0424 2000 SHSNGS BKN008=
200903031659 TAF EGLL 031659Z 0318/0424 19023G37KT 7000 RA BKN014
                      TEMPO 0319/0324 3000 +RA
                      BECMG 0323/0402 26008KT
                      BECMG 0403/0406 9999 NSW SCT020
                      TEMPO 0410/0424 6000 SHRASN BKN014CB
                      PROB30 TEMPO 0413/0424 2000 SHSNGS BKN008=
200903031100 TAF EGLL 031100Z 0312/0418 21015G25KT 9999 SCT012 BKN020
                      TEMPO 0312/0315 8000 -RADZ BKN012
                      BECMG 0315/0318 19023G37KT 6000 RA BKN014
                       TEMPO 0319/0324 3000 +RA
                      BECMG 0323/0402 26008KT 9999 NSW SCT020
                      TEMPO 0411/0418 5000 SHRASN BKN014CB
                      PROB30 TEMPO 0416/0418 2000 SHSNGS BKN008=
200903030507 TAF EGLL 030507Z 0306/0412 22009KT 9999 SCT010 BKN018
                      TEMPO 0306/0310 9000 -RADZ BKN012
                      PROB40 TEMPO 0306/0309 BKN009
                      BECMG 0309/0312 21015G25KT
                      BECMG 0314/0317 19022G38KT 6000 RA BKN014
                       TEMPO 0318/0324 3000 +RA
                      BECMG 0323/0402 26008KT 9999 NSW SCT020
                      PROB30 TEMPO 0402/0412 5000 SHRASN BKN014CB=
200903030211 TAF AMD EGLL 030211Z 0302/0406 22009KT 9999 SCT012 BKN018
                      TEMPO 0302/0310 9000 -RADZ BKN012
                      PROB30 TEMPO 0304/0309 4500 BR BKN009
                      BECMG 0309/0312 21015G25KT
                      BECMG 0314/0317 19022G38KT 6000 RA BKN014
                       TEMPO 0318/0323 3000 +RA
                      BECMG 0323/0402 26008KT 9999 NSW SCT020=
200903022307 TAF EGLL 022307Z 0300/0406 22009KT 9999 SCT012 BKN018
                      BECMG 0300/0302 BKN012
                      TEMPO 0302/0309 7000 -RA
                      PROB40 TEMPO 0303/0309 4000 -RADZ BR BKN007
                       BECMG 0309/0312 21015G25KT SCT018
                      BECMG 0314/0317 19022G38KT 6000 RA BKN014
                       TEMPO 0318/0323 3000 +RA
                      BECMG 0323/0402 26008KT 9999 NSW SCT020=
200903022300 TAF AMD EGLL 030211Z 0302/0406 22009KT 9999 SCT012 BKN018
                      TEMPO 0302/0310 9000 -RADZ BKN012
                      PROB30 TEMPO 0304/0309 4500 BR BKN009
                      BECMG 0309/0312 21015G25KT
                      BECMG 0314/0317 19022G38KT 6000 RA BKN014
                       TEMPO 0318/0323 3000 +RA
                      BECMG 0323/0402 26008KT 9999 NSW SCT020=
200903021656 TAF EGLL 021656Z 0218/0324 26010KT 9999 SCT040
                      BECMG 0222/0224 -RA BKN012
                      TEMPO 0300/0309 4000 -DZ BR BKN006
                      BECMG 0309/0311 21015G25KT NSW SCT025
                      BECMG 0314/0317 19022G35KT 6000 RA BKN014
                       TEMPO 0318/0324 3000 +RA=
200903021101 TAF EGLL 021101Z 0212/0318 28008KT 9999 FEW025
                      BECMG 0223/0301 8000 -RA BKN012
                      TEMPO 0302/0309 4000 -RADZ BR BKN006
                      BECMG 0309/0311 21015G25KT 9999 NSW SCT025
                       BECMG 0314/0317 19022G35KT 6000 RA BKN014=
200903020454 TAF EGLL 020454Z 0206/0312 29008KT 9999 FEW030
                      PROB30 0206/0209 8000
                      BECMG 0222/0301 7000 -RA BKN012
                      TEMPO 0303/0312 4000 -RADZ BKN007
                      BECMG 0306/0310 21015KT=
200903012303 TAF EGLL 012303Z 0200/0306 29007KT 9999 FEW030
                      PROB30 0205/0209 7000
                      BECMG 0216/0219 23010KT
                      PROB40 0302/0306 7000 -RA BKN012
                      PROB30 TEMPO 0304/0306 4000 -RADZ BKN007=
200903011701 TAF EGLL 011701Z 0118/0224 30007KT 9999 FEW030
                      PROB40 0205/0209 7000
                      BECMG 0215/0218 24010KT=
200903011103 TAF EGLL 011103Z 0112/0218 29007KT 6000 SCT025
                      BECMG 0112/0115 9999
                      PROB40 TEMPO 0112/0113 BKN014
                      PROB40 0205/0209 7000=
200903010446 TAF EGLL 010446Z 0106/0212 09005KT 9999 FEW012 BKN030
                      TEMPO 0106/0114 7000 BKN012
                      PROB30 TEMPO 0106/0110 3000 BR BKN006
                      BECMG 0108/0111 29010KT
                      TEMPO 0200/0209 5000 BR=
200903010329 TAF AMD EGLL 010329Z 0103/0206 09005KT 9999 BKN030
                      PROB40 0103/0110 7000 BKN012
                      PROB30 TEMPO 0105/0110 3000 BR BKN004
                      PROB30 TEMPO 0112/0117 6000 -RA BKN010
                      TEMPO 0200/0206 5000 BR=
200902282301 TAF EGLL 282301Z 0100/0206 09005KT 9999 FEW020
                      BECMG 0101/0104 7000
                      BECMG 0104/0107 3500 BR BKN008
                      PROB30 TEMPO 0105/0109 1200 BKN004
                      BECMG 0108/0112 9999 NSW SCT010
                      PROB40 TEMPO 0112/0117 6000 -RA BKN010
                      TEMPO 0200/0206 5000 BR=
200902282300 TAF AMD EGLL 010329Z 0103/0206 09005KT 9999 BKN030
                      PROB40 0103/0110 7000 BKN012
                      PROB30 TEMPO 0105/0110 3000 BR BKN004
                      PROB30 TEMPO 0112/0117 6000 -RA BKN010
                      TEMPO 0200/0206 5000 BR=
200902281829 TAF AMD EGLL 281829Z 2818/0124 14005KT 9999 FEW020
                      BECMG 2822/0101 7000
                      BECMG 0101/0104 3500 BR BKN008
                      PROB30 TEMPO 0105/0109 1200 BKN004
                      BECMG 0108/0111 6000 NSW BKN010
                      BECMG 0111/0114 9999 SCT020=
200902281655 TAF EGLL 281655Z 2818/0124 14005KT 9999 BKN030
                      BECMG 2822/0101 7000
                      BECMG 0101/0104 3500 BR BKN008
                      PROB30 TEMPO 0105/0109 1200 BKN004
                      BECMG 0108/0111 6000 NSW BKN010
                      BECMG 0111/0114 9999 SCT020=
200902281100 TAF EGLL 281100Z 2812/0118 20006KT 9999 BKN030
                      BECMG 2821/2824 7000
                      BECMG 0101/0104 3000 BR BKN006
                      PROB30 0105/0110 1200 BKN003
                      BECMG 0109/0112 6000 NSW BKN010
                      BECMG 0112/0115 9999 SCT020=
200902280459 TAF EGLL 280459Z 2806/0112 27008KT 9999 BKN025
                      PROB30 TEMPO 2806/2809 7000
                      BECMG 2821/2824 7000
                      BECMG 0101/0104 3000 BR BKN006
                      PROB30 0105/0110 1200 BKN003
                      BECMG 0109/0112 6000 NSW BKN010=
200902272254 TAF EGLL 272254Z 2800/0106 27007KT 9999 BKN030
                      PROB40 2802/2810 7000
                      PROB30 TEMPO 2804/2809 4000 BR
                      BECMG 2821/2824 7000
                      PROB40 0102/0106 2000 BR BKN004=
200902271653 TAF EGLL 271653Z 2718/2824 26007KT 9999 BKN025
                      PROB40 2723/2810 7000
                      PROB30 TEMPO 2803/2809 4000 BR BKN010
                      PROB30 2821/2824 7000=
200902271055 TAF EGLL 271055Z 2712/2818 27010KT 9999 FEW018 SCT040
                      BECMG 2723/2802 7000
                      PROB30 2803/2809 3000 BR BKN005
                      BECMG 2809/2812 9999=
200902270455 TAF EGLL 270455Z 2706/2812 26008KT 9999 SCT035
                      PROB30 2706/2709 7000
                      BECMG 2723/2802 7000
                      PROB30 2803/2809 3000 BR BKN005=
200902262255 TAF EGLL 262255Z 2700/2806 26008KT 9999 FEW035
                      PROB40 2703/2710 7000
                      PROB30 2704/2709 4000 -RADZ BKN008
                      BECMG 2723/2802 7000
                      PROB30 2803/2806 3000 BR BKN009=
200902261633 TAF EGLL 261633Z 2618/2724 27008KT 9999 SCT020
                      TEMPO 2700/2710 6000 -RA BKN012
                      PROB40 TEMPO 2702/2709 4000 -RADZ BKN008
                       PROB40
                      TEMPO 2710/2713 BKN014=
200902261043 TAF EGLL 261043Z 2612/2718 27012KT 9999 SCT020
                      BECMG 2621/2624 7000
                      TEMPO 2623/2710 6000 -RA BKN012
                      PROB30 TEMPO 2700/2709 4000 RADZ BKN008
                      PROB30 TEMPO 2710/2713 BKN014=
200902260500 TAF EGLL 260500Z 2606/2712 26010KT 7000 BKN025
                      BECMG 2606/2608 9999
                      PROB30 TEMPO 2606/2608 BKN010
                      PROB30 TEMPO 2615/2622 7000 -RA
                      BECMG 2621/2624 7000
                      TEMPO 2623/2708 4000 RADZ BKN010=
200902252259 TAF EGLL 252259Z 2600/2706 26010KT 9999 BKN025
                      BECMG 2600/2604 7000
                      PROB30 TEMPO 2603/2608 BKN006
                      BECMG 2608/2610 9999
                      PROB30 TEMPO 2613/2620 7000 -RA
                      BECMG 2620/2623 7000
                      TEMPO 2622/2706 4000 RADZ BKN010=
200902251659 TAF EGLL 251659Z 2518/2624 26010KT 9999 BKN025
                      PROB40 2600/2609 7000
                      PROB30 2603/2608 BKN006=
200902251355 TAF AMD EGLL 251355Z 2514/2618 26008KT 9999 BKN025
                      PROB30 TEMPO 2514/2518 7000 -RA BKN014
                      PROB30 2600/2608 7000 BKN006
                      PROB40 2616/2618 7000 -DZ BKN014=
200902251055 TAF EGLL 251055Z 2512/2618 26008KT 9999 BKN025
                      PROB30 2600/2608 7000 BKN006
                      PROB40 2616/2618 7000 -DZ BKN014=
200902250502 TAF EGLL 250502Z 2506/2612 26005KT 7000 BKN025
                      BECMG 2508/2511 9999
                      PROB30 TEMPO 2600/2608 7000 BKN007=
200902242302 TAF EGLL 242302Z 2500/2606 VRB04KT 6000 BKN030
                      PROB30 TEMPO 2502/2508 4000 BR BKN010
                      BECMG 2508/2511 26010KT 9999
                      PROB30 TEMPO 2600/2606 6000 -DZ BKN007=
200902241657 TAF EGLL 241657Z 2418/2524 VRB04KT 7000 BKN030
                      PROB30 2418/2420 9999
                      PROB30 2502/2508 3000 BR BKN006
                      BECMG 2508/2511 26010KT 9999=
200902241059 TAF EGLL 241059Z 2412/2518 VRB05KT 7000 BKN025
                      PROB40 2412/2415 4000 BR BKN008
                      PROB30 2413/2420 9999
                      PROB30 2502/2508 3000 BR BKN004
                      BECMG 2508/2511 26010KT 9999=
200902240800 TAF AMD EGLL 240800Z 2408/2512 VRB03KT 7000 BKN020
                      PROB30 2408/2411 4000 BR BKN007
                      BECMG 2410/2413 9999
                      BECMG 2423/2502 6000
                      BECMG 2502/2505 2500 BR BKN004
                      TEMPO 2505/2508 0800 FG BKN001
                      BECMG 2509/2512 8000 NSW BKN012=
200902240508 TAF EGLL 240508Z 2406/2512 VRB03KT 7000 BKN014
                      PROB30 TEMPO 2406/2410 4000 BR BKN007
                      BECMG 2410/2413 9999 BKN025
                      BECMG 2423/2502 6000
                      BECMG 2502/2505 2500 BR BKN004
                      TEMPO 2505/2508 0800 FG BKN001
                      BECMG 2509/2512 8000 NSW BKN012=
200902232302 TAF EGLL 232302Z 2400/2506 VRB03KT 9999 BKN025
                      BECMG 2403/2406 7000 BKN014
                      PROB30 TEMPO 2406/2410 3500 BR BKN007
                      BECMG 2410/2413 9999 BKN020
                      BECMG 2421/2424 7000 BKN014
                      BECMG 2500/2503 4000 BR
                      PROB30 2504/2506 1400 BR BKN002=
200902231704 TAF EGLL 231704Z 2318/2424 32007KT 9999 SCT025 BKN030
                      TEMPO 2318/2322 7000
                      BECMG 2322/2401 6000 BKN010
                      BECMG 2401/2404 BKN007
                      TEMPO 2401/2409 4000 BR
                      PROB40 TEMPO 2405/2409 BKN004
                      BECMG 2410/2413 9999 BKN015
                      PROB40 2421/2424 8000 BKN008=
200902231105 TAF EGLL 231105Z 2312/2418 33008KT 9999 BKN020
                      TEMPO 2318/2322 7000
                      BECMG 2322/2401 6000 BKN010
                      BECMG 2401/2404 BKN007
                      TEMPO 2401/2409 4000 BR
                      BECMG 2410/2413 9999 BKN015=
200902230503 TAF EGLL 230503Z 2306/2412 33008KT 9999 BKN025
                      TEMPO 2306/2310 7000 -RADZ BKN012
                      TEMPO 2318/2324 7000
                      BECMG 2400/2403 6000 BKN010
                      TEMPO 2402/2409 3000 BR BKN005
                      BECMG 2410/2412 9999 BKN015=
200902222250 TAF EGLL 222250Z 2300/2406 32007KT 9999 BKN025
                      TEMPO 2307/2406 7000 -RADZ BKN012
                      PROB30 TEMPO 2321/2406 4000 BR BKN008=
200902221703 TAF EGLL 221703Z 2218/2324 31008KT 9999 SCT040
                      TEMPO 2305/2324 7000 -RADZ BKN012
                      PROB30 TEMPO 2321/2324 BKN009=
200902221059 TAF EGLL 221059Z 2212/2318 30010KT 9999 BKN030
                      PROB30 TEMPO 2212/2216 32015G25KT
                      TEMPO 2305/2318 7000 -RADZ BKN010=
200902220739 TAF COR EGLL 220739Z 2207/2312 28008KT 9999 BKN018
                      TEMPO 2207/2210 5000 -DZ BKN010
                      TEMPO 2210/2218 32015G25KT
                      TEMPO 2305/2312 7000 -RA BKN010=
200902220450 TAF EGLL 220450Z 2206/2312 28008KT 9999 BKN018
                      TEMPO 2206/2210 5000 -DZ BKN010
                      BECMG 2210/2213 32012G22KT
                      BECMG 2216/2219 31010KT
                      TEMPO 2305/2312 7000 -RA BKN010=
200902212256 TAF EGLL 212256Z 2200/2306 28008KT 9999 SCT025
                      TEMPO 2200/2206 8000
                      TEMPO 2206/2210 5000 -DZ BKN010
                      BECMG 2210/2213 34010KT
                      PROB30 TEMPO 2212/2217 33015G25KT
                      PROB30 TEMPO 2304/2306 7000 -RA BKN014=
200902212225 TAF AMD EGLL 212225Z 2122/2224 28008KT CAVOK
                      TEMPO 2122/2207 8000
                      BECMG 2203/2206 BKN025
                      TEMPO 2207/2210 5000 -DZ HZ BKN010
                      BECMG 2210/2213 34010KT
                      PROB40 TEMPO 2212/2216 33015G25KT=
200902211652 TAF EGLL 211652Z 2118/2224 28008KT CAVOK
                      BECMG 2203/2206 BKN025
                      TEMPO 2207/2210 5000 -DZ HZ BKN010
                      BECMG 2210/2213 34010KT
                      PROB40 TEMPO 2212/2216 33015G25KT=
200902211103 TAF EGLL 211103Z 2112/2218 27007KT 9999 FEW035
                      TEMPO 2207/2210 5000 -DZ HZ BKN010
                      BECMG 2210/2213 33010KT=
200902210444 TAF EGLL 210444Z 2106/2212 29007KT 9999 SCT045
                      PROB40 2106/2110 7000
                      TEMPO 2121/2210 7000
                      PROB40 TEMPO 2203/2210 -DZ BKN008=
200902202235 TAF EGLL 202235Z 2100/2206 30005KT 9999 SCT040
                      PROB40 2100/2110 7000
                      PROB30 TEMPO 2100/2109 3000 BR
                      BECMG 2119/2123 6000
                      PROB40 2202/2206 4000 BR BKN008=
200902201709 TAF EGLL 201709Z 2018/2124 30006KT 9999 SCT040
                      PROB40 2020/2110 7000
                      PROB30 TEMPO 2100/2108 3000 BR=
200902201105 TAF EGLL 201105Z 2012/2118 33006KT 7000 SCT018
                      PROB30 2012/2021 9999
                      PROB30 2022/2109 3000 BR
                      BECMG 2109/2112 9999=
200902201055 TAF AMD EGLL 201055Z 2010/2112 33006KT 8000 SCT014
                      PROB40 2012/2021 9999
                      PROB30 2022/2108 3000 BR
                      BECMG 2108/2111 9999=
200902200459 TAF EGLL 200459Z 2006/2112 33006KT 8000 SCT040
                      PROB40 2006/2010 BKN012
                      PROB30 TEMPO 2006/2009 4000 BR BKN007
                      BECMG 2008/2011 9999
                      BECMG 2021/2024 7000
                      PROB30 2101/2106 3000 BR
                      BECMG 2107/2110 9999=
200902192258 TAF EGLL 192258Z 2000/2106 27008KT 9999 SCT040
                      PROB40 2000/2010 7000 -RA BKN012
                      BECMG 2001/2004 33010KT
                      PROB30 2003/2009 4000 BR BKN007
                      BECMG 2018/2021 27005KT
                      BECMG 2021/2024 7000
                      PROB30 2101/2106 3000 BR=
200902191945 TAF AMD EGLL 191945Z 1919/2024 27008KT 9999 SCT040
                      PROB30 TEMPO 1919/1920 7000 SHRA
                      TEMPO 2000/2009 7000 -RA BKN012
                      BECMG 2001/2004 35010KT
                      PROB40 TEMPO 2003/2009 4000 BR BKN007
                      BECMG 2019/2023 27005KT=
200902191644 TAF EGLL 191644Z 1918/2024 27008KT 9999 FEW015 BKN040
                      PROB30 TEMPO 1918/1920 7000 SHRA
                      TEMPO 2000/2009 7000 -RA BKN012
                      BECMG 2001/2004 35010KT
                      PROB40 TEMPO 2003/2009 4000 BR BKN007
                      BECMG 2019/2023 27005KT=
200902191047 TAF EGLL 191047Z 1912/2018 27005KT 6000 SCT015 BKN040
                      PROB40 TEMPO 1912/1914 4000 HZ BKN009
                      BECMG 1913/1915 9999
                      BECMG 2001/2004 35010KT
                      TEMPO 2002/2009 7000 -RA BKN012
                      PROB30 TEMPO 2003/2009 4000 -DZ BR BKN007=
200902191043 TAF AMD EGLL 191043Z 1910/2012 27005KT 6000 SCT015 BKN040
                      TEMPO 1910/1914 4000 HZ BKN008
                      BECMG 1913/1915 9999
                      BECMG 2001/2004 35010KT
                      TEMPO 2002/2009 7000 -RA BKN012
                      PROB30 TEMPO 2003/2009 4000 -DZ BR BKN007=
200902190456 TAF EGLL 190456Z 1906/2012 24005KT 6000 BKN015
                      PROB40 1906/1910 3000 BR BKN007
                      PROB30 1906/1909 1400 -DZ BR BKN003
                      BECMG 1910/1913 9999
                      BECMG 2000/2003 35010KT
                      PROB40 2002/2008 7000 BKN012
                      PROB30 TEMPO 2003/2007 4000 -DZ BR BKN006=
200902190103 TAF AMD EGLL 190103Z 1901/2006 VRB04KT 6000 BKN014
                      PROB40 1901/1910 3000 BR BKN007
                      PROB30 1901/1909 1400 -DZ BR BKN003
                      BECMG 1909/1912 9999
                      PROB40 2002/2006 7000 BKN014
                      PROB30 TEMPO 2003/2006 4000 -DZ BR BKN006=
200902182302 TAF EGLL 182302Z 1900/2006 VRB04KT 6000 BKN016
                      PROB40 1900/1910 BKN012
                      PROB30 1900/1909 3000 -DZ BR BKN006
                      BECMG 1909/1912 9999
                      PROB40 2002/2006 7000 BKN014
                      PROB30 TEMPO 2003/2006 4000 -DZ BR BKN006=
200902182300 TAF AMD EGLL 190103Z 1901/2006 VRB04KT 6000 BKN014
                      PROB40 1901/1910 3000 BR BKN007
                      PROB30 1901/1909 1400 -DZ BR BKN003
                      BECMG 1909/1912 9999
                      PROB40 2002/2006 7000 BKN014
                      PROB30 TEMPO 2003/2006 4000 -DZ BR BKN006=
200902182027 TAF AMD EGLL 182027Z 1820/1924 VRB04KT 6000 BKN012
                      TEMPO 1820/1822 4000 -DZ BKN008
                      BECMG 1822/1902 BKN007
                      PROB40 1822/1909 3000 -DZ BR BKN004
                      BECMG 1910/1913 9999 BKN020=
200902181700 TAF EGLL 181700Z 1818/1924 VRB04KT 9999 FEW012 BKN025
                      TEMPO 1818/1822 7000 BKN012
                      BECMG 1822/1902 7000 BKN007
                      PROB40 1902/1909 3000 -DZ BR BKN004
                      BECMG 1910/1913 9999 BKN018=
200902181053 TAF EGLL 181053Z 1812/1918 07005KT 7000 BKN012
                      TEMPO 1812/1821 9999 FEW012 BKN040
                      TEMPO 1821/1910 4000 BR -DZ BKN006
                      PROB30 TEMPO 1903/1909 BKN004
                      TEMPO 1910/1918 9999 FEW012 BKN040=
200902180528 TAF AMD EGLL 180528Z 1806/1912 02005KT 7000 BKN016
                      PROB40 1806/1810 4000 BR BKN007
                      PROB30 TEMPO 1806/1809 1400 -DZ BKN004
                      TEMPO 1809/1818 9999
                      BECMG 1822/1901 BKN014
                      BECMG 1901/1904 4000 BR -DZ BKN006
                      BECMG 1910/1912 8000 NSW BKN016=
200902180454 TAF EGLL 180454Z 1806/1912 02005KT 4000 BR BKN007
                      TEMPO 1806/1809 1400 -DZ BKN004
                      BECMG 1809/1812 8000 NSW BKN012
                      TEMPO 1812/1818 9999
                      BECMG 1815/1818 SCT018
                      BECMG 1822/1901 BKN014
                      BECMG 1901/1904 4000 BR -DZ BKN006
                      BECMG 1910/1912 8000 NSW BKN016=
200902180324 TAF AMD EGLL 180324Z 1803/1906 34006KT 7000 BKN016
                      BECMG 1803/1806 4000 BR BKN012
                      PROB30 TEMPO 1803/1809 1400 -DZ BKN004
                      BECMG 1809/1812 8000 NSW BKN014
                      TEMPO 1812/1818 9999 SCT020
                      PROB40 1819/1906 4000 RADZ BKN006=
200902180004 TAF AMD EGLL 180004Z 1800/1906 34006KT 7000 BKN016
                      BECMG 1800/1803 4000 BR BKN012
                      PROB30 TEMPO 1800/1809 1400 -DZ BKN004
                      BECMG 1809/1812 8000 NSW BKN014
                      TEMPO 1812/1818 9999 SCT020
                      PROB40 1819/1906 4000 RADZ BKN006=
200902172300 TAF AMD EGLL 180324Z 1803/1906 34006KT 7000 BKN016
                      BECMG 1803/1806 4000 BR BKN012
                      PROB30 TEMPO 1803/1809 1400 -DZ BKN004
                      BECMG 1809/1812 8000 NSW BKN014
                      TEMPO 1812/1818 9999 SCT020
                      PROB40 1819/1906 4000 RADZ BKN006=
200902172258 TAF EGLL 172258Z 1800/1906 34006KT 7000 BKN012
                      BECMG 1800/1803 4000 BR BKN008
                      PROB30 TEMPO 1800/1809 1400 -DZ BKN004
                      BECMG 1809/1812 8000 NSW BKN014
                      TEMPO 1812/1818 9999 SCT020
                      PROB40 1819/1906 4000 RADZ BKN006=
200902171658 TAF EGLL 171658Z 1718/1824 34006KT 9999 BKN020
                      BECMG 1718/1721 7000 BKN012
                      BECMG 1721/1801 4000 BR BKN008
                      TEMPO 1723/1811 1400 -DZ BKN004
                      BECMG 1810/1813 7000 NSW BKN014
                      PROB40 1812/1818 9999 SCT020
                      PROB40 1819/1824 4000 RADZ BKN006=
200902171057 TAF EGLL 171057Z 1712/1818 31012KT 9999 BKN035
                      BECMG 1714/1717 7000 BKN014
                      BECMG 1720/1723 03005KT 4000 BR BKN008
                      TEMPO 1723/1811 1400 -DZ BKN004
                      BECMG 1810/1813 7000 NSW BKN014
                      PROB40 1812/1818 9999 SCT020=
200902170502 TAF EGLL 170502Z 1706/1812 30010KT 9999 BKN035
                      BECMG 1715/1718 8000 BKN012
                      BECMG 1720/1723 03005KT 4000 BR BKN006
                      TEMPO 1723/1812 1400 -DZ BKN004=
200902162302 TAF EGLL 162302Z 1700/1806 28008KT 9999 SCT040
                      PROB30 TEMPO 1705/1710 8000 BKN013
                      BECMG 1716/1719 7000 BKN012
                      TEMPO 1720/1806 4000 -DZ BR BKN006
                      PROB40 TEMPO 1723/1806 1400 BKN004=
200902161657 TAF EGLL 161657Z 1618/1724 28007KT 9999 FEW035
                      BECMG 1703/1706 7000 BKN014
                      PROB30 TEMPO 1705/1710 BKN008
                      BECMG 1709/1712 9999 SCT020
                      BECMG 1718/1721 7000 BKN014
                      PROB30 1720/1724 BKN006=
200902161057 TAF EGLL 161057Z 1612/1718 28008KT 9999 FEW040
                      PROB40 1702/1713 7000 BKN014
                      PROB30 TEMPO 1705/1710 BKN008=
200902160503 TAF EGLL 160503Z 1606/1712 28006KT 9999 FEW020
                      PROB30 TEMPO 1606/1610 8000
                      PROB30 TEMPO 1702/1710 8000 BKN014=
200902152301 TAF EGLL 152301Z 1600/1706 29007KT 9999 FEW025
                      PROB30 TEMPO 1600/1610 8000 BKN014
                      PROB30 TEMPO 1700/1706 8000 BKN014=
200902151703 TAF EGLL 151703Z 1518/1624 29008KT 9999 FEW015 SCT030
                      TEMPO 1523/1610 8000 BKN012
                      PROB30 TEMPO 1523/1609 BKN008
                      PROB30 TEMPO 1610/1624 BKN014=
200902151105 TAF EGLL 151105Z 1512/1618 26008KT 9999 SCT030
                      TEMPO 1514/1519 5000 -RADZ BKN009
                      TEMPO 1519/1610 6000 BKN008=
200902151032 TAF AMD EGLL 151032Z 1510/1612 22005KT 9999 SCT040
                      TEMPO 1514/1521 6000 -RADZ BKN009
                      BECMG 1521/1524 31010KT
                      TEMPO 1602/1610 VRB04KT
                      PROB30 1603/1610 6000 BKN008=
200902150440 TAF EGLL 150440Z 1506/1612 22005KT 9999 BKN022
                      PROB40 TEMPO 1506/1510 8000 BKN012
                      TEMPO 1514/1521 6000 -RADZ BKN009
                      BECMG 1521/1524 31010KT
                      TEMPO 1602/1610 VRB04KT
                      PROB30 1603/1610 6000 BKN008=
200902142245 TAF EGLL 142245Z 1500/1606 VRB04KT 9999 BKN030
                      PROB40 TEMPO 1502/1510 8000 BKN014
                      TEMPO 1515/1521 6000 -RADZ BKN009
                      BECMG 1521/1524 31010KT
                      TEMPO 1602/1606 VRB04KT=
200902141654 TAF EGLL 141654Z 1418/1524 VRB02KT 9999 SCT045
                      PROB30 1502/1510 8000 BKN014
                      BECMG 1509/1512 27010KT
                      TEMPO 1515/1524 7000 -DZ BKN010=
200902141055 TAF EGLL 141055Z 1412/1518 VRB03KT 9999 SCT045
                      BECMG 1419/1422 8000
                      TEMPO 1503/1510 BKN014
                      BECMG 1509/1512 27010KT 9999=
200902140438 TAF EGLL 140438Z 1406/1512 VRB05KT 7000 SCT040
                      PROB30 TEMPO 1406/1409 4500 BR
                      BECMG 1411/1413 9999
                      BECMG 1419/1422 8000
                      TEMPO 1506/1512 BKN012
                      BECMG 1509/1512 9999=
200902132359 TAF COR EGLL 132359Z 1400/1506 34005KT 9999 FEW040
                      BECMG 1400/1403 7000
                      TEMPO 1402/1409 4000 BR
                      PROB30 TEMPO 1405/1409 1400 MIFG
                      PROB30 TEMPO 1409/1411 BKN007
                      BECMG 1411/1413 9999
                      BECMG 1419/1422 8000=
200902132255 TAF EGLL 132255Z 1400/1506 34005KT 9999 FEW040
                      BECMG 1400/1403 7000
                      TEMPO 1402/1409 4000 BR
                      PROB30 TEMPO 1405/1409 1500 MIFG
                      BECMG 1409/1411 7000 NSW
                      PROB30 TEMPO 1409/1411 BKN007
                      BECMG 1411/1413 9999
                      BECMG 1419/1422 8000=
200902131701 TAF EGLL 131701Z 1318/1424 35006KT 9999 FEW030
                      BECMG 1319/1322 7000
                      BECMG 1322/1401 4000 BR
                      PROB30 TEMPO 1323/1409 0500 FZFG VV///
                      BECMG 1409/1411 7000 NSW
                      PROB30 TEMPO 1409/1411 BKN007
                      BECMG 1411/1413 9999
                      BECMG 1419/1422 8000=
200902131100 TAF EGLL 131100Z 1312/1418 36010KT 9999 SCT018
                      BECMG 1319/1322 VRB04KT 8000
                      PROB40 1322/1410 3000 BR
                      PROB30 TEMPO 1400/1409 0500 FZFG VV///
                      BECMG 1409/1412 9999=
200902130503 TAF EGLL 130503Z 1306/1412 36010KT 7000 BKN008
                      PROB30 TEMPO 1306/1309 4000 BR BKN004
                      BECMG 1308/1312 9999 SCT012
                      BECMG 1319/1323 8000
                      PROB30 1400/1409 3000 BR
                      BECMG 1403/1407 VRB05KT=
200902122309 TAF EGLL 122309Z 1300/1406 27008KT 9999 FEW012 BKN025
                      PROB30 TEMPO 1300/1301 4000 -RASN BKN008
                       TEMPO 1301/1305 2000 BR BKN004
                      BECMG 1301/1304 35010KT
                      BECMG 1304/1308 6000 NSW
                      BECMG 1308/1311 9999 NSW SCT025
                      PROB40 1321/1406 8000
                      PROB30 TEMPO 1400/1406 3000 BR=
200902121659 TAF EGLL 121659Z 1218/1324 23007KT 9999 FEW012 BKN025
                      BECMG 1219/1222 3000 -SN BKN013
                      PROB40 TEMPO 1220/1223 1000 SN BR BKN003
                       TEMPO 1223/1305 1400 BKN004
                      BECMG 1301/1304 35010KT
                      BECMG 1304/1308 6000 NSW
                      BECMG 1308/1311 9999 NSW SCT025
                      PROB30 1321/1324 8000=
200902121126 TAF EGLL 121126Z 1212/1318 31006KT 9999 FEW025
                      BECMG 1218/1220 22010KT 3000 -RASN -SN BKN009
                       TEMPO 1220/1223 1200 SN BR BKN003
                      PROB40 TEMPO 1220/1222 0500 BKN001
                      TEMPO 1223/1304 BKN004
                      BECMG 1300/1303 35010KT
                      BECMG 1302/1305 6000 NSW
                      BECMG 1308/1311 9999 NSW SCT025=
200902121100 TAF EGLL 121100Z NIL=
200902120500 TAF EGLL 120500Z 1206/1312 32007KT 9999 SCT035
                      PROB30 1206/1208 7000
                      BECMG 1216/1219 22010KT 4000 -RASN BKN010
                       PROB40 1219/1223 1200 SN BKN004
                      BECMG 1222/1301 6000 -RA
                      PROB40 1223/1303 3000 RA BKN006
                      PROB30 1223/1307 1400 BR BKN001
                      BECMG 1300/1303 35010KT
                      BECMG 1308/1311 9999 NSW SCT035=
200902112257 TAF EGLL 112257Z 1200/1306 32005KT 9999 FEW020
                      PROB30 1203/1208 7000
                      BECMG 1219/1222 20010KT 7000 -RA BKN014
                      PROB40 1222/1301 1500 SN BKN004
                      PROB40 1301/1306 3000 RA BKN006
                      BECMG 1303/1306 35010KT
                      PROB30 TEMPO 1303/1306 1400 BR BKN001=
200902111713 TAF EGLL 111713Z 1118/1224 30010KT 9999 FEW020
                      BECMG 1118/1120 35008KT
                      TEMPO 1118/1120 7000 -RA BKN014
                      PROB30 1202/1209 7000
                      BECMG 1215/1218 27007KT
                      BECMG 1218/1221 7000
                      PROB40 1222/1224 3000 -SN BKN007=
200902111700 TAF EGLL 111700Z NIL=
200902111111 TAF EGLL 111111Z 1112/1218 28010KT 9999 SCT025
                      TEMPO 1115/1118 7000 -RA BKN014
                      BECMG 1115/1118 34010KT
                      PROB30 1202/1209 7000=
200902111100 TAF EGLL 111100Z NIL=
200902110455 TAF EGLL 110455Z 1106/1212 VRB05KT 9999 SCT035
                      PROB40 1106/1109 7000
                      PROB30 TEMPO 1106/1108 4000 BR
                      BECMG 1108/1111 27010KT
                      TEMPO 1114/1118 7000 -RA BKN014
                      BECMG 1115/1118 34010KT
                      PROB30 1202/1208 7000=
200902102254 TAF EGLL 102254Z 1100/1206 VRB05KT 9999 SCT035
                      PROB40 1101/1109 7000
                      PROB30 TEMPO 1103/1108 4000 BR
                      BECMG 1108/1111 27010KT
                      TEMPO 1114/1117 7000 -RA BKN014
                      BECMG 1115/1118 34010KT
                      PROB30 1202/1206 7000=
200902101702 TAF EGLL 101702Z 1018/1124 30008KT 9999 FEW025
                      BECMG 1020/1023 6000
                      BECMG 1100/1103 3000 BR
                      PROB30 TEMPO 1104/1109 1400 BR BKN004
                      BECMG 1110/1113 9999 NSW
                      TEMPO 1113/1115 6000 -SHRA BKN012=
200902101107 TAF EGLL 101107Z 1012/1118 31015G25KT 9999 SCT015
                      BECMG 1012/1015 29012KT SCT015
                      PROB30 TEMPO 1012/1014 -RA BKN012
                      BECMG 1020/1023 6000
                      BECMG 1100/1103 3000 BR
                      PROB30 TEMPO 1104/1109 1400 BR BKN004
                      BECMG 1110/1113 9999 NSW
                      BECMG 1113/1115 35012KT=
200902100505 TAF EGLL 100505Z 1006/1112 33018G28KT 9999 -RA BKN010
                      TEMPO 1006/1010 4000 -RASN BKN008
                      BECMG 1010/1013 NSW SCT025
                      BECMG 1013/1016 30010KT
                      BECMG 1021/1024 7000
                      PROB30 1103/1110 1500 BR BKN002
                      BECMG 1110/1112 9999=
200902092307 TAF EGLL 092307Z 1000/1106 VRB05KT 6000 -RA SCT004 BKN010
                      TEMPO 1000/1003 3000 RA BKN004
                      BECMG 1001/1003 36018G28KT 3000 -RASN BR
                       BKN004
                      PROB30 TEMPO 1003/1008 1200 SN BKN001
                      BECMG 1009/1012 31012KT 8000 BKN012
                      BECMG 1012/1014 9999 NSW SCT025
                      BECMG 1021/1024 24005KT 7000
                      PROB30 1103/1106 1500 BR BKN002=
200902092027 TAF AMD EGLL 092027Z 0920/1024 11012KT 6000 -RA SCT004 BKN010
                      TEMPO 0920/1003 3000 RA BKN004
                      BECMG 1000/1003 36018G28KT 3000 -RASN BKN003
                       PROB30
                      TEMPO 1003/1008 1400 SN VV///
                      BECMG 1009/1012 30012KT 9999 NSW SCT030
                      BECMG 1021/1024 7000=
200902091658 TAF EGLL 091658Z 0918/1024 11012KT 9999 -RA BKN020
                      TEMPO 0918/1003 7000 RA BKN012
                      PROB40 0918/1003 3000 +RA BKN006
                      BECMG 1000/1003 36018G28KT 3000 -RASN BKN003
                       PROB30
                      TEMPO 1003/1008 1400 SN VV///
                      BECMG 1009/1012 30012KT 9999 NSW SCT030
                      BECMG 1021/1024 7000=
200902091055 TAF EGLL 091055Z 0912/1018 16010KT 7000 -RA BKN020
                      TEMPO 0912/0924 3000 RA BKN012
                      PROB40 0912/0923 +RA BKN006
                      BECMG 0921/0924 10014KT
                      PROB40 TEMPO 1000/1004 VRB04KT BKN002
                      BECMG 1004/1007 36018G28KT 3000 -RASN BKN003
                       PROB30
                      TEMPO 1004/1008 1400 SN VV///
                      BECMG 1009/1012 9999 NSW SCT030=
200902090432 TAF EGLL 090432Z 0906/1012 21009KT 9999 FEW012 SCT030
                      PROB30 TEMPO 0906/0910 4000 BR SHRA BKN008
                       BECMG 0910/0913 19016KT 7000 RA BKN012
                      TEMPO 0913/0924 3000 RADZ +RA BKN005
                      BECMG 0921/0924 11014KT
                      PROB40 TEMPO 1000/1004 VRB04KT BKN002
                      BECMG 1004/1007 36018G30KT 3000 -SN BKN003
                       PROB30
                      TEMPO 1005/1009 0800 SN VV///
                      BECMG 1009/1012 9999 NSW SCT008 BKN030=
200902082235 TAF EGLL 082235Z 0900/1006 26005KT 9999 FEW008
                      TEMPO 0900/0911 7000 BKN006
                      PROB40 TEMPO 0900/0909 1200 BR BKN001
                      BECMG 0911/0914 20014KT 7000 RA BKN010
                      TEMPO 0913/1004 2500 RADZ +RA BKN005
                      BECMG 0917/0920 07016G26KT
                      PROB40 TEMPO 0921/1004 VRB05KT BKN002
                      BECMG 1004/1006 36016G28KT 3000 -SN RASN
                       OVC003=
200902081657 TAF EGLL 081657Z 0818/0924 19010KT 8000 -RA BKN013
                      TEMPO 0819/0822 4000 RA RASN BKN008
                      PROB30 TEMPO 0820/0822 1400 SN BKN004
                      BECMG 0821/0823 27010KT 9999 NSW FEW020
                      TEMPO 0903/0911 3000 BR MIFG BKN004
                      PROB30 0905/0909 0800 BCFG BKN001
                      BECMG 0909/0912 18006KT
                      BECMG 0913/0916 10010KT 7000 RA BKN010
                      TEMPO 0916/0924 09015G25KT 3000 RASN BKN004=
200902081116 TAF COR EGLL 081116Z 0812/0918 20006KT 9999 SCT030
                      BECMG 0815/0818 8000 -RA BKN013
                      TEMPO 0819/0822 4000 RA RASN BKN008
                      PROB30 TEMPO 0820/0822 1400 SN BKN004
                      BECMG 0821/0823 27008KT 9999 NSW FEW020
                      TEMPO 0903/0910 3000 BR MIFG
                      PROB40 0905/0909 0800 BCFG BKN002
                      BECMG 0915/0918 09010KT 5000 RA BKN008=
200902081101 TAF EGLL 081101Z 0812/0918 20006KT 9999 SCT030
                      BECMG 0815/0818 8000 -RA BKN013
                      TEMPO 0819/0822 4000 RA RASN BKN008
                      PROB30 TEMPO 0820/0822 1400 SN BKN004
                      BECMG 0821/0823 27008KT 9999 NSW FEW020
                      TEMPO 0903/0910 3000 MR MIFG
                      PROB40 0905/0909 0800 BCFG BKN002
                      BECMG 0915/0918 09010KT 5000 RA BKN008=
200902080459 TAF EGLL 080459Z 0806/0912 22006KT 9999 FEW045
                      TEMPO 0806/0810 8000
                      BECMG 0814/0817 18012KT 8000 -RA BKN014
                      TEMPO 0817/0820 4000 RA BKN008
                      PROB30 TEMPO 0818/0820 1400 RASN BKN004
                      BECMG 0820/0823 24010KT 9999 SCT030
                      PROB30 TEMPO 0902/0908 4000 SHRASN BKN005=
200902072306 TAF EGLL 072306Z 0800/0906 25006KT 9999 FEW040
                      BECMG 0803/0806 8000
                      PROB40 0805/0809 3000 BR MIFG
                      TEMPO 0810/0816 9999
                      BECMG 0814/0817 18012KT -RA BKN014
                      TEMPO 0817/0820 4000 RA BKN008
                      PROB30 TEMPO 0818/0820 1400 RASN BKN004
                      BECMG 0820/0823 25010KT 9999 SCT030
                      PROB40 TEMPO 0902/0906 4000 SHRASN BKN005=
200902071655 TAF EGLL 071655Z 0718/0824 31006KT 9999 SCT025
                      BECMG 0721/0724 7000
                      PROB40 0804/0810 3000 BR BKN006
                      BECMG 0810/0813 9999
                      BECMG 0815/0818 18012KT 7000 BKN014
                      PROB40 0818/0822 4000 RA BKN008
                      PROB30 TEMPO 0819/0822 RASN BKN004
                      BECMG 0821/0824 29010KT 9999 SCT030=
200902071057 TAF EGLL 071057Z 0712/0818 30006KT 9999 SCT020
                      BECMG 0718/0721 7000
                      PROB40 0802/0810 3000 BR BKN008
                      BECMG 0809/0812 9999
                      BECMG 0814/0817 7000 BKN014
                      PROB30 TEMPO 0816/0818 4000 RA BKN008=
200902070852 TAF AMD EGLL 070852Z 0708/0812 31006KT 9999 BKN008
                      PROB30 TEMPO 0708/0710 7000
                      BECMG 0708/0712 SCT015
                      TEMPO 0802/0810 7000
                      PROB30 0805/0808 3000 BR MIFG=
200902070756 TAF AMD EGLL 070756Z 0708/0812 31006KT 9999 BKN010
                      PROB30 TEMPO 0708/0710 7000
                      BECMG 0708/0711 SCT015
                      TEMPO 0802/0810 7000
                      PROB30 0805/0808 3000 BR MIFG=
200902070502 TAF EGLL 070502Z 0706/0812 31006KT 9999 FEW025
                      PROB30 TEMPO 0706/0708 9000
                      TEMPO 0802/0810 7000
                      PROB30 0805/0808 3000 BR MIFG=
200902062303 TAF EGLL 062303Z 0700/0806 33007KT 9999 FEW025
                      TEMPO 0722/0806 7000
                      PROB30 0802/0806 3000 BR=
200902061825 TAF AMD EGLL 061825Z 0618/0724 35008KT 4000 -RASN BKN006
                      BECMG 0618/0621 33008KT 9999 NSW SCT015
                      PROB30 TEMPO 0618/0620 1200 SN BKN003=
200902061702 TAF EGLL 061702Z 0618/0724 35008KT 4000 -RASN BKN006
                      TEMPO 0618/0620 1200 SN BKN003
                      BECMG 0619/0622 33008KT 9999 NSW SCT015=
200902061105 TAF EGLL 061105Z 0612/0718 04010KT 8000 BKN008
                      TEMPO 0612/0620 4000 RASN BKN004
                      PROB30 TEMPO 0612/0620 1500 -SN BKN001
                      BECMG 0619/0622 33008KT SCT015=
200902060936 TAF AMD EGLL 060936Z 0609/0712 04010KT 9999 BKN012
                      TEMPO 0609/0622 6000 RASN BKN008
                      PROB30 TEMPO 0612/0622 1500 SN BKN002
                      BECMG 0621/0701 33008KT SCT015=
200902060503 TAF EGLL 060503Z 0606/0712 03010KT 6000 BKN006
                      TEMPO 0606/0621 2000 RASN BKN004
                      PROB40 TEMPO 0606/0621 0700 SN VV///
                      BECMG 0621/0701 33008KT 9999 SCT015
                      PROB30 TEMPO 0710/0712 5000 SHRASN BKN014=
200902052303 TAF EGLL 052303Z 0600/0706 01006KT 4000 BR SCT003 BKN006
                      TEMPO 0600/0618 1400 RASN BKN003
                      PROB40 TEMPO 0603/0615 0600 SN VV///
                      BECMG 0618/0622 9000 NSW SCT015=
200902051700 TAF EGLL 051700Z 0518/0624 01006KT 4000 BR SCT003 BKN006
                      TEMPO 0518/0523 1200 -DZ BKN003
                      TEMPO 0523/0618 1400 RASN BKN003
                      PROB40 TEMPO 0603/0615 0600 SN VV///
                      BECMG 0618/0621 9000 NSW SCT015=
200902051427 TAF AMD EGLL 051427Z 0514/0618 VRB05KT 2500 BR BKN005
                      TEMPO 0514/0517 8000 NSW SCT005 BKN010
                      TEMPO 0517/0523 1200 -RADZ BKN002
                      BECMG 0522/0601 01010KT
                      TEMPO 0523/0618 1400 RASN BKN003
                      PROB40 TEMPO 0603/0615 0600 SN VV///=
200902051106 TAF EGLL 051106Z 0512/0618 VRB05KT 2500 BR BKN005
                      TEMPO 0512/0523 1200 -RADZ BKN002
                      BECMG 0522/0601 01010KT
                      TEMPO 0523/0618 1400 RASN BKN003
                      PROB40 TEMPO 0603/0615 0600 SN VV///=
200902051040 TAF AMD EGLL 051040Z 0510/0612 VRB05KT 3000 BR -RADZ BKN005
                      TEMPO 0510/0523 1200 BKN002
                      BECMG 0521/0601 01010KT
                      TEMPO 0523/0606 1400 RASN BKN004
                      PROB40 TEMPO 0603/0612 0700 SN VV///=
200902050501 TAF EGLL 050501Z 0506/0612 VRB05KT 4000 -RADZ BKN006
                      PROB30 TEMPO 0506/0511 0200 FG BKN000
                      PROB40 TEMPO 0511/0519 7000 NSW BKN020
                      BECMG 0521/0601 35010KT
                      TEMPO 0601/0606 1400 RASN BKN004
                      PROB40 TEMPO 0603/0610 0800 SN VV///
                      PROB30 0610/0612 9999 NSW SCT020=
200902042300 TAF EGLL 042300Z 0500/0606 09010KT 9999 BKN030
                      BECMG 0500/0502 8000 -RASN BKN010
                      TEMPO 0501/0504 2000 RASN BKN006
                      PROB30 TEMPO 0501/0503 1200 SN BKN002
                      BECMG 0504/0507 4000 -RADZ BKN006
                      PROB30 TEMPO 0504/0511 0200 FG BKN000
                      PROB40 TEMPO 0511/0519 7000 NSW BKN020
                      BECMG 0512/0516 VRB05KT
                      BECMG 0523/0603 35010KT
                      TEMPO 0601/0606 1400 RASN BKN004
                      PROB30 TEMPO 0603/0606 0800 SN VV///=
200902041630 TAF EGLL 041630Z 0418/0524 11007KT 9999 SCT040
                      BECMG 0418/0420 8000
                      BECMG 0423/0502 -RASN BKN010
                      TEMPO 0501/0504 2000 RASN
                      PROB30 TEMPO 0501/0503 1200 SN BKN002
                      BECMG 0504/0506 4000 RADZ BKN006
                      TEMPO 0508/0519 7000 NSW SCT007 BKN020
                      BECMG 0514/0517 19010KT
                      BECMG 0521/0524 35009KT=
200902041034 TAF EGLL 041034Z 0412/0518 12007KT CAVOK
                      BECMG 0417/0420 8000
                      BECMG 0420/0423 BKN025
                      BECMG 0423/0502 -RA BKN010
                      TEMPO 0501/0504 3000 RASN BKN007
                      TEMPO 0504/0515 2000 DZ BKN003
                      BECMG 0514/0517 19010KT SCT008 BKN020=
200902040500 TAF EGLL 040500Z 0406/0512 12008KT 9999 SCT030
                      PROB40 0406/0409 7000
                      BECMG 0422/0501 5000 RASN BKN012
                      PROB40 0501/0504 2000 SN BKN002
                      BECMG 0504/0507 -RA BKN008
                      PROB30 0505/0512 3000 RA BKN004=
200902040325 TAF AMD EGLL 040325Z 0403/0506 12008KT 9999 SCT030
                      PROB40 0403/0409 8000
                      PROB30 TEMPO 0403/0408 4000 BR
                      BECMG 0422/0501 5000 RASN BKN012
                      PROB40 0501/0504 2000 SN BKN002
                      PROB30 0504/0506 RA=
200902032300 TAF AMD EGLL 040325Z 0403/0506 12008KT 9999 SCT030
                      PROB40 0403/0409 8000
                      PROB30 TEMPO 0403/0408 4000 BR
                      BECMG 0422/0501 5000 RASN BKN012
                      PROB40 0501/0504 2000 SN BKN002
                      PROB30 0504/0506 RA=
200902032256 TAF EGLL 032256Z 0400/0506 12008KT 9999 SCT030
                      BECMG 0400/0403 8000
                      PROB40 0402/0409 4000 BR
                      BECMG 0409/0412 9999
                      BECMG 0422/0501 5000 RASN BKN012
                      PROB40 0501/0504 2000 SN BKN002
                      PROB30 0504/0506 RA=
200902031700 TAF EGLL 031700Z 0318/0424 16009KT 9999 FEW025
                      BECMG 0400/0403 4000 BR
                      PROB30 0403/0409 0400 FZFG VV///
                      BECMG 0409/0412 7000 NSW
                      BECMG 0412/0415 9999
                      BECMG 0422/0424 5000 RASN BKN010=
200902031102 TAF EGLL 031102Z 0312/0418 16009KT 9999 SCT025
                      PROB30 TEMPO 0312/0321 6000 -SHSN BKN014
                       BECMG 0323/0403 4000 BR
                      PROB30 0403/0409 0400 FZFG VV///
                      BECMG 0409/0412 7000 NSW
                      BECMG 0412/0415 9999=
200902030502 TAF EGLL 030502Z 0306/0412 17005KT 6000 SCT035
                      PROB40 0306/0310 3000 BR
                      PROB30 TEMPO 0306/0308 1400 BKN004
                      BECMG 0309/0312 9999
                      PROB30 TEMPO 0314/0321 -SHSN BKN014
                      BECMG 0400/0403 4000 BR
                      PROB30 0403/0409 0400 FZFG VV////
                      BECMG 0409/0412 7000 NSW=
200902030204 TAF COR EGLL 030204Z 0302/0406 17005KT 8000 FEW010
                      PROB40 0302/0309 4000 BR BKN006
                      PROB30 0302/0309 1400 BKN004
                      PROB30 0311/0320 9999
                      PROB30 TEMPO 0312/0321 -SHRASN -SHSN BKN014
                       BECMG 0400/0403 3000 BR
                      PROB30 0403/0406 0400 FZFG VV////=
200902030156 TAF AMD EGLL 030156Z 0302/0406 17005KT 8000 FEW010
                      PROB40 0302/0309 4000 BR BKN006
                      PROB30 0302/0309 1400 BKN004
                      PROB30 TEMPO 0302/0308 SCT015
                      BECMG 0308/0311 SCT015
                      PROB30 0311/0320 9999
                      PROB30 TEMPO 0312/0321 -SHRASN -SHSN BKN014
                       BECMG 0400/0403 3000 BR
                      PROB30 0403/0406 0400 FZFG VV////=
200902030053 TAF AMD EGLL 030053Z 0300/0406 17005KT 8000 BKN010
                      PROB40 0300/0309 4000 BR BKN006
                      PROB30 0300/0309 1400 BKN004
                      PROB30 TEMPO 0302/0308 SCT015
                      BECMG 0308/0311 SCT015
                      PROB30 0311/0320 9999
                      PROB30 TEMPO 0312/0321 -SHRASN -SHSN BKN014
                       BECMG 0400/0403 3000 BR
                      PROB30 0403/0406 0400 FZFG VV////=
200902022300 TAF AMD EGLL 030156Z 0302/0406 17005KT 8000 FEW010
                      PROB40 0302/0309 4000 BR BKN006
                      PROB30 0302/0309 1400 BKN004
                      PROB30 TEMPO 0302/0308 SCT015
                      BECMG 0308/0311 SCT015
                      PROB30 0311/0320 9999
                      PROB30 TEMPO 0312/0321 -SHRASN -SHSN BKN014
                       BECMG 0400/0403 3000 BR
                      PROB30 0403/0406 0400 FZFG VV////=
200902022258 TAF EGLL 022258Z 0300/0406 17005KT 4000 BR BKN006
                      PROB40 0300/0309 1400 BKN004
                      PROB30 TEMPO 0302/0308 SCT015
                      BECMG 0308/0311 7000 NSW SCT015
                      PROB30 0311/0320 9999
                      PROB30 TEMPO 0312/0321 -SHRASN -SHSN BKN014
                       BECMG 0400/0403 3000 BR
                      PROB30 0403/0406 0400 FZFG VV////=
200902021703 TAF EGLL 021703Z 0218/0324 VRB05KT 7000 -SN BKN014
                      TEMPO 0218/0222 2000 SN BKN006
                      PROB30 TEMPO 0218/0221 0200 +SN VV///
                      PROB30 0221/0301 0200 FZFG BKN000
                      BECMG 0302/0306 9999 SCT025
                      PROB30 TEMPO 0311/0324 5000 SHRASN -SHSN
                       BKN014=
200902021059 TAF EGLL 021059Z 0212/0318 04013KT 9999 -SN BKN025
                      BECMG 0213/0216 1500 SN BKN006
                      PROB40 TEMPO 0215/0221 0200 +SN VV///
                      BECMG 0221/0224 19006KT -RASN BR BKN004
                      BECMG 0300/0303 6000 NSW SCT012
                      BECMG 0308/0311 9999
                      PROB30 TEMPO 0311/0318 5000 SHRASN BKN014=
200902020503 TAF EGLL 020503Z 0206/0312 04013KT 9999 -SN BKN025
                      TEMPO 0206/0213 3000 SHSN BKN007
                      PROB40 TEMPO 0206/0210 0200 +SHSN VV///
                      BECMG 0213/0216 1500 SN BKN006
                      PROB40 0215/0221 0200 +SN VV///
                      BECMG 0221/0224 19010KT -RASN BKN004
                      BECMG 0300/0303 6000 NSW SCT012
                      BECMG 0308/0311 9999=
200902012302 TAF EGLL 012302Z 0200/0306 06013KT 9999 -SN BKN025
                      TEMPO 0200/0214 3000 SHSN BKN007
                      PROB40 TEMPO 0200/0209 07018G28KT 0200 +SHSN
                       VV///
                      BECMG 0214/0217 1500 SN BKN007
                      PROB40 0215/0221 0200 +SN VV///
                      BECMG 0221/0224 19010KT 6000 -RASN
                      BECMG 0300/0303 NSW SCT012=
200902011658 TAF EGLL 011658Z 0118/0224 07015KT 9999 SCT030
                      TEMPO 0118/0213 3000 SHSN
                      PROB40 TEMPO 0118/0213 07018G28KT BKN010
                       PROB30
                      TEMPO 0119/0213 0400 +SHSN BKN007CB
                      BECMG 0213/0216 1500 SN BKN007
                      PROB40 0215/0221 0200 +SN BKN000
                      BECMG 0221/0224 19010KT 6000 RASN BKN010=
200902011056 TAF EGLL 011056Z 0112/0218 07015KT 9999 BKN030
                      PROB40 TEMPO 0112/0215 07018G28KT
                      PROB30 TEMPO 0115/0119 6000 -SHSN
                      TEMPO 0119/0213 2000 SHSN BKN010
                      PROB30 TEMPO 0121/0213 0700 +SHSN BKN006CB
                       BECMG 0213/0216 1500 SN BKN006
                      PROB40 0215/0218 0200 +SN BKN000=
200902010459 TAF EGLL 010459Z 0106/0212 07014KT 9999 SCT020
                      PROB30 TEMPO 0106/0109 9000
                      TEMPO 0109/0212 07017G27KT
                      TEMPO 0117/0119 8000 -SHSN
                      TEMPO 0119/0212 5000 SHSN BKN009
                      PROB40 TEMPO 0121/0212 1800 +SHSN BKN004CB=
