##########################################################
# Query made at 12/24/2012 14:07:26 UTC
# Time interval: from 01/01/2011 00:00  to 01/31/2011 23:59  UTC
##########################################################

##########################################################
# EGLL, London / Heathrow Airport (United Kingdom)
# WMO index: 03772
# Latitude 51-29N. Longitude 000-27W. Altitude 24 m.
##########################################################

###################################
#  METAR/SPECI from EGLL
###################################
201101312350 METAR EGLL 312350Z 28009KT 5000 BR FEW007 BKN008 M02/M03
                        Q1026=
201101312320 METAR EGLL 312320Z 26009KT 220V290 5000 BR FEW007 BKN008
                        M01/M03 Q1026=
201101312250 METAR COR EGLL 312250Z 27010KT 6000 BKN008 M01/M03 Q1026
                        NOSIG=
201101312220 METAR COR EGLL 312220Z 27009KT 6000 SCT008 BKN009 M01/M03
                        Q1026 NOSIG=
201101312150 METAR COR EGLL 312150Z 27009KT 7000 BKN012 M01/M03 Q1026
                        TEMPO SCT012=
201101312120 METAR COR EGLL 312120Z 26009KT 8000 NSC M01/M03 Q1026 NOSIG=
201101312050 METAR COR EGLL 312050Z 24007KT 8000 NSC M01/M03 Q1026 NOSIG=
201101312020 METAR COR EGLL 312020Z 27008KT 9000 NSC M02/M03 Q1026 NOSIG=
201101311950 METAR COR EGLL 311950Z 27008KT CAVOK M02/M04 Q1026 NOSIG=
201101311920 METAR COR EGLL 311920Z 25010KT CAVOK M01/M03 Q1026 NOSIG=
201101311850 METAR COR EGLL 311850Z 25008KT CAVOK M01/M03 Q1026 NOSIG=
201101311820 METAR COR EGLL 311820Z 26007KT CAVOK 01/M02 Q1026 NOSIG=
201101311750 METAR COR EGLL 311750Z 26006KT CAVOK 01/M03 Q1026 NOSIG=
201101311720 METAR COR EGLL 311720Z 26006KT 230V290 CAVOK 01/M03 Q1026
                        NOSIG=
201101311650 METAR COR EGLL 311650Z 28005KT CAVOK 01/M03 Q1026 NOSIG=
201101311620 METAR COR EGLL 311620Z 28006KT CAVOK 02/M02 Q1025 NOSIG=
201101311550 METAR COR EGLL 311550Z 29005KT CAVOK 03/M02 Q1025 NOSIG=
201101311520 METAR COR EGLL 311520Z 28004KT CAVOK 04/M02 Q1025 NOSIG=
201101311450 METAR COR EGLL 311450Z 28004KT 250V320 CAVOK 04/M02 Q1025
                        NOSIG=
201101311420 METAR COR EGLL 311420Z 22004KT 180V270 CAVOK 04/M02 Q1025
                        NOSIG=
201101311350 METAR COR EGLL 311350Z 22004KT 170V260 CAVOK 04/M02 Q1026
                        NOSIG=
201101311320 METAR COR EGLL 311320Z 29004KT 240V320 CAVOK 04/M02 Q1026
                        NOSIG=
201101311250 METAR COR EGLL 311250Z VRB03KT 9999 FEW020 04/M02 Q1026 NOSIG=
201101311220 METAR COR EGLL 311220Z VRB02KT 9999 BKN019 04/M02 Q1026 NOSIG=
201101311150 METAR COR EGLL 311150Z VRB02KT 9999 BKN020 03/M02 Q1027 NOSIG=
201101311120 METAR COR EGLL 311120Z VRB03KT 9999 BKN020 02/M02 Q1027 NOSIG=
201101311050 METAR COR EGLL 311050Z VRB03KT 9999 BKN018 02/M02 Q1026 NOSIG=
201101311020 METAR COR EGLL 311020Z VRB02KT 9999 BKN019 01/M02 Q1026 NOSIG=
201101310950 METAR COR EGLL 310950Z VRB03KT 9999 BKN020 01/M02 Q1026 NOSIG=
201101310920 METAR COR EGLL 310920Z VRB02KT 9999 BKN021 00/M02 Q1026 NOSIG=
201101310850 METAR COR EGLL 310850Z 00000KT 9999 BKN021 M01/M03 Q1026
                        NOSIG=
201101310820 METAR COR EGLL 310820Z 35003KT 9999 BKN021 M02/M03 Q1026
                        NOSIG=
201101310750 METAR COR EGLL 310750Z 36003KT 9999 SCT020 M01/M03 Q1025
                        NOSIG=
201101310720 METAR COR EGLL 310720Z 35003KT 9999 SCT021 M01/M03 Q1025
                        NOSIG=
201101310650 METAR COR EGLL 310650Z 35003KT 9999 SCT021 M00/M03 Q1025
                        NOSIG=
201101310620 METAR COR EGLL 310620Z 35003KT 9999 FEW021 M01/M03 Q1025
                        NOSIG=
201101310550 METAR COR EGLL 310550Z 36002KT 9999 FEW022 00/M02 Q1024 NOSIG=
201101310520 METAR COR EGLL 310520Z VRB02KT 9999 BKN022 01/M02 Q1024 NOSIG=
201101310450 METAR COR EGLL 310450Z 04002KT 9999 BKN023 01/M02 Q1024 NOSIG=
201101310420 METAR EGLL 310420Z VRB02KT 9999 BKN023 01/M02 Q1024=
201101310350 METAR EGLL 310350Z 35003KT 9999 BKN023 01/M02 Q1024=
201101310320 METAR EGLL 310320Z VRB02KT 9999 BKN022 01/M02 Q1024=
201101310250 METAR COR EGLL 310250Z VRB03KT 9999 BKN022 02/M01 Q1024 NOSIG=
201101310220 METAR COR EGLL 310220Z VRB02KT 9999 BKN022 02/M01 Q1025 NOSIG=
201101310150 METAR COR EGLL 310150Z 08003KT 9999 BKN023 02/M01 Q1025 NOSIG=
201101310120 METAR COR EGLL 310120Z 00000KT 9999 BKN021 02/M01 Q1025 NOSIG=
201101310050 METAR COR EGLL 310050Z 03002KT 9999 BKN022 02/M01 Q1025 NOSIG=
201101310020 METAR COR EGLL 310020Z 00000KT 9999 BKN021 02/M01 Q1025 NOSIG=
201101302350 METAR COR EGLL 302350Z VRB02KT 9999 BKN022 01/M01 Q1025 NOSIG=
201101302320 METAR COR EGLL 302320Z 00000KT 9999 BKN022 01/M02 Q1024 NOSIG=
201101302250 METAR COR EGLL 302250Z VRB02KT 9999 BKN022 01/M02 Q1024 NOSIG=
201101302220 METAR COR EGLL 302220Z 01002KT 9999 BKN022 01/M02 Q1024 NOSIG=
201101302150 METAR EGLL 302150Z 35004KT 9999 BKN022 01/M02 Q1024=
201101302120 METAR COR EGLL 302120Z VRB03KT 9999 BKN019 01/M02 Q1024 NOSIG=
201101302050 METAR COR EGLL 302050Z 01003KT 9999 BKN023 00/M02 Q1024 NOSIG=
201101302020 METAR EGLL 302020Z 06004KT 330V110 9999 BKN023 01/M02 Q1024=
201101301950 METAR COR EGLL 301950Z VRB03KT 9999 SCT023 01/M03 Q1024 NOSIG=
201101301920 METAR COR EGLL 301920Z 36004KT 9999 SCT023 01/M02 Q1024 NOSIG=
201101301850 METAR COR EGLL 301850Z 35004KT 9999 FEW022 02/M02 Q1024 NOSIG=
201101301820 METAR COR EGLL 301820Z VRB03KT CAVOK 02/M02 Q1023 NOSIG=
201101301750 METAR COR EGLL 301750Z 04004KT CAVOK 02/M02 Q1023 NOSIG=
201101301720 METAR COR EGLL 301720Z 06006KT 9999 FEW025 02/M02 Q1022 NOSIG=
201101301650 METAR COR EGLL 301650Z 06007KT 9999 FEW026 03/M02 Q1022 NOSIG=
201101301620 METAR COR EGLL 301620Z 05007KT 9999 FEW026 04/M02 Q1022 NOSIG=
201101301550 METAR COR EGLL 301550Z 07006KT 9999 FEW027 04/M02 Q1022 NOSIG=
201101301520 METAR COR EGLL 301520Z 06007KT 9999 FEW027 05/M02 Q1022 NOSIG=
201101301450 METAR COR EGLL 301450Z 06008KT 9999 FEW028 05/M02 Q1022 NOSIG=
201101301420 METAR COR EGLL 301420Z 08008KT 9999 FEW028 05/M02 Q1022 NOSIG=
201101301350 METAR COR EGLL 301350Z 06007KT 9999 FEW028 05/M02 Q1022 NOSIG=
201101301320 METAR COR EGLL 301320Z 06008KT 9999 SCT028 05/M02 Q1022 NOSIG=
201101301250 METAR COR EGLL 301250Z 07010KT 9999 SCT026 05/M02 Q1023 NOSIG=
201101301220 METAR COR EGLL 301220Z 08010KT 9999 SCT026 05/M02 Q1023 NOSIG=
201101301150 METAR EGLL 301150Z 08009KT 9999 SCT026 05/M01 Q1023 NOSIG=
201101301120 METAR COR EGLL 301120Z 07009KT 9999 SCT025 04/M02 Q1023 NOSIG=
201101301050 METAR COR EGLL 301050Z 07009KT 9999 BKN025 04/M02 Q1024 NOSIG=
201101301020 METAR COR EGLL 301020Z 07008KT 9999 BKN026 03/M02 Q1023 NOSIG=
201101300950 METAR COR EGLL 300950Z 06007KT 030V090 9999 BKN026 03/M02
                        Q1023 NOSIG=
201101300920 METAR COR EGLL 300920Z 06007KT 020V080 9999 BKN026 02/M02
                        Q1023 NOSIG=
201101300850 METAR COR EGLL 300850Z 06006KT 9999 BKN026 02/M02 Q1023 NOSIG=
201101300820 METAR COR EGLL 300820Z 04004KT 010V080 9999 BKN026 01/M02
                        Q1023 NOSIG=
201101300750 METAR COR EGLL 300750Z 02005KT 340V060 9999 BKN026 01/M02
                        Q1023 NOSIG=
201101300720 METAR COR EGLL 300720Z 36004KT 9999 BKN026 01/M03 Q1023 NOSIG=
201101300650 METAR COR EGLL 300650Z 01005KT 9999 BKN026 00/M03 Q1023 NOSIG=
201101300620 METAR COR EGLL 300620Z 36004KT 340V050 9999 BKN026 M00/M03
                        Q1022 NOSIG=
201101300550 METAR COR EGLL 300550Z 36004KT 9999 BKN023 M00/M03 Q1022
                        NOSIG=
201101300520 METAR COR EGLL 300520Z 01005KT 340V050 9999 SCT023 M00/M03
                        Q1022 NOSIG=
201101300450 METAR COR EGLL 300450Z 02005KT 340V060 9999 FEW023 M00/M03
                        Q1022 NOSIG=
201101300420 METAR EGLL 300420Z 01004KT 340V060 CAVOK M00/M03 Q1022=
201101300350 METAR EGLL 300350Z 01004KT 340V060 CAVOK M01/M03 Q1022=
201101300320 METAR COR EGLL 300320Z 01005KT 9999 FEW021 M01/M03 Q1022
                        NOSIG=
201101300250 METAR COR EGLL 300250Z 01005KT 9999 SCT021 M00/M03 Q1022
                        NOSIG=
201101300220 METAR COR EGLL 300220Z 02004KT 350V050 9999 BKN021 M00/M03
                        Q1023 NOSIG=
201101300150 METAR COR EGLL 300150Z 02005KT 340V050 9999 BKN021 00/M03
                        Q1023 NOSIG=
201101300120 METAR COR EGLL 300120Z 03006KT 330V050 9999 BKN021 00/M03
                        Q1023 NOSIG=
201101300050 METAR COR EGLL 300050Z 04005KT 010V070 9999 BKN021 00/M03
                        Q1023 NOSIG=
201101300020 METAR COR EGLL 300020Z 05005KT 020V080 9999 BKN022 01/M03
                        Q1023 NOSIG=
201101292350 METAR COR EGLL 292350Z 05006KT 010V090 9999 BKN021 01/M03
                        Q1023 NOSIG=
201101292320 METAR COR EGLL 292320Z 06006KT 020V100 9999 BKN021 01/M04
                        Q1024 NOSIG=
201101292250 METAR COR EGLL 292250Z 06006KT 9999 BKN021 01/M04 Q1024 NOSIG=
201101292220 METAR COR EGLL 292220Z 05008KT 9999 BKN021 01/M04 Q1024 NOSIG=
201101292150 METAR EGLL 292150Z 05009KT 010V080 9999 BKN020 01/M04 Q1024=
201101292120 METAR COR EGLL 292120Z 05006KT 010V080 9999 BKN020 01/M03
                        Q1024 NOSIG=
201101292050 METAR COR EGLL 292050Z 04008KT 010V070 9999 BKN020 01/M03
                        Q1024 NOSIG=
201101292020 METAR COR EGLL 292020Z 04007KT 360V070 9999 BKN019 01/M03
                        Q1023 NOSIG=
201101291950 METAR COR EGLL 291950Z 05008KT 340V080 9999 BKN019 01/M03
                        Q1023 NOSIG=
201101291920 METAR COR EGLL 291920Z 05009KT 9999 BKN019 01/M03 Q1023 NOSIG=
201101291850 METAR COR EGLL 291850Z 05006KT 350V070 9999 BKN020 01/M03
                        Q1023 NOSIG=
201101291820 METAR COR EGLL 291820Z 05008KT 010V080 9999 BKN020 01/M03
                        Q1023 NOSIG=
201101291750 METAR EGLL 291750Z 06008KT 020V100 9999 BKN020 01/M03 Q1023
                        NOSIG=
201101291720 METAR COR EGLL 291720Z 06008KT 9999 BKN020 01/M03 Q1023 NOSIG=
201101291650 METAR COR EGLL 291650Z 05006KT 020V090 9999 BKN019 01/M03
                        Q1023 NOSIG=
201101291620 METAR COR EGLL 291620Z 05006KT 350V080 9999 BKN019 01/M03
                        Q1023 NOSIG=
201101291550 METAR COR EGLL 291550Z 04007KT 9999 BKN018 01/M03 Q1022 NOSIG=
201101291520 METAR COR EGLL 291520Z 05007KT 010V090 9999 BKN020 01/M03
                        Q1022 NOSIG=
201101291450 METAR COR EGLL 291450Z 05007KT 9999 BKN019 01/M03 Q1022 NOSIG=
201101291420 METAR COR EGLL 291420Z 04007KT 9999 OVC019 01/M03 Q1022 NOSIG=
201101291350 METAR COR EGLL 291350Z 04007KT 350V070 9999 BKN019 01/M03
                        Q1022 NOSIG=
201101291320 METAR COR EGLL 291320Z 05007KT 9999 BKN019 02/M03 Q1022 NOSIG=
201101291250 METAR COR EGLL 291250Z 06007KT 010V090 9999 BKN018 01/M03
                        Q1023 NOSIG=
201101291220 METAR COR EGLL 291220Z 07009KT 9999 OVC018 01/M03 Q1023 NOSIG=
201101291150 METAR COR EGLL 291150Z 07007KT 9999 OVC018 01/M03 Q1023 NOSIG=
201101291120 METAR COR EGLL 291120Z 06007KT 9999 BKN018 01/M03 Q1023 NOSIG=
201101291050 METAR COR EGLL 291050Z 06006KT 020V080 9999 BKN018 01/M03
                        Q1023 NOSIG=
201101291020 METAR EGLL 291020Z 04007KT 360V080 9999 BKN018 01/M04 Q1023
                        NOSIG=
201101290950 METAR COR EGLL 290950Z 05008KT 9999 BKN018 01/M04 Q1023 NOSIG=
201101290920 METAR COR EGLL 290920Z 04007KT 360V070 9999 BKN018 01/M04
                        Q1023 NOSIG=
201101290850 METAR COR EGLL 290850Z 05008KT 360V080 9999 BKN019 01/M04
                        Q1023 NOSIG=
201101290820 METAR COR EGLL 290820Z 04006KT 9999 BKN019 01/M03 Q1022 NOSIG=
201101290750 METAR COR EGLL 290750Z 04008KT 9999 BKN020 01/M04 Q1022 NOSIG=
201101290720 METAR COR EGLL 290720Z 03007KT 010V070 9999 BKN022 00/M04
                        Q1022 NOSIG=
201101290650 METAR COR EGLL 290650Z 03008KT 9999 BKN023 00/M04 Q1022 NOSIG=
201101290620 METAR COR EGLL 290620Z 03007KT 9999 BKN024 00/M03 Q1021 NOSIG=
201101290550 METAR COR EGLL 290550Z 03006KT 360V070 9999 BKN024 00/M03
                        Q1021 NOSIG=
201101290520 METAR COR EGLL 290520Z 02006KT 9999 BKN025 00/M03 Q1021 NOSIG=
201101290450 METAR COR EGLL 290450Z 02007KT 350V050 9999 BKN025 00/M03
                        Q1021 NOSIG=
201101290420 METAR COR EGLL 290420Z 02005KT 330V050 9999 BKN025 00/M03
                        Q1021 NOSIG=
201101290350 METAR COR EGLL 290350Z 03005KT 360V060 9999 BKN025 00/M03
                        Q1021 NOSIG=
201101290320 METAR COR EGLL 290320Z 04005KT 9999 OVC024 00/M03 Q1021 NOSIG=
201101290250 METAR COR EGLL 290250Z VRB03KT 9999 BKN025 00/M03 Q1021 NOSIG=
201101290220 METAR COR EGLL 290220Z 04005KT 9999 BKN024 00/M03 Q1021 NOSIG=
201101290150 METAR COR EGLL 290150Z 05005KT 020V080 9999 BKN026 00/M03
                        Q1021 NOSIG=
201101290120 METAR COR EGLL 290120Z 05005KT 9999 BKN027 01/M03 Q1021 NOSIG=
201101290050 METAR COR EGLL 290050Z 05005KT 9999 BKN026 01/M03 Q1021 NOSIG=
201101290020 METAR COR EGLL 290020Z 05006KT 020V090 9999 BKN027 01/M03
                        Q1021 NOSIG=
201101282350 METAR COR EGLL 282350Z 06006KT 9999 BKN027 00/M03 Q1022 NOSIG=
201101282320 METAR COR EGLL 282320Z 05006KT 9999 BKN028 00/M04 Q1022 NOSIG=
201101282250 METAR COR EGLL 282250Z 04007KT 360V060 9999 BKN029 00/M04
                        Q1022 NOSIG=
201101282220 METAR COR EGLL 282220Z 05007KT 9999 BKN032 00/M04 Q1022 NOSIG=
201101282150 METAR COR EGLL 282150Z 05006KT 9999 BKN031 M00/M04 Q1022
                        NOSIG=
201101282120 METAR COR EGLL 282120Z 04008KT 9999 BKN031 00/M04 Q1022 NOSIG=
201101282050 METAR COR EGLL 282050Z 05006KT 020V090 9999 BKN032 00/M04
                        Q1022 NOSIG=
201101282020 METAR COR EGLL 282020Z 04006KT 9999 BKN032 00/M04 Q1022 NOSIG=
201101281950 METAR COR EGLL 281950Z 06007KT 9999 BKN031 00/M04 Q1022 NOSIG=
201101281920 METAR COR EGLL 281920Z 06007KT 9999 BKN031 00/M05 Q1022 NOSIG=
201101281850 METAR COR EGLL 281850Z 06008KT 9999 BKN031 00/M05 Q1022 NOSIG=
201101281820 METAR COR EGLL 281820Z 06009KT 9999 BKN032 01/M05 Q1022 NOSIG=
201101281750 METAR COR EGLL 281750Z 06010KT 9999 BKN032 01/M05 Q1022 NOSIG=
201101281720 METAR COR EGLL 281720Z 05007KT 360V080 9999 BKN031 01/M05
                        Q1022 NOSIG=
201101281650 METAR COR EGLL 281650Z 05008KT 9999 BKN031 01/M05 Q1022 NOSIG=
201101281620 METAR COR EGLL 281620Z 05009KT 020V080 9999 BKN032 01/M05
                        Q1022 NOSIG=
201101281550 METAR COR EGLL 281550Z 06010KT 9999 BKN032 01/M05 Q1022 NOSIG=
201101281520 METAR COR EGLL 281520Z 07010KT 9999 BKN031 01/M05 Q1022 NOSIG=
201101281450 METAR COR EGLL 281450Z 06010KT 9999 BKN031 01/M06 Q1022 NOSIG=
201101281420 METAR COR EGLL 281420Z 06010KT 9999 BKN032 01/M06 Q1023 NOSIG=
201101281350 METAR COR EGLL 281350Z 07011KT 020V080 9999 BKN032 01/M05
                        Q1023 NOSIG=
201101281320 METAR COR EGLL 281320Z 06011KT 9999 BKN031 02/M06 Q1023 NOSIG=
201101281250 METAR COR EGLL 281250Z 07012KT 9999 BKN032 02/M06 Q1023 NOSIG=
201101281220 METAR COR EGLL 281220Z 07013KT 9999 BKN032 01/M06 Q1024 NOSIG=
201101281150 METAR COR EGLL 281150Z 06011KT 9999 BKN032 01/M06 Q1024 NOSIG=
201101281120 METAR COR EGLL 281120Z 07011KT 9999 BKN032 01/M06 Q1024 NOSIG=
201101281050 METAR COR EGLL 281050Z 06012KT 9999 BKN033 01/M06 Q1024 NOSIG=
201101281020 METAR COR EGLL 281020Z 07011KT 9999 BKN034 01/M06 Q1024 NOSIG=
201101280950 METAR COR EGLL 280950Z 07013KT 9999 BKN033 01/M06 Q1024 NOSIG=
201101280920 METAR COR EGLL 280920Z 06012KT 9999 BKN033 01/M06 Q1024 NOSIG=
201101280850 METAR COR EGLL 280850Z 06011KT 9999 BKN033 01/M05 Q1024 NOSIG=
201101280820 METAR COR EGLL 280820Z 06011KT 9999 BKN034 01/M06 Q1024 NOSIG=
201101280750 METAR COR EGLL 280750Z 06010KT 030V090 9999 BKN034 01/M05
                        Q1024 NOSIG=
201101280720 METAR COR EGLL 280720Z 06009KT 9999 BKN034 01/M06 Q1024 NOSIG=
201101280650 METAR COR EGLL 280650Z 06009KT 030V090 9999 BKN033 01/M05
                        Q1023 NOSIG=
201101280620 METAR COR EGLL 280620Z 06011KT 020V090 9999 BKN033 01/M05
                        Q1023 NOSIG=
201101280550 METAR COR EGLL 280550Z 06010KT 9999 BKN031 01/M06 Q1024 NOSIG=
201101280520 METAR COR EGLL 280520Z 06010KT 9999 BKN030 01/M05 Q1024 NOSIG=
201101280450 METAR COR EGLL 280450Z 06011KT 9999 BKN029 01/M06 Q1024 NOSIG=
201101280420 METAR COR EGLL 280420Z 07009KT 010V090 9999 BKN031 01/M05
                        Q1024 NOSIG=
201101280350 METAR COR EGLL 280350Z 06008KT 9999 BKN030 01/M05 Q1024 NOSIG=
201101280320 METAR COR EGLL 280320Z 06007KT 030V090 9999 BKN031 01/M05
                        Q1024 NOSIG=
201101280250 METAR COR EGLL 280250Z 06009KT 9999 BKN032 01/M06 Q1024 NOSIG=
201101280220 METAR COR EGLL 280220Z 06011KT 9999 BKN029 01/M06 Q1024 NOSIG=
201101280150 METAR COR EGLL 280150Z 07011KT 9999 BKN029 01/M06 Q1024 NOSIG=
201101280120 METAR COR EGLL 280120Z 07011KT 9999 BKN029 01/M05 Q1024 NOSIG=
201101280050 METAR COR EGLL 280050Z 06010KT 9999 OVC029 01/M05 Q1024 NOSIG=
201101280020 METAR COR EGLL 280020Z 06011KT 9999 BKN030 01/M05 Q1024 NOSIG=
201101272350 METAR COR EGLL 272350Z 06011KT 9999 BKN029 01/M05 Q1024 NOSIG=
201101272320 METAR COR EGLL 272320Z 06011KT 9999 BKN030 01/M05 Q1024 NOSIG=
201101272250 METAR COR EGLL 272250Z 06011KT 9999 BKN031 01/M05 Q1024 NOSIG=
201101272220 METAR COR EGLL 272220Z 06011KT 9999 BKN030 01/M05 Q1024 NOSIG=
201101272150 METAR COR EGLL 272150Z 06011KT 9999 BKN032 01/M05 Q1024 NOSIG=
201101272120 METAR COR EGLL 272120Z 06010KT 020V090 9999 BKN032 01/M05
                        Q1024 NOSIG=
201101272050 METAR COR EGLL 272050Z 07010KT 9999 BKN034 01/M05 Q1024 NOSIG=
201101272020 METAR COR EGLL 272020Z 06011KT 9999 BKN037 02/M05 Q1023 NOSIG=
201101271950 METAR COR EGLL 271950Z 07011KT 9999 BKN037 02/M05 Q1023 NOSIG=
201101271920 METAR COR EGLL 271920Z 07012KT 9999 BKN036 02/M06 Q1023 NOSIG=
201101271850 METAR COR EGLL 271850Z 06011KT 9999 BKN035 02/M05 Q1023 NOSIG=
201101271820 METAR COR EGLL 271820Z 07010KT 9999 BKN036 02/M05 Q1023 NOSIG=
201101271750 METAR COR EGLL 271750Z 06011KT 9999 BKN039 02/M05 Q1023 NOSIG=
201101271720 METAR COR EGLL 271720Z 06011KT 9999 BKN036 02/M04 Q1022 NOSIG=
201101271650 METAR COR EGLL 271650Z 06010KT 9999 FEW035 BKN043 03/M04
                        Q1022 NOSIG=
201101271620 METAR COR EGLL 271620Z 06012KT 9999 FEW030 BKN043 03/M04
                        Q1022 NOSIG=
201101271550 METAR COR EGLL 271550Z 06011KT 9999 FEW024 BKN040 03/M02
                        Q1022 NOSIG=
201101271520 METAR COR EGLL 271520Z 05010KT 9999 FEW024 SCT031 BKN042
                        03/M02 Q1021 NOSIG=
201101271450 METAR COR EGLL 271450Z 06008KT 010V070 9999 FEW022 SCT029
                        BKN041 03/M02 Q1021 NOSIG=
201101271420 METAR COR EGLL 271420Z 05008KT 9999 FEW026 BKN045 03/M02
                        Q1021 NOSIG=
201101271350 METAR COR EGLL 271350Z 06008KT 9999 SCT026 BKN040 03/M02
                        Q1021 NOSIG=
201101271320 METAR COR EGLL 271320Z 05010KT 020V090 9999 BKN029 03/M03
                        Q1021 NOSIG=
201101271250 METAR COR EGLL 271250Z 05010KT 9999 BKN028 03/M03 Q1021 NOSIG=
201101271220 METAR EGLL 271220Z 05009KT 020V090 9999 FEW042 BKN044 03/M03
                        Q1021=
201101271150 METAR COR EGLL 271150Z 04008KT 360V070 9999 BKN042 03/M03
                        Q1022 NOSIG=
201101271120 METAR COR EGLL 271120Z 04008KT 010V070 9999 BKN044 02/M03
                        Q1022 NOSIG=
201101271050 METAR COR EGLL 271050Z 05008KT 020V090 9999 BKN040 02/M04
                        Q1022 NOSIG=
201101271020 METAR COR EGLL 271020Z 06008KT 010V080 9999 FEW030 BKN035
                        02/M04 Q1022 NOSIG=
201101270950 METAR COR EGLL 270950Z 05007KT 9999 FEW030 BKN034 02/M04
                        Q1021 NOSIG=
201101270920 METAR COR EGLL 270920Z 05009KT 9999 FEW032 BKN034 02/M04
                        Q1021 NOSIG=
201101270850 METAR COR EGLL 270850Z 04008KT 010V080 9999 BKN035 02/M04
                        Q1021 NOSIG=
201101270820 METAR COR EGLL 270820Z 05008KT 9999 FEW030 BKN036 02/M04
                        Q1021 NOSIG=
201101270750 METAR COR EGLL 270750Z 05008KT 9999 SCT032 BKN037 02/M03
                        Q1020 NOSIG=
201101270720 METAR COR EGLL 270720Z 04009KT 010V070 9999 BKN033 02/M03
                        Q1020 NOSIG=
201101270650 METAR COR EGLL 270650Z 05009KT 9999 OVC035 02/M03 Q1020 NOSIG=
201101270620 METAR COR EGLL 270620Z 04008KT 010V070 9999 OVC035 02/M03
                        Q1019 NOSIG=
201101270550 METAR COR EGLL 270550Z 04008KT 9999 BKN037 02/M03 Q1019 NOSIG=
201101270520 METAR COR EGLL 270520Z 05008KT 020V080 9999 FEW032 BKN035
                        02/M03 Q1019 NOSIG=
201101270450 METAR COR EGLL 270450Z 03009KT 9999 OVC038 02/M03 Q1018 NOSIG=
201101270420 METAR COR EGLL 270420Z 03008KT 360V070 9999 OVC041 02/M03
                        Q1018 NOSIG=
201101270350 METAR COR EGLL 270350Z 04007KT 9999 BKN040 02/M03 Q1018 NOSIG=
201101270320 METAR COR EGLL 270320Z 04008KT 020V090 9999 BKN037 02/M03
                        Q1018 NOSIG=
201101270250 METAR COR EGLL 270250Z 05009KT 020V090 9999 BKN039 02/M03
                        Q1018 NOSIG=
201101270220 METAR COR EGLL 270220Z 05010KT 9999 BKN043 02/M03 Q1018 NOSIG=
201101270150 METAR COR EGLL 270150Z 05009KT 020V080 9999 BKN043 02/M03
                        Q1017 NOSIG=
201101270120 METAR COR EGLL 270120Z 05009KT 020V090 9999 OVC041 02/M03
                        Q1017 NOSIG=
201101270050 METAR COR EGLL 270050Z 05009KT 020V080 9999 BKN043 02/M03
                        Q1017 NOSIG=
201101270020 METAR COR EGLL 270020Z 05010KT 9999 BKN044 02/M02 Q1017 NOSIG=
201101262350 METAR COR EGLL 262350Z 06008KT 9999 SCT022 02/M02 Q1017 NOSIG=
201101262320 METAR COR EGLL 262320Z 06009KT 9999 SCT017 02/M02 Q1016 NOSIG=
201101262250 METAR COR EGLL 262250Z 06009KT 9999 BKN019 03/M01 Q1016 NOSIG=
201101262220 METAR COR EGLL 262220Z 06011KT 9999 BKN017 03/M00 Q1016 NOSIG=
201101262150 METAR COR EGLL 262150Z 06009KT 9999 -RA SCT015 SCT020 03/00
                        Q1016 NOSIG=
201101262120 METAR COR EGLL 262120Z 05010KT 8000 -DZ BKN010 BKN016 03/01
                        Q1015 NOSIG=
201101262050 METAR COR EGLL 262050Z 05009KT 9999 SCT014 BKN030 03/00 Q1015
                        NOSIG=
201101262020 METAR COR EGLL 262020Z 06008KT 9999 FEW020 SCT034 04/00 Q1015
                        NOSIG=
201101261950 METAR COR EGLL 261950Z 06010KT 010V080 9999 FEW018 OVC047
                        04/00 Q1014 NOSIG=
201101261920 METAR COR EGLL 261920Z 06009KT 9999 FEW020 BKN048 04/01 Q1014
                        NOSIG=
201101261850 METAR COR EGLL 261850Z 06009KT 9999 FEW038 BKN048 04/01 Q1013
                        NOSIG=
201101261820 METAR COR EGLL 261820Z 05010KT 9999 BKN049 05/02 Q1013 NOSIG=
201101261750 METAR COR EGLL 261750Z 06009KT 9999 FEW017 BKN045 05/01 Q1012
                        NOSIG=
201101261720 METAR COR EGLL 261720Z 06012KT 9999 -RA BKN010 BKN018 05/02
                        Q1012 BECMG SCT012=
201101261650 METAR COR EGLL 261650Z 06009KT 9999 -RA SCT011 BKN017 05/03
                        Q1011 NOSIG=
201101261620 METAR COR EGLL 261620Z 06012KT 9999 8000SE BKN013 BKN033
                        05/03 Q1011 BECMG SCT012=
201101261550 METAR COR EGLL 261550Z 07014KT 9999 -RA BKN010 06/04 Q1010
                        TEMPO SCT012=
201101261520 METAR COR EGLL 261520Z 03009KT 360V070 9999 -RA SCT010 BKN020
                        07/05 Q1010 TEMPO BKN010=
201101261450 METAR COR EGLL 261450Z 02007KT 340V060 9999 BKN011 BKN024
                        07/05 Q1009 TEMPO SCT012=
201101261420 METAR COR EGLL 261420Z 02005KT 350V050 9999 BKN010 BKN025
                        07/05 Q1009 TEMPO SCT010=
201101261350 METAR COR EGLL 261350Z 02006KT 330V050 8000 -RADZ FEW008
                        BKN010 06/05 Q1009 TEMPO BKN009=
201101261320 METAR COR EGLL 261320Z 02006KT 330V060 9999 7000NE SCT007
                        BKN009 07/05 Q1009 TEMPO SCT010=
201101261250 METAR COR EGLL 261250Z 01006KT 350V050 9999 7000N -RADZ SCT009
                        BKN012 06/05 Q1009 TEMPO SCT012=
201101261220 METAR COR EGLL 261220Z 02007KT 340V060 9999 8000E -RADZ SCT009
                        BKN013 07/04 Q1009 TEMPO SCT013=
201101261150 METAR COR EGLL 261150Z 02008KT 350V060 9999 SCT013 BKN016
                        07/04 Q1009 TEMPO BKN012=
201101261120 METAR COR EGLL 261120Z 02006KT 330V060 9999 SCT008 BKN013
                        07/04 Q1009 TEMPO SCT012=
201101261050 METAR COR EGLL 261050Z 03007KT 350V050 9999 SCT009 BKN012
                        07/04 Q1009 TEMPO SCT012=
201101261020 METAR COR EGLL 261020Z 01007KT 330V060 9999 SCT015 BKN022
                        07/04 Q1009 TEMPO BKN012=
201101260950 METAR EGLL 260950Z 02006KT 340V060 9999 SCT012 BKN025 07/04
                        Q1009=
201101260920 METAR COR EGLL 260920Z 02008KT 330V050 9999 VCSH SCT011 BKN023
                        07/04 Q1009 TEMPO BKN010=
201101260850 METAR COR EGLL 260850Z 01005KT 340V050 9999 SCT011 BKN023
                        07/05 Q1009 TEMPO BKN010=
201101260820 METAR COR EGLL 260820Z 02005KT 350V070 9999 SCT015 BKN021
                        07/05 Q1009 TEMPO BKN010=
201101260750 METAR COR EGLL 260750Z 03007KT 340V060 7000 FEW006 SCT011
                        BKN016 07/05 Q1008 TEMPO BKN010=
201101260720 METAR COR EGLL 260720Z 03005KT 5000 HZ SCT006 BKN011 07/05
                        Q1008 NOSIG=
201101260650 METAR COR EGLL 260650Z 03006KT 350V060 4400 BR FEW005 BKN006
                        07/05 Q1008 NOSIG=
201101260620 METAR COR EGLL 260620Z 03006KT 360V060 4000 -DZ FEW005 BKN006
                        06/05 Q1008 RERA NOSIG=
201101260550 METAR COR EGLL 260550Z 02004KT 330V050 4000 BR OVC006 06/05
                        Q1008 NOSIG=
201101260520 METAR COR EGLL 260520Z 05004KT 360V090 4000 BR FEW004 BKN005
                        06/05 Q1008 NOSIG=
201101260450 METAR COR EGLL 260450Z 03004KT 350V060 3400 BR BKN005 06/05
                        Q1008 NOSIG=
201101260420 METAR EGLL 260420Z 36005KT 4800 BR BKN007 06/05 Q1008=
201101260350 METAR COR EGLL 260350Z 32003KT 8000 BKN008 06/05 Q1008 NOSIG=
201101260320 METAR COR EGLL 260320Z 33003KT 8000 SCT010 BKN014 06/05 Q1009
                        TEMPO BKN008=
201101260250 METAR COR EGLL 260250Z VRB03KT 6000 FEW018 BKN049 06/05 Q1009
                        TEMPO BKN012=
201101260220 METAR COR EGLL 260220Z 30003KT 7000 SCT029 BKN048 06/05 Q1008
                        TEMPO BKN012=
201101260150 METAR COR EGLL 260150Z 30004KT 6000 FEW011 SCT014 BKN024
                        06/05 Q1009 TEMPO BKN012=
201101260120 METAR COR EGLL 260120Z 30004KT 6000 FEW005 SCT013 BKN019
                        06/05 Q1009 TEMPO BKN012=
201101260050 METAR COR EGLL 260050Z 29005KT 7000 SCT014 BKN019 06/05 Q1009
                        TEMPO BKN012=
201101260020 METAR COR EGLL 260020Z 27004KT 6000 FEW005 BKN019 BKN030
                        06/05 Q1009 TEMPO BKN012=
201101252350 METAR COR EGLL 252350Z 28005KT 6000 FEW004 SCT008 BKN026
                        07/06 Q1010 TEMPO BKN010=
201101252320 METAR COR EGLL 252320Z 27005KT 4000 BR SCT003 SCT008 BKN024
                        07/06 Q1010 TEMPO BKN010=
201101252250 METAR COR EGLL 252250Z 28004KT 3000 RADZ SCT003 BKN006 BKN011
                        07/06 Q1010 NOSIG=
201101252220 METAR COR EGLL 252220Z 30005KT 4000 BR FEW003 BKN005 BKN017
                        07/06 Q1011 NOSIG=
201101252150 METAR COR EGLL 252150Z 28006KT 9000 FEW006 SCT009 BKN045
                        07/06 Q1011 TEMPO BKN008=
201101252120 METAR COR EGLL 252120Z 28007KT 9000 SCT009 BKN048 07/06 Q1011
                        TEMPO BKN008=
201101252050 METAR COR EGLL 252050Z 28007KT 9999 BKN010 07/06 Q1011 TEMPO
                        BKN008=
201101252020 METAR COR EGLL 252020Z 28008KT 9999 BKN011 07/06 Q1011 NOSIG=
201101251950 METAR COR EGLL 251950Z 27006KT 9999 SCT014 07/06 Q1012 TEMPO
                        BKN012=
201101251920 METAR COR EGLL 251920Z 27007KT 9999 BKN010 07/06 Q1012 TEMPO
                        BKN008=
201101251850 METAR COR EGLL 251850Z 28008KT 9999 BKN010 07/06 Q1012 NOSIG=
201101251820 METAR COR EGLL 251820Z 27008KT 9999 BKN008 07/06 Q1012 TEMPO
                        BKN010=
201101251750 METAR COR EGLL 251750Z 27009KT 9999 SCT009 BKN019 07/06 Q1013
                        TEMPO BKN010=
201101251720 METAR COR EGLL 251720Z 28009KT 9999 SCT010 BKN015 08/06 Q1013
                        TEMPO BKN010=
201101251650 METAR COR EGLL 251650Z 27009KT 6000 BKN022 08/06 Q1013 TEMPO
                        BKN012=
201101251620 METAR COR EGLL 251620Z 28008KT 9999 SCT010 SCT017 07/06 Q1013
                        TEMPO BKN010=
201101251550 METAR COR EGLL 251550Z 28011KT 9999 FEW010 SCT025 08/06 Q1014
                        TEMPO BKN012=
201101251520 METAR COR EGLL 251520Z 27009KT 9999 SCT009 BKN025 08/06 Q1014
                        TEMPO BKN012=
201101251450 METAR EGLL 251450Z 28010KT 9999 -RA BKN012 BKN020 08/06 Q1015
                        NOSIG=
201101251420 METAR COR EGLL 251420Z 28010KT 9999 -RA FEW010 BKN013 BKN022
                        08/06 Q1015 NOSIG=
201101251350 METAR COR EGLL 251350Z 28010KT 9999 FEW010 SCT012 BKN024
                        08/06 Q1015 TEMPO BKN014=
201101251320 METAR COR EGLL 251320Z 28011KT 9999 SCT014 BKN018 08/06 Q1016
                        TEMPO BKN014=
201101251250 METAR COR EGLL 251250Z 29010KT 9999 BKN014 08/05 Q1016 TEMPO
                        SCT012=
201101251220 METAR COR EGLL 251220Z 29010KT 9999 VCSH FEW015 BKN030 08/05
                        Q1017 NOSIG=
201101251150 METAR COR EGLL 251150Z 29010KT 9999 FEW018 BKN036 08/05 Q1017
                        NOSIG=
201101251120 METAR EGLL 251120Z 29010KT 9999 SCT021 SCT032 08/05 Q1018=
201101251050 METAR COR EGLL 251050Z 28009KT 9999 SCT016 SCT022 07/05 Q1018
                        NOSIG=
201101251020 METAR COR EGLL 251020Z 28009KT 9999 SCT021 SCT037 07/05 Q1019
                        NOSIG=
201101250950 METAR COR EGLL 250950Z 28009KT 9999 SCT029 SCT038 07/04 Q1019
                        NOSIG=
201101250920 METAR COR EGLL 250920Z 28009KT 9999 SCT024 SCT032 06/04 Q1019
                        NOSIG=
201101250850 METAR COR EGLL 250850Z 28010KT 9999 FEW024 BKN028 06/04 Q1019
                        NOSIG=
201101250820 METAR COR EGLL 250820Z 29010KT 9999 BKN033 06/04 Q1020 NOSIG=
201101250750 METAR COR EGLL 250750Z 28009KT 9999 FEW020 06/03 Q1020 NOSIG=
201101250720 METAR COR EGLL 250720Z 28009KT 9999 SCT018 06/03 Q1020 NOSIG=
201101250650 METAR COR EGLL 250650Z 28010KT 9999 SCT026 06/03 Q1020 NOSIG=
201101250620 METAR COR EGLL 250620Z 29009KT 9999 SCT015 BKN021 05/03 Q1020
                        NOSIG=
201101250550 METAR COR EGLL 250550Z 28008KT 9999 BKN017 05/03 Q1021 NOSIG=
201101250520 METAR COR EGLL 250520Z 28010KT 9999 BKN016 05/03 Q1021 TEMPO
                        BKN014=
201101250450 METAR COR EGLL 250450Z 28008KT 9999 BKN017 05/03 Q1021 NOSIG=
201101250420 METAR COR EGLL 250420Z 28007KT 9999 SCT017 BKN021 05/03 Q1022
                        NOSIG=
201101250350 METAR COR EGLL 250350Z 29007KT 9999 SCT017 BKN022 05/03 Q1022
                        NOSIG=
201101250320 METAR COR EGLL 250320Z 29009KT 9999 SCT018 SCT025 05/03 Q1022
                        NOSIG=
201101250250 METAR COR EGLL 250250Z 29007KT 9999 BKN021 05/03 Q1023 NOSIG=
201101250220 METAR COR EGLL 250220Z 28009KT 9999 BKN015 05/03 Q1023 TEMPO
                        BKN013=
201101250150 METAR COR EGLL 250150Z 28009KT 9999 BKN016 05/03 Q1023 TEMPO
                        BKN014=
201101250120 METAR COR EGLL 250120Z 28008KT 9999 BKN019 04/02 Q1024 NOSIG=
201101250050 METAR COR EGLL 250050Z 27006KT CAVOK 03/01 Q1024 NOSIG=
201101250020 METAR COR EGLL 250020Z 26004KT CAVOK 02/01 Q1024 NOSIG=
201101242350 METAR COR EGLL 242350Z 26005KT CAVOK 01/00 Q1025 NOSIG=
201101242320 METAR COR EGLL 242320Z 28005KT 260V360 CAVOK 02/01 Q1025
                        NOSIG=
201101242250 METAR COR EGLL 242250Z 28006KT 260V340 9000 NSC 02/01 Q1026
                        NOSIG=
201101242220 METAR COR EGLL 242220Z 27005KT CAVOK 02/01 Q1026 NOSIG=
201101242150 METAR COR EGLL 242150Z 27005KT CAVOK 02/01 Q1026 NOSIG=
201101242120 METAR COR EGLL 242120Z 27006KT CAVOK 03/02 Q1026 NOSIG=
201101242050 METAR COR EGLL 242050Z 28005KT CAVOK 03/02 Q1027 NOSIG=
201101242020 METAR COR EGLL 242020Z 29005KT CAVOK 03/02 Q1027 NOSIG=
201101241950 METAR COR EGLL 241950Z 28007KT CAVOK 04/02 Q1027 NOSIG=
201101241920 METAR COR EGLL 241920Z 28006KT 9999 BKN037 04/03 Q1028 NOSIG=
201101241850 METAR COR EGLL 241850Z 28006KT 9999 FEW021 BKN044 05/03 Q1028
                        NOSIG=
201101241820 METAR COR EGLL 241820Z 29005KT 9999 FEW024 BKN040 05/03 Q1028
                        NOSIG=
201101241750 METAR COR EGLL 241750Z 29004KT 9999 SCT022 BKN040 05/03 Q1028
                        NOSIG=
201101241720 METAR COR EGLL 241720Z 30004KT 270V330 9999 SCT020 BKN024
                        05/03 Q1028 NOSIG=
201101241650 METAR COR EGLL 241650Z 32007KT 4500 -RA BKN014 BKN030 05/03
                        Q1029 BECMG 9999 SCT020=
201101241620 METAR EGLL 241620Z 31006KT 8000 FEW022 SCT043 06/02 Q1029=
201101241550 METAR EGLL 241550Z 31007KT 9999 FEW030 07/02 Q1029=
201101241520 METAR EGLL 241520Z 31008KT 290V350 9999 FEW025 07/02 Q1029=
201101241450 METAR EGLL 241450Z 31007KT 9999 FEW025 07/02 Q1029=
201101241420 METAR EGLL 241420Z 31008KT 9999 FEW030 07/02 Q1030=
201101241350 METAR COR EGLL 241350Z 32007KT 280V340 9999 FEW046 07/01
                        Q1030 NOSIG=
201101241320 METAR EGLL 241320Z 32006KT 290V350 CAVOK 07/02 Q1030 NOSIG=
201101241250 METAR COR EGLL 241250Z 32006KT 290V350 CAVOK 07/02 Q1031
                        NOSIG=
201101241220 METAR EGLL 241220Z 31007KT 9999 FEW022 07/03 Q1031=
201101241150 METAR COR EGLL 241150Z 32005KT 290V350 CAVOK 07/03 Q1032
                        NOSIG=
201101241120 METAR COR EGLL 241120Z 32006KT 280V350 CAVOK 07/03 Q1032
                        NOSIG=
201101241050 METAR COR EGLL 241050Z 33004KT 300V020 CAVOK 07/03 Q1033
                        NOSIG=
201101241020 METAR COR EGLL 241020Z 34005KT CAVOK 06/03 Q1033 NOSIG=
201101240950 METAR COR EGLL 240950Z 34005KT 310V020 CAVOK 06/03 Q1033
                        NOSIG=
201101240920 METAR COR EGLL 240920Z 35004KT 310V030 CAVOK 06/03 Q1033
                        NOSIG=
201101240850 METAR COR EGLL 240850Z 36006KT CAVOK 06/03 Q1033 NOSIG=
201101240820 METAR COR EGLL 240820Z 36006KT CAVOK 06/03 Q1033 NOSIG=
201101240750 METAR COR EGLL 240750Z 01005KT 330V040 9999 SCT019 06/03
                        Q1033 NOSIG=
201101240720 METAR COR EGLL 240720Z 01006KT 330V040 9999 SCT018 06/03
                        Q1033 NOSIG=
201101240650 METAR COR EGLL 240650Z 01006KT 340V060 9999 SCT018 06/03
                        Q1033 NOSIG=
201101240620 METAR COR EGLL 240620Z 01007KT 330V050 9999 FEW016 SCT025
                        06/03 Q1033 NOSIG=
201101240550 METAR COR EGLL 240550Z 36007KT 330V030 9999 BKN015 BKN029
                        06/04 Q1033 TEMPO BKN013=
201101240520 METAR COR EGLL 240520Z 36007KT 320V020 9999 BKN015 BKN023
                        06/04 Q1033 TEMPO BKN013=
201101240450 METAR COR EGLL 240450Z 36007KT 9999 BKN013 07/04 Q1033 NOSIG=
201101240420 METAR COR EGLL 240420Z 36006KT 320V030 9999 BKN015 07/04
                        Q1033 TEMPO BKN012=
201101240350 METAR COR EGLL 240350Z 36007KT 320V040 9999 BKN014 07/04
                        Q1033 NOSIG=
201101240320 METAR COR EGLL 240320Z 36006KT 9000 BKN014 07/04 Q1033 NOSIG=
201101240250 METAR COR EGLL 240250Z 36006KT 9000 BKN014 07/04 Q1033 NOSIG=
201101240220 METAR COR EGLL 240220Z 36005KT 320V030 9999 FEW009 BKN014
                        06/05 Q1033 NOSIG=
201101240150 METAR COR EGLL 240150Z 36007KT 9999 FEW008 BKN012 06/04 Q1033
                        NOSIG=
201101240120 METAR COR EGLL 240120Z 36006KT 320V030 9999 BKN013 07/04
                        Q1033 NOSIG=
201101240050 METAR COR EGLL 240050Z 36006KT 330V040 9999 BKN015 07/04
                        Q1033 TEMPO BKN012=
201101240020 METAR COR EGLL 240020Z 36006KT 330V040 9999 FEW018 BKN024
                        07/04 Q1033 TEMPO BKN013=
201101232350 METAR COR EGLL 232350Z 01007KT 340V040 9999 FEW019 BKN025
                        07/04 Q1033 NOSIG=
201101232320 METAR COR EGLL 232320Z 36007KT 9999 BKN015 BKN019 07/04 Q1033
                        TEMPO BKN012=
201101232250 METAR COR EGLL 232250Z 36006KT 330V040 9999 BKN015 BKN019
                        07/04 Q1033 TEMPO BKN012=
201101232220 METAR COR EGLL 232220Z 36007KT 340V040 9999 BKN015 BKN020
                        07/04 Q1033 TEMPO BKN012=
201101232150 METAR COR EGLL 232150Z 01006KT 330V040 9999 BKN018 07/04
                        Q1033 NOSIG=
201101232120 METAR COR EGLL 232120Z 01007KT 9999 BKN018 07/04 Q1033 NOSIG=
201101232050 METAR COR EGLL 232050Z 02006KT 350V080 9999 FEW021 SCT024
                        07/04 Q1034 NOSIG=
201101232020 METAR COR EGLL 232020Z 01008KT 340V050 9999 SCT017 07/04
                        Q1034 NOSIG=
201101231950 METAR COR EGLL 231950Z 36008KT 320V030 9999 SCT018 07/05
                        Q1034 NOSIG=
201101231920 METAR COR EGLL 231920Z 36009KT 9999 SCT013 07/05 Q1034 TEMPO
                        BKN012=
201101231850 METAR COR EGLL 231850Z 36007KT 8000 -RA BKN014 07/05 Q1034
                        NOSIG=
201101231820 METAR COR EGLL 231820Z 36007KT 320V040 9999 BKN016 07/05
                        Q1034 TEMPO BKN014=
201101231750 METAR COR EGLL 231750Z 36006KT 9999 FEW023 07/04 Q1034 NOSIG=
201101231720 METAR COR EGLL 231720Z 01006KT 340V050 9999 SCT018 07/04
                        Q1034 NOSIG=
201101231650 METAR COR EGLL 231650Z 36008KT 330V030 9999 FEW017 07/04
                        Q1033 NOSIG=
201101231620 METAR COR EGLL 231620Z 02007KT 330V050 9999 FEW015 08/04
                        Q1033 NOSIG=
201101231550 METAR COR EGLL 231550Z 36006KT 9999 SCT013 08/05 Q1033 NOSIG=
201101231520 METAR COR EGLL 231520Z 02006KT 8000 BKN011 08/05 Q1033 NOSIG=
201101231450 METAR COR EGLL 231450Z 02007KT 330V050 8000 BKN011 BKN015
                        08/05 Q1033 NOSIG=
201101231420 METAR COR EGLL 231420Z 01006KT 330V050 9999 FEW012 BKN015
                        08/05 Q1034 NOSIG=
201101231350 METAR COR EGLL 231350Z 01007KT 350V050 9999 BKN012 07/05
                        Q1034 NOSIG=
201101231320 METAR COR EGLL 231320Z 01008KT 340V040 9999 FEW008 BKN011
                        07/05 Q1034 TEMPO SCT012=
201101231250 METAR COR EGLL 231250Z 01008KT 9999 FEW008 BKN011 07/05 Q1034
                        NOSIG=
201101231220 METAR COR EGLL 231220Z 01009KT 340V050 9999 FEW009 BKN011
                        07/05 Q1034 NOSIG=
201101231150 METAR COR EGLL 231150Z 01007KT 9999 BKN012 07/04 Q1034 TEMPO
                        SCT012=
201101231120 METAR COR EGLL 231120Z 36007KT 320V030 9999 SCT016 07/04
                        Q1034 NOSIG=
201101231050 METAR COR EGLL 231050Z 02007KT 330V050 9999 SCT012 07/04
                        Q1034 NOSIG=
201101231020 METAR COR EGLL 231020Z 02007KT 340V050 9999 SCT017 06/03
                        Q1034 NOSIG=
201101230950 METAR COR EGLL 230950Z 03009KT 9999 BKN017 06/03 Q1034 NOSIG=
201101230920 METAR COR EGLL 230920Z 02006KT 340V050 9999 BKN012 06/04
                        Q1034 NOSIG=
201101230850 METAR COR EGLL 230850Z 02006KT 350V050 9999 SCT010 BKN045
                        06/04 Q1034 NOSIG=
201101230820 METAR COR EGLL 230820Z 02007KT 350V090 9999 FEW009 SCT010
                        BKN046 06/04 Q1034 NOSIG=
201101230750 METAR COR EGLL 230750Z 02007KT 350V060 9000 FEW009 SCT011
                        BKN046 06/04 Q1034 NOSIG=
201101230720 METAR COR EGLL 230720Z 02007KT 340V050 9999 BKN011 BKN046
                        06/04 Q1034 BECMG SCT011=
201101230650 METAR COR EGLL 230650Z 02006KT 340V050 9999 SCT011 OVC046
                        06/04 Q1034 TEMPO BKN011=
201101230620 METAR COR EGLL 230620Z 01007KT 340V050 9999 FEW011 BKN044
                        06/04 Q1034 TEMPO BKN011=
201101230550 METAR COR EGLL 230550Z 01005KT 330V050 9999 -RA SCT011 SCT039
                        06/04 Q1034 BECMG BKN011=
201101230520 METAR COR EGLL 230520Z 03006KT 340V060 9999 FEW009 BKN015
                        06/04 Q1034 BECMG BKN014=
201101230450 METAR COR EGLL 230450Z 03008KT 9999 FEW008 BKN012 06/04 Q1034
                        TEMPO BKN008=
201101230420 METAR COR EGLL 230420Z 02007KT 340V050 9999 FEW008 BKN015
                        06/04 Q1034 BECMG BKN014=
201101230350 METAR COR EGLL 230350Z 02008KT 350V050 9999 BKN006 BKN011
                        06/05 Q1034 TEMPO SCT006 BKN012=
201101230320 METAR COR EGLL 230320Z 01008KT 340V050 9999 FEW006 SCT007
                        BKN011 06/05 Q1034 NOSIG=
201101230250 METAR COR EGLL 230250Z 02007KT 9999 BKN009 06/05 Q1034 TEMPO
                        SCT009 BKN012=
201101230220 METAR COR EGLL 230220Z 02006KT 340V050 9999 FEW007 BKN008
                        06/05 Q1035 TEMPO SCT008 BKN010=
201101230150 METAR COR EGLL 230150Z 02005KT 350V050 9999 FEW008 BKN010
                        06/05 Q1035 TEMPO BKN008=
201101230120 METAR COR EGLL 230120Z 02005KT 350V050 9999 FEW008 BKN010
                        06/04 Q1035 TEMPO BKN008=
201101230050 METAR COR EGLL 230050Z 03006KT 350V060 9999 FEW008 BKN010
                        06/04 Q1035 TEMPO BKN008=
201101230020 METAR COR EGLL 230020Z 03009KT 360V060 9999 FEW009 BKN011
                        07/04 Q1035 NOSIG=
201101222350 METAR COR EGLL 222350Z 03009KT 350V060 9999 BKN015 07/04
                        Q1035 BECMG BKN014=
201101222320 METAR COR EGLL 222320Z 03009KT 9999 FEW010 SCT014 BKN020
                        06/04 Q1035 BECMG BKN014=
201101222250 METAR COR EGLL 222250Z 03009KT 350V060 9999 FEW014 BKN018
                        06/04 Q1035 BECMG BKN014=
201101222220 METAR COR EGLL 222220Z 04009KT 9999 FEW016 BKN019 06/03 Q1035
                        BECMG BKN014=
201101222150 METAR COR EGLL 222150Z 03009KT 9999 FEW017 BKN021 06/03 Q1035
                        BECMG BKN014=
201101222120 METAR COR EGLL 222120Z 03008KT 360V070 9999 SCT018 BKN022
                        06/03 Q1035 NOSIG=
201101222050 METAR COR EGLL 222050Z 03010KT 330V060 9999 FEW019 BKN023
                        06/03 Q1035 NOSIG=
201101222020 METAR COR EGLL 222020Z 03009KT 350V070 9999 FEW019 BKN024
                        06/03 Q1035 NOSIG=
201101221950 METAR COR EGLL 221950Z 03010KT 9999 SCT019 BKN027 07/02 Q1035
                        NOSIG=
201101221920 METAR COR EGLL 221920Z 03012KT 360V070 9999 SCT021 BKN027
                        07/03 Q1035 NOSIG=
201101221850 METAR COR EGLL 221850Z 03009KT 9999 SCT020 BKN027 07/03 Q1035
                        NOSIG=
201101221820 METAR COR EGLL 221820Z 03008KT 360V060 9999 SCT019 BKN028
                        07/03 Q1035 NOSIG=
201101221750 METAR COR EGLL 221750Z 02007KT 350V050 9999 SCT018 BKN022
                        06/03 Q1035 NOSIG=
201101221720 METAR COR EGLL 221720Z 02008KT 340V050 9999 FEW021 BKN032
                        06/03 Q1035 NOSIG=
201101221650 METAR COR EGLL 221650Z 02007KT 340V040 9999 FEW020 BKN038
                        06/03 Q1035 NOSIG=
201101221620 METAR COR EGLL 221620Z 01007KT 340V050 9999 SCT038 06/03
                        Q1035 NOSIG=
201101221550 METAR COR EGLL 221550Z 02009KT 350V050 9999 FEW024 06/03
                        Q1035 NOSIG=
201101221520 METAR COR EGLL 221520Z 02010KT 340V050 9999 FEW024 SCT040
                        07/03 Q1035 NOSIG=
201101221450 METAR COR EGLL 221450Z 02009KT 350V060 9999 FEW018 SCT023
                        BKN035 06/04 Q1035 TEMPO BKN014=
201101221420 METAR COR EGLL 221420Z 01007KT 330V060 9999 FEW010 BKN014
                        BKN032 06/04 Q1035 NOSIG=
201101221350 METAR COR EGLL 221350Z 01009KT 340V050 5000 HZ SCT008 BKN013
                        06/04 Q1036 NOSIG=
201101221320 METAR COR EGLL 221320Z 01011KT 9999 FEW009 BKN012 06/03 Q1036
                        NOSIG=
201101221250 METAR COR EGLL 221250Z 36011KT 9000 FEW008 BKN009 05/03 Q1036
                        NOSIG=
201101221220 METAR COR EGLL 221220Z 01008KT 9999 BKN009 05/03 Q1036 NOSIG=
201101221150 METAR COR EGLL 221150Z 01009KT 7000 FEW009 BKN032 05/03 Q1037
                        NOSIG=
201101221120 METAR COR EGLL 221120Z 36006KT 6000 BKN009 04/02 Q1037 BECMG
                        BKN012=
201101221050 METAR COR EGLL 221050Z 01006KT 330V040 5000 HZ FEW006 BKN009
                        04/02 Q1037 BECMG BKN012=
201101221020 METAR COR EGLL 221020Z 35005KT 310V020 2500 -DZ BKN006 03/02
                        Q1037 NOSIG=
201101220950 METAR COR EGLL 220950Z 36006KT 320V030 4500 -RA BKN009 03/01
                        Q1038 NOSIG=
201101220920 METAR COR EGLL 220920Z 35005KT 5000 BR BKN009 03/01 Q1038
                        NOSIG=
201101220850 METAR COR EGLL 220850Z 34004KT 300V040 5000 -RA BKN009 02/01
                        Q1038 BECMG BKN011=
201101220820 METAR COR EGLL 220820Z 33004KT 290V010 5000 -DZ BKN011 02/00
                        Q1038 NOSIG=
201101220750 METAR COR EGLL 220750Z VRB03KT 5000 BR BKN020 01/00 Q1038
                        NOSIG=
201101220720 METAR COR EGLL 220720Z 29004KT 6000 BKN024 01/M00 Q1038 NOSIG=
201101220650 METAR COR EGLL 220650Z 30004KT 6000 FEW034 01/M00 Q1038 NOSIG=
201101220620 METAR COR EGLL 220620Z 30004KT 6000 FEW030 SCT046 01/M00
                        Q1038 NOSIG=
201101220550 METAR COR EGLL 220550Z VRB03KT 6000 FEW049 01/M00 Q1038 NOSIG=
201101220520 METAR COR EGLL 220520Z 30004KT 4700 BR NSC 01/M00 Q1038 BECMG
                        6000 NSW=
201101220450 METAR COR EGLL 220450Z 31004KT 4600 BR NSC 01/M00 Q1039 BECMG
                        6000 NSW=
201101220420 METAR COR EGLL 220420Z 29004KT 3300 BR FEW003 01/M00 Q1039
                        BECMG 6000 NSW=
201101220350 METAR COR EGLL 220350Z 29004KT 2600 BR BKN004 01/M00 Q1039
                        NOSIG=
201101220320 METAR COR EGLL 220320Z 33004KT 290V020 3000 BR OVC003 01/M00
                        Q1039 NOSIG=
201101220250 METAR COR EGLL 220250Z 35004KT 320V030 3300 BR OVC004 01/M00
                        Q1039 TEMPO FEW005 BKN005=
201101220220 METAR COR EGLL 220220Z 34004KT 290V020 4000 BR FEW004 BKN005
                        01/M00 Q1039 BECMG BKN004=
201101220150 METAR EGLL 220150Z VRB03KT 3700 BR BKN004 01/M00 Q1040=
201101220120 METAR COR EGLL 220120Z 01005KT 340V050 3800 BR BKN004 01/M00
                        Q1040 NOSIG=
201101220050 METAR COR EGLL 220050Z 02004KT 340V060 4000 BR BKN004 01/M00
                        Q1040 TEMPO SCT004 BKN005=
201101220020 METAR COR EGLL 220020Z 04004KT 350V070 4000 BR BKN004 01/M00
                        Q1040 TEMPO SCT004 BKN005=
201101212350 METAR COR EGLL 212350Z 03006KT 340V070 4000 BR FEW004 BKN005
                        01/M00 Q1040 TEMPO BKN004=
201101212320 METAR COR EGLL 212320Z VRB03KT 4500 BR BKN005 01/M00 Q1040
                        TEMPO 6000 BKN004=
201101212250 METAR COR EGLL 212250Z 03005KT 5000 BR FEW004 BKN005 01/M00
                        Q1040 NOSIG=
201101212220 METAR COR EGLL 212220Z 05004KT 360V090 5000 BR FEW004 BKN005
                        01/M00 Q1040 NOSIG=
201101212150 METAR COR EGLL 212150Z 04004KT 340V100 6000 BKN006 00/M01
                        Q1040 NOSIG=
201101212120 METAR COR EGLL 212120Z 01005KT 340V040 5000 BR NSC 00/M02
                        Q1040 NOSIG=
201101212050 METAR COR EGLL 212050Z 36004KT 6000 NSC 00/M02 Q1039 NOSIG=
201101212020 METAR COR EGLL 212020Z VRB03KT 6000 NSC M00/M02 Q1039 NOSIG=
201101211950 METAR COR EGLL 211950Z 02004KT 340V070 7000 NSC 00/M02 Q1039
                        NOSIG=
201101211920 METAR COR EGLL 211920Z 03004KT 350V050 8000 NSC 01/M02 Q1039
                        TEMPO BKN012=
201101211820 METAR COR EGLL 211820Z 36003KT 9000 NSC 01/M02 Q1039 TEMPO
                        BKN012=
201101211750 METAR COR EGLL 211750Z 35004KT CAVOK 01/M02 Q1039 NOSIG=
201101211720 METAR COR EGLL 211720Z VRB03KT CAVOK 01/M02 Q1039 NOSIG=
201101211650 METAR COR EGLL 211650Z 36005KT 320V030 CAVOK 02/M02 Q1039
                        NOSIG=
201101211620 METAR COR EGLL 211620Z 35004KT CAVOK 03/M02 Q1038 NOSIG=
201101211550 METAR COR EGLL 211550Z 36004KT 330V030 CAVOK 03/M02 Q1038
                        NOSIG=
201101211520 METAR COR EGLL 211520Z 35004KT CAVOK 03/M03 Q1038 NOSIG=
201101211450 METAR COR EGLL 211450Z 35004KT 300V030 CAVOK 03/M02 Q1038
                        NOSIG=
201101211420 METAR COR EGLL 211420Z 32005KT 280V360 CAVOK 03/M02 Q1038
                        NOSIG=
201101211350 METAR COR EGLL 211350Z 35005KT 310V010 CAVOK 03/M02 Q1038
                        NOSIG=
201101211320 METAR COR EGLL 211320Z 32006KT 290V020 9000 NSC 02/M02 Q1038
                        NOSIG=
201101211250 METAR COR EGLL 211250Z 32004KT 270V010 8000 NSC 02/M02 Q1039
                        NOSIG=
201101211220 METAR COR EGLL 211220Z 33005KT 300V020 7000 FEW012 01/M02
                        Q1039 NOSIG=
201101211150 METAR COR EGLL 211150Z 31004KT 260V350 7000 NSC 01/M02 Q1039
                        NOSIG=
201101211120 METAR COR EGLL 211120Z 30004KT 240V330 7000 SCT006 00/M02
                        Q1039 TEMPO BKN006=
201101211050 METAR COR EGLL 211050Z 31004KT 270V350 5000 HZ BKN006 M00/M02
                        Q1040 NOSIG=
201101211020 METAR COR EGLL 211020Z 32006KT 290V010 5000 HZ BKN006 M01/M03
                        Q1040 NOSIG=
201101210950 METAR COR EGLL 210950Z 33007KT 5000 HZ FEW006 SCT008 BKN038
                        M01/M03 Q1040 TEMPO BKN009=
201101210920 METAR COR EGLL 210920Z 33007KT 300V360 8000 BKN038 M00/M03
                        Q1039 NOSIG=
201101210850 METAR COR EGLL 210850Z 32007KT 8000 BKN039 01/M02 Q1039 NOSIG=
201101210820 METAR COR EGLL 210820Z 31005KT 9999 BKN038 01/M01 Q1039 NOSIG=
201101210750 METAR COR EGLL 210750Z 31004KT 280V350 9999 BKN037 02/M01
                        Q1038 NOSIG=
201101210720 METAR COR EGLL 210720Z 31004KT 9999 FEW012 BKN037 02/M01
                        Q1038 NOSIG=
201101210650 METAR COR EGLL 210650Z 31004KT 9999 FEW010 BKN040 02/M01
                        Q1038 NOSIG=
201101210620 METAR COR EGLL 210620Z VRB03KT 9999 FEW010 BKN040 02/M01
                        Q1038 NOSIG=
201101210550 METAR COR EGLL 210550Z VRB03KT 9999 -DZ FEW012 BKN040 03/M00
                        Q1038 TEMPO BKN012=
201101210520 METAR COR EGLL 210520Z 35004KT 320V020 9999 SCT020 BKN030
                        03/00 Q1038 NOSIG=
201101210450 METAR COR EGLL 210450Z VRB03KT 9999 -DZ FEW025 BKN040 03/01
                        Q1038 NOSIG=
201101210420 METAR COR EGLL 210420Z VRB02KT 9999 BKN035 03/01 Q1038 NOSIG=
201101210350 METAR COR EGLL 210350Z 36003KT 9999 SCT010 OVC041 04/01 Q1038
                        NOSIG=
201101210320 METAR COR EGLL 210320Z VRB03KT 9999 BKN010 04/02 Q1038 TEMPO
                        SCT010 BKN015=
201101210250 METAR COR EGLL 210250Z VRB03KT 9000 BKN010 04/02 Q1038 TEMPO
                        SCT010 BKN015=
201101210220 METAR COR EGLL 210220Z 36004KT 8000 BKN009 04/02 Q1038 TEMPO
                        SCT009 BKN015=
201101210150 METAR COR EGLL 210150Z 36005KT 7000 BKN008 04/02 Q1038 NOSIG=
201101210120 METAR COR EGLL 210120Z VRB03KT 6000 BKN010 04/02 Q1038 TEMPO
                        BKN008=
201101210050 METAR COR EGLL 210050Z 36005KT 6000 BKN008 04/02 Q1038 NOSIG=
201101210020 METAR EGLL 210020Z 03004KT 350V060 8000 BKN009 BKN031 04/02
                        Q1038=
201101202350 METAR COR EGLL 202350Z 35004KT 320V020 7000 SCT009 BKN037
                        04/03 Q1038 TEMPO BKN008=
201101202320 METAR COR EGLL 202320Z 36005KT 8000 SCT009 BKN030 05/03 Q1038
                        TEMPO BKN008=
201101202250 METAR COR EGLL 202250Z 36004KT 320V030 9999 BKN031 05/03
                        Q1038 NOSIG=
201101202220 METAR COR EGLL 202220Z 36003KT 9999 BKN028 05/02 Q1038 NOSIG=
201101202150 METAR COR EGLL 202150Z 03004KT 360V060 9999 BKN024 05/02
                        Q1038 NOSIG=
201101202120 METAR COR EGLL 202120Z 02005KT 340V040 9999 BKN023 05/02
                        Q1038 TEMPO BKN014=
201101202050 METAR COR EGLL 202050Z 03005KT 9000 FEW008 SCT013 BKN018
                        05/03 Q1037 TEMPO BKN008=
201101202020 METAR COR EGLL 202020Z 36003KT 8000 SCT008 BKN016 05/03 Q1037
                        TEMPO BKN008=
201101201950 METAR COR EGLL 201950Z VRB03KT 9999 BKN008 05/03 Q1037 NOSIG=
201101201920 METAR COR EGLL 201920Z 35004KT 310V020 9999 FEW008 SCT022
                        BKN032 04/02 Q1037 TEMPO BKN008=
201101201850 METAR COR EGLL 201850Z 36004KT 320V060 9999 SCT010 SCT025
                        04/03 Q1037 BECMG BKN010=
201101201820 METAR COR EGLL 201820Z VRB03KT 9999 SCT010 SCT030 05/03 Q1037
                        BECMG BKN010=
201101201750 METAR COR EGLL 201750Z 35004KT 310V020 9999 BKN010 BKN033
                        05/02 Q1037 NOSIG=
201101201720 METAR COR EGLL 201720Z 35004KT 9999 BKN010 BKN028 05/03 Q1036
                        NOSIG=
201101201650 METAR COR EGLL 201650Z 36005KT 9999 FEW009 SCT020 BKN030
                        05/03 Q1036 NOSIG=
201101201620 METAR COR EGLL 201620Z 02004KT 340V080 9999 FEW008 SCT020
                        BKN030 05/03 Q1036 NOSIG=
201101201550 METAR COR EGLL 201550Z 36005KT 9999 BKN010 BKN021 05/03 Q1036
                        BECMG SCT010=
201101201520 METAR COR EGLL 201520Z 36006KT 9999 FEW007 BKN011 BKN021
                        05/03 Q1036 NOSIG=
201101201450 METAR COR EGLL 201450Z 35004KT 9999 FEW008 BKN011 05/03 Q1036
                        BECMG SCT011=
201101201420 METAR COR EGLL 201420Z 35005KT 320V020 9999 BKN011 BKN024
                        05/03 Q1036 BECMG SCT011=
201101201350 METAR COR EGLL 201350Z 36005KT 9999 BKN011 BKN024 05/03 Q1036
                        BECMG SCT011=
201101201320 METAR COR EGLL 201320Z 36005KT 330V050 9999 BKN011 05/02
                        Q1036 BECMG SCT011=
201101201250 METAR COR EGLL 201250Z VRB03KT 9999 BKN011 05/02 Q1037 BECMG
                        SCT011=
201101201220 METAR COR EGLL 201220Z 03004KT 330V070 9999 BKN010 05/02
                        Q1037 BECMG SCT010=
201101201150 METAR COR EGLL 201150Z 02005KT 350V060 9999 BKN010 BKN031
                        05/02 Q1037 BECMG SCT010=
201101201120 METAR COR EGLL 201120Z 02004KT 320V050 9999 FEW009 BKN012
                        04/02 Q1037 BECMG SCT012=
201101201050 METAR COR EGLL 201050Z 36004KT 330V030 9999 FEW009 BKN022
                        04/01 Q1036 TEMPO BKN010=
201101201020 METAR COR EGLL 201020Z 36005KT 9999 FEW010 BKN024 04/01 Q1036
                        TEMPO BKN010=
201101200950 METAR COR EGLL 200950Z 35005KT 310V030 9999 BKN010 03/01
                        Q1036 TEMPO SCT010=
201101200920 METAR COR EGLL 200920Z 35004KT 320V030 7000 -SHRA FEW009
                        SCT012 03/01 Q1036 TEMPO BKN012=
201101200850 METAR COR EGLL 200850Z 34004KT 300V020 9999 FEW012 SCT023
                        03/00 Q1036 TEMPO BKN012=
201101200820 METAR COR EGLL 200820Z 32004KT 290V350 9999 FEW013 SCT024
                        02/00 Q1036 TEMPO BKN013=
201101200750 METAR COR EGLL 200750Z 32004KT 9999 BKN011 BKN015 02/00 Q1035
                        TEMPO SCT011=
201101200720 METAR COR EGLL 200720Z VRB03KT 9999 FEW019 SCT042 02/00 Q1035
                        NOSIG=
201101200650 METAR COR EGLL 200650Z VRB03KT 9999 SCT019 BKN043 02/00 Q1035
                        NOSIG=
201101200620 METAR COR EGLL 200620Z 32005KT 9999 SCT043 02/M00 Q1035 NOSIG=
201101200550 METAR COR EGLL 200550Z 32004KT 9999 FEW043 02/00 Q1035 NOSIG=
201101200520 METAR COR EGLL 200520Z 33005KT 9999 SCT044 02/00 Q1035 NOSIG=
201101200450 METAR COR EGLL 200450Z 33006KT 9999 BKN045 02/00 Q1035 NOSIG=
201101200420 METAR COR EGLL 200420Z 33006KT 300V360 9000 BKN045 02/00
                        Q1035 NOSIG=
201101200350 METAR COR EGLL 200350Z 33005KT 310V010 9999 BKN044 02/00
                        Q1035 NOSIG=
201101200320 METAR COR EGLL 200320Z 33005KT 300V010 8000 SCT044 02/00
                        Q1035 NOSIG=
201101200250 METAR COR EGLL 200250Z VRB03KT 9000 FEW045 02/00 Q1035 NOSIG=
201101200220 METAR COR EGLL 200220Z 33004KT 9000 BKN041 02/00 Q1035 NOSIG=
201101200150 METAR COR EGLL 200150Z 32004KT 290V360 9000 BKN042 02/01
                        Q1035 NOSIG=
201101200120 METAR COR EGLL 200120Z 32004KT 290V360 9000 BKN029 02/01
                        Q1035 NOSIG=
201101200050 METAR COR EGLL 200050Z 31005KT 9000 BKN029 03/01 Q1035 NOSIG=
201101200020 METAR COR EGLL 200020Z 32004KT 8000 BKN029 03/01 Q1035 NOSIG=
201101192350 METAR COR EGLL 192350Z 32004KT 7000 BKN030 03/01 Q1035 NOSIG=
201101192320 METAR COR EGLL 192320Z 32005KT 6000 BKN027 03/01 Q1035 NOSIG=
201101192250 METAR COR EGLL 192250Z 32004KT 7000 BKN027 03/01 Q1035 NOSIG=
201101192220 METAR COR EGLL 192220Z 32004KT 7000 BKN025 BKN031 03/01 Q1035
                        NOSIG=
201101192150 METAR COR EGLL 192150Z 32004KT 6000 SCT031 03/01 Q1035 NOSIG=
201101192120 METAR COR EGLL 192120Z 31005KT 7000 FEW029 SCT039 03/02 Q1035
                        NOSIG=
201101192050 METAR COR EGLL 192050Z 31005KT 6000 FEW021 SCT037 03/01 Q1035
                        NOSIG=
201101192020 METAR COR EGLL 192020Z 31005KT 6000 SCT030 03/01 Q1035 NOSIG=
201101191950 METAR COR EGLL 191950Z 31005KT 5000 BR NSC 03/02 Q1035 TEMPO
                        4000=
201101191920 METAR COR EGLL 191920Z 30005KT 5000 BR NSC 03/02 Q1035 NOSIG=
201101191850 METAR COR EGLL 191850Z 30005KT 6000 NSC 03/01 Q1035 NOSIG=
201101191820 METAR COR EGLL 191820Z 31004KT 7000 NSC 03/01 Q1035 NOSIG=
201101191750 METAR COR EGLL 191750Z 30004KT 8000 NSC 04/02 Q1035 NOSIG=
201101191720 METAR COR EGLL 191720Z 31005KT 9000 FEW021 04/02 Q1035 NOSIG=
201101191650 METAR COR EGLL 191650Z 30005KT 9999 FEW021 05/02 Q1035 NOSIG=
201101191620 METAR COR EGLL 191620Z 30005KT 9999 FEW022 06/03 Q1035 NOSIG=
201101191550 METAR COR EGLL 191550Z 33005KT 290V350 9999 SCT022 06/03
                        Q1035 NOSIG=
201101191520 METAR COR EGLL 191520Z 32004KT 9999 FEW015 07/03 Q1034 NOSIG=
201101191450 METAR COR EGLL 191450Z 32004KT 290V010 9999 FEW015 07/03
                        Q1034 NOSIG=
201101191420 METAR COR EGLL 191420Z 32005KT 290V360 9999 FEW013 07/03
                        Q1034 NOSIG=
201101191350 METAR COR EGLL 191350Z 30004KT 270V020 9999 FEW012 07/03
                        Q1034 NOSIG=
201101191320 METAR COR EGLL 191320Z 30004KT 260V330 9999 FEW010 06/03
                        Q1034 NOSIG=
201101191250 METAR COR EGLL 191250Z 30004KT 260V350 8000 SCT008 05/03
                        Q1035 NOSIG=
201101191220 METAR COR EGLL 191220Z 32005KT 260V010 7000 FEW006 SCT008
                        04/02 Q1035 NOSIG=
201101191150 METAR COR EGLL 191150Z 31005KT 280V340 5000 BR BKN006 04/02
                        Q1035 BECMG SCT007=
201101191120 METAR COR EGLL 191120Z 31006KT 280V350 4800 BR BKN005 03/02
                        Q1035 BECMG 7000 NSW SCT007=
201101191050 METAR COR EGLL 191050Z 31007KT 5000 BR BKN006 03/01 Q1035
                        BECMG SCT007=
201101191020 METAR COR EGLL 191020Z 31005KT 6000 SCT007 03/01 Q1035 TEMPO
                        BKN007=
201101190950 METAR COR EGLL 190950Z 30005KT 6000 FEW007 02/01 Q1035 NOSIG=
201101190920 METAR COR EGLL 190920Z 28004KT 6000 NSC 01/00 Q1035 NOSIG=
201101190850 METAR COR EGLL 190850Z 29005KT 9000 NSC 00/M01 Q1035 NOSIG=
201101190820 METAR COR EGLL 190820Z 28005KT CAVOK M01/M01 Q1035 NOSIG=
201101190750 METAR COR EGLL 190750Z 27006KT 9000 NSC M01/M02 Q1035 NOSIG=
201101190720 METAR COR EGLL 190720Z 27006KT CAVOK M00/M01 Q1034 NOSIG=
201101190650 METAR COR EGLL 190650Z 28006KT CAVOK M00/M01 Q1034 NOSIG=
201101190620 METAR COR EGLL 190620Z 27004KT 9000 NSC M01/M02 Q1034 NOSIG=
201101190550 METAR COR EGLL 190550Z 27006KT 9000 NSC M00/M01 Q1034 NOSIG=
201101190520 METAR COR EGLL 190520Z 28004KT 9000 NSC M01/M02 Q1034 NOSIG=
201101190450 METAR COR EGLL 190450Z 27005KT CAVOK M00/M02 Q1034 NOSIG=
201101190420 METAR COR EGLL 190420Z 28005KT CAVOK M00/M01 Q1034 NOSIG=
201101190350 METAR COR EGLL 190350Z 28005KT CAVOK M00/M01 Q1034 NOSIG=
201101190320 METAR COR EGLL 190320Z 27004KT CAVOK M00/M02 Q1034 NOSIG=
201101190250 METAR COR EGLL 190250Z 27004KT CAVOK 00/M01 Q1034 NOSIG=
201101190220 METAR COR EGLL 190220Z 27004KT CAVOK 01/M00 Q1034 NOSIG=
201101190150 METAR COR EGLL 190150Z 30004KT CAVOK 02/00 Q1034 NOSIG=
201101190120 METAR COR EGLL 190120Z 28004KT CAVOK 01/M01 Q1034 NOSIG=
201101190050 METAR COR EGLL 190050Z 25003KT CAVOK 01/M01 Q1034 NOSIG=
201101190020 METAR COR EGLL 190020Z 27004KT CAVOK 01/M00 Q1034 NOSIG=
201101182350 METAR COR EGLL 182350Z 27005KT CAVOK 01/M01 Q1033 NOSIG=
201101182320 METAR COR EGLL 182320Z 28006KT CAVOK 01/M01 Q1033 NOSIG=
201101182250 METAR COR EGLL 182250Z 29004KT CAVOK 02/M00 Q1033 NOSIG=
201101182220 METAR COR EGLL 182220Z 31005KT CAVOK 03/00 Q1033 NOSIG=
201101182150 METAR COR EGLL 182150Z 29006KT CAVOK 03/01 Q1032 NOSIG=
201101182120 METAR COR EGLL 182120Z 29006KT CAVOK 03/01 Q1032 NOSIG=
201101182050 METAR COR EGLL 182050Z 30005KT CAVOK 03/01 Q1032 NOSIG=
201101182020 METAR COR EGLL 182020Z 30005KT CAVOK 03/01 Q1032 NOSIG=
201101181950 METAR COR EGLL 181950Z 30005KT CAVOK 04/01 Q1032 NOSIG=
201101181920 METAR COR EGLL 181920Z 30005KT CAVOK 03/01 Q1032 NOSIG=
201101181850 METAR COR EGLL 181850Z 29003KT CAVOK 03/01 Q1032 NOSIG=
201101181820 METAR COR EGLL 181820Z 29004KT CAVOK 04/01 Q1031 NOSIG=
201101181750 METAR COR EGLL 181750Z 31003KT CAVOK 05/02 Q1031 NOSIG=
201101181720 METAR COR EGLL 181720Z 29005KT CAVOK 04/01 Q1031 NOSIG=
201101181650 METAR COR EGLL 181650Z 29004KT 9999 FEW030 05/02 Q1031 NOSIG=
201101181620 METAR COR EGLL 181620Z 31005KT 9999 FEW029 06/02 Q1030 NOSIG=
201101181550 METAR COR EGLL 181550Z 32006KT 9999 FEW025 07/02 Q1030 NOSIG=
201101181520 METAR COR EGLL 181520Z 33006KT 280V020 9999 FEW024 07/02
                        Q1029 NOSIG=
201101181450 METAR COR EGLL 181450Z 32006KT 290V350 9999 FEW021 07/02
                        Q1029 NOSIG=
201101181420 METAR COR EGLL 181420Z 31007KT 280V350 9999 FEW020 07/02
                        Q1029 NOSIG=
201101181350 METAR COR EGLL 181350Z 31008KT 9999 SCT020 07/02 Q1029 NOSIG=
201101181320 METAR COR EGLL 181320Z 32010KT 280V350 9999 FEW016 07/03
                        Q1029 NOSIG=
201101181250 METAR COR EGLL 181250Z 32008KT 9999 FEW015 07/03 Q1029 NOSIG=
201101181220 METAR COR EGLL 181220Z 32008KT 9999 SCT018 06/03 Q1028 NOSIG=
201101181150 METAR COR EGLL 181150Z 32008KT 300V360 9999 FEW020 06/03
                        Q1028 NOSIG=
201101181120 METAR COR EGLL 181120Z 32009KT 9999 FEW013 06/03 Q1028 NOSIG=
201101181050 METAR COR EGLL 181050Z 34005KT 290V020 9999 FEW013 06/03
                        Q1028 NOSIG=
201101181020 METAR COR EGLL 181020Z 32005KT 280V350 9000 FEW013 05/03
                        Q1027 NOSIG=
201101180950 METAR COR EGLL 180950Z 30005KT 280V340 8000 FEW013 04/02
                        Q1027 NOSIG=
201101180920 METAR COR EGLL 180920Z 32005KT 290V350 7000 NSC 04/02 Q1027
                        NOSIG=
201101180850 METAR COR EGLL 180850Z 32006KT 8000 NSC 04/02 Q1026 NOSIG=
201101180820 METAR COR EGLL 180820Z 32005KT 290V350 8000 FEW015 04/02
                        Q1026 NOSIG=
201101180750 METAR COR EGLL 180750Z 32006KT 8000 FEW015 04/03 Q1025 NOSIG=
201101180720 METAR COR EGLL 180720Z 31005KT 9999 FEW025 04/03 Q1024 NOSIG=
201101180650 METAR COR EGLL 180650Z 30004KT 270V350 9999 SCT012 SCT020
                        04/03 Q1024 NOSIG=
201101180620 METAR COR EGLL 180620Z 36004KT 9999 SCT010 BKN015 05/04 Q1023
                        NOSIG=
201101180550 METAR COR EGLL 180550Z 35004KT 310V020 9999 -RA SCT009 BKN018
                        05/04 Q1023 NOSIG=
201101180520 METAR COR EGLL 180520Z VRB03KT 9999 -RA SCT030 BKN035 05/03
                        Q1023 NOSIG=
201101180450 METAR COR EGLL 180450Z 01004KT 330V040 9999 -RA FEW030 BKN035
                        05/03 Q1023 NOSIG=
201101180420 METAR COR EGLL 180420Z 36004KT 330V040 9999 -RA SCT026 BKN034
                        04/03 Q1022 NOSIG=
201101180350 METAR COR EGLL 180350Z 02007KT 9999 RA BKN028 04/03 Q1022
                        BECMG NSW=
201101180320 METAR COR EGLL 180320Z 02007KT 350V060 9999 RA BKN028 05/03
                        Q1022 BECMG NSW=
201101180250 METAR COR EGLL 180250Z 02007KT 9999 RA BKN020 05/03 Q1021
                        BECMG NSW=
201101180220 METAR COR EGLL 180220Z 01007KT 340V040 9000 RA BKN021 05/03
                        Q1021 TEMPO BKN008=
201101180150 METAR COR EGLL 180150Z 02007KT 350V060 9000 RA FEW005 OVC016
                        05/04 Q1021 RERA TEMPO BKN007=
201101180120 METAR COR EGLL 180120Z 05007KT 9000 RA FEW006 BKN015 06/04
                        Q1021 RERA TEMPO BKN007=
201101180050 METAR COR EGLL 180050Z 05006KT 010V080 7000 RA SCT006 BKN022
                        06/05 Q1021 TEMPO BKN007=
201101180020 METAR COR EGLL 180020Z 05006KT 020V080 7000 RA FEW007 BKN017
                        06/05 Q1021 RERA TEMPO BKN007=
201101172350 METAR COR EGLL 172350Z 05006KT 9000 RA SCT009 BKN020 06/05
                        Q1020 RERA TEMPO BKN008=
201101172320 METAR COR EGLL 172320Z 07007KT 9000 RA FEW014 BKN031 06/05
                        Q1020 RERA TEMPO BKN008=
201101172250 METAR COR EGLL 172250Z 06006KT 8000 RA SCT030 BKN044 06/05
                        Q1020 RERA TEMPO BKN012=
201101172220 METAR COR EGLL 172220Z VRB03KT 9000 RA FEW016 BKN031 06/05
                        Q1021 TEMPO BKN012=
201101172150 METAR COR EGLL 172150Z 07005KT 9999 -RA FEW012 BKN029 06/05
                        Q1020 RERA TEMPO RA BKN012=
201101172120 METAR COR EGLL 172120Z 04004KT 9000 RA FEW012 BKN029 BKN034
                        07/05 Q1021 TEMPO BKN012=
201101172050 METAR COR EGLL 172050Z VRB03KT 9999 -RA FEW011 SCT031 BKN037
                        07/05 Q1021 TEMPO RA BKN012=
201101172020 METAR COR EGLL 172020Z VRB03KT 9999 -RA BKN039 07/05 Q1020
                        TEMPO RA BKN014=
201101171950 METAR COR EGLL 171950Z VRB03KT 9999 -RA FEW013 BKN033 07/05
                        Q1021 TEMPO BKN012=
201101171920 METAR COR EGLL 171920Z VRB03KT 9999 FEW013 BKN039 07/05 Q1021
                        TEMPO BKN012=
201101171850 METAR COR EGLL 171850Z 11004KT 070V190 9999 FEW012 BKN041
                        07/05 Q1021 TEMPO BKN012=
201101171820 METAR COR EGLL 171820Z 18004KT 110V240 9999 FEW013 BKN042
                        07/05 Q1021 NOSIG=
201101171750 METAR COR EGLL 171750Z VRB03KT 9999 FEW012 BKN038 BKN048
                        07/04 Q1020 NOSIG=
201101171720 METAR COR EGLL 171720Z 18004KT 120V270 9999 BKN039 07/04
                        Q1020 NOSIG=
201101171650 METAR COR EGLL 171650Z VRB03KT 9999 SCT037 BKN048 07/04 Q1020
                        NOSIG=
201101171620 METAR COR EGLL 171620Z 09003KT 9999 FEW012 SCT040 07/04 Q1019
                        NOSIG=
201101171550 METAR COR EGLL 171550Z VRB02KT 9999 -RA FEW012 BKN036 07/04
                        Q1019 TEMPO BKN012=
201101171520 METAR COR EGLL 171520Z VRB03KT 9999 FEW012 BKN033 07/05 Q1019
                        NOSIG=
201101171450 METAR COR EGLL 171450Z 11005KT 050V150 9999 FEW012 BKN037
                        07/05 Q1019 NOSIG=
201101171420 METAR COR EGLL 171420Z 07006KT 9999 FEW012 BKN034 07/05 Q1018
                        NOSIG=
201101171350 METAR COR EGLL 171350Z 05005KT 010V080 9999 FEW023 BKN034
                        07/05 Q1018 NOSIG=
201101171320 METAR COR EGLL 171320Z 03007KT 360V060 9999 FEW013 BKN034
                        07/05 Q1018 NOSIG=
201101171250 METAR COR EGLL 171250Z 36005KT 330V050 9999 FEW014 BKN034
                        07/04 Q1018 NOSIG=
201101171220 METAR COR EGLL 171220Z 36005KT 310V040 9999 FEW012 BKN030
                        07/05 Q1017 NOSIG=
201101171150 METAR COR EGLL 171150Z 01005KT 330V040 9999 FEW011 SCT023
                        BKN029 07/05 Q1017 NOSIG=
201101171120 METAR COR EGLL 171120Z 36006KT 320V040 9999 -RA FEW010 BKN026
                        07/05 Q1017 NOSIG=
201101171050 METAR COR EGLL 171050Z 01006KT 330V060 9999 -RA FEW009 SCT030
                        07/06 Q1016 RERA NOSIG=
201101171020 METAR COR EGLL 171020Z 36008KT 8000 RA FEW006 BKN025 07/06
                        Q1016 NOSIG=
201101170950 METAR COR EGLL 170950Z 01007KT 7000 RA FEW006 SCT008 BKN022
                        08/07 Q1017 TEMPO BKN008=
201101170920 METAR COR EGLL 170920Z 01005KT 350V050 5000 RA SCT008 BKN018
                        08/07 Q1017 TEMPO BKN008=
201101170850 METAR COR EGLL 170850Z 03004KT 350V070 4000 RA SCT004 BKN014
                        09/08 Q1017 TEMPO BKN008=
201101170820 METAR COR EGLL 170820Z 08004KT 050V130 4500 RA FEW004 SCT007
                        BKN016 09/08 Q1017 TEMPO BKN008=
201101170750 METAR COR EGLL 170750Z 07005KT 5000 RA FEW003 SCT006 BKN016
                        09/08 Q1017 TEMPO BKN008=
201101170720 METAR COR EGLL 170720Z 13005KT 070V170 4000 RA FEW002 BKN005
                        08/08 Q1017 TEMPO BKN004=
201101170650 METAR COR EGLL 170650Z 04003KT 5000 RA FEW005 SCT012 BKN035
                        09/08 Q1018 TEMPO 4000 BKN012=
201101170620 METAR COR EGLL 170620Z VRB02KT 4000 RA FEW004 BKN006 BKN020
                        08/07 Q1018 NOSIG=
201101170550 METAR COR EGLL 170550Z 16004KT 4000 RA FEW004 BKN006 BKN014
                        08/07 Q1018 TEMPO BKN004=
201101170520 METAR COR EGLL 170520Z 14002KT 9999 DZ FEW006 BKN012 08/08
                        Q1019 TEMPO 4000 BKN008=
201101170450 METAR COR EGLL 170450Z 16003KT 9999 BKN012 08/07 Q1019 TEMPO
                        4000 RA BKN008=
201101170420 METAR EGLL 170420Z 00000KT 9999 FEW012 08/07 Q1019=
201101170350 METAR COR EGLL 170350Z 18003KT 9999 FEW015 08/07 Q1019 BECMG
                        BKN012=
201101170320 METAR COR EGLL 170320Z 19004KT 9999 SCT012 SCT015 08/07 Q1019
                        TEMPO BKN012=
201101170250 METAR COR EGLL 170250Z 20003KT 9999 SCT014 08/07 Q1019 TEMPO
                        BKN014=
201101170220 METAR COR EGLL 170220Z 23005KT 9999 FEW009 BKN012 09/08 Q1019
                        TEMPO BKN008=
201101170150 METAR COR EGLL 170150Z 21005KT 9999 SCT025 08/07 Q1019 NOSIG=
201101170120 METAR COR EGLL 170120Z 23006KT 9999 SCT018 09/08 Q1020 NOSIG=
201101170050 METAR COR EGLL 170050Z 20005KT 9999 BKN027 08/07 Q1019 NOSIG=
201101170020 METAR COR EGLL 170020Z 21005KT 9999 BKN021 09/08 Q1019 NOSIG=
201101162350 METAR COR EGLL 162350Z 26005KT 9999 SCT006 BKN013 09/08 Q1019
                        NOSIG=
201101162320 METAR COR EGLL 162320Z 27005KT 9999 SCT005 BKN012 09/08 Q1019
                        NOSIG=
201101162250 METAR COR EGLL 162250Z 30005KT 6000 -DZ SCT005 BKN014 10/08
                        Q1018 BECMG SCT014=
201101162220 METAR COR EGLL 162220Z 31006KT 4500 -DZ SCT002 BKN004 10/09
                        Q1018 REDZ BECMG BKN006=
201101162150 METAR COR EGLL 162150Z 22009KT 5000 DZ OVC006 10/09 Q1018
                        NOSIG=
201101162120 METAR COR EGLL 162120Z 21009KT 9000 -RA OVC006 10/09 Q1017
                        NOSIG=
201101162050 METAR COR EGLL 162050Z 21009KT 9000 FEW007 BKN011 10/09 Q1017
                        TEMPO BKN008=
201101162020 METAR COR EGLL 162020Z 21010KT 6000 RA FEW007 BKN011 10/09
                        Q1017 RERA TEMPO BKN008=
201101161950 METAR COR EGLL 161950Z 21010KT 5000 -RA OVC008 10/09 Q1017
                        NOSIG=
201101161920 METAR COR EGLL 161920Z 20010KT 5000 RA OVC008 10/09 Q1017
                        NOSIG=
201101161850 METAR COR EGLL 161850Z 21010KT 9999 FEW009 BKN011 10/09 Q1017
                        NOSIG=
201101161820 METAR COR EGLL 161820Z 20011KT 9999 FEW008 BKN011 10/09 Q1017
                        NOSIG=
201101161750 METAR COR EGLL 161750Z 21010KT 8000 BKN008 10/09 Q1017 NOSIG=
201101161720 METAR COR EGLL 161720Z 21011KT 8000 BKN010 11/09 Q1016 NOSIG=
201101161650 METAR COR EGLL 161650Z 21011KT 6000 -RA BKN011 11/09 Q1016
                        NOSIG=
201101161620 METAR COR EGLL 161620Z 21011KT 9999 BKN012 11/08 Q1016 NOSIG=
201101161550 METAR EGLL 161550Z 21012KT 9000 OVC013 11/09 Q1016 NOSIG=
201101161520 METAR COR EGLL 161520Z 21013KT 9000 OVC013 11/09 Q1016 NOSIG=
201101161450 METAR COR EGLL 161450Z 21015G26KT 9000 -RA BKN015 11/08 Q1016
                        NOSIG=
201101161420 METAR COR EGLL 161420Z 21017G29KT 9999 BKN017 12/08 Q1016
                        NOSIG=
201101161350 METAR COR EGLL 161350Z 22013KT 190V250 9999 BKN018 12/08
                        Q1016 TEMPO 22015G25KT=
201101161320 METAR COR EGLL 161320Z 22015G26KT 9999 BKN018 12/08 Q1016
                        NOSIG=
201101161250 METAR EGLL 161250Z 21013KT 9999 FEW019 SCT027 12/08 Q1016=
201101161220 METAR COR EGLL 161220Z 21013KT 9999 SCT020 SCT032 12/08 Q1016
                        NOSIG=
201101161150 METAR COR EGLL 161150Z 21016G26KT 9999 FEW019 SCT022 12/08
                        Q1016 NOSIG=
201101161120 METAR COR EGLL 161120Z 22017G28KT 9999 SCT019 BKN023 12/08
                        Q1017 NOSIG=
201101161050 METAR COR EGLL 161050Z 21016KT 9999 FEW019 SCT025 12/08 Q1017
                        TEMPO 21017G28KT=
201101161020 METAR COR EGLL 161020Z 22016KT 9999 FEW019 SCT023 12/08 Q1017
                        TEMPO 22017G28KT=
201101160950 METAR COR EGLL 160950Z 21014KT 9999 FEW018 SCT024 12/08 Q1016
                        TEMPO 21015G25KT=
201101160920 METAR COR EGLL 160920Z 21013KT 9999 FEW018 SCT020 12/08 Q1017
                        NOSIG=
201101160850 METAR EGLL 160850Z 21011KT 9999 FEW017 BKN019 12/08 Q1017=
201101160820 METAR COR EGLL 160820Z 20011KT 9999 BKN019 12/08 Q1016 NOSIG=
201101160750 METAR COR EGLL 160750Z 21013KT 9999 SCT020 12/08 Q1016 TEMPO
                        21015G25KT=
201101160720 METAR COR EGLL 160720Z 22014KT 9999 FEW022 12/08 Q1016 NOSIG=
201101160650 METAR COR EGLL 160650Z 22014KT 9999 SCT019 12/09 Q1016 NOSIG=
201101160620 METAR COR EGLL 160620Z 22013KT 9999 BKN016 BKN025 12/09 Q1016
                        NOSIG=
201101160550 METAR COR EGLL 160550Z 23016KT 9999 BKN018 12/09 Q1016 NOSIG=
201101160520 METAR COR EGLL 160520Z 23016KT 9999 FEW014 BKN018 12/09 Q1015
                        NOSIG=
201101160450 METAR COR EGLL 160450Z 22013KT 9999 BKN017 12/09 Q1016 NOSIG=
201101160420 METAR COR EGLL 160420Z 22014KT 9999 FEW019 BKN032 12/08 Q1016
                        NOSIG=
201101160350 METAR COR EGLL 160350Z 23014KT 9999 FEW020 12/08 Q1016 NOSIG=
201101160320 METAR COR EGLL 160320Z 23014KT 9999 SCT019 12/08 Q1016 NOSIG=
201101160250 METAR COR EGLL 160250Z 23016KT 9999 -DZ FEW020 SCT039 BKN044
                        11/08 Q1016 NOSIG=
201101160220 METAR COR EGLL 160220Z 23015KT 9999 FEW016 SCT036 BKN042
                        11/08 Q1016 NOSIG=
201101160150 METAR COR EGLL 160150Z 20012KT 8000 -RA BKN012 BKN016 10/08
                        Q1016 BECMG SCT012=
201101160120 METAR COR EGLL 160120Z 21010KT 9999 FEW017 SCT020 BKN024
                        11/08 Q1016 NOSIG=
201101160050 METAR COR EGLL 160050Z 22010KT 9999 FEW024 BKN035 11/07 Q1016
                        NOSIG=
201101160020 METAR COR EGLL 160020Z 22013KT 9999 FEW026 BKN030 11/06 Q1016
                        NOSIG=
201101152350 METAR COR EGLL 152350Z 22012KT 9999 FEW026 SCT038 10/06 Q1016
                        NOSIG=
201101152320 METAR COR EGLL 152320Z 22011KT 9999 BKN038 10/06 Q1016 NOSIG=
201101152250 METAR COR EGLL 152250Z 22013KT 9999 BKN035 11/06 Q1016 NOSIG=
201101152220 METAR COR EGLL 152220Z 22014KT 9999 FEW026 BKN037 11/06 Q1017
                        NOSIG=
201101152150 METAR COR EGLL 152150Z 22014KT 9999 SCT023 SCT037 11/07 Q1016
                        NOSIG=
201101152120 METAR COR EGLL 152120Z 22013KT 9999 SCT022 BKN028 11/07 Q1016
                        NOSIG=
201101152050 METAR COR EGLL 152050Z 22013KT 9999 BKN020 11/07 Q1016 NOSIG=
201101152020 METAR COR EGLL 152020Z 22015KT 9999 BKN020 11/07 Q1016 NOSIG=
201101151950 METAR COR EGLL 151950Z 22015KT 9999 BKN020 11/07 Q1016 TEMPO
                        22018G28KT=
201101151920 METAR COR EGLL 151920Z 23016G26KT 9999 BKN018 11/07 Q1016
                        NOSIG=
201101151850 METAR COR EGLL 151850Z 22011KT 200V260 9999 BKN018 11/07
                        Q1016 TEMPO 22015G25KT=
201101151820 METAR COR EGLL 151820Z 23014KT 9999 BKN016 11/07 Q1016 TEMPO
                        23017G28KT=
201101151750 METAR COR EGLL 151750Z 22016G27KT 190V250 9999 BKN017 11/08
                        Q1015 NOSIG=
201101151720 METAR COR EGLL 151720Z 22012G22KT 9999 BKN018 11/08 Q1015
                        NOSIG=
201101151650 METAR COR EGLL 151650Z 22017G28KT 190V250 9999 BKN017 11/08
                        Q1015 NOSIG=
201101151620 METAR COR EGLL 151620Z 22014KT 9999 BKN018 11/08 Q1015 TEMPO
                        23017G28KT=
201101151550 METAR COR EGLL 151550Z 23014G25KT 9999 SCT019 BKN022 11/07
                        Q1015 NOSIG=
201101151520 METAR COR EGLL 151520Z 24014KT 9999 BKN019 BKN022 11/07 Q1015
                        TEMPO 23017G28KT=
201101151450 METAR EGLL 151450Z 23016G27KT 9999 BKN018 BKN022 11/07 Q1015=
201101151420 METAR COR EGLL 151420Z 23017KT 9999 SCT018 BKN023 11/07 Q1015
                        TEMPO 23020G32KT=
201101151350 METAR COR EGLL 151350Z 23018KT 9999 SCT018 BKN025 11/07 Q1015
                        TEMPO 23020G32KT=
201101151320 METAR COR EGLL 151320Z 24021G32KT 9999 SCT019 BKN030 11/07
                        Q1015 NOSIG=
201101151250 METAR COR EGLL 151250Z 23021G31KT 9999 SCT020 11/07 Q1015
                        NOSIG=
201101151220 METAR COR EGLL 151220Z 24020KT 9999 SCT020 BKN026 11/07 Q1015
                        NOSIG=
201101151150 METAR COR EGLL 151150Z 23022G33KT 9999 SCT020 BKN024 11/07
                        Q1015 NOSIG=
201101151120 METAR COR EGLL 151120Z 23019G30KT 9999 BKN019 11/07 Q1015
                        NOSIG=
201101151050 METAR COR EGLL 151050Z 23018KT 200V260 9999 BKN018 11/07
                        Q1015 TEMPO 23018G30KT=
201101151020 METAR COR EGLL 151020Z 23021G32KT 9999 BKN019 11/07 Q1015
                        NOSIG=
201101150950 METAR COR EGLL 150950Z 22016KT 9999 BKN020 11/07 Q1015 TEMPO
                        22017G28KT=
201101150920 METAR COR EGLL 150920Z 22015G27KT 9999 SCT019 BKN025 11/07
                        Q1014 NOSIG=
201101150850 METAR COR EGLL 150850Z 23019KT 9999 SCT018 BKN025 11/07 Q1015
                        TEMPO 23017G28KT=
201101150820 METAR COR EGLL 150820Z 23019KT 9999 BKN018 11/07 Q1015 TEMPO
                        23017G28KT=
201101150750 METAR COR EGLL 150750Z 23017KT 9999 BKN018 11/07 Q1014 TEMPO
                        23017G27KT=
201101150720 METAR COR EGLL 150720Z 21014KT 9999 FEW020 10/07 Q1013 TEMPO
                        21015G25KT=
201101150650 METAR EGLL 150650Z 22015KT 9999 FEW020 10/07 Q1013=
201101150620 METAR EGLL 150620Z 22017G28KT 9999 FEW019 10/07 Q1014=
201101150550 METAR COR EGLL 150550Z 22016KT 9999 FEW016 10/07 Q1014 TEMPO
                        22016G26KT=
201101150520 METAR COR EGLL 150520Z 22015KT 9999 FEW020 10/07 Q1014 TEMPO
                        22015G25KT=
201101150450 METAR COR EGLL 150450Z 23015KT 9999 SCT017 10/07 Q1015 TEMPO
                        23015G25KT=
201101150420 METAR EGLL 150420Z 22013KT 9999 FEW017 SCT022 10/07 Q1015=
201101150350 METAR COR EGLL 150350Z 22012KT 9999 FEW019 SCT023 10/07 Q1015
                        NOSIG=
201101150320 METAR EGLL 150320Z 22012KT 9999 FEW030 09/07 Q1015=
201101150250 METAR COR EGLL 150250Z 22008KT 9999 SCT024 09/07 Q1015 TEMPO
                        22008G18KT=
201101150220 METAR COR EGLL 150220Z 21008KT 9999 FEW022 08/06 Q1015 NOSIG=
201101150150 METAR COR EGLL 150150Z 22010KT 9999 FEW010 08/06 Q1015 NOSIG=
201101150120 METAR COR EGLL 150120Z 20008KT 9999 SCT010 08/06 Q1015 NOSIG=
201101150050 METAR COR EGLL 150050Z 21008KT CAVOK 07/06 Q1015 NOSIG=
201101150020 METAR COR EGLL 150020Z 21006KT CAVOK 07/05 Q1015 NOSIG=
201101142350 METAR COR EGLL 142350Z 22007KT CAVOK 08/06 Q1015 NOSIG=
201101142320 METAR COR EGLL 142320Z 23009KT CAVOK 08/06 Q1014 NOSIG=
201101142250 METAR COR EGLL 142250Z 23010KT CAVOK 08/06 Q1014 NOSIG=
201101142220 METAR COR EGLL 142220Z 23011KT 9999 FEW028 08/06 Q1014 NOSIG=
201101142150 METAR EGLL 142150Z 23011KT 9999 FEW044 09/06 Q1014=
201101142120 METAR COR EGLL 142120Z 23011KT 9999 FEW019 09/06 Q1014 NOSIG=
201101142050 METAR COR EGLL 142050Z 23011KT 9999 FEW025 09/06 Q1013 NOSIG=
201101142020 METAR EGLL 142020Z 23012KT CAVOK 09/06 Q1012=
201101141950 METAR EGLL 141950Z 23011KT 9999 FEW038 09/06 Q1012=
201101141920 METAR COR EGLL 141920Z 23010KT 9999 FEW025 09/07 Q1012 NOSIG=
201101141850 METAR COR EGLL 141850Z 23010KT 9999 SCT027 09/07 Q1012 NOSIG=
201101141820 METAR COR EGLL 141820Z 25011KT 9999 SCT030 09/07 Q1011 NOSIG=
201101141750 METAR COR EGLL 141750Z 24011KT 9999 FEW040 09/07 Q1010 NOSIG=
201101141720 METAR COR EGLL 141720Z 24011KT 9999 FEW041 09/07 Q1010 NOSIG=
201101141650 METAR COR EGLL 141650Z 24011KT 9999 FEW008 SCT020 10/08 Q1010
                        NOSIG=
201101141620 METAR COR EGLL 141620Z 24011KT 9999 VCSH SCT011CB SCT023
                        10/08 Q1009 NOSIG=
201101141550 METAR COR EGLL 141550Z 27012KT 9999 -RA VCTS SCT011 SCT018CB
                        09/07 Q1009 RETS RERA NOSIG=
201101141520 METAR COR EGLL 141520Z 27021G31KT 2000 R27R/1400 +TSRA FEW008
                        SCT021 BKN022CB 10/07 Q1009 BECMG
                        9999 NSW=
201101141450 METAR COR EGLL 141450Z 22011KT 9999 FEW019 SCT047 11/08 Q1008
                        NOSIG=
201101141420 METAR COR EGLL 141420Z 22012KT 190V250 9999 SCT013 BKN017
                        11/08 Q1008 NOSIG=
201101141350 METAR COR EGLL 141350Z 22011KT 9999 SCT013 BKN017 11/08 Q1008
                        NOSIG=
201101141320 METAR COR EGLL 141320Z 22013KT 190V250 9999 SCT015 SCT043
                        11/08 Q1008 NOSIG=
201101141250 METAR COR EGLL 141250Z 22011KT 9999 FEW015 SCT043 11/09 Q1008
                        NOSIG=
201101141220 METAR COR EGLL 141220Z 22013KT 9999 FEW010 SCT012 11/09 Q1009
                        NOSIG=
201101141150 METAR COR EGLL 141150Z 23011G23KT 190V260 9999 FEW010 SCT018
                        11/09 Q1009 NOSIG=
201101141120 METAR COR EGLL 141120Z 22011KT 190V250 9999 SCT011 BKN018
                        12/09 Q1008 TEMPO BKN012=
201101141050 METAR COR EGLL 141050Z 23012KT 9999 BKN011 12/10 Q1009 NOSIG=
201101141020 METAR COR EGLL 141020Z 23011KT 9999 BKN009 BKN015 12/10 Q1009
                        NOSIG=
201101140950 METAR COR EGLL 140950Z 23011KT 9999 FEW009 SCT012 11/10 Q1009
                        TEMPO BKN012=
201101140920 METAR COR EGLL 140920Z 22009KT 190V250 9999 -RA FEW008 BKN010
                        11/10 Q1009 NOSIG=
201101140850 METAR COR EGLL 140850Z 22010KT 9999 FEW008 BKN010 11/10 Q1009
                        TEMPO BKN008=
201101140820 METAR COR EGLL 140820Z 22009KT 9999 FEW009 BKN011 11/10 Q1009
                        NOSIG=
201101140750 METAR COR EGLL 140750Z 22009KT 9999 -RA FEW008 BKN010 11/10
                        Q1009 TEMPO BKN008=
201101140720 METAR COR EGLL 140720Z 22009KT 9999 -DZ FEW008 BKN011 11/10
                        Q1009 TEMPO DZ BKN009=
201101140650 METAR COR EGLL 140650Z 22012KT 9999 FEW010 BKN013 12/10 Q1009
                        NOSIG=
201101140620 METAR COR EGLL 140620Z 22010KT 9999 BKN013 12/10 Q1009 NOSIG=
201101140550 METAR COR EGLL 140550Z 24013KT 9999 BKN013 BKN020 12/09 Q1008
                        NOSIG=
201101140520 METAR COR EGLL 140520Z 24013KT 9999 BKN015 12/09 Q1008 TEMPO
                        BKN012=
201101140450 METAR EGLL 140450Z 24014KT 9999 BKN014 12/10 Q1008=
201101140420 METAR EGLL 140420Z 24013KT 9999 SCT013 BKN017 12/10 Q1008=
201101140350 METAR COR EGLL 140350Z 24012KT 9999 BKN015 12/10 Q1008 TEMPO
                        BKN012=
201101140320 METAR COR EGLL 140320Z 23012KT 9999 FEW008 BKN010 12/10 Q1008
                        NOSIG=
201101140250 METAR EGLL 140250Z 22014KT 9999 FEW008 BKN012 11/10 Q1008=
201101140220 METAR COR EGLL 140220Z 23016KT 7000 -RADZ FEW009 BKN012 12/10
                        Q1008 NOSIG=
201101140150 METAR COR EGLL 140150Z 23015KT 9999 BKN012 12/10 Q1008 TEMPO
                        BKN009=
201101140120 METAR COR EGLL 140120Z 22012KT 9999 FEW009 BKN012 12/10 Q1008
                        TEMPO BKN009=
201101140050 METAR COR EGLL 140050Z 23018KT 9999 BKN012 12/10 Q1008 TEMPO
                        BKN009=
201101140020 METAR COR EGLL 140020Z 23015KT 9999 BKN010 BKN012 12/10 Q1008
                        TEMPO BKN009=
201101132350 METAR COR EGLL 132350Z 23015KT 9999 BKN010 12/10 Q1009 TEMPO
                        BKN009=
201101132320 METAR COR EGLL 132320Z 23015KT 8000 SCT008 BKN011 12/10 Q1009
                        TEMPO BKN009=
201101132250 METAR COR EGLL 132250Z 23015KT 9999 FEW008 BKN010 12/10 Q1009
                        TEMPO BKN009=
201101132220 METAR EGLL 132220Z 23013KT 9999 SCT008 BKN010 12/10 Q1009=
201101132150 METAR COR EGLL 132150Z 22013KT 9999 SCT008 BKN010 12/10 Q1009
                        TEMPO BKN009=
201101132120 METAR COR EGLL 132120Z 22012KT 9999 FEW006 BKN009 12/10 Q1009
                        TEMPO DZ BKN011=
201101132050 METAR COR EGLL 132050Z 22011KT 9999 -DZ SCT007 BKN009 12/11
                        Q1009 TEMPO DZ BKN011=
201101132020 METAR COR EGLL 132020Z 22011KT 9999 BKN007 12/10 Q1009 TEMPO
                        BKN011=
201101131950 METAR COR EGLL 131950Z 22009KT 9999 SCT006 BKN008 11/10 Q1009
                        REDZ TEMPO BKN011=
201101131920 METAR COR EGLL 131920Z 22009KT 180V250 9999 SCT006 BKN011
                        11/10 Q1010 TEMPO BKN008=
201101131850 METAR COR EGLL 131850Z 22008KT 5000 BR SCT005 BKN009 11/10
                        Q1010 NOSIG=
201101131820 METAR COR EGLL 131820Z 21008KT 180V250 8000 -DZ FEW006 SCT008
                        BKN011 11/10 Q1010 TEMPO BKN008=
201101131750 METAR COR EGLL 131750Z 22008KT 200V270 5000 -DZ FEW006 BKN007
                        12/10 Q1010 RERA NOSIG=
201101131720 METAR COR EGLL 131720Z 22008KT 190V250 5000 -DZ FEW006 BKN007
                        12/10 Q1010 NOSIG=
201101131650 METAR COR EGLL 131650Z 21009KT 9999 BKN008 12/10 Q1010 NOSIG=
201101131620 METAR COR EGLL 131620Z 21009KT 9999 SCT008 BKN010 12/11 Q1010
                        TEMPO BKN008=
201101131550 METAR COR EGLL 131550Z 23011KT 9999 FEW008 BKN010 13/11 Q1010
                        NOSIG=
201101131520 METAR COR EGLL 131520Z 23011KT 9999 FEW008 BKN010 13/11 Q1010
                        TEMPO BKN008=
201101131450 METAR COR EGLL 131450Z 24013KT 9999 SCT009 BKN011 13/11 Q1010
                        NOSIG=
201101131420 METAR COR EGLL 131420Z 23014KT 9000 BKN009 13/11 Q1010 NOSIG=
201101131350 METAR COR EGLL 131350Z 24012KT 9999 -RA BKN009 13/11 Q1010
                        NOSIG=
201101131320 METAR COR EGLL 131320Z 24012KT 9999 BKN016 13/11 Q1010 BECMG
                        BKN012=
201101131250 METAR COR EGLL 131250Z 24013KT 9999 SCT011 BKN019 13/11 Q1010
                        BECMG BKN011=
201101131220 METAR COR EGLL 131220Z 24013KT 9999 SCT012 BKN016 13/11 Q1010
                        TEMPO BKN012=
201101131150 METAR COR EGLL 131150Z 24012KT 9999 BKN010 BKN020 14/11 Q1010
                        NOSIG=
201101131120 METAR COR EGLL 131120Z 24013KT 9999 FEW008 BKN018 13/11 Q1010
                        BECMG BKN012=
201101131050 METAR EGLL 131050Z 24013KT 9999 BKN011 13/11 Q1010=
201101131020 METAR COR EGLL 131020Z 24014KT 9999 BKN011 13/11 Q1010 NOSIG=
201101130950 METAR COR EGLL 130950Z 24014KT 9999 BKN013 13/11 Q1010 NOSIG=
201101130920 METAR COR EGLL 130920Z 24014KT 9999 BKN011 13/11 Q1010 NOSIG=
201101130850 METAR COR EGLL 130850Z 24014KT 9999 BKN015 13/11 Q1010 BECMG
                        BKN012=
201101130820 METAR EGLL 130820Z 24013KT 9999 BKN014 13/11 Q1009 NOSIG=
201101130750 METAR COR EGLL 130750Z 24015KT 9999 BKN014 BKN038 13/11 Q1009
                        TEMPO SCT014=
201101130720 METAR COR EGLL 130720Z 23015KT 9999 BKN014 13/11 Q1009 NOSIG=
201101130650 METAR COR EGLL 130650Z 24014KT 9999 BKN013 13/11 Q1008 NOSIG=
201101130620 METAR COR EGLL 130620Z 23014KT 9999 FEW009 BKN013 13/11 Q1008
                        TEMPO FEW013=
201101130550 METAR COR EGLL 130550Z 23014KT 9999 FEW009 BKN012 12/11 Q1008
                        NOSIG=
201101130520 METAR COR EGLL 130520Z 23013KT 9999 FEW008 BKN011 12/11 Q1008
                        NOSIG=
201101130450 METAR COR EGLL 130450Z 23014KT 9999 FEW008 BKN010 12/11 Q1008
                        NOSIG=
201101130420 METAR COR EGLL 130420Z 23013KT 9999 FEW007 BKN011 12/11 Q1008
                        NOSIG=
201101130350 METAR COR EGLL 130350Z 23014KT 9999 SCT009 BKN011 12/11 Q1009
                        NOSIG=
201101130320 METAR COR EGLL 130320Z 23014KT 9999 BKN011 12/11 Q1009 NOSIG=
201101130250 METAR COR EGLL 130250Z 23013KT 9999 FEW009 BKN011 12/10 Q1009
                        NOSIG=
201101130220 METAR COR EGLL 130220Z 23014KT 9999 BKN011 12/10 Q1009 NOSIG=
201101130150 METAR COR EGLL 130150Z 23013KT 9999 BKN011 12/10 Q1009 NOSIG=
201101130120 METAR COR EGLL 130120Z 23011KT 9999 BKN011 12/10 Q1009 NOSIG=
201101130050 METAR COR EGLL 130050Z 23012KT 9999 BKN010 12/10 Q1009 NOSIG=
201101130020 METAR COR EGLL 130020Z 23012KT 9999 -RA FEW008 BKN010 12/10
                        Q1010 NOSIG=
201101122350 METAR COR EGLL 122350Z 23012KT 9999 BKN010 12/10 Q1010 NOSIG=
201101122320 METAR COR EGLL 122320Z 23011KT 9999 FEW007 BKN010 12/10 Q1010
                        NOSIG=
201101122250 METAR COR EGLL 122250Z 22011KT 9999 FEW008 BKN010 12/10 Q1010
                        NOSIG=
201101122220 METAR COR EGLL 122220Z 23011KT 9999 FEW008 BKN010 12/10 Q1010
                        NOSIG=
201101122150 METAR COR EGLL 122150Z 23011KT 9999 SCT009 BKN012 12/10 Q1010
                        NOSIG=
201101122120 METAR COR EGLL 122120Z 23011KT 9999 BKN010 BKN013 12/10 Q1010
                        NOSIG=
201101122050 METAR COR EGLL 122050Z 23013KT 9999 FEW009 BKN012 12/10 Q1010
                        TEMPO FEW012=
201101122020 METAR COR EGLL 122020Z 24012KT 9999 SCT012 SCT015 12/10 Q1010
                        BECMG BKN012=
201101121950 METAR COR EGLL 121950Z 24011KT 9999 FEW008 BKN010 12/11 Q1009
                        NOSIG=
201101121920 METAR COR EGLL 121920Z 24012KT 9999 FEW009 BKN011 12/11 Q1009
                        NOSIG=
201101121850 METAR COR EGLL 121850Z 25013KT 9999 BKN011 12/10 Q1009 NOSIG=
201101121820 METAR COR EGLL 121820Z 24013KT 9999 BKN011 12/10 Q1009 NOSIG=
201101121750 METAR COR EGLL 121750Z 23013KT 9999 FEW008 BKN012 12/10 Q1009
                        NOSIG=
201101121720 METAR COR EGLL 121720Z 23012KT 9999 FEW009 BKN011 12/10 Q1009
                        NOSIG=
201101121650 METAR EGLL 121650Z 23012KT 9999 -RA BKN011 12/10 Q1009=
201101121620 METAR COR EGLL 121620Z 23010KT 9999 FEW009 BKN012 12/10 Q1009
                        NOSIG=
201101121550 METAR EGLL 121550Z 23011KT 9999 FEW009 BKN012 12/10 Q1009=
201101121520 METAR COR EGLL 121520Z 23011KT 9999 -RA BKN010 12/11 Q1009
                        TEMPO RA BKN009=
201101121450 METAR COR EGLL 121450Z 23012KT 9999 -RA BKN010 12/11 Q1009
                        TEMPO RA BKN009=
201101121420 METAR COR EGLL 121420Z 23011KT 9999 -RA FEW008 OVC010 12/11
                        Q1009 TEMPO BKN008=
201101121350 METAR COR EGLL 121350Z 24011KT 9999 -RA SCT011 SCT015 13/11
                        Q1009 TEMPO 4000 RADZ BKN006=
201101121320 METAR COR EGLL 121320Z 24013KT 9999 FEW009 BKN011 12/10 Q1009
                        TEMPO 4000 RADZ BKN006=
201101121250 METAR COR EGLL 121250Z 25013KT 9999 BKN011 12/10 Q1009 TEMPO
                        4000 RADZ BKN006=
201101121220 METAR COR EGLL 121220Z 25014KT 9999 BKN012 13/10 Q1009 NOSIG=
201101121150 METAR EGLL 121150Z 25013KT 9999 BKN011 12/10 Q1010=
201101121120 METAR COR EGLL 121120Z 24014KT 9999 BKN010 12/10 Q1010 TEMPO
                        BKN007=
201101121050 METAR COR EGLL 121050Z 24012KT 9999 OVC009 12/10 Q1010 NOSIG=
201101121020 METAR COR EGLL 121020Z 22010G20KT 190V250 9999 FEW008 BKN012
                        11/10 Q1009 TEMPO BKN007=
201101120950 METAR EGLL 120950Z 22008KT 190V260 9000 FEW004 BKN010 10/09
                        Q1009=
201101120920 METAR COR EGLL 120920Z 21008KT 180V250 6000 SCT003 BKN007
                        09/08 Q1009 TEMPO RA=
201101120850 METAR COR EGLL 120850Z 21009KT 190V260 3500 BR FEW002 BKN003
                        09/08 Q1010 TEMPO 6000 -DZ BKN007=
201101120820 METAR COR EGLL 120820Z 21008KT 2500 BR BKN003 08/07 Q1010
                        TEMPO 6000 RA BKN007=
201101120750 METAR COR EGLL 120750Z 20009KT 180V240 9999 FEW005 BKN007
                        08/06 Q1010 NOSIG=
201101120720 METAR COR EGLL 120720Z 21007KT 9999 -RA BKN007 07/06 Q1010
                        RERA NOSIG=
201101120650 METAR COR EGLL 120650Z 20008KT 9999 RA BKN007 07/06 Q1010
                        NOSIG=
201101120620 METAR COR EGLL 120620Z 21009KT 9999 RA BKN008 07/05 Q1011
                        NOSIG=
201101120550 METAR COR EGLL 120550Z 20009KT 9999 RA BKN007 06/05 Q1011
                        NOSIG=
201101120520 METAR COR EGLL 120520Z 20012G23KT 180V240 9999 -RA BKN007
                        06/05 Q1011 TEMPO RA=
201101120450 METAR COR EGLL 120450Z 19010KT 9999 -RA BKN007 BKN035 05/04
                        Q1012 RERA TEMPO RA=
201101120420 METAR COR EGLL 120420Z 18007KT 8000 RA SCT011 BKN033 05/03
                        Q1013 BECMG BKN010=
201101120350 METAR COR EGLL 120350Z 17008KT 8000 RA BKN039 04/03 Q1013
                        BECMG BKN010=
201101120320 METAR COR EGLL 120320Z 18007KT 9000 -RA BKN034 04/03 Q1014
                        BECMG BKN010=
201101120250 METAR COR EGLL 120250Z 19007KT 9000 -RA SCT046 04/02 Q1015
                        BECMG BKN010=
201101120220 METAR COR EGLL 120220Z 20006KT 9999 -RA SCT047 04/02 Q1016
                        TEMPO RA=
201101120150 METAR COR EGLL 120150Z 20004KT 9999 -RA SCT034 04/01 Q1016
                        BECMG BKN010=
201101120120 METAR COR EGLL 120120Z 20005KT CAVOK 04/01 Q1016 NOSIG=
201101120050 METAR COR EGLL 120050Z 21005KT CAVOK 04/01 Q1016 NOSIG=
201101120020 METAR COR EGLL 120020Z 20005KT CAVOK 04/01 Q1016 NOSIG=
201101112350 METAR COR EGLL 112350Z 20005KT CAVOK 04/01 Q1016 NOSIG=
201101112320 METAR COR EGLL 112320Z 21004KT CAVOK 03/01 Q1016 NOSIG=
201101112250 METAR COR EGLL 112250Z 23007KT CAVOK 04/01 Q1016 NOSIG=
201101112220 METAR COR EGLL 112220Z 22007KT CAVOK 04/01 Q1017 NOSIG=
201101112150 METAR COR EGLL 112150Z 24006KT CAVOK 04/01 Q1017 NOSIG=
201101112120 METAR COR EGLL 112120Z 25006KT CAVOK 04/01 Q1017 NOSIG=
201101112050 METAR COR EGLL 112050Z 25005KT CAVOK 04/01 Q1016 NOSIG=
201101112020 METAR COR EGLL 112020Z 25005KT CAVOK 03/00 Q1016 NOSIG=
201101111950 METAR COR EGLL 111950Z 27005KT 240V300 9999 SCT028 04/M00
                        Q1016 NOSIG=
201101111920 METAR COR EGLL 111920Z 30004KT 9999 SCT029 05/00 Q1016 NOSIG=
201101111850 METAR COR EGLL 111850Z 29006KT 9999 SCT033 05/00 Q1015 NOSIG=
201101111820 METAR COR EGLL 111820Z 29007KT 9999 BKN033 06/01 Q1015 NOSIG=
201101111750 METAR COR EGLL 111750Z 28009KT 9999 BKN033 06/01 Q1014 NOSIG=
201101111720 METAR COR EGLL 111720Z 28008KT 9999 BKN032 06/01 Q1013 NOSIG=
201101111650 METAR COR EGLL 111650Z 30008KT 9999 BKN030 06/01 Q1013 NOSIG=
201101111620 METAR COR EGLL 111620Z 30005KT 9999 BKN029 06/01 Q1012 NOSIG=
201101111550 METAR COR EGLL 111550Z 31010KT 9999 BKN027 06/01 Q1011 NOSIG=
201101111520 METAR COR EGLL 111520Z 32011KT 9999 BKN023 06/01 Q1010 NOSIG=
201101111450 METAR COR EGLL 111450Z 33012KT 9999 BKN021 06/02 Q1009 NOSIG=
201101111420 METAR COR EGLL 111420Z 33011KT 290V350 9999 BKN021 07/02
                        Q1008 NOSIG=
201101111350 METAR COR EGLL 111350Z 32012KT 9999 FEW025 BKN030 07/02 Q1007
                        NOSIG=
201101111320 METAR COR EGLL 111320Z 31010KT 290V350 9999 BKN025 07/03
                        Q1006 NOSIG=
201101111250 METAR COR EGLL 111250Z 30013KT 9999 BKN026 08/03 Q1006 NOSIG=
201101111220 METAR COR EGLL 111220Z 30010KT 9999 BKN025 08/03 Q1005 NOSIG=
201101111150 METAR COR EGLL 111150Z 31013KT 280V340 9999 BKN023 07/03
                        Q1004 NOSIG=
201101111120 METAR COR EGLL 111120Z 30012KT 9999 FEW015 BKN021 07/03 Q1004
                        NOSIG=
201101111050 METAR EGLL 111050Z 32012KT 9999 FEW019 BKN022 08/04 Q1003=
201101111020 METAR COR EGLL 111020Z 31015KT 9999 VCSH FEW008 BKN013 08/06
                        Q1002 BECMG SCT013=
201101110950 METAR EGLL 110950Z 28010KT 9999 FEW008 SCT013 BKN017 08/06
                        Q1001=
201101110920 METAR COR EGLL 110920Z 27009KT 9000 FEW008 BKN012 07/06 Q1001
                        BECMG SCT012=
201101110850 METAR COR EGLL 110850Z 26008KT 9999 FEW008 BKN012 07/06 Q1000
                        BECMG SCT012=
201101110820 METAR COR EGLL 110820Z 25009KT 9999 FEW006 BKN011 06/05 Q0999
                        BECMG SCT011=
201101110750 METAR EGLL 110750Z 25007KT 220V280 7000 FEW006 BKN012 05/04
                        Q0999=
201101110720 METAR COR EGLL 110720Z 27005KT 240V300 9000 SCT010 BKN014
                        05/05 Q0998 NOSIG=
201101110650 METAR COR EGLL 110650Z 27005KT 240V300 8000 FEW003 SCT007
                        BKN011 05/05 Q0998 NOSIG=
201101110620 METAR COR EGLL 110620Z 25005KT 210V280 9999 FEW003 BKN011
                        05/04 Q0998 TEMPO BKN008=
201101110550 METAR COR EGLL 110550Z 31002KT 9999 FEW005 SCT008 BKN012
                        05/04 Q0997 NOSIG=
201101110520 METAR COR EGLL 110520Z 00000KT 9000 FEW005 BKN011 05/04 Q0997
                        TEMPO BKN008=
201101110450 METAR EGLL 110450Z 03004KT 310V100 9999 FEW004 SCT007 BKN010
                        05/04 Q0997=
201101110420 METAR COR EGLL 110420Z 08004KT 7000 -RA BKN007 BKN010 05/04
                        Q0997 RERA NOSIG=
201101110350 METAR COR EGLL 110350Z 09006KT 9000 -RA FEW004 BKN008 06/04
                        Q0997 NOSIG=
201101110320 METAR COR EGLL 110320Z 11007KT 9999 -RA SCT006 BKN010 06/04
                        Q0998 NOSIG=
201101110250 METAR COR EGLL 110250Z 14007KT 9999 -RA BKN010 BKN018 06/04
                        Q0998 NOSIG=
201101110220 METAR COR EGLL 110220Z 15008KT 9000 -RA BKN008 BKN018 06/04
                        Q0999 TEMPO 4500 RA=
201101110150 METAR COR EGLL 110150Z 15009KT 9000 -RA BKN009 BKN016 06/04
                        Q0999 TEMPO 4500 RA=
201101110120 METAR COR EGLL 110120Z 17010KT 9000 -RA BKN012 06/04 Q0999
                        TEMPO 4000 RA BKN008=
201101110050 METAR COR EGLL 110050Z 17012KT 9999 -RA BKN009 BKN015 06/04
                        Q1000 NOSIG=
201101110020 METAR COR EGLL 110020Z 16013KT 9999 -DZ BKN012 BKN018 06/04
                        Q1001 TEMPO RA BKN008=
201101102350 METAR COR EGLL 102350Z 17014KT 9999 -DZ BKN012 BKN016 06/04
                        Q1001 TEMPO 4500 RA BKN008=
201101102320 METAR COR EGLL 102320Z 16014KT 9999 -DZ BKN010 06/04 Q1002
                        TEMPO 4000 RA=
201101102250 METAR COR EGLL 102250Z 17013KT 7000 -DZ BKN011 BKN017 06/04
                        Q1002 TEMPO 4000 RA BKN008=
201101102220 METAR COR EGLL 102220Z 16015KT 5000 -DZ BKN011 06/04 Q1003
                        NOSIG=
201101102150 METAR COR EGLL 102150Z 17015KT 5000 -DZ FEW009 SCT011 BKN015
                        06/04 Q1004 TEMPO RA BKN012=
201101102120 METAR COR EGLL 102120Z 16016KT 9999 -RA SCT014 BKN019 06/04
                        Q1004 RERA TEMPO RA BKN012=
201101102050 METAR COR EGLL 102050Z 16015KT 9999 RA FEW016 BKN020 06/04
                        Q1005 TEMPO BKN012=
201101102020 METAR COR EGLL 102020Z 17014KT 9999 -RA FEW018 BKN020 07/04
                        Q1005 NOSIG=
201101101950 METAR COR EGLL 101950Z 17016KT 9999 -RA FEW022 BKN025 07/04
                        Q1006 NOSIG=
201101101920 METAR COR EGLL 101920Z 18015KT 140V200 9999 BKN025 08/03
                        Q1006 NOSIG=
201101101850 METAR COR EGLL 101850Z 17015KT 9999 FEW026 BKN035 07/03 Q1007
                        NOSIG=
201101101820 METAR COR EGLL 101820Z 18015KT 9999 FEW024 BKN038 07/03 Q1007
                        NOSIG=
201101101750 METAR COR EGLL 101750Z 17015KT 9999 SCT032 BKN042 07/03 Q1008
                        NOSIG=
201101101720 METAR COR EGLL 101720Z 17013KT 9999 FEW028 BKN034 07/04 Q1008
                        TEMPO 18017G28KT=
201101101650 METAR COR EGLL 101650Z 17013KT 9999 SCT020 SCT040 07/04 Q1009
                        TEMPO 19015G25KT=
201101101620 METAR COR EGLL 101620Z 17012KT 9999 FEW019 SCT023 07/04 Q1009
                        BECMG 19015G25KT=
201101101550 METAR COR EGLL 101550Z 18012KT 9999 FEW019 07/04 Q1009 BECMG
                        19015G25KT=
201101101520 METAR COR EGLL 101520Z 19012KT 9999 FEW018 SCT020 07/04 Q1010
                        BECMG 19015G25KT=
201101101450 METAR COR EGLL 101450Z 19014KT 160V230 9999 FEW018 SCT023
                        08/05 Q1010 BECMG 19015G25KT=
201101101420 METAR COR EGLL 101420Z 19014KT 9999 FEW018 SCT023 08/04 Q1010
                        TEMPO 19015G25KT=
201101101350 METAR COR EGLL 101350Z 19013KT 160V230 9999 FEW018 SCT022
                        08/05 Q1011 NOSIG=
201101101320 METAR COR EGLL 101320Z 19014KT 160V230 9999 FEW018 BKN023
                        08/05 Q1011 NOSIG=
201101101250 METAR COR EGLL 101250Z 19014KT 160V230 9999 BKN016 08/05
                        Q1012 NOSIG=
201101101220 METAR COR EGLL 101220Z 19013KT 160V230 9999 SCT018 08/05
                        Q1013 NOSIG=
201101101150 METAR COR EGLL 101150Z 19013KT 160V240 9999 FEW010 BKN015
                        07/05 Q1013 TEMPO 18015G25KT BKN010=
201101101120 METAR COR EGLL 101120Z 19012KT 170V230 9999 SCT011 BKN014
                        07/05 Q1013 TEMPO 18015G25KT=
201101101050 METAR COR EGLL 101050Z 19010KT 160V240 9999 SCT010 BKN015
                        07/05 Q1014 TEMPO 18015G25KT BKN010=
201101101020 METAR COR EGLL 101020Z 19010KT 160V240 9999 SCT010 BKN017
                        06/04 Q1014 TEMPO 18015G25KT BKN010=
201101100950 METAR COR EGLL 100950Z 17008KT 150V230 9999 SCT011 05/03
                        Q1014 TEMPO 18015G25KT BKN010=
201101100920 METAR COR EGLL 100920Z 17008KT 140V240 CAVOK 05/03 Q1015
                        NOSIG=
201101100850 METAR COR EGLL 100850Z 18007KT 140V240 CAVOK 04/02 Q1015
                        NOSIG=
201101100820 METAR COR EGLL 100820Z 18006KT 160V230 CAVOK 03/02 Q1015
                        NOSIG=
201101100750 METAR COR EGLL 100750Z 17007KT 130V220 9000 NSC 02/01 Q1015
                        NOSIG=
201101100720 METAR COR EGLL 100720Z 16007KT 130V200 9000 NSC 02/01 Q1015
                        NOSIG=
201101100650 METAR COR EGLL 100650Z 16006KT 120V200 9000 NSC 01/00 Q1015
                        NOSIG=
201101100620 METAR COR EGLL 100620Z 15006KT 100V220 9000 NSC 00/M00 Q1015
                        NOSIG=
201101100550 METAR COR EGLL 100550Z 16005KT 9000 NSC M00/M01 Q1016 NOSIG=
201101100520 METAR COR EGLL 100520Z 17005KT 9000 NSC 00/M01 Q1016 NOSIG=
201101100450 METAR COR EGLL 100450Z 16007KT CAVOK 00/M01 Q1016 NOSIG=
201101100420 METAR COR EGLL 100420Z 16004KT CAVOK 00/M01 Q1017 NOSIG=
201101100350 METAR COR EGLL 100350Z 16005KT CAVOK M00/M01 Q1017 NOSIG=
201101100320 METAR COR EGLL 100320Z 14003KT CAVOK M01/M02 Q1017 NOSIG=
201101100250 METAR COR EGLL 100250Z 14004KT CAVOK M01/M02 Q1017 NOSIG=
201101100220 METAR COR EGLL 100220Z 17003KT CAVOK M01/M02 Q1018 NOSIG=
201101100150 METAR COR EGLL 100150Z 16003KT CAVOK M00/M01 Q1018 NOSIG=
201101100120 METAR COR EGLL 100120Z 13002KT CAVOK M01/M02 Q1018 NOSIG=
201101100050 METAR COR EGLL 100050Z 20002KT CAVOK M00/M01 Q1018 NOSIG=
201101100020 METAR COR EGLL 100020Z 20004KT CAVOK M01/M02 Q1018 NOSIG=
201101092350 METAR COR EGLL 092350Z 19003KT CAVOK 00/M02 Q1018 NOSIG=
201101092320 METAR COR EGLL 092320Z 20004KT 160V250 CAVOK 02/M01 Q1018
                        NOSIG=
201101092250 METAR COR EGLL 092250Z 20004KT 150V250 CAVOK 01/M02 Q1018
                        NOSIG=
201101092220 METAR COR EGLL 092220Z 22006KT 170V270 CAVOK 02/M01 Q1018
                        NOSIG=
201101092150 METAR COR EGLL 092150Z 24009KT 190V270 CAVOK 02/M01 Q1018
                        NOSIG=
201101092120 METAR COR EGLL 092120Z 23008KT CAVOK 02/M01 Q1018 NOSIG=
201101092050 METAR COR EGLL 092050Z 22007KT 180V260 CAVOK 02/M01 Q1018
                        NOSIG=
201101092020 METAR COR EGLL 092020Z 23009KT CAVOK 02/M01 Q1017 NOSIG=
201101091950 METAR COR EGLL 091950Z 22008KT CAVOK 02/M01 Q1017 NOSIG=
201101091920 METAR COR EGLL 091920Z 22007KT 180V260 CAVOK 03/M00 Q1017
                        NOSIG=
201101091850 METAR COR EGLL 091850Z 23006KT 200V270 CAVOK 02/M01 Q1017
                        NOSIG=
201101091820 METAR COR EGLL 091820Z 23006KT CAVOK 04/M00 Q1016 NOSIG=
201101091750 METAR COR EGLL 091750Z 23007KT 200V260 CAVOK 04/M00 Q1016
                        NOSIG=
201101091720 METAR COR EGLL 091720Z 22007KT 200V270 CAVOK 04/M00 Q1016
                        NOSIG=
201101091650 METAR COR EGLL 091650Z 26008KT CAVOK 04/M01 Q1015 NOSIG=
201101091620 METAR COR EGLL 091620Z 28009KT CAVOK 04/M00 Q1015 NOSIG=
201101091550 METAR COR EGLL 091550Z 27010KT CAVOK 06/M00 Q1015 NOSIG=
201101091520 METAR COR EGLL 091520Z 27010KT CAVOK 06/M00 Q1014 NOSIG=
201101091450 METAR COR EGLL 091450Z 28009KT CAVOK 06/00 Q1014 NOSIG=
201101091420 METAR COR EGLL 091420Z 28011KT CAVOK 07/M00 Q1013 NOSIG=
201101091350 METAR COR EGLL 091350Z 25009KT CAVOK 07/00 Q1013 NOSIG=
201101091320 METAR COR EGLL 091320Z 26008KT 230V300 CAVOK 07/00 Q1013
                        NOSIG=
201101091250 METAR COR EGLL 091250Z 27009KT CAVOK 06/01 Q1012 NOSIG=
201101091220 METAR COR EGLL 091220Z 27011KT CAVOK 06/01 Q1012 NOSIG=
201101091150 METAR COR EGLL 091150Z 27011KT CAVOK 05/00 Q1012 NOSIG=
201101091120 METAR COR EGLL 091120Z 27011KT CAVOK 05/00 Q1012 NOSIG=
201101091050 METAR COR EGLL 091050Z 27010KT CAVOK 04/01 Q1012 NOSIG=
201101091020 METAR COR EGLL 091020Z 27009KT CAVOK 04/00 Q1011 NOSIG=
201101090950 METAR COR EGLL 090950Z 27007KT CAVOK 03/00 Q1011 NOSIG=
201101090920 METAR COR EGLL 090920Z 24008KT CAVOK 02/M00 Q1010 NOSIG=
201101090850 METAR COR EGLL 090850Z 22007KT CAVOK 01/M01 Q1010 NOSIG=
201101090820 METAR COR EGLL 090820Z 23006KT 190V260 CAVOK 01/M01 Q1009
                        NOSIG=
201101090750 METAR COR EGLL 090750Z 25008KT CAVOK 01/M01 Q1009 NOSIG=
201101090720 METAR COR EGLL 090720Z 24008KT CAVOK 02/M00 Q1008 NOSIG=
201101090650 METAR COR EGLL 090650Z 22007KT CAVOK 02/00 Q1008 NOSIG=
201101090620 METAR COR EGLL 090620Z 23010KT CAVOK 03/00 Q1007 NOSIG=
201101090550 METAR COR EGLL 090550Z 26010KT CAVOK 03/00 Q1007 NOSIG=
201101090520 METAR COR EGLL 090520Z 26010KT CAVOK 03/01 Q1007 NOSIG=
201101090450 METAR COR EGLL 090450Z 26009KT CAVOK 03/00 Q1006 NOSIG=
201101090420 METAR COR EGLL 090420Z 25009KT CAVOK 03/01 Q1006 NOSIG=
201101090350 METAR COR EGLL 090350Z 25007KT CAVOK 03/00 Q1006 NOSIG=
201101090320 METAR COR EGLL 090320Z 23009KT CAVOK 02/00 Q1005 NOSIG=
201101090250 METAR COR EGLL 090250Z 22009KT CAVOK 02/M00 Q1005 NOSIG=
201101090220 METAR COR EGLL 090220Z 23010KT CAVOK 02/M00 Q1005 NOSIG=
201101090150 METAR COR EGLL 090150Z 23010KT CAVOK 02/M01 Q1004 NOSIG=
201101090120 METAR COR EGLL 090120Z 24009KT CAVOK 01/M01 Q1004 NOSIG=
201101090050 METAR EGLL 090050Z 21007KT CAVOK 01/M01 Q1004=
201101090020 METAR COR EGLL 090020Z 21008KT CAVOK 01/M01 Q1004 NOSIG=
201101082350 METAR COR EGLL 082350Z 22007KT CAVOK 01/M01 Q1004 NOSIG=
201101082320 METAR COR EGLL 082320Z 21007KT CAVOK 02/M01 Q1004 NOSIG=
201101082250 METAR COR EGLL 082250Z 21007KT 180V270 CAVOK 01/M01 Q1004
                        NOSIG=
201101082220 METAR COR EGLL 082220Z 21007G18KT 180V250 CAVOK 02/M01 Q1004
                        NOSIG=
201101082150 METAR COR EGLL 082150Z 22008KT 190V260 CAVOK 02/M01 Q1004
                        NOSIG=
201101082120 METAR COR EGLL 082120Z 23009KT 190V260 CAVOK 02/M01 Q1004
                        NOSIG=
201101082050 METAR COR EGLL 082050Z 22009KT CAVOK 02/M00 Q1004 NOSIG=
201101082020 METAR COR EGLL 082020Z 22009KT CAVOK 02/M00 Q1004 NOSIG=
201101081950 METAR COR EGLL 081950Z 22007KT 190V250 CAVOK 02/M00 Q1004
                        NOSIG=
201101081920 METAR COR EGLL 081920Z 22008KT 180V250 CAVOK 03/M00 Q1003
                        NOSIG=
201101081850 METAR COR EGLL 081850Z 24010KT CAVOK 03/M00 Q1003 NOSIG=
201101081820 METAR COR EGLL 081820Z 24009KT CAVOK 03/M01 Q1003 NOSIG=
201101081750 METAR COR EGLL 081750Z 23009KT CAVOK 03/M01 Q1003 NOSIG=
201101081720 METAR COR EGLL 081720Z 25009KT CAVOK 04/M01 Q1003 NOSIG=
201101081650 METAR COR EGLL 081650Z 27014KT CAVOK 04/M01 Q1002 NOSIG=
201101081620 METAR COR EGLL 081620Z 26011KT CAVOK 04/00 Q1002 NOSIG=
201101081550 METAR COR EGLL 081550Z 28010KT 9999 FEW027 05/01 Q1001 NOSIG=
201101081520 METAR COR EGLL 081520Z 27012KT 9999 FEW031 06/01 Q1001 NOSIG=
201101081450 METAR COR EGLL 081450Z 28010KT 9999 FEW031 07/01 Q1000 NOSIG=
201101081420 METAR COR EGLL 081420Z 27011KT 9999 FEW030 06/02 Q1000 NOSIG=
201101081350 METAR COR EGLL 081350Z 29011KT 9999 FEW024 SCT034 07/02 Q0999
                        NOSIG=
201101081320 METAR COR EGLL 081320Z 28012KT 9999 BKN029 07/02 Q0999 NOSIG=
201101081250 METAR EGLL 081250Z 27015KT 9999 BKN023 07/03 Q0999=
201101081220 METAR COR EGLL 081220Z 28018KT 9999 FEW015 BKN025 07/03 Q0998
                        NOSIG=
201101081150 METAR COR EGLL 081150Z 26017KT 9999 SCT018 BKN025 08/05 Q0997
                        NOSIG=
201101081120 METAR COR EGLL 081120Z 26014KT 9999 SCT017 SCT029 09/06 Q0996
                        NOSIG=
201101081050 METAR COR EGLL 081050Z 25018KT 9999 FEW018 BKN043 09/06 Q0995
                        NOSIG=
201101081020 METAR COR EGLL 081020Z 25015KT 9999 FEW016 SCT020 09/06 Q0994
                        NOSIG=
201101080950 METAR COR EGLL 080950Z 26016KT 9999 SCT020 10/07 Q0993 NOSIG=
201101080920 METAR COR EGLL 080920Z 25019KT 9999 SCT019 SCT042 09/07 Q0992
                        NOSIG=
201101080850 METAR COR EGLL 080850Z 24017KT 9999 BKN024 10/07 Q0991 NOSIG=
201101080820 METAR COR EGLL 080820Z 23016KT 9999 BKN015 10/08 Q0990 NOSIG=
201101080750 METAR COR EGLL 080750Z 23016KT 9999 BKN014 10/08 Q0989 BECMG
                        BKN018=
201101080720 METAR COR EGLL 080720Z 24017KT 9999 SCT018 SCT046 10/08 Q0988
                        NOSIG=
201101080650 METAR COR EGLL 080650Z 22018G28KT 9999 -RA FEW012 BKN016
                        10/08 Q0987 NOSIG=
201101080620 METAR COR EGLL 080620Z 20016G28KT 9999 -RA BKN011 10/08 Q0986
                        RERA TEMPO BKN016=
201101080550 METAR COR EGLL 080550Z 16012KT 7000 RA FEW009 SCT014 BKN020
                        09/08 Q0987 TEMPO 4000 BKN012=
201101080520 METAR COR EGLL 080520Z 18011KT 9000 RA FEW011 SCT016 09/08
                        Q0988 TEMPO BKN014=
201101080450 METAR COR EGLL 080450Z 19012KT 9999 -RA SCT014 SCT020 09/07
                        Q0989 RERA TEMPO BKN014=
201101080420 METAR COR EGLL 080420Z 19014KT 6000 RA SCT013 BKN018 09/07
                        Q0990 TEMPO BKN012=
201101080350 METAR COR EGLL 080350Z 18015KT 9999 FEW012 BKN016 10/07 Q0990
                        TEMPO BKN012=
201101080320 METAR COR EGLL 080320Z 18014KT 9999 FEW016 BKN019 10/07 Q0991
                        TEMPO BKN012=
201101080250 METAR COR EGLL 080250Z 18012KT 9999 -RA SCT012 SCT024 09/08
                        Q0992 TEMPO BKN012=
201101080220 METAR COR EGLL 080220Z 18012KT 9999 -RA SCT016 SCT021 10/08
                        Q0993 TEMPO 4000 BKN012=
201101080150 METAR COR EGLL 080150Z 17011KT 9999 SCT017 10/08 Q0993 NOSIG=
201101080120 METAR COR EGLL 080120Z 18010KT 9999 SCT015 09/07 Q0994 TEMPO
                        BKN014=
201101080050 METAR COR EGLL 080050Z 18009KT 9999 SCT014 09/07 Q0994 TEMPO
                        BKN014=
201101080020 METAR COR EGLL 080020Z 18009KT 9999 SCT015 09/07 Q0995 TEMPO
                        BKN014=
201101072350 METAR COR EGLL 072350Z 19010KT 9999 FEW016 BKN021 10/08 Q0996=
201101072320 METAR COR EGLL 072320Z 19008KT 9999 SCT014 BKN019 10/08 Q0996
                        NOSIG=
201101072250 METAR COR EGLL 072250Z 20010KT 170V230 9999 -RA BKN014 10/08
                        Q0996 NOSIG=
201101072220 METAR COR EGLL 072220Z 20011KT 170V240 9999 BKN015 BKN023
                        10/08 Q0996 TEMPO BKN013=
201101072150 METAR COR EGLL 072150Z 20010KT 180V250 9999 BKN019 10/08
                        Q0997 NOSIG=
201101072120 METAR COR EGLL 072120Z 19009KT 170V230 9999 SCT019 10/08
                        Q0997 TEMPO BKN012=
201101072050 METAR COR EGLL 072050Z 20009KT 160V240 9999 FEW013 SCT037
                        09/08 Q0997 TEMPO BKN012=
201101072020 METAR COR EGLL 072020Z 21009KT 9999 FEW019 09/08 Q0997 NOSIG=
201101071950 METAR COR EGLL 071950Z 21009KT 9999 SCT019 10/08 Q0997 NOSIG=
201101071920 METAR EGLL 071920Z 21009KT 9999 FEW013 10/08 Q0997=
201101071850 METAR COR EGLL 071850Z 21010KT 9999 SCT015 SCT025 10/09 Q0997
                        NOSIG=
201101071820 METAR COR EGLL 071820Z 21011KT 9999 FEW012 SCT027 BKN036
                        10/08 Q0997 NOSIG=
201101071750 METAR COR EGLL 071750Z 21009KT 180V240 9999 SCT008 BKN012
                        10/09 Q0996 NOSIG=
201101071720 METAR COR EGLL 071720Z 19011KT 170V230 9000 -RA SCT007 BKN010
                        10/09 Q0997 NOSIG=
201101071650 METAR EGLL 071650Z 19011KT 170V230 9000 -RA SCT008 BKN015
                        10/09 Q0997=
201101071620 METAR COR EGLL 071620Z 18009KT 140V220 6000 -RA FEW008 BKN012
                        10/08 Q0997 NOSIG=
201101071550 METAR COR EGLL 071550Z 18009KT 150V230 9000 -SHRA SCT012
                        SCT016 10/08 Q0997 TEMPO BKN012=
201101071520 METAR COR EGLL 071520Z 18009KT 150V230 9999 VCSH SCT012 SCT020
                        10/08 Q0997 TEMPO 6000 RA BKN012=
201101071450 METAR EGLL 071450Z 18009KT 9999 SCT020 10/08 Q0997=
201101071420 METAR COR EGLL 071420Z 18008KT 140V200 9999 SCT020 SCT030
                        10/09 Q0997 TEMPO 4000 RA BKN010=
201101071350 METAR COR EGLL 071350Z 16006KT 120V180 7000 BKN019 09/08
                        Q0997 NOSIG=
201101071320 METAR COR EGLL 071320Z 14005KT 100V170 6000 FEW004 BKN019
                        08/07 Q0997 TEMPO BKN012=
201101071250 METAR EGLL 071250Z VRB03KT 4000 -RA BR FEW010 BKN017 07/07
                        Q0998 TEMPO 6000 NSW BKN013=
201101071220 METAR COR EGLL 071220Z VRB03KT 4500 BR FEW003 SCT004 BKN010
                        07/06 Q0998 BECMG 6000 NSW=
201101071150 METAR COR EGLL 071150Z VRB03KT 4000 -RA BR SCT004 BKN006
                        06/05 Q0998 BECMG 6000 NSW BKN010=
201101071120 METAR COR EGLL 071120Z 09004KT 3800 -RA BR FEW004 BKN005
                        05/05 Q0999 NOSIG=
201101071050 METAR COR EGLL 071050Z 06004KT 3500 RA BR FEW004 BKN005 05/04
                        Q0999 NOSIG=
201101071020 METAR COR EGLL 071020Z VRB03KT 4000 -RA BR FEW003 SCT004
                        BKN005 05/04 Q0999 TEMPO RA BKN004=
201101070950 METAR COR EGLL 070950Z 11008KT 2500 RA BR FEW004 BKN005 05/04
                        Q0999 NOSIG=
201101070920 METAR EGLL 070920Z 10009KT 4000 -RA BR BKN005 04/03 Q0999
                        TEMPO RA=
201101070850 METAR EGLL 070850Z 10009KT 3600 -RA BR BKN005 04/03 Q0999
                        TEMPO RA BKN003=
201101070820 METAR COR EGLL 070820Z 10010KT 3000 -RA BR FEW003 BKN004
                        04/03 Q0999 TEMPO RA=
201101070750 METAR COR EGLL 070750Z 09010KT 2200 BR FEW003 BKN004 03/02
                        Q1000 TEMPO RA=
201101070720 METAR COR EGLL 070720Z 08010KT 2300 BR FEW003 BKN004 03/02
                        Q1000 TEMPO BKN006=
201101070650 METAR COR EGLL 070650Z 09011KT 2500 -RADZ BR BKN006 03/02
                        Q1001 NOSIG=
201101070620 METAR COR EGLL 070620Z 08008KT 3200 -RA BR SCT009 BKN014
                        03/02 Q1001 BECMG BKN008=
201101070550 METAR COR EGLL 070550Z 08007KT 3500 BR SCT018 BKN023 03/02
                        Q1001 TEMPO BKN008=
201101070520 METAR COR EGLL 070520Z 08009KT 3000 -DZ BR FEW006 BKN030
                        03/02 Q1001 RERA TEMPO BKN008=
201101070450 METAR COR EGLL 070450Z 09007KT 4200 -DZ FEW026 SCT032 03/02
                        Q1002 TEMPO 5000 BKN010=
201101070420 METAR COR EGLL 070420Z 09007KT 6000 FEW028 BKN034 03/02 Q1002
                        TEMPO BKN010=
201101070350 METAR COR EGLL 070350Z 09007KT 5000 BR BKN035 03/02 Q1002
                        NOSIG=
201101070320 METAR COR EGLL 070320Z 10006KT 6000 FEW037 03/02 Q1002 NOSIG=
201101070250 METAR COR EGLL 070250Z 08004KT 3200 -RA NSC 02/01 Q1002 BCEMG
                        5000=
201101070220 METAR COR EGLL 070220Z 09003KT 3000 BR NSC 02/01 Q1002 BECMG
                        5000 -RA=
201101070150 METAR COR EGLL 070150Z 10002KT 3300 BR NSC 01/00 Q1002 BECMG
                        5000 -RA=
201101070120 METAR COR EGLL 070120Z 07002KT 2500 BR NSC 01/01 Q1002 5000
                        -RA=
201101070050 METAR COR EGLL 070050Z 06002KT 2000 BR NSC 02/01 Q1002 BECMG
                        4000=
201101070020 METAR COR EGLL 070020Z 08002KT 0900 BCFG NSC 02/01 Q1002
                        BECMG 2000 BR=
201101062350 METAR COR EGLL 062350Z 00000KT CAVOK 02/01 Q1002 NOSIG=
201101062320 METAR COR EGLL 062320Z 00000KT CAVOK 03/01 Q1002 NOSIG=
201101062250 METAR COR EGLL 062250Z 29002KT CAVOK 03/02 Q1002=
201101062220 METAR COR EGLL 062220Z 31002KT 8000 NSC 03/02 Q1001 NOSIG=
201101062150 METAR COR EGLL 062150Z 34002KT CAVOK 03/02 Q1001 NOSIG=
201101062120 METAR COR EGLL 062120Z 29003KT 9000 NSC 03/02 Q1001 NOSIG=
201101062050 METAR COR EGLL 062050Z 30003KT CAVOK 03/02 Q1000 NOSIG=
201101062020 METAR COR EGLL 062020Z 28003KT 9000 FEW036 03/02 Q0999 NOSIG=
201101061950 METAR COR EGLL 061950Z 28004KT 9000 FEW033 03/02 Q0999 NOSIG=
201101061920 METAR COR EGLL 061920Z 26005KT 9000 FEW032 03/02 Q0999 TEMPO
                        4000 BR=
201101061850 METAR EGLL 061850Z 28004KT 230V310 9000 FEW032 03/02 Q0998=
201101061820 METAR COR EGLL 061820Z 28004KT 9999 FEW010 03/02 Q0997 NOSIG=
201101061750 METAR COR EGLL 061750Z 28005KT 9999 FEW009 03/02 Q0997 NOSIG=
201101061720 METAR COR EGLL 061720Z 28004KT 9999 FEW008 03/02 Q0996 NOSIG=
201101061650 METAR COR EGLL 061650Z 28004KT 9999 FEW009 SCT043 03/01 Q0996
                        NOSIG=
201101061620 METAR COR EGLL 061620Z VRB03KT 9999 SCT009 SCT039 03/02 Q0995
                        NOSIG=
201101061550 METAR COR EGLL 061550Z 31002KT 9999 -RA SCT007 BKN039 03/02
                        Q0995 NOSIG=
201101061520 METAR COR EGLL 061520Z 35003KT 9999 -RA SCT007 BKN034 03/01
                        Q0994 NOSIG=
201101061450 METAR COR EGLL 061450Z 36004KT 330V050 9000 -RA SCT008 BKN032
                        03/01 Q0993 NOSIG=
201101061420 METAR COR EGLL 061420Z 03005KT 8000 -RASN FEW009 SCT018 BKN028
                        03/01 Q0993 TEMPO 4000 RASN=
201101061350 METAR COR EGLL 061350Z 03005KT 350V070 8000 -RASN FEW008
                        BKN017 03/02 Q0993 TEMPO 4000 RASN=
201101061320 METAR COR EGLL 061320Z 02004KT 340V050 9000 -RA FEW007 BKN022
                        04/03 Q0993 TEMPO 4000 RA RASN=
201101061250 METAR COR EGLL 061250Z 04005KT 9000 -RA FEW010 BKN025 04/03
                        Q0993 TEMPO RA=
201101061220 METAR COR EGLL 061220Z 04005KT 8000 -RA FEW010 BKN028 04/03
                        Q0993 NOSIG=
201101061150 METAR COR EGLL 061150Z 05004KT 8000 -RA SCT029 BKN040 04/03
                        Q0993 RERA TEMPO 4000 RA=
201101061120 METAR COR EGLL 061120Z 05005KT 010V080 6000 RA FEW010 SCT015
                        BKN024 05/03 Q0994 TEMPO 4000 BKN010=
201101061050 METAR COR EGLL 061050Z 05005KT 5000 RA SCT015 BKN025 05/03
                        Q0994 TEMPO 4000=
201101061020 METAR COR EGLL 061020Z 06004KT 6000 RA FEW012 BKN028 05/04
                        Q0994 TEMPO 4000=
201101060950 METAR COR EGLL 060950Z 04004KT 020V080 5000 -RA BR FEW008
                        BKN040 05/04 Q0994 TEMPO 4000 RA=
201101060920 METAR COR EGLL 060920Z VRB03KT 5000 -RA BR FEW010 BKN036
                        05/04 Q0994 TEMPO 4000 RA=
201101060850 METAR COR EGLL 060850Z VRB03KT 5000 -RA BR FEW010 BKN038
                        05/04 Q0994 TEMPO 4000 RA=
201101060820 METAR COR EGLL 060820Z VRB03KT 7000 -RA BKN035 05/04 Q0994
                        TEMPO RA=
201101060750 METAR EGLL 060750Z 07003KT 7000 -RA BKN035 05/04 Q0994 TEMPO
                        RA=
201101060720 METAR COR EGLL 060720Z VRB03KT 6000 -RA FEW010 05/04 Q0994
                        TEMPO RA=
201101060650 METAR COR EGLL 060650Z 07002KT 5000 BR FEW010 05/04 Q0994
                        NOSIG=
201101060620 METAR COR EGLL 060620Z VRB03KT 6000 -RA SCT045 05/04 Q0994
                        TEMPO RA=
201101060550 METAR COR EGLL 060550Z 00000KT 5000 -RA SCT044 05/04 Q0994
                        TEMPO RA=
201101060520 METAR COR EGLL 060520Z 22003KT 6000 FEW010 05/04 Q0994 NOSIG=
201101060450 METAR COR EGLL 060450Z 21003KT 6000 NSC 04/03 Q0994 NOSIG=
201101060420 METAR COR EGLL 060420Z 19003KT 6000 NSC 04/03 Q0994 NOSIG=
201101060350 METAR COR EGLL 060350Z 26004KT 6000 NSC 05/04 Q0994 TEMPO
                        3000 BR=
201101060320 METAR COR EGLL 060320Z 26002KT 6000 NSC 05/04 Q0994 TEMPO
                        3000 BR=
201101060250 METAR EGLL 060250Z NIL=
201101060220 METAR COR EGLL 060220Z 28005KT 3000 BR NSC 05/04 Q0995 NOSIG=
201101060150 METAR COR EGLL 060150Z 26006KT 2700 BR FEW007 05/04 Q0994
                        BECMG 6000 NSW=
201101060120 METAR COR EGLL 060120Z 27002KT 1000 R27L/1200 BR SCT007 05/04
                        Q0994 TEMPO 0600 FG BKN001=
201101060050 METAR COR EGLL 060050Z 00000KT 0600 R27L/1000 BCFG FEW002
                        SCT010 05/04 Q0994 TEMPO 0500 FG
                        BKN001=
201101060020 METAR COR EGLL 060020Z 00000KT 3000 R27L/0900 BR FEW003 05/04
                        Q0994 TEMPO 0900 FG BKN003=
201101052350 METAR COR EGLL 052350Z 35003KT 1500 BR BKN002 05/04 Q0994
                        BECMG 1200=
201101052320 METAR COR EGLL 052320Z 35003KT 3000 BR FEW005 05/04 Q0994
                        BECMG 2000=
201101052250 METAR COR EGLL 052250Z 30002KT 4800 BR FEW005 06/05 Q0994
                        NOSIG=
201101052220 METAR COR EGLL 052220Z 24005KT 200V280 8000 FEW008 07/05
                        Q0994 TEMPO 4000 BR=
201101052150 METAR COR EGLL 052150Z 27005KT 7000 FEW005 SCT038 07/06 Q0994
                        NOSIG=
201101052120 METAR COR EGLL 052120Z 26008KT 220V280 6000 FEW006 SCT036
                        07/06 Q0994 NOSIG=
201101052050 METAR COR EGLL 052050Z 24008KT 210V270 5000 BR FEW005 SCT014
                        07/06 Q0994 TEMPO BKN014=
201101052020 METAR COR EGLL 052020Z 24008KT 5000 -DZ FEW004 BKN005 07/06
                        Q0994 TEMPO 4000 BKN004=
201101051950 METAR COR EGLL 051950Z 23006KT 3500 -DZ BKN005 07/06 Q0994
                        TEMPO 2000 DZ BKN004=
201101051920 METAR COR EGLL 051920Z 24007KT 170V270 4000 -DZ FEW005 BKN007
                        06/05 Q0995 TEMPO DZ=
201101051850 METAR COR EGLL 051850Z 22008KT 170V260 5000 -DZ FEW007 BKN009
                        07/05 Q0995 TEMPO 4000 DZ=
201101051820 METAR COR EGLL 051820Z 20009KT 180V240 5000 -DZ FEW004 BKN006
                        06/05 Q0995 TEMPO 4000 DZ BKN004=
201101051750 METAR COR EGLL 051750Z 19010KT 170V250 4800 -DZ SCT004 BKN006
                        06/05 Q0995 TEMPO DZ=
201101051720 METAR COR EGLL 051720Z 19009KT 160V230 4000 BR FEW004 BKN006
                        05/04 Q0995 NOSIG=
201101051650 METAR COR EGLL 051650Z 19009KT 160V230 5000 -RADZ BKN006
                        05/04 Q0995 TEMPO 4000 RA=
201101051620 METAR COR EGLL 051620Z 19009KT 160V240 6000 -RA BKN007 05/03
                        Q0996 TEMPO 4000 RA=
201101051550 METAR EGLL 051550Z 19009KT 7000 BKN008 05/03 Q0996=
201101051520 METAR COR EGLL 051520Z 20010KT 6000 BKN011 05/03 Q0997 NOSIG=
201101051450 METAR COR EGLL 051450Z 20013KT 8000 -DZ BKN018 05/02 Q0997
                        BECMG BKN012=
201101051420 METAR COR EGLL 051420Z 19013KT 9999 BKN020 06/01 Q0997 NOSIG=
201101051350 METAR COR EGLL 051350Z 18014KT 9999 BKN020 06/01 Q0997 NOSIG=
201101051320 METAR COR EGLL 051320Z 19015KT 9999 FEW024 SCT044 06/01 Q0998
                        NOSIG=
201101051250 METAR COR EGLL 051250Z 18016KT 9999 FEW046 06/01 Q0999 NOSIG=
201101051220 METAR COR EGLL 051220Z 19015KT 160V220 CAVOK 06/00 Q0999
                        NOSIG=
201101051150 METAR COR EGLL 051150Z 19016KT 160V220 CAVOK 06/00 Q1000
                        NOSIG=
201101051120 METAR COR EGLL 051120Z 19015KT CAVOK 06/01 Q1000 NOSIG=
201101051050 METAR EGLL 051050Z 19014KT 9999 FEW020 06/01 Q1001=
201101051020 METAR COR EGLL 051020Z 19014KT CAVOK 06/01 Q1001 NOSIG=
201101050950 METAR COR EGLL 050950Z 19014KT CAVOK 05/01 Q1002 NOSIG=
201101050920 METAR COR EGLL 050920Z 18012KT CAVOK 05/01 Q1002 NOSIG=
201101050850 METAR COR EGLL 050850Z 19013KT CAVOK 04/01 Q1002 NOSIG=
201101050820 METAR COR EGLL 050820Z 19011KT CAVOK 04/01 Q1002 NOSIG=
201101050750 METAR COR EGLL 050750Z 18011KT 150V230 CAVOK 04/01 Q1003
                        NOSIG=
201101050720 METAR COR EGLL 050720Z 19011G21KT CAVOK 04/01 Q1003 NOSIG=
201101050650 METAR COR EGLL 050650Z 19013KT CAVOK 04/02 Q1003 NOSIG=
201101050620 METAR COR EGLL 050620Z 20013G24KT 9999 FEW019 05/02 Q1003
                        NOSIG=
201101050550 METAR COR EGLL 050550Z 20013KT 9999 SCT020 05/02 Q1004 NOSIG=
201101050520 METAR COR EGLL 050520Z 20012KT 9999 FEW020 05/03 Q1004 NOSIG=
201101050450 METAR COR EGLL 050450Z 20011KT 9999 SCT018 06/03 Q1005 NOSIG=
201101050420 METAR COR EGLL 050420Z 21010KT 9999 FEW018 06/03 Q1005 TEMPO
                        BKN010=
201101050350 METAR COR EGLL 050350Z 19009KT 9999 FEW045 06/03 Q1005 TEMPO
                        BKN010=
201101050320 METAR COR EGLL 050320Z 20009KT CAVOK 05/04 Q1006 TEMPO BKN010=
201101050250 METAR COR EGLL 050250Z 20007KT CAVOK 05/04 Q1006 TEMPO BKN010=
201101050220 METAR COR EGLL 050220Z 22008KT 9999 FEW015 06/04 Q1007 TEMPO
                        BKN010=
201101050150 METAR COR EGLL 050150Z 21008KT 9000 -RA FEW015 SCT030 06/04
                        Q1007 TEMPO BKN010=
201101050120 METAR COR EGLL 050120Z 21009KT 9999 SCT019 06/04 Q1007 TEMPO
                        BKN010=
201101050050 METAR COR EGLL 050050Z 20010KT 9999 FEW012 SCT045 05/04 Q1007
                        TEMPO BKN010=
201101050020 METAR COR EGLL 050020Z 21010KT 9999 FEW019 SCT040 05/04 Q1007
                        TEMPO BKN010=
201101042350 METAR COR EGLL 042350Z 21011KT 9999 -RA FEW022 SCT042 05/03
                        Q1008 TEMPO BKN010=
201101042320 METAR COR EGLL 042320Z 22009KT 9999 SCT041 05/03 Q1008 TEMPO
                        BKN010=
201101042250 METAR COR EGLL 042250Z VRB06KT 9999 FEW033 05/03 Q1008 TEMPO
                        BKN010=
201101042220 METAR COR EGLL 042220Z 19008KT 170V240 9999 FEW011 04/02
                        Q1008 TEMPO BKN010=
201101042150 METAR COR EGLL 042150Z 20009KT 170V250 9999 FEW011 04/02
                        Q1008 TEMPO BKN010=
201101042120 METAR COR EGLL 042120Z 20008KT 170V250 9999 FEW010 04/02
                        Q1009 TEMPO BKN010=
201101042050 METAR COR EGLL 042050Z 19008KT 160V250 9999 SCT008 04/02
                        Q1009 BECMG BKN012=
201101042020 METAR COR EGLL 042020Z 20007KT 9999 FEW008 SCT011 04/02 Q1009
                        BECMG BKN011=
201101041950 METAR COR EGLL 041950Z 20009KT 160V250 9999 BKN018 04/02
                        Q1009 BECMG BKN014=
201101041920 METAR COR EGLL 041920Z 21009KT 170V240 9999 SCT019 BKN038
                        04/02 Q1010 BECMG BKN014=
201101041850 METAR COR EGLL 041850Z 22009KT 190V260 9999 FEW014 SCT029
                        BKN034 04/02 Q1010 NOSIG=
201101041820 METAR COR EGLL 041820Z 22008KT 170V250 9999 SCT023 BKN030
                        04/02 Q1010 NOSIG=
201101041750 METAR COR EGLL 041750Z 21007KT 9999 BKN021 BKN031 04/02 Q1010
                        NOSIG=
201101041720 METAR COR EGLL 041720Z 22007KT 190V260 9999 SCT022 BKN026
                        BKN035 03/01 Q1011 NOSIG=
201101041650 METAR COR EGLL 041650Z 21009KT 180V250 9999 -RA SCT022 BKN038
                        03/01 Q1011 NOSIG=
201101041620 METAR COR EGLL 041620Z 23009KT 9999 SCT026 BKN037 04/01 Q1011
                        NOSIG=
201101041550 METAR COR EGLL 041550Z 23009KT 9999 -RA FEW018 SCT024 BKN039
                        04/01 Q1011 NOSIG=
201101041520 METAR COR EGLL 041520Z 22007KT 9999 FEW017 BKN033 04/01 Q1012
                        NOSIG=
201101041450 METAR COR EGLL 041450Z 22008KT 190V260 9999 -RA SCT019 SCT031
                        04/01 Q1012 NOSIG=
201101041420 METAR COR EGLL 041420Z 22006KT 9999 BKN022 04/00 Q1012 NOSIG=
201101041350 METAR COR EGLL 041350Z 24008KT 9999 FEW029 BKN039 04/M00
                        Q1012 NOSIG=
201101041320 METAR COR EGLL 041320Z 22007KT 9999 BKN041 04/00 Q1012 NOSIG=
201101041250 METAR COR EGLL 041250Z 22008KT 190V270 9999 BKN037 03/01
                        Q1013 NOSIG=
201101041220 METAR COR EGLL 041220Z 24005KT 7000 SCT039 03/01 Q1013 NOSIG=
201101041150 METAR COR EGLL 041150Z 25005KT 210V280 6000 FEW037 03/01
                        Q1013 NOSIG=
201101041120 METAR COR EGLL 041120Z 20005KT 140V280 6000 NSC 03/01 Q1013
                        NOSIG=
201101041050 METAR COR EGLL 041050Z 22005KT 180V250 6000 NSC 02/01 Q1014
                        NOSIG=
201101041020 METAR COR EGLL 041020Z 21005KT 160V260 4400 BR NSC 02/01
                        Q1014 BECMG 6000 NSW=
201101040950 METAR COR EGLL 040950Z 21005KT 170V250 3700 BR FEW026 02/00
                        Q1014 BECMG 6000 NSW=
201101040920 METAR COR EGLL 040920Z 21005KT 160V240 4000 BR FEW028 01/00
                        Q1015 BECMG 6000 NSW=
201101040850 METAR COR EGLL 040850Z VRB02KT 6000 FEW041 01/M00 Q1015 NOSIG=
201101040820 METAR COR EGLL 040820Z 31002KT 7000 FEW006 SCT011 01/M00
                        Q1015 TEMPO BKN011=
201101040750 METAR COR EGLL 040750Z 29004KT 7000 FEW007 BKN011 01/M00
                        Q1015 TEMPO BKN007=
201101040720 METAR COR EGLL 040720Z 27005KT 8000 FEW008 BKN010 02/00 Q1015
                        BECMG BKN018=
201101040650 METAR COR EGLL 040650Z 28005KT 220V290 9000 FEW006 BKN008
                        02/01 Q1015 BECMG 9999 BKN020=
201101040620 METAR COR EGLL 040620Z VRB03KT 9999 BKN008 02/00 Q1015 NOSIG=
201101040550 METAR COR EGLL 040550Z 26003KT 9999 BKN008 02/00 Q1015 BECMG
                        BKN020=
201101040520 METAR COR EGLL 040520Z 00000KT 9999 SCT008 BKN020 02/00 Q1016
                        TEMPO BKN008=
201101040450 METAR COR EGLL 040450Z 00000KT 9999 FEW009 SCT020 BKN040
                        02/M00 Q1016 TEMPO BKN008=
201101040420 METAR COR EGLL 040420Z 00000KT 9999 BKN010 02/M00 Q1016 NOSIG=
201101040350 METAR COR EGLL 040350Z 00000KT 9999 BKN010 02/M00 Q1017 BECMG
                        BKN020=
201101040320 METAR COR EGLL 040320Z 00000KT 9999 BKN010 02/M00 Q1017 BECMG
                        BKN020=
201101040250 METAR COR EGLL 040250Z 17002KT 9999 BKN011 02/M00 Q1017 NOSIG=
201101040220 METAR COR EGLL 040220Z 15003KT 9999 BKN015 BKN021 02/M00
                        Q1018 TEMPO BKN010=
201101040150 METAR COR EGLL 040150Z 15004KT 9999 FEW018 BKN022 02/M00
                        Q1018 NOSIG=
201101040120 METAR COR EGLL 040120Z 17002KT 9999 SCT018 BKN022 02/M01
                        Q1018 NOSIG=
201101040050 METAR COR EGLL 040050Z 16002KT 9999 SCT018 BKN028 01/M01
                        Q1018 NOSIG=
201101040020 METAR COR EGLL 040020Z 00000KT 9999 FEW018 BKN026 01/M01
                        Q1019 NOSIG=
201101032350 METAR COR EGLL 032350Z 15002KT 9999 FEW018 BKN028 01/M01
                        Q1019 NOSIG=
201101032320 METAR COR EGLL 032320Z 15003KT 9999 SCT028 01/M01 Q1019 NOSIG=
201101032250 METAR COR EGLL 032250Z 14004KT CAVOK 01/M01 Q1019 NOSIG=
201101032220 METAR COR EGLL 032220Z 16005KT 120V270 9999 FEW028 02/M01
                        Q1020 NOSIG=
201101032150 METAR COR EGLL 032150Z 16004KT 130V280 CAVOK 02/M01 Q1020
                        NOSIG=
201101032120 METAR COR EGLL 032120Z 17004KT 100V230 CAVOK 02/M01 Q1020
                        NOSIG=
201101032050 METAR COR EGLL 032050Z 15004KT 080V250 CAVOK 02/M01 Q1020
                        NOSIG=
201101032020 METAR COR EGLL 032020Z 16004KT 120V220 9999 FEW043 BKN049
                        02/M01 Q1021 NOSIG=
201101031950 METAR COR EGLL 031950Z 16004KT 120V280 9999 SCT042 BKN046
                        02/M01 Q1021 NOSIG=
201101031920 METAR COR EGLL 031920Z 16005KT 120V230 9999 SCT039 BKN048
                        02/M01 Q1021 NOSIG=
201101031850 METAR COR EGLL 031850Z 17005KT 120V220 9999 SCT035 BKN045
                        02/M02 Q1021 NOSIG=
201101031820 METAR COR EGLL 031820Z 16005KT 110V210 9999 BKN031 02/M02
                        Q1021 NOSIG=
201101031750 METAR COR EGLL 031750Z 16005KT 100V210 9999 BKN032 02/M02
                        Q1022 NOSIG=
201101031720 METAR COR EGLL 031720Z VRB03KT 9999 BKN026 02/M02 Q1022 NOSIG=
201101031650 METAR COR EGLL 031650Z VRB04KT 9999 BKN031 02/M02 Q1022 NOSIG=
201101031620 METAR COR EGLL 031620Z 13004KT 090V190 9999 BKN030 02/M02
                        Q1022 NOSIG=
201101031550 METAR COR EGLL 031550Z VRB03KT 9999 BKN028 02/M02 Q1023 NOSIG=
201101031520 METAR COR EGLL 031520Z 17004KT 090V230 9999 BKN031 02/M01
                        Q1023 NOSIG=
201101031450 METAR COR EGLL 031450Z 18004KT 140V240 9000 -SN BKN037 02/M02
                        Q1023 NOSIG=
201101031420 METAR COR EGLL 031420Z VRB03KT 9999 BKN042 02/M02 Q1023 NOSIG=
201101031350 METAR COR EGLL 031350Z VRB02KT 9999 BKN043 02/M02 Q1024 NOSIG=
201101031320 METAR COR EGLL 031320Z 15004KT 100V220 9999 FEW042 BKN046
                        02/M02 Q1024 NOSIG=
201101031250 METAR COR EGLL 031250Z VRB03KT CAVOK 02/M02 Q1024 NOSIG=
201101031220 METAR COR EGLL 031220Z VRB03KT CAVOK 02/M01 Q1025 NOSIG=
201101031150 METAR COR EGLL 031150Z 20004KT 160V240 CAVOK 02/M01 Q1025
                        NOSIG=
201101031120 METAR COR EGLL 031120Z VRB03KT CAVOK 02/M02 Q1025 NOSIG=
201101031050 METAR COR EGLL 031050Z VRB03KT CAVOK 01/M02 Q1025 NOSIG=
201101031020 METAR COR EGLL 031020Z VRB02KT CAVOK 01/M02 Q1026 NOSIG=
201101030950 METAR COR EGLL 030950Z 36003KT CAVOK 00/M02 Q1026 NOSIG=
201101030920 METAR COR EGLL 030920Z VRB02KT CAVOK M00/M02 Q1026 NOSIG=
201101030850 METAR COR EGLL 030850Z 32002KT CAVOK M00/M03 Q1026 NOSIG=
201101030820 METAR COR EGLL 030820Z 33002KT CAVOK M00/M03 Q1026 NOSIG=
201101030750 METAR COR EGLL 030750Z VRB02KT CAVOK M00/M02 Q1026 NOSIG=
201101030720 METAR COR EGLL 030720Z 29002KT CAVOK M01/M03 Q1026 NOSIG=
201101030650 METAR COR EGLL 030650Z 29003KT CAVOK M00/M02 Q1026 NOSIG=
201101030620 METAR COR EGLL 030620Z 28003KT CAVOK M00/M03 Q1026 NOSIG=
201101030550 METAR COR EGLL 030550Z 28005KT CAVOK 01/M02 Q1026 NOSIG=
201101030520 METAR COR EGLL 030520Z VRB03KT CAVOK 01/M02 Q1026 NOSIG=
201101030450 METAR COR EGLL 030450Z 29004KT 250V070 CAVOK 01/M02 Q1027
                        NOSIG=
201101030420 METAR COR EGLL 030420Z 04004KT 010V070 CAVOK 01/M02 Q1027
                        NOSIG=
201101030350 METAR COR EGLL 030350Z 01003KT CAVOK 01/M02 Q1027 NOSIG=
201101030320 METAR COR EGLL 030320Z 27002KT CAVOK 01/M02 Q1027 NOSIG=
201101030250 METAR COR EGLL 030250Z 30002KT CAVOK 02/M02 Q1027 NOSIG=
201101030220 METAR COR EGLL 030220Z 30002KT CAVOK 02/M02 Q1027 NOSIG=
201101030150 METAR COR EGLL 030150Z 32002KT CAVOK 02/M02 Q1027 NOSIG=
201101030120 METAR COR EGLL 030120Z 29004KT CAVOK 02/M02 Q1028 NOSIG=
201101030050 METAR COR EGLL 030050Z 30003KT CAVOK 02/M02 Q1028 NOSIG=
201101030020 METAR COR EGLL 030020Z 30004KT CAVOK 02/M02 Q1028 NOSIG=
201101022350 METAR COR EGLL 022350Z 29004KT CAVOK 02/M02 Q1028 NOSIG=
201101022320 METAR COR EGLL 022320Z 29005KT CAVOK 02/M02 Q1028 NOSIG=
201101022250 METAR COR EGLL 022250Z 29004KT CAVOK 02/M02 Q1028 NOSIG=
201101022220 METAR COR EGLL 022220Z 30004KT CAVOK 02/M02 Q1028 NOSIG=
201101022150 METAR COR EGLL 022150Z 30003KT CAVOK 02/M02 Q1028 NOSIG=
201101022120 METAR COR EGLL 022120Z 31004KT 9999 FEW031 02/M02 Q1028 NOSIG=
201101022050 METAR COR EGLL 022050Z 31004KT 9999 FEW031 OVC046 03/M02
                        Q1028 NOSIG=
201101022020 METAR COR EGLL 022020Z VRB03KT 9999 OVC046 03/M01 Q1028 NOSIG=
201101021950 METAR EGLL 021950Z VRB03KT 9999 BKN048 02/M01 Q1029=
201101021920 METAR COR EGLL 021920Z VRB03KT 9999 BKN048 02/M01 Q1029 NOSIG=
201101021850 METAR COR EGLL 021850Z VRB03KT 9999 OVC047 03/M01 Q1029 NOSIG=
201101021820 METAR COR EGLL 021820Z VRB02KT 9999 OVC047 03/M01 Q1029 NOSIG=
201101021750 METAR COR EGLL 021750Z 33004KT 300V360 9999 BKN049 03/M01
                        Q1029 NOSIG=
201101021720 METAR COR EGLL 021720Z 35003KT 9999 BKN049 03/M01 Q1029 NOSIG=
201101021650 METAR COR EGLL 021650Z 35004KT 320V020 9999 BKN045 03/M01
                        Q1029 NOSIG=
201101021620 METAR COR EGLL 021620Z 36003KT 9999 BKN047 03/M01 Q1028 NOSIG=
201101021550 METAR COR EGLL 021550Z 36003KT 9999 BKN049 04/M01 Q1028 NOSIG=
201101021520 METAR COR EGLL 021520Z VRB03KT 9999 BKN049 04/M01 Q1028 NOSIG=
201101021450 METAR COR EGLL 021450Z 36004KT 320V020 9999 BKN047 04/M01
                        Q1028 NOSIG=
201101021420 METAR COR EGLL 021420Z 36004KT 9999 FEW020 BKN047 04/M01
                        Q1028 NOSIG=
201101021350 METAR COR EGLL 021350Z VRB03KT 9999 FEW018 BKN046 04/M01
                        Q1028 NOSIG=
201101021320 METAR COR EGLL 021320Z 36004KT 310V040 9999 FEW018 BKN046
                        04/M01 Q1028 NOSIG=
201101021250 METAR COR EGLL 021250Z 36004KT 320V020 9999 FEW018 BKN046
                        04/M01 Q1028 NOSIG=
201101021220 METAR COR EGLL 021220Z 36004KT 310V040 9999 FEW017 BKN048
                        04/M00 Q1029 NOSIG=
201101021150 METAR COR EGLL 021150Z 36004KT 330V050 9999 FEW015 BKN048
                        03/M00 Q1029 NOSIG=
201101021120 METAR COR EGLL 021120Z VRB03KT 9999 FEW015 BKN048 03/M00
                        Q1029 NOSIG=
201101021050 METAR COR EGLL 021050Z 36005KT 320V030 9999 FEW015 BKN048
                        03/M00 Q1029 NOSIG=
201101021020 METAR COR EGLL 021020Z 36005KT 330V030 9999 BKN049 03/M00
                        Q1029 NOSIG=
201101020950 METAR COR EGLL 020950Z 36006KT 9999 BKN048 03/M00 Q1029 NOSIG=
201101020920 METAR COR EGLL 020920Z 36004KT 340V040 9999 BKN048 02/M00
                        Q1029 NOSIG=
201101020850 METAR COR EGLL 020850Z 34005KT 310V020 9999 FEW015 BKN045
                        02/M00 Q1028 NOSIG=
201101020820 METAR COR EGLL 020820Z VRB03KT 9999 FEW020 BKN044 02/M00
                        Q1028 NOSIG=
201101020750 METAR COR EGLL 020750Z VRB03KT 9999 BKN045 02/M00 Q1028 NOSIG=
201101020720 METAR COR EGLL 020720Z 36004KT 9999 BKN045 02/M00 Q1028 NOSIG=
201101020650 METAR COR EGLL 020650Z 36005KT 9999 BKN044 02/M00 Q1028 NOSIG=
201101020620 METAR COR EGLL 020620Z 02005KT 9999 FEW049 02/M01 Q1027 NOSIG=
201101020550 METAR COR EGLL 020550Z 04005KT 360V080 CAVOK 02/M00 Q1027
                        NOSIG=
201101020520 METAR COR EGLL 020520Z 01004KT 330V050 CAVOK 02/M00 Q1027
                        NOSIG=
201101020450 METAR COR EGLL 020450Z 36004KT CAVOK 02/M00 Q1027 NOSIG=
201101020420 METAR COR EGLL 020420Z 36004KT 330V030 CAVOK 03/00 Q1027
                        NOSIG=
201101020350 METAR COR EGLL 020350Z VRB03KT CAVOK 03/00 Q1027 NOSIG=
201101020320 METAR EGLL 020320Z 02004KT 330V060 CAVOK 03/00 Q1027=
201101020250 METAR EGLL 020250Z 04004KT 360V060 CAVOK 03/01 Q1027=
201101020220 METAR COR EGLL 020220Z 03005KT 350V050 CAVOK 03/01 Q1027
                        NOSIG=
201101020150 METAR COR EGLL 020150Z 03005KT 350V060 CAVOK 03/01 Q1027
                        NOSIG=
201101020120 METAR COR EGLL 020120Z 03004KT 350V060 9999 BKN047 03/01
                        Q1027 NOSIG=
201101020050 METAR EGLL 020050Z 03005KT 9999 FEW040 SCT046 04/01 Q1027=
201101020020 METAR EGLL 020020Z 02004KT 350V070 9999 FEW011 BKN040 04/01
                        Q1027=
201101012350 METAR COR EGLL 012350Z 02004KT 330V070 9999 BKN040 04/02
                        Q1027 NOSIG=
201101012320 METAR COR EGLL 012320Z 36004KT 9999 BKN040 04/02 Q1027 NOSIG=
201101012250 METAR COR EGLL 012250Z 01004KT 340V050 9999 FEW012 SCT040
                        04/02 Q1027 NOSIG=
201101012220 METAR COR EGLL 012220Z 03005KT 340V060 9999 SCT042 04/02
                        Q1026 NOSIG=
201101012150 METAR COR EGLL 012150Z 02004KT 340V050 9999 SCT037 04/02
                        Q1026 NOSIG=
201101012120 METAR COR EGLL 012120Z 03004KT 360V070 9999 BKN038 05/02
                        Q1026 NOSIG=
201101012050 METAR COR EGLL 012050Z 05006KT 9999 BKN036 05/02 Q1026 NOSIG=
201101012020 METAR COR EGLL 012020Z 06006KT 9999 FEW013 BKN037 05/02 Q1026
                        NOSIG=
201101011950 METAR EGLL 011950Z 05006KT 020V080 9999 BKN033 05/03 Q1026=
201101011920 METAR COR EGLL 011920Z 06005KT 9999 FEW027 05/03 Q1025 NOSIG=
201101011850 METAR COR EGLL 011850Z 05004KT 020V080 9999 FEW019 05/03
                        Q1025 NOSIG=
201101011820 METAR COR EGLL 011820Z 06005KT 020V080 9999 FEW012 SCT020
                        05/03 Q1025 NOSIG=
201101011750 METAR COR EGLL 011750Z 05006KT 9999 SCT014 SCT019 05/03 Q1025
                        NOSIG=
201101011720 METAR COR EGLL 011720Z 06007KT 9999 FEW009 BKN020 06/04 Q1025
                        TEMPO BKN014=
201101011650 METAR COR EGLL 011650Z 06007KT 9999 -RA SCT009 BKN013 06/04
                        Q1025 TEMPO 3000 DZ BKN008=
201101011620 METAR COR EGLL 011620Z 05007KT 020V080 9999 BKN008 BKN012
                        06/05 Q1025 TEMPO 3000 DZ=
201101011550 METAR COR EGLL 011550Z 02005KT 320V060 4000 BR FEW006 BKN012
                        07/05 Q1024 BECMG 6000 NSW=
201101011520 METAR COR EGLL 011520Z 36005KT 330V030 6000 SCT008 BKN011
                        07/05 Q1024 NOSIG=
201101011450 METAR COR EGLL 011450Z 36004KT 310V030 6000 FEW008 BKN014
                        07/05 Q1024 TEMPO 3000 BKN008=
201101011420 METAR COR EGLL 011420Z 34004KT 310V020 6000 SCT006 BKN011
                        BKN023 07/05 Q1024 TEMPO 3000 BKN008=
201101011350 METAR COR EGLL 011350Z 35005KT 310V020 7000 FEW006 BKN010
                        07/05 Q1024 TEMPO 3000 BKN008=
201101011320 METAR COR EGLL 011320Z 33005KT 300V010 7000 FEW008 SCT010
                        BKN030 07/05 Q1024 TEMPO BKN014=
201101011250 METAR COR EGLL 011250Z 32004KT 290V360 5000 HZ FEW005 SCT015
                        BKN033 07/05 Q1024 REDZ BECMG BKN014=
201101011220 METAR COR EGLL 011220Z 33004KT 300V010 4000 DZ FEW008 SCT015
                        BKN028 07/05 Q1024 TEMPO BKN008=
201101011150 METAR COR EGLL 011150Z 32004KT 280V350 6000 FEW015 SCT023
                        BKN037 07/04 Q1024 BECMG BKN014=
201101011120 METAR COR EGLL 011120Z 32005KT 290V360 8000 SCT034 BKN038
                        06/04 Q1024 BECMG BKN014=
201101011050 METAR COR EGLL 011050Z 30005KT 8000 BKN033 06/04 Q1024 BECMG
                        BKN014=
201101011020 METAR COR EGLL 011020Z 29004KT 8000 BKN027 06/03 Q1024 BECMG
                        BKN014=
201101010950 METAR COR EGLL 010950Z 29006KT 7000 OVC028 05/03 Q1024 BECMG
                        BKN014=
201101010920 METAR COR EGLL 010920Z 29006KT 7000 BKN028 05/03 Q1024 BECMG
                        BKN014=
201101010850 METAR COR EGLL 010850Z 28005KT 6000 OVC030 05/03 Q1024 BECMG
                        BKN014=
201101010820 METAR COR EGLL 010820Z 29005KT 7000 OVC031 05/02 Q1024 NOSIG=
201101010750 METAR COR EGLL 010750Z 28006KT 8000 SCT018 OVC030 05/02 Q1024
                        NOSIG=
201101010720 METAR COR EGLL 010720Z 28006KT 8000 SCT018 BKN028 05/02 Q1024
                        NOSIG=
201101010650 METAR COR EGLL 010650Z 29007KT 8000 FEW020 BKN027 05/02 Q1024
                        NOSIG=
201101010620 METAR COR EGLL 010620Z 27008KT 9000 BKN026 05/02 Q1024 NOSIG=
201101010550 METAR COR EGLL 010550Z 27007KT 9000 FEW020 BKN026 05/02 Q1024
                        NOSIG=
201101010520 METAR COR EGLL 010520Z 27008KT 9999 BKN027 05/02 Q1024 NOSIG=
201101010450 METAR COR EGLL 010450Z 26007KT 9999 BKN025 05/02 Q1024 NOSIG=
201101010420 METAR COR EGLL 010420Z 26007KT 9999 BKN024 05/02 Q1024 NOSIG=
201101010350 METAR COR EGLL 010350Z 28006KT 9999 BKN022 05/02 Q1024 NOSIG=
201101010320 METAR COR EGLL 010320Z 27005KT 9999 BKN021 05/02 Q1025 NOSIG=
201101010250 METAR COR EGLL 010250Z 30006KT 9000 BKN021 05/02 Q1025 NOSIG=
201101010220 METAR COR EGLL 010220Z 30005KT 9000 BKN020 06/02 Q1025 NOSIG=
201101010150 METAR COR EGLL 010150Z 31004KT 9000 OVC019 06/02 Q1025 NOSIG=
201101010120 METAR COR EGLL 010120Z 31004KT 280V340 8000 OVC018 06/02
                        Q1025 NOSIG=
201101010050 METAR COR EGLL 010050Z 30005KT 8000 OVC018 06/02 Q1025 NOSIG=
201101010020 METAR COR EGLL 010020Z 32005KT 8000 OVC020 06/02 Q1025 NOSIG=
