##########################################################
# Query made at 12/27/2012 09:31:26 UTC
# Time interval: from 01/01/2010 00:00  to 01/31/2010 23:59  UTC
##########################################################

##########################################################
# EGLL, London / Heathrow Airport (United Kingdom)
# WMO index: 03772
# Latitude 51-29N. Longitude 000-27W. Altitude 24 m.
##########################################################

###################################
#  METAR/SPECI from EGLL
###################################
201001312350 METAR COR EGLL 312350Z 27007KT CAVOK M01/M02 Q1008 NOSIG=
201001312320 METAR COR EGLL 312320Z 27008KT 9999 FEW038 M00/M02 Q1008
                        NOSIG=
201001312250 METAR COR EGLL 312250Z 27008KT CAVOK M00/M02 Q1008 NOSIG=
201001312220 METAR COR EGLL 312220Z 27008KT CAVOK 00/M01 Q1008 NOSIG=
201001312150 METAR COR EGLL 312150Z 27008KT CAVOK 00/M01 Q1008 NOSIG=
201001312120 METAR COR EGLL 312120Z 27008KT CAVOK 01/M01 Q1008 NOSIG=
201001312050 METAR COR EGLL 312050Z 27008KT CAVOK 01/M02 Q1007 NOSIG=
201001312020 METAR COR EGLL 312020Z 27007KT CAVOK 00/M02 Q1007 NOSIG=
201001311950 METAR COR EGLL 311950Z 27007KT CAVOK 01/M02 Q1007 NOSIG=
201001311920 METAR COR EGLL 311920Z 27007KT CAVOK 01/M02 Q1007 NOSIG=
201001311850 METAR COR EGLL 311850Z 27006KT CAVOK 02/M01 Q1007 NOSIG=
201001311820 METAR COR EGLL 311820Z 28006KT CAVOK 01/M02 Q1007 NOSIG=
201001311750 METAR COR EGLL 311750Z 28007KT CAVOK 02/M02 Q1007 NOSIG=
201001311720 METAR COR EGLL 311720Z 27007KT 9999 FEW022 02/M02 Q1006 NOSIG=
201001311650 METAR COR EGLL 311650Z 28008KT 9999 FEW022 02/M02 Q1006 NOSIG=
201001311620 METAR COR EGLL 311620Z 29005KT 250V320 9999 SCT025 03/M01
                        Q1006 NOSIG=
201001311550 METAR COR EGLL 311550Z 29008KT 9999 SCT025 03/M02 Q1006 NOSIG=
201001311520 METAR COR EGLL 311520Z 28009KT 9999 FEW048 04/M02 Q1005 NOSIG=
201001311450 METAR COR EGLL 311450Z 29008KT 9999 FEW045 04/M01 Q1005 NOSIG=
201001311420 METAR COR EGLL 311420Z 28009KT 9999 FEW041 04/M01 Q1005 NOSIG=
201001311350 METAR COR EGLL 311350Z 26012KT 9999 FEW022 04/M01 Q1005 NOSIG=
201001311320 METAR COR EGLL 311320Z 27009KT CAVOK 03/M01 Q1005 NOSIG=
201001311250 METAR COR EGLL 311250Z 28009KT 9999 FEW045 03/M02 Q1005 NOSIG=
201001311220 METAR COR EGLL 311220Z 27009KT CAVOK 03/M02 Q1005 NOSIG=
201001311150 METAR COR EGLL 311150Z 27009KT CAVOK 03/M02 Q1005 NOSIG=
201001311120 METAR COR EGLL 311120Z 26010KT 9999 FEW046 02/M02 Q1006 NOSIG=
201001311050 METAR COR EGLL 311050Z 27009KT 9999 FEW046 01/M02 Q1005 NOSIG=
201001311020 METAR COR EGLL 311020Z 27010KT 9999 SCT047 01/M03 Q1005 NOSIG=
201001310950 METAR COR EGLL 310950Z 27007KT 9999 SCT048 M00/M03 Q1005
                        NOSIG=
201001310920 METAR COR EGLL 310920Z 27008KT 9999 SCT024 M01/M04 Q1005
                        NOSIG=
201001310850 METAR COR EGLL 310850Z 27005KT 9999 FEW042 M01/M04 Q1005
                        NOSIG=
201001310820 METAR COR EGLL 310820Z 26008KT 9999 FEW026 M02/M04 Q1005
                        NOSIG=
201001310750 METAR COR EGLL 310750Z 26007KT 9999 FEW024 M02/M05 Q1005
                        NOSIG=
201001310720 METAR COR EGLL 310720Z 27006KT 9999 FEW024 M03/M05 Q1005
                        NOSIG=
201001310650 METAR COR EGLL 310650Z 28005KT CAVOK M02/M05 Q1005 NOSIG=
201001310620 METAR COR EGLL 310620Z 27006KT CAVOK M02/M04 Q1005 NOSIG=
201001310550 METAR COR EGLL 310550Z 26006KT CAVOK M03/M05 Q1005 NOSIG=
201001310520 METAR COR EGLL 310520Z 26005KT CAVOK M02/M04 Q1005 NOSIG=
201001310450 METAR EGLL 310450Z 26006KT CAVOK M02/M05 Q1005=
201001310420 METAR COR EGLL 310420Z 27005KT CAVOK M02/M04 Q1005 NOSIG=
201001310350 METAR EGLL 310350Z 25005KT CAVOK M02/M05 Q1005=
201001310320 METAR COR EGLL 310320Z 26004KT CAVOK M02/M04 Q1005 NOSIG=
201001310250 METAR EGLL 310250Z 27006KT CAVOK M03/M05 Q1005=
201001310220 METAR COR EGLL 310220Z 27007KT CAVOK M03/M05 Q1005 NOSIG=
201001310150 METAR COR EGLL 310150Z 27008KT CAVOK M03/M05 Q1005 NOSIG=
201001310120 METAR COR EGLL 310120Z 27007KT CAVOK M02/M05 Q1005 NOSIG=
201001310050 METAR EGLL 310050Z 27006KT CAVOK M02/M04 Q1005=
201001310020 METAR COR EGLL 310020Z 27005KT CAVOK M02/M04 Q1005 NOSIG=
201001302350 METAR COR EGLL 302350Z 28006KT CAVOK M03/M05 Q1005 NOSIG=
201001302320 METAR COR EGLL 302320Z 27005KT CAVOK M02/M05 Q1005 NOSIG=
201001302250 METAR COR EGLL 302250Z 27005KT CAVOK M01/M04 Q1005 NOSIG=
201001302220 METAR COR EGLL 302220Z 28006KT CAVOK M00/M04 Q1005 NOSIG=
201001302150 METAR COR EGLL 302150Z 28006KT CAVOK M00/M04 Q1004 NOSIG=
201001302120 METAR COR EGLL 302120Z 27006KT CAVOK M00/M03 Q1004 NOSIG=
201001302050 METAR COR EGLL 302050Z 27005KT CAVOK M00/M04 Q1004 NOSIG=
201001302020 METAR COR EGLL 302020Z 29006KT CAVOK 01/M03 Q1004 NOSIG=
201001301950 METAR COR EGLL 301950Z 27007KT CAVOK 00/M03 Q1004 NOSIG=
201001301920 METAR COR EGLL 301920Z 27008KT CAVOK 01/M03 Q1004 NOSIG=
201001301850 METAR COR EGLL 301850Z 28006KT CAVOK 01/M03 Q1004 NOSIG=
201001301820 METAR COR EGLL 301820Z 28006KT 9999 FEW035 01/M03 Q1004 NOSIG=
201001301750 METAR COR EGLL 301750Z 29007KT 9999 BKN038 02/M03 Q1003 NOSIG=
201001301720 METAR COR EGLL 301720Z 29007KT 9999 BKN035 03/M03 Q1003 NOSIG=
201001301650 METAR COR EGLL 301650Z 29007KT 9999 BKN032 03/M03 Q1003 NOSIG=
201001301620 METAR COR EGLL 301620Z 29008KT 9999 BKN032 03/M03 Q1002 NOSIG=
201001301550 METAR COR EGLL 301550Z 29008KT 9999 SCT030 03/M04 Q1002 NOSIG=
201001301520 METAR COR EGLL 301520Z 28008KT 9999 FEW030 03/M04 Q1002 NOSIG=
201001301450 METAR COR EGLL 301450Z 29008KT 9999 FEW029 03/M03 Q1002 NOSIG=
201001301420 METAR COR EGLL 301420Z 30006KT 270V330 9999 FEW024 03/M03
                        Q1001 NOSIG=
201001301350 METAR COR EGLL 301350Z 28009KT 250V330 9999 FEW026 03/M03
                        Q1001 NOSIG=
201001301320 METAR COR EGLL 301320Z 29005KT 250V330 9999 FEW027 03/M03
                        Q1001 NOSIG=
201001301250 METAR COR EGLL 301250Z 30004KT 260V340 9999 FEW026 03/M03
                        Q1001 NOSIG=
201001301220 METAR COR EGLL 301220Z 34005KT 280V020 CAVOK 03/M04 Q1001
                        NOSIG=
201001301150 METAR COR EGLL 301150Z VRB05KT CAVOK 02/M04 Q1001 NOSIG=
201001301120 METAR COR EGLL 301120Z 32006KT 290V020 CAVOK 02/M04 Q1001
                        NOSIG=
201001301050 METAR COR EGLL 301050Z 33006KT 280V010 CAVOK 01/M04 Q1001
                        NOSIG=
201001301020 METAR COR EGLL 301020Z 33006KT 300V360 CAVOK 01/M05 Q1001
                        NOSIG=
201001300950 METAR COR EGLL 300950Z 32005KT 280V350 CAVOK 00/M05 Q1000
                        NOSIG=
201001300920 METAR COR EGLL 300920Z 31007KT 9999 FEW023 M00/M05 Q1000
                        NOSIG=
201001300850 METAR COR EGLL 300850Z 30005KT 9999 FEW023 M01/M05 Q1000
                        NOSIG=
201001300820 METAR COR EGLL 300820Z 28004KT 9999 FEW023 M01/M05 Q0999
                        NOSIG=
201001300750 METAR COR EGLL 300750Z 29004KT 9999 FEW023 M01/M05 Q0999
                        NOSIG=
201001300720 METAR COR EGLL 300720Z 30004KT 9999 SCT024 M01/M05 Q0999
                        NOSIG=
201001300650 METAR EGLL 300650Z 29005KT 270V330 9999 SCT031 BKN035 M01/M05
                        Q0998=
201001300620 METAR COR EGLL 300620Z 31006KT 280V340 9999 SCT037 SCT045
                        M01/M05 Q0998 NOSIG=
201001300550 METAR COR EGLL 300550Z 32008KT 9999 FEW037 M01/M05 Q0997
                        TEMPO 3000 -SHSN=
201001300520 METAR COR EGLL 300520Z 32008KT 9999 FEW043 M01/M05 Q0997
                        TEMPO 3000 -SHSN=
201001300450 METAR COR EGLL 300450Z 31009KT 9999 FEW041 M00/M06 Q0996
                        NOSIG=
201001300420 METAR COR EGLL 300420Z 30009KT 9999 SCT041 M01/M06 Q0996
                        NOSIG=
201001300350 METAR COR EGLL 300350Z 31009KT CAVOK M01/M05 Q0996 NOSIG=
201001300320 METAR COR EGLL 300320Z 30009KT CAVOK M01/M05 Q0996 NOSIG=
201001300250 METAR COR EGLL 300250Z 29008KT CAVOK M01/M04 Q0996 NOSIG=
201001300220 METAR COR EGLL 300220Z 28009KT 9999 FEW040 M02/M04 Q0996
                        NOSIG=
201001300150 METAR EGLL 300150Z NIL=
201001300120 METAR COR EGLL 300120Z 29007KT CAVOK M01/M04 Q0995 NOSIG=
201001300050 METAR COR EGLL 300050Z 30005KT CAVOK M01/M04 Q0995 NOSIG=
201001300020 METAR COR EGLL 300020Z 27006KT CAVOK M02/M04 Q0996 NOSIG=
201001292350 METAR COR EGLL 292350Z 29007KT CAVOK M01/M04 Q0996 NOSIG=
201001292320 METAR COR EGLL 292320Z 29008KT CAVOK M00/M04 Q0996 NOSIG=
201001292250 METAR COR EGLL 292250Z 29007KT CAVOK 00/M04 Q0996 NOSIG=
201001292220 METAR COR EGLL 292220Z 29008KT CAVOK 01/M03 Q0996 NOSIG=
201001292150 METAR COR EGLL 292150Z 29008KT CAVOK 00/M02 Q0996 NOSIG=
201001292120 METAR COR EGLL 292120Z 29007KT CAVOK 01/M02 Q0996 NOSIG=
201001292050 METAR COR EGLL 292050Z 30007KT 9999 FEW040 01/M03 Q0996 NOSIG=
201001292020 METAR COR EGLL 292020Z 30008KT 9999 FEW042 01/M03 Q0996 NOSIG=
201001291950 METAR COR EGLL 291950Z 29006KT 9999 FEW040 02/M04 Q0995 NOSIG=
201001291920 METAR COR EGLL 291920Z 31006KT 9999 FEW040 02/M05 Q0995 NOSIG=
201001291850 METAR COR EGLL 291850Z 32007KT 9999 FEW040 02/M05 Q0995 NOSIG=
201001291820 METAR COR EGLL 291820Z 31007KT 9999 FEW030 02/M05 Q0994 NOSIG=
201001291750 METAR COR EGLL 291750Z 31006KT 280V340 9999 FEW030 03/M04
                        Q0994 NOSIG=
201001291720 METAR COR EGLL 291720Z 32008KT 280V360 9999 FEW040 03/M05
                        Q0994 NOSIG=
201001291650 METAR EGLL 291650Z 33006KT 290V360 9999 SCT020 03/M04 Q0993=
201001291620 METAR COR EGLL 291620Z 33010KT 290V010 9999 FEW012 SCT020
                        04/M04 Q0993 NOSIG=
201001291550 METAR COR EGLL 291550Z 33008KT 300V360 9999 FEW012 SCT020
                        03/M02 Q0993 NOSIG=
201001291520 METAR COR EGLL 291520Z 34013G23KT 310V020 9999 3000SE -SHSN
                        FEW008 SCT025 03/M02 Q0992 NOSIG=
201001291450 METAR COR EGLL 291450Z 35010KT 300V030 9999 SCT045 04/M03
                        Q0992 NOSIG=
201001291420 METAR COR EGLL 291420Z 34009KT 300V010 9999 VCSH SCT030 SCT040
                        05/M01 Q0992 NOSIG=
201001291350 METAR COR EGLL 291350Z 34010KT 300V030 9999 SCT024 05/M00
                        Q0991 TEMPO -SHRASN BKN014=
201001291320 METAR COR EGLL 291320Z 35011KT 9999 SCT020 SCT030 05/00 Q0991
                        NOSIG=
201001291250 METAR COR EGLL 291250Z 34008KT 300V030 9999 FEW012 SCT030
                        05/02 Q0991 NOSIG=
201001291220 METAR COR EGLL 291220Z 36009KT 9999 VCSH SCT020 SCT030 05/02
                        Q0991 NOSIG=
201001291150 METAR EGLL 291150Z 35008KT 300V010 9999 VCSH SCT020 SCT040
                        05/02 Q0991=
201001291120 METAR COR EGLL 291120Z 35009KT 290V010 9999 FEW017 SCT032
                        05/03 Q0991 NOSIG=
201001291050 METAR COR EGLL 291050Z 34008KT 300V020 9999 SCT013 SCT021
                        05/03 Q0991 NOSIG=
201001291020 METAR COR EGLL 291020Z 34007KT 310V010 9999 FEW013 BKN016
                        05/03 Q0991 NOSIG=
201001290950 METAR COR EGLL 290950Z 35006KT 9999 FEW010 BKN013 05/03 Q0990
                        BECMG SCT018=
201001290920 METAR COR EGLL 290920Z 34007KT 310V010 9999 FEW010 SCT021
                        05/03 Q0990 NOSIG=
201001290850 METAR COR EGLL 290850Z 36006KT 340V040 9000 -RA SCT008 BKN020
                        04/03 Q0990 TEMPO BKN008=
201001290820 METAR COR EGLL 290820Z 35005KT 7000 -RA FEW005 SCT015 BKN023
                        05/04 Q0990 TEMPO BKN008=
201001290750 METAR COR EGLL 290750Z 35003KT 9000 -RA FEW005 BKN015 05/04
                        Q0989 TEMPO BKN008=
201001290720 METAR COR EGLL 290720Z 04003KT 9999 -RA SCT010 SCT025 05/04
                        Q0989 TEMPO BKN010=
201001290650 METAR COR EGLL 290650Z 29003KT 9999 RA FEW008 BKN010 05/04
                        Q0990 BECMG SCT010=
201001290620 METAR COR EGLL 290620Z 22004KT 160V260 9000 -RA FEW005 SCT012
                        BKN029 05/04 Q0990 TEMPO 4000 BR
                        -RADZ BKN008=
201001290550 METAR COR EGLL 290550Z 19004KT 170V240 6000 RA FEW005 BKN012
                        04/03 Q0991 TEMPO 4000 BKN008=
201001290520 METAR COR EGLL 290520Z 20004KT 170V250 6000 RA FEW005 BKN007
                        04/03 Q0992 TEMPO 4000=
201001290450 METAR COR EGLL 290450Z 20005KT 160V230 6000 RA FEW004 BKN009
                        04/03 Q0992 TEMPO 4000=
201001290420 METAR COR EGLL 290420Z 21005KT 7000 RA FEW015 BKN018 04/03
                        Q0993 TEMPO BKN014=
201001290350 METAR COR EGLL 290350Z 21006KT 7000 RA FEW018 BKN023 04/03
                        Q0994 BECMG BKN014=
201001290320 METAR COR EGLL 290320Z 26009KT 9000 RA SCT015 BKN030 05/03
                        Q0996 RERA BECMG BKN014=
201001290250 METAR COR EGLL 290250Z 25013KT 9999 -RA FEW020 BKN023 05/03
                        Q0997 TEMPO 4000 RA BKN014=
201001290220 METAR COR EGLL 290220Z 25012KT 9000 SCT043 05/03 Q0997 TEMPO
                        4000 RA=
201001290150 METAR COR EGLL 290150Z 24012KT 9999 FEW042 05/03 Q0998 NOSIG=
201001290120 METAR COR EGLL 290120Z 25011KT 9999 SCT045 05/02 Q0999 NOSIG=
201001290050 METAR COR EGLL 290050Z 25011KT 9999 SCT039 05/02 Q1000 NOSIG=
201001290020 METAR COR EGLL 290020Z 26011KT 9999 SCT040 05/02 Q1001 NOSIG=
201001282350 METAR COR EGLL 282350Z 25009KT 9999 FEW043 05/03 Q1001 NOSIG=
201001282320 METAR COR EGLL 282320Z 25009KT 9999 FEW043 05/03 Q1002 NOSIG=
201001282250 METAR EGLL 282250Z 25009KT 9999 FEW042 05/03 Q1003=
201001282220 METAR COR EGLL 282220Z 24010KT 9999 FEW035 05/03 Q1004 NOSIG=
201001282150 METAR COR EGLL 282150Z 26008KT 9999 -RA SCT031 SCT036 05/03
                        Q1005 NOSIG=
201001282120 METAR COR EGLL 282120Z 26009KT 9999 -RA FEW020 SCT024 BKN030
                        06/04 Q1006 NOSIG=
201001282050 METAR EGLL 282050Z 26009KT 9999 -RA FEW025 BKN030 06/03 Q1006=
201001282020 METAR COR EGLL 282020Z 27008KT 9999 -SHRA FEW024 BKN035 05/03
                        Q1007 NOSIG=
201001281950 METAR COR EGLL 281950Z 27008KT 9999 SCT025 BKN029 05/03 Q1007
                        NOSIG=
201001281920 METAR COR EGLL 281920Z 27008KT 9999 FEW022 BKN026 05/03 Q1008
                        NOSIG=
201001281850 METAR COR EGLL 281850Z 28011KT 9999 -DZ BKN029 06/03 Q1008
                        NOSIG=
201001281820 METAR COR EGLL 281820Z 27009KT 9999 FEW020 SCT038 06/03 Q1008
                        NOSIG=
201001281750 METAR COR EGLL 281750Z 29006KT 9999 FEW028 BKN042 06/03 Q1009
                        NOSIG=
201001281720 METAR COR EGLL 281720Z 28008KT 9999 FEW030 BKN049 06/02 Q1009
                        NOSIG=
201001281650 METAR COR EGLL 281650Z 27007KT 9999 SCT028 BKN045 06/02 Q1009
                        NOSIG=
201001281620 METAR EGLL 281620Z 29008KT 9999 FEW030 SCT033 BKN047 07/02
                        Q1010=
201001281550 METAR EGLL 281550Z 29009KT 9999 FEW038 BKN048 07/02 Q1010=
201001281520 METAR EGLL 281520Z 29009KT 9999 FEW028 BKN048 07/01 Q1010=
201001281450 METAR COR EGLL 281450Z 31008KT 280V340 9999 SCT028 BKN045
                        07/01 Q1011 NOSIG=
201001281420 METAR COR EGLL 281420Z 32008KT 290V360 9999 SCT027 07/01
                        Q1011 NOSIG=
201001281350 METAR COR EGLL 281350Z 30008KT 9999 SCT027 SCT038 07/01 Q1012
                        NOSIG=
201001281320 METAR COR EGLL 281320Z 31008KT 280V350 9999 SCT024 07/01
                        Q1012 NOSIG=
201001281250 METAR COR EGLL 281250Z 30009KT 270V330 9999 FEW027 SCT038
                        07/01 Q1013 NOSIG=
201001281220 METAR EGLL 281220Z 30009KT 280V340 9999 FEW024 06/01 Q1014=
201001281150 METAR COR EGLL 281150Z 30008KT 9999 FEW023 06/02 Q1014 NOSIG=
201001281120 METAR COR EGLL 281120Z 30008KT CAVOK 06/02 Q1014 NOSIG=
201001281050 METAR EGLL 281050Z 30008KT CAVOK 06/02 Q1015=
201001281020 METAR EGLL 281020Z 30008KT CAVOK 06/02 Q1015=
201001280950 METAR COR EGLL 280950Z 30008KT 9999 FEW020 05/02 Q1015 NOSIG=
201001280920 METAR COR EGLL 280920Z 30006KT CAVOK 05/02 Q1015 NOSIG=
201001280850 METAR COR EGLL 280850Z 29006KT CAVOK 05/02 Q1015 NOSIG=
201001280820 METAR COR EGLL 280820Z 28006KT 9000 NSC 05/02 Q1015 NOSIG=
201001280750 METAR COR EGLL 280750Z 29006KT 9000 NSC 05/02 Q1015 NOSIG=
201001280720 METAR COR EGLL 280720Z 30007KT 9000 NSC 05/02 Q1015 NOSIG=
201001280650 METAR COR EGLL 280650Z 30006KT 9000 NSC 04/02 Q1015 NOSIG=
201001280620 METAR COR EGLL 280620Z 30006KT CAVOK 04/02 Q1016 NOSIG=
201001280550 METAR COR EGLL 280550Z 32005KT 290V350 CAVOK 04/02 Q1016
                        NOSIG=
201001280520 METAR COR EGLL 280520Z 31006KT 280V350 CAVOK 04/02 Q1016
                        NOSIG=
201001280450 METAR COR EGLL 280450Z 31005KT 270V340 CAVOK 04/02 Q1016
                        NOSIG=
201001280420 METAR COR EGLL 280420Z 29005KT CAVOK 04/02 Q1016 NOSIG=
201001280350 METAR COR EGLL 280350Z 31005KT CAVOK 04/02 Q1016 NOSIG=
201001280320 METAR EGLL 280320Z 32005KT CAVOK 04/02 Q1016=
201001280250 METAR COR EGLL 280250Z 32005KT CAVOK 05/02 Q1017 NOSIG=
201001280220 METAR COR EGLL 280220Z 33006KT 290V010 CAVOK 05/02 Q1017
                        NOSIG=
201001280150 METAR COR EGLL 280150Z 32007KT 280V360 CAVOK 05/02 Q1017
                        NOSIG=
201001280120 METAR COR EGLL 280120Z 31007KT 280V340 9999 BKN025 06/03
                        Q1017 NOSIG=
201001280050 METAR COR EGLL 280050Z 32007KT 9999 BKN021 06/03 Q1017 NOSIG=
201001280020 METAR COR EGLL 280020Z 32007KT 9999 BKN020 06/03 Q1018 NOSIG=
201001272350 METAR COR EGLL 272350Z 32007KT 9999 BKN020 06/03 Q1018 NOSIG=
201001272320 METAR COR EGLL 272320Z 32008KT 9999 BKN027 06/02 Q1018 NOSIG=
201001272250 METAR COR EGLL 272250Z 32010KT 280V350 9999 SCT025 07/02
                        Q1018 NOSIG=
201001272220 METAR COR EGLL 272220Z 31012KT 280V340 9999 FEW016 SCT030
                        07/03 Q1018 NOSIG=
201001272150 METAR COR EGLL 272150Z 29007KT 9000 SCT020 BKN030 07/05 Q1018
                        NOSIG=
201001272120 METAR COR EGLL 272120Z 28010KT 8000 FEW020 BKN040 06/04 Q1019
                        NOSIG=
201001272050 METAR COR EGLL 272050Z 28011KT 7000 SCT022 BKN043 06/04 Q1019
                        NOSIG=
201001272020 METAR COR EGLL 272020Z 28010KT 7000 SCT019 BKN044 06/04 Q1020
                        NOSIG=
201001271950 METAR COR EGLL 271950Z 27011KT 4900 HZ BKN011 06/04 Q1020
                        TEMPO 5000 SCT011=
201001271920 METAR COR EGLL 271920Z 26011KT 4500 HZ FEW012 BKN025 05/04
                        Q1020 BECMG 5000=
201001271850 METAR COR EGLL 271850Z 27011KT 4800 HZ SCT013 BKN025 05/03
                        Q1021 BECMG 5000=
201001271820 METAR COR EGLL 271820Z 27009KT 4800 BR SCT015 BKN021 05/03
                        Q1021 TEMPO 5000 BKN014=
201001271750 METAR COR EGLL 271750Z 26011KT 5000 BR BKN010 BKN020 05/03
                        Q1022 BECMG BKN015=
201001271720 METAR COR EGLL 271720Z 26012KT 4000 BR BKN008 04/03 Q1022
                        BECMG BKN012=
201001271650 METAR COR EGLL 271650Z 26013KT 2400 DZ SCT012 BKN015 04/02
                        Q1023 BECMG 5000=
201001271620 METAR COR EGLL 271620Z 25013KT 4800 HZ SCT022 SCT047 05/01
                        Q1023 BECMG 7000=
201001271550 METAR COR EGLL 271550Z 25012KT 7000 SCT043 05/01 Q1024 NOSIG=
201001271520 METAR COR EGLL 271520Z 26012KT 7000 NSC 04/01 Q1025 NOSIG=
201001271450 METAR COR EGLL 271450Z 25014KT 7000 FEW023 04/00 Q1026 TEMPO
                        BKN014=
201001271420 METAR COR EGLL 271420Z 25010KT 230V290 6000 NSC 04/00 Q1026
                        NOSIG=
201001271350 METAR COR EGLL 271350Z 23008KT 200V260 6000 FEW018 03/M00
                        Q1027 BECMG BKN014=
201001271320 METAR COR EGLL 271320Z 23012KT 7000 FEW018 BKN027 02/M01
                        Q1028 NOSIG=
201001271250 METAR COR EGLL 271250Z 25012KT 6000 FEW017 BKN023 02/M01
                        Q1029 NOSIG=
201001271220 METAR COR EGLL 271220Z 26012KT 5000 -RA BKN021 02/M02 Q1030
                        NOSIG=
201001271150 METAR COR EGLL 271150Z 27012KT 9000 BKN023 02/M03 Q1031 NOSIG=
201001271120 METAR COR EGLL 271120Z 26010KT 9000 BKN025 02/M04 Q1031 NOSIG=
201001271050 METAR COR EGLL 271050Z 27012KT 9000 FEW025 BKN030 02/M04
                        Q1032 NOSIG=
201001271020 METAR COR EGLL 271020Z 27010KT 8000 FEW025 BKN035 02/M05
                        Q1032 NOSIG=
201001270950 METAR COR EGLL 270950Z 25009KT 7000 BKN037 01/M04 Q1033 NOSIG=
201001270920 METAR COR EGLL 270920Z 24009KT 200V270 6000 BKN038 01/M03
                        Q1034 NOSIG=
201001270850 METAR COR EGLL 270850Z 24009KT 6000 BKN047 00/M03 Q1035 NOSIG=
201001270820 METAR COR EGLL 270820Z 26008KT 6000 BKN042 00/M03 Q1035 NOSIG=
201001270750 METAR COR EGLL 270750Z 27008KT 6000 NSC M00/M03 Q1035 NOSIG=
201001270720 METAR COR EGLL 270720Z 26008KT 6000 NSC M00/M03 Q1036 NOSIG=
201001270650 METAR COR EGLL 270650Z 26006KT 5000 HZ NSC M01/M03 Q1036
                        TEMPO 4500=
201001270620 METAR COR EGLL 270620Z 25006KT 5000 HZ NSC M01/M03 Q1036
                        TEMPO 4500=
201001270550 METAR COR EGLL 270550Z 26004KT 4600 HZ NSC M01/M03 Q1037
                        NOSIG=
201001270520 METAR COR EGLL 270520Z 27004KT 4600 HZ NSC M01/M03 Q1037
                        TEMPO 5000=
201001270450 METAR COR EGLL 270450Z VRB03KT 4500 HZ NSC M01/M03 Q1038
                        NOSIG=
201001270420 METAR COR EGLL 270420Z 29004KT 4900 HZ NSC M02/M03 Q1038
                        TEMPO 5000=
201001270350 METAR COR EGLL 270350Z 25002KT 6000 NSC M02/M04 Q1038 NOSIG=
201001270320 METAR COR EGLL 270320Z 33003KT 6000 NSC M02/M04 Q1039 NOSIG=
201001270250 METAR COR EGLL 270250Z VRB03KT 4900 HZ NSC M03/M04 Q1039
                        TEMPO 5000=
201001270220 METAR COR EGLL 270220Z VRB02KT 4800 HZ NSC M03/M04 Q1039
                        NOSIG=
201001270150 METAR COR EGLL 270150Z 34003KT 4800 HZ NSC M02/M04 Q1040
                        TEMPO 5000=
201001270120 METAR COR EGLL 270120Z 00000KT 4900 HZ NSC M02/M04 Q1040
                        NOSIG=
201001270050 METAR COR EGLL 270050Z 33003KT 5000 HZ NSC M02/M04 Q1040
                        TEMPO 4000=
201001270020 METAR COR EGLL 270020Z VRB03KT 5000 HZ NSC M02/M04 Q1041
                        NOSIG=
201001262350 METAR COR EGLL 262350Z 34003KT 6000 NSC M02/M04 Q1041 NOSIG=
201001262320 METAR COR EGLL 262320Z VRB03KT 6000 NSC M01/M04 Q1041 NOSIG=
201001262250 METAR COR EGLL 262250Z 02003KT 6000 NSC M01/M03 Q1041 NOSIG=
201001262220 METAR COR EGLL 262220Z 03003KT 6000 NSC M00/M03 Q1041 NOSIG=
201001262150 METAR COR EGLL 262150Z 04004KT 6000 NSC M00/M03 Q1041 NOSIG=
201001262120 METAR COR EGLL 262120Z 06005KT 6000 NSC 00/M03 Q1042 NOSIG=
201001262050 METAR COR EGLL 262050Z 04004KT 6000 NSC M00/M03 Q1042 NOSIG=
201001262020 METAR COR EGLL 262020Z 03004KT 6000 NSC M00/M03 Q1042 NOSIG=
201001261950 METAR EGLL 261950Z 03005KT 350V060 6000 NSC M00/M03 Q1042=
201001261920 METAR COR EGLL 261920Z 04006KT 6000 NSC 00/M03 Q1042 NOSIG=
201001261850 METAR COR EGLL 261850Z 04005KT 7000 NSC 00/M03 Q1042 NOSIG=
201001261820 METAR COR EGLL 261820Z 04005KT 7000 NSC 01/M03 Q1041 NOSIG=
201001261750 METAR COR EGLL 261750Z 04005KT 010V070 7000 NSC 01/M03 Q1041
                        NOSIG=
201001261720 METAR COR EGLL 261720Z 04005KT 360V070 8000 NSC 01/M03 Q1041
                        NOSIG=
201001261650 METAR COR EGLL 261650Z 04005KT 8000 NSC 01/M03 Q1041 NOSIG=
201001261620 METAR COR EGLL 261620Z 04006KT 8000 NSC 02/M03 Q1041 NOSIG=
201001261550 METAR COR EGLL 261550Z 04006KT 360V060 8000 NSC 02/M03 Q1040
                        NOSIG=
201001261520 METAR COR EGLL 261520Z 04007KT 9000 NSC 02/M03 Q1040 NOSIG=
201001261450 METAR COR EGLL 261450Z 05007KT 010V080 9000 NSC 02/M03 Q1040
                        NOSIG=
201001261420 METAR COR EGLL 261420Z 06007KT 8000 NSC 02/M03 Q1040 NOSIG=
201001261350 METAR COR EGLL 261350Z 05007KT 360V080 9000 FEW023 02/M03
                        Q1040 NOSIG=
201001261320 METAR COR EGLL 261320Z 05009KT 8000 FEW023 02/M03 Q1040 NOSIG=
201001261250 METAR COR EGLL 261250Z 04007KT 010V080 9000 SCT023 02/M03
                        Q1040 NOSIG=
201001261220 METAR COR EGLL 261220Z 05007KT 010V080 9000 SCT022 02/M03
                        Q1041 NOSIG=
201001261150 METAR COR EGLL 261150Z 04007KT 9000 SCT023 02/M03 Q1041 NOSIG=
201001261120 METAR COR EGLL 261120Z 03008KT 360V060 9000 BKN022 02/M03
                        Q1041 NOSIG=
201001261050 METAR COR EGLL 261050Z 06009KT 9000 BKN023 01/M03 Q1041 NOSIG=
201001261020 METAR COR EGLL 261020Z 07008KT 010V090 9000 BKN022 01/M04
                        Q1041 NOSIG=
201001260950 METAR COR EGLL 260950Z 06010KT 9000 BKN023 01/M04 Q1041 NOSIG=
201001260920 METAR COR EGLL 260920Z 07009KT 9000 BKN025 01/M03 Q1040 NOSIG=
201001260850 METAR COR EGLL 260850Z 04006KT 9000 OVC021 01/M03 Q1040 NOSIG=
201001260820 METAR COR EGLL 260820Z 03006KT 9000 BKN023 01/M03 Q1040 NOSIG=
201001260750 METAR COR EGLL 260750Z 04007KT 360V070 9000 BKN021 01/M03
                        Q1040 NOSIG=
201001260720 METAR COR EGLL 260720Z 04008KT 010V070 8000 BKN020 01/M03
                        Q1040 NOSIG=
201001260650 METAR COR EGLL 260650Z 06008KT 8000 SCT011 BKN014 01/M02
                        Q1039 BECMG SCT014 BKN025=
201001260620 METAR COR EGLL 260620Z 05008KT 350V080 6000 SCT011 SCT013
                        BKN015 02/M01 Q1039 TEMPO BKN012=
201001260550 METAR COR EGLL 260550Z 03007KT 340V070 8000 SCT014 SCT018
                        BKN020 02/M01 Q1039 TEMPO BKN013=
201001260520 METAR COR EGLL 260520Z 04005KT 360V070 8000 FEW013 BKN014
                        02/M01 Q1039 TEMPO SCT014 BKN020=
201001260450 METAR COR EGLL 260450Z 03006KT 360V060 7000 FEW013 BKN015
                        02/M01 Q1039 TEMPO BKN012=
201001260420 METAR COR EGLL 260420Z 05007KT 6000 BKN015 02/M00 Q1038 TEMPO
                        BKN013=
201001260350 METAR COR EGLL 260350Z 03006KT 360V060 5000 HZ FEW017 BKN019
                        02/M00 Q1038 NOSIG=
201001260320 METAR COR EGLL 260320Z 04006KT 360V080 5000 HZ FEW015 BKN019
                        02/M00 Q1038 NOSIG=
201001260250 METAR COR EGLL 260250Z 03004KT 360V080 4300 BR FEW009 BKN017
                        02/00 Q1038 BECMG 6000 NSW=
201001260220 METAR COR EGLL 260220Z 03004KT 340V060 4000 HZ FEW012 OVC014
                        02/01 Q1038 BECMG 6000 NSW BKN018=
201001260150 METAR COR EGLL 260150Z 02004KT 340V050 3500 BR SCT011 OVC014
                        02/01 Q1038 TEMPO BKN011=
201001260120 METAR COR EGLL 260120Z VRB03KT 4300 BR SCT011 SCT016 OVC020
                        02/00 Q1038 TEMPO 3500 BKN012=
201001260050 METAR COR EGLL 260050Z 35004KT 320V020 5000 BR FEW013 BKN024
                        02/M00 Q1038 TEMPO 3500 BKN012=
201001260020 METAR COR EGLL 260020Z 36004KT 320V040 5000 BR OVC028 02/M00
                        Q1038 TEMPO 3500=
201001252350 METAR COR EGLL 252350Z 36004KT 320V030 7000 FEW019 BKN024
                        02/M01 Q1038 NOSIG=
201001252320 METAR COR EGLL 252320Z 36004KT 330V040 7000 FEW018 BKN025
                        02/M01 Q1037 NOSIG=
201001252250 METAR COR EGLL 252250Z 35004KT 7000 FEW020 OVC029 02/M01
                        Q1037 NOSIG=
201001252220 METAR COR EGLL 252220Z 04005KT 8000 FEW023 BKN032 03/M02
                        Q1037 NOSIG=
201001252150 METAR COR EGLL 252150Z 06005KT 030V090 8000 BKN024 02/M02
                        Q1037 NOSIG=
201001252120 METAR COR EGLL 252120Z 03006KT 340V070 6000 OVC018 02/M01
                        Q1037 TEMPO BKN014=
201001252050 METAR COR EGLL 252050Z 05007KT 020V080 7000 OVC019 03/M01
                        Q1037 TEMPO BKN014=
201001252020 METAR COR EGLL 252020Z 04007KT 7000 OVC020 03/M01 Q1036 TEMPO
                        BKN014=
201001251950 METAR COR EGLL 251950Z 04006KT 010V070 7000 OVC020 03/M01
                        Q1036 TEMPO BKN014=
201001251920 METAR COR EGLL 251920Z 04008KT 350V070 9999 OVC022 03/M01
                        Q1036 NOSIG=
201001251850 METAR COR EGLL 251850Z 05007KT 9999 OVC022 03/M01 Q1035 NOSIG=
201001251820 METAR COR EGLL 251820Z 04007KT 010V080 9999 OVC025 03/M01
                        Q1035 NOSIG=
201001251750 METAR COR EGLL 251750Z 02006KT 340V060 8000 BKN027 03/00
                        Q1035 NOSIG=
201001251720 METAR COR EGLL 251720Z 02006KT 8000 SCT027 BKN031 03/M00
                        Q1034 NOSIG=
201001251650 METAR COR EGLL 251650Z VRB03KT 8000 FEW030 SCT037 03/M00
                        Q1034 NOSIG=
201001251620 METAR COR EGLL 251620Z 02004KT 350V060 9000 FEW025 SCT033
                        04/M00 Q1033 NOSIG=
201001251550 METAR COR EGLL 251550Z 05005KT 340V090 9000 FEW023 BKN035
                        04/00 Q1033 NOSIG=
201001251520 METAR COR EGLL 251520Z 06006KT 010V080 9000 FEW022 BKN031
                        04/00 Q1033 NOSIG=
201001251450 METAR COR EGLL 251450Z 04006KT 010V080 8000 FEW021 BKN032
                        05/01 Q1032 NOSIG=
201001251420 METAR COR EGLL 251420Z 04007KT 350V080 7000 FEW018 BKN035
                        04/01 Q1032 NOSIG=
201001251350 METAR COR EGLL 251350Z 04007KT 360V070 7000 SCT017 BKN025
                        04/01 Q1032 NOSIG=
201001251320 METAR COR EGLL 251320Z 05009KT 020V080 7000 SCT015 BKN030
                        04/01 Q1032 NOSIG=
201001251250 METAR COR EGLL 251250Z 05009KT 9000 SCT022 BKN030 04/01 Q1032
                        NOSIG=
201001251220 METAR COR EGLL 251220Z 06007KT 010V090 6000 FEW016 SCT021
                        BKN027 04/01 Q1032 NOSIG=
201001251150 METAR COR EGLL 251150Z 05008KT 010V080 4500 BR SCT010 BKN021
                        04/02 Q1031 BECMG 5000 HZ=
201001251120 METAR COR EGLL 251120Z 05008KT 010V080 4000 BR FEW007 BKN009
                        04/02 Q1031 BECMG 5000 HZ SCT009=
201001251050 METAR COR EGLL 251050Z 04008KT 4500 HZ SCT007 BKN010 03/02
                        Q1031 BECMG 5000 SCT010=
201001251020 METAR COR EGLL 251020Z 04006KT 360V070 4300 -RADZ SCT007
                        BKN011 04/02 Q1031 TEMPO 5000 HZ
                        SCT011=
201001250950 METAR COR EGLL 250950Z 03007KT 360V060 4000 -RADZ BKN008
                        BKN012 04/03 Q1030 TEMPO 5000 HZ=
201001250920 METAR COR EGLL 250920Z 04006KT 4500 BR FEW004 SCT010 BKN018
                        04/03 Q1030 TEMPO BKN008=
201001250850 METAR COR EGLL 250850Z 03005KT 360V070 2000 BR FEW004 BKN005
                        04/03 Q1029 TEMPO 3000=
201001250820 METAR COR EGLL 250820Z 36004KT 330V050 2000 BR BKN005 04/03
                        Q1029 TEMPO 3000=
201001250750 METAR COR EGLL 250750Z 36005KT 320V040 5000 -RA BKN007 04/02
                        Q1028 NOSIG=
201001250720 METAR COR EGLL 250720Z 36005KT 330V060 6000 -RA FEW006 BKN007
                        04/02 Q1028 TEMPO 4000 BKN004=
201001250650 METAR COR EGLL 250650Z 36004KT 330V060 9000 SCT007 BKN009
                        04/02 Q1027 TEMPO 4000 BR BKN004=
201001250620 METAR COR EGLL 250620Z 36005KT 330V050 9999 SCT008 BKN010
                        03/02 Q1027 TEMPO BKN007=
201001250550 METAR COR EGLL 250550Z VRB03KT 9999 FEW008 BKN010 04/02 Q1026
                        TEMPO BKN008=
201001250520 METAR COR EGLL 250520Z 36004KT 340V040 9999 SCT008 OVC010
                        03/02 Q1026 TEMPO 4000 BR BKN007=
201001250450 METAR COR EGLL 250450Z 01005KT 320V050 9999 SCT008 OVC010
                        04/02 Q1026 TEMPO 4000 BR BKN007=
201001250420 METAR COR EGLL 250420Z 34004KT 300V010 9999 BKN008 04/02
                        Q1026 TEMPO 4000 BR -DZ=
201001250350 METAR COR EGLL 250350Z VRB03KT 9999 BKN010 04/02 Q1026 TEMPO
                        4500 RADZ BKN006=
201001250320 METAR COR EGLL 250320Z 31004KT 9999 -DZ OVC012 04/02 Q1026
                        TEMPO 4000 RADZ BKN008=
201001250250 METAR COR EGLL 250250Z 30004KT 7000 -RA SCT012 04/03 Q1025
                        TEMPO 4000 RADZ BKN009=
201001250220 METAR COR EGLL 250220Z 29005KT 8000 -RA SCT014 04/02 Q1025
                        TEMPO 4000 RADZ BKN014=
201001250150 METAR COR EGLL 250150Z 27004KT 7000 FEW014 SCT034 03/02 Q1025
                        TEMPO 4000 RADZ BKN014=
201001250120 METAR COR EGLL 250120Z 27005KT 7000 -RA FEW034 SCT046 04/02
                        Q1025 TEMPO 4000 RADZ BKN012=
201001250050 METAR COR EGLL 250050Z 27005KT 7000 -RA FEW023 SCT039 04/03
                        Q1025 TEMPO 4000 RADZ BKN014=
201001250020 METAR COR EGLL 250020Z 27005KT 7000 -RA FEW037 04/03 Q1025
                        TEMPO 4000 RADZ BKN014=
201001242350 METAR COR EGLL 242350Z 26006KT 9000 NSC 04/03 Q1025 BECMG
                        SCT012 BKN020=
201001242320 METAR COR EGLL 242320Z 27004KT 9000 -RA FEW031 SCT039 04/03
                        Q1025 TEMPO 4000 RADZ BKN014=
201001242250 METAR COR EGLL 242250Z 28006KT 8000 -RA SCT034 04/03 Q1025
                        TEMPO 4000 RADZ BKN014=
201001242220 METAR COR EGLL 242220Z 28006KT 9999 -RA SCT034 SCT048 04/03
                        Q1025 TEMPO RA=
201001242150 METAR COR EGLL 242150Z 27006KT 9999 -RA FEW016 BKN029 05/03
                        Q1025 TEMPO BKN014=
201001242120 METAR COR EGLL 242120Z 27008KT 9999 -RA FEW018 SCT027 05/03
                        Q1025 NOSIG=
201001242050 METAR COR EGLL 242050Z 28006KT 9999 -RA FEW023 SCT034 05/03
                        Q1025 NOSIG=
201001242020 METAR COR EGLL 242020Z 28007KT 9999 -RA FEW031 SCT041 05/03
                        Q1025 NOSIG=
201001241950 METAR COR EGLL 241950Z 28007KT 9999 FEW029 SCT049 05/02 Q1025
                        NOSIG=
201001241920 METAR COR EGLL 241920Z 28006KT 9999 FEW029 SCT046 05/02 Q1025
                        NOSIG=
201001241850 METAR COR EGLL 241850Z 28008KT 9999 FEW045 04/02 Q1025 NOSIG=
201001241820 METAR COR EGLL 241820Z 27007KT 9999 FEW023 05/02 Q1025 NOSIG=
201001241750 METAR COR EGLL 241750Z 26008KT 9999 FEW022 04/02 Q1025 NOSIG=
201001241720 METAR COR EGLL 241720Z 24005KT 200V270 CAVOK 05/02 Q1025
                        NOSIG=
201001241650 METAR COR EGLL 241650Z 28004KT 230V300 CAVOK 04/02 Q1025
                        NOSIG=
201001241620 METAR COR EGLL 241620Z 27005KT CAVOK 05/02 Q1024 NOSIG=
201001241550 METAR COR EGLL 241550Z 27006KT 9999 FEW045 05/02 Q1024 NOSIG=
201001241520 METAR COR EGLL 241520Z 27008KT 9999 FEW039 06/02 Q1024 NOSIG=
201001241450 METAR COR EGLL 241450Z 26006KT 9999 FEW015 06/02 Q1024 NOSIG=
201001241420 METAR COR EGLL 241420Z 28004KT 9999 FEW015 06/02 Q1024 NOSIG=
201001241350 METAR COR EGLL 241350Z 27006KT CAVOK 06/03 Q1024 NOSIG=
201001241320 METAR COR EGLL 241320Z 28005KT 250V310 9999 FEW018 06/03
                        Q1024 NOSIG=
201001241250 METAR COR EGLL 241250Z 26006KT 9999 FEW014 SCT048 06/03 Q1024
                        NOSIG=
201001241220 METAR COR EGLL 241220Z 27006KT 9000 SCT040 05/03 Q1025 NOSIG=
201001241150 METAR COR EGLL 241150Z 28006KT 9000 FEW042 05/03 Q1025 NOSIG=
201001241120 METAR COR EGLL 241120Z 28006KT 8000 NSC 05/03 Q1025 NOSIG=
201001241050 METAR COR EGLL 241050Z 27006KT 7000 FEW046 05/02 Q1025 NOSIG=
201001241020 METAR COR EGLL 241020Z 27005KT 7000 FEW044 05/02 Q1025 NOSIG=
201001240950 METAR COR EGLL 240950Z VRB03KT 7000 NSC 04/02 Q1024 NOSIG=
201001240920 METAR COR EGLL 240920Z 28005KT 5000 HZ NSC 04/02 Q1024 NOSIG=
201001240850 METAR COR EGLL 240850Z 25004KT 5000 BR NSC 04/02 Q1024 NOSIG=
201001240820 METAR COR EGLL 240820Z 27005KT 6000 BKN049 03/02 Q1024 NOSIG=
201001240750 METAR COR EGLL 240750Z 27004KT 230V290 5000 BR BKN048 04/02
                        Q1023 NOSIG=
201001240720 METAR COR EGLL 240720Z 28003KT 4800 BR BKN044 03/02 Q1023=
201001240650 METAR COR EGLL 240650Z 29003KT 5000 HZ BKN044 03/02 Q1023
                        NOSIG=
201001240620 METAR COR EGLL 240620Z VRB03KT 5000 HZ FEW035 BKN043 03/02
                        Q1023 NOSIG=
201001240550 METAR COR EGLL 240550Z 30003KT 7000 OVC043 03/02 Q1023 NOSIG=
201001240520 METAR COR EGLL 240520Z 29004KT 8000 OVC043 03/02 Q1023 NOSIG=
201001240450 METAR COR EGLL 240450Z 31004KT 8000 BKN041 03/02 Q1023 NOSIG=
201001240420 METAR EGLL 240420Z 31004KT 8000 OVC040 03/02 Q1022=
201001240350 METAR COR EGLL 240350Z 31003KT 6000 OVC038 03/02 Q1022 TEMPO
                        4500 HZ=
201001240320 METAR COR EGLL 240320Z 31004KT 8000 BKN037 03/02 Q1022 NOSIG=
201001240250 METAR COR EGLL 240250Z 30004KT 9999 BKN038 03/02 Q1022 NOSIG=
201001240220 METAR COR EGLL 240220Z 32004KT 9000 BKN033 04/02 Q1022 NOSIG=
201001240150 METAR COR EGLL 240150Z 32005KT 8000 BKN030 04/02 Q1021 NOSIG=
201001240120 METAR EGLL 240120Z 32005KT 280V360 9000 BKN030 04/02 Q1021=
201001240050 METAR COR EGLL 240050Z 32004KT 290V360 9000 OVC030 04/02
                        Q1021 NOSIG=
201001240020 METAR COR EGLL 240020Z VRB03KT 8000 BKN027 04/02 Q1021 NOSIG=
201001232350 METAR COR EGLL 232350Z VRB03KT 9000 BKN028 04/02 Q1022 NOSIG=
201001232320 METAR COR EGLL 232320Z 30004KT 9000 BKN028 04/02 Q1022 NOSIG=
201001232250 METAR COR EGLL 232250Z 31004KT 9999 OVC030 04/02 Q1022 NOSIG=
201001232220 METAR COR EGLL 232220Z 31004KT 9999 OVC030 05/02 Q1022 NOSIG=
201001232150 METAR COR EGLL 232150Z 31003KT 9999 BKN026 05/02 Q1022 NOSIG=
201001232120 METAR COR EGLL 232120Z 31003KT 9999 OVC028 05/02 Q1022 NOSIG=
201001232050 METAR COR EGLL 232050Z 30003KT 9999 SCT023 BKN026 05/02 Q1022
                        NOSIG=
201001232020 METAR COR EGLL 232020Z 30003KT 9999 SCT023 BKN025 05/02 Q1022
                        NOSIG=
201001231950 METAR COR EGLL 231950Z 30003KT 9999 SCT020 BKN023 05/02 Q1022
                        NOSIG=
201001231920 METAR COR EGLL 231920Z 35002KT 9999 BKN019 05/02 Q1022 NOSIG=
201001231850 METAR COR EGLL 231850Z 35004KT 310V010 9999 BKN021 05/02
                        Q1022 NOSIG=
201001231820 METAR COR EGLL 231820Z 35004KT 320V020 9999 BKN016 05/02
                        Q1022 NOSIG=
201001231750 METAR COR EGLL 231750Z 35004KT 310V030 9999 BKN015 05/02
                        Q1021 TEMPO BKN012=
201001231720 METAR COR EGLL 231720Z 34004KT 300V020 9999 OVC015 05/02
                        Q1021 TEMPO BKN012=
201001231650 METAR COR EGLL 231650Z 35004KT 9999 BKN015 05/02 Q1021 TEMPO
                        BKN010=
201001231620 METAR COR EGLL 231620Z 35005KT 9999 OVC013 05/02 Q1021 TEMPO
                        BKN009=
201001231550 METAR COR EGLL 231550Z 34004KT 300V020 9999 OVC014 05/02
                        Q1021 TEMPO BKN009=
201001231520 METAR COR EGLL 231520Z 35005KT 9999 OVC015 06/03 Q1020 TEMPO
                        BKN012=
201001231450 METAR COR EGLL 231450Z 01006KT 340V040 9999 BKN015 06/03
                        Q1020 TEMPO BKN012=
201001231420 METAR COR EGLL 231420Z 36006KT 320V020 9999 BKN015 06/03
                        Q1020 TEMPO BKN012=
201001231350 METAR COR EGLL 231350Z 36005KT 300V060 9999 BKN015 06/03
                        Q1020 TEMPO BKN012=
201001231320 METAR COR EGLL 231320Z 01005KT 340V050 9999 BKN014 06/03
                        Q1020 TEMPO BKN015=
201001231250 METAR COR EGLL 231250Z 36004KT 9999 BKN015 06/03 Q1020 TEMPO
                        BKN011=
201001231220 METAR COR EGLL 231220Z 35005KT 310V020 9999 BKN015 06/03
                        Q1021 TEMPO BKN012=
201001231150 METAR COR EGLL 231150Z 34004KT 300V020 8000 FEW013 BKN017
                        06/04 Q1021 TEMPO BKN012=
201001231120 METAR COR EGLL 231120Z 36005KT 330V040 8000 FEW010 BKN020
                        06/04 Q1021 NOSIG=
201001231050 METAR COR EGLL 231050Z 36004KT 320V040 7000 BKN021 06/04
                        Q1021 NOSIG=
201001231020 METAR COR EGLL 231020Z 35004KT 310V030 6000 BKN021 06/04
                        Q1021 NOSIG=
201001230950 METAR COR EGLL 230950Z 35005KT 310V020 6000 FEW008 BKN027
                        06/04 Q1020 NOSIG=
201001230920 METAR COR EGLL 230920Z 35005KT 300V010 6000 SCT011 BKN029
                        06/04 Q1020 NOSIG=
201001230850 METAR COR EGLL 230850Z 34004KT 290V020 6000 FEW008 BKN010
                        06/04 Q1020 TEMPO SCT012 BKN020=
201001230820 METAR COR EGLL 230820Z 33005KT 300V360 6000 BKN009 06/05
                        Q1020 TEMPO 4000 BR BKN004=
201001230750 METAR COR EGLL 230750Z 33006KT 300V360 7000 BKN010 06/05
                        Q1020 TEMPO 4000 BR BKN007=
201001230720 METAR COR EGLL 230720Z 36005KT 330V030 9999 SCT008 BKN011
                        07/05 Q1020 TEMPO BKN007=
201001230650 METAR COR EGLL 230650Z 35006KT 320V030 9999 BKN008 07/05
                        Q1019 NOSIG=
201001230620 METAR COR EGLL 230620Z 34005KT 310V020 9999 BKN008 07/05
                        Q1019 NOSIG=
201001230550 METAR COR EGLL 230550Z 36004KT 320V030 9999 BKN008 06/05
                        Q1019 NOSIG=
201001230520 METAR COR EGLL 230520Z 35005KT 310V030 9999 BKN008 06/05
                        Q1019 TEMPO 4500 -DZ OVC004=
201001230450 METAR COR EGLL 230450Z 36005KT 320V030 9999 BKN008 07/06
                        Q1019 TEMPO 4500 -DZ OVC004=
201001230420 METAR EGLL 230420Z 35005KT 9999 BKN006 07/06 Q1019=
201001230350 METAR COR EGLL 230350Z 34006KT 300V020 9999 BKN006 07/06
                        Q1018 TEMPO 4500 BR OVC004=
201001230320 METAR COR EGLL 230320Z 33006KT 300V010 9999 OVC005 07/07
                        Q1018 TEMPO 4500 BR OVC004=
201001230250 METAR COR EGLL 230250Z 31005KT 4000 BR BKN005 07/07 Q1018
                        TEMPO 2500 BKN004=
201001230220 METAR EGLL 230220Z AUTO 28003KT 2000NDV BR OVC001/// 07/07
                        Q1018=
201001230150 METAR EGLL 230150Z AUTO 26003KT 1100NDV R27R/P1500 +DZ OVC003///
                        07/07 Q1018=
201001230120 METAR EGLL 230120Z AUTO 27002KT 1400NDV R27R/P1500 RA OVC002///
                        07/07 Q1018=
201001230050 METAR COR EGLL 230050Z 00000KT 2000 -RA BKN002 07/07 Q1018
                        TEMPO 1200 OVC001=
201001230020 METAR COR EGLL 230020Z 27002KT 2000 BR BKN002 07/07 Q1018
                        TEMPO 1200 OVC001=
201001222350 METAR COR EGLL 222350Z 20004KT 170V230 3300 -RA SCT002 BKN006
                        07/07 Q1018 RERA TEMPO 1200 BR OVC002=
201001222320 METAR EGLL 222320Z NIL=
201001222250 METAR COR EGLL 222250Z 18004KT 160V260 4000 RA FEW002 OVC005
                        07/07 Q1018 RERA BECMG 2800 -DZ OVC003=
201001222220 METAR COR EGLL 222220Z 19005KT 140V250 5000 BR BKN005 07/07
                        Q1018 BECMG 3500 BKN004=
201001222150 METAR COR EGLL 222150Z 18005KT 130V250 7000 -DZ FEW004 OVC006
                        08/07 Q1018 BECMG 4000 BKN004=
201001222120 METAR COR EGLL 222120Z 19005KT 120V290 9000 FEW004 BKN008
                        08/07 Q1018 BECMG 4000 -RADZ BKN004=
201001222050 METAR COR EGLL 222050Z 17005KT 140V250 9999 FEW006 BKN008
                        08/07 Q1018 TEMPO 4000 -RADZ BKN004=
201001222020 METAR EGLL 222020Z 17005KT 120V240 9999 FEW005 SCT010 07/07
                        Q1018=
201001221950 METAR COR EGLL 221950Z 17006KT 130V220 5000 -RA FEW004 BKN008
                        07/07 Q1018 RERA TEMPO 3000 RADZ
                        BKN004=
201001221920 METAR COR EGLL 221920Z 16006KT 140V210 8000 SCT006 BKN010
                        07/07 Q1017 BECMG 4000 RADZ BKN006=
201001221850 METAR COR EGLL 221850Z 17006KT 120V240 6000 SCT006 BKN011
                        08/07 Q1017 TEMPO 4000 RADZ BKN006=
201001221820 METAR COR EGLL 221820Z 17006KT 130V230 8000 SCT009 BKN011
                        08/07 Q1017 TEMPO 4000 RADZ BKN007=
201001221750 METAR COR EGLL 221750Z 17006KT 120V240 8000 SCT007 BKN011
                        08/07 Q1017 TEMPO 4000 RADZ BKN007=
201001221720 METAR COR EGLL 221720Z 17007KT 130V240 5000 BR FEW004 SCT008
                        BKN011 08/07 Q1017 TEMPO 2500 BR
                        BKN005=
201001221650 METAR COR EGLL 221650Z 16007KT 120V220 5000 -DZ SCT006 BKN011
                        08/07 Q1017 TEMPO 2500 RADZ BKN005=
201001221620 METAR COR EGLL 221620Z 17007KT 140V220 5000 BR FEW006 OVC008
                        08/07 Q1017 TEMPO 3500 BKN004=
201001221550 METAR COR EGLL 221550Z 17008KT 130V220 8000 FEW006 OVC010
                        08/07 Q1016 TEMPO 4000 RADZ BKN006=
201001221520 METAR COR EGLL 221520Z 17009KT 150V230 8000 -RADZ SCT008
                        BKN011 08/07 Q1016 TEMPO 4000 RADZ
                        BKN008=
201001221450 METAR COR EGLL 221450Z 18010KT 140V220 9999 -RA FEW008 BKN012
                        08/07 Q1016 TEMPO 4000 RADZ BKN008=
201001221420 METAR COR EGLL 221420Z 18011KT 9999 SCT008 BKN012 08/07 Q1016
                        TEMPO 4000 RADZ BKN007=
201001221350 METAR COR EGLL 221350Z 17011KT 130V200 9999 -RA SCT009 BKN015
                        08/07 Q1016 TEMPO 4000 RADZ BKN007=
201001221320 METAR COR EGLL 221320Z 17011KT 150V210 9999 -RA FEW007 BKN011
                        08/07 Q1016 TEMPO 4500 RADZ BKN007=
201001221250 METAR COR EGLL 221250Z 18011KT 9999 5000E -RA FEW007 SCT009
                        BKN013 08/07 Q1016 TEMPO 4500 RADZ
                        BKN007=
201001221220 METAR COR EGLL 221220Z 16009KT 8000 -RA FEW004 SCT006 BKN010
                        08/07 Q1016 TEMPO 4500 RADZ BKN006=
201001221150 METAR COR EGLL 221150Z 15010KT 4500 -RADZ FEW006 BKN010 08/07
                        Q1016 RERA TEMPO 2500 RADZ BKN006=
201001221120 METAR COR EGLL 221120Z 15009KT 120V180 3800 -RADZ FEW004
                        SCT006 BKN009 08/07 Q1017 TEMPO 2500
                        RADZ BKN004=
201001221050 METAR COR EGLL 221050Z 15008KT 3700 -RADZ FEW004 BKN006 08/07
                        Q1017 TEMPO 2500 RADZ BKN004=
201001221020 METAR COR EGLL 221020Z 16010KT 9000 BKN006 08/07 Q1017 TEMPO
                        4000 RADZ BKN004=
201001220950 METAR COR EGLL 220950Z 16011G22KT 9999 BKN007 08/07 Q1016
                        TEMPO 4000 RADZ BKN004=
201001220920 METAR COR EGLL 220920Z 16010KT 120V190 8000 -RA FEW006 BKN009
                        08/07 Q1016 TEMPO 4000 RA BKN004=
201001220850 METAR COR EGLL 220850Z 16009KT 4700 -DZ FEW005 BKN008 08/07
                        Q1016 TEMPO 2500 DZ BKN004=
201001220820 METAR COR EGLL 220820Z 16010KT 7000 -RA FEW005 BKN006 08/07
                        Q1016 TEMPO 4000 BKN004=
201001220750 METAR COR EGLL 220750Z 15009KT 7000 FEW005 BKN008 08/07 Q1016
                        TEMPO 4000 RADZ BKN004=
201001220720 METAR COR EGLL 220720Z 15010KT 6000 -RA FEW006 BKN008 08/07
                        Q1016 NOSIG=
201001220650 METAR COR EGLL 220650Z 15009KT 9999 -RA SCT006 BKN009 07/06
                        Q1016 TEMPO 5000 BKN006=
201001220620 METAR COR EGLL 220620Z 15009KT 7000 DZ BKN006 07/06 Q1016
                        TEMPO 4000 BKN004=
201001220550 METAR COR EGLL 220550Z 15009KT 6000 FEW005 BKN008 07/06 Q1016
                        TEMPO 4000 BKN004=
201001220520 METAR COR EGLL 220520Z 15010KT 5000 -RA OVC005 07/06 Q1016
                        TEMPO 3500 BKN003=
201001220450 METAR COR EGLL 220450Z 15009KT 6000 OVC006 07/06 Q1016 TEMPO
                        4000 RADZ BKN003=
201001220420 METAR COR EGLL 220420Z 15009KT 4600 -RA BKN006 07/06 Q1016
                        TEMPO RA BKN004=
201001220350 METAR COR EGLL 220350Z 15009KT 6000 BKN006 07/06 Q1017 NOSIG=
201001220320 METAR COR EGLL 220320Z 15010KT 7000 FEW006 BKN008 07/06 Q1017
                        NOSIG=
201001220250 METAR COR EGLL 220250Z 14009KT 7000 FEW006 BKN008 06/06 Q1017
                        NOSIG=
201001220220 METAR EGLL 220220Z AUTO 14009KT 5000NDV -RA OVC007/// 06/05
                        Q1017=
201001220150 METAR EGLL 220150Z AUTO 14008KT 5000NDV -RA BKN008/// 06/05
                        Q1017=
201001220120 METAR EGLL 220120Z AUTO 13009KT 6000NDV DZ OVC008/// 06/05
                        Q1017=
201001220050 METAR COR EGLL 220050Z 12008KT 8000 OVC009 06/04 Q1018 NOSIG=
201001220020 METAR COR EGLL 220020Z 13008KT 9000 BKN010 06/04 Q1018 TEMPO
                        -RA BKN008=
201001212350 METAR COR EGLL 212350Z 13008KT 9000 SCT011 BKN015 05/03 Q1018
                        BECMG -RA BKN012=
201001212320 METAR COR EGLL 212320Z 13010KT 9999 BKN012 05/03 Q1018 NOSIG=
201001212250 METAR COR EGLL 212250Z 13012KT 9999 BKN014 05/03 Q1018 TEMPO
                        BKN015=
201001212220 METAR COR EGLL 212220Z 13011KT 9999 BKN014 05/03 Q1019 TEMPO
                        BKN017=
201001212150 METAR COR EGLL 212150Z 13007KT 9999 SCT016 BKN025 05/03 Q1019
                        NOSIG=
201001212120 METAR COR EGLL 212120Z 13007KT 9999 SCT012 BKN015 05/03 Q1019
                        TEMPO BKN012=
201001212050 METAR COR EGLL 212050Z 12007KT 9000 FEW012 BKN014 05/02 Q1019
                        NOSIG=
201001212020 METAR COR EGLL 212020Z 11007KT 9000 BKN014 05/02 Q1019 NOSIG=
201001211950 METAR COR EGLL 211950Z 11008KT 9000 BKN014 05/02 Q1019 NOSIG=
201001211920 METAR EGLL 211920Z 11008KT 9000 BKN015 05/02 Q1020=
201001211850 METAR COR EGLL 211850Z 11008KT 9000 SCT016 SCT019 05/02 Q1020
                        BECMG BKN014=
201001211820 METAR EGLL 211820Z 13007KT 090V230 9000 BKN019 05/02 Q1020=
201001211750 METAR EGLL 211750Z 15006KT 110V230 9000 BKN020 05/02 Q1020=
201001211720 METAR COR EGLL 211720Z 14006KT 110V230 9000 BKN020 05/02
                        Q1020 NOSIG=
201001211650 METAR EGLL 211650Z 14006KT 090V210 9000 BKN021 05/02 Q1020=
201001211620 METAR EGLL 211620Z 14006KT 120V220 9000 BKN023 05/01 Q1020=
201001211550 METAR COR EGLL 211550Z 15006KT 110V210 9999 BKN027 05/02
                        Q1020 NOSIG=
201001211520 METAR COR EGLL 211520Z VRB07KT 9999 SCT019 SCT030 05/01 Q1020
                        NOSIG=
201001211450 METAR EGLL 211450Z 16007KT 120V210 9999 FEW019 BKN034 05/01
                        Q1020=
201001211420 METAR COR EGLL 211420Z 15006KT 120V190 9999 FEW018 SCT035
                        06/01 Q1019 NOSIG=
201001211350 METAR COR EGLL 211350Z 15006KT 130V240 9999 FEW019 05/01
                        Q1019 NOSIG=
201001211320 METAR COR EGLL 211320Z 19005KT 130V270 9999 FEW020 06/01
                        Q1019 NOSIG=
201001211250 METAR EGLL 211250Z 15005KT 090V180 CAVOK 06/01 Q1020=
201001211220 METAR COR EGLL 211220Z 13005KT 100V160 9999 FEW020 06/01
                        Q1020 NOSIG=
201001211150 METAR EGLL 211150Z 21005KT 160V250 9999 SCT025 05/01 Q1020=
201001211120 METAR COR EGLL 211120Z 22005KT 180V270 7000 FEW013 BKN027
                        05/02 Q1021 NOSIG=
201001211050 METAR COR EGLL 211050Z 21004KT 170V240 6000 FEW011 BKN031
                        04/03 Q1021 NOSIG=
201001211020 METAR COR EGLL 211020Z VRB02KT 6000 FEW009 BKN030 04/02 Q1021
                        NOSIG=
201001210950 METAR COR EGLL 210950Z 30002KT 5000 BR OVC027 03/02 Q1020
                        BECMG NSW=
201001210920 METAR COR EGLL 210920Z 28003KT 4000 BR BKN029 03/02 Q1020
                        BECMG 6000 NSW=
201001210850 METAR COR EGLL 210850Z 26004KT 5000 BR OVC029 03/02 Q1020
                        BECMG NSW=
201001210820 METAR COR EGLL 210820Z 00000KT 4100 BR FEW006 OVC030 02/02
                        Q1020 BECMG 6000 NSW=
201001210750 METAR COR EGLL 210750Z 00000KT 2500 HZ SCT008 OVC031 03/02
                        Q1019 BECMG 5000=
201001210720 METAR COR EGLL 210720Z 29002KT 4000 HZ OVC030 02/02 Q1019
                        NOSIG=
201001210650 METAR COR EGLL 210650Z VRB03KT 5000 HZ OVC029 02/02 Q1019
                        TEMPO 4000 BR=
201001210620 METAR COR EGLL 210620Z VRB02KT 5000 HZ OVC030 02/02 Q1019
                        TEMPO 3500 BR=
201001210550 METAR COR EGLL 210550Z VRB03KT 5000 HZ OVC029 02/02 Q1018
                        TEMPO 3500 BR=
201001210520 METAR COR EGLL 210520Z 28003KT 5000 BR BKN030 02/02 Q1018
                        TEMPO 3500 BR=
201001210450 METAR COR EGLL 210450Z VRB02KT 3600 BR OVC029 02/02 Q1018
                        NOSIG=
201001210420 METAR COR EGLL 210420Z VRB03KT 5000 HZ OVC029 03/02 Q1018
                        TEMPO 4000 BR=
201001210350 METAR COR EGLL 210350Z 29004KT 4000 HZ OVC028 03/02 Q1018
                        NOSIG=
201001210320 METAR COR EGLL 210320Z 29004KT 5000 HZ FEW013 BKN029 03/02
                        Q1018 TEMPO 4000 BR=
201001210250 METAR COR EGLL 210250Z 29004KT 5000 HZ BKN029 03/02 Q1018
                        NOSIG=
201001210220 METAR EGLL 210220Z AUTO 28005KT 4200NDV HZ OVC028/// 03/02
                        Q1018=
201001210150 METAR EGLL 210150Z AUTO 31003KT 6000NDV OVC028/// 03/02 Q1017=
201001210120 METAR EGLL 210120Z AUTO 31003KT 6000NDV BKN026/// 03/02 Q1017=
201001210050 METAR COR EGLL 210050Z 32003KT 6000 BKN026 03/02 Q1017 NOSIG=
201001210020 METAR COR EGLL 210020Z 31003KT 7000 OVC025 03/02 Q1017 NOSIG=
201001202350 METAR COR EGLL 202350Z VRB02KT 7000 BKN025 03/02 Q1016 NOSIG=
201001202320 METAR COR EGLL 202320Z 31004KT 7000 BKN023 03/02 Q1016 NOSIG=
201001202250 METAR COR EGLL 202250Z 31004KT 8000 BKN021 03/01 Q1016 NOSIG=
201001202220 METAR COR EGLL 202220Z 30003KT 9000 BKN020 03/01 Q1015 NOSIG=
201001202150 METAR COR EGLL 202150Z 34002KT 9000 SCT015 SCT022 03/01 Q1015
                        NOSIG=
201001202120 METAR COR EGLL 202120Z VRB03KT 9999 OVC018 03/01 Q1015 NOSIG=
201001202050 METAR COR EGLL 202050Z 06003KT 9999 OVC018 03/01 Q1015 NOSIG=
201001202020 METAR COR EGLL 202020Z 08005KT 9999 BKN016 03/01 Q1014 NOSIG=
201001201950 METAR COR EGLL 201950Z 06006KT 030V090 9999 OVC015 03/01
                        Q1014 NOSIG=
201001201920 METAR EGLL 201920Z 04005KT 9999 BKN015 03/01 Q1014=
201001201850 METAR COR EGLL 201850Z 04004KT 360V070 9000 OVC019 03/01
                        Q1013 TEMPO BKN012=
201001201820 METAR EGLL 201820Z 05005KT 020V080 8000 SCT015 BKN019 03/02
                        Q1013=
201001201750 METAR COR EGLL 201750Z 04004KT 010V070 8000 BKN015 03/02
                        Q1012 TEMPO BKN013=
201001201720 METAR COR EGLL 201720Z 04004KT 5000 -RA BKN016 03/02 Q1012
                        TEMPO BKN014=
201001201650 METAR COR EGLL 201650Z 04004KT 4500 -RA OVC014 03/02 Q1012
                        BECMG 7000 NSW SCT012 BKN018=
201001201620 METAR COR EGLL 201620Z VRB03KT 4500 -RA FEW008 OVC010 03/02
                        Q1012 BECMG 8000 NSW SCT010 BKN018=
201001201550 METAR COR EGLL 201550Z 30004KT 4500 -RA BR FEW007 OVC011
                        02/02 Q1011 BECMG 8000 NSW SCT010
                        BKN018=
201001201520 METAR COR EGLL 201520Z 30004KT 5000 -RA BR SCT006 OVC012
                        02/02 Q1011 BECMG NSW SCT009 BKN016=
201001201450 METAR COR EGLL 201450Z VRB03KT 5000 -RA SCT006 OVC011 02/01
                        Q1010 TEMPO BKN008=
201001201420 METAR COR EGLL 201420Z VRB02KT 4700 -RASN BKN007 BKN010 02/01
                        Q1010 TEMPO 8000 NSW SCT008 BKN015=
201001201350 METAR COR EGLL 201350Z VRB02KT 5000 -RA FEW006 BKN008 03/01
                        Q1010 TEMPO 4500 RASN SCT009 BKN018=
201001201320 METAR COR EGLL 201320Z 09003KT 4500 -RA SCT009 BKN019 03/01
                        Q1010 TEMPO BKN007=
201001201250 METAR COR EGLL 201250Z 11005KT 5000 -RA SCT009 BKN018 03/01
                        Q1010 TEMPO 4500 RASN BKN008=
201001201220 METAR COR EGLL 201220Z 13007KT 4600 RA FEW009 BKN011 03/01
                        Q1010 TEMPO 5000 RASN BKN009=
201001201150 METAR EGLL 201150Z 09008KT 6000 -RA OVC012 03/02 Q1010=
201001201120 METAR COR EGLL 201120Z 11007KT 8000 BKN013 03/01 Q1010 TEMPO
                        RASN BKN009=
201001201050 METAR COR EGLL 201050Z 10008KT 9999 BKN013 03/01 Q1010 TEMPO
                        RASN BKN009=
201001201020 METAR COR EGLL 201020Z 10009KT 9000 BKN012 03/02 Q1010 TEMPO
                        4500 RASN BKN009=
201001200950 METAR COR EGLL 200950Z 10008KT 9000 BKN011 BKN018 03/02 Q1010
                        TEMPO 4500 RASN BKN009=
201001200920 METAR COR EGLL 200920Z 10008KT 9000 VCSH BKN015 03/02 Q1010
                        TEMPO 4500 RASN BKN009=
201001200850 METAR COR EGLL 200850Z 12010KT 7000 -RA BKN012 03/01 Q1010
                        RERA TEMPO 4500 RASN BKN009=
201001200820 METAR COR EGLL 200820Z 11010KT 6000 RA OVC012 03/02 Q1009
                        BECMG 4500 RASN BKN009=
201001200750 METAR COR EGLL 200750Z 13009KT 9000 -RA SCT014 BKN019 04/01
                        Q1010 BECMG 6000 RASN BKN010=
201001200720 METAR COR EGLL 200720Z 13007KT 9999 BKN020 04/01 Q1010 BECMG
                        BKN014=
201001200650 METAR COR EGLL 200650Z 13007KT 9999 BKN018 04/01 Q1010 BECMG
                        BKN014=
201001200620 METAR EGLL 200620Z 12007KT 080V140 9999 BKN018 04/02 Q1010=
201001200550 METAR COR EGLL 200550Z 12010KT 9999 OVC014 04/02 Q1010 NOSIG=
201001200520 METAR COR EGLL 200520Z 11012KT 9999 BKN014 04/02 Q1010 NOSIG=
201001200450 METAR COR EGLL 200450Z 11013KT 9999 FEW015 04/02 Q1010 TEMPO
                        BKN014=
201001200420 METAR COR EGLL 200420Z 11012KT 9999 BKN014 04/02 Q1011 NOSIG=
201001200350 METAR COR EGLL 200350Z 11013KT 9999 BKN015 04/02 Q1011 TEMPO
                        BKN014=
201001200320 METAR COR EGLL 200320Z 11012KT 9999 BKN015 04/02 Q1012 TEMPO
                        BKN014=
201001200250 METAR COR EGLL 200250Z 11012KT 9999 BKN015 04/02 Q1012 TEMPO
                        BKN014=
201001200220 METAR COR EGLL 200220Z 11013KT 9999 BKN015 05/02 Q1013 TEMPO
                        BKN014=
201001200150 METAR COR EGLL 200150Z 12014KT 9999 OVC014 05/02 Q1013 NOSIG=
201001200120 METAR COR EGLL 200120Z 11011KT 9999 SCT014 BKN017 05/02 Q1013
                        TEMPO BKN014=
201001200050 METAR COR EGLL 200050Z 11012KT 9999 FEW015 04/02 Q1014 NOSIG=
201001200020 METAR COR EGLL 200020Z 10013KT 9000 FEW020 05/02 Q1014 NOSIG=
201001192350 METAR COR EGLL 192350Z 10013KT 8000 FEW016 05/03 Q1015 NOSIG=
201001192320 METAR COR EGLL 192320Z 10013KT 8000 SCT017 SCT023 05/03 Q1015
                        NOSIG=
201001192250 METAR COR EGLL 192250Z 10010KT 7000 FEW012 05/04 Q1016 NOSIG=
201001192220 METAR COR EGLL 192220Z 09009KT 6000 FEW012 BKN019 05/04 Q1016
                        NOSIG=
201001192150 METAR COR EGLL 192150Z 09009KT 7000 SCT013 BKN020 05/04 Q1016
                        NOSIG=
201001192120 METAR COR EGLL 192120Z 09010KT 7000 FEW009 BKN017 05/04 Q1017
                        NOSIG=
201001192050 METAR COR EGLL 192050Z 09011KT 8000 SCT012 BKN020 05/04 Q1017
                        NOSIG=
201001192020 METAR COR EGLL 192020Z 09011KT 7000 FEW008 BKN031 06/04 Q1017
                        NOSIG=
201001191950 METAR COR EGLL 191950Z 08009KT 5000 HZ SCT007 BKN033 06/05
                        Q1018 TEMPO 4500 BR=
201001191920 METAR EGLL 191920Z 09008KT 4500 BR SCT007 BKN034 06/05 Q1018=
201001191850 METAR EGLL 191850Z 09009KT 4500 HZ FEW008 BKN037 06/05 Q1018=
201001191820 METAR COR EGLL 191820Z 09009KT 5000 HZ FEW011 BKN036 06/05
                        Q1018 TEMPO 4000 BR BKN010=
201001191750 METAR COR EGLL 191750Z 09009KT 6000 FEW011 BKN036 06/05 Q1019
                        NOSIG=
201001191720 METAR COR EGLL 191720Z 10008KT 6000 FEW011 BKN036 07/05 Q1019
                        TEMPO BKN010=
201001191650 METAR COR EGLL 191650Z 09007KT 7000 FEW018 BKN037 07/05 Q1019
                        NOSIG=
201001191620 METAR COR EGLL 191620Z 11007KT 8000 FEW015 BKN037 07/05 Q1019
                        NOSIG=
201001191550 METAR COR EGLL 191550Z 09007KT 5000 HZ SCT015 BKN036 07/05
                        Q1019 NOSIG=
201001191520 METAR COR EGLL 191520Z 09009KT 4700 HZ FEW010 BKN034 07/05
                        Q1019 TEMPO 5000 BKN010=
201001191450 METAR COR EGLL 191450Z 09008KT 6000 SCT012 BKN035 08/06 Q1020
                        TEMPO BKN010=
201001191420 METAR COR EGLL 191420Z 11007KT 080V150 9999 FEW013 BKN035
                        08/05 Q1020 TEMPO BKN010=
201001191350 METAR COR EGLL 191350Z 12008KT 9000 FEW012 BKN035 08/05 Q1020
                        TEMPO BKN010=
201001191320 METAR COR EGLL 191320Z 14005KT 9000 BKN034 08/05 Q1021 NOSIG=
201001191250 METAR COR EGLL 191250Z 14007KT 9000 FEW010 BKN034 08/05 Q1021
                        NOSIG=
201001191220 METAR COR EGLL 191220Z 12007KT 9000 FEW015 OVC033 08/05 Q1021
                        NOSIG=
201001191150 METAR COR EGLL 191150Z 10007KT 9000 OVC036 08/06 Q1022 NOSIG=
201001191120 METAR COR EGLL 191120Z 09007KT 9000 OVC036 08/06 Q1022 NOSIG=
201001191050 METAR COR EGLL 191050Z 09005KT 9000 OVC035 08/06 Q1022 TEMPO
                        9999=
201001191020 METAR COR EGLL 191020Z 09005KT 9000 BKN033 07/06 Q1022 NOSIG=
201001190950 METAR COR EGLL 190950Z 09006KT 9000 OVC035 07/06 Q1022 BECMG
                        9999=
201001190920 METAR COR EGLL 190920Z 09006KT 8000 OVC037 07/06 Q1022 BECMG
                        9999=
201001190850 METAR COR EGLL 190850Z 10006KT 8000 OVC038 07/06 Q1022 BECMG
                        9999=
201001190820 METAR COR EGLL 190820Z 09006KT 8000 OVC039 07/06 Q1022 BECMG
                        9999=
201001190750 METAR COR EGLL 190750Z 07005KT 7000 OVC038 07/06 Q1022 TEMPO
                        9999=
201001190720 METAR COR EGLL 190720Z 06003KT 8000 OVC040 06/06 Q1022 NOSIG=
201001190650 METAR COR EGLL 190650Z 06004KT 8000 OVC041 06/05 Q1022 NOSIG=
201001190620 METAR COR EGLL 190620Z 06002KT 8000 OVC041 06/05 Q1023 NOSIG=
201001190550 METAR COR EGLL 190550Z 00000KT 8000 FEW006 OVC042 06/05 Q1023
                        BECMG 4000 BR=
201001190520 METAR COR EGLL 190520Z 09002KT 7000 FEW006 OVC044 06/05 Q1023
                        BECMG 4000 BR=
201001190450 METAR COR EGLL 190450Z VRB02KT 8000 FEW004 OVC043 06/05 Q1024
                        NOSIG=
201001190420 METAR COR EGLL 190420Z 00000KT 8000 OVC042 05/05 Q1024 NOSIG=
201001190350 METAR COR EGLL 190350Z VRB02KT 9000 OVC042 05/05 Q1024 NOSIG=
201001190320 METAR COR EGLL 190320Z 00000KT 9000 OVC041 06/05 Q1024 NOSIG=
201001190250 METAR COR EGLL 190250Z 00000KT 9000 OVC039 06/05 Q1024 NOSIG=
201001190220 METAR COR EGLL 190220Z 08002KT 8000 OVC040 06/05 Q1024 NOSIG=
201001190150 METAR COR EGLL 190150Z 00000KT 8000 OVC037 06/05 Q1024 NOSIG=
201001190120 METAR EGLL 190120Z 27003KT 9000 BKN037 06/05 Q1024=
201001190050 METAR COR EGLL 190050Z 00000KT 8000 OVC036 06/05 Q1024 BECMG
                        4000 BR=
201001190020 METAR COR EGLL 190020Z 27002KT 9000 OVC040 06/05 Q1025 BECMG
                        4000 BR=
201001182350 METAR COR EGLL 182350Z 25003KT 9000 BKN040 06/05 Q1025 BECMG
                        4000 BR=
201001182320 METAR COR EGLL 182320Z 00000KT 9000 BKN040 07/06 Q1025 BECMG
                        4000 BR=
201001182250 METAR COR EGLL 182250Z 23005KT 200V280 9999 BKN040 07/06
                        Q1025 NOSIG=
201001182220 METAR COR EGLL 182220Z 27004KT 210V360 9999 BKN040 07/06
                        Q1025 NOSIG=
201001182150 METAR COR EGLL 182150Z 25005KT 190V280 9999 BKN036 07/06
                        Q1025 NOSIG=
201001182120 METAR COR EGLL 182120Z 25005KT 200V290 9999 BKN036 07/06
                        Q1025 NOSIG=
201001182050 METAR COR EGLL 182050Z 29004KT 250V310 9999 BKN033 07/06
                        Q1025 NOSIG=
201001182020 METAR COR EGLL 182020Z 28006KT 9999 BKN036 07/06 Q1025 NOSIG=
201001181950 METAR COR EGLL 181950Z 28005KT 9999 BKN036 07/06 Q1025 NOSIG=
201001181920 METAR COR EGLL 181920Z 23005KT 190V270 9999 BKN039 07/06
                        Q1025 BECMG 7000=
201001181850 METAR EGLL 181850Z AUTO 22006KT 170V250 9999NDV OVC039///
                        07/06 Q1025=
201001181820 METAR COR EGLL 181820Z 22005KT 150V260 9999 BKN039 07/06
                        Q1025 NOSIG=
201001181750 METAR COR EGLL 181750Z 23006KT 180V260 9999 FEW022 BKN040
                        07/06 Q1025 NOSIG=
201001181720 METAR COR EGLL 181720Z 24005KT 200V280 9999 FEW021 BKN039
                        07/06 Q1025 NOSIG=
201001181650 METAR COR EGLL 181650Z 24006KT 190V270 9999 SCT034 07/05
                        Q1025 TEMPO BKN010=
201001181620 METAR EGLL 181620Z AUTO 24007KT 210V270 9999NDV BKN036///
                        07/06 Q1025=
201001181550 METAR COR EGLL 181550Z 26006KT 190V280 9999 FEW012 BKN041
                        07/06 Q1025 NOSIG=
201001181520 METAR COR EGLL 181520Z 26006KT 220V290 9999 SCT015 SCT040
                        07/06 Q1025 NOSIG=
201001181450 METAR COR EGLL 181450Z 22006KT 9999 SCT007 BKN038 07/06 Q1024
                        NOSIG=
201001181420 METAR COR EGLL 181420Z 22005KT 180V250 9999 SCT008 BKN027
                        07/06 Q1024 NOSIG=
201001181350 METAR COR EGLL 181350Z 21006KT 9000 SCT005 BKN008 07/06 Q1025
                        BECMG 9999 SCT008=
201001181320 METAR COR EGLL 181320Z 22006KT 6000 BKN005 07/06 Q1025 NOSIG=
201001181250 METAR COR EGLL 181250Z 22007KT 190V260 5000 BR SCT002 BKN003
                        06/06 Q1025 TEMPO 4000=
201001181220 METAR COR EGLL 181220Z 22006KT 190V280 2300 BR SCT002 BKN003
                        06/06 Q1025 NOSIG=
201001181150 METAR COR EGLL 181150Z 25007KT 210V280 2100 BR SCT002 BKN003
                        06/05 Q1025 NOSIG=
201001181120 METAR COR EGLL 181120Z 27005KT 230V300 1300 R27R/P1500 R27L/P1500
                        BR SCT002 BKN003 05/05 Q1025 BECMG
                        2500=
201001181050 METAR COR EGLL 181050Z 25007KT 1500 R27R/P1500 R27L/P1500
                        BR SCT002 BKN003 05/05 Q1025 NOSIG=
201001181020 METAR COR EGLL 181020Z 28005KT 1200 BR SCT002 BKN003 05/05
                        Q1025 NOSIG=
201001180950 METAR COR EGLL 180950Z VRB02KT 2000 BR SCT002 BKN003 05/04
                        Q1025 NOSIG=
201001180920 METAR COR EGLL 180920Z VRB03KT 1100 R27R/P1500 R27L/1300
                        BR SCT002 BKN003 04/04 Q1025 BECMG
                        1600=
201001180850 METAR COR EGLL 180850Z 20004KT 170V240 0800 R27R/1100 R27L/0700
                        FG OVC002 04/04 Q1025 NOSIG=
201001180820 METAR COR EGLL 180820Z 23005KT 190V260 0900 R27R/P1500 R27L/1400
                        FG BKN002 03/03 Q1025 TEMPO 1400=
201001180750 METAR COR EGLL 180750Z 27004KT 1500 R27R/P1500 BR BKN002
                        03/03 Q1025 TEMPO 1200 BKN001=
201001180720 METAR COR EGLL 180720Z 24004KT 210V270 2500 BR FEW002 SCT003
                        03/03 Q1025 TEMPO BKN002=
201001180650 METAR COR EGLL 180650Z VRB03KT 1400 R27R/P1500 R27L/1000
                        BR SCT002 SCT004 03/02 Q1024 TEMPO
                        0500 FG BKN002=
201001180620 METAR COR EGLL 180620Z 20006KT 150V250 1300 R27R/P1500 R27L/1500
                        BR SCT002 SCT016 02/02 Q1024 TEMPO
                        0400 FG BKN002=
201001180550 METAR COR EGLL 180550Z 25006KT 0900 R27L/0750 R27R/P1500
                        FG BKN001 02/02 Q1024 TEMPO 2000
                        BR SCT001 BKN003=
201001180520 METAR COR EGLL 180520Z 26006KT 0500 R27L/0700 R27R/0500 FG
                        BKN001 02/02 Q1024 TEMPO 0200=
201001180450 METAR COR EGLL 180450Z 28005KT 3900 BR BKN003 01/01 Q1024
                        TEMPO 1200 BKN001=
201001180420 METAR COR EGLL 180420Z 30004KT 7000 FEW005 02/01 Q1024 BECMG
                        4000 BR BKN005=
201001180350 METAR COR EGLL 180350Z 21004KT 8000 NSC 01/01 Q1024 BECMG
                        4000 BR BKN005=
201001180320 METAR COR EGLL 180320Z 23006KT 7000 NSC 01/01 Q1024 BECMG
                        4000 BR BKN005=
201001180250 METAR COR EGLL 180250Z VRB03KT 7000 NSC 01/01 Q1024 BECMG
                        4000 BR=
201001180220 METAR COR EGLL 180220Z 20002KT 7000 NSC 01/01 Q1024 BECMG
                        4000 BR=
201001180150 METAR COR EGLL 180150Z 22004KT 7000 NSC 01/01 Q1024 BECMG
                        4000 BR=
201001180120 METAR COR EGLL 180120Z 00000KT 7000 NSC 02/02 Q1024 BECMG
                        4000 BR=
201001180050 METAR COR EGLL 180050Z 27004KT 8000 NSC 02/02 Q1024 BECMG
                        4000 BR=
201001180020 METAR COR EGLL 180020Z 26005KT 8000 NSC 03/02 Q1024 BECMG
                        4000 BR=
201001172350 METAR COR EGLL 172350Z 26005KT 9000 NSC 03/02 Q1023 BECMG
                        4000 BR=
201001172320 METAR COR EGLL 172320Z 25006KT CAVOK 03/02 Q1023 NOSIG=
201001172250 METAR COR EGLL 172250Z 23006KT CAVOK 02/01 Q1023 NOSIG=
201001172220 METAR COR EGLL 172220Z 24005KT 200V260 CAVOK 03/02 Q1023
                        NOSIG=
201001172150 METAR COR EGLL 172150Z 22005KT CAVOK 04/03 Q1023 NOSIG=
201001172120 METAR COR EGLL 172120Z 23007KT CAVOK 03/02 Q1023 NOSIG=
201001172050 METAR COR EGLL 172050Z 24008KT 210V270 CAVOK 05/03 Q1022
                        NOSIG=
201001172020 METAR COR EGLL 172020Z 24006KT CAVOK 04/03 Q1022 NOSIG=
201001171950 METAR COR EGLL 171950Z 27006KT CAVOK 04/03 Q1022 NOSIG=
201001171920 METAR COR EGLL 171920Z 27006KT CAVOK 04/03 Q1022 NOSIG=
201001171850 METAR COR EGLL 171850Z 25009KT CAVOK 04/03 Q1022 NOSIG=
201001171820 METAR COR EGLL 171820Z 24010KT CAVOK 05/03 Q1021 NOSIG=
201001171750 METAR COR EGLL 171750Z 24010KT CAVOK 04/02 Q1021 NOSIG=
201001171720 METAR COR EGLL 171720Z 25009KT CAVOK 05/02 Q1021 NOSIG=
201001171650 METAR COR EGLL 171650Z 27007KT CAVOK 05/03 Q1020 NOSIG=
201001171620 METAR COR EGLL 171620Z 26010KT 9999 FEW023 07/03 Q1020 NOSIG=
201001171550 METAR COR EGLL 171550Z 27008KT 9999 FEW023 08/03 Q1020 NOSIG=
201001171520 METAR COR EGLL 171520Z 26007KT 9999 FEW030 09/04 Q1020 NOSIG=
201001171450 METAR COR EGLL 171450Z 27012KT CAVOK 09/04 Q1019 NOSIG=
201001171420 METAR COR EGLL 171420Z 27012KT 9999 FEW022 09/04 Q1019 NOSIG=
201001171350 METAR COR EGLL 171350Z 27012KT 9999 FEW022 09/04 Q1018 NOSIG=
201001171320 METAR COR EGLL 171320Z 27012KT CAVOK 09/05 Q1018 NOSIG=
201001171250 METAR COR EGLL 171250Z 27011KT CAVOK 09/05 Q1018 NOSIG=
201001171220 METAR COR EGLL 171220Z 27012KT CAVOK 08/05 Q1018 NOSIG=
201001171150 METAR COR EGLL 171150Z 27013KT CAVOK 08/05 Q1018 NOSIG=
201001171120 METAR COR EGLL 171120Z 27010KT CAVOK 07/05 Q1018 NOSIG=
201001171050 METAR COR EGLL 171050Z 27010KT CAVOK 06/05 Q1017 NOSIG=
201001171020 METAR COR EGLL 171020Z 27010KT CAVOK 05/04 Q1017 NOSIG=
201001170950 METAR COR EGLL 170950Z 27008KT CAVOK 05/04 Q1016 NOSIG=
201001170920 METAR COR EGLL 170920Z 27011KT CAVOK 03/02 Q1016 NOSIG=
201001170850 METAR COR EGLL 170850Z 28007KT CAVOK 02/02 Q1015 NOSIG=
201001170820 METAR COR EGLL 170820Z 27009KT CAVOK 03/02 Q1015 NOSIG=
201001170750 METAR COR EGLL 170750Z 27009KT CAVOK 01/01 Q1014 NOSIG=
201001170720 METAR COR EGLL 170720Z 26008KT CAVOK 02/01 Q1014 NOSIG=
201001170650 METAR COR EGLL 170650Z 25006KT CAVOK 02/02 Q1013 NOSIG=
201001170620 METAR COR EGLL 170620Z 25010KT CAVOK 03/02 Q1012 NOSIG=
201001170550 METAR COR EGLL 170550Z 25006KT CAVOK 02/01 Q1012 NOSIG=
201001170520 METAR COR EGLL 170520Z 27003KT CAVOK 03/02 Q1012 NOSIG=
201001170450 METAR COR EGLL 170450Z 28005KT CAVOK 03/02 Q1011 NOSIG=
201001170420 METAR COR EGLL 170420Z 27008KT CAVOK 03/03 Q1011 NOSIG=
201001170350 METAR COR EGLL 170350Z 27008KT CAVOK 03/02 Q1011 NOSIG=
201001170320 METAR COR EGLL 170320Z 27010KT CAVOK 04/03 Q1010 NOSIG=
201001170250 METAR COR EGLL 170250Z 27010KT CAVOK 05/04 Q1009 NOSIG=
201001170220 METAR COR EGLL 170220Z 27009KT CAVOK 05/04 Q1009 NOSIG=
201001170150 METAR COR EGLL 170150Z 27006KT 9999 FEW020 SCT027 05/04 Q1008
                        NOSIG=
201001170120 METAR COR EGLL 170120Z 28006KT CAVOK 06/05 Q1007 NOSIG=
201001170050 METAR COR EGLL 170050Z 30008KT 9999 FEW040 07/05 Q1006 NOSIG=
201001170020 METAR COR EGLL 170020Z 30010KT 9999 -RA FEW037 07/06 Q1006
                        NOSIG=
201001162350 METAR COR EGLL 162350Z 29009KT 8000 -RA SCT006 SCT043 07/06
                        Q1005 RERA NOSIG=
201001162320 METAR COR EGLL 162320Z 27007KT 3200 RA SCT004 BKN006 07/07
                        Q1004 BECMG 7000 SCT007 BKN012=
201001162250 METAR COR EGLL 162250Z 25007KT 2000 RA SCT002 BKN003 08/07
                        Q1003 BECMG 4500 SCT003 BKN007=
201001162220 METAR COR EGLL 162220Z 20006KT 150V250 1100 R27L/P1500 R27R/P1500
                        - RA VV/// 08/07 Q1003 BECMG 3000
                        RA BKN003=
201001162150 METAR COR EGLL 162150Z 19005KT 130V290 0700 R27L/1200 R27R/P1500
                        FG VV/// 08/07 Q1003 BECMG 2500 RA
                        BKN003=
201001162120 METAR COR EGLL 162120Z 19006KT 150V260 0350 R27L/0900 R27R/P1500
                        FG VV/// 08/07 Q1002 BECMG 2000 RA
                        BKN003=
201001162050 METAR COR EGLL 162050Z 18006KT 160V250 0900 R27L/1200 R27R/P1500
                        FG OVC002 08/07 Q1002 BECMG 1600
                        BR=
201001162020 METAR COR EGLL 162020Z 17004KT 140V250 1800 BR OVC003 08/07
                        Q1002 TEMPO 3500=
201001161950 METAR COR EGLL 161950Z 18006KT 140V230 3500 BR BKN005 08/07
                        Q1002 TEMPO 2000 BKN003=
201001161920 METAR COR EGLL 161920Z 17005KT 120V290 4000 BR OVC004 08/07
                        Q1002 NOSIG=
201001161850 METAR COR EGLL 161850Z 18006KT 130V250 2800 BR OVC004 07/07
                        Q1002 TEMPO 3500=
201001161820 METAR COR EGLL 161820Z VRB03KT 4600 BR OVC003 07/06 Q1002
                        NOSIG=
201001161750 METAR COR EGLL 161750Z 18006KT 150V240 6000 OVC005 07/06
                        Q1002 TEMPO 4000 BR OVC004=
201001161720 METAR COR EGLL 161720Z 18007KT 150V240 6000 OVC005 07/06
                        Q1002 TEMPO 3000 BR BKN004=
201001161650 METAR EGLL 161650Z 18009KT 150V250 3700 -DZ OVC004 07/06
                        Q1002=
201001161620 METAR EGLL 161620Z 18009KT 150V230 5000 -DZ OVC004 07/06
                        Q1002=
201001161550 METAR COR EGLL 161550Z 19007KT 160V220 9999 BKN007 07/06
                        Q1002 NOSIG=
201001161520 METAR COR EGLL 161520Z 18008KT 140V240 9999 BKN007 07/06
                        Q1002 NOSIG=
201001161450 METAR COR EGLL 161450Z 17009KT 130V230 9999 SCT006 BKN009
                        07/06 Q1002 NOSIG=
201001161420 METAR COR EGLL 161420Z 19008KT 160V230 9999 SCT007 BKN009
                        07/06 Q1002 TEMPO BKN012=
201001161350 METAR COR EGLL 161350Z 17009KT 140V230 9999 FEW006 BKN009
                        07/06 Q1002 TEMPO BKN010=
201001161320 METAR COR EGLL 161320Z 18009KT 130V240 5000 RA SCT006 BKN008
                        06/05 Q1003 RERA TEMPO NSW BKN010=
201001161250 METAR COR EGLL 161250Z 17010KT 150V210 8000 FEW006 BKN008
                        06/05 Q1003 RERA TEMPO BKN010=
201001161220 METAR COR EGLL 161220Z 18008KT 130V240 6000 -RA FEW006 BKN008
                        06/05 Q1004 RERA TEMPO SHRA=
201001161150 METAR COR EGLL 161150Z 17009KT 140V230 9999 -SHRA BKN008
                        06/05 Q1004 TEMPO SHRA=
201001161120 METAR COR EGLL 161120Z 16009KT 130V220 9999 SCT008 BKN010
                        06/04 Q1004 TEMPO SHRA BKN008=
201001161050 METAR COR EGLL 161050Z 16013KT 9999 FEW008 BKN010 06/04 Q1005
                        NOSIG=
201001161020 METAR COR EGLL 161020Z 16015KT 9000 -RA BKN009 05/04 Q1006
                        RERA TEMPO BKN011=
201001160950 METAR COR EGLL 160950Z 16014KT 9999 RA FEW008 BKN010 05/04
                        Q1006 BECMG -RA=
201001160920 METAR COR EGLL 160920Z 15012KT 7000 RA FEW008 BKN010 05/04
                        Q1006 BECMG -RA=
201001160850 METAR COR EGLL 160850Z 15010KT 8000 -RA SCT010 OVC015 05/03
                        Q1006 RERA TEMPO RA BKN010=
201001160820 METAR COR EGLL 160820Z 15013KT 9000 -RA SCT012 BKN016 05/03
                        Q1006 TEMPO RA BKN012=
201001160750 METAR EGLL 160750Z 16014KT 9999 RA BKN012 05/03 Q1007 TEMPO
                        -RA SCT012=
201001160720 METAR COR EGLL 160720Z 15015KT 9999 -RA FEW012 05/03 Q1007
                        BECMG 7000 RA BKN012=
201001160650 METAR EGLL 160650Z 14017KT 8000 -RA FEW009 BKN012 04/03 Q1007
                        TEMPO RA SCT012 BKN035=
201001160620 METAR EGLL 160620Z 15015KT 9000 -RA FEW016 SCT030 04/03 Q1008=
201001160550 METAR COR EGLL 160550Z 15012KT 9999 -DZ FEW016 04/02 Q1009
                        BECMG 8000 RA BKN014=
201001160520 METAR COR EGLL 160520Z 16013KT CAVOK 04/02 Q1009 TEMPO BKN014=
201001160450 METAR EGLL 160450Z 14015KT CAVOK 04/02 Q1009=
201001160420 METAR EGLL 160420Z 14016KT 9999 FEW011 04/02 Q1010=
201001160350 METAR COR EGLL 160350Z 15015KT 9999 FEW040 04/02 Q1011 TEMPO
                        BKN011=
201001160320 METAR COR EGLL 160320Z 15012KT CAVOK 04/02 Q1012 TEMPO BKN010=
201001160250 METAR COR EGLL 160250Z 15013KT 9000 NSC 04/02 Q1013 TEMPO
                        BKN009=
201001160220 METAR COR EGLL 160220Z 15012KT 9999 SCT009 05/03 Q1013 TEMPO
                        BKN008=
201001160150 METAR COR EGLL 160150Z 15012KT 9999 SCT006 05/04 Q1013 TEMPO
                        BKN006=
201001160120 METAR COR EGLL 160120Z 15011KT 9999 BKN007 06/04 Q1014 TEMPO
                        SCT009=
201001160050 METAR COR EGLL 160050Z 15012KT 9000 BKN006 06/05 Q1014 TEMPO
                        SCT007=
201001160020 METAR COR EGLL 160020Z 15010KT 8000 BKN006 06/05 Q1015 TEMPO
                        9999 SCT007=
201001152350 METAR COR EGLL 152350Z 15011KT 9000 OVC007 06/05 Q1016 NOSIG=
201001152320 METAR COR EGLL 152320Z 15011KT 7000 OVC006 06/05 Q1016 NOSIG=
201001152250 METAR COR EGLL 152250Z 15010KT 8000 OVC007 06/05 Q1016 TEMPO
                        SCT008=
201001152220 METAR COR EGLL 152220Z 15009KT 9000 BKN008 06/05 Q1017 TEMPO
                        SCT008=
201001152150 METAR COR EGLL 152150Z 17010KT 9000 BKN007 06/05 Q1017 TEMPO
                        SCT008=
201001152120 METAR COR EGLL 152120Z 15008KT 8000 BKN007 06/05 Q1017 TEMPO
                        SCT008 BKN015=
201001152050 METAR COR EGLL 152050Z 16011KT 7000 FEW005 BKN007 06/05 Q1018
                        TEMPO SCT008 BKN015=
201001152020 METAR COR EGLL 152020Z 15008KT 120V220 7000 FEW006 BKN007
                        06/05 Q1018 TEMPO SCT008 BKN015=
201001151950 METAR COR EGLL 151950Z 15010KT 120V210 6000 BKN005 06/05
                        Q1018 TEMPO SCT007 BKN015=
201001151920 METAR COR EGLL 151920Z 14009KT 6000 FEW005 BKN006 06/05 Q1018
                        TEMPO SCT006=
201001151850 METAR COR EGLL 151850Z 14009KT 110V190 6000 FEW005 BKN007
                        06/05 Q1018 TEMPO SCT007=
201001151820 METAR COR EGLL 151820Z 14008KT 100V170 6000 FEW006 BKN008
                        06/05 Q1018 TEMPO SCT008=
201001151750 METAR COR EGLL 151750Z 15008KT 120V180 6000 BKN007 06/05
                        Q1018 TEMPO SCT007=
201001151720 METAR COR EGLL 151720Z 15008KT 100V200 7000 BKN007 06/05
                        Q1018 TEMPO SCT007=
201001151650 METAR COR EGLL 151650Z 16009KT 120V200 7000 SCT007 SCT009
                        06/05 Q1018 TEMPO BKN007=
201001151620 METAR COR EGLL 151620Z 18011KT 7000 SCT007 BKN009 06/05 Q1018
                        TEMPO SCT010=
201001151550 METAR COR EGLL 151550Z 17010KT 8000 BKN008 06/05 Q1018 TEMPO
                        SCT008=
201001151520 METAR COR EGLL 151520Z 18011KT 150V230 8000 BKN007 06/05
                        Q1018 TEMPO SCT007=
201001151450 METAR COR EGLL 151450Z 18011KT 150V230 8000 SCT007 SCT009
                        06/05 Q1018 TEMPO BKN007=
201001151420 METAR COR EGLL 151420Z 18011KT 160V220 9000 OVC007 06/05
                        Q1018 TEMPO BKN010=
201001151350 METAR COR EGLL 151350Z 18009KT 160V230 9000 SCT006 BKN009
                        06/05 Q1018 BECMG BKN010=
201001151320 METAR COR EGLL 151320Z 17009KT 140V220 9000 SCT007 BKN009
                        06/05 Q1018 BECMG BKN010=
201001151250 METAR COR EGLL 151250Z 17009KT 140V230 9999 BKN008 BKN010
                        05/04 Q1018 TEMPO BKN015=
201001151220 METAR COR EGLL 151220Z 17011KT 140V220 9000 SCT009 BKN018
                        05/04 Q1018 TEMPO BKN010=
201001151150 METAR COR EGLL 151150Z 17008KT 130V220 8000 BKN009 BKN023
                        04/04 Q1018 BECMG BKN010=
201001151120 METAR COR EGLL 151120Z 15008KT 110V220 7000 -DZ BKN010 BKN035
                        04/03 Q1018 TEMPO BKN015=
201001151050 METAR COR EGLL 151050Z 16007KT 120V220 3000 -RA BKN004 03/02
                        Q1018 BECMG 7000 NSW BKN010=
201001151020 METAR COR EGLL 151020Z 14006KT 110V280 3000 -RA OVC005 02/02
                        Q1018 BECMG 7000 NSW BKN010=
201001150950 METAR COR EGLL 150950Z 17005KT 120V240 5000 -RA BKN003 BKN006
                        01/01 Q1018 RERA TEMPO BKN010=
201001150920 METAR COR EGLL 150920Z 14006KT 120V190 5000 BR BKN002 01/01
                        Q1018 BECMG BKN005=
201001150850 METAR COR EGLL 150850Z 15005KT 110V230 2000 BR OVC003 01/01
                        Q1018 BECMG 5000 BKN006=
201001150820 METAR COR EGLL 150820Z 18006KT 140V230 1400 BR OVC002 00/00
                        Q1018 BECMG 6000 NSW BKN006=
201001150750 METAR COR EGLL 150750Z 20006KT 140V230 1600 BR OVC002 00/00
                        Q1018 BECMG 6000 NSW BKN006=
201001150720 METAR COR EGLL 150720Z 21007KT 160V240 1600 BR OVC002 01/00
                        Q1017 BECMG 5000 BKN005=
201001150650 METAR COR EGLL 150650Z 19007KT 160V240 1200 R27L/1500 R27R/P1500
                        BR OVC002 01/00 Q1017 BECMG 3000
                        BKN004=
201001150620 METAR COR EGLL 150620Z 19006KT 120V240 0650 R27L/1400 R27R/1200
                        FG OVC001 01/01 Q1017 BECMG 1500
                        BR BKN002=
201001150550 METAR COR EGLL 150550Z 18006KT 0400 R27L/1200 R27R/P1500
                        FG OVC001 01/01 Q1016 BECMG 1500
                        BR BKN002=
201001150520 METAR EGLL 150520Z 22006KT 0500 R27L/P1500 FG OVC002 01/01
                        Q1016=
201001150450 METAR COR EGLL 150450Z 20004KT 3100 BR OVC003 02/01 Q1016
                        BECMG 2500=
201001150420 METAR COR EGLL 150420Z 21005KT 6000 BKN003 02/01 Q1015 BECMG
                        3500 BR=
201001150350 METAR COR EGLL 150350Z 19004KT 150V240 9999 OVC004 02/01
                        Q1015 BECMG 4000 BR=
201001150320 METAR COR EGLL 150320Z 18004KT 9999 OVC004 02/01 Q1015 BECMG
                        4000 BR=
201001150250 METAR COR EGLL 150250Z VRB02KT 9000 OVC005 02/01 Q1015 BECMG
                        4000 BR BKN004=
201001150220 METAR COR EGLL 150220Z VRB03KT 9000 OVC006 02/01 Q1014 BECMG
                        4000 BR BKN004=
201001150150 METAR COR EGLL 150150Z 25004KT 9000 BKN006 02/02 Q1014 BECMG
                        4000 BKN004=
201001150120 METAR COR EGLL 150120Z 27003KT 9000 OVC006 02/02 Q1014 BECMG
                        4000 BR BKN004=
201001150050 METAR EGLL 150050Z 27004KT 8000 OVC006 02/02 Q1014=
201001150020 METAR COR EGLL 150020Z 27004KT 9000 FEW005 BKN007 02/02 Q1013
                        BECMG 4500 BR BKN004=
201001142350 METAR COR EGLL 142350Z 25003KT 9999 FEW005 BKN007 02/02 Q1013
                        BECMG 4500 BR BKN004=
201001142320 METAR COR EGLL 142320Z 00000KT 9999 FEW005 BKN007 02/01 Q1013
                        BECMG 4500 BR BKN004=
201001142250 METAR COR EGLL 142250Z VRB03KT 9000 BKN005 02/02 Q1012 BECMG
                        4500 BR BKN004=
201001142220 METAR COR EGLL 142220Z 29003KT 9000 BKN005 BKN010 02/02 Q1012
                        BECMG 4500 BR=
201001142150 METAR COR EGLL 142150Z 30003KT 9999 BKN005 BKN011 02/02 Q1012
                        BECMG 4500 BR BKN004=
201001142120 METAR COR EGLL 142120Z VRB03KT 9999 FEW005 BKN011 02/02 Q1012
                        BECMG 4000 BR BKN004=
201001142050 METAR COR EGLL 142050Z 32003KT 9999 BKN005 02/01 Q1011 BECMG
                        4000 BR BKN004=
201001142020 METAR COR EGLL 142020Z 31005KT 6000 BKN004 02/01 Q1011 BECMG
                        3000 BR=
201001141950 METAR COR EGLL 141950Z 32005KT 4000 BR FEW003 BKN005 02/02
                        Q1010 BECMG 2800 BKN004=
201001141920 METAR COR EGLL 141920Z 31004KT 2500 BR FEW002 BKN004 02/02
                        Q1010 TEMPO 1200=
201001141850 METAR EGLL 141850Z 32004KT 290V360 3000 BR FEW002 BKN004
                        02/02 Q1009=
201001141820 METAR COR EGLL 141820Z VRB03KT 1800 BR BKN003 02/02 Q1009
                        TEMPO 1200=
201001141750 METAR COR EGLL 141750Z 35004KT 2000 BR SCT002 BKN004 03/02
                        Q1008 TEMPO 1200=
201001141720 METAR COR EGLL 141720Z 35004KT 8000 FEW004 BKN014 03/02 Q1008
                        BECMG 4000 BR BKN005=
201001141650 METAR COR EGLL 141650Z 33004KT 300V010 8000 BKN005 03/02
                        Q1007 TEMPO 4000 BR BKN004=
201001141620 METAR COR EGLL 141620Z 35004KT 8000 SCT005 BKN012 03/02 Q1007
                        BECMG BKN005=
201001141550 METAR COR EGLL 141550Z 35004KT 9999 6000E BKN006 BKN013 04/03
                        Q1006 TEMPO BKN004=
201001141520 METAR COR EGLL 141520Z 36004KT 330V050 9999 6000E SCT006
                        BKN013 04/03 Q1006 TEMPO 4000 BR
                        BKN005=
201001141450 METAR COR EGLL 141450Z 01004KT 320V040 9000 BKN006 BKN012
                        04/03 Q1005 TEMPO 4000 BR BKN004=
201001141420 METAR COR EGLL 141420Z 35004KT 9000 BKN006 04/03 Q1005 TEMPO
                        4000 BR BKN004=
201001141350 METAR COR EGLL 141350Z 35004KT 9000 SCT006 BKN014 04/03 Q1005
                        TEMPO 3000 BKN006=
201001141320 METAR COR EGLL 141320Z 01004KT 340V050 8000 SCT006 BKN019
                        04/03 Q1004 TEMPO BKN006=
201001141250 METAR COR EGLL 141250Z 04004KT 010V070 7000 SCT005 BKN013
                        03/03 Q1004 TEMPO 4000 -DZ BKN005=
201001141220 METAR COR EGLL 141220Z 04004KT 010V080 7000 FEW005 SCT015
                        BKN020 03/03 Q1004 TEMPO 4000 -DZ
                        BKN007=
201001141150 METAR COR EGLL 141150Z 04004KT 6000 SCT005 BKN021 03/03 Q1004
                        TEMPO 4000 -DZ BKN005=
201001141120 METAR COR EGLL 141120Z 04005KT 6000 FEW004 SCT006 BKN015
                        03/03 Q1004 TEMPO 4000 -DZ BKN005=
201001141050 METAR COR EGLL 141050Z 04004KT 020V080 5000 BR FEW004 SCT006
                        BKN017 03/02 Q1003 TEMPO 3000 BKN004=
201001141020 METAR COR EGLL 141020Z 05004KT 010V070 4000 -DZ FEW004 BKN018
                        03/02 Q1003 TEMPO BKN004=
201001140950 METAR COR EGLL 140950Z 06005KT 4500 BR FEW004 BKN025 03/02
                        Q1003 TEMPO BKN004=
201001140920 METAR COR EGLL 140920Z 05004KT 4500 -RA FEW021 BKN026 02/02
                        Q1003 TEMPO BKN005=
201001140850 METAR COR EGLL 140850Z 04005KT 2300 -RA SCT015 BKN024 02/02
                        Q1002 TEMPO RA BKN004=
201001140820 METAR COR EGLL 140820Z 03005KT 2200 -RA SCT003 BKN024 02/02
                        Q1002 TEMPO RA BKN003=
201001140750 METAR COR EGLL 140750Z 03005KT 2000 -RA SCT003 BKN004 02/02
                        Q1002 TEMPO RA=
201001140720 METAR COR EGLL 140720Z 04004KT 2000 RA SCT002 BKN004 02/02
                        Q1001 RERA TEMPO 1200 BR BKN002=
201001140650 METAR COR EGLL 140650Z 05004KT 1400 R09L/P1500 R09R/P1500
                        RA SCT002 BKN004 02/02 Q1001 TEMPO
                        BKN002=
201001140620 METAR COR EGLL 140620Z 04005KT 1200 R09L/P1500 R09R/P1500
                        -RA SCT002 BKN004 02/01 Q1001 TEMPO
                        0500 FG BKN001=
201001140550 METAR COR EGLL 140550Z 04004KT 1100 R09L/P1500 R09R/P1500
                        -RA BKN002 02/01 Q1000 TEMPO 0500
                        FG BKN000=
201001140520 METAR COR EGLL 140520Z 03006KT 1800 BR BKN003 01/01 Q1000
                        TEMPO 0700 BCFG BKN001=
201001140450 METAR COR EGLL 140450Z 04005KT 1800 BR SCT004 BKN008 01/01
                        Q1001 TEMPO 0700 BCFG BKN002=
201001140420 METAR COR EGLL 140420Z 03005KT 1400 BR SCT004 BKN008 01/01
                        Q1001 TEMPO 0500 FG BKN001=
201001140350 METAR COR EGLL 140350Z VRB03KT 1400 R09L/P1500 R09R/P1500
                        BR FEW002 BKN030 01/00 Q1001 TEMPO
                        0500 FG BKN000=
201001140320 METAR COR EGLL 140320Z 04005KT 1400 BR FEW002 BKN032 00/00
                        Q1001 TEMPO 0500 FZFG BKN000=
201001140250 METAR COR EGLL 140250Z 05004KT 020V080 1800 R09L/1400 BR
                        FEW002 BKN033 00/00 Q1000 TEMPO 0500
                        FZFG BKN000=
201001140220 METAR COR EGLL 140220Z 04004KT 1600 BR BKN030 00/M00 Q1000
                        TEMPO 0500 FZFG BKN000=
201001140150 METAR COR EGLL 140150Z 04004KT 1500 BR SCT025 00/M00 Q1000
                        TEMPO 0500 FZFG BKN000=
201001140120 METAR COR EGLL 140120Z 03004KT 1700 BR SCT035 01/00 Q1000
                        TEMPO 1400 BKN004=
201001140050 METAR COR EGLL 140050Z 03004KT 2000 BR BKN005 BKN035 01/01
                        Q1000 TEMPO SCT005=
201001140020 METAR COR EGLL 140020Z 05002KT 2000 BR BKN005 01/01 Q1001
                        TEMPO SCT005 BKN015=
201001132350 METAR EGLL 132350Z 14003KT 2500 BR FEW007 BKN030 01/01 Q1001=
201001132320 METAR EGLL 132320Z 04003KT 2500 BR OVC030 01/01 Q1001=
201001132250 METAR COR EGLL 132250Z VRB03KT 3000 BR BKN030 01/01 Q1001
                        TEMPO BKN012=
201001132220 METAR COR EGLL 132220Z 08004KT 3000 HZ BKN006 BKN030 01/01
                        Q1001 TEMPO SCT007 BKN012=
201001132150 METAR COR EGLL 132150Z VRB02KT 3600 BR OVC007 01/01 Q1001
                        TEMPO SCT007 BKN012=
201001132120 METAR COR EGLL 132120Z 09004KT 3600 BR OVC006 01/01 Q1001
                        TEMPO 2500 BKN004=
201001132050 METAR COR EGLL 132050Z 06004KT 2600 BR FEW004 OVC006 01/00
                        Q1001 TEMPO BKN004=
201001132020 METAR COR EGLL 132020Z 10004KT 2000 BR OVC005 01/00 Q1001
                        TEMPO BKN004=
201001131950 METAR COR EGLL 131950Z 11004KT 3000 BR BKN006 BKN008 01/00
                        Q1001 BECMG 2500=
201001131920 METAR COR EGLL 131920Z 12003KT 3200 BR OVC011 01/00 Q1001
                        BECMG 2500 BKN008=
201001131850 METAR COR EGLL 131850Z 12005KT 2100 BR FEW008 BKN012 01/00
                        Q1001 BECMG BKN008=
201001131820 METAR COR EGLL 131820Z VRB03KT 2900 BR FEW009 BKN011 OVC016
                        01/M00 Q1001 BECMG BKN008=
201001131750 METAR COR EGLL 131750Z 08004KT 4000 BR BKN010 BKN016 01/M00
                        Q1001 BECMG 2800 BKN008=
201001131720 METAR EGLL 131720Z 08004KT 3500 BR BKN014 OVC019 01/M00 Q1001=
201001131650 METAR COR EGLL 131650Z 10002KT 3000 BR SCT021 OVC023 01/M00
                        Q1001 BECMG 2500=
201001131620 METAR COR EGLL 131620Z 10003KT 3600 -SNRA OVC024 01/M00 Q1001
                        BECMG 2800 BR BKN008=
201001131550 METAR EGLL 131550Z 09003KT 4200 -SN BKN015 BKN031 01/M00
                        Q1001=
201001131520 METAR COR EGLL 131520Z 10004KT 4000 -SN BKN018 BKN036 01/M00
                        Q1001 BECMG 2800 BR BKN006=
201001131450 METAR EGLL 131450Z 09004KT 4000 BR BKN012 01/M00 Q1000 BECMG
                        2800 BKN006=
201001131420 METAR COR EGLL 131420Z 08004KT 4200 BR BKN020 01/M00 Q1000
                        TEMPO BKN006=
201001131350 METAR COR EGLL 131350Z VRB03KT 4000 BR BKN023 01/M00 Q1000
                        881/ TEMPO BKN006=
201001131320 METAR COR EGLL 131320Z VRB03KT 3500 BR FEW010 BKN022 00/M00
                        Q1000 882///// NOSIG=
201001131250 METAR COR EGLL 131250Z 13004KT 3500 BR FEW010 BKN030 00/M01
                        Q1001 882///// TEMPO 1400 -SN BKN006=
201001131220 METAR COR EGLL 131220Z 11004KT 3000 BR FEW009 BKN030 00/M00
                        Q1001 882///// TEMPO 1400 -SN BKN006=
201001131150 METAR COR EGLL 131150Z 10004KT 2500 -SN SCT015 SCT020 M00/M01
                        Q1001 TEMPO BKN006=
201001131120 METAR COR EGLL 131120Z 10005KT 2200 -SN SCT015 BKN019 M00/M01
                        Q1001 TEMPO 1400 BKN004=
201001131050 METAR COR EGLL 131050Z 09005KT 1400 R09L/P1500 R09R/P1500
                        -SN SCT005 BKN011 M00/M01 Q1001 TEMPO
                        3000 BKN004=
201001131020 METAR EGLL 131020Z 09005KT 1200 R09L/P1500 R09R/1300 -SN
                        BKN005 M00/M01 Q1001=
201001130950 METAR COR EGLL 130950Z 08007KT 1100 R09L/P1500 R09R/1400
                        -SN BKN004 M00/M01 Q1001 TEMPO 1500
                        BKN005=
201001130920 METAR COR EGLL 130920Z 08005KT 1300 R09L/P1500 -SN OVC005
                        M00/M01 Q1000 TEMPO 0700 BKN002=
201001130850 METAR COR EGLL 130850Z 07006KT 1100 R09L/1500 SN SCT004 BKN008
                        M00/M01 Q1000 TEMPO 0700 BKN002=
201001130820 METAR COR EGLL 130820Z 07006KT 0900 R09L/P1500 -SN VV///
                        M00/M01 Q1000 TEMPO 0700 SN OVC002=
201001130750 METAR COR EGLL 130750Z 07006KT 0900 R09L/P1500 R09R/P1500
                        -SN BKN004 M00/M01 Q1000 TEMPO 0700
                        SN=
201001130720 METAR COR EGLL 130720Z 07005KT 1200 R09L/P1500 R09R/P1500
                        -SN BKN004 BKN008 M00/M01 Q1000 TEMPO
                        1500 SN BKN005=
201001130650 METAR COR EGLL 130650Z 07007KT 1200 R09L/P1500 R09R/P1500
                        -SN BKN006 M00/M01 Q1000 TEMPO 1500
                        SN BKN004=
201001130620 METAR COR EGLL 130620Z 07006KT 1200 R09L/P1500 R09R/P1500
                        SN BKN004 M00/M01 Q0999 TEMPO 1500
                        -SN BKN005=
201001130550 METAR COR EGLL 130550Z 07006KT 1400 R09R/P1500 SN BKN006
                        M00/M01 Q0999 TEMPO 1200 -SN BKN004=
201001130520 METAR COR EGLL 130520Z 08006KT 1500 R09R/P1500 SN FEW005
                        BKN010 M00/M01 Q0999 TEMPO 1000 BKN004=
201001130450 METAR COR EGLL 130450Z 07006KT 1200 R09L/P1500 R09R/P1500
                        SN OVC004 M00/M01 Q0999 NOSIG=
201001130420 METAR COR EGLL 130420Z 08007KT 1200 R09L/P1500 R09R/1500
                        -SN BKN004 M00/M01 Q0999 NOSIG=
201001130350 METAR COR EGLL 130350Z 08008KT 1500 R09L/P1500 R09R/P1500
                        SN BKN007 BKN010 M00/M01 Q0999 TEMPO
                        1000 BKN004=
201001130320 METAR COR EGLL 130320Z 09009KT 1500 -SN BKN010 M00/M01 Q0999
                        TEMPO 1000 SN BKN005=
201001130250 METAR COR EGLL 130250Z 09008KT 1800 -SN BKN010 00/M01 Q0999
                        BECMG 1200 SN BKN005=
201001130220 METAR COR EGLL 130220Z 09008KT 3000 -SN BKN013 00/M01 Q1000
                        BECMG BKN006=
201001130150 METAR COR EGLL 130150Z 10010KT 4000 -SN BKN016 01/M02 Q1000
                        BECMG BKN012=
201001130120 METAR COR EGLL 130120Z 09011KT 5000 HZ BKN016 01/M02 Q1000
                        BECMG 4000 -SN BKN014=
201001130050 METAR COR EGLL 130050Z 10014KT 5000 HZ BKN018 01/M02 Q1000
                        BECMG 4000 -SN BKN012=
201001130020 METAR COR EGLL 130020Z 11013KT 5000 HZ BKN016 01/M02 Q1000
                        TEMPO 4500 BKN014=
201001122350 METAR COR EGLL 122350Z 10013KT 5000 HZ BKN014 01/M02 Q1000
                        TEMPO 4500=
201001122320 METAR COR EGLL 122320Z 09012KT 5000 HZ BKN014 01/M02 Q1000
                        TEMPO 4500 BKN015=
201001122250 METAR COR EGLL 122250Z 09011KT 5000 HZ BKN016 01/M02 Q1001
                        TEMPO 4500 BKN014=
201001122220 METAR COR EGLL 122220Z 09011KT 5000 HZ BKN016 BKN026 01/M02
                        Q1001 TEMPO 4500 BKN014=
201001122150 METAR COR EGLL 122150Z 10011KT 5000 HZ BKN016 OVC026 01/M02
                        Q1001 TEMPO 4500 BKN014=
201001122120 METAR COR EGLL 122120Z 10012KT 5000 HZ BKN015 01/M02 Q1001
                        TEMPO 4500 BKN014=
201001122050 METAR COR EGLL 122050Z 11012KT 7000 OVC017 01/M02 Q1002 TEMPO
                        BKN014=
201001122020 METAR COR EGLL 122020Z 10010KT 7000 OVC015 01/M01 Q1002 TEMPO
                        4500 HZ BKN012=
201001121950 METAR COR EGLL 121950Z 10011KT 6000 OVC015 01/M02 Q1002 BECMG
                        4500 HZ BKN012=
201001121920 METAR COR EGLL 121920Z 09013KT 6000 BKN015 01/M02 Q1002 BECMG
                        4500 HZ BKN012=
201001121850 METAR COR EGLL 121850Z 10014KT 7000 OVC019 01/M02 Q1002 BECMG
                        4500 HZ BKN014=
201001121820 METAR COR EGLL 121820Z 10013KT 7000 OVC016 01/M02 Q1003 BECMG
                        4500 HZ BKN013=
201001121750 METAR COR EGLL 121750Z 10012KT 4800 -SG OVC013 01/M02 Q1003
                        TEMPO 5000 NSW BKN015=
201001121720 METAR EGLL 121720Z 10012KT 4800 HZ OVC012 01/M01 Q1003=
201001121650 METAR COR EGLL 121650Z 11012KT 4800 HZ OVC013 01/M01 Q1004
                        TEMPO 5000 BKN015=
201001121620 METAR COR EGLL 121620Z 11012KT 4400 HZ OVC013 01/M01 Q1004
                        TEMPO 5000 BKN015=
201001121550 METAR COR EGLL 121550Z 11011KT 4800 HZ OVC013 01/M01 Q1005
                        TEMPO 5000 BKN015=
201001121520 METAR COR EGLL 121520Z 11008KT 7000 OVC015 01/M02 Q1005 NOSIG=
201001121450 METAR COR EGLL 121450Z 13011KT 7000 OVC017 01/M02 Q1005 NOSIG=
201001121420 METAR EGLL 121420Z 12012KT 8000 BKN018 BKN037 02/M02 Q1005=
201001121350 METAR EGLL 121350Z 12012KT 6000 FEW017 BKN036 02/M02 Q1005=
201001121320 METAR COR EGLL 121320Z 12012KT 6000 BKN017 02/M01 Q1006 NOSIG=
201001121250 METAR COR EGLL 121250Z 12011KT 6000 BKN017 02/M01 Q1007 NOSIG=
201001121220 METAR COR EGLL 121220Z 11012KT 5000 HZ FEW014 BKN017 02/M01
                        Q1008 NOSIG=
201001121150 METAR COR EGLL 121150Z 11011KT 5000 HZ SCT012 BKN018 02/M00
                        Q1008 NOSIG=
201001121120 METAR EGLL 121120Z 11010KT 5000 HZ FEW013 BKN017 02/M01 Q1009=
201001121050 METAR EGLL 121050Z 11010KT 5000 HZ OVC013 02/M00 Q1010=
201001121020 METAR COR EGLL 121020Z 11009KT 5000 HZ OVC015 02/M00 Q1010
                        NOSIG=
201001120950 METAR COR EGLL 120950Z 10008KT 5000 HZ OVC016 01/M01 Q1011
                        TEMPO 4500=
201001120920 METAR COR EGLL 120920Z 10007KT 5000 HZ BKN014 01/M01 Q1012
                        TEMPO 4000 BKN016=
201001120850 METAR COR EGLL 120850Z 10009KT 5000 HZ OVC014 01/M01 Q1012
                        TEMPO 4000 BKN016=
201001120820 METAR COR EGLL 120820Z 10008KT 5000 HZ BKN016 OVC042 01/M01
                        Q1012 TEMPO 4000 BKN012=
201001120750 METAR COR EGLL 120750Z 10007KT 6000 OVC043 01/M01 Q1012 TEMPO
                        4500 HZ BKN012=
201001120720 METAR COR EGLL 120720Z 10007KT 6000 OVC045 01/M01 Q1012 NOSIG=
201001120650 METAR COR EGLL 120650Z 11008KT 7000 FEW041 BKN046 01/M01
                        Q1013 NOSIG=
201001120620 METAR EGLL 120620Z 10006KT 6000 BKN047 01/M01 Q1013=
201001120550 METAR COR EGLL 120550Z 09007KT 5000 HZ BKN048 01/M01 Q1014
                        NOSIG=
201001120520 METAR COR EGLL 120520Z 09006KT 5000 HZ BKN049 01/M01 Q1015
                        TEMPO 4500 BR=
201001120450 METAR COR EGLL 120450Z 10006KT 5000 HZ FEW043 01/M01 Q1015
                        TEMPO 4500 BR=
201001120420 METAR COR EGLL 120420Z 09005KT 4700 HZ FEW048 01/M01 Q1016
                        NOSIG=
201001120350 METAR COR EGLL 120350Z 09005KT 4500 HZ SCT044 01/M01 Q1016
                        NOSIG=
201001120320 METAR COR EGLL 120320Z 09004KT 4400 HZ SCT041 01/M01 Q1017
                        NOSIG=
201001120250 METAR COR EGLL 120250Z 09005KT 5000 HZ SCT041 01/M01 Q1017
                        TEMPO 4500 BR=
201001120220 METAR COR EGLL 120220Z 11005KT 4200 BR SCT040 01/M01 Q1017
                        NOSIG=
201001120150 METAR COR EGLL 120150Z 15004KT 4500 BR SCT040 01/M00 Q1018
                        NOSIG=
201001120120 METAR COR EGLL 120120Z 12003KT 4000 BR BKN010 01/M01 Q1018
                        TEMPO SCT010=
201001120050 METAR COR EGLL 120050Z 09003KT 4000 BR BKN011 01/M01 Q1018
                        TEMPO SCT011=
201001120020 METAR COR EGLL 120020Z 08003KT 4100 BR SCT012 SCT017 01/M01
                        Q1018 TEMPO BKN012=
201001112350 METAR COR EGLL 112350Z 08005KT 3900 BR NSC 01/M01 Q1018 NOSIG=
201001112320 METAR COR EGLL 112320Z 08003KT 3600 BR NSC 01/M01 Q1019 NOSIG=
201001112250 METAR COR EGLL 112250Z 09004KT 3600 BR NSC 01/M01 Q1019 TEMPO
                        BKN010=
201001112220 METAR COR EGLL 112220Z 00000KT 3700 BR NSC 01/M01 Q1019 TEMPO
                        BKN010=
201001112150 METAR COR EGLL 112150Z 18002KT 3500 HZ BKN010 01/M01 Q1019
                        NOSIG=
201001112120 METAR COR EGLL 112120Z 16002KT 4000 HZ BKN010 01/M01 Q1019
                        NOSIG=
201001112050 METAR COR EGLL 112050Z 00000KT 4500 HZ BKN011 01/M01 Q1019
                        NOSIG=
201001112020 METAR COR EGLL 112020Z 00000KT 4500 HZ BKN011 01/M01 Q1019
                        NOSIG=
201001111950 METAR COR EGLL 111950Z 09002KT 4500 HZ BKN013 01/M01 Q1019
                        NOSIG=
201001111920 METAR COR EGLL 111920Z 08003KT 4000 HZ BKN012 01/M01 Q1019
                        TEMPO 5000 SCT012=
201001111850 METAR COR EGLL 111850Z VRB03KT 4700 HZ BKN010 01/M01 Q1019
                        TEMPO 5000 SCT015=
201001111820 METAR COR EGLL 111820Z VRB03KT 4000 HZ SCT009 01/M01 Q1019
                        TEMPO 5000=
201001111750 METAR COR EGLL 111750Z 07003KT 4500 HZ BKN016 01/M01 Q1019
                        TEMPO 5000=
201001111720 METAR COR EGLL 111720Z VRB02KT 5000 HZ OVC010 01/M01 Q1019
                        TEMPO SCT015=
201001111650 METAR COR EGLL 111650Z VRB03KT 4500 HZ OVC014 01/M01 Q1019
                        TEMPO 5000 BKN016=
201001111620 METAR COR EGLL 111620Z 06004KT 4000 HZ OVC011 01/M01 Q1019
                        TEMPO 5000 SCT015=
201001111550 METAR COR EGLL 111550Z VRB03KT 4000 HZ OVC010 01/M01 Q1019
                        TEMPO 5000 SCT015=
201001111520 METAR COR EGLL 111520Z 04004KT 340V070 4000 HZ FEW013 SCT018
                        01/M01 Q1019 TEMPO 5000=
201001111450 METAR COR EGLL 111450Z 03004KT 5000 HZ OVC020 02/M01 Q1019
                        NOSIG=
201001111420 METAR COR EGLL 111420Z 04004KT 360V080 7000 BKN022 01/M02
                        Q1019 NOSIG=
201001111350 METAR COR EGLL 111350Z 07004KT 7000 OVC022 01/M02 Q1019 NOSIG=
201001111320 METAR COR EGLL 111320Z VRB03KT 7000 OVC022 01/M02 Q1019 NOSIG=
201001111250 METAR COR EGLL 111250Z 07004KT 7000 OVC021 01/M02 Q1019 NOSIG=
201001111220 METAR COR EGLL 111220Z 07003KT 7000 OVC020 01/M02 Q1019 NOSIG=
201001111150 METAR COR EGLL 111150Z 07004KT 7000 OVC021 01/M02 Q1020 NOSIG=
201001111120 METAR COR EGLL 111120Z 08003KT 7000 OVC021 01/M02 Q1020 NOSIG=
201001111050 METAR COR EGLL 111050Z 09003KT 7000 OVC020 01/M02 Q1020 NOSIG=
201001111020 METAR COR EGLL 111020Z 10003KT 7000 OVC018 01/M02 Q1019 NOSIG=
201001110950 METAR COR EGLL 110950Z 10004KT 070V130 7000 OVC018 01/M02
                        Q1019 NOSIG=
201001110920 METAR COR EGLL 110920Z 10004KT 5000 BR OVC018 01/M02 Q1019
                        NOSIG=
201001110850 METAR COR EGLL 110850Z 08004KT 6000 OVC017 01/M01 Q1019 NOSIG=
201001110820 METAR COR EGLL 110820Z 07004KT 6000 OVC017 01/M01 Q1019 NOSIG=
201001110750 METAR COR EGLL 110750Z 09004KT 6000 OVC018 01/M01 Q1018 NOSIG=
201001110720 METAR COR EGLL 110720Z 09004KT 6000 OVC018 01/M01 Q1018 NOSIG=
201001110650 METAR COR EGLL 110650Z 07004KT 5000 BR BKN018 00/M01 Q1018
                        TEMPO 4500=
201001110620 METAR COR EGLL 110620Z 07004KT 4600 BR OVC019 00/M01 Q1018
                        NOSIG=
201001110550 METAR COR EGLL 110550Z 07004KT 5000 BR OVC019 00/M01 Q1018
                        NOSIG=
201001110520 METAR COR EGLL 110520Z 08003KT 5000 BR SCT016 BKN021 00/M01
                        Q1018 NOSIG=
201001110450 METAR COR EGLL 110450Z 09004KT 5000 BR OVC016 00/M01 Q1018
                        NOSIG=
201001110420 METAR COR EGLL 110420Z 09004KT 4800 BR BKN018 00/M00 Q1018
                        TEMPO 5000 NSW=
201001110350 METAR COR EGLL 110350Z 09003KT 4800 BR BKN025 00/M01 Q1018
                        TEMPO 5000 NSW=
201001110320 METAR COR EGLL 110320Z 08004KT 4100 BR SCT019 SCT025 00/M01
                        Q1018 TEMPO 5000 NSW BKN014=
201001110250 METAR COR EGLL 110250Z 09004KT 2500 -SN FEW015 BKN028 00/M01
                        Q1018 TEMPO 5000 NSW BKN012=
201001110220 METAR COR EGLL 110220Z 11007KT 1500 R09L/P1500 SN SCT002
                        BKN011 00/M01 Q1018 BECMG 5000 NSW=
201001110150 METAR COR EGLL 110150Z 10003KT 1600 -SN BKN003 00/M00 Q1018
                        TEMPO 4000 BKN006=
201001110120 METAR EGLL 110120Z 07003KT 1700 -SN BKN003 00/M00 Q1018 RESN=
201001110050 METAR COR EGLL 110050Z 09002KT 2200 SN FEW005 BKN008 00/M00
                        Q1018 TEMPO 6000 NSW=
201001110020 METAR COR EGLL 110020Z 08004KT 1400 SN SCT003 SCT007 01/M00
                        Q1018 TEMPO 6000 NSW=
201001102350 METAR COR EGLL 102350Z VRB03KT 5000 -SN FEW003 BKN020 01/M00
                        Q1018 RESHSN TEMPO 3000 SHSN BKN009=
201001102320 METAR COR EGLL 102320Z 05004KT 3000 SHSN SCT006 BKN020 01/M00
                        Q1018 BECMG 6000 -SN BKN009=
201001102250 METAR COR EGLL 102250Z 05005KT 020V080 6000 -RASN BKN006
                        01/M00 Q1018 TEMPO 4000 SHSN=
201001102220 METAR COR EGLL 102220Z 04005KT 6000 -RASN FEW007 SCT009 BKN013
                        01/M00 Q1017 TEMPO BKN009=
201001102150 METAR COR EGLL 102150Z 04004KT 020V080 9000 -DZ FEW005 BKN030
                        01/M00 Q1017 TEMPO BKN009=
201001102120 METAR COR EGLL 102120Z 06005KT 7000 -DZ FEW007 BKN009 01/M00
                        Q1017 NOSIG=
201001102050 METAR COR EGLL 102050Z 05004KT 9000 BKN009 01/M00 Q1017 TEMPO
                        BKN010=
201001102020 METAR EGLL 102020Z 05004KT 360V090 8000 FEW007 BKN012 01/M00
                        Q1017=
201001101950 METAR COR EGLL 101950Z 05005KT 010V070 9999 BKN011 01/M00
                        Q1017 TEMPO BKN009=
201001101920 METAR COR EGLL 101920Z 06006KT 9000 -SG BKN009 02/M00 Q1017
                        TEMPO BKN011=
201001101850 METAR COR EGLL 101850Z 05005KT 010V080 9999 FEW008 BKN010
                        01/M00 Q1017 NOSIG=
201001101820 METAR COR EGLL 101820Z 05006KT 020V090 8000 -SG FEW008 BKN011
                        01/M00 Q1017 NOSIG=
201001101750 METAR COR EGLL 101750Z 05007KT 010V080 9999 BKN011 02/M01
                        Q1017 NOSIG=
201001101720 METAR COR EGLL 101720Z 06007KT 9999 OVC011 02/M01 Q1017 NOSIG=
201001101650 METAR COR EGLL 101650Z 05006KT 9000 -SG OVC011 02/M01 Q1017
                        NOSIG=
201001101620 METAR COR EGLL 101620Z 05008KT 9999 BKN014 02/M01 Q1017 TEMPO
                        BKN015=
201001101550 METAR COR EGLL 101550Z 05007KT 9999 BKN014 02/M01 Q1017 TEMPO
                        BKN015=
201001101520 METAR COR EGLL 101520Z 04008KT 9999 BKN014 02/M01 Q1017 TEMPO
                        BKN015=
201001101450 METAR COR EGLL 101450Z 04008KT 360V070 9999 SCT014 BKN018
                        02/M01 Q1017 TEMPO BKN014=
201001101420 METAR COR EGLL 101420Z 04008KT 010V080 9999 BKN014 02/M01
                        Q1017 NOSIG=
201001101350 METAR COR EGLL 101350Z 04007KT 360V070 9999 OVC015 02/M01
                        Q1017 NOSIG=
201001101320 METAR COR EGLL 101320Z 04006KT 360V070 9999 BKN018 02/M01
                        Q1017 NOSIG=
201001101250 METAR COR EGLL 101250Z 04007KT 360V090 9999 BKN016 02/M01
                        Q1018 TEMPO BKN014=
201001101220 METAR COR EGLL 101220Z 04009KT 360V080 9999 BKN016 02/M01
                        Q1018 TEMPO BKN014=
201001101150 METAR COR EGLL 101150Z 04008KT 010V070 9999 SCT017 02/M01
                        Q1018 NOSIG=
201001101120 METAR COR EGLL 101120Z 03007G18KT 360V060 9999 FEW015 02/M01
                        Q1018 NOSIG=
201001101050 METAR COR EGLL 101050Z 03007KT 360V090 9999 SCT018 02/M01
                        Q1018 NOSIG=
201001101020 METAR COR EGLL 101020Z 03007KT 010V070 9999 SCT016 SCT022
                        02/M01 Q1018 NOSIG=
201001100950 METAR COR EGLL 100950Z 03007KT 340V060 9999 SCT016 BKN020
                        02/M01 Q1018 NOSIG=
201001100920 METAR COR EGLL 100920Z 02006KT 360V060 9999 SCT018 SCT029
                        01/M01 Q1018 TEMPO -SN BKN012=
201001100850 METAR COR EGLL 100850Z 03007KT 350V090 9999 SCT012 SCT020
                        02/M01 Q1018 TEMPO -SN BKN012=
201001100820 METAR COR EGLL 100820Z 04007KT 010V080 9000 -RASN BKN012
                        01/M01 Q1018 NOSIG=
201001100750 METAR COR EGLL 100750Z 03007KT 360V070 9999 SCT014 BKN019
                        01/M01 Q1018 TEMPO -SN BKN014=
201001100720 METAR COR EGLL 100720Z 03007KT 360V060 9999 BKN016 02/M01
                        Q1018 TEMPO -SN BKN014=
201001100650 METAR COR EGLL 100650Z 02007KT 350V050 9999 BKN015 02/M01
                        Q1018 TEMPO -SN BKN014=
201001100620 METAR COR EGLL 100620Z 02007KT 350V050 9999 BKN017 02/M01
                        Q1018 TEMPO -SN BKN014=
201001100550 METAR COR EGLL 100550Z 02007KT 340V060 9999 BKN018 01/M01
                        Q1018 TEMPO -SN BKN014=
201001100520 METAR EGLL 100520Z NIL=
201001100450 METAR COR EGLL 100450Z 01006KT 330V040 9999 BKN020 01/M02
                        Q1018 TEMPO -SN BKN014=
201001100420 METAR COR EGLL 100420Z 36006KT 340V040 9999 BKN020 01/M02
                        Q1018 TEMPO -SN BKN014=
201001100350 METAR COR EGLL 100350Z 02006KT 350V050 9999 BKN020 01/M02
                        Q1019 TEMPO -SN BKN014=
201001100320 METAR COR EGLL 100320Z 02006KT 350V050 9999 BKN017 01/M02
                        Q1019 TEMPO -SN BKN014=
201001100250 METAR COR EGLL 100250Z 01007KT 340V040 9999 OVC017 01/M01
                        Q1019 NOSIG=
201001100220 METAR EGLL 100220Z AUTO 01007KT 340V040 9999NDV SG OVC016///
                        01/M02 Q1019=
201001100150 METAR EGLL 100150Z AUTO 02006KT 340V050 9999NDV -SN OVC018///
                        01/M02 Q1019=
201001100120 METAR EGLL 100120Z AUTO 01007KT 340V050 9999NDV -SN BKN020///
                        01/M02 Q1019=
201001100050 METAR COR EGLL 100050Z 01008KT 330V050 9999 -SN BKN020 BKN030
                        01/M02 Q1020 NOSIG=
201001100020 METAR COR EGLL 100020Z 01008KT 330V070 9999 BKN020 BKN030
                        01/M02 Q1020 NOSIG=
201001092350 METAR COR EGLL 092350Z 01008KT 330V040 9999 FEW030 OVC040
                        01/M02 Q1020 NOSIG=
201001092320 METAR COR EGLL 092320Z 01008KT 350V050 9999 BKN040 01/M02
                        Q1020 NOSIG=
201001092250 METAR COR EGLL 092250Z 01008KT 9999 FEW020 OVC045 01/M03
                        Q1020 NOSIG=
201001092220 METAR COR EGLL 092220Z 01009G19KT 340V050 9999 SCT021 BKN048
                        00/M03 Q1020 NOSIG=
201001092150 METAR COR EGLL 092150Z 01010KT 340V040 9999 FEW022 00/M03
                        Q1021 NOSIG=
201001092120 METAR COR EGLL 092120Z 01010KT 340V060 9999 FEW026 SCT045
                        00/M04 Q1021 NOSIG=
201001092050 METAR COR EGLL 092050Z 01009KT 340V040 9999 FEW042 00/M04
                        Q1021 NOSIG=
201001092020 METAR COR EGLL 092020Z 01008KT 340V050 9999 FEW044 00/M04
                        Q1021 NOSIG=
201001091950 METAR COR EGLL 091950Z 01008KT 340V040 CAVOK 00/M04 Q1021
                        NOSIG=
201001091920 METAR COR EGLL 091920Z 02009KT CAVOK 00/M04 Q1022 NOSIG=
201001091850 METAR COR EGLL 091850Z 03011KT 350V070 CAVOK 00/M04 Q1022
                        NOSIG=
201001091820 METAR COR EGLL 091820Z 02009KT CAVOK 00/M04 Q1022 NOSIG=
201001091750 METAR COR EGLL 091750Z 02011KT 9999 FEW039 00/M04 Q1022 NOSIG=
201001091720 METAR COR EGLL 091720Z 02011KT 350V050 9999 FEW034 BKN043
                        M00/M04 Q1022 NOSIG=
201001091650 METAR EGLL 091650Z 02012KT 350V050 6000 -SHSN SCT015 M00/M04
                        Q1022=
201001091620 METAR COR EGLL 091620Z 02012KT 340V040 7000 -SN FEW020 SCT029
                        M00/M05 Q1022 TEMPO 02015G25KT=
201001091550 METAR COR EGLL 091550Z 02011KT 9999 FEW030 SCT045 M00/M05
                        Q1022 TEMPO 02015G25KT=
201001091520 METAR EGLL 091520Z 02010KT 350V060 9999 VCSH FEW045 00/M05
                        Q1022=
201001091450 METAR COR EGLL 091450Z 02012KT CAVOK 00/M05 Q1022 TEMPO 02015G25KT=
201001091420 METAR COR EGLL 091420Z 03011KT CAVOK 00/M05 Q1022 TEMPO 03015G25KT=
201001091350 METAR EGLL 091350Z 02009KT 350V060 CAVOK M00/M05 Q1023=
201001091320 METAR COR EGLL 091320Z 02011G22KT 340V050 CAVOK M00/M05 Q1023
                        TEMPO 02015G25KT=
201001091250 METAR COR EGLL 091250Z 02013KT 340V050 CAVOK 00/M04 Q1023
                        NOSIG=
201001091220 METAR COR EGLL 091220Z 03011KT 360V070 9999 FEW038 M00/M04
                        Q1023 NOSIG=
201001091150 METAR COR EGLL 091150Z 03012KT 9999 FEW041 M00/M04 Q1024
                        NOSIG=
201001091120 METAR EGLL 091120Z 03010KT 350V060 9999 FEW041 M01/M05 Q1024=
201001091050 METAR COR EGLL 091050Z 02009KT 350V050 9999 FEW025 M01/M05
                        Q1024 NOSIG=
201001091020 METAR EGLL 091020Z 02010KT 9999 FEW024 M01/M05 Q1024=
201001090950 METAR COR EGLL 090950Z 02009KT 9999 FEW045 M02/M05 Q1024
                        NOSIG=
201001090920 METAR COR EGLL 090920Z 02007KT 340V060 9999 FEW047 M03/M05
                        Q1024 NOSIG=
201001090850 METAR COR EGLL 090850Z 02007KT 350V050 9999 FEW047 M03/M05
                        Q1024 NOSIG=
201001090820 METAR EGLL 090820Z 02007KT 350V060 9999 FEW040 M04/M05 Q1024
                        NOSIG=
201001090750 METAR EGLL 090750Z 01008KT 9999 FEW042 M03/M05 Q1024=
201001090720 METAR COR EGLL 090720Z 02008KT 9999 FEW033 M03/M05 Q1024
                        NOSIG=
201001090650 METAR COR EGLL 090650Z 02007KT 9999 SCT045 M03/M05 Q1024
                        NOSIG=
201001090620 METAR COR EGLL 090620Z 02008KT 340V050 9999 FEW010 M04/M05
                        Q1024 NOSIG=
201001090550 METAR COR EGLL 090550Z 02008KT 330V050 CAVOK M04/M05 Q1024
                        NOSIG=
201001090520 METAR COR EGLL 090520Z 02007KT 330V060 CAVOK M04/M05 Q1024
                        NOSIG=
201001090450 METAR COR EGLL 090450Z 02007KT CAVOK M03/M05 Q1024 NOSIG=
201001090420 METAR COR EGLL 090420Z 01007KT 9999 FEW045 M03/M05 Q1024
                        NOSIG=
201001090350 METAR COR EGLL 090350Z 03007KT 340V060 CAVOK M03/M05 Q1024
                        TEMPO SHSN=
201001090320 METAR COR EGLL 090320Z 02007KT 340V050 9999 FEW040 M03/M05
                        Q1024 TEMPO SHSN=
201001090250 METAR COR EGLL 090250Z 01007KT 340V050 9999 FEW010 M03/M04
                        Q1024 TEMPO SHSN=
201001090220 METAR EGLL 090220Z AUTO 01007KT 330V050 9999NDV FEW011///
                        BKN035/// M02/M04 Q1024=
201001090150 METAR EGLL 090150Z AUTO 02007KT 340V050 9999NDV FEW034///
                        M02/M04 Q1024=
201001090120 METAR EGLL 090120Z AUTO 36008KT 9999NDV NCD M03/M04 Q1024=
201001090050 METAR COR EGLL 090050Z 36007KT 340V040 9999 FEW010 M02/M04
                        Q1024 NOSIG=
201001090020 METAR COR EGLL 090020Z 01007KT 330V050 9999 FEW010 M02/M04
                        Q1024 NOSIG=
201001082350 METAR EGLL 082350Z 01006KT CAVOK M02/M04 Q1024=
201001082320 METAR COR EGLL 082320Z 36009KT CAVOK M02/M04 Q1024 NOSIG=
201001082250 METAR COR EGLL 082250Z 36009KT 9999 FEW010 M02/M04 Q1024
                        NOSIG=
201001082220 METAR COR EGLL 082220Z 35007KT 310V020 9999 FEW023 M02/M04
                        Q1024 NOSIG=
201001082150 METAR COR EGLL 082150Z 36006KT 9999 FEW044 M02/M04 Q1025
                        NOSIG=
201001082120 METAR COR EGLL 082120Z 35007KT 9999 SCT038 M02/M04 Q1025
                        NOSIG=
201001082050 METAR COR EGLL 082050Z 36007KT 9999 FEW006 SCT047 M02/M04
                        Q1025 NOSIG=
201001082020 METAR COR EGLL 082020Z 36006KT 330V030 6000 -SHSN FEW028
                        SCT032 M01/M03 Q1025 NOSIG=
201001081950 METAR COR EGLL 081950Z 02005KT 350V050 CAVOK M02/M04 Q1025
                        TEMPO SHSN=
201001081920 METAR COR EGLL 081920Z 05005KT 340V080 9999 FEW030 M02/M04
                        Q1025 NOSIG=
201001081850 METAR COR EGLL 081850Z 35005KT CAVOK M02/M04 Q1024 NOSIG=
201001081820 METAR EGLL 081820Z 01005KT CAVOK M02/M04 Q1024=
201001081750 METAR COR EGLL 081750Z 01005KT 330V040 CAVOK M01/M03 Q1024
                        NOSIG=
201001081720 METAR EGLL 081720Z 01005KT 9999 FEW042 M01/M03 Q1024=
201001081650 METAR COR EGLL 081650Z 02006KT 330V050 9999 FEW040 SCT046
                        M01/M03 Q1024 NOSIG=
201001081620 METAR COR EGLL 081620Z 01007KT CAVOK M00/M04 Q1023 NOSIG=
201001081550 METAR COR EGLL 081550Z 02006KT 350V050 CAVOK M00/M03 Q1023
                        NOSIG=
201001081520 METAR EGLL 081520Z 04006KT 360V060 CAVOK 00/M03 Q1023=
201001081450 METAR EGLL 081450Z 02006KT 340V050 9999 FEW046 00/M03 Q1023=
201001081420 METAR COR EGLL 081420Z 02007KT 350V050 9999 FEW046 00/M02
                        Q1023 NOSIG=
201001081350 METAR COR EGLL 081350Z 05006KT 010V070 9999 FEW013 00/M02
                        Q1022 NOSIG=
201001081320 METAR COR EGLL 081320Z 04006KT 010V070 9999 BKN011 00/M02
                        Q1022 TEMPO SCT011=
201001081250 METAR COR EGLL 081250Z 03005KT 360V070 9999 SCT011 SCT015
                        00/M02 Q1022 TEMPO BKN011=
201001081220 METAR COR EGLL 081220Z 02005KT 350V050 9999 FEW008 BKN011
                        M00/M02 Q1022 TEMPO SCT011=
201001081150 METAR COR EGLL 081150Z 36005KT 320V040 9999 BKN010 M00/M02
                        Q1022 TEMPO SCT010=
201001081120 METAR COR EGLL 081120Z 01006KT 330V050 9999 BKN012 M00/M03
                        Q1022 NOSIG=
201001081050 METAR EGLL 081050Z 36006KT 330V040 9999 SCT011 M00/M03 Q1022=
201001081020 METAR COR EGLL 081020Z 02006KT 340V060 9999 FEW011 M01/M03
                        Q1022 NOSIG=
201001080950 METAR COR EGLL 080950Z 02006KT 330V050 9999 FEW008 SCT011
                        M01/M03 Q1022 TEMPO BKN011=
201001080920 METAR COR EGLL 080920Z 36007KT 310V060 9999 FEW008 SCT010
                        M02/M03 Q1022 TEMPO BKN007=
201001080850 METAR COR EGLL 080850Z 36006KT 320V030 9999 FEW008 M02/M04
                        Q1021 TEMPO BKN007=
201001080820 METAR COR EGLL 080820Z 36008KT 320V030 9999 FEW007 M03/M04
                        Q1021 TEMPO BKN007=
201001080750 METAR COR EGLL 080750Z 36005KT 330V040 8000 SCT036 M03/M04
                        Q1021 NOSIG=
201001080720 METAR COR EGLL 080720Z 01005KT 330V040 8000 FEW036 M03/M04
                        Q1020 TEMPO BKN006=
201001080650 METAR COR EGLL 080650Z 36007KT 8000 FEW007 M03/M04 Q1020
                        TEMPO BKN006=
201001080620 METAR COR EGLL 080620Z 36006KT 340V040 8000 BKN006 M03/M05
                        Q1020 TEMPO SCT006=
201001080550 METAR COR EGLL 080550Z 36007KT 320V030 9000 FEW045 M03/M05
                        Q1020 TEMPO BKN005=
201001080520 METAR EGLL 080520Z 36006KT 340V050 9999 FEW034 M03/M05 Q1019=
201001080450 METAR COR EGLL 080450Z 01004KT 340V040 9999 FEW034 M03/M04
                        Q1019 TEMPO BKN006=
201001080420 METAR COR EGLL 080420Z 36005KT 330V050 9000 FEW036 M02/M04
                        Q1019 TEMPO BKN005=
201001080350 METAR COR EGLL 080350Z 36005KT 330V040 9999 SCT006 SCT048
                        M02/M03 Q1019 TEMPO BKN005=
201001080320 METAR COR EGLL 080320Z 03006KT 350V060 9000 BKN006 M01/M03
                        Q1019 TEMPO BKN004=
201001080250 METAR COR EGLL 080250Z 02006KT 330V060 9999 BKN006 M01/M03
                        Q1019 TEMPO BKN004=
201001080220 METAR COR EGLL 080220Z 02006KT 350V060 8000 BKN005 M01/M02
                        Q1019 TEMPO BKN004=
201001080150 METAR COR EGLL 080150Z 01005KT 340V050 8000 BKN005 M01/M02
                        Q1018 TEMPO BKN004=
201001080120 METAR EGLL 080120Z 01007KT 9000 BKN005 M02/M03 Q1018=
201001080050 METAR COR EGLL 080050Z 36007KT 9999 FEW006 BKN008 M02/M03
                        Q1018 NOSIG=
201001080020 METAR COR EGLL 080020Z 01006KT 9999 SCT007 SCT008 M01/M03
                        Q1017 TEMPO BKN007=
201001072350 METAR COR EGLL 072350Z 01006KT 330V040 9999 FEW008 SCT040
                        M01/M03 Q1017 TEMPO BKN008=
201001072320 METAR COR EGLL 072320Z 36007KT 340V040 9999 FEW008 M01/M03
                        Q1017 TEMPO BKN008=
201001072250 METAR COR EGLL 072250Z 36008KT 330V040 9999 SCT025 M01/M03
                        Q1016 NOSIG=
201001072220 METAR COR EGLL 072220Z 36008KT 340V040 9999 SCT027 SCT031
                        M00/M03 Q1016 NOSIG=
201001072150 METAR COR EGLL 072150Z 01008KT 340V040 9999 FEW014 BKN028
                        M00/M02 Q1015 NOSIG=
201001072120 METAR COR EGLL 072120Z 36009KT 340V040 9999 SCT014 M00/M03
                        Q1015 NOSIG=
201001072050 METAR COR EGLL 072050Z 36009KT 330V030 9999 SCT012 SCT015
                        00/M02 Q1014 NOSIG=
201001072020 METAR COR EGLL 072020Z 36007KT 9999 BKN015 00/M02 Q1014 NOSIG=
201001071950 METAR COR EGLL 071950Z 33005KT 9999 SCT015 SCT034 M00/M03
                        Q1014 NOSIG=
201001071920 METAR COR EGLL 071920Z 32005KT 9999 FEW018 SCT034 M01/M03
                        Q1014 NOSIG=
201001071850 METAR COR EGLL 071850Z 31007KT 290V360 9999 FEW016 SCT021
                        M01/M03 Q1013 NOSIG=
201001071820 METAR COR EGLL 071820Z 32008KT 290V360 9999 BKN016 M01/M03
                        Q1013 NOSIG=
201001071750 METAR COR EGLL 071750Z 32006KT 290V360 9999 SCT018 BKN025
                        M00/M03 Q1013 NOSIG=
201001071720 METAR COR EGLL 071720Z 31004KT 280V360 9999 SCT023 M00/M03
                        Q1012 NOSIG=
201001071650 METAR COR EGLL 071650Z 30007KT 9999 BKN019 M01/M03 Q1012
                        NOSIG=
201001071620 METAR COR EGLL 071620Z 31007KT 9999 BKN022 M00/M03 Q1012
                        NOSIG=
201001071550 METAR COR EGLL 071550Z 31007KT 9999 FEW023 SCT042 M00/M04
                        Q1011 NOSIG=
201001071520 METAR COR EGLL 071520Z 31006KT 9999 FEW029 BKN035 M01/M04
                        Q1011 NOSIG=
201001071450 METAR COR EGLL 071450Z 29006KT 9999 FEW023 M01/M04 Q1011
                        NOSIG=
201001071420 METAR COR EGLL 071420Z 30008KT 9999 FEW025 SCT043 M00/M04
                        Q1011 NOSIG=
201001071350 METAR COR EGLL 071350Z 30008KT 9999 FEW018 M01/M04 Q1011
                        NOSIG=
201001071320 METAR COR EGLL 071320Z 32009KT 290V350 9999 FEW048 M01/M04
                        Q1011 NOSIG=
201001071250 METAR EGLL 071250Z 32009KT 290V350 CAVOK M01/M05 Q1011 NOSIG=
201001071220 METAR COR EGLL 071220Z 32009KT 290V350 CAVOK M01/M05 Q1011
                        NOSIG=
201001071150 METAR EGLL 071150Z 31008KT 9999 FEW045 M01/M05 Q1011=
201001071120 METAR COR EGLL 071120Z 29005KT 9999 SCT045 M02/M05 Q1011
                        NOSIG=
201001071050 METAR COR EGLL 071050Z 27006KT 9999 FEW038 BKN045 M02/M05
                        Q1011 NOSIG=
201001071020 METAR COR EGLL 071020Z 27008KT 9999 SCT041 SCT049 M03/M06
                        Q1011 NOSIG=
201001070950 METAR COR EGLL 070950Z 27008KT 9000 VCSH BKN037 M04/M06 Q1011
                        NOSIG=
201001070920 METAR COR EGLL 070920Z 27006KT 9000 VCSH FEW049 M04/M06 Q1011
                        NOSIG=
201001070850 METAR COR EGLL 070850Z 26007KT 9999 VCSH FEW010 SCT037 BKN048
                        M05/M07 Q1011 NOSIG=
201001070820 METAR COR EGLL 070820Z 29004KT 7000 BKN044 M04/M06 Q1010
                        NOSIG=
201001070750 METAR COR EGLL 070750Z VRB03KT 9999 BKN047 M04/M06 Q1010
                        NOSIG=
201001070720 METAR COR EGLL 070720Z 28004KT 9999 FEW044 M04/M06 Q1010
                        NOSIG=
201001070650 METAR COR EGLL 070650Z 31004KT 9999 FEW044 M04/M06 Q1010
                        NOSIG=
201001070620 METAR COR EGLL 070620Z 30004KT 9999 FEW044 M04/M06 Q1010
                        NOSIG=
201001070550 METAR COR EGLL 070550Z 31003KT CAVOK M05/M06 Q1010 NOSIG=
201001070520 METAR COR EGLL 070520Z 30004KT CAVOK M05/M07 Q1010 NOSIG=
201001070450 METAR COR EGLL 070450Z 32003KT CAVOK M05/M06 Q1010 NOSIG=
201001070420 METAR EGLL 070420Z 32004KT 290V010 CAVOK M05/M06 Q1009=
201001070350 METAR EGLL 070350Z VRB03KT CAVOK M05/M06 Q1009=
201001070320 METAR COR EGLL 070320Z 33004KT 300V020 CAVOK M04/M06 Q1009
                        NOSIG=
201001070250 METAR COR EGLL 070250Z 33004KT 300V360 CAVOK M04/M06 Q1009
                        NOSIG=
201001070220 METAR EGLL 070220Z AUTO 32005KT 290V360 9999NDV NCD M04/M06
                        Q1009=
201001070150 METAR EGLL 070150Z AUTO 32005KT 300V360 5000NDV SG NCD M04/M06
                        Q1009=
201001070120 METAR EGLL 070120Z AUTO 34005KT 9999NDV NCD M04/M06 Q1009=
201001070050 METAR COR EGLL 070050Z 35006KT 310V030 CAVOK M04/M06 Q1009
                        NOSIG=
201001070020 METAR COR EGLL 070020Z 35006KT CAVOK M04/M06 Q1009 NOSIG=
201001062350 METAR COR EGLL 062350Z 35006KT 320V020 CAVOK M04/M06 Q1009
                        NOSIG=
201001062320 METAR COR EGLL 062320Z 36006KT CAVOK M03/M06 Q1009 NOSIG=
201001062250 METAR EGLL 062250Z 35005KT CAVOK M03/M06 Q1009=
201001062220 METAR COR EGLL 062220Z 36007KT CAVOK M03/M05 Q1008 NOSIG=
201001062150 METAR COR EGLL 062150Z 36007KT 330V030 CAVOK M02/M05 Q1008
                        88CLRD99 NOSIG=
201001062120 METAR COR EGLL 062120Z 36007KT 330V030 CAVOK M02/M05 Q1008
                        9929//94 9929//94 NOSIG=
201001062050 METAR COR EGLL 062050Z 36008KT CAVOK M02/M05 Q1008 9929//94
                        9929//94 NOSIG=
201001062020 METAR COR EGLL 062020Z 36008KT CAVOK M02/M05 Q1008 9929//94
                        5929//94 NOSIG=
201001061950 METAR EGLL 061950Z AUTO 36008KT 9999NDV NCD M01/M04 Q1007
                        9929//94 5919//95=
201001061920 METAR COR EGLL 061920Z 01006KT 340V070 CAVOK M01/M04 Q1007
                        9929//94 5919//95 NOSIG=
201001061850 METAR COR EGLL 061850Z 02008KT 340V050 CAVOK 00/M04 Q1007
                        9929//94 993///93 NOSIG=
201001061820 METAR COR EGLL 061820Z 02008KT 340V050 CAVOK 00/M03 Q1006
                        0929//94 5939//93 NOSIG=
201001061750 METAR COR EGLL 061750Z 03007KT 350V070 CAVOK 00/M02 Q1006
                        9939//93 9939//93 NOSIG=
201001061720 METAR EGLL 061720Z AUTO 03007KT 360V060 9999NDV NCD 00/M01
                        Q1006 0939//93 593///93=
201001061650 METAR COR EGLL 061650Z 03008KT 360V070 9000 FEW033 00/M01
                        Q1005 0939//93 593///93 NOSIG=
201001061620 METAR COR EGLL 061620Z 03008KT 5000 -SN FEW007 BKN013 00/M00
                        Q1005 5939//99 0939//99 BECMG NSW
                        FEW035=
201001061550 METAR COR EGLL 061550Z 04006KT 1500 R09L/P1500 R09R/P1500
                        -SN FEW003 BKN007 00/M00 Q1005 RESN
                        BECMG 7000 SCT010=
201001061520 METAR COR EGLL 061520Z 02004KT 340V050 0900 R09L/1200 R09R/1200
                        SN FEW003 SCT007 BKN015 00/M01 Q1004
                        BECMG 3500 -SN BKN007=
201001061450 METAR EGLL 061450Z 05004KT 010V070 2000 SN SCT006 BKN015
                        00/M01 Q1004=
201001061420 METAR COR EGLL 061420Z 04005KT 010V070 2000 SN SCT005 SCT018
                        00/M01 Q1003 8819//94 TEMPO 5000
                        -SN BKN008=
201001061350 METAR COR EGLL 061350Z 04004KT 010V080 1500 SN SCT005 OVC020
                        00/M01 Q1003 8819//94 TEMPO 5000
                        -SN BKN008=
201001061320 METAR COR EGLL 061320Z 04006KT 360V080 2000 SN FEW006 SCT011
                        00/M01 Q1003 BECMG -SN=
201001061250 METAR COR EGLL 061250Z 06005KT 020V090 3200 SN SCT006 BKN010
                        00/M01 Q1003 88CLRD95 TEMPO 5000
                        -SN BKN008=
201001061220 METAR COR EGLL 061220Z 06007KT 2000 SN FEW007 SCT010 BKN014
                        00/M01 Q1003 881///95 TEMPO 5000
                        -SN BKN007=
201001061150 METAR COR EGLL 061150Z 06006KT 020V080 2000 SN SCT014 OVC020
                        00/M01 Q1003 TEMPO 5000 -SN BKN009=
201001061120 METAR COR EGLL 061120Z 06008KT 2400 SHSN FEW005 BKN011 00/M01
                        Q1003 TEMPO 5000 -SN BKN009=
201001061050 METAR COR EGLL 061050Z 06005KT 1500 SHSN FEW014 OVC020 01/M00
                        Q1002 TEMPO 5000 -SN BKN009=
201001061020 METAR COR EGLL 061020Z 06007KT 8000 FEW012 SCT043 01/M00
                        Q1002 RESN TEMPO 3000 SN BKN009=
201001060950 METAR COR EGLL 060950Z 06007KT 3000 -SN FEW004 SCT009 BKN011
                        01/M00 Q1002 TEMPO SN BKN008=
201001060920 METAR COR EGLL 060920Z 06008KT 5000 -SG FEW009 BKN011 01/M00
                        Q1001 TEMPO 3000 SN BKN009=
201001060850 METAR EGLL 060850Z 06008KT 7000 VCSH SCT011 BKN015 01/M00
                        Q1001=
201001060820 METAR COR EGLL 060820Z 06007KT 7000 -SN SCT014 SCT037 01/M00
                        Q1001 TEMPO 3000 SN BKN009=
201001060750 METAR COR EGLL 060750Z 07008KT 9999 FEW023 SCT041 01/M00
                        Q1000 TEMPO 4000 SN BKN009=
201001060720 METAR COR EGLL 060720Z 07008KT 9999 FEW012 BKN044 01/M00
                        Q1000 TEMPO 3000 SN BKN007=
201001060650 METAR COR EGLL 060650Z 08009KT 9000 BKN007 00/M00 Q0999 TEMPO
                        2000 -SN=
201001060620 METAR COR EGLL 060620Z 09011KT 1800 -SN BKN006 00/M00 Q0999
                        TEMPO 0800 SN BKN003=
201001060550 METAR COR EGLL 060550Z 08009KT 1400 SN OVC004 00/M00 Q0999
                        TEMPO 6000 -SN BKN008=
201001060520 METAR COR EGLL 060520Z 07008KT 1800 -SN SCT005 BKN008 01/M00
                        Q0999 TEMPO 1000 SN BKN004=
201001060450 METAR COR EGLL 060450Z 07007KT 6000 FEW009 BKN014 01/M00
                        Q0998 TEMPO 2000 SN BKN004=
201001060420 METAR COR EGLL 060420Z 07007KT 2300 -SN BKN009 01/M00 Q0998
                        TEMPO 1200 SN BKN004=
201001060350 METAR COR EGLL 060350Z 09008KT 4200 -SN BKN011 01/M00 Q0998
                        TEMPO 1400 SN BKN008=
201001060320 METAR EGLL 060320Z 08008KT 4200 -SN BKN012 01/00 Q0998=
201001060250 METAR COR EGLL 060250Z 09008KT 7000 -SN FEW015 SCT021 01/00
                        Q0998 TEMPO 2000 SN BKN004=
201001060220 METAR COR EGLL 060220Z 08007KT 7000 FEW003 SCT016 BKN033
                        01/00 Q0998 TEMPO 2000 -SN BKN012=
201001060150 METAR COR EGLL 060150Z 08007KT 5000 -SN SCT002 BKN020 00/M00
                        Q0998 TEMPO 1200 SN BKN003=
201001060120 METAR COR EGLL 060120Z 09008KT 4500 -SN SCT003 BKN005 00/M00
                        Q0998 TEMPO 1200 SN BKN003=
201001060050 METAR COR EGLL 060050Z 10007KT 1600 -SN BKN003 BKN005 00/M00
                        Q0998 TEMPO 1000 SN BKN001=
201001060020 METAR COR EGLL 060020Z 11007KT 2000 -SN SCT003 BKN008 00/M00
                        Q0999 TEMPO 1000 SN BKN003=
201001052350 METAR COR EGLL 052350Z 09010KT 1800 -SN SCT003 BKN013 00/M00
                        Q0999 NOSIG=
201001052320 METAR COR EGLL 052320Z 08009KT 1600 -SN SCT003 OVC006 00/M00
                        Q0999 TEMPO 0800 SN BKN003=
201001052250 METAR COR EGLL 052250Z 11008KT 1600 R09R/1400 -SN SCT004
                        OVC007 00/M00 Q0999 RESN TEMPO 0800
                        SN BKN001=
201001052220 METAR COR EGLL 052220Z 12008KT 1600 SN OVC006 01/M00 Q0999
                        NOSIG=
201001052150 METAR COR EGLL 052150Z 11005KT 2000 -SN VV/// 01/M01 Q1000
                        TEMPO 0800 SN=
201001052120 METAR COR EGLL 052120Z 08005KT 3000 -SN VV/// 01/M01 Q1000
                        TEMPO 1000 SN=
201001052050 METAR COR EGLL 052050Z 06004KT 2500 -SN OVC010 00/M01 Q1000TEMPO
                        1200 SN BKN004=
201001052020 METAR COR EGLL 052020Z 03004KT 5000 -SN BKN018 01/M01 Q1000
                        TEMPO 1000 SN BKN004=
201001051950 METAR COR EGLL 051950Z 00000KT 2600 SN BKN009 01/M01 Q1000
                        TEMPO 1400 BKN004=
201001051920 METAR COR EGLL 051920Z 16004KT 4000 -SN FEW013 SCT020 01/M02
                        Q1000 TEMPO 1000 SN BKN004=
201001051850 METAR COR EGLL 051850Z 13005KT 100V170 9999 SCT031 SCT042
                        01/M02 Q1000 TEMPO 4000 -SN BKN008=
201001051820 METAR COR EGLL 051820Z 12005KT 9999 BKN025 01/M02 Q1000 TEMPO
                        4000 -SN BKN010=
201001051750 METAR COR EGLL 051750Z VRB03KT 9999 FEW026 SCT033 01/M02
                        Q1001 TEMPO 4000 -SN=
201001051720 METAR COR EGLL 051720Z 13004KT 090V190 9999 SCT031 00/M03
                        Q1001 TEMPO 4000 -SN=
201001051650 METAR COR EGLL 051650Z 16005KT 100V210 CAVOK 01/M03 Q1001
                        NOSIG=
201001051620 METAR COR EGLL 051620Z 17004KT 120V230 9999 FEW030 01/M03
                        Q1001 NOSIG=
201001051550 METAR COR EGLL 051550Z 21004KT 9999 SCT023 02/M03 Q1001 NOSIG=
201001051520 METAR COR EGLL 051520Z 19006KT 170V240 CAVOK 01/M03 Q1002
                        NOSIG=
201001051450 METAR COR EGLL 051450Z 18005KT 150V230 CAVOK 01/M03 Q1002
                        NOSIG=
201001051420 METAR COR EGLL 051420Z 18005KT 110V210 9999 FEW045 01/M03
                        Q1002 NOSIG=
201001051350 METAR COR EGLL 051350Z 20005KT 160V260 9999 FEW043 01/M03
                        Q1002 NOSIG=
201001051320 METAR COR EGLL 051320Z 20005KT 160V230 9999 FEW047 01/M03
                        Q1003 NOSIG=
201001051250 METAR COR EGLL 051250Z 20005KT 9999 FEW046 01/M03 Q1003 NOSIG=
201001051220 METAR COR EGLL 051220Z 21005KT 170V260 CAVOK 01/M03 Q1003
                        NOSIG=
201001051150 METAR COR EGLL 051150Z 21005KT CAVOK 00/M03 Q1004 NOSIG=
201001051120 METAR COR EGLL 051120Z 21005KT 170V240 CAVOK M00/M03 Q1005
                        NOSIG=
201001051050 METAR COR EGLL 051050Z 21005KT 160V270 CAVOK M01/M03 Q1005
                        NOSIG=
201001051020 METAR COR EGLL 051020Z 20005KT 9999 FEW037 M01/M04 Q1005
                        NOSIG=
201001050950 METAR COR EGLL 050950Z 21004KT 180V260 CAVOK M02/M04 Q1006
                        NOSIG=
201001050920 METAR COR EGLL 050920Z 21005KT CAVOK M02/M04 Q1006 NOSIG=
201001050850 METAR COR EGLL 050850Z 19004KT 150V230 CAVOK M03/M05 Q1006
                        NOSIG=
201001050820 METAR EGLL 050820Z 20007KT 170V230 9999 FEW040 M03/M05 Q1007=
201001050750 METAR COR EGLL 050750Z 22007KT 200V260 CAVOK M03/M05 Q1007
                        NOSIG=
201001050720 METAR COR EGLL 050720Z 22006KT 190V260 CAVOK M03/M05 Q1007
                        NOSIG=
201001050650 METAR COR EGLL 050650Z 20006KT 170V250 CAVOK M03/M05 Q1007
                        NOSIG=
201001050620 METAR COR EGLL 050620Z 19006KT CAVOK M03/M05 Q1008 NOSIG=
201001050550 METAR COR EGLL 050550Z 18003KT 9000 NSC M04/M05 Q1008 NOSIG=
201001050520 METAR COR EGLL 050520Z 27003KT 8000 NSC M04/M05 Q1008 NOSIG=
201001050450 METAR COR EGLL 050450Z 27003KT 8000 NSC M04/M05 Q1009 NOSIG=
201001050420 METAR COR EGLL 050420Z 24002KT 8000 NSC M05/M06 Q1009 NOSIG=
201001050350 METAR COR EGLL 050350Z 18004KT 8000 NSC M05/M06 Q1010 NOSIG=
201001050320 METAR COR EGLL 050320Z VRB02KT 9000 NSC M05/M06 Q1010 NOSIG=
201001050250 METAR COR EGLL 050250Z 00000KT 9000 NSC M04/M06 Q1010 NOSIG=
201001050220 METAR COR EGLL 050220Z 21004KT 8000 NSC M04/M05 Q1011 NOSIG=
201001050150 METAR COR EGLL 050150Z 19004KT 8000 NSC M05/M06 Q1011 NOSIG=
201001050120 METAR COR EGLL 050120Z 26004KT 210V270 8000 NSC M04/M06 Q1012
                        NOSIG=
201001050050 METAR COR EGLL 050050Z 28004KT 8000 NSC M04/M05 Q1012 NOSIG=
201001050020 METAR COR EGLL 050020Z 25004KT 8000 NSC M04/M05 Q1012 NOSIG=
201001042350 METAR COR EGLL 042350Z 27006KT 9000 NSC M03/M05 Q1013 NOSIG=
201001042320 METAR COR EGLL 042320Z 27004KT 9000 NSC M03/M04 Q1013 NOSIG=
201001042250 METAR COR EGLL 042250Z 28006KT 8000 NSC M03/M04 Q1014 NOSIG=
201001042220 METAR COR EGLL 042220Z 28005KT 8000 NSC M03/M04 Q1014 NOSIG=
201001042150 METAR COR EGLL 042150Z 28005KT 7000 NSC M03/M04 Q1014 NOSIG=
201001042120 METAR COR EGLL 042120Z 28006KT 8000 NSC M02/M04 Q1015 NOSIG=
201001042050 METAR COR EGLL 042050Z 28006KT 7000 NSC M03/M04 Q1015 NOSIG=
201001042020 METAR COR EGLL 042020Z 28005KT 7000 NSC M02/M04 Q1015 NOSIG=
201001041950 METAR COR EGLL 041950Z 27006KT 7000 NSC M03/M04 Q1015 NOSIG=
201001041920 METAR EGLL 041920Z AUTO 27007KT 6000NDV NCD M02/M04 Q1016=
201001041850 METAR EGLL 041850Z 27006KT 7000 NSC M03/M04 Q1016=
201001041820 METAR COR EGLL 041820Z 27007KT 7000 NSC M02/M04 Q1016 NOSIG=
201001041750 METAR COR EGLL 041750Z 27007KT 9000 NSC M02/M04 Q1016 NOSIG=
201001041720 METAR COR EGLL 041720Z 28006KT CAVOK M02/M04 Q1016 NOSIG=
201001041650 METAR COR EGLL 041650Z 28007KT CAVOK M01/M04 Q1017 NOSIG=
201001041620 METAR EGLL 041620Z AUTO 26008KT 9999NDV NCD M01/M03 Q1017=
201001041550 METAR COR EGLL 041550Z 28006KT CAVOK M01/M03 Q1017 NOSIG=
201001041520 METAR COR EGLL 041520Z 27006KT CAVOK 00/M03 Q1017 NOSIG=
201001041450 METAR COR EGLL 041450Z 27005KT CAVOK 01/M03 Q1017 NOSIG=
201001041420 METAR COR EGLL 041420Z 27006KT 240V310 9000 NSC 01/M03 Q1017
                        NOSIG=
201001041350 METAR COR EGLL 041350Z 29005KT 270V330 9000 NSC 01/M03 Q1018
                        NOSIG=
201001041320 METAR COR EGLL 041320Z 30005KT CAVOK 00/M03 Q1018 NOSIG=
201001041250 METAR COR EGLL 041250Z 28005KT 9000 NSC M00/M03 Q1019 NOSIG=
201001041220 METAR COR EGLL 041220Z 26005KT 220V290 9000 NSC M00/M03 Q1019
                        NOSIG=
201001041150 METAR COR EGLL 041150Z 24005KT 200V280 8000 NSC M01/M03 Q1020
                        NOSIG=
201001041120 METAR COR EGLL 041120Z 25006KT 9000 NSC M02/M04 Q1020 NOSIG=
201001041050 METAR COR EGLL 041050Z 27006KT 8000 NSC M02/M04 Q1020 NOSIG=
201001041020 METAR COR EGLL 041020Z 27006KT 7000 NSC M03/M04 Q1021 NOSIG=
201001040950 METAR COR EGLL 040950Z 27006KT 6000 NSC M03/M04 Q1021 NOSIG=
201001040920 METAR COR EGLL 040920Z 27004KT 5000 BR NSC M04/M05 Q1021
                        NOSIG=
201001040850 METAR COR EGLL 040850Z 27004KT 6000 NSC M05/M06 Q1021 NOSIG=
201001040820 METAR COR EGLL 040820Z 27003KT 5000 BR NSC M05/M06 Q1021
                        TEMPO 4500=
201001040750 METAR EGLL 040750Z 27004KT 6000 NSC M05/M06 Q1021=
201001040720 METAR COR EGLL 040720Z 28005KT 5000 BR NSC M05/M06 Q1021
                        TEMPO 4500 BR=
201001040650 METAR EGLL 040650Z 29004KT 7000 NSC M05/M06 Q1021=
201001040620 METAR COR EGLL 040620Z VRB03KT 7000 NSC M04/M05 Q1022 NOSIG=
201001040550 METAR COR EGLL 040550Z 29003KT 7000 NSC M06/M07 Q1022 TEMPO
                        4500 BR=
201001040520 METAR COR EGLL 040520Z VRB03KT 7000 NSC M05/M06 Q1022 TEMPO
                        4500 BR=
201001040450 METAR COR EGLL 040450Z 30002KT 7000 NSC M05/M06 Q1022 TEMPO
                        4500 BR=
201001040420 METAR COR EGLL 040420Z 26004KT 7000 NSC M04/M05 Q1022 TEMPO
                        4500 BR=
201001040350 METAR COR EGLL 040350Z 30002KT 7000 NSC M05/M06 Q1023 NOSIG=
201001040320 METAR COR EGLL 040320Z 00000KT 7000 NSC M04/M05 Q1023 NOSIG=
201001040250 METAR COR EGLL 040250Z 25002KT 8000 NSC M03/M04 Q1023 NOSIG=
201001040220 METAR COR EGLL 040220Z 35004KT 9000 NSC M04/M05 Q1023 NOSIG=
201001040150 METAR COR EGLL 040150Z 36002KT 9000 NSC M04/M05 Q1023 NOSIG=
201001040120 METAR COR EGLL 040120Z 35003KT CAVOK M03/M05 Q1023 NOSIG=
201001040050 METAR COR EGLL 040050Z 35002KT CAVOK M03/M05 Q1023 NOSIG=
201001040020 METAR COR EGLL 040020Z VRB03KT CAVOK M03/M04 Q1023 NOSIG=
201001032350 METAR COR EGLL 032350Z 03004KT 360V070 CAVOK M02/M04 Q1023
                        NOSIG=
201001032320 METAR COR EGLL 032320Z 03005KT CAVOK M02/M04 Q1023 NOSIG=
201001032250 METAR COR EGLL 032250Z 03005KT 350V060 CAVOK M02/M03 Q1023
                        NOSIG=
201001032220 METAR COR EGLL 032220Z 01004KT 340V050 CAVOK M02/M03 Q1023
                        NOSIG=
201001032150 METAR COR EGLL 032150Z 36004KT 320V030 9999 FEW049 M02/M03
                        Q1024 NOSIG=
201001032120 METAR COR EGLL 032120Z VRB02KT CAVOK M02/M04 Q1024 NOSIG=
201001032050 METAR COR EGLL 032050Z VRB02KT 9999 FEW035 M02/M03 Q1024
                        NOSIG=
201001032020 METAR COR EGLL 032020Z 04004KT 350V060 9999 FEW036 M02/M04
                        Q1024 NOSIG=
201001031950 METAR COR EGLL 031950Z VRB03KT CAVOK M01/M04 Q1024 NOSIG=
201001031920 METAR COR EGLL 031920Z VRB03KT CAVOK M01/M03 Q1024 NOSIG=
201001031850 METAR COR EGLL 031850Z 03003KT CAVOK M01/M03 Q1024 NOSIG=
201001031820 METAR COR EGLL 031820Z 04003KT CAVOK 00/M03 Q1024 NOSIG=
201001031750 METAR COR EGLL 031750Z 06003KT CAVOK M00/M03 Q1024 NOSIG=
201001031720 METAR COR EGLL 031720Z 05004KT CAVOK M00/M04 Q1023 NOSIG=
201001031650 METAR COR EGLL 031650Z 05004KT 9999 FEW030 00/M04 Q1023 NOSIG=
201001031620 METAR COR EGLL 031620Z 07006KT 9999 FEW030 01/M04 Q1023 NOSIG=
201001031550 METAR COR EGLL 031550Z 06007KT 030V100 9999 FEW035 01/M04
                        Q1023 NOSIG=
201001031520 METAR COR EGLL 031520Z 07007KT 9999 FEW030 01/M04 Q1023 NOSIG=
201001031450 METAR COR EGLL 031450Z 08007KT 9999 FEW030 01/M04 Q1023 NOSIG=
201001031420 METAR COR EGLL 031420Z 07006KT 9999 VCSH FEW028 01/M03 Q1023
                        NOSIG=
201001031350 METAR COR EGLL 031350Z 06005KT 020V110 9999 FEW028 02/M03
                        Q1023 NOSIG=
201001031320 METAR COR EGLL 031320Z 07005KT 9999 SCT027 02/M03 Q1023 NOSIG=
201001031250 METAR COR EGLL 031250Z 06006KT 9999 SCT025 02/M02 Q1023 NOSIG=
201001031220 METAR COR EGLL 031220Z 07007KT 9999 SCT023 02/M02 Q1024 NOSIG=
201001031150 METAR COR EGLL 031150Z 07007KT 9999 FEW021 02/M02 Q1024 NOSIG=
201001031120 METAR COR EGLL 031120Z 06008KT CAVOK 01/M02 Q1024 NOSIG=
201001031050 METAR COR EGLL 031050Z 06008KT 020V090 CAVOK 02/M02 Q1024
                        NOSIG=
201001031020 METAR COR EGLL 031020Z 06008KT CAVOK 01/M02 Q1024 NOSIG=
201001030950 METAR COR EGLL 030950Z 06006KT 010V070 CAVOK 01/M02 Q1023
                        NOSIG=
201001030920 METAR COR EGLL 030920Z 05007KT CAVOK 00/M02 Q1023 NOSIG=
201001030850 METAR COR EGLL 030850Z 03005KT 360V070 CAVOK M00/M02 Q1023
                        NOSIG=
201001030820 METAR COR EGLL 030820Z 03005KT CAVOK M00/M02 Q1023 NOSIG=
201001030750 METAR COR EGLL 030750Z 04007KT CAVOK 00/M02 Q1022 NOSIG=
201001030720 METAR COR EGLL 030720Z 05005KT CAVOK 00/M02 Q1022 NOSIG=
201001030650 METAR COR EGLL 030650Z 04005KT CAVOK 00/M02 Q1022 NOSIG=
201001030620 METAR COR EGLL 030620Z 04004KT 9999 FEW045 00/M01 Q1022 NOSIG=
201001030550 METAR COR EGLL 030550Z 04004KT 9999 FEW010 00/M01 Q1022 NOSIG=
201001030520 METAR COR EGLL 030520Z VRB03KT 9999 FEW013 00/M02 Q1022 NOSIG=
201001030450 METAR COR EGLL 030450Z 04004KT 010V070 9000 FEW015 01/M01
                        Q1021 NOSIG=
201001030420 METAR COR EGLL 030420Z 04004KT 9999 SCT013 SCT040 02/M00
                        Q1021 TEMPO BKN009=
201001030350 METAR COR EGLL 030350Z 04004KT 360V080 8000 SCT010 BKN015
                        02/M00 Q1021 TEMPO 4000 BR BKN008=
201001030320 METAR COR EGLL 030320Z 02004KT 350V070 8000 BKN009 01/M00
                        Q1021 TEMPO 4000 BR=
201001030250 METAR COR EGLL 030250Z VRB02KT 9999 BKN010 01/M01 Q1021 TEMPO
                        4000 -SN BKN007=
201001030220 METAR COR EGLL 030220Z 02004KT 330V040 9999 SCT012 00/M01
                        Q1020 TEMPO BKN010=
201001030150 METAR COR EGLL 030150Z 36003KT 9999 SCT014 01/M01 Q1020 TEMPO
                        BKN014=
201001030120 METAR COR EGLL 030120Z VRB02KT 9999 SCT018 02/M00 Q1020 TEMPO
                        BKN014=
201001030050 METAR COR EGLL 030050Z 32002KT 9999 BKN017 01/M00 Q1020 TEMPO
                        4000 -SN BKN014=
201001030020 METAR COR EGLL 030020Z 29002KT 9999 BKN017 00/M01 Q1019 TEMPO
                        4000 -SN BKN014=
201001022350 METAR COR EGLL 022350Z VRB03KT 9999 FEW019 SCT045 02/M01
                        Q1019 TEMPO 4000 -SN BKN014=
201001022320 METAR COR EGLL 022320Z 27004KT 9999 BKN014 03/M00 Q1019 TEMPO
                        4000 -SN=
201001022250 METAR COR EGLL 022250Z 27005KT 9999 BKN015 02/M00 Q1019 TEMPO
                        4000 -SN BKN012=
201001022220 METAR COR EGLL 022220Z 27004KT 9999 FEW016 BKN021 02/M01
                        Q1019 TEMPO BKN014=
201001022150 METAR COR EGLL 022150Z 27005KT 9999 FEW020 SCT045 02/M01
                        Q1018 BECMG BKN014=
201001022120 METAR COR EGLL 022120Z 27005KT 9999 BKN025 02/M00 Q1018 BECMG
                        BKN014=
201001022050 METAR COR EGLL 022050Z 27008KT 9999 BKN024 02/M00 Q1018 BECMG
                        BKN014=
201001022020 METAR COR EGLL 022020Z 26008KT 9999 SCT029 02/M00 Q1018 BECMG
                        BKN014=
201001021950 METAR COR EGLL 021950Z 24008KT CAVOK 02/M01 Q1017 BECMG BKN022=
201001021920 METAR COR EGLL 021920Z 25009KT CAVOK 03/M01 Q1017 NOSIG=
201001021850 METAR COR EGLL 021850Z 25008KT CAVOK 03/M01 Q1017 NOSIG=
201001021820 METAR COR EGLL 021820Z 25009KT CAVOK 03/M00 Q1017 NOSIG=
201001021750 METAR COR EGLL 021750Z 24011KT CAVOK 03/M01 Q1017 NOSIG=
201001021720 METAR COR EGLL 021720Z 24010KT CAVOK 03/M01 Q1017 NOSIG=
201001021650 METAR COR EGLL 021650Z 24009KT CAVOK 03/M01 Q1017 NOSIG=
201001021620 METAR COR EGLL 021620Z 24010KT CAVOK 04/M01 Q1017 NOSIG=
201001021550 METAR COR EGLL 021550Z 24010KT CAVOK 04/M01 Q1017 NOSIG=
201001021520 METAR COR EGLL 021520Z 25011KT CAVOK 04/M01 Q1017 NOSIG=
201001021450 METAR COR EGLL 021450Z 26013KT CAVOK 05/M01 Q1017 NOSIG=
201001021420 METAR COR EGLL 021420Z 27011KT CAVOK 05/M01 Q1017 NOSIG=
201001021350 METAR COR EGLL 021350Z 26009KT 9999 FEW030 05/M01 Q1017 NOSIG=
201001021320 METAR COR EGLL 021320Z 26011KT 9999 FEW030 05/M01 Q1017 NOSIG=
201001021250 METAR COR EGLL 021250Z 26010KT 9999 FEW049 04/M01 Q1017 NOSIG=
201001021220 METAR COR EGLL 021220Z 28009KT 9999 FEW047 03/M01 Q1017 NOSIG=
201001021150 METAR COR EGLL 021150Z 26013KT 9999 SCT045 03/M01 Q1017 NOSIG=
201001021120 METAR COR EGLL 021120Z 27013KT 9999 FEW030 03/M01 Q1016 NOSIG=
201001021050 METAR COR EGLL 021050Z 27009KT 9999 FEW030 02/M01 Q1016 NOSIG=
201001021020 METAR COR EGLL 021020Z 28010KT CAVOK 02/M01 Q1016 NOSIG=
201001020950 METAR COR EGLL 020950Z 28010KT CAVOK 01/M01 Q1016 NOSIG=
201001020920 METAR COR EGLL 020920Z 27008KT CAVOK 00/M02 Q1015 NOSIG=
201001020850 METAR COR EGLL 020850Z 27008KT CAVOK M00/M02 Q1015 NOSIG=
201001020820 METAR COR EGLL 020820Z 27007KT CAVOK M00/M02 Q1015 NOSIG=
201001020750 METAR COR EGLL 020750Z 27007KT 9999 FEW030 M00/M02 Q1014
                        NOSIG=
201001020720 METAR COR EGLL 020720Z 27006KT 9999 FEW030 00/M02 Q1014 NOSIG=
201001020650 METAR COR EGLL 020650Z 29006KT 9999 BKN030 01/M01 Q1014 NOSIG=
201001020620 METAR COR EGLL 020620Z 28006KT 9999 BKN034 01/M01 Q1013 NOSIG=
201001020550 METAR COR EGLL 020550Z 27006KT 9999 BKN027 BKN035 01/M01
                        Q1013 NOSIG=
201001020520 METAR COR EGLL 020520Z 28005KT 9999 BKN038 01/M01 Q1013 NOSIG=
201001020450 METAR COR EGLL 020450Z 28007KT 9999 BKN030 01/M01 Q1013 NOSIG=
201001020420 METAR COR EGLL 020420Z 28007KT 9999 BKN035 00/M02 Q1012 NOSIG=
201001020350 METAR COR EGLL 020350Z 27006KT 9999 FEW016 SCT030 BKN038
                        00/M02 Q1012 NOSIG=
201001020320 METAR COR EGLL 020320Z 27006KT 9999 FEW023 SCT042 M00/M02
                        Q1012 NOSIG=
201001020250 METAR COR EGLL 020250Z 27007KT 9999 SCT022 00/M02 Q1012 NOSIG=
201001020220 METAR COR EGLL 020220Z 27007KT 9999 SCT021 00/M02 Q1011 NOSIG=
201001020150 METAR COR EGLL 020150Z 27007KT CAVOK 00/M02 Q1011 NOSIG=
201001020120 METAR COR EGLL 020120Z 26007KT CAVOK M00/M02 Q1011 NOSIG=
201001020050 METAR COR EGLL 020050Z 27006KT CAVOK 00/M03 Q1011 NOSIG=
201001020020 METAR COR EGLL 020020Z 26009KT 9999 FEW028 SCT032 M00/M03
                        Q1011 NOSIG=
201001012350 METAR COR EGLL 012350Z 26008KT 9999 SCT034 M00/M03 Q1011
                        NOSIG=
201001012320 METAR COR EGLL 012320Z 27006KT 9999 BKN033 M00/M03 Q1011
                        NOSIG=
201001012250 METAR COR EGLL 012250Z 27007KT 9999 FEW046 M00/M03 Q1011
                        NOSIG=
201001012220 METAR COR EGLL 012220Z 27007KT CAVOK M01/M03 Q1010 NOSIG=
201001012150 METAR COR EGLL 012150Z 25008KT CAVOK M01/M03 Q1010 NOSIG=
201001012120 METAR COR EGLL 012120Z 26007KT CAVOK M01/M03 Q1010 NOSIG=
201001012050 METAR COR EGLL 012050Z 27007KT CAVOK M00/M03 Q1010 NOSIG=
201001012020 METAR COR EGLL 012020Z 27006KT CAVOK M01/M03 Q1010 NOSIG=
201001011950 METAR COR EGLL 011950Z 27006KT CAVOK M01/M03 Q1010 NOSIG=
201001011920 METAR COR EGLL 011920Z 27006KT CAVOK M01/M03 Q1009 NOSIG=
201001011850 METAR COR EGLL 011850Z 28006KT CAVOK 00/M02 Q1009 NOSIG=
201001011820 METAR COR EGLL 011820Z 29006KT CAVOK M00/M02 Q1009 NOSIG=
201001011750 METAR COR EGLL 011750Z 28006KT CAVOK 01/M02 Q1009 NOSIG=
201001011720 METAR COR EGLL 011720Z 29005KT CAVOK 01/M02 Q1008 NOSIG=
201001011650 METAR COR EGLL 011650Z 31005KT CAVOK 01/M02 Q1008 NOSIG=
201001011620 METAR COR EGLL 011620Z 29007KT CAVOK 02/M03 Q1008 NOSIG=
201001011550 METAR COR EGLL 011550Z 31004KT CAVOK 03/M03 Q1007 NOSIG=
201001011520 METAR COR EGLL 011520Z 31004KT 280V340 CAVOK 03/M03 Q1007
                        NOSIG=
201001011450 METAR COR EGLL 011450Z 32007KT 290V350 9999 FEW024 03/M04
                        Q1007 NOSIG=
201001011420 METAR COR EGLL 011420Z 32005KT 290V010 CAVOK 03/M03 Q1006
                        NOSIG=
201001011350 METAR COR EGLL 011350Z 34006KT 310V020 CAVOK 03/M03 Q1006
                        NOSIG=
201001011320 METAR COR EGLL 011320Z 34006KT 300V020 CAVOK 03/M03 Q1006
                        NOSIG=
201001011250 METAR COR EGLL 011250Z 35007KT 310V030 9999 FEW020 03/M03
                        Q1006 NOSIG=
201001011220 METAR COR EGLL 011220Z 35008KT 310V020 9999 FEW020 03/M02
                        Q1006 NOSIG=
201001011150 METAR COR EGLL 011150Z 36007KT 330V040 CAVOK 02/M02 Q1005
                        NOSIG=
201001011120 METAR COR EGLL 011120Z 36008KT CAVOK 02/M02 Q1005 NOSIG=
201001011050 METAR COR EGLL 011050Z 36007KT 320V040 CAVOK 01/M02 Q1005
                        NOSIG=
201001011020 METAR COR EGLL 011020Z 35007KT CAVOK 01/M02 Q1005 NOSIG=
201001010950 METAR COR EGLL 010950Z 36007KT CAVOK 00/M02 Q1005 NOSIG=
201001010920 METAR COR EGLL 010920Z 35006KT CAVOK M00/M03 Q1005 NOSIG=
201001010850 METAR COR EGLL 010850Z 35006KT CAVOK M01/M03 Q1004 NOSIG=
201001010820 METAR COR EGLL 010820Z 35006KT CAVOK M01/M03 Q1004 NOSIG=
201001010750 METAR COR EGLL 010750Z 35006KT CAVOK M00/M04 Q1003 NOSIG=
201001010720 METAR COR EGLL 010720Z 35006KT 320V030 CAVOK M01/M03 Q1003
                        NOSIG=
201001010650 METAR COR EGLL 010650Z 35006KT CAVOK M00/M03 Q1003 NOSIG=
201001010620 METAR COR EGLL 010620Z 35006KT CAVOK M00/M03 Q1002 NOSIG=
201001010550 METAR COR EGLL 010550Z 35005KT 310V030 CAVOK M00/M03 Q1002
                        NOSIG=
201001010520 METAR COR EGLL 010520Z 36005KT 320V030 CAVOK M00/M03 Q1002
                        NOSIG=
201001010450 METAR COR EGLL 010450Z 35005KT CAVOK 00/M03 Q1002 NOSIG=
201001010420 METAR COR EGLL 010420Z 36005KT CAVOK 00/M02 Q1002 NOSIG=
201001010350 METAR COR EGLL 010350Z 01005KT 9999 FEW045 01/M02 Q1002 NOSIG=
201001010320 METAR COR EGLL 010320Z 02006KT 9999 FEW036 01/M02 Q1001 NOSIG=
201001010250 METAR COR EGLL 010250Z 02005KT CAVOK 01/M02 Q1001 NOSIG=
201001010220 METAR COR EGLL 010220Z 02005KT 330V060 CAVOK 01/M02 Q1001
                        NOSIG=
201001010150 METAR COR EGLL 010150Z 01005KT 340V050 CAVOK 01/M02 Q1001
                        NOSIG=
201001010120 METAR COR EGLL 010120Z 36007KT CAVOK 01/M02 Q1001 NOSIG=
201001010050 METAR COR EGLL 010050Z 01005KT 330V040 9999 FEW040 01/M02
                        Q1001 NOSIG=
201001010020 METAR COR EGLL 010020Z 02007KT 350V060 CAVOK 01/M02 Q1001
                        NOSIG=

# No short TAF reports from EGLL in databse.

###################################
#  large TAF from EGLL
###################################
201001312257 TAF EGLL 312257Z 0100/0206 29009KT 9999 FEW030
                      PROB40 TEMPO 0102/0106 5000 -SHSN BKN012
                       BECMG 0200/0203 23012KT 8000 -RA BKN012
                       TEMPO 0203/0206 4500 RADZ BKN008=
201001312158 TAF AMD EGLL 312158Z 3121/0124 27008KT 9999 FEW030
                      PROB40 TEMPO 0102/0106 5000 -SHSN BKN013=
201001311704 TAF EGLL 311704Z 3118/0124 27008KT 9999 FEW030
                      PROB40 TEMPO 3118/3120 5000 -SHSN BKN013
                       TEMPO 0121/0124 6000 -RA -RASN BKN008=
201001311102 TAF EGLL 311102Z 3112/0118 27008KT 9999 FEW030
                      PROB40 TEMPO 3112/3120 5000 -SHSN BKN013=
201001310502 TAF EGLL 310502Z 3106/0112 27008KT 9999 FEW030
                      PROB40 TEMPO 3114/3120 5000 -SHSN BKN013=
201001302254 TAF EGLL 302254Z 3100/0106 27006KT 9999 FEW030
                      PROB40 TEMPO 3113/3119 5000 -SHSN BKN013=
201001301657 TAF EGLL 301657Z 3018/3124 29007KT 9999 FEW030
                      PROB40 TEMPO 3113/3118 6000 -SHSN=
201001301055 TAF EGLL 301055Z 3012/3118 30007KT 9999 FEW030
                      PROB30 3104/3108 8000
                      PROB40 TEMPO 3115/3118 6000 -SHSN=
201001300822 TAF AMD EGLL 300822Z 3008/3112 33010KT 9999 FEW035
                      BECMG 3016/3019 27005KT=
201001300500 TAF EGLL 300500Z 3006/3112 33010KT 9999 FEW035
                      PROB40 TEMPO 3006/3010 3000 -SHSN BKN010
                       BECMG 3016/3019 27005KT=
201001292259 TAF EGLL 292259Z 3000/3106 28009KT 9999 FEW035
                      PROB40 TEMPO 3007/3012 3000 -SHSN BKN013=
201001291702 TAF EGLL 291702Z 2918/3024 33010KT 9999 FEW030
                      TEMPO 3008/3012 2000 SHSN BKN008
                      PROB30 TEMPO 3012/3018 5000 -SHSN BKN014
                       BECMG 3016/3019 27005KT=
201001291101 TAF EGLL 291101Z 2912/3018 34012KT 9999 FEW020 SCT040
                      TEMPO 2912/2917 35016G26KT 6000 -SHRASN BKN014
                       PROB40
                      TEMPO 3009/3012 3000 -SHSN BKN010=
201001290719 TAF AMD EGLL 290719Z 2907/3012 24006KT 9999 -RA SCT030
                      TEMPO 2907/2912 7000 BKN014
                      PROB40 TEMPO 2907/2909 4000 RADZ BKN007
                      BECMG 2910/2913 34012KT NSW
                      PROB40 TEMPO 2911/2918 35015G25KT
                      PROB40 TEMPO 2913/2917 6000 -SHRASN=
201001290506 TAF EGLL 290506Z 2906/3012 24006KT 7000 -RA SCT030
                      TEMPO 2906/2912 BKN014
                      PROB40 TEMPO 2906/2909 4000 RADZ BKN007
                      BECMG 2910/2913 34012KT 9999 NSW
                      PROB40 TEMPO 2911/2918 35015G25KT
                      PROB40 TEMPO 2913/2917 6000 -SHRASN=
201001282303 TAF EGLL 282303Z 2900/3006 25008KT 9999 SCT030
                      TEMPO 2900/2912 7000 -RA BKN014
                      PROB40 TEMPO 2904/2909 4000 RADZ BKN009
                      BECMG 2908/2911 34012KT
                      TEMPO 2911/2918 35015G25KT
                      PROB40 TEMPO 2914/2917 6000 -SHRASN=
201001281701 TAF EGLL 281701Z 2818/2924 28008KT 9999 SCT020 BKN040
                      TEMPO 2818/2820 8000 -SHRA
                      BECMG 2820/2823 8000 -RA BKN013
                      TEMPO 2901/2908 4500 RADZ BKN008
                      BECMG 2908/2911 34012KT 9999 NSW SCT022
                      TEMPO 2911/2917 35016G26KT 6000 -SHRASN=
201001281057 TAF EGLL 281057Z 2812/2918 29010KT 9999 FEW020 SCT040
                      BECMG 2819/2822 8000 -RA BKN014
                      TEMPO 2900/2910 4500 RADZ BKN008
                      BECMG 2909/2912 35012KT 9999 NSW SCT020 BKN035
                       TEMPO 2912/2918 36016G26KT 8000 -SHRA=
201001280700 TAF AMD EGLL 280700Z 2807/2912 29005KT 9000 SCT030
                      BECMG 2807/2810 9999
                      BECMG 2817/2820 7000 -RA
                      BECMG 2819/2822 BKN012
                      TEMPO 2820/2910 3000 RADZ BKN006
                      BECMG 2909/2912 35012KT 9999 NSW BKN018
                      PROB30 TEMPO 2910/2912 35015G25KT=
201001280459 TAF EGLL 280459Z 2806/2912 29005KT 9999 SCT030
                      BECMG 2817/2820 7000 -RA
                      BECMG 2819/2822 BKN012
                      TEMPO 2820/2910 3000 RADZ BKN006
                      BECMG 2909/2912 35012KT 9999 NSW BKN018
                      PROB30 TEMPO 2910/2912 35015G25KT=
201001272301 TAF EGLL 272301Z 2800/2906 34010KT 9999 SCT030
                      BECMG 2817/2820 27008KT 7000 -RA
                      BECMG 2819/2822 BKN012
                      TEMPO 2820/2906 4000 RADZ BKN006=
201001271704 TAF EGLL 271704Z 2718/2824 25012KT 6000 SCT035
                      TEMPO 2718/2801 4000 HZ -RADZ BKN014
                      PROB30 TEMPO 2718/2723 29015G25KT RADZ BKN009
                       BECMG 2723/2802 34010KT 9999
                      BECMG 2818/2821 26008KT
                      BECMG 2821/2824 7000 -RA BKN012=
201001271249 TAF AMD EGLL 271249Z 2712/2818 26010KT 8000 SCT035
                      PROB40 TEMPO 2712/2717 4000 BR
                      TEMPO 2717/2801 -RA BKN014
                      PROB30 TEMPO 2717/2722 29015G25KT 4000 RA
                       BKN009
                      BECMG 2722/2801 33011KT 9999=
201001271100 TAF EGLL 271100Z 2712/2818 26010KT 8000 SCT035
                      PROB40 2712/2717 9999
                      TEMPO 2717/2801 -RA BKN014
                      PROB30 TEMPO 2717/2722 29015G25KT RA BKN009
                       BECMG 2722/2801 33011KT 9999=
201001270457 TAF EGLL 270457Z 2706/2812 VRB04KT 6000 FEW040
                      PROB30 2706/2708 4000 HZ
                      BECMG 2708/2711 26010KT 9999
                      TEMPO 2716/2724 7000 -RA BKN014
                      PROB30 TEMPO 2717/2722 29015G25KT RA BKN009
                       BECMG 2721/2724 33012KT=
201001262258 TAF EGLL 262258Z 2700/2806 07006KT 6000 FEW040
                      PROB30 2700/2708 4000 HZ
                      BECMG 2708/2711 26010KT 9999
                      TEMPO 2716/2724 7000 -RA BKN014
                      PROB30 TEMPO 2717/2722 29015G25KT RA BKN009
                       BECMG 2721/2724 33012KT=
201001261657 TAF EGLL 261657Z 2618/2724 04006KT 8000 FEW040
                      PROB30 2700/2708 4000 HZ
                      BECMG 2709/2712 26012KT 9999
                      PROB40 2714/2722 7000 -RA BKN014
                      BECMG 2720/2724 30015G25KT=
201001261101 TAF EGLL 261101Z 2612/2718 06010KT 9000 SCT023
                      PROB40 2612/2620 CAVOK
                      BECMG 2620/2624 VRB05KT
                      PROB30 2620/2708 4000 HZ
                      BECMG 2709/2712 25012KT
                      PROB40 2715/2718 BKN014=
201001260457 TAF EGLL 260457Z 2606/2712 04010KT 8000 FEW014 BKN030
                      TEMPO 2606/2610 BKN012
                      BECMG 2610/2613 NSC
                      TEMPO 2613/2620 CAVOK
                      BECMG 2617/2620 VRB05KT
                      PROB30 2620/2708 4000 HZ
                      BECMG 2708/2711 BKN025=
201001252255 TAF EGLL 252255Z 2600/2706 02005KT 6000 SCT018 BKN030
                      PROB30 TEMPO 2600/2609 4500 -SN HZ BKN012
                       BECMG 2610/2613 NSC
                      TEMPO 2613/2619 CAVOK
                      PROB40 2619/2706 4000 HZ=
201001251906 TAF AMD EGLL 251906Z 2519/2624 03005KT 9999 BKN025
                      PROB30 TEMPO 2519/2524 8000 BKN012
                      TEMPO 2600/2609 6000 BKN012=
201001251701 TAF EGLL 251701Z 2518/2624 03005KT 8000 BKN035
                      PROB30 TEMPO 2518/2524 BKN012
                      TEMPO 2600/2609 BKN012
                      BECMG 2607/2610 9999=
201001251455 TAF AMD EGLL 251455Z 2514/2618 03007KT 8000 BKN035
                      PROB30 TEMPO 2515/2520 9999 BKN012
                      TEMPO 2520/2609 BKN012=
201001251057 TAF EGLL 251057Z 2512/2618 03007KT 4000 -RADZ BR BKN012
                      BECMG 2512/2515 9999 NSW FEW012 BKN035
                      PROB30 TEMPO 2515/2520 6000 -DZ BKN012
                      TEMPO 2520/2609 8000 BKN012=
201001250455 TAF EGLL 250455Z 2506/2612 VRB05KT 9999 BKN012
                      TEMPO 2506/2512 4500 RADZ BR BKN005
                      BECMG 2508/2511 03010KT
                      BECMG 2512/2514 SCT014
                      PROB30 TEMPO 2514/2520 6000 -SHRA BKN012
                       TEMPO 2520/2609 8000 BKN012
                      PROB30 2601/2608 BKN007
                      BECMG 2609/2612 09007KT=
201001242256 TAF EGLL 242256Z 2500/2606 28007KT 9999 SCT014 BKN025
                      TEMPO 2500/2512 6000 -RADZ BKN012
                      PROB30 TEMPO 2500/2511 2500 DZ BKN004
                      BECMG 2508/2511 03010KT
                      PROB30 TEMPO 2512/2520 6000 -SHRA BKN012
                       BECMG 2520/2523 6000 NSC
                      PROB40 2523/2606 3000 BR BKN004=
201001241703 TAF EGLL 241703Z 2418/2524 27005KT 9999 SCT025
                      BECMG 2419/2422 7000 -RA
                      BECMG 2500/2503 BKN014
                      TEMPO 2502/2509 4000 RADZ BR BKN008
                      BECMG 2510/2513 03010KT 9999 NSW FEW014 BKN020
                       PROB30
                      TEMPO 2513/2518 7000 -RA BKN014=
201001241101 TAF EGLL 241101Z 2412/2518 28005KT 8000 SCT030
                      BECMG 2412/2414 9999
                      BECMG 2419/2422 7000
                      BECMG 2500/2503 BKN014
                      TEMPO 2503/2509 4000 RADZ BKN008
                      BECMG 2510/2513 03010KT 9999 FEW014 BKN020
                       PROB30
                      TEMPO 2513/2518 7000 -RA BKN014=
201001240724 TAF AMD EGLL 240724Z 2406/2512 30005KT 4500 HZ FEW015 BKN035
                      BECMG 2407/2409 8000 NSW
                      BECMG 2409/2411 9999
                      BECMG 2420/2423 7000
                      BECMG 2500/2503 BKN013
                      TEMPO 2503/2509 4000 -RADZ BKN009
                      BECMG 2509/2512 03010KT 9999 FEW012 BKN020=
201001240504 TAF EGLL 240504Z 2406/2512 30005KT 8000 FEW015 BKN035
                      BECMG 2407/2410 9999
                      BECMG 2420/2423 7000
                      BECMG 2500/2503 BKN013
                      TEMPO 2503/2509 4000 -RADZ BKN009
                      BECMG 2509/2512 03010KT 9999 FEW012 BKN020=
201001232300 TAF EGLL 232300Z 2400/2506 32005KT 9999 FEW018 BKN030
                      TEMPO 2400/2502 7000 BKN014
                      PROB30 2403/2409 4500 HZ BKN008
                      PROB30 2502/2506 4000 -RADZ BKN008=
201001231657 TAF EGLL 231657Z 2318/2424 34005KT 9999 FEW008 BKN016
                      TEMPO 2318/2410 6000 SCT007 BKN012
                      PROB30 2322/2409 3000 BR BKN004
                      BECMG 2421/2424 23010KT=
201001231057 TAF EGLL 231057Z 2312/2418 34007KT 9999 SCT010 BKN022
                      TEMPO 2312/2319 6000 BKN009
                      BECMG 2319/2322 5000 BR BKN009
                      PROB30 2322/2409 2000 BKN003
                      BECMG 2409/2412 9999 NSW SCT012 BKN020=
201001230934 TAF AMD EGLL 230934Z 2309/2412 36007KT 9999 BKN008
                      TEMPO 2309/2403 7000 SCT010 BKN018
                      PROB40 2403/2409 4000 -DZ BR OVC004=
201001230726 TAF AMD EGLL 230726Z 2307/2412 36007KT 9999 BKN008
                      TEMPO 2307/2303 7000 SCT010 BKN018
                      PROB40 2403/2409 4000 -DZ BR OVC004=
201001230504 TAF EGLL 230504Z 2306/2412 36007KT 8000 BKN008
                      PROB30 TEMPO 2306/2309 4500 -DZ BR OVC004
                       TEMPO 2309/2324 9999 SCT010 BKN018
                      PROB40 2403/2409 4000 -DZ BR OVC004=
201001230328 TAF AMD EGLL 230328Z 2303/2406 34007KT 9999 BKN006
                      TEMPO 2303/2309 4000 -DZ BR OVC003
                      TEMPO 2309/2324 SCT010 BKN020
                      PROB30 2400/2406 4000 BR=
201001222300 TAF AMD EGLL 230328Z 2303/2406 34007KT 9999 BKN006
                      TEMPO 2303/2309 4000 -DZ BR OVC003
                      TEMPO 2309/2324 SCT010 BKN020
                      PROB30 2400/2406 4000 BR=
201001222259 TAF EGLL 222259Z 2300/2406 34005KT 3000 -DZ BR BKN005
                      BECMG 2300/2302 BKN003
                      PROB30 2302/2305 0700 BCFG OVC001
                      BECMG 2305/2308 7000 NSW BKN008
                      TEMPO 2311/2324 9999 SCT010 BKN020
                      PROB30 2400/2406 4000 BR=
201001221701 TAF EGLL 221701Z 2218/2324 15010KT 9999 SCT006 BKN015
                      TEMPO 2218/2222 3000 RADZ BKN004
                      BECMG 2222/2301 34007KT 3000 BR -DZ BKN004
                       PROB40 2223/2305 0800 BCFG BKN001
                      BECMG 2305/2308 6000 NSW BKN007
                      TEMPO 2309/2318 9999 SCT010
                      BECMG 2318/2321 4000 BR=
201001221104 TAF EGLL 221104Z 2212/2318 15010KT 9999 SCT005 BKN015
                      TEMPO 2212/2222 3000 RA BKN003
                      BECMG 2222/2301 34007KT 4000 BR -DZ BKN004
                       PROB30 2223/2304 0600 BCFG BKN001
                      BECMG 2305/2308 6000 NSW BKN007
                      TEMPO 2308/2318 9999 SCT008 BKN018=
201001220707 TAF AMD EGLL 220707Z 2207/2312 17012KT 9999 -RA SCT006 BKN010
                      BECMG 2207/2209 7000
                      PROB40 2207/2217 4000 RADZ BKN006
                      BECMG 2217/2220 3000 BR BKN004
                      PROB40 2220/2306 0600 FG BKN001
                      BECMG 2221/2224 33004KT
                      BECMG 2307/2310 8000 NSW BKN012=
201001220504 TAF EGLL 220504Z 2206/2312 17012KT 8000 -RA BKN010
                      PROB40 2206/2217 4000 RADZ BKN006
                      BECMG 2217/2220 3000 BR BKN004
                      PROB40 2220/2306 0700 FG BKN001
                      BECMG 2221/2224 33004KT
                      BECMG 2307/2310 8000 NSW BKN012=
201001212300 TAF EGLL 212300Z 2200/2306 15008KT 9999 BKN016
                      BECMG 2200/2202 7000 -RA BKN008
                      PROB40 2202/2217 4000 RADZ BKN004
                      BECMG 2217/2220 3000 BR BKN004
                      PROB40 2220/2306 0700 FG BKN001=
201001212236 TAF AMD EGLL 212236Z 2122/2224 15010KT 9999 BKN025
                      PROB40 2122/2123 7000 BKN012
                      BECMG 2123/2202 7000 -RA BKN008
                      TEMPO 2202/2217 4000 RADZ BKN004
                      BECMG 2217/2220 3000 BR BKN004
                      PROB40 2220/2224 0400 FG BKN001=
201001212159 TAF AMD EGLL 212159Z 2121/2224 15010KT 9999 BKN025
                      PROB40 2121/2123 7000 BKN012
                      BECMG 2123/2202 -RA BKN008
                      TEMPO 2202/2217 4000 RADZ BKN004
                      BECMG 2217/2220 3000 BR BKN004
                      PROB40 2220/2224 0400 FG BKN001=
201001211702 TAF EGLL 211702Z 2118/2224 15010KT 9999 BKN018
                      BECMG 2118/2121 7000 BKN013
                      BECMG 2123/2202 -RA BKN008
                      TEMPO 2204/2224 4000 RADZ BKN004
                      PROB40 TEMPO 2210/2217 9999 SCT009 BKN016=
201001211101 TAF EGLL 211101Z 2112/2218 15008KT 7000 SCT025
                      BECMG 2112/2114 9999
                      BECMG 2118/2121 7000 BKN014
                      BECMG 2200/2204 -RA BKN008
                      TEMPO 2204/2209 4000 -RADZ BKN004
                      TEMPO 2209/2218 4500 RA SCT007 BKN015=
201001210456 TAF EGLL 210456Z 2106/2212 VRB04KT 6000 BKN030
                      PROB40 2106/2110 3500 BR
                      BECMG 2110/2113 9999
                      BECMG 2118/2121 13010KT 7000 BKN007
                      PROB30 2203/2212 4500 RA=
201001210254 TAF AMD EGLL 210254Z 2102/2206 31004KT 6000 BKN025
                      PROB40 2103/2111 3500 BR
                      BECMG 2119/2122 13010KT BKN008
                      PROB30 2203/2206 4500 RA=
201001202303 TAF EGLL 202303Z 2100/2206 35005KT 8000 FEW014 BKN022
                      PROB40 2100/2111 BKN014
                      BECMG 2119/2122 13010KT BKN008
                      PROB30 2203/2206 4500 RA=
201001202300 TAF AMD EGLL 210254Z 2102/2206 31004KT 6000 BKN025
                      PROB40 2103/2111 3500 BR
                      BECMG 2119/2122 13010KT BKN008
                      PROB30 2203/2206 4500 RA=
201001202029 TAF AMD EGLL 202029Z 2020/2124 05005KT 9999 BKN022
                      PROB40 2020/2111 6000 BKN014
                      PROB30 2118/2121 8000 BKN013
                      BECMG 2121/2124 14011KT 5000 RA BKN010=
201001201702 TAF EGLL 201702Z 2018/2124 VRB03KT 8000 FEW010 BKN017
                      TEMPO 2018/2109 4000 -DZ BR BKN007
                      BECMG 2110/2113 9999
                      PROB30 2118/2121 8000 BKN013
                      BECMG 2121/2124 15011KT 7000 RA BKN012=
201001201101 TAF EGLL 201101Z 2012/2118 07007KT 9999 SCT010 BKN018
                      TEMPO 2012/2018 6000 RASN BKN009
                      PROB30 TEMPO 2012/2017 1500 SN OVC004
                      BECMG 2018/2021 7000
                      TEMPO 2018/2110 4500 -RADZ BKN007
                      BECMG 2110/2113 9999=
201001200503 TAF EGLL 200503Z 2006/2112 11012KT 9999 FEW014
                      BECMG 2006/2009 7000 -RA BKN008
                      TEMPO 2009/2019 4000 RASN OVC004
                      PROB40 TEMPO 2010/2015 1200 SN
                      BECMG 2013/2016 02004KT
                      BECMG 2019/2022 SCT008
                      PROB30 2022/2110 3000 BR BKN008
                      PROB30 2110/2112 BKN010=
201001192304 TAF EGLL 192304Z 2000/2106 09010KT 7000 SCT010 BKN020
                      PROB30 TEMPO 2000/2006 9999 BKN008
                      BECMG 2006/2009 4500 -RA BKN008
                      PROB40 2011/2016 1400 RASN OVC004
                      BECMG 2012/2015 02004KT
                      BECMG 2021/2024 5000 HZ SCT008
                      PROB30 2100/2106 3000 BR BKN006=
201001191839 TAF AMD EGLL 191839Z 1918/2024 09007KT 8000 FEW008 BKN035
                      PROB40 1918/1924 4500 BR BKN010
                      BECMG 2000/2003 4000 BR BKN009
                      PROB40 2011/2020 1400 RASN BR OVC004
                      BECMG 2021/2024 7000 NSW BKN012=
201001191702 TAF EGLL 191702Z 1918/2024 09007KT 9999 FEW008 BKN035
                      PROB40 1918/1920 6000 BKN010
                      BECMG 1920/1923 7000 BKN009
                      BECMG 2009/2012 4500 -RADZ
                      PROB40 2011/2020 1400 RASN BR OVC004
                      BECMG 2021/2024 7000 NSW BKN012=
201001191059 TAF EGLL 191059Z 1912/2018 09007KT 9999 FEW008 BKN040
                      PROB40 1912/1920 8000 BKN012
                      BECMG 1920/1923 9000 BKN009
                      BECMG 2010/2013 4500 -RADZ
                      PROB40 2013/2018 1400 RASN BKN004=
201001190504 TAF EGLL 190504Z 1906/2012 VRB02KT 8000 BKN040
                      PROB30 1906/1909 4000 BR
                      BECMG 1909/1912 9999
                      PROB40 1914/2003 BKN008
                      BECMG 1915/1918 11010KT
                      BECMG 2003/2006 6000 -RA BKN008=
201001190259 TAF AMD EGLL 190259Z 1903/2006 VRB02KT 9000 BKN035
                      PROB30 1905/1909 4000 BR
                      BECMG 1911/1914 12010KT 9999 NSW
                      PROB40 1913/2003 BKN008
                      BECMG 2003/2006 6000 -RA BKN014=
201001182302 TAF EGLL 182302Z 1900/2006 VRB04KT 9999 SCT030
                      BECMG 1900/1903 3000 BR
                      PROB40 1903/1909 0600 FG BKN001
                      BECMG 1908/1911 BKN004
                      BECMG 1911/1914 12010KT 9999 NSW BKN008
                      PROB30 1913/1917 SCT008
                      BECMG 2003/2006 6000 -RA BKN014=
201001182300 TAF AMD EGLL 190259Z 1903/2006 VRB02KT 9000 BKN035
                      PROB30 1905/1909 4000 BR
                      BECMG 1911/1914 12010KT 9999 NSW
                      PROB40 1913/2003 BKN008
                      BECMG 2003/2006 6000 -RA BKN014=
201001181704 TAF EGLL 181704Z 1818/1924 VRB04KT 9999 FEW009 SCT030
                      BECMG 1818/1820 6000
                      PROB30 1818/1820 BKN008
                      BECMG 1820/1823 3000 BR BKN005
                      PROB40 1823/1908 0300 FG BKN001
                      BECMG 1908/1911 12010KT 5000 HZ BKN012
                      BECMG 1912/1915 9999 NSW BKN015=
201001181401 TAF AMD EGLL 181401Z 1814/1918 25004KT 9999 FEW009 BKN020
                      PROB30 1814/1819 7000 BKN009
                      BECMG 1816/1819 6000
                      BECMG 1819/1822 3000 BR BKN005
                      PROB40 1822/1908 0300 FG BKN001
                      BECMG 1908/1911 12010KT 5000 HZ BKN012
                      BECMG 1912/1915 9999 NSW BKN015=
201001181057 TAF EGLL 181057Z 1812/1918 25004KT 1400 BR OVC002
                      PROB40 1812/1817 6000 BKN005
                      PROB40 1818/1908 0300 FG BKN001
                      BECMG 1908/1911 12010KT 5000 HZ BKN009
                      BECMG 1912/1915 9999 NSW BKN015=
201001180458 TAF EGLL 180458Z 1806/1912 VRB04KT 6000 FEW008
                      TEMPO 1806/1810 2000 BR BKN004
                      PROB30 1806/1809 0400 FG BKN001
                      TEMPO 1810/1820 9999 BKN008
                      BECMG 1820/1823 3000 BR BKN004
                      PROB40 1823/1910 0500 BCFG BKN001
                      BECMG 1910/1912 12010KT 9999 NSW SCT012=
201001172300 TAF EGLL 172300Z 1800/1906 VRB04KT CAVOK
                      BECMG 1800/1803 4000 BR
                      PROB40 1802/1810 0800 BCFG BKN001
                      BECMG 1810/1812 7000 NSW BKN008
                      BECMG 1812/1814 SCT014
                      PROB40 1900/1906 1200 BR MIFG BKN002=
201001171703 TAF EGLL 171703Z 1718/1824 27008KT 9999 FEW035
                      BECMG 1719/1722 6000
                      BECMG 1722/1801 3000 BR
                      PROB40 1801/1810 0600 FG BKN001
                      BECMG 1810/1813 7000 NSW BKN008
                      BECMG 1813/1816 SCT012
                      BECMG 1819/1822 4000 BR
                      PROB40 1821/1824 1200 BKN003=
201001171055 TAF EGLL 171055Z 1712/1818 27010KT 9999 FEW035
                      BECMG 1718/1721 VRB04KT 6000
                      BECMG 1721/1724 3000 BR
                      PROB40 1800/1810 0600 FG BKN001
                      BECMG 1810/1813 7000 NSW BKN008
                      BECMG 1813/1816 SCT012
                      PROB40 1816/1818 4000 BR BKN012=
201001170455 TAF EGLL 170455Z 1706/1812 26010KT 9999 FEW022
                      BECMG 1718/1721 VRB04KT 6000
                      BECMG 1721/1724 3000 BR
                      PROB40 1800/1810 0600 BCFG BKN001
                      PROB40 1810/1812 BKN003=
201001162302 TAF EGLL 162302Z 1700/1806 28010KT 9999 FEW018
                      PROB40 1700/1702 4000 BR RA BKN006
                      BECMG 1718/1721 VRB04KT 6000
                      BECMG 1721/1724 3000 BR
                      PROB40 1800/1806 0600 BCFG BKN001=
201001162136 TAF AMD EGLL 162136Z 1621/1724 18005KT 0400 FG BKN001
                      BECMG 1621/1623 2000 RA BKN003
                      BECMG 1623/1702 28010KT 9999 NSW FEW018
                      PROB40 1718/1724 4000 BR BKN006=
201001162056 TAF AMD EGLL 162056Z 1620/1724 18008KT 4000 BR SCT003 BKN006
                      TEMPO 1620/1623 0800 FG BKN001
                      BECMG 1623/1702 28010KT 9999 NSW FEW035
                      TEMPO 1623/1701 29016KT SHRA SCT007 BKN014
                       PROB40 1718/1724 4000 BR BKN006=
201001161810 TAF AMD EGLL 161810Z 1618/1724 18008KT 6000 BKN006
                      BECMG 1618/1621 4000 BR BKN004
                      BECMG 1623/1702 28010KT 9999 NSW FEW035
                      PROB40 TEMPO 1623/1701 29015G25KT 6000 SHRA
                       BKN014
                      PROB40 1718/1724 4000 BR BKN006=
201001161703 TAF EGLL 161703Z 1618/1724 18008KT 3000 -DZ BR BKN004
                      BECMG 1623/1702 28010KT 9999 NSW FEW035
                      PROB40 TEMPO 1623/1701 29015G25KT 6000 SHRA
                       BKN014
                      PROB40 1718/1724 4000 BR BKN006=
201001161631 TAF AMD EGLL 161631Z 1616/1718 18009KT 5000 -DZ BKN004
                      BECMG 1616/1619 3000 BR
                      BECMG 1623/1702 28010KT 9999 NSW SCT035=
201001161115 TAF COR EGLL 161115Z 1612/1718 16012KT 9999 -RA BKN010
                      TEMPO 1612/1617 6000 -RADZ SHRA BKN008
                      BECMG 1617/1620 22005KT 4000 -DZ BR BKN008
                       BECMG 1623/1702 28010KT 9999 NSW SCT035=
201001161106 TAF EGLL 161106Z 1612/1718 16012KT 9999 -RA BKN010
                      TEMPO 1612/1717 6000 -RADZ SHRA BKN008
                      BECMG 1617/1620 22005KT 4000 -DZ BR BKN008
                       BECMG 1623/1702 28010KT 9999 NSW SCT035=
201001161024 TAF AMD EGLL 161024Z 1610/1712 16012KT 9000 -RA BKN010
                      TEMPO 1610/1623 4000 -RADZ SHRA BKN008
                      BECMG 1618/1622 27010KT
                      BECMG 1623/1702 9999 NSW SCT020=
201001160509 TAF EGLL 160509Z 1606/1712 16012KT 9999 FEW013 SCT040
                      BECMG 1606/1609 8000 RA BKN012
                      TEMPO 1606/1613 17017G27KT
                      TEMPO 1611/1623 4000 -RADZ BKN006
                      BECMG 1618/1622 27010KT
                      BECMG 1623/1702 9999 NSW SCT020=
201001152300 TAF EGLL 152300Z 1600/1706 16012KT 7000 BKN007
                      TEMPO 1601/1606 9999 SCT009
                      TEMPO 1602/1612 17017G27KT
                      BECMG 1606/1609 RA BKN010
                      TEMPO 1609/1623 4000 -RADZ BKN006
                      BECMG 1616/1620 27008KT
                      BECMG 1623/1702 9999 SCT020=
201001151705 TAF EGLL 151705Z 1518/1624 16010KT 8000 BKN007
                      TEMPO 1518/1604 9999 SCT016
                      TEMPO 1522/1612 16015G25KT
                      TEMPO 1604/1616 4000 RA BR BKN010
                      BECMG 1614/1617 27008KT 3000 -DZ BR BKN004
                       PROB40
                      TEMPO 1621/1624 RA BKN006=
201001151412 TAF AMD EGLL 151412Z 1514/1618 17010KT 8000 BKN007
                      TEMPO 1514/1604 9999 SCT016
                      BECMG 1522/1601 16015G25KT
                      TEMPO 1604/1615 4000 RA BR BKN010
                      BECMG 1611/1614 21008KT
                      BECMG 1615/1618 3000 -DZ BR BKN004=
201001151104 TAF EGLL 151104Z 1512/1618 17010KT 7000 BKN007
                      BECMG 1512/1514 BKN010
                      TEMPO 1513/1604 9999 SCT016
                      BECMG 1522/1601 16015G25KT
                      TEMPO 1604/1615 4000 RA BR BKN007
                      BECMG 1611/1614 21008KT
                      BECMG 1615/1618 3000 -DZ BR BKN004=
201001151057 TAF AMD EGLL 151057Z 1510/1612 17008KT 4000 BR -RA OVC004
                      BECMG 1510/1513 7000 NSW BKN010
                      TEMPO 1514/1604 9999 SCT016
                      BECMG 1604/1608 16015G25KT 7000 RA BKN008=
201001150635 TAF AMD EGLL 150635Z 1506/1612 17008KT 0600 BCFG OVC001
                      BECMG 1506/1508 2000 BR OVC003
                      BECMG 1508/1510 6000 NSW BKN006
                      BECMG 1510/1513 BKN010
                      TEMPO 1514/1604 9999 SCT016
                      BECMG 1604/1608 16015G25KT 7000 RA BKN008=
201001150503 TAF EGLL 150503Z 1506/1612 17008KT 3500 BR SCT002 OVC005
                      TEMPO 1506/1510 1300 -DZ OVC001
                      BECMG 1510/1513 7000 NSW BKN010
                      TEMPO 1514/1604 9999 SCT016
                      BECMG 1604/1608 16015G25KT 7000 RA BKN008=
201001150257 TAF AMD EGLL 150257Z 1502/1606 VRB03KT 8000 BKN005
                      BECMG 1503/1505 3500 BR BKN003
                      TEMPO 1505/1510 1300 SCT005
                      PROB30 TEMPO 1505/1509 0700 BCFG OVC001
                      BECMG 1509/1512 18010KT 7000 NSW BKN008
                      BECMG 1512/1515 9999 BKN012
                      TEMPO 1515/1602 SCT016
                      PROB30 1604/1606 7000 RA=
201001142303 TAF EGLL 142303Z 1500/1606 VRB03KT 8000 BKN005
                      BECMG 1500/1502 3500 BR BKN003
                      TEMPO 1502/1510 1300 SCT005
                      PROB30 TEMPO 1504/1509 0700 BCFG OVC001
                      BECMG 1509/1512 18010KT 7000 NSW BKN008
                      BECMG 1512/1515 9999 BKN012
                      TEMPO 1515/1602 SCT016
                      PROB30 1604/1606 7000 RA=
201001142300 TAF AMD EGLL 150257Z 1502/1606 VRB03KT 8000 BKN005
                      BECMG 1503/1505 3500 BR BKN003
                      TEMPO 1505/1510 1300 SCT005
                      PROB30 TEMPO 1505/1509 0700 BCFG OVC001
                      BECMG 1509/1512 18010KT 7000 NSW BKN008
                      BECMG 1512/1515 9999 BKN012
                      TEMPO 1515/1602 SCT016
                      PROB30 1604/1606 7000 RA=
201001142142 TAF AMD EGLL 142142Z 1421/1524 VRB03KT 8000 SCT005 BKN010
                      BECMG 1421/1424 4000 BR BKN004
                      TEMPO 1500/1510 1200
                      PROB30 TEMPO 1502/1509 0700 BCFG OVC001
                      BECMG 1509/1512 18010KT 7000 NSW BKN008
                      TEMPO 1512/1524 9999 FEW010 BKN015=
201001141812 TAF AMD EGLL 141812Z 1418/1524 33003KT 6000 SCT005 BKN012
                      BECMG 1418/1421 2500 BR BKN005
                      TEMPO 1418/1509 1200 BKN003
                      PROB40 TEMPO 1421/1510 0400 FG OVC001
                      BECMG 1509/1512 18010KT 6000 NSW BKN008
                      TEMPO 1512/1524 9999 BKN012=
201001141707 TAF EGLL 141707Z 1418/1524 33003KT 6000 SCT005 BKN012
                      BECMG 1418/1421 2500 BR BKN005
                      TEMPO 1421/1509 1200 BKN003
                      PROB40 TEMPO 1421/1510 0400 FG OVC001
                      BECMG 1509/1512 18010KT 6000 NSW BKN008
                      TEMPO 1512/1524 9999 BKN012=
201001141059 TAF EGLL 141059Z 1412/1518 07004KT 6000 BKN008
                      TEMPO 1412/1418 3000 -RA BR BKN003
                      PROB40 1412/1421 SCT005 BKN015
                      BECMG 1418/1421 2000 BR -DZ BKN003
                      PROB40 TEMPO 1421/1510 0300 FG OVC001
                      BECMG 1509/1512 19010KT 6000 NSW BKN008=
201001140501 TAF EGLL 140501Z 1406/1512 07004KT 2000 BR BKN003
                      TEMPO 1406/1411 0500 -RA FG OVC001
                      PROB30 1406/1421 SCT005 BKN015
                      TEMPO 1411/1418 -RA BKN005
                      PROB40 1421/1510 0300 FG OVC001
                      BECMG 1509/1512 BKN008=
201001140220 TAF AMD EGLL 140220Z 1402/1506 10004KT 2000 BR BKN003
                      PROB40 1402/1406 SCT007 BKN015
                      TEMPO 1402/1411 0300 -RADZ FZFG OVC001
                      TEMPO 1411/1418 5000 -RADZ BKN007
                      PROB30 1500/1506 0500 FG OVC001=
201001132300 TAF AMD EGLL 140220Z 1402/1506 10004KT 2000 BR BKN003
                      PROB40 1402/1406 SCT007 BKN015
                      TEMPO 1402/1411 0300 -RADZ FZFG OVC001
                      TEMPO 1411/1418 5000 -RADZ BKN007
                      PROB30 1500/1506 0500 FG OVC001=
201001132258 TAF EGLL 132258Z 1400/1506 10004KT 3000 BR BKN007
                      PROB40 1400/1404 SCT007 BKN015
                      BECMG 1402/1405 BKN003
                      TEMPO 1404/1411 0700 -RADZ BCFG OVC001
                      TEMPO 1411/1418 5000 -RADZ BKN007
                      PROB30 1500/1506 0500 FG OVC001=
201001131659 TAF EGLL 131659Z 1318/1424 10004KT 2500 BR FEW008 BKN015
                      BECMG 1318/1321 BKN007
                      BECMG 1321/1324 BKN003
                      TEMPO 1402/1411 0700 -RADZ BCFG OVC001
                      TEMPO 1411/1418 5000 -RADZ BKN007=
201001131101 TAF EGLL 131101Z 1312/1418 10005KT 3500 BR SCT005 BKN015
                      TEMPO 1312/1315 1400 -SN BKN002
                      TEMPO 1315/1318 5000 -RASN BKN004
                      BECMG 1318/1321 1300 BKN003
                      PROB40 1400/1411 0300 FG OVC000
                      TEMPO 1413/1418 4500 BKN006=
201001130458 TAF EGLL 130458Z 1306/1412 09007KT 3000 -SN BKN005
                      TEMPO 1306/1312 0700 SN OVC001
                      BECMG 1312/1315 BKN004
                      PROB30 TEMPO 1315/1318 6000 NSW BKN006
                      BECMG 1318/1321 1200 BR BKN002
                      PROB40 1323/1412 0300 FZFG OVC000=
201001122304 TAF EGLL 122304Z 1300/1406 10010KT 5000 HZ SCT012 BKN015
                      BECMG 1300/1303 3500 -SN BKN007
                      TEMPO 1303/1310 1200 SN OVC002
                      BECMG 1309/1312 BKN004
                      PROB30 TEMPO 1314/1318 6000 NSW BKN006
                      BECMG 1320/1323 BKN002
                      PROB40 1323/1406 0500 FZFG OVC000=
201001121900 TAF AMD EGLL 121900Z 1219/1324 10010KT 6000 SCT012 BKN018
                      TEMPO 1219/1224 4000 HZ BKN009
                      BECMG 1300/1303 3500 -SN BKN007
                      TEMPO 1303/1309 1200 SN OVC002
                      BECMG 1309/1312 -RASN BKN004
                      TEMPO 1314/1324 6000 NSW BKN007=
201001121858 TAF AMD EGLL 121858Z 1218/1324 10010KT 6000 SCT012 BKN018
                      TEMPO 1218/1224 4000 BKN009
                      BECMG 1300/1303 3500 -SN BKN007
                      TEMPO 1303/1309 1200 SN OVC002
                      BECMG 1309/1312 -RASN BKN004
                      TEMPO 1314/1324 6000 NSW BKN007=
201001121705 TAF EGLL 121705Z 1218/1324 10010KT 3500 HZ BKN012
                      TEMPO 1218/1224 5000 BKN009
                      BECMG 1300/1303 -SN BKN007
                      TEMPO 1303/1309 1200 SN OVC002
                      BECMG 1309/1312 -RASN BKN004
                      TEMPO 1314/1324 6000 NSW BKN007=
201001121605 TAF AMD EGLL 121605Z 1216/1318 11010KT 6000 SCT013 BKN018
                      TEMPO 1216/1224 4500 HZ BKN012
                      BECMG 1300/1303 4000 -SN BKN008
                      PROB30 TEMPO 1303/1309 1200 SN BKN002
                      TEMPO 1309/1318 6000 -RASN BKN004=
201001121100 TAF EGLL 121100Z 1212/1318 11010KT 8000 FEW013 BKN018
                      TEMPO 1218/1224 BKN012
                      BECMG 1300/1303 4000 -SN BKN008
                      PROB30 TEMPO 1303/1309 1200 SN BKN002
                      TEMPO 1309/1318 6000 -RASN BKN004=
201001120554 TAF AMD EGLL 120554Z 1206/1312 09005KT 6000 SCT040
                      PROB30 TEMPO 1206/1209 4500 BR BKN010
                      PROB40 1217/1301 BKN012
                      BECMG 1301/1304 4000 -SN BKN008
                      PROB30 TEMPO 1306/1310 1200 SN BKN002=
201001120456 TAF EGLL 120456Z 1206/1312 09005KT 4500 BR SCT030
                      PROB30 TEMPO 1206/1209 BKN010
                      BECMG 1209/1212 8000 NSW
                      PROB40 1217/1301 BKN012
                      BECMG 1301/1304 4000 -SN BKN008
                      PROB30 TEMPO 1306/1310 1200 SN BKN002=
201001112301 TAF EGLL 112301Z 1200/1306 VRB02KT 3500 BR SCT020
                      PROB30 TEMPO 1200/1209 BKN010
                      BECMG 1209/1212 11010KT 8000 NSW
                      PROB40 1216/1303 BKN012
                      BECMG 1303/1306 4000 -SN BKN008=
201001111705 TAF EGLL 111705Z 1118/1224 07005KT 5000 BR BKN016
                      TEMPO 1118/1224 4000 BKN010
                      PROB40 1121/1209 BKN006
                      BECMG 1208/1211 13010KT=
201001111600 TAF AMD EGLL 111600Z 1115/1218 07005KT 5000 BR SCT018
                      TEMPO 1115/1210 4000 BKN010
                      PROB40 1121/1209 BKN006
                      BECMG 1208/1211 13010KT=
201001111105 TAF EGLL 111105Z 1112/1218 09005KT 7000 BKN018
                      TEMPO 1117/1210 4000 BR BKN010
                      PROB40 1121/1209 BKN006
                      BECMG 1208/1211 11013KT=
201001110502 TAF EGLL 110502Z 1106/1212 09003KT 5000 HZ BKN018
                      PROB30 1106/1109 4500 BR
                      BECMG 1108/1111 9999 NSW
                      PROB30 TEMPO 1111/1117 8000
                      PROB40 1117/1208 4000 BR BKN012
                      BECMG 1208/1211 11013KT=
201001110028 TAF AMD EGLL 110028Z 1100/1206 04008KT 6000 BKN015
                      TEMPO 1100/1103 1200 SN BKN002
                      BECMG 1103/1106 9999
                      TEMPO 1103/1108 4000 -SN BR BKN006
                      PROB30 TEMPO 1108/1117 8000 BKN014
                      PROB40 1117/1206 4000 BR BKN012=
201001102302 TAF EGLL 102302Z 1100/1206 04008KT 9999 BKN014
                      TEMPO 1100/1108 6000 -RASN BKN009
                      PROB30 TEMPO 1100/1103 4000 SHSN
                      BECMG 1105/1108 FEW014 BKN030
                      PROB30 TEMPO 1108/1117 8000 BKN014
                      PROB40 1117/1206 4000 BR BKN012=
201001102300 TAF AMD EGLL 110028Z 1100/1206 04008KT 6000 BKN015
                      TEMPO 1100/1103 1200 SN BKN002
                      BECMG 1103/1106 9999
                      TEMPO 1103/1108 4000 -SN BR BKN006
                      PROB30 TEMPO 1108/1117 8000 BKN014
                      PROB40 1117/1206 4000 BR BKN012=
201001101657 TAF EGLL 101657Z 1018/1124 04008KT 9999 BKN015
                      TEMPO 1018/1121 6000 -SN BKN010
                      PROB30 TEMPO 1018/1021 BKN007
                      BECMG 1021/1024 8000 BKN006
                      PROB40 1100/1110 3000 -SN BR BKN003
                      BECMG 1109/1112 9999 SCT006 BKN015
                      PROB30 TEMPO 1112/1124 6000 BKN008=
201001101101 TAF EGLL 101101Z 1012/1118 04008KT 9999 SCT014 BKN018
                      TEMPO 1012/1021 6000 -SN BKN014
                      PROB30 TEMPO 1012/1021 3000 SN BKN007
                      BECMG 1021/1024 3000 BR BKN006
                      PROB40 1100/1110 -SN BKN003
                      BECMG 1109/1112 6000 NSW SCT006 BKN015=
201001100458 TAF EGLL 100458Z 1006/1112 03009KT 9999 SCT014 BKN018
                      TEMPO 1006/1021 6000 -SN BKN014
                      PROB30 TEMPO 1009/1021 3000 SN BKN007
                      BECMG 1021/1024 3000 BR BKN006
                      PROB40 1100/1110 SG BKN003
                      BECMG 1109/1112 6000 NSW SCT006 BKN015=
201001092301 TAF EGLL 092301Z 1000/1106 02011KT 9999 FEW014 SCT025
                      TEMPO 1000/1006 7000 -SN BKN014
                      PROB30 TEMPO 1000/1006 3000 SN BKN007
                      BECMG 1006/1009 6000 -SN BKN012
                      PROB40 TEMPO 1006/1021 3000 SN BKN005
                      BECMG 1021/1024 3000 BR BKN006
                      PROB40 1100/1106 BKN002=
201001092102 TAF AMD EGLL 092102Z 0921/1024 02012KT 9999 FEW014 SCT035
                      PROB30 TEMPO 0921/0924 02015G25KT
                      TEMPO 0922/1003 6000 -SN BKN014
                      PROB30 TEMPO 1000/1003 3000 SN BLSN BKN007
                       BECMG 1003/1006 6000 -SN BKN012
                      PROB40 TEMPO 1003/1024 3000 SN BKN004=
201001091839 TAF AMD EGLL 091839Z 0918/1024 02012KT 9999 FEW015
                      BECMG 0918/0921 6000 -SN BKN012
                      PROB30 TEMPO 0918/0924 02015G25KT
                      PROB40 TEMPO 0921/1008 2000 SN BLSN BKN004
                       PROB40 1021/1024 4000 BR BKN004=
201001091700 TAF EGLL 091700Z 0918/1024 02012KT 6000 -SN BKN015
                      BECMG 0918/0921 BKN012
                      PROB40 TEMPO 0918/1008 2000 SN BLSN BKN004
                       PROB30
                      TEMPO 0918/0924 02015G25KT
                      PROB40 1021/1024 4000 BR BKN004=
201001091103 TAF EGLL 091103Z 0912/1018 02011KT 9999 FEW025
                      PROB40 TEMPO 0912/0924 02015G25KT
                      BECMG 0915/0918 6000 -SN BKN012
                      PROB40 TEMPO 0917/1008 2000 SN BLSN BKN004=
201001090500 TAF EGLL 090500Z 0906/1012 02011KT 9999 FEW025
                      PROB40 TEMPO 0906/0916 6000 -SHSN BKN010
                       PROB40
                      TEMPO 0912/0924 02015G25KT
                      BECMG 0916/0919 6000 -SN BKN009
                      PROB40 TEMPO 0918/1012 2000 SN BKN003=
201001082304 TAF EGLL 082304Z 0900/1006 02010KT 9999 FEW015
                      TEMPO 0900/0915 6000 -SHSN
                      PROB30 TEMPO 0900/0910 4000 SHSN BR BKN005
                       PROB40
                      TEMPO 0912/0924 02015G25KT
                      BECMG 0916/0919 5000 -SN BKN009
                      PROB40 TEMPO 0918/1006 2000 SN BKN003=
201001082000 TAF AMD EGLL 082000Z 0820/0924 02008KT 9999 FEW045
                      PROB40 TEMPO 0820/0904 5000 SHSN
                      PROB40 0904/0910 3000 -SN BR BKN005
                      PROB40 TEMPO 0912/0924 02015G25KT
                      BECMG 0916/0919 5000 -SN BKN009=
201001081703 TAF EGLL 081703Z 0818/0924 02008KT 9999 FEW045
                      PROB30 TEMPO 0818/0904 6000 -SHSN
                      PROB40 0904/0910 3000 -SN BR BKN005
                      PROB40 TEMPO 0912/0924 02015G25KT
                      BECMG 0916/0919 5000 -SN BKN009=
201001081104 TAF EGLL 081104Z 0812/0918 02008KT 9999 FEW010
                      TEMPO 0812/0909 5000 -SHSN BKN010
                      PROB30 0903/0909 2000 SN BR BKN005
                      PROB30 TEMPO 0912/0918 02015G25KT
                      BECMG 0916/0918 5000 -SN=
201001080505 TAF EGLL 080505Z 0806/0912 01008KT 9999 FEW010 SCT025
                      TEMPO 0806/0810 7000 BKN005
                      TEMPO 0812/0912 5000 -SHSN BKN010
                      PROB30 TEMPO 0900/0910 4000 BR BKN005=
201001072303 TAF EGLL 072303Z 0800/0906 01008KT 9999 FEW010 SCT025
                      TEMPO 0800/0906 7000 -SHSN BKN010
                      PROB30 TEMPO 0800/0810 4000 BR BKN004=
201001071704 TAF EGLL 071704Z 0718/0824 32008KT 9999 FEW010 SCT025
                      TEMPO 0718/0821 7000 -SHSN BKN010
                      BECMG 0721/0724 03010KT
                      PROB30 TEMPO 0721/0724 4000 SHSN BKN007
                      PROB30 TEMPO 0800/0812 2000 -SN BR BKN004=
201001071058 TAF EGLL 071058Z 0712/0818 33008KT 9999 FEW010 SCT030
                      TEMPO 0712/0818 5000 -SHSN BKN010
                      PROB40 TEMPO 0712/0724 3000 SHSN BKN007
                      BECMG 0721/0724 03010KT
                      PROB40 TEMPO 0800/0812 2000 -SN BR BKN004=
201001070502 TAF EGLL 070502Z 0706/0812 33008KT 9999 SCT035
                      PROB30 0706/0710 7000
                      TEMPO 0711/0808 3000 SHSN BKN008
                      BECMG 0721/0724 03010KT
                      PROB30 TEMPO 0800/0808 BKN004=
201001062302 TAF EGLL 062302Z 0700/0806 33008KT 9999 SCT035
                      PROB30 0702/0710 7000
                      TEMPO 0712/0806 3000 SHSN BKN008
                      BECMG 0721/0724 03010KT=
201001061704 TAF EGLL 061704Z 0618/0724 34009KT 9999 FEW035
                      PROB30 0702/0710 7000
                      TEMPO 0712/0724 3000 SHSN BKN008=
201001061100 TAF EGLL 061100Z 0612/0718 05010KT 8000 -SN SCT009 BKN015
                      TEMPO 0612/0619 2000 SN BKN009
                      PROB30 TEMPO 0612/0618 0800 +SN BKN003
                      TEMPO 0616/0621 03015G25KT
                      BECMG 0621/0624 34009KT 9999 NSW
                      PROB30 0702/0710 7000
                      TEMPO 0714/0718 5000 SHSN BKN010=
201001060500 TAF EGLL 060500Z 0606/0712 11006KT 6000 -SN BKN020
                      PROB40 0606/0619 2000 BKN010
                      PROB30 TEMPO 0606/0618 0800 SN BKN003
                      BECMG 0610/0613 04012KT
                      BECMG 0615/0618 03015G25KT
                      BECMG 0621/0624 36012KT 9999 NSW=
201001060201 TAF AMD EGLL 060201Z 0602/0706 11006KT 5000 -SN BKN016
                      TEMPO 0602/0619 0800 SN BKN004
                      PROB40 0609/0621 7000 NSW BKN016
                      BECMG 0610/0613 04012KT
                      BECMG 0615/0618 03015G25KT
                      BECMG 0621/0624 36012KT 9999 NSW FEW030=
201001052300 TAF AMD EGLL 060201Z 0602/0706 11006KT 5000 -SN BKN016
                      TEMPO 0602/0619 0800 SN BKN004
                      PROB40 0609/0621 7000 NSW BKN016
                      BECMG 0610/0613 04012KT
                      BECMG 0615/0618 03015G25KT
                      BECMG 0621/0624 36012KT 9999 NSW FEW030=
201001052126 TAF AMD EGLL 052126Z 0521/0624 10004KT 5000 -SN BKN012
                      TEMPO 0521/0617 0400 +SN BKN001
                      BECMG 0614/0617 04010KT
                      PROB40 0618/0624 9999 NSW FEW040=
201001051658 TAF EGLL 051658Z 0518/0624 10004KT 9999 SCT020
                      PROB30 0518/0519 4000 -SN BKN014
                      BECMG 0519/0522 4000 -SN BR BKN008
                      TEMPO 0520/0617 0800 SN BKN003
                      BECMG 0614/0617 04010KT
                      PROB40 0618/0624 9999 NSW FEW040=
201001051105 TAF EGLL 051105Z 0512/0618 VRB03KT 9999 FEW040
                      PROB30 TEMPO 0512/0520 4000 -SHSN BKN014
                       BECMG 0520/0523 5000 -SN BR BKN010
                      TEMPO 0522/0613 1000 SHSN BKN003
                      BECMG 0507/0510 05010KT
                      PROB40 0613/0618 BKN004
                      PROB30 0613/0618 SCT009=
201001050500 TAF EGLL 050500Z 0506/0612 VRB03KT 8000 FEW040
                      BECMG 0506/0509 9999
                      PROB30 TEMPO 0511/0524 4000 -SHSN BKN014
                       BECMG 0600/0603 04010KT
                      PROB40 0600/0606 1200 SN BKN003
                      PROB40 TEMPO 0606/0612 2000 SHSN BKN006=
201001042259 TAF EGLL 042259Z 0500/0606 27010KT 7000 FEW040
                      PROB30 0500/0507 9999
                      BECMG 0507/0510 9999
                      PROB30 TEMPO 0511/0524 4000 -SHSN BKN014
                       BECMG 0514/0517 16010KT
                      BECMG 0600/0603 04007KT
                      PROB40 0602/0606 1200 SN BR BKN003=
201001042057 TAF AMD EGLL 042057Z 0420/0524 27003KT 7000 NSC
                      BECMG 0501/0504 CAVOK
                      PROB40 TEMPO 0510/0518 25010KT 4000 -SN BKN006
                       PROB40
                      TEMPO 0518/0524 1500 SN BR BKN003
                      BECMG 0520/0523 16010KT=
201001041824 TAF AMD EGLL 041824Z 0418/0524 27003KT 9999 FEW040
                      TEMPO 0418/0510 6000
                      PROB40 TEMPO 0510/0518 25010KT 4000 -SN BKN006
                       PROB40
                      TEMPO 0518/0524 1500 SN BR BKN003
                      BECMG 0520/0523 16010KT=
201001041705 TAF EGLL 041705Z 0418/0524 27003KT 9999 FEW040
                      PROB40 0503/0509 7000
                      PROB40 TEMPO 0510/0518 25010KT 4000 -SN BKN006
                       PROB40
                      TEMPO 0518/0524 1500 SN BR BKN003
                      BECMG 0520/0523 16010KT=
201001041059 TAF EGLL 041059Z 0412/0518 32004KT 9999 FEW040
                      BECMG 0503/0506 7000
                      BECMG 0509/0512 25010KT 4000 -RASN -DZ BKN004
                       PROB40
                      TEMPO 0510/0518 1400 SN BKN001
                      TEMPO 0512/0518 5000 BR BKN006
                      BECMG 0514/0517 32003KT=
201001040454 TAF EGLL 040454Z 0406/0512 28004KT 7000 FEW030
                      PROB30 0406/0409 4000 BR BKN012
                      BECMG 0408/0411 9999
                      BECMG 0509/0512 6000 -RASN BKN004
                      PROB40 0510/0512 2000 SN BKN001=
201001032301 TAF EGLL 032301Z 0400/0506 35004KT 9999 FEW030
                      PROB30 0402/0409 5000 BR BKN012=
201001031658 TAF EGLL 031658Z 0318/0424 04010KT 9999 FEW030
                      BECMG 0402/0405 34006KT
                      PROB30 0402/0409 5000 BR BKN012=
201001031058 TAF EGLL 031058Z 0312/0418 06008KT 9999 FEW030
                      PROB30 0402/0409 5000 BR BKN010=
201001030505 TAF EGLL 030505Z 0306/0412 03006KT 9999 FEW018 SCT030
                      PROB30 0306/0309 8000
                      BECMG 0400/0403 6000
                      PROB40 0402/0410 4000 BR BKN004=
201001022258 TAF EGLL 022258Z 0300/0406 26010KT 9999 SCT010 BKN022
                      BECMG 0300/0303 03007KT
                      TEMPO 0300/0305 4000 -SN BR BKN009
                      PROB40 TEMPO 0300/0305 BKN004
                      BECMG 0305/0308 CAVOK
                      PROB40 0402/0406 4000 BR BKN004=
201001021658 TAF EGLL 021658Z 0218/0324 25010KT CAVOK
                      BECMG 0222/0224 BKN012
                      PROB40 0301/0306 4000 -SN BR BKN008
                      BECMG 0301/0304 04008KT
                      BECMG 0304/0307 FEW030=
201001021101 TAF EGLL 021101Z 0212/0318 28010KT 9999 SCT035
                      PROB30 0223/0309 4000 -SN BR BKN010
                      BECMG 0303/0306 04008KT=
201001020503 TAF EGLL 020503Z 0206/0312 28006KT 9999 SCT030
                      PROB40 TEMPO 0206/0208 BKN012
                      PROB40 TEMPO 0300/0310 4000 -SHSN BKN008
                       BECMG 0303/0306 05010KT=
201001012303 TAF EGLL 012303Z 0200/0306 27007KT 9999 FEW030
                      PROB40 TEMPO 0200/0208 4000 -SHSN BKN012
                       PROB30 0208/0210 2000 BR
                      PROB40 TEMPO 0300/0306 3000 SHSN BKN007
                      BECMG 0303/0306 05010KT=
201001011700 TAF EGLL 011700Z 0118/0224 29007KT 9999 FEW022
                      PROB30 TEMPO 0118/0121 8000 -SHSN
                      TEMPO 0200/0209 4000 -SN BKN012
                      PROB30 TEMPO 0202/0209 BKN005
                      PROB40 TEMPO 0218/0224 3500 -SHSN BKN008=
201001011055 TAF EGLL 011055Z 0112/0218 35010KT 9999 FEW022
                      BECMG 0113/0116 28005KT
                      PROB30 TEMPO 0118/0121 8000 -SHSN
                      TEMPO 0200/0209 4000 -SN BKN012
                      PROB30 TEMPO 0202/0209 BKN005=
201001010500 TAF EGLL 010500Z 0106/0212 35007KT 9999 FEW040
                      PROB30 0106/0109 8000 -SHSN BKN014
                      PROB40 0117/0209 6000
                      PROB30 TEMPO 0203/0208 -SHSN BKN014=
