##########################################################
# Query made at 01/13/2020 12:12:55 UTC
# Time interval: from 01/01/2016 00:00  to 01/31/2016 23:59  UTC
##########################################################

##########################################################
# EGLL, London / Heathrow Airport (United Kingdom)
# WMO index: 03772
# Latitude 51-29N. Longitude 000-27W. Altitude 24 m.
##########################################################

###################################
#  METAR/SPECI from EGLL
###################################
201601312350 METAR COR EGLL 312350Z AUTO 26012KT 9000 OVC016 13/10 Q1013
                        TEMPO OVC014=
201601312320 METAR COR EGLL 312320Z AUTO 25014KT 9000 OVC015 13/09 Q1013
                        TEMPO OVC014=
201601312250 METAR COR EGLL 312250Z AUTO 26016KT 9999 OVC016 13/09 Q1013
                        TEMPO OVC014=
201601312220 METAR COR EGLL 312220Z AUTO 26019KT 9999 OVC015 13/10 Q1012
                        TEMPO OVC014=
201601312150 METAR COR EGLL 312150Z AUTO 26020KT 9999 OVC014 13/10 Q1012
                        TEMPO OVC015=
201601312120 METAR COR EGLL 312120Z AUTO 25017KT 9999 OVC014 13/10 Q1011
                        TEMPO OVC015=
201601312050 METAR COR EGLL 312050Z AUTO 25018G29KT 9999 OVC014 13/10
                        Q1011 TEMPO OVC015=
201601312020 METAR COR EGLL 312020Z AUTO 25017KT 9999 OVC015 13/10 Q1010
                        TEMPO OVC014=
201601311950 METAR COR EGLL 311950Z AUTO 26019KT 9999 BKN014 13/10 Q1010
                        TEMPO BKN015=
201601311920 METAR COR EGLL 311920Z AUTO 26019G30KT 9999 OVC014 13/10
                        Q1010 TEMPO OVC015=
201601311850 METAR COR EGLL 311850Z AUTO 26021KT 9999 OVC013 13/10 Q1010
                        NOSIG=
201601311820 METAR COR EGLL 311820Z AUTO 26019KT 9999 OVC015 13/10 Q1009
                        TEMPO BKN013=
201601311750 METAR COR EGLL 311750Z AUTO 26018KT 9999 OVC015 13/10 Q1009
                        TEMPO BKN014=
201601311720 METAR COR EGLL 311720Z AUTO 25016KT 9999 OVC015 13/10 Q1008
                        TEMPO BKN014=
201601311650 METAR EGLL 311650Z AUTO 26016KT 9999 OVC015 13/10 Q1008=
201601311620 METAR COR EGLL 311620Z AUTO 26017KT 9999 OVC014 13/10 Q1007
                        NOSIG=
201601311550 METAR COR EGLL 311550Z AUTO 26019KT 9999 OVC013 13/10 Q1007
                        NOSIG=
201601311520 METAR COR EGLL 311520Z AUTO 25016KT 9999 OVC014 14/10 Q1006
                        NOSIG=
201601311450 METAR COR EGLL 311450Z AUTO 26017KT 9999 BKN016 13/10 Q1006
                        TEMPO BKN012=
201601311420 METAR COR EGLL 311420Z AUTO 26016KT 9999 BKN016 13/10 Q1006
                        TEMPO BKN014=
201601311350 METAR COR EGLL 311350Z AUTO 25014KT 9999 BKN014 14/11 Q1005
                        NOSIG=
201601311320 METAR COR EGLL 311320Z AUTO 25017KT 9999 SCT011 BKN047 13/11
                        Q1006 TEMPO BKN012=
201601311250 METAR COR EGLL 311250Z AUTO 25016KT 9999 OVC009 12/10 Q1005
                        TEMPO BKN010=
201601311220 METAR COR EGLL 311220Z AUTO 24011KT 9999 OVC006 10/09 Q1005
                        NOSIG=
201601311150 METAR COR EGLL 311150Z AUTO 22012KT 9999 -RA BKN003 OVC011
                        09/08 Q1005 BECMG BKN006=
201601311120 METAR COR EGLL 311120Z AUTO 21012KT 3800 HZ BKN003 09/08
                        Q1005 BECMG BKN005=
201601311050 METAR EGLL 311050Z AUTO 18010KT 140V220 5000 -RADZ OVC002
                        08/07 Q1006=
201601311020 METAR EGLL 311020Z AUTO 17008KT 4000 -RADZ OVC002 07/06 Q1006
                        REDZ=
201601310950 METAR COR EGLL 310950Z AUTO 16006KT 120V210 2700 DZ BKN003
                        OVC011 07/06 Q1007 TEMPO BKN005=
201601310920 METAR COR EGLL 310920Z AUTO 18008KT 150V210 3800 -RADZ FEW005
                        BKN010 OVC024 06/05 Q1008 BECMG BKN008=
201601310850 METAR COR EGLL 310850Z AUTO 18008KT 150V220 3800 -RADZ BKN013
                        OVC026 06/05 Q1008 TEMPO BKN008=
201601310820 METAR COR EGLL 310820Z AUTO 19007KT 140V230 7000 -RA BKN017
                        OVC033 06/04 Q1008 TEMPO BKN014=
201601310750 METAR COR EGLL 310750Z AUTO 20007KT 9999 -RA BKN027 06/04
                        Q1009 NOSIG=
201601310720 METAR COR EGLL 310720Z AUTO VRB07KT 9999 BKN041 06/03 Q1009
                        NOSIG=
201601310650 METAR COR EGLL 310650Z AUTO 20007KT 160V230 9999 -RA SCT040
                        06/03 Q1009 NOSIG=
201601310620 METAR COR EGLL 310620Z AUTO 20007KT 170V250 9999 SCT044 05/03
                        Q1009 NOSIG=
201601310550 METAR COR EGLL 310550Z AUTO 20005KT 9999 FEW048 05/03 Q1009
                        NOSIG=
201601310520 METAR COR EGLL 310520Z AUTO 21007KT 9999 NCD 05/03 Q1009
                        NOSIG=
201601310450 METAR COR EGLL 310450Z AUTO 21006KT 9999 NCD 05/02 Q1010
                        NOSIG=
201601310420 METAR COR EGLL 310420Z AUTO 21006KT 9999 FEW047 05/02 Q1010
                        NOSIG=
201601310350 METAR COR EGLL 310350Z AUTO 22006KT 9999 FEW036 05/02 Q1011
                        NOSIG=
201601310320 METAR COR EGLL 310320Z AUTO 22005KT 9999 BKN037 05/02 Q1011
                        NOSIG=
201601310250 METAR COR EGLL 310250Z AUTO 24006KT 9999 NCD 05/01 Q1012
                        NOSIG=
201601310220 METAR COR EGLL 310220Z AUTO 23004KT 9999 NCD 04/01 Q1012
                        NOSIG=
201601310150 METAR COR EGLL 310150Z AUTO 24005KT 9999 NCD 04/01 Q1012
                        NOSIG=
201601310120 METAR COR EGLL 310120Z AUTO 22006KT 9999 NCD 04/01 Q1012
                        NOSIG=
201601310050 METAR COR EGLL 310050Z AUTO 22006KT 9999 NCD 04/01 Q1012
                        NOSIG=
201601310020 METAR COR EGLL 310020Z AUTO 21006KT 9999 NCD 04/01 Q1012
                        NOSIG=
201601302350 METAR COR EGLL 302350Z AUTO 23008KT 9999 NCD 04/01 Q1012
                        NOSIG=
201601302320 METAR COR EGLL 302320Z AUTO 23009KT 9999 NCD 05/01 Q1012
                        NOSIG=
201601302250 METAR COR EGLL 302250Z AUTO 25011KT 9999 NCD 05/01 Q1012
                        NOSIG=
201601302220 METAR COR EGLL 302220Z AUTO 25011KT 9999 NCD 06/01 Q1012
                        NOSIG=
201601302150 METAR COR EGLL 302150Z AUTO 25011KT 9999 NCD 06/01 Q1012
                        NOSIG=
201601302120 METAR COR EGLL 302120Z AUTO 25013KT 9999 NCD 06/01 Q1012
                        NOSIG=
201601302050 METAR COR EGLL 302050Z AUTO 25012KT 9999 NCD 06/01 Q1012
                        NOSIG=
201601302020 METAR COR EGLL 302020Z AUTO 25012KT 9999 NCD 05/01 Q1012
                        NOSIG=
201601301950 METAR EGLL 301950Z AUTO 24012KT 9999 NCD 05/01 Q1012=
201601301920 METAR COR EGLL 301920Z AUTO 24013KT 9999 NCD 06/00 Q1012
                        NOSIG=
201601301850 METAR COR EGLL 301850Z AUTO 24012KT 9999 NCD 06/M00 Q1012
                        NOSIG=
201601301820 METAR COR EGLL 301820Z AUTO 25013KT 9999 NCD 06/M01 Q1011
                        NOSIG=
201601301750 METAR COR EGLL 301750Z AUTO 25014KT 9999 SCT042 06/M02 Q1011
                        NOSIG=
201601301720 METAR COR EGLL 301720Z AUTO 26013KT 9999 BKN043 07/M02 Q1011
                        NOSIG=
201601301650 METAR EGLL 301650Z AUTO 27013KT 9999 -RA BKN045 07/M01 Q1011=
201601301620 METAR EGLL 301620Z AUTO 27016KT 9999 NCD 06/M01 Q1011=
201601301550 METAR EGLL 301550Z AUTO 27013KT 9999 NCD 07/M02 Q1010=
201601301520 METAR EGLL 301520Z AUTO 27016KT 9999 NCD 07/M02 Q1010=
201601301450 METAR EGLL 301450Z AUTO 27017KT 9999 NCD 07/M02 Q1010=
201601301420 METAR COR EGLL 301420Z AUTO 27016KT 9999 NCD 08/M02 Q1009
                        NOSIG=
201601301350 METAR COR EGLL 301350Z AUTO 28016KT 9999 FEW047 07/M02 Q1009
                        NOSIG=
201601301320 METAR COR EGLL 301320Z AUTO 28015KT 9999 FEW046 07/M02 Q1009
                        NOSIG=
201601301250 METAR COR EGLL 301250Z AUTO 29015KT 9999 FEW040 07/M01 Q1009
                        NOSIG=
201601301220 METAR COR EGLL 301220Z AUTO 29011G21KT 9999 SCT033 SCT049
                        07/M02 Q1010 NOSIG=
201601301150 METAR COR EGLL 301150Z AUTO 30013KT 270V340 9999 SCT032 07/00
                        Q1009 NOSIG=
201601301120 METAR COR EGLL 301120Z AUTO 28015KT 9999 FEW030 07/02 Q1010
                        NOSIG=
201601301050 METAR COR EGLL 301050Z AUTO 27016KT 9999 SCT030 BKN046 07/02
                        Q1010 NOSIG=
201601301020 METAR COR EGLL 301020Z AUTO 27014KT 9999 SCT026 07/03 Q1009
                        NOSIG=
201601300950 METAR COR EGLL 300950Z AUTO 25012KT 9999 NCD 08/04 Q1009
                        NOSIG=
201601300920 METAR COR EGLL 300920Z AUTO 25013KT 9999 FEW025 08/04 Q1009
                        NOSIG=
201601300850 METAR COR EGLL 300850Z AUTO 25011KT 9999 FEW024 08/04 Q1008
                        NOSIG=
201601300820 METAR COR EGLL 300820Z AUTO 26013KT 9999 SCT038 08/04 Q1009
                        NOSIG=
201601300750 METAR COR EGLL 300750Z AUTO 25012KT 9999 FEW027 09/05 Q1009
                        NOSIG=
201601300720 METAR COR EGLL 300720Z AUTO 24012KT 9999 NCD 08/05 Q1008
                        NOSIG=
201601300650 METAR COR EGLL 300650Z AUTO 26014KT 9999 NCD 08/05 Q1008
                        NOSIG=
201601300620 METAR COR EGLL 300620Z AUTO 26013KT 9999 BKN040 08/05 Q1008
                        NOSIG=
201601300550 METAR COR EGLL 300550Z AUTO 26018KT 9000 -RA SCT014 OVC029
                        08/06 Q1008 RERA REDZ NOSIG=
201601300520 METAR COR EGLL 300520Z AUTO 25012KT 9999 -RA BKN017 OVC027
                        09/07 Q1008 TEMPO BKN014=
201601300450 METAR COR EGLL 300450Z AUTO 24011KT 9999 SCT033 09/06 Q1008
                        NOSIG=
201601300420 METAR COR EGLL 300420Z AUTO 25011KT 9999 NCD 09/07 Q1008
                        NOSIG=
201601300350 METAR COR EGLL 300350Z AUTO 25012KT 9999 -RA SCT040 09/07
                        Q1008 TEMPO BKN014=
201601300320 METAR COR EGLL 300320Z AUTO 26017KT 9999 -RA BKN016/// OVC029///
                        //////CB 10/08 Q1009 TEMPO BKN013=
201601300250 METAR COR EGLL 300250Z AUTO 26019KT 9999 -RA BKN012/// BKN025///
                        OVC042/// //////CB 11/09 Q1008 RERA
                        TEMPO SCT012=
201601300220 METAR COR EGLL 300220Z AUTO 22019KT 9999 -RA BKN010/// OVC047///
                        //////CB 11/10 Q1008 TEMPO 4000 +RA
                        BKN007=
201601300150 METAR COR EGLL 300150Z AUTO 22017KT 9999 -RA BKN010 11/10
                        Q1008 TEMPO 4500 RA BKN008=
201601300120 METAR COR EGLL 300120Z AUTO 22016KT 9999 -RA OVC010 11/10
                        Q1009 NOSIG=
201601300050 METAR COR EGLL 300050Z AUTO 22017KT 9999 -RA BKN008 11/09
                        Q1010 NOSIG=
201601300020 METAR COR EGLL 300020Z AUTO 22018KT 7000 -RA BKN008/// OVC021///
                        11/09 Q1010 NOSIG=
201601292350 METAR COR EGLL 292350Z AUTO 22019KT 5000 -RADZ BKN008 OVC021
                        11/09 Q1011 TEMPO 4000 RADZ=
201601292320 METAR COR EGLL 292320Z AUTO 22018KT 9000 -RA BKN011 OVC023
                        11/09 Q1011 TEMPO RA BKN009=
201601292250 METAR COR EGLL 292250Z AUTO 22017G28KT 9999 -RA BKN010 OVC022
                        11/09 Q1012 TEMPO RA BKN008=
201601292220 METAR COR EGLL 292220Z AUTO 22019KT 9999 -RA BKN011 11/10
                        Q1012 TEMPO RA BKN009=
201601292150 METAR COR EGLL 292150Z AUTO 22018G28KT 9999 -RA OVC011 11/09
                        Q1013 TEMPO RA BKN009=
201601292120 METAR EGLL 292120Z AUTO 22016G27KT 9999 -RA OVC008 11/10
                        Q1013=
201601292050 METAR EGLL 292050Z AUTO 22014KT 7000 -RA OVC008 11/10 Q1014=
201601292020 METAR COR EGLL 292020Z AUTO 22018G30KT 8000 OVC011 11/09
                        Q1014 NOSIG=
201601291950 METAR COR EGLL 291950Z AUTO 22017KT 9999 BKN011 11/09 Q1015
                        NOSIG=
201601291920 METAR COR EGLL 291920Z AUTO 23020KT 9999 BKN013 12/09 Q1015
                        TEMPO SCT012 BKN015=
201601291850 METAR COR EGLL 291850Z AUTO 23019KT 9999 OVC013 12/09 Q1015
                        TEMPO SCT013 BKN015=
201601291820 METAR COR EGLL 291820Z AUTO 23018KT 9999 BKN015 12/09 Q1015
                        TEMPO -RA BKN012=
201601291750 METAR COR EGLL 291750Z AUTO 24018KT 9999 OVC015 12/09 Q1016
                        TEMPO -RA BKN012=
201601291720 METAR COR EGLL 291720Z AUTO 23018KT 9999 OVC016 12/09 Q1016
                        TEMPO BKN014=
201601291650 METAR COR EGLL 291650Z AUTO 23016KT 9999 OVC016 12/09 Q1016
                        TEMPO BKN014=
201601291620 METAR COR EGLL 291620Z AUTO 24018KT 9999 BKN015 12/09 Q1016
                        TEMPO BKN012=
201601291550 METAR COR EGLL 291550Z AUTO 23017KT 9999 OVC017 12/09 Q1016
                        TEMPO BKN014=
201601291520 METAR COR EGLL 291520Z AUTO 23016G26KT 9999 OVC017 12/09
                        Q1016 TEMPO BKN014=
201601291450 METAR COR EGLL 291450Z AUTO 22017KT 9999 BKN014 OVC028 12/09
                        Q1017 TEMPO BKN016=
201601291420 METAR COR EGLL 291420Z AUTO 23018KT 9999 BKN014 OVC029 12/09
                        Q1017 TEMPO SCT014=
201601291350 METAR COR EGLL 291350Z AUTO 24019KT 8000 -RA BKN014 12/09
                        Q1017 TEMPO NSW SCT014=
201601291320 METAR COR EGLL 291320Z AUTO 23022G33KT 9999 BKN018 12/08
                        Q1017 TEMPO -RA BKN014=
201601291250 METAR COR EGLL 291250Z AUTO 23020KT 9999 OVC017 12/08 Q1017
                        TEMPO BKN014=
201601291220 METAR COR EGLL 291220Z AUTO 23022KT 9999 OVC020 12/08 Q1017
                        TEMPO BKN014=
201601291150 METAR COR EGLL 291150Z AUTO 24021KT 9999 OVC021 12/08 Q1017
                        TEMPO BKN014=
201601291120 METAR COR EGLL 291120Z AUTO 23020G31KT 9999 OVC022 12/07
                        Q1017 TEMPO BKN014=
201601291050 METAR EGLL 291050Z AUTO 23023KT 9999 BKN021 12/07 Q1018=
201601291020 METAR COR EGLL 291020Z AUTO 23022G33KT 9999 SCT019 OVC034
                        12/07 Q1017 TEMPO -RA BKN014=
201601290950 METAR COR EGLL 290950Z AUTO 23022KT 9999 FEW020 BKN043 12/07
                        Q1017 NOSIG=
201601290920 METAR COR EGLL 290920Z AUTO 23022KT 9999 SCT018 BKN036 11/08
                        Q1018 NOSIG=
201601290850 METAR COR EGLL 290850Z AUTO 24021KT 9999 BKN018 BKN034 11/07
                        Q1018 NOSIG=
201601290820 METAR COR EGLL 290820Z AUTO 24020KT 9999 BKN020 11/07 Q1018
                        NOSIG=
201601290750 METAR COR EGLL 290750Z AUTO 23020KT 9999 BKN020 11/07 Q1018
                        TEMPO BKN012=
201601290720 METAR COR EGLL 290720Z AUTO 24021KT 9999 BKN021 12/07 Q1018
                        TEMPO BKN014=
201601290650 METAR COR EGLL 290650Z AUTO 24018G28KT 9999 OVC016 11/08
                        Q1018 TEMPO BKN014=
201601290620 METAR COR EGLL 290620Z AUTO 24019KT 9999 BKN012 OVC024 11/08
                        Q1019 NOSIG=
201601290550 METAR COR EGLL 290550Z AUTO 24019KT 9999 OVC014 11/08 Q1019
                        TEMPO SCT014 BKN016=
201601290520 METAR COR EGLL 290520Z AUTO 24017KT 9999 BKN009 11/08 Q1019
                        BECMG BKN012=
201601290450 METAR COR EGLL 290450Z AUTO 23018KT 6000 BKN008 10/09 Q1019
                        BECMG BKN012=
201601290420 METAR COR EGLL 290420Z AUTO 23016KT 9999 BKN010 10/09 Q1019
                        NOSIG=
201601290350 METAR COR EGLL 290350Z AUTO 23016KT 9999 BKN012 11/08 Q1020
                        TEMPO SCT014 BKN016=
201601290320 METAR COR EGLL 290320Z AUTO 23016KT 9999 OVC015 11/08 Q1020
                        TEMPO BKN014=
201601290250 METAR COR EGLL 290250Z AUTO 23017KT 9999 BKN016 10/08 Q1020
                        TEMPO BKN014=
201601290220 METAR COR EGLL 290220Z AUTO 23016KT 9999 BKN015 10/08 Q1020
                        TEMPO BKN014=
201601290050 METAR COR EGLL 290050Z AUTO 23018KT 9999 FEW014 SCT023 BKN049
                        09/07 Q1021 NOSIG=
201601290020 METAR COR EGLL 290020Z AUTO 23017KT 9999 BKN013 09/07 Q1021
                        NOSIG=
201601282320 METAR COR EGLL 282320Z AUTO 23017KT 9999 BKN016 09/06 Q1021
                        TEMPO BKN014=
201601282250 METAR COR EGLL 282250Z AUTO 23019KT 9999 BKN019 09/06 Q1021
                        TEMPO BKN014=
201601282220 METAR COR EGLL 282220Z AUTO 23019G29KT 9999 OVC022 10/05
                        Q1022 NOSIG=
201601282150 METAR COR EGLL 282150Z AUTO 22019KT 9999 OVC024 09/05 Q1022
                        NOSIG=
201601282120 METAR COR EGLL 282120Z AUTO 22017KT 9999 BKN026 09/05 Q1022
                        NOSIG=
201601282050 METAR COR EGLL 282050Z AUTO 22016KT 9999 BKN036 08/04 Q1022
                        NOSIG=
201601282020 METAR COR EGLL 282020Z AUTO 22014KT 9999 BKN046 08/04 Q1023
                        NOSIG=
201601281950 METAR COR EGLL 281950Z AUTO 23015KT 9999 NCD 08/03 Q1023
                        NOSIG=
201601281920 METAR COR EGLL 281920Z AUTO 22014KT 9999 NCD 08/03 Q1023
                        NOSIG=
201601281850 METAR COR EGLL 281850Z AUTO 22012KT 9999 NCD 08/03 Q1023
                        NOSIG=
201601281820 METAR COR EGLL 281820Z AUTO 22012KT 9999 NCD 08/03 Q1024
                        NOSIG=
201601281750 METAR COR EGLL 281750Z AUTO 22011KT 9999 NCD 08/02 Q1024
                        NOSIG=
201601281720 METAR COR EGLL 281720Z AUTO 22011KT 9999 NCD 08/02 Q1024
                        NOSIG=
201601281650 METAR COR EGLL 281650Z AUTO 23012KT 9999 NCD 08/02 Q1024
                        NOSIG=
201601281620 METAR COR EGLL 281620Z AUTO 22011KT 9999 SCT036 09/02 Q1024
                        NOSIG=
201601281550 METAR COR EGLL 281550Z AUTO 23015KT 9999 NCD 09/01 Q1024
                        NOSIG=
201601281520 METAR COR EGLL 281520Z AUTO 23013KT 9999 FEW037 09/02 Q1024
                        NOSIG=
201601281450 METAR COR EGLL 281450Z AUTO 23013KT 9999 SCT034 09/02 Q1024
                        NOSIG=
201601281420 METAR COR EGLL 281420Z AUTO 23014KT 9999 FEW034 10/02 Q1024
                        NOSIG=
201601281350 METAR COR EGLL 281350Z AUTO 24016KT 9999 FEW034 10/02 Q1024
                        NOSIG=
201601281320 METAR EGLL 281320Z AUTO 23014KT 9999 NCD 09/02 Q1025=
201601281250 METAR COR EGLL 281250Z AUTO 24013KT 9999 NCD 09/01 Q1025
                        NOSIG=
201601281220 METAR COR EGLL 281220Z AUTO 23012KT 9999 NCD 09/02 Q1025
                        NOSIG=
201601281150 METAR COR EGLL 281150Z AUTO 22012KT 9999 NCD 08/02 Q1025
                        NOSIG=
201601281120 METAR COR EGLL 281120Z AUTO 22011KT 9999 NCD 07/02 Q1026
                        NOSIG=
201601281050 METAR COR EGLL 281050Z AUTO 22010KT 9999 NCD 07/02 Q1026
                        NOSIG=
201601281020 METAR COR EGLL 281020Z AUTO 22008G18KT 9999 NCD 06/02 Q1026
                        NOSIG=
201601280950 METAR COR EGLL 280950Z AUTO 21006KT 170V250 9999 NCD 05/01
                        Q1025 NOSIG=
201601280920 METAR COR EGLL 280920Z AUTO 23006KT 9999 NCD 03/01 Q1025
                        NOSIG=
201601280850 METAR COR EGLL 280850Z AUTO 22006KT 180V250 9999 NCD 02/00
                        Q1025 NOSIG=
201601280820 METAR COR EGLL 280820Z AUTO 22005KT 9999 NCD 02/00 Q1025
                        NOSIG=
201601280750 METAR COR EGLL 280750Z AUTO 21006KT 180V240 9999 NCD 02/00
                        Q1025 NOSIG=
201601280720 METAR COR EGLL 280720Z AUTO 22008KT 9999 NCD 03/00 Q1024
                        NOSIG=
201601280650 METAR COR EGLL 280650Z AUTO 20007KT 9999 NCD 02/00 Q1024
                        NOSIG=
201601280620 METAR COR EGLL 280620Z AUTO 21005KT 170V240 9999 NCD 03/00
                        Q1024 NOSIG=
201601280550 METAR COR EGLL 280550Z AUTO 23003KT 9999 NCD 03/00 Q1023
                        NOSIG=
201601280520 METAR COR EGLL 280520Z AUTO 25006KT 9999 NCD 04/01 Q1023
                        NOSIG=
201601280450 METAR COR EGLL 280450Z AUTO 25005KT 9999 NCD 04/01 Q1022
                        NOSIG=
201601280420 METAR COR EGLL 280420Z AUTO 25006KT 9999 NCD 04/01 Q1022
                        NOSIG=
201601280350 METAR COR EGLL 280350Z AUTO 25007KT 9999 NCD 04/01 Q1021
                        NOSIG=
201601280320 METAR COR EGLL 280320Z AUTO 25007KT 9999 NCD 05/01 Q1021
                        NOSIG=
201601280250 METAR COR EGLL 280250Z AUTO 27007KT 9999 NCD 04/01 Q1020
                        NOSIG=
201601280220 METAR COR EGLL 280220Z AUTO 27007KT 9999 NCD 04/02 Q1020
                        NOSIG=
201601280150 METAR EGLL 280150Z AUTO 27007KT 9999 NCD 04/02 Q1019=
201601280120 METAR COR EGLL 280120Z AUTO 27009KT 9999 NCD 04/02 Q1019
                        NOSIG=
201601280050 METAR COR EGLL 280050Z AUTO 28010KT 9999 NCD 05/02 Q1018
                        NOSIG=
201601280020 METAR COR EGLL 280020Z AUTO 28008KT 9999 NCD 06/03 Q1018
                        NOSIG=
201601272350 METAR COR EGLL 272350Z AUTO 27012KT 9999 FEW029 07/03 Q1017
                        NOSIG=
201601272320 METAR COR EGLL 272320Z AUTO 27012KT 9999 FEW039 07/03 Q1016
                        NOSIG=
201601272250 METAR COR EGLL 272250Z AUTO 27014KT 9999 NCD 08/04 Q1015
                        NOSIG=
201601272220 METAR COR EGLL 272220Z AUTO 27015KT 9999 NCD 08/05 Q1014
                        NOSIG=
201601272150 METAR COR EGLL 272150Z AUTO 27012KT 9999 NCD 08/06 Q1014
                        NOSIG=
201601272120 METAR COR EGLL 272120Z AUTO 27014KT 9999 FEW023 09/06 Q1013
                        NOSIG=
201601272050 METAR COR EGLL 272050Z AUTO 27012KT 9999 NCD 09/05 Q1013
                        NOSIG=
201601272020 METAR COR EGLL 272020Z AUTO 27013KT 9999 FEW042 09/05 Q1012
                        NOSIG=
201601271950 METAR COR EGLL 271950Z AUTO 27014KT 9999 NCD 09/05 Q1011
                        NOSIG=
201601271920 METAR COR EGLL 271920Z AUTO 27011KT 9999 FEW031 10/06 Q1011
                        NOSIG=
201601271850 METAR COR EGLL 271850Z AUTO 27013KT 9999 FEW036 10/06 Q1010
                        NOSIG=
201601271820 METAR COR EGLL 271820Z AUTO 27013KT 9999 NCD 10/06 Q1009
                        NOSIG=
201601271750 METAR COR EGLL 271750Z AUTO 26014KT 9999 NCD 10/06 Q1009
                        NOSIG=
201601271720 METAR COR EGLL 271720Z AUTO 26015KT 9999 FEW032/// //////TCU
                        11/07 Q1008 NOSIG=
201601271650 METAR COR EGLL 271650Z AUTO 26022KT 9999 SCT015 BKN029 12/09
                        Q1007 NOSIG=
201601271620 METAR COR EGLL 271620Z AUTO 24013KT 9999 SCT011 13/11 Q1007
                        RERA NOSIG=
201601271550 METAR COR EGLL 271550Z AUTO 23016G26KT 2300 +RA BKN007///
                        //////CB 12/11 Q1006 BECMG AT1600
                        9999 NSW SCT018=
201601271520 METAR COR EGLL 271520Z AUTO 23017KT 9999 -RA BKN010 13/11
                        Q1006 TEMPO SCT012=
201601271450 METAR COR EGLL 271450Z AUTO 23016KT 9999 BKN011 13/11 Q1006
                        TEMPO SCT012=
201601271420 METAR COR EGLL 271420Z AUTO 22016KT 9999 -RA BKN008 13/11
                        Q1005 TEMPO RA BKN012=
201601271350 METAR COR EGLL 271350Z AUTO 22016KT 9999 -RA BKN010/// //////TCU
                        13/11 Q1005 TEMPO RA BKN009=
201601271320 METAR COR EGLL 271320Z AUTO 22019KT 9999 -RA OVC010/// //////TCU
                        13/11 Q1006 TEMPO 4800 RA BKN009=
201601271250 METAR COR EGLL 271250Z AUTO 22019G29KT 9999 OVC012/// //////TCU
                        13/11 Q1006 TEMPO 4800 RA BKN009=
201601271220 METAR COR EGLL 271220Z AUTO 21020G30KT 9999 -RA OVC012///
                        //////TCU 13/11 Q1006 TEMPO 4800
                        RA BKN009=
201601271150 METAR COR EGLL 271150Z AUTO 22019KT 9999 -RA OVC012 13/11
                        Q1006 TEMPO BKN009=
201601271120 METAR COR EGLL 271120Z AUTO 22019KT 9999 -RA OVC012 13/11
                        Q1007 TEMPO BKN009=
201601271050 METAR COR EGLL 271050Z AUTO 22018KT 9999 OVC011 13/11 Q1007
                        TEMPO BKN009=
201601271020 METAR COR EGLL 271020Z AUTO 22017KT 9999 OVC012 13/11 Q1007
                        TEMPO BKN009=
201601270950 METAR COR EGLL 270950Z AUTO 22020G30KT 9999 OVC011 13/11
                        Q1007 TEMPO BKN009=
201601270920 METAR COR EGLL 270920Z AUTO 22021KT 9999 OVC010 13/11 Q1007
                        TEMPO BKN009=
201601270850 METAR COR EGLL 270850Z AUTO 22018G28KT 9999 OVC010 13/11
                        Q1007 TEMPO BKN009=
201601270820 METAR COR EGLL 270820Z AUTO 21017KT 9999 OVC011 12/10 Q1007
                        TEMPO BKN009=
201601270750 METAR COR EGLL 270750Z AUTO 22020KT 9999 OVC011 12/10 Q1007
                        TEMPO RADZ BKN009=
201601270720 METAR COR EGLL 270720Z AUTO 21020G31KT 9999 BKN011 12/10
                        Q1008 TEMPO BKN008=
201601270650 METAR COR EGLL 270650Z AUTO 22017G27KT 9999 OVC011 12/10
                        Q1008 BECMG BKN009=
201601270620 METAR COR EGLL 270620Z AUTO 22020KT 9999 -RA OVC012 12/10
                        Q1008 TEMPO BKN008=
201601270550 METAR COR EGLL 270550Z AUTO 23020KT 9999 -RA BKN012 12/10
                        Q1008 TEMPO BKN008=
201601270520 METAR COR EGLL 270520Z AUTO 22020KT 9999 -RA BKN011/// //////TCU
                        12/10 Q1008 TEMPO BKN008=
201601270450 METAR COR EGLL 270450Z AUTO 22021KT 9999 -RA BKN011 OVC042
                        12/10 Q1008 TEMPO BKN008=
201601270420 METAR COR EGLL 270420Z AUTO 22016KT 9999 -RA OVC012/// //////TCU
                        12/10 Q1008 TEMPO BKN008=
201601270350 METAR COR EGLL 270350Z AUTO 22018G29KT 9999 -RA OVC010 12/10
                        Q1009 TEMPO BKN008=
201601270320 METAR COR EGLL 270320Z AUTO 22020G33KT 9999 -RA OVC011 12/10
                        Q1009 TEMPO BKN008=
201601270250 METAR COR EGLL 270250Z AUTO 22018G29KT 9999 -RA BKN010///
                        //////TCU 12/10 Q1009 TEMPO BKN008=
201601270220 METAR COR EGLL 270220Z AUTO 22018KT 9999 -RA OVC010 12/10
                        Q1009 TEMPO BKN008=
201601270150 METAR COR EGLL 270150Z AUTO 22017KT 9999 -RA OVC010 12/10
                        Q1010 TEMPO BKN008=
201601270120 METAR COR EGLL 270120Z AUTO 21016KT 8000 -RA OVC008 11/10
                        Q1010 TEMPO BKN011=
201601270050 METAR COR EGLL 270050Z AUTO 21016KT 6000 -RA OVC008 11/10
                        Q1010 NOSIG=
201601270020 METAR COR EGLL 270020Z AUTO 21015KT 9999 -RA OVC008 11/10
                        Q1011 NOSIG=
201601262350 METAR COR EGLL 262350Z AUTO 21016KT 6000 -RA BKN007 11/10
                        Q1011 NOSIG=
201601262320 METAR COR EGLL 262320Z AUTO 21015KT 7000 -RA OVC007 11/10
                        Q1011 TEMPO BKN011=
201601262250 METAR COR EGLL 262250Z AUTO 21015KT 7000 -RA OVC007 11/10
                        Q1011 NOSIG=
201601262220 METAR COR EGLL 262220Z AUTO 22016KT 8000 -RA OVC009 11/10
                        Q1011 NOSIG=
201601262150 METAR COR EGLL 262150Z AUTO 22017G28KT 7000 OVC008 11/10
                        Q1011 TEMPO BKN010=
201601262120 METAR COR EGLL 262120Z AUTO 22017G27KT 7000 OVC008 11/10
                        Q1011 NOSIG=
201601262050 METAR COR EGLL 262050Z AUTO 22018KT 9000 -RA BKN009 11/10
                        Q1011 NOSIG=
201601262020 METAR COR EGLL 262020Z AUTO 22018KT 7000 -RA OVC009 11/10
                        Q1011 NOSIG=
201601261950 METAR COR EGLL 261950Z AUTO 22017KT 7000 -RA BKN009 11/10
                        Q1012 NOSIG=
201601261920 METAR COR EGLL 261920Z AUTO 22017KT 7000 OVC008 11/10 Q1012
                        NOSIG=
201601261850 METAR COR EGLL 261850Z AUTO 22015G26KT 8000 OVC011 11/09
                        Q1012 TEMPO 4500 RADZ=
201601261820 METAR COR EGLL 261820Z AUTO 22016KT 9999 -RA BKN012 11/09
                        Q1012 NOSIG=
201601261750 METAR COR EGLL 261750Z AUTO 22018KT 9999 -RA OVC012 11/09
                        Q1012 TEMPO RA=
201601261720 METAR COR EGLL 261720Z AUTO 22019KT 9999 -RA OVC012 11/09
                        Q1012 TEMPO RA=
201601261650 METAR COR EGLL 261650Z AUTO 22018KT 9999 -RA BKN011 11/09
                        Q1012 TEMPO RA=
201601261620 METAR COR EGLL 261620Z AUTO 22018G29KT 9999 -RA BKN011 OVC025
                        11/09 Q1012 TEMPO RA=
201601261550 METAR COR EGLL 261550Z AUTO 22020G30KT 9999 -RA BKN011 OVC026
                        11/09 Q1012 TEMPO RA=
201601261520 METAR COR EGLL 261520Z AUTO 22019KT 9999 -RA OVC013 11/09
                        Q1012 TEMPO RA=
201601261450 METAR COR EGLL 261450Z AUTO 22020KT 9999 -RA OVC013 10/08
                        Q1012 TEMPO RA=
201601261420 METAR COR EGLL 261420Z AUTO 22020KT 9999 -RA OVC013 10/08
                        Q1012 TEMPO RA=
201601261350 METAR COR EGLL 261350Z AUTO 22018KT 9999 -RA OVC015 10/08
                        Q1013 TEMPO RA BKN014=
201601261320 METAR COR EGLL 261320Z AUTO 21017KT 9000 -RA OVC016 10/08
                        Q1014 TEMPO RA BKN014=
201601261250 METAR COR EGLL 261250Z AUTO 21019G30KT 9000 -RA BKN020 10/07
                        Q1014 TEMPO RA=
201601261220 METAR COR EGLL 261220Z AUTO 22019G29KT 9999 -RA BKN022 11/06
                        Q1015 TEMPO RA=
201601261150 METAR COR EGLL 261150Z AUTO 23020G30KT 9999 -RA BKN023 11/06
                        Q1015 TEMPO RA=
201601261120 METAR COR EGLL 261120Z AUTO 22022KT 9999 BKN023 11/06 Q1016
                        NOSIG=
201601261050 METAR COR EGLL 261050Z AUTO 22018G30KT 9999 BKN023 10/06
                        Q1016 NOSIG=
201601261020 METAR COR EGLL 261020Z AUTO 21015KT 190V270 9999 BKN021 10/06
                        Q1016 NOSIG=
201601260950 METAR COR EGLL 260950Z AUTO 21014G25KT 9999 BKN020 10/06
                        Q1017 NOSIG=
201601260920 METAR COR EGLL 260920Z AUTO 21015KT 9999 SCT020 09/06 Q1017
                        NOSIG=
201601260850 METAR COR EGLL 260850Z AUTO 21017KT 9999 SCT021 09/06 Q1017
                        NOSIG=
201601260820 METAR COR EGLL 260820Z AUTO 21014KT 9999 NCD 09/06 Q1017
                        NOSIG=
201601260750 METAR COR EGLL 260750Z AUTO 20013KT 9999 NCD 09/06 Q1018
                        NOSIG=
201601260720 METAR COR EGLL 260720Z AUTO 21011G22KT 9999 FEW011 08/07
                        Q1018 NOSIG=
201601260650 METAR COR EGLL 260650Z AUTO 21009KT 9999 FEW017 BKN028 08/06
                        Q1019 NOSIG=
201601260620 METAR COR EGLL 260620Z AUTO 21009KT 9999 FEW017 SCT027 08/06
                        Q1020 NOSIG=
201601260550 METAR COR EGLL 260550Z AUTO 19010KT 9999 NCD 07/06 Q1020
                        NOSIG=
201601260520 METAR COR EGLL 260520Z AUTO 19009KT 9000 NCD 07/06 Q1020
                        NOSIG=
201601260450 METAR COR EGLL 260450Z AUTO 19004KT 8000 FEW018 06/05 Q1021
                        NOSIG=
201601260420 METAR COR EGLL 260420Z AUTO 19007KT 9000 NCD 06/05 Q1021
                        NOSIG=
201601260350 METAR COR EGLL 260350Z AUTO 20007KT 9999 NCD 06/05 Q1022
                        NOSIG=
201601260320 METAR EGLL 260320Z AUTO 20007KT 9999 NCD 06/05 Q1022=
201601260250 METAR COR EGLL 260250Z AUTO 18004KT 9999 NCD 05/04 Q1022
                        NOSIG=
201601260220 METAR COR EGLL 260220Z AUTO 19005KT 9999 NCD 06/04 Q1022
                        NOSIG=
201601260150 METAR COR EGLL 260150Z AUTO 20006KT 9999 NCD 06/04 Q1023
                        NOSIG=
201601260120 METAR COR EGLL 260120Z AUTO 21006KT 9999 NCD 06/04 Q1023
                        NOSIG=
201601260050 METAR COR EGLL 260050Z AUTO 22005KT 9999 NCD 07/05 Q1023
                        NOSIG=
201601260020 METAR COR EGLL 260020Z AUTO 22008KT 9999 NCD 07/05 Q1023
                        NOSIG=
201601252350 METAR COR EGLL 252350Z AUTO 23008KT 9999 NCD 07/05 Q1024
                        NOSIG=
201601252320 METAR COR EGLL 252320Z AUTO 23008KT 9999 NCD 08/05 Q1023
                        NOSIG=
201601252250 METAR COR EGLL 252250Z AUTO 24008KT 9999 NCD 08/05 Q1023
                        NOSIG=
201601252220 METAR COR EGLL 252220Z AUTO 22009KT 9999 NCD 09/05 Q1022
                        NOSIG=
201601252150 METAR COR EGLL 252150Z AUTO 24009KT 9999 NCD 09/05 Q1022
                        NOSIG=
201601252120 METAR COR EGLL 252120Z AUTO 26013KT 9999 FEW030 10/05 Q1022
                        NOSIG=
201601252050 METAR COR EGLL 252050Z AUTO 26014KT 9999 BKN026 10/05 Q1022
                        NOSIG=
201601252020 METAR COR EGLL 252020Z AUTO 28015KT 9999 BKN025 11/06 Q1022
                        NOSIG=
201601251950 METAR COR EGLL 251950Z AUTO 25014KT 9999 BKN028 11/06 Q1022
                        NOSIG=
201601251920 METAR COR EGLL 251920Z AUTO 25015KT 9999 SCT023 11/07 Q1021
                        NOSIG=
201601251850 METAR COR EGLL 251850Z AUTO 23015KT 9999 FEW025 BKN038 12/07
                        Q1020 NOSIG=
201601251820 METAR COR EGLL 251820Z AUTO 24016KT 9999 BKN024 12/08 Q1020
                        NOSIG=
201601251750 METAR COR EGLL 251750Z AUTO 23017KT 9999 FEW023 BKN034 12/08
                        Q1019 NOSIG=
201601251720 METAR COR EGLL 251720Z AUTO 23016KT 9999 BKN023 12/08 Q1018
                        NOSIG=
201601251650 METAR COR EGLL 251650Z AUTO 23017KT 9999 BKN020 12/08 Q1018
                        NOSIG=
201601251620 METAR COR EGLL 251620Z AUTO 23018KT 9999 BKN019 13/09 Q1018
                        NOSIG=
201601251550 METAR COR EGLL 251550Z AUTO 22014G24KT 9999 BKN015 13/10
                        Q1017 NOSIG=
201601251520 METAR COR EGLL 251520Z AUTO 20013KT 9999 BKN013 13/10 Q1017
                        BECMG SCT020=
201601251450 METAR COR EGLL 251450Z AUTO 20013KT 9999 OVC014 13/10 Q1017
                        BECMG FEW014 BKN020=
201601251420 METAR COR EGLL 251420Z AUTO 20014KT 170V230 9999 OVC013 13/10
                        Q1017 NOSIG=
201601251350 METAR COR EGLL 251350Z AUTO 20013KT 9999 BKN014 OVC025 13/10
                        Q1017 TEMPO BKN015=
201601251320 METAR COR EGLL 251320Z AUTO 20014KT 9999 BKN014 OVC043 13/09
                        Q1018 TEMPO BKN015=
201601251250 METAR COR EGLL 251250Z AUTO 19014KT 9999 BKN014 13/09 Q1018
                        TEMPO BKN015=
201601251220 METAR COR EGLL 251220Z AUTO 21013KT 9999 SCT016 13/08 Q1018
                        NOSIG=
201601251150 METAR COR EGLL 251150Z AUTO 20012KT 9999 SCT016 SCT033 12/08
                        Q1018 NOSIG=
201601251120 METAR COR EGLL 251120Z AUTO 21012KT 170V230 9999 BKN024 12/07
                        Q1019 NOSIG=
201601251050 METAR COR EGLL 251050Z AUTO 20013KT 9999 NCD 12/07 Q1019
                        NOSIG=
201601251020 METAR COR EGLL 251020Z AUTO 20013KT 9999 NCD 12/06 Q1018
                        NOSIG=
201601250950 METAR COR EGLL 250950Z AUTO 19011KT 160V220 9999 NCD 11/06
                        Q1019 NOSIG=
201601250920 METAR COR EGLL 250920Z AUTO 19007KT 9999 NCD 11/06 Q1019
                        NOSIG=
201601250850 METAR COR EGLL 250850Z AUTO 16006KT 120V200 9999 NCD 10/06
                        Q1019 NOSIG=
201601250820 METAR COR EGLL 250820Z AUTO 17011KT 120V200 9999 NCD 10/06
                        Q1019 NOSIG=
201601250750 METAR COR EGLL 250750Z AUTO 17010KT 9999 NCD 10/06 Q1019
                        NOSIG=
201601250720 METAR COR EGLL 250720Z AUTO 16011KT 9999 NCD 10/07 Q1019
                        NOSIG=
201601250650 METAR COR EGLL 250650Z AUTO 16010KT 9999 NCD 10/07 Q1020
                        NOSIG=
201601250620 METAR COR EGLL 250620Z AUTO 17011KT 9999 NCD 10/07 Q1020
                        NOSIG=
201601250550 METAR COR EGLL 250550Z AUTO 17009KT 160V260 9999 NCD 10/08
                        Q1020 NOSIG=
201601250520 METAR COR EGLL 250520Z AUTO 18008KT 9999 NCD 10/08 Q1021
                        NOSIG=
201601250450 METAR COR EGLL 250450Z AUTO 18008KT 160V240 9999 NCD 11/08
                        Q1021 NOSIG=
201601250420 METAR COR EGLL 250420Z AUTO 17011KT 9999 NCD 11/08 Q1021
                        NOSIG=
201601250350 METAR COR EGLL 250350Z AUTO 17010KT 9999 NCD 11/09 Q1021
                        NOSIG=
201601250320 METAR COR EGLL 250320Z AUTO 17007KT 9999 NCD 11/09 Q1022
                        NOSIG=
201601250250 METAR COR EGLL 250250Z AUTO 19007KT 9999 NCD 11/09 Q1022
                        NOSIG=
201601250220 METAR COR EGLL 250220Z AUTO 19008KT 9999 NCD 11/09 Q1023
                        NOSIG=
201601250150 METAR EGLL 250150Z AUTO 18009KT 9999 NCD 11/10 Q1023=
201601250120 METAR COR EGLL 250120Z AUTO 19010KT 9999 NCD 12/10 Q1024
                        NOSIG=
201601250050 METAR COR EGLL 250050Z AUTO 18005KT 9999 NCD 11/10 Q1024
                        NOSIG=
201601250020 METAR COR EGLL 250020Z AUTO 18004KT 9999 NCD 11/10 Q1024
                        NOSIG=
201601242350 METAR COR EGLL 242350Z AUTO 18004KT 9999 NCD 11/10 Q1024
                        NOSIG=
201601242320 METAR COR EGLL 242320Z AUTO 17005KT 9999 NCD 12/10 Q1025
                        NOSIG=
201601242250 METAR COR EGLL 242250Z AUTO 18007KT 9999 FEW008 12/11 Q1025
                        NOSIG=
201601242220 METAR COR EGLL 242220Z AUTO 18007KT 140V200 9999 BKN008 12/11
                        Q1025 BECMG SCT010=
201601242150 METAR COR EGLL 242150Z AUTO 18006KT 9999 BKN007 12/11 Q1025
                        BECMG SCT010=
201601242120 METAR COR EGLL 242120Z AUTO 19009KT 9999 OVC006 13/11 Q1025
                        BECMG SCT010=
201601242050 METAR COR EGLL 242050Z AUTO 18009KT 150V210 9999 OVC005 13/11
                        Q1026 BECMG SCT010=
201601242020 METAR COR EGLL 242020Z AUTO 19009KT 170V230 8000 OVC004 12/11
                        Q1026 BECMG BKN007=
201601241950 METAR COR EGLL 241950Z AUTO 19009G19KT 170V240 7000 OVC004
                        12/11 Q1026 BECMG BKN007=
201601241920 METAR COR EGLL 241920Z AUTO 20008KT 7000 OVC004 12/11 Q1027
                        NOSIG=
201601241850 METAR COR EGLL 241850Z AUTO 19008KT 160V230 8000 OVC005 12/11
                        Q1027 TEMPO BKN004=
201601241820 METAR COR EGLL 241820Z AUTO 20008KT 8000 OVC005 12/11 Q1027
                        TEMPO BKN004=
201601241750 METAR COR EGLL 241750Z AUTO 20010KT 9999 OVC007 13/11 Q1026
                        NOSIG=
201601241720 METAR COR EGLL 241720Z AUTO 19009KT 9999 BKN008 BKN035 OVC042
                        13/11 Q1026 NOSIG=
201601241650 METAR COR EGLL 241650Z AUTO 19008KT 170V240 9999 SCT009 BKN028
                        OVC040 13/11 Q1026 TEMPO BKN008=
201601241620 METAR COR EGLL 241620Z AUTO 21008KT 9999 BKN010 OVC029 14/12
                        Q1026 TEMPO BKN008=
201601241550 METAR COR EGLL 241550Z AUTO 22009KT 9999 BKN010 OVC035 14/12
                        Q1026 TEMPO SCT010=
201601241520 METAR COR EGLL 241520Z AUTO 23009KT 9999 SCT010 OVC038 14/12
                        Q1026 TEMPO BKN010=
201601241450 METAR EGLL 241450Z AUTO 23010KT 9999 BKN010 14/12 Q1026=
201601241420 METAR COR EGLL 241420Z AUTO 22011KT 9999 SCT011 OVC038 14/12
                        Q1026 NOSIG=
201601241350 METAR COR EGLL 241350Z AUTO 23011KT 9999 FEW014 BKN037 15/12
                        Q1026 NOSIG=
201601241320 METAR COR EGLL 241320Z AUTO 23011KT 9999 FEW012 15/12 Q1026
                        NOSIG=
201601241250 METAR COR EGLL 241250Z AUTO 23011KT 9999 SCT011 BKN036 15/12
                        Q1026 TEMPO BKN012=
201601241220 METAR COR EGLL 241220Z AUTO 23012KT 9999 SCT009 OVC035 15/12
                        Q1026 TEMPO BKN009=
201601241150 METAR COR EGLL 241150Z AUTO 23011KT 9999 BKN009 OVC035 14/12
                        Q1027 TEMPO SCT009 BKN012=
201601241120 METAR COR EGLL 241120Z AUTO 23012KT 9999 SCT009 OVC033 13/12
                        Q1027 TEMPO BKN009=
201601241050 METAR COR EGLL 241050Z AUTO 22010KT 9999 BKN007 OVC032 13/11
                        Q1027 TEMPO SCT008 BKN012=
201601241020 METAR COR EGLL 241020Z AUTO 22010KT 9999 SCT007 OVC030 13/11
                        Q1027 TEMPO BKN008=
201601240950 METAR COR EGLL 240950Z AUTO 21010KT 9999 SCT007 OVC025 12/11
                        Q1027 TEMPO BKN008=
201601240920 METAR COR EGLL 240920Z AUTO 22009KT 6000 BKN005 12/11 Q1026
                        TEMPO SCT005 BKN010=
201601240850 METAR EGLL 240850Z AUTO 21008KT 8000 OVC004 12/11 Q1026=
201601240820 METAR EGLL 240820Z AUTO 22008KT 9999 OVC004 12/11 Q1026=
201601240750 METAR COR EGLL 240750Z AUTO 22010KT 9999 OVC003 12/11 Q1026
                        TEMPO SCT003 BKN005=
201601240720 METAR COR EGLL 240720Z AUTO 22008KT 9000 OVC004 12/11 Q1026
                        TEMPO SCT004 BKN005=
201601240650 METAR COR EGLL 240650Z AUTO 21008KT 190V260 9999 OVC004 12/11
                        Q1025 TEMPO SCT003 BKN005=
201601240620 METAR COR EGLL 240620Z AUTO 22006KT 9999 OVC004 11/11 Q1025
                        TEMPO SCT003 BKN005=
201601240550 METAR COR EGLL 240550Z AUTO 20005KT 6000 OVC002 11/10 Q1025
                        TEMPO SCT002 BKN005=
201601240520 METAR COR EGLL 240520Z AUTO 19007KT 180V280 4600 BR OVC001
                        11/10 Q1025 TEMPO 6000 SCT002 BKN006=
201601240450 METAR COR EGLL 240450Z AUTO 20007KT 180V240 3300 BR OVC002
                        10/10 Q1025 TEMPO 5000=
201601240420 METAR COR EGLL 240420Z AUTO 18007KT 2500 BR OVC002 10/09
                        Q1026 TEMPO 5000=
201601240350 METAR COR EGLL 240350Z AUTO 18005KT 5000 BR OVC002 10/09
                        Q1026 TEMPO 4000 SCT002 BKN003=
201601240320 METAR COR EGLL 240320Z AUTO 18005KT 4000 HZ OVC002 10/09
                        Q1026 NOSIG=
201601240250 METAR COR EGLL 240250Z AUTO 19007KT 6000 OVC004 10/09 Q1026
                        TEMPO 4500 BR=
201601240220 METAR COR EGLL 240220Z AUTO 20007KT 9999 OVC004 09/09 Q1026
                        TEMPO SCT004 BKN006=
201601240150 METAR COR EGLL 240150Z AUTO 19008KT 9000 OVC004 09/08 Q1026
                        TEMPO SCT004 BKN006=
201601240120 METAR COR EGLL 240120Z AUTO 20009KT 9999 OVC004 09/08 Q1026
                        TEMPO BKN006=
201601240050 METAR COR EGLL 240050Z AUTO 20010KT 9999 OVC005 09/08 Q1026
                        NOSIG=
201601240020 METAR COR EGLL 240020Z AUTO 19010KT 9999 -RA OVC005 09/08
                        Q1026 TEMPO SCT005=
201601232350 METAR COR EGLL 232350Z AUTO 19011KT 9999 BKN005 09/08 Q1026
                        TEMPO SCT005 BKN010=
201601232320 METAR COR EGLL 232320Z AUTO 20009KT 9999 BKN006 09/08 Q1027
                        TEMPO SCT006 BKN010=
201601232250 METAR COR EGLL 232250Z AUTO 20009KT 9999 OVC007 09/07 Q1027
                        TEMPO SCT007 BKN010=
201601232220 METAR COR EGLL 232220Z AUTO 19011KT 9999 OVC007 08/07 Q1027
                        TEMPO SCT008 BKN010=
201601232150 METAR COR EGLL 232150Z AUTO 19013KT 9999 BKN009 08/07 Q1027
                        TEMPO BKN011=
201601232120 METAR COR EGLL 232120Z AUTO 18012KT 9999 -RA SCT009/// OVC026///
                        //////TCU 08/07 Q1027 TEMPO RA BKN012=
201601232050 METAR COR EGLL 232050Z AUTO 18011KT 9000 -RA FEW013/// BKN026///
                        BKN043/// //////TCU 09/06 Q1027 TEMPO
                        RA BKN012=
201601232020 METAR COR EGLL 232020Z AUTO 18010KT 9999 -RA FEW010/// BKN037///
                        //////TCU 09/06 Q1028 TEMPO RA BKN012=
201601231950 METAR COR EGLL 231950Z AUTO 19009KT 9999 BKN010 OVC038 08/06
                        Q1028 TEMPO SCT012=
201601231920 METAR COR EGLL 231920Z AUTO 18009KT 160V220 9999 FEW012 BKN040
                        08/06 Q1028 NOSIG=
201601231850 METAR EGLL 231850Z AUTO 17010KT 9999 FEW012/// //////CB 08/06
                        Q1028=
201601231820 METAR COR EGLL 231820Z AUTO 16008KT 9999 SCT012 08/06 Q1029
                        TEMPO BKN012=
201601231750 METAR COR EGLL 231750Z AUTO 15007KT 110V200 9999 SCT011 08/06
                        Q1029 TEMPO BKN011=
201601231720 METAR COR EGLL 231720Z AUTO 16007KT 9999 OVC011 09/06 Q1029
                        TEMPO SCT012=
201601231650 METAR COR EGLL 231650Z AUTO 18009KT 9999 BKN012 08/06 Q1029
                        TEMPO SCT012=
201601231620 METAR COR EGLL 231620Z AUTO 19009G19KT 9999 BKN011 09/07
                        Q1029 TEMPO SCT011=
201601231550 METAR COR EGLL 231550Z AUTO 20012KT 9999 SCT011 09/07 Q1029
                        TEMPO BKN011=
201601231520 METAR COR EGLL 231520Z AUTO 20013KT 9000 BKN012 10/07 Q1029
                        NOSIG=
201601231450 METAR COR EGLL 231450Z AUTO 18008KT 140V240 8000 SCT017 11/08
                        Q1030 NOSIG=
201601231420 METAR COR EGLL 231420Z AUTO 19006KT 160V250 8000 FEW016 11/09
                        Q1030 TEMPO BKN014=
201601231350 METAR COR EGLL 231350Z AUTO 19006KT 150V230 9000 BKN017 10/09
                        Q1030 TEMPO BKN014=
201601231320 METAR COR EGLL 231320Z AUTO 20005KT 170V250 8000 BKN010 10/09
                        Q1030 TEMPO BKN008=
201601231250 METAR COR EGLL 231250Z AUTO 19006KT 160V240 6000 BKN004 OVC014
                        09/08 Q1031 TEMPO SCT005 BKN008=
201601231220 METAR COR EGLL 231220Z 20006KT 160V250 7000 SCT007 BKN009
                        OVC010 09/08 Q1031 TEMPO BKN012=
201601231150 METAR COR EGLL 231150Z AUTO 22008KT 190V270 5000 BR OVC002
                        08/07 Q1031 TEMPO 4000 BR BKN005=
201601231120 METAR COR EGLL 231120Z AUTO 21008KT 170V250 3000 BR OVC002
                        07/07 Q1031 TEMPO 1400 BR OVC001=
201601231050 METAR COR EGLL 231050Z AUTO 22007KT 180V250 3100 BR OVC001
                        07/06 Q1031 TEMPO 1200 BR=
201601231020 METAR EGLL 231020Z AUTO 22006KT 170V260 3000 HZ BKN001 07/06
                        Q1031=
201601230950 METAR COR EGLL 230950Z AUTO 24006KT 6000 SCT005 07/06 Q1031
                        TEMPO BKN005=
201601230920 METAR COR EGLL 230920Z 26006KT 8000 VCFG NSC 06/05 Q1031
                        NOSIG=
201601230850 METAR COR EGLL 230850Z AUTO 25004KT 5000 HZ NCD 05/04 Q1031
                        TEMPO 4000 BR=
201601230820 METAR COR EGLL 230820Z AUTO 21005KT 180V260 6000 NCD 05/04
                        Q1030 TEMPO 4000 BR=
201601230750 METAR COR EGLL 230750Z AUTO VRB03KT 7000 NCD 05/04 Q1030
                        TEMPO 4000 BR=
201601230720 METAR COR EGLL 230720Z AUTO 24005KT 190V270 7000 NCD 05/04
                        Q1029 NOSIG=
201601230650 METAR COR EGLL 230650Z AUTO 22008KT 7000 NCD 05/04 Q1029
                        NOSIG=
201601230620 METAR COR EGLL 230620Z 20007KT 170V230 6000 NSC 05/04 Q1028
                        TEMPO 4800 BR=
201601230550 METAR COR EGLL 230550Z 20004KT 160V240 8000 NSC 05/04 Q1028
                        NOSIG=
201601230520 METAR COR EGLL 230520Z AUTO 21008KT 180V260 6000 NCD 05/04
                        Q1028 NOSIG=
201601230450 METAR COR EGLL 230450Z AUTO VRB03KT 6000 NCD 05/03 Q1028
                        NOSIG=
201601230420 METAR COR EGLL 230420Z AUTO 20005KT 7000 FEW017 05/04 Q1028
                        NOSIG=
201601230350 METAR COR EGLL 230350Z AUTO 23005KT 8000 FEW018 06/05 Q1027
                        NOSIG=
201601230320 METAR COR EGLL 230320Z AUTO 23008KT 8000 FEW020 06/05 Q1027
                        NOSIG=
201601230250 METAR COR EGLL 230250Z AUTO 23009KT 8000 NCD 06/05 Q1027
                        NOSIG=
201601230220 METAR COR EGLL 230220Z AUTO 22005KT 8000 NCD 06/05 Q1026
                        NOSIG=
201601230150 METAR COR EGLL 230150Z AUTO 22007KT 7000 NCD 06/05 Q1026
                        NOSIG=
201601230120 METAR EGLL 230120Z AUTO 22006KT 7000 FEW023 06/05 Q1025=
201601230050 METAR EGLL 230050Z AUTO 20004KT 7000 BKN022 06/05 Q1025=
201601230020 METAR COR EGLL 230020Z AUTO 22006KT 8000 FEW020 06/05 Q1024
                        NOSIG=
201601222350 METAR COR EGLL 222350Z AUTO 21006KT 8000 NCD 07/05 Q1024
                        NOSIG=
201601222320 METAR COR EGLL 222320Z AUTO 22005KT 8000 NCD 07/05 Q1023
                        NOSIG=
201601222250 METAR COR EGLL 222250Z AUTO 24010KT 9000 SCT021 08/05 Q1023
                        NOSIG=
201601222220 METAR COR EGLL 222220Z AUTO 24008KT 9000 NCD 08/05 Q1022
                        NOSIG=
201601222150 METAR COR EGLL 222150Z AUTO 23007KT 9000 NCD 08/05 Q1022
                        NOSIG=
201601222120 METAR COR EGLL 222120Z AUTO 23009KT 9000 NCD 08/05 Q1021
                        NOSIG=
201601222050 METAR COR EGLL 222050Z AUTO 24008KT 9000 NCD 09/06 Q1021
                        NOSIG=
201601222020 METAR EGLL 222020Z AUTO 24010KT 9000 NCD 09/06 Q1020=
201601221950 METAR COR EGLL 221950Z AUTO 25012KT 9000 NCD 09/06 Q1020
                        NOSIG=
201601221920 METAR COR EGLL 221920Z AUTO 25013KT 9000 NCD 10/06 Q1020
                        NOSIG=
201601221850 METAR COR EGLL 221850Z AUTO 24011KT 9000 NCD 09/06 Q1019
                        NOSIG=
201601221820 METAR COR EGLL 221820Z AUTO 25013KT 9000 NCD 10/06 Q1019
                        NOSIG=
201601221750 METAR COR EGLL 221750Z AUTO 26013KT 9999 NCD 10/06 Q1018
                        NOSIG=
201601221720 METAR COR EGLL 221720Z AUTO 25011KT 9999 NCD 10/07 Q1017
                        NOSIG=
201601221650 METAR COR EGLL 221650Z AUTO 26010KT 9999 NCD 10/08 Q1017
                        NOSIG=
201601221620 METAR COR EGLL 221620Z AUTO 26010KT 9999 FEW020 11/09 Q1016
                        NOSIG=
201601221550 METAR COR EGLL 221550Z AUTO 22007KT 9999 FEW012 10/09 Q1015
                        NOSIG=
201601221520 METAR COR EGLL 221520Z AUTO 22006KT 9999 SCT006 10/10 Q1015
                        NOSIG=
201601221450 METAR COR EGLL 221450Z AUTO 23009KT 9999 BKN003 OVC013 10/09
                        Q1014 BECMG SCT015=
201601221420 METAR COR EGLL 221420Z AUTO 22009KT 200V260 7000 BKN003 09/08
                        Q1014 BECMG SCT014=
201601221350 METAR COR EGLL 221350Z AUTO 20010KT 170V240 9999 -RA OVC005
                        09/08 Q1014 TEMPO 4000 RADZ BKN004=
201601221320 METAR COR EGLL 221320Z AUTO 20010KT 170V240 9999 -RA BKN005///
                        //////TCU 09/08 Q1014 RESHGR TEMPO
                        4000 DZRA BKN004=
201601221250 METAR COR EGLL 221250Z AUTO 19011KT 160V240 9999 -RA BKN006///
                        OVC014/// //////TCU 09/08 Q1014 TEMPO
                        4000 RADZ BKN004=
201601221220 METAR COR EGLL 221220Z AUTO 17011KT 150V220 9999 -RA OVC006///
                        //////TCU 08/07 Q1014 TEMPO 4000
                        RADZ BKN004=
201601221150 METAR COR EGLL 221150Z AUTO 18011KT 9999 -RA OVC006/// //////TCU
                        08/07 Q1014 TEMPO 4000 RADZ BKN004=
201601221120 METAR COR EGLL 221120Z AUTO 17010KT 9999 -RA OVC007/// //////TCU
                        08/07 Q1014 TEMPO 4000 RADZ BKN004=
201601221050 METAR COR EGLL 221050Z AUTO 17011KT 9999 OVC008/// //////TCU
                        07/06 Q1014 TEMPO 4000 RADZ BKN004=
201601221020 METAR COR EGLL 221020Z AUTO 16009KT 9999 OVC006 07/06 Q1015
                        TEMPO 4000 RADZ=
201601220950 METAR COR EGLL 220950Z AUTO 16010KT 9999 -RA OVC005 06/05
                        Q1015 TEMPO RA=
201601220920 METAR COR EGLL 220920Z AUTO 16012KT 9999 -RA OVC007 06/05
                        Q1015 TEMPO 4000 RADZ=
201601220850 METAR COR EGLL 220850Z AUTO 16012KT 9999 -RA OVC008 06/05
                        Q1015 TEMPO 4000 RADZ=
201601220820 METAR COR EGLL 220820Z AUTO 16013KT 8000 -RA BKN008/// OVC021///
                        //////TCU 06/05 Q1015 TEMPO 4000
                        RADZ=
201601220750 METAR COR EGLL 220750Z AUTO 16012KT 9999 OVC009 06/04 Q1015
                        TEMPO 4000 RADZ=
201601220720 METAR COR EGLL 220720Z AUTO 16012KT 9999 BKN010 OVC039 06/04
                        Q1016 TEMPO 4000 RADZ BKN006=
201601220650 METAR COR EGLL 220650Z AUTO 17011KT 9999 SCT012 BKN025 OVC042
                        06/04 Q1016 BECMG -RA BKN012=
201601220620 METAR COR EGLL 220620Z AUTO 15011KT 9999 OVC024 06/03 Q1016
                        NOSIG=
201601220550 METAR COR EGLL 220550Z AUTO 16009KT 9999 OVC026 06/02 Q1017
                        BECMG BKN010=
201601220520 METAR COR EGLL 220520Z AUTO 16010KT 9999 OVC031 06/02 Q1017
                        NOSIG=
201601220450 METAR COR EGLL 220450Z AUTO 16009KT 9999 BKN031 06/02 Q1017
                        NOSIG=
201601220420 METAR COR EGLL 220420Z AUTO 16010KT 9999 BKN037 06/02 Q1018
                        NOSIG=
201601220350 METAR COR EGLL 220350Z AUTO 16010KT 9999 BKN039 06/02 Q1018
                        NOSIG=
201601220320 METAR COR EGLL 220320Z AUTO 16010KT 9999 SCT039 06/02 Q1018
                        NOSIG=
201601220250 METAR COR EGLL 220250Z AUTO 16009KT 9999 OVC040 06/02 Q1019
                        NOSIG=
201601220220 METAR COR EGLL 220220Z AUTO 16011KT 9999 OVC048 06/02 Q1019
                        NOSIG=
201601220150 METAR COR EGLL 220150Z AUTO 17011KT 9999 NCD 06/03 Q1019
                        NOSIG=
201601220120 METAR COR EGLL 220120Z AUTO 15010KT 9999 -RA NCD 06/02 Q1019
                        NOSIG=
201601220050 METAR COR EGLL 220050Z AUTO 15009KT 9999 NCD 06/02 Q1019
                        NOSIG=
201601220020 METAR COR EGLL 220020Z AUTO 16009KT 9999 NCD 05/02 Q1019
                        NOSIG=
201601212350 METAR COR EGLL 212350Z AUTO 15009KT 9999 NCD 05/02 Q1020
                        NOSIG=
201601212320 METAR COR EGLL 212320Z AUTO 15008KT 9999 NCD 05/02 Q1020
                        NOSIG=
201601212250 METAR COR EGLL 212250Z AUTO 15007KT 9999 NCD 05/02 Q1020
                        NOSIG=
201601212220 METAR COR EGLL 212220Z AUTO 14007KT 9999 NCD 04/02 Q1020
                        NOSIG=
201601212150 METAR COR EGLL 212150Z AUTO 13007KT 9999 NCD 03/01 Q1021
                        NOSIG=
201601212120 METAR COR EGLL 212120Z AUTO 13008KT 9999 NCD 04/01 Q1021
                        NOSIG=
201601212050 METAR COR EGLL 212050Z AUTO 13007KT 9999 NCD 05/02 Q1021
                        NOSIG=
201601212020 METAR COR EGLL 212020Z AUTO 13007KT 9999 NCD 04/01 Q1021
                        NOSIG=
201601211950 METAR COR EGLL 211950Z AUTO 15007KT 9999 NCD 05/01 Q1021
                        NOSIG=
201601211920 METAR COR EGLL 211920Z AUTO 16008KT 9999 NCD 05/01 Q1021
                        NOSIG=
201601211850 METAR COR EGLL 211850Z AUTO 15008KT 9999 NCD 05/01 Q1021
                        NOSIG=
201601211820 METAR COR EGLL 211820Z AUTO 15009KT 9999 NCD 05/01 Q1021
                        NOSIG=
201601211750 METAR COR EGLL 211750Z AUTO 17008KT 9999 NCD 06/01 Q1021
                        NOSIG=
201601211720 METAR COR EGLL 211720Z AUTO 16010KT 9999 NCD 06/01 Q1021
                        NOSIG=
201601211650 METAR COR EGLL 211650Z AUTO 16009KT 9999 NCD 06/01 Q1021
                        NOSIG=
201601211620 METAR EGLL 211620Z AUTO 16008KT 9999 NCD 06/02 Q1020=
201601211550 METAR COR EGLL 211550Z AUTO 15009KT 9999 NCD 07/02 Q1020
                        NOSIG=
201601211520 METAR COR EGLL 211520Z AUTO 15009KT 9999 NCD 07/01 Q1020
                        NOSIG=
201601211450 METAR EGLL 211450Z AUTO 16010KT 9999 NCD 07/01 Q1021=
201601211420 METAR COR EGLL 211420Z AUTO 18008KT 9999 NCD 08/M00 Q1021
                        NOSIG=
201601211350 METAR COR EGLL 211350Z AUTO 17008KT 9999 NCD 08/00 Q1020
                        NOSIG=
201601211320 METAR COR EGLL 211320Z AUTO 17010KT 9999 NCD 08/01 Q1021
                        NOSIG=
201601211250 METAR COR EGLL 211250Z AUTO 17010KT 9999 NCD 07/01 Q1021
                        NOSIG=
201601211220 METAR COR EGLL 211220Z AUTO 16009KT 9999 FEW033 BKN045 06/01
                        Q1021 NOSIG=
201601211150 METAR COR EGLL 211150Z AUTO 17009KT 9999 SCT030 OVC049 06/01
                        Q1021 NOSIG=
201601211120 METAR COR EGLL 211120Z AUTO 17007KT 9999 FEW033 OVC048 05/01
                        Q1021 NOSIG=
201601211050 METAR COR EGLL 211050Z AUTO 16004KT 9000 OVC045 04/02 Q1021
                        NOSIG=
201601211020 METAR COR EGLL 211020Z AUTO 13006KT 7000 OVC045 04/02 Q1021
                        NOSIG=
201601210950 METAR COR EGLL 210950Z AUTO VRB03KT 6000 BKN013 OVC045 03/01
                        Q1022 NOSIG=
201601210920 METAR COR EGLL 210920Z AUTO 09004KT 6000 OVC012 03/01 Q1022
                        NOSIG=
201601210850 METAR COR EGLL 210850Z AUTO 14002KT 6000 OVC012 02/00 Q1022
                        NOSIG=
201601210820 METAR COR EGLL 210820Z AUTO 14003KT 7000 BKN012 OVC025 02/00
                        Q1021 NOSIG=
201601210750 METAR COR EGLL 210750Z AUTO 13006KT 7000 BKN009 01/M00 Q1021
                        BECMG BKN014=
201601210720 METAR COR EGLL 210720Z AUTO 15004KT 7000 OVC013 01/M00 Q1021
                        NOSIG=
201601210650 METAR COR EGLL 210650Z AUTO 12004KT 8000 OVC016 01/M00 Q1021
                        NOSIG=
201601210620 METAR COR EGLL 210620Z AUTO 13006KT 8000 OVC018 01/M01 Q1021
                        NOSIG=
201601210550 METAR COR EGLL 210550Z AUTO 12008KT 8000 OVC017 00/M01 Q1021
                        NOSIG=
201601210520 METAR COR EGLL 210520Z AUTO 10005KT 6000 OVC017 M00/M01 Q1021
                        TEMPO 4500 HZ=
201601210450 METAR COR EGLL 210450Z AUTO VRB02KT 4800 HZ OVC020 M00/M01
                        Q1021 NOSIG=
201601210420 METAR COR EGLL 210420Z AUTO VRB02KT 4300 HZ OVC022 M01/M02
                        Q1021 NOSIG=
201601210350 METAR COR EGLL 210350Z AUTO 16001KT 4100 HZ BKN022 M02/M02
                        Q1021 NOSIG=
201601210320 METAR COR EGLL 210320Z AUTO VRB02KT 4700 HZ NCD M01/M02 Q1021
                        NOSIG=
201601210250 METAR COR EGLL 210250Z AUTO 10004KT 5000 HZ NCD M01/M02 Q1021
                        BECMG 4500=
201601210220 METAR COR EGLL 210220Z AUTO 09007KT 5000 HZ NCD M01/M02 Q1021
                        BECMG 4000=
201601210150 METAR COR EGLL 210150Z AUTO 09006KT 6000 NCD M01/M02 Q1021
                        TEMPO 4000 HZ=
201601210120 METAR COR EGLL 210120Z AUTO 08006KT 7000 NCD M02/M03 Q1021
                        NOSIG=
201601210050 METAR COR EGLL 210050Z AUTO 09007KT 8000 NCD M02/M03 Q1021
                        NOSIG=
201601210020 METAR COR EGLL 210020Z AUTO 08005KT 7000 NCD M01/M02 Q1021
                        NOSIG=
201601202350 METAR COR EGLL 202350Z AUTO 07004KT 7000 NCD M01/M02 Q1022
                        NOSIG=
201601202320 METAR COR EGLL 202320Z AUTO 06003KT 6000 NCD M01/M02 Q1022
                        TEMPO 4000 HZ=
201601202250 METAR COR EGLL 202250Z AUTO 08002KT 5000 HZ NCD M01/M02 Q1022
                        TEMPO 4000 HZ=
201601202220 METAR COR EGLL 202220Z AUTO 10003KT 4500 HZ NCD M01/M02 Q1022
                        TEMPO 5000=
201601202150 METAR COR EGLL 202150Z AUTO VRB02KT 6000 NCD 00/M01 Q1022
                        NOSIG=
201601202120 METAR COR EGLL 202120Z AUTO 11003KT 6000 NCD 00/M01 Q1021
                        NOSIG=
201601202050 METAR COR EGLL 202050Z AUTO 10002KT 8000 NCD 01/M01 Q1021
                        NOSIG=
201601202020 METAR COR EGLL 202020Z AUTO 09004KT 8000 NCD 01/M01 Q1021
                        NOSIG=
201601201950 METAR COR EGLL 201950Z AUTO 11008KT 9999 NCD 01/M01 Q1021
                        NOSIG=
201601201920 METAR COR EGLL 201920Z AUTO 11007KT 080V140 9999 NCD 01/M01
                        Q1021 NOSIG=
201601201850 METAR COR EGLL 201850Z AUTO 11007KT 9999 NCD 01/M02 Q1021
                        NOSIG=
201601201820 METAR COR EGLL 201820Z AUTO 11007KT 9999 NCD 01/M02 Q1021
                        NOSIG=
201601201750 METAR COR EGLL 201750Z AUTO 12007KT 9999 NCD 02/M01 Q1021
                        NOSIG=
201601201720 METAR COR EGLL 201720Z AUTO 12005KT 090V180 9000 NCD 03/M01
                        Q1021 NOSIG=
201601201650 METAR COR EGLL 201650Z AUTO 12004KT 100V170 9999 NCD 03/M01
                        Q1020 NOSIG=
201601201620 METAR COR EGLL 201620Z AUTO 12004KT 090V150 9999 NCD 04/M01
                        Q1020 NOSIG=
201601201550 METAR COR EGLL 201550Z AUTO 12005KT 090V160 9999 NCD 05/M00
                        Q1020 NOSIG=
201601201520 METAR COR EGLL 201520Z AUTO 11005KT 9999 NCD 06/M00 Q1020
                        NOSIG=
201601201450 METAR COR EGLL 201450Z AUTO VRB03KT 9999 NCD 06/00 Q1020
                        NOSIG=
201601201420 METAR COR EGLL 201420Z AUTO VRB02KT 9999 NCD 06/M00 Q1020
                        NOSIG=
201601201350 METAR COR EGLL 201350Z AUTO VRB03KT 9999 NCD 07/00 Q1020
                        NOSIG=
201601201320 METAR COR EGLL 201320Z AUTO VRB02KT 9999 NCD 08/M00 Q1020
                        NOSIG=
201601201250 METAR COR EGLL 201250Z AUTO VRB02KT 9000 NCD 07/M00 Q1020
                        NOSIG=
201601201220 METAR COR EGLL 201220Z AUTO 36001KT 9999 NCD 06/M01 Q1021
                        NOSIG=
201601201150 METAR COR EGLL 201150Z AUTO 02002KT 9999 NCD 05/M01 Q1021
                        NOSIG=
201601201120 METAR COR EGLL 201120Z AUTO 36002KT 9000 NCD 05/M01 Q1021
                        NOSIG=
201601201050 METAR COR EGLL 201050Z AUTO 34001KT 8000 NCD 02/M02 Q1021
                        NOSIG=
201601201020 METAR COR EGLL 201020Z AUTO VRB02KT 8000 NCD 02/M02 Q1021
                        NOSIG=
201601200950 METAR COR EGLL 200950Z AUTO 28001KT 8000 NCD 00/M02 Q1021
                        NOSIG=
201601200920 METAR COR EGLL 200920Z AUTO 36002KT 8000 NCD M02/M03 Q1021
                        NOSIG=
201601200850 METAR COR EGLL 200850Z AUTO VRB02KT 8000 NCD M03/M04 Q1021
                        NOSIG=
201601200820 METAR COR EGLL 200820Z AUTO 30003KT 7000 NCD M04/M05 Q1021
                        NOSIG=
201601200750 METAR COR EGLL 200750Z AUTO 30003KT 7000 NCD M04/M05 Q1020
                        TEMPO 4000 BR=
201601200720 METAR COR EGLL 200720Z AUTO 31002KT 8000 NCD M03/M05 Q1020
                        TEMPO 4000 BR=
201601200650 METAR COR EGLL 200650Z AUTO VRB01KT 7000 NCD M03/M05 Q1020
                        TEMPO 4000 BR=
201601200620 METAR COR EGLL 200620Z AUTO VRB02KT 7000 NCD M04/M05 Q1020
                        TEMPO 4000 BR=
201601200550 METAR COR EGLL 200550Z AUTO 29002KT 7000 NCD M03/M05 Q1019
                        TEMPO 4000 BR=
201601200520 METAR COR EGLL 200520Z AUTO 36001KT 6000 NCD M04/M05 Q1019
                        TEMPO 4000 BR=
201601200450 METAR COR EGLL 200450Z AUTO 28001KT 7000 NCD M04/M05 Q1019
                        TEMPO 4000 BR=
201601200420 METAR COR EGLL 200420Z AUTO 28001KT 7000 NCD M04/M05 Q1019
                        TEMPO 4000 BR=
201601200350 METAR COR EGLL 200350Z AUTO 27001KT 6000 NCD M04/M05 Q1019
                        TEMPO 4000 BR=
201601200320 METAR COR EGLL 200320Z AUTO 30001KT 7000 NCD M03/M05 Q1019
                        TEMPO 4000 BR=
201601200250 METAR COR EGLL 200250Z AUTO 29002KT 6000 NCD M03/M05 Q1019
                        TEMPO 4000 BR=
201601200220 METAR COR EGLL 200220Z AUTO 27002KT 6000 NCD M03/M05 Q1019
                        TEMPO 4000 BR=
201601200150 METAR COR EGLL 200150Z AUTO 35001KT 7000 NCD M03/M05 Q1019
                        NOSIG=
201601200120 METAR COR EGLL 200120Z AUTO 31001KT 7000 NCD M03/M05 Q1019
                        NOSIG=
201601200050 METAR COR EGLL 200050Z AUTO 27002KT 8000 NCD M03/M05 Q1019
                        NOSIG=
201601200020 METAR COR EGLL 200020Z AUTO 34002KT 8000 NCD M02/M05 Q1019
                        NOSIG=
201601192350 METAR COR EGLL 192350Z AUTO 26002KT 8000 NCD M02/M05 Q1019
                        NOSIG=
201601192320 METAR COR EGLL 192320Z AUTO 35001KT 9000 NCD M01/M05 Q1019
                        NOSIG=
201601192250 METAR COR EGLL 192250Z AUTO VRB02KT 9000 NCD M01/M04 Q1019
                        NOSIG=
201601192220 METAR COR EGLL 192220Z AUTO 34002KT 9000 NCD M01/M04 Q1019
                        NOSIG=
201601192150 METAR COR EGLL 192150Z AUTO VRB02KT 9000 NCD M00/M04 Q1019
                        NOSIG=
201601192120 METAR COR EGLL 192120Z AUTO VRB01KT 9999 NCD M01/M05 Q1018
                        NOSIG=
201601192050 METAR COR EGLL 192050Z AUTO 00000KT 9999 NCD 02/M04 Q1018
                        NOSIG=
201601192020 METAR COR EGLL 192020Z AUTO 35002KT 9999 NCD 02/M05 Q1018
                        NOSIG=
201601191950 METAR EGLL 191950Z AUTO 36003KT 9999 NCD 02/M07 Q1018=
201601191920 METAR COR EGLL 191920Z AUTO 36003KT 9999 NCD 02/M06 Q1018
                        NOSIG=
201601191850 METAR COR EGLL 191850Z AUTO 32001KT 9999 NCD 01/M07 Q1018
                        NOSIG=
201601191820 METAR COR EGLL 191820Z AUTO 29002KT 9999 NCD 01/M08 Q1017
                        NOSIG=
201601191750 METAR COR EGLL 191750Z AUTO VRB02KT 9999 NCD 03/M08 Q1017
                        NOSIG=
201601191720 METAR COR EGLL 191720Z AUTO VRB03KT 9999 NCD 02/M09 Q1017
                        NOSIG=
201601191650 METAR COR EGLL 191650Z AUTO 28004KT 9999 NCD 02/M07 Q1017
                        NOSIG=
201601191620 METAR COR EGLL 191620Z AUTO 29003KT 9999 NCD 04/M09 Q1017
                        NOSIG=
201601191550 METAR COR EGLL 191550Z AUTO VRB01KT 9999 NCD 03/M07 Q1017
                        NOSIG=
201601191520 METAR COR EGLL 191520Z AUTO VRB02KT 9999 NCD 04/M07 Q1017
                        NOSIG=
201601191450 METAR COR EGLL 191450Z AUTO VRB03KT 9999 NCD 04/M07 Q1017
                        NOSIG=
201601191420 METAR COR EGLL 191420Z AUTO 29001KT 9999 NCD 05/M08 Q1017
                        NOSIG=
201601191350 METAR COR EGLL 191350Z AUTO 28003KT 9999 NCD 04/M06 Q1017
                        NOSIG=
201601191320 METAR COR EGLL 191320Z AUTO 26004KT 220V280 9999 NCD 05/M03
                        Q1017 NOSIG=
201601191250 METAR COR EGLL 191250Z AUTO VRB01KT 9999 NCD 05/M03 Q1017
                        NOSIG=
201601191220 METAR COR EGLL 191220Z AUTO VRB01KT 9999 NCD 04/M02 Q1017
                        NOSIG=
201601191150 METAR COR EGLL 191150Z AUTO 15001KT 9999 NCD 04/M03 Q1017
                        NOSIG=
201601191120 METAR COR EGLL 191120Z AUTO 16001KT 9999 NCD 04/M02 Q1017
                        NOSIG=
201601191050 METAR COR EGLL 191050Z AUTO 14001KT 9999 NCD 02/M02 Q1017
                        NOSIG=
201601191020 METAR COR EGLL 191020Z AUTO 36002KT 9000 NCD M00/M03 Q1017
                        NOSIG=
201601190950 METAR COR EGLL 190950Z AUTO 35002KT 8000 NCD M01/M03 Q1017
                        NOSIG=
201601190920 METAR COR EGLL 190920Z AUTO 36003KT 9999 NCD M01/M03 Q1017
                        NOSIG=
201601190850 METAR COR EGLL 190850Z AUTO 08001KT 9999 NCD M01/M03 Q1017
                        NOSIG=
201601190820 METAR COR EGLL 190820Z AUTO VRB02KT 9999 NCD M01/M03 Q1016
                        NOSIG=
201601190750 METAR COR EGLL 190750Z AUTO 05001KT 9999 NCD M01/M03 Q1016
                        NOSIG=
201601190720 METAR COR EGLL 190720Z AUTO 05001KT 9999 NCD M01/M03 Q1016
                        NOSIG=
201601190650 METAR COR EGLL 190650Z AUTO 36002KT 9999 NCD M01/M03 Q1016
                        NOSIG=
201601190620 METAR COR EGLL 190620Z AUTO 35002KT 9999 NCD M01/M03 Q1016
                        NOSIG=
201601190550 METAR COR EGLL 190550Z AUTO 36001KT 9999 NCD M01/M03 Q1016
                        NOSIG=
201601190520 METAR COR EGLL 190520Z AUTO 01002KT 9999 NCD M01/M03 Q1016
                        NOSIG=
201601190450 METAR COR EGLL 190450Z AUTO 36002KT 9999 NCD M01/M03 Q1016
                        NOSIG=
201601190420 METAR COR EGLL 190420Z AUTO 01001KT 9000 NCD M01/M03 Q1016
                        NOSIG=
201601190350 METAR COR EGLL 190350Z AUTO 36002KT 9999 NCD M01/M03 Q1016
                        NOSIG=
201601190320 METAR COR EGLL 190320Z AUTO 00000KT 9999 NCD M02/M03 Q1016
                        NOSIG=
201601190250 METAR COR EGLL 190250Z AUTO 04002KT 9999 NCD M02/M04 Q1016
                        NOSIG=
201601190220 METAR COR EGLL 190220Z AUTO 01002KT 9999 NCD M02/M04 Q1015
                        NOSIG=
201601190150 METAR COR EGLL 190150Z AUTO 34002KT 9999 NCD M02/M04 Q1015
                        NOSIG=
201601190120 METAR COR EGLL 190120Z AUTO 04001KT 9999 NCD M02/M04 Q1015
                        NOSIG=
201601190050 METAR COR EGLL 190050Z AUTO 05002KT 9999 NCD M02/M04 Q1015
                        NOSIG=
201601190020 METAR COR EGLL 190020Z AUTO 06002KT 9999 NCD M01/M04 Q1015
                        NOSIG=
201601182350 METAR COR EGLL 182350Z AUTO VRB02KT 9999 NCD M01/M04 Q1015
                        NOSIG=
201601182320 METAR COR EGLL 182320Z AUTO 06003KT 9999 NCD M01/M05 Q1015
                        NOSIG=
201601182250 METAR EGLL 182250Z AUTO 05003KT 9999 NCD M01/M04 Q1015=
201601182220 METAR COR EGLL 182220Z AUTO 07003KT 9999 NCD M01/M05 Q1015
                        NOSIG=
201601182150 METAR COR EGLL 182150Z AUTO 07003KT 9999 NCD M01/M04 Q1015
                        NOSIG=
201601182120 METAR COR EGLL 182120Z AUTO 05003KT 9999 NCD M00/M04 Q1015
                        NOSIG=
201601182050 METAR COR EGLL 182050Z AUTO 08004KT 9999 NCD M01/M04 Q1015
                        NOSIG=
201601182020 METAR COR EGLL 182020Z AUTO 09004KT 9999 NCD M01/M04 Q1015
                        NOSIG=
201601181950 METAR COR EGLL 181950Z AUTO 10006KT 9999 NCD M00/M04 Q1015
                        NOSIG=
201601181920 METAR COR EGLL 181920Z AUTO 11005KT 9999 NCD 00/M03 Q1014
                        NOSIG=
201601181850 METAR COR EGLL 181850Z AUTO 11005KT 9999 NCD 01/M03 Q1014
                        NOSIG=
201601181820 METAR COR EGLL 181820Z AUTO 11006KT 9999 NCD 01/M02 Q1014
                        NOSIG=
201601181750 METAR COR EGLL 181750Z AUTO 10007KT 9999 NCD 01/M01 Q1014
                        NOSIG=
201601181720 METAR COR EGLL 181720Z AUTO 10007KT 9999 NCD 02/M01 Q1014
                        NOSIG=
201601181650 METAR COR EGLL 181650Z AUTO 11006KT 9999 FEW022 02/M01 Q1014
                        NOSIG=
201601181620 METAR COR EGLL 181620Z AUTO 12006KT 9999 FEW024 03/M01 Q1013
                        NOSIG=
201601181550 METAR COR EGLL 181550Z AUTO 12008KT 9999 SCT024 04/M01 Q1013
                        NOSIG=
201601181520 METAR COR EGLL 181520Z AUTO 12007KT 9999 BKN022 04/M00 Q1013
                        NOSIG=
201601181450 METAR COR EGLL 181450Z AUTO 12007KT 9999 SCT023 05/00 Q1013
                        NOSIG=
201601181420 METAR COR EGLL 181420Z AUTO 15007KT 9999 SCT023 05/M00 Q1013
                        NOSIG=
201601181350 METAR COR EGLL 181350Z AUTO 14008KT 9999 BKN022 05/M00 Q1013
                        NOSIG=
201601181320 METAR COR EGLL 181320Z AUTO 15008KT 9999 BKN021 05/00 Q1013
                        NOSIG=
201601181250 METAR COR EGLL 181250Z AUTO 13008KT 9999 SCT019 05/01 Q1013
                        NOSIG=
201601181220 METAR COR EGLL 181220Z AUTO 13009KT 9999 SCT019 05/01 Q1013
                        NOSIG=
201601181150 METAR COR EGLL 181150Z AUTO 14009KT 9999 BKN018 05/01 Q1014
                        NOSIG=
201601181120 METAR COR EGLL 181120Z AUTO 13009KT 9999 SCT017 05/01 Q1014
                        NOSIG=
201601181050 METAR COR EGLL 181050Z AUTO 13009KT 9999 FEW018 05/01 Q1014
                        NOSIG=
201601181020 METAR COR EGLL 181020Z AUTO 13009KT 9999 FEW017 BKN025 04/01
                        Q1014 NOSIG=
201601180950 METAR COR EGLL 180950Z AUTO 13009KT 9999 FEW016 BKN026 04/01
                        Q1014 NOSIG=
201601180920 METAR COR EGLL 180920Z AUTO 12010KT 9999 FEW015 OVC026 04/01
                        Q1014 NOSIG=
201601180850 METAR COR EGLL 180850Z AUTO 12009KT 9999 SCT015 OVC027 04/01
                        Q1014 NOSIG=
201601180820 METAR COR EGLL 180820Z AUTO 12009KT 9999 BKN014 OVC026 04/01
                        Q1014 BECMG SCT014 BKN026=
201601180750 METAR COR EGLL 180750Z AUTO 12010KT 9999 SCT014 OVC026 04/01
                        Q1014 NOSIG=
201601180720 METAR COR EGLL 180720Z AUTO 12009KT 9999 BKN014 04/01 Q1014
                        BECMG BKN016=
201601180650 METAR COR EGLL 180650Z AUTO 12010KT 9999 BKN014 04/01 Q1014
                        TEMPO SCT014=
201601180620 METAR COR EGLL 180620Z AUTO 12009KT 9999 BKN013 04/01 Q1014
                        TEMPO SCT013 BKN015=
201601180550 METAR COR EGLL 180550Z AUTO 12009KT 9999 BKN014 04/01 Q1014
                        TEMPO SCT016=
201601180520 METAR COR EGLL 180520Z AUTO 12009KT 9999 BKN015 04/01 Q1015
                        TEMPO BKN014=
201601180450 METAR COR EGLL 180450Z AUTO 13008KT 9999 BKN015 04/01 Q1015
                        TEMPO BKN014=
201601180420 METAR COR EGLL 180420Z AUTO 13009KT 9999 BKN016 04/01 Q1015
                        TEMPO BKN014=
201601180350 METAR COR EGLL 180350Z AUTO 13009KT 9999 BKN016 04/01 Q1016
                        TEMPO BKN014=
201601180320 METAR COR EGLL 180320Z AUTO 13010KT 9999 BKN016 04/01 Q1016
                        TEMPO BKN014=
201601180250 METAR COR EGLL 180250Z AUTO 13010KT 9999 BKN016 04/02 Q1016
                        TEMPO BKN014=
201601180220 METAR COR EGLL 180220Z AUTO 14011KT 9999 BKN014 BKN027 05/02
                        Q1017 TEMPO SCT014=
201601180150 METAR COR EGLL 180150Z AUTO 13011KT 9999 OVC011 05/02 Q1017
                        TEMPO BKN009=
201601180120 METAR COR EGLL 180120Z AUTO 14009KT 9999 OVC010 05/03 Q1017
                        TEMPO BKN009=
201601180050 METAR COR EGLL 180050Z AUTO 14010KT 9999 OVC009 05/03 Q1018
                        TEMPO BKN010=
201601180020 METAR COR EGLL 180020Z AUTO 14010KT 9999 -RA OVC010 04/02
                        Q1018 TEMPO BKN008=
201601172350 METAR COR EGLL 172350Z AUTO 13010KT 9999 OVC010 04/02 Q1019
                        TEMPO BKN008=
201601172320 METAR COR EGLL 172320Z AUTO 13010KT 9999 OVC011 04/02 Q1019
                        TEMPO BKN009=
201601172250 METAR COR EGLL 172250Z AUTO 14012KT 9999 OVC012 04/02 Q1020
                        TEMPO BKN009=
201601172220 METAR COR EGLL 172220Z AUTO 13010KT 9999 OVC014 04/01 Q1020
                        NOSIG=
201601172150 METAR COR EGLL 172150Z AUTO 13011KT 9999 -RA OVC016 04/01
                        Q1020 TEMPO BKN014=
201601172120 METAR COR EGLL 172120Z AUTO 13010KT 9999 OVC018 04/01 Q1021
                        TEMPO BKN014=
201601172050 METAR COR EGLL 172050Z AUTO 13010KT 9999 -RA OVC020 04/01
                        Q1021 TEMPO BKN014=
201601172020 METAR COR EGLL 172020Z AUTO 12010KT 9999 OVC023 04/01 Q1021
                        TEMPO BKN014=
201601171950 METAR COR EGLL 171950Z AUTO 13008KT 9999 FEW021 04/01 Q1022
                        TEMPO BKN014=
201601171920 METAR COR EGLL 171920Z AUTO 13008KT 9999 NCD 04/01 Q1022
                        NOSIG=
201601171850 METAR COR EGLL 171850Z AUTO 13008KT 9999 NCD 04/01 Q1023
                        NOSIG=
201601171820 METAR COR EGLL 171820Z AUTO 13007KT 9999 NCD 04/01 Q1023
                        NOSIG=
201601171750 METAR COR EGLL 171750Z AUTO 11007KT 9999 NCD 03/01 Q1023
                        NOSIG=
201601171720 METAR COR EGLL 171720Z AUTO 11007KT 9999 NCD 03/01 Q1023
                        NOSIG=
201601171650 METAR COR EGLL 171650Z AUTO 10007KT 9999 NCD 04/01 Q1023
                        NOSIG=
201601171620 METAR COR EGLL 171620Z AUTO 11007KT 9999 FEW042 04/01 Q1023
                        NOSIG=
201601171550 METAR COR EGLL 171550Z AUTO 11007KT 9999 BKN039 04/01 Q1024
                        NOSIG=
201601171520 METAR COR EGLL 171520Z AUTO 12007KT 9999 OVC038 04/01 Q1024
                        NOSIG=
201601171450 METAR COR EGLL 171450Z AUTO 11007KT 9999 OVC038 04/01 Q1024
                        NOSIG=
201601171420 METAR COR EGLL 171420Z AUTO 13006KT 9999 BKN035 04/01 Q1025
                        NOSIG=
201601171350 METAR COR EGLL 171350Z AUTO 14006KT 9999 OVC034 04/01 Q1025
                        NOSIG=
201601171320 METAR COR EGLL 171320Z AUTO 12006KT 100V160 9999 FEW021 OVC034
                        03/01 Q1026 NOSIG=
201601171250 METAR COR EGLL 171250Z AUTO 13007KT 9999 OVC033 03/01 Q1026
                        NOSIG=
201601171220 METAR COR EGLL 171220Z AUTO 14007KT 9999 BKN032 OVC049 03/00
                        Q1026 NOSIG=
201601171150 METAR COR EGLL 171150Z AUTO 13006KT 9999 OVC047 03/00 Q1027
                        NOSIG=
201601171120 METAR COR EGLL 171120Z AUTO 13005KT 100V170 9999 OVC040 02/01
                        Q1027 NOSIG=
201601171050 METAR COR EGLL 171050Z AUTO 11004KT 9999 BKN035 02/01 Q1027
                        NOSIG=
201601171020 METAR COR EGLL 171020Z AUTO 08004KT 9999 OVC034 01/00 Q1027
                        NOSIG=
201601170950 METAR COR EGLL 170950Z AUTO 06003KT 9999 OVC035 01/00 Q1027
                        NOSIG=
201601170920 METAR COR EGLL 170920Z AUTO 09003KT 9999 BKN041 01/00 Q1027
                        NOSIG=
201601170850 METAR COR EGLL 170850Z AUTO 10004KT 9999 OVC042 01/00 Q1027
                        NOSIG=
201601170820 METAR EGLL 170820Z VRB02KT 9999 FEW035 BKN044 01/M00 Q1027=
201601170750 METAR COR EGLL 170750Z 11005KT 9999 FEW005 SCT021 01/M00
                        Q1027 NOSIG=
201601170720 METAR COR EGLL 170720Z AUTO 13006KT 3700 -SN FEW004 BKN014
                        00/M00 Q1027 BECMG 6000 NSW=
201601170650 METAR EGLL 170650Z AUTO 10005KT 3600 -SN SCT004 SCT011 OVC029
                        00/M00 Q1027=
201601170620 METAR COR EGLL 170620Z AUTO 09006KT 4000 -SN BKN003 OVC012
                        00/M00 Q1027 RESG TEMPO SCT003=
201601170550 METAR COR EGLL 170550Z AUTO 09006KT 2300 -SN BKN003 OVC025
                        00/M00 Q1027 RESG BECMG SCT003=
201601170520 METAR COR EGLL 170520Z AUTO 10005KT 3700 SG SCT002 BKN012
                        OVC026 00/M00 Q1027 BECMG SCT012=
201601170450 METAR COR EGLL 170450Z AUTO 10005KT 1900 -SN BKN002 OVC016
                        00/M00 Q1027 BECMG SCT002=
201601170420 METAR COR EGLL 170420Z AUTO 10004KT 2600 -SN BKN003 OVC012
                        00/M00 Q1027 TEMPO 4000=
201601170350 METAR COR EGLL 170350Z AUTO 10006KT 1400 R09L/P1500 -SN BKN003
                        OVC016 00/M00 Q1027 NOSIG=
201601170320 METAR COR EGLL 170320Z AUTO 11008KT 2200 -SN BKN003 BKN012
                        OVC028 01/M00 Q1027 TEMPO SN=
201601170250 METAR COR EGLL 170250Z AUTO 11006KT 3300 -SN BKN004 OVC028
                        01/00 Q1027 TEMPO SN=
201601170220 METAR COR EGLL 170220Z AUTO 11006KT 4400 -RA FEW004 OVC011
                        02/01 Q1027 TEMPO SN BKN005=
201601170150 METAR COR EGLL 170150Z AUTO 12006KT 4100 -RADZ SCT004 BKN017
                        02/01 Q1027 TEMPO BKN004=
201601170120 METAR COR EGLL 170120Z AUTO 10005KT 6000 FEW005 BKN018 BKN034
                        02/01 Q1028 BECMG BKN008=
201601170050 METAR COR EGLL 170050Z AUTO 09005KT 5000 -RA FEW020 BKN035
                        02/01 Q1028 TEMPO BKN014=
201601170020 METAR COR EGLL 170020Z AUTO 08003KT 6000 -RA BKN019 02/00
                        Q1028 TEMPO BKN014=
201601162350 METAR COR EGLL 162350Z AUTO 07004KT 9000 -RA BKN020 OVC046
                        02/00 Q1028 TEMPO BKN014=
201601162320 METAR COR EGLL 162320Z AUTO 08003KT 9000 -RASN BKN014 OVC042
                        02/00 Q1029 NOSIG=
201601162250 METAR COR EGLL 162250Z AUTO 34002KT 9999 -RA BKN014 OVC040
                        02/00 Q1029 TEMPO RASN=
201601162220 METAR COR EGLL 162220Z AUTO 32002KT 6000 -RA BKN019 OVC035
                        03/M00 Q1028 TEMPO RASN=
201601162150 METAR COR EGLL 162150Z AUTO 32002KT 9999 -RA OVC023 03/M00
                        Q1028 NOSIG=
201601162120 METAR COR EGLL 162120Z AUTO 27007KT 9999 -RA OVC026 03/M00
                        Q1028 NOSIG=
201601162050 METAR COR EGLL 162050Z AUTO 27006KT 9999 BKN031 03/M00 Q1028
                        NOSIG=
201601162020 METAR COR EGLL 162020Z AUTO 27005KT 9999 BKN033 03/M00 Q1029
                        NOSIG=
201601161950 METAR COR EGLL 161950Z AUTO 28004KT 9999 BKN037 03/M00 Q1029
                        NOSIG=
201601161920 METAR COR EGLL 161920Z AUTO 29005KT 9999 NCD 03/M00 Q1029
                        NOSIG=
201601161850 METAR COR EGLL 161850Z AUTO 27004KT 9999 NCD 03/M00 Q1029
                        NOSIG=
201601161820 METAR COR EGLL 161820Z AUTO 30002KT 9999 NCD 03/M00 Q1029
                        NOSIG=
201601161750 METAR COR EGLL 161750Z AUTO 30002KT 9999 NCD 03/M00 Q1029
                        NOSIG=
201601161720 METAR COR EGLL 161720Z AUTO 30003KT 9999 NCD 02/M01 Q1029
                        NOSIG=
201601161650 METAR COR EGLL 161650Z AUTO 31004KT 9999 NCD 02/M01 Q1029
                        NOSIG=
201601161620 METAR COR EGLL 161620Z AUTO 28006KT 9999 NCD 03/M01 Q1029
                        NOSIG=
201601161550 METAR COR EGLL 161550Z AUTO 28007KT 9999 NCD 04/M01 Q1029
                        NOSIG=
201601161520 METAR COR EGLL 161520Z AUTO 27007KT 9999 NCD 04/M00 Q1029
                        NOSIG=
201601161450 METAR COR EGLL 161450Z AUTO 29005KT 9999 NCD 04/M01 Q1029
                        NOSIG=
201601161420 METAR COR EGLL 161420Z AUTO 29005KT 9999 NCD 05/M01 Q1029
                        NOSIG=
201601161350 METAR COR EGLL 161350Z AUTO 29005KT 250V320 9999 NCD 05/M01
                        Q1029 NOSIG=
201601161320 METAR EGLL 161320Z AUTO 27006KT 9999 NCD 04/M00 Q1029=
201601161250 METAR COR EGLL 161250Z AUTO 27006KT 9999 NCD 04/M00 Q1029
                        NOSIG=
201601161220 METAR COR EGLL 161220Z AUTO 29005KT 260V340 9999 NCD 04/M01
                        Q1030 NOSIG=
201601161150 METAR COR EGLL 161150Z AUTO 28005KT 9999 NCD 04/M01 Q1030
                        NOSIG=
201601161120 METAR COR EGLL 161120Z AUTO 29005KT 9999 NCD 03/M01 Q1030
                        NOSIG=
201601161050 METAR EGLL 161050Z AUTO VRB03KT 9999 NCD 03/M01 Q1030=
201601161020 METAR COR EGLL 161020Z AUTO VRB03KT 9999 NCD 02/M01 Q1030
                        NOSIG=
201601160950 METAR COR EGLL 160950Z AUTO 29004KT 9999 NCD 01/M01 Q1029
                        NOSIG=
201601160920 METAR COR EGLL 160920Z AUTO 29006KT 9000 NCD 01/M02 Q1029
                        NOSIG=
201601160850 METAR COR EGLL 160850Z AUTO 28008KT 9000 NCD 00/M02 Q1029
                        NOSIG=
201601160820 METAR COR EGLL 160820Z AUTO 28006KT 9000 NCD 00/M02 Q1029
                        NOSIG=
201601160750 METAR COR EGLL 160750Z AUTO 28005KT 9999 NCD 00/M02 Q1028
                        NOSIG=
201601160720 METAR COR EGLL 160720Z AUTO 28004KT 9000 NCD 00/M02 Q1028
                        NOSIG=
201601160650 METAR COR EGLL 160650Z AUTO 28004KT 9999 FEW049 01/M02 Q1028
                        NOSIG=
201601160620 METAR COR EGLL 160620Z AUTO 30005KT 9999 NCD 01/M02 Q1028
                        NOSIG=
201601160550 METAR COR EGLL 160550Z AUTO 30005KT 9999 NCD 00/M02 Q1028
                        NOSIG=
201601160520 METAR COR EGLL 160520Z AUTO 29004KT 9000 NCD M01/M02 Q1028
                        NOSIG=
201601160450 METAR COR EGLL 160450Z AUTO 29004KT 9999 NCD M00/M02 Q1028
                        NOSIG=
201601160420 METAR COR EGLL 160420Z AUTO 29003KT 9999 NCD 00/M02 Q1028
                        NOSIG=
201601160350 METAR COR EGLL 160350Z AUTO 29004KT 9999 FEW044 01/M01 Q1028
                        NOSIG=
201601160320 METAR COR EGLL 160320Z AUTO 29005KT 9999 FEW044 02/M00 Q1027
                        NOSIG=
201601160250 METAR COR EGLL 160250Z AUTO 29006KT 9999 SCT036 02/M00 Q1027
                        NOSIG=
201601160220 METAR COR EGLL 160220Z AUTO 29006KT 9999 BKN023 02/00 Q1027
                        NOSIG=
201601160150 METAR COR EGLL 160150Z AUTO 30007KT 9999 OVC024 02/00 Q1027
                        NOSIG=
201601160120 METAR COR EGLL 160120Z AUTO 30005KT 9999 SCT027 02/M00 Q1027
                        NOSIG=
201601160050 METAR COR EGLL 160050Z AUTO 29006KT 9999 SCT025 02/M00 Q1026
                        NOSIG=
201601160020 METAR COR EGLL 160020Z AUTO VRB03KT 9999 BKN026 01/M01 Q1026
                        NOSIG=
201601152350 METAR COR EGLL 152350Z AUTO 29005KT 9999 SCT027 01/M01 Q1026
                        NOSIG=
201601152320 METAR EGLL 152320Z AUTO 29005KT 9999 FEW020 02/M01 Q1026=
201601152250 METAR COR EGLL 152250Z AUTO 29006KT 9999 SCT024 03/M01 Q1025
                        NOSIG=
201601152220 METAR COR EGLL 152220Z AUTO 29005KT 9999 FEW026 02/M01 Q1025
                        NOSIG=
201601152150 METAR COR EGLL 152150Z AUTO 30006KT 9999 BKN024 03/M01 Q1025
                        NOSIG=
201601152120 METAR COR EGLL 152120Z AUTO 29008KT 9999 OVC025 03/M01 Q1025
                        NOSIG=
201601152050 METAR COR EGLL 152050Z AUTO 28009KT 9999 BKN027 03/M01 Q1024
                        NOSIG=
201601152020 METAR COR EGLL 152020Z AUTO 27011KT 9999 BKN033 02/M01 Q1024
                        NOSIG=
201601151950 METAR COR EGLL 151950Z AUTO 27009KT 9999 SCT037 02/M01 Q1024
                        NOSIG=
201601151920 METAR COR EGLL 151920Z AUTO 29010KT 9999 NCD 03/M01 Q1024
                        NOSIG=
201601151850 METAR COR EGLL 151850Z AUTO 28008KT 9999 NCD 02/M01 Q1024
                        NOSIG=
201601151820 METAR COR EGLL 151820Z AUTO 28007KT 9999 NCD 03/M00 Q1024
                        TEMPO BKN014=
201601151750 METAR COR EGLL 151750Z AUTO 30007KT 9999 NCD 03/M01 Q1024
                        NOSIG=
201601151720 METAR COR EGLL 151720Z AUTO 29008KT 9999 NCD 04/M01 Q1023
                        NOSIG=
201601151650 METAR EGLL 151650Z AUTO 29008KT 9999 NCD 04/M00 Q1023=
201601151620 METAR COR EGLL 151620Z AUTO 30009KT 9999 FEW040 05/M01 Q1023
                        NOSIG=
201601151550 METAR COR EGLL 151550Z AUTO 31010KT 9999 SCT029 05/M01 Q1023
                        NOSIG=
201601151520 METAR COR EGLL 151520Z AUTO 31009KT 9999 FEW029 05/M01 Q1022
                        NOSIG=
201601151450 METAR COR EGLL 151450Z AUTO 32008KT 290V350 9999 FEW030 06/M01
                        Q1022 NOSIG=
201601151420 METAR COR EGLL 151420Z AUTO 31008KT 280V340 9999 SCT027 06/M01
                        Q1021 NOSIG=
201601151350 METAR COR EGLL 151350Z AUTO 32009KT 290V360 9999 BKN026 06/M01
                        Q1021 NOSIG=
201601151320 METAR COR EGLL 151320Z AUTO 31009KT 9999 SCT029 06/M01 Q1021
                        NOSIG=
201601151250 METAR COR EGLL 151250Z AUTO 31010KT 9999 NCD 06/M01 Q1021
                        NOSIG=
201601151220 METAR COR EGLL 151220Z AUTO 32008KT 290V010 9999 NCD 05/M02
                        Q1021 NOSIG=
201601151150 METAR COR EGLL 151150Z AUTO 34006KT 290V020 9999 NCD 05/M02
                        Q1021 NOSIG=
201601151120 METAR COR EGLL 151120Z AUTO 33008KT 280V010 9999 FEW028 04/M01
                        Q1020 NOSIG=
201601151050 METAR COR EGLL 151050Z AUTO 31010KT 9999 NCD 04/M01 Q1020
                        NOSIG=
201601151020 METAR COR EGLL 151020Z AUTO 30009KT 9999 FEW021 03/M01 Q1020
                        NOSIG=
201601150950 METAR COR EGLL 150950Z AUTO 30008KT 9999 SCT018 03/M01 Q1019
                        NOSIG=
201601150920 METAR COR EGLL 150920Z AUTO 30009KT 9999 BKN018 02/M01 Q1019
                        NOSIG=
201601150850 METAR COR EGLL 150850Z AUTO 29008KT 9999 SCT019 02/M01 Q1018
                        NOSIG=
201601150820 METAR COR EGLL 150820Z AUTO 29008KT 9999 FEW021 01/M01 Q1018
                        TEMPO BKN014=
201601150750 METAR EGLL 150750Z AUTO 29008KT 9999 BKN019 02/M01 Q1018=
201601150720 METAR COR EGLL 150720Z AUTO 30006KT 270V340 9999 FEW018 02/M01
                        Q1017 NOSIG=
201601150650 METAR COR EGLL 150650Z AUTO 29009KT 9999 SCT018 02/M01 Q1017
                        NOSIG=
201601150620 METAR COR EGLL 150620Z AUTO 29009KT 9999 BKN018 02/M01 Q1017
                        NOSIG=
201601150550 METAR EGLL 150550Z AUTO 28006KT 9999 FEW018 00/M01 Q1017=
201601150520 METAR COR EGLL 150520Z AUTO 29006KT 9999 NCD 01/M01 Q1017
                        NOSIG=
201601150450 METAR COR EGLL 150450Z AUTO 29008KT 9999 FEW016 01/M01 Q1016
                        NOSIG=
201601150420 METAR COR EGLL 150420Z AUTO 29009KT 9999 NCD 01/M01 Q1016
                        NOSIG=
201601150350 METAR COR EGLL 150350Z AUTO 29010KT 9999 NCD 02/M01 Q1016
                        NOSIG=
201601150320 METAR COR EGLL 150320Z AUTO 30008KT 9999 NCD 02/M01 Q1015
                        NOSIG=
201601150250 METAR COR EGLL 150250Z AUTO 28011KT 9999 NCD 01/M01 Q1015
                        NOSIG=
201601150220 METAR COR EGLL 150220Z AUTO 29009KT 9999 NCD 01/M01 Q1015
                        NOSIG=
201601150150 METAR COR EGLL 150150Z AUTO 28008KT 9999 NCD 01/M02 Q1015
                        NOSIG=
201601150120 METAR COR EGLL 150120Z AUTO 28008KT 9999 NCD 01/M01 Q1015
                        NOSIG=
201601150050 METAR COR EGLL 150050Z AUTO 29009KT 9999 NCD 01/M01 Q1014
                        NOSIG=
201601150020 METAR COR EGLL 150020Z AUTO 29010KT 9999 NCD 02/M02 Q1014
                        NOSIG=
201601142350 METAR COR EGLL 142350Z AUTO 29010KT 9999 NCD 02/M02 Q1014
                        NOSIG=
201601142320 METAR COR EGLL 142320Z AUTO 29010KT 9999 NCD 02/M02 Q1014
                        NOSIG=
201601142250 METAR COR EGLL 142250Z AUTO 29009KT 9999 NCD 02/M03 Q1014
                        NOSIG=
201601142220 METAR COR EGLL 142220Z AUTO 30010KT 9999 NCD 03/M03 Q1013
                        NOSIG=
201601142150 METAR COR EGLL 142150Z AUTO 30012KT 9999 NCD 03/M03 Q1013
                        NOSIG=
201601142120 METAR COR EGLL 142120Z AUTO 30012G25KT 9999 NCD 03/M03 Q1012
                        NOSIG=
201601142050 METAR COR EGLL 142050Z AUTO 30013KT 9999 NCD 03/M03 Q1012
                        NOSIG=
201601142020 METAR COR EGLL 142020Z AUTO 30013KT 9999 NCD 03/M03 Q1012
                        NOSIG=
201601141950 METAR COR EGLL 141950Z AUTO 30013KT 9999 NCD 03/M03 Q1012
                        NOSIG=
201601141920 METAR COR EGLL 141920Z AUTO 30013KT 9999 NCD 03/M03 Q1011
                        NOSIG=
201601141850 METAR EGLL 141850Z AUTO 30013KT 9999 NCD 03/M03 Q1011=
201601141820 METAR COR EGLL 141820Z AUTO 30014KT 9999 NCD 03/M04 Q1010
                        NOSIG=
201601141750 METAR COR EGLL 141750Z AUTO 30014G25KT 9999 NCD 04/M04 Q1010
                        NOSIG=
201601141720 METAR COR EGLL 141720Z AUTO 30013KT 9999 NCD 04/M04 Q1010
                        NOSIG=
201601141650 METAR COR EGLL 141650Z AUTO 30011KT 9999 NCD 04/M04 Q1009
                        NOSIG=
201601141620 METAR COR EGLL 141620Z AUTO 30015KT 9999 FEW036 04/M03 Q1009
                        NOSIG=
201601141550 METAR COR EGLL 141550Z AUTO 30017G29KT 9999 SCT033 05/M02
                        Q1008 TEMPO 29014KT=
201601141520 METAR COR EGLL 141520Z AUTO 30011G22KT 9999 BKN030 05/M01
                        Q1008 NOSIG=
201601141450 METAR COR EGLL 141450Z AUTO 30013KT 9999 OVC027 05/M00 Q1007
                        NOSIG=
201601141420 METAR COR EGLL 141420Z AUTO 30014G27KT 260V330 9999 BKN027
                        05/00 Q1007 NOSIG=
201601141350 METAR COR EGLL 141350Z AUTO 31012KT 280V340 9999 BKN022 05/00
                        Q1006 NOSIG=
201601141320 METAR COR EGLL 141320Z AUTO 31013KT 280V340 9999 OVC022 05/01
                        Q1006 NOSIG=
201601141250 METAR COR EGLL 141250Z AUTO 29014KT 9999 OVC022 05/01 Q1005
                        NOSIG=
201601141220 METAR COR EGLL 141220Z AUTO 29013KT 9999 BKN020 OVC047 05/01
                        Q1005 NOSIG=
201601141150 METAR COR EGLL 141150Z AUTO 28013KT 9999 BKN017 OVC034 05/01
                        Q1005 NOSIG=
201601141120 METAR COR EGLL 141120Z AUTO 29012KT 9999 BKN019 05/01 Q1005
                        NOSIG=
201601141050 METAR COR EGLL 141050Z AUTO 28013KT 9999 BKN021 05/01 Q1005
                        NOSIG=
201601141020 METAR COR EGLL 141020Z AUTO 27012KT 9999 OVC021 04/01 Q1004
                        NOSIG=
201601140950 METAR COR EGLL 140950Z AUTO 27011KT 9999 FEW014 BKN027 OVC041
                        03/01 Q1004 TEMPO BKN014=
201601140920 METAR COR EGLL 140920Z AUTO 27011KT 9999 -RA BKN015 03/01
                        Q1004 NOSIG=
201601140850 METAR COR EGLL 140850Z AUTO 25012KT 9999 FEW036 03/01 Q1004
                        TEMPO -RASN=
201601140820 METAR COR EGLL 140820Z AUTO 24010KT 9999 NCD 02/00 Q1003
                        TEMPO -RASN=
201601140750 METAR COR EGLL 140750Z AUTO 24011KT 9999 NCD 03/00 Q1003
                        NOSIG=
201601140720 METAR COR EGLL 140720Z AUTO 24012KT 9999 NCD 03/00 Q1003
                        NOSIG=
201601140650 METAR COR EGLL 140650Z AUTO 25010KT 9999 NCD 03/00 Q1003
                        NOSIG=
201601140620 METAR COR EGLL 140620Z AUTO 26010KT 9999 NCD 03/01 Q1003
                        NOSIG=
201601140550 METAR COR EGLL 140550Z AUTO 26011KT 9999 NCD 03/01 Q1003
                        NOSIG=
201601140520 METAR COR EGLL 140520Z AUTO 25010KT 9999 NCD 03/01 Q1003
                        NOSIG=
201601140450 METAR EGLL 140450Z AUTO 25011KT 9999 NCD 03/01 Q1004=
201601140420 METAR COR EGLL 140420Z AUTO 25011KT 9999 NCD 03/02 Q1004
                        NOSIG=
201601140350 METAR COR EGLL 140350Z AUTO 26010KT 9999 NCD 04/02 Q1004
                        NOSIG=
201601140320 METAR COR EGLL 140320Z AUTO 25010KT 9999 NCD 04/02 Q1004
                        NOSIG=
201601140250 METAR COR EGLL 140250Z AUTO 25008KT 9999 NCD 04/03 Q1004
                        NOSIG=
201601140220 METAR EGLL 140220Z AUTO 24007KT 9999 FEW013 05/03 Q1005=
201601140150 METAR EGLL 140150Z AUTO 26010KT 9999 -RA BKN013 BKN023 BKN040
                        05/03 Q1005=
201601140120 METAR COR EGLL 140120Z AUTO 25011KT 9999 -RA SCT010 BKN023
                        BKN035 05/04 Q1005 NOSIG=
201601140050 METAR EGLL 140050Z AUTO 21009KT 9999 -RA BKN008 OVC022 05/04
                        Q1005=
201601140020 METAR COR EGLL 140020Z AUTO 20008KT 9999 -RA BKN018/// //////TCU
                        05/04 Q1006 TEMPO SHRA=
201601132350 METAR COR EGLL 132350Z AUTO 19009KT 9999 -RA SCT019 BKN033
                        05/04 Q1006 TEMPO SHRA=
201601132320 METAR COR EGLL 132320Z AUTO 18009KT 9999 SCT029 SCT045 05/03
                        Q1007 TEMPO SHRA=
201601132250 METAR COR EGLL 132250Z AUTO 19010KT 160V240 9999 -RA FEW030///
                        //////TCU 05/03 Q1007 TEMPO SHRA=
201601132220 METAR COR EGLL 132220Z AUTO 19010KT 170V230 9999 -RA BKN027///
                        BKN043/// //////TCU 05/03 Q1008 TEMPO
                        SHRA BKN014=
201601132150 METAR COR EGLL 132150Z AUTO 19011KT 160V230 9999 -RA SCT029///
                        BKN048/// //////TCU 04/03 Q1008 TEMPO
                        SHRA BKN014=
201601132120 METAR COR EGLL 132120Z AUTO 20010KT 160V250 9999 -RA FEW016///
                        BKN030/// BKN046/// //////TCU 05/03
                        Q1009 TEMPO SHRA BKN014=
201601132050 METAR COR EGLL 132050Z AUTO 21017KT 7000 -RA SCT011/// BKN023///
                        OVC043/// //////CB 05/03 Q1010 TEMPO
                        SHRA BKN012=
201601132020 METAR COR EGLL 132020Z AUTO 19010KT 9999 FEW042/// //////TCU
                        05/03 Q1010 TEMPO SHRA=
201601131950 METAR COR EGLL 131950Z AUTO 20011KT 9999 FEW029 05/03 Q1010
                        TEMPO SHRA=
201601131920 METAR COR EGLL 131920Z AUTO 20010KT 180V240 9999 FEW026 06/02
                        Q1011 TEMPO SHRA=
201601131850 METAR COR EGLL 131850Z AUTO 19009KT 9999 FEW047 05/02 Q1011
                        TEMPO SHRA=
201601131820 METAR COR EGLL 131820Z AUTO 19008KT 150V240 9999 FEW043 05/02
                        Q1012 TEMPO SHRA=
201601131750 METAR COR EGLL 131750Z AUTO 18007KT 150V220 9999 NCD 05/01
                        Q1012 NOSIG=
201601131720 METAR COR EGLL 131720Z AUTO 18008KT 160V230 9999 NCD 05/01
                        Q1012 NOSIG=
201601131650 METAR COR EGLL 131650Z AUTO 18007KT 110V240 9999 NCD 05/01
                        Q1013 NOSIG=
201601131620 METAR COR EGLL 131620Z AUTO 18006KT 140V230 9999 NCD 05/01
                        Q1013 NOSIG=
201601131550 METAR COR EGLL 131550Z AUTO 18006KT 140V230 9999 NCD 06/01
                        Q1014 NOSIG=
201601131520 METAR COR EGLL 131520Z AUTO 21007KT 9999 NCD 06/01 Q1014
                        NOSIG=
201601131450 METAR COR EGLL 131450Z AUTO 22008G18KT 9999 NCD 06/00 Q1014
                        NOSIG=
201601131420 METAR COR EGLL 131420Z AUTO 22011KT 9999 NCD 07/00 Q1015
                        NOSIG=
201601131350 METAR COR EGLL 131350Z AUTO 23009KT 9999 NCD 07/01 Q1015
                        NOSIG=
201601131320 METAR COR EGLL 131320Z AUTO 24008KT 9999 NCD 07/00 Q1015
                        NOSIG=
201601131250 METAR COR EGLL 131250Z AUTO 25010KT 9999 NCD 06/M00 Q1016
                        NOSIG=
201601131220 METAR COR EGLL 131220Z AUTO 25009KT 9999 NCD 06/00 Q1016
                        NOSIG=
201601131150 METAR COR EGLL 131150Z AUTO 26011KT 9999 NCD 06/01 Q1016
                        NOSIG=
201601131120 METAR COR EGLL 131120Z AUTO 27010KT 9999 NCD 05/01 Q1016
                        NOSIG=
201601131050 METAR COR EGLL 131050Z AUTO 27010KT 9999 NCD 05/01 Q1016
                        NOSIG=
201601131020 METAR COR EGLL 131020Z AUTO 27010KT 9999 NCD 05/01 Q1016
                        NOSIG=
201601130950 METAR COR EGLL 130950Z AUTO 27011KT 9999 NCD 05/01 Q1016
                        NOSIG=
201601130920 METAR COR EGLL 130920Z AUTO 27010KT 9999 NCD 04/01 Q1016
                        NOSIG=
201601130850 METAR COR EGLL 130850Z AUTO 27010KT 9999 NCD 03/00 Q1016
                        NOSIG=
201601130820 METAR COR EGLL 130820Z AUTO 26011KT 9999 NCD 03/00 Q1016
                        NOSIG=
201601130750 METAR COR EGLL 130750Z AUTO 27010KT 9999 NCD 03/00 Q1015
                        NOSIG=
201601130720 METAR COR EGLL 130720Z AUTO 27009KT 9999 NCD 03/00 Q1015
                        NOSIG=
201601130650 METAR COR EGLL 130650Z AUTO 27009KT 9999 NCD 03/00 Q1015
                        NOSIG=
201601130620 METAR COR EGLL 130620Z AUTO 26009KT 9999 NCD 02/M00 Q1015
                        NOSIG=
201601130550 METAR COR EGLL 130550Z AUTO 27008KT 9999 NCD 02/M00 Q1015
                        NOSIG=
201601130520 METAR COR EGLL 130520Z AUTO 27009KT 9999 NCD 02/M00 Q1014
                        NOSIG=
201601130450 METAR COR EGLL 130450Z AUTO 26009KT 9999 NCD 03/00 Q1014
                        NOSIG=
201601130420 METAR COR EGLL 130420Z AUTO 27008KT 9999 NCD 03/01 Q1013
                        NOSIG=
201601130350 METAR COR EGLL 130350Z AUTO 27010KT 9999 FEW039 03/01 Q1013
                        NOSIG=
201601130320 METAR COR EGLL 130320Z AUTO 28010KT 9999 BKN030 04/01 Q1012
                        NOSIG=
201601130250 METAR COR EGLL 130250Z AUTO 29009KT 9999 BKN029 05/02 Q1012
                        NOSIG=
201601130220 METAR COR EGLL 130220Z AUTO 29009KT 9999 BKN028 05/02 Q1011
                        NOSIG=
201601130150 METAR COR EGLL 130150Z AUTO 29012KT 9999 BKN023 05/02 Q1011
                        NOSIG=
201601130120 METAR COR EGLL 130120Z AUTO 28012KT 9999 OVC018 05/03 Q1010
                        NOSIG=
201601130050 METAR COR EGLL 130050Z AUTO 29010KT 9999 SCT015 BKN027 05/03
                        Q1010 NOSIG=
201601130020 METAR COR EGLL 130020Z AUTO 30011KT 9999 SCT015 SCT041 BKN049
                        05/03 Q1010 TEMPO BKN014=
201601122350 METAR COR EGLL 122350Z AUTO 30013KT 9999 -RA BKN014 05/03
                        Q1009 TEMPO BKN016=
201601122320 METAR COR EGLL 122320Z AUTO 30011G23KT 9999 -RA OVC015///
                        05/03 Q1008 TEMPO BKN014=
201601122250 METAR COR EGLL 122250Z AUTO 30012KT 9999 -RA BKN016 05/03
                        Q1008 TEMPO BKN014=
201601122220 METAR COR EGLL 122220Z AUTO 29014KT 9999 -RA OVC015 05/03
                        Q1007 TEMPO BKN014=
201601122150 METAR COR EGLL 122150Z AUTO 30011KT 9999 OVC016 05/02 Q1006
                        TEMPO BKN014=
201601122120 METAR COR EGLL 122120Z AUTO 30012KT 9999 OVC017 06/02 Q1005
                        TEMPO BKN014=
201601122050 METAR COR EGLL 122050Z AUTO 29015KT 9999 OVC018 06/03 Q1004
                        TEMPO BKN014=
201601122020 METAR COR EGLL 122020Z AUTO 29016KT 9999 -RA BKN018 06/03
                        Q1004 TEMPO BKN014=
201601121950 METAR COR EGLL 121950Z AUTO 29015KT 9999 OVC021 06/03 Q1003
                        NOSIG=
201601121920 METAR COR EGLL 121920Z AUTO 29016KT 9999 -RA BKN024/// //////TCU
                        06/03 Q1002 NOSIG=
201601121850 METAR COR EGLL 121850Z AUTO 28016KT 9999 -RA BKN024/// //////TCU
                        06/03 Q1002 NOSIG=
201601121820 METAR COR EGLL 121820Z AUTO 28014KT 9999 FEW031 06/02 Q1001
                        TEMPO SHRA=
201601121750 METAR COR EGLL 121750Z AUTO 26013KT 9999 BKN026 06/03 Q1001
                        TEMPO SHRA=
201601121720 METAR COR EGLL 121720Z AUTO 27016KT 9999 SCT036 06/03 Q1001
                        TEMPO SHRA=
201601121650 METAR COR EGLL 121650Z AUTO 28011KT 9999 FEW022 05/03 Q1000
                        TEMPO SHRA=
201601121620 METAR COR EGLL 121620Z AUTO 28015KT 9999 FEW021 06/03 Q1000
                        TEMPO SHRA BKN014=
201601121550 METAR COR EGLL 121550Z AUTO 27015KT 9999 FEW032 05/03 Q0999
                        TEMPO SHRA BKN014=
201601121520 METAR COR EGLL 121520Z AUTO 27019KT 9999 FEW017/// //////TCU
                        06/03 Q0999 NOSIG=
201601121450 METAR COR EGLL 121450Z AUTO 27014KT 9999 -RA BKN021 07/04
                        Q0998 NOSIG=
201601121420 METAR COR EGLL 121420Z AUTO 28015KT 9999 -RA BKN016/// //////TCU
                        06/04 Q0998 TEMPO 7000 BKN014=
201601121350 METAR COR EGLL 121350Z AUTO 27017KT 9999 BKN022 07/03 Q0997
                        TEMPO SHRA BKN014=
201601121320 METAR COR EGLL 121320Z AUTO 27015KT 9999 BKN023 07/03 Q0997
                        TEMPO SHRA BKN014=
201601121250 METAR COR EGLL 121250Z AUTO 26013KT 9999 OVC024 07/03 Q0997
                        TEMPO BKN014=
201601121220 METAR COR EGLL 121220Z AUTO 25015KT 9999 OVC025 07/02 Q0997
                        TEMPO SHRA BKN014=
201601121150 METAR COR EGLL 121150Z AUTO 26014G24KT 9999 OVC024 07/02
                        Q0997 TEMPO SHRA BKN014=
201601121120 METAR COR EGLL 121120Z AUTO 26016KT 9999 OVC024 07/02 Q0997
                        NOSIG=
201601121050 METAR COR EGLL 121050Z AUTO 25016KT 9999 OVC025 07/02 Q0997
                        NOSIG=
201601121020 METAR COR EGLL 121020Z AUTO 25014KT 9999 SCT026 06/02 Q0996
                        NOSIG=
201601120950 METAR COR EGLL 120950Z AUTO 25012KT 9999 FEW026 06/02 Q0996
                        NOSIG=
201601120920 METAR COR EGLL 120920Z AUTO 25014KT 9999 NCD 05/02 Q0996
                        NOSIG=
201601120850 METAR COR EGLL 120850Z AUTO 25012KT 9999 NCD 05/02 Q0996
                        NOSIG=
201601120820 METAR COR EGLL 120820Z AUTO 26015KT 9999 NCD 04/02 Q0995
                        NOSIG=
201601120750 METAR COR EGLL 120750Z AUTO 26015KT 9999 NCD 05/02 Q0995
                        NOSIG=
201601120720 METAR COR EGLL 120720Z AUTO 26016KT 9999 NCD 05/02 Q0995
                        NOSIG=
201601120650 METAR COR EGLL 120650Z AUTO 25013KT 9999 NCD 05/02 Q0995
                        NOSIG=
201601120620 METAR COR EGLL 120620Z AUTO 25011KT 9999 FEW019 05/02 Q0994
                        NOSIG=
201601120550 METAR COR EGLL 120550Z AUTO 25012KT 9999 BKN023 05/02 Q0994
                        NOSIG=
201601120520 METAR COR EGLL 120520Z AUTO 26011KT 9999 BKN024 05/03 Q0994
                        NOSIG=
201601120450 METAR COR EGLL 120450Z AUTO 26013KT 9999 SCT035 05/03 Q0994
                        NOSIG=
201601120420 METAR COR EGLL 120420Z AUTO 26015KT 9999 FEW030 05/03 Q0993
                        NOSIG=
201601120350 METAR COR EGLL 120350Z AUTO 27014KT 9999 SCT031 05/03 Q0993
                        NOSIG=
201601120320 METAR COR EGLL 120320Z AUTO 25010KT 9999 NCD 05/03 Q0993
                        NOSIG=
201601120250 METAR COR EGLL 120250Z AUTO 26011KT 9999 NCD 05/03 Q0993
                        NOSIG=
201601120220 METAR COR EGLL 120220Z AUTO 26011KT 9999 SCT046 05/03 Q0992
                        NOSIG=
201601120150 METAR COR EGLL 120150Z AUTO 26011KT 9999 BKN038 05/03 Q0992
                        NOSIG=
201601120120 METAR COR EGLL 120120Z AUTO 26011KT 9999 SCT041 05/03 Q0992
                        NOSIG=
201601120050 METAR COR EGLL 120050Z AUTO 27007KT 9999 OVC040 04/03 Q0991
                        NOSIG=
201601120020 METAR COR EGLL 120020Z AUTO 27007KT 9999 FEW040 04/03 Q0991
                        NOSIG=
201601112350 METAR COR EGLL 112350Z AUTO 26007KT 9999 NCD 04/03 Q0990
                        NOSIG=
201601112320 METAR COR EGLL 112320Z AUTO 27008KT 9999 SCT042 04/03 Q0990
                        NOSIG=
201601112250 METAR COR EGLL 112250Z AUTO 27010KT 9999 BKN038 05/03 Q0989
                        NOSIG=
201601112220 METAR COR EGLL 112220Z AUTO 26011KT 9999 BKN031 05/03 Q0989
                        NOSIG=
201601112150 METAR COR EGLL 112150Z AUTO 26009KT 9999 FEW029 05/03 Q0988
                        NOSIG=
201601112120 METAR COR EGLL 112120Z AUTO 27011KT 9999 NCD 05/03 Q0988
                        NOSIG=
201601112050 METAR COR EGLL 112050Z AUTO 28008KT 9999 NCD 05/03 Q0987
                        NOSIG=
201601112020 METAR COR EGLL 112020Z AUTO 27009KT 9999 FEW024 05/04 Q0987
                        NOSIG=
201601111950 METAR COR EGLL 111950Z AUTO 27009KT 9999 SCT013 BKN024 06/04
                        Q0986 NOSIG=
201601111920 METAR COR EGLL 111920Z AUTO 28006KT 9999 BKN025 05/04 Q0986
                        NOSIG=
201601111850 METAR COR EGLL 111850Z AUTO 27010KT 9999 FEW014 BKN019 06/05
                        Q0986 NOSIG=
201601111820 METAR COR EGLL 111820Z AUTO 27011KT 9999 BKN029 06/05 Q0985
                        NOSIG=
201601111750 METAR COR EGLL 111750Z AUTO 28008KT 9999 FEW015/// SCT029///
                        //////TCU 06/04 Q0985 NOSIG=
201601111720 METAR COR EGLL 111720Z AUTO 27011KT 9999 FEW009/// OVC022///
                        //////TCU 06/05 Q0984 NOSIG=
201601111650 METAR COR EGLL 111650Z AUTO 27010KT 9999 -RA SCT015 SCT025
                        06/05 Q0984 NOSIG=
201601111620 METAR EGLL 111620Z AUTO 27011KT 9999 BKN013/// BKN030///
                        //////TCU 06/05 Q0983=
201601111550 METAR COR EGLL 111550Z AUTO 27011KT 9999 -RA SCT017/// BKN034///
                        //////TCU 06/05 Q0983 NOSIG=
201601111520 METAR COR EGLL 111520Z AUTO 29008KT 8000 -RA BKN012 OVC024
                        07/04 Q0982 BECMG SCT014=
201601111450 METAR COR EGLL 111450Z AUTO 28006KT 9999 BKN013/// //////TCU
                        07/04 Q0982 NOSIG=
201601111420 METAR COR EGLL 111420Z AUTO 28005KT 250V310 9999 FEW015///
                        OVC024/// //////TCU 07/04 Q0982 NOSIG=
201601111350 METAR COR EGLL 111350Z AUTO 27007KT 9999 BKN011 07/04 Q0981
                        TEMPO BKN015=
201601111320 METAR COR EGLL 111320Z AUTO 27008KT 9999 BKN010 07/05 Q0981
                        TEMPO SCT010=
201601111250 METAR COR EGLL 111250Z AUTO 27008KT 9999 FEW010 07/04 Q0981
                        TEMPO BKN010=
201601111220 METAR EGLL 111220Z AUTO 26009KT 230V300 9999 BKN009 07/05
                        Q0981=
201601111150 METAR EGLL 111150Z AUTO 25009KT 9999 BKN007 BKN023 07/05
                        Q0981=
201601111120 METAR COR EGLL 111120Z AUTO 26007KT 9999 SCT008 BKN022 06/05
                        Q0980 TEMPO BKN008=
201601111050 METAR EGLL 111050Z AUTO 27008KT 9999 BKN004 BKN014 06/05
                        Q0980=
201601111020 METAR EGLL 111020Z AUTO 27008KT 9999 BKN003 BKN012 06/05
                        Q0980=
201601110950 METAR EGLL 110950Z AUTO 27007KT 3400 HZ BKN003 OVC012 06/05
                        Q0980=
201601110920 METAR EGLL 110920Z AUTO 23008KT 9999 BKN005 06/05 Q0979=
201601110850 METAR COR EGLL 110850Z AUTO 21007KT 190V250 9999 SCT006 SCT013
                        OVC026 06/05 Q0979 NOSIG=
201601110820 METAR COR EGLL 110820Z AUTO 20006KT 160V270 9999 FEW013 BKN020
                        06/05 Q0978 NOSIG=
201601110750 METAR COR EGLL 110750Z AUTO 20007KT 9999 BKN028 OVC044 06/04
                        Q0978 NOSIG=
201601110720 METAR COR EGLL 110720Z AUTO 20008KT 9999 OVC028/// //////CB
                        06/05 Q0979 NOSIG=
201601110650 METAR COR EGLL 110650Z AUTO 18006KT 150V220 9999 -RA FEW006///
                        BKN015/// //////CB 06/05 Q0979 TEMPO
                        4000 +RA BKN012=
201601110620 METAR COR EGLL 110620Z AUTO 13007KT 9999 -RA BKN019/// BKN035///
                        //////CB 05/04 Q0979 TEMPO 4000 +RA
                        BKN012=
201601110550 METAR COR EGLL 110550Z AUTO 15007KT 9999 -RA FEW008/// BKN019///
                        BKN034/// //////TCU 05/04 Q0979 TEMPO
                        4000 +SHRA BKN012=
201601110520 METAR COR EGLL 110520Z AUTO 17007KT 9999 -RA BKN021/// //////CB
                        05/04 Q0979 TEMPO 4000 +RA BKN012=
201601110450 METAR COR EGLL 110450Z AUTO 22009KT 190V260 9999 -RA FEW009///
                        BKN023/// //////CB 06/04 Q0980 RERA
                        REDZ TEMPO 4000 +RA BKN012=
201601110420 METAR COR EGLL 110420Z AUTO 21006G16KT 180V260 9999 -RA SCT008///
                        BKN020/// //////CB 07/06 Q0980 RERA
                        REDZ TEMPO 4000 +SHRA BKN012=
201601110350 METAR COR EGLL 110350Z AUTO 20005KT 150V260 3700 RA BKN009///
                        BKN022/// //////CB 07/06 Q0981 TEMPO
                        +RA=
201601110320 METAR COR EGLL 110320Z AUTO 16008KT 9999 FEW028/// SCT038///
                        //////CB 07/06 Q0981 TEMPO 4000 +SHRA
                        BKN012=
201601110250 METAR COR EGLL 110250Z AUTO 14008KT 9999 -RA BKN015/// BKN028///
                        //////CB 07/06 Q0982 TEMPO 4000 +SHRA
                        BKN012=
201601110220 METAR COR EGLL 110220Z AUTO 15004KT 9999 -RA BKN015/// //////CB
                        06/05 Q0982 TEMPO 4000 +SHRA BKN012=
201601110150 METAR COR EGLL 110150Z AUTO 15004KT 9999 FEW005/// //////TCU
                        06/05 Q0983 TEMPO SHRA 4000 BKN012=
201601110120 METAR COR EGLL 110120Z AUTO 15003KT 9999 -RA SCT010/// OVC022///
                        //////CB 06/05 Q0984 TEMPO 4000 SHRA
                        BKN012=
201601110050 METAR EGLL 110050Z AUTO 16007KT 9999 -RA BKN012/// OVC024///
                        //////CB 06/05 Q0985 RERA=
201601110020 METAR COR EGLL 110020Z AUTO 15005KT 9999 -RA BKN020/// BKN035///
                        //////CB 05/04 Q0985 TEMPO SHRA BKN014=
201601102350 METAR COR EGLL 102350Z AUTO VRB03KT 9999 -RA FEW012/// BKN022///
                        //////TCU 05/04 Q0985 RERA TEMPO
                        SHRA BKN014=
201601102320 METAR COR EGLL 102320Z AUTO 18006KT 150V240 8000 -RA BKN017///
                        //////TCU 06/04 Q0986 TEMPO SHRA
                        BKN014=
201601102250 METAR COR EGLL 102250Z AUTO 17010KT 9999 BKN043/// //////TCU
                        06/04 Q0986 TEMPO SHRA=
201601102220 METAR COR EGLL 102220Z AUTO 15006KT 9999 FEW038 05/03 Q0986
                        TEMPO SHRA=
201601102150 METAR COR EGLL 102150Z AUTO 17006KT 140V210 9999 NCD 05/03
                        Q0986 TEMPO SHRA=
201601102120 METAR COR EGLL 102120Z AUTO 17006KT 130V200 9999 NCD 05/03
                        Q0987 TEMPO SHRA=
201601102050 METAR COR EGLL 102050Z AUTO 17006KT 140V230 9999 NCD 04/02
                        Q0987 TEMPPO SHRA=
201601102020 METAR COR EGLL 102020Z AUTO 19007KT 9999 NCD 05/03 Q0987
                        NOSIG=
201601101950 METAR COR EGLL 101950Z AUTO 19008KT 9999 NCD 05/03 Q0987
                        NOSIG=
201601101920 METAR COR EGLL 101920Z AUTO 20010KT 9999 NCD 05/03 Q0987
                        NOSIG=
201601101850 METAR COR EGLL 101850Z AUTO 19009KT 9999 NCD 04/03 Q0987
                        NOSIG=
201601101820 METAR COR EGLL 101820Z AUTO 19010KT 9999 NCD 05/03 Q0986
                        NOSIG=
201601101750 METAR COR EGLL 101750Z AUTO 19009KT 160V230 9999 NCD 05/03
                        Q0986 NOSIG=
201601101720 METAR COR EGLL 101720Z AUTO 20010KT 9999 NCD 06/03 Q0986
                        NOSIG=
201601101650 METAR COR EGLL 101650Z AUTO 20010KT 130V230 9999 NCD 06/03
                        Q0986 NOSIG=
201601101620 METAR COR EGLL 101620Z AUTO 21009KT 9999 NCD 06/03 Q0986
                        NOSIG=
201601101550 METAR COR EGLL 101550Z AUTO 20010KT 160V240 9999 NCD 07/03
                        Q0986 NOSIG=
201601101520 METAR COR EGLL 101520Z AUTO 21010KT 9999 NCD 07/03 Q0985
                        NOSIG=
201601101450 METAR COR EGLL 101450Z AUTO 19009KT 160V240 9999 SCT035 07/04
                        Q0985 NOSIG=
201601101420 METAR COR EGLL 101420Z AUTO 19010KT 160V240 9999 FEW024 07/04
                        Q0985 NOSIG=
201601101350 METAR COR EGLL 101350Z AUTO 19011KT 160V240 9999 SCT021 08/04
                        Q0985 NOSIG=
201601101320 METAR COR EGLL 101320Z AUTO 20011KT 170V230 9999 NCD 09/04
                        Q0985 NOSIG=
201601101250 METAR EGLL 101250Z AUTO 22011KT 9999 NCD 09/04 Q0985=
201601101220 METAR COR EGLL 101220Z AUTO 22011KT 180V250 9999 FEW023 08/04
                        Q0986 NOSIG=
201601101150 METAR COR EGLL 101150Z AUTO 21011KT 190V250 9999 NCD 08/04
                        Q0985 NOSIG=
201601101120 METAR COR EGLL 101120Z AUTO 22009KT 190V260 9999 NCD 07/05
                        Q0986 NOSIG=
201601101050 METAR COR EGLL 101050Z AUTO 21008KT 180V250 9999 NCD 07/05
                        Q0986 NOSIG=
201601101020 METAR COR EGLL 101020Z AUTO 21008KT 170V250 9999 NCD 06/04
                        Q0986 NOSIG=
201601100950 METAR COR EGLL 100950Z AUTO 21009KT 180V250 9999 NCD 06/04
                        Q0985 NOSIG=
201601100920 METAR COR EGLL 100920Z AUTO 21009KT 9999 NCD 06/03 Q0985
                        NOSIG=
201601100850 METAR COR EGLL 100850Z AUTO 21009KT 9999 NCD 05/03 Q0985
                        NOSIG=
201601100820 METAR COR EGLL 100820Z AUTO 21009KT 9999 NCD 05/03 Q0984
                        NOSIG=
201601100750 METAR COR EGLL 100750Z AUTO 21011KT 9999 NCD 06/03 Q0984
                        NOSIG=
201601100720 METAR COR EGLL 100720Z AUTO 21012KT 9999 NCD 06/03 Q0984
                        NOSIG=
201601100650 METAR COR EGLL 100650Z AUTO 21011KT 9999 NCD 06/03 Q0984
                        NOSIG=
201601100620 METAR COR EGLL 100620Z AUTO 22009KT 9999 FEW029 07/03 Q0983
                        TEMPO -SHRA BKN014=
201601100550 METAR COR EGLL 100550Z AUTO 19007KT 9999 SCT032 06/03 Q0983
                        TEMPO -SHRA BKN014=
201601100520 METAR COR EGLL 100520Z AUTO 20008KT 9999 NCD 06/03 Q0983
                        TEMPO -SHRA BKN014=
201601100450 METAR COR EGLL 100450Z AUTO 19006KT 9999 NCD 05/02 Q0983
                        NOSIG=
201601100420 METAR COR EGLL 100420Z AUTO 21010KT 9999 NCD 06/03 Q0983
                        NOSIG=
201601100350 METAR COR EGLL 100350Z AUTO 21010KT 9999 NCD 06/03 Q0983
                        NOSIG=
201601100320 METAR COR EGLL 100320Z AUTO 20007KT 9999 NCD 06/03 Q0983
                        NOSIG=
201601100250 METAR COR EGLL 100250Z AUTO 20009KT 9999 NCD 06/03 Q0983
                        NOSIG=
201601100220 METAR COR EGLL 100220Z AUTO 20010KT 9999 NCD 06/03 Q0983
                        NOSIG=
201601100150 METAR COR EGLL 100150Z AUTO 21012KT 9999 NCD 06/02 Q0983
                        NOSIG=
201601100120 METAR COR EGLL 100120Z AUTO 21011KT 9999 NCD 06/04 Q0982
                        NOSIG=
201601100050 METAR COR EGLL 100050Z AUTO 21012KT 9999 NCD 06/04 Q0983
                        NOSIG=
201601100020 METAR COR EGLL 100020Z AUTO 20011KT 9999 FEW033 06/04 Q0982
                        NOSIG=
201601092350 METAR COR EGLL 092350Z AUTO 22013KT 9999 -RA BKN023/// BKN040///
                        //////CB 07/04 Q0983 TEMPO SHRA=
201601092320 METAR COR EGLL 092320Z AUTO 19012KT 9999 FEW013/// SCT028///
                        //////TCU 07/05 Q0982 TEMPO SHRA=
201601092250 METAR COR EGLL 092250Z AUTO 18011KT 9999 -RA FEW025/// SCT036///
                        //////TCU 06/05 Q0982 TEMPO SHRA=
201601092220 METAR COR EGLL 092220Z AUTO 18013KT 9999 BKN033/// //////TCU
                        07/05 Q0983 TEMPO SHRA=
201601092150 METAR COR EGLL 092150Z AUTO 18011KT 9999 SCT030/// //////TCU
                        07/05 Q0983 NOSIG=
201601092120 METAR COR EGLL 092120Z AUTO 21013KT 9999 -RA BKN024/// BKN041///
                        //////CB 07/05 Q0983 BECMG NSW=
201601092050 METAR COR EGLL 092050Z AUTO 22013KT 9999 -RA SCT011/// OVC025///
                        //////CB 07/05 Q0983 RERA TEMPO 4000
                        +SHRA=
201601092020 METAR COR EGLL 092020Z AUTO 20018KT 7000 -RA BKN017/// BKN037///
                        //////CB 10/07 Q0982 TEMPO 3000 TSRA=
201601091950 METAR COR EGLL 091950Z AUTO 19018KT 9999 BKN020 10/07 Q0982
                        TEMPO 3000 +SHRA TS=
201601091920 METAR COR EGLL 091920Z AUTO 18017KT 9999 BKN014/// //////CB
                        10/08 Q0983 TEMPO 3000 +SHRA TS=
201601091850 METAR COR EGLL 091850Z AUTO 17016KT 9999 -RA SCT017 BKN046
                        10/07 Q0983 TEMPO SHRA=
201601091820 METAR COR EGLL 091820Z AUTO 17018KT 9999 SCT016 BKN030 10/08
                        Q0984 NOSIG=
201601091750 METAR COR EGLL 091750Z AUTO 17018KT 9999 BKN014/// BKN033///
                        //////TCU 10/08 Q0984 RESHGR RERA
                        BECMG SCT016=
201601091720 METAR COR EGLL 091720Z AUTO 18013KT 4100 RA BKN012/// BKN024///
                        //////CB 09/08 Q0985 TEMPO 6000 -RA
                        BKN015=
201601091650 METAR COR EGLL 091650Z AUTO 16017KT 7000 -RA BKN015/// BKN026///
                        //////TCU 10/08 Q0985 TEMPO 4500
                        RA BKN014=
201601091620 METAR COR EGLL 091620Z AUTO 17016KT 9999 -RA BKN018 OVC044
                        10/08 Q0986 TEMPO RA BKN014=
201601091550 METAR COR EGLL 091550Z AUTO 17015G25KT 9999 -RA OVC019 11/07
                        Q0987 TEMPO RA BKN014=
201601091520 METAR COR EGLL 091520Z AUTO 17013G23KT 9999 -RA BKN018 OVC047
                        11/07 Q0988 TEMPO RA BKN014=
201601091450 METAR COR EGLL 091450Z AUTO 18013KT 150V220 9999 SCT018 11/07
                        Q0988 TEMPO RA=
201601091420 METAR COR EGLL 091420Z AUTO 19014KT 170V230 9999 BKN018 11/07
                        Q0989 NOSIG=
201601091350 METAR COR EGLL 091350Z AUTO 19013KT 160V230 9999 BKN017 11/08
                        Q0989 NOSIG=
201601091320 METAR COR EGLL 091320Z AUTO 18013KT 150V230 9999 BKN017 BKN033
                        11/08 Q0990 NOSIG=
201601091250 METAR COR EGLL 091250Z AUTO 19012KT 160V240 9999 -RA BKN018
                        BKN036 10/08 Q0990 NOSIG=
201601091220 METAR COR EGLL 091220Z AUTO 19012KT 150V240 9999 FEW012///
                        SCT017/// OVC042/// //////TCU 10/08
                        Q0991 TEMPO BKN014=
201601091150 METAR COR EGLL 091150Z AUTO 19014KT 170V240 9999 BKN017///
                        BKN031/// //////TCU 11/08 Q0991 TEMPO
                        SHRA BKN014=
201601091120 METAR COR EGLL 091120Z AUTO 19013KT 9999 SCT016/// BKN031///
                        //////TCU 10/08 Q0992 TEMPO SHRA
                        BKN014=
201601091050 METAR COR EGLL 091050Z AUTO 18011KT 150V240 9999 SCT016 BKN032
                        10/08 Q0992 TEMPO SHRA BKN014=
201601091020 METAR COR EGLL 091020Z AUTO 18011KT 150V240 9999 SCT025 BKN041
                        10/07 Q0992 TEMPO SHRA=
201601090950 METAR COR EGLL 090950Z AUTO 18010KT 140V220 9999 FEW016 BKN022
                        09/07 Q0993 TEMPO SHRA=
201601090920 METAR COR EGLL 090920Z AUTO 19010KT 160V230 7000 -RA FEW018
                        BKN035 09/07 Q0993 TEMPO SHRA=
201601090850 METAR COR EGLL 090850Z AUTO 18010KT 150V230 9999 -RA BKN041
                        09/07 Q0993 TEMPO SHRA=
201601090820 METAR COR EGLL 090820Z AUTO 18009KT 9999 BKN048 08/07 Q0993
                        NOSIG=
201601090750 METAR COR EGLL 090750Z AUTO 18009KT 9999 FEW016 08/07 Q0993
                        NOSIG=
201601090720 METAR COR EGLL 090720Z AUTO 18008KT 9999 FEW015 07/06 Q0994
                        NOSIG=
201601090650 METAR COR EGLL 090650Z AUTO 16009KT 120V200 9999 NCD 07/06
                        Q0994 NOSIG=
201601090620 METAR COR EGLL 090620Z AUTO 17009KT 9999 NCD 07/06 Q0994
                        TEMPO SHRA=
201601090550 METAR COR EGLL 090550Z AUTO 16005KT 9999 SCT039 06/05 Q0994
                        TEMPO SHRA=
201601090520 METAR COR EGLL 090520Z AUTO 17005KT 9999 BKN044 07/05 Q0995
                        NOSIG=
201601090450 METAR COR EGLL 090450Z AUTO 17005KT 9999 NCD 07/05 Q0995
                        NOSIG=
201601090420 METAR COR EGLL 090420Z AUTO 19008KT 9999 FEW021/// //////TCU
                        07/06 Q0995 NOSIG=
201601090350 METAR COR EGLL 090350Z AUTO 20007KT 9999 -RA BKN023 BKN039
                        08/06 Q0996 NOSIG=
201601090320 METAR COR EGLL 090320Z AUTO 21007KT 9999 BKN026 08/06 Q0996
                        NOSIG=
201601090250 METAR COR EGLL 090250Z AUTO 18007KT 9999 //////TCU 07/06
                        Q0995 NOSIG=
201601090220 METAR COR EGLL 090220Z AUTO 19007KT 9999 SCT048 08/06 Q0996
                        NOSIG=
201601090150 METAR COR EGLL 090150Z AUTO 20008KT 9999 SCT048/// //////TCU
                        08/06 Q0996 NOSIG=
201601090120 METAR COR EGLL 090120Z AUTO 18006KT 9999 FEW009/// BKN047///
                        //////TCU 08/07 Q0996 NOSIG=
201601090050 METAR EGLL 090050Z AUTO 17005KT 9999 FEW009 SCT037 07/06
                        Q0997=
201601090020 METAR COR EGLL 090020Z AUTO 18006KT 9999 -RA SCT019/// BKN031///
                        //////TCU 07/06 Q0997 NOSIG=
201601082350 METAR COR EGLL 082350Z AUTO 18005KT 9999 SCT046/// //////TCU
                        07/06 Q0997 TEMPO SHRA BKN012=
201601082320 METAR COR EGLL 082320Z AUTO 18004KT 140V210 9999 FEW034///
                        BKN046/// //////TCU 06/06 Q0997 TEMPO
                        SHRA BKN012=
201601082250 METAR COR EGLL 082250Z AUTO 18004KT 160V260 9999 FEW026///
                        BKN049/// //////CB 06/05 Q0997 TEMPO
                        BKN012=
201601082220 METAR COR EGLL 082220Z AUTO VRB02KT 9999 -RA SCT005/// BKN023///
                        //////TCU 07/06 Q0997 TEMPO BKN012=
201601082150 METAR COR EGLL 082150Z AUTO 17004KT 140V210 9999 -RA BKN006///
                        BKN026/// BKN039/// //////TCU 07/05
                        Q0998 TEMPO SHRA BKN012=
201601082120 METAR COR EGLL 082120Z AUTO 20006KT 9999 -RA BKN026/// BKN043///
                        //////TCU 07/05 Q0998 TEMPO SHRA
                        BKN012=
201601082050 METAR COR EGLL 082050Z AUTO 17008KT 9999 OVC044/// //////TCU
                        07/06 Q0998 TEMPO SHRA BKN012=
201601082020 METAR COR EGLL 082020Z AUTO 19008G18KT 9999 FEW033 OVC041
                        07/06 Q0998 TEMPO SHRA=
201601081950 METAR COR EGLL 081950Z AUTO 20008KT 9999 BKN030 07/06 Q0998
                        TEMPO SHRA=
201601081920 METAR COR EGLL 081920Z AUTO 20008KT 180V260 9999 FEW031 07/06
                        Q0998 NOSIG=
201601081850 METAR COR EGLL 081850Z AUTO 20008KT 9999 FEW046 07/06 Q0998
                        NOSIG=
201601081820 METAR COR EGLL 081820Z AUTO 20008KT 9999 FEW045 08/06 Q0998
                        NOSIG=
201601081750 METAR COR EGLL 081750Z AUTO 20010KT 9999 SCT041 08/06 Q0998
                        NOSIG=
201601081720 METAR COR EGLL 081720Z AUTO 20010KT 170V260 9999 -RA FEW047///
                        //////TCU 08/06 Q0998 TEMPO SHRA=
201601081650 METAR COR EGLL 081650Z AUTO 19010KT 9999 FEW049/// //////TCU
                        08/06 Q0998 TEMPO SHRA=
201601081620 METAR COR EGLL 081620Z AUTO 18009KT 9999 NCD 08/05 Q0998
                        TEMPO SHRA=
201601081550 METAR COR EGLL 081550Z AUTO 18009KT 140V230 9999 NCD 08/05
                        Q0998 TEMPO SHRA=
201601081520 METAR COR EGLL 081520Z AUTO 19008KT 9999 NCD 08/05 Q0998
                        TEMPO SHRA=
201601081450 METAR COR EGLL 081450Z AUTO 19011KT 160V240 9999 NCD 08/05
                        Q0998 TEMPO SHRA=
201601081420 METAR COR EGLL 081420Z AUTO 18010KT 150V230 9999 FEW042 09/05
                        Q0998 TEMPO SHRA=
201601081350 METAR COR EGLL 081350Z AUTO 21009KT 180V250 9999 FEW044 09/05
                        Q0998 NOSIG=
201601081320 METAR COR EGLL 081320Z AUTO 20011KT 170V240 9999 FEW049 09/05
                        Q0998 NOSIG=
201601081250 METAR COR EGLL 081250Z AUTO 20009KT 170V240 9999 -RA SCT021
                        BKN039 09/06 Q0999 NOSIG=
201601081220 METAR COR EGLL 081220Z AUTO 20009KT 160V250 9999 -RA BKN031///
                        //////TCU 08/06 Q0999 TEMPO SHRA=
201601081150 METAR COR EGLL 081150Z AUTO 19009KT 150V240 9999 -RA FEW021///
                        BKN034/// BKN048/// //////TCU 08/06
                        Q0999 TEMPO SHRA=
201601081120 METAR COR EGLL 081120Z AUTO 21010KT 180V250 9999 FEW022 BKN030
                        07/05 Q0999 TEMPO SHRA=
201601081050 METAR COR EGLL 081050Z 20010KT 170V240 9999 VCSH FEW030CB
                        07/05 Q1000 NOSIG=
201601081020 METAR COR EGLL 081020Z AUTO 18009KT 150V220 9999 NCD 06/04
                        Q1000 NOSIG=
201601080950 METAR COR EGLL 080950Z AUTO 18009KT 150V250 9999 NCD 06/04
                        Q1000 NOSIG=
201601080920 METAR COR EGLL 080920Z AUTO 20010KT 9999 -RA FEW027 BKN039
                        06/04 Q1000 NOSIG=
201601080850 METAR COR EGLL 080850Z AUTO 19007KT 150V230 9999 FEW027 05/03
                        Q1000 NOSIG=
201601080820 METAR COR EGLL 080820Z AUTO 18008KT 150V220 9999 NCD 04/02
                        Q1000 NOSIG=
201601080750 METAR COR EGLL 080750Z AUTO 20006KT 180V240 9999 NCD 04/02
                        Q1000 NOSIG=
201601080720 METAR COR EGLL 080720Z AUTO 21007KT 9999 NCD 04/02 Q1000
                        NOSIG=
201601080650 METAR COR EGLL 080650Z AUTO 20009KT 180V240 9999 FEW032 04/02
                        Q1000 NOSIG=
201601080620 METAR COR EGLL 080620Z AUTO 20006KT 160V250 9999 FEW038 03/01
                        Q1000 NOSIG=
201601080550 METAR COR EGLL 080550Z AUTO 18001KT 9999 SCT042 02/01 Q1000
                        NOSIG=
201601080520 METAR COR EGLL 080520Z AUTO VRB01KT 9999 NCD 01/M00 Q1000
                        NOSIG=
201601080450 METAR COR EGLL 080450Z AUTO VRB01KT 9999 NCD 02/01 Q1000
                        NOSIG=
201601080420 METAR COR EGLL 080420Z AUTO 16003KT 9999 NCD 01/M01 Q1001
                        NOSIG=
201601080350 METAR COR EGLL 080350Z AUTO 00000KT 9999 NCD 01/M00 Q1001
                        NOSIG=
201601080320 METAR COR EGLL 080320Z AUTO 19002KT 9999 NCD 02/01 Q1001
                        NOSIG=
201601080250 METAR COR EGLL 080250Z AUTO 21005KT 9999 NCD 03/01 Q1001
                        NOSIG=
201601080220 METAR COR EGLL 080220Z AUTO 21005KT 9999 NCD 03/01 Q1001
                        NOSIG=
201601080150 METAR COR EGLL 080150Z AUTO 23006KT 9999 NCD 03/00 Q1000
                        NOSIG=
201601080120 METAR COR EGLL 080120Z AUTO 23006KT 9999 NCD 03/00 Q1000
                        NOSIG=
201601080050 METAR COR EGLL 080050Z AUTO 22009KT 9999 NCD 03/00 Q1000
                        NOSIG=
201601080020 METAR COR EGLL 080020Z AUTO 23011KT 9999 NCD 03/00 Q1000
                        NOSIG=
201601072350 METAR COR EGLL 072350Z AUTO 23008KT 9999 NCD 03/00 Q1000
                        NOSIG=
201601072320 METAR COR EGLL 072320Z AUTO 21007KT 9999 NCD 03/00 Q1000
                        NOSIG=
201601072250 METAR COR EGLL 072250Z AUTO 23005KT 9999 NCD 04/00 Q0999
                        NOSIG=
201601072220 METAR COR EGLL 072220Z AUTO 23008KT 9999 NCD 04/00 Q0999
                        NOSIG=
201601072150 METAR COR EGLL 072150Z AUTO 24010KT 9999 NCD 05/00 Q0999
                        NOSIG=
201601072120 METAR COR EGLL 072120Z AUTO 27008KT 9999 NCD 05/00 Q0998
                        NOSIG=
201601072050 METAR COR EGLL 072050Z AUTO 27012KT 9999 NCD 05/00 Q0997
                        NOSIG=
201601072020 METAR COR EGLL 072020Z AUTO 26014KT 9999 NCD 05/00 Q0997
                        NOSIG=
201601071950 METAR COR EGLL 071950Z AUTO 25014KT 9999 NCD 05/00 Q0997
                        NOSIG=
201601071920 METAR COR EGLL 071920Z AUTO 26015KT 9999 NCD 06/00 Q0996
                        NOSIG=
201601071850 METAR COR EGLL 071850Z AUTO 26014KT 9999 NCD 06/00 Q0996
                        NOSIG=
201601071820 METAR COR EGLL 071820Z AUTO 27014KT 9999 NCD 06/00 Q0995
                        NOSIG=
201601071750 METAR COR EGLL 071750Z AUTO 27011KT 9999 NCD 06/01 Q0994
                        NOSIG=
201601071720 METAR COR EGLL 071720Z AUTO 27014KT 9999 NCD 06/01 Q0994
                        NOSIG=
201601071650 METAR COR EGLL 071650Z AUTO 27014KT 9999 FEW039 07/01 Q0993
                        NOSIG=
201601071620 METAR COR EGLL 071620Z AUTO 27014KT 9999 SCT039 07/01 Q0993
                        NOSIG=
201601071550 METAR COR EGLL 071550Z AUTO 27016KT 9999 NCD 07/01 Q0992
                        NOSIG=
201601071520 METAR COR EGLL 071520Z AUTO 28015KT 9999 NCD 07/02 Q0992
                        NOSIG=
201601071450 METAR COR EGLL 071450Z AUTO 28017KT 9999 FEW035 07/02 Q0991
                        NOSIG=
201601071420 METAR COR EGLL 071420Z AUTO 28020G31KT 9999 SCT033 08/02
                        Q0990 NOSIG=
201601071350 METAR COR EGLL 071350Z AUTO 29020G32KT 9999 BKN029 07/02
                        Q0989 NOSIG=
201601071320 METAR COR EGLL 071320Z AUTO 28019KT 9999 BKN025 08/03 Q0988
                        NOSIG=
201601071250 METAR COR EGLL 071250Z AUTO 29020G35KT 9999 BKN018 08/04
                        Q0987 NOSIG=
201601071220 METAR COR EGLL 071220Z AUTO 29020G33KT 270V330 9999 -RA OVC017
                        08/05 Q0985 TEMPO SHRA=
201601071150 METAR COR EGLL 071150Z AUTO 28023KT 9999 BKN012/// OVC029///
                        //////TCU 09/06 Q0983 TEMPO SHRA=
201601071120 METAR COR EGLL 071120Z AUTO 27016KT 9000 -RA BKN016/// BKN033///
                        //////TCU 10/08 Q0982 TEMPO SHRA
                        BKN014=
201601071050 METAR COR EGLL 071050Z AUTO 27017KT 7000 -RA SCT008/// BKN027///
                        //////CB 10/09 Q0981 RERA REDZ TEMPO
                        SHRA BKN010=
201601071020 METAR COR EGLL 071020Z AUTO 28012KT 9999 -RA BKN012 BKN022
                        10/09 Q0981 TEMPO 4000 RA=
201601070950 METAR COR EGLL 070950Z AUTO 25010KT 9999 FEW010/// SCT027///
                        //////TCU 10/09 Q0981 RERA REDZ NOSIG=
201601070920 METAR COR EGLL 070920Z AUTO 22007KT 180V250 9999 -RA SCT004
                        BKN013 09/08 Q0981 RERA REDZ TEMPO
                        3000 RADZ BKN004=
201601070850 METAR EGLL 070850Z AUTO 21006KT 170V250 9999 BKN005 BKN015
                        09/08 Q0980=
201601070820 METAR COR EGLL 070820Z AUTO 19008KT 150V240 9999 -RA OVC011
                        08/08 Q0980 TEMPO SHRA BKN016=
201601070750 METAR COR EGLL 070750Z AUTO 16007KT 9999 -RA FEW008/// BKN018///
                        //////TCU 08/07 Q0980 BECMG NSW=
201601070720 METAR COR EGLL 070720Z AUTO 14010KT 9999 -RA BKN008/// //////TCU
                        08/07 Q0980 TEMPO RA=
201601070650 METAR COR EGLL 070650Z AUTO 16009KT 7000 -RA BKN008/// //////TCU
                        08/07 Q0981 TEMPO RA=
201601070620 METAR COR EGLL 070620Z AUTO 16012KT 9999 -RA OVC008/// //////CB
                        08/07 Q0982 TEMPO RA=
201601070550 METAR COR EGLL 070550Z AUTO 16011KT 9999 -RA OVC009/// //////CB
                        08/06 Q0982 TEMPO RA=
201601070520 METAR COR EGLL 070520Z AUTO 15014KT 8000 -RA OVC009/// //////CB
                        07/06 Q0982 TEMPO RA=
201601070450 METAR COR EGLL 070450Z AUTO 16014KT 7000 -RA OVC009/// //////CB
                        08/06 Q0984 TEMPO 4000 +RA=
201601070420 METAR COR EGLL 070420Z AUTO 16015KT 9999 -RA BKN013/// //////TCU
                        08/06 Q0984 TEMPO RA=
201601070350 METAR COR EGLL 070350Z AUTO 15017G28KT 9999 -RA BKN014 08/06
                        Q0984 TEMPO BKN015=
201601070320 METAR COR EGLL 070320Z AUTO 16015KT 9999 -RA SCT018/// BKN032///
                        //////TCU 08/06 Q0985 NOSIG=
201601070250 METAR COR EGLL 070250Z AUTO 15011KT 9999 -RA SCT021 BKN045
                        08/06 Q0987 NOSIG=
201601070220 METAR COR EGLL 070220Z AUTO 15011KT 9999 -RA BKN015 BKN039
                        08/06 Q0987 TEMPO RA BKN014=
201601070150 METAR COR EGLL 070150Z AUTO 14008KT 9999 -RA BKN014/// //////TCU
                        08/06 Q0988 TEMPO RA=
201601070120 METAR COR EGLL 070120Z AUTO 14011KT 9999 FEW016 08/06 Q0989
                        TEMPO RA BKN012=
201601070050 METAR COR EGLL 070050Z AUTO 14010KT 9999 FEW018 BKN032 08/06
                        Q0989 NOSIG=
201601070020 METAR COR EGLL 070020Z AUTO 13010KT 9999 -RA FEW018 BKN032
                        BKN045 07/06 Q0989 NOSIG=
201601062350 METAR COR EGLL 062350Z AUTO 13008KT 8000 SCT029 BKN041 07/06
                        Q0991 NOSIG=
201601062320 METAR COR EGLL 062320Z AUTO 12010KT 4700 HZ BKN036 06/05
                        Q0992 NOSIG=
201601062250 METAR COR EGLL 062250Z AUTO 13007KT 4900 HZ FEW040 06/05
                        Q0992 NOSIG=
201601062220 METAR COR EGLL 062220Z AUTO 13008KT 4200 HZ FEW039 06/05
                        Q0993 NOSIG=
201601062150 METAR COR EGLL 062150Z AUTO 13007KT 3800 BR NCD 06/05 Q0993
                        NOSIG=
201601062120 METAR COR EGLL 062120Z AUTO 15006KT 3000 BR FEW004 05/05
                        Q0994 NOSIG=
201601062050 METAR COR EGLL 062050Z AUTO 14004KT 3500 HZ FEW004 05/04
                        Q0994 NOSIG=
201601062020 METAR COR EGLL 062020Z AUTO 13006KT 3800 HZ FEW044 05/04
                        Q0994 NOSIG=
201601061950 METAR COR EGLL 061950Z AUTO 15004KT 4700 HZ NCD 06/05 Q0994
                        NOSIG=
201601061920 METAR COR EGLL 061920Z AUTO 13006KT 4500 HZ FEW045 06/05
                        Q0994 NOSIG=
201601061850 METAR COR EGLL 061850Z AUTO 13006KT 5000 HZ BKN046 07/05
                        Q0995 TEMPO BKN012=
201601061820 METAR COR EGLL 061820Z AUTO 14006KT 6000 BKN045 07/06 Q0995
                        TEMPO BKN014=
201601061750 METAR COR EGLL 061750Z AUTO 16005KT 6000 BKN045 07/06 Q0996
                        TEMPO BKN014=
201601061720 METAR COR EGLL 061720Z AUTO 16004KT 7000 BKN012 07/06 Q0996
                        TEMPO SCT012 BKN040=
201601061650 METAR COR EGLL 061650Z AUTO 16004KT 120V280 7000 FEW016 OVC044
                        07/06 Q0997 NOSIG=
201601061620 METAR COR EGLL 061620Z AUTO 15004KT 120V190 8000 FEW008 OVC044
                        08/06 Q0997 TEMPO BKN012=
201601061550 METAR COR EGLL 061550Z AUTO 20006KT 160V220 7000 BKN009 OVC049
                        08/06 Q0997 TEMPO BKN011=
201601061520 METAR COR EGLL 061520Z AUTO 21006KT 180V240 9999 BKN011 08/06
                        Q0997 BECMG SCT011=
201601061450 METAR COR EGLL 061450Z AUTO VRB02KT 8000 BKN009 08/06 Q0996
                        BECMG SCT008=
201601061420 METAR COR EGLL 061420Z AUTO VRB01KT 8000 OVC007 08/06 Q0996
                        BECMG SCT008=
201601061350 METAR COR EGLL 061350Z AUTO VRB02KT 8000 OVC006 08/06 Q0996
                        BECMG SCT008=
201601061320 METAR COR EGLL 061320Z AUTO VRB02KT 5000 HZ OVC005 08/06
                        Q0996 BECMG SCT006 BKN010=
201601061250 METAR COR EGLL 061250Z AUTO VRB02KT 6000 OVC005 08/06 Q0996
                        BECMG SCT008=
201601061220 METAR COR EGLL 061220Z AUTO 31003KT 5000 HZ OVC004 07/06
                        Q0996 BECMG SCT008=
201601061150 METAR COR EGLL 061150Z AUTO VRB03KT 4400 HZ OVC004 07/06
                        Q0996 BECMG 8000 NSW SCT007=
201601061120 METAR COR EGLL 061120Z AUTO 29004KT 260V340 6000 BKN004 07/06
                        Q0997 TEMPO SCT008=
201601061050 METAR COR EGLL 061050Z AUTO VRB03KT 7000 OVC045 06/05 Q0997
                        NOSIG=
201601061020 METAR EGLL 061020Z AUTO 30004KT 8000 FEW004/// 06/05 Q0996=
201601060950 METAR COR EGLL 060950Z AUTO 30004KT 7000 NCD 06/05 Q0996
                        TEMPO 4000 BR BKN003=
201601060920 METAR COR EGLL 060920Z AUTO 32004KT 290V350 7000 FEW002 06/05
                        Q0995 TEMPO 4500 BR BKN003=
201601060850 METAR COR EGLL 060850Z AUTO VRB03KT 6000 BKN002 06/05 Q0995
                        TEMPO 3500 BR SCT002 BKN005=
201601060820 METAR COR EGLL 060820Z AUTO 36004KT 6000 OVC049 06/05 Q0994
                        TEMPO 3500 BR BKN002=
201601060750 METAR COR EGLL 060750Z AUTO 34003KT 6000 OVC049 07/06 Q0994
                        TEMPO 4500 BR BKN003=
201601060720 METAR COR EGLL 060720Z AUTO 28003KT 4300 BR OVC047 06/06
                        Q0994 TEMPO BKN003=
201601060650 METAR COR EGLL 060650Z AUTO 34003KT 6000 FEW004 BKN047 06/06
                        Q0993 TEMPO 3000 BR=
201601060620 METAR COR EGLL 060620Z AUTO 35002KT 3000 BR SCT002 06/06
                        Q0993 TEMPO 1400=
201601060550 METAR COR EGLL 060550Z 36003KT 6000 FEW040 06/05 Q0993 TEMPO
                        4000 BR=
201601060520 METAR COR EGLL 060520Z 18002KT 7000 FEW036 05/04 Q0992 TEMPO
                        4000 BR=
201601060450 METAR COR EGLL 060450Z AUTO VRB02KT 5000 BR FEW019 BKN032
                        05/05 Q0992 TEMPO 4000=
201601060420 METAR COR EGLL 060420Z AUTO 26001KT 6000 -RA BKN018 06/05
                        Q0992 RERA NOSIG=
201601060350 METAR COR EGLL 060350Z AUTO 14001KT 6000 -RA SCT018 SCT034
                        06/05 Q0992 NOSIG=
201601060320 METAR COR EGLL 060320Z AUTO 00000KT 9000 -RA FEW017/// OVC041///
                        //////TCU 06/06 Q0992 NOSIG=
201601060250 METAR COR EGLL 060250Z AUTO 09001KT 9000 FEW019 OVC046 06/06
                        Q0991 NOSIG=
201601060220 METAR COR EGLL 060220Z AUTO 09003KT 7000 SCT019 06/05 Q0991
                        TEMPO 4500 BR=
201601060150 METAR COR EGLL 060150Z AUTO VRB02KT 9999 BKN022 OVC046 06/06
                        Q0991 NOSIG=
201601060120 METAR COR EGLL 060120Z AUTO 24001KT 8000 OVC046 06/05 Q0990
                        TEMPO 3000 BR=
201601060050 METAR COR EGLL 060050Z AUTO VRB01KT 7000 OVC047 06/06 Q0990
                        NOSIG=
201601060020 METAR COR EGLL 060020Z AUTO VRB01KT 7000 OVC049 06/05 Q0990
                        NOSIG=
201601052350 METAR COR EGLL 052350Z AUTO VRB02KT 5000 BR OVC048 06/05
                        Q0990 NOSIG=
201601052320 METAR COR EGLL 052320Z AUTO VRB03KT 7000 OVC046 06/06 Q0989
                        NOSIG=
201601052250 METAR COR EGLL 052250Z AUTO VRB02KT 5000 BR OVC047 06/06
                        Q0989 NOSIG=
201601052220 METAR EGLL 052220Z AUTO VRB02KT 3400 HZ BKN047 06/05 Q0989=
201601052150 METAR COR EGLL 052150Z AUTO 22005KT 190V250 6000 BKN047 07/06
                        Q0989 NOSIG=
201601052120 METAR COR EGLL 052120Z AUTO 23005KT 200V270 9000 FEW005 BKN047
                        07/06 Q0989 TEMPO 4500 BR=
201601052050 METAR COR EGLL 052050Z AUTO 22003KT 9000 OVC049 07/06 Q0988
                        TEMPO 4500 BR=
201601052020 METAR COR EGLL 052020Z AUTO 21006KT 9999 BKN049 08/07 Q0988
                        NOSIG=
201601051950 METAR COR EGLL 051950Z AUTO 21005KT 170V240 9000 BKN041 08/07
                        Q0988 NOSIG=
201601051920 METAR COR EGLL 051920Z AUTO 22006KT 9999 FEW013 OVC043 08/07
                        Q0988 NOSIG=
201601051850 METAR COR EGLL 051850Z AUTO 19004KT 160V270 9999 FEW011 BKN040
                        08/07 Q0987 NOSIG=
201601051820 METAR COR EGLL 051820Z AUTO 19004KT 150V260 9999 SCT020 BKN040
                        08/07 Q0987 NOSIG=
201601051750 METAR COR EGLL 051750Z AUTO 16005KT 110V200 9999 FEW020 SCT027
                        OVC044 09/07 Q0987 NOSIG=
201601051720 METAR COR EGLL 051720Z AUTO 14004KT 120V180 9999 BKN033 09/07
                        Q0986 NOSIG=
201601051650 METAR COR EGLL 051650Z AUTO VRB03KT 9999 OVC039 09/07 Q0986
                        NOSIG=
201601051620 METAR COR EGLL 051620Z AUTO 13005KT 110V180 9999 OVC038 09/07
                        Q0986 NOSIG=
201601051550 METAR COR EGLL 051550Z AUTO 15004KT 120V190 9999 BKN043 09/07
                        Q0985 NOSIG=
201601051520 METAR COR EGLL 051520Z AUTO 19005KT 140V230 9999 BKN046 09/07
                        Q0985 NOSIG=
201601051450 METAR COR EGLL 051450Z AUTO 20006KT 140V250 9999 NCD 09/07
                        Q0985 NOSIG=
201601051420 METAR COR EGLL 051420Z AUTO 21006KT 180V250 9999 FEW012 SCT042
                        09/07 Q0985 NOSIG=
201601051350 METAR COR EGLL 051350Z AUTO 20008KT 150V250 9999 SCT010 BKN048
                        09/07 Q0985 NOSIG=
201601051320 METAR COR EGLL 051320Z AUTO 21006KT 160V240 9999 FEW007 10/08
                        Q0985 NOSIG=
201601051250 METAR COR EGLL 051250Z AUTO 23007KT 170V260 9999 FEW008 10/08
                        Q0985 NOSIG=
201601051220 METAR COR EGLL 051220Z AUTO 22006KT 160V280 9999 SCT006 09/07
                        Q0984 NOSIG=
201601051150 METAR COR EGLL 051150Z AUTO 21009KT 180V260 9999 SCT005 09/07
                        Q0984 NOSIG=
201601051120 METAR COR EGLL 051120Z AUTO 23009KT 9999 FEW005 09/08 Q0984
                        NOSIG=
201601051050 METAR COR EGLL 051050Z 21006KT 160V260 9999 SCT030 08/08
                        Q0984 NOSIG=
201601051020 METAR COR EGLL 051020Z 19007KT 160V240 8000 3500E VCFG SCT017
                        SCT027 07/07 Q0984 NOSIG=
201601050950 METAR COR EGLL 050950Z 19006KT 120V290 9999 VCFG FEW017 SCT039
                        06/06 Q0984 NOSIG=
201601050920 METAR COR EGLL 050920Z 19006KT 160V240 9999 VCFG FEW016 06/05
                        Q0983 NOSIG=
201601050850 METAR COR EGLL 050850Z 20006KT 150V240 9999 9000E VCFG FEW042
                        05/05 Q0983 NOSIG=
201601050820 METAR COR EGLL 050820Z 18005KT 140V220 9999 VCFG FEW042 05/05
                        Q0983 NOSIG=
201601050750 METAR COR EGLL 050750Z 18005KT 160V220 9999 VCFG FEW042 06/05
                        Q0983 NOSIG=
201601050720 METAR COR EGLL 050720Z AUTO 17005KT 150V230 9999 SCT035 05/05
                        Q0982 NOSIG=
201601050650 METAR COR EGLL 050650Z AUTO 18005KT 130V220 9999 FEW018 06/05
                        Q0982 NOSIG=
201601050620 METAR COR EGLL 050620Z AUTO VRB05KT 6000 FEW021 SCT036 06/05
                        Q0982 NOSIG=
201601050550 METAR COR EGLL 050550Z AUTO 15005KT 9999 FEW020 BKN040 06/05
                        Q0982 NOSIG=
201601050520 METAR COR EGLL 050520Z AUTO 16004KT 9999 FEW020 06/05 Q0981
                        NOSIG=
201601050450 METAR COR EGLL 050450Z AUTO 17003KT 9999 FEW014 BKN028 07/06
                        Q0981 NOSIG=
201601050420 METAR COR EGLL 050420Z AUTO 14004KT 9999 SCT007 SCT043 07/06
                        Q0981 NOSIG=
201601050350 METAR COR EGLL 050350Z AUTO 15004KT 9999 FEW013 SCT034 07/06
                        Q0982 NOSIG=
201601050320 METAR COR EGLL 050320Z AUTO 17006KT 9999 -RA BKN034 08/06
                        Q0982 NOSIG=
201601050250 METAR COR EGLL 050250Z AUTO 18007KT 9999 SCT023/// BKN039///
                        //////TCU 08/07 Q0982 NOSIG=
201601050220 METAR COR EGLL 050220Z AUTO 17008KT 9999 -RA FEW011 OVC040
                        08/07 Q0982 NOSIG=
201601050150 METAR COR EGLL 050150Z AUTO 17006KT 9999 FEW022 BKN030 08/07
                        Q0982 NOSIG=
201601050120 METAR COR EGLL 050120Z AUTO 17008KT 9999 BKN019/// BKN035///
                        //////TCU 08/07 Q0982 NOSIG=
201601050050 METAR COR EGLL 050050Z AUTO 18010KT 9999 -RA FEW019/// BKN040///
                        //////TCU 08/06 Q0982 NOSIG=
201601050020 METAR COR EGLL 050020Z AUTO 18011KT 9999 FEW038/// //////TCU
                        08/07 Q0982 NOSIG=
201601042350 METAR COR EGLL 042350Z AUTO 16009KT 9999 -RA FEW016/// BKN024///
                        BKN040/// //////TCU 08/06 Q0982 TEMPO
                        SHRA=
201601042320 METAR COR EGLL 042320Z AUTO 16007KT 9999 -RA BKN027/// BKN047///
                        //////TCU 08/06 Q0982 TEMPO SHRA=
201601042250 METAR COR EGLL 042250Z AUTO 16007KT 9999 //////TCU 08/06
                        Q0982 TEMPO SHRA=
201601042220 METAR COR EGLL 042220Z AUTO 14006KT 9999 NCD 07/06 Q0982
                        TEMPO SHRA=
201601042150 METAR COR EGLL 042150Z AUTO 14007KT 110V170 9999 -RA FEW024
                        SCT042 07/06 Q0982 TEMPO SHRA=
201601042120 METAR COR EGLL 042120Z AUTO 16008KT 9999 FEW029 08/06 Q0983
                        TEMPO SHRA=
201601042050 METAR COR EGLL 042050Z AUTO 15006KT 120V200 9999 SCT039 08/06
                        Q0983 TEMPO SHRA=
201601042020 METAR COR EGLL 042020Z AUTO 17008KT 9999 SCT043 08/06 Q0983
                        TEMPO SHRA=
201601041950 METAR COR EGLL 041950Z AUTO 19009KT 160V230 9999 NCD 07/05
                        Q0983 NOSIG=
201601041920 METAR COR EGLL 041920Z AUTO 19010KT 9999 SCT044 07/05 Q0983
                        NOSIG=
201601041850 METAR COR EGLL 041850Z AUTO 18008KT 160V240 9999 NCD 07/06
                        Q0983 NOSIG=
201601041820 METAR COR EGLL 041820Z AUTO 19008KT 160V240 9999 NCD 07/06
                        Q0982 NOSIG=
201601041750 METAR COR EGLL 041750Z AUTO 18008KT 160V230 9999 FEW038 07/06
                        Q0982 NOSIG=
201601041720 METAR COR EGLL 041720Z AUTO 19007KT 160V250 9999 NCD 08/06
                        Q0982 NOSIG=
201601041650 METAR COR EGLL 041650Z AUTO 18008KT 160V240 9999 FEW044 08/07
                        Q0982 NOSIG=
201601041620 METAR COR EGLL 041620Z AUTO 20007KT 150V280 9999 FEW047 08/07
                        Q0982 NOSIG=
201601041550 METAR COR EGLL 041550Z AUTO 20008KT 170V240 9999 -RA FEW029
                        BKN037 09/07 Q0982 NOSIG=
201601041520 METAR COR EGLL 041520Z AUTO 21008KT 9999 SCT041/// //////TCU
                        09/07 Q0982 NOSIG=
201601041450 METAR COR EGLL 041450Z AUTO 22008KT 180V250 9999 FEW030 10/07
                        Q0982 NOSIG=
201601041420 METAR COR EGLL 041420Z AUTO 20008KT 170V250 9999 SCT016 SCT044
                        10/07 Q0982 NOSIG=
201601041350 METAR COR EGLL 041350Z AUTO 21010KT 180V250 9999 FEW016 10/07
                        Q0982 NOSIG=
201601041320 METAR COR EGLL 041320Z AUTO 20009KT 160V240 9999 FEW013///
                        //////TCU 10/07 Q0982 NOSIG=
201601041250 METAR COR EGLL 041250Z AUTO 20011KT 9999 FEW021/// SCT042///
                        //////TCU 10/07 Q0982 NOSIG=
201601041220 METAR COR EGLL 041220Z AUTO 21009KT 160V250 9999 -RA SCT017
                        SCT035 10/07 Q0982 TEMPO SHRA=
201601041150 METAR COR EGLL 041150Z AUTO 22011KT 180V240 9999 FEW016 09/07
                        Q0982 NOSIG=
201601041120 METAR COR EGLL 041120Z AUTO 21012KT 9999 FEW016 SCT042 10/07
                        Q0982 NOSIG=
201601041050 METAR COR EGLL 041050Z AUTO 20011KT 180V240 9999 FEW013 10/07
                        Q0982 NOSIG=
201601041020 METAR COR EGLL 041020Z AUTO 19010KT 160V230 9999 FEW025 BKN033
                        09/07 Q0983 NOSIG=
201601040950 METAR COR EGLL 040950Z AUTO 18009KT 150V240 9999 FEW039 08/07
                        Q0983 NOSIG=
201601040920 METAR COR EGLL 040920Z AUTO 16008KT 130V220 9999 BKN039 07/06
                        Q0983 NOSIG=
201601040850 METAR COR EGLL 040850Z AUTO 16008KT 130V200 9999 SCT040 07/06
                        Q0983 NOSIG=
201601040820 METAR COR EGLL 040820Z AUTO 18009KT 150V220 9999 SCT043 07/06
                        Q0982 NOSIG=
201601040750 METAR COR EGLL 040750Z AUTO 18008KT 170V230 9999 FEW043 07/05
                        Q0982 NOSIG=
201601040720 METAR COR EGLL 040720Z AUTO 19008KT 9999 NCD 07/05 Q0982
                        NOSIG=
201601040650 METAR COR EGLL 040650Z AUTO 18007G17KT 150V260 9999 NCD 06/05
                        Q0983 NOSIG=
201601040620 METAR COR EGLL 040620Z AUTO VRB07KT 9999 NCD 06/05 Q0983
                        NOSIG=
201601040550 METAR EGLL 040550Z AUTO 18005KT 9999 NCD 06/05 Q0983=
201601040520 METAR COR EGLL 040520Z AUTO 17005KT 9999 NCD 06/05 Q0983
                        NOSIG=
201601040450 METAR COR EGLL 040450Z AUTO 18005KT 9999 NCD 06/05 Q0983
                        NOSIG=
201601040420 METAR EGLL 040420Z AUTO 19005KT 9999 BKN048 06/05 Q0983=
201601040350 METAR COR EGLL 040350Z AUTO 19008KT 9999 BKN047 06/05 Q0983
                        NOSIG=
201601040320 METAR COR EGLL 040320Z AUTO 21007KT 9999 BKN048 06/05 Q0983
                        NOSIG=
201601040250 METAR COR EGLL 040250Z AUTO 19006KT 9999 NCD 06/05 Q0983
                        NOSIG=
201601040220 METAR COR EGLL 040220Z AUTO 17006KT 9999 NCD 06/05 Q0983
                        NOSIG=
201601040150 METAR COR EGLL 040150Z AUTO 18005KT 9000 NCD 05/05 Q0983
                        NOSIG=
201601040120 METAR EGLL 040120Z AUTO 17006KT 7000 NCD 05/04 Q0983=
201601040050 METAR EGLL 040050Z AUTO 17004KT 7000 NCD 06/05 Q0983=
201601040020 METAR EGLL 040020Z AUTO 18005KT 7000 NCD 06/05 Q0984=
201601032350 METAR COR EGLL 032350Z AUTO 19006KT 8000 NCD 06/05 Q0984
                        NOSIG=
201601032320 METAR EGLL 032320Z AUTO 21007KT 8000 NCD 06/05 Q0984=
201601032250 METAR EGLL 032250Z AUTO 20008KT 8000 NCD 06/06 Q0984=
201601032220 METAR EGLL 032220Z AUTO 21008KT 180V250 8000 NCD 06/06 Q0984=
201601032150 METAR EGLL 032150Z AUTO 20007KT 9000 NCD 07/06 Q0984=
201601032120 METAR COR EGLL 032120Z AUTO 21008KT 9000 NCD 07/06 Q0984
                        NOSIG=
201601032050 METAR COR EGLL 032050Z AUTO 20008KT 180V240 9999 NCD 07/06
                        Q0984 NOSIG=
201601032020 METAR COR EGLL 032020Z AUTO 21008KT 9999 NCD 07/06 Q0984
                        NOSIG=
201601031950 METAR COR EGLL 031950Z AUTO 20006KT 9999 NCD 07/06 Q0984
                        NOSIG=
201601031920 METAR COR EGLL 031920Z AUTO 22010KT 9999 NCD 07/06 Q0984
                        NOSIG=
201601031850 METAR COR EGLL 031850Z AUTO 23008KT 9999 NCD 08/07 Q0984
                        NOSIG=
201601031820 METAR COR EGLL 031820Z AUTO 22008KT 9999 NCD 07/07 Q0984
                        NOSIG=
201601031750 METAR COR EGLL 031750Z AUTO 22008KT 200V270 9999 NCD 08/07
                        Q0984 NOSIG=
201601031720 METAR COR EGLL 031720Z AUTO 21007KT 9999 FEW006 08/07 Q0984
                        NOSIG=
201601031650 METAR COR EGLL 031650Z AUTO 18008KT 150V230 9999 FEW004///
                        SCT026/// BKN043/// //////TCU 08/07
                        Q0984 NOSIG=
201601031620 METAR COR EGLL 031620Z AUTO 19010KT 160V230 8000 -RA FEW007
                        BKN022 OVC040 08/07 Q0984 NOSIG=
201601031550 METAR EGLL 031550Z AUTO 19009KT 150V240 9999 FEW007 BKN021
                        09/08 Q0984=
201601031520 METAR COR EGLL 031520Z AUTO 19008G18KT 160V240 9999 BKN030
                        09/08 Q0984 TEMPO 4500 SHRA=
201601031450 METAR COR EGLL 031450Z AUTO 20011KT 170V250 9999 FEW019 BKN043
                        09/08 Q0984 NOSIG=
201601031420 METAR COR EGLL 031420Z AUTO 20016KT 9999 -RA BKN009/// BKN021///
                        //////TCU 09/08 Q0984 BECMG SCT009=
201601031350 METAR COR EGLL 031350Z AUTO 15017KT 7000 -RA BKN010/// //////CB
                        09/08 Q0984 TEMPO RA=
201601031320 METAR COR EGLL 031320Z AUTO 15018KT 7000 -RA BKN009/// BKN022///
                        OVC038/// //////TCU 09/08 Q0985 TEMPO
                        RA=
201601031250 METAR COR EGLL 031250Z AUTO 16014KT 7000 -RA BKN010/// OVC022///
                        //////CB 09/08 Q0987 BECMG RA=
201601031220 METAR COR EGLL 031220Z AUTO 15016G27KT 9999 -RA BKN010///
                        //////TCU 09/08 Q0988 BECMG RA=
201601031150 METAR COR EGLL 031150Z AUTO 15018KT 9999 -RA OVC010/// //////TCU
                        09/08 Q0989 BECMG RA=
201601031120 METAR COR EGLL 031120Z AUTO 15016KT 9999 -RA OVC010/// //////TCU
                        09/08 Q0990 TEMPO RA=
201601031050 METAR COR EGLL 031050Z AUTO 15014KT 9999 -RA BKN011 09/08
                        Q0991 TEMPO RA=
201601031020 METAR COR EGLL 031020Z AUTO 15014KT 9999 -RA BKN010 09/07
                        Q0992 TEMPO RA=
201601030950 METAR COR EGLL 030950Z AUTO 15011KT 9999 -RA BKN011 09/07
                        Q0993 TEMPO RA=
201601030920 METAR COR EGLL 030920Z AUTO 15010KT 9999 -RA BKN014 OVC049
                        09/07 Q0994 NOSIG=
201601030850 METAR COR EGLL 030850Z AUTO 15009KT 9999 -RA FEW027 08/06
                        Q0995 BECMG BKN012=
201601030820 METAR COR EGLL 030820Z AUTO 15008KT 9999 NCD 07/05 Q0996
                        BECMG -RA BKN012=
201601030750 METAR COR EGLL 030750Z AUTO 15007KT 130V200 9999 FEW025 06/04
                        Q0997 NOSIG=
201601030720 METAR COR EGLL 030720Z AUTO 15007KT 100V170 9999 BKN021 06/03
                        Q0998 NOSIG=
201601030650 METAR COR EGLL 030650Z AUTO 16007KT 120V210 9999 BKN033 05/02
                        Q0999 NOSIG=
201601030620 METAR COR EGLL 030620Z AUTO 16005G15KT 100V230 9999 NCD 05/02
                        Q0999 NOSIG=
201601030550 METAR COR EGLL 030550Z AUTO 16006KT 9999 FEW037 05/02 Q1000
                        NOSIG=
201601030520 METAR COR EGLL 030520Z AUTO 18005KT 9999 NCD 06/03 Q1000
                        NOSIG=
201601030450 METAR COR EGLL 030450Z AUTO 20006KT 9999 NCD 06/03 Q1001
                        NOSIG=
201601030420 METAR COR EGLL 030420Z AUTO 23008KT 9999 NCD 07/03 Q1001
                        NOSIG=
201601030350 METAR COR EGLL 030350Z AUTO 24010KT 9999 FEW029 07/03 Q1002
                        NOSIG=
201601030320 METAR COR EGLL 030320Z AUTO 24013KT 9999 BKN026 08/04 Q1002
                        NOSIG=
201601030250 METAR COR EGLL 030250Z AUTO 25014KT 9999 BKN017 OVC033 08/05
                        Q1002 NOSIG=
201601030220 METAR COR EGLL 030220Z AUTO 25016KT 9999 OVC012 08/06 Q1002
                        BECMG SCT012=
201601030150 METAR COR EGLL 030150Z AUTO 25015KT 9999 OVC011 09/07 Q1002
                        NOSIG=
201601030120 METAR COR EGLL 030120Z AUTO 25016KT 9999 BKN011 09/07 Q1001
                        NOSIG=
201601030050 METAR COR EGLL 030050Z AUTO 26017KT 9999 -RA BKN007/// OVC016///
                        //////TCU 09/08 Q1001 NOSIG=
201601030020 METAR COR EGLL 030020Z AUTO 25011KT 2900 -RADZ BKN004 10/09
                        Q1001 BECMG 6000 NSW BKN006=
201601022350 METAR COR EGLL 022350Z AUTO 25012KT 3100 -RADZ BKN006 10/09
                        Q1001 TEMPO BKN004=
201601022320 METAR COR EGLL 022320Z AUTO 25011KT 9999 BKN009 BKN024 10/09
                        Q1001 BECMG BKN011=
201601022250 METAR COR EGLL 022250Z AUTO 25012KT 9999 BKN010 10/09 Q1000
                        TEMPO BKN008=
201601022220 METAR COR EGLL 022220Z AUTO 26013KT 9999 FEW011 BKN020 10/08
                        Q1000 TEMPO BKN011=
201601022150 METAR COR EGLL 022150Z AUTO 26014KT 9999 BKN011 OVC022 10/08
                        Q1000 NOSIG=
201601022120 METAR COR EGLL 022120Z AUTO 26015KT 9999 BKN007 OVC022 10/09
                        Q0999 NOSIG=
201601022050 METAR COR EGLL 022050Z AUTO 27015KT 6000 -RA OVC005 10/09
                        Q0999 TEMPO 4500 BR BKN004=
201601022020 METAR COR EGLL 022020Z AUTO 27015KT 4500 -RA BKN005 10/09
                        Q0999 BECMG 6000 NSCW SCT005 BKN010=
201601021950 METAR COR EGLL 021950Z AUTO 27015KT 9999 BKN006 BKN024 10/09
                        Q0998 BECMG SCT006 BKN024=
201601021920 METAR COR EGLL 021920Z AUTO 27015KT 9999 OVC008 11/09 Q0997
                        BECMG SCT008 BKN012=
201601021850 METAR COR EGLL 021850Z AUTO 26017KT 9999 -RA BKN009/// //////TCU
                        11/09 Q0997 BECMG SCT009 BKN014=
201601021820 METAR COR EGLL 021820Z AUTO 26017KT 9999 BKN008/// //////CB
                        11/09 Q0996 BECMG SCT008=
201601021750 METAR COR EGLL 021750Z AUTO 24014KT 9999 OVC009 11/10 Q0996
                        BECMG SCT009 BKN016=
201601021720 METAR COR EGLL 021720Z AUTO 22012KT 7000 OVC008/// //////TCU
                        11/10 Q0995 BECMG SCT008 BKN016=
201601021650 METAR COR EGLL 021650Z AUTO 21011KT 9999 OVC008 11/10 Q0995
                        BECMG SCT008 BKN016=
201601021620 METAR COR EGLL 021620Z AUTO 20010KT 180V240 5000 -RADZ BKN003///
                        OVC015/// //////TCU 11/10 Q0995 BECMG
                        NSW SCT005 BKN016=
201601021550 METAR COR EGLL 021550Z AUTO 20010KT 150V250 6000 -RA BKN004///
                        OVC015/// //////CB 11/10 Q0994 TEMPO
                        BKN009=
201601021520 METAR COR EGLL 021520Z AUTO 14009KT 4900 -RADZ BKN007///
                        //////CB 10/10 Q0994 RERA REDZ TEMPO
                        8000 NSW SCT007 BKN012=
201601021450 METAR COR EGLL 021450Z AUTO 13011KT 070V160 8000 -RA BKN004///
                        BKN013/// //////CB 10/10 Q0994 REDZ
                        TEMPO SCT005=
201601021420 METAR COR EGLL 021420Z AUTO 12013KT 3900 -DZ BKN005/// //////CB
                        10/09 Q0994 RERA REDZ TEMPO 6000
                        SCT005 BKN012=
201601021350 METAR COR EGLL 021350Z AUTO 12014KT 5000 -RA BKN006/// OVC024///
                        //////CB 10/09 Q0994 RERA TEMPO SCT006=
201601021320 METAR COR EGLL 021320Z AUTO 13014KT 3700 RA BKN006/// //////CB
                        10/09 Q0994 REDZ NOSIG=
201601021250 METAR COR EGLL 021250Z AUTO 13012KT 5000 -RA BKN006/// OVC014///
                        //////CB 10/09 Q0995 TEMPO RA=
201601021220 METAR COR EGLL 021220Z AUTO 14014KT 3000 -RADZ BKN007///
                        OVC016/// //////TCU 10/09 Q0995 REDZ
                        TEMPO RA=
201601021150 METAR COR EGLL 021150Z AUTO 13013KT 3500 -DZ OVC008 10/09
                        Q0996 TEMPO 6000=
201601021120 METAR COR EGLL 021120Z AUTO 14013KT 6000 -RA BKN007 OVC016
                        10/09 Q0996 TEMPO 4000 RADZ=
201601021050 METAR COR EGLL 021050Z AUTO 13013KT 4900 -DZ BKN006 10/09
                        Q0996 REDZ TEMPO 6000 SCT006 BKN012=
201601021020 METAR COR EGLL 021020Z AUTO 13013KT 3400 -RADZ BKN007 OVC017
                        10/09 Q0997 REDZ TEMPO RA=
201601020950 METAR COR EGLL 020950Z AUTO 14012KT 4700 -RADZ BKN008 OVC020
                        10/09 Q0997 REDZ TEMPO RA=
201601020920 METAR COR EGLL 020920Z AUTO 14012KT 4700 -DZ BKN006 OVC015
                        10/09 Q0997 REDZ TEMPO 6000 BKN015=
201601020850 METAR COR EGLL 020850Z AUTO 15013KT 6000 -RA BKN010 10/09
                        Q0997 TEMPO RA BKN009=
201601020820 METAR COR EGLL 020820Z AUTO 14012KT 9999 BKN009 10/09 Q0997
                        TEMPO BKN012=
201601020750 METAR COR EGLL 020750Z AUTO 14013KT 5000 -DZ BKN009 OVC022
                        10/08 Q0997 TEMPO RA=
201601020720 METAR COR EGLL 020720Z AUTO 13012KT 8000 -RA BKN007 OVC020
                        09/08 Q0997 TEMPO RA=
201601020650 METAR COR EGLL 020650Z AUTO 13013KT 100V170 4200 -RA BKN008///
                        OVC020/// //////TCU 09/08 Q0998 TEMPO
                        RA=
201601020620 METAR COR EGLL 020620Z AUTO 13013KT 5000 -RA BKN012 BKN026
                        10/08 Q0998 TEMPO RA=
201601020550 METAR COR EGLL 020550Z AUTO 13013KT 5000 -RA SCT015 BKN028
                        10/08 Q0998 TEMPO RA BKN012=
201601020520 METAR COR EGLL 020520Z AUTO 13015KT 9999 FEW014 OVC040 10/08
                        Q0998 TEMPO -RA BKN014=
201601020450 METAR COR EGLL 020450Z AUTO 13012KT 9999 OVC042 10/08 Q0999
                        TEMPO BKN014=
201601020420 METAR COR EGLL 020420Z AUTO 13012KT 9999 BKN011 BKN047 10/08
                        Q0999 TEMPO SCT011=
201601020350 METAR COR EGLL 020350Z AUTO 13011KT 9999 BKN012 BKN025 OVC045
                        10/08 Q1000 TEMPO SCT012=
201601020320 METAR COR EGLL 020320Z AUTO 13011KT 9999 BKN010 09/08 Q1000
                        TEMPO BKN009=
201601020250 METAR COR EGLL 020250Z AUTO 14013KT 9999 BKN009 09/08 Q1001
                        BECMG BKN010=
201601020220 METAR COR EGLL 020220Z AUTO 13012KT 9999 OVC009 09/08 Q1001
                        NOSIG=
201601020150 METAR COR EGLL 020150Z AUTO 12012KT 9999 OVC007 09/08 Q1002
                        BECMG SCT007=
201601020120 METAR COR EGLL 020120Z AUTO 12013KT 5000 -RADZ OVC008 08/07
                        Q1002 BECMG SCT008=
201601020050 METAR COR EGLL 020050Z AUTO 12016KT 9999 -RA BKN008/// BKN028///
                        //////TCU 08/07 Q1002 BECMG SCT008
                        BKN028=
201601020020 METAR COR EGLL 020020Z AUTO 13012KT 6000 -RA BKN010/// //////TCU
                        08/07 Q1003 BECMG SCT010=
201601012350 METAR COR EGLL 012350Z AUTO 12013KT 9999 -RA BKN011 OVC045
                        08/07 Q1004 TEMPO SCT011 BKN045=
201601012320 METAR COR EGLL 012320Z AUTO 12015KT 9999 -RA FEW012 BKN047
                        08/07 Q1004 TEMPO BKN014=
201601012250 METAR COR EGLL 012250Z AUTO 13012KT 9000 -RA SCT015/// BKN030///
                        OVC043/// //////TCU 08/07 Q1005 TEMPO
                        RA BKN014=
201601012220 METAR COR EGLL 012220Z AUTO 13012KT 9999 -RA BKN015/// //////TCU
                        08/06 Q1006 TEMPO RA BKN014=
201601012150 METAR COR EGLL 012150Z AUTO 13014KT 9999 -RA BKN015 08/06
                        Q1006 TEMPO RA BKN014=
201601012120 METAR COR EGLL 012120Z AUTO 12015KT 9999 -RA BKN017 09/06
                        Q1007 TEMPO RA BKN014=
201601012050 METAR COR EGLL 012050Z AUTO 12014KT 9999 BKN018 09/06 Q1007
                        TEMPO -RA BKN014=
201601012020 METAR COR EGLL 012020Z AUTO 12015KT 9999 BKN017 08/06 Q1008
                        TEMPO -RA BKN014=
201601011950 METAR COR EGLL 011950Z AUTO 12015KT 9999 BKN015 08/06 Q1009
                        TEMPO -RA BKN014=
201601011920 METAR COR EGLL 011920Z AUTO 12014KT 9999 BKN014 08/06 Q1009
                        TEMPO RA=
201601011850 METAR COR EGLL 011850Z AUTO 12017KT 9999 BKN012 08/06 Q1010
                        TEMPO BKN015=
201601011820 METAR COR EGLL 011820Z AUTO 13014KT 9999 SCT014 08/06 Q1011
                        TEMPO BKN014=
201601011750 METAR COR EGLL 011750Z AUTO 13012KT 9999 FEW012 08/06 Q1011
                        TEMPO BKN012=
201601011720 METAR COR EGLL 011720Z AUTO 12013KT 9999 BKN009 08/06 Q1012
                        TEMPO BKN012=
201601011650 METAR COR EGLL 011650Z AUTO 12012KT 9999 OVC008 08/07 Q1012
                        TEMPO BKN012=
201601011620 METAR COR EGLL 011620Z AUTO 11011KT 9999 -RA OVC008 08/07
                        Q1013 TEMPO BKN012=
201601011550 METAR COR EGLL 011550Z AUTO 11010KT 9999 -RA OVC010 08/06
                        Q1014 TEMPO BKN016=
201601011520 METAR COR EGLL 011520Z AUTO 11011KT 9999 -RA OVC012 08/06
                        Q1014 TEMPO OVC015=
201601011450 METAR COR EGLL 011450Z AUTO 11011KT 9999 OVC015 08/05 Q1015
                        TEMPO -RA BKN014=
201601011420 METAR COR EGLL 011420Z AUTO 11012KT 9999 BKN021 OVC041 07/05
                        Q1015 TEMPO -RA BKN014=
201601011350 METAR COR EGLL 011350Z AUTO 11009KT 9999 FEW030 BKN045 07/04
                        Q1016 TEMPO -RA BKN012=
201601011320 METAR COR EGLL 011320Z AUTO 11009KT 9999 NCD 07/04 Q1017
                        TEMPO -RA BKN012=
201601011250 METAR COR EGLL 011250Z AUTO 11010KT 9999 NCD 07/04 Q1017
                        NOSIG=
201601011220 METAR COR EGLL 011220Z AUTO 11009KT 9999 NCD 07/04 Q1018
                        NOSIG=
201601011150 METAR COR EGLL 011150Z AUTO 12010KT 9999 NCD 07/04 Q1019
                        NOSIG=
201601011120 METAR COR EGLL 011120Z AUTO 11008KT 9999 NCD 06/02 Q1020
                        NOSIG=
201601011050 METAR COR EGLL 011050Z AUTO 11006KT 9999 NCD 05/01 Q1020
                        NOSIG=
201601011020 METAR COR EGLL 011020Z AUTO 10007KT 9999 NCD 04/01 Q1020
                        NOSIG=
201601010950 METAR COR EGLL 010950Z AUTO 09007KT 9999 NCD 02/01 Q1021
                        NOSIG=
201601010920 METAR COR EGLL 010920Z AUTO 11006KT 9999 NCD 02/01 Q1021
                        NOSIG=
201601010850 METAR COR EGLL 010850Z AUTO 09005KT 9999 NCD 02/01 Q1022
                        NOSIG=
201601010820 METAR COR EGLL 010820Z AUTO 08004KT 9000 NCD 02/01 Q1022
                        NOSIG=
201601010750 METAR COR EGLL 010750Z AUTO 07002KT 7000 NCD 01/01 Q1022
                        NOSIG=
201601010720 METAR COR EGLL 010720Z AUTO 07002KT 9000 NCD 01/01 Q1022
                        NOSIG=
201601010650 METAR COR EGLL 010650Z AUTO 05002KT 7000 NCD 01/00 Q1022
                        NOSIG=
201601010620 METAR COR EGLL 010620Z AUTO 07002KT 8000 NCD 02/01 Q1023
                        NOSIG=
201601010550 METAR COR EGLL 010550Z AUTO 08003KT 8000 NCD 01/00 Q1023
                        NOSIG=
201601010520 METAR COR EGLL 010520Z AUTO 15002KT 8000 NCD 02/01 Q1023
                        NOSIG=
201601010450 METAR COR EGLL 010450Z AUTO 11001KT 6000 NCD 02/01 Q1023
                        NOSIG=
201601010420 METAR COR EGLL 010420Z AUTO VRB01KT 6000 NCD 02/01 Q1023
                        NOSIG=
201601010350 METAR COR EGLL 010350Z AUTO 12003KT 5000 HZ NCD 02/01 Q1022
                        NOSIG=
201601010320 METAR COR EGLL 010320Z AUTO 17004KT 7000 NCD 02/01 Q1022
                        NOSIG=
201601010250 METAR COR EGLL 010250Z AUTO 18003KT 6000 NCD 02/01 Q1022
                        NOSIG=
201601010220 METAR COR EGLL 010220Z AUTO 19004KT 6000 NCD 03/02 Q1022
                        NOSIG=
201601010150 METAR COR EGLL 010150Z AUTO 15002KT 3500 HZ NCD 02/00 Q1022
                        TEMPO 9999 NSW=
201601010120 METAR COR EGLL 010120Z AUTO 17003KT 8000 NCD 03/02 Q1021
                        NOSIG=
201601010050 METAR COR EGLL 010050Z AUTO 20004KT 180V250 9999 NCD 04/02
                        Q1021 NOSIG=
201601010020 METAR COR EGLL 010020Z AUTO 23004KT 9999 NCD 05/02 Q1021
                        NOSIG=

</pre>

</body>
</html>
