##########################################################
# Query made at 12/27/2012 10:37:06 UTC
# Time interval: from 01/01/2009 00:00  to 01/31/2009 23:59  UTC
##########################################################

##########################################################
# EGLL, London / Heathrow Airport (United Kingdom)
# WMO index: 03772
# Latitude 51-29N. Longitude 000-27W. Altitude 24 m.
##########################################################

###################################
#  METAR/SPECI from EGLL
###################################
200901312350 METAR COR EGLL 312350Z 09012KT 8000 BKN017 01/M02 Q1013 NOSIG=
200901312320 METAR COR EGLL 312320Z 09015KT 8000 SCT015 01/M02 Q1013 NOSIG=
200901312250 METAR COR EGLL 312250Z 09017KT 7000 SCT017 01/M02 Q1013 NOSIG=
200901312220 METAR COR EGLL 312220Z 09014KT 7000 FEW020 02/M01 Q1013 NOSIG=
200901312150 METAR COR EGLL 312150Z 09015KT 7000 NSC 02/M01 Q1013 NOSIG=
200901312120 METAR COR EGLL 312120Z 09012KT 7000 FEW020 01/M01 Q1013 NOSIG=
200901312050 METAR COR EGLL 312050Z 09012KT 7000 NSC 01/M01 Q1012 NOSIG=
200901312020 METAR COR EGLL 312020Z 09012KT 7000 NSC 02/M01 Q1012 NOSIG=
200901311950 METAR COR EGLL 311950Z 09013KT 7000 NSC 02/M01 Q1012 NOSIG=
200901311920 METAR COR EGLL 311920Z 09012KT 7000 NSC 02/M01 Q1012 NOSIG=
200901311850 METAR COR EGLL 311850Z 08014KT 7000 NSC 02/M01 Q1012 NOSIG=
200901311820 METAR COR EGLL 311820Z 09014KT 7000 NSC 02/M01 Q1011 NOSIG=
200901311750 METAR COR EGLL 311750Z 09012KT 7000 NSC 02/M01 Q1011 NOSIG=
200901311720 METAR COR EGLL 311720Z 09011KT 7000 NSC 02/M01 Q1011 NOSIG=
200901311650 METAR COR EGLL 311650Z 09011KT 7000 NSC 02/M01 Q1011 NOSIG=
200901311620 METAR COR EGLL 311620Z 08012KT 8000 NSC 03/M01 Q1011 NOSIG=
200901311550 METAR COR EGLL 311550Z 08013KT 8000 NSC 03/M01 Q1011 NOSIG=
200901311520 METAR COR EGLL 311520Z 08013KT 9000 NSC 04/M00 Q1011 NOSIG=
200901311450 METAR COR EGLL 311450Z 08014KT 9000 NSC 05/00 Q1011 NOSIG=
200901311420 METAR COR EGLL 311420Z 09013KT 8000 NSC 05/00 Q1011 NOSIG=
200901311350 METAR COR EGLL 311350Z 09014KT CAVOK 06/00 Q1011 NOSIG=
200901311320 METAR COR EGLL 311320Z 09015KT CAVOK 06/M00 Q1011 NOSIG=
200901311250 METAR COR EGLL 311250Z 09013KT CAVOK 06/M00 Q1011 NOSIG=
200901311220 METAR COR EGLL 311220Z 08012KT CAVOK 06/M01 Q1011 NOSIG=
200901311150 METAR COR EGLL 311150Z 09013KT CAVOK 05/M01 Q1011 NOSIG=
200901311120 METAR COR EGLL 311120Z 09011KT CAVOK 05/M02 Q1011 NOSIG=
200901311050 METAR COR EGLL 311050Z 10012KT CAVOK 05/M01 Q1011 NOSIG=
200901311020 METAR COR EGLL 311020Z 09010KT CAVOK 04/M02 Q1011 NOSIG=
200901310950 METAR COR EGLL 310950Z 09010KT 9000 NSC 04/M02 Q1011 NOSIG=
200901310920 METAR COR EGLL 310920Z 08009KT 9000 NSC 03/M01 Q1011 NOSIG=
200901310850 METAR COR EGLL 310850Z 08008KT 9000 NSC 03/M01 Q1011 NOSIG=
200901310820 METAR COR EGLL 310820Z 08008KT 8000 NSC 02/M01 Q1011 NOSIG=
200901310750 METAR COR EGLL 310750Z 09007KT 8000 NSC 02/M01 Q1011 NOSIG=
200901310720 METAR COR EGLL 310720Z 09007KT 9000 NSC 02/M01 Q1011 NOSIG=
200901310650 METAR COR EGLL 310650Z 09008KT CAVOK 02/M01 Q1011 NOSIG=
200901310620 METAR COR EGLL 310620Z 09008KT CAVOK 02/M01 Q1011 NOSIG=
200901310550 METAR COR EGLL 310550Z 09011KT 9000 NSC 02/M01 Q1011 NOSIG=
200901310520 METAR COR EGLL 310520Z 08010KT 9000 NSC 02/M01 Q1011 NOSIG=
200901310450 METAR COR EGLL 310450Z 08008KT CAVOK 02/M01 Q1012 NOSIG=
200901310420 METAR COR EGLL 310420Z 09009KT 9000 NSC 03/M01 Q1012 NOSIG=
200901310350 METAR COR EGLL 310350Z 09011KT 9000 NSC 03/M01 Q1012 NOSIG=
200901310320 METAR COR EGLL 310320Z 09011KT CAVOK 03/M01 Q1012 NOSIG=
200901310250 METAR COR EGLL 310250Z 08010KT CAVOK 03/M01 Q1012 NOSIG=
200901310220 METAR COR EGLL 310220Z 09011KT CAVOK 03/M01 Q1012 NOSIG=
200901310150 METAR COR EGLL 310150Z 09010KT CAVOK 03/M01 Q1012 NOSIG=
200901310120 METAR COR EGLL 310120Z 09008KT CAVOK 04/M01 Q1012 NOSIG=
200901310050 METAR COR EGLL 310050Z 10011KT CAVOK 04/M01 Q1012 NOSIG=
200901310020 METAR COR EGLL 310020Z 10009KT CAVOK 04/M01 Q1012 NOSIG=
200901302350 METAR COR EGLL 302350Z 10008KT CAVOK 04/M01 Q1012 NOSIG=
200901302320 METAR COR EGLL 302320Z 11009KT CAVOK 03/M01 Q1012 NOSIG=
200901302250 METAR COR EGLL 302250Z 10009KT CAVOK 03/M01 Q1013 NOSIG=
200901302220 METAR COR EGLL 302220Z 11007KT CAVOK 03/M01 Q1013 NOSIG=
200901302150 METAR COR EGLL 302150Z 10009KT 9000 NSC 03/M01 Q1013 NOSIG=
200901302120 METAR COR EGLL 302120Z 11011KT 9000 NSC 03/M00 Q1013 NOSIG=
200901302050 METAR COR EGLL 302050Z 11011KT 8000 NSC 04/M00 Q1013 NOSIG=
200901302020 METAR COR EGLL 302020Z 10011KT 8000 NSC 04/M00 Q1013 NOSIG=
200901301950 METAR COR EGLL 301950Z 10011KT 8000 NSC 04/00 Q1013 NOSIG=
200901301920 METAR COR EGLL 301920Z 11013KT 9000 NSC 04/00 Q1014 NOSIG=
200901301850 METAR COR EGLL 301850Z 11010KT 9000 NSC 04/00 Q1014 NOSIG=
200901301820 METAR COR EGLL 301820Z 10012KT 9000 NSC 05/00 Q1014 NOSIG=
200901301750 METAR COR EGLL 301750Z 11013KT CAVOK 05/00 Q1014 NOSIG=
200901301720 METAR COR EGLL 301720Z 11014KT CAVOK 05/00 Q1014 NOSIG=
200901301650 METAR EGLL 301650Z 10012KT CAVOK 05/01 Q1014=
200901301620 METAR COR EGLL 301620Z 10013KT CAVOK 06/01 Q1014 NOSIG=
200901301550 METAR COR EGLL 301550Z 12013KT CAVOK 06/00 Q1014 NOSIG=
200901301520 METAR COR EGLL 301520Z 11012KT CAVOK 07/01 Q1014 NOSIG=
200901301450 METAR COR EGLL 301450Z 11012KT CAVOK 08/01 Q1014 NOSIG=
200901301420 METAR COR EGLL 301420Z 11014KT CAVOK 07/01 Q1014 NOSIG=
200901301350 METAR COR EGLL 301350Z 12012KT CAVOK 08/01 Q1014 NOSIG=
200901301320 METAR COR EGLL 301320Z 12013KT CAVOK 08/02 Q1015 NOSIG=
200901301250 METAR COR EGLL 301250Z 13011KT CAVOK 07/02 Q1015 NOSIG=
200901301220 METAR COR EGLL 301220Z 12010KT 8000 NSC 06/02 Q1016 NOSIG=
200901301150 METAR COR EGLL 301150Z 13009KT 8000 NSC 06/02 Q1016 NOSIG=
200901301120 METAR COR EGLL 301120Z 14010KT 8000 NSC 06/02 Q1016 NOSIG=
200901301050 METAR COR EGLL 301050Z 12010KT 6000 NSC 05/01 Q1017 NOSIG=
200901301020 METAR COR EGLL 301020Z 13010KT 5000 HZ NSC 04/02 Q1017 NOSIG=
200901300950 METAR COR EGLL 300950Z 12009KT 5000 HZ NSC 04/02 Q1017 NOSIG=
200901300920 METAR EGLL 300920Z 11009KT 7000 NSC 03/01 Q1017 NOSIG=
200901300850 METAR COR EGLL 300850Z 13008KT 6000 NSC 03/01 Q1017 NOSIG=
200901300820 METAR COR EGLL 300820Z 13006KT 5000 HZ NSC 03/01 Q1017 NOSIG=
200901300750 METAR COR EGLL 300750Z 13008KT 5000 HZ NSC 03/01 Q1017 NOSIG=
200901300720 METAR COR EGLL 300720Z 13008KT 6000 NSC 02/01 Q1017 NOSIG=
200901300650 METAR COR EGLL 300650Z 12010KT 7000 NSC 02/01 Q1016 NOSIG=
200901300620 METAR COR EGLL 300620Z 13009KT 6000 NSC 02/01 Q1016 TEMPO
                        4500 HZ=
200901300550 METAR COR EGLL 300550Z 11009KT 5000 HZ NSC 02/01 Q1016 TEMPO
                        4500=
200901300520 METAR COR EGLL 300520Z 12007KT 5000 HZ NSC 02/01 Q1016 TEMPO
                        4500=
200901300450 METAR COR EGLL 300450Z 12009KT 5000 HZ FEW012 02/01 Q1017
                        TEMPO 4500=
200901300420 METAR COR EGLL 300420Z 12009KT 4800 HZ SCT012 01/00 Q1016
                        TEMPO 5000 BKN012=
200901300350 METAR EGLL 300350Z 13008KT 4800 HZ FEW013 01/M00 Q1016=
200901300320 METAR COR EGLL 300320Z 13008KT 4700 HZ NSC 01/M00 Q1016 TEMPO
                        5000=
200901300250 METAR COR EGLL 300250Z 13007KT 4700 HZ NSC 01/00 Q1017 TEMPO
                        5000=
200901300220 METAR COR EGLL 300220Z 13008KT 5000 HZ NSC 01/M00 Q1016 TEMPO
                        3500 BR=
200901300150 METAR COR EGLL 300150Z 12009KT 4800 HZ FEW017 01/00 Q1016
                        TEMPO 6000 BKN011=
200901300120 METAR COR EGLL 300120Z 11006KT 4900 HZ NSC 01/M00 Q1016 TEMPO
                        6000 BKN011=
200901300050 METAR COR EGLL 300050Z 10008KT 5000 HZ NSC 00/M01 Q1016 TEMPO
                        3500 BR=
200901300020 METAR COR EGLL 300020Z 11007KT 5000 HZ NSC 01/M01 Q1016 TEMPO
                        3500 BR=
200901292350 METAR COR EGLL 292350Z 10007KT 5000 HZ NSC 01/M01 Q1016 TEMPO
                        4000 BR=
200901292320 METAR COR EGLL 292320Z 10007KT 5000 HZ NSC 01/M01 Q1017 TEMPO
                        4000 BR=
200901292250 METAR COR EGLL 292250Z 12006KT 5000 HZ NSC 01/M00 Q1017 TEMPO
                        4000 BR=
200901292220 METAR COR EGLL 292220Z 13006KT 5000 HZ NSC 02/M00 Q1017 TEMPO
                        4000 BR=
200901292150 METAR COR EGLL 292150Z 11011KT 5000 HZ NSC 02/M00 Q1017 TEMPO
                        4000 BR=
200901292120 METAR COR EGLL 292120Z 12010KT 5000 BR NSC 02/M00 Q1017 TEMPO
                        4000=
200901292050 METAR COR EGLL 292050Z 11010KT 5000 BR FEW015 02/M00 Q1017
                        TEMPO 4000 BKN013=
200901292020 METAR COR EGLL 292020Z 12009KT 5000 HZ BKN015 02/M00 Q1017
                        TEMPO 4000 BR BKN013=
200901291950 METAR COR EGLL 291950Z 13008KT 5000 BR BKN014 02/00 Q1017
                        TEMPO 4000=
200901291920 METAR COR EGLL 291920Z 12006KT 5000 BR BKN015 01/M00 Q1017
                        TEMPO 4500 BKN014=
200901291850 METAR COR EGLL 291850Z 13007KT 6000 BKN015 02/M00 Q1017 TEMPO
                        BKN014=
200901291820 METAR COR EGLL 291820Z 14008KT 6000 SCT015 03/M00 Q1017 TEMPO
                        BKN014=
200901291750 METAR COR EGLL 291750Z 15011KT 7000 NSC 03/M00 Q1017 NOSIG=
200901291720 METAR COR EGLL 291720Z 14011KT 9000 NSC 04/M01 Q1016 NOSIG=
200901291650 METAR COR EGLL 291650Z 13010KT CAVOK 04/M01 Q1017 NOSIG=
200901291620 METAR COR EGLL 291620Z 14007KT CAVOK 05/M01 Q1016 NOSIG=
200901291550 METAR COR EGLL 291550Z 13011KT CAVOK 05/M01 Q1016 NOSIG=
200901291520 METAR EGLL 291520Z 14011KT CAVOK 06/M01 Q1016 NOSIG=
200901291450 METAR COR EGLL 291450Z 14012KT CAVOK 06/00 Q1016 NOSIG=
200901291420 METAR COR EGLL 291420Z 12010KT CAVOK 06/01 Q1015 NOSIG=
200901291350 METAR COR EGLL 291350Z 12011KT 9999 FEW020 06/01 Q1016 NOSIG=
200901291320 METAR COR EGLL 291320Z 16010KT 9999 FEW018 05/01 Q1016 NOSIG=
200901291250 METAR COR EGLL 291250Z 14008KT 9999 FEW020 05/01 Q1017 NOSIG=
200901291220 METAR COR EGLL 291220Z 14008KT 9999 BKN017 05/01 Q1017 NOSIG=
200901291150 METAR COR EGLL 291150Z 15011KT 9000 BKN015 04/01 Q1017 NOSIG=
200901291120 METAR COR EGLL 291120Z 14010KT 9000 BKN016 03/00 Q1017 NOSIG=
200901291050 METAR COR EGLL 291050Z 14009KT 9000 BKN018 04/00 Q1018 NOSIG=
200901291020 METAR COR EGLL 291020Z 13010KT 9000 BKN018 03/00 Q1017 NOSIG=
200901290950 METAR COR EGLL 290950Z 11009KT 9000 BKN016 03/00 Q1017 NOSIG=
200901290920 METAR COR EGLL 290920Z 15009KT 9999 OVC015 03/00 Q1017 NOSIG=
200901290850 METAR COR EGLL 290850Z 14007KT 9999 BKN015 03/00 Q1017 NOSIG=
200901290820 METAR COR EGLL 290820Z 14008KT 9999 BKN015 03/01 Q1017 NOSIG=
200901290750 METAR COR EGLL 290750Z 14008KT 9999 BKN014 03/01 Q1017 BECMG
                        SCT016=
200901290720 METAR COR EGLL 290720Z 14007KT 120V180 9999 BKN013 03/01
                        Q1017 BECMG BKN015=
200901290650 METAR COR EGLL 290650Z 13008KT 9999 BKN011 03/01 Q1017 NOSIG=
200901290620 METAR COR EGLL 290620Z 13010KT 9999 BKN010 03/01 Q1016 NOSIG=
200901290550 METAR COR EGLL 290550Z 14010KT 9999 BKN009 03/02 Q1016 BECMG
                        BKN012=
200901290520 METAR COR EGLL 290520Z 13011KT 9000 FEW005 BKN009 04/03 Q1016
                        BECMG BKN012=
200901290450 METAR COR EGLL 290450Z 14011KT 4900 BR BKN004 05/04 Q1016
                        BECMG 6000 NSW BKN006=
200901290420 METAR COR EGLL 290420Z 13009KT 4100 BR BKN004 05/04 Q1016
                        BECMG 5000 BKN006=
200901290350 METAR COR EGLL 290350Z 15006KT 3900 BR BKN004 05/04 Q1016
                        BECMG BKN006=
200901290320 METAR COR EGLL 290320Z 14007KT 3200 BR BKN003 05/04 Q1016
                        BECMG BKN005=
200901290250 METAR EGLL 290250Z 13007KT 2900 BR BKN002 05/05 Q1016=
200901290220 METAR COR EGLL 290220Z 15005KT 2500 BR OVC003 05/05 Q1016
                        NOSIG=
200901290150 METAR COR EGLL 290150Z 15005KT 3200 BR OVC004 05/05 Q1016
                        NOSIG=
200901290120 METAR COR EGLL 290120Z 17006KT 3600 BR BKN003 06/05 Q1016
                        NOSIG=
200901290050 METAR COR EGLL 290050Z 14006KT 3000 BR BKN003 06/05 Q1016
                        NOSIG=
200901290020 METAR COR EGLL 290020Z 15006KT 3700 BR BKN003 06/05 Q1016
                        NOSIG=
200901282350 METAR COR EGLL 282350Z 16007KT 5000 BR BKN005 06/05 Q1016
                        TEMPO 4000=
200901282320 METAR COR EGLL 282320Z 15006KT 5000 BR BKN003 06/05 Q1016
                        TEMPO 4000=
200901282250 METAR EGLL 282250Z 14005KT 3000 DZ BKN003 06/05 Q1016=
200901282220 METAR COR EGLL 282220Z 12005KT 080V150 4000 BR SCT003 BKN007
                        06/06 Q1016 TEMPO BKN003=
200901282150 METAR EGLL 282150Z 13005KT 090V170 3200 -DZRA SCT004 BKN007
                        06/06 Q1016=
200901282120 METAR COR EGLL 282120Z 14005KT 110V180 2900 -DZRA FEW004
                        SCT007 BKN009 06/06 Q1016 TEMPO BKN004=
200901282050 METAR COR EGLL 282050Z 15005KT 110V190 3000 -DZRA SCT004
                        BKN008 06/06 Q1016 NOSIG=
200901282020 METAR COR EGLL 282020Z 14005KT 110V170 2300 -DZ FEW003 SCT004
                        BKN007 06/06 Q1016 TEMPO BKN003=
200901281950 METAR COR EGLL 281950Z 14006KT 110V190 2600 -DZ BKN005 BKN008
                        07/06 Q1016 TEMPO BKN004=
200901281920 METAR COR EGLL 281920Z 14004KT 110V170 3100 -DZ BKN004 BKN008
                        07/06 Q1016 NOSIG=
200901281850 METAR COR EGLL 281850Z 15005KT 6000 SCT005 BKN009 07/06 Q1016
                        TEMPO 4000 BR=
200901281820 METAR COR EGLL 281820Z 14005KT 090V180 9999 SCT008 BKN012
                        07/06 Q1015 BECMG BKN008=
200901281750 METAR COR EGLL 281750Z 15005KT 090V190 9999 FEW006 BKN008
                        07/06 Q1015 BECMG 4500 BR=
200901281720 METAR COR EGLL 281720Z 14006KT 100V180 9999 FEW005 OVC010
                        07/06 Q1015 BECMG 4500 BR BKN006=
200901281650 METAR COR EGLL 281650Z 15005KT 100V250 9999 FEW004 SCT005
                        OVC013 07/06 Q1015 TEMPO 4500 -DZ
                        BR BKN006=
200901281620 METAR COR EGLL 281620Z 16005KT 130V290 9999 SCT005 SCT008
                        BKN016 07/06 Q1014 BECMG BKN007=
200901281550 METAR COR EGLL 281550Z 17007KT 140V220 9000 BKN005 BKN014
                        07/06 Q1014 TEMPO 4000 -DZ=
200901281520 METAR COR EGLL 281520Z 17007KT 9999 SCT009 BKN014 07/06 Q1014
                        TEMPO BKN008=
200901281450 METAR COR EGLL 281450Z 17008KT 130V240 9000 BKN006 07/06
                        Q1014 NOSIG=
200901281420 METAR COR EGLL 281420Z 18007KT 150V230 8000 FEW004 BKN006
                        07/07 Q1014 NOSIG=
200901281350 METAR COR EGLL 281350Z 18007KT 140V240 5000 -DZ FEW003 BKN005
                        07/07 Q1013 TEMPO 4500 BR=
200901281320 METAR COR EGLL 281320Z 17007KT 130V220 4000 -DZ BKN004 OVC005
                        07/06 Q1014 TEMPO 5000 SCT004 BKN008=
200901281250 METAR COR EGLL 281250Z 17005KT 120V240 3400 -RA FEW003 BKN005
                        07/06 Q1014 TEMPO 5000=
200901281220 METAR COR EGLL 281220Z 16006KT 130V220 3000 -RADZ BR FEW002
                        BKN005 07/06 Q1014 TEMPO 5000=
200901281150 METAR COR EGLL 281150Z 16006KT 120V240 3000 -RADZ BKN004
                        07/06 Q1014 TEMPO 5000 DZ SCT004
                        BKN006=
200901281120 METAR EGLL 281120Z 16007KT 130V230 3700 -RADZ BKN004 07/06
                        Q1014=
200901281050 METAR COR EGLL 281050Z 17008KT 130V230 5000 -RADZ SCT004
                        BKN007 06/06 Q1014 TEMPO 4500 BR
                        BKN004=
200901281020 METAR COR EGLL 281020Z 16007KT 120V200 6000 -RADZ SCT004
                        BKN008 06/06 Q1013 TEMPO 4500 RADZ
                        BKN004=
200901280950 METAR COR EGLL 280950Z 16009KT 120V210 6000 -RA BKN004 06/05
                        Q1013 TEMPO 4500 RADZ BKN006=
200901280920 METAR COR EGLL 280920Z 15008KT 7000 -RA BKN006 06/05 Q1013
                        TEMPO 3500 RADZ BKN004=
200901280850 METAR COR EGLL 280850Z 16008KT 7000 -RA BKN006 06/05 Q1013
                        TEMPO 3500 RADZ BR BKN004=
200901280820 METAR COR EGLL 280820Z 16006KT 6000 -RA BKN005 06/05 Q1013
                        RERA TEMPO 3500 RADZ BR BKN004=
200901280750 METAR COR EGLL 280750Z 16006KT 6000 RA BKN006 06/05 Q1013
                        TEMPO 3500 -DZ=
200901280720 METAR COR EGLL 280720Z 15005KT 5000 -RA BKN007 06/05 Q1013
                        TEMPO 4000 -RADZ=
200901280650 METAR COR EGLL 280650Z 14005KT 4700 -RA BKN006 06/05 Q1013
                        TEMPO BKN004=
200901280620 METAR COR EGLL 280620Z 14004KT 4200 -RA OVC005 06/05 Q1013
                        TEMPO RA BKN003=
200901280550 METAR COR EGLL 280550Z 14005KT 4000 -RA OVC006 06/05 Q1013
                        TEMPO RA=
200901280520 METAR COR EGLL 280520Z 13004KT 3500 -RA BKN005 BKN008 05/05
                        Q1013 RERA TEMPO RA BKN003=
200901280450 METAR COR EGLL 280450Z 14004KT 2900 -RA FEW003 OVC005 05/05
                        Q1013 RERA TEMPO RA BKN003=
200901280420 METAR COR EGLL 280420Z 15005KT 120V200 1800 -RA BKN003 05/04
                        Q1013 RERA NOSIG=
200901280350 METAR COR EGLL 280350Z 15005KT 1700 DZ OVC006 05/04 Q1013
                        TEMPO RADZ BKN004=
200901280320 METAR COR EGLL 280320Z 15005KT 2500 DZ OVC007 05/04 Q1013
                        TEMPO RADZ BKN004=
200901280250 METAR COR EGLL 280250Z 15006KT 4200 HZ OVC007 05/04 Q1013
                        TEMPO RA BKN004=
200901280220 METAR EGLL 280220Z NIL=
200901280150 METAR EGLL 280150Z NIL=
200901280120 METAR EGLL 280120Z NIL=
200901280050 METAR COR EGLL 280050Z 16005KT 5000 -RA BKN010 05/04 Q1013
                        RERA BECMG 4000 -RADZ BKN007=
200901280020 METAR EGLL 280020Z 16007KT 8000 BKN011 BKN037 06/04 Q1013=
200901272350 METAR COR EGLL 272350Z 15007KT 9999 BKN011 06/03 Q1013 BECMG
                        BKN008=
200901272320 METAR COR EGLL 272320Z 15007KT 9999 BKN012 OVC033 06/04 Q1014
                        BECMG BKN008=
200901272250 METAR COR EGLL 272250Z 16006KT 9999 BKN013 BKN030 06/03 Q1014
                        BECMG BKN008=
200901272220 METAR COR EGLL 272220Z 17007KT 9999 BKN013 06/03 Q1014 BECMG
                        BKN008=
200901272150 METAR COR EGLL 272150Z 18010KT 9999 BKN013 06/03 Q1014 BECMG
                        BKN008=
200901272120 METAR COR EGLL 272120Z 18010KT 9999 BKN014 06/03 Q1014 BECMG
                        BKN008=
200901272050 METAR COR EGLL 272050Z 17009KT 130V230 9999 BKN015 06/03
                        Q1014 BECMG BKN012=
200901272020 METAR COR EGLL 272020Z 17008KT 9999 BKN017 06/04 Q1014 TEMPO
                        BKN012=
200901271950 METAR COR EGLL 271950Z 18009KT 120V230 9999 FEW011 BKN017
                        06/04 Q1014 TEMPO BKN010=
200901271920 METAR COR EGLL 271920Z 20007KT 9999 BKN011 06/04 Q1014 TEMPO
                        BKN008=
200901271850 METAR COR EGLL 271850Z 19007KT 150V240 9999 BKN015 06/04
                        Q1014 BECMG BKN012=
200901271820 METAR COR EGLL 271820Z 18007KT 9999 BKN017 06/04 Q1014 TEMPO
                        BKN012=
200901271750 METAR COR EGLL 271750Z 17007KT 150V280 9999 FEW012 SCT022
                        06/04 Q1014 TEMPO BKN012=
200901271720 METAR COR EGLL 271720Z 17007KT 110V200 9999 FEW013 SCT022
                        07/04 Q1014 TEMPO BKN012=
200901271650 METAR COR EGLL 271650Z 17007KT 120V230 9999 SCT023 07/04
                        Q1014 NOSIG=
200901271620 METAR COR EGLL 271620Z 17008KT 120V250 9999 BKN026 07/04
                        Q1014 NOSIG=
200901271550 METAR EGLL 271550Z 18007KT 160V270 9999 BKN025 07/04 Q1014
                        NOSIG=
200901271520 METAR COR EGLL 271520Z 19009G19KT 160V240 9999 SCT020 08/03
                        Q1014 NOSIG=
200901271450 METAR COR EGLL 271450Z 20010KT 170V240 9999 FEW020 08/04
                        Q1013 NOSIG=
200901271420 METAR COR EGLL 271420Z 19009KT 170V240 9999 FEW020 08/04
                        Q1013 NOSIG=
200901271350 METAR COR EGLL 271350Z 20009KT 180V240 9999 FEW020 09/04
                        Q1013 NOSIG=
200901271320 METAR COR EGLL 271320Z 20009KT 9999 FEW016 08/04 Q1013 NOSIG=
200901271250 METAR COR EGLL 271250Z 20009KT 180V240 9999 FEW019 08/04
                        Q1013 NOSIG=
200901271220 METAR COR EGLL 271220Z 21007KT 160V250 9999 FEW020 07/04
                        Q1014 NOSIG=
200901271150 METAR COR EGLL 271150Z 21007KT 160V260 8000 FEW020 07/04
                        Q1014 NOSIG=
200901271120 METAR COR EGLL 271120Z 20006KT 130V260 5000 BR FEW014 06/05
                        Q1014 BECMG NSW=
200901271050 METAR COR EGLL 271050Z 21005KT 170V260 7000 3400SW PRFG FEW040
                        05/04 Q1014 BECMG NSW=
200901271020 METAR COR EGLL 271020Z 21005KT 150V250 6000 0800SW R27L/P1500
                        R27R/P1500 PRFG NSC 03/03 Q1014 BECMG
                        NSW BKN020=
200901270950 METAR COR EGLL 270950Z VRB04KT 6000 0800S R27L/1300 R27R/P1500
                        PRFG NSC 02/02 Q1013 TEMPO BKN008=
200901270920 METAR COR EGLL 270920Z 00000KT 1700 BR FEW018 02/02 Q1013
                        TEMPO BKN005=
200901270850 METAR COR EGLL 270850Z VRB02KT 0600 R27L/P1500 R27R/P1500
                        FG SCT017 01/01 Q1014 TEMPO 3000
                        BR BKN003=
200901270820 METAR COR EGLL 270820Z 32003KT 0600 R27L/P1500 R27R/P1500
                        FG SCT017 01/01 Q1013 TEMPO BKN003=
200901270750 METAR COR EGLL 270750Z VRB02KT 2000 0700NW R27L/P1500 R27R/P1500
                        BR BKN017 01/01 Q1013 TEMPO 0500
                        BCFG BKN003=
200901270720 METAR COR EGLL 270720Z 23004KT 180V270 2400 1200W R27L/P1500
                        R27R/P1500 BR BKN018 01/01 Q1013
                        NOSIG=
200901270650 METAR COR EGLL 270650Z VRB03KT 1600 BR FEW003 BKN018 01/00
                        Q1012 NOSIG=
200901270620 METAR COR EGLL 270620Z 00000KT 1000 R27L/1100 R27R/P1500
                        BR BKN001 BKN018 00/00 Q1012 TEMPO
                        0600 FG=
200901270550 METAR COR EGLL 270550Z 00000KT 0150 R27R/0650 FG VV/// 00/00
                        Q1012 NOSIG=
200901270520 METAR COR EGLL 270520Z 00000KT 0200 R27R/0450 FZFG VV///
                        00/00 Q1012 NOSIG=
200901270450 METAR COR EGLL 270450Z 00000KT 0100 R27R/0500 FZFG VV///
                        00/M00 Q1012 NOSIG=
200901270420 METAR COR EGLL 270420Z 00000KT 0100 R27R/0400 FZFG VV///
                        00/M00 Q1011 NOSIG=
200901270350 METAR COR EGLL 270350Z 00000KT 0100 R27R/0300 FZFG VV///
                        00/00 Q1011 NOSIG=
200901270320 METAR COR EGLL 270320Z 00000KT 0100 R27R/0350 FZFG VV///
                        00/00 Q1011 NOSIG=
200901270250 METAR COR EGLL 270250Z VRB02KT 0200 R27R/0450 FG VV/// 01/00
                        Q1011 NOSIG=
200901270220 METAR EGLL 270220Z AUTO 00000KT 0100NDV R27R/0375 FG VV///
                        01/00 Q1011=
200901270150 METAR EGLL 270150Z AUTO 00000KT 0100NDV R27R/0400 FG VV///
                        00/M00 Q1010=
200901270120 METAR EGLL 270120Z AUTO 00000KT 0100NDV R27R/1200 -SN SCT000///
                        01/01 Q1010=
200901270050 METAR COR EGLL 270050Z 00000KT 4500 R27R/0350 BR NSC 02/01
                        Q1010 NOSIG=
200901270020 METAR COR EGLL 270020Z 00000KT 5000 HZ NSC 02/01 Q1009 TEMPO
                        3000 BR=
200901262350 METAR COR EGLL 262350Z 07002KT 6000 NSC 03/02 Q1009 TEMPO
                        4000 BR=
200901262320 METAR COR EGLL 262320Z 00000KT 6000 NSC 03/02 Q1009 TEMPO
                        4000 BR=
200901262250 METAR COR EGLL 262250Z VRB02KT 7000 NSC 04/03 Q1009 TEMPO
                        4000 BR=
200901262220 METAR COR EGLL 262220Z 00000KT 9000 NSC 05/04 Q1008 NOSIG=
200901262150 METAR COR EGLL 262150Z 07002KT 9000 NSC 04/03 Q1008 NOSIG=
200901262120 METAR COR EGLL 262120Z 03002KT 9000 NSC 05/04 Q1008 NOSIG=
200901262050 METAR COR EGLL 262050Z 03003KT 9000 NSC 05/04 Q1007 NOSIG=
200901262020 METAR COR EGLL 262020Z 04003KT 9999 FEW018 BKN030 06/04 Q1007
                        NOSIG=
200901261950 METAR COR EGLL 261950Z 36004KT 330V040 9999 BKN020 06/04
                        Q1007 NOSIG=
200901261920 METAR COR EGLL 261920Z VRB03KT 9999 FEW022 05/03 Q1006 NOSIG=
200901261850 METAR COR EGLL 261850Z 06004KT 9999 FEW042 06/03 Q1005 NOSIG=
200901261820 METAR COR EGLL 261820Z 04004KT 9999 SCT040 07/04 Q1005 NOSIG=
200901261750 METAR COR EGLL 261750Z 04004KT 9999 SCT030 SCT040 07/04 Q1005
                        NOSIG=
200901261720 METAR COR EGLL 261720Z 04003KT 9999 SCT030 BKN042 08/04 Q1004
                        NOSIG=
200901261650 METAR COR EGLL 261650Z 05003KT 9999 FEW033 BKN041 08/03 Q1003
                        NOSIG=
200901261620 METAR COR EGLL 261620Z 03002KT 9999 BKN031 08/03 Q1003 NOSIG=
200901261550 METAR COR EGLL 261550Z VRB03KT 9999 SCT030 08/04 Q1003 NOSIG=
200901261520 METAR EGLL 261520Z 08004KT 9999 FEW023 SCT026 09/04 Q1002=
200901261450 METAR COR EGLL 261450Z 09005KT 060V130 9999 SCT028 08/04
                        Q1001 NOSIG=
200901261420 METAR COR EGLL 261420Z 10005KT 9999 FEW023 09/04 Q1001 NOSIG=
200901261350 METAR COR EGLL 261350Z 09005KT 050V120 9999 FEW019 09/05
                        Q1000 NOSIG=
200901261320 METAR COR EGLL 261320Z 09005KT 050V120 9999 FEW021 09/05
                        Q1000 NOSIG=
200901261250 METAR COR EGLL 261250Z 10006KT 9999 SCT023 09/05 Q1000 NOSIG=
200901261220 METAR COR EGLL 261220Z 11004KT 070V140 9999 BKN017 09/05
                        Q1000 NOSIG=
200901261150 METAR COR EGLL 261150Z 11005KT 060V150 9999 FEW016 08/05
                        Q1000 NOSIG=
200901261120 METAR COR EGLL 261120Z 09006KT 9999 SCT028 08/06 Q0999 NOSIG=
200901261050 METAR COR EGLL 261050Z 09007KT 9999 FEW029 08/06 Q0999 NOSIG=
200901261020 METAR COR EGLL 261020Z 09006KT 9999 FEW025 07/05 Q0998 NOSIG=
200901260950 METAR COR EGLL 260950Z 09007KT 9999 FEW025 07/05 Q0998 NOSIG=
200901260920 METAR COR EGLL 260920Z 09006KT 9999 FEW024 06/05 Q0997 NOSIG=
200901260850 METAR COR EGLL 260850Z 08005KT 9000 FEW027 05/04 Q0997 NOSIG=
200901260820 METAR EGLL 260820Z 10006KT 9000 FEW014 SCT027 05/04 Q0997=
200901260750 METAR COR EGLL 260750Z 07004KT 9999 BKN027 05/04 Q0996 NOSIG=
200901260720 METAR COR EGLL 260720Z 08005KT 9999 FEW013 BKN019 06/05 Q0995
                        NOSIG=
200901260650 METAR COR EGLL 260650Z 14004KT 9999 BKN015 06/05 Q0995 TEMPO
                        BKN012=
200901260620 METAR COR EGLL 260620Z 16003KT 9999 BKN012 06/05 Q0994 NOSIG=
200901260550 METAR COR EGLL 260550Z 15005KT 9999 BKN012 06/05 Q0994 NOSIG=
200901260520 METAR COR EGLL 260520Z 15006KT 9999 BKN011 06/05 Q0994 NOSIG=
200901260450 METAR COR EGLL 260450Z 16004KT 9999 BKN011 06/05 Q0993 NOSIG=
200901260420 METAR COR EGLL 260420Z 15004KT 9999 BKN012 05/04 Q0993 TEMPO
                        SCT012=
200901260350 METAR COR EGLL 260350Z 13006KT 9999 SCT011 SCT014 04/04 Q0993
                        NOSIG=
200901260320 METAR COR EGLL 260320Z 14005KT 9999 SCT012 04/03 Q0992 NOSIG=
200901260250 METAR COR EGLL 260250Z 14005KT CAVOK 04/04 Q0992 NOSIG=
200901260220 METAR EGLL 260220Z AUTO 13006KT 9999NDV NCD 05/04 Q0992=
200901260150 METAR EGLL 260150Z AUTO 15006KT 9999NDV NCD 06/05 Q0991=
200901260120 METAR EGLL 260120Z AUTO 14005KT 9999NDV NCD 06/05 Q0991=
200901260050 METAR EGLL 260050Z 16005KT 9999 BKN012 06/05 Q0991=
200901260020 METAR COR EGLL 260020Z 13007KT CAVOK 06/05 Q0990 NOSIG=
200901252350 METAR COR EGLL 252350Z 15006KT 9999 FEW044 06/05 Q0990 NOSIG=
200901252320 METAR COR EGLL 252320Z 15007KT 9999 FEW030 SCT044 06/05 Q0990
                        NOSIG=
200901252250 METAR COR EGLL 252250Z 15006KT 9999 BKN041 06/05 Q0989 NOSIG=
200901252220 METAR COR EGLL 252220Z 15006KT 9999 FEW031 SCT048 06/05 Q0989
                        REDZ NOSIG=
200901252150 METAR COR EGLL 252150Z 16005KT 9999 -RA FEW009 06/05 Q0989
                        NOSIG=
200901252120 METAR COR EGLL 252120Z 16006KT 9999 -RA FEW010 06/05 Q0988
                        NOSIG=
200901252050 METAR COR EGLL 252050Z 16005KT 9999 -RA FEW011 SCT028 06/05
                        Q0988 RERA NOSIG=
200901252020 METAR COR EGLL 252020Z 13005KT 9000 -RA FEW012 SCT027 BKN033
                        06/05 Q0988 NOSIG=
200901251950 METAR COR EGLL 251950Z 13005KT 100V190 9999 FEW007 SCT013
                        06/05 Q0987 NOSIG=
200901251920 METAR COR EGLL 251920Z 15006KT 090V200 9999 FEW020 SCT039
                        06/05 Q0987 NOSIG=
200901251850 METAR COR EGLL 251850Z 15006KT 120V230 9999 FEW021 SCT025
                        06/05 Q0987 NOSIG=
200901251820 METAR COR EGLL 251820Z 14006KT 110V210 9999 SCT021 BKN032
                        06/05 Q0986 NOSIG=
200901251750 METAR COR EGLL 251750Z 14006KT 110V180 9999 SCT020 06/05
                        Q0986 NOSIG=
200901251720 METAR COR EGLL 251720Z 14006KT 100V220 9999 FEW016 SCT024
                        06/05 Q0986 NOSIG=
200901251650 METAR COR EGLL 251650Z 15005KT 100V200 9999 FEW016 SCT030
                        06/05 Q0986 NOSIG=
200901251620 METAR COR EGLL 251620Z 16005KT 070V220 9999 SCT029 BKN037
                        07/05 Q0986 NOSIG=
200901251550 METAR COR EGLL 251550Z 16006KT 100V240 9999 FEW022 07/05
                        Q0985 NOSIG=
200901251520 METAR COR EGLL 251520Z 17005KT 130V230 9999 -RA FEW009 BKN014
                        BKN020 07/05 Q0985 TEMPO SCT014=
200901251450 METAR EGLL 251450Z 16007KT 130V210 9999 7000SE -RA SCT009
                        BKN014 07/05 Q0985=
200901251420 METAR COR EGLL 251420Z 18009KT 9000 -RA SCT013 BKN026 07/06
                        Q0985 TEMPO RA BKN014=
200901251350 METAR COR EGLL 251350Z 18010KT 160V220 9999 -RA FEW017 BKN028
                        07/06 Q0985 TEMPO RA=
200901251320 METAR COR EGLL 251320Z 18010KT 140V220 9000 -RA FEW012 BKN029
                        08/06 Q0985 TEMPO RA=
200901251250 METAR COR EGLL 251250Z 18009KT 150V240 9999 FEW010 BKN014
                        08/06 Q0985 TEMPO RA=
200901251220 METAR COR EGLL 251220Z 19010KT 160V230 9999 -DZ FEW014 OVC017
                        08/06 Q0985 TEMPO BKN014=
200901251150 METAR EGLL 251150Z 18011KT 9999 SCT012 BKN019 08/06 Q0985=
200901251120 METAR COR EGLL 251120Z 18010KT 9999 VCSH FEW017 BKN022 07/06
                        Q0985 TEMPO RA BKN014=
200901251050 METAR COR EGLL 251050Z 18011KT 9999 FEW015 SCT031 07/06 Q0985
                        NOSIG=
200901251020 METAR COR EGLL 251020Z 18010KT 9999 FEW012 SCT033 07/06 Q0984
                        TEMPO RA BKN014=
200901250950 METAR COR EGLL 250950Z 18010KT 150V270 9999 FEW015 BKN033
                        07/06 Q0984 NOSIG=
200901250920 METAR COR EGLL 250920Z 17012KT 120V200 9999 -RA FEW014 BKN027
                        07/06 Q0984 NOSIG=
200901250850 METAR COR EGLL 250850Z 18011KT 9999 -RA FEW015 SCT027 07/06
                        Q0984 TEMPO BKN014=
200901250820 METAR COR EGLL 250820Z 17013KT 9999 -RA FEW013 SCT016 08/06
                        Q0984 RERA TEMPO BKN014=
200901250750 METAR COR EGLL 250750Z 18015KT 8000 RA BKN015 BKN019 08/06
                        Q0983 TEMPO BKN014=
200901250720 METAR COR EGLL 250720Z 17014KT 9999 RA BKN014 BKN021 08/06
                        Q0983 NOSIG=
200901250650 METAR COR EGLL 250650Z 17014KT 7000 RA BKN012 BKN017 07/06
                        Q0983 NOSIG=
200901250620 METAR COR EGLL 250620Z 16015G25KT 6000 RA BKN011 07/06 Q0983
                        NOSIG=
200901250550 METAR COR EGLL 250550Z 16015KT 9000 RA BKN013 07/06 Q0983
                        NOSIG=
200901250520 METAR COR EGLL 250520Z 16015KT 9000 RA BKN011 BKN020 07/06
                        Q0984 RERA NOSIG=
200901250450 METAR COR EGLL 250450Z 17015KT 7000 RA BKN012 07/06 Q0984
                        NOSIG=
200901250420 METAR COR EGLL 250420Z 16015KT 8000 -RA BKN012 07/05 Q0984
                        NOSIG=
200901250350 METAR COR EGLL 250350Z 16015KT 9999 -RA BKN014 07/05 Q0985
                        NOSIG=
200901250320 METAR COR EGLL 250320Z 16016KT 9999 -RA BKN017 07/05 Q0986
                        BECMG BKN014=
200901250250 METAR COR EGLL 250250Z 16014KT 9999 -RA BKN018 07/04 Q0986
                        BECMG BKN014=
200901250220 METAR EGLL 250220Z AUTO 17013KT 9999NDV -RA SCT021/// SCT042///
                        07/04 Q0987=
200901250150 METAR EGLL 250150Z AUTO 17015KT 9999NDV SCT036/// SCT042///
                        BKN047/// 07/03 Q0988=
200901250120 METAR EGLL 250120Z AUTO 17014KT 9999NDV FEW047/// 07/03 Q0988=
200901250050 METAR COR EGLL 250050Z 18017KT 9999 FEW019 07/03 Q0989 NOSIG
                        NOSIG=
200901250020 METAR COR EGLL 250020Z 18012KT 9999 -RA FEW016 07/04 Q0990
                        NOSIG=
200901242350 METAR COR EGLL 242350Z 19013KT 9999 FEW017 06/04 Q0991 NOSIG=
200901242320 METAR COR EGLL 242320Z 17010KT 9999 FEW016 06/04 Q0991 NOSIG=
200901242250 METAR COR EGLL 242250Z 16009KT 140V220 9999 FEW026 05/03
                        Q0992 NOSIG=
200901242220 METAR COR EGLL 242220Z 17008KT 130V240 CAVOK 05/03 Q0992
                        NOSIG=
200901242150 METAR COR EGLL 242150Z 17007KT 150V240 CAVOK 04/02 Q0993
                        NOSIG=
200901242120 METAR COR EGLL 242120Z 17009KT 130V220 CAVOK 04/02 Q0993
                        NOSIG=
200901242050 METAR COR EGLL 242050Z 18006KT 130V240 CAVOK 03/02 Q0994
                        NOSIG=
200901242020 METAR COR EGLL 242020Z 18006KT 140V220 CAVOK 04/02 Q0994
                        NOSIG=
200901241950 METAR COR EGLL 241950Z 19007KT 160V240 CAVOK 03/02 Q0994
                        NOSIG=
200901241920 METAR COR EGLL 241920Z 18009KT 150V230 CAVOK 03/01 Q0994
                        NOSIG=
200901241850 METAR COR EGLL 241850Z 21007KT 190V250 CAVOK 04/01 Q0995
                        NOSIG=
200901241820 METAR COR EGLL 241820Z 21008KT 180V240 CAVOK 04/01 Q0994
                        NOSIG=
200901241750 METAR COR EGLL 241750Z 19006KT CAVOK 04/01 Q0994 NOSIG=
200901241720 METAR COR EGLL 241720Z 20007KT 160V240 CAVOK 04/01 Q0994
                        NOSIG=
200901241650 METAR COR EGLL 241650Z 19007KT 150V240 CAVOK 05/01 Q0994
                        NOSIG=
200901241620 METAR COR EGLL 241620Z 20006KT 160V250 CAVOK 06/01 Q0993
                        NOSIG=
200901241550 METAR COR EGLL 241550Z 25010KT CAVOK 07/01 Q0994 NOSIG=
200901241520 METAR COR EGLL 241520Z 25008KT CAVOK 07/02 Q0993 NOSIG=
200901241450 METAR COR EGLL 241450Z 25008KT CAVOK 07/02 Q0992 NOSIG=
200901241420 METAR COR EGLL 241420Z 25006KT CAVOK 06/02 Q0992 NOSIG=
200901241350 METAR COR EGLL 241350Z 28007KT CAVOK 06/02 Q0992 NOSIG=
200901241320 METAR COR EGLL 241320Z 27006KT 240V300 CAVOK 05/02 Q0992
                        NOSIG=
200901241250 METAR COR EGLL 241250Z 28006KT CAVOK 05/02 Q0991 NOSIG=
200901241220 METAR COR EGLL 241220Z 28006KT CAVOK 04/02 Q0991 NOSIG=
200901241150 METAR COR EGLL 241150Z 28006KT CAVOK 04/01 Q0991 NOSIG=
200901241120 METAR COR EGLL 241120Z 28006KT CAVOK 04/02 Q0991 NOSIG=
200901241050 METAR COR EGLL 241050Z 28006KT CAVOK 03/02 Q0991 NOSIG=
200901241020 METAR COR EGLL 241020Z 27006KT 9000 NSC 02/01 Q0990 NOSIG=
200901240950 METAR COR EGLL 240950Z 27005KT CAVOK 01/00 Q0990 NOSIG=
200901240920 METAR COR EGLL 240920Z 26004KT CAVOK 01/M00 Q0989 NOSIG=
200901240850 METAR COR EGLL 240850Z 26004KT CAVOK 01/M00 Q0988 NOSIG=
200901240820 METAR COR EGLL 240820Z 27005KT CAVOK 00/M00 Q0987 NOSIG=
200901240750 METAR COR EGLL 240750Z 28003KT CAVOK 00/M01 Q0987 NOSIG=
200901240720 METAR COR EGLL 240720Z 30005KT CAVOK 00/M00 Q0986 NOSIG=
200901240650 METAR COR EGLL 240650Z 31002KT CAVOK 01/M00 Q0986 NOSIG=
200901240620 METAR COR EGLL 240620Z 29002KT 8000 NSC M01/M01 Q0985 NOSIG=
200901240550 METAR COR EGLL 240550Z 30003KT 8000 NSC M01/M02 Q0985 NOSIG=
200901240520 METAR COR EGLL 240520Z 29004KT 7000 NSC M01/M02 Q0985 NOSIG=
200901240450 METAR COR EGLL 240450Z 00000KT 7000 NSC M01/M02 Q0984 NOSIG=
200901240420 METAR COR EGLL 240420Z 00000KT 8000 NSC M01/M02 Q0984 NOSIG=
200901240350 METAR COR EGLL 240350Z 00000KT 8000 NSC M01/M01 Q0984 NOSIG=
200901240320 METAR COR EGLL 240320Z 00000KT 8000 NSC M01/M02 Q0984 NOSIG=
200901240250 METAR COR EGLL 240250Z 00000KT CAVOK M00/M01 Q0984 NOSIG=
200901240220 METAR EGLL 240220Z AUTO 19003KT 8000NDV NCD 00/M01 Q0984=
200901240150 METAR COR EGLL 240150Z AUTO 19003KT 9000NDV NCD M00/M01 Q0984
                        NOSIG=
200901240120 METAR EGLL 240120Z AUTO 00000KT 9999NDV NCD 01/M00 Q0984=
200901240050 METAR COR EGLL 240050Z VRB02KT CAVOK 01/M00 Q0984 NOSIG=
200901240020 METAR COR EGLL 240020Z 24003KT CAVOK 01/00 Q0984 NOSIG=
200901232350 METAR COR EGLL 232350Z 20003KT CAVOK 01/00 Q0983 NOSIG=
200901232320 METAR COR EGLL 232320Z 21003KT CAVOK 02/00 Q0983 NOSIG=
200901232250 METAR COR EGLL 232250Z 23006KT 180V260 CAVOK 02/00 Q0983
                        NOSIG=
200901232220 METAR COR EGLL 232220Z 23008KT 180V260 CAVOK 02/00 Q0983
                        NOSIG=
200901232150 METAR COR EGLL 232150Z VRB07KT CAVOK 02/01 Q0984 NOSIG=
200901232120 METAR COR EGLL 232120Z 24008KT 200V270 CAVOK 03/00 Q0984
                        NOSIG=
200901232050 METAR COR EGLL 232050Z 23008KT 200V270 CAVOK 03/01 Q0984
                        NOSIG=
200901232020 METAR COR EGLL 232020Z 24010KT 210V270 CAVOK 04/01 Q0984
                        NOSIG=
200901231950 METAR COR EGLL 231950Z 26011KT CAVOK 04/01 Q0985 NOSIG=
200901231920 METAR COR EGLL 231920Z 27012KT CAVOK 04/01 Q0985 NOSIG=
200901231850 METAR COR EGLL 231850Z 25011KT CAVOK 05/00 Q0984 NOSIG=
200901231820 METAR COR EGLL 231820Z 25014KT 9999 SCT047 05/00 Q0984 NOSIG=
200901231750 METAR COR EGLL 231750Z 25013KT 9999 FEW045 05/M00 Q0984 NOSIG=
200901231720 METAR COR EGLL 231720Z 27013KT 9999 FEW045 05/M00 Q0984 NOSIG=
200901231650 METAR COR EGLL 231650Z 27014KT 9999 FEW045 05/M01 Q0983 NOSIG=
200901231620 METAR COR EGLL 231620Z 28012KT 9999 FEW045 06/00 Q0983 TEMPO
                        29016G26KT=
200901231550 METAR COR EGLL 231550Z 28012KT 9999 FEW043 07/M00 Q0982 NOSIG=
200901231520 METAR COR EGLL 231520Z 28014KT 9999 SCT046 06/M00 Q0982 NOSIG=
200901231450 METAR COR EGLL 231450Z 29017KT CAVOK 07/M00 Q0981 NOSIG=
200901231420 METAR COR EGLL 231420Z 29015KT 9999 SCT036 SCT044 07/01 Q0980
                        NOSIG=
200901231350 METAR COR EGLL 231350Z 29014KT 9999 FEW034 BKN040 07/01 Q0979
                        NOSIG=
200901231320 METAR COR EGLL 231320Z 30017KT 9999 SCT033 SCT041 07/01 Q0978
                        NOSIG=
200901231250 METAR COR EGLL 231250Z 30015KT 9999 FEW026 SCT030 BKN035
                        07/01 Q0977 NOSIG=
200901231220 METAR COR EGLL 231220Z 30014KT 280V340 9999 BKN033 06/03
                        Q0977 NOSIG=
200901231150 METAR COR EGLL 231150Z 30014KT 9999 FEW020 BKN025 06/03 Q0976
                        NOSIG=
200901231120 METAR COR EGLL 231120Z 30015KT 9999 BKN012 BKN018 05/03 Q0975
                        TEMPO SCT012=
200901231050 METAR COR EGLL 231050Z 30013KT 9999 -RA BKN012 BKN016 05/03
                        Q0974 BECMG SCT012=
200901231020 METAR COR EGLL 231020Z 30015KT 9999 -RA SCT011 BKN015 04/02
                        Q0973 NOSIG=
200901230950 METAR COR EGLL 230950Z 29014KT 9999 -RA BKN013 BKN016 04/02
                        Q0972 TEMPO SCT013=
200901230920 METAR COR EGLL 230920Z 30012KT 9999 -RA FEW011 SCT019 05/03
                        Q0971 NOSIG=
200901230850 METAR COR EGLL 230850Z 30015KT 9999 -RA FEW008 BKN012 05/03
                        Q0970 NOSIG=
200901230820 METAR COR EGLL 230820Z 29010KT 9999 -RA BKN008 05/04 Q0969
                        NOSIG=
200901230750 METAR COR EGLL 230750Z 30007KT 6000 -RA BKN005 06/05 Q0969
                        NOSIG=
200901230720 METAR COR EGLL 230720Z 31008KT 9999 BKN004 06/05 Q0968 BECMG
                        RA BKN005=
200901230650 METAR COR EGLL 230650Z 34005KT 300V360 8000 BKN004 06/05
                        Q0967 BECMG 31015KT BKN005=
200901230620 METAR COR EGLL 230620Z 32005KT 290V360 8000 BKN005 06/05
                        Q0967 TEMPO 4000 RA=
200901230550 METAR COR EGLL 230550Z 02004KT 330V070 9000 SCT006 BKN017
                        06/05 Q0967 TEMPO BKN006=
200901230520 METAR COR EGLL 230520Z 03005KT 330V060 8000 -RA BKN005 BKN018
                        06/05 Q0967 TEMPO 4000 RA=
200901230450 METAR COR EGLL 230450Z 02005KT 7000 -RA FEW005 BKN019 06/05
                        Q0967 TEMPO RA BKN005=
200901230420 METAR COR EGLL 230420Z 03005KT 360V070 9999 -RA FEW004 BKN021
                        06/05 Q0968 BECMG BKN012=
200901230350 METAR COR EGLL 230350Z 06007KT 9999 -RA BKN023 06/05 Q0968
                        RERA BECMG BKN012=
200901230320 METAR COR EGLL 230320Z 08009KT 9999 RA FEW024 SCT032 BKN040
                        06/05 Q0970 BECMG BKN012=
200901230250 METAR COR EGLL 230250Z 08009KT 6000 RA SCT028 SCT037 05/05
                        Q0971 BECMG BKN014=
200901230220 METAR EGLL 230220Z AUTO 10008KT 8000NDV -RA BKN006/// 05/04
                        Q0973 RERA=
200901230150 METAR EGLL 230150Z AUTO 10009KT 8000NDV -RA FEW010/// BKN043///
                        05/04 Q0974 RERA=
200901230120 METAR EGLL 230120Z AUTO 09010KT 6000NDV -RA FEW022/// SCT034///
                        05/04 Q0975 RERA=
200901230050 METAR COR EGLL 230050Z 10008KT 3800 RA BKN011 BKN020 05/04
                        Q0977 TEMPO BKN007=
200901230020 METAR COR EGLL 230020Z 10007KT 4700 RA BKN017 05/04 Q0978
                        BECMG BKN012=
200901222350 METAR COR EGLL 222350Z 11007KT 8000 RA BKN026 05/04 Q0980
                        NOSIG=
200901222320 METAR COR EGLL 222320Z 12006KT 090V160 9999 -RA FEW022 BKN032
                        05/04 Q0980 TEMPO RA=
200901222250 METAR COR EGLL 222250Z 13006KT 080V220 9999 -RA SCT030 BKN040
                        05/04 Q0982 TEMPO RA=
200901222220 METAR COR EGLL 222220Z 14006KT 060V210 9999 -RA SCT040 05/03
                        Q0982 TEMPO RA=
200901222150 METAR COR EGLL 222150Z 18005KT 130V250 9999 -RA FEW026 SCT031
                        05/03 Q0984 TEMPO RA=
200901222120 METAR COR EGLL 222120Z 19008KT 150V230 9999 -RA BKN017 BKN026
                        05/03 Q0984 TEMPO RA=
200901222050 METAR COR EGLL 222050Z 22011KT 190V250 9000 -RA BKN020 06/03
                        Q0985 TEMPO RA=
200901222020 METAR COR EGLL 222020Z 20008KT 170V260 9999 -RA SCT040 06/03
                        Q0985 TEMPO RA=
200901221950 METAR COR EGLL 221950Z 19007KT 160V240 CAVOK 06/03 Q0985
                        NOSIG=
200901221920 METAR COR EGLL 221920Z 18008KT 150V230 CAVOK 06/03 Q0985
                        NOSIG=
200901221850 METAR COR EGLL 221850Z 18007KT 140V240 CAVOK 06/03 Q0986
                        NOSIG=
200901221820 METAR COR EGLL 221820Z 21008KT 160V250 CAVOK 06/02 Q0986
                        NOSIG=
200901221750 METAR COR EGLL 221750Z 25010KT CAVOK 07/02 Q0987 NOSIG=
200901221720 METAR COR EGLL 221720Z 25011KT CAVOK 07/02 Q0987 NOSIG=
200901221650 METAR COR EGLL 221650Z 24011KT CAVOK 08/03 Q0987 NOSIG=
200901221620 METAR EGLL 221620Z 23010KT 9999 FEW033 08/03 Q0987=
200901221550 METAR COR EGLL 221550Z 25013KT 9999 FEW031 09/03 Q0987 NOSIG=
200901221520 METAR COR EGLL 221520Z 26014KT CAVOK 09/04 Q0987 NOSIG=
200901221450 METAR COR EGLL 221450Z 28012G23KT 240V300 9999 SCT033 10/04
                        Q0986 NOSIG=
200901221420 METAR COR EGLL 221420Z 25018KT 9999 VCSH FEW027 SCT033 10/05
                        Q0985 NOSIG=
200901221350 METAR COR EGLL 221350Z 26013KT 9999 VCSH FEW022 SCT033 10/06
                        Q0985 NOSIG=
200901221320 METAR COR EGLL 221320Z 25014KT 9999 FEW021 SCT028 10/06 Q0985
                        NOSIG=
200901221250 METAR COR EGLL 221250Z 26014KT 9999 FEW020 10/07 Q0984 NOSIG=
200901221220 METAR COR EGLL 221220Z 26013KT 9999 FEW020 SCT040 10/07 Q0984
                        RERA NOSIG=
200901221150 METAR COR EGLL 221150Z 27018KT 7000 RA SCT012 SCT019 10/08
                        Q0984 BECMG -RA=
200901221120 METAR COR EGLL 221120Z 25017KT 9999 BKN010 10/09 Q0984 BECMG
                        BKN015=
200901221050 METAR COR EGLL 221050Z 23011KT 9999 BKN008 BKN018 10/09 Q0983
                        BECMG BKN010=
200901221020 METAR COR EGLL 221020Z 21009KT 190V250 8000 SCT006 BKN008
                        09/08 Q0983 NOSIG=
200901220950 METAR COR EGLL 220950Z 20010KT 6000 OVC006 09/08 Q0983 NOSIG=
200901220920 METAR COR EGLL 220920Z 19013KT 170V230 9999 OVC007 09/08
                        Q0983 TEMPO BKN010=
200901220850 METAR COR EGLL 220850Z 19013KT 8000 -DZ FEW008 BKN010 09/08
                        Q0983 TEMPO BKN008=
200901220820 METAR COR EGLL 220820Z 18013KT 8000 -RADZ FEW007 BKN010 09/08
                        Q0983 TEMPO BKN008=
200901220750 METAR COR EGLL 220750Z 18014KT 7000 -RA BKN010 09/07 Q0984
                        TEMPO 4000 BKN008=
200901220720 METAR COR EGLL 220720Z 18015KT 9999 -RA BKN009 08/07 Q0984
                        TEMPO RA=
200901220650 METAR COR EGLL 220650Z 18015G25KT 150V220 8000 RA BKN009
                        08/07 Q0984 TEMPO 4000=
200901220620 METAR COR EGLL 220620Z 19019KT 7000 RA BKN008 08/07 Q0985
                        TEMPO 4000=
200901220550 METAR COR EGLL 220550Z 19017KT 7000 -RA BKN008 08/07 Q0985
                        TEMPO 4000 RA=
200901220520 METAR COR EGLL 220520Z 18015KT 7000 -RA BKN008 08/07 Q0986
                        TEMPO 4000 RA=
200901220450 METAR COR EGLL 220450Z 17014KT 8000 -RA BKN007 08/07 Q0986
                        TEMPO 4000 RA=
200901220420 METAR COR EGLL 220420Z 17015KT 7000 -RA BKN007 08/06 Q0987
                        TEMPO 4000 RA=
200901220350 METAR COR EGLL 220350Z 17015KT 7000 -RA BKN007 07/06 Q0987
                        TEMPO 4000 RA=
200901220320 METAR COR EGLL 220320Z 17013KT 9000 -RA BKN007 07/06 Q0988
                        TEMPO 4000 RA=
200901220250 METAR COR EGLL 220250Z 16013KT 7000 -RA BKN008 07/06 Q0989
                        TEMPO 4000 RA=
200901220220 METAR EGLL 220220Z AUTO 16015KT 6000NDV DZ OVC007/// OVC010///
                        06/05 Q0990=
200901220150 METAR EGLL 220150Z AUTO 17014KT 6000NDV -DZ OVC008/// 06/05
                        Q0991=
200901220120 METAR EGLL 220120Z AUTO 16016KT 9000NDV FEW008/// BKN011///
                        06/05 Q0992=
200901220050 METAR COR EGLL 220050Z 17016KT 9000 -RA SCT009 BKN013 06/05
                        Q0993 RERA TEMPO BKN009=
200901220020 METAR COR EGLL 220020Z 17017KT 9999 RA BKN010 06/05 Q0993
                        TEMPO BKN008=
200901212350 METAR COR EGLL 212350Z 17017KT 9999 RA BKN010 06/04 Q0994
                        TEMPO BKN008=
200901212320 METAR COR EGLL 212320Z 17015KT 7000 -RA BKN010 06/04 Q0995
                        TEMPO 4000 RA BKN008=
200901212250 METAR COR EGLL 212250Z 17015KT 150V220 8000 -RA BKN011 06/04
                        Q0996 TEMPO 4000 RA BKN008=
200901212220 METAR COR EGLL 212220Z 17016KT 150V230 9999 -RA BKN013 06/04
                        Q0997 BECMG RA=
200901212150 METAR COR EGLL 212150Z 17014KT 140V230 9999 -RA BKN014 06/04
                        Q0998 RERA TEMPO RA=
200901212120 METAR COR EGLL 212120Z 17014KT 140V220 9999 -RA SCT015 BKN019
                        06/04 Q0998 BECMG RA BKN012=
200901212050 METAR COR EGLL 212050Z 17015KT 150V220 9999 -RA SCT015 SCT022
                        06/04 Q0999 BECMG RA=
200901212020 METAR COR EGLL 212020Z 17015KT 150V210 9999 -RA SCT015 SCT022
                        06/04 Q0999 TEMPO RA=
200901211950 METAR COR EGLL 211950Z 18013KT 150V210 9999 -RA SCT014 BKN018
                        06/04 Q1000 TEMPO RA=
200901211920 METAR COR EGLL 211920Z 18012KT 160V230 9999 -RA FEW019 SCT034
                        06/03 Q1000 TEMPO RA=
200901211850 METAR COR EGLL 211850Z 18011KT 140V230 9999 -SHRA FEW033
                        06/03 Q1001 TEMPO RA=
200901211820 METAR COR EGLL 211820Z 18011KT 140V240 9999 -SHRA FEW034
                        06/02 Q1001 TEMPO RA=
200901211750 METAR COR EGLL 211750Z 17009KT 140V230 CAVOK 06/02 Q1001
                        NOSIG=
200901211720 METAR COR EGLL 211720Z 17009KT 140V230 CAVOK 05/01 Q1001
                        NOSIG=
200901211650 METAR COR EGLL 211650Z 17009KT 150V230 CAVOK 05/01 Q1002
                        BECMG BKN040=
200901211620 METAR COR EGLL 211620Z 18009KT 150V230 CAVOK 06/01 Q1002
                        BECMG BKN040=
200901211550 METAR COR EGLL 211550Z 18009KT 150V230 9999 FEW032 06/01
                        Q1002 NOSIG=
200901211520 METAR COR EGLL 211520Z 17009KT 150V220 9999 FEW030 07/01
                        Q1002 NOSIG=
200901211450 METAR COR EGLL 211450Z 20010KT 180V240 9999 FEW031 06/01
                        Q1002 NOSIG=
200901211420 METAR COR EGLL 211420Z 21009KT 9999 FEW031 06/00 Q1003 NOSIG=
200901211350 METAR COR EGLL 211350Z 22010KT 9999 FEW031 07/01 Q1003 NOSIG=
200901211320 METAR COR EGLL 211320Z 22011KT 9999 FEW036 07/01 Q1003 NOSIG=
200901211250 METAR COR EGLL 211250Z 22009KT CAVOK 07/01 Q1003 NOSIG=
200901211220 METAR COR EGLL 211220Z 21007KT CAVOK 06/01 Q1003 NOSIG=
200901211150 METAR COR EGLL 211150Z 21007KT CAVOK 06/02 Q1003 NOSIG=
200901211120 METAR COR EGLL 211120Z 20006KT 170V250 CAVOK 05/02 Q1003
                        NOSIG=
200901211050 METAR COR EGLL 211050Z 23006KT 190V270 CAVOK 04/02 Q1003
                        NOSIG=
200901211020 METAR COR EGLL 211020Z 21006KT CAVOK 04/02 Q1003 NOSIG=
200901210950 METAR COR EGLL 210950Z 23006KT 190V270 9999 FEW028 03/01
                        Q1003 NOSIG=
200901210920 METAR COR EGLL 210920Z 24008KT 9999 FEW019 BKN025 03/01 Q1003
                        NOSIG=
200901210850 METAR COR EGLL 210850Z 23008KT 9999 FEW016 BKN023 02/01 Q1003
                        NOSIG=
200901210820 METAR COR EGLL 210820Z 21006KT 170V250 9999 BKN012 02/01
                        Q1002 BECMG SCT016=
200901210750 METAR COR EGLL 210750Z 23008KT 9999 SCT012 BKN016 02/01 Q1002
                        NOSIG=
200901210720 METAR COR EGLL 210720Z 22008KT 200V260 9999 BKN013 02/01
                        Q1001 BECMG SCT018=
200901210650 METAR COR EGLL 210650Z 21007KT 180V250 9999 BKN015 BKN021
                        01/00 Q1001 NOSIG=
200901210620 METAR COR EGLL 210620Z 21007KT 9999 FEW020 BKN036 01/00 Q1000
                        NOSIG=
200901210550 METAR COR EGLL 210550Z 19005KT 170V290 9999 FEW040 M00/M01
                        Q1000 NOSIG=
200901210520 METAR COR EGLL 210520Z 20004KT 9999 FEW024 00/M01 Q1000 NOSIG=
200901210450 METAR COR EGLL 210450Z VRB03KT CAVOK M00/M01 Q0999 NOSIG=
200901210420 METAR EGLL 210420Z 19002KT CAVOK M00/M01 Q0999=
200901210350 METAR COR EGLL 210350Z 21003KT CAVOK 00/M00 Q0999 NOSIG=
200901210320 METAR EGLL 210320Z 21005KT CAVOK 00/M00 Q0999=
200901210250 METAR COR EGLL 210250Z 20003KT CAVOK 00/M01 Q0999 NOSIG=
200901210220 METAR EGLL 210220Z AUTO 22003KT 9999NDV NCD 00/M00 Q0999=
200901210150 METAR EGLL 210150Z AUTO 21003KT 9999NDV NCD 00/M00 Q0999=
200901210120 METAR EGLL 210120Z AUTO 20004KT 9999NDV NCD 01/M00 Q0998=
200901210050 METAR COR EGLL 210050Z 19002KT CAVOK 01/M00 Q0998 NOSIG=
200901210020 METAR COR EGLL 210020Z 18004KT 130V190 CAVOK 00/M01 Q0998
                        NOSIG=
200901202350 METAR COR EGLL 202350Z 16003KT CAVOK 00/M01 Q0998 NOSIG=
200901202320 METAR COR EGLL 202320Z VRB03KT CAVOK 00/M01 Q0998 NOSIG=
200901202250 METAR COR EGLL 202250Z 23006KT CAVOK 01/00 Q0997 NOSIG=
200901202220 METAR EGLL 202220Z 23007KT 200V270 CAVOK 02/01 Q0997=
200901202150 METAR COR EGLL 202150Z 21007G18KT 180V250 CAVOK 02/01 Q0997
                        NOSIG=
200901202120 METAR COR EGLL 202120Z 21007KT 170V240 CAVOK 02/01 Q0997
                        NOSIG=
200901202050 METAR COR EGLL 202050Z 20008KT 170V240 CAVOK 03/01 Q0996
                        NOSIG=
200901202020 METAR EGLL 202020Z 21008KT CAVOK 03/01 Q0996=
200901201950 METAR COR EGLL 201950Z 21007KT 170V250 CAVOK 03/02 Q0995
                        NOSIG=
200901201920 METAR COR EGLL 201920Z 20007KT 150V250 CAVOK 03/02 Q0995
                        NOSIG=
200901201850 METAR COR EGLL 201850Z 21006KT CAVOK 03/02 Q0995 NOSIG=
200901201820 METAR COR EGLL 201820Z 21006KT 160V250 CAVOK 04/02 Q0994
                        NOSIG=
200901201750 METAR COR EGLL 201750Z 22007KT CAVOK 04/02 Q0994 NOSIG=
200901201720 METAR COR EGLL 201720Z 20008KT 170V240 CAVOK 04/02 Q0994
                        NOSIG=
200901201650 METAR COR EGLL 201650Z 19007KT 160V230 9999 FEW030 04/02
                        Q0993 NOSIG=
200901201620 METAR COR EGLL 201620Z 20009KT 9999 FEW025 05/02 Q0993 NOSIG=
200901201550 METAR COR EGLL 201550Z 21008KT 170V240 9999 FEW027 05/02
                        Q0992 NOSIG=
200901201520 METAR COR EGLL 201520Z 17008KT 130V220 9999 FEW016 06/02
                        Q0992 NOSIG=
200901201450 METAR COR EGLL 201450Z 21007KT 9999 FEW016 06/02 Q0992 NOSIG=
200901201420 METAR COR EGLL 201420Z 21008KT 180V250 9999 FEW016 07/03
                        Q0991 NOSIG=
200901201350 METAR COR EGLL 201350Z 21008KT 9999 FEW030 06/03 Q0991 NOSIG=
200901201320 METAR COR EGLL 201320Z 20008KT 180V240 9999 FEW030 06/03
                        Q0991 NOSIG=
200901201250 METAR COR EGLL 201250Z 20008KT 170V250 CAVOK 05/03 Q0991
                        NOSIG=
200901201220 METAR COR EGLL 201220Z 21006KT 190V260 9999 VCSH FEW030CB
                        05/03 Q0991 NOSIG=
200901201150 METAR COR EGLL 201150Z 21008KT 9999 FEW030CB 05/03 Q0991
                        NOSIG=
200901201120 METAR COR EGLL 201120Z 21007KT 190V250 CAVOK 05/02 Q0991
                        NOSIG=
200901201050 METAR COR EGLL 201050Z 21008KT 160V250 CAVOK 05/02 Q0991
                        NOSIG=
200901201020 METAR COR EGLL 201020Z 21008KT CAVOK 05/02 Q0991 NOSIG=
200901200950 METAR COR EGLL 200950Z 21007KT 180V240 CAVOK 04/02 Q0990
                        NOSIG=
200901200920 METAR COR EGLL 200920Z 21008KT CAVOK 04/01 Q0990 NOSIG=
200901200850 METAR COR EGLL 200850Z 21009KT CAVOK 04/01 Q0989 NOSIG=
200901200820 METAR COR EGLL 200820Z 21008KT 9999 FEW033 04/02 Q0989 NOSIG=
200901200750 METAR COR EGLL 200750Z 20009KT 9999 FEW025 04/01 Q0989 NOSIG=
200901200720 METAR COR EGLL 200720Z 21008KT 190V260 CAVOK 04/01 Q0988
                        NOSIG=
200901200650 METAR COR EGLL 200650Z 21007KT CAVOK 04/01 Q0988 NOSIG=
200901200620 METAR COR EGLL 200620Z 21008KT CAVOK 03/01 Q0988 NOSIG=
200901200550 METAR COR EGLL 200550Z 20006KT CAVOK 03/01 Q0987 NOSIG=
200901200520 METAR COR EGLL 200520Z 21006KT CAVOK 03/01 Q0987 NOSIG=
200901200450 METAR COR EGLL 200450Z 22007KT 200V270 CAVOK 04/01 Q0987
                        NOSIG=
200901200420 METAR COR EGLL 200420Z 22008KT CAVOK 03/01 Q0987 NOSIG=
200901200350 METAR COR EGLL 200350Z 24009KT CAVOK 04/01 Q0986 NOSIG=
200901200320 METAR COR EGLL 200320Z 25007KT CAVOK 04/01 Q0986 NOSIG=
200901200250 METAR EGLL 200250Z 26009KT CAVOK 04/01 Q0986=
200901200220 METAR EGLL 200220Z AUTO 25010KT 9999NDV FEW019/// 04/01 Q0985=
200901200150 METAR EGLL 200150Z AUTO 23007KT 9999NDV BKN018/// 03/01 Q0985=
200901200120 METAR EGLL 200120Z AUTO 21007KT 9999NDV SCT018/// SCT023///
                        03/01 Q0984=
200901200050 METAR COR EGLL 200050Z 20008KT 9999 SCT020 SCT024 03/01 Q0984
                        NOSIG=
200901200020 METAR COR EGLL 200020Z 20006KT 9999 FEW032 SCT039 02/00 Q0984
                        NOSIG=
200901192350 METAR COR EGLL 192350Z 18006KT CAVOK 02/M00 Q0984 NOSIG=
200901192320 METAR COR EGLL 192320Z 18007KT CAVOK 02/M00 Q0984 NOSIG=
200901192250 METAR COR EGLL 192250Z 20009KT 170V240 CAVOK 02/M00 Q0984
                        NOSIG=
200901192220 METAR COR EGLL 192220Z 21010KT 180V250 CAVOK 02/M00 Q0984
                        NOSIG=
200901192150 METAR COR EGLL 192150Z 21010KT 180V250 CAVOK 02/M00 Q0984
                        NOSIG=
200901192120 METAR COR EGLL 192120Z 22010KT 180V260 CAVOK 03/00 Q0983
                        NOSIG=
200901192050 METAR COR EGLL 192050Z 22010KT 190V250 CAVOK 03/00 Q0983
                        NOSIG=
200901192020 METAR COR EGLL 192020Z 23011KT CAVOK 03/00 Q0983 NOSIG=
200901191950 METAR COR EGLL 191950Z 25014KT CAVOK 04/01 Q0982 NOSIG=
200901191920 METAR COR EGLL 191920Z 24014KT CAVOK 05/01 Q0982 NOSIG=
200901191850 METAR COR EGLL 191850Z 25015KT CAVOK 05/01 Q0981 NOSIG=
200901191820 METAR COR EGLL 191820Z 25013KT 9999 FEW030 05/02 Q0981 NOSIG=
200901191750 METAR COR EGLL 191750Z 25012KT 9999 FEW040 05/02 Q0980 NOSIG=
200901191720 METAR COR EGLL 191720Z 25012KT 9999 FEW025 05/02 Q0980 RESHRA
                        NOSIG=
200901191650 METAR COR EGLL 191650Z 25013KT 9999 6000SW VCSH SCT014CB
                        BKN030 06/02 Q0979 NOSIG=
200901191620 METAR COR EGLL 191620Z 24015KT 9999 FEW030 SCT035 06/02 Q0979
                        NOSIG=
200901191550 METAR COR EGLL 191550Z 24013KT 9999 FEW038 06/02 Q0979 NOSIG=
200901191520 METAR COR EGLL 191520Z 24013KT 9999 FEW020 07/02 Q0978 NOSIG=
200901191450 METAR COR EGLL 191450Z 24012KT 9999 FEW020 07/03 Q0978 NOSIG=
200901191420 METAR COR EGLL 191420Z 24013KT 9999 FEW035 07/04 Q0978 NOSIG=
200901191350 METAR COR EGLL 191350Z 25015KT 9999 BKN020 05/03 Q0978 RESHRA
                        NOSIG=
200901191320 METAR COR EGLL 191320Z 22011KT 9999 FEW020 08/05 Q0978 TEMPO
                        SHRA=
200901191250 METAR COR EGLL 191250Z 22012KT 9999 FEW038 08/05 Q0978 TEMPO
                        SHRA=
200901191220 METAR COR EGLL 191220Z 22012KT 9999 FEW038 07/05 Q0979 NOSIG=
200901191150 METAR COR EGLL 191150Z 21010KT 9999 FEW010 06/05 Q0979 NOSIG=
200901191120 METAR COR EGLL 191120Z 19008KT 160V230 9999 SCT009 SCT014
                        06/04 Q0978 NOSIG=
200901191050 METAR COR EGLL 191050Z 21008KT 180V240 9999 SCT008 SCT015
                        05/04 Q0979 NOSIG=
200901191020 METAR COR EGLL 191020Z 24011KT 9999 FEW006 SCT009 BKN024
                        05/04 Q0979 NOSIG=
200901190950 METAR COR EGLL 190950Z 26011KT 9999 SCT005 BKN010 05/04 Q0979
                        BECMG SCT010=
200901190920 METAR COR EGLL 190920Z 27010KT 9999 FEW006 SCT008 BKN012
                        05/04 Q0978 TEMPO BKN008=
200901190850 METAR COR EGLL 190850Z 33004KT 300V360 9999 SCT008 SCT012
                        05/04 Q0977 TEMPO BKN012=
200901190820 METAR COR EGLL 190820Z 36006KT 300V080 7000 -RA FEW008 BKN012
                        05/04 Q0976 TEMPO BKN009=
200901190750 METAR COR EGLL 190750Z 05006KT 010V070 3900 RA FEW012 BKN014
                        05/04 Q0977 RERA BECMG 5000 -RA=
200901190720 METAR COR EGLL 190720Z 09009KT 7000 -RA BKN014 04/03 Q0978
                        RERA TEMPO SCT014=
200901190650 METAR COR EGLL 190650Z 10011KT 6000 RA BKN015 04/03 Q0979
                        TEMPO BKN012=
200901190620 METAR COR EGLL 190620Z 13011KT 9000 RA SCT011 BKN016 05/03
                        Q0980 TEMPO BKN012=
200901190550 METAR COR EGLL 190550Z 14012KT 9000 RA BKN012 05/04 Q0982
                        NOSIG=
200901190520 METAR COR EGLL 190520Z 14011KT 9999 RA SCT014 BKN017 05/03
                        Q0983 TEMPO BKN014=
200901190450 METAR COR EGLL 190450Z 15014KT 9999 -RA SCT012 BKN020 05/03
                        Q0985 RERA TEMPO RA BKN014=
200901190420 METAR COR EGLL 190420Z 16012KT 9999 RA BKN014 06/04 Q0986
                        TEMPO SCT014=
200901190350 METAR COR EGLL 190350Z 17011KT 9999 -RA FEW018 SCT022 BKN030
                        06/04 Q0988 NOSIG=
200901190320 METAR EGLL 190320Z 17013KT 9999 -RA FEW023 07/04 Q0989=
200901190250 METAR COR EGLL 190250Z 18011KT 9999 BKN014 07/05 Q0990 TEMPO
                        SCT014=
200901190220 METAR EGLL 190220Z AUTO 18012KT 9999NDV SCT014/// SCT017///
                        07/05 Q0991=
200901190150 METAR EGLL 190150Z AUTO 18012KT 9999NDV NCD 07/04 Q0992=
200901190120 METAR EGLL 190120Z AUTO 19010KT 9999NDV NCD 06/04 Q0993=
200901190050 METAR COR EGLL 190050Z 19010KT CAVOK 06/04 Q0994 NOSIG=
200901190020 METAR COR EGLL 190020Z 19009KT 9999 FEW034 06/03 Q0995 NOSIG=
200901182350 METAR COR EGLL 182350Z 20010KT CAVOK 05/03 Q0996 NOSIG=
200901182320 METAR COR EGLL 182320Z 20008KT CAVOK 05/03 Q0996 NOSIG=
200901182250 METAR COR EGLL 182250Z 21008KT CAVOK 05/02 Q0997 NOSIG=
200901182220 METAR COR EGLL 182220Z 20007KT 070V230 CAVOK 06/02 Q0998
                        NOSIG=
200901182150 METAR COR EGLL 182150Z 21009KT CAVOK 06/02 Q0998 NOSIG=
200901182120 METAR COR EGLL 182120Z 22010KT CAVOK 05/02 Q0999 NOSIG=
200901182050 METAR COR EGLL 182050Z 21009KT CAVOK 05/02 Q0999 NOSIG=
200901182020 METAR COR EGLL 182020Z 21010KT CAVOK 05/02 Q0999 NOSIG=
200901181950 METAR COR EGLL 181950Z 21010KT CAVOK 05/02 Q0999 NOSIG=
200901181920 METAR EGLL 181920Z 21010KT CAVOK 05/01 Q0999=
200901181850 METAR EGLL 181850Z 21011KT CAVOK 05/01 Q0999=
200901181820 METAR EGLL 181820Z 21009KT CAVOK 05/01 Q0999=
200901181750 METAR COR EGLL 181750Z 20009KT CAVOK 06/01 Q0999 NOSIG=
200901181720 METAR COR EGLL 181720Z 20010KT CAVOK 05/01 Q0999 NOSIG=
200901181650 METAR COR EGLL 181650Z 21010KT 9999 FEW038 05/01 Q0999 NOSIG=
200901181620 METAR COR EGLL 181620Z 22011KT CAVOK 06/00 Q0998 NOSIG=
200901181550 METAR COR EGLL 181550Z 23013KT CAVOK 06/00 Q0998 NOSIG=
200901181520 METAR COR EGLL 181520Z 24012KT CAVOK 07/01 Q0997 NOSIG=
200901181450 METAR COR EGLL 181450Z 24013KT 200V270 9999 FEW028 07/00
                        Q0997 NOSIG=
200901181420 METAR EGLL 181420Z 26014KT 9999 FEW028 07/00 Q0997=
200901181350 METAR COR EGLL 181350Z 26016KT 9999 FEW025 07/01 Q0996 NOSIG=
200901181320 METAR COR EGLL 181320Z 25018G28KT 9999 FEW028 07/01 Q0996
                        NOSIG=
200901181250 METAR COR EGLL 181250Z 26021KT 9999 FEW030 07/01 Q0996 NOSIG=
200901181220 METAR COR EGLL 181220Z 26018KT 9999 FEW023 07/02 Q0996 NOSIG=
200901181150 METAR COR EGLL 181150Z 27017KT 9999 FEW023 07/02 Q0995 NOSIG=
200901181120 METAR EGLL 181120Z 26018KT 9999 SCT023 06/03 Q0995=
200901181050 METAR COR EGLL 181050Z 26016KT 9999 FEW020 06/03 Q0995 NOSIG=
200901181020 METAR EGLL 181020Z 26015KT 9999 FEW020 06/03 Q0994=
200901180950 METAR COR EGLL 180950Z 25014KT 9999 FEW020 06/02 Q0994 NOSIG=
200901180920 METAR COR EGLL 180920Z 27012KT 9999 FEW022 05/02 Q0993 NOSIG=
200901180850 METAR COR EGLL 180850Z 25012KT 9999 FEW031 05/02 Q0993 NOSIG=
200901180820 METAR COR EGLL 180820Z 25013KT 9999 FEW031 05/03 Q0993 NOSIG=
200901180750 METAR COR EGLL 180750Z 24014KT 9999 FEW042 06/03 Q0992 NOSIG=
200901180720 METAR COR EGLL 180720Z 24013KT 9999 FEW030 05/03 Q0992 NOSIG=
200901180650 METAR COR EGLL 180650Z 23009KT 9999 SCT019 05/03 Q0992 NOSIG=
200901180620 METAR COR EGLL 180620Z 22009KT 9999 SCT027 05/03 Q0991 NOSIG=
200901180550 METAR COR EGLL 180550Z 22010KT CAVOK 06/03 Q0991 NOSIG=
200901180520 METAR COR EGLL 180520Z 21008KT 9999 FEW041 06/04 Q0991 NOSIG=
200901180450 METAR COR EGLL 180450Z 20007KT 9999 FEW049 05/04 Q0991 NOSIG=
200901180420 METAR COR EGLL 180420Z 21005KT CAVOK 05/03 Q0991 NOSIG=
200901180350 METAR COR EGLL 180350Z 20008KT CAVOK 05/03 Q0992 NOSIG=
200901180320 METAR COR EGLL 180320Z 19008KT CAVOK 05/03 Q0993 NOSIG=
200901180250 METAR COR EGLL 180250Z 18008KT CAVOK 04/03 Q0993 NOSIG=
200901180220 METAR EGLL 180220Z AUTO 21005KT 9999NDV NCD 04/03 Q0993=
200901180150 METAR EGLL 180150Z AUTO 25007KT 9999NDV NCD 05/03 Q0994=
200901180120 METAR EGLL 180120Z AUTO 27010KT 9999NDV FEW017/// 06/04 Q0994=
200901180050 METAR COR EGLL 180050Z 27017KT 9999 -RA FEW017 SCT020 BKN035
                        08/06 Q0993 NOSIG=
200901180020 METAR COR EGLL 180020Z 25009KT 220V300 9999 -RA FEW006 SCT018
                        BKN021 07/06 Q0993 TEMPO RA=
200901172350 METAR COR EGLL 172350Z 20007KT 6000 -RA FEW015 SCT026 07/05
                        Q0993 NOSIG=
200901172320 METAR COR EGLL 172320Z 24011KT 6000 -RA SCT012 SCT033 BKN049
                        07/05 Q0994 RETS NOSIG=
200901172250 METAR COR EGLL 172250Z 26022KT 6000 RA SCT012 SCT026 07/05
                        Q0994 RERA NOSIG=
200901172220 METAR COR EGLL 172220Z 19022KT 6000 RA FEW019 BKN024 09/07
                        Q0994 RERA TEMPO 19022G32KT 3000
                        +RA BKN014=
200901172150 METAR COR EGLL 172150Z 19024KT 6000 RA SCT021 SCT028 09/07
                        Q0995 TEMPO 19024G34KT=
200901172120 METAR COR EGLL 172120Z 19021KT 160V220 8000 -RA FEW023 SCT030
                        09/06 Q0997 TEMPO 19023G33KT=
200901172050 METAR COR EGLL 172050Z 19021KT 9999 -RA FEW026 09/06 Q0998
                        NOSIG=
200901172020 METAR COR EGLL 172020Z 20020G35KT 9999 -RA FEW028 SCT035
                        09/06 Q1000 NOSIG=
200901171950 METAR COR EGLL 171950Z 19020G30KT 9999 FEW020 09/05 Q1000
                        NOSIG=
200901171920 METAR COR EGLL 171920Z 19017KT 9999 SCT024 09/06 Q1001 BECMG
                        18020G30KT=
200901171850 METAR COR EGLL 171850Z 18018KT 9999 BKN021 09/06 Q1002 BECMG
                        18020G32KT=
200901171820 METAR COR EGLL 171820Z 18017KT 9999 BKN021 09/05 Q1002 BECMG
                        18020G30KT=
200901171750 METAR COR EGLL 171750Z 19016KT 9999 BKN017 BKN025 09/06 Q1004
                        NOSIG=
200901171720 METAR COR EGLL 171720Z 20015KT 9999 FEW022 09/06 Q1005 NOSIG=
200901171650 METAR COR EGLL 171650Z 18014KT 9999 FEW029 09/05 Q1005 NOSIG=
200901171620 METAR COR EGLL 171620Z 20015KT 9999 FEW029 09/05 Q1007 NOSIG=
200901171550 METAR EGLL 171550Z 21014KT 9999 FEW020 09/05 Q1007=
200901171520 METAR COR EGLL 171520Z 21012KT 9999 FEW025 09/04 Q1008 NOSIG=
200901171450 METAR COR EGLL 171450Z 19011KT 9999 FEW030 09/03 Q1008 NOSIG=
200901171420 METAR COR EGLL 171420Z 19010KT 170V230 CAVOK 09/03 Q1009
                        NOSIG=
200901171350 METAR COR EGLL 171350Z 22011KT 9999 FEW030 09/03 NOSIG=
200901171320 METAR COR EGLL 171320Z 22011KT 9999 FEW032 09/03 Q1009 NOSIG=
200901171250 METAR COR EGLL 171250Z 23013KT 190V260 9999 FEW032 10/03
                        Q1009 NOSIG=
200901171220 METAR COR EGLL 171220Z 25012KT 9999 FEW032 09/03 Q1010 NOSIG=
200901171150 METAR COR EGLL 171150Z 25015KT 9999 FEW032 09/03 Q1010 NOSIG=
200901171120 METAR COR EGLL 171120Z 25015KT 9999 FEW020 08/03 Q1010 NOSIG=
200901171050 METAR COR EGLL 171050Z 25016KT 9999 FEW020 08/03 Q1010 NOSIG=
200901171020 METAR COR EGLL 171020Z 25015KT CAVOK 08/03 Q1009 NOSIG=
200901170950 METAR COR EGLL 170950Z 25019KT 9999 FEW032 07/03 Q1009 NOSIG=
200901170920 METAR EGLL 170920Z 25016KT 9999 FEW032 08/04 Q1009 NOSIG=
200901170850 METAR COR EGLL 170850Z 25013KT 9999 FEW013 SCT025 08/05 Q1008
                        NOSIG=
200901170820 METAR COR EGLL 170820Z 26018KT 9999 6000E -RA FEW013 SCT022
                        07/06 Q1008 NOSIG=
200901170750 METAR COR EGLL 170750Z 22012KT 9999 SCT027 08/06 Q1007 NOSIG=
200901170720 METAR COR EGLL 170720Z 21012KT 9999 FEW027 08/05 Q1006 RERA
                        TEMPO RA=
200901170650 METAR COR EGLL 170650Z 22020G30KT 6000 RA FEW008 SCT016 BKN038
                        08/07 Q1007 TEMPO 4000 BKN012=
200901170620 METAR COR EGLL 170620Z 20011KT 180V240 9999 BKN011 BKN030
                        09/08 Q1006 TEMPO 4000 RA=
200901170550 METAR COR EGLL 170550Z 20012KT 8000 -RA SCT010 BKN015 09/08
                        Q1006 TEMPO 4000 RA BKN010=
200901170520 METAR COR EGLL 170520Z 20014KT 9000 BKN010 BKN030 09/08 Q1006
                        BECMG SCT010=
200901170450 METAR COR EGLL 170450Z 20015KT 9999 BKN010 BKN017 09/07 Q1007
                        BECMG SCT010=
200901170420 METAR COR EGLL 170420Z 19014KT 9000 -RA BKN011 09/07 Q1007
                        TEMPO BKN015=
200901170350 METAR COR EGLL 170350Z 19014KT 9999 -RA SCT010 OVC015 09/07
                        Q1007 BECMG RA BKN010=
200901170320 METAR COR EGLL 170320Z 19015KT 9999 -RA SCT013 SCT018 09/07
                        Q1008 BECMG RA BKN013=
200901170250 METAR COR EGLL 170250Z 19014KT 9999 -DZ BKN013 09/07 Q1008
                        TEMPO 4000 RA=
200901170220 METAR EGLL 170220Z AUTO 19014KT 9999NDV -RA BKN013/// BKN023///
                        09/07 Q1009=
200901170150 METAR EGLL 170150Z AUTO 19014KT 9999NDV DZ OVC016/// 09/07
                        Q1009=
200901170120 METAR EGLL 170120Z AUTO 19014KT 9999NDV OVC015/// 09/07 Q1010=
200901170050 METAR COR EGLL 170050Z 18012KT 9999 BKN015 09/07 Q1010 BECMG
                        RA BKN012=
200901170020 METAR COR EGLL 170020Z 18012KT 9999 BKN015 09/07 Q1010 TEMPO
                        RA BKN012=
200901162350 METAR COR EGLL 162350Z 19011KT 9999 SCT015 SCT019 BKN022
                        09/07 Q1011 TEMPO RA BKN012=
200901162320 METAR COR EGLL 162320Z 20011KT 9999 BKN015 09/07 Q1011 BECMG
                        BKN012=
200901162250 METAR COR EGLL 162250Z 20011KT 9999 BKN013 09/07 Q1011 NOSIG=
200901162220 METAR COR EGLL 162220Z 19010KT 9999 BKN013 09/07 Q1011 NOSIG=
200901162150 METAR COR EGLL 162150Z 19012KT 9999 BKN012 09/07 Q1012 NOSIG=
200901162120 METAR COR EGLL 162120Z 18011KT 9999 BKN013 09/07 Q1012 NOSIG=
200901162050 METAR COR EGLL 162050Z 18010KT 140V220 9999 SCT011 BKN017
                        09/07 Q1012 BECMG BKN011=
200901162020 METAR COR EGLL 162020Z 18011KT 9999 SCT011 BKN017 09/07 Q1012
                        BECMG BKN011=
200901161950 METAR COR EGLL 161950Z 19013KT 9999 SCT013 BKN016 09/07 Q1012
                        BECMG BKN013=
200901161920 METAR COR EGLL 161920Z 19012KT 170V230 9999 SCT013 BKN019
                        09/07 Q1012 TEMPO BKN012=
200901161850 METAR COR EGLL 161850Z 18010KT 9999 SCT012 SCT017 09/07 Q1013
                        TEMPO BKN012=
200901161820 METAR COR EGLL 161820Z 18011KT 9999 FEW012 SCT016 09/07 Q1013
                        TEMPO BKN012=
200901161750 METAR COR EGLL 161750Z 19009KT 9999 FEW012 BKN049 08/07 Q1013
                        TEMPO BKN012=
200901161720 METAR COR EGLL 161720Z 18011KT 9999 FEW012 SCT048 08/07 Q1013
                        NOSIG=
200901161650 METAR COR EGLL 161650Z 18009KT 160V230 9999 FEW047 08/06
                        Q1013 NOSIG=
200901161620 METAR COR EGLL 161620Z 18009KT 150V220 9999 FEW047 08/06
                        Q1013 NOSIG=
200901161550 METAR COR EGLL 161550Z 19011KT 9999 FEW006 SCT010 08/07 Q1013
                        NOSIG=
200901161520 METAR COR EGLL 161520Z 19010KT 170V250 9999 BKN006 OVC008
                        08/07 Q1013 BECMG FEW006=
200901161450 METAR COR EGLL 161450Z 19012KT 6000 -DZ BKN006 08/07 Q1013
                        BECMG FEW006=
200901161420 METAR COR EGLL 161420Z 18011KT 8000 -DZ BKN006 BKN010 08/07
                        Q1013 BECMG FEW006=
200901161350 METAR COR EGLL 161350Z 19012KT 5000 2200E -DZ BKN008 08/07
                        Q1013 BECMG BKN010=
200901161320 METAR COR EGLL 161320Z 19013KT 170V230 9999 BKN010 09/07
                        Q1013 NOSIG=
200901161250 METAR COR EGLL 161250Z 19012KT 170V230 9999 BKN010 BKN018
                        09/07 Q1013 NOSIG=
200901161220 METAR COR EGLL 161220Z 19012KT 160V240 9999 BKN010 BKN017
                        09/07 Q1013 NOSIG=
200901161150 METAR COR EGLL 161150Z 19011KT 150V240 9000 BKN010 BKN038
                        09/07 Q1013 NOSIG=
200901161120 METAR COR EGLL 161120Z 17010KT 120V230 8000 SCT010 BKN045
                        08/07 Q1014 TEMPO BKN010=
200901161050 METAR COR EGLL 161050Z 17010KT 140V220 6000 BKN007 BKN013
                        08/06 Q1014 NOSIG=
200901161020 METAR COR EGLL 161020Z 18008KT 140V230 4900 BR FEW005 BKN006
                        07/06 Q1014 BECMG 6000 NSW=
200901160950 METAR COR EGLL 160950Z 18009KT 130V240 4700 BR SCT005 BKN008
                        07/06 Q1014 BECMG 6000 NSW=
200901160920 METAR COR EGLL 160920Z 18010KT 150V240 3900 BR SCT003 BKN005
                        07/06 Q1014 NOSIG=
200901160850 METAR COR EGLL 160850Z 19007KT 4200 BR SCT003 BKN004 06/06
                        Q1014 BECMG BKN005=
200901160820 METAR COR EGLL 160820Z 19006KT 160V220 4200 BR BKN003 06/05
                        Q1014 BECMG FEW003 BKN005=
200901160750 METAR COR EGLL 160750Z 18006KT 160V230 6000 SCT004 BKN006
                        06/05 Q1014 TEMPO 4000 DZ=
200901160720 METAR COR EGLL 160720Z 18006KT 140V230 8000 BKN007 06/05
                        Q1013 TEMPO 4000 DZ=
200901160650 METAR COR EGLL 160650Z 18008KT 150V230 6000 FEW004 BKN007
                        06/05 Q1013 TEMPO 4000 DZ=
200901160620 METAR COR EGLL 160620Z 17007KT 110V210 5000 DZ FEW007 BKN008
                        06/05 Q1013 TEMPO 4000=
200901160550 METAR COR EGLL 160550Z 18007KT 6000 DZ FEW006 SCT008 BKN025
                        06/05 Q1013 BECMG BKN010=
200901160520 METAR COR EGLL 160520Z 16009KT 7000 FEW006 SCT007 BKN030
                        06/05 Q1013 BECMG BKN010=
200901160450 METAR COR EGLL 160450Z 17008KT 9000 SCT008 BKN010 06/04 Q1013
                        TEMPO BKN008=
200901160420 METAR COR EGLL 160420Z 17007KT 9999 FEW008 BKN010 06/04 Q1013
                        TEMPO BKN008=
200901160350 METAR COR EGLL 160350Z 17005KT 9999 BKN010 06/04 Q1013 TEMPO
                        BKN009=
200901160320 METAR COR EGLL 160320Z 17005KT 9999 FEW009 BKN011 05/04 Q1013
                        TEMPO BKN009=
200901160250 METAR COR EGLL 160250Z 17004KT 9999 OVC010 05/04 Q1013 TEMPO
                        BKN008=
200901160220 METAR EGLL 160220Z AUTO 15006KT 9999NDV OVC012/// 05/04 Q1013=
200901160150 METAR EGLL 160150Z AUTO 15006KT 9000NDV -RA SCT014/// BKN045///
                        05/03 Q1013=
200901160120 METAR EGLL 160120Z AUTO 14007KT 9999NDV -RA SCT038/// BKN046///
                        05/03 Q1013 RERA=
200901160050 METAR COR EGLL 160050Z 14007KT 9999 -RA SCT040 05/02 Q1014
                        NOSIG=
200901160020 METAR COR EGLL 160020Z 16008KT CAVOK 05/02 Q1014 NOSIG=
200901152350 METAR COR EGLL 152350Z 16010KT CAVOK 05/02 Q1014 NOSIG=
200901152320 METAR COR EGLL 152320Z 16010KT CAVOK 05/02 Q1014 NOSIG=
200901152250 METAR COR EGLL 152250Z 17010KT CAVOK 05/02 Q1014 NOSIG=
200901152220 METAR COR EGLL 152220Z 16011KT CAVOK 06/02 Q1014 NOSIG=
200901152150 METAR COR EGLL 152150Z 17011KT CAVOK 05/02 Q1014 NOSIG=
200901152120 METAR COR EGLL 152120Z 17009KT CAVOK 05/02 Q1014 NOSIG=
200901152050 METAR COR EGLL 152050Z 16011KT CAVOK 05/02 Q1013 NOSIG=
200901152020 METAR COR EGLL 152020Z 15010KT CAVOK 05/02 Q1013 NOSIG=
200901151950 METAR COR EGLL 151950Z 15010KT CAVOK 05/02 Q1014 NOSIG=
200901151920 METAR COR EGLL 151920Z 15008KT CAVOK 05/02 Q1014 NOSIG=
200901151850 METAR COR EGLL 151850Z 15009KT CAVOK 05/02 Q1014 NOSIG=
200901151820 METAR COR EGLL 151820Z 15008KT CAVOK 05/02 Q1013 NOSIG=
200901151750 METAR COR EGLL 151750Z 14008KT CAVOK 05/02 Q1013 NOSIG=
200901151720 METAR COR EGLL 151720Z 13006KT 100V160 CAVOK 05/02 Q1013
                        NOSIG=
200901151650 METAR COR EGLL 151650Z 14005KT CAVOK 05/02 Q1013 NOSIG=
200901151620 METAR EGLL 151620Z 14007KT CAVOK 06/02 Q1013=
200901151550 METAR COR EGLL 151550Z 14007KT CAVOK 06/03 Q1013 NOSIG=
200901151520 METAR COR EGLL 151520Z 14009KT 9999 FEW020 06/03 Q1013 NOSIG=
200901151450 METAR COR EGLL 151450Z 15008KT 9999 FEW020 06/03 Q1013 NOSIG=
200901151420 METAR COR EGLL 151420Z 15009KT 9999 BKN016 06/04 Q1013 NOSIG=
200901151350 METAR COR EGLL 151350Z 15009KT 9999 BKN011 06/04 Q1013 BECMG
                        SCT015=
200901151320 METAR COR EGLL 151320Z 15010KT 9999 BKN011 06/04 Q1013 BECMG
                        SCT015=
200901151250 METAR COR EGLL 151250Z 15009KT 9999 BKN011 06/04 Q1013 BECMGC
                        SCT015=
200901151220 METAR COR EGLL 151220Z 15010KT 9999 BKN012 07/04 Q1013 BECMG
                        SCT015=
200901151150 METAR COR EGLL 151150Z 16010KT 9999 FEW009 BKN013 06/04 Q1013
                        BECMG SCT015=
200901151120 METAR COR EGLL 151120Z 16011KT 9999 FEW008 BKN011 06/04 Q1013
                        BECMG SCT015=
200901151050 METAR COR EGLL 151050Z 16012KT 9999 BKN008 06/04 Q1013 BECMG
                        BKN012=
200901151020 METAR COR EGLL 151020Z 16012KT 9000 BKN008 06/04 Q1013 BECMG
                        BKN012=
200901150950 METAR COR EGLL 150950Z 16010KT 9999 BKN010 06/05 Q1013 TEMPO
                        BKN008=
200901150920 METAR COR EGLL 150920Z 16011KT 9999 BKN011 07/05 Q1013 NOSIG=
200901150850 METAR COR EGLL 150850Z 16011KT 9999 SCT009 BKN014 07/05 Q1013
                        NOSIG=
200901150820 METAR COR EGLL 150820Z 16010KT 9999 SCT009 BKN011 07/05 Q1012
                        NOSIG=
200901150750 METAR COR EGLL 150750Z 16010KT 9999 FEW008 OVC010 07/05 Q1012
                        TEMPO BKN008=
200901150720 METAR COR EGLL 150720Z 16009KT 9999 BKN009 07/05 Q1012 NOSIG=
200901150650 METAR COR EGLL 150650Z 15009KT 9999 BKN012 07/05 Q1012 TEMPO
                        7000 BKN008=
200901150620 METAR COR EGLL 150620Z 15009KT 9999 BKN012 07/05 Q1012 TEMPO
                        BKN009=
200901150550 METAR COR EGLL 150550Z 16011KT 8000 SCT009 BKN013 07/05 Q1012
                        TEMPO BKN008=
200901150520 METAR EGLL 150520Z 16009KT 8000 BKN009 BKN012 07/05 Q1012=
200901150450 METAR COR EGLL 150450Z 15009KT 8000 BKN010 BKN012 07/05 Q1012
                        TEMPO BKN008=
200901150420 METAR COR EGLL 150420Z 14009KT 8000 OVC010 07/05 Q1012 TEMPO
                        BKN007=
200901150350 METAR COR EGLL 150350Z 15009KT 8000 OVC009 07/05 Q1012 NOSIG=
200901150320 METAR COR EGLL 150320Z 15007KT 7000 BKN009 06/05 Q1012 NOSIG=
200901150250 METAR COR EGLL 150250Z 14006KT 6000 OVC005 06/05 Q1012 NOSIG=
200901150220 METAR EGLL 150220Z AUTO 14006KT 7000NDV OVC005/// 06/05 Q1012=
200901150150 METAR EGLL 150150Z AUTO 13008KT 8000NDV OVC006/// 06/05 Q1012=
200901150120 METAR EGLL 150120Z AUTO 14008KT 8000NDV OVC006/// 06/05 Q1012=
200901150050 METAR EGLL 150050Z 16009KT 9999 BKN010 06/04 Q1013=
200901150020 METAR COR EGLL 150020Z 16009KT 9999 BKN012 06/04 Q1013 BECMG
                        BKN008=
200901142350 METAR COR EGLL 142350Z 15007KT 130V190 9999 SCT017 05/04
                        Q1013 BECMG BKN014=
200901142320 METAR COR EGLL 142320Z 16009KT 9999 FEW020 06/04 Q1013 BECMG
                        BKN012=
200901142250 METAR COR EGLL 142250Z 15009KT 9999 FEW030 06/04 Q1013 NOSIG=
200901142220 METAR COR EGLL 142220Z 16009KT CAVOK 05/04 Q1013 BECMG BKN030=
200901142150 METAR COR EGLL 142150Z 15008KT 120V180 CAVOK 06/04 Q1013
                        NOSIG=
200901142120 METAR COR EGLL 142120Z 15007KT 120V190 CAVOK 05/04 Q1013
                        NOSIG=
200901142050 METAR COR EGLL 142050Z 14007KT 100V220 CAVOK 04/03 Q1013
                        NOSIG=
200901142020 METAR COR EGLL 142020Z 13007KT CAVOK 04/03 Q1013 NOSIG=
200901141950 METAR COR EGLL 141950Z 13006KT 100V170 CAVOK 04/03 Q1014
                        NOSIG=
200901141920 METAR COR EGLL 141920Z 14006KT 110V200 9000 NSC 04/03 Q1014
                        NOSIG=
200901141850 METAR COR EGLL 141850Z 14005KT 100V170 9000 NSC 03/03 Q1014
                        NOSIG=
200901141820 METAR COR EGLL 141820Z 14005KT 7000 NSC 03/02 Q1014 NOSIG=
200901141750 METAR COR EGLL 141750Z 14005KT 080V180 8000 NSC 03/03 Q1014
                        NOSIG=
200901141720 METAR COR EGLL 141720Z 13005KT 110V180 6000 2900SW BCFG NSC
                        02/02 Q1014 NOSIG=
200901141650 METAR COR EGLL 141650Z 12006KT 090V160 4000 1900SW BR NSC
                        02/01 Q1014 TEMPO 6000 NSW=
200901141620 METAR COR EGLL 141620Z 11005KT 090V150 1600 BR FEW002 02/02
                        Q1014 NOSIG=
200901141550 METAR COR EGLL 141550Z 11004KT 070V160 1000 R27R/P1500 R27L/P1500
                        BR SCT001 BKN002 02/02 Q1014 BECMG
                        3000 BR SCT010=
200901141520 METAR COR EGLL 141520Z 14004KT 090V200 0800 R27R/1400 R27L/P1500
                        FG BKN002 02/02 Q1014 BECMG 2000
                        BR BKN005=
200901141450 METAR COR EGLL 141450Z 16004KT 120V240 0300 R27L/0600 R27R/0600
                        FG VV/// 02/02 Q1014 BECMG 1200 BR
                        BKN004=
200901141420 METAR COR EGLL 141420Z 21005KT 160V250 0200 R27L/0650 R27R/P1500
                        FG VV/// 02/02 Q1015 BECMG 1200 BR
                        BKN004=
200901141350 METAR COR EGLL 141350Z VRB03KT 0800 R27L/0400 R27R/P1500
                        FG BKN001 02/02 Q1014 BECMG 1500
                        BR BKN004=
200901141320 METAR COR EGLL 141320Z VRB04KT 0200 R27L/0500 R27R/1400 FG
                        VV/// 02/02 Q1015 TEMPO 0800=
200901141250 METAR COR EGLL 141250Z 21005KT 150V280 0150 R27L/0375 R27R/1200
                        FG VV/// 02/02 Q1015 TEMPO 0800=
200901141220 METAR COR EGLL 141220Z 20005KT 140V250 0050 R27L/0375 R27R/0550
                        FG VV/// 02/02 Q1015 NOSIG=
200901141150 METAR COR EGLL 141150Z VRB03KT 0200 R27L/0400 R27R/0500 FG
                        VV/// 02/02 Q1015 TEMPO 0800=
200901141120 METAR COR EGLL 141120Z VRB03KT 0200 R27L/0300 R27R/0900 FG
                        VV/// 02/02 Q1015 TEMPO 0800=
200901141050 METAR COR EGLL 141050Z 21004KT 150V250 0200 R27L/0375 R27R/0900
                        FG VV/// 02/02 Q1016 NOSIG=
200901141020 METAR COR EGLL 141020Z 19004KT 140V250 0250 R27L/0500 R27R/0900
                        FG VV/// 01/01 Q1015 NOSIG=
200901140950 METAR COR EGLL 140950Z VRB03KT 0200 R27L/0450 R27R/0800 FG
                        VV/// 01/01 Q1015 NOSIG=
200901140920 METAR EGLL 140920Z VRB02KT 0200 R27L/0375 R27R/0450 FG VV///
                        01/01 Q1015 NOSIG=
200901140850 METAR COR EGLL 140850Z VRB02KT 0200 R27L/0400 R27R/0450 FG
                        VV/// 01/01 Q1015 NOSIG=
200901140820 METAR COR EGLL 140820Z 28005KT 0200 R27L/0500 R27R/0550 FG
                        VV/// 01/01 Q1015 NOSIG=
200901140750 METAR COR EGLL 140750Z 29005KT 0250 R27L/0500 R27R/0550 FG
                        VV/// 02/01 Q1015 NOSIG=
200901140720 METAR COR EGLL 140720Z 27004KT 0300 R27L/0500 R27R/0650 FG
                        VV/// 02/01 Q1015 TEMPO 0100 FZFG
                        BKN000=
200901140650 METAR COR EGLL 140650Z 28004KT 0300 R27L/0550 R27R/0450 FG
                        VV/// 02/02 Q1014 TEMPO 0100 FZFG=
200901140620 METAR COR EGLL 140620Z 28004KT 0700 0400W R27L/1100 R27R/0800
                        FG OVC001 02/01 Q1014 BECMG 0200
                        FZFG=
200901140550 METAR COR EGLL 140550Z 26005KT 2000 BR BKN002 01/01 Q1014
                        BECMG 0800=
200901140520 METAR COR EGLL 140520Z 27004KT 3000 BR BKN005 01/01 Q1014
                        TEMPO 0800 FG BKN001=
200901140450 METAR COR EGLL 140450Z VRB03KT 2000 BR BKN007 BKN030 01/01
                        Q1014 TEMPO 0500 FZFG BKN000=
200901140420 METAR COR EGLL 140420Z VRB02KT 1200 R27L/1200 BCFG FEW003
                        SCT008 01/00 Q1014 BECMG 0500 FZFG=
200901140350 METAR COR EGLL 140350Z 35002KT 2000 1000SW R27L/P1500 BCFG
                        SCT010 01/00 Q1013 BECMG 0800 FZFG=
200901140320 METAR COR EGLL 140320Z VRB02KT 2000 1000N R27L/P1500 BR SCT010
                        SCT024 01/00 Q1013 BECMG 1000 BR=
200901140250 METAR COR EGLL 140250Z 00000KT 2300 BR FEW003 BKN008 01/01
                        Q1013 NOSIG=
200901140220 METAR EGLL 140220Z AUTO 00000KT 0600NDV R27L/1000 FG NCD
                        01/01 Q1013=
200901140150 METAR EGLL 140150Z AUTO 00000KT 4000NDV BR NCD 01/01 Q1013=
200901140120 METAR EGLL 140120Z AUTO 00000KT 5000NDV NCD 02/01 Q1013=
200901140050 METAR COR EGLL 140050Z 19004KT 4000 BR NSC 01/01 Q1013 NOSIG=
200901140020 METAR COR EGLL 140020Z 19004KT 4000 BR NSC 02/01 Q1013 NOSIG=
200901132350 METAR EGLL 132350Z NIL=
200901132320 METAR COR EGLL 132320Z VRB03KT 8000 NSC 03/02 Q1012 NOSIG=
200901132250 METAR COR EGLL 132250Z 25004KT CAVOK 04/03 Q1012 NOSIG=
200901132220 METAR COR EGLL 132220Z 26006KT CAVOK 05/03 Q1012 NOSIG=
200901132150 METAR EGLL 132150Z 26006KT CAVOK 04/03 Q1012=
200901132120 METAR COR EGLL 132120Z 27007KT CAVOK 05/03 Q1012 NOSIG=
200901132050 METAR COR EGLL 132050Z 27007KT CAVOK 05/04 Q1012 NOSIG=
200901132020 METAR COR EGLL 132020Z 26008KT CAVOK 05/04 Q1012 NOSIG=
200901131950 METAR EGLL 131950Z 27006KT CAVOK 05/04 Q1011=
200901131920 METAR EGLL 131920Z 27007KT CAVOK 06/04 Q1011=
200901131850 METAR COR EGLL 131850Z 28007KT 9999 FEW028 SCT043 07/04 Q1011
                        NOSIG=
200901131820 METAR COR EGLL 131820Z 28009KT 9999 FEW028 SCT040 07/05 Q1011
                        NOSIG=
200901131750 METAR COR EGLL 131750Z 26008KT 9999 -DZ FEW023 BKN039 07/05
                        Q1010 NOSIG=
200901131720 METAR COR EGLL 131720Z 26007KT 9999 FEW022 SCT041 BKN049
                        08/05 Q1010 NOSIG=
200901131650 METAR EGLL 131650Z 26009KT 9999 FEW033 08/04 Q1010=
200901131620 METAR COR EGLL 131620Z 24010KT 9999 FEW028 SCT038 08/05 Q1009
                        NOSIG=
200901131550 METAR EGLL 131550Z 25008KT 9999 BKN038 09/05 Q1009=
200901131520 METAR COR EGLL 131520Z 26010KT 9999 BKN033 09/06 Q1009 NOSIG=
200901131450 METAR COR EGLL 131450Z 27010KT 9999 FEW023 BKN044 09/06 Q1009
                        NOSIG=
200901131420 METAR EGLL 131420Z 27010KT 9999 FEW021 SCT035 10/06 Q1008=
200901131350 METAR COR EGLL 131350Z 26008KT 9999 FEW016 SCT049 10/07 Q1008
                        NOSIG=
200901131320 METAR COR EGLL 131320Z 25009KT 9999 FEW016 SCT023 10/07 Q1009
                        NOSIG=
200901131250 METAR COR EGLL 131250Z 25011KT 9999 FEW016 10/07 Q1009 NOSIG=
200901131220 METAR COR EGLL 131220Z 23011KT 200V260 9999 FEW020 10/07
                        Q1009 NOSIG=
200901131150 METAR COR EGLL 131150Z 23010KT 9999 FEW019 10/07 Q1009 NOSIG=
200901131120 METAR COR EGLL 131120Z 24010KT 9000 FEW012 SCT019 09/07 Q1010
                        NOSIG=
200901131050 METAR COR EGLL 131050Z 22007KT 170V250 8000 SCT017 09/08
                        Q1009 NOSIG=
200901131020 METAR COR EGLL 131020Z 21007KT 8000 SCT020 09/07 Q1009 NOSIG=
200901130950 METAR COR EGLL 130950Z 21007KT 8000 SCT020 08/07 Q1009 NOSIG=
200901130920 METAR COR EGLL 130920Z 21007KT 8000 FEW020 08/07 Q1009 TEMPO
                        BKN012=
200901130850 METAR COR EGLL 130850Z 21007KT 170V250 7000 FEW012 BKN017
                        07/06 Q1009 TEMPO BKN012=
200901130820 METAR COR EGLL 130820Z 21005KT 7000 FEW012 BKN015 07/06 Q1009
                        NOSIG=
200901130750 METAR COR EGLL 130750Z 21006KT 7000 FEW011 BKN014 07/06 Q1009
                        TEMPO BKN009=
200901130720 METAR COR EGLL 130720Z 23009KT 8000 SCT011 07/06 Q1009 TEMPO
                        BKN009=
200901130650 METAR COR EGLL 130650Z 22008KT 8000 NSC 07/06 Q1008 TEMPO
                        BKN008=
200901130620 METAR COR EGLL 130620Z 22008KT 8000 NSC 07/06 Q1008 TEMPO
                        BKN009=
200901130550 METAR COR EGLL 130550Z 21006KT 8000 NSC 07/06 Q1008 TEMPO
                        BKN008=
200901130520 METAR COR EGLL 130520Z 21007KT 9000 NSC 08/06 Q1008 TEMPO
                        BKN007=
200901130450 METAR COR EGLL 130450Z 21008KT 9000 NSC 08/06 Q1008 TEMPO
                        BKN007=
200901130420 METAR COR EGLL 130420Z 21006KT CAVOK 08/06 Q1008 TEMPO 7000
                        BKN009=
200901130350 METAR COR EGLL 130350Z 21009KT CAVOK 08/07 Q1008 NOSIG=
200901130320 METAR COR EGLL 130320Z 21008KT 9000 NSC 08/07 Q1008 NOSIG=
200901130250 METAR COR EGLL 130250Z 21008KT 9999 FEW016 08/07 Q1008 NOSIG=
200901130220 METAR EGLL 130220Z AUTO 21008KT 9999NDV FEW019/// 09/07 Q1008=
200901130150 METAR EGLL 130150Z AUTO 21008KT 9999NDV SCT015/// 09/07 Q1008=
200901130120 METAR EGLL 130120Z AUTO 21006KT 9999NDV BKN013/// 09/07 Q1008=
200901130050 METAR COR EGLL 130050Z 21008KT 9999 SCT013 BKN019 09/07 Q1008
                        NOSIG=
200901130020 METAR EGLL 130020Z 21007KT 9999 SCT014 09/08 Q1008=
200901122350 METAR COR EGLL 122350Z 21007KT 9999 SCT014 09/07 Q1008 NOSIG=
200901122320 METAR COR EGLL 122320Z 22009KT 9999 SCT016 09/07 Q1008 NOSIG=
200901122250 METAR COR EGLL 122250Z 22010KT 9999 FEW014 BKN018 10/08 Q1008
                        NOSIG=
200901122220 METAR COR EGLL 122220Z 22011KT 9999 FEW013 BKN018 10/08 Q1008
                        NOSIG=
200901122150 METAR COR EGLL 122150Z 22011KT 9999 SCT012 BKN022 10/08 Q1008
                        NOSIG=
200901122120 METAR COR EGLL 122120Z 22012KT 9999 FEW012 SCT015 BKN022
                        10/09 Q1008 NOSIG=
200901122050 METAR COR EGLL 122050Z 22013KT 9999 FEW009 BKN018 10/09 Q1008
                        TEMPO BKN012=
200901122020 METAR COR EGLL 122020Z 22014KT 9999 SCT009 BKN012 10/09 Q1007
                        NOSIG=
200901121950 METAR COR EGLL 121950Z 22013KT 9999 SCT009 BKN012 10/09 Q1007
                        NOSIG=
200901121920 METAR COR EGLL 121920Z 21014KT 6000 -DZ SCT009 BKN011 10/09
                        Q1007 TEMPO 4000 DZ BKN009=
200901121850 METAR COR EGLL 121850Z 20011KT 9999 SCT008 BKN011 10/08 Q1007
                        TEMPO RADZ BKN008=
200901121820 METAR COR EGLL 121820Z 20014KT 180V240 9999 SCT007 BKN010
                        09/08 Q1007 TEMPO RADZ BKN007=
200901121750 METAR COR EGLL 121750Z 20013KT 7000 SCT008 BKN010 09/08 Q1007
                        TEMPO 4500 RADZ BKN008=
200901121720 METAR COR EGLL 121720Z 20014KT 5000 -DZ SCT008 BKN010 09/08
                        Q1007 TEMPO 4500 RADZ BKN008=
200901121650 METAR COR EGLL 121650Z 20013KT 180V250 7000 SCT008 BKN011
                        09/08 Q1007 TEMPO 4500 RADZ BKN008=
200901121620 METAR COR EGLL 121620Z 20015KT 6000 -DZ SCT008 BKN011 09/08
                        Q1008 REDZ TEMPO 4500 RADZ BKN008=
200901121550 METAR COR EGLL 121550Z 20015KT 9999 SCT008 BKN012 09/07 Q1008
                        TEMPO 20016G26KT RA BKN008=
200901121520 METAR COR EGLL 121520Z 20016G27KT 5000 -DZ BKN008 09/07 Q1008
                        TEMPO 4000 RA=
200901121450 METAR COR EGLL 121450Z 20013KT 9000 SCT007 BKN012 08/07 Q1008
                        TEMPO 20015G25KT 4500 RADZ BKN007=
200901121420 METAR COR EGLL 121420Z 20014KT 170V240 6000 BKN007 08/07
                        Q1009 TEMPO RADZ SCT007 BKN010=
200901121350 METAR EGLL 121350Z 20014KT 4000 -DZ BKN007 08/07 Q1009=
200901121320 METAR COR EGLL 121320Z 19013KT 170V240 9999 -RA SCT008 BKN011
                        08/07 Q1010 RERA TEMPO 19015G25KT
                        RA BKN008=
200901121250 METAR COR EGLL 121250Z 19013KT 160V240 4000 RA SCT007 BKN008
                        OVC010 08/07 Q1010 TEMPO 19016G26KT
                        9999 NSW SCT008=
200901121220 METAR COR EGLL 121220Z 20017KT 9000 -DZ BKN008 BKN015 08/07
                        Q1011 TEMPO 20018G28KT RA SCT008=
200901121150 METAR COR EGLL 121150Z 20015KT 9000 -DZ BKN009 BKN012 09/07
                        Q1011 TEMPO 20016G26KT RA SCT009=
200901121120 METAR COR EGLL 121120Z 19014KT 160V230 9999 BKN009 OVC012
                        08/07 Q1012 TEMPO 19015G25KT RA SCT009=
200901121050 METAR COR EGLL 121050Z 19015KT 170V230 9999 -DZ BKN010 08/07
                        Q1012 TEMPO 20016G26KT RA=
200901121020 METAR COR EGLL 121020Z 20014KT 180V240 6000 -DZ FEW007 BKN012
                        09/07 Q1013 TEMPO 20016G26KT RA=
200901120950 METAR COR EGLL 120950Z 20015KT 9999 -DZ OVC011 09/07 Q1013
                        TEMPO 20016G26KT RA=
200901120920 METAR COR EGLL 120920Z 21015KT 9000 -DZ BKN010 BKN016 09/06
                        Q1013 TEMPO 21016G26KT RA=
200901120850 METAR COR EGLL 120850Z 22016KT 9000 BKN008 OVC013 09/06 Q1013
                        TEMPO 22017G27KT RA SCT008=
200901120820 METAR COR EGLL 120820Z 21015KT 9999 BKN013 09/06 Q1013 TEMPO
                        21016G26KT RA=
200901120750 METAR COR EGLL 120750Z 20015KT 9999 BKN013 09/06 Q1013 TEMPO
                        20016G26KT RA=
200901120720 METAR COR EGLL 120720Z 21015KT 8000 -RA BKN014 09/06 Q1013
                        NOSIG=
200901120650 METAR COR EGLL 120650Z 21015G27KT 9999 BKN015 09/06 Q1013
                        TEMPO BKN014=
200901120620 METAR COR EGLL 120620Z 20015G25KT 9999 BKN016 08/05 Q1013
                        NOSIG=
200901120550 METAR COR EGLL 120550Z 20014KT 9999 OVC015 08/05 Q1014 NOSIG=
200901120520 METAR COR EGLL 120520Z 20015KT 9999 OVC015 08/05 Q1014 TEMPO
                        BKN014=
200901120450 METAR COR EGLL 120450Z 20016KT 9999 OVC015 08/05 Q1014 NOSIG=
200901120420 METAR EGLL 120420Z 20016KT 9999 OVC014 08/05 Q1014=
200901120350 METAR COR EGLL 120350Z 20017KT 9999 OVC015 08/05 Q1015 TEMPO
                        BKN014=
200901120320 METAR COR EGLL 120320Z 20014KT 9999 OVC016 08/05 Q1015 NOSIG=
200901120250 METAR EGLL 120250Z 21014KT 9999 BKN017 09/05 Q1016=
200901120220 METAR EGLL 120220Z AUTO 21015KT 9999NDV OVC017/// 09/05 Q1016=
200901120150 METAR EGLL 120150Z AUTO 20015KT 9999NDV BKN018/// 09/05 Q1016=
200901120120 METAR EGLL 120120Z AUTO 21015KT 9999NDV FEW018/// BKN021///
                        09/05 Q1017=
200901120050 METAR COR EGLL 120050Z 21014KT 9999 BKN018 BKN022 09/05 Q1017
                        NOSIG=
200901120020 METAR COR EGLL 120020Z 21014KT 9999 BKN018 BKN022 09/05 Q1018
                        NOSIG=
200901112350 METAR COR EGLL 112350Z 21015KT 9999 BKN017 BKN022 09/05 Q1018
                        NOSIG=
200901112320 METAR EGLL 112320Z 21015KT 9999 SCT018 BKN022 08/05 Q1018=
200901112250 METAR COR EGLL 112250Z 21014KT 180V240 9999 BKN018 08/05
                        Q1018 TEMPO 21015G25KT BKN014=
200901112220 METAR COR EGLL 112220Z 21015G27KT 180V240 9999 SCT017 SCT021
                        08/05 Q1019 TEMPO BKN014=
200901112150 METAR EGLL 112150Z 21014KT 180V240 9999 SCT016 BKN020 08/05
                        Q1019=
200901112120 METAR COR EGLL 112120Z 21015KT 180V240 9999 BKN015 BKN021
                        08/05 Q1019 TEMPO 21015G25KT BKN014=
200901112050 METAR COR EGLL 112050Z 20014G25KT 8000 BKN015 BKN021 08/05
                        Q1019 TEMPO 20014KT BKN014=
200901112020 METAR COR EGLL 112020Z 20014KT 180V240 7000 BKN014 BKN022
                        08/05 Q1020 TEMPO 20015G25KT=
200901111950 METAR COR EGLL 111950Z 21014KT 8000 BKN015 08/05 Q1020 TEMPO
                        21015G25KT BKN014=
200901111920 METAR COR EGLL 111920Z 21012KT 8000 BKN016 08/05 Q1020 TEMPO
                        21015G25KT BKN014=
200901111850 METAR COR EGLL 111850Z 20015KT 8000 BKN016 08/05 Q1020 TEMPO
                        20016G26KT BKN014=
200901111820 METAR COR EGLL 111820Z 21015KT 8000 BKN016 08/05 Q1020 TEMPO
                        21016G26KT BKN014=
200901111750 METAR COR EGLL 111750Z 21014KT 8000 BKN016 08/05 Q1020 TEMPO
                        21015G25KT BKN014=
200901111720 METAR COR EGLL 111720Z 21014KT 190V250 8000 BKN015 08/05
                        Q1021 TEMPO 21015G25KT BKN014=
200901111650 METAR COR EGLL 111650Z 21012G22KT 7000 BKN016 08/05 Q1021
                        TEMPO BKN014=
200901111620 METAR COR EGLL 111620Z 20011KT 180V240 7000 BKN017 08/04
                        Q1021 TEMPO 20015G25KT BKN014=
200901111550 METAR COR EGLL 111550Z 22012KT 9000 SCT019 08/04 Q1021 TEMPO
                        22015G25KT BKN014=
200901111520 METAR COR EGLL 111520Z 21012KT 180V250 9999 FEW022 08/02
                        Q1022 TEMPO 20015G25KT=
200901111450 METAR COR EGLL 111450Z 21011KT CAVOK 08/01 Q1021 TEMPO 20015G25KT=
200901111420 METAR COR EGLL 111420Z 21012KT CAVOK 09/01 Q1021 TEMPO 20015G25KT=
200901111350 METAR COR EGLL 111350Z 20013KT CAVOK 09/01 Q1021 TEMPO 20015G25KT=
200901111320 METAR COR EGLL 111320Z 21012G22KT CAVOK 09/02 Q1022 NOSIG=
200901111250 METAR COR EGLL 111250Z 20013KT CAVOK 09/02 Q1022 TEMPO 20015G25KT=
200901111220 METAR COR EGLL 111220Z 19014KT 140V230 CAVOK 09/03 Q1022
                        TEMPO 19015G25KT=
200901111150 METAR COR EGLL 111150Z 21013KT CAVOK 08/03 Q1023 TEMPO 21015G25KT=
200901111120 METAR COR EGLL 111120Z 20011KT CAVOK 07/02 Q1023 TEMPO 20015G25KT=
200901111050 METAR COR EGLL 111050Z 19013G23KT CAVOK 06/02 Q1023 NOSIG=
200901111020 METAR COR EGLL 111020Z 20015KT CAVOK 06/02 Q1024 TEMPO 20016G26KT=
200901110950 METAR COR EGLL 110950Z 19013KT CAVOK 05/01 Q1024 NOSIG=
200901110920 METAR COR EGLL 110920Z 20012KT CAVOK 05/01 Q1025 NOSIG=
200901110850 METAR COR EGLL 110850Z 20009KT CAVOK 04/01 Q1025 NOSIG=
200901110820 METAR COR EGLL 110820Z 21008KT 9000 NSC 04/01 Q1024 NOSIG=
200901110750 METAR COR EGLL 110750Z 20009KT CAVOK 03/01 Q1024 NOSIG=
200901110720 METAR COR EGLL 110720Z 21007KT 180V240 CAVOK 03/01 Q1024
                        NOSIG=
200901110650 METAR COR EGLL 110650Z 21008KT CAVOK 03/00 Q1024 NOSIG=
200901110620 METAR COR EGLL 110620Z 21009KT 180V250 CAVOK 03/00 Q1024
                        NOSIG=
200901110550 METAR COR EGLL 110550Z 20009KT CAVOK 03/00 Q1024 NOSIG=
200901110520 METAR COR EGLL 110520Z 21006KT CAVOK 03/00 Q1024 NOSIG=
200901110450 METAR COR EGLL 110450Z VRB02KT CAVOK 02/M00 Q1024 NOSIG=
200901110420 METAR COR EGLL 110420Z 00000KT CAVOK 02/M00 Q1025 NOSIG=
200901110350 METAR COR EGLL 110350Z 19005KT CAVOK 02/M00 Q1025 NOSIG=
200901110320 METAR COR EGLL 110320Z 21005KT CAVOK 01/M00 Q1025 NOSIG=
200901110250 METAR COR EGLL 110250Z 20006KT CAVOK 01/M00 Q1025 NOSIG=
200901110220 METAR EGLL 110220Z AUTO 20005KT 4600NDV HZ NCD 01/00 Q1025=
200901110150 METAR EGLL 110150Z AUTO 18004KT 4000NDV HZ NCD 01/00 Q1025=
200901110120 METAR EGLL 110120Z AUTO 20006KT 3600NDV BR NCD 01/00 Q1025=
200901110050 METAR COR EGLL 110050Z 20007KT 3600 BR NSC 01/00 Q1026 NOSIG=
200901110020 METAR COR EGLL 110020Z 20006KT 3700 BR SCT011 01/00 Q1026
                        TEMPO BKN010=
200901102350 METAR EGLL 102350Z NIL=
200901102320 METAR COR EGLL 102320Z 21007G18KT 150V250 3000 BR OVC010
                        00/M00 Q1026 NOSIG=
200901102250 METAR COR EGLL 102250Z 22008KT 170V260 2900 BR BKN010 M00/M01
                        Q1026 TEMPO SCT010=
200901102220 METAR COR EGLL 102220Z 22007KT 190V260 3000 BR SCT010 M01/M02
                        Q1026 NOSIG=
200901102150 METAR COR EGLL 102150Z 21007KT 180V250 2900 BR SCT010 M01/M02
                        Q1026 NOSIG=
200901102120 METAR COR EGLL 102120Z 22007KT 3000 BR FEW010 M02/M02 Q1026
                        NOSIG=
200901102050 METAR COR EGLL 102050Z 22006KT 170V260 2800 BR NSC M02/M02
                        Q1026 NOSIG=
200901102020 METAR COR EGLL 102020Z 19006KT 150V240 2600 BR NSC M03/M03
                        Q1026 NOSIG=
200901101950 METAR COR EGLL 101950Z 18006KT 150V230 2600 BR NSC M02/M03
                        Q1026 NOSIG=
200901101920 METAR COR EGLL 101920Z 20006KT 150V240 2200 BR NSC M02/M02
                        Q1026 TEMPO BKN004=
200901101850 METAR COR EGLL 101850Z 19004KT 140V240 1900 BR BKN002 M02/M03
                        Q1026 NOSIG=
200901101820 METAR COR EGLL 101820Z 19006KT 130V230 1300 R27L/P1500 R27R/P1500
                        BR BKN002 M02/M02 Q1026 NOSIG=
200901101750 METAR COR EGLL 101750Z 23005KT 170V270 1200 R27L/P1500 R27R/P1500
                        BR BKN002 M02/M02 Q1026 NOSIG=
200901101720 METAR COR EGLL 101720Z 23006KT 160V270 1400 R27L/P1500 R27R/P1500
                        BR OVC002 M02/M02 Q1025 NOSIG=
200901101650 METAR COR EGLL 101650Z 19006KT 150V240 0900 R27L/P1500 R27R/P1500=
200901101620 METAR COR EGLL 101620Z 17005KT 130V230 1000 R27L/P1500 R27R/P1500
                        BR BKN002 M02/M03 Q1025 TEMPO 0700
                        FZFG BKN001=
200901101550 METAR COR EGLL 101550Z 18005KT 150V230 1200 BR FEW002 BKN003
                        M02/M03 Q1026 NOSIG=
200901101520 METAR COR EGLL 101520Z 21005KT 130V270 1700 BR FEW002 BKN003
                        M03/M03 Q1026 TEMPO 1400=
200901101450 METAR COR EGLL 101450Z 17004KT 110V210 2000 BR FEW003 BKN004
                        M03/M03 Q1026 TEMPO BKN005=
200901101420 METAR COR EGLL 101420Z 26008KT 2100 BR FEW003 BKN004 M03/M04
                        Q1027 TEMPO BKN005=
200901101350 METAR COR EGLL 101350Z 25007KT 1900 BR OVC004 M03/M04 Q1027
                        TEMPO 5000 HZ BKN008=
200901101320 METAR COR EGLL 101320Z 21006KT 190V250 1900 BR BKN004 M03/M04
                        Q1027 BECMG 6000 NSW SCT010=
200901101250 METAR COR EGLL 101250Z 20007KT 170V240 1500 R27R/P1500 R27L/P1500
                        BR BKN004 M03/M04 Q1026 BECMG 6000
                        NSW SCT010=
200901101220 METAR COR EGLL 101220Z 23007KT 200V260 1300 R27R/P1500 R27L/P1500
                        BR FEW002 BKN003 M03/M04 Q1027 BECMG
                        1500 BKN005=
200901101150 METAR COR EGLL 101150Z 20005KT 170V260 1100 R27R/1400 R27L/P1500
                        BR BKN002 M03/M04 Q1027 NOSIG=
200901101120 METAR COR EGLL 101120Z 21007KT 160V260 1000 R27R/1100 R27L/1000
                        BR SCT001 BKN002 M03/M04 Q1027 NOSIG=
200901101050 METAR COR EGLL 101050Z VRB03KT 0900 R27R/1500 R27L/1200 FZFG
                        BKN001 M03/M04 Q1028 BECMG 1500 BR=
200901101020 METAR COR EGLL 101020Z 21004KT 170V260 0800 R27R/1200 R27L/1100
                        FZFG BKN001 M04/M04 Q1028 BECMG 1200
                        BR=
200901100950 METAR COR EGLL 100950Z 21004KT 150V250 0800 R27R/0900 R27L/0800
                        FZFG BKN001 M04/M04 Q1028 NOSIG=
200901100920 METAR COR EGLL 100920Z VRB03KT 0900 R27R/1100 R27L/0800 FZFG
                        BKN001 M04/M04 Q1028 BECMG BKN002=
200901100850 METAR COR EGLL 100850Z VRB03KT 0900 R27R/1200 R27L/P1500
                        FZFG SCT001 BKN002 M04/M04 Q1028
                        TEMPO BKN001=
200901100820 METAR COR EGLL 100820Z 18004KT 090V230 0900 R27R/P1500 R27L/1400=
200901100750 METAR COR EGLL 100750Z VRB03KT 0900 R27R/P1500 R27L/P1500
                        FZFG FEW001 OVC002 M04/M04 Q1027
                        TEMPO BKN001=
200901100720 METAR COR EGLL 100720Z 24005KT 200V280 0900 R27R/P1500 R27L/P1500=
200901100650 METAR COR EGLL 100650Z 16004KT 120V190 0900 R27R/0800 R27L/1000
                        FZFG SCT001 BKN002 M04/M04 Q1026
                        TEMPO 0400=
200901100620 METAR COR EGLL 100620Z 18005KT 140V210 0700 R27R/1000 R27L/P1500=
200901100550 METAR COR EGLL 100550Z 18004KT 150V240 0900 R27L/1200 FZFG
                        OVC001 M04/M04 Q1027 NOSIG=
200901100520 METAR COR EGLL 100520Z 00000KT 1200 R27L/P1500 BR VV/// M04/M04
                        Q1027 TEMPO 0600 FG=
200901100450 METAR COR EGLL 100450Z VRB02KT 1400 0600S R27L/P1500 PRFG
                        VV/// M03/M04 Q1027 BECMG 0600 FG=
200901100420 METAR COR EGLL 100420Z VRB02KT 0400 R27L/1500 FZFG VV///
                        M03/M04 Q1028 TEMPO 0800=
200901100350 METAR COR EGLL 100350Z 00000KT 0150 R27L/0500 FZFG VV///
                        M04/M04 Q1028 NOSIG=
200901100320 METAR COR EGLL 100320Z VRB02KT 0150 R09L/0750 R09R/0700 FZFG
                        VV/// M04/M04 Q1028 NOSIG=
200901100250 METAR COR EGLL 100250Z VRB03KT 0150 R09L/0400 R09R/0700 FZFG
                        VV/// M04/M04 Q1028 NOSIG=
200901100220 METAR EGLL 100220Z AUTO 26003KT 0100NDV R09L/0400 R09R/0400
                        FG VV/// M04/M04 Q1028=
200901100150 METAR EGLL 100150Z AUTO 00000KT 0100NDV R09L/0400 R09R/0375
                        FG VV/// M04/M04 Q1028=
200901100120 METAR EGLL 100120Z AUTO VRB02KT 0100NDV R09L/0375 R09R/0350
                        FG VV/// M04/M04 Q1028=
200901100050 METAR COR EGLL 100050Z 00000KT 0200 R09L/0400 R09R/0400 FZFG
                        VV/// M04/M04 Q1028 NOSIG=
200901100020 METAR COR EGLL 100020Z 15003KT 0200 R09L/0550 R09R/0500 FZFG
                        VV/// M03/M04 Q1028 NOSIG=
200901092350 METAR COR EGLL 092350Z 17003KT 1000 0400N R09L/P1500 R09R/0550
                        FZFG BKN001 M03/M04 Q1029 BECMG 0500
                        FZFG=
200901092320 METAR COR EGLL 092320Z VRB03KT 3400 BR FEW006 M04/M04 Q1029
                        NOSIG=
200901092250 METAR COR EGLL 092250Z VRB02KT 3500 BR FEW008 M03/M04 Q1029
                        NOSIG=
200901092220 METAR COR EGLL 092220Z 07002KT 4000 BR FEW010 M03/M04 Q1029
                        NOSIG=
200901092150 METAR COR EGLL 092150Z 08004KT 3000 BR FEW006 M03/M04 Q1029
                        NOSIG=
200901092120 METAR COR EGLL 092120Z VRB02KT 3000 BR FEW008 M02/M03 Q1029
                        NOSIG=
200901092050 METAR COR EGLL 092050Z 07002KT 2900 BR FEW008 M03/M03 Q1029
                        NOSIG=
200901092020 METAR COR EGLL 092020Z 07002KT 3300 BR NSC M02/M03 Q1029
                        NOSIG=
200901091950 METAR COR EGLL 091950Z 09003KT 3700 BR FEW010 M02/M03 Q1029
                        NOSIG=
200901091920 METAR COR EGLL 091920Z 08003KT 3900 BR FEW013 M02/M03 Q1029
                        TEMPO BKN007=
200901091850 METAR COR EGLL 091850Z 08005KT 4200 BR NSC M02/M03 Q1029
                        TEMPO BKN003=
200901091820 METAR COR EGLL 091820Z 07004KT 6000 NSC M02/M03 Q1029 TEMPO
                        4500 BR BKN006=
200901091750 METAR COR EGLL 091750Z 08003KT 7000 NSC M02/M03 Q1029 TEMPO
                        4500 BR BKN006=
200901091720 METAR COR EGLL 091720Z 08005KT 8000 NSC M01/M04 Q1028 NOSIG=
200901091650 METAR COR EGLL 091650Z 07005KT 8000 NSC M01/M04 Q1028 NOSIG=
200901091620 METAR COR EGLL 091620Z 09005KT 7000 NSC 00/M04 Q1028 TEMPO
                        4500 BR BKN005=
200901091550 METAR COR EGLL 091550Z 08005KT 7000 NSC 01/M03 Q1028 NOSIG=
200901091520 METAR COR EGLL 091520Z 08002KT 8000 NSC 02/M02 Q1028 NOSIG=
200901091450 METAR COR EGLL 091450Z VRB03KT 7000 NSC 02/M02 Q1028 NOSIG=
200901091420 METAR COR EGLL 091420Z VRB03KT 7000 NSC 02/M02 Q1028 NOSIG=
200901091350 METAR COR EGLL 091350Z VRB03KT 7000 NSC 02/M01 Q1028 NOSIG=
200901091320 METAR COR EGLL 091320Z VRB03KT 7000 NSC 01/M02 Q1028 NOSIG=
200901091250 METAR COR EGLL 091250Z 35004KT 310V040 8000 FEW040 01/M02
                        Q1029 NOSIG=
200901091220 METAR COR EGLL 091220Z VRB03KT 7000 FEW013 01/M02 Q1029 NOSIG=
200901091150 METAR COR EGLL 091150Z 33004KT 300V360 6000 FEW010 01/M02
                        Q1029 NOSIG=
200901091120 METAR COR EGLL 091120Z VRB03KT 7000 SCT010 00/M02 Q1029 TEMPO
                        BKN009=
200901091050 METAR COR EGLL 091050Z 36004KT 320V050 7000 BKN008 00/M02
                        Q1030 TEMPO SCT008=
200901091020 METAR COR EGLL 091020Z VRB03KT 6000 BKN008 M00/M01 Q1030
                        NOSIG=
200901090950 METAR COR EGLL 090950Z VRB02KT 4500 BR BKN008 M01/M02 Q1030
                        TEMPO 5000 HZ SCT009=
200901090920 METAR COR EGLL 090920Z 00000KT 4500 BR BKN007 M01/M02 Q1030
                        BECMG TEMPO 5000 HZ SCT009=
200901090850 METAR COR EGLL 090850Z 00000KT 2500 BR SCT003 BKN004 M02/M02
                        Q1030 NOSIG=
200901090820 METAR COR EGLL 090820Z 00000KT 1200 R09L/P1500 R09R/P1500
                        BR BKN002 M02/M02 Q1029 TEMPO 0600
                        FZFG BKN001=
200901090750 METAR EGLL 090750Z 00000KT 1200 BR FEW001 BKN003 M02/M02
                        Q1029=
200901090720 METAR COR EGLL 090720Z 00000KT 2000 BR FEW002 BKN003 M02/M02
                        Q1029 TEMPO 1400=
200901090650 METAR COR EGLL 090650Z 00000KT 3300 BR SCT003 BKN004 M01/M02
                        Q1029 NOSIG=
200901090620 METAR COR EGLL 090620Z 00000KT 3000 BR SCT003 BKN004 M01/M02
                        Q1029 NOSIG=
200901090550 METAR COR EGLL 090550Z 00000KT 3000 BR BKN003 M01/M01 Q1028
                        TEMPO 1400=
200901090520 METAR COR EGLL 090520Z 00000KT 3000 BR FEW003 BKN004 M01/M02
                        Q1028 TEMPO 1400=
200901090450 METAR COR EGLL 090450Z 00000KT 3000 BR SCT003 BKN004 M02/M02
                        Q1028 TEMPO 1400=
200901090420 METAR COR EGLL 090420Z 00000KT 2500 BR SCT002 BKN004 M01/M01
                        Q1028 TEMPO 1200=
200901090350 METAR COR EGLL 090350Z 00000KT 2400 BR FEW002 BKN003 M01/M01
                        Q1028 TEMPO 1200=
200901090320 METAR COR EGLL 090320Z 00000KT 2000 BR FEW002 OVC004 M01/M01
                        Q1028 TEMPO 1200=
200901090250 METAR COR EGLL 090250Z 00000KT 1500 R09L/P1500 R09R/P1500
                        BR SCT001 BKN003 M01/M01 Q1028 TEMPO
                        0800 FZFG BKN001=
200901090220 METAR EGLL 090220Z AUTO 00000KT 0700NDV R09L/P1500 R09R/P1500
                        FG VV/// M01/M01 Q1028=
200901090150 METAR COR EGLL 090150Z AUTO 00000KT 0250NDV R09L/0800 R09R/1400
                        FG VV/// M01/M01 Q1028 NOSIG=
200901090120 METAR EGLL 090120Z AUTO 00000KT 0400NDV R09L/P1500 R09R/0750
                        FG VV/// M01/M01 Q1028=
200901090050 METAR COR EGLL 090050Z 00000KT 0200 R09L/0500 R09R/0750 FZFG
                        VV/// M01/M01 Q1029 NOSIG=
200901090020 METAR COR EGLL 090020Z 13004KT 080V170 0100 R09L/0400 R09R/0400
                        FZFG VV/// M00/M01 Q1029 NOSIG=
200901082350 METAR COR EGLL 082350Z VRB03KT 0100 R09L/0350 R09R/0350 FG
                        VV/// M00/M00 Q1029 NOSIG=
200901082320 METAR COR EGLL 082320Z 09005KT 0100 R09L/0375 R09R/0900 FG
                        VV/// 00/M00 Q1029 NOSIG=
200901082250 METAR COR EGLL 082250Z 11006KT 0100 R09L/0375 R09R/0400 FG
                        VV/// 00/00 Q1029 NOSIG=
200901082220 METAR COR EGLL 082220Z 09005KT 0100 R09L/0400 R09R/0375 FG
                        VV/// 00/00 Q1029 NOSIG=
200901082150 METAR COR EGLL 082150Z 09006KT 0200 R09L/0375 R09R/0375 FG
                        VV/// 01/00 Q1029 NOSIG=
200901082120 METAR COR EGLL 082120Z 09005KT 3000 0500E R09L/1100 R09R/P1500
                        PRFG SCT001 01/00 Q1029 TEMPO 0700
                        FG BKN001=
200901082050 METAR COR EGLL 082050Z 08005KT 5000 HZ BKN029 02/00 Q1029
                        BECMG 4000 BR=
200901082020 METAR COR EGLL 082020Z 09004KT 5000 BR OVC027 02/00 Q1029
                        BECMG 4000=
200901081950 METAR COR EGLL 081950Z 09005KT 5000 BR OVC027 02/01 Q1029
                        BECMG 4000=
200901081920 METAR COR EGLL 081920Z 09006KT 5000 HZ OVC025 03/01 Q1029
                        BECMG 4000 BR=
200901081850 METAR COR EGLL 081850Z 08007KT 5000 HZ OVC026 03/01 Q1029
                        BECMG 3000 BR=
200901081820 METAR COR EGLL 081820Z 07006KT 6000 SCT017 OVC023 04/01 Q1029
                        BECMG 4000 BR=
200901081750 METAR COR EGLL 081750Z 07005KT 5000 BR BKN017 OVC023 04/01
                        Q1029 BECMG 3000=
200901081720 METAR COR EGLL 081720Z VRB03KT 8000 FEW018 BKN026 05/01 Q1028
                        BECMG 4000 BR=
200901081650 METAR COR EGLL 081650Z 02003KT 8000 BKN027 05/01 Q1028 BECMG
                        4000 BR=
200901081620 METAR COR EGLL 081620Z 04003KT 7000 FEW029 05/01 Q1028 NOSIG=
200901081550 METAR COR EGLL 081550Z VRB02KT 7000 FEW018 05/01 Q1028 NOSIG=
200901081520 METAR COR EGLL 081520Z VRB03KT 7000 FEW018 05/01 Q1028 NOSIG=
200901081450 METAR COR EGLL 081450Z VRB02KT 7000 FEW018 06/02 Q1028 NOSIG=
200901081420 METAR COR EGLL 081420Z VRB02KT 7000 FEW014 06/02 Q1028 NOSIG=
200901081350 METAR COR EGLL 081350Z VRB02KT 6000 FEW017 06/02 Q1028 NOSIG=
200901081320 METAR COR EGLL 081320Z 35002KT 6000 FEW017 06/02 Q1028 NOSIG=
200901081250 METAR COR EGLL 081250Z 35003KT 4800 HZ SCT024 05/02 Q1029
                        BECMG 6000 NSW=
200901081220 METAR COR EGLL 081220Z VRB02KT 4800 HZ BKN025 05/02 Q1029
                        BECMG 6000 NSW=
200901081150 METAR EGLL 081150Z VRB03KT 4000 HZ BKN026 04/01 Q1030=
200901081120 METAR COR EGLL 081120Z VRB02KT 4200 HZ BKN027 04/01 Q1030
                        TEMPO 6000 NSW=
200901081050 METAR COR EGLL 081050Z VRB03KT 4000 HZ BKN028 04/01 Q1030
                        BECMG 6000 NSW=
200901081020 METAR COR EGLL 081020Z VRB02KT 4200 HZ BKN028 03/01 Q1030
                        BECMG 6000 NSW=
200901080950 METAR COR EGLL 080950Z 36003KT 3500 HZ BKN029 03/01 Q1030
                        BECMG 6000 NSW=
200901080920 METAR COR EGLL 080920Z VRB02KT 4000 BR FEW007 BKN028 02/01
                        Q1030 BECMG 6000 NSW=
200901080850 METAR COR EGLL 080850Z 00000KT 3400 BR FEW007 BKN030 02/01
                        Q1030 BECMG 6000 NSW=
200901080820 METAR COR EGLL 080820Z 00000KT 3000 BR BKN031 02/01 Q1030
                        NOSIG=
200901080750 METAR COR EGLL 080750Z 00000KT 3600 BR BKN031 02/01 Q1029
                        NOSIG=
200901080720 METAR COR EGLL 080720Z 34002KT 3700 BR FEW010 BKN032 01/01
                        Q1029 TEMPO BKN010=
200901080650 METAR COR EGLL 080650Z VRB02KT 4500 BR OVC032 01/00 Q1029
                        NOSIG=
200901080620 METAR COR EGLL 080620Z 00000KT 3900 BR OVC032 02/01 Q1029
                        NOSIG=
200901080550 METAR COR EGLL 080550Z 00000KT 4000 BR SCT023 OVC033 01/00
                        Q1029 TEMPO 2000 BKN010=
200901080520 METAR COR EGLL 080520Z 00000KT 3400 BR BKN023 OVC035 01/00
                        Q1029 TEMPO 2000 BKN010=
200901080450 METAR COR EGLL 080450Z 23002KT 3600 BR FEW009 BKN025 01/00
                        Q1029 TEMPO 2500 BKN009=
200901080420 METAR COR EGLL 080420Z 31002KT 3000 BR SCT010 BKN020 01/00
                        Q1029 TEMPO 2500 BKN010=
200901080350 METAR COR EGLL 080350Z 31003KT 2700 BR SCT010 01/00 Q1029
                        TEMPO 3000 BKN010=
200901080320 METAR COR EGLL 080320Z 26002KT 3000 BR BKN011 00/M00 Q1029
                        TEMPO BKN009=
200901080250 METAR COR EGLL 080250Z 00000KT 4000 HZ SCT023 OVC039 01/M00
                        Q1029 NOSIG=
200901080220 METAR EGLL 080220Z AUTO 34002KT 4200NDV HZ BKN022/// OVC041///
                        01/00 Q1029=
200901080150 METAR EGLL 080150Z AUTO 00000KT 4000NDV HZ SCT021/// OVC040///
                        01/00 Q1029=
200901080120 METAR EGLL 080120Z AUTO 30002KT 3100NDV HZ BKN039/// 01/00
                        Q1029=
200901080050 METAR COR EGLL 080050Z 29004KT 3800 HZ BKN010 02/01 Q1029
                        TEMPO BKN008=
200901080020 METAR COR EGLL 080020Z 29005KT 3300 HZ BKN010 01/01 Q1029
                        TEMPO BKN008=
200901072350 METAR COR EGLL 072350Z 30002KT 4000 HZ FEW008 BKN010 02/00
                        Q1029 TEMPO BKN008=
200901072320 METAR COR EGLL 072320Z 30002KT 4300 HZ BKN009 BKN022 02/01
                        Q1029 TEMPO SCT009=
200901072250 METAR COR EGLL 072250Z 30004KT 3800 HZ SCT010 OVC021 02/01
                        Q1029 TEMPO BKN010=
200901072220 METAR COR EGLL 072220Z VRB02KT 3500 HZ SCT009 BKN020 OVC023
                        02/01 Q1028 BECMG BKN009=
200901072150 METAR COR EGLL 072150Z 28004KT 4500 HZ SCT009 BKN015 BKN026
                        02/01 Q1028 BECMG BKN009=
200901072120 METAR COR EGLL 072120Z VRB03KT 4500 HZ FEW008 BKN020 02/01
                        Q1028 NOSIG=
200901072050 METAR COR EGLL 072050Z VRB03KT 3800 BR FEW006 BKN010 BKN014
                        02/01 Q1028 BECMG BKN006=
200901072020 METAR COR EGLL 072020Z 29004KT 3500 BR FEW006 SCT010 BKN019
                        02/01 Q1028 BECMG BKN006=
200901071950 METAR COR EGLL 071950Z 30004KT 3500 BR BKN010 02/01 Q1028
                        BECMG BKN008=
200901071920 METAR COR EGLL 071920Z 30003KT 5000 HZ BKN011 02/01 Q1028
                        BECMG 4000 BR BKN009=
200901071850 METAR COR EGLL 071850Z 30004KT 6000 BKN009 BKN020 02/01 Q1027
                        NOSIG=
200901071820 METAR COR EGLL 071820Z VRB03KT 6000 BKN010 BKN030 02/01 Q1027
                        NOSIG=
200901071750 METAR COR EGLL 071750Z 30005KT 6000 -DZ FEW010 BKN029 BKN034
                        02/00 Q1027 BECMG BKN010=
200901071720 METAR COR EGLL 071720Z 30004KT 280V340 6000 -RA FEW011 BKN029
                        BKN041 03/00 Q1027 BECMG BKN010=
200901071650 METAR COR EGLL 071650Z 31003KT 7000 -RA OVC011 03/00 Q1027
                        NOSIG=
200901071620 METAR COR EGLL 071620Z 35003KT 7000 OVC011 03/00 Q1026 NOSIG=
200901071550 METAR COR EGLL 071550Z VRB03KT 7000 OVC013 03/00 Q1026 NOSIG=
200901071520 METAR COR EGLL 071520Z 32003KT 7000 OVC012 03/00 Q1026 NOSIG=
200901071450 METAR COR EGLL 071450Z VRB03KT 7000 OVC011 03/00 Q1026 NOSIG=
200901071420 METAR COR EGLL 071420Z 31003KT 8000 OVC011 03/00 Q1026 NOSIG=
200901071350 METAR COR EGLL 071350Z 31004KT 290V350 7000 BKN011 BKN033
                        03/00 Q1025 NOSIG=
200901071320 METAR COR EGLL 071320Z 31005KT 280V350 7000 BKN011 BKN034
                        04/01 Q1025 NOSIG=
200901071250 METAR COR EGLL 071250Z 29004KT 250V310 7000 BKN010 BKN034
                        03/00 Q1025 NOSIG=
200901071220 METAR COR EGLL 071220Z 28004KT 7000 BKN009 BKN033 03/00 Q1025
                        BECMG SCT009=
200901071150 METAR COR EGLL 071150Z 28004KT 7000 BKN010 03/M00 Q1025 NOSIG=
200901071120 METAR COR EGLL 071120Z 27004KT 220V310 8000 SCT009 BKN030
                        02/M00 Q1026 TEMPO BKN009=
200901071050 METAR COR EGLL 071050Z VRB03KT 8000 FEW010 BKN030 02/M01
                        Q1026 NOSIG=
200901071020 METAR COR EGLL 071020Z VRB03KT 7000 FEW010 BKN029 01/M01
                        Q1026 NOSIG=
200901070950 METAR COR EGLL 070950Z VRB03KT 7000 SCT008 BKN020 01/M02
                        Q1025 TEMPO BKN008=
200901070920 METAR COR EGLL 070920Z 30003KT 7000 BKN011 01/M02 Q1025 NOSIG=
200901070850 METAR COR EGLL 070850Z 30004KT 8000 BKN012 M00/M03 Q1025
                        NOSIG=
200901070820 METAR COR EGLL 070820Z 29004KT 9000 OVC012 M00/M03 Q1025
                        NOSIG=
200901070750 METAR COR EGLL 070750Z 27004KT 9000 BKN012 M01/M03 Q1024
                        NOSIG=
200901070720 METAR COR EGLL 070720Z 27004KT 220V300 9999 OVC015 M02/M04
                        Q1024 TEMPO BKN012=
200901070650 METAR COR EGLL 070650Z 29004KT 8000 OVC010 M02/M05 Q1024
                        NOSIG=
200901070620 METAR COR EGLL 070620Z 30005KT 9999 BKN009 M02/M05 Q1024
                        TEMPO BKN010=
200901070550 METAR COR EGLL 070550Z 26005KT 9999 BKN010 OVC025 M03/M06
                        Q1024 TEMPO SCT010=
200901070520 METAR COR EGLL 070520Z 28005KT 9000 SCT011 BKN024 M03/M06
                        Q1024 TEMPO BKN011=
200901070450 METAR COR EGLL 070450Z 29004KT 5000 -SN FEW018 BKN028 M04/M06
                        Q1024 NOSIG=
200901070420 METAR COR EGLL 070420Z 29004KT 260V330 9999 OVC028 M03/M06
                        Q1024 NOSIG=
200901070350 METAR COR EGLL 070350Z 27006KT 9999 SCT028 BKN037 M04/M06
                        Q1024 NOSIG=
200901070320 METAR COR EGLL 070320Z 28006KT 9999 FEW039 M04/M07 Q1025
                        NOSIG=
200901070250 METAR COR EGLL 070250Z 27004KT CAVOK M05/M06 Q1025 NOSIG=
200901070220 METAR EGLL 070220Z AUTO 26004KT 9000NDV NCD M06/M07 Q1025=
200901070150 METAR EGLL 070150Z AUTO 28004KT 9000NDV NCD M06/M08 Q1025=
200901070120 METAR EGLL 070120Z AUTO 27003KT 9999NDV NCD M06/M08 Q1025=
200901070050 METAR COR EGLL 070050Z 29003KT CAVOK M06/M08 Q1025 NOSIG=
200901070020 METAR COR EGLL 070020Z 25004KT CAVOK M05/M07 Q1025 NOSIG=
200901062350 METAR COR EGLL 062350Z 29003KT 9000 NSC M06/M08 Q1026 NOSIG=
200901062320 METAR COR EGLL 062320Z 28003KT CAVOK M04/M07 Q1026 NOSIG=
200901062250 METAR COR EGLL 062250Z 30003KT CAVOK M03/M07 Q1026 NOSIG=
200901062220 METAR COR EGLL 062220Z 29003KT CAVOK M03/M07 Q1026 NOSIG=
200901062150 METAR COR EGLL 062150Z 32003KT CAVOK M04/M07 Q1026 NOSIG=
200901062120 METAR COR EGLL 062120Z 30002KT CAVOK M04/M07 Q1026 NOSIG=
200901062050 METAR COR EGLL 062050Z 34003KT CAVOK M04/M07 Q1026 NOSIG=
200901062020 METAR COR EGLL 062020Z 34003KT CAVOK M04/M07 Q1026 NOSIG=
200901061950 METAR COR EGLL 061950Z 35003KT CAVOK M04/M07 Q1026 NOSIG=
200901061920 METAR COR EGLL 061920Z 35003KT CAVOK M03/M06 Q1026 NOSIG=
200901061850 METAR COR EGLL 061850Z 35003KT CAVOK M02/M06 Q1026 NOSIG=
200901061820 METAR COR EGLL 061820Z 35003KT CAVOK M03/M07 Q1026 NOSIG=
200901061750 METAR COR EGLL 061750Z VRB02KT CAVOK M03/M07 Q1026 NOSIG=
200901061720 METAR EGLL 061720Z VRB03KT CAVOK M03/M07 Q1026=
200901061650 METAR COR EGLL 061650Z 36004KT 320V050 CAVOK M03/M07 Q1026
                        NOSIG=
200901061620 METAR COR EGLL 061620Z 36005KT 330V040 CAVOK M01/M07 Q1026
                        NOSIG=
200901061550 METAR COR EGLL 061550Z 01004KT CAVOK M00/M08 Q1026 NOSIG=
200901061520 METAR COR EGLL 061520Z 03005KT 360V070 CAVOK 01/M09 Q1026
                        NOSIG=
200901061450 METAR COR EGLL 061450Z 04005KT CAVOK 01/M10 Q1026 NOSIG=
200901061420 METAR COR EGLL 061420Z 06007KT 010V080 CAVOK 01/M10 Q1026
                        NOSIG=
200901061350 METAR COR EGLL 061350Z 03005KT 350V070 CAVOK 02/M09 Q1026
                        NOSIG=
200901061320 METAR COR EGLL 061320Z 07007KT CAVOK 02/M09 Q1026 NOSIG=
200901061250 METAR COR EGLL 061250Z 05006KT 020V080 CAVOK 02/M08 Q1027
                        NOSIG=
200901061220 METAR COR EGLL 061220Z 07007KT CAVOK 01/M07 Q1027 NOSIG=
200901061150 METAR COR EGLL 061150Z 03006KT 350V060 CAVOK 01/M07 Q1027
                        NOSIG=
200901061120 METAR COR EGLL 061120Z 03006KT CAVOK 00/M06 Q1028 NOSIG=
200901061050 METAR COR EGLL 061050Z 03005KT 340V070 CAVOK M00/M06 Q1028
                        NOSIG=
200901061020 METAR COR EGLL 061020Z 01004KT 330V060 CAVOK M01/M05 Q1028
                        NOSIG=
200901060950 METAR COR EGLL 060950Z 01004KT 340V060 CAVOK M02/M06 Q1028
                        NOSIG=
200901060920 METAR COR EGLL 060920Z 36005KT CAVOK M03/M06 Q1028 NOSIG=
200901060850 METAR COR EGLL 060850Z 36004KT 9999 FEW020 M04/M06 Q1028
                        NOSIG=
200901060820 METAR COR EGLL 060820Z 36004KT 340V040 9999 FEW030 M05/M07
                        Q1028 NOSIG=
200901060750 METAR COR EGLL 060750Z 36004KT CAVOK M05/M07 Q1028 NOSIG=
200901060720 METAR COR EGLL 060720Z VRB03KT CAVOK M05/M07 Q1027 NOSIG=
200901060650 METAR COR EGLL 060650Z 36004KT 340V050 CAVOK M05/M07 Q1027
                        NOSIG=
200901060620 METAR COR EGLL 060620Z 36004KT 340V040 CAVOK M05/M07 Q1027
                        NOSIG=
200901060550 METAR COR EGLL 060550Z 36004KT 330V040 CAVOK M04/M07 Q1027
                        NOSIG=
200901060520 METAR COR EGLL 060520Z 36003KT CAVOK M04/M06 Q1027 NOSIG=
200901060450 METAR COR EGLL 060450Z 03004KT CAVOK M02/M06 Q1027 NOSIG=
200901060420 METAR COR EGLL 060420Z 05004KT 9999 FEW038 M02/M06 Q1027
                        NOSIG=
200901060350 METAR COR EGLL 060350Z 07005KT 9999 SCT039 M02/M06 Q1027
                        NOSIG=
200901060320 METAR COR EGLL 060320Z 05005KT 9999 FEW043 M02/M06 Q1027
                        NOSIG=
200901060250 METAR COR EGLL 060250Z 03006KT 360V080 9999 FEW042 M02/M06
                        Q1027 NOSIG=
200901060220 METAR EGLL 060220Z AUTO 03005KT 360V070 9999NDV BKN045///
                        M01/M06 Q1027=
200901060150 METAR EGLL 060150Z AUTO 02004KT 340V050 9999NDV BKN038///
                        M02/M06 Q1027=
200901060120 METAR EGLL 060120Z AUTO 02005KT 9999NDV BKN044/// M03/M06
                        Q1027=
200901060050 METAR COR EGLL 060050Z 01004KT 330V050 9999 SCT042 M02/M07
                        Q1027 NOSIG=
200901060020 METAR COR EGLL 060020Z 02006KT 9999 SCT043 M02/M06 Q1027
                        NOSIG=
200901052350 METAR COR EGLL 052350Z 03006KT 350V060 CAVOK M02/M06 Q1027
                        NOSIG=
200901052320 METAR COR EGLL 052320Z 03007KT CAVOK M02/M06 Q1027 NOSIG=
200901052250 METAR COR EGLL 052250Z 03007KT CAVOK M01/M06 Q1027 NOSIG=
200901052220 METAR EGLL 052220Z 03007KT 360V060 CAVOK M01/M06 Q1027=
200901052150 METAR COR EGLL 052150Z 03006KT 360V070 CAVOK M01/M06 Q1027
                        NOSIG=
200901052120 METAR COR EGLL 052120Z 04007KT CAVOK M01/M05 Q1026 NOSIG=
200901052050 METAR COR EGLL 052050Z 04007KT CAVOK M01/M05 Q1026 NOSIG=
200901052020 METAR COR EGLL 052020Z 04007KT 010V080 CAVOK M00/M05 Q1026
                        NOSIG=
200901051950 METAR COR EGLL 051950Z 05007KT 020V090 9999 FEW044 M00/M05
                        Q1026 NOSIG=
200901051920 METAR COR EGLL 051920Z 05009KT 9999 FEW044 00/M05 Q1026 NOSIG=
200901051850 METAR COR EGLL 051850Z 05005KT 9999 FEW045 M00/M05 Q1026
                        NOSIG=
200901051820 METAR COR EGLL 051820Z 04006KT 9999 SCT048 M00/M05 Q1025
                        NOSIG=
200901051750 METAR COR EGLL 051750Z 04006KT 010V070 9999 FEW048 00/M05
                        Q1025 NOSIG=
200901051720 METAR COR EGLL 051720Z 05007KT 9999 FEW049 01/M05 Q1025 NOSIG=
200901051650 METAR COR EGLL 051650Z 05008KT 9999 FEW043 SCT048 01/M06
                        Q1025 NOSIG=
200901051620 METAR COR EGLL 051620Z 06011KT 9999 FEW030 SCT049 01/M05
                        Q1024 NOSIG=
200901051550 METAR COR EGLL 051550Z 05009KT 010V080 9999 FEW030 01/M04
                        Q1024 NOSIG=
200901051520 METAR COR EGLL 051520Z 06012KT 9999 FEW022 02/M04 Q1024 NOSIG=
200901051450 METAR COR EGLL 051450Z 06011KT 9999 VCSH FEW022 02/M05 Q1023
                        NOSIG=
200901051420 METAR COR EGLL 051420Z 06012KT 9999 VCSH FEW035 02/M04 Q1023
                        NOSIG=
200901051350 METAR COR EGLL 051350Z 06014KT 9999 SCT030 02/M04 Q1023 NOSIG=
200901051320 METAR COR EGLL 051320Z 06012KT 9999 FEW030 SCT040 02/M03
                        Q1022 NOSIG=
200901051250 METAR COR EGLL 051250Z 05012KT 020V090 9999 SCT027 SCT031
                        03/M02 Q1022 NOSIG=
200901051220 METAR COR EGLL 051220Z 06010KT 9999 FEW023 03/M01 Q1022 NOSIG=
200901051150 METAR COR EGLL 051150Z 04011KT 360V080 9999 SCT024 03/M01
                        Q1022 NOSIG=
200901051120 METAR COR EGLL 051120Z 04008KT 360V070 9999 SCT021 SCT025
                        03/M00 Q1022 NOSIG=
200901051050 METAR COR EGLL 051050Z 05009KT 010V080 9999 FEW016 SCT043
                        03/M00 Q1021 NOSIG=
200901051020 METAR COR EGLL 051020Z 05011KT 9999 FEW016 03/M00 Q1021 NOSIG=
200901050950 METAR EGLL 050950Z 05009KT 020V080 9999 SCT011 SCT015 BKN018
                        02/00 Q1020=
200901050920 METAR COR EGLL 050920Z 04008KT 5000 -RASN BKN010 02/00 Q1020
                        TEMPO 4000 RASN BKN008=
200901050850 METAR COR EGLL 050850Z 02010KT 350V050 7000 -RA OVC010 01/00
                        Q1019 TEMPO 4000 -RASN BKN008=
200901050820 METAR COR EGLL 050820Z 01007KT 340V040 9999 5000E BKN011
                        01/M00 Q1019 TEMPO 2000 SN BKN006=
200901050750 METAR COR EGLL 050750Z 02008KT 350V050 9999 BKN011 01/00
                        Q1019 TEMPO 2000 SN BKN006=
200901050720 METAR EGLL 050720Z 36006KT 330V040 9000 FEW009 SCT020 01/00
                        Q1018=
200901050650 METAR COR EGLL 050650Z 35004KT 320V030 7000 FEW030 01/00
                        Q1018 NOSIG=
200901050620 METAR COR EGLL 050620Z 34004KT 310V010 5000 BR FEW033 01/00
                        Q1018 TEMPO 4000=
200901050550 METAR COR EGLL 050550Z 35005KT 310V020 4200 BR SCT005 SCT012
                        01/00 Q1018 BECMG 7000 NSW=
200901050520 METAR COR EGLL 050520Z 35004KT 330V030 1400 R27L/P1500 R27R/P1500
                        - SN FEW004 BKN009 00/M00 Q1018 TEMPO
                        SN BKN004=
200901050450 METAR COR EGLL 050450Z VRB02KT 1200 -SN BKN009 00/M00 Q1017
                        TEMPO SN BKN004=
200901050420 METAR COR EGLL 050420Z 29005KT 2000 -SN BKN009 M00/M01 Q1017
                        TEMPO 1200 SN BKN004=
200901050350 METAR EGLL 050350Z 28005KT 1700 -SN OVC010 M00/M01 Q1018=
200901050320 METAR COR EGLL 050320Z 29005KT 1400 R27R/P1500 -SN OVC014
                        M00/M01 Q1018 TEMPO SN BKN008=
200901050250 METAR COR EGLL 050250Z 27004KT 2000 -SN BKN020 M00/M01 Q1018
                        TEMPO BKN012=
200901050220 METAR EGLL 050220Z AUTO 29004KT 3300NDV -SN SCT024/// BKN033///
                        M00/M01 Q1018=
200901050150 METAR EGLL 050150Z AUTO 28005KT 3300NDV HZ FEW033/// SCT040///
                        M00/M01 Q1018=
200901050120 METAR EGLL 050120Z AUTO 28005KT 2400NDV BR SCT039/// M01/M02
                        Q1018=
200901050050 METAR COR EGLL 050050Z 28004KT 3500 BR FEW049 M02/M03 Q1018
                        TEMPO - SN BKN014=
200901050020 METAR COR EGLL 050020Z 28005KT 3400 BR FEW048 M01/M02 Q1018
                        NOSIG=
200901042350 METAR COR EGLL 042350Z 27005KT 4000 BR NSC M01/M02 Q1018
                        TEMPO 5000=
200901042320 METAR COR EGLL 042320Z 27004KT 4400 BR NSC M00/M02 Q1019
                        NOSIG=
200901042250 METAR EGLL 042250Z 31003KT 6000 NSC 01/M02 Q1019=
200901042220 METAR COR EGLL 042220Z VRB02KT 6000 NSC 00/M02 Q1019 NOSIG=
200901042150 METAR COR EGLL 042150Z VRB03KT 5000 BR NSC M00/M02 Q1019
                        NOSIG=
200901042120 METAR COR EGLL 042120Z 28005KT 6000 FEW038 01/M02 Q1019 NOSIG=
200901042050 METAR COR EGLL 042050Z 27006KT 7000 SCT036 01/M02 Q1019 NOSIG=
200901042020 METAR COR EGLL 042020Z 27007KT 7000 FEW037 01/M02 Q1019 NOSIG=
200901041950 METAR COR EGLL 041950Z 27006KT 7000 SCT039 01/M02 Q1020 NOSIG=
200901041920 METAR COR EGLL 041920Z 27006KT 7000 BKN034 01/M02 Q1020 NOSIG=
200901041850 METAR COR EGLL 041850Z 27006KT 7000 SCT035 BKN048 01/M02
                        Q1020 NOSIG=
200901041820 METAR COR EGLL 041820Z 27006KT 7000 BKN049 01/M02 Q1020 NOSIG=
200901041750 METAR COR EGLL 041750Z 27006KT 7000 NSC 01/M02 Q1020 NOSIG=
200901041720 METAR COR EGLL 041720Z 29005KT 8000 BKN048 01/M02 Q1020 NOSIG=
200901041650 METAR COR EGLL 041650Z 29005KT 8000 BKN048 01/M02 Q1021 NOSIG=
200901041620 METAR COR EGLL 041620Z 27006KT 7000 BKN048 01/M02 Q1021 NOSIG=
200901041550 METAR COR EGLL 041550Z 27008KT 8000 BKN045 00/M03 Q1021 NOSIG=
200901041520 METAR COR EGLL 041520Z 27008KT 9999 FEW039 BKN045 00/M03
                        Q1021 NOSIG=
200901041450 METAR COR EGLL 041450Z 28008KT 9999 BKN039 00/M03 Q1022 NOSIG=
200901041420 METAR COR EGLL 041420Z 28008KT 9999 OVC040 00/M03 Q1022 NOSIG=
200901041350 METAR COR EGLL 041350Z 27007KT 9999 BKN045 00/M03 Q1022 NOSIG=
200901041320 METAR COR EGLL 041320Z 29006KT 9999 BKN044 00/M03 Q1022 NOSIG=
200901041250 METAR COR EGLL 041250Z 28008KT CAVOK 00/M03 Q1023 NOSIG=
200901041220 METAR COR EGLL 041220Z 28007KT CAVOK 00/M03 Q1023 NOSIG=
200901041150 METAR COR EGLL 041150Z 28008KT CAVOK M00/M03 Q1023 NOSIG=
200901041120 METAR COR EGLL 041120Z 28006KT CAVOK M01/M04 Q1024 NOSIG=
200901041050 METAR COR EGLL 041050Z 29004KT 260V330 CAVOK M02/M04 Q1024
                        NOSIG=
200901041020 METAR COR EGLL 041020Z 27007KT CAVOK M02/M04 Q1025 NOSIG=
200901040950 METAR COR EGLL 040950Z 27005KT CAVOK M03/M05 Q1025 NOSIG=
200901040920 METAR COR EGLL 040920Z 28006KT CAVOK M03/M05 Q1025 NOSIG=
200901040850 METAR COR EGLL 040850Z 27005KT CAVOK M04/M05 Q1025 NOSIG=
200901040820 METAR COR EGLL 040820Z 27005KT 9000 NSC M05/M06 Q1025 NOSIG=
200901040750 METAR COR EGLL 040750Z 27007KT CAVOK M04/M06 Q1025 NOSIG=
200901040720 METAR COR EGLL 040720Z 27006KT 9000 NSC M05/M06 Q1025 NOSIG=
200901040650 METAR COR EGLL 040650Z 27005KT 9000 NSC M05/M06 Q1025 NOSIG=
200901040620 METAR COR EGLL 040620Z 28004KT 9000 NSC M05/M06 Q1025 NOSIG=
200901040550 METAR COR EGLL 040550Z 27005KT CAVOK M05/M06 Q1026 NOSIG=
200901040520 METAR COR EGLL 040520Z 26003KT CAVOK M04/M05 Q1026 NOSIG=
200901040450 METAR COR EGLL 040450Z 27005KT CAVOK M05/M06 Q1026 NOSIG=
200901040420 METAR COR EGLL 040420Z 26005KT CAVOK M04/M05 Q1026 NOSIG=
200901040350 METAR COR EGLL 040350Z 26005KT CAVOK M04/M05 Q1027 NOSIG=
200901040320 METAR EGLL 040320Z 26005KT CAVOK M05/M06 Q1027=
200901040250 METAR COR EGLL 040250Z 26004KT CAVOK M04/M06 Q1027 NOSIG=
200901040220 METAR EGLL 040220Z AUTO 28002KT 9999NDV NCD M04/M05 Q1027=
200901040150 METAR EGLL 040150Z AUTO 28003KT 9999NDV NCD M04/M05 Q1027=
200901040120 METAR EGLL 040120Z AUTO 26004KT 9999NDV NCD M04/M05 Q1027=
200901040050 METAR COR EGLL 040050Z 27003KT 9999 FEW030 M04/M05 Q1028
                        NOSIG=
200901040020 METAR EGLL 040020Z 28002KT 9999 FEW030 M04/M06 Q1028=
200901032350 METAR COR EGLL 032350Z 27002KT 9999 FEW030 M03/M05 Q1028
                        NOSIG=
200901032320 METAR COR EGLL 032320Z 29002KT 9999 FEW030 M02/M06 Q1028
                        NOSIG=
200901032250 METAR COR EGLL 032250Z 31004KT CAVOK M02/M06 Q1028 NOSIG=
200901032220 METAR EGLL 032220Z 31002KT CAVOK M01/M05 Q1028=
200901032150 METAR COR EGLL 032150Z 30002KT CAVOK M01/M05 Q1028 NOSIG=
200901032120 METAR COR EGLL 032120Z 00000KT CAVOK M00/M05 Q1028 NOSIG=
200901032050 METAR COR EGLL 032050Z VRB02KT CAVOK M01/M05 Q1028 NOSIG=
200901032020 METAR COR EGLL 032020Z 34002KT CAVOK M02/M05 Q1028 NOSIG=
200901031950 METAR COR EGLL 031950Z VRB02KT CAVOK M02/M05 Q1028 NOSIG=
200901031920 METAR COR EGLL 031920Z 36003KT CAVOK M01/M05 Q1028 NOSIG=
200901031850 METAR COR EGLL 031850Z 03003KT CAVOK M01/M05 Q1029 NOSIG=
200901031820 METAR COR EGLL 031820Z VRB02KT CAVOK M00/M05 Q1029 NOSIG=
200901031750 METAR COR EGLL 031750Z VRB03KT CAVOK M00/M05 Q1029 NOSIG=
200901031720 METAR COR EGLL 031720Z VRB03KT 9999 FEW033 01/M05 Q1029 NOSIG=
200901031650 METAR COR EGLL 031650Z VRB03KT CAVOK 00/M05 Q1029 NOSIG=
200901031620 METAR COR EGLL 031620Z VRB03KT CAVOK 01/M04 Q1029 NOSIG=
200901031550 METAR COR EGLL 031550Z 04004KT CAVOK 02/M05 Q1028 NOSIG=
200901031520 METAR COR EGLL 031520Z 04005KT 360V070 CAVOK 03/M05 Q1028
                        NOSIG=
200901031450 METAR COR EGLL 031450Z 06004KT 030V090 CAVOK 03/M05 Q1028
                        NOSIG=
200901031420 METAR COR EGLL 031420Z 05004KT 350V100 CAVOK 04/M05 Q1029
                        NOSIG=
200901031350 METAR COR EGLL 031350Z 07005KT 030V100 CAVOK 04/M05 Q1029
                        NOSIG=
200901031320 METAR COR EGLL 031320Z VRB03KT CAVOK 04/M05 Q1029 NOSIG=
200901031250 METAR COR EGLL 031250Z VRB02KT CAVOK 04/M05 Q1029 NOSIG=
200901031220 METAR COR EGLL 031220Z VRB02KT CAVOK 03/M04 Q1030 NOSIG=
200901031150 METAR COR EGLL 031150Z VRB03KT CAVOK 02/M04 Q1030 NOSIG=
200901031120 METAR COR EGLL 031120Z VRB02KT CAVOK 02/M04 Q1030 NOSIG=
200901031050 METAR COR EGLL 031050Z 08003KT CAVOK 01/M04 Q1030 NOSIG=
200901031020 METAR COR EGLL 031020Z 05002KT CAVOK M00/M04 Q1031 NOSIG=
200901030950 METAR COR EGLL 030950Z VRB03KT CAVOK M01/M05 Q1031 NOSIG=
200901030920 METAR COR EGLL 030920Z 35004KT CAVOK M03/M05 Q1031 NOSIG=
200901030850 METAR COR EGLL 030850Z 35003KT CAVOK M04/M06 Q1031 NOSIG=
200901030820 METAR COR EGLL 030820Z 35003KT CAVOK M04/M07 Q1030 NOSIG=
200901030750 METAR COR EGLL 030750Z 36003KT CAVOK M04/M06 Q1030 NOSIG=
200901030720 METAR COR EGLL 030720Z 35004KT CAVOK M04/M06 Q1030 NOSIG=
200901030650 METAR COR EGLL 030650Z 36003KT CAVOK M03/M06 Q1030 NOSIG=
200901030620 METAR COR EGLL 030620Z 01003KT CAVOK M03/M06 Q1030 NOSIG=
200901030550 METAR COR EGLL 030550Z 36004KT CAVOK M03/M06 Q1030 NOSIG=
200901030520 METAR COR EGLL 030520Z VRB03KT CAVOK M02/M06 Q1030 NOSIG=
200901030450 METAR EGLL 030450Z 02004KT CAVOK M02/M05 Q1030=
200901030420 METAR EGLL 030420Z 02003KT CAVOK M03/M05 Q1030=
200901030350 METAR EGLL 030350Z 03004KT CAVOK M03/M05 Q1030=
200901030320 METAR COR EGLL 030320Z 36003KT CAVOK M02/M05 Q1030 NOSIG=
200901030250 METAR EGLL 030250Z VRB03KT CAVOK M03/M05 Q1030=
200901030220 METAR EGLL 030220Z AUTO 03004KT 9999NDV NCD M01/M05 Q1030=
200901030150 METAR EGLL 030150Z AUTO 03004KT 9999NDV NCD M01/M05 Q1030=
200901030120 METAR EGLL 030120Z AUTO 03004KT 360V060 9999NDV NCD M02/M05
                        Q1031=
200901030050 METAR COR EGLL 030050Z 03004KT CAVOK M01/M05 Q1031 NOSIG=
200901030020 METAR COR EGLL 030020Z 03004KT CAVOK M01/M05 Q1031 NOSIG=
200901022350 METAR EGLL 022350Z 03004KT CAVOK M01/M05 Q1031=
200901022320 METAR COR EGLL 022320Z 04004KT CAVOK 00/M05 Q1031 NOSIG=
200901022250 METAR EGLL 022250Z 04004KT CAVOK 01/M05 Q1031=
200901022220 METAR EGLL 022220Z 04004KT CAVOK 01/M05 Q1031=
200901022150 METAR COR EGLL 022150Z 06007KT CAVOK 01/M05 Q1031 NOSIG=
200901022120 METAR COR EGLL 022120Z 05005KT CAVOK 01/M04 Q1031 NOSIG=
200901022050 METAR COR EGLL 022050Z 05005KT CAVOK 02/M04 Q1031 NOSIG=
200901022020 METAR COR EGLL 022020Z 06007KT CAVOK 02/M03 Q1031 NOSIG=
200901021950 METAR EGLL 021950Z 05007KT CAVOK 03/M02 Q1031=
200901021920 METAR COR EGLL 021920Z 06007KT 9999 FEW035 03/M01 Q1031 NOSIG=
200901021850 METAR COR EGLL 021850Z 07009KT 9999 SCT038 BKN047 04/00 Q1031
                        NOSIG=
200901021820 METAR COR EGLL 021820Z 06010KT 9999 SCT020 SCT042 04/01 Q1030
                        NOSIG=
200901021750 METAR COR EGLL 021750Z 06010KT 9999 SCT020 OVC048 04/01 Q1030
                        NOSIG=
200901021720 METAR EGLL 021720Z 06007KT 020V080 CAVOK 04/01 Q1030=
200901021650 METAR COR EGLL 021650Z 05006KT 020V080 9999 FEW025 04/01
                        Q1030 NOSIG=
200901021620 METAR COR EGLL 021620Z 05006KT 9999 FEW025 04/00 Q1030 NOSIG=
200901021550 METAR COR EGLL 021550Z 06007KT 9999 FEW042 05/00 Q1029 NOSIG=
200901021520 METAR COR EGLL 021520Z 05006KT 020V100 9999 FEW042 05/M00
                        Q1029 NOSIG=
200901021450 METAR COR EGLL 021450Z 06006KT 9999 FEW030 05/M00 Q1029 NOSIG=
200901021420 METAR COR EGLL 021420Z 04007KT 360V080 9999 FEW030 BKN048
                        05/M00 Q1029 NOSIG=
200901021350 METAR COR EGLL 021350Z 04006KT 010V080 CAVOK 05/M00 Q1030
                        NOSIG=
200901021320 METAR COR EGLL 021320Z 04007KT 360V060 9999 FEW032 05/M00
                        Q1030 NOSIG=
200901021250 METAR COR EGLL 021250Z 04007KT 010V080 9999 FEW032 05/M01
                        Q1030 NOSIG=
200901021220 METAR COR EGLL 021220Z 04009KT 010V070 9999 FEW035 06/M00
                        Q1030 NOSIG=
200901021150 METAR COR EGLL 021150Z 03007KT 350V070 9999 FEW035 05/M00
                        Q1030 NOSIG=
200901021120 METAR COR EGLL 021120Z 04007KT 010V070 9999 FEW030 05/01
                        Q1030 NOSIG=
200901021050 METAR COR EGLL 021050Z 04006KT 010V070 8000 FEW027 04/01
                        Q1030 NOSIG=
200901021020 METAR COR EGLL 021020Z 04004KT 010V080 4500 BR FEW011 SCT028
                        04/02 Q1030 BECMG 6000=
200901020950 METAR COR EGLL 020950Z 03004KT 350V060 3400 HZ SCT009 SCT048
                        03/02 Q1030 BECMG 5000=
200901020920 METAR COR EGLL 020920Z VRB03KT 3500 HZ SCT005 03/02 Q1030
                        BECMG 5000=
200901020850 METAR COR EGLL 020850Z 03004KT 350V060 2300 BR BKN005 OVC007
                        02/01 Q1030 BECMG 4000 SCT010=
200901020820 METAR COR EGLL 020820Z 02003KT 2200 BR BKN006 OVC007 02/01
                        Q1030 BECMG 4000 BKN010=
200901020750 METAR COR EGLL 020750Z VRB03KT 2200 BR BKN005 02/01 Q1029
                        BECMG 4000 BKN010=
200901020720 METAR COR EGLL 020720Z VRB03KT 3500 HZ FEW007 01/00 Q1029
                        TEMPO BKN007=
200901020650 METAR COR EGLL 020650Z VRB03KT 3500 HZ NSC 01/M00 Q1029 NOSIG=
200901020620 METAR COR EGLL 020620Z VRB03KT 3500 HZ NSC 01/M00 Q1029 NOSIG=
200901020550 METAR COR EGLL 020550Z VRB03KT 3500 HZ NSC 01/M00 Q1029 NOSIG=
200901020520 METAR COR EGLL 020520Z 04004KT 010V080 3500 HZ NSC 00/M01
                        Q1029 NOSIG=
200901020450 METAR COR EGLL 020450Z VRB03KT 3500 HZ NSC 00/M01 Q1029 NOSIG=
200901020420 METAR COR EGLL 020420Z VRB02KT 3200 HZ NSC 01/M00 Q1029 NOSIG=
200901020350 METAR COR EGLL 020350Z VRB03KT 3600 HZ BKN043 01/M00 Q1029
                        NOSIG=
200901020320 METAR COR EGLL 020320Z VRB03KT 3700 HZ OVC043 02/M00 Q1029
                        NOSIG=
200901020250 METAR COR EGLL 020250Z VRB03KT 4000 HZ OVC043 02/M00 Q1029
                        NOSIG=
200901020220 METAR EGLL 020220Z AUTO 02003KT 3700NDV HZ OVC044/// 02/M00
                        Q1029=
200901020150 METAR EGLL 020150Z AUTO VRB03KT 3800NDV HZ OVC044/// 02/M00
                        Q1029=
200901020120 METAR EGLL 020120Z AUTO VRB03KT 4500NDV HZ OVC043/// 02/M00
                        Q1029=
200901020050 METAR COR EGLL 020050Z VRB02KT 4500 HZ OVC042 02/M00 Q1029
                        NOSIG=
200901020020 METAR COR EGLL 020020Z VRB03KT 3900 HZ BKN041 02/M00 Q1029
                        NOSIG=
200901012350 METAR COR EGLL 012350Z 04004KT 4000 HZ BKN040 02/M00 Q1029
                        NOSIG=
200901012320 METAR COR EGLL 012320Z 04004KT 360V080 4000 HZ OVC037 02/M00
                        Q1030 NOSIG=
200901012250 METAR COR EGLL 012250Z 03004KT 360V070 4000 HZ BKN038 02/M00
                        Q1030 NOSIG=
200901012220 METAR COR EGLL 012220Z 04004KT 4000 HZ FEW025 OVC035 02/M00
                        Q1030 NOSIG=
200901012150 METAR COR EGLL 012150Z 04004KT 010V070 4300 BR BKN036 02/M00
                        Q1030 NOSIG=
200901012120 METAR COR EGLL 012120Z VRB03KT 4800 BR BKN036 02/M00 Q1030
                        NOSIG=
200901012050 METAR COR EGLL 012050Z 04005KT 5000 BR BKN033 02/M00 Q1030
                        BECMG 4000=
200901012020 METAR COR EGLL 012020Z VRB03KT 5000 BR SCT023 BKN031 02/M01
                        Q1030 NOSIG=
200901011950 METAR COR EGLL 011950Z 05004KT 6000 OVC031 02/M01 Q1030 NOSIG=
200901011920 METAR EGLL 011920Z 04004KT 360V070 6000 BKN031 03/M01 Q1030=
200901011850 METAR COR EGLL 011850Z 04004KT 7000 BKN031 03/M01 Q1030 NOSIG=
200901011820 METAR COR EGLL 011820Z 04004KT 7000 BKN032 03/M01 Q1030 NOSIG=
200901011750 METAR COR EGLL 011750Z 04004KT 010V070 7000 BKN030 03/M01
                        Q1030 NOSIG=
200901011720 METAR COR EGLL 011720Z 03004KT 7000 BKN029 03/M01 Q1029 NOSIG=
200901011650 METAR COR EGLL 011650Z 03005KT 7000 BKN027 03/M01 Q1029 NOSIG=
200901011620 METAR COR EGLL 011620Z 04005KT 8000 BKN027 03/M01 Q1029 NOSIG=
200901011550 METAR COR EGLL 011550Z 04004KT 010V070 9000 BKN029 03/M01
                        Q1029 NOSIG=
200901011520 METAR COR EGLL 011520Z 03004KT 9000 BKN030 03/M01 Q1029 NOSIG=
200901011450 METAR COR EGLL 011450Z VRB03KT 9000 BKN027 04/M01 Q1029 NOSIG=
200901011420 METAR COR EGLL 011420Z VRB03KT 9000 BKN028 03/M01 Q1030 NOSIG=
200901011350 METAR COR EGLL 011350Z 04004KT 350V070 9000 BKN026 03/M01
                        Q1030 NOSIG=
200901011320 METAR COR EGLL 011320Z 04004KT 9000 BKN026 03/M01 Q1030 NOSIG=
200901011250 METAR COR EGLL 011250Z 04004KT 010V070 9000 BKN026 03/M01
                        Q1030 NOSIG=
200901011220 METAR COR EGLL 011220Z 05005KT 9000 BKN024 03/M01 Q1030 NOSIG=
200901011150 METAR COR EGLL 011150Z 05004KT 360V080 9000 BKN024 03/M01
                        Q1030 NOSIG=
200901011120 METAR COR EGLL 011120Z 05004KT 010V080 9000 BKN022 03/M01
                        Q1031 NOSIG=
200901011050 METAR COR EGLL 011050Z 04004KT 9999 BKN021 03/M01 Q1031 NOSIG=
200901011020 METAR COR EGLL 011020Z VRB03KT 8000 BKN021 02/M01 Q1031 NOSIG=
200901010950 METAR COR EGLL 010950Z 02004KT 8000 SCT016 BKN021 02/M01
                        Q1031 NOSIG=
200901010920 METAR COR EGLL 010920Z VRB03KT 8000 OVC015 02/M01 Q1031 NOSIG=
200901010850 METAR COR EGLL 010850Z 06004KT 7000 OVC014 01/M01 Q1030 BECMG
                        BKN015=
200901010820 METAR COR EGLL 010820Z 06005KT 7000 OVC014 01/M01 Q1030 BECMG
                        BKN018=
200901010750 METAR COR EGLL 010750Z 07005KT 030V090 7000 OVC014 01/M01
                        Q1030 NOSIG=
200901010720 METAR COR EGLL 010720Z 08004KT 040V120 7000 OVC014 01/M02
                        Q1030 NOSIG=
200901010650 METAR COR EGLL 010650Z 07005KT 030V110 6000 OVC014 01/M01
                        Q1030 NOSIG=
200901010620 METAR COR EGLL 010620Z 06003KT 7000 OVC013 01/M02 Q1030 NOSIG=
200901010550 METAR EGLL 010550Z 06004KT 6000 OVC013 01/M02 Q1030=
200901010520 METAR COR EGLL 010520Z 04004KT 360V090 6000 OVC013 01/M01
                        Q1030 NOSIG=
200901010450 METAR COR EGLL 010450Z VRB03KT 5000 HZ OVC012 01/M02 Q1030
                        NOSIG=
200901010420 METAR EGLL 010420Z VRB03KT 5000 HZ OVC012 01/M01 Q1030=
200901010350 METAR COR EGLL 010350Z VRB03KT 5000 HZ OVC012 01/M01 Q1030
                        NOSIG=
200901010320 METAR COR EGLL 010320Z 06004KT 020V090 5000 HZ OVC011 01/M01
                        Q1030 NOSIG=
200901010250 METAR COR EGLL 010250Z VRB03KT 4900 HZ OVC012 01/M01 Q1030
                        NOSIG=
200901010220 METAR EGLL 010220Z AUTO VRB02KT 5000NDV OVC011/// 01/M02
                        Q1030=
200901010150 METAR EGLL 010150Z AUTO VRB02KT 5000NDV OVC011/// 01/M02
                        Q1030=
200901010120 METAR EGLL 010120Z AUTO 08004KT 030V120 4800NDV HZ OVC011///
                        01/M01 Q1030=
200901010050 METAR COR EGLL 010050Z VRB03KT 5000 HZ OVC011 01/M01 Q1030
                        NOSIG=
200901010020 METAR COR EGLL 010020Z 07004KT 040V100 5000 HZ OVC010 01/M01
                        Q1030 NOSIG=

# No short TAF reports from EGLL in databse.

###################################
#  large TAF from EGLL
###################################
200901312305 TAF EGLL 312305Z 0100/0206 07015KT 7000 SCT015
                      PROB30 TEMPO 0100/0206 9999 BKN014
                      BECMG 0106/0109 9999
                      TEMPO 0109/0206 07017G27KT
                      TEMPO 0118/0206 8000 -SHSN
                      PROB40 TEMPO 0121/0206 2000 SHSN BKN007CB=
200901311658 TAF EGLL 311658Z 3118/0124 09012KT 7000 NSC
                      PROB30 TEMPO 3118/3121 08015G25KT CAVOK
                      PROB30 TEMPO 0110/0124 08017G27KT
                      PROB40 TEMPO 0118/0124 6000 -SHSN BKN014
                       PROB30
                      TEMPO 0122/0124 2000 SHSN BKN006=
200901311101 TAF EGLL 311101Z 3112/0118 09012KT CAVOK
                      PROB40 TEMPO 3112/0110 8000
                      PROB30 TEMPO 3112/3121 08015G25KT
                      PROB40 TEMPO 0110/0118 08016G26KT
                      PROB30 TEMPO 0116/0118 7000 -SHSN BKN014=
200901310501 TAF EGLL 310501Z 3106/0112 10011KT CAVOK
                      PROB40 TEMPO 3106/0110 8000
                      PROB30 TEMPO 3110/3117 11015G25KT
                      PROB40 TEMPO 0109/0112 08016G26KT=
200901302255 TAF EGLL 302255Z 3100/0106 11010KT CAVOK
                      PROB40 TEMPO 3100/0106 8000
                      TEMPO 3110/3117 11017G27KT=
200901301704 TAF EGLL 301704Z 3018/3124 11010KT CAVOK
                      TEMPO 3018/3124 8000
                      TEMPO 3110/3117 11017G27KT=
200901301104 TAF EGLL 301104Z 3012/3118 13010KT 7000 NSC
                      PROB40 3015/3118 CAVOK
                      TEMPO 3110/3118 11017G27KT=
200901300457 TAF EGLL 300457Z 3006/3112 13007KT 4000 HZ NSC
                      TEMPO 3006/3010 5000 NSW
                      PROB40 TEMPO 3006/3010 BKN012
                      BECMG 3009/3012 11017KT 7000 NSW
                      TEMPO 3010/3112 CAVOK=
200901292259 TAF EGLL 292259Z 3000/3106 12007KT 6000 NSC
                      TEMPO 3000/3010 4000 BR
                      PROB40 TEMPO 3000/3010 BKN010
                      BECMG 3009/3012 11017KT
                      TEMPO 3010/3106 CAVOK=
200901291722 TAF AMD EGLL 291722Z 2918/3024 14009KT 9999 FEW015
                      BECMG 2918/2921 6000
                      PROB40 TEMPO 2918/2924 BKN010
                      PROB40 TEMPO 2923/3008 3500 BR
                      TEMPO 3009/3019 9999=
200901291700 TAF EGLL 291700Z 2918/3024 14009KT 9999 FEW015
                      BECMG 2919/2922 6000
                      PROB40 TEMPO 2923/3008 3500 BR
                      TEMPO 3009/3019 9999=
200901291108 TAF EGLL 291108Z 2912/3018 14010KT 9999 SCT016
                      PROB40 TEMPO 2912/2916 9000
                      BECMG 2916/2919 6000
                      PROB40 TEMPO 2921/3008 4000 BR
                      TEMPO 3009/3018 9999=
200901290912 TAF AMD EGLL 290912Z 2909/3012 14008KT 9999 BKN015
                      BECMG 2919/2922 8000
                      PROB40 TEMPO 2923/3008 4000 BR
                      BECMG 3009/3012 9999=
200901290507 TAF EGLL 290507Z 2906/3012 14008KT 4000 BR BKN006
                      PROB30 TEMPO 2906/2908 BKN003
                      BECMG 2907/2910 9999 NSW BKN012
                      BECMG 2910/2912 SCT015
                      BECMG 2919/2922 8000
                      PROB40 TEMPO 2923/3008 4000 BR
                      BECMG 3009/3012 9999=
200901282306 TAF EGLL 282306Z 2900/3006 13007KT 4000 BR SCT003 BKN006
                      TEMPO 2900/2906 -DZ BKN003
                      BECMG 2906/2909 6000 NSW SCT010
                      BECMG 2909/2912 9999
                      BECMG 2918/2921 6000
                      PROB40 2918/3006 3500 BR=
200901281704 TAF EGLL 281704Z 2818/2924 16007KT 9999 SCT006 BKN012
                      BECMG 2818/2820 5000 -DZ SCT003 BKN006
                      TEMPO 2819/2906 3500 DZ BR BKN003
                      BECMG 2905/2908 SCT010
                      TEMPO 2909/2916 9999
                      PROB40 2918/2924 3500 BR=
200901281701 TAF AMD EGLL 281701Z 2817/2918 16008KT 6000 -RADZ SCT004 BKN008
                       TEMPO 2817/2818 9999 SCT008 BKN015
                      TEMPO 2818/2906 4500 RADZ BR BKN004
                      BECMG 2905/2908 SCT010
                      BECMG 2908/2911 9999=
200901281108 TAF EGLL 281108Z 2812/2918 16008KT 6000 -RADZ SCT004 BKN008
                      TEMPO 2812/2906 4500 RADZ BR BKN004
                      PROB30 TEMPO 2812/2816 9999 SCT008 BKN015
                       BECMG 2905/2908 SCT015
                      BECMG 2908/2911 9999=
200901280454 TAF EGLL 280454Z 2806/2912 17008KT 5000 BR BKN008
                      TEMPO 2806/2813 2000 DZ BKN003
                      PROB40 TEMPO 2806/2812 1200 RADZ
                      TEMPO 2813/2818 9999 NSW SCT010 BKN020
                      TEMPO 2818/2909 3000 BR -DZ BKN004
                      BECMG 2908/2911 9999 NSW SCT022=
200901272307 TAF EGLL 272307Z 2800/2906 17009KT 9999 BKN012
                      BECMG 2800/2803 6000
                      TEMPO 2802/2814 3000 -DZ BR BKN007
                      PROB40 TEMPO 2803/2812 DZ BKN003
                      TEMPO 2814/2818 9999 SCT010 BKN020
                      TEMPO 2818/2906 3000 BR -DZ BKN004=
200901271629 TAF EGLL 271629Z 2718/2824 17009KT 9999 FEW018 BKN025
                      TEMPO 2718/2723 8000 BKN013
                      BECMG 2723/2802 6000 BKN010
                      TEMPO 2723/2812 3000 -DZ BR BKN007
                      PROB40 TEMPO 2803/2812 DZ BKN003
                      TEMPO 2812/2818 SCT010 BKN020
                      TEMPO 2818/2824 3000 BR -DZ BKN004=
200901271523 TAF COR EGLL 271523Z 2715/2818 17009KT 9999 SCT022
                      BECMG 2718/2721 BKN010
                      TEMPO 2723/2811 2000 -DZ BR BKN003
                      TEMPO 2811/2816 SCT012
                      PROB40 TEMPO 2815/2818 3500 -RADZ BR BKN004=
200901271131 TAF COR EGLL 271131Z 2712/2818 VRB04KT 6000 SCT022
                      TEMPO 2712/2718 CAVOK
                      BECMG 2718/2721 BKN010
                      TEMPO 2723/2811 2000 -DZ BR BKN003
                      BECMG 2800/2803 16010KT
                      TEMPO 2811/2816 SCT012
                      PROB40 TEMPO 2815/2818 3500 -RADZ BR BKN004=
200901271037 TAF EGLL 271037Z 2712/2818 VRB04KT 2000 BR FEW007 BKN020
                      BECMG 2712/2714 6000 NSW
                      PROB40 TEMPO 2712/2714 BKN004
                      BECMG 2718/2721 BKN010
                      TEMPO 2723/2811 2000 -DZ BR BKN003
                      BECMG 2800/2803 16010KT
                      TEMPO 2811/2816 SCT012
                      PROB40 TEMPO 2815/2818 3500 -RADZ BR BKN004=
200901270707 TAF AMD EGLL 270707Z 2707/2812 VRB04KT 2000 BR BKN018
                      PROB40 2707/2710 0600 FG BKN001
                      BECMG 2710/2712 6000 NSW
                      PROB30 2710/2718 9999 BKN014
                      BECMG 2718/2721 18010KT BKN014
                      PROB40 2721/2812 4000 BR -DZ BKN007=
200901270501 TAF EGLL 270501Z 2706/2812 VRB04KT 0200 FG FZFG VV///
                      TEMPO 2706/2709 1200 BR BKN002
                      PROB30 TEMPO 2706/2710 3000 BR BKN005
                      BECMG 2710/2712 3000 BR BKN008
                      PROB30 TEMPO 2710/2718 SCT020
                      BECMG 2712/2715 7000 NSW BKN014
                      BECMG 2718/2721 18010KT
                      PROB40 2721/2812 4000 BR -DZ BKN005=
200901270151 TAF AMD EGLL 270151Z 2701/2806 VRB03KT 0500 FG FZFG FEW020
                      TEMPO 2701/2709 1200 BR
                      PROB30 TEMPO 2701/2711 3000 BR
                      PROB30 TEMPO 2708/2711 BKN006
                      BECMG 2710/2712 18010KT 7000 BKN014
                      BECMG 2718/2721 7000 BKN014
                      PROB30 2800/2806 4000 BR BKN008=
200901262300 TAF AMD EGLL 270151Z 2701/2806 VRB03KT 0500 FG FZFG FEW020
                      TEMPO 2701/2709 1200 BR
                      PROB30 TEMPO 2701/2711 3000 BR
                      PROB30 TEMPO 2708/2711 BKN006
                      BECMG 2710/2712 18010KT 7000 BKN014
                      BECMG 2718/2721 7000 BKN014
                      PROB30 2800/2806 4000 BR BKN008=
200901262258 TAF EGLL 262258Z 2700/2806 VRB03KT 9999 SCT030
                      PROB40 2700/2711 7000 BKN014
                      PROB30 2700/2710 3000 BR BKN006
                      BECMG 2709/2712 18010KT
                      BECMG 2718/2721 7000 BKN014
                      PROB30 2800/2806 4000 BR BKN008=
200901261701 TAF EGLL 261701Z 2618/2724 VRB03KT 9999 SCT030
                      PROB30 TEMPO 2618/2621 8000 BKN014
                      BECMG 2621/2624 7000
                      PROB40 2621/2710 3000 BR BKN008
                      BECMG 2709/2712 18010KT 9999
                      TEMPO 2721/2724 5000 BR BKN010=
200901261108 TAF EGLL 261108Z 2612/2718 11006KT 9999 SCT030
                      PROB30 TEMPO 2612/2621 8000 BKN014
                      BECMG 2621/2624 7000
                      PROB40 2621/2710 3000 BR BKN008
                      BECMG 2709/2712 9999=
200901260458 TAF EGLL 260458Z 2606/2712 11006KT 9999 SCT030
                      PROB40 2606/2611 7000 BKN014
                      PROB30 TEMPO 2606/2610 3000 BR
                      PROB30 TEMPO 2611/2618 BKN014
                      BECMG 2618/2621 7000 BKN014
                      PROB40 2621/2710 3000 BR BKN008
                      PROB30 TEMPO 2702/2709 0800 FG BKN000=
200901260259 TAF AMD EGLL 260259Z 2603/2706 16006KT 9999 SCT030
                      PROB40 2603/2611 7000 BKN012
                      PROB30 2603/2610 3000 BR
                      PROB30 TEMPO 2612/2617 7000 SHRA
                      BECMG 2618/2621 7000
                      BECMG 2621/2624 3000 BR
                      PROB40 2702/2706 0600 FG BKN000=
200901252300 TAF AMD EGLL 260259Z 2603/2706 16006KT 9999 SCT030
                      PROB40 2603/2611 7000 BKN012
                      PROB30 2603/2610 3000 BR
                      PROB30 TEMPO 2612/2617 7000 SHRA
                      BECMG 2618/2621 7000
                      BECMG 2621/2624 3000 BR
                      PROB40 2702/2706 0600 FG BKN000=
200901252256 TAF EGLL 252256Z 2600/2706 16006KT 9999 SCT030
                      BECMG 2600/2603 7000
                      PROB40 2600/2610 BKN012
                      PROB30 2603/2610 3000 BR
                      BECMG 2609/2612 9999
                      PROB30 TEMPO 2612/2617 7000 SHRA
                      BECMG 2618/2621 7000
                      BECMG 2621/2624 3000 BR
                      PROB40 2702/2706 0600 FG BKN000=
200901251705 TAF EGLL 251705Z 2518/2624 17008KT 9999 BKN020
                      BECMG 2600/2603 7000
                      PROB30 TEMPO 2603/2610 3000 BR
                      BECMG 2610/2612 9999
                      PROB30 TEMPO 2612/2617 5000 +SHRA BKN014CB
                       PROB30 2621/2624 7000=
200901251102 TAF EGLL 251102Z 2512/2618 18012KT 9999 -RA BKN015
                      TEMPO 2512/2518 6000 RA BKN010
                      PROB30 TEMPO 2512/2518 4000 +RA BKN009
                      BECMG 2600/2603 7000
                      PROB30 TEMPO 2606/2610 3000 BR
                      BECMG 2610/2612 9999
                      PROB30 TEMPO 2612/2617 5000 +SHRA BKN014CB=
200901250454 TAF EGLL 250454Z 2506/2612 16018G30KT 7000 -RA BKN016
                      TEMPO 2506/2514 4000 RADZ BKN010
                      BECMG 2509/2512 18010KT
                      BECMG 2514/2517 9999
                      BECMG 2600/2603 7000
                      TEMPO 2606/2610 3000 BR
                      BECMG 2610/2612 9999=
200901242246 TAF EGLL 242246Z 2500/2606 18012KT CAVOK
                      BECMG 2503/2506 16017G30KT 7000 -RA BKN016
                       TEMPO 2506/2514 4000 RADZ BKN010
                      BECMG 2514/2517 15008KT 9999
                      PROB30 TEMPO 2517/2523 7000 BKN008
                      BECMG 2523/2602 7000
                      BECMG 2602/2605 3000 BR
                      TEMPO 2604/2606 1400 MIFG=
200901241655 TAF EGLL 241655Z 2418/2524 25007KT CAVOK
                      BECMG 2421/2424 18010KT
                      BECMG 2503/2506 16017G27KT 7000 -RA BKN020
                       PROB40 2507/2514 4000 RA BKN010
                      BECMG 2514/2517 15008KT 9999 NSW
                      PROB30 2522/2524 7000=
200901241054 TAF EGLL 241054Z 2412/2518 28006KT CAVOK
                      BECMG 2421/2424 18010KT
                      BECMG 2503/2506 16017G27KT 7000 -RA BKN025
                       PROB40 2507/2518 4000 RA BKN010
                      BECMG 2515/2518 15013KT=
200901240501 TAF EGLL 240501Z 2406/2512 30005KT 8000 NSC
                      BECMG 2408/2410 CAVOK
                      BECMG 2418/2421 18010KT
                      BECMG 2502/2505 16018G28KT 7000 RA BKN014=
200901232303 TAF EGLL 232303Z 2400/2506 22006KT CAVOK
                      PROB30 2402/2409 8000
                      PROB30 TEMPO 2417/2419 8000 -SHRA
                      BECMG 2502/2505 16018G28KT 7000 RA BKN014=
200901231657 TAF EGLL 231657Z 2318/2424 30015KT 9999 SCT030
                      BECMG 2318/2321 24008KT
                      PROB40 2401/2408 7000
                      PROB30 TEMPO 2416/2419 7000 SHRA=
200901231508 TAF AMD EGLL 231508Z 2315/2418 32015KT 9999 SCT030
                      PROB40 TEMPO 2315/2318 31017G27KT
                      BECMG 2317/2320 26010KT
                      PROB40 2401/2408 7000
                      PROB40 TEMPO 2414/2417 7000 SHRA
                      PROB30 TEMPO 2415/2417 3000 +SHRA BKN014CB=
200901231100 TAF EGLL 231100Z 2312/2418 32015KT 9999 SCT030
                      PROB40 TEMPO 2312/2316 31017G27KT
                      PROB30 TEMPO 2312/2313 8000 RA BKN014
                      BECMG 2315/2318 26010KT
                      PROB40 2401/2408 7000
                      PROB40 TEMPO 2414/2417 7000 SHRA
                      PROB30 TEMPO 2415/2417 3000 +SHRA BKN014CB=
200901230709 TAF AMD EGLL 230709Z 2307/2412 03006KT 9999 SCT010 BKN020
                      BECMG 2307/2309 32015G25KT
                      TEMPO 2307/2311 8000 RA BKN010
                      PROB30 TEMPO 2307/2311 3000 +RA BKN004
                      BECMG 2315/2318 26008KT=
200901230506 TAF EGLL 230506Z 2306/2412 03006KT 9999 SCT010 BKN020
                      BECMG 2306/2309 32015G25KT
                      TEMPO 2306/2311 8000 RA BKN010
                      PROB30 TEMPO 2307/2311 3000 +RA BKN005
                      BECMG 2315/2318 26008KT=
200901230313 TAF AMD EGLL 230313Z 2303/2406 07012KT 8000 -RA SCT025
                      BECMG 2303/2306 VRB05KT BKN012
                      TEMPO 2303/2311 4000 RADZ +RA BKN007
                      BECMG 2306/2309 29018G28KT
                      BECMG 2310/2313 9999 NSW SCT020
                      BECMG 2315/2318 26010KT=
200901222353 TAF COR EGLL 222353Z 2300/2406 13010KT 9999 SCT025
                      BECMG 2300/2303 07015KT 8000 -RA BKN012
                      TEMPO 2300/2311 4000 RADZ +RA BKN007
                      BECMG 2303/2306 29018G28KT
                      BECMG 2310/2313 9999 NSW SCT020
                      BECMG 2315/2318 26010KT=
200901222304 TAF EGLL 222304Z 2300/2406 13010KT 9999 SCT025
                      BECMG 2300/2303 07015KT BKN012
                      TEMPO 2301/2311 4000 RADZ +RA BKN007
                      BECMG 2303/2306 29018G28KT
                      BECMG 2310/2313 9999 NSW SCT020
                      BECMG 2315/2318 26010KT=
200901222300 TAF AMD EGLL 230313Z 2303/2406 07012KT 8000 -RA SCT025
                      BECMG 2303/2306 VRB05KT BKN012
                      TEMPO 2303/2311 4000 RADZ +RA BKN007
                      BECMG 2306/2309 29018G28KT
                      BECMG 2310/2313 9999 NSW SCT020
                      BECMG 2315/2318 26010KT=
200901221703 TAF EGLL 221703Z 2218/2324 24010KT 9999 FEW030
                      BECMG 2218/2221 17010KT
                      BECMG 2222/2301 13015G25KT 8000 -RA
                      TEMPO 2301/2313 3000 RADZ +RA BKN005
                      BECMG 2303/2306 36015G25KT BKN012
                      PROB40 TEMPO 2305/2314 33025G35KT
                      PROB30 TEMPO 2310/2313 1400 RASN BKN003
                      BECMG 2313/2315 27015KT 9999 NSW SCT020=
200901221102 TAF EGLL 221102Z 2212/2318 27014KT 8000 BKN010
                      BECMG 2212/2214 9999 SCT018
                      BECMG 2218/2221 16010KT
                      BECMG 2222/2301 11015G25KT 8000 -RA
                      TEMPO 2302/2313 3000 RADZ +RA BKN005
                      BECMG 2303/2306 36015G25KT BKN012
                      PROB40 TEMPO 2305/2314 33025G35KT
                      PROB30 TEMPO 2310/2313 1400 RASN BKN003
                      BECMG 2314/2317 27015KT 9999 NSW SCT020=
200901220506 TAF EGLL 220506Z 2206/2312 17015KT 7000 -RA BKN007
                      TEMPO 2206/2212 18022G35KT 4000 RADZ +RA
                       BKN004
                      BECMG 2209/2212 27015KT 9999 NSW FEW007 SCT020
                       BECMG 2215/2218 21005KT
                      BECMG 2221/2224 09015KT 7000 -RA BKN012
                      TEMPO 2223/2312 4000 RADZ +RA BKN008
                      BECMG 2302/2305 02015KT
                      BECMG 2307/2310 27008KT=
200901220028 TAF AMD EGLL 220028Z 2200/2306 18016KT 9999 BKN012
                      BECMG 2200/2203 8000
                      TEMPO 2200/2213 4000 RA BKN008
                      PROB30 TEMPO 2205/2212 17025G38KT 1400 +RA
                       BKN003
                      BECMG 2210/2213 26015KT 9999 NSW SCT022
                      BECMG 2216/2219 VRB05KT
                      BECMG 2220/2223 06012KT 8000 -RA BKN014
                      TEMPO 2222/2305 3000 RADZ +RA BKN005
                      BECMG 2302/2305 30008KT=
200901212305 TAF EGLL 212305Z 2200/2306 18016KT 8000 -RA BKN012
                      TEMPO 2200/2213 4000 RA BKN008
                      PROB30 TEMPO 2205/2212 17025G38KT 1400 +RA
                       BKN003
                      BECMG 2210/2213 26015KT 9999 NSW SCT022
                      BECMG 2216/2219 VRB05KT
                      BECMG 2220/2223 06012KT 8000 -RA BKN014
                      TEMPO 2222/2305 3000 RADZ +RA BKN005
                      BECMG 2302/2305 30008KT=
200901212300 TAF AMD EGLL 220028Z 2200/2306 18016KT 9999 BKN012
                      BECMG 2200/2203 8000
                      TEMPO 2200/2213 4000 RA BKN008
                      PROB30 TEMPO 2205/2212 17025G38KT 1400 +RA
                       BKN003
                      BECMG 2210/2213 26015KT 9999 NSW SCT022
                      BECMG 2216/2219 VRB05KT
                      BECMG 2220/2223 06012KT 8000 -RA BKN014
                      TEMPO 2222/2305 3000 RADZ +RA BKN005
                      BECMG 2302/2305 30008KT=
200901211630 TAF EGLL 211630Z 2118/2224 19012KT 9999 FEW025 BKN040
                      BECMG 2121/2124 6000 RA BKN012
                      TEMPO 2123/2212 17018G28KT 4000 RADZ BKN008
                       PROB40
                      TEMPO 2205/2210 17025G38KT 1400 +RA BKN003
                       BECMG 2210/2213 27014KT 9999 NSW SCT022
                       BECMG 2216/2219 16012KT 3000 RADZ BKN012
                       PROB40
                      TEMPO 2219/2224 VRB04KT +RA BKN003=
200901211039 TAF EGLL 211039Z 2112/2218 24005KT 9999 FEW025
                      BECMG 2118/2121 17012KT
                      BECMG 2121/2124 6000 RA BKN012
                      TEMPO 2123/2212 18018G28KT 4000 RADZ BKN008
                       PROB40
                      TEMPO 2205/2209 18025G38KT 1400 +RA BKN003
                       BECMG 2211/2214 27013KT 9999 NSW SCT022
                       BECMG 2215/2218 16012KT 3000 RADZ +RA BKN014=
200901210504 TAF EGLL 210504Z 2106/2212 21003KT 9999 SCT030
                      PROB40 2106/2110 6000
                      PROB30 TEMPO 2107/2110 -SHRA BKN012
                      BECMG 2121/2124 18020G30KT 7000 RA BKN012
                       BECMG 2201/2204 4000 RA BKN007
                      PROB40 2208/2212 1400 +RADZ BKN003
                      BECMG 2209/2212 22015G25KT=
200901202311 TAF EGLL 202311Z 2100/2206 21007KT 9999 SCT030
                      PROB40 2103/2110 6000
                      PROB30 TEMPO 2107/2110 -SHRA BKN014
                      BECMG 2121/2124 18020G30KT 7000 RA BKN012
                       TEMPO 2200/2206 4000 RA BKN007=
200901202300 TAF EGLL 202300Z NIL=
200901201702 TAF EGLL 201702Z 2018/2124 21008KT 9999 SCT030
                      PROB30 TEMPO 2107/2110 6000 -SHRA BKN014
                       BECMG 2121/2124 18020G30KT 7000 RA BKN012=
200901201056 TAF EGLL 201056Z 2012/2118 21008KT 9999 FEW030
                      PROB30 TEMPO 2107/2110 6000 -SHRA BKN014=
200901200456 TAF EGLL 200456Z 2006/2112 22010KT 9999 FEW030=
200901192258 TAF EGLL 192258Z 2000/2106 21010KT 9999 FEW030=
200901191702 TAF EGLL 191702Z 1918/2024 22010KT 9999 SCT025=
200901191104 TAF EGLL 191104Z 1912/2018 23013KT 9999 SCT025
                      TEMPO 1912/1918 24015G26KT
                      PROB30 TEMPO 1916/1918 5000 SHRA BKN014CB=
200901190458 TAF EGLL 190458Z 1906/2012 17013KT 9999 SCT035
                      TEMPO 1906/1909 17016G26KT
                      PROB40 1906/1911 7000 RA BKN014
                      PROB30 TEMPO 1906/1910 3000 +RA BKN009
                      BECMG 1909/1912 24012KT
                      PROB40 TEMPO 1912/1916 25016G26KT 7000 SHRA
                       PROB30
                      TEMPO 1914/1916 3000 SHGR BKN014CB
                      PROB30 TEMPO 1921/1924 22015G25KT 7000 SHRA=
200901190247 TAF AMD EGLL 190247Z 1902/2006 22012KT 9999 SCT035
                      BECMG 1902/1904 17015G25KT
                      PROB40 1903/1911 7000 RA BKN014
                      PROB30 1905/1910 3000 +RA BKN009
                      BECMG 1909/1912 24012KT
                      PROB30 TEMPO 1912/1917 25015G25KT 7000 SHRA=
200901182300 TAF AMD EGLL 190247Z 1902/2006 22012KT 9999 SCT035
                      BECMG 1902/1904 17015G25KT
                      PROB40 1903/1911 7000 RA BKN014
                      PROB30 1905/1910 3000 +RA BKN009
                      BECMG 1909/1912 24012KT
                      PROB30 TEMPO 1912/1917 25015G25KT 7000 SHRA=
200901182256 TAF EGLL 182256Z 1900/2006 22012KT 9999 SCT035
                      BECMG 1900/1904 17015G25KT 7000 RA BKN014
                       PROB40 1904/1909 3000 +RA BKN009
                      BECMG 1909/1912 24012KT 9999 SCT035
                      PROB30 TEMPO 1912/1917 25015G25KT 7000 SHRA=
200901181704 TAF EGLL 181704Z 1818/1924 22012KT 9999 SCT030
                      BECMG 1900/1903 17016G26KT 7000 RA BKN014
                       PROB40 1903/1908 3000 +RA BKN008
                      BECMG 1909/1912 24015G25KT 9999 SCT030
                      PROB30 TEMPO 1912/1924 7000 SHRA SHRASN=
200901181058 TAF EGLL 181058Z 1812/1918 22012KT 9999 SCT030
                      PROB30 TEMPO 1812/1814 25015G25KT 7000 SHRA
                       BECMG 1900/1903 17016G26KT 7000 RA BKN014
                       PROB40 1903/1908 3000 +RA BKN008
                      BECMG 1907/1910 24015G25KT 9999 SCT030
                      PROB30 TEMPO 1911/1918 7000 SHRA=
200901180456 TAF EGLL 180456Z 1806/1912 22012KT 9999 SCT030
                      PROB30 TEMPO 1806/1812 25015G25KT 7000 SHRA
                       BECMG 1900/1903 17016G26KT 7000 RA BKN014
                       PROB40 1903/1908 3000 +RA BKN008
                      BECMG 1907/1910 24015G25KT 9999 SCT030
                      PROB30 TEMPO 1910/1912 7000 SHRA=
200901180214 TAF AMD EGLL 180214Z 1802/1906 24012KT 9999 SCT030
                      PROB40 1802/1804 6000 RA BKN014
                      PROB30 TEMPO 1802/1804 3000 +RA BKN008
                      PROB30 TEMPO 1804/1812 25015G25KT 7000 -SHGR
                       BECMG 1900/1903 17016G26KT 7000 RA
                      BECMG 1903/1906 BKN014
                      PROB40 1903/1906 3000 +RA BKN008=
200901172304 TAF EGLL 172304Z 1800/1906 19022G32KT 9999 SCT030
                      BECMG 1800/1803 24015G25KT
                      PROB40 1800/1804 6000 RA BKN014
                      PROB30 TEMPO 1800/1804 3000 +RA BKN008
                      PROB30 TEMPO 1804/1812 7000 -SHGR
                      BECMG 1815/1818 21010KT
                      BECMG 1900/1903 17016G26KT 7000 RA
                      BECMG 1903/1906 BKN014
                      PROB40 1903/1906 3000 +RA BKN008=
200901172300 TAF AMD EGLL 180214Z 1802/1906 24012KT 9999 SCT030
                      PROB40 1802/1804 6000 RA BKN014
                      PROB30 TEMPO 1802/1804 3000 +RA BKN008
                      PROB30 TEMPO 1804/1812 25015G25KT 7000 -SHGR
                       BECMG 1900/1903 17016G26KT 7000 RA
                      BECMG 1903/1906 BKN014
                      PROB40 1903/1906 3000 +RA BKN008=
200901171718 TAF EGLL 171718Z 1718/1824 18020G30KT 9999 BKN025
                      TEMPO 1719/1723 18024G40KT
                      TEMPO 1719/1803 5000 RA BKN014
                      PROB30 TEMPO 1721/1803 3000 +RA BKN008
                      BECMG 1723/1802 23015G25KT
                      PROB30 TEMPO 1812/1818 7000 -SHGR=
200901171700 TAF EGLL 171700Z NIL=
200901171135 TAF EGLL 171135Z 1712/1818 25015G25KT 9999 SCT025
                      BECMG 1715/1718 18020G30KT
                      TEMPO 1719/1723 18024G40KT
                      TEMPO 1719/1802 5000 RA BKN014
                      PROB30 TEMPO 1721/1802 3000 +RA
                      BECMG 1723/1802 23015G25KT
                      PROB30 TEMPO 1812/1818 7000 -SHGR=
200901171100 TAF EGLL 171100Z NIL=
200901170500 TAF EGLL 170500Z 1706/1812 19012KT 9999 BKN015
                      TEMPO 1706/1709 20016G26KT 4000 RA BKN010
                       BECMG 1707/1710 26012KT
                      BECMG 1714/1717 20020G32KT 8000 RA
                      TEMPO 1719/1803 3000 +RA BKN012CB
                      BECMG 1723/1802 23015KT
                      BECMG 1802/1805 9999 NSW=
200901162356 TAF COR EGLL 162356Z 1700/1806 19012KT 9999 BKN015
                      TEMPO 1700/1708 20016G28KT 4000 RA BKN010
                       BECMG 1707/1710 25014KT
                      BECMG 1714/1717 20020G35KT 8000 RA
                      TEMPO 1719/1724 3000 +RA BKN012
                      BECMG 1723/1802 23015G25KT 9999 NSW
                      TEMPO 1802/1806 2000 +TSRASN BKN012CB=
200901162256 TAF EGLL 162256Z 1700/1806 19012KT 9999 BKN012
                      TEMPO 1700/1708 20016G28KT 4000 RA BKN008
                       BECMG 1707/1710 25014KT FEW012 SCT020
                      BECMG 1714/1717 20020G35KT 8000 RA
                      TEMPO 1719/1724 3000 +RA BKN012
                      BECMG 1723/1802 23015G25KT 9999 NSW
                      TEMPO 1802/1806 2000 +TSRASN BKN012CB=
200901161712 TAF EGLL 161712Z 1618/1724 19010KT 9999 FEW010
                      PROB40 1620/1707 6000 -RADZ BKN008
                      PROB30 1700/1706 19015G28KT 4000 RADZ
                      BECMG 1706/1709 25015G28KT
                      TEMPO 1707/1709 4000 +SHRA BKN014CB
                      BECMG 1709/1712 25012KT
                      BECMG 1714/1717 19018G28KT
                      BECMG 1718/1720 6000 RA
                      TEMPO 1720/1722 3000 +RA BKN014
                      PROB30 TEMPO 1720/1722 19022G38KT
                      BECMG 1722/1724 9999 NSW=
200901161700 TAF EGLL 161700Z NIL=
200901161049 TAF EGLL 161049Z 1612/1718 19010KT 8000 FEW004 BKN008
                      BECMG 1612/1615 FEW008 BKN010
                      TEMPO 1612/1615 4000 DZ
                      PROB40 1615/1620 9999 FEW008 SCT020
                      TEMPO 1700/1706 4000 RADZ BKN008
                      PROB30 TEMPO 1700/1706 19015G28KT
                      BECMG 1706/1709 25015G28KT 9999 SCT020
                      TEMPO 1706/1709 4000 +SHRA BKN014CB
                      BECMG 1709/1712 25012KT
                      BECMG 1714/1717 18017G32KT
                      PROB30 1717/1718 6000 RA=
200901160815 TAF AMD EGLL 160815Z 1608/1712 17010KT 8000 FEW004 BKN008
                      TEMPO 1608/1615 4000 DZ
                      PROB40 1608/1610 BKN004
                      BECMG 1610/1613 FEW008 BKN010
                      BECMG 1615/1618 9999 FEW008 SCT020
                      BECMG 1621/1624 7000 BKN010
                      TEMPO 1622/1706 4000 RADZ BKN008
                      BECMG 1705/1708 25018G28KT 9999 SCT020
                      TEMPO 1706/1709 4000 +SHRA BKN014CB=
200901160604 TAF AMD EGLL 160604Z 1606/1712 17010KT 8000 FEW008 BKN010
                      TEMPO 1606/1615 4000 DZ BKN008
                      BECMG 1615/1618 9999 FEW008 SCT020
                      BECMG 1621/1624 7000 BKN010
                      TEMPO 1622/1706 4000 RADZ BKN008
                      BECMG 1705/1708 25018G28KT 9999 SCT020
                      TEMPO 1706/1709 4000 +SHRA BKN014CB=
200901160503 TAF EGLL 160503Z 1606/1712 17010KT 8000 FEW008 BKN010
                      TEMPO 1606/1615 4000 -DZ BKN008
                      BECMG 1615/1618 9999 FEW008 SCT020
                      BECMG 1621/1624 7000 BKN010
                      TEMPO 1622/1706 4000 RADZ BKN008
                      BECMG 1705/1708 25018G28KT 9999 SCT020
                      TEMPO 1706/1709 4000 +SHRA BKN014CB=
200901160300 TAF AMD EGLL 160300Z 1603/1706 17010KT 9999 BKN010
                      BECMG 1603/1606 8000
                      TEMPO 1603/1704 4000 RADZ BKN008
                      PROB40 1612/1621 FEW010 SCT020
                      BECMG 1704/1706 23010KT 9999 SCT015=
200901152300 TAF AMD EGLL 160300Z 1603/1706 17010KT 9999 BKN010
                      BECMG 1603/1606 8000
                      TEMPO 1603/1704 4000 RADZ BKN008
                      PROB40 1612/1621 FEW010 SCT020
                      BECMG 1704/1706 23010KT 9999 SCT015=
200901151700 TAF EGLL 151700Z 1518/1624 16012KT 9999 SCT030
                      PROB40 1518/1603 8000
                      BECMG 1603/1607 7000 BKN010
                      PROB40 1605/1624 4000 -RADZ BKN005
                      PROB30 1612/1621 SCT020
                      PROB40 1622/1624 RA=
200901151058 TAF EGLL 151058Z 1512/1618 16012KT 9999 BKN009
                      BECMG 1512/1515 SCT020
                      PROB40 1512/1603 8000
                      BECMG 1603/1606 7000 BKN010
                      PROB30 1605/1618 4000 -RADZ BKN005=
200901150528 TAF EGLL 150528Z 1506/1612 16013KT 7000 BKN010
                      TEMPO 1506/1510 3000 BR BKN005
                      BECMG 1510/1513 SCT020
                      TEMPO 1511/1518 9999
                      BECMG 1606/1609 BKN010
                      TEMPO 1607/1612 3000 -RADZ BKN005=
200901150500 TAF EGLL 150500Z NIL=
200901142321 TAF EGLL 142321Z 1500/1606 16010KT 9999 BKN030
                      BECMG 1500/1503 8000 BKN010
                      TEMPO 1503/1510 3000 BR BKN005
                      BECMG 1511/1513 SCT020
                      TEMPO 1511/1518 9999
                      BECMG 1600/1603 BKN010=
200901142300 TAF EGLL 142300Z NIL=
200901141700 TAF EGLL 141700Z 1418/1524 14006KT 3000 BR SCT015
                      BECMG 1418/1421 6000 NSW
                      PROB30 1418/1420 BKN005
                      BECMG 1501/1504 BKN012
                      PROB40 1503/1510 3000 BR BKN006
                      BECMG 1510/1513 9999 SCT030=
200901141456 TAF AMD EGLL 141456Z 1415/1518 VRB03KT 0300 FG BKN001
                      BECMG 1415/1417 2000 BR SCT020
                      PROB40 1415/1418 BKN007
                      BECMG 1416/1420 16010KT 6000 NSW
                      BECMG 1502/1505 BKN010
                      PROB40 1504/1510 3000 BR BKN004
                      BECMG 1509/1512 9999
                      PROB40 1510/1518 SCT030=
200901141101 TAF EGLL 141101Z 1412/1518 VRB03KT 0200 FG BKN001
                      BECMG 1412/1415 2000 BR SCT020
                      PROB40 1415/1418 BKN007
                      BECMG 1416/1419 16010KT 6000 NSW
                      BECMG 1502/1505 BKN010
                      PROB40 1504/1510 3000 BR BKN004
                      BECMG 1509/1512 9999
                      PROB40 1510/1518 SCT030=
200901140513 TAF EGLL 140513Z 1406/1512 VRB03KT 2000 BR SCT020
                      TEMPO 1406/1412 0200 FZFG BKN000
                      BECMG 1412/1414 BKN003
                      BECMG 1414/1416 BKN007
                      BECMG 1416/1419 16010KT 5000 HZ SCT030
                      BECMG 1502/1505 BKN007
                      PROB40 TEMPO 1504/1510 3000 BR BKN004=
200901140500 TAF EGLL 140500Z NIL=
200901132306 TAF EGLL 132306Z 1400/1506 23005KT 8000 SCT020
                      BECMG 1402/1405 2000 BR
                      PROB40 1405/1412 0200 FZFG BKN000
                      BECMG 1411/1413 BKN003
                      BECMG 1413/1416 5000 HZ BKN010
                      BECMG 1416/1418 16010KT SCT040
                      TEMPO 1417/1420 3000 BR
                      BECMG 1502/1505 BKN007=
200901131658 TAF EGLL 131658Z 1318/1424 25005KT 9999 SCT022
                      BECMG 1319/1322 7000
                      BECMG 1322/1401 3000 BR
                      PROB40 1403/1412 0200 FZFG VV///
                      BECMG 1415/1418 6000 NSW
                      PROB40 1418/1424 3000 BR=
200901131057 TAF EGLL 131057Z 1312/1418 22007KT 9999 BKN022
                      PROB30 TEMPO 1312/1317 7000 SHRA
                      BECMG 1321/1324 7000
                      BECMG 1400/1403 3000 BR
                      TEMPO 1405/1412 0200 FZFG VV///
                      PROB40 1414/1417 7000 NSW BKN007=
200901130509 TAF EGLL 130509Z 1306/1412 23010KT 9999 BKN025
                      TEMPO 1306/1310 6000 BKN008
                      PROB30 TEMPO 1312/1317 7000 SHRA
                      BECMG 1317/1320 29003KT
                      BECMG 1321/1324 7000
                      BECMG 1400/1403 3000 BR
                      TEMPO 1405/1412 0200 FZFG VV///=
200901122306 TAF EGLL 122306Z 1300/1406 23010KT 9999 BKN025
                      TEMPO 1306/1310 5000 BR BKN008
                      PROB30 TEMPO 1312/1317 7000 SHRA
                      BECMG 1317/1320 29003KT
                      BECMG 1321/1324 7000
                      BECMG 1400/1403 3500 BR
                      PROB30 TEMPO 1403/1406 0400 FZFG BKN001=
200901121703 TAF EGLL 121703Z 1218/1324 22012KT 9999 -DZ SCT007 BKN015
                      TEMPO 1218/1303 3500 DZ BR BKN007
                      PROB30 TEMPO 1219/1301 BKN004
                      PROB30 TEMPO 1303/1315 7000 SHRA BKN012=
200901121257 TAF AMD EGLL 121257Z 1212/1318 20014KT 9999 -RA SCT007 BKN015
                      TEMPO 1212/1216 20018G28KT 4000 RADZ BKN009
                       TEMPO 1216/1304 3500 DZ BR BKN007
                      PROB30 TEMPO 1218/1301 BKN003
                      PROB40 TEMPO 1304/1315 6000 SHRA BKN012=
200901121102 TAF EGLL 121102Z 1212/1318 20014KT 9999 -RA SCT007 BKN015
                      TEMPO 1212/1216 20018G28KT 6000 RADZ BKN009
                       TEMPO 1216/1304 3500 DZ BR BKN007
                      PROB30 TEMPO 1218/1301 BKN003
                      PROB40 TEMPO 1304/1315 6000 SHRA BKN012=
200901120855 TAF AMD EGLL 120855Z 1206/1312 21014KT 9999 BKN016
                      BECMG 1207/1210 7000 -RA BKN014
                      PROB40 TEMPO 1207/1218 20018G28KT RA
                      TEMPO 1209/1304 4000 -DZ BR BKN007
                      PROB30 TEMPO 1218/1301 BKN004
                      BECMG 1303/1306 9999 SCT014=
200901120424 TAF EGLL 120424Z 1206/1312 21014KT 9999 BKN016
                      BECMG 1207/1210 7000 -RA BKN014
                      PROB40 TEMPO 1207/1218 20018G28KT RA
                      TEMPO 1210/1304 4000 -DZ BR BKN007
                      PROB30 TEMPO 1218/1301 BKN004
                      BECMG 1303/1306 9999 SCT014=
200901112307 TAF EGLL 112307Z 1200/1306 21014KT 9999 SCT015
                      PROB30 TEMPO 1200/1204 6000 BKN014
                      TEMPO 1200/1218 20016G26KT
                      PROB30 TEMPO 1207/1215 20024G36KT
                      BECMG 1207/1210 7000 -RA BKN014
                      TEMPO 1210/1304 4000 RA RADZ BKN007
                      PROB30 TEMPO 1218/1301 BKN004
                      BECMG 1303/1306 9999 SCT014=
200901111704 TAF EGLL 111704Z 1118/1224 21014KT 9999 SCT015
                      TEMPO 1118/1204 6000 BKN014
                      PROB40 TEMPO 1118/1121 20016G26KT
                      BECMG 1121/1124 20016G26KT
                      PROB30 TEMPO 1200/1215 20024G36KT
                      BECMG 1207/1210 7000 -RA BKN014
                      PROB40 TEMPO 1210/1224 4000 RA RADZ BKN007
                       BECMG 1215/1218 21012KT=
200901111556 TAF AMD EGLL 111556Z 1112/1218 21014KT 9999 FEW030
                      PROB40 TEMPO 1112/1121 20016G26KT
                      TEMPO 1116/1201 8000 BKN014
                      BECMG 1121/1124 20016G26KT
                      PROB30 TEMPO 1200/1215 20024G36KT
                      BECMG 1207/1210 7000 -RA BKN014
                      PROB40 TEMPO 1210/1218 RA RADZ BKN008
                      BECMG 1215/1218 20013KT=
200901111108 TAF EGLL 111108Z 1112/1218 21014KT 9999 FEW030
                      PROB40 TEMPO 1112/1121 20016G26KT
                      PROB30 1116/1201 BKN014
                      BECMG 1121/1124 20016G26KT
                      PROB30 TEMPO 1200/1215 20024G36KT
                      BECMG 1207/1210 7000 -RA BKN014
                      PROB40 TEMPO 1210/1218 RA RADZ BKN008
                      BECMG 1215/1218 20013KT=
200901110458 TAF EGLL 110458Z 1106/1212 21010KT 9999 FEW030
                      PROB30 1106/1110 7000
                      PROB30 TEMPO 1112/1121 19015G25KT
                      PROB30 1116/1201 BKN014
                      BECMG 1121/1124 19016G26KT
                      PROB30 TEMPO 1123/1212 19024G36KT
                      BECMG 1207/1210 7000 -RA BKN014=
200901110258 TAF AMD EGLL 110258Z 1103/1206 21008KT 9999 SCT020
                      PROB40 1103/1110 7000
                      PROB30 1103/1107 4000 BR
                      PROB30 TEMPO 1112/1121 19015G25KT
                      PROB30 1115/1121 BKN014
                      BECMG 1121/1124 19016G26KT
                      PROB30 TEMPO 1123/1206 19024G36KT=
200901102301 TAF EGLL 102301Z 1100/1206 21008KT 4000 BR SCT012
                      PROB30 1100/1107 1400 BKN009
                      BECMG 1106/1109 7000 NSW
                      PROB40 1110/1119 9999
                      PROB30 TEMPO 1112/1121 19015G25KT
                      PROB30 1115/1121 BKN014
                      BECMG 1119/1122 9999
                      BECMG 1121/1124 19016G26KT
                      PROB30 TEMPO 1123/1206 19024G36KT=
200901102300 TAF AMD EGLL 110258Z 1103/1206 21008KT 9999 SCT020
                      PROB40 1103/1110 7000
                      PROB30 1103/1107 4000 BR
                      PROB30 TEMPO 1112/1121 19015G25KT
                      PROB30 1115/1121 BKN014
                      BECMG 1121/1124 19016G26KT
                      PROB30 TEMPO 1123/1206 19024G36KT=
200901101954 TAF AMD EGLL 101954Z 1020/1124 VRB04KT 3000 BR FEW005
                      PROB30 1020/1103 0700 FG FZFG OVC001
                      BECMG 1100/1103 20010KT 5000 HZ NSC
                      PROB40 1110/1124 9999 NSW
                      PROB30 TEMPO 1114/1124 19015G25KT
                      BECMG 1116/1119 BKN012=
200901101701 TAF EGLL 101701Z 1018/1124 VRB04KT 2000 BR BKN005
                      PROB40 1018/1103 0700 FG FZFG OVC001
                      BECMG 1100/1103 20010KT 5000 HZ NSC
                      PROB40 1110/1124 9999 NSW
                      PROB30 TEMPO 1114/1124 19015G25KT
                      BECMG 1116/1119 BKN012=
200901101627 TAF AMD EGLL 101627Z 1016/1118 VRB04KT 2000 BR BKN005
                      PROB40 1017/1103 0700 FG FZFG OVC001
                      BECMG 1100/1103 20010KT 5000 HZ NSC
                      PROB40 1110/1118 9999 NSW
                      PROB30 TEMPO 1114/1118 19015G25KT
                      BECMG 1115/1118 BKN012=
200901101111 TAF EGLL 101111Z 1012/1118 19004KT 0800 FZFG BKN001
                      BECMG 1012/1014 6000 NSW SCT015
                      PROB40 1014/1019 3000 BR BKN006
                      PROB40 1019/1101 1400 BR OVC001
                      BECMG 1100/1103 20010KT
                      PROB30 1102/1106 9999
                      BECMG 1106/1109 9999
                      PROB30 TEMPO 1114/1118 19015G25KT=
200901101100 TAF EGLL 101100Z NIL=
200901100503 TAF EGLL 100503Z 1006/1112 VRB04KT 0400 FZFG VV///
                      PROB30 1006/1009 4000 BR SCT015
                      BECMG 1009/1012 7000 NSW SCT020
                      PROB40 1017/1102 3000 BR
                      PROB30 1019/1101 1400 BR BKN001
                      BECMG 1100/1103 20010KT
                      PROB30 1102/1106 9999
                      BECMG 1106/1109 9999
                      PROB30 TEMPO 1109/1112 19015G25KT=
200901092257 TAF EGLL 092257Z 1000/1106 VRB04KT 3000 BR NSC
                      PROB30 1000/1010 0300 FZFG VV///
                      BECMG 1009/1012 7000 NSW
                      PROB40 1017/1101 3000 BR
                      PROB30 1019/1024 1400 BR BKN001
                      BECMG 1100/1103 20010KT
                      PROB30 1102/1106 CAVOK=
200901091705 TAF EGLL 091705Z 0918/1024 09004KT 7000 FEW004
                      PROB40 0918/0923 4000 BR BKN004
                      PROB30 0923/1010 0300 FZFG VV///
                      BECMG 1016/1019 3000 BR
                      PROB40 1020/1024 0500 FG BKN001=
200901091106 TAF EGLL 091106Z 0912/1018 11004KT 7000 BKN008
                      PROB30 0912/0914 4500 BR
                      BECMG 0912/0915 SCT010
                      BECMG 0915/0918 3000 BR
                      PROB30 0921/1012 0300 FZFG VV///=
200901090512 TAF EGLL 090512Z 0906/1012 11004KT 3000 BR BKN004
                      PROB40 0906/0910 0300 FG FZFG VV///
                      BECMG 0910/0913 6000 NSW FEW010
                      PROB30 TEMPO 0913/0918 9999
                      BECMG 0918/0921 3000 BR
                      PROB30 1000/1009 0300 FZFG VV///=
200901090500 TAF EGLL 090500Z NIL=
200901082309 TAF EGLL 082309Z 0900/1006 11004KT 0300 FG VV///
                      PROB40 TEMPO 0900/0908 3000 BR FEW005
                      BECMG 0908/0911 6000 NSW FEW010
                      PROB30 TEMPO 0912/0918 9999
                      PROB40 0918/1006 3000 BR
                      PROB30 1000/1006 0300 FG VV///=
200901082115 TAF COR EGLL 082115Z 0818/0924 11004KT 6000 SCT030
                      BECMG 0818/0821 4000 BR
                      PROB40 0821/0910 0700 FG BKN000
                      BECMG 0909/0912 6000 NSW
                      PROB40 0912/0918 9999
                      PROB40 0918/0924 3000 BR=
200901081704 TAF EGLL 081704Z 0818/0924 11004KT 6000 SCT030
                      BECMG 0818/0821 4000 BR
                      PROB40 0921/0910 0700 FG BKN000
                      BECMG 0909/0912 6000 NSW
                      PROB40 0912/0918 9999
                      PROB40 0918/0924 3000 BR=
200901081058 TAF EGLL 081058Z 0812/0918 11004KT 6000 BKN030
                      PROB40 0812/0818 BKN010
                      BECMG 0818/0821 4000 BR BKN008
                      PROB40 0821/0910 BKN004
                      PROB30 0900/0910 1400
                      BECMG 0909/0912 6000 NSW SCT025
                      PROB40 0912/0918 9999=
200901080505 TAF EGLL 080505Z 0806/0912 VRB04KT 3000 BR SCT010 BKN020
                      TEMPO 0806/0818 BKN010
                      PROB30 0806/0811 BKN004
                      BECMG 0810/0813 8000 NSW
                      BECMG 0818/0821 4000 BR BKN008
                      TEMPO 0821/0910 BKN004
                      PROB30 0900/0909 0300 FZFG VV///
                      BECMG 0909/0912 9999 NSW SCT025=
200901072302 TAF EGLL 072302Z 0800/0906 VRB04KT 3500 HZ SCT009 BKN020
                      TEMPO 0800/0906 BKN009
                      PROB30 0800/0811 1200 BR BKN003
                      PROB40 0811/0817 7000 NSW
                      PROB40 TEMPO 0817/0906 BKN004
                      PROB30 0900/0906 0300 FZFG VV///=
200901072157 TAF AMD EGLL 072157Z 0721/0824 32006KT 4000 BR BKN015
                      BECMG 0722/0801 BKN008
                      PROB40 0723/0811 1200 BKN003
                      PROB30 TEMPO 0811/0817 7000 NSW BKN015
                      PROB30 0817/0824 BKN004=
200901071704 TAF EGLL 071704Z 0718/0824 32006KT 7000 BKN012
                      PROB30 0718/0720 BKN030
                      BECMG 0719/0722 4000 BR BKN008
                      PROB40 0722/0811 1200 BKN003
                      PROB30 TEMPO 0811/0817 7000 NSW BKN015
                      PROB30 0817/0824 BKN004=
200901071222 TAF AMD EGLL 071222Z 0712/0818 32006KT 7000 BKN030
                      PROB40 0712/0717 BKN008
                      PROB30 TEMPO 0712/0718 9999
                      BECMG 0719/0722 4000 BR
                      PROB40 0722/0811 1200 BKN003=
200901071059 TAF EGLL 071059Z 0712/0818 32006KT 7000 BKN030
                      PROB40 0712/0717 BKN012
                      PROB30 TEMPO 0712/0718 9999
                      BECMG 0719/0722 4000 BR
                      PROB40 0722/0811 1200 BKN003=
200901070629 TAF AMD EGLL 070629Z 0706/0812 32006KT 9999 FEW014 BKN025
                      TEMPO 0706/0710 BKN009
                      PROB40 TEMPO 0706/0708 5000 HZ -SN
                      PROB40 TEMPO 0710/0717 8000 BKN012
                      BECMG 0718/0721 4000 BR
                      TEMPO 0723/0812 1200 BKN002
                      PROB40 0802/0811 0500 FG FZFG BKN000=
200901070505 TAF EGLL 070505Z 0706/0812 32006KT 9999 FEW014 BKN025
                      PROB30 TEMPO 0706/0708 5000 HZ -SN BKN012
                       PROB40
                      TEMPO 0708/0717 8000 BKN012
                      BECMG 0718/0721 4000 BR
                      TEMPO 0723/0812 1200 BKN002
                      PROB40 0802/0811 0500 FG FZFG BKN000=
200901062254 TAF EGLL 062254Z 0700/0806 33005KT CAVOK
                      BECMG 0703/0706 BKN020
                      PROB30 TEMPO 0704/0707 5000 -RASN -SN BKN010
                       BECMG 0707/0710 8000 BKN010
                      TEMPO 0712/0721 BKN015
                      BECMG 0718/0721 4000 BR
                      TEMPO 0723/0806 1200 BKN005
                      PROB40 0802/0806 0500 FG BKN001=
200901061702 TAF EGLL 061702Z 0618/0724 33004KT CAVOK
                      BECMG 0703/0706 BKN020
                      PROB30 TEMPO 0706/0709 5000 -RASN BKN008
                       BECMG 0709/0711 BKN010
                      PROB40 0716/0724 3000 BR BKN006=
200901061105 TAF EGLL 061105Z 0612/0718 03006KT CAVOK
                      BECMG 0703/0706 BKN020
                      BECMG 0707/0710 BKN010
                      PROB30 TEMPO 0710/0715 5000 -RASN BKN008
                       PROB30 0716/0718 3000 BR BKN006=
200901060457 TAF EGLL 060457Z 0606/0712 03006KT 9999 FEW040
                      PROB30 0606/0611 9000
                      PROB30 TEMPO 0704/0712 5000 -SN BKN010=
200901052256 TAF EGLL 052256Z 0600/0706 04006KT 9999 FEW040
                      PROB30 0605/0611 9000
                      PROB30 TEMPO 0703/0706 5000 -SN BKN007=
200901051701 TAF EGLL 051701Z 0518/0624 05010KT 9999 SCT030
                      BECMG 0615/0618 33006KT=
200901051059 TAF EGLL 051059Z 0512/0618 05012KT 9999 FEW015 SCT030
                      BECMG 0612/0615 35006KT=
200901050516 TAF EGLL 050516Z 0506/0612 30006KT 3000 -SN BR BKN012
                      PROB40 TEMPO 0506/0510 1000 SN BKN004
                      BECMG 0508/0511 02010KT 9999 NSW SCT030=
200901050500 TAF EGLL 050500Z NIL=
200901050300 TAF AMD EGLL 050300Z 0503/0606 28006KT 7000 SCT035
                      TEMPO 0503/0510 3000 -SN BR
                      BECMG 0503/0507 BKN012
                      PROB40 TEMPO 0503/0510 1400 SN BKN004
                      BECMG 0508/0511 02010KT 9999 SCT030=
200901050115 TAF AMD EGLL 050115Z 0500/0606 26006KT 7000 SCT035
                      TEMPO 0500/0504 4000 BR
                      BECMG 0502/0505 BKN012
                      PROB40 0504/0510 3000 -RASN BR BKN004
                      PROB30 TEMPO 0504/0510 1400 -SN
                      BECMG 0508/0511 02010KT 9999 SCT030=
200901042356 TAF AMD EGLL 042356Z 0500/0606 26006KT 7000
                      TEMPO 0500/0504 4000 BR SCT035
                      BECMG 0502/0505 BKN012
                      PROB40 0504/0510 3000 -RASN BR BKN004
                      PROB30 TEMPO 0504/0510 1400 -SN
                      BECMG 0508/0511 02010KT 9999 SCT030=
200901042302 TAF EGLL 042302Z 0500/0606 26006KT 7000 SCT035
                      BECMG 0502/0505 BKN012
                      PROB40 0504/0510 3000 -RASN BR BKN004
                      PROB30 TEMPO 0504/0510 1400 -SN
                      BECMG 0508/0511 02010KT 9999 SCT030=
200901042300 TAF AMD EGLL 050300Z 0503/0606 28006KT 7000 SCT035
                      TEMPO 0503/0510 3000 -SN BR
                      BECMG 0503/0507 BKN012
                      PROB40 TEMPO 0503/0510 1400 SN BKN004
                      BECMG 0508/0511 02010KT 9999 SCT030=
200901041654 TAF EGLL 041654Z 0418/0524 26006KT 7000 SCT035
                      PROB40 0418/0422 9999
                      BECMG 0501/0504 BKN010
                      PROB40 0503/0510 3000 -RASN BKN004
                      PROB30 TEMPO 0504/0510 1400 -SN
                      BECMG 0508/0511 02012KT 9999 SCT030=
200901041553 TAF AMD EGLL 041553Z 0416/0518 28006KT 8000 SCT035
                      PROB40 0416/0422 9999
                      BECMG 0500/0503 BKN010
                      PROB40 0502/0508 3000 -RASN BKN004
                      PROB30 TEMPO 0502/0507 1400 -SN
                      BECMG 0506/0509 02010KT 9999 SCT025=
200901041054 TAF EGLL 041054Z 0412/0518 28006KT 9999 SCT035
                      BECMG 0500/0503 7000 BKN010
                      PROB40 0502/0508 3000 -RASN BKN004
                      PROB30 TEMPO 0502/0507 1400 -SN
                      BECMG 0506/0509 02010KT 9999 SCT025=
200901040508 TAF EGLL 040508Z 0406/0512 28006KT 9999 SCT035
                      PROB30 0406/0409 7000
                      BECMG 0423/0502 7000 BKN008
                      TEMPO 0501/0507 3000 -RASN BKN003
                      PROB30 TEMPO 0502/0507 1200 BR -SN
                      BECMG 0505/0508 02010KT 9999 SCT025=
200901032252 TAF EGLL 032252Z 0400/0506 28003KT 9999 FEW032
                      PROB40 0400/0410 7000
                      BECMG 0423/0502 7000 BKN008
                      TEMPO 0501/0506 3000 RASN BKN004
                      PROB30 TEMPO 0502/0505 1200 BR -SN=
200901031705 TAF EGLL 031705Z 0318/0424 35003KT 9999 FEW032
                      PROB40 0321/0410 7000
                      BECMG 0421/0424 7000 BKN008
                      TEMPO 0422/0424 2500 RASN -SN BKN004=
200901031055 TAF EGLL 031055Z 0312/0418 03003KT 9999 FEW030
                      PROB40 0321/0410 7000=
200901030506 TAF EGLL 030506Z 0306/0412 04003KT 9999 SCT030
                      BECMG 0320/0323 7000
                      PROB30 0323/0410 1200 BR=
200901022257 TAF EGLL 022257Z 0300/0406 04005KT 9999 SCT030
                      BECMG 0320/0323 7000
                      PROB30 0323/0406 1200 BR=
200901021635 TAF EGLL 021635Z 0218/0324 04006KT 9999 SCT030
                      PROB30 0300/0309 7000
                      BECMG 0321/0324 7000=
200901021056 TAF EGLL 021056Z 0212/0318 04006KT 7000 SCT030
                      BECMG 0212/0214 9999
                      PROB30 0300/0309 7000=
200901020504 TAF EGLL 020504Z 0206/0312 04005KT 4000 BR SCT030
                      PROB30 0206/0210 1400 -DZ BKN004
                      BECMG 0209/0212 9999 NSW
                      PROB30 0300/0308 7000=
200901012258 TAF EGLL 012258Z 0200/0306 04005KT 4000 BR BKN030
                      PROB40 0203/0210 1400 -DZ BKN004
                      BECMG 0210/0213 9999 NSW
                      PROB30 0300/0306 7000=
200901011710 TAF EGLL 011710Z 0118/0224 04005KT 7000 BKN025
                      TEMPO 0123/0211 4000 BR
                      PROB30 TEMPO 0204/0210 1200 BKN004
                      BECMG 0210/0213 9999=
200901011101 TAF EGLL 011101Z 0112/0218 04005KT 7000 BKN020
                      TEMPO 0112/0118 9999
                      TEMPO 0123/0211 3000 BR BKN005=
200901010717 TAF AMD EGLL 010717Z 0106/0212 04005KT 7000 BKN016
                      TEMPO 0106/0109 BKN012
                      BECMG 0110/0113 9999
                      PROB30 0206/0210 3000 BR BKN005=
200901010423 TAF EGLL 010423Z 0106/0212 04005KT 6000 BKN012
                      TEMPO 0106/0110 4000 BR BKN008
                      BECMG 0112/0115 9999 BKN016
                      PROB30 0206/0210 3000 BR BKN005=
