##########################################################
# Query made at 01/13/2020 11:34:38 UTC
# Time interval: from 01/01/2015 00:00  to 01/31/2015 23:59  UTC
##########################################################

##########################################################
# EGLL, London / Heathrow Airport (United Kingdom)
# WMO index: 03772
# Latitude 51-29N. Longitude 000-27W. Altitude 24 m.
##########################################################

###################################
#  METAR/SPECI from EGLL
###################################
201501312350 METAR COR EGLL 312350Z 31010KT 9999 SCT046 03/M02 Q0994 NOSIG=
201501312320 METAR COR EGLL 312320Z 31010KT 9999 BKN046 03/M02 Q0994 NOSIG=
201501312250 METAR COR EGLL 312250Z 32009KT 290V350 9999 BKN045 03/M03
                        Q0994 NOSIG=
201501312220 METAR COR EGLL 312220Z 31011G21KT 9999 SCT046 03/M03 Q0993
                        NOSIG=
201501312150 METAR EGLL 312150Z 31011KT 9999 FEW047 03/M03 Q0993 NOSIG=
201501312120 METAR COR EGLL 312120Z 31013KT 280V340 9999 SCT047 04/M02
                        Q0993 NOSIG=
201501312050 METAR EGLL 312050Z 31011KT 9999 SCT047 04/M02 Q0993 NOSIG=
201501312020 METAR COR EGLL 312020Z 31009KT 9999 BKN046 04/M01 Q0992 NOSIG=
201501311950 METAR EGLL 311950Z 32010KT 9999 FEW038 SCT042 04/M02 Q0992
                        NOSIG=
201501311920 METAR COR EGLL 311920Z 32012KT 9999 SCT049 04/M02 Q0992 NOSIG=
201501311850 METAR COR EGLL 311850Z 32011KT 9999 SCT045 05/M01 Q0991 NOSIG=
201501311820 METAR COR EGLL 311820Z 32011KT 9999 SCT043 05/M01 Q0990 NOSIG=
201501311750 METAR COR EGLL 311750Z 33010KT 290V350 9999 SCT045 05/M01
                        Q0990 NOSIG=
201501311720 METAR COR EGLL 311720Z 32012KT 9999 BKN043 05/M01 Q0989 NOSIG=
201501311650 METAR COR EGLL 311650Z 32011KT 9999 FEW038 BKN043 05/M00
                        Q0989 NOSIG=
201501311620 METAR COR EGLL 311620Z 32010G21KT 290V010 9999 SCT035 SCT039
                        05/M00 Q0988 NOSIG=
201501311550 METAR EGLL 311550Z 33013G23KT 9999 SCT029 SCT034 05/00 Q0987
                        NOSIG=
201501311520 METAR COR EGLL 311520Z 32011KT 9999 BKN026 05/01 Q0987 NOSIG=
201501311450 METAR COR EGLL 311450Z 32011G23KT 9999 FEW025 SCT041 06/01
                        Q0986 NOSIG=
201501311420 METAR COR EGLL 311420Z 32012KT 280V350 9999 BKN032 05/02
                        Q0985 NOSIG=
201501311350 METAR EGLL 311350Z 33010KT 9999 BKN017 05/02 Q0985 NOSIG=
201501311320 METAR COR EGLL 311320Z 32009KT 9000 -RA BKN009 04/02 Q0985
                        TEMPO BKN12=
201501311250 METAR COR EGLL 311250Z 31008KT 7000 -RA FEW008 BKN012 03/02
                        Q0985 TEMPO BKN015=
201501311220 METAR COR EGLL 311220Z 32009KT 7000 -RA FEW009 BKN012 03/02
                        Q0984 NOSIG=
201501311150 METAR EGLL 311150Z 32007KT 9999 -RA SCT010 BKN017 04/02 Q0984
                        TEMPO BKN012=
201501311120 METAR COR EGLL 311120Z 32006KT 290V010 9999 SCT011 BKN015
                        04/02 Q0984 TEMPO BKN012=
201501311050 METAR COR EGLL 311050Z 32006KT 9999 BKN010 04/02 Q0983 NOSIG=
201501311020 METAR COR EGLL 311020Z 32008KT 290V350 9999 FEW009 BKN011
                        03/02 Q0983 NOSIG=
201501310950 METAR COR EGLL 310950Z 31006KT 9999 FEW007 SCT011 BKN013
                        03/02 Q0982 NOSIG=
201501310920 METAR COR EGLL 310920Z 28006KT 7000 -RA FEW006 BKN013 02/01
                        Q0981 NOSIG=
201501310850 METAR EGLL 310850Z 27007KT 7000 -RASN FEW007 SCT010 BKN018
                        01/01 Q0981 RESN RERA TEMPO 4000
                        RASN BKN007=
201501310820 METAR COR EGLL 310820Z 27007KT 5000 RASN FEW006 SCT007 BKN012
                        01/01 Q0981 TEMPO BKN006=
201501310750 METAR COR EGLL 310750Z 28005KT 6000 -RA SCT010 BKN014 02/01
                        Q0981 TEMPO 4000 RASN BKN009=
201501310720 METAR COR EGLL 310720Z 27009KT 9000 -RA FEW008 SCT022 BKN024
                        01/01 Q0980 TEMPO 4800 RASN BKN009=
201501310650 METAR EGLL 310650Z 27009KT 9999 -RA SCT010 BKN020 02/01 Q0980
                        TEMPO 4800 RASN BKN009=
201501310620 METAR COR EGLL 310620Z 27006KT 9999 SCT009 02/01 Q0980 TEMPO
                        4500 SHRASN BKN009=
201501310550 METAR EGLL 310550Z 26008KT 9999 SCT010 02/01 Q0980 TEMPO
                        4500 SHRASN SCT006 BKN010=
201501310520 METAR COR EGLL 310520Z 26010KT 9999 FEW006 SCT009 01/01 Q0980
                        TEMPO 4500 SHRA BKN009=
201501310450 METAR COR EGLL 310450Z 27008KT 9999 SCT006 SCT015 01/00 Q0980
                        TEMPO 4500 SHRASN BKN012=
201501310420 METAR COR EGLL 310420Z 27010KT 5000 -SN BKN008 01/M00 Q0980
                        REDZ BECMG 9999 NSW BKN012=
201501310350 METAR COR EGLL 310350Z 26008KT CAVOK 00/M01 Q0980 TEMPO 3000
                        SN SCT007 BKN010=
201501310320 METAR COR EGLL 310320Z 27007KT CAVOK 01/M01 Q0980 BECMG 3000
                        -SN BKN010=
201501310250 METAR EGLL 310250Z 25007KT CAVOK 01/M01 Q0980 BECMG 4500
                        -SN BKN012=
201501310220 METAR EGLL 310220Z AUTO 25008KT 9999 NCD 01/M01 Q0980=
201501310150 METAR EGLL 310150Z AUTO 26009KT 9999 NCD 01/M01 Q0980=
201501310120 METAR EGLL 310120Z AUTO 26008KT 9999 NCD 01/M01 Q0981=
201501310050 METAR COR EGLL 310050Z 27007KT CAVOK 00/M01 Q0981 NOSIG=
201501310020 METAR COR EGLL 310020Z 27007KT CAVOK 01/M01 Q0981 NOSIG=
201501302350 METAR COR EGLL 302350Z 27008KT CAVOK 01/M01 Q0981 NOSIG=
201501302320 METAR COR EGLL 302320Z 27009KT CAVOK 01/M01 Q0981 NOSIG=
201501302250 METAR COR EGLL 302250Z 26008KT CAVOK 02/M01 Q0980 NOSIG=
201501302220 METAR COR EGLL 302220Z 25009KT CAVOK 02/M00 Q0980 NOSIG=
201501302150 METAR EGLL 302150Z 26012KT CAVOK 03/M00 Q0980 NOSIG=
201501302120 METAR COR EGLL 302120Z 25010KT CAVOK 03/M00 Q0980 NOSIG=
201501302050 METAR EGLL 302050Z 27011KT 9999 FEW047 03/00 Q0980 NOSIG=
201501302020 METAR COR EGLL 302020Z 27008KT 9999 SCT047 03/00 Q0980 NOSIG=
201501301950 METAR COR EGLL 301950Z 28009KT 9999 SCT036 03/00 Q0980 NOSIG=
201501301920 METAR COR EGLL 301920Z 28007KT 9999 FEW045 03/00 Q0980 NOSIG=
201501301850 METAR EGLL 301850Z 28007KT 9999 FEW045 03/00 Q0980 NOSIG=
201501301820 METAR COR EGLL 301820Z 28008KT 9999 FEW033 03/01 Q0980 NOSIG=
201501301750 METAR EGLL 301750Z 27010KT 9999 FEW033 04/01 Q0980 NOSIG=
201501301720 METAR COR EGLL 301720Z 28007KT 9999 FEW035 04/01 Q0980 NOSIG=
201501301650 METAR EGLL 301650Z 28007KT 9999 FEW034 04/01 Q0980 NOSIG=
201501301620 METAR COR EGLL 301620Z 29006KT 9999 FEW033 06/01 Q0980 NOSIG=
201501301550 METAR COR EGLL 301550Z 30008KT 9999 FEW028 06/02 Q0980 NOSIG=
201501301520 METAR COR EGLL 301520Z 28009KT 9999 SCT030 SCT035 06/02 Q0980
                        NOSIG=
201501301450 METAR COR EGLL 301450Z 27011KT 9999 SCT030 SCT036 06/02 Q0980
                        NOSIG=
201501301420 METAR COR EGLL 301420Z 27009KT 9999 SCT035 SCT039 06/02 Q0980
                        NOSIG=
201501301350 METAR COR EGLL 301350Z 30008KT 9999 SCT024 SCT036 06/02 Q0980
                        NOSIG=
201501301320 METAR COR EGLL 301320Z 28011KT 9999 FEW030 BKN046 06/01 Q0980
                        NOSIG=
201501301250 METAR EGLL 301250Z 29010KT 9999 SCT033 06/01 Q0980 NOSIG=
201501301220 METAR COR EGLL 301220Z 30011KT 9999 SCT038 06/01 Q0980 NOSIG=
201501301150 METAR EGLL 301150Z 30007KT 9999 BKN040 06/01 Q0980 NOSIG=
201501301120 METAR COR EGLL 301120Z 30009KT 9999 FEW018 05/01 Q0980 NOSIG=
201501301050 METAR EGLL 301050Z 32010KT 9999 FEW018 04/00 Q0981 NOSIG=
201501301020 METAR COR EGLL 301020Z 32008KT 290V350 9999 FEW012 03/00
                        Q0981 TEMPO BKN014=
201501300950 METAR COR EGLL 300950Z 32008KT 9999 FEW009 BKN011 03/01 Q0980
                        BECMG BKN015=
201501300920 METAR COR EGLL 300920Z 32010KT 9999 FEW009 BKN011 02/01 Q0980
                        NOSIG=
201501300850 METAR EGLL 300850Z 33009KT 9999 SCT012 02/00 Q0980 NOSIG=
201501300820 METAR COR EGLL 300820Z 33010KT 310V020 9999 SCT012 02/01
                        Q0979 NOSIG=
201501300750 METAR COR EGLL 300750Z 35007KT 310V020 9999 FEW012 03/01
                        Q0978 NOSIG=
201501300720 METAR COR EGLL 300720Z 34011G21KT 9999 -RA FEW014 BKN019
                        04/01 Q0977 NOSIG=
201501300650 METAR EGLL 300650Z 30008KT 9999 -RA SCT018 BKN022 04/02 Q0976
                        NOSIG=
201501300620 METAR COR EGLL 300620Z 29009KT 9999 -RA BKN015 03/02 Q0976
                        TEMPO BKN014=
201501300550 METAR EGLL 300550Z 27008KT 9999 BKN020 03/02 Q0975 NOSIG=
201501300520 METAR COR EGLL 300520Z 24007KT 9999 BKN025 BKN032 03/02 Q0975
                        NOSIG=
201501300450 METAR EGLL 300450Z 21006KT 9999 BKN025 BKN030 03/01 Q0975
                        NOSIG=
201501300420 METAR COR EGLL 300420Z 22008KT 9000 -RA SCT017 SCT023 03/01
                        Q0975 TEMPO 4500 RASN BKN014=
201501300350 METAR COR EGLL 300350Z 21006KT 9999 BKN047 03/00 Q0975 TEMPO
                        4500 -SHRASN=
201501300320 METAR COR EGLL 300320Z 26008KT 9999 FEW040 04/M00 Q0976 TEMPO
                        4000 -RASN BKN014=
201501300250 METAR EGLL 300250Z 26010KT CAVOK 03/M00 Q0976 TEMPO 3000
                        -SN BKN010=
201501300220 METAR EGLL 300220Z AUTO 25011KT 9999 NCD 03/M00 Q0977=
201501300150 METAR EGLL 300150Z AUTO 25010KT 9999 SCT034/// //////TCU
                        03/M00 Q0978=
201501300120 METAR EGLL 300120Z AUTO 26010KT 9999 SCT030 03/M00 Q0978=
201501300050 METAR EGLL 300050Z 27011KT 9999 FEW028 SCT032 02/00 Q0978
                        TEMPO 3000 -SN BKN010=
201501300020 METAR COR EGLL 300020Z 27012KT 9999 FEW032 02/00 Q0978 TEMPO
                        3000 -SN BKN010=
201501292350 METAR COR EGLL 292350Z 27012KT 9999 FEW046 02/M00 Q0979 NOSIG=
201501292320 METAR COR EGLL 292320Z 27012KT CAVOK 01/M00 Q0978 NOSIG=
201501292250 METAR COR EGLL 292250Z 27014KT 9999 FEW040 01/M00 Q0978 NOSIG=
201501292220 METAR COR EGLL 292220Z 27014KT CAVOK 01/M00 Q0978 NOSIG=
201501292150 METAR EGLL 292150Z 27016KT 9999 SCT041 02/M00 Q0979 NOSIG=
201501292120 METAR COR EGLL 292120Z 27012KT 9999 SCT034 01/M00 Q0979 NOSIG=
201501292050 METAR COR EGLL 292050Z 27010KT 9999 FEW024 01/M01 Q0979 NOSIG=
201501292020 METAR COR EGLL 292020Z 27012KT CAVOK 01/M00 Q0979 NOSIG=
201501291950 METAR EGLL 291950Z 27011KT CAVOK 01/M00 Q0978 NOSIG=
201501291920 METAR COR EGLL 291920Z 28010KT 9999 FEW049 02/00 Q0978 NOSIG=
201501291850 METAR COR EGLL 291850Z 29010KT 9999 SCT046 02/M00 Q0978 NOSIG=
201501291820 METAR COR EGLL 291820Z 28010KT 9999 FEW019 SCT047 02/01 Q0978
                        NOSIG=
201501291750 METAR EGLL 291750Z 28010KT 9999 FEW022 02/01 Q0977 NOSIG=
201501291720 METAR COR EGLL 291720Z 31005KT 270V350 9999 FEW015 SCT020
                        03/01 Q0977 NOSIG=
201501291650 METAR COR EGLL 291650Z 27016KT 9999 VCSH SCT024CB 02/01 Q0977
                        NOSIG=
201501291620 METAR COR EGLL 291620Z 27014KT 9999 -SHRA SCT018 03/01 Q0977
                        NOSIG=
201501291550 METAR COR EGLL 291550Z 27014KT 9999 5000SW VCSH SCT022CB
                        SCT042 03/02 Q0977 NOSIG=
201501291520 METAR COR EGLL 291520Z 29011KT 260V320 9999 6000W -SHRA SCT014CB
                        SCT020 03/02 Q0978 RESHRA RESHSN
                        TEMPO 4500 SHRASN BKN012=
201501291450 METAR COR EGLL 291450Z 30015KT 8000 2000NE SHRASN SCT019CB
                        SCT022 05/01 Q0978 BECMG NSW=
201501291420 METAR COR EGLL 291420Z 25016KT 9999 SCT026 SCT040 06/00 Q0979
                        TEMPO 3500 SHRASN BKN014CB=
201501291350 METAR COR EGLL 291350Z 24014KT 9999 SCT026 SCT043 06/01 Q0980
                        TEMPO 3500 SHRASN BKN014CB=
201501291320 METAR COR EGLL 291320Z 24017KT 9999 FEW025 SCT030 06/00 Q0980
                        NOSIG=
201501291250 METAR COR EGLL 291250Z 25015KT 9999 SCT032 BKN038 06/01 Q0982
                        NOSIG=
201501291220 METAR COR EGLL 291220Z 25016KT 9999 SCT026 SCT030 06/01 Q0983
                        NOSIG=
201501291150 METAR EGLL 291150Z 25015KT 9999 FEW027 SCT029 06/01 Q0984
                        NOSIG=
201501291120 METAR COR EGLL 291120Z 24016KT 9999 SCT022 06/01 Q0985 NOSIG=
201501291050 METAR EGLL 291050Z 24015KT 9999 FEW023 05/01 Q0985 NOSIG=
201501291020 METAR COR EGLL 291020Z 24016KT 9999 FEW022 05/01 Q0986 NOSIG=
201501290950 METAR COR EGLL 290950Z 24015KT 9999 FEW022 04/01 Q0987 NOSIG=
201501290920 METAR COR EGLL 290920Z 24014KT 9999 FEW017 03/01 Q0987 NOSIG=
201501290850 METAR EGLL 290850Z 23012KT 9999 FEW017 03/01 Q0988 NOSIG=
201501290820 METAR COR EGLL 290820Z 24011KT 9999 FEW017 03/00 Q0989 NOSIG=
201501290750 METAR EGLL 290750Z 24012KT 9999 FEW019 03/00 Q0990 NOSIG=
201501290720 METAR COR EGLL 290720Z 24012KT 9999 FEW019 03/00 Q0990 NOSIG=
201501290650 METAR EGLL 290650Z 23011KT CAVOK 02/00 Q0991 NOSIG=
201501290620 METAR COR EGLL 290620Z 24012KT CAVOK 02/00 Q0992 NOSIG=
201501290550 METAR COR EGLL 290550Z 23011KT 9999 FEW020 02/00 Q0992 NOSIG=
201501290520 METAR COR EGLL 290520Z 24012KT CAVOK 02/00 Q0993 NOSIG=
201501290450 METAR EGLL 290450Z 24011KT CAVOK 02/00 Q0993 NOSIG=
201501290420 METAR EGLL 290420Z AUTO 24011KT 9999 NCD 02/00 Q0994=
201501290350 METAR EGLL 290350Z 24012KT CAVOK 02/00 Q0994 NOSIG=
201501290320 METAR EGLL 290320Z AUTO 25013KT 9999 NCD 03/00 Q0995=
201501290250 METAR EGLL 290250Z AUTO 25014KT 9999 NCD 03/M00 Q0996=
201501290220 METAR EGLL 290220Z AUTO 24015KT 9999 NCD 03/M00 Q0996=
201501290150 METAR COR EGLL 290150Z 24016KT CAVOK 03/00 Q0996 NOSIG=
201501290120 METAR COR EGLL 290120Z 24015KT CAVOK 02/00 Q0997 NOSIG=
201501290050 METAR COR EGLL 290050Z 25015KT CAVOK 03/00 Q0998 NOSIG=
201501290020 METAR COR EGLL 290020Z 24014KT CAVOK 03/M00 Q0998 NOSIG=
201501282350 METAR COR EGLL 282350Z 24017KT CAVOK 03/M00 Q0999 NOSIG=
201501282320 METAR COR EGLL 282320Z 24016KT CAVOK 03/M00 Q0999 NOSIG=
201501282250 METAR COR EGLL 282250Z 23016KT CAVOK 03/M01 Q1000 NOSIG=
201501282220 METAR COR EGLL 282220Z 25017KT CAVOK 03/M01 Q1000 NOSIG=
201501282150 METAR EGLL 282150Z 25016KT CAVOK 03/M01 Q1001 NOSIG=
201501282120 METAR COR EGLL 282120Z 25016KT CAVOK 04/M01 Q1002 NOSIG=
201501282050 METAR EGLL 282050Z 26016KT CAVOK 04/M01 Q1002 NOSIG=
201501282020 METAR COR EGLL 282020Z 26016KT CAVOK 04/M02 Q1002 NOSIG=
201501281950 METAR EGLL 281950Z 25016KT CAVOK 04/M02 Q1002 NOSIG=
201501281920 METAR COR EGLL 281920Z 25016KT CAVOK 04/M02 Q1002 NOSIG=
201501281850 METAR EGLL 281850Z 26014KT CAVOK 04/M02 Q1003 NOSIG=
201501281820 METAR COR EGLL 281820Z 27015KT CAVOK 04/M03 Q1003 NOSIG=
201501281750 METAR EGLL 281750Z 27015KT CAVOK 04/M03 Q1003 NOSIG=
201501281720 METAR COR EGLL 281720Z 27015KT CAVOK 05/M03 Q1003 NOSIG=
201501281650 METAR EGLL 281650Z 28017KT CAVOK 05/M03 Q1003 NOSIG=
201501281620 METAR COR EGLL 281620Z 29018KT 9999 FEW049 06/M03 Q1002 NOSIG=
201501281550 METAR EGLL 281550Z 29019KT 9999 FEW048 06/M03 Q1002 NOSIG=
201501281520 METAR COR EGLL 281520Z 28019G30KT 9999 FEW044 06/M02 Q1002
                        NOSIG=
201501281450 METAR EGLL 281450Z 29017G28KT 9999 FEW039 07/M01 Q1002=
201501281420 METAR COR EGLL 281420Z 29019KT 9999 FEW040 07/M01 Q1001 NOSIG=
201501281350 METAR EGLL 281350Z 29017KT 9999 SCT042 07/01 Q1001 NOSIG=
201501281320 METAR COR EGLL 281320Z 29019G30KT 9999 VCSH FEW029 07/02
                        Q1001 NOSIG=
201501281250 METAR EGLL 281250Z 28020KT 9999 FEW036 07/03 Q1001 NOSIG=
201501281220 METAR COR EGLL 281220Z 29018KT 9999 FEW019 SCT036 07/04 Q1001
                        RERA NOSIG=
201501281150 METAR COR EGLL 281150Z 26026KT 9999 VCSH SCT038CB 10/05 Q1000
                        TEMPO 3000 +SHRA SCT007 BKN010=
201501281120 METAR COR EGLL 281120Z 25023KT 9999 FEW047 10/06 Q1000 TEMPO
                        4000 +RA BKN012=
201501281050 METAR COR EGLL 281050Z 25022KT 9999 SCT017 10/07 Q1000 RESHRA
                        BECMG 4000 +RA BKN010=
201501281020 METAR COR EGLL 281020Z 24018KT 6000 -RADZ SCT011 BKN018 11/09
                        Q1001 TEMPO 4000 SHRA BKN010=
201501280950 METAR COR EGLL 280950Z 23016KT 9999 FEW007 BKN012 10/09 Q1002
                        TEMPO RA BKN009=
201501280920 METAR COR EGLL 280920Z 22015KT 9999 -RA SCT008 BKN011 10/09
                        Q1002 TEMPO BKN008=
201501280850 METAR COR EGLL 280850Z 22015KT 9999 -RA SCT009 BKN011 10/08
                        Q1003 TEMPO BKN009=
201501280820 METAR COR EGLL 280820Z 22015KT 9999 FEW008 BKN011 09/08 Q1005
                        TEMPO BKN009=
201501280750 METAR EGLL 280750Z 22014KT 9999 SCT008 BKN009 09/08 Q1006
                        TEMPO SCT009 BKN012=
201501280720 METAR COR EGLL 280720Z 22012KT 4400 -RA FEW006 BKN011 09/07
                        Q1007 TEMPO 6000 BKN008=
201501280650 METAR EGLL 280650Z 23013KT 9999 -RA FEW009 BKN011 09/07 Q1008
                        TEMPO BKN008=
201501280620 METAR COR EGLL 280620Z 21014KT 9999 SCT011 08/06 Q1008 BECMG
                        BKN011=
201501280550 METAR COR EGLL 280550Z 22013KT 9999 SCT012 08/06 Q1009 BECMG
                        BKN010=
201501280520 METAR COR EGLL 280520Z 23014KT 9999 BKN012 08/05 Q1010 NOSIG=
201501280450 METAR EGLL 280450Z 24012KT 9999 BKN013 07/05 Q1012 NOSIG=
201501280420 METAR COR EGLL 280420Z 24012KT 9999 BKN014 07/05 Q1012 NOSIG=
201501280350 METAR COR EGLL 280350Z 23011KT 9999 BKN015 07/04 Q1013 BECMG
                        BKN013=
201501280320 METAR COR EGLL 280320Z 23012KT 9999 OVC016 07/04 Q1014 TEMPO
                        BKN014=
201501280250 METAR COR EGLL 280250Z 22012KT 9999 BKN018 07/04 Q1015 TEMPO
                        BKN014=
201501280220 METAR EGLL 280220Z AUTO 21009KT 9999 OVC023 07/04 Q1016=
201501280150 METAR EGLL 280150Z AUTO 22010KT 9999 OVC026 07/04 Q1016=
201501280120 METAR EGLL 280120Z AUTO 22011KT 9999 SCT015 BKN025 07/04
                        Q1017=
201501280050 METAR COR EGLL 280050Z 23012KT 9999 BKN015 BKN024 07/04 Q1018
                        TEMPO BKN014=
201501280020 METAR COR EGLL 280020Z 22012KT 9999 FEW022 BKN027 07/03 Q1019
                        NOSIG=
201501272350 METAR COR EGLL 272350Z 22010KT 9999 BKN027 07/03 Q1019 NOSIG=
201501272320 METAR COR EGLL 272320Z 22010KT 9999 BKN026 07/03 Q1020 NOSIG=
201501272250 METAR EGLL 272250Z 23010KT 9999 BKN027 07/03 Q1021 NOSIG=
201501272220 METAR COR EGLL 272220Z 24010KT 9999 BKN025 07/03 Q1021 NOSIG=
201501272150 METAR EGLL 272150Z 24010KT 9999 BKN028 07/03 Q1021 NOSIG=
201501272120 METAR COR EGLL 272120Z 24010KT 9999 BKN029 07/03 Q1022 NOSIG=
201501272050 METAR EGLL 272050Z 25011KT 9999 BKN029 07/02 Q1023 NOSIG=
201501272020 METAR COR EGLL 272020Z 25008KT 9999 BKN028 07/03 Q1023 NOSIG=
201501271950 METAR EGLL 271950Z 24009KT 9999 BKN029 07/02 Q1023 NOSIG=
201501271920 METAR COR EGLL 271920Z 26010KT 9999 BKN031 07/02 Q1024 NOSIG=
201501271850 METAR COR EGLL 271850Z 27011KT 9999 BKN027 07/03 Q1025 NOSIG=
201501271820 METAR COR EGLL 271820Z 27010KT 9999 SCT024 BKN029 07/04 Q1024
                        NOSIG=
201501271750 METAR COR EGLL 271750Z 25008KT 9999 SCT021 BKN029 08/04 Q1024
                        NOSIG=
201501271720 METAR COR EGLL 271720Z 28006KT 9999 FEW022 BKN028 08/04 Q1025
                        NOSIG=
201501271650 METAR EGLL 271650Z 28006KT 9999 FEW023 BKN027 07/04 Q1025
                        NOSIG=
201501271620 METAR COR EGLL 271620Z 30004KT 9999 FEW030 BKN033 08/04 Q1025
                        NOSIG=
201501271550 METAR EGLL 271550Z 29006KT 9999 FEW024 BKN026 08/04 Q1025
                        NOSIG=
201501271520 METAR COR EGLL 271520Z 29008KT 9999 BKN023 08/04 Q1025 NOSIG=
201501271450 METAR EGLL 271450Z 27009KT 9999 BKN021 08/04 Q1026 NOSIG=
201501271420 METAR COR EGLL 271420Z 29007KT 270V330 9999 SCT023 09/04
                        Q1026 NOSIG=
201501271350 METAR COR EGLL 271350Z 29009KT 260V320 9999 FEW020 09/04
                        Q1026 NOSIG=
201501271320 METAR COR EGLL 271320Z 30009KT 9999 FEW019 09/04 Q1026 NOSIG=
201501271250 METAR COR EGLL 271250Z 28009KT 9999 FEW020 09/04 Q1027 NOSIG=
201501271220 METAR COR EGLL 271220Z 28011KT 9999 FEW020 09/04 Q1027 NOSIG=
201501271150 METAR EGLL 271150Z 29010KT CAVOK 08/04 Q1027 NOSIG=
201501271120 METAR COR EGLL 271120Z 27007KT CAVOK 07/04 Q1028 NOSIG=
201501271050 METAR EGLL 271050Z 29007KT CAVOK 07/04 Q1028 NOSIG=
201501271020 METAR COR EGLL 271020Z 27007KT CAVOK 06/03 Q1028 NOSIG=
201501270950 METAR EGLL 270950Z 27007KT CAVOK 06/03 Q1028 NOSIG=
201501270920 METAR COR EGLL 270920Z 27008KT CAVOK 05/03 Q1028 NOSIG=
201501270850 METAR COR EGLL 270850Z 28007KT CAVOK 05/03 Q1028 NOSIG=
201501270820 METAR COR EGLL 270820Z 28008KT CAVOK 04/03 Q1028 NOSIG=
201501270750 METAR EGLL 270750Z 27008KT CAVOK 04/02 Q1028 NOSIG=
201501270720 METAR COR EGLL 270720Z 28005KT CAVOK 04/02 Q1028 NOSIG=
201501270650 METAR COR EGLL 270650Z 27006KT CAVOK 04/02 Q1028 NOSIG=
201501270620 METAR COR EGLL 270620Z 28005KT CAVOK 05/02 Q1028 NOSIG=
201501270550 METAR COR EGLL 270550Z 28006KT CAVOK 04/02 Q1028 NOSIG=
201501270520 METAR COR EGLL 270520Z 28004KT CAVOK 04/02 Q1028 NOSIG=
201501270450 METAR COR EGLL 270450Z 29006KT CAVOK 04/02 Q1028 NOSIG=
201501270420 METAR COR EGLL 270420Z 29007KT CAVOK 03/02 Q1028 NOSIG=
201501270350 METAR EGLL 270350Z 29007KT CAVOK 03/01 Q1028 NOSIG=
201501270320 METAR COR EGLL 270320Z 28006KT CAVOK 03/01 Q1028 NOSIG=
201501270250 METAR COR EGLL 270250Z 29007KT CAVOK 02/01 Q1028 NOSIG=
201501270220 METAR EGLL 270220Z AUTO 29006KT 9999 NCD 01/00 Q1028=
201501270150 METAR EGLL 270150Z AUTO 28006KT 9999 NCD 02/00 Q1028=
201501270120 METAR EGLL 270120Z AUTO 28006KT 9999 NCD 02/01 Q1028=
201501270050 METAR EGLL 270050Z 27008KT CAVOK 02/01 Q1028 NOSIG=
201501270020 METAR COR EGLL 270020Z 28006KT CAVOK 02/01 Q1028 NOSIG=
201501262350 METAR COR EGLL 262350Z 29006KT CAVOK 04/01 Q1028 NOSIG=
201501262320 METAR COR EGLL 262320Z 29007KT CAVOK 04/01 Q1028 NOSIG=
201501262250 METAR EGLL 262250Z 30006KT CAVOK 05/02 Q1028 NOSIG=
201501262220 METAR COR EGLL 262220Z 29007KT CAVOK 05/02 Q1028 NOSIG=
201501262150 METAR COR EGLL 262150Z 30004KT CAVOK 06/02 Q1028 NOSIG=
201501262120 METAR COR EGLL 262120Z 31005KT CAVOK 06/02 Q1028 NOSIG=
201501262050 METAR EGLL 262050Z 30006KT CAVOK 06/02 Q1027 NOSIG=
201501262020 METAR COR EGLL 262020Z 27006KT CAVOK 04/01 Q1027 NOSIG=
201501261950 METAR EGLL 261950Z 29007KT CAVOK 06/02 Q1027 NOSIG=
201501261920 METAR COR EGLL 261920Z 30007KT 9999 FEW045 07/02 Q1027 NOSIG=
201501261850 METAR EGLL 261850Z 30005KT 9999 FEW045 07/02 Q1027 NOSIG=
201501261820 METAR COR EGLL 261820Z 29005KT 9999 FEW045 07/02 Q1026 NOSIG=
201501261750 METAR COR EGLL 261750Z 31004KT 9999 SCT049 07/02 Q1026 NOSIG=
201501261720 METAR COR EGLL 261720Z 30006KT 9999 FEW040 SCT049 07/02 Q1026
                        NOSIG=
201501261650 METAR EGLL 261650Z 30006KT 9999 FEW044 08/02 Q1025 NOSIG=
201501261620 METAR COR EGLL 261620Z 30007KT 9999 SCT039 08/02 Q1025 NOSIG=
201501261550 METAR EGLL 261550Z 32008KT 9999 SCT048 08/01 Q1025 NOSIG=
201501261520 METAR COR EGLL 261520Z 31008KT 9999 FEW037 08/01 Q1024 NOSIG=
201501261450 METAR EGLL 261450Z 32009KT 9999 FEW034 09/01 Q1024 NOSIG=
201501261420 METAR COR EGLL 261420Z 33006KT 300V360 9999 FEW029 09/03
                        Q1023 NOSIG=
201501261350 METAR COR EGLL 261350Z 32009KT 300V010 9999 FEW043 09/03
                        Q1023 NOSIG=
201501261320 METAR COR EGLL 261320Z 32010KT 9999 BKN027 10/04 Q1024 NOSIG=
201501261250 METAR EGLL 261250Z 33010KT 310V020 9999 SCT030 SCT034 10/04
                        Q1023 NOSIG=
201501261220 METAR COR EGLL 261220Z 34006KT 310V010 9999 SCT022 BKN030
                        10/04 Q1023 NOSIG=
201501261150 METAR EGLL 261150Z 35008KT 310V030 9999 SCT021 SCT030 10/06
                        Q1023 NOSIG=
201501261120 METAR COR EGLL 261120Z 32007KT 9999 FEW018 SCT024 BKN031
                        11/07 Q1023 NOSIG=
201501261050 METAR COR EGLL 261050Z 32006KT 290V360 9999 FEW006 SCT026
                        10/07 Q1022 NOSIG=
201501261020 METAR COR EGLL 261020Z 29006KT 9999 8000NE -RA SCT007 BKN010
                        10/09 Q1022 BECMG 9999 NSW BKN030=
201501260950 METAR COR EGLL 260950Z 27009KT 9999 FEW010 BKN012 10/08 Q1022
                        BECMG FEW012 BKN030=
201501260920 METAR COR EGLL 260920Z 28009KT 9999 BKN013 10/08 Q1022 BECMG
                        FEW013 BKN030=
201501260850 METAR COR EGLL 260850Z 27009KT 9999 FEW010 BKN014 09/08 Q1022
                        BECMG BKN030=
201501260820 METAR COR EGLL 260820Z 27008KT 9999 FEW010 BKN013 09/08 Q1021
                        NOSIG=
201501260750 METAR COR EGLL 260750Z 27010KT 9999 -RA BKN012 09/08 Q1022
                        TEMPO BKN015=
201501260720 METAR COR EGLL 260720Z 27011KT 9999 BKN016 09/08 Q1021 TEMPO
                        BKN014=
201501260650 METAR EGLL 260650Z 25011KT 9999 -RA SCT016 09/08 Q1021 TEMPO
                        BKN014=
201501260620 METAR COR EGLL 260620Z 25011KT 9999 -RA SCT017 09/08 Q1021
                        TEMPO BKN012=
201501260550 METAR COR EGLL 260550Z 25009KT 9999 -RA FEW012 SCT016 09/08
                        Q1021 TEMPO BKN012=
201501260520 METAR COR EGLL 260520Z 25009KT 9999 FEW011 SCT016 09/08 Q1022
                        TEMPO BKN012=
201501260450 METAR EGLL 260450Z 25010KT 9999 FEW011 BKN017 09/07 Q1022
                        TEMPO BKN012=
201501260420 METAR COR EGLL 260420Z 25008KT 9999 BKN015 09/07 Q1022 TEMPO
                        BKN012=
201501260350 METAR EGLL 260350Z 24009KT 9999 SCT012 SCT017 09/07 Q1022
                        TEMPO BKN012=
201501260320 METAR COR EGLL 260320Z 25009KT 9999 BKN012 09/07 Q1023 TEMPO
                        BKN009=
201501260250 METAR COR EGLL 260250Z 23006KT 9999 BKN014 09/07 Q1023 TEMPO
                        BKN009=
201501260220 METAR EGLL 260220Z AUTO 24009KT 9999 OVC011 09/07 Q1023=
201501260150 METAR EGLL 260150Z AUTO 24009KT 9999 OVC012 09/07 Q1024=
201501260120 METAR EGLL 260120Z AUTO 23009KT 9999 OVC011 09/07 Q1024=
201501260050 METAR EGLL 260050Z 24009KT 9999 BKN010 09/07 Q1025 TEMPO
                        BKN009=
201501260020 METAR COR EGLL 260020Z 25010KT 9999 BKN011 08/06 Q1025 TEMPO
                        BKN009=
201501252350 METAR EGLL 252350Z 24010KT 9999 BKN013 08/06 Q1025 TEMPO
                        BKN009=
201501252320 METAR COR EGLL 252320Z 24008KT 9999 BKN013 08/06 Q1025 TEMPO
                        BKN009=
201501252250 METAR EGLL 252250Z 24010KT 9999 BKN012 08/06 Q1026 TEMPO
                        BKN009=
201501252220 METAR COR EGLL 252220Z 24010KT 9999 BKN013 08/06 Q1026 TEMPO
                        BKN009=
201501252150 METAR COR EGLL 252150Z 25012KT 9999 BKN013 08/05 Q1026 TEMPO
                        BKN009=
201501252120 METAR COR EGLL 252120Z 25009KT 9999 BKN012 08/05 Q1026 TEMPO
                        BKN009=
201501252050 METAR COR EGLL 252050Z 24010KT 9999 BKN014 08/05 Q1027 TEMPO
                        BKN015=
201501252020 METAR COR EGLL 252020Z 23009KT 9999 BKN015 08/04 Q1027 TEMPO
                        BKN014=
201501251950 METAR COR EGLL 251950Z 22009KT 9999 BKN016 07/04 Q1027 TEMPO
                        BKN014=
201501251920 METAR COR EGLL 251920Z 22010KT 9999 BKN018 08/04 Q1027 NOSIG=
201501251850 METAR COR EGLL 251850Z 22006KT 190V250 9999 BKN019 08/04
                        Q1027 TEMPO BKN014=
201501251820 METAR COR EGLL 251820Z 24007KT 9999 BKN018 08/04 Q1028 TEMPO
                        BKN014=
201501251750 METAR COR EGLL 251750Z 24008KT 9999 BKN020 08/04 Q1028 TEMPO
                        BKN014=
201501251720 METAR COR EGLL 251720Z 23008KT 9999 BKN021 08/04 Q1028 NOSIG=
201501251650 METAR COR EGLL 251650Z 24008KT 9999 BKN023 08/04 Q1028 NOSIG=
201501251620 METAR COR EGLL 251620Z 24009KT 210V280 9999 BKN024 08/04
                        Q1028 NOSIG=
201501251550 METAR COR EGLL 251550Z 23007KT 9999 BKN025 08/04 Q1028 NOSIG=
201501251520 METAR COR EGLL 251520Z 23008KT 9999 BKN024 08/04 Q1028 NOSIG=
201501251450 METAR COR EGLL 251450Z 24010KT 9999 OVC024 08/03 Q1029 NOSIG=
201501251420 METAR COR EGLL 251420Z 25010KT 210V270 9999 BKN023 08/03
                        Q1029 NOSIG=
201501251350 METAR COR EGLL 251350Z 26011KT 9999 BKN025 08/03 Q1029 NOSIG=
201501251320 METAR COR EGLL 251320Z 25015KT 9999 BKN029 08/03 Q1029 NOSIG=
201501251250 METAR COR EGLL 251250Z 25010KT 9999 BKN030 08/03 Q1029 NOSIG=
201501251220 METAR COR EGLL 251220Z 23009KT 200V260 9999 BKN028 07/02
                        Q1030 NOSIG=
201501251150 METAR EGLL 251150Z 23008KT 190V270 9999 BKN029 07/02 Q1030
                        NOSIG=
201501251120 METAR COR EGLL 251120Z 23009KT 9999 BKN032 06/02 Q1031 NOSIG=
201501251050 METAR EGLL 251050Z 23007KT 9999 BKN033 05/02 Q1031 NOSIG=
201501251020 METAR COR EGLL 251020Z 23005KT 180V320 9999 BKN035 04/02
                        Q1031 NOSIG=
201501250950 METAR COR EGLL 250950Z 00000KT 9999 BKN038 03/01 Q1032 NOSIG=
201501250920 METAR COR EGLL 250920Z 29004KT 250V320 9999 BKN037 02/01
                        Q1031 NOSIG=
201501250850 METAR EGLL 250850Z 25005KT 9999 BKN039 01/00 Q1031 NOSIG=
201501250820 METAR COR EGLL 250820Z 22004KT 9999 SCT038 01/M00 Q1032 NOSIG=
201501250750 METAR EGLL 250750Z VRB03KT 9999 SCT040 01/M00 Q1032 NOSIG=
201501250720 METAR COR EGLL 250720Z 26006KT 9999 BKN043 00/M00 Q1032 NOSIG=
201501250650 METAR EGLL 250650Z VRB04KT 9999 FEW043 M01/M01 Q1032 NOSIG=
201501250620 METAR COR EGLL 250620Z 20004KT 160V230 CAVOK M01/M02 Q1032
                        NOSIG=
201501250550 METAR EGLL 250550Z 00000KT CAVOK 00/M01 Q1032 NOSIG=
201501250520 METAR COR EGLL 250520Z 25006KT CAVOK M00/M01 Q1032 NOSIG=
201501250450 METAR EGLL 250450Z 27006KT CAVOK 00/M01 Q1032 NOSIG=
201501250420 METAR COR EGLL 250420Z 27008KT CAVOK 01/M01 Q1032 NOSIG=
201501250350 METAR COR EGLL 250350Z 27006KT CAVOK 00/M01 Q1032 NOSIG=
201501250320 METAR COR EGLL 250320Z 00000KT CAVOK 01/M01 Q1032 NOSIG=
201501250250 METAR EGLL 250250Z 00000KT CAVOK 01/M00 Q1032 NOSIG=
201501250220 METAR COR EGLL 250220Z 28004KT CAVOK 01/M00 Q1032 NOSIG=
201501250150 METAR COR EGLL 250150Z 28005KT CAVOK 00/M01 Q1032 NOSIG=
201501250120 METAR EGLL 250120Z 28006KT CAVOK 01/M00 Q1031=
201501250050 METAR EGLL 250050Z 28007KT CAVOK 00/M01 Q1031 NOSIG=
201501250020 METAR COR EGLL 250020Z 29004KT CAVOK 01/M00 Q1032 NOSIG=
201501242350 METAR COR EGLL 242350Z 28003KT CAVOK 01/M00 Q1032 NOSIG=
201501242320 METAR COR EGLL 242320Z 27007KT CAVOK 02/00 Q1032 NOSIG=
201501242250 METAR COR EGLL 242250Z 28006KT CAVOK 02/M00 Q1032 NOSIG=
201501242220 METAR COR EGLL 242220Z 27007KT CAVOK 03/00 Q1032 NOSIG=
201501242150 METAR EGLL 242150Z 28008KT CAVOK 03/00 Q1032 NOSIG=
201501242120 METAR COR EGLL 242120Z 27007KT CAVOK 03/M00 Q1032 NOSIG=
201501242050 METAR EGLL 242050Z 27008KT CAVOK 03/M00 Q1031 NOSIG=
201501242020 METAR COR EGLL 242020Z 27007KT CAVOK 03/M00 Q1031 NOSIG=
201501241950 METAR EGLL 241950Z 27006KT CAVOK 03/M00 Q1031 NOSIG=
201501241920 METAR COR EGLL 241920Z 28005KT CAVOK 04/M00 Q1031 NOSIG=
201501241850 METAR EGLL 241850Z 28006KT CAVOK 03/M00 Q1031 NOSIG=
201501241820 METAR COR EGLL 241820Z VRB02KT CAVOK 04/M00 Q1030 NOSIG=
201501241750 METAR EGLL 241750Z 30005KT CAVOK 05/M00 Q1030 NOSIG=
201501241720 METAR COR EGLL 241720Z 31006KT CAVOK 06/M00 Q1030 NOSIG=
201501241650 METAR EGLL 241650Z 31008KT CAVOK 06/M00 Q1029 NOSIG=
201501241620 METAR COR EGLL 241620Z 30007KT CAVOK 07/00 Q1029 NOSIG=
201501241550 METAR EGLL 241550Z 30009KT CAVOK 07/00 Q1029 NOSIG=
201501241520 METAR COR EGLL 241520Z 31010KT 280V340 9999 FEW038 07/00
                        Q1029 NOSIG=
201501241450 METAR EGLL 241450Z 32010KT 290V350 9999 FEW035 07/M00 Q1028
                        NOSIG=
201501241420 METAR COR EGLL 241420Z 32010KT 270V360 9999 FEW035 07/00
                        Q1028 NOSIG=
201501241350 METAR COR EGLL 241350Z 33008KT 9999 FEW029 07/00 Q1028 NOSIG=
201501241320 METAR COR EGLL 241320Z 31009KT 9999 FEW029 07/00 Q1027 NOSIG=
201501241250 METAR COR EGLL 241250Z 32011KT 9999 FEW028 07/00 Q1027 NOSIG=
201501241220 METAR COR EGLL 241220Z 32010KT 9999 FEW024 06/00 Q1027 NOSIG=
201501241150 METAR EGLL 241150Z 31010KT 260V340 CAVOK 06/00 Q1027 NOSIG=
201501241120 METAR COR EGLL 241120Z 32008KT CAVOK 06/00 Q1026 NOSIG=
201501241050 METAR EGLL 241050Z 30010KT CAVOK 06/00 Q1026 NOSIG=
201501241020 METAR COR EGLL 241020Z 30009KT CAVOK 05/00 Q1026 NOSIG=
201501240950 METAR EGLL 240950Z 31009KT CAVOK 04/00 Q1025 NOSIG=
201501240920 METAR COR EGLL 240920Z 30008KT CAVOK 04/01 Q1025 NOSIG=
201501240850 METAR COR EGLL 240850Z 30006KT CAVOK 03/00 Q1025 NOSIG=
201501240820 METAR COR EGLL 240820Z 31004KT CAVOK 04/01 Q1024 NOSIG=
201501240750 METAR EGLL 240750Z 29006KT CAVOK 03/01 Q1024 NOSIG=
201501240720 METAR COR EGLL 240720Z 29005KT CAVOK 04/01 Q1023 NOSIG=
201501240650 METAR COR EGLL 240650Z 30007KT CAVOK 04/01 Q1023 NOSIG=
201501240620 METAR COR EGLL 240620Z 31008KT CAVOK 04/01 Q1022 NOSIG=
201501240550 METAR COR EGLL 240550Z 30008KT 9999 FEW040 04/01 Q1022 NOSIG=
201501240520 METAR COR EGLL 240520Z 29005KT 9999 FEW036 04/01 Q1021 NOSIG=
201501240450 METAR COR EGLL 240450Z 31005KT CAVOK 04/02 Q1021 NOSIG=
201501240420 METAR COR EGLL 240420Z 32006KT 290V360 CAVOK 05/02 Q1020
                        NOSIG=
201501240350 METAR COR EGLL 240350Z 29006KT CAVOK 05/03 Q1020 NOSIG=
201501240320 METAR COR EGLL 240320Z 30005KT 9999 FEW020 SCT035 06/04 Q1019
                        NOSIG=
201501240250 METAR EGLL 240250Z 31006KT 9999 FEW028 06/04 Q1019 NOSIG=
201501240220 METAR COR EGLL 240220Z 33009KT 9999 -RA SCT042 BKN048 07/04
                        Q1018 RERA REDZ NOSIG=
201501240150 METAR EGLL 240150Z 29010KT 260V340 4300 RADZ FEW007 SCT010
                        BKN014 09/08 Q1017=
201501240120 METAR EGLL 240120Z AUTO 24009KT 4100 DZ BKN005 BKN012 08/08
                        Q1016=
201501240050 METAR EGLL 240050Z AUTO 22010KT 9000 SCT004/// BKN009///
                        BKN013/// //////TCU 08/07 Q1017=
201501240020 METAR COR EGLL 240020Z 22011KT 5000 -RADZ SCT006 BKN008 08/07
                        Q1017 TEMPO 3000 RADZ=
201501232350 METAR COR EGLL 232350Z 21011KT 8000 -RA SCT007 BKN008 07/07
                        Q1017 TEMPO 4000 RADZ=
201501232320 METAR COR EGLL 232320Z 21011KT 9999 -RA SCT008 BKN012 07/06
                        Q1018 TEMPO 4000 RADZ BKN008=
201501232250 METAR EGLL 232250Z 21011KT 5000 -RADZ FEW006 SCT008 BKN010
                        07/06 Q1019 TEMPO 4000 RADZ BKN008=
201501232220 METAR COR EGLL 232220Z 21011KT 8000 -RA FEW009 BKN014 07/06
                        Q1019 TEMPO 4000 RADZ=
201501232150 METAR COR EGLL 232150Z 21010KT 9000 -RA BKN013 BKN029 07/05
                        Q1020 TEMPO RA=
201501232120 METAR COR EGLL 232120Z 21010KT 8000 SCT017 BKN030 06/05 Q1020
                        TEMPO RA BKN012=
201501232050 METAR COR EGLL 232050Z 20010KT 9000 SCT026 BKN037 06/04 Q1020
                        TEMPO RA BKN012=
201501232020 METAR COR EGLL 232020Z 20011KT 9000 FEW030 BKN040 06/04 Q1021
                        NOSIG=
201501231950 METAR EGLL 231950Z 20012KT 9999 BKN042 06/03 Q1021 NOSIG=
201501231920 METAR COR EGLL 231920Z 20010KT 9999 BKN046 05/02 Q1022 NOSIG=
201501231850 METAR COR EGLL 231850Z 19008KT 150V230 8000 BKN048 04/02
                        Q1022 NOSIG=
201501231820 METAR COR EGLL 231820Z 18007KT 8000 NSC 04/01 Q1022 NOSIG=
201501231750 METAR EGLL 231750Z 19008KT 160V230 8000 NSC 03/01 Q1022 NOSIG=
201501231720 METAR COR EGLL 231720Z 18008KT 8000 NSC 03/01 Q1023 NOSIG=
201501231650 METAR EGLL 231650Z 18010KT 8000 NSC 03/01 Q1023 NOSIG=
201501231620 METAR COR EGLL 231620Z 19009KT 9000 NSC 04/01 Q1023 NOSIG=
201501231550 METAR EGLL 231550Z 19008KT 150V230 CAVOK 04/01 Q1023 NOSIG=
201501231520 METAR COR EGLL 231520Z 19008KT 160V220 CAVOK 04/01 Q1024
                        NOSIG=
201501231450 METAR COR EGLL 231450Z 20008KT 160V240 CAVOK 05/01 Q1024
                        NOSIG=
201501231420 METAR COR EGLL 231420Z 21008KT 190V250 CAVOK 05/00 Q1024
                        NOSIG=
201501231350 METAR COR EGLL 231350Z 22009KT 180V240 CAVOK 04/00 Q1024
                        NOSIG=
201501231320 METAR COR EGLL 231320Z 21008KT 180V250 CAVOK 04/M00 Q1025
                        NOSIG=
201501231250 METAR EGLL 231250Z 22008KT 180V260 CAVOK 04/M00 Q1025 NOSIG=
201501231220 METAR COR EGLL 231220Z 21009KT 160V250 CAVOK 03/M01 Q1025
                        NOSIG=
201501231150 METAR EGLL 231150Z 21008KT 160V250 9000 NSC 03/M01 Q1026
                        NOSIG=
201501231120 METAR COR EGLL 231120Z 21008KT 180V250 8000 NSC 02/M01 Q1026
                        NOSIG=
201501231050 METAR EGLL 231050Z 20005KT 140V260 6000 NSC 01/M01 Q1026
                        NOSIG=
201501231020 METAR COR EGLL 231020Z 23006KT 190V260 5000 BR NSC M01/M02
                        Q1026 NOSIG=
201501230950 METAR EGLL 230950Z 25004KT 230V300 5000 BR NSC M02/M02 Q1026
                        NOSIG=
201501230920 METAR COR EGLL 230920Z VRB03KT 4500 BR NSC M02/M03 Q1026
                        BECMG 7000=
201501230850 METAR COR EGLL 230850Z 29003KT 4200 BR NSC M02/M03 Q1026
                        NOSIG=
201501230820 METAR COR EGLL 230820Z VRB02KT 3500 BR NSC M04/M04 Q1026
                        NOSIG=
201501230750 METAR EGLL 230750Z 00000KT 3500 BR NSC M04/M04 Q1026 NOSIG=
201501230720 METAR COR EGLL 230720Z VRB04KT 3200 BR FEW001 M04/M04 Q1026
                        NOSIG=
201501230650 METAR COR EGLL 230650Z 18004KT 170V230 3200 BR BCFG NSC M04/M05
                        Q1026 NOSIG=
201501230620 METAR COR EGLL 230620Z 18004KT 150V220 2800 BR BCFG NSC M04/M05
                        Q1026 NOSIG=
201501230550 METAR EGLL 230550Z VRB02KT 3200 BR NSC M04/M04 Q1026 NOSIG=
201501230520 METAR COR EGLL 230520Z 00000KT 3000 BR NSC M04/M04 Q1026
                        NOSIG=
201501230450 METAR COR EGLL 230450Z 00000KT 3000 BR NSC M04/M04 Q1026
                        NOSIG=
201501230420 METAR COR EGLL 230420Z 27002KT 3000 BR NSC M03/M04 Q1025
                        NOSIG=
201501230350 METAR COR EGLL 230350Z 29002KT 3000 BR NSC M04/M04 Q1025
                        NOSIG=
201501230320 METAR COR EGLL 230320Z 27003KT 4100 HZ NSC M03/M03 Q1025
                        NOSIG=
201501230250 METAR COR EGLL 230250Z 00000KT 4000 HZ NSC M03/M04 Q1025
                        NOSIG=
201501230220 METAR EGLL 230220Z AUTO VRB02KT 3500 HZ NCD M03/M04 Q1026=
201501230150 METAR EGLL 230150Z AUTO 29002KT 4400 HZ NCD M02/M03 Q1026=
201501230120 METAR EGLL 230120Z AUTO 29003KT 3000 BR NCD M04/M05 Q1026=
201501230050 METAR COR EGLL 230050Z VRB02KT 5000 HZ NSC M03/M04 Q1026
                        BECMG 4000 BR=
201501230020 METAR COR EGLL 230020Z 30002KT 5000 HZ NSC M02/M04 Q1026
                        BECMG 4000 BR=
201501222350 METAR COR EGLL 222350Z VRB02KT 5000 HZ NSC M02/M03 Q1026
                        NOSIG=
201501222320 METAR COR EGLL 222320Z VRB02KT 6000 NSC M01/M03 Q1025 TEMPO
                        4000 BR=
201501222250 METAR COR EGLL 222250Z 00000KT 6000 NSC M01/M03 Q1025 NOSIG=
201501222220 METAR COR EGLL 222220Z 35003KT 6000 NSC 00/M02 Q1025 NOSIG=
201501222150 METAR EGLL 222150Z 36003KT 6000 NSC M00/M03 Q1025 NOSIG=
201501222120 METAR COR EGLL 222120Z 35003KT 7000 NSC M00/M03 Q1025 NOSIG=
201501222050 METAR COR EGLL 222050Z 35003KT 7000 NSC M00/M03 Q1025 NOSIG=
201501222020 METAR COR EGLL 222020Z 36003KT 7000 NSC M00/M03 Q1025 NOSIG=
201501221950 METAR EGLL 221950Z 35003KT 8000 NSC 01/M03 Q1025 NOSIG=
201501221920 METAR COR EGLL 221920Z 35003KT 8000 FEW024 01/M03 Q1024 NOSIG=
201501221850 METAR COR EGLL 221850Z 35003KT 8000 NSC 00/M03 Q1024 NOSIG=
201501221820 METAR COR EGLL 221820Z 01003KT 9000 NSC 01/M03 Q1024 NOSIG=
201501221750 METAR EGLL 221750Z 04004KT 9000 NSC 02/M02 Q1023 NOSIG=
201501221720 METAR COR EGLL 221720Z 03004KT 360V060 9000 FEW028 02/M02
                        Q1023 NOSIG=
201501221650 METAR COR EGLL 221650Z 05004KT 010V080 9999 FEW028 02/M02
                        Q1023 NOSIG=
201501221620 METAR COR EGLL 221620Z 02006KT 9999 SCT028 03/M02 Q1022 NOSIG=
201501221550 METAR EGLL 221550Z 35004KT 9999 FEW029 03/M02 Q1022 NOSIG=
201501221520 METAR COR EGLL 221520Z 36004KT 9999 FEW029 03/M02 Q1022 NOSIG=
201501221450 METAR COR EGLL 221450Z 02005KT 340V060 9999 SCT029 04/M02
                        Q1021 NOSIG=
201501221420 METAR COR EGLL 221420Z 35004KT 320V030 9999 BKN028 04/M01
                        Q1021 NOSIG=
201501221350 METAR EGLL 221350Z 36004KT 320V050 9999 BKN028 04/M01 Q1021
                        NOSIG=
201501221320 METAR COR EGLL 221320Z 36006KT 9999 BKN032 04/M01 Q1021 NOSIG=
201501221250 METAR COR EGLL 221250Z 01005KT 330V050 9999 BKN032 04/M01
                        Q1021 NOSIG=
201501221220 METAR COR EGLL 221220Z 03005KT 340V080 9999 BKN034 04/M01
                        Q1021 NOSIG=
201501221150 METAR COR EGLL 221150Z 03004KT 350V050 9999 BKN033 04/M01
                        Q1021 NOSIG=
201501221120 METAR COR EGLL 221120Z 03004KT 350V060 9999 BKN033 03/M00
                        Q1021 NOSIG=
201501221050 METAR EGLL 221050Z 04004KT 350V060 7000 BKN034 03/00 Q1021
                        NOSIG=
201501221020 METAR COR EGLL 221020Z VRB03KT 7000 BKN033 02/00 Q1020 NOSIG=
201501220950 METAR COR EGLL 220950Z 36003KT 6000 SCT033 01/M00 Q1020 NOSIG=
201501220920 METAR COR EGLL 220920Z 35003KT 6000 FEW032 01/M00 Q1020 NOSIG=
201501220850 METAR EGLL 220850Z 34003KT 6000 SCT032 00/M01 Q1019 NOSIG=
201501220820 METAR COR EGLL 220820Z VRB03KT 5000 BR SCT032 00/M01 Q1019
                        NOSIG=
201501220750 METAR COR EGLL 220750Z 04003KT 4700 BR SCT030 00/M01 Q1018
                        TEMPO 6000=
201501220720 METAR COR EGLL 220720Z 05002KT 6000 FEW031 00/M00 Q1018 TEMPO
                        4000=
201501220650 METAR EGLL 220650Z VRB02KT 5000 BR SCT033 01/M00 Q1018 TEMPO
                        4000=
201501220620 METAR COR EGLL 220620Z 01003KT 5000 BR BKN033 01/00 Q1017
                        TEMPO 4000=
201501220550 METAR EGLL 220550Z VRB03KT 5000 BR BKN030 01/M00 Q1017 TEMPO
                        4000=
201501220520 METAR COR EGLL 220520Z 35004KT 5000 BR BKN030 00/M00 Q1016
                        TEMPO 4000=
201501220450 METAR COR EGLL 220450Z 35003KT 5000 BR BKN030 00/M00 Q1016
                        TEMPO 4000=
201501220420 METAR COR EGLL 220420Z 03003KT 5000 BR SCT029 M00/M01 Q1016
                        TEMPO 4000=
201501220350 METAR EGLL 220350Z 36002KT 5000 BR FEW024 00/M00 Q1015 TEMPO
                        4500=
201501220320 METAR EGLL 220320Z AUTO 02002KT 4600 HZ FEW024 SCT027 00/M01
                        Q1015=
201501220250 METAR EGLL 220250Z AUTO 02003KT 4500 HZ NCD 00/M01 Q1015=
201501220220 METAR EGLL 220220Z AUTO 04004KT 5000 NCD 01/00 Q1015=
201501220150 METAR COR EGLL 220150Z 03003KT 7000 NSC 01/00 Q1014 NOSIG=
201501220120 METAR EGLL 220120Z 04004KT 7000 FEW020 01/00 Q1014=
201501220050 METAR COR EGLL 220050Z 04003KT 7000 BKN024 02/00 Q1014 NOSIG=
201501220020 METAR COR EGLL 220020Z 04003KT 8000 BKN024 02/00 Q1014 NOSIG=
201501212350 METAR COR EGLL 212350Z 04003KT 8000 BKN022 03/01 Q1014 NOSIG=
201501212320 METAR COR EGLL 212320Z 04004KT 9000 BKN022 03/01 Q1014 NOSIG=
201501212250 METAR EGLL 212250Z 04004KT 9000 BKN020 03/01 Q1013 NOSIG=
201501212220 METAR COR EGLL 212220Z 06004KT 9000 SCT018 03/01 Q1013 NOSIG=
201501212150 METAR EGLL 212150Z 07003KT 9000 BKN022 03/01 Q1013 NOSIG=
201501212120 METAR COR EGLL 212120Z 06003KT 9999 SCT020 03/01 Q1012 NOSIG=
201501212050 METAR COR EGLL 212050Z 06003KT 9000 BKN020 03/01 Q1012 NOSIG=
201501212020 METAR COR EGLL 212020Z 08004KT 9000 BKN020 03/01 Q1011 NOSIG=
201501211950 METAR EGLL 211950Z 09004KT 8000 BKN020 03/01 Q1011 NOSIG=
201501211920 METAR COR EGLL 211920Z 10006KT 8000 FEW014 BKN019 03/02 Q1011
                        NOSIG=
201501211850 METAR COR EGLL 211850Z 09006KT 8000 SCT014 BKN019 03/02 Q1011
                        NOSIG=
201501211820 METAR COR EGLL 211820Z 08005KT 8000 BKN014 03/02 Q1010 BECMG
                        SCT014 BKN016=
201501211750 METAR EGLL 211750Z 08006KT 8000 BKN012 04/02 Q1010 NOSIG=
201501211720 METAR COR EGLL 211720Z 10006KT 8000 BKN012 04/02 Q1009 NOSIG=
201501211650 METAR EGLL 211650Z 09006KT 7000 -DZ BKN011 04/02 Q1009 NOSIG=
201501211620 METAR COR EGLL 211620Z 10006KT 7000 -RA BKN011 03/02 Q1009
                        NOSIG=
201501211550 METAR EGLL 211550Z 09007KT 6000 -RA BKN010 04/02 Q1008 NOSIG=
201501211520 METAR COR EGLL 211520Z 09008KT 7000 FEW011 SCT016 BKN029
                        04/02 Q1008 TEMPO BKN014=
201501211450 METAR EGLL 211450Z 10008KT 7000 FEW009 BKN014 04/02 Q1008
                        NOSIG=
201501211420 METAR COR EGLL 211420Z 10008KT 8000 BKN010 04/02 Q1007 NOSIG=
201501211350 METAR EGLL 211350Z 11007KT 9999 BKN010 04/02 Q1007 NOSIG=
201501211320 METAR COR EGLL 211320Z 11008KT 9999 BKN011 04/02 Q1007 NOSIG=
201501211250 METAR EGLL 211250Z 10010KT 9000 FEW011 BKN013 04/02 Q1007
                        NOSIG=
201501211220 METAR COR EGLL 211220Z 10009KT 9999 FEW011 BKN013 04/02 Q1007
                        TEMPO SCT013 BKN016=
201501211150 METAR COR EGLL 211150Z 11008KT 9999 FEW011 BKN014 04/02 Q1007
                        TEMPO SCT014 BKN016=
201501211120 METAR COR EGLL 211120Z 11007KT 9999 SCT010 BKN014 04/02 Q1007
                        TEMPO SCT014 BKN018=
201501211050 METAR COR EGLL 211050Z 11007KT 9999 BKN010 03/02 Q1007 BECMG
                        SCT010=
201501211020 METAR COR EGLL 211020Z 10007KT 9999 BKN011 04/02 Q1007 TEMPO
                        SCT012=
201501210950 METAR EGLL 210950Z 11009KT 9999 SCT011 BKN029 03/02 Q1006
                        TEMPO BKN012=
201501210920 METAR COR EGLL 210920Z 11009KT 9999 SCT011 BKN024 03/02 Q1006
                        TEMPO BKN012=
201501210850 METAR COR EGLL 210850Z 11009KT 9999 FEW011 BKN016 03/02 Q1006
                        TEMPO BKN012=
201501210820 METAR EGLL 210820Z 12010KT 9999 FEW012 BKN014 03/02 Q1005
                        NOSIG=
201501210750 METAR EGLL 210750Z 12011KT 9999 FEW009 BKN011 03/02 Q1005
                        TEMPO BKN009=
201501210720 METAR COR EGLL 210720Z 12010KT 9999 FEW010 BKN011 03/02 Q1005
                        TEMPO BKN009=
201501210650 METAR COR EGLL 210650Z 12011KT 9000 -RA FEW010 BKN011 03/02
                        Q1004 TEMPO BKN009=
201501210620 METAR COR EGLL 210620Z 11010KT 9000 BKN009 03/02 Q1004 TEMPO
                        BKN012=
201501210550 METAR EGLL 210550Z 13009KT 8000 -RA BKN011 03/02 Q1004 TEMPO
                        BKN009=
201501210520 METAR COR EGLL 210520Z 12009KT 9000 BKN011 03/02 Q1004 TEMPO
                        -RA BKN009=
201501210450 METAR COR EGLL 210450Z 13008KT 9999 BKN009 03/02 Q1004 TEMPO
                        BKN012=
201501210420 METAR COR EGLL 210420Z 13010KT 9999 BKN010 03/02 Q1004 TEMPO
                        BKN009=
201501210350 METAR COR EGLL 210350Z 14010KT 9999 BKN009 03/02 Q1004 TEMPO
                        BKN011=
201501210320 METAR COR EGLL 210320Z 14011KT 9999 BKN009 03/02 Q1004 TEMPO
                        BKN012=
201501210250 METAR EGLL 210250Z 14010KT 9999 BKN009 03/02 Q1004 REDZ TEMPO
                        BKN014=
201501210220 METAR EGLL 210220Z AUTO 15011KT 9000 -RA BKN009/// //////TCU
                        02/01 Q1004 RERA=
201501210150 METAR EGLL 210150Z AUTO 15011KT 8000 -RA BKN010 03/01 Q1004
                        REDZ=
201501210120 METAR EGLL 210120Z AUTO 15011KT 9999 -RA BKN010 03/01 Q1005=
201501210050 METAR EGLL 210050Z 14011KT 9999 BKN014 03/01 Q1005=
201501210020 METAR COR EGLL 210020Z 15011KT 9999 BKN014 03/01 Q1005 TEMPO
                        SCT014=
201501202350 METAR COR EGLL 202350Z 16013KT 9999 FEW028 BKN042 03/00 Q1005
                        TEMPO -RASN BKN014=
201501202320 METAR COR EGLL 202320Z 16012KT 9999 FEW032 SCT048 03/00 Q1005
                        TEMPO -SHRASN BKN014=
201501202250 METAR EGLL 202250Z 16011KT 9999 FEW027 SCT044 04/M00 Q1006
                        TEMPO -RASN BKN014=
201501202220 METAR COR EGLL 202220Z 17009KT 9999 SCT025 BKN048 04/M00
                        Q1006 TEMPO -RASN BKN014=
201501202150 METAR EGLL 202150Z 15008KT 9999 SCT048 04/00 Q1006 TEMPO
                        -RASN BKN014=
201501202120 METAR COR EGLL 202120Z 16010KT 9999 FEW031 04/00 Q1006 TEMPO
                        -RASN BKN014=
201501202050 METAR COR EGLL 202050Z 15009KT 9999 FEW029 04/00 Q1007 NOSIG=
201501202020 METAR COR EGLL 202020Z 13008KT 9999 FEW030 04/01 Q1007 NOSIG=
201501201950 METAR COR EGLL 201950Z 15010KT 9999 -RA FEW025 SCT033 04/01
                        Q1007 NOSIG=
201501201920 METAR COR EGLL 201920Z 15009KT 9999 -RA SCT022 04/01 Q1008
                        NOSIG=
201501201850 METAR EGLL 201850Z 14007KT 9999 FEW030 04/01 Q1008 NOSIG=
201501201820 METAR COR EGLL 201820Z 15007KT CAVOK 03/01 Q1008 NOSIG=
201501201750 METAR EGLL 201750Z 15007KT CAVOK 04/01 Q1008 NOSIG=
201501201720 METAR COR EGLL 201720Z 14007KT CAVOK 04/01 Q1008 NOSIG=
201501201650 METAR COR EGLL 201650Z 13008KT CAVOK 04/01 Q1008 NOSIG=
201501201620 METAR COR EGLL 201620Z 13008KT 9999 FEW041 04/01 Q1008 NOSIG=
201501201550 METAR COR EGLL 201550Z 15008KT 9999 FEW041 04/00 Q1009 NOSIG=
201501201520 METAR COR EGLL 201520Z 15006KT 9999 SCT031 SCT038 04/M00
                        Q1009 NOSIG=
201501201450 METAR EGLL 201450Z 15005KT 9999 SCT041 04/M00 Q1009 NOSIG=
201501201420 METAR COR EGLL 201420Z 15007KT 9999 FEW040 05/M00 Q1009 NOSIG=
201501201350 METAR COR EGLL 201350Z 15006KT 9999 FEW020 05/M00 Q1009 NOSIG=
201501201320 METAR COR EGLL 201320Z VRB05KT 9999 FEW020 05/00 Q1010 NOSIG=
201501201250 METAR EGLL 201250Z 15004KT 100V240 9999 FEW020 04/M00 Q1010
                        NOSIG=
201501201220 METAR COR EGLL 201220Z VRB04KT 9999 FEW020 04/M00 Q1011 NOSIG=
201501201150 METAR COR EGLL 201150Z VRB04KT CAVOK 04/M00 Q1011 NOSIG=
201501201120 METAR COR EGLL 201120Z VRB03KT 9000 NSC 02/M00 Q1011 NOSIG=
201501201050 METAR EGLL 201050Z 08004KT 8000 NSC 02/M00 Q1012 NOSIG=
201501201020 METAR COR EGLL 201020Z 06004KT 8000 NSC 01/M00 Q1012 NOSIG=
201501200950 METAR COR EGLL 200950Z VRB02KT 8000 NSC M00/M01 Q1011 NOSIG=
201501200920 METAR COR EGLL 200920Z 06003KT 7000 NSC M02/M03 Q1011 NOSIG=
201501200850 METAR COR EGLL 200850Z 06003KT 8000 NSC M02/M03 Q1011 NOSIG=
201501200820 METAR COR EGLL 200820Z 06003KT 8000 NSC M03/M03 Q1011 NOSIG=
201501200750 METAR COR EGLL 200750Z VRB02KT 8000 NSC M02/M02 Q1011 TEMPO
                        3000 BR=
201501200720 METAR COR EGLL 200720Z 05003KT 9000 VCFG NSC M01/M02 Q1011
                        TEMPO 3000 BR=
201501200650 METAR COR EGLL 200650Z VRB02KT 8000 VCFG NSC M02/M03 Q1011
                        TEMPO 3000 BR=
201501200620 METAR EGLL 200620Z 00000KT 8000 NSC M03/M03 Q1011=
201501200550 METAR COR EGLL 200550Z 00000KT 7000 NSC M03/M03 Q1011 TEMPO
                        3000 BR=
201501200520 METAR COR EGLL 200520Z VRB03KT 8000 NSC M03/M03 Q1011 TEMPO
                        3000 BR=
201501200450 METAR COR EGLL 200450Z 00000KT 7000 NSC M03/M04 Q1011 TEMPO
                        3000 BR=
201501200420 METAR COR EGLL 200420Z 00000KT 8000 NSC M03/M04 Q1011 TEMPO
                        3000 BR=
201501200350 METAR EGLL 200350Z 00000KT 8000 NSC M03/M04 Q1011=
201501200320 METAR EGLL 200320Z 00000KT 8000 NSC M03/M03 Q1011=
201501200250 METAR EGLL 200250Z 00000KT 9000 NSC M03/M04 Q1011 NOSIG=
201501200220 METAR EGLL 200220Z AUTO 00000KT 5000 NCD M03/M03 Q1011=
201501200150 METAR EGLL 200150Z AUTO 00000KT 8000 NCD M02/M03 Q1012=
201501200120 METAR EGLL 200120Z AUTO 00000KT 9999 NCD M02/M03 Q1012=
201501200050 METAR EGLL 200050Z 00000KT 9000 NSC M02/M03 Q1012 NOSIG=
201501200020 METAR COR EGLL 200020Z 00000KT 9000 NSC M02/M03 Q1012 NOSIG=
201501192350 METAR COR EGLL 192350Z VRB02KT 9000 NSC M02/M02 Q1012 NOSIG=
201501192320 METAR COR EGLL 192320Z VRB03KT CAVOK M01/M02 Q1012 NOSIG=
201501192250 METAR EGLL 192250Z 21004KT 150V290 9999 FEW025 M01/M02 Q1012
                        NOSIG=
201501192220 METAR COR EGLL 192220Z 19003KT CAVOK 00/M01 Q1012 NOSIG=
201501192150 METAR EGLL 192150Z VRB03KT 9999 FEW024 M00/M01 Q1012 NOSIG=
201501192120 METAR COR EGLL 192120Z 00000KT 9999 FEW024 01/M01 Q1012 NOSIG=
201501192050 METAR COR EGLL 192050Z VRB02KT 9999 SCT025 01/M01 Q1012 NOSIG=
201501192020 METAR COR EGLL 192020Z 00000KT 9999 SCT026 03/M02 Q1012 NOSIG=
201501191950 METAR COR EGLL 191950Z VRB02KT 9999 SCT028 03/M02 Q1012 NOSIG=
201501191920 METAR COR EGLL 191920Z 30002KT 9999 BKN030 03/M01 Q1013 NOSIG=
201501191850 METAR COR EGLL 191850Z VRB03KT 9999 BKN028 03/M01 Q1013 NOSIG=
201501191820 METAR COR EGLL 191820Z 28006KT 9999 SCT027 02/M01 Q1013 NOSIG=
201501191750 METAR EGLL 191750Z 27005KT 9999 FEW028 01/M02 Q1012 NOSIG=
201501191720 METAR COR EGLL 191720Z 27004KT CAVOK 02/M02 Q1012 NOSIG=
201501191650 METAR EGLL 191650Z 26003KT CAVOK 02/M02 Q1012 NOSIG=
201501191620 METAR COR EGLL 191620Z 27004KT CAVOK 02/M02 Q1012 NOSIG=
201501191550 METAR EGLL 191550Z 27004KT CAVOK 03/M02 Q1013 NOSIG=
201501191520 METAR EGLL 191520Z 27005KT 230V300 CAVOK 04/M02 Q1013=
201501191450 METAR COR EGLL 191450Z 28006KT CAVOK 04/M02 Q1013 NOSIG=
201501191420 METAR COR EGLL 191420Z 28007KT 250V330 CAVOK 04/M01 Q1013
                        NOSIG=
201501191350 METAR EGLL 191350Z 28006KT 9999 FEW022 04/M01 Q1013 NOSIG=
201501191320 METAR COR EGLL 191320Z 29006KT 260V330 CAVOK 04/M01 Q1013
                        NOSIG=
201501191250 METAR COR EGLL 191250Z 29005KT 9999 FEW021 04/M01 Q1013 NOSIG=
201501191220 METAR COR EGLL 191220Z 30005KT 260V320 9999 FEW020 04/M00
                        Q1014 NOSIG=
201501191150 METAR EGLL 191150Z VRB03KT 9999 FEW020 04/M01 Q1014 NOSIG=
201501191120 METAR COR EGLL 191120Z VRB03KT 9999 FEW020 03/M01 Q1014 NOSIG=
201501191050 METAR EGLL 191050Z 31004KT 280V340 9999 FEW020 03/M01 Q1015
                        NOSIG=
201501191020 METAR COR EGLL 191020Z 32004KT 290V350 9999 FEW020 02/M01
                        Q1015 NOSIG=
201501190950 METAR EGLL 190950Z 31005KT 280V350 9999 FEW020 02/M00 Q1015
                        NOSIG=
201501190920 METAR COR EGLL 190920Z 29004KT 9999 FEW020 02/M01 Q1015 NOSIG=
201501190850 METAR EGLL 190850Z 30003KT 9999 BKN023 02/M00 Q1015 NOSIG=
201501190820 METAR COR EGLL 190820Z 29003KT 9999 BKN025 02/M00 Q1015 NOSIG=
201501190750 METAR EGLL 190750Z VRB02KT 9999 FEW016 BKN028 02/M00 Q1015
                        NOSIG=
201501190720 METAR COR EGLL 190720Z VRB03KT 9999 BKN028 02/00 Q1015 NOSIG=
201501190650 METAR COR EGLL 190650Z 31004KT 9999 FEW014 SCT021 BKN028
                        02/00 Q1015 NOSIG=
201501190620 METAR COR EGLL 190620Z VRB03KT 9999 BKN014 02/00 Q1015 BECMG
                        FEW014 BKN022=
201501190550 METAR COR EGLL 190550Z VRB03KT 9999 FEW010 BKN020 02/00 Q1015
                        NOSIG=
201501190520 METAR COR EGLL 190520Z 36003KT 9999 BKN013 02/00 Q1015 BECMG
                        BKN022=
201501190450 METAR COR EGLL 190450Z 35004KT 310V020 9999 BKN013 02/M00
                        Q1015 NOSIG=
201501190420 METAR COR EGLL 190420Z 35004KT 9999 BKN013 02/M00 Q1015 NOSIG=
201501190350 METAR COR EGLL 190350Z 33004KT 9999 BKN020 02/M00 Q1015 TEMPO
                        BKN014=
201501190320 METAR COR EGLL 190320Z 32005KT 9000 BKN030 02/00 Q1015 TEMPO
                        BKN014=
201501190250 METAR COR EGLL 190250Z 33004KT 300V010 9999 BKN033 02/00
                        Q1015 TEMPO BKN014=
201501190220 METAR EGLL 190220Z AUTO 34004KT 290V020 9000 BKN034 02/01
                        Q1015=
201501190150 METAR EGLL 190150Z AUTO 33004KT 6000 OVC036 02/01 Q1015=
201501190120 METAR EGLL 190120Z AUTO VRB03KT 6000 FEW020 OVC037 01/01
                        Q1015=
201501190050 METAR COR EGLL 190050Z VRB03KT 7000 FEW010 BKN040 01/00 Q1015
                        NOSIG=
201501190020 METAR COR EGLL 190020Z 32003KT 8000 FEW017 BKN040 01/00 Q1015
                        NOSIG=
201501182350 METAR COR EGLL 182350Z VRB02KT 8000 BKN038 00/M01 Q1015 NOSIG=
201501182320 METAR COR EGLL 182320Z VRB02KT 8000 BKN035 01/M00 Q1015 NOSIG=
201501182250 METAR EGLL 182250Z 32003KT 9000 NSC 00/M01 Q1015 NOSIG=
201501182220 METAR COR EGLL 182220Z VRB03KT 9000 NSC 00/M01 Q1015 NOSIG=
201501182150 METAR COR EGLL 182150Z 32004KT 9000 NSC 01/M01 Q1014 NOSIG=
201501182120 METAR COR EGLL 182120Z VRB02KT 9000 FEW016 01/M01 Q1014 NOSIG=
201501182050 METAR EGLL 182050Z 31003KT 9000 NSC 01/M01 Q1014 NOSIG=
201501182020 METAR COR EGLL 182020Z 35002KT CAVOK 01/M01 Q1014 NOSIG=
201501181950 METAR COR EGLL 181950Z 36002KT 9000 NSC 01/M01 Q1014 NOSIG=
201501181920 METAR COR EGLL 181920Z VRB02KT CAVOK 02/M00 Q1014 NOSIG=
201501181850 METAR COR EGLL 181850Z 30003KT CAVOK 02/M00 Q1014 NOSIG=
201501181820 METAR COR EGLL 181820Z 00000KT CAVOK 02/M00 Q1013 NOSIG=
201501181750 METAR EGLL 181750Z 35002KT CAVOK 02/M00 Q1013 NOSIG=
201501181720 METAR COR EGLL 181720Z VRB02KT CAVOK 02/M00 Q1013 NOSIG=
201501181650 METAR COR EGLL 181650Z VRB02KT CAVOK 02/M00 Q1013 NOSIG=
201501181620 METAR COR EGLL 181620Z 33006KT 300V030 CAVOK 03/00 Q1013
                        NOSIG=
201501181550 METAR EGLL 181550Z 33006KT 300V010 9999 FEW015 03/00 Q1012
                        NOSIG=
201501181520 METAR COR EGLL 181520Z 33005KT 9999 FEW016 04/00 Q1012 NOSIG=
201501181450 METAR COR EGLL 181450Z 34005KT 280V020 9999 FEW016 04/01
                        Q1012 NOSIG=
201501181420 METAR COR EGLL 181420Z 35006KT 300V030 9999 FEW012 04/01
                        Q1012 NOSIG=
201501181350 METAR EGLL 181350Z 34005KT 310V020 9999 FEW013 04/01 Q1012
                        NOSIG=
201501181320 METAR COR EGLL 181320Z 35006KT 310V020 9999 FEW014 SCT016
                        04/01 Q1012 NOSIG=
201501181250 METAR EGLL 181250Z 34006KT 300V030 9999 FEW015 SCT022 04/01
                        Q1012 NOSIG=
201501181220 METAR COR EGLL 181220Z 03004KT 340V070 9999 FEW014 SCT018
                        05/02 Q1012 NOSIG=
201501181150 METAR EGLL 181150Z VRB03KT 9999 FEW014 SCT017 04/02 Q1012
                        NOSIG=
201501181120 METAR COR EGLL 181120Z 02004KT 340V060 9999 FEW034 04/02
                        Q1012 NOSIG=
201501181050 METAR COR EGLL 181050Z 01006KT 9999 FEW009 SCT032 04/02 Q1012
                        NOSIG=
201501181020 METAR COR EGLL 181020Z 36005KT 9999 SCT033 SCT044 04/02 Q1012
                        NOSIG=
201501180950 METAR EGLL 180950Z VRB03KT 9999 SCT014 SCT035 04/03 Q1011
                        NOSIG=
201501180920 METAR COR EGLL 180920Z VRB02KT 9000 FEW010 BKN014 04/02 Q1011
                        BECMG SCT014=
201501180850 METAR COR EGLL 180850Z VRB02KT 9000 FEW010 BKN015 04/03 Q1011
                        TEMPO BKN014=
201501180820 METAR COR EGLL 180820Z 31003KT 8000 SCT015 SCT020 04/02 Q1011
                        TEMPO BKN014=
201501180750 METAR EGLL 180750Z VRB02KT 8000 FEW044 04/03 Q1010=
201501180720 METAR COR EGLL 180720Z VRB02KT 9000 -RA FEW020 SCT044 04/03
                        Q1010 TEMPO BKN014=
201501180650 METAR EGLL 180650Z 00000KT 9999 -RA SCT014 SCT020 04/03 Q1010
                        TEMPO BKN014=
201501180620 METAR COR EGLL 180620Z 00000KT 9999 -RA FEW009 BKN014 03/03
                        Q1010 TEMPO BKN020=
201501180550 METAR EGLL 180550Z VRB03KT 9999 BKN016 03/03 Q1010 TEMPO
                        BKN014=
201501180520 METAR COR EGLL 180520Z VRB02KT 9999 BKN020 03/03 Q1010 TEMPO
                        RA BKN014=
201501180450 METAR COR EGLL 180450Z 18004KT 140V240 9999 SCT025 SCT033
                        03/02 Q1010 TEMPO RA BKN014=
201501180420 METAR COR EGLL 180420Z 18002KT 9999 SCT027 03/02 Q1010 TEMPO
                        RA BKN014=
201501180350 METAR EGLL 180350Z 20004KT 9999 -RA SCT025 03/02 Q1010 TEMPO
                        RA BKN014=
201501180320 METAR COR EGLL 180320Z 27002KT 9999 -RA FEW016 SCT030 03/02
                        Q1010 TEMPO RA BKN014=
201501180250 METAR EGLL 180250Z 25002KT 9999 -RA FEW017 SCT043 04/02 Q1010
                        RERA REDZ TEMPO BKN014=
201501180220 METAR EGLL 180220Z AUTO 27004KT 240V310 9999 DZ FEW023 BKN028
                        BKN039 04/02 Q1010=
201501180150 METAR EGLL 180150Z AUTO 22003KT 9999 -RA SCT040 04/02 Q1010
                        REDZ=
201501180120 METAR EGLL 180120Z AUTO 21003KT 9999 -RA NCD 04/02 Q1011
                        REDZ=
201501180050 METAR COR EGLL 180050Z 22003KT CAVOK 04/02 Q1011 NOSIG=
201501180020 METAR COR EGLL 180020Z 19005KT 9999 FEW035 04/02 Q1011 NOSIG=
201501172350 METAR EGLL 172350Z 23004KT 9999 FEW032 04/02 Q1011 TEMPO
                        BKN014=
201501172320 METAR COR EGLL 172320Z 23006KT 9999 FEW030 04/02 Q1011 TEMPO
                        BKN014=
201501172250 METAR COR EGLL 172250Z 24007KT 9999 -RA FEW030 05/01 Q1011
                        TEMPO BKN014=
201501172220 METAR COR EGLL 172220Z 21008KT 190V250 9999 FEW029 04/02
                        Q1011 NOSIG=
201501172150 METAR EGLL 172150Z 23007KT 9999 FEW033 04/02 Q1011 NOSIG=
201501172120 METAR COR EGLL 172120Z 22007KT 190V260 CAVOK 04/02 Q1011
                        NOSIG=
201501172050 METAR EGLL 172050Z 22008KT 190V250 9999 FEW047 04/02 Q1011
                        NOSIG=
201501172020 METAR COR EGLL 172020Z 21007KT CAVOK 04/02 Q1011 NOSIG=
201501171950 METAR COR EGLL 171950Z 22008KT CAVOK 05/02 Q1011 NOSIG=
201501171920 METAR COR EGLL 171920Z 22008KT CAVOK 04/02 Q1011 NOSIG=
201501171850 METAR EGLL 171850Z 22006KT 180V240 9999 FEW037 04/01 Q1011
                        NOSIG=
201501171820 METAR COR EGLL 171820Z 22006KT CAVOK 04/01 Q1011 NOSIG=
201501171750 METAR COR EGLL 171750Z 22007KT CAVOK 04/01 Q1011 NOSIG=
201501171720 METAR COR EGLL 171720Z 22007KT CAVOK 04/01 Q1011 NOSIG=
201501171650 METAR EGLL 171650Z 22007KT CAVOK 04/01 Q1012 NOSIG=
201501171620 METAR COR EGLL 171620Z 23008KT CAVOK 05/01 Q1012 NOSIG=
201501171550 METAR EGLL 171550Z 23009KT CAVOK 05/01 Q1012 NOSIG=
201501171520 METAR COR EGLL 171520Z 24010KT CAVOK 06/01 Q1012 NOSIG=
201501171450 METAR EGLL 171450Z 23009KT 9999 FEW024 06/01 Q1011 NOSIG=
201501171420 METAR COR EGLL 171420Z 24010KT 9999 FEW026 07/01 Q1011 NOSIG=
201501171350 METAR EGLL 171350Z 24010KT 9999 FEW026 07/01 Q1011 NOSIG=
201501171320 METAR COR EGLL 171320Z 25009KT 9999 FEW021 07/02 Q1012 NOSIG=
201501171250 METAR EGLL 171250Z 23010KT 9999 FEW046 06/02 Q1012 NOSIG=
201501171220 METAR COR EGLL 171220Z 22010KT 9999 FEW048 05/02 Q1012 NOSIG=
201501171150 METAR COR EGLL 171150Z 22008KT 190V250 9999 FEW048 05/02
                        Q1012 NOSIG=
201501171120 METAR COR EGLL 171120Z 21009KT 9999 SCT028 03/00 Q1013 NOSIG=
201501171050 METAR EGLL 171050Z 22007KT 9999 SCT024 SCT028 03/00 Q1013
                        NOSIG=
201501171020 METAR COR EGLL 171020Z 21010KT 9999 VCSH FEW029 SCT038 03/M00
                        Q1013 TEMPO SHRASN=
201501170950 METAR COR EGLL 170950Z 21009KT 9999 SCT036 02/M01 Q1013 TEMPO
                        4000 SHRASN=
201501170920 METAR COR EGLL 170920Z 21009KT CAVOK 02/M01 Q1013 TEMPO SHRASN=
201501170850 METAR COR EGLL 170850Z 21007KT 170V240 CAVOK 01/M02 Q1013
                        TEMPO SHRASN=
201501170820 METAR COR EGLL 170820Z 21007KT 180V250 CAVOK 00/M02 Q1013
                        TEMPO SHRASN=
201501170750 METAR COR EGLL 170750Z 21008KT CAVOK M00/M02 Q1013 NOSIG=
201501170720 METAR COR EGLL 170720Z 21010KT CAVOK M01/M02 Q1013 NOSIG=
201501170650 METAR EGLL 170650Z 21008KT CAVOK M01/M02 Q1013 NOSIG=
201501170620 METAR COR EGLL 170620Z 21006KT 170V240 CAVOK M01/M02 Q1013
                        NOSIG=
201501170550 METAR EGLL 170550Z 18005KT 150V320 CAVOK M01/M03 Q1013 NOSIG=
201501170520 METAR COR EGLL 170520Z VRB06KT CAVOK M01/M03 Q1013 NOSIG=
201501170450 METAR EGLL 170450Z 20004KT 180V250 CAVOK M01/M03 Q1013 NOSIG=
201501170420 METAR COR EGLL 170420Z 20003KT CAVOK M01/M02 Q1014 NOSIG=
201501170350 METAR EGLL 170350Z 21005KT CAVOK M01/M02 Q1014 NOSIG=
201501170320 METAR COR EGLL 170320Z 22004KT CAVOK M01/M02 Q1014 NOSIG=
201501170250 METAR EGLL 170250Z 25004KT CAVOK M01/M02 Q1014 NOSIG=
201501170220 METAR EGLL 170220Z AUTO 26005KT 9999 NCD M00/M02 Q1014=
201501170150 METAR EGLL 170150Z AUTO 25005KT 9999 NCD M00/M01 Q1014=
201501170120 METAR EGLL 170120Z AUTO 27007KT 9999 NCD M02/M03 Q1014=
201501170050 METAR EGLL 170050Z 25005KT CAVOK M01/M02 Q1014 NOSIG=
201501170020 METAR COR EGLL 170020Z 27006KT CAVOK M01/M02 Q1014 NOSIG=
201501162350 METAR COR EGLL 162350Z 27007KT CAVOK 00/M01 Q1013 NOSIG=
201501162320 METAR COR EGLL 162320Z 25006KT CAVOK 01/M00 Q1013 NOSIG=
201501162250 METAR EGLL 162250Z 28008KT CAVOK 01/M00 Q1012 NOSIG=
201501162220 METAR COR EGLL 162220Z 28006KT CAVOK 01/M01 Q1012 NOSIG=
201501162150 METAR EGLL 162150Z 28006KT CAVOK 02/00 Q1012 NOSIG=
201501162120 METAR COR EGLL 162120Z 28006KT CAVOK 02/00 Q1011 NOSIG=
201501162050 METAR COR EGLL 162050Z 29003KT CAVOK 02/00 Q1011 NOSIG=
201501162020 METAR COR EGLL 162020Z 29005KT CAVOK 03/00 Q1011 NOSIG=
201501161950 METAR COR EGLL 161950Z 30003KT CAVOK 03/01 Q1010 NOSIG=
201501161920 METAR COR EGLL 161920Z 29003KT CAVOK 03/01 Q1010 NOSIG=
201501161850 METAR EGLL 161850Z 29004KT CAVOK 03/01 Q1009 NOSIG=
201501161820 METAR COR EGLL 161820Z 29005KT 9999 FEW029 04/01 Q1009 NOSIG=
201501161750 METAR EGLL 161750Z 30006KT 9999 FEW031 03/02 Q1008 NOSIG=
201501161720 METAR COR EGLL 161720Z 29006KT CAVOK 04/02 Q1008 NOSIG=
201501161650 METAR EGLL 161650Z 29005KT 9999 FEW040 04/02 Q1007 NOSIG=
201501161620 METAR COR EGLL 161620Z 31003KT 9999 FEW011CB 04/02 Q1007
                        RESHRA NOSIG=
201501161550 METAR COR EGLL 161550Z 31016G26KT 9999 8000W SHRA BKN028CB
                        05/02 Q1006 NOSIG=
201501161520 METAR COR EGLL 161520Z 27009KT 9999 FEW040 07/01 Q1005 TEMPO
                        SHRA=
201501161450 METAR COR EGLL 161450Z 26009KT 9999 FEW030 07/01 Q1005 TEMPO
                        SHRA=
201501161420 METAR COR EGLL 161420Z 26007KT 9999 FEW030 07/02 Q1005 NOSIG=
201501161350 METAR COR EGLL 161350Z 27008KT CAVOK 07/02 Q1004 NOSIG=
201501161320 METAR COR EGLL 161320Z 26007KT CAVOK 07/02 Q1004 NOSIG=
201501161250 METAR EGLL 161250Z 25008KT CAVOK 06/03 Q1005 NOSIG=
201501161220 METAR COR EGLL 161220Z 25008KT CAVOK 06/03 Q1005 NOSIG=
201501161150 METAR EGLL 161150Z 26009KT CAVOK 05/03 Q1004 NOSIG=
201501161120 METAR COR EGLL 161120Z 26008KT CAVOK 05/02 Q1004 NOSIG=
201501161050 METAR COR EGLL 161050Z 26010KT CAVOK 05/02 Q1004 NOSIG=
201501161020 METAR COR EGLL 161020Z 27009KT 9999 FEW048 06/02 Q1003 NOSIG=
201501160950 METAR EGLL 160950Z 25008KT 9999 FEW042 06/02 Q1003 NOSIG=
201501160920 METAR COR EGLL 160920Z 24009KT 9999 FEW042 06/02 Q1003 NOSIG=
201501160850 METAR EGLL 160850Z 23009KT 200V270 CAVOK 06/02 Q1002=
201501160820 METAR COR EGLL 160820Z 23008KT CAVOK 06/01 Q1002 NOSIG=
201501160750 METAR EGLL 160750Z 22008KT CAVOK 06/01 Q1001 NOSIG=
201501160720 METAR COR EGLL 160720Z 23009KT CAVOK 06/01 Q1001 TEMPO SHRA=
201501160650 METAR EGLL 160650Z 22011KT CAVOK 06/00 Q1001 TEMPO SHRA=
201501160620 METAR COR EGLL 160620Z 21008KT 190V270 CAVOK 05/M00 Q1001
                        NOSIG=
201501160550 METAR COR EGLL 160550Z 21008G18KT CAVOK 05/M00 Q1000 NOSIG=
201501160520 METAR COR EGLL 160520Z 21009KT CAVOK 05/M01 Q1000 NOSIG=
201501160450 METAR EGLL 160450Z 22007KT CAVOK 05/M01 Q1000 NOSIG=
201501160420 METAR COR EGLL 160420Z 20009KT CAVOK 05/M00 Q1000 NOSIG=
201501160350 METAR EGLL 160350Z 21009KT CAVOK 05/M00 Q1000 NOSIG=
201501160320 METAR COR EGLL 160320Z 20009KT CAVOK 05/M00 Q0999 NOSIG=
201501160250 METAR EGLL 160250Z 21008KT CAVOK 05/M00 Q0999 NOSIG=
201501160220 METAR EGLL 160220Z AUTO 22011KT 9999 NCD 05/M01 Q0999=
201501160150 METAR EGLL 160150Z AUTO 24012KT 9999 NCD 06/M00 Q0998=
201501160120 METAR COR EGLL 160120Z 25015KT CAVOK 06/M01 Q0998 NOSIG=
201501160050 METAR COR EGLL 160050Z 24013KT CAVOK 06/M01 Q0998 NOSIG=
201501160020 METAR COR EGLL 160020Z 23014KT CAVOK 06/M01 Q0998 NOSIG=
201501152350 METAR EGLL 152350Z 24013KT CAVOK 06/M00 Q0997 NOSIG=
201501152320 METAR COR EGLL 152320Z 25017KT CAVOK 06/M00 Q0997 NOSIG=
201501152250 METAR COR EGLL 152250Z 25016KT CAVOK 06/M00 Q0996 NOSIG=
201501152220 METAR COR EGLL 152220Z 25016KT 9999 FEW040 06/M01 Q0996 NOSIG=
201501152150 METAR COR EGLL 152150Z 24019KT CAVOK 06/M01 Q0996 TEMPO SHRA=
201501152120 METAR COR EGLL 152120Z 23017KT 9999 FEW040 05/M01 Q0995 TEMPO
                        SHRA=
201501152050 METAR EGLL 152050Z 24018KT CAVOK 05/M01 Q0995 NOSIG=
201501152020 METAR COR EGLL 152020Z 24018KT CAVOK 05/M01 Q0994 NOSIG=
201501151950 METAR COR EGLL 151950Z 24022KT CAVOK 06/M01 Q0993 NOSIG=
201501151920 METAR COR EGLL 151920Z 24021KT 9999 FEW030 06/01 Q0993 NOSIG=
201501151850 METAR COR EGLL 151850Z 23017KT 9999 FEW040 06/00 Q0993 NOSIG=
201501151820 METAR COR EGLL 151820Z 22016KT 9999 FEW040 06/00 Q0993 NOSIG=
201501151750 METAR COR EGLL 151750Z 23019KT CAVOK 06/00 Q0992 NOSIG=
201501151720 METAR COR EGLL 151720Z 23019KT CAVOK 06/M00 Q0992 NOSIG=
201501151650 METAR COR EGLL 151650Z 23017KT CAVOK 07/M01 Q0992 NOSIG=
201501151620 METAR COR EGLL 151620Z 23020G31KT 9999 FEW048 07/M00 Q0991
                        NOSIG=
201501151550 METAR COR EGLL 151550Z 25016KT 9999 FEW048 08/M00 Q0991 NOSIG=
201501151520 METAR EGLL 151520Z 26017KT 9999 FEW040 08/M00 Q0991 NOSIG=
201501151450 METAR COR EGLL 151450Z 25020KT 9999 FEW040 09/01 Q0990 NOSIG=
201501151420 METAR COR EGLL 151420Z 23020G31KT 9999 FEW035 09/02 Q0989
                        NOSIG=
201501151350 METAR COR EGLL 151350Z 24019KT 9999 FEW035 09/02 Q0989 TEMPO
                        SHRA=
201501151320 METAR COR EGLL 151320Z 24019G33KT 9999 FEW030 09/03 Q0989
                        NOSIG=
201501151250 METAR COR EGLL 151250Z 22016KT 9999 FEW033 09/04 Q0989 TEMPO
                        SHRA=
201501151220 METAR COR EGLL 151220Z 23015KT 9999 VCSH FEW026 08/04 Q0990
                        NOSIG=
201501151150 METAR COR EGLL 151150Z 23015KT 9999 FEW031 09/04 Q0990 TEMPO
                        SHRA=
201501151120 METAR COR EGLL 151120Z 22014KT CAVOK 08/03 Q0989 TEMPO SHRA=
201501151050 METAR COR EGLL 151050Z 21012KT 9999 FEW048 08/05 Q0989 NOSIG=
201501151020 METAR COR EGLL 151020Z 21010KT CAVOK 07/05 Q0990 NOSIG=
201501150950 METAR EGLL 150950Z 20010KT CAVOK 07/05 Q0990 NOSIG=
201501150920 METAR COR EGLL 150920Z 22011KT CAVOK 07/03 Q0989 NOSIG=
201501150850 METAR COR EGLL 150850Z 22010KT CAVOK 08/04 Q0989 NOSIG=
201501150820 METAR COR EGLL 150820Z 22011KT CAVOK 08/04 Q0989 NOSIG=
201501150750 METAR COR EGLL 150750Z 21010KT 9999 FEW039 08/05 Q0989 NOSIG=
201501150720 METAR COR EGLL 150720Z 22012KT 9999 FEW038 08/05 Q0988 NOSIG=
201501150650 METAR COR EGLL 150650Z 22014KT 9999 FEW038 08/05 Q0988 NOSIG=
201501150620 METAR COR EGLL 150620Z 23013G23KT 9999 -RA FEW042 09/06 Q0988
                        NOSIG=
201501150550 METAR COR EGLL 150550Z 24012KT 9999 -RA SCT025 SCT037 09/07
                        Q0988 NOSIG=
201501150520 METAR COR EGLL 150520Z 22016G26KT 9000 -RA SCT032 BKN045
                        09/07 Q0988 NOSIG=
201501150450 METAR EGLL 150450Z 22017KT 9999 -RA SCT042 10/07 Q0988 NOSIG=
201501150420 METAR COR EGLL 150420Z 23015KT 9999 -RA FEW048 10/07 Q0987
                        NOSIG=
201501150350 METAR COR EGLL 150350Z 24023G33KT 7000 -RA SCT030 BKN040
                        10/08 Q0987 NOSIG=
201501150320 METAR COR EGLL 150320Z 21024G37KT 9000 -RA SCT023 BKN030
                        11/09 Q0987 TEMPO 2500 +RA BKN014=
201501150250 METAR COR EGLL 150250Z 21021G32KT 9999 -RA SCT020 BKN036
                        11/09 Q0987 RERA TEMPO 21031G45KT
                        2500 +RA BKN014=
201501150220 METAR COR EGLL 150220Z 21021G31KT 8000 RA SCT022 BKN040 10/09
                        Q0988 TEMPO 21031G42KT 4000 RA=
201501150150 METAR COR EGLL 150150Z 20024G37KT 9000 -RA SCT020 BKN032
                        10/08 Q0988 TEMPO RA=
201501150120 METAR COR EGLL 150120Z 20023KT 9999 -RA FEW016 SCT020 BKN030
                        10/08 Q0989 TEMPO RA=
201501150050 METAR COR EGLL 150050Z 20020KT 9999 -RA SCT018 BKN024 10/08
                        Q0990 TEMPO 20030G40KT RA=
201501150020 METAR COR EGLL 150020Z 20019KT 9999 -RA FEW016 SCT020 BKN030
                        10/08 Q0991 TEMPO 20029G40KT RA=
201501142350 METAR COR EGLL 142350Z 20022G32KT 9000 -RA SCT016 BKN025
                        09/07 Q0992 TEMPO RA=
201501142320 METAR COR EGLL 142320Z 19022KT 9999 -RA SCT020 BKN030 09/07
                        Q0993 TEMPO RA=
201501142250 METAR EGLL 142250Z 20021KT 9999 -RA FEW017 SCT020 BKN028
                        09/07 Q0995 TEMPO RA=
201501142220 METAR COR EGLL 142220Z 20020G32KT 9999 -RA FEW018 SCT022
                        BKN035 09/07 Q0996 TEMPO 4000 RA=
201501142150 METAR COR EGLL 142150Z 19020KT 8000 -RA SCT014 BKN022 08/06
                        Q0996 TEMPO 4000 RA=
201501142120 METAR COR EGLL 142120Z 20021KT 9000 -RA BKN020 BKN029 08/06
                        Q0998 TEMPO RA=
201501142050 METAR COR EGLL 142050Z 20023KT 9999 -RA FEW019 BKN022 BKN029
                        09/06 Q0998 TEMPO RA=
201501142020 METAR COR EGLL 142020Z 20020G30KT 9999 BKN021 08/05 Q0999
                        TEMPO RA=
201501141950 METAR EGLL 141950Z 19018KT 170V230 9999 SCT018 SCT028 08/05
                        Q1001 NOSIG=
201501141920 METAR COR EGLL 141920Z 19017KT 160V230 9999 -RA SCT022 BKN026
                        07/05 Q1001 NOSIG=
201501141850 METAR COR EGLL 141850Z 18013KT 150V230 9999 -RA FEW013 BKN024
                        07/05 Q1002 RERA TEMPO 8000=
201501141820 METAR COR EGLL 141820Z 18014KT 8000 -RA SCT022 SCT028 06/05
                        Q1004 TEMPO RA=
201501141750 METAR COR EGLL 141750Z 18013KT 170V240 9999 -RA FEW024 06/03
                        Q1004 TEMPO 8000 RA=
201501141720 METAR COR EGLL 141720Z 19011KT 160V230 9999 FEW046 06/01
                        Q1005 TEMPO 8000 RA=
201501141650 METAR COR EGLL 141650Z 17009KT 140V230 CAVOK 06/01 Q1006
                        NOSIG=
201501141620 METAR COR EGLL 141620Z 18009KT 150V230 CAVOK 06/00 Q1007
                        NOSIG=
201501141550 METAR EGLL 141550Z 21010KT CAVOK 06/M00 Q1008 NOSIG=
201501141520 METAR COR EGLL 141520Z 20010KT 180V240 CAVOK 06/M00 Q1008
                        NOSIG=
201501141450 METAR EGLL 141450Z 21010KT CAVOK 06/M00 Q1008 NOSIG=
201501141420 METAR COR EGLL 141420Z 22011KT 9999 FEW020 07/M00 Q1008 NOSIG=
201501141350 METAR EGLL 141350Z 23013KT 9999 FEW027 07/M00 Q1008 NOSIG=
201501141320 METAR COR EGLL 141320Z 24013KT 9999 FEW027 07/00 Q1008 NOSIG=
201501141250 METAR COR EGLL 141250Z 24014KT 9999 FEW027 06/01 Q1009 NOSIG=
201501141220 METAR COR EGLL 141220Z 25014KT 9999 FEW020 06/00 Q1008 NOSIG=
201501141150 METAR COR EGLL 141150Z 26014KT 9999 FEW020 05/00 Q1008 NOSIG=
201501141120 METAR COR EGLL 141120Z 25012KT 9999 FEW020 05/01 Q1008 NOSIG=
201501141050 METAR COR EGLL 141050Z 26013KT 9999 FEW020 04/01 Q1008 NOSIG=
201501141020 METAR COR EGLL 141020Z 26015KT 9999 FEW020 04/01 Q1007 NOSIG=
201501140950 METAR COR EGLL 140950Z 26015KT 9999 FEW018 03/01 Q1007 NOSIG=
201501140920 METAR COR EGLL 140920Z 26016KT 9999 FEW020 03/00 Q1006 NOSIG=
201501140850 METAR COR EGLL 140850Z 25017KT 9999 FEW020 03/00 Q1005 NOSIG=
201501140820 METAR COR EGLL 140820Z 25012KT 9999 FEW020 03/00 Q1005 NOSIG=
201501140750 METAR EGLL 140750Z 25012KT 9999 FEW018 03/00 Q1004 NOSIG=
201501140720 METAR COR EGLL 140720Z 24016KT 9999 FEW017 03/01 Q1004 NOSIG=
201501140650 METAR EGLL 140650Z 26013KT 9999 FEW025 04/M00 Q1003 NOSIG=
201501140620 METAR COR EGLL 140620Z 25014KT 9999 FEW029 04/00 Q1003 NOSIG=
201501140550 METAR EGLL 140550Z 24011KT 9999 FEW029 SCT040 04/01 Q1003
                        TEMPO SHRASN=
201501140520 METAR COR EGLL 140520Z 23010KT CAVOK 04/00 Q1003 TEMPO SHRASN=
201501140450 METAR EGLL 140450Z 22007KT CAVOK 04/01 Q1003 TEMPO SHRASN=
201501140420 METAR COR EGLL 140420Z 23008KT CAVOK 03/00 Q1003 TEMPO SHRASN=
201501140350 METAR EGLL 140350Z 24010KT CAVOK 04/00 Q1004 TEMPO SHRASN=
201501140320 METAR COR EGLL 140320Z 24009KT CAVOK 03/00 Q1004 TEMPO SHRASN=
201501140250 METAR COR EGLL 140250Z 23012KT CAVOK 03/M00 Q1004 TEMPO SHRASN=
201501140220 METAR COR EGLL 140220Z 24014KT 9999 FEW044 04/M00 Q1004 NOSIG=
201501140150 METAR COR EGLL 140150Z 23014KT 9999 FEW044 04/M01 Q1004 TEMPO
                        4000 SHRASN=
201501140120 METAR COR EGLL 140120Z 24014KT CAVOK 04/M00 Q1004 TEMPO 4000
                        SHRASN=
201501140050 METAR COR EGLL 140050Z 24017KT CAVOK 04/00 Q1004 TEMPO 4000
                        SHRASN=
201501140020 METAR COR EGLL 140020Z 24015KT CAVOK 04/00 Q1004 TEMPO SNSH=
201501132350 METAR COR EGLL 132350Z 23014KT CAVOK 04/00 Q1003 TEMPO SHRASN=
201501132320 METAR COR EGLL 132320Z 23009KT CAVOK 03/01 Q1003 NOSIG=
201501132250 METAR EGLL 132250Z 23009KT 190V250 CAVOK 03/01 Q1004 NOSIG=
201501132220 METAR COR EGLL 132220Z 22009KT CAVOK 03/01 Q1003 NOSIG=
201501132150 METAR EGLL 132150Z 23009KT 190V270 CAVOK 04/02 Q1004 NOSIG=
201501132120 METAR COR EGLL 132120Z 23009KT 9999 FEW020 04/02 Q1004 NOSIG=
201501132050 METAR EGLL 132050Z 25011KT 9999 FEW042 04/02 Q1004 TEMPO
                        SHRAGS=
201501132020 METAR COR EGLL 132020Z 25011KT 9999 FEW020 04/02 Q1004 TEMPO
                        SHRAGS=
201501131950 METAR EGLL 131950Z 24009KT 9999 FEW044 04/03 Q1004 TEMPO
                        SHRAGS=
201501131920 METAR COR EGLL 131920Z 24009KT 9999 FEW044 04/03 Q1004 TEMPO
                        SHRAGS=
201501131850 METAR EGLL 131850Z 24008KT 9999 FEW019 BKN044 04/03 Q1003
                        TEMPO SHRAGS=
201501131820 METAR COR EGLL 131820Z 27011KT 9999 -SHRA SCT019 05/03 Q1003
                        TEMPO SHRA=
201501131750 METAR EGLL 131750Z 25009KT 9999 -SHRA FEW023 06/02 Q1003
                        TEMPO SHRA=
201501131720 METAR COR EGLL 131720Z 25011KT 9999 FEW027 06/02 Q1003 TEMPO
                        SHRAGS=
201501131650 METAR EGLL 131650Z 25013KT 9999 FEW027 06/02 Q1003 TEMPO
                        SHRAGS=
201501131620 METAR COR EGLL 131620Z 25013KT 9999 SCT015 06/03 Q1003 TEMPO
                        SHRA=
201501131550 METAR EGLL 131550Z 25014KT 9999 FEW015 07/03 Q1002 NOSIG=
201501131520 METAR COR EGLL 131520Z 25018KT 9999 FEW015 07/04 Q1002 NOSIG=
201501131450 METAR COR EGLL 131450Z 26018KT 9999 FEW014CB SCT028 07/04
                        Q1002 RESHRA NOSIG=
201501131420 METAR COR EGLL 131420Z 25019KT 9999 4000W SHRA SCT020CB BKN030
                        08/04 Q1002 BECMG 9999=
201501131350 METAR EGLL 131350Z 24014KT 9999 SCT033 08/05 Q1001 TEMPO
                        SHRA=
201501131320 METAR COR EGLL 131320Z 24014G25KT 9999 FEW017CB SCT030 08/04
                        Q1001 RETS RERA NOSIG=
201501131250 METAR EGLL 131250Z 20016KT 6000 TSRA FEW020CB BKN031 09/05
                        Q1000 BECMG NSW=
201501131220 METAR COR EGLL 131220Z 21010KT 9999 VCSH SCT023 09/05 Q1001
                        TEMPO SHRA=
201501131150 METAR COR EGLL 131150Z 21011KT 9999 FEW024 09/05 Q1002 TEMPO
                        SHRA=
201501131120 METAR COR EGLL 131120Z 23010KT CAVOK 09/05 Q1002 NOSIG=
201501131050 METAR EGLL 131050Z 22010KT CAVOK 09/05 Q1002 TEMPO SHRA=
201501131020 METAR COR EGLL 131020Z 24009KT CAVOK 08/05 Q1002 TEMPO SHRA=
201501130950 METAR COR EGLL 130950Z 25010KT CAVOK 08/05 Q1002 NOSIG=
201501130920 METAR COR EGLL 130920Z 27007KT CAVOK 07/04 Q1002 NOSIG=
201501130850 METAR COR EGLL 130850Z 25009KT 9999 FEW049 08/04 Q1002 NOSIG=
201501130820 METAR COR EGLL 130820Z 25010KT 9999 FEW045 08/05 Q1002 NOSIG=
201501130750 METAR EGLL 130750Z 25008KT 220V280 9999 -RA FEW030 BKN045
                        08/04 Q1001 NOSIG=
201501130720 METAR COR EGLL 130720Z 27009KT 9999 FEW020 SCT036 08/05 Q1001
                        TEMPO SHRA=
201501130650 METAR COR EGLL 130650Z 28013KT 9999 -RA FEW011 SCT022 09/07
                        Q1001 TEMPO SHRA=
201501130620 METAR COR EGLL 130620Z 23012KT 9999 -RA SCT046 09/08 Q1001
                        TEMPO SHRA=
201501130550 METAR COR EGLL 130550Z 21010KT 9999 FEW012 09/08 Q1000 TEMPO
                        SHRA=
201501130520 METAR COR EGLL 130520Z 20012KT 9999 SCT034 09/08 Q1001 TEMPO
                        SHRA=
201501130450 METAR COR EGLL 130450Z 23011KT 9999 -RA SCT014 10/08 Q1002
                        TEMPO SHRA=
201501130420 METAR COR EGLL 130420Z 24008KT 9999 FEW020 SCT028 BKN036
                        10/09 Q1002 TEMPO SHRA=
201501130350 METAR EGLL 130350Z 25011KT 9999 -RA SCT009 10/09 Q1002 RERA
                        NOSIG=
201501130320 METAR EGLL 130320Z AUTO 24009KT 5000 +RA BKN010/// //////CB
                        11/09 Q1002=
201501130250 METAR EGLL 130250Z AUTO 24010KT 9999 -RA FEW029 11/09 Q1002=
201501130220 METAR EGLL 130220Z AUTO 21010KT 9999 -DZ FEW037/// BKN057///
                        //////TCU 11/10 Q1002=
201501130150 METAR COR EGLL 130150Z 24016KT 9999 -RA SCT013 SCT020 11/09
                        Q1002 TEMPO BKN014=
201501130120 METAR COR EGLL 130120Z 22015KT 9999 -RA BKN011 11/10 Q1002
                        TEMPO 6000 RA BKN009=
201501130050 METAR COR EGLL 130050Z 21016KT 9999 -RA FEW020 11/10 Q1002
                        TEMPO RA BKN012=
201501130020 METAR COR EGLL 130020Z 22015KT 9999 -RA FEW014 SCT017 12/10
                        Q1002 TEMPO 7000 RA BKN013=
201501122350 METAR COR EGLL 122350Z 21015KT 9999 -RA FEW012 SCT046 11/10
                        Q1002 TEMPO RA BKN013=
201501122320 METAR COR EGLL 122320Z 22013KT 9999 -RA FEW010 SCT013 BKN016
                        11/10 Q1003 TEMPO RA BKN013=
201501122250 METAR COR EGLL 122250Z 21013KT 9999 -RA SCT011 BKN018 11/10
                        Q1004 TEMPO RA BKN012=
201501122220 METAR COR EGLL 122220Z 21011KT 7000 -RA FEW009 BKN015 11/10
                        Q1004 TEMPO 4000 RA=
201501122150 METAR COR EGLL 122150Z 22011KT 9999 -RA FEW009 BKN012 11/10
                        Q1005 TEMPO 4000 RA=
201501122120 METAR COR EGLL 122120Z 22012KT 9999 -RA FEW009 BKN011 11/10
                        Q1005 TEMPO 4000 RA=
201501122050 METAR COR EGLL 122050Z 22011G21KT 9999 BKN012 11/10 Q1006
                        TEMPO 4000 RA=
201501122020 METAR COR EGLL 122020Z 21011KT 9999 FEW011 SCT018 11/09 Q1006
                        TEMPO RA BKN014=
201501121950 METAR COR EGLL 121950Z 20010KT 9999 FEW012 11/10 Q1006 TEMPO
                        RA BKN014=
201501121920 METAR COR EGLL 121920Z 21010KT 9999 FEW012 11/10 Q1007 TEMPO
                        BKN014=
201501121850 METAR COR EGLL 121850Z 22011KT 9999 -RA FEW014 11/10 Q1007
                        TEMPO 4000 RADZ BKN014=
201501121820 METAR COR EGLL 121820Z 22011KT 9999 -RA SCT018 SCT036 11/10
                        Q1007 TEMPO 4000 RADZ BKN014=
201501121750 METAR COR EGLL 121750Z 22011KT 9999 -RA FEW008 SCT022 11/10
                        Q1007 RERA TEMPO 4000 RADZ BKN012=
201501121720 METAR COR EGLL 121720Z 22013KT 7000 RA SCT012 SCT029 11/10
                        Q1007 TEMPO 4000 RADZ BKN012=
201501121650 METAR EGLL 121650Z 22010KT 7000 RA SCT020 SCT027 11/10 Q1007
                        TEMPO 4000 -RADZ BKN014=
201501121620 METAR COR EGLL 121620Z 22010KT 190V250 7000 RA FEW020 BKN027
                        11/10 Q1007 TEMPO -RA BKN014=
201501121550 METAR COR EGLL 121550Z 22012KT 8000 -RA SCT016 BKN035 11/10
                        Q1008 TEMPO BKN014=
201501121520 METAR COR EGLL 121520Z 22012KT 6000 -RADZ BKN016 11/10 Q1008
                        TEMPO BKN014=
201501121450 METAR EGLL 121450Z 23012KT 6000 -RADZ SCT016 BKN023 11/09
                        Q1008 TEMPO BKN014=
201501121420 METAR COR EGLL 121420Z 23017KT 9000 -RADZ SCT018 BKN023 12/09
                        Q1008 TEMPO BKN014=
201501121350 METAR EGLL 121350Z 23015KT 9999 -RA FEW018 BKN027 12/09 Q1008
                        TEMPO BKN014=
201501121320 METAR COR EGLL 121320Z 22013KT 9999 FEW008 SCT015 BKN020
                        11/10 Q1008 TEMPO BKN014=
201501121250 METAR EGLL 121250Z 22013KT 5000 -DZ FEW010 SCT015 BKN020
                        11/10 Q1009 TEMPO BKN014=
201501121220 METAR COR EGLL 121220Z 22014KT 5000 -DZ SCT015 BKN020 11/09
                        Q1009 TEMPO 4000 DZ=
201501121150 METAR EGLL 121150Z 22017KT 9999 FEW015 BKN020 12/09 Q1009
                        NOSIG=
201501121120 METAR COR EGLL 121120Z 22020KT 9999 BKN022 12/08 Q1010 NOSIG=
201501121050 METAR EGLL 121050Z 22019KT 9999 SCT022 BKN027 12/07 Q1010
                        NOSIG=
201501121020 METAR COR EGLL 121020Z 22019G30KT 9999 BKN027 12/07 Q1010
                        NOSIG=
201501120950 METAR EGLL 120950Z 23019KT 9999 SCT027 BKN041 11/06 Q1011
                        NOSIG=
201501120920 METAR COR EGLL 120920Z 23020G30KT 9999 FEW028 BKN041 10/06
                        Q1011 NOSIG=
201501120850 METAR EGLL 120850Z 23016KT 9999 FEW030 BKN042 10/06 Q1011
                        NOSIG=
201501120820 METAR COR EGLL 120820Z 22022G36KT 9999 FEW022 BKN048 10/06
                        Q1011 NOSIG=
201501120750 METAR COR EGLL 120750Z 23021KT 9999 FEW024 BKN046 09/06 Q1012
                        NOSIG=
201501120720 METAR COR EGLL 120720Z 23018G29KT 9999 FEW028 BKN048 09/06
                        Q1012 NOSIG=
201501120650 METAR COR EGLL 120650Z 23018KT 9999 -RA FEW035 BKN048 09/07
                        Q1012 NOSIG=
201501120620 METAR COR EGLL 120620Z 24020KT 4800 -RADZ SCT018 BKN030 09/07
                        Q1013 TEMPO 9999 NSW=
201501120550 METAR COR EGLL 120550Z 23016KT 9999 BKN023 09/06 Q1013 NOSIG=
201501120520 METAR COR EGLL 120520Z 25017G28KT 9999 SCT026 SCT031 10/05
                        Q1013 NOSIG=
201501120450 METAR COR EGLL 120450Z 24018KT 9999 SCT025 BKN045 10/05 Q1014
                        NOSIG=
201501120420 METAR COR EGLL 120420Z 24019KT 9999 BKN027 09/05 Q1014 NOSIG=
201501120350 METAR EGLL 120350Z 24017KT 9999 BKN027 09/05 Q1015 NOSIG=
201501120320 METAR EGLL 120320Z AUTO 23017KT 9999 SCT025 BKN047 09/05
                        Q1015=
201501120250 METAR EGLL 120250Z AUTO 23017KT 9999 SCT031 BKN038 09/04
                        Q1016=
201501120220 METAR COR EGLL 120220Z 23019G34KT 9999 FEW038 OVC042 09/04
                        Q1016 NOSIG=
201501120150 METAR COR EGLL 120150Z 23018KT 9999 FEW032 BKN042 09/04 Q1017
                        NOSIG=
201501120120 METAR EGLL 120120Z 23017KT 9999 BKN045 09/04 Q1017=
201501120050 METAR COR EGLL 120050Z 24012KT 9999 BKN042 09/04 Q1018 NOSIG=
201501120020 METAR COR EGLL 120020Z 23015KT 9999 FEW028 SCT033 08/04 Q1019
                        NOSIG=
201501112350 METAR COR EGLL 112350Z 24013KT 9999 FEW027 SCT032 08/05 Q1019
                        NOSIG=
201501112320 METAR COR EGLL 112320Z 24014KT 9999 -DZ FEW025 BKN031 08/05
                        Q1020 NOSIG=
201501112250 METAR COR EGLL 112250Z 24015KT 9999 -DZ BKN026 08/04 Q1021
                        NOSIG=
201501112220 METAR COR EGLL 112220Z 24018KT 9999 SCT035 SCT048 09/04 Q1021
                        NOSIG=
201501112150 METAR EGLL 112150Z 23015KT 9999 SCT030 SCT036 08/04 Q1021
                        NOSIG=
201501112120 METAR COR EGLL 112120Z 24015KT 9999 FEW032 SCT047 08/04 Q1021
                        NOSIG=
201501112050 METAR EGLL 112050Z 24014KT 9999 -RA BKN029 08/04 Q1022 NOSIG=
201501112020 METAR COR EGLL 112020Z 24014KT 9999 -RA BKN032 08/04 Q1022
                        NOSIG=
201501111950 METAR COR EGLL 111950Z 23013KT 9999 SCT035 SCT042 08/04 Q1022
                        NOSIG=
201501111920 METAR COR EGLL 111920Z 25015KT 9999 SCT034 SCT043 08/04 Q1022
                        NOSIG=
201501111850 METAR COR EGLL 111850Z 25013KT 9999 SCT031 SCT041 08/04 Q1022
                        NOSIG=
201501111820 METAR COR EGLL 111820Z 26013KT 9999 FEW031 BKN039 08/04 Q1023
                        NOSIG=
201501111750 METAR COR EGLL 111750Z 26015KT 9999 -RA SCT033 BKN038 08/04
                        Q1023 NOSIG=
201501111720 METAR COR EGLL 111720Z 24013KT 9999 SCT038 SCT043 08/03 Q1022
                        NOSIG=
201501111650 METAR EGLL 111650Z 23012KT 9999 SCT048 08/03 Q1022 NOSIG=
201501111620 METAR COR EGLL 111620Z 23010KT 9999 SCT033 SCT045 08/03 Q1023
                        NOSIG=
201501111550 METAR COR EGLL 111550Z 23011KT 9999 SCT029 SCT039 08/03 Q1023
                        NOSIG=
201501111520 METAR COR EGLL 111520Z 24013KT 9999 SCT028 SCT035 08/03 Q1024
                        NOSIG=
201501111450 METAR COR EGLL 111450Z 24015KT 9999 SCT030 SCT036 08/03 Q1023
                        NOSIG=
201501111420 METAR COR EGLL 111420Z 25015KT 9999 SCT035 SCT041 09/02 Q1023
                        NOSIG=
201501111350 METAR EGLL 111350Z 24016KT 9999 FEW036 09/02 Q1024 NOSIG=
201501111320 METAR COR EGLL 111320Z 25013KT 9999 FEW036 08/02 Q1024 NOSIG=
201501111250 METAR EGLL 111250Z 26016KT 9999 FEW035 08/02 Q1024 NOSIG=
201501111220 METAR COR EGLL 111220Z 25014KT CAVOK 08/01 Q1025 NOSIG=
201501111150 METAR EGLL 111150Z 27018KT CAVOK 08/01 Q1025 NOSIG=
201501111120 METAR COR EGLL 111120Z 27018KT CAVOK 07/01 Q1025 NOSIG=
201501111050 METAR EGLL 111050Z 27016KT CAVOK 06/01 Q1025 NOSIG=
201501111020 METAR COR EGLL 111020Z 26014KT CAVOK 05/00 Q1025 NOSIG=
201501110950 METAR EGLL 110950Z 26014KT CAVOK 05/00 Q1025 NOSIG=
201501110920 METAR COR EGLL 110920Z 27013KT CAVOK 05/00 Q1024 NOSIG=
201501110850 METAR COR EGLL 110850Z 27013KT CAVOK 04/M00 Q1024 NOSIG=
201501110820 METAR COR EGLL 110820Z 27012KT CAVOK 04/M00 Q1023 NOSIG=
201501110750 METAR EGLL 110750Z 27013KT CAVOK 04/M00 Q1022 NOSIG=
201501110720 METAR COR EGLL 110720Z 26015KT CAVOK 04/M00 Q1022 NOSIG=
201501110650 METAR EGLL 110650Z 27014KT CAVOK 04/M00 Q1022 NOSIG=
201501110620 METAR COR EGLL 110620Z 27014KT CAVOK 04/M00 Q1021 NOSIG=
201501110550 METAR EGLL 110550Z 26013KT CAVOK 04/M00 Q1021 NOSIG=
201501110520 METAR COR EGLL 110520Z 26014KT CAVOK 04/M00 Q1021 NOSIG=
201501110450 METAR EGLL 110450Z 27014KT CAVOK 03/00 Q1020 NOSIG=
201501110420 METAR COR EGLL 110420Z 27012KT CAVOK 03/00 Q1020 NOSIG=
201501110350 METAR EGLL 110350Z 27014KT CAVOK 03/01 Q1020 NOSIG=
201501110320 METAR COR EGLL 110320Z 27011KT CAVOK 03/01 Q1019 NOSIG=
201501110250 METAR COR EGLL 110250Z 26013KT CAVOK 04/01 Q1019 NOSIG=
201501110220 METAR EGLL 110220Z AUTO 25013KT 9999 NCD 04/01 Q1019=
201501110150 METAR EGLL 110150Z AUTO 25011KT 9999 NCD 04/01 Q1019=
201501110120 METAR EGLL 110120Z AUTO 25010KT 9999 NCD 04/01 Q1019=
201501110050 METAR COR EGLL 110050Z 25011KT CAVOK 04/01 Q1019 NOSIG=
201501110020 METAR COR EGLL 110020Z 25012KT CAVOK 04/00 Q1019 NOSIG=
201501102350 METAR EGLL 102350Z 25011KT CAVOK 04/00 Q1019 NOSIG=
201501102320 METAR COR EGLL 102320Z 26011KT CAVOK 04/M00 Q1020 NOSIG=
201501102250 METAR COR EGLL 102250Z 25012KT CAVOK 05/M00 Q1020 NOSIG=
201501102220 METAR COR EGLL 102220Z 25012KT CAVOK 05/M00 Q1020 NOSIG=
201501102150 METAR EGLL 102150Z 25014KT CAVOK 05/M01 Q1019 NOSIG=
201501102120 METAR COR EGLL 102120Z 26013KT CAVOK 05/M01 Q1019 NOSIG=
201501102050 METAR COR EGLL 102050Z 26012KT CAVOK 05/M01 Q1019 NOSIG=
201501102020 METAR COR EGLL 102020Z 25012KT CAVOK 05/M01 Q1020 NOSIG=
201501101950 METAR EGLL 101950Z 26013KT CAVOK 05/M01 Q1020 NOSIG=
201501101920 METAR COR EGLL 101920Z 26012KT CAVOK 06/M01 Q1020 NOSIG=
201501101850 METAR EGLL 101850Z 27012KT CAVOK 05/M00 Q1020 NOSIG=
201501101820 METAR COR EGLL 101820Z 27013KT CAVOK 06/M01 Q1019 NOSIG=
201501101750 METAR COR EGLL 101750Z 26012KT CAVOK 06/00 Q1019 NOSIG=
201501101720 METAR COR EGLL 101720Z 27010KT CAVOK 06/M01 Q1019 NOSIG=
201501101650 METAR EGLL 101650Z 27012KT 9999 FEW048 07/M01 Q1018 NOSIG=
201501101620 METAR COR EGLL 101620Z 29010KT 9999 FEW048 07/M01 Q1018 NOSIG=
201501101550 METAR COR EGLL 101550Z 29014KT 9999 FEW020 08/M01 Q1018 NOSIG=
201501101520 METAR COR EGLL 101520Z 29018G31KT 9999 FEW040 08/M02 Q1017
                        NOSIG=
201501101450 METAR COR EGLL 101450Z 30014KT 9999 FEW044 09/M01 Q1017 NOSIG=
201501101420 METAR COR EGLL 101420Z 29015G25KT 9999 FEW044 09/01 Q1016
                        NOSIG=
201501101350 METAR EGLL 101350Z 29020G31KT CAVOK 10/01 Q1015 NOSIG=
201501101320 METAR COR EGLL 101320Z 29020G30KT 9999 FEW042 10/02 Q1014
                        NOSIG=
201501101250 METAR EGLL 101250Z 29020G34KT 9999 SCT042 10/03 Q1014 NOSIG=
201501101220 METAR COR EGLL 101220Z 30018G28KT 9999 FEW034 SCT041 11/06
                        Q1013 NOSIG=
201501101150 METAR COR EGLL 101150Z 28016KT 9999 FEW030 SCT048 11/06 Q1013
                        NOSIG=
201501101120 METAR COR EGLL 101120Z 28014KT 9999 SCT039 10/07 Q1012 RESHRA
                        NOSIG=
201501101050 METAR COR EGLL 101050Z 27033KT 9999 7000N -RA SCT026 SCT030
                        13/09 Q1011 TEMPO RA BKN014=
201501101020 METAR COR EGLL 101020Z 25025G35KT 9999 FEW036 14/10 Q1009
                        TEMPO RA BKN014=
201501100950 METAR EGLL 100950Z 24023G34KT 9999 SCT017 13/11 Q1009 TEMPO
                        RA BKN013=
201501100920 METAR COR EGLL 100920Z 24022G32KT 8000 -RADZ SCT013 SCT017
                        12/11 Q1009 TEMPO RA BKN012=
201501100850 METAR COR EGLL 100850Z 24021KT 9999 SCT015 SCT020 13/10 Q1009
                        TEMPO RA BKN014=
201501100820 METAR COR EGLL 100820Z 24022KT 9999 FEW017 SCT022 13/10 Q1009
                        TEMPO BKN014=
201501100750 METAR COR EGLL 100750Z 24021KT 9999 SCT019 SCT030 13/10 Q1009
                        TEMPO BKN014=
201501100720 METAR COR EGLL 100720Z 24022G32KT 9999 SCT015 SCT028 13/10
                        Q1009 TEMPO BKN014=
201501100650 METAR EGLL 100650Z 24018G29KT 9999 SCT015 SCT020 13/10 Q1010
                        TEMPO BKN014=
201501100620 METAR COR EGLL 100620Z 23020KT 9999 SCT016 BKN022 13/10 Q1010
                        TEMPO BKN014=
201501100550 METAR COR EGLL 100550Z 23017KT 9999 BKN018 12/10 Q1011 TEMPO
                        BKN014=
201501100520 METAR COR EGLL 100520Z 24017KT 9999 BKN016 12/10 Q1012 TEMPO
                        BKN014=
201501100450 METAR EGLL 100450Z 24017G27KT 9999 BKN019 12/10 Q1012 TEMPO
                        BKN014=
201501100420 METAR COR EGLL 100420Z 23018G28KT 9999 BKN017 12/10 Q1012
                        TEMPO BKN014=
201501100350 METAR EGLL 100350Z 24021KT 9999 SCT019 BKN024 13/10 Q1013
                        TEMPO BKN014=
201501100320 METAR COR EGLL 100320Z 24019KT 9999 FEW019 BKN021 13/09 Q1013
                        TEMPO BKN014=
201501100250 METAR COR EGLL 100250Z 24023G34KT 9999 FEW019 BKN023 13/09
                        Q1014 TEMPO BKN014=
201501100220 METAR EGLL 100220Z AUTO 25023G33KT 9999 SCT018 BKN022 13/09
                        Q1014=
201501100150 METAR EGLL 100150Z AUTO 25024G34KT 9999 BKN017 13/10 Q1014=
201501100120 METAR EGLL 100120Z AUTO 25022G37KT 9999 OVC015 13/10 Q1014=
201501100050 METAR EGLL 100050Z 24021G32KT 9999 BKN016 13/11 Q1015 TEMPO
                        BKN014=
201501100020 METAR COR EGLL 100020Z 24021KT 9999 BKN016 14/11 Q1015 TEMPO
                        BKN014=
201501092350 METAR COR EGLL 092350Z 25018KT 9999 BKN015 13/11 Q1015 TEMPO
                        BKN014=
201501092320 METAR COR EGLL 092320Z 25020KT 9999 BKN019 14/10 Q1016 TEMPO
                        BKN014=
201501092250 METAR COR EGLL 092250Z 25018G28KT 9999 BKN022 14/10 Q1016
                        NOSIG=
201501092220 METAR COR EGLL 092220Z 26028G38KT 9999 BKN024 14/10 Q1016
                        NOSIG=
201501092150 METAR COR EGLL 092150Z 26025KT 9999 SCT024 14/10 Q1015 NOSIG=
201501092120 METAR COR EGLL 092120Z 26025KT 9999 SCT024 SCT028 14/10 Q1015
                        TEMPO BKN014=
201501092050 METAR EGLL 092050Z 26024G35KT 9999 SCT023 SCT026 14/10 Q1016
                        TEMPO BKN014=
201501092020 METAR COR EGLL 092020Z 26022G32KT 9999 BKN023 14/10 Q1016
                        TEMPO BKN014=
201501091950 METAR EGLL 091950Z 26024KT 9999 BKN018 BKN024 16/11 Q1015
                        TEMPO BKN012=
201501091920 METAR COR EGLL 091920Z 26026G37KT 9999 BKN013 15/12 Q1015
                        TEMPO BKN015=
201501091850 METAR COR EGLL 091850Z 25021KT 9999 BKN014 BKN020 15/13 Q1014
                        TEMPO 8000 -RADZ=
201501091820 METAR COR EGLL 091820Z 24015KT 9999 BKN014 BKN020 14/12 Q1014
                        TEMPO 8000 -RADZ=
201501091750 METAR COR EGLL 091750Z 24016KT 9999 SCT012 BKN015 14/12 Q1015
                        TEMPO 8000 -RADZ BKN012=
201501091720 METAR COR EGLL 091720Z 24016KT 9999 BKN012 13/11 Q1015 NOSIG=
201501091650 METAR COR EGLL 091650Z 24015KT 9000 BKN012 13/11 Q1015 NOSIG=
201501091620 METAR COR EGLL 091620Z 24018KT 9999 BKN014 12/10 Q1015 NOSIG=
201501091550 METAR EGLL 091550Z 24019KT 8000 -RA SCT018 BKN021 12/09 Q1016
                        TEMPO 9999 NSW=
201501091520 METAR COR EGLL 091520Z 24018KT 9999 FEW019 BKN024 13/08 Q1016
                        TEMPO BKN014=
201501091450 METAR COR EGLL 091450Z 24017KT 9999 SCT030 SCT040 13/07 Q1016
                        NOSIG=
201501091420 METAR COR EGLL 091420Z 24018KT 9999 FEW030 13/07 Q1016 NOSIG=
201501091350 METAR COR EGLL 091350Z 25019G30KT CAVOK 13/07 Q1017 NOSIG=
201501091320 METAR COR EGLL 091320Z 25018KT CAVOK 13/07 Q1017 NOSIG=
201501091250 METAR EGLL 091250Z 25018KT CAVOK 12/07 Q1018 NOSIG=
201501091220 METAR COR EGLL 091220Z 25016KT 9999 FEW025 12/08 Q1019 NOSIG=
201501091150 METAR EGLL 091150Z 24015KT 9999 FEW018 12/08 Q1020 NOSIG=
201501091120 METAR COR EGLL 091120Z 25018KT 9999 FEW018 12/08 Q1020 NOSIG=
201501091050 METAR COR EGLL 091050Z 25021G31KT 9999 FEW018 12/08 Q1020
                        NOSIG=
201501091020 METAR COR EGLL 091020Z 26018KT 9999 FEW016 12/08 Q1020 NOSIG=
201501090950 METAR COR EGLL 090950Z 26019KT CAVOK 12/08 Q1019 NOSIG=
201501090920 METAR COR EGLL 090920Z 25016KT CAVOK 11/08 Q1018 NOSIG=
201501090850 METAR COR EGLL 090850Z 26019KT CAVOK 11/08 Q1019 NOSIG=
201501090820 METAR COR EGLL 090820Z 26021KT 9999 FEW014 11/08 Q1019 NOSIG=
201501090750 METAR COR EGLL 090750Z 26020KT 9999 SCT014 12/09 Q1019 NOSIG=
201501090720 METAR COR EGLL 090720Z 26019KT 9999 SCT014 SCT017 12/10 Q1018
                        TEMPO BKN014=
201501090650 METAR EGLL 090650Z 25018KT 9999 SCT014 BKN017 12/10 Q1018
                        TEMPO BKN014=
201501090620 METAR COR EGLL 090620Z 25018G29KT 9999 FEW013 BKN017 11/09
                        Q1018 TEMPO BKN014=
201501090550 METAR EGLL 090550Z 25016KT 9999 FEW012 BKN016 11/09 Q1017
                        TEMPO BKN014=
201501090520 METAR COR EGLL 090520Z 24015KT 9999 FEW012 BKN016 11/09 Q1018
                        TEMPO BKN014=
201501090450 METAR EGLL 090450Z 24014KT 9999 FEW010 BKN013 11/09 Q1019
                        TEMPO BKN008=
201501090420 METAR COR EGLL 090420Z 23015KT 9999 FEW011 BKN014 10/09 Q1019
                        TEMPO BKN008=
201501090350 METAR COR EGLL 090350Z 23016KT 9999 FEW010 BKN014 10/09 Q1019
                        TEMPO BKN008=
201501090320 METAR COR EGLL 090320Z 23016KT 9999 SCT015 SCT030 10/08 Q1020
                        TEMPO BKN014=
201501090250 METAR EGLL 090250Z 23016KT 9999 SCT020 SCT028 10/08 Q1020
                        TEMPO BKN014=
201501090220 METAR EGLL 090220Z AUTO 23018KT 9999 -DZ NCD 09/07 Q1020=
201501090150 METAR EGLL 090150Z AUTO 23018KT 9999 -RA BKN035 09/07 Q1021=
201501090120 METAR EGLL 090120Z AUTO 22015KT 9999 -RA FEW048 09/06 Q1021=
201501090050 METAR EGLL 090050Z 23015KT CAVOK 09/05 Q1022 NOSIG=
201501090020 METAR COR EGLL 090020Z 23014KT 9999 FEW026 09/05 Q1023 NOSIG=
201501082350 METAR COR EGLL 082350Z 23015KT 9999 FEW036 09/05 Q1024 NOSIG=
201501082320 METAR COR EGLL 082320Z 24015KT 9999 FEW030 09/05 Q1025 NOSIG=
201501082250 METAR EGLL 082250Z 23015KT CAVOK 08/05 Q1024 NOSIG=
201501082220 METAR COR EGLL 082220Z 23012KT CAVOK 08/04 Q1025 NOSIG=
201501082150 METAR EGLL 082150Z 21011KT CAVOK 07/04 Q1025 NOSIG=
201501082120 METAR COR EGLL 082120Z 21011KT CAVOK 07/04 Q1025 NOSIG=
201501082050 METAR COR EGLL 082050Z 22012KT CAVOK 07/04 Q1026 NOSIG=
201501082020 METAR COR EGLL 082020Z 22009KT 9999 FEW039 07/04 Q1027 NOSIG=
201501081950 METAR EGLL 081950Z 22009KT 9999 FEW039 07/04 Q1027 NOSIG=
201501081920 METAR COR EGLL 081920Z 24009KT CAVOK 07/04 Q1027 NOSIG=
201501081850 METAR EGLL 081850Z 24011KT 9999 FEW035 07/04 Q1027 NOSIG=
201501081820 METAR COR EGLL 081820Z 24010KT CAVOK 08/04 Q1027 NOSIG=
201501081750 METAR EGLL 081750Z 24012KT 9999 FEW040 08/05 Q1027 NOSIG=
201501081720 METAR COR EGLL 081720Z 24011KT 9999 FEW041 08/05 Q1026 NOSIG=
201501081650 METAR EGLL 081650Z 24010KT 9999 FEW040 08/05 Q1025 NOSIG=
201501081620 METAR COR EGLL 081620Z 24009KT 9999 FEW043 09/05 Q1025 NOSIG=
201501081550 METAR EGLL 081550Z 24008KT 9999 FEW031 09/05 Q1024 NOSIG=
201501081520 METAR COR EGLL 081520Z 26009KT 220V290 9999 FEW033 SCT039
                        09/05 Q1023 NOSIG=
201501081450 METAR COR EGLL 081450Z 27012KT 9999 FEW033 09/05 Q1023 NOSIG=
201501081420 METAR COR EGLL 081420Z 27012KT 9999 FEW033 09/06 Q1022 NOSIG=
201501081350 METAR EGLL 081350Z 28012KT 9999 FEW033 09/06 Q1021 NOSIG=
201501081320 METAR COR EGLL 081320Z 28010KT 9999 FEW035 09/06 Q1020 NOSIG=
201501081250 METAR COR EGLL 081250Z 27012KT 9999 FEW044 09/07 Q1020 NOSIG=
201501081220 METAR COR EGLL 081220Z 26011KT 9999 FEW043 08/07 Q1020 NOSIG=
201501081150 METAR EGLL 081150Z 26008KT 9999 -DZ SCT038 SCT045 08/07 Q1018
                        NOSIG=
201501081120 METAR EGLL 081120Z 28009KT 9999 -RA FEW032 BKN034 08/07 Q1019
                        NOSIG=
201501081050 METAR COR EGLL 081050Z 28008KT 9999 -RA FEW010 BKN031 08/07
                        Q1019 RERA NOSIG=
201501081020 METAR COR EGLL 081020Z 28008KT 8000 RA FEW021 SCT025 BKN030
                        08/07 Q1018 NOSIG=
201501080950 METAR COR EGLL 080950Z 29006KT 7000 RA FEW010 BKN026 09/08
                        Q1018 NOSIG=
201501080920 METAR COR EGLL 080920Z 29004KT 6000 RA BKN030 09/08 Q1017
                        NOSIG=
201501080850 METAR COR EGLL 080850Z 29005KT 7000 RA FEW029 BKN034 09/07
                        Q1017 TEMPO 4000=
201501080820 METAR COR EGLL 080820Z 27007KT 8000 RA FEW027 BKN032 09/07
                        Q1017 TEMPO 4000=
201501080750 METAR COR EGLL 080750Z 24008KT 9000 -RA FEW025 BKN034 09/07
                        Q1017 NOSIG=
201501080720 METAR COR EGLL 080720Z 25009KT 9999 -RA FEW036 BKN047 10/07
                        Q1017 TEMPO BKN012=
201501080650 METAR EGLL 080650Z 24009KT 210V270 9999 FEW037 BKN040 11/06
                        Q1016 TEMPO BKN014=
201501080620 METAR COR EGLL 080620Z 24009KT 9999 BKN034 11/07 Q1017 NOSIG=
201501080550 METAR EGLL 080550Z 25014KT 9999 BKN029 11/07 Q1017 TEMPO
                        BKN014=
201501080520 METAR COR EGLL 080520Z 25012KT 9999 BKN031 11/08 Q1017 NOSIG=
201501080450 METAR COR EGLL 080450Z 25012KT 9999 FEW018 BKN032 11/07 Q1017
                        NOSIG=
201501080420 METAR COR EGLL 080420Z 22011KT 9000 -RA FEW010 SCT015 BKN021
                        11/10 Q1017 TEMPO BKN014=
201501080350 METAR EGLL 080350Z 22010KT 9999 FEW009 BKN018 11/10 Q1018
                        TEMPO BKN011=
201501080320 METAR COR EGLL 080320Z 21010KT 9999 -RA FEW005 BKN012 11/10
                        Q1018 TEMPO 4800 RADZ BKN009=
201501080250 METAR EGLL 080250Z 21011KT 8000 -RA FEW006 BKN012 11/10 Q1018
                        TEMPO 4800 RADZ BKN009=
201501080220 METAR EGLL 080220Z AUTO 22011KT 9999 SCT009 BKN014 11/10
                        Q1018=
201501080150 METAR EGLL 080150Z AUTO 22014KT 9999 SCT010 BKN014 OVC018
                        11/10 Q1018=
201501080120 METAR EGLL 080120Z AUTO 22013KT 9999 BKN010 11/09 Q1018=
201501080050 METAR EGLL 080050Z 23015KT 9999 -RA FEW009 BKN013 10/09 Q1018
                        TEMPO BKN009=
201501080020 METAR COR EGLL 080020Z 22016KT 9999 FEW010 BKN014 10/09 Q1018
                        TEMPO BKN009=
201501072350 METAR EGLL 072350Z 22014KT 9999 BKN014 10/09 Q1018 TEMPO
                        SCT014 BKN018=
201501072320 METAR COR EGLL 072320Z 22016KT 9999 SCT013 BKN017 10/08 Q1018
                        TEMPO BKN012=
201501072250 METAR EGLL 072250Z 22016KT 9999 -RA SCT012 BKN019 10/08 Q1019
                        TEMPO BKN012=
201501072220 METAR COR EGLL 072220Z 23017KT 9999 FEW015 BKN021 10/08 Q1019
                        TEMPO BKN012=
201501072150 METAR COR EGLL 072150Z 23017KT 9999 SCT017 BKN021 10/07 Q1019
                        NOSIG=
201501072120 METAR COR EGLL 072120Z 22016KT 9999 FEW016 BKN022 10/07 Q1019
                        TEMPO BKN012=
201501072050 METAR COR EGLL 072050Z 22016KT 9999 BKN018 10/07 Q1019 TEMPO
                        BKN012=
201501072020 METAR COR EGLL 072020Z 22012KT 9999 -RA FEW018 BKN020 10/07
                        Q1019 TEMPO BKN012=
201501071950 METAR EGLL 071950Z 22017KT 9999 BKN020 09/07 Q1020 TEMPO
                        BKN012=
201501071920 METAR COR EGLL 071920Z 22016KT 9999 -RA BKN019 10/07 Q1020
                        TEMPO BKN012=
201501071850 METAR EGLL 071850Z 21015KT 9999 -RA BKN021 09/06 Q1020 TEMPO
                        BKN014=
201501071820 METAR COR EGLL 071820Z 22016KT 9999 FEW019 BKN021 09/06 Q1020
                        NOSIG=
201501071750 METAR COR EGLL 071750Z 22013KT 9999 BKN022 09/06 Q1020 NOSIG=
201501071720 METAR COR EGLL 071720Z 22016KT 9999 BKN022 09/05 Q1020 NOSIG=
201501071650 METAR EGLL 071650Z 22015KT 9999 BKN022 09/05 Q1021 NOSIG=
201501071620 METAR COR EGLL 071620Z 22013KT 9999 -RA BKN024 09/05 Q1021
                        NOSIG=
201501071550 METAR EGLL 071550Z 21013KT 9999 FEW026 BKN028 09/05 Q1021
                        NOSIG=
201501071520 METAR COR EGLL 071520Z 21014KT 9999 FEW028 BKN031 09/05 Q1021
                        NOSIG=
201501071450 METAR EGLL 071450Z 22015G29KT 9999 FEW031 SCT046 09/04 Q1021
                        NOSIG=
201501071420 METAR COR EGLL 071420Z 22014KT 9999 FEW037 SCT048 09/04 Q1022
                        NOSIG=
201501071350 METAR EGLL 071350Z 22015G25KT 9999 FEW033 SCT039 09/05 Q1022
                        NOSIG=
201501071320 METAR COR EGLL 071320Z 21013KT 9999 FEW029 09/05 Q1022 NOSIG=
201501071250 METAR COR EGLL 071250Z 21014G24KT 9999 FEW026 09/06 Q1023
                        NOSIG=
201501071220 METAR COR EGLL 071220Z 20012G23KT 180V240 9999 FEW048 09/06
                        Q1023 NOSIG=
201501071150 METAR COR EGLL 071150Z 20011KT CAVOK 08/06 Q1024 NOSIG=
201501071120 METAR COR EGLL 071120Z 20012KT 9999 FEW042 08/05 Q1025 NOSIG=
201501071050 METAR EGLL 071050Z 20011KT CAVOK 07/05 Q1025 NOSIG=
201501071020 METAR COR EGLL 071020Z 21011KT 180V240 CAVOK 07/04 Q1025
                        NOSIG=
201501070950 METAR COR EGLL 070950Z 21010KT 180V260 CAVOK 06/04 Q1026
                        NOSIG=
201501070920 METAR COR EGLL 070920Z 20009KT 180V240 CAVOK 05/04 Q1026
                        NOSIG=
201501070850 METAR EGLL 070850Z 21008KT CAVOK 03/03 Q1026 NOSIG=
201501070820 METAR COR EGLL 070820Z 20007KT CAVOK 03/03 Q1026 NOSIG=
201501070750 METAR EGLL 070750Z 19006KT CAVOK 03/02 Q1026 NOSIG=
201501070720 METAR COR EGLL 070720Z 19007KT 170V240 CAVOK 03/02 Q1026
                        NOSIG=
201501070650 METAR EGLL 070650Z 20006KT CAVOK 02/02 Q1026 NOSIG=
201501070620 METAR COR EGLL 070620Z VRB05KT CAVOK 02/01 Q1026 NOSIG=
201501070550 METAR COR EGLL 070550Z 18004KT CAVOK 02/01 Q1026 NOSIG=
201501070520 METAR COR EGLL 070520Z 20004KT 9999 SCT046 02/02 Q1027 NOSIG=
201501070450 METAR EGLL 070450Z VRB02KT CAVOK 02/01 Q1027 NOSIG=
201501070420 METAR COR EGLL 070420Z 23003KT CAVOK 02/01 Q1026 NOSIG=
201501070350 METAR COR EGLL 070350Z 21004KT 9999 FEW042 02/01 Q1026 NOSIG=
201501070320 METAR COR EGLL 070320Z 20003KT 9999 FEW047 02/01 Q1026 NOSIG=
201501070250 METAR EGLL 070250Z 21004KT 9999 SCT047 01/00 Q1027 NOSIG=
201501070220 METAR COR EGLL 070220Z 22003KT CAVOK 02/01 Q1027 NOSIG=
201501070150 METAR EGLL 070150Z 20005KT CAVOK 02/01 Q1027 NOSIG=
201501070120 METAR EGLL 070120Z 19004KT CAVOK 02/01 Q1027=
201501070050 METAR EGLL 070050Z VRB02KT CAVOK 02/01 Q1027 NOSIG=
201501070020 METAR COR EGLL 070020Z VRB02KT CAVOK 02/01 Q1027 NOSIG=
201501062350 METAR COR EGLL 062350Z VRB02KT CAVOK 02/01 Q1027 NOSIG=
201501062320 METAR COR EGLL 062320Z VRB02KT CAVOK 02/01 Q1026 NOSIG=
201501062250 METAR EGLL 062250Z 24004KT 220V280 CAVOK 03/01 Q1026 NOSIG=
201501062220 METAR COR EGLL 062220Z 20004KT 180V240 CAVOK 02/01 Q1026
                        NOSIG=
201501062150 METAR EGLL 062150Z 27005KT CAVOK 03/01 Q1026 NOSIG=
201501062120 METAR COR EGLL 062120Z 27007KT CAVOK 04/02 Q1026 NOSIG=
201501062050 METAR EGLL 062050Z 28005KT CAVOK 05/02 Q1026 NOSIG=
201501062020 METAR COR EGLL 062020Z 27007KT CAVOK 04/01 Q1026 NOSIG=
201501061950 METAR EGLL 061950Z 27007KT CAVOK 05/02 Q1025 NOSIG=
201501061920 METAR COR EGLL 061920Z 27005KT CAVOK 05/02 Q1024 NOSIG=
201501061850 METAR EGLL 061850Z 27007KT CAVOK 05/02 Q1024 NOSIG=
201501061820 METAR COR EGLL 061820Z 27008KT CAVOK 05/02 Q1024 NOSIG=
201501061750 METAR EGLL 061750Z 28007KT CAVOK 05/02 Q1023 NOSIG=
201501061720 METAR COR EGLL 061720Z 27007KT CAVOK 06/03 Q1023 NOSIG=
201501061650 METAR COR EGLL 061650Z 28009KT CAVOK 06/02 Q1022 NOSIG=
201501061620 METAR COR EGLL 061620Z 28008KT 9999 FEW028 07/03 Q1022 NOSIG=
201501061550 METAR EGLL 061550Z 29007KT 9999 FEW026 SCT031 08/04 Q1021
                        NOSIG=
201501061520 METAR COR EGLL 061520Z 29007KT 9999 FEW032 BKN035 08/03 Q1021
                        NOSIG=
201501061450 METAR COR EGLL 061450Z 30011KT 9999 BKN027 08/04 Q1021 NOSIG=
201501061420 METAR COR EGLL 061420Z 31011KT 9999 FEW020 BKN031 08/04 Q1020
                        NOSIG=
201501061350 METAR COR EGLL 061350Z 30015KT 9999 FEW010 SCT019 09/06 Q1019
                        NOSIG=
201501061320 METAR COR EGLL 061320Z 29012KT 9999 FEW010 SCT018 09/07 Q1018
                        NOSIG=
201501061250 METAR EGLL 061250Z 28012KT 6000 -RA FEW009 SCT013 BKN022
                        09/08 Q1018 NOSIG=
201501061220 METAR COR EGLL 061220Z 22010KT 180V250 5000 -RADZ FEW008
                        SCT009 BKN012 10/09 Q1017 TEMPO RA=
201501061150 METAR EGLL 061150Z 21011G21KT 180V240 6000 -RA FEW009 SCT010
                        BKN019 10/09 Q1017 TEMPO BKN010=
201501061120 METAR COR EGLL 061120Z 20009KT 160V250 9999 FEW013 BKN016
                        10/09 Q1017 TEMPO RA BKN014=
201501061050 METAR COR EGLL 061050Z 21009KT 180V250 9999 FEW008 SCT018
                        09/08 Q1018 TEMPO RA BKN012=
201501061020 METAR COR EGLL 061020Z 21011KT 180V240 9999 FEW007 SCT013
                        09/08 Q1018 TEMPO RA BKN012=
201501060950 METAR COR EGLL 060950Z 21011KT 170V240 9999 FEW007 SCT009
                        BKN011 09/08 Q1018 TEMPO SCT008 BKN012=
201501060920 METAR COR EGLL 060920Z 19010KT 8000 -RA SCT007 BKN009 08/08
                        Q1018 TEMPO SCT008 BKN012=
201501060850 METAR COR EGLL 060850Z 20010KT 9999 SCT008 BKN009 08/07 Q1018
                        TEMPO SCT009 BKN012=
201501060820 METAR COR EGLL 060820Z 19010KT 170V230 9999 FEW007 BKN010
                        08/07 Q1018 TEMPO BKN008=
201501060750 METAR COR EGLL 060750Z 18011KT 7000 FEW009 BKN012 08/07 Q1018
                        TEMPO BKN008=
201501060720 METAR COR EGLL 060720Z 19009KT 9999 FEW013 BKN022 08/06 Q1018
                        TEMPO BKN012=
201501060650 METAR COR EGLL 060650Z 20010KT 9999 FEW011 BKN030 08/06 Q1019
                        TEMPO 6000 -RADZ BKN012=
201501060620 METAR COR EGLL 060620Z 19010KT 170V240 9999 SCT031 BKN041
                        08/06 Q1019 NOSIG=
201501060550 METAR COR EGLL 060550Z 18008KT 9999 BKN036 08/06 Q1019 TEMPO
                        6000 -RADZ BKN012=
201501060520 METAR COR EGLL 060520Z 19009KT 9999 BKN036 08/06 Q1019 TEMPO
                        BKN012=
201501060450 METAR COR EGLL 060450Z 18009KT 9999 BKN034 08/05 Q1019 NOSIG=
201501060420 METAR COR EGLL 060420Z 16007KT 9999 BKN032 08/05 Q1020 BECMG
                        BKN012=
201501060350 METAR COR EGLL 060350Z 17007KT 9999 BKN029 08/05 Q1020 NOSIG=
201501060320 METAR COR EGLL 060320Z 19006KT 9999 BKN032 08/05 Q1021 NOSIG=
201501060250 METAR COR EGLL 060250Z 17006KT 9999 BKN031 07/04 Q1021 NOSIG=
201501060220 METAR COR EGLL 060220Z 17006KT 9999 BKN032 08/04 Q1021 NOSIG=
201501060150 METAR COR EGLL 060150Z 18006KT 9999 BKN030 08/04 Q1022 NOSIG=
201501060120 METAR COR EGLL 060120Z 17006KT 9999 BKN030 08/05 Q1022 NOSIG=
201501060050 METAR COR EGLL 060050Z 17006KT 9999 BKN026 08/05 Q1022 NOSIG=
201501060020 METAR COR EGLL 060020Z 16007KT 9999 BKN025 08/05 Q1022 NOSIG=
201501052350 METAR COR EGLL 052350Z 17007KT 9999 BKN025 08/05 Q1023 NOSIG=
201501052320 METAR COR EGLL 052320Z 17006KT 9999 BKN025 08/05 Q1023 NOSIG=
201501052250 METAR COR EGLL 052250Z 17008KT 9999 BKN025 08/05 Q1024 NOSIG=
201501052220 METAR COR EGLL 052220Z 19007KT 160V220 9999 BKN025 08/04
                        Q1024 NOSIG=
201501052150 METAR COR EGLL 052150Z 19007KT 160V220 9999 BKN026 08/05
                        Q1024 NOSIG=
201501052120 METAR COR EGLL 052120Z 21008KT 9999 BKN021 08/05 Q1025 NOSIG=
201501052050 METAR COR EGLL 052050Z 22007KT 9999 OVC022 08/05 Q1025 NOSIG=
201501052020 METAR COR EGLL 052020Z 22008KT 9999 BKN023 08/04 Q1025 NOSIG=
201501051950 METAR COR EGLL 051950Z 21008KT 190V260 9999 OVC023 08/05
                        Q1025 NOSIG=
201501051920 METAR COR EGLL 051920Z 21008KT 9999 OVC024 09/05 Q1026 NOSIG=
201501051850 METAR COR EGLL 051850Z 21007KT 170V240 9999 BKN023 09/05
                        Q1026 NOSIG=
201501051820 METAR COR EGLL 051820Z 20009KT 170V230 9999 OVC023 09/05
                        Q1026 NOSIG=
201501051750 METAR COR EGLL 051750Z 21008KT 9999 BKN023 09/05 Q1026 NOSIG=
201501051720 METAR COR EGLL 051720Z 21008KT 9999 BKN023 09/05 Q1026 NOSIG=
201501051650 METAR COR EGLL 051650Z 21008KT 190V260 9999 BKN023 09/06
                        Q1026 NOSIG=
201501051620 METAR COR EGLL 051620Z 21007KT 160V240 9999 BKN023 09/06
                        Q1027 NOSIG=
201501051550 METAR COR EGLL 051550Z 21009KT 180V240 9999 BKN025 09/06
                        Q1027 NOSIG=
201501051520 METAR COR EGLL 051520Z 21007KT 170V260 9999 FEW019 BKN024
                        09/07 Q1027 NOSIG=
201501051450 METAR COR EGLL 051450Z 21007KT 180V240 9999 BKN026 09/07
                        Q1027 NOSIG=
201501051420 METAR COR EGLL 051420Z 21007KT 170V250 9999 BKN025 10/07
                        Q1027 NOSIG=
201501051350 METAR COR EGLL 051350Z 22007KT 180V250 9999 BKN029 10/07
                        Q1027 NOSIG=
201501051320 METAR COR EGLL 051320Z 22008KT 170V250 9999 BKN029 09/08
                        Q1028 NOSIG=
201501051250 METAR COR EGLL 051250Z 22008KT 190V260 8000 BKN030 09/08
                        Q1028 NOSIG=
201501051220 METAR COR EGLL 051220Z 22008KT 180V260 7000 BKN029 09/08
                        Q1029 NOSIG=
201501051150 METAR COR EGLL 051150Z 22008KT 180V250 6000 BKN030 09/08
                        Q1029 NOSIG=
201501051120 METAR COR EGLL 051120Z 21008KT 180V260 6000 BKN029 08/07
                        Q1029 NOSIG=
201501051050 METAR COR EGLL 051050Z 21008KT 6000 BKN029 08/07 Q1029 NOSIG=
201501051020 METAR COR EGLL 051020Z 21009KT 180V250 7000 FEW004 BKN030
                        08/07 Q1030 NOSIG=
201501050950 METAR COR EGLL 050950Z 20008KT 170V250 8000 FEW004 BKN031
                        07/06 Q1030 NOSIG=
201501050920 METAR COR EGLL 050920Z 18006KT 160V220 9000 FEW007 BKN032
                        06/06 Q1030 NOSIG=
201501050850 METAR COR EGLL 050850Z 19006KT 150V230 9000 FEW009 BKN032
                        06/05 Q1030 NOSIG=
201501050820 METAR COR EGLL 050820Z 19006KT 160V240 9000 BKN033 06/05
                        Q1030 NOSIG=
201501050750 METAR COR EGLL 050750Z VRB03KT 9000 BKN032 05/05 Q1030 NOSIG=
201501050720 METAR COR EGLL 050720Z 20005KT 170V240 9000 BKN032 05/04
                        Q1030 NOSIG=
201501050650 METAR COR EGLL 050650Z VRB03KT 9000 FEW018 BKN032 05/04 Q1030
                        NOSIG=
201501050620 METAR EGLL 050620Z VRB03KT 8000 BKN030 05/04 Q1030=
201501050550 METAR COR EGLL 050550Z VRB02KT 7000 BKN030 05/04 Q1031 NOSIG=
201501050520 METAR COR EGLL 050520Z 18003KT 7000 BKN032 05/04 Q1031 NOSIG=
201501050450 METAR COR EGLL 050450Z 18003KT 6000 BKN032 05/04 Q1031 NOSIG=
201501050420 METAR COR EGLL 050420Z VRB02KT 6000 BKN030 04/04 Q1031 NOSIG=
201501050350 METAR COR EGLL 050350Z VRB02KT 6000 BKN028 04/04 Q1032 NOSIG=
201501050320 METAR COR EGLL 050320Z VRB02KT 5000 BR BKN027 04/04 Q1032
                        NOSIG=
201501050250 METAR EGLL 050250Z AUTO 15003KT 4400 BR OVC029 04/03 Q1033=
201501050220 METAR EGLL 050220Z AUTO 14003KT 4900 BR OVC029 03/03 Q1033=
201501050150 METAR EGLL 050150Z AUTO 14003KT 5000 SCT019 BKN028 03/03
                        Q1033=
201501050120 METAR COR EGLL 050120Z VRB02KT 5000 BR BKN020 03/03 Q1033
                        NOSIG=
201501050050 METAR COR EGLL 050050Z VRB03KT 5000 BR BKN020 03/03 Q1034
                        NOSIG=
201501050020 METAR COR EGLL 050020Z VRB02KT 6000 BKN020 03/03 Q1034 NOSIG=
201501042350 METAR COR EGLL 042350Z 15003KT 5000 BR BKN020 03/03 Q1034
                        NOSIG=
201501042320 METAR COR EGLL 042320Z 19005KT 130V250 5000 BR FEW001 BKN020
                        03/03 Q1034 NOSIG=
201501042250 METAR COR EGLL 042250Z 20006KT 140V250 4600 BR FEW001 BKN020
                        03/03 Q1034 BECMG 6000=
201501042220 METAR COR EGLL 042220Z 20006KT 140V250 4600 BR FEW001 BKN020
                        03/03 Q1035 BECMG 6000=
201501042150 METAR COR EGLL 042150Z 16005KT 120V240 4500 BR SCT001 BKN019
                        03/03 Q1035 BECMG 6000=
201501042120 METAR COR EGLL 042120Z VRB04KT 4500 BR SCT002 BKN018 02/02
                        Q1035 BECMG 7000=
201501042050 METAR COR EGLL 042050Z VRB04KT 3000 BR SCT001 BKN002 BKN020
                        02/02 Q1035 NOSIG=
201501042020 METAR COR EGLL 042020Z 17005KT 130V230 1600 BR BKN001 02/02
                        Q1035 BECMG BKN003=
201501041950 METAR COR EGLL 041950Z 16005KT 120V250 0800 R27L/1200 R27R/P1500
                        FG VV/// 02/02 Q1035 TEMPO 2000 BR
                        BKN003=
201501041920 METAR COR EGLL 041920Z 18005KT 140V230 0900 R27L/1000 R27R/P1500
                        BR BKN001 02/02 Q1035 TEMPO 2000
                        FEW001 BKN003=
201501041850 METAR COR EGLL 041850Z 17005KT 130V250 1900 BR FEW001 BKN002
                        03/02 Q1036 NOSIG=
201501041820 METAR COR EGLL 041820Z 17005KT 090V230 1600 BR FEW001 BKN002
                        03/02 Q1036 NOSIG=
201501041750 METAR COR EGLL 041750Z 21006KT 170V250 3000 BR FEW002 BKN003
                        03/02 Q1036 NOSIG=
201501041720 METAR COR EGLL 041720Z VRB04KT 4100 BR FEW002 SCT003 BKN004
                        03/02 Q1036 NOSIG=
201501041650 METAR COR EGLL 041650Z 19006KT 150V260 4200 BR FEW002 SCT003
                        BKN004 03/02 Q1036 NOSIG=
201501041620 METAR COR EGLL 041620Z 25006KT 210V280 4400 BR BKN004 03/02
                        Q1037 TEMPO 6000 NSW SCT004 BKN006=
201501041550 METAR COR EGLL 041550Z 21006KT 150V270 6000 SCT005 BKN006
                        03/02 Q1037 NOSIG=
201501041520 METAR COR EGLL 041520Z 26004G15KT 180V360 7000 SCT005 BKN006
                        03/02 Q1036 NOSIG=
201501041450 METAR COR EGLL 041450Z 25005KT 190V280 7000 BKN005 03/02
                        Q1036 TEMPO 4800 SCT005 BKN010=
201501041420 METAR COR EGLL 041420Z 21006KT 180V240 7000 OVC005 03/03
                        Q1036 TEMPO SCT006 BKN010=
201501041350 METAR COR EGLL 041350Z 21007KT 180V270 9000 BKN006 03/03
                        Q1036 TEMPO SCT007 BKN011=
201501041320 METAR COR EGLL 041320Z 21005KT 170V250 7000 FEW005 BKN007
                        03/03 Q1037 TEMPO SCT007 BKN012=
201501041250 METAR COR EGLL 041250Z 25005KT 4400 BR SCT005 BKN008 03/03
                        Q1037 BECMG 9000 SCT007 BKN015=
201501041220 METAR COR EGLL 041220Z 26004KT 210V290 4400 BR SCT004 BKN010
                        03/03 Q1037 BECMG 9000 NSW SCT007
                        BKN015=
201501041150 METAR COR EGLL 041150Z 29003KT 4200 BR SCT003 BKN004 02/02
                        Q1037 BECMG 8000 NSW SCT004 BKN008=
201501041120 METAR COR EGLL 041120Z VRB03KT 3200 BR FEW002 SCT003 BKN004
                        02/02 Q1037 BECMG 6000 NSW SCT004
                        BKN007=
201501041050 METAR COR EGLL 041050Z 23006KT 2300 BR FEW001 BKN003 01/01
                        Q1037 BECMG 6000 NSW SCT004 BKN007=
201501041020 METAR COR EGLL 041020Z 24007KT 0900 R27R/P1500 R27L/0800
                        FG SCT001 BKN002 01/01 Q1037 BECMG
                        4500 BR SCT004 BKN007=
201501040950 METAR COR EGLL 040950Z 25005KT 0350 R27R/1300 R27L/0500 FG
                        SCT001 BKN002 00/00 Q1037 BECMG 2800
                        BR SCT004 BKN007=
201501040920 METAR COR EGLL 040920Z 23005KT 0250 R27R/1400 R27L/0400 FZFG
                        SCT001 BKN002 M00/M00 Q1036 BECMG
                        2000 BR SCT003 BKN005=
201501040850 METAR COR EGLL 040850Z VRB03KT 0150 R27R/0650 R27L/0400 FZFG
                        FEW000 OVC001 M01/M01 Q1036 BECMG
                        1500 BR BKN002=
201501040820 METAR COR EGLL 040820Z VRB02KT 0100 R27R/0325 R27L/0225 FZFG
                        OVC001 M00/M00 Q1036 TEMPO 0900 BCFG
                        BKN002=
201501040750 METAR COR EGLL 040750Z VRB03KT 0100 R27R/0400 R27L/0300 FZFG
                        SCT000 OVC001 M01/M01 Q1035 TEMPO
                        0900 BCFG BKN002=
201501040720 METAR COR EGLL 040720Z VRB03KT 0100 R27R/0325 R27L/0375 FZFG
                        SCT000 OVC001 M00/M00 Q1035 TEMPO
                        0900 BCFG BKN002=
201501040650 METAR COR EGLL 040650Z VRB02KT 0200 R27L/0450 FZFG SCT000
                        BKN001 M01/M01 Q1035 TEMPO 0400 FZFG
                        BKN002=
201501040620 METAR COR EGLL 040620Z VRB02KT 0300 R27L/0325 FZFG SCT001
                        M01/M01 Q1034 TEMPO VV///=
201501040550 METAR COR EGLL 040550Z VRB02KT 0450 R27L/0350 FZFG FEW001
                        M01/M01 Q1034 TEMPO 0200 FZFG OVC001=
201501040520 METAR COR EGLL 040520Z 21004KT 1400 R27L/P1500 BR BCFG FEW001
                        00/M00 Q1033 TEMPO 0800 FZFG=
201501040450 METAR COR EGLL 040450Z VRB02KT 2000 BR BCFG NSC M00/M00 Q1033
                        TEMPO 0800 FZFG=
201501040420 METAR COR EGLL 040420Z 34002KT 2100 BR NSC 00/M00 Q1033 TEMPO
                        1200 MIFG=
201501040350 METAR COR EGLL 040350Z VRB02KT 3300 BR NSC 00/00 Q1033 TEMPO
                        1200 BCFG=
201501040320 METAR COR EGLL 040320Z VRB02KT 5000 BR NSC 00/00 Q1033 BECMG
                        3000 MIFG=
201501040250 METAR COR EGLL 040250Z 36002KT 5000 BR NSC 01/01 Q1033 BECMG
                        3000 MIFG=
201501040220 METAR EGLL 040220Z AUTO 35003KT 3600 BR NCD 01/01 Q1032=
201501040150 METAR EGLL 040150Z AUTO 34002KT 2000 BR NCD 01/01 Q1032=
201501040120 METAR EGLL 040120Z AUTO 32002KT 3000 BR NCD 02/01 Q1032=
201501040050 METAR COR EGLL 040050Z 29003KT 5000 BR NSC 02/02 Q1031 TEMPO
                        4000 BR BKN006=
201501040020 METAR COR EGLL 040020Z VRB02KT 6000 FEW007 02/02 Q1031 TEMPO
                        BKN007=
201501032350 METAR COR EGLL 032350Z 26003KT 6000 SCT006 02/02 Q1031 TEMPO
                        BKN006=
201501032320 METAR COR EGLL 032320Z 29003KT 6000 BKN005 03/03 Q1031 NOSIG=
201501032250 METAR COR EGLL 032250Z 30005KT 7000 BKN006 03/03 Q1031 NOSIG=
201501032220 METAR COR EGLL 032220Z 31006KT 9000 BKN007 03/02 Q1030 TEMPO
                        SCT007=
201501032150 METAR COR EGLL 032150Z 31005KT 9999 FEW007 BKN008 03/02 Q1029
                        TEMPO SCT008=
201501032120 METAR COR EGLL 032120Z 28006KT 9999 FEW007 03/02 Q1029 NOSIG=
201501032050 METAR COR EGLL 032050Z 29005KT 9999 BKN008 03/02 Q1028 TEMPO
                        SCT008=
201501032020 METAR COR EGLL 032020Z 31004KT 9999 FEW010 03/02 Q1028 TEMPO
                        BKN008=
201501031950 METAR COR EGLL 031950Z 30005KT 9999 FEW008 04/03 Q1027 TEMPO
                        BKN008=
201501031920 METAR COR EGLL 031920Z VRB02KT 9999 FEW011 04/02 Q1025 TEMPO
                        BKN009=
201501031850 METAR COR EGLL 031850Z 00000KT 9999 FEW009 04/03 Q1024 TEMPO
                        BKN009=
201501031820 METAR COR EGLL 031820Z VRB03KT 9999 FEW009 04/03 Q1023 TEMPO
                        BKN009=
201501031750 METAR COR EGLL 031750Z 04005KT 360V070 9999 BKN010 04/03
                        Q1023 TEMPO SCT012=
201501031720 METAR COR EGLL 031720Z 01007KT 350V060 9999 SCT010 04/03
                        Q1022 NOSIG=
201501031650 METAR COR EGLL 031650Z 03006KT 340V050 9999 FEW007 SCT009
                        BKN010 05/04 Q1022 BECMG SCT012=
201501031620 METAR COR EGLL 031620Z 01007KT 9999 FEW005 BKN008 05/04 Q1021
                        BECMG SCT012=
201501031550 METAR COR EGLL 031550Z 02006KT 350V050 9999 FEW006 BKN008
                        05/05 Q1020 BECMG SCT012=
201501031520 METAR COR EGLL 031520Z 02006KT 340V060 9999 FEW006 BKN008
                        06/05 Q1018 BECMG BKN012=
201501031450 METAR COR EGLL 031450Z 02005KT 350V060 8000 -DZ SCT004 BKN008
                        06/05 Q1017 TEMPO BKN012=
201501031420 METAR COR EGLL 031420Z 01008KT 4400 -RA FEW003 BKN006 05/05
                        Q1017 TEMPO 6000=
201501031350 METAR COR EGLL 031350Z 36006KT 3000 BR FEW004 SCT005 BKN008
                        06/06 Q1015 TEMPO 5000=
201501031320 METAR COR EGLL 031320Z VRB03KT 4000 -RA SCT004 BKN010 06/06
                        Q1014 BECMG 9999=
201501031250 METAR COR EGLL 031250Z VRB03KT 3000 -RA SCT004 BKN006 06/06
                        Q1014 TEMPO 5000=
201501031220 METAR COR EGLL 031220Z VRB03KT 2400 -RA SCT004 BKN005 06/05
                        Q1014 RERA TEMPO RA BKN004=
201501031150 METAR COR EGLL 031150Z 11007KT 3100 -RA BKN004 06/05 Q1015
                        TEMPO RA=
201501031120 METAR COR EGLL 031120Z 10010KT 3100 -RADZ SCT004 BKN008 05/05
                        Q1015 TEMPO RA BKN004=
201501031050 METAR COR EGLL 031050Z 09010KT 4500 -RA FEW005 BKN009 05/05
                        Q1017 TEMPO RA=
201501031020 METAR COR EGLL 031020Z 09009KT 4500 -RADZ OVC011 05/04 Q1018
                        TEMPO RA BKN008=
201501030950 METAR COR EGLL 030950Z 07008KT 9999 -RA OVC012 05/04 Q1018
                        TEMPO 4000 RA BKN008=
201501030920 METAR COR EGLL 030920Z 07007KT 9999 -RA BKN013 05/05 Q1019
                        TEMPO 4000 RA=
201501030850 METAR COR EGLL 030850Z 09008KT 9999 -RA SCT017 BKN024 05/04
                        Q1019 TEMPO 4000 RA BKN014=
201501030820 METAR COR EGLL 030820Z 10008KT 9999 -RA SCT035 BKN043 05/04
                        Q1020 TEMPO 7000 RA BKN014=
201501030750 METAR COR EGLL 030750Z 11004KT 070V140 9999 -RA SCT028 BKN030
                        05/04 Q1021 RERA BECMG 7000 BKN014=
201501030720 METAR COR EGLL 030720Z 08005KT 040V100 4700 RA FEW010 SCT015
                        BKN020 05/04 Q1023 TEMPO BKN014=
201501030650 METAR COR EGLL 030650Z 06004KT 7000 RA FEW018 BKN023 05/04
                        Q1023 TEMPO 4000 +RA BKN014=
201501030620 METAR COR EGLL 030620Z VRB03KT 5000 RA BKN018 04/04 Q1024
                        TEMPO 4000 BKN014=
201501030550 METAR COR EGLL 030550Z 15004KT 5000 RA FEW015 BKN018 05/04
                        Q1025 TEMPO 4000 BKN014=
201501030520 METAR COR EGLL 030520Z VRB02KT 6000 -RA FEW016 BKN023 05/03
                        Q1026 TEMPO BKN014=
201501030450 METAR COR EGLL 030450Z VRB02KT 8000 -RA FEW016 BKN027 05/03
                        Q1027 TEMPO BKN014=
201501030420 METAR COR EGLL 030420Z 22005KT 180V300 8000 -RA FEW016 BKN033
                        05/03 Q1028 TEMPO BKN012=
201501030350 METAR COR EGLL 030350Z 20004KT 9999 -RA SCT031 SCT039 05/02
                        Q1028 TEMPO RA=
201501030320 METAR COR EGLL 030320Z 26007KT 190V310 9999 FEW034 06/01
                        Q1029 TEMPO RA=
201501030250 METAR COR EGLL 030250Z 19005KT CAVOK 05/02 Q1029 NOSIG=
201501030220 METAR EGLL 030220Z AUTO 21006KT 9999 NCD 05/02 Q1030=
201501030150 METAR EGLL 030150Z AUTO 20007KT 9999 NCD 05/02 Q1030=
201501030120 METAR EGLL 030120Z AUTO 20003KT 9999 NCD 04/02 Q1031=
201501030050 METAR COR EGLL 030050Z 21007KT CAVOK 04/01 Q1032 NOSIG=
201501030020 METAR COR EGLL 030020Z 22004KT CAVOK 04/01 Q1032 NOSIG=
201501022350 METAR COR EGLL 022350Z 21005KT CAVOK 04/01 Q1033 NOSIG=
201501022320 METAR COR EGLL 022320Z 22004KT CAVOK 04/01 Q1033 NOSIG=
201501022250 METAR COR EGLL 022250Z 24004KT CAVOK 04/01 Q1034 NOSIG=
201501022220 METAR COR EGLL 022220Z 24007KT CAVOK 04/01 Q1034 NOSIG=
201501022150 METAR COR EGLL 022150Z 24006KT 200V270 CAVOK 04/01 Q1034
                        NOSIG=
201501022120 METAR COR EGLL 022120Z 23008KT CAVOK 05/01 Q1034 NOSIG=
201501022050 METAR COR EGLL 022050Z 23009KT CAVOK 05/01 Q1035 NOSIG=
201501022020 METAR COR EGLL 022020Z 23008KT CAVOK 04/02 Q1035 NOSIG=
201501021950 METAR COR EGLL 021950Z 22007KT 190V260 CAVOK 04/01 Q1035
                        NOSIG=
201501021920 METAR COR EGLL 021920Z 23005KT 180V270 CAVOK 04/01 Q1034
                        NOSIG=
201501021850 METAR COR EGLL 021850Z 24008KT 210V270 CAVOK 05/01 Q1034
                        NOSIG=
201501021820 METAR COR EGLL 021820Z 24007KT CAVOK 06/01 Q1035 NOSIG=
201501021750 METAR COR EGLL 021750Z 26008KT CAVOK 06/01 Q1034 NOSIG=
201501021720 METAR COR EGLL 021720Z 26009KT CAVOK 07/01 Q1034 NOSIG=
201501021650 METAR COR EGLL 021650Z 26010KT CAVOK 07/01 Q1034 NOSIG=
201501021620 METAR COR EGLL 021620Z 27010KT CAVOK 07/01 Q1034 NOSIG=
201501021550 METAR COR EGLL 021550Z 27011KT 9999 FEW028 08/01 Q1033 NOSIG=
201501021520 METAR COR EGLL 021520Z 27012KT 9999 FEW028 08/01 Q1033 NOSIG=
201501021450 METAR COR EGLL 021450Z 27013KT 9999 FEW028 08/01 Q1032 NOSIG=
201501021420 METAR COR EGLL 021420Z 27013KT 9999 FEW032 08/01 Q1032 NOSIG=
201501021350 METAR COR EGLL 021350Z 27015KT 9999 FEW032 09/01 Q1032 NOSIG=
201501021320 METAR COR EGLL 021320Z 27014KT 9999 FEW032 09/01 Q1032 NOSIG=
201501021250 METAR COR EGLL 021250Z 27014KT 9999 FEW032 09/01 Q1031 NOSIG=
201501021220 METAR COR EGLL 021220Z 27012KT 9999 FEW032 09/01 Q1031 NOSIG=
201501021150 METAR COR EGLL 021150Z 28013KT 9999 FEW032 09/02 Q1031 NOSIG=
201501021120 METAR COR EGLL 021120Z 28013KT CAVOK 09/01 Q1031 NOSIG=
201501021050 METAR COR EGLL 021050Z 28013KT CAVOK 08/01 Q1031 NOSIG=
201501021020 METAR COR EGLL 021020Z 27012KT CAVOK 08/02 Q1031 NOSIG=
201501020950 METAR COR EGLL 020950Z 27010KT 9999 FEW040 08/03 Q1030 NOSIG=
201501020920 METAR COR EGLL 020920Z 27012KT 9999 FEW040 07/02 Q1029 NOSIG=
201501020850 METAR COR EGLL 020850Z 28009KT 9999 FEW040 07/02 Q1029 NOSIG=
201501020820 METAR COR EGLL 020820Z 29012KT 9999 FEW040 08/03 Q1028 NOSIG=
201501020750 METAR COR EGLL 020750Z 28011KT 9999 FEW040 09/04 Q1027 NOSIG=
201501020720 METAR COR EGLL 020720Z 29009KT 9999 FEW046 09/04 Q1026 NOSIG=
201501020650 METAR COR EGLL 020650Z 29012KT CAVOK 10/04 Q1025 NOSIG=
201501020620 METAR COR EGLL 020620Z 29012KT CAVOK 10/05 Q1025 NOSIG=
201501020550 METAR COR EGLL 020550Z 29014KT CAVOK 10/05 Q1024 NOSIG=
201501020520 METAR COR EGLL 020520Z 29014KT 9999 FEW020 11/06 Q1023 NOSIG=
201501020450 METAR COR EGLL 020450Z 28013KT 9999 FEW022 SCT025 12/09 Q1022
                        NOSIG=
201501020420 METAR COR EGLL 020420Z 26015KT 9999 FEW012 12/09 Q1021 NOSIG=
201501020350 METAR COR EGLL 020350Z 25016KT 9999 FEW012 13/10 Q1021 NOSIG=
201501020320 METAR COR EGLL 020320Z 26014KT 9999 FEW012 SCT019 13/11 Q1021
                        NOSIG=
201501020250 METAR COR EGLL 020250Z 25012KT 6000 -RA BKN011 BKN016 13/12
                        Q1020 BECMG FEW010 BKN020=
201501020220 METAR EGLL 020220Z AUTO 24017G27KT 9999 -DZ SCT008 BKN014
                        BKN018 13/12 Q1020 REDZ=
201501020150 METAR EGLL 020150Z AUTO 23016KT 9999 -RA BKN007 13/12 Q1019=
201501020120 METAR EGLL 020120Z AUTO 23016KT 5000 -DZ BKN007 12/11 Q1019=
201501020050 METAR COR EGLL 020050Z 23016KT 8000 FEW008 BKN010 12/11 Q1020
                        TEMPO RA BKN008=
201501020020 METAR COR EGLL 020020Z 23019KT 9999 FEW009 BKN011 12/11 Q1020
                        TEMPO RA=
201501012350 METAR COR EGLL 012350Z 22018KT 9999 FEW008 BKN010 12/11 Q1020
                        NOSIG=
201501012320 METAR COR EGLL 012320Z 22018KT 7000 FEW007 BKN011 12/11 Q1020
                        NOSIG=
201501012250 METAR COR EGLL 012250Z 23021KT 9999 FEW009 BKN011 12/11 Q1021
                        NOSIG=
201501012220 METAR COR EGLL 012220Z 23020KT 9999 -RA SCT011 BKN013 12/10
                        Q1021 NOSIG=
201501012150 METAR COR EGLL 012150Z 23019KT 9000 SCT010 BKN014 12/10 Q1021
                        NOSIG=
201501012120 METAR COR EGLL 012120Z 23019G32KT 9999 SCT009 BKN012 12/10
                        Q1021 NOSIG=
201501012050 METAR COR EGLL 012050Z 22019KT 9999 SCT009 BKN011 11/10 Q1022
                        NOSIG=
201501012020 METAR COR EGLL 012020Z 22015G25KT 9999 FEW009 SCT010 BKN012
                        11/09 Q1022 TEMPO BKN009=
201501011950 METAR COR EGLL 011950Z 21015KT 9000 -RA FEW008 SCT009 BKN010
                        11/09 Q1022 NOSIG=
201501011920 METAR COR EGLL 011920Z 22017KT 9999 OVC013 11/09 Q1023 NOSIG=
201501011850 METAR COR EGLL 011850Z 22016KT 9999 OVC013 11/09 Q1023 NOSIG=
201501011820 METAR COR EGLL 011820Z 21014KT 190V250 9999 OVC013 10/08
                        Q1023 NOSIG=
201501011750 METAR COR EGLL 011750Z 22014KT 9999 OVC011 10/08 Q1024 NOSIG=
201501011720 METAR COR EGLL 011720Z 21016G29KT 9999 OVC010 10/08 Q1024
                        NOSIG=
201501011650 METAR COR EGLL 011650Z 22015KT 9999 FEW008 BKN011 10/08 Q1024
                        NOSIG=
201501011620 METAR COR EGLL 011620Z 21014KT 7000 OVC008 10/08 Q1025 NOSIG=
201501011550 METAR COR EGLL 011550Z 21014KT 9000 OVC008 10/08 Q1025 NOSIG=
201501011520 METAR COR EGLL 011520Z 21015KT 9999 OVC009 10/08 Q1025 NOSIG=
201501011450 METAR COR EGLL 011450Z 21014KT 9000 SCT008 BKN010 10/08 Q1026
                        NOSIG=
201501011420 METAR COR EGLL 011420Z 21012KT 8000 OVC008 09/08 Q1026 NOSIG=
201501011350 METAR COR EGLL 011350Z 20013KT 7000 OVC007 09/08 Q1026 NOSIG=
201501011320 METAR COR EGLL 011320Z 20013KT 6000 BKN006 09/07 Q1027 NOSIG=
201501011250 METAR COR EGLL 011250Z 20016KT 7000 SCT007 BKN008 09/07 Q1028
                        TEMPO 20018G28KT BKN012=
201501011220 METAR COR EGLL 011220Z 21015KT 7000 FEW007 SCT008 BKN009
                        09/07 Q1028 TEMPO 21018G30KT BKN013=
201501011150 METAR COR EGLL 011150Z 21014KT 6000 FEW007 SCT008 BKN010
                        09/07 Q1029 TEMPO BKN008=
201501011120 METAR COR EGLL 011120Z 21014KT 5000 HZ SCT008 BKN009 08/07
                        Q1029 NOSIG=
201501011050 METAR COR EGLL 011050Z 20013KT 6000 BKN007 08/07 Q1029 NOSIG=
201501011020 METAR COR EGLL 011020Z 20012KT 6000 BKN008 08/07 Q1030 TEMPO
                        BKN011=
201501010950 METAR COR EGLL 010950Z 21010KT 7000 SCT008 BKN009 08/07 Q1030
                        TEMPO BKN013=
201501010920 METAR COR EGLL 010920Z 21010KT 8000 FEW008 SCT009 BKN010
                        08/07 Q1030 TEMPO BKN009=
201501010850 METAR COR EGLL 010850Z 20012KT 8000 SCT009 BKN010 08/07 Q1030
                        TEMPO BKN009=
201501010820 METAR COR EGLL 010820Z 20011KT 6000 FEW007 SCT008 BKN009
                        08/07 Q1029 NOSIG=
201501010750 METAR COR EGLL 010750Z 20011KT 6000 FEW008 BKN009 08/07 Q1030
                        TEMPO BKN012=
201501010720 METAR COR EGLL 010720Z 21009G19KT 8000 BKN009 08/07 Q1030
                        TEMPO BKN012=
201501010650 METAR COR EGLL 010650Z 20010KT 8000 BKN009 08/07 Q1030 TEMPO
                        BKN012=
201501010620 METAR COR EGLL 010620Z 20010KT 180V240 9000 BKN009 08/07
                        Q1030 TEMPO BKN012=
201501010550 METAR COR EGLL 010550Z 20011KT 9000 BKN010 08/06 Q1030 TEMPO
                        BKN008=
201501010520 METAR COR EGLL 010520Z 20010KT 9000 FEW010 BKN012 08/06 Q1030
                        TEMPO BKN008=
201501010450 METAR COR EGLL 010450Z 20010KT 9000 BKN010 08/06 Q1030 TEMPO
                        BKN008=
201501010420 METAR COR EGLL 010420Z 20008KT 9000 BKN012 07/06 Q1031 TEMPO
                        BKN008=
201501010350 METAR COR EGLL 010350Z 20008KT 8000 BKN019 07/05 Q1031 TEMPO
                        BKN014=
201501010320 METAR COR EGLL 010320Z 20006KT 8000 BKN021 06/05 Q1031 TEMPO
                        BKN014=
201501010250 METAR COR EGLL 010250Z 20008KT 8000 BKN021 06/05 Q1032 TEMPO
                        BKN014=
201501010220 METAR EGLL 010220Z AUTO 20006KT 8000 OVC019 06/04 Q1031=
201501010150 METAR EGLL 010150Z AUTO 19006KT 8000 OVC019 06/04 Q1031=
201501010120 METAR EGLL 010120Z AUTO 20008KT 9000 BKN018 06/04 Q1032=
201501010050 METAR EGLL 010050Z 22008KT 8000 OVC018 05/03 Q1032=
201501010020 METAR COR EGLL 010020Z 21009KT 9000 BKN018 05/03 Q1032 TEMPO
                        BKN014=

</pre>

</body>
</html>
