##########################################################
# Query made at 12/24/2012 13:53:57 UTC
# Time interval: from 01/01/2012 00:00  to 01/31/2012 23:59  UTC
##########################################################

##########################################################
# EGLL, London / Heathrow Airport (United Kingdom)
# WMO index: 03772
# Latitude 51-29N. Longitude 000-27W. Altitude 24 m.
##########################################################

###################################
#  METAR/SPECI from EGLL
###################################
201201312350 METAR COR EGLL 312350Z 06009KT 9000 BKN025 01/M03 Q1029 NOSIG=
201201312320 METAR COR EGLL 312320Z 06009KT 9000 BKN025 01/M03 Q1029 NOSIG=
201201312250 METAR COR EGLL 312250Z 05006KT 010V080 9000 BKN026 01/M03
                        Q1029 NOSIG=
201201312220 METAR COR EGLL 312220Z 05006KT 010V080 9000 BKN026 01/M03
                        Q1029 NOSIG=
201201312150 METAR COR EGLL 312150Z 05007KT 9000 BKN027 01/M03 Q1029 NOSIG=
201201312120 METAR COR EGLL 312120Z 05008KT 010V070 9000 BKN028 01/M03
                        Q1029 NOSIG=
201201312050 METAR COR EGLL 312050Z 05007KT 010V070 8000 BKN029 01/M03
                        Q1029 NOSIG=
201201312020 METAR COR EGLL 312020Z 05006KT 020V080 8000 BKN030 01/M03
                        Q1029 NOSIG=
201201311950 METAR COR EGLL 311950Z 05007KT 8000 BKN027 00/M03 Q1029 NOSIG=
201201311920 METAR COR EGLL 311920Z 05006KT 8000 NSC 01/M03 Q1028 NOSIG=
201201311850 METAR COR EGLL 311850Z 04005KT 8000 NSC 00/M03 Q1028 NOSIG=
201201311820 METAR COR EGLL 311820Z 05005KT 010V080 8000 FEW025 01/M03
                        Q1028 NOSIG=
201201311750 METAR COR EGLL 311750Z 04005KT 010V070 7000 FEW026 01/M02
                        Q1028 NOSIG=
201201311720 METAR COR EGLL 311720Z 05005KT 7000 FEW025 01/M02 Q1028 NOSIG=
201201311650 METAR COR EGLL 311650Z 05005KT 020V080 6000 SCT028 SCT047
                        01/M02 Q1027 NOSIG=
201201311620 METAR COR EGLL 311620Z 06005KT 020V090 7000 SCT024 BKN049
                        02/M02 Q1027 NOSIG=
201201311550 METAR COR EGLL 311550Z 06006KT 020V080 6000 BKN048 02/M01
                        Q1027 NOSIG=
201201311520 METAR COR EGLL 311520Z 06006KT 6000 FEW032 SCT048 02/M01
                        Q1027 NOSIG=
201201311450 METAR EGLL 311450Z 06007KT 4900 HZ SCT015 02/M00 Q1027=
201201311420 METAR COR EGLL 311420Z 06008KT 4800 HZ BKN014 02/M01 Q1027
                        BECMG 6000 NSW SCT020=
201201311350 METAR COR EGLL 311350Z 06007KT 4700 HZ BKN015 02/M01 Q1027
                        BECMG 6000 NSW=
201201311320 METAR COR EGLL 311320Z 05007KT 4500 -SHSN SCT013 BKN018 02/M01
                        Q1027 BECMG 6000 NSW=
201201311250 METAR COR EGLL 311250Z 04004KT 4400 -SHSN BKN016 BKN043 02/M01
                        Q1026 BECMG 5000 NSW=
201201311220 METAR COR EGLL 311220Z VRB02KT 4000 -SHSN SCT012 BKN020 02/M01
                        Q1026 BECMG 8000 NSW=
201201311150 METAR COR EGLL 311150Z 08004KT 6000 FEW012 BKN021 02/M01
                        Q1026 TEMPO 4000 -SHRASN BKN014=
201201311120 METAR COR EGLL 311120Z VRB03KT 4500 HZ BKN027 02/M01 Q1026
                        TEMPO -SHRASN BKN014=
201201311050 METAR COR EGLL 311050Z 09003KT 4400 HZ FEW008 SCT010 01/M01
                        Q1026 TEMPO -SHRASN BKN014=
201201311020 METAR EGLL 311020Z 12005KT 060V160 3400 HZ SCT008 BKN009
                        01/M01 Q1026=
201201310950 METAR EGLL 310950Z 08004KT 050V110 3000 HZ BKN007 01/M01
                        Q1026=
201201310920 METAR COR EGLL 310920Z 08007KT 3000 HZ SCT006 SCT008 00/M01
                        Q1025 NOSIG=
201201310850 METAR COR EGLL 310850Z VRB03KT 2800 HZ BKN005 M00/M02 Q1025
                        BECMG 4000 SCT005=
201201310820 METAR COR EGLL 310820Z 03004KT 350V070 2800 BR SCT005 M01/M02
                        Q1025 TEMPO BKN006=
201201310750 METAR COR EGLL 310750Z 05004KT 010V070 2700 HZ NSC M01/M02
                        Q1025 TEMPO BKN008=
201201310720 METAR COR EGLL 310720Z 05004KT 350V090 3000 HZ NSC M01/M03
                        Q1024 TEMPO BKN008=
201201310650 METAR COR EGLL 310650Z 36003KT 3500 HZ NSC M01/M03 Q1024
                        BECMG 6000=
201201310620 METAR COR EGLL 310620Z 04003KT 4000 HZ NSC M01/M03 Q1024
                        NOSIG=
201201310550 METAR COR EGLL 310550Z 06003KT 4000 HZ NSC M00/M02 Q1024
                        NOSIG=
201201310520 METAR COR EGLL 310520Z 06005KT 4400 HZ FEW010 00/M02 Q1024
                        TEMPO 6000=
201201310450 METAR COR EGLL 310450Z 06004KT 5000 HZ FEW010 00/M02 Q1024
                        TEMPO 4000 BR=
201201310420 METAR COR EGLL 310420Z 09005KT 4500 HZ NSC M00/M02 Q1024
                        NOSIG=
201201310350 METAR COR EGLL 310350Z VRB03KT 5000 HZ NSC 01/M01 Q1023 TEMPO
                        4000 BR=
201201310320 METAR COR EGLL 310320Z VRB03KT 6000 NSC 01/M01 Q1023 TEMPO
                        4000 BR=
201201310250 METAR COR EGLL 310250Z 07004KT 6000 NSC 01/M01 Q1023 NOSIG=
201201310220 METAR EGLL 310220Z AUTO 05004KT 6000 NCD 01/M01 Q1023=
201201310150 METAR EGLL 310150Z AUTO VRB03KT 6000 NCD 01/M01 Q1023=
201201310120 METAR EGLL 310120Z AUTO 01002KT 7000 NCD 01/M01 Q1023=
201201310050 METAR COR EGLL 310050Z 35002KT 8000 NSC 01/M01 Q1023 TEMPO
                        BKN010=
201201310020 METAR COR EGLL 310020Z 32003KT 8000 NSC 01/M01 Q1023 TEMPO
                        BKN010=
201201302350 METAR COR EGLL 302350Z 29004KT 8000 NSC 01/M01 Q1023 TEMPO
                        BKN010=
201201302320 METAR COR EGLL 302320Z VRB02KT 8000 NSC 01/M01 Q1023 TEMPO
                        BKN010=
201201302250 METAR COR EGLL 302250Z 31003KT 9000 FEW012 01/M01 Q1024 TEMPO
                        BKN012=
201201302220 METAR COR EGLL 302220Z 31003KT 8000 -SN SCT012 SCT026 02/M01
                        Q1024 NOSIG=
201201302150 METAR COR EGLL 302150Z 31003KT 9000 -SN FEW013 BKN029 02/M01
                        Q1024 NOSIG=
201201302120 METAR COR EGLL 302120Z 31003KT 9000 -SN FEW025 BKN033 02/M01
                        Q1024 NOSIG=
201201302050 METAR COR EGLL 302050Z 32003KT 9999 BKN040 02/M01 Q1024 NOSIG=
201201302020 METAR COR EGLL 302020Z 35002KT 9999 SCT022 BKN041 02/M02
                        Q1024 NOSIG=
201201301950 METAR COR EGLL 301950Z 34002KT 9999 BKN032 01/M02 Q1024 NOSIG=
201201301920 METAR COR EGLL 301920Z 36002KT 9999 SCT031 02/M03 Q1024 NOSIG=
201201301850 METAR COR EGLL 301850Z 36002KT 9999 FEW030 02/M03 Q1024 NOSIG=
201201301820 METAR COR EGLL 301820Z 36003KT 9999 FEW030 02/M03 Q1024 NOSIG=
201201301750 METAR COR EGLL 301750Z 36003KT 9999 FEW025 02/M03 Q1024 NOSIG=
201201301720 METAR COR EGLL 301720Z 36004KT 9999 FEW030 02/M03 Q1024 NOSIG=
201201301650 METAR COR EGLL 301650Z VRB03KT 9999 FEW030 02/M03 Q1025 NOSIG=
201201301620 METAR COR EGLL 301620Z 01004KT 330V070 9999 FEW030 03/M03
                        Q1025 NOSIG=
201201301550 METAR COR EGLL 301550Z VRB03KT 9999 FEW030 03/M03 Q1025 NOSIG=
201201301520 METAR COR EGLL 301520Z 04006KT 350V070 9999 FEW048 04/M03
                        Q1025 NOSIG=
201201301450 METAR COR EGLL 301450Z 36004KT 9999 FEW048 04/M03 Q1025 NOSIG=
201201301420 METAR COR EGLL 301420Z 02004KT 340V060 9999 FEW030 04/M03
                        Q1025 NOSIG=
201201301350 METAR COR EGLL 301350Z 03004KT 320V060 9999 BKN049 04/M03
                        Q1025 NOSIG=
201201301320 METAR COR EGLL 301320Z 03005KT 360V080 9999 BKN048 04/M03
                        Q1025 NOSIG=
201201301250 METAR COR EGLL 301250Z 05006KT 9999 BKN048 04/M02 Q1026 NOSIG=
201201301220 METAR COR EGLL 301220Z 05005KT 010V090 9999 BKN048 04/M01
                        Q1026 NOSIG=
201201301150 METAR COR EGLL 301150Z 04005KT 9999 BKN048TCU 03/M01 Q1026
                        NOSIG=
201201301120 METAR COR EGLL 301120Z 05004KT 360V080 9999 BKN047 03/M01
                        Q1026 NOSIG=
201201301050 METAR COR EGLL 301050Z 07005KT 9999 BKN048 03/M01 Q1027 NOSIG=
201201301020 METAR COR EGLL 301020Z 06006KT 020V080 8000 BKN047 03/M01
                        Q1027 NOSIG=
201201300950 METAR COR EGLL 300950Z 05004KT 7000 BKN047 03/M00 Q1027 NOSIG=
201201300920 METAR COR EGLL 300920Z 04004KT 7000 BKN047 02/M00 Q1027 NOSIG=
201201300850 METAR COR EGLL 300850Z VRB03KT 6000 BKN047 02/M00 Q1027 NOSIG=
201201300820 METAR COR EGLL 300820Z VRB03KT 7000 FEW025 BKN047 01/M00
                        Q1027 NOSIG=
201201300750 METAR COR EGLL 300750Z VRB03KT 6000 FEW027 BKN047 01/M01
                        Q1027 NOSIG=
201201300720 METAR COR EGLL 300720Z 04004KT 6000 FEW028 BKN049 01/M01
                        Q1027 NOSIG=
201201300650 METAR COR EGLL 300650Z 04003KT 7000 BKN044 01/M01 Q1027 NOSIG=
201201300620 METAR COR EGLL 300620Z 04004KT 6000 FEW023 SCT042 01/M01
                        Q1027 NOSIG=
201201300550 METAR COR EGLL 300550Z 06003KT 6000 NSC 00/M01 Q1027 NOSIG=
201201300520 METAR COR EGLL 300520Z 05003KT 6000 NSC 00/M02 Q1027 NOSIG=
201201300450 METAR COR EGLL 300450Z 05003KT 7000 NSC 01/M01 Q1027 NOSIG=
201201300420 METAR COR EGLL 300420Z 05003KT 7000 NSC 01/M01 Q1027 NOSIG=
201201300350 METAR COR EGLL 300350Z 06003KT 8000 NSC 02/M01 Q1027 NOSIG=
201201300320 METAR COR EGLL 300320Z 06004KT 8000 NSC 02/M01 Q1027 NOSIG=
201201300250 METAR COR EGLL 300250Z 06004KT 8000 NSC 02/M01 Q1028 NOSIG=
201201300220 METAR EGLL 300220Z AUTO 06004KT 8000 NCD 02/M01 Q1028=
201201300150 METAR EGLL 300150Z AUTO 06004KT 8000 NCD 02/M01 Q1028=
201201300120 METAR EGLL 300120Z AUTO 06005KT 9000 NCD 02/M01 Q1028=
201201300050 METAR COR EGLL 300050Z 05005KT CAVOK 03/M01 Q1028 NOSIG=
201201300020 METAR COR EGLL 300020Z 06004KT CAVOK 03/M01 Q1028 NOSIG=
201201292350 METAR COR EGLL 292350Z 09005KT 9999 BKN045 03/M00 Q1028 NOSIG=
201201292320 METAR COR EGLL 292320Z 09004KT 9999 SCT042 BKN045 03/M01
                        Q1028 NOSIG=
201201292250 METAR COR EGLL 292250Z 10004KT 9999 BKN038 03/M01 Q1029 NOSIG=
201201292220 METAR COR EGLL 292220Z 09005KT 060V120 9999 BKN034 03/M01
                        Q1029 NOSIG=
201201292150 METAR COR EGLL 292150Z 11006KT 9999 BKN033 03/M01 Q1029 NOSIG=
201201292120 METAR COR EGLL 292120Z 10007KT 9999 BKN031 03/M01 Q1029 NOSIG=
201201292050 METAR COR EGLL 292050Z 09005KT 9000 BKN031 03/M00 Q1029 NOSIG=
201201292020 METAR COR EGLL 292020Z 09006KT 9000 SCT025 BKN031 03/M00
                        Q1029 NOSIG=
201201291950 METAR COR EGLL 291950Z 09008KT 9000 SCT023 SCT026 03/M00
                        Q1029 NOSIG=
201201291920 METAR COR EGLL 291920Z 09009KT 9999 FEW018 BKN025 03/M00
                        Q1029 NOSIG=
201201291850 METAR COR EGLL 291850Z 10010KT 9000 BKN018 03/00 Q1029 NOSIG=
201201291820 METAR COR EGLL 291820Z 09008KT 8000 SCT014 BKN024 04/01 Q1029
                        NOSIG=
201201291750 METAR COR EGLL 291750Z 10004KT 9000 BKN023 04/01 Q1029 NOSIG=
201201291720 METAR COR EGLL 291720Z 10004KT 9000 BKN045 04/01 Q1029 NOSIG=
201201291650 METAR COR EGLL 291650Z 09005KT 9000 SCT018 BKN025 04/01 Q1029
                        NOSIG=
201201291620 METAR COR EGLL 291620Z 06003KT 9000 SCT019 BKN036 05/01 Q1029
                        NOSIG=
201201291550 METAR COR EGLL 291550Z 08004KT 040V100 9000 SCT020 BKN029
                        05/01 Q1029 NOSIG=
201201291520 METAR COR EGLL 291520Z 07004KT 9000 SCT019 BKN025 05/01 Q1030
                        NOSIG=
201201291450 METAR COR EGLL 291450Z 08004KT 9000 SCT012 BKN015 05/01 Q1030
                        NOSIG=
201201291420 METAR COR EGLL 291420Z VRB03KT 9000 SCT011 BKN015 05/02 Q1030
                        NOSIG=
201201291350 METAR COR EGLL 291350Z 36004KT 320V060 9999 SCT012 BKN016
                        05/02 Q1030 NOSIG=
201201291320 METAR COR EGLL 291320Z 03004KT 010V070 9999 SCT010 BKN016
                        04/02 Q1030 TEMPO BKN014=
201201291250 METAR COR EGLL 291250Z 04004KT 9999 SCT008 BKN012 04/02 Q1030
                        NOSIG=
201201291220 METAR COR EGLL 291220Z VRB03KT 9000 SCT006 BKN007 04/02 Q1031
                        BECMG BKN010=
201201291150 METAR COR EGLL 291150Z 34002KT 7000 BKN006 03/02 Q1031 NOSIG=
201201291120 METAR COR EGLL 291120Z VRB03KT 6000 BKN005 03/02 Q1031 NOSIG=
201201291050 METAR COR EGLL 291050Z VRB03KT 4800 BR FEW003 BKN004 03/02
                        Q1031 BECMG 6000 BKN005=
201201291020 METAR COR EGLL 291020Z VRB03KT 3500 BR FEW003 BKN004 03/02
                        Q1031 BECMG 4500 BKN005=
201201290950 METAR COR EGLL 290950Z VRB03KT 2800 BR FEW003 BKN005 02/02
                        Q1031 BECMG 4000=
201201290920 METAR COR EGLL 290920Z VRB03KT 2300 BR BKN002 BKN004 02/02
                        Q1031 BECMG FEW002 BKN005=
201201290850 METAR COR EGLL 290850Z 05003KT 1900 BR BKN002 BKN003 02/01
                        Q1032 BECMG FEW002 BKN004=
201201290820 METAR COR EGLL 290820Z VRB03KT 1600 R09R/1400 BR FEW001 BKN002
                        02/01 Q1032 BECMG BKN003=
201201290750 METAR COR EGLL 290750Z 36004KT 1300 0800N R09L/P1500 R09R/P1500
                        BR FEW001 BKN003 02/01 Q1032 TEMPO
                        0700 FG BKN002=
201201290720 METAR COR EGLL 290720Z VRB03KT 2000 1100N R09L/P1500 BR FEW002
                        BKN003 02/01 Q1032 TEMPO 0700 FG
                        BKN002=
201201290650 METAR COR EGLL 290650Z VRB02KT 1800 BR FEW002 BKN003 02/01
                        Q1032 TEMPO 1200=
201201290620 METAR COR EGLL 290620Z VRB03KT 2800 HZ FEW002 BKN003 02/01
                        Q1032 TEMPO 1200=
201201290550 METAR COR EGLL 290550Z VRB03KT 2700 HZ FEW002 BKN003 02/01
                        Q1032 TEMPO 1200=
201201290520 METAR COR EGLL 290520Z VRB03KT 3200 HZ FEW002 BKN003 02/01
                        Q1032 TEMPO 1200=
201201290450 METAR COR EGLL 290450Z 03003KT 4500 HZ FEW003 OVC004 02/01
                        Q1032 TEMPO SCT003 BKN006=
201201290420 METAR COR EGLL 290420Z 36004KT 340V040 5000 HZ OVC005 02/01
                        Q1032 TEMPO 2500 BR BKN003=
201201290350 METAR COR EGLL 290350Z 05003KT 6000 OVC005 02/01 Q1032 TEMPO
                        2500 BR=
201201290320 METAR COR EGLL 290320Z 05004KT 360V080 7000 OVC005 03/01
                        Q1032 TEMPO 4000 BR=
201201290250 METAR COR EGLL 290250Z 04004KT 340V080 8000 BKN006 03/02
                        Q1032 TEMPO 4000 BR=
201201290220 METAR EGLL 290220Z AUTO 03004KT 9999 OVC006/// 03/02 Q1032=
201201290150 METAR EGLL 290150Z AUTO 01004KT 9999 BKN006/// 03/02 Q1032=
201201290120 METAR EGLL 290120Z AUTO 04004KT 350V070 7000 OVC006/// 03/02
                        Q1032=
201201290050 METAR COR EGLL 290050Z 06005KT 020V080 7000 SCT008 03/02
                        Q1032 TEMPO 4000 BR BKN006=
201201290020 METAR COR EGLL 290020Z VRB03KT 8000 FEW010 02/01 Q1032 TEMPO
                        4000 BR BKN006=
201201282350 METAR COR EGLL 282350Z 05004KT 8000 NSC 02/01 Q1032 NOSIG=
201201282320 METAR COR EGLL 282320Z VRB03KT 8000 NSC 02/01 Q1032 NOSIG=
201201282250 METAR COR EGLL 282250Z 36004KT 8000 NSC 02/01 Q1032 NOSIG=
201201282220 METAR COR EGLL 282220Z 36004KT CAVOK 03/01 Q1032 NOSIG=
201201282150 METAR COR EGLL 282150Z 36004KT 9999 FEW042 03/01 Q1032 NOSIG=
201201282120 METAR COR EGLL 282120Z 36004KT 330V030 9999 FEW042 03/01
                        Q1032 NOSIG=
201201282050 METAR COR EGLL 282050Z 36004KT 9999 FEW039 03/01 Q1032 NOSIG=
201201282020 METAR COR EGLL 282020Z 35005KT 320V030 9999 FEW042 04/02
                        Q1032 NOSIG=
201201281950 METAR COR EGLL 281950Z 35004KT 9999 FEW045 04/02 Q1032 NOSIG=
201201281920 METAR COR EGLL 281920Z 36004KT 330V040 9999 FEW032 SCT043
                        04/02 Q1032 NOSIG=
201201281850 METAR COR EGLL 281850Z VRB03KT 9999 FEW043 04/02 Q1032 NOSIG=
201201281820 METAR COR EGLL 281820Z VRB03KT 9999 FEW040 04/01 Q1031 NOSIG=
201201281750 METAR COR EGLL 281750Z 36005KT 9999 FEW039 05/02 Q1031 NOSIG=
201201281720 METAR COR EGLL 281720Z 02004KT 340V050 9999 SCT039 05/02
                        Q1031 NOSIG=
201201281650 METAR COR EGLL 281650Z 01005KT 340V050 9999 SCT039 05/02
                        Q1030 NOSIG=
201201281620 METAR COR EGLL 281620Z 02005KT 350V050 9999 FEW035 SCT038
                        06/02 Q1030 NOSIG=
201201281550 METAR COR EGLL 281550Z 02006KT 340V060 9999 FEW034 SCT038
                        06/02 Q1030 NOSIG=
201201281520 METAR COR EGLL 281520Z 03007KT 350V070 9999 SCT023 SCT035
                        06/02 Q1030 NOSIG=
201201281450 METAR COR EGLL 281450Z 03006KT 350V060 9999 FEW020 SCT033
                        06/02 Q1030 NOSIG=
201201281420 METAR COR EGLL 281420Z 03006KT 360V060 9999 FEW020 BKN028
                        06/02 Q1030 NOSIG=
201201281350 METAR COR EGLL 281350Z 02007KT 330V070 9999 SCT017 BKN022
                        06/02 Q1029 NOSIG=
201201281320 METAR COR EGLL 281320Z 03006KT 340V060 9999 SCT017 BKN021
                        06/02 Q1029 NOSIG=
201201281250 METAR COR EGLL 281250Z 02005KT 330V050 9999 FEW016 BKN018
                        06/02 Q1029 NOSIG=
201201281220 METAR COR EGLL 281220Z 04006KT 360V080 9999 SCT013 BKN016
                        05/02 Q1029 NOSIG=
201201281150 METAR COR EGLL 281150Z 02006KT 340V060 9999 SCT012 BKN015
                        05/02 Q1029 NOSIG=
201201281120 METAR COR EGLL 281120Z 36007KT 330V050 9999 SCT010 BKN013
                        05/03 Q1029 BECMG BKN015=
201201281050 METAR COR EGLL 281050Z 36005KT 340V040 9999 FEW010 BKN013
                        05/02 Q1029 BECMG BKN015=
201201281020 METAR COR EGLL 281020Z 01006KT 330V040 9999 FEW009 BKN011
                        04/02 Q1029 NOSIG=
201201280950 METAR COR EGLL 280950Z 36007KT 9999 FEW009 04/02 Q1028 TEMPO
                        BKN009=
201201280920 METAR COR EGLL 280920Z 36007KT 9000 SCT040 04/02 Q1028 NOSIG=
201201280850 METAR COR EGLL 280850Z 35005KT 300V010 9999 SCT038 04/02
                        Q1028 NOSIG=
201201280820 METAR COR EGLL 280820Z 36005KT 9999 SCT009 SCT038 04/02 Q1028
                        TEMPO BKN009=
201201280750 METAR COR EGLL 280750Z 03005KT 9999 FEW011 BKN045 04/02 Q1027
                        TEMPO BKN006=
201201280720 METAR COR EGLL 280720Z 01004KT 340V060 9999 FEW009 BKN044
                        03/02 Q1027 TEMPO BKN007=
201201280650 METAR COR EGLL 280650Z 02006KT 340V060 9999 BKN009 BKN030
                        04/02 Q1026 TEMPO SCT012=
201201280620 METAR COR EGLL 280620Z 01006KT 340V040 9000 SCT008 BKN011
                        04/02 Q1026 TEMPO BKN008=
201201280550 METAR COR EGLL 280550Z 01006KT 9000 FEW009 BKN011 04/02 Q1026
                        TEMPO BKN007=
201201280520 METAR COR EGLL 280520Z 01005KT 340V060 9999 BKN009 03/02
                        Q1025 TEMPO SCT012=
201201280450 METAR COR EGLL 280450Z 36004KT 340V040 9999 BKN010 03/02
                        Q1025 TEMPO BKN007=
201201280420 METAR COR EGLL 280420Z 35004KT 310V020 9999 BKN010 02/01
                        Q1024 TEMPO BKN007=
201201280350 METAR COR EGLL 280350Z VRB03KT 9999 SCT038 03/01 Q1024 TEMPO
                        BKN008=
201201280320 METAR COR EGLL 280320Z 36004KT 330V030 9999 FEW014 03/01
                        Q1023 TEMPO BKN008=
201201280250 METAR COR EGLL 280250Z VRB03KT 9999 FEW014 03/01 Q1023 TEMPO
                        BKN008=
201201280220 METAR EGLL 280220Z AUTO 31003KT 9999 FEW030/// SCT047///
                        03/01 Q1023=
201201280150 METAR EGLL 280150Z AUTO 31004KT 9999 BKN031/// OVC046///
                        03/01 Q1022=
201201280120 METAR EGLL 280120Z AUTO 28004KT 9999 BKN029/// BKN045///
                        03/01 Q1022=
201201280050 METAR COR EGLL 280050Z 27005KT 9999 FEW028 SCT031 03/01 Q1022
                        NOSIG=
201201280020 METAR COR EGLL 280020Z 26004KT 9999 FEW024 SCT028 03/01 Q1022
                        NOSIG=
201201272350 METAR COR EGLL 272350Z 20004KT 9999 FEW018 SCT033 03/01 Q1021
                        NOSIG=
201201272320 METAR COR EGLL 272320Z 20004KT 190V250 9999 -SHRA SCT024
                        SCT032 03/01 Q1021 TEMPO BKN014=
201201272250 METAR COR EGLL 272250Z 27004KT 9999 FEW032 03/01 Q1021 TEMPO
                        SHRA BKN014=
201201272220 METAR COR EGLL 272220Z 25006KT CAVOK 03/01 Q1021 TEMPO SHRA
                        BKN014=
201201272150 METAR COR EGLL 272150Z 23008KT 9999 FEW034 03/01 Q1021 NOSIG=
201201272120 METAR COR EGLL 272120Z 25009KT 9999 FEW033 04/01 Q1021 NOSIG=
201201272050 METAR COR EGLL 272050Z 25009KT 9999 FEW036 04/01 Q1021 NOSIG=
201201272020 METAR COR EGLL 272020Z 25009KT CAVOK 04/01 Q1021 TEMPO SHRA=
201201271950 METAR COR EGLL 271950Z 25008KT 9999 FEW048 05/01 Q1021 NOSIG=
201201271920 METAR COR EGLL 271920Z 23009KT 9999 FEW043 05/01 Q1020 NOSIG=
201201271850 METAR COR EGLL 271850Z 25009KT 9999 FEW044 06/01 Q1020 NOSIG=
201201271820 METAR COR EGLL 271820Z 26009KT 9999 FEW044 06/01 Q1020 NOSIG=
201201271750 METAR COR EGLL 271750Z 25009KT 9999 FEW035CB 07/02 Q1020
                        NOSIG=
201201271720 METAR COR EGLL 271720Z 25010KT 9999 FEW035CB 07/02 Q1020
                        NOSIG=
201201271650 METAR COR EGLL 271650Z 23010KT 9999 FEW035CB 07/01 Q1020
                        TEMPO 4500 SHGS=
201201271620 METAR COR EGLL 271620Z 25010KT 9999 FEW036CB 08/00 Q1020
                        TEMPO 4500 SHGS=
201201271550 METAR COR EGLL 271550Z 24009KT 9999 FEW036CB 08/00 Q1019
                        TEMPO 4500 SHGS=
201201271520 METAR COR EGLL 271520Z 25012KT 9999 SCT037CB 09/00 Q1019
                        TEMPO 4500 SHRA=
201201271450 METAR COR EGLL 271450Z 25012KT 9999 SCT040CB 09/00 Q1020
                        NOSIG=
201201271420 METAR COR EGLL 271420Z 27010KT 9999 FEW040 09/00 Q1020 NOSIG=
201201271350 METAR COR EGLL 271350Z 27010KT 9999 FEW032CB 09/00 Q1020
                        NOSIG=
201201271320 METAR COR EGLL 271320Z 27009KT 9999 FEW032 09/01 Q1020 NOSIG=
201201271250 METAR COR EGLL 271250Z 26010KT 9999 FEW024 09/02 Q1020 NOSIG=
201201271220 METAR COR EGLL 271220Z 28009KT 9999 FEW024 08/02 Q1020 NOSIG=
201201271150 METAR EGLL 271150Z 26010KT CAVOK 08/02 Q1020=
201201271120 METAR COR EGLL 271120Z 27011KT CAVOK 07/03 Q1021 NOSIG=
201201271050 METAR COR EGLL 271050Z 27011KT 9999 FEW020 07/02 Q1021 NOSIG=
201201271020 METAR COR EGLL 271020Z 27010KT CAVOK 06/02 Q1020 NOSIG=
201201270950 METAR COR EGLL 270950Z 27011KT CAVOK 05/02 Q1020 NOSIG=
201201270920 METAR COR EGLL 270920Z 26010KT CAVOK 04/02 Q1020 NOSIG=
201201270850 METAR COR EGLL 270850Z 26009KT 9999 FEW030 04/01 Q1019 NOSIG=
201201270820 METAR COR EGLL 270820Z 25007KT 9999 FEW020 02/01 Q1019 NOSIG=
201201270750 METAR COR EGLL 270750Z 25006KT 9999 FEW020 03/01 Q1019 NOSIG=
201201270720 METAR COR EGLL 270720Z 24007KT CAVOK 03/01 Q1018 NOSIG=
201201270650 METAR COR EGLL 270650Z 23007KT CAVOK 03/01 Q1018 NOSIG=
201201270620 METAR COR EGLL 270620Z 23007KT CAVOK 03/01 Q1018 NOSIG=
201201270550 METAR COR EGLL 270550Z 23006KT CAVOK 03/00 Q1017 NOSIG=
201201270520 METAR COR EGLL 270520Z 21005KT 190V270 9999 FEW045 03/01
                        Q1017 NOSIG=
201201270450 METAR COR EGLL 270450Z 22007KT 9999 FEW045 03/01 Q1017 NOSIG=
201201270420 METAR COR EGLL 270420Z 22008KT 9999 FEW045 03/00 Q1017 NOSIG=
201201270350 METAR COR EGLL 270350Z 22007KT 9999 FEW045 03/00 Q1017 NOSIG=
201201270320 METAR COR EGLL 270320Z 21007KT CAVOK 03/00 Q1016 NOSIG=
201201270250 METAR COR EGLL 270250Z 22006KT CAVOK 03/00 Q1016 NOSIG=
201201270220 METAR EGLL 270220Z AUTO 21007KT 9999 NCD 03/00 Q1016=
201201270150 METAR EGLL 270150Z AUTO 21007KT 9999 NCD 03/00 Q1016=
201201270120 METAR EGLL 270120Z AUTO 21007KT 9999 NCD 03/00 Q1015=
201201270050 METAR COR EGLL 270050Z 23008KT CAVOK 03/01 Q1015 NOSIG=
201201270020 METAR COR EGLL 270020Z 22009KT CAVOK 03/01 Q1015 NOSIG=
201201262350 METAR COR EGLL 262350Z 22009KT CAVOK 03/01 Q1015 NOSIG=
201201262320 METAR COR EGLL 262320Z 23007KT CAVOK 03/01 Q1015 NOSIG=
201201262250 METAR COR EGLL 262250Z 24008KT 9999 FEW020 03/00 Q1014 NOSIG=
201201262220 METAR COR EGLL 262220Z 25008KT 9999 FEW020 03/01 Q1014 NOSIG=
201201262150 METAR COR EGLL 262150Z 27010KT 9999 FEW020 04/01 Q1013 NOSIG=
201201262120 METAR COR EGLL 262120Z 27015KT 9999 FEW030 04/01 Q1013 NOSIG=
201201262050 METAR COR EGLL 262050Z 26022KT 9999 -SHRA FEW019 SCT031 05/01
                        Q1012 BECMG 23012KT=
201201262020 METAR COR EGLL 262020Z 24021KT 9999 SCT027 BKN031 06/01 Q1011
                        NOSIG=
201201261950 METAR COR EGLL 261950Z 21011KT 9999 FEW034 06/01 Q1010 NOSIG=
201201261920 METAR COR EGLL 261920Z 18011KT 9999 FEW034 05/01 Q1011 NOSIG=
201201261850 METAR COR EGLL 261850Z 20009KT CAVOK 06/01 Q1011 NOSIG=
201201261820 METAR COR EGLL 261820Z 20009KT 170V240 9999 FEW040 06/00
                        Q1011 NOSIG=
201201261750 METAR COR EGLL 261750Z 19008KT 9999 FEW024 05/M00 Q1011 NOSIG=
201201261720 METAR COR EGLL 261720Z 21007KT 180V260 9999 FEW024CB 06/M00
                        Q1010 NOSIG=
201201261650 METAR COR EGLL 261650Z 21007KT 9999 FEW024CB 06/M00 Q1010
                        NOSIG=
201201261620 METAR COR EGLL 261620Z 25009KT 9999 FEW026CB 07/00 Q1010
                        NOSIG=
201201261550 METAR COR EGLL 261550Z 24008KT CAVOK 07/01 Q1010 NOSIG=
201201261520 METAR COR EGLL 261520Z 26010KT 9999 FEW040 06/02 Q1010 RESHRA
                        NOSIG=
201201261450 METAR COR EGLL 261450Z 29015KT 9999 SHRA FEW022 SCT034 06/02
                        Q1009 BECMG NSW=
201201261420 METAR COR EGLL 261420Z 25014KT 9999 VCSH FEW043CB 08/01 Q1009
                        NOSIG=
201201261350 METAR EGLL 261350Z 25016KT 9999 FEW033 SCT045 08/01 Q1008=
201201261320 METAR COR EGLL 261320Z 25015KT 9999 FEW031 SCT043 09/02 Q1008
                        NOSIG=
201201261250 METAR COR EGLL 261250Z 24016KT 9999 FEW026 SCT035 08/03 Q1008
                        NOSIG=
201201261220 METAR COR EGLL 261220Z 23015KT 200V260 9999 SCT030 09/03
                        Q1008 NOSIG=
201201261150 METAR COR EGLL 261150Z 23014KT 200V270 9999 FEW020 SCT028CB
                        08/03 Q1007 NOSIG=
201201261120 METAR COR EGLL 261120Z 22012KT 9999 FEW016 08/04 Q1008 NOSIG=
201201261050 METAR COR EGLL 261050Z 21010KT 190V250 9999 FEW016 SCT041
                        07/04 Q1008 NOSIG=
201201261020 METAR COR EGLL 261020Z 20008KT 170V250 9999 FEW016 07/03
                        Q1007 NOSIG=
201201260950 METAR COR EGLL 260950Z 21010KT 180V260 9999 FEW020 07/04
                        Q1007 NOSIG=
201201260920 METAR COR EGLL 260920Z 20009KT 170V250 9999 FEW020 06/05
                        Q1007 NOSIG=
201201260850 METAR COR EGLL 260850Z 21009KT 170V240 9999 FEW017 06/05
                        Q1007 NOSIG=
201201260820 METAR COR EGLL 260820Z 21008KT 180V240 9999 FEW023 SCT030
                        06/05 Q1007 NOSIG=
201201260750 METAR COR EGLL 260750Z 19008KT 9999 FEW032 SCT045 06/05 Q1007
                        NOSIG=
201201260720 METAR COR EGLL 260720Z 21007KT 9999 FEW035 07/05 Q1007 NOSIG=
201201260650 METAR COR EGLL 260650Z 21008KT 9999 -RA BKN035 07/05 Q1007
                        NOSIG=
201201260620 METAR COR EGLL 260620Z 18006KT 120V250 9999 -RA BKN037 07/05
                        Q1006 NOSIG=
201201260550 METAR COR EGLL 260550Z 21004KT 180V240 9999 -RA SCT039 BKN043
                        06/05 Q1007 NOSIG=
201201260520 METAR COR EGLL 260520Z 26006KT 9000 -RA FEW008 BKN031 06/05
                        Q1007 RERA TEMPO RA BKN010=
201201260450 METAR COR EGLL 260450Z 27011KT 6000 -RA FEW009 SCT012 BKN029
                        07/05 Q1007 TEMPO RA BKN010=
201201260420 METAR COR EGLL 260420Z 25017KT 6000 -RA BKN014 10/07 Q1006
                        TEMPO 4000 RA BKN008=
201201260350 METAR COR EGLL 260350Z 19011KT 9999 BKN013 10/07 Q1006 BECMG
                        4000 RA BKN008=
201201260320 METAR COR EGLL 260320Z 19011KT 9999 BKN014 09/07 Q1006 BECMG
                        4000 RA BKN008=
201201260250 METAR COR EGLL 260250Z 19012KT 9999 SCT012 BKN016 09/07 Q1007
                        TEMPO RA BKN009=
201201260220 METAR EGLL 260220Z AUTO 19011KT 9999 SCT013/// SCT017///
                        BKN020/// 09/07 Q1007=
201201260150 METAR EGLL 260150Z AUTO 19011KT 9999 BKN013/// 09/07 Q1007=
201201260120 METAR EGLL 260120Z AUTO 19011KT 9999 BKN013/// BKN019///
                        09/07 Q1008=
201201260050 METAR COR EGLL 260050Z 18011KT 9999 BKN012 09/07 Q1008 BECMG
                        BKN009=
201201260020 METAR COR EGLL 260020Z 19013KT 9999 FEW009 BKN013 09/07 Q1009
                        BECMG BKN009=
201201252350 METAR COR EGLL 252350Z 19012KT 9999 FEW008 BKN009 09/07 Q1009
                        TEMPO SCT008 BKN012=
201201252320 METAR COR EGLL 252320Z 18010KT 9999 FEW009 BKN011 09/07 Q1009
                        TEMPO FEW011 BKN015=
201201252250 METAR COR EGLL 252250Z 17010KT 9999 BKN012 09/06 Q1010 TEMPO
                        SCT012 BKN018=
201201252220 METAR COR EGLL 252220Z 17010KT 9999 FEW014 BKN024 08/06 Q1010
                        BECMG BKN012=
201201252150 METAR COR EGLL 252150Z 19010KT 9999 SCT016 BKN022 08/06 Q1011
                        BECMG BKN014=
201201252120 METAR COR EGLL 252120Z 19012KT 9999 SCT015 BKN022 09/06 Q1011
                        BECMG BKN014=
201201252050 METAR COR EGLL 252050Z 18013KT 9999 BKN024 09/06 Q1011 BECMG
                        BKN012=
201201252020 METAR COR EGLL 252020Z 18013KT 9999 SCT015 BKN027 09/06 Q1011
                        BECMG BKN012=
201201251950 METAR COR EGLL 251950Z 19012KT 9999 BKN013 BKN019 09/06 Q1012
                        NOSIG=
201201251920 METAR COR EGLL 251920Z 20010KT 9999 BKN014 BKN017 09/06 Q1012
                        NOSIG=
201201251850 METAR COR EGLL 251850Z 20011KT 9999 BKN014 BKN017 09/06 Q1012
                        NOSIG=
201201251820 METAR COR EGLL 251820Z 21013KT 9999 BKN015 BKN019 09/06 Q1012
                        BECMG BKN014=
201201251750 METAR COR EGLL 251750Z 21011G21KT 180V240 9999 BKN015 BKN019
                        10/07 Q1013 BECMG BKN014=
201201251720 METAR COR EGLL 251720Z 19009KT 160V220 9999 BKN013 BKN016
                        09/07 Q1013 NOSIG=
201201251650 METAR COR EGLL 251650Z 21008KT 9999 SCT011 BKN017 09/08 Q1013
                        BECMG BKN014=
201201251620 METAR COR EGLL 251620Z 20008KT 9999 SCT011 BKN014 10/07 Q1013
                        TEMPO BKN015=
201201251550 METAR COR EGLL 251550Z 18008KT 160V220 9999 SCT013 BKN015
                        10/07 Q1013 TEMPO BKN014=
201201251520 METAR COR EGLL 251520Z 20008KT 180V250 9999 SCT014 BKN022
                        10/07 Q1014 TEMPO BKN014=
201201251450 METAR COR EGLL 251450Z 19008KT 160V240 9999 SCT018 BKN021
                        10/07 Q1014 TEMPO BKN012=
201201251420 METAR EGLL 251420Z 21008KT 170V250 9999 SCT018 BKN024 10/07
                        Q1014=
201201251350 METAR COR EGLL 251350Z 19008KT 160V240 9999 SCT012 BKN018
                        10/07 Q1014 TEMPO BKN012=
201201251320 METAR COR EGLL 251320Z 20008KT 150V240 9999 SCT012 BKN015
                        09/07 Q1015 TEMPO BKN012=
201201251250 METAR COR EGLL 251250Z 21007KT 180V260 9999 SCT012 BKN017
                        09/06 Q1015 TEMPO BKN014=
201201251220 METAR COR EGLL 251220Z 23009KT 9999 SCT012 BKN018 09/06 Q1016
                        TEMPO BKN012=
201201251150 METAR COR EGLL 251150Z 23008KT 200V260 9999 SCT012 BKN016
                        09/07 Q1016 TEMPO BKN012=
201201251120 METAR COR EGLL 251120Z 23010KT 200V260 9999 SCT012 BKN016
                        09/07 Q1016 NOSIG=
201201251050 METAR EGLL 251050Z 24011KT 9999 BKN018 09/06 Q1017=
201201251020 METAR EGLL 251020Z 23008KT 9999 FEW017 BKN020 09/07 Q1017=
201201250950 METAR COR EGLL 250950Z 22007KT 190V250 9999 FEW019 BKN027
                        09/07 Q1017 NOSIG=
201201250920 METAR COR EGLL 250920Z 23008KT 190V260 9999 VCSH FEW009 BKN017
                        09/07 Q1017 NOSIG=
201201250850 METAR COR EGLL 250850Z 24009KT 9999 SCT018 BKN024 09/07 Q1017
                        NOSIG=
201201250820 METAR EGLL 250820Z 25010KT 9999 SCT020 BKN030 09/07 Q1017=
201201250750 METAR COR EGLL 250750Z 24008KT 9999 SCT020 BKN028 08/07 Q1017
                        NOSIG=
201201250720 METAR COR EGLL 250720Z 26010KT 9999 SCT019 BKN024 09/06 Q1017
                        NOSIG=
201201250650 METAR COR EGLL 250650Z 27010KT 9999 FEW015 SCT021 09/06 Q1017
                        NOSIG=
201201250620 METAR COR EGLL 250620Z 25008KT 9999 FEW007 BKN014 09/07 Q1017
                        NOSIG=
201201250550 METAR COR EGLL 250550Z 26010KT 9999 FEW006 BKN012 09/07 Q1017
                        NOSIG=
201201250520 METAR EGLL 250520Z 26011KT 9999 FEW006 BKN010 09/07 Q1017=
201201250450 METAR COR EGLL 250450Z 26008KT 9999 SCT006 BKN010 09/08 Q1017
                        TEMPO BKN007=
201201250420 METAR COR EGLL 250420Z 25006KT 5000 BR FEW004 BKN006 10/09
                        Q1017 NOSIG=
201201250350 METAR COR EGLL 250350Z 26007KT 6000 FEW005 BKN007 10/09 Q1017
                        NOSIG=
201201250320 METAR COR EGLL 250320Z 25007KT 4000 BR FEW005 BKN006 10/09
                        Q1017 TEMPO 6000=
201201250250 METAR COR EGLL 250250Z 24005KT 5000 BR BKN006 10/09 Q1017
                        TEMPO 4000=
201201250220 METAR EGLL 250220Z AUTO 26005KT 5000 OVC005/// 10/09 Q1018=
201201250150 METAR EGLL 250150Z AUTO 26006KT 5000 BKN006/// 10/09 Q1018=
201201250120 METAR EGLL 250120Z AUTO 22004KT 4000 HZ BKN006/// BKN025///
                        10/09 Q1018=
201201250050 METAR COR EGLL 250050Z 23005KT 4400 BR SCT007 OVC024 10/09
                        Q1018 BECMG BKN006=
201201250020 METAR COR EGLL 250020Z 28005KT 5000 BR SCT023 BKN026 10/09
                        Q1018 BECMG 4000 BKN012=
201201242350 METAR COR EGLL 242350Z 27005KT 5000 BR OVC023 10/09 Q1018
                        BECMG 4000 BKN012=
201201242320 METAR COR EGLL 242320Z 26006KT 5000 BR BKN024 10/09 Q1018
                        TEMPO 4000=
201201242250 METAR COR EGLL 242250Z 28007KT 5000 BR OVC024 10/09 Q1018
                        TEMPO 4000 BR=
201201242220 METAR COR EGLL 242220Z 27007KT 6000 BKN025 11/09 Q1018 NOSIG=
201201242150 METAR COR EGLL 242150Z 27009KT 6000 BKN028 10/09 Q1018 NOSIG=
201201242120 METAR COR EGLL 242120Z 27009KT 7000 FEW010 BKN028 10/09 Q1018
                        NOSIG=
201201242050 METAR COR EGLL 242050Z 26008KT 7000 FEW010 BKN031 10/09 Q1018
                        NOSIG=
201201242020 METAR COR EGLL 242020Z 26009KT 7000 SCT023 BKN030 10/09 Q1018
                        NOSIG=
201201241950 METAR COR EGLL 241950Z 27008KT 7000 FEW010 BKN023 10/09 Q1018
                        TEMPO 4000 -DZ BKN008=
201201241920 METAR COR EGLL 241920Z 26008KT 8000 BKN028 10/09 Q1018 TEMPO
                        4000 -DZ BKN007=
201201241850 METAR COR EGLL 241850Z 25008KT 8000 FEW010 BKN028 10/09 Q1017
                        TEMPO 4000 BKN008=
201201241820 METAR COR EGLL 241820Z 25008KT 9000 FEW010 BKN025 10/09 Q1017
                        TEMPO 4000 BKN008=
201201241750 METAR COR EGLL 241750Z 23006KT 170V260 9000 FEW002 BKN024
                        10/09 Q1017 TEMPO 4000 BKN008=
201201241720 METAR COR EGLL 241720Z 28002KT 8000 FEW004 SCT011 BKN027
                        10/09 Q1017 TEMPO 4000 BKN006=
201201241650 METAR COR EGLL 241650Z 28004KT 2500 -DZ FEW003 BKN010 10/09
                        Q1017 BECMG 6000=
201201241620 METAR COR EGLL 241620Z 28004KT 5000 2200W HZ FEW007 BKN014
                        BKN021 10/09 Q1017 TEMPO 3000 -DZ
                        BKN009=
201201241550 METAR COR EGLL 241550Z VRB03KT 9999 FEW008 BKN015 10/09 Q1017
                        NOSIG=
201201241520 METAR COR EGLL 241520Z 29004KT 9000 SCT008 BKN013 09/08 Q1017
                        NOSIG=
201201241450 METAR COR EGLL 241450Z 26007KT 9000 SCT006 BKN013 09/08 Q1016
                        TEMPO BKN016=
201201241420 METAR COR EGLL 241420Z 25006KT 170V280 6000 SCT005 BKN008
                        08/07 Q1016 NOSIG=
201201241350 METAR COR EGLL 241350Z 24005KT 160V300 4700 BR FEW003 SCT008
                        BKN009 08/07 Q1016 BECMG 6000=
201201241320 METAR COR EGLL 241320Z 22006KT 170V250 4700 HZ FEW003 SCT008
                        BKN009 07/07 Q1017 BECMG 27010KT
                        5000=
201201241250 METAR COR EGLL 241250Z 21006KT 160V260 4000 -DZ SCT003 BKN006
                        07/06 Q1017 BECMG 27010KT 5000 NSW=
201201241220 METAR COR EGLL 241220Z 23007KT 180V270 3000 -DZ FEW003 BKN004
                        07/06 Q1017 REDZ RERA BECMG 6000
                        BKN006=
201201241150 METAR COR EGLL 241150Z 22007KT 150V280 3000 DZRA SCT003 BKN005
                        06/05 Q1018 BECMG 5000=
201201241120 METAR COR EGLL 241120Z 19006KT 130V270 5000 -RADZ SCT006
                        BKN008 05/04 Q1018 TEMPO 3000=
201201241050 METAR COR EGLL 241050Z 15006KT 110V230 6000 -RADZ FEW006
                        BKN008 05/04 Q1018 RERA TEMPO 4000=
201201241020 METAR COR EGLL 241020Z 15005KT 090V220 6000 RA FEW008 BKN011
                        04/03 Q1019 TEMPO 4000=
201201240950 METAR COR EGLL 240950Z 17007KT 130V240 7000 -RA SCT019 BKN023
                        04/03 Q1019 TEMPO BKN014=
201201240920 METAR COR EGLL 240920Z 17007KT 140V220 7000 -RA SCT020 BKN029
                        04/03 Q1020 TEMPO BKN014=
201201240850 METAR COR EGLL 240850Z 18005KT 150V230 6000 -RA SCT026 BKN031
                        04/03 Q1020 TEMPO BKN014=
201201240820 METAR COR EGLL 240820Z 18006KT 140V230 6000 -RA SCT029 BKN037
                        03/02 Q1020 TEMPO BKN014=
201201240750 METAR COR EGLL 240750Z 20005KT 160V250 7000 -RA SCT025 BKN029
                        03/02 Q1021 TEMPO BKN014=
201201240720 METAR COR EGLL 240720Z 21004KT 140V250 9999 -RA SCT030 03/02
                        Q1021 TEMPO BKN014=
201201240650 METAR COR EGLL 240650Z 20004KT 110V260 9999 SCT036 03/01
                        Q1021 NOSIG=
201201240620 METAR COR EGLL 240620Z 19004KT 160V230 CAVOK 02/01 Q1021
                        NOSIG=
201201240550 METAR COR EGLL 240550Z 20004KT 160V230 CAVOK 02/01 Q1021
                        NOSIG=
201201240520 METAR COR EGLL 240520Z 21004KT CAVOK 02/01 Q1022 NOSIG=
201201240450 METAR COR EGLL 240450Z 22004KT CAVOK 02/01 Q1022 NOSIG=
201201240420 METAR COR EGLL 240420Z 20004KT CAVOK 01/00 Q1022 NOSIG=
201201240350 METAR COR EGLL 240350Z 27004KT CAVOK 02/01 Q1022 NOSIG=
201201240320 METAR COR EGLL 240320Z 28003KT CAVOK 01/01 Q1022 NOSIG=
201201240250 METAR COR EGLL 240250Z 26005KT CAVOK 01/00 Q1022 NOSIG=
201201240220 METAR EGLL 240220Z AUTO 27007KT 9999 NCD 01/00 Q1022=
201201240150 METAR EGLL 240150Z AUTO 28007KT 9999 NCD 01/00 Q1022=
201201240120 METAR EGLL 240120Z AUTO 27007KT 9999 NCD 01/M00 Q1022=
201201240050 METAR COR EGLL 240050Z 28005KT CAVOK 01/M00 Q1022 NOSIG=
201201240020 METAR COR EGLL 240020Z 28006KT CAVOK 01/M00 Q1021 NOSIG=
201201232350 METAR COR EGLL 232350Z 28005KT CAVOK 02/01 Q1021 NOSIG=
201201232320 METAR COR EGLL 232320Z 28005KT CAVOK 03/01 Q1021 NOSIG=
201201232250 METAR COR EGLL 232250Z 28007KT CAVOK 03/01 Q1021 NOSIG=
201201232220 METAR COR EGLL 232220Z 27005KT CAVOK 04/02 Q1021 NOSIG=
201201232150 METAR COR EGLL 232150Z 28006KT CAVOK 04/02 Q1021 NOSIG=
201201232120 METAR COR EGLL 232120Z 27008KT CAVOK 04/02 Q1021 NOSIG=
201201232050 METAR COR EGLL 232050Z 28004KT CAVOK 04/02 Q1020 NOSIG=
201201232020 METAR COR EGLL 232020Z 30005KT CAVOK 04/02 Q1020 NOSIG=
201201231950 METAR COR EGLL 231950Z 29006KT CAVOK 05/02 Q1020 NOSIG=
201201231920 METAR COR EGLL 231920Z 28007KT CAVOK 05/02 Q1020 NOSIG=
201201231850 METAR COR EGLL 231850Z 27007KT 9999 FEW020 05/02 Q1019 NOSIG=
201201231820 METAR COR EGLL 231820Z 28008KT 9999 FEW020 06/03 Q1019 NOSIG=
201201231750 METAR COR EGLL 231750Z 28009KT 9999 FEW020 07/03 Q1019 NOSIG=
201201231720 METAR COR EGLL 231720Z 29008KT 9999 FEW020 07/02 Q1019 NOSIG=
201201231650 METAR COR EGLL 231650Z 28008KT 9999 FEW020 07/02 Q1019 NOSIG=
201201231620 METAR COR EGLL 231620Z 29012KT 9999 FEW020 08/02 Q1019 NOSIG=
201201231550 METAR COR EGLL 231550Z 28009KT 9999 FEW020 08/03 Q1019 NOSIG=
201201231520 METAR COR EGLL 231520Z 28010KT 9999 FEW024 08/03 Q1019 TEMPO
                        SHRA=
201201231450 METAR COR EGLL 231450Z 29011KT 9999 FEW024 08/03 Q1018 NOSIG=
201201231420 METAR COR EGLL 231420Z 29008KT 9999 SCT024 08/03 Q1018 NOSIG=
201201231350 METAR COR EGLL 231350Z 29010KT 9999 SCT023 08/03 Q1018 NOSIG=
201201231320 METAR COR EGLL 231320Z 29009KT 9999 SCT025 08/03 Q1019 NOSIG=
201201231250 METAR COR EGLL 231250Z 28009KT 9999 FEW020 08/03 Q1019 NOSIG=
201201231220 METAR COR EGLL 231220Z 28010KT 9999 FEW020 08/03 Q1019 NOSIG=
201201231150 METAR COR EGLL 231150Z 28009KT CAVOK 07/03 Q1019 NOSIG=
201201231120 METAR COR EGLL 231120Z 28010KT CAVOK 07/03 Q1019 NOSIG=
201201231050 METAR COR EGLL 231050Z 27013KT CAVOK 07/03 Q1019 NOSIG=
201201231020 METAR COR EGLL 231020Z 27013KT CAVOK 06/03 Q1019 NOSIG=
201201230950 METAR COR EGLL 230950Z 27014KT CAVOK 06/02 Q1019 NOSIG=
201201230920 METAR COR EGLL 230920Z 27012KT CAVOK 05/02 Q1019 NOSIG=
201201230850 METAR COR EGLL 230850Z 28009KT CAVOK 05/02 Q1019 NOSIG=
201201230820 METAR COR EGLL 230820Z 28009KT CAVOK 05/02 Q1019 NOSIG=
201201230750 METAR COR EGLL 230750Z 28009KT CAVOK 04/02 Q1019 NOSIG=
201201230720 METAR COR EGLL 230720Z 28009KT CAVOK 04/02 Q1018 NOSIG=
201201230650 METAR COR EGLL 230650Z 26009KT CAVOK 05/02 Q1018 NOSIG=
201201230620 METAR COR EGLL 230620Z 28005KT CAVOK 04/01 Q1018 NOSIG=
201201230550 METAR COR EGLL 230550Z 27006KT CAVOK 04/01 Q1018 NOSIG=
201201230520 METAR COR EGLL 230520Z 28007KT CAVOK 04/02 Q1018 NOSIG=
201201230450 METAR COR EGLL 230450Z 27007KT CAVOK 05/02 Q1018 NOSIG=
201201230420 METAR COR EGLL 230420Z 28008KT CAVOK 05/02 Q1018 NOSIG=
201201230350 METAR COR EGLL 230350Z 28008KT CAVOK 05/02 Q1018 NOSIG=
201201230320 METAR COR EGLL 230320Z 27008KT CAVOK 05/02 Q1018 NOSIG=
201201230250 METAR COR EGLL 230250Z 28010KT CAVOK 05/01 Q1018 NOSIG=
201201230220 METAR EGLL 230220Z AUTO 28008KT 9999 NCD 05/01 Q1018=
201201230150 METAR EGLL 230150Z AUTO 28007KT 9999 NCD 05/01 Q1018=
201201230120 METAR EGLL 230120Z AUTO 28010KT 9999 NCD 06/02 Q1018=
201201230050 METAR COR EGLL 230050Z 28011KT CAVOK 06/02 Q1018 NOSIG=
201201230020 METAR COR EGLL 230020Z 29007KT CAVOK 06/02 Q1018 NOSIG=
201201222350 METAR COR EGLL 222350Z 29009KT CAVOK 06/02 Q1018 NOSIG=
201201222320 METAR COR EGLL 222320Z 28009KT CAVOK 06/02 Q1018 NOSIG=
201201222250 METAR COR EGLL 222250Z 28011KT CAVOK 06/02 Q1018 NOSIG=
201201222220 METAR COR EGLL 222220Z 27012KT CAVOK 07/02 Q1018 NOSIG=
201201222150 METAR COR EGLL 222150Z 28012KT CAVOK 07/01 Q1018 NOSIG=
201201222120 METAR COR EGLL 222120Z 28008KT CAVOK 07/01 Q1018 NOSIG=
201201222050 METAR COR EGLL 222050Z 30005KT 270V350 CAVOK 08/01 Q1018
                        NOSIG=
201201222020 METAR COR EGLL 222020Z 30009KT CAVOK 08/01 Q1017 NOSIG=
201201221950 METAR COR EGLL 221950Z 30008KT CAVOK 08/01 Q1017 NOSIG=
201201221920 METAR COR EGLL 221920Z 31005KT 290V350 9999 FEW035 08/01
                        Q1017 NOSIG=
201201221850 METAR COR EGLL 221850Z 32005KT 9999 SCT036 09/02 Q1017 NOSIG=
201201221820 METAR COR EGLL 221820Z 31008KT 9999 SCT038 09/02 Q1016 NOSIG=
201201221750 METAR COR EGLL 221750Z 32005KT 300V360 9999 SCT040 10/02
                        Q1016 NOSIG=
201201221720 METAR COR EGLL 221720Z 30008KT 9999 FEW040 10/01 Q1015 NOSIG=
201201221650 METAR COR EGLL 221650Z 30009KT 9999 FEW036 SCT049 10/01 Q1015
                        NOSIG=
201201221620 METAR COR EGLL 221620Z 30012KT 9999 FEW049 10/01 Q1014 NOSIG=
201201221550 METAR COR EGLL 221550Z 30011KT 9999 FEW048 11/01 Q1014 NOSIG=
201201221520 METAR COR EGLL 221520Z 30010KT 280V340 9999 FEW030 11/01
                        Q1014 NOSIG=
201201221450 METAR COR EGLL 221450Z 30012KT 9999 SCT044 12/01 Q1013 NOSIG=
201201221420 METAR COR EGLL 221420Z 31013KT 9999 SCT044 12/02 Q1013 NOSIG=
201201221350 METAR COR EGLL 221350Z 29014KT 9999 FEW020 SCT048 12/02 Q1012
                        NOSIG=
201201221320 METAR COR EGLL 221320Z 30014G24KT 270V340 9999 BKN045 12/02
                        Q1012 NOSIG=
201201221250 METAR COR EGLL 221250Z 30015G26KT 9999 FEW030 SCT045 12/02
                        Q1012 NOSIG=
201201221220 METAR COR EGLL 221220Z 29013KT 9999 FEW022 SCT032 12/04 Q1012
                        NOSIG=
201201221150 METAR COR EGLL 221150Z 28015KT 9999 FEW038 SCT047 12/04 Q1012
                        NOSIG=
201201221120 METAR COR EGLL 221120Z 27018KT 9999 FEW035 SCT049 11/05 Q1012
                        NOSIG=
201201221050 METAR COR EGLL 221050Z 26015KT 9999 FEW010 SCT040 11/05 Q1012
                        NOSIG=
201201221020 METAR COR EGLL 221020Z 26016KT 9999 FEW020 10/05 Q1012 NOSIG=
201201220950 METAR COR EGLL 220950Z 27017KT CAVOK 10/05 Q1012 NOSIG=
201201220920 METAR COR EGLL 220920Z 26016KT 9999 FEW022 09/05 Q1012 NOSIG=
201201220850 METAR COR EGLL 220850Z 26014KT 9999 FEW022 SCT047 09/05 Q1012
                        NOSIG=
201201220820 METAR COR EGLL 220820Z 26015KT 9999 FEW022 08/05 Q1012 NOSIG=
201201220750 METAR COR EGLL 220750Z 26013KT 9999 BKN044 07/04 Q1012 NOSIG=
201201220720 METAR COR EGLL 220720Z 26014KT CAVOK 07/03 Q1012 NOSIG=
201201220650 METAR COR EGLL 220650Z 26016KT CAVOK 07/03 Q1013 TEMPO BKN014=
201201220620 METAR COR EGLL 220620Z 27015KT CAVOK 07/03 Q1013 TEMPO BKN014=
201201220550 METAR COR EGLL 220550Z 28015KT CAVOK 06/02 Q1013 NOSIG=
201201220520 METAR COR EGLL 220520Z 28017KT CAVOK 06/02 Q1013 NOSIG=
201201220450 METAR COR EGLL 220450Z 28016KT CAVOK 06/02 Q1014 NOSIG=
201201220420 METAR COR EGLL 220420Z 27014KT CAVOK 06/02 Q1014 NOSIG=
201201220350 METAR COR EGLL 220350Z 27016KT CAVOK 06/02 Q1014 NOSIG=
201201220320 METAR COR EGLL 220320Z 26013KT CAVOK 06/02 Q1015 NOSIG=
201201220250 METAR COR EGLL 220250Z 26012KT 9999 FEW049 06/02 Q1015 NOSIG=
201201220220 METAR EGLL 220220Z AUTO 25010KT 9999 NCD 06/02 Q1015=
201201220150 METAR EGLL 220150Z AUTO 25010KT 9999 NCD 07/01 Q1015=
201201220120 METAR EGLL 220120Z AUTO 26009KT 9999 NCD 06/01 Q1016=
201201220050 METAR COR EGLL 220050Z 28011KT CAVOK 06/01 Q1016 NOSIG=
201201220020 METAR COR EGLL 220020Z 27010KT CAVOK 07/01 Q1016 NOSIG=
201201212350 METAR COR EGLL 212350Z 28010KT CAVOK 06/01 Q1015 NOSIG=
201201212320 METAR COR EGLL 212320Z 28012KT 9999 FEW049 07/01 Q1015 NOSIG=
201201212250 METAR COR EGLL 212250Z 27017KT 9999 FEW047 07/02 Q1015 NOSIG=
201201212220 METAR COR EGLL 212220Z 27014KT 9999 FEW045 08/02 Q1015 NOSIG=
201201212150 METAR COR EGLL 212150Z 28012KT 9999 SCT044 08/02 Q1015 NOSIG=
201201212120 METAR COR EGLL 212120Z 28011KT 9999 FEW049 07/01 Q1014 NOSIG=
201201212050 METAR COR EGLL 212050Z 29011KT 9999 FEW040 08/01 Q1014 NOSIG=
201201212020 METAR COR EGLL 212020Z 29012KT 9999 SCT042 09/01 Q1014 NOSIG=
201201211950 METAR COR EGLL 211950Z 29010KT 9999 SCT038 SCT045 09/02 Q1014
                        NOSIG=
201201211920 METAR COR EGLL 211920Z 29011KT 9999 SCT044 09/02 Q1013 NOSIG=
201201211850 METAR COR EGLL 211850Z 29014KT 9999 FEW035 09/02 Q1013 NOSIG=
201201211820 METAR COR EGLL 211820Z 29014KT 9999 SCT037 SCT041 09/02 Q1013
                        NOSIG=
201201211750 METAR COR EGLL 211750Z 29015KT 9999 SCT041 10/02 Q1012 NOSIG=
201201211720 METAR COR EGLL 211720Z 29013KT 9999 SCT039 SCT049 10/02 Q1012
                        NOSIG=
201201211650 METAR COR EGLL 211650Z 29017KT 9999 SCT038 SCT044 10/02 Q1011
                        NOSIG=
201201211620 METAR COR EGLL 211620Z 28016KT 9999 SCT044 10/02 Q1011 NOSIG=
201201211550 METAR COR EGLL 211550Z 29019G30KT 9999 BKN041 10/02 Q1011
                        NOSIG=
201201211520 METAR COR EGLL 211520Z 29018KT 9999 BKN041 11/02 Q1011 NOSIG=
201201211450 METAR COR EGLL 211450Z 28024G36KT 9999 FEW038 SCT046 12/03
                        Q1010 NOSIG=
201201211420 METAR COR EGLL 211420Z 29014KT 9999 FEW042 SCT047 11/05 Q1010
                        NOSIG=
201201211350 METAR COR EGLL 211350Z 29017KT 9999 SCT021 SCT030 11/06 Q1011
                        NOSIG=
201201211320 METAR COR EGLL 211320Z 30014KT 9999 BKN022 12/07 Q1010 NOSIG=
201201211250 METAR COR EGLL 211250Z 30013G23KT 9999 VCSH SCT022 BKN026
                        12/07 Q1010 NOSIG=
201201211220 METAR COR EGLL 211220Z 27021KT 9999 VCSH SCT024 BKN029 12/07
                        Q1010 NOSIG=
201201211150 METAR COR EGLL 211150Z 28019KT 9999 SCT032 BKN039 13/07 Q1010
                        NOSIG=
201201211120 METAR COR EGLL 211120Z 28018KT 9999 SCT025 BKN045 12/07 Q1011
                        NOSIG=
201201211050 METAR COR EGLL 211050Z 27018KT 9999 SCT023 SCT030 12/08 Q1011
                        NOSIG=
201201211020 METAR COR EGLL 211020Z 27018KT 9999 SCT024 BKN028 12/08 Q1011
                        NOSIG=
201201210950 METAR COR EGLL 210950Z 27017KT 9999 SCT023 12/08 Q1011 NOSIG=
201201210920 METAR COR EGLL 210920Z 28017KT 9999 BKN020 BKN030 11/08 Q1011
                        NOSIG=
201201210850 METAR COR EGLL 210850Z 28015KT 9999 BKN019 11/07 Q1011 NOSIG=
201201210820 METAR COR EGLL 210820Z 27015KT 9999 SCT022 BKN036 11/07 Q1011
                        NOSIG=
201201210750 METAR COR EGLL 210750Z 27015KT 9999 FEW021 SCT037 11/07 Q1012
                        NOSIG=
201201210720 METAR COR EGLL 210720Z 26017KT 9999 FEW020 11/07 Q1011 NOSIG=
201201210650 METAR COR EGLL 210650Z 26017KT 9999 FEW019 11/07 Q1011 NOSIG=
201201210620 METAR COR EGLL 210620Z 27015KT 9999 FEW017 SCT020 11/08 Q1012
                        TEMPO BKN012=
201201210550 METAR COR EGLL 210550Z 27015KT 9999 SCT018 BKN028 11/08 Q1012
                        TEMPO BKN014=
201201210520 METAR COR EGLL 210520Z 26014KT 9999 FEW016 SCT019 11/08 Q1012
                        TEMPO BKN014=
201201210450 METAR COR EGLL 210450Z 26017KT 9999 SCT016 SCT029 11/08 Q1013
                        TEMPO BKN014=
201201210420 METAR COR EGLL 210420Z 26015KT 9999 SCT021 BKN029 11/08 Q1013
                        TEMPO BKN012=
201201210350 METAR COR EGLL 210350Z 26015KT 9999 BKN032 11/08 Q1013 TEMPO
                        BKN014=
201201210320 METAR COR EGLL 210320Z 26017KT 9999 FEW015 BKN030 11/08 Q1014
                        TEMPO BKN014=
201201210250 METAR COR EGLL 210250Z 26014KT 9999 SCT014 BKN026 11/08 Q1014
                        TEMPO BKN012=
201201210220 METAR EGLL 210220Z AUTO 25011KT 9999 OVC013/// 11/08 Q1015=
201201210150 METAR EGLL 210150Z AUTO 26013KT 9999 BKN015/// 11/08 Q1015=
201201210120 METAR EGLL 210120Z AUTO 25012KT 9999 BKN012/// BKN018///
                        10/08 Q1015=
201201210050 METAR COR EGLL 210050Z 24011KT 9999 BKN013 10/07 Q1016 NOSIG=
201201210020 METAR COR EGLL 210020Z 23011KT 9999 SCT014 BKN020 09/06 Q1016
                        TEMPO -DZ BKN014=
201201202350 METAR COR EGLL 202350Z 23010KT 9999 FEW021 BKN025 09/06 Q1017
                        NOSIG=
201201202320 METAR COR EGLL 202320Z 23007KT 9999 BKN028 09/06 Q1017 NOSIG=
201201202250 METAR COR EGLL 202250Z 24009KT 9999 BKN029 09/05 Q1018 NOSIG=
201201202220 METAR COR EGLL 202220Z 25012KT 9999 BKN027 09/05 Q1018 NOSIG=
201201202150 METAR COR EGLL 202150Z 26013KT 9999 SCT030 09/05 Q1018 NOSIG=
201201202120 METAR COR EGLL 202120Z 27012KT 9999 FEW030 09/05 Q1019 NOSIG=
201201202050 METAR COR EGLL 202050Z 27011KT CAVOK 09/05 Q1018 NOSIG=
201201202020 METAR COR EGLL 202020Z 27012KT CAVOK 09/05 Q1019 NOSIG=
201201201950 METAR COR EGLL 201950Z 27013KT CAVOK 09/05 Q1019 NOSIG=
201201201920 METAR EGLL 201920Z 27016KT CAVOK 09/05 Q1019=
201201201850 METAR COR EGLL 201850Z 27014KT CAVOK 09/05 Q1019 NOSIG=
201201201820 METAR COR EGLL 201820Z 28013KT CAVOK 09/05 Q1019 NOSIG=
201201201750 METAR COR EGLL 201750Z 27013KT 9999 FEW028 09/05 Q1019 NOSIG=
201201201720 METAR COR EGLL 201720Z 27013KT CAVOK 09/05 Q1019 NOSIG=
201201201650 METAR COR EGLL 201650Z 27015KT 9999 FEW030 09/05 Q1019 NOSIG=
201201201620 METAR COR EGLL 201620Z 28012KT 9999 BKN030 BKN038 10/05 Q1019
                        NOSIG=
201201201550 METAR COR EGLL 201550Z 28014KT 9999 BKN027 10/05 Q1019 NOSIG=
201201201520 METAR COR EGLL 201520Z 28014KT 9999 BKN027 10/05 Q1018 NOSIG=
201201201450 METAR COR EGLL 201450Z 29013KT 9999 BKN027 BKN034 10/05 Q1018
                        TEMPO BKN014=
201201201420 METAR COR EGLL 201420Z 29016KT 9999 BKN027 11/05 Q1018 TEMPO
                        BKN014=
201201201350 METAR COR EGLL 201350Z 29014KT 9999 -RA SCT026 BKN031 10/06
                        Q1018 TEMPO BKN014=
201201201320 METAR COR EGLL 201320Z 28016KT 9999 -RA SCT022 BKN028 10/06
                        Q1019 TEMPO BKN014=
201201201250 METAR COR EGLL 201250Z 28016KT 9999 -RA SCT024 BKN028 10/06
                        Q1019 TEMPO BKN014=
201201201220 METAR COR EGLL 201220Z 27017KT 9999 SCT025 BKN030 10/06 Q1019
                        TEMPO BKN014=
201201201150 METAR COR EGLL 201150Z 28016KT 9999 SCT026 BKN031 10/05 Q1019
                        TEMPO BKN014=
201201201120 METAR COR EGLL 201120Z 28016KT 9999 SCT026 BKN034 09/05 Q1019
                        NOSIG=
201201201050 METAR COR EGLL 201050Z 28018KT 9999 BKN026 09/05 Q1019 NOSIG=
201201201020 METAR COR EGLL 201020Z 27016KT 9999 FEW025 BKN030 09/04 Q1019
                        NOSIG=
201201200950 METAR COR EGLL 200950Z 27016KT 9999 BKN025 BKN031 09/04 Q1019
                        NOSIG=
201201200920 METAR COR EGLL 200920Z 26015KT 9999 SCT026 BKN033 08/04 Q1019
                        TEMPO BKN014=
201201200850 METAR COR EGLL 200850Z 26016KT 9999 BKN034 07/03 Q1019 TEMPO
                        BKN014=
201201200820 METAR COR EGLL 200820Z 26016KT 9999 BKN035 07/03 Q1020 TEMPO
                        BKN014=
201201200750 METAR COR EGLL 200750Z 25017KT 9999 SCT037 07/02 Q1020 TEMPO
                        BKN014=
201201200720 METAR COR EGLL 200720Z 25015KT 9999 FEW037 SCT040 06/02 Q1020
                        TEMPO BKN014=
201201200650 METAR COR EGLL 200650Z 26015KT 9999 SCT046 06/02 Q1020 TEMPO
                        -RA BKN014=
201201200620 METAR COR EGLL 200620Z 26015KT CAVOK 06/01 Q1020 NOSIG=
201201200550 METAR COR EGLL 200550Z 26014KT CAVOK 06/01 Q1020 NOSIG=
201201200520 METAR COR EGLL 200520Z 26012KT CAVOK 06/01 Q1021 NOSIG=
201201200450 METAR COR EGLL 200450Z 26014KT CAVOK 05/01 Q1021 NOSIG=
201201200420 METAR COR EGLL 200420Z 27011KT CAVOK 05/01 Q1021 NOSIG=
201201200350 METAR COR EGLL 200350Z 26009KT CAVOK 05/02 Q1020 NOSIG=
201201200320 METAR COR EGLL 200320Z 27010KT CAVOK 05/02 Q1021 NOSIG=
201201200250 METAR COR EGLL 200250Z 27011KT 9999 FEW032 05/01 Q1021 NOSIG=
201201200220 METAR EGLL 200220Z AUTO 27008KT 9999 NCD 05/01 Q1020=
201201200150 METAR EGLL 200150Z AUTO 27011KT 9999 NCD 05/01 Q1021=
201201200120 METAR EGLL 200120Z AUTO 28011KT 9999 NCD 05/01 Q1021=
201201200050 METAR EGLL 200050Z 28012KT CAVOK 05/01 Q1021=
201201200020 METAR COR EGLL 200020Z 28012KT CAVOK 05/02 Q1020 NOSIG=
201201192350 METAR COR EGLL 192350Z 28011KT CAVOK 05/02 Q1020 NOSIG=
201201192320 METAR COR EGLL 192320Z 28012KT 9999 FEW037 06/02 Q1020 NOSIG=
201201192250 METAR EGLL 192250Z 29013KT 9999 FEW049 07/02 Q1019=
201201192220 METAR COR EGLL 192220Z 28011KT CAVOK 07/03 Q1019 NOSIG=
201201192150 METAR COR EGLL 192150Z 29011KT CAVOK 07/03 Q1019 NOSIG=
201201192120 METAR COR EGLL 192120Z 28012KT 9999 FEW030 07/03 Q1019 NOSIG=
201201192050 METAR COR EGLL 192050Z 27015KT 9999 FEW045 08/03 Q1018 NOSIG=
201201192020 METAR COR EGLL 192020Z 27014KT CAVOK 08/04 Q1019 NOSIG=
201201191950 METAR COR EGLL 191950Z 26013KT CAVOK 07/04 Q1018 NOSIG=
201201191920 METAR COR EGLL 191920Z 27016KT CAVOK 08/04 Q1019 NOSIG=
201201191850 METAR COR EGLL 191850Z 26015KT 9999 FEW047 08/04 Q1019 NOSIG=
201201191820 METAR COR EGLL 191820Z 25013KT CAVOK 08/04 Q1019 NOSIG=
201201191750 METAR COR EGLL 191750Z 25011KT 9999 FEW024 08/04 Q1019 NOSIG=
201201191720 METAR COR EGLL 191720Z 26013KT 9999 FEW016 08/04 Q1019 NOSIG=
201201191650 METAR COR EGLL 191650Z 27014KT 9999 FEW036 08/04 Q1019 NOSIG=
201201191620 METAR COR EGLL 191620Z 27016KT 9999 FEW036 09/04 Q1019 NOSIG=
201201191550 METAR COR EGLL 191550Z 28013KT 9999 FEW020 SCT036 09/04 Q1019
                        NOSIG=
201201191520 METAR COR EGLL 191520Z 27016KT 9999 FEW016 SCT038 09/05 Q1019
                        NOSIG=
201201191450 METAR COR EGLL 191450Z 28015KT 9999 FEW016 SCT030 10/05 Q1019
                        NOSIG=
201201191420 METAR COR EGLL 191420Z 28017KT 9999 SCT020 10/06 Q1018 NOSIG=
201201191350 METAR COR EGLL 191350Z 28017KT 9999 FEW017 10/06 Q1018 NOSIG=
201201191320 METAR COR EGLL 191320Z 28015KT 9999 FEW017 10/07 Q1018 NOSIG=
201201191250 METAR COR EGLL 191250Z 28014KT 9999 FEW017 10/07 Q1018 NOSIG=
201201191220 METAR COR EGLL 191220Z 29012KT 9999 FEW012 SCT016 10/07 Q1019
                        NOSIG=
201201191150 METAR COR EGLL 191150Z 28011KT 9999 FEW010 10/08 Q1019 NOSIG=
201201191120 METAR COR EGLL 191120Z 29006KT 260V330 9999 FEW008 09/07
                        Q1019 NOSIG=
201201191050 METAR COR EGLL 191050Z 29005KT 9999 SCT006 09/08 Q1019 NOSIG=
201201191020 METAR COR EGLL 191020Z 30006KT 9999 FEW005 SCT007 09/07 Q1018
                        RERA NOSIG=
201201190950 METAR COR EGLL 190950Z 29006KT 3000 RA BKN005 BKN021 09/07
                        Q1018 BECMG 9999 NSW FEW008 SCT030=
201201190920 METAR COR EGLL 190920Z 29005KT 9999 -RA FEW012 SCT030 09/07
                        Q1017 NOSIG=
201201190850 METAR COR EGLL 190850Z 34006KT 310V020 5000 RA FEW008 BKN011
                        BKN019 09/07 Q1017 BECMG 9999 NSW
                        SCT014=
201201190820 METAR COR EGLL 190820Z 26016KT 4000 RA BKN010 BKN018 12/10
                        Q1016 BECMG 32015KT 9999 NSW SCT012
                        BKN020=
201201190750 METAR COR EGLL 190750Z 25014KT 4500 RA BKN007 BKN013 12/10
                        Q1016 TEMPO 25017G27KT 6000 SCT008
                        BKN014=
201201190720 METAR COR EGLL 190720Z 25015KT 6000 RA BKN007 BKN012 12/11
                        Q1016 RERA TEMPO 25018G28KT 3500
                        RADZ=
201201190650 METAR COR EGLL 190650Z 25013KT 3000 -RA BKN008 BKN014 12/11
                        Q1016 TEMPO 7000 BKN012=
201201190620 METAR COR EGLL 190620Z 25015KT 9999 -RA FEW008 BKN010 12/11
                        Q1016 TEMPO 7000 RA BKN007=
201201190550 METAR COR EGLL 190550Z 24014KT 9000 -RA SCT007 BKN010 12/10
                        Q1016 TEMPO 7000 BKN007=
201201190520 METAR COR EGLL 190520Z 23011KT 7000 -RA FEW005 BKN007 BKN010
                        11/10 Q1017 NOSIG=
201201190450 METAR COR EGLL 190450Z 22012KT 9000 -RA SCT007 BKN010 11/10
                        Q1017 TEMPO 6000 RA BKN007=
201201190420 METAR COR EGLL 190420Z 22011KT 9999 -RA FEW006 BKN010 11/09
                        Q1018 TEMPO 4000 RA BKN007=
201201190350 METAR COR EGLL 190350Z 22011KT 9999 FEW007 BKN010 11/09 Q1018
                        TEMPO 4000 RA BKN007=
201201190320 METAR COR EGLL 190320Z 24010KT 9999 -RA BKN010 11/09 Q1019
                        TEMPO 4000 RA BKN007=
201201190250 METAR COR EGLL 190250Z 24008KT 9999 BKN013 11/08 Q1020 TEMPO
                        -RA BKN007=
201201190220 METAR EGLL 190220Z AUTO 25012KT 9999 OVC015/// 11/08 Q1020=
201201190150 METAR EGLL 190150Z AUTO 26013KT 9999 BKN016/// 11/09 Q1021=
201201190120 METAR EGLL 190120Z AUTO 26014KT 9999 SCT014/// OVC018///
                        11/09 Q1021=
201201190050 METAR COR EGLL 190050Z 26011KT 9999 SCT007 BKN016 11/09 Q1021
                        TEMPO BKN007=
201201190020 METAR COR EGLL 190020Z 24010KT 9999 SCT007 BKN022 11/10 Q1021
                        TEMPO BKN007=
201201182350 METAR COR EGLL 182350Z 25010KT 9000 SCT008 BKN023 11/10 Q1022
                        TEMPO BKN007=
201201182320 METAR COR EGLL 182320Z 24010KT 9999 FEW008 BKN011 11/10 Q1022
                        TEMPO BKN007=
201201182250 METAR COR EGLL 182250Z 25010KT 9999 BKN010 12/10 Q1022 TEMPO
                        BKN007=
201201182220 METAR COR EGLL 182220Z 26013KT 9999 BKN012 12/10 Q1022 TEMPO
                        BKN007=
201201182150 METAR COR EGLL 182150Z 25011KT 9999 BKN011 12/10 Q1022 BECMG
                        BKN007=
201201182120 METAR COR EGLL 182120Z 25010KT 9999 FEW009 BKN010 12/10 Q1023
                        BECMG BKN007=
201201182050 METAR COR EGLL 182050Z 26009KT 9999 FEW009 BKN010 12/10 Q1023
                        BECMG BKN007=
201201182020 METAR COR EGLL 182020Z 27012KT 9999 BKN010 12/09 Q1023 BECMG
                        BKN007=
201201181950 METAR COR EGLL 181950Z 27012KT 9999 BKN013 11/09 Q1023 TEMPO
                        BKN007=
201201181920 METAR COR EGLL 181920Z 26012KT 9999 BKN012 12/10 Q1023 BECMG
                        BKN007=
201201181850 METAR COR EGLL 181850Z 27012KT 9999 BKN011 12/10 Q1023 BECMG
                        BKN007=
201201181820 METAR COR EGLL 181820Z 26013KT 9999 FEW009 BKN013 12/10 Q1023
                        BECMG BKN007=
201201181750 METAR COR EGLL 181750Z 26011KT 9999 BKN011 12/10 Q1023 BECMG
                        BKN007=
201201181720 METAR COR EGLL 181720Z 26012KT 9999 BKN012 BKN017 12/10 Q1022
                        NOSIG=
201201181650 METAR COR EGLL 181650Z 26012KT 9999 BKN011 SCT031 12/10 Q1023
                        NOSIG=
201201181620 METAR COR EGLL 181620Z 27012KT 9999 SCT011 12/10 Q1023 BECMG
                        BKN011=
201201181550 METAR COR EGLL 181550Z 26010KT 9999 BKN011 12/10 Q1022 TEMPO
                        BKN007=
201201181520 METAR COR EGLL 181520Z 25009KT 9999 FEW009 BKN011 12/10 Q1023
                        TEMPO BKN007=
201201181450 METAR COR EGLL 181450Z 23009KT 9999 SCT007 BKN009 11/10 Q1022
                        TEMPO 4500 -DZ=
201201181420 METAR COR EGLL 181420Z 22009KT 9999 SCT007 BKN008 11/10 Q1022
                        TEMPO 4500 -DZ BKN004=
201201181350 METAR COR EGLL 181350Z 23009KT 200V260 9999 SCT007 BKN008
                        11/10 Q1023 TEMPO 4500 BR -DZ BKN004=
201201181320 METAR COR EGLL 181320Z 23009KT 9999 SCT006 BKN007 11/10 Q1022
                        TEMPO SCT007 BKN012=
201201181250 METAR COR EGLL 181250Z 22009KT 9999 SCT005 BKN006 11/10 Q1023
                        TEMPO SCT007 BKN012=
201201181220 METAR COR EGLL 181220Z 22011KT 8000 OVC005 11/09 Q1023 TEMPO
                        SCT005 BKN012=
201201181150 METAR COR EGLL 181150Z 21009KT 6000 OVC004 10/09 Q1023 TEMPO
                        3500 -DZ BR=
201201181120 METAR COR EGLL 181120Z 22012KT 5000 BR OVC004 10/09 Q1023
                        TEMPO 3500=
201201181050 METAR EGLL 181050Z 22011KT 5000 BR OVC005 10/08 Q1023=
201201181020 METAR COR EGLL 181020Z 22012KT 6000 OVC005 09/08 Q1023 TEMPO
                        4500 -DZ BR BKN003=
201201180950 METAR COR EGLL 180950Z 22010KT 9000 OVC005 09/08 Q1023 TEMPO
                        4500 -DZ BKN003=
201201180920 METAR COR EGLL 180920Z 22010KT 5000 -RA OVC004 09/08 Q1023
                        TEMPO 2500=
201201180850 METAR COR EGLL 180850Z 22009KT 2200 -DZRA OVC004 08/08 Q1023
                        TEMPO SCT004 BKN007=
201201180820 METAR COR EGLL 180820Z 21009KT 2500 -DZ OVC005 08/07 Q1023
                        TEMPO BKN003=
201201180750 METAR COR EGLL 180750Z 22009KT 190V260 2900 HZ OVC005 08/07
                        Q1024 TEMPO BKN003=
201201180720 METAR COR EGLL 180720Z 21009KT 2100 HZ OVC005 08/07 Q1023
                        TEMPO BKN003=
201201180650 METAR COR EGLL 180650Z 20010KT 2600 HZ OVC005 08/07 Q1024
                        TEMPO BKN003=
201201180620 METAR COR EGLL 180620Z 20007KT 190V250 2900 DZ SCT005 BKN007
                        07/06 Q1024 TEMPO BKN004=
201201180550 METAR COR EGLL 180550Z 20007KT 2900 -DZ FEW005 SCT006 BKN009
                        07/06 Q1024 TEMPO BKN004=
201201180520 METAR COR EGLL 180520Z 20007KT 3700 -DZ FEW006 SCT008 BKN010
                        07/06 Q1024 TEMPO BKN008=
201201180450 METAR COR EGLL 180450Z 21006KT 170V230 4700 -DZ BKN010 07/06
                        Q1024 TEMPO 5000 BKN009=
201201180420 METAR COR EGLL 180420Z 20006KT 4600 HZ BKN012 06/05 Q1025
                        TEMPO -DZ BKN009=
201201180350 METAR COR EGLL 180350Z 20007KT 3900 HZ NSC 06/05 Q1025 TEMPO
                        5000 BKN012=
201201180320 METAR COR EGLL 180320Z 20007KT 3800 HZ NSC 06/05 Q1025 TEMPO
                        5000 BKN012=
201201180250 METAR COR EGLL 180250Z 21005KT 3500 HZ SCT026 05/04 Q1026
                        TEMPO 5000=
201201180220 METAR EGLL 180220Z AUTO 22006KT 2700 HZ FEW012/// SCT025///
                        04/03 Q1026=
201201180150 METAR EGLL 180150Z AUTO 20005KT 2600 HZ FEW022/// 04/03 Q1026=
201201180120 METAR EGLL 180120Z AUTO 20004KT 1900 HZ BKN017/// 04/03 Q1026=
201201180050 METAR COR EGLL 180050Z 21005KT 3500 HZ FEW014 SCT024 03/02
                        Q1027 TEMPO 5000=
201201180020 METAR COR EGLL 180020Z 21005KT 3600 HZ SCT017 03/03 Q1027
                        TEMPO 5000=
201201172350 METAR COR EGLL 172350Z 21005KT 3600 HZ SCT017 03/02 Q1027
                        TEMPO 5000=
201201172320 METAR COR EGLL 172320Z 22005KT 5000 HZ NSC 03/02 Q1027 TEMPO
                        4000 BR BKN012=
201201172250 METAR COR EGLL 172250Z 20006KT 180V250 6000 SCT016 03/02
                        Q1027 TEMPO BKN012=
201201172220 METAR COR EGLL 172220Z 21006KT 160V250 7000 SCT016 SCT024
                        03/02 Q1027 NOSIG=
201201172150 METAR COR EGLL 172150Z 19006KT 170V250 8000 BKN021 04/02
                        Q1027 NOSIG=
201201172120 METAR COR EGLL 172120Z 20006KT 170V240 8000 BKN023 04/02
                        Q1027 NOSIG=
201201172050 METAR COR EGLL 172050Z 19006KT 170V240 8000 SCT022 04/02
                        Q1027 NOSIG=
201201172020 METAR COR EGLL 172020Z 19005KT 150V240 8000 BKN023 04/02
                        Q1027 NOSIG=
201201171950 METAR COR EGLL 171950Z 20006KT 160V250 8000 BKN022 04/02
                        Q1027 NOSIG=
201201171920 METAR COR EGLL 171920Z 19006KT 120V250 9000 BKN021 04/02
                        Q1027 NOSIG=
201201171850 METAR COR EGLL 171850Z 18006KT 140V220 8000 BKN022 04/02
                        Q1027 NOSIG=
201201171820 METAR COR EGLL 171820Z 19006KT 160V240 8000 BKN022 03/01
                        Q1027 NOSIG=
201201171750 METAR COR EGLL 171750Z 18006KT 140V250 9000 SCT022 03/01
                        Q1027 NOSIG=
201201171720 METAR COR EGLL 171720Z 22005KT 160V260 9000 SCT021 04/01
                        Q1027 NOSIG=
201201171650 METAR COR EGLL 171650Z 22006KT 170V250 8000 NSC 04/01 Q1027
                        NOSIG=
201201171620 METAR COR EGLL 171620Z 23006KT 9000 NSC 05/01 Q1027 NOSIG=
201201171550 METAR COR EGLL 171550Z 24005KT 180V290 9000 NSC 05/01 Q1027
                        NOSIG=
201201171520 METAR COR EGLL 171520Z 20005KT 150V260 9000 NSC 05/01 Q1027
                        NOSIG=
201201171450 METAR COR EGLL 171450Z 18005KT 140V230 9000 NSC 05/01 Q1027
                        NOSIG=
201201171420 METAR COR EGLL 171420Z 19006KT 160V250 9999 NSC 05/00 Q1027
                        NOSIG=
201201171350 METAR COR EGLL 171350Z 19005KT 150V240 9000 NSC 05/00 Q1027
                        NOSIG=
201201171320 METAR COR EGLL 171320Z 21004KT 9000 NSC 05/00 Q1028 NOSIG=
201201171250 METAR COR EGLL 171250Z VRB03KT 9000 NSC 04/M00 Q1028 NOSIG=
201201171220 METAR COR EGLL 171220Z VRB02KT 9000 NSC 04/M00 Q1028 NOSIG=
201201171150 METAR COR EGLL 171150Z VRB03KT 9000 NSC 03/M00 Q1028 NOSIG=
201201171120 METAR COR EGLL 171120Z 13005KT 100V180 9000 NSC 03/M01 Q1028
                        NOSIG=
201201171050 METAR COR EGLL 171050Z 15004KT 120V210 CAVOK 02/M01 Q1028
                        NOSIG=
201201171020 METAR COR EGLL 171020Z 14004KT 070V190 CAVOK 02/M01 Q1028
                        CAVOK=
201201170950 METAR COR EGLL 170950Z 15004KT 120V200 CAVOK 01/M02 Q1028
                        NOSIG=
201201170920 METAR COR EGLL 170920Z 16005KT 130V190 CAVOK M00/M03 Q1028
                        NOSIG=
201201170850 METAR COR EGLL 170850Z VRB02KT CAVOK M00/M02 Q1028 NOSIG=
201201170820 METAR COR EGLL 170820Z 13004KT 090V170 CAVOK M01/M03 Q1028
                        NOSIG=
201201170750 METAR COR EGLL 170750Z VRB03KT CAVOK M01/M03 Q1028 NOSIG=
201201170720 METAR COR EGLL 170720Z VRB02KT CAVOK M01/M03 Q1027 NOSIG=
201201170650 METAR COR EGLL 170650Z VRB02KT CAVOK M01/M03 Q1027 NOSIG=
201201170620 METAR COR EGLL 170620Z 13004KT 090V170 CAVOK M02/M03 Q1027
                        NOSIG=
201201170550 METAR COR EGLL 170550Z 00000KT CAVOK M02/M04 Q1027 NOSIG=
201201170520 METAR COR EGLL 170520Z VRB02KT CAVOK M02/M04 Q1027 NOSIG=
201201170450 METAR COR EGLL 170450Z 00000KT CAVOK M02/M04 Q1027 NOSIG=
201201170420 METAR COR EGLL 170420Z 01002KT CAVOK M01/M03 Q1027 NOSIG=
201201170350 METAR COR EGLL 170350Z VRB02KT CAVOK M02/M04 Q1027 NOSIG=
201201170320 METAR COR EGLL 170320Z 07002KT CAVOK M01/M04 Q1027 NOSIG=
201201170250 METAR COR EGLL 170250Z 12004KT 090V150 9999 FEW049 M01/M04
                        Q1027 NOSIG=
201201170220 METAR EGLL 170220Z AUTO 11005KT 9999 NCD M02/M04 Q1027=
201201170150 METAR EGLL 170150Z AUTO 10003KT 9999 NCD M01/M04 Q1027=
201201170120 METAR EGLL 170120Z AUTO 10005KT 9999 NCD M01/M05 Q1027=
201201170050 METAR COR EGLL 170050Z 11004KT CAVOK M01/M05 Q1027 NOSIG=
201201170020 METAR COR EGLL 170020Z 10003KT CAVOK 00/M05 Q1027 NOSIG=
201201162350 METAR COR EGLL 162350Z 03002KT CAVOK M00/M05 Q1027 NOSIG=
201201162320 METAR COR EGLL 162320Z 09004KT CAVOK 00/M05 Q1027 NOSIG=
201201162250 METAR COR EGLL 162250Z 11006KT CAVOK 00/M05 Q1027 NOSIG=
201201162220 METAR COR EGLL 162220Z 11006KT CAVOK 01/M05 Q1027 NOSIG=
201201162150 METAR COR EGLL 162150Z 08003KT CAVOK 01/M04 Q1027 NOSIG=
201201162120 METAR COR EGLL 162120Z VRB03KT CAVOK 01/M05 Q1027 NOSIG=
201201162050 METAR COR EGLL 162050Z VRB02KT CAVOK 02/M04 Q1027 NOSIG=
201201162020 METAR COR EGLL 162020Z VRB02KT CAVOK 02/M04 Q1027 NOSIG=
201201161950 METAR COR EGLL 161950Z 08004KT CAVOK 02/M04 Q1027 NOSIG=
201201161920 METAR COR EGLL 161920Z 06003KT CAVOK 02/M03 Q1027 NOSIG=
201201161850 METAR COR EGLL 161850Z 08004KT CAVOK 02/M03 Q1027 NOSIG=
201201161820 METAR COR EGLL 161820Z 09004KT CAVOK 02/M03 Q1026 NOSIG=
201201161750 METAR COR EGLL 161750Z 10006KT CAVOK 03/M03 Q1026 NOSIG=
201201161720 METAR COR EGLL 161720Z 09004KT CAVOK 03/M03 Q1026 NOSIG=
201201161650 METAR COR EGLL 161650Z 09005KT CAVOK 03/M03 Q1025 NOSIG=
201201161620 METAR COR EGLL 161620Z 09006KT CAVOK 04/M03 Q1025 NOSIG=
201201161550 METAR EGLL 161550Z 09006KT CAVOK 06/M04 Q1025 NOSIG=
201201161520 METAR COR EGLL 161520Z 09007KT CAVOK 06/M03 Q1025 NOSIG=
201201161450 METAR COR EGLL 161450Z 09008KT CAVOK 07/M05 Q1025 NOSIG=
201201161420 METAR COR EGLL 161420Z 08007KT CAVOK 07/M04 Q1025 NOSIG=
201201161350 METAR COR EGLL 161350Z 09008KT CAVOK 07/M03 Q1025 NOSIG=
201201161320 METAR COR EGLL 161320Z 09008KT CAVOK 07/M03 Q1025 NOSIG=
201201161250 METAR COR EGLL 161250Z 09008KT CAVOK 06/M02 Q1025 NOSIG=
201201161220 METAR COR EGLL 161220Z 10008KT CAVOK 06/M02 Q1025 NOSIG=
201201161150 METAR COR EGLL 161150Z 10008KT CAVOK 05/M01 Q1026 NOSIG=
201201161120 METAR COR EGLL 161120Z 09007KT CAVOK 05/M01 Q1026 NOSIG=
201201161050 METAR COR EGLL 161050Z 09007KT CAVOK 04/M01 Q1026 NOSIG=
201201161020 METAR COR EGLL 161020Z 07005KT CAVOK 03/M01 Q1026 NOSIG=
201201160950 METAR COR EGLL 160950Z 07004KT CAVOK 02/M01 Q1026 NOSIG=
201201160920 METAR COR EGLL 160920Z VRB02KT 7000 NSC 00/M01 Q1025 NOSIG=
201201160850 METAR COR EGLL 160850Z VRB03KT 7000 NSC M01/M02 Q1025 NOSIG=
201201160820 METAR COR EGLL 160820Z 08004KT 7000 NSC M02/M03 Q1025 NOSIG=
201201160750 METAR COR EGLL 160750Z 08004KT 7000 NSC M01/M02 Q1025 NOSIG=
201201160720 METAR COR EGLL 160720Z 06005KT 6000 NSC M01/M02 Q1024 NOSIG=
201201160650 METAR COR EGLL 160650Z 05003KT 9000 NSC M01/M02 Q1024 NOSIG=
201201160620 METAR COR EGLL 160620Z 06003KT 7000 NSC M01/M03 Q1024 NOSIG=
201201160550 METAR COR EGLL 160550Z 05004KT 8000 NSC M01/M03 Q1024 NOSIG=
201201160520 METAR COR EGLL 160520Z 07005KT 8000 NSC M01/M03 Q1024 NOSIG=
201201160450 METAR COR EGLL 160450Z 07005KT 8000 NSC M01/M02 Q1024 NOSIG=
201201160420 METAR COR EGLL 160420Z 06005KT 7000 NSC M01/M02 Q1024 NOSIG=
201201160350 METAR EGLL 160350Z 08006KT 8000 NSC M01/M02 Q1024=
201201160320 METAR COR EGLL 160320Z 07005KT 8000 NSC M01/M02 Q1024 NOSIG=
201201160250 METAR COR EGLL 160250Z 09006KT 8000 NSC M01/M02 Q1023 NOSIG=
201201160220 METAR EGLL 160220Z AUTO 08005KT 7000 NCD M00/M02 Q1023=
201201160150 METAR EGLL 160150Z AUTO 09006KT 8000 NCD M00/M02 Q1023=
201201160120 METAR EGLL 160120Z AUTO 09006KT 9999 NCD 00/M02 Q1023=
201201160050 METAR COR EGLL 160050Z 09008KT 9000 NSC 00/M02 Q1023 NOSIG=
201201160020 METAR COR EGLL 160020Z 09007KT CAVOK 00/M02 Q1023 NOSIG=
201201152350 METAR COR EGLL 152350Z 09009KT CAVOK 00/M02 Q1024 NOSIG=
201201152320 METAR COR EGLL 152320Z 10008KT CAVOK 01/M02 Q1024 NOSIG=
201201152250 METAR COR EGLL 152250Z 10009KT CAVOK 02/M01 Q1024 NOSIG=
201201152220 METAR COR EGLL 152220Z 09009KT CAVOK 02/M01 Q1023 NOSIG=
201201152150 METAR COR EGLL 152150Z 10008KT CAVOK 02/M01 Q1023 NOSIG=
201201152120 METAR COR EGLL 152120Z 09008KT CAVOK 02/M01 Q1023 NOSIG=
201201152050 METAR COR EGLL 152050Z 09007KT CAVOK 02/M01 Q1024 NOSIG=
201201152020 METAR COR EGLL 152020Z 09007KT CAVOK 01/M02 Q1024 NOSIG=
201201151950 METAR COR EGLL 151950Z 09007KT CAVOK 02/M02 Q1024 NOSIG=
201201151920 METAR COR EGLL 151920Z 09008KT CAVOK 02/M02 Q1024 NOSIG=
201201151850 METAR COR EGLL 151850Z 10007KT CAVOK 02/M02 Q1024 NOSIG=
201201151820 METAR COR EGLL 151820Z 09007KT CAVOK 02/M02 Q1023 NOSIG=
201201151750 METAR COR EGLL 151750Z 10008KT CAVOK 02/M02 Q1023 NOSIG=
201201151720 METAR COR EGLL 151720Z 10007KT CAVOK 02/M02 Q1023 NOSIG=
201201151650 METAR COR EGLL 151650Z 10008KT CAVOK 03/M02 Q1023 NOSIG=
201201151620 METAR COR EGLL 151620Z 11009KT CAVOK 03/M02 Q1023 NOSIG=
201201151550 METAR COR EGLL 151550Z 10009KT CAVOK 05/M02 Q1023 NOSIG=
201201151520 METAR COR EGLL 151520Z 11011KT 9999 FEW030 05/M01 Q1023 NOSIG=
201201151450 METAR COR EGLL 151450Z 12009KT 9999 FEW033 06/M01 Q1023 NOSIG=
201201151420 METAR COR EGLL 151420Z 11012KT 9999 FEW033 06/M01 Q1023 NOSIG=
201201151350 METAR COR EGLL 151350Z 12013KT 9999 FEW033 06/M01 Q1023 NOSIG=
201201151320 METAR COR EGLL 151320Z 12010KT 9999 FEW033 07/M01 Q1024 NOSIG=
201201151250 METAR COR EGLL 151250Z 12011KT 9999 FEW034 06/M01 Q1024 NOSIG=
201201151220 METAR COR EGLL 151220Z 11010KT 9999 FEW032 06/M01 Q1024 NOSIG=
201201151150 METAR COR EGLL 151150Z 11010KT 9999 FEW020 06/00 Q1025 NOSIG=
201201151120 METAR COR EGLL 151120Z 11011KT CAVOK 05/00 Q1025 NOSIG=
201201151050 METAR COR EGLL 151050Z 10007KT CAVOK 05/00 Q1025 NOSIG=
201201151020 METAR COR EGLL 151020Z 10007KT CAVOK 04/00 Q1025 NOSIG=
201201150950 METAR COR EGLL 150950Z 09007KT CAVOK 03/M00 Q1025 NOSIG=
201201150920 METAR COR EGLL 150920Z 09006KT CAVOK 02/M01 Q1025 NOSIG=
201201150850 METAR COR EGLL 150850Z 09006KT CAVOK 01/M01 Q1025 NOSIG=
201201150820 METAR COR EGLL 150820Z 09006KT CAVOK 00/M02 Q1025 NOSIG=
201201150750 METAR COR EGLL 150750Z 09006KT CAVOK 00/M02 Q1025 NOSIG=
201201150720 METAR COR EGLL 150720Z 09006KT CAVOK M01/M03 Q1025 NOSIG=
201201150650 METAR COR EGLL 150650Z 09006KT CAVOK M01/M03 Q1025 NOSIG=
201201150620 METAR COR EGLL 150620Z 08005KT 9999 FEW033 M00/M03 Q1025
                        NOSIG=
201201150550 METAR COR EGLL 150550Z 09005KT CAVOK M00/M02 Q1025 NOSIG=
201201150520 METAR COR EGLL 150520Z 07005KT CAVOK 00/M02 Q1025 NOSIG=
201201150450 METAR COR EGLL 150450Z 08005KT CAVOK 00/M02 Q1025 NOSIG=
201201150420 METAR COR EGLL 150420Z 08005KT CAVOK 01/M02 Q1025 NOSIG=
201201150350 METAR COR EGLL 150350Z 08004KT 9999 FEW032 01/M02 Q1025 NOSIG=
201201150320 METAR COR EGLL 150320Z 08005KT CAVOK 00/M02 Q1025 NOSIG=
201201150250 METAR COR EGLL 150250Z 09006KT CAVOK 00/M02 Q1025 NOSIG=
201201150220 METAR EGLL 150220Z NIL=
201201150150 METAR EGLL 150150Z NIL=
201201150120 METAR COR EGLL 150120Z 09006KT 9999 SCT035 01/M01 Q1026 NOSIG=
201201150050 METAR EGLL 150050Z NIL=
201201150020 METAR EGLL 150020Z NIL=
201201142350 METAR EGLL 142350Z NIL=
201201142320 METAR EGLL 142320Z NIL=
201201142250 METAR COR EGLL 142250Z 07005KT 9000 BKN036 02/00 Q1027 NOSIG=
201201142220 METAR COR EGLL 142220Z 08004KT 9000 BKN035 02/00 Q1027 NOSIG=
201201142150 METAR COR EGLL 142150Z 07005KT 9000 SCT032 01/M00 Q1027 NOSIG=
201201142120 METAR COR EGLL 142120Z 08004KT 9000 FEW030 01/M00 Q1027 NOSIG=
201201142050 METAR COR EGLL 142050Z 09005KT 9000 NSC 01/M00 Q1027 NOSIG=
201201142020 METAR COR EGLL 142020Z 09005KT CAVOK 01/M00 Q1027 NOSIG=
201201141950 METAR COR EGLL 141950Z 09006KT CAVOK 01/M00 Q1027 NOSIG=
201201141920 METAR COR EGLL 141920Z 09005KT CAVOK 02/M00 Q1028 NOSIG=
201201141850 METAR COR EGLL 141850Z 09006KT CAVOK 01/M00 Q1028 NOSIG=
201201141820 METAR COR EGLL 141820Z 10006KT CAVOK 02/M01 Q1028 NOSIG=
201201141750 METAR COR EGLL 141750Z 09005KT CAVOK 02/M01 Q1028 NOSIG=
201201141720 METAR COR EGLL 141720Z 09005KT CAVOK 03/M01 Q1028 NOSIG=
201201141650 METAR COR EGLL 141650Z 09006KT CAVOK 03/M01 Q1028 NOSIG=
201201141620 METAR COR EGLL 141620Z 09006KT CAVOK 05/M01 Q1028 NOSIG=
201201141550 METAR COR EGLL 141550Z 09004KT CAVOK 04/M01 Q1028 NOSIG=
201201141520 METAR COR EGLL 141520Z 09006KT CAVOK 06/M01 Q1028 NOSIG=
201201141450 METAR COR EGLL 141450Z 09005KT CAVOK 06/M01 Q1028 NOSIG=
201201141420 METAR COR EGLL 141420Z 09005KT CAVOK 06/M00 Q1028 NOSIG=
201201141350 METAR COR EGLL 141350Z 11005KT CAVOK 06/M00 Q1028 NOSIG=
201201141320 METAR COR EGLL 141320Z 10005KT 9000 NSC 06/M00 Q1029 NOSIG=
201201141250 METAR COR EGLL 141250Z 10005KT 9000 NSC 06/M00 Q1029 NOSIG=
201201141220 METAR COR EGLL 141220Z 10004KT 9000 NSC 05/M00 Q1030 NOSIG=
201201141150 METAR COR EGLL 141150Z VRB03KT 9000 NSC 04/00 Q1030 NOSIG=
201201141120 METAR COR EGLL 141120Z 08003KT 8000 NSC 03/00 Q1030 NOSIG=
201201141050 METAR COR EGLL 141050Z 00000KT 7000 VCFG NSC 03/00 Q1031
                        NOSIG=
201201141020 METAR COR EGLL 141020Z 10002KT 7000 VCFG NSC 01/M01 Q1031
                        NOSIG=
201201140950 METAR COR EGLL 140950Z 00000KT 8000 VCFG NSC 00/M01 Q1031
                        NOSIG=
201201140920 METAR COR EGLL 140920Z 00000KT 8000 3900S VCFG NSC M01/M02
                        Q1031 NOSIG=
201201140850 METAR COR EGLL 140850Z 11002KT 8000 3500S VCFG NSC M02/M03
                        Q1031 NOSIG=
201201140820 METAR COR EGLL 140820Z 00000KT 7000 VCFG NSC M02/M03 Q1031
                        NOSIG=
201201140750 METAR COR EGLL 140750Z 36003KT 7000 VCFG NSC M02/M03 Q1031
                        TEMPO 0600=
201201140720 METAR COR EGLL 140720Z 36003KT 7000 NSC M02/M03 Q1031 TEMPO
                        4000 BR=
201201140650 METAR COR EGLL 140650Z 00000KT 8000 NSC M02/M03 Q1031 TEMPO
                        4000 BR=
201201140620 METAR COR EGLL 140620Z 00000KT 8000 NSC M02/M03 Q1031 TEMPO
                        4000 BR=
201201140550 METAR COR EGLL 140550Z 00000KT 8000 NSC M02/M03 Q1031 TEMPO
                        4000 BR=
201201140520 METAR COR EGLL 140520Z 04002KT 9000 NSC M02/M03 Q1031 TEMPO
                        4000 BR=
201201140450 METAR COR EGLL 140450Z 00000KT 9000 NSC M02/M03 Q1031 TEMPO
                        4000 BR=
201201140420 METAR COR EGLL 140420Z 00000KT 9000 NSC M02/M03 Q1032 TEMPO
                        4000 BR=
201201140350 METAR COR EGLL 140350Z 35002KT 9000 NSC M02/M03 Q1032 TEMPO
                        4000 BR=
201201140320 METAR COR EGLL 140320Z 01002KT 9000 NSC M02/M03 Q1032 TEMPO
                        4000 BR=
201201140250 METAR COR EGLL 140250Z 28003KT 8000 NSC M02/M03 Q1032 BECMG
                        4000 BR=
201201140220 METAR EGLL 140220Z AUTO 35002KT 7000 NCD M01/M02 Q1033=
201201140150 METAR EGLL 140150Z AUTO 00000KT 9000 NCD M01/M02 Q1033=
201201140120 METAR EGLL 140120Z AUTO 00000KT 9000 NCD M00/M01 Q1033=
201201140050 METAR COR EGLL 140050Z VRB02KT 9000 NSC M00/M02 Q1033 BECMG
                        4500 BR=
201201140020 METAR COR EGLL 140020Z 35003KT 9000 NSC M01/M02 Q1033 BECMG
                        4500 BR=
201201132350 METAR COR EGLL 132350Z 01004KT 350V070 9000 NSC M01/M02 Q1033
                        BECMG 4500 BR=
201201132320 METAR COR EGLL 132320Z 35004KT CAVOK 01/M01 Q1033 NOSIG=
201201132250 METAR COR EGLL 132250Z 34003KT CAVOK 03/M00 Q1033 NOSIG=
201201132220 METAR COR EGLL 132220Z 35002KT CAVOK 03/M00 Q1034 NOSIG=
201201132150 METAR COR EGLL 132150Z 00000KT CAVOK 03/M00 Q1034 NOSIG=
201201132120 METAR COR EGLL 132120Z 36002KT CAVOK 03/M00 Q1034 NOSIG=
201201132050 METAR COR EGLL 132050Z 06003KT CAVOK 02/M00 Q1034 NOSIG=
201201132020 METAR COR EGLL 132020Z 06003KT CAVOK 03/M00 Q1034 NOSIG=
201201131950 METAR COR EGLL 131950Z 01002KT CAVOK 03/M00 Q1033 NOSIG=
201201131920 METAR COR EGLL 131920Z 36002KT CAVOK 03/M00 Q1033 NOSIG=
201201131850 METAR COR EGLL 131850Z 36003KT CAVOK 04/M00 Q1033 NOSIG=
201201131820 METAR COR EGLL 131820Z 36002KT CAVOK 04/M00 Q1033 NOSIG=
201201131750 METAR COR EGLL 131750Z VRB02KT CAVOK 04/M01 Q1033 NOSIG=
201201131720 METAR COR EGLL 131720Z VRB02KT CAVOK 04/M00 Q1033 NOSIG=
201201131650 METAR COR EGLL 131650Z VRB02KT 9999 FEW020 04/M00 Q1033 NOSIG=
201201131620 METAR COR EGLL 131620Z 03005KT 9999 FEW024 05/M00 Q1033 NOSIG=
201201131550 METAR COR EGLL 131550Z 03004KT 340V050 9999 FEW028 06/M00
                        Q1033 NOSIG=
201201131520 METAR COR EGLL 131520Z VRB03KT 9999 FEW028 06/00 Q1033 NOSIG=
201201131450 METAR COR EGLL 131450Z 03005KT 340V070 9999 FEW029 06/00
                        Q1033 NOSIG=
201201131420 METAR COR EGLL 131420Z 01005KT 330V070 9999 FEW028 07/00
                        Q1033 NOSIG=
201201131350 METAR COR EGLL 131350Z 02004KT 330V050 9999 FEW020 06/00
                        Q1033 NOSIG=
201201131320 METAR COR EGLL 131320Z 02004KT 330V080 9999 FEW020 07/01
                        Q1033 NOSIG=
201201131250 METAR COR EGLL 131250Z 03004KT 350V070 9999 FEW016 06/01
                        Q1033 NOSIG=
201201131220 METAR COR EGLL 131220Z 03005KT 330V080 9999 FEW016 06/02
                        Q1033 NOSIG=
201201131150 METAR COR EGLL 131150Z 01005KT 330V060 9999 FEW016 06/02
                        Q1034 NOSIG=
201201131120 METAR COR EGLL 131120Z 02005KT 330V060 9999 FEW016 06/02
                        Q1034 NOSIG=
201201131050 METAR COR EGLL 131050Z 01004KT 330V060 9999 FEW012 05/02
                        Q1034 NOSIG=
201201131020 METAR COR EGLL 131020Z 36005KT 330V050 CAVOK 05/03 Q1033
                        NOSIG=
201201130950 METAR COR EGLL 130950Z VRB03KT 7000 NSC 04/02 Q1033 NOSIG=
201201130920 METAR COR EGLL 130920Z 31004KT 7000 NSC 04/02 Q1033 NOSIG=
201201130850 METAR COR EGLL 130850Z 33002KT 8000 NSC 03/02 Q1033 NOSIG=
201201130820 METAR COR EGLL 130820Z 30003KT CAVOK 03/01 Q1033 NOSIG=
201201130750 METAR COR EGLL 130750Z 29003KT 9000 NSC 03/01 Q1032 NOSIG=
201201130720 METAR COR EGLL 130720Z 27005KT 9000 NSC 02/00 Q1032 NOSIG=
201201130650 METAR COR EGLL 130650Z VRB03KT CAVOK 03/01 Q1032 NOSIG=
201201130620 METAR COR EGLL 130620Z 30002KT CAVOK 03/01 Q1032 NOSIG=
201201130550 METAR COR EGLL 130550Z 32003KT CAVOK 02/01 Q1032 NOSIG=
201201130520 METAR COR EGLL 130520Z 29003KT CAVOK 01/00 Q1032 NOSIG=
201201130450 METAR COR EGLL 130450Z 28003KT CAVOK 01/00 Q1032 NOSIG=
201201130420 METAR COR EGLL 130420Z 29003KT CAVOK 01/M00 Q1032 NOSIG=
201201130350 METAR COR EGLL 130350Z 27006KT CAVOK 01/M00 Q1032 NOSIG=
201201130320 METAR COR EGLL 130320Z 26003KT CAVOK 03/01 Q1032 NOSIG=
201201130250 METAR COR EGLL 130250Z 29004KT 9999 FEW049 02/00 Q1032 NOSIG=
201201130220 METAR EGLL 130220Z AUTO 29006KT 9999 NCD 01/M00 Q1032=
201201130150 METAR EGLL 130150Z AUTO 28005KT 9999 NCD 02/M01 Q1031=
201201130120 METAR EGLL 130120Z AUTO 27004KT 9999 NCD 03/01 Q1031=
201201130050 METAR EGLL 130050Z 25003KT CAVOK 04/01 Q1031=
201201130020 METAR COR EGLL 130020Z VRB02KT CAVOK 04/01 Q1031 NOSIG=
201201122350 METAR COR EGLL 122350Z VRB03KT CAVOK 05/01 Q1031 NOSIG=
201201122320 METAR COR EGLL 122320Z 28004KT CAVOK 05/01 Q1031 NOSIG=
201201122250 METAR COR EGLL 122250Z 31002KT CAVOK 06/02 Q1031 NOSIG=
201201122220 METAR COR EGLL 122220Z 28005KT CAVOK 07/02 Q1031 NOSIG=
201201122150 METAR COR EGLL 122150Z 28004KT 250V320 CAVOK 07/02 Q1030
                        NOSIG=
201201122120 METAR COR EGLL 122120Z VRB03KT CAVOK 07/02 Q1030 NOSIG=
201201122050 METAR COR EGLL 122050Z 31005KT CAVOK 07/02 Q1030 NOSIG=
201201122020 METAR COR EGLL 122020Z 31004KT 250V360 CAVOK 07/02 Q1030
                        NOSIG=
201201121950 METAR COR EGLL 121950Z 32005KT 280V360 CAVOK 07/02 Q1030
                        NOSIG=
201201121920 METAR COR EGLL 121920Z 33007KT 300V360 CAVOK 08/02 Q1029
                        NOSIG=
201201121850 METAR COR EGLL 121850Z 33005KT 300V360 CAVOK 08/03 Q1029
                        NOSIG=
201201121820 METAR COR EGLL 121820Z 32005KT 280V360 CAVOK 08/03 Q1029
                        NOSIG=
201201121750 METAR COR EGLL 121750Z 33006KT CAVOK 09/03 Q1028 NOSIG=
201201121720 METAR COR EGLL 121720Z 33006KT CAVOK 09/03 Q1028 NOSIG=
201201121650 METAR COR EGLL 121650Z 33007KT CAVOK 10/03 Q1028 NOSIG=
201201121620 METAR COR EGLL 121620Z 33007KT CAVOK 10/03 Q1027 NOSIG=
201201121550 METAR COR EGLL 121550Z 31006KT 9999 FEW037 11/04 Q1027 NOSIG=
201201121520 METAR COR EGLL 121520Z 32009KT 290V360 9999 FEW037 11/04
                        Q1027 NOSIG=
201201121450 METAR COR EGLL 121450Z 33009KT 290V030 9999 SCT046 11/05
                        Q1026 NOSIG=
201201121420 METAR COR EGLL 121420Z 33010KT 270V350 9999 BKN027 11/06
                        Q1026 NOSIG=
201201121350 METAR COR EGLL 121350Z 33009KT 300V360 9999 FEW016 BKN024
                        13/08 Q1025 NOSIG=
201201121320 METAR COR EGLL 121320Z 29014KT 9999 BKN029 12/08 Q1025 NOSIG=
201201121250 METAR COR EGLL 121250Z 27018KT 9999 BKN021 13/08 Q1025 TEMPO
                        RA BKN014=
201201121220 METAR COR EGLL 121220Z 27017KT 9999 SCT019 SCT024 12/08 Q1025
                        NOSIG=
201201121150 METAR COR EGLL 121150Z 27016KT 9999 SCT017 BKN024 12/08 Q1026
                        NOSIG=
201201121120 METAR COR EGLL 121120Z 26013KT 9999 SCT018 BKN022 11/08 Q1026
                        TEMPO BKN014=
201201121050 METAR COR EGLL 121050Z 26015KT 9999 FEW011 BKN047 11/08 Q1026
                        TEMPO BKN014=
201201121020 METAR COR EGLL 121020Z 25014KT 9999 SCT012 BKN015 10/07 Q1026
                        TEMPO BKN010=
201201120950 METAR COR EGLL 120950Z 26014KT 9999 SCT009 BKN015 10/07 Q1026
                        TEMPO BKN008=
201201120920 METAR COR EGLL 120920Z 26013KT 9999 BKN010 BKN036 09/07 Q1026
                        TEMPO BKN008=
201201120850 METAR COR EGLL 120850Z 25015KT 9999 SCT011 SCT024 09/07 Q1026
                        TEMPO BKN009=
201201120820 METAR COR EGLL 120820Z 25012KT 9999 BKN011 09/06 Q1026 NOSIG=
201201120750 METAR COR EGLL 120750Z 25015KT 9999 BKN013 09/06 Q1025 TEMPO
                        SCT014 BKN020=
201201120720 METAR COR EGLL 120720Z 25015KT 9999 BKN013 09/06 Q1025 TEMPO
                        SCT014 BKN020=
201201120650 METAR COR EGLL 120650Z 24012KT 9999 BKN014 09/06 Q1026 TEMPO
                        SCT014 BKN020=
201201120620 METAR COR EGLL 120620Z 24011KT 9999 BKN013 09/06 Q1026 NOSIG=
201201120550 METAR COR EGLL 120550Z 25012KT 9999 BKN013 08/06 Q1027 NOSIG=
201201120520 METAR COR EGLL 120520Z 25013KT 9999 BKN013 08/06 Q1027 NOSIG=
201201120450 METAR COR EGLL 120450Z 25012KT 9999 BKN013 08/06 Q1027 NOSIG=
201201120420 METAR COR EGLL 120420Z 25012KT 9999 BKN013 08/06 Q1027 TEMPO
                        SCT013 BKN018=
201201120350 METAR COR EGLL 120350Z 25009KT 9999 SCT017 08/05 Q1028 NOSIG=
201201120320 METAR COR EGLL 120320Z 24010KT 9999 SCT018 08/05 Q1028 NOSIG=
201201120250 METAR COR EGLL 120250Z 24013KT 9999 BKN018 08/05 Q1028 NOSIG=
201201120220 METAR EGLL 120220Z AUTO 23010KT 9999 BKN019/// 07/05 Q1029=
201201120150 METAR EGLL 120150Z AUTO 23011KT 9999 BKN017/// 07/05 Q1029=
201201120120 METAR EGLL 120120Z AUTO 23011KT 9999 NCD 07/05 Q1029=
201201120050 METAR COR EGLL 120050Z 23011KT 9999 FEW027 07/05 Q1030 TEMPO
                        BKN014=
201201120020 METAR COR EGLL 120020Z 23010KT 9999 FEW027 07/05 Q1030 TEMPO
                        BKN014=
201201112350 METAR COR EGLL 112350Z 23011KT CAVOK 08/05 Q1030 TEMPO BKN014=
201201112320 METAR COR EGLL 112320Z 22008KT CAVOK 08/06 Q1031 TEMPO BKN012=
201201112250 METAR COR EGLL 112250Z 22008KT 9999 FEW017 08/06 Q1031 TEMPO
                        BKN014=
201201112220 METAR COR EGLL 112220Z 24011KT 9999 SCT017 09/06 Q1031 TEMPO
                        BKN014=
201201112150 METAR COR EGLL 112150Z 25011KT 9999 BKN017 09/06 Q1031 TEMPO
                        BKN014=
201201112120 METAR COR EGLL 112120Z 25011KT 9999 BKN018 10/06 Q1032 TEMPO
                        BKN014=
201201112050 METAR COR EGLL 112050Z 25012KT 9999 BKN017 10/06 Q1032 TEMPO
                        BKN0141=
201201112020 METAR COR EGLL 112020Z 25010KT 9999 BKN014 10/07 Q1032 TEMPO
                        SCT014 BKN018=
201201111950 METAR COR EGLL 111950Z 26010KT 9999 BKN013 BKN017 10/07 Q1032
                        TEMPO SCT013=
201201111920 METAR COR EGLL 111920Z 25009KT 9999 BKN013 SCT018 10/07 Q1032
                        TEMPO SCT014=
201201111850 METAR COR EGLL 111850Z 25009KT 9999 BKN013 10/08 Q1032 BECMG
                        SCT018=
201201111820 METAR COR EGLL 111820Z 25009KT 9999 BKN014 10/08 Q1032 BECMG
                        SCT018=
201201111750 METAR COR EGLL 111750Z 25009KT 9999 BKN015 11/08 Q1033 TEMPO
                        BKN012=
201201111720 METAR COR EGLL 111720Z 25008KT 9999 BKN014 11/08 Q1033 BECMG
                        SCT018=
201201111650 METAR COR EGLL 111650Z 27008KT 9999 BKN015 10/08 Q1033 TEMPO
                        BKN012=
201201111620 METAR COR EGLL 111620Z 26007KT 9999 BKN012 10/08 Q1032 NOSIG=
201201111550 METAR COR EGLL 111550Z 26009KT 9999 BKN013 10/08 Q1032 NOSIG=
201201111520 METAR COR EGLL 111520Z 25009KT 9999 OVC011 10/08 Q1032 NOSIG=
201201111450 METAR COR EGLL 111450Z 27011KT 9999 OVC010 10/08 Q1032 NOSIG=
201201111420 METAR COR EGLL 111420Z 27010KT 9999 OVC010 10/08 Q1033 NOSIG=
201201111350 METAR COR EGLL 111350Z 27011KT 9999 OVC011 10/08 Q1033 NOSIG=
201201111320 METAR COR EGLL 111320Z 26011KT 9999 BKN013 11/08 Q1033 NOSIG=
201201111250 METAR COR EGLL 111250Z 24011KT 9999 BKN014 11/07 Q1033 TEMPO
                        SCT015=
201201111220 METAR COR EGLL 111220Z 26010KT 9999 BKN014 10/07 Q1033 TEMPO
                        SCT015=
201201111150 METAR COR EGLL 111150Z 26010KT 9999 FEW013 11/07 Q1033 NOSIG=
201201111120 METAR COR EGLL 111120Z 27012KT 9999 FEW015 10/06 Q1034 NOSIG=
201201111050 METAR COR EGLL 111050Z 26013KT 9999 FEW015 10/06 Q1034 NOSIG=
201201111020 METAR COR EGLL 111020Z 23009KT 200V270 CAVOK 09/06 Q1034
                        NOSIG=
201201110950 METAR COR EGLL 110950Z 24009KT 200V260 CAVOK 08/05 Q1034
                        NOSIG=
201201110920 METAR COR EGLL 110920Z 24009KT 9999 SCT014 08/05 Q1034 NOSIG=
201201110850 METAR COR EGLL 110850Z 24009KT 9999 SCT015 08/05 Q1033 NOSIG=
201201110820 METAR COR EGLL 110820Z 25009KT CAVOK 08/05 Q1033 NOSIG=
201201110750 METAR COR EGLL 110750Z 25011KT CAVOK 08/05 Q1033 NOSIG=
201201110720 METAR COR EGLL 110720Z 26009KT CAVOK 08/05 Q1033 NOSIG=
201201110650 METAR COR EGLL 110650Z 26009KT CAVOK 08/05 Q1033 NOSIG=
201201110620 METAR COR EGLL 110620Z 26009KT CAVOK 08/04 Q1033 NOSIG=
201201110550 METAR COR EGLL 110550Z 25008KT CAVOK 07/04 Q1033 NOSIG=
201201110520 METAR EGLL 110520Z 23008KT CAVOK 07/04 Q1033 NOSIG=
201201110450 METAR COR EGLL 110450Z 22005KT CAVOK 07/04 Q1033 NOSIG=
201201110420 METAR COR EGLL 110420Z 24008KT CAVOK 07/04 Q1033 NOSIG=
201201110350 METAR COR EGLL 110350Z 23009KT 9999 FEW038 07/04 Q1033 NOSIG=
201201110320 METAR COR EGLL 110320Z 23009KT 9999 FEW035 08/05 Q1033 NOSIG=
201201110250 METAR COR EGLL 110250Z 25008KT 9999 FEW049 08/05 Q1033 NOSIG=
201201110220 METAR EGLL 110220Z AUTO 23009KT 9999 NCD 08/05 Q1033=
201201110150 METAR EGLL 110150Z AUTO 23009KT 9999 NCD 08/05 Q1033=
201201110120 METAR EGLL 110120Z AUTO 24009KT 9999 FEW028/// 08/05 Q1033=
201201110050 METAR COR EGLL 110050Z 24007KT 9999 SCT027 08/06 Q1033 NOSIG=
201201110020 METAR COR EGLL 110020Z 23007KT 9999 SCT027 08/06 Q1033 NOSIG=
201201102350 METAR COR EGLL 102350Z 23008KT 9999 SCT031 09/06 Q1033 NOSIG=
201201102320 METAR COR EGLL 102320Z 24009KT 9999 SCT035 09/06 Q1033 NOSIG=
201201102250 METAR COR EGLL 102250Z 25011KT 9999 BKN037 10/06 Q1034 NOSIG=
201201102220 METAR COR EGLL 102220Z 25010KT 9999 BKN038 10/06 Q1034 NOSIG=
201201102150 METAR COR EGLL 102150Z 26010KT 9999 BKN040 10/06 Q1034 NOSIG=
201201102120 METAR COR EGLL 102120Z 27009KT 9999 BKN040 10/06 Q1033 NOSIG=
201201102050 METAR COR EGLL 102050Z 26010KT 9999 BKN042 10/07 Q1033 NOSIG=
201201102020 METAR COR EGLL 102020Z 25009KT 9999 FEW020 BKN043 10/07 Q1033
                        NOSIG=
201201101950 METAR COR EGLL 101950Z 26009KT 9999 FEW020 BKN042 10/07 Q1033
                        NOSIG=
201201101920 METAR COR EGLL 101920Z 26011KT 9999 FEW020 BKN042 10/07 Q1033
                        NOSIG=
201201101850 METAR COR EGLL 101850Z 26010KT 9999 BKN043 10/07 Q1033 NOSIG=
201201101820 METAR COR EGLL 101820Z 26009KT 9999 BKN042 10/07 Q1033 NOSIG=
201201101750 METAR COR EGLL 101750Z 26009KT 9999 BKN041 11/07 Q1033 NOSIG=
201201101720 METAR COR EGLL 101720Z 26008KT 9999 FEW019 BKN042 11/07 Q1033
                        NOSIG=
201201101650 METAR COR EGLL 101650Z 25009KT 9999 FEW019 BKN042 11/07 Q1033
                        NOSIG=
201201101620 METAR COR EGLL 101620Z 24009KT 9999 BKN042 11/08 Q1032 NOSIG=
201201101550 METAR COR EGLL 101550Z 24011KT 9999 FEW016 BKN040 11/08 Q1032
                        NOSIG=
201201101520 METAR COR EGLL 101520Z 25011KT 9999 FEW016 BKN038 11/08 Q1033
                        NOSIG=
201201101450 METAR COR EGLL 101450Z 26012KT 9999 FEW017 BKN042 11/08 Q1033
                        NOSIG=
201201101420 METAR COR EGLL 101420Z 27013KT 9999 FEW016 BKN033 11/08 Q1033
                        NOSIG=
201201101350 METAR COR EGLL 101350Z 25013KT 9999 FEW017 BKN034 11/08 Q1033
                        NOSIG=
201201101320 METAR COR EGLL 101320Z 27012KT 9999 FEW016 SCT019 BKN033
                        11/08 Q1033 NOSIG=
201201101250 METAR COR EGLL 101250Z 26012KT 9999 SCT012 SCT022 11/08 Q1033
                        NOSIG=
201201101220 METAR COR EGLL 101220Z 26012KT 9999 BKN013 11/08 Q1033 BECMG
                        SCT013=
201201101150 METAR COR EGLL 101150Z 25012KT 9999 SCT013 SCT019 11/08 Q1033
                        NOSIG=
201201101120 METAR COR EGLL 101120Z 26014KT 9999 FEW024 SCT029 11/08 Q1033
                        NOSIG=
201201101050 METAR COR EGLL 101050Z 26012KT 9999 BKN030 10/08 Q1034 NOSIG=
201201101020 METAR COR EGLL 101020Z 25011KT 9999 FEW008 BKN026 10/08 Q1034
                        NOSIG=
201201100950 METAR COR EGLL 100950Z 24011KT 9999 SCT013 BKN023 10/08 Q1034
                        NOSIG=
201201100920 METAR COR EGLL 100920Z 25010KT 9999 SCT018 BKN026 10/08 Q1033
                        NOSIG=
201201100850 METAR COR EGLL 100850Z 24010KT 200V270 9999 BKN027 10/08
                        Q1033 NOSIG=
201201100820 METAR COR EGLL 100820Z 24008KT 9999 BKN025 09/07 Q1033 NOSIG=
201201100750 METAR COR EGLL 100750Z 24007KT 9999 BKN028 09/07 Q1033 NOSIG=
201201100720 METAR COR EGLL 100720Z 24008KT 9999 BKN024 BKN033 09/08 Q1033
                        NOSIG=
201201100650 METAR COR EGLL 100650Z 25008KT 9999 BKN023 09/08 Q1033 NOSIG=
201201100620 METAR COR EGLL 100620Z 24007KT 9999 FEW010 SCT018 09/08 Q1033
                        NOSIG=
201201100550 METAR COR EGLL 100550Z 23009KT 9999 SCT008 BKN016 09/08 Q1033
                        TEMPO 5000 -DZ BKN010=
201201100520 METAR COR EGLL 100520Z 23007KT 9999 FEW010 SCT018 09/08 Q1033
                        NOSIG=
201201100450 METAR COR EGLL 100450Z 23008KT 9999 FEW009 SCT033 09/08 Q1033
                        TEMPO BKN010=
201201100420 METAR COR EGLL 100420Z 25007KT 9999 SCT009 BKN033 09/08 Q1033
                        TEMPO BKN012=
201201100350 METAR COR EGLL 100350Z 23007KT 9999 SCT009 BKN016 09/08 Q1033
                        TEMPO 4500 -DZ BKN012=
201201100320 METAR COR EGLL 100320Z 21004KT 6000 SCT009 BKN016 09/08 Q1033
                        TEMPO 4500 -DZ BKN012=
201201100250 METAR COR EGLL 100250Z 22004KT 6000 SCT008 BKN013 09/08 Q1033
                        TEMPO 9999 SCT012 BKN018=
201201100220 METAR EGLL 100220Z AUTO 22006KT 6000 DZ BKN021/// 09/08 Q1033=
201201100150 METAR EGLL 100150Z AUTO 27003KT 9999 FEW019/// SCT023///
                        BKN045/// 09/08 Q1033=
201201100120 METAR EGLL 100120Z AUTO 28005KT 9999 FEW020/// BKN042///
                        09/07 Q1033=
201201100050 METAR COR EGLL 100050Z 28005KT 9999 FEW028 BKN041 09/08 Q1033
                        TEMPO BKN014=
201201100020 METAR COR EGLL 100020Z 26007KT 9999 FEW013 BKN042 10/07 Q1033
                        NOSIG=
201201092350 METAR COR EGLL 092350Z 26007KT 9999 FEW013 BKN038 10/08 Q1033
                        TEMPO BKN012=
201201092320 METAR COR EGLL 092320Z 27008KT 9999 FEW011 BKN030 10/08 Q1033
                        TEMPO BKN012=
201201092250 METAR COR EGLL 092250Z 26008KT 9999 SCT011 BKN030 10/08 Q1033
                        TEMPO BKN010=
201201092220 METAR COR EGLL 092220Z 28005KT 9999 FEW012 BKN039 10/08 Q1033
                        TEMPO BKN012=
201201092150 METAR COR EGLL 092150Z 28005KT 9999 FEW014 BKN040 10/08 Q1033
                        NOSIG=
201201092120 METAR COR EGLL 092120Z 28007KT 9999 BKN029 10/08 Q1032 NOSIG=
201201092050 METAR COR EGLL 092050Z 27008KT 9999 BKN036 10/08 Q1032 NOSIG=
201201092020 METAR COR EGLL 092020Z 26007KT 9999 BKN042 10/08 Q1032 NOSIG=
201201091950 METAR COR EGLL 091950Z 27007KT 9999 BKN041 10/08 Q1032 NOSIG=
201201091920 METAR COR EGLL 091920Z 27008KT 9999 BKN039 BKN046 10/08 Q1032
                        NOSIG=
201201091850 METAR COR EGLL 091850Z 27011KT 9999 FEW014 BKN044 11/08 Q1031
                        NOSIG=
201201091820 METAR COR EGLL 091820Z 27009KT 9999 SCT025 BKN043 11/08 Q1031
                        NOSIG=
201201091750 METAR COR EGLL 091750Z 26008KT 9999 FEW024 BKN029 11/08 Q1031
                        NOSIG=
201201091720 METAR COR EGLL 091720Z 27007KT 230V290 9999 FEW018 BKN025
                        11/08 Q1031 NOSIG=
201201091650 METAR COR EGLL 091650Z 26009KT 9999 BKN029 11/08 Q1030 NOSIG=
201201091620 METAR COR EGLL 091620Z 27010KT 9999 BKN027 11/08 Q1030 NOSIG=
201201091550 METAR COR EGLL 091550Z 26011KT 9999 FEW023 OVC027 11/07 Q1030
                        NOSIG=
201201091520 METAR COR EGLL 091520Z 27010KT 9999 BKN030 12/07 Q1029 NOSIG=
201201091450 METAR COR EGLL 091450Z 27011KT 9999 BKN022 BKN025 12/07 Q1029
                        NOSIG=
201201091420 METAR COR EGLL 091420Z 27014KT 9999 BKN023 BKN028 12/07 Q1029
                        NOSIG=
201201091350 METAR COR EGLL 091350Z 27018KT 9999 BKN028 12/07 Q1029 NOSIG=
201201091320 METAR COR EGLL 091320Z 27015KT 9999 FEW024 BKN036 12/07 Q1029
                        NOSIG=
201201091250 METAR COR EGLL 091250Z 27014KT 9999 SCT026 12/07 Q1029 NOSIG=
201201091220 METAR COR EGLL 091220Z 27015KT 9999 FEW020 SCT025 12/07 Q1029
                        NOSIG=
201201091150 METAR COR EGLL 091150Z 27013KT 9999 FEW020 BKN045 12/07 Q1029
                        NOSIG=
201201091120 METAR COR EGLL 091120Z 25015KT 9999 FEW019 BKN045 12/07 Q1029
                        NOSIG=
201201091050 METAR COR EGLL 091050Z 26015KT 9999 BKN043 11/07 Q1029 NOSIG=
201201091020 METAR COR EGLL 091020Z 26013KT 9999 BKN048 11/07 Q1029 NOSIG=
201201090950 METAR COR EGLL 090950Z 26012KT 9999 SCT048 11/07 Q1029 NOSIG=
201201090920 METAR COR EGLL 090920Z 26012KT 9999 SCT048 11/07 Q1029 NOSIG=
201201090850 METAR COR EGLL 090850Z 26010KT 9999 SCT049 11/07 Q1029 NOSIG=
201201090820 METAR COR EGLL 090820Z 24011KT CAVOK 10/07 Q1028 NOSIG=
201201090750 METAR COR EGLL 090750Z 25012KT CAVOK 10/07 Q1028 NOSIG=
201201090720 METAR COR EGLL 090720Z 25011KT CAVOK 10/07 Q1028 NOSIG=
201201090650 METAR COR EGLL 090650Z 25009KT CAVOK 09/06 Q1028 NOSIG=
201201090620 METAR COR EGLL 090620Z 23007KT 200V260 CAVOK 09/06 Q1028
                        NOSIG=
201201090550 METAR COR EGLL 090550Z 25006KT CAVOK 10/06 Q1027 NOSIG=
201201090520 METAR COR EGLL 090520Z 25007KT CAVOK 09/06 Q1028 NOSIG=
201201090450 METAR EGLL 090450Z 24006KT CAVOK 09/06 Q1028=
201201090420 METAR COR EGLL 090420Z 22005KT CAVOK 09/06 Q1028 NOSIG=
201201090350 METAR COR EGLL 090350Z 23006KT CAVOK 09/06 Q1028 NOSIG=
201201090320 METAR COR EGLL 090320Z 24004KT CAVOK 09/07 Q1028 NOSIG=
201201090250 METAR COR EGLL 090250Z 24005KT 9999 BKN049 09/07 Q1028 NOSIG=
201201090220 METAR EGLL 090220Z AUTO 27006KT 6000 OVC040/// 08/07 Q1029=
201201090150 METAR EGLL 090150Z AUTO 28006KT 2200 HZ SCT045/// 06/05 Q1029=
201201090120 METAR EGLL 090120Z AUTO 27007KT 4500 HZ NCD 08/07 Q1028=
201201090050 METAR COR EGLL 090050Z 27007KT 6000 SCT008 08/07 Q1028 NOSIG=
201201090020 METAR COR EGLL 090020Z 24007KT 6000 BKN008 08/07 Q1028 TEMPO
                        SCT008=
201201082350 METAR COR EGLL 082350Z 23006KT 6000 BKN007 08/07 Q1028 NOSIG=
201201082320 METAR COR EGLL 082320Z 26008KT 6000 BKN007 07/06 Q1028 NOSIG=
201201082250 METAR COR EGLL 082250Z 26010KT 8000 NSC 08/06 Q1028 NOSIG=
201201082220 METAR COR EGLL 082220Z 26010KT CAVOK 09/07 Q1028 NOSIG=
201201082150 METAR COR EGLL 082150Z 27012KT CAVOK 09/07 Q1028 NOSIG=
201201082120 METAR COR EGLL 082120Z 27011KT CAVOK 09/07 Q1028 NOSIG=
201201082050 METAR COR EGLL 082050Z 27009KT CAVOK 09/07 Q1028 NOSIG=
201201082020 METAR COR EGLL 082020Z 27011KT CAVOK 09/07 Q1028 NOSIG=
201201081950 METAR COR EGLL 081950Z 27009KT CAVOK 10/07 Q1028 NOSIG=
201201081920 METAR COR EGLL 081920Z 25008KT CAVOK 09/06 Q1028 NOSIG=
201201081850 METAR COR EGLL 081850Z 25008KT CAVOK 09/06 Q1028 NOSIG=
201201081820 METAR COR EGLL 081820Z 24007KT 210V270 CAVOK 09/06 Q1028
                        NOSIG=
201201081750 METAR COR EGLL 081750Z 22007KT 180V260 CAVOK 09/06 Q1028
                        NOSIG=
201201081720 METAR COR EGLL 081720Z 25009KT 9999 -RA SCT023 SCT048 10/06
                        Q1028 NOSIG=
201201081650 METAR COR EGLL 081650Z 26009KT 9999 BKN023 10/05 Q1028 NOSIG=
201201081620 METAR COR EGLL 081620Z 27010KT 9999 BKN021 10/05 Q1028 NOSIG=
201201081550 METAR COR EGLL 081550Z 27008KT 9999 BKN024 09/05 Q1028 NOSIG=
201201081520 METAR COR EGLL 081520Z 27009KT 9999 BKN024 10/05 Q1027 NOSIG=
201201081450 METAR EGLL 081450Z 28007KT 9999 SCT027 SCT030 10/05 Q1027=
201201081420 METAR COR EGLL 081420Z 29007KT 9999 BKN030 10/04 Q1027 NOSIG=
201201081350 METAR COR EGLL 081350Z 29007KT 9999 BKN035 10/04 Q1027 NOSIG=
201201081320 METAR COR EGLL 081320Z 29008KT 9999 BKN034 09/04 Q1027 NOSIG=
201201081250 METAR COR EGLL 081250Z 27008KT 9999 BKN032 09/04 Q1027 NOSIG=
201201081220 METAR COR EGLL 081220Z 27008KT 9999 BKN032 09/03 Q1027 NOSIG=
201201081150 METAR COR EGLL 081150Z 29008KT 9999 BKN033 09/03 Q1027 NOSIG=
201201081120 METAR COR EGLL 081120Z 30006KT 9999 BKN034 10/03 Q1027 NOSIG=
201201081050 METAR COR EGLL 081050Z 29007KT 9999 BKN034 09/03 Q1027 NOSIG=
201201081020 METAR COR EGLL 081020Z 30007KT 9999 BKN033 09/03 Q1027 NOSIG=
201201080950 METAR COR EGLL 080950Z 29007KT 9999 BKN032 09/03 Q1027 NOSIG=
201201080920 METAR COR EGLL 080920Z 29007KT 9999 BKN030 08/03 Q1027 NOSIG=
201201080850 METAR COR EGLL 080850Z 30005KT 9999 BKN030 09/03 Q1027 NOSIG=
201201080820 METAR COR EGLL 080820Z 30005KT 9999 BKN030 09/03 Q1026 NOSIG=
201201080750 METAR COR EGLL 080750Z 29006KT 9999 BKN030 08/03 Q1026 NOSIG=
201201080720 METAR COR EGLL 080720Z 28007KT 9999 BKN030 08/03 Q1025 NOSIG=
201201080650 METAR COR EGLL 080650Z 28007KT 9999 BKN030 08/03 Q1025 NOSIG=
201201080620 METAR COR EGLL 080620Z 28007KT 9999 BKN031 08/03 Q1025 NOSIG=
201201080550 METAR COR EGLL 080550Z 29006KT 9999 BKN031 08/03 Q1025 NOSIG=
201201080520 METAR COR EGLL 080520Z 29006KT 9999 BKN034 08/03 Q1025 NOSIG=
201201080450 METAR COR EGLL 080450Z 27006KT 9999 BKN033 08/03 Q1025 NOSIG=
201201080420 METAR COR EGLL 080420Z 28006KT 9999 BKN036 08/03 Q1025 NOSIG=
201201080350 METAR COR EGLL 080350Z 28006KT 9999 OVC034 08/03 Q1024 NOSIG=
201201080320 METAR COR EGLL 080320Z 28006KT 9999 OVC035 08/03 Q1024 NOSIG=
201201080250 METAR COR EGLL 080250Z 27007KT 9999 OVC035 08/03 Q1025 NOSIG=
201201080220 METAR EGLL 080220Z AUTO 29006KT 9999 BKN032/// 08/03 Q1025=
201201080150 METAR EGLL 080150Z AUTO 28007KT 9999 BKN033/// 08/03 Q1024=
201201080120 METAR EGLL 080120Z AUTO 27007KT 9999 OVC033/// 08/03 Q1024=
201201080050 METAR COR EGLL 080050Z 28008KT 9999 OVC035 08/03 Q1024 NOSIG=
201201080020 METAR COR EGLL 080020Z 27007KT 9999 BKN036 08/03 Q1024 NOSIG=
201201072350 METAR COR EGLL 072350Z 27006KT 9999 OVC038 08/03 Q1024 NOSIG=
201201072320 METAR COR EGLL 072320Z 28009KT 9999 BKN039 08/03 Q1024 NOSIG=
201201072250 METAR COR EGLL 072250Z 27011KT 9999 BKN040 08/03 Q1025 NOSIG=
201201072220 METAR COR EGLL 072220Z 28009KT 9999 BKN039 08/03 Q1025 NOSIG=
201201072150 METAR COR EGLL 072150Z 28010KT 9999 BKN039 08/03 Q1024 NOSIG=
201201072120 METAR COR EGLL 072120Z 29010KT 9999 BKN039 08/02 Q1024 NOSIG=
201201072050 METAR COR EGLL 072050Z 29008KT 9999 BKN039 08/02 Q1024 NOSIG=
201201072020 METAR COR EGLL 072020Z 28007KT 9999 SCT040 08/03 Q1024 NOSIG=
201201071950 METAR COR EGLL 071950Z 27011KT 9999 SCT039 07/03 Q1024 NOSIG=
201201071920 METAR COR EGLL 071920Z 27012KT 9999 FEW040 08/03 Q1024 NOSIG=
201201071850 METAR COR EGLL 071850Z 27014KT CAVOK 08/02 Q1024 NOSIG=
201201071820 METAR COR EGLL 071820Z 28010KT 9999 FEW041 08/02 Q1023 NOSIG=
201201071750 METAR COR EGLL 071750Z 27010KT 9999 FEW037 08/02 Q1023 NOSIG=
201201071720 METAR COR EGLL 071720Z 27011KT 9999 FEW040 08/02 Q1024 NOSIG=
201201071650 METAR COR EGLL 071650Z 27011KT 9999 FEW040 08/02 Q1024 NOSIG=
201201071620 METAR COR EGLL 071620Z 26009KT 9999 FEW040 09/02 Q1024 NOSIG=
201201071550 METAR COR EGLL 071550Z 30008KT 260V340 9999 FEW040 09/01
                        Q1023 NOSIG=
201201071520 METAR COR EGLL 071520Z 28009KT 9999 FEW041 09/02 Q1023 NOSIG=
201201071450 METAR EGLL 071450Z 30011KT 9999 SCT040 10/01 Q1023=
201201071420 METAR COR EGLL 071420Z 30010KT 270V340 9999 BKN041 11/02
                        Q1023 NOSIG=
201201071350 METAR COR EGLL 071350Z 29010KT 9999 SCT040 SCT042 10/02 Q1023
                        NOSIG=
201201071320 METAR COR EGLL 071320Z 29012KT 9999 FEW038 SCT046 10/02 Q1023
                        NOSIG=
201201071250 METAR COR EGLL 071250Z 29011KT 9999 FEW044 10/02 Q1022 NOSIG=
201201071220 METAR COR EGLL 071220Z 29012KT 9999 FEW038 10/02 Q1023 NOSIG=
201201071150 METAR COR EGLL 071150Z 29013KT 9999 FEW038 10/02 Q1022 NOSIG=
201201071120 METAR COR EGLL 071120Z 28010KT 9999 FEW046 10/02 Q1023 NOSIG=
201201071050 METAR COR EGLL 071050Z 29013KT 9999 FEW041 BKN047 10/02 Q1023
                        NOSIG=
201201071020 METAR COR EGLL 071020Z 29013KT 9999 BKN047 10/02 Q1023 NOSIG=
201201070950 METAR COR EGLL 070950Z 28010KT 9999 BKN047 09/02 Q1022 NOSIG=
201201070920 METAR COR EGLL 070920Z 28012KT 9999 BKN046 09/02 Q1022 NOSIG=
201201070850 METAR COR EGLL 070850Z 28013KT 9999 BKN046 09/02 Q1021 NOSIG=
201201070820 METAR COR EGLL 070820Z 29012KT 9999 SCT048 09/02 Q1021 NOSIG=
201201070750 METAR COR EGLL 070750Z 29013KT 9999 BKN046 10/03 Q1020 NOSIG=
201201070720 METAR COR EGLL 070720Z 29018KT 9999 SCT036 10/05 Q1020 NOSIG=
201201070650 METAR COR EGLL 070650Z 28012KT 9999 FEW031 SCT038 10/07 Q1019
                        NOSIG=
201201070620 METAR COR EGLL 070620Z 27011KT CAVOK 10/07 Q1019 NOSIG=
201201070550 METAR COR EGLL 070550Z 27011KT CAVOK 09/07 Q1019 NOSIG=
201201070520 METAR COR EGLL 070520Z 27012KT 9999 FEW027 09/07 Q1019 NOSIG=
201201070450 METAR COR EGLL 070450Z 28011KT 9999 SCT017 10/08 Q1019 TEMPO
                        BKN014=
201201070420 METAR COR EGLL 070420Z 27012KT 9999 BKN014 10/08 Q1019 TEMPO
                        BKN009=
201201070350 METAR COR EGLL 070350Z 27015KT 9999 BKN016 10/08 Q1018 TEMPO
                        8000 -RA BKN012=
201201070320 METAR COR EGLL 070320Z 27015KT 9999 SCT015 BKN034 10/08 Q1018
                        BECMG BKN012=
201201070250 METAR COR EGLL 070250Z 27016KT 9999 SCT016 BKN020 10/08 Q1018
                        BECMG BKN012=
201201070220 METAR EGLL 070220Z AUTO 26017KT 9999 BKN013/// 10/08 Q1019=
201201070150 METAR EGLL 070150Z AUTO 26014KT 9999 BKN014/// 10/08 Q1019=
201201070120 METAR EGLL 070120Z AUTO 26014KT 9999 BKN012/// 10/08 Q1019=
201201070050 METAR COR EGLL 070050Z 25014KT 9999 BKN011 10/08 Q1019 TEMPO
                        BKN008=
201201070020 METAR COR EGLL 070020Z 26015KT 9999 BKN011 BKN018 09/07 Q1020
                        TEMPO BKN009=
201201062350 METAR COR EGLL 062350Z 25012KT 9999 BKN011 09/07 Q1020 TEMPO
                        BKN009=
201201062320 METAR COR EGLL 062320Z 24012KT 9999 BKN013 09/07 Q1020 NOSIG=
201201062250 METAR COR EGLL 062250Z 25012KT 9999 BKN014 09/07 Q1021 NOSIG=
201201062220 METAR COR EGLL 062220Z 25014KT 9999 BKN015 09/07 Q1021 BECMG
                        BKN014=
201201062150 METAR COR EGLL 062150Z 26013KT 9999 FEW010 09/07 Q1022 BECMG
                        BKN012=
201201062120 METAR COR EGLL 062120Z 26013KT 9999 BKN012 09/07 Q1022 NOSIG=
201201062050 METAR COR EGLL 062050Z 25014KT 9999 BKN012 09/06 Q1022 NOSIG=
201201062020 METAR COR EGLL 062020Z 24011KT 9999 BKN014 BKN018 09/06 Q1022
                        NOSIG=
201201061950 METAR COR EGLL 061950Z 25011KT 9999 FEW014 SCT040 08/05 Q1023
                        BECMG BKN014=
201201061920 METAR COR EGLL 061920Z 25011KT 9999 BKN015 BKN019 08/05 Q1023
                        BECMG BKN014=
201201061850 METAR COR EGLL 061850Z 25011KT 9999 BKN017 08/05 Q1023 BECMG
                        BKN014=
201201061820 METAR COR EGLL 061820Z 25011KT 9999 FEW020 BKN025 08/05 Q1023
                        BECMG BKN014=
201201061750 METAR COR EGLL 061750Z 25012KT 9999 SCT019 08/04 Q1024 NOSIG=
201201061720 METAR COR EGLL 061720Z 24010KT 9999 SCT041 08/04 Q1024 NOSIG=
201201061650 METAR COR EGLL 061650Z 23009KT 9999 SCT041 08/03 Q1024 NOSIG=
201201061620 METAR EGLL 061620Z AUTO 23008KT 9999 NCD 08/03 Q1025=
201201061550 METAR COR EGLL 061550Z 25009KT 180V270 9999 FEW031 08/03
                        Q1025 NOSIG=
201201061520 METAR COR EGLL 061520Z 25009KT 9999 FEW031 09/03 Q1025 NOSIG=
201201061450 METAR COR EGLL 061450Z 26008KT 9999 FEW031 09/03 Q1025 NOSIG=
201201061420 METAR COR EGLL 061420Z 27009KT 9999 FEW031 08/03 Q1026 NOSIG=
201201061350 METAR COR EGLL 061350Z 28010KT 9999 FEW027 09/03 Q1026 NOSIG=
201201061320 METAR COR EGLL 061320Z 29007KT 9999 FEW024 08/02 Q1026 NOSIG=
201201061250 METAR COR EGLL 061250Z 29006KT 260V330 CAVOK 08/02 Q1026
                        NOSIG=
201201061220 METAR COR EGLL 061220Z 28008KT CAVOK 07/02 Q1027 NOSIG=
201201061150 METAR COR EGLL 061150Z 28010KT CAVOK 07/02 Q1027 NOSIG=
201201061120 METAR COR EGLL 061120Z 28008KT CAVOK 07/02 Q1027 NOSIG=
201201061050 METAR COR EGLL 061050Z 29009KT CAVOK 06/02 Q1027 NOSIG=
201201061020 METAR EGLL 061020Z 27007KT CAVOK 05/02 Q1027=
201201060950 METAR COR EGLL 060950Z 28006KT CAVOK 05/02 Q1026 NOSIG=
201201060920 METAR COR EGLL 060920Z 29006KT CAVOK 04/01 Q1026 NOSIG=
201201060850 METAR COR EGLL 060850Z 28007KT CAVOK 03/01 Q1026 NOSIG=
201201060820 METAR COR EGLL 060820Z 30005KT CAVOK 03/01 Q1026 NOSIG=
201201060750 METAR COR EGLL 060750Z 29003KT CAVOK 03/01 Q1025 NOSIG=
201201060720 METAR COR EGLL 060720Z 29007KT CAVOK 05/01 Q1025 NOSIG=
201201060650 METAR COR EGLL 060650Z 30007KT CAVOK 05/01 Q1025 NOSIG=
201201060620 METAR COR EGLL 060620Z 30005KT CAVOK 05/01 Q1024 NOSIG=
201201060550 METAR COR EGLL 060550Z 30007KT CAVOK 05/01 Q1024 NOSIG=
201201060520 METAR COR EGLL 060520Z 31007KT 280V340 CAVOK 05/01 Q1023
                        NOSIG=
201201060450 METAR COR EGLL 060450Z 32007KT CAVOK 05/02 Q1023 NOSIG=
201201060420 METAR COR EGLL 060420Z 31009KT CAVOK 05/02 Q1022 NOSIG=
201201060350 METAR COR EGLL 060350Z 30007KT CAVOK 05/02 Q1022 NOSIG=
201201060320 METAR COR EGLL 060320Z 31008KT CAVOK 06/02 Q1021 NOSIG=
201201060250 METAR COR EGLL 060250Z 29008KT CAVOK 06/02 Q1021 NOSIG=
201201060220 METAR EGLL 060220Z AUTO 31009KT 9999 NCD 06/02 Q1021=
201201060150 METAR EGLL 060150Z AUTO 31007KT 280V350 9999 NCD 06/02 Q1020=
201201060120 METAR EGLL 060120Z AUTO 30011KT 9999 FEW026/// 06/02 Q1019=
201201060050 METAR COR EGLL 060050Z 31011KT 9999 FEW025 07/02 Q1019 NOSIG=
201201060020 METAR COR EGLL 060020Z 31011KT 280V340 9999 FEW035 07/02
                        Q1018 NOSIG=
201201052350 METAR COR EGLL 052350Z 31012KT 280V350 9999 FEW035 07/02
                        Q1018 NOSIG=
201201052320 METAR COR EGLL 052320Z 31009KT 9999 SCT035 07/02 Q1018 NOSIG=
201201052250 METAR COR EGLL 052250Z 30010KT 9999 FEW035 07/02 Q1017 NOSIG=
201201052220 METAR COR EGLL 052220Z 29010KT CAVOK 07/02 Q1016 NOSIG=
201201052150 METAR COR EGLL 052150Z 30011KT CAVOK 07/02 Q1016 NOSIG=
201201052120 METAR COR EGLL 052120Z 30011KT CAVOK 07/02 Q1015 NOSIG=
201201052050 METAR COR EGLL 052050Z 30013KT CAVOK 07/02 Q1015 NOSIG=
201201052020 METAR COR EGLL 052020Z 30012KT CAVOK 07/02 Q1015 NOSIG=
201201051950 METAR COR EGLL 051950Z 30014KT 260V330 CAVOK 08/02 Q1014
                        NOSIG=
201201051920 METAR COR EGLL 051920Z 30013KT 280V340 CAVOK 08/02 Q1013
                        NOSIG=
201201051850 METAR COR EGLL 051850Z 30010KT CAVOK 08/02 Q1013 NOSIG=
201201051820 METAR COR EGLL 051820Z 31013KT CAVOK 08/02 Q1012 NOSIG=
201201051750 METAR COR EGLL 051750Z 31014KT 9999 FEW040 08/01 Q1012 NOSIG=
201201051720 METAR COR EGLL 051720Z 30015KT 9999 FEW040 08/01 Q1011 NOSIG=
201201051650 METAR COR EGLL 051650Z 30015KT 9999 FEW045 09/01 Q1010 NOSIG=
201201051620 METAR COR EGLL 051620Z 31015KT 9999 FEW040 09/01 Q1009 NOSIG=
201201051550 METAR COR EGLL 051550Z 31015G27KT 9999 FEW042 09/01 Q1008
                        NOSIG=
201201051520 METAR COR EGLL 051520Z 31018KT 9999 FEW040 09/01 Q1007 TEMPO
                        31020G30KT=
201201051450 METAR COR EGLL 051450Z 31019KT 280V340 9999 SCT041 SCT049
                        10/01 Q1006 NOSIG=
201201051420 METAR COR EGLL 051420Z 31016KT 9999 FEW043 SCT049 10/02 Q1005
                        TEMPO 31018G30KT=
201201051350 METAR COR EGLL 051350Z 30020G34KT 9999 FEW038 SCT043 09/03
                        Q1004 NOSIG=
201201051320 METAR COR EGLL 051320Z 30018G35KT 9999 FEW041 BKN046 10/03
                        Q1003 NOSIG=
201201051250 METAR COR EGLL 051250Z 29023G33KT 9999 VCSH BKN046 11/01
                        Q1002 NOSIG=
201201051220 METAR COR EGLL 051220Z 29026G39KT 9999 FEW042 SCT045 11/02
                        Q1002 NOSIG=
201201051150 METAR COR EGLL 051150Z 29022G40KT 9999 FEW042 11/02 Q1001
                        TEMPO 30018G30KT=
201201051120 METAR COR EGLL 051120Z 29019KT 9999 FEW034 10/03 Q1001 TEMPO
                        30020G30KT=
201201051050 METAR COR EGLL 051050Z 29019KT 9999 -SHRA FEW017 09/04 Q1001
                        TEMPO 30020G30KT=
201201051020 METAR COR EGLL 051020Z 29022G33KT 9999 FEW017 10/03 Q1001
                        NOSIG=
201201050950 METAR COR EGLL 050950Z 28018G28KT 9999 FEW037 10/03 Q1000
                        NOSIG=
201201050920 METAR COR EGLL 050920Z 29019G29KT 270V330 9999 FEW046 10/03
                        Q1000 NOSIG=
201201050850 METAR COR EGLL 050850Z 30013G26KT 280V340 9999 FEW044 11/01
                        Q0999 TEMPO 30020G36KT=
201201050820 METAR COR EGLL 050820Z 29023G36KT 270V330 9999 FEW036 SCT043
                        11/05 Q0999 NOSIG=
201201050750 METAR COR EGLL 050750Z 28021G31KT 9999 FEW028 11/07 Q0998
                        NOSIG=
201201050720 METAR COR EGLL 050720Z 28022KT 9999 SCT028 11/07 Q0998 NOSIG=
201201050650 METAR COR EGLL 050650Z 28022KT 9999 SCT026 SCT036 11/07 Q0998
                        TEMPO 28025G35KT=
201201050620 METAR COR EGLL 050620Z 27029G39KT 9999 BKN026 11/07 Q0997
                        TEMPO RA=
201201050550 METAR COR EGLL 050550Z 27026G36KT 9999 BKN027 12/07 Q0998
                        BECMG RA=
201201050520 METAR COR EGLL 050520Z 27026KT 9999 SCT024 11/07 Q0998 TEMPO
                        27030G40KT RA=
201201050450 METAR COR EGLL 050450Z 27028G38KT 9999 SCT025 BKN035 11/07
                        Q0998 TEMPO RA=
201201050420 METAR COR EGLL 050420Z 27025KT 9999 SCT024 BKN030 11/07 Q0999
                        TEMPO 24030G45KT RA=
201201050350 METAR COR EGLL 050350Z 27029KT 9999 SCT024 BKN028 11/07 Q0999
                        TEMPO 27035G45KT=
201201050320 METAR COR EGLL 050320Z 27026G36KT 9999 BKN023 11/07 Q1000
                        NOSIG=
201201050250 METAR COR EGLL 050250Z 26028G38KT 9999 BKN023 11/07 Q1000
                        NOSIG=
201201050220 METAR EGLL 050220Z AUTO 27030G40KT 9999 BKN022/// 11/07 Q1001=
201201050150 METAR EGLL 050150Z AUTO 27027KT 9999 BKN019/// 11/07 Q1001=
201201050120 METAR EGLL 050120Z AUTO 26029G40KT 9999 BKN019/// 10/07 Q1001=
201201050050 METAR COR EGLL 050050Z 26029G39KT 9999 SCT021 BKN026 10/07
                        Q1002 NOSIG=
201201050020 METAR COR EGLL 050020Z 27032G43KT 9999 SCT022 BKN028 10/06
                        Q1002 NOSIG=
201201042350 METAR COR EGLL 042350Z 26030KT 9999 SCT023 10/06 Q1002 TEMPO
                        27035G45KT=
201201042320 METAR COR EGLL 042320Z 27030KT 9999 SCT022 10/06 Q1003 TEMPO
                        27035G45KT=
201201042250 METAR COR EGLL 042250Z 26028KT 9999 BKN023 09/06 Q1004 TEMPO
                        27032G45KT=
201201042220 METAR COR EGLL 042220Z 27025KT 9999 BKN022 10/06 Q1005 TEMPO
                        27030G40KT=
201201042150 METAR COR EGLL 042150Z 26024KT 9999 -RA FEW015 BKN024 09/06
                        Q1006 TEMPO 27030G40KT=
201201042120 METAR COR EGLL 042120Z 26025KT 9999 -RA SCT021 BKN027 09/06
                        Q1007 TEMPO 27028G40KT=
201201042050 METAR EGLL 042050Z 26024KT 9999 -RA FEW021 BKN027 BKN034
                        09/06 Q1008=
201201042020 METAR COR EGLL 042020Z 26023G33KT 9999 -RA FEW017 SCT022
                        BKN030 09/06 Q1008 NOSIG=
201201041950 METAR COR EGLL 041950Z 26022KT 9999 -RA BKN018 09/06 Q1008
                        TEMPO 26025G35KT=
201201041920 METAR EGLL 041920Z 25021KT 9000 -RA SCT013 BKN020 08/06 Q1009=
201201041850 METAR COR EGLL 041850Z 25021G33KT 7000 -RA FEW012 BKN015
                        08/06 Q1010 TEMPO BKN012=
201201041820 METAR EGLL 041820Z 23017KT 9999 6000W SCT016 SCT019 BKN024
                        08/06 Q1011=
201201041750 METAR COR EGLL 041750Z 24019G29KT 9999 -RA SCT017 SCT024
                        08/05 Q1011 TEMPO -RA BKN012=
201201041720 METAR COR EGLL 041720Z 24017G28KT 9999 -RA FEW020 BKN028
                        08/05 Q1012 TEMPO -RA BKN012=
201201041650 METAR COR EGLL 041650Z 23016KT 8000 -RA BKN015 08/06 Q1013
                        NOSIG=
201201041620 METAR COR EGLL 041620Z 24019KT 5000 -RA BKN018 08/05 Q1014
                        NOSIG=
201201041550 METAR COR EGLL 041550Z 24019G31KT 9999 -RA SCT018 BKN032
                        08/05 Q1014 NOSIG=
201201041520 METAR COR EGLL 041520Z 22015KT 9999 -RA SCT021 SCT027 08/04
                        Q1015 TEMPO 25018G28KT=
201201041450 METAR COR EGLL 041450Z 23017KT 9999 -RA FEW015 SCT025 BKN035
                        08/04 Q1016 TEMPO 24020G30KT=
201201041420 METAR COR EGLL 041420Z 23016KT 9999 FEW014 BKN040 08/04 Q1017
                        NOSIG=
201201041350 METAR COR EGLL 041350Z 25015KT 9999 -RA FEW014 SCT028 08/04
                        Q1017 NOSIG=
201201041320 METAR COR EGLL 041320Z 24017KT 9999 FEW025 SCT044 08/03 Q1018
                        NOSIG=
201201041250 METAR COR EGLL 041250Z 25017KT 9999 FEW025 SCT032 BKN044
                        08/03 Q1018 NOSIG=
201201041220 METAR COR EGLL 041220Z 25015KT 9999 FEW025 SCT035 08/03 Q1019
                        NOSIG=
201201041150 METAR COR EGLL 041150Z 25013KT 9999 FEW045 08/03 Q1019 NOSIG=
201201041120 METAR COR EGLL 041120Z 25015KT 9999 FEW045 08/03 Q1019 NOSIG=
201201041050 METAR COR EGLL 041050Z 26015KT CAVOK 08/03 Q1021 NOSIG=
201201041020 METAR COR EGLL 041020Z 26017KT CAVOK 07/02 Q1020 NOSIG=
201201040950 METAR COR EGLL 040950Z 26016KT CAVOK 07/02 Q1020 NOSIG=
201201040920 METAR COR EGLL 040920Z 25013KT CAVOK 07/02 Q1019 NOSIG=
201201040850 METAR COR EGLL 040850Z 26012KT CAVOK 06/01 Q1020 NOSIG=
201201040820 METAR EGLL 040820Z 26013KT CAVOK 06/01 Q1019=
201201040750 METAR COR EGLL 040750Z 27015KT CAVOK 05/01 Q1019 NOSIG=
201201040720 METAR COR EGLL 040720Z 27010KT CAVOK 05/01 Q1018 TEMPO 27015G27KT=
201201040650 METAR COR EGLL 040650Z 26012KT CAVOK 05/00 Q1018 TEMPO 27015G27KT=
201201040620 METAR COR EGLL 040620Z 27013KT CAVOK 05/M00 Q1018 TEMPO 27018G28KT=
201201040550 METAR EGLL 040550Z NIL=
201201040520 METAR EGLL 040520Z NIL=
201201040450 METAR EGLL 040450Z NIL=
201201040420 METAR EGLL 040420Z NIL=
201201040350 METAR EGLL 040350Z NIL=
201201040320 METAR COR EGLL 040320Z 28015KT CAVOK 05/M00 Q1014 TEMPO 27018G28KT=
201201040250 METAR COR EGLL 040250Z 27014KT CAVOK 05/M01 Q1013 TEMPO 25017G27KT=
201201040220 METAR EGLL 040220Z AUTO 28015KT 9999 FEW046/// 05/M00 Q1012=
201201040150 METAR EGLL 040150Z AUTO 28013KT 9999 NCD 05/M00 Q1012=
201201040120 METAR EGLL 040120Z AUTO 28017KT 9999 NCD 06/M00 Q1011=
201201040050 METAR COR EGLL 040050Z 28015KT 9999 FEW044 06/00 Q1010 TEMPO
                        27018G28KT=
201201040020 METAR COR EGLL 040020Z 26017KT 9999 FEW042 07/01 Q1009 TEMPO
                        26020G30KT=
201201032350 METAR COR EGLL 032350Z 26016KT 9999 FEW038 07/01 Q1009 TEMPO
                        26020G30KT=
201201032320 METAR COR EGLL 032320Z 25021KT 9999 FEW040 06/01 Q1008 TEMPO
                        26024G34KT=
201201032250 METAR COR EGLL 032250Z 25018KT CAVOK 06/01 Q1008 TEMPO 26021G34KT=
201201032220 METAR COR EGLL 032220Z 24016KT CAVOK 06/01 Q1008 TEMPO 26020G30KT=
201201032150 METAR COR EGLL 032150Z 24013KT CAVOK 06/01 Q1008 TEMPO 25016G28KT=
201201032120 METAR COR EGLL 032120Z 23010KT 200V270 CAVOK 06/01 Q1008
                        TEMPO 25015G25KT=
201201032050 METAR COR EGLL 032050Z 24013KT CAVOK 06/01 Q1008 TEMPO 26016G26KT=
201201032020 METAR COR EGLL 032020Z 25016KT CAVOK 06/01 Q1008 TEMPO 26019G29KT=
201201031950 METAR COR EGLL 031950Z 26016KT CAVOK 07/01 Q1007 TEMPO 26019G29KT=
201201031920 METAR COR EGLL 031920Z 26014KT CAVOK 06/01 Q1007 TEMPO 26017G27KT=
201201031850 METAR COR EGLL 031850Z 27020KT CAVOK 06/01 Q1007 NOSIG=
201201031820 METAR COR EGLL 031820Z 27018KT CAVOK 06/01 Q1006 NOSIG=
201201031750 METAR EGLL 031750Z 27020KT CAVOK 07/01 Q1006=
201201031720 METAR EGLL 031720Z 27021KT CAVOK 07/01 Q1005=
201201031650 METAR COR EGLL 031650Z 27020G31KT CAVOK 07/02 Q1004 NOSIG=
201201031620 METAR COR EGLL 031620Z 28016KT 9999 FEW035 07/03 Q1003 NOSIG=
201201031550 METAR COR EGLL 031550Z 28026G36KT 9999 R27L/0400 -RA SCT029
                        BKN040 07/04 Q1003 NOSIG=
201201031520 METAR COR EGLL 031520Z 26022KT 9999 SCT036 09/04 Q1001 TEMPO
                        26025G38KT=
201201031450 METAR COR EGLL 031450Z 26021KT 9999 FEW032 09/05 Q1000 TEMPO
                        26024G35KT=
201201031420 METAR COR EGLL 031420Z 26024G37KT 9999 SCT027 09/05 Q0999
                        NOSIG=
201201031350 METAR COR EGLL 031350Z 26019KT 9999 SCT030 BKN038 09/05 Q0998
                        NOSIG=
201201031320 METAR EGLL 031320Z 26018KT 9999 FEW016 09/05 Q0998=
201201031250 METAR COR EGLL 031250Z 25017KT 9999 SCT037 08/05 Q0997 RERA
                        NOSIG=
201201031220 METAR COR EGLL 031220Z 29017KT 8000 RA SCT014 BKN036 08/06
                        Q0998 BECMG NSW=
201201031150 METAR EGLL 031150Z NIL=
201201031120 METAR COR EGLL 031120Z 23026G36KT 5000 RA FEW015 BKN018 12/10
                        Q0994 TEMPO 4000 +RA BKN014=
201201031050 METAR COR EGLL 031050Z 23024G35KT 6000 -RA BKN014 12/10 Q0995
                        TEMPO 4000 +RA=
201201031020 METAR COR EGLL 031020Z 23022G35KT 8000 -RA BKN012 BKN027
                        12/10 Q0996 TEMPO 4000 +RA=
201201030950 METAR COR EGLL 030950Z 22024G35KT 9999 -RA BKN014 BKN020
                        12/10 Q0996 TEMPO 4000 +RA BKN014=
201201030920 METAR COR EGLL 030920Z 23024G37KT 7000 -RA SCT014 BKN018
                        12/10 Q0997 TEMPO 4000 +RA BKN014=
201201030850 METAR COR EGLL 030850Z 22022G36KT 9999 -DZ SCT013 BKN020
                        12/10 Q0997 TEMPO 22030G44KT BKN014=
201201030820 METAR COR EGLL 030820Z 23025G35KT 9999 -RA SCT014 BKN020
                        12/09 Q0998 TEMPO 22030G44KT BKN014=
201201030750 METAR COR EGLL 030750Z 22023G33KT 9999 FEW016 BKN020 12/09
                        Q0998 TEMPO 22030G44KT 6000 -RA BKN014=
201201030720 METAR COR EGLL 030720Z 23024KT 9000 -RA FEW018 BKN020 12/09
                        Q0999 TEMPO 22030G44KT 6000 -RA BKN014=
201201030650 METAR COR EGLL 030650Z 22024G34KT 9999 SCT016 BKN022 12/09
                        Q0999 TEMPO 22030G44KT -RA BKN014=
201201030620 METAR COR EGLL 030620Z 23024G34KT 9999 SCT014 BKN017 11/09
                        Q0999 TEMPO BKN014=
201201030550 METAR COR EGLL 030550Z 23022G33KT 9999 -RA SCT012 BKN017
                        11/09 Q1000 TEMPO BKN014=
201201030520 METAR COR EGLL 030520Z 22020KT 8000 -RA SCT012 BKN014 10/09
                        Q1001 RERA REDZ TEMPO 4000 RADZ=
201201030450 METAR COR EGLL 030450Z 21017G28KT 5000 RADZ SCT009 BKN015
                        09/08 Q1001 TENPO BKN012=
201201030420 METAR COR EGLL 030420Z 20017KT 6000 RADZ SCT010 BKN013 09/08
                        Q1002 TEMPO SCT013 BKN018=
201201030350 METAR COR EGLL 030350Z 21018KT 9999 -RA FEW013 SCT023 09/07
                        Q1004 RERA TEMPO 8000 RA BKN014=
201201030320 METAR COR EGLL 030320Z 21015G25KT 9999 RA FEW018 SCT024 BKN030
                        09/07 Q1005 TEMPO 8000 RADZ BKN014=
201201030250 METAR COR EGLL 030250Z 21015KT 9999 -RA FEW019 SCT026 BKN037
                        09/06 Q1006 TEMPO 8000 RADZ BKN014=
201201030220 METAR EGLL 030220Z AUTO 21015KT 9999 -RA SCT019/// BKN029///
                        08/06 Q1008=
201201030150 METAR EGLL 030150Z AUTO 21011KT 9999 -RA SCT030/// SCT034///
                        08/05 Q1008=
201201030120 METAR EGLL 030120Z AUTO 21009KT 9999 NCD 08/05 Q1009=
201201030050 METAR COR EGLL 030050Z 20008KT CAVOK 07/04 Q1010 NOSIG=
201201030020 METAR COR EGLL 030020Z 18007KT 9999 FEW022 06/04 Q1010 NOSIG=
201201022350 METAR COR EGLL 022350Z 19008KT 9999 FEW037 06/03 Q1011 NOSIG=
201201022320 METAR COR EGLL 022320Z 20009KT 9999 FEW042 06/03 Q1011 NOSIG=
201201022250 METAR COR EGLL 022250Z 19009KT 160V240 CAVOK 05/03 Q1012
                        NOSIG=
201201022220 METAR COR EGLL 022220Z 19009KT 160V240 CAVOK 05/02 Q1012
                        NOSIG=
201201022150 METAR COR EGLL 022150Z 21009KT 190V250 9999 FEW048 05/02
                        Q1013 NOSIG=
201201022120 METAR COR EGLL 022120Z 21009KT 9999 FEW047 05/02 Q1013 NOSIG=
201201022050 METAR COR EGLL 022050Z 23009KT CAVOK 05/02 Q1013 NOSIG=
201201022020 METAR COR EGLL 022020Z 22009KT 9999 FEW031 05/01 Q1013 NOSIG=
201201021950 METAR COR EGLL 021950Z 22009KT CAVOK 05/01 Q1013 NOSIG=
201201021920 METAR COR EGLL 021920Z 22009KT CAVOK 05/01 Q1013 NOSIG=
201201021850 METAR COR EGLL 021850Z 22009KT CAVOK 05/01 Q1013 NOSIG=
201201021820 METAR COR EGLL 021820Z 22008KT 9999 FEW020 05/02 Q1013 NOSIG=
201201021750 METAR COR EGLL 021750Z 22010KT 9999 FEW020 05/02 Q1012 NOSIG=
201201021720 METAR COR EGLL 021720Z 24011KT 9999 FEW020 05/02 Q1012 NOSIG=
201201021650 METAR COR EGLL 021650Z 23011KT 200V260 9999 FEW020 05/02
                        Q1012 NOSIG=
201201021620 METAR COR EGLL 021620Z 25013KT 9999 FEW018 05/02 Q1012 NOSIG=
201201021550 METAR COR EGLL 021550Z 25012KT 9999 VCSH FEW024 SCT037 07/01
                        Q1011 NOSIG=
201201021520 METAR COR EGLL 021520Z 26014KT 9999 FEW034 07/01 Q1011 NOSIG=
201201021450 METAR COR EGLL 021450Z 25012KT 9999 FEW032 08/01 Q1010 NOSIG=
201201021420 METAR COR EGLL 021420Z 24013KT 9999 FEW035 08/01 Q1010 NOSIG=
201201021350 METAR COR EGLL 021350Z 25016KT 9999 FEW035 07/01 Q1010 NOSIG=
201201021320 METAR COR EGLL 021320Z 25016KT 9999 FEW038 08/01 Q1009 NOSIG=
201201021250 METAR COR EGLL 021250Z 25015KT 9999 FEW020 07/02 Q1009 NOSIG=
201201021220 METAR COR EGLL 021220Z 26014KT 9999 FEW020 07/02 Q1009 NOSIG=
201201021150 METAR COR EGLL 021150Z 26013KT 9999 FEW019 07/02 Q1009 NOSIG=
201201021120 METAR COR EGLL 021120Z 26013KT CAVOK 07/02 Q1009 NOSIG=
201201021050 METAR COR EGLL 021050Z 25014KT CAVOK 06/02 Q1008 NOSIG=
201201021020 METAR COR EGLL 021020Z 25013KT CAVOK 06/02 Q1008 NOSIG=
201201020950 METAR COR EGLL 020950Z 26012KT CAVOK 06/02 Q1008 NOSIG=
201201020920 METAR COR EGLL 020920Z 24012KT CAVOK 05/02 Q1007 NOSIG=
201201020850 METAR COR EGLL 020850Z 25011KT CAVOK 05/02 Q1007 NOSIG=
201201020820 METAR COR EGLL 020820Z 25011KT CAVOK 05/02 Q1006 NOSIG=
201201020750 METAR COR EGLL 020750Z 24011KT CAVOK 05/02 Q1006 NOSIG=
201201020720 METAR COR EGLL 020720Z 24010KT CAVOK 05/02 Q1005 NOSIG=
201201020650 METAR COR EGLL 020650Z 22009KT CAVOK 05/02 Q1005 NOSIG=
201201020620 METAR COR EGLL 020620Z 23009KT CAVOK 05/02 Q1005 NOSIG=
201201020550 METAR COR EGLL 020550Z 22007KT CAVOK 04/03 Q1005 NOSIG=
201201020520 METAR COR EGLL 020520Z 21006KT 9999 FEW036 05/03 Q1005 NOSIG=
201201020450 METAR COR EGLL 020450Z 22008KT CAVOK 05/03 Q1004 NOSIG=
201201020420 METAR COR EGLL 020420Z 22008KT CAVOK 05/03 Q1004 NOSIG=
201201020350 METAR COR EGLL 020350Z 23007KT CAVOK 05/03 Q1004 NOSIG=
201201020320 METAR COR EGLL 020320Z 26006KT CAVOK 06/04 Q1004 NOSIG=
201201020250 METAR COR EGLL 020250Z 26007KT 9999 FEW049 06/04 Q1004 NOSIG=
201201020220 METAR EGLL 020220Z AUTO 24007KT 9999 NCD 06/04 Q1004=
201201020150 METAR EGLL 020150Z AUTO 25008KT 9999 NCD 07/04 Q1004=
201201020120 METAR EGLL 020120Z AUTO 25009KT 9999 FEW028/// 07/05 Q1003=
201201020050 METAR COR EGLL 020050Z 25009KT CAVOK 07/05 Q1003 NOSIG=
201201020020 METAR COR EGLL 020020Z 23009KT CAVOK 07/05 Q1004 NOSIG=
201201012350 METAR COR EGLL 012350Z 24010KT CAVOK 07/05 Q1003 NOSIG=
201201012320 METAR COR EGLL 012320Z 24010KT CAVOK 08/05 Q1003 NOSIG=
201201012250 METAR COR EGLL 012250Z 25012KT CAVOK 08/06 Q1003 NOSIG=
201201012220 METAR COR EGLL 012220Z 25014KT 9999 FEW024 09/06 Q1003 NOSIG=
201201012150 METAR COR EGLL 012150Z 26013KT 9999 FEW024 09/06 Q1003 NOSIG=
201201012120 METAR COR EGLL 012120Z 25014KT 9999 FEW027 09/07 Q1002 NOSIG=
201201012050 METAR COR EGLL 012050Z 26014KT 9999 FEW024 10/07 Q1002 NOSIG=
201201012020 METAR COR EGLL 012020Z 25012KT 9999 FEW024 10/08 Q1002 NOSIG=
201201011950 METAR COR EGLL 011950Z 25012KT 9999 FEW025 10/08 Q1001 NOSIG=
201201011920 METAR COR EGLL 011920Z 24013KT 9999 FEW040 10/08 Q1001 NOSIG=
201201011850 METAR COR EGLL 011850Z 24011KT 9999 -RA FEW020 SCT040 10/08
                        Q1001 NOSIG=
201201011820 METAR COR EGLL 011820Z 24010KT 9999 -RA SCT045 10/09 Q1001
                        TEMPO RA=
201201011750 METAR COR EGLL 011750Z 22007KT 170V260 9999 FEW024 SCT038
                        10/09 Q1001 TEMPO RA=
201201011720 METAR COR EGLL 011720Z 22007KT 9999 FEW024 10/09 Q1000 TEMPO
                        RA=
201201011650 METAR COR EGLL 011650Z 23008KT 9999 -RA SCT030 10/09 Q1000
                        TEMPO RA=
201201011620 METAR COR EGLL 011620Z 23008KT 9999 -RA SCT030 SCT045 10/09
                        Q1001 NOSIG=
201201011550 METAR COR EGLL 011550Z 23008KT 9999 -RA FEW032 BKN038 10/09
                        Q1001 TEMPO BKN014=
201201011520 METAR COR EGLL 011520Z 21006KT 9000 -RA FEW007 BKN038 10/09
                        Q1001 RERA TEMPO BKN012=
201201011450 METAR COR EGLL 011450Z 24009KT 8000 RA FEW030 BKN040 11/09
                        Q1002 RERA TEMPO 22015G25KT 4500
                        +RA=
201201011420 METAR COR EGLL 011420Z 25010KT 200V270 6000 RA SCT020 SCT040
                        11/09 Q1002 22015G25KT TEMPO 4000
                        +RA BKN014=
201201011350 METAR COR EGLL 011350Z 22009KT 9999 -RA FEW022 SCT040 12/09
                        Q1002 TEMPO 22015G25KT RA BKN014=
201201011320 METAR COR EGLL 011320Z 23012KT CAVOK 12/08 Q1003 TEMPO RA
                        BKN014=
201201011250 METAR COR EGLL 011250Z 21009KT 180V250 9999 FEW022 12/09
                        Q1004 NOSIG=
201201011220 METAR COR EGLL 011220Z 22013KT 190V250 9999 SCT020 SCT026
                        12/09 Q1005 NOSIG=
201201011150 METAR COR EGLL 011150Z 23015KT 9999 SCT022 SCT027 13/09 Q1005
                        NOSIG=
201201011120 METAR COR EGLL 011120Z 23013KT 9999 FEW022 SCT027 13/09 Q1005
                        NOSIG=
201201011050 METAR COR EGLL 011050Z 23013KT 9999 SCT022 13/09 Q1006 NOSIG=
201201011020 METAR COR EGLL 011020Z 23012KT 9999 SCT018 13/09 Q1006 NOSIG=
201201010950 METAR COR EGLL 010950Z 23012KT 9999 SCT019 SCT023 12/09 Q1006
                        NOSIG=
201201010920 METAR COR EGLL 010920Z 22011KT 9999 SCT019 12/09 Q1006 NOSIG=
201201010850 METAR COR EGLL 010850Z 22010KT 9999 SCT014 11/09 Q1007 TEMPO
                        BKN012=
201201010820 METAR COR EGLL 010820Z 22010KT 9999 SCT017 11/09 Q1007 TEMPO
                        BKN012=
201201010750 METAR COR EGLL 010750Z 23011KT 9999 SCT015 SCT039 12/09 Q1007
                        TEMPO BKN012=
201201010720 METAR COR EGLL 010720Z 22012KT 9999 FEW022 12/09 Q1007 NOSIG=
201201010650 METAR COR EGLL 010650Z 22009KT 9999 FEW030 SCT038 12/10 Q1007
                        NOSIG=
201201010620 METAR COR EGLL 010620Z 22011KT 9999 FEW014 SCT029 12/10 Q1007
                        NOSIG=
201201010550 METAR COR EGLL 010550Z 22010KT 9999 FEW013 BKN032 12/10 Q1007
                        NOSIG=
201201010520 METAR COR EGLL 010520Z 22010KT 9999 SCT025 SCT040 12/10 Q1007
                        NOSIG=
201201010450 METAR COR EGLL 010450Z 23010KT 9999 FEW014 BKN022 12/10 Q1007
                        NOSIG=
201201010420 METAR COR EGLL 010420Z 22010KT 9999 FEW014 BKN017 12/10 Q1007
                        NOSIG=
201201010350 METAR COR EGLL 010350Z 23009KT 9999 SCT012 12/10 Q1008 TEMPO
                        BKN012=
201201010320 METAR COR EGLL 010320Z 24008KT 9999 FEW009 BKN012 12/10 Q1007
                        TEMPO SCT012=
201201010250 METAR COR EGLL 010250Z 23010KT 9999 FEW007 BKN012 12/11 Q1007
                        NOSIG=
201201010220 METAR EGLL 010220Z AUTO 22012KT 9999 SCT008/// 12/11 Q1007=
201201010150 METAR EGLL 010150Z AUTO 23012KT 8000 -DZ BKN012/// 12/11
                        Q1008=
201201010120 METAR EGLL 010120Z AUTO 25012KT 9999 OVC012/// 13/10 Q1008=
201201010050 METAR COR EGLL 010050Z 24013KT 9999 BKN013 12/10 Q1007 TEMPO
                        -RA BKN007=
201201010020 METAR COR EGLL 010020Z 23012KT 9999 BKN012 12/10 Q1008 TEMPO
                        BKN008=

# No short TAF reports from EGLL in databse.
