##########################################################
# Query made at 12/27/2012 10:45:35 UTC
# Time interval: from 01/01/2008 00:00  to 01/31/2008 23:59  UTC
##########################################################

##########################################################
# EGLL, London / Heathrow Airport (United Kingdom)
# WMO index: 03772
# Latitude 51-29N. Longitude 000-27W. Altitude 24 m.
##########################################################

###################################
#  METAR/SPECI from EGLL
###################################
200801312350 METAR EGLL 312350Z 24017KT 9999 FEW008 05/02 Q0997=
200801312320 METAR COR EGLL 312320Z 24016KT 9999 FEW008 SCT030 05/02 Q0997
                        RESHRA NOSIG=
200801312250 METAR EGLL 312250Z 25020G31KT 7000 SHRA FEW012 SCT026 06/03
                        Q0997 NOSIG=
200801312220 METAR EGLL 312220Z 24015KT 9999 FEW032 06/02 Q0997 NOSIG=
200801312150 METAR EGLL 312150Z 25013KT 9999 SCT034 06/02 Q0998 NOSIG=
200801312120 METAR COR EGLL 312120Z 25018G30KT 9999 -RA FEW024 06/02 Q0998
                        NOSIG=
200801312050 METAR EGLL 312050Z 24016KT 9999 FEW035 06/01 Q0998 NOSIG=
200801312020 METAR COR EGLL 312020Z 24016KT 9999 FEW035 07/01 Q0998 NOSIG=
200801311950 METAR EGLL 311950Z 25016KT 9999 FEW031 07/01 Q0998 NOSIG=
200801311920 METAR COR EGLL 311920Z 25016KT 9999 FEW031 07/02 Q0998 NOSIG=
200801311850 METAR EGLL 311850Z NIL=
200801311820 METAR EGLL 311820Z NIL=
200801311750 METAR EGLL 311750Z 25019KT CAVOK 08/01 Q0999 NOSIG=
200801311720 METAR COR EGLL 311720Z 25018KT CAVOK 08/01 Q0999 NOSIG=
200801311650 METAR COR EGLL 311650Z 25015KT 9999 FEW035 08/02 Q0999 NOSIG=
200801311620 METAR EGLL 311620Z 25017KT 9999 FEW030 08/02 Q0999 NOSIG=
200801311550 METAR EGLL 311550Z 24016KT 9999 FEW030 08/01 Q0999 TEMPO
                        27016G26KT=
200801311520 METAR COR EGLL 311520Z 25020KT 9999 FEW042 09/01 Q0999 TEMPO
                        27022G35KT=
200801311450 METAR COR EGLL 311450Z 26023G34KT 9999 FEW042 09/02 Q1000
                        NOSIG=
200801311420 METAR COR EGLL 311420Z 26022KT 9999 SCT039 09/04 Q0999 TEMPO
                        27022G35KT=
200801311350 METAR EGLL 311350Z 25020KT 9999 FEW030 09/05 Q1000 NOSIG=
200801311320 METAR EGLL 311320Z 26019KT 9999 FEW017 SCT045 09/06 Q1000
                        NOSIG=
200801311250 METAR EGLL 311250Z 27025KT 8000 -RA SCT011 SCT037 09/06 Q1001
                        RERA NOSIG=
200801311220 METAR EGLL 311220Z 23022G37KT 6000 RA BKN010 BKN017 10/08
                        Q1000 TEMPO 22035G48KT 4000 +RA BKN014CB=
200801311150 METAR COR EGLL 311150Z 22025KT 5000 -RA BKN010 BKN017 09/07
                        Q1001 TEMPO 22035G48KT 4000 +RA BKN014CB=
200801311120 METAR COR EGLL 311120Z 22024G38KT 6000 -RA BKN013 BKN021
                        09/07 Q1001 TEMPO 22035G48KT 4000
                        +RA BKN014CB=
200801311050 METAR COR EGLL 311050Z 23026G36KT 9999 -DZ SCT015 SCT019
                        BKN027 09/07 Q1002 TEMPO 22035G48KT
                        4000 +RA BKN014CB=
200801311020 METAR COR EGLL 311020Z 22024G35KT 9999 -SHRA FEW017 SCT019
                        BKN026 09/06 Q1003 TEMPO 22035G48KT
                        4000 +RA BKN014CB=
200801310950 METAR EGLL 310950Z 22026G36KT 9999 -RA BKN020 BKN029 09/06
                        Q1004 TEMPO RA BKN014=
200801310920 METAR COR EGLL 310920Z 22025G40KT 9999 -RA BKN021 BKN030
                        09/05 Q1005 NOSIG=
200801310850 METAR COR EGLL 310850Z 22022G32KT 9999 -RA SCT021 BKN025
                        09/05 Q1006 NOSIG=
200801310820 METAR COR EGLL 310820Z 22022KT 9999 BKN025 BKN031 09/04 Q1007
                        TEMPO 21027G37KT=
200801310750 METAR COR EGLL 310750Z 22020G30KT 9999 SCT023 BKN029 09/04
                        Q1008 NOSIG=
200801310720 METAR COR EGLL 310720Z 22020G31KT 9999 SCT025 BKN035 08/04
                        Q1009 NOSIG=
200801310650 METAR EGLL 310650Z 22019KT 9999 -SHRA SCT024 SCT032 08/04
                        Q1010 TEMPO 21020G30KT=
200801310620 METAR EGLL 310620Z 22020G31KT 9999 FEW023 SCT026 08/04 Q1011
                        NOSIG=
200801310550 METAR EGLL 310550Z 22018KT 9999 FEW019 SCT024 07/04 Q1013
                        NOSIG=
200801310520 METAR COR EGLL 310520Z 21015KT 9999 FEW019 SCT023 07/04 Q1014
                        TEMPO 21017G27KT=
200801310450 METAR EGLL 310450Z 21014KT 9999 -DZ SCT022 SCT028 07/04 Q1015
                        NOSIG=
200801310420 METAR COR EGLL 310420Z 22016KT 9999 -RA FEW035 SCT047 07/04
                        Q1016 NOSIG=
200801310350 METAR COR EGLL 310350Z 21015G27KT 9999 FEW049 07/03 Q1017
                        NOSIG=
200801310320 METAR COR EGLL 310320Z 22012KT 9999 FEW048 06/02 Q1018 NOSIG=
200801310250 METAR COR EGLL 310250Z 22011KT CAVOK 06/02 Q1019 NOSIG=
200801310220 METAR EGLL 310220Z AUTO 22011KT 9999NDV NCD 06/02 Q1020=
200801310150 METAR EGLL 310150Z AUTO 20009KT 9999NDV NCD 05/02 Q1021=
200801310120 METAR EGLL 310120Z AUTO 22010KT 9999NDV NCD 05/01 Q1022=
200801310050 METAR EGLL 310050Z 20009KT CAVOK 04/01 Q1023 NOSIG=
200801310020 METAR EGLL 310020Z 20010KT CAVOK 04/01 Q1023=
200801302350 METAR EGLL 302350Z 21009KT CAVOK 04/01 Q1024 NOSIG=
200801302320 METAR COR EGLL 302320Z 21009KT CAVOK 04/01 Q1025 NOSIG=
200801302250 METAR EGLL 302250Z 21010KT CAVOK 04/01 Q1025 NOSIG=
200801302220 METAR EGLL 302220Z 20010KT CAVOK 04/01 Q1026 NOSIG=
200801302150 METAR COR EGLL 302150Z 21008KT CAVOK 04/01 Q1026 NOSIG=
200801302120 METAR COR EGLL 302120Z 21007KT CAVOK 04/01 Q1027 NOSIG=
200801302050 METAR COR EGLL 302050Z 21008KT CAVOK 04/01 Q1027 NOSIG=
200801302020 METAR COR EGLL 302020Z 21008KT CAVOK 04/01 Q1027 NOSIG=
200801301950 METAR EGLL 301950Z 23012KT CAVOK 05/01 Q1027 NOSIG=
200801301920 METAR EGLL 301920Z 22008KT 200V270 CAVOK 05/01 Q1028 NOSIG=
200801301850 METAR COR EGLL 301850Z 22008KT CAVOK 05/01 Q1028 NOSIG=
200801301820 METAR EGLL 301820Z 24009KT CAVOK 05/00 Q1029 NOSIG=
200801301750 METAR COR EGLL 301750Z 24008KT CAVOK 06/00 Q1029 NOSIG=
200801301720 METAR EGLL 301720Z 25008KT CAVOK 06/M00 Q1028 NOSIG=
200801301650 METAR EGLL 301650Z 27008KT 9999 FEW038 06/00 Q1028 NOSIG=
200801301620 METAR EGLL 301620Z 28008KT 9999 FEW038 06/M00 Q1028=
200801301550 METAR EGLL 301550Z 29008KT 9999 FEW038 07/M00 Q1028 NOSIG=
200801301520 METAR EGLL 301520Z 28010KT 9999 SCT037 08/00 Q1028 NOSIG=
200801301450 METAR EGLL 301450Z 29010KT 9999 SCT039 07/01 Q1028=
200801301420 METAR COR EGLL 301420Z 28010KT 9999 SCT033 08/00 Q1028 NOSIG=
200801301350 METAR COR EGLL 301350Z 29011KT 9999 FEW032 07/01 Q1028 NOSIG=
200801301320 METAR COR EGLL 301320Z 30010KT 9999 FEW030 07/01 Q1028 NOSIG=
200801301250 METAR COR EGLL 301250Z 30009KT 9999 FEW031 07/01 Q1028 NOSIG=
200801301220 METAR COR EGLL 301220Z 30008KT 9999 FEW031 07/01 Q1029 NOSIG=
200801301150 METAR COR EGLL 301150Z 30010KT 9999 FEW024 07/01 Q1029 NOSIG=
200801301120 METAR COR EGLL 301120Z 30009KT 9999 FEW020 07/01 Q1029 NOSIG=
200801301050 METAR EGLL 301050Z 30008KT 9999 FEW020 06/01 Q1029 TEMPO
                        29015G25KT=
200801301020 METAR EGLL 301020Z 30007KT 250V340 CAVOK 06/01 Q1029 TEMPO
                        29015G25KT=
200801300950 METAR EGLL 300950Z 29007KT 9999 FEW020 05/02 Q1028 TEMPO
                        29015G25KT=
200801300920 METAR EGLL 300920Z 29006KT 9999 FEW020 05/01 Q1028 TEMPO
                        29015G25KT=
200801300850 METAR EGLL 300850Z 29006KT 9999 FEW012 04/01 Q1028 TEMPO
                        29015G25KT=
200801300820 METAR COR EGLL 300820Z 29006KT 9999 FEW012 05/02 Q1027 TEMPO
                        29015G25KT=
200801300750 METAR COR EGLL 300750Z 30005KT CAVOK 05/02 Q1027 NOSIG=
200801300720 METAR COR EGLL 300720Z 29006KT CAVOK 05/03 Q1026 NOSIG=
200801300650 METAR EGLL 300650Z 30006KT CAVOK 05/03 Q1026 NOSIG=
200801300620 METAR EGLL 300620Z 30005KT CAVOK 06/03 Q1026 NOSIG=
200801300550 METAR EGLL 300550Z 29005KT CAVOK 05/04 Q1025 NOSIG=
200801300520 METAR EGLL 300520Z 29005KT CAVOK 05/04 Q1025 NOSIG=
200801300450 METAR COR EGLL 300450Z 27005KT 9999 FEW023 05/04 Q1025 NOSIG=
200801300420 METAR EGLL 300420Z 27004KT 9999 FEW023 SCT029 05/04 Q1025
                        NOSIG=
200801300350 METAR COR EGLL 300350Z 31004KT 9999 -RA SCT017 BKN023 05/04
                        Q1025 NOSIG=
200801300320 METAR COR EGLL 300320Z 30004KT 9999 -RA FEW017 BKN023 05/04
                        Q1025 NOSIG=
200801300250 METAR COR EGLL 300250Z 31005KT 280V340 9999 -RA SCT015 BKN020
                        05/04 Q1025 RERA TEMPO RA BKN012=
200801300220 METAR EGLL 300220Z AUTO 31005KT 9999NDV -RA FEW018/// 05/03
                        Q1024 RERA=
200801300150 METAR EGLL 300150Z AUTO 31008KT 280V340 9999NDV -RA SCT015///
                        SCT035/// 06/04 Q1024 RERA=
200801300120 METAR EGLL 300120Z AUTO 31007KT 280V350 9999NDV DZ SCT016///
                        OVC025/// 06/04 Q1023=
200801300050 METAR COR EGLL 300050Z 33005KT 9999 BKN025 06/05 Q1023 TEMPO
                        BKN014=
200801300020 METAR EGLL 300020Z 34008KT 300V010 5000 -RADZ FEW009 BKN020
                        06/05 Q1023=
200801292350 METAR COR EGLL 292350Z 35012KT 310V020 4700 -RA FEW008 BKN013
                        08/06 Q1023 TEMPO BKN008=
200801292320 METAR COR EGLL 292320Z 23010KT 7000 BKN012 09/07 Q1022 TEMPO
                        4000 RADZ BKN008=
200801292250 METAR COR EGLL 292250Z 24010KT 6000 -DZ BKN011 09/07 Q1023
                        NOSIG=
200801292220 METAR COR EGLL 292220Z 23010KT 9999 BKN013 09/07 Q1023 NOSIG=
200801292150 METAR COR EGLL 292150Z 23011KT 9999 BKN013 09/06 Q1023 NOSIG=
200801292120 METAR COR EGLL 292120Z 22009KT 190V250 9999 SCT016 BKN040
                        09/06 Q1023 BECMG BKN014=
200801292050 METAR COR EGLL 292050Z 22009KT 180V250 9999 FEW017 BKN041
                        09/06 Q1023 BECMG BKN014=
200801292020 METAR COR EGLL 292020Z 21009KT 9999 SCT029 BKN039 09/06 Q1023
                        BECMG BKN014=
200801291950 METAR COR EGLL 291950Z 21008KT 190V250 9999 BKN028 09/06
                        Q1023 BECMG BKN014=
200801291920 METAR EGLL 291920Z 20010KT 180V240 9999 BKN025 09/05 Q1023
                        NOSIG=
200801291850 METAR COR EGLL 291850Z 22010KT 190V260 9999 BKN022 10/05
                        Q1024 NOSIG=
200801291820 METAR EGLL 291820Z 23011KT 9999 BKN022 10/05 Q1024 NOSIG=
200801291750 METAR EGLL 291750Z 23011KT 9999 BKN022 10/05 Q1024 NOSIG=
200801291720 METAR COR EGLL 291720Z 21008KT 180V260 9999 BKN022 10/06
                        Q1024 NOSIG=
200801291650 METAR COR EGLL 291650Z 23010KT 9999 FEW018 BKN023 10/06 Q1024
                        NOSIG=
200801291620 METAR COR EGLL 291620Z 23008KT 190V260 9999 BKN021 10/06
                        Q1024 NOSIG=
200801291550 METAR EGLL 291550Z 23010KT 9999 BKN018 10/06 Q1024 NOSIG=
200801291520 METAR EGLL 291520Z 22007KT 180V250 9999 BKN018 10/07 Q1025
                        NOSIG=
200801291450 METAR EGLL 291450Z 24011G22KT 9999 BKN018 11/07 Q1025 NOSIG=
200801291420 METAR COR EGLL 291420Z 23012KT 9999 BKN019 11/07 Q1025 NOSIG=
200801291350 METAR EGLL 291350Z 23013KT 9999 BKN017 11/07 Q1025 NOSIG=
200801291320 METAR COR EGLL 291320Z 21009KT 170V250 9999 BKN017 11/07
                        Q1025 NOSIG=
200801291250 METAR EGLL 291250Z 21008KT 170V260 9999 SCT016 10/07 Q1026
                        NOSIG=
200801291220 METAR COR EGLL 291220Z 21010KT 160V240 9999 FEW018 10/07
                        Q1026 NOSIG=
200801291150 METAR EGLL 291150Z 21008KT 170V250 CAVOK 10/07 Q1027=
200801291120 METAR EGLL 291120Z 20008KT 160V240 CAVOK 09/06 Q1027 NOSIG=
200801291050 METAR COR EGLL 291050Z 23006KT 190V280 9999 SCT024 08/06
                        Q1028 NOSIG=
200801291020 METAR COR EGLL 291020Z 21007KT 180V260 9000 BKN026 08/05
                        Q1028 NOSIG=
200801290950 METAR COR EGLL 290950Z 21006KT 9000 BKN027 07/05 Q1028 NOSIG=
200801290920 METAR COR EGLL 290920Z 22005KT 170V250 7000 BKN026 06/04
                        Q1028 NOSIG=
200801290850 METAR COR EGLL 290850Z 22006KT 180V260 7000 SCT027 06/04
                        Q1028 NOSIG=
200801290820 METAR EGLL 290820Z 22007KT 8000 FEW025 05/03 Q1028 NOSIG=
200801290750 METAR COR EGLL 290750Z 21007KT 8000 FEW025 05/03 Q1028 NOSIG=
200801290720 METAR EGLL 290720Z 22007KT 180V240 7000 NSC 04/03 Q1028 NOSIG=
200801290650 METAR EGLL 290650Z 21006KT 180V250 8000 NSC 05/03 Q1028 NOSIG=
200801290620 METAR COR EGLL 290620Z 22005KT 190V250 7000 NSC 04/03 Q1028
                        NOSIG=
200801290550 METAR EGLL 290550Z VRB03KT 7000 NSC 04/02 Q1029 NOSIG=
200801290520 METAR COR EGLL 290520Z 21004KT 190V250 7000 NSC 04/02 Q1029
                        NOSIG=
200801290450 METAR EGLL 290450Z VRB03KT 8000 NSC 04/03 Q1029 NOSIG=
200801290420 METAR EGLL 290420Z 20004KT 8000 NSC 05/03 Q1029=
200801290350 METAR COR EGLL 290350Z 21004KT CAVOK 05/03 Q1029 NOSIG=
200801290320 METAR COR EGLL 290320Z 21004KT CAVOK 05/03 Q1029 NOSIG=
200801290250 METAR COR EGLL 290250Z 22006KT 9999 SCT020 06/03 Q1029 NOSIG=
200801290220 METAR EGLL 290220Z AUTO 21005KT 9999NDV BKN021/// 06/03 Q1029=
200801290150 METAR EGLL 290150Z AUTO 22006KT 9999NDV FEW022/// OVC027///
                        07/03 Q1029=
200801290120 METAR EGLL 290120Z AUTO 22005KT 9999NDV OVC027/// 07/04 Q1030=
200801290050 METAR COR EGLL 290050Z 20006KT 9999 BKN027 07/04 Q1030 NOSIG=
200801290020 METAR COR EGLL 290020Z 20005KT 9999 BKN027 07/04 Q1030 NOSIG=
200801282350 METAR COR EGLL 282350Z 21006KT 9999 BKN026 07/04 Q1031 NOSIG=
200801282320 METAR COR EGLL 282320Z 21006KT 9999 BKN026 07/03 Q1031 NOSIG=
200801282250 METAR COR EGLL 282250Z 22006KT 180V260 9999 BKN023 07/03
                        Q1031 NOSIG=
200801282220 METAR EGLL 282220Z 27006KT 9999 BKN021 07/03 Q1031 NOSIG=
200801282150 METAR EGLL 282150Z 27008KT 9999 BKN021 08/03 Q1031 NOSIG=
200801282120 METAR COR EGLL 282120Z 26009KT 9999 BKN021 08/03 Q1031 NOSIG=
200801282050 METAR COR EGLL 282050Z 25007KT 230V290 9999 BKN021 08/03
                        Q1031 NOSIG=
200801282020 METAR COR EGLL 282020Z 25008KT 9999 OVC021 08/03 Q1031 NOSIG=
200801281950 METAR EGLL 281950Z 26007KT 9999 OVC022 08/03 Q1032 NOSIG=
200801281920 METAR COR EGLL 281920Z 25007KT 9999 OVC023 08/03 Q1032 NOSIG=
200801281850 METAR COR EGLL 281850Z 25007KT 220V280 9999 OVC025 07/03
                        Q1032 NOSIG=
200801281820 METAR EGLL 281820Z 26008KT 9999 BKN023 07/03 Q1032 NOSIG=
200801281750 METAR EGLL 281750Z 26007KT 9999 BKN024 07/03 Q1032 NOSIG=
200801281720 METAR COR EGLL 281720Z 27006KT 9999 BKN024 07/03 Q1032 NOSIG=
200801281650 METAR COR EGLL 281650Z 28008KT 9999 OVC020 07/03 Q1032 NOSIG=
200801281620 METAR COR EGLL 281620Z 25011KT 9999 BKN018 07/04 Q1032 NOSIG=
200801281550 METAR COR EGLL 281550Z 26010KT 9999 BKN017 BKN019 07/04 Q1032
                        NOSIG=
200801281520 METAR COR EGLL 281520Z 25009KT 9999 BKN018 BKN025 07/04 Q1032
                        NOSIG=
200801281450 METAR EGLL 281450Z 24009KT 200V270 9000 SCT020 BKN025 07/05
                        Q1032 NOSIG=
200801281420 METAR EGLL 281420Z 24008KT 190V280 8000 FEW010 BKN025 07/06
                        Q1032 NOSIG=
200801281350 METAR COR EGLL 281350Z 25007KT 210V280 7000 FEW006 SCT020
                        BKN029 06/06 Q1032 NOSIG=
200801281320 METAR COR EGLL 281320Z 21005KT 170V270 4800 SCT005 BKN027
                        05/05 Q1033 BECMG 6000 NSW=
200801281250 METAR EGLL 281250Z 21005KT 180V250 2900 BR BKN002 04/04 Q1033
                        BECMG 6000 BKN010=
200801281220 METAR EGLL 281220Z 19005KT 130V250 2500 1000S R27L/P1500
                        R27R/P1500 BR BKN002 04/04 Q1034
                        BECMG 6000 BKN010=
200801281150 METAR EGLL 281150Z 20004KT 160V260 2000 0800S R27L/P1500
                        R27R/P1500 BR SCT002 BKN030 04/04
                        Q1034 BECMG 6000 NSW=
200801281120 METAR COR EGLL 281120Z 21004KT 160V270 0800 R27L/1200 R27R/P1500
                        FG BKN020 04/04 Q1035 BECMG 2000
                        BR=
200801281050 METAR EGLL 281050Z 26005KT 220V290 0400 R27L/0900 R27R/P1500
                        FG VV/// 04/03 Q1035 BECMG 1200 BR
                        BKN002=
200801281020 METAR EGLL 281020Z 28004KT 240V310 0200 R27L/0900 R27R/P1500
                        FG OVC001 04/03 Q1035 BECMG 1200
                        BR=
200801280950 METAR COR EGLL 280950Z 25004KT 180V310 0800 R27L/P1500 R27R/P1500
                        FG NSC 04/03 Q1035 BECMG 2000 BR=
200801280920 METAR COR EGLL 280920Z VRB02KT 0800 R27L/P1500 R27R/P1500
                        FG FEW001 OVC002 03/03 Q1035 BECMG
                        1200 BR=
200801280850 METAR EGLL 280850Z 24004KT 170V280 0300 R27L/0600 R27R/P1500
                        FG FEW001 OVC002 03/02 Q1035 BECMG
                        0800 FG=
200801280820 METAR COR EGLL 280820Z 25008KT 0400 R27L/1200 R27R/1000 FG
                        FEW001 OVC002 02/02 Q1035 BECMG 0800
                        FG=
200801280750 METAR EGLL 280750Z 28006KT 0250 R27L/0800 R27R/0700 FG VV///
                        02/02 Q1035 BECMG 0700 FG=
200801280720 METAR EGLL 280720Z 27005KT 230V300 0200 R27L/0550 R27R/0550
                        FG VV/// 02/02 Q1035 NOSIG=
200801280650 METAR EGLL 280650Z 24005KT 210V290 0150 R27L/0600 R27R/0550
                        FG VV/// 02/02 Q1035 NOSIG=
200801280620 METAR EGLL 280620Z VRB03KT 0100 R27L/0400 R27R/0400 FG VV///
                        02/02 Q1035 NOSIG=
200801280550 METAR COR EGLL 280550Z VRB03KT 0150 R27R/0450 FG VV/// 03/02
                        Q1034 NOSIG=
200801280520 METAR COR EGLL 280520Z VRB03KT 0150 R27R/0450 FG VV/// 03/02
                        Q1035 NOSIG=
200801280450 METAR EGLL 280450Z 25004KT 210V280 0150 R27R/0500 FG VV///
                        03/02 Q1035 NOSIG=
200801280420 METAR EGLL 280420Z 24004KT 0150 R27R/0450 FG VV/// 03/02
                        Q1035 NOSIG=
200801280350 METAR EGLL 280350Z VRB03KT 0100 R27R/0400 FG VV/// 03/02
                        Q1035 NOSIG=
200801280320 METAR COR EGLL 280320Z 25005KT 0100 R27R/0400 FG VV/// 03/03
                        Q1035 NOSIG=
200801280250 METAR EGLL 280250Z 27005KT 0150 R27R/0350 FG VV/// 03/03
                        Q1035 NOSIG=
200801280220 METAR EGLL 280220Z AUTO 28004KT 0150NDV R27R/0450 VV/// 03/03
                        Q1035=
200801280150 METAR COR EGLL 280150Z AUTO 28005KT 0150NDV R27R/0400 VV///
                        03/03 Q1035 TEMPO 3000 BR=
200801280120 METAR COR EGLL 280120Z 28007KT 0150 R27R/0325 FG VV/// 03/02
                        Q1035 TEMPO 3000 BR=
200801280050 METAR COR EGLL 280050Z 26003KT 0800 R27R/0750 FG NSC 04/04
                        Q1035 TEMPO 3000 BR=
200801280020 METAR COR EGLL 280020Z 26004KT 4800 BR NSC 05/04 Q1035 BECMG
                        3000=
200801272350 METAR COR EGLL 272350Z 27006KT 5000 BR NSC 04/04 Q1035 BECMG
                        3000=
200801272320 METAR COR EGLL 272320Z 28006KT 6000 NSC 04/04 Q1035 BECMG
                        3000 BR MIFG=
200801272250 METAR COR EGLL 272250Z 28006KT 7000 NSC 05/04 Q1035 BECMG
                        3000 BR=
200801272220 METAR EGLL 272220Z 28007KT 8000 NSC 06/05 Q1035 BECMG 3000
                        BR=
200801272150 METAR COR EGLL 272150Z 28006KT CAVOK 06/04 Q1035 BECMG 4000
                        BR=
200801272120 METAR COR EGLL 272120Z 27006KT 9999 FEW027 07/05 Q1035 BECMG
                        4000 BR=
200801272050 METAR COR EGLL 272050Z 27007KT CAVOK 07/05 Q1035 BECMG 4000
                        BR=
200801272020 METAR COR EGLL 272020Z 26007KT 9000 NSC 07/05 Q1035 BECMG
                        4000 BR=
200801271950 METAR COR EGLL 271950Z 24007KT CAVOK 07/05 Q1035 NOSIG=
200801271920 METAR COR EGLL 271920Z 24006KT 200V270 CAVOK 07/05 Q1035
                        NOSIG=
200801271850 METAR EGLL 271850Z 24008KT CAVOK 08/05 Q1034 NOSIG=
200801271820 METAR COR EGLL 271820Z 26005KT 220V280 CAVOK 07/05 Q1034
                        NOSIG=
200801271750 METAR COR EGLL 271750Z 26006KT CAVOK 08/05 Q1034 NOSIG=
200801271720 METAR COR EGLL 271720Z 26007KT CAVOK 09/06 Q1034 NOSIG=
200801271650 METAR COR EGLL 271650Z 28007KT CAVOK 09/05 Q1034 NOSIG=
200801271620 METAR COR EGLL 271620Z 27009KT 9999 FEW020 10/06 Q1033 NOSIG=
200801271550 METAR EGLL 271550Z 27010KT 9999 FEW024 10/06 Q1033=
200801271520 METAR EGLL 271520Z 27010KT 9999 FEW022 11/06 Q1033=
200801271450 METAR COR EGLL 271450Z 28009KT 9999 FEW020 11/06 Q1033 NOSIG=
200801271420 METAR EGLL 271420Z 27010KT 9999 FEW020 11/06 Q1033 NOSIG=
200801271350 METAR EGLL 271350Z 28011KT 9999 FEW024 11/06 Q1033=
200801271320 METAR COR EGLL 271320Z 28012KT 9999 FEW020 11/06 Q1033 NOSIG=
200801271250 METAR EGLL 271250Z 28013KT 9999 FEW020 11/06 Q1033 NOSIG=
200801271220 METAR EGLL 271220Z 27010KT 9999 SCT020 10/06 Q1034 NOSIG=
200801271150 METAR COR EGLL 271150Z 27011KT 9999 BKN016 10/06 Q1034 NOSIG=
200801271120 METAR EGLL 271120Z 27012KT 9999 FEW016 10/06 Q1034 NOSIG=
200801271050 METAR COR EGLL 271050Z 26011KT CAVOK 09/05 Q1034 NOSIG=
200801271020 METAR COR EGLL 271020Z 26010KT CAVOK 08/05 Q1034 NOSIG=
200801270950 METAR EGLL 270950Z 26009KT CAVOK 08/05 Q1033 NOSIG=
200801270920 METAR COR EGLL 270920Z 27009KT CAVOK 07/05 Q1033 NOSIG=
200801270850 METAR EGLL 270850Z 27007KT CAVOK 07/04 Q1033 NOSIG=
200801270820 METAR COR EGLL 270820Z 25010KT CAVOK 06/04 Q1032 NOSIG=
200801270750 METAR COR EGLL 270750Z 24011KT CAVOK 05/04 Q1032 NOSIG=
200801270720 METAR EGLL 270720Z 24012KT CAVOK 06/04 Q1032 TEMPO BKN010=
200801270650 METAR EGLL 270650Z 25013KT 9999 FEW015 06/04 Q1033 TEMPO
                        BKN010=
200801270620 METAR COR EGLL 270620Z 23008KT 190V260 9999 SCT015 05/04
                        Q1033 TEMPO BKN010=
200801270550 METAR COR EGLL 270550Z 24006KT 210V270 9999 SCT015 05/03
                        Q1033 TEMPO BKN010=
200801270520 METAR COR EGLL 270520Z 24008KT CAVOK 06/04 Q1032 TEMPO BKN010=
200801270450 METAR COR EGLL 270450Z 25010KT CAVOK 06/04 Q1032 TEMPO BKN010=
200801270420 METAR COR EGLL 270420Z 25010KT CAVOK 06/04 Q1032 TEMPO BKN010=
200801270350 METAR EGLL 270350Z 25010KT CAVOK 06/04 Q1032 TEMPO BKN010=
200801270320 METAR COR EGLL 270320Z 25011KT CAVOK 06/04 Q1032 TEMPO BKN010=
200801270250 METAR COR EGLL 270250Z 26011KT CAVOK 06/04 Q1032 TEMPO BKN010=
200801270220 METAR COR EGLL 270220Z AUTO 25011KT 9999NDV NCD 06/04 Q1032=
200801270150 METAR COR EGLL 270150Z AUTO 25012KT 9999NDV NCD 06/04 Q1032=
200801270120 METAR EGLL 270120Z AUTO 24010KT 9999NDV NCD 06/04 Q1032=
200801270050 METAR EGLL 270050Z 23012KT CAVOK 06/04 Q1033 NOSIG=
200801270020 METAR COR EGLL 270020Z 25009KT CAVOK 07/04 Q1033 NOSIG=
200801262350 METAR COR EGLL 262350Z 25010KT CAVOK 07/04 Q1033 NOSIG=
200801262320 METAR EGLL 262320Z 25011KT CAVOK 07/04 Q1033 NOSIG=
200801262250 METAR COR EGLL 262250Z 25014KT CAVOK 08/04 Q1033 NOSIG=
200801262220 METAR COR EGLL 262220Z 25013KT CAVOK 08/04 Q1033 NOSIG=
200801262150 METAR EGLL 262150Z 25012KT CAVOK 08/04 Q1033 NOSIG=
200801262120 METAR EGLL 262120Z 25013KT CAVOK 08/04 Q1034 NOSIG=
200801262050 METAR EGLL 262050Z 25012KT CAVOK 08/05 Q1034 NOSIG=
200801262020 METAR COR EGLL 262020Z 24011KT CAVOK 08/05 Q1034 NOSIG=
200801261950 METAR EGLL 261950Z 24010KT CAVOK 08/05 Q1035 NOSIG=
200801261920 METAR EGLL 261920Z 25010KT CAVOK 08/05 Q1035 NOSIG=
200801261850 METAR COR EGLL 261850Z 26011KT CAVOK 08/05 Q1034 NOSIG=
200801261820 METAR COR EGLL 261820Z 24010KT CAVOK 09/05 Q1035 NOSIG=
200801261750 METAR EGLL 261750Z 25009KT CAVOK 09/05 Q1034 NOSIG=
200801261720 METAR EGLL 261720Z 26011KT 9999 FEW023 09/05 Q1034 NOSIG=
200801261650 METAR EGLL 261650Z 26011KT 9999 FEW020 09/05 Q1034 NOSIG=
200801261620 METAR EGLL 261620Z 26011KT 9999 FEW020 10/05 Q1034 NOSIG=
200801261550 METAR EGLL 261550Z 25011KT 9999 FEW026 10/05 Q1033 NOSIG=
200801261520 METAR COR EGLL 261520Z 25015KT CAVOK 11/05 Q1033 NOSIG=
200801261450 METAR COR EGLL 261450Z 26011KT CAVOK 11/05 Q1033 NOSIG=
200801261420 METAR COR EGLL 261420Z 26013KT CAVOK 12/05 Q1033 NOSIG=
200801261350 METAR COR EGLL 261350Z 26014G24KT CAVOK 12/05 Q1034 NOSIG=
200801261320 METAR EGLL 261320Z 26016KT CAVOK 11/05 Q1034 NOSIG=
200801261250 METAR COR EGLL 261250Z 26015KT CAVOK 10/05 Q1034 TEMPO 26017G27KT=
200801261220 METAR COR EGLL 261220Z 26017KT 9999 FEW022 10/05 Q1034 NOSIG=
200801261150 METAR COR EGLL 261150Z 25018KT 9999 FEW021 10/05 Q1034 NOSIG=
200801261120 METAR EGLL 261120Z 26015KT 9999 FEW021 09/05 Q1035 NOSIG=
200801261050 METAR COR EGLL 261050Z 25015KT CAVOK 09/05 Q1035 NOSIG=
200801261020 METAR EGLL 261020Z 25015KT CAVOK 08/04 Q1035 NOSIG=
200801260950 METAR COR EGLL 260950Z 25014KT CAVOK 07/04 Q1035 NOSIG=
200801260920 METAR COR EGLL 260920Z 25015KT 9999 FEW022 07/04 Q1035 NOSIG=
200801260850 METAR COR EGLL 260850Z 27015KT CAVOK 07/04 Q1035 NOSIG=
200801260820 METAR COR EGLL 260820Z 26015KT CAVOK 07/04 Q1035 NOSIG=
200801260750 METAR COR EGLL 260750Z 25015KT CAVOK 07/04 Q1034 NOSIG=
200801260720 METAR EGLL 260720Z 24015KT CAVOK 07/04 Q1034 NOSIG=
200801260650 METAR COR EGLL 260650Z 25012KT CAVOK 06/04 Q1034 NOSIG=
200801260620 METAR COR EGLL 260620Z 23012KT CAVOK 06/04 Q1033 NOSIG=
200801260550 METAR COR EGLL 260550Z 23011KT CAVOK 06/04 Q1034 NOSIG=
200801260520 METAR COR EGLL 260520Z 24010KT CAVOK 06/04 Q1034 NOSIG=
200801260450 METAR COR EGLL 260450Z 24013KT CAVOK 07/04 Q1034 NOSIG=
200801260420 METAR EGLL 260420Z 25012KT CAVOK 07/04 Q1035=
200801260350 METAR EGLL 260350Z 24009KT CAVOK 07/04 Q1035 NOSIG=
200801260320 METAR EGLL 260320Z NIL=
200801260250 METAR EGLL 260250Z 24010KT CAVOK 07/04 Q1035 NOSIG=
200801260220 METAR EGLL 260220Z AUTO 23010KT 9999NDV NCD 07/04 Q1035=
200801260150 METAR COR EGLL 260150Z AUTO 24011KT 9999NDV FEW022/// 07/04
                        Q1035=
200801260120 METAR EGLL 260120Z AUTO 24011KT 9999NDV BKN022/// 08/04 Q1035=
200801260050 METAR COR EGLL 260050Z 23012KT 9999 FEW022 08/04 Q1035 NOSIG=
200801260020 METAR COR EGLL 260020Z 23011KT 9999 SCT024 08/04 Q1035 NOSIG=
200801252350 METAR EGLL 252350Z 23012KT 9999 BKN025 08/04 Q1036 NOSIG=
200801252320 METAR EGLL 252320Z 22009KT 180V260 9999 BKN023 08/04 Q1035
                        NOSIG=
200801252250 METAR COR EGLL 252250Z 23011KT 9999 SCT024 08/04 Q1035 NOSIG=
200801252220 METAR COR EGLL 252220Z 23010KT 9999 BKN024 09/04 Q1035 NOSIG=
200801252150 METAR EGLL 252150Z 25012KT 9999 BKN025 09/04 Q1035 NOSIG=
200801252120 METAR COR EGLL 252120Z 25014KT 9999 BKN026 09/04 Q1035 NOSIG=
200801252050 METAR COR EGLL 252050Z 25015KT 9999 BKN028 10/04 Q1036 NOSIG=
200801252020 METAR COR EGLL 252020Z 26016KT 9999 BKN029 09/04 Q1035 NOSIG=
200801251950 METAR COR EGLL 251950Z 26017KT 9999 BKN029 10/04 Q1035 NOSIG=
200801251920 METAR COR EGLL 251920Z 26018KT 9999 BKN030 10/04 Q1035 NOSIG=
200801251850 METAR COR EGLL 251850Z 26018KT 9999 BKN031 10/04 Q1035 NOSIG=
200801251820 METAR EGLL 251820Z 26017KT 9999 BKN032 10/04 Q1035 NOSIG=
200801251750 METAR COR EGLL 251750Z 25015KT 9999 BKN032 10/04 Q1035 NOSIG=
200801251720 METAR COR EGLL 251720Z 25011KT 9999 SCT032 10/04 Q1035 NOSIG=
200801251650 METAR COR EGLL 251650Z 25015KT 9999 SCT033 10/04 Q1035 NOSIG=
200801251620 METAR COR EGLL 251620Z 25016KT 9999 SCT033 10/04 Q1035 TEMPO
                        25018G28KT=
200801251550 METAR COR EGLL 251550Z 26019KT 9999 BKN033 10/04 Q1035 TEMPO
                        25018G28KT=
200801251520 METAR COR EGLL 251520Z 25018KT 9999 BKN033 11/04 Q1035 TEMPO
                        25018G28KT=
200801251450 METAR COR EGLL 251450Z 25016KT 9999 BKN033 11/04 Q1035 TEMPO
                        25018G28KT=
200801251420 METAR EGLL 251420Z 25016KT 9999 FEW030 BKN039 11/04 Q1035
                        TEMPO 25022G32KT=
200801251350 METAR COR EGLL 251350Z 24015KT 9999 FEW028 SCT034 11/04 Q1036
                        TEMPO 25022G32KT=
200801251320 METAR COR EGLL 251320Z 25017KT 9999 FEW031 SCT035 11/04 Q1036
                        TEMPO 25022G32KT=
200801251250 METAR COR EGLL 251250Z 24017KT 9999 FEW028 SCT036 11/04 Q1036
                        TEMPO 25022G32KT=
200801251220 METAR EGLL 251220Z 25015KT 9999 FEW028 SCT034 11/04 Q1036
                        TEMPO 25022G32KT=
200801251150 METAR COR EGLL 251150Z 25019KT 9999 SCT027 BKN031 10/04 Q1036
                        TEMPO 25022G32KT=
200801251120 METAR COR EGLL 251120Z 25018KT 9999 SCT029 11/04 Q1036 TEMPO
                        25022G32KT=
200801251050 METAR COR EGLL 251050Z 25021KT CAVOK 10/04 Q1036 TEMPO 25022G32KT=
200801251020 METAR COR EGLL 251020Z 24017KT 9999 FEW020 09/04 Q1036 TEMPO
                        25022G32KT=
200801250950 METAR EGLL 250950Z 24019KT CAVOK 08/04 Q1036 TEMPO 25022G32KT=
200801250920 METAR COR EGLL 250920Z 23016KT CAVOK 08/03 Q1036 TEMPO 25022G32KT=
200801250850 METAR COR EGLL 250850Z 24021KT CAVOK 08/03 Q1036 TEMPO 25020G30KT=
200801250820 METAR EGLL 250820Z 23018KT CAVOK 07/03 Q1036 TEMPO 24018G28KT=
200801250750 METAR COR EGLL 250750Z 23016KT CAVOK 08/03 Q1036 TEMPO 25018G28KT=
200801250720 METAR EGLL 250720Z 23015KT CAVOK 07/03 Q1036 NOSIG=
200801250650 METAR EGLL 250650Z 23015KT CAVOK 06/03 Q1036 NOSIG=
200801250620 METAR COR EGLL 250620Z 23012KT CAVOK 06/02 Q1036 NOSIG=
200801250550 METAR COR EGLL 250550Z 21008KT CAVOK 05/02 Q1036 NOSIG=
200801250520 METAR COR EGLL 250520Z 21007KT CAVOK 05/02 Q1037 NOSIG=
200801250450 METAR COR EGLL 250450Z 22008KT 190V270 CAVOK 04/02 Q1036
                        NOSIG=
200801250420 METAR EGLL 250420Z 23008KT CAVOK 04/01 Q1036=
200801250350 METAR EGLL 250350Z 20006KT CAVOK 04/01 Q1036 NOSIG=
200801250320 METAR COR EGLL 250320Z 21007KT CAVOK 04/01 Q1036 NOSIG=
200801250250 METAR EGLL 250250Z 21007KT CAVOK 04/01 Q1037=
200801250220 METAR EGLL 250220Z AUTO 21007KT 9999NDV NCD 04/01 Q1036=
200801250150 METAR EGLL 250150Z AUTO 22006KT 9999NDV NCD 04/00 Q1036=
200801250120 METAR EGLL 250120Z AUTO 21006KT 9999NDV NCD 04/00 Q1036=
200801250050 METAR COR EGLL 250050Z 21006KT CAVOK 04/00 Q1037 NOSIG=
200801250020 METAR COR EGLL 250020Z 24007KT CAVOK 04/00 Q1037 NOSIG=
200801242350 METAR COR EGLL 242350Z 23006KT CAVOK 04/00 Q1036 NOSIG=
200801242320 METAR COR EGLL 242320Z 23008KT CAVOK 04/00 Q1036 NOSIG=
200801242250 METAR EGLL 242250Z 23007KT 190V310 CAVOK 04/00 Q1036 NOSIG=
200801242220 METAR EGLL 242220Z 25011KT CAVOK 06/00 Q1036=
200801242150 METAR COR EGLL 242150Z 26013KT CAVOK 06/M00 Q1036 NOSIG=
200801242120 METAR EGLL 242120Z 27011KT CAVOK 06/M00 Q1036 NOSIG=
200801242050 METAR EGLL 242050Z 26011KT CAVOK 06/M00 Q1036 NOSIG=
200801242020 METAR COR EGLL 242020Z 25011KT CAVOK 06/M01 Q1035 NOSIG=
200801241950 METAR EGLL 241950Z 26011KT CAVOK 06/M01 Q1035 NOSIG=
200801241920 METAR EGLL 241920Z 26011KT CAVOK 07/M01 Q1035 NOSIG=
200801241850 METAR COR EGLL 241850Z 27010KT CAVOK 06/M01 Q1034 NOSIG=
200801241820 METAR COR EGLL 241820Z 27008KT CAVOK 07/M01 Q1034 NOSIG=
200801241750 METAR EGLL 241750Z 28008KT CAVOK 06/M01 Q1033 NOSIG=
200801241720 METAR EGLL 241720Z 27009KT CAVOK 06/M02 Q1032 NOSIG=
200801241650 METAR EGLL 241650Z 29008KT CAVOK 08/M02 Q1032 NOSIG=
200801241620 METAR COR EGLL 241620Z 28012KT CAVOK 08/M02 Q1031 NOSIG=
200801241550 METAR COR EGLL 241550Z 29012KT CAVOK 09/M02 Q1030 NOSIG=
200801241520 METAR COR EGLL 241520Z 29011KT CAVOK 09/M03 Q1030 NOSIG=
200801241450 METAR EGLL 241450Z 29014KT 9999 FEW042 10/M01 Q1029 TEMPO
                        28016G26KT=
200801241420 METAR EGLL 241420Z 29011KT 9999 FEW036 10/M01 Q1029 NOSIG=
200801241350 METAR COR EGLL 241350Z 29012KT 9999 FEW042 10/00 Q1028 TEMPO
                        28016G26KT=
200801241320 METAR COR EGLL 241320Z 29012KT 9999 FEW035 10/00 Q1028 TEMPO
                        29015G25KT=
200801241250 METAR EGLL 241250Z 30011KT 9999 FEW037 10/03 Q1028 TEMPO
                        28016G26KT=
200801241220 METAR COR EGLL 241220Z 29011KT 9999 SCT033 11/03 Q1027 TEMPO
                        28016G26KT=
200801241150 METAR EGLL 241150Z 29014KT 9999 SCT034 11/03 Q1027 TEMPO
                        28016G26KT=
200801241120 METAR EGLL 241120Z 28014KT 9999 FEW034 11/05 Q1027 TEMPO
                        28016G26KT=
200801241050 METAR COR EGLL 241050Z 27014KT 9999 FEW020 10/05 Q1026 TEMPO
                        28016G26KT=
200801241020 METAR EGLL 241020Z 27014KT 9999 FEW020 11/06 Q1026=
200801240950 METAR COR EGLL 240950Z 26011KT 9999 FEW043 11/07 Q1025 TEMPO
                        28016G26KT=
200801240920 METAR COR EGLL 240920Z 26013KT 9999 FEW036 11/07 Q1025 TEMPO
                        28016G26KT=
200801240850 METAR EGLL 240850Z 26013KT 9999 FEW036 11/07 Q1024 TEMPO
                        28016G26KT=
200801240820 METAR EGLL 240820Z 26012KT 9999 SCT035 11/08 Q1024 NOSIG=
200801240750 METAR EGLL 240750Z 26013KT 9999 SCT031 11/08 Q1023 NOSIG=
200801240720 METAR COR EGLL 240720Z 24011KT 9000 SCT021 SCT024 11/08 Q1023
                        NOSIG=
200801240650 METAR EGLL 240650Z 24014KT 9999 SCT012 SCT026 11/09 Q1023
                        NOSIG=
200801240620 METAR COR EGLL 240620Z 23011KT 9999 FEW013 SCT026 11/09 Q1022
                        NOSIG=
200801240550 METAR EGLL 240550Z 22011KT 9999 SCT012 11/09 Q1022 TEMPO
                        BKN012=
200801240520 METAR COR EGLL 240520Z 22009KT 9000 BKN009 11/09 Q1022 BECMG
                        BKN016=
200801240450 METAR EGLL 240450Z 22011KT 190V260 8000 BKN010 11/09 Q1022
                        TEMPO BKN007=
200801240420 METAR COR EGLL 240420Z 22013KT 9000 BKN011 BKN018 11/09 Q1022
                        TEMPO BKN008=
200801240350 METAR COR EGLL 240350Z 23014KT 9000 BKN013 BKN017 11/09 Q1022
                        NOSIG=
200801240320 METAR COR EGLL 240320Z 22015KT 9000 BKN013 11/09 Q1022 NOSIG=
200801240250 METAR COR EGLL 240250Z 22014KT 8000 BKN014 BKN021 11/09 Q1022
                        NOSIG=
200801240220 METAR EGLL 240220Z AUTO 22015KT 8000NDV BKN022/// 11/08 Q1022=
200801240150 METAR EGLL 240150Z AUTO 22014KT 7000NDV FEW019/// BKN022///
                        11/08 Q1022=
200801240120 METAR EGLL 240120Z AUTO 22014KT 7000NDV BKN016/// BKN024///
                        11/08 Q1022=
200801240050 METAR COR EGLL 240050Z 22013KT 7000 BKN015 BKN027 11/08 Q1022
                        TEMPO BKN012=
200801240020 METAR EGLL 240020Z 22011KT 7000 BKN017 11/08 Q1023 NOSIG=
200801232350 METAR EGLL 232350Z 22011KT 8000 BKN016 BKN022 11/08 Q1023
                        NOSIG=
200801232320 METAR COR EGLL 232320Z 23014KT 8000 BKN016 12/08 Q1023 TEMPO
                        BKN012=
200801232250 METAR EGLL 232250Z 22013KT 8000 BKN015 11/08 Q1023 TEMPO
                        BKN012=
200801232220 METAR EGLL 232220Z 22012KT 9000 BKN014 12/08 Q1023=
200801232150 METAR EGLL 232150Z 22014KT 9999 BKN015 12/09 Q1023 TEMPO
                        BKN012=
200801232120 METAR COR EGLL 232120Z 22016KT 9999 FEW015 BKN022 12/09 Q1023
                        NOSIG=
200801232050 METAR COR EGLL 232050Z 22013KT 9000 BKN016 12/08 Q1023 TEMPO
                        BKN014=
200801232020 METAR COR EGLL 232020Z 22013KT 8000 BKN015 12/08 Q1023 TEMPO
                        BKN012=
200801231950 METAR COR EGLL 231950Z 23015KT 8000 BKN016 12/08 Q1023 NOSIG=
200801231920 METAR COR EGLL 231920Z 23014KT 8000 BKN018 12/08 Q1023 NOSIG=
200801231850 METAR COR EGLL 231850Z 23016KT 7000 BKN019 12/08 Q1023 TEMPO
                        BKN014=
200801231820 METAR EGLL 231820Z 23016KT 7000 OVC020 12/08 Q1023=
200801231750 METAR EGLL 231750Z 24015KT 7000 OVC020 12/08 Q1023 NOSIG=
200801231720 METAR COR EGLL 231720Z 23015KT 8000 BKN020 13/08 Q1023 NOSIG=
200801231650 METAR EGLL 231650Z 24015KT 9000 BKN020 12/08 Q1023 NOSIG=
200801231620 METAR COR EGLL 231620Z 24013KT 9999 BKN021 13/08 Q1023 NOSIG=
200801231550 METAR COR EGLL 231550Z 24014KT 9999 BKN023 13/09 Q1023 NOSIG=
200801231520 METAR EGLL 231520Z 23014KT 9999 BKN020 13/09 Q1023 NOSIG=
200801231450 METAR COR EGLL 231450Z 24013KT 9999 FEW015 BKN019 13/09 Q1023
                        TEMPO BKN014=
200801231420 METAR COR EGLL 231420Z 23013KT 9999 SCT017 BKN025 13/09 Q1024
                        NOSIG=
200801231350 METAR COR EGLL 231350Z 24012KT 9999 FEW014 BKN018 13/10 Q1024
                        NOSIG=
200801231320 METAR COR EGLL 231320Z 24013KT 9999 FEW013 BKN019 13/10 Q1024
                        NOSIG=
200801231250 METAR EGLL 231250Z 23015KT 9999 BKN015 13/09 Q1024 BECMG
                        BKN012=
200801231220 METAR EGLL 231220Z 23011KT 9999 BKN018 13/09 Q1024 NOSIG=
200801231150 METAR EGLL 231150Z 23012KT 9999 BKN019 13/09 Q1024=
200801231120 METAR EGLL 231120Z 21010KT 9000 SCT020 BKN024 13/09 Q1025
                        NOSIG=
200801231050 METAR COR EGLL 231050Z 21009KT 9000 FEW021 BKN024 12/09 Q1025
                        NOSIG=
200801231020 METAR EGLL 231020Z 21009KT 9000 BKN025 12/08 Q1025=
200801230950 METAR COR EGLL 230950Z 21009KT 180V240 8000 BKN026 11/08
                        Q1025 NOSIG=
200801230920 METAR COR EGLL 230920Z 21009KT 170V250 8000 SCT028 11/08
                        Q1025 NOSIG=
200801230850 METAR EGLL 230850Z 23011KT 8000 FEW016 SCT028 11/08 Q1025
                        NOSIG=
200801230820 METAR COR EGLL 230820Z 22010KT 8000 FEW015 SCT027 10/08 Q1025
                        NOSIG=
200801230750 METAR COR EGLL 230750Z 21009KT 180V260 8000 SCT026 10/08
                        Q1024 NOSIG=
200801230720 METAR EGLL 230720Z 21009KT 190V250 8000 BKN027 10/08 Q1024
                        NOSIG=
200801230650 METAR COR EGLL 230650Z 21009KT 8000 SCT028 10/08 Q1024 NOSIG=
200801230620 METAR COR EGLL 230620Z 22007KT 190V270 9000 BKN025 10/08
                        Q1024 NOSIG=
200801230550 METAR EGLL 230550Z 23010KT 9000 NSC 10/08 Q1024 NOSIG=
200801230520 METAR COR EGLL 230520Z 23010KT 9999 FEW016 10/08 Q1024 NOSIG=
200801230450 METAR COR EGLL 230450Z 23012KT 9999 FEW026 11/08 Q1024 NOSIG=
200801230420 METAR EGLL 230420Z 23009KT 9999 SCT027 10/09 Q1025 NOSIG=
200801230350 METAR EGLL 230350Z 21006KT CAVOK 10/09 Q1024 NOSIG=
200801230320 METAR COR EGLL 230320Z 20006KT 7000 NSC 10/09 Q1024 TEMPO
                        BKN014=
200801230250 METAR EGLL 230250Z 21007KT 4800 HZ OVC005 10/09 Q1025 TEMPO
                        BKN004=
200801230220 METAR EGLL 230220Z AUTO 20009KT 3100NDV HZ OVC005/// 10/09
                        Q1025=
200801230150 METAR EGLL 230150Z AUTO 20009KT 7000NDV OVC006/// 09/08 Q1025=
200801230120 METAR EGLL 230120Z AUTO 19009KT 8000NDV OVC006/// 09/08 Q1025=
200801230050 METAR EGLL 230050Z 19011KT 9000 BKN008 09/07 Q1026 TEMPO
                        BKN012=
200801230020 METAR EGLL 230020Z 19010KT 6000 BKN007 09/07 Q1026 TEMPO
                        BKN012=
200801222350 METAR EGLL 222350Z 20011KT 9999 BKN009 BKN012 09/07 Q1026
                        TEMPO BKN016=
200801222320 METAR EGLL 222320Z 19011KT 9999 BKN013 09/06 Q1026 NOSIG=
200801222250 METAR COR EGLL 222250Z 19011KT 9999 BKN016 09/06 Q1026 TEMPO
                        BKN014=
200801222220 METAR COR EGLL 222220Z 19011KT 9999 BKN020 09/06 Q1027 NOSIG=
200801222150 METAR COR EGLL 222150Z 21008KT 9999 SCT014 BKN022 08/05 Q1027
                        TEMPO BKN014=
200801222120 METAR COR EGLL 222120Z 21009KT 180V240 9999 BKN015 OVC028
                        08/05 Q1027 TEMPO BKN012=
200801222050 METAR COR EGLL 222050Z 20010KT 9999 BKN015 08/04 Q1027 TEMPO
                        BKN012=
200801222020 METAR COR EGLL 222020Z 19009KT 160V230 9999 BKN016 08/04
                        Q1027 TEMPO BKN014=
200801221950 METAR COR EGLL 221950Z 19010KT 180V250 9999 BKN018 07/04
                        Q1027 NOSIG=
200801221920 METAR EGLL 221920Z 20008KT 9999 SCT019 BKN042 07/03 Q1027
                        NOSIG=
200801221850 METAR COR EGLL 221850Z 20007KT 170V230 9999 SCT020 BKN044
                        06/03 Q1027 NOSIG=
200801221820 METAR COR EGLL 221820Z 20007KT 160V230 CAVOK 06/02 Q1027
                        NOSIG=
200801221750 METAR EGLL 221750Z 19009KT CAVOK 06/02 Q1027 NOSIG=
200801221720 METAR COR EGLL 221720Z 20009KT CAVOK 07/02 Q1027 NOSIG=
200801221650 METAR COR EGLL 221650Z 20009KT CAVOK 07/02 Q1027 NOSIG=
200801221620 METAR COR EGLL 221620Z 20009KT CAVOK 08/02 Q1027 NOSIG=
200801221550 METAR EGLL 221550Z 21008KT CAVOK 08/02 Q1027 NOSIG=
200801221520 METAR EGLL 221520Z 21009KT CAVOK 08/01 Q1027 NOSIG=
200801221450 METAR EGLL 221450Z 22008KT CAVOK 08/01 Q1027 NOSIG=
200801221420 METAR EGLL 221420Z 21007KT CAVOK 08/01 Q1027 NOSIG=
200801221350 METAR COR EGLL 221350Z 21007KT 170V260 CAVOK 08/01 Q1027
                        NOSIG=
200801221320 METAR EGLL 221320Z 22006KT 170V260 CAVOK 08/01 Q1027 NOSIG=
200801221250 METAR EGLL 221250Z 20005KT 150V230 CAVOK 07/01 Q1027 NOSIG=
200801221220 METAR EGLL 221220Z 18005KT 140V250 CAVOK 07/01 Q1027 NOSIG=
200801221150 METAR EGLL 221150Z 22006KT 200V260 CAVOK 07/02 Q1027 NOSIG=
200801221120 METAR COR EGLL 221120Z VRB02KT CAVOK 07/02 Q1027 NOSIG=
200801221050 METAR COR EGLL 221050Z VRB03KT CAVOK 06/02 Q1027 NOSIG=
200801221020 METAR COR EGLL 221020Z 30004KT CAVOK 06/02 Q1026 NOSIG=
200801220950 METAR COR EGLL 220950Z 29006KT CAVOK 04/02 Q1026 NOSIG=
200801220920 METAR COR EGLL 220920Z 29005KT CAVOK 04/02 Q1025 NOSIG=
200801220850 METAR EGLL 220850Z 32004KT CAVOK 04/01 Q1025 NOSIG=
200801220820 METAR EGLL 220820Z 30004KT CAVOK 04/01 Q1024 NOSIG=
200801220750 METAR COR EGLL 220750Z 30004KT CAVOK 04/01 Q1024 NOSIG=
200801220720 METAR EGLL 220720Z 30004KT CAVOK 04/01 Q1023 NOSIG=
200801220650 METAR EGLL 220650Z 30004KT CAVOK 04/01 Q1023 NOSIG=
200801220620 METAR EGLL 220620Z 29006KT CAVOK 04/01 Q1023 NOSIG=
200801220550 METAR COR EGLL 220550Z 29005KT CAVOK 04/01 Q1022 NOSIG=
200801220520 METAR COR EGLL 220520Z 30005KT CAVOK 04/02 Q1021 NOSIG=
200801220450 METAR COR EGLL 220450Z 31005KT 280V340 CAVOK 04/02 Q1020
                        NOSIG=
200801220420 METAR EGLL 220420Z 30006KT CAVOK 05/02 Q1019 NOSIG=
200801220350 METAR EGLL 220350Z 32006KT 290V350 9999 SCT025 05/02 Q1019=
200801220320 METAR EGLL 220320Z 34006KT 310V020 9999 BKN022 06/02 Q1018
                        NOSIG=
200801220250 METAR COR EGLL 220250Z 34007KT 310V020 9999 SCT020 BKN027
                        06/02 Q1017 NOSIG=
200801220220 METAR EGLL 220220Z AUTO 34009KT 310V010 9999NDV OVC017///
                        06/03 Q1016=
200801220150 METAR EGLL 220150Z AUTO 34007KT 310V010 9999NDV OVC015///
                        06/04 Q1015=
200801220120 METAR EGLL 220120Z AUTO 35011KT 310V020 9999NDV -DZ SCT013///
                        BKN019/// 06/04 Q1014=
200801220050 METAR COR EGLL 220050Z 33013KT 9999 FEW015 BKN020 07/04 Q1012
                        TEMPO BKN010=
200801220020 METAR EGLL 220020Z 31014KT 9999 SCT021 BKN027 07/03 Q1011=
200801212350 METAR EGLL 212350Z 30014KT 9999 BKN026 08/03 Q1010 TEMPO
                        BKN012=
200801212320 METAR EGLL 212320Z 29016KT 9999 BKN029 09/03 Q1009 TEMPO
                        BKN012=
200801212250 METAR EGLL 212250Z 30017KT 9999 FEW023 SCT031 BKN046 09/03
                        Q1008 NOSIG=
200801212220 METAR COR EGLL 212220Z 27018G28KT 9999 FEW027 SCT038 11/06
                        Q1006 BECMG 33015G25KT=
200801212150 METAR EGLL 212150Z 27017KT 9999 FEW035 11/06 Q1005=
200801212120 METAR COR EGLL 212120Z 25018KT 9999 SCT046 11/06 Q1005 NOSIG=
200801212050 METAR COR EGLL 212050Z 25018KT 9999 FEW048 11/06 Q1005 NOSIG=
200801212020 METAR COR EGLL 212020Z 25020KT 9999 FEW029 11/06 Q1005 NOSIG=
200801211950 METAR COR EGLL 211950Z 26021KT 9999 FEW029 SCT033 11/07 Q1005
                        NOSIG=
200801211920 METAR EGLL 211920Z 25022G34KT 9999 SCT029 11/06 Q1005 NOSIG=
200801211850 METAR COR EGLL 211850Z 26023KT 9999 BKN026 11/07 Q1006 NOSIG=
200801211820 METAR EGLL 211820Z 25023G34KT 9999 SCT032 11/06 Q1006=
200801211750 METAR EGLL 211750Z 25019G29KT 9999 FEW034 11/07 Q1006=
200801211720 METAR EGLL 211720Z 25021G33KT 9999 SCT027 BKN032 11/08 Q1006=
200801211650 METAR EGLL 211650Z 25017KT 7000 -SHRA FEW031 BKN036 12/08
                        Q1006=
200801211620 METAR EGLL 211620Z 26022KT 9999 FEW028 BKN034 12/08 Q1007=
200801211550 METAR EGLL 211550Z 25018KT 9999 FEW026 SCT034 12/08 Q1007=
200801211520 METAR EGLL 211520Z 26020KT 9999 SCT011 BKN025 12/08 Q1007=
200801211450 METAR EGLL 211450Z 26017KT 9999 FEW011 SCT022 12/09 Q1007
                        RERA=
200801211420 METAR EGLL 211420Z 25016KT 4000 RA SCT009 BKN013 12/10 Q1007=
200801211350 METAR COR EGLL 211350Z 23017KT 6000 -DZ BKN016 12/09 Q1008
                        TEMPO BKN012=
200801211320 METAR EGLL 211320Z 23018KT 9000 -RA BKN014 12/09 Q1008 NOSIG=
200801211250 METAR EGLL 211250Z 22017G28KT 9999 FEW013 BKN015 11/09 Q1009
                        TEMPO BKN012=
200801211220 METAR EGLL 211220Z 22016KT 9999 BKN015 11/09 Q1010 RERA TEMPO
                        BKN012=
200801211150 METAR COR EGLL 211150Z 22019G30KT 4900 RA BKN018 BKN028 12/08
                        Q1011 TEMPO BKN014=
200801211120 METAR COR EGLL 211120Z 22018G28KT 9999 BKN019 BKN028 12/08
                        Q1011 NOSIG=
200801211050 METAR EGLL 211050Z 22017KT 9999 SCT018 BKN031 12/07 Q1012
                        TEMPO 22018G30KT=
200801211020 METAR EGLL 211020Z 22015KT 9999 SCT019 SCT038 11/07 Q1013
                        NOSIG=
200801210950 METAR EGLL 210950Z 22017KT 9999 FEW018 BKN037 11/07 Q1013
                        NOSIG=
200801210920 METAR COR EGLL 210920Z 23018G28KT 9999 SCT020 BKN027 11/07
                        Q1014 NOSIG=
200801210850 METAR EGLL 210850Z 23015G27KT 9999 FEW019 SCT024 11/07 Q1014
                        NOSIG=
200801210820 METAR COR EGLL 210820Z 23017G28KT CAVOK 12/07 Q1014 NOSIG=
200801210750 METAR COR EGLL 210750Z 23018KT 9999 FEW020 12/07 Q1014 NOSIG=
200801210720 METAR EGLL 210720Z 24019KT 9999 SCT020 12/08 Q1015=
200801210650 METAR EGLL 210650Z 24016KT 9999 SCT020 SCT029 12/08 Q1015
                        NOSIG=
200801210620 METAR COR EGLL 210620Z 23016KT 9999 FEW020 SCT027 12/08 Q1016
                        NOSIG=
200801210550 METAR EGLL 210550Z 24016KT 9999 SCT018 BKN028 12/08 Q1016
                        NOSIG=
200801210520 METAR EGLL 210520Z 24016KT 9999 SCT019 BKN027 12/08 Q1016
                        NOSIG=
200801210450 METAR EGLL 210450Z 24014KT 9999 SCT017 BKN021 12/08 Q1016
                        NOSIG=
200801210420 METAR EGLL 210420Z 24014KT 9999 SCT016 BKN020 12/09 Q1017
                        NOSIG=
200801210350 METAR COR EGLL 210350Z 24014KT 9999 SCT015 BKN020 12/09 Q1017
                        TEMPO BKN014=
200801210320 METAR EGLL 210320Z 24015KT 9999 FEW014 BKN016 12/09 Q1017=
200801210250 METAR COR EGLL 210250Z 24015KT 9999 SCT013 12/09 Q1018 TEMPO
                        BKN013=
200801210220 METAR EGLL 210220Z AUTO 24013KT 9999NDV BKN011/// 12/09 Q1018=
200801210150 METAR EGLL 210150Z AUTO 23014KT 9999NDV OVC010/// 11/09 Q1018=
200801210120 METAR EGLL 210120Z AUTO 23014KT 9999NDV BKN012/// 12/09 Q1019=
200801210050 METAR COR EGLL 210050Z 24014KT 9999 BKN014 12/09 Q1019 NOSIG=
200801210020 METAR EGLL 210020Z 24013KT 9999 BKN014 12/09 Q1019=
200801202350 METAR COR EGLL 202350Z 23013KT 9999 SCT014 12/09 Q1019 TEMPO
                        BKN014=
200801202320 METAR COR EGLL 202320Z 23012KT 9999 BKN014 12/09 Q1019 NOSIG=
200801202250 METAR EGLL 202250Z 24014KT 9999 BKN015 13/09 Q1019 BECMG
                        BKN012=
200801202220 METAR COR EGLL 202220Z 24014KT 9999 BKN015 13/10 Q1019 BECMG
                        BKN012=
200801202150 METAR COR EGLL 202150Z 24014KT 9999 BKN016 13/09 Q1019 TEMPO
                        BKN014=
200801202120 METAR EGLL 202120Z 25015KT 9999 BKN017 13/09 Q1019 TEMPO
                        BKN014=
200801202050 METAR EGLL 202050Z 24016KT 9999 BKN015 13/09 Q1019 TEMPO
                        BKN013=
200801202020 METAR COR EGLL 202020Z 24016KT 9999 BKN015 13/10 Q1019 TEMPO
                        BKN013=
200801201950 METAR COR EGLL 201950Z 24015KT 9999 BKN018 13/10 Q1019 TEMPO
                        BKN014=
200801201920 METAR EGLL 201920Z 23018KT 9999 SCT015 BKN037 13/10 Q1019
                        NOSIG=
200801201850 METAR COR EGLL 201850Z 24017KT 9999 BKN018 13/10 Q1019 NOSIG=
200801201820 METAR COR EGLL 201820Z 24015KT 9999 FEW016 BKN027 13/10 Q1019
                        NOSIG=
200801201750 METAR COR EGLL 201750Z 23014KT 9999 FEW014 SCT027 13/10 Q1019
                        NOSIG=
200801201720 METAR COR EGLL 201720Z 24015KT 9000 -DZ BKN015 BKN020 13/10
                        Q1020 TEMPO BKN012=
200801201650 METAR COR EGLL 201650Z 24015KT 9000 -DZ BKN014 BKN020 13/11
                        Q1020 NOSIG=
200801201620 METAR COR EGLL 201620Z 24014KT 9999 BKN012 BKN020 13/11 Q1020
                        NOSIG=
200801201550 METAR COR EGLL 201550Z 24017KT 9000 VCSH BKN012 BKN019 14/11
                        Q1020 BECMG SCT012=
200801201520 METAR COR EGLL 201520Z 24016KT 9999 5000NW VCSH BKN018 14/11
                        Q1020 NOSIG=
200801201450 METAR COR EGLL 201450Z 24015KT 9999 4800NE VCSH BKN015 14/11
                        Q1020 NOSIG=
200801201420 METAR COR EGLL 201420Z 24017KT 9999 BKN016 14/11 Q1020 NOSIG=
200801201350 METAR COR EGLL 201350Z 24019KT 9999 BKN018 14/11 Q1020 NOSIG=
200801201320 METAR COR EGLL 201320Z 24017KT 9999 BKN020 14/11 Q1020 TEMPO
                        24018G28KT=
200801201250 METAR EGLL 201250Z 24018KT 9999 BKN017 14/11 Q1020 TEMPO
                        24018G28KT=
200801201220 METAR EGLL 201220Z 24015KT 9999 BKN018 15/11 Q1020 NOSIG=
200801201150 METAR EGLL 201150Z 24017KT 9999 BKN018 15/11 Q1021 NOSIG=
200801201120 METAR COR EGLL 201120Z 24018G29KT 9999 FEW015 BKN017 14/11
                        Q1021 NOSIG=
200801201050 METAR COR EGLL 201050Z 25016KT 9999 BKN016 14/11 Q1021 NOSIG=
200801201020 METAR COR EGLL 201020Z 25017KT 9999 BKN015 14/11 Q1020 NOSIG=
200801200950 METAR COR EGLL 200950Z 24016KT 9999 BKN015 14/11 Q1020 NOSIG=
200801200920 METAR COR EGLL 200920Z 24016G26KT 9999 BKN016 14/11 Q1020
                        TEMPO BKN012=
200801200850 METAR EGLL 200850Z 24015KT 9999 BKN014 BKN025 14/11 Q1020
                        NOSIG=
200801200820 METAR EGLL 200820Z 24016KT 9999 SCT012 BKN014 13/11 Q1020=
200801200750 METAR COR EGLL 200750Z 24013KT 9999 BKN011 BKN014 13/11 Q1020
                        TEMPO 24018G30KT=
200801200720 METAR COR EGLL 200720Z 23015KT 9999 BKN010 13/11 Q1020 TEMPO
                        23018G30KT BKN015=
200801200650 METAR COR EGLL 200650Z 23016G27KT 9999 BKN013 BKN019 13/11
                        Q1019 NOSIG=
200801200620 METAR COR EGLL 200620Z 23015KT 9999 BKN017 13/11 Q1019 TEMPO
                        23018G30KT BKN014=
200801200550 METAR COR EGLL 200550Z 23016KT 9999 BKN019 14/10 Q1020 TEMPO
                        23018G30KT BKN014=
200801200520 METAR COR EGLL 200520Z 23014KT 9999 BKN017 14/10 Q1020 TEMPO
                        23018G28KT BKN014=
200801200450 METAR COR EGLL 200450Z 24015KT 9999 BKN019 BKN029 14/10 Q1020
                        TEMPO 24017G28KT BKN014=
200801200420 METAR COR EGLL 200420Z 24017KT 9999 BKN015 13/10 Q1020 TEMPO
                        24018G30KT BKN014=
200801200350 METAR COR EGLL 200350Z 24017KT 9999 BKN014 13/10 Q1020 TEMPO
                        24018G30KT -RADZ BKN009=
200801200320 METAR COR EGLL 200320Z 24016KT 9999 OVC015 13/10 Q1020 TEMPO
                        23018G30KT BKN012=
200801200250 METAR COR EGLL 200250Z 24016KT 9999 OVC015 13/10 Q1020 TEMPO
                        BKN012=
200801200220 METAR EGLL 200220Z AUTO 24017KT 9999NDV BKN015/// 13/10 Q1020=
200801200150 METAR EGLL 200150Z AUTO 23017KT 9999NDV BKN016/// 14/10 Q1020=
200801200120 METAR EGLL 200120Z AUTO 24019KT 9999NDV BKN017/// 14/10 Q1020=
200801200050 METAR COR EGLL 200050Z 23017KT 9999 BKN017 14/10 Q1020 TEMPO
                        BKN014=
200801200020 METAR EGLL 200020Z 24017KT 9999 BKN017 13/11 Q1020=
200801192350 METAR COR EGLL 192350Z 23018KT 9999 BKN017 BKN026 13/11 Q1020
                        TEMPO BKN014=
200801192320 METAR COR EGLL 192320Z 23018KT 9999 -RA BKN017 13/10 Q1020
                        TEMPO BKN014=
200801192250 METAR COR EGLL 192250Z 23015KT 9999 BKN018 BKN028 13/10 Q1020
                        TEMPO BKN014=
200801192220 METAR EGLL 192220Z 23016KT 9999 BKN018 14/10 Q1020=
200801192150 METAR COR EGLL 192150Z 23014KT 9999 BKN018 14/11 Q1020 TEMPO
                        BKN014=
200801192120 METAR COR EGLL 192120Z 22014KT 9999 FEW019 BKN025 14/11 Q1020
                        NOSIG=
200801192050 METAR COR EGLL 192050Z 23014KT 9999 FEW013 SCT018 BKN030
                        14/11 Q1020 TEMPO BKN012=
200801192020 METAR COR EGLL 192020Z 23015KT 9999 BKN012 14/11 Q1020 TEMPO
                        BKN015=
200801191950 METAR EGLL 191950Z 22013KT 9999 BKN013 14/11 Q1020 TEMPO
                        BKN016=
200801191920 METAR EGLL 191920Z 23015KT 9999 BKN013 14/11 Q1020 TEMPO
                        BKN016=
200801191850 METAR COR EGLL 191850Z 22013KT 9999 BKN014 14/11 Q1020 TEMPO
                        BKN016=
200801191820 METAR COR EGLL 191820Z 22013KT 9999 BKN016 14/11 Q1020 TEMPO
                        BKN014=
200801191750 METAR EGLL 191750Z NIL=
200801191720 METAR COR EGLL 191720Z 24015KT 9999 SCT014 BKN025 15/11 Q1020
                        TEMPO BKN014=
200801191650 METAR EGLL 191650Z 24014KT 9999 BKN015 14/11 Q1020 TEMPO
                        BKN013=
200801191620 METAR EGLL 191620Z 24014KT 9999 BKN014 14/11 Q1020 TEMPO
                        BKN016=
200801191550 METAR COR EGLL 191550Z 24015KT 9999 BKN015 14/11 Q1020 TEMPO
                        BKN012=
200801191520 METAR EGLL 191520Z 24016KT 9999 BKN016 15/11 Q1020=
200801191450 METAR COR EGLL 191450Z 24015KT 9999 BKN015 15/11 Q1019 TEMPO
                        BKN013=
200801191420 METAR COR EGLL 191420Z 24015KT 9999 BKN015 BKN019 15/11 Q1019
                        TEMPO BKN013=
200801191350 METAR EGLL 191350Z 24016KT 9999 BKN013 15/11 Q1019=
200801191320 METAR COR EGLL 191320Z 24014KT 9999 BKN013 14/11 Q1019 TEMPO
                        24015G25KT 4000 -DZ BKN009=
200801191250 METAR COR EGLL 191250Z 24014KT 9999 4500N BKN011 14/12 Q1019
                        TEMPO 24015G25KT 4500 DZ BKN009=
200801191220 METAR COR EGLL 191220Z 24014KT 9999 5000W BKN011 14/12 Q1019
                        TEMPO 24015G25KT 4000 DZ BKN009=
200801191150 METAR COR EGLL 191150Z 24015KT 9999 BKN011 14/12 Q1018 TEMPO
                        24017G27KT BKN009=
200801191120 METAR EGLL 191120Z 24015KT 9999 FEW010 BKN013 14/12 Q1018=
200801191050 METAR COR EGLL 191050Z 24018KT 9999 SCT011 SCT015 14/12 Q1018
                        TEMPO 24018G28KT BKN012=
200801191020 METAR COR EGLL 191020Z 24018G31KT 9999 SCT012 BKN016 14/11
                        Q1017 TEMPO BKN012=
200801190950 METAR COR EGLL 190950Z 24019KT 9999 SCT012 BKN016 14/11 Q1017
                        TEMPO 24018G28KT BKN012=
200801190920 METAR EGLL 190920Z 24019KT 9999 BKN013 14/11 Q1017=
200801190850 METAR EGLL 190850Z 24017KT 9999 BKN012 14/11 Q1016 TEMPO
                        24017G27KT=
200801190820 METAR EGLL 190820Z 24017KT 9999 BKN013 BKN016 13/11 Q1016
                        TEMPO 24017G27KT=
200801190750 METAR COR EGLL 190750Z 24018KT 9999 BKN012 13/11 Q1015 TEMPO
                        23018G28KT=
200801190720 METAR EGLL 190720Z 23017KT 9999 BKN013 13/11 Q1015 TEMPO
                        23017G28KT=
200801190650 METAR COR EGLL 190650Z 24018KT 9999 BKN014 13/11 Q1015 TEMPO
                        24018G30KT=
200801190620 METAR COR EGLL 190620Z 23017KT 9999 SCT015 BKN026 13/11 Q1015
                        BECMG BKN012=
200801190550 METAR COR EGLL 190550Z 24018KT 9999 BKN014 BKN022 13/11 Q1015
                        TEMPO BKN016=
200801190520 METAR COR EGLL 190520Z 23016KT 9999 BKN014 BKN021 13/11 Q1014
                        TEMPO BKN018=
200801190450 METAR EGLL 190450Z 24017KT 9999 BKN012 BKN018 13/11 Q1014
                        NOSIG=
200801190420 METAR COR EGLL 190420Z 24015KT 8000 BKN012 13/11 Q1014 NOSIG=
200801190350 METAR EGLL 190350Z 24017KT 9999 BKN013 14/11 Q1014 TEMPO
                        24017G27KT=
200801190320 METAR EGLL 190320Z 24016KT 9999 BKN014 14/11 Q1014=
200801190250 METAR COR EGLL 190250Z 23016KT 9999 BKN012 14/11 Q1014 TEMPO
                        23017G27KT=
200801190220 METAR EGLL 190220Z AUTO 23016KT 9999NDV BKN013/// 14/11 Q1014=
200801190150 METAR EGLL 190150Z AUTO 24017KT 9999NDV BKN013/// 13/11 Q1013=
200801190120 METAR EGLL 190120Z AUTO 24017KT 9999NDV BKN012/// 14/11 Q1013=
200801190050 METAR COR EGLL 190050Z 24018KT 9999 BKN013 13/11 Q1013 TEMPO
                        24018G28KT=
200801190020 METAR COR EGLL 190020Z 23017KT 9999 FEW010 BKN012 13/11 Q1012
                        TEMPO 23017G28KT -DZ BKN008=
200801182350 METAR COR EGLL 182350Z 23019KT 9999 BKN012 13/11 Q1012 TEMPO
                        23018G28KT 4000 -RADZ BKN008=
200801182320 METAR COR EGLL 182320Z 23017G28KT 9999 BKN010 13/11 Q1012
                        TEMPO 4000 DZ BKN008=
200801182250 METAR COR EGLL 182250Z 23017G27KT 7000 FEW008 BKN016 13/12
                        Q1012 TEMPO 4000 DZ BKN008=
200801182220 METAR COR EGLL 182220Z 23018KT 7000 -DZ SCT009 BKN013 13/12
                        Q1011 TEMPO 23018G28KT 4000 RADZ
                        BKN008=
200801182150 METAR COR EGLL 182150Z 23019KT 9999 SCT009 BKN013 13/11 Q1011
                        TEMPO 5000 -DZ BKN009=
200801182120 METAR COR EGLL 182120Z 23016KT 4800 -DZ BKN008 BKN013 13/12
                        Q1011 TEMPO RADZ=
200801182050 METAR COR EGLL 182050Z 23017KT 4800 DZ SCT008 BKN010 13/12
                        Q1011 BECMG 8000 -DZ=
200801182020 METAR COR EGLL 182020Z 23017KT 9000 -DZ FEW009 BKN013 14/11
                        Q1011 TEMPO 23017G27KT=
200801181950 METAR COR EGLL 181950Z 23018KT 7000 -DZ FEW009 BKN013 13/11
                        Q1010 TEMPO 23018G28KT 4500 DZ=
200801181920 METAR COR EGLL 181920Z 23017KT 9999 BKN013 BKN022 13/11 Q1010
                        TEMPO 23018G28KT=
200801181850 METAR EGLL 181850Z 23020KT 9999 SCT013 SCT019 BKN022 13/11
                        Q1010=
200801181820 METAR COR EGLL 181820Z 23020KT 9999 BKN013 BKN017 13/11 Q1010
                        TEMPO 23020G30KT=
200801181750 METAR COR EGLL 181750Z 23021KT 9999 BKN013 BKN019 14/11 Q1009
                        TEMPO 23020G30KT=
200801181720 METAR COR EGLL 181720Z 23020KT 9999 BKN012 BKN019 13/11 Q1009
                        TEMPO 23020G30KT=
200801181650 METAR COR EGLL 181650Z 24020KT 9999 BKN017 14/11 Q1009 TEMPO
                        24020G30KT BKN013=
200801181620 METAR EGLL 181620Z 24018KT 9999 BKN017 14/11 Q1009=
200801181550 METAR COR EGLL 181550Z 23018KT 9999 BKN013 BKN017 14/11 Q1009
                        TEMPO 23018G30KT SCT013=
200801181520 METAR EGLL 181520Z 23017KT 9999 SCT013 BKN017 14/11 Q1008
                        TEMPO 23018G30KT BKN013=
200801181450 METAR COR EGLL 181450Z 22019KT 9999 SCT013 BKN017 14/11 Q1008
                        TEMPO 23020G30KT BKN013=
200801181420 METAR COR EGLL 181420Z 23018KT 9999 SCT012 BKN018 14/11 Q1008
                        TEMPO 23020G30KT BKN012=
200801181350 METAR COR EGLL 181350Z 23016KT 9999 SCT014 BKN022 14/11 Q1008
                        TEMPO 23016G28KT BKN012=
200801181320 METAR COR EGLL 181320Z 23017KT 9999 FEW010 SCT014 BKN036
                        14/11 Q1008 TEMPO BKN012=
200801181250 METAR EGLL 181250Z 23016KT 9999 SCT011 BKN016 13/11 Q1008
                        TEMPO BKN012=
200801181220 METAR COR EGLL 181220Z 22014G24KT 9999 SCT009 BKN012 12/11
                        Q1008 NOSIG=
200801181150 METAR COR EGLL 181150Z 21013KT 190V250 9999 SCT006 BKN012
                        12/10 Q1008 TEMPO BKN008=
200801181120 METAR COR EGLL 181120Z 21015KT 7000 SCT006 BKN010 11/10 Q1009
                        TEMPO BKN008=
200801181050 METAR EGLL 181050Z 21013KT 4900 -DZ SCT006 BKN010 10/09 Q1009
                        TEMPO 6000 BKN008=
200801181020 METAR COR EGLL 181020Z 20014KT 180V240 6000 -DZ SCT008 BKN010
                        10/08 Q1009 TEMPO BKN008=
200801180950 METAR COR EGLL 180950Z 19012KT 4900 -RA SCT008 BKN013 09/08
                        Q1010 BECMG 7000=
200801180920 METAR COR EGLL 180920Z 19008KT 140V200 5000 -RA SCT008 BKN020
                        08/07 Q1010 BECMG BKN010=
200801180850 METAR COR EGLL 180850Z 19008KT 4500 -RA FEW015 BKN034 08/07
                        Q1010 RERA BECMG 6000 BKN012=
200801180820 METAR COR EGLL 180820Z 19009KT 170V240 4500 RA FEW041 BKN046
                        08/06 Q1011 BECMG 7000 -RA BKN014=
200801180750 METAR COR EGLL 180750Z 21009KT 7000 RA BKN049 08/06 Q1011
                        TEMPO -RA=
200801180720 METAR COR EGLL 180720Z 22011KT 8000 -RA NSC 08/06 Q1011 NOSIG=
200801180650 METAR COR EGLL 180650Z 22012KT 9999 -RA SCT048 08/05 Q1011
                        NOSIG=
200801180620 METAR COR EGLL 180620Z 22011KT CAVOK 08/05 Q1010 NOSIG=
200801180550 METAR COR EGLL 180550Z 24012KT 9000 NSC 08/05 Q1010 NOSIG=
200801180520 METAR COR EGLL 180520Z 24012KT 9000 NSC 08/05 Q1010 NOSIG=
200801180450 METAR COR EGLL 180450Z 24012KT 9000 NSC 08/05 Q1010 NOSIG=
200801180420 METAR EGLL 180420Z 25012KT CAVOK 08/05 Q1010=
200801180350 METAR EGLL 180350Z 26012KT CAVOK 08/04 Q1009=
200801180320 METAR COR EGLL 180320Z 25012KT CAVOK 08/05 Q1009 NOSIG=
200801180250 METAR EGLL 180250Z NIL=
200801180220 METAR EGLL 180220Z AUTO 25014KT 9999NDV NCD 09/05 Q1008=
200801180150 METAR EGLL 180150Z AUTO 26015KT 9999NDV NCD 09/05 Q1007=
200801180120 METAR EGLL 180120Z AUTO 26016KT 9999NDV NCD 09/05 Q1007=
200801180050 METAR COR EGLL 180050Z 26015KT CAVOK 09/05 Q1006 NOSIG=
200801180020 METAR EGLL 180020Z 26015KT CAVOK 09/05 Q1005=
200801172350 METAR COR EGLL 172350Z 26017KT CAVOK 10/05 Q1004 NOSIG=
200801172320 METAR COR EGLL 172320Z 27019KT 9999 SCT047 10/05 Q1003 NOSIG=
200801172250 METAR COR EGLL 172250Z 26016KT 9999 BKN047 10/06 Q1003 NOSIG=
200801172220 METAR EGLL 172220Z 26018KT 9000 BKN047 10/06 Q1002 NOSIG=
200801172150 METAR COR EGLL 172150Z 27017KT 8000 NSC 10/06 Q1001 NOSIG=
200801172120 METAR COR EGLL 172120Z 26018KT 8000 FEW032 09/06 Q1000 NOSIG=
200801172050 METAR COR EGLL 172050Z 25018G28KT 9000 FEW021 09/06 Q1000
                        NOSIG=
200801172020 METAR EGLL 172020Z 25019KT CAVOK 09/05 Q0999=
200801171950 METAR COR EGLL 171950Z 25016KT CAVOK 09/06 Q0998 NOSIG=
200801171920 METAR EGLL 171920Z 25016KT CAVOK 09/05 Q0998 TEMPO 26018G28KT=
200801171850 METAR EGLL 171850Z 25016KT CAVOK 09/05 Q0998 TEMPO 26018G28KT=
200801171820 METAR EGLL 171820Z 25017KT CAVOK 08/05 Q0998 TEMPO 26018G28KT=
200801171750 METAR COR EGLL 171750Z 25015KT CAVOK 08/05 Q0997 TEMPO 26017G28KT=
200801171720 METAR EGLL 171720Z 26017KT 9999 FEW037 08/05 Q0997 TEMPO
                        26018G28KT=
200801171650 METAR EGLL 171650Z 25016KT 9999 FEW015CB 09/05 Q0996 TEMPO
                        25018G28KT=
200801171620 METAR EGLL 171620Z 24015KT 9999 FEW021CB 09/06 Q0995 TEMPO
                        25018G28KT=
200801171550 METAR COR EGLL 171550Z 26026KT 6000 -SHRA FEW015CB BKN025
                        10/07 Q0996 RESHRA TEMPO 2000 +TSRA
                        BKN014CB=
200801171520 METAR EGLL 171520Z 23018KT 9999 SCT027 12/08 Q0995 TEMPO
                        25025G45KT 4000 +TSRA BKN014CB=
200801171450 METAR EGLL 171450Z 24020KT 9999 FEW028 13/08 Q0995 TEMPO
                        25025G35KT 4000 +SHRA BKN015CB=
200801171420 METAR EGLL 171420Z 23019KT 9999 SCT021 13/09 Q0995 TEMPO
                        25025G35KT 4000 +SHRA BKN015CB=
200801171350 METAR COR EGLL 171350Z 22015KT 9999 FEW021 12/09 Q0995 TEMPO
                        24018G28KT SHRA BKN015CB=
200801171320 METAR COR EGLL 171320Z 22016KT 9999 BKN014 BKN020 11/09 Q0996
                        TEMPO 24020G32KT 6000 SHRA BKN015CB=
200801171250 METAR EGLL 171250Z 20013KT 9999 BKN008 10/08 Q0996 BECMG
                        24018G28KT SCT012 BKN020=
200801171220 METAR EGLL 171220Z 21014KT 180V240 9999 SCT008 BKN010 09/08
                        Q0997 TEMPO 21018G28KT 4000 RADZ
                        BKN008=
200801171150 METAR COR EGLL 171150Z 20014KT 170V240 9999 FEW006 SCT010
                        09/08 Q0997 TEMPO 20018G28KT 4000
                        RADZ BKN006=
200801171120 METAR EGLL 171120Z 19017KT 160V230 5000 DZ BKN006 OVC010
                        09/07 Q0998 TEMPO 19020G30KT 4000=
200801171050 METAR EGLL 171050Z 19017KT 6000 DZ BKN007 09/07 Q0999 TEMPO
                        19020G30KT=
200801171020 METAR EGLL 171020Z 19016KT 9000 SCT008 BKN010 09/07 Q0999
                        TEMPO 4000 DZ BKN007=
200801170950 METAR COR EGLL 170950Z 19016G27KT 170V230 9000 SCT008 SCT015
                        08/07 Q1000 TEMPO 4500 DZ BKN007=
200801170920 METAR EGLL 170920Z 19015KT 9999 SCT008 BKN046 08/07 Q1000
                        TEMPO BKN008=
200801170850 METAR COR EGLL 170850Z 18010KT 160V220 9999 SCT011 07/06
                        Q1001 TEMPO BKN010=
200801170820 METAR EGLL 170820Z 16008KT 130V210 9999 FEW020 06/05 Q1001
                        NOSIG=
200801170750 METAR COR EGLL 170750Z 17008KT 140V210 9999 FEW021 04/03
                        Q1002 NOSIG=
200801170720 METAR EGLL 170720Z 18006KT 160V220 CAVOK 04/03 Q1003 NOSIG=
200801170650 METAR COR EGLL 170650Z 18006KT 140V230 CAVOK 03/03 Q1004
                        NOSIG=
200801170620 METAR COR EGLL 170620Z 18007KT 150V290 CAVOK 03/02 Q1004
                        NOSIG=
200801170550 METAR COR EGLL 170550Z 19007KT CAVOK 03/02 Q1004 NOSIG=
200801170520 METAR COR EGLL 170520Z 20005KT CAVOK 03/02 Q1004 NOSIG=
200801170450 METAR COR EGLL 170450Z 18004KT CAVOK 03/02 Q1004 NOSIG=
200801170420 METAR COR EGLL 170420Z 20005KT 9999 FEW020 03/02 Q1005 NOSIG=
200801170350 METAR COR EGLL 170350Z 18004KT 9999 FEW020 03/02 Q1005 NOSIG=
200801170320 METAR COR EGLL 170320Z 21005KT CAVOK 03/02 Q1005 NOSIG=
200801170250 METAR COR EGLL 170250Z 21004KT CAVOK 02/01 Q1005 NOSIG=
200801170220 METAR EGLL 170220Z AUTO 13003KT 5000NDV NCD 01/01 Q1004=
200801170150 METAR COR EGLL 170150Z AUTO VRB02KT 7000NDV NCD 02/01 Q1005=
200801170120 METAR EGLL 170120Z AUTO 00000KT 5000NDV NCD 02/01 Q1005=
200801170050 METAR EGLL 170050Z 00000KT 9000 NSC 02/01 Q1005 NOSIG=
200801170020 METAR COR EGLL 170020Z 18003KT 9000 NSC 02/01 Q1004 NOSIG=
200801162350 METAR EGLL 162350Z 00000KT 8000 NSC 02/01 Q1004 NOSIG=
200801162320 METAR COR EGLL 162320Z 28002KT 7000 NSC 03/02 Q1004 NOSIG=
200801162250 METAR EGLL 162250Z 00000KT 8000 NSC 04/02 Q1003 NOSIG=
200801162220 METAR EGLL 162220Z 30003KT 9000 NSC 05/03 Q1003 NOSIG=
200801162150 METAR COR EGLL 162150Z VRB02KT 9000 NSC 04/02 Q1003 NOSIG=
200801162120 METAR COR EGLL 162120Z 28004KT CAVOK 04/03 Q1003 NOSIG=
200801162050 METAR EGLL 162050Z 27004KT CAVOK 05/03 Q1002 NOSIG=
200801162020 METAR COR EGLL 162020Z 00000KT CAVOK 05/03 Q1002 NOSIG=
200801161950 METAR COR EGLL 161950Z 28003KT CAVOK 05/03 Q1001 NOSIG=
200801161920 METAR COR EGLL 161920Z 26004KT CAVOK 06/03 Q1001 NOSIG=
200801161850 METAR EGLL 161850Z 28004KT CAVOK 06/04 Q1000 NOSIG=
200801161820 METAR COR EGLL 161820Z 00000KT CAVOK 06/03 Q0999 NOSIG=
200801161750 METAR COR EGLL 161750Z VRB02KT CAVOK 07/04 Q0999 NOSIG=
200801161720 METAR COR EGLL 161720Z 16004KT 110V270 9999 FEW025 07/04
                        Q0998 NOSIG=
200801161650 METAR EGLL 161650Z 13005KT CAVOK 08/04 Q0997 NOSIG=
200801161620 METAR EGLL 161620Z VRB02KT 9999 FEW025 08/03 Q0997 NOSIG=
200801161550 METAR EGLL 161550Z VRB02KT 9999 FEW025 08/03 Q0996 NOSIG=
200801161520 METAR EGLL 161520Z VRB02KT 9999 FEW025 09/03 Q0996 NOSIG=
200801161450 METAR EGLL 161450Z 28003KT 9999 FEW025 10/04 Q0995 NOSIG=
200801161420 METAR COR EGLL 161420Z 27006KT 230V290 9999 FEW023 10/04
                        Q0995 NOSIG=
200801161350 METAR EGLL 161350Z 26006KT CAVOK 09/04 Q0994 NOSIG=
200801161320 METAR EGLL 161320Z 27005KT 230V310 CAVOK 08/03 Q0994 NOSIG=
200801161250 METAR COR EGLL 161250Z 27008KT CAVOK 08/04 Q0993 NOSIG=
200801161220 METAR COR EGLL 161220Z 27008KT CAVOK 08/04 Q0993 NOSIG=
200801161150 METAR COR EGLL 161150Z 27008KT CAVOK 07/04 Q0993 NOSIG=
200801161120 METAR COR EGLL 161120Z 27010KT 9999 FEW028 08/04 Q0992 NOSIG=
200801161050 METAR COR EGLL 161050Z 25010KT 9999 FEW018 08/04 Q0992 NOSIG=
200801161020 METAR COR EGLL 161020Z 25009KT CAVOK 07/04 Q0991 NOSIG=
200801160950 METAR COR EGLL 160950Z 24008KT CAVOK 06/04 Q0991 NOSIG=
200801160920 METAR EGLL 160920Z 24009KT 9999 FEW030 06/04 Q0990 NOSIG=
200801160850 METAR COR EGLL 160850Z 22008KT 9999 FEW029 05/03 Q0990 NOSIG=
200801160820 METAR COR EGLL 160820Z 21008KT 9999 FEW035 05/03 Q0989 NOSIG=
200801160750 METAR COR EGLL 160750Z 22008KT 9999 FEW035 05/03 Q0989 NOSIG=
200801160720 METAR COR EGLL 160720Z 22010KT 9999 FEW046 06/03 Q0988 NOSIG=
200801160650 METAR COR EGLL 160650Z 22009KT 9999 FEW032 SCT046 06/03 Q0988
                        NOSIG=
200801160620 METAR EGLL 160620Z 23007KT 9999 FEW032 SCT045 05/03 Q0988
                        NOSIG=
200801160550 METAR EGLL 160550Z 26006KT CAVOK 05/02 Q0987 NOSIG=
200801160520 METAR EGLL 160520Z 24007KT 9999 FEW024 06/03 Q0987 NOSIG=
200801160450 METAR EGLL 160450Z 22006KT 9999 FEW026 06/03 Q0986=
200801160420 METAR EGLL 160420Z 22008KT CAVOK 06/03 Q0986 NOSIG=
200801160350 METAR EGLL 160350Z 23009KT CAVOK 06/03 Q0986 NOSIG=
200801160320 METAR EGLL 160320Z 22009KT CAVOK 05/03 Q0985 NOSIG=
200801160250 METAR EGLL 160250Z AUTO 21008KT 9999NDV NCD 06/03 Q0985=
200801160220 METAR EGLL 160220Z AUTO 22010KT 9999NDV NCD 06/03 Q0985=
200801160150 METAR EGLL 160150Z AUTO 23012KT 9999NDV NCD 06/03 Q0984=
200801160020 METAR COR EGLL 160020Z 23014KT CAVOK 06/04 Q0983 NOSIG=
200801152350 METAR EGLL 152350Z 23013KT CAVOK 06/04 Q0982 NOSIG=
200801152320 METAR COR EGLL 152320Z 24013KT 9999 FEW019 07/04 Q0982 NOSIG=
200801152250 METAR EGLL 152250Z 24016KT 9999 FEW016 SCT020 07/04 Q0981
                        NOSIG=
200801152220 METAR EGLL 152220Z 25018KT 9999 FEW017 BKN020 07/04 Q0980
                        NOSIG=
200801152150 METAR EGLL 152150Z 26021KT 9999 FEW018 07/04 Q0979 NOSIG=
200801152120 METAR COR EGLL 152120Z 26016KT 9999 -RA FEW011 BKN025 08/06
                        Q0978 NOSIG=
200801152050 METAR COR EGLL 152050Z 26017KT 9999 FEW013 BKN025 07/05 Q0977
                        NOSIG=
200801152020 METAR COR EGLL 152020Z 23022G37KT 9999 FEW015 SCT019 BKN023
                        09/07 Q0976 BECMG 23015KT=
200801151950 METAR COR EGLL 151950Z 20012KT 9999 FEW015 BKN032 09/07 Q0975
                        RERA NOSIG=
200801151920 METAR COR EGLL 151920Z 21014KT 8000 RA FEW010 BKN016 09/08
                        Q0976 TEMPO +RA BKN010=
200801151850 METAR COR EGLL 151850Z 18013KT 9999 -RA FEW011 SCT021 BKN032
                        10/08 Q0976 TEMPO 4500 RA BKN010=
200801151820 METAR COR EGLL 151820Z 17010KT 9999 BKN033 09/08 Q0977 TEMPO
                        RA BKN014=
200801151750 METAR COR EGLL 151750Z 17011KT 9999 -RA FEW032 10/08 Q0977
                        TEMPO RA=
200801151720 METAR COR EGLL 151720Z 16009KT 120V190 9000 -RA SCT034 SCT040
                        10/08 Q0977 RERA TEMPO 4500 RA BKN010=
200801151650 METAR COR EGLL 151650Z 19009KT 160V230 9000 -SHRA SCT018
                        BKN023 10/08 Q0978 TEMPO 4500 +SHRA
                        BKN014=
200801151620 METAR COR EGLL 151620Z 20008KT 9999 SCT017 BKN021 11/08 Q0978
                        TEMPO 4500 +SHRA BKN014=
200801151550 METAR COR EGLL 151550Z 22012KT 9999 BKN017 BKN024 11/08 Q0979
                        NOSIG=
200801151520 METAR EGLL 151520Z 22010KT 180V240 9999 BKN016 11/08 Q0979=
200801151450 METAR EGLL 151450Z 22014KT 180V250 9999 SCT017 BKN022 BKN034
                        11/08 Q0979 NOSIG=
200801151420 METAR COR EGLL 151420Z 22015KT 9999 SCT015 BKN022 12/09 Q0979
                        NOSIG=
200801151350 METAR COR EGLL 151350Z 22016G26KT 9999 SCT020 BKN025 12/09
                        Q0979 NOSIG=
200801151320 METAR COR EGLL 151320Z 22015KT 9999 SCT021 BKN024 12/09 Q0979
                        NOSIG=
200801151250 METAR COR EGLL 151250Z 22017G28KT 9999 SCT021 BKN024 12/09
                        Q0979 NOSIG=
200801151220 METAR COR EGLL 151220Z 22016KT 9999 SCT010 BKN018 12/10 Q0979
                        NOSIG=
200801151150 METAR COR EGLL 151150Z 20016KT 6000 -DZ FEW009 BKN010 11/10
                        Q0979 BECMG 25015KT SCT012=
200801151120 METAR COR EGLL 151120Z 20020KT 9999 -RA SCT013 BKN020 11/09
                        Q0979 TEMPO 20020G30KT RA BKN014=
200801151050 METAR COR EGLL 151050Z 19018G28KT 9999 -RA BKN013 BKN020
                        10/09 Q0980 RERA TEMPO 21025G38KT
                        RA BKN009=
200801151020 METAR COR EGLL 151020Z 19022G33KT 7000 RA BKN012 BKN019 11/09
                        Q0981 TEMPO BKN009=
200801150950 METAR COR EGLL 150950Z 19019KT 7000 RA SCT010 BKN013 BKN020
                        10/09 Q0982 TEMPO 19020G32KT 4500
                        RA BKN009=
200801150920 METAR COR EGLL 150920Z 19020KT 9999 RA BKN014 10/08 Q0982
                        NOSIG=
200801150850 METAR COR EGLL 150850Z 19019KT 9999 RA FEW011 BKN014 10/08
                        Q0983 RERA NOSIG=
200801150820 METAR COR EGLL 150820Z 19018KT 9999 RA SCT011 BKN014 10/08
                        Q0984 RERA NOSIG=
200801150750 METAR COR EGLL 150750Z 19018KT 9999 RA FEW011 BKN014 BKN020
                        10/08 Q0985 RERA TEMPO 20020G30KT=
200801150720 METAR COR EGLL 150720Z 19016G27KT 9999 RA SCT012 BKN017 10/08
                        Q0986 NOSIG=
200801150650 METAR COR EGLL 150650Z 19018KT 9999 RA FEW010 SCT011 BKN017
                        10/08 Q0987 RERA TEMPO BKN012=
200801150620 METAR EGLL 150620Z 19016KT 9999 RA SCT012 BKN020 10/08 Q0988
                        BECMG 7000=
200801150550 METAR EGLL 150550Z 19017KT 9999 -RA SCT012 BKN015 10/08 Q0989
                        TEMPO BKN012=
200801150520 METAR COR EGLL 150520Z 19018KT 9999 -RA SCT011 SCT016 OVC020
                        09/08 Q0990 BECMG BKN014=
200801150450 METAR EGLL 150450Z 19017KT 9999 -RA SCT012 BKN020 09/08 Q0990
                        NOSIG=
200801150420 METAR EGLL 150420Z 19016KT 9999 -RA FEW012 BKN015 BKN021
                        09/07 Q0991 NOSIG=
200801150350 METAR EGLL 150350Z 20014KT 9999 -RA FEW012 SCT015 BKN025
                        09/07 Q0992=
200801150320 METAR COR EGLL 150320Z 20014KT 9999 -RA BKN014 09/07 Q0993
                        TEMPO BKN020=
200801150250 METAR EGLL 150250Z 21011KT 9999 -RA BKN015 BKN021 BKN026
                        09/07 Q0994 NOSIG=
200801150220 METAR EGLL 150220Z AUTO 21014KT 9999NDV DZ FEW022/// SCT035///
                        09/07 Q0994=
200801150150 METAR EGLL 150150Z AUTO 22015KT 9999NDV SCT017/// 09/06 Q0995=
200801150120 METAR EGLL 150120Z AUTO 22015G25KT 9999NDV FEW018/// BKN021///
                        10/07 Q0995=
200801150050 METAR EGLL 150050Z 22014KT 9999 SCT018 SCT024 10/07 Q0996
                        NOSIG=
200801150020 METAR COR EGLL 150020Z 20013KT 9999 SCT015 SCT021 09/07 Q0996
                        NOSIG=
200801142350 METAR COR EGLL 142350Z 20012KT 7000 RA FEW014 SCT022 09/07
                        Q0996 TEMPO BKN014=
200801142320 METAR COR EGLL 142320Z 21012KT 9999 SCT023 SCT043 09/07 Q0996
                        NOSIG=
200801142250 METAR COR EGLL 142250Z 20009KT 7000 -RA SCT019 BKN024 10/07
                        Q0997 TEMPO BKN014=
200801142220 METAR COR EGLL 142220Z 20009KT 9999 -RA FEW022 BKN046 09/06
                        Q0997 NOSIG=
200801142150 METAR COR EGLL 142150Z 20009KT 180V260 9999 FEW046 09/05
                        Q0997 NOSIG=
200801142120 METAR COR EGLL 142120Z 21010KT CAVOK 08/05 Q0998 NOSIG=
200801142050 METAR EGLL 142050Z 21010KT CAVOK 09/04 Q0998 NOSIG=
200801142020 METAR COR EGLL 142020Z 22012KT CAVOK 09/04 Q0998 NOSIG=
200801141950 METAR COR EGLL 141950Z 22012KT CAVOK 09/04 Q0998 NOSIG=
200801141920 METAR COR EGLL 141920Z 21012KT CAVOK 08/04 Q0997 NOSIG=
200801141850 METAR COR EGLL 141850Z 22013KT CAVOK 08/03 Q0997 NOSIG=
200801141820 METAR EGLL 141820Z 22013KT CAVOK 09/03 Q0997 NOSIG=
200801141750 METAR COR EGLL 141750Z 22013KT CAVOK 09/03 Q0997 NOSIG=
200801141720 METAR COR EGLL 141720Z 22016KT CAVOK 09/04 Q0997 TEMPO SHRA=
200801141650 METAR EGLL 141650Z 22014KT 9999 FEW038 09/04 Q0996=
200801141620 METAR COR EGLL 141620Z 23014KT 9999 FEW038 10/04 Q0996 NOSIG=
200801141550 METAR EGLL 141550Z 24013KT 9999 FEW012 SCT048 08/04 Q0996=
200801141520 METAR COR EGLL 141520Z 23015KT 9999 VCSH SCT047CB 11/04 Q0996
                        TEMPO 24018G30KT 4000 +SHRA=
200801141450 METAR EGLL 141450Z 23019KT 9999 FEW034 10/04 Q0995 TEMPO
                        22020G30KT SHRA=
200801141420 METAR COR EGLL 141420Z 23018KT 9999 FEW037 11/04 Q0995 NOSIG=
200801141350 METAR EGLL 141350Z 24021KT 9999 FEW038 11/04 Q0995 NOSIG=
200801141320 METAR COR EGLL 141320Z 23020KT 9999 FEW027 11/05 Q0995 NOSIG=
200801141250 METAR EGLL 141250Z 22015G26KT 9999 FEW022 BKN036 11/07 Q0995
                        NOSIG=
200801141220 METAR EGLL 141220Z 21014KT 9999 SCT020 BKN040 11/07 Q0995
                        NOSIG=
200801141150 METAR COR EGLL 141150Z 21013G23KT 180V240 9999 BKN019 10/07
                        Q0995 NOSIG=
200801141120 METAR EGLL 141120Z 22015KT 9999 SCT018 SCT023 10/07 Q0996
                        NOSIG=
200801141050 METAR COR EGLL 141050Z 22015KT 9999 FEW017 BKN020 10/07 Q0996
                        NOSIG=
200801141020 METAR COR EGLL 141020Z 20014G25KT 9999 FEW022 BKN034 09/07
                        Q0995 RERA TEMPO SHRA=
200801140950 METAR COR EGLL 140950Z 21015KT 9000 -SHRA SCT015 BKN019 09/07
                        Q0995 TEMPO 21018G28KT SHRA=
200801140920 METAR COR EGLL 140920Z 20012KT 180V240 9999 8000W -SHRA SCT012
                        BKN014 09/07 Q0995 RERA TEMPO SHRA=
200801140850 METAR COR EGLL 140850Z 20014KT 9999 -SHRA FEW018 BKN020 BKN030
                        09/07 Q0995 TEMPO SHRA=
200801140820 METAR EGLL 140820Z 20015KT 9999 SCT021 BKN027 09/06 Q0995
                        TEMPO SHRA=
200801140750 METAR COR EGLL 140750Z 19016KT 9999 -RA SCT018 BKN022 09/07
                        Q0995 TEMPO SHRA BKN018CB=
200801140720 METAR COR EGLL 140720Z 18014KT 9999 -RA SCT018 BKN025 09/07
                        Q0995 TEMPO SHRA=
200801140650 METAR COR EGLL 140650Z 18012G23KT 150V220 7000 -RA FEW013
                        SCT022 08/07 Q0995 TEMPO SHRA=
200801140620 METAR COR EGLL 140620Z 19012KT 9999 FEW015 08/06 Q0995 TEMPO
                        SHRA=
200801140550 METAR COR EGLL 140550Z 18009KT 9999 FEW023 08/06 Q0995 NOSIG=
200801140520 METAR COR EGLL 140520Z 19009KT 9999 FEW020 08/06 Q0995 TEMPO
                        NOSIG=
200801140450 METAR COR EGLL 140450Z 19009KT 9999 FEW015 BKN026 08/07 Q0995
                        NOSIG=
200801140420 METAR COR EGLL 140420Z 19009KT 9999 SCT018 SCT035 08/07 Q0995
                        TEMPO SHRA=
200801140350 METAR COR EGLL 140350Z 21007KT 9999 SCT017 08/06 Q0996 TEMPO
                        SHRA BKN014=
200801140320 METAR COR EGLL 140320Z 20009KT 9999 FEW022 08/06 Q0995 TEMPO
                        SHRA BKN014=
200801140250 METAR COR EGLL 140250Z 19010KT 9999 DZ FEW019 BKN044 09/07
                        Q0995 TEMPO BKN014=
200801140220 METAR EGLL 140220Z AUTO 18010KT 9999NDV FEW014/// BKN039///
                        09/07 Q0995=
200801140150 METAR EGLL 140150Z AUTO 19010KT 9999NDV -RA BKN013/// 08/07
                        Q0996 RERA=
200801140120 METAR EGLL 140120Z AUTO 19012KT 9999NDV BKN016/// 08/06 Q0996=
200801140050 METAR EGLL 140050Z 19010KT 9999 SCT015 BKN020 09/06 Q0996
                        NOSIG=
200801140020 METAR COR EGLL 140020Z 19011KT 9999 BKN014 08/06 Q0996 BECMG
                        SCT020=
200801132350 METAR COR EGLL 132350Z 18012KT 9999 BKN012 08/06 Q0996 BECMG
                        SCT020=
200801132320 METAR COR EGLL 132320Z 17014KT 9999 -RA BKN013 08/06 Q0996
                        TEMPO BKN020=
200801132250 METAR COR EGLL 132250Z 17015KT 150V230 9999 -RA SCT015 SCT019
                        08/06 Q0997 NOSIG=
200801132220 METAR EGLL 132220Z 17014KT 150V220 9999 -RA FEW016 SCT025
                        08/06 Q0997 RERA NOSIG=
200801132150 METAR COR EGLL 132150Z 18015KT 150V220 9000 -RA FEW019 SCT025
                        BKN030 08/06 Q0997 TEMPO 18020G30KT
                        RA=
200801132120 METAR COR EGLL 132120Z 17016KT 140V220 9999 -RA SCT023 SCT029
                        BKN038 08/05 Q0997 RERA TEMPO 17020G30KT
                        RA=
200801132050 METAR COR EGLL 132050Z 18018KT 150V210 9999 -SHRA FEW025
                        BKN029 09/04 Q0998 TEMPO 18020G30KT
                        RA=
200801132020 METAR COR EGLL 132020Z 17017G29KT 150V210 9999 BKN029 09/04
                        Q0998 TEMPO RA=
200801131950 METAR COR EGLL 131950Z 17019G32KT 140V210 9999 SCT029 SCT037
                        09/04 Q0998 NOSIG=
200801131920 METAR EGLL 131920Z 17018KT 9999 SCT031 09/04 Q0999 NOSIG=
200801131850 METAR COR EGLL 131850Z 17019KT 150V210 9999 FEW030 09/04
                        Q0999 NOSIG=
200801131820 METAR EGLL 131820Z 16018G28KT 9999 FEW030 09/05 Q0999 NOSIG=
200801131750 METAR COR EGLL 131750Z 16017KT 140V210 9999 FEW023 10/05
                        Q0999 NOSIG=
200801131720 METAR COR EGLL 131720Z 16016KT 9999 FEW025 10/06 Q1000 NOSIG=
200801131650 METAR EGLL 131650Z 16016KT 140V210 9999 FEW021 10/06 Q1000
                        NOSIG=
200801131620 METAR COR EGLL 131620Z 17015KT 140V220 9999 SCT025 10/06
                        Q1001 NOSIG=
200801131550 METAR EGLL 131550Z 17015G25KT 140V230 9999 FEW024 10/06 Q1001
                        NOSIG=
200801131520 METAR COR EGLL 131520Z 17017KT 9999 FEW025 10/06 Q1001 NOSIG=
200801131450 METAR EGLL 131450Z 18018KT 150V220 9999 SCT024 11/06 Q1002
                        NOSIG=
200801131420 METAR EGLL 131420Z 18018G31KT 160V240 9999 FEW024 11/06 Q1002=
200801131350 METAR EGLL 131350Z 18017KT 150V230 9999 FEW022 11/06 Q1002
                        NOSIG=
200801131320 METAR COR EGLL 131320Z 18016KT 150V220 9999 FEW022 11/06
                        Q1003 NOSIG=
200801131250 METAR COR EGLL 131250Z 18015KT 150V220 9999 SCT025 BKN048
                        11/06 Q1003 NOSIG=
200801131220 METAR COR EGLL 131220Z 19019KT 9999 SCT020 BKN028 11/07 Q1004
                        NOSIG=
200801131150 METAR COR EGLL 131150Z 19016KT 9999 SCT019 SCT025 11/07 Q1004
                        NOSIG=
200801131120 METAR COR EGLL 131120Z 19018G33KT 9999 SCT024 BKN048 11/07
                        Q1004 NOSIG=
200801131050 METAR EGLL 131050Z 19019KT 9999 SCT023 BKN042 11/07 Q1005=
200801131020 METAR COR EGLL 131020Z 19018G28KT 9999 SCT018 SCT022 BKN042
                        11/07 Q1005 NOSIG=
200801130950 METAR COR EGLL 130950Z 19017KT 9999 SCT015 BKN021 11/08 Q1005
                        NOSIG=
200801130920 METAR COR EGLL 130920Z 19016KT 9999 SCT015 BKN022 11/08 Q1005
                        NOSIG=
200801130850 METAR COR EGLL 130850Z 19016KT 9999 SCT015 BKN019 11/08 Q1005
                        NOSIG=
200801130820 METAR COR EGLL 130820Z 19016KT 9999 SCT016 BKN020 10/08 Q1005
                        NOSIG=
200801130750 METAR EGLL 130750Z 19014KT 9999 SCT015 BKN020 11/08 Q1005
                        NOSIG=
200801130720 METAR EGLL 130720Z 19013KT 180V240 9999 SCT015 BKN020 10/08
                        Q1005 NOSIG=
200801130650 METAR EGLL 130650Z 20013KT 9999 SCT014 BKN025 11/08 Q1005
                        NOSIG=
200801130620 METAR EGLL 130620Z 20014KT 9999 SCT014 BKN025 10/08 Q1005
                        NOSIG=
200801130550 METAR EGLL 130550Z 19013KT 9999 SCT012 BKN020 10/08 Q1005
                        NOSIG=
200801130520 METAR EGLL 130520Z 19010KT 9999 SCT013 BKN025 10/08 Q1005
                        TEMPO BKN013=
200801130450 METAR COR EGLL 130450Z 20011KT 9999 FEW009 BKN032 10/09 Q1005
                        TEMPO BKN010=
200801130420 METAR COR EGLL 130420Z 20011KT 9999 FEW008 BKN019 10/09 Q1006
                        TEMPO BKN010=
200801130350 METAR COR EGLL 130350Z 20011KT 9000 BKN010 10/09 Q1006 NOSIG=
200801130320 METAR COR EGLL 130320Z 19011KT 9999 OVC008 10/09 Q1006 NOSIG=
200801130250 METAR COR EGLL 130250Z 20010KT 9999 SCT010 SCT014 BKN018
                        10/09 Q1006 TEMPO BKN010=
200801130220 METAR EGLL 130220Z AUTO 20010KT 9999NDV FEW007/// OVC009///
                        10/09 Q1006=
200801130150 METAR EGLL 130150Z AUTO 20010KT 9000NDV BKN004/// 10/09 Q1006=
200801130120 METAR EGLL 130120Z AUTO 19009KT 5000NDV DZ OVC005/// 10/09
                        Q1006=
200801130050 METAR EGLL 130050Z 19010KT 9999 BKN006 09/08 Q1007 NOSIG=
200801130020 METAR COR EGLL 130020Z 20010KT 9999 BKN006 BKN018 09/08 Q1007
                        NOSIG=
200801122350 METAR COR EGLL 122350Z 19012KT 9999 BKN007 BKN013 09/08 Q1007
                        TEMPO 4000 -DZ=
200801122320 METAR COR EGLL 122320Z 19012KT 8000 -DZ BKN007 BKN015 09/07
                        Q1007 NOSIG=
200801122250 METAR EGLL 122250Z 18013KT 170V230 9999 -RA OVC008 08/07
                        Q1007 NOSIG=
200801122220 METAR COR EGLL 122220Z 19011KT 170V240 9999 -RA BKN009 08/07
                        Q1007 NOSIG=
200801122150 METAR EGLL 122150Z 19013KT 160V230 9999 -RA BKN010 08/06
                        Q1008 TEMPO BKN007=
200801122120 METAR COR EGLL 122120Z 18012KT 160V220 9999 BKN013 08/06
                        Q1008 TEMPO BKN009=
200801122050 METAR EGLL 122050Z 18010KT 150V220 9999 -RA FEW019 SCT035
                        08/06 Q1008 BECMG BKN012=
200801122020 METAR COR EGLL 122020Z 18008KT 9999 -RA SCT024 08/06 Q1008
                        BECMG BKN014=
200801121950 METAR EGLL 121950Z 19009KT 150V240 9999 -RA BKN033 08/06
                        Q1009 BECMG BKN014=
200801121920 METAR COR EGLL 121920Z 18007KT 150V240 9999 -RA BKN045 07/05
                        Q1009 NOSIG=
200801121850 METAR COR EGLL 121850Z 17006KT 130V240 CAVOK 07/04 Q1009
                        NOSIG=
200801121820 METAR COR EGLL 121820Z 18008KT 140V230 CAVOK 06/04 Q1009
                        NOSIG=
200801121750 METAR EGLL 121750Z 17007KT 150V240 CAVOK 06/03 Q1009 NOSIG=
200801121720 METAR COR EGLL 121720Z 17007KT 120V230 CAVOK 06/03 Q1009
                        NOSIG=
200801121650 METAR EGLL 121650Z 18007KT 150V240 CAVOK 06/03 Q1009 NOSIG=
200801121620 METAR EGLL 121620Z 19007KT 150V250 CAVOK 07/03 Q1009 NOSIG=
200801121550 METAR COR EGLL 121550Z 22008KT 190V250 9999 FEW028 07/03
                        Q1009 NOSIG=
200801121520 METAR EGLL 121520Z 23009KT 9999 FEW030 08/03 Q1009 NOSIG=
200801121450 METAR COR EGLL 121450Z 24010KT 9999 FEW028 09/03 Q1009 NOSIG=
200801121420 METAR EGLL 121420Z 24011KT 9999 FEW020 09/03 Q1009 NOSIG=
200801121350 METAR COR EGLL 121350Z 25012KT 9999 FEW030 09/04 Q1008 NOSIG=
200801121320 METAR COR EGLL 121320Z 26009KT 9999 FEW020 08/03 Q1008 NOSIG=
200801121250 METAR COR EGLL 121250Z 26009KT 9999 FEW020 08/03 Q1008 NOSIG=
200801121220 METAR EGLL 121220Z 26010KT 9999 FEW020 08/03 Q1008 NOSIG=
200801121150 METAR EGLL 121150Z 26011KT 9999 FEW020 08/03 Q1008 NOSIG=
200801121120 METAR EGLL 121120Z 24009KT 9999 FEW020 07/03 Q1008=
200801121050 METAR COR EGLL 121050Z 21007KT 190V250 9999 FEW020 06/03
                        Q1008 NOSIG=
200801121020 METAR COR EGLL 121020Z 23008KT CAVOK 05/02 Q1008 NOSIG=
200801120950 METAR COR EGLL 120950Z 23009KT CAVOK 04/01 Q1007 NOSIG=
200801120920 METAR COR EGLL 120920Z 21007KT 180V250 CAVOK 03/01 Q1007
                        NOSIG=
200801120850 METAR EGLL 120850Z 19007KT 170V250 CAVOK 02/00 Q1007 NOSIG=
200801120820 METAR COR EGLL 120820Z 20006KT 180V270 CAVOK 02/00 Q1006
                        NOSIG=
200801120750 METAR COR EGLL 120750Z 25008KT CAVOK 03/00 Q1006 NOSIG=
200801120720 METAR EGLL 120720Z 26006KT CAVOK 02/00 Q1005 NOSIG=
200801120650 METAR EGLL 120650Z 27009KT CAVOK 03/00 Q1004 NOSIG=
200801120620 METAR EGLL 120620Z 27008KT CAVOK 03/00 Q1004 NOSIG=
200801120550 METAR EGLL 120550Z 28009KT CAVOK 02/00 Q1003 NOSIG=
200801120520 METAR EGLL 120520Z 27010KT CAVOK 03/00 Q1003 NOSIG=
200801120450 METAR EGLL 120450Z 27010KT CAVOK 03/01 Q1002 NOSIG=
200801120420 METAR EGLL 120420Z 29011KT CAVOK 04/01 Q1001=
200801120350 METAR EGLL 120350Z NIL=
200801120320 METAR COR EGLL 120320Z 29012KT 9999 FEW020 04/02 Q1000 NOSIG=
200801120250 METAR EGLL 120250Z 29012KT 9999 NSC 04/02 Q0999 NOSIG=
200801120220 METAR EGLL 120220Z AUTO 30009KT 9999NDV NCD 05/02 Q0999=
200801120150 METAR EGLL 120150Z AUTO 31012KT 9999NDV -DZ FEW013/// 04/02
                        Q0998=
200801120120 METAR EGLL 120120Z AUTO 31014KT 9999NDV -DZ FEW013/// 04/02
                        Q0997=
200801120050 METAR EGLL 120050Z 31014KT 9999 -DZ SCT011 BKN017 04/02 Q0996
                        TEMPO 31017G28KT 5000 RA BKN007=
200801120020 METAR COR EGLL 120020Z 31013KT 9999 DZ SCT010 BKN026 03/02
                        Q0995 TEMPO 31017G28KT 5000 RA BKN007=
200801112350 METAR EGLL 112350Z 31014KT 9999 -RA SCT009 BKN014 03/01 Q0994
                        TEMPO 31017G28KT 5000 RA BKN006=
200801112320 METAR COR EGLL 112320Z 31013KT 9999 DZ FEW008 BKN010 03/02
                        Q0993 BECMG 31017G28KT 4000 RA BKN006=
200801112250 METAR COR EGLL 112250Z 32012KT 9999 DZ FEW006 BKN010 04/03
                        Q0991 BECMG 31017G28KT 5000 RA BKN006=
200801112220 METAR EGLL 112220Z 31010KT 9999 DZ FEW006 BKN010 06/04 Q0990
                        BECMG 30017G28KT 5000 RA BKN006=
200801112150 METAR COR EGLL 112150Z 28009KT 9999 -RA FEW006 SCT018 05/04
                        Q0989 BECMG 30017G28KT 3500 RA BKN006=
200801112120 METAR COR EGLL 112120Z 28009KT 6000 -RADZ FEW005 SCT019 06/04
                        Q0988 TEMPO 29017G28KT 3000 RA BKN005=
200801112050 METAR COR EGLL 112050Z 29007KT 9000 -RA FEW006 SCT027 07/05
                        Q0988 BECMG 29015G25KT 5000 -RA BKN008=
200801112020 METAR COR EGLL 112020Z 15007KT 110V200 9999 -RA SCT015 BKN023
                        08/06 Q0987 BECMG 29010KT -RA BKN010=
200801111950 METAR COR EGLL 111950Z 15005KT 100V230 9999 SCT015 08/06
                        Q0987 BECMG -RA BKN010=
200801111920 METAR EGLL 111920Z 15006KT 110V210 9999 FEW030 08/05 Q0987
                        BECMG 29010KT BKN010=
200801111850 METAR EGLL 111850Z 17007KT 140V230 9999 FEW049 08/05 Q0987
                        BECMG BKN012=
200801111820 METAR COR EGLL 111820Z 17008KT 130V230 9999 FEW038 09/06
                        Q0987 BECMG BKN012=
200801111750 METAR COR EGLL 111750Z 18009KT 150V220 9999 FEW020 SCT037
                        09/06 Q0987 NOSIG=
200801111720 METAR EGLL 111720Z 17010KT 130V230 9999 FEW030 09/06 Q0987=
200801111650 METAR EGLL 111650Z 17009KT 140V230 9999 FEW030 09/05 Q0987
                        NOSIG=
200801111620 METAR EGLL 111620Z 18014KT 160V230 9999 FEW030 09/05 Q0987
                        NOSIG=
200801111550 METAR COR EGLL 111550Z 17013KT 140V230 9999 FEW025 SCT043
                        09/06 Q0987 NOSIG=
200801111520 METAR EGLL 111520Z 18013KT 150V240 9999 SCT027 SCT045 10/06
                        Q0987 NOSIG=
200801111450 METAR COR EGLL 111450Z 19012KT 9999 FEW023 10/06 Q0987 NOSIG=
200801111420 METAR COR EGLL 111420Z 20012G25KT 9999 FEW023 11/06 Q0987
                        NOSIG=
200801111350 METAR COR EGLL 111350Z 20011KT 180V240 9999 FEW020 10/07
                        Q0987 NOSIG=
200801111320 METAR COR EGLL 111320Z 20015KT 9999 FEW019 BKN026 10/07 Q0987
                        TEMPO 19015G25KT BKN012=
200801111250 METAR EGLL 111250Z 18014KT 9999 FEW009 SCT015 10/08 Q0987
                        TEMPO 190015G25KT BKN012=
200801111220 METAR COR EGLL 111220Z 17010KT 5000 -DZ FEW009 BKN012 10/08
                        Q0988 RERA BECMG 19015G25KT SCT012=
200801111150 METAR EGLL 111150Z 16010KT 130V190 9999 -RA BKN012 BKN020
                        10/08 Q0988 BECMG 19015G25KT SCT012=
200801111120 METAR COR EGLL 111120Z 18011KT 9999 -RA BKN012 BKN020 09/08
                        Q0989 BECMG 19015G25KT=
200801111050 METAR EGLL 111050Z 18014KT 9999 -RA BKN012 BKN020 09/08 Q0990
                        TEMPO 4000 RA=
200801111020 METAR EGLL 111020Z 19012KT 9999 -RA BKN013 BKN022 09/07 Q0990
                        TEMPO 4000 RA=
200801110950 METAR EGLL 110950Z 18013KT 8000 RA FEW007 BKN014 BKN022 09/08
                        Q0990 TEMPO BKN009=
200801110920 METAR COR EGLL 110920Z 09012KT 5000 -RA FEW005 SCT010 BKN018
                        08/07 Q0991 TEMPO BKN010=
200801110850 METAR COR EGLL 110850Z 07012KT 4500 -RA SCT005 SCT010 BKN020
                        08/07 Q0991 TEMPO RA BKN008=
200801110820 METAR COR EGLL 110820Z 08008KT 4000 -RA BKN029 BKN034 08/07
                        Q0992 TEMPO RA BKN008=
200801110750 METAR COR EGLL 110750Z 09008KT 7000 -RA SCT036 08/07 Q0993
                        RERA TEMPO 3000 RA BKN005=
200801110720 METAR COR EGLL 110720Z 09008KT 4700 RA SCT005 08/08 Q0994
                        TEMPO 3000 RA BKN005=
200801110650 METAR COR EGLL 110650Z 09007KT 4800 -RA FEW005 SCT028 BKN044
                        08/07 Q0994 TEMPO 3500 RA BKN005=
200801110620 METAR EGLL 110620Z 09006KT 7000 FEW005 SCT018 BKN043 08/07
                        Q0995 BECMG 4000 RA BKN005=
200801110550 METAR COR EGLL 110550Z 09006KT 6000 FEW019 SCT026 BKN035
                        08/07 Q0995 BECMG 4000 RA BKN006=
200801110520 METAR COR EGLL 110520Z 10006KT 6000 BKN028 BKN037 08/07 Q0996
                        BECMG 4000 RA BKN005=
200801110450 METAR EGLL 110450Z NIL=
200801110420 METAR COR EGLL 110420Z 14004KT 7000 BKN047 07/07 Q0997 BECMG
                        4000 RA=
200801110350 METAR EGLL 110350Z NIL=
200801110320 METAR COR EGLL 110320Z 15003KT 7000 NSC 07/06 Q0998 BECMG
                        4500 BR=
200801110250 METAR EGLL 110250Z 19003KT 7000 NSC 07/06 Q0998 NOSIG=
200801110220 METAR EGLL 110220Z AUTO 18004KT 8000NDV NCD 07/06 Q0999=
200801110150 METAR EGLL 110150Z AUTO 19004KT 9000NDV NCD 07/06 Q0999=
200801110120 METAR EGLL 110120Z AUTO 19004KT 9000NDV NCD 07/06 Q0999=
200801110050 METAR EGLL 110050Z 17004KT 8000 FEW048 08/06 Q1000 NOSIG=
200801110020 METAR COR EGLL 110020Z 19003KT 8000 FEW018 SCT049 08/07 Q1000
                        NOSIG=
200801102350 METAR EGLL 102350Z 21005KT 8000 FEW020 08/07 Q1000 NOSIG=
200801102320 METAR EGLL 102320Z 21007KT 190V250 8000 NSC 08/07 Q1000 NOSIG=
200801102250 METAR COR EGLL 102250Z 23009KT 190V260 8000 NSC 09/07 Q1000
                        NOSIG=
200801102220 METAR EGLL 102220Z 21009KT 190V250 8000 NSC 09/07 Q1000 NOSIG=
200801102150 METAR EGLL 102150Z 21009KT 180V250 8000 NSC 09/08 Q1000 NOSIG=
200801102120 METAR COR EGLL 102120Z 21008KT 9000 NSC 09/08 Q1000 NOSIG=
200801102050 METAR EGLL 102050Z 21009KT 170V250 9999 FEW008 09/08 Q0999
                        NOSIG=
200801102020 METAR EGLL 102020Z 21008KT 9999 FEW010 10/08 Q0999 NOSIG=
200801101950 METAR COR EGLL 101950Z 21008KT 9999 FEW010 10/09 Q1000 NOSIG=
200801101920 METAR EGLL 101920Z 22007KT 180V260 9999 FEW009 SCT014 10/09
                        Q1000 NOSIG=
200801101850 METAR EGLL 101850Z 21008KT 180V250 9999 FEW023 BKN039 10/09
                        Q1000 NOSIG=
200801101820 METAR EGLL 101820Z 22009KT 180V250 9999 SCT013 11/09 Q0999
                        NOSIG=
200801101750 METAR COR EGLL 101750Z 23010KT 9999 SCT013 BKN045 11/09 Q0999
                        NOSIG=
200801101720 METAR EGLL 101720Z 22011KT 9999 FEW013 SCT016 11/09 Q0999
                        RERA NOSIG=
200801101650 METAR COR EGLL 101650Z 22013KT 9999 -RA SCT015 BKN044 11/09
                        Q0999 NOSIG=
200801101620 METAR COR EGLL 101620Z 23014KT 7000 3000SW RA BKN013 11/09
                        Q0999 TEMPO 3000=
200801101550 METAR COR EGLL 101550Z 22014KT 9999 5000W RA SCT010 BKN015
                        11/09 Q0998 TEMPO 4000 RA BKN010=
200801101520 METAR COR EGLL 101520Z 22017G27KT 7000 -RA BKN013 OVC030
                        11/09 Q0998 TEMPO 22023G37KT 4000
                        RA=
200801101450 METAR COR EGLL 101450Z 22017KT 6000 -RA BKN014 BKN025 11/09
                        Q0998 TEMPO 22023G37KT 4000 RA=
200801101420 METAR EGLL 101420Z 20015KT 8000 -RA BKN014 11/09 Q0998 TEMPO
                        21025G40KT 4000 RA=
200801101350 METAR COR EGLL 101350Z 20017KT 8000 -RA BKN015 10/08 Q0998
                        TEMPO 21025G40KT 4000 RA BKN012=
200801101320 METAR COR EGLL 101320Z 20017KT 9000 -RA BKN018 11/08 Q0998
                        TEMPO 21025G40KT 4000 RA BKN012=
200801101250 METAR COR EGLL 101250Z 21018KT 9999 BKN019 11/07 Q0999 TEMPO
                        21025G40KT 4000 RA BKN012=
200801101220 METAR COR EGLL 101220Z 21018KT 9999 SCT022 BKN030 12/07 Q0999
                        TEMPO 21022G35KT 4000 RA BKN014=
200801101150 METAR EGLL 101150Z 21018G30KT 9999 BKN020 BKN030 12/07 Q1000
                        NOSIG=
200801101120 METAR COR EGLL 101120Z 21016G29KT 9999 BKN020 BKN025 11/07
                        Q1001 NOSIG=
200801101050 METAR COR EGLL 101050Z 21018G30KT 9999 BKN020 BKN030 11/07
                        Q1001 NOSIG=
200801101020 METAR COR EGLL 101020Z 21017KT 9999 SCT022 BKN032 11/07 Q1001
                        TEMPO 21020G30KT=
200801100950 METAR EGLL 100950Z 20016KT 9999 SCT022 BKN032 11/07 Q1002
                        TEMPO 21020G30KT=
200801100920 METAR COR EGLL 100920Z 20017KT 9999 SCT020 BKN025 BKN031
                        11/07 Q1002 TEMPO 21020G30KT=
200801100850 METAR COR EGLL 100850Z 21015KT 9999 SCT022 SCT031 BKN042
                        10/07 Q1002 TEMPO 21020G30KT=
200801100820 METAR COR EGLL 100820Z 21015KT 9999 FEW026 BKN045 10/07 Q1003
                        TEMPO 21020G30KT=
200801100750 METAR COR EGLL 100750Z 21014KT 9999 FEW030 BKN045 10/07 Q1003
                        TEMPO 21020G30KT=
200801100720 METAR COR EGLL 100720Z 21014KT 9999 SCT018 BKN044 10/07 Q1003
                        TEMPO 21020G30KT=
200801100650 METAR COR EGLL 100650Z 21014KT 180V240 9999 -DZ FEW020 SCT030
                        BKN042 10/07 Q1004 TEMPO 21020G30KT=
200801100620 METAR COR EGLL 100620Z 21014KT 9999 -DZ FEW023 BKN043 10/07
                        Q1004 TEMPO 21020G30KT=
200801100550 METAR COR EGLL 100550Z 21013KT 9999 -RA SCT023 BKN039 09/07
                        Q1004 TEMPO 21020G30KT=
200801100520 METAR COR EGLL 100520Z 21015KT 9999 SCT022 BKN039 10/07 Q1004
                        TEMPO 21020G30KT=
200801100450 METAR COR EGLL 100450Z 21015KT 9999 SCT022 BKN029 10/06 Q1004
                        TEMPO 21020G30KT=
200801100420 METAR COR EGLL 100420Z 22015G25KT 9999 SCT023 BKN029 10/06
                        Q1005 NOSIG=
200801100350 METAR EGLL 100350Z 22016KT 9999 BKN021 10/06 Q1005 TEMPO
                        21020G30KT=
200801100320 METAR COR EGLL 100320Z 22015KT 9999 -RADZ BKN022 10/06 Q1006
                        TEMPO 21020G30KT=
200801100250 METAR EGLL 100250Z 22015KT 9999 SCT024 10/06 Q1006 TEMPO
                        20020G30KT=
200801100220 METAR EGLL 100220Z AUTO 22015KT 9999NDV BKN022/// 10/06 Q1006=
200801100150 METAR EGLL 100150Z AUTO 21016KT 9999NDV SCT022/// BKN026///
                        10/06 Q1007=
200801100120 METAR EGLL 100120Z AUTO 22018KT 9999NDV SCT022/// SCT027///
                        10/06 Q1007=
200801100050 METAR COR EGLL 100050Z 22017KT 9999 -RA FEW022 BKN025 10/06
                        Q1007 TEMPO 22020G30KT=
200801100020 METAR COR EGLL 100020Z 22017KT 9999 BKN025 10/06 Q1008 NOSIG=
200801092350 METAR COR EGLL 092350Z 22017G27KT 9999 -RA BKN024 10/06 Q1008
                        NOSIG=
200801092320 METAR COR EGLL 092320Z 22017G27KT 9999 SCT025 10/06 Q1008
                        NOSIG=
200801092250 METAR COR EGLL 092250Z 22015G26KT 9999 SCT023 SCT034 09/06
                        Q1008 TEMPO 21015KT=
200801092220 METAR COR EGLL 092220Z 22014KT 9999 SCT024 SCT027 09/06 Q1009
                        NOSIG=
200801092150 METAR EGLL 092150Z 21012KT 9999 SCT024 08/05 Q1009 NOSIG=
200801092120 METAR COR EGLL 092120Z 21011KT 180V240 9999 FEW023 08/05
                        Q1009 NOSIG=
200801092050 METAR COR EGLL 092050Z 21011KT 180V250 9999 FEW044 07/05
                        Q1010 NOSIG=
200801092020 METAR COR EGLL 092020Z 22011KT CAVOK 07/04 Q1010 NOSIG=
200801091950 METAR COR EGLL 091950Z 22010KT CAVOK 07/04 Q1010 NOSIG=
200801091920 METAR COR EGLL 091920Z 21009KT 190V250 CAVOK 06/04 Q1010
                        NOSIG=
200801091850 METAR EGLL 091850Z 22011KT CAVOK 07/04 Q1010 NOSIG=
200801091820 METAR EGLL 091820Z 21010KT CAVOK 07/04 Q1010 NOSIG=
200801091750 METAR EGLL 091750Z 22011KT CAVOK 07/04 Q1010 NOSIG=
200801091720 METAR EGLL 091720Z 23011KT 9999 FEW034 08/04 Q1010 NOSIG=
200801091650 METAR EGLL 091650Z 22013KT 9999 SCT037 08/04 Q1010 NOSIG=
200801091620 METAR COR EGLL 091620Z 22013KT 9999 FEW027 SCT037 08/04 Q1010
                        NOSIG=
200801091550 METAR COR EGLL 091550Z 21011KT 180V240 9999 SCT025 BKN035
                        08/04 Q1009 RESHRA NOSIG=
200801091520 METAR EGLL 091520Z 22012KT 9999 SHRA SCT030 BKN045 09/03
                        Q1010 BECMG NSW=
200801091450 METAR EGLL 091450Z 22012KT 9999 FEW038 09/02 Q1010 NOSIG=
200801091420 METAR EGLL 091420Z 23015KT CAVOK 09/02 Q1010 NOSIG=
200801091350 METAR EGLL 091350Z 23015KT CAVOK 10/01 Q1010 NOSIG=
200801091320 METAR COR EGLL 091320Z 23014KT CAVOK 09/02 Q1010 TEMPO 23016G26KT=
200801091250 METAR COR EGLL 091250Z 22011KT CAVOK 09/02 Q1010 NOSIG=
200801091220 METAR COR EGLL 091220Z 23012KT CAVOK 08/02 Q1010 NOSIG=
200801091150 METAR COR EGLL 091150Z 23013KT 9999 FEW024 07/01 Q1010 NOSIG=
200801091120 METAR COR EGLL 091120Z 24013KT CAVOK 07/02 Q1010 NOSIG=
200801091050 METAR COR EGLL 091050Z 24014KT CAVOK 06/01 Q1010 NOSIG=
200801091020 METAR COR EGLL 091020Z 25015KT CAVOK 06/01 Q1010 NOSIG=
200801090950 METAR COR EGLL 090950Z 24014KT CAVOK 06/02 Q1009 NOSIG=
200801090920 METAR COR EGLL 090920Z 23011KT CAVOK 06/02 Q1009 NOSIG=
200801090850 METAR EGLL 090850Z 23010KT CAVOK 06/02 Q1009 NOSIG=
200801090820 METAR EGLL 090820Z 22010KT CAVOK 05/02 Q1008 NOSIG=
200801090750 METAR EGLL 090750Z 23011KT CAVOK 06/02 Q1008 NOSIG=
200801090720 METAR COR EGLL 090720Z 23011KT CAVOK 06/02 Q1007 NOSIG=
200801090650 METAR COR EGLL 090650Z 24012KT CAVOK 06/02 Q1007 NOSIG=
200801090620 METAR COR EGLL 090620Z 23011KT CAVOK 06/02 Q1007 NOSIG=
200801090550 METAR EGLL 090550Z 23009KT CAVOK 05/02 Q1007 NOSIG=
200801090520 METAR COR EGLL 090520Z 22008KT CAVOK 05/02 Q1007 NOSIG=
200801090450 METAR EGLL 090450Z 22010KT CAVOK 05/02 Q1006 NOSIG=
200801090420 METAR EGLL 090420Z 22010KT CAVOK 05/03 Q1006 NOSIG=
200801090350 METAR COR EGLL 090350Z 22011KT CAVOK 05/03 Q1006 NOSIG=
200801090320 METAR EGLL 090320Z 22011KT CAVOK 06/03 Q1006 NOSIG=
200801090250 METAR COR EGLL 090250Z 22010KT CAVOK 05/03 Q1006 NOSIG=
200801090220 METAR EGLL 090220Z AUTO 22011KT 9999NDV NCD 06/03 Q1006=
200801090150 METAR EGLL 090150Z AUTO 23012KT 9999NDV NCD 06/03 Q1005=
200801090120 METAR EGLL 090120Z AUTO 24011KT 9999NDV NCD 06/04 Q1005=
200801090050 METAR COR EGLL 090050Z 24010KT CAVOK 06/04 Q1005 NOSIG=
200801090020 METAR EGLL 090020Z 24009KT CAVOK 07/04 Q1004 NOSIG=
200801082350 METAR COR EGLL 082350Z 25009KT 9999 FEW030 SCT039 06/04 Q1004
                        NOSIG=
200801082320 METAR COR EGLL 082320Z 28012KT 6000 -SHRA FEW012 SCT020 07/05
                        Q1004 RESHRA TEMPO 27015G25KT=
200801082250 METAR COR EGLL 082250Z 21017G27KT 9000 RA BKN017 BKN020 10/07
                        Q1002 BECMG 3000 +RA GS BKN012CB=
200801082220 METAR COR EGLL 082220Z 20019G29KT 9000 -RA BKN017 10/07 Q1002
                        BECMG 3000 +RA GS SCT014CB=
200801082150 METAR COR EGLL 082150Z 19018KT 9999 -RA BKN020 10/07 Q1003
                        BECMG 19020G35KT 3000 +RA GS BKN012CB=
200801082120 METAR COR EGLL 082120Z 19017G29KT 9999 BKN020 10/06 Q1003
                        NOSIG=
200801082050 METAR COR EGLL 082050Z 19019KT 9999 SCT022 SCT030 10/06 Q1004
                        BECMG 19020G30KT=
200801082020 METAR COR EGLL 082020Z 20016KT 9999 FEW022 SCT030 09/06 Q1005
                        TEMPO 20018G28KT=
200801081950 METAR COR EGLL 081950Z 19017KT 9999 FEW020 SCT046 09/06 Q1005
                        TEMPO 19018G28KT=
200801081920 METAR COR EGLL 081920Z 19017KT 170V240 9999 FEW020 SCT024
                        09/06 Q1006 NOSIG=
200801081850 METAR EGLL 081850Z 19016KT 9999 SCT020 BKN026 09/06 Q1006
                        NOSIG=
200801081820 METAR COR EGLL 081820Z 19015KT 9999 SCT017 BKN024 09/06 Q1007
                        NOSIG=
200801081750 METAR COR EGLL 081750Z 19015KT 9999 FEW020 SCT023 09/06 Q1007
                        NOSIG=
200801081720 METAR EGLL 081720Z 20014KT 9999 SCT028 SCT036 09/06 Q1008
                        NOSIG=
200801081650 METAR COR EGLL 081650Z 20013KT 180V240 9999 FEW021 BKN024
                        BKN047 09/06 Q1009 NOSIG=
200801081620 METAR COR EGLL 081620Z 20014KT 9999 FEW022 SCT027 09/06 Q1009
                        NOSIG=
200801081550 METAR COR EGLL 081550Z 19014KT 170V240 9999 VCSH FEW023 09/06
                        Q1009 NOSIG=
200801081520 METAR EGLL 081520Z 20016KT 9999 SCT024 BKN039 10/06 Q1009
                        NOSIG=
200801081450 METAR COR EGLL 081450Z 20015KT 9999 FEW024 BKN034 10/07 Q1009
                        NOSIG=
200801081420 METAR COR EGLL 081420Z 20013KT 9999 SCT021 SCT033 10/07 Q1010
                        NOSIG=
200801081350 METAR COR EGLL 081350Z 20014G25KT 9999 FEW023 BKN034 11/07
                        Q1010 NOSIG=
200801081320 METAR COR EGLL 081320Z 21014G25KT 9999 FEW019 SCT024 BKN040
                        11/08 Q1010 NOSIG=
200801081250 METAR COR EGLL 081250Z 21014KT 180V240 9999 FEW013 SCT017
                        BKN020 11/08 Q1011 RESHRA BECMG 21017G30KT=
200801081220 METAR COR EGLL 081220Z 22010KT 9999 5000NE SHRA FEW011 BKN013
                        10/08 Q1011 BECMG 21018G28KT 9999
                        -RA BKN020=
200801081150 METAR COR EGLL 081150Z 21011KT 8000 SHRA BKN016 BKN037 10/08
                        Q1012 BECMG -SHRA=
200801081120 METAR COR EGLL 081120Z 21010KT 9999 5000SW VCSH BKN019 BKN023
                        10/08 Q1012 NOSIG=
200801081050 METAR COR EGLL 081050Z 20010KT 7000 -RA FEW025 BKN035 09/07
                        Q1013 NOSIG=
200801081020 METAR COR EGLL 081020Z 19011KT 9000 FEW022 BKN043 09/07 Q1013
                        RERA NOSIG=
200801080950 METAR COR EGLL 080950Z 20010KT 8000 RA SCT032 BKN036 09/08
                        Q1014 TEMPO 4000 RA BKN012=
200801080920 METAR COR EGLL 080920Z 20009KT 180V250 9000 -RA FEW022 SCT045
                        09/07 Q1014 TEMPO 4000 RA BKN012=
200801080850 METAR COR EGLL 080850Z 19009KT 9000 NSC 08/07 Q1014 TEMPO
                        4000 RA BKN012=
200801080820 METAR COR EGLL 080820Z 20009KT 170V240 8000 NSC 08/06 Q1014
                        TEMPO 5000 -RA BKN012=
200801080750 METAR COR EGLL 080750Z 20009KT 9999 FEW040 08/06 Q1014 NOSIG=
200801080720 METAR EGLL 080720Z 20009KT 9999 FEW015 08/06 Q1014 TEMPO
                        BKN012=
200801080650 METAR COR EGLL 080650Z 19009KT 150V250 9999 FEW029 07/06
                        Q1015 NOSIG=
200801080620 METAR COR EGLL 080620Z 19009KT 150V260 CAVOK 07/05 Q1015
                        BECMG BKN030=
200801080550 METAR COR EGLL 080550Z 19006KT 9999 FEW029 07/05 Q1015 NOSIG=
200801080520 METAR EGLL 080520Z 21008KT CAVOK 07/05 Q1015 NOSIG=
200801080450 METAR COR EGLL 080450Z 20006KT CAVOK 07/05 Q1015 NOSIG=
200801080420 METAR COR EGLL 080420Z 20007KT 9999 SCT042 07/04 Q1016 NOSIG=
200801080350 METAR COR EGLL 080350Z 20008KT 9999 SCT042 06/04 Q1016 NOSIG=
200801080320 METAR EGLL 080320Z 20007KT CAVOK 06/04 Q1016=
200801080250 METAR EGLL 080250Z 21007KT CAVOK 06/03 Q1016 NOSIG=
200801080220 METAR EGLL 080220Z AUTO 21007KT 9999NDV NCD 06/03 Q1016=
200801080150 METAR COR EGLL 080150Z AUTO 20006KT 9999NDV NCD 06/03 Q1016=
200801080120 METAR EGLL 080120Z AUTO 21007KT 9999NDV NCD 06/02 Q1016=
200801080050 METAR EGLL 080050Z 22008KT CAVOK 06/02 Q1017 NOSIG=
200801080020 METAR COR EGLL 080020Z 23009KT CAVOK 06/02 Q1016 NOSIG=
200801072350 METAR COR EGLL 072350Z 22010KT CAVOK 05/02 Q1017 NOSIG=
200801072320 METAR EGLL 072320Z 22009KT 180V250 CAVOK 05/01 Q1017 NOSIG=
200801072250 METAR EGLL 072250Z 22010KT CAVOK 06/01 Q1017 NOSIG=
200801072220 METAR EGLL 072220Z 23013KT CAVOK 06/01 Q1016 NOSIG=
200801072150 METAR COR EGLL 072150Z 23011KT CAVOK 06/01 Q1016 NOSIG=
200801072120 METAR COR EGLL 072120Z 24011KT CAVOK 06/01 Q1016 NOSIG=
200801072050 METAR EGLL 072050Z 23010KT 190V260 CAVOK 06/01 Q1017 NOSIG=
200801072020 METAR COR EGLL 072020Z 24010KT CAVOK 06/01 Q1016 NOSIG=
200801071950 METAR EGLL 071950Z 24009KT CAVOK 06/00 Q1016 NOSIG=
200801071920 METAR EGLL 071920Z 26010KT CAVOK 07/01 Q1016 NOSIG=
200801071850 METAR EGLL 071850Z 26015KT CAVOK 07/01 Q1015 NOSIG=
200801071820 METAR COR EGLL 071820Z 25015KT CAVOK 07/01 Q1015 NOSIG=
200801071750 METAR COR EGLL 071750Z 25015KT CAVOK 08/01 Q1014 NOSIG=
200801071720 METAR COR EGLL 071720Z 26016KT CAVOK 07/01 Q1014 NOSIG=
200801071650 METAR EGLL 071650Z 26019KT 9999 FEW028 08/01 Q1013 NOSIG=
200801071620 METAR COR EGLL 071620Z 26018KT 9999 FEW028 08/01 Q1012 NOSIG=
200801071550 METAR COR EGLL 071550Z 26020KT 9999 FEW025 08/02 Q1012 NOSIG=
200801071520 METAR EGLL 071520Z 26021KT 9999 FEW025 08/03 Q1011 NOSIG=
200801071450 METAR COR EGLL 071450Z 26020KT 9999 FEW014 FEW025CB 08/04
                        Q1010 NOSIG=
200801071420 METAR COR EGLL 071420Z 25017KT 9999 VCSH FEW035 09/05 Q1010
                        NOSIG=
200801071350 METAR COR EGLL 071350Z 25017KT 9999 FEW030 09/04 Q1010 TEMPO
                        26020G30KT=
200801071320 METAR COR EGLL 071320Z 25013KT 9999 FEW018 08/05 Q1010 TEMPO
                        26020G30KT=
200801071250 METAR COR EGLL 071250Z 27020KT 7000 SHRA FEW022 SCT026 BKN029
                        07/05 Q1011 BECMG 27020G30KT NSW=
200801071220 METAR COR EGLL 071220Z 25022KT 7000 -SHRA FEW026 SCT030 09/04
                        Q1010 TEMPO 25022G32KT SHRA SCT020CB=
200801071150 METAR COR EGLL 071150Z 25019KT 9999 FEW040 09/03 Q1010 TEMPO
                        25020G34KT SHRA SCT020CB=
200801071120 METAR EGLL 071120Z 25018KT 9999 FEW038 09/02 Q1010=
200801071050 METAR COR EGLL 071050Z 25018KT 9999 FEW035 09/01 Q1010 TEMPO
                        25020G32KT=
200801071020 METAR COR EGLL 071020Z 26022KT 9999 FEW035 09/01 Q1009 TEMPO
                        26025G35KT=
200801070950 METAR COR EGLL 070950Z 26023G34KT 9999 FEW032 09/00 Q1009
                        NOSIG=
200801070920 METAR COR EGLL 070920Z 26023KT CAVOK 08/00 Q1008 TEMPO 25025G35KT=
200801070850 METAR COR EGLL 070850Z 26019G29KT CAVOK 08/00 Q1007 TEMPO
                        25025G39KT=
200801070820 METAR COR EGLL 070820Z 26023G34KT CAVOK 08/00 Q1006 NOSIG=
200801070750 METAR COR EGLL 070750Z 25023G33KT 9999 FEW046 08/01 Q1005
                        NOSIG=
200801070720 METAR COR EGLL 070720Z 26024G35KT CAVOK 08/01 Q1005 NOSIG=
200801070650 METAR COR EGLL 070650Z 24022G34KT 9999 FEW042 08/01 Q1005
                        NOSIG=
200801070620 METAR COR EGLL 070620Z 24021KT 9999 FEW041 08/01 Q1004 TEMPO
                        25025G38KT=
200801070550 METAR COR EGLL 070550Z 25022KT 9999 FEW040 08/01 Q1004 TEMPO
                        25022G35KT=
200801070520 METAR COR EGLL 070520Z 24021KT CAVOK 08/02 Q1004 TEMPO 24020G35KT=
200801070450 METAR COR EGLL 070450Z 24018KT 9999 FEW038 07/02 Q1004 TEMPO
                        24020G30KT=
200801070420 METAR EGLL 070420Z 25018KT CAVOK 08/02 Q1004 TEMPO 25018G35KT=
200801070350 METAR COR EGLL 070350Z 25018KT CAVOK 08/03 Q1003 TEMPO 25018G35KT=
200801070320 METAR EGLL 070320Z 25016KT 9999 FEW033 08/04 Q1003 TEMPO
                        25016G26KT=
200801070250 METAR EGLL 070250Z 25016KT 9999 FEW038 08/04 Q1003 TEMPO
                        25016G26KT=
200801070220 METAR EGLL 070220Z AUTO 23012KT 9999NDV NCD 09/05 Q1003=
200801070150 METAR EGLL 070150Z AUTO 23015KT 9000NDV NCD 09/05 Q1002=
200801070120 METAR EGLL 070120Z AUTO 22014KT 9999NDV NCD 09/05 Q1003=
200801070050 METAR COR EGLL 070050Z 23013KT 9999 FEW046 09/05 Q1003 TEMPO
                        24016G26KT=
200801070020 METAR EGLL 070020Z 24017KT 9999 FEW036 SCT041 10/06 Q1003=
200801062350 METAR COR EGLL 062350Z 25017KT 9999 FEW041 10/06 Q1002 TEMPO
                        25017G27KT=
200801062320 METAR COR EGLL 062320Z 21011KT 9999 FEW022 SCT049 09/08 Q1002
                        BECMG 24016G26KT=
200801062250 METAR EGLL 062250Z 20010KT 180V240 9999 FEW007 BKN048 09/08
                        Q1002=
200801062220 METAR COR EGLL 062220Z 19012KT 9999 SCT006 SCT018 10/08 Q1002
                        BECMG 24016G26KT=
200801062150 METAR COR EGLL 062150Z 18012KT 150V220 6000 -RA BKN007 09/07
                        Q1002 TEMPO 4500 -DZ=
200801062120 METAR COR EGLL 062120Z 17012KT 120V190 9000 -RA FEW008 BKN010
                        08/07 Q1003 TEMPO 4500 BKN008=
200801062050 METAR COR EGLL 062050Z 16013KT 9999 -DZ BKN009 08/06 Q1004
                        TEMPO 4500 DZ=
200801062020 METAR COR EGLL 062020Z 15012KT 9999 BKN010 08/06 Q1004 TEMPO
                        BKN007=
200801061950 METAR COR EGLL 061950Z 15012KT 100V170 9999 -RA FEW012 BKN014
                        08/05 Q1005 TEMPO BKN008=
200801061920 METAR COR EGLL 061920Z 15011KT 9999 SCT015 SCT038 08/05 Q1006
                        NOSIG=
200801061850 METAR COR EGLL 061850Z 15009KT 100V190 9999 SCT020 BKN049
                        08/05 Q1007 NOSIG=
200801061820 METAR COR EGLL 061820Z 14008KT 9999 FEW020 07/05 Q1007 NOSIG=
200801061750 METAR COR EGLL 061750Z 14008KT 100V170 9999 FEW026 07/04
                        Q1008 NOSIG=
200801061720 METAR EGLL 061720Z 13008KT 9999 FEW026 07/04 Q1009 NOSIG=
200801061650 METAR COR EGLL 061650Z VRB07KT 9999 FEW024 07/03 Q1009 NOSIG=
200801061620 METAR COR EGLL 061620Z 12008KT 9999 FEW028 07/03 Q1010 NOSIG=
200801061550 METAR COR EGLL 061550Z 14006KT 080V170 9999 FEW030 07/03
                        Q1010 NOSIG=
200801061520 METAR COR EGLL 061520Z 15006KT 110V180 9999 FEW032 08/03
                        Q1010 NOSIG=
200801061450 METAR EGLL 061450Z 19007KT 150V240 9999 FEW034 08/03 Q1011
                        NOSIG=
200801061420 METAR EGLL 061420Z 19009KT 150V240 9999 FEW030 08/03 Q1011=
200801061350 METAR COR EGLL 061350Z 18010KT 160V220 9999 FEW020 08/03
                        Q1011 NOSIG=
200801061320 METAR COR EGLL 061320Z 19007KT 150V250 CAVOK 08/03 Q1011
                        NOSIG=
200801061250 METAR COR EGLL 061250Z 21008KT 180V260 CAVOK 08/02 Q1011
                        NOSIG=
200801061220 METAR EGLL 061220Z 24010KT 200V260 CAVOK 07/02 Q1012 NOSIG=
200801061150 METAR COR EGLL 061150Z 23010KT CAVOK 07/02 Q1012 NOSIG=
200801061120 METAR COR EGLL 061120Z 22009KT 170V260 CAVOK 06/02 Q1012
                        NOSIG=
200801061050 METAR COR EGLL 061050Z 22008KT 190V250 CAVOK 05/02 Q1012
                        NOSIG=
200801061020 METAR COR EGLL 061020Z 23007KT 180V260 CAVOK 04/02 Q1011
                        NOSIG=
200801060950 METAR COR EGLL 060950Z 23009KT CAVOK 03/01 Q1011 NOSIG=
200801060920 METAR COR EGLL 060920Z 24010KT CAVOK 03/01 Q1011 NOSIG=
200801060850 METAR COR EGLL 060850Z 25010KT CAVOK 04/01 Q1011 NOSIG=
200801060820 METAR EGLL 060820Z 25008KT CAVOK 02/00 Q1010 NOSIG=
200801060750 METAR COR EGLL 060750Z 25007KT CAVOK 02/M00 Q1010 NOSIG=
200801060720 METAR EGLL 060720Z 27008KT CAVOK 03/01 Q1009 NOSIG=
200801060650 METAR EGLL 060650Z 25008KT CAVOK 02/01 Q1009 NOSIG=
200801060620 METAR EGLL 060620Z 25008KT CAVOK 02/00 Q1009 NOSIG=
200801060550 METAR EGLL 060550Z 24006KT CAVOK 02/00 Q1009 NOSIG=
200801060520 METAR COR EGLL 060520Z 23008KT CAVOK 03/01 Q1008 NOSIG=
200801060450 METAR EGLL 060450Z 24009KT CAVOK 03/01 Q1008 NOSIG=
200801060420 METAR EGLL 060420Z 26006KT CAVOK 03/01 Q1007 NOSIG=
200801060350 METAR EGLL 060350Z 25007KT CAVOK 03/01 Q1007 NOSIG=
200801060320 METAR EGLL 060320Z 26005KT CAVOK 03/01 Q1007 NOSIG=
200801060250 METAR EGLL 060250Z 22005KT CAVOK 03/01 Q1006 NOSIG=
200801060220 METAR EGLL 060220Z AUTO 25007KT 9999NDV NCD 03/01 Q1006=
200801060150 METAR EGLL 060150Z AUTO 25008KT 9999NDV NCD 03/01 Q1005=
200801060120 METAR EGLL 060120Z AUTO 26005KT 9999NDV NCD 03/02 Q1005=
200801060050 METAR EGLL 060050Z 25004KT CAVOK 03/01 Q1005 NOSIG=
200801060020 METAR EGLL 060020Z 25006KT CAVOK 04/02 Q1004 NOSIG=
200801052350 METAR EGLL 052350Z 26006KT CAVOK 04/02 Q1004 NOSIG=
200801052320 METAR EGLL 052320Z 25007KT CAVOK 04/02 Q1003 NOSIG=
200801052250 METAR EGLL 052250Z 27006KT CAVOK 05/02 Q1003 NOSIG=
200801052220 METAR COR EGLL 052220Z 27006KT CAVOK 05/02 Q1002 NOSIG=
200801052150 METAR COR EGLL 052150Z 27007KT CAVOK 05/03 Q1002 NOSIG=
200801052120 METAR COR EGLL 052120Z 27007KT CAVOK 05/03 Q1002 NOSIG=
200801052050 METAR COR EGLL 052050Z 25007KT CAVOK 05/03 Q1001 NOSIG=
200801052020 METAR COR EGLL 052020Z 23007KT 190V260 CAVOK 05/03 Q1001
                        NOSIG=
200801051950 METAR EGLL 051950Z 22008KT 9999 FEW025 06/03 Q1000 NOSIG=
200801051920 METAR EGLL 051920Z 22006KT 190V250 9999 FEW026 06/03 Q1000
                        NOSIG=
200801051850 METAR COR EGLL 051850Z 22009KT 9999 FEW044 06/03 Q1000 NOSIG=
200801051820 METAR COR EGLL 051820Z 22007KT 190V250 CAVOK 06/03 Q1000
                        NOSIG=
200801051750 METAR EGLL 051750Z 22007KT 9999 FEW029 07/03 Q1000 NOSIG=
200801051720 METAR COR EGLL 051720Z 21008KT 9999 FEW030 07/03 Q1000 NOSIG=
200801051650 METAR EGLL 051650Z 21005KT 150V250 CAVOK 07/03 Q1000 NOSIG=
200801051620 METAR COR EGLL 051620Z 20008KT 170V250 CAVOK 07/02 Q0999
                        NOSIG=
200801051550 METAR COR EGLL 051550Z 19007KT 160V260 9999 FEW040 08/02
                        Q1000 NOSIG=
200801051520 METAR COR EGLL 051520Z 23009KT 190V260 9999 SCT046 08/02
                        Q1000 NOSIG=
200801051450 METAR COR EGLL 051450Z 27010KT 9999 FEW032 09/01 Q0999 NOSIG=
200801051420 METAR COR EGLL 051420Z 25013KT CAVOK 09/02 Q0999 NOSIG=
200801051350 METAR COR EGLL 051350Z 25012KT 9999 FEW048 09/02 Q0999 TEMPO
                        SHRA=
200801051320 METAR COR EGLL 051320Z 25014KT CAVOK 09/02 Q0999 TEMPO SHRA=
200801051250 METAR COR EGLL 051250Z 24013KT CAVOK 08/03 Q0999 NOSIG=
200801051220 METAR COR EGLL 051220Z 24014KT 9999 FEW046 08/03 Q0999 NOSIG=
200801051150 METAR COR EGLL 051150Z 24014KT 9999 FEW045 08/03 Q0999 NOSIG=
200801051120 METAR COR EGLL 051120Z 24014KT 9999 FEW041 08/03 Q0999 NOSIG=
200801051050 METAR COR EGLL 051050Z 26012KT CAVOK 09/03 Q0999 NOSIG=
200801051020 METAR COR EGLL 051020Z 25014KT CAVOK 08/03 Q0999 NOSIG=
200801050950 METAR EGLL 050950Z 24016KT CAVOK 07/03 Q0998 NOSIG=
200801050920 METAR COR EGLL 050920Z 24016KT 9999 FEW016 07/03 Q0997 NOSIG=
200801050850 METAR COR EGLL 050850Z 24014KT CAVOK 07/03 Q0997 NOSIG=
200801050820 METAR COR EGLL 050820Z 25016KT CAVOK 07/03 Q0997 NOSIG=
200801050750 METAR EGLL 050750Z 24014KT CAVOK 07/03 Q0996 NOSIG=
200801050720 METAR COR EGLL 050720Z 25012KT CAVOK 07/03 Q0996 NOSIG=
200801050650 METAR COR EGLL 050650Z 23013KT 9999 FEW023 07/04 Q0996 NOSIG=
200801050620 METAR COR EGLL 050620Z 23012KT 9999 SCT022 07/04 Q0995 NOSIG=
200801050550 METAR EGLL 050550Z 22009KT 9999 SCT028 07/04 Q0995 NOSIG=
200801050520 METAR EGLL 050520Z 23011KT CAVOK 07/04 Q0995 NOSIG=
200801050450 METAR EGLL 050450Z 22011KT 9999 FEW032 07/04 Q0995 NOSIG=
200801050420 METAR EGLL 050420Z 23011KT 9999 FEW032 06/04 Q0994 NOSIG=
200801050350 METAR COR EGLL 050350Z 22010KT CAVOK 06/04 Q0994 NOSIG=
200801050320 METAR COR EGLL 050320Z 22010KT 9999 FEW030 06/04 Q0994 NOSIG=
200801050250 METAR COR EGLL 050250Z 22010KT 9999 FEW039 06/04 Q0994 NOSIG=
200801050220 METAR EGLL 050220Z AUTO 22011KT 9999NDV NCD 07/04 Q0994=
200801050150 METAR EGLL 050150Z AUTO 23011KT 9999NDV NCD 07/05 Q0993=
200801050120 METAR EGLL 050120Z AUTO 23012KT 9999NDV NCD 07/05 Q0993=
200801050050 METAR EGLL 050050Z 23012KT CAVOK 07/05 Q0993 NOSIG=
200801050020 METAR EGLL 050020Z 22010KT 9999 BKN040 BKN047 08/06 Q0993
                        NOSIG=
200801042350 METAR EGLL 042350Z 22011KT 9999 SCT017 08/05 Q0992 NOSIG=
200801042320 METAR EGLL 042320Z 22013KT 9999 FEW020 SCT023 08/06 Q0992
                        NOSIG=
200801042250 METAR COR EGLL 042250Z 21012KT CAVOK 09/06 Q0992 NOSIG=
200801042220 METAR COR EGLL 042220Z 20011KT 9999 FEW014 09/07 Q0991 RERA
                        NOSIG=
200801042150 METAR COR EGLL 042150Z 18014KT 7000 RA SCT009 BKN014 09/07
                        Q0991 BECMG 24012KT 9999 NSW FEW025=
200801042120 METAR COR EGLL 042120Z 17014KT 9999 -RA SCT013 SCT039 08/07
                        Q0992 TEMPO 18020G30KT 4000 RA=
200801042050 METAR COR EGLL 042050Z 18015KT 9999 -RA SCT011 SCT018 08/07
                        Q0993 TEMPO 18020G30KT 4000 RA BKN010=
200801042020 METAR COR EGLL 042020Z 18014KT 9999 -RA SCT009 SCT033 08/07
                        Q0993 RERA TEMPO 18020G30KT RA BKN009=
200801041950 METAR COR EGLL 041950Z 18013KT 9999 RA BKN010 09/07 Q0994
                        TEMPO BKN008=
200801041920 METAR EGLL 041920Z 19012KT 9999 -RA BKN009 09/07 Q0994 NOSIG=
200801041850 METAR COR EGLL 041850Z 18012KT 150V210 9000 -RA BKN007 08/07
                        Q0994 NOSIG=
200801041820 METAR COR EGLL 041820Z 18014KT 8000 -RA BKN007 08/07 Q0995
                        NOSIG=
200801041750 METAR COR EGLL 041750Z 19013KT 9999 BKN009 09/07 Q0995 NOSIG=
200801041720 METAR EGLL 041720Z 20012KT 6000 -RA FEW007 BKN011 09/07 Q0996
                        NOSIG=
200801041650 METAR COR EGLL 041650Z 17011KT 6000 -RA BKN009 09/08 Q0996
                        NOSIG=
200801041620 METAR EGLL 041620Z 18012KT 6000 -RA OVC008 09/07 Q0997 NOSIG=
200801041550 METAR COR EGLL 041550Z 17012KT 9999 SCT008 OVC010 09/07 Q0998
                        NOSIG=
200801041520 METAR COR EGLL 041520Z 17011KT 120V220 9000 -DZ BKN008 09/07
                        Q0998 NOSIG=
200801041450 METAR COR EGLL 041450Z 17010KT 9999 OVC009 09/07 Q0999 NOSIG=
200801041420 METAR EGLL 041420Z 18011KT 9999 OVC010 09/07 Q0999 NOSIG=
200801041350 METAR EGLL 041350Z 19010KT 9000 OVC009 09/07 Q1000 NOSIG=
200801041320 METAR EGLL 041320Z 18007KT 8000 OVC008 08/07 Q1000 NOSIG=
200801041250 METAR EGLL 041250Z 18007KT 7000 BKN007 08/07 Q1001=
200801041220 METAR EGLL 041220Z 19008KT 170V230 6000 OVC007 08/06 Q1001
                        NOSIG=
200801041150 METAR COR EGLL 041150Z 17010KT 4200 HZ BKN006 08/06 Q1002
                        BECMG 5000=
200801041120 METAR COR EGLL 041120Z 15009KT 3800 HZ OVC006 07/06 Q1002
                        NOSIG=
200801041050 METAR COR EGLL 041050Z 15006KT 3000 BR BKN006 07/06 Q1002
                        NOSIG=
200801041020 METAR COR EGLL 041020Z 11005KT 090V150 2700 BR BKN005 06/04
                        Q1002 TEMPO BKN004=
200801040950 METAR COR EGLL 040950Z 10004KT 2100 BR SCT004 BKN005 05/04
                        Q1003 TEMPO BKN004=
200801040920 METAR COR EGLL 040920Z 09004KT 2100 BR SCT004 BKN005 05/04
                        Q1003 NOSIG=
200801040850 METAR EGLL 040850Z 11007KT 2100 BR BKN005 05/03 Q1002 TEMPO
                        BKN003=
200801040820 METAR COR EGLL 040820Z 09005KT 2200 BR BKN005 04/03 Q1003
                        TEMPO BKN003=
200801040750 METAR COR EGLL 040750Z 08004KT 060V130 2700 BR BKN006 04/03
                        Q1003 TEMPO BKN003=
200801040720 METAR EGLL 040720Z 11003KT 3000 BR BKN005 04/03 Q1003 TEMPO
                        BKN003=
200801040650 METAR COR EGLL 040650Z 13005KT 3000 BR BKN005 04/03 Q1003
                        TEMPO BKN003=
200801040620 METAR EGLL 040620Z 11004KT 3000 HZ OVC005 04/03 Q1003 TEMPO
                        BKN003=
200801040550 METAR COR EGLL 040550Z VRB03KT 2700 HZ OVC005 04/03 Q1003
                        TEMPO BKN003=
200801040520 METAR EGLL 040520Z 14006KT 3000 HZ OVC005 04/03 Q1003 TEMPO
                        BKM003=
200801040450 METAR EGLL 040450Z 13005KT 3200 HZ OVC006 04/03 Q1003 TEMPO
                        BKN003=
200801040420 METAR COR EGLL 040420Z 12005KT 3100 HZ OVC005 04/02 Q1003
                        TEMPO BKN003=
200801040350 METAR COR EGLL 040350Z 10004KT 3000 HZ OVC005 04/02 Q1003
                        NOSIG=
200801040320 METAR EGLL 040320Z 12006KT 3000 HZ BKN006 04/02 Q1003 NOSIG=
200801040250 METAR COR EGLL 040250Z 11008KT 3400 HZ OVC006 04/02 Q1003
                        NOSIG=
200801040220 METAR EGLL 040220Z AUTO 15005KT 4500NDV HZ BKN008/// BKN012///
                        04/02 Q1003=
200801040150 METAR EGLL 040150Z AUTO 08004KT 4600NDV HZ SCT008/// OVC015///
                        03/02 Q1003=
200801040120 METAR EGLL 040120Z AUTO 09003KT 4500NDV HZ BKN008/// OVC014///
                        03/02 Q1003=
200801040050 METAR EGLL 040050Z 09004KT 4500 HZ BKN010 04/02 Q1003 BECMG
                        BKN007=
200801040020 METAR COR EGLL 040020Z VRB03KT 4500 HZ OVC010 04/02 Q1003
                        BECMG BKN007=
200801032350 METAR COR EGLL 032350Z 09004KT 4400 HZ OVC008 04/02 Q1002
                        TEMPO SCT008 BKN012=
200801032320 METAR COR EGLL 032320Z 09005KT 4000 HZ OVC007 03/02 Q1002
                        NOSIG=
200801032250 METAR COR EGLL 032250Z 09005KT 4000 HZ OVC007 03/02 Q1002
                        TEMPO BKN003=
200801032220 METAR EGLL 032220Z 10007KT 4000 HZ BKN007 03/02 Q1002 TEMPO
                        BNK003=
200801032150 METAR EGLL 032150Z 09006KT 4600 HZ OVC007 04/02 Q1002 TEMPO
                        BKN003=
200801032120 METAR COR EGLL 032120Z 09007KT 4600 BR BKN008 03/02 Q1002
                        TEMPO BKN004=
200801032050 METAR COR EGLL 032050Z 08006KT 4600 BR OVC008 03/02 Q1002
                        TEMPO BKN004=
200801032020 METAR COR EGLL 032020Z 09006KT 4100 BR OVC008 03/02 Q1001
                        TEMPO BKN004=
200801031950 METAR EGLL 031950Z 08007KT 4500 BR BKN009 03/02 Q1001 NOSIG=
200801031920 METAR COR EGLL 031920Z 08008KT 4500 BR OVC008 03/02 Q1001
                        NOSIG=
200801031850 METAR COR EGLL 031850Z 09009KT 4400 BR OVC008 03/02 Q1001
                        NOSIG=
200801031820 METAR COR EGLL 031820Z 08008KT 4400 BR OVC008 03/02 Q1001
                        NOSIG=
200801031750 METAR COR EGLL 031750Z 08011KT 4000 SCT006 OVC008 03/01 Q1001
                        NOSIG=
200801031720 METAR COR EGLL 031720Z 07008KT 3600 -DZ BKN008 OVC010 03/01
                        Q1001 REDZ NOSIG=
200801031650 METAR EGLL 031650Z 08007KT 3200 DZ OVC008 02/01 Q1001 NOSIG=
200801031620 METAR COR EGLL 031620Z 08011KT 2700 -DZ BKN009 02/01 Q1000
                        NOSIG=
200801031550 METAR EGLL 031550Z 08009KT 4800 -RA FEW007 BKN010 02/01 Q1000
                        BECMG BKN007=
200801031520 METAR COR EGLL 031520Z 09011KT 3600 -RASN BKN012 02/00 Q1000
                        BECMG BKN009=
200801031450 METAR COR EGLL 031450Z 08014KT 9000 BKN014 03/M00 Q1000 TEMPO
                        4000 - SN BKN009=
200801031420 METAR EGLL 031420Z 08012KT 9000 SCT018 BKN031 03/M01 Q1000
                        BECMG BKN010=
200801031350 METAR COR EGLL 031350Z 09011KT 9999 SCT022 BKN034 03/M01
                        Q1000 BECMG BKN010=
200801031320 METAR EGLL 031320Z 09011KT 9999 SCT021 BKN034 03/M02 Q1000=
200801031250 METAR COR EGLL 031250Z 09013KT 9999 SCT021 BKN025 03/M01
                        Q1000 TEMPO -SN BKN014=
200801031220 METAR EGLL 031220Z 09013KT 9999 SCT021 BKN030 BKN043 03/M01
                        Q1000 NOSIG=
200801031150 METAR EGLL 031150Z 09012KT 9999 SCT020 SCT034 03/M01 Q1000
                        NOSIG=
200801031120 METAR EGLL 031120Z 09013KT 9999 FEW022 BKN034 03/M02 Q1001
                        NOSIG=
200801031050 METAR COR EGLL 031050Z 09010KT 9999 SCT023 BKN035 03/M02
                        Q1001 NOSIG=
200801031020 METAR COR EGLL 031020Z 07008KT 9999 BKN036 02/M03 Q1001 NOSIG=
200801030950 METAR EGLL 030950Z 08010KT 9999 FEW029 BKN036 02/M03 Q1001
                        NOSIG=
200801030920 METAR COR EGLL 030920Z 09012KT 9999 BKN032 02/M03 Q1002 NOSIG=
200801030850 METAR EGLL 030850Z 11010KT 9999 BKN025 02/M03 Q1002 NOSIG=
200801030820 METAR COR EGLL 030820Z 10011KT 9999 FEW023 BKN025 02/M03
                        Q1002 NOSIG=
200801030750 METAR EGLL 030750Z 09009KT 9999 BKN024 02/M03 Q1002 NOSIG=
200801030720 METAR COR EGLL 030720Z 09010KT 9999 BKN023 01/M03 Q1002 TEMPO
                        09015G25KT=
200801030650 METAR EGLL 030650Z 09013KT 9999 BKN026 01/M03 Q1002 TEMPO
                        10015G25KT=
200801030620 METAR COR EGLL 030620Z 09012KT 9999 BKN029 01/M03 Q1002 TEMPO
                        09015G25KT=
200801030550 METAR EGLL 030550Z 09012KT 9999 BKN029 01/M03 Q1003 TEMPO
                        10015G25KT=
200801030520 METAR EGLL 030520Z 10011KT 9999 BKN024 01/M03 Q1004 TEMPO
                        11015G25KT=
200801030450 METAR COR EGLL 030450Z 09011KT 9999 OVC025 01/M03 Q1004 TEMPO
                        10015G25KT=
200801030420 METAR COR EGLL 030420Z 10010KT 9999 OVC023 01/M03 Q1004 TEMPO
                        11015G25KT=
200801030350 METAR COR EGLL 030350Z 10014KT 9999 BKN022 01/M03 Q1005 TEMPO
                        11015G25KT=
200801030320 METAR COR EGLL 030320Z 08017KT 9999 BKN023 01/M03 Q1005 TEMPO
                        08019G29KT=
200801030250 METAR EGLL 030250Z 09018KT 9999 OVC023 01/M03 Q1005 TEMPO
                        09020G30KT=
200801030220 METAR EGLL 030220Z AUTO 08016KT 9999NDV BKN023/// 02/M03
                        Q1006=
200801030150 METAR EGLL 030150Z AUTO 08016KT 9999NDV BKN024/// 02/M03
                        Q1006=
200801030120 METAR EGLL 030120Z AUTO 08016KT 9999NDV BKN025/// 02/M03
                        Q1006=
200801030050 METAR COR EGLL 030050Z 09016KT 9999 BKN025 02/M03 Q1007 TEMPO
                        10017G27KT=
200801030020 METAR COR EGLL 030020Z 09013KT 9999 OVC026 02/M03 Q1007 TEMPO
                        09015G25KT=
200801022350 METAR COR EGLL 022350Z 10011KT 9999 BKN027 02/M03 Q1008 TEMPO
                        10015G25KT=
200801022320 METAR COR EGLL 022320Z 10012KT 9999 FEW026 01/M03 Q1009 TEMPO
                        10015G26KT=
200801022250 METAR EGLL 022250Z 10010KT 9999 FEW030 01/M03 Q1009 TEMPO
                        10015G25KT=
200801022220 METAR EGLL 022220Z 09012KT CAVOK 01/M03 Q1009 TEMPO 09015G25KT=
200801022150 METAR EGLL 022150Z 10015KT 9999 FEW021 01/M02 Q1010 TEMPO
                        10015G25KT=
200801022120 METAR COR EGLL 022120Z 10014KT 9999 FEW021 01/M02 Q1010 TEMPO
                        10015G25KT=
200801022050 METAR EGLL 022050Z 10015KT 9999 SCT018 01/M02 Q1010 TEMPO
                        10015G25KT=
200801022020 METAR COR EGLL 022020Z 10017KT 9999 SCT018 02/M01 Q1010 TEMPO
                        10017G27KT=
200801021950 METAR EGLL 021950Z 10012KT 9999 SCT020 02/M01 Q1011 NOSIG=
200801021920 METAR EGLL 021920Z 09013KT 9999 BKN020 03/M01 Q1011 NOSIG=
200801021850 METAR COR EGLL 021850Z 08012KT 9999 BKN019 02/M01 Q1011 NOSIG=
200801021820 METAR COR EGLL 021820Z 08011KT 9999 FEW020 03/M01 Q1011 NOSIG=
200801021750 METAR EGLL 021750Z 08013KT 9999 FEW020 03/M01 Q1011 NOSIG=
200801021720 METAR EGLL 021720Z 08010KT 9999 FEW020 02/M01 Q1012 NOSIG=
200801021650 METAR EGLL 021650Z 09010KT 9999 FEW025 02/M01 Q1012 NOSIG=
200801021620 METAR COR EGLL 021620Z 09014KT 9999 FEW023 02/M01 Q1013 NOSIG=
200801021550 METAR COR EGLL 021550Z 09015KT 9999 FEW023 03/M01 Q1013 NOSIG=
200801021520 METAR COR EGLL 021520Z 08013KT 9999 FEW023 03/M01 Q1013 NOSIG=
200801021450 METAR EGLL 021450Z 09013KT 9999 FEW023 03/M01 Q1013 NOSIG=
200801021420 METAR COR EGLL 021420Z 09016KT 9999 FEW023 04/M01 Q1013 NOSIG=
200801021350 METAR EGLL 021350Z 09016KT 9999 FEW022 04/M00 Q1013 NOSIG=
200801021320 METAR COR EGLL 021320Z 09015KT 9999 FEW025 04/M01 Q1014 NOSIG=
200801021250 METAR COR EGLL 021250Z 08017KT 9999 FEW023 05/M00 Q1014 NOSIG=
200801021220 METAR COR EGLL 021220Z 10014KT 9000 SCT024 05/00 Q1015 NOSIG=
200801021150 METAR EGLL 021150Z 10014KT 9999 BKN024 05/00 Q1015 NOSIG=
200801021120 METAR COR EGLL 021120Z 12013KT 9999 SCT022 04/M00 Q1016 NOSIG=
200801021050 METAR EGLL 021050Z 10011KT 9999 FEW017 BKN026 04/00 Q1017
                        NOSIG=
200801021020 METAR EGLL 021020Z 10011KT 9999 BKN019 04/01 Q1017 NOSIG=
200801020950 METAR EGLL 020950Z 09014KT 9999 BKN020 04/01 Q1017 NOSIG=
200801020920 METAR COR EGLL 020920Z 12013KT 9999 SCT017 BKN024 04/01 Q1017
                        NOSIG=
200801020850 METAR EGLL 020850Z 12015KT 9999 FEW014 SCT017 BKN025 04/01
                        Q1017 NOSIG=
200801020820 METAR COR EGLL 020820Z 11013KT 7000 SCT010 BKN014 05/03 Q1017
                        BECMG BKN018=
200801020750 METAR EGLL 020750Z 11011KT 6000 SCT009 BKN013 05/04 Q1017
                        NOSIG=
200801020720 METAR COR EGLL 020720Z 11011KT 5000 BKN006 06/04 Q1017 BECMG
                        BKN012=
200801020650 METAR COR EGLL 020650Z 12011KT 6000 BKN010 06/04 Q1017 TEMPO
                        BKN009=
200801020620 METAR COR EGLL 020620Z 10010KT 6000 SCT006 BKN010 06/05 Q1017
                        TEMPO BKN009=
200801020550 METAR EGLL 020550Z 11009KT 7000 -DZ FEW007 SCT009 BKN016
                        06/05 Q1017 TEMPO BKN009=
200801020520 METAR EGLL 020520Z 10007KT 4000 -RA BKN007 07/05 Q1017 TEMPO
                        BKN010=
200801020450 METAR COR EGLL 020450Z 11008KT 5000 DZ BKN009 07/05 Q1017
                        TEMPO 4000=
200801020420 METAR EGLL 020420Z 13005KT 7000 BKN008 07/05 Q1017 TEMPO
                        BKN010=
200801020350 METAR EGLL 020350Z 11006KT 9000 BKN010 07/05 Q1018 TEMPO
                        SCT009=
200801020320 METAR COR EGLL 020320Z 10006KT 9999 BKN026 07/05 Q1018 BECMG
                        BKN010=
200801020250 METAR COR EGLL 020250Z 11005KT 9999 BKN027 06/05 Q1018 BECMG
                        BKN010=
200801020220 METAR EGLL 020220Z AUTO 13005KT 7000NDV SCT023/// BKN039///
                        07/05 Q1018=
200801020150 METAR EGLL 020150Z AUTO 12006KT 6000NDV FEW022/// 07/05 Q1018=
200801020120 METAR EGLL 020120Z AUTO 14004KT 6000NDV SCT008/// BKN011///
                        07/06 Q1018=
200801020050 METAR COR EGLL 020050Z 15002KT 7000 -DZ SCT006 BKN012 07/06
                        Q1018 TEMPO 4000 BKN006=
200801020020 METAR COR EGLL 020020Z 09003KT 8000 -DZ FEW006 SCT013 BKN042
                        07/05 Q1019 NOSIG=
200801012350 METAR EGLL 012350Z 08004KT 9000 FEW009 SCT014 BKN043 07/05
                        Q1019 BECMG 4500 -DZ BKN009=
200801012320 METAR EGLL 012320Z 08004KT 9999 BKN037 07/05 Q1019 BECMG
                        4500 BR=
200801012250 METAR COR EGLL 012250Z 07003KT 9999 -DZ SCT032 BKN041 07/05
                        Q1019 BECMG BKN012=
200801012220 METAR EGLL 012220Z VRB03KT 9999 SCT023 BKN034 07/05 Q1019
                        BECMG BKN012=
200801012150 METAR EGLL 012150Z 14002KT 9999 BKN038 07/06 Q1019 NOSIG=
200801012120 METAR EGLL 012120Z 15002KT 9000 FEW028 BKN037 07/06 Q1020
                        NOSIG=
200801012050 METAR EGLL 012050Z 14004KT 110V180 9999 SCT030 BKN041 08/06
                        Q1020 NOSIG=
200801012020 METAR EGLL 012020Z 13002KT 8000 BKN044 07/06 Q1020 NOSIG=
200801011950 METAR COR EGLL 011950Z 13004KT 090V160 9000 SCT035 SCT044
                        07/06 Q1020 NOSIG=
200801011920 METAR EGLL 011920Z 14004KT 110V200 8000 SCT036 BKN046 08/06
                        Q1020 NOSIG=
200801011850 METAR COR EGLL 011850Z 16004KT 130V200 8000 BKN037 08/06
                        Q1020 NOSIG=
200801011820 METAR EGLL 011820Z 19004KT 160V240 8000 SCT037 08/06 Q1020
                        NOSIG=
200801011750 METAR EGLL 011750Z 19004KT 150V240 7000 SCT038 08/06 Q1020
                        NOSIG=
200801011720 METAR COR EGLL 011720Z 23005KT 200V270 8000 FEW041 08/07
                        Q1021 NOSIG=
200801011650 METAR EGLL 011650Z 20006KT 180V240 7000 FEW037 08/07 Q1021
                        NOSIG=
200801011620 METAR COR EGLL 011620Z 21006KT 180V250 6000 FEW010 SCT031
                        09/07 Q1021 NOSIG=
200801011550 METAR COR EGLL 011550Z 20004KT 130V290 6000 FEW009 BKN041
                        09/07 Q1021 NOSIG=
200801011520 METAR EGLL 011520Z 19004KT 150V260 7000 SCT009 BKN038 09/07
                        Q1021 NOSIG=
200801011450 METAR EGLL 011450Z 22005KT 160V260 8000 FEW008 SCT043 09/07
                        Q1021=
200801011420 METAR EGLL 011420Z 22006KT 180V260 8000 FEW008 SCT043 09/07
                        Q1021 NOSIG=
200801011350 METAR COR EGLL 011350Z 23006KT 180V270 8000 FEW008 09/07
                        Q1021 NOSIG=
200801011320 METAR COR EGLL 011320Z 24007KT 7000 SCT008 09/07 Q1021 NOSIG=
200801011250 METAR COR EGLL 011250Z 24009KT 6000 SCT005 09/08 Q1022 TEMPO
                        BKN010=
200801011220 METAR COR EGLL 011220Z 22008KT 190V250 7000 FEW006 SCT043
                        09/08 Q1022 NOSIG=
200801011150 METAR EGLL 011150Z 24007KT 7000 SCT006 SCT038 09/08 Q1022
                        NOSIG=
200801011120 METAR EGLL 011120Z 22006KT 190V270 6000 SCT037 09/08 Q1023
                        NOSIG=
200801011050 METAR COR EGLL 011050Z 22006KT 180V260 6000 SCT030 08/07
                        Q1023 NOSIG=
200801011020 METAR COR EGLL 011020Z 20007KT 170V240 4800 BR SCT028 08/07
                        Q1023 BECMG 5000=
200801010950 METAR EGLL 010950Z 21004KT 170V250 3800 BR FEW015 SCT043
                        07/07 Q1023=
200801010920 METAR COR EGLL 010920Z 22005KT 180V260 3300 BR SCT015 BKN037
                        BKN043 07/07 Q1023 BECMG 5000=
200801010850 METAR EGLL 010850Z 19004KT 160V260 4000 BR FEW016 07/06 Q1023
                        BECMG 5000=
200801010820 METAR COR EGLL 010820Z 18004KT 150V230 4000 BR FEW010 07/06
                        Q1023 TEMPO BKN012=
200801010750 METAR COR EGLL 010750Z VRB02KT 2500 BR SCT010 07/06 Q1023
                        TEMPO BKN009=
200801010720 METAR COR EGLL 010720Z 18004KT 150V230 4000 BR SCT015 07/06
                        Q1023 TEMPO BKN009=
200801010650 METAR EGLL 010650Z VRB03KT 6000 SCT006 BKN009 07/06 Q1024
                        NOSIG=
200801010620 METAR COR EGLL 010620Z VRB03KT 3500 BR SCT006 BKN013 07/06
                        Q1024=
200801010550 METAR COR EGLL 010550Z 00000KT 3500 BR FEW012 07/06 Q1024
                        TEMPO BKN007=
200801010520 METAR COR EGLL 010520Z VRB02KT 2900 BR SCT007 SCT011 07/06
                        Q1024 TEMPO BKN007=
200801010450 METAR COR EGLL 010450Z 19004KT 140V250 2900 BR SCT002 BKN013
                        07/07 Q1024 TEMPO BKN007=
200801010420 METAR COR EGLL 010420Z 19004KT 2700 BKN002 BKN007 08/07 Q1024
                        NOSIG=
200801010350 METAR EGLL 010350Z 21004KT 2800 BR OVC004 07/07 Q1025 NOSIG=
200801010320 METAR EGLL 010320Z 22002KT 2400 BR BKN005 07/06 Q1025 TEMPO
                        BKN004=
200801010250 METAR COR EGLL 010250Z 20003KT 3200 BR SCT005 SCT012 07/06
                        Q1025 TEMPO BKN004=
200801010220 METAR EGLL 010220Z AUTO 20003KT 2800NDV HZ BKN004/// 07/06
                        Q1025=
200801010150 METAR COR EGLL 010150Z AUTO 20004KT 3800NDV HZ BKN004///
                        08/07 Q1025=
200801010120 METAR EGLL 010120Z AUTO 19003KT 3100NDV HZ BKN005/// 07/06
                        Q1026=
200801010050 METAR COR EGLL 010050Z 18003KT 5000 BR BKN006 07/06 Q1026
                        TEMPO 4000=
200801010020 METAR EGLL 010020Z 20003KT 6000 OVC008 08/06 Q1026=

###################################
#  short TAF from EGLL
###################################
200801312100 TAF EGLL 312100Z 312207 26013KT 9999 SCT030
                      TEMPO 2202 27017G28KT
                      PROB30 TEMPO 2201 7000 SHRA=
200801311752 TAF EGLL 311752Z 311904 26014KT 9999 FEW035=
200801311533 TAF AMD EGLL 311533Z 311601 27015G25KT 9999 FEW035
                      PROB40 TEMPO 1621 27022G35KT=
200801311506 TAF EGLL 311506Z 311601 27015G25KT 9999 FEW035
                      PROB40 TEMPO 1601 27022G35KT=
200801311216 TAF EGLL 311216Z 311322 20017G27KT 9999 BKN025
                      TEMPO 1314 21027G37KT 7000 RA BKN014
                      PROB40 TEMPO 1314 22035G48KT 4000 +RA BKN014CB
                       BECMG 1316 26015G25KT
                      TEMPO 1522 27022G35KT=
200801311200 TAF EGLL 311200Z NIL=
200801310904 TAF EGLL 310904Z 311019 20017G27KT 9999 BKN025
                      TEMPO 1014 21027G37KT 7000 RA BKN014
                      PROB40 TEMPO 1214 22035G48KT 4000 +RA BKN014CB
                       BECMG 1316 26015G25KT
                      TEMPO 1516 27022G35KT=
200801310600 TAF EGLL 310600Z 310716 20017G27KT 9999 BKN025
                      TEMPO 0714 21027G37KT 7000 RA BKN014
                      PROB40 TEMPO 1214 22035G48KT 4000 +RA BKN014CB
                       BECMG 1316 26015G25KT
                      TEMPO 1516 27022G35KT=
200801310256 TAF EGLL 310256Z 310413 22016G26KT 9999 BKN025
                      TEMPO 0513 22027G37KT 7000 RA BKN014
                      PROB40 TEMPO 1213 22035G48KT 4000 +RA BKN014CB=
200801310002 TAF EGLL 310002Z 310110 22012KT 9999 SCT025
                      BECMG 0205 22016G26KT
                      PROB40 TEMPO 0410 22027G37KT 7000 RA BKN014=
200801302100 TAF EGLL 302100Z 302207 22012KT 9999 SCT025
                      BECMG 0104 22017G27KT
                      PROB40 TEMPO 0307 22027G37KT 7000 RA BKN014=
200801301807 TAF EGLL 301807Z 301904 22007KT 9999 FEW025
                      BECMG 0002 22020G30KT
                      PROB40 0204 22027G40KT=
200801301512 TAF EGLL 301512Z 301601 29012KT 9999 FEW025
                      BECMG 1720 22007KT
                      PROB40 2201 22020G30KT=
200801301500 TAF EGLL 301500Z NIL=
200801301235 TAF AMD EGLL 301235Z 301322 29012KT 9999 FEW025
                      PROB30 TEMPO 1315 29015G25KT=
200801301210 TAF EGLL 301210Z 301322 29012KT CAVOK
                      PROB30 TEMPO 1315 29015G25KT=
200801300857 TAF EGLL 300857Z 301019 29012KT CAVOK
                      PROB30 TEMPO 1015 29015G25KT=
200801300558 TAF EGLL 300558Z 300716 29012KT CAVOK
                      PROB30 TEMPO 0915 29015G25KT=
200801300304 TAF EGLL 300304Z 300413 29012KT 9999 -RA BKN030
                      BECMG 0407 CAVOK
                      PROB30 TEMPO 0405 6000 RA BKN012
                      PROB30 TEMPO 0913 29015G25KT=
200801300116 TAF AMD EGLL 300116Z 300110 30012KT 9999 SCT025
                      PROB40 TEMPO 0104 7000 RA BKN014
                      TEMPO 0810 30015G25KT=
200801300006 TAF EGLL 300006Z 300110 30012KT 6000 -RADZ BKN012
                      TEMPO 0102 3500 -RADZ BKN007
                      BECMG 0205 9999 NSW SCT025=
200801292333 TAF AMD EGLL 292333Z 292307 22012KT 9999 BKN025
                      TEMPO 2304 6000 RA
                      TEMPO 2302 BKN012
                      PROB40 TEMPO 2302 3500 RADZ BKN008
                      BECMG 2302 30010KT=
200801292105 TAF EGLL 292105Z 292207 22012KT 9999 BKN025
                      TEMPO 2204 6000 RA
                      TEMPO 2202 BKN012
                      BECMG 2302 30010KT=
200801291752 TAF EGLL 291752Z 291904 21010KT 9999 BKN025
                      TEMPO 1903 BKN014
                      TEMPO 2204 7000 RA
                      BECMG 2302 32010KT=
200801291455 TAF EGLL 291455Z 291601 21010KT 9999 BKN025
                      TEMPO 1901 BKN014
                      TEMPO 2201 7000 RA
                      BECMG 2301 32012KT=
200801291205 TAF EGLL 291205Z 291322 22005KT 9999 SCT025=
200801291200 TAF EGLL 291200Z NIL=
200801290859 TAF EGLL 290859Z 291019 22005KT 9999 SCT025
                      PROB30 TEMPO 1011 8000=
200801290606 TAF EGLL 290606Z 290716 22005KT 7000 FEW020
                      BECMG 0810 9999=
200801290429 TAF AMD EGLL 290429Z 290413 22006KT 8000 SCT020
                      BECMG 0810 9999=
200801290259 TAF EGLL 290259Z 290413 22006KT 9999 SCT020
                      PROB40 0610 8000=
200801282359 TAF EGLL 282359Z 290110 21006KT 9999 SCT025
                      PROB40 0610 8000=
200801282104 TAF EGLL 282104Z 282207 24006KT 9999 OVC020
                      PROB40 0507 8000=
200801281757 TAF EGLL 281757Z 281904 24006KT 9999 BKN020
                      TEMPO 1904 7000
                      PROB30 TEMPO 2104 BKN008=
200801281500 TAF EGLL 281500Z 281601 24005KT 9999 BKN020
                      TEMPO 1601 7000 BKN009=
200801281204 TAF EGLL 281204Z 281322 24005KT 3000 BR BKN020
                      BECMG 1316 6000 NSW
                      PROB30 TEMPO 1315 1400 BR BKN006
                      TEMPO 1422 9999=
200801281108 TAF AMD EGLL 281108Z 281019 23005KT 3000 BR BKN006
                      TEMPO 1013 0400 FG BKN002
                      BECMG 1114 6000 NSW BKN010
                      BECMG 1417 9999 BKN018=
200801280858 TAF EGLL 280858Z 281019 23005KT 3000 BR BKN006
                      TEMPO 1011 0700 FG BKN003
                      BECMG 1114 7000 NSW BKN010
                      BECMG 1316 9999 BKN018=
200801280559 TAF EGLL 280559Z 280716 23005KT 0300 FG VV///
                      BECMG 0810 3000 BR BKN003
                      BECMG 1013 7000 NSW BKN007
                      BECMG 1316 9999 BKN018=
200801280259 TAF EGLL 280259Z 280413 25005KT 3000 BR BKN003
                      TEMPO 0409 0300 FG VV///
                      BECMG 0912 7000 NSW BKN007=
200801272357 TAF EGLL 272357Z 280110 25005KT 3000 BR FEW003
                      TEMPO 0110 BKN003
                      PROB40 TEMPO 0109 0400 FG BKN001=
200801272054 TAF EGLL 272054Z 272207 25005KT 7000 FEW025
                      BECMG 2201 3000 BR BKN003
                      PROB40 TEMPO 0107 0400 FG BKN001=
200801271810 TAF EGLL 271810Z 271904 25005KT CAVOK
                      BECMG 2224 8000
                      BECMG 0104 3000 BR BKN003=
200801271511 TAF EGLL 271511Z 271601 26009KT CAVOK
                      BECMG 2124 8000=
200801271500 TAF EGLL 271500Z NIL=
200801271200 TAF EGLL 271200Z 271322 27010KT 9999 FEW020=
200801270859 TAF EGLL 270859Z 271019 27010KT 9999 FEW020=
200801270555 TAF EGLL 270555Z 270716 24009KT 9999 FEW015
                      PROB40 TEMPO 0710 BKN010=
200801270257 TAF EGLL 270257Z 270413 24010KT 9999 FEW015
                      PROB30 TEMPO 0409 BKN010=
200801262353 TAF EGLL 262353Z 270110 24010KT 9999 FEW020
                      PROB30 TEMPO 0309 BKN010=
200801262052 TAF EGLL 262052Z 262207 24010KT CAVOK
                      PROB30 TEMPO 0607 BKN010=
200801261758 TAF EGLL 261758Z 261904 25009KT CAVOK=
200801261505 TAF EGLL 261505Z 261601 26012KT CAVOK=
200801261206 TAF EGLL 261206Z 261322 26013KT 9999 FEW025
                      PROB40 TEMPO 1316 26017G27KT=
200801260859 TAF EGLL 260859Z 261019 26014KT 9999 FEW020
                      PROB40 TEMPO 1016 26018G28KT=
200801260556 TAF EGLL 260556Z 260716 24013KT 9999 SCT030
                      PROB40 TEMPO 0816 26018G28KT=
200801260246 TAF EGLL 260246Z 260413 23012KT 9999 SCT028
                      PROB40 TEMPO 1013 25015G25KT=
200801260003 TAF EGLL 260003Z 260110 25012KT 9999 BKN028=
200801252039 TAF EGLL 252039Z 252207 25012KT 9999 BKN028
                      PROB30 TEMPO 0207 BKN014=
200801251754 TAF EGLL 251754Z 251904 25010KT 9999 BKN028
                      PROB30 TEMPO 2104 BKN014=
200801251457 TAF EGLL 251457Z 251601 25013KT 9999 SCT028
                      TEMPO 1619 25018G28KT
                      PROB30 TEMPO 2101 BKN014=
200801251157 TAF EGLL 251157Z 251322 25015KT 9999 SCT030
                      TEMPO 1321 25022G32KT=
200801250857 TAF EGLL 250857Z 251019 25017KT 9999 FEW030
                      TEMPO 1019 25022G32KT=
200801250549 TAF EGLL 250549Z 250716 22012KT CAVOK
                      TEMPO 0916 25018G28KT BKN030=
200801250258 TAF EGLL 250258Z 250413 22010KT CAVOK
                      TEMPO 0613 25018G28KT BKN030=
200801242354 TAF EGLL 242354Z 250110 23010KT CAVOK=
200801242031 TAF EGLL 242031Z 242207 25010KT CAVOK=
200801241755 TAF EGLL 241755Z 241904 27008KT CAVOK=
200801241456 TAF EGLL 241456Z 241601 27010KT CAVOK
                      TEMPO 1617 28016G26KT=
200801241153 TAF EGLL 241153Z 241322 27012KT 9999 SCT030
                      TEMPO 1017 28016G26KT=
200801240854 TAF EGLL 240854Z 241019 27012KT 9999 SCT025
                      TEMPO 1017 28016G26KT=
200801240555 TAF EGLL 240555Z 240716 21012KT 9999 SCT025
                      TEMPO 0711 BKN012
                      PROB40 TEMPO 0708 7000 -RA BKN007
                      BECMG 0709 27010KT
                      TEMPO 1016 28016G26KT=
200801240256 TAF EGLL 240256Z 240413 21012KT 9999 BKN025
                      TEMPO 0411 BKN012
                      PROB40 TEMPO 0407 7000 -RA BKN007
                      PROB30 TEMPO 0407 4000 RADZ
                      BECMG 0609 27010KT
                      TEMPO 1013 28015G25KT=
200801240002 TAF EGLL 240002Z 240110 21012KT 9999 BKN025
                      TEMPO 0110 BKN012
                      PROB40 TEMPO 0107 7000 -RA BKN007
                      PROB30 TEMPO 0106 4000 RADZ
                      BECMG 0609 27010KT=
200801232101 TAF EGLL 232101Z 232207 22012KT 9999 BKN020
                      TEMPO 2207 7000 -DZ BKN012
                      PROB30 TEMPO 0006 4000 RADZ BKN008=
200801231803 TAF EGLL 231803Z 231904 21012KT 9999 BKN025
                      TEMPO 1904 7000 -DZ BKN014
                      PROB30 TEMPO 0004 4000 RADZ BKN008=
200801231446 TAF EGLL 231446Z 231601 21012KT 9999 BKN025
                      TEMPO 1601 7000 -RA BKN014
                      PROB30 TEMPO 1901 BKN008=
200801231154 TAF EGLL 231154Z 231322 21012KT 9999 BKN025
                      TEMPO 1322 7000 -RA BKN014=
200801230857 TAF EGLL 230857Z 231019 20012KT 9999 SCT025
                      TEMPO 1019 7000 -RA BKN014=
200801230557 TAF EGLL 230557Z 230716 20012KT 9999 SCT025
                      TEMPO 0716 7000 -RA BKN014
                      PROB30 TEMPO 0710 BKN008=
200801230257 TAF EGLL 230257Z 230413 20012KT 9999 BKN020
                      TEMPO 0413 7000 -RA BKN012
                      PROB40 TEMPO 0410 BKN008
                      PROB30 TEMPO 0409 3000 BR DZ BKN004=
200801230001 TAF EGLL 230001Z 230110 20012KT 9999 BKN020
                      TEMPO 0110 7000 -RA BKN014
                      PROB40 TEMPO 0110 BKN009
                      PROB30 TEMPO 0110 3000 BR DZ=
200801222056 TAF EGLL 222056Z 222207 20010KT 9999 BKN020
                      TEMPO 2207 BKN014
                      PROB40 TEMPO 2207 7000 -RADZ BKN009
                      PROB30 TEMPO 0007 4000 BR=
200801221759 TAF EGLL 221759Z 221904 20010KT 9999 SCT025
                      PROB40 TEMPO 1923 -RA BKN014
                      BECMG 2201 BKN012
                      TEMPO 2304 7000 -RADZ BKN008
                      PROB40 TEMPO 0004 3000 DZ BKN004=
200801221459 TAF EGLL 221459Z 221601 21010KT 9999 SCT025
                      PROB40 TEMPO 2023 -RA BKN014
                      TEMPO 2301 7000 -RADZ BKN008=
200801221157 TAF EGLL 221157Z 221322 VRB04KT CAVOK
                      BECMG 1619 22010KT BKN025
                      PROB40 TEMPO 2022 -RA BKN014=
200801220900 TAF EGLL 220900Z 221019 29004KT CAVOK
                      BECMG 1619 BKN025=
200801220603 TAF EGLL 220603Z 220716 29004KT CAVOK=
200801220305 TAF EGLL 220305Z 220413 34005KT CAVOK=
200801220300 TAF EGLL 220300Z NIL=
200801220006 TAF EGLL 220006Z 220110 33015G25KT 9999 SCT025
                      TEMPO 0102 7000 -RADZ BKN010
                      BECMG 0204 32005KT
                      PROB30 TEMPO 0609 8000=
200801212107 TAF EGLL 212107Z 212207 26017G27KT 9999 SCT025
                      TEMPO 2202 7000 -RADZ BKN012
                      BECMG 2201 32015G25KT
                      BECMG 0204 32005KT=
200801212012 TAF COR EGLL 212012Z 211904 26017G27KT 9999 BKN020
                      PROB40 TEMPO 1924 28025G37KT
                      PROB30 TEMPO 1922 8000 SHRA BKN014
                      TEMPO 2201 7000 -RADZ BKN012
                      BECMG 2301 32015G25KT
                      BECMG 0204 32005KT
                      PROB30 0304 7000=
200801212006 TAF EGLL 212006Z 211904 26017G27KT 9999 BKN020
                      PROB40 TEMPO 1924 28025G37KT
                      PROB30 TEMPO 1922 8000 SHRA BKN014
                      TEMPO 2201 7000 -RADZ BKN012
                      BECMG 2301 32015G25KT
                      BECMG 0204 32005KT
                      PROB20 0304 7000=
200801211800 TAF EGLL 211800Z NIL=
200801211500 TAF EGLL 211500Z NIL=
200801211454 TAF EGLL 211454Z 211601 26017G27KT 9999 BKN020
                      PROB40 TEMPO 1624 28025G37KT
                      PROB30 TEMPO 1622 8000 SHRA BKN014
                      TEMPO 2201 7000 -RADZ BKN012
                      BECMG 2301 32015G25KT=
200801211156 TAF EGLL 211156Z 211322 22016KT 9999 BKN020
                      TEMPO 1316 22018G28KT 7000 -RADZ BKN014
                      PROB30 TEMPO 1316 4000 RADZ BKN009
                      BECMG 1417 27017G27KT
                      PROB40 TEMPO 1622 28025G37KT=
200801210859 TAF EGLL 210859Z 211019 22016KT 9999 BKN020
                      TEMPO 1016 22018G28KT 7000 -RADZ BKN014
                      PROB30 TEMPO 1216 4000 RADZ BKN009
                      BECMG 1417 27017G27KT
                      PROB40 TEMPO 1619 28025G37KT=
200801210608 TAF EGLL 210608Z 210716 22017G27KT 9999 BKN020
                      TEMPO 0712 7000 -RADZ BKN013
                      TEMPO 1216 4000 RADZ BKN009=
200801210306 TAF EGLL 210306Z 210413 23014KT 9999 SCT016 BKN020
                      TEMPO 0413 23016G26KT 7000 -RADZ BKN013
                      PROB30 TEMPO 0413 4000 DZ BKN009=
200801210001 TAF EGLL 210001Z 210110 23014KT 9999 SCT016 BKN020
                      TEMPO 0110 23016G26KT 7000 -RADZ BKN013
                      PROB30 TEMPO 0110 4000 DZ BKN009=
200801202111 TAF EGLL 202111Z 202207 23015KT 9999 SCT016 BKN020
                      TEMPO 2207 23016G26KT 7000 -RADZ BKN012
                      PROB30 TEMPO 2207 4000 DZ BKN009=
200801202100 TAF EGLL 202100Z NIL=
200801201754 TAF EGLL 201754Z 201904 23015KT 9999 BKN020
                      TEMPO 1904 23018G28KT 7000 -RADZ BKN012
                      PROB30 TEMPO 1904 4000 BKN009=
200801201456 TAF EGLL 201456Z 201601 23017KT 9999 BKN018
                      TEMPO 1601 23018G30KT 7000 -RADZ BKN012
                      PROB30 TEMPO 1601 4000 BKN009=
200801201201 TAF EGLL 201201Z 201322 23017KT 9999 BKN018
                      TEMPO 1322 23018G30KT 7000 -RADZ BKN012
                      PROB30 TEMPO 1322 4000 -RADZ BKN009=
200801200857 TAF EGLL 200857Z 201019 23017KT 9999 BKN018
                      TEMPO 1019 23018G30KT 7000 -RADZ BKN012
                      PROB30 TEMPO 1019 4000 -RADZ BKN009=
200801200556 TAF EGLL 200556Z 200716 23017KT 9999 BKN018
                      TEMPO 0716 23018G30KT 7000 -RADZ BKN012
                      PROB30 TEMPO 0716 4000 -RADZ BKN009=
200801200305 TAF EGLL 200305Z 200413 23017KT 9999 BKN018
                      TEMPO 0413 23018G30KT 7000 -RADZ BKN012
                      PROB30 TEMPO 0413 BKN009=
200801200004 TAF EGLL 200004Z 200110 23017KT 9999 BKN020
                      TEMPO 0110 7000 RADZ BKN012
                      PROB30 TEMPO 0110 23018G30KT BKN009=
200801192106 TAF EGLL 192106Z 192207 22014KT 9999 -RA BKN015
                      TEMPO 2207 22015G25KT 7000 BKN010
                      PROB40 TEMPO 2207 4500 RADZ BKN008=
200801191808 TAF EGLL 191808Z 191904 24015KT 9999 -RA BKN016
                      TEMPO 1904 23015G25KT 8000 BKN012
                      PROB40 TEMPO 1904 4000 RADZ BKN009=
200801191508 TAF EGLL 191508Z 191601 24015KT 9999 -RA BKN015
                      TEMPO 1601 23015G25KT 8000 BKN012
                      PROB40 TEMPO 1601 4000 RADZ BKN009=
200801191216 TAF EGLL 191216Z 191322 23015KT 9999 -RA BKN015
                      TEMPO 1322 23017G27KT 8000 BKN009
                      PROB40 TEMPO 1322 4000 RADZ=
200801191200 TAF EGLL 191200Z NIL=
200801190910 TAF EGLL 190910Z 191019 23015KT 9999 -RA BKN015
                      TEMPO 1019 23017G27KT 8000 BKN009
                      PROB30 TEMPO 1019 4000 RADZ=
200801190900 TAF EGLL 190900Z NIL=
200801190559 TAF EGLL 190559Z 190716 23015KT 9999 -RA BKN015
                      TEMPO 0716 23018G28KT 7000 BKN008
                      PROB30 TEMPO 0716 4000 RADZ=
200801190305 TAF EGLL 190305Z 190413 23015KT 9999 -RA BKN015
                      TEMPO 0413 23018G30KT 7000 BKN008
                      PROB40 TEMPO 0413 4000 -RADZ=
200801190034 TAF COR EGLL 190034Z 190110 23015KT 9999 BKN015
                      TEMPO 0110 23018G30KT 7000 -RA BKN010
                      PROB40 TEMPO 0110 4000 RADZ BKN008=
200801190004 TAF EGLL 190004Z 190110 23015KT 9999 BKN014
                      TEMPO 0110 23018G30KT 7000 -RA BKN010
                      PROB40 TEMPO 0110 4000 RADZ BKN008=
200801182107 TAF EGLL 182107Z 182207 23015KT 9999 BKN014
                      TEMPO 2207 23017G28KT 7000 -RADZ
                      PROB40 TEMPO 2207 4000 RADZ BKN008=
200801181810 TAF EGLL 181810Z 181904 23018G28KT 9999 BKN013
                      TEMPO 1904 7000 DZ
                      PROB40 TEMPO 1904 4000 DZ BKN008=
200801181800 TAF EGLL 181800Z NIL=
200801181513 TAF EGLL 181513Z 181601 23018G30KT 9999 BKN014
                      TEMPO 1601 7000 RADZ
                      PROB40 TEMPO 1601 4000 RADZ BKN008=
200801181500 TAF EGLL 181500Z NIL=
200801181214 TAF EGLL 181214Z 181322 21013KT 9999 BKN013
                      TEMPO 1322 23020G30KT 7000 RADZ
                      PROB40 TEMPO 1322 4000 RADZ BKN008=
200801181200 TAF EGLL 181200Z NIL=
200801180922 TAF EGLL 180922Z 181019 21013KT 9999 BKN013
                      TEMPO 1019 7000 RADZ
                      TEMPO 1119 23020G30KT
                      PROB40 TEMPO 1119 3000 RADZ BKN008=
200801180900 TAF EGLL 180900Z NIL=
200801180544 TAF EGLL 180544Z 180716 22015KT 9999 FEW025
                      BECMG 0811 7000 RA BKN014
                      TEMPO 1116 24020G30KT 9999 NSW SCT012 BKN025
                       PROB40
                      TEMPO 1116 3000 RADZ BKN008=
200801180255 TAF EGLL 180255Z 180413 25017KT 9999 FEW025
                      BECMG 0710 7000 RA BKN014
                      TEMPO 1013 22020G30KT 9999 NSW SCT012 BKN025
                       PROB40
                      TEMPO 1013 3000 RADZ BKN008=
200801172356 TAF EGLL 172356Z 180110 24017KT 9999 FEW025
                      BECMG 0710 7000 RA BKN014=
200801172053 TAF EGLL 172053Z 172207 24017G27KT 9999 FEW025
                      BECMG 2201 21010KT=
200801171755 TAF EGLL 171755Z 171904 24015G37KT 9999 FEW025
                      BECMG 2201 21010KT=
200801171458 TAF EGLL 171458Z 171601 24018G30KT 9999 SCT025
                      TEMPO 1618 6000 SHRA SCT022CB
                      PROB40 TEMPO 1618 27028G42KT 2500 +TSGR BKN010
                       BKN018CB
                      BECMG 2201 21010KT=
200801171155 TAF EGLL 171155Z 171322 21018G30KT 6000 -RADZ BKN008
                      BECMG 1314 25022G32KT 9999 NSW SCT025
                      TEMPO 1418 6000 SHRA SCT022CB
                      PROB40 TEMPO 1418 27028G42KT 2500 +TSGR BKN010
                       BKN018CB=
200801170856 TAF EGLL 170856Z 171019 20015G28KT 9999 -RA SCT012 BKN025
                      TEMPO 1014 6000 BKN010
                      PROB40 TEMPO 1014 4000 RADZ BKN008
                      BECMG 1214 24020G30KT NSW
                      TEMPO 1418 6000 SHRA SCT022CB
                      PROB40 TEMPO 1518 26025G40KT 2500 +TSRA BKN010
                       BKN018CB=
200801170602 TAF EGLL 170602Z 170716 20007KT 9999 FEW030
                      BECMG 0911 20015G27KT 8000 -RA BKN014
                      TEMPO 0913 BKN008
                      BECMG 1315 26017G30KT 9999 NSW SCT025
                      PROB30 TEMPO 1416 4000 +SHRA BKN012CB=
200801170311 TAF EGLL 170311Z 170413 20005KT CAVOK
                      TEMPO 0407 7000
                      BECMG 0811 20015G27KT 8000 -RA BKN014
                      TEMPO 0913 BKN008=
200801170300 TAF EGLL 170300Z NIL=
200801170007 TAF EGLL 170007Z 170110 22003KT 7000 NSC
                      BECMG 0508 9999
                      BECMG 0810 20016G26KT 8000 -RA BKN014=
200801162100 TAF EGLL 162100Z 162207 22003KT CAVOK
                      PROB40 2207 5000 BR=
200801161740 TAF EGLL 161740Z 161904 VRB05KT 9999 SCT025
                      TEMPO 2204 6000=
200801161507 TAF EGLL 161507Z 161601 26010KT 9999 SCT025
                      TEMPO 2201 6000=
200801161203 TAF EGLL 161203Z 161322 26010KT 9999 SCT025=
200801160853 TAF EGLL 160853Z 161019 23010KT 9999 SCT025=
200801160552 TAF EGLL 160552Z 160716 25010KT 9999 SCT025=
200801160255 TAF EGLL 160255Z 160413 25012KT 9999 SCT025=
200801160002 TAF EGLL 160002Z 160110 25015G25KT 9999 SCT025
                      BECMG 0104 23012KT=
200801152057 TAF EGLL 152057Z 152207 25015G26KT 9999 SCT025
                      TEMPO 2224 5000 RA BKN014
                      PROB30 TEMPO 2223 BKN009
                      BECMG 0104 23012KT=
200801151801 TAF EGLL 151801Z 151904 18012KT 9999 SCT022
                      BECMG 1922 26015G25KT
                      TEMPO 1924 5000 RA BKN014
                      PROB30 TEMPO 1923 3000 +SHRA BKN009 BKN014CB
                       BECMG 0104 23012KT=
200801151524 TAF EGLL 151524Z 151601 22014KT 9999 SCT018
                      TEMPO 1723 5000 SHRA BKN014
                      BECMG 1922 26015G25KT
                      PROB40 TEMPO 1922 3000 +SHRA BKN009 BKN014CB=
200801151500 TAF EGLL 151500Z NIL=
200801151214 TAF EGLL 151214Z 151322 21022G32KT 7000 -RA BKN016
                      BECMG 1417 22012KT 9999 NSW SCT025
                      PROB40 TEMPO 1722 25015G27KT 3000 +SHRA TSRA
                       BKN014CB=
200801151200 TAF EGLL 151200Z NIL=
200801150905 TAF EGLL 150905Z 151019 20017G27KT 7000 -RA BKN016
                      PROB40 TEMPO 1013 19027G37KT 4000 RA BKN008
                       BECMG 1417 22012KT 9999 NSW SCT025
                      PROB40 TEMPO 1719 25015G25KT 4000 +SHRA TSRA
                       BKN014CB=
200801150556 TAF EGLL 150556Z 150716 20017G27KT 7000 -RA BKN016
                      PROB40 TEMPO 0713 19027G37KT 4000 RA BKN008
                       BECMG 1316 22012KT 9999 NSW SCT025=
200801150256 TAF EGLL 150256Z 150413 20013KT 9999 SCT025
                      BECMG 0407 7000 -RA BKN014
                      BECMG 0609 18017G27KT
                      PROB40 TEMPO 0713 19027G37KT 4000 +RA RADZ
                       BKN008=
200801150001 TAF EGLL 150001Z 150110 20013KT 9999 SCT025
                      PROB40 TEMPO 0104 21015G25KT 7000 -RA SHRA
                       BKN014
                      BECMG 0407 7000 -RA BKN014
                      BECMG 0609 18022G32KT
                      TEMPO 0710 19028G40KT 4000 +RA RADZ BKN008=
200801142305 TAF AMD EGLL 142305Z 142207 20013KT 9999 SCT025
                      PROB40 TEMPO 2304 21016G26KT 7000 -RA SHRA
                       BKN014
                      BECMG 0407 7000 -RA BKN014=
200801142059 TAF EGLL 142059Z 142207 20013KT 9999 SCT025
                      PROB40 TEMPO 0004 21016G26KT 7000 -RA SHRA
                       BKN014
                      BECMG 0407 7000 -RA BKN014=
200801141802 TAF EGLL 141802Z 141904 20013KT 9999 SCT025
                      PROB40 TEMPO 0004 21016G26KT 7000 -RA SHRA
                       BKN014=
200801141502 TAF EGLL 141502Z 141601 20015KT 9999 SCT025
                      TEMPO 1619 22020G30KT
                      PROB40 TEMPO 1619 7000 SHRA BKN022CB=
200801141202 TAF EGLL 141202Z 141322 20015KT 9999 SCT025
                      TEMPO 1319 22018G28KT
                      PROB30 TEMPO 1319 7000 SHRA BKN022CB=
200801140842 TAF EGLL 140842Z 141019 20015KT 9999 SCT025
                      TEMPO 1018 22018G28KT
                      TEMPO 1012 5000 SHRA BKN015CB
                      PROB30 TEMPO 1219 7000 SHRA BKN025CB=
200801140555 TAF EGLL 140555Z 140716 20013KT 9999 SCT025
                      BECMG 0710 22018G28KT
                      TEMPO 0716 5000 SHRA BKN020CB=
200801140305 TAF EGLL 140305Z 140413 20013KT 9999 SCT025
                      TEMPO 0410 21020G30KT 6000 SHRA BKN014CB
                       BECMG 1013 22016G26KT=
200801132359 TAF EGLL 132359Z 140110 20013KT 9999 SCT025
                      TEMPO 0106 7000 -SHRA BKN014
                      TEMPO 0610 21020G30KT 6000 SHRA BKN014CB=
200801132058 TAF EGLL 132058Z 132207 18018G28KT 9999 SCT025
                      TEMPO 2203 7000 RA BKN012
                      BECMG 2302 20014KT
                      PROB30 TEMPO 0307 6000 SHRA BKN014CB=
200801131757 TAF EGLL 131757Z 131904 18018G28KT 9999 SCT025
                      PROB30 TEMPO 1922 17026G38KT
                      TEMPO 2102 7000 -RA BKN012
                      BECMG 2302 20014KT
                      PROB30 TEMPO 0204 6000 SHRA BKN014CB=
200801131452 TAF EGLL 131452Z 131601 19018G28KT 9999 SCT025
                      PROB30 TEMPO 1622 17026G38KT
                      TEMPO 2101 7000 -RA BKN012=
200801131156 TAF EGLL 131156Z 131322 19018G28KT 9999 SCT015 BKN025
                      PROB30 TEMPO 1522 17026G38KT
                      TEMPO 2122 7000 -RA BKN012=
200801130855 TAF EGLL 130855Z 131019 19018G28KT 9999 SCT012 BKN020
                      PROB30 TEMPO 1013 BKN012
                      PROB30 TEMPO 1519 17026G38KT=
200801130603 TAF EGLL 130603Z 130716 19018G28KT 9999 SCT012 BKN020
                      TEMPO 0710 8000 -DZ BKN012=
200801130507 TAF AMD EGLL 130507Z 130413 19016G26KT 9999 SCT010 BKN018
                      TEMPO 0410 6000 -DZ BKN010=
200801130252 TAF EGLL 130252Z 130413 19016G26KT 9999 BKN010
                      TEMPO 0410 6000 -DZ BKN007
                      BECMG 0911 BKN018=
200801130001 TAF EGLL 130001Z 130110 18015G25KT 9999 -RA BKN010
                      TEMPO 0110 5000 -RADZ BKN007=
200801122128 TAF COR EGLL 122128Z 122207 18015G25KT 9999 -RA BKN012
                      TEMPO 2207 5000 -RADZ BKN007=
200801122100 TAF EGLL 122100Z 122207 18015G25KT -RA BKN012
                      TEMPO 2207 5000 -RADZ BKN007=
200801121758 TAF EGLL 121758Z 121904 20010KT 9999 SCT025
                      BECMG 1922 18017G28KT -RA BKN014
                      TEMPO 2124 6000 RA
                      TEMPO 0004 5000 -RADZ BKN007=
200801121455 TAF EGLL 121455Z 121601 20010KT 9999 SCT025
                      BECMG 1922 18017G28KT -RA BKN014
                      TEMPO 2124 6000 RA
                      TEMPO 0001 5000 -RADZ BKN007=
200801121202 TAF EGLL 121202Z 121322 25010KT 9999 SCT025
                      BECMG 1316 19008KT
                      BECMG 1922 18017G28KT -RA BKN014
                      TEMPO 2122 6000 RA=
200801120855 TAF EGLL 120855Z 121019 26010KT 9999 SCT025
                      BECMG 1316 20008KT=
200801120602 TAF EGLL 120602Z 120716 26010KT 9999 SCT025
                      BECMG 1316 20008KT=
200801120302 TAF EGLL 120302Z 120413 29012KT 9999 SCT025
                      BECMG 0811 23010KT=
200801120005 TAF EGLL 120005Z 120110 29012KT 9999 SCT020
                      TEMPO 0103 30017G30KT 3500 RA BKN006
                      BECMG 0710 23010KT=
200801112116 TAF EGLL 112116Z 112207 29012KT 9999 -RA BKN012
                      BECMG 2224 30017G28KT
                      TEMPO 2202 3000 RA BKN005
                      BECMG 0205 27014KT 9999 NSW SCT020=
200801112100 TAF EGLL 112100Z NIL=
200801111809 TAF EGLL 111809Z 111904 18012KT 9999 FEW012 BKN030
                      BECMG 1921 29010KT 7000 -RA BKN010
                      BECMG 2124 32020G30KT
                      TEMPO 2102 3000 RADZ BKN006
                      BECMG 0103 9999 NSW SCT020=
200801111518 TAF EGLL 111518Z 111601 19014KT 9999 SCT012
                      BECMG 1719 VRB05KT 7000 -RA BKN010
                      BECMG 2023 32017G27KT
                      TEMPO 2101 3000 RADZ BKN006=
200801111500 TAF EGLL 111500Z NIL=
200801111220 TAF EGLL 111220Z 111322 19017G27KT 9999 SCT012
                      TEMPO 1315 8000 -SHRA BKN012
                      BECMG 1619 32010KT 7000 -RA BKN010
                      BECMG 1921 32017G27KT
                      TEMPO 2022 3000 RADZ BKN008=
200801111200 TAF EGLL 111200Z NIL=
200801110922 TAF EGLL 110922Z 111019 07010KT 6000 -RA SCT008 BKN015
                      TEMPO 1012 3000 RA BKN008
                      BECMG 1114 19017G27KT 9999 NSW
                      BECMG 1619 32010KT 7000 -RA BKN010=
200801110900 TAF EGLL 110900Z NIL=
200801110600 TAF EGLL 110600Z 110716 07010KT 6000 -RA BKN015
                      TEMPO 0716 3000 RADZ BKN006
                      PROB30 0708 BKN004
                      BECMG 1013 19010KT
                      TEMPO 1316 VRB07KT=
200801110318 TAF EGLL 110318Z 110413 14006KT 7000 BKN020
                      BECMG 0508 08010KT 4000 RA
                      TEMPO 0508 BKN004
                      TEMPO 0813 3000 RA BKN007
                      BECMG 1013 17012KT=
200801110300 TAF EGLL 110300Z NIL=
200801110008 TAF EGLL 110008Z 110110 21010KT 8000 NSC
                      BECMG 0104 08006KT
                      TEMPO 0104 CAVOK
                      BECMG 0407 -RA BKN040
                      TEMPO 0408 3000 BR
                      PROB30 0608 BKN004
                      TEMPO 0810 3500 RA BKN007=
200801102129 TAF AMD EGLL 102129Z 102207 21010KT 9999 FEW015 BKN040
                      TEMPO 2201 8000
                      BECMG 0104 08005KT 7000
                      TEMPO 0407 4000 BR
                      PROB30 0607 BKN004=
200801102114 TAF EGLL 102114Z 102207 21010KT 9999 FEW015 BKN040
                      BECMG 0104 08005KT 8000
                      TEMPO 0407 4000 BR
                      PROB30 0607 BKN004=
200801102100 TAF EGLL 102100Z NIL=
200801101802 TAF EGLL 101802Z 101904 22010KT 9999 FEW015 BKN040
                      BECMG 0104 VRB04KT 8000=
200801101507 TAF EGLL 101507Z 101601 20023G37KT 9999 BKN015
                      TEMPO 1618 4000 RA BKN010
                      BECMG 1719 22010KT=
200801101204 TAF EGLL 101204Z 101322 20020G30KT 9999 BKN020
                      TEMPO 1318 20027G42KT 3500 RA BKN010
                      BECMG 1719 21010KT=
200801100901 TAF EGLL 100901Z 101019 20020G30KT 9999 SCT018 BKN035
                      PROB30 TEMPO 1013 9000 -RADZ BKN014
                      TEMPO 1318 20027G42KT 3500 RA BKN010
                      BECMG 1719 21010KT=
200801100600 TAF EGLL 100600Z 100716 20020G30KT 9999 SCT018 BKN035
                      PROB30 TEMPO 0712 9000 -RADZ BKN014
                      TEMPO 1216 20027G42KT 3500 RA BKN008=
200801100307 TAF EGLL 100307Z 100413 20020G30KT 9999 SCT018 BKN035
                      PROB30 TEMPO 0411 9000 -RADZ BKN014
                      TEMPO 1113 20027G42KT 3500 RA BKN008=
200801092355 TAF EGLL 092355Z 100110 20020G30KT 9999 SCT020 BKN040
                      PROB30 TEMPO 0110 9000 -RADZ BKN014=
200801092103 TAF EGLL 092103Z 092207 19012KT 9999 SCT020 BKN040
                      BECMG 2224 20020G30KT
                      PROB30 TEMPO 0007 9000 -RADZ BKN014=
200801091803 TAF EGLL 091803Z 091904 22012KT 9999 BKN025
                      BECMG 2024 21020G30KT
                      TEMPO 2204 7000 -RADZ BKN012=
200801091519 TAF EGLL 091519Z 091601 21012KT 9999 SCT030
                      PROB30 TEMPO 1617 23017G28KT 8000 SHRA
                      BECMG 2023 20018G30KT
                      TEMPO 2301 -RA BKN014=
200801091500 TAF EGLL 091500Z NIL=
200801091209 TAF EGLL 091209Z 091322 23012KT 9999 SCT025
                      PROB40 TEMPO 1317 23017G28KT
                      PROB30 TEMPO 1417 8000 SHRA
                      BECMG 1922 20017G28KT=
200801090903 TAF EGLL 090903Z 091019 23012KT 9999 SCT025
                      TEMPO 1017 23017G30KT
                      PROB30 TEMPO 1417 7000 SHRA=
200801090602 TAF EGLL 090602Z 090716 23010KT 9999 FEW025
                      PROB40 TEMPO 0916 23015G25KT
                      PROB30 TEMPO 1316 6000 SHRA=
200801090300 TAF EGLL 090300Z 090413 23010KT 9999 FEW025
                      PROB30 TEMPO 0913 23015G25KT=
200801090002 TAF EGLL 090002Z 090110 24010KT 9999 SCT025=
200801082152 TAF AMD EGLL 082152Z 082207 19020G30KT 9999 BKN020
                      TEMPO 2201 20024G40KT 3500 +RA +GS BKN012CB
                       BECMG 0002 27020G35KT
                      BECMG 0204 23014KT=
200801082100 TAF EGLL 082100Z 082207 19020G30KT 9999 BKN020
                      TEMPO 2201 20024G40KT 3500 +RA BKN012CB
                      BECMG 0002 27020G35KT
                      BECMG 0204 23014KT=
200801081809 TAF EGLL 081809Z 081904 19020G30KT 9999 BKN020
                      TEMPO 2001 20024G40KT
                      TEMPO 2201 3500 +RA BKN012
                      BECMG 0003 23014KT=
200801081517 TAF EGLL 081517Z 081601 19017G30KT 9999 BKN020
                      TEMPO 2101 20023G40KT 3500 +RA BKN012
                      BECMG 2301 25015KT=
200801081500 TAF EGLL 081500Z NIL=
200801081215 TAF EGLL 081215Z 081322 20017G30KT 9999 BKN020
                      TEMPO 1318 7000 -RA BKN012
                      PROB30 TEMPO 1822 7000 -RA BKN012=
200801081200 TAF EGLL 081200Z NIL=
200801080910 TAF EGLL 080910Z 081019 20010KT 9999 BKN020
                      BECMG 1013 20018G30KT
                      TEMPO 1018 7000 -RA BKN012
                      PROB40 TEMPO 1012 4000 RA=
200801080900 TAF EGLL 080900Z NIL=
200801080559 TAF EGLL 080559Z 080716 20010KT 9999 FEW015 BKN030
                      BECMG 0912 19018G28KT
                      TEMPO 0815 7000 -RA -SHRA BKN012=
200801080256 TAF EGLL 080256Z 080413 22010KT CAVOK
                      BECMG 0609 SCT018 BKN030
                      BECMG 0912 19018G28KT
                      TEMPO 0913 7000 -RA -SHRA BKN012=
200801072358 TAF EGLL 072358Z 080110 23010KT 9999 FEW040
                      PROB30 TEMPO 0810 7000 -RA -SHRA BKN014=
200801072130 TAF COR EGLL 072130Z 072207 23010KT 9999 FEW040=
200801072055 TAF EGLL 072055Z 072207 23010KT FEW040=
200801071754 TAF EGLL 071754Z 071904 24013KT 9999 FEW040=
200801071513 TAF EGLL 071513Z 071601 24014KT 9999 FEW030
                      PROB30 TEMPO 1619 24017G27KT=
200801071500 TAF EGLL 071500Z NIL=
200801071156 TAF EGLL 071156Z 071322 25018G32KT 9999 SCT030
                      PROB30 TEMPO 1315 25020G42KT 7000 SHRA SCT025CB
                       BECMG 1922 22014KT=
200801070905 TAF EGLL 070905Z 071019 24020G35KT 9999 SCT030
                      TEMPO 1012 25025G45KT
                      PROB40 TEMPO 1216 25025G45KT 7000 SHRA SCT025CB=
200801070608 TAF EGLL 070608Z 070716 25020G35KT 9999 SCT030
                      TEMPO 0710 25025G45KT
                      PROB40 TEMPO 1014 25025G45KT 7000 SHRA=
200801070310 TAF EGLL 070310Z 070413 23015G25KT 9999 SCT030
                      BECMG 0407 24017G35KT
                      TEMPO 0710 25025G45KT
                      PROB40 TEMPO 0413 7000 SHRA=
200801070005 TAF EGLL 070005Z 070110 24016G26KT 9999 SCT025
                      BECMG 0306 24018G35KT
                      TEMPO 0710 25025G45KT=
200801062108 TAF EGLL 062108Z 062207 17012KT 9999 BKN007
                      TEMPO 2224 4000 RA DZ
                      BECMG 2224 24016G26KT SCT025
                      BECMG 0407 23018G35KT=
200801061754 TAF EGLL 061754Z 061904 14012KT 9999 SCT025
                      TEMPO 2001 BKN013
                      PROB30 TEMPO 2101 7000 RA BKN008 SCT015CB
                       BECMG 2302 24016G28KT=
200801061504 TAF EGLL 061504Z 061601 18010KT 9999 SCT030
                      TEMPO 2001 BKN012
                      PROB40 TEMPO 2101 7000 RA BKN008
                      BECMG 2301 24015G25KT=
200801061205 TAF EGLL 061205Z 061322 23010KT 9999 FEW040
                      BECMG 2022 17012KT -RA BKN012=
200801060902 TAF EGLL 060902Z 061019 23008KT CAVOK=
200801060548 TAF EGLL 060548Z 060716 24007KT CAVOK=
200801060301 TAF EGLL 060301Z 060413 24006KT CAVOK=
200801052320 TAF EGLL 052320Z 060110 24006KT CAVOK=
200801052039 TAF EGLL 052039Z 052207 22006KT CAVOK=
200801051809 TAF EGLL 051809Z 051904 22007KT CAVOK=
200801051506 TAF EGLL 051506Z 051601 25010KT 9999 FEW030
                      PROB40 TEMPO 1621 8000 SHRA=
200801051203 TAF EGLL 051203Z 051322 24013KT 9999 SCT030
                      PROB40 TEMPO 1521 8000 SHRA=
200801050858 TAF EGLL 050858Z 051019 24013KT 9999 SCT025
                      TEMPO 1014 24016G26KT
                      PROB40 TEMPO 1019 7000 SHRA SCT020CB=
200801050558 TAF EGLL 050558Z 050716 23012KT 9999 SCT025
                      PROB30 TEMPO 0712 24015G25KT 7000 SHRA SCT020CB=
200801050253 TAF EGLL 050253Z 050413 23012KT 9999 SCT025
                      PROB30 TEMPO 0412 24015G25KT 7000 SHRA SCT020CB=
200801042345 TAF EGLL 042345Z 050110 23012KT 9999 FEW025
                      PROB30 TEMPO 0305 24015G25KT 7000 SHRA
                      TEMPO 0810 24015G25KT=
200801042103 TAF EGLL 042103Z 042207 18018G28KT 6000 RA BKN010
                      BECMG 2223 24012KT 9999 NSW FEW025
                      PROB30 TEMPO 0305 24015G25KT 7000 SHRA=
200801041741 TAF EGLL 041741Z 041904 18014KT 9999 -RA BKN008
                      TEMPO 1823 18020G30KT RA BKN005
                      PROB30 TEMPO 2022 18023G40KT 3000 +RA BKN004
                       BKN015CB
                      BECMG 2224 24012KT NSW SCT020=
200801041641 TAF AMD EGLL 041641Z 041601 18014KT 9999 -RA BKN008
                      TEMPO 2023 18020G30KT RA BKN005
                      PROB30 TEMPO 2022 18023G40KT 3000 +RA BKN004
                       BKN015CB
                      BECMG 2224 24012KT NSW SCT020=
200801041607 TAF AMD EGLL 041607Z 041601 18014KT 9999 -RA BKN007
                      TEMPO 2023 18020G30KT RA BKN005
                      PROB30 TEMPO 2022 18023G40KT 3000 +RA BKN004
                       BKN015CB
                      BECMG 2224 24012KT NSW SCT020=
200801041503 TAF EGLL 041503Z 041601 18012KT 9999 -RA BKN007
                      TEMPO 2023 18017G27KT RA BKN005
                      PROB30 TEMPO 2022 3000 +RA BKN004 BKN015CB
                       BECMG 2224 24012KT NSW SCT020=
200801041206 TAF EGLL 041206Z 041322 18010KT 5000 BR BKN007
                      TEMPO 1318 NSW SCT007 BKN014
                      BECMG 1820 -RA BKN010
                      TEMPO 2022 17015G25KT 3000 RA BKN005=
200801040842 TAF EGLL 040842Z 041019 12006KT 5000 BR BKN007
                      BECMG 1013 18010KT
                      TEMPO 1019 NSW SCT007 BKN014=
200801040556 TAF EGLL 040556Z 040716 12006KT 5000 BR BKN007
                      PROB40 TEMPO 0710 3000 BKN003
                      BECMG 1013 18010KT
                      TEMPO 1016 NSW SCT007 SCT014=
200801040256 TAF EGLL 040256Z 040413 12006KT 5000 BR BKN007
                      PROB40 TEMPO 0410 3000 BKN003
                      BECMG 1013 18010KT NSW SCT007 BKN014=
200801032355 TAF EGLL 032355Z 040110 07008KT 5000 BR BKN007
                      TEMPO 0110 3000 -DZ BKN004=
200801032056 TAF EGLL 032056Z 032207 07008KT 5000 BR BKN007
                      TEMPO 2207 3000 -DZ BKN004=
200801031803 TAF EGLL 031803Z 031904 07008KT 5000 BR BKN007
                      TEMPO 1904 3000 -DZ BKN004=
200801031511 TAF EGLL 031511Z 031601 08012KT 7000 BKN012
                      PROB30 TEMPO 1618 4000 -SN BKN007
                      BECMG 1719 BKN006
                      TEMPO 1901 3000 BR -DZ BKN004=
200801031500 TAF EGLL 031500Z NIL=
200801031207 TAF EGLL 031207Z 031322 08013KT 9999 BKN020
                      TEMPO 1318 8000 -SN BKN010
                      PROB30 TEMPO 1318 3000 SN BKN005
                      BECMG 1719 3000 BR -DZ BKN005=
200801030915 TAF EGLL 030915Z 031019 08013KT 9999 BKN020
                      TEMPO 1118 08015G25KT 8000 -SN BKN010
                      PROB30 TEMPO 1218 3000 SN BKN005
                      BECMG 1719 3000 BR -DZ BKN005=
200801030900 TAF EGLL 030900Z NIL=
200801030555 TAF EGLL 030555Z 030716 08013KT 9999 SCT022
                      TEMPO 0716 08016G27KT
                      PROB30 TEMPO 0710 4000 -SN BKN008
                      BECMG 1013 8000 -SN BKN008
                      PROB30 TEMPO 1016 2000 -SN BKN003=
200801030256 TAF EGLL 030256Z 030413 08013KT 9999 SCT022
                      TEMPO 0413 08016G27KT
                      PROB30 TEMPO 0410 4000 -SN BKN008
                      BECMG 1013 BKN008
                      PROB30 TEMPO 1013 2000 -SN BKN003=
200801022356 TAF EGLL 022356Z 030110 08013KT 9999 SCT022
                      TEMPO 0110 08016G27KT
                      PROB30 TEMPO 0410 4000 -SN BKN008=
200801022058 TAF EGLL 022058Z 022207 08015KT 9999 SCT022
                      TEMPO 2207 08016G27KT
                      PROB40 2204 BKN014
                      PROB30 TEMPO 0407 4000 -SN BKN008=
200801021753 TAF EGLL 021753Z 021904 08013KT 9999 FEW025=
200801021445 TAF EGLL 021445Z 021601 08015G25KT 9999 SCT020=
200801021205 TAF EGLL 021205Z 021322 09015G25KT 9999 SCT020=
200801020857 TAF EGLL 020857Z 021019 10015G25KT 9999 FEW012 BKN030=
200801020611 TAF EGLL 020611Z 020716 12010KT 4500 -DZ BKN009
                      BECMG 0709 8000 NSW BKN014
                      BECMG 0911 09015G25KT 9999 SCT018=
200801020600 TAF EGLL 020600Z NIL=
200801020312 TAF EGLL 020312Z 020413 12010KT 6000 BKN011
                      TEMPO 0408 3000 -DZ BR BKN006
                      BECMG 0810 09015G25KT 9999 SCT018=
200801020300 TAF EGLL 020300Z NIL=
200801020003 TAF EGLL 020003Z 020110 12010KT 7000 BKN011
                      TEMPO 0108 3000 -DZ BR BKN006
                      BECMG 0810 09015G25KT 9999 SCT018=
200801012117 TAF EGLL 012117Z 012207 12007KT 7000 BKN030
                      BECMG 2201 BKN010
                      TEMPO 0007 3000 -DZ BR BKN006=
200801012100 TAF EGLL 012100Z NIL=
200801011754 TAF EGLL 011754Z 011904 VRB04KT 9000 FEW015 BKN035
                      PROB30 1921 9999
                      BECMG 2124 BKN010
                      TEMPO 2204 4000 -DZ BR BKN007=
200801011508 TAF EGLL 011508Z 011601 VRB04KT 9000 FEW015 BKN035
                      PROB30 1620 9999
                      BECMG 2124 BKN010
                      TEMPO 2201 4000 -DZ BR BKN007=
200801011214 TAF EGLL 011214Z 011322 20004KT 9999 SCT010 BKN030
                      PROB30 TEMPO 1322 8000 BKN010=
200801011200 TAF EGLL 011200Z NIL=
200801010911 TAF EGLL 010911Z 011019 18004KT 6000 SCT010 BKN030
                      PROB30 TEMPO 1012 4000 -DZ BKN010
                      PROB30 TEMPO 1219 9999=
200801010900 TAF EGLL 010900Z NIL=
200801010605 TAF EGLL 010605Z 010716 18004KT 3000 BR SCT010 BKN030
                      TEMPO 0710 -DZ BKN004
                      BECMG 1013 6000 NSW=
200801010314 TAF EGLL 010314Z 010413 18004KT 6000 FEW020 BKN040
                      TEMPO 0413 2500 -RA BR BKN007
                      PROB40 TEMPO 0411 BKN004=
200801010300 TAF EGLL 010300Z NIL=
200801010006 TAF EGLL 010006Z 010110 21004KT 6000 FEW020 BKN040
                      PROB30 TEMPO 0110 4000 -RA BKN009=

###################################
#  large TAF from EGLL
###################################
200801312228 TAF EGLL 312228Z 010606 26012KT 9999 SCT030
                      TEMPO 0903 27015G25KT
                      PROB40 TEMPO 0918 7000 SHRAGS
                      PROB30 TEMPO 1802 29023G35KT 4000 SHRASN
                       BKN014=
200801311640 TAF EGLL 311640Z 010024 26012KT 9999 FEW035
                      TEMPO 0917 27016G26KT=
200801311036 TAF EGLL 311036Z 311818 26015G25KT 9999 SCT028
                      TEMPO 1803 27022G35KT
                      TEMPO 0818 29023G35KT=
200801310410 TAF EGLL 310410Z 311212 20017G27KT 9999 SCT025
                      TEMPO 1214 21027G37KT 7000 RA BKN014
                      PROB40 TEMPO 1214 22035G48KT 4000 +RA BKN014CB
                       BECMG 1316 26015G25KT
                      TEMPO 1502 27022G35KT
                      PROB40 TEMPO 0812 29023G35KT=
200801302242 TAF EGLL 302242Z 310606 20017G27KT 9999 -RA BKN020
                      TEMPO 0615 21027G37KT 7000 RA BKN014
                      PROB40 TEMPO 1215 22035G48KT 4000 +RA BKN014CB
                       BECMG 1316 26015G25KT NSW
                      TEMPO 1502 27022G35KT=
200801301638 TAF EGLL 301638Z 310024 22007KTKT 9999 FEW025
                      BECMG 0002 22020G30KT
                      BECMG 0205 22027G40KT
                      TEMPO 0816 4000 RA BKN014
                      PROB40 TEMPO 1416 22035G55KT +RA BKN014CB
                       BECMG 1417 25015KT 9999 SCT025=
200801301042 TAF EGLL 301042Z 301818 28012KT CAVOK
                      BECMG 1820 22007KT
                      BECMG 2202 22020G30KT -RA BKN025
                      BECMG 0205 22027G40KT
                      TEMPO 0817 4000 RA BKN014
                      PROB30 TEMPO 1417 22035G50KT +RA BKN014CB
                       BECMG 1618 25012KT 9999 SCT025=
200801300413 TAF EGLL 300413Z 301212 28012KT CAVOK
                      PROB30 TEMPO 1215 28015G25KT
                      BECMG 1720 22012KT
                      BECMG 2202 -RA BKN025
                      BECMG 0206 22020G30KT
                      TEMPO 0812 22027G40KT 4000 RADZ BKN014=
200801292213 TAF EGLL 292213Z 300606 30012KT CAVOK
                      PROB30 TEMPO 0815 30015G25KT
                      BECMG 1720 22012KT
                      BECMG 2302 22015G25KT
                      TEMPO 2306 9000 -RA
                      TEMPO 0306 22020G35KT BKN040=
200801291601 TAF EGLL 291601Z 300024 22010KT 9999 BKN025
                      TEMPO 0005 7000 RA
                      PROB40 TEMPO 0003 BKN012
                      BECMG 0002 32012KT
                      BECMG 0306 CAVOK
                      PROB40 TEMPO 0814 33015G25KT
                      BECMG 1518 25008KT=
200801291023 TAF EGLL 291023Z 291818 22010KT 9999 BKN025
                      TEMPO 2205 7000 RA
                      PROB40 TEMPO 2203 BKN012
                      BECMG 2302 32012KT
                      BECMG 0306 CAVOK
                      PROB40 TEMPO 0813 33015G25KT
                      BECMG 1518 25008KT=
200801290355 TAF EGLL 290355Z 291212 22010KT 9999 BKN020
                      BECMG 2224 30012KT
                      TEMPO 2203 7000 RA
                      PROB40 TEMPO 2202 BKN012
                      BECMG 0305 CAVOK=
200801282233 TAF EGLL 282233Z 290606 23009KT 9999 BKN020
                      PROB40 0610 8000
                      BECMG 2224 30010KT
                      TEMPO 2203 7000 -RA
                      PROB40 TEMPO 2201 BKN012
                      BECMG 0305 CAVOK=
200801281630 TAF EGLL 281630Z 290024 22010KT 9999 BKN018
                      TEMPO 0010 7000 BKN009
                      BECMG 2124 28010KT
                      TEMPO 2124 7000 -RA BKN012=
200801281018 TAF EGLL 281018Z 281818 23007KT 9999 BKN018
                      TEMPO 1809 7000 BKN009=
200801280348 TAF EGLL 280348Z 281212 23005KT 8000 BKN007
                      BECMG 1215 9999 BKN018
                      TEMPO 2109 BKN009=
200801272153 TAF EGLL 272153Z 280606 23006KT 3000 BR BKN003
                      PROB40 TEMPO 0609 0400 FG BKN001
                      BECMG 0912 7000 NSW BKN007
                      BECMG 1114 9999 BKN012
                      TEMPO 1806 BKN009=
200801271643 TAF EGLL 271643Z 280024 24006KT 8000 NSC
                      BECMG 0104 3000 BR BKN003
                      PROB40 0309 0400 FG BKN001
                      BECMG 0911 8000 NSW BKN007
                      BECMG 1114 9999 BKN016
                      PROB40 TEMPO 1424 BKN013=
200801271023 TAF COR EGLL 271023Z 271818 24006KT CAVOK
                      BECMG 2023 7000
                      BECMG 2302 4000 BR BKN004
                      PROB40 0209 0400 FG BKN001
                      BECMG 0911 8000 NSW BKN008
                      BECMG 1114 9999 BKN016=
200801270348 TAF EGLL 270348Z 271212 26009KT 9999 FEW015
                      BECMG 2023 7000
                      BECMG 2302 4000 BR BKN005
                      PROB40 TEMPO 0209 0700 FG BKN001
                      BECMG 0710 9000 NSW BKN010=
200801262151 TAF EGLL 262151Z 270606 25009KT 9999 FEW025
                      PROB30 TEMPO 0609 BKN010
                      BECMG 2023 7000
                      TEMPO 2306 2000 BR MIFG
                      PROB30 TEMPO 0006 0500 FG BKN000=
200801261639 TAF EGLL 261639Z 270024 25009KT 9999 FEW025
                      PROB40 TEMPO 0609 BKN010
                      PROB30 2124 7000=
200801261023 TAF EGLL 261023Z 261818 25010KT 9999 FEW025
                      PROB30 TEMPO 0710 BKN013=
200801260408 TAF EGLL 260408Z 261212 24010KT 9999 SCT025
                      PROB40 TEMPO 1218 25016G26KT
                      PROB30 TEMPO 0408 7000 BKN014=
200801252209 TAF EGLL 252209Z 260606 24010KT 9999 SCT025
                      PROB30 TEMPO 0609 BKN014
                      PROB30 TEMPO 0918 25015G25KT=
200801251552 TAF EGLL 251552Z 260024 23010KT 9999 SCT025
                      PROB30 TEMPO 2109 BKN014
                      PROB30 TEMPO 0918 25015G25KT=
200801251052 TAF COR EGLL 251052Z 251818 23010KT 9999 SCT025
                      TEMPO 1821 25018G28KT
                      PROB30 TEMPO 2110 BKN014
                      TEMPO 0918 25015G25KT=
200801250954 TAF EGLL 250954Z 251818 23010KT SCT025
                      TEMPO 1821 25018G28KT
                      PROB30 TEMPO 2110 BKN014
                      TEMPO 0918 25015G25KT=
200801250404 TAF EGLL 250404Z 251212 23010KT CAVOK
                      TEMPO 1221 25018G28KT BKN030
                      PROB30 TEMPO 2107 BKN014=
200801242206 TAF EGLL 242206Z 250606 23010KT CAVOK
                      BECMG 1013 25018G28KT BKN030
                      BECMG 1619 24012KT=
200801241546 TAF EGLL 241546Z 250024 26010KT CAVOK
                      BECMG 0912 24018G28KT
                      BECMG 1114 BKN030
                      BECMG 1619 24010KT=
200801240949 TAF EGLL 240949Z 241818 27010KT 9999 FEW025
                      BECMG 0912 24018G28KT=
200801240426 TAF EGLL 240426Z 241212 29010KT 9999 SCT025
                      PROB40 TEMPO 1217 29016G26KT
                      BECMG 2023 23010KT
                      BECMG 0912 23018G28KT=
200801232222 TAF EGLL 232222Z 240606 21012KT 9999 SCT025
                      BECMG 0609 27010KT
                      TEMPO 0611 BKN012
                      PROB40 TEMPO 0607 7000 -RA BKN007
                      PROB40 TEMPO 1016 27015G25KT=
200801231618 TAF EGLL 231618Z 240024 20012KT 9999 SCT020
                      TEMPO 0007 7000 -RA BKN014
                      PROB40 TEMPO 0006 4000 -RADZ BKN005
                      BECMG 0306 26010KT
                      PROB40 TEMPO 0916 27015G25KT=
200801231011 TAF EGLL 231011Z 231818 21012KT 9999 SCT020
                      TEMPO 1806 7000 -RA BKN014
                      PROB40 TEMPO 2105 4000 -RADZ BKN005
                      BECMG 0306 27010KT
                      PROB40 TEMPO 0916 26015G25KT=
200801230416 TAF EGLL 230416Z 231212 21012KT 9999 BKN020
                      TEMPO 1204 7000 -RA BKN014
                      PROB40 TEMPO 1804 4000 -RADZ BKN005
                      BECMG 0205 27010KT=
200801222217 TAF EGLL 222217Z 230606 21012KT 9999 BKN020
                      TEMPO 0605 23015G25KT 7000 -RA BKN014
                      PROB40 TEMPO 0612 BKN009
                      PROB30 TEMPO 0611 3000 BR DZ
                      PROB40 TEMPO 1805 4000 DZ BKN006
                      BECMG 0306 27010KT=
200801221557 TAF EGLL 221557Z 230024 20012KT 9999 BKN014
                      TEMPO 0024 7000 -RA BKN008
                      PROB40 TEMPO 0012 3000 DZ BKN004
                      PROB30 TEMPO 1218 BKN018
                      PROB30 TEMPO 1824 3000 DZ BKN004=
200801221025 TAF EGLL 221025Z 221818 19012KT 9999 BKN025
                      BECMG 2023 BKN012
                      TEMPO 2111 7000 -RA BKN008
                      PROB40 TEMPO 2211 4000 RADZ
                      PROB40 TEMPO 1118 BKN020=
200801220439 TAF EGLL 220439Z 221212 19005KT CAVOK
                      BECMG 1518 BKN025
                      BECMG 2023 BKN012
                      TEMPO 2112 7000 BKN008
                      PROB40 TEMPO 2112 4000 RADZ=
200801212230 TAF EGLL 212230Z 220606 32005KT 9999 FEW030
                      PROB30 0609 7000
                      BECMG 2023 19010KT BKN012
                      TEMPO 2106 7000 BKN008
                      PROB40 TEMPO 2106 4000 RADZ=
200801211623 TAF EGLL 211623Z 220024 26017G27KT 9999 SCT025
                      TEMPO 0001 7000 -RADZ BKN012
                      BECMG 0002 32015G25KT
                      BECMG 0205 32005KT
                      PROB30 0308 7000
                      BECMG 1518 20010KT
                      TEMPO 2024 8000 -RA BKN014=
200801211600 TAF EGLL 211600Z NIL=
200801211026 TAF EGLL 211026Z 211818 26017G27KT 9999 SCT025
                      TEMPO 1824 28025G37KT
                      TEMPO 2201 7000 -RADZ BKN012
                      BECMG 2302 32015G25KT
                      BECMG 0205 32005KT
                      PROB30 0308 7000=
200801210438 TAF EGLL 210438Z 211212 23015KT 9999 BKN020
                      TEMPO 1216 23018G30KT 7000 -RADZ BKN012
                      PROB40 TEMPO 1216 4000 RADZ BKN008
                      BECMG 1417 27015G25KT
                      PROB40 TEMPO 1521 28022G35KT
                      TEMPO 2101 7000 -RADZ BKN012
                      BECMG 2124 35010KT
                      BECMG 2302 CAVOK=
200801202234 TAF EGLL 202234Z 210606 23015KT 9999 BKN020
                      TEMPO 0616 23018G30KT 7000 -RADZ BKN012
                      PROB40 TEMPO 0616 4000 RADZ BKN008
                      BECMG 1417 27015G25KT
                      PROB40 TEMPO 1521 28022G35KT
                      TEMPO 2101 7000 -RADZ BKN012
                      BECMG 1922 35010KT
                      BECMG 2302 CAVOK=
200801201806 TAF COR EGLL 201806Z 210024 23015KT 9999 BKN020
                      TEMPO 0016 23018G30KT 7000 -RADZ BKN012
                      PROB40 TEMPO 0015 4000 RADZ BKN008
                      BECMG 1417 28015G25KT
                      PROB30 TEMPO 1521 30022G35KT
                      TEMPO 2124 7000 -RADZ BKN012=
200801201654 TAF COR EGLL 201654Z 210024 23015KT 9999 BKN020
                      TEMPO 0016 23018G30KT 7000 -RADZ BKN012
                      PROB40 TEMPO 1815 4000 RADZ BKN008
                      BECMG 1417 28015G25KT
                      PROB30 TEMPO 1521 30022G35KT
                      TEMPO 2124 7000 -RADZ BKN012=
200801201616 TAF EGLL 201616Z 210024 23015KT 9999 BKN020
                      TEMPO 0016 23018G30KT 7000 -RADZ BKN012
                      PROB40 TEMPO 1815 4000 RADZ BKN008
                      BECMG 1417 28015G25KT
                      PROB30 TEMPO 1521 30022G35KT
                      TEMPO 2124 -RADZ 7000 BKN012=
200801201030 TAF EGLL 201030Z 201818 23015KT 9999 BKN020
                      TEMPO 1815 23018G30KT 7000 -RADZ BKN012
                      PROB40 TEMPO 1814 4500 BKN008
                      BECMG 1316 28015KT
                      PROB30 TEMPO 1518 30018G30KT=
200801200417 TAF EGLL 200417Z 201212 23015KT 9999 BKN020
                      TEMPO 1212 23018G30KT 7000 -RADZ BKN012
                      PROB40 TEMPO 1212 4500 -RADZ BKN008=
200801192207 TAF EGLL 192207Z 200606 23015KT 9999 BKN020
                      TEMPO 0606 23020G32KT 6000 -RADZ BKN012
                      PROB40 TEMPO 0606 BKN008=
200801191639 TAF EGLL 191639Z 200024 23016KT 9999 BKN015
                      TEMPO 0024 23016G26KT 7000 -RA BKN012
                      PROB40 TEMPO 0024 4000 RADZ BKN009=
200801191037 TAF EGLL 191037Z 191818 23016KT 9999 BKN015
                      TEMPO 1818 23017G27KT 7000 -RA BKN012
                      PROB30 TEMPO 1818 4000 RADZ BKN009=
200801190426 TAF AMD EGLL 190426Z 191212 23015KT 9999 BKN015
                      TEMPO 1212 23017G28KT 7000 -RA BKN010
                      PROB30 TEMPO 1212 4000 RADZ BKN008=
200801182217 TAF EGLL 182217Z 190606 24015KT 8000 -RA BKN012
                      TEMPO 0606 24018G28KT 9999 BKN020
                      PROB30 TEMPO 0621 4000 RADZ BKN008=
200801181948 TAF COR EGLL 181948Z 190024 23015KT 8000 RADZ BKN014
                      TEMPO 0024 24018G28KT 9999 NSW SCT012 BKN025
                       PROB30
                      TEMPO 0024 3000 RADZ BKN008
                      PROB40 1521 28007KT=
200801181656 TAF EGLL 181656Z 190024 23015KT 8000 RADZ BKN014
                      TEMPO 0024 24018G28KT 9999 NSW SCT012 BKN025
                       PROB30
                      TEMPO 1818 3000 RADZ BKN008
                      PROB40 1521 28007KT=
200801181600 TAF EGLL 181600Z NIL=
200801181041 TAF EGLL 181041Z 181818 23014KT 8000 RADZ BKN014
                      TEMPO 1818 25023G35KT 9999 NSW SCT012 BKN030
                       PROB30
                      TEMPO 1818 3000 RADZ BKN008
                      PROB40 0918 28007KT=
200801180456 TAF EGLL 180456Z 181212 23017KT 6000 RA BKN014
                      TEMPO 1212 25023G35KT 9999 NSW SCT012 BKN030
                       PROB30
                      TEMPO 1212 3000 RADZ BKN008
                      BECMG 0912 27007KT=
200801180400 TAF EGLL 180400Z NIL=
200801172247 TAF EGLL 172247Z 180606 21008KT 9999 FEW022
                      BECMG 0710 22018KT 6000 RA BKN014
                      TEMPO 1003 9999 NSW SCT012 BKN030
                      PROB40 TEMPO 1005 22022G32KT 3000 RADZ BKN008
                       BECMG 0306 27013KT 9999 NSW SCT015=
200801171642 TAF EGLL 171642Z 180024 21008KT 9999 FEW022
                      BECMG 0710 22016G27KT 6000 RA BKN014
                      TEMPO 1024 9999 NSW SCT012 BKN030
                      PROB40 TEMPO 1024 3000 RADZ BKN008=
200801171000 TAF EGLL 171000Z 171818 25018G30KT 9999 FEW022
                      BECMG 2201 21007KT
                      BECMG 0407 7000 RA BKN012
                      TEMPO 0718 22015G26KT 2500 RADZ BKN005
                      PROB40 TEMPO 1218 9999 NSW SCT008 BKN020=
200801170457 TAF EGLL 170457Z 171212 20015G27KT 8000 -RA BKN012
                      PROB40 1213 BKN008
                      BECMG 1315 26017G30KT 9999 NSW SCT025
                      PROB30 TEMPO 1416 4000 +SHRA BKN012CB
                      BECMG 1720 26012KT
                      BECMG 0507 -RA BKN012
                      TEMPO 0509 7000 RA BKN008
                      BECMG 0811 23015G27KT=
200801170400 TAF EGLL 170400Z NIL=
200801162226 TAF EGLL 162226Z 170606 19007KT 9999 SCT020
                      PROB30 0607 7000
                      BECMG 0811 20016G26KT 8000 -RA BKN014
                      TEMPO 1013 RA BKN008
                      BECMG 1315 26017G30KT 9999 NSW SCT025
                      PROB40 TEMPO 1416 4000 +SHRA BKN012CB
                      BECMG 1618 26012KT
                      BECMG 0306 20005KT=
200801161630 TAF EGLL 161630Z 170024 26007KT 9999 SCT020
                      TEMPO 0007 7000
                      PROB30 TEMPO 0004 3000 BR
                      BECMG 0912 20016G26KT 8000 -RA BKN014
                      PROB40 TEMPO 1013 RA BKN008
                      PROB40 TEMPO 1317 4000 +SHRA BKN012CB
                      BECMG 1518 26014KT 9999 NSW SCT025=
200801161039 TAF EGLL 161039Z 161818 26007KT 9999 SCT020
                      TEMPO 2207 7000
                      PROB30 TEMPO 0006 3000 BR
                      BECMG 0912 20016G26KT 8000 -RA BKN014
                      PROB40 TEMPO 1013 RA BKN008
                      PROB40 TEMPO 1317 4000 +SHRA BKN012CB
                      BECMG 1518 26014KT 9999 NSW SCT025=
200801160420 TAF COR EGLL 160420Z 161212 23007KT 9999 SCT020
                      PROB40 2306 7000
                      PROB30 TEMPO 0105 4000 BR
                      BECMG 0912 21015G25KT -RA BKN014
                      PROB30 TEMPO 1012 7000=
200801152229 TAF EGLL 152229Z 160606 23007KT 9999 SCT020
                      PROB40 2306 7000=
200801151648 TAF EGLL 151648Z 160024 23008KT 9999 SCT020
                      PROB40 TEMPO 0003 25015G25KT=
200801151032 TAF EGLL 151032Z 151818 21012KT 9999 SCT025
                      TEMPO 1823 24015G25KT 3500 +SHRA TSRA BKN014CB
                       BECMG 0912 29010KT=
200801150429 TAF EGLL 150429Z 151212 18017G27KT 7000 -RA BKN014
                      PROB40 TEMPO 1213 19027G37KT 4000 RA BKN008
                       BECMG 1316 22012KT 9999 NSW SCT025
                      TEMPO 1622 25015G25KT 3500 +SHRA TSRA BKN014CB=
200801142229 TAF EGLL 142229Z 150606 21012KT 7000 -RA BKN014
                      BECMG 0609 18022G32KT
                      TEMPO 0713 19028G40KT 4500 +RA RADZ BKN008
                       BECMG 1316 22012KT 9999 NSW SCT025
                      TEMPO 1621 25015G25KT 3500 +SHRA TSRA BKN014CB=
200801141638 TAF EGLL 141638Z 150024 21012KT 9999 SCT025
                      TEMPO 0005 7000 -RA SHRA BKN012
                      BECMG 0508 7000 -RA BKN014
                      BECMG 0710 18022G32KT
                      TEMPO 0914 19028G43KT 4500 +RA RADZ BKN008
                       BECMG 1316 22012KT 9999 NSW SCT025
                      TEMPO 1620 21015G25KT 3500 +SHRA TSRA BKN014CB
                       BECMG 1922 27015G25KT=
200801141028 TAF EGLL 141028Z 141818 22018G28KT 9999 SCT025
                      BECMG 1821 21012KT
                      BECMG 0306 8000 -RA BKN012
                      BECMG 0710 18022G32KT
                      TEMPO 0913 19028G42KT 4500 RA BKN008
                      BECMG 1215 22012KT 9999 NSW SCT025
                      TEMPO 1318 3500 +SHRA TSRA BKN014CB=
200801140358 TAF EGLL 140358Z 141212 21018G28KT 9999 SCT025
                      PROB30 TEMPO 1218 7000 SHRA BKN020CB
                      BECMG 1922 21012KT
                      BECMG 0306 8000 -RA BKN010
                      BECMG 0710 19022G32KT
                      TEMPO 0812 4000 RA BKN006=
200801132220 TAF EGLL 132220Z 140606 21014KT 9999 SCT025
                      TEMPO 0610 21020G30KT 6000 SHRA BKN014CB
                       BECMG 1013 22017G27KT
                      BECMG 1922 21012KT
                      PROB30 TEMPO 0306 8000 -RA BKN012=
200801131606 TAF EGLL 131606Z 140024 20014KT 9999 SCT025
                      TEMPO 0002 18018G28KT 7000 -RA BKN012
                      PROB30 TEMPO 0212 6000 SHRA BKN014CB
                      BECMG 0609 21015G25KT=
200801131022 TAF EGLL 131022Z 131818 18018G28KT 9999 BKN018
                      PROB30 TEMPO 1822 17025G38KT
                      TEMPO 2101 7000 -RA BKN012
                      PROB30 TEMPO 0109 6000 SHRA BKN014CB=
200801130347 TAF EGLL 130347Z 131212 18018G28KT 9999 BKN018
                      PROB30 TEMPO 1520 17025G38KT
                      TEMPO 2101 6000 RA BKN012
                      PROB30 TEMPO 0112 6000 SHRA BKN014CB=
200801122143 TAF EGLL 122143Z 130606 19018G28KT 9999 BKN014
                      TEMPO 0610 5000 -RADZ BKN008
                      BECMG 0911 BKN018
                      PROB30 TEMPO 1521 17025G38KT
                      TEMPO 2124 6000 RA BKN012
                      PROB30 TEMPO 0006 6000 SHRA BKN014CB=
200801121613 TAF EGLL 121613Z 130024 18017G28KT 9999 BKN014
                      TEMPO 0009 5000 -RADZ BKN008
                      BECMG 0811 BKN018
                      PROB30 TEMPO 1522 19025G38KT
                      TEMPO 2124 6000 RA BKN012=
200801121025 TAF EGLL 121025Z 121818 22010KT 9999 SCT025
                      BECMG 2023 18017G28KT -RA BKN014
                      TEMPO 2124 6000 RA
                      TEMPO 0009 5000 -RADZ BKN008
                      BECMG 0811 BKN018=
200801120420 TAF EGLL 120420Z 121212 22010KT 9999 SCT025
                      BECMG 2023 19017G28KT -RA BKN014
                      TEMPO 2124 6000 RA
                      TEMPO 0008 5000 -RADZ BKN008
                      BECMG 0811 BKN018=
200801112214 TAF EGLL 112214Z 120606 28015G25KT 9999 SCT025
                      BECMG 0710 22010KT
                      BECMG 1922 19018G28KT BKN014
                      TEMPO 1922 6000 RA
                      TEMPO 2206 5000 -RADZ BKN008=
200801111631 TAF EGLL 111631Z 120024 32020G30KT 7000 -RA BKN010
                      TEMPO 0002 3000 RADZ BKN006
                      BECMG 0103 9999 NSW SCT020
                      BECMG 0306 28012KT
                      BECMG 1518 18010KT
                      BECMG 1821 7000 -RA
                      TEMPO 2124 19016G26KT 4000 RADZ BKN009=
200801111030 TAF EGLL 111030Z 111818 19010KT 8000 -RA BKN014
                      BECMG 1821 32017G27KT
                      TEMPO 2001 3000 RADZ BKN008
                      BECMG 0003 9999 NSW SCT020
                      BECMG 0306 28012KT
                      BECMG 1518 18010KT=
200801110434 TAF EGLL 110434Z 111212 19010KT 8000 -RA BKN014
                      TEMPO 1203 3000 RADZ BKN006
                      TEMPO 1620 VRB07KT
                      BECMG 1821 34017G27KT
                      BECMG 0003 28018G30KT 9999 NSW SCT020
                      BECMG 0609 26012KT=
200801102248 TAF EGLL 102248Z 110606 05008KT 8000 -RA BKN020
                      PROB30 0608 2500 BR BKN004
                      TEMPO 0803 3500 RA BKN007
                      BECMG 1922 35015G25KT
                      BECMG 0306 29015G25KT 9999 NSW=
200801101633 TAF EGLL 101633Z 110024 22006KT 9999 FEW020
                      BECMG 0104 8000
                      PROB30 TEMPO 0409 1200 BR BKN002
                      BECMG 0710 07010KT -RA BKN010
                      TEMPO 0924 3000 RA BKN006
                      BECMG 2023 33015G25KT=
200801101020 TAF EGLL 101020Z 101818 22012KT 9999 BKN020
                      PROB30 TEMPO 1819 7000 -RA BKN012
                      BECMG 0003 VRB03KT 8000
                      PROB30 TEMPO 0310 1200 BR BKN002
                      BECMG 0911 07010KT -RA BKN010
                      TEMPO 1018 3000 RA BKN006=
200801100418 TAF EGLL 100418Z 101212 20020G32KT 9999 BKN020
                      TEMPO 1216 20027G42KT 3500 RA BKN008
                      BECMG 1416 23010KT
                      BECMG 0003 VRB03KT 8000
                      TEMPO 0812 5000 RA BKN008=
200801092214 TAF EGLL 092214Z 100606 20020G32KT 9999 BKN020
                      PROB40 TEMPO 0611 7000 -RA BKN014
                      TEMPO 0915 20027G42KT
                      TEMPO 1118 2500 +RA BKN008
                      BECMG 1417 21010KT
                      BECMG 0003 VRB03KT
                      PROB40 TEMPO 0306 5000 BR=
200801091710 TAF EGLL 091710Z 100024 20020G30KT 9999 BKN020
                      TEMPO 0915 20027G40KT
                      PROB40 TEMPO 0011 7000 -RA BKN014
                      TEMPO 1124 2500 +RA BKN008
                      BECMG 1417 20010KT=
200801091600 TAF EGLL 091600Z NIL=
200801091030 TAF EGLL 091030Z 091818 22012KT 9999 BKN020
                      BECMG 2023 20020G30KT
                      TEMPO 2311 7000 -RA BKN012
                      BECMG 0811 20027G40KT
                      TEMPO 1118 4000 RA BKN008
                      BECMG 1417 22012KT=
200801090438 TAF EGLL 090438Z 091212 23012KT 9999 SCT020
                      TEMPO 1220 23018G28KT
                      PROB30 TEMPO 1317 6000 SHRA
                      BECMG 2023 21018G28KT
                      PROB30 TEMPO 2312 21025G38KT 7000 -RADZ BKN014=
200801082225 TAF EGLL 082225Z 090606 23012KT 9999 SCT025
                      TEMPO 0921 23018G30KT
                      PROB30 TEMPO 1318 5000 SHRA
                      BECMG 2124 21020G35KT
                      PROB40 TEMPO 2306 7000 -RADZ BKN014=
200801081654 TAF EGLL 081654Z 090024 22012KT 9999 SCT025
                      TEMPO 0002 20023G40KT 3500 +RA BKN012
                      TEMPO 0924 22017G28KT
                      TEMPO 1318 5000 SHRA
                      TEMPO 2124 6000 RA BKN014=
200801081600 TAF EGLL 081600Z NIL=
200801081055 TAF EGLL 081055Z 081818 20020G30KT 9999 SCT025
                      TEMPO 2202 20023G40KT 4000 RA BKN012
                      BECMG 2302 23012KT
                      TEMPO 0815 23017G30KT
                      TEMPO 1215 6000 RA SHRA BKN014=
200801081000 TAF EGLL 081000Z NIL=
200801080419 TAF COR EGLL 080419Z 081212 19018G28KT 9999 SCT018 BKN030
                      TEMPO 1215 7000 -RA -SHRA BKN014
                      TEMPO 1824 20022G38KT
                      TEMPO 2124 4000 RA BKN012
                      BECMG 2201 24015G25KT
                      PROB30 TEMPO 0912 26025G35KT 7000 SHRA=
200801072216 TAF EGLL 072216Z 080606 20010KT 9999 BKN020
                      TEMPO 0615 7000 -RA -SHRA BKN014
                      BECMG 0912 19018G28KT
                      TEMPO 1524 20022G38KT
                      TEMPO 2124 4000 RA BKN012
                      BECMG 2201 24015G25KT=
200801071643 TAF EGLL 071643Z 080024 23012KT 9999 FEW030
                      PROB40 TEMPO 0618 8000 -RADZ BKN014
                      BECMG 0811 20018G28KT
                      PROB40 TEMPO 1224 21024G38KT
                      TEMPO 2224 4000 RA BKN012=
200801071026 TAF EGLL 071026Z 071818 25018G28KT 9999 FEW030
                      BECMG 1821 23012KT
                      PROB40 TEMPO 0618 8000 -SHRA BKN012
                      PROB30 TEMPO 0612 BKN008
                      BECMG 0811 20018G28KT
                      PROB30 TEMPO 1218 21022G38KT=
200801070439 TAF EGLL 070439Z 071212 24020G35KT 9999 SCT030
                      PROB40 TEMPO 1215 7000 SHRA SCT020CB
                      BECMG 1619 23010KT
                      TEMPO 0512 7000 SHRA SCT020CB
                      BECMG 0811 20015G25KT=
200801062237 TAF EGLL 062237Z 070606 24018G30KT 9999 SCT030
                      TEMPO 0714 24025G45KT
                      PROB40 TEMPO 1015 7000 SHRA SCT020CB
                      BECMG 1720 21012KT
                      PROB30 TEMPO 0206 7000 SHRA=
200801061635 TAF EGLL 061635Z 070024 24016G28KT 9999 SCT030
                      PROB30 TEMPO 0001 18014KT 7000 SHRA BKN008
                       SCT015CB
                      TEMPO 0721 24022G38KT
                      PROB40 TEMPO 1115 7000 SHRA SCT020CB=
200801061032 TAF EGLL 061032Z 061818 17014KT 9999 BKN030
                      PROB40 TEMPO 2202 4000 RA BKN008
                      BECMG 0003 24016G28KT
                      TEMPO 0818 24022G38KT
                      PROB30 TEMPO 1218 7000 SHRA SCT020CB=
200801060430 TAF EGLL 060430Z 061212 23007KT CAVOK
                      BECMG 1720 16010KT BKN040
                      TEMPO 2302 8000 -RA
                      PROB30 TEMPO 0002 4000 RA BKN009
                      BECMG 0103 26015G25KT
                      PROB30 TEMPO 0305 27022G35KT 7000 SHRA SCT020CB
                       BECMG 0811 23020G35KT=
200801052152 TAF EGLL 052152Z 060606 24006KT CAVOK
                      BECMG 1922 15010KT BKN040
                      TEMPO 2303 8000 -RA
                      PROB30 TEMPO 0103 4000 +RA BKN009
                      BECMG 0204 28015G25KT
                      PROB30 TEMPO 0406 29022G35KT=
200801051626 TAF EGLL 051626Z 060024 26010KT CAVOK
                      BECMG 1619 17005KT
                      BECMG 2123 BKN040
                      PROB30 TEMPO 2324 8000 -RA=
200801050954 TAF EGLL 050954Z 051818 23008KT 9999 FEW030
                      PROB40 TEMPO 1821 7000 SHRA=
200801050351 TAF EGLL 050351Z 051212 23012KT 9999 FEW025
                      TEMPO 1621 7000 -RA
                      PROB30 TEMPO 1621 4000 RA BKN012
                      PROB30 0410 7000=
200801042228 TAF EGLL 042228Z 050606 23012KT 9999 FEW025
                      TEMPO 0813 24015G25KT
                      TEMPO 1521 7000 -RA BKN014
                      PROB30 TEMPO 1721 4000 RA BKN009
                      BECMG 2124 29008KT
                      PROB30 TEMPO 2101 7000 BKN010=
200801041634 TAF EGLL 041634Z 050024 25012KT 9999 SCT018
                      TEMPO 0814 26015G25KT
                      BECMG 1518 21004KT 7000 -RA BKN007
                      TEMPO 1824 3000 RA BKN004=
200801041629 TAF AMD EGLL 041629Z 041818 18014KT 9999 -RA BKN008
                      TEMPO 2023 17015G25KT RA BKN005
                      PROB30 TEMPO 2022 18023G40KT 3000 +RA BKN004
                       BKN015CB
                      BECMG 2301 25012KT 9999 NSW FEW018
                      TEMPO 0814 26015G25KT=
200801041016 TAF EGLL 041016Z 041818 16008KT 5000 BR -DZ BKN008
                      BECMG 1820 -RA BKN010
                      TEMPO 2023 17015G25KT 3000 RA BKN005
                      BECMG 2301 25010KT 9999 NSW FEW018
                      TEMPO 0814 26015G25KT=
200801040401 TAF EGLL 040401Z 041212 16008KT 5000 BR -DZ BKN008
                      TEMPO 1218 SCT008 BKN014
                      BECMG 1821 -RA BKN010
                      TEMPO 2124 17015G25KT 3000 RA BKN005
                      BECMG 0003 25010KT 9999 NSW FEW018
                      TEMPO 0812 26015G25KT=
200801032202 TAF EGLL 032202Z 040606 16008KT 6000 BKN008
                      TEMPO 1216 2500 BR -DZ BKN004
                      BECMG 1821 -RA BKN010
                      TEMPO 2124 17015G25KT 3000 RA BKN005
                      BECMG 0003 25010KT 9999 NSW FEW018=
200801031629 TAF COR EGLL 031629Z 040024 08007KT 5000 BR BKN006
                      TEMPO 0010 3000 -DZ BKN004
                      BECMG 0912 17010KT
                      TEMPO 1018 9999 NSW SCT008
                      BECMG 1821 -RA BKN010
                      TEMPO 2124 18015G25KT 4000 RA BKN007=
200801031020 TAF EGLL 031020Z 031818 09010KT 3000 BR -DZ BKN005
                      TEMPO 2118 6000 NSW SCT008
                      BECMG 0912 16008KT
                      PROB30 TEMPO 1218 9999=
200801030401 TAF EGLL 030401Z 031212 09016G26KT 6000 -SN BKN008
                      PROB40 TEMPO 1218 2000 BKN004
                      BECMG 1821 12007KT 3000 BR -DZ BKN004
                      TEMPO 2112 6000 NSW SCT008=
200801022200 TAF EGLL 022200Z 030606 08016G26KT 9999 SCT018
                      PROB30 TEMPO 0610 4000 -SN BKN008
                      BECMG 1013 BKN008
                      PROB40 TEMPO 1018 2000 -SN BKN003
                      BECMG 1821 10008KT 3000 -DZ BR BKN004
                      PROB30 TEMPO 2106 6000 NSW SCT008=
200801021516 TAF EGLL 021516Z 030024 08015G25KT 9999 BKN020
                      PROB30 TEMPO 0609 7000 -SG BKN010
                      BECMG 0912 4000 -SN BKN007
                      PROB30 TEMPO 1216 1400 SN BKN003
                      BECMG 1618 09007KT 2000 -DZ BR BKN004=
200801021025 TAF EGLL 021025Z 021818 09015G25KT 9999 SCT020
                      BECMG 0710 4000 -SN BKN007
                      TEMPO 1016 1400 SN BKN003
                      BECMG 1618 09007KT 1500 -RASN BR BKN003=
200801020437 TAF EGLL 020437Z 021212 09015G25KT 9999 SCT020
                      BECMG 0609 6000 -SN BKN012
                      BECMG 0912 3000 SN BKN007=
200801012237 TAF EGLL 012237Z 020606 12012KT 6000 -DZ BKN007
                      BECMG 0811 09015G25KT 9999 NSW SCT018
                      PROB30 TEMPO 0306 6000 -SG BKN014=
200801011631 TAF EGLL 011631Z 020024 12007KT 9000 FEW015 BKN030
                      TEMPO 0009 4000 -DZ BR BKN007
                      BECMG 0912 10015G25KT 9999 SCT018=
200801011021 TAF EGLL 011021Z 011818 14007KT 9000 FEW020 BKN035
                      BECMG 2124 BKN010
                      TEMPO 2209 4000 -DZ BR BKN007
                      BECMG 0912 10015G25KT 9999 SCT018=
200801010445 TAF EGLL 010445Z 011212 17004KT 6000 FEW020 BKN035
                      BECMG 2023 4000 -DZ BKN007
                      BECMG 0003 12012KT
                      BECMG 0609 7000 NSW BKN014
                      BECMG 0912 10015G25KT 9999 SCT018=
200801010316 TAF AMD EGLL 010316Z 010606 18004KT 6000 FEW020 BKN035
                      TEMPO 0613 BKN008
                      PROB40 TEMPO 0611 2500 -DZ BKN004
                      BECMG 1821 11012KT
                      TEMPO 2006 4000 -DZ BKN005=
200801010305 TAF AMD EGLL 010305Z 010606 18004KT 6000 FEW020 BKN035
                      TEMPO 0613 BKN008
                      PROB40 TEMPO 0611 2500 -DZ BKN004
                      BECMG 1821 11012KT
                      TEMPO 2006 4000 -DZ BKN005=
