##########################################################
# Query made at 01/16/2013 15:25:02 UTC
# Time interval: from 01/01/2013 00:00  to 01/15/2013 23:59  UTC
##########################################################

##########################################################
# EGLL, London / Heathrow Airport (United Kingdom)
# WMO index: 03772
# Latitude 51-29N. Longitude 000-27W. Altitude 24 m.
##########################################################

###################################
#  METAR/SPECI from EGLL
###################################
201301152350 METAR COR EGLL 152350Z 36004KT 7000 NSC M02/M04 Q1011 BECMG
                        4800 BR=
201301152320 METAR COR EGLL 152320Z 34003KT 8000 NSC M01/M03 Q1011 NOSIG=
201301152250 METAR EGLL 152250Z 34003KT 9000 FEW016 M00/M03 Q1011=
201301152220 METAR COR EGLL 152220Z 30003KT 9999 SCT016 M00/M02 Q1011
                        NOSIG=
201301152150 METAR COR EGLL 152150Z VRB02KT 9999 SCT017 00/M02 Q1011 TEMPO
                        BKN014=
201301152120 METAR COR EGLL 152120Z 05003KT 9999 FEW015 00/M02 Q1011 TEMPO
                        BKN012=
201301152050 METAR COR EGLL 152050Z 05002KT 9999 SCT014 01/M02 Q1011 TEMPO
                        BKN012=
201301152020 METAR COR EGLL 152020Z 06003KT 9999 FEW014 00/M02 Q1011 NOSIG=
201301151950 METAR COR EGLL 151950Z VRB02KT 9999 FEW015 01/M02 Q1011 NOSIG=
201301151920 METAR COR EGLL 151920Z 01002KT CAVOK 01/M02 Q1012 NOSIG=
201301151850 METAR COR EGLL 151850Z 30003KT CAVOK 01/M02 Q1012 NOSIG=
201301151820 METAR COR EGLL 151820Z 00000KT CAVOK 01/M02 Q1012 NOSIG=
201301151750 METAR COR EGLL 151750Z 31003KT 9999 FEW020 01/M02 Q1012 NOSIG=
201301151720 METAR COR EGLL 151720Z VRB03KT 9999 FEW020 02/M02 Q1012 NOSIG=
201301151650 METAR COR EGLL 151650Z VRB03KT 9999 SCT020 02/M02 Q1012 NOSIG=
201301151620 METAR COR EGLL 151620Z 34004KT 290V020 9999 SCT022 02/M02
                        Q1011 NOSIG=
201301151550 METAR COR EGLL 151550Z 36004KT 320V030 9999 FEW023 02/M01
                        Q1011 NOSIG=
201301151520 METAR COR EGLL 151520Z 32005KT 290V360 9999 FEW018 02/M01
                        Q1011 NOSIG=
201301151450 METAR COR EGLL 151450Z VRB03KT 9999 FEW015 SCT018 02/M01
                        Q1011 NOSIG=
201301151420 METAR COR EGLL 151420Z 33005KT 290V010 9999 FEW013 SCT016
                        02/M01 Q1011 NOSIG=
201301151350 METAR COR EGLL 151350Z 32005KT 290V350 9999 SCT013 02/M01
                        Q1011 NOSIG=
201301151320 METAR COR EGLL 151320Z 33005KT 290V030 9999 BKN013 02/M01
                        Q1011 TEMPO SCT015=
201301151250 METAR COR EGLL 151250Z 33005KT 280V020 9999 BKN012 02/M01
                        Q1011 TEMPO SCT012=
201301151220 METAR COR EGLL 151220Z 35005KT 300V030 9999 BKN012 02/M01
                        Q1011 TEMPO SCT012=
201301151150 METAR COR EGLL 151150Z 36005KT 320V030 9999 BKN011 02/M01
                        Q1011 TEMPO SCT016=
201301151120 METAR COR EGLL 151120Z 33006KT 290V360 9999 BKN011 02/M01
                        Q1011 TEMPO SCT016=
201301151050 METAR COR EGLL 151050Z 33007KT 9999 BKN015 02/M01 Q1011 TEMPO
                        BKN014=
201301151020 METAR COR EGLL 151020Z 33004KT 290V020 9999 BKN014 02/M01
                        Q1011 TEMPO SCT016=
201301150950 METAR COR EGLL 150950Z 32007KT 290V360 9999 BKN013 02/M01
                        Q1010 NOSIG=
201301150920 METAR COR EGLL 150920Z 32006KT 290V360 9999 BKN015 02/M01
                        Q1010 NOSIG=
201301150850 METAR COR EGLL 150850Z 33006KT 290V010 9999 BKN012 02/M01
                        Q1009 NOSIG=
201301150820 METAR COR EGLL 150820Z 35005KT 320V030 9999 BKN011 02/M01
                        Q1009 NOSIG=
201301150750 METAR COR EGLL 150750Z 36005KT 320V040 9999 BKN011 02/M00
                        Q1008 NOSIG=
201301150720 METAR COR EGLL 150720Z 36006KT 320V040 9999 BKN012 02/M01
                        Q1008 TEMPO SCT012=
201301150650 METAR COR EGLL 150650Z 36005KT 330V030 9999 FEW011 SCT026
                        02/M01 Q1008 TEMPO BKN014=
201301150620 METAR COR EGLL 150620Z 36006KT 330V040 9999 SCT013 02/M01
                        Q1007 TEMPO BKN014=
201301150550 METAR COR EGLL 150550Z 36006KT 330V030 9999 SCT015 01/M01
                        Q1007 TEMPO BKN012=
201301150520 METAR COR EGLL 150520Z 36008KT 320V030 9999 BKN016 02/M01
                        Q1007 TEMPO BKN012=
201301150450 METAR COR EGLL 150450Z 35009KT 9999 BKN013 02/M01 Q1006 TEMPO
                        FEW015=
201301150420 METAR COR EGLL 150420Z 36008KT 320V030 9999 BKN014 02/M01
                        Q1006 TEMPO FEW014=
201301150350 METAR COR EGLL 150350Z 35010KT 310V020 9999 BKN014 02/M01
                        Q1005 TEMPO FEW014=
201301150320 METAR COR EGLL 150320Z 33008KT 9999 BKN017 02/M01 Q1005 NOSIG=
201301150250 METAR COR EGLL 150250Z 34010KT 310V010 9999 BKN017 02/M01
                        Q1004 NOSIG=
201301150220 METAR EGLL 150220Z AUTO 33010KT 9999 OVC017/// 02/M01 Q1004=
201301150150 METAR EGLL 150150Z AUTO 31010KT 9999 OVC017/// 02/M01 Q1004=
201301150120 METAR EGLL 150120Z AUTO 30009KT 270V330 9999 SCT019/// 02/M01
                        Q1004=
201301150050 METAR COR EGLL 150050Z 30008KT 9999 FEW019 BKN037 02/M00
                        Q1004 NOSIG=
201301150020 METAR EGLL 150020Z 30009KT 9999 FEW015 SCT038 02/M00 Q1004=
201301142350 METAR COR EGLL 142350Z 29010KT 9999 SCT035 02/M00 Q1004 TEMPO
                        BKN012=
201301142320 METAR COR EGLL 142320Z 29009KT 9999 FEW015 SCT037 02/M00
                        Q1004 TEMPO BKN012=
201301142250 METAR COR EGLL 142250Z 30008KT 9999 FEW015 02/M00 Q1004 TEMPO
                        BKN012=
201301142220 METAR COR EGLL 142220Z 29010KT 9999 FEW024 SCT033 02/M00
                        Q1004 NOSIG=
201301142150 METAR COR EGLL 142150Z 30008KT 9999 FEW013 SCT033 02/00 Q1004
                        NOSIG=
201301142120 METAR COR EGLL 142120Z 30009KT 9999 SCT013 SCT018 02/01 Q1004
                        TEMPO BKN012=
201301142050 METAR COR EGLL 142050Z 32007KT 290V350 9999 -RA SCT013 SCT018
                        03/01 Q1004 TEMPO BKN012=
201301142020 METAR COR EGLL 142020Z 30008KT 9999 BKN011 03/01 Q1004 TEMPO
                        BKN020=
201301141950 METAR COR EGLL 141950Z 30009KT 9999 FEW012 SCT020 03/01 Q1004
                        TEMPO SHRA BKN012=
201301141920 METAR COR EGLL 141920Z 30010KT 9999 FEW020 03/01 Q1004 NOSIG=
201301141850 METAR COR EGLL 141850Z 29010KT 9999 FEW043 04/01 Q1005 TEMPO
                        SHRA BKN014=
201301141820 METAR COR EGLL 141820Z 29011KT 9999 FEW048 03/02 Q1005 NOSIG=
201301141750 METAR COR EGLL 141750Z 27008KT 9999 FEW034 02/01 Q1005 NOSIG=
201301141720 METAR COR EGLL 141720Z 27010KT 9000 SCT032 02/01 Q1005 NOSIG=
201301141650 METAR COR EGLL 141650Z 27011KT 8000 NSC 02/01 Q1006 NOSIG=
201301141620 METAR COR EGLL 141620Z 27011KT 9999 FEW030 02/01 Q1006 NOSIG=
201301141550 METAR EGLL 141550Z 26008KT 9000 FEW006 02/01 Q1006=
201301141520 METAR COR EGLL 141520Z 25008KT 7000 -RA BKN005 02/01 Q1007
                        BECMG FEW007 BKN020=
201301141450 METAR COR EGLL 141450Z 21006KT 180V260 6000 -RASN SCT004
                        BKN014 02/01 Q1007 TEMPO BKN008=
201301141420 METAR COR EGLL 141420Z 21007KT 3000 -SN BKN003 BKN012 01/00
                        Q1007 BECMG 7000 -RA SCT004 BKN012=
201301141350 METAR COR EGLL 141350Z 21007KT 3500 -SN BKN004 BKN010 02/01
                        Q1008 BECMG 7000 -RA SCT006 BKN014=
201301141320 METAR COR EGLL 141320Z 20007KT 080V250 4500 -SN BKN004 02/01
                        Q1009 BECMG 7000 -RA SCT006 BKN013=
201301141250 METAR COR EGLL 141250Z 19007KT 140V230 4000 -SN BKN004 01/00
                        Q1009 BECMG 7000 -RA SCT006 BKN013=
201301141220 METAR COR EGLL 141220Z 20006KT 3500 -SN SCT004 BKN005 01/00
                        Q1010 RESN BECMG 7000 RA SCT005 BKN008=
201301141150 METAR COR EGLL 141150Z 20007KT 180V240 4300 -RASN BKN006
                        BKN013 01/M00 Q1011 BECMG 7000 -RA=
201301141120 METAR COR EGLL 141120Z 21008KT 180V270 7000 -SN BKN007 BKN013
                        01/M00 Q1012 TEMPO 4500 RASN=
201301141050 METAR COR EGLL 141050Z 21007KT 180V240 9999 BKN007 BKN011
                        01/M01 Q1013 TEMPO 4500 -RASN=
201301141020 METAR COR EGLL 141020Z 20007KT 170V240 9999 BKN008 OVC012
                        01/M01 Q1013 NOSIG=
201301140950 METAR COR EGLL 140950Z 19007KT 170V250 9999 FEW008 BKN015
                        00/M01 Q1014 TEMPO BKN012=
201301140920 METAR COR EGLL 140920Z 19008KT 9999 FEW010 BKN016 00/M01
                        Q1014 NOSIG=
201301140850 METAR COR EGLL 140850Z 18007KT 160V220 9999 SCT008 BKN020
                        M00/M01 Q1015 TEMPO BKN012=
201301140820 METAR EGLL 140820Z 18005KT 120V220 8000 SCT007 BKN020 M00/M01
                        Q1015 TEMPO BKN012=
201301140750 METAR COR EGLL 140750Z 18007KT 140V220 4800 -SN SCT005 BKN008
                        M00/M01 Q1015 BECMG 7000 NSW SCT008
                        BKN025=
201301140720 METAR COR EGLL 140720Z 21006KT 180V240 8000 -SN FEW004 SCT008
                        M00/M01 Q1015 TEMPO BKN008=
201301140650 METAR EGLL 140650Z 21006KT 180V260 8000 SCT006 BKN034 M00/M01
                        Q1016=
201301140620 METAR COR EGLL 140620Z 20006KT 180V250 7000 SCT006 BKN037
                        M00/M01 Q1016 TEMPO BKN006=
201301140550 METAR COR EGLL 140550Z 19005KT 5000 -SN FEW009 SCT013 BKN042
                        M00/M01 Q1016 TEMPO 4000 BKN012=
201301140520 METAR COR EGLL 140520Z 21004KT 4500 -SN BR FEW009 SCT016
                        BKN022 M00/M02 Q1017 TEMPO BKN012=
201301140450 METAR COR EGLL 140450Z 20004KT 4500 -SN HZ FEW020 SCT026
                        BKN049 00/M02 Q1017 TEMPO BKN012=
201301140420 METAR COR EGLL 140420Z 26002KT 6000 -SN SCT030 00/M02 Q1017
                        TEMPO BKN012=
201301140350 METAR EGLL 140350Z 28002KT 7000 -SN SCT016 01/M02 Q1018=
201301140320 METAR COR EGLL 140320Z 27003KT 9999 SCT032 BKN039 01/M02
                        Q1018 BECMG BKN012=
201301140250 METAR COR EGLL 140250Z 00000KT CAVOK 00/M03 Q1018 NOSIG=
201301140220 METAR EGLL 140220Z AUTO 00000KT 9999 NCD 01/M03 Q1019=
201301140150 METAR EGLL 140150Z AUTO 28002KT 9999 NCD 01/M03 Q1019=
201301140120 METAR EGLL 140120Z AUTO 27004KT 9999 NCD 00/M03 Q1019=
201301140050 METAR COR EGLL 140050Z 00000KT CAVOK 01/M03 Q1019 NOSIG=
201301140020 METAR COR EGLL 140020Z VRB02KT CAVOK 01/M03 Q1019 NOSIG=
201301132350 METAR COR EGLL 132350Z 36003KT CAVOK 01/M03 Q1020 NOSIG=
201301132320 METAR COR EGLL 132320Z VRB03KT CAVOK 01/M02 Q1020 NOSIG=
201301132250 METAR COR EGLL 132250Z VRB03KT CAVOK 01/M03 Q1020 NOSIG=
201301132220 METAR COR EGLL 132220Z VRB02KT CAVOK 01/M03 Q1020 NOSIG=
201301132150 METAR COR EGLL 132150Z VRB02KT CAVOK 01/M03 Q1020 NOSIG=
201301132120 METAR COR EGLL 132120Z 35003KT CAVOK 01/M03 Q1021 NOSIG=
201301132050 METAR COR EGLL 132050Z 36004KT 330V040 CAVOK 01/M03 Q1021
                        NOSIG=
201301132020 METAR COR EGLL 132020Z 36004KT 9999 FEW045 01/M03 Q1021 NOSIG=
201301131950 METAR COR EGLL 131950Z 36003KT 9999 FEW045 01/M02 Q1021 NOSIG=
201301131920 METAR COR EGLL 131920Z 35004KT 9999 FEW046 01/M02 Q1021 NOSIG=
201301131850 METAR COR EGLL 131850Z 36003KT CAVOK 01/M02 Q1021 NOSIG=
201301131820 METAR COR EGLL 131820Z VRB03KT 9999 FEW047 01/M02 Q1021 NOSIG=
201301131750 METAR COR EGLL 131750Z 34004KT 300V010 9999 BKN047 02/M02
                        Q1021 NOSIG=
201301131720 METAR COR EGLL 131720Z 35004KT 310V030 9999 BKN048 02/M02
                        Q1021 NOSIG=
201301131650 METAR COR EGLL 131650Z 36005KT 330V030 9999 BKN049 02/M02
                        Q1021 NOSIG=
201301131620 METAR COR EGLL 131620Z 36006KT 9999 BKN048 02/M02 Q1021 NOSIG=
201301131550 METAR COR EGLL 131550Z 36006KT 320V040 9999 OVC046 02/M02
                        Q1020 NOSIG=
201301131520 METAR COR EGLL 131520Z 01005KT 330V050 9999 SCT044 02/M02
                        Q1020 NOSIG=
201301131450 METAR EGLL 131450Z 36006KT 9999 BKN047 03/M02 Q1020=
201301131420 METAR COR EGLL 131420Z 36007KT 9999 SCT048 02/M02 Q1020 NOSIG=
201301131350 METAR COR EGLL 131350Z 36007KT 330V030 9999 SCT048 03/M01
                        Q1020 NOSIG=
201301131320 METAR COR EGLL 131320Z 01006KT 330V050 9999 FEW020 03/M02
                        Q1020 NOSIG=
201301131250 METAR COR EGLL 131250Z 01005KT 340V040 9999 FEW020 03/M02
                        Q1020 NOSIG=
201301131220 METAR COR EGLL 131220Z 01006KT 340V050 9999 FEW020 03/M02
                        Q1020 NOSIG=
201301131150 METAR COR EGLL 131150Z 02007KT 330V050 9999 FEW030 03/M02
                        Q1020 NOSIG=
201301131120 METAR COR EGLL 131120Z 02007KT 340V050 CAVOK 03/M02 Q1020
                        NOSIG=
201301131050 METAR EGLL 131050Z 02006KT 340V050 CAVOK 02/M02 Q1020=
201301131020 METAR COR EGLL 131020Z 03005KT 330V060 9999 FEW048 01/M02
                        Q1020 NOSIG=
201301130950 METAR COR EGLL 130950Z 01005KT 340V050 9999 SCT046 M00/M03
                        Q1020 NOSIG=
201301130920 METAR COR EGLL 130920Z 36005KT 9999 FEW048 M00/M03 Q1019
                        NOSIG=
201301130850 METAR COR EGLL 130850Z 01005KT 350V060 9999 FEW048 M00/M03
                        Q1019 NOSIG=
201301130820 METAR COR EGLL 130820Z 01006KT 9999 FEW046 M00/M03 Q1019
                        NOSIG=
201301130750 METAR EGLL 130750Z 01005KT 330V050 9999 FEW046 00/M03 Q1019=
201301130720 METAR COR EGLL 130720Z 35005KT 9999 FEW040 02/M03 Q1018 NOSIG=
201301130650 METAR COR EGLL 130650Z 03005KT 340V070 9999 FEW035 BKN044
                        02/M03 Q1018 NOSIG=
201301130620 METAR COR EGLL 130620Z 04006KT 010V070 9999 SCT031 BKN043
                        02/M03 Q1018 NOSIG=
201301130550 METAR COR EGLL 130550Z 05007KT 010V090 9999 FEW026 SCT045
                        02/M02 Q1017 NOSIG=
201301130520 METAR COR EGLL 130520Z 05007KT 020V080 9999 FEW024 BKN048
                        02/M02 Q1017 NOSIG=
201301130450 METAR COR EGLL 130450Z 05007KT 9999 FEW024 BKN042 03/M02
                        Q1016 NOSIG=
201301130420 METAR COR EGLL 130420Z 06009KT 9999 BKN023 03/M01 Q1016 NOSIG=
201301130350 METAR COR EGLL 130350Z 06008KT 9999 BKN022 03/M01 Q1016 NOSIG=
201301130320 METAR COR EGLL 130320Z 06009KT 9999 BKN022 03/M01 Q1016 NOSIG=
201301130250 METAR COR EGLL 130250Z 05007KT 9999 BKN020 03/M01 Q1016 NOSIG=
201301130220 METAR COR EGLL 130220Z 05008KT 9999 BKN021 03/M00 Q1016 NOSIG=
201301130150 METAR COR EGLL 130150Z 05007KT 010V090 9999 BKN020 03/00
                        Q1015 NOSIG=
201301130120 METAR EGLL 130120Z NIL=
201301130050 METAR EGLL 130050Z NIL=
201301130020 METAR COR EGLL 130020Z 05006KT 010V080 9999 BKN019 04/01
                        Q1015 NOSIG=
201301122350 METAR COR EGLL 122350Z 07010KT 9999 BKN018 04/01 Q1015 NOSIG=
201301122320 METAR EGLL 122320Z NIL=
201301122250 METAR COR EGLL 122250Z 07010KT 9000 FEW012 BKN016 04/01 Q1014
                        NOSIG=
201301122220 METAR COR EGLL 122220Z 07010KT 8000 -RA FEW011 BKN014 04/02
                        Q1014 TEMPO SCT014 BKN025=
201301122150 METAR COR EGLL 122150Z 07008KT 8000 -RA BKN014 04/02 Q1014
                        TEMPO SCT015=
201301122120 METAR COR EGLL 122120Z 07008KT 9999 SCT013 SCT017 04/02 Q1014
                        NOSIG=
201301122050 METAR COR EGLL 122050Z 08010KT 9999 FEW011 BKN014 04/02 Q1014
                        TEMPO SCT014=
201301122020 METAR COR EGLL 122020Z 08009KT 9000 FEW012 SCT015 BKN018
                        03/02 Q1013 TEMPO BKN014=
201301121950 METAR COR EGLL 121950Z 09010KT 8000 FEW013 SCT017 BKN022
                        03/02 Q1013 TEMPO -RA BKN012=
201301121920 METAR COR EGLL 121920Z 10009KT 7000 -RA FEW012 BKN018 03/01
                        Q1013 TEMPO BKN012=
201301121850 METAR COR EGLL 121850Z 10009KT 7000 -RA BKN022 03/01 Q1013
                        TEMPO BKN012=
201301121820 METAR COR EGLL 121820Z 10011KT 8000 -RA BKN017 03/01 Q1013
                        TEMPO BKN014=
201301121750 METAR COR EGLL 121750Z 09010KT 9999 SCT018 SCT021 04/01 Q1012
                        NOSIG=
201301121720 METAR COR EGLL 121720Z 09012KT 9999 FEW022 04/00 Q1012 NOSIG=
201301121650 METAR COR EGLL 121650Z 08012KT 9999 FEW045 04/M00 Q1012 NOSIG=
201301121620 METAR COR EGLL 121620Z 09015KT 9999 SCT045 04/M00 Q1012 NOSIG=
201301121550 METAR COR EGLL 121550Z 09012KT 9999 BKN045 04/M01 Q1012 NOSIG=
201301121520 METAR COR EGLL 121520Z 09013KT 9999 FEW037 BKN045 04/M02
                        Q1011 NOSIG=
201301121450 METAR COR EGLL 121450Z 09015KT 9999 BKN047 04/M02 Q1011 NOSIG=
201301121420 METAR COR EGLL 121420Z 09015KT 9999 SCT037 SCT046 05/M02
                        Q1011 NOSIG=
201301121350 METAR COR EGLL 121350Z 10014KT 9999 BKN037 05/M03 Q1011 NOSIG=
201301121320 METAR COR EGLL 121320Z 09015KT 9999 BKN035 05/M03 Q1011 NOSIG=
201301121250 METAR COR EGLL 121250Z 09011KT 9999 BKN038 04/M02 Q1011 NOSIG=
201301121220 METAR COR EGLL 121220Z 09014KT 9999 BKN038 04/M02 Q1011 NOSIG=
201301121150 METAR COR EGLL 121150Z 09014KT 9999 BKN040 05/M02 Q1011 NOSIG=
201301121120 METAR COR EGLL 121120Z 09011KT 9999 BKN040 04/M02 Q1011 NOSIG=
201301121050 METAR COR EGLL 121050Z 10012KT 9999 BKN039 04/M02 Q1012 NOSIG=
201301121020 METAR COR EGLL 121020Z 09010KT 9999 BKN043 04/M01 Q1012 NOSIG=
201301120950 METAR COR EGLL 120950Z 09010KT 9999 BKN040 04/M00 Q1012 NOSIG=
201301120920 METAR EGLL 120920Z 09011KT 9999 BKN039 04/00 Q1011 NOSIG=
201301120850 METAR COR EGLL 120850Z 09012KT 9999 SCT035 BKN039 04/M00
                        Q1011 NOSIG=
201301120820 METAR EGLL 120820Z 10010KT 9999 BKN030 04/01 Q1011 NOSIG=
201301120750 METAR COR EGLL 120750Z 09010KT 9999 BKN033 03/02 Q1011 NOSIG=
201301120720 METAR COR EGLL 120720Z 09012KT 9999 BKN035 03/02 Q1012 NOSIG=
201301120650 METAR COR EGLL 120650Z 10014KT 5000 -RA BKN025 03/02 Q1012
                        NOSIG=
201301120620 METAR COR EGLL 120620Z 10015KT 9000 -RA FEW010 SCT027 BKN034
                        03/02 Q1012 NOSIG=
201301120550 METAR COR EGLL 120550Z 12011KT 5000 -RA FEW011 SCT027 BKN036
                        03/02 Q1012 TEMPO BKN010=
201301120520 METAR COR EGLL 120520Z 12012KT 5000 -RA SCT011 BKN027 04/03
                        Q1012 TEMPO BKN010=
201301120450 METAR COR EGLL 120450Z 09006KT 5000 -RA SCT009 BKN019 03/02
                        Q1012 TEMPO BKN008=
201301120420 METAR COR EGLL 120420Z 10006KT 5000 -RA SCT009 BKN010 03/02
                        Q1013 TEMPO BKN008=
201301120350 METAR EGLL 120350Z 09007KT 5000 BR SCT013 03/02 Q1013=
201301120320 METAR COR EGLL 120320Z 09007KT 6000 NSC 03/02 Q1013 TEMPO
                        -RA BKN010=
201301120250 METAR COR EGLL 120250Z 09007KT 6000 NSC 02/01 Q1013 NOSIG=
201301120220 METAR EGLL 120220Z AUTO 09005KT 4900 HZ NCD 02/01 Q1014=
201301120150 METAR EGLL 120150Z AUTO 09006KT 4500 HZ NCD 02/01 Q1014=
201301120120 METAR EGLL 120120Z AUTO 09005KT 4300 BR NCD 02/01 Q1014=
201301120050 METAR COR EGLL 120050Z 09005KT 5000 BR NSC 01/01 Q1015 NOSIG=
201301120020 METAR COR EGLL 120020Z 09005KT 4800 BR NSC 01/00 Q1015 TEMPO
                        5000=
201301112350 METAR COR EGLL 112350Z 08005KT 5000 BR NSC 01/00 Q1015 NOSIG=
201301112320 METAR COR EGLL 112320Z 09006KT 5000 BR NSC 01/00 Q1016 NOSIG=
201301112250 METAR COR EGLL 112250Z 08006KT 5000 BR NSC M00/M01 Q1016
                        NOSIG=
201301112220 METAR COR EGLL 112220Z 08005KT 5000 BR NSC 00/M00 Q1016 NOSIG=
201301112150 METAR COR EGLL 112150Z 09004KT 5000 BR NSC 00/M00 Q1016 NOSIG=
201301112120 METAR COR EGLL 112120Z 14004KT 5000 BR NSC 01/00 Q1017 NOSIG=
201301112050 METAR COR EGLL 112050Z 11005KT 5000 BR NSC 01/00 Q1017 NOSIG=
201301112020 METAR COR EGLL 112020Z 13006KT 5000 BR NSC 02/01 Q1017 NOSIG=
201301111950 METAR COR EGLL 111950Z 09005KT 5000 BR NSC 02/01 Q1017 NOSIG=
201301111920 METAR COR EGLL 111920Z 09005KT 6000 NSC 02/01 Q1017 NOSIG=
201301111850 METAR COR EGLL 111850Z 09006KT 6000 NSC 02/01 Q1017 NOSIG=
201301111820 METAR COR EGLL 111820Z 09005KT 6000 BKN016 03/02 Q1017 NOSIG=
201301111750 METAR COR EGLL 111750Z 10007KT 7000 FEW015 BKN019 05/02 Q1017
                        NOSIG=
201301111720 METAR EGLL 111720Z 08004KT 060V120 9999 FEW015 BKN022 06/03
                        Q1017=
201301111650 METAR COR EGLL 111650Z VRB03KT 9999 BKN022 06/03 Q1017 NOSIG=
201301111620 METAR COR EGLL 111620Z 36003KT 9999 FEW016 BKN023 06/03 Q1018
                        NOSIG=
201301111550 METAR COR EGLL 111550Z 32004KT 9999 FEW018 BKN021 06/04 Q1018
                        NOSIG=
201301111520 METAR COR EGLL 111520Z 32004KT 9999 FEW019 BKN026 06/04 Q1018
                        NOSIG=
201301111450 METAR COR EGLL 111450Z 28005KT 9999 SCT027 07/03 Q1018 NOSIG=
201301111420 METAR COR EGLL 111420Z 29004KT 9999 SCT028 07/04 Q1018 NOSIG=
201301111350 METAR COR EGLL 111350Z 26005KT 200V310 9999 SCT028 07/03
                        Q1018 NOSIG=
201301111320 METAR COR EGLL 111320Z VRB02KT 9000 FEW014 SCT028 07/03 Q1018
                        NOSIG=
201301111250 METAR COR EGLL 111250Z VRB02KT 9999 FEW014 BKN028 06/02 Q1018
                        NOSIG=
201301111220 METAR COR EGLL 111220Z VRB03KT 8000 FEW012 SCT028 06/03 Q1018
                        NOSIG=
201301111150 METAR COR EGLL 111150Z VRB02KT 7000 FEW014 SCT030 06/03 Q1018
                        NOSIG=
201301111120 METAR COR EGLL 111120Z VRB03KT 7000 FEW030 06/03 Q1018 NOSIG=
201301111050 METAR COR EGLL 111050Z VRB02KT 7000 FEW010 SCT028 05/03 Q1019
                        NOSIG=
201301111020 METAR COR EGLL 111020Z 28003KT 5000 HZ FEW032 04/02 Q1019
                        NOSIG=
201301110950 METAR COR EGLL 110950Z 00000KT 5000 BR FEW049 04/02 Q1019
                        NOSIG=
201301110920 METAR COR EGLL 110920Z VRB03KT 6000 NSC 04/02 Q1019 NOSIG=
201301110850 METAR COR EGLL 110850Z VRB02KT 6000 NSC 03/02 Q1019 NOSIG=
201301110820 METAR COR EGLL 110820Z 36002KT 4500 BR NSC 03/02 Q1019 TEMPO
                        6000=
201301110750 METAR COR EGLL 110750Z 01003KT 6000 NSC 03/02 Q1018 TEMPO
                        4000 BR=
201301110720 METAR COR EGLL 110720Z VRB02KT 6000 NSC 03/01 Q1018 TEMPO
                        4000 BR=
201301110650 METAR COR EGLL 110650Z 30002KT 5000 BR FEW047 03/01 Q1018
                        TEMPO 4000=
201301110620 METAR COR EGLL 110620Z 00000KT 5000 BR FEW047 02/01 Q1018
                        TEMPO 4000 BR=
201301110550 METAR COR EGLL 110550Z VRB02KT 4400 BR FEW047 02/01 Q1017
                        NOSIG=
201301110520 METAR COR EGLL 110520Z VRB03KT 5000 BR FEW047 02/01 Q1017
                        TEMPO 4000 BR=
201301110450 METAR COR EGLL 110450Z 27004KT 4800 BR NSC 01/00 Q1017 NOSIG=
201301110420 METAR COR EGLL 110420Z 28004KT 4800 BR NSC 01/01 Q1017 NOSIG=
201301110350 METAR COR EGLL 110350Z 27005KT 4800 BR NSC 01/01 Q1017 NOSIG=
201301110320 METAR COR EGLL 110320Z 27004KT 4800 BR NSC 01/M00 Q1017 NOSIG=
201301110250 METAR COR EGLL 110250Z 29003KT 6000 FEW036 01/M00 Q1017 TEMPO
                        4000 BR=
201301110220 METAR EGLL 110220Z AUTO 30003KT 4200 HZ FEW036/// 02/01 Q1017=
201301110150 METAR EGLL 110150Z AUTO 29003KT 4300 HZ SCT036/// 02/01 Q1017=
201301110120 METAR EGLL 110120Z AUTO VRB03KT 4800 HZ BKN037/// 02/01 Q1017=
201301110050 METAR COR EGLL 110050Z 32003KT 4500 BR SCT038 02/01 Q1017
                        NOSIG=
201301110020 METAR COR EGLL 110020Z 32003KT 4500 BR FEW007 02/01 Q1016
                        NOSIG=
201301102350 METAR COR EGLL 102350Z 31003KT 5000 BR FEW007 02/01 Q1016
                        TEMPO 3000 BR BKN007=
201301102320 METAR COR EGLL 102320Z 32004KT 6000 FEW007 02/01 Q1016 TEMPO
                        4000 BR BKN008=
201301102250 METAR COR EGLL 102250Z 31004KT 6000 FEW007 SCT008 03/01 Q1016
                        TEMPO 4000 BR BKN008=
201301102220 METAR COR EGLL 102220Z 31005KT 270V340 6000 BKN008 03/01
                        Q1015 TEMPO 4000 BR=
201301102150 METAR COR EGLL 102150Z 31004KT 6000 SCT008 BKN009 03/01 Q1015
                        BECMG 4000 BR=
201301102120 METAR EGLL 102120Z 34005KT 300V010 6000 SCT008 BKN009 03/01
                        Q1015 BECMG 4000 BR=
201301102050 METAR COR EGLL 102050Z 36004KT 6000 SCT008 BKN009 03/01 Q1015
                        BECMG 4000 BR=
201301102020 METAR COR EGLL 102020Z 36004KT 300V030 6000 SCT008 BKN009
                        03/01 Q1014 BECMG 4000 BR=
201301101950 METAR COR EGLL 101950Z 36004KT 320V040 6000 SCT008 BKN009
                        03/01 Q1014 NOSIG=
201301101920 METAR COR EGLL 101920Z 36004KT 7000 SCT009 BKN014 03/01 Q1014
                        TEMPO BKN009=
201301101850 METAR COR EGLL 101850Z 36005KT 320V020 7000 SCT007 BKN010
                        BKN016 04/01 Q1014 TEMPO BKN009=
201301101820 METAR COR EGLL 101820Z VRB03KT 8000 SCT006 BKN009 BKN022
                        04/01 Q1014 NOSIG=
201301101750 METAR COR EGLL 101750Z VRB03KT 8000 BKN009 BKN010 04/01 Q1014
                        NOSIG=
201301101720 METAR COR EGLL 101720Z VRB03KT 8000 BKN009 BKN011 04/02 Q1014
                        NOSIG=
201301101650 METAR COR EGLL 101650Z VRB03KT 8000 BKN008 BKN010 04/02 Q1014
                        NOSIG=
201301101620 METAR COR EGLL 101620Z VRB02KT 8000 BKN008 BKN010 04/01 Q1014
                        NOSIG=
201301101550 METAR COR EGLL 101550Z 31004KT 260V350 8000 BKN009 BKN010
                        03/01 Q1014 NOSIG=
201301101520 METAR COR EGLL 101520Z 31004KT 280V350 8000 BKN007 BKN010
                        03/02 Q1014 NOSIG=
201301101450 METAR COR EGLL 101450Z 30005KT 7000 BKN007 BKN008 03/02 Q1014
                        NOSIG=
201301101420 METAR COR EGLL 101420Z VRB02KT 6000 BKN006 BKN008 03/02 Q1014
                        NOSIG=
201301101350 METAR COR EGLL 101350Z 33004KT 290V010 6000 BKN006 BKN008
                        04/02 Q1014 NOSIG=
201301101320 METAR EGLL 101320Z 32004KT 6000 BKN006 BKN008 03/02 Q1014=
201301101250 METAR EGLL 101250Z 31004KT 7000 FEW005 BKN006 BKN008 04/02
                        Q1015=
201301101220 METAR COR EGLL 101220Z VRB03KT 6000 SCT005 BKN006 03/02 Q1015
                        NOSIG=
201301101150 METAR EGLL 101150Z 31004KT 270V360 7000 FEW005 BKN006 BKN008
                        03/02 Q1015=
201301101120 METAR COR EGLL 101120Z 31005KT 280V350 7000 FEW005 SCT006
                        BKN007 03/02 Q1016 NOSIG=
201301101050 METAR COR EGLL 101050Z 28006KT 7000 FEW005 BKN006 03/02 Q1016
                        NOSIG=
201301101020 METAR COR EGLL 101020Z 30005KT 270V330 7000 FEW005 BKN006
                        03/01 Q1016 NOSIG=
201301100950 METAR COR EGLL 100950Z 32004KT 290V350 7000 FEW005 BKN006
                        03/01 Q1016 NOSIG=
201301100920 METAR COR EGLL 100920Z VRB02KT 7000 FEW005 SCT007 BKN008
                        03/02 Q1016 NOSIG=
201301100850 METAR COR EGLL 100850Z 36002KT 8000 SCT006 SCT008 03/01 Q1016
                        TEMPO 4500 HZ BKN004=
201301100820 METAR COR EGLL 100820Z VRB02KT 8000 SCT007 BKN008 02/01 Q1016
                        TEMPO 4500 BR BKN004=
201301100750 METAR COR EGLL 100750Z 36003KT 9000 BKN014 02/01 Q1016 TEMPO
                        4000 BR BKN005=
201301100720 METAR COR EGLL 100720Z VRB03KT 9999 BKN017 02/00 Q1016 TEMPO
                        4000 BR BKN005=
201301100650 METAR COR EGLL 100650Z VRB02KT 9999 FEW021 BKN030 01/01 Q1016
                        TEMPO 4000 BR=
201301100620 METAR COR EGLL 100620Z VRB03KT 9999 BKN020 BKN035 01/00 Q1016
                        TEMPO 4000 BR=
201301100550 METAR COR EGLL 100550Z VRB02KT 9999 SCT020 SCT030 01/00 Q1017
                        TEMPO 3000 BR=
201301100520 METAR COR EGLL 100520Z 27004KT 9000 SCT020 00/M00 Q1017 TEMPO
                        0400 FG VV///=
201301100450 METAR COR EGLL 100450Z 07002KT 9000 FEW003 SCT025 M00/M01
                        Q1017 TEMPO 0400 FG VV///=
201301100420 METAR COR EGLL 100420Z 01004KT 340V050 5000 BR FEW001 M00/M01
                        Q1017 TEMPO 0400 FG VV///=
201301100350 METAR EGLL 100350Z AUTO 27003KT 0450 R27L/1000 FG SCT001///
                        BKN017/// M00/M01 Q1017=
201301100320 METAR EGLL 100320Z AUTO 32004KT 270V350 7000 FEW002/// OVC017///
                        00/M00 Q1018=
201301100250 METAR EGLL 100250Z AUTO 30003KT 3900 BR FEW002/// M00/M01
                        Q1018=
201301100220 METAR COR EGLL 100220Z 00000KT 5000 BR FEW002 00/M01 Q1018
                        BECMG 3000=
201301100150 METAR COR EGLL 100150Z 26003KT 7000 FEW002 BKN018 00/M00
                        Q1018 BECMG 4000 BR=
201301100120 METAR COR EGLL 100120Z 00000KT 6000 FEW002 01/M00 Q1018 BECMG
                        4000 BR=
201301100050 METAR COR EGLL 100050Z VRB02KT 8000 NSC 01/00 Q1018 NOSIG=
201301100020 METAR COR EGLL 100020Z 30002KT 6000 NSC 01/M00 Q1018 NOSIG=
201301092350 METAR COR EGLL 092350Z VRB03KT 7000 NSC 01/00 Q1019 NOSIG=
201301092320 METAR COR EGLL 092320Z 30002KT 9000 NSC 02/01 Q1019 NOSIG=
201301092250 METAR COR EGLL 092250Z 31002KT 9000 NSC 03/02 Q1019 NOSIG=
201301092220 METAR COR EGLL 092220Z VRB02KT CAVOK 04/02 Q1020 NOSIG=
201301092150 METAR COR EGLL 092150Z 30002KT 9999 FEW010 05/02 Q1020 NOSIG=
201301092120 METAR COR EGLL 092120Z 00000KT CAVOK 05/02 Q1020 NOSIG=
201301092050 METAR COR EGLL 092050Z 35004KT CAVOK 06/03 Q1020 NOSIG=
201301092020 METAR COR EGLL 092020Z 35003KT CAVOK 06/03 Q1020 NOSIG=
201301091950 METAR COR EGLL 091950Z 00000KT CAVOK 05/02 Q1020 NOSIG=
201301091920 METAR COR EGLL 091920Z VRB02KT CAVOK 06/03 Q1021 NOSIG=
201301091850 METAR COR EGLL 091850Z 03003KT CAVOK 06/03 Q1021 NOSIG=
201301091820 METAR EGLL 091820Z VRB02KT CAVOK 07/03 Q1021 NOSIG=
201301091750 METAR COR EGLL 091750Z VRB02KT CAVOK 06/03 Q1021 NOSIG=
201301091720 METAR COR EGLL 091720Z VRB02KT CAVOK 06/02 Q1021 NOSIG=
201301091650 METAR COR EGLL 091650Z VRB02KT CAVOK 07/03 Q1021 NOSIG=
201301091620 METAR COR EGLL 091620Z VRB03KT CAVOK 07/03 Q1021 NOSIG=
201301091550 METAR EGLL 091550Z 04004KT CAVOK 08/03 Q1021=
201301091520 METAR COR EGLL 091520Z 01004KT 340V070 CAVOK 08/03 Q1021
                        NOSIG=
201301091450 METAR COR EGLL 091450Z 36004KT 330V050 9999 FEW026 08/03
                        Q1021 NOSIG=
201301091420 METAR COR EGLL 091420Z 02004KT 320V060 9999 FEW026 09/03
                        Q1021 NOSIG=
201301091350 METAR EGLL 091350Z 01005KT 310V050 9999 FEW026 09/03 Q1021=
201301091320 METAR COR EGLL 091320Z 02004KT 340V060 9999 FEW030 09/04
                        Q1021 NOSIG=
201301091250 METAR EGLL 091250Z VRB02KT 9999 FEW030 08/05 Q1021=
201301091220 METAR COR EGLL 091220Z 02004KT 340V060 9999 BKN032 08/04
                        Q1021 NOSIG=
201301091150 METAR COR EGLL 091150Z 02005KT 340V060 9999 FEW014 BKN033
                        08/05 Q1022 NOSIG=
201301091120 METAR COR EGLL 091120Z 03004KT 340V060 9999 FEW014 BKN032
                        08/05 Q1022 NOSIG=
201301091050 METAR COR EGLL 091050Z 03006KT 350V060 9999 SCT014 BKN033
                        08/05 Q1022 NOSIG=
201301091020 METAR COR EGLL 091020Z 01004KT 330V050 9999 FEW011 SCT018
                        BKN035 08/06 Q1022 NOSIG=
201301090950 METAR EGLL 090950Z 02005KT 330V050 9999 FEW009 SCT012 BKN018
                        08/06 Q1022=
201301090920 METAR COR EGLL 090920Z 01006KT 340V060 9999 FEW006 SCT007
                        BKN010 08/06 Q1022 BECMG BKN015=
201301090850 METAR COR EGLL 090850Z 36005KT 9999 FEW006 SCT008 BKN010
                        08/07 Q1022 NOSIG=
201301090820 METAR COR EGLL 090820Z 01005KT 340V050 6000 FEW005 BKN006
                        08/07 Q1022 BECMG BKN010=
201301090750 METAR COR EGLL 090750Z 02005KT 350V050 9000 FEW005 BKN006
                        08/07 Q1022 NOSIG=
201301090720 METAR COR EGLL 090720Z 01005KT 340V060 9999 SCT005 BKN007
                        08/07 Q1021 BECMG BKN010=
201301090650 METAR COR EGLL 090650Z 36005KT 330V040 9999 SCT007 BKN008
                        09/08 Q1021 BECMG BKN011=
201301090620 METAR EGLL 090620Z 36005KT 320V030 9999 BKN005 09/08 Q1021
                        BECMG SCT006 BKN011=
201301090550 METAR COR EGLL 090550Z VRB03KT 9999 BKN005 BKN010 09/09 Q1020
                        NOSIG=
201301090520 METAR COR EGLL 090520Z VRB03KT 8000 FEW004 SCT008 09/09 Q1021
                        NOSIG=
201301090450 METAR COR EGLL 090450Z VRB03KT 3300 -RADZ FEW003 BKN005 09/09
                        Q1021 TEMPO BKN003=
201301090420 METAR COR EGLL 090420Z 27003KT 2300 DZ BKN003 BKN005 09/09
                        Q1021 TEMPO SCT003 BKN005=
201301090350 METAR EGLL 090350Z 00000KT 2000 -RADZ FEW002 BKN003 09/09
                        Q1021=
201301090320 METAR COR EGLL 090320Z 23003KT 2400 -RA OVC003 09/09 Q1021
                        NOSIG=
201301090250 METAR EGLL 090250Z AUTO 21003KT 4900 -RA BKN003/// 09/09
                        Q1021 RERA=
201301090220 METAR EGLL 090220Z AUTO 20003KT 5000 -RA BKN004/// 09/09
                        Q1021 RERA=
201301090150 METAR EGLL 090150Z AUTO 21003KT 5000 -DZ BKN003/// 09/08
                        Q1022=
201301090120 METAR COR EGLL 090120Z 20004KT 6000 -RA BKN004 09/08 Q1022
                        NOSIG=
201301090050 METAR COR EGLL 090050Z 20004KT 6000 -RA BKN004 09/08 Q1022
                        TEMPO 4000=
201301090020 METAR COR EGLL 090020Z 19005KT 6000 -RA OVC003 09/08 Q1022
                        TEMPO 4000=
201301082350 METAR COR EGLL 082350Z 19006KT 4800 -RA OVC004 09/08 Q1022
                        NOSIG=
201301082320 METAR COR EGLL 082320Z 20006KT 4800 -RA OVC004 09/08 Q1023
                        NOSIG=
201301082250 METAR COR EGLL 082250Z 19006KT 4500 -RA FEW003 OVC004 09/08
                        Q1023 NOSIG=
201301082220 METAR COR EGLL 082220Z 19007KT 3800 -RA OVC004 09/08 Q1023
                        NOSIG=
201301082150 METAR COR EGLL 082150Z 20008KT 4000 -DZ OVC004 09/09 Q1023
                        TEMPO 5000 BKN006=
201301082120 METAR COR EGLL 082120Z 21008KT 4500 -DZ OVC005 10/09 Q1023
                        TEMPO 5000=
201301082050 METAR COR EGLL 082050Z 21007KT 8000 -DZ FEW005 BKN006 10/09
                        Q1023 NOSIG=
201301082020 METAR COR EGLL 082020Z 21008KT 9000 -DZ BKN006 OVC008 10/09
                        Q1023 NOSIG=
201301081950 METAR COR EGLL 081950Z 22009KT 9000 BKN007 10/09 Q1023 NOSIG=
201301081920 METAR COR EGLL 081920Z 21008G18KT 9999 OVC008 10/09 Q1023
                        NOSIG=
201301081850 METAR COR EGLL 081850Z 22008KT 9000 FEW007 BKN008 10/09 Q1023
                        NOSIG=
201301081820 METAR COR EGLL 081820Z 23009KT 9999 BKN009 11/09 Q1023 TEMPO
                        BKN012=
201301081750 METAR COR EGLL 081750Z 22008KT 9999 BKN011 11/08 Q1023 NOSIG=
201301081720 METAR COR EGLL 081720Z 21007KT 170V240 9999 BKN012 11/08
                        Q1023 NOSIG=
201301081650 METAR COR EGLL 081650Z 20007KT 9999 BKN015 11/08 Q1024 BECMG
                        BKN012=
201301081620 METAR COR EGLL 081620Z 21007KT 9999 BKN016 11/08 Q1024 BECMG
                        BKN012=
201301081550 METAR COR EGLL 081550Z 22006KT 9999 BKN017 11/08 Q1024 BECMG
                        BKN012=
201301081520 METAR COR EGLL 081520Z 22008KT 9999 BKN017 11/08 Q1024 TEMPO
                        BKN014=
201301081450 METAR COR EGLL 081450Z 23010KT 9999 BKN015 11/08 Q1024 TEMPO
                        BKN012=
201301081420 METAR COR EGLL 081420Z 24011KT 9999 BKN015 11/08 Q1024 TEMPO
                        BKN012=
201301081350 METAR COR EGLL 081350Z 24010KT 9999 BKN016 11/08 Q1024 TEMPO
                        BKN014=
201301081320 METAR EGLL 081320Z 24012KT 9999 BKN017 11/08 Q1024=
201301081250 METAR COR EGLL 081250Z 24014KT 9999 BKN018 11/08 Q1024 TEMPO
                        BKN014=
201301081220 METAR COR EGLL 081220Z 23011KT 9999 SCT016 11/08 Q1024 TEMPO
                        BKN012=
201301081150 METAR COR EGLL 081150Z 23010KT 200V260 9999 FEW018 11/08
                        Q1024 TEMPO BKN014=
201301081120 METAR COR EGLL 081120Z 23010KT 190V260 9999 FEW014 SCT042
                        11/08 Q1025 TEMPO BKN014=
201301081050 METAR COR EGLL 081050Z 22008KT 180V250 9999 BKN014 11/08
                        Q1025 TEMPO BKN016=
201301081020 METAR COR EGLL 081020Z 23009KT 190V280 9999 BKN015 10/08
                        Q1025 TEMPO BKN012=
201301080950 METAR COR EGLL 080950Z 23008KT 9999 BKN013 10/08 Q1025 NOSIG=
201301080920 METAR COR EGLL 080920Z 22006KT 180V260 9999 BKN013 09/07
                        Q1025 TEMPO BKN015=
201301080850 METAR COR EGLL 080850Z 22006KT 9999 BKN013 09/07 Q1025 TEMPO
                        BKN015=
201301080820 METAR COR EGLL 080820Z 22007KT 9999 BKN014 09/07 Q1024 NOSIG=
201301080750 METAR COR EGLL 080750Z 21007KT 9999 SCT018 SCT039 08/07 Q1024
                        NOSIG=
201301080720 METAR COR EGLL 080720Z 22007KT 9999 FEW031 09/07 Q1024 NOSIG=
201301080650 METAR COR EGLL 080650Z 22007KT 180V280 9999 SCT032 10/07
                        Q1024 NOSIG=
201301080620 METAR COR EGLL 080620Z 21006KT 9999 BKN031 09/07 Q1024 NOSIG=
201301080550 METAR COR EGLL 080550Z 20007KT 9999 BKN027 10/07 Q1024 NOSIG=
201301080520 METAR COR EGLL 080520Z 20008KT 9999 BKN031 10/07 Q1024 NOSIG=
201301080450 METAR COR EGLL 080450Z 22009KT 9999 BKN025 10/07 Q1024 NOSIG=
201301080420 METAR COR EGLL 080420Z 22009KT 9999 BKN033 10/07 Q1024 NOSIG=
201301080350 METAR COR EGLL 080350Z 22006KT 9999 BKN031 10/07 Q1024 NOSIG=
201301080320 METAR COR EGLL 080320Z 22007KT 9999 BKN029 10/07 Q1024 NOSIG=
201301080250 METAR COR EGLL 080250Z 21007KT 9999 BKN020 BKN024 09/07 Q1024
                        NOSIG=
201301080220 METAR EGLL 080220Z AUTO 21006KT 9999 SCT015/// BKN022///
                        09/07 Q1024=
201301080150 METAR EGLL 080150Z AUTO 22006KT 9999 FEW016/// 09/07 Q1024=
201301080120 METAR EGLL 080120Z AUTO 21006KT 9999 OVC016/// 09/07 Q1024=
201301080050 METAR COR EGLL 080050Z 20006KT 9999 BKN022 09/07 Q1024 NOSIG=
201301080020 METAR COR EGLL 080020Z 21005KT 9999 BKN024 09/07 Q1024 NOSIG=
201301072350 METAR COR EGLL 072350Z 21005KT 9999 BKN028 09/07 Q1024 NOSIG=
201301072320 METAR COR EGLL 072320Z 21006KT 9999 BKN024 09/07 Q1024 NOSIG=
201301072250 METAR COR EGLL 072250Z 20006KT 9999 BKN027 09/07 Q1025 NOSIG=
201301072220 METAR COR EGLL 072220Z 20007KT 9999 FEW020 BKN026 09/07 Q1025
                        NOSIG=
201301072150 METAR COR EGLL 072150Z 20008KT 9999 BKN028 09/07 Q1025 NOSIG=
201301072120 METAR COR EGLL 072120Z 20009KT 9999 BKN028 09/07 Q1025 NOSIG=
201301072050 METAR COR EGLL 072050Z 21008KT 9999 BKN025 09/07 Q1025 NOSIG=
201301072020 METAR COR EGLL 072020Z 20008KT 9999 BKN023 09/07 Q1025 NOSIG=
201301071950 METAR COR EGLL 071950Z 20009G19KT 170V240 9000 BKN027 09/07
                        Q1025 TEMPO BKN012=
201301071920 METAR COR EGLL 071920Z 20008KT 9000 BKN027 09/07 Q1025 TEMPO
                        BKN012=
201301071850 METAR COR EGLL 071850Z 21009KT 180V250 9000 BKN029 08/07
                        Q1025 TEMPO BKN012=
201301071820 METAR COR EGLL 071820Z 20007KT 170V240 9999 FEW007 SCT008
                        BKN029 08/07 Q1025 TEMPO BKN012=
201301071750 METAR COR EGLL 071750Z 20008KT 110V240 9999 FEW007 BKN008
                        08/07 Q1025 TEMPO BKN012=
201301071720 METAR COR EGLL 071720Z 20008KT 9999 BKN008 BKN029 08/07 Q1025
                        TEMPO BKN010=
201301071650 METAR COR EGLL 071650Z 20009KT 9999 FEW008 SCT012 BKN028
                        08/07 Q1025 TEMPO BKN008=
201301071620 METAR EGLL 071620Z 21009KT 9999 SCT010 BKN027 08/07 Q1025=
201301071550 METAR COR EGLL 071550Z 20010KT 160V230 9999 SCT011 BKN032
                        09/07 Q1025 TEMPO BKN012=
201301071520 METAR COR EGLL 071520Z 20009KT 9999 FEW009 SCT010 BKN032
                        09/07 Q1025 TEMPO BKN010=
201301071450 METAR COR EGLL 071450Z 21009KT 180V250 9999 FEW009 SCT010
                        BKN033 09/07 Q1025 TEMPO BKN010=
201301071420 METAR COR EGLL 071420Z 21009KT 170V250 9999 FEW012 SCT015
                        OVC027 09/07 Q1025 TEMPO BKN012=
201301071350 METAR COR EGLL 071350Z 20009KT 9999 FEW008 SCT010 OVC027
                        09/07 Q1026 TEMPO BKN010=
201301071320 METAR COR EGLL 071320Z 21010KT 170V250 9999 FEW008 BKN009
                        BKN027 09/07 Q1026 TEMPO BKN012=
201301071250 METAR COR EGLL 071250Z 20011KT 170V250 9999 FEW008 BKN024
                        08/07 Q1026 NOSIG=
201301071220 METAR COR EGLL 071220Z 21009KT 170V240 9999 FEW005 BKN024
                        08/07 Q1026 TEMPO BKN012=
201301071150 METAR COR EGLL 071150Z 20010KT 170V240 9999 FEW005 BKN024
                        08/07 Q1027 TEMPO BKN012=
201301071120 METAR COR EGLL 071120Z 19010KT 150V240 9999 FEW005 BKN024
                        08/07 Q1027 TEMPO BKN012=
201301071050 METAR COR EGLL 071050Z 20008KT 170V250 9999 FEW005 BKN021
                        08/07 Q1027 TEMPO BKN012=
201301071020 METAR COR EGLL 071020Z 19008KT 160V220 9999 FEW005 OVC020
                        08/06 Q1027 TEMPO BKN012=
201301070950 METAR COR EGLL 070950Z 19008KT 170V230 9000 FEW006 BKN020
                        07/06 Q1027 TEMPO BKN012=
201301070920 METAR COR EGLL 070920Z 19009KT 170V240 8000 FEW005 BKN020
                        07/06 Q1027 TEMPO BKN012=
201301070850 METAR COR EGLL 070850Z 20007KT 160V240 8000 FEW005 BKN017
                        07/06 Q1027 TEMPO BKN012=
201301070820 METAR COR EGLL 070820Z 19007KT 160V240 8000 BKN018 07/06
                        Q1027 TEMPO BKN012=
201301070750 METAR COR EGLL 070750Z 20006KT 180V250 7000 FEW005 BKN018
                        07/06 Q1027 TEMPO BKN012=
201301070720 METAR COR EGLL 070720Z 20007KT 7000 FEW005 BKN015 07/06 Q1027
                        TEMPO BKN012=
201301070650 METAR COR EGLL 070650Z 20006KT 180V240 8000 FEW010 BKN016
                        07/06 Q1027 TEMPO BKN010=
201301070620 METAR COR EGLL 070620Z 19007KT 160V250 8000 BKN018 07/06
                        Q1027 TEMPO BKN014=
201301070550 METAR COR EGLL 070550Z 19006KT 9999 BKN017 07/06 Q1027 TEMPO
                        BKN014=
201301070520 METAR COR EGLL 070520Z 20005KT 9999 FEW013 BKN017 07/06 Q1027
                        TENPO BKN012=
201301070450 METAR COR EGLL 070450Z 20005KT 9999 FEW012 BKN016 07/06 Q1027
                        TEMPO BKN012=
201301070420 METAR COR EGLL 070420Z 20006KT 9999 BKN016 07/06 Q1028 TEMPO
                        BKN010=
201301070350 METAR COR EGLL 070350Z 22006KT 9999 BKN016 07/06 Q1028 TEMPO
                        BKN012=
201301070320 METAR COR EGLL 070320Z 25007KT 9999 FEW006 BKN011 07/06 Q1028
                        TEMPO BKN008=
201301070250 METAR COR EGLL 070250Z 26007KT 8000 SCT006 BKN010 07/06 Q1029
                        TEMPO BKN009=
201301070220 METAR EGLL 070220Z AUTO 25007KT 9999 BKN010/// 08/06 Q1029=
201301070150 METAR EGLL 070150Z AUTO 25008KT 9000 OVC009/// 08/06 Q1029=
201301070120 METAR EGLL 070120Z AUTO 24009KT 9999 OVC009/// 08/06 Q1029=
201301070050 METAR COR EGLL 070050Z 24008KT 9999 SCT007 BKN008 08/07 Q1029
                        NOSIG=
201301070020 METAR COR EGLL 070020Z 24009KT 9999 FEW006 BKN008 08/07 Q1029
                        NOSIG=
201301062350 METAR COR EGLL 062350Z 21007KT 9999 FEW008 BKN009 08/07 Q1029
                        TEMPO SCT009 BKN010=
201301062320 METAR COR EGLL 062320Z 24008KT 9999 SCT008 BKN010 08/07 Q1030
                        TEMPO BKN009=
201301062250 METAR COR EGLL 062250Z 25010KT 9999 SCT008 BKN010 09/07 Q1030
                        TEMPO BKN009=
201301062220 METAR COR EGLL 062220Z 24010KT 200V270 9999 FEW008 BKN010
                        09/07 Q1030 TEMPO BKN009=
201301062150 METAR COR EGLL 062150Z 22009KT 180V250 9999 FEW007 SCT008
                        BKN009 09/07 Q1030 NOSIG=
201301062120 METAR COR EGLL 062120Z 22007KT 150V250 6000 FEW007 SCT008
                        BKN009 08/07 Q1030 NOSIG=
201301062050 METAR COR EGLL 062050Z 23007KT 200V260 6000 FEW008 BKN009
                        08/07 Q1030 TEMPO SCT009 BKN010=
201301062020 METAR COR EGLL 062020Z 22006KT 160V250 6000 BKN009 08/07
                        Q1030 TEMPO BKN010=
201301061950 METAR COR EGLL 061950Z 20007KT 170V250 6000 BKN010 08/07
                        Q1030 TEMPO BKN009=
201301061920 METAR COR EGLL 061920Z 22006KT 170V270 6000 BKN010 08/07
                        Q1030 TEMPO BKN009=
201301061850 METAR COR EGLL 061850Z 21006KT 170V250 6000 BKN012 08/07
                        Q1030 TEMPO BKN009=
201301061820 METAR COR EGLL 061820Z 22005KT 170V260 6000 BKN013 08/07
                        Q1030 TEMPO BKN009=
201301061750 METAR COR EGLL 061750Z 19005KT 140V240 5000 BR FEW007 BKN012
                        07/07 Q1030 NOSIG=
201301061720 METAR COR EGLL 061720Z 20005KT 170V250 5000 BR FEW004 OVC013
                        07/07 Q1030 NOSIG=
201301061650 METAR COR EGLL 061650Z 20005KT 150V250 6000 FEW004 BKN016
                        07/07 Q1031 TEMPO BKN007=
201301061620 METAR COR EGLL 061620Z 20005KT 130V250 8000 SCT005 BKN006
                        BKN018 07/07 Q1031 TEMPO SCT006=
201301061550 METAR COR EGLL 061550Z 20006KT 160V260 7000 FEW003 BKN005
                        07/07 Q1031 NOSIG=
201301061520 METAR COR EGLL 061520Z 19007KT 160V250 4900 BR SCT003 BKN005
                        08/07 Q1031 TEMPO 6000 NSW=
201301061450 METAR EGLL 061450Z 19007KT 150V210 6000 FEW003 BKN006 07/07
                        Q1031=
201301061420 METAR COR EGLL 061420Z 21005KT 170V230 6000 BKN003 08/07
                        Q1032 BECMG SCT006 BKN010=
201301061350 METAR COR EGLL 061350Z 20006KT 5000 BR BKN003 08/07 Q1032
                        BECMG BKN006=
201301061320 METAR COR EGLL 061320Z 21006KT 6000 BKN003 08/07 Q1032 BECMG
                        BKN006=
201301061250 METAR COR EGLL 061250Z 22006KT 5000 BR FEW002 SCT003 BKN004
                        08/07 Q1032 BECMG BKN008=
201301061220 METAR COR EGLL 061220Z 22007KT 3000 -DZ BR FEW001 SCT002
                        BKN003 08/07 Q1032 BECMG 5000 BR
                        BKN005=
201301061150 METAR COR EGLL 061150Z 21006KT 170V260 1500 -DZ BR FEW001
                        SCT002 BKN003 07/07 Q1033 BECMG 6000
                        NSW BKN004=
201301061120 METAR COR EGLL 061120Z 21006KT 1500 R27L/1400 -DZ BR SCT001
                        BKN002 07/07 Q1033 TEMPO 1400=
201301061050 METAR EGLL 061050Z 20005KT 160V250 1400 R27R/P1500 R27L/1200
                        -DZ BR SCT001 BKN002 07/07 Q1033=
201301061020 METAR COR EGLL 061020Z 21006KT 180V250 1300 R27R/1400 R27L/1400
                        -DZ BR BKN001 07/07 Q1033 TEMPO 1600
                        SCT002 BKN003=
201301060950 METAR COR EGLL 060950Z 21004KT 190V260 1500 R27L/1200 -DZ
                        BR FEW001 SCT002 BKN003 07/07 Q1033
                        TEMPO 1400=
201301060920 METAR COR EGLL 060920Z 23004KT 180V260 1400 R27R/P1500 R27L/1300
                        BR FEW001 SCT002 BKN003 08/07 Q1033
                        BECMG 2500 BR SCT003 BKN006=
201301060850 METAR EGLL 060850Z 22004KT 160V280 1300 R27R/P1500 R27L/P1500
                        BR FEW001 SCT002 BKN003 08/07 Q1033
                        BECMG 1600 BR SCT003 BKN006=
201301060820 METAR COR EGLL 060820Z VRB03KT 1700 BR FEW001 SCT002 BKN003
                        07/07 Q1033 BECMG SCT003 BKN006=
201301060750 METAR COR EGLL 060750Z 21005KT 160V240 1700 BR FEW001 SCT002
                        BKN003 07/06 Q1033 BECMG SCT003 BKN006=
201301060720 METAR COR EGLL 060720Z 22005KT 1400 R27R/P1500 R27L/P1500
                        BR FEW001 BKN002 07/06 Q1033 BECMG
                        1600 SCT002 BKN005=
201301060650 METAR COR EGLL 060650Z 21004KT 170V250 1100 R27R/P1500 R27L/1200
                        BR SCT001 BKN002 07/06 Q1033 TEMPO
                        1500=
201301060620 METAR COR EGLL 060620Z 21004KT 150V270 0800 R27R/1100 R27L/1000
                        FG BKN001 06/06 Q1033 TEMPO 1500
                        BR BKN002=
201301060550 METAR COR EGLL 060550Z 22004KT 1100 R27R/1300 R27L/1200 BR
                        BKN001 06/06 Q1033 TEMPO 2000 BKN002=
201301060520 METAR COR EGLL 060520Z 24004KT 160V260 1100 R27L/P1500 BR
                        BKN001 06/06 Q1033 BECMG 3000 BKN002=
201301060450 METAR COR EGLL 060450Z 26005KT 1100 R27L/0750 BR BKN001 06/06
                        Q1033 BECMG 3000 BKN002=
201301060420 METAR COR EGLL 060420Z 27006KT 0250 R27L/0500 FG BKN000 06/06
                        Q1034 TEMPO 0500=
201301060350 METAR COR EGLL 060350Z 30005KT 270V330 0300 R27L/0600 FG
                        BKN001 06/06 Q1034 TEMPO 0500=
201301060320 METAR COR EGLL 060320Z 30004KT 4000 MIFG BR FEW002 05/04
                        Q1034 TEMPO 0500 FG BKN001=
201301060250 METAR COR EGLL 060250Z VRB03KT 8000 MIFG NSC 06/06 Q1033
                        TEMPO 4000=
201301060220 METAR EGLL 060220Z NIL=
201301060150 METAR EGLL 060150Z NIL=
201301060120 METAR EGLL 060120Z NIL=
201301060050 METAR COR EGLL 060050Z 23005KT 200V260 CAVOK 07/06 Q1033
                        NOSIG=
201301060020 METAR COR EGLL 060020Z 23005KT CAVOK 07/06 Q1034 NOSIG=
201301052350 METAR COR EGLL 052350Z 22006KT CAVOK 07/06 Q1034 NOSIG=
201301052320 METAR COR EGLL 052320Z 22004KT 200V260 CAVOK 07/06 Q1034
                        NOSIG=
201301052250 METAR COR EGLL 052250Z 22007KT 180V260 CAVOK 08/06 Q1034
                        NOSIG=
201301052220 METAR COR EGLL 052220Z 23008KT 190V260 CAVOK 08/07 Q1034
                        NOSIG=
201301052150 METAR COR EGLL 052150Z 23007KT CAVOK 09/07 Q1034 NOSIG=
201301052120 METAR COR EGLL 052120Z 24008KT CAVOK 09/07 Q1034 NOSIG=
201301052050 METAR COR EGLL 052050Z 24008KT CAVOK 10/07 Q1034 NOSIG=
201301052020 METAR COR EGLL 052020Z 26009KT 9999 FEW016 10/07 Q1034 NOSIG=
201301051950 METAR COR EGLL 051950Z 27009KT 9999 FEW015 BKN016 10/08 Q1034
                        NOSIG=
201301051920 METAR COR EGLL 051920Z 27010KT 9999 SCT014 SCT016 10/08 Q1034
                        NOSIG=
201301051850 METAR COR EGLL 051850Z 27010KT 9999 SCT014 BKN015 10/08 Q1034
                        TEMPO BKN013=
201301051820 METAR COR EGLL 051820Z 28010KT 9999 BKN014 10/08 Q1034 TEMPO
                        SCT014 BKN016=
201301051750 METAR COR EGLL 051750Z 27010KT 9999 BKN011 10/08 Q1034 NOSIG=
201301051720 METAR COR EGLL 051720Z 27012KT 9999 BKN010 10/08 Q1034 NOSIG=
201301051650 METAR COR EGLL 051650Z 27011KT 9999 BKN011 10/08 Q1034 NOSIG=
201301051620 METAR COR EGLL 051620Z 27010KT 9999 BKN011 10/08 Q1034 NOSIG=
201301051550 METAR COR EGLL 051550Z 26012KT 9999 BKN012 10/08 Q1034 NOSIG=
201301051520 METAR COR EGLL 051520Z 26010KT 9999 BKN013 11/08 Q1034 NOSIG=
201301051450 METAR COR EGLL 051450Z 27011KT 9999 BKN013 11/08 Q1034 TEMPO
                        BKN015=
201301051420 METAR COR EGLL 051420Z 26011KT 9999 BKN013 11/08 Q1034 TEMPO
                        BKN015=
201301051350 METAR COR EGLL 051350Z 26010KT 9999 BKN013 11/08 Q1035 TEMPO
                        BKN015=
201301051320 METAR COR EGLL 051320Z 25010KT 9999 BKN013 11/08 Q1035 TEMPO
                        BKN015=
201301051250 METAR COR EGLL 051250Z 25010KT 9999 BKN014 11/08 Q1035 TEMPO
                        BKN015=
201301051220 METAR COR EGLL 051220Z 25010KT 9999 BKN014 11/08 Q1035 TEMPO
                        BKN015=
201301051150 METAR COR EGLL 051150Z AUTO 25009KT 9999 BKN014/// 11/09
                        Q1036 TEMPO BKN015=
201301051120 METAR COR EGLL 051120Z 23007KT 9999 BKN014 10/09 Q1036 BECMG
                        BKN015=
201301051050 METAR COR EGLL 051050Z 22006KT 190V260 9999 BKN015 10/09
                        Q1036 TEMPO BKN014=
201301051020 METAR COR EGLL 051020Z 22006KT 9999 BKN015 10/09 Q1036 TEMPO
                        BKN013=
201301050950 METAR COR EGLL 050950Z 22007KT 200V260 9999 BKN015 09/09
                        Q1036 TEMPO BKN013=
201301050920 METAR COR EGLL 050920Z 22006KT 8000 BKN014 09/09 Q1036 BECMG
                        SCT014 BKN016=
201301050850 METAR COR EGLL 050850Z 22006KT 190V260 7000 BKN015 09/08
                        Q1036 TEMPO BKN012=
201301050820 METAR COR EGLL 050820Z 21005KT 180V260 5000 BR SCT007 BKN014
                        09/08 Q1036 NOSIG=
201301050750 METAR COR EGLL 050750Z 19005KT 160V300 3200 BR FEW004 BKN007
                        BKN012 09/08 Q1036 BECMG 6000 SCT008
                        BKN012=
201301050720 METAR COR EGLL 050720Z 20005KT 170V250 5000 BR FEW004 BKN009
                        08/08 Q1035 BECMG BKN012=
201301050650 METAR COR EGLL 050650Z 24005KT 190V260 5000 BR FEW004 BKN012
                        08/08 Q1035 NOSIG=
201301050620 METAR COR EGLL 050620Z 24006KT 4500 -DZ FEW004 SCT006 BKN011
                        08/08 Q1035 TEMPO 6000=
201301050550 METAR COR EGLL 050550Z 22004KT 190V280 3500 -DZ FEW003 SCT005
                        BKN012 08/08 Q1035 TEMPO 6000 BKN008=
201301050520 METAR COR EGLL 050520Z 23004KT 3900 -DZ FEW004 BKN005 08/07
                        Q1035 TEMPO 5000=
201301050450 METAR COR EGLL 050450Z 24004KT 4100 -DZ FEW004 BKN006 08/07
                        Q1035 TEMPO 6000=
201301050420 METAR COR EGLL 050420Z 25004KT 4800 -DZ FEW004 BKN006 08/07
                        Q1035 TEMPO 6000=
201301050350 METAR COR EGLL 050350Z 27005KT 5000 BR BKN006 08/07 Q1036
                        NOSIG=
201301050320 METAR COR EGLL 050320Z 27007KT 6000 BKN005 08/07 Q1036 NOSIG=
201301050250 METAR COR EGLL 050250Z 26009KT 7000 BKN005 08/07 Q1036 NOSIG=
201301050220 METAR EGLL 050220Z AUTO 26009KT 7000 OVC005/// 08/07 Q1036=
201301050150 METAR EGLL 050150Z AUTO 26010KT 9000 OVC005/// 08/07 Q1036=
201301050120 METAR EGLL 050120Z AUTO 26008KT 9000 BKN006/// 08/07 Q1036=
201301050050 METAR COR EGLL 050050Z 27008KT 9000 BKN006 08/07 Q1036 NOSIG=
201301050020 METAR COR EGLL 050020Z 27008KT 9000 BKN007 08/07 Q1036 NOSIG=
201301042350 METAR COR EGLL 042350Z 27007KT 9999 BKN007 08/07 Q1036 NOSIG=
201301042320 METAR COR EGLL 042320Z 27010KT 9000 BKN007 08/07 Q1036 NOSIG=
201301042250 METAR COR EGLL 042250Z 27012KT 8000 BKN007 08/07 Q1036 NOSIG=
201301042220 METAR COR EGLL 042220Z 27010KT 8000 BKN007 08/07 Q1037 NOSIG=
201301042150 METAR COR EGLL 042150Z 27012KT 8000 SCT007 BKN008 08/07 Q1037
                        NOSIG=
201301042120 METAR COR EGLL 042120Z 27011KT 8000 SCT007 BKN008 09/07 Q1037
                        NOSIG=
201301042050 METAR COR EGLL 042050Z 25012KT 8000 BKN006 09/07 Q1037 NOSIG=
201301042020 METAR COR EGLL 042020Z 28008KT 8000 FEW006 BKN007 09/08 Q1037
                        TEMPO FEW007 BKN010=
201301041950 METAR COR EGLL 041950Z 28008KT 9000 FEW006 BKN007 09/07 Q1037
                        TEMPO FEW007 BKN010=
201301041920 METAR COR EGLL 041920Z 27012KT 9999 BKN007 09/08 Q1037 NOSIG=
201301041850 METAR COR EGLL 041850Z 27008KT 240V310 9999 BKN007 09/08
                        Q1037 NOSIG=
201301041820 METAR COR EGLL 041820Z 27010KT 9999 BKN009 09/08 Q1037 TEMPO
                        BKN011=
201301041750 METAR COR EGLL 041750Z 27010KT 9999 BKN009 10/08 Q1037 TEMPO
                        BKN011=
201301041720 METAR COR EGLL 041720Z 27010KT 9999 BKN010 10/08 Q1037 BECMG
                        BKN009=
201301041650 METAR COR EGLL 041650Z 27011KT 9999 BKN011 10/08 Q1037 NOSIG=
201301041620 METAR COR EGLL 041620Z 27012KT 9999 BKN011 10/08 Q1037 NOSIG=
201301041550 METAR COR EGLL 041550Z 28011KT 9999 BKN012 10/08 Q1037 NOSIG=
201301041520 METAR COR EGLL 041520Z 28009KT 9999 BKN012 10/08 Q1037 NOSIG=
201301041450 METAR COR EGLL 041450Z 29010KT 9999 BKN013 10/08 Q1037 TEMPO
                        BKN015=
201301041420 METAR COR EGLL 041420Z 28012KT 9999 BKN013 10/08 Q1037 TEMPO
                        BKN015=
201301041350 METAR COR EGLL 041350Z 28011KT 9999 BKN013 10/07 Q1037 TEMPO
                        BKN016=
201301041320 METAR COR EGLL 041320Z 28009KT 9999 BKN014 10/07 Q1037 TEMPO
                        BKN016=
201301041250 METAR COR EGLL 041250Z 28011KT 9999 BKN014 10/07 Q1037 TEMPO
                        BKN016=
201301041220 METAR COR EGLL 041220Z 28013KT 9999 BKN014 10/07 Q1038 BECMG
                        BKN018=
201301041150 METAR COR EGLL 041150Z 27011KT 9999 BKN016 10/06 Q1038 NOSIG=
201301041120 METAR COR EGLL 041120Z 27012KT 9999 BKN018 10/06 Q1038 NOSIG=
201301041050 METAR COR EGLL 041050Z 27011KT 9999 BKN020 10/06 Q1038 NOSIG=
201301041020 METAR COR EGLL 041020Z 28009KT 9999 BKN022 10/06 Q1038 NOSIG=
201301040950 METAR COR EGLL 040950Z 27008KT 9999 BKN023 10/06 Q1038 NOSIG=
201301040920 METAR COR EGLL 040920Z 27008KT 9999 BKN022 09/06 Q1038 NOSIG=
201301040850 METAR COR EGLL 040850Z 27009KT 9999 BKN023 09/06 Q1038 NOSIG=
201301040820 METAR COR EGLL 040820Z 27009KT 9999 BKN022 09/06 Q1038 NOSIG=
201301040750 METAR COR EGLL 040750Z 27009KT 9999 BKN021 09/06 Q1038 NOSIG=
201301040720 METAR COR EGLL 040720Z 28009KT 9999 BKN021 09/06 Q1037 NOSIG=
201301040650 METAR COR EGLL 040650Z 27012KT 9999 BKN019 10/06 Q1037 NOSIG=
201301040620 METAR COR EGLL 040620Z 27010KT 9999 BKN019 09/06 Q1037 NOSIG=
201301040550 METAR COR EGLL 040550Z 27013KT 9999 BKN017 10/07 Q1037 NOSIG=
201301040520 METAR COR EGLL 040520Z 26011KT 9999 BKN018 10/07 Q1037 NOSIG=
201301040450 METAR EGLL 040450Z 26010KT 9999 BKN017 10/07 Q1037=
201301040420 METAR COR EGLL 040420Z 27008KT 9999 BKN016 09/07 Q1037 TEMPO
                        BKN014=
201301040350 METAR COR EGLL 040350Z 26011KT 9999 BKN015 10/07 Q1037 TEMPO
                        BKN014=
201301040320 METAR COR EGLL 040320Z 27006KT 9999 BKN015 10/07 Q1037 TEMPO
                        BKN014=
201301040250 METAR COR EGLL 040250Z 27010KT 9999 BKN014 10/07 Q1037 NOSIG=
201301040220 METAR EGLL 040220Z AUTO 27009KT 9999 OVC014/// 10/07 Q1037=
201301040150 METAR EGLL 040150Z AUTO 27009KT 9999 OVC014/// 10/07 Q1037=
201301040120 METAR EGLL 040120Z AUTO 26009KT 9999 OVC013/// 10/08 Q1037=
201301040050 METAR EGLL 040050Z 27009KT 9999 BKN013 10/08 Q1037=
201301040020 METAR COR EGLL 040020Z 27008KT 9999 BKN013 10/08 Q1037 NOSIG=
201301032350 METAR COR EGLL 032350Z 27011KT 9999 BKN012 10/08 Q1037 NOSIG=
201301032320 METAR COR EGLL 032320Z 26013KT 9999 BKN012 11/08 Q1037 NOSIG=
201301032250 METAR COR EGLL 032250Z 26012KT 9999 BKN011 11/09 Q1037 TEMPO
                        BKN009=
201301032220 METAR COR EGLL 032220Z 27012KT 9999 BKN010 11/09 Q1037 TEMPO
                        BKN009=
201301032150 METAR COR EGLL 032150Z 27013KT 9999 BKN012 11/09 Q1037 TEMPO
                        BKN009=
201301032120 METAR COR EGLL 032120Z 27013KT 9999 BKN012 11/09 Q1036 NOSIG=
201301032050 METAR COR EGLL 032050Z 27013KT 9999 BKN011 11/09 Q1036 NOSIG=
201301032020 METAR COR EGLL 032020Z 26012KT 9999 BKN012 11/09 Q1036 NOSIG=
201301031950 METAR COR EGLL 031950Z 26011KT 9999 BKN012 11/09 Q1036 NOSIG=
201301031920 METAR COR EGLL 031920Z 26012KT 9999 BKN012 11/09 Q1036 NOSIG=
201301031850 METAR COR EGLL 031850Z 26010KT 9999 BKN012 11/09 Q1036 NOSIG=
201301031820 METAR COR EGLL 031820Z 26010KT 9999 BKN012 11/09 Q1036 TEMPO
                        BKN008=
201301031750 METAR COR EGLL 031750Z 26010KT 9999 BKN011 11/09 Q1036 TEMPO
                        BKN008=
201301031720 METAR COR EGLL 031720Z 26009KT 9999 BKN010 11/09 Q1035 TEMPO
                        BKN008=
201301031650 METAR COR EGLL 031650Z 25010KT 9999 BKN012 11/09 Q1035 NOSIG=
201301031620 METAR EGLL 031620Z 25011KT 9999 BKN012 11/09 Q1035=
201301031550 METAR COR EGLL 031550Z 26009KT 9999 BKN013 11/09 Q1035 NOSIG=
201301031520 METAR COR EGLL 031520Z 27011KT 9999 BKN013 12/09 Q1034 NOSIG=
201301031450 METAR COR EGLL 031450Z 27010KT 9999 BKN013 11/09 Q1034 NOSIG=
201301031420 METAR COR EGLL 031420Z 28009KT 9999 BKN011 11/09 Q1034 TEMPO
                        BKN008=
201301031350 METAR COR EGLL 031350Z 28011KT 9999 FEW009 BKN011 11/09 Q1034
                        TEMPO BKN008=
201301031320 METAR COR EGLL 031320Z 26011KT 9999 FEW008 BKN009 11/09 Q1034
                        TEMPO BKN012=
201301031250 METAR COR EGLL 031250Z 26011KT 9999 SCT009 BKN011 11/09 Q1034
                        TEMPO BKN009=
201301031220 METAR COR EGLL 031220Z 27010KT 9999 BKN010 11/09 Q1034 TEMPO
                        BKN008=
201301031150 METAR COR EGLL 031150Z 27008KT 9999 BKN010 11/09 Q1034 TEMPO
                        BKN008=
201301031120 METAR COR EGLL 031120Z 26010KT 9999 SCT009 BKN010 11/09 Q1033
                        TEMPO BKN008=
201301031050 METAR COR EGLL 031050Z 26010KT 230V290 9999 FEW008 BKN009
                        11/09 Q1033 TEMPO BKN012=
201301031020 METAR COR EGLL 031020Z 26011KT 9999 FEW009 BKN010 10/09 Q1033
                        TEMPO BKN008=
201301030950 METAR COR EGLL 030950Z 26011KT 9999 FEW008 BKN009 11/09 Q1033
                        BECMG BKN012=
201301030920 METAR COR EGLL 030920Z 26011KT 9999 OVC009 10/09 Q1032 NOSIG=
201301030850 METAR COR EGLL 030850Z 26011KT 9999 SCT008 BKN009 10/09 Q1032
                        NOSIG=
201301030820 METAR COR EGLL 030820Z 26012KT 9999 SCT007 BKN008 BKN010
                        10/09 Q1032 NOSIG=
201301030750 METAR COR EGLL 030750Z 26011KT 9999 SCT006 BKN008 10/09 Q1031
                        NOSIG=
201301030720 METAR COR EGLL 030720Z 25012KT 9999 FEW005 BKN006 BKN008
                        10/09 Q1031 NOSIG=
201301030650 METAR COR EGLL 030650Z 25010KT 9999 FEW005 BKN006 BKN008
                        10/09 Q1030 NOSIG=
201301030620 METAR COR EGLL 030620Z 25010KT 9999 FEW005 BKN006 10/09 Q1030
                        NOSIG=
201301030550 METAR COR EGLL 030550Z 25010KT 9999 BKN006 10/09 Q1030 NOSIG=
201301030520 METAR COR EGLL 030520Z 27007KT 9999 SCT006 BKN007 09/09 Q1030
                        NOSIG=
201301030450 METAR COR EGLL 030450Z 27007KT 9000 BKN007 09/08 Q1029 NOSIG=
201301030420 METAR COR EGLL 030420Z 26005KT 9999 FEW007 09/08 Q1029 BECMG
                        BKN007=
201301030350 METAR COR EGLL 030350Z 26010KT 9999 BKN007 10/09 Q1029 TEMPO
                        BKN010=
201301030320 METAR COR EGLL 030320Z 27008KT 9999 BKN008 10/09 Q1029 TEMPO
                        BKN010=
201301030250 METAR COR EGLL 030250Z 25010KT 9999 FEW007 BKN008 11/09 Q1029
                        TEMPO BKN010=
201301030220 METAR EGLL 030220Z AUTO 25008KT 9999 OVC007/// 11/09 Q1028=
201301030150 METAR EGLL 030150Z AUTO 26007KT 9999 BKN008/// 11/09 Q1028=
201301030120 METAR EGLL 030120Z AUTO 25008KT 9999 BKN009/// 10/09 Q1028=
201301030050 METAR COR EGLL 030050Z 27009KT 9999 BKN009 10/09 Q1028 TEMPO
                        BKN011=
201301030020 METAR COR EGLL 030020Z 27010KT 9999 FEW008 BKN009 11/09 Q1027
                        TEMPO BKN011=
201301022350 METAR COR EGLL 022350Z 27012KT 9999 FEW008 BKN009 11/09 Q1027
                        TEMPO BKN010=
201301022320 METAR COR EGLL 022320Z 27009KT 9999 BKN009 11/09 Q1027 TEMPO
                        BKN010=
201301022250 METAR COR EGLL 022250Z 27010KT 9999 FEW009 BKN010 11/09 Q1026
                        TEMPO BKN009=
201301022220 METAR COR EGLL 022220Z 27013KT 9999 BKN009 11/09 Q1026 TEMPO
                        BKN010=
201301022150 METAR COR EGLL 022150Z 27012KT 9999 BKN010 11/09 Q1026 TEMPO
                        BKN009=
201301022120 METAR COR EGLL 022120Z 27015KT 9999 BKN009 11/09 Q1026 TEMPO
                        BKN011=
201301022050 METAR COR EGLL 022050Z 27012KT 9999 BKN008 11/09 Q1025 NOSIG=
201301022020 METAR COR EGLL 022020Z 25012KT 9999 BKN008 11/09 Q1025 NOSIG=
201301021950 METAR COR EGLL 021950Z 24010KT 9999 BKN008 11/09 Q1025 NOSIG=
201301021920 METAR COR EGLL 021920Z 25012KT 9999 BKN007 11/10 Q1025 NOSIG=
201301021850 METAR EGLL 021850Z 27012KT 9999 BKN006 10/09 Q1024=
201301021820 METAR COR EGLL 021820Z 26012KT 9999 BKN007 10/09 Q1024 NOSIG=
201301021750 METAR COR EGLL 021750Z 25012KT 9999 BKN007 10/09 Q1024 NOSIG=
201301021720 METAR COR EGLL 021720Z 25012KT 9999 BKN008 10/09 Q1024 NOSIG=
201301021650 METAR COR EGLL 021650Z 24012KT 9999 BKN009 10/08 Q1024 NOSIG=
201301021620 METAR COR EGLL 021620Z 24010KT 210V270 9999 BKN008 09/08
                        Q1024 TEMPO RADZ=
201301021550 METAR COR EGLL 021550Z 22008KT 9999 BKN008 08/07 Q1024 TEMPO
                        RADZ=
201301021520 METAR COR EGLL 021520Z 22007KT 9999 BKN009 08/07 Q1024 NOSIG=
201301021450 METAR COR EGLL 021450Z 22008KT 6000 -RADZ BKN010 08/07 Q1024
                        BECMG BKN008=
201301021420 METAR COR EGLL 021420Z 22010KT 200V260 9999 BKN010 08/07
                        Q1024 BECMG BKN008=
201301021350 METAR COR EGLL 021350Z 22009KT 9999 -RA BKN010 08/07 Q1024
                        BECMG BKN008=
201301021320 METAR EGLL 021320Z 21008KT 6000 RADZ BKN017 08/06 Q1024 BECMG
                        BKN010=
201301021250 METAR COR EGLL 021250Z 23009KT 9999 SCT023 BKN029 08/06 Q1024
                        BECMG BKN014=
201301021220 METAR COR EGLL 021220Z 22008KT 9999 SCT022 SCT025 08/05 Q1024
                        BECMG BKN014=
201301021150 METAR COR EGLL 021150Z 22007KT 9999 FEW037 BKN044 08/05 Q1024
                        BECMG BKN014=
201301021120 METAR COR EGLL 021120Z 21006KT 9999 FEW044 BKN049 07/04 Q1025
                        BECMG BKN014=
201301021050 METAR COR EGLL 021050Z 23006KT 190V260 9999 FEW047 07/04
                        Q1024 BECMG BKN014=
201301021020 METAR COR EGLL 021020Z 24009KT 9999 FEW048 07/04 Q1024 BECMG
                        BKN014=
201301020950 METAR COR EGLL 020950Z 24007KT 210V270 CAVOK 07/04 Q1024
                        BECMG BKN020=
201301020920 METAR COR EGLL 020920Z 26006KT CAVOK 06/04 Q1024 BECMG BKN020=
201301020850 METAR EGLL 020850Z 27008KT CAVOK 06/04 Q1024=
201301020820 METAR COR EGLL 020820Z 25008KT CAVOK 06/03 Q1023 NOSIG=
201301020750 METAR COR EGLL 020750Z 25008KT CAVOK 05/03 Q1023 NOSIG=
201301020720 METAR COR EGLL 020720Z 25008KT CAVOK 05/03 Q1023 NOSIG=
201301020650 METAR COR EGLL 020650Z 22004KT 190V270 CAVOK 04/03 Q1022
                        NOSIG=
201301020620 METAR COR EGLL 020620Z 25007KT CAVOK 04/03 Q1022 NOSIG=
201301020550 METAR COR EGLL 020550Z VRB03KT CAVOK 03/02 Q1022 NOSIG=
201301020520 METAR COR EGLL 020520Z VRB02KT CAVOK 02/01 Q1022 NOSIG=
201301020450 METAR COR EGLL 020450Z 18003KT CAVOK 03/01 Q1021 NOSIG=
201301020420 METAR COR EGLL 020420Z 19004KT CAVOK 03/01 Q1021 NOSIG=
201301020350 METAR COR EGLL 020350Z 20005KT CAVOK 03/02 Q1020 NOSIG=
201301020320 METAR COR EGLL 020320Z 20004KT CAVOK 03/02 Q1020 NOSIG=
201301020250 METAR EGLL 020250Z AUTO 20004KT 9999 NCD 03/01 Q1020=
201301020220 METAR EGLL 020220Z AUTO 19004KT 9999 NCD 03/01 Q1020=
201301020150 METAR EGLL 020150Z AUTO 25003KT 9999 NCD 03/01 Q1019=
201301020120 METAR EGLL 020120Z 22005KT CAVOK 03/02 Q1019=
201301020050 METAR COR EGLL 020050Z 25008KT CAVOK 04/02 Q1018 NOSIG=
201301020020 METAR COR EGLL 020020Z 25007KT CAVOK 04/02 Q1018 NOSIG=
201301012350 METAR COR EGLL 012350Z 27007KT CAVOK 04/02 Q1018 NOSIG=
201301012320 METAR COR EGLL 012320Z 27006KT CAVOK 04/01 Q1017 NOSIG=
201301012250 METAR COR EGLL 012250Z 26010KT CAVOK 04/02 Q1017 NOSIG=
201301012220 METAR COR EGLL 012220Z 26013KT CAVOK 05/02 Q1016 NOSIG=
201301012150 METAR COR EGLL 012150Z 27012KT 9999 FEW045 05/02 Q1016 NOSIG=
201301012120 METAR COR EGLL 012120Z 27012KT 9999 FEW044 05/02 Q1016 NOSIG=
201301012050 METAR COR EGLL 012050Z 26012KT 9999 FEW045 05/02 Q1015 NOSIG=
201301012020 METAR COR EGLL 012020Z 27011KT 9999 SCT045 05/02 Q1015 NOSIG=
201301011950 METAR COR EGLL 011950Z 27013KT 9999 BKN043 05/02 Q1014 NOSIG=
201301011920 METAR COR EGLL 011920Z 28011KT 9999 SCT043 05/02 Q1014 NOSIG=
201301011850 METAR EGLL 011850Z 27015KT 9999 FEW039 06/02 Q1013=
201301011820 METAR COR EGLL 011820Z 27012KT 9999 SCT041 05/02 Q1013 NOSIG=
201301011750 METAR COR EGLL 011750Z 24008KT 200V260 9999 FEW042 06/02
                        Q1012 NOSIG=
201301011720 METAR COR EGLL 011720Z 25010KT 9999 BKN042 06/02 Q1012 NOSIG=
201301011650 METAR COR EGLL 011650Z 26010KT 9999 SCT045 06/02 Q1012 NOSIG=
201301011620 METAR COR EGLL 011620Z 27009KT 9999 FEW038 06/02 Q1011 NOSIG=
201301011550 METAR COR EGLL 011550Z 27010KT 9999 SCT034 07/02 Q1011 NOSIG=
201301011520 METAR COR EGLL 011520Z 27011KT 9999 FEW032 07/02 Q1010 NOSIG=
201301011450 METAR COR EGLL 011450Z 27010KT 9999 SCT037 07/02 Q1010 NOSIG=
201301011420 METAR COR EGLL 011420Z 28013KT 9999 FEW032 07/02 Q1010 NOSIG=
201301011350 METAR COR EGLL 011350Z 28012KT 9999 FEW030 07/02 Q1009 NOSIG=
201301011320 METAR COR EGLL 011320Z 28015KT 9999 FEW025 08/02 Q1009 NOSIG=
201301011250 METAR COR EGLL 011250Z 28013KT 9999 FEW020 07/03 Q1009 NOSIG=
201301011220 METAR COR EGLL 011220Z 27012KT 9999 FEW020 07/03 Q1008 NOSIG=
201301011150 METAR COR EGLL 011150Z 27011KT 9999 FEW020 07/03 Q1008 NOSIG=
201301011120 METAR COR EGLL 011120Z 27012KT 9999 FEW020 06/03 Q1008 NOSIG=
201301011050 METAR COR EGLL 011050Z 27010KT 9999 FEW020 06/03 Q1008 NOSIG=
201301011020 METAR COR EGLL 011020Z 27011KT CAVOK 06/03 Q1008 NOSIG=
201301010950 METAR COR EGLL 010950Z 27008KT CAVOK 05/02 Q1007 NOSIG=
201301010920 METAR COR EGLL 010920Z 27007KT CAVOK 05/02 Q1006 NOSIG=
201301010850 METAR COR EGLL 010850Z 27006KT CAVOK 04/02 Q1006 NOSIG=
201301010820 METAR COR EGLL 010820Z 25008KT CAVOK 04/02 Q1005 NOSIG=
201301010750 METAR COR EGLL 010750Z 28009KT CAVOK 04/02 Q1005 NOSIG=
201301010720 METAR COR EGLL 010720Z 28009KT CAVOK 04/02 Q1004 NOSIG=
201301010650 METAR COR EGLL 010650Z 28009KT CAVOK 04/02 Q1004 NOSIG=
201301010620 METAR COR EGLL 010620Z 27009KT CAVOK 04/03 Q1003 NOSIG=
201301010550 METAR COR EGLL 010550Z 27008KT CAVOK 05/03 Q1003 NOSIG=
201301010520 METAR COR EGLL 010520Z 29009KT CAVOK 06/03 Q1003 NOSIG=
201301010450 METAR COR EGLL 010450Z 29008KT CAVOK 06/04 Q1002 NOSIG=
201301010420 METAR COR EGLL 010420Z 28010KT 9999 FEW036 06/04 Q1002 NOSIG=
201301010350 METAR COR EGLL 010350Z 29009KT 9999 FEW036 07/05 Q1001 NOSIG=
201301010320 METAR COR EGLL 010320Z 27007KT 9999 SCT040 07/05 Q1001 NOSIG=
201301010250 METAR COR EGLL 010250Z 29007KT 9999 BKN034 08/05 Q1001 NOSIG=
201301010220 METAR EGLL 010220Z AUTO 29010KT 7000 -RA FEW023/// SCT027///
                        08/07 Q1001 RERA=
201301010150 METAR EGLL 010150Z AUTO 28011KT 6000 -RA FEW013/// BKN030///
                        08/07 Q1000=
201301010120 METAR EGLL 010120Z AUTO 25009KT 8000 -RA FEW013/// BKN038///
                        09/07 Q1000=
201301010050 METAR COR EGLL 010050Z 25009KT 9999 -RA FEW014 BKN034 BKN048
                        09/07 Q0999 TEMPO BKN012=
201301010020 METAR COR EGLL 010020Z 24009KT 9999 SCT021 BKN048 09/07 Q0999
                        NOSIG=

# No short TAF reports from EGLL in databse.

###################################
#  large TAF from EGLL
###################################
201301152301 TAF EGLL 152301Z 1600/1706 04004KT 9999 FEW016
                      BECMG 1600/1603 6000
                      BECMG 1603/1606 3500 BR BKN006
                      PROB30 TEMPO 1605/1608 1400 BKN003
                      BECMG 1610/1613 6000 FEW016
                      PROB40 TEMPO 1610/1621 9999
                      BECMG 1622/1701 3000 BR
                      PROB30 TEMPO 1702/1706 0700 FZFG BKN001=
201301152300 TAF AMD EGLL 160240Z 1602/1706 04003KT 2000 BR SCT002
                      TEMPO 1603/1609 1200 BCFG BKN001
                      PROB40 TEMPO 1603/1609 0700 FZFG
                      BECMG 1608/1611 5000
                      PROB30 TEMPO 1611/1620 9999 NSW
                      BECMG 1622/1701 3000 BR
                      PROB30 TEMPO 1702/1706 0700 FZFG BKN001=
201301152223 TAF AMD EGLL 152223Z 1522/1624 VRB03KT 9999 SCT016
                      BECMG 1600/1603 6000
                      BECMG 1603/1606 4000 BR BKN006
                      PROB30 TEMPO 1605/1608 1400 BKN003
                      BECMG 1610/1613 FEW016
                      PROB40 TEMPO 1610/1621 9999=
201301151659 TAF EGLL 151659Z 1518/1624 36005KT 9999 SCT016
                      TEMPO 1518/1603 SCT008 BKN012
                      BECMG 1600/1603 07010KT
                      BECMG 1603/1606 6000 BKN011
                      PROB30 1604/1610 4000 BR BKN006
                      BECMG 1610/1613 FEW016
                      PROB40 1610/1624 9999=
201301151058 TAF EGLL 151058Z 1512/1618 36007KT 9999 BKN013
                      BECMG 1512/1515 SCT016
                      TEMPO 1522/1603 7000 SCT008 BKN012
                      BECMG 1603/1606 6000 BKN011
                      PROB30 1604/1610 4000 BR BKN006
                      BECMG 1610/1613 SCT016
                      PROB40 1610/1618 9999=
201301151031 TAF AMD EGLL 151031Z 1510/1612 36008KT 9999 BKN013
                      BECMG 1510/1513 SCT016
                      TEMPO 1600/1603 7000 SCT008 BKN012
                      BECMG 1603/1606 6000 BKN011
                      PROB30 1604/1610 4000 BR BKN006=
201301150459 TAF EGLL 150459Z 1506/1612 35010KT 9999 SCT015
                      TEMPO 1506/1510 BKN012
                      BECMG 1521/1524 05004KT 5000 BR
                      PROB30 1600/1610 0500 FZFG VV///
                      BECMG 1609/1612 9999 NSW=
201301142258 TAF EGLL 142258Z 1500/1606 30010KT 9999 SCT020
                      TEMPO 1500/1508 7000 BKN012
                      PROB40 TEMPO 1500/1504 3000 SHRASN BKN005
                       BECMG 1503/1506 36012KT
                      BECMG 1515/1518 30005KT
                      TEMPO 1521/1606 5000 BR BKN010
                      PROB30 1600/1606 0500 FZFG VV///=
201301141705 TAF EGLL 141705Z 1418/1524 28010KT 9999 SCT020
                      PROB30 TEMPO 1418/1421 7000 -SHRA BKN014
                       BECMG 1421/1424 BKN010
                      PROB40 TEMPO 1422/1504 3500 SHRASN BKN004
                       BECMG 1504/1506 36010KT SCT025
                      PROB30 TEMPO 1520/1524 7000 BKN008=
201301141059 TAF EGLL 141059Z 1412/1518 19006KT 9999 SCT009 BKN015
                      TEMPO 1412/1417 6000 RA BKN008
                      PROB30 TEMPO 1412/1417 3000 RASN BKN004
                      BECMG 1417/1420 29010KT
                      TEMPO 1422/1504 4000 -SHRASN BKN007
                      BECMG 1506/1508 36010KT=
201301140458 TAF EGLL 140458Z 1406/1512 19005KT 9999 BKN020
                      TEMPO 1406/1409 3000 -SN BKN008
                      PROB30 TEMPO 1406/1408 BKN004
                      TEMPO 1412/1419 5000 -RA BKN010
                      PROB30 TEMPO 1412/1418 3000 RASN BKN004
                      BECMG 1415/1418 28010KT
                      PROB30 TEMPO 1422/1507 3500 -SHRASN BKN010
                       BECMG 1500/1503 35010KT=
201301140422 TAF EGLL 140422Z 1404/1506 VRB03KT 9999 BKN040
                      BECMG 1404/1407 7000 BKN012
                      TEMPO 1404/1409 3500 -SN BKN006
                      PROB30 TEMPO 1405/1408 BKN004
                      TEMPO 1412/1419 5000 -RA BKN007
                      PROB30 TEMPO 1412/1419 4000 RASN BKN004
                      BECMG 1416/1419 29010KT 9999 SCT020
                      PROB30 TEMPO 1422/1506 3500 -SHRASN BKN008
                       BECMG 1500/1503 01010KT=
201301132309 TAF EGLL 132309Z 1400/1506 VRB03KT 9999 SCT020
                      BECMG 1401/1404 7000 BKN010
                      TEMPO 1403/1409 3500 -SN BKN006
                      PROB30 TEMPO 1405/1408 BKN004
                      TEMPO 1412/1419 5000 -RA BKN007
                      PROB30 TEMPO 1412/1419 4000 RASN
                      BECMG 1416/1419 29010KT 9999 SCT020
                      PROB30 TEMPO 1422/1506 3500 -SHRASN BKN008
                       BECMG 1500/1503 01010KT=
201301132300 TAF AMD EGLL 140422Z 1404/1506 VRB03KT 9999 BKN040
                      BECMG 1404/1407 7000 BKN012
                      TEMPO 1404/1409 3500 -SN BKN006
                      PROB30 TEMPO 1405/1408 BKN004
                      TEMPO 1412/1419 5000 -RA BKN007
                      PROB30 TEMPO 1412/1419 4000 RASN BKN004
                      BECMG 1416/1419 29010KT 9999 SCT020
                      PROB30 TEMPO 1422/1506 3500 -SHRASN BKN008
                       BECMG 1500/1503 01010KT=
201301131658 TAF EGLL 131658Z 1318/1424 33005KT 9999 SCT020
                      PROB30 TEMPO 1318/1324 7000
                      BECMG 1400/1403 7000 BKN010
                      TEMPO 1403/1409 3500 -SN BKN006
                      PROB30 TEMPO 1405/1408 BKN004
                      TEMPO 1412/1419 4500 RA BKN007
                      BECMG 1416/1419 9999 SCT012 BKN018
                      PROB30 TEMPO 1422/1424 3500 -SHRASN BKN008=
201301131105 TAF EGLL 131105Z 1312/1418 02007KT 9999 SCT030
                      PROB30 TEMPO 1318/1403 7000
                      BECMG 1322/1401 BKN010
                      TEMPO 1403/1409 3000 -SN BKN006
                      PROB30 TEMPO 1405/1408 BKN003
                      PROB30 TEMPO 1412/1414 3500 -RASN BKN004
                       TEMPO 1413/1418 6000 RA BKN007=
201301130506 TAF EGLL 130506Z 1306/1412 04010KT 9999 FEW020
                      BECMG 1315/1318 VRB02KT
                      PROB30 TEMPO 1402/1404 4000 -SN
                      TEMPO 1404/1409 2000 -SN BKN008
                      BECMG 1409/1412 BKN006=
201301122258 TAF EGLL 122258Z 1300/1406 05010KT 9999 FEW012 BKN025
                      PROB30 TEMPO 1300/1302 8000 BKN012
                      BECMG 1302/1305 CAVOK
                      BECMG 1315/1318 VRB02KT
                      BECMG 1401/1404 BKN015
                      PROB30 TEMPO 1402/1404 4000 -SN
                      TEMPO 1404/1406 2000 -SN BKN008=
201301121658 TAF EGLL 121658Z 1218/1324 09010KT 9999 SCT045
                      PROB30 TEMPO 1218/1224 4000 -RASN BKN012
                       BECMG 1303/1306 03008KT=
201301121058 TAF EGLL 121058Z 1212/1318 09012KT 9999 BKN030
                      PROB30 TEMPO 1212/1224 4000 RA -RASN BKN008
                       BECMG 1303/1306 03006KT FEW020=
201301120459 TAF EGLL 120459Z 1206/1312 08012KT 9999 FEW010
                      TEMPO 1206/1218 7000 -RA BKN010
                      PROB30 TEMPO 1206/1212 4000 RA RASN BKN008
                       PROB30
                      TEMPO 1218/1224 4000 -SN BKN008=
201301112257 TAF EGLL 112257Z 1200/1306 09010KT 6000 FEW010
                      PROB30 TEMPO 1200/1204 4000 BR
                      BECMG 1204/1207 9999
                      TEMPO 1204/1218 7000 -RA BKN010
                      PROB30 TEMPO 1205/1212 4000 RASN BKN008
                      PROB30 TEMPO 1218/1224 4000 -SN BKN008=
201301111704 TAF EGLL 111704Z 1118/1224 VRB04KT 9999 FEW010
                      PROB40 TEMPO 1118/1204 5000 BR BKN012
                      BECMG 1203/1206 11012KT
                      PROB30 TEMPO 1204/1206 6000 RA BKN008
                      PROB40 TEMPO 1206/1214 4000 -RASN BKN008
                       PROB30
                      TEMPO 1218/1224 4000 -SN BKN010=
201301111102 TAF EGLL 111102Z 1112/1218 VRB04KT 6000 FEW010
                      PROB40 TEMPO 1112/1203 9999 BKN012
                      BECMG 1203/1206 09010KT 9999
                      PROB40 TEMPO 1209/1218 7000 -RASN=
201301110502 TAF EGLL 110502Z 1106/1212 VRB04KT 4000 BR SCT030
                      PROB30 1106/1108 6000 NSW BKN009
                      BECMG 1108/1111 6000 NSW
                      TEMPO 1111/1118 9999
                      PROB40 1118/1206 3000 BR BKN008
                      BECMG 1206/1209 09010KT 9999
                      PROB30 1210/1212 7000 -RASN=
201301102301 TAF EGLL 102301Z 1100/1206 31005KT 6000 SCT008
                      TEMPO 1100/1109 4000 BR BKN008
                      PROB30 1100/1109 0500 FG VV///
                      TEMPO 1109/1119 9999
                      PROB40 1119/1206 3000 BR BKN010
                      BECMG 1121/1124 10010KT=
201301101924 TAF AMD EGLL 101924Z 1019/1124 33004KT 8000 BKN014
                      TEMPO 1019/1112 BKN006
                      BECMG 1020/1023 4000 BR
                      PROB30 TEMPO 1021/1109 0500 FG=
201301101704 TAF EGLL 101704Z 1018/1124 33004KT 8000 BKN008
                      BECMG 1018/1021 4000 BR
                      TEMPO 1020/1112 BKN004
                      PROB30 TEMPO 1021/1109 0500 FG FZFG BKN000
                       BECMG 1108/1111 6000 NSW
                      PROB30 TEMPO 1111/1117 BKN010
                      BECMG 1117/1120 4000 BR
                      PROB30 TEMPO 1119/1124 0500 FG FZFG BKN000=
201301101106 TAF EGLL 101106Z 1012/1118 34004KT 6000 BKN007
                      PROB30 TEMPO 1012/1016 SCT010
                      BECMG 1016/1019 3000 BR
                      TEMPO 1017/1112 BKN003
                      PROB30 TEMPO 1020/1109 0500 FG FZFG BKN000
                       BECMG 1111/1114 5000 HZ
                      PROB30 TEMPO 1113/1116 BKN010=
201301100845 TAF AMD EGLL 100845Z 1008/1112 VRB03KT 9999 FEW008
                      TEMPO 1008/1013 6000 BKN006
                      PROB30 TEMPO 1008/1011 3000 HZ BKN003
                      PROB30 1022/1110 3000 BR BKN005
                      TEMPO 1110/1112 BKN012=
201301100607 TAF AMD EGLL 100607Z 1006/1112 VRB03KT 9999 SCT020
                      TEMPO 1006/1012 6000
                      PROB40 TEMPO 1006/1009 0300 FG VV///
                      PROB30 1009/1012 4000 BR BKN009
                      PROB30 1022/1110 3000 BR BKN005
                      TEMPO 1110/1112 BKN012=
201301100506 TAF EGLL 100506Z 1006/1112 VRB03KT 8000 FEW004 SCT025
                      PROB40 TEMPO 1006/1009 0300 FG VV///
                      PROB30 1009/1012 4000 BR BKN009
                      PROB30 1022/1110 3000 BR BKN005
                      TEMPO 1110/1112 BKN012=
201301100428 TAF EGLL 100428Z 1004/1106 VRB03KT 6000 FEW003 SCT010
                      PROB40 TEMPO 1004/1009 0300 FG VV///
                      BECMG 1007/1010 BKN007
                      PROB30 1009/1012 3000 BR
                      BECMG 1012/1015 7000 NSW SCT040
                      PROB40 1020/1106 3000 BR=
201301092305 TAF EGLL 092305Z 1000/1106 VRB03KT 9999 SCT015
                      BECMG 1000/1003 4000 BR
                      PROB40 1000/1008 0300 FG VV///
                      BECMG 1007/1010 BKN007
                      BECMG 1012/1015 7000 NSW SCT040
                      PROB40 1020/1106 3000 BR=
201301092300 TAF AMD EGLL 100428Z 1004/1106 VRB03KT 6000 FEW003 SCT010
                      PROB40 TEMPO 1004/1009 0300 FG VV///
                      BECMG 1007/1010 BKN007
                      PROB30 1009/1012 3000 BR
                      BECMG 1012/1015 7000 NSW SCT040
                      PROB40 1020/1106 3000 BR=
201301092131 TAF AMD EGLL 092131Z 0921/1024 VRB02KT CAVOK
                      BECMG 0921/0924 7000
                      PROB30 0922/1001 0400 FG VV///
                      PROB40 1001/1010 0200 FG VV///
                      PROB30 TEMPO 1010/1012 0600 BCFG BKN001
                      PROB40 TEMPO 1012/1014 3000 BR BKN004
                      PROB40 1016/1024 3000 HZ=
201301091703 TAF EGLL 091703Z 0918/1024 VRB02KT CAVOK
                      BECMG 0918/0921 7000
                      PROB30 0922/1001 0400 FG VV///
                      PROB40 1001/1010 0200 FG VV///
                      PROB30 TEMPO 1010/1012 0600 BCFG BKN001
                      PROB40 TEMPO 1012/1014 3000 BR BKN004
                      PROB40 1016/1024 3000 HZ=
201301091109 TAF EGLL 091109Z 0912/1018 02004KT 9999 FEW018
                      BECMG 0917/0920 6000
                      PROB30 0921/1008 0400 FG VV///
                      PROB40 1008/1012 3000 BR BKN006
                      PROB30 TEMPO 1012/1016 9999
                      PROB40 1016/1018 3000 HZ=
201301090603 TAF AMD EGLL 090603Z 0906/1012 02005KT 8000 SCT003 BKN006
                      BECMG 0906/0909 9999 SCT006 BKN011
                      PROB30 0909/0920 8000 SCT015
                      PROB30 1000/1012 3000 BR=
201301090459 TAF EGLL 090459Z 0906/1012 02005KT 3000 -RADZ BR SCT002 BKN003
                       BECMG 0906/0909 6000 NSW SCT003 BKN006
                      BECMG 0909/0912 SCT006 BKN011
                      PROB30 0912/0920 9999 SCT015
                      PROB30 1000/1012 3000 BR=
201301082259 TAF EGLL 082259Z 0900/1006 22010KT 5000 -RADZ SCT003 BKN005
                      TEMPO 0900/0909 3000 BR
                      PROB30 TEMPO 0900/0907 1400 RADZ BR FEW002
                       BKN003
                      BECMG 0903/0906 01006KT
                      TEMPO 0907/0910 NSW SCT008 BKN012
                      BECMG 0910/0913 9999 NSW SCT015
                      TEMPO 0918/1006 5000 BR BKN012=
201301082129 TAF AMD EGLL 082129Z 0821/0924 22010KT 7000 SCT005 BKN008
                      TEMPO 0821/0911 4000 RADZ BR BKN003
                      BECMG 0901/0904 01006KT
                      BECMG 0912/0915 9999 NSW SCT015
                      TEMPO 0918/0924 BKN012=
201301081704 TAF EGLL 081704Z 0818/0924 22010KT 9999 BKN015
                      BECMG 0818/0820 7000 -RA BKN012
                      PROB40 0818/0820 BKN007
                      BECMG 0820/0823 BKN007
                      PROB40 0901/0911 3000 RADZ BR BKN003
                      BECMG 0907/0910 01006KT
                      BECMG 0912/0915 9999 NSW SCT015
                      TEMPO 0918/0924 BKN012=
201301081102 TAF EGLL 081102Z 0812/0918 22010KT 9999 BKN012
                      PROB30 TEMPO 0812/0817 BKN015
                      BECMG 0817/0820 7000 -RA
                      BECMG 0820/0823 BKN007
                      PROB40 0900/0910 3000 RADZ BR BKN004
                      BECMG 0906/0909 03006KT
                      BECMG 0912/0915 9999 NSW SCT015=
201301080824 TAF AMD EGLL 080824Z 0808/0912 22011KT 9999 SCT018 BKN025
                      TEMPO 0808/0817 SCT009 BKN014
                      PROB30 TEMPO 0808/0817 8000
                      BECMG 0817/0820 6000 -RA SCT007 BKN012
                      BECMG 0820/0823 BKN008
                      PROB40 0902/0911 3000 RADZ BR SCT002 BKN004
                       BECMG 0903/0906 VRB03KT
                      BECMG 0908/0911 02010KT BKN012=
201301080503 TAF EGLL 080503Z 0806/0912 22011KT 9999 SCT018 BKN025
                      PROB30 TEMPO 0809/0817 8000 SCT009 BKN014
                       BECMG 0817/0820 6000 -RA SCT007 BKN012
                      BECMG 0820/0823 BKN008
                      PROB40 0902/0911 3000 RADZ BR SCT002 BKN004
                       BECMG 0903/0906 VRB03KT
                      BECMG 0908/0911 02010KT BKN012=
201301072302 TAF EGLL 072302Z 0800/0906 21009KT 9999 FEW010 BKN025
                      PROB40 TEMPO 0805/0816 8000 SCT009 BKN014
                       BECMG 0817/0819 6000 -RA SCT007 BKN012
                      TEMPO 0818/0906 BKN008
                      PROB40 0821/0905 4000 RADZ BR
                      BECMG 0900/0903 03010KT=
201301071700 TAF EGLL 071700Z 0718/0824 20009KT 9999 SCT010 BKN025
                      TEMPO 0718/0805 BKN008
                      PROB30 0721/0809 8000
                      BECMG 0809/0812 BKN010
                      TEMPO 0815/0824 7000 -RA BKN008
                      PROB30 0821/0824 4000 RADZ BR=
201301071326 TAF AMD EGLL 071326Z 0713/0818 20008KT 9999 FEW008 BKN020
                      TEMPO 0713/0806 BKN008
                      PROB40 0722/0809 9000
                      BECMG 0809/0812 BKN010
                      PROB40 0815/0818 8000 -RA BKN008=
201301071100 TAF EGLL 071100Z 0712/0818 20008KT 9999 FEW008 BKN020
                      TEMPO 0712/0806 BKN012
                      PROB40 0722/0809 9000
                      BECMG 0809/0812 BKN010
                      PROB40 0815/0818 8000 -RA BKN008=
201301070459 TAF EGLL 070459Z 0706/0812 21008KT 9999 SCT010 BKN016
                      PROB30 TEMPO 0706/0711 9000 BKN008
                      PROB30 TEMPO 0711/0716 BKN012
                      TEMPO 0716/0810 8000 BKN009=
201301070434 TAF AMD EGLL 070434Z 0704/0806 21007KT 9999 SCT008 BKN016
                      TEMPO 0704/0710 8000 BKN007
                      PROB40 TEMPO 0710/0716 BKN012
                      TEMPO 0716/0806 9000 BKN008=
201301062300 TAF AMD EGLL 070434Z 0704/0806 21007KT 9999 SCT008 BKN016
                      TEMPO 0704/0710 8000 BKN007
                      PROB40 TEMPO 0710/0716 BKN012
                      TEMPO 0716/0806 9000 BKN008=
201301062258 TAF EGLL 062258Z 0700/0806 21006KT 9999 SCT008 BKN012
                      TEMPO 0700/0710 8000 SCT005 BKN009
                      PROB40 TEMPO 0711/0716 SCT010 BKN016
                      TEMPO 0716/0806 9000 BKN008=
201301061701 TAF EGLL 061701Z 0618/0724 19006KT 8000 SCT006 BKN012
                      TEMPO 0618/0721 4000 -DZ SCT005 BKN007
                      PROB40 0618/0724 9999 BKN016=
201301061533 TAF AMD EGLL 061533Z 0615/0718 18004KT 6000 SCT002 BKN006
                      TEMPO 0615/0706 4000 -DZ BKN004
                      PROB30 0706/0718 9999
                      BECMG 0708/0711 SCT008 BKN016=
201301061324 TAF AMD EGLL 061324Z 0613/0718 20004KT 6000 SCT002 BKN004
                      BECMG 0613/0615 SCT006 BKN010
                      PROB40 TEMPO 0614/0706 9999
                      TEMPO 0616/0718 BKN008
                      BECMG 0706/0709 9999=
201301061108 TAF EGLL 061108Z 0612/0718 20004KT 2500 -DZ BR SCT002 BKN006
                      TEMPO 0612/0614 BKN004
                      BECMG 0614/0616 6000 NSW BKN010
                      PROB40 TEMPO 0616/0706 9999
                      TEMPO 0617/0718 BKN008
                      BECMG 0706/0709 9999=
201301061037 TAF AMD EGLL 061037Z 0610/0712 20004KT 1400 -DZ BR BKN001
                      TEMPO 0610/0611 2500 SCT003 BKN006
                      BECMG 0612/0615 6000 NSW BKN010
                      PROB30 TEMPO 0613/0617 FEW010 BKN015
                      PROB40 TEMPO 0617/0712 6000 -DZ BKN008=
201301060912 TAF AMD EGLL 060912Z 0609/0712 20004KT 2500 -DZ BR SCT003 BKN006
                       TEMPO 0609/0611 1400 SCT002 BKN003
                      BECMG 0610/0614 6000 NSW BKN010
                      PROB30 TEMPO 0613/0617 FEW010 BKN015
                      PROB40 TEMPO 0617/0712 6000 -DZ BKN008=
201301060555 TAF AMD EGLL 060555Z 0606/0712 20004KT 6000 BKN006
                      PROB40 TEMPO 0606/0608 0800 BCFG BKN001
                      PROB40 TEMPO 0608/0611 2500 -DZ BR BKN002
                       BECMG 0611/0614 9999 BKN010
                      PROB30 TEMPO 0613/0617 FEW010 BKN015
                      PROB40 TEMPO 0617/0712 6000 -DZ BKN008=
201301060504 TAF EGLL 060504Z 0606/0712 20004KT 6000 BKN006
                      PROB40 TEMPO 0606/0611 2500 -DZ BR BKN003
                       BECMG 0611/0614 9999 BKN010
                      PROB30 TEMPO 0613/0617 FEW010 BKN015
                      PROB40 TEMPO 0617/0712 6000 -DZ BKN008=
201301060329 TAF AMD EGLL 060329Z 0603/0706 20004KT 7000 NSC
                      PROB40 0603/0605 0400 FG BKN000
                      BECMG 0604/0606 BKN006
                      PROB40 TEMPO 0605/0610 3000 -DZ BKN003
                      BECMG 0610/0613 9999 BKN010
                      PROB30 TEMPO 0613/0617 FEW010 BKN015
                      PROB40 TEMPO 0617/0706 5000 -DZ BKN008=
201301052301 TAF EGLL 052301Z 0600/0706 20004KT CAVOK
                      TEMPO 0600/0602 7000
                      PROB30 0601/0604 1500 BR BKN001
                      BECMG 0602/0605 6000 BKN006
                      PROB40 TEMPO 0604/0610 3000 -DZ BKN003
                      BECMG 0610/0613 9999 BKN010
                      PROB30 TEMPO 0613/0617 FEW010 BKN015
                      PROB40 TEMPO 0617/0706 5000 -DZ BKN008=
201301052300 TAF AMD EGLL 060329Z 0603/0706 20004KT 7000 NSC
                      PROB40 0603/0605 0400 FG BKN000
                      BECMG 0604/0606 BKN006
                      PROB40 TEMPO 0605/0610 3000 -DZ BKN003
                      BECMG 0610/0613 9999 BKN010
                      PROB30 TEMPO 0613/0617 FEW010 BKN015
                      PROB40 TEMPO 0617/0706 5000 -DZ BKN008=
201301052041 TAF AMD EGLL 052041Z 0520/0624 24006KT 9999 FEW012
                      TEMPO 0522/0601 7000
                      PROB30 TEMPO 0523/0603 1200 BR BKN001
                      BECMG 0601/0604 4000 BR -DZ BKN005
                      BECMG 0608/0611 9999 NSW BKN012
                      TEMPO 0611/0617 BKN016
                      PROB30 0620/0624 6000 BKN009=
201301051706 TAF EGLL 051706Z 0518/0624 24006KT 9999 BKN012
                      PROB30 TEMPO 0518/0522 SCT013
                      BECMG 0518/0520 7000
                      PROB40 0522/0601 4000 BR NSC
                      PROB30 TEMPO 0523/0603 1200 MIFG BKN001
                      BECMG 0600/0603 4000 BR -DZ BKN005
                      BECMG 0608/0611 9999 NSW BKN012
                      TEMPO 0611/0617 BKN016
                      PROB30 0620/0624 6000 BKN009=
201301051056 TAF EGLL 051056Z 0512/0618 26007KT 9999 BKN016
                      TEMPO 0512/0517 BKN013
                      BECMG 0516/0519 7000
                      PROB30 0519/0524 4000 BR NSC
                      PROB30 TEMPO 0523/0603 0800 BCFG BKN001
                      BECMG 0600/0603 4000 BR -DZ BKN005
                      BECMG 0608/0611 9999 NSW BKN012
                      TEMPO 0611/0617 BKN016=
201301051046 TAF AMD EGLL 051046Z 0510/0612 25007KT 9999 BKN010
                      TEMPO 0510/0518 FEW012 BKN015
                      TEMPO 0518/0602 7000 NSC
                      PROB30 TEMPO 0522/0602 0600 BCFG BKN000
                      BECMG 0601/0604 7000 BKN006
                      PROB40 TEMPO 0603/0609 3500 -DZ BKN003
                      BECMG 0609/0612 9999 FEW012=
201301050636 TAF AMD EGLL 050636Z 0506/0612 25007KT 9000 BKN010
                      PROB30 TEMPO 0506/0508 4000 -DZ BKN009
                      BECMG 0508/0511 9999
                      TEMPO 0511/0518 FEW012 BKN015
                      TEMPO 0518/0602 7000 NSC
                      PROB30 TEMPO 0522/0602 0600 BCFG BKN000
                      BECMG 0601/0604 7000 BKN006
                      PROB40 TEMPO 0603/0609 3500 -DZ BKN003
                      BECMG 0609/0612 9999 FEW012=
201301050505 TAF EGLL 050505Z 0506/0612 25007KT 9000 BKN008
                      PROB30 TEMPO 0506/0508 4000 -DZ
                      BECMG 0508/0511 9999 BKN012
                      TEMPO 0511/0518 FEW012 BKN015
                      TEMPO 0518/0602 7000 NSC
                      PROB30 TEMPO 0522/0602 0600 BCFG BKN000
                      BECMG 0601/0604 7000 BKN006
                      PROB40 TEMPO 0603/0609 3500 -DZ BKN003
                      BECMG 0609/0612 9999 FEW012=
201301050424 TAF EGLL 050424Z 0504/0606 25007KT 9999 BKN008
                      TEMPO 0504/0508 4000 -DZ
                      BECMG 0507/0510 BKN012
                      PROB30 TEMPO 0508/0510 6000
                      TEMPO 0509/0517 BKN015
                      TEMPO 0517/0602 7000 NSC
                      PROB30 TEMPO 0522/0602 0500 FG BKN000
                      BECMG 0601/0604 6000 BKN006
                      TEMPO 0603/0606 3000 -DZ BKN003=
201301042305 TAF EGLL 042305Z 0500/0606 25007KT 9999 BKN008
                      TEMPO 0500/0510 6000
                      BECMG 0507/0510 BKN012
                      TEMPO 0509/0517 BKN015
                      TEMPO 0517/0602 7000 NSC
                      PROB30 TEMPO 0522/0602 0500 FG BKN000
                      BECMG 0601/0604 6000 BKN006
                      TEMPO 0603/0606 3000 -DZ BKN003=
201301042300 TAF AMD EGLL 050424Z 0504/0606 25007KT 9999 BKN008
                      TEMPO 0504/0508 4000 -DZ
                      BECMG 0507/0510 BKN012
                      PROB30 TEMPO 0508/0510 6000
                      TEMPO 0509/0517 BKN015
                      TEMPO 0517/0602 7000 NSC
                      PROB30 TEMPO 0522/0602 0500 FG BKN000
                      BECMG 0601/0604 6000 BKN006
                      TEMPO 0603/0606 3000 -DZ BKN003=
201301041657 TAF EGLL 041657Z 0418/0524 25006KT 9999 BKN012
                      TEMPO 0418/0510 8000 -DZ BKN007
                      PROB30 0422/0508 4500 DZ BKN004
                      TEMPO 0510/0516 BKN018
                      PROB30 TEMPO 0519/0524 BKN008=
201301041238 TAF AMD EGLL 041238Z 0412/0518 27007KT 9999 BKN020
                      TEMPO 0412/0417 BKN014
                      BECMG 0417/0420 BKN010
                      PROB30 0420/0510 8000 -DZ BKN007
                      TEMPO 0510/0516 BKN018=
201301041102 TAF EGLL 041102Z 0412/0518 27007KT 9999 BKN020
                      BECMG 0417/0420 BKN014
                      PROB30 0420/0510 8000 -DZ BKN007
                      TEMPO 0510/0516 BKN018=
201301040459 TAF EGLL 040459Z 0406/0512 26010KT 9999 BKN018
                      PROB30 TEMPO 0406/0409 BKN014
                      BECMG 0418/0421 BKN014
                      PROB40 0418/0508 8000 BKN008=
201301040333 TAF AMD EGLL 040333Z 0403/0506 26010KT 9999 BKN016
                      PROB40 0403/0418 BKN014
                      BECMG 0418/0421 BKN014
                      PROB40 0418/0506 8000 BKN008=
201301032303 TAF EGLL 032303Z 0400/0506 26010KT 9999 BKN012
                      PROB30 0400/0406 8000 BKN008
                      PROB40 0406/0418 BKN016
                      PROB40 0418/0506 8000 BKN008=
201301032300 TAF AMD EGLL 040333Z 0403/0506 26010KT 9999 BKN016
                      PROB40 0403/0418 BKN014
                      BECMG 0418/0421 BKN014
                      PROB40 0418/0506 8000 BKN008=
201301031700 TAF EGLL 031700Z 0318/0424 26009KT 9999 BKN012
                      TEMPO 0318/0404 BKN008
                      PROB30 0321/0407 7000
                      BECMG 0404/0407 BKN015
                      PROB30 0407/0418 BKN012
                      BECMG 0418/0421 BKN008=
201301031056 TAF EGLL 031056Z 0312/0418 26010KT 9999 BKN009
                      TEMPO 0312/0320 BKN012
                      PROB30 0321/0407 8000
                      BECMG 0406/0409 BKN014
                      PROB40 0409/0418 SCT020=
201301030501 TAF EGLL 030501Z 0306/0412 24010KT 9999 BKN007
                      TEMPO 0306/0310 BKN011
                      BECMG 0310/0313 BKN015
                      TEMPO 0319/0409 BKN013=
201301030434 TAF AMD EGLL 030434Z 0304/0406 24010KT 9999 FEW007
                      BECMG 0304/0306 BKN007
                      TEMPO 0304/0310 7000 BKN011
                      BECMG 0310/0313 BKN018
                      PROB40 TEMPO 0321/0406 BKN013=
201301030358 TAF EGLL 030358Z 0304/0406 24010KT 9999 BKN007
                      TEMPO 0304/0310 BKN011
                      BECMG 0310/0313 BKN016
                      TEMPO 0321/0406 BKN013=
201301022302 TAF EGLL 022302Z 0300/0406 24010KT 9999 BKN011
                      TEMPO 0300/0310 7000 BKN009
                      BECMG 0310/0313 BKN018
                      PROB40 TEMPO 0321/0406 BKN013=
201301022300 TAF AMD EGLL 030434Z 0304/0406 24010KT 9999 FEW007
                      BECMG 0304/0306 BKN007
                      TEMPO 0304/0310 7000 BKN011
                      BECMG 0310/0313 BKN018
                      PROB40 TEMPO 0321/0406 BKN013=
201301022205 TAF AMD EGLL 022205Z 0222/0324 24010KT 9999 BKN011
                      PROB40 TEMPO 0300/0310 7000 BKN009
                      BECMG 0310/0313 BKN018
                      PROB40 TEMPO 0321/0324 BKN013=
201301021700 TAF EGLL 021700Z 0218/0324 24010KT 9999 BKN008
                      TEMPO 0218/0221 7000 -RA
                      PROB40 0300/0310 6000
                      BECMG 0309/0312 BKN012
                      PROB40 0315/0324 BKN020=
201301021059 TAF EGLL 021059Z 0212/0318 22007KT 9999 SCT045
                      BECMG 0212/0215 BKN008
                      TEMPO 0212/0222 7000 -RA
                      PROB40 0212/0219 4000 RADZ BR
                      BECMG 0218/0221 28010KT
                      PROB40 0304/0310 6000
                      BECMG 0310/0313 BKN012=
201301020458 TAF EGLL 020458Z 0206/0312 24008KT 9999 SCT035
                      PROB30 TEMPO 0206/0219 7000 -RA
                      BECMG 0211/0214 SCT009 BKN014
                      PROB30 TEMPO 0214/0219 4000 DZ SCT004 BKN008
                       BECMG 0221/0224 BKN016
                      PROB40 TEMPO 0221/0312 BKN012=
201301012258 TAF EGLL 012258Z 0200/0306 25008KT 9999 SCT035
                      PROB30 0205/0210 7000
                      BECMG 0210/0213 7000 -RA SCT007 BKN010
                      PROB40 0213/0221 4000 RADZ SCT004 BKN007
                       BECMG 0222/0301 9999 NSW
                      TEMPO 0301/0306 BKN009=
201301011658 TAF EGLL 011658Z 0118/0224 27010KT 9999 SCT035
                      PROB30 0205/0210 8000
                      BECMG 0210/0213 21006KT 8000 -RA BKN006
                      PROB40 0212/0218 4000 RADZ BR BKN004
                      BECMG 0218/0221 27010KT
                      BECMG 0221/0224 9999 NSW=
201301011055 TAF EGLL 011055Z 0112/0218 26008KT 9999 FEW025
                      BECMG 0211/0214 8000 -RA BKN006
                      PROB40 0212/0218 4000 RADZ=
201301010457 TAF EGLL 010457Z 0106/0212 28012KT 9999 FEW020
                      PROB30 0204/0210 8000
                      PROB40 TEMPO 0211/0212 7000 -RA=
