##########################################################
# Query made at 01/13/2020 13:32:34 UTC
# Time interval: from 01/01/2018 00:00  to 01/31/2018 23:59  UTC
##########################################################

##########################################################
# EGLL, London / Heathrow Airport (United Kingdom)
# WMO index: 03772
# Latitude 51-29N. Longitude 000-27W. Altitude 24 m.
##########################################################

###################################
#  METAR/SPECI from EGLL
###################################
201801312350 METAR COR EGLL 312350Z AUTO 22009KT 9999 FEW022 SCT028 03/00
                        Q1000 NOSIG=
201801312320 METAR COR EGLL 312320Z AUTO 23011KT 9999 FEW031 03/00 Q1000
                        NOSIG=
201801312250 METAR COR EGLL 312250Z AUTO 23011KT 9999 NCD 03/00 Q1000
                        NOSIG=
201801312220 METAR COR EGLL 312220Z AUTO 24010KT 9999 NCD 03/00 Q1001
                        NOSIG=
201801312150 METAR COR EGLL 312150Z AUTO 24012KT 9999 NCD 04/00 Q1001
                        NOSIG=
201801312120 METAR COR EGLL 312120Z AUTO 24011KT 9999 NCD 04/00 Q1001
                        NOSIG=
201801312050 METAR COR EGLL 312050Z AUTO 24011KT 9999 NCD 04/00 Q1001
                        NOSIG=
201801312020 METAR COR EGLL 312020Z AUTO 25013KT 9999 NCD 04/M00 Q1001
                        NOSIG=
201801311950 METAR COR EGLL 311950Z AUTO 24012KT 9999 NCD 04/M00 Q1001
                        NOSIG=
201801311920 METAR COR EGLL 311920Z AUTO 24011KT 9999 NCD 04/M00 Q1002
                        NOSIG=
201801311850 METAR COR EGLL 311850Z AUTO 24012KT 9999 NCD 04/M00 Q1002
                        NOSIG=
201801311820 METAR COR EGLL 311820Z AUTO 24011KT 9999 NCD 05/M00 Q1002
                        NOSIG=
201801311750 METAR COR EGLL 311750Z AUTO 26011KT 9999 NCD 05/M01 Q1002
                        NOSIG=
201801311720 METAR COR EGLL 311720Z AUTO 27009KT 9999 NCD 05/M00 Q1002
                        NOSIG=
201801311650 METAR COR EGLL 311650Z AUTO 27013KT 9999 NCD 05/M01 Q1002
                        NOSIG=
201801311620 METAR COR EGLL 311620Z AUTO 27014KT 9999 NCD 06/M02 Q1002
                        NOSIG=
201801311550 METAR COR EGLL 311550Z AUTO 27022KT 9999 NCD 06/M01 Q1002
                        NOSIG=
201801311520 METAR COR EGLL 311520Z AUTO 27016KT 9999 FEW043/// //////CB
                        06/01 Q1003 NOSIG=
201801311450 METAR COR EGLL 311450Z AUTO 26017KT 9999 FEW033 SCT039 06/02
                        Q1003 NOSIG=
201801311420 METAR COR EGLL 311420Z AUTO 26014KT 9999 NCD 06/02 Q1003
                        NOSIG=
201801311350 METAR COR EGLL 311350Z AUTO 26015KT 9999 NCD 06/02 Q1003
                        NOSIG=
201801311320 METAR COR EGLL 311320Z AUTO 25012KT 9999 NCD 06/03 Q1004
                        NOSIG=
201801311250 METAR COR EGLL 311250Z AUTO 25013KT 9999 NCD 06/03 Q1004
                        NOSIG=
201801311220 METAR COR EGLL 311220Z AUTO 26012KT 9999 -RA SCT020 BKN031
                        BKN042 05/03 Q1005 NOSIG=
201801311150 METAR COR EGLL 311150Z AUTO 29011KT 9000 -RA SCT019/// BKN028///
                        BKN043/// //////TCU 06/04 Q1005 NOSIG=
201801311120 METAR COR EGLL 311120Z AUTO 28011KT 9999 -RA SCT016/// SCT027///
                        BKN037/// //////CB 06/04 Q1005 RERA
                        NOSIG=
201801311050 METAR COR EGLL 311050Z AUTO 28016G27KT 2000 RA FEW011///
                        SCT015/// BKN027/// //////TCU 06/04
                        Q1006 BECMG 6000 SHRA BKN014=
201801311020 METAR COR EGLL 311020Z AUTO 31015KT 9000 -RA FEW025 BKN031
                        BKN046 08/04 Q1005 TEMPO SHRA BKN014=
201801310950 METAR COR EGLL 310950Z AUTO 26019KT 9999 NCD 09/04 Q1005
                        TEMPO SHRA BKN014=
201801310920 METAR COR EGLL 310920Z AUTO 25020G30KT 9999 NCD 09/06 Q1005
                        TEMPO SHRA BKN014=
201801310850 METAR COR EGLL 310850Z AUTO 25017KT 9999 FEW031 SCT048 09/06
                        Q1005 TEMPO SHRA BKN014=
201801310820 METAR COR EGLL 310820Z AUTO 25014KT 9999 SCT020 BKN031 09/07
                        Q1005 TEMPO SHRA BKN014=
201801310750 METAR COR EGLL 310750Z AUTO 24014KT 9999 BKN017 BKN028 08/07
                        Q1006 TEMPO BKN014=
201801310720 METAR EGLL 310720Z AUTO 24015KT 9999 -RA BKN016 08/07 Q1006=
201801310650 METAR COR EGLL 310650Z AUTO 23013KT 9999 BKN015 OVC022 09/07
                        Q1006 TEMPO BKN014=
201801310620 METAR COR EGLL 310620Z AUTO 23014KT 9999 BKN020 BKN025 OVC033
                        09/06 Q1007 TEMPO BKN014=
201801310550 METAR COR EGLL 310550Z AUTO 23014KT 9999 -RA BKN021 BKN029
                        08/06 Q1008 TEMPO BKN014=
201801310520 METAR COR EGLL 310520Z AUTO 23012KT 9999 BKN019 09/06 Q1008
                        NOSIG=
201801310450 METAR COR EGLL 310450Z AUTO 24012KT 9999 FEW021 BKN026 09/06
                        Q1008 NOSIG=
201801310420 METAR COR EGLL 310420Z AUTO 25014KT 9999 SCT018 BKN023 BKN031
                        09/06 Q1009 NOSIG=
201801310350 METAR COR EGLL 310350Z AUTO 25015KT 9999 SCT020 BKN027 09/07
                        Q1010 NOSIG=
201801310320 METAR COR EGLL 310320Z AUTO 26019KT 9999 -RA BKN013 BKN023
                        OVC030 09/08 Q1010 RERA REDZ TEMPO
                        FEW013 BKN023=
201801310250 METAR COR EGLL 310250Z AUTO 25014G24KT 7000 -RA BKN016 BKN023
                        OVC034 09/07 Q1010 NOSIG=
201801310220 METAR COR EGLL 310220Z AUTO 24017KT 9999 BKN018 10/07 Q1010
                        NOSIG=
201801310150 METAR COR EGLL 310150Z AUTO 23015KT 9999 FEW021 SCT026 BKN032
                        10/08 Q1011 NOSIG=
201801310120 METAR COR EGLL 310120Z AUTO 23016KT 9999 BKN018 BKN032 10/09
                        Q1011 TEMPO BKN008=
201801310050 METAR COR EGLL 310050Z AUTO 23017KT 5000 -RA SCT016 BKN021
                        OVC030 10/09 Q1012 TEMPO BKN008=
201801310020 METAR COR EGLL 310020Z AUTO 23013KT 9999 BKN011 BKN019 OVC043
                        10/09 Q1013 TEMPO BKN008=
201801302350 METAR COR EGLL 302350Z AUTO 22010KT 9999 -RA FEW009 BKN012
                        OVC027 10/09 Q1013 TEMPO BKN008=
201801302320 METAR COR EGLL 302320Z AUTO 22009KT 4200 -DZ FEW004 BKN009
                        OVC020 09/09 Q1014 BECMG 9999 NSW
                        BKN012=
201801302250 METAR COR EGLL 302250Z AUTO 21007KT 3500 -DZ SCT004 BKN008
                        OVC026 08/08 Q1015 NOSIG=
201801302220 METAR COR EGLL 302220Z AUTO 20009KT 4800 BR BKN004 OVC014
                        08/08 Q1016 BECMG BKN005=
201801302150 METAR COR EGLL 302150Z AUTO 20010KT 6000 BKN006 OVC012 08/07
                        Q1016 TEMPO 4000 RADZ=
201801302120 METAR COR EGLL 302120Z AUTO 20009KT 4200 -RADZ BKN007 OVC015
                        08/07 Q1017 TEMPO RADZ=
201801302050 METAR COR EGLL 302050Z AUTO 20010KT 180V250 9999 BKN009 OVC013
                        07/06 Q1018 NOSIG=
201801302020 METAR COR EGLL 302020Z AUTO 20009KT 160V230 9999 BKN010 OVC017
                        07/05 Q1018 TEMPO -RADZ BKN007=
201801301950 METAR COR EGLL 301950Z AUTO 20011KT 9999 BKN014 OVC028 07/04
                        Q1019 NOSIG=
201801301920 METAR COR EGLL 301920Z AUTO 21008KT 9999 BKN016 BKN020 OVC032
                        07/04 Q1020 BECMG BKN012=
201801301850 METAR COR EGLL 301850Z AUTO 21009KT 9999 BKN018 BKN026 OVC031
                        07/04 Q1020 BECMG BKN012=
201801301820 METAR COR EGLL 301820Z AUTO 20007KT 140V230 9999 BKN027 OVC039
                        07/05 Q1021 NOSIG=
201801301750 METAR COR EGLL 301750Z AUTO 19007KT 170V270 9999 SCT025 BKN030
                        BKN039 07/05 Q1021 NOSIG=
201801301720 METAR COR EGLL 301720Z AUTO 19007KT 130V230 9999 FEW028 SCT041
                        07/05 Q1022 NOSIG=
201801301650 METAR COR EGLL 301650Z AUTO 19006KT 170V240 9999 SCT029 07/05
                        Q1022 NOSIG=
201801301620 METAR COR EGLL 301620Z AUTO 19009KT 170V250 9999 SCT029 08/04
                        Q1023 NOSIG=
201801301550 METAR COR EGLL 301550Z AUTO 19008KT 140V230 9999 SCT028 BKN033
                        08/04 Q1023 NOSIG=
201801301520 METAR COR EGLL 301520Z AUTO 20007KT 170V230 9999 BKN032 08/04
                        Q1024 NOSIG=
201801301450 METAR COR EGLL 301450Z AUTO 20008KT 160V240 9999 FEW027 OVC032
                        08/04 Q1025 NOSIG=
201801301420 METAR COR EGLL 301420Z AUTO 22009KT 190V260 9999 SCT023 BKN032
                        08/04 Q1025 NOSIG=
201801301350 METAR COR EGLL 301350Z AUTO 23008KT 190V270 9999 BKN024 08/03
                        Q1026 NOSIG=
201801301320 METAR COR EGLL 301320Z AUTO 20005KT 170V250 9999 BKN023 08/03
                        Q1027 NOSIG=
201801301250 METAR COR EGLL 301250Z AUTO 23004KT 190V300 9999 BKN033 08/02
                        Q1027 NOSIG=
201801301220 METAR COR EGLL 301220Z AUTO 20005KT 150V240 9999 NCD 08/03
                        Q1027 NOSIG=
201801301150 METAR COR EGLL 301150Z AUTO 22004KT 170V300 9999 SCT035 07/02
                        Q1028 NOSIG=
201801301120 METAR COR EGLL 301120Z AUTO 24004KT 190V280 9999 BKN035 06/03
                        Q1029 NOSIG=
201801301050 METAR COR EGLL 301050Z AUTO 28004KT 230V350 9999 BKN036 05/02
                        Q1030 NOSIG=
201801301020 METAR COR EGLL 301020Z AUTO VRB03KT 9999 NCD 04/02 Q1030
                        NOSIG=
201801300950 METAR COR EGLL 300950Z AUTO VRB03KT 9999 FEW035 03/02 Q1030
                        NOSIG=
201801300920 METAR COR EGLL 300920Z AUTO VRB02KT 9999 BKN035 01/01 Q1030
                        NOSIG=
201801300850 METAR COR EGLL 300850Z AUTO 24001KT 9999 BKN033 00/00 Q1030
                        NOSIG=
201801300820 METAR COR EGLL 300820Z 00000KT 8000 VCFG FEW033 M00/M00 Q1031
                        NOSIG=
201801300750 METAR COR EGLL 300750Z 00000KT 8000 VCFG NSC M01/M01 Q1031
                        TEMPO 4000 MIFG=
201801300720 METAR COR EGLL 300720Z 09001KT 9999 VCFG NSC M01/M01 Q1031
                        TEMPO 4000 MIFG=
201801300650 METAR COR EGLL 300650Z AUTO VRB01KT 9999 NCD M00/M01 Q1031
                        TEMPO 4000 BR=
201801300620 METAR COR EGLL 300620Z AUTO 19002KT 9999 NCD 00/M00 Q1031
                        NOSIG=
201801300550 METAR COR EGLL 300550Z AUTO 19001KT 9999 NCD M00/M01 Q1031
                        NOSIG=
201801300520 METAR COR EGLL 300520Z AUTO VRB01KT 9999 NCD 00/M00 Q1031
                        NOSIG=
201801300450 METAR COR EGLL 300450Z AUTO VRB01KT 6000 NCD M00/M01 Q1031
                        NOSIG=
201801300420 METAR COR EGLL 300420Z AUTO 23002KT 9999 NCD 00/M00 Q1031
                        NOSIG=
201801300350 METAR COR EGLL 300350Z AUTO VRB02KT 9999 NCD 00/00 Q1031
                        NOSIG=
201801300320 METAR COR EGLL 300320Z AUTO VRB01KT 9999 NCD 00/M01 Q1031
                        NOSIG=
201801300250 METAR COR EGLL 300250Z AUTO VRB01KT 9999 NCD 01/M00 Q1032
                        NOSIG=
201801300220 METAR COR EGLL 300220Z AUTO 17001KT 9999 NCD 01/M00 Q1032
                        NOSIG=
201801300150 METAR COR EGLL 300150Z AUTO 18002KT 9999 NCD 02/00 Q1032
                        NOSIG=
201801300120 METAR COR EGLL 300120Z AUTO 19003KT 9999 NCD 03/01 Q1032
                        NOSIG=
201801300050 METAR COR EGLL 300050Z AUTO 28002KT 9999 NCD 02/01 Q1032
                        NOSIG=
201801300020 METAR COR EGLL 300020Z AUTO 28003KT 9999 NCD 03/01 Q1032
                        NOSIG=
201801292350 METAR COR EGLL 292350Z AUTO 26004KT 9999 NCD 03/01 Q1032
                        NOSIG=
201801292320 METAR COR EGLL 292320Z AUTO 29003KT 9999 NCD 04/00 Q1032
                        NOSIG=
201801292250 METAR COR EGLL 292250Z AUTO VRB03KT 9000 NCD 05/01 Q1032
                        NOSIG=
201801292220 METAR COR EGLL 292220Z AUTO VRB02KT 9999 NCD 06/01 Q1032
                        NOSIG=
201801292150 METAR COR EGLL 292150Z AUTO VRB02KT 9999 NCD 05/01 Q1032
                        NOSIG=
201801292120 METAR COR EGLL 292120Z AUTO 32004KT 9999 NCD 06/02 Q1031
                        NOSIG=
201801292050 METAR COR EGLL 292050Z AUTO VRB02KT 9999 NCD 07/02 Q1031
                        NOSIG=
201801292020 METAR COR EGLL 292020Z AUTO VRB03KT 9999 NCD 07/03 Q1031
                        NOSIG=
201801291950 METAR COR EGLL 291950Z AUTO VRB02KT 9999 NCD 08/04 Q1030
                        NOSIG=
201801291920 METAR COR EGLL 291920Z AUTO VRB02KT 9999 NCD 08/04 Q1030
                        NOSIG=
201801291850 METAR COR EGLL 291850Z AUTO VRB02KT 9999 NCD 08/04 Q1029
                        NOSIG=
201801291820 METAR COR EGLL 291820Z AUTO 31004KT 280V350 9999 NCD 09/04
                        Q1029 NOSIG=
201801291750 METAR COR EGLL 291750Z AUTO 33005KT 300V030 9999 FEW048 09/04
                        Q1029 NOSIG=
201801291720 METAR COR EGLL 291720Z AUTO 31006KT 290V350 9999 SCT031 BKN040
                        BKN049 10/07 Q1028 NOSIG=
201801291650 METAR COR EGLL 291650Z AUTO 31004KT 280V360 9999 NCD 10/07
                        Q1028 NOSIG=
201801291620 METAR COR EGLL 291620Z AUTO 32005KT 9999 SCT047 10/07 Q1027
                        NOSIG=
201801291550 METAR COR EGLL 291550Z AUTO 32008KT 290V360 9999 SCT028///
                        BKN038/// //////TCU 11/08 Q1027 NOSIG=
201801291520 METAR COR EGLL 291520Z AUTO 32010KT 9999 -RA SCT019/// BKN026///
                        BKN031/// //////TCU 12/09 Q1026 NOSIG=
201801291450 METAR COR EGLL 291450Z 25013KT 9999 FEW018 SCT048 12/10 Q1025
                        NOSIG=
201801291420 METAR COR EGLL 291420Z 25016KT 9999 SCT011 BKN022 11/10 Q1025
                        TEMPO RA BKN012=
201801291350 METAR COR EGLL 291350Z AUTO 24016KT 7000 -RA BKN014 OVC022
                        11/10 Q1025 RERA TEMPO RA=
201801291320 METAR COR EGLL 291320Z 25016KT 4500 RA FEW013 BKN015 BKN019
                        12/09 Q1024 RERA TEMPO 7000 BKN012=
201801291250 METAR COR EGLL 291250Z AUTO 25017KT 9999 BKN018 OVC040 13/09
                        Q1024 TEMPO RA BKN014=
201801291220 METAR COR EGLL 291220Z AUTO 24019G31KT 9999 BKN023 13/08
                        Q1025 NOSIG=
201801291150 METAR COR EGLL 291150Z AUTO 24019KT 9999 BKN022 12/07 Q1025
                        TEMPO RA BKN012=
201801291120 METAR COR EGLL 291120Z AUTO 24018KT 9999 OVC022 12/07 Q1025
                        TEMPO 7000 RA BKN012=
201801291050 METAR COR EGLL 291050Z AUTO 24018KT 9999 BKN024 OVC030 12/07
                        Q1025 NOSIG=
201801291020 METAR COR EGLL 291020Z AUTO 25017KT 9999 BKN023 OVC037 12/07
                        Q1026 NOSIG=
201801290950 METAR COR EGLL 290950Z AUTO 24016KT 9999 FEW029 BKN039 11/07
                        Q1026 NOSIG=
201801290920 METAR COR EGLL 290920Z AUTO 24016KT 9999 FEW037 11/06 Q1025
                        NOSIG=
201801290850 METAR COR EGLL 290850Z AUTO 23016KT 9999 OVC034 11/06 Q1025
                        NOSIG=
201801290820 METAR COR EGLL 290820Z AUTO 24015KT 9999 BKN027 11/06 Q1026
                        NOSIG=
201801290750 METAR COR EGLL 290750Z AUTO 24016KT 9999 BKN035 11/06 Q1026
                        NOSIG=
201801290720 METAR COR EGLL 290720Z AUTO 25017KT 9999 OVC026 11/06 Q1026
                        NOSIG=
201801290650 METAR COR EGLL 290650Z AUTO 24016KT 9999 BKN028 OVC032 11/06
                        Q1026 NOSIG=
201801290620 METAR COR EGLL 290620Z AUTO 25019KT 9999 OVC029 11/06 Q1027
                        NOSIG=
201801290550 METAR COR EGLL 290550Z AUTO 24017KT 9999 OVC029 11/06 Q1027
                        NOSIG=
201801290520 METAR COR EGLL 290520Z AUTO 23017KT 9999 OVC032 11/06 Q1027
                        NOSIG=
201801290450 METAR COR EGLL 290450Z AUTO 24018KT 9999 BKN019 OVC034 11/07
                        Q1027 NOSIG=
201801290420 METAR COR EGLL 290420Z AUTO 24016KT 9999 BKN019 OVC029 11/07
                        Q1027 NOSIG=
201801290350 METAR COR EGLL 290350Z AUTO 25019KT 9999 OVC024 11/06 Q1027
                        NOSIG=
201801290320 METAR COR EGLL 290320Z AUTO 24016KT 9999 OVC024 11/07 Q1028
                        NOSIG=
201801290250 METAR COR EGLL 290250Z AUTO 24015KT 9999 SCT020 OVC027 11/07
                        Q1028 NOSIG=
201801290220 METAR COR EGLL 290220Z AUTO 24016KT 9999 BKN027 OVC033 11/07
                        Q1029 NOSIG=
201801290150 METAR COR EGLL 290150Z AUTO 25016KT 9999 OVC027 11/07 Q1029
                        NOSIG=
201801290120 METAR COR EGLL 290120Z AUTO 25014KT 9999 BKN027 OVC032 11/07
                        Q1029 NOSIG=
201801290050 METAR COR EGLL 290050Z AUTO 25016KT 9999 BKN027 OVC032 11/07
                        Q1029 NOSIG=
201801290020 METAR COR EGLL 290020Z AUTO 25015KT 9999 OVC026 11/06 Q1030
                        NOSIG=
201801282350 METAR COR EGLL 282350Z AUTO 25016KT 9999 BKN028 11/07 Q1030
                        NOSIG=
201801282320 METAR COR EGLL 282320Z AUTO 25018KT 9999 BKN027 11/07 Q1030
                        NOSIG=
201801282250 METAR COR EGLL 282250Z AUTO 24015KT 9999 BKN026 OVC030 12/07
                        Q1030 NOSIG=
201801282220 METAR COR EGLL 282220Z AUTO 24014KT 9999 OVC024 12/07 Q1030
                        NOSIG=
201801282150 METAR COR EGLL 282150Z AUTO 25017KT 9999 OVC027 12/07 Q1030
                        NOSIG=
201801282120 METAR COR EGLL 282120Z AUTO 25018KT 9999 BKN025 OVC030 12/07
                        Q1031 NOSIG=
201801282050 METAR COR EGLL 282050Z AUTO 26019KT 9999 OVC023 12/07 Q1031
                        NOSIG=
201801282020 METAR COR EGLL 282020Z AUTO 26020KT 9999 OVC023 13/07 Q1031
                        NOSIG=
201801281950 METAR COR EGLL 281950Z AUTO 26019KT 9999 OVC022 12/07 Q1031
                        NOSIG=
201801281920 METAR COR EGLL 281920Z AUTO 26018KT 9999 OVC021 12/08 Q1031
                        NOSIG=
201801281850 METAR COR EGLL 281850Z AUTO 26018KT 9999 OVC018 12/08 Q1031
                        NOSIG=
201801281820 METAR COR EGLL 281820Z AUTO 25013KT 9999 OVC019 12/08 Q1031
                        NOSIG=
201801281750 METAR COR EGLL 281750Z AUTO 25013KT 9999 OVC017 12/08 Q1031
                        NOSIG=
201801281720 METAR COR EGLL 281720Z AUTO 25016KT 9999 BKN017 OVC022 13/09
                        Q1031 NOSIG=
201801281650 METAR COR EGLL 281650Z AUTO 26015KT 9999 OVC017 12/09 Q1031
                        NOSIG=
201801281620 METAR COR EGLL 281620Z AUTO 26013KT 9999 BKN016 OVC020 12/09
                        Q1031 NOSIG=
201801281550 METAR COR EGLL 281550Z AUTO 27018KT 9999 OVC016 13/09 Q1031
                        NOSIG=
201801281520 METAR COR EGLL 281520Z AUTO 26015KT 9999 OVC014 13/09 Q1031
                        BECMG BKN018=
201801281450 METAR COR EGLL 281450Z AUTO 25013KT 9999 BKN014 OVC019 13/10
                        Q1031 BECMG BKN018=
201801281420 METAR COR EGLL 281420Z AUTO 25013KT 9999 BKN014 OVC020 13/10
                        Q1031 BECMG BKN018=
201801281350 METAR COR EGLL 281350Z AUTO 25014KT 9999 OVC014 13/09 Q1031
                        BECMG BKN018=
201801281320 METAR COR EGLL 281320Z AUTO 25016KT 9999 BKN015 OVC023 13/09
                        Q1031 NOSIG=
201801281250 METAR COR EGLL 281250Z AUTO 25014KT 9999 BKN017 13/09 Q1031
                        NOSIG=
201801281220 METAR COR EGLL 281220Z AUTO 27017KT 9999 BKN017 13/09 Q1031
                        NOSIG=
201801281150 METAR COR EGLL 281150Z AUTO 27015KT 9999 OVC018 13/09 Q1031
                        NOSIG=
201801281120 METAR COR EGLL 281120Z AUTO 26014KT 9999 BKN018 12/09 Q1031
                        NOSIG=
201801281050 METAR COR EGLL 281050Z AUTO 26015KT 9999 BKN016 12/09 Q1031
                        NOSIG=
201801281020 METAR COR EGLL 281020Z AUTO 25014KT 9999 BKN016 12/09 Q1031
                        NOSIG=
201801280950 METAR COR EGLL 280950Z AUTO 24013KT 9999 OVC015 12/09 Q1031
                        NOSIG=
201801280920 METAR COR EGLL 280920Z AUTO 25014KT 9999 OVC014 11/09 Q1031
                        BECMG BKN015=
201801280850 METAR COR EGLL 280850Z AUTO 25013KT 9999 OVC013 11/08 Q1031
                        NOSIG=
201801280820 METAR COR EGLL 280820Z AUTO 25013KT 9999 OVC013 11/08 Q1031
                        NOSIG=
201801280750 METAR COR EGLL 280750Z AUTO 25012KT 9999 BKN012 OVC017 11/08
                        Q1030 NOSIG=
201801280720 METAR COR EGLL 280720Z AUTO 23010KT 9999 BKN013 OVC020 10/08
                        Q1030 NOSIG=
201801280650 METAR COR EGLL 280650Z AUTO 24011KT 9999 BKN016 10/08 Q1030
                        BECMG BKN012=
201801280620 METAR COR EGLL 280620Z AUTO 25011KT 9999 NCD 10/07 Q1030
                        TEMPO BKN012=
201801280550 METAR COR EGLL 280550Z AUTO 24009KT 9999 NCD 10/07 Q1030
                        TEMPO BKN012=
201801280520 METAR COR EGLL 280520Z AUTO 24010KT 9999 NCD 10/07 Q1029
                        TEMPO BKN012=
201801280450 METAR COR EGLL 280450Z AUTO 24009KT 9999 NCD 10/08 Q1029
                        NOSIG=
201801280420 METAR COR EGLL 280420Z AUTO 24009KT 9999 NCD 10/08 Q1029
                        NOSIG=
201801280350 METAR COR EGLL 280350Z AUTO 24008KT 9999 NCD 10/08 Q1029
                        NOSIG=
201801280320 METAR COR EGLL 280320Z AUTO 24008KT 9999 NCD 10/08 Q1028
                        NOSIG=
201801280250 METAR COR EGLL 280250Z AUTO 25010KT 9999 NCD 10/08 Q1028
                        NOSIG=
201801280220 METAR COR EGLL 280220Z AUTO 26010KT 9999 NCD 10/08 Q1028
                        NOSIG=
201801280150 METAR COR EGLL 280150Z AUTO 25009KT 9999 NCD 10/08 Q1028
                        NOSIG=
201801280120 METAR COR EGLL 280120Z AUTO 25008KT 9999 NCD 10/08 Q1027
                        NOSIG=
201801280050 METAR COR EGLL 280050Z AUTO 25010KT 9999 NCD 11/08 Q1027
                        NOSIG=
201801280020 METAR COR EGLL 280020Z AUTO 25011KT 9999 NCD 11/08 Q1027
                        NOSIG=
201801272350 METAR COR EGLL 272350Z AUTO 25010KT 9999 SCT013 11/09 Q1027
                        NOSIG=
201801272320 METAR COR EGLL 272320Z AUTO 25011KT 9999 BKN012 11/09 Q1026
                        TEMPO SCT012=
201801272250 METAR COR EGLL 272250Z AUTO 25013KT 9999 BKN012 11/09 Q1026
                        TEMPO SCT012=
201801272220 METAR COR EGLL 272220Z AUTO 25012KT 9999 FEW013 BKN034 11/09
                        Q1026 TEMPO BKN013=
201801272150 METAR COR EGLL 272150Z AUTO 26012KT 9999 BKN011 OVC033 11/09
                        Q1026 TEMPO SCT011 BKN033=
201801272120 METAR COR EGLL 272120Z AUTO 25013KT 9999 BKN011 OVC034 12/10
                        Q1025 NOSIG=
201801272050 METAR COR EGLL 272050Z AUTO 25014KT 9999 BKN009 OVC015 11/10
                        Q1025 TEMPO BKN011=
201801272020 METAR COR EGLL 272020Z 24010KT 9999 BKN009 11/10 Q1025 TEMPO
                        BKN010=
201801271950 METAR COR EGLL 271950Z 24009KT 9999 BKN007 BKN011 11/10 Q1025
                        NOSIG=
201801271920 METAR COR EGLL 271920Z 23009KT 9999 SCT006 BKN009 10/10 Q1024
                        NOSIG=
201801271850 METAR COR EGLL 271850Z 22010KT 6000 SCT004 BKN006 BKN010
                        10/09 Q1024 NOSIG=
201801271820 METAR COR EGLL 271820Z 21010KT 5000 HZ FEW004 BKN006 BKN010
                        10/09 Q1024 NOSIG=
201801271750 METAR COR EGLL 271750Z AUTO 22011KT 8000 BKN005 OVC013 10/09
                        Q1024 NOSIG=
201801271720 METAR COR EGLL 271720Z AUTO 22011KT 6000 BKN006 OVC014 10/08
                        Q1024 NOSIG=
201801271650 METAR COR EGLL 271650Z AUTO 21013KT 9999 OVC007 09/08 Q1024
                        NOSIG=
201801271620 METAR COR EGLL 271620Z AUTO 21013KT 9999 BKN007 OVC010 09/08
                        Q1023 NOSIG=
201801271550 METAR COR EGLL 271550Z AUTO 21015KT 9999 BKN007 OVC010 09/08
                        Q1023 NOSIG=
201801271520 METAR COR EGLL 271520Z AUTO 21015KT 9999 -RA BKN008 OVC014
                        09/07 Q1024 NOSIG=
201801271450 METAR COR EGLL 271450Z AUTO 21013G24KT 9999 -RA SCT009 OVC012
                        09/07 Q1024 TEMPO BKN009=
201801271420 METAR COR EGLL 271420Z AUTO 21011KT 9999 -RA BKN010 BKN014
                        OVC023 09/07 Q1024 BECMG BKN008=
201801271350 METAR COR EGLL 271350Z AUTO 21014KT 9999 -RA BKN012 OVC017
                        09/07 Q1024 BECMG BKN008=
201801271320 METAR COR EGLL 271320Z AUTO 21014G25KT 9999 -RA OVC012 09/06
                        Q1025 NOSIG=
201801271250 METAR COR EGLL 271250Z AUTO 21016KT 9999 OVC015 09/06 Q1025
                        BECMG BKN014=
201801271220 METAR COR EGLL 271220Z AUTO 21015G26KT 9999 BKN017 OVC046
                        09/06 Q1025 BECMG -RA BKN014=
201801271150 METAR COR EGLL 271150Z AUTO 21012KT 9999 BKN018 09/06 Q1026
                        BECMG BKN014=
201801271120 METAR COR EGLL 271120Z AUTO 20012KT 9999 -RA BKN019 BKN024
                        09/05 Q1026 BECMG BKN014=
201801271050 METAR COR EGLL 271050Z AUTO 21012KT 9999 NCD 08/04 Q1026
                        NOSIG=
201801271020 METAR COR EGLL 271020Z AUTO 21011KT 9999 BKN047 07/04 Q1026
                        NOSIG=
201801270950 METAR COR EGLL 270950Z AUTO 20011KT 9999 NCD 07/04 Q1027
                        NOSIG=
201801270920 METAR COR EGLL 270920Z AUTO 20011KT 9999 NCD 07/03 Q1027
                        NOSIG=
201801270850 METAR COR EGLL 270850Z AUTO 20009KT 9999 NCD 05/03 Q1027
                        NOSIG=
201801270820 METAR COR EGLL 270820Z AUTO 19007KT 160V230 9999 NCD 04/02
                        Q1027 NOSIG=
201801270750 METAR COR EGLL 270750Z AUTO 21007KT 9999 NCD 04/02 Q1027
                        NOSIG=
201801270720 METAR COR EGLL 270720Z AUTO 20008KT 180V240 9999 NCD 03/01
                        Q1028 NOSIG=
201801270650 METAR COR EGLL 270650Z AUTO 20009KT 9999 NCD 03/01 Q1028
                        NOSIG=
201801270620 METAR COR EGLL 270620Z AUTO 20006KT 150V270 9999 NCD 03/01
                        Q1028 NOSIG=
201801270550 METAR COR EGLL 270550Z AUTO 20007KT 9999 NCD 03/02 Q1027
                        NOSIG=
201801270520 METAR COR EGLL 270520Z AUTO 20006KT 9999 NCD 03/02 Q1027
                        NOSIG=
201801270450 METAR COR EGLL 270450Z AUTO 20006KT 9000 NCD 04/02 Q1028
                        TEMPO 4000 BR=
201801270420 METAR COR EGLL 270420Z AUTO 21006KT 9999 NCD 04/02 Q1027
                        NOSIG=
201801270350 METAR COR EGLL 270350Z AUTO 19005KT 9999 NCD 03/02 Q1028
                        TEMPO 5000 BR=
201801270320 METAR COR EGLL 270320Z AUTO 22005KT 9999 FEW031 04/02 Q1028
                        TEMPO 5000 BR=
201801270250 METAR COR EGLL 270250Z AUTO 21004KT 9999 BKN032 05/02 Q1028
                        NOSIG=
201801270220 METAR COR EGLL 270220Z AUTO 21005KT 9999 BKN032 05/03 Q1028
                        NOSIG=
201801270150 METAR COR EGLL 270150Z AUTO 21005KT 190V250 9999 BKN033 06/03
                        Q1028 NOSIG=
201801270120 METAR COR EGLL 270120Z AUTO 23006KT 9999 OVC030 06/04 Q1028
                        NOSIG=
201801270050 METAR COR EGLL 270050Z AUTO 22004KT 9999 OVC030 06/04 Q1028
                        NOSIG=
201801270020 METAR COR EGLL 270020Z AUTO 21004KT 9999 OVC033 06/04 Q1028
                        NOSIG=
201801262350 METAR COR EGLL 262350Z AUTO 20004KT 9000 BKN035 06/04 Q1028
                        NOSIG=
201801262320 METAR COR EGLL 262320Z AUTO 18005KT 9000 BKN035 06/04 Q1027
                        NOSIG=
201801262250 METAR COR EGLL 262250Z AUTO VRB03KT 9999 OVC036 06/04 Q1027
                        NOSIG=
201801262220 METAR COR EGLL 262220Z AUTO VRB03KT 9999 OVC036 06/04 Q1027
                        BECMG 9000=
201801262150 METAR COR EGLL 262150Z AUTO 28003KT 9999 OVC036 06/04 Q1027
                        BECMG 9000=
201801262120 METAR COR EGLL 262120Z AUTO 29004KT 9999 OVC036 07/04 Q1027
                        BECMG 9000=
201801262050 METAR COR EGLL 262050Z AUTO 29005KT 9999 OVC035 06/04 Q1027
                        NOSIG=
201801262020 METAR COR EGLL 262020Z AUTO 30003KT 9999 OVC036 07/03 Q1026
                        NOSIG=
201801261950 METAR COR EGLL 261950Z AUTO VRB01KT 9999 OVC036 07/03 Q1026
                        NOSIG=
201801261920 METAR COR EGLL 261920Z AUTO VRB02KT 9999 OVC034 07/03 Q1026
                        NOSIG=
201801261850 METAR COR EGLL 261850Z AUTO 30003KT 9999 OVC035 07/03 Q1026
                        NOSIG=
201801261820 METAR COR EGLL 261820Z AUTO VRB03KT 9999 OVC032 07/03 Q1025
                        NOSIG=
201801261750 METAR COR EGLL 261750Z AUTO VRB03KT 9999 OVC032 07/03 Q1025
                        NOSIG=
201801261720 METAR COR EGLL 261720Z AUTO 30004KT 9999 BKN029 OVC035 07/02
                        Q1024 NOSIG=
201801261650 METAR COR EGLL 261650Z AUTO VRB03KT 9999 BKN033 07/02 Q1024
                        NOSIG=
201801261620 METAR COR EGLL 261620Z AUTO 32004KT 290V360 9999 BKN034 07/02
                        Q1023 NOSIG=
201801261550 METAR COR EGLL 261550Z AUTO 35004KT 9999 OVC030 08/02 Q1023
                        NOSIG=
201801261520 METAR EGLL 261520Z AUTO 35004KT 290V020 9999 BKN031 08/02
                        Q1022=
201801261450 METAR COR EGLL 261450Z AUTO 34004KT 300V020 9999 BKN028 08/02
                        Q1021 NOSIG=
201801261420 METAR COR EGLL 261420Z AUTO 36004KT 320V040 9999 BKN031 08/02
                        Q1021 NOSIG=
201801261350 METAR COR EGLL 261350Z AUTO 36004KT 320V050 9999 BKN026 08/03
                        Q1021 NOSIG=
201801261320 METAR COR EGLL 261320Z AUTO 05005KT 9999 SCT021 SCT026 08/03
                        Q1020 NOSIG=
201801261250 METAR COR EGLL 261250Z AUTO VRB03KT 9999 SCT017 BKN025 08/04
                        Q1020 NOSIG=
201801261220 METAR COR EGLL 261220Z AUTO VRB03KT 9999 FEW017 SCT049 08/04
                        Q1020 NOSIG=
201801261150 METAR EGLL 261150Z AUTO 35004KT 310V030 9999 FEW011 SCT048
                        07/04 Q1020=
201801261120 METAR COR EGLL 261120Z AUTO 34005KT 300V020 9999 BKN010 OVC035
                        06/04 Q1020 TEMPO SCT010=
201801261050 METAR COR EGLL 261050Z AUTO 35004KT 280V040 9999 BKN009 06/04
                        Q1019 BECMG BKN011=
201801261020 METAR COR EGLL 261020Z AUTO VRB03KT 9000 BKN009 06/04 Q1018
                        TEMPO BKN010=
201801260950 METAR COR EGLL 260950Z AUTO VRB03KT 9000 FEW008 SCT044 06/04
                        Q1018 TEMPO BKN008=
201801260920 METAR COR EGLL 260920Z AUTO VRB03KT 9000 BKN007 05/03 Q1017
                        TEMPO BKN010=
201801260850 METAR COR EGLL 260850Z AUTO 31004KT 270V340 9000 BKN009 05/03
                        Q1017 TEMPO BKN010=
201801260820 METAR COR EGLL 260820Z AUTO VRB02KT 9000 BKN034 OVC041 05/03
                        Q1016 TEMPO BKN009=
201801260750 METAR COR EGLL 260750Z AUTO VRB02KT 9000 BKN031 04/03 Q1015
                        TEMPO BKN009=
201801260720 METAR COR EGLL 260720Z AUTO VRB02KT 9999 SCT009 BKN030 BKN039
                        05/03 Q1015 NOSIG=
201801260650 METAR COR EGLL 260650Z AUTO 31002KT 9999 BKN009 OVC036 04/03
                        Q1014 NOSIG=
201801260620 METAR COR EGLL 260620Z AUTO 31002KT 9999 BKN009 04/03 Q1013
                        NOSIG=
201801260550 METAR COR EGLL 260550Z AUTO 32001KT 9000 SCT010 BKN049 03/02
                        Q1013 NOSIG=
201801260520 METAR COR EGLL 260520Z AUTO VRB02KT 8000 SCT012 BKN047 03/02
                        Q1012 TEMPO 4000 BR=
201801260450 METAR COR EGLL 260450Z AUTO VRB01KT 8000 FEW013 BKN042 02/02
                        Q1012 TEMPO 4000 BR=
201801260420 METAR COR EGLL 260420Z AUTO 26001KT 5000 BR BKN041 02/01
                        Q1012 TEMPO 4000 BR=
201801260350 METAR COR EGLL 260350Z AUTO 27001KT 5000 BR SCT045 03/02
                        Q1011 TEMPO 4000 BR=
201801260320 METAR COR EGLL 260320Z AUTO 00000KT 4100 BR NCD 02/02 Q1011
                        TEMPO 7000=
201801260250 METAR EGLL 260250Z AUTO 26002KT 0550 FG NCD 03/02 Q1011=
201801260220 METAR COR EGLL 260220Z AUTO 24002KT 9999 NCD 03/02 Q1010
                        NOSIG=
201801260150 METAR COR EGLL 260150Z AUTO 21004KT 9999 NCD 04/03 Q1010
                        NOSIG=
201801260120 METAR COR EGLL 260120Z AUTO 21004KT 9999 NCD 04/03 Q1010
                        NOSIG=
201801260050 METAR COR EGLL 260050Z AUTO 19004KT 9999 NCD 04/03 Q1010
                        NOSIG=
201801260020 METAR COR EGLL 260020Z AUTO 18005KT 9999 NCD 04/03 Q1010
                        NOSIG=
201801252350 METAR COR EGLL 252350Z AUTO 17004KT 9999 FEW030 04/03 Q1010
                        NOSIG=
201801252320 METAR COR EGLL 252320Z AUTO 20005KT 9999 FEW046 05/03 Q1009
                        NOSIG=
201801252250 METAR COR EGLL 252250Z AUTO 21005KT 180V260 9999 SCT047 05/03
                        Q1009 NOSIG=
201801252220 METAR COR EGLL 252220Z AUTO 21007KT 170V250 9999 NCD 05/03
                        Q1009 NOSIG=
201801252150 METAR COR EGLL 252150Z AUTO 21008KT 9999 NCD 05/03 Q1009
                        NOSIG=
201801252120 METAR COR EGLL 252120Z AUTO 21009KT 9999 NCD 06/03 Q1008
                        NOSIG=
201801252050 METAR COR EGLL 252050Z AUTO 21007KT 9999 NCD 06/03 Q1008
                        NOSIG=
201801252020 METAR COR EGLL 252020Z AUTO 21009KT 9999 NCD 06/03 Q1008
                        NOSIG=
201801251950 METAR COR EGLL 251950Z AUTO 20007KT 9999 NCD 06/03 Q1008
                        NOSIG=
201801251920 METAR COR EGLL 251920Z AUTO 21009KT 190V260 9999 NCD 06/03
                        Q1008 TEMPO SHRA=
201801251850 METAR COR EGLL 251850Z AUTO 21008KT 9999 NCD 06/04 Q1008
                        TEMPO SHRA=
201801251820 METAR COR EGLL 251820Z AUTO 20008KT 170V250 9999 NCD 07/04
                        Q1008 TEMPO SHRA=
201801251750 METAR COR EGLL 251750Z AUTO 19008KT 160V230 9999 NCD 07/04
                        Q1007 NOSIG=
201801251720 METAR COR EGLL 251720Z AUTO 21009KT 9999 -RA FEW017/// SCT039///
                        //////TCU 08/04 Q1007 NOSIG=
201801251650 METAR COR EGLL 251650Z AUTO 21011KT 9999 -RA FEW031/// //////TCU
                        08/04 Q1007 TEMPO SHRA=
201801251620 METAR COR EGLL 251620Z AUTO 21011KT 170V250 9999 NCD 08/04
                        Q1007 TEMPO SHRA=
201801251550 METAR COR EGLL 251550Z AUTO 20010KT 170V240 9999 NCD 09/04
                        Q1007 NOSIG=
201801251520 METAR COR EGLL 251520Z AUTO 22011KT 190V250 9999 NCD 09/03
                        Q1007 NOSIG=
201801251450 METAR COR EGLL 251450Z AUTO 22010KT 9999 NCD 09/03 Q1007
                        NOSIG=
201801251420 METAR COR EGLL 251420Z AUTO 21012KT 9999 //////CB 10/03 Q1006
                        TEMPO SHRA=
201801251350 METAR COR EGLL 251350Z AUTO 23013KT 9999 NCD 10/03 Q1007
                        TEMPO SHRA=
201801251320 METAR COR EGLL 251320Z AUTO 22014KT 9999 SCT031 10/04 Q1007
                        TEMPO SHRA=
201801251250 METAR COR EGLL 251250Z AUTO 23012KT 9999 BKN029 BKN044 10/04
                        Q1007 NOSIG=
201801251220 METAR COR EGLL 251220Z AUTO 22013KT 9999 BKN030 10/04 Q1008
                        NOSIG=
201801251150 METAR COR EGLL 251150Z AUTO 22015KT 9999 FEW029 SCT036 10/04
                        Q1008 NOSIG=
201801251120 METAR COR EGLL 251120Z AUTO 23011KT 9999 NCD 10/04 Q1008
                        NOSIG=
201801251050 METAR COR EGLL 251050Z AUTO 22010KT 9999 NCD 09/04 Q1008
                        NOSIG=
201801251020 METAR COR EGLL 251020Z AUTO 22008KT 9999 NCD 09/04 Q1008
                        NOSIG=
201801250950 METAR COR EGLL 250950Z AUTO 20008KT 150V230 9999 NCD 08/04
                        Q1008 NOSIG=
201801250920 METAR COR EGLL 250920Z AUTO 21009KT 160V230 9999 NCD 08/04
                        Q1008 NOSIG=
201801250850 METAR EGLL 250850Z AUTO 20007KT 160V230 9999 NCD 07/04 Q1008=
201801250820 METAR COR EGLL 250820Z AUTO 20007KT 180V250 9999 NCD 06/04
                        Q1008 NOSIG=
201801250750 METAR COR EGLL 250750Z AUTO 21007KT 180V260 9999 NCD 06/04
                        Q1008 NOSIG=
201801250720 METAR COR EGLL 250720Z AUTO 21009KT 9999 NCD 06/04 Q1007
                        NOSIG=
201801250650 METAR EGLL 250650Z AUTO 21009KT 9999 NCD 07/04 Q1007=
201801250620 METAR COR EGLL 250620Z AUTO 21007KT 190V260 9999 NCD 07/04
                        Q1007 NOSIG=
201801250550 METAR COR EGLL 250550Z AUTO 21008KT 9999 NCD 07/05 Q1007
                        NOSIG=
201801250520 METAR COR EGLL 250520Z AUTO 21008KT 9999 NCD 07/05 Q1007
                        NOSIG=
201801250450 METAR COR EGLL 250450Z AUTO 21009KT 9999 NCD 07/05 Q1007
                        NOSIG=
201801250420 METAR COR EGLL 250420Z AUTO 22008KT 9999 NCD 07/05 Q1007
                        NOSIG=
201801250350 METAR COR EGLL 250350Z AUTO 21009KT 9999 NCD 07/05 Q1007
                        NOSIG=
201801250320 METAR COR EGLL 250320Z AUTO 22009KT 9999 NCD 07/05 Q1008
                        NOSIG=
201801250250 METAR COR EGLL 250250Z AUTO 22007KT 9999 NCD 07/04 Q1008
                        NOSIG=
201801250220 METAR COR EGLL 250220Z AUTO 22009KT 9999 NCD 07/05 Q1008
                        NOSIG=
201801250150 METAR COR EGLL 250150Z AUTO 21009KT 9999 NCD 07/05 Q1008
                        NOSIG=
201801250120 METAR EGLL 250120Z AUTO 21010KT 9999 NCD 07/05 Q1008=
201801250050 METAR COR EGLL 250050Z AUTO 21010KT 9999 NCD 07/05 Q1008
                        NOSIG=
201801250020 METAR COR EGLL 250020Z AUTO 21010KT 9999 NCD 07/05 Q1008
                        NOSIG=
201801242350 METAR COR EGLL 242350Z AUTO 22009KT 9999 NCD 07/05 Q1008
                        NOSIG=
201801242320 METAR COR EGLL 242320Z AUTO 21010KT 9000 NCD 07/05 Q1008
                        NOSIG=
201801242250 METAR COR EGLL 242250Z AUTO 21010KT 9999 NCD 07/05 Q1007
                        NOSIG=
201801242220 METAR COR EGLL 242220Z AUTO 22009KT 190V250 9999 NCD 07/05
                        Q1007 NOSIG=
201801242150 METAR COR EGLL 242150Z AUTO 21010KT 180V250 9999 NCD 07/05
                        Q1007 NOSIG=
201801242120 METAR COR EGLL 242120Z AUTO 21011KT 190V250 9999 NCD 07/05
                        Q1007 NOSIG=
201801242050 METAR COR EGLL 242050Z AUTO 21010KT 9999 NCD 07/05 Q1007
                        NOSIG=
201801242020 METAR COR EGLL 242020Z AUTO 22010KT 9999 NCD 07/05 Q1007
                        NOSIG=
201801241950 METAR COR EGLL 241950Z AUTO 22010KT 9999 FEW017 07/05 Q1007
                        NOSIG=
201801241920 METAR COR EGLL 241920Z AUTO 22012KT 9999 FEW021 BKN036 07/05
                        Q1006 NOSIG=
201801241850 METAR COR EGLL 241850Z AUTO 22011KT 9999 NCD 07/05 Q1006
                        NOSIG=
201801241820 METAR COR EGLL 241820Z AUTO 22010KT 9999 NCD 07/05 Q1006
                        NOSIG=
201801241750 METAR COR EGLL 241750Z AUTO 22012KT 9999 NCD 07/05 Q1006
                        NOSIG=
201801241720 METAR COR EGLL 241720Z AUTO 22009KT 9999 //////TCU 07/05
                        Q1005 NOSIG=
201801241650 METAR COR EGLL 241650Z AUTO 22013KT 9999 -RA SCT035/// BKN044///
                        //////TCU 07/05 Q1005 NOSIG=
201801241620 METAR COR EGLL 241620Z AUTO 21011KT 180V250 9999 -RA BKN029///
                        //////TCU 07/06 Q1005 NOSIG=
201801241550 METAR COR EGLL 241550Z AUTO 24010KT 9999 -RA SCT021/// SCT028///
                        BKN033/// //////TCU 08/06 Q1005 NOSIG=
201801241520 METAR COR EGLL 241520Z AUTO 25013KT 9999 -RA SCT028/// BKN034///
                        //////TCU 08/06 Q1005 TEMPO 6000
                        -RA=
201801241450 METAR COR EGLL 241450Z AUTO 26015KT 7000 -RA SCT027 BKN033
                        BKN040 08/06 Q1005 BECMG 9999 NSW=
201801241420 METAR EGLL 241420Z 27016KT 3500 -RA FEW018 SCT025 OVC039
                        08/06 Q1005 RERA=
201801241350 METAR COR EGLL 241350Z 28016KT 4200 -RA FEW015 OVC041 08/07
                        Q1005 RERA BECMG 7000 -RA=
201801241320 METAR COR EGLL 241320Z 26013KT 4000 RA SCT012 BKN028 08/07
                        Q1005 TEMPO 7000 -RA=
201801241250 METAR COR EGLL 241250Z 26012KT 5000 RA FEW009 SCT014 BKN026
                        09/07 Q1004 RERA TEMPO BKN014=
201801241220 METAR COR EGLL 241220Z 28014KT 3200 +RA FEW009 BKN015 BKN020
                        09/07 Q1005 BECMG 6000 RA BKN012=
201801241150 METAR COR EGLL 241150Z 22024G34KT 8000 -RA BKN014 BKN018
                        13/11 Q1004 TEMPO 4000 +RA BKN008=
201801241120 METAR COR EGLL 241120Z 22020G30KT 7000 -RA BKN012 BKN018
                        13/11 Q1004 BECMG 3000 +RA BKN008=
201801241050 METAR COR EGLL 241050Z AUTO 21020G35KT 6000 -RA SCT011 BKN016
                        OVC031 13/11 Q1004 TEMPO 3000 +RA
                        BKN008=
201801241020 METAR COR EGLL 241020Z AUTO 21020G32KT 5000 -DZ BKN013 OVC024
                        13/11 Q1004 TEMPO +RA BKN008=
201801240950 METAR COR EGLL 240950Z AUTO 21023G36KT 9999 -RA BKN016 BKN021
                        OVC030 13/10 Q1004 TEMPO 3000 +RA
                        BKN008=
201801240920 METAR COR EGLL 240920Z AUTO 21023G34KT 9999 FEW015 BKN020
                        BKN025 13/10 Q1004 TEMPO 6000 RA
                        BKN014=
201801240850 METAR COR EGLL 240850Z AUTO 21021G33KT 6000 -RA BKN012 OVC025
                        12/11 Q1005 RERA TEMPO 4000 RA=
201801240820 METAR COR EGLL 240820Z AUTO 21022KT 7000 -RA BKN011 OVC016
                        13/11 Q1005 TMEPO 4000 RA=
201801240750 METAR COR EGLL 240750Z AUTO 21019G31KT 9999 BKN012 BKN017
                        OVC024 13/11 Q1006 TEMPO 4000 RA=
201801240720 METAR COR EGLL 240720Z AUTO 21018KT 7000 -RA BKN013 OVC019
                        12/11 Q1006 TEMPO 4000=
201801240650 METAR COR EGLL 240650Z AUTO 21019KT 9000 -RA BKN013 BKN019
                        OVC027 13/11 Q1007 TEMPO 4000 -RADZ=
201801240620 METAR COR EGLL 240620Z AUTO 21018KT 9999 SCT014 BKN018 OVC027
                        13/10 Q1007 BECMG BKN014=
201801240550 METAR COR EGLL 240550Z AUTO 21016KT 9999 BKN014 OVC032 13/10
                        Q1008 NOSIG=
201801240520 METAR COR EGLL 240520Z AUTO 21017G29KT 9000 -RA BKN013 BKN017
                        OVC029 12/10 Q1009 NOSIG=
201801240450 METAR COR EGLL 240450Z AUTO 21017KT 9999 BKN014 OVC029 12/10
                        Q1009 NOSIG=
201801240420 METAR COR EGLL 240420Z AUTO 21018KT 9999 SCT012 BKN017 OVC024
                        12/10 Q1009 TEMPO BKN012=
201801240350 METAR COR EGLL 240350Z AUTO 22020G31KT 9999 OVC012 12/10
                        Q1010 NOSIG=
201801240320 METAR COR EGLL 240320Z AUTO 22016G27KT 9999 BKN016 OVC028
                        12/09 Q1010 TEMPO BKN014=
201801240250 METAR COR EGLL 240250Z AUTO 22015KT 9999 BKN016 OVC022 12/09
                        Q1011 TEMPO BKN014=
201801240220 METAR COR EGLL 240220Z AUTO 22014KT 9999 BKN016 OVC020 12/09
                        Q1012 TEMPO BKN014=
201801240150 METAR COR EGLL 240150Z AUTO 21016KT 9999 BKN017 BKN023 12/08
                        Q1012 NOSIG=
201801240120 METAR COR EGLL 240120Z AUTO 22014KT 9999 BKN021 11/08 Q1013
                        NOSIG=
201801240050 METAR COR EGLL 240050Z AUTO 21013KT 9999 BKN020 11/08 Q1013
                        NOSIG=
201801240020 METAR EGLL 240020Z AUTO 21012KT 9999 BKN018 11/08 Q1014=
201801232350 METAR COR EGLL 232350Z AUTO 21012KT 9999 BKN018 11/08 Q1014
                        NOSIG=
201801232320 METAR COR EGLL 232320Z AUTO 22012KT 9999 BKN017 11/08 Q1014
                        NOSIG=
201801232250 METAR COR EGLL 232250Z AUTO 22011KT 9999 BKN014 OVC019 11/09
                        Q1014 TEMPO BKN018=
201801232220 METAR COR EGLL 232220Z AUTO 22011KT 9999 BKN016 11/09 Q1014
                        NOSIG=
201801232150 METAR COR EGLL 232150Z AUTO 22010KT 9999 NCD 11/09 Q1014
                        NOSIG=
201801232120 METAR COR EGLL 232120Z AUTO 22010KT 9999 SCT017 BKN025 12/09
                        Q1014 NOSIG=
201801232050 METAR COR EGLL 232050Z AUTO 22013G23KT 9999 FEW018 BKN022
                        BKN029 12/09 Q1014 NOSIG=
201801232020 METAR COR EGLL 232020Z AUTO 24013KT 9999 SCT023 SCT029 13/09
                        Q1014 NOSIG=
201801231950 METAR COR EGLL 231950Z AUTO 24013KT 9999 FEW022 SCT028 13/09
                        Q1014 NOSIG=
201801231920 METAR COR EGLL 231920Z AUTO 24014KT 9999 BKN016 13/10 Q1014
                        BECMG BKN025=
201801231850 METAR COR EGLL 231850Z AUTO 23014KT 9999 -RA BKN011 BKN015
                        OVC026 12/11 Q1014 BECMG BKN026=
201801231820 METAR COR EGLL 231820Z AUTO 23014KT 9999 BKN013 OVC022 13/10
                        Q1013 NOSIG=
201801231750 METAR COR EGLL 231750Z AUTO 23014KT 9999 OVC012 13/10 Q1013
                        NOSIG=
201801231720 METAR COR EGLL 231720Z AUTO 22014KT 9999 BKN011 OVC023 13/10
                        Q1013 NOSIG=
201801231650 METAR COR EGLL 231650Z AUTO 22013G23KT 190V250 9999 SCT009
                        BKN014 OVC023 12/11 Q1013 NOSIG=
201801231620 METAR COR EGLL 231620Z AUTO 22014KT 9999 BKN009 OVC024 12/10
                        Q1013 NOSIG=
201801231550 METAR COR EGLL 231550Z AUTO 22012KT 9999 BKN013 OVC021 13/10
                        Q1013 TEMPO BKN020=
201801231520 METAR COR EGLL 231520Z AUTO 22016KT 9999 BKN016 BKN026 13/10
                        Q1013 NOSIG=
201801231450 METAR COR EGLL 231450Z AUTO 22016KT 9999 BKN017 OVC027 13/10
                        Q1013 NOSIG=
201801231420 METAR COR EGLL 231420Z AUTO 22012KT 9999 SCT017 OVC027 13/10
                        Q1013 NOSIG=
201801231350 METAR COR EGLL 231350Z AUTO 22014KT 9999 BKN011 OVC028 13/10
                        Q1013 BECMG BKN025=
201801231320 METAR COR EGLL 231320Z AUTO 22012KT 9999 BKN010 BKN016 OVC026
                        13/11 Q1014 NOSIG=
201801231250 METAR COR EGLL 231250Z AUTO 23015KT 9999 BKN011/// OVC026///
                        13/11 Q1014 NOSIG=
201801231220 METAR EGLL 231220Z AUTO 22013KT 9999 OVC011 13/10 Q1014=
201801231150 METAR COR EGLL 231150Z AUTO 22010KT 9999 BKN009 OVC012 12/10
                        Q1014 NOSIG=
201801231120 METAR COR EGLL 231120Z AUTO 22013KT 9999 OVC006 11/10 Q1015
                        BECMG BKN010=
201801231050 METAR COR EGLL 231050Z AUTO 21012KT 9999 BKN005 OVC011 11/10
                        Q1015 BECMG BKN010=
201801231020 METAR COR EGLL 231020Z AUTO 21012KT 9999 BKN007 OVC040 10/09
                        Q1015 NOSIG=
201801230950 METAR COR EGLL 230950Z AUTO 20014KT 9999 BKN007 OVC015 10/09
                        Q1015 NOSIG=
201801230920 METAR COR EGLL 230920Z AUTO 20011KT 9999 BKN006 BKN011 OVC040
                        09/08 Q1015 TEMPO 6000 -DZ=
201801230850 METAR COR EGLL 230850Z AUTO 20012KT 9999 OVC007/// 09/08
                        Q1016 TEMPO 60000 -DZ BKN006=
201801230820 METAR COR EGLL 230820Z AUTO 20013KT 9999 OVC008/// 09/08
                        Q1016 TEMPO 6000 -DZ BKN006=
201801230750 METAR COR EGLL 230750Z AUTO 20012KT 9999 BKN009/// OVC012///
                        09/08 Q1016 NOSIG=
201801230720 METAR EGLL 230720Z AUTO 20010KT 170V240 9999 -RA OVC010///
                        09/08 Q1016=
201801230650 METAR EGLL 230650Z AUTO 20010KT 180V260 9999 -RA BKN013///
                        09/07 Q1016=
201801230620 METAR EGLL 230620Z AUTO 20011KT 9999 BKN014/// OVC041///
                        09/07 Q1016=
201801230550 METAR EGLL 230550Z AUTO 20009KT 9999 BKN016/// 09/06 Q1016=
201801230520 METAR EGLL 230520Z AUTO 21008KT 9999 BKN017/// 09/06 Q1017=
201801230450 METAR EGLL 230450Z AUTO 20007KT 9999 BKN022/// 09/05 Q1017=
201801230420 METAR EGLL 230420Z AUTO 21006KT 9999 BKN023/// 09/05 Q1018=
201801230350 METAR EGLL 230350Z AUTO 20007KT 9999 OVC023/// 09/05 Q1018=
201801230320 METAR EGLL 230320Z AUTO 20007KT 9999 OVC026/// 08/05 Q1018=
201801230250 METAR EGLL 230250Z AUTO 21007KT 9999 BKN030/// 08/04 Q1018=
201801230220 METAR EGLL 230220Z AUTO 20007KT 9999 OVC032/// 08/04 Q1018=
201801230150 METAR EGLL 230150Z AUTO 20007KT 9999 OVC031 08/05 Q1018=
201801230120 METAR EGLL 230120Z AUTO 21007KT 9999 OVC031 08/04 Q1019=
201801230050 METAR COR EGLL 230050Z AUTO 21008KT 9999 OVC033 08/04 Q1019
                        NOSIG=
201801230020 METAR COR EGLL 230020Z AUTO 23007KT 9999 OVC031 08/04 Q1019
                        NOSIG=
201801222350 METAR COR EGLL 222350Z AUTO 21008KT 9999 OVC033 08/04 Q1019
                        NOSIG=
201801222320 METAR COR EGLL 222320Z AUTO 20008KT 9999 OVC031 08/04 Q1019
                        NOSIG=
201801222250 METAR COR EGLL 222250Z AUTO 21007KT 9999 OVC030 08/04 Q1019
                        NOSIG=
201801222220 METAR COR EGLL 222220Z AUTO 22009KT 9999 OVC033 08/04 Q1019
                        NOSIG=
201801222150 METAR COR EGLL 222150Z AUTO 23010KT 9999 OVC034 07/04 Q1019
                        NOSIG=
201801222120 METAR COR EGLL 222120Z AUTO 22009KT 190V250 9999 BKN034 07/04
                        Q1019 NOSIG=
201801222050 METAR COR EGLL 222050Z AUTO 23009KT 9999 BKN034 07/03 Q1019
                        NOSIG=
201801222020 METAR COR EGLL 222020Z AUTO 21006KT 190V250 9999 BKN033 07/03
                        Q1018 NOSIG=
201801221950 METAR COR EGLL 221950Z AUTO 24008KT 9999 SCT036 08/03 Q1018
                        NOSIG=
201801221920 METAR COR EGLL 221920Z AUTO 26010KT 9999 BKN036 09/04 Q1018
                        NOSIG=
201801221850 METAR COR EGLL 221850Z AUTO 26010KT 9999 BKN034 09/04 Q1017
                        NOSIG=
201801221820 METAR COR EGLL 221820Z AUTO 26010KT 9999 OVC032 09/04 Q1017
                        NOSIG=
201801221750 METAR COR EGLL 221750Z AUTO 27009KT 9999 OVC037 09/04 Q1017
                        NOSIG=
201801221720 METAR COR EGLL 221720Z AUTO 28007KT 9999 OVC038 09/04 Q1017
                        NOSIG=
201801221650 METAR COR EGLL 221650Z AUTO 29007KT 260V330 9999 OVC037 10/03
                        Q1017 NOSIG=
201801221620 METAR COR EGLL 221620Z AUTO 29008KT 9999 OVC036 10/03 Q1016
                        NOSIG=
201801221550 METAR COR EGLL 221550Z AUTO 29009KT 260V320 9999 OVC035 10/03
                        Q1016 NOSIG=
201801221520 METAR COR EGLL 221520Z AUTO 29010KT 9999 OVC035 10/03 Q1015
                        NOSIG=
201801221450 METAR COR EGLL 221450Z AUTO 28011KT 9999 BKN034 10/04 Q1014
                        NOSIG=
201801221420 METAR COR EGLL 221420Z AUTO 28013KT 9999 SCT033 11/04 Q1014
                        NOSIG=
201801221350 METAR COR EGLL 221350Z AUTO 29008KT 9999 BKN031 11/04 Q1013
                        NOSIG=
201801221320 METAR COR EGLL 221320Z AUTO 28011KT 9999 BKN035 10/04 Q1013
                        NOSIG=
201801221250 METAR COR EGLL 221250Z AUTO 29009KT 260V330 9999 SCT025 OVC041
                        10/05 Q1013 NOSIG=
201801221220 METAR COR EGLL 221220Z AUTO 29009KT 9999 FEW035 OVC045 10/06
                        Q1012 NOSIG=
201801221150 METAR COR EGLL 221150Z AUTO 28008KT 9999 OVC045 10/06 Q1012
                        NOSIG=
201801221120 METAR COR EGLL 221120Z AUTO 27006KT 9999 BKN040 OVC046 09/06
                        Q1012 NOSIG=
201801221050 METAR COR EGLL 221050Z AUTO 27007KT 9999 BKN045 09/06 Q1011
                        NOSIG=
201801221020 METAR COR EGLL 221020Z AUTO 29006KT 9000 BKN047 08/06 Q1011
                        NOSIG=
201801220950 METAR COR EGLL 220950Z AUTO 29006KT 9000 FEW048 08/06 Q1010
                        NOSIG=
201801220920 METAR COR EGLL 220920Z AUTO 28006KT 9000 NCD 08/06 Q1009
                        NOSIG=
201801220850 METAR COR EGLL 220850Z AUTO 28007KT 9999 NCD 08/06 Q1009
                        NOSIG=
201801220820 METAR COR EGLL 220820Z AUTO 27006KT 9000 NCD 08/06 Q1009
                        NOSIG=
201801220750 METAR COR EGLL 220750Z AUTO 27007KT 9999 NCD 08/06 Q1008
                        NOSIG=
201801220720 METAR COR EGLL 220720Z AUTO 27006KT 9999 NCD 08/06 Q1008
                        NOSIG=
201801220650 METAR COR EGLL 220650Z AUTO 27006KT 9999 BKN029 08/06 Q1008
                        NOSIG=
201801220620 METAR COR EGLL 220620Z AUTO 26006KT 230V290 9000 BKN031 BKN037
                        08/07 Q1008 NOSIG=
201801220550 METAR COR EGLL 220550Z AUTO 27004KT 9000 BKN031 09/07 Q1007
                        NOSIG=
201801220520 METAR COR EGLL 220520Z AUTO 25006KT 9999 BKN031 OVC037 09/07
                        Q1008 NOSIG=
201801220450 METAR COR EGLL 220450Z AUTO 28005KT 9999 FEW020 OVC030 08/07
                        Q1007 NOSIG=
201801220420 METAR COR EGLL 220420Z AUTO 27004KT 9999 OVC033 09/07 Q1007
                        NOSIG=
201801220350 METAR COR EGLL 220350Z AUTO 27006KT 9999 BKN035 09/07 Q1007
                        NOSIG=
201801220320 METAR COR EGLL 220320Z AUTO 28006KT 9999 FEW025 BKN033 09/08
                        Q1007 NOSIG=
201801220250 METAR COR EGLL 220250Z AUTO 28004KT 9999 BKN015 OVC034 10/08
                        Q1007 NOSIG=
201801220220 METAR COR EGLL 220220Z AUTO 27005KT 9999 BKN015 OVC030 10/08
                        Q1007 NOSIG=
201801220150 METAR COR EGLL 220150Z AUTO 25007KT 9999 OVC013 10/08 Q1007
                        BECMG BKN018=
201801220120 METAR COR EGLL 220120Z AUTO 27007KT 9999 BKN013 BKN018 OVC037
                        10/09 Q1007 BECMG BKN015=
201801220050 METAR COR EGLL 220050Z AUTO 26011KT 9999 BKN015 BKN020 OVC037
                        10/09 Q1007 NOSIG=
201801220020 METAR COR EGLL 220020Z AUTO 26009KT 9999 BKN013 BKN017 11/09
                        Q1007 BECMG BKN015=
201801212350 METAR COR EGLL 212350Z AUTO 25009KT 9999 BKN012 OVC016 11/09
                        Q1007 BECMG BKN015=
201801212320 METAR COR EGLL 212320Z AUTO 24008KT 9999 BKN013 OVC039 11/09
                        Q1006 BECMG BKN015=
201801212250 METAR COR EGLL 212250Z AUTO 26010KT 9999 BKN013 OVC038 11/09
                        Q1006 BECMG FEW012 OVC038=
201801212220 METAR COR EGLL 212220Z AUTO 27011KT 9999 BKN013 OVC017 11/09
                        Q1006 BECMG BKN015=
201801212150 METAR COR EGLL 212150Z AUTO 25011KT 9999 BKN012 OVC019 11/10
                        Q1006 BECMG BKN015=
201801212120 METAR COR EGLL 212120Z AUTO 25009KT 9999 OVC010 12/10 Q1006
                        NOSIG=
201801212050 METAR COR EGLL 212050Z AUTO 26010KT 9999 OVC009 10/09 Q1006
                        BECMG BKN010=
201801212020 METAR COR EGLL 212020Z AUTO 27008KT 7000 OVC009 09/09 Q1006
                        NOSIG=
201801211950 METAR COR EGLL 211950Z AUTO 23007KT 5000 BR BKN009 OVC017
                        07/07 Q1006 TEMPO BKN010=
201801211920 METAR COR EGLL 211920Z AUTO 22005KT 4900 BR SCT004 BKN008
                        OVC011 07/06 Q1006 TEMPO BKN004=
201801211850 METAR COR EGLL 211850Z AUTO 17005KT 110V240 2500 -RA SCT003
                        BKN007 OVC015 06/06 Q1006 RERA TEMPO
                        4000 RA BKN003=
201801211820 METAR COR EGLL 211820Z AUTO VRB03KT 3400 RA OVC003/// //////TCU
                        06/06 Q1007 TEMPO 5000 BKN006=
201801211750 METAR COR EGLL 211750Z AUTO VRB03KT 3600 RA BKN003 OVC008
                        06/05 Q1007 TEMPO 5000 BKN006=
201801211720 METAR COR EGLL 211720Z AUTO 14005KT 110V170 4400 RA BKN004///
                        OVC010/// //////TCU 06/05 Q1007 RERA
                        TEMPO 5000 -RA BKN006=
201801211650 METAR COR EGLL 211650Z AUTO 16006KT 6000 -RA BKN004/// OVC012///
                        //////TCU 06/05 Q1008 RERA REDZ TEMPO
                        4000 RADZ=
201801211620 METAR COR EGLL 211620Z AUTO 16006KT 130V190 4200 -RADZ OVC006///
                        //////TCU 05/05 Q1008 TEMPO RADZ=
201801211550 METAR COR EGLL 211550Z AUTO 13004KT 7000 -RA OVC006 04/04
                        Q1009 TEMPO 4000 RADZ=
201801211520 METAR COR EGLL 211520Z 10005KT 070V140 7000 -RA BKN006 BKN008
                        04/03 Q1009 TEMPO 4000 RADZ=
201801211450 METAR COR EGLL 211450Z 10006KT 8000 -RA BKN006 BKN008 03/03
                        Q1010 TEMPO 4000 RADZ=
201801211420 METAR EGLL 211420Z 11008KT 7000 -RA OVC006 03/02 Q1010=
201801211350 METAR COR EGLL 211350Z 12008KT 3400 -RA SCT006 SCT008 BKN010
                        03/02 Q1011 TEMPO RA BKN006=
201801211320 METAR COR EGLL 211320Z 12008KT 3300 -RA SCT005 SCT008 BKN011
                        02/02 Q1012 RERA TEMPO RA BKN008=
201801211250 METAR COR EGLL 211250Z 11009KT 3000 RA SCT005 BKN010 02/01
                        Q1012 NOSIG=
201801211220 METAR COR EGLL 211220Z 11007KT 3500 RA FEW005 BKN008 01/01
                        Q1013 TEMPO -RA=
201801211150 METAR COR EGLL 211150Z 11007KT 4000 -RASN BKN005 BKN021 01/01
                        Q1014 TEMPO RA=
201801211120 METAR COR EGLL 211120Z 12009KT 3700 -RASN BKN005 BKN020 02/01
                        Q1014 NOSIG=
201801211050 METAR COR EGLL 211050Z 13008KT 3700 -RASN FEW004 BKN005 BKN022
                        02/01 Q1015 NOSIG=
201801211020 METAR COR EGLL 211020Z 14007KT 3700 -RASN BKN005 OVC023 02/01
                        Q1015 NOSIG=
201801210950 METAR EGLL 210950Z AUTO 12007KT 3600 -RASN SCT005 BKN011
                        OVC032 02/01 Q1015 RERA=
201801210920 METAR COR EGLL 210920Z AUTO 14005KT 090V200 3200 RA SCT006
                        BKN011 OVC030 02/01 Q1016 TEMPO 2500
                        -RASN BKN007=
201801210850 METAR COR EGLL 210850Z AUTO VRB03KT 3400 -RA SCT011 BKN016
                        OVC033 02/01 Q1016 TEMPO RA=
201801210820 METAR COR EGLL 210820Z AUTO 20004KT 150V260 3400 -RA BKN019
                        OVC036 02/01 Q1016 TEMPO RA=
201801210750 METAR COR EGLL 210750Z AUTO 22004KT 170V260 4800 HZ BKN033
                        BKN043 02/01 Q1016 TEMPO 5000 -RA=
201801210720 METAR COR EGLL 210720Z AUTO 19005KT 160V220 5000 HZ NCD 02/01
                        Q1015 TEMPO 4000=
201801210650 METAR COR EGLL 210650Z AUTO 22005KT 180V260 6000 NCD 02/01
                        Q1015 TEMPO 4000 -RA=
201801210620 METAR COR EGLL 210620Z AUTO 20004KT 160V240 5000 HZ NCD 02/01
                        Q1015 TEMPO 4000 -RA=
201801210550 METAR EGLL 210550Z VRB03KT 6000 NSC 02/01 Q1015=
201801210520 METAR COR EGLL 210520Z VRB03KT 7000 NSC 02/01 Q1015 TEMPO
                        4000 -RA=
201801210450 METAR COR EGLL 210450Z VRB02KT 7000 NSC 01/00 Q1015 TEMPO
                        4000 BR=
201801210420 METAR COR EGLL 210420Z AUTO VRB01KT 5000 HZ NCD 01/00 Q1014
                        TEMPO 4500=
201801210350 METAR COR EGLL 210350Z AUTO 31002KT 4700 HZ NCD 01/00 Q1014
                        NOSIG=
201801210320 METAR COR EGLL 210320Z AUTO 00000KT 6000 FEW008 01/00 Q1014
                        NOSIG=
201801210250 METAR COR EGLL 210250Z AUTO 32001KT 6000 FEW009 01/00 Q1014
                        NOSIG=
201801210220 METAR COR EGLL 210220Z AUTO 29002KT 6000 SCT007 01/00 Q1014
                        NOSIG=
201801210150 METAR COR EGLL 210150Z AUTO VRB02KT 7000 SCT008 02/00 Q1014
                        TEMPO BKN008=
201801210120 METAR COR EGLL 210120Z AUTO 30006KT 8000 BKN008 02/01 Q1014
                        NOSIG=
201801210050 METAR COR EGLL 210050Z AUTO 30005KT 9000 BKN009 02/01 Q1013
                        TEMPO BKN010=
201801210020 METAR EGLL 210020Z AUTO 30004KT 9999 BKN009 02/01 Q1013=
201801202350 METAR COR EGLL 202350Z AUTO 29004KT 9999 BKN009 02/01 Q1012
                        TEMPO BKN010=
201801202320 METAR COR EGLL 202320Z AUTO 30005KT 9000 BKN009 02/01 Q1011
                        TREMPO BKN010=
201801202250 METAR COR EGLL 202250Z AUTO VRB02KT 9999 BKN008 03/01 Q1010
                        TEMPO BKN010=
201801202220 METAR COR EGLL 202220Z AUTO 33005KT 270V010 9999 BKN008 OVC014
                        03/01 Q1010 NOSIG=
201801202150 METAR COR EGLL 202150Z AUTO VRB03KT 9999 BKN009 BKN029 03/02
                        Q1009 TEMPO SCT009=
201801202120 METAR COR EGLL 202120Z AUTO VRB02KT 9999 FEW010 BKN027 03/01
                        Q1008 TEMPO BKN010=
201801202050 METAR EGLL 202050Z AUTO 01005KT 340V050 9999 BKN009 03/02
                        Q1008=
201801202020 METAR COR EGLL 202020Z AUTO 36004KT 330V050 9999 BKN007 03/02
                        Q1007 TEMPO SCT007=
201801201950 METAR COR EGLL 201950Z AUTO 36005KT 9999 BKN006 BKN023 OVC029
                        03/02 Q1006 TEMPO SCT006 BKN010=
201801201920 METAR COR EGLL 201920Z AUTO 01006KT 340V040 3600 HZ OVC006
                        03/02 Q1005 NOSIG=
201801201850 METAR COR EGLL 201850Z AUTO 36005KT 340V050 9999 BKN007 OVC012
                        03/02 Q1004 NOSIG=
201801201820 METAR COR EGLL 201820Z AUTO 36006KT 9999 BKN006 03/02 Q1003
                        NOSIG=
201801201750 METAR COR EGLL 201750Z 05006KT 360V080 9999 BKN008 BKN021
                        03/02 Q1002 NOSIG=
201801201720 METAR COR EGLL 201720Z 04005KT 9999 BKN007 04/03 Q1001 NOSIG=
201801201650 METAR COR EGLL 201650Z 05005KT 010V090 9999 FEW005 BKN009
                        04/03 Q1000 NOSIG=
201801201620 METAR COR EGLL 201620Z 05005KT 7000 SCT004 BKN009 04/03 Q1000
                        NOSIG=
201801201550 METAR COR EGLL 201550Z 04005KT 6000 SCT004 BKN009 05/04 Q0999
                        TEMPO BKN004=
201801201520 METAR COR EGLL 201520Z 05006KT 3500 -RADZ SCT004 BKN007 05/04
                        Q0999 TEMPO BKN004=
201801201450 METAR COR EGLL 201450Z 05004KT 2600 -RADZ SCT003 BKN007 BKN010
                        05/04 Q0998 TEMPO BKN004=
201801201420 METAR COR EGLL 201420Z 08006KT 2500 -RADZ SCT003 BKN006 BKN008
                        05/04 Q0998 NOSIG=
201801201350 METAR COR EGLL 201350Z 07005KT 2300 -RADZ BKN004 BKN008 05/04
                        Q0998 NOSIG=
201801201320 METAR COR EGLL 201320Z 08006KT 2900 -RADZ FEW004 BKN006 04/04
                        Q0998 RERA REDZ TEMPO BKN004=
201801201250 METAR COR EGLL 201250Z AUTO 09008KT 2300 HZ BKN005 OVC009
                        05/04 Q0998 NOSIG=
201801201220 METAR COR EGLL 201220Z 10007KT 3500 -RADZ SCT005 BKN011 04/03
                        Q0999 TEMPO BKN006=
201801201150 METAR COR EGLL 201150Z AUTO 08006KT 3800 -RADZ BKN004 OVC011
                        04/04 Q0999 RERA REDZ BECMG BKN006=
201801201120 METAR COR EGLL 201120Z AUTO 08006KT 3800 -RADZ BKN004 BKN009
                        OVC014 04/04 Q0999 REDZ BECMG BKN006=
201801201050 METAR COR EGLL 201050Z AUTO 07007KT 3200 -RADZ BKN004 BKN008
                        BKN014 04/04 Q1000 BECMG FEW004 BKN008=
201801201020 METAR COR EGLL 201020Z AUTO 07005KT 6000 -RA BKN016 OVC021
                        04/03 Q1000 TEMPO 4000 -RADZ BKN010=
201801200950 METAR COR EGLL 200950Z AUTO 06005KT 6000 -RA OVC018 04/03
                        Q1000 TEMPO BKN014=
201801200920 METAR COR EGLL 200920Z AUTO 06005KT 9000 -RA BKN020 OVC034
                        04/03 Q1000 TEMPO BKN014=
201801200850 METAR COR EGLL 200850Z AUTO 07004KT 6000 -RA FEW018 BKN023
                        OVC032 04/03 Q1000 NOSIG=
201801200820 METAR COR EGLL 200820Z AUTO 12006KT 3400 -RADZ BKN013 OVC030
                        04/03 Q1001 TEMPO 6000 -RADZ BKN018=
201801200750 METAR COR EGLL 200750Z AUTO 14005KT 120V190 4300 -RA SCT017
                        BKN027 OVC036 04/03 Q1001 TEMPO 6000
                        -RADZ=
201801200720 METAR COR EGLL 200720Z AUTO 15004KT 120V200 9999 -RA SCT018
                        BKN024 OVC038 04/03 Q1002 TEMPO RA=
201801200650 METAR COR EGLL 200650Z AUTO 17006KT 120V210 9999 -RA BKN021
                        BKN029 OVC049 04/03 Q1002 TEMPO RA=
201801200620 METAR COR EGLL 200620Z AUTO 19004KT 150V280 9999 -RA SCT029
                        OVC034 04/02 Q1003 NOSIG=
201801200550 METAR COR EGLL 200550Z AUTO 18004KT 9999 -RA BKN038 BKN045
                        04/02 Q1003 NOSIG=
201801200520 METAR COR EGLL 200520Z AUTO 17004KT 9999 -RA FEW034 SCT041
                        BKN047 04/02 Q1004 NOSIG=
201801200450 METAR COR EGLL 200450Z AUTO 20004KT 110V280 9999 -RA SCT030
                        BKN037 OVC047 04/02 Q1004 NOSIG=
201801200420 METAR COR EGLL 200420Z AUTO 21005KT 9999 NCD 03/01 Q1005
                        NOSIG=
201801200350 METAR COR EGLL 200350Z AUTO 21005KT 9999 NCD 03/01 Q1005
                        NOSIG=
201801200320 METAR COR EGLL 200320Z AUTO VRB02KT 9999 NCD 03/01 Q1006
                        NOSIG=
201801200250 METAR COR EGLL 200250Z AUTO 18001KT 9999 NCD 03/01 Q1007
                        NOSIG=
201801200220 METAR COR EGLL 200220Z AUTO 17002KT 9999 NCD 02/00 Q1007
                        NOSIG=
201801200150 METAR COR EGLL 200150Z AUTO 21005KT 9999 NCD 02/00 Q1008
                        NOSIG=
201801200120 METAR COR EGLL 200120Z AUTO 22006KT 9999 NCD 02/00 Q1008
                        NOSIG=
201801200050 METAR COR EGLL 200050Z AUTO 23004KT 9999 NCD 02/00 Q1009
                        NOSIG=
201801200020 METAR COR EGLL 200020Z AUTO 22004KT 9999 NCD 02/00 Q1009
                        NOSIG=
201801192350 METAR COR EGLL 192350Z AUTO 23007KT 9999 NCD 02/00 Q1009
                        NOSIG=
201801192320 METAR COR EGLL 192320Z AUTO 22006KT 9999 NCD 02/00 Q1009
                        NOSIG=
201801192250 METAR EGLL 192250Z AUTO 23009KT 9999 NCD 03/00 Q1009=
201801192220 METAR COR EGLL 192220Z AUTO 23009KT 9999 NCD 03/00 Q1010
                        NOSIG=
201801192150 METAR COR EGLL 192150Z AUTO 23010KT 9999 NCD 03/01 Q1009
                        NOSIG=
201801192120 METAR COR EGLL 192120Z AUTO 24011KT 9999 NCD 04/01 Q1009
                        NOSIG=
201801192050 METAR COR EGLL 192050Z AUTO 24011KT 9999 NCD 04/01 Q1009
                        NOSIG=
201801192020 METAR COR EGLL 192020Z AUTO 25013KT 9999 NCD 04/00 Q1009
                        NOSIG=
201801191950 METAR COR EGLL 191950Z AUTO 25012KT 9999 NCD 04/00 Q1009
                        NOSIG=
201801191920 METAR COR EGLL 191920Z AUTO 25012KT 9999 NCD 05/M00 Q1009
                        NOSIG=
201801191850 METAR COR EGLL 191850Z AUTO 25012KT 9999 NCD 05/M00 Q1009
                        NOSIG=
201801191820 METAR COR EGLL 191820Z AUTO 24010KT 9999 NCD 05/00 Q1009
                        NOSIG=
201801191750 METAR COR EGLL 191750Z AUTO 24011KT 9999 NCD 05/00 Q1009
                        NOSIG=
201801191720 METAR COR EGLL 191720Z AUTO 24010KT 9999 NCD 05/00 Q1009
                        NOSIG=
201801191650 METAR COR EGLL 191650Z 25013KT 9999 FEW038 06/00 Q1009 NOSIG=
201801191620 METAR COR EGLL 191620Z 25013KT 9999 FEW038 SCT047 06/00 Q1009
                        NOSIG=
201801191550 METAR COR EGLL 191550Z AUTO 25012KT 9999 NCD 07/01 Q1009
                        NOSIG=
201801191520 METAR COR EGLL 191520Z 25013KT 9999 SCT047 07/M00 Q1009 NOSIG=
201801191450 METAR COR EGLL 191450Z AUTO 26016KT 9999 FEW044 06/M01 Q1009
                        NOSIG=
201801191420 METAR COR EGLL 191420Z AUTO 27016KT 9999 FEW041 07/M01 Q1009
                        NOSIG=
201801191350 METAR COR EGLL 191350Z AUTO 27015KT 9999 FEW040 07/M00 Q1009
                        NOSIG=
201801191320 METAR COR EGLL 191320Z AUTO 26014KT 9999 NCD 07/01 Q1009
                        NOSIG=
201801191250 METAR COR EGLL 191250Z AUTO 25016KT 9999 ////// 06/01 Q1009
                        NOSIG=
201801191220 METAR COR EGLL 191220Z AUTO 26011KT 9999 NCD 06/00 Q1010
                        NOSIG=
201801191150 METAR COR EGLL 191150Z AUTO 27011KT 9999 NCD 06/00 Q1010
                        NOSIG=
201801191120 METAR COR EGLL 191120Z AUTO 26010KT 9999 NCD 06/01 Q1010
                        NOSIG=
201801191050 METAR COR EGLL 191050Z AUTO 27011KT 9999 NCD 05/01 Q1010
                        NOSIG=
201801191020 METAR COR EGLL 191020Z AUTO 25008KT 9999 NCD 04/01 Q1010
                        NOSIG=
201801190950 METAR COR EGLL 190950Z AUTO 24007KT 9999 NCD 03/01 Q1010
                        NOSIG=
201801190920 METAR COR EGLL 190920Z AUTO 23007KT 9999 NCD 02/00 Q1009
                        NOSIG=
201801190850 METAR COR EGLL 190850Z AUTO 21006KT 180V250 9999 NCD 00/M01
                        Q1009 NOSIG=
201801190820 METAR COR EGLL 190820Z AUTO 16004KT 140V220 9999 NCD M00/M02
                        Q1009 NOSIG=
201801190750 METAR COR EGLL 190750Z AUTO 21005KT 180V250 9999 NCD 00/M01
                        Q1009 NOSIG=
201801190720 METAR COR EGLL 190720Z AUTO 25008KT 220V290 9999 NCD 01/M01
                        Q1009 NOSIG=
201801190650 METAR COR EGLL 190650Z AUTO 23007KT 9999 NCD 01/M00 Q1009
                        NOSIG=
201801190620 METAR COR EGLL 190620Z AUTO 21007KT 9999 NCD 01/M00 Q1009
                        NOSIG=
201801190550 METAR COR EGLL 190550Z AUTO 21007KT 9999 NCD 01/M00 Q1008
                        NOSIG=
201801190520 METAR COR EGLL 190520Z AUTO 21007KT 9999 NCD 01/M00 Q1008
                        NOSIG=
201801190450 METAR COR EGLL 190450Z AUTO 23006KT 9999 NCD 02/M00 Q1008
                        NOSIG=
201801190420 METAR COR EGLL 190420Z AUTO 23006KT 9999 NCD 02/M01 Q1008
                        NOSIG=
201801190350 METAR COR EGLL 190350Z AUTO 23006KT 9999 NCD 02/M01 Q1008
                        NOSIG=
201801190320 METAR COR EGLL 190320Z AUTO 23005KT 9999 NCD 02/M00 Q1008
                        NOSIG=
201801190250 METAR COR EGLL 190250Z AUTO 24006KT 9999 NCD 02/M00 Q1008
                        NOSIG=
201801190220 METAR COR EGLL 190220Z AUTO 26004KT 9999 NCD 02/M00 Q1008
                        NOSIG=
201801190150 METAR COR EGLL 190150Z AUTO 23004KT 210V270 9999 NCD 02/M00
                        Q1007 NOSIG=
201801190120 METAR COR EGLL 190120Z AUTO 26006KT 9999 NCD 03/M00 Q1007
                        NOSIG=
201801190050 METAR COR EGLL 190050Z AUTO 26007KT 9999 NCD 03/M00 Q1007
                        NOSIG=
201801190020 METAR COR EGLL 190020Z AUTO 25007KT 9999 NCD 03/M00 Q1007
                        NOSIG=
201801182350 METAR COR EGLL 182350Z AUTO 25007KT 9999 NCD 03/M00 Q1007
                        NOSIG=
201801182320 METAR COR EGLL 182320Z AUTO 25010KT 9999 NCD 04/M00 Q1007
                        NOSIG=
201801182250 METAR COR EGLL 182250Z AUTO 26007KT 9999 NCD 04/M00 Q1007
                        NOSIG=
201801182220 METAR EGLL 182220Z AUTO 28008KT 9999 NCD 04/M00 Q1006=
201801182150 METAR COR EGLL 182150Z AUTO 28009KT 9999 NCD 04/M00 Q1006
                        NOSIG=
201801182120 METAR COR EGLL 182120Z AUTO 28009KT 9999 NCD 05/M00 Q1006
                        NOSIG=
201801182050 METAR COR EGLL 182050Z AUTO 27011KT 9999 NCD 05/00 Q1006
                        NOSIG=
201801182020 METAR COR EGLL 182020Z AUTO 26011KT 9999 FEW042 05/00 Q1005
                        NOSIG=
201801181950 METAR COR EGLL 181950Z AUTO 27011KT 9999 FEW045 05/01 Q1005
                        NOSIG=
201801181920 METAR COR EGLL 181920Z AUTO 27009KT 9999 SCT041 BKN047 05/01
                        Q1004 NOSIG=
201801181850 METAR COR EGLL 181850Z AUTO 27012KT 9999 NCD 05/01 Q1004
                        NOSIG=
201801181820 METAR COR EGLL 181820Z AUTO 27009KT 9999 NCD 06/02 Q1004
                        NOSIG=
201801181750 METAR COR EGLL 181750Z AUTO 27011KT 9999 NCD 06/02 Q1003
                        NOSIG=
201801181720 METAR COR EGLL 181720Z AUTO 27010KT 9999 NCD 06/01 Q1003
                        NOSIG=
201801181650 METAR COR EGLL 181650Z AUTO 28011KT 9999 NCD 07/01 Q1002
                        NOSIG=
201801181620 METAR COR EGLL 181620Z AUTO 27014KT 9999 //////TCU 07/02
                        Q1002 NOSIG=
201801181550 METAR COR EGLL 181550Z 27015KT 9999 4500SE VCSH FEW046CB
                        08/02 Q1002 NOSIG=
201801181520 METAR COR EGLL 181520Z AUTO 28011KT 9999 ///////// 08/02
                        Q1002 NOSIG=
201801181450 METAR COR EGLL 181450Z AUTO 27017KT 9999 FEW041/// //////TCU
                        09/02 Q1002 NOSIG=
201801181420 METAR COR EGLL 181420Z AUTO 27012KT 9999 FEW037/// SCT046///
                        //////CB 09/02 Q1002 NOSIG=
201801181350 METAR COR EGLL 181350Z AUTO 26014KT 9999 SCT042 08/02 Q1002
                        NOSIG=
201801181320 METAR COR EGLL 181320Z AUTO 27016KT 9999 SCT035 09/02 Q1002
                        NOSIG=
201801181250 METAR COR EGLL 181250Z AUTO 27015KT 9999 SCT033 SCT041 09/02
                        Q1002 NOSIG=
201801181220 METAR COR EGLL 181220Z AUTO 26016KT 9999 SCT032 SCT039 09/02
                        Q1002 NOSIG=
201801181150 METAR COR EGLL 181150Z AUTO 26016KT 9999 BKN030 09/02 Q1002
                        NOSIG=
201801181120 METAR COR EGLL 181120Z AUTO 26014KT 9999 FEW034 08/02 Q1002
                        NOSIG=
201801181050 METAR COR EGLL 181050Z AUTO 27016KT 9999 NCD 08/01 Q1002
                        NOSIG=
201801181020 METAR COR EGLL 181020Z AUTO 27017KT 9999 NCD 08/01 Q1002
                        NOSIG=
201801180950 METAR COR EGLL 180950Z AUTO 27019KT 9999 NCD 07/01 Q1002
                        NOSIG=
201801180920 METAR COR EGLL 180920Z AUTO 27016KT 9999 NCD 06/01 Q1002
                        NOSIG=
201801180850 METAR COR EGLL 180850Z AUTO 28017G27KT 9999 NCD 07/01 Q1001
                        NOSIG=
201801180820 METAR COR EGLL 180820Z AUTO 28017KT 9999 NCD 07/01 Q1000
                        NOSIG=
201801180750 METAR COR EGLL 180750Z AUTO 28018KT 9999 NCD 07/01 Q0999
                        NOSIG=
201801180720 METAR COR EGLL 180720Z AUTO 28021G32KT 9999 FEW041 08/00
                        Q0998 NOSIG=
201801180650 METAR COR EGLL 180650Z AUTO 29023G36KT 9999 FEW038 08/01
                        Q0997 NOSIG=
201801180620 METAR COR EGLL 180620Z AUTO 28020KT 9999 BKN039 BKN048 09/01
                        Q0996 NOSIG=
201801180550 METAR COR EGLL 180550Z AUTO 28027G40KT 9999 SCT042 BKN049
                        10/02 Q0995 NOSIG=
201801180520 METAR COR EGLL 180520Z AUTO 27028G38KT 9000 SCT037 BKN043
                        10/03 Q0993 NOSIG=
201801180450 METAR COR EGLL 180450Z AUTO 27029G43KT 8000 BKN037 11/04
                        Q0993 NOSIG=
201801180420 METAR COR EGLL 180420Z AUTO 26033G45KT 9000 BKN036 BKN048
                        11/04 Q0992 NOSIG=
201801180350 METAR COR EGLL 180350Z AUTO 26039G55KT 9999 BKN037 BKN045
                        12/05 Q0991 TEMPO 26025G45KT=
201801180320 METAR COR EGLL 180320Z AUTO 26031G45KT 9999 BKN036 BKN043
                        12/06 Q0991 NOSIG=
201801180250 METAR COR EGLL 180250Z AUTO 26027G41KT 9999 BKN034 BKN045
                        12/07 Q0992 NOSIG=
201801180220 METAR COR EGLL 180220Z AUTO 25023G34KT 9999 SCT023 BKN030
                        BKN039 11/07 Q0992 NOSIG=
201801180150 METAR COR EGLL 180150Z AUTO 24021KT 9999 -RA SCT018 BKN022
                        10/08 Q0993 NOSIG=
201801180120 METAR COR EGLL 180120Z AUTO 24021KT 7000 BKN015 BKN023 OVC032
                        10/08 Q0994 NOSIG=
201801180050 METAR COR EGLL 180050Z AUTO 23021KT 9000 -RA SCT013 BKN020
                        BKN025 09/08 Q0995 NOSIG=
201801180020 METAR COR EGLL 180020Z AUTO 22017KT 7000 -RA SCT013 BKN017
                        OVC025 08/07 Q0996 NOSIG=
201801172350 METAR COR EGLL 172350Z AUTO 21017KT 8000 -RA SCT012 BKN016
                        BKN020 07/06 Q0997 NOSIG=
201801172320 METAR COR EGLL 172320Z AUTO 20015KT 9999 -RA SCT016 SCT027
                        BKN039 07/05 Q0999 NOSIG=
201801172250 METAR COR EGLL 172250Z AUTO 20013KT 9000 -RA FEW019 BKN025
                        BKN033 06/04 Q1001 TEMPO RA=
201801172220 METAR COR EGLL 172220Z AUTO 21011KT 9999 -RA FEW028 BKN046
                        06/03 Q1003 TEMPO RA=
201801172150 METAR COR EGLL 172150Z AUTO 21011KT 9999 -RA SCT036 SCT043
                        06/03 Q1004 TEMPO RA=
201801172120 METAR COR EGLL 172120Z AUTO 22013KT 9999 FEW045 06/02 Q1005
                        TEMPO RA=
201801172050 METAR COR EGLL 172050Z AUTO 22011KT 9999 NCD 06/01 Q1006
                        TEMPO RA=
201801172020 METAR COR EGLL 172020Z AUTO 22011KT 9999 NCD 06/01 Q1007
                        TEMPO RA=
201801171950 METAR COR EGLL 171950Z AUTO 23011KT 9999 NCD 06/01 Q1008
                        NOSIG=
201801171920 METAR COR EGLL 171920Z AUTO 23012KT 9999 NCD 06/01 Q1008
                        NOSIG=
201801171850 METAR COR EGLL 171850Z AUTO 23010KT 9999 NCD 06/01 Q1009
                        NOSIG=
201801171820 METAR COR EGLL 171820Z AUTO 24011KT 9999 NCD 06/01 Q1008
                        NOSIG=
201801171750 METAR COR EGLL 171750Z AUTO 23009KT 9999 NCD 06/00 Q1008
                        NOSIG=
201801171720 METAR COR EGLL 171720Z AUTO 23010KT 9999 NCD 06/00 Q1009
                        NOSIG=
201801171650 METAR COR EGLL 171650Z AUTO 24012KT 9999 NCD 06/M00 Q1009
                        NOSIG=
201801171620 METAR COR EGLL 171620Z AUTO 26013KT 9999 NCD 06/M01 Q1009
                        NOSIG=
201801171550 METAR COR EGLL 171550Z AUTO 27016KT 9999 NCD 07/M01 Q1009
                        NOSIG=
201801171520 METAR EGLL 171520Z AUTO 27017KT 9999 FEW049 07/M01 Q1009=
201801171450 METAR COR EGLL 171450Z AUTO 27018KT 9999 SCT044 07/M01 Q1009
                        NOSIG=
201801171420 METAR COR EGLL 171420Z AUTO 27017KT 9999 FEW044 07/M01 Q1009
                        NOSIG=
201801171350 METAR COR EGLL 171350Z AUTO 27022KT 9999 BKN040 BKN049 08/M01
                        Q1009 NOSIG=
201801171320 METAR COR EGLL 171320Z AUTO 27020KT 9999 BKN039 BKN047 07/M00
                        Q1008 NOSIG=
201801171250 METAR COR EGLL 171250Z AUTO 27021KT 9999 FEW039 SCT047 07/M01
                        Q1008 NOSIG=
201801171220 METAR COR EGLL 171220Z AUTO 27019KT 9999 NCD 07/M00 Q1008
                        NOSIG=
201801171150 METAR COR EGLL 171150Z AUTO 28019G31KT 9999 NCD 07/M01 Q1008
                        NOSIG=
201801171120 METAR COR EGLL 171120Z AUTO 27020KT 9999 NCD 07/M01 Q1008
                        NOSIG=
201801171050 METAR COR EGLL 171050Z AUTO 27022KT 9999 NCD 06/M01 Q1007
                        NOSIG=
201801171020 METAR COR EGLL 171020Z AUTO 27019KT 9999 NCD 06/M01 Q1007
                        NOSIG=
201801170950 METAR COR EGLL 170950Z AUTO 27021KT 9999 NCD 05/M01 Q1006=
201801170920 METAR COR EGLL 170920Z AUTO 27018KT 9999 NCD 04/M01 Q1006
                        NOSIG=
201801170850 METAR COR EGLL 170850Z AUTO 27020KT 9999 NCD 04/M01 Q1005
                        NOSIG=
201801170820 METAR COR EGLL 170820Z AUTO 27018KT 9999 NCD 04/M01 Q1005
                        NOSIG=
201801170750 METAR COR EGLL 170750Z AUTO 27015KT 9999 NCD 03/M01 Q1004
                        NOSIG=
201801170720 METAR COR EGLL 170720Z AUTO 27018KT 9999 NCD 04/M01 Q1003
                        NOSIG=
201801170650 METAR COR EGLL 170650Z AUTO 27019G29KT 9999 NCD 04/M02 Q1002
                        NOSIG=
201801170620 METAR COR EGLL 170620Z AUTO 26019KT 9999 NCD 03/M02 Q1002
                        NOSIG=
201801170550 METAR COR EGLL 170550Z AUTO 27018KT 9999 NCD 03/M02 Q1001
                        NOSIG=
201801170520 METAR COR EGLL 170520Z AUTO 27016KT 9999 NCD 03/M02 Q1001
                        NOSIG=
201801170450 METAR COR EGLL 170450Z AUTO 27014KT 9999 FEW046 03/M02 Q1000
                        NOSIG=
201801170420 METAR COR EGLL 170420Z AUTO 27013KT 9999 NCD 03/M02 Q1000
                        NOSIG=
201801170350 METAR COR EGLL 170350Z AUTO 27014KT 9999 NCD 02/M02 Q0999
                        NOSIG=
201801170320 METAR COR EGLL 170320Z AUTO 26014KT 9999 NCD 03/M01 Q0999
                        NOSIG=
201801170250 METAR COR EGLL 170250Z AUTO 27015G25KT 9999 FEW032 03/M02
                        Q0998 NOSIG=
201801170220 METAR COR EGLL 170220Z AUTO 27013KT 9999 SCT036 03/M02 Q0998
                        NOSIG=
201801170150 METAR COR EGLL 170150Z AUTO 27016KT 9999 NCD 03/M02 Q0997
                        NOSIG=
201801170120 METAR COR EGLL 170120Z AUTO 26017KT 9999 NCD 03/M02 Q0997
                        NOSIG=
201801170050 METAR COR EGLL 170050Z AUTO 26017KT 9999 NCD 03/M02 Q0996
                        NOSIG=
201801170020 METAR COR EGLL 170020Z AUTO 26017KT 9999 NCD 03/M01 Q0996
                        NOSIG=
201801162350 METAR COR EGLL 162350Z AUTO 25019KT 9999 FEW046 03/M01 Q0996
                        NOSIG=
201801162320 METAR COR EGLL 162320Z AUTO 26015KT 9999 NCD 04/M00 Q0996
                        NOSIG=
201801162250 METAR COR EGLL 162250Z AUTO 25016KT 9999 FEW045 04/M00 Q0995
                        NOSIG=
201801162220 METAR COR EGLL 162220Z AUTO 26016KT 9999 NCD 04/M01 Q0995
                        NOSIG=
201801162150 METAR COR EGLL 162150Z AUTO 26016KT 9999 NCD 04/00 Q0995
                        NOSIG=
201801162120 METAR COR EGLL 162120Z AUTO 26016KT 9999 NCD 04/00 Q0995
                        NOSIG=
201801162050 METAR COR EGLL 162050Z AUTO 25014KT 9999 NCD 04/00 Q0994
                        NOSIG=
201801162020 METAR COR EGLL 162020Z AUTO 25014KT 9999 NCD 04/01 Q0995
                        NOSIG=
201801161950 METAR COR EGLL 161950Z AUTO 25014KT 9999 NCD 04/01 Q0995
                        NOSIG=
201801161920 METAR COR EGLL 161920Z AUTO 25014KT 9999 NCD 04/01 Q0995
                        NOSIG=
201801161850 METAR COR EGLL 161850Z AUTO 26015KT 9999 NCD 04/01 Q0995
                        NOSIG=
201801161820 METAR COR EGLL 161820Z AUTO 25014KT 9999 NCD 04/00 Q0994
                        NOSIG=
201801161750 METAR COR EGLL 161750Z AUTO 25014KT 9999 //////TCU 05/00
                        Q0994 TEMPO SHRASN=
201801161720 METAR COR EGLL 161720Z AUTO 24017KT 9999 //////TCU 05/01
                        Q0995 TEMPO SHRASN=
201801161650 METAR COR EGLL 161650Z AUTO 23014KT 9999 NCD 06/01 Q0995
                        TEMPO SHGS=
201801161620 METAR COR EGLL 161620Z AUTO 25014KT 9999 NCD 06/M01 Q0995
                        TEMPO SHRA=
201801161550 METAR COR EGLL 161550Z AUTO 24012KT 9999 NCD 06/M00 Q0995
                        TEMPO SHRA=
201801161520 METAR COR EGLL 161520Z AUTO 25015KT 9999 NCD 06/M01 Q0996
                        TEMPO SHRA=
201801161450 METAR COR EGLL 161450Z AUTO 26019KT 9999 FEW049 07/M01 Q0996
                        NOSIG=
201801161420 METAR COR EGLL 161420Z AUTO 26018KT 9999 FEW048 07/M01 Q0996
                        TEMPO SHRA=
201801161350 METAR COR EGLL 161350Z AUTO 27021KT 9999 SCT045 08/M02 Q0996
                        NOSIG=
201801161320 METAR COR EGLL 161320Z AUTO 26019KT 9999 FEW048 08/M01 Q0996
                        NOSIG=
201801161250 METAR COR EGLL 161250Z AUTO 26022KT 9999 SCT041 07/M00 Q0996
                        NOSIG=
201801161220 METAR COR EGLL 161220Z AUTO 27017KT 9999 FEW042 08/00 Q0997
                        NOSIG=
201801161150 METAR COR EGLL 161150Z AUTO 26020KT 9999 NCD 07/00 Q0997
                        NOSIG=
201801161120 METAR COR EGLL 161120Z AUTO 26017KT 9999 NCD 06/01 Q0997
                        NOSIG=
201801161050 METAR COR EGLL 161050Z AUTO 26018KT 9999 NCD 06/01 Q0997
                        NOSIG=
201801161020 METAR COR EGLL 161020Z AUTO 26019KT 9999 NCD 06/01 Q0997
                        NOSIG=
201801160950 METAR COR EGLL 160950Z AUTO 25018KT 9999 NCD 06/01 Q0997
                        NOSIG=
201801160920 METAR COR EGLL 160920Z AUTO 26019KT 9999 NCD 06/01 Q0996
                        NOSIG=
201801160850 METAR COR EGLL 160850Z AUTO 26017KT 9999 NCD 06/00 Q0996
                        NOSIG=
201801160820 METAR COR EGLL 160820Z AUTO 26017KT 9999 NCD 06/00 Q0996
                        NOSIG=
201801160750 METAR COR EGLL 160750Z AUTO 26016KT 9999 NCD 06/01 Q0995
                        NOSIG=
201801160720 METAR COR EGLL 160720Z AUTO 26016KT 9999 NCD 06/01 Q0995
                        NOSIG=
201801160650 METAR COR EGLL 160650Z AUTO 26017KT 9999 NCD 06/01 Q0995
                        NOSIG=
201801160620 METAR COR EGLL 160620Z AUTO 27016KT 9999 NCD 06/01 Q0994
                        NOSIG=
201801160550 METAR COR EGLL 160550Z AUTO 26016KT 9999 NCD 06/02 Q0994
                        TEMPO SHRA=
201801160520 METAR COR EGLL 160520Z AUTO 26015KT 9999 NCD 06/02 Q0994
                        TEMPO SHRA=
201801160450 METAR COR EGLL 160450Z AUTO 26015KT 9999 NCD 06/03 Q0993
                        NOSIG=
201801160420 METAR COR EGLL 160420Z AUTO 25011KT 9999 FEW026 06/04 Q0993
                        NOSIG=
201801160350 METAR COR EGLL 160350Z AUTO 25013KT 9999 -RA FEW026 06/04
                        Q0993 NOSIG=
201801160320 METAR COR EGLL 160320Z AUTO 25014KT 9999 NCD 06/03 Q0993
                        TEMPO SHRA=
201801160250 METAR COR EGLL 160250Z AUTO 25014KT 9999 NCD 06/03 Q0993
                        NOSIG=
201801160220 METAR COR EGLL 160220Z AUTO 25014KT 9999 //////TCU 06/04
                        Q0993 NOSIG=
201801160150 METAR COR EGLL 160150Z AUTO 25016KT 9999 NCD 07/03 Q0994
                        TEMPO SHRA=
201801160120 METAR COR EGLL 160120Z AUTO 24014KT 9999 FEW048 07/03 Q0994
                        TEMPO SHRA=
201801160050 METAR COR EGLL 160050Z AUTO 24014KT 9999 NCD 07/03 Q0994
                        TEMPO SHRA=
201801160020 METAR COR EGLL 160020Z AUTO 24012KT 9999 NCD 07/03 Q0994
                        NOSIG=
201801152350 METAR COR EGLL 152350Z AUTO 24011KT 9999 NCD 07/04 Q0994
                        NOSIG=
201801152320 METAR COR EGLL 152320Z AUTO 23011KT 9999 FEW027 07/04 Q0994
                        NOSIG=
201801152250 METAR COR EGLL 152250Z AUTO 24012KT 9999 NCD 07/03 Q0995
                        NOSIG=
201801152220 METAR COR EGLL 152220Z AUTO 24013KT 9999 NCD 07/04 Q0995
                        NOSIG=
201801152150 METAR COR EGLL 152150Z AUTO 24012KT 9999 NCD 07/04 Q0995
                        NOSIG=
201801152120 METAR COR EGLL 152120Z AUTO 24013KT 9999 NCD 07/04 Q0995
                        NOSIG=
201801152050 METAR COR EGLL 152050Z AUTO 24014KT 9999 NCD 07/04 Q0995
                        NOSIG=
201801152020 METAR COR EGLL 152020Z AUTO 24013KT 9999 NCD 07/03 Q0995
                        NOSIG=
201801151950 METAR COR EGLL 151950Z AUTO 25013KT 9999 NCD 07/03 Q0994
                        NOSIG=
201801151920 METAR COR EGLL 151920Z AUTO 24009KT 9999 NCD 07/04 Q0995
                        NOSIG=
201801151850 METAR COR EGLL 151850Z AUTO 26011KT 9999 NCD 07/04 Q0995
                        NOSIG=
201801151820 METAR COR EGLL 151820Z AUTO 27010KT 9999 NCD 07/05 Q0995
                        NOSIG=
201801151750 METAR COR EGLL 151750Z AUTO 28013KT 9999 NCD 08/05 Q0994
                        NOSIG=
201801151720 METAR COR EGLL 151720Z AUTO 27017KT 9999 FEW031 SCT037 09/05
                        Q0993 NOSIG=
201801151650 METAR COR EGLL 151650Z AUTO 26016KT 9999 SCT034 BKN042 10/06
                        Q0993 TEMPO SHRA=
201801151620 METAR COR EGLL 151620Z AUTO 26015KT 9999 NCD 10/07 Q0993
                        TEMPO SHRA=
201801151550 METAR COR EGLL 151550Z AUTO 27013KT 9999 BKN030 10/07 Q0992
                        TEMPO SHRA=
201801151520 METAR COR EGLL 151520Z AUTO 27014KT 9999 NCD 10/07 Q0992
                        TEMPO SHRA=
201801151450 METAR COR EGLL 151450Z AUTO 26016KT 9999 -RA FEW044 11/08
                        Q0992 TEMPO SHRA=
201801151420 METAR COR EGLL 151420Z AUTO 26015KT 9999 FEW024 11/08 Q0992
                        TEMPO SHRA=
201801151350 METAR COR EGLL 151350Z AUTO 26017KT 9999 //////TCU 11/09
                        Q0992 TEMPO SHRA=
201801151320 METAR COR EGLL 151320Z AUTO 25016KT 9999 -RA //////CB 11/09
                        Q0992 TEMPO SHRA=
201801151250 METAR COR EGLL 151250Z AUTO 25016KT 210V270 9999 -RA FEW013
                        SCT021 BKN029 11/09 Q0992 NOSIG=
201801151220 METAR COR EGLL 151220Z AUTO 22013KT 9999 -RA SCT010 SCT016
                        BKN030 11/09 Q0993 TEMPO SHRA SCT010=
201801151150 METAR COR EGLL 151150Z AUTO 20013KT 180V250 9000 -RA SCT009
                        BKN014 BKN023 10/09 Q0993 TEMPO SHRA
                        BKN009=
201801151120 METAR COR EGLL 151120Z AUTO 21013KT 9999 SCT010 BKN043 10/09
                        Q0994 TEMPO SHRA BKN010=
201801151050 METAR COR EGLL 151050Z AUTO 21013KT 180V240 9999 -RA SCT008///
                        BKN012/// OVC045/// //////CB 10/09
                        Q0995 TEMPO SHRA=
201801151020 METAR COR EGLL 151020Z AUTO 20013KT 170V250 9999 -RA SCT007///
                        BKN011/// BKN016/// //////TCU 10/09
                        Q0996 TEMPO BKN007=
201801150950 METAR EGLL 150950Z AUTO 21012KT 8000 -RA BKN006 BKN011 OVC017
                        10/09 Q0997=
201801150920 METAR COR EGLL 150920Z AUTO 21013KT 8000 -RA BKN007 OVC016
                        09/08 Q0998 TEMPO 4000 -RADZ=
201801150850 METAR COR EGLL 150850Z AUTO 21015KT 9999 BKN008 OVC020 09/08
                        Q0998 TEMPO 4000 -RADZ=
201801150820 METAR COR EGLL 150820Z AUTO 21016G27KT 4000 -RA BKN009 OVC019
                        08/07 Q0999 TEMPO 6000 BKN012=
201801150750 METAR COR EGLL 150750Z AUTO 20017KT 8000 -RA BKN008 OVC015
                        08/07 Q1000 TEMPO SCT008 BKN010=
201801150720 METAR COR EGLL 150720Z AUTO 21017KT 8000 -RA BKN010/// OVC018///
                        //////TCU 08/07 Q1000 TEMPO SCT010=
201801150650 METAR COR EGLL 150650Z AUTO 20017KT 9999 -RA SCT012 BKN017
                        OVC042 08/07 Q1001 TEMPO BKN012=
201801150620 METAR COR EGLL 150620Z AUTO 20017KT 9999 -RA BKN011/// BKN019///
                        //////TCU 08/07 Q1002 TEMPO SCT011=
201801150550 METAR COR EGLL 150550Z AUTO 20018KT 8000 -RA SCT016 BKN021
                        BKN028 08/06 Q1003 TEMPO BKN012=
201801150520 METAR COR EGLL 150520Z AUTO 20015KT 9999 -RA SCT018/// BKN026///
                        BKN036/// //////TCU 08/06 Q1004 TEMPO
                        BKN012=
201801150450 METAR COR EGLL 150450Z AUTO 20013KT 9999 -RA FEW014 SCT023
                        BKN032 08/06 Q1005 TEMPO BKN012=
201801150420 METAR COR EGLL 150420Z AUTO 19013G24KT 6000 -RA SCT013///
                        BKN021/// BKN029/// //////CB 07/06
                        Q1006 TEMPO BKN013=
201801150350 METAR COR EGLL 150350Z AUTO 19011KT 9000 -RA SCT015/// BKN020///
                        //////CB 07/05 Q1007 TEMPO RA BKN012=
201801150320 METAR COR EGLL 150320Z AUTO 20012KT 8000 -RA BKN016/// OVC040///
                        //////TCU 07/04 Q1008 TEMPO RA BKN012=
201801150250 METAR COR EGLL 150250Z AUTO 21011KT 9999 -RA BKN017 OVC022
                        07/04 Q1009 TEMPO RA BKN012=
201801150220 METAR EGLL 150220Z AUTO 21011KT 9999 BKN025 07/03 Q1009=
201801150150 METAR EGLL 150150Z AUTO 20010KT 9999 FEW032 06/03 Q1010=
201801150120 METAR COR EGLL 150120Z AUTO 20009KT 9999 NCD 06/02 Q1011
                        NOSIG=
201801150050 METAR COR EGLL 150050Z AUTO 21008KT 9999 BKN028 06/02 Q1012
                        NOSIG=
201801150020 METAR COR EGLL 150020Z AUTO 21010KT 9999 NCD 05/02 Q1012
                        NOSIG=
201801142350 METAR COR EGLL 142350Z AUTO 19008KT 9999 SCT027 05/01 Q1013
                        NOSIG=
201801142320 METAR COR EGLL 142320Z AUTO 19007KT 9999 OVC024 05/01 Q1013
                        NOSIG=
201801142250 METAR COR EGLL 142250Z AUTO 19006KT 170V250 9999 OVC024 05/01
                        Q1014 NOSIG=
201801142220 METAR COR EGLL 142220Z AUTO 22007KT 190V260 9999 OVC023 05/01
                        Q1015 NOSIG=
201801142150 METAR COR EGLL 142150Z AUTO 22008KT 9999 BKN024 04/01 Q1015
                        NOSIG=
201801142120 METAR COR EGLL 142120Z AUTO 21007KT 9999 NCD 04/01 Q1016
                        NOSIG=
201801142050 METAR COR EGLL 142050Z AUTO 22007KT 190V250 9999 SCT025 05/01
                        Q1016 NOSIG=
201801142020 METAR COR EGLL 142020Z AUTO 24008KT 9999 OVC024 05/01 Q1016
                        NOSIG=
201801141950 METAR COR EGLL 141950Z AUTO 23008KT 9999 OVC023 05/01 Q1017
                        NOSIG=
201801141920 METAR COR EGLL 141920Z AUTO 25009KT 9999 OVC023 05/01 Q1017
                        NOSIG=
201801141850 METAR COR EGLL 141850Z AUTO 24007KT 9999 OVC025 05/00 Q1017
                        NOSIG=
201801141820 METAR COR EGLL 141820Z AUTO 25008KT 9999 OVC026 05/00 Q1017
                        NOSIG=
201801141750 METAR COR EGLL 141750Z AUTO 24007KT 9999 OVC026 05/00 Q1017
                        NOSIG=
201801141720 METAR COR EGLL 141720Z AUTO 21006KT 180V260 9999 OVC025 05/00
                        Q1016 NOSIG=
201801141650 METAR COR EGLL 141650Z AUTO 22006KT 190V250 9999 OVC026 05/M00
                        Q1017 NOSIG=
201801141620 METAR COR EGLL 141620Z AUTO 24007KT 190V270 9999 BKN026 06/00
                        Q1017 NOSIG=
201801141550 METAR COR EGLL 141550Z AUTO 22006KT 170V270 9999 BKN026 06/00
                        Q1017 NOSIG=
201801141520 METAR COR EGLL 141520Z AUTO 17005KT 110V270 9999 BKN027 06/00
                        Q1017 NOSIG=
201801141450 METAR COR EGLL 141450Z AUTO VRB02KT 9999 OVC027 06/00 Q1017
                        NOSIG=
201801141420 METAR COR EGLL 141420Z AUTO VRB03KT 9999 OVC027 06/00 Q1017
                        NOSIG=
201801141350 METAR COR EGLL 141350Z AUTO VRB03KT 9999 OVC026 06/00 Q1018
                        NOSIG=
201801141320 METAR COR EGLL 141320Z AUTO VRB02KT 9999 OVC026 06/01 Q1017
                        NOSIG=
201801141250 METAR COR EGLL 141250Z AUTO VRB02KT 9999 OVC026 06/01 Q1018
                        NOSIG=
201801141220 METAR COR EGLL 141220Z AUTO VRB02KT 9999 OVC027 06/01 Q1018
                        NOSIG=
201801141150 METAR COR EGLL 141150Z AUTO VRB03KT 9999 OVC027 06/01 Q1019
                        NOSIG=
201801141120 METAR COR EGLL 141120Z AUTO 35003KT 9999 OVC028 06/01 Q1019
                        NOSIG=
201801141050 METAR COR EGLL 141050Z AUTO VRB02KT 9999 OVC027 06/01 Q1019
                        NOSIG=
201801141020 METAR COR EGLL 141020Z AUTO VRB02KT 9999 OVC026 05/01 Q1019
                        NOSIG=
201801140950 METAR COR EGLL 140950Z AUTO VRB03KT 9999 OVC026 06/01 Q1019
                        NOSIG=
201801140920 METAR COR EGLL 140920Z AUTO 01002KT 9999 OVC026 05/01 Q1019
                        NOSIG=
201801140850 METAR COR EGLL 140850Z AUTO VRB02KT 9999 OVC024 05/01 Q1019
                        NOSIG=
201801140820 METAR COR EGLL 140820Z AUTO 07002KT 9999 OVC025 05/01 Q1019
                        NOSIG=
201801140750 METAR COR EGLL 140750Z AUTO 09005KT 060V120 9999 OVC024 05/01
                        Q1018 NOSIG=
201801140720 METAR COR EGLL 140720Z AUTO 10004KT 9999 OVC025 05/01 Q1018
                        NOSIG=
201801140650 METAR EGLL 140650Z AUTO VRB03KT 9000 OVC026 05/01 Q1019=
201801140620 METAR COR EGLL 140620Z AUTO VRB03KT 9000 OVC026 04/01 Q1019
                        NOSIG=
201801140550 METAR COR EGLL 140550Z AUTO 06003KT 9999 OVC024 04/01 Q1019
                        NOSIG=
201801140520 METAR COR EGLL 140520Z AUTO 07003KT 9999 OVC023 04/01 Q1019
                        NOSIG=
201801140450 METAR COR EGLL 140450Z AUTO 09005KT 9000 OVC018 04/01 Q1019
                        NOSIG=
201801140420 METAR COR EGLL 140420Z AUTO 08006KT 9000 OVC017 04/01 Q1019
                        NOSIG=
201801140350 METAR COR EGLL 140350Z AUTO 07006KT 9000 BKN017 OVC023 04/01
                        Q1019 NOSIG=
201801140320 METAR COR EGLL 140320Z AUTO 07004KT 9000 OVC018 04/01 Q1019
                        NOSIG=
201801140250 METAR COR EGLL 140250Z AUTO 08004KT 9999 BKN018 OVC024 04/01
                        Q1019 NOSIG=
201801140220 METAR COR EGLL 140220Z AUTO 09007KT 9999 OVC019 04/01 Q1019
                        NOSIG=
201801140150 METAR COR EGLL 140150Z AUTO 07006KT 9999 OVC019 04/01 Q1019
                        NOSIG=
201801140120 METAR COR EGLL 140120Z AUTO 07006KT 9999 OVC019 05/01 Q1019
                        NOSIG=
201801140050 METAR COR EGLL 140050Z AUTO 08007KT 9999 OVC022 05/01 Q1019
                        NOSIG=
201801140020 METAR COR EGLL 140020Z AUTO 10008KT 9999 OVC021 05/01 Q1019
                        NOSIG=
201801132350 METAR COR EGLL 132350Z AUTO 10008KT 9999 OVC023 05/01 Q1019
                        NOSIG=
201801132320 METAR COR EGLL 132320Z AUTO 10008KT 9999 OVC023 05/01 Q1019
                        NOSIG=
201801132250 METAR COR EGLL 132250Z AUTO 09007KT 9999 OVC024 05/01 Q1019
                        NOSIG=
201801132220 METAR COR EGLL 132220Z AUTO 09007KT 9999 BKN019 OVC025 05/01
                        Q1019 NOSIG=
201801132150 METAR COR EGLL 132150Z AUTO 12010KT 9999 BKN016 OVC020 05/01
                        Q1019 NOSIG=
201801132120 METAR COR EGLL 132120Z AUTO 14009KT 9999 OVC014 05/02 Q1019
                        TEMPO BKN015=
201801132050 METAR COR EGLL 132050Z AUTO 13009KT 9999 OVC015 05/02 Q1019
                        NOSIG=
201801132020 METAR COR EGLL 132020Z AUTO 12009KT 9999 OVC015 05/02 Q1019
                        NOSIG=
201801131950 METAR COR EGLL 131950Z AUTO 12009KT 9999 OVC015 05/02 Q1019
                        NOSIG=
201801131920 METAR COR EGLL 131920Z AUTO 12011KT 9999 OVC015 05/02 Q1019
                        NOSIG=
201801131850 METAR COR EGLL 131850Z AUTO 12011KT 9999 BKN016 OVC021 06/02
                        Q1019 NOSIG=
201801131820 METAR COR EGLL 131820Z AUTO 11011KT 9999 OVC019 06/02 Q1019
                        NOSIG=
201801131750 METAR COR EGLL 131750Z AUTO 12010KT 9999 OVC020 06/02 Q1019
                        NOSIG=
201801131720 METAR COR EGLL 131720Z AUTO 12008KT 9999 OVC021 06/03 Q1019
                        NOSIG=
201801131650 METAR COR EGLL 131650Z AUTO 12008KT 9999 BKN020 06/02 Q1018
                        NOSIG=
201801131620 METAR COR EGLL 131620Z AUTO 13008KT 9999 BKN020 06/02 Q1018
                        NOSIG=
201801131550 METAR COR EGLL 131550Z AUTO 13012KT 9999 BKN019 06/02 Q1018
                        NOSIG=
201801131520 METAR COR EGLL 131520Z AUTO 13008KT 9999 BKN019 07/03 Q1018
                        NOSIG=
201801131450 METAR COR EGLL 131450Z AUTO 14008KT 9999 BKN020 07/03 Q1018
                        NOSIG=
201801131420 METAR COR EGLL 131420Z AUTO 13009KT 9999 BKN020 07/03 Q1018
                        NOSIG=
201801131350 METAR COR EGLL 131350Z AUTO 13010KT 9999 BKN020 07/03 Q1018
                        NOSIG=
201801131320 METAR COR EGLL 131320Z AUTO 13010KT 9999 BKN021 OVC029 08/03
                        Q1019 NOSIG=
201801131250 METAR COR EGLL 131250Z AUTO 14010KT 9999 SCT021 BKN028 08/04
                        Q1019 NOSIG=
201801131220 METAR COR EGLL 131220Z AUTO 15011KT 9999 BKN019 08/03 Q1019
                        NOSIG=
201801131150 METAR COR EGLL 131150Z AUTO 14010KT 9999 BKN019 08/04 Q1020
                        NOSIG=
201801131120 METAR COR EGLL 131120Z AUTO 14010KT 9000 FEW019 BKN028 08/04
                        Q1020 NOSIG=
201801131050 METAR COR EGLL 131050Z AUTO 14010KT 9000 FEW021 OVC029 07/04
                        Q1020 NOSIG=
201801131020 METAR COR EGLL 131020Z AUTO 14010KT 9000 BKN018 OVC028 07/04
                        Q1020 NOSIG=
201801130950 METAR COR EGLL 130950Z AUTO 13008KT 8000 SCT017 BKN024 OVC030
                        07/04 Q1020 NOSIG=
201801130920 METAR COR EGLL 130920Z AUTO 12007KT 9000 BKN017 OVC026 06/03
                        Q1020 NOSIG=
201801130850 METAR COR EGLL 130850Z AUTO 13007KT 9000 OVC019 06/03 Q1020
                        NOSIG=
201801130820 METAR COR EGLL 130820Z AUTO 13007KT 9000 OVC027 06/03 Q1020
                        NOSIG=
201801130750 METAR COR EGLL 130750Z AUTO 12008KT 9000 OVC025 06/03 Q1020
                        NOSIG=
201801130720 METAR COR EGLL 130720Z AUTO 13007KT 9000 SCT017 OVC025 06/03
                        Q1020 NOSIG=
201801130650 METAR COR EGLL 130650Z AUTO 14007KT 9999 FEW019 BKN025 OVC029
                        06/03 Q1020 NOSIG=
201801130620 METAR COR EGLL 130620Z AUTO 13008KT 9999 SCT017 BKN022 OVC027
                        06/03 Q1020 NOSIG=
201801130550 METAR COR EGLL 130550Z AUTO 13008KT 9999 BKN018 OVC025 06/03
                        Q1020 NOSIG=
201801130520 METAR COR EGLL 130520Z AUTO 13008KT 9999 OVC025 06/03 Q1020
                        NOSIG=
201801130450 METAR COR EGLL 130450Z AUTO 13009KT 9999 BKN021 OVC031 06/03
                        Q1020 NOSIG=
201801130420 METAR COR EGLL 130420Z AUTO 12010KT 9999 BKN024 OVC031 06/03
                        Q1020 NOSIG=
201801130350 METAR COR EGLL 130350Z AUTO 11010KT 9999 OVC025 05/03 Q1021
                        NOSIG=
201801130320 METAR COR EGLL 130320Z AUTO 12010KT 9999 OVC025 05/03 Q1021
                        NOSIG=
201801130250 METAR COR EGLL 130250Z AUTO 12009KT 9999 BKN024 OVC029 06/03
                        Q1022 NOSIG=
201801130220 METAR COR EGLL 130220Z AUTO 13008KT 9999 SCT018 OVC023 06/03
                        Q1022 NOSIG=
201801130150 METAR COR EGLL 130150Z AUTO 15008KT 9999 OVC017 06/03 Q1022
                        NOSIG=
201801130120 METAR EGLL 130120Z AUTO 15009KT 9999 BKN012 OVC022 06/03
                        Q1022=
201801130050 METAR COR EGLL 130050Z AUTO 15009KT 9999 BKN014 OVC021 06/03
                        Q1023 TEMPO BKN020=
201801130020 METAR COR EGLL 130020Z AUTO 15007KT 9999 OVC017 06/03 Q1023
                        TEMPO BKN012=
201801122350 METAR COR EGLL 122350Z AUTO 14007KT 110V170 9999 BKN015 OVC019
                        06/03 Q1023 NOSIG=
201801122320 METAR COR EGLL 122320Z AUTO 15008KT 9999 OVC013 06/03 Q1023
                        TEMPO BKN015=
201801122250 METAR COR EGLL 122250Z AUTO 16010KT 9999 OVC013 06/03 Q1024
                        TEMPO BKN015=
201801122220 METAR COR EGLL 122220Z AUTO 16011KT 9999 OVC013 06/03 Q1024
                        TEMPO BKN015=
201801122150 METAR COR EGLL 122150Z AUTO 16009KT 9999 OVC014 06/03 Q1024
                        TEMPO BKN015=
201801122120 METAR COR EGLL 122120Z AUTO 16007KT 9999 OVC015 06/03 Q1024
                        TEMPO BKN014=
201801122050 METAR COR EGLL 122050Z AUTO 16007KT 9999 OVC013 06/03 Q1024
                        TEMPO BKN015=
201801122020 METAR COR EGLL 122020Z AUTO 17007KT 9999 BKN013 06/03 Q1024
                        NOSIG=
201801121950 METAR COR EGLL 121950Z AUTO 16009KT 9999 SCT013 BKN018 06/04
                        Q1024 TEMPO BKN014=
201801121920 METAR COR EGLL 121920Z AUTO 15008KT 9999 BKN017 06/04 Q1024
                        NOSIG=
201801121850 METAR COR EGLL 121850Z AUTO 15005KT 8000 SCT018 BKN022 07/05
                        Q1024 NOSIG=
201801121820 METAR COR EGLL 121820Z AUTO 14006KT 8000 FEW014 SCT018 BKN027
                        07/05 Q1024 TEMPO BKN014=
201801121750 METAR COR EGLL 121750Z AUTO 12006KT 9000 SCT014 BKN019 BKN024
                        07/05 Q1024 TEMPO BKN014=
201801121720 METAR COR EGLL 121720Z AUTO 12006KT 9000 FEW015 BKN023 07/05
                        Q1024 TEMPO BKN014=
201801121650 METAR COR EGLL 121650Z AUTO 13005KT 9000 SCT018 BKN023 OVC032
                        07/05 Q1025 TEMPO BKN014=
201801121620 METAR COR EGLL 121620Z AUTO 13005KT 9000 BKN020 07/05 Q1025
                        TEMPO BKN014=
201801121550 METAR COR EGLL 121550Z AUTO 13004KT 9000 BKN020 07/05 Q1025
                        NOSIG=
201801121520 METAR COR EGLL 121520Z AUTO 14005KT 9999 SCT022 BKN041 07/05
                        Q1025 NOSIG=
201801121450 METAR COR EGLL 121450Z AUTO 15005KT 9999 -RA BKN042 07/05
                        Q1025 NOSIG=
201801121420 METAR COR EGLL 121420Z AUTO 16005KT 9999 BKN039 07/05 Q1025
                        NOSIG=
201801121350 METAR COR EGLL 121350Z AUTO 16005KT 130V200 9999 FEW013 SCT031
                        BKN037 07/05 Q1025 TEMPO BKN011=
201801121320 METAR COR EGLL 121320Z AUTO 16005KT 9000 -RA BKN011 OVC034
                        07/05 Q1026 TEMPO SCT011=
201801121250 METAR COR EGLL 121250Z AUTO 15004KT 7000 -RA BKN012 OVC032
                        07/05 Q1026 TEMPO SCT012=
201801121220 METAR COR EGLL 121220Z AUTO 14005KT 110V200 8000 -RA FEW011
                        BKN033 OVC041 07/05 Q1026 TEMPO BKN008=
201801121150 METAR COR EGLL 121150Z AUTO 14005KT 080V210 8000 OVC046 07/05
                        Q1026 NOSIG=
201801121120 METAR COR EGLL 121120Z AUTO 14005KT 100V170 5000 HZ BKN043
                        OVC049 07/06 Q1026 NOSIG=
201801121050 METAR COR EGLL 121050Z AUTO 17005KT 130V210 4600 HZ SCT015
                        OVC039 07/06 Q1027 BECMG 6000=
201801121020 METAR COR EGLL 121020Z AUTO 15005KT 110V200 3700 HZ FEW006
                        BKN011 OVC043 07/06 Q1027 BECMG 5000
                        SCT012=
201801120950 METAR EGLL 120950Z AUTO 13005KT 100V170 3300 HZ SCT007 BKN014
                        OVC044 07/06 Q1027=
201801120920 METAR COR EGLL 120920Z VRB03KT 3500 HZ SCT007 BKN012 BKN016
                        07/06 Q1026 BECMG 5000=
201801120850 METAR COR EGLL 120850Z VRB03KT 3500 HZ SCT006 BKN011 07/06
                        Q1026 TEMPO BKN006=
201801120820 METAR COR EGLL 120820Z AUTO 13005KT 100V170 2400 HZ BKN006
                        OVC043 06/05 Q1026 TEMPO 3500 SCT006=
201801120750 METAR COR EGLL 120750Z AUTO 12004KT 080V160 2500 HZ SCT007
                        BKN011 BKN040 06/05 Q1026 TEMPO 3500
                        BKN007=
201801120720 METAR COR EGLL 120720Z AUTO 14004KT 090V240 2700 HZ BKN008
                        BKN013 OVC044 07/05 Q1026 TEMPO 3500=
201801120650 METAR COR EGLL 120650Z AUTO VRB03KT 3200 HZ FEW006 SCT013
                        BKN042 07/06 Q1026 TEMPO 2000 -RADZ
                        BKN004=
201801120620 METAR COR EGLL 120620Z AUTO VRB02KT 3000 HZ FEW009 SCT013
                        OVC043 07/06 Q1026 TEMPO 2000 -RADZ
                        BKN004=
201801120550 METAR COR EGLL 120550Z AUTO VRB02KT 2700 HZ BKN012 OVC044
                        06/05 Q1026 TEMPO -RADZ BKN004=
201801120520 METAR COR EGLL 120520Z AUTO 35002KT 2400 HZ OVC043 06/05
                        Q1026 TEMPO -RADZ BKN004=
201801120450 METAR COR EGLL 120450Z AUTO VRB02KT 2500 HZ FEW012 OVC042
                        06/05 Q1026 TEMPO -RADZ BKN004=
201801120420 METAR COR EGLL 120420Z AUTO 34002KT 2600 HZ FEW014 OVC042
                        06/05 Q1026 TEMPO 2000 BR BKN004=
201801120350 METAR COR EGLL 120350Z AUTO 31004KT 2800 HZ FEW009 BKN012
                        OVC043 07/05 Q1026 TEMPO 2000 BR
                        BKN004=
201801120320 METAR COR EGLL 120320Z AUTO 30003KT 3000 HZ BKN008 OVC017
                        07/06 Q1026 NOSIG=
201801120250 METAR COR EGLL 120250Z AUTO VRB02KT 3600 HZ BKN006 OVC010
                        07/05 Q1026 NOSIG=
201801120220 METAR COR EGLL 120220Z AUTO 05001KT 3800 HZ BKN007 OVC010
                        07/06 Q1026 NOSIG=
201801120150 METAR COR EGLL 120150Z AUTO 05003KT 3600 HZ BKN006 OVC036
                        07/06 Q1025 NOSIG=
201801120120 METAR COR EGLL 120120Z AUTO VRB02KT 3700 HZ BKN006 OVC010
                        07/06 Q1025 NOSIG=
201801120050 METAR COR EGLL 120050Z AUTO VRB02KT 3800 HZ OVC006 07/05
                        Q1025 NOSIG=
201801120020 METAR COR EGLL 120020Z AUTO VRB03KT 3800 HZ BKN005 OVC009
                        07/05 Q1025 NOSIG=
201801112350 METAR COR EGLL 112350Z AUTO VRB03KT 4400 HZ BKN006 OVC009
                        07/05 Q1026 NOSIG=
201801112320 METAR COR EGLL 112320Z AUTO 01004KT 320V050 4800 HZ SCT007
                        OVC039 07/05 Q1025 TEMPO BKN007=
201801112250 METAR COR EGLL 112250Z AUTO 36005KT 320V030 5000 HZ BKN007
                        OVC040 07/05 Q1025 NOSIG=
201801112220 METAR COR EGLL 112220Z AUTO 36006KT 6000 BKN008 OVC041 07/05
                        Q1025 NOSIG=
201801112150 METAR COR EGLL 112150Z AUTO 36006KT 320V030 6000 BKN010 OVC042
                        07/05 Q1025 TEMPO BKN009=
201801112120 METAR COR EGLL 112120Z AUTO 33004KT 290V010 7000 BKN011 OVC040
                        07/05 Q1025 TEMPO BKN009=
201801112050 METAR COR EGLL 112050Z AUTO 34004KT 310V040 7000 BKN012 OVC039
                        07/05 Q1024 NOSIG=
201801112020 METAR COR EGLL 112020Z AUTO 36004KT 6000 OVC042/// 07/05
                        Q1024 TEMPO BKN014=
201801111950 METAR COR EGLL 111950Z AUTO VRB03KT 6000 BKN014 BKN019 OVC040
                        07/05 Q1024 NOSIG=
201801111920 METAR COR EGLL 111920Z AUTO VRB03KT 6000 SCT010 BKN014 BKN019
                        07/05 Q1023 NOSIG=
201801111850 METAR COR EGLL 111850Z AUTO 36004KT 320V030 6000 BKN010 BKN014
                        OVC046 07/05 Q1023 NOSIG=
201801111820 METAR COR EGLL 111820Z AUTO VRB03KT 4500 HZ BKN008 BKN013
                        OVC047 07/05 Q1023 TEMPO SCT008 BKN012=
201801111750 METAR COR EGLL 111750Z AUTO 33006KT 300V010 4900 HZ BKN007
                        OVC046 07/05 Q1023 TEMPO 5000=
201801111720 METAR COR EGLL 111720Z AUTO 32005KT 290V350 4700 HZ OVC007
                        07/06 Q1023 NOSIG=
201801111650 METAR COR EGLL 111650Z AUTO 33005KT 310V020 4900 HZ OVC007
                        07/06 Q1022 TEMPO 5000=
201801111620 METAR COR EGLL 111620Z AUTO 35004KT 300V030 5000 HZ OVC008///
                        07/06 Q1022 NOSIG=
201801111550 METAR COR EGLL 111550Z AUTO 34004KT 310V030 6000 OVC008 08/06
                        Q1021 NOSIG=
201801111520 METAR COR EGLL 111520Z AUTO 36004KT 320V030 5000 HZ OVC008
                        07/06 Q1020 NOSIG=
201801111450 METAR COR EGLL 111450Z AUTO 36005KT 320V030 5000 HZ OVC007
                        08/06 Q1020 NOSIG=
201801111420 METAR COR EGLL 111420Z AUTO 36005KT 330V030 5000 HZ OVC006
                        08/06 Q1020 NOSIG=
201801111350 METAR COR EGLL 111350Z AUTO 35006KT 310V020 6000 BKN007 08/06
                        Q1020 NOSIG=
201801111320 METAR COR EGLL 111320Z AUTO 36006KT 320V030 6000 BKN007 BKN033
                        08/06 Q1019 TEMPO BKN010=
201801111250 METAR COR EGLL 111250Z AUTO 35005KT 300V020 5000 HZ BKN008
                        BKN033 BKN041 07/06 Q1019 NOSIG=
201801111220 METAR EGLL 111220Z AUTO 34005KT 300V050 3800 -RADZ BKN006
                        OVC036 07/06 Q1019=
201801111150 METAR COR EGLL 111150Z AUTO 32004KT 290V020 4200 HZ BKN006
                        OVC011 07/05 Q1019 TEMPO BKN004=
201801111120 METAR COR EGLL 111120Z AUTO VRB03KT 2900 -RADZ OVC005 07/06
                        Q1019 TEMPO BKN004=
201801111050 METAR COR EGLL 111050Z AUTO 33004KT 290V020 4200 -RADZ OVC005
                        07/06 Q1018 TEMPO BKN004=
201801111020 METAR COR EGLL 111020Z AUTO 35004KT 310V030 5000 HZ BKN005
                        OVC010 07/05 Q1018 TEMPO 3000 -RADZ
                        BKN004=
201801110950 METAR COR EGLL 110950Z AUTO 32004KT 290V010 7000 OVC006 07/05
                        Q1018 TEMPO 4000 -RADZ BKN004=
201801110920 METAR COR EGLL 110920Z AUTO 35004KT 300V040 8000 BKN007 OVC026
                        07/05 Q1017 NOSIG=
201801110850 METAR COR EGLL 110850Z AUTO VRB03KT 6000 -RA OVC007 06/05
                        Q1016 NOSIG=
201801110820 METAR COR EGLL 110820Z AUTO VRB03KT 5000 HZ BKN008 OVC047
                        06/05 Q1016 NOSIG=
201801110750 METAR COR EGLL 110750Z AUTO 35004KT 320V020 5000 HZ BKN007
                        OVC048 06/05 Q1015 NOSIG=
201801110720 METAR COR EGLL 110720Z AUTO VRB01KT 5000 HZ BKN007 OVC012
                        06/05 Q1015 NOSIG=
201801110650 METAR COR EGLL 110650Z AUTO VRB02KT 3900 HZ OVC007 05/05
                        Q1014 NOSIG=
201801110620 METAR COR EGLL 110620Z AUTO 28001KT 4200 BR OVC005 05/04
                        Q1014 NOSIG=
201801110550 METAR COR EGLL 110550Z AUTO 27002KT 3700 BR OVC005 04/03
                        Q1013 NOSIG=
201801110520 METAR COR EGLL 110520Z AUTO VRB01KT 3400 HZ SCT005 03/02
                        Q1013 BECMG BKN005=
201801110450 METAR COR EGLL 110450Z AUTO VRB02KT 4000 BR FEW025 04/04
                        Q1012 TEMPO -RADZ BKN006=
201801110420 METAR COR EGLL 110420Z AUTO VRB03KT 4500 BR //////TCU 04/04
                        Q1012 TEMPO 2500 -RADZ BKN008=
201801110350 METAR COR EGLL 110350Z AUTO VRB02KT 5000 BR BKN019 04/03
                        Q1012 BECMG -RA BKN014=
201801110320 METAR COR EGLL 110320Z AUTO VRB01KT 4300 BR NCD 04/03 Q1011
                        TEMPO BECMG -RA BKN014=
201801110250 METAR COR EGLL 110250Z AUTO 32003KT 5000 BR NCD 04/03 Q1011
                        TEMPO 4000 -RADZ BKN010=
201801110220 METAR COR EGLL 110220Z AUTO 31003KT 5000 BR NCD 03/03 Q1010
                        TEMPO 4000 -RADZ BKN010=
201801110150 METAR COR EGLL 110150Z AUTO 31003KT 5000 BR NCD 04/03 Q1010
                        TEMPO 4500=
201801110120 METAR EGLL 110120Z AUTO 30004KT 3800 BR NCD 04/03 Q1010=
201801110050 METAR COR EGLL 110050Z AUTO 31003KT 3900 BR NCD 04/03 Q1009
                        NOSIG=
201801110020 METAR COR EGLL 110020Z AUTO 30003KT 3300 HZ NCD 04/03 Q1009
                        TEMPO 2500 BR=
201801102350 METAR COR EGLL 102350Z AUTO 28002KT 3900 HZ NCD 04/03 Q1009
                        NOSIG=
201801102320 METAR COR EGLL 102320Z AUTO VRB01KT 3900 HZ NCD 04/03 Q1009
                        NOSIG=
201801102250 METAR COR EGLL 102250Z AUTO 03002KT 3000 HZ NCD 05/03 Q1008
                        NOSIG=
201801102220 METAR COR EGLL 102220Z AUTO 36003KT 4200 HZ NCD 06/04 Q1008
                        TEMPO 5000=
201801102150 METAR COR EGLL 102150Z AUTO 35003KT 7000 NCD 07/05 Q1008
                        NOSIG=
201801102120 METAR COR EGLL 102120Z AUTO 32002KT 8000 NCD 07/05 Q1008
                        NOSIG=
201801102050 METAR COR EGLL 102050Z AUTO 33002KT 9000 NCD 07/06 Q1008
                        NOSIG=
201801102020 METAR COR EGLL 102020Z AUTO 30003KT 8000 NCD 06/05 Q1008
                        NOSIG=
201801101950 METAR COR EGLL 101950Z AUTO 32003KT 8000 NCD 06/05 Q1007
                        NOSIG=
201801101920 METAR COR EGLL 101920Z AUTO VRB02KT 9000 NCD 06/04 Q1007
                        NOSIG=
201801101850 METAR COR EGLL 101850Z AUTO 30003KT 9999 NCD 06/04 Q1007
                        NOSIG=
201801101820 METAR COR EGLL 101820Z AUTO 28004KT 9999 NCD 06/04 Q1007
                        NOSIG=
201801101750 METAR COR EGLL 101750Z AUTO 29003KT 9999 NCD 06/05 Q1006
                        NOSIG=
201801101720 METAR COR EGLL 101720Z AUTO 28005KT 9999 NCD 06/04 Q1006
                        NOSIG=
201801101650 METAR COR EGLL 101650Z AUTO 27008KT 9999 FEW020 07/04 Q1006
                        NOSIG=
201801101620 METAR EGLL 101620Z AUTO 27007KT 9999 FEW019 08/05 Q1006=
201801101550 METAR COR EGLL 101550Z AUTO 27005KT 9999 FEW021 08/05 Q1006
                        NOSIG=
201801101520 METAR COR EGLL 101520Z AUTO 27006KT 9999 FEW021 09/05 Q1006
                        NOSIG=
201801101450 METAR COR EGLL 101450Z AUTO 25006KT 9999 FEW020 09/06 Q1005
                        NOSIG=
201801101420 METAR COR EGLL 101420Z AUTO 25007KT 230V290 9999 FEW018 10/06
                        Q1005 NOSIG=
201801101350 METAR COR EGLL 101350Z AUTO 25006KT 220V280 9999 NCD 10/06
                        Q1005 NOSIG=
201801101320 METAR COR EGLL 101320Z AUTO 27005KT 240V300 9999 FEW014 09/06
                        Q1004 NOSIG=
201801101250 METAR COR EGLL 101250Z AUTO 26006KT 9999 NCD 09/06 Q1005
                        NOSIG=
201801101220 METAR COR EGLL 101220Z AUTO 26007KT 230V290 9999 BKN011 08/06
                        Q1005 BECMG SCT012=
201801101150 METAR COR EGLL 101150Z AUTO 27006G17KT 220V310 9999 OVC010
                        08/06 Q1005 BECMG SCT012=
201801101120 METAR COR EGLL 101120Z AUTO 27008KT 240V300 9999 OVC008 08/06
                        Q1005 BECMG BKN012=
201801101050 METAR COR EGLL 101050Z AUTO 27007KT 220V290 9999 BKN008 08/06
                        Q1005 BECMG BKN012=
201801101020 METAR COR EGLL 101020Z AUTO 26008KT 9999 BKN009 08/06 Q1005
                        BECMG BKN012=
201801100950 METAR COR EGLL 100950Z AUTO 24008KT 9999 BKN008 07/06 Q1005
                        TEMPO BKN010=
201801100920 METAR COR EGLL 100920Z AUTO 26010KT 9999 BKN008 08/06 Q1005
                        TEMPO BKN010=
201801100850 METAR COR EGLL 100850Z AUTO 26010KT 9999 BKN010 07/06 Q1004
                        NOSIG=
201801100820 METAR COR EGLL 100820Z AUTO 24008KT 9999 SCT011 07/06 Q1004
                        TEMPO BKN012=
201801100750 METAR COR EGLL 100750Z AUTO 24009KT 9999 FEW012 07/06 Q1004
                        NOSIG=
201801100720 METAR COR EGLL 100720Z AUTO 24010KT 9999 FEW009 07/06 Q1003
                        TEMPO BKN010=
201801100650 METAR COR EGLL 100650Z AUTO 24010KT 9999 FEW037 07/06 Q1003
                        NOSIG=
201801100620 METAR COR EGLL 100620Z AUTO 24010KT 9999 NCD 08/06 Q1002
                        NOSIG=
201801100550 METAR COR EGLL 100550Z AUTO 25011KT 9999 FEW044 08/06 Q1002
                        NOSIG=
201801100520 METAR COR EGLL 100520Z AUTO 25014G24KT 9999 SCT011 SCT021
                        BKN028 09/07 Q1001 NOSIG=
201801100450 METAR COR EGLL 100450Z AUTO 21007KT 8000 BKN006/// BKN009///
                        OVC017/// //////TCU 09/08 Q1001 TEMPO
                        4000 RADZ=
201801100420 METAR COR EGLL 100420Z AUTO 15004KT 4100 -DZ OVC007 09/08
                        Q1001 REDZ TEMPO 2500 RADZ=
201801100350 METAR COR EGLL 100350Z AUTO 09005KT 5000 HZ BKN010 OVC017
                        08/08 Q1001 TEMPO 4000 -RA BKN008=
201801100320 METAR COR EGLL 100320Z AUTO 09006KT 6000 BKN016 08/07 Q1001
                        TEMPO BKN008=
201801100250 METAR COR EGLL 100250Z AUTO 10007KT 5000 HZ FEW005 SCT009
                        BKN012 08/07 Q1001 RERA REDZ TEMPO
                        4000 -RADZ SCT005 BKN009=
201801100220 METAR COR EGLL 100220Z AUTO 11007KT 2900 -RADZ BKN006 OVC013
                        08/07 Q1002 REDZ TEMPO 5000 RA=
201801100150 METAR COR EGLL 100150Z AUTO 11007KT 3300 -RADZ BKN010 OVC030
                        08/07 Q1002 TEMPO BKN008=
201801100120 METAR COR EGLL 100120Z AUTO 12006KT 7000 SCT006 OVC010 08/07
                        Q1002 TEMPO 4000 RADZ BKN004=
201801100050 METAR COR EGLL 100050Z AUTO 13007KT 6000 OVC006 08/07 Q1002
                        TEMPO 4000 RADZ BKN004=
201801100020 METAR COR EGLL 100020Z AUTO 13007KT 040V160 6000 BKN006 OVC010
                        08/07 Q1003 TEMPO 4500 -RADZ BKN004=
201801092350 METAR COR EGLL 092350Z AUTO 13007KT 6000 BKN009 OVC014 08/07
                        Q1003 TEMPO 4000 RADZ=
201801092320 METAR COR EGLL 092320Z AUTO 14008KT 6000 OVC008 08/07 Q1003
                        TEMPO 4000 RADZ=
201801092250 METAR COR EGLL 092250Z AUTO 13007KT 7000 OVC008 08/07 Q1003
                        TEMPO 4000 RADZ=
201801092220 METAR COR EGLL 092220Z AUTO 13008KT 8000 OVC010 08/07 Q1003
                        TEMPO 4000 BR BKN008=
201801092150 METAR COR EGLL 092150Z AUTO 13007KT 7000 BKN013 BKN017 OVC038
                        08/07 Q1003 TEMPO 4000 BR BKN008=
201801092120 METAR COR EGLL 092120Z AUTO 14007KT 6000 SCT014 BKN023 BKN029
                        07/06 Q1003 TEMPO 4000 BR BKN014=
201801092050 METAR COR EGLL 092050Z AUTO 12006KT 3900 HZ FEW008 SCT012
                        BKN019 07/06 Q1004 TEMPO FEW012 BKN019=
201801092020 METAR COR EGLL 092020Z AUTO 12007KT 3500 HZ SCT005 BKN009
                        BKN012 07/06 Q1004 RERA NOSIG=
201801091950 METAR COR EGLL 091950Z AUTO 13007KT 2700 -RA FEW006 BKN010
                        OVC025 07/06 Q1004 TEMPO BKN009=
201801091920 METAR COR EGLL 091920Z AUTO 13007KT 2900 -RADZ BKN009 OVC013
                        07/06 Q1004 RERA REDZ NOSIG=
201801091850 METAR COR EGLL 091850Z AUTO 11006KT 5000 HZ BKN012 OVC019
                        07/05 Q1004 BECMG 4500 HZ BKN009=
201801091820 METAR COR EGLL 091820Z AUTO 13006KT 5000 HZ OVC014 06/05
                        Q1004 TEMPO 4500 HZ BKN009=
201801091750 METAR COR EGLL 091750Z AUTO 13006KT 4900 HZ OVC020 06/05
                        Q1004 TEMPO 6000 NSW=
201801091720 METAR COR EGLL 091720Z AUTO 13005KT 3500 HZ OVC021 06/05
                        Q1004 NOSIG=
201801091650 METAR EGLL 091650Z AUTO 14004KT 3500 HZ OVC021 06/05 Q1004
                        NOSIG=
201801091620 METAR COR EGLL 091620Z AUTO 14004KT 3300 HZ OVC021 06/05
                        Q1004 TEMPO BKN012=
201801091550 METAR COR EGLL 091550Z AUTO 15004KT 2700 HZ FEW007 SCT015
                        OVC020 06/05 Q1005 TEMPO BKN012=
201801091520 METAR COR EGLL 091520Z AUTO 20004KT 160V240 3400 HZ BKN005
                        OVC019 06/05 Q1005 NOSIG=
201801091450 METAR COR EGLL 091450Z AUTO 17004KT 3000 HZ OVC006 06/05
                        Q1005 NOSIG=
201801091420 METAR EGLL 091420Z AUTO 14003KT 2800 HZ BKN006 OVC011 06/05
                        Q1005=
201801091350 METAR COR EGLL 091350Z AUTO 14003KT 4100 HZ FEW007 BKN011
                        OVC015 06/05 Q1005 TEMPO BKN007=
201801091320 METAR COR EGLL 091320Z AUTO 14004KT 3900 HZ FEW006 OVC010
                        06/05 Q1005 TEMPO BKN006=
201801091250 METAR COR EGLL 091250Z AUTO 13004KT 3600 HZ OVC007 05/04
                        Q1006 NOSIG=
201801091220 METAR COR EGLL 091220Z AUTO 11005KT 3500 HZ OVC009 05/04
                        Q1006 NOSIG=
201801091150 METAR COR EGLL 091150Z AUTO 10006KT 3000 HZ BKN009 OVC012
                        05/04 Q1006 NOSIG=
201801091120 METAR COR EGLL 091120Z AUTO 09005KT 2800 HZ BKN008 OVC012
                        05/04 Q1007 TEMPO SCT008 BKN012=
201801091050 METAR COR EGLL 091050Z AUTO 08004KT 2600 HZ BKN006 OVC009
                        05/04 Q1007 NOSIG=
201801091020 METAR COR EGLL 091020Z AUTO 10003KT 3000 HZ OVC006 05/04
                        Q1008 NOSIG=
201801090950 METAR COR EGLL 090950Z AUTO 09004KT 3100 HZ BKN006 OVC010
                        05/04 Q1008 NOSIG=
201801090920 METAR COR EGLL 090920Z AUTO 09003KT 3400 HZ BKN007 OVC010
                        05/03 Q1008 NOSIG=
201801090850 METAR COR EGLL 090850Z AUTO 13004KT 090V160 5000 HZ OVC007
                        05/03 Q1008 TEMPO 4500 HZ=
201801090820 METAR COR EGLL 090820Z AUTO 14003KT 5000 HZ OVC008 05/03
                        Q1008 NOSIG=
201801090750 METAR COR EGLL 090750Z AUTO 13006KT 5000 HZ BKN008 OVC012
                        04/03 Q1009 NOSIG=
201801090720 METAR COR EGLL 090720Z AUTO VRB03KT 5000 HZ OVC008 04/03
                        Q1009 NOSIG=
201801090650 METAR COR EGLL 090650Z AUTO 12003KT 5000 HZ OVC008 04/03
                        Q1009 NOSIG=
201801090620 METAR COR EGLL 090620Z AUTO VRB02KT 5000 HZ OVC008 04/03
                        Q1009 NOSIG=
201801090550 METAR COR EGLL 090550Z AUTO 17004KT 5000 HZ OVC007 04/02
                        Q1010 NOSIG=
201801090520 METAR COR EGLL 090520Z AUTO 15004KT 6000 OVC008 04/02 Q1010
                        NOSIG=
201801090450 METAR COR EGLL 090450Z AUTO 15006KT 6000 OVC008 04/02 Q1011
                        NOSIG=
201801090420 METAR COR EGLL 090420Z AUTO 12006KT 7000 OVC008 04/02 Q1011
                        NOSIG=
201801090350 METAR COR EGLL 090350Z AUTO 12008KT 7000 OVC008 04/02 Q1011
                        NOSIG=
201801090320 METAR COR EGLL 090320Z AUTO 10008KT 7000 OVC008 04/02 Q1012
                        NOSIG=
201801090250 METAR COR EGLL 090250Z AUTO 10008KT 7000 OVC009 04/02 Q1012
                        NOSIG=
201801090220 METAR COR EGLL 090220Z AUTO 10005KT 7000 OVC008 04/02 Q1012
                        NOSIG=
201801090150 METAR COR EGLL 090150Z AUTO 10007KT 7000 OVC009 04/02 Q1013
                        NOSIG=
201801090120 METAR COR EGLL 090120Z AUTO 10006KT 6000 OVC009 04/02 Q1013
                        NOSIG=
201801090050 METAR COR EGLL 090050Z AUTO 10007KT 7000 OVC008 04/02 Q1014
                        NOSIG=
201801090020 METAR COR EGLL 090020Z AUTO 10008KT 7000 OVC008 04/03 Q1014
                        NOSIG=
201801082350 METAR COR EGLL 082350Z AUTO 11007KT 7000 OVC008 04/03 Q1015
                        NOSIG=
201801082320 METAR COR EGLL 082320Z AUTO 10010KT 7000 OVC009 04/03 Q1015
                        NOSIG=
201801082250 METAR COR EGLL 082250Z AUTO 12009KT 8000 OVC009 05/03 Q1016
                        NOSIG=
201801082220 METAR EGLL 082220Z AUTO 10009KT 8000 OVC009 05/03 Q1016=
201801082150 METAR EGLL 082150Z AUTO 08008KT 9000 OVC009 05/03 Q1016=
201801082120 METAR COR EGLL 082120Z AUTO 09006KT 9000 OVC010 05/03 Q1017
                        BECMG BKN008=
201801082050 METAR COR EGLL 082050Z AUTO 10009KT 9999 OVC010 05/03 Q1017
                        BECMG BKN008=
201801082020 METAR COR EGLL 082020Z AUTO 09007KT 9999 OVC011 05/02 Q1017
                        BECMG BKN009=
201801081950 METAR COR EGLL 081950Z AUTO 08010KT 9999 OVC011 05/02 Q1017
                        NOSIG=
201801081920 METAR COR EGLL 081920Z AUTO 08007KT 9999 OVC012 05/02 Q1018
                        NOSIG=
201801081850 METAR COR EGLL 081850Z AUTO 07007KT 9999 OVC012 05/02 Q1018
                        NOSIG=
201801081820 METAR COR EGLL 081820Z AUTO 08008KT 9999 OVC013 05/02 Q1018
                        NOSIG=
201801081750 METAR COR EGLL 081750Z AUTO 08008KT 9999 OVC013 05/02 Q1019
                        NOSIG=
201801081720 METAR COR EGLL 081720Z AUTO 09009KT 9999 OVC012 05/02 Q1019
                        NOSIG=
201801081650 METAR COR EGLL 081650Z AUTO 07007KT 9999 OVC012 05/02 Q1019
                        NOSIG=
201801081620 METAR COR EGLL 081620Z AUTO 07007KT 9999 OVC012 05/02 Q1019
                        NOSIG=
201801081550 METAR COR EGLL 081550Z AUTO 08008KT 9999 OVC012 05/02 Q1019
                        NOSIG=
201801081520 METAR COR EGLL 081520Z AUTO 08007KT 9999 OVC012 05/03 Q1019
                        NOSIG=
201801081450 METAR COR EGLL 081450Z AUTO 07008KT 9999 OVC011 05/03 Q1020
                        TEMPO BKN008=
201801081420 METAR COR EGLL 081420Z AUTO 08008KT 9999 OVC011 05/03 Q1020
                        NOSIG=
201801081350 METAR COR EGLL 081350Z AUTO 08009KT 9999 OVC011 05/03 Q1020
                        NOSIG=
201801081320 METAR COR EGLL 081320Z AUTO 08010KT 9999 OVC011 05/03 Q1020
                        NOSIG=
201801081250 METAR COR EGLL 081250Z AUTO 09010KT 9999 OVC010 05/03 Q1020
                        TEMPO BKN009=
201801081220 METAR COR EGLL 081220Z AUTO 09012KT 9999 OVC010 05/03 Q1021
                        TEMPO BKN009=
201801081150 METAR COR EGLL 081150Z AUTO 08009KT 9999 OVC010 05/03 Q1021
                        TEMPO BKN009=
201801081120 METAR COR EGLL 081120Z AUTO 08010KT 9999 OVC010 05/03 Q1022
                        TEMPO BKN009=
201801081050 METAR COR EGLL 081050Z AUTO 09010KT 9999 OVC010 05/03 Q1022
                        TEMPO BKN009=
201801081020 METAR COR EGLL 081020Z AUTO 08010KT 9999 OVC010 05/02 Q1022
                        TEMPO BKN009=
201801080950 METAR COR EGLL 080950Z AUTO 08010KT 050V120 9999 OVC010 04/02
                        Q1023 TEMPO BKN009=
201801080920 METAR COR EGLL 080920Z AUTO 07008KT 050V110 9999 OVC009 04/02
                        Q1023 TEMPO BKN010=
201801080850 METAR COR EGLL 080850Z AUTO 07007KT 9999 OVC009 04/02 Q1023
                        TEMPO BKN010=
201801080820 METAR COR EGLL 080820Z AUTO 07008KT 9999 OVC010 04/02 Q1023
                        TEMPO BKN009=
201801080750 METAR COR EGLL 080750Z AUTO 07008KT 9999 OVC011 04/02 Q1023
                        NOSIG=
201801080720 METAR COR EGLL 080720Z AUTO 07009KT 9999 OVC011 04/02 Q1023
                        NOSIG=
201801080650 METAR COR EGLL 080650Z AUTO 07009KT 9999 OVC012 04/01 Q1023
                        NOSIG=
201801080620 METAR COR EGLL 080620Z AUTO 08011KT 9999 OVC013 04/01 Q1023
                        NOSIG=
201801080550 METAR COR EGLL 080550Z AUTO 07011KT 9999 OVC013 04/01 Q1023
                        NOSIG=
201801080520 METAR COR EGLL 080520Z AUTO 07012KT 9999 BKN014 OVC021 04/01
                        Q1023 NOSIG=
201801080450 METAR COR EGLL 080450Z AUTO 08011KT 050V110 9999 OVC015 04/01
                        Q1024 BECMG OVC013=
201801080420 METAR COR EGLL 080420Z AUTO 07010KT 9999 OVC015 04/01 Q1024
                        BECMG BKN013=
201801080350 METAR COR EGLL 080350Z AUTO 07009KT 9999 OVC017 04/01 Q1024
                        TEMPO BKN014=
201801080320 METAR COR EGLL 080320Z AUTO 07011KT 040V100 9999 OVC017 04/01
                        Q1024 NOSIG=
201801080250 METAR COR EGLL 080250Z AUTO 07012KT 9999 OVC017 04/00 Q1024
                        NOSIG=
201801080220 METAR COR EGLL 080220Z AUTO 07009KT 9999 OVC018 03/00 Q1024
                        NOSIG=
201801080150 METAR COR EGLL 080150Z AUTO 06009KT 9999 BKN018 OVC022 03/00
                        Q1024 NOSIG=
201801080120 METAR COR EGLL 080120Z AUTO 06010KT 9999 OVC019 03/M00 Q1024
                        TEMPO BKN014=
201801080050 METAR COR EGLL 080050Z AUTO 06010KT 9999 OVC020 03/M01 Q1024
                        TEMPO BKN014=
201801080020 METAR COR EGLL 080020Z AUTO 05009KT 9999 OVC020 03/M01 Q1025
                        TEMPO BKN014=
201801072350 METAR COR EGLL 072350Z AUTO 06010KT 9999 BKN022 03/M01 Q1025
                        NOSIG=
201801072320 METAR COR EGLL 072320Z AUTO 05009KT 9999 OVC023 03/M01 Q1025
                        NOSIG=
201801072250 METAR COR EGLL 072250Z AUTO 05009KT 9999 BKN023 02/M02 Q1025
                        NOSIG=
201801072220 METAR COR EGLL 072220Z AUTO 05008KT 9999 BKN023 02/M02 Q1025
                        NOSIG=
201801072150 METAR COR EGLL 072150Z AUTO 06010KT 9999 NCD 02/M02 Q1025
                        NOSIG=
201801072120 METAR COR EGLL 072120Z AUTO 06009KT 9999 NCD 02/M02 Q1026
                        NOSIG=
201801072050 METAR COR EGLL 072050Z AUTO 05009KT 9999 NCD 02/M03 Q1026
                        NOSIG=
201801072020 METAR COR EGLL 072020Z AUTO 06010KT 9999 NCD 02/M03 Q1026
                        NOSIG=
201801071950 METAR COR EGLL 071950Z AUTO 06009KT 9999 NCD 02/M03 Q1026
                        NOSIG=
201801071920 METAR COR EGLL 071920Z AUTO 06009KT 9999 NCD 02/M03 Q1026
                        NOSIG=
201801071850 METAR COR EGLL 071850Z AUTO 06010KT 020V090 9999 NCD 02/M03
                        Q1026 NOSIG=
201801071820 METAR COR EGLL 071820Z AUTO 06011KT 9999 NCD 03/M03 Q1026
                        NOSIG=
201801071750 METAR COR EGLL 071750Z AUTO 05009KT 9999 NCD 03/M03 Q1026
                        NOSIG=
201801071720 METAR COR EGLL 071720Z AUTO 05010KT 9999 NCD 03/M03 Q1026
                        NOSIG=
201801071650 METAR COR EGLL 071650Z AUTO 05011KT 9999 NCD 03/M03 Q1026
                        NOSIG=
201801071620 METAR COR EGLL 071620Z AUTO 06011KT 9999 NCD 04/M02 Q1026
                        NOSIG=
201801071550 METAR COR EGLL 071550Z AUTO 06012KT 9999 NCD 04/M02 Q1026
                        NOSIG=
201801071520 METAR COR EGLL 071520Z AUTO 06014KT 9999 NCD 05/M02 Q1026
                        NOSIG=
201801071450 METAR COR EGLL 071450Z AUTO 06013KT 9999 NCD 05/M02 Q1026
                        NOSIG=
201801071420 METAR COR EGLL 071420Z AUTO 06014KT 9999 NCD 06/M02 Q1026
                        NOSIG=
201801071350 METAR COR EGLL 071350Z AUTO 06013KT 9999 NCD 06/M02 Q1026
                        NOSIG=
201801071320 METAR COR EGLL 071320Z AUTO 06014KT 9999 NCD 06/M02 Q1026
                        NOSIG=
201801071250 METAR COR EGLL 071250Z AUTO 06013KT 9999 NCD 06/M01 Q1026
                        NOSIG=
201801071220 METAR COR EGLL 071220Z AUTO 06012KT 9999 FEW029 05/M00 Q1026
                        NOSIG=
201801071150 METAR COR EGLL 071150Z AUTO 06013KT 9999 BKN026 BKN031 05/M00
                        Q1026 NOSIG=
201801071120 METAR COR EGLL 071120Z AUTO 06014KT 9999 BKN026 05/M00 Q1026
                        NOSIG=
201801071050 METAR COR EGLL 071050Z AUTO 06012KT 9999 NCD 04/M00 Q1027
                        NOSIG=
201801071020 METAR COR EGLL 071020Z AUTO 05012KT 9999 NCD 04/00 Q1026
                        NOSIG=
201801070950 METAR COR EGLL 070950Z AUTO 05009KT 9999 BKN030 04/01 Q1026
                        NOSIG=
201801070920 METAR COR EGLL 070920Z AUTO 05009KT 9999 BKN033 03/01 Q1026
                        NOSIG=
201801070850 METAR COR EGLL 070850Z AUTO 05009KT 9999 SCT037 03/01 Q1026
                        NOSIG=
201801070820 METAR COR EGLL 070820Z AUTO 05009KT 010V070 9999 FEW015 SCT023
                        03/01 Q1025 NOSIG=
201801070750 METAR COR EGLL 070750Z AUTO 04009KT 360V070 9999 FEW018 03/00
                        Q1025 NOSIG=
201801070720 METAR COR EGLL 070720Z AUTO 04009KT 9999 FEW031 SCT043 03/00
                        Q1025 NOSIG=
201801070650 METAR COR EGLL 070650Z AUTO 04009KT 360V070 9999 FEW024 SCT028
                        BKN033 03/M00 Q1024 NOSIG=
201801070620 METAR COR EGLL 070620Z AUTO 04010KT 010V070 9999 BKN047 03/M01
                        Q1024 NOSIG=
201801070550 METAR COR EGLL 070550Z AUTO 04008KT 9999 NCD 03/M01 Q1023
                        NOSIG=
201801070520 METAR COR EGLL 070520Z AUTO 04009KT 9999 SCT049 03/M01 Q1023
                        NOSIG=
201801070450 METAR COR EGLL 070450Z AUTO 03009KT 360V060 9999 SCT049 03/M01
                        Q1023 NOSIG=
201801070420 METAR COR EGLL 070420Z AUTO 03008KT 330V060 9999 NCD 03/M01
                        Q1023 NOSIG=
201801070350 METAR COR EGLL 070350Z AUTO 04009KT 9999 NCD 03/M02 Q1023
                        NOSIG=
201801070320 METAR COR EGLL 070320Z AUTO 03008KT 350V060 9999 NCD 02/M01
                        Q1023 NOSIG=
201801070250 METAR COR EGLL 070250Z AUTO 04008KT 360V070 9999 NCD 03/M01
                        Q1022 NOSIG=
201801070220 METAR COR EGLL 070220Z AUTO 04007KT 9999 NCD 03/M01 Q1022
                        NOSIG=
201801070150 METAR COR EGLL 070150Z AUTO 04008KT 360V080 9999 NCD 03/M01
                        Q1022 NOSIG=
201801070120 METAR COR EGLL 070120Z AUTO 04008KT 360V070 9999 NCD 03/M01
                        Q1022 NOSIG=
201801070050 METAR COR EGLL 070050Z AUTO 04009KT 9999 NCD 03/M01 Q1021
                        NOSIG=
201801070020 METAR COR EGLL 070020Z AUTO 04008KT 360V060 9999 NCD 03/M01
                        Q1021 NOSIG=
201801062350 METAR COR EGLL 062350Z AUTO 04009KT 360V070 9999 NCD 03/M01
                        Q1021 NOSIG=
201801062320 METAR COR EGLL 062320Z AUTO 03008KT 360V060 9999 NCD 03/M00
                        Q1021 NOSIG=
201801062250 METAR COR EGLL 062250Z AUTO 04009KT 350V070 9999 NCD 03/M00
                        Q1021 NOSIG=
201801062220 METAR COR EGLL 062220Z AUTO 04008KT 9999 NCD 04/M00 Q1020
                        NOSIG=
201801062150 METAR COR EGLL 062150Z AUTO 04008KT 9999 NCD 04/M00 Q1020
                        NOSIG=
201801062120 METAR COR EGLL 062120Z AUTO 04008KT 360V070 9999 NCD 04/00
                        Q1019 NOSIG=
201801062050 METAR COR EGLL 062050Z AUTO 04008KT 350V060 9999 NCD 04/01
                        Q1019 NOSIG=
201801062020 METAR COR EGLL 062020Z AUTO 04009KT 360V060 9999 NCD 04/01
                        Q1018 NOSIG=
201801061950 METAR COR EGLL 061950Z AUTO 04009KT 010V070 9999 NCD 04/01
                        Q1017 NOSIG=
201801061920 METAR COR EGLL 061920Z AUTO 04009KT 350V060 9999 NCD 04/01
                        Q1017 NOSIG=
201801061850 METAR COR EGLL 061850Z AUTO 04008KT 360V060 9999 NCD 05/01
                        Q1016 NOSIG=
201801061820 METAR COR EGLL 061820Z AUTO 04008KT 9999 FEW049 05/02 Q1016
                        NOSIG=
201801061750 METAR COR EGLL 061750Z AUTO 04007KT 340V060 9999 SCT037 05/02
                        Q1015 NOSIG=
201801061720 METAR COR EGLL 061720Z AUTO 04008KT 360V070 9999 BKN034 05/03
                        Q1015 NOSIG=
201801061650 METAR COR EGLL 061650Z AUTO 04008KT 9999 SCT018 SCT030 BKN036
                        06/03 Q1014 NOSIG=
201801061620 METAR COR EGLL 061620Z AUTO 04010KT 020V080 9999 BKN016 OVC035
                        06/03 Q1013 NOSIG=
201801061550 METAR COR EGLL 061550Z AUTO 04008KT 360V070 9999 BKN016 OVC033
                        06/03 Q1013 TEMPO BKN012=
201801061520 METAR COR EGLL 061520Z AUTO 04007KT 350V080 9999 BKN027 BKN032
                        05/03 Q1012 NOSIG=
201801061450 METAR COR EGLL 061450Z AUTO 03008KT 360V070 9999 FEW014 SCT031
                        05/03 Q1012 NOSIG=
201801061420 METAR COR EGLL 061420Z AUTO 04008KT 9999 BKN010 05/03 Q1011
                        TEMPO SCT010=
201801061350 METAR COR EGLL 061350Z AUTO 05007KT 010V080 9999 BKN009 BKN041
                        05/03 Q1011 TEMPO SCT009 BKN014=
201801061320 METAR COR EGLL 061320Z AUTO 03006KT 350V070 9999 FEW011 SCT038
                        05/03 Q1011 TEMPO BKN008=
201801061250 METAR COR EGLL 061250Z AUTO 03006KT 320V050 9999 FEW043 05/02
                        Q1010 NOSIG=
201801061220 METAR COR EGLL 061220Z AUTO 04004KT 360V090 9999 FEW012 BKN033
                        05/02 Q1010 NOSIG=
201801061150 METAR COR EGLL 061150Z AUTO 04005KT 360V080 9999 FEW034 04/02
                        Q1010 NOSIG=
201801061120 METAR COR EGLL 061120Z AUTO 02004KT 340V060 9000 NCD 03/02
                        Q1010 NOSIG=
201801061050 METAR COR EGLL 061050Z AUTO VRB03KT 6000 NCD 02/01 Q1009
                        NOSIG=
201801061020 METAR COR EGLL 061020Z VRB03KT 5000 HZ NSC 02/01 Q1009 NOSIG=
201801060950 METAR COR EGLL 060950Z VRB03KT 5000 BR NSC 01/00 Q1008 NOSIG=
201801060920 METAR COR EGLL 060920Z VRB03KT 3900 BR SCT002 SCT019 01/00
                        Q1008 BECMG 5000=
201801060850 METAR COR EGLL 060850Z 36004KT 4000 BR FEW001 SCT002 01/00
                        Q1007 BECMG 5000=
201801060820 METAR COR EGLL 060820Z VRB03KT 4100 BR FEW001 SCT002 01/00
                        Q1007 BECMG 5000=
201801060750 METAR COR EGLL 060750Z 04004KT 360V060 3800 BR SCT002 01/00
                        Q1006 TEMPO 2500 BKN002=
201801060720 METAR COR EGLL 060720Z AUTO VRB03KT 4600 HZ NCD 01/00 Q1005
                        NOSIG=
201801060650 METAR COR EGLL 060650Z AUTO VRB03KT 5000 HZ NCD 01/00 Q1005
                        TEMPO 4000 BR=
201801060620 METAR COR EGLL 060620Z AUTO 04003KT 7000 NCD 01/01 Q1004
                        NOSIG=
201801060550 METAR COR EGLL 060550Z AUTO VRB03KT 8000 NCD 01/00 Q1003
                        NOSIG=
201801060520 METAR COR EGLL 060520Z AUTO VRB02KT 9000 NCD 01/00 Q1003
                        NOSIG=
201801060450 METAR COR EGLL 060450Z AUTO VRB02KT 9999 NCD 02/01 Q1003
                        NOSIG=
201801060420 METAR COR EGLL 060420Z AUTO 01002KT 9999 NCD 02/01 Q1002
                        NOSIG=
201801060350 METAR COR EGLL 060350Z AUTO 03003KT 9999 FEW026 03/01 Q1002
                        NOSIG=
201801060320 METAR COR EGLL 060320Z AUTO VRB03KT 9999 NCD 03/02 Q1002
                        NOSIG=
201801060250 METAR COR EGLL 060250Z AUTO VRB02KT 9999 NCD 03/02 Q1002
                        NOSIG=
201801060220 METAR COR EGLL 060220Z AUTO 01005KT 9999 -RA SCT045 03/02
                        Q1001 NOSIG=
201801060150 METAR COR EGLL 060150Z AUTO 02003KT 9999 SCT049 04/02 Q1001
                        NOSIG=
201801060120 METAR COR EGLL 060120Z AUTO 04004KT 9999 SCT049/// //////TCU
                        03/02 Q1001 NOSIG=
201801060050 METAR COR EGLL 060050Z AUTO 02004KT 9999 OVC047/// //////TCU
                        03/02 Q1001 NOSIG=
201801060020 METAR COR EGLL 060020Z AUTO 04002KT 9999 OVC047/// //////TCU
                        03/02 Q1001 NOSIG=
201801052350 METAR COR EGLL 052350Z AUTO 02002KT 9999 BKN047 03/02 Q1000
                        NOSIG=
201801052320 METAR COR EGLL 052320Z AUTO 08001KT 9999 SCT049 03/01 Q1000
                        NOSIG=
201801052250 METAR COR EGLL 052250Z AUTO 13003KT 9999 NCD 03/02 Q1000
                        NOSIG=
201801052220 METAR COR EGLL 052220Z AUTO 08001KT 9999 NCD 03/01 Q0999
                        NOSIG=
201801052150 METAR COR EGLL 052150Z AUTO 16004KT 130V200 9999 NCD 04/02
                        Q0999 NOSIG=
201801052120 METAR COR EGLL 052120Z AUTO VRB02KT 9999 NCD 04/02 Q0998
                        NOSIG=
201801052050 METAR COR EGLL 052050Z AUTO 20004KT 9999 NCD 04/02 Q0998
                        NOSIG=
201801052020 METAR COR EGLL 052020Z AUTO 22004KT 9999 NCD 04/02 Q0998
                        NOSIG=
201801051950 METAR COR EGLL 051950Z AUTO 22004KT 180V240 9999 NCD 04/02
                        Q0998 NOSIG=
201801051920 METAR COR EGLL 051920Z AUTO 25005KT 220V280 9999 NCD 04/02
                        Q0997 NOSIG=
201801051850 METAR COR EGLL 051850Z AUTO 27005KT 9999 NCD 05/02 Q0997
                        NOSIG=
201801051820 METAR COR EGLL 051820Z AUTO 25008KT 9999 NCD 06/02 Q0997
                        NOSIG=
201801051750 METAR COR EGLL 051750Z AUTO 26008KT 9999 NCD 06/02 Q0996
                        NOSIG=
201801051720 METAR COR EGLL 051720Z AUTO 25010KT 9999 NCD 06/02 Q0996
                        NOSIG=
201801051650 METAR COR EGLL 051650Z AUTO 26011KT 9999 BKN028 06/02 Q0995
                        NOSIG=
201801051620 METAR COR EGLL 051620Z AUTO 27011KT 9999 NCD 06/02 Q0995
                        NOSIG=
201801051550 METAR COR EGLL 051550Z AUTO 25012KT 9999 NCD 07/02 Q0995
                        NOSIG=
201801051520 METAR COR EGLL 051520Z AUTO 25013KT 9999 NCD 08/02 Q0994
                        NOSIG=
201801051450 METAR COR EGLL 051450Z AUTO 24015KT 9999 NCD 08/02 Q0994
                        NOSIG=
201801051420 METAR COR EGLL 051420Z AUTO 25015KT 9999 FEW031 SCT038 08/02
                        Q0994 NOSIG=
201801051350 METAR COR EGLL 051350Z AUTO 25015KT 9999 SCT034 08/02 Q0993
                        NOSIG=
201801051320 METAR COR EGLL 051320Z AUTO 25016KT 9999 BKN031 08/02 Q0993
                        NOSIG=
201801051250 METAR COR EGLL 051250Z AUTO 25017KT 9999 BKN030 08/02 Q0993
                        NOSIG=
201801051220 METAR COR EGLL 051220Z AUTO 25014KT 9999 BKN032 09/02 Q0993
                        NOSIG=
201801051150 METAR COR EGLL 051150Z AUTO 23016KT 9999 SCT034 BKN042 08/03
                        Q0992 NOSIG=
201801051120 METAR COR EGLL 051120Z AUTO 24014KT 210V280 9999 BKN028 BKN033
                        09/03 Q0992 NOSIG=
201801051050 METAR COR EGLL 051050Z AUTO 23010KT 9999 FEW029 SCT033 08/04
                        Q0993 NOSIG=
201801051020 METAR COR EGLL 051020Z AUTO 21009KT 180V250 9999 NCD 07/04
                        Q0992 NOSIG=
201801050950 METAR COR EGLL 050950Z AUTO 22010KT 9999 NCD 07/04 Q0992
                        NOSIG=
201801050920 METAR COR EGLL 050920Z AUTO 22010KT 9999 NCD 07/04 Q0993
                        NOSIG=
201801050850 METAR COR EGLL 050850Z AUTO 21010KT 9999 //////TCU 08/04
                        Q0993 NOSIG=
201801050820 METAR COR EGLL 050820Z AUTO 20008KT 9999 FEW044/// //////TCU
                        07/05 Q0993 NOSIG=
201801050750 METAR COR EGLL 050750Z AUTO 21009KT 9000 -RA SCT042 07/05
                        Q0993 NOSIG=
201801050720 METAR COR EGLL 050720Z AUTO 21007KT 9999 NCD 07/04 Q0993
                        NOSIG=
201801050650 METAR COR EGLL 050650Z AUTO 21009KT 9999 NCD 06/04 Q0993
                        NOSIG=
201801050620 METAR COR EGLL 050620Z AUTO 21008KT 9999 NCD 06/04 Q0993
                        NOSIG=
201801050550 METAR COR EGLL 050550Z AUTO 21007KT 9999 NCD 06/04 Q0993
                        NOSIG=
201801050520 METAR COR EGLL 050520Z AUTO 21006KT 9999 NCD 06/04 Q0993
                        NOSIG=
201801050450 METAR COR EGLL 050450Z AUTO 22007KT 9999 NCD 06/04 Q0993
                        NOSIG=
201801050420 METAR COR EGLL 050420Z AUTO 23011KT 9999 SCT033 BKN042 07/04
                        Q0993 NOSIG=
201801050350 METAR COR EGLL 050350Z AUTO 23010KT 9999 SCT041 07/04 Q0994
                        NOSIG=
201801050320 METAR COR EGLL 050320Z AUTO 23010KT 9999 SCT042 07/05 Q0994
                        NOSIG=
201801050250 METAR COR EGLL 050250Z AUTO 24009KT 9999 BKN042 06/05 Q0994
                        NOSIG=
201801050220 METAR COR EGLL 050220Z AUTO 23007KT 9999 SCT044 06/05 Q0994
                        NOSIG=
201801050150 METAR COR EGLL 050150Z AUTO 22005KT 9999 FEW037 06/05 Q0994
                        NOSIG=
201801050120 METAR COR EGLL 050120Z AUTO 23009KT 9999 FEW026 BKN038 06/05
                        Q0993 NOSIG=
201801050050 METAR COR EGLL 050050Z AUTO 23007KT 9999 BKN044 06/05 Q0993
                        NOSIG=
201801050020 METAR COR EGLL 050020Z AUTO 22007KT 9999 NCD 06/04 Q0993
                        NOSIG=
201801042350 METAR COR EGLL 042350Z AUTO 20006KT 9999 NCD 06/04 Q0993
                        NOSIG=
201801042320 METAR COR EGLL 042320Z AUTO 21007KT 9999 FEW044/// //////TCU
                        06/04 Q0993 NOSIG=
201801042250 METAR COR EGLL 042250Z AUTO 22008KT 9999 -RA FEW037/// SCT044///
                        //////TCU 07/04 Q0994 NOSIG=
201801042220 METAR COR EGLL 042220Z AUTO 24011KT 200V280 9999 -RA BKN023///
                        BKN033/// //////CB 07/04 Q0995 TEMPO
                        RA=
201801042150 METAR COR EGLL 042150Z AUTO 23007KT 8000 -RA SCT024/// BKN028///
                        BKN035/// //////CB 07/04 Q0995 TEMPO
                        RA=
201801042120 METAR COR EGLL 042120Z AUTO 23007KT 9999 -RA SCT042 08/04
                        Q0995 TEMPO RA=
201801042050 METAR COR EGLL 042050Z AUTO 24010KT 9999 FEW040 08/03 Q0995
                        NOSIG=
201801042020 METAR COR EGLL 042020Z AUTO 24013KT 9999 NCD 08/03 Q0996
                        NOSIG=
201801041950 METAR COR EGLL 041950Z AUTO 25014KT 9999 NCD 08/03 Q0996
                        NOSIG=
201801041920 METAR COR EGLL 041920Z AUTO 24014KT 9999 NCD 07/03 Q0996
                        NOSIG=
201801041850 METAR COR EGLL 041850Z AUTO 25011KT 9999 NCD 07/03 Q0995
                        NOSIG=
201801041820 METAR COR EGLL 041820Z AUTO 26016KT 9999 NCD 07/02 Q0995
                        NOSIG=
201801041750 METAR COR EGLL 041750Z AUTO 26016KT 9999 NCD 08/02 Q0995
                        NOSIG=
201801041720 METAR COR EGLL 041720Z AUTO 26021KT 9999 FEW036 08/02 Q0994
                        NOSIG=
201801041650 METAR COR EGLL 041650Z AUTO 27022G32KT 9999 NCD 08/02 Q0994
                        NOSIG=
201801041620 METAR COR EGLL 041620Z AUTO 27022KT 9999 FEW037 09/03 Q0993
                        NOSIG=
201801041550 METAR COR EGLL 041550Z AUTO 27027KT 9999 BKN036 09/03 Q0992
                        NOSIG=
201801041520 METAR COR EGLL 041520Z AUTO 26025KT 9999 BKN034 10/03 Q0992
                        NOSIG=
201801041450 METAR COR EGLL 041450Z AUTO 26028G40KT 9999 BKN032 10/04
                        Q0991 NOSIG=
201801041420 METAR COR EGLL 041420Z AUTO 26031G45KT 9999 BKN031 11/05
                        Q0991 NOSIG=
201801041350 METAR COR EGLL 041350Z AUTO 26029G42KT 9999 BKN035 11/05
                        Q0991 NOSIG=
201801041320 METAR COR EGLL 041320Z AUTO 26023KT 9999 BKN036 12/06 Q0990
                        NOSIG=
201801041250 METAR COR EGLL 041250Z AUTO 25020KT 9999 SCT038 BKN046 13/06
                        Q0990 NOSIG=
201801041220 METAR COR EGLL 041220Z AUTO 25021G32KT 9000 SCT037 BKN043
                        13/07 Q0990 NOSIG=
201801041150 METAR COR EGLL 041150Z AUTO 24017KT 9000 BKN032 BKN046 13/08
                        Q0990 NOSIG=
201801041120 METAR COR EGLL 041120Z AUTO 24016KT 9999 BKN032 12/09 Q0991
                        NOSIG=
201801041050 METAR COR EGLL 041050Z AUTO 23013KT 9999 SCT031 BKN042 12/09
                        Q0991 NOSIG=
201801041020 METAR COR EGLL 041020Z AUTO 23012KT 9999 FEW034 BKN041 12/10
                        Q0991 NOSIG=
201801040950 METAR COR EGLL 040950Z AUTO 24015KT 9999 FEW034 BKN046 12/10
                        Q0992 NOSIG=
201801040920 METAR COR EGLL 040920Z AUTO 21008KT 8000 FEW026 BKN048 08/08
                        Q0992 BECMG 27020G30KT=
201801040850 METAR COR EGLL 040850Z AUTO 20007KT 170V240 4600 -RADZ SCT004
                        SCT011 BKN025 08/07 Q0992 BECMG 9999=
201801040820 METAR COR EGLL 040820Z AUTO 18004KT 130V260 3400 -RADZ BKN002
                        OVC009 07/06 Q0992 REDZ TEMPO 5000
                        FEW002=
201801040750 METAR COR EGLL 040750Z AUTO 14004KT 090V220 3400 DZ BKN002
                        OVC008 07/06 Q0993 RERA TEMPO 6000
                        SCT002 BKN005=
201801040720 METAR COR EGLL 040720Z AUTO 13005KT 100V180 3500 RA BKN002
                        OVC012 07/06 Q0993 TEMPO 7000 -RA
                        BKN009=
201801040650 METAR COR EGLL 040650Z AUTO 15006KT 110V200 5000 -RA FEW003
                        BKN010 OVC017TCU 07/06 Q0994 RERA
                        TEMPO 4000 RA BKN005=
201801040620 METAR COR EGLL 040620Z AUTO 13005KT 100V180 5000 -RA SCT003
                        BKN012 OVC021 06/06 Q0995 TEMPO 4000
                        -RADZ BKN003=
201801040550 METAR COR EGLL 040550Z AUTO 15004KT 6000 -RA BKN018 OVC045
                        06/06 Q0996 TEMPO BKN014=
201801040520 METAR COR EGLL 040520Z AUTO 17005KT 7000 -RA FEW026 BKN031TCU
                        06/05 Q0996 TEMPO 4000 -RADZ BKN014=
201801040450 METAR COR EGLL 040450Z AUTO 21004KT 6000 -RA BKN024 BKN031
                        OVC038 06/05 Q0997 TEMPO 4000 RA
                        BKN014=
201801040420 METAR COR EGLL 040420Z AUTO 21006KT 8000 -RA BKN033 BKN044
                        06/05 Q0998 TEMPO 4000 RA=
201801040350 METAR COR EGLL 040350Z AUTO 21007KT 9999 -RA FEW049TCU 07/05
                        Q0998 NOSIG=
201801040320 METAR COR EGLL 040320Z AUTO 22007KT 9999 -RA //////TCU 07/04
                        Q0998 NOSIG=
201801040250 METAR COR EGLL 040250Z AUTO 22007KT 9999 //////TCU 07/04
                        Q0999 NOSIG=
201801040220 METAR COR EGLL 040220Z AUTO 24008KT 9999 NCD 07/03 Q1000
                        NOSIG=
201801040150 METAR COR EGLL 040150Z AUTO 23010KT 9999 NCD 07/03 Q1000
                        NOSIG=
201801040120 METAR COR EGLL 040120Z AUTO 23010KT 9999 NCD 07/03 Q1000
                        NOSIG=
201801040050 METAR COR EGLL 040050Z AUTO 24013KT 9999 NCD 07/03 Q1000
                        NOSIG=
201801040020 METAR COR EGLL 040020Z AUTO 24013KT 9999 NCD 08/04 Q1000
                        NOSIG=
201801032350 METAR COR EGLL 032350Z AUTO 24012KT 8000 NCD 08/04 Q1001
                        NOSIG=
201801032320 METAR COR EGLL 032320Z AUTO 25011KT 8000 SCT025 SCT036 08/04
                        Q1001 NOSIG=
201801032250 METAR COR EGLL 032250Z AUTO 24013KT 8000 SCT024 09/04 Q1001
                        NOSIG=
201801032220 METAR COR EGLL 032220Z AUTO 25014KT 8000 SCT022 08/04 Q1001
                        NOSIG=
201801032150 METAR COR EGLL 032150Z AUTO 24014KT 8000 SCT023 08/04 Q1001
                        NOSIG=
201801032120 METAR COR EGLL 032120Z AUTO 25013KT 8000 SCT026 09/04 Q1001
                        NOSIG=
201801032050 METAR COR EGLL 032050Z AUTO 25013KT 8000 BKN027 09/04 Q1001
                        NOSIG=
201801032020 METAR COR EGLL 032020Z AUTO 24012KT 8000 SCT027 BKN031 09/04
                        Q1001 NOSIG=
201801031950 METAR COR EGLL 031950Z AUTO 26017KT 8000 FEW026 09/04 Q1001
                        NOSIG=
201801031920 METAR COR EGLL 031920Z AUTO 26018KT 9000 NCD 09/03 Q1002
                        NOSIG=
201801031850 METAR COR EGLL 031850Z AUTO 26020KT 9000 NCD 09/03 Q1002
                        NOSIG=
201801031820 METAR COR EGLL 031820Z AUTO 26020KT 9000 NCD 09/03 Q1001
                        NOSIG=
201801031750 METAR COR EGLL 031750Z AUTO 25019KT 9000 NCD 09/04 Q1001
                        NOSIG=
201801031720 METAR COR EGLL 031720Z AUTO 26021KT 9000 NCD 09/03 Q1001
                        NOSIG=
201801031650 METAR COR EGLL 031650Z AUTO 26021KT 8000 NCD 09/04 Q1001
                        NOSIG=
201801031620 METAR COR EGLL 031620Z AUTO 26022KT 9000 NCD 09/03 Q1001
                        NOSIG=
201801031550 METAR COR EGLL 031550Z AUTO 26021KT 9999 NCD 10/02 Q1001
                        NOSIG=
201801031520 METAR COR EGLL 031520Z AUTO 27021KT 9000 NCD 10/02 Q1001
                        NOSIG=
201801031450 METAR COR EGLL 031450Z AUTO 27020KT 9999 NCD 10/02 Q1000
                        NOSIG=
201801031420 METAR COR EGLL 031420Z AUTO 27023KT 9999 BKN043 10/02 Q1000
                        NOSIG=
201801031350 METAR COR EGLL 031350Z AUTO 27026G37KT 9999 BKN042 10/03
                        Q1000 NOSIG=
201801031320 METAR COR EGLL 031320Z AUTO 27025G37KT 9999 BKN041 11/03
                        Q0999 NOSIG=
201801031250 METAR COR EGLL 031250Z AUTO 27025G38KT 9999 BKN042 10/03
                        Q0999 NOSIG=
201801031220 METAR COR EGLL 031220Z AUTO 27026KT 9999 BKN040 10/03 Q0999
                        NOSIG=
201801031150 METAR COR EGLL 031150Z AUTO 27024KT 9999 SCT040 BKN047 10/03
                        Q0998 NOSIG=
201801031120 METAR COR EGLL 031120Z AUTO 27022G34KT 9999 OVC039 10/03
                        Q0998 NOSIG=
201801031050 METAR COR EGLL 031050Z AUTO 27025KT 9999 BKN039 10/03 Q0998
                        NOSIG=
201801031020 METAR COR EGLL 031020Z AUTO 26027KT 9999 SCT039 BKN049 09/02
                        Q0997 NOSIG=
201801030950 METAR COR EGLL 030950Z AUTO 26024G34KT 9999 BKN039 09/02
                        Q0997 NOSIG=
201801030920 METAR COR EGLL 030920Z AUTO 27023KT 9999 SCT041 OVC049 09/02
                        Q0996 NOSIG=
201801030850 METAR COR EGLL 030850Z AUTO 27027G37KT 9999 BKN043 BKN049
                        08/02 Q0995 NOSIG=
201801030820 METAR COR EGLL 030820Z AUTO 27028G38KT 9999 SCT036 BKN044
                        08/02 Q0994 NOSIG=
201801030750 METAR COR EGLL 030750Z AUTO 27023G33KT 9999 -RA BKN038 BKN048
                        08/02 Q0994 NOSIG=
201801030720 METAR COR EGLL 030720Z AUTO 27022KT 9999 FEW042 08/01 Q0993
                        TEMPO SHRA=
201801030650 METAR COR EGLL 030650Z AUTO 27023G37KT 9999 FEW043 08/01
                        Q0992 NOSIG=
201801030620 METAR COR EGLL 030620Z AUTO 27027KT 9999 FEW049 08/01 Q0991
                        NOSIG=
201801030550 METAR COR EGLL 030550Z AUTO 27027G37KT 9999 SCT047 08/01
                        Q0991 NOSIG=
201801030520 METAR COR EGLL 030520Z AUTO 27024KT 9999 NCD 08/01 Q0990
                        NOSIG=
201801030450 METAR COR EGLL 030450Z AUTO 27025KT 9999 NCD 08/01 Q0990
                        NOSIG=
201801030420 METAR COR EGLL 030420Z AUTO 26029G42KT 9999 FEW049 09/01
                        Q0989 NOSIG=
201801030350 METAR COR EGLL 030350Z AUTO 26021KT 9999 FEW036 08/02 Q0989
                        NOSIG=
201801030320 METAR COR EGLL 030320Z 27025G35KT 9999 FEW048 08/01 Q0989
                        NOSIG=
201801030250 METAR COR EGLL 030250Z AUTO 26021G31KT 9999 SCT045CB 10/03
                        Q0989 NOSIG=
201801030220 METAR COR EGLL 030220Z AUTO 26028G39KT 9999 FEW046 10/03
                        Q0989 NOSIG=
201801030150 METAR COR EGLL 030150Z AUTO 25022KT 9999 FEW042 10/05 Q0989
                        NOSIG=
201801030120 METAR COR EGLL 030120Z AUTO 26019KT 9999 SCT035 10/05 Q0989
                        NOSIG=
201801030050 METAR COR EGLL 030050Z AUTO 25024G34KT 9999 NCD 10/06 Q0989
                        NOSIG=
201801030020 METAR COR EGLL 030020Z AUTO 26024KT 9999 NCD 11/06 Q0989
                        NOSIG=
201801022350 METAR COR EGLL 022350Z AUTO 26023KT 9999 FEW047CB 11/07 Q0989
                        RERA NOSIG=
201801022320 METAR COR EGLL 022320Z 23021G42KT 4000 RA SCT011CB BKN018
                        12/11 Q0989 BECMG 3000 +RA BKN010=
201801022250 METAR COR EGLL 022250Z AUTO 22019KT 7000 -RA BKN010 OVC026CB
                        12/11 Q0989 TEMPO 2000 +RA BKN008=
201801022220 METAR COR EGLL 022220Z AUTO 21017G27KT 5000 -RA BKN009 BKN017
                        OVC026TCU 12/11 Q0990 TEMPO 3000
                        +RA BKN008=
201801022150 METAR COR EGLL 022150Z AUTO 21018KT 6000 -RA BKN010 BKN019
                        OVC023 12/10 Q0992 TEMPO 4000 RA=
201801022120 METAR COR EGLL 022120Z AUTO 21021KT 4600 -RADZ BKN011 OVC025
                        11/09 Q0993 NOSIG=
201801022050 METAR COR EGLL 022050Z AUTO 21017KT 4000 -RADZ FEW013 SCT017
                        BKN022 10/09 Q0995 RERA BECMG BKN014=
201801022020 METAR COR EGLL 022020Z AUTO 21015KT 5000 -RA FEW018 SCT022
                        BKN027TCU 10/08 Q0997 RERA BECMG
                        BKN014=
201801021950 METAR COR EGLL 021950Z AUTO 22016KT 6000 -RA FEW021TCU 10/08
                        Q0998 NOSIG=
201801021920 METAR COR EGLL 021920Z AUTO 21012KT 6000 NCD 10/08 Q0999
                        NOSIG=
201801021850 METAR COR EGLL 021850Z AUTO 21012KT 6000 NCD 10/08 Q0999
                        NOSIG=
201801021820 METAR COR EGLL 021820Z AUTO 21009KT 6000 -RA //////TCU 10/08
                        Q1000 NOSIG=
201801021750 METAR COR EGLL 021750Z AUTO 24011KT 6000 NCD 11/07 Q1001
                        NOSIG=
201801021720 METAR COR EGLL 021720Z AUTO 23011KT 6000 NCD 11/08 Q1002
                        NOSIG=
201801021650 METAR COR EGLL 021650Z AUTO 23011KT 7000 SCT022 11/08 Q1002
                        NOSIG=
201801021620 METAR COR EGLL 021620Z AUTO 23011KT 8000 NCD 11/08 Q1002
                        NOSIG=
201801021550 METAR COR EGLL 021550Z AUTO 23011KT 9999 NCD 11/09 Q1002
                        NOSIG=
201801021520 METAR COR EGLL 021520Z AUTO 24012KT 9999 NCD 10/09 Q1002
                        NOSIG=
201801021450 METAR COR EGLL 021450Z AUTO 23013KT 9999 FEW011 SCT036 10/09
                        Q1003 NOSIG=
201801021420 METAR COR EGLL 021420Z 21013KT 8000 -RA SCT006 BKN010 BKN019
                        09/08 Q1003 NOSIG=
201801021350 METAR COR EGLL 021350Z AUTO 20014KT 170V240 6000 -RA BKN006
                        BKN011 OVC019 09/08 Q1003 BECMG BKN012=
201801021320 METAR COR EGLL 021320Z AUTO 19012KT 170V230 4400 -RADZ BKN007
                        OVC025 09/08 Q1004 BECMG BKN012=
201801021250 METAR COR EGLL 021250Z AUTO 18011KT 150V230 5000 -DZ BKN006
                        BKN010 OVC017 08/08 Q1004 BECMG SCT006
                        BKN012=
201801021220 METAR COR EGLL 021220Z AUTO 17009KT 140V230 5000 -RADZ SCT007
                        BKN020 BKN037 07/07 Q1005 TEMPO BKN007=
201801021150 METAR COR EGLL 021150Z AUTO 16009KT 140V220 4700 -RA FEW020
                        BKN025 BKN031 07/06 Q1006 RERA TEMPO
                        7000 -RA BKN012=
201801021120 METAR COR EGLL 021120Z AUTO 15008KT 120V210 5000 -RA BKN026///
                        OVC039/// //////CB 06/05 Q1008 RERA
                        TEMPO 4000 RA BKN012=
201801021050 METAR COR EGLL 021050Z AUTO VRB06KT 7000 -RA FEW026/// BKN031///
                        OVC045/// //////TCU 06/04 Q1009 BECMG
                        BKN012=
201801021020 METAR COR EGLL 021020Z AUTO 17006KT 130V220 8000 -RA FEW024///
                        BKN031/// BKN038/// //////TCU 06/04
                        Q1009 BECMG BKN012=
201801020950 METAR COR EGLL 020950Z AUTO 16007KT 130V240 9999 -RA SCT042
                        05/03 Q1009 NOSIG=
201801020920 METAR COR EGLL 020920Z AUTO 19007KT 140V240 9999 NCD 05/02
                        Q1010 NOSIG=
201801020850 METAR COR EGLL 020850Z AUTO 19006KT 160V240 9999 NCD 05/02
                        Q1010 NOSIG=
201801020820 METAR COR EGLL 020820Z AUTO 18005KT 160V230 9999 NCD 04/02
                        Q1010 NOSIG=
201801020750 METAR COR EGLL 020750Z AUTO 18007KT 160V220 9999 NCD 04/02
                        Q1010 NOSIG=
201801020720 METAR COR EGLL 020720Z AUTO 21007KT 9999 NCD 05/02 Q1011
                        NOSIG=
201801020650 METAR EGLL 020650Z AUTO 21006KT 170V240 9999 NCD 05/02 Q1011=
201801020620 METAR COR EGLL 020620Z AUTO 22006KT 190V250 9999 NCD 05/02
                        Q1012 NOSIG=
201801020550 METAR COR EGLL 020550Z AUTO 25007KT 9999 NCD 05/02 Q1012
                        NOSIG=
201801020520 METAR COR EGLL 020520Z AUTO 23005KT 9999 NCD 04/01 Q1011
                        NOSIG=
201801020450 METAR COR EGLL 020450Z AUTO 26007KT 9999 NCD 05/02 Q1011
                        NOSIG=
201801020420 METAR COR EGLL 020420Z AUTO 26005KT 9999 NCD 05/01 Q1011
                        NOSIG=
201801020350 METAR COR EGLL 020350Z AUTO 27007KT 9999 NCD 05/02 Q1011
                        NOSIG=
201801020320 METAR COR EGLL 020320Z AUTO 27008KT 9999 NCD 05/02 Q1011
                        NOSIG=
201801020250 METAR COR EGLL 020250Z AUTO 26008KT 9999 NCD 05/02 Q1011
                        NOSIG=
201801020220 METAR COR EGLL 020220Z AUTO 26008KT 9999 NCD 05/02 Q1011
                        NOSIG=
201801020150 METAR COR EGLL 020150Z AUTO 27006KT 9999 NCD 05/02 Q1010
                        NOSIG=
201801020120 METAR COR EGLL 020120Z AUTO 27009KT 9999 NCD 05/02 Q1010
                        NOSIG=
201801020050 METAR COR EGLL 020050Z AUTO 28011KT 9999 NCD 05/02 Q1010
                        NOSIG=
201801020020 METAR COR EGLL 020020Z AUTO 27011KT 9999 NCD 06/02 Q1009
                        NOSIG=
201801012350 METAR COR EGLL 012350Z AUTO 27009KT 9999 NCD 06/02 Q1009
                        NOSIG=
201801012320 METAR COR EGLL 012320Z AUTO 28012KT 9999 NCD 06/02 Q1008
                        NOSIG=
201801012250 METAR COR EGLL 012250Z AUTO 28012KT 9999 NCD 07/02 Q1007
                        NOSIG=
201801012220 METAR COR EGLL 012220Z AUTO 28012KT 9999 NCD 07/02 Q1007
                        NOSIG=
201801012150 METAR COR EGLL 012150Z AUTO 28014KT 9999 BKN044 07/02 Q1006
                        NOSIG=
201801012120 METAR COR EGLL 012120Z 28018KT 9999 SCT045 08/02 Q1005 NOSIG=
201801012050 METAR COR EGLL 012050Z 28014KT 9999 FEW048 08/02 Q1005 NOSIG=
201801012020 METAR COR EGLL 012020Z AUTO 28014KT 9999 FEW040 08/02 Q1004=
201801011950 METAR COR EGLL 011950Z AUTO 27014KT 9999 FEW043 07/02 Q1003
                        NOSIG=
201801011920 METAR COR EGLL 011920Z AUTO 27013KT 9999 NCD 07/02 Q1002
                        NOSIG=
201801011850 METAR COR EGLL 011850Z AUTO 27013KT 9999 SCT041 07/02 Q1002
                        NOSIG=
201801011820 METAR COR EGLL 011820Z AUTO 27013KT 9999 SCT045 07/03 Q1001
                        NOSIG=
201801011750 METAR COR EGLL 011750Z AUTO 27011KT 9999 SCT042 07/03 Q1000
                        NOSIG=
201801011720 METAR COR EGLL 011720Z AUTO 26010KT 9999 SCT043 07/03 Q1000
                        NOSIG=
201801011650 METAR COR EGLL 011650Z AUTO 27013KT 9999 FEW032 BKN043 07/03
                        Q0999 NOSIG=
201801011620 METAR COR EGLL 011620Z AUTO 27012KT 9999 FEW036 SCT044 07/03
                        Q0999 NOSIG=
201801011550 METAR COR EGLL 011550Z AUTO 27011KT 9999 NCD 07/03 Q0998
                        NOSIG=
201801011520 METAR COR EGLL 011520Z AUTO 28013KT 9999 SCT023 BKN031 08/03
                        Q0998 NOSIG=
201801011450 METAR COR EGLL 011450Z AUTO 28013KT 9999 SCT020 BKN027 08/04
                        Q0997 NOSIG=
201801011420 METAR COR EGLL 011420Z AUTO 28010KT 9999 BKN019 08/04 Q0996
                        NOSIG=
201801011350 METAR COR EGLL 011350Z AUTO 30006KT 9999 SCT018 BKN033 07/05
                        Q0996 NOSIG=
201801011320 METAR COR EGLL 011320Z AUTO 28010KT 9999 BKN017 BKN023 08/05
                        Q0996 NOSIG=
201801011250 METAR COR EGLL 011250Z AUTO 26014KT 9999 BKN017 08/05 Q0995
                        TEMPO 7000 RA BKN014=
201801011220 METAR COR EGLL 011220Z AUTO 24009KT 9999 BKN016 BKN028 08/05
                        Q0995 TEMPO 7000 RA BKN014=
201801011150 METAR COR EGLL 011150Z AUTO 23007KT 9999 FEW038 07/05 Q0995
                        NOSIG=
201801011120 METAR COR EGLL 011120Z AUTO 20005KT 140V250 9999 FEW018 BKN032
                        BKN047 07/04 Q0995 NOSIG=
201801011050 METAR COR EGLL 011050Z AUTO 16004KT 110V240 9999 FEW018 BKN027
                        BKN036 06/04 Q0995 NOSIG=
201801011020 METAR COR EGLL 011020Z AUTO 15004KT 110V240 9999 SCT023 SCT027
                        06/04 Q0995 NOSIG=
201801010950 METAR COR EGLL 010950Z AUTO 17005KT 130V220 9999 NCD 05/03
                        Q0996 NOSIG=
201801010920 METAR COR EGLL 010920Z AUTO 18005KT 140V240 9999 NCD 05/03
                        Q0996 NOSIG=
201801010850 METAR COR EGLL 010850Z AUTO 18005KT 150V240 9999 NCD 06/03
                        Q0996 NOSIG=
201801010820 METAR COR EGLL 010820Z AUTO 20007KT 180V240 9999 NCD 06/03
                        Q0997 NOSIG=
201801010750 METAR COR EGLL 010750Z AUTO 21007KT 9999 NCD 06/03 Q0997
                        NOSIG=
201801010720 METAR COR EGLL 010720Z AUTO 21010KT 9999 NCD 06/03 Q0998
                        NOSIG=
201801010650 METAR COR EGLL 010650Z AUTO 21010G20KT 9999 NCD 06/03 Q0998
                        NOSIG=
201801010620 METAR COR EGLL 010620Z AUTO 21010KT 9999 NCD 06/03 Q0998
                        NOSIG=
201801010550 METAR COR EGLL 010550Z AUTO 22011KT 9999 NCD 06/02 Q0998
                        NOSIG=
201801010520 METAR COR EGLL 010520Z AUTO 22011KT 9999 FEW027 06/02 Q0999
                        NOSIG=
201801010450 METAR COR EGLL 010450Z AUTO 22009KT 9999 NCD 06/02 Q0999
                        NOSIG=
201801010420 METAR COR EGLL 010420Z AUTO 24013KT 9999 -RA SCT037 06/02
                        Q0999 NOSIG=
201801010350 METAR COR EGLL 010350Z AUTO 23012G22KT 9999 -RA BKN029 06/03
                        Q0999 TEMPO SHRA=
201801010320 METAR COR EGLL 010320Z AUTO 23011KT 9999 NCD 06/02 Q0999
                        TEMPO SHRA=
201801010250 METAR COR EGLL 010250Z AUTO 24012KT 9999 NCD 06/02 Q0999
                        NOSIG=
201801010220 METAR COR EGLL 010220Z AUTO 24017KT 9999 NCD 07/03 Q1000
                        TEMPO SHRA=
201801010150 METAR COR EGLL 010150Z AUTO 25013KT 9999 NCD 06/03 Q0999
                        NOSIG=
201801010120 METAR COR EGLL 010120Z AUTO 25014KT 9999 NCD 07/03 Q0999
                        NOSIG=
201801010050 METAR COR EGLL 010050Z AUTO 25016KT 9999 NCD 07/03 Q0998
                        NOSIG=
201801010020 METAR COR EGLL 010020Z AUTO 24016KT 9999 NCD 07/04 Q0998
                        NOSIG=

</pre>

</body>
</html>
