##########################################################
# Query made at 12/31/2014 10:33:25 UTC
# Time interval: from 01/01/2014 00:00  to 01/31/2014 23:59  UTC
##########################################################

##########################################################
# EGLL, London / Heathrow Airport (United Kingdom)
# WMO index: 03772
# Latitude 51-29N. Longitude 000-27W. Altitude 24 m.
##########################################################

###################################
#  METAR/SPECI from EGLL
###################################
201401312350 METAR COR EGLL 312350Z 19011KT 5000 RADZ FEW005 SCT008 BKN013
                        09/08 Q0985 RERA TEMPO BKN016=
201401312320 METAR COR EGLL 312320Z 20012KT 9999 FEW006 BKN012 09/08 Q0985
                        BECMG FEW012 BKN018=
201401312250 METAR COR EGLL 312250Z 20013KT 9000 -RA FEW008 BKN010 09/08
                        Q0985 RERA TEMPO BKN008=
201401312220 METAR COR EGLL 312220Z 20014KT 5000 RA FEW006 SCT008 BKN010
                        09/08 Q0986 RERA TEMPO BKN008=
201401312150 METAR COR EGLL 312150Z 19015KT 160V240 7000 -RA FEW009 BKN012
                        09/08 Q0986 TEMPO SCT012 BKN018=
201401312120 METAR COR EGLL 312120Z 18017KT 160V230 8000 -RA FEW009 SCT011
                        BKN018 08/07 Q0987 TEMPO BKN011=
201401312050 METAR COR EGLL 312050Z 18017G27KT 160V230 9999 -RA FEW009
                        SCT010 BKN012 08/07 Q0987 TEMPO SCT012
                        BKN018=
201401312020 METAR COR EGLL 312020Z 18018KT 9999 BKN012 08/06 Q0988 TEMPO
                        SCT012 BKN018=
201401311950 METAR COR EGLL 311950Z 18017KT 9999 SCT012 BKN017 08/06 Q0988
                        TEMPO BKN012=
201401311920 METAR COR EGLL 311920Z 18017KT 150V240 9999 -RA SCT010 BKN013
                        08/06 Q0989 TEMPO SCT013=
201401311850 METAR COR EGLL 311850Z 18020KT 160V230 9999 SCT011 BKN014
                        07/06 Q0990 TEMPO SCT014=
201401311820 METAR COR EGLL 311820Z 18016KT 150V210 9999 -RA SCT011 BKN015
                        07/06 Q0991 TEMPO BKN014=
201401311750 METAR COR EGLL 311750Z 18018KT 9999 -RA SCT012 BKN015 07/05
                        Q0992 RERA TEMPO BKN014=
201401311720 METAR COR EGLL 311720Z 18017KT 9999 RA FEW010 BKN016 BKN019
                        07/05 Q0992 TEMPO BKN014=
201401311650 METAR COR EGLL 311650Z 17016KT 140V220 9999 RA BKN015 BKN019
                        06/05 Q0993 TEMPO BKN014=
201401311620 METAR COR EGLL 311620Z 17019KT 160V220 9000 RA SCT014 BKN017
                        06/05 Q0993 TEMPO BKN014=
201401311550 METAR COR EGLL 311550Z 17016KT 140V220 9999 -RA SCT014 BKN016
                        06/05 Q0994 TEMPO RA BKN014=
201401311520 METAR COR EGLL 311520Z 17016G27KT 140V210 9999 -RA SCT014
                        BKN017 07/05 Q0995 TEMPO RA BKN014=
201401311450 METAR COR EGLL 311450Z 18017KT 9999 -RA FEW014 BKN017 07/05
                        Q0996 TEMPO RA BKN014=
201401311420 METAR COR EGLL 311420Z 17014G24KT 140V220 9999 -RA BKN016
                        BKN027 07/04 Q0996 TEMPO RA BKN014=
201401311350 METAR COR EGLL 311350Z 17015KT 9999 -RA BKN015 07/04 Q0997
                        TEMPO RA BKN014=
201401311320 METAR COR EGLL 311320Z 16014KT 9999 -RA SCT015 BKN017 07/04
                        Q0998 TEMPO RA BKN014=
201401311250 METAR COR EGLL 311250Z 18014KT 9999 SCT016 BKN019 07/04 Q0998
                        TEMPO RA BKN014=
201401311220 METAR COR EGLL 311220Z 18015KT 9999 SCT016 BKN022 07/04 Q0999
                        TEMPO RA=
201401311150 METAR COR EGLL 311150Z 17013KT 130V200 9999 SCT019 SCT028
                        07/05 Q0999 NOSIG=
201401311120 METAR COR EGLL 311120Z 17012KT 140V200 9999 SCT020 SCT047
                        07/05 Q1000 NOSIG=
201401311050 METAR COR EGLL 311050Z 16011KT 9999 FEW014 SCT047 06/05 Q1001
                        NOSIG=
201401311020 METAR COR EGLL 311020Z 15008KT 120V190 7000 FEW014 05/05
                        Q1001 NOSIG=
201401310950 METAR COR EGLL 310950Z VRB06KT 5000 BR FEW020 04/03 Q1002
                        NOSIG=
201401310920 METAR COR EGLL 310920Z 15006KT 4600 BR FEW002 03/02 Q1002
                        BECMG 6000 NSW=
201401310850 METAR COR EGLL 310850Z 14004KT 100V180 1400 R27R/P1500 R27L/0900
                        BR SCT001 SCT002 02/01 Q1003 BECMG
                        4000 BR=
201401310820 METAR COR EGLL 310820Z VRB04KT 0700 R27R/0650 R27L/0400 FG
                        SCT000 BKN001 01/01 Q1003 BECMG 4000
                        BR SCT004=
201401310750 METAR COR EGLL 310750Z VRB03KT 0350 R27R/0800 R27L/0350 FG
                        SCT000 BKN001 01/01 Q1003 BECMG 2000
                        BR BKN004=
201401310720 METAR COR EGLL 310720Z VRB03KT 0500 R27R/P1500 R27L/0450
                        FG VV/// 02/01 Q1003 BECMG 2000 BR
                        BKN003=
201401310650 METAR EGLL 310650Z 00000KT 0500 R27R/1400 R27L/0600 FG VV///
                        02/02 Q1004=
201401310620 METAR COR EGLL 310620Z 00000KT 0500 R27R/0900 R27L/0400 FG
                        VV/// 02/02 Q1004 NOSIG=
201401310550 METAR COR EGLL 310550Z 00000KT 0600 R27L/0400 FG VV/// 02/02
                        Q1004 NOSIG=
201401310520 METAR COR EGLL 310520Z 13003KT 1300 0900SE R27L/0600 BR BCFG
                        BKN001 02/02 Q1004 TEMPO 0700 FG=
201401310450 METAR COR EGLL 310450Z 13003KT 2000 0900SE R27L/1200 BR BCFG
                        FEW001 BKN003 02/02 Q1004 TEMPO 1200
                        BKN001=
201401310420 METAR COR EGLL 310420Z 13002KT 2200 BR VCFG FEW001 BKN004
                        03/02 Q1004 TEMPO 1400=
201401310350 METAR COR EGLL 310350Z 13002KT 2300 BR FEW001 BKN004 02/02
                        Q1005 NOSIG=
201401310320 METAR COR EGLL 310320Z 00000KT 2500 BR FEW001 BKN006 03/02
                        Q1005 TEMPO BKN004=
201401310250 METAR COR EGLL 310250Z VRB02KT 2500 BR BKN006 03/02 Q1005
                        REDZ NOSIG=
201401310220 METAR EGLL 310220Z AUTO VRB02KT 4300 HZ BKN006 03/02 Q1005=
201401310150 METAR EGLL 310150Z AUTO 22004KT 4700 HZ OVC006 04/02 Q1005=
201401310120 METAR EGLL 310120Z AUTO 22004KT 4200 HZ BKN006 03/02 Q1005=
201401310050 METAR COR EGLL 310050Z 20003KT 5000 BR FEW004 BKN006 03/02
                        Q1005 TEMPO 3000=
201401310020 METAR COR EGLL 310020Z 15005KT 3200 BR FEW004 BKN008 04/03
                        Q1005 NOSIG=
201401302350 METAR COR EGLL 302350Z 15004KT 3000 BR FEW003 BKN011 03/03
                        Q1005 NOSIG=
201401302320 METAR COR EGLL 302320Z 19003KT 3500 BR FEW006 SCT010 04/03
                        Q1005 TEMPO BKN010=
201401302250 METAR COR EGLL 302250Z VRB03KT 4000 BR FEW006 BKN010 04/03
                        Q1005 TEMPO FEW010=
201401302220 METAR COR EGLL 302220Z 27006KT 4800 BR FEW006 04/03 Q1005
                        TEMPO 6000=
201401302150 METAR COR EGLL 302150Z 23005KT 200V270 5000 BR FEW007 04/03
                        Q1004 NOSIG=
201401302120 METAR COR EGLL 302120Z VRB03KT 5000 BR FEW007 04/03 Q1004
                        NOSIG=
201401302050 METAR COR EGLL 302050Z 22004KT 190V280 5000 BR FEW007 SCT025
                        04/03 Q1004 NOSIG=
201401302020 METAR COR EGLL 302020Z 23004KT 200V290 5000 BR FEW011 BKN024
                        04/03 Q1004 NOSIG=
201401301950 METAR COR EGLL 301950Z 28005KT 5000 BR FEW011 BKN024 04/03
                        Q1003 NOSIG=
201401301920 METAR COR EGLL 301920Z 29003KT 6000 FEW015 BKN026 05/04 Q1003
                        NOSIG=
201401301850 METAR COR EGLL 301850Z 29003KT 6000 FEW019 SCT025 04/03 Q1003
                        NOSIG=
201401301820 METAR COR EGLL 301820Z 30004KT 7000 FEW019 SCT025 04/03 Q1003
                        NOSIG=
201401301750 METAR COR EGLL 301750Z 28004KT 8000 SCT016 BKN020 05/04 Q1003
                        NOSIG=
201401301720 METAR COR EGLL 301720Z 29005KT 9999 BKN015 06/04 Q1003 TEMPO
                        BKN012=
201401301650 METAR COR EGLL 301650Z 26006KT 9999 SCT013 BKN015 06/04 Q1002
                        TEMPO BKN013=
201401301620 METAR COR EGLL 301620Z 00000KT 9999 FEW012 BKN013 06/04 Q1002
                        TEMPO BKN016=
201401301550 METAR COR EGLL 301550Z VRB02KT 9999 R09L/1400 FEW012 SCT014
                        BKN016 06/03 Q1002 NOSIG=
201401301520 METAR COR EGLL 301520Z 10002KT 9999 FEW014 BKN016 06/03 Q1001
                        NOSIG=
201401301450 METAR COR EGLL 301450Z VRB02KT 9999 FEW015 BKN017 06/03 Q1001
                        NOSIG=
201401301420 METAR COR EGLL 301420Z VRB03KT 9999 R09L/1400 SCT014 BKN022
                        06/03 Q1001 NOSIG=
201401301350 METAR COR EGLL 301350Z VRB02KT 9999 7000W FEW010 SCT016 BKN025
                        06/03 Q1001 NOSIG=
201401301320 METAR COR EGLL 301320Z VRB03KT 9999 7000SW SCT010 BKN016
                        06/04 Q1001 NOSIG=
201401301250 METAR COR EGLL 301250Z VRB03KT 9000 FEW009 SCT012 BKN016
                        06/03 Q1001 NOSIG=
201401301220 METAR COR EGLL 301220Z VRB03KT 7000 SCT007 BKN010 BKN017
                        05/03 Q1001 TEMPO FEW010 BKN017=
201401301150 METAR COR EGLL 301150Z VRB03KT 5000 HZ SCT007 BKN015 05/04
                        Q1001 TEMPO BKN014=
201401301120 METAR COR EGLL 301120Z 03004KT 350V060 5000 HZ SCT008 BKN016
                        05/03 Q1002 TEMPO BKN012=
201401301050 METAR COR EGLL 301050Z VRB03KT 5000 -RA HZ FEW006 SCT007
                        BKN014 05/03 Q1002 NOSIG=
201401301020 METAR COR EGLL 301020Z 01004KT 330V050 5000 -RA BKN007 BKN014
                        04/03 Q1002 TEMPO FEW007 BKN014=
201401300950 METAR COR EGLL 300950Z 04004KT 010V070 5000 -RA BKN008 04/03
                        Q1001 NOSIG=
201401300920 METAR COR EGLL 300920Z 04004KT 360V090 5000 HZ BKN008 04/03
                        Q1001 NOSIG=
201401300850 METAR COR EGLL 300850Z 04005KT 360V060 5000 -RA BKN008 04/03
                        Q1001 TEMPO FEW008 BKN012=
201401300820 METAR COR EGLL 300820Z 02004KT 330V060 5000 -RA FEW007 BKN008
                        04/03 Q1001 NOSIG=
201401300750 METAR COR EGLL 300750Z 04005KT 5000 -RADZ FEW008 BKN009 04/03
                        Q1001 NOSIG=
201401300720 METAR COR EGLL 300720Z 04005KT 360V090 5000 HZ BKN009 04/02
                        Q1001 TEMPO BKN011=
201401300650 METAR COR EGLL 300650Z 04006KT 360V070 4900 -RADZ FEW008
                        BKN009 04/02 Q1000 TEMPO 6000 SCT008
                        BKN010=
201401300620 METAR COR EGLL 300620Z 04007KT 5000 -RADZ FEW008 BKN009 04/02
                        Q1000 TEMPO 4000 RADZ=
201401300550 METAR COR EGLL 300550Z 05006KT 4200 -RADZ SCT008 BKN009 04/02
                        Q1000 TEMPO BKN012=
201401300520 METAR COR EGLL 300520Z 04006KT 360V070 4500 -DZ SCT008 BKN010
                        04/02 Q1000 TEMPO BKN008=
201401300450 METAR COR EGLL 300450Z 03006KT 340V050 4000 -RADZ BKN008
                        04/02 Q1000 TEMPO SCT008 BKN010=
201401300420 METAR COR EGLL 300420Z 03006KT 4000 -RADZ BKN009 04/02 Q1000
                        TEMPO TEMPO SCT009 BKN010=
201401300350 METAR COR EGLL 300350Z 04007KT 360V080 4500 -RA BKN009 04/02
                        Q1000 TEMPO 5000 SCT009 BKN010=
201401300320 METAR COR EGLL 300320Z 04007KT 360V060 4800 -RA BKN009 04/02
                        Q1000 TEMPO 6000 NSW SCT009 BKN010=
201401300250 METAR EGLL 300250Z AUTO 05006KT 4000 -RA OVC007 OVC009 04/03
                        Q1000 RERA REDZ=
201401300220 METAR EGLL 300220Z AUTO 04006KT 4700 -RA BKN009 04/03 Q1000
                        REDZ=
201401300150 METAR EGLL 300150Z AUTO 04006KT 010V070 4800 DZ OVC008 04/03
                        Q1000=
201401300120 METAR COR EGLL 300120Z 05005KT 020V080 7000 -RA BKN009 04/03
                        Q1000 TEMPO SCT009 BKN014=
201401300050 METAR COR EGLL 300050Z 05007KT 020V090 7000 -RA BKN010 04/03
                        Q1000 NOSIG=
201401300020 METAR COR EGLL 300020Z 06008KT 7000 -RA FEW009 BKN011 04/03
                        Q1000 TEMPO BKN009=
201401292350 METAR COR EGLL 292350Z 06008KT 6000 -RA BKN010 04/03 Q0999
                        NOSIG=
201401292320 METAR COR EGLL 292320Z 06004KT 020V090 6000 -RA SCT008 BKN010
                        04/03 Q0999 TEMPO RA BKN008=
201401292250 METAR COR EGLL 292250Z 06004KT 6000 -RA FEW007 BKN009 04/03
                        Q0999 RERA TEMPO FEW009 BKN014=
201401292220 METAR COR EGLL 292220Z VRB02KT 6000 RA FEW008 BKN011 04/03
                        Q0999 TEMPO -RA SCT011 BKN014=
201401292150 METAR COR EGLL 292150Z 07003KT 4800 RA SCT007 BKN013 04/02
                        Q0999 TEMPO 7000 -RA SCT013 BKN015=
201401292120 METAR COR EGLL 292120Z 09006KT 6000 RA FEW010 OVC013 04/02
                        Q0999 RERA TEMPO -RA SCT013 BKN015=
201401292050 METAR COR EGLL 292050Z 09008KT 6000 -RA SCT008 BKN015 04/03
                        Q0999 TEMPO BKN014=
201401292020 METAR COR EGLL 292020Z 07005KT 6000 -RA SCT013 BKN020 04/03
                        Q0998 TEMPO BKN013=
201401291950 METAR COR EGLL 291950Z 08007KT 7000 -RA SCT014 SCT025 04/03
                        Q0998 TEMPO BKN014=
201401291920 METAR COR EGLL 291920Z 09006KT 6000 -RA SCT015 BKN042 04/03
                        Q0998 TEMPO BKN013=
201401291850 METAR EGLL 291850Z 09008KT 8000 -RA BKN013 04/03 Q0997=
201401291820 METAR COR EGLL 291820Z 09009KT 7000 -RA BKN015 04/03 Q0997
                        RERA REDZ NOSIG=
201401291750 METAR COR EGLL 291750Z 09010KT 7000 RADZ SCT012 BKN016 04/03
                        Q0997 RERA REDZ TEMPO BKN012=
201401291720 METAR COR EGLL 291720Z 09010KT 7000 RADZ FEW008 SCT012 BKN015
                        04/02 Q0996 REDZ NOSIG=
201401291650 METAR EGLL 291650Z 10011KT 6000 RADZ FEW008 BKN012 04/02
                        Q0996=
201401291620 METAR EGLL 291620Z 09009KT 7000 RADZ FEW008 BKN010 04/03
                        Q0996=
201401291550 METAR COR EGLL 291550Z 09010KT 8000 -RADZ FEW008 BKN013 04/02
                        Q0995 NOSIG=
201401291520 METAR COR EGLL 291520Z 09013KT 8000 -RADZ FEW008 BKN012 04/03
                        Q0995 RERA TEMPO BKN008=
201401291450 METAR COR EGLL 291450Z 07007KT 8000 RA BKN012 04/03 Q0995
                        BECMG FEW012 BKN018=
201401291420 METAR COR EGLL 291420Z 08009KT 8000 RA BKN011 04/03 Q0994
                        NOSIG=
201401291350 METAR COR EGLL 291350Z 09009KT 9000 -RA FEW008 BKN013 04/03
                        Q0994 TEMPO SCT016 BKN022=
201401291320 METAR COR EGLL 291320Z 09009KT 9999 R09L/1300 -RA FEW008
                        SCT012 BKN014 04/03 Q0994 TEMPO BKN016=
201401291250 METAR COR EGLL 291250Z 10009KT 9999 R09L/1300 -RA FEW008
                        SCT014 BKN018 04/03 Q0994 TEMPO BKN014=
201401291220 METAR COR EGLL 291220Z 09011KT 9999 R09L/1300 -RA FEW008
                        SCT014 BKN025 04/03 Q0994 NOSIG=
201401291150 METAR COR EGLL 291150Z 09009KT 9999 R09L/1300 -RA FEW008
                        SCT015 BKN020 04/03 Q0994 RERA TEMPO
                        BKN012=
201401291120 METAR COR EGLL 291120Z 09011KT 9999 R09L/1300 -RA FEW008
                        BKN011 04/03 Q0994 NOSIG=
201401291050 METAR COR EGLL 291050Z 10010KT 9999 R09L/1300 -RA FEW008
                        SCT012 BKN015 04/03 Q0994 TEMPO BKN012=
201401291020 METAR COR EGLL 291020Z 08006KT 9999 R09L/1300 -RA FEW008
                        SCT013 BKN016 05/03 Q0994 TEMPO BKN012=
201401290950 METAR COR EGLL 290950Z 09008KT 9999 R09L/1400 -RA SCT012
                        BKN016 05/03 Q0993 TEMPO BKN012=
201401290920 METAR COR EGLL 290920Z 08010KT 9999 -RA FEW008 SCT010 BKN012
                        05/03 Q0993 TEMPO SCT012 BKN016=
201401290850 METAR COR EGLL 290850Z 09009KT 060V120 9999 -RA SCT010 BKN016
                        05/03 Q0993 TEMPO BKN012=
201401290820 METAR COR EGLL 290820Z 09008KT 9999 FEW009 BKN011 05/04 Q0992
                        TEMPO SCT010 BKN018=
201401290750 METAR COR EGLL 290750Z 09009KT 9999 SCT010 BKN017 05/03 Q0992
                        TEMPO BKN012=
201401290720 METAR COR EGLL 290720Z 10008KT 9999 FEW010 BKN012 05/03 Q0991
                        TEMPO NOSIG=
201401290650 METAR COR EGLL 290650Z 09009KT 9999 SCT011 BKN016 05/04 Q0991
                        TEMPO BKN012=
201401290620 METAR COR EGLL 290620Z 10010KT 9999 BKN010 05/04 Q0991 TEMPO
                        SCT012 BKN018=
201401290550 METAR COR EGLL 290550Z 09009KT 9999 -RA BKN014 05/04 Q0991
                        TEMPO SCT012 BKN020=
201401290520 METAR COR EGLL 290520Z 10007KT 9000 -RA SCT010 BKN016 05/04
                        Q0991 TEMPO BKN012=
201401290450 METAR COR EGLL 290450Z 11008KT 9000 -RA SCT011 BKN017 05/04
                        Q0991 TEMPO BKN014=
201401290420 METAR COR EGLL 290420Z 10006KT 9999 -RA FEW012 BKN014 05/04
                        Q0990 TEMPO SCT014 BKN018=
201401290350 METAR COR EGLL 290350Z 09007KT 9999 BKN023 05/04 Q0990 TEMPO
                        BKN014=
201401290320 METAR COR EGLL 290320Z 10007KT 9999 BKN016 BKN025 06/04 Q0990
                        NOSIG=
201401290250 METAR EGLL 290250Z AUTO 10006KT 9999 SCT020 BKN025 06/04
                        Q0990=
201401290220 METAR EGLL 290220Z AUTO 11007KT 9999 BKN015 05/04 Q0990=
201401290150 METAR EGLL 290150Z AUTO 10007KT 9999 SCT015 SCT023 BKN042
                        05/04 Q0989 REDZ=
201401290120 METAR COR EGLL 290120Z 13008KT 9999 -RA FEW016 SCT040 BKN048
                        06/04 Q0989 NOSIG=
201401290050 METAR COR EGLL 290050Z 12008KT 9999 -RA SCT028 SCT038 05/04
                        Q0989 NOSIG=
201401290020 METAR COR EGLL 290020Z 12009KT 9999 FEW019 SCT048 05/04 Q0989
                        NOSIG=
201401282350 METAR COR EGLL 282350Z 12008KT 9999 FEW030 SCT036 05/04 Q0988
                        NOSIG=
201401282320 METAR COR EGLL 282320Z 15009KT 9999 -RA FEW017 BKN034 06/04
                        Q0988 TEMPO SHRA BKN014=
201401282250 METAR COR EGLL 282250Z 13011KT 9999 -SHRA FEW012 BKN018 06/04
                        Q0988 TEMPO SHRA BKN014=
201401282220 METAR COR EGLL 282220Z 13009KT 9999 -RA SCT032 BKN040 06/04
                        Q0987 TEMPO SHRA BKN014=
201401282150 METAR COR EGLL 282150Z 14008KT 9999 -RA SCT015 SCT021 06/04
                        Q0987 TEMPO SHRA BKN014=
201401282120 METAR EGLL 282120Z 14010KT 9999 SCT015 SCT028 06/04 Q0987=
201401282050 METAR EGLL 282050Z 14007KT 9999 BKN017 06/04 Q0987=
201401282020 METAR COR EGLL 282020Z 14007KT 9999 SCT012 06/04 Q0986 TEMPO
                        SHRA BKN014=
201401281950 METAR COR EGLL 281950Z 17007KT 9999 SCT014 SCT024 06/04 Q0986
                        TEMPO SHRA=
201401281920 METAR COR EGLL 281920Z 17011KT 9999 SCT025 SCT048 06/04 Q0986
                        TEMPO SHRA=
201401281850 METAR COR EGLL 281850Z 16009KT 9999 FEW017 06/04 Q0985 TEMPO
                        SHRA=
201401281820 METAR COR EGLL 281820Z 15007KT 9999 SCT014 06/04 Q0985 TEMPO
                        BKN014=
201401281750 METAR COR EGLL 281750Z 15009KT 9999 -SHRA FEW033 05/04 Q0985
                        NOSIG=
201401281720 METAR COR EGLL 281720Z 15010KT 9999 FEW020 SCT035CB 05/03
                        Q0984 NOSIG=
201401281650 METAR COR EGLL 281650Z 15011KT 130V220 9999 FEW018 FEW032CB
                        05/03 Q0984 NOSIG=
201401281620 METAR COR EGLL 281620Z 16013KT 140V220 9999 FEW018 SCT038CB
                        06/03 Q0984 TEMPO SHRA=
201401281550 METAR COR EGLL 281550Z 16014KT 140V210 9999 FEW022 SCT038CB
                        07/04 Q0984 TEMPO SHRA=
201401281520 METAR COR EGLL 281520Z 17014KT 140V210 9999 FEW022 SCT040
                        07/04 Q0983 TEMPO SHRA=
201401281450 METAR COR EGLL 281450Z 20016KT 180V240 9999 -SHRA FEW022CB
                        BKN027 08/04 Q0983 RESHRA TEMPO SHRA=
201401281420 METAR COR EGLL 281420Z 19012KT 9999 VCSH SCT020CB SCT031
                        09/04 Q0983 TEMPO SHRA=
201401281350 METAR COR EGLL 281350Z 18015KT 9999 VCSH FEW022 SCT035 10/04
                        Q0983 TEMPO SHRA=
201401281320 METAR COR EGLL 281320Z 19015KT 9999 VCSH FEW020 SCT032 10/05
                        Q0983 TEMPO SHRA=
201401281250 METAR COR EGLL 281250Z 19013KT 9999 -SHRA FEW025 SCT042 10/05
                        Q0983 TEMPO SHRA=
201401281220 METAR COR EGLL 281220Z 19012KT 9999 VCSH FEW025 SCT040 10/05
                        Q0983 TEMPO SHRA=
201401281150 METAR COR EGLL 281150Z 19014KT 9999 FEW024 SCT044 10/05 Q0983
                        TEMPO SHRA=
201401281120 METAR COR EGLL 281120Z 20012KT 170V250 9999 FEW022 09/05
                        Q0983 NOSIG=
201401281050 METAR COR EGLL 281050Z 20013KT 9999 FEW020 09/05 Q0984 NOSIG=
201401281020 METAR COR EGLL 281020Z 19012KT 9999 FEW020 SCT049 08/04 Q0984
                        NOSIG=
201401280950 METAR COR EGLL 280950Z 18013KT CAVOK 07/04 Q0984 NOSIG=
201401280920 METAR COR EGLL 280920Z 19011KT CAVOK 07/04 Q0984 NOSIG=
201401280850 METAR COR EGLL 280850Z 18011KT CAVOK 06/03 Q0984 NOSIG=
201401280820 METAR COR EGLL 280820Z 18010KT 120V190 CAVOK 05/03 Q0984
                        NOSIG=
201401280750 METAR COR EGLL 280750Z 18009KT CAVOK 05/03 Q0984 NOSIG=
201401280720 METAR COR EGLL 280720Z 19010KT 170V270 CAVOK 05/03 Q0984
                        NOSIG=
201401280650 METAR COR EGLL 280650Z 18009KT CAVOK 05/03 Q0984 NOSIG=
201401280620 METAR COR EGLL 280620Z 20008KT CAVOK 05/03 Q0984 NOSIG=
201401280550 METAR COR EGLL 280550Z 20008KT 9999 FEW048 05/03 Q0985 NOSIG=
201401280520 METAR COR EGLL 280520Z 19006KT 9999 FEW037 05/03 Q0985 NOSIG=
201401280450 METAR COR EGLL 280450Z 19007KT 9999 FEW040 06/04 Q0985 NOSIG=
201401280420 METAR EGLL 280420Z 18007KT 9999 FEW040 06/04 Q0985=
201401280350 METAR COR EGLL 280350Z 19008KT 9999 FEW037 BKN046 06/04 Q0985
                        NOSIG=
201401280320 METAR COR EGLL 280320Z 20009KT 9999 SCT030 SCT044 06/04 Q0985
                        NOSIG=
201401280250 METAR EGLL 280250Z AUTO 18007KT 9999 FEW019 SCT040 06/04
                        Q0986=
201401280220 METAR EGLL 280220Z AUTO 19008KT 9999 FEW040 06/04 Q0986=
201401280150 METAR EGLL 280150Z AUTO 21008KT 9999 FEW044 06/04 Q0986=
201401280120 METAR COR EGLL 280120Z 21009KT CAVOK 06/04 Q0986 NOSIG=
201401280050 METAR COR EGLL 280050Z 20010KT 9999 FEW030 06/04 Q0987 NOSIG=
201401280020 METAR COR EGLL 280020Z 20008KT 9999 SCT030 SCT043 06/03 Q0987
                        NOSIG=
201401272350 METAR COR EGLL 272350Z 20010KT 9999 SCT040 06/03 Q0987 NOSIG=
201401272320 METAR COR EGLL 272320Z 21010KT 9999 FEW048 06/03 Q0987 TEMPO
                        SHRA=
201401272250 METAR EGLL 272250Z 21009KT CAVOK 05/03 Q0988=
201401272220 METAR COR EGLL 272220Z 20010KT 180V240 CAVOK 05/02 Q0988
                        TEMPO SHRA=
201401272150 METAR COR EGLL 272150Z 21011KT 190V260 CAVOK 05/02 Q0988
                        NOSIG=
201401272120 METAR COR EGLL 272120Z 22010KT CAVOK 05/02 Q0988 NOSIG=
201401272050 METAR COR EGLL 272050Z 21009KT 9999 FEW035 05/02 Q0988 NOSIG=
201401272020 METAR COR EGLL 272020Z 21008KT 9999 FEW035 05/02 Q0988 NOSIG=
201401271950 METAR COR EGLL 271950Z 23009KT 200V260 CAVOK 05/02 Q0988
                        NOSIG=
201401271920 METAR COR EGLL 271920Z 23010KT CAVOK 05/03 Q0988 NOSIG=
201401271850 METAR COR EGLL 271850Z 22009KT CAVOK 05/03 Q0988 NOSIG=
201401271820 METAR COR EGLL 271820Z 22009KT 9999 FEW034 06/03 Q0988 NOSIG=
201401271750 METAR COR EGLL 271750Z 24009KT 200V270 9999 FEW021 06/03
                        Q0988 NOSIG=
201401271720 METAR COR EGLL 271720Z 21009KT 9999 SCT031 BKN042 06/04 Q0988
                        TEMPO SHRA=
201401271650 METAR COR EGLL 271650Z 21008KT 180V250 9999 SCT028 SCT038
                        06/04 Q0988 TEMPO SHRA=
201401271620 METAR COR EGLL 271620Z 20008KT 160V250 9999 FEW030 SCT040
                        06/04 Q0988 TEMPO SHRA=
201401271550 METAR COR EGLL 271550Z 24015KT 9000 -SHRA SCT021 BKN024 06/04
                        Q0989 RESHRA TEMPO SHRA=
201401271520 METAR COR EGLL 271520Z 23013KT 9999 BKN029 06/03 Q0988 TEMPO
                        SHRA=
201401271450 METAR COR EGLL 271450Z 24014KT 9999 VCSH SCT020 SCT036 05/03
                        Q0989 RESHRA TEMPO SHRA=
201401271420 METAR COR EGLL 271420Z 26018KT 9999 5000W -SHRA FEW013 BKN027CB
                        07/04 Q0988 TEMPO SHRA=
201401271350 METAR COR EGLL 271350Z 24017KT 9999 VCSH SCT027CB BKN035
                        09/03 Q0988 TEMPO SHRA=
201401271320 METAR COR EGLL 271320Z 25016KT 9999 SCT024 BKN031 08/03 Q0988
                        TEMPO SHRA=
201401271250 METAR COR EGLL 271250Z 24016KT 9999 FEW022 SCT025 08/03 Q0988
                        NOSIG=
201401271220 METAR COR EGLL 271220Z 25015G25KT 9999 SCT022 08/03 Q0989
                        NOSIG=
201401271150 METAR COR EGLL 271150Z 24016KT 9999 FEW020 07/03 Q0989 NOSIG=
201401271120 METAR COR EGLL 271120Z 24015KT 9999 FEW019 07/03 Q0989 NOSIG=
201401271050 METAR COR EGLL 271050Z 24014KT 9999 FEW042 07/03 Q0989 NOSIG=
201401271020 METAR COR EGLL 271020Z 23013KT 9999 FEW042 06/03 Q0989 NOSIG=
201401270950 METAR COR EGLL 270950Z 23011KT 9999 FEW045 05/02 Q0989 NOSIG=
201401270920 METAR COR EGLL 270920Z 22008KT 9999 FEW013 04/02 Q0990 NOSIG=
201401270850 METAR COR EGLL 270850Z 22009KT 9999 SCT026 SCT040 04/02 Q0990
                        NOSIG=
201401270820 METAR COR EGLL 270820Z 23009KT 9999 SCT013 SCT034 04/02 Q0990
                        TEMPO BKN013=
201401270750 METAR COR EGLL 270750Z 23014KT 9999 FEW021 BKN034 04/02 Q0990
                        TEMPO SHRA=
201401270720 METAR COR EGLL 270720Z 23012KT 9999 FEW015 BKN023 04/01 Q0990
                        TEMPO SHRA=
201401270650 METAR COR EGLL 270650Z 22012KT 9999 FEW016 BKN033 04/01 Q0990
                        TEMPO SHRA=
201401270620 METAR COR EGLL 270620Z 23012KT 9999 FEW020 03/01 Q0990 NOSIG=
201401270550 METAR COR EGLL 270550Z 22011KT 9999 FEW020 03/00 Q0990 TEMPO
                        SHRA=
201401270520 METAR COR EGLL 270520Z 22011KT 9999 FEW040 03/M00 Q0991 TEMPO
                        SHRA=
201401270450 METAR COR EGLL 270450Z 22009KT CAVOK 02/M00 Q0991 TEMPO SHRA=
201401270420 METAR COR EGLL 270420Z 23011KT CAVOK 03/M00 Q0991 NOSIG=
201401270350 METAR COR EGLL 270350Z 24013KT CAVOK 03/M00 Q0992 NOSIG=
201401270320 METAR EGLL 270320Z AUTO 24011KT 9999 NCD 03/00 Q0992=
201401270250 METAR EGLL 270250Z AUTO 25014KT 9999 NCD 03/00 Q0992=
201401270220 METAR EGLL 270220Z AUTO 23012KT 9999 NCD 03/00 Q0992=
201401270150 METAR COR EGLL 270150Z 23010KT CAVOK 03/00 Q0993 TEMPO SHRA=
201401270120 METAR COR EGLL 270120Z 23007KT CAVOK 03/00 Q0993 TEMPO SHRA=
201401270050 METAR COR EGLL 270050Z 24011KT CAVOK 03/01 Q0993 TEMPO SHRA=
201401270020 METAR COR EGLL 270020Z 24013KT CAVOK 03/01 Q0993 NOSIG=
201401262350 METAR COR EGLL 262350Z 24011KT CAVOK 03/01 Q0993 NOSIG=
201401262320 METAR COR EGLL 262320Z 24013KT CAVOK 04/00 Q0993 NOSIG=
201401262250 METAR COR EGLL 262250Z 23011KT CAVOK 03/01 Q0993 NOSIG=
201401262220 METAR COR EGLL 262220Z 24010KT CAVOK 03/01 Q0993 NOSIG=
201401262150 METAR COR EGLL 262150Z 26014KT CAVOK 04/01 Q0993 NOSIG=
201401262120 METAR COR EGLL 262120Z 26014KT CAVOK 04/01 Q0993 NOSIG=
201401262050 METAR COR EGLL 262050Z 26012KT 9999 FEW042 03/01 Q0993 NOSIG=
201401262020 METAR COR EGLL 262020Z 26010KT 9999 FEW042 03/01 Q0993 NOSIG=
201401261950 METAR COR EGLL 261950Z 27008KT 9999 FEW042 03/01 Q0993 NOSIG=
201401261920 METAR COR EGLL 261920Z 29014KT 9999 -SHRA FEW015 SCT040 04/02
                        Q0993 NOSIG=
201401261850 METAR COR EGLL 261850Z 29015KT 9999 -SHRA FEW020 SCT040 05/02
                        Q0992 TEMPO 4500 SHGS BKN014=
201401261820 METAR COR EGLL 261820Z 25016KT CAVOK 06/03 Q0991 TEMPO 4500
                        SHGS SCT009 BKN014=
201401261750 METAR COR EGLL 261750Z 25015KT 9999 FEW023CB 07/02 Q0991
                        NOSIG=
201401261720 METAR COR EGLL 261720Z 25013KT 9999 SCT023CB 08/03 Q0991
                        NOSIG=
201401261650 METAR COR EGLL 261650Z 29008KT 9999 5000SW -SHRA SCT026CB
                        SCT036 09/05 Q0991 NOSIG=
201401261620 METAR COR EGLL 261620Z 28013KT 9999 FEW023 SCT031 09/05 Q0990
                        NOSIG=
201401261550 METAR COR EGLL 261550Z 26015KT 9999 FEW048 09/05 Q0990 NOSIG=
201401261520 METAR COR EGLL 261520Z 25015KT 9999 FEW015 BKN048 10/06 Q0990
                        NOSIG=
201401261450 METAR COR EGLL 261450Z 23011G21KT 200V260 9000 -RA SCT013
                        SCT017 09/08 Q0990 NOSIG=
201401261420 METAR COR EGLL 261420Z 21012KT 6000 -RADZ FEW006 SCT010 BKN013
                        09/08 Q0991 REDZ BECMG SCT020=
201401261350 METAR COR EGLL 261350Z 20016KT 170V230 3000 DZ FEW007 BKN009
                        09/07 Q0992 BECMG 27015G26KT 9999
                        NSW SCT022=
201401261320 METAR COR EGLL 261320Z 19017KT 8000 -RA FEW008 BKN010 08/07
                        Q0993 BECMG 27015G26KT SCT018=
201401261250 METAR COR EGLL 261250Z 19017KT 8000 -RA FEW009 BKN011 08/07
                        Q0994 TEMPO 4500 RA BKN009=
201401261220 METAR COR EGLL 261220Z 18015KT 150V240 9999 -RA BKN012 08/06
                        Q0996 TEMPO 4500 RA=
201401261150 METAR COR EGLL 261150Z 18015KT 160V220 9999 -RA FEW013 SCT017
                        BKN025 07/06 Q0998 TEMPO 4500 RA
                        BKN010=
201401261120 METAR COR EGLL 261120Z 19016KT 9000 -RA SCT017 BKN029 07/06
                        Q1000 RERA TEMPO 4500 RA BKN010=
201401261050 METAR EGLL 261050Z 19014KT 160V240 8000 RA FEW012 BKN016
                        07/06 Q1002=
201401261020 METAR COR EGLL 261020Z 18013KT 150V220 8000 RA BKN021 07/05
                        Q1003 TEMPO 4500 BKN010=
201401260950 METAR COR EGLL 260950Z 19012KT 160V230 9000 -RA SCT021 BKN030
                        07/04 Q1004 TEMPO 4500 RA BKN010=
201401260920 METAR EGLL 260920Z 18011KT 160V220 9999 SCT047 06/03 Q1006=
201401260850 METAR COR EGLL 260850Z 18009KT 150V220 CAVOK 06/02 Q1007
                        BECMG RA BKN012=
201401260820 METAR COR EGLL 260820Z 22007KT 170V240 CAVOK 05/02 Q1008
                        NOSIG=
201401260750 METAR COR EGLL 260750Z 18007KT 150V230 CAVOK 05/02 Q1008
                        NOSIG=
201401260720 METAR COR EGLL 260720Z 14008KT 120V220 CAVOK 04/02 Q1009
                        NOSIG=
201401260650 METAR COR EGLL 260650Z 22008KT CAVOK 05/02 Q1011 NOSIG=
201401260620 METAR COR EGLL 260620Z 21008KT CAVOK 05/02 Q1011 NOSIG=
201401260550 METAR COR EGLL 260550Z 21009KT CAVOK 04/02 Q1012 NOSIG=
201401260520 METAR COR EGLL 260520Z 17006KT 120V220 CAVOK 04/02 Q1012
                        NOSIG=
201401260450 METAR COR EGLL 260450Z 23007KT CAVOK 05/01 Q1014 NOSIG=
201401260420 METAR COR EGLL 260420Z 25013KT CAVOK 05/01 Q1015 NOSIG=
201401260350 METAR COR EGLL 260350Z 26014KT CAVOK 05/01 Q1015 NOSIG=
201401260320 METAR COR EGLL 260320Z 27014KT CAVOK 05/01 Q1015 NOSIG=
201401260250 METAR COR EGLL 260250Z 26012KT CAVOK 05/01 Q1016 NOSIG=
201401260220 METAR EGLL 260220Z AUTO 26011KT 9999 NCD 04/01 Q1016=
201401260150 METAR EGLL 260150Z AUTO 00000KT 9999 NCD 04/01 Q1015=
201401260120 METAR EGLL 260120Z AUTO 27007KT 9999 NCD 04/01 Q1015=
201401260050 METAR COR EGLL 260050Z 27011KT CAVOK 05/01 Q1016 NOSIG=
201401260020 METAR COR EGLL 260020Z 26011KT CAVOK 05/01 Q1015 NOSIG=
201401252350 METAR COR EGLL 252350Z 28008KT CAVOK 05/01 Q1015 NOSIG=
201401252320 METAR COR EGLL 252320Z 29008KT CAVOK 05/01 Q1015 NOSIG=
201401252250 METAR COR EGLL 252250Z 29012KT CAVOK 06/01 Q1015 NOSIG=
201401252220 METAR COR EGLL 252220Z 29013KT CAVOK 06/01 Q1014 NOSIG=
201401252150 METAR COR EGLL 252150Z 28015KT CAVOK 05/01 Q1014 NOSIG=
201401252120 METAR COR EGLL 252120Z 28017KT CAVOK 06/02 Q1014 NOSIG=
201401252050 METAR COR EGLL 252050Z 28014KT CAVOK 06/02 Q1014 NOSIG=
201401252020 METAR COR EGLL 252020Z 28016KT CAVOK 06/02 Q1014 NOSIG=
201401251950 METAR COR EGLL 251950Z 28018G31KT CAVOK 06/02 Q1013 NOSIG=
201401251920 METAR COR EGLL 251920Z 28019KT CAVOK 07/02 Q1012 NOSIG=
201401251850 METAR COR EGLL 251850Z 29016KT 9999 FEW035 07/03 Q1012 NOSIG=
201401251820 METAR COR EGLL 251820Z 29019KT 9999 FEW035 07/03 Q1011 NOSIG=
201401251750 METAR COR EGLL 251750Z 28016KT 9999 FEW020 07/04 Q1011 NOSIG=
201401251720 METAR COR EGLL 251720Z 28016KT 9999 VCSH FEW020 SCT030 07/04
                        Q1010 NOSIG=
201401251650 METAR EGLL 251650Z 28017KT 9999 R27L/0900 FEW009 SCT020CB
                        BKN040 06/05 Q1010 RESHRA=
201401251620 METAR EGLL 251620Z 26022G33KT 9999 5000W VCSH SCT033 SCT040
                        11/05 Q1007=
201401251550 METAR COR EGLL 251550Z 26022KT 9999 FEW035 SCT043 11/05 Q1008
                        TEMPO 4500 SHRA BKN010=
201401251520 METAR COR EGLL 251520Z 25022G33KT 9999 SCT037 SCT045 12/04
                        Q1008 TEMPO 4500 SHRA BKN014=
201401251450 METAR COR EGLL 251450Z 24017KT CAVOK 12/05 Q1008 BECMG SHRA
                        BKN014=
201401251420 METAR COR EGLL 251420Z 22012KT 9999 FEW024 12/06 Q1008 NOSIG=
201401251350 METAR COR EGLL 251350Z 22010KT 9999 FEW020 12/07 Q1010 NOSIG=
201401251320 METAR COR EGLL 251320Z 22010KT CAVOK 12/07 Q1010 NOSIG=
201401251250 METAR COR EGLL 251250Z 22009KT 170V260 CAVOK 12/08 Q1011
                        NOSIG=
201401251220 METAR COR EGLL 251220Z 24008KT 200V260 CAVOK 11/08 Q1012
                        NOSIG=
201401251150 METAR COR EGLL 251150Z 22010KT 190V260 9999 FEW006 11/08
                        Q1012 NOSIG=
201401251120 METAR EGLL 251120Z 21008KT 180V250 9999 FEW006 10/08 Q1013=
201401251050 METAR EGLL 251050Z 24010KT 9999 FEW006 10/08 Q1014=
201401251020 METAR COR EGLL 251020Z 23009KT 9999 FEW006 10/08 Q1015 NOSIG=
201401250950 METAR COR EGLL 250950Z 23009KT 7000 SCT005 SCT008 09/08 Q1015
                        NOSIG=
201401250920 METAR COR EGLL 250920Z 24007KT 6000 SCT005 BKN006 09/08 Q1015
                        BECMG SCT008=
201401250850 METAR COR EGLL 250850Z 23007KT 180V260 5000 BR FEW003 SCT004
                        BKN006 09/08 Q1014 BECMG SCT008=
201401250820 METAR COR EGLL 250820Z 25007KT 3200 BR BKN003 BKN004 08/08
                        Q1014 BECMG SCT003 BKN007=
201401250750 METAR COR EGLL 250750Z 25008KT 2500 BR FEW001 BKN002 08/08
                        Q1014 BECMG SCT002 BKN005=
201401250720 METAR COR EGLL 250720Z 22006KT 190V270 2500 BR FEW001 BKN002
                        08/08 Q1014 BECMG SCT002 BKN005=
201401250650 METAR COR EGLL 250650Z 24006KT 2500 BR FEW001 BKN002 08/08
                        Q1014 TEMPO 1400 BKN001=
201401250620 METAR COR EGLL 250620Z 24006KT 210V270 2000 1400N BR FEW001
                        BKN002 08/08 Q1014 NOSIG=
201401250550 METAR COR EGLL 250550Z 27006KT 3100 BR FEW001 BKN002 08/08
                        Q1014 TEMPO 0900 FG BKN001=
201401250520 METAR COR EGLL 250520Z 23004KT 3300 BR FEW001 BKN002 08/08
                        Q1013 TEMPO SCT002 BKN004=
201401250450 METAR COR EGLL 250450Z 23005KT 190V260 2800 BR FEW001 SCT002
                        BKN003 08/07 Q1013 TEMPO 1400 BKN002=
201401250420 METAR COR EGLL 250420Z VRB02KT 2100 BR FEW002 BKN003 08/07
                        Q1013 TEMPO 1400 BKN002=
201401250350 METAR COR EGLL 250350Z 14002KT 2300 BR FEW002 BKN003 08/07
                        Q1013 TEMPO 1400 BKN002=
201401250320 METAR COR EGLL 250320Z 00000KT 3600 BR SCT003 BKN004 08/07
                        Q1013 TEMPO 1200 BKN002=
201401250250 METAR COR EGLL 250250Z VRB02KT 4000 BR FEW004 BKN008 07/07
                        Q1013 NOSIG=
201401250220 METAR EGLL 250220Z AUTO 00000KT 2700 BR BKN007 07/07 Q1013=
201401250150 METAR EGLL 250150Z AUTO 00000KT 3000 BR BKN007 07/07 Q1012
                        REDZ=
201401250120 METAR EGLL 250120Z AUTO 14002KT 4700 DZ OVC008 07/07 Q1012=
201401250050 METAR COR EGLL 250050Z VRB03KT 6000 -RA FEW003 SCT005 BKN010
                        07/07 Q1012 BECMG 4000 -DZ BKN005=
201401250020 METAR COR EGLL 250020Z 14004KT 5000 -RADZ FEW005 BKN008 07/07
                        Q1012 BECMG 4000 -RADZ BKN005=
201401242350 METAR COR EGLL 242350Z 14005KT 6000 -RADZ SCT008 BKN010 07/06
                        Q1012 BECMG 4000 BR BKN005=
201401242320 METAR EGLL 242320Z 15005KT 9999 -RA FEW007 BKN010 07/06 Q1012=
201401242250 METAR COR EGLL 242250Z 15008KT 9999 -RA FEW008 SCT009 BKN010
                        07/06 Q1012 TEMPO BKN008=
201401242220 METAR COR EGLL 242220Z 15008KT 9999 -RA FEW008 SCT009 BKN010
                        07/06 Q1012 NOSIG=
201401242150 METAR COR EGLL 242150Z 15008KT 9999 -RA FEW009 BKN010 07/06
                        Q1012 TEMPO BKN015=
201401242120 METAR COR EGLL 242120Z 15008KT 9999 -RA FEW009 SCT011 BKN015
                        07/06 Q1012 RERA TEMPO BKN010=
201401242050 METAR EGLL 242050Z 15008KT 9000 RA FEW009 BKN013 07/06 Q1012=
201401242020 METAR COR EGLL 242020Z 16008KT 7000 RA SCT011 BKN017 07/06
                        Q1013 TEMPO BKN012=
201401241950 METAR COR EGLL 241950Z 16009KT 8000 RA BKN013 07/06 Q1013
                        NOSIG=
201401241920 METAR COR EGLL 241920Z 14007KT 9999 RA BKN014 07/05 Q1013
                        NOSIG=
201401241850 METAR COR EGLL 241850Z 15008KT 9999 -RA FEW014 BKN016 07/05
                        Q1012 TEMPO RA BKN014=
201401241820 METAR COR EGLL 241820Z 15008KT 9999 -RADZ SCT018 SCT032 07/05
                        Q1012 TEMPO BKN014=
201401241750 METAR EGLL 241750Z 15009KT 9999 -RADZ FEW017 BKN031 08/05
                        Q1013=
201401241720 METAR COR EGLL 241720Z 16009KT 9999 -RADZ SCT020 BKN032 08/05
                        Q1013 TEMPO RA BKN014=
201401241650 METAR COR EGLL 241650Z 16008KT 9999 SCT020 BKN033 08/05 Q1013
                        TEMPO BKN014=
201401241620 METAR EGLL 241620Z 16007KT 9999 FEW022 BKN037 08/04 Q1013=
201401241550 METAR COR EGLL 241550Z 15007KT 9999 FEW020 BKN035 08/05 Q1012
                        TEMPO -RA BKN014=
201401241520 METAR EGLL 241520Z 15009KT 9999 FEW020 BKN035 08/05 Q1012=
201401241450 METAR EGLL 241450Z 16007KT 9999 FEW033 BKN037 08/05 Q1012=
201401241420 METAR COR EGLL 241420Z 17008KT 9999 FEW018 BKN032 08/04 Q1012
                        TEMPO BKN014=
201401241350 METAR COR EGLL 241350Z 16008KT 9999 FEW018 SCT031 BKN040
                        08/04 Q1013 TEMPO BKN014=
201401241320 METAR COR EGLL 241320Z 16007KT 9999 FEW015 BKN031 08/04 Q1013
                        TEMPO BKN014=
201401241250 METAR COR EGLL 241250Z 15008KT 9999 FEW015 BKN032 07/04 Q1013
                        TEMPO BKN014=
201401241220 METAR COR EGLL 241220Z 15008KT 9999 FEW015 BKN038 07/04 Q1013
                        TEMPO BKN012=
201401241150 METAR COR EGLL 241150Z 16006KT 9999 FEW015 BKN041 07/03 Q1014
                        TEMPO BKN012=
201401241120 METAR COR EGLL 241120Z 14007KT 9999 BKN041 06/03 Q1014 NOSIG=
201401241050 METAR COR EGLL 241050Z 15006KT 9999 FEW044 BKN047 06/03 Q1014
                        NOSIG=
201401241020 METAR COR EGLL 241020Z 15006KT 9999 FEW044 BKN047 06/03 Q1014
                        NOSIG=
201401240950 METAR COR EGLL 240950Z 13007KT CAVOK 05/03 Q1014 NOSIG=
201401240920 METAR COR EGLL 240920Z 14005KT CAVOK 05/03 Q1014 NOSIG=
201401240850 METAR EGLL 240850Z VRB04KT CAVOK 04/03 Q1014=
201401240820 METAR COR EGLL 240820Z VRB03KT CAVOK 04/02 Q1014 NOSIG=
201401240750 METAR COR EGLL 240750Z 17004KT 130V220 CAVOK 04/02 Q1014
                        NOSIG=
201401240720 METAR COR EGLL 240720Z 19005KT 140V250 CAVOK 03/02 Q1014
                        NOSIG=
201401240650 METAR COR EGLL 240650Z VRB04KT CAVOK 03/02 Q1014 NOSIG=
201401240620 METAR COR EGLL 240620Z 16004KT 130V290 CAVOK 03/02 Q1014
                        NOSIG=
201401240550 METAR COR EGLL 240550Z VRB03KT CAVOK 03/02 Q1014 NOSIG=
201401240520 METAR EGLL 240520Z VRB03KT CAVOK 03/02 Q1015=
201401240450 METAR COR EGLL 240450Z 17004KT 140V210 CAVOK 03/02 Q1015
                        NOSIG=
201401240420 METAR COR EGLL 240420Z 23003KT CAVOK 03/02 Q1015 NOSIG=
201401240350 METAR COR EGLL 240350Z 20004KT CAVOK 03/01 Q1015 NOSIG=
201401240320 METAR EGLL 240320Z 16002KT CAVOK 03/01 Q1015=
201401240250 METAR EGLL 240250Z 23003KT CAVOK 03/01 Q1015=
201401240220 METAR EGLL 240220Z AUTO 22004KT 9999 NCD 03/01 Q1015=
201401240150 METAR EGLL 240150Z AUTO 26004KT 9999 NCD 03/01 Q1015=
201401240120 METAR EGLL 240120Z AUTO 23003KT 9999 NCD 03/01 Q1015=
201401240050 METAR COR EGLL 240050Z VRB03KT CAVOK 03/01 Q1015 NOSIG=
201401240020 METAR COR EGLL 240020Z 27007KT CAVOK 04/01 Q1016 NOSIG=
201401232350 METAR COR EGLL 232350Z 27007KT CAVOK 03/01 Q1016 NOSIG=
201401232320 METAR COR EGLL 232320Z 27007KT CAVOK 03/01 Q1015 NOSIG=
201401232250 METAR COR EGLL 232250Z 28007KT CAVOK 04/01 Q1015 NOSIG=
201401232220 METAR COR EGLL 232220Z 27007KT CAVOK 04/01 Q1015 NOSIG=
201401232150 METAR COR EGLL 232150Z 27009KT CAVOK 04/01 Q1015 NOSIG=
201401232120 METAR COR EGLL 232120Z 27009KT CAVOK 05/01 Q1015 NOSIG=
201401232050 METAR COR EGLL 232050Z 28008KT CAVOK 05/01 Q1015 NOSIG=
201401232020 METAR COR EGLL 232020Z 28008KT CAVOK 05/01 Q1015 NOSIG=
201401231950 METAR COR EGLL 231950Z 29008KT CAVOK 05/01 Q1015 NOSIG=
201401231920 METAR COR EGLL 231920Z 29008KT CAVOK 06/01 Q1015 NOSIG=
201401231850 METAR COR EGLL 231850Z 30009KT CAVOK 06/00 Q1014 NOSIG=
201401231820 METAR COR EGLL 231820Z 28014KT CAVOK 06/01 Q1014 NOSIG=
201401231750 METAR COR EGLL 231750Z 29010KT CAVOK 06/01 Q1013 NOSIG=
201401231720 METAR COR EGLL 231720Z 29013G24KT 9999 FEW040 06/01 Q1013
                        NOSIG=
201401231650 METAR COR EGLL 231650Z 27009KT 9999 FEW039 07/01 Q1012 NOSIG=
201401231620 METAR COR EGLL 231620Z 28014KT 9999 FEW046 07/01 Q1012 NOSIG=
201401231550 METAR COR EGLL 231550Z 28012KT 9999 FEW041 SCT049 08/02 Q1012
                        NOSIG=
201401231520 METAR COR EGLL 231520Z 28013KT 9999 FEW039 SCT048 08/02 Q1011
                        NOSIG=
201401231450 METAR COR EGLL 231450Z 29012KT 9999 SCT047 08/02 Q1011 NOSIG=
201401231420 METAR COR EGLL 231420Z 29011KT 260V350 9999 SCT034 09/02
                        Q1011 NOSIG=
201401231350 METAR COR EGLL 231350Z 29011KT 260V320 9999 FEW040 08/03
                        Q1011 NOSIG=
201401231320 METAR COR EGLL 231320Z 30013KT 9999 SCT024 09/03 Q1011 NOSIG=
201401231250 METAR COR EGLL 231250Z 30011KT 9999 SCT021 SCT029 09/05 Q1010
                        NOSIG=
201401231220 METAR COR EGLL 231220Z 29009KT 9999 SCT018 08/06 Q1010 NOSIG=
201401231150 METAR COR EGLL 231150Z 27014KT 9999 -SHRA SCT018 SCT030 08/06
                        Q1010 NOSIG=
201401231120 METAR COR EGLL 231120Z 28011KT 9999 VCSH SCT013 SCT030 07/06
                        Q1010 NOSIG=
201401231050 METAR COR EGLL 231050Z 27014KT 9999 FEW006 BKN012 07/05 Q1010
                        TEMPO SHRA=
201401231020 METAR COR EGLL 231020Z 24010KT 210V270 9999 FEW006 BKN011
                        06/05 Q1010 BECMG SCT012=
201401230950 METAR COR EGLL 230950Z 24007KT 5000 -SHRA FEW008 BKN012 05/04
                        Q1010 RESHRA BECMG SCT012=
201401230920 METAR COR EGLL 230920Z 21010KT 8000 -SHRA SCT030 SCT039 05/04
                        Q1011 TEMPO SHRA BKN012=
201401230850 METAR COR EGLL 230850Z 21009KT 8000 -SHRA SCT039 04/03 Q1011
                        TEMPO SHRA BKN012=
201401230820 METAR COR EGLL 230820Z 22007KT 7000 NSC 04/03 Q1011 NOSIG=
201401230750 METAR COR EGLL 230750Z 20007KT 170V240 8000 NSC 03/03 Q1011
                        TEMPO 4000 BR=
201401230720 METAR COR EGLL 230720Z 21006KT 170V250 8000 FEW044 03/02
                        Q1012 TEMPO 4000 BKN008=
201401230650 METAR COR EGLL 230650Z 22005KT 190V250 8000 FEW043 03/02
                        Q1012 NOSIG=
201401230620 METAR EGLL 230620Z 22004KT 180V260 8000 FEW044 03/02 Q1012=
201401230550 METAR COR EGLL 230550Z 23004KT 9000 FEW045 03/02 Q1012 NOSIG=
201401230520 METAR COR EGLL 230520Z 23006KT 200V270 9000 FEW035 03/02
                        Q1012 NOSIG=
201401230450 METAR COR EGLL 230450Z 25004KT 9999 FEW031 04/03 Q1012 NOSIG=
201401230420 METAR COR EGLL 230420Z 26005KT 9000 FEW033 04/03 Q1013 NOSIG=
201401230350 METAR COR EGLL 230350Z 26004KT 9000 FEW046 03/03 Q1012 NOSIG=
201401230320 METAR COR EGLL 230320Z 27006KT 9999 FEW046 04/03 Q1013 NOSIG=
201401230250 METAR COR EGLL 230250Z 27006KT 9000 NSC 04/03 Q1013 NOSIG=
201401230220 METAR EGLL 230220Z AUTO 26007KT 9000 NCD 05/04 Q1012=
201401230150 METAR EGLL 230150Z AUTO 26005KT 9999 NCD 04/04 Q1012=
201401230120 METAR COR EGLL 230120Z AUTO 27006KT 9999 FEW047 04/04 Q1012=
201401230050 METAR COR EGLL 230050Z 27007KT CAVOK 05/04 Q1012 NOSIG=
201401230020 METAR COR EGLL 230020Z 27005KT 9999 FEW046 05/04 Q1012 NOSIG=
201401222350 METAR COR EGLL 222350Z 28008KT 9999 FEW046 06/05 Q1012 NOSIG=
201401222320 METAR COR EGLL 222320Z 28007KT 9999 FEW040 06/05 Q1012 NOSIG=
201401222250 METAR COR EGLL 222250Z 28006KT 9999 FEW042 07/06 Q1011 NOSIG=
201401222220 METAR COR EGLL 222220Z 27006KT 9999 SCT049 08/06 Q1011 NOSIG=
201401222150 METAR COR EGLL 222150Z 28006KT 9999 SCT048 08/06 Q1011 NOSIG=
201401222120 METAR COR EGLL 222120Z 28006KT 9999 FEW031 SCT041 08/06 Q1011
                        NOSIG=
201401222050 METAR COR EGLL 222050Z 28006KT 9999 SCT039 08/06 Q1011 NOSIG=
201401222020 METAR COR EGLL 222020Z 27008KT 9999 7000N VCSH SCT035 BKN040
                        08/06 Q1010 NOSIG=
201401221950 METAR COR EGLL 221950Z 24008KT 9999 7000W VCSH SCT047 08/06
                        Q1010 NOSIG=
201401221920 METAR COR EGLL 221920Z 24007KT 9999 SCT027 BKN047 08/06 Q1010
                        NOSIG=
201401221850 METAR COR EGLL 221850Z 24008KT 9999 SCT045 09/06 Q1009 NOSIG=
201401221820 METAR COR EGLL 221820Z 25007KT 9999 BKN045 09/06 Q1009 NOSIG=
201401221750 METAR COR EGLL 221750Z 23005KT 200V260 9999 BKN043 09/06
                        Q1009 NOSIG=
201401221720 METAR COR EGLL 221720Z 23005KT 9999 SCT043 08/06 Q1008 NOSIG=
201401221650 METAR COR EGLL 221650Z 22006KT 9999 SCT040 08/06 Q1008 NOSIG=
201401221620 METAR COR EGLL 221620Z 21005KT 180V250 9999 FEW020 09/06
                        Q1008 NOSIG=
201401221550 METAR COR EGLL 221550Z 23007KT 9999 FEW020 BKN042 09/06 Q1007
                        NOSIG=
201401221520 METAR EGLL 221520Z 24008KT 9999 SCT020 BKN040 10/06 Q1007=
201401221450 METAR EGLL 221450Z 25008KT 9999 FEW025 BKN035 10/06 Q1007=
201401221420 METAR COR EGLL 221420Z 26008KT 9999 FEW024 BKN040 10/06 Q1007
                        NOSIG=
201401221350 METAR COR EGLL 221350Z 26009KT 210V280 9999 FEW019 SCT023
                        10/06 Q1006 NOSIG=
201401221320 METAR COR EGLL 221320Z 23006KT 9999 FEW014 10/06 Q1006 NOSIG=
201401221250 METAR COR EGLL 221250Z 24007G17KT 200V280 9999 FEW014 09/06
                        Q1006 NOSIG=
201401221220 METAR COR EGLL 221220Z 22006KT 9999 SCT010 09/07 Q1006 NOSIG=
201401221150 METAR COR EGLL 221150Z 22006KT 9999 FEW010 SCT047 09/07 Q1006
                        NOSIG=
201401221120 METAR COR EGLL 221120Z 24006KT 9999 SCT010 SCT046 09/07 Q1006
                        NOSIG=
201401221050 METAR COR EGLL 221050Z 24007KT 210V270 9999 FEW008 SCT010
                        09/07 Q1006 NOSIG=
201401221020 METAR COR EGLL 221020Z 26008KT 220V290 9999 SCT007 BKN010
                        08/07 Q1006 BECMG SCT012=
201401220950 METAR COR EGLL 220950Z 25009KT 9999 FEW009 BKN010 09/07 Q1005
                        BECMG SCT012=
201401220920 METAR COR EGLL 220920Z 23006KT 190V260 9999 SCT008 SCT011
                        08/07 Q1005 TEMPO BKN012=
201401220850 METAR COR EGLL 220850Z 25006KT 9999 SCT006 SCT008 08/07 Q1005
                        TEMPO BKN008=
201401220820 METAR COR EGLL 220820Z 23006KT 9999 SCT005 SCT008 07/07 Q1004
                        TEMPO FEW002 BKN004=
201401220750 METAR COR EGLL 220750Z VRB03KT 9999 FEW005 SCT006 BKN010
                        07/06 Q1004 TEMPO FEW002 BKN004=
201401220720 METAR COR EGLL 220720Z 00000KT 9999 FEW005 SCT006 BKN007
                        07/06 Q1004 TEMPO BKN004=
201401220650 METAR COR EGLL 220650Z 14003KT 9999 FEW004 SCT005 BKN006
                        07/06 Q1003 TEMPO BKN004=
201401220620 METAR COR EGLL 220620Z 13004KT 9999 SCT004 BKN007 07/06 Q1003
                        TEMPO BKN004=
201401220550 METAR COR EGLL 220550Z 12006KT 9000 BKN004 07/06 Q1003 BECMG
                        SCT004 BKN008=
201401220520 METAR COR EGLL 220520Z 11008KT 7000 -RA FEW004 SCT010 BKN035
                        06/06 Q1003 TEMPO BKN006=
201401220450 METAR COR EGLL 220450Z 12008KT 9999 -RA FEW008 BKN035 06/06
                        Q1003 RERA TEMPO BKN007=
201401220420 METAR COR EGLL 220420Z 12012KT 8000 RA FEW008 BKN027 06/06
                        Q1003 BECMG -RA BKN012=
201401220350 METAR COR EGLL 220350Z 13008KT 9000 RA BKN008 06/06 Q1003
                        TEMPO SCT010 BKN018=
201401220320 METAR COR EGLL 220320Z 14007KT 7000 RA FEW007 BKN008 06/05
                        Q1004 TEMPO 4500 RADZ SCT006 BKN010=
201401220250 METAR EGLL 220250Z AUTO 15007KT 9999 RA OVC008/// //////CB
                        06/05 Q1004=
201401220220 METAR EGLL 220220Z AUTO 15007KT 9999 RA OVC007/// //////CB
                        06/05 Q1004=
201401220150 METAR EGLL 220150Z AUTO 15009KT 9999 RA OVC008/// //////CB
                        06/05 Q1004=
201401220120 METAR COR EGLL 220120Z 14008KT 9999 -RA SCT008 BKN010 06/05
                        Q1005 TEMPO RA BKN009=
201401220050 METAR COR EGLL 220050Z 15009KT 8000 -RA BKN009 06/05 Q1005
                        TEMPO 4500 RADZ=
201401220020 METAR COR EGLL 220020Z 16008KT 6000 -RA OVC011 06/05 Q1005
                        TEMPO 4000 RADZ BKN009=
201401212350 METAR COR EGLL 212350Z 15010KT 9999 -RA BKN013 07/04 Q1005
                        TEMPO RA BKN009=
201401212320 METAR COR EGLL 212320Z 15011KT 9999 BKN014 07/04 Q1005 TEMPO
                        RA BKN009=
201401212250 METAR COR EGLL 212250Z 15011KT 9999 BKN014 07/04 Q1006 NOSIG=
201401212220 METAR COR EGLL 212220Z 15012KT 9999 BKN013 06/04 Q1006 TEMPO
                        SCT013 BKN016=
201401212150 METAR COR EGLL 212150Z 14012KT 9999 FEW012 BKN016 06/04 Q1006
                        TEMPO BKN014=
201401212120 METAR COR EGLL 212120Z 15011KT 9999 -RA SCT016 SCT020 06/04
                        Q1007 TEMPO BKN014=
201401212050 METAR COR EGLL 212050Z 16010KT 9999 BKN016 07/04 Q1007 TEMPO
                        BKN014=
201401212020 METAR COR EGLL 212020Z 16010KT 9999 BKN015 07/04 Q1007 TEMPO
                        BKN014=
201401211950 METAR COR EGLL 211950Z 15009KT 9999 SCT015 07/04 Q1007 NOSIG=
201401211920 METAR COR EGLL 211920Z 15009KT 090V170 9999 SCT015 07/04
                        Q1007 NOSIG=
201401211850 METAR COR EGLL 211850Z 15010KT 110V180 9999 SCT015 06/04
                        Q1007 NOSIG=
201401211820 METAR COR EGLL 211820Z 15009KT 9999 FEW017 06/04 Q1007 NOSIG=
201401211750 METAR COR EGLL 211750Z 14008KT CAVOK 06/03 Q1008 NOSIG=
201401211720 METAR COR EGLL 211720Z 16008KT 130V190 9999 FEW033 06/03
                        Q1008 NOSIG=
201401211650 METAR EGLL 211650Z 16008KT 130V190 CAVOK 07/03 Q1008=
201401211620 METAR COR EGLL 211620Z 18011KT 9999 FEW025 07/02 Q1008 NOSIG=
201401211550 METAR COR EGLL 211550Z 15007KT 9999 FEW024 08/04 Q1008 NOSIG=
201401211520 METAR COR EGLL 211520Z 16009KT 100V190 9999 FEW020 08/04
                        Q1008 NOSIG=
201401211450 METAR COR EGLL 211450Z 17008KT 130V240 9999 FEW020 08/05
                        Q1009 NOSIG=
201401211420 METAR COR EGLL 211420Z 16009KT 120V260 9999 FEW020 08/05
                        Q1009 NOSIG=
201401211350 METAR COR EGLL 211350Z 15008KT 130V210 9999 FEW020 07/04
                        Q1009 NOSIG=
201401211320 METAR COR EGLL 211320Z 16007KT 130V220 9999 FEW040 SCT043
                        07/04 Q1010 NOSIG=
201401211250 METAR COR EGLL 211250Z VRB08KT 9999 FEW037 06/04 Q1010 NOSIG=
201401211220 METAR COR EGLL 211220Z 19005KT 110V260 9000 FEW030 06/05
                        Q1010 NOSIG=
201401211150 METAR COR EGLL 211150Z VRB04KT 9999 8000W PRFG NSC 04/04
                        Q1010 NOSIG=
201401211120 METAR COR EGLL 211120Z VRB03KT 2000 BR FEW002 SCT003 03/03
                        Q1011 NOSIG=
201401211050 METAR COR EGLL 211050Z VRB03KT 0200 R27L/0375 R27R/P1500
                        FG VV/// 03/02 Q1011 BECMG 0800 BKN002=
201401211020 METAR COR EGLL 211020Z 00000KT 0250 R27L/0275 R27R/1300 FG
                        VV/// 02/02 Q1012 BECMG 0800 BKN002=
201401210950 METAR COR EGLL 210950Z 00000KT 0200 R27L/0250 R27R/1400 FG
                        VV/// 02/02 Q1012 BECMG 0600 BKN001=
201401210920 METAR COR EGLL 210920Z VRB02KT 0200 R27L/0300 R27R/0400 FG
                        VV/// 02/01 Q1012 BECMG 0800 BKN001=
201401210850 METAR COR EGLL 210850Z VRB03KT 0150 R27L/0325 R27R/0400 FG
                        VV/// 02/01 Q1012 TEMPO 0600=
201401210820 METAR COR EGLL 210820Z VRB03KT 0100 R27L/0300 R27R/0650 FG
                        VV/// 02/02 Q1012 TEMPO 0600=
201401210750 METAR COR EGLL 210750Z VRB03KT 0200 R27L/0375 R27R/0600 FG
                        VV/// 02/02 Q1012 TEMPO 0800=
201401210720 METAR COR EGLL 210720Z VRB03KT 0600 R27L/P1500 R27R/1400
                        FG VV/// 02/02 Q1011 TEMPO 1200 BR
                        FEW001 BKN002=
201401210650 METAR COR EGLL 210650Z 19004KT 160V260 0300 R27L/0600 R27R/0650
                        FG VV/// 02/02 Q1011 TEMPO 1000 BR
                        SCT001 BKN002=
201401210620 METAR COR EGLL 210620Z VRB04KT 0600 R27L/1300 R27R/0600 FG
                        VV/// 02/02 Q1011 TEMPO 1100 BR SCT001
                        BKN003=
201401210550 METAR COR EGLL 210550Z VRB03KT 1500 0800E R27R/1200 PRFG
                        SCT001 BKN002 02/02 Q1012 TEMPO 0700
                        FG BKN001=
201401210520 METAR COR EGLL 210520Z VRB03KT 0400 R27R/1200 FG VV/// 02/02
                        Q1012 TEMPO 1800 BR SCT001 BKN018=
201401210450 METAR COR EGLL 210450Z VRB03KT 0900 R27R/P1500 FG BKN001
                        03/02 Q1012 TEMPO 1800 BR SCT001
                        BKN018=
201401210420 METAR COR EGLL 210420Z 00000KT 3000 BR BKN002 BKN020 02/02
                        Q1012 TEMPO 0900 PRFG SCT002=
201401210350 METAR COR EGLL 210350Z VRB02KT 4000 0900S PRFG FEW002 BKN019
                        02/01 Q1012 TEMPO 0800=
201401210320 METAR COR EGLL 210320Z 00000KT 4000 VCFG BKN021 02/02 Q1012
                        TEMPO 1200=
201401210250 METAR EGLL 210250Z AUTO 29003KT 2700 BR SCT005 BKN037 03/02
                        Q1012=
201401210220 METAR EGLL 210220Z AUTO VRB02KT 1700 BR FEW005 OVC032 03/02
                        Q1012=
201401210150 METAR EGLL 210150Z AUTO VRB02KT 3400 BR BKN031 03/02 Q1012=
201401210120 METAR COR EGLL 210120Z 00000KT 4000 BR FEW022 BKN035 03/02
                        Q1012 TEMPO 1400=
201401210050 METAR COR EGLL 210050Z 27002KT 5000 BR SCT038 03/02 Q1012
                        BECMG 2500=
201401210020 METAR COR EGLL 210020Z 34002KT 6000 NSC 03/02 Q1012 BECMG
                        2500 BR=
201401202350 METAR COR EGLL 202350Z 35002KT 7000 NSC 04/03 Q1012 BECMG
                        3500 BR=
201401202320 METAR COR EGLL 202320Z 33002KT 7000 NSC 04/03 Q1012 BECMG
                        3500 BR=
201401202250 METAR COR EGLL 202250Z VRB02KT 8000 NSC 05/03 Q1012 BECMG
                        3500 BR=
201401202220 METAR COR EGLL 202220Z 00000KT 9000 NSC 06/04 Q1012 BECMG
                        4000 BR=
201401202150 METAR COR EGLL 202150Z 00000KT 9999 FEW049 07/04 Q1012 BECMG
                        4500 BR=
201401202120 METAR COR EGLL 202120Z 00000KT 9999 FEW045 08/05 Q1012 NOSIG=
201401202050 METAR COR EGLL 202050Z VRB02KT 9999 BKN049 08/05 Q1011 NOSIG=
201401202020 METAR COR EGLL 202020Z 35003KT 9999 BKN048 07/05 Q1011 NOSIG=
201401201950 METAR COR EGLL 201950Z 33002KT CAVOK 07/04 Q1011 NOSIG=
201401201920 METAR COR EGLL 201920Z 00000KT 9999 FEW041 07/04 Q1011 NOSIG=
201401201850 METAR COR EGLL 201850Z VRB02KT 9999 FEW048 07/04 Q1011 NOSIG=
201401201820 METAR EGLL 201820Z 00000KT 9999 FEW045 07/04 Q1011=
201401201750 METAR COR EGLL 201750Z 00000KT 9999 FEW044 07/04 Q1010 NOSIG=
201401201720 METAR COR EGLL 201720Z 00000KT 9999 FEW044 07/04 Q1010 NOSIG=
201401201650 METAR EGLL 201650Z 00000KT CAVOK 07/04 Q1010=
201401201620 METAR EGLL 201620Z VRB02KT 9999 FEW045 08/04 Q1010=
201401201550 METAR COR EGLL 201550Z VRB02KT 9999 FEW047 09/04 Q1009 NOSIG=
201401201520 METAR COR EGLL 201520Z VRB02KT 9999 FEW045 09/04 Q1009 NOSIG=
201401201450 METAR COR EGLL 201450Z VRB03KT 9999 FEW043 10/05 Q1009 NOSIG=
201401201420 METAR COR EGLL 201420Z VRB02KT 9999 SCT044 09/05 Q1009 NOSIG=
201401201350 METAR COR EGLL 201350Z VRB02KT 9999 SCT045 08/05 Q1008 NOSIG=
201401201320 METAR COR EGLL 201320Z 29004KT 9999 SCT045 08/05 Q1008 NOSIG=
201401201250 METAR COR EGLL 201250Z 30003KT 9999 FEW030 07/05 Q1008 NOSIG=
201401201220 METAR EGLL 201220Z VRB02KT 9999 FEW047 07/05 Q1008=
201401201150 METAR COR EGLL 201150Z 30003KT 9000 FEW047 07/04 Q1008 NOSIG=
201401201120 METAR COR EGLL 201120Z 32003KT 9000 FEW047 07/04 Q1008 NOSIG=
201401201050 METAR COR EGLL 201050Z VRB02KT 9000 FEW047 06/04 Q1008 NOSIG=
201401201020 METAR COR EGLL 201020Z 06003KT 9000 FEW047 04/02 Q1008 NOSIG=
201401200950 METAR COR EGLL 200950Z VRB02KT 9000 VCFG SCT047 04/03 Q1008
                        NOSIG=
201401200920 METAR EGLL 200920Z 36003KT 9000 VCFG FEW042 03/02 Q1007=
201401200850 METAR COR EGLL 200850Z VRB02KT 8000 VCFG NSC 02/02 Q1007
                        TEMPO 3000 MIFG=
201401200820 METAR COR EGLL 200820Z 02003KT 7000 VCFG NSC 02/02 Q1007
                        TEMPO 3000 MIFG=
201401200750 METAR COR EGLL 200750Z 03003KT 7000 VCFG NSC 01/01 Q1006
                        TEMPO 3000 MIFG=
201401200720 METAR COR EGLL 200720Z VRB03KT 7000 VCFG NSC 01/00 Q1006
                        TEMPO 3000 MIFG=
201401200650 METAR COR EGLL 200650Z 00000KT 9000 FEW047 02/01 Q1005 BECMG
                        4000 BR=
201401200620 METAR COR EGLL 200620Z VRB02KT 9999 FEW048 02/01 Q1005 BECMG
                        4000 BR=
201401200550 METAR COR EGLL 200550Z 00000KT 9999 FEW030 01/00 Q1005 NOSIG=
201401200520 METAR COR EGLL 200520Z 00000KT 9999 NSC 01/00 Q1004 NOSIG=
201401200420 METAR COR EGLL 200420Z 00000KT 9000 NSC 01/00 Q1004 NOSIG=
201401200350 METAR EGLL 200350Z VRB02KT 9000 NSC 01/00 Q1004=
201401200320 METAR EGLL 200320Z AUTO 00000KT 9000 NCD 01/00 Q1004=
201401200250 METAR COR EGLL 200250Z 00000KT 9000 NSC 01/01 Q1003 NOSIG=
201401200220 METAR EGLL 200220Z AUTO 00000KT 2400 HZ NCD 01/00 Q1003=
201401200150 METAR EGLL 200150Z AUTO 00000KT 7000 NCD 02/01 Q1003=
201401200120 METAR EGLL 200120Z AUTO 00000KT 9999 NCD 03/02 Q1003=
201401200050 METAR COR EGLL 200050Z 00000KT 9999 FEW047 02/01 Q1002 NOSIG=
201401200020 METAR COR EGLL 200020Z 00000KT CAVOK 02/01 Q1002 NOSIG=
201401192350 METAR COR EGLL 192350Z VRB02KT 9999 FEW030 02/01 Q1002 NOSIG=
201401192320 METAR COR EGLL 192320Z 15002KT 9999 FEW045 03/02 Q1002 NOSIG=
201401192250 METAR COR EGLL 192250Z 18006KT 130V240 CAVOK 03/02 Q1002
                        NOSIG=
201401192220 METAR COR EGLL 192220Z 16005KT 140V230 CAVOK 03/01 Q1002
                        NOSIG=
201401192150 METAR COR EGLL 192150Z 19005KT 170V250 CAVOK 03/02 Q1001
                        NOSIG=
201401192120 METAR COR EGLL 192120Z 20006KT 150V250 CAVOK 03/02 Q1001
                        NOSIG=
201401192050 METAR COR EGLL 192050Z 20006KT 140V250 CAVOK 03/02 Q1001
                        NOSIG=
201401192020 METAR COR EGLL 192020Z 19005KT 170V230 CAVOK 04/02 Q1001
                        NOSIG=
201401191950 METAR COR EGLL 191950Z 18006KT 150V230 CAVOK 04/02 Q1001
                        NOSIG=
201401191920 METAR COR EGLL 191920Z 19007KT 150V250 CAVOK 04/02 Q1000
                        NOSIG=
201401191850 METAR COR EGLL 191850Z 19006KT 160V230 CAVOK 05/02 Q1000
                        NOSIG=
201401191820 METAR COR EGLL 191820Z 19006KT 150V230 CAVOK 05/02 Q1000
                        NOSIG=
201401191750 METAR COR EGLL 191750Z 20005KT 150V250 CAVOK 05/02 Q0999
                        NOSIG=
201401191720 METAR COR EGLL 191720Z 22006KT 150V250 CAVOK 06/02 Q0999
                        NOSIG=
201401191650 METAR COR EGLL 191650Z 22007KT 180V250 CAVOK 07/02 Q0999
                        NOSIG=
201401191620 METAR COR EGLL 191620Z 23006KT 190V270 9999 FEW020 07/02
                        Q0998 NOSIG=
201401191550 METAR EGLL 191550Z 24008KT 9999 FEW024 08/02 Q0998=
201401191520 METAR COR EGLL 191520Z 27008KT 9999 FEW024 08/02 Q0997 NOSIG=
201401191450 METAR COR EGLL 191450Z 26008KT 9999 FEW024 09/02 Q0997 NOSIG=
201401191420 METAR COR EGLL 191420Z 27007KT 9999 FEW024 08/02 Q0997 NOSIG=
201401191350 METAR COR EGLL 191350Z 26008KT 9999 FEW014 08/03 Q0997 NOSIG=
201401191320 METAR COR EGLL 191320Z 26009KT 9999 FEW012 07/03 Q0996 NOSIG=
201401191250 METAR COR EGLL 191250Z 25010KT 9999 SCT018 07/03 Q0996 NOSIG=
201401191220 METAR COR EGLL 191220Z 26008KT 9999 SCT015 08/04 Q0996 NOSIG=
201401191150 METAR COR EGLL 191150Z 26008KT 9999 SCT015 07/04 Q0996 NOSIG=
201401191120 METAR COR EGLL 191120Z 25009KT 9999 SCT012 06/04 Q0996 NOSIG=
201401191050 METAR COR EGLL 191050Z 26008KT 9999 BKN012 06/04 Q0995 BECMG
                        SCT015=
201401191020 METAR COR EGLL 191020Z 26009KT 9999 BKN011 07/04 Q0995 BECMG
                        SCT014=
201401190950 METAR EGLL 190950Z 26010KT 9999 FEW015 07/04 Q0994=
201401190920 METAR COR EGLL 190920Z 25009KT 9999 FEW010 SCT036 07/05 Q0994
                        NOSIG=
201401190850 METAR COR EGLL 190850Z 27008KT 9999 FEW015 SCT043 07/04 Q0993
                        NOSIG=
201401190820 METAR COR EGLL 190820Z 27006KT 9999 FEW015 SCT034 07/04 Q0993
                        NOSIG=
201401190750 METAR COR EGLL 190750Z 28009KT 9999 FEW010 BKN015 07/05 Q0992
                        TEMPO BKN012=
201401190720 METAR COR EGLL 190720Z 28009KT 9999 FEW009 BKN011 08/06 Q0992
                        BECMG SCT011=
201401190650 METAR COR EGLL 190650Z 15003KT 9999 FEW010 BKN013 08/06 Q0991
                        TEMPO SCT015=
201401190620 METAR COR EGLL 190620Z 14005KT 9999 FEW015 08/06 Q0991 NOSIG=
201401190550 METAR COR EGLL 190550Z 15003KT 9999 FEW018 08/06 Q0991 NOSIG=
201401190520 METAR COR EGLL 190520Z 14005KT 9999 SCT017 SCT043 08/06 Q0991
                        NOSIG=
201401190450 METAR COR EGLL 190450Z 13006KT 9999 SCT043 08/06 Q0991 NOSIG=
201401190420 METAR COR EGLL 190420Z 13006KT 9999 FEW018 SCT030 08/06 Q0991
                        NOSIG=
201401190350 METAR COR EGLL 190350Z 12005KT 9999 BKN015 08/06 Q0991 REDZ
                        TEMPO RA=
201401190320 METAR EGLL 190320Z 13007KT 9999 DZ BKN017 08/06 Q0991=
201401190250 METAR COR EGLL 190250Z 13007KT 9999 BKN018 BKN024 08/06 Q0991
                        TEMPO RA=
201401190220 METAR EGLL 190220Z AUTO 13007KT 9999 BKN019 08/06 Q0990=
201401190150 METAR EGLL 190150Z AUTO 14006KT 9999 BKN021 08/05 Q0990=
201401190120 METAR EGLL 190120Z AUTO 14008KT 9999 FEW024 08/05 Q0990=
201401190050 METAR COR EGLL 190050Z 14008KT CAVOK 08/05 Q0990 NOSIG=
201401190020 METAR COR EGLL 190020Z 14007KT 9999 FEW048 08/05 Q0990 NOSIG=
201401182350 METAR COR EGLL 182350Z 14009KT 9999 FEW040 09/05 Q0990 NOSIG=
201401182320 METAR COR EGLL 182320Z 14009KT 9999 FEW040 09/05 Q0990 NOSIG=
201401182250 METAR COR EGLL 182250Z 14009KT 9999 SCT040 09/06 Q0990 NOSIG=
201401182220 METAR COR EGLL 182220Z 14010KT 9999 SCT035 08/06 Q0990 NOSIG=
201401182150 METAR COR EGLL 182150Z 13010KT 9999 -RA FEW030 BKN036 09/06
                        Q0990 NOSIG=
201401182120 METAR COR EGLL 182120Z 14009KT 9999 -RA FEW023 SCT027 BKN039
                        09/06 Q0990 NOSIG=
201401182050 METAR COR EGLL 182050Z 14009KT 9999 FEW023 BKN044 09/05 Q0990
                        TEMPO RA=
201401182020 METAR COR EGLL 182020Z 14010KT 9999 FEW025 SCT034 09/05 Q0990
                        TEMPO RA=
201401181950 METAR COR EGLL 181950Z 13009KT 9999 BKN030 09/05 Q0990 NOSIG=
201401181920 METAR COR EGLL 181920Z 13009KT 9999 SCT030 09/05 Q0990 NOSIG=
201401181850 METAR COR EGLL 181850Z 13010KT 9999 FEW029 08/05 Q0990 NOSIG=
201401181820 METAR COR EGLL 181820Z 12012KT 9999 FEW032 BKN039 08/05 Q0990
                        NOSIG=
201401181750 METAR COR EGLL 181750Z 12011KT 9999 BKN029 08/05 Q0990 NOSIG=
201401181720 METAR COR EGLL 181720Z 11009KT 9999 BKN029 08/05 Q0990 NOSIG=
201401181650 METAR COR EGLL 181650Z 12009KT 9999 BKN028 09/05 Q0990 NOSIG=
201401181620 METAR COR EGLL 181620Z 13010KT 9999 SCT029 09/05 Q0990 NOSIG=
201401181550 METAR COR EGLL 181550Z 14010KT 9999 FEW021 09/05 Q0989 NOSIG=
201401181520 METAR COR EGLL 181520Z 15012KT 9999 SCT021 10/06 Q0989 NOSIG=
201401181450 METAR COR EGLL 181450Z 15013KT 9999 FEW021 SCT029 10/06 Q0989
                        NOSIG=
201401181420 METAR COR EGLL 181420Z 14013KT 9999 FEW016 10/07 Q0989 NOSIG=
201401181350 METAR COR EGLL 181350Z 14011KT 9999 BKN018 10/07 Q0989 NOSIG=
201401181320 METAR COR EGLL 181320Z 14010KT 9999 BKN017 10/06 Q0990 NOSIG=
201401181250 METAR COR EGLL 181250Z 14012KT 9999 BKN017 09/06 Q0990 NOSIG=
201401181220 METAR COR EGLL 181220Z 15013KT 9999 BKN018 09/06 Q0990 NOSIG=
201401181150 METAR COR EGLL 181150Z 14011KT 9999 SCT018 SCT023 09/06 Q0991
                        NOSIG=
201401181120 METAR COR EGLL 181120Z 15011KT 9999 SCT018 09/06 Q0991 NOSIG=
201401181050 METAR COR EGLL 181050Z 15011KT 9999 FEW021 09/06 Q0991 NOSIG=
201401181020 METAR COR EGLL 181020Z 13011KT 9999 SCT033 09/06 Q0991 NOSIG=
201401180950 METAR COR EGLL 180950Z 14009KT 9999 SCT034 SCT040 08/06 Q0991
                        NOSIG=
201401180920 METAR COR EGLL 180920Z 12008KT 9999 -RA FEW033 BKN040 08/06
                        Q0991 NOSIG=
201401180850 METAR COR EGLL 180850Z 12008KT 9999 -RA FEW015 BKN040 08/06
                        Q0991 TEMPO RADZ BKN014=
201401180820 METAR COR EGLL 180820Z 14008KT 9999 -RA FEW015 SCT040 08/06
                        Q0992 TEMPO RADZ BKN013=
201401180750 METAR COR EGLL 180750Z 15009KT 9999 -RA FEW010 SCT021 08/06
                        Q0992 TEMPO RADZ BKN013=
201401180720 METAR COR EGLL 180720Z 15009KT 9999 -RA FEW010 SCT020 08/06
                        Q0992 TEMPO BKN013=
201401180650 METAR COR EGLL 180650Z 14012KT 9999 -RA FEW010 SCT045 08/06
                        Q0992 TEMPO BKN010=
201401180620 METAR COR EGLL 180620Z 14011KT 8000 -RA SCT024 08/07 Q0992
                        TEMPO BKN010=
201401180550 METAR COR EGLL 180550Z 14008KT 9999 FEW023 08/07 Q0992 TEMPO
                        BKN010=
201401180520 METAR COR EGLL 180520Z 15008KT 9999 FEW030 08/07 Q0992 NOSIG=
201401180450 METAR COR EGLL 180450Z 16007KT 9999 FEW045 08/07 Q0992 NOSIG=
201401180420 METAR COR EGLL 180420Z 16008KT 9999 FEW042 09/07 Q0993 TEMPO
                        BKN010=
201401180350 METAR COR EGLL 180350Z 15007KT 9999 BKN011 09/08 Q0993 NOSIG=
201401180320 METAR EGLL 180320Z AUTO 14007KT 9999 BKN011 08/08 Q0993=
201401180250 METAR EGLL 180250Z AUTO 16006KT 9999 BKN010 08/08 Q0993=
201401180220 METAR EGLL 180220Z AUTO 15003KT 9999 OVC010 08/07 Q0994 REDZ=
201401180150 METAR COR EGLL 180150Z 19004KT 130V240 5000 -RA SCT010 SCT013
                        08/07 Q0994 TEMPO RA BKN010=
201401180120 METAR COR EGLL 180120Z 15005KT 7000 -RA FEW014 SCT030 08/07
                        Q0994 TEMPO RA=
201401180050 METAR COR EGLL 180050Z 15006KT 9000 -RA FEW030 SCT044 08/07
                        Q0994 TEMPO RA=
201401180020 METAR COR EGLL 180020Z 14006KT 9999 SCT039 SCT048 07/07 Q0994
                        TEMPO RA=
201401172350 METAR COR EGLL 172350Z 14005KT 9999 -RA SCT043 07/06 Q0994
                        TEMPO RA=
201401172320 METAR COR EGLL 172320Z 14006KT 120V220 9999 FEW012 06/05
                        Q0994 TEMPO RA=
201401172250 METAR COR EGLL 172250Z 17005KT 130V260 CAVOK 06/05 Q0994
                        NOSIG=
201401172220 METAR COR EGLL 172220Z 17005KT 130V250 9999 FEW010 05/04
                        Q0994 TEMPO RA=
201401172150 METAR COR EGLL 172150Z 18007KT 140V240 CAVOK 06/05 Q0994
                        BECMG BKN020=
201401172120 METAR COR EGLL 172120Z 18006KT 130V230 CAVOK 06/05 Q0994
                        BECMG BKN030=
201401172050 METAR COR EGLL 172050Z 18006KT 140V240 9999 FEW013 06/04
                        Q0994 NOSIG=
201401172020 METAR COR EGLL 172020Z 16006KT 130V210 CAVOK 06/05 Q0994
                        NOSIG=
201401171950 METAR COR EGLL 171950Z 18007KT 150V220 CAVOK 07/05 Q0994
                        NOSIG=
201401171920 METAR COR EGLL 171920Z 20009KT 170V240 CAVOK 07/06 Q0993
                        NOSIG=
201401171850 METAR COR EGLL 171850Z 18007KT 150V220 CAVOK 07/06 Q0993
                        NOSIG=
201401171820 METAR COR EGLL 171820Z 19008KT 150V230 CAVOK 07/06 Q0993
                        NOSIG=
201401171750 METAR COR EGLL 171750Z 18009KT 150V240 CAVOK 07/06 Q0992
                        NOSIG=
201401171720 METAR COR EGLL 171720Z 19009KT 160V240 9999 FEW021 07/06
                        Q0992 NOSIG=
201401171650 METAR COR EGLL 171650Z 20008KT 160V240 9999 FEW048 07/06
                        Q0992 NOSIG=
201401171620 METAR COR EGLL 171620Z 20009KT 170V240 9999 FEW048 07/06
                        Q0992 NOSIG=
201401171550 METAR COR EGLL 171550Z 19009KT 150V240 9999 FEW048 08/05
                        Q0991 NOSIG=
201401171520 METAR COR EGLL 171520Z 21010KT 9999 FEW045 08/05 Q0991 NOSIG=
201401171450 METAR COR EGLL 171450Z 21010KT 9999 VCSH FEW045 09/05 Q0991
                        NOSIG=
201401171420 METAR COR EGLL 171420Z 21012KT 9999 SCT042 09/06 Q0991 NOSIG=
201401171350 METAR COR EGLL 171350Z 21014KT 9999 SCT039 09/05 Q0990 NOSIG=
201401171320 METAR COR EGLL 171320Z 21012KT 9999 -SHRA FEW030 09/06 Q0990
                        NOSIG=
201401171250 METAR COR EGLL 171250Z 20012KT 9999 FEW015 SCT047 09/06 Q0990
                        TEMPO SHRA=
201401171220 METAR COR EGLL 171220Z 19011KT 9999 SCT049 08/06 Q0990 RESHRA
                        NOSIG=
201401171150 METAR COR EGLL 171150Z 19010KT 9999 8000E SHRA SCT013 BKN023
                        07/06 Q0991 NOSIG=
201401171120 METAR COR EGLL 171120Z 20014KT 9000 SHRA FEW014 BKN024 08/06
                        Q0991 RERA BECMG NSW=
201401171050 METAR COR EGLL 171050Z 22010KT 170V240 9999 -SHRA SCT027TCU
                        SCT044 08/06 Q0990 RESHRA TEMPO SHRA=
201401171020 METAR COR EGLL 171020Z 19011KT 9999 -SHRA FEW031 SCT042 08/05
                        Q0990 TEMPO SHRA=
201401170950 METAR COR EGLL 170950Z 18013G23KT 9999 SCT041 07/05 Q0990
                        NOSIG=
201401170920 METAR COR EGLL 170920Z 19010KT 9999 SCT043 07/05 Q0990 NOSIG=
201401170850 METAR COR EGLL 170850Z 19011KT 160V220 9999 SCT036 07/05
                        Q0990 NOSIG=
201401170820 METAR COR EGLL 170820Z 20012KT 9999 -SHRA SCT029 07/05 Q0990
                        NOSIG=
201401170750 METAR COR EGLL 170750Z 21009KT 9999 FEW023 07/05 Q0989 TEMPO
                        SHRA=
201401170720 METAR COR EGLL 170720Z 21011KT 9999 FEW045 07/05 Q0989 TEMPO
                        SHRA=
201401170650 METAR COR EGLL 170650Z 19013G23KT 9999 -SHRA SCT034 SCT040
                        07/05 Q0989 TEMPO SHRA=
201401170620 METAR COR EGLL 170620Z 20013KT 9999 -SHRA FEW033 SCT041 07/05
                        Q0988 TEMPO SHRA=
201401170550 METAR COR EGLL 170550Z 20012KT 9999 FEW040 07/05 Q0988 TEMPO
                        SHRA=
201401170520 METAR COR EGLL 170520Z 20011G21KT 9999 SCT033 07/05 Q0988
                        RESHRA TEMPO SHRA=
201401170450 METAR COR EGLL 170450Z 20015G25KT 9999 SHRA SCT029 BKN034
                        07/05 Q0988 TEMPO NSW=
201401170420 METAR COR EGLL 170420Z 21015KT 9000 SHRA FEW029 BKN040 07/05
                        Q0988 TEMPO NSW=
201401170350 METAR COR EGLL 170350Z 18009KT 9999 -SHRA FEW024 SCT039 07/05
                        Q0988 TEMPO SHRA=
201401170320 METAR COR EGLL 170320Z 19012KT 9999 FEW026 SCT039 07/05 Q0988
                        RESHRA TEMPO SHRA=
201401170250 METAR COR EGLL 170250Z 19012KT 9999 SHRA FEW022 SCT033 08/06
                        Q0988 RERA TEMPO NSW=
201401170220 METAR EGLL 170220Z AUTO 20010KT 9999 FEW020/// //////TCU
                        07/06 Q0988=
201401170150 METAR EGLL 170150Z AUTO 20013KT 9999 SCT022 SCT033 OVC038
                        08/05 Q0987=
201401170120 METAR EGLL 170120Z AUTO 20011KT 9999 FEW028/// SCT035///
                        //////TCU 07/06 Q0987=
201401170050 METAR COR EGLL 170050Z 19012KT 9999 -SHRA SCT030 SCT042 07/06
                        Q0987 TEMPO SHRA=
201401170020 METAR COR EGLL 170020Z 18008KT 9999 SCT042 07/05 Q0987 TEMPO
                        SHRA=
201401162350 METAR COR EGLL 162350Z 19010KT 9999 FEW015 SCT049 07/05 Q0987
                        TEMPO SHRA=
201401162320 METAR COR EGLL 162320Z 17006KT 9999 FEW017 SCT034 07/06 Q0987
                        RESHRA TEMPO SHRA=
201401162250 METAR COR EGLL 162250Z 18008KT 140V240 9000 SHRA SCT023 SCT038
                        07/05 Q0987 TEMPO NSW=
201401162220 METAR COR EGLL 162220Z 19010KT 170V240 9999 SCT041 07/05
                        Q0987 TEMPO SHRA=
201401162150 METAR COR EGLL 162150Z 19013KT 170V240 9999 VCSH FEW011 SCT038
                        07/05 Q0987 TEMPO SHRA=
201401162120 METAR COR EGLL 162120Z 18009KT 140V230 9999 SCT015 SCT020
                        07/05 Q0987 TEMPO SHRA=
201401162050 METAR COR EGLL 162050Z 20012KT 170V230 9999 -SHRA FEW026
                        SCT033 06/05 Q0987 RESHRA TEMPO SHRA=
201401162020 METAR COR EGLL 162020Z 22014KT 180V250 5000 SHRA FEW011 SCT017CB
                        SCT036 07/05 Q0987 TEMPO 4000 +SHRA=
201401161950 METAR COR EGLL 161950Z 20014KT 160V250 9999 6000SW SHRA FEW019
                        SCT027 08/06 Q0987 TEMPO 4000 +SHRA=
201401161920 METAR COR EGLL 161920Z 17014KT 150V230 9999 FEW020 SCT028
                        08/06 Q0987 TEMPO SHRA=
201401161850 METAR COR EGLL 161850Z 17008KT 150V220 9999 -SHRA SCT026
                        SCT035 08/06 Q0987 RESHRA TEMPO SHRA=
201401161820 METAR COR EGLL 161820Z 18012KT 150V230 9000 SHRA FEW014 SCT034
                        07/06 Q0987 TEMPO NSW=
201401161750 METAR COR EGLL 161750Z 19013G24KT 160V230 9999 6000E SHRA
                        FEW012 SCT017CB SCT040 07/06 Q0988
                        RESHRA TEMPO SHRA=
201401161720 METAR COR EGLL 161720Z 17011KT 150V220 5000 SHRA SCT020TCU
                        SCT027 09/06 Q0988 TEMPO NSW=
201401161650 METAR COR EGLL 161650Z 17010KT 140V230 9999 VCSH SCT025 09/06
                        Q0988 TEMPO SHRA=
201401161620 METAR COR EGLL 161620Z 18010KT 150V220 9999 SCT024 09/06
                        Q0988 TEMPO SHRA=
201401161550 METAR COR EGLL 161550Z 18012KT 150V230 9999 FEW021 SCT048
                        09/06 Q0988 TEMPO SHRA=
201401161520 METAR COR EGLL 161520Z 19014KT 9999 -SHRA FEW019TCU SCT030
                        09/06 Q0988 TEMPO SHRA=
201401161450 METAR COR EGLL 161450Z 18014G25KT 9000 -SHRA FEW022 SCT026
                        09/06 Q0989 TEMPO SHRA=
201401161420 METAR COR EGLL 161420Z 18013KT 9999 -SHRA FEW021 SCT030 10/06
                        Q0989 TEMPO SHRA=
201401161350 METAR COR EGLL 161350Z 18014G24KT 9999 SCT025 10/06 Q0989
                        TEMPO SHRA=
201401161320 METAR COR EGLL 161320Z 19013KT 9999 SCT022 10/06 Q0989 NOSIG=
201401161250 METAR COR EGLL 161250Z 19014KT 160V220 9999 SCT022 10/06
                        Q0990 TEMPO SHRA=
201401161220 METAR COR EGLL 161220Z 19014KT 9999 SCT017CB SCT042 10/07
                        Q0990 TEMPO SHRA=
201401161150 METAR COR EGLL 161150Z 19015KT 9999 SCT017 10/07 Q0990 TEMPO
                        SHRA=
201401161120 METAR COR EGLL 161120Z 19011KT 9999 SCT019 BKN026 09/07 Q0991
                        TEMPO SHRA=
201401161050 METAR COR EGLL 161050Z 17009KT 140V230 9999 SCT020 SCT030
                        09/07 Q0991 TEMPO SHRA=
201401161020 METAR COR EGLL 161020Z 15007KT 9999 5000SW VCSH FEW020 SCT030
                        08/06 Q0992 NOSIG=
201401160950 METAR COR EGLL 160950Z 15008KT 130V210 9999 FEW049 08/06
                        Q0992 TEMPO SHRA=
201401160920 METAR COR EGLL 160920Z 18007KT 070V230 9999 FEW032 07/06
                        Q0992 NOSIG=
201401160850 METAR COR EGLL 160850Z 19009KT 9999 FEW032CB SCT038 07/05
                        Q0992 NOSIG=
201401160820 METAR COR EGLL 160820Z 20007KT 9999 -RA SCT029 SCT036 08/06
                        Q0992 NOSIG=
201401160750 METAR COR EGLL 160750Z 19007KT 9999 SCT049 07/06 Q0992 NOSIG=
201401160720 METAR COR EGLL 160720Z 21005KT 160V250 9999 SCT020 BKN037
                        07/06 Q0992 NOSIG=
201401160650 METAR COR EGLL 160650Z 21006KT 9999 SCT025 07/06 Q0992 NOSIG=
201401160620 METAR COR EGLL 160620Z 20008KT 150V250 9999 -SHRA FEW011
                        08/06 Q0992 NOSIG=
201401160550 METAR COR EGLL 160550Z 19006KT 160V240 9999 FEW020 08/06
                        Q0992 NOSIG=
201401160520 METAR COR EGLL 160520Z 18008KT 160V250 9999 FEW020 08/06
                        Q0992 NOSIG=
201401160450 METAR COR EGLL 160450Z 17008KT 080V230 9999 FEW023 08/06
                        Q0992 NOSIG=
201401160420 METAR COR EGLL 160420Z 20008KT 9999 FEW020 08/07 Q0992 NOSIG=
201401160350 METAR COR EGLL 160350Z 19008KT 9999 FEW018 09/07 Q0992 NOSIG=
201401160320 METAR COR EGLL 160320Z 21007KT 9999 SCT013 09/08 Q0993 TEMPO
                        SHRA=
201401160250 METAR COR EGLL 160250Z 20007KT 9999 FEW014 10/08 Q0993 TEMPO
                        SHRA=
201401160220 METAR EGLL 160220Z AUTO 22009KT 9999 FEW015 SCT034 BKN040
                        10/08 Q0992 REDZ=
201401160150 METAR EGLL 160150Z AUTO 21009KT 9999 FEW017 BKN030 10/08
                        Q0992 REDZ=
201401160120 METAR EGLL 160120Z AUTO 21009KT 9999 FEW017 BKN047 10/08
                        Q0992=
201401160050 METAR COR EGLL 160050Z 20014KT 9999 -RA FEW011 SCT014 10/09
                        Q0992 TEMPO 4000 RA BKN008=
201401160020 METAR COR EGLL 160020Z 19010KT 9999 -RA FEW010 BKN012 10/09
                        Q0992 RERA REDZ TEMPO BKN008=
201401152350 METAR COR EGLL 152350Z 19013KT 5000 RADZ SCT013 BKN018 10/09
                        Q0992 TEMPO BKN014=
201401152320 METAR COR EGLL 152320Z 18010KT 160V220 9999 FEW010 SCT012
                        BKN017 10/09 Q0992 TEMPO RA BKN014=
201401152250 METAR COR EGLL 152250Z 19011KT 140V230 9999 -RADZ FEW010
                        SCT016 BKN035 10/09 Q0993 RERA REDZ
                        TEMPO RADZ BKN014=
201401152220 METAR COR EGLL 152220Z 19011KT 170V240 9999 -RADZ FEW008
                        SCT018 BKN024 10/09 Q0993 TEMPO RADZ
                        BKN012=
201401152150 METAR COR EGLL 152150Z 17009KT 140V230 9000 -RADZ SCT008
                        BKN012 10/09 Q0994 TEMPO SCT012=
201401152120 METAR COR EGLL 152120Z 18013KT 160V230 9000 -RADZ FEW012
                        BKN015 10/09 Q0994 TEMPO RADZ BKN012=
201401152050 METAR COR EGLL 152050Z 18011KT 130V230 9999 SCT014 SCT047
                        10/08 Q0994 TEMPO RA BKN014=
201401152020 METAR COR EGLL 152020Z 18009KT 150V230 9999 SCT016 SCT044
                        10/08 Q0995 TEMPO RA BKN014=
201401151950 METAR COR EGLL 151950Z 18010KT 150V220 9999 SCT013 SCT025
                        10/09 Q0995 TEMPO RA BKN014=
201401151920 METAR COR EGLL 151920Z 19011KT 170V240 9999 SCT014 BKN027
                        10/08 Q0995 TEMPO BKN014=
201401151850 METAR EGLL 151850Z 19010KT 150V230 9999 SCT015 BKN026 10/08
                        Q0996=
201401151820 METAR COR EGLL 151820Z 19010KT 160V230 9999 SCT018 BKN026
                        10/08 Q0996 NOSIG=
201401151750 METAR COR EGLL 151750Z 19010KT 9999 FEW023 BKN030 10/09 Q0996
                        NOSIG=
201401151720 METAR COR EGLL 151720Z 19009KT 150V240 9999 SCT017 SCT028
                        10/08 Q0996 NOSIG=
201401151650 METAR COR EGLL 151650Z 19009KT 150V240 9999 FEW015 SCT038
                        10/08 Q0996 TEMPO BKN014=
201401151620 METAR COR EGLL 151620Z 19010KT 170V240 9999 SCT016 SCT039
                        10/09 Q0997 RERA REDZ TEMPO 4500
                        -DZ BKN014=
201401151550 METAR COR EGLL 151550Z 20011KT 180V240 9999 FEW012 SCT044
                        10/09 Q0997 NOSIG=
201401151520 METAR COR EGLL 151520Z 20012KT 9000 4000E -RADZ FEW011 SCT030
                        11/09 Q0997 TEMPO 4000 BKN011=
201401151450 METAR COR EGLL 151450Z 21010KT 190V250 9999 FEW008 BKN049
                        11/09 Q0997 TEMPO 4500 -RADZ BKN013=
201401151420 METAR COR EGLL 151420Z 22011KT 9999 FEW008 SCT013 BKN041
                        11/09 Q0997 TEMPO 4500 -RADZ BKN013=
201401151350 METAR COR EGLL 151350Z 21009KT 170V240 6000 -RADZ FEW009
                        SCT012 BKN020 11/09 Q0997 RERA REDZ
                        TEMPO 4500=
201401151320 METAR COR EGLL 151320Z 20010KT 9999 SCT016 SCT030 11/09 Q0997
                        TEMPO 4500 -RADZ BKN014=
201401151250 METAR COR EGLL 151250Z 20010KT 180V250 8000 SCT016 SCT020
                        11/09 Q0998 TEMPO 4500 -RADZ BKN010=
201401151220 METAR EGLL 151220Z 21009KT 9999 SCT023 SCT030 11/09 Q0998=
201401151150 METAR COR EGLL 151150Z 20009KT 160V250 9999 FEW008 BKN023
                        11/10 Q0998 TEMPO 4500 -RADZ BKN010=
201401151120 METAR COR EGLL 151120Z 19009KT 080V240 8000 FEW005 BKN020
                        10/09 Q0999 TEMPO 4500 -RADZ BKN010=
201401151050 METAR COR EGLL 151050Z 20010KT 4700 -RADZ FEW013 SCT020 BKN027
                        10/09 Q0999 TEMPO 8000 NSW=
201401151020 METAR COR EGLL 151020Z 19011KT 9000 FEW012 SCT020 BKN041
                        11/09 Q0999 TEMPO BKN012=
201401150950 METAR COR EGLL 150950Z 21010KT 9000 FEW047 11/09 Q0999 NOSIG=
201401150920 METAR COR EGLL 150920Z 20009KT 9999 FEW014 10/09 Q0999 TEMPO
                        BKN014=
201401150850 METAR COR EGLL 150850Z 19007KT 160V240 9999 FEW015 SCT018
                        10/09 Q1000 TEMPO BKN014=
201401150820 METAR COR EGLL 150820Z 21008KT 9999 FEW023 SCT030 10/08 Q1000
                        NOSIG=
201401150750 METAR COR EGLL 150750Z 21007KT 9999 BKN045 10/09 Q1000 TEMPO
                        BKN014=
201401150720 METAR COR EGLL 150720Z 21008KT 190V260 9999 FEW018 BKN038
                        10/09 Q1000 TEMPO BKN014=
201401150650 METAR COR EGLL 150650Z 22009KT 9999 SCT014 BKN018 10/09 Q1000
                        TEMPO BKN007=
201401150620 METAR COR EGLL 150620Z 21008KT 9999 -RADZ FEW005 BKN008 BKN016
                        09/09 Q0999 TEMPO SCT008 BKN012=
201401150550 METAR COR EGLL 150550Z 20006KT 9999 -RADZ FEW004 SCT010 BKN045
                        09/08 Q0999 TEMPO SCT003 BKN005=
201401150520 METAR EGLL 150520Z 20008KT 160V240 9999 FEW003 SCT010 BKN040
                        09/08 Q0999=
201401150450 METAR COR EGLL 150450Z 20008KT 9999 FEW003 BKN008 09/08 Q1000
                        TEMPO 4500 RADZ SCT03 BKN004=
201401150420 METAR COR EGLL 150420Z 20007KT 9999 -RADZ FEW003 SCT006 BKN009
                        08/08 Q1000 TEMPO 4500 RADZ=
201401150350 METAR COR EGLL 150350Z 19007KT 9999 -RADZ FEW003 BKN006 08/07
                        Q1001 TEMPO 4000 RADZ=
201401150320 METAR COR EGLL 150320Z 19007KT 9999 -RADZ FEW005 SCT006 BKN009
                        08/07 Q1001 TEMPO 4000 RADZ BKN006=
201401150250 METAR COR EGLL 150250Z 18008KT 9999 -RADZ SCT006 BKN010 08/07
                        Q1001 REDZ TEMPO 4000 -DZ BKN006=
201401150220 METAR EGLL 150220Z AUTO 19009KT 9999 -RA BKN005 BKN012 07/06
                        Q1002 REDZ=
201401150150 METAR EGLL 150150Z AUTO 18010KT 9999 BKN006 07/06 Q1002=
201401150120 METAR EGLL 150120Z AUTO 19012KT 9999 -DZ BKN007 07/06 Q1002=
201401150050 METAR COR EGLL 150050Z 18014KT 9000 -RADZ SCT006 BKN010 07/05
                        Q1003 TEMPO 4500 RADZ SCT005 BKN008=
201401150020 METAR COR EGLL 150020Z 18012KT 9999 -RADZ FEW006 BKN010 06/05
                        Q1003 TEMPO 4500 RADZ SCT005 BKN007=
201401142350 METAR COR EGLL 142350Z 18011KT 150V230 9999 -RADZ FEW008
                        BKN010 06/05 Q1003 BECMG 4500 RADZ
                        SCT006 BKN009=
201401142320 METAR COR EGLL 142320Z 17007KT 9999 -RADZ FEW008 BKN011 BKN024
                        06/05 Q1004 BECMG 4500 RADZ SCT006
                        BKN010=
201401142250 METAR COR EGLL 142250Z 16007KT 130V210 9999 -RA FEW025 BKN037
                        06/04 Q1004 TEMPO 4500 RADZ BKN012=
201401142220 METAR EGLL 142220Z 17007KT 130V250 9999 -RA FEW020 BKN025
                        05/04 Q1005=
201401142150 METAR COR EGLL 142150Z 17007KT 140V230 9999 -RA FEW024 SCT035
                        05/04 Q1005 TEMPO 4500 RA=
201401142120 METAR COR EGLL 142120Z 17007KT 140V240 9999 -RA FEW028 SCT030
                        05/03 Q1006 TEMPO 4800 RA=
201401142050 METAR COR EGLL 142050Z 18007KT 140V240 9999 -RA FEW026 SCT038
                        05/03 Q1006 TEMPO RA=
201401142020 METAR EGLL 142020Z 18006KT 150V250 9999 -RA FEW029 05/02
                        Q1006=
201401141950 METAR COR EGLL 141950Z 18006KT 150V220 CAVOK 05/02 Q1006
                        TEMPO RA=
201401141920 METAR COR EGLL 141920Z 19008KT 160V240 CAVOK 05/02 Q1007
                        TEMPO RA=
201401141850 METAR COR EGLL 141850Z 19007KT 140V240 CAVOK 05/02 Q1007
                        TEMPO RA=
201401141820 METAR COR EGLL 141820Z 18008KT 150V240 CAVOK 05/02 Q1007
                        NOSIG=
201401141750 METAR COR EGLL 141750Z 20007KT 180V250 CAVOK 05/02 Q1007
                        NOSIG=
201401141720 METAR COR EGLL 141720Z 22007KT 170V260 CAVOK 05/02 Q1007
                        NOSIG=
201401141650 METAR COR EGLL 141650Z 22009KT 200V260 CAVOK 05/01 Q1007
                        NOSIG=
201401141620 METAR COR EGLL 141620Z 22008KT 190V250 CAVOK 06/01 Q1007
                        NOSIG=
201401141550 METAR COR EGLL 141550Z 24008KT CAVOK 07/01 Q1007 NOSIG=
201401141520 METAR COR EGLL 141520Z 25006KT 200V280 CAVOK 07/01 Q1006
                        NOSIG=
201401141450 METAR COR EGLL 141450Z 27008KT CAVOK 07/01 Q1007 NOSIG=
201401141420 METAR COR EGLL 141420Z 27008KT 9999 FEW022 07/01 Q1006 NOSIG=
201401141350 METAR COR EGLL 141350Z 28010KT 9999 FEW022 07/02 Q1006 NOSIG=
201401141320 METAR COR EGLL 141320Z 28010KT 9999 FEW022 07/03 Q1006 NOSIG=
201401141250 METAR COR EGLL 141250Z 28008KT 9999 FEW020 06/03 Q1006 NOSIG=
201401141220 METAR COR EGLL 141220Z 28010KT 9999 FEW020 06/02 Q1006 NOSIG=
201401141150 METAR COR EGLL 141150Z 27011KT 9999 FEW020 05/02 Q1005 NOSIG=
201401141120 METAR COR EGLL 141120Z 28009KT CAVOK 05/02 Q1005 NOSIG=
201401141050 METAR COR EGLL 141050Z 27010KT CAVOK 04/02 Q1005 NOSIG=
201401141020 METAR COR EGLL 141020Z 28008KT CAVOK 04/02 Q1005 NOSIG=
201401140950 METAR COR EGLL 140950Z 28005KT 240V310 CAVOK 03/01 Q1004
                        NOSIG=
201401140920 METAR COR EGLL 140920Z 27006KT CAVOK 02/01 Q1004 NOSIG=
201401140850 METAR COR EGLL 140850Z 27006KT CAVOK 02/01 Q1004 NOSIG=
201401140820 METAR COR EGLL 140820Z 27007KT CAVOK 01/01 Q1004 NOSIG=
201401140750 METAR COR EGLL 140750Z 27006KT CAVOK 01/00 Q1004 NOSIG=
201401140720 METAR COR EGLL 140720Z 27006KT CAVOK 02/01 Q1003 NOSIG=
201401140650 METAR COR EGLL 140650Z 27006KT CAVOK 02/01 Q1003 NOSIG=
201401140620 METAR COR EGLL 140620Z 27005KT 9999 FEW007 01/01 Q1002 NOSIG=
201401140550 METAR COR EGLL 140550Z VRB02KT CAVOK 02/01 Q1002 NOSIG=
201401140520 METAR COR EGLL 140520Z 27006KT CAVOK 02/01 Q1001 NOSIG=
201401140450 METAR COR EGLL 140450Z 28006KT CAVOK 02/01 Q1001 NOSIG=
201401140420 METAR COR EGLL 140420Z 27007KT CAVOK 03/02 Q1001 NOSIG=
201401140350 METAR COR EGLL 140350Z 28005KT CAVOK 03/02 Q1001 NOSIG=
201401140320 METAR EGLL 140320Z AUTO 27007KT 9999 NCD 04/02 Q1001=
201401140250 METAR EGLL 140250Z AUTO 27007KT 9999 NCD 04/03 Q1001=
201401140220 METAR EGLL 140220Z AUTO 26006KT 9999 NCD 05/03 Q1001=
201401140150 METAR EGLL 140150Z AUTO 24005KT 9999 NCD 05/03 Q1001=
201401140120 METAR COR EGLL 140120Z 23007KT CAVOK 05/03 Q1001 NOSIG=
201401140050 METAR COR EGLL 140050Z 23006KT CAVOK 06/03 Q1000 NOSIG=
201401140020 METAR EGLL 140020Z 23008KT CAVOK 06/03 Q1000=
201401132350 METAR COR EGLL 132350Z 23008KT CAVOK 06/04 Q1000 NOSIG=
201401132320 METAR COR EGLL 132320Z 21007KT CAVOK 06/04 Q1000 NOSIG=
201401132250 METAR COR EGLL 132250Z 21007KT CAVOK 06/04 Q1000 NOSIG=
201401132220 METAR COR EGLL 132220Z 22008KT CAVOK 06/04 Q1000 NOSIG=
201401132150 METAR COR EGLL 132150Z 21007KT 160V250 9999 FEW033 06/04
                        Q1001 NOSIG=
201401132120 METAR COR EGLL 132120Z 19008KT 150V250 9999 FEW033 05/03
                        Q1001 NOSIG=
201401132050 METAR COR EGLL 132050Z 21008KT 180V240 9999 FEW030 06/03
                        Q1001 NOSIG=
201401132020 METAR COR EGLL 132020Z 22010KT 9999 -SHRA FEW015 SCT035 06/04
                        Q1001 NOSIG=
201401131950 METAR COR EGLL 131950Z 19006KT 140V240 9999 FEW014 SCT025
                        06/04 Q1001 TEMPO SHRA BKN014=
201401131920 METAR COR EGLL 131920Z 22006KT 9999 FEW010 06/04 Q1001 TEMPO
                        SHRA BKN014=
201401131850 METAR COR EGLL 131850Z 17008KT 140V230 9999 6000NW VCSH FEW010
                        SCT016CB 06/05 Q1001 TEMPO SHRA=
201401131820 METAR COR EGLL 131820Z 18010KT 150V240 9999 FEW020CB SCT035
                        06/04 Q1001 TEMPO SHRA=
201401131750 METAR COR EGLL 131750Z 18012KT 160V230 9999 SCT019CB SCT024
                        06/04 Q1002 TEMPO SHRA=
201401131720 METAR COR EGLL 131720Z 18011KT 150V240 7000 SHRA FEW020CB
                        SCT034 08/05 Q1002 TEMPO +SHRA TSRA
                        BKN014CB=
201401131650 METAR COR EGLL 131650Z 17010KT 140V210 9999 6000SW VCSH FEW015CB
                        SCT030 08/05 Q1002 TEMPO +SHRA BKN014CB=
201401131620 METAR COR EGLL 131620Z 17012KT 150V220 9999 FEW015 SCT027
                        07/05 Q1002 TEMPO SHRA BKN014CB=
201401131550 METAR COR EGLL 131550Z 17009KT 140V220 9999 SCT028 08/06
                        Q1002 NOSIG=
201401131520 METAR COR EGLL 131520Z 16008KT 120V240 9999 FEW010 SCT020CB
                        08/06 Q1003 TEMPO SHRA=
201401131450 METAR COR EGLL 131450Z 17006KT 130V200 9999 -SHRA FEW020
                        BKN030CB 07/06 Q1003 TEMPO SHRA=
201401131420 METAR COR EGLL 131420Z 20008KT 170V240 9999 -SHRA FEW020
                        BKN025CB 07/05 Q1004 RESHRA TEMPO
                        SHRA=
201401131350 METAR COR EGLL 131350Z 22009KT 180V250 8000 3000SE +SHRA
                        FEW019 BKN026CB BKN030 07/05 Q1004
                        RESHRA TEMPO NSW=
201401131320 METAR COR EGLL 131320Z 22010KT 9999 7000S VCSH BKN025CB BKN030
                        08/05 Q1005 RESHRA TEMPO SHRA=
201401131250 METAR COR EGLL 131250Z 21010KT 180V250 9999 VCSH FEW012 FEW020CB
                        SCT040 09/04 Q1005 TEMPO SHRA=
201401131220 METAR COR EGLL 131220Z 20011KT 9999 FEW034 09/05 Q1005 TEMPO
                        SHRA=
201401131150 METAR COR EGLL 131150Z 21009KT 180V250 9999 FEW034 08/05
                        Q1006 TEMPO SHRA=
201401131120 METAR COR EGLL 131120Z 19010KT 9999 FEW030 09/05 Q1006 NOSIG=
201401131050 METAR COR EGLL 131050Z 19009KT 9999 FEW030 08/05 Q1007 NOSIG=
201401131020 METAR COR EGLL 131020Z 19009KT 9999 FEW030 08/05 Q1007 NOSIG=
201401130950 METAR COR EGLL 130950Z 20009KT 9999 FEW030 07/05 Q1007 NOSIG=
201401130920 METAR COR EGLL 130920Z 21008KT 9999 FEW015 07/04 Q1008 NOSIG=
201401130850 METAR COR EGLL 130850Z 21009KT CAVOK 06/04 Q1008 NOSIG=
201401130820 METAR COR EGLL 130820Z 20010KT 9999 FEW015 06/04 Q1008 NOSIG=
201401130750 METAR COR EGLL 130750Z 21008KT 9999 VCSH FEW015 06/04 Q1008
                        NOSIG=
201401130720 METAR COR EGLL 130720Z 21007KT 160V230 CAVOK 05/04 Q1008
                        NOSIG=
201401130650 METAR COR EGLL 130650Z 21009KT CAVOK 05/04 Q1008 NOSIG=
201401130620 METAR COR EGLL 130620Z 20008KT CAVOK 05/04 Q1008 NOSIG=
201401130550 METAR COR EGLL 130550Z 22006KT CAVOK 06/04 Q1007 NOSIG=
201401130520 METAR COR EGLL 130520Z 21009KT CAVOK 06/04 Q1008 NOSIG=
201401130450 METAR COR EGLL 130450Z 21008KT CAVOK 06/05 Q1008 NOSIG=
201401130420 METAR COR EGLL 130420Z 21007KT CAVOK 06/05 Q1008 NOSIG=
201401130350 METAR COR EGLL 130350Z 20006KT CAVOK 06/05 Q1008 NOSIG=
201401130320 METAR COR EGLL 130320Z 21006KT CAVOK 06/05 Q1007 NOSIG=
201401130250 METAR EGLL 130250Z AUTO 22008KT 9999 NCD 07/05 Q1007=
201401130220 METAR EGLL 130220Z AUTO 22010KT 9999 NCD 07/05 Q1007=
201401130150 METAR EGLL 130150Z AUTO 24010KT 9999 NCD 08/06 Q1007=
201401130120 METAR COR EGLL 130120Z 25011KT 9999 FEW017 08/06 Q1007 NOSIG=
201401130050 METAR COR EGLL 130050Z 25014KT 9999 SCT019 08/06 Q1006 NOSIG=
201401130020 METAR EGLL 130020Z 26014KT 9999 FEW017 09/06 Q1006=
201401122350 METAR COR EGLL 122350Z 25017KT 9999 -RA FEW006 BKN012 10/08
                        Q1005 BECMG SCT012=
201401122320 METAR COR EGLL 122320Z 19010KT 8000 -RA FEW006 BKN008 10/09
                        Q1004 BECMG SCT008=
201401122250 METAR COR EGLL 122250Z 18011KT 9999 BKN008 10/08 Q1005 TEMPO
                        RA=
201401122220 METAR COR EGLL 122220Z 16009KT 9999 -RA FEW007 BKN010 09/08
                        Q1005 TEMPO RA=
201401122150 METAR COR EGLL 122150Z 16009KT 6000 -RA FEW006 BKN009 09/08
                        Q1006 RERA TEMPO RA=
201401122120 METAR COR EGLL 122120Z 16010KT 5000 RA FEW008 BKN011 09/08
                        Q1006 TEMPO BKN008=
201401122050 METAR COR EGLL 122050Z 16010KT 6000 -RA FEW007 BKN009 08/07
                        Q1007 TEMPO RA=
201401122020 METAR COR EGLL 122020Z 16010KT 6000 -RA BKN009 08/07 Q1007
                        TEMPO RA=
201401121950 METAR COR EGLL 121950Z 15010KT 6000 -RA BKN009 08/07 Q1008
                        TEMPO RA=
201401121920 METAR COR EGLL 121920Z 15010KT 7000 FEW008 BKN010 08/07 Q1008
                        TEMPO RA BKN008=
201401121850 METAR COR EGLL 121850Z 15007KT 5000 -DZ SCT008 BKN010 07/06
                        Q1009 TEMPO BKN008=
201401121820 METAR COR EGLL 121820Z 14008KT 5000 -DZ BR SCT006 BKN008
                        07/06 Q1009 TEMPO BKN010=
201401121750 METAR COR EGLL 121750Z 14007KT 3100 -DZ BR FEW004 SCT005
                        BKN006 07/06 Q1010 TEMPO 5000=
201401121720 METAR COR EGLL 121720Z 13007KT 3100 -DZ BR FEW004 SCT005
                        BKN006 06/06 Q1010 TEMPO 5000=
201401121650 METAR COR EGLL 121650Z 14007KT 4000 -DZ BR FEW004 SCT005
                        BKN006 06/05 Q1011 TEMPO 6000=
201401121620 METAR COR EGLL 121620Z 13009KT 4200 -DZ BR FEW005 BKN006
                        06/05 Q1011 TEMPO 5000=
201401121550 METAR COR EGLL 121550Z 14008KT 4100 BR FEW005 BKN006 06/05
                        Q1012 TEMPO 5000=
201401121520 METAR COR EGLL 121520Z 13008KT 4200 BR FEW005 BKN006 06/05
                        Q1012 TEMPO 5000=
201401121450 METAR COR EGLL 121450Z 13008KT 4500 HZ FEW005 BKN006 06/05
                        Q1013 BECMG 5000=
201401121420 METAR COR EGLL 121420Z 15010KT 7000 BKN006 BKN008 06/04 Q1013
                        NOSIG=
201401121350 METAR COR EGLL 121350Z 14009KT 8000 BKN008 BKN010 06/04 Q1014
                        TEMPO BKN008=
201401121320 METAR COR EGLL 121320Z 14010KT 9999 BKN010 06/04 Q1015 TEMPO
                        BKN009=
201401121250 METAR COR EGLL 121250Z 15010KT 9999 BKN011 06/04 Q1016 TEMPO
                        BKN009=
201401121220 METAR COR EGLL 121220Z 15010KT 9999 BKN013 06/03 Q1016 TEMPO
                        BKN009=
201401121150 METAR COR EGLL 121150Z 16012KT 9999 BKN014 06/03 Q1017 TEMPO
                        BKN009=
201401121120 METAR COR EGLL 121120Z 15012KT 9999 BKN014 06/03 Q1018 TEMPO
                        BKN009=
201401121050 METAR COR EGLL 121050Z 15009KT 9999 BKN014 05/03 Q1019 TEMPO
                        BKN009=
201401121020 METAR COR EGLL 121020Z 14009KT 9999 FEW017 05/03 Q1019 BECMG
                        BKN011=
201401120950 METAR COR EGLL 120950Z 11006KT 9999 FEW017 03/02 Q1019 TEMPO
                        BKN010=
201401120920 METAR COR EGLL 120920Z 08003KT CAVOK 02/01 Q1020 TEMPO BKN010=
201401120850 METAR COR EGLL 120850Z 07004KT CAVOK 01/01 Q1020 TEMPO BKN010=
201401120820 METAR COR EGLL 120820Z 09006KT CAVOK M00/M01 Q1020 TEMPO
                        BKN010=
201401120750 METAR COR EGLL 120750Z 09007KT CAVOK M01/M01 Q1020 NOSIG=
201401120720 METAR COR EGLL 120720Z 09006KT CAVOK 00/M01 Q1021 NOSIG=
201401120650 METAR COR EGLL 120650Z 09005KT CAVOK M00/M01 Q1021 NOSIG=
201401120620 METAR COR EGLL 120620Z 09005KT CAVOK M01/M01 Q1021 NOSIG=
201401120550 METAR COR EGLL 120550Z 09005KT CAVOK M02/M02 Q1022 NOSIG=
201401120520 METAR COR EGLL 120520Z 08003KT CAVOK M01/M01 Q1022 NOSIG=
201401120450 METAR COR EGLL 120450Z 09005KT 9000 NSC M01/M01 Q1023 NOSIG=
201401120420 METAR COR EGLL 120420Z 08003KT 9000 NSC M00/M01 Q1023 NOSIG=
201401120350 METAR COR EGLL 120350Z 07003KT 9000 NSC M01/M01 Q1023 NOSIG=
201401120320 METAR EGLL 120320Z AUTO 08003KT 3600 BR NCD M01/M01 Q1023=
201401120250 METAR EGLL 120250Z AUTO 05002KT 1400 BR NCD M01/M02 Q1024=
201401120220 METAR EGLL 120220Z AUTO VRB02KT 0700 FG NCD M00/M01 Q1024=
201401120150 METAR COR EGLL 120150Z 11002KT 6000 NSC M00/M01 Q1024 NOSIG=
201401120120 METAR COR EGLL 120120Z 00000KT 7000 NSC 00/M01 Q1024 NOSIG=
201401120050 METAR COR EGLL 120050Z 00000KT 8000 NSC 00/M01 Q1024 NOSIG=
201401120020 METAR COR EGLL 120020Z 04003KT 6000 NSC M00/M01 Q1024 NOSIG=
201401112350 METAR COR EGLL 112350Z 04003KT 6000 NSC M00/M01 Q1025 NOSIG=
201401112320 METAR COR EGLL 112320Z VRB02KT 6000 NSC 01/00 Q1025 NOSIG=
201401112250 METAR EGLL 112250Z 00000KT 8000 NSC 02/00 Q1025=
201401112220 METAR COR EGLL 112220Z VRB03KT 9000 NSC 02/01 Q1025 NOSIG=
201401112150 METAR COR EGLL 112150Z VRB03KT 9000 NSC 02/01 Q1024 NOSIG=
201401112120 METAR COR EGLL 112120Z 16004KT 9000 NSC 03/01 Q1024 NOSIG=
201401112050 METAR COR EGLL 112050Z 17004KT CAVOK 03/01 Q1024 NOSIG=
201401112020 METAR COR EGLL 112020Z 17004KT 140V210 CAVOK 03/01 Q1024
                        NOSIG=
201401111950 METAR EGLL 111950Z 19004KT 150V250 CAVOK 03/01 Q1024=
201401111920 METAR COR EGLL 111920Z 00000KT CAVOK 05/01 Q1024 NOSIG=
201401111850 METAR COR EGLL 111850Z VRB02KT CAVOK 06/01 Q1024 NOSIG=
201401111820 METAR COR EGLL 111820Z VRB02KT CAVOK 06/01 Q1023 NOSIG=
201401111750 METAR COR EGLL 111750Z 30003KT CAVOK 06/01 Q1023 NOSIG=
201401111720 METAR COR EGLL 111720Z VRB02KT CAVOK 07/01 Q1022 NOSIG=
201401111650 METAR COR EGLL 111650Z 31003KT CAVOK 07/01 Q1022 NOSIG=
201401111620 METAR COR EGLL 111620Z 28005KT CAVOK 07/01 Q1022 NOSIG=
201401111550 METAR COR EGLL 111550Z 28006KT 9999 FEW030 07/02 Q1021 NOSIG=
201401111520 METAR COR EGLL 111520Z 29006KT 9999 FEW030 07/02 Q1021 NOSIG=
201401111450 METAR COR EGLL 111450Z 28008KT 9999 FEW029 08/02 Q1021 NOSIG=
201401111420 METAR COR EGLL 111420Z 28010KT 9999 FEW029 08/02 Q1020 NOSIG=
201401111350 METAR COR EGLL 111350Z 27013KT 9999 FEW030 09/03 Q1020 NOSIG=
201401111320 METAR COR EGLL 111320Z 28009KT 9999 FEW028 09/03 Q1020 NOSIG=
201401111250 METAR COR EGLL 111250Z 30006KT 270V340 9999 SCT030 08/03
                        Q1020 NOSIG=
201401111220 METAR COR EGLL 111220Z 28010KT 9999 FEW024 08/04 Q1020 NOSIG=
201401111150 METAR COR EGLL 111150Z 28007KT 9999 FEW016 08/04 Q1019 NOSIG=
201401111120 METAR COR EGLL 111120Z 27010KT CAVOK 08/04 Q1019 NOSIG=
201401111050 METAR COR EGLL 111050Z 29008KT 9999 FEW015 07/04 Q1019 NOSIG=
201401111020 METAR COR EGLL 111020Z 29008KT CAVOK 07/04 Q1019 NOSIG=
201401110950 METAR COR EGLL 110950Z 29005KT CAVOK 07/04 Q1018 NOSIG=
201401110920 METAR COR EGLL 110920Z 29007KT CAVOK 06/04 Q1017 NOSIG=
201401110850 METAR EGLL 110850Z 29007KT CAVOK 06/04 Q1017=
201401110820 METAR COR EGLL 110820Z 29007KT CAVOK 07/04 Q1016 NOSIG=
201401110750 METAR COR EGLL 110750Z 30009KT 9999 SCT018 07/05 Q1016 NOSIG=
201401110720 METAR COR EGLL 110720Z 28009KT 9999 SCT020 07/05 Q1015 NOSIG=
201401110650 METAR COR EGLL 110650Z 28010KT 9999 SCT045 08/06 Q1014 NOSIG=
201401110620 METAR COR EGLL 110620Z 28009KT 9999 FEW010 BKN039 08/07 Q1014
                        NOSIG=
201401110550 METAR COR EGLL 110550Z 28010KT 9999 FEW011 SCT022 08/07 Q1013
                        NOSIG=
201401110520 METAR COR EGLL 110520Z 25012KT 9999 -RA FEW006 SCT012 BKN022
                        08/07 Q1013 NOSIG=
201401110450 METAR COR EGLL 110450Z 23012KT 9999 FEW012 SCT018 BKN021
                        09/07 Q1012 TEMPO 3000 -RADZ BKN008=
201401110420 METAR COR EGLL 110420Z 22009KT 9999 FEW017 BKN022 09/07 Q1012
                        TEMPO 4000 -RADZ BKN010=
201401110350 METAR COR EGLL 110350Z 21009KT 9999 FEW019 BKN032 08/07 Q1012
                        TEMPO BKN010=
201401110320 METAR COR EGLL 110320Z 21007KT 9999 SCT023 BKN037 08/07 Q1012
                        NOSIG=
201401110250 METAR COR EGLL 110250Z 21007KT 9000 FEW034 BKN040 08/07 Q1012
                        NOSIG=
201401110220 METAR EGLL 110220Z AUTO 19006KT 8000 SCT038 08/07 Q1012=
201401110150 METAR EGLL 110150Z AUTO 19007KT 9999 -RA SCT004 SCT006 BKN041
                        07/07 Q1013 REDZ=
201401110120 METAR EGLL 110120Z AUTO 24004KT 200V260 9000 -RA FEW008 SCT011
                        BKN036 07/06 Q1013 REDZ=
201401110050 METAR COR EGLL 110050Z 21007KT 9999 -RA FEW022 BKN038 08/06
                        Q1013 NOSIG=
201401110020 METAR COR EGLL 110020Z 21008KT 9999 -RA FEW023 SCT032 BKN041
                        08/06 Q1013 TEMPO RA=
201401102350 METAR COR EGLL 102350Z 21007KT 9999 -RA SCT039 SCT043 08/06
                        Q1013 TEMPO RA=
201401102320 METAR COR EGLL 102320Z 21008KT 9999 FEW030 SCT038 08/06 Q1013
                        TEMPO RA=
201401102250 METAR COR EGLL 102250Z 21009KT 9999 -RA BKN043 08/07 Q1013
                        NOSIG=
201401102220 METAR COR EGLL 102220Z 20010KT 9999 -RA BKN043 08/07 Q1013
                        NOSIG=
201401102150 METAR COR EGLL 102150Z 21008KT 9999 FEW039 08/07 Q1013 NOSIG=
201401102120 METAR COR EGLL 102120Z 20008KT 170V260 9999 FEW011 08/07
                        Q1013 NOSIG=
201401102050 METAR COR EGLL 102050Z 20007KT 9999 FEW011 08/06 Q1013 NOSIG=
201401102020 METAR COR EGLL 102020Z 20008KT CAVOK 08/06 Q1013 NOSIG=
201401101950 METAR COR EGLL 101950Z 21008KT CAVOK 08/06 Q1013 NOSIG=
201401101920 METAR COR EGLL 101920Z 20009KT 160V240 9999 FEW043 08/06
                        Q1013 NOSIG=
201401101850 METAR COR EGLL 101850Z 21009KT 9999 SCT043 08/06 Q1013 NOSIG=
201401101820 METAR COR EGLL 101820Z 21008KT 9999 SCT040 08/06 Q1013 NOSIG=
201401101750 METAR COR EGLL 101750Z 21009KT 180V250 CAVOK 08/06 Q1013
                        NOSIG=
201401101720 METAR COR EGLL 101720Z 20008KT CAVOK 09/06 Q1013 NOSIG=
201401101650 METAR EGLL 101650Z 21008KT 9999 FEW034 09/06 Q1013=
201401101620 METAR COR EGLL 101620Z 21009KT 9999 SCT034 BKN042 09/07 Q1013
                        TEMPO SHRA=
201401101550 METAR COR EGLL 101550Z 21008KT 9999 VCSH FEW023 BKN042 09/06
                        Q1013 TEMPO SHRA=
201401101520 METAR COR EGLL 101520Z 22006KT 9999 FEW023 BKN040 10/06 Q1013
                        TEMPO SHRA=
201401101450 METAR COR EGLL 101450Z 23011KT 190V260 9999 VCSH FEW025 SCT041
                        BKN047 10/06 Q1013 TEMPO SHRA=
201401101420 METAR COR EGLL 101420Z 23013KT 200V260 9999 SCT025 BKN037
                        10/06 Q1013 NOSIG=
201401101350 METAR COR EGLL 101350Z 22010KT 9999 FEW023 SCT030 10/06 Q1014
                        NOSIG=
201401101320 METAR COR EGLL 101320Z 22009KT 180V250 9999 FEW025 10/06
                        Q1014 NOSIG=
201401101250 METAR COR EGLL 101250Z 22011KT 180V250 9999 FEW020 SCT027
                        10/06 Q1014 NOSIG=
201401101220 METAR COR EGLL 101220Z 23009KT 190V260 9999 FEW016 10/06
                        Q1014 NOSIG=
201401101150 METAR COR EGLL 101150Z 21010KT 180V250 CAVOK 09/06 Q1014
                        NOSIG=
201401101120 METAR COR EGLL 101120Z 22010KT CAVOK 08/05 Q1015 NOSIG=
201401101050 METAR COR EGLL 101050Z 21008KT CAVOK 07/05 Q1015 NOSIG=
201401101020 METAR COR EGLL 101020Z 22007KT 190V250 CAVOK 07/05 Q1015
                        NOSIG=
201401100950 METAR COR EGLL 100950Z 22007G17KT CAVOK 06/04 Q1015 NOSIG=
201401100920 METAR COR EGLL 100920Z 21007KT CAVOK 05/03 Q1015 NOSIG=
201401100850 METAR COR EGLL 100850Z 22006KT 9999 FEW045 04/03 Q1015 NOSIG=
201401100820 METAR COR EGLL 100820Z 22004KT CAVOK 03/02 Q1015 NOSIG=
201401100750 METAR COR EGLL 100750Z 22006KT CAVOK 03/02 Q1015 NOSIG=
201401100720 METAR COR EGLL 100720Z 23006KT CAVOK 03/02 Q1015 NOSIG=
201401100650 METAR COR EGLL 100650Z 23005KT 190V250 CAVOK 03/02 Q1014
                        NOSIG=
201401100620 METAR COR EGLL 100620Z 22006KT 190V260 CAVOK 03/02 Q1014
                        NOSIG=
201401100550 METAR COR EGLL 100550Z 23005KT CAVOK 03/02 Q1014 NOSIG=
201401100520 METAR COR EGLL 100520Z 21005KT CAVOK 03/02 Q1014 NOSIG=
201401100450 METAR COR EGLL 100450Z AUTO 22004KT 9999 NCD 03/02 Q1014
                        NOSIG=
201401100420 METAR COR EGLL 100420Z 21004KT CAVOK 03/02 Q1014 NOSIG=
201401100350 METAR COR EGLL 100350Z 21004KT CAVOK 03/02 Q1014 NOSIG=
201401100320 METAR COR EGLL 100320Z 21004KT CAVOK 03/02 Q1014 NOSIG=
201401100250 METAR COR EGLL 100250Z 21004KT CAVOK 03/02 Q1014 NOSIG=
201401100220 METAR EGLL 100220Z AUTO 21006KT 9999 NCD 03/02 Q1014=
201401100150 METAR EGLL 100150Z AUTO 22005KT 9999 NCD 04/02 Q1014=
201401100120 METAR EGLL 100120Z AUTO 24008KT 9999 NCD 04/02 Q1014=
201401100050 METAR COR EGLL 100050Z 24008KT 9999 FEW044 05/03 Q1014 NOSIG=
201401100020 METAR COR EGLL 100020Z 23007KT 9999 FEW040 05/02 Q1014 NOSIG=
201401092350 METAR COR EGLL 092350Z 24007KT CAVOK 05/03 Q1014 NOSIG=
201401092320 METAR COR EGLL 092320Z 23007KT CAVOK 05/03 Q1014 NOSIG=
201401092250 METAR COR EGLL 092250Z 22007KT CAVOK 05/03 Q1013 NOSIG=
201401092220 METAR COR EGLL 092220Z 25008KT CAVOK 05/03 Q1013 NOSIG=
201401092150 METAR COR EGLL 092150Z 25008KT CAVOK 05/03 Q1013 NOSIG=
201401092120 METAR COR EGLL 092120Z 25009KT CAVOK 06/03 Q1013 NOSIG=
201401092050 METAR COR EGLL 092050Z 24009KT CAVOK 06/03 Q1013 NOSIG=
201401092020 METAR COR EGLL 092020Z 23008KT CAVOK 06/03 Q1012 NOSIG=
201401091950 METAR COR EGLL 091950Z 25011KT CAVOK 06/03 Q1012 NOSIG=
201401091920 METAR COR EGLL 091920Z 24011KT CAVOK 06/03 Q1012 NOSIG=
201401091850 METAR COR EGLL 091850Z 25011KT CAVOK 07/03 Q1011 NOSIG=
201401091820 METAR COR EGLL 091820Z 24012KT CAVOK 07/03 Q1011 NOSIG=
201401091750 METAR COR EGLL 091750Z 25011KT CAVOK 07/02 Q1010 NOSIG=
201401091720 METAR COR EGLL 091720Z 25009KT CAVOK 07/02 Q1010 NOSIG=
201401091650 METAR COR EGLL 091650Z 24010KT CAVOK 08/02 Q1010 NOSIG=
201401091620 METAR COR EGLL 091620Z 27014KT 9999 FEW043 08/02 Q1009 NOSIG=
201401091550 METAR COR EGLL 091550Z 26011KT 9999 FEW031 08/03 Q1009 NOSIG=
201401091520 METAR COR EGLL 091520Z 26012KT 9999 FEW034 08/03 Q1009 NOSIG=
201401091450 METAR COR EGLL 091450Z 27017KT 9999 FEW035 09/03 Q1008 NOSIG=
201401091420 METAR COR EGLL 091420Z 27016KT 9999 FEW031 SCT037 09/03 Q1008
                        NOSIG=
201401091350 METAR COR EGLL 091350Z 28013KT 9999 FEW031 BKN038 09/03 Q1007
                        NOSIG=
201401091320 METAR COR EGLL 091320Z 28017KT 9999 BKN027 09/04 Q1007 NOSIG=
201401091250 METAR COR EGLL 091250Z 28015KT 9999 SCT030 09/03 Q1007 NOSIG=
201401091220 METAR COR EGLL 091220Z 28013KT 9999 FEW027 09/03 Q1006 NOSIG=
201401091150 METAR COR EGLL 091150Z 29014KT 9999 SCT027 09/04 Q1006 NOSIG=
201401091120 METAR COR EGLL 091120Z 29012KT 9999 BKN027 08/03 Q1006 NOSIG=
201401091050 METAR COR EGLL 091050Z 29014G24KT 260V330 9999 FEW018 SCT022
                        08/04 Q1005 NOSIG=
201401091020 METAR COR EGLL 091020Z 29013KT 9999 SCT018 BKN022 08/05 Q1005
                        NOSIG=
201401090950 METAR COR EGLL 090950Z 27018KT 9999 SCT020 BKN027 09/05 Q1004
                        NOSIG=
201401090920 METAR COR EGLL 090920Z 26020KT 9999 FEW021 BKN032 09/06 Q1003
                        NOSIG=
201401090850 METAR COR EGLL 090850Z 25018KT 9999 BKN017 09/06 Q1002 NOSIG=
201401090820 METAR COR EGLL 090820Z 25017KT 9999 BKN018 09/06 Q1002 NOSIG=
201401090750 METAR COR EGLL 090750Z 25016KT 9999 SCT018 SCT037 10/07 Q1001
                        NOSIG=
201401090720 METAR COR EGLL 090720Z 24015KT 9999 FEW017 BKN036 10/08 Q1001
                        NOSIG=
201401090650 METAR COR EGLL 090650Z 26018KT 9999 FEW020 BKN029 10/08 Q1000
                        NOSIG=
201401090620 METAR COR EGLL 090620Z 23021KT 9999 FEW020 BKN040 11/07 Q1000
                        NOSIG=
201401090550 METAR COR EGLL 090550Z 22017KT 9999 SCT022 11/07 Q0999 NOSIG=
201401090520 METAR COR EGLL 090520Z 22015KT 9999 FEW024 SCT047 11/07 Q1000
                        NOSIG=
201401090450 METAR COR EGLL 090450Z 22017G27KT 9999 FEW028 11/07 Q1000
                        NOSIG=
201401090420 METAR COR EGLL 090420Z 22018KT 9999 FEW026 SCT030 11/07 Q1000
                        NOSIG=
201401090350 METAR COR EGLL 090350Z 22014KT 9999 SCT028 11/08 Q1001 NOSIG=
201401090320 METAR COR EGLL 090320Z 22022G32KT 9999 FEW017 SCT024 12/09
                        Q1002 NOSIG=
201401090250 METAR COR EGLL 090250Z 21013G25KT 9999 FEW011 SCT015 11/10
                        Q1002 RERA NOSIG=
201401090220 METAR EGLL 090220Z AUTO 20014KT 9999 -RA BKN014/// BKN019///
                        //////CB 12/10 Q1002 REDZ=
201401090150 METAR EGLL 090150Z AUTO 20012KT 9999 DZ BKN010/// //////CB
                        12/10 Q1003=
201401090120 METAR EGLL 090120Z AUTO 21015KT 9999 BKN011 12/10 Q1003=
201401090050 METAR COR EGLL 090050Z 21014KT 9999 -DZ BKN011 12/10 Q1004
                        NOSIG=
201401090020 METAR COR EGLL 090020Z 20010KT 9999 FEW007 BKN012 12/11 Q1005
                        NOSIG=
201401082350 METAR COR EGLL 082350Z 21012KT 4600 -RA FEW006 BKN009 12/10
                        Q1005 TEMPO 7000=
201401082320 METAR COR EGLL 082320Z 21010KT 9999 -RA BKN012 12/10 Q1006
                        NOSIG=
201401082250 METAR COR EGLL 082250Z 19011KT 9999 -RA FEW009 BKN011 11/10
                        Q1006 TEMPO 6000 BKN008=
201401082220 METAR COR EGLL 082220Z 18011KT 6000 -RA BKN006 BKN012 11/10
                        Q1007 NOSIG=
201401082150 METAR COR EGLL 082150Z 19011KT 7000 -RA BKN008 11/10 Q1007
                        NOSIG=
201401082120 METAR COR EGLL 082120Z 18009KT 9999 BKN011 BKN017 11/09 Q1008
                        NOSIG=
201401082050 METAR COR EGLL 082050Z 17009KT 9999 BKN013 10/09 Q1008 NOSIG=
201401082020 METAR COR EGLL 082020Z 16010KT 9000 -RA BKN012 10/08 Q1009
                        NOSIG=
201401081950 METAR COR EGLL 081950Z 16010KT 9999 SCT010 10/08 Q1010 NOSIG=
201401081920 METAR EGLL 081920Z 16009KT 9999 SCT010 10/08 Q1010=
201401081850 METAR COR EGLL 081850Z 16009KT 9999 FEW010 10/08 Q1010 NOSIG=
201401081820 METAR COR EGLL 081820Z 15009KT 9999 FEW009 SCT044 10/08 Q1011
                        NOSIG=
201401081750 METAR EGLL 081750Z 15008KT 9999 FEW049 10/08 Q1011=
201401081720 METAR COR EGLL 081720Z 14008KT 9999 FEW014 SCT035 09/08 Q1011
                        TEMPO -RA BKN008=
201401081650 METAR COR EGLL 081650Z 15007KT 110V190 9999 -RA SCT014 SCT021
                        BKN033 10/08 Q1012 TEMPO -RA BKN008=
201401081620 METAR COR EGLL 081620Z 16009KT 9999 FEW020 SCT033 10/07 Q1013
                        NOSIG=
201401081550 METAR COR EGLL 081550Z 17007KT 130V240 9999 BKN042 10/07
                        Q1013 NOSIG=
201401081520 METAR COR EGLL 081520Z 19009G20KT 150V310 9999 BKN048 10/07
                        Q1013 NOSIG=
201401081450 METAR COR EGLL 081450Z 20009KT 170V250 9999 FEW016 11/07
                        Q1014 NOSIG=
201401081420 METAR COR EGLL 081420Z 21009KT 180V240 9999 FEW020 11/08
                        Q1014 NOSIG=
201401081350 METAR COR EGLL 081350Z 20008KT 170V240 9999 FEW020 11/08
                        Q1014 NOSIG=
201401081320 METAR COR EGLL 081320Z 22008KT 9999 SCT024 10/08 Q1014 NOSIG=
201401081250 METAR EGLL 081250Z 22010KT 190V250 9999 FEW020 11/07 Q1015=
201401081220 METAR COR EGLL 081220Z 22013KT 9999 SCT020 11/07 Q1015 NOSIG=
201401081150 METAR COR EGLL 081150Z 22012KT 180V240 9999 SCT026 11/07
                        Q1015 NOSIG=
201401081120 METAR COR EGLL 081120Z 23011KT 9999 FEW019 11/08 Q1015 NOSIG=
201401081050 METAR COR EGLL 081050Z 22011KT 190V250 9999 FEW018 11/08
                        Q1015 NOSIG=
201401081020 METAR COR EGLL 081020Z 22011KT 190V250 9999 SCT016 10/08
                        Q1015 NOSIG=
201401080950 METAR COR EGLL 080950Z 22009KT 9999 FEW014 10/07 Q1015 NOSIG=
201401080920 METAR COR EGLL 080920Z 22011KT CAVOK 09/07 Q1015 NOSIG=
201401080850 METAR COR EGLL 080850Z 21010KT CAVOK 09/07 Q1014 NOSIG=
201401080820 METAR COR EGLL 080820Z 21009KT CAVOK 08/06 Q1014 NOSIG=
201401080750 METAR COR EGLL 080750Z 21010KT 9999 FEW018 08/06 Q1013 NOSIG=
201401080720 METAR COR EGLL 080720Z 22013KT CAVOK 08/06 Q1013 NOSIG=
201401080650 METAR COR EGLL 080650Z 21010KT CAVOK 08/06 Q1013 NOSIG=
201401080620 METAR COR EGLL 080620Z 20007KT 180V280 CAVOK 08/06 Q1012
                        NOSIG=
201401080550 METAR COR EGLL 080550Z 21007KT CAVOK 08/06 Q1012 NOSIG=
201401080520 METAR COR EGLL 080520Z 22007KT CAVOK 08/06 Q1012 NOSIG=
201401080450 METAR COR EGLL 080450Z 20006KT 9999 FEW017 08/06 Q1012 NOSIG=
201401080420 METAR COR EGLL 080420Z 17005KT CAVOK 07/06 Q1012 NOSIG=
201401080350 METAR COR EGLL 080350Z 19005KT 9999 FEW024 07/06 Q1012 NOSIG=
201401080320 METAR COR EGLL 080320Z 20007KT 9999 FEW024 07/06 Q1011 NOSIG=
201401080250 METAR COR EGLL 080250Z 21007KT 9999 FEW025 08/06 Q1011 NOSIG=
201401080220 METAR EGLL 080220Z AUTO 21009KT 9999 NCD 08/06 Q1010=
201401080150 METAR EGLL 080150Z AUTO 21009KT 9999 NCD 08/07 Q1010=
201401080120 METAR EGLL 080120Z AUTO 21009KT 9999 FEW014 08/06 Q1009=
201401080050 METAR COR EGLL 080050Z 22008KT CAVOK 08/06 Q1009 NOSIG=
201401080020 METAR COR EGLL 080020Z 22009KT CAVOK 08/06 Q1009 NOSIG=
201401072350 METAR COR EGLL 072350Z 22009KT CAVOK 08/06 Q1008 NOSIG=
201401072320 METAR COR EGLL 072320Z 21009KT 9999 FEW040 09/06 Q1008 NOSIG=
201401072250 METAR COR EGLL 072250Z 21009KT 9999 FEW038 09/07 Q1007 NOSIG=
201401072220 METAR COR EGLL 072220Z 22009KT 9999 -SHRA FEW024 SCT036 09/07
                        Q1007 TEMPO SHRA BKN014=
201401072150 METAR COR EGLL 072150Z 22010KT 9999 SCT034 09/07 Q1007 TEMPO
                        SHRA BKN014=
201401072120 METAR COR EGLL 072120Z 22012KT 9999 -SHRA SCT038 10/07 Q1007
                        TEMPO SHRA BKN014=
201401072050 METAR COR EGLL 072050Z 21009G20KT 190V260 9999 FEW029 11/07
                        Q1007 TEMPO SHRA=
201401072020 METAR COR EGLL 072020Z 22009KT 9999 SCT025 10/07 Q1007 NOSIG=
201401071950 METAR COR EGLL 071950Z 21010KT 9999 FEW026 10/07 Q1007 NOSIG=
201401071920 METAR COR EGLL 071920Z 22011KT 9999 FEW028 10/07 Q1006 NOSIG=
201401071850 METAR EGLL 071850Z 21008KT 9999 FEW022 SCT030 11/07 Q1006=
201401071820 METAR COR EGLL 071820Z 22009KT 9999 FEW023 SCT029 11/07 Q1006
                        NOSIG=
201401071750 METAR COR EGLL 071750Z 22011KT 9999 FEW029 SCT033 10/07 Q1005
                        NOSIG=
201401071720 METAR COR EGLL 071720Z 22012KT 9999 FEW025 11/07 Q1005 NOSIG=
201401071650 METAR COR EGLL 071650Z 22014KT 9999 FEW030 11/06 Q1005 NOSIG=
201401071620 METAR COR EGLL 071620Z 23013KT 9999 FEW030 11/06 Q1005 NOSIG=
201401071550 METAR COR EGLL 071550Z 22012KT 9999 FEW030 11/07 Q1004 TEMPO
                        SHRA=
201401071520 METAR COR EGLL 071520Z 22011KT 9999 FEW030 11/07 Q1004 TEMPO
                        SHRA=
201401071450 METAR COR EGLL 071450Z 22016KT 9999 VCSH SCT030 12/07 Q1004
                        TEMPO SHRA=
201401071420 METAR COR EGLL 071420Z 23017KT 9999 VCSH SCT035 12/07 Q1003
                        TEMPO SHRA=
201401071350 METAR COR EGLL 071350Z 23017G27KT 9999 SCT028 12/07 Q1003
                        TEMPO SHRA=
201401071320 METAR COR EGLL 071320Z 23018KT 9999 FEW027 SCT032 11/07 Q1003
                        TEMPO SHRA=
201401071250 METAR COR EGLL 071250Z 22015G26KT 180V250 9999 FEW017 SCT031
                        11/08 Q1003 TEMPO SHRA=
201401071220 METAR EGLL 071220Z 21013KT 180V240 9999 FEW018 SCT026 10/08
                        Q1003=
201401071150 METAR COR EGLL 071150Z 21012KT 180V250 9999 VCSH FEW024 10/07
                        Q1003 TEMPO SHRA=
201401071120 METAR COR EGLL 071120Z 22015KT 9999 FEW035 10/07 Q1003 NOSIG=
201401071050 METAR COR EGLL 071050Z 23017KT 9999 FEW035CB 09/06 Q1003
                        NOSIG=
201401071020 METAR COR EGLL 071020Z 25019G30KT 9999 5000E -SHRA FEW020CB
                        SCT030 BKN040 09/07 Q1003 TEMPO TSRA=
201401070950 METAR COR EGLL 070950Z 24020KT 9999 5000NE -SHRA FEW012CB
                        BKN020 10/08 Q1002 RESHRA TEMPO 4000
                        TSRA BKN014CB=
201401070920 METAR COR EGLL 070920Z 21018KT 5000 SHRA BKN025 11/07 Q1001
                        TEMPO 4000 SHRA BKN014CB=
201401070850 METAR COR EGLL 070850Z 21018KT 9999 -SHRA SCT026 BKN033 11/07
                        Q1001 TEMPO SHRA BKN014CB=
201401070820 METAR COR EGLL 070820Z 21018KT 9999 VCSH SCT027 11/07 Q1001
                        TEMPO SHRA BKN014CB=
201401070750 METAR COR EGLL 070750Z 21015KT 9999 SCT025 SCT031 11/07 Q1001
                        TEMPO SHRA BKN014CB=
201401070720 METAR COR EGLL 070720Z 21017KT 9999 SCT026 SCT034 11/07 Q1000
                        TEMPO SHRA BKN014CB=
201401070650 METAR COR EGLL 070650Z 22017KT 9999 FEW024 SCT028 11/07 Q1000
                        TEMPO 4500 +SHRA BKN014=
201401070620 METAR COR EGLL 070620Z 21017G28KT 9000 FEW024 SCT028 11/07
                        Q1000 TEMPO 4500 +SHRA BKN014=
201401070550 METAR COR EGLL 070550Z 22016G26KT 9000 -SHRA FEW026 SCT030
                        11/07 Q1000 TEMPO 4500 +SHRA BKN014=
201401070520 METAR COR EGLL 070520Z 21014KT 8000 -SHRA FEW022 SCT026 11/08
                        Q1000 TEMPO 4500 +SHRA BKN014=
201401070450 METAR COR EGLL 070450Z 21015G25KT 9000 -SHRA FEW021 SCT029
                        11/07 Q1000 TEMPO 4500 SHRA BKN014=
201401070420 METAR COR EGLL 070420Z 21014KT 9000 FEW025 SCT039 10/08 Q1000
                        NOSIG=
201401070350 METAR COR EGLL 070350Z 21013KT 9000 -SHRA FEW017 SCT025 10/07
                        Q1000 TEMPO SHRA BKN014=
201401070320 METAR COR EGLL 070320Z 22014KT 9999 SCT026 11/07 Q1000 TEMPO
                        SHRA BKN014=
201401070250 METAR COR EGLL 070250Z 21013KT 9999 FEW027 SCT038 11/07 Q1000
                        TEMPO 4500 +SHRA BKN014CB=
201401070220 METAR EGLL 070220Z AUTO 22015KT 9999 FEW025 10/07 Q1000=
201401070150 METAR EGLL 070150Z AUTO 23014KT 9999 FEW018/// BKN024///
                        BKN035/// //////CB 10/08 Q1000 RERA=
201401070120 METAR EGLL 070120Z AUTO 24016KT 7000 -RA FEW022/// SCT030///
                        //////TCU 10/08 Q0999 RERA=
201401070050 METAR COR EGLL 070050Z 23012KT 9999 FEW022 SCT029 10/07 Q0999
                        TEMPO 4000 +SHRA BKN014CB=
201401070020 METAR COR EGLL 070020Z 22014G27KT 7000 -SHRA FEW025 SCT048
                        10/07 Q0999 TEMPO 4500 +SHRA BKN014CB=
201401062350 METAR COR EGLL 062350Z 22016G26KT 9999 FEW029 SCT031 11/07
                        Q0999 TEMPO 4000 +SHRA BKN014=
201401062320 METAR EGLL 062320Z 22015KT 9999 SCT031 11/07 Q0998=
201401062250 METAR COR EGLL 062250Z 22017KT 9000 -RA FEW029 SCT031 11/07
                        Q0998 TEMPO 4000 +SHRA BKN014CB=
201401062220 METAR COR EGLL 062220Z 22016KT 9999 FEW028 SCT031 11/07 Q0997
                        TEMPO 4000 +SHRA BKN014CB=
201401062150 METAR COR EGLL 062150Z 23017G29KT 9999 VCSH SCT030 SCT040
                        11/07 Q0997 RESHRA TEMPO 4000 +SHRA
                        BKN014=
201401062120 METAR COR EGLL 062120Z 25016KT 7000 SHRA SCT020CB SCT026
                        11/07 Q0997 NOSIG=
201401062050 METAR COR EGLL 062050Z 22014G25KT 9000 SCT034 SCT047 11/08
                        Q0996 RESHRA TEMPO 4500 +SHRA BKN014CB=
201401062020 METAR EGLL 062020Z 23017G27KT 6000 SHRA FEW020 SCT026CB 11/08
                        Q0996=
201401061950 METAR COR EGLL 061950Z 22020G30KT 7000 SHRA FEW026 SCT032
                        12/07 Q0996 TEMPO 4000 +SHRA BKN014CB=
201401061920 METAR COR EGLL 061920Z 22019G29KT 9999 FEW037 12/07 Q0995
                        TEMPO 4000 +SHRA BKN014CB=
201401061850 METAR COR EGLL 061850Z 22019KT 9999 SCT032 11/06 Q0995 TEMPO
                        22020G34KT 4000 SHRA BKN014CB=
201401061820 METAR COR EGLL 061820Z 22018KT 9999 SCT036 12/06 Q0994 TEMPO
                        22018G32KT 4000 SHRA BKN014CB=
201401061750 METAR COR EGLL 061750Z 22020G30KT 9000 FEW031 SCT037 11/07
                        Q0994 TEMPO 4000 SHRA BKN014CB=
201401061720 METAR COR EGLL 061720Z 22014KT 9999 FEW031CB SCT043 11/07
                        Q0994 TEMPO 22017G31KT SHRA=
201401061650 METAR COR EGLL 061650Z 23019G33KT 9000 -SHRA FEW031 SCT035CB
                        11/07 Q0995 RESHRA TEMPO SHRA=
201401061620 METAR EGLL 061620Z 22018KT 180V250 9999 SCT031 SCT039 11/07
                        Q0995=
201401061550 METAR COR EGLL 061550Z 22012KT 9999 FEW035 SCT040 10/07 Q0995
                        TEMPO SHRA=
201401061520 METAR COR EGLL 061520Z 23018G28KT 9999 -SHRA FEW014 SCT022CB
                        SCT033 09/07 Q0995 RESHRA NOSIG=
201401061450 METAR COR EGLL 061450Z 23021G31KT 7000 2000SW SHRA FEW030
                        BKN034CB 12/07 Q0994 TEMPO 4000=
201401061420 METAR COR EGLL 061420Z 22019G31KT 180V260 9999 -SHRA SCT032CB
                        13/07 Q0994 TEMPO 4000 SHRA SCT014
                        BKN022CB=
201401061350 METAR COR EGLL 061350Z 22020G33KT 9999 4000NW VCSH SCT032CB
                        SCT040 12/07 Q0994 TEMPO 4000 SHRA
                        SCT014 BKN020CB=
201401061320 METAR EGLL 061320Z 22018G28KT 9999 SCT030 SCT040 12/07 Q0994=
201401061250 METAR COR EGLL 061250Z 22019G31KT 9999 BKN031 12/07 Q0994
                        TEMPO SHRA=
201401061220 METAR COR EGLL 061220Z 22017G28KT 9999 SCT028 SCT035 12/07
                        Q0994 TEMPO SHRA=
201401061150 METAR COR EGLL 061150Z 22018G29KT 9999 -SHRA FEW028 SCT033
                        12/08 Q0994 NOSIG=
201401061120 METAR COR EGLL 061120Z 21017G29KT 170V240 9999 FEW023 SCT029
                        11/08 Q0994 NOSIG=
201401061050 METAR COR EGLL 061050Z 21015KT 9999 SCT028 SCT036 11/08 Q0995
                        NOSIG=
201401061020 METAR COR EGLL 061020Z 21014KT 9999 FEW033 10/07 Q0995 NOSIG=
201401060950 METAR COR EGLL 060950Z 21013KT 9999 FEW040 10/06 Q0995 NOSIG=
201401060920 METAR COR EGLL 060920Z 23019KT 9999 -SHRA FEW024 BKN033 10/07
                        Q0995 NOSIG=
201401060850 METAR COR EGLL 060850Z 21011KT 9999 -RA FEW034 SCT039 09/07
                        Q0995 TEMPO 21015G30KT SHRA BKN014CB=
201401060820 METAR COR EGLL 060820Z 21012KT 9999 FEW028 BKN041 09/07 Q0994
                        TEMPO 21017G32KT=
201401060750 METAR COR EGLL 060750Z 21017KT 9999 -RA SCT028 BKN041 09/07
                        Q0994 TEMPO 21017G34KT SHRA BKN014CB=
201401060720 METAR COR EGLL 060720Z 22021G31KT 9999 -RA SCT036 10/06 Q0994
                        TEMPO SHRA BKN014=
201401060650 METAR COR EGLL 060650Z 21018KT 9999 -RA FEW036 12/08 Q0993
                        TEMPO 4500 SHRA=
201401060620 METAR COR EGLL 060620Z 22015KT 9999 FEW028 12/08 Q0993 TEMPO
                        4800 SHRA=
201401060550 METAR COR EGLL 060550Z 22017KT 9999 FEW025 SCT034 12/09 Q0993
                        NOSIG=
201401060520 METAR COR EGLL 060520Z 22016KT 9999 FEW026 SCT033 12/08 Q0993
                        TEMPO SHRA=
201401060450 METAR COR EGLL 060450Z 22013KT 9999 FEW023 SCT026 12/09 Q0993
                        NOSIG=
201401060420 METAR COR EGLL 060420Z 21010KT 9999 -RA SCT012 11/10 Q0993
                        NOSIG=
201401060350 METAR COR EGLL 060350Z 22012KT 9000 -RA BKN010 BKN030 11/09
                        Q0993 BECMG SCT016=
201401060320 METAR COR EGLL 060320Z 21010KT 9000 -RA BKN016 11/10 Q0993
                        TEMPO 4500 RA BKN009=
201401060250 METAR EGLL 060250Z AUTO 21012KT 9999 -DZ FEW021/// SCT089///
                        //////TCU 12/10 Q0992 RERA=
201401060220 METAR EGLL 060220Z AUTO 22012KT 9999 FEW019/// BKN044///
                        //////TCU 12/10 Q0993=
201401060150 METAR EGLL 060150Z AUTO 22018KT 9999 FEW017/// SCT034///
                        BKN039/// //////TCU 12/10 Q0992 RERA=
201401060120 METAR COR EGLL 060120Z 21013KT 7000 -RA FEW007 BKN014 12/11
                        Q0992 NOSIG=
201401060050 METAR COR EGLL 060050Z 21013KT 9999 -RA FEW008 BKN010 12/11
                        Q0992 TEMPO BKN008=
201401060020 METAR COR EGLL 060020Z 20016KT 9000 -RA SCT009 BKN014 12/11
                        Q0992 TEMPO 4800 RADZ BKN009=
201401052350 METAR COR EGLL 052350Z 20017KT 7000 -RA FEW011 BKN013 BKN019
                        12/11 Q0993 TEMPO 4800 RADZ BKN009=
201401052320 METAR COR EGLL 052320Z 20015KT 9999 -RA FEW009 BKN014 12/11
                        Q0993 TEMPO RADZ BKN009=
201401052250 METAR COR EGLL 052250Z 20014KT 9999 -RA FEW008 BKN011 BKN015
                        12/11 Q0993 TEMPO RA BKN009=
201401052220 METAR COR EGLL 052220Z 19016KT 170V230 9999 -RA FEW009 BKN011
                        BKN015 12/10 Q0993 TEMPO RA BKN008=
201401052150 METAR COR EGLL 052150Z 20016KT 170V240 9999 FEW008 SCT010
                        BKN016 11/10 Q0994 TEMPO RA BKN007=
201401052120 METAR COR EGLL 052120Z 18016KT 160V220 8000 FEW006 BKN009
                        11/10 Q0994 TEMPO SCT009 BKN013=
201401052050 METAR COR EGLL 052050Z 18015KT 9999 FEW009 BKN010 11/09 Q0995
                        BECMG SCT010 BKN016=
201401052020 METAR COR EGLL 052020Z 18013KT 160V220 9999 -RA FEW008 BKN010
                        10/09 Q0995 RERA BECMG SCT010 BKN016=
201401051950 METAR COR EGLL 051950Z 17015KT 150V220 8000 RA FEW006 SCT007
                        BKN011 09/09 Q0995 REDZ BECMG NSW
                        SCT012 BKN018=
201401051920 METAR COR EGLL 051920Z 18015KT 160V230 5000 -RADZ SCT007
                        BKN010 09/08 Q0996 TEMPO 3500 RADZ
                        SCT005 BKN007=
201401051850 METAR COR EGLL 051850Z 17015KT 150V210 9999 FEW010 BKN012
                        09/08 Q0997 TEMPO 17018G28KT 4000
                        RADZ SCT005 BKN008=
201401051820 METAR COR EGLL 051820Z 17019KT 150V210 9000 -RA FEW008 BKN011
                        09/07 Q0997 TEMPO 17018G28KT 4000
                        RADZ SCT005 BKN008=
201401051750 METAR COR EGLL 051750Z 17014KT 9999 FEW009 BKN011 08/07 Q0998
                        TEMPO 17016G28KT 4000 RADZ SCT005
                        BKN008=
201401051720 METAR COR EGLL 051720Z 17016KT 150V210 9999 BKN013 08/06
                        Q0998 TEMPO 17016G28KT 4000 RADZ
                        SCT005 BKN008=
201401051650 METAR COR EGLL 051650Z 17017KT 140V220 9999 FEW012 BKN015
                        08/06 Q0998 TEMPO 17017G30KT -RA
                        BKN014=
201401051620 METAR COR EGLL 051620Z 17015KT 150V210 9999 -RA SCT015 BKN017
                        08/06 Q0999 TEMPO 17016G26KT -RA
                        BKN014=
201401051550 METAR COR EGLL 051550Z 17013KT 150V230 9999 SCT015 BKN020
                        08/06 Q1000 TEMPO 17015G25KT -RA
                        BKN014=
201401051520 METAR COR EGLL 051520Z 15011KT 120V230 9999 SCT017 BKN022
                        08/06 Q1001 TEMPO -RA BKN014=
201401051450 METAR EGLL 051450Z 16010KT 140V200 9999 FEW040 08/06 Q1001=
201401051420 METAR EGLL 051420Z 18011KT 160V220 9999 FEW024 08/05 Q1002=
201401051350 METAR COR EGLL 051350Z 19012KT 9999 -RA FEW043 08/05 Q1003
                        TEMPO RA=
201401051320 METAR EGLL 051320Z 19011KT 160V220 9999 FEW019 08/05 Q1002=
201401051250 METAR COR EGLL 051250Z 18011KT 9999 FEW012 07/05 Q1002 TEMPO
                        RA=
201401051220 METAR COR EGLL 051220Z 18010KT 140V220 CAVOK 07/04 Q1002
                        TEMPO RA=
201401051150 METAR COR EGLL 051150Z 17006KT 140V220 CAVOK 06/04 Q1003
                        NOSIG=
201401051120 METAR COR EGLL 051120Z 17006KT 140V220 CAVOK 05/03 Q1003
                        NOSIG=
201401051050 METAR COR EGLL 051050Z VRB06KT CAVOK 05/03 Q1003 NOSIG=
201401051020 METAR COR EGLL 051020Z 18006KT 110V230 CAVOK 04/02 Q1003
                        NOSIG=
201401050950 METAR COR EGLL 050950Z 21008KT 180V270 CAVOK 04/02 Q1004
                        NOSIG=
201401050920 METAR COR EGLL 050920Z 20006KT 170V250 CAVOK 03/02 Q1004
                        NOSIG=
201401050850 METAR COR EGLL 050850Z 21007KT 180V250 CAVOK 03/02 Q1004
                        NOSIG=
201401050820 METAR COR EGLL 050820Z 20007KT 180V250 CAVOK 02/01 Q1003
                        NOSIG=
201401050750 METAR COR EGLL 050750Z 21009KT CAVOK 02/01 Q1003 NOSIG=
201401050720 METAR COR EGLL 050720Z 21006KT 180V310 CAVOK 02/01 Q1003
                        NOSIG=
201401050650 METAR COR EGLL 050650Z 22005KT 190V260 CAVOK 02/01 Q1002
                        NOSIG=
201401050620 METAR COR EGLL 050620Z 23007KT CAVOK 02/01 Q1002 NOSIG=
201401050550 METAR COR EGLL 050550Z 24004KT CAVOK 02/01 Q1002 NOSIG=
201401050520 METAR COR EGLL 050520Z 23005KT CAVOK 02/01 Q1001 NOSIG=
201401050450 METAR COR EGLL 050450Z 25004KT CAVOK 03/01 Q1001 NOSIG=
201401050420 METAR COR EGLL 050420Z 23005KT CAVOK 02/01 Q1001 NOSIG=
201401050350 METAR COR EGLL 050350Z 22005KT CAVOK 02/01 Q1000 NOSIG=
201401050320 METAR COR EGLL 050320Z VRB03KT CAVOK 02/01 Q1000 NOSIG=
201401050250 METAR EGLL 050250Z AUTO 28004KT 9999 NCD 02/01 Q1000=
201401050220 METAR EGLL 050220Z AUTO 26005KT 9999 NCD 03/01 Q1000=
201401050150 METAR EGLL 050150Z AUTO 27005KT 9999 NCD 03/02 Q0999=
201401050120 METAR COR EGLL 050120Z 26005KT CAVOK 03/02 Q0998 NOSIG=
201401050050 METAR COR EGLL 050050Z 24009KT CAVOK 04/02 Q0998 NOSIG=
201401050020 METAR COR EGLL 050020Z 24008KT CAVOK 03/02 Q0998 NOSIG=
201401042350 METAR COR EGLL 042350Z 21006KT CAVOK 03/02 Q0998 NOSIG=
201401042320 METAR COR EGLL 042320Z 21004KT CAVOK 03/02 Q0997 NOSIG=
201401042250 METAR COR EGLL 042250Z 23008KT CAVOK 04/02 Q0996 NOSIG=
201401042220 METAR COR EGLL 042220Z 24008KT CAVOK 04/03 Q0996 NOSIG=
201401042150 METAR COR EGLL 042150Z 24010KT CAVOK 05/03 Q0995 NOSIG=
201401042120 METAR COR EGLL 042120Z 24011KT CAVOK 05/03 Q0995 NOSIG=
201401042050 METAR COR EGLL 042050Z 24010KT CAVOK 05/03 Q0995 NOSIG=
201401042020 METAR COR EGLL 042020Z 24011KT 9999 FEW030 06/04 Q0994 NOSIG=
201401041950 METAR COR EGLL 041950Z 24010KT 9999 FEW032 06/04 Q0994 NOSIG=
201401041920 METAR COR EGLL 041920Z 23010KT 9999 FEW035 06/04 Q0994 NOSIG=
201401041850 METAR COR EGLL 041850Z 22008KT 180V250 9999 FEW028 06/04
                        Q0993 NOSIG=
201401041820 METAR COR EGLL 041820Z 23009KT 9999 FEW047 06/05 Q0992 NOSIG=
201401041750 METAR COR EGLL 041750Z 24008KT 9999 FEW047 06/05 Q0992 NOSIG=
201401041720 METAR COR EGLL 041720Z 24007KT 200V280 9999 FEW049 06/05
                        Q0991 NOSIG=
201401041650 METAR COR EGLL 041650Z 28006KT 9999 -RA FEW048 06/05 Q0991
                        TEMPO RA BKN014=
201401041620 METAR COR EGLL 041620Z 29007KT 9999 -RA FEW010 SCT031 BKN042
                        06/05 Q0991 NOSIG=
201401041550 METAR COR EGLL 041550Z 27013KT 9999 -RA FEW008 SCT011 BKN023
                        07/05 Q0990 5000 RADZ BKN012=
201401041520 METAR COR EGLL 041520Z 27011KT 9999 -RA FEW012 SCT022 07/05
                        Q0990 TEMPO 4500 RADZ BKN012=
201401041450 METAR COR EGLL 041450Z 27009KT 9999 FEW015 BKN049 07/05 Q0989
                        TEMPO 5000 RADZ BKN014=
201401041420 METAR COR EGLL 041420Z 25011KT 9999 FEW018 BKN033 07/05 Q0988
                        TEMPO 5000 RA BKN012=
201401041350 METAR COR EGLL 041350Z 27013KT 9999 FEW009 BKN013 08/06 Q0988
                        TEMPO SCT010 BKN016=
201401041320 METAR COR EGLL 041320Z 22011KT 8000 -RA FEW009 SCT011 BKN018
                        09/07 Q0987 TEMPO 5000 RADZ BKN012=
201401041250 METAR COR EGLL 041250Z 21011KT 160V240 9999 -RA FEW016 BKN020
                        09/07 Q0987 TEMPO 5000 RA BKN014=
201401041220 METAR COR EGLL 041220Z 19011KT 160V230 9999 FEW020 BKN023
                        09/08 Q0988 NOSIG=
201401041150 METAR COR EGLL 041150Z 20012KT 9999 -RA SCT023 BKN040 09/07
                        Q0988 NOSIG=
201401041120 METAR COR EGLL 041120Z 20013KT 9999 -RA SCT014 SCT030 09/07
                        Q0989 TEMPO RA BKN014=
201401041050 METAR COR EGLL 041050Z 19014KT 8000 -RA SCT014 BKN019 09/07
                        Q0989 TEMPO 4800 RA BKN014=
201401041020 METAR COR EGLL 041020Z 18011G21KT 8000 -RA SCT013 BKN018
                        09/07 Q0990 TEMPO RA BKN012=
201401040950 METAR COR EGLL 040950Z 20014KT 7000 -RA FEW013 BKN016 09/07
                        Q0990 TEMPO RA BKN012=
201401040920 METAR EGLL 040920Z 19018KT 9000 -RA SCT020 BKN027 09/07 Q0991
                        RERA=
201401040850 METAR COR EGLL 040850Z 18019KT 8000 RA SCT020 SCT023 09/07
                        Q0991 TEMPO 4800 +RA BKN014=
201401040820 METAR COR EGLL 040820Z 17019KT 9000 -RA SCT014 BKN022 09/07
                        Q0991 RERA TEMPO 4800 +RA SCT008
                        BKN014=
201401040750 METAR COR EGLL 040750Z 19018KT 8000 RA FEW012 SCT016 BKN024
                        09/07 Q0992 TEMPO 4800 SCT008 BKN014=
201401040720 METAR EGLL 040720Z 18015KT 9000 RA SCT015 BKN018 09/07 Q0992=
201401040650 METAR COR EGLL 040650Z 18017KT 9000 RA FEW022 BKN025 09/07
                        Q0993 TEMPO -RA=
201401040620 METAR COR EGLL 040620Z 17016KT 9999 RA FEW013 BKN017 09/07
                        Q0993 TEMPO BKN013=
201401040550 METAR COR EGLL 040550Z 15013KT 9999 RA FEW014 BKN019 08/07
                        Q0994 TEMPO -RA=
201401040520 METAR COR EGLL 040520Z 14011KT 9999 -RA BKN017 BKN023 08/06
                        Q0995 TEMPO RA=
201401040450 METAR COR EGLL 040450Z 17012KT 9999 BKN031 08/06 Q0996 NOSIG=
201401040420 METAR COR EGLL 040420Z 17012KT 9999 -RA BKN017 09/07 Q0997
                        TEMPO RA=
201401040350 METAR COR EGLL 040350Z 17009KT 9999 SCT017 09/06 Q0997 NOSIG=
201401040320 METAR EGLL 040320Z AUTO 16009KT 9999 BKN016 09/06 Q0998=
201401040250 METAR EGLL 040250Z AUTO 17007KT 9999 SCT020 SCT025 08/06
                        Q0999=
201401040220 METAR EGLL 040220Z AUTO 16007KT 9999 NCD 08/05 Q0999=
201401040150 METAR EGLL 040150Z AUTO 20007KT 9999 FEW029 08/05 Q1000=
201401040120 METAR COR EGLL 040120Z 21009KT CAVOK 08/05 Q1000 NOSIG=
201401040050 METAR COR EGLL 040050Z 22008KT 9999 FEW027 09/04 Q1000 NOSIG=
201401040020 METAR COR EGLL 040020Z 22010KT CAVOK 08/04 Q1000 NOSIG=
201401032350 METAR COR EGLL 032350Z 22012KT 9999 FEW039 08/04 Q1000 NOSIG=
201401032320 METAR COR EGLL 032320Z 23015KT 9999 FEW034 08/04 Q1000 NOSIG=
201401032250 METAR COR EGLL 032250Z 22011KT 9999 SCT032 08/04 Q1000 NOSIG=
201401032220 METAR COR EGLL 032220Z 23015KT 9999 FEW030 08/03 Q0999 NOSIG=
201401032150 METAR COR EGLL 032150Z 23018G28KT 9999 FEW029 08/02 Q0999
                        NOSIG=
201401032120 METAR COR EGLL 032120Z 23018KT CAVOK 08/02 Q0999 NOSIG=
201401032050 METAR COR EGLL 032050Z 23021G31KT CAVOK 08/02 Q0998 NOSIG=
201401032020 METAR COR EGLL 032020Z 22021KT CAVOK 08/02 Q0998 NOSIG=
201401031950 METAR COR EGLL 031950Z 22018KT 9999 FEW023 07/02 Q0997 NOSIG=
201401031920 METAR COR EGLL 031920Z 21015KT 9999 FEW023 07/03 Q0997 NOSIG=
201401031850 METAR COR EGLL 031850Z 22016KT CAVOK 07/02 Q0996 NOSIG=
201401031820 METAR COR EGLL 031820Z 23019KT 9999 FEW029 07/02 Q0996 NOSIG=
201401031750 METAR COR EGLL 031750Z 23017KT 9999 FEW029 07/03 Q0996 NOSIG=
201401031720 METAR COR EGLL 031720Z 23016KT 9999 FEW036 07/03 Q0995 TEMPO
                        4800 SHRA=
201401031650 METAR COR EGLL 031650Z 23019KT 9999 FEW030 08/02 Q0995 TEMPO
                        4500 SHRA BKN014=
201401031620 METAR COR EGLL 031620Z 22016KT 9999 SCT030 08/03 Q0994 TEMPO
                        4500 SHRA BKN014=
201401031550 METAR COR EGLL 031550Z 22015KT 9999 FEW030 08/03 Q0994 NOSIG=
201401031520 METAR COR EGLL 031520Z 22014KT 9999 FEW033 08/03 Q0994 NOSIG=
201401031450 METAR COR EGLL 031450Z 23021KT 9999 FEW018 08/03 Q0994 NOSIG=
201401031420 METAR COR EGLL 031420Z 23018KT 9999 FEW018CB 08/04 Q0994
                        RESHRA NOSIG=
201401031350 METAR COR EGLL 031350Z 22016KT 190V250 9999 5000W SHRA FEW024
                        SCT031CB 08/05 Q0994 BECMG 3500 SHGS
                        BKN014=
201401031320 METAR COR EGLL 031320Z 23016KT 9999 FEW018 07/05 Q0993 RETS
                        RERA TEMPO 3500 SHGS BKN014CB=
201401031250 METAR COR EGLL 031250Z 25019G37KT 210V280 2800 TSRA FEW015
                        SCT033CB 09/05 Q0993 BECMG 9999 NSW=
201401031220 METAR COR EGLL 031220Z 22018KT 9999 FEW039CB 10/05 Q0993
                        TEMPO 3000 TSGS +SHRA BKN014CB=
201401031150 METAR COR EGLL 031150Z 22017KT 9999 FEW033CB SCT038 11/06
                        Q0993 TEMPO 4500 SHGS BKN014=
201401031120 METAR COR EGLL 031120Z 22016G27KT 9999 FEW032 SCT037 10/06
                        Q0994 TEMPO 4500 SHGS BKN014=
201401031050 METAR COR EGLL 031050Z 22013KT 9999 FEW027 10/06 Q0994 NOSIG=
201401031020 METAR COR EGLL 031020Z 21012G24KT 9999 FEW030 09/06 Q0994
                        NOSIG=
201401030950 METAR COR EGLL 030950Z 21012KT 9999 FEW020 09/05 Q0994 NOSIG=
201401030920 METAR COR EGLL 030920Z 22012KT CAVOK 08/05 Q0994 NOSIG=
201401030850 METAR COR EGLL 030850Z 20011KT CAVOK 08/06 Q0993 NOSIG=
201401030820 METAR EGLL 030820Z 22014KT 9999 FEW030 08/05 Q0993=
201401030750 METAR COR EGLL 030750Z 23013KT 9999 -RA FEW032 BKN038 08/06
                        Q0993 NOSIG=
201401030720 METAR COR EGLL 030720Z 23021G31KT 9999 -RA FEW024 BKN035
                        09/06 Q0992 RERA NOSIG=
201401030650 METAR COR EGLL 030650Z 23027KT 6000 RA FEW027 SCT036 10/07
                        Q0991 RERA NOSIG=
201401030620 METAR COR EGLL 030620Z 20010KT 9999 FEW029 10/07 Q0992 TEMPO
                        4000 +SHRA BKN014CB=
201401030550 METAR COR EGLL 030550Z 21012KT 9999 FEW025 SCT030 10/07 Q0992
                        TEMPO 4000 +SHRA BKN014CB=
201401030520 METAR COR EGLL 030520Z 21011KT 9999 FEW023 SCT027 10/07 Q0992
                        NOSIG=
201401030450 METAR COR EGLL 030450Z 21009KT 9999 FEW033 10/07 Q0992 NOSIG=
201401030420 METAR COR EGLL 030420Z 22010KT 9000 FEW020 10/08 Q0992 NOSIG=
201401030350 METAR EGLL 030350Z 21009KT 9999 FEW019 SCT030 10/08 Q0992=
201401030320 METAR EGLL 030320Z 21012KT 9999 FEW027 10/08 Q0992=
201401030250 METAR EGLL 030250Z AUTO 22012KT 9999 NCD 11/08 Q0992=
201401030220 METAR EGLL 030220Z AUTO 21012KT 9999 FEW010 SCT013 BKN049
                        11/09 Q0991 REDZ=
201401030150 METAR EGLL 030150Z AUTO 20015KT 6000 -RA FEW008 OVC011 11/09
                        Q0991 REDZ=
201401030120 METAR COR EGLL 030120Z 20018KT 5000 -RADZ FEW008 BKN010 10/09
                        Q0991 TEMPO RA=
201401030050 METAR COR EGLL 030050Z 19018KT 7000 -RA FEW009 BKN011 10/09
                        Q0991 TEMPO RA=
201401030020 METAR COR EGLL 030020Z 19017KT 7000 -RA BKN011 10/09 Q0992
                        TEMPO RA BKN015=
201401022350 METAR COR EGLL 022350Z 18017KT 9000 -RA FEW010 SCT014 BKN019
                        10/09 Q0992 RERA TEMPO BKN014=
201401022320 METAR COR EGLL 022320Z 18017KT 8000 RA FEW012 BKN014 10/08
                        Q0993 TEMPO SCT014 BKN020=
201401022250 METAR COR EGLL 022250Z 19016G27KT 9999 -RA BKN015 BKN019
                        11/08 Q0993 TEMPO BKN013=
201401022220 METAR COR EGLL 022220Z 18016KT 160V230 9999 SCT016 SCT022
                        11/08 Q0994 TEMPO BKN014=
201401022150 METAR COR EGLL 022150Z 18014KT 170V230 9999 SCT016 10/08
                        Q0995 NOSIG=
201401022120 METAR COR EGLL 022120Z 18012KT 160V240 9999 FEW016 10/08
                        Q0995 NOSIG=
201401022050 METAR COR EGLL 022050Z 19012KT 9999 FEW020 SCT047 10/07 Q0996
                        NOSIG=
201401022020 METAR COR EGLL 022020Z 19012KT 9999 FEW036 10/07 Q0996 NOSIG=
201401021950 METAR COR EGLL 021950Z 19011KT 160V230 9999 SCT020 09/07
                        Q0996 NOSIG=
201401021920 METAR COR EGLL 021920Z 19011KT 160V230 9999 FEW020 09/06
                        Q0997 NOSIG=
201401021850 METAR COR EGLL 021850Z 19009KT 9999 FEW020 09/06 Q0997 NOSIG=
201401021820 METAR COR EGLL 021820Z 18009KT 160V230 9999 FEW021 09/06
                        Q0997 NOSIG=
201401021750 METAR COR EGLL 021750Z 19008KT 150V240 9999 FEW022 09/07
                        Q0997 NOSIG=
201401021720 METAR COR EGLL 021720Z 19007KT 160V230 9999 FEW022 08/06
                        Q0998 NOSIG=
201401021650 METAR COR EGLL 021650Z 21010KT 180V240 9999 FEW030 09/06
                        Q0998 NOSIG=
201401021620 METAR COR EGLL 021620Z 19010KT 160V240 9999 FEW026 09/06
                        Q0998 NOSIG=
201401021550 METAR COR EGLL 021550Z 18009KT 160V250 9999 FEW028 09/06
                        Q0998 NOSIG=
201401021520 METAR COR EGLL 021520Z 20011KT 170V240 9999 FEW027 10/06
                        Q0998 NOSIG=
201401021450 METAR COR EGLL 021450Z 21010G21KT 9999 FEW030 10/05 Q0997
                        NOSIG=
201401021420 METAR COR EGLL 021420Z 22009KT 180V250 9999 FEW030 11/05
                        Q0997 NOSIG=
201401021350 METAR COR EGLL 021350Z 22010KT 180V250 9999 SCT030 11/05
                        Q0997 NOSIG=
201401021320 METAR COR EGLL 021320Z 22010KT 9999 FEW030 11/05 Q0997 NOSIG=
201401021250 METAR COR EGLL 021250Z 23012KT 9999 FEW027 11/05 Q0997 NOSIG=
201401021220 METAR COR EGLL 021220Z 23010KT 190V260 9999 FEW024 10/06
                        Q0997 NOSIG=
201401021150 METAR COR EGLL 021150Z 22009KT 9999 FEW020 10/05 Q0997 NOSIG=
201401021120 METAR COR EGLL 021120Z 23011G21KT CAVOK 09/05 Q0997 NOSIG=
201401021050 METAR COR EGLL 021050Z 22009KT CAVOK 09/05 Q0996 NOSIG=
201401021020 METAR COR EGLL 021020Z 23009KT CAVOK 08/05 Q0996 NOSIG=
201401020950 METAR COR EGLL 020950Z 23011KT CAVOK 08/05 Q0996 NOSIG=
201401020920 METAR COR EGLL 020920Z 23009KT CAVOK 07/05 Q0995 NOSIG=
201401020850 METAR COR EGLL 020850Z 24010KT CAVOK 07/05 Q0994 NOSIG=
201401020820 METAR COR EGLL 020820Z 24009KT 9999 FEW020 07/05 Q0994 NOSIG=
201401020750 METAR COR EGLL 020750Z 24010KT CAVOK 07/05 Q0993 NOSIG=
201401020720 METAR COR EGLL 020720Z 24013KT CAVOK 07/05 Q0992 NOSIG=
201401020650 METAR COR EGLL 020650Z 25011KT CAVOK 07/05 Q0991 NOSIG=
201401020620 METAR COR EGLL 020620Z 25011KT CAVOK 07/05 Q0991 NOSIG=
201401020550 METAR COR EGLL 020550Z 26012KT CAVOK 07/05 Q0990 NOSIG=
201401020520 METAR COR EGLL 020520Z 26012KT 9999 FEW032 07/05 Q0989 NOSIG=
201401020450 METAR COR EGLL 020450Z 27012KT 9999 BKN028 08/06 Q0988 NOSIG=
201401020420 METAR COR EGLL 020420Z 27014KT 9999 BKN021 09/07 Q0987 NOSIG=
201401020350 METAR COR EGLL 020350Z 25009KT 9999 -RA FEW010 SCT020 BKN037
                        09/07 Q0986 NOSIG=
201401020320 METAR EGLL 020320Z 22009KT 9999 -RA FEW033 09/07 Q0986 RERA=
201401020250 METAR EGLL 020250Z AUTO 22009KT 9999 -RA SCT033/// SCT043///
                        //////CB 09/07 Q0986 RERA=
201401020220 METAR EGLL 020220Z AUTO 21010KT 9999 FEW044/// //////TCU
                        09/07 Q0985=
201401020150 METAR EGLL 020150Z AUTO 20010KT 9999 SCT038/// SCT055///
                        //////CB 09/07 Q0985 RERA=
201401020120 METAR COR EGLL 020120Z 20013KT 9999 -SHRA FEW023 SCT043 09/07
                        Q0985 NOSIG=
201401020050 METAR COR EGLL 020050Z 19009KT 9999 FEW024 09/08 Q0985 RESHRA
                        TEMPO SHRA=
201401020020 METAR COR EGLL 020020Z 21010KT 9000 SHRA SCT021 SCT048 09/07
                        Q0985 BECMG NSW=
201401012350 METAR COR EGLL 012350Z 22015KT 9000 -SHRA SCT024 SCT028 10/07
                        Q0985 NOSIG=
201401012320 METAR COR EGLL 012320Z 22013KT 9000 -SHRA FEW020 SCT029 10/08
                        Q0984 RESHRA NOSIG=
201401012250 METAR COR EGLL 012250Z 21017G27KT 5000 SHRA BKN021 10/08
                        Q0984 NOSIG=
201401012220 METAR COR EGLL 012220Z 19014KT 170V230 9999 -RA FEW022 SCT029
                        10/08 Q0984 NOSIG=
201401012150 METAR COR EGLL 012150Z 19015KT 160V230 9999 FEW022 10/07
                        Q0984 NOSIG=
201401012120 METAR COR EGLL 012120Z 20014KT 180V250 9999 FEW015 11/08
                        Q0984 TEMPO SHRA BKN014=
201401012050 METAR COR EGLL 012050Z 21015KT 180V250 9999 FEW015 SCT025
                        11/08 Q0984 TEMPO SHRA BKN012=
201401012020 METAR COR EGLL 012020Z 20016KT 170V240 9999 SCT012 SCT015
                        11/09 Q0984 NOSIG=
201401011950 METAR EGLL 011950Z 19016KT 9999 SCT012 BKN015 BKN020 11/09
                        Q0984=
201401011920 METAR COR EGLL 011920Z 19017KT 9000 -RA FEW012 BKN014 BKN020
                        11/09 Q0984 TEMPO SHRA=
201401011850 METAR COR EGLL 011850Z 19018KT 160V230 9999 -RA FEW011 SCT015
                        BKN018 11/09 Q0984 RERA TEMPO SHRA=
201401011820 METAR COR EGLL 011820Z 19018KT 8000 -RA SCT011 BKN013 BKN017
                        11/09 Q0985 TEMPO RA=
201401011750 METAR COR EGLL 011750Z 19017KT 170V240 9999 -RA SCT011 BKN014
                        11/09 Q0985 TEMPO FEW014=
201401011720 METAR COR EGLL 011720Z 19021KT 9999 -RA SCT013 SCT018 11/09
                        Q0985 TEMPO RA=
201401011650 METAR COR EGLL 011650Z 18020G34KT 160V220 9999 -RA FEW012
                        SCT015 BKN025 11/09 Q0986 TEMPO RA=
201401011620 METAR COR EGLL 011620Z 19021G34KT 160V230 9000 -RA FEW012
                        SCT015 BKN025 11/09 Q0986 TEMPO RA=
201401011550 METAR COR EGLL 011550Z 19021KT 9999 -RA SCT015 SCT021 11/09
                        Q0986 TEMPO RA=
201401011520 METAR COR EGLL 011520Z 19021G31KT 170V230 7000 -RA FEW011
                        SCT016 BKN020 11/09 Q0987 NOSIG=
201401011450 METAR EGLL 011450Z 19021G36KT 7000 -RA SCT009 BKN012 BKN016
                        10/09 Q0987 RERA=
201401011420 METAR COR EGLL 011420Z 19020G31KT 5000 RA FEW008 BKN010 BKN015
                        10/09 Q0987 TEMPO -RA=
201401011350 METAR COR EGLL 011350Z 18019G30KT 5000 RA SCT013 SCT020 10/08
                        Q0988 TEMPO -RA=
201401011320 METAR COR EGLL 011320Z 17018KT 5000 RA BKN012 09/08 Q0989
                        TEMPO -RA BKN015=
201401011250 METAR COR EGLL 011250Z 17019G29KT 7000 -RA SCT016 SCT023
                        09/08 Q0989 RERA TEMPO RA=
201401011220 METAR COR EGLL 011220Z 16022KT 8000 RA SCT015 SCT021 09/07
                        Q0990 TEMPO -RA=
201401011150 METAR COR EGLL 011150Z 16019G30KT 9999 -RA SCT017 BKN021
                        09/07 Q0991 TEMPO RA=
201401011120 METAR COR EGLL 011120Z 16021KT 130V200 9999 -RA SCT024 SCT032
                        08/06 Q0993 TEMPO RA=
201401011050 METAR COR EGLL 011050Z 17019G32KT 150V220 9999 -RA SCT021
                        SCT032 08/06 Q0994 RERA TEMPO RA=
201401011020 METAR COR EGLL 011020Z 17019G31KT 9999 -RA SCT020 SCT032
                        09/06 Q0995 TEMPO RA=
201401010950 METAR COR EGLL 010950Z 18019G29KT 9999 -RA SCT021 SCT025
                        09/06 Q0996 TEMPO RA=
201401010920 METAR COR EGLL 010920Z 18018G28KT 9999 SCT019 SCT023 09/06
                        Q0997 TEMPO RA=
201401010850 METAR COR EGLL 010850Z 18015KT 9999 FEW018 SCT022 09/06 Q0997
                        TEMPO RA=
201401010820 METAR COR EGLL 010820Z 18013KT 9999 FEW018 SCT025 09/06 Q0998
                        TEMPO RA=
201401010750 METAR COR EGLL 010750Z 18014KT 9999 SCT017 BKN025 09/06 Q0998
                        TEMPO RA=
201401010720 METAR COR EGLL 010720Z 19012G22KT 170V270 9999 FEW019 BKN027
                        09/06 Q0999 TEMPO SHRA=
201401010650 METAR COR EGLL 010650Z 19012G22KT 160V250 9999 FEW020 SCT030
                        08/06 Q0999 TEMPO SHRA=
201401010620 METAR COR EGLL 010620Z 19011G21KT 9999 SCT022 08/06 Q0999
                        TEMPO SHRA=
201401010550 METAR COR EGLL 010550Z 18009KT 9999 SCT019 08/06 Q1000 TEMPO
                        SHRA=
201401010520 METAR COR EGLL 010520Z 18009KT 9999 FEW022 07/06 Q1000 NOSIG=
201401010450 METAR COR EGLL 010450Z 18008KT 9999 FEW038 07/05 Q1000 NOSIG=
201401010420 METAR COR EGLL 010420Z 18008KT 9999 FEW027 SCT032 07/05 Q1001
                        NOSIG=
201401010350 METAR COR EGLL 010350Z 16006KT 9999 SCT031 07/05 Q1001 TEMPO
                        SHRA=
201401010320 METAR COR EGLL 010320Z 17005KT 9999 SCT018 BKN024 07/05 Q1001
                        TEMPO SHRA=
201401010250 METAR EGLL 010250Z AUTO 18008KT 9999 SCT028/// //////TCU
                        06/05 Q1001=
201401010220 METAR EGLL 010220Z AUTO 18008KT 9999 FEW036/// //////TCU
                        06/05 Q1002=
201401010150 METAR EGLL 010150Z AUTO 19011KT 9999 FEW031/// //////TCU
                        07/05 Q1002=
201401010120 METAR COR EGLL 010120Z 19012KT 9999 FEW019 06/04 Q1002 TEMPO
                        SHRA=
201401010050 METAR COR EGLL 010050Z 19010KT 9999 FEW022 SCT042 07/04 Q1002
                        TEMPO SHRA=
201401010020 METAR COR EGLL 010020Z 21011KT 9999 FEW026 07/05 Q1002 TEMPO
                        SHRA=

</pre>

</body>
</html>
