##########################################################
# Query made at 01/13/2020 14:07:44 UTC
# Time interval: from 01/01/2019 00:00  to 01/31/2019 23:59  UTC
##########################################################

##########################################################
# EGLL, London / Heathrow Airport (United Kingdom)
# WMO index: 03772
# Latitude 51-29N. Longitude 000-27W. Altitude 24 m.
##########################################################

###################################
#  METAR/SPECI from EGLL
###################################
201901312350 METAR COR EGLL 312350Z 07009KT 2500 -SN SCT007 OVC012 01/00
                        Q0984 TEMPO 1200 SN BKN005=
201901312320 METAR COR EGLL 312320Z 07009KT 2500 -SN SCT008 BKN012 OVC021
                        01/M00 Q0984 TEMPO 1200 SN BKN006=
201901312250 METAR COR EGLL 312250Z 07008KT 4000 -SN SCT009 BKN015 OVC027
                        01/M01 Q0984 TEMPO 2000 SN BKN008=
201901312220 METAR COR EGLL 312220Z 08011KT 8000 -SN FEW013 SCT018 BKN023
                        00/M00 Q0985 TEMPO 4000 SN BKN012=
201901312150 METAR COR EGLL 312150Z 08010KT 2500 -SN SCT008 BKN011 BKN018
                        00/M00 Q0985 TEMPO 4000=
201901312120 METAR COR EGLL 312120Z 10014KT 5000 -SN BKN016 BKN021 01/M01
                        Q0985 TEMPO 4000 SN BKN014=
201901312050 METAR COR EGLL 312050Z AUTO 09014KT 9999 FEW017 SCT048 01/M02
                        Q0985 TEMPO -SN BKN014=
201901312020 METAR COR EGLL 312020Z AUTO 09012KT 9999 FEW017 SCT046 01/M02
                        Q0985 TEMPO -SN BKN014=
201901311950 METAR COR EGLL 311950Z AUTO 09015KT 9999 FEW016 00/M02 Q0986
                        TEMPO -SN BKN014=
201901311920 METAR COR EGLL 311920Z AUTO 08015KT 9999 SCT014 01/M01 Q0986
                        TEMPO 4000 -SN BKN012=
201901311850 METAR COR EGLL 311850Z AUTO 09011KT 9999 FEW018 01/M01 Q0986
                        TEMPO 4000 -SN=
201901311820 METAR COR EGLL 311820Z AUTO 10012KT 9999 NCD 01/M01 Q0987
                        TEMPO 4000 -SN=
201901311750 METAR COR EGLL 311750Z AUTO 11013KT 9999 NCD 02/M01 Q0987
                        TEMPO 4000 -SN=
201901311720 METAR COR EGLL 311720Z AUTO 10010KT 9999 NCD 02/M02 Q0987
                        TEMPO 4000 -SN=
201901311650 METAR COR EGLL 311650Z AUTO 10013KT 9999 NCD 02/M02 Q0987
                        TEMPO 4000 -SN=
201901311620 METAR COR EGLL 311620Z AUTO 12016KT 9999 NCD 03/M03 Q0987
                        NOSIG=
201901311550 METAR COR EGLL 311550Z AUTO 11013KT 9999 NCD 03/M02 Q0987
                        NOSIG=
201901311520 METAR COR EGLL 311520Z AUTO 10014KT 9999 NCD 03/M01 Q0988
                        NOSIG=
201901311450 METAR COR EGLL 311450Z 10014KT 9999 FEW025 03/M00 Q0988 NOSIG=
201901311420 METAR COR EGLL 311420Z AUTO 11013KT 9999 FEW024 03/00 Q0989
                        NOSIG=
201901311350 METAR COR EGLL 311350Z AUTO 10012KT 9999 SCT024 BKN033 BKN041
                        04/01 Q0990 NOSIG=
201901311320 METAR COR EGLL 311320Z AUTO 12013KT 9999 FEW025 BKN032 04/00
                        Q0990 NOSIG=
201901311250 METAR COR EGLL 311250Z AUTO 12013KT 9999 SCT031 SCT038 04/M01
                        Q0991 NOSIG=
201901311220 METAR COR EGLL 311220Z AUTO 11009KT 9999 NCD 05/M01 Q0991
                        NOSIG=
201901311150 METAR COR EGLL 311150Z AUTO 10009KT 9999 NCD 04/M00 Q0992
                        NOSIG=
201901311120 METAR COR EGLL 311120Z AUTO 11008KT 9999 NCD 03/M00 Q0992
                        NOSIG=
201901311050 METAR COR EGLL 311050Z AUTO 10007KT 9999 NCD 02/M00 Q0992
                        NOSIG=
201901311020 METAR COR EGLL 311020Z AUTO 09006KT 9999 NCD 01/M00 Q0993
                        NOSIG=
201901310950 METAR COR EGLL 310950Z AUTO 09005KT 9000 NCD 00/M00 Q0993
                        NOSIG=
201901310920 METAR COR EGLL 310920Z AUTO 06004KT 7000 NCD M01/M02 Q0993
                        NOSIG=
201901310850 METAR COR EGLL 310850Z AUTO VRB02KT 5000 BR NCD M03/M03 Q0994
                        NOSIG=
201901310820 METAR COR EGLL 310820Z AUTO 06001KT 5000 BR NCD M04/M04 Q0994
                        TEMPO 3000=
201901310750 METAR COR EGLL 310750Z VRB02KT 3000 BR NSC M04/M04 Q0994
                        TEMPO 1200 MIFG=
201901310720 METAR COR EGLL 310720Z 05002KT 3000 BR NSC M04/M05 Q0994
                        TEMPO 5000=
201901310650 METAR COR EGLL 310650Z 05002KT 2500 BCFG BR NSC M04/M05 Q0995
                        NOSIG=
201901310620 METAR COR EGLL 310620Z 05002KT 1800 1000W R09R/P1500 BCFG
                        BR NSC M04/M04 Q0995 TEMPO 1400=
201901310550 METAR COR EGLL 310550Z 20001KT 3000 BCFG BR NSC M04/M04 Q0995
                        TEMPO 1400=
201901310520 METAR COR EGLL 310520Z VRB01KT 2500 BR SCT001 M03/M04 Q0995
                        NOSIG=
201901310450 METAR COR EGLL 310450Z 07004KT 2000 PRFG BR NSC M05/M05 Q0995
                        TEMPO 1200=
201901310420 METAR COR EGLL 310420Z 05002KT 2500 R09R/0900 PRFG BR NSC
                        M05/M05 Q0996 BECMG 0800 FZFG=
201901310350 METAR COR EGLL 310350Z 30001KT 3500 R27R/0700 BR NSC M04/M04
                        Q0996 NOSIG=
201901310320 METAR COR EGLL 310320Z 27002KT 3000 R27R/1400 BR NSC M04/M04
                        Q0996 NOSIG=
201901310250 METAR COR EGLL 310250Z 17001KT 3000 R27R/1000 BR NSC M03/M04
                        Q0996 NOSIG=
201901310220 METAR COR EGLL 310220Z 18002KT 4000 R27R/0900 BR NSC M03/M03
                        Q0996 NOSIG=
201901310150 METAR COR EGLL 310150Z 31001KT 4500 R27R/1300 BR NSC M03/M04
                        Q0996 NOSIG=
201901310120 METAR COR EGLL 310120Z AUTO 00000KT 4800 R27R/0750 BR NCD
                        M03/M03 Q0996 TEMPO 5000=
201901310050 METAR COR EGLL 310050Z 30001KT 5000 HZ NSC M03/M03 Q0996
                        TEMPO 4000 BR=
201901310020 METAR COR EGLL 310020Z 24001KT 6000 NSC M02/M03 Q0996 TEMPO
                        4000 BR=
201901302350 METAR COR EGLL 302350Z 24001KT 8000 NSC M02/M02 Q0997 NOSIG=
201901302320 METAR COR EGLL 302320Z 35001KT 7000 NSC M01/M02 Q0997 NOSIG=
201901302250 METAR COR EGLL 302250Z AUTO 00000KT 7000 NCD 01/M01 Q0997
                        NOSIG=
201901302220 METAR COR EGLL 302220Z AUTO 01002KT 9999 NCD 01/M01 Q0997
                        NOSIG=
201901302150 METAR COR EGLL 302150Z AUTO 02001KT 9999 NCD 01/M01 Q0997
                        NOSIG=
201901302120 METAR COR EGLL 302120Z AUTO 27002KT 9999 NCD 01/M01 Q0996
                        NOSIG=
201901302050 METAR COR EGLL 302050Z AUTO 30001KT 9999 NCD 01/M01 Q0996
                        NOSIG=
201901302020 METAR COR EGLL 302020Z AUTO 26001KT 9999 NCD 01/M00 Q0996
                        NOSIG=
201901301950 METAR COR EGLL 301950Z AUTO 31001KT 9999 NCD M00/M02 Q0996
                        NOSIG=
201901301920 METAR COR EGLL 301920Z AUTO 03001KT 9999 NCD 02/M01 Q0996
                        NOSIG=
201901301850 METAR COR EGLL 301850Z AUTO 30002KT 9999 NCD 02/M01 Q0996
                        NOSIG=
201901301820 METAR COR EGLL 301820Z AUTO 28003KT 9999 NCD 02/M01 Q0996
                        NOSIG=
201901301750 METAR COR EGLL 301750Z AUTO 29003KT 9999 NCD 02/M01 Q0996
                        NOSIG=
201901301720 METAR COR EGLL 301720Z AUTO 28005KT 240V310 9999 -RA SCT026
                        03/M00 Q0996 NOSIG=
201901301650 METAR COR EGLL 301650Z 35004KT 310V030 9999 FEW033 SCT042
                        BKN049TCU 03/00 Q0996 RESHSN RESHRA
                        NOSIG=
201901301620 METAR COR EGLL 301620Z AUTO 34005KT 290V030 9999 SCT033 05/M01
                        Q0996 NOSIG=
201901301550 METAR COR EGLL 301550Z AUTO 27005KT 9999 //////TCU 04/M02
                        Q0996 NOSIG=
201901301520 METAR COR EGLL 301520Z AUTO 28006KT 9999 SCT039/// //////TCU
                        04/M01 Q0996 NOSIG=
201901301450 METAR COR EGLL 301450Z AUTO 30005KT 9999 NCD 04/M02 Q0995
                        NOSIG=
201901301420 METAR COR EGLL 301420Z AUTO 27008KT 9999 NCD 05/M01 Q0995
                        NOSIG=
201901301350 METAR COR EGLL 301350Z AUTO 27008KT 240V310 9999 SCT023 05/M00
                        Q0995 NOSIG=
201901301320 METAR COR EGLL 301320Z AUTO 29005KT 250V340 9999 FEW023 05/00
                        Q0995 NOSIG=
201901301250 METAR COR EGLL 301250Z AUTO 28006KT 250V320 9999 NCD 04/M00
                        Q0995 NOSIG=
201901301220 METAR COR EGLL 301220Z AUTO 29005KT 250V330 9999 NCD 04/00
                        Q0995 NOSIG=
201901301150 METAR COR EGLL 301150Z AUTO 28005KT 9999 NCD 03/M00 Q0996
                        NOSIG=
201901301120 METAR COR EGLL 301120Z AUTO 28007KT 9999 NCD 03/M00 Q0996
                        NOSIG=
201901301050 METAR COR EGLL 301050Z AUTO 29005KT 9999 NCD 02/M00 Q0996
                        NOSIG=
201901301020 METAR COR EGLL 301020Z AUTO 29005KT 9999 NCD 02/M01 Q0996
                        NOSIG=
201901300950 METAR COR EGLL 300950Z AUTO 27007KT 9999 NCD 01/M01 Q0996
                        NOSIG=
201901300920 METAR COR EGLL 300920Z AUTO 26008KT 9999 NCD 00/M01 Q0996
                        NOSIG=
201901300850 METAR COR EGLL 300850Z AUTO 26008KT 9999 NCD M01/M02 Q0996
                        NOSIG=
201901300820 METAR COR EGLL 300820Z AUTO 28005KT 9999 NCD M01/M02 Q0996
                        NOSIG=
201901300750 METAR COR EGLL 300750Z AUTO 28006KT 9999 NCD M02/M03 Q0995
                        NOSIG=
201901300720 METAR COR EGLL 300720Z AUTO 28006KT 9999 NCD M02/M03 Q0995
                        NOSIG=
201901300650 METAR COR EGLL 300650Z AUTO 27007KT 9999 NCD M01/M02 Q0995
                        NOSIG=
201901300620 METAR COR EGLL 300620Z AUTO 27006KT 9999 NCD M02/M03 Q0995
                        NOSIG=
201901300550 METAR COR EGLL 300550Z AUTO 26005KT 9999 NCD M00/M02 Q0995
                        NOSIG=
201901300520 METAR COR EGLL 300520Z AUTO 27007KT 9999 NCD M01/M02 Q0995
                        NOSIG=
201901300450 METAR COR EGLL 300450Z AUTO 28006KT 9999 NCD M01/M02 Q0995
                        NOSIG=
201901300420 METAR COR EGLL 300420Z AUTO 27007KT 9999 NCD M01/M02 Q0995
                        NOSIG=
201901300350 METAR COR EGLL 300350Z AUTO 28008KT 9999 NCD M00/M01 Q0995
                        NOSIG=
201901300320 METAR COR EGLL 300320Z AUTO 28008KT 9999 NCD 00/M01 Q0995
                        NOSIG=
201901300250 METAR COR EGLL 300250Z AUTO 29007KT 9999 NCD 00/M01 Q0995
                        NOSIG=
201901300220 METAR COR EGLL 300220Z AUTO 28007KT 9999 NCD 00/M00 Q0995
                        NOSIG=
201901300150 METAR COR EGLL 300150Z AUTO 28007KT 9999 NCD 01/M00 Q0995
                        NOSIG=
201901300120 METAR COR EGLL 300120Z AUTO 29007KT 9999 NCD 02/00 Q0995
                        NOSIG=
201901300050 METAR COR EGLL 300050Z AUTO 29005KT 9999 NCD 02/00 Q0995
                        NOSIG=
201901300020 METAR COR EGLL 300020Z AUTO 30005KT 9999 NCD 02/01 Q0995
                        NOSIG=
201901292350 METAR EGLL 292350Z AUTO 30005KT 9999 NCD 02/01 Q0994=
201901292320 METAR COR EGLL 292320Z AUTO 30006KT 9999 FEW039 02/01 Q0994
                        RERA NOSIG=
201901292250 METAR COR EGLL 292250Z AUTO 30005KT 6000 -RA SCT028 BKN039
                        02/01 Q0994 NOSIG=
201901292220 METAR COR EGLL 292220Z AUTO 29006KT 5000 -RA SCT015 BKN025
                        BKN034 02/01 Q0994 NOSIG=
201901292150 METAR COR EGLL 292150Z AUTO 30006KT 4900 -RA SCT006 BKN013
                        BKN023 02/01 Q0994 BECMG 7000=
201901292120 METAR COR EGLL 292120Z AUTO 31006KT 7000 -RA BKN010 BKN020
                        OVC043 02/01 Q0994 NOSIG=
201901292050 METAR COR EGLL 292050Z AUTO 30006KT 3600 -SN FEW005 SCT008
                        BKN012 01/01 Q0994 TEMPO RASN=
201901292020 METAR COR EGLL 292020Z 29007KT 4500 -SNRA SCT004 BKN008 BKN014
                        01/01 Q0994 RERA TEMPO RA=
201901291950 METAR COR EGLL 291950Z 27005KT 6000 -RASN SCT004 BKN006 OVC011
                        01/01 Q0993 RESN TEMPO 4000 RASN=
201901291920 METAR COR EGLL 291920Z 28008KT 2500 SN BKN004 OVC010 02/01
                        Q0993 RESN RERA TEMPO 4000 -SN BKN006=
201901291850 METAR COR EGLL 291850Z AUTO 28011KT 7000 -RA SCT008/// BKN011///
                        BKN016/// //////CB 03/02 Q0993 RERA
                        TEMPO 4000 RASN BKN008=
201901291820 METAR COR EGLL 291820Z AUTO 23006KT 6000 -RA SCT012/// BKN016///
                        OVC035/// //////TCU 04/03 Q0993 TEMPO
                        RASN BKN012=
201901291750 METAR COR EGLL 291750Z AUTO 17005KT 110V220 9999 -RA FEW028///
                        BKN040/// //////TCU 05/02 Q0993 TEMPO
                        RA BKN012=
201901291720 METAR COR EGLL 291720Z AUTO 15005KT 080V210 9999 NCD 05/02
                        Q0993 TEMPO RA=
201901291650 METAR COR EGLL 291650Z AUTO 15006KT 9999 NCD 04/02 Q0993
                        TEMPO RA=
201901291620 METAR COR EGLL 291620Z AUTO 16008KT 110V210 9999 NCD 05/02
                        Q0993 NOSIG=
201901291550 METAR COR EGLL 291550Z AUTO 15008KT 110V180 9999 SCT019 BKN026
                        05/03 Q0994 NOSIG=
201901291520 METAR COR EGLL 291520Z AUTO 15008G18KT 090V180 9999 SCT022
                        BKN034 06/02 Q0994 NOSIG=
201901291450 METAR COR EGLL 291450Z AUTO 15007KT 120V230 9999 FEW022 BKN031
                        06/02 Q0995 NOSIG=
201901291420 METAR COR EGLL 291420Z AUTO 17007KT 140V240 9999 BKN027 06/02
                        Q0995 NOSIG=
201901291350 METAR COR EGLL 291350Z AUTO 16007KT 130V230 9999 SCT027 BKN034
                        06/01 Q0996 NOSIG=
201901291320 METAR COR EGLL 291320Z AUTO 17005KT 130V240 9999 NCD 06/00
                        Q0997 NOSIG=
201901291250 METAR COR EGLL 291250Z AUTO 18006KT 140V230 9999 NCD 06/M00
                        Q0997 NOSIG=
201901291220 METAR COR EGLL 291220Z AUTO 20006KT 160V230 9999 NCD 05/M01
                        Q0998 NOSIG=
201901291150 METAR COR EGLL 291150Z AUTO 19006KT 130V230 9999 NCD 05/M00
                        Q0998 NOSIG=
201901291120 METAR COR EGLL 291120Z AUTO 17006KT 120V230 9999 NCD 04/M00
                        Q0999 NOSIG=
201901291050 METAR COR EGLL 291050Z AUTO 16004KT 120V230 9999 NCD 04/M01
                        Q1000 NOSIG=
201901291020 METAR COR EGLL 291020Z AUTO 16005KT 110V230 9999 NCD 03/M01
                        Q1000 NOSIG=
201901290950 METAR COR EGLL 290950Z AUTO 19004KT 120V230 9999 NCD 02/M01
                        Q1001 NOSIG=
201901290920 METAR COR EGLL 290920Z AUTO 21005KT 9999 NCD 01/M02 Q1001
                        NOSIG=
201901290850 METAR COR EGLL 290850Z AUTO 20004KT 180V250 9999 NCD 01/M02
                        Q1002 NOSIG=
201901290820 METAR COR EGLL 290820Z AUTO 17004KT 9999 NCD 00/M02 Q1002
                        NOSIG=
201901290750 METAR COR EGLL 290750Z AUTO 20005KT 160V230 9999 NCD 00/M02
                        Q1003 NOSIG=
201901290720 METAR COR EGLL 290720Z AUTO 19005KT 9999 NCD 00/M02 Q1003
                        NOSIG=
201901290650 METAR COR EGLL 290650Z AUTO 19006KT 160V260 9999 BKN043 00/M02
                        Q1004 NOSIG=
201901290620 METAR COR EGLL 290620Z AUTO 20006G16KT 160V240 9999 BKN048
                        01/M02 Q1004 NOSIG=
201901290550 METAR COR EGLL 290550Z AUTO 20004KT 9999 NCD 00/M02 Q1005
                        NOSIG=
201901290520 METAR COR EGLL 290520Z AUTO 18005KT 9999 NCD M00/M02 Q1005
                        NOSIG=
201901290450 METAR COR EGLL 290450Z AUTO 17003KT 9999 NCD M01/M03 Q1006
                        NOSIG=
201901290420 METAR COR EGLL 290420Z AUTO 17005KT 9999 NCD M01/M03 Q1006
                        NOSIG=
201901290350 METAR COR EGLL 290350Z AUTO 20004KT 9999 NCD M01/M03 Q1007
                        NOSIG=
201901290320 METAR COR EGLL 290320Z AUTO 21004KT 9999 FEW049 M01/M03 Q1007
                        NOSIG=
201901290250 METAR COR EGLL 290250Z AUTO 20003KT 9999 NCD M02/M04 Q1008
                        NOSIG=
201901290220 METAR COR EGLL 290220Z AUTO VRB02KT 9999 NCD M02/M04 Q1008
                        NOSIG=
201901290150 METAR COR EGLL 290150Z AUTO 18004KT 9999 NCD M01/M04 Q1008
                        NOSIG=
201901290120 METAR COR EGLL 290120Z AUTO 21001KT 9999 NCD M02/M04 Q1008
                        NOSIG=
201901290050 METAR COR EGLL 290050Z AUTO 00000KT 9999 NCD M01/M03 Q1009
                        NOSIG=
201901290020 METAR COR EGLL 290020Z AUTO 21002KT 9999 NCD M01/M03 Q1009
                        NOSIG=
201901282350 METAR COR EGLL 282350Z AUTO 21003KT 9999 NCD M00/M03 Q1009
                        NOSIG=
201901282320 METAR COR EGLL 282320Z AUTO VRB02KT 9999 NCD M01/M03 Q1009
                        NOSIG=
201901282250 METAR COR EGLL 282250Z AUTO VRB03KT 9999 NCD 00/M03 Q1009
                        NOSIG=
201901282220 METAR COR EGLL 282220Z AUTO 27004KT 9999 NCD 00/M03 Q1010
                        NOSIG=
201901282150 METAR COR EGLL 282150Z AUTO 28005KT 9999 NCD 01/M03 Q1010
                        NOSIG=
201901282120 METAR COR EGLL 282120Z AUTO 28005KT 9999 NCD 01/M03 Q1010
                        NOSIG=
201901282050 METAR COR EGLL 282050Z AUTO 27007KT 9999 NCD 01/M03 Q1010
                        NOSIG=
201901282020 METAR COR EGLL 282020Z AUTO 27007KT 9999 NCD 01/M03 Q1010
                        NOSIG=
201901281950 METAR COR EGLL 281950Z AUTO 27007KT 9999 NCD 01/M03 Q1010
                        NOSIG=
201901281920 METAR COR EGLL 281920Z AUTO 28007KT 9999 NCD 02/M03 Q1010
                        NOSIG=
201901281850 METAR COR EGLL 281850Z AUTO 27004KT 9999 NCD 01/M04 Q1010
                        NOSIG=
201901281820 METAR COR EGLL 281820Z AUTO 29003KT 9999 NCD 02/M05 Q1010
                        NOSIG=
201901281750 METAR COR EGLL 281750Z AUTO 29005KT 9999 NCD 04/M05 Q1010
                        NOSIG=
201901281720 METAR EGLL 281720Z AUTO 30004KT 9999 NCD 04/M06 Q1009=
201901281650 METAR EGLL 281650Z AUTO 31004KT 9999 NCD 05/M06 Q1009=
201901281620 METAR EGLL 281620Z AUTO 32007KT 280V350 9999 NCD 05/M07 Q1009=
201901281550 METAR COR EGLL 281550Z AUTO 32008KT 9999 NCD 05/M07 Q1009
                        NOSIG=
201901281520 METAR COR EGLL 281520Z AUTO 31011KT 9999 NCD 06/M06 Q1008
                        NOSIG=
201901281450 METAR COR EGLL 281450Z AUTO 31010KT 280V010 9999 NCD 06/M05
                        Q1008 NOSIG=
201901281420 METAR COR EGLL 281420Z AUTO 31009KT 9999 NCD 06/M04 Q1008
                        NOSIG=
201901281350 METAR COR EGLL 281350Z AUTO 33009KT 310V020 9999 FEW040 06/M03
                        Q1008 NOSIG=
201901281320 METAR COR EGLL 281320Z AUTO 31010KT 290V350 9999 NCD 05/M03
                        Q1008 NOSIG=
201901281250 METAR COR EGLL 281250Z AUTO 32009KT 290V010 9999 NCD 05/M02
                        Q1007 NOSIG=
201901281220 METAR COR EGLL 281220Z AUTO 32007KT 290V360 9999 NCD 05/M02
                        Q1007 NOSIG=
201901281150 METAR COR EGLL 281150Z AUTO 34008KT 300V020 9999 NCD 05/M02
                        Q1007 NOSIG=
201901281120 METAR COR EGLL 281120Z AUTO 31009KT 9999 NCD 05/M02 Q1007
                        NOSIG=
201901281050 METAR COR EGLL 281050Z AUTO 31009KT 9999 NCD 04/M02 Q1006
                        NOSIG=
201901281020 METAR COR EGLL 281020Z AUTO 31011KT 280V350 9999 NCD 04/M02
                        Q1006 NOSIG=
201901280950 METAR COR EGLL 280950Z AUTO 31010KT 9999 NCD 03/M02 Q1005
                        NOSIG=
201901280920 METAR COR EGLL 280920Z AUTO 31009KT 9999 NCD 02/M02 Q1005
                        NOSIG=
201901280850 METAR COR EGLL 280850Z AUTO 30008KT 9999 NCD 02/M02 Q1004
                        NOSIG=
201901280820 METAR COR EGLL 280820Z AUTO 30008KT 9999 NCD 02/M02 Q1004
                        NOSIG=
201901280750 METAR COR EGLL 280750Z AUTO 30008KT 9999 NCD 02/M02 Q1003
                        NOSIG=
201901280720 METAR COR EGLL 280720Z AUTO 30009KT 9999 NCD 02/M02 Q1003
                        NOSIG=
201901280650 METAR COR EGLL 280650Z AUTO 31007KT 9999 NCD 02/M02 Q1003
                        NOSIG=
201901280620 METAR COR EGLL 280620Z AUTO 30008KT 9999 NCD 02/M02 Q1002
                        NOSIG=
201901280550 METAR COR EGLL 280550Z AUTO 30009KT 9999 NCD 02/M02 Q1002
                        NOSIG=
201901280520 METAR COR EGLL 280520Z AUTO 30008KT 9999 NCD 02/M01 Q1002
                        NOSIG=
201901280450 METAR COR EGLL 280450Z AUTO 30008KT 9999 NCD 02/M01 Q1002
                        NOSIG=
201901280420 METAR COR EGLL 280420Z AUTO 29007KT 9999 NCD 02/M01 Q1002
                        NOSIG=
201901280350 METAR COR EGLL 280350Z AUTO 30006KT 9999 NCD 02/M02 Q1001
                        NOSIG=
201901280320 METAR COR EGLL 280320Z AUTO 29010KT 9999 NCD 02/M01 Q1001
                        NOSIG=
201901280250 METAR COR EGLL 280250Z AUTO 29009KT 9999 NCD 02/M01 Q1001
                        NOSIG=
201901280220 METAR COR EGLL 280220Z AUTO 29009KT 9999 NCD 03/M01 Q1000
                        NOSIG=
201901280150 METAR COR EGLL 280150Z AUTO 30009KT 9999 NCD 03/M02 Q1000
                        NOSIG=
201901280120 METAR COR EGLL 280120Z AUTO 30010KT 9999 NCD 03/M02 Q1000
                        NOSIG=
201901280050 METAR COR EGLL 280050Z AUTO 29011KT 9999 NCD 03/M02 Q1000
                        NOSIG=
201901280020 METAR COR EGLL 280020Z AUTO 29013KT 9999 NCD 03/M02 Q1000
                        NOSIG=
201901272350 METAR COR EGLL 272350Z AUTO 29013KT 9999 NCD 03/M02 Q0999
                        NOSIG=
201901272320 METAR COR EGLL 272320Z AUTO 29013KT 9999 NCD 03/M02 Q0999
                        NOSIG=
201901272250 METAR COR EGLL 272250Z AUTO 29013KT 9999 NCD 03/M02 Q0999
                        NOSIG=
201901272220 METAR COR EGLL 272220Z AUTO 28011KT 9999 NCD 03/M02 Q0999
                        NOSIG=
201901272150 METAR COR EGLL 272150Z AUTO 29013KT 9999 NCD 03/M02 Q0998
                        NOSIG=
201901272120 METAR COR EGLL 272120Z AUTO 29012KT 9999 NCD 04/M02 Q0998
                        NOSIG=
201901272050 METAR COR EGLL 272050Z AUTO 29013KT 9999 NCD 04/M02 Q0998
                        NOSIG=
201901272020 METAR COR EGLL 272020Z AUTO 29016KT 9999 SCT047 05/M02 Q0998
                        NOSIG=
201901271950 METAR COR EGLL 271950Z AUTO 29015KT 9999 BKN047 05/M02 Q0997
                        NOSIG=
201901271920 METAR COR EGLL 271920Z AUTO 29016G26KT 9999 BKN047 05/M01
                        Q0997 NOSIG=
201901271850 METAR COR EGLL 271850Z AUTO 30015G25KT 9999 BKN046 06/M01
                        Q0997 NOSIG=
201901271820 METAR COR EGLL 271820Z AUTO 29015KT 9999 BKN045 06/M01 Q0997
                        NOSIG=
201901271750 METAR COR EGLL 271750Z AUTO 30016KT 9999 NCD 06/M01 Q0997
                        NOSIG=
201901271720 METAR COR EGLL 271720Z AUTO 29017G27KT 9999 OVC046 06/M01
                        Q0996 NOSIG=
201901271650 METAR COR EGLL 271650Z AUTO 29017G27KT 9999 -RA BKN037 06/M00
                        Q0996 NOSIG=
201901271620 METAR COR EGLL 271620Z AUTO 30016G26KT 9999 BKN049 06/00
                        Q0996 NOSIG=
201901271550 METAR COR EGLL 271550Z AUTO 29018G34KT 9999 BKN049 06/00
                        Q0995 NOSIG=
201901271520 METAR COR EGLL 271520Z AUTO 30014G24KT 9999 FEW040 06/01
                        Q0995 NOSIG=
201901271450 METAR COR EGLL 271450Z AUTO 29017KT 9999 NCD 06/02 Q0994
                        NOSIG=
201901271420 METAR COR EGLL 271420Z AUTO 29018KT 9999 -RA SCT027/// BKN038///
                        //////TCU 06/02 Q0994 NOSIG=
201901271350 METAR COR EGLL 271350Z AUTO 29012KT 9999 -RA SCT027/// BKN034///
                        BKN044/// //////TCU 06/02 Q0994 RERA
                        TEMPO 4000 SHRA=
201901271320 METAR COR EGLL 271320Z AUTO 30013G26KT 5000 -RA SCT023///
                        BKN032/// BKN039/// //////TCU 06/01
                        Q0994 RESHRA TEMPO 4000 RA=
201901271250 METAR COR EGLL 271250Z AUTO 30012G22KT 280V340 9999 FEW029
                        SCT035 BKN041 06/01 Q0994 NOSIG=
201901271220 METAR COR EGLL 271220Z AUTO 30014G24KT 9999 BKN038 07/00
                        Q0994 NOSIG=
201901271150 METAR COR EGLL 271150Z AUTO 30015G26KT 9999 BKN036 07/00
                        Q0993 NOSIG=
201901271120 METAR COR EGLL 271120Z AUTO 30016KT 9999 SCT033 BKN043 BKN049
                        07/01 Q0993 NOSIG=
201901271050 METAR COR EGLL 271050Z AUTO 31014KT 9999 NCD 06/01 Q0993
                        NOSIG=
201901271020 METAR COR EGLL 271020Z AUTO 31014G24KT 9999 FEW029 06/01
                        Q0993 NOSIG=
201901270950 METAR COR EGLL 270950Z AUTO 31010KT 290V350 9999 NCD 05/01
                        Q0992 NOSIG=
201901270920 METAR COR EGLL 270920Z AUTO 31011KT 280V350 9999 NCD 05/01
                        Q0992 NOSIG=
201901270850 METAR COR EGLL 270850Z AUTO 31012KT 9999 NCD 04/01 Q0991
                        NOSIG=
201901270820 METAR COR EGLL 270820Z AUTO 31010KT 280V340 9999 NCD 04/01
                        Q0991 RESG NOSIG=
201901270750 METAR COR EGLL 270750Z AUTO 32012G25KT 290V010 9999 -RA SCT018///
                        BKN023/// //////TCU 04/02 Q0990 TEMPO
                        4000 RA BKN014=
201901270720 METAR COR EGLL 270720Z AUTO 33011G26KT 300V360 9999 -RA SCT017
                        BKN022 04/02 Q0989 TEMPO 4000 RA
                        BKN014=
201901270650 METAR COR EGLL 270650Z AUTO 33012KT 300V360 9999 -RA BKN017
                        BKN028 05/03 Q0988 TEMPO 4000 RA
                        BKN014=
201901270620 METAR COR EGLL 270620Z AUTO 33011G21KT 310V010 9000 -RA SCT014///
                        BKN018/// BKN024/// //////TCU 06/04
                        Q0987 TEMPO 4000 RA BKN010=
201901270550 METAR COR EGLL 270550Z AUTO 30010KT 4900 HZ SCT015/// BKN020///
                        OVC030/// //////TCU 07/05 Q0986 TEMPO
                        RA BKN010=
201901270520 METAR COR EGLL 270520Z AUTO 30008KT 9999 BKN016 BKN032 BKN044
                        07/05 Q0985 TEMPO 4000 RA BKN010=
201901270450 METAR COR EGLL 270450Z AUTO 30006KT 9999 BKN013/// OVC025///
                        //////TCU 07/05 Q0985 TEMPO 4000
                        SHRA RA=
201901270420 METAR COR EGLL 270420Z AUTO 30009KT 9999 -RA FEW018/// BKN022///
                        OVC045/// //////CB 07/05 Q0984 TEMPO
                        4000 SHRA BKN010=
201901270350 METAR COR EGLL 270350Z AUTO 26011KT 9999 -RA SCT015/// BKN019///
                        OVC042/// //////CB 07/05 Q0984 TEMPO
                        4000 SHRA BKN010=
201901270320 METAR COR EGLL 270320Z AUTO 25009KT 9999 FEW013 BKN018 BKN023
                        07/06 Q0984 TEMPO 4000 SHRA BKN012=
201901270250 METAR COR EGLL 270250Z AUTO 24008KT 9999 SCT017 SCT026 BKN049
                        07/05 Q0984 TEMPO 4000 SHRA BKN010=
201901270220 METAR COR EGLL 270220Z AUTO 24009KT 9999 SCT026 BKN045 07/06
                        Q0984 TEMPO 4000 SHRA BKN010=
201901270150 METAR COR EGLL 270150Z AUTO 23011KT 9999 FEW019/// SCT029///
                        BKN041/// //////TCU 07/06 Q0984 TEMPO
                        4000 SHRA BKN010=
201901270120 METAR COR EGLL 270120Z AUTO 23010KT 9999 -RA BKN019/// BKN029///
                        OVC049/// //////TCU 08/05 Q0985 TEMPO
                        4000 SHRA BKN010=
201901270050 METAR COR EGLL 270050Z AUTO 24012KT 9999 BKN029 BKN037 BKN045
                        08/05 Q0985 TEMPO 4000 SHRA BKN010=
201901270020 METAR COR EGLL 270020Z AUTO 23013KT 9999 SCT033 BKN044 08/05
                        Q0985 TEMPO 4000 SHRA BKN010=
201901262350 METAR COR EGLL 262350Z AUTO 22013KT 9999 BKN038 08/05 Q0986
                        NOSIG=
201901262320 METAR COR EGLL 262320Z AUTO 22010KT 9999 FEW032 BKN038 08/05
                        Q0986 TEMPO SHRA=
201901262250 METAR COR EGLL 262250Z AUTO 22012KT 9999 BKN030 08/05 Q0986
                        NOSIG=
201901262220 METAR COR EGLL 262220Z AUTO 22014KT 9999 SCT037 08/05 Q0987
                        TEMPO SHRA=
201901262150 METAR COR EGLL 262150Z AUTO 22012KT 9999 BKN038 08/05 Q0988
                        NOSIG=
201901262120 METAR COR EGLL 262120Z AUTO 23012KT 190V250 9999 BKN036 BKN043
                        08/05 Q0988 NOSIG=
201901262050 METAR COR EGLL 262050Z AUTO 23017KT 9999 FEW027 BKN038 08/06
                        Q0989 NOSIG=
201901262020 METAR COR EGLL 262020Z AUTO 23018KT 9999 BKN037/// //////TCU
                        09/06 Q0990 NOSIG=
201901261950 METAR COR EGLL 261950Z AUTO 22010KT 9999 BKN036 09/07 Q0990
                        NOSIG=
201901261920 METAR EGLL 261920Z AUTO 22012KT 9999 NCD 08/06 Q0991=
201901261850 METAR COR EGLL 261850Z 24016KT 9999 -RA FEW032 SCT043 09/06
                        Q0991 RERA NOSIG=
201901261820 METAR COR EGLL 261820Z 23015KT 5000 RA SCT011 BKN025 BKN038
                        09/07 Q0992 BECMG NSW=
201901261750 METAR COR EGLL 261750Z AUTO 21015KT 9999 -RA SCT013/// BKN027///
                        BKN047/// //////TCU 09/08 Q0993 TEMPO
                        4000 RA BKN013=
201901261720 METAR COR EGLL 261720Z AUTO 21013KT 8000 -RA BKN009 OVC016
                        09/08 Q0994 TEMPO 4000 RA=
201901261650 METAR COR EGLL 261650Z AUTO 21013KT 6000 -RA SCT011 OVC016
                        09/07 Q0995 TEMPO 4000 BKN011=
201901261620 METAR COR EGLL 261620Z AUTO 21014G24KT 9000 -RA SCT014 BKN019
                        BKN030 09/07 Q0996 TEMPO BKN014=
201901261550 METAR COR EGLL 261550Z AUTO 22012G22KT 9999 -RA SCT018 BKN023
                        BKN045 10/07 Q0997 NOSIG=
201901261520 METAR COR EGLL 261520Z AUTO 23015KT 9999 SCT023 BKN039 10/06
                        Q0998 NOSIG=
201901261450 METAR COR EGLL 261450Z AUTO 23014KT 9999 FEW023 BKN041 10/07
                        Q0999 NOSIG=
201901261420 METAR COR EGLL 261420Z AUTO 23016KT 9999 SCT018 BKN025 BKN031
                        10/07 Q1000 TEMPO BKN014=
201901261350 METAR EGLL 261350Z AUTO 22015KT 9999 BKN020 OVC028 10/06
                        Q1001=
201901261320 METAR COR EGLL 261320Z AUTO 22011KT 9999 SCT022 BKN026 10/06
                        Q1002 TEMPO BKN014=
201901261250 METAR COR EGLL 261250Z AUTO 23014KT 9999 SCT020 SCT026 BKN040
                        10/06 Q1003 TEMPO BKN014=
201901261220 METAR COR EGLL 261220Z AUTO 23013KT 9999 SCT017 BKN022 OVC036
                        10/06 Q1004 NOSIG=
201901261150 METAR COR EGLL 261150Z AUTO 23015KT 9999 BKN016 BKN028 09/06
                        Q1004 TEMPO BKN014=
201901261120 METAR COR EGLL 261120Z AUTO 23014KT 9999 BKN012 OVC030 09/06
                        Q1005 NOSIG=
201901261050 METAR COR EGLL 261050Z AUTO 23014KT 9999 SCT014 SCT023 OVC036
                        09/06 Q1006 TEMPO BKN014=
201901261020 METAR COR EGLL 261020Z AUTO 23013KT 9999 BKN014 08/06 Q1007
                        TEMPO BKN015=
201901260950 METAR COR EGLL 260950Z AUTO 23013KT 9999 BKN015 08/05 Q1007
                        NOSIG=
201901260920 METAR COR EGLL 260920Z AUTO 23012KT 9999 BKN018 BKN033 08/05
                        Q1008 NOSIG=
201901260850 METAR COR EGLL 260850Z AUTO 23011KT 9999 OVC033 08/05 Q1008
                        NOSIG=
201901260820 METAR COR EGLL 260820Z AUTO 23011KT 9999 OVC033 08/05 Q1008
                        NOSIG=
201901260750 METAR COR EGLL 260750Z AUTO 24012KT 9999 OVC031 08/05 Q1008
                        NOSIG=
201901260720 METAR COR EGLL 260720Z AUTO 23011KT 9999 FEW016 SCT028 OVC033
                        08/05 Q1009 NOSIG=
201901260650 METAR COR EGLL 260650Z AUTO 22009KT 9999 FEW027 BKN032 OVC042
                        08/06 Q1009 NOSIG=
201901260620 METAR COR EGLL 260620Z AUTO 22010KT 190V250 9999 OVC035 08/05
                        Q1009 NOSIG=
201901260550 METAR COR EGLL 260550Z AUTO 23009KT 9999 BKN029 OVC034 08/06
                        Q1010 NOSIG=
201901260520 METAR COR EGLL 260520Z AUTO 23009KT 9999 BKN026 OVC032 08/06
                        Q1010 NOSIG=
201901260450 METAR COR EGLL 260450Z AUTO 23008KT 9999 FEW014 SCT018 OVC024
                        08/06 Q1011 NOSIG=
201901260420 METAR COR EGLL 260420Z AUTO 23009KT 9999 OVC025 08/06 Q1011
                        NOSIG=
201901260350 METAR COR EGLL 260350Z AUTO 23010KT 9999 BKN020 OVC027 08/07
                        Q1011 NOSIG=
201901260320 METAR COR EGLL 260320Z AUTO 23006KT 9999 BKN015 OVC026 08/06
                        Q1012 NOSIG=
201901260250 METAR COR EGLL 260250Z AUTO 23007KT 9999 BKN022 OVC028 07/06
                        Q1012 NOSIG=
201901260220 METAR COR EGLL 260220Z AUTO 26004KT 7000 FEW008 SCT017 BKN023
                        07/06 Q1013 NOSIG=
201901260150 METAR COR EGLL 260150Z 26008KT 6000 SCT008 07/06 Q1013 NOSIG=
201901260120 METAR COR EGLL 260120Z 24006KT 6000 FEW007 06/06 Q1013 NOSIG=
201901260050 METAR COR EGLL 260050Z AUTO 27006KT 5000 HZ SCT007 06/06
                        Q1013 NOSIG=
201901260020 METAR COR EGLL 260020Z AUTO 25007KT 6000 NCD 07/06 Q1013
                        TEMPO BKN008=
201901252350 METAR COR EGLL 252350Z AUTO 24008KT 7000 NCD 07/06 Q1013
                        NOSIG=
201901252320 METAR COR EGLL 252320Z AUTO 25007KT 9999 NCD 07/06 Q1014
                        NOSIG=
201901252250 METAR COR EGLL 252250Z AUTO 25008KT 9999 NCD 08/06 Q1014
                        NOSIG=
201901252220 METAR COR EGLL 252220Z AUTO 25010KT 9999 NCD 08/06 Q1014
                        NOSIG=
201901252150 METAR COR EGLL 252150Z AUTO 26012KT 9999 NCD 08/06 Q1014
                        NOSIG=
201901252120 METAR COR EGLL 252120Z AUTO 27011KT 9999 NCD 08/06 Q1014
                        NOSIG=
201901252050 METAR COR EGLL 252050Z AUTO 29012KT 9999 NCD 09/06 Q1014
                        NOSIG=
201901252020 METAR COR EGLL 252020Z AUTO 27008KT 9999 NCD 08/06 Q1014
                        NOSIG=
201901251950 METAR COR EGLL 251950Z AUTO 27008KT 9999 NCD 08/06 Q1014
                        NOSIG=
201901251920 METAR COR EGLL 251920Z AUTO 27007KT 9999 FEW049 08/06 Q1014
                        NOSIG=
201901251850 METAR COR EGLL 251850Z AUTO 28009KT 9999 NCD 09/06 Q1014
                        NOSIG=
201901251820 METAR COR EGLL 251820Z AUTO 28009KT 9999 NCD 09/06 Q1014
                        NOSIG=
201901251750 METAR COR EGLL 251750Z AUTO 27010KT 9999 NCD 10/07 Q1014
                        NOSIG=
201901251720 METAR COR EGLL 251720Z AUTO 28010KT 9999 NCD 10/07 Q1014
                        NOSIG=
201901251650 METAR COR EGLL 251650Z AUTO 28010KT 9999 NCD 11/08 Q1014
                        NOSIG=
201901251620 METAR COR EGLL 251620Z AUTO 28010KT 9999 NCD 11/08 Q1014
                        NOSIG=
201901251550 METAR COR EGLL 251550Z AUTO 28011KT 9999 NCD 11/08 Q1013
                        NOSIG=
201901251520 METAR COR EGLL 251520Z AUTO 28011KT 9999 NCD 11/09 Q1013
                        NOSIG=
201901251450 METAR COR EGLL 251450Z AUTO 28010KT 9999 SCT019 BKN049 12/09
                        Q1013 NOSIG=
201901251420 METAR COR EGLL 251420Z AUTO 27009KT 9999 BKN018 12/09 Q1013
                        NOSIG=
201901251350 METAR COR EGLL 251350Z AUTO 28009KT 9999 BKN017 BKN021 12/09
                        Q1013 NOSIG=
201901251320 METAR COR EGLL 251320Z AUTO 28010KT 9999 SCT017 12/09 Q1013
                        NOSIG=
201901251250 METAR COR EGLL 251250Z AUTO 28010KT 9999 NCD 12/09 Q1013
                        NOSIG=
201901251220 METAR COR EGLL 251220Z AUTO 29009KT 9999 NCD 11/09 Q1013
                        NOSIG=
201901251150 METAR COR EGLL 251150Z AUTO 28008KT 9999 NCD 11/09 Q1013
                        NOSIG=
201901251120 METAR COR EGLL 251120Z AUTO 27009KT 8000 FEW009 10/08 Q1013
                        NOSIG=
201901251050 METAR COR EGLL 251050Z AUTO 25008KT 5000 BR BKN005 BKN009
                        08/08 Q1013 NOSIG=
201901251020 METAR COR EGLL 251020Z AUTO 25008KT 3800 BR BKN004 OVC007
                        07/07 Q1014 NOSIG=
201901250950 METAR COR EGLL 250950Z AUTO 26008KT 3000 BR BKN003 OVC011
                        06/06 Q1014 BECMG SCT003 BKN005=
201901250920 METAR COR EGLL 250920Z AUTO 24007KT 2700 BR OVC004 06/05
                        Q1014 NOSIG=
201901250850 METAR COR EGLL 250850Z AUTO 23007KT 3200 BR OVC005 05/05
                        Q1014 TEMPO BKN004=
201901250820 METAR EGLL 250820Z AUTO 22006KT 2400 -DZ OVC004 05/04 Q1014
                        REDZ=
201901250750 METAR COR EGLL 250750Z AUTO 22007KT 2300 -RADZ OVC003 04/04
                        Q1014 REDZ NOSIG=
201901250720 METAR COR EGLL 250720Z AUTO 23007KT 1300 R27R/P1500 R27L/P1500
                        -RADZ BKN003 OVC007 04/04 Q1013 TEMPO
                        4000 BR=
201901250650 METAR COR EGLL 250650Z 21006KT 180V240 1800 BR SCT002 OVC003
                        04/04 Q1013 TEMPO 4000=
201901250620 METAR COR EGLL 250620Z 21006KT 190V320 1500 -RADZ BKN002
                        OVC006 04/04 Q1013 NOSIG=
201901250550 METAR COR EGLL 250550Z 20006KT 1500 -RADZ BKN002 BKN006 OVC012
                        04/03 Q1014 REDZ TEMPO SCT002 BKN006=
201901250520 METAR COR EGLL 250520Z AUTO 20005KT 1400 R27L/P1500 DZ BKN002
                        BKN008 OVC012 04/03 Q1014 TEMPO 2000
                        BR SCT002 BKN008=
201901250450 METAR COR EGLL 250450Z 19005KT 2200 -RADZ FEW009 BKN012 04/03
                        Q1014 REDZ TEMPO DZ BKN006=
201901250420 METAR COR EGLL 250420Z AUTO 17004KT 3400 -RA BKN019 OVC024
                        04/03 Q1014 BECMG 2000 BKN014=
201901250350 METAR COR EGLL 250350Z AUTO 19003KT 3500 BR SCT025 BKN036
                        BKN044 04/03 Q1014 BECMG BKN012=
201901250320 METAR COR EGLL 250320Z AUTO 22003KT 4000 BR FEW009 SCT027
                        03/03 Q1014 BECMG BKN010=
201901250250 METAR COR EGLL 250250Z AUTO 20003KT 3900 BR BKN009 03/03
                        Q1014 TEMPO 2500=
201901250220 METAR COR EGLL 250220Z AUTO 20003KT 4100 BR OVC010 03/03
                        Q1014 TEMPO 2500=
201901250150 METAR COR EGLL 250150Z AUTO 18003KT 3100 BR BKN011 03/03
                        Q1014 TEMPO 2500=
201901250120 METAR COR EGLL 250120Z AUTO 22002KT 3900 BR BKN011 OVC017
                        03/03 Q1015 TEMPO 2500=
201901250050 METAR COR EGLL 250050Z AUTO VRB01KT 4200 HZ OVC011 03/03
                        Q1014 TEMPO 2500 BR=
201901250020 METAR COR EGLL 250020Z AUTO 20002KT 4300 HZ BKN012 03/03
                        Q1014 TEMPO 5000=
201901242350 METAR COR EGLL 242350Z AUTO 25001KT 5000 HZ BKN012 04/03
                        Q1015 TEMPO 4000 BR=
201901242320 METAR COR EGLL 242320Z AUTO VRB02KT 6000 BKN012 04/03 Q1015
                        NOSIG=
201901242250 METAR COR EGLL 242250Z AUTO 24005KT 6000 BKN012 04/03 Q1014
                        NOSIG=
201901242220 METAR COR EGLL 242220Z AUTO VRB01KT 9999 BKN012 05/02 Q1014
                        NOSIG=
201901242150 METAR COR EGLL 242150Z AUTO VRB02KT 9000 OVC013 05/03 Q1014
                        NOSIG=
201901242120 METAR COR EGLL 242120Z AUTO VRB02KT 8000 OVC013 05/03 Q1014
                        NOSIG=
201901242050 METAR COR EGLL 242050Z AUTO VRB02KT 7000 BKN012 OVC018 05/03
                        Q1014 TEMPO BKN008=
201901242020 METAR COR EGLL 242020Z AUTO 30004KT 9999 OVC012 05/03 Q1014
                        TEMPO BKN008=
201901241950 METAR COR EGLL 241950Z AUTO VRB02KT 6000 OVC013 04/03 Q1014
                        TEMPO BKN008=
201901241920 METAR COR EGLL 241920Z AUTO 01001KT 7000 OVC012 04/03 Q1013
                        TEMPO BKN008=
201901241850 METAR EGLL 241850Z AUTO VRB01KT 8000 OVC008 04/03 Q1013=
201901241820 METAR COR EGLL 241820Z AUTO VRB03KT 8000 OVC007 04/03 Q1013
                        NOSIG=
201901241750 METAR COR EGLL 241750Z AUTO 31003KT 8000 BKN008 04/03 Q1013
                        BECMG SCT008=
201901241720 METAR COR EGLL 241720Z AUTO 28005KT 8000 NCD 04/03 Q1012
                        NOSIG=
201901241650 METAR COR EGLL 241650Z AUTO 30003KT 8000 FEW011 04/02 Q1012
                        NOSIG=
201901241620 METAR COR EGLL 241620Z AUTO VRB03KT 8000 SCT012 SCT041 04/02
                        Q1012 NOSIG=
201901241550 METAR COR EGLL 241550Z AUTO 25006KT 220V290 9999 BKN013 04/02
                        Q1011 BECMG SCT013=
201901241520 METAR COR EGLL 241520Z AUTO 28004KT 9999 BKN014 04/02 Q1011
                        TEMPO SCT014 BKN018=
201901241450 METAR COR EGLL 241450Z AUTO VRB02KT 9000 BKN017/// OVC021///
                        04/02 Q1011 NOSIG=
201901241420 METAR EGLL 241420Z AUTO VRB02KT 8000 BKN015/// OVC028///
                        03/02 Q1011=
201901241350 METAR COR EGLL 241350Z AUTO 28005KT 9000 BKN017 BKN022 OVC041
                        03/02 Q1011 TEMPO BKN014=
201901241320 METAR COR EGLL 241320Z AUTO 25005KT 220V290 9000 BKN019 OVC028
                        03/01 Q1011 NOSIG=
201901241250 METAR COR EGLL 241250Z AUTO 27004KT 9000 BKN023 OVC044 03/01
                        Q1011 NOSIG=
201901241220 METAR COR EGLL 241220Z AUTO VRB03KT 9000 -RA BKN025 OVC036
                        03/01 Q1011 NOSIG=
201901241150 METAR COR EGLL 241150Z AUTO VRB02KT 7000 SCT026 OVC035 03/00
                        Q1012 NOSIG=
201901241120 METAR COR EGLL 241120Z AUTO VRB01KT 8000 SCT027/// OVC037///
                        //////TCU 02/00 Q1012 NOSIG=
201901241050 METAR COR EGLL 241050Z AUTO VRB02KT 8000 SCT029 BKN036 OVC043
                        01/M00 Q1011 TEMPO 4500 -RASN BKN014=
201901241020 METAR COR EGLL 241020Z 25005KT 220V300 7000 FEW019 BKN032
                        01/M00 Q1011 TEMPO 4500 -RASN BKN014=
201901240950 METAR COR EGLL 240950Z 23005KT 7000 SCT019 BKN024 00/M01
                        Q1011 TEMPO 4500 -RASN BKN014=
201901240920 METAR COR EGLL 240920Z AUTO 24004KT 6000 FEW027 BKN032 00/M01
                        Q1011 TEMPO -SN -FZRA=
201901240850 METAR COR EGLL 240850Z AUTO VRB03KT 5000 BR NCD M00/M01 Q1011
                        TEMPO -FZRA=
201901240820 METAR COR EGLL 240820Z AUTO 20004KT 150V230 4200 BR NCD M01/M02
                        Q1010 TEMPO -FZRA=
201901240750 METAR COR EGLL 240750Z AUTO VRB01KT 4200 BR SCT036 M01/M02
                        Q1011 TEMPO -FZRA=
201901240720 METAR COR EGLL 240720Z AUTO VRB02KT 3700 BR NCD M02/M02 Q1010
                        NOSIG=
201901240650 METAR COR EGLL 240650Z AUTO VRB03KT 3400 BR NCD M03/M03 Q1010
                        NOSIG=
201901240620 METAR COR EGLL 240620Z VRB03KT 4000 BR NSC M02/M02 Q1010
                        NOSIG=
201901240550 METAR COR EGLL 240550Z 19001KT 3000 BR NSC M02/M02 Q1010
                        NOSIG=
201901240520 METAR COR EGLL 240520Z AUTO VRB02KT 2400 BR NCD M02/M02 Q1010
                        NOSIG=
201901240450 METAR COR EGLL 240450Z AUTO 16001KT 2700 BR NCD M02/M02 Q1010
                        NOSIG=
201901240420 METAR COR EGLL 240420Z AUTO 17002KT 2200 BR NCD M02/M02 Q1010
                        NOSIG=
201901240350 METAR COR EGLL 240350Z AUTO 21002KT 2200 BR NCD M02/M02 Q1010
                        NOSIG=
201901240320 METAR COR EGLL 240320Z AUTO VRB02KT 3700 BR NCD M02/M02 Q1010
                        NOSIG=
201901240250 METAR EGLL 240250Z AUTO VRB01KT 2000 BR NCD M02/M03 Q1010=
201901240220 METAR COR EGLL 240220Z 28003KT 3500 BR NSC M02/M02 Q1010
                        NOSIG=
201901240150 METAR COR EGLL 240150Z 28001KT 3500 BR NSC M02/M02 Q1010
                        NOSIG=
201901240120 METAR COR EGLL 240120Z 28004KT 4000 BR NSC M02/M03 Q1010
                        TEMPO 2500=
201901240050 METAR COR EGLL 240050Z 29003KT 4000 BR NSC M02/M02 Q1010
                        TEMPO 2500=
201901240020 METAR COR EGLL 240020Z 27003KT 5000 HZ NSC M01/M02 Q1010
                        BECMG 4000 BR=
201901232350 METAR COR EGLL 232350Z AUTO 27004KT 5000 HZ NCD M01/M02 Q1009
                        BECMG 4000 BR=
201901232320 METAR EGLL 232320Z AUTO 29003KT 5000 HZ NCD M01/M02 Q1009=
201901232250 METAR COR EGLL 232250Z AUTO 30002KT 7000 NCD M00/M02 Q1009
                        NOSIG=
201901232220 METAR COR EGLL 232220Z AUTO 30003KT 8000 NCD M00/M02 Q1009
                        NOSIG=
201901232150 METAR COR EGLL 232150Z AUTO VRB02KT 8000 NCD 01/M02 Q1008
                        NOSIG=
201901232120 METAR COR EGLL 232120Z AUTO 31002KT 9000 NCD M00/M02 Q1008
                        NOSIG=
201901232050 METAR COR EGLL 232050Z AUTO 30002KT 9999 NCD 00/M02 Q1008
                        NOSIG=
201901232020 METAR COR EGLL 232020Z AUTO 30002KT 9000 NCD 01/M01 Q1008
                        NOSIG=
201901231950 METAR COR EGLL 231950Z AUTO 31003KT 9999 NCD 01/M02 Q1007
                        NOSIG=
201901231920 METAR COR EGLL 231920Z AUTO 29003KT 9999 NCD 01/M01 Q1007
                        NOSIG=
201901231850 METAR COR EGLL 231850Z AUTO VRB02KT 9999 NCD 01/M01 Q1007
                        NOSIG=
201901231820 METAR COR EGLL 231820Z AUTO 31004KT 9999 NCD 02/M01 Q1007
                        NOSIG=
201901231750 METAR COR EGLL 231750Z AUTO 30004KT 9999 NCD 02/M01 Q1007
                        NOSIG=
201901231720 METAR COR EGLL 231720Z AUTO 31004KT 9999 NCD 02/M01 Q1006
                        NOSIG=
201901231650 METAR COR EGLL 231650Z AUTO 30003KT 9999 NCD 02/M01 Q1006
                        NOSIG=
201901231620 METAR COR EGLL 231620Z AUTO 30003KT 9999 NCD 02/M00 Q1006
                        NOSIG=
201901231550 METAR COR EGLL 231550Z AUTO 32004KT 9999 FEW020 03/M00 Q1005
                        NOSIG=
201901231520 METAR COR EGLL 231520Z AUTO 33005KT 300V020 9999 SCT019 03/M01
                        Q1005 NOSIG=
201901231450 METAR COR EGLL 231450Z AUTO 33006KT 300V020 9999 BKN016 BKN024
                        04/M00 Q1004 NOSIG=
201901231420 METAR COR EGLL 231420Z AUTO 34005KT 280V020 9999 FEW016 03/M00
                        Q1004 NOSIG=
201901231350 METAR COR EGLL 231350Z AUTO 32007KT 280V360 9999 FEW026 03/M00
                        Q1004 NOSIG=
201901231320 METAR COR EGLL 231320Z AUTO 31006KT 280V010 9999 SCT015 BKN020
                        03/00 Q1003 NOSIG=
201901231250 METAR COR EGLL 231250Z AUTO 34005KT 310V040 9999 BKN013 OVC018
                        03/00 Q1003 NOSIG=
201901231220 METAR COR EGLL 231220Z AUTO 35005KT 300V040 9999 BKN013 OVC018
                        02/M00 Q1003 TEMPO SCT013 BKN018=
201901231150 METAR COR EGLL 231150Z AUTO 33005KT 300V030 9999 OVC013 02/M00
                        Q1003 BECMG SCT012 BKN018=
201901231120 METAR COR EGLL 231120Z AUTO 33005KT 300V040 9999 OVC013 02/M00
                        Q1003 BECMG SCT012 BKN018=
201901231050 METAR COR EGLL 231050Z AUTO 32007KT 280V350 9999 BKN013 BKN017
                        02/00 Q1003 BECMG SCT012 BKN018=
201901231020 METAR COR EGLL 231020Z AUTO 32004KT 290V020 9999 BKN013 02/00
                        Q1002 BECMG SCT012 BKN018=
201901230950 METAR COR EGLL 230950Z AUTO 31005KT 8000 BKN013 OVC023 02/00
                        Q1002 TEMPO BKN018=
201901230920 METAR COR EGLL 230920Z AUTO 34005KT 290V030 9000 BKN012 OVC019
                        02/00 Q1001 TEMPO BKN018=
201901230850 METAR COR EGLL 230850Z AUTO 32004KT 280V360 9000 BKN014 BKN018
                        02/M00 Q1001 TEMPO BKN018=
201901230820 METAR COR EGLL 230820Z AUTO 31004KT 250V350 9000 SCT014 BKN019
                        01/M00 Q1000 TEMPO BKN014=
201901230750 METAR COR EGLL 230750Z AUTO 34004KT 290V020 9999 BKN010 OVC020
                        02/M00 Q1000 NOSIG=
201901230720 METAR COR EGLL 230720Z AUTO 35005KT 300V030 8000 OVC010 01/00
                        Q1000 NOSIG=
201901230650 METAR COR EGLL 230650Z AUTO 32004KT 260V350 7000 BKN008 OVC017
                        01/00 Q0999 NOSIG=
201901230620 METAR COR EGLL 230620Z AUTO 36005KT 300V040 8000 BKN008 OVC013
                        01/M00 Q0999 NOSIG=
201901230550 METAR COR EGLL 230550Z AUTO 32007KT 300V010 9000 OVC007 01/M00
                        Q0998 NOSIG=
201901230520 METAR COR EGLL 230520Z AUTO 35005KT 320V030 8000 BKN010 01/M00
                        Q0998 TEMPO BKN008=
201901230450 METAR COR EGLL 230450Z AUTO 31004KT 270V350 7000 BKN008 01/00
                        Q0998 NOSIG=
201901230420 METAR COR EGLL 230420Z AUTO 33005KT 300V050 7000 BKN008 01/M00
                        Q0998 NOSIG=
201901230350 METAR COR EGLL 230350Z AUTO VRB03KT 9000 OVC009 01/M00 Q0997
                        NOSIG=
201901230320 METAR COR EGLL 230320Z AUTO VRB03KT 9000 OVC009 01/00 Q0997
                        NOSIG=
201901230250 METAR COR EGLL 230250Z AUTO VRB03KT 8000 BKN009 01/00 Q0997
                        NOSIG=
201901230220 METAR COR EGLL 230220Z AUTO VRB03KT 8000 OVC010 01/M00 Q0998
                        TEMPO BKN008=
201901230150 METAR COR EGLL 230150Z 33004KT 280V030 9999 OVC009 01/00
                        Q0997 NOSIG=
201901230120 METAR COR EGLL 230120Z 31005KT 7000 BKN009 01/00 Q0997 NOSIG=
201901230050 METAR COR EGLL 230050Z VRB03KT 7000 BKN009 01/00 Q0997 TEMPO
                        4000 BR FEW009=
201901230020 METAR COR EGLL 230020Z VRB03KT 8000 BKN008 01/00 Q0997 TEMPO
                        3000 BR FEW008=
201901222350 METAR COR EGLL 222350Z 30005KT 5000 BR SCT003 BKN008 01/00
                        Q0997 TEMPO 2000 BKN003=
201901222320 METAR COR EGLL 222320Z 30006KT 0900 R27L/P1500 R27R/1400
                        FG BKN002 00/00 Q0997 TEMPO 1500
                        BR=
201901222250 METAR COR EGLL 222250Z 29005KT 0400 R27L/P1500 R27R/P1500
                        FG BKN001 01/00 Q0997 TEMPO 1200
                        VCFG=
201901222220 METAR COR EGLL 222220Z 30004KT 6000 FEW005 01/00 Q0997 TEMPO
                        3000 BR BKN004=
201901222150 METAR COR EGLL 222150Z 29005KT 7000 FEW027 01/01 Q0997 TEMPO
                        3000 BR=
201901222120 METAR COR EGLL 222120Z 31004KT 6000 FEW004 BKN016 OVC049
                        02/01 Q0997 TEMPO 3000 BR BKN004=
201901222050 METAR COR EGLL 222050Z 31002KT 5000 BR SCT030 BKN041 02/01
                        Q0997 TEMPO 3000=
201901222020 METAR COR EGLL 222020Z VRB03KT 7000 SCT008 BKN014 OVC035
                        01/01 Q0998 TEMPO BKN006=
201901221950 METAR COR EGLL 221950Z 29004KT 9000 SCT008 BKN017 01/01 Q0998
                        TEMPO -SHSN BKN006=
201901221920 METAR COR EGLL 221920Z AUTO VRB01KT 8000 SCT006 BKN012 BKN028
                        01/01 Q0998 TEMPO 6000 -SHSN BKN006=
201901221850 METAR COR EGLL 221850Z 05001KT 7000 -SHRASN BKN005 BKN009
                        01/01 Q0998 BECMG 9999 NSW BKN025=
201901221820 METAR COR EGLL 221820Z VRB03KT 4000 -SHSN SCT004 BKN006 01/00
                        Q0998 RESHSN BECMG 9999 NSW BKN025=
201901221750 METAR COR EGLL 221750Z VRB02KT 1500 SHSN SCT004 BKN006 BKN012
                        01/00 Q0999 RESHSN TEMPO 5000 -SHSN
                        BKN008=
201901221720 METAR COR EGLL 221720Z VRB02KT 5000 -SHRASN SCT006 BKN014
                        01/00 Q0999 TEMPO 3000 SHSN BKN008=
201901221650 METAR COR EGLL 221650Z VRB02KT 4500 -SHRASN SCT007 BKN012
                        BKN020 01/00 Q0999 TEMPO BKN008=
201901221620 METAR COR EGLL 221620Z VRB01KT 9999 -SHRASN FEW006 SCT014
                        BKN040 01/00 Q0999 RESHSN TEMPO 6000
                        -SHRASN BKN008=
201901221550 METAR COR EGLL 221550Z VRB02KT 1600 SHSN BKN006 BKN012 BKN025
                        02/00 Q1000 TEMPO 3000 -SHRASN SCT006
                        BKN008=
201901221520 METAR COR EGLL 221520Z 25009KT 2500 -SHSN SCT006 BKN012 BKN025
                        02/00 Q1000 TEMPO 1500 SHSN BKN006=
201901221450 METAR COR EGLL 221450Z AUTO 23008KT 9999 FEW035/// BKN044///
                        //////TCU 05/01 Q1000 TEMPO 6000
                        -SHRASN=
201901221420 METAR COR EGLL 221420Z AUTO 23006KT 9999 NCD 05/01 Q1000
                        TEMPO 6000 -SHRASN=
201901221350 METAR COR EGLL 221350Z 24007KT 9999 FEW020 05/00 Q1001 NOSIG=
201901221320 METAR COR EGLL 221320Z AUTO 26008KT 9999 NCD 05/01 Q1001
                        TEMPO 6000 -SHRASN=
201901221250 METAR COR EGLL 221250Z AUTO 26009KT 9999 NCD 06/01 Q1002
                        NOSIG=
201901221220 METAR COR EGLL 221220Z AUTO 27008KT 9999 NCD 06/02 Q1002
                        NOSIG=
201901221150 METAR COR EGLL 221150Z AUTO 27010KT 9999 NCD 05/02 Q1003
                        NOSIG=
201901221120 METAR COR EGLL 221120Z AUTO 27009KT 9999 NCD 05/02 Q1003
                        NOSIG=
201901221050 METAR COR EGLL 221050Z AUTO 27009KT 9999 NCD 04/02 Q1003
                        NOSIG=
201901221020 METAR COR EGLL 221020Z AUTO 26009KT 9999 NCD 03/01 Q1003
                        NOSIG=
201901220950 METAR COR EGLL 220950Z AUTO 25008KT 9999 NCD 03/01 Q1004
                        NOSIG=
201901220920 METAR COR EGLL 220920Z AUTO 24008KT 9999 NCD 02/01 Q1004
                        NOSIG=
201901220850 METAR COR EGLL 220850Z AUTO 27007KT 9999 NCD 02/00 Q1004
                        NOSIG=
201901220820 METAR COR EGLL 220820Z AUTO 25008KT 9999 NCD 02/01 Q1003
                        NOSIG=
201901220750 METAR COR EGLL 220750Z AUTO 26007KT 9999 NCD 02/01 Q1004
                        NOSIG=
201901220720 METAR COR EGLL 220720Z AUTO 26006KT 9999 NCD 02/00 Q1004
                        NOSIG=
201901220650 METAR COR EGLL 220650Z AUTO 25007KT 9999 NCD 03/01 Q1004
                        NOSIG=
201901220620 METAR COR EGLL 220620Z AUTO 25008KT 9999 NCD 03/01 Q1004
                        NOSIG=
201901220550 METAR COR EGLL 220550Z AUTO 25008KT 9999 NCD 03/02 Q1004
                        NOSIG=
201901220520 METAR COR EGLL 220520Z AUTO 27009KT 9999 NCD 03/02 Q1004
                        NOSIG=
201901220450 METAR COR EGLL 220450Z AUTO 27007KT 9999 NCD 04/02 Q1004
                        NOSIG=
201901220420 METAR COR EGLL 220420Z AUTO 28008KT 9999 NCD 04/03 Q1004
                        NOSIG=
201901220350 METAR COR EGLL 220350Z AUTO 28010KT 9999 NCD 05/03 Q1004
                        NOSIG=
201901220320 METAR EGLL 220320Z AUTO 24009KT 9999 FEW027/// //////TCU
                        05/04 Q1004=
201901220250 METAR COR EGLL 220250Z AUTO 24011KT 9999 -RA SCT020/// BKN026///
                        //////TCU 06/04 Q1004 NOSIG=
201901220220 METAR COR EGLL 220220Z AUTO 24011KT 9999 -RA SCT017/// BKN022///
                        BKN028/// //////TCU 06/05 Q1005 NOSIG=
201901220150 METAR COR EGLL 220150Z AUTO 21010KT 6000 -RA FEW011/// BKN016///
                        BKN022/// //////CB 06/05 Q1005 RERA
                        TEMPO 4000 RA BKN010=
201901220120 METAR COR EGLL 220120Z AUTO 19010KT 5000 -RA SCT010 BKN017
                        BKN022 06/05 Q1006 RERA TEMPO 4000
                        RA BKN010=
201901220050 METAR COR EGLL 220050Z AUTO 18009KT 7000 -RA BKN012/// OVC030///
                        //////TCU 06/05 Q1007 RERA TEMPO
                        4000 RA=
201901220020 METAR COR EGLL 220020Z AUTO 17011KT 7000 -RA SCT013 BKN020
                        BKN025 06/04 Q1008 TEMPO 4000 RA
                        BKN012=
201901212350 METAR COR EGLL 212350Z AUTO 17011KT 9999 -RA SCT021 BKN025
                        OVC038 06/04 Q1009 TEMPO 4000 RA=
201901212320 METAR COR EGLL 212320Z AUTO 17010KT 9999 SCT015 BKN027 BKN042
                        05/03 Q1010 TEMPO 4000 RA BKN012=
201901212250 METAR COR EGLL 212250Z AUTO 18012KT 160V220 9999 -RA SCT014
                        BKN022 BKN030 05/03 Q1010 TEMPO RA
                        BKN012=
201901212220 METAR COR EGLL 212220Z AUTO 18012KT 160V230 9999 FEW023 SCT028
                        BKN044 05/03 Q1011 TEMPO RA=
201901212150 METAR COR EGLL 212150Z AUTO 18012KT 160V240 9999 -RA SCT024
                        BKN029 BKN034 05/02 Q1012 NOSIG=
201901212120 METAR COR EGLL 212120Z AUTO 19010KT 170V240 9999 FEW027 BKN037
                        05/02 Q1013 NOSIG=
201901212050 METAR COR EGLL 212050Z AUTO 20010KT 170V240 9999 BKN035 OVC044
                        04/02 Q1014 NOSIG=
201901212020 METAR COR EGLL 212020Z AUTO 20009KT 180V250 9000 OVC041 04/02
                        Q1014 NOSIG=
201901211950 METAR COR EGLL 211950Z AUTO 20008KT 180V240 8000 NCD 04/01
                        Q1015 NOSIG=
201901211920 METAR COR EGLL 211920Z AUTO 18007KT 150V230 8000 NCD 03/01
                        Q1016 NOSIG=
201901211850 METAR COR EGLL 211850Z AUTO 19006KT 120V240 8000 FEW048 03/01
                        Q1016 NOSIG=
201901211820 METAR COR EGLL 211820Z AUTO 20007KT 170V250 9999 NCD 04/01
                        Q1017 NOSIG=
201901211750 METAR COR EGLL 211750Z AUTO 22007KT 180V240 9999 SCT031 SCT045
                        04/00 Q1018 NOSIG=
201901211720 METAR COR EGLL 211720Z AUTO 22008KT 9999 OVC026 04/00 Q1018
                        NOSIG=
201901211650 METAR COR EGLL 211650Z AUTO 23011KT 9999 OVC025 05/M00 Q1019
                        NOSIG=
201901211620 METAR COR EGLL 211620Z AUTO 25011KT 9999 OVC024 05/M00 Q1019
                        NOSIG=
201901211550 METAR COR EGLL 211550Z AUTO 24010KT 9999 OVC025 05/M00 Q1019
                        NOSIG=
201901211520 METAR COR EGLL 211520Z AUTO 24009KT 9999 OVC027 05/M00 Q1020
                        NOSIG=
201901211450 METAR COR EGLL 211450Z AUTO 23009KT 9999 OVC027 05/M00 Q1020
                        NOSIG=
201901211420 METAR COR EGLL 211420Z AUTO 21007KT 9999 BKN026 OVC030 05/M00
                        Q1021 NOSIG=
201901211350 METAR COR EGLL 211350Z AUTO 24006KT 190V260 9999 BKN027 05/M00
                        Q1021 NOSIG=
201901211320 METAR COR EGLL 211320Z AUTO 23006KT 8000 BKN029 06/02 Q1022
                        NOSIG=
201901211250 METAR COR EGLL 211250Z AUTO 23004KT 5000 HZ OVC030 04/02
                        Q1022 NOSIG=
201901211220 METAR COR EGLL 211220Z AUTO 22004KT 170V240 4800 HZ OVC030
                        04/02 Q1023 TEMPO 5000=
201901211150 METAR COR EGLL 211150Z AUTO 20004KT 170V250 4600 HZ OVC031
                        03/02 Q1023 TEMPO 5000=
201901211120 METAR COR EGLL 211120Z AUTO 21005KT 170V250 4600 HZ OVC031
                        03/01 Q1024 BECMG 6000 NSW=
201901211050 METAR COR EGLL 211050Z AUTO 23004KT 190V260 4600 HZ OVC030
                        02/01 Q1024 BECMG 5000=
201901211020 METAR COR EGLL 211020Z AUTO 24005KT 210V280 5000 HZ OVC030
                        02/00 Q1025 TEMPO 4000=
201901210950 METAR COR EGLL 210950Z AUTO 23005KT 190V260 5000 HZ OVC030
                        01/M00 Q1025 NOSIG=
201901210920 METAR COR EGLL 210920Z AUTO VRB03KT 5000 HZ OVC029 01/M00
                        Q1025 NOSIG=
201901210850 METAR COR EGLL 210850Z AUTO VRB01KT 6000 BKN029 OVC034 01/M00
                        Q1024 NOSIG=
201901210820 METAR COR EGLL 210820Z AUTO VRB03KT 4500 BR OVC030 M00/M01
                        Q1024 BECMG 5000=
201901210750 METAR COR EGLL 210750Z AUTO VRB03KT 4600 BR BKN030 M01/M01
                        Q1025 BECMG 5000=
201901210720 METAR COR EGLL 210720Z AUTO 18004KT 4000 BR BKN029 M02/M02
                        Q1025 NOSIG=
201901210650 METAR COR EGLL 210650Z AUTO 17004KT 140V260 4500 BR FEW031
                        M02/M02 Q1025 NOSIG=
201901210620 METAR COR EGLL 210620Z AUTO 16005KT 3800 BR SCT010 BKN032
                        M02/M03 Q1025 TEMPO BKN010=
201901210550 METAR COR EGLL 210550Z AUTO 15004KT 120V190 4000 BR SCT010
                        OVC032 M01/M02 Q1025 NOSIG=
201901210520 METAR COR EGLL 210520Z AUTO VRB03KT 3700 BR BKN010 BKN034
                        M02/M02 Q1024 TEMPO SCT010=
201901210450 METAR COR EGLL 210450Z AUTO VRB03KT 3800 BR BKN010 M01/M02
                        Q1024 TEMPO BKN009=
201901210420 METAR COR EGLL 210420Z AUTO 16003KT 3800 BR BKN010 M02/M02
                        Q1024 NOSIG=
201901210350 METAR COR EGLL 210350Z AUTO 18002KT 4100 HZ BKN013 M01/M02
                        Q1024 NOSIG=
201901210320 METAR COR EGLL 210320Z AUTO 33001KT 5000 HZ BKN012 M01/M02
                        Q1024 TEMPO 4000 SCT012=
201901210250 METAR COR EGLL 210250Z AUTO 10001KT 4200 HZ BKN012 BKN034
                        M01/M02 Q1025 TEMPO SCT012=
201901210220 METAR COR EGLL 210220Z AUTO VRB01KT 4500 HZ BKN013 BKN035
                        M02/M03 Q1025 TEMPO 5000 SCT013=
201901210150 METAR COR EGLL 210150Z AUTO VRB02KT 2800 HZ FEW014 SCT034
                        M02/M03 Q1025 TEMPO 5000=
201901210120 METAR COR EGLL 210120Z AUTO 28001KT 4300 HZ NCD M01/M02 Q1024
                        TEMPO 5000=
201901210050 METAR COR EGLL 210050Z AUTO 28001KT 3900 HZ NCD M02/M03 Q1024
                        NOSIG=
201901210020 METAR COR EGLL 210020Z AUTO VRB01KT 4500 HZ NCD M01/M02 Q1024
                        NOSIG=
201901202350 METAR COR EGLL 202350Z AUTO 35001KT 6000 FEW035 M00/M02 Q1024
                        BECMG 5000 HZ=
201901202320 METAR COR EGLL 202320Z AUTO VRB02KT 6000 FEW035 00/M02 Q1024
                        NOSIG=
201901202250 METAR COR EGLL 202250Z AUTO 02002KT 7000 BKN035 00/M02 Q1024
                        NOSIG=
201901202220 METAR COR EGLL 202220Z AUTO VRB02KT 7000 BKN035 01/M01 Q1024
                        NOSIG=
201901202150 METAR COR EGLL 202150Z AUTO 35003KT 6000 FEW035 01/M02 Q1024
                        NOSIG=
201901202120 METAR COR EGLL 202120Z AUTO 33003KT 7000 BKN029 BKN035 01/M01
                        Q1023 NOSIG=
201901202050 METAR COR EGLL 202050Z AUTO 33003KT 7000 NCD 02/M01 Q1023
                        NOSIG=
201901202020 METAR COR EGLL 202020Z AUTO 33003KT 8000 NCD 01/M02 Q1023
                        NOSIG=
201901201950 METAR COR EGLL 201950Z AUTO 04001KT 9000 NCD 02/M01 Q1023
                        NOSIG=
201901201920 METAR COR EGLL 201920Z AUTO VRB02KT 9999 NCD 01/M01 Q1022
                        NOSIG=
201901201850 METAR COR EGLL 201850Z AUTO 36002KT 9999 NCD 02/M01 Q1022
                        NOSIG=
201901201820 METAR COR EGLL 201820Z AUTO 01003KT 9999 NCD 01/M02 Q1022
                        NOSIG=
201901201750 METAR COR EGLL 201750Z AUTO 04003KT 9999 NCD 02/M01 Q1021
                        NOSIG=
201901201720 METAR COR EGLL 201720Z AUTO VRB03KT 9999 NCD 02/M02 Q1021
                        NOSIG=
201901201650 METAR COR EGLL 201650Z AUTO VRB03KT 9999 NCD 03/M02 Q1021
                        NOSIG=
201901201620 METAR COR EGLL 201620Z AUTO 01004KT 340V050 9999 NCD 04/M02
                        Q1020 NOSIG=
201901201550 METAR COR EGLL 201550Z AUTO 35005KT 320V050 9999 NCD 05/M02
                        Q1020 NOSIG=
201901201520 METAR COR EGLL 201520Z AUTO 36005KT 320V030 9999 NCD 05/M02
                        Q1019 NOSIG=
201901201450 METAR COR EGLL 201450Z AUTO 35005KT 290V040 9999 NCD 05/M02
                        Q1019 NOSIG=
201901201420 METAR COR EGLL 201420Z AUTO 03006KT 310V070 9999 NCD 05/M02
                        Q1019 NOSIG=
201901201350 METAR COR EGLL 201350Z AUTO VRB03KT 9999 NCD 05/M01 Q1019
                        NOSIG=
201901201320 METAR COR EGLL 201320Z AUTO 03004KT 350V080 9999 NCD 05/M01
                        Q1019 NOSIG=
201901201250 METAR COR EGLL 201250Z AUTO 05004KT 340V100 9999 NCD 05/M00
                        Q1019 NOSIG=
201901201220 METAR COR EGLL 201220Z AUTO 06004KT 020V100 9999 NCD 05/M00
                        Q1018 NOSIG=
201901201150 METAR COR EGLL 201150Z AUTO 02004KT 320V090 9999 NCD 04/00
                        Q1018 NOSIG=
201901201120 METAR COR EGLL 201120Z AUTO VRB03KT 9999 NCD 04/00 Q1018
                        NOSIG=
201901201050 METAR COR EGLL 201050Z AUTO VRB02KT 9999 NCD 03/00 Q1018
                        NOSIG=
201901201020 METAR COR EGLL 201020Z AUTO 35004KT 320V030 9000 NCD 02/M00
                        Q1018 NOSIG=
201901200950 METAR COR EGLL 200950Z AUTO VRB03KT 9000 BKN023 02/M00 Q1017
                        NOSIG=
201901200920 METAR COR EGLL 200920Z AUTO 34003KT 8000 BKN023 02/M00 Q1017
                        NOSIG=
201901200850 METAR COR EGLL 200850Z AUTO 35003KT 9000 OVC021 02/M00 Q1016
                        NOSIG=
201901200820 METAR COR EGLL 200820Z AUTO VRB02KT 9999 OVC020 02/M01 Q1016
                        NOSIG=
201901200750 METAR COR EGLL 200750Z AUTO 05002KT 9999 OVC019 01/M00 Q1015
                        NOSIG=
201901200720 METAR COR EGLL 200720Z AUTO VRB01KT 9999 BKN016 OVC022 01/M00
                        Q1015 NOSIG=
201901200650 METAR COR EGLL 200650Z AUTO 06002KT 8000 OVC015 01/M00 Q1015
                        NOSIG=
201901200620 METAR COR EGLL 200620Z AUTO 04003KT 8000 OVC014 01/M00 Q1014
                        TEMPO SCT014=
201901200550 METAR COR EGLL 200550Z AUTO VRB02KT 8000 OVC012 01/M00 Q1014
                        NOSIG=
201901200520 METAR COR EGLL 200520Z AUTO VRB03KT 7000 BKN011 M00/M01 Q1014
                        TEMPO SCT011=
201901200450 METAR COR EGLL 200450Z AUTO 08004KT 030V100 7000 FEW013 M01/M02
                        Q1013 TEMPO BKN013=
201901200420 METAR COR EGLL 200420Z AUTO 04003KT 8000 NCD M01/M01 Q1013
                        NOSIG=
201901200350 METAR COR EGLL 200350Z AUTO 04002KT 8000 NCD M01/M02 Q1013
                        NOSIG=
201901200320 METAR COR EGLL 200320Z AUTO 02002KT 9000 NCD M01/M02 Q1013
                        NOSIG=
201901200250 METAR COR EGLL 200250Z AUTO 01002KT 9000 NCD M00/M01 Q1013
                        NOSIG=
201901200220 METAR COR EGLL 200220Z AUTO VRB02KT 9999 NCD M00/M01 Q1013
                        NOSIG=
201901200150 METAR EGLL 200150Z AUTO 04003KT 9999 NCD M00/M02 Q1012=
201901200120 METAR EGLL 200120Z AUTO 03003KT 9999 NCD 01/M01 Q1012=
201901200050 METAR COR EGLL 200050Z AUTO 04003KT 9999 NCD 01/M00 Q1012
                        NOSIG=
201901200020 METAR COR EGLL 200020Z AUTO 04004KT 9999 FEW017 01/M00 Q1012
                        NOSIG=
201901192350 METAR COR EGLL 192350Z AUTO 04003KT 9999 BKN017 02/M00 Q1011
                        NOSIG=
201901192320 METAR COR EGLL 192320Z AUTO 06002KT 9999 SCT017 02/M00 Q1011
                        NOSIG=
201901192250 METAR COR EGLL 192250Z AUTO 09003KT 9999 SCT018 03/M00 Q1011
                        NOSIG=
201901192220 METAR COR EGLL 192220Z AUTO 11004KT 9999 BKN017 03/00 Q1011
                        NOSIG=
201901192150 METAR COR EGLL 192150Z AUTO 12006KT 9999 OVC016 04/01 Q1011
                        NOSIG=
201901192120 METAR COR EGLL 192120Z AUTO 12007KT 9999 OVC016 04/02 Q1010
                        NOSIG=
201901192050 METAR COR EGLL 192050Z AUTO 11006KT 9999 OVC014 04/02 Q1010
                        NOSIG=
201901192020 METAR COR EGLL 192020Z AUTO 11008KT 9999 OVC013 04/02 Q1010
                        NOSIG=
201901191950 METAR COR EGLL 191950Z AUTO 10008KT 9999 OVC013 04/02 Q1010
                        NOSIG=
201901191920 METAR COR EGLL 191920Z AUTO 11008KT 9999 BKN013 OVC020 04/02
                        Q1010 TEMPO SCT013=
201901191850 METAR COR EGLL 191850Z AUTO 10006KT 9999 OVC016 05/03 Q1009
                        TEMPO BKN012=
201901191820 METAR COR EGLL 191820Z AUTO 10008KT 9000 SCT011 OVC017 05/03
                        Q1009 TEMPO BKN010=
201901191750 METAR COR EGLL 191750Z AUTO 11009KT 6000 OVC010 05/03 Q1009
                        NOSIG=
201901191720 METAR COR EGLL 191720Z AUTO 10008KT 7000 BKN009 OVC013 05/04
                        Q1009 NOSIG=
201901191650 METAR COR EGLL 191650Z AUTO 12007KT 8000 OVC009 05/04 Q1009
                        TEMPO 4000 -DZ=
201901191620 METAR COR EGLL 191620Z AUTO 12008KT 9999 OVC009 05/04 Q1008
                        TEMPO 4000 -DZ BKN006=
201901191550 METAR COR EGLL 191550Z AUTO 12007KT 9999 BKN008 OVC013 05/04
                        Q1008 TEMPO 4000 -DZ BKN006=
201901191520 METAR COR EGLL 191520Z AUTO 11006KT 7000 BKN005 OVC010 05/04
                        Q1008 TEMPO 4000 BR=
201901191450 METAR COR EGLL 191450Z AUTO 11007KT 4400 HZ BKN006 OVC010
                        05/04 Q1008 TEMPO 6000 BKN010=
201901191420 METAR COR EGLL 191420Z AUTO 12009KT 9999 OVC009 05/04 Q1008
                        NOSIG=
201901191350 METAR COR EGLL 191350Z AUTO 11008KT 9999 OVC010 05/03 Q1008
                        NOSIG=
201901191320 METAR COR EGLL 191320Z AUTO 12008KT 9999 OVC011 05/03 Q1008
                        NOSIG=
201901191250 METAR COR EGLL 191250Z AUTO 12009KT 9999 BKN011 OVC016 05/03
                        Q1008 NOSIG=
201901191220 METAR COR EGLL 191220Z AUTO 11010KT 9999 BKN010 OVC016 05/03
                        Q1009 NOSIG=
201901191150 METAR COR EGLL 191150Z AUTO 12010KT 9999 BKN010 OVC037 05/03
                        Q1009 NOSIG=
201901191120 METAR COR EGLL 191120Z AUTO 12010KT 9999 OVC010 05/03 Q1009
                        NOSIG=
201901191050 METAR COR EGLL 191050Z AUTO 12011KT 9999 OVC010 04/02 Q1009
                        TEMPO BKN006=
201901191020 METAR COR EGLL 191020Z AUTO 12011KT 9999 BKN011 OVC019 04/02
                        Q1009 TEMPO BKN006=
201901190950 METAR COR EGLL 190950Z AUTO 12010KT 9999 BKN011 OVC039 04/02
                        Q1009 TEMPO BKN006=
201901190920 METAR COR EGLL 190920Z AUTO 12011KT 9999 OVC011 04/02 Q1009
                        TEMPO BKN006=
201901190850 METAR COR EGLL 190850Z AUTO 12011KT 9999 BKN011 OVC045 04/02
                        Q1009 TEMPO BKN006=
201901190820 METAR COR EGLL 190820Z AUTO 11010KT 9999 BKN011 OVC049 03/02
                        Q1009 TEMPO BKN006=
201901190750 METAR COR EGLL 190750Z AUTO 13009KT 9999 BKN012 OVC047 04/01
                        Q1009 NOSIG=
201901190720 METAR COR EGLL 190720Z AUTO 14009KT 9999 SCT014 BKN019 BKN025
                        04/01 Q1009 TEMPO BKN014=
201901190650 METAR COR EGLL 190650Z AUTO 12009KT 9999 BKN014 BKN028 OVC036
                        04/01 Q1009 NOSIG=
201901190620 METAR COR EGLL 190620Z AUTO 13010KT 9999 SCT015 BKN024 BKN029
                        04/01 Q1009 NOSIG=
201901190550 METAR COR EGLL 190550Z AUTO 13009KT 9999 FEW015 SCT025 BKN032
                        04/00 Q1009 TEMPO BKN014=
201901190520 METAR COR EGLL 190520Z AUTO 13009KT 9999 BKN015 04/00 Q1009
                        NOSIG=
201901190450 METAR COR EGLL 190450Z AUTO 13010KT 9999 OVC018 04/00 Q1010
                        TEMPO BKN010=
201901190420 METAR COR EGLL 190420Z AUTO 13010KT 9999 BKN020/// //////TCU
                        04/00 Q1010 TEMPO BKN010=
201901190350 METAR COR EGLL 190350Z AUTO 14008KT 110V170 9999 -RA BKN022///
                        BKN032/// //////TCU 04/00 Q1010 TEMPO
                        BKN010=
201901190320 METAR COR EGLL 190320Z AUTO 14008KT 9999 -RA BKN021/// //////TCU
                        04/00 Q1010 TEMPO BKN010=
201901190250 METAR COR EGLL 190250Z AUTO 14009KT 9999 -RA SCT022 BKN048
                        03/M00 Q1011 NOSIG=
201901190220 METAR COR EGLL 190220Z AUTO 14009KT 9999 NCD 03/M00 Q1011
                        NOSIG=
201901190150 METAR COR EGLL 190150Z AUTO 11006KT 9999 //////TCU 03/M01
                        Q1011 NOSIG=
201901190120 METAR COR EGLL 190120Z AUTO 13006KT 9999 NCD 03/M01 Q1011
                        NOSIG=
201901190050 METAR COR EGLL 190050Z AUTO 13007KT 9999 NCD 03/M01 Q1011
                        NOSIG=
201901190020 METAR COR EGLL 190020Z AUTO 14007KT 100V270 9999 NCD 03/M01
                        Q1012 NOSIG=
201901182350 METAR COR EGLL 182350Z AUTO 13008KT 9999 NCD 03/M01 Q1012
                        NOSIG=
201901182320 METAR COR EGLL 182320Z AUTO 13008KT 9999 NCD 03/M01 Q1012
                        NOSIG=
201901182250 METAR COR EGLL 182250Z AUTO 13009KT 9999 NCD 03/M01 Q1012
                        NOSIG=
201901182220 METAR COR EGLL 182220Z AUTO 13009KT 9999 NCD 03/M01 Q1012
                        NOSIG=
201901182150 METAR COR EGLL 182150Z AUTO 13008KT 9999 NCD 03/M01 Q1013
                        NOSIG=
201901182120 METAR COR EGLL 182120Z AUTO 13008KT 9999 NCD 03/M01 Q1013
                        NOSIG=
201901182050 METAR COR EGLL 182050Z AUTO 13007KT 9999 NCD 03/M01 Q1013
                        NOSIG=
201901182020 METAR COR EGLL 182020Z AUTO 13007KT 110V170 9999 NCD 04/M01
                        Q1013 NOSIG=
201901181950 METAR COR EGLL 181950Z AUTO 13008KT 090V170 9999 NCD 03/M01
                        Q1013 NOSIG=
201901181920 METAR COR EGLL 181920Z AUTO 14008KT 9999 NCD 04/M01 Q1013
                        NOSIG=
201901181850 METAR COR EGLL 181850Z AUTO 14009KT 9999 NCD 04/M01 Q1013
                        NOSIG=
201901181820 METAR COR EGLL 181820Z AUTO 14009KT 110V170 9999 NCD 04/M01
                        Q1013 NOSIG=
201901181750 METAR COR EGLL 181750Z AUTO 14010KT 9999 NCD 05/M00 Q1013
                        NOSIG=
201901181720 METAR COR EGLL 181720Z AUTO 15010KT 100V170 9999 NCD 05/M00
                        Q1014 NOSIG=
201901181650 METAR COR EGLL 181650Z AUTO 15010KT 130V190 9999 NCD 05/M00
                        Q1014 NOSIG=
201901181620 METAR COR EGLL 181620Z AUTO 17010KT 140V220 9999 NCD 05/M01
                        Q1014 NOSIG=
201901181550 METAR COR EGLL 181550Z AUTO 17010KT 9999 NCD 06/M01 Q1014
                        NOSIG=
201901181520 METAR COR EGLL 181520Z AUTO 18013KT 160V220 9999 FEW036 06/M01
                        Q1014 NOSIG=
201901181450 METAR COR EGLL 181450Z AUTO 17011KT 140V230 9999 SCT035 07/M00
                        Q1015 NOSIG=
201901181420 METAR COR EGLL 181420Z AUTO 17010KT 140V240 9999 FEW037 06/M01
                        Q1015 NOSIG=
201901181350 METAR COR EGLL 181350Z AUTO 18013KT 140V220 9999 SCT037 06/M01
                        Q1015 NOSIG=
201901181320 METAR COR EGLL 181320Z AUTO 18012KT 160V230 9999 FEW037 06/M00
                        Q1015 NOSIG=
201901181250 METAR COR EGLL 181250Z AUTO 17009KT 140V230 9999 NCD 06/01
                        Q1016 NOSIG=
201901181220 METAR COR EGLL 181220Z AUTO 16009KT 130V240 9999 SCT031 06/00
                        Q1016 NOSIG=
201901181150 METAR COR EGLL 181150Z AUTO 17007KT 130V230 9999 FEW034 05/M00
                        Q1016 NOSIG=
201901181120 METAR COR EGLL 181120Z AUTO 15005KT 090V230 9999 NCD 04/M00
                        Q1017 NOSIG=
201901181050 METAR COR EGLL 181050Z AUTO 16005KT 110V220 9999 NCD 03/M01
                        Q1017 NOSIG=
201901181020 METAR COR EGLL 181020Z AUTO 14005KT 100V220 9999 NCD 03/M01
                        Q1017 NOSIG=
201901180950 METAR COR EGLL 180950Z AUTO 14006KT 100V250 9999 NCD 01/M01
                        Q1018 NOSIG=
201901180920 METAR COR EGLL 180920Z AUTO 13006KT 9999 NCD 00/M02 Q1018
                        NOSIG=
201901180850 METAR COR EGLL 180850Z AUTO 14005KT 110V200 9999 NCD M01/M02
                        Q1018 NOSIG=
201901180820 METAR COR EGLL 180820Z AUTO VRB03KT 9999 NCD M01/M03 Q1018
                        NOSIG=
201901180750 METAR COR EGLL 180750Z AUTO 18004KT 130V240 9999 NCD M01/M02
                        Q1018 NOSIG=
201901180720 METAR COR EGLL 180720Z AUTO VRB03KT 9999 NCD M01/M02 Q1018
                        NOSIG=
201901180650 METAR COR EGLL 180650Z AUTO VRB02KT 9999 NCD M01/M02 Q1018
                        NOSIG=
201901180620 METAR COR EGLL 180620Z AUTO VRB03KT 9999 NCD M01/M03 Q1018
                        NOSIG=
201901180550 METAR COR EGLL 180550Z AUTO 16002KT 9999 NCD M01/M02 Q1018
                        NOSIG=
201901180520 METAR COR EGLL 180520Z AUTO VRB03KT 9999 NCD M00/M02 Q1018
                        NOSIG=
201901180450 METAR COR EGLL 180450Z AUTO VRB03KT 9999 NCD M01/M02 Q1018
                        NOSIG=
201901180420 METAR COR EGLL 180420Z AUTO 17002KT 9999 NCD M01/M02 Q1019
                        NOSIG=
201901180350 METAR COR EGLL 180350Z AUTO 14002KT 9999 NCD M01/M02 Q1019
                        NOSIG=
201901180320 METAR COR EGLL 180320Z AUTO VRB02KT 9999 NCD M01/M02 Q1019
                        NOSIG=
201901180250 METAR COR EGLL 180250Z AUTO VRB02KT 9999 NCD M00/M02 Q1019
                        NOSIG=
201901180220 METAR COR EGLL 180220Z AUTO 18003KT 9999 NCD M00/M02 Q1019
                        NOSIG=
201901180150 METAR COR EGLL 180150Z AUTO 21001KT 9999 NCD M00/M02 Q1019
                        NOSIG=
201901180120 METAR COR EGLL 180120Z AUTO 23004KT 9999 NCD 00/M02 Q1019
                        NOSIG=
201901180050 METAR COR EGLL 180050Z AUTO 18003KT 9999 NCD M00/M02 Q1019
                        NOSIG=
201901180020 METAR COR EGLL 180020Z AUTO 25003KT 9999 NCD 01/M02 Q1019
                        NOSIG=
201901172350 METAR COR EGLL 172350Z AUTO 27005KT 9999 NCD 00/M03 Q1019
                        NOSIG=
201901172320 METAR COR EGLL 172320Z AUTO 26005KT 9999 NCD 01/M03 Q1019
                        NOSIG=
201901172250 METAR COR EGLL 172250Z AUTO 27004KT 9999 NCD 01/M03 Q1019
                        NOSIG=
201901172220 METAR COR EGLL 172220Z AUTO 26005KT 9999 NCD 01/M03 Q1019
                        NOSIG=
201901172150 METAR COR EGLL 172150Z AUTO 30003KT 9999 NCD 02/M03 Q1019
                        NOSIG=
201901172120 METAR COR EGLL 172120Z AUTO 30002KT 9999 NCD 03/M03 Q1019
                        NOSIG=
201901172050 METAR COR EGLL 172050Z AUTO 31005KT 9999 NCD 03/M03 Q1018
                        NOSIG=
201901172020 METAR COR EGLL 172020Z AUTO 29004KT 9999 NCD 03/M03 Q1018
                        NOSIG=
201901171950 METAR COR EGLL 171950Z AUTO 26006KT 9999 NCD 02/M03 Q1018
                        NOSIG=
201901171920 METAR COR EGLL 171920Z AUTO 28006KT 9999 NCD 03/M03 Q1018
                        NOSIG=
201901171850 METAR COR EGLL 171850Z AUTO VRB03KT 9999 NCD 04/M03 Q1017
                        NOSIG=
201901171820 METAR COR EGLL 171820Z AUTO 30004KT 9999 NCD 03/M03 Q1017
                        NOSIG=
201901171750 METAR COR EGLL 171750Z AUTO 29005KT 9999 NCD 03/M03 Q1017
                        NOSIG=
201901171720 METAR COR EGLL 171720Z AUTO 29006KT 9999 NCD 04/M03 Q1017
                        NOSIG=
201901171650 METAR COR EGLL 171650Z AUTO 30006KT 9999 NCD 04/M03 Q1016
                        NOSIG=
201901171620 METAR COR EGLL 171620Z AUTO 30007KT 9999 NCD 04/M03 Q1016
                        NOSIG=
201901171550 METAR COR EGLL 171550Z AUTO 31007KT 280V350 9999 NCD 05/M04
                        Q1015 NOSIG=
201901171520 METAR COR EGLL 171520Z AUTO 32010KT 290V350 9999 NCD 05/M04
                        Q1015 NOSIG=
201901171450 METAR COR EGLL 171450Z AUTO 31009KT 280V340 9999 NCD 05/M04
                        Q1014 NOSIG=
201901171420 METAR COR EGLL 171420Z AUTO 31008KT 280V350 9999 NCD 05/M03
                        Q1014 NOSIG=
201901171350 METAR COR EGLL 171350Z AUTO 31010KT 9999 NCD 05/M03 Q1014
                        NOSIG=
201901171320 METAR COR EGLL 171320Z AUTO 33011KT 290V010 9999 NCD 05/M03
                        Q1014 NOSIG=
201901171250 METAR COR EGLL 171250Z AUTO 31010KT 9999 NCD 04/M03 Q1013
                        NOSIG=
201901171220 METAR COR EGLL 171220Z AUTO 32009KT 9999 NCD 04/M03 Q1013
                        NOSIG=
201901171150 METAR COR EGLL 171150Z AUTO 31010KT 280V360 9999 NCD 04/M02
                        Q1013 NOSIG=
201901171120 METAR COR EGLL 171120Z AUTO 30010KT 9999 NCD 03/M01 Q1012
                        NOSIG=
201901171050 METAR COR EGLL 171050Z AUTO 31009KT 9999 NCD 03/M01 Q1012
                        NOSIG=
201901171020 METAR COR EGLL 171020Z AUTO 32009KT 290V360 9999 NCD 03/M01
                        Q1011 NOSIG=
201901170950 METAR COR EGLL 170950Z AUTO 32009KT 290V010 9999 NCD 02/M01
                        Q1011 NOSIG=
201901170920 METAR COR EGLL 170920Z AUTO 33007KT 300V010 9999 NCD 02/M00
                        Q1011 NOSIG=
201901170850 METAR COR EGLL 170850Z 33008KT 300V030 9999 SCT041TCU 02/00
                        Q1010 NOSIG=
201901170820 METAR COR EGLL 170820Z AUTO 35008KT 320V020 9999 -RA SCT014
                        BKN029 OVC034 03/00 Q1009 TEMPO SHRA=
201901170750 METAR COR EGLL 170750Z AUTO 30008KT 9999 -RA FEW015 BKN025
                        BKN036CB 04/02 Q1008 TEMPO SHRA=
201901170720 METAR COR EGLL 170720Z AUTO 30005KT 9999 -RA SCT018 SCT041
                        04/02 Q1007 TEMPO SHRA=
201901170650 METAR COR EGLL 170650Z AUTO 27009KT 9999 FEW044 03/02 Q1006
                        TEMPO SHRA=
201901170620 METAR COR EGLL 170620Z AUTO 29008KT 9999 SCT036 04/02 Q1006
                        TEMPO SHRA=
201901170550 METAR COR EGLL 170550Z AUTO 30008KT 9999 FEW024 04/02 Q1005
                        NOSIG=
201901170520 METAR COR EGLL 170520Z AUTO 30007KT 9999 FEW017 04/03 Q1005
                        NOSIG=
201901170450 METAR COR EGLL 170450Z AUTO 30007KT 9999 NCD 04/03 Q1004
                        NOSIG=
201901170420 METAR COR EGLL 170420Z AUTO 31006KT 9999 -RA SCT037 BKN049
                        04/03 Q1004 NOSIG=
201901170350 METAR COR EGLL 170350Z AUTO 30006KT 9999 -RA BKN013 05/04
                        Q1004 TEMPO RA=
201901170320 METAR COR EGLL 170320Z AUTO 30005KT 9999 SCT013 BKN018 04/04
                        Q1003 TEMPO RADZ=
201901170250 METAR COR EGLL 170250Z AUTO 28006KT 9999 BKN014 OVC021 04/04
                        Q1003 TEMPO RADZ=
201901170220 METAR COR EGLL 170220Z AUTO 26005KT 6000 -RA BKN015 OVC029
                        04/04 Q1003 TEMPO BKN014=
201901170150 METAR COR EGLL 170150Z AUTO 26003KT 8000 SCT030 SCT042 04/04
                        Q1002 NOSIG=
201901170120 METAR COR EGLL 170120Z 23004KT 8000 -RA NSC 04/04 Q1002 NOSIG=
201901170050 METAR COR EGLL 170050Z 19004KT 6000 -RA SCT038 BKN048 04/04
                        Q1002 NOSIG=
201901170020 METAR COR EGLL 170020Z 16002KT 6000 SCT040 03/03 Q1003 NOSIG=
201901162350 METAR COR EGLL 162350Z 18004KT 140V290 8000 3500SE NSC 03/03
                        Q1003 NOSIG=
201901162320 METAR COR EGLL 162320Z VRB03KT CAVOK 04/03 Q1003 NOSIG=
201901162250 METAR COR EGLL 162250Z 21003KT CAVOK 04/03 Q1003 NOSIG=
201901162220 METAR COR EGLL 162220Z AUTO 22006KT 9999 NCD 04/03 Q1003
                        NOSIG=
201901162150 METAR COR EGLL 162150Z AUTO 22007KT 9999 NCD 04/03 Q1003
                        NOSIG=
201901162120 METAR COR EGLL 162120Z AUTO 23009KT 9999 NCD 05/04 Q1003
                        NOSIG=
201901162050 METAR COR EGLL 162050Z AUTO 24008KT 9999 NCD 05/04 Q1003
                        NOSIG=
201901162020 METAR COR EGLL 162020Z AUTO 25007KT 9999 NCD 05/04 Q1003
                        NOSIG=
201901161950 METAR COR EGLL 161950Z AUTO 24009KT 9999 NCD 05/04 Q1003
                        NOSIG=
201901161920 METAR COR EGLL 161920Z AUTO 24009KT 9999 NCD 05/04 Q1003
                        NOSIG=
201901161850 METAR COR EGLL 161850Z AUTO 27008KT 9999 NCD 05/04 Q1003
                        NOSIG=
201901161820 METAR COR EGLL 161820Z AUTO 27008KT 9999 FEW031 06/04 Q1003
                        NOSIG=
201901161750 METAR COR EGLL 161750Z AUTO 28005KT 9999 FEW012 06/05 Q1003
                        NOSIG=
201901161720 METAR COR EGLL 161720Z 28005KT 9999 FEW029 06/05 Q1003 NOSIG=
201901161650 METAR COR EGLL 161650Z AUTO 29007KT 5000 -RA FEW013 BKN017
                        06/05 Q1003 TEMPO BKN013=
201901161620 METAR COR EGLL 161620Z 31006KT 290V350 6000 -RA BKN011 BKN019
                        BKN031 06/05 Q1003 TEMPO SCT011 BKN019=
201901161550 METAR COR EGLL 161550Z 32009KT 6000 -RA FEW014 SCT021 BKN034
                        07/05 Q1002 TEMPO BKN014=
201901161520 METAR COR EGLL 161520Z 32012KT 3000 RA FEW012 SCT016 BKN021
                        08/07 Q1002 TEMPO 5000 -RA=
201901161450 METAR COR EGLL 161450Z AUTO 23011KT 9999 BKN030/// //////TCU
                        09/08 Q1001 TEMPO BKN012=
201901161420 METAR COR EGLL 161420Z AUTO 22011KT 9999 SCT008 SCT012 BKN022
                        09/08 Q1001 TEMPO BKN012=
201901161350 METAR COR EGLL 161350Z AUTO 22009KT 190V260 7000 -RA BKN007
                        BKN011 OVC030 09/08 Q1002 RERA REDZ
                        TEMPO BKN011=
201901161320 METAR COR EGLL 161320Z AUTO 21011KT 6000 -RA FEW007 SCT013
                        BKN020 09/08 Q1002 TEMPO 4000 -RADZ
                        BKN007=
201901161250 METAR COR EGLL 161250Z AUTO 22012KT 7000 -RA BKN008/// OVC037///
                        //////TCU 09/08 Q1003 NOSIG=
201901161220 METAR EGLL 161220Z AUTO 21013KT 170V240 5000 -RADZ BKN008
                        OVC018 09/08 Q1003=
201901161150 METAR EGLL 161150Z AUTO 21015KT 4900 HZ OVC008 09/08 Q1004=
201901161120 METAR COR EGLL 161120Z AUTO 21014KT 9000 BKN008 09/08 Q1004
                        NOSIG=
201901161050 METAR COR EGLL 161050Z AUTO 22012KT 9999 BKN008 OVC015 09/08
                        Q1005 TEMPO 4000 -RADZ=
201901161020 METAR COR EGLL 161020Z AUTO 22012KT 9999 BKN009 OVC012 09/08
                        Q1005 TEMPO 4000 -RADZ=
201901160950 METAR COR EGLL 160950Z AUTO 21012KT 4600 HZ SCT007 BKN011
                        OVC015 09/08 Q1006 TEMPO BKN007=
201901160920 METAR COR EGLL 160920Z AUTO 21011KT 4500 -RADZ BKN007 BKN014
                        OVC029 09/08 Q1006 TEMPO 8000 BKN010=
201901160850 METAR COR EGLL 160850Z AUTO 21011KT 9999 BKN008 OVC014 09/08
                        Q1006 TEMPO 4000 BKN006=
201901160820 METAR COR EGLL 160820Z AUTO 21011KT 7000 -RA BKN007 OVC011
                        08/08 Q1006 TEMPO 4000 RADZ=
201901160750 METAR COR EGLL 160750Z AUTO 21011KT 9000 SCT006 BKN010 OVC014
                        08/08 Q1007 TEMPO 4000 RADZ BKN006=
201901160720 METAR COR EGLL 160720Z AUTO 21010KT 5000 -RADZ BKN006 OVC013
                        08/07 Q1007 TEMPO 4000 RADZ=
201901160650 METAR COR EGLL 160650Z AUTO 21011KT 8000 SCT006 OVC010 08/07
                        Q1007 TEMPO RADZ BKN006=
201901160620 METAR COR EGLL 160620Z AUTO 21010G20KT 6000 BKN006 BKN010
                        OVC026 08/07 Q1008 RERA REDZ NOSIG=
201901160550 METAR COR EGLL 160550Z 21011KT 4000 RADZ SCT007 BKN010 OVC041
                        08/07 Q1008 TEMPO BKN007=
201901160520 METAR COR EGLL 160520Z AUTO 22010KT 6000 -RA BKN008 OVC014
                        08/07 Q1009 NOSIG=
201901160450 METAR COR EGLL 160450Z AUTO 22010KT 9999 BKN009 OVC013 09/07
                        Q1009 TEMPO BKN012=
201901160420 METAR COR EGLL 160420Z AUTO 22012KT 9999 BKN012 09/07 Q1009
                        NOSIG=
201901160350 METAR COR EGLL 160350Z AUTO 22011KT 9999 BKN013 09/07 Q1010
                        NOSIG=
201901160320 METAR COR EGLL 160320Z AUTO 22013KT 9999 SCT015 BKN032 09/07
                        Q1010 TEMPO BKN012=
201901160250 METAR COR EGLL 160250Z AUTO 22010KT 9999 BKN011 08/07 Q1011
                        NOSIG=
201901160220 METAR EGLL 160220Z AUTO 23013KT 9999 BKN012 BKN017 09/07
                        Q1011=
201901160150 METAR COR EGLL 160150Z AUTO 23012KT 9999 SCT015 09/06 Q1012
                        TEMPO BKN014=
201901160120 METAR COR EGLL 160120Z AUTO 22009KT 9999 SCT035 09/06 Q1012
                        NOSIG=
201901160050 METAR COR EGLL 160050Z AUTO 21009KT 9999 BKN033 09/06 Q1012
                        NOSIG=
201901160020 METAR COR EGLL 160020Z AUTO 20008KT 9999 OVC033 08/06 Q1013
                        NOSIG=
201901152350 METAR COR EGLL 152350Z AUTO 21008KT 9999 BKN032 08/06 Q1013
                        NOSIG=
201901152320 METAR COR EGLL 152320Z AUTO 21010KT 9999 BKN031 08/06 Q1014
                        NOSIG=
201901152250 METAR COR EGLL 152250Z AUTO 21010KT 9999 OVC032 08/05 Q1014
                        NOSIG=
201901152220 METAR COR EGLL 152220Z AUTO 22011KT 9999 OVC029 08/05 Q1015
                        NOSIG=
201901152150 METAR COR EGLL 152150Z AUTO 23011KT 9999 OVC028 09/05 Q1015
                        NOSIG=
201901152120 METAR COR EGLL 152120Z AUTO 22010KT 9999 OVC028 09/05 Q1015
                        NOSIG=
201901152050 METAR COR EGLL 152050Z AUTO 22010KT 9999 OVC030 09/05 Q1015
                        NOSIG=
201901152020 METAR COR EGLL 152020Z AUTO 22011KT 9999 OVC030 09/05 Q1015
                        NOSIG=
201901151950 METAR COR EGLL 151950Z AUTO 22012KT 9999 OVC030 09/05 Q1016
                        NOSIG=
201901151920 METAR COR EGLL 151920Z AUTO 23012KT 9999 OVC030 09/05 Q1016
                        NOSIG=
201901151850 METAR COR EGLL 151850Z AUTO 23011KT 9999 OVC032 09/05 Q1016
                        NOSIG=
201901151820 METAR COR EGLL 151820Z AUTO 23009KT 9999 OVC032 09/05 Q1016
                        NOSIG=
201901151750 METAR COR EGLL 151750Z AUTO 23010KT 9999 FEW024 OVC031 09/05
                        Q1017 NOSIG=
201901151720 METAR COR EGLL 151720Z AUTO 23010KT 9999 SCT021 OVC029 09/05
                        Q1017 NOSIG=
201901151650 METAR COR EGLL 151650Z AUTO 23009KT 9999 FEW023 BKN030 OVC039
                        09/06 Q1017 NOSIG=
201901151620 METAR COR EGLL 151620Z AUTO 23009KT 9999 SCT019 BKN025 BKN033
                        09/06 Q1017 NOSIG=
201901151550 METAR COR EGLL 151550Z AUTO 23008KT 9999 SCT016 SCT024 OVC030
                        09/06 Q1018 NOSIG=
201901151520 METAR COR EGLL 151520Z 25010KT 9999 BKN015 BKN020 OVC037
                        09/06 Q1018 NOSIG=
201901151450 METAR COR EGLL 151450Z 26013KT 9999 BKN015 BKN021 OVC037
                        10/06 Q1018 NOSIG=
201901151420 METAR COR EGLL 151420Z AUTO 24011KT 9999 BKN015 OVC029 09/06
                        Q1018 NOSIG=
201901151350 METAR COR EGLL 151350Z AUTO 24011KT 9999 SCT017 BKN027 OVC031
                        09/06 Q1018 NOSIG=
201901151320 METAR COR EGLL 151320Z AUTO 26014KT 9999 BKN016 OVC026 09/06
                        Q1019 NOSIG=
201901151250 METAR COR EGLL 151250Z AUTO 25014KT 9999 BKN016 BKN022 OVC035
                        09/06 Q1019 NOSIG=
201901151220 METAR COR EGLL 151220Z AUTO 25012KT 9999 FEW018 OVC035 09/06
                        Q1019 NOSIG=
201901151150 METAR COR EGLL 151150Z AUTO 25013KT 9999 FEW019 OVC033 09/05
                        Q1020 NOSIG=
201901151120 METAR COR EGLL 151120Z AUTO 24010KT 9999 OVC037 08/05 Q1020
                        NOSIG=
201901151050 METAR COR EGLL 151050Z AUTO 24010KT 9999 OVC035 08/05 Q1020
                        NOSIG=
201901151020 METAR COR EGLL 151020Z AUTO 24009KT 9999 OVC034 07/05 Q1021
                        NOSIG=
201901150950 METAR COR EGLL 150950Z AUTO 22009KT 9999 OVC033 07/04 Q1021
                        NOSIG=
201901150920 METAR COR EGLL 150920Z AUTO 23009KT 9999 OVC033 07/04 Q1021
                        NOSIG=
201901150850 METAR COR EGLL 150850Z AUTO 23009KT 9999 OVC033 06/04 Q1021
                        NOSIG=
201901150820 METAR COR EGLL 150820Z AUTO 22007KT 9999 OVC027 06/03 Q1021
                        NOSIG=
201901150750 METAR COR EGLL 150750Z AUTO 22005KT 9999 OVC029 05/03 Q1021
                        NOSIG=
201901150720 METAR COR EGLL 150720Z AUTO 22006KT 9999 BKN028 OVC033 05/03
                        Q1021 NOSIG=
201901150650 METAR COR EGLL 150650Z AUTO 23006KT 180V250 9999 OVC028 04/03
                        Q1021 NOSIG=
201901150620 METAR COR EGLL 150620Z AUTO 23006KT 9999 OVC029 04/02 Q1021
                        NOSIG=
201901150550 METAR COR EGLL 150550Z AUTO 22005KT 9999 BKN030 04/02 Q1021
                        NOSIG=
201901150520 METAR COR EGLL 150520Z AUTO 21005KT 180V270 9999 NCD 03/01
                        Q1021 NOSIG=
201901150450 METAR COR EGLL 150450Z AUTO 22006KT 9999 SCT041 04/01 Q1021
                        NOSIG=
201901150420 METAR COR EGLL 150420Z AUTO 25007KT 9999 OVC036 04/02 Q1022
                        NOSIG=
201901150350 METAR COR EGLL 150350Z AUTO 25006KT 9999 BKN037 03/01 Q1022
                        NOSIG=
201901150320 METAR COR EGLL 150320Z AUTO 26006KT 9999 NCD 04/01 Q1022
                        NOSIG=
201901150250 METAR COR EGLL 150250Z AUTO 26006KT 9999 NCD 02/01 Q1022
                        NOSIG=
201901150220 METAR COR EGLL 150220Z AUTO 26005KT 9999 NCD 03/01 Q1022
                        NOSIG=
201901150150 METAR COR EGLL 150150Z AUTO 27008KT 9999 NCD 02/01 Q1023
                        NOSIG=
201901150120 METAR COR EGLL 150120Z AUTO 27008KT 9999 NCD 03/01 Q1023
                        NOSIG=
201901150050 METAR COR EGLL 150050Z AUTO 28008KT 9999 NCD 04/01 Q1023
                        NOSIG=
201901150020 METAR COR EGLL 150020Z AUTO 27008KT 9999 NCD 04/01 Q1023
                        NOSIG=
201901142350 METAR COR EGLL 142350Z AUTO 27008KT 9999 NCD 03/01 Q1023
                        NOSIG=
201901142320 METAR COR EGLL 142320Z AUTO 27008KT 9999 NCD 05/02 Q1023
                        NOSIG=
201901142250 METAR COR EGLL 142250Z AUTO 27005KT 9999 NCD 05/01 Q1023
                        NOSIG=
201901142220 METAR COR EGLL 142220Z AUTO 28005KT 9999 NCD 06/02 Q1023
                        NOSIG=
201901142150 METAR COR EGLL 142150Z AUTO 27008KT 9999 SCT046 05/02 Q1023
                        NOSIG=
201901142120 METAR COR EGLL 142120Z AUTO 27006KT 9999 NCD 06/01 Q1023
                        NOSIG=
201901142050 METAR COR EGLL 142050Z AUTO 27007KT 9999 BKN048 07/01 Q1023
                        NOSIG=
201901142020 METAR COR EGLL 142020Z AUTO 27008KT 9999 NCD 07/02 Q1023
                        NOSIG=
201901141950 METAR COR EGLL 141950Z AUTO 27007KT 9999 NCD 08/02 Q1023
                        NOSIG=
201901141920 METAR COR EGLL 141920Z AUTO 27006KT 9999 OVC048 08/02 Q1023
                        NOSIG=
201901141850 METAR COR EGLL 141850Z AUTO 28006KT 9999 NCD 08/03 Q1023
                        NOSIG=
201901141820 METAR COR EGLL 141820Z AUTO 27007KT 9999 OVC049 08/03 Q1023
                        NOSIG=
201901141750 METAR COR EGLL 141750Z AUTO 28005KT 9999 OVC049 08/03 Q1023
                        NOSIG=
201901141720 METAR COR EGLL 141720Z AUTO 30004KT 9999 NCD 09/03 Q1023
                        NOSIG=
201901141650 METAR COR EGLL 141650Z AUTO 30005KT 9999 NCD 09/03 Q1023
                        NOSIG=
201901141620 METAR COR EGLL 141620Z AUTO 30007KT 9999 NCD 09/03 Q1023
                        NOSIG=
201901141550 METAR COR EGLL 141550Z AUTO 30007KT 9999 OVC047 09/03 Q1022
                        NOSIG=
201901141520 METAR COR EGLL 141520Z AUTO 29008KT 9999 OVC045 09/03 Q1022
                        NOSIG=
201901141450 METAR COR EGLL 141450Z AUTO 30009KT 9999 OVC042 09/03 Q1022
                        NOSIG=
201901141420 METAR COR EGLL 141420Z AUTO 29009KT 9999 OVC034 09/03 Q1022
                        NOSIG=
201901141350 METAR COR EGLL 141350Z AUTO 30008KT 9999 SCT031 BKN038 09/03
                        Q1022 NOSIG=
201901141320 METAR COR EGLL 141320Z AUTO 31009KT 280V340 9999 BKN043 10/03
                        Q1022 NOSIG=
201901141250 METAR COR EGLL 141250Z AUTO 30008KT 260V330 9999 BKN036 09/03
                        Q1022 NOSIG=
201901141220 METAR COR EGLL 141220Z AUTO 31008KT 280V350 9999 FEW030 BKN039
                        09/04 Q1022 NOSIG=
201901141150 METAR COR EGLL 141150Z AUTO 30009KT 9999 BKN042 09/04 Q1021
                        NOSIG=
201901141120 METAR COR EGLL 141120Z AUTO 30010KT 9999 BKN040 BKN047 09/03
                        Q1021 NOSIG=
201901141050 METAR COR EGLL 141050Z AUTO 31010KT 280V340 9999 BKN038 09/03
                        Q1021 NOSIG=
201901141020 METAR COR EGLL 141020Z AUTO 30008KT 9999 FEW027 08/04 Q1021
                        NOSIG=
201901140950 METAR COR EGLL 140950Z AUTO 30008KT 9999 FEW029 08/03 Q1021
                        NOSIG=
201901140920 METAR COR EGLL 140920Z AUTO 30008KT 9999 FEW029 08/03 Q1021
                        NOSIG=
201901140850 METAR COR EGLL 140850Z AUTO 29006KT 9999 BKN027 08/03 Q1020
                        NOSIG=
201901140820 METAR COR EGLL 140820Z AUTO 30007KT 9999 BKN027 BKN031 08/03
                        Q1020 NOSIG=
201901140750 METAR COR EGLL 140750Z AUTO 29007KT 9999 BKN030 08/03 Q1019
                        NOSIG=
201901140720 METAR COR EGLL 140720Z AUTO 29006KT 9999 FEW031 08/03 Q1019
                        NOSIG=
201901140650 METAR COR EGLL 140650Z AUTO 29007KT 9999 NCD 08/03 Q1018
                        NOSIG=
201901140620 METAR COR EGLL 140620Z AUTO 30011KT 9999 NCD 08/02 Q1018
                        NOSIG=
201901140550 METAR COR EGLL 140550Z AUTO 31010KT 9999 NCD 08/02 Q1018
                        NOSIG=
201901140520 METAR COR EGLL 140520Z AUTO 31009KT 9999 NCD 08/02 Q1017
                        NOSIG=
201901140450 METAR COR EGLL 140450Z AUTO 30010KT 9999 BKN041 08/02 Q1017
                        NOSIG=
201901140420 METAR COR EGLL 140420Z AUTO 30008KT 280V340 9999 BKN038 08/02
                        Q1017 NOSIG=
201901140350 METAR COR EGLL 140350Z AUTO 29009KT 9999 BKN036 08/02 Q1017
                        NOSIG=
201901140320 METAR COR EGLL 140320Z AUTO 30010KT 9999 SCT038 08/02 Q1017
                        NOSIG=
201901140250 METAR COR EGLL 140250Z AUTO 31010KT 9999 NCD 08/02 Q1016
                        NOSIG=
201901140220 METAR COR EGLL 140220Z AUTO 30010KT 9999 SCT039 08/02 Q1016
                        NOSIG=
201901140150 METAR COR EGLL 140150Z AUTO 30009KT 9999 FEW043 08/02 Q1016
                        NOSIG=
201901140120 METAR COR EGLL 140120Z AUTO 30011KT 9999 NCD 08/02 Q1015
                        NOSIG=
201901140050 METAR COR EGLL 140050Z AUTO 30012G23KT 9999 SCT037 BKN043
                        09/02 Q1015 NOSIG=
201901140020 METAR COR EGLL 140020Z AUTO 30010KT 9999 SCT048 09/02 Q1015
                        NOSIG=
201901132350 METAR COR EGLL 132350Z AUTO 30011KT 9999 BKN047 09/02 Q1015
                        NOSIG=
201901132320 METAR COR EGLL 132320Z AUTO 30012KT 260V340 9999 FEW042 10/02
                        Q1015 NOSIG=
201901132250 METAR COR EGLL 132250Z AUTO 31007KT 280V340 9999 BKN038 OVC046
                        09/04 Q1015 NOSIG=
201901132220 METAR COR EGLL 132220Z AUTO 32010KT 9999 BKN036 BKN047 10/03
                        Q1014 NOSIG=
201901132150 METAR COR EGLL 132150Z AUTO 32007KT 290V350 9999 NCD 10/02
                        Q1014 NOSIG=
201901132120 METAR COR EGLL 132120Z AUTO 33010KT 300V010 9999 NCD 10/02
                        Q1014 NOSIG=
201901132050 METAR COR EGLL 132050Z AUTO 31010KT 9999 NCD 11/03 Q1013
                        NOSIG=
201901132020 METAR COR EGLL 132020Z AUTO 32012G22KT 280V360 9999 NCD 11/04
                        Q1013 NOSIG=
201901131950 METAR COR EGLL 131950Z AUTO 31013G24KT 270V340 9999 BKN040
                        12/05 Q1012 NOSIG=
201901131920 METAR COR EGLL 131920Z AUTO 29011KT 9999 SCT038 12/06 Q1012
                        NOSIG=
201901131850 METAR COR EGLL 131850Z AUTO 29013KT 9999 OVC048 11/06 Q1012
                        NOSIG=
201901131820 METAR COR EGLL 131820Z AUTO 28011KT 9999 BKN047 10/07 Q1011
                        NOSIG=
201901131750 METAR COR EGLL 131750Z AUTO 27014KT 9999 FEW029 BKN046 11/07
                        Q1011 NOSIG=
201901131720 METAR COR EGLL 131720Z AUTO 27014KT 9999 NCD 11/07 Q1011
                        NOSIG=
201901131650 METAR COR EGLL 131650Z AUTO 27018KT 9999 NCD 11/08 Q1011
                        NOSIG=
201901131620 METAR COR EGLL 131620Z AUTO 27017KT 9999 FEW021 BKN034 11/08
                        Q1011 NOSIG=
201901131550 METAR COR EGLL 131550Z AUTO 27019KT 9999 FEW023 BKN034 BKN042
                        11/08 Q1012 NOSIG=
201901131520 METAR COR EGLL 131520Z AUTO 27018KT 9999 SCT018 BKN022 BKN033
                        11/08 Q1012 NOSIG=
201901131450 METAR COR EGLL 131450Z AUTO 26016KT 9999 BKN018 OVC023 11/08
                        Q1012 NOSIG=
201901131420 METAR COR EGLL 131420Z AUTO 26016KT 9999 OVC019 11/08 Q1012
                        NOSIG=
201901131350 METAR COR EGLL 131350Z AUTO 27017KT 9999 BKN018 OVC024 11/08
                        Q1012 NOSIG=
201901131320 METAR COR EGLL 131320Z AUTO 27019KT 9999 BKN020 12/08 Q1012
                        NOSIG=
201901131250 METAR COR EGLL 131250Z AUTO 28016KT 9999 SCT021 BKN025 12/08
                        Q1013 NOSIG=
201901131220 METAR COR EGLL 131220Z AUTO 28019KT 9999 FEW024 11/07 Q1013=
201901131150 METAR EGLL 131150Z AUTO 28018KT 9999 NCD 11/07 Q1013=
201901131120 METAR COR EGLL 131120Z AUTO 28017KT 9999 NCD 11/06 Q1014
                        NOSIG=
201901131050 METAR COR EGLL 131050Z AUTO 28015KT 9999 NCD 10/06 Q1014
                        NOSIG=
201901131020 METAR COR EGLL 131020Z AUTO 27015KT 9999 NCD 10/06 Q1014
                        NOSIG=
201901130950 METAR COR EGLL 130950Z AUTO 26014KT 9999 NCD 10/06 Q1014
                        NOSIG=
201901130920 METAR COR EGLL 130920Z AUTO 26012KT 9999 NCD 10/06 Q1015
                        NOSIG=
201901130850 METAR COR EGLL 130850Z AUTO 26013KT 9999 NCD 10/06 Q1015
                        NOSIG=
201901130820 METAR COR EGLL 130820Z AUTO 26011KT 9999 NCD 10/07 Q1015
                        NOSIG=
201901130750 METAR COR EGLL 130750Z AUTO 27012KT 9999 NCD 10/07 Q1015
                        NOSIG=
201901130720 METAR COR EGLL 130720Z AUTO 26011KT 9999 NCD 10/07 Q1016
                        TEMPO BKN014=
201901130650 METAR COR EGLL 130650Z AUTO 27013KT 9999 FEW019 10/08 Q1015
                        TEMPO BKN014=
201901130620 METAR COR EGLL 130620Z AUTO 26013KT 9999 FEW020 10/08 Q1015
                        TEMPO BKN014=
201901130550 METAR COR EGLL 130550Z AUTO 26012KT 9999 BKN017 10/08 Q1015
                        TEMPO BKN014=
201901130520 METAR COR EGLL 130520Z AUTO 26013KT 9999 SCT019 10/07 Q1016
                        TEMPO BKN014=
201901130450 METAR COR EGLL 130450Z AUTO 27012KT 9999 BKN020 10/07 Q1016
                        TEMPO BKN014=
201901130420 METAR COR EGLL 130420Z AUTO 27010KT 9999 BKN020 10/07 Q1017
                        TEMPO BKN014=
201901130350 METAR COR EGLL 130350Z AUTO 26010KT 9999 SCT022 BKN026 10/07
                        Q1017 TEMPO BKN014=
201901130320 METAR COR EGLL 130320Z AUTO 26010KT 9999 SCT023 10/07 Q1017
                        NOSIG=
201901130250 METAR COR EGLL 130250Z AUTO 28013KT 9999 NCD 10/07 Q1017
                        NOSIG=
201901130220 METAR COR EGLL 130220Z AUTO 28014KT 9999 NCD 11/07 Q1017
                        NOSIG=
201901130150 METAR COR EGLL 130150Z AUTO 29011KT 9999 NCD 10/07 Q1018
                        NOSIG=
201901130120 METAR COR EGLL 130120Z AUTO 28010KT 9999 SCT025 10/07 Q1018
                        NOSIG=
201901130050 METAR COR EGLL 130050Z AUTO 29011KT 9999 FEW028 10/07 Q1018
                        NOSIG=
201901130020 METAR COR EGLL 130020Z AUTO 28013KT 9999 NCD 10/07 Q1018
                        NOSIG=
201901122350 METAR COR EGLL 122350Z AUTO 28012KT 9999 NCD 10/07 Q1018
                        NOSIG=
201901122320 METAR COR EGLL 122320Z AUTO 28012KT 9999 NCD 10/07 Q1019
                        NOSIG=
201901122250 METAR COR EGLL 122250Z AUTO 28012KT 9999 FEW030 10/07 Q1019
                        NOSIG=
201901122220 METAR COR EGLL 122220Z AUTO 29012KT 9999 NCD 10/07 Q1019
                        NOSIG=
201901122150 METAR COR EGLL 122150Z AUTO 29011KT 9999 NCD 10/06 Q1019
                        NOSIG=
201901122120 METAR COR EGLL 122120Z AUTO 28013KT 9999 -RA SCT026 09/06
                        Q1019 NOSIG=
201901122050 METAR COR EGLL 122050Z AUTO 28014KT 9999 -RA SCT028 09/06
                        Q1019 NOSIG=
201901122020 METAR COR EGLL 122020Z AUTO 28012KT 9999 -RA SCT025 09/06
                        Q1019 NOSIG=
201901121950 METAR COR EGLL 121950Z AUTO 28012KT 9999 -RA BKN028 09/06
                        Q1020 NOSIG=
201901121920 METAR COR EGLL 121920Z AUTO 28010KT 9999 -RA FEW026 09/06
                        Q1020 NOSIG=
201901121850 METAR COR EGLL 121850Z AUTO 27011KT 9999 SCT025 09/05 Q1020
                        NOSIG=
201901121820 METAR COR EGLL 121820Z AUTO 27010KT 9999 -RA FEW030 09/05
                        Q1020 NOSIG=
201901121750 METAR COR EGLL 121750Z AUTO 27012KT 9999 NCD 09/05 Q1020
                        NOSIG=
201901121720 METAR COR EGLL 121720Z AUTO 27013KT 9999 NCD 09/05 Q1020
                        NOSIG=
201901121650 METAR COR EGLL 121650Z AUTO 28012KT 9999 -RA NCD 09/05 Q1020
                        NOSIG=
201901121620 METAR COR EGLL 121620Z AUTO 28012KT 9999 -RA NCD 09/06 Q1020
                        NOSIG=
201901121550 METAR COR EGLL 121550Z AUTO 28011KT 9999 -RA NCD 10/06 Q1021
                        NOSIG=
201901121520 METAR COR EGLL 121520Z AUTO 28015KT 9999 NCD 10/06 Q1021
                        NOSIG=
201901121450 METAR COR EGLL 121450Z AUTO 29013KT 9999 NCD 10/06 Q1021
                        NOSIG=
201901121420 METAR COR EGLL 121420Z AUTO 29013KT 9999 NCD 10/06 Q1021
                        NOSIG=
201901121350 METAR COR EGLL 121350Z AUTO 28013KT 9999 NCD 10/06 Q1021
                        NOSIG=
201901121320 METAR COR EGLL 121320Z AUTO 29012KT 9999 NCD 11/07 Q1021
                        NOSIG=
201901121250 METAR COR EGLL 121250Z AUTO 28012KT 9999 FEW023 10/07 Q1022
                        NOSIG=
201901121220 METAR COR EGLL 121220Z AUTO 27012KT 9999 SCT017 BKN021 BKN028
                        10/07 Q1022 NOSIG=
201901121150 METAR COR EGLL 121150Z AUTO 27012KT 9999 BKN014 OVC032 10/07
                        Q1022 BECMG FEW014=
201901121120 METAR COR EGLL 121120Z AUTO 26012KT 9999 BKN015 10/07 Q1023
                        TEMPO BKN014=
201901121050 METAR COR EGLL 121050Z AUTO 26013KT 9999 BKN017 10/07 Q1023
                        TEMPO BKN014=
201901121020 METAR COR EGLL 121020Z AUTO 26012KT 9999 NCD 09/06 Q1023
                        TEMPO BKN014=
201901120950 METAR COR EGLL 120950Z AUTO 26011KT 9999 SCT016 SCT037 09/06
                        Q1023 TEMPO BKN012=
201901120920 METAR COR EGLL 120920Z AUTO 26011KT 9999 BKN017 10/06 Q1024
                        NOSIG=
201901120850 METAR COR EGLL 120850Z AUTO 26011KT 9999 BKN018 09/06 Q1024
                        NOSIG=
201901120820 METAR COR EGLL 120820Z AUTO 25013KT 9999 OVC023 09/06 Q1024
                        NOSIG=
201901120750 METAR COR EGLL 120750Z AUTO 24010KT 9999 BKN024 09/06 Q1024
                        NOSIG=
201901120720 METAR COR EGLL 120720Z AUTO 25011KT 9999 BKN019 09/06 Q1024
                        NOSIG=
201901120650 METAR EGLL 120650Z AUTO 26010KT 9999 OVC019 08/06 Q1025 NOSIG=
201901120620 METAR COR EGLL 120620Z AUTO 24009KT 9999 OVC021 08/05 Q1025
                        NOSIG=
201901120550 METAR COR EGLL 120550Z AUTO 25010KT 9999 OVC020 08/05 Q1025
                        NOSIG=
201901120520 METAR COR EGLL 120520Z AUTO 27008KT 9999 OVC022 08/05 Q1026
                        NOSIG=
201901120450 METAR COR EGLL 120450Z AUTO 25009KT 9999 OVC023 08/04 Q1026
                        NOSIG=
201901120420 METAR COR EGLL 120420Z AUTO 25008KT 9999 OVC022 08/04 Q1026
                        NOSIG=
201901120350 METAR COR EGLL 120350Z AUTO 25008KT 9999 BKN026 OVC030 08/04
                        Q1027 NOSIG=
201901120320 METAR COR EGLL 120320Z AUTO 26008KT 9999 OVC029 08/04 Q1027
                        NOSIG=
201901120250 METAR COR EGLL 120250Z AUTO 26009KT 9999 OVC035 08/03 Q1028
                        NOSIG=
201901120220 METAR EGLL 120220Z AUTO 25005KT 9999 OVC030 08/03 Q1028=
201901120150 METAR COR EGLL 120150Z AUTO 25006KT 9999 OVC035 08/03 Q1028
                        NOSIG=
201901120120 METAR COR EGLL 120120Z AUTO 23006KT 9999 OVC036 08/03 Q1028
                        NOSIG=
201901120050 METAR COR EGLL 120050Z AUTO 25006KT 9999 OVC035 08/03 Q1028
                        NOSIG=
201901120020 METAR COR EGLL 120020Z AUTO 25005KT 9999 OVC035 07/04 Q1029
                        NOSIG=
201901112350 METAR COR EGLL 112350Z AUTO 27007KT 9999 OVC035 07/04 Q1029
                        NOSIG=
201901112320 METAR COR EGLL 112320Z AUTO 27008KT 9999 OVC035 07/04 Q1030
                        NOSIG=
201901112250 METAR COR EGLL 112250Z AUTO 27008KT 9999 OVC035 07/04 Q1030
                        NOSIG=
201901112220 METAR COR EGLL 112220Z AUTO 28008KT 9999 OVC036 07/04 Q1030
                        NOSIG=
201901112150 METAR COR EGLL 112150Z AUTO 27008KT 9999 OVC035 07/03 Q1030
                        NOSIG=
201901112120 METAR COR EGLL 112120Z AUTO 28006KT 9999 OVC035 07/04 Q1030
                        NOSIG=
201901112050 METAR COR EGLL 112050Z AUTO 29005KT 9999 OVC030 08/04 Q1030
                        NOSIG=
201901112020 METAR COR EGLL 112020Z AUTO 28006KT 9999 OVC029 07/04 Q1030
                        NOSIG=
201901111950 METAR COR EGLL 111950Z AUTO 28006KT 9999 OVC028 07/05 Q1031
                        NOSIG=
201901111920 METAR COR EGLL 111920Z AUTO 30005KT 9999 FEW020 OVC024 07/05
                        Q1031 NOSIG=
201901111850 METAR COR EGLL 111850Z AUTO 28006KT 9999 SCT021 OVC026 07/04
                        Q1031 NOSIG=
201901111820 METAR COR EGLL 111820Z AUTO 29005KT 9999 OVC026 07/04 Q1031
                        NOSIG=
201901111750 METAR COR EGLL 111750Z AUTO 30004KT 9999 BKN026 08/04 Q1031
                        NOSIG=
201901111720 METAR COR EGLL 111720Z AUTO 29005KT 9999 NCD 07/04 Q1031
                        NOSIG=
201901111650 METAR COR EGLL 111650Z AUTO 29004KT 9999 NCD 08/04 Q1031
                        NOSIG=
201901111620 METAR COR EGLL 111620Z AUTO 30004KT 9999 NCD 08/04 Q1031
                        NOSIG=
201901111550 METAR COR EGLL 111550Z AUTO 30004KT 9999 NCD 08/04 Q1031
                        NOSIG=
201901111520 METAR EGLL 111520Z AUTO 30005KT 9999 NCD 08/05 Q1030=
201901111450 METAR COR EGLL 111450Z AUTO 29005KT 9999 NCD 08/05 Q1030
                        NOSIG=
201901111420 METAR EGLL 111420Z AUTO 30005KT 9999 NCD 08/05 Q1030=
201901111350 METAR COR EGLL 111350Z AUTO 31005KT 9999 NCD 09/05 Q1030
                        NOSIG=
201901111320 METAR COR EGLL 111320Z AUTO 30005KT 270V340 9999 NCD 09/05
                        Q1030 NOSIG=
201901111250 METAR COR EGLL 111250Z AUTO 31004KT 280V360 9999 NCD 09/05
                        Q1031 NOSIG=
201901111220 METAR COR EGLL 111220Z AUTO 32004KT 270V350 9999 NCD 09/05
                        Q1031 NOSIG=
201901111150 METAR COR EGLL 111150Z AUTO 32004KT 280V010 9999 NCD 09/05
                        Q1031 NOSIG=
201901111120 METAR COR EGLL 111120Z AUTO 31004KT 290V350 9999 NCD 08/05
                        Q1031 NOSIG=
201901111050 METAR COR EGLL 111050Z AUTO 30004KT 270V330 9999 NCD 08/05
                        Q1031 NOSIG=
201901111020 METAR COR EGLL 111020Z AUTO VRB03KT 9000 NCD 08/05 Q1031
                        NOSIG=
201901110950 METAR COR EGLL 110950Z AUTO 29003KT 8000 NCD 07/05 Q1031
                        NOSIG=
201901110920 METAR COR EGLL 110920Z AUTO 30003KT 6000 NCD 07/05 Q1031
                        NOSIG=
201901110850 METAR COR EGLL 110850Z AUTO 29004KT 7000 NCD 07/05 Q1030
                        NOSIG=
201901110820 METAR COR EGLL 110820Z AUTO 30003KT 7000 FEW042 07/05 Q1030
                        NOSIG=
201901110750 METAR COR EGLL 110750Z AUTO VRB03KT 7000 SCT044 07/05 Q1030
                        NOSIG=
201901110720 METAR COR EGLL 110720Z AUTO VRB02KT 7000 FEW019 07/05 Q1030
                        NOSIG=
201901110650 METAR COR EGLL 110650Z AUTO VRB03KT 7000 SCT017 07/05 Q1029
                        NOSIG=
201901110620 METAR COR EGLL 110620Z AUTO VRB03KT 7000 BKN018 07/05 Q1029
                        NOSIG=
201901110550 METAR COR EGLL 110550Z AUTO VRB03KT 6000 OVC018 07/05 Q1029
                        NOSIG=
201901110520 METAR COR EGLL 110520Z AUTO VRB03KT 6000 -RA BKN018 OVC035
                        07/05 Q1029 NOSIG=
201901110450 METAR COR EGLL 110450Z AUTO VRB03KT 5000 -RA SCT022 BKN028
                        BKN036 07/05 Q1029 NOSIG=
201901110420 METAR COR EGLL 110420Z AUTO VRB03KT 5000 -RA SCT017 SCT032
                        OVC038 07/05 Q1029 NOSIG=
201901110350 METAR COR EGLL 110350Z AUTO VRB03KT 7000 -RA BKN019 BKN029
                        OVC034 07/05 Q1029 NOSIG=
201901110320 METAR COR EGLL 110320Z AUTO VRB03KT 7000 -RA BKN016 07/05
                        Q1029 TEMPO BKN006=
201901110250 METAR COR EGLL 110250Z AUTO VRB03KT 8000 SCT014 07/05 Q1029
                        TEMPO 5000 -RADZ BKN006=
201901110220 METAR COR EGLL 110220Z AUTO VRB02KT 9000 NCD 07/05 Q1029
                        TEMPO 5000 RADZ BKN006=
201901110150 METAR COR EGLL 110150Z AUTO 30004KT 9000 FEW049 07/05 Q1029
                        NOSIG=
201901110120 METAR COR EGLL 110120Z AUTO 30004KT 8000 BKN048 07/05 Q1029
                        NOSIG=
201901110050 METAR COR EGLL 110050Z AUTO 28004KT 8000 NCD 07/05 Q1029
                        NOSIG=
201901110020 METAR COR EGLL 110020Z AUTO 31005KT 8000 NCD 07/05 Q1029
                        NOSIG=
201901102350 METAR COR EGLL 102350Z AUTO 34004KT 290V040 9000 NCD 07/05
                        Q1029 NOSIG=
201901102320 METAR COR EGLL 102320Z AUTO 34004KT 300V020 6000 NCD 07/05
                        Q1029 NOSIG=
201901102250 METAR COR EGLL 102250Z AUTO 30003KT 5000 HZ NCD 07/05 Q1029
                        TEMPO BKN009=
201901102220 METAR COR EGLL 102220Z AUTO 30004KT 4800 HZ NCD 06/05 Q1030
                        TEMPO 6000 BKN009=
201901102150 METAR COR EGLL 102150Z AUTO 29005KT 5000 HZ NCD 06/05 Q1030
                        TEMPO BKN009=
201901102120 METAR COR EGLL 102120Z AUTO 27004KT 5000 HZ FEW009 05/04
                        Q1030 BECMG BKN009=
201901102050 METAR COR EGLL 102050Z AUTO 27006KT 6000 BKN008 BKN017 05/04
                        Q1030 TEMPO 4000 -RADZ BKN004=
201901102020 METAR COR EGLL 102020Z AUTO 28005KT 7000 BKN007 05/04 Q1030
                        TEMPO 4000 -RADZ BKN004=
201901101950 METAR COR EGLL 101950Z AUTO 28005KT 8000 OVC007 05/03 Q1030
                        TEMPO 4000 -RADZ BKN004=
201901101920 METAR COR EGLL 101920Z AUTO 27005KT 9000 OVC007 05/03 Q1029
                        TEMPO 4000 -RADZ BKN004=
201901101850 METAR COR EGLL 101850Z AUTO 28005KT 9000 OVC007 04/03 Q1029
                        TEMPO 4000 -RADZ BKN004=
201901101820 METAR COR EGLL 101820Z AUTO 28005KT 9000 OVC010 04/03 Q1029
                        TEMPO 3000 -RADZ BKN004=
201901101750 METAR COR EGLL 101750Z 27006KT 6000 -RA BKN011 04/03 Q1029
                        TEMPO 3000 RADZ=
201901101720 METAR COR EGLL 101720Z AUTO 29005KT 9999 OVC012 05/02 Q1030
                        TEMPO 8000=
201901101650 METAR COR EGLL 101650Z AUTO 29004KT 9999 FEW011 BKN021 BKN025
                        05/02 Q1030 TEMPO BKN012=
201901101620 METAR COR EGLL 101620Z AUTO 29005KT 9999 SCT028 SCT034 BKN045
                        05/02 Q1030 TEMPO BKN012=
201901101550 METAR COR EGLL 101550Z AUTO 29005KT 9999 -RA BKN034 BKN043
                        05/02 Q1030 NOSIG=
201901101520 METAR COR EGLL 101520Z AUTO 29005KT 9999 FEW029 SCT037 BKN046
                        05/02 Q1030 TEMPO BKN012=
201901101450 METAR COR EGLL 101450Z AUTO 29006KT 9999 BKN042 BKN049 05/02
                        Q1030 TEMPO BKN012=
201901101420 METAR COR EGLL 101420Z AUTO 29005KT 9999 SCT037 BKN048 05/02
                        Q1030 NOSIG=
201901101350 METAR COR EGLL 101350Z AUTO 29005KT 9999 FEW040 05/01 Q1030
                        NOSIG=
201901101320 METAR COR EGLL 101320Z AUTO 28005KT 250V320 9999 NCD 04/01
                        Q1030 NOSIG=
201901101250 METAR COR EGLL 101250Z AUTO 28006KT 9999 NCD 04/01 Q1030
                        NOSIG=
201901101220 METAR COR EGLL 101220Z AUTO 28006KT 9999 SCT048 04/01 Q1031
                        NOSIG=
201901101150 METAR COR EGLL 101150Z AUTO 29007KT 9999 -RA FEW042 BKN049
                        03/01 Q1031 NOSIG=
201901101120 METAR COR EGLL 101120Z AUTO 29006KT 9000 -RA BKN042 BKN048
                        03/01 Q1031 NOSIG=
201901101050 METAR COR EGLL 101050Z AUTO 28005KT 9999 NCD 03/01 Q1031
                        NOSIG=
201901101020 METAR COR EGLL 101020Z 27005KT CAVOK 03/01 Q1031 NOSIG=
201901100950 METAR COR EGLL 100950Z AUTO 27005KT 8000 NCD 02/01 Q1031
                        NOSIG=
201901100920 METAR COR EGLL 100920Z AUTO 28003KT 7000 NCD 02/01 Q1031
                        NOSIG=
201901100850 METAR COR EGLL 100850Z AUTO 29004KT 8000 NCD 02/00 Q1031
                        NOSIG=
201901100820 METAR COR EGLL 100820Z AUTO VRB03KT 9999 NCD 02/00 Q1031
                        NOSIG=
201901100750 METAR COR EGLL 100750Z AUTO VRB02KT 9000 NCD 02/00 Q1031
                        NOSIG=
201901100720 METAR COR EGLL 100720Z AUTO VRB02KT 9000 NCD 02/00 Q1031
                        NOSIG=
201901100650 METAR COR EGLL 100650Z AUTO VRB02KT 9000 NCD 02/00 Q1031
                        NOSIG=
201901100620 METAR COR EGLL 100620Z AUTO 32004KT 280V360 8000 NCD 01/00
                        Q1031 NOSIG=
201901100550 METAR COR EGLL 100550Z AUTO 32004KT 7000 NCD 01/00 Q1031
                        NOSIG=
201901100520 METAR COR EGLL 100520Z AUTO VRB03KT 7000 NCD 01/00 Q1031
                        NOSIG=
201901100450 METAR COR EGLL 100450Z AUTO 31002KT 7000 SCT028 01/M00 Q1031
                        NOSIG=
201901100420 METAR COR EGLL 100420Z AUTO 32003KT 8000 BKN030 01/00 Q1031
                        NOSIG=
201901100350 METAR COR EGLL 100350Z AUTO 31004KT 8000 BKN028 01/00 Q1031
                        NOSIG=
201901100320 METAR COR EGLL 100320Z AUTO 31005KT 7000 BKN028 01/00 Q1031
                        NOSIG=
201901100250 METAR COR EGLL 100250Z AUTO 30004KT 7000 SCT030 01/M00 Q1031
                        NOSIG=
201901100220 METAR COR EGLL 100220Z AUTO 27005KT 8000 SCT031 00/M01 Q1031
                        NOSIG=
201901100150 METAR COR EGLL 100150Z AUTO VRB02KT 8000 NCD 01/M00 Q1031
                        NOSIG=
201901100120 METAR COR EGLL 100120Z AUTO VRB02KT 9999 NCD 01/M00 Q1031
                        NOSIG=
201901100050 METAR COR EGLL 100050Z AUTO 32004KT 9999 NCD 02/00 Q1030
                        NOSIG=
201901100020 METAR COR EGLL 100020Z AUTO VRB03KT 9999 NCD 02/00 Q1030
                        NOSIG=
201901092350 METAR COR EGLL 092350Z AUTO 34004KT 300V010 9999 FEW030 03/00
                        Q1031 NOSIG=
201901092320 METAR COR EGLL 092320Z AUTO 35005KT 310V020 9999 SCT031 03/01
                        Q1031 NOSIG=
201901092250 METAR COR EGLL 092250Z AUTO 35005KT 310V020 9999 BKN030 OVC037
                        04/01 Q1031 NOSIG=
201901092220 METAR COR EGLL 092220Z AUTO 36005KT 310V020 9999 BKN033 OVC040
                        04/01 Q1031 NOSIG=
201901092150 METAR COR EGLL 092150Z AUTO 34004KT 310V030 9999 BKN033 BKN041
                        03/01 Q1031 NOSIG=
201901092120 METAR COR EGLL 092120Z AUTO 35004KT 300V030 9999 NCD 03/01
                        Q1031 NOSIG=
201901092050 METAR COR EGLL 092050Z AUTO VRB03KT 9999 NCD 04/01 Q1031
                        NOSIG=
201901092020 METAR COR EGLL 092020Z AUTO VRB02KT 9999 NCD 04/01 Q1031
                        NOSIG=
201901091950 METAR COR EGLL 091950Z AUTO 34004KT 300V030 9999 FEW026 04/01
                        Q1030 NOSIG=
201901091920 METAR COR EGLL 091920Z AUTO 35004KT 300V020 9999 NCD 04/01
                        Q1030 NOSIG=
201901091850 METAR COR EGLL 091850Z AUTO 36006KT 330V030 9999 NCD 04/01
                        Q1030 NOSIG=
201901091820 METAR COR EGLL 091820Z AUTO 36005KT 9999 SCT023 04/01 Q1030
                        NOSIG=
201901091750 METAR COR EGLL 091750Z AUTO 36005KT 320V030 9999 SCT022 BKN038
                        05/01 Q1030 NOSIG=
201901091720 METAR COR EGLL 091720Z AUTO 36005KT 330V030 9999 SCT034 05/01
                        Q1030 NOSIG=
201901091650 METAR COR EGLL 091650Z AUTO 35007KT 320V030 9999 BKN039 05/01
                        Q1030 NOSIG=
201901091620 METAR COR EGLL 091620Z AUTO 35006KT 310V030 9999 SCT027 06/01
                        Q1030 NOSIG=
201901091550 METAR COR EGLL 091550Z AUTO 35006KT 320V020 9999 SCT028 BKN033
                        06/01 Q1029 NOSIG=
201901091520 METAR COR EGLL 091520Z AUTO 36007KT 320V040 9999 BKN029 BKN036
                        06/01 Q1029 NOSIG=
201901091450 METAR COR EGLL 091450Z AUTO 36007KT 320V020 9999 SCT027 BKN035
                        06/01 Q1029 NOSIG=
201901091420 METAR COR EGLL 091420Z AUTO 36008KT 320V030 9999 BKN026 06/01
                        Q1029 NOSIG=
201901091350 METAR COR EGLL 091350Z AUTO 35007KT 310V040 9999 FEW027 06/01
                        Q1029 NOSIG=
201901091320 METAR COR EGLL 091320Z AUTO 36009KT 320V030 9999 SCT026 BKN040
                        06/01 Q1029 NOSIG=
201901091250 METAR COR EGLL 091250Z AUTO 36009KT 310V030 9999 BKN024 BKN031
                        06/01 Q1029 NOSIG=
201901091220 METAR COR EGLL 091220Z AUTO 35008KT 320V020 9999 SCT023 SCT028
                        06/01 Q1030 NOSIG=
201901091150 METAR COR EGLL 091150Z AUTO 34006KT 300V020 9999 FEW048 06/00
                        Q1030 NOSIG=
201901091120 METAR COR EGLL 091120Z AUTO 33008KT 300V020 9999 FEW033 05/00
                        Q1030 NOSIG=
201901091050 METAR COR EGLL 091050Z AUTO 34007KT 290V020 9999 NCD 05/00
                        Q1030 NOSIG=
201901091020 METAR COR EGLL 091020Z AUTO 35006KT 300V030 9999 SCT049 04/M00
                        Q1030 NOSIG=
201901090950 METAR COR EGLL 090950Z AUTO 35007KT 300V020 9999 FEW046 04/00
                        Q1030 NOSIG=
201901090920 METAR COR EGLL 090920Z AUTO 34005KT 300V030 9999 SCT045 04/00
                        Q1030 NOSIG=
201901090850 METAR COR EGLL 090850Z AUTO 33006KT 300V030 9999 FEW047 03/M00
                        Q1029 NOSIG=
201901090820 METAR COR EGLL 090820Z AUTO 33006KT 290V010 9999 FEW047 03/M00
                        Q1029 NOSIG=
201901090750 METAR COR EGLL 090750Z AUTO 33005KT 310V020 9999 BKN047 03/M00
                        Q1029 NOSIG=
201901090720 METAR COR EGLL 090720Z AUTO 33005KT 290V350 9999 FEW047 03/M00
                        Q1028 NOSIG=
201901090650 METAR COR EGLL 090650Z AUTO 33005KT 290V030 9999 BKN046 04/M00
                        Q1028 NOSIG=
201901090620 METAR COR EGLL 090620Z AUTO 33004KT 300V020 9999 SCT044 04/M00
                        Q1029 NOSIG=
201901090550 METAR COR EGLL 090550Z AUTO 34005KT 300V020 9999 BKN043 03/M00
                        Q1029 NOSIG=
201901090520 METAR COR EGLL 090520Z AUTO 35006KT 310V030 9999 SCT047 04/M00
                        Q1029 NOSIG=
201901090450 METAR COR EGLL 090450Z AUTO 33005KT 280V010 9999 FEW046 04/00
                        Q1029 NOSIG=
201901090420 METAR COR EGLL 090420Z AUTO 34006KT 280V020 9999 SCT043 04/00
                        Q1029 NOSIG=
201901090350 METAR COR EGLL 090350Z AUTO 33006KT 290V020 9999 BKN044 04/00
                        Q1029 NOSIG=
201901090320 METAR COR EGLL 090320Z AUTO 33006KT 300V040 9999 BKN046 03/00
                        Q1029 NOSIG=
201901090250 METAR COR EGLL 090250Z AUTO 30005KT 9999 SCT045 03/00 Q1029
                        NOSIG=
201901090220 METAR COR EGLL 090220Z AUTO 30004KT 9999 NCD 02/M00 Q1029
                        NOSIG=
201901090150 METAR COR EGLL 090150Z AUTO 31004KT 9999 NCD 03/00 Q1029
                        NOSIG=
201901090120 METAR COR EGLL 090120Z AUTO 29005KT 9999 NCD 03/00 Q1029
                        NOSIG=
201901090050 METAR COR EGLL 090050Z AUTO 30006KT 9999 NCD 03/00 Q1029
                        NOSIG=
201901090020 METAR COR EGLL 090020Z AUTO 30005KT 9999 NCD 03/01 Q1029
                        NOSIG=
201901082350 METAR COR EGLL 082350Z AUTO 30006KT 9999 NCD 04/01 Q1029
                        NOSIG=
201901082320 METAR COR EGLL 082320Z AUTO 31004KT 9999 NCD 04/01 Q1029
                        NOSIG=
201901082250 METAR COR EGLL 082250Z AUTO 32004KT 280V360 9999 NCD 04/01
                        Q1029 NOSIG=
201901082220 METAR COR EGLL 082220Z AUTO 32005KT 290V350 9999 NCD 04/01
                        Q1029 NOSIG=
201901082150 METAR COR EGLL 082150Z AUTO 31004KT 9999 NCD 04/01 Q1029
                        NOSIG=
201901082120 METAR COR EGLL 082120Z AUTO 32004KT 9999 NCD 05/01 Q1029
                        NOSIG=
201901082050 METAR COR EGLL 082050Z AUTO VRB03KT 9999 NCD 05/02 Q1029
                        NOSIG=
201901082020 METAR COR EGLL 082020Z AUTO 33005KT 300V020 9999 NCD 05/02
                        Q1029 NOSIG=
201901081950 METAR COR EGLL 081950Z AUTO 32007KT 9999 NCD 06/02 Q1029
                        NOSIG=
201901081920 METAR COR EGLL 081920Z AUTO 31005KT 9999 FEW042 06/02 Q1029
                        NOSIG=
201901081850 METAR COR EGLL 081850Z AUTO 31005KT 9999 NCD 06/02 Q1029
                        NOSIG=
201901081820 METAR COR EGLL 081820Z AUTO 31006KT 9999 NCD 06/02 Q1029
                        NOSIG=
201901081750 METAR COR EGLL 081750Z AUTO 31007KT 9999 NCD 06/02 Q1029
                        NOSIG=
201901081720 METAR COR EGLL 081720Z AUTO 31007KT 9999 NCD 07/02 Q1029
                        NOSIG=
201901081650 METAR COR EGLL 081650Z AUTO 31005KT 9999 NCD 07/02 Q1028
                        NOSIG=
201901081620 METAR COR EGLL 081620Z AUTO 31005KT 9999 NCD 08/02 Q1028
                        NOSIG=
201901081550 METAR COR EGLL 081550Z AUTO 32005KT 9999 NCD 08/01 Q1028
                        NOSIG=
201901081520 METAR COR EGLL 081520Z AUTO 33007KT 300V010 9999 NCD 09/01
                        Q1028 NOSIG=
201901081450 METAR COR EGLL 081450Z AUTO 32008KT 280V010 9999 NCD 09/01
                        Q1028 NOSIG=
201901081420 METAR COR EGLL 081420Z AUTO 32008KT 290V360 9999 NCD 09/02
                        Q1028 NOSIG=
201901081350 METAR COR EGLL 081350Z AUTO 32007KT 290V360 9999 NCD 09/02
                        Q1028 NOSIG=
201901081320 METAR COR EGLL 081320Z AUTO 32009KT 270V350 9999 NCD 10/02
                        Q1028 NOSIG=
201901081250 METAR COR EGLL 081250Z AUTO 32008KT 300V360 9999 NCD 10/02
                        Q1028 NOSIG=
201901081220 METAR COR EGLL 081220Z AUTO 32007KT 280V360 9999 NCD 09/02
                        Q1028 NOSIG=
201901081150 METAR COR EGLL 081150Z AUTO 32006G17KT 280V350 9999 NCD 09/02
                        Q1028 NOSIG=
201901081120 METAR COR EGLL 081120Z AUTO 31008KT 9999 NCD 09/02 Q1029
                        NOSIG=
201901081050 METAR COR EGLL 081050Z AUTO 31009KT 270V340 9999 NCD 09/03
                        Q1029 NOSIG=
201901081020 METAR COR EGLL 081020Z AUTO 31008KT 280V010 9999 NCD 08/03
                        Q1028 NOSIG=
201901080950 METAR COR EGLL 080950Z AUTO 31008KT 9999 NCD 07/03 Q1028
                        NOSIG=
201901080920 METAR COR EGLL 080920Z AUTO 31007KT 9999 NCD 07/03 Q1028
                        NOSIG=
201901080850 METAR COR EGLL 080850Z AUTO 30008KT 9999 NCD 07/03 Q1028
                        NOSIG=
201901080820 METAR COR EGLL 080820Z AUTO 30006KT 9999 NCD 06/03 Q1027
                        NOSIG=
201901080750 METAR COR EGLL 080750Z AUTO 29007KT 9999 NCD 07/03 Q1027
                        NOSIG=
201901080720 METAR COR EGLL 080720Z AUTO 30009KT 9999 NCD 07/03 Q1027
                        NOSIG=
201901080650 METAR COR EGLL 080650Z AUTO 30011KT 9999 NCD 07/03 Q1026
                        NOSIG=
201901080620 METAR COR EGLL 080620Z AUTO 29010KT 9999 NCD 07/03 Q1027
                        NOSIG=
201901080550 METAR COR EGLL 080550Z AUTO 29010KT 9999 NCD 07/03 Q1027
                        NOSIG=
201901080520 METAR COR EGLL 080520Z AUTO 29012KT 9999 NCD 07/02 Q1027
                        NOSIG=
201901080450 METAR COR EGLL 080450Z AUTO 29011KT 9999 NCD 06/02 Q1027
                        NOSIG=
201901080420 METAR COR EGLL 080420Z AUTO 29012KT 9999 NCD 06/02 Q1027
                        NOSIG=
201901080350 METAR COR EGLL 080350Z AUTO 29009KT 9999 NCD 07/02 Q1027
                        NOSIG=
201901080320 METAR COR EGLL 080320Z 29009KT 9999 FEW040 07/02 Q1027 NOSIG=
201901080250 METAR COR EGLL 080250Z AUTO 28010KT 9999 NCD 07/02 Q1027
                        NOSIG=
201901080220 METAR COR EGLL 080220Z AUTO 29011KT 9999 NCD 07/02 Q1027
                        NOSIG=
201901080150 METAR COR EGLL 080150Z AUTO 29009KT 9999 NCD 08/02 Q1027
                        NOSIG=
201901080120 METAR COR EGLL 080120Z AUTO 29010KT 9999 NCD 08/02 Q1027
                        NOSIG=
201901080050 METAR COR EGLL 080050Z AUTO 30010KT 9999 NCD 08/02 Q1028
                        NOSIG=
201901080020 METAR COR EGLL 080020Z AUTO 30009KT 9999 NCD 09/03 Q1028
                        NOSIG=
201901072350 METAR COR EGLL 072350Z AUTO 30011KT 9999 FEW028 SCT042 09/03
                        Q1027 NOSIG=
201901072320 METAR COR EGLL 072320Z AUTO 32007KT 290V020 9999 FEW020 SCT025
                        BKN045 10/07 Q1027 NOSIG=
201901072250 METAR COR EGLL 072250Z AUTO 29009KT 9999 BKN049 10/07 Q1027
                        NOSIG=
201901072220 METAR COR EGLL 072220Z AUTO 28010KT 9999 FEW021 10/07 Q1027
                        NOSIG=
201901072150 METAR COR EGLL 072150Z AUTO 27010KT 9999 BKN020 BKN028 10/07
                        Q1027 NOSIG=
201901072120 METAR COR EGLL 072120Z AUTO 27015KT 9999 SCT020 10/07 Q1027
                        NOSIG=
201901072050 METAR COR EGLL 072050Z AUTO 26017KT 9999 FEW020 SCT025 BKN045
                        10/07 Q1027 NOSIG=
201901072020 METAR COR EGLL 072020Z AUTO 27012KT 9999 SCT020 BKN024 BKN045
                        11/07 Q1028 NOSIG=
201901071950 METAR COR EGLL 071950Z AUTO 27015KT 9999 SCT021 BKN029 OVC040
                        10/07 Q1028 NOSIG=
201901071920 METAR COR EGLL 071920Z AUTO 27013KT 9999 BKN018 BKN031 10/07
                        Q1028 TEMPO BKN014=
201901071850 METAR COR EGLL 071850Z AUTO 27015KT 9999 BKN018 11/08 Q1028
                        NOSIG=
201901071820 METAR COR EGLL 071820Z AUTO 27018KT 9999 BKN018 11/08 Q1028
                        TEMPO BKN014=
201901071750 METAR COR EGLL 071750Z AUTO 27018KT 9999 SCT018 11/08 Q1028
                        TEMPO BKN014=
201901071720 METAR COR EGLL 071720Z AUTO 26016KT 9999 BKN016 BKN021 11/08
                        Q1028 TEMPO BKN014=
201901071650 METAR COR EGLL 071650Z AUTO 25014KT 9999 BKN015 OVC026 11/08
                        Q1028 NOSIG=
201901071620 METAR COR EGLL 071620Z AUTO 26014KT 9999 BKN013 OVC018 11/08
                        Q1029 TEMPO BKN015=
201901071550 METAR COR EGLL 071550Z AUTO 26016KT 9999 OVC011 11/08 Q1029
                        NOSIG=
201901071520 METAR COR EGLL 071520Z AUTO 26016KT 9999 OVC011 11/08 Q1030
                        NOSIG=
201901071450 METAR COR EGLL 071450Z AUTO 25014KT 9999 BKN011 OVC016 11/08
                        Q1030 TEMPO BKN009=
201901071420 METAR COR EGLL 071420Z AUTO 25011KT 9999 OVC010 10/08 Q1030
                        TEMPO BKN009=
201901071350 METAR COR EGLL 071350Z AUTO 25014KT 9999 BKN010 OVC016 10/08
                        Q1030 TEMPO BKN009=
201901071320 METAR COR EGLL 071320Z AUTO 26012KT 9999 OVC010 10/08 Q1031
                        NOSIG=
201901071250 METAR COR EGLL 071250Z AUTO 25013KT 9999 OVC011 10/08 Q1031
                        NOSIG=
201901071220 METAR COR EGLL 071220Z AUTO 25014KT 9999 OVC012 10/07 Q1032
                        NOSIG=
201901071150 METAR COR EGLL 071150Z AUTO 25013KT 9999 OVC013 10/07 Q1032
                        NOSIG=
201901071120 METAR COR EGLL 071120Z AUTO 25011KT 9999 BKN014 OVC022 10/06
                        Q1033 NOSIG=
201901071050 METAR COR EGLL 071050Z AUTO 25010KT 9999 OVC019 09/06 Q1033
                        TEMPO BKN014=
201901071020 METAR COR EGLL 071020Z AUTO 25010KT 9999 OVC019 09/06 Q1034
                        TEMPO BKN014=
201901070950 METAR COR EGLL 070950Z AUTO 24011KT 9999 OVC021 09/05 Q1034
                        NOSIG=
201901070920 METAR COR EGLL 070920Z AUTO 25010KT 9999 OVC025 09/05 Q1034
                        NOSIG=
201901070850 METAR COR EGLL 070850Z AUTO 24010KT 9999 OVC019 09/05 Q1034
                        NOSIG=
201901070820 METAR COR EGLL 070820Z AUTO 25010KT 9999 OVC019 09/05 Q1034
                        NOSIG=
201901070750 METAR COR EGLL 070750Z AUTO 23009KT 9999 OVC019 08/05 Q1034
                        NOSIG=
201901070720 METAR COR EGLL 070720Z AUTO 22009KT 9999 OVC020 08/05 Q1034
                        NOSIG=
201901070650 METAR COR EGLL 070650Z AUTO 23009KT 9999 OVC020 08/05 Q1035
                        NOSIG=
201901070620 METAR COR EGLL 070620Z AUTO 22008KT 9999 OVC023 08/05 Q1035
                        NOSIG=
201901070550 METAR COR EGLL 070550Z AUTO 22006KT 9999 OVC024 08/05 Q1035
                        NOSIG=
201901070520 METAR COR EGLL 070520Z AUTO 23006KT 9999 OVC025 09/05 Q1035
                        NOSIG=
201901070450 METAR COR EGLL 070450Z AUTO 24006KT 9999 OVC023 09/05 Q1036
                        NOSIG=
201901070420 METAR COR EGLL 070420Z AUTO 26007KT 9999 OVC023 08/05 Q1036
                        NOSIG=
201901070350 METAR COR EGLL 070350Z AUTO 28005KT 9999 OVC024 07/06 Q1036
                        NOSIG=
201901070320 METAR COR EGLL 070320Z AUTO 27005KT 9999 OVC025 08/06 Q1037
                        NOSIG=
201901070250 METAR COR EGLL 070250Z AUTO 28004KT 9999 OVC025 08/06 Q1037
                        NOSIG=
201901070220 METAR COR EGLL 070220Z AUTO 28005KT 9999 OVC024 08/06 Q1037
                        NOSIG=
201901070150 METAR COR EGLL 070150Z AUTO 28005KT 9999 OVC024 08/06 Q1037
                        NOSIG=
201901070120 METAR COR EGLL 070120Z AUTO 28006KT 9999 OVC026 08/06 Q1037
                        NOSIG=
201901070050 METAR COR EGLL 070050Z AUTO 26004KT 9999 OVC027 07/06 Q1037
                        NOSIG=
201901070020 METAR COR EGLL 070020Z AUTO 26005KT 9999 OVC026 07/05 Q1037
                        NOSIG=
201901062350 METAR COR EGLL 062350Z AUTO 26003KT 9999 OVC027 08/05 Q1037
                        NOSIG=
201901062320 METAR COR EGLL 062320Z AUTO 27004KT 9999 BKN026 07/05 Q1037
                        NOSIG=
201901062250 METAR COR EGLL 062250Z AUTO 27004KT 9999 FEW027 SCT042 08/05
                        Q1037 NOSIG=
201901062220 METAR COR EGLL 062220Z AUTO VRB02KT 9999 BKN043 08/05 Q1037
                        NOSIG=
201901062150 METAR COR EGLL 062150Z AUTO 29004KT 9999 SCT029 BKN044 09/06
                        Q1037 NOSIG=
201901062120 METAR COR EGLL 062120Z AUTO 29005KT 9999 OVC045 08/06 Q1037
                        NOSIG=
201901062050 METAR COR EGLL 062050Z AUTO 29006KT 9999 OVC045 09/06 Q1037
                        NOSIG=
201901062020 METAR COR EGLL 062020Z AUTO 28005KT 9999 OVC047 09/06 Q1037
                        NOSIG=
201901061950 METAR COR EGLL 061950Z AUTO 29005KT 9999 OVC049 09/06 Q1037
                        NOSIG=
201901061920 METAR COR EGLL 061920Z AUTO 29004KT 9999 OVC049 09/06 Q1037
                        NOSIG=
201901061850 METAR COR EGLL 061850Z AUTO 30003KT 9999 BKN038 10/06 Q1037
                        NOSIG=
201901061820 METAR COR EGLL 061820Z AUTO 31003KT 9999 FEW018 BKN038 OVC049
                        10/06 Q1037 NOSIG=
201901061750 METAR COR EGLL 061750Z AUTO VRB02KT 9999 FEW018 BKN038 BKN046
                        10/06 Q1037 NOSIG=
201901061720 METAR COR EGLL 061720Z AUTO VRB01KT 9999 OVC039 10/06 Q1037
                        NOSIG=
201901061650 METAR COR EGLL 061650Z AUTO VRB02KT 9999 OVC039 10/06 Q1037
                        NOSIG=
201901061620 METAR COR EGLL 061620Z AUTO VRB03KT 9999 OVC038 10/06 Q1037
                        NOSIG=
201901061550 METAR COR EGLL 061550Z AUTO VRB02KT 9999 OVC038 10/06 Q1036
                        NOSIG=
201901061520 METAR COR EGLL 061520Z AUTO VRB03KT 9999 OVC037 10/06 Q1036
                        NOSIG=
201901061450 METAR COR EGLL 061450Z AUTO 29005KT 9999 OVC037 10/06 Q1036
                        NOSIG=
201901061420 METAR COR EGLL 061420Z AUTO 31004KT 9999 OVC037 10/06 Q1036
                        NOSIG=
201901061350 METAR COR EGLL 061350Z AUTO 32005KT 280V360 9999 OVC037 10/05
                        Q1036 NOSIG=
201901061320 METAR COR EGLL 061320Z AUTO 31004KT 280V350 9999 BKN037 OVC044
                        10/05 Q1036 NOSIG=
201901061250 METAR COR EGLL 061250Z AUTO 31007KT 280V350 9999 OVC040 10/05
                        Q1036 NOSIG=
201901061220 METAR COR EGLL 061220Z AUTO 29006KT 9999 BKN035 09/05 Q1036
                        NOSIG=
201901061150 METAR COR EGLL 061150Z AUTO 29005KT 9999 OVC035 09/05 Q1037
                        NOSIG=
201901061120 METAR COR EGLL 061120Z AUTO 29006KT 9999 BKN037 OVC045 08/04
                        Q1037 NOSIG=
201901061050 METAR COR EGLL 061050Z AUTO 28005KT 9999 BKN041 08/04 Q1037
                        NOSIG=
201901061020 METAR COR EGLL 061020Z AUTO 29005KT 9999 BKN038 07/04 Q1037
                        NOSIG=
201901060950 METAR COR EGLL 060950Z AUTO 29007KT 9999 BKN035 OVC042 07/04
                        Q1037 NOSIG=
201901060920 METAR COR EGLL 060920Z AUTO 29005KT 9999 OVC035 07/04 Q1037
                        NOSIG=
201901060850 METAR COR EGLL 060850Z AUTO 29006KT 9999 OVC036 06/04 Q1037
                        NOSIG=
201901060820 METAR COR EGLL 060820Z AUTO 28007KT 9999 OVC036 06/04 Q1036
                        NOSIG=
201901060750 METAR COR EGLL 060750Z AUTO 27008KT 9999 OVC039 06/04 Q1036
                        NOSIG=
201901060720 METAR COR EGLL 060720Z AUTO 27007KT 9999 OVC038 06/03 Q1036
                        NOSIG=
201901060650 METAR COR EGLL 060650Z AUTO 27007KT 9999 OVC037 06/03 Q1036
                        NOSIG=
201901060620 METAR COR EGLL 060620Z AUTO 27006KT 9999 OVC033 06/03 Q1036
                        NOSIG=
201901060550 METAR COR EGLL 060550Z AUTO 27006KT 9999 OVC032 06/03 Q1036
                        NOSIG=
201901060520 METAR COR EGLL 060520Z AUTO 27006KT 9999 OVC030 06/03 Q1036
                        NOSIG=
201901060450 METAR COR EGLL 060450Z AUTO 27005KT 9999 OVC030 06/03 Q1036
                        NOSIG=
201901060420 METAR COR EGLL 060420Z AUTO 27006KT 9999 OVC031 06/03 Q1036
                        NOSIG=
201901060350 METAR COR EGLL 060350Z AUTO 27005KT 9999 OVC031 06/03 Q1037
                        NOSIG=
201901060320 METAR COR EGLL 060320Z AUTO 27004KT 9999 OVC030 06/03 Q1037
                        NOSIG=
201901060250 METAR COR EGLL 060250Z AUTO 27005KT 9999 OVC029 05/03 Q1037
                        NOSIG=
201901060220 METAR COR EGLL 060220Z AUTO 28004KT 9999 OVC029 06/03 Q1037
                        NOSIG=
201901060150 METAR COR EGLL 060150Z AUTO 27004KT 9999 OVC028 06/03 Q1037
                        NOSIG=
201901060120 METAR COR EGLL 060120Z AUTO 27005KT 9999 OVC028 05/03 Q1037
                        NOSIG=
201901060050 METAR COR EGLL 060050Z AUTO 27005KT 9999 OVC029 05/03 Q1037
                        NOSIG=
201901060020 METAR COR EGLL 060020Z AUTO 27005KT 9999 OVC029 05/02 Q1037
                        NOSIG=
201901052350 METAR COR EGLL 052350Z AUTO 27004KT 9999 OVC028 05/02 Q1037
                        NOSIG=
201901052320 METAR COR EGLL 052320Z AUTO 27005KT 9999 OVC028 05/02 Q1038
                        NOSIG=
201901052250 METAR COR EGLL 052250Z AUTO 27005KT 9999 OVC028 06/02 Q1038
                        NOSIG=
201901052220 METAR COR EGLL 052220Z AUTO 27006KT 9999 OVC028 06/02 Q1038
                        NOSIG=
201901052150 METAR COR EGLL 052150Z AUTO 27005KT 9999 OVC027 05/02 Q1038
                        NOSIG=
201901052120 METAR COR EGLL 052120Z AUTO 27005KT 9999 OVC027 05/02 Q1038
                        NOSIG=
201901052050 METAR COR EGLL 052050Z AUTO 28005KT 9999 OVC027 06/02 Q1038
                        NOSIG=
201901052020 METAR COR EGLL 052020Z AUTO 28004KT 9999 OVC025 05/02 Q1038
                        NOSIG=
201901051950 METAR COR EGLL 051950Z AUTO 28006KT 9999 OVC026 05/02 Q1038
                        NOSIG=
201901051920 METAR COR EGLL 051920Z AUTO 27004KT 9999 OVC026 06/02 Q1038
                        NOSIG=
201901051850 METAR COR EGLL 051850Z AUTO 27005KT 9999 OVC026 05/02 Q1038
                        NOSIG=
201901051820 METAR COR EGLL 051820Z AUTO 27006KT 9999 OVC025 05/02 Q1038
                        NOSIG=
201901051750 METAR COR EGLL 051750Z AUTO 27004KT 9999 OVC025 06/02 Q1038
                        NOSIG=
201901051720 METAR COR EGLL 051720Z AUTO 27005KT 9999 OVC024 05/02 Q1038
                        NOSIG=
201901051650 METAR COR EGLL 051650Z AUTO 28004KT 9999 OVC023 06/02 Q1038
                        NOSIG=
201901051620 METAR COR EGLL 051620Z AUTO 29004KT 9999 OVC023 06/02 Q1038
                        NOSIG=
201901051550 METAR COR EGLL 051550Z AUTO 29004KT 9999 OVC022 06/01 Q1038
                        NOSIG=
201901051520 METAR COR EGLL 051520Z AUTO 30004KT 270V340 9999 OVC022 06/01
                        Q1038 NOSIG=
201901051450 METAR COR EGLL 051450Z AUTO 30006KT 9999 OVC021 05/01 Q1038
                        NOSIG=
201901051420 METAR COR EGLL 051420Z AUTO 31007KT 270V350 9999 OVC021 05/01
                        Q1038 NOSIG=
201901051350 METAR COR EGLL 051350Z AUTO 32005KT 9999 OVC021 05/01 Q1038
                        NOSIG=
201901051320 METAR COR EGLL 051320Z AUTO 32005KT 290V350 9999 OVC021 05/01
                        Q1038 NOSIG=
201901051250 METAR COR EGLL 051250Z AUTO 32005KT 290V350 9999 OVC021 05/01
                        Q1039 NOSIG=
201901051220 METAR COR EGLL 051220Z AUTO 32005KT 270V360 9999 OVC022 05/00
                        Q1039 NOSIG=
201901051150 METAR COR EGLL 051150Z AUTO 31005KT 9999 OVC022 04/00 Q1039
                        NOSIG=
201901051120 METAR COR EGLL 051120Z AUTO 32007KT 290V360 9999 OVC021 04/M00
                        Q1039 NOSIG=
201901051050 METAR COR EGLL 051050Z AUTO 31008KT 9999 OVC021 04/M00 Q1040
                        NOSIG=
201901051020 METAR COR EGLL 051020Z AUTO 32007KT 290V360 9999 OVC021 05/00
                        Q1040 NOSIG=
201901050950 METAR COR EGLL 050950Z AUTO 32007KT 9999 OVC021 05/00 Q1039
                        NOSIG=
201901050920 METAR COR EGLL 050920Z AUTO 32006KT 290V020 9999 OVC021 05/01
                        Q1039 NOSIG=
201901050850 METAR COR EGLL 050850Z AUTO 32006KT 9999 OVC021 05/01 Q1039
                        NOSIG=
201901050820 METAR COR EGLL 050820Z AUTO 33004KT 290V030 9999 OVC021 05/01
                        Q1039 NOSIG=
201901050750 METAR COR EGLL 050750Z AUTO 30004KT 9999 OVC021 04/01 Q1039
                        NOSIG=
201901050720 METAR COR EGLL 050720Z AUTO 30004KT 9999 OVC021 04/01 Q1039
                        NOSIG=
201901050650 METAR COR EGLL 050650Z AUTO 28004KT 9999 OVC020 04/01 Q1039
                        NOSIG=
201901050620 METAR COR EGLL 050620Z AUTO 29003KT 9999 OVC021 04/01 Q1039
                        NOSIG=
201901050550 METAR COR EGLL 050550Z AUTO 29005KT 9999 OVC021 04/01 Q1039
                        NOSIG=
201901050520 METAR COR EGLL 050520Z AUTO 28005KT 9999 OVC021 04/01 Q1039
                        NOSIG=
201901050450 METAR COR EGLL 050450Z AUTO 27003KT 9999 OVC022 04/01 Q1039
                        NOSIG=
201901050420 METAR COR EGLL 050420Z AUTO 29003KT 9999 OVC022 03/01 Q1040
                        NOSIG=
201901050350 METAR COR EGLL 050350Z AUTO 30003KT 9999 OVC022 03/01 Q1040
                        NOSIG=
201901050320 METAR COR EGLL 050320Z AUTO 29004KT 9999 OVC023 03/01 Q1040
                        NOSIG=
201901050250 METAR COR EGLL 050250Z AUTO 28004KT 9000 OVC023 03/01 Q1040
                        NOSIG=
201901050220 METAR COR EGLL 050220Z AUTO 29004KT 9999 OVC023 03/01 Q1040
                        NOSIG=
201901050150 METAR COR EGLL 050150Z AUTO 30005KT 9999 OVC022 03/00 Q1040
                        NOSIG=
201901050120 METAR COR EGLL 050120Z AUTO 30004KT 9999 OVC022 03/00 Q1040
                        NOSIG=
201901050050 METAR COR EGLL 050050Z AUTO 30004KT 9999 OVC022 03/00 Q1040
                        NOSIG=
201901050020 METAR COR EGLL 050020Z AUTO VRB03KT 9999 OVC023 03/00 Q1040
                        NOSIG=
201901042350 METAR COR EGLL 042350Z AUTO 30003KT 9999 OVC023 03/00 Q1041
                        NOSIG=
201901042320 METAR COR EGLL 042320Z AUTO 30004KT 9999 OVC023 03/M00 Q1041
                        NOSIG=
201901042250 METAR COR EGLL 042250Z AUTO 30004KT 9999 OVC023 03/M00 Q1041
                        NOSIG=
201901042220 METAR COR EGLL 042220Z AUTO 30004KT 280V340 9000 OVC023 03/M00
                        Q1041 NOSIG=
201901042150 METAR COR EGLL 042150Z AUTO 31004KT 280V360 9999 OVC023 03/M00
                        Q1041 NOSIG=
201901042120 METAR COR EGLL 042120Z AUTO VRB03KT 9999 OVC023 03/M01 Q1041
                        NOSIG=
201901042050 METAR COR EGLL 042050Z AUTO 29004KT 9000 OVC024 03/M01 Q1041
                        NOSIG=
201901042020 METAR COR EGLL 042020Z AUTO 29004KT 9000 OVC024 03/M01 Q1041
                        NOSIG=
201901041950 METAR COR EGLL 041950Z AUTO 29004KT 9000 OVC025 03/M01 Q1041
                        NOSIG=
201901041920 METAR COR EGLL 041920Z AUTO 27004KT 8000 OVC025 03/M01 Q1041
                        NOSIG=
201901041850 METAR COR EGLL 041850Z AUTO 27005KT 8000 OVC026 03/M01 Q1041
                        NOSIG=
201901041820 METAR COR EGLL 041820Z AUTO 29004KT 9000 OVC026 03/M01 Q1041
                        NOSIG=
201901041750 METAR COR EGLL 041750Z AUTO 30004KT 8000 OVC026 03/M01 Q1041
                        NOSIG=
201901041720 METAR COR EGLL 041720Z AUTO 28004KT 9999 OVC025 03/M01 Q1041
                        NOSIG=
201901041650 METAR COR EGLL 041650Z AUTO 28002KT 9999 OVC024 04/M01 Q1041
                        NOSIG=
201901041620 METAR COR EGLL 041620Z AUTO VRB02KT 9999 BKN023 04/M01 Q1042
                        NOSIG=
201901041550 METAR COR EGLL 041550Z AUTO 36003KT 9999 FEW023 04/M01 Q1042
                        NOSIG=
201901041520 METAR COR EGLL 041520Z AUTO 30004KT 260V330 9999 NCD 04/M02
                        Q1041 NOSIG=
201901041450 METAR COR EGLL 041450Z AUTO 34004KT 290V030 9999 NCD 03/M02
                        Q1041 NOSIG=
201901041420 METAR COR EGLL 041420Z AUTO 33005KT 300V020 9999 NCD 04/M02
                        Q1041 NOSIG=
201901041350 METAR COR EGLL 041350Z AUTO 30005KT 270V350 9999 NCD 04/M02
                        Q1041 NOSIG=
201901041320 METAR COR EGLL 041320Z AUTO 32006KT 290V360 9999 NCD 04/M02
                        Q1042 NOSIG=
201901041250 METAR COR EGLL 041250Z AUTO 32004KT 270V020 9999 NCD 04/M02
                        Q1042 NOSIG=
201901041220 METAR COR EGLL 041220Z AUTO 28005KT 250V310 9999 NCD 04/M02
                        Q1042 NOSIG=
201901041150 METAR COR EGLL 041150Z AUTO VRB03KT 9999 NCD 03/M02 Q1042
                        NOSIG=
201901041120 METAR COR EGLL 041120Z AUTO VRB03KT 9999 NCD 03/M02 Q1042
                        NOSIG=
201901041050 METAR COR EGLL 041050Z AUTO VRB03KT 9999 NCD 03/M02 Q1043
                        NOSIG=
201901041020 METAR COR EGLL 041020Z AUTO VRB02KT 9999 NCD 02/M02 Q1043
                        NOSIG=
201901040950 METAR COR EGLL 040950Z AUTO VRB02KT 9999 NCD 02/M02 Q1043
                        NOSIG=
201901040920 METAR COR EGLL 040920Z AUTO VRB03KT 9999 NCD 02/M02 Q1043
                        NOSIG=
201901040850 METAR COR EGLL 040850Z AUTO 04003KT 9999 NCD 02/M02 Q1043
                        NOSIG=
201901040820 METAR COR EGLL 040820Z AUTO VRB03KT 9999 NCD 02/M02 Q1043
                        NOSIG=
201901040750 METAR COR EGLL 040750Z AUTO 05004KT 9999 NCD 02/M02 Q1043
                        NOSIG=
201901040720 METAR COR EGLL 040720Z AUTO VRB02KT 9999 OVC026 03/M01 Q1042
                        NOSIG=
201901040650 METAR COR EGLL 040650Z AUTO VRB02KT 9999 OVC026 03/M01 Q1042
                        NOSIG=
201901040620 METAR COR EGLL 040620Z AUTO VRB03KT 9999 OVC026 03/M01 Q1042
                        NOSIG=
201901040550 METAR COR EGLL 040550Z AUTO VRB03KT 9999 OVC026 03/M00 Q1042
                        NOSIG=
201901040520 METAR COR EGLL 040520Z AUTO 36004KT 9999 OVC027 03/M00 Q1042
                        NOSIG=
201901040450 METAR COR EGLL 040450Z AUTO VRB02KT 9999 OVC027 03/M00 Q1042
                        NOSIG=
201901040420 METAR COR EGLL 040420Z AUTO 01002KT 9999 OVC028 03/00 Q1042
                        NOSIG=
201901040350 METAR COR EGLL 040350Z AUTO 35001KT 9999 OVC029 03/M00 Q1042
                        NOSIG=
201901040320 METAR COR EGLL 040320Z AUTO 05001KT 9999 OVC029 03/M00 Q1043
                        NOSIG=
201901040250 METAR COR EGLL 040250Z AUTO VRB01KT 9999 OVC030 03/00 Q1043
                        NOSIG=
201901040220 METAR COR EGLL 040220Z AUTO VRB02KT 9999 OVC030 03/00 Q1043
                        NOSIG=
201901040150 METAR COR EGLL 040150Z AUTO 03001KT 9999 OVC030 03/00 Q1043
                        NOSIG=
201901040120 METAR COR EGLL 040120Z AUTO 07001KT 9999 OVC031 03/00 Q1043
                        NOSIG=
201901040050 METAR COR EGLL 040050Z AUTO 05002KT 9999 OVC031 03/00 Q1043
                        NOSIG=
201901040020 METAR COR EGLL 040020Z AUTO VRB02KT 9999 OVC032 03/M00 Q1043
                        NOSIG=
201901032350 METAR COR EGLL 032350Z AUTO VRB02KT 9999 OVC032 03/00 Q1043
                        NOSIG=
201901032320 METAR COR EGLL 032320Z AUTO VRB02KT 9999 OVC032 03/M00 Q1043
                        NOSIG=
201901032250 METAR COR EGLL 032250Z AUTO VRB03KT 9999 BKN032 04/00 Q1043
                        NOSIG=
201901032220 METAR COR EGLL 032220Z AUTO VRB02KT 9999 BKN029 04/M00 Q1043
                        NOSIG=
201901032150 METAR COR EGLL 032150Z AUTO 03003KT 9999 OVC028 04/M01 Q1043
                        NOSIG=
201901032120 METAR COR EGLL 032120Z AUTO VRB02KT 9999 OVC029 05/M00 Q1042
                        NOSIG=
201901032050 METAR COR EGLL 032050Z AUTO VRB03KT 9999 OVC030 04/M00 Q1043
                        NOSIG=
201901032020 METAR COR EGLL 032020Z AUTO VRB03KT 9999 OVC029 04/M00 Q1043
                        NOSIG=
201901031950 METAR COR EGLL 031950Z AUTO 04004KT 9999 OVC030 05/M00 Q1043
                        NOSIG=
201901031920 METAR COR EGLL 031920Z AUTO 04004KT 010V080 9999 OVC031 05/M01
                        Q1043 NOSIG=
201901031850 METAR COR EGLL 031850Z AUTO 04004KT 020V080 9999 OVC030 05/M00
                        Q1043 NOSIG=
201901031820 METAR COR EGLL 031820Z AUTO 05004KT 350V080 9999 OVC029 05/M01
                        Q1043 NOSIG=
201901031750 METAR COR EGLL 031750Z AUTO 05004KT 020V090 9999 BKN029 OVC037
                        05/M01 Q1043 NOSIG=
201901031720 METAR COR EGLL 031720Z AUTO 05004KT 9999 OVC031 05/M01 Q1043
                        NOSIG=
201901031650 METAR COR EGLL 031650Z AUTO 03004KT 330V090 9999 OVC033 05/M02
                        Q1043 NOSIG=
201901031620 METAR EGLL 031620Z AUTO VRB03KT 9999 OVC034 05/M02 Q1043=
201901031550 METAR COR EGLL 031550Z AUTO VRB03KT 9999 OVC034 06/M02 Q1043
                        NOSIG=
201901031520 METAR COR EGLL 031520Z AUTO VRB02KT 9999 OVC036 05/M02 Q1043
                        NOSIG=
201901031450 METAR COR EGLL 031450Z AUTO VRB03KT 9999 OVC035 05/M02 Q1043
                        NOSIG=
201901031420 METAR COR EGLL 031420Z AUTO 36005KT 310V050 9999 OVC036 05/M02
                        Q1043 NOSIG=
201901031350 METAR COR EGLL 031350Z AUTO VRB03KT 9999 OVC036 05/M02 Q1043
                        NOSIG=
201901031320 METAR COR EGLL 031320Z AUTO VRB03KT 9999 OVC036 05/M02 Q1043
                        NOSIG=
201901031250 METAR COR EGLL 031250Z AUTO VRB02KT 9999 OVC036 05/M02 Q1043
                        NOSIG=
201901031220 METAR COR EGLL 031220Z AUTO VRB03KT 9999 OVC036 05/M02 Q1043
                        NOSIG=
201901031150 METAR COR EGLL 031150Z AUTO VRB02KT 9999 OVC035 05/M02 Q1043
                        NOSIG=
201901031120 METAR COR EGLL 031120Z AUTO VRB03KT 9999 OVC036 05/M02 Q1043
                        NOSIG=
201901031050 METAR COR EGLL 031050Z AUTO 02004KT 330V070 9999 OVC036 05/M02
                        Q1043 NOSIG=
201901031020 METAR EGLL 031020Z AUTO VRB03KT 9999 OVC037 05/M03 Q1044=
201901030950 METAR COR EGLL 030950Z AUTO 35003KT 9999 OVC036 05/M02 Q1044
                        NOSIG=
201901030920 METAR COR EGLL 030920Z AUTO VRB03KT 9999 OVC035 05/M02 Q1044
                        NOSIG=
201901030850 METAR COR EGLL 030850Z AUTO VRB03KT 9999 OVC036 04/M02 Q1044
                        NOSIG=
201901030820 METAR COR EGLL 030820Z AUTO VRB03KT 9999 OVC036 05/M02 Q1043
                        NOSIG=
201901030750 METAR COR EGLL 030750Z AUTO VRB03KT 9999 OVC036 05/M02 Q1043
                        NOSIG=
201901030720 METAR COR EGLL 030720Z AUTO VRB03KT 9999 OVC036 05/M02 Q1043
                        NOSIG=
201901030650 METAR COR EGLL 030650Z AUTO VRB03KT 9999 OVC035 05/M01 Q1043
                        NOSIG=
201901030620 METAR COR EGLL 030620Z AUTO 35003KT 9999 OVC034 05/M01 Q1043
                        NOSIG=
201901030550 METAR COR EGLL 030550Z AUTO VRB03KT 9999 OVC035 05/M01 Q1043
                        NOSIG=
201901030520 METAR COR EGLL 030520Z AUTO VRB02KT 9999 OVC035 05/M01 Q1042
                        NOSIG=
201901030450 METAR COR EGLL 030450Z AUTO VRB02KT 9999 OVC035 05/M01 Q1042
                        NOSIG=
201901030420 METAR COR EGLL 030420Z AUTO VRB02KT 9999 OVC036 05/M00 Q1043
                        NOSIG=
201901030350 METAR COR EGLL 030350Z AUTO VRB02KT 9999 OVC035 04/00 Q1043
                        NOSIG=
201901030320 METAR COR EGLL 030320Z AUTO 04002KT 9999 OVC034 05/M00 Q1043
                        NOSIG=
201901030250 METAR COR EGLL 030250Z AUTO VRB02KT 9999 OVC034 05/00 Q1043
                        NOSIG=
201901030220 METAR COR EGLL 030220Z AUTO VRB02KT 9999 OVC034 05/01 Q1043
                        NOSIG=
201901030150 METAR COR EGLL 030150Z AUTO VRB03KT 9999 OVC033 05/01 Q1043
                        NOSIG=
201901030120 METAR COR EGLL 030120Z AUTO VRB02KT 9999 OVC034 05/01 Q1043
                        NOSIG=
201901030050 METAR COR EGLL 030050Z AUTO VRB02KT 9999 OVC035 05/01 Q1043
                        NOSIG=
201901030020 METAR COR EGLL 030020Z AUTO VRB02KT 9999 OVC034 05/01 Q1043
                        NOSIG=
201901022350 METAR COR EGLL 022350Z AUTO VRB03KT 9999 OVC034 05/01 Q1043
                        NOSIG=
201901022320 METAR COR EGLL 022320Z AUTO VRB03KT 9999 OVC036 05/01 Q1043
                        NOSIG=
201901022250 METAR COR EGLL 022250Z AUTO 36004KT 9999 OVC036 05/01 Q1043
                        NOSIG=
201901022220 METAR COR EGLL 022220Z AUTO VRB03KT 9999 OVC037 05/01 Q1043
                        NOSIG=
201901022150 METAR COR EGLL 022150Z AUTO VRB03KT 9999 OVC035 05/01 Q1043
                        NOSIG=
201901022120 METAR COR EGLL 022120Z AUTO 36004KT 330V030 9999 OVC038 06/01
                        Q1043 NOSIG=
201901022050 METAR COR EGLL 022050Z AUTO 36004KT 9999 BKN036 06/01 Q1043
                        NOSIG=
201901022020 METAR COR EGLL 022020Z AUTO VRB03KT 9999 OVC038 06/01 Q1044
                        NOSIG=
201901021950 METAR COR EGLL 021950Z AUTO 35004KT 320V020 9999 OVC038 06/01
                        Q1044 NOSIG=
201901021920 METAR COR EGLL 021920Z AUTO VRB03KT 9999 BKN038 OVC044 06/01
                        Q1044 NOSIG=
201901021850 METAR COR EGLL 021850Z AUTO VRB03KT 9999 OVC038 06/01 Q1044
                        NOSIG=
201901021820 METAR COR EGLL 021820Z AUTO VRB02KT 9999 OVC038 06/01 Q1044
                        NOSIG=
201901021750 METAR COR EGLL 021750Z AUTO VRB03KT 9999 OVC037 06/00 Q1044
                        NOSIG=
201901021720 METAR COR EGLL 021720Z AUTO 01004KT 9999 OVC038 06/00 Q1044
                        NOSIG=
201901021650 METAR COR EGLL 021650Z AUTO 36003KT 9999 OVC038 06/00 Q1044
                        NOSIG=
201901021620 METAR COR EGLL 021620Z AUTO 02004KT 340V050 9999 OVC037 06/00
                        Q1043 NOSIG=
201901021550 METAR COR EGLL 021550Z AUTO VRB03KT 9999 OVC037 06/01 Q1043
                        NOSIG=
201901021520 METAR COR EGLL 021520Z AUTO 04005KT 010V070 9999 SCT026 OVC032
                        06/01 Q1043 NOSIG=
201901021450 METAR COR EGLL 021450Z AUTO 01005KT 330V060 9999 OVC029 06/00
                        Q1043 NOSIG=
201901021420 METAR COR EGLL 021420Z AUTO 01005KT 330V040 9999 OVC038 06/M00
                        Q1043 NOSIG=
201901021350 METAR COR EGLL 021350Z AUTO 01005KT 330V050 9999 OVC034 06/M00
                        Q1043 NOSIG=
201901021320 METAR COR EGLL 021320Z AUTO 01005KT 330V050 9999 BKN036 06/01
                        Q1043 NOSIG=
201901021250 METAR COR EGLL 021250Z AUTO 36005KT 320V030 9999 OVC037 06/01
                        Q1043 NOSIG=
201901021220 METAR EGLL 021220Z AUTO 36005KT 9999 OVC036 06/01 Q1044=
201901021150 METAR COR EGLL 021150Z AUTO 36006KT 9999 OVC036 06/01 Q1044
                        NOSIG=
201901021120 METAR COR EGLL 021120Z AUTO 36005KT 320V030 9999 OVC040 06/01
                        Q1044 NOSIG=
201901021050 METAR COR EGLL 021050Z AUTO 36005KT 320V040 9999 OVC035 05/01
                        Q1044 NOSIG=
201901021020 METAR COR EGLL 021020Z AUTO 36005KT 330V050 9999 OVC037 05/01
                        Q1044 NOSIG=
201901020950 METAR COR EGLL 020950Z AUTO VRB02KT 9999 OVC037 05/01 Q1044
                        NOSIG=
201901020920 METAR COR EGLL 020920Z AUTO 36004KT 320V030 9999 OVC039 05/00
                        Q1044 NOSIG=
201901020850 METAR COR EGLL 020850Z AUTO 36004KT 320V030 9999 OVC036 05/00
                        Q1044 NOSIG=
201901020820 METAR COR EGLL 020820Z AUTO VRB03KT 9999 OVC034 05/00 Q1043
                        NOSIG=
201901020750 METAR COR EGLL 020750Z AUTO VRB02KT 9999 OVC034 05/00 Q1043
                        NOSIG=
201901020720 METAR COR EGLL 020720Z AUTO VRB02KT 9999 OVC039 05/00 Q1043
                        NOSIG=
201901020650 METAR COR EGLL 020650Z AUTO VRB03KT 9999 OVC035 05/00 Q1043
                        NOSIG=
201901020620 METAR COR EGLL 020620Z AUTO VRB03KT 9999 BKN039 04/00 Q1042
                        NOSIG=
201901020550 METAR COR EGLL 020550Z AUTO 32004KT 9999 OVC036 05/01 Q1042
                        NOSIG=
201901020520 METAR COR EGLL 020520Z AUTO VRB03KT 9999 OVC037 04/00 Q1042
                        NOSIG=
201901020450 METAR COR EGLL 020450Z AUTO VRB02KT 9999 OVC036 04/00 Q1042
                        NOSIG=
201901020420 METAR COR EGLL 020420Z AUTO VRB02KT 9999 OVC037 04/01 Q1042
                        NOSIG=
201901020350 METAR COR EGLL 020350Z AUTO 31003KT 9999 OVC039 04/00 Q1042
                        NOSIG=
201901020320 METAR COR EGLL 020320Z AUTO 32003KT 9999 BKN040 04/00 Q1042
                        NOSIG=
201901020250 METAR COR EGLL 020250Z AUTO 32003KT 9999 OVC039 04/01 Q1042
                        NOSIG=
201901020220 METAR COR EGLL 020220Z AUTO VRB03KT 9999 BKN041 04/00 Q1042
                        NOSIG=
201901020150 METAR COR EGLL 020150Z AUTO VRB03KT 9999 OVC038 04/01 Q1042
                        NOSIG=
201901020120 METAR COR EGLL 020120Z AUTO 35004KT 320V030 9999 BKN040 04/01
                        Q1041 NOSIG=
201901020050 METAR COR EGLL 020050Z AUTO 35004KT 320V030 9999 BKN040 04/00
                        Q1041 NOSIG=
201901020020 METAR COR EGLL 020020Z AUTO 36004KT 320V030 9999 NCD 04/00
                        Q1041 NOSIG=
201901012350 METAR COR EGLL 012350Z AUTO 36005KT 9999 NCD 04/01 Q1041
                        NOSIG=
201901012320 METAR COR EGLL 012320Z AUTO VRB03KT 9999 NCD 05/01 Q1040
                        NOSIG=
201901012250 METAR COR EGLL 012250Z AUTO 01004KT 340V060 9999 FEW043 05/01
                        Q1040 NOSIG=
201901012220 METAR COR EGLL 012220Z AUTO 03005KT 350V070 9999 OVC043 06/01
                        Q1040 NOSIG=
201901012150 METAR COR EGLL 012150Z AUTO 03007KT 360V060 9999 OVC041 07/01
                        Q1040 NOSIG=
201901012120 METAR COR EGLL 012120Z AUTO 03006KT 320V060 9999 FEW027 OVC034
                        07/02 Q1039 NOSIG=
201901012050 METAR COR EGLL 012050Z AUTO 04005KT 010V080 9999 FEW030 OVC039
                        08/02 Q1039 NOSIG=
201901012020 METAR COR EGLL 012020Z AUTO 06007KT 9999 OVC034 08/03 Q1039
                        NOSIG=
201901011950 METAR COR EGLL 011950Z AUTO VRB03KT 9999 OVC041 08/03 Q1038
                        NOSIG=
201901011920 METAR COR EGLL 011920Z AUTO 05003KT 9999 OVC043 08/04 Q1038
                        NOSIG=
201901011850 METAR COR EGLL 011850Z AUTO VRB03KT 9999 OVC043 08/04 Q1038
                        NOSIG=
201901011820 METAR COR EGLL 011820Z AUTO 04005KT 350V070 9999 OVC043 08/04
                        Q1037 NOSIG=
201901011750 METAR COR EGLL 011750Z AUTO 03006KT 360V070 9999 SCT032 BKN039
                        09/04 Q1037 NOSIG=
201901011720 METAR COR EGLL 011720Z AUTO 02005KT 340V060 9999 FEW023 SCT027
                        BKN038 10/06 Q1037 NOSIG=
201901011650 METAR COR EGLL 011650Z AUTO 33004KT 290V360 9999 NCD 10/06
                        Q1036 NOSIG=
201901011620 METAR COR EGLL 011620Z AUTO 32006KT 9999 FEW046 10/07 Q1036
                        NOSIG=
201901011550 METAR COR EGLL 011550Z AUTO 30008KT 9999 FEW019 SCT037 10/07
                        Q1035 NOSIG=
201901011520 METAR COR EGLL 011520Z AUTO 31005KT 9999 SCT017 OVC038 11/08
                        Q1035 NOSIG=
201901011450 METAR COR EGLL 011450Z AUTO 30006KT 9999 OVC041 10/07 Q1035
                        NOSIG=
201901011420 METAR COR EGLL 011420Z AUTO 31007KT 9999 OVC041 10/07 Q1035
                        NOSIG=
201901011350 METAR COR EGLL 011350Z AUTO 30009KT 9999 OVC040 10/07 Q1034
                        NOSIG=
201901011320 METAR COR EGLL 011320Z AUTO 31010KT 9999 OVC039 11/07 Q1034
                        NOSIG=
201901011250 METAR COR EGLL 011250Z AUTO 31008KT 9999 FEW017 OVC043 11/07
                        Q1034 NOSIG=
201901011220 METAR COR EGLL 011220Z AUTO 30008KT 9999 OVC043 11/07 Q1034
                        NOSIG=
201901011150 METAR COR EGLL 011150Z AUTO 30009KT 9999 OVC042 11/07 Q1034
                        NOSIG=
201901011120 METAR COR EGLL 011120Z AUTO 30008KT 9999 BKN041 10/07 Q1034
                        NOSIG=
201901011050 METAR COR EGLL 011050Z AUTO 29007KT 9999 FEW028 SCT040 10/06
                        Q1035 NOSIG=
201901011020 METAR COR EGLL 011020Z AUTO 29007KT 9999 OVC025 09/06 Q1035
                        NOSIG=
201901010950 METAR COR EGLL 010950Z AUTO 28007KT 9999 BKN026 08/05 Q1035
                        NOSIG=
201901010920 METAR COR EGLL 010920Z AUTO 28006KT 9999 OVC025 08/05 Q1035
                        NOSIG=
201901010850 METAR COR EGLL 010850Z AUTO 27005KT 9999 OVC021 08/05 Q1035
                        NOSIG=
201901010820 METAR COR EGLL 010820Z AUTO 28007KT 9999 BKN020 08/05 Q1035
                        NOSIG=
201901010750 METAR COR EGLL 010750Z AUTO 27007KT 9999 OVC022 07/05 Q1034
                        NOSIG=
201901010720 METAR COR EGLL 010720Z AUTO 28007KT 9999 BKN022 BKN034 07/04
                        Q1034 NOSIG=
201901010650 METAR COR EGLL 010650Z AUTO 27007KT 9999 FEW024 BKN033 07/05
                        Q1034 NOSIG=
201901010620 METAR COR EGLL 010620Z AUTO 27005KT 240V300 9999 NCD 07/04
                        Q1034 NOSIG=
201901010550 METAR COR EGLL 010550Z AUTO 26004KT 9999 NCD 06/04 Q1034
                        NOSIG=
201901010520 METAR COR EGLL 010520Z AUTO 27006KT 9999 NCD 06/04 Q1034
                        NOSIG=
201901010450 METAR COR EGLL 010450Z AUTO 27007KT 9999 BKN025 07/05 Q1034
                        NOSIG=
201901010420 METAR COR EGLL 010420Z AUTO 27006KT 9999 OVC027 08/05 Q1034
                        NOSIG=
201901010350 METAR COR EGLL 010350Z AUTO 29006KT 9999 OVC026 09/05 Q1034
                        NOSIG=
201901010320 METAR COR EGLL 010320Z AUTO 29007KT 270V330 9999 OVC026 09/05
                        Q1035 NOSIG=
201901010250 METAR COR EGLL 010250Z AUTO 29007KT 9999 OVC025 09/05 Q1035
                        NOSIG=
201901010220 METAR COR EGLL 010220Z AUTO 29007KT 9999 BKN024 OVC030 09/05
                        Q1035 NOSIG=
201901010150 METAR COR EGLL 010150Z AUTO 29007KT 9999 OVC023 09/05 Q1034
                        NOSIG=
201901010120 METAR COR EGLL 010120Z AUTO 29007KT 9999 OVC022 09/05 Q1034
                        NOSIG=
201901010050 METAR COR EGLL 010050Z AUTO 29007KT 9999 BKN022 OVC026 08/05
                        Q1034 NOSIG=
201901010020 METAR COR EGLL 010020Z 27006KT 9999 OVC022 09/05 Q1034 NOSIG=

</pre>

</body>
</html>
