##########################################################
# Query made at 01/13/2020 12:54:21 UTC
# Time interval: from 01/01/2017 00:00  to 01/31/2017 23:59  UTC
##########################################################

##########################################################
# EGLL, London / Heathrow Airport (United Kingdom)
# WMO index: 03772
# Latitude 51-29N. Longitude 000-27W. Altitude 24 m.
##########################################################

###################################
#  METAR/SPECI from EGLL
###################################
201701312350 METAR COR EGLL 312350Z AUTO 13007KT 9999 -RA OVC004 09/09
                        Q1011 TEMPO FEW004 BKN006=
201701312320 METAR COR EGLL 312320Z AUTO 13007KT 9999 -RA OVC004 09/09
                        Q1011 TEMPO FEW004 BKN006=
201701312250 METAR COR EGLL 312250Z 13006KT 9999 -RA BKN006 09/09 Q1011
                        TEMPO BKN004=
201701312220 METAR COR EGLL 312220Z 13007KT 9999 -RA SCT008 09/09 Q1011
                        TEMPO BKN007=
201701312150 METAR COR EGLL 312150Z 13007KT 9999 -RA SCT006 BKN009 09/09
                        Q1011 NOSIG=
201701312120 METAR COR EGLL 312120Z 13006KT 9999 -RA SCT006 BKN008 09/09
                        Q1011 TEMPO SCT006 BKN010=
201701312050 METAR COR EGLL 312050Z 12005KT 9999 -RA BKN005 OVC011 09/09
                        Q1012 NOSIG=
201701312020 METAR COR EGLL 312020Z AUTO 11005KT 7000 -RA BKN005 09/09
                        Q1012 NOSIG=
201701311950 METAR COR EGLL 311950Z AUTO 12006KT 7000 -RA OVC004 09/09
                        Q1012 TEMPO FEW004 BKN006=
201701311920 METAR COR EGLL 311920Z AUTO 12006KT 8000 -RA BKN005 09/09
                        Q1012 TEMPO SCT005 BKN010=
201701311850 METAR COR EGLL 311850Z AUTO 13006KT 3600 -DZ OVC005 09/09
                        Q1012 NOSIG=
201701311820 METAR COR EGLL 311820Z AUTO 13006KT 3800 -RADZ OVC006 09/08
                        Q1012 TEMPO BKN004=
201701311750 METAR COR EGLL 311750Z AUTO 12005KT 8000 -RA BKN005 09/09
                        Q1012 RERA REDZ NOSIG=
201701311720 METAR COR EGLL 311720Z AUTO 13005KT 3100 BR OVC005 09/09
                        Q1012 RERA REDZ TEMPO BKN004=
201701311650 METAR COR EGLL 311650Z AUTO 11006KT 1900 -RADZ OVC006 08/08
                        Q1012 TEMPO 5000 BR=
201701311620 METAR COR EGLL 311620Z AUTO 11006KT 8000 OVC006 08/08 Q1012
                        TEMPO 4000 -RADZ=
201701311550 METAR COR EGLL 311550Z AUTO 11006KT 7000 OVC006 08/08 Q1012
                        TEMPO 4000 -RADZ=
201701311520 METAR COR EGLL 311520Z AUTO 11006KT 6000 OVC006 08/08 Q1012
                        TEMPO 4000 -RADZ=
201701311450 METAR COR EGLL 311450Z AUTO 11007KT 6000 OVC006 08/08 Q1012
                        NOSIG=
201701311420 METAR COR EGLL 311420Z AUTO 11006KT 7000 OVC006 08/08 Q1012
                        NOSIG=
201701311350 METAR COR EGLL 311350Z AUTO 12007KT 8000 OVC006 08/08 Q1013
                        NOSIG=
201701311320 METAR COR EGLL 311320Z AUTO 13007KT 8000 OVC007 08/07 Q1013
                        NOSIG=
201701311250 METAR COR EGLL 311250Z 12006KT 8000 -RA BKN007 08/07 Q1013
                        NOSIG=
201701311220 METAR COR EGLL 311220Z 11006KT 8000 FEW006 BKN008 08/07 Q1013
                        NOSIG=
201701311150 METAR COR EGLL 311150Z 11005KT 6000 -RA FEW005 BKN007 07/07
                        Q1013 NOSIG=
201701311120 METAR COR EGLL 311120Z 12005KT 4800 BR FEW004 BKN006 07/07
                        Q1013 TEMPO BKN004=
201701311050 METAR COR EGLL 311050Z 11007KT 2500 BR SCT003 BKN004 07/07
                        Q1014 TEMPO BKN005=
201701311020 METAR COR EGLL 311020Z 10007KT 2600 BR FEW004 BKN005 06/06
                        Q1014 TEMPO BKN004=
201701310950 METAR COR EGLL 310950Z 10007KT 2600 BR FEW003 BKN005 06/06
                        Q1014 NOSIG=
201701310920 METAR COR EGLL 310920Z AUTO 10007KT 2100 BR OVC004 06/06
                        Q1013 BECMG OVC006=
201701310850 METAR COR EGLL 310850Z AUTO 11008KT 2700 BR OVC004 06/06
                        Q1013 BECMG OVC006=
201701310820 METAR COR EGLL 310820Z AUTO 11006KT 3100 BR OVC003 06/06
                        Q1013 BECMG OVC006=
201701310750 METAR COR EGLL 310750Z AUTO 11009KT 3200 BR OVC004 06/06
                        Q1013 TEMPO OVC006=
201701310720 METAR COR EGLL 310720Z 11008KT 2900 BR FEW003 SCT004 BKN006
                        06/06 Q1013 TEMPO BKN004=
201701310650 METAR COR EGLL 310650Z 11010KT 1800 -RADZ SCT004 BKN006 06/06
                        Q1013 TEMPO 5000 SCT006 BKN010=
201701310620 METAR COR EGLL 310620Z 11010KT 3500 BR FEW005 BKN007 06/06
                        Q1013 TEMPO 5000=
201701310550 METAR COR EGLL 310550Z 11010KT 3000 BR FEW006 BKN007 06/06
                        Q1013 TEMPO 5000 SCT007 BKN010=
201701310520 METAR COR EGLL 310520Z 10009KT 5000 BR FEW007 BKN008 06/06
                        Q1013 TEMPO 4000 SCT008 BKN010=
201701310450 METAR COR EGLL 310450Z 10010KT 4000 BR BKN008 06/06 Q1013
                        TEMPO 5000 SCT007 BKN010=
201701310420 METAR COR EGLL 310420Z 11009KT 3900 BR BKN008 06/06 Q1013
                        TEMPO 6000=
201701310350 METAR COR EGLL 310350Z 10008KT 9999 BKN007 06/06 Q1013 TEMPO
                        SCT007 BKN010=
201701310320 METAR COR EGLL 310320Z 11008KT 9000 FEW005 BKN010 06/06 Q1013
                        TEMPO BKN006=
201701310250 METAR COR EGLL 310250Z AUTO 11008KT 8000 OVC005 06/06 Q1013
                        TEMPO SCT005 BKN010=
201701310220 METAR COR EGLL 310220Z AUTO 11008KT 7000 OVC005 06/06 Q1013
                        NOSIG=
201701310150 METAR COR EGLL 310150Z AUTO 10007KT 5000 BR OVC004 06/06
                        Q1013 RERA TEMPO FEW004 BKN008=
201701310120 METAR COR EGLL 310120Z AUTO 11007KT 3800 RA BKN003 06/06
                        Q1013 REDZ TEMPO 5000 -RA BKN005=
201701310050 METAR COR EGLL 310050Z 09008KT 2000 -RADZ FEW004 BKN009 06/06
                        Q1013 TEMPO BKN004=
201701310020 METAR COR EGLL 310020Z AUTO 10005KT 3400 -RADZ OVC003 06/06
                        Q1013 TEMPO 5000 BKN005=
201701302350 METAR COR EGLL 302350Z 10005KT 3600 -RADZ SCT005 BKN008 06/06
                        Q1013 TEMPO 5000 HZ SCT008 BKN010=
201701302320 METAR COR EGLL 302320Z 11008KT 2500 -RADZ FEW004 BKN006 06/06
                        Q1013 NOSIG=
201701302250 METAR COR EGLL 302250Z 11007KT 2700 -RADZ FEW004 BKN005 06/06
                        Q1013 NOSIG=
201701302220 METAR COR EGLL 302220Z 11008KT 1800 -RADZ FEW003 BKN004 06/06
                        Q1013 TEMPO FEW004 BKN009=
201701302150 METAR COR EGLL 302150Z 11006KT 2300 -RA FEW003 SCT006 BKN009
                        06/06 Q1013 TEMPO 5000 BKN006=
201701302120 METAR COR EGLL 302120Z 10009KT 2200 -RA FEW004 SCT007 BKN010
                        06/06 Q1013 TEMPO 5000 HZ BKN007=
201701302050 METAR COR EGLL 302050Z AUTO 10009KT 2400 -RA OVC006 06/06
                        Q1013 RERA TEMPO 5000 BR SCT006 BKN010=
201701302020 METAR COR EGLL 302020Z AUTO 10009KT 5000 BR OVC008 06/06
                        Q1013 4500 BR SCT008 BKN010=
201701301950 METAR COR EGLL 301950Z AUTO 10010KT 5000 HZ OVC008 07/06
                        Q1013 TEMPO 4500 BR SCT008 BKN010=
201701301920 METAR COR EGLL 301920Z AUTO 10009KT 7000 OVC008 07/06 Q1013
                        TEMPO SCT008 BKN010=
201701301850 METAR COR EGLL 301850Z AUTO 10009KT 7000 BKN008 07/06 Q1013
                        TEMPO BKN012=
201701301820 METAR COR EGLL 301820Z AUTO 10009KT 8000 BKN008 07/06 Q1013
                        TEMPO BKN012=
201701301750 METAR COR EGLL 301750Z AUTO 09009KT 9000 BKN007 07/06 Q1012
                        TEMPO BKN012=
201701301720 METAR COR EGLL 301720Z AUTO 10009KT 9999 OVC008 07/07 Q1012
                        TEMPO OVC012=
201701301650 METAR COR EGLL 301650Z AUTO 09007KT 7000 OVC010 07/07 Q1012
                        NOSIG=
201701301620 METAR COR EGLL 301620Z AUTO 10007KT 9999 OVC010 08/07 Q1012
                        NOSIG=
201701301550 METAR COR EGLL 301550Z AUTO 09007KT 9999 OVC012 08/06 Q1012
                        NOSIG=
201701301520 METAR COR EGLL 301520Z AUTO 09007KT 9999 OVC012 08/07 Q1011
                        NOSIG=
201701301450 METAR COR EGLL 301450Z AUTO 10006KT 9999 OVC010 08/07 Q1011
                        NOSIG=
201701301420 METAR COR EGLL 301420Z AUTO 09006KT 9999 OVC011 08/07 Q1012
                        NOSIG=
201701301350 METAR COR EGLL 301350Z AUTO 09006KT 9999 OVC010 08/07 Q1012
                        NOSIG=
201701301320 METAR COR EGLL 301320Z AUTO 07006KT 030V090 9999 OVC010 08/07
                        Q1012 NOSIG=
201701301250 METAR COR EGLL 301250Z AUTO 06004KT 9999 OVC009 08/07 Q1012
                        TEMPO BKN010=
201701301220 METAR COR EGLL 301220Z AUTO 08005KT 040V100 9999 SCT008 OVC019
                        08/07 Q1012 TEMPO BKN008=
201701301150 METAR COR EGLL 301150Z AUTO 08004KT 9999 BKN008 OVC020 08/07
                        Q1012 TEMPO BKN010=
201701301120 METAR COR EGLL 301120Z AUTO 08003KT 9000 BKN007 OVC021 07/07
                        Q1012 TEMPO SCT007 OVC021=
201701301050 METAR COR EGLL 301050Z AUTO 07004KT 050V120 9000 BKN006 OVC022
                        07/07 Q1012 BECMG SCT006 OVC022=
201701301020 METAR COR EGLL 301020Z VRB03KT 7000 BKN006 07/06 Q1012 NOSIG=
201701300950 METAR COR EGLL 300950Z AUTO 04007KT 6000 BKN004 07/07 Q1011
                        BECMG BKN006=
201701300920 METAR COR EGLL 300920Z AUTO 04005KT 9000 OVC005 07/06 Q1011
                        NOSIG=
201701300850 METAR COR EGLL 300850Z 05004KT 9000 BKN006 07/07 Q1011 NOSIG=
201701300820 METAR COR EGLL 300820Z 04004KT 9000 SCT007 BKN016 07/07 Q1011
                        TEMPO BKN007=
201701300750 METAR EGLL 300750Z VRB03KT 9000 SCT007 BKN019 07/07 Q1010=
201701300720 METAR COR EGLL 300720Z VRB03KT 9000 BKN005 BKN018 07/07 Q1010
                        TEMPO SCT005 BKN018=
201701300650 METAR COR EGLL 300650Z 02003KT 9999 BKN005 BKN022 07/07 Q1010
                        TEMPO BKN004=
201701300620 METAR COR EGLL 300620Z VRB02KT 9999 BKN006 BKN023 07/07 Q1009
                        TEMPO BKN004=
201701300550 METAR COR EGLL 300550Z 33003KT 9000 FEW004 SCT006 BKN023
                        07/07 Q1009 TEMPO BKN005=
201701300520 METAR COR EGLL 300520Z VRB03KT 7000 SCT004 BKN009 08/08 Q1009
                        TEMPO BKN004=
201701300450 METAR COR EGLL 300450Z VRB03KT 8000 FEW002 SCT005 BKN010
                        08/08 Q1008 TEMPO 4500 BR BKN005=
201701300420 METAR COR EGLL 300420Z 36004KT 320V030 5000 -RADZ FEW002
                        SCT006 BKN010 08/08 Q1008 TEMPO 4500
                        BR BKN005=
201701300350 METAR COR EGLL 300350Z 32004KT 5000 BR FEW003 SCT006 BKN010
                        09/09 Q1008 TEMPO 4200 -RADZ BKN005=
201701300320 METAR COR EGLL 300320Z 31004KT 9999 -RA SCT006 BKN010 09/09
                        Q1008 TEMPO 4800 -RADZ BKN005=
201701300250 METAR COR EGLL 300250Z 28006KT 260V320 3700 -RADZ FEW002
                        BKN005 10/10 Q1007 REDZ TEMPO 5000
                        SCT005 BKN010=
201701300220 METAR COR EGLL 300220Z AUTO 27006KT 9999 BKN007 OVC020 10/10
                        Q1007 TEMPO SCT007 BKN012=
201701300150 METAR COR EGLL 300150Z AUTO 26005KT 6000 BKN003 10/10 Q1007
                        TEMPO BKN012=
201701300120 METAR COR EGLL 300120Z AUTO 26006KT 6000 -RA BKN004 OVC017
                        10/10 Q1007 TEMPO BKN007=
201701300050 METAR COR EGLL 300050Z 26008KT 6000 -RA FEW005 BKN010 10/10
                        Q1007 TEMPO 3000 DZ BKN005=
201701300020 METAR COR EGLL 300020Z 23006KT 9999 FEW006 BKN021 10/10 Q1006
                        TEMPO 3000 DZ BKN005=
201701292350 METAR COR EGLL 292350Z 23007KT 9999 SCT007 BKN043 10/10 Q1006
                        TEMPO BKN007=
201701292320 METAR COR EGLL 292320Z 23009KT 7000 -RA FEW003 BKN007 10/10
                        Q1006 TEMPO 4800 RADZ BKN010=
201701292250 METAR COR EGLL 292250Z 22008KT 5000 -RADZ FEW003 SCT006 BKN009
                        10/10 Q1006 TEMPO 3500 RADZ BKN004=
201701292220 METAR COR EGLL 292220Z 21009KT 170V250 6000 FEW006 BKN009
                        10/10 Q1006 TEMPO 4000 RADZ=
201701292150 METAR COR EGLL 292150Z 21010KT 190V250 7000 FEW006 BKN008
                        09/09 Q1006 TEMPO 4500 RADZ=
201701292120 METAR COR EGLL 292120Z 20012KT 170V240 6000 -RA FEW007 BKN008
                        09/09 Q1006 TEMPO 4500 RADZ=
201701292050 METAR COR EGLL 292050Z 20012KT 170V240 7000 -RA FEW007 BKN008
                        09/09 Q1006 TEMPO 4500 RADZ=
201701292020 METAR COR EGLL 292020Z 21010KT 170V240 8000 -RA SCT008 BKN010
                        09/09 Q1006 TEMPO BKN009=
201701291950 METAR COR EGLL 291950Z 17007KT 140V200 6000 -RA FEW006 BKN008
                        08/08 Q1006 TEMPO SCT008 BKN010=
201701291920 METAR COR EGLL 291920Z 15008KT 9000 -RA FEW007 BKN008 08/08
                        Q1007 SCT008 BKN012=
201701291850 METAR COR EGLL 291850Z 15011KT 6000 -RA SCT008 BKN012 08/08
                        Q1007 TEMPO BKN008=
201701291820 METAR COR EGLL 291820Z 14009KT 7000 -RA SCT008 BKN013 08/08
                        Q1008 RERA TEMPO BKN008=
201701291750 METAR COR EGLL 291750Z 15010KT 7000 RA BKN008 BKN015 08/08
                        Q1009 TEMPO -RA SCT008 BKN012=
201701291720 METAR COR EGLL 291720Z AUTO 15010KT 9000 -RA OVC007/// //////CB
                        08/08 Q1009 TEMPO 4000 RA=
201701291650 METAR COR EGLL 291650Z AUTO 15009KT 6000 -RA OVC009 08/07
                        Q1010 TEMPO FEW008 BKN012=
201701291620 METAR COR EGLL 291620Z AUTO 14007KT 9999 -RA BKN011 08/07
                        Q1010 TEMPO 4000 RA=
201701291550 METAR COR EGLL 291550Z AUTO 15008KT 9999 -RA FEW010 BKN035
                        08/07 Q1010 TEMPO BKN012=
201701291520 METAR COR EGLL 291520Z AUTO 17009KT 9999 -RA SCT009 BKN033
                        08/07 Q1011 TEMPO BKN012=
201701291450 METAR COR EGLL 291450Z 18010KT 160V230 9999 -RA FEW010 BKN013
                        08/08 Q1011 TEMPO BKN009=
201701291420 METAR COR EGLL 291420Z AUTO 18009KT 150V230 9000 -RA OVC009
                        08/07 Q1012 TEMPO FEW009 BKN012=
201701291350 METAR COR EGLL 291350Z AUTO 18009KT 150V230 9999 BKN011 08/07
                        Q1012 TEMPO RA BKN008=
201701291320 METAR COR EGLL 291320Z 18011KT 9999 BKN014 08/07 Q1012 TEMPO
                        RA BKN008=
201701291250 METAR COR EGLL 291250Z 19010KT 150V210 9999 SCT011 BKN015
                        08/07 Q1013 TEMPO BKN012=
201701291220 METAR COR EGLL 291220Z 18009KT 150V250 9999 SCT010 BKN014
                        08/07 Q1013 TEMPO BKN008=
201701291150 METAR COR EGLL 291150Z AUTO 18008KT 150V220 9999 FEW007 OVC030
                        07/07 Q1013 TEMPO BKN010=
201701291120 METAR COR EGLL 291120Z AUTO 18008KT 9999 FEW007 OVC029 07/06
                        Q1014 TEMPO BKN010=
201701291050 METAR COR EGLL 291050Z AUTO 21007KT 9999 -RA BKN025 OVC039
                        06/06 Q1014 NOSIG=
201701291020 METAR COR EGLL 291020Z AUTO 20008KT 160V230 9999 BKN031 06/05
                        Q1014 NOSIG=
201701290950 METAR COR EGLL 290950Z AUTO 18008KT 140V220 9999 SCT043 06/05
                        Q1014 NOSIG=
201701290920 METAR COR EGLL 290920Z AUTO 18006KT 160V220 9999 NCD 05/05
                        Q1014 NOSIG=
201701290850 METAR COR EGLL 290850Z AUTO 19006KT 150V220 9999 FEW035 04/04
                        Q1015 NOSIG=
201701290820 METAR COR EGLL 290820Z AUTO 20005KT 160V240 9999 SCT035 04/04
                        Q1014 NOSIG=
201701290750 METAR COR EGLL 290750Z AUTO 20006KT 150V230 9999 FEW038 03/03
                        Q1014 NOSIG=
201701290720 METAR COR EGLL 290720Z AUTO 21007KT 180V260 9999 FEW040 02/02
                        Q1014 NOSIG=
201701290650 METAR COR EGLL 290650Z AUTO 21006KT 180V270 9999 FEW049 02/02
                        Q1014 NOSIG=
201701290620 METAR COR EGLL 290620Z AUTO 21005KT 190V250 9999 NCD 02/02
                        Q1014 NOSIG=
201701290550 METAR COR EGLL 290550Z AUTO 23005KT 9999 NCD 02/02 Q1014
                        NOSIG=
201701290520 METAR COR EGLL 290520Z AUTO 22006KT 9999 NCD 03/02 Q1014
                        NOSIG=
201701290450 METAR COR EGLL 290450Z AUTO 22005KT 9999 NCD 02/02 Q1014
                        NOSIG=
201701290420 METAR COR EGLL 290420Z AUTO 23006KT 9999 NCD 03/03 Q1014
                        NOSIG=
201701290350 METAR COR EGLL 290350Z AUTO 23005KT 9999 NCD 03/02 Q1014
                        NOSIG=
201701290320 METAR COR EGLL 290320Z AUTO 22005KT 9999 NCD 03/03 Q1014
                        NOSIG=
201701290250 METAR COR EGLL 290250Z AUTO 23007KT 9999 SCT033 03/03 Q1013
                        NOSIG=
201701290220 METAR COR EGLL 290220Z AUTO 21006KT 9999 SCT034 04/03 Q1013
                        NOSIG=
201701290150 METAR COR EGLL 290150Z AUTO 20007KT 9999 FEW026 04/03 Q1013
                        NOSIG=
201701290120 METAR COR EGLL 290120Z AUTO 21007KT 9999 -RA FEW015 BKN022
                        BKN046 04/04 Q1013 RERA NOSIG=
201701290050 METAR COR EGLL 290050Z AUTO 19007KT 9999 FEW030 04/03 Q1013
                        TEMPO SHRA=
201701290020 METAR COR EGLL 290020Z AUTO 19008KT 9999 FEW040 04/03 Q1014
                        TEMPO SHRA=
201701282350 METAR COR EGLL 282350Z AUTO 20008KT 9999 FEW041 04/03 Q1014
                        TEMPO SHRA=
201701282320 METAR COR EGLL 282320Z AUTO 21008KT 9999 NCD 04/03 Q1014
                        NOSIG=
201701282250 METAR COR EGLL 282250Z AUTO 21008KT 9999 NCD 04/03 Q1014
                        NOSIG=
201701282220 METAR EGLL 282220Z AUTO 22010KT 9999 NCD 04/03 Q1014=
201701282150 METAR COR EGLL 282150Z AUTO 22009KT 200V260 9999 NCD 04/03
                        Q1014 NOSIG=
201701282120 METAR COR EGLL 282120Z AUTO 22009KT 9999 NCD 04/03 Q1014
                        NOSIG=
201701282050 METAR COR EGLL 282050Z AUTO 22009KT 170V260 9999 NCD 04/03
                        Q1014 NOSIG=
201701282020 METAR COR EGLL 282020Z AUTO 21007KT 170V250 9999 NCD 04/03
                        Q1014 NOSIG=
201701281950 METAR COR EGLL 281950Z AUTO 22007KT 9999 NCD 05/03 Q1013
                        NOSIG=
201701281920 METAR COR EGLL 281920Z AUTO 22008KT 190V250 9999 NCD 06/03
                        Q1013 NOSIG=
201701281850 METAR COR EGLL 281850Z AUTO 22007KT 9999 FEW035 06/03 Q1013
                        NOSIG=
201701281820 METAR COR EGLL 281820Z AUTO 22009KT 9999 SCT049 06/03 Q1013
                        NOSIG=
201701281750 METAR COR EGLL 281750Z AUTO 24008KT 9999 FEW049 05/03 Q1013
                        NOSIG=
201701281720 METAR COR EGLL 281720Z AUTO 26009KT 9999 FEW016 SCT036 06/03
                        Q1012 NOSIG=
201701281650 METAR COR EGLL 281650Z AUTO 27009KT 9999 BKN028 08/03 Q1012
                        NOSIG=
201701281620 METAR COR EGLL 281620Z AUTO 25012KT 9999 FEW031/// //////CB
                        08/03 Q1011 NOSIG=
201701281550 METAR COR EGLL 281550Z AUTO 23012KT 9999 FEW032/// //////CB
                        10/03 Q1011 NOSIG=
201701281520 METAR COR EGLL 281520Z AUTO 24011KT 9999 FEW032/// SCT040///
                        //////CB 09/03 Q1011 TEMPO SHRA=
201701281450 METAR COR EGLL 281450Z AUTO 23013KT 9999 FEW028 10/03 Q1010
                        NOSIG=
201701281420 METAR COR EGLL 281420Z AUTO 23011KT 9999 SCT028 SCT043 10/04
                        Q1010 NOSIG=
201701281350 METAR COR EGLL 281350Z AUTO 22010KT 9999 BKN026 10/04 Q1010
                        NOSIG=
201701281320 METAR COR EGLL 281320Z AUTO 23011KT 9999 BKN026 10/05 Q1010
                        NOSIG=
201701281250 METAR COR EGLL 281250Z AUTO 23010KT 9999 FEW022 10/05 Q1010
                        NOSIG=
201701281220 METAR COR EGLL 281220Z AUTO 23013KT 9999 BKN021 09/05 Q1010
                        NOSIG=
201701281150 METAR COR EGLL 281150Z AUTO 23012KT 9999 SCT021 09/05 Q1010
                        NOSIG=
201701281120 METAR COR EGLL 281120Z AUTO 22013KT 9999 FEW019 09/05 Q1010
                        NOSIG=
201701281050 METAR COR EGLL 281050Z AUTO 23011KT 9999 NCD 08/05 Q1010
                        NOSIG=
201701281020 METAR COR EGLL 281020Z AUTO 24011KT 9999 FEW035 07/05 Q1009
                        NOSIG=
201701280950 METAR COR EGLL 280950Z AUTO 25012KT 9999 -RA SCT024 BKN040
                        07/05 Q1009 NOSIG=
201701280920 METAR COR EGLL 280920Z AUTO 24012KT 9999 -RA BKN009 BKN022
                        07/06 Q1008 BECMG SCT009=
201701280850 METAR COR EGLL 280850Z AUTO 19009KT 9999 BKN010 OVC032 08/07
                        Q1007 TEMPO -RADZ BKN008=
201701280820 METAR COR EGLL 280820Z AUTO 19008KT 160V240 9999 BKN011 OVC026
                        08/07 Q1007 TEMPO -RADZ BKN008=
201701280750 METAR COR EGLL 280750Z AUTO 19010KT 9999 OVC011 08/07 Q1007
                        TEMPO -RADZ BKN008=
201701280720 METAR COR EGLL 280720Z AUTO 18008KT 9999 OVC012 08/07 Q1007
                        TEMPO -RADZ BKN008=
201701280650 METAR COR EGLL 280650Z AUTO 14007KT 9999 OVC013 08/06 Q1007
                        NOSIG=
201701280620 METAR COR EGLL 280620Z AUTO 14008KT 9999 OVC015 08/06 Q1006
                        TEMPO BKN012=
201701280550 METAR COR EGLL 280550Z AUTO 14009KT 9999 OVC015 08/06 Q1006
                        TEMPO BKN012=
201701280520 METAR COR EGLL 280520Z AUTO 14007KT 9999 OVC017 08/06 Q1007
                        NOSIG=
201701280450 METAR COR EGLL 280450Z AUTO 14007KT 9999 BKN014 07/06 Q1007
                        TEMPO FEW014 BKN020=
201701280420 METAR COR EGLL 280420Z AUTO 13008KT 9999 -RA BKN024 OVC042
                        07/06 Q1007 NOSIG=
201701280350 METAR COR EGLL 280350Z AUTO 14008KT 9999 -RA BKN049 07/06
                        Q1007 NOSIG=
201701280320 METAR COR EGLL 280320Z AUTO 15009KT 9999 -RA BKN047 07/05
                        Q1007 NOSIG=
201701280250 METAR COR EGLL 280250Z AUTO 15009KT 9999 NCD 07/05 Q1007
                        NOSIG=
201701280220 METAR COR EGLL 280220Z AUTO 15009KT 9999 NCD 07/05 Q1008
                        NOSIG=
201701280150 METAR COR EGLL 280150Z AUTO 14008KT 9999 NCD 06/05 Q1008
                        NOSIG=
201701280120 METAR COR EGLL 280120Z AUTO 13007KT 9999 NCD 06/05 Q1008
                        NOSIG=
201701280050 METAR EGLL 280050Z AUTO 13006KT 9999 NCD 06/05 Q1008=
201701280020 METAR COR EGLL 280020Z AUTO 13007KT 9999 NCD 06/05 Q1008
                        NOSIG=
201701272350 METAR COR EGLL 272350Z AUTO 14007KT 9999 NCD 06/05 Q1009
                        NOSIG=
201701272320 METAR COR EGLL 272320Z AUTO 15005KT 9999 NCD 06/05 Q1009
                        NOSIG=
201701272250 METAR COR EGLL 272250Z AUTO 15006KT 9999 NCD 07/05 Q1009
                        NOSIG=
201701272220 METAR COR EGLL 272220Z AUTO 15006KT 9999 NCD 07/05 Q1009
                        NOSIG=
201701272150 METAR COR EGLL 272150Z AUTO 16006KT 9000 NCD 07/05 Q1009
                        NOSIG=
201701272120 METAR COR EGLL 272120Z AUTO 15007KT 9000 NCD 07/05 Q1009
                        NOSIG=
201701272050 METAR COR EGLL 272050Z AUTO 15008KT 9000 NCD 07/04 Q1009
                        NOSIG=
201701272020 METAR COR EGLL 272020Z AUTO 15007KT 9000 NCD 07/04 Q1009
                        NOSIG=
201701271950 METAR COR EGLL 271950Z AUTO 15007KT 9000 NCD 07/04 Q1010
                        NOSIG=
201701271920 METAR COR EGLL 271920Z AUTO 14007KT 9999 NCD 06/04 Q1010
                        NOSIG=
201701271850 METAR COR EGLL 271850Z AUTO 14008KT 9999 FEW049 06/04 Q1010
                        NOSIG=
201701271820 METAR COR EGLL 271820Z AUTO 14008KT 9000 NCD 06/04 Q1010
                        NOSIG=
201701271750 METAR COR EGLL 271750Z AUTO 12005KT 8000 FEW023 06/04 Q1010
                        NOSIG=
201701271720 METAR COR EGLL 271720Z AUTO 11007KT 7000 BKN015 06/04 Q1010
                        TEMPO BKN014=
201701271650 METAR COR EGLL 271650Z AUTO 12008KT 7000 BKN016 06/04 Q1009
                        TEMPO BKN014=
201701271620 METAR COR EGLL 271620Z AUTO 12007KT 7000 OVC017 06/04 Q1009
                        NOSIG=
201701271550 METAR COR EGLL 271550Z AUTO 12007KT 7000 OVC017 06/04 Q1009
                        NOSIG=
201701271520 METAR COR EGLL 271520Z AUTO 09007KT 7000 BKN018 06/04 Q1009
                        NOSIG=
201701271450 METAR COR EGLL 271450Z AUTO 10006KT 7000 BKN018 06/04 Q1009
                        NOSIG=
201701271420 METAR COR EGLL 271420Z AUTO 11008KT 7000 FEW015 BKN026 06/03
                        Q1009 TEMPO BKN014=
201701271350 METAR COR EGLL 271350Z AUTO 13009KT 7000 SCT017 06/03 Q1009
                        TEMPO BKN014=
201701271320 METAR COR EGLL 271320Z AUTO 13010KT 7000 NCD 06/03 Q1009
                        NOSIG=
201701271250 METAR COR EGLL 271250Z AUTO 11007KT 6000 SCT014 06/04 Q1009
                        TEMPO BKN014=
201701271220 METAR COR EGLL 271220Z AUTO 11008KT 6000 BKN012 05/03 Q1010
                        TEMPO SCT012=
201701271150 METAR COR EGLL 271150Z AUTO 13009KT 6000 OVC011 05/03 Q1010
                        NOSIG=
201701271120 METAR COR EGLL 271120Z AUTO 13010KT 6000 BKN012 05/03 Q1010
                        NOSIG=
201701271050 METAR COR EGLL 271050Z AUTO 12006KT 6000 BKN014 05/03 Q1010
                        TEMPO SCT014=
201701271020 METAR COR EGLL 271020Z AUTO 13007KT 6000 OVC013 04/03 Q1011
                        NOSIG=
201701270950 METAR COR EGLL 270950Z AUTO 12007KT 5000 HZ BKN013 04/03
                        Q1010 NOSIG=
201701270920 METAR COR EGLL 270920Z AUTO 09006KT 3900 HZ OVC012 03/02
                        Q1010 BECMG SCT012=
201701270850 METAR COR EGLL 270850Z AUTO 09005KT 3200 BR OVC014 01/01
                        Q1010 TEMPO BKN016=
201701270820 METAR COR EGLL 270820Z AUTO 06004KT 3200 BR FEW008 OVC014
                        01/00 Q1011 TEMPO BKN016=
201701270750 METAR COR EGLL 270750Z AUTO 06004KT 3000 BR BKN013 01/M00
                        Q1010 BECMG BKN020=
201701270720 METAR COR EGLL 270720Z AUTO 06003KT 3100 HZ BKN008 OVC019
                        01/M00 Q1010 TEMPO SCT008 BKN020=
201701270650 METAR COR EGLL 270650Z AUTO VRB03KT 3100 BR OVC009 00/M00
                        Q1010 TEMPO BKN010=
201701270620 METAR COR EGLL 270620Z AUTO 08004KT 2900 BR BKN012 M01/M01
                        Q1010 NOSIG=
201701270550 METAR COR EGLL 270550Z AUTO 06005KT 3100 BR FEW014 M01/M02
                        Q1010 NOSIG=
201701270520 METAR COR EGLL 270520Z AUTO 06005KT 3100 BR NCD M01/M02 Q1011
                        NOSIG=
201701270450 METAR COR EGLL 270450Z AUTO 07004KT 3000 BR NCD M01/M02 Q1011
                        NOSIG=
201701270420 METAR COR EGLL 270420Z AUTO 04003KT 3000 BR NCD M01/M02 Q1011
                        NOSIG=
201701270350 METAR COR EGLL 270350Z AUTO 06005KT 2800 BR NCD M02/M02 Q1011
                        NOSIG=
201701270320 METAR COR EGLL 270320Z AUTO 07005KT 2900 BR NCD M01/M02 Q1012
                        NOSIG=
201701270250 METAR COR EGLL 270250Z AUTO 09006KT 3000 HZ NCD M02/M02 Q1012
                        NOSIG=
201701270220 METAR COR EGLL 270220Z AUTO 09005KT 3000 HZ NCD M02/M02 Q1013
                        NOSIG=
201701270150 METAR COR EGLL 270150Z AUTO 07005KT 2900 HZ NCD M01/M02 Q1013
                        NOSIG=
201701270120 METAR COR EGLL 270120Z AUTO 08005KT 2700 HZ NCD M01/M02 Q1013
                        NOSIG=
201701270050 METAR COR EGLL 270050Z AUTO 07005KT 2800 HZ NCD M01/M02 Q1014
                        NOSIG=
201701270020 METAR COR EGLL 270020Z AUTO 08005KT 2700 HZ NCD M01/M02 Q1014
                        NOSIG=
201701262350 METAR COR EGLL 262350Z AUTO 07005KT 2700 HZ NCD M01/M02 Q1015
                        NOSIG=
201701262320 METAR COR EGLL 262320Z AUTO 09007KT 2700 HZ NCD M02/M02 Q1015
                        NOSIG=
201701262250 METAR COR EGLL 262250Z AUTO 09006KT 2700 HZ NCD M02/M03 Q1015
                        NOSIG=
201701262220 METAR COR EGLL 262220Z AUTO 08006KT 2800 BR NCD M02/M02 Q1016
                        NOSIG=
201701262150 METAR COR EGLL 262150Z AUTO 09006KT 2700 HZ NCD M02/M03 Q1016
                        NOSIG=
201701262120 METAR COR EGLL 262120Z AUTO 08005KT 2800 HZ NCD M01/M02 Q1016
                        NOSIG=
201701262050 METAR COR EGLL 262050Z AUTO 08006KT 2900 HZ NCD M02/M03 Q1016
                        NOSIG=
201701262020 METAR COR EGLL 262020Z AUTO 09007KT 2900 HZ NCD M02/M03 Q1016
                        NOSIG=
201701261950 METAR COR EGLL 261950Z AUTO 08006KT 3100 HZ NCD M02/M03 Q1017
                        NOSIG=
201701261920 METAR COR EGLL 261920Z AUTO 07005KT 3500 HZ NCD M02/M03 Q1017
                        NOSIG=
201701261850 METAR COR EGLL 261850Z 10005KT 4700 HZ NSC M02/M03 Q1017
                        NOSIG=
201701261820 METAR COR EGLL 261820Z 11006KT 5000 HZ FEW012 M01/M02 Q1018
                        TEMPO 4500=
201701261750 METAR COR EGLL 261750Z 12007KT 5000 HZ BKN012 M00/M02 Q1018
                        BECMG FEW012=
201701261720 METAR COR EGLL 261720Z AUTO 12009KT 4900 HZ BKN012 M00/M02
                        Q1018 BECMG 5000 FEW012=
201701261650 METAR COR EGLL 261650Z AUTO 13007KT 5000 HZ BKN013 M00/M02
                        Q1018 BECMG FEW012=
201701261620 METAR COR EGLL 261620Z AUTO 13008KT 6000 BKN014 00/M02 Q1018
                        BECMG FEW014=
201701261550 METAR COR EGLL 261550Z AUTO 14009KT 6000 OVC014 00/M02 Q1018
                        NOSIG=
201701261520 METAR COR EGLL 261520Z AUTO 14009KT 6000 OVC014 00/M02 Q1018
                        NOSIG=
201701261450 METAR COR EGLL 261450Z AUTO 15008KT 6000 OVC014 00/M02 Q1018
                        NOSIG=
201701261420 METAR COR EGLL 261420Z AUTO 15008KT 5000 HZ OVC014 00/M02
                        Q1018 NOSIG=
201701261350 METAR COR EGLL 261350Z AUTO 16008KT 6000 OVC014 00/M02 Q1019
                        NOSIG=
201701261320 METAR COR EGLL 261320Z AUTO 14009KT 5000 HZ OVC012 M00/M02
                        Q1019 NOSIG=
201701261250 METAR COR EGLL 261250Z AUTO 14008KT 5000 HZ OVC012 M00/M02
                        Q1019 NOSIG=
201701261220 METAR COR EGLL 261220Z AUTO 15009KT 5000 HZ OVC011 M01/M02
                        Q1019 NOSIG=
201701261150 METAR COR EGLL 261150Z AUTO 14010KT 5000 HZ OVC011 M01/M02
                        Q1020 NOSIG=
201701261120 METAR COR EGLL 261120Z AUTO 14010KT 5000 HZ OVC011 M01/M02
                        Q1020 NOSIG=
201701261050 METAR COR EGLL 261050Z AUTO 16011KT 6000 OVC011 M01/M02 Q1020
                        NOSIG=
201701261020 METAR COR EGLL 261020Z AUTO 17009KT 6000 OVC010 M01/M02 Q1020=
201701260950 METAR COR EGLL 260950Z AUTO 14011KT 6000 OVC008 M00/M02 Q1020
                        NOSIG=
201701260920 METAR COR EGLL 260920Z AUTO 14009KT 5000 HZ OVC008 M00/M01
                        Q1020 TEMPO BKN010=
201701260850 METAR COR EGLL 260850Z AUTO 15010KT 6000 OVC010 M00/M02 Q1020
                        NOSIG=
201701260820 METAR COR EGLL 260820Z AUTO 14008KT 110V170 7000 OVC011 M00/M02
                        Q1020 NOSIG=
201701260750 METAR COR EGLL 260750Z AUTO 14007KT 110V190 6000 OVC010 M00/M01
                        Q1021 NOSIG=
201701260720 METAR COR EGLL 260720Z AUTO 13009KT 6000 OVC010 00/M01 Q1021
                        NOSIG=
201701260650 METAR COR EGLL 260650Z AUTO 13009KT 6000 OVC010 00/M01 Q1021
                        NOSIG=
201701260620 METAR COR EGLL 260620Z AUTO 13009KT 6000 OVC011 00/M01 Q1021
                        NOSIG=
201701260550 METAR COR EGLL 260550Z AUTO 13007KT 6000 OVC011 M00/M01 Q1021
                        NOSIG=
201701260520 METAR COR EGLL 260520Z AUTO 14007KT 6000 OVC011 M00/M01 Q1022
                        NOSIG=
201701260450 METAR COR EGLL 260450Z AUTO 13009KT 5000 HZ OVC010/// M00/M02
                        Q1022 NOSIG=
201701260420 METAR COR EGLL 260420Z 12009KT 5000 HZ OVC010 M00/M01 Q1022
                        NOSIG=
201701260350 METAR COR EGLL 260350Z 13006KT 5000 HZ OVC010 M00/M01 Q1022
                        NOSIG=
201701260320 METAR COR EGLL 260320Z 14007KT 5000 HZ OVC009 M00/M01 Q1023
                        TEMPO OVC010=
201701260250 METAR COR EGLL 260250Z AUTO 12007KT 3100 BR OVC008 M00/M01
                        Q1023 TEMPO 5000 OVC010=
201701260220 METAR COR EGLL 260220Z AUTO 13006KT 3100 BR OVC007 M01/M01
                        Q1023 NOSIG=
201701260150 METAR COR EGLL 260150Z AUTO 14007KT 2700 BR OVC006 M01/M01
                        Q1024 BECMG 5000=
201701260120 METAR COR EGLL 260120Z AUTO 12006KT 100V160 2700 BR OVC006
                        M01/M01 Q1024 NOSIG=
201701260050 METAR COR EGLL 260050Z AUTO 16007KT 2700 BR OVC005 M00/M01
                        Q1024 NOSIG=
201701260020 METAR COR EGLL 260020Z AUTO 12007KT 090V160 4800 BR OVC005
                        M00/M00 Q1025 BECMG 6000 NSW BKN012=
201701252350 METAR COR EGLL 252350Z AUTO 11007KT 6000 OVC005 M00/M00 Q1025
                        NOSIG=
201701252320 METAR COR EGLL 252320Z AUTO 14006KT 6000 OVC005 M00/M00 Q1025
                        NOSIG=
201701252250 METAR COR EGLL 252250Z AUTO 10005KT 5000 BR OVC005 M00/M00
                        Q1025 NOSIG=
201701252220 METAR COR EGLL 252220Z AUTO 12007KT 6000 OVC004 00/00 Q1025
                        BECMG BKN006=
201701252150 METAR COR EGLL 252150Z AUTO 13007KT 6000 OVC004 00/00 Q1025
                        BECMG BKN006=
201701252120 METAR COR EGLL 252120Z AUTO 11007KT 6000 OVC005 01/01 Q1025
                        NOSIG=
201701252050 METAR COR EGLL 252050Z AUTO 10008KT 6000 OVC004 01/01 Q1026
                        TEMPO BKN005=
201701252020 METAR COR EGLL 252020Z AUTO 10007KT 5000 BR OVC004 02/01
                        Q1026 TEMPO BKN005=
201701251950 METAR EGLL 251950Z 13007KT 5000 BR BKN005 02/02 Q1026=
201701251920 METAR COR EGLL 251920Z AUTO 14006KT 4700 BR OVC004 02/02
                        Q1026 TEMPO 6000 BKN005=
201701251850 METAR COR EGLL 251850Z 15006KT 6000 BKN006 03/02 Q1026 TEMPO
                        4500=
201701251820 METAR COR EGLL 251820Z 14004KT 090V160 6000 BKN006 03/02
                        Q1026 NOSIG=
201701251750 METAR COR EGLL 251750Z 15004KT 5000 BR BKN004 BKN005 03/03
                        Q1026 TEMPO 4000=
201701251720 METAR COR EGLL 251720Z 15005KT 4400 BR BKN003 BKN004 03/03
                        Q1026 TEMPO 5000 BKN005=
201701251650 METAR COR EGLL 251650Z 13005KT 4500 BR SCT004 BKN007 03/03
                        Q1026 TEMPO 5000 BKN004=
201701251620 METAR COR EGLL 251620Z 14005KT 3900 BR BKN004 03/03 Q1026
                        NOSIG=
201701251550 METAR COR EGLL 251550Z VRB03KT 4000 BR BKN004 03/03 Q1026
                        BECMG 5000 BKN005=
201701251520 METAR COR EGLL 251520Z 14005KT 110V180 4000 BR SCT003 04/04
                        Q1026 BECMG 5000 BKN005=
201701251450 METAR COR EGLL 251450Z 12005KT 090V150 4000 BR SCT003 BKN004
                        BKN007 04/04 Q1026 BECMG 5000 BKN005=
201701251420 METAR COR EGLL 251420Z AUTO 14005KT 110V190 3900 BR OVC002
                        04/04 Q1026 BECMG 5000 OVC005=
201701251350 METAR COR EGLL 251350Z AUTO 15004KT 110V190 5000 BR OVC003
                        04/04 Q1027 BECMG OVC005=
201701251320 METAR COR EGLL 251320Z AUTO 15005KT 100V200 6000 OVC003 04/04
                        Q1027 BECMG OVC005=
201701251250 METAR COR EGLL 251250Z 14005KT 100V180 4400 BR FEW002 SCT003
                        BKN004 03/03 Q1027 BECMG 6000 HZ
                        OVC005=
201701251220 METAR COR EGLL 251220Z 15005KT 110V180 2500 BR FEW001 SCT002
                        BKN003 03/03 Q1028 BECMG 5000 HZ
                        BKN005=
201701251150 METAR COR EGLL 251150Z 15004KT 110V180 1600 R27L/1400 BR
                        FEW001 SCT002 BKN003 03/03 Q1028
                        TEMPO BKN002=
201701251120 METAR COR EGLL 251120Z VRB03KT 1100 R27R/P1500 R27L/1100
                        BR OVC002 03/03 Q1028 BECMG 2000
                        OVC003=
201701251050 METAR COR EGLL 251050Z AUTO 14004KT 090V190 0500 R27R/1400
                        R27L/0750 FG VV/// 03/03 Q1029 BECMG
                        1500 BR OVC002=
201701251020 METAR COR EGLL 251020Z AUTO VRB03KT 0400 R27R/1300 R27L/0550
                        FG VV/// 03/03 Q1029 BECMG 1000 BR
                        OVC002=
201701250950 METAR COR EGLL 250950Z AUTO VRB01KT 0450 R27R/1100 R27L/0700
                        FG VV/// 02/02 Q1029 BECMG 1000 BR
                        OVC002=
201701250920 METAR COR EGLL 250920Z AUTO VRB02KT 0300 R27R/0750 R27L/0750
                        FG VV/// 02/02 Q1029 BECMG 1000 BR
                        OVC002=
201701250850 METAR COR EGLL 250850Z VRB02KT 0350 R27R/0600 R27L/0800 FG
                        VV/// 01/01 Q1029 TEMPO 0600=
201701250820 METAR COR EGLL 250820Z VRB02KT 0350 R27R/0550 R27L/0400 FG
                        VV/// 00/00 Q1029 TEMPO 0200=
201701250750 METAR COR EGLL 250750Z VRB03KT 0200 R27R/0550 R27L/0400 FZFG
                        VV/// M00/M00 Q1028 TEMPO 0400=
201701250720 METAR COR EGLL 250720Z 18004KT 130V230 0300 R27R/0500 R27L/0600
                        FZFG VV/// M01/M01 Q1028 NOSIG=
201701250650 METAR COR EGLL 250650Z VRB02KT 0300 R27R/0600 R27L/0550 FZFG
                        VV/// M01/M01 Q1028 NOSIG=
201701250620 METAR COR EGLL 250620Z VRB02KT 0250 R27R/0550 R27L/0375 FZFG
                        VV/// M01/M01 Q1028 NOSIG=
201701250550 METAR COR EGLL 250550Z VRB01KT 0250 R27R/0375 R27L/0350 FZFG
                        VV/// M01/M01 Q1028 NOSIG=
201701250520 METAR COR EGLL 250520Z 01001KT 0250 R27L/0375 FZFG VV///
                        M01/M01 Q1028 NOSIG=
201701250450 METAR COR EGLL 250450Z 01001KT 0200 R27L/0400 FZFG VV///
                        M01/M01 Q1028 NOSIG=
201701250420 METAR COR EGLL 250420Z 01001KT 0200 FZFG VV/// M01/M01 Q1028
                        NOSIG=
201701250350 METAR COR EGLL 250350Z 28001KT 0500 FZFG VV/// M02/M02 Q1028
                        NOSIG=
201701250320 METAR EGLL 250320Z 27002KT 0600 FZFG VV/// M02/M02 Q1028=
201701250250 METAR COR EGLL 250250Z 30001KT 1000 R27L/P1500 BR BCFG BKN001
                        M03/M03 Q1028 TEMPO 0300 FZFG VV///=
201701250220 METAR COR EGLL 250220Z 29001KT 0600 R27L/0375 FZFG BKN000
                        M03/M03 Q1028 TEMPO 1000 BCFG=
201701250150 METAR COR EGLL 250150Z 18001KT 1500 0800SW R27L/0200 BR BCFG
                        FZFG FEW001 M03/M03 Q1028 TEMPO 0400
                        BKN000=
201701250120 METAR COR EGLL 250120Z 00000KT 2300 0800SW R27L/0225 BR BCFG
                        FEW000 M02/M02 Q1028 TEMPO 0500 FZFG=
201701250050 METAR COR EGLL 250050Z 18001KT 5000 R27L/0400 BR MIFG NSC
                        M01/M01 Q1028 BECMG 2000=
201701250020 METAR COR EGLL 250020Z 00000KT 5000 R27L/0900 BR MIFG NSC
                        00/00 Q1028 BECMG 2000=
201701242350 METAR COR EGLL 242350Z 17001KT 6000 MIFG NSC 01/01 Q1028
                        BECMG 3500 BR=
201701242320 METAR COR EGLL 242320Z 17002KT 6000 MIFG NSC 01/01 Q1028
                        BECMG 3500 BR=
201701242250 METAR COR EGLL 242250Z VRB03KT 7000 MIFG NSC 02/02 Q1028
                        TEMPO 4000 BR=
201701242220 METAR COR EGLL 242220Z 23004KT 140V290 8000 NSC 03/02 Q1028
                        TEMPO 4500 BR=
201701242150 METAR COR EGLL 242150Z AUTO VRB03KT 4500 HZ NCD 04/03 Q1028
                        TEMPO 5000=
201701242120 METAR COR EGLL 242120Z AUTO 23004KT 170V270 5000 HZ NCD 05/04
                        Q1029 BECMG 3500 BR=
201701242050 METAR COR EGLL 242050Z AUTO 23005KT 190V270 4800 HZ NCD 05/04
                        Q1029 TEMPO 6000=
201701242020 METAR COR EGLL 242020Z AUTO 23004KT 180V260 6000 NCD 04/03
                        Q1029 BECMG 4800 BR=
201701241950 METAR COR EGLL 241950Z AUTO VRB03KT 7000 NCD 04/03 Q1029
                        TEMPO 4800 BR=
201701241920 METAR COR EGLL 241920Z AUTO 26004KT 200V310 9000 NCD 05/04
                        Q1028 NOSIG=
201701241850 METAR COR EGLL 241850Z AUTO 24005KT 9999 NCD 06/04 Q1028
                        NOSIG=
201701241820 METAR COR EGLL 241820Z AUTO 25005KT 9999 NCD 05/04 Q1028
                        NOSIG=
201701241750 METAR COR EGLL 241750Z AUTO 23005KT 180V280 9999 NCD 07/04
                        Q1028 NOSIG=
201701241720 METAR COR EGLL 241720Z AUTO 26004KT 9999 NCD 07/04 Q1028
                        NOSIG=
201701241650 METAR COR EGLL 241650Z AUTO 25005KT 9999 NCD 08/04 Q1028
                        NOSIG=
201701241620 METAR COR EGLL 241620Z AUTO 26005KT 9999 NCD 08/04 Q1028
                        NOSIG=
201701241550 METAR COR EGLL 241550Z AUTO 28007KT 9999 NCD 09/04 Q1027
                        BECMG 4500 HZ=
201701241520 METAR COR EGLL 241520Z AUTO 28005KT 9999 NCD 09/05 Q1027
                        NOSIG=
201701241450 METAR COR EGLL 241450Z AUTO 27006KT 9999 NCD 09/05 Q1027
                        NOSIG=
201701241420 METAR COR EGLL 241420Z AUTO 25005KT 9999 NCD 09/05 Q1028
                        NOSIG=
201701241350 METAR COR EGLL 241350Z AUTO 24004KT 200V280 9999 NCD 09/05
                        Q1028 NOSIG=
201701241320 METAR COR EGLL 241320Z AUTO VRB03KT 9000 NCD 08/05 Q1028
                        NOSIG=
201701241250 METAR COR EGLL 241250Z AUTO VRB03KT 7000 NCD 07/04 Q1028
                        NOSIG=
201701241220 METAR COR EGLL 241220Z AUTO VRB03KT 6000 NCD 06/04 Q1029
                        NOSIG=
201701241150 METAR COR EGLL 241150Z AUTO VRB03KT 5000 BR NCD 04/04 Q1029
                        NOSIG=
201701241120 METAR COR EGLL 241120Z AUTO VRB03KT 5000 BR NCD 03/03 Q1029
                        NOSIG=
201701241050 METAR COR EGLL 241050Z AUTO VRB02KT 3700 BR FEW031 02/02
                        Q1029 NOSIG=
201701241020 METAR COR EGLL 241020Z VRB02KT 3000 1400SW R27R/P1500 R27L/P1500
                        BR BCFG SCT031 00/00 Q1029 NOSIG=
201701240950 METAR COR EGLL 240950Z 30002KT 0500 R27R/P1500 R27L/1000
                        FZFG SCT001 M01/M01 Q1029 TEMPO 1200
                        BR=
201701240920 METAR COR EGLL 240920Z 30002KT 0900 0300W R27R/P1500 R27L/1300
                        FZFG SCT001 M01/M01 Q1028 TEMPO 0300=
201701240850 METAR COR EGLL 240850Z VRB01KT 1200 0700W R27R/P1500 R27L/P1500
                        BR BCFG FEW001 M02/M02 Q1028 NOSIG=
201701240820 METAR COR EGLL 240820Z VRB02KT 0800 0300W R27R/1200 R27L/P1500
                        FZFG SCT001 M02/M02 Q1028 TEMPO BKN001=
201701240750 METAR COR EGLL 240750Z VRB01KT 0700 0300N R27R/0700 R27L/P1500
                        FZFG SCT001 M02/M02 Q1028 TEMPO BKN001=
201701240720 METAR COR EGLL 240720Z VRB01KT 0700 0300W R27R/0650 R27L/1400
                        FZFG SCT001 M01/M01 Q1028 TEMPO BKN001=
201701240650 METAR COR EGLL 240650Z 36001KT 0800 0300W R27R/1200 R27L/P1500
                        FZFG SCT001 M02/M02 Q1027 NOSIG=
201701240620 METAR COR EGLL 240620Z 36001KT 0400 0200W R27R/P1500 R27L/1300
                        FZFG SCT001 M01/M01 Q1027 TEMPO 1200
                        BCFG=
201701240550 METAR COR EGLL 240550Z AUTO 35001KT 0050 R27L/1100 FZFG VV///
                        M01/M01 Q1027 TEMPO 0700=
201701240520 METAR COR EGLL 240520Z 00000KT 0900 R27L/1300 FZFG NSC M02/M02
                        Q1027 TEMPO 0500=
201701240450 METAR COR EGLL 240450Z 14001KT 0500 R27L/1100 FZFG FEW000
                        M01/M01 Q1027 TEMPO 0900 BCFG=
201701240420 METAR COR EGLL 240420Z VRB01KT 0400 R27L/0375 FZFG NSC M01/M01
                        Q1027 TEMPO 1200 VCFG=
201701240350 METAR COR EGLL 240350Z 25001KT 0500 R27L/P1500 FZFG NSC M01/M01
                        Q1027 TEMPO 1200 BCFG=
201701240320 METAR COR EGLL 240320Z 19001KT 0900 R27L/P1500 FZFG NSC M01/M01
                        Q1027 TEMPO 0300 VV///=
201701240250 METAR COR EGLL 240250Z 25001KT 0500 R27L/0200 BCFG NSC 00/00
                        Q1027 TEMPO 1200 BR=
201701240220 METAR COR EGLL 240220Z 27003KT 1500 BR NSC 01/01 Q1027 BECMG
                        0700 FG=
201701240150 METAR EGLL 240150Z 25001KT 2500 BR NSC 01/01 Q1027=
201701240120 METAR COR EGLL 240120Z 27002KT 3000 BR NSC 03/03 Q1027 NOSIG=
201701240050 METAR COR EGLL 240050Z 29001KT 2900 BR NSC 03/03 Q1027 NOSIG=
201701240020 METAR COR EGLL 240020Z 28002KT 2400 BR NSC 03/03 Q1027 NOSIG=
201701232350 METAR COR EGLL 232350Z 27002KT 2400 BR NSC 03/03 Q1028 NOSIG=
201701232320 METAR COR EGLL 232320Z 18001KT 2300 BR NSC 03/03 Q1028 NOSIG=
201701232250 METAR COR EGLL 232250Z VRB02KT 2000 BR NSC 03/03 Q1028 NOSIG=
201701232220 METAR COR EGLL 232220Z VRB03KT 2400 BR NSC 04/03 Q1028 NOSIG=
201701232150 METAR COR EGLL 232150Z 31001KT 2500 BR NSC 04/03 Q1028 NOSIG=
201701232120 METAR COR EGLL 232120Z VRB03KT 2800 BR FEW048 03/03 Q1028
                        NOSIG=
201701232050 METAR COR EGLL 232050Z 26004KT 230V320 3500 BR NSC 04/03
                        Q1028 NOSIG=
201701232020 METAR COR EGLL 232020Z VRB02KT 3500 BR NSC 03/03 Q1028 NOSIG=
201701231950 METAR COR EGLL 231950Z 33001KT 2500 BR NSC 04/03 Q1028 NOSIG=
201701231920 METAR COR EGLL 231920Z 24004KT 210V280 2400 BR NSC 04/04
                        Q1027 NOSIG=
201701231850 METAR COR EGLL 231850Z 23004KT 170V270 2400 BR NSC 04/04
                        Q1027 NOSIG=
201701231820 METAR COR EGLL 231820Z AUTO VRB01KT 2100 BR NCD 04/03 Q1028
                        NOSIG=
201701231750 METAR COR EGLL 231750Z AUTO VRB03KT 2100 HZ NCD 04/03 Q1028
                        NOSIG=
201701231720 METAR COR EGLL 231720Z AUTO VRB03KT 2100 BR NCD 03/03 Q1028
                        NOSIG=
201701231650 METAR COR EGLL 231650Z AUTO VRB03KT 2100 HZ NCD 04/03 Q1027
                        NOSIG=
201701231620 METAR COR EGLL 231620Z AUTO VRB02KT 2300 HZ NCD 04/03 Q1027
                        NOSIG=
201701231550 METAR COR EGLL 231550Z AUTO VRB03KT 2700 HZ NCD 04/03 Q1027
                        NOSIG=
201701231520 METAR COR EGLL 231520Z AUTO VRB03KT 2600 BR NCD 03/03 Q1027
                        TEMPO 3000=
201701231450 METAR COR EGLL 231450Z AUTO VRB03KT 2300 BR NCD 03/03 Q1027
                        TEMPO 3000=
201701231420 METAR COR EGLL 231420Z AUTO VRB03KT 2400 BR NCD 03/03 Q1027
                        BECMG 3000=
201701231350 METAR COR EGLL 231350Z AUTO 18004KT 150V210 2200 BR NCD 03/03
                        Q1028 BECMG 3000=
201701231320 METAR COR EGLL 231320Z AUTO 32003KT 2100 BR NCD 02/02 Q1028
                        NOSIG=
201701231250 METAR COR EGLL 231250Z AUTO VRB03KT 1800 BR NCD 02/02 Q1028
                        NOSIG=
201701231220 METAR COR EGLL 231220Z AUTO VRB03KT 1800 BR FEW003 01/01
                        Q1028 NOSIG=
201701231150 METAR COR EGLL 231150Z AUTO VRB03KT 1500 BR BKN003 01/01
                        Q1029 BECMG 2000 SCT003=
201701231120 METAR COR EGLL 231120Z VRB03KT 1400 R27R/P1500 R27L/P1500
                        BR FEW002 BKN003 BKN004 01/01 Q1029
                        BECMG 2000=
201701231050 METAR COR EGLL 231050Z VRB03KT 1400 R27R/P1500 R27L/P1500
                        BR FEW002 BKN003 BKN004 M00/M00 Q1029
                        BECMG 2000=
201701231020 METAR COR EGLL 231020Z 26004KT 200V290 1200 R27R/P1500 R27L/P1500
                        BR BKN002 BKN003 M00/M00 Q1029 NOSIG=
201701230950 METAR COR EGLL 230950Z VRB03KT 0900 R27R/P1500 R27L/P1500
                        FZFG SCT002 BKN003 BKN004 M01/M01
                        Q1029 BECMG 1400 BR=
201701230920 METAR COR EGLL 230920Z VRB03KT 0800 R27R/P1500 R27L/1200
                        FZFG SCT002 BKN003 M01/M01 Q1029
                        NOSIG=
201701230850 METAR COR EGLL 230850Z VRB03KT 0800 R27R/P1500 R27L/0800
                        FZFG SCT002 BKN003 M02/M02 Q1029
                        NOSIG=
201701230820 METAR COR EGLL 230820Z VRB03KT 0300 R27R/1100 R27L/0375 FZFG
                        SCT000 BKN001 OVC003 M02/M02 Q1029
                        TEMPO 0500=
201701230750 METAR COR EGLL 230750Z VRB03KT 0200 R27R/0600 R27L/0350 FZFG
                        BKN000 OVC001 M02/M02 Q1028 TEMPO
                        0500=
201701230720 METAR COR EGLL 230720Z VRB03KT 0250 R27R/0650 R27L/0500 FZFG
                        BKN000 OVC001 M03/M03 Q1028 TEMPO
                        0500=
201701230650 METAR COR EGLL 230650Z VRB02KT 0250 R27R/0375 R27L/0800 FZFG
                        BKN000 OVC001 M03/M03 Q1028 TEMPO
                        0500=
201701230620 METAR COR EGLL 230620Z VRB02KT 0100 R27R/0375 R27L/0300 FZFG
                        VV/// M03/M03 Q1028 NOSIG=
201701230550 METAR COR EGLL 230550Z AUTO VRB02KT 0050 R27R/0400 FZFG VV///
                        M03/M03 Q1028 NOSIG=
201701230520 METAR COR EGLL 230520Z VRB02KT 0050 R27R/0250 FZFG VV///
                        M03/M03 Q1028 NOSIG=
201701230450 METAR COR EGLL 230450Z VRB03KT 0050 R27R/0225 FZFG VV///
                        M03/M03 Q1028 NOSIG=
201701230420 METAR COR EGLL 230420Z 26003KT 0050 R27R/0275 FZFG VV///
                        M03/M03 Q1028 NOSIG=
201701230350 METAR COR EGLL 230350Z 25002KT 0050 R27R/0200 FZFG VV///
                        M04/M04 Q1028 NOSIG=
201701230320 METAR COR EGLL 230320Z 25002KT 0050 R27R/0150 FZFG VV///
                        M04/M04 Q1028 NOSIG=
201701230250 METAR COR EGLL 230250Z 27003KT 0300 R27R/0500 FZFG SCT000
                        M04/M04 Q1028 BECMG BKN000=
201701230220 METAR COR EGLL 230220Z 13001KT 0900 0400S R27R/0700 FZFG
                        FEW000 M04/M04 Q1028 BECMG 0300 VV///=
201701230150 METAR COR EGLL 230150Z VRB01KT 1300 R27R/P1500 BR FEW000
                        M04/M04 Q1028 BECMG 0500 FZFG BKN000=
201701230120 METAR COR EGLL 230120Z 24001KT 2200 0800SW R27R/1400 BR NSC
                        M03/M03 Q1028 BECMG 0500 FZFG=
201701230050 METAR COR EGLL 230050Z 25001KT 1700 BR NSC M03/M03 Q1028
                        TEMPO 0500=
201701230020 METAR COR EGLL 230020Z 29001KT 1500 BR NSC M03/M03 Q1029
                        TEMPO 0500=
201701222350 METAR COR EGLL 222350Z 31001KT 1900 BR NSC M03/M03 Q1029
                        TEMPO 0500=
201701222320 METAR COR EGLL 222320Z 30001KT 2000 BR NSC M03/M03 Q1028
                        TEMPO 0500=
201701222250 METAR COR EGLL 222250Z 02001KT 1800 BR NSC M02/M02 Q1028
                        BECMG 0500=
201701222220 METAR COR EGLL 222220Z 36003KT 2300 BR NSC M01/M01 Q1028
                        TEMPO 0800 FG=
201701222150 METAR COR EGLL 222150Z 05001KT 3000 BR NSC M01/M01 Q1028
                        TEMPO 1200 MIFG=
201701222120 METAR COR EGLL 222120Z VRB01KT 3000 BR NSC 01/01 Q1028 TEMPO
                        1200 MIFG=
201701222050 METAR COR EGLL 222050Z VRB01KT 3000 BR NSC 00/00 Q1028 TEMPO
                        1200 MIFG=
201701222020 METAR COR EGLL 222020Z VRB03KT 4000 BR NSC 01/01 Q1028 NOSIG=
201701221950 METAR COR EGLL 221950Z 15004KT 120V190 5000 BR NSC 01/M01
                        Q1028 BECMG 3000=
201701221920 METAR COR EGLL 221920Z VRB01KT 5000 BR NSC 01/M01 Q1027 TEMPO
                        3500=
201701221850 METAR COR EGLL 221850Z VRB01KT 6000 NSC 01/M01 Q1027 TEMPO
                        4500 BR=
201701221820 METAR COR EGLL 221820Z VRB02KT 6000 NSC 03/00 Q1027 NOSIG=
201701221750 METAR COR EGLL 221750Z AUTO 05001KT 4200 HZ NCD 04/01 Q1027
                        NOSIG=
201701221720 METAR COR EGLL 221720Z AUTO 35001KT 4900 HZ NCD 04/01 Q1027
                        TEMPO 5000=
201701221650 METAR COR EGLL 221650Z AUTO 36002KT 6000 NCD 04/01 Q1027
                        NOSIG=
201701221620 METAR COR EGLL 221620Z AUTO VRB02KT 6000 NCD 05/01 Q1027
                        NOSIG=
201701221550 METAR COR EGLL 221550Z AUTO VRB02KT 6000 NCD 06/01 Q1026
                        NOSIG=
201701221520 METAR COR EGLL 221520Z AUTO VRB02KT 7000 NCD 06/01 Q1026
                        NOSIG=
201701221450 METAR COR EGLL 221450Z AUTO 21004KT 150V270 7000 NCD 06/01
                        Q1026 NOSIG=
201701221420 METAR COR EGLL 221420Z AUTO 17004KT 090V240 7000 NCD 06/01
                        Q1026 NOSIG=
201701221350 METAR COR EGLL 221350Z AUTO VRB02KT 7000 NCD 06/01 Q1027
                        NOSIG=
201701221320 METAR COR EGLL 221320Z AUTO 19004KT 150V250 6000 NCD 06/01
                        Q1027 NOSIG=
201701221250 METAR COR EGLL 221250Z AUTO VRB03KT 6000 NCD 06/00 Q1027
                        NOSIG=
201701221220 METAR COR EGLL 221220Z AUTO VRB03KT 6000 NCD 05/00 Q1027
                        NOSIG=
201701221150 METAR COR EGLL 221150Z AUTO VRB03KT 5000 HZ NCD 04/M00 Q1028
                        NOSIG=
201701221120 METAR COR EGLL 221120Z AUTO VRB01KT 5000 HZ NCD 04/M00 Q1028
                        NOSIG=
201701221050 METAR COR EGLL 221050Z AUTO VRB02KT 5000 HZ NCD 02/M00 Q1028
                        NOSIG=
201701221020 METAR COR EGLL 221020Z AUTO 34002KT 4500 HZ NCD 02/M01 Q1028
                        BECMG 6000=
201701220950 METAR COR EGLL 220950Z AUTO 36003KT 3600 BR NCD M00/M00 Q1027
                        BECMG 5000=
201701220920 METAR COR EGLL 220920Z AUTO VRB03KT 3500 BR NCD M02/M02 Q1027
                        BECMG 5000=
201701220850 METAR COR EGLL 220850Z AUTO VRB03KT 2900 BR NCD M04/M04 Q1027
                        TEMPO 5000=
201701220820 METAR COR EGLL 220820Z AUTO 03001KT 3400 BR NCD M04/M04 Q1027
                        TEMPO 5000=
201701220750 METAR COR EGLL 220750Z AUTO 01002KT 3700 BR NCD M03/M03 Q1026
                        TEMPO 5000=
201701220720 METAR COR EGLL 220720Z AUTO 01002KT 3600 BR NCD M04/M04 Q1026
                        NOSIG=
201701220650 METAR COR EGLL 220650Z AUTO VRB03KT 3700 BR NCD M04/M04 Q1026
                        NOSIG=
201701220620 METAR COR EGLL 220620Z AUTO VRB02KT 4700 BR NCD M03/M03 Q1026
                        NOSIG=
201701220550 METAR COR EGLL 220550Z AUTO VRB02KT 4100 BR NCD M04/M04 Q1026
                        NOSIG=
201701220520 METAR COR EGLL 220520Z AUTO VRB01KT 3700 BR NCD M04/M04 Q1026
                        NOSIG=
201701220450 METAR COR EGLL 220450Z AUTO VRB01KT 3800 BR NCD M04/M04 Q1026
                        NOSIG=
201701220420 METAR COR EGLL 220420Z AUTO 01002KT 3600 BR NCD M04/M04 Q1026
                        NOSIG=
201701220350 METAR COR EGLL 220350Z AUTO VRB02KT 4100 BR NCD M03/M03 Q1026
                        NOSIG=
201701220320 METAR COR EGLL 220320Z AUTO VRB02KT 4100 BR NCD M04/M04 Q1026
                        NOSIG=
201701220250 METAR COR EGLL 220250Z AUTO VRB02KT 3400 BR NCD M04/M04 Q1026
                        NOSIG=
201701220220 METAR COR EGLL 220220Z AUTO 17002KT 4100 BR NCD M03/M03 Q1026
                        NOSIG=
201701220150 METAR COR EGLL 220150Z AUTO 15001KT 4000 BR NCD M04/M04 Q1026
                        NOSIG=
201701220120 METAR COR EGLL 220120Z AUTO 16002KT 4000 BR NCD M04/M04 Q1026
                        NOSIG=
201701220050 METAR COR EGLL 220050Z AUTO 00000KT 4400 BR NCD M03/M03 Q1027
                        NOSIG=
201701220020 METAR COR EGLL 220020Z AUTO 14002KT 4100 BR NCD M04/M04 Q1027
                        NOSIG=
201701212350 METAR COR EGLL 212350Z AUTO 15002KT 4100 HZ NCD M03/M04 Q1027
                        NOSIG=
201701212320 METAR COR EGLL 212320Z AUTO 16003KT 4700 HZ NCD M03/M04 Q1026
                        TEMPO 5000=
201701212250 METAR COR EGLL 212250Z AUTO 17004KT 5000 HZ NCD M02/M04 Q1026
                        TEMPO 4000=
201701212220 METAR COR EGLL 212220Z AUTO 16004KT 5000 HZ NCD M02/M04 Q1026
                        TEMPO 4000=
201701212150 METAR COR EGLL 212150Z AUTO 15003KT 5000 HZ NCD M02/M04 Q1026
                        TEMPO 4000=
201701212120 METAR COR EGLL 212120Z AUTO 19004KT 6000 NCD M02/M04 Q1026
                        NOSIG=
201701212050 METAR COR EGLL 212050Z AUTO 18004KT 6000 NCD M02/M04 Q1026
                        NOSIG=
201701212020 METAR COR EGLL 212020Z AUTO 17003KT 7000 NCD M01/M04 Q1026
                        NOSIG=
201701211950 METAR COR EGLL 211950Z AUTO 18004KT 8000 NCD M01/M04 Q1026
                        NOSIG=
201701211920 METAR COR EGLL 211920Z AUTO 18005KT 9000 NCD M00/M04 Q1026
                        NOSIG=
201701211850 METAR COR EGLL 211850Z AUTO 18005KT 9999 NCD M00/M04 Q1026
                        NOSIG=
201701211820 METAR COR EGLL 211820Z AUTO 15004KT 110V170 9999 NCD 00/M05
                        Q1026 NOSIG=
201701211750 METAR COR EGLL 211750Z AUTO 15003KT 9999 NCD 01/M05 Q1026
                        NOSIG=
201701211720 METAR COR EGLL 211720Z AUTO 16003KT 9999 NCD 02/M05 Q1025
                        NOSIG=
201701211650 METAR COR EGLL 211650Z AUTO 14005KT 9999 NCD 02/M06 Q1025
                        NOSIG=
201701211620 METAR COR EGLL 211620Z AUTO 15006KT 9999 NCD 03/M06 Q1025
                        NOSIG=
201701211550 METAR COR EGLL 211550Z AUTO 15006KT 9999 NCD 03/M06 Q1025
                        NOSIG=
201701211520 METAR COR EGLL 211520Z AUTO 11007KT 9999 NCD 04/M06 Q1025
                        NOSIG=
201701211450 METAR COR EGLL 211450Z AUTO 11007KT 9999 NCD 04/M06 Q1026
                        NOSIG=
201701211420 METAR COR EGLL 211420Z AUTO 10008KT 9999 NCD 05/M06 Q1026
                        NOSIG=
201701211350 METAR COR EGLL 211350Z AUTO 12008KT 9999 NCD 04/M06 Q1026
                        NOSIG=
201701211320 METAR COR EGLL 211320Z AUTO 11009KT 9999 NCD 04/M06 Q1026
                        NOSIG=
201701211250 METAR COR EGLL 211250Z AUTO 10008KT 060V130 9999 NCD 04/M05
                        Q1027 NOSIG=
201701211220 METAR COR EGLL 211220Z AUTO 09008KT 9999 NCD 04/M05 Q1027
                        NOSIG=
201701211150 METAR COR EGLL 211150Z AUTO 09007KT 9999 NCD 04/M05 Q1028
                        NOSIG=
201701211120 METAR COR EGLL 211120Z AUTO 10005KT 070V140 9999 NCD 03/M03
                        Q1028 NOSIG=
201701211050 METAR COR EGLL 211050Z AUTO 07004KT 040V100 9999 NCD 02/M02
                        Q1028 NOSIG=
201701211020 METAR COR EGLL 211020Z AUTO 07004KT 9999 NCD 02/M02 Q1028
                        NOSIG=
201701210950 METAR COR EGLL 210950Z AUTO 07004KT 9999 NCD 01/M01 Q1028
                        NOSIG=
201701210920 METAR COR EGLL 210920Z AUTO 07004KT 8000 NCD M00/M00 Q1028
                        NOSIG=
201701210850 METAR COR EGLL 210850Z AUTO 05003KT 8000 NCD M01/M01 Q1028
                        NOSIG=
201701210820 METAR COR EGLL 210820Z AUTO 06004KT 7000 NCD M02/M02 Q1028
                        NOSIG=
201701210750 METAR COR EGLL 210750Z AUTO 04005KT 7000 NCD M01/M01 Q1028
                        NOSIG=
201701210720 METAR COR EGLL 210720Z AUTO 04004KT 8000 NCD M01/M01 Q1028
                        NOSIG=
201701210650 METAR COR EGLL 210650Z AUTO 04005KT 9000 NCD M01/M02 Q1029
                        NOSIG=
201701210620 METAR COR EGLL 210620Z AUTO 04006KT 9999 NCD M01/M02 Q1029
                        NOSIG=
201701210550 METAR COR EGLL 210550Z AUTO 04005KT 9999 NCD M02/M03 Q1029
                        NOSIG=
201701210520 METAR COR EGLL 210520Z AUTO 04004KT 9999 NCD M02/M03 Q1029
                        NOSIG=
201701210450 METAR COR EGLL 210450Z AUTO 06003KT 9999 NCD M01/M03 Q1029
                        NOSIG=
201701210420 METAR COR EGLL 210420Z AUTO 04004KT 9999 NCD M01/M02 Q1029
                        NOSIG=
201701210350 METAR COR EGLL 210350Z AUTO 04005KT 9999 NCD M01/M02 Q1029
                        NOSIG=
201701210320 METAR COR EGLL 210320Z AUTO 03004KT 9999 NCD M01/M01 Q1030
                        NOSIG=
201701210250 METAR COR EGLL 210250Z AUTO 05004KT 9999 NCD M01/M01 Q1030
                        NOSIG=
201701210220 METAR COR EGLL 210220Z AUTO 06005KT 9000 NCD M01/M01 Q1030
                        NOSIG=
201701210150 METAR COR EGLL 210150Z AUTO 05003KT 9000 NCD M01/M01 Q1030
                        NOSIG=
201701210120 METAR COR EGLL 210120Z AUTO 04005KT 9000 NCD 00/00 Q1030
                        NOSIG=
201701210050 METAR COR EGLL 210050Z AUTO 03006KT 9999 NCD 00/00 Q1031
                        NOSIG=
201701210020 METAR COR EGLL 210020Z AUTO 04005KT 9999 NCD 00/00 Q1031
                        NOSIG=
201701202350 METAR COR EGLL 202350Z AUTO 04005KT 9999 NCD 01/00 Q1031
                        NOSIG=
201701202320 METAR COR EGLL 202320Z AUTO 05004KT 9999 NCD 01/M01 Q1031
                        NOSIG=
201701202250 METAR COR EGLL 202250Z AUTO 04004KT 9999 NCD 01/M01 Q1031
                        NOSIG=
201701202220 METAR COR EGLL 202220Z AUTO 03004KT 360V060 9999 NCD 02/M00
                        Q1031 NOSIG=
201701202150 METAR COR EGLL 202150Z AUTO 04003KT 9999 NCD 01/M01 Q1031
                        NOSIG=
201701202120 METAR COR EGLL 202120Z AUTO 03003KT 9999 NCD 02/M01 Q1031
                        NOSIG=
201701202050 METAR COR EGLL 202050Z AUTO 03002KT 9999 NCD 02/M01 Q1031
                        NOSIG=
201701202020 METAR COR EGLL 202020Z AUTO 04004KT 9999 NCD 02/M01 Q1031
                        NOSIG=
201701201950 METAR COR EGLL 201950Z AUTO 04004KT 9999 NCD 03/M01 Q1031
                        NOSIG=
201701201920 METAR COR EGLL 201920Z AUTO 05004KT 9999 NCD 03/M02 Q1031
                        NOSIG=
201701201850 METAR COR EGLL 201850Z AUTO 05004KT 9999 NCD 03/M02 Q1031
                        NOSIG=
201701201820 METAR COR EGLL 201820Z AUTO 05006KT 9999 NCD 04/M03 Q1031
                        NOSIG=
201701201750 METAR COR EGLL 201750Z AUTO 06007KT 9999 NCD 04/M04 Q1031
                        NOSIG=
201701201720 METAR COR EGLL 201720Z AUTO 05005KT 9999 NCD 04/M04 Q1031
                        NOSIG=
201701201650 METAR COR EGLL 201650Z AUTO 06006KT 9999 NCD 04/M04 Q1031
                        NOSIG=
201701201620 METAR COR EGLL 201620Z AUTO 07007KT 9999 NCD 05/M04 Q1031
                        NOSIG=
201701201550 METAR COR EGLL 201550Z AUTO 07007KT 9999 NCD 06/M05 Q1032
                        NOSIG=
201701201520 METAR COR EGLL 201520Z AUTO 06007KT 9999 NCD 06/M05 Q1032
                        NOSIG=
201701201450 METAR COR EGLL 201450Z AUTO 07007KT 9999 NCD 07/M04 Q1032
                        NOSIG=
201701201420 METAR COR EGLL 201420Z AUTO 08009KT 9999 NCD 07/M04 Q1032
                        NOSIG=
201701201350 METAR COR EGLL 201350Z AUTO 07008KT 9999 NCD 07/M03 Q1032
                        NOSIG=
201701201320 METAR COR EGLL 201320Z AUTO 07008KT 9999 NCD 07/M02 Q1032
                        NOSIG=
201701201250 METAR COR EGLL 201250Z AUTO 07008KT 9999 NCD 06/M02 Q1033
                        NOSIG=
201701201220 METAR COR EGLL 201220Z AUTO 07008KT 9999 NCD 06/M02 Q1033
                        NOSIG=
201701201150 METAR COR EGLL 201150Z AUTO 07008KT 040V100 9999 NCD 05/M02
                        Q1033 NOSIG=
201701201120 METAR COR EGLL 201120Z AUTO 06005KT 9999 NCD 05/M01 Q1034
                        NOSIG=
201701201050 METAR COR EGLL 201050Z AUTO 07004KT 020V090 9999 NCD 04/M01
                        Q1034 NOSIG=
201701201020 METAR COR EGLL 201020Z AUTO 06005KT 9999 NCD 03/M01 Q1034
                        NOSIG=
201701200950 METAR COR EGLL 200950Z AUTO 04005KT 9999 NCD 01/M01 Q1034
                        NOSIG=
201701200920 METAR COR EGLL 200920Z AUTO 03004KT 9000 NCD M00/M02 Q1034
                        NOSIG=
201701200850 METAR COR EGLL 200850Z AUTO 02004KT 9000 NCD M01/M02 Q1034
                        NOSIG=
201701200820 METAR COR EGLL 200820Z AUTO VRB02KT 9000 NCD M02/M03 Q1034
                        NOSIG=
201701200750 METAR COR EGLL 200750Z AUTO 02004KT 9000 NCD M01/M02 Q1034
                        NOSIG=
201701200720 METAR COR EGLL 200720Z AUTO 01002KT 8000 NCD M02/M03 Q1034
                        NOSIG=
201701200650 METAR COR EGLL 200650Z AUTO 36004KT 7000 NCD M02/M03 Q1034
                        NOSIG=
201701200620 METAR COR EGLL 200620Z AUTO 02002KT 8000 NCD M01/M02 Q1034
                        NOSIG=
201701200550 METAR COR EGLL 200550Z AUTO 01004KT 8000 NCD M02/M03 Q1034
                        NOSIG=
201701200520 METAR COR EGLL 200520Z AUTO 03004KT 9000 NCD M01/M02 Q1034
                        NOSIG=
201701200450 METAR EGLL 200450Z AUTO 02003KT 9000 NCD M01/M02 Q1035=
201701200420 METAR COR EGLL 200420Z AUTO 02003KT 9000 NCD M01/M01 Q1035
                        NOSIG=
201701200350 METAR EGLL 200350Z AUTO 02003KT 8000 NCD M02/M02 Q1035=
201701200320 METAR COR EGLL 200320Z AUTO 02003KT 8000 NCD M01/M02 Q1035
                        NOSIG=
201701200250 METAR COR EGLL 200250Z AUTO VRB02KT 8000 NCD M01/M02 Q1035
                        NOSIG=
201701200220 METAR COR EGLL 200220Z AUTO 03004KT 8000 NCD 00/M02 Q1035
                        NOSIG=
201701200150 METAR COR EGLL 200150Z AUTO 04004KT 9000 NCD M00/M01 Q1035
                        NOSIG=
201701200120 METAR COR EGLL 200120Z AUTO 04004KT 9000 NCD 01/M01 Q1035
                        NOSIG=
201701200050 METAR COR EGLL 200050Z AUTO 05004KT 8000 NCD 00/M01 Q1035
                        NOSIG=
201701200020 METAR COR EGLL 200020Z AUTO VRB02KT 7000 NCD M00/M02 Q1035
                        NOSIG=
201701192350 METAR COR EGLL 192350Z AUTO VRB02KT 7000 NCD M00/M02 Q1036
                        NOSIG=
201701192320 METAR COR EGLL 192320Z AUTO 03003KT 7000 NCD 00/M01 Q1036
                        NOSIG=
201701192250 METAR COR EGLL 192250Z AUTO 03003KT 7000 NCD 00/M01 Q1036
                        NOSIG=
201701192220 METAR COR EGLL 192220Z AUTO 03004KT 8000 NCD 01/M01 Q1036
                        NOSIG=
201701192150 METAR COR EGLL 192150Z AUTO 04005KT 8000 NCD 02/M01 Q1036
                        NOSIG=
201701192120 METAR COR EGLL 192120Z AUTO 03004KT 350V050 8000 NCD 02/M00
                        Q1036 NOSIG=
201701192050 METAR COR EGLL 192050Z AUTO 03004KT 7000 NCD 02/M00 Q1036
                        NOSIG=
201701192020 METAR COR EGLL 192020Z AUTO 03004KT 7000 NCD 02/M00 Q1036
                        NOSIG=
201701191950 METAR COR EGLL 191950Z AUTO VRB03KT 6000 NCD 02/M01 Q1036
                        NOSIG=
201701191920 METAR COR EGLL 191920Z AUTO 03004KT 8000 NCD 03/00 Q1036
                        NOSIG=
201701191850 METAR COR EGLL 191850Z AUTO 04004KT 8000 NCD 03/00 Q1036
                        NOSIG=
201701191820 METAR COR EGLL 191820Z AUTO 05005KT 9000 NCD 03/00 Q1036
                        NOSIG=
201701191750 METAR COR EGLL 191750Z AUTO 04004KT 9999 NCD 04/M00 Q1036
                        NOSIG=
201701191720 METAR COR EGLL 191720Z AUTO 04004KT 9999 NCD 04/M00 Q1036
                        NOSIG=
201701191650 METAR COR EGLL 191650Z AUTO VRB03KT 9999 NCD 05/M00 Q1036
                        NOSIG=
201701191620 METAR COR EGLL 191620Z AUTO 05004KT 9999 NCD 05/M00 Q1036
                        NOSIG=
201701191550 METAR COR EGLL 191550Z AUTO 05003KT 9999 NCD 06/M00 Q1036
                        NOSIG=
201701191520 METAR COR EGLL 191520Z AUTO 06004KT 9999 NCD 06/M00 Q1036
                        NOSIG=
201701191450 METAR COR EGLL 191450Z AUTO 07005KT 9999 NCD 07/M01 Q1036
                        NOSIG=
201701191420 METAR COR EGLL 191420Z AUTO 06006KT 9999 NCD 07/M01 Q1036
                        NOSIG=
201701191350 METAR COR EGLL 191350Z AUTO 07006KT 9999 NCD 06/M01 Q1036
                        NOSIG=
201701191320 METAR COR EGLL 191320Z AUTO 04005KT 020V080 9999 NCD 06/M02
                        Q1036 NOSIG=
201701191250 METAR COR EGLL 191250Z AUTO 06006KT 9999 NCD 06/M03 Q1037
                        NOSIG=
201701191220 METAR COR EGLL 191220Z AUTO 06006KT 020V080 9999 NCD 06/M02
                        Q1037 NOSIG=
201701191150 METAR COR EGLL 191150Z AUTO 05005KT 9999 NCD 06/M01 Q1037
                        NOSIG=
201701191120 METAR COR EGLL 191120Z AUTO 05004KT 010V090 9000 NCD 05/00
                        Q1038 NOSIG=
201701191050 METAR COR EGLL 191050Z AUTO VRB03KT 8000 NCD 03/00 Q1038
                        NOSIG=
201701191020 METAR COR EGLL 191020Z AUTO VRB03KT 8000 NCD 02/00 Q1037
                        NOSIG=
201701190950 METAR COR EGLL 190950Z AUTO 36004KT 8000 NCD 01/M01 Q1038
                        NOSIG=
201701190920 METAR COR EGLL 190920Z AUTO 01003KT 7000 NCD 00/M01 Q1038
                        NOSIG=
201701190850 METAR COR EGLL 190850Z AUTO 36004KT 6000 NCD M00/M01 Q1038
                        NOSIG=
201701190820 METAR COR EGLL 190820Z AUTO 01004KT 6000 NCD M01/M01 Q1038
                        NOSIG=
201701190750 METAR COR EGLL 190750Z AUTO 02004KT 6000 NCD M01/M02 Q1038
                        NOSIG=
201701190720 METAR COR EGLL 190720Z AUTO 02003KT 7000 NCD M02/M03 Q1037
                        NOSIG=
201701190650 METAR COR EGLL 190650Z AUTO 36003KT 8000 NCD M02/M03 Q1037
                        NOSIG=
201701190620 METAR COR EGLL 190620Z AUTO VRB02KT 8000 NCD M02/M03 Q1037
                        NOSIG=
201701190550 METAR COR EGLL 190550Z AUTO VRB02KT 8000 NCD M02/M03 Q1037
                        NOSIG=
201701190520 METAR COR EGLL 190520Z AUTO VRB02KT 8000 NCD M02/M03 Q1037
                        NOSIG=
201701190450 METAR COR EGLL 190450Z AUTO 36001KT 8000 NCD M03/M04 Q1037
                        NOSIG=
201701190420 METAR COR EGLL 190420Z AUTO 35004KT 8000 NCD M02/M03 Q1038
                        NOSIG=
201701190350 METAR COR EGLL 190350Z AUTO VRB02KT 7000 NCD M02/M03 Q1038
                        NOSIG=
201701190320 METAR COR EGLL 190320Z AUTO 01002KT 7000 NCD M01/M03 Q1038
                        NOSIG=
201701190250 METAR COR EGLL 190250Z AUTO 01002KT 8000 NCD M00/M03 Q1038
                        NOSIG=
201701190220 METAR COR EGLL 190220Z AUTO 36002KT 9000 NCD M01/M03 Q1038
                        NOSIG=
201701190150 METAR COR EGLL 190150Z AUTO 35001KT 8000 NCD M01/M03 Q1038
                        NOSIG=
201701190120 METAR COR EGLL 190120Z AUTO 01001KT 8000 NCD M00/M03 Q1038
                        NOSIG=
201701190050 METAR COR EGLL 190050Z AUTO 00000KT 8000 NCD M00/M03 Q1038
                        NOSIG=
201701190020 METAR COR EGLL 190020Z AUTO 02002KT 9000 NCD 00/M03 Q1038
                        NOSIG=
201701182350 METAR COR EGLL 182350Z AUTO 36003KT 9000 NCD 00/M03 Q1038
                        NOSIG=
201701182320 METAR COR EGLL 182320Z AUTO 35002KT 9999 NCD 01/M03 Q1038
                        NOSIG=
201701182250 METAR COR EGLL 182250Z AUTO VRB02KT 9999 NCD 02/M02 Q1038
                        NOSIG=
201701182220 METAR COR EGLL 182220Z AUTO VRB02KT 9000 NCD 03/M02 Q1038
                        NOSIG=
201701182150 METAR COR EGLL 182150Z AUTO 35002KT 8000 NCD 03/M02 Q1038
                        NOSIG=
201701182120 METAR COR EGLL 182120Z AUTO VRB01KT 6000 NCD 03/M02 Q1038
                        NOSIG=
201701182050 METAR COR EGLL 182050Z VRB02KT 9000 NSC 01/M02 Q1038 NOSIG=
201701182020 METAR COR EGLL 182020Z VRB01KT 9000 NSC 01/M03 Q1038 NOSIG=
201701181950 METAR COR EGLL 181950Z VRB02KT 9000 NSC 01/M03 Q1038 NOSIG=
201701181920 METAR COR EGLL 181920Z AUTO 05001KT 9000 NCD 02/M03 Q1038
                        NOSIG=
201701181850 METAR COR EGLL 181850Z AUTO VRB01KT 9999 NCD 03/M03 Q1038
                        NOSIG=
201701181820 METAR COR EGLL 181820Z AUTO VRB02KT 9999 NCD 03/M04 Q1038
                        NOSIG=
201701181750 METAR COR EGLL 181750Z AUTO 11004KT 080V160 9999 NCD 03/M04
                        Q1038 NOSIG=
201701181720 METAR COR EGLL 181720Z AUTO 14004KT 110V170 9999 NCD 03/M05
                        Q1038 NOSIG=
201701181650 METAR COR EGLL 181650Z AUTO 12001KT 9999 NCD 04/M05 Q1038
                        NOSIG=
201701181620 METAR COR EGLL 181620Z AUTO VRB01KT 9999 NCD 04/M05 Q1038
                        NOSIG=
201701181550 METAR COR EGLL 181550Z AUTO VRB02KT 9999 NCD 05/M06 Q1038
                        NOSIG=
201701181520 METAR COR EGLL 181520Z AUTO VRB02KT 9999 NCD 05/M05 Q1038
                        NOSIG=
201701181450 METAR COR EGLL 181450Z AUTO VRB02KT 9999 NCD 05/M07 Q1038
                        NOSIG=
201701181420 METAR COR EGLL 181420Z AUTO VRB02KT 9999 NCD 05/M06 Q1038
                        NOSIG=
201701181350 METAR COR EGLL 181350Z AUTO VRB02KT 9999 NCD 05/M06 Q1038
                        NOSIG=
201701181320 METAR COR EGLL 181320Z AUTO VRB03KT 9999 NCD 05/M06 Q1038
                        NOSIG=
201701181250 METAR COR EGLL 181250Z AUTO VRB03KT 9999 NCD 04/M05 Q1039
                        NOSIG=
201701181220 METAR COR EGLL 181220Z AUTO VRB02KT 9999 NCD 05/M04 Q1039
                        NOSIG=
201701181150 METAR COR EGLL 181150Z AUTO VRB02KT 9999 NCD 04/M03 Q1039
                        NOSIG=
201701181120 METAR COR EGLL 181120Z AUTO VRB03KT 9999 NCD 04/M02 Q1039
                        NOSIG=
201701181050 METAR COR EGLL 181050Z VRB03KT CAVOK 03/M02 Q1039 NOSIG=
201701181020 METAR COR EGLL 181020Z AUTO VRB02KT 7000 NCD 02/M01 Q1039
                        BECMG 9999=
201701180950 METAR COR EGLL 180950Z AUTO VRB02KT 6000 NCD 00/M00 Q1039
                        NOSIG=
201701180920 METAR COR EGLL 180920Z VRB02KT 6000 NSC M01/M01 Q1039 NOSIG=
201701180850 METAR COR EGLL 180850Z 00000KT 6000 NSC M02/M02 Q1039 NOSIG=
201701180820 METAR COR EGLL 180820Z AUTO VRB02KT 3500 BR NCD M02/M02 Q1039
                        TEMPO 5000 HZ=
201701180750 METAR COR EGLL 180750Z AUTO VRB01KT 3800 BR NCD M03/M03 Q1039
                        TEMPO 5000 HZ=
201701180720 METAR COR EGLL 180720Z AUTO VRB02KT 3600 BR NCD M03/M03 Q1038
                        TEMPO 5000 HZ=
201701180650 METAR COR EGLL 180650Z AUTO VRB01KT 4300 BR NCD M02/M02 Q1038
                        BECMG 5000=
201701180620 METAR COR EGLL 180620Z AUTO VRB01KT 4300 BR NCD M02/M02 Q1038
                        NOSIG=
201701180550 METAR COR EGLL 180550Z AUTO VRB01KT 2300 BR NCD M03/M03 Q1038
                        NOSIG=
201701180520 METAR COR EGLL 180520Z AUTO 35001KT 3400 BR NCD M03/M03 Q1038
                        NOSIG=
201701180450 METAR COR EGLL 180450Z AUTO VRB01KT 3400 BR NCD M02/M02 Q1038
                        NOSIG=
201701180420 METAR COR EGLL 180420Z AUTO 05001KT 3400 BR NCD M03/M03 Q1038
                        NOSIG=
201701180350 METAR COR EGLL 180350Z AUTO 05001KT 4100 BR NCD M02/M02 Q1038
                        NOSIG=
201701180320 METAR COR EGLL 180320Z AUTO 10002KT 3100 BR NCD M02/M02 Q1038
                        NOSIG=
201701180250 METAR COR EGLL 180250Z AUTO 08002KT 3500 BR NCD M02/M02 Q1038
                        NOSIG=
201701180220 METAR COR EGLL 180220Z AUTO 02001KT 3500 BR NCD M02/M02 Q1038
                        NOSIG=
201701180150 METAR COR EGLL 180150Z AUTO 07001KT 3500 BR NCD M02/M02 Q1038
                        NOSIG=
201701180120 METAR COR EGLL 180120Z AUTO VRB01KT 4300 BR NCD M02/M02 Q1038
                        NOSIG=
201701180050 METAR COR EGLL 180050Z AUTO 18001KT 5000 BR NCD M01/M01 Q1038
                        NOSIG=
201701180020 METAR COR EGLL 180020Z AUTO 17002KT 5000 BR NCD M01/M01 Q1038
                        NOSIG=
201701172350 METAR COR EGLL 172350Z AUTO 14001KT 5000 BR NCD M01/M01 Q1038
                        NOSIG=
201701172320 METAR COR EGLL 172320Z AUTO 15003KT 6000 NCD M01/M01 Q1038
                        NOSIG=
201701172250 METAR COR EGLL 172250Z AUTO 17003KT 6000 NCD M01/M02 Q1038
                        NOSIG=
201701172220 METAR COR EGLL 172220Z AUTO 17003KT 6000 NCD M00/M02 Q1038
                        NOSIG=
201701172150 METAR COR EGLL 172150Z AUTO 17003KT 6000 NCD M00/M02 Q1038
                        NOSIG=
201701172120 METAR COR EGLL 172120Z AUTO VRB02KT 7000 NCD 01/M02 Q1038
                        NOSIG=
201701172050 METAR COR EGLL 172050Z AUTO 14004KT 7000 NCD 00/M01 Q1038
                        NOSIG=
201701172020 METAR COR EGLL 172020Z AUTO 11002KT 7000 NCD 01/M02 Q1038
                        NOSIG=
201701171950 METAR COR EGLL 171950Z AUTO 10003KT 8000 NCD 01/M02 Q1038
                        NOSIG=
201701171920 METAR COR EGLL 171920Z AUTO 15001KT 9999 NCD 02/M02 Q1037
                        NOSIG=
201701171850 METAR COR EGLL 171850Z AUTO 15003KT 9999 NCD 02/M03 Q1037
                        NOSIG=
201701171820 METAR COR EGLL 171820Z AUTO 14003KT 9999 NCD 02/M03 Q1037
                        NOSIG=
201701171750 METAR COR EGLL 171750Z AUTO 14004KT 9999 NCD 02/M04 Q1037
                        NOSIG=
201701171720 METAR COR EGLL 171720Z AUTO 15004KT 9999 NCD 03/M03 Q1037
                        NOSIG=
201701171650 METAR COR EGLL 171650Z AUTO 16004KT 9999 NCD 03/M02 Q1037
                        NOSIG=
201701171620 METAR COR EGLL 171620Z AUTO 16003KT 9999 NCD 04/M03 Q1037
                        NOSIG=
201701171550 METAR COR EGLL 171550Z AUTO VRB03KT 9999 NCD 05/M03 Q1036
                        NOSIG=
201701171520 METAR COR EGLL 171520Z AUTO 15003KT 9999 NCD 06/M04 Q1036
                        NOSIG=
201701171450 METAR COR EGLL 171450Z VRB03KT CAVOK 06/M04 Q1036=
201701171420 METAR COR EGLL 171420Z AUTO VRB03KT 9999 NCD 06/M04 Q1036
                        NOSIG=
201701171350 METAR COR EGLL 171350Z AUTO 16004KT 130V190 9999 NCD 05/M03
                        Q1036 NOSIG=
201701171320 METAR COR EGLL 171320Z AUTO 17005KT 9999 NCD 06/M03 Q1036
                        NOSIG=
201701171250 METAR COR EGLL 171250Z AUTO VRB03KT 9999 NCD 06/M03 Q1036
                        NOSIG=
201701171220 METAR COR EGLL 171220Z AUTO VRB03KT 9999 NCD 06/M02 Q1037
                        NOSIG=
201701171150 METAR COR EGLL 171150Z AUTO 12004KT 090V180 9000 NCD 05/M01
                        Q1037 NOSIG=
201701171120 METAR COR EGLL 171120Z AUTO VRB03KT 8000 NCD 05/M00 Q1037
                        NOSIG=
201701171050 METAR COR EGLL 171050Z AUTO 14005KT 6000 NCD 05/03 Q1037
                        NOSIG=
201701171020 METAR COR EGLL 171020Z 14003KT 8000 NSC 04/03 Q1037 NOSIG=
201701170950 METAR COR EGLL 170950Z 09001KT 8000 NSC 03/03 Q1036 NOSIG=
201701170920 METAR COR EGLL 170920Z VRB01KT 8000 NSC 02/02 Q1036 NOSIG=
201701170850 METAR COR EGLL 170850Z 10003KT 9000 NSC 01/01 Q1036 NOSIG=
201701170820 METAR COR EGLL 170820Z 13004KT CAVOK 01/01 Q1035 NOSIG=
201701170750 METAR COR EGLL 170750Z 09001KT CAVOK 01/01 Q1035 NOSIG=
201701170720 METAR COR EGLL 170720Z 09002KT CAVOK 01/01 Q1035 NOSIG=
201701170650 METAR COR EGLL 170650Z VRB02KT 9999 NSC 01/01 Q1035 NOSIG=
201701170620 METAR COR EGLL 170620Z AUTO 08001KT 8000 NCD 02/02 Q1034
                        NOSIG=
201701170550 METAR COR EGLL 170550Z AUTO 06002KT 3400 BR NCD 01/01 Q1034
                        TEMPO 6000=
201701170520 METAR COR EGLL 170520Z AUTO 04001KT 5000 BR NCD 01/01 Q1034
                        NOSIG=
201701170450 METAR COR EGLL 170450Z AUTO 08002KT 6000 NCD 01/01 Q1034
                        TEMPO 4000 BR=
201701170420 METAR COR EGLL 170420Z AUTO 11003KT 6000 NCD 01/01 Q1033
                        TEMPO 4000 BR=
201701170350 METAR COR EGLL 170350Z AUTO 10002KT 6000 NCD 02/02 Q1033
                        TEMPO 4000 BR=
201701170320 METAR COR EGLL 170320Z AUTO 11002KT 4900 BR NCD 02/02 Q1033
                        TEMPO 6000=
201701170250 METAR COR EGLL 170250Z AUTO 12003KT 6000 NCD 03/03 Q1033
                        NOSIG=
201701170220 METAR COR EGLL 170220Z AUTO 10003KT 7000 NCD 03/03 Q1033
                        NOSIG=
201701170150 METAR COR EGLL 170150Z AUTO 09003KT 7000 NCD 03/03 Q1033
                        NOSIG=
201701170120 METAR COR EGLL 170120Z AUTO 10003KT 7000 NCD 03/03 Q1032
                        NOSIG=
201701170050 METAR COR EGLL 170050Z AUTO 12003KT 8000 NCD 04/04 Q1032
                        NOSIG=
201701170020 METAR COR EGLL 170020Z AUTO 08002KT 9000 NCD 04/04 Q1032
                        NOSIG=
201701162350 METAR COR EGLL 162350Z AUTO 07001KT 9999 NCD 04/04 Q1032
                        NOSIG=
201701162320 METAR COR EGLL 162320Z AUTO 08003KT 9999 NCD 04/04 Q1032
                        NOSIG=
201701162250 METAR COR EGLL 162250Z AUTO 09002KT 9999 SCT035 05/04 Q1032
                        NOSIG=
201701162220 METAR COR EGLL 162220Z AUTO VRB02KT 9999 BKN033 05/04 Q1032
                        NOSIG=
201701162150 METAR COR EGLL 162150Z AUTO 14001KT 9999 OVC030 05/04 Q1031
                        NOSIG=
201701162120 METAR COR EGLL 162120Z AUTO VRB01KT 9999 OVC030 05/04 Q1031
                        NOSIG=
201701162050 METAR COR EGLL 162050Z AUTO VRB02KT 9999 OVC031 05/04 Q1031
                        NOSIG=
201701162020 METAR COR EGLL 162020Z AUTO 18002KT 9999 OVC029 05/04 Q1031
                        NOSIG=
201701161950 METAR COR EGLL 161950Z AUTO 14004KT 9999 BKN026 05/04 Q1030
                        NOSIG=
201701161920 METAR COR EGLL 161920Z AUTO 14004KT 9999 FEW013 BKN025 OVC039
                        05/04 Q1030 NOSIG=
201701161850 METAR COR EGLL 161850Z AUTO 13003KT 9999 OVC027 04/04 Q1030
                        NOSIG=
201701161820 METAR COR EGLL 161820Z AUTO 15004KT 9999 FEW011 OVC028 05/04
                        Q1029 NOSIG=
201701161750 METAR COR EGLL 161750Z AUTO 14004KT 9999 FEW012 OVC025 05/04
                        Q1029 NOSIG=
201701161720 METAR COR EGLL 161720Z AUTO 15003KT 9999 SCT011 BKN022 05/04
                        Q1029 TEMPO BKN014=
201701161650 METAR COR EGLL 161650Z AUTO 14004KT 9999 FEW010 BKN032 05/04
                        Q1028 NOSIG=
201701161620 METAR COR EGLL 161620Z AUTO 14004KT 9999 SCT009 BKN020 05/04
                        Q1028 TEMPO BKN012=
201701161550 METAR COR EGLL 161550Z AUTO 11004KT 090V150 9999 BKN010 OVC040
                        05/04 Q1028 BECMG FEW010 BKN045=
201701161520 METAR COR EGLL 161520Z AUTO 13004KT 9999 FEW011 BKN028 OVC044
                        05/04 Q1028 TEMPO BKN011=
201701161450 METAR COR EGLL 161450Z 12004KT 9999 BKN011 SCT019 05/04 Q1028
                        BECMG FEW011 BKN019=
201701161420 METAR COR EGLL 161420Z 14003KT 9999 FEW007 SCT010 BKN042
                        05/05 Q1028 TEMPO BKN012=
201701161350 METAR COR EGLL 161350Z 14004KT 9000 -RA FEW006 SCT009 BKN016
                        05/05 Q1027 TEMPO BKN014=
201701161320 METAR COR EGLL 161320Z VRB03KT 9999 -RA FEW006 SCT008 BKN011
                        05/05 Q1027 BECMG SCT009 BKN016=
201701161250 METAR COR EGLL 161250Z 14005KT 8000 -RA FEW007 SCT008 BKN018
                        05/05 Q1027 NOSIG=
201701161220 METAR COR EGLL 161220Z 11005KT 6000 -RA FEW005 SCT007 BKN015
                        05/05 Q1028 TEMPO BKN014=
201701161150 METAR COR EGLL 161150Z 11005KT 6000 -RA FEW006 SCT008 BKN016
                        05/05 Q1028 TEMPO BKN014=
201701161120 METAR COR EGLL 161120Z 13005KT 6000 -RA FEW008 BKN015 BKN022
                        05/05 Q1028 TEMPO BKN014=
201701161050 METAR COR EGLL 161050Z 11004KT 7000 -RA FEW008 BKN020 05/05
                        Q1028 TEMPO BKN012=
201701161020 METAR COR EGLL 161020Z 13004KT 5000 -RA FEW008 BKN016 05/05
                        Q1027 TEMPO BKN012=
201701160950 METAR COR EGLL 160950Z 14004KT 4500 -RA SCT006 BKN016 05/05
                        Q1027 TEMPO 5000 BKN012=
201701160920 METAR COR EGLL 160920Z 14005KT 4800 -RA SCT004 BKN011 05/05
                        Q1027 TEMPO 6000=
201701160850 METAR COR EGLL 160850Z 14005KT 3500 -RA SCT004 BKN006 BKN011
                        05/05 Q1027 RERA TEMPO 5000 SCT006
                        BKN012=
201701160820 METAR COR EGLL 160820Z 14005KT 2700 RA SCT003 BKN005 BKN008
                        05/05 Q1027 TEMPO 5000 -RA SCT005
                        BKN010=
201701160750 METAR COR EGLL 160750Z 11005KT 3000 RA SCT003 SCT005 BKN010
                        05/05 Q1026 TEMPO BKN005=
201701160720 METAR COR EGLL 160720Z 11004KT 3500 -RA FEW003 SCT006 BKN010
                        05/05 Q1026 TEMPO BKN006=
201701160650 METAR COR EGLL 160650Z 13004KT 3500 -RA FEW003 SCT006 BKN010
                        05/05 Q1026 TEMPO BKN006=
201701160620 METAR COR EGLL 160620Z 10002KT 2900 -RA SCT006 BKN037 05/05
                        Q1026 TEMPO BKN006=
201701160550 METAR COR EGLL 160550Z 10002KT 2100 -RADZ SCT004 BKN021 05/05
                        Q1026 TEMPO BKN004=
201701160520 METAR COR EGLL 160520Z 09004KT 2300 -RADZ FEW003 SCT005 BKN021
                        06/06 Q1025 TEMPO BKN005=
201701160450 METAR COR EGLL 160450Z 07004KT 2100 -RA FEW003 SCT008 BKN024
                        06/06 Q1025 TEMPO BKN003=
201701160420 METAR COR EGLL 160420Z 08005KT 2000 -RADZ SCT004 BKN006 06/06
                        Q1025 TEMPO BKN003=
201701160350 METAR COR EGLL 160350Z 10006KT 2200 -RA SCT002 BKN007 07/07
                        Q1025 TEMPO 1400 -RADZ BKN003=
201701160320 METAR COR EGLL 160320Z AUTO 07004KT 2600 BR BKN003 07/07
                        Q1025 TEMPO BKN005=
201701160250 METAR COR EGLL 160250Z AUTO 06004KT 8000 BKN003 07/07 Q1025
                        TEMPO BKN006=
201701160220 METAR COR EGLL 160220Z AUTO 03004KT 330V050 5000 -RADZ BKN005
                        OVC015 08/08 Q1025 RERA REDZ TEMPO
                        3000=
201701160150 METAR COR EGLL 160150Z AUTO 04003KT 5000 BR OVC006 08/08
                        Q1024 TEMPO 3000 -DZ=
201701160120 METAR COR EGLL 160120Z AUTO VRB03KT 5000 BR OVC008 08/08
                        Q1024 TEMPO 3000 -DZ=
201701160050 METAR COR EGLL 160050Z AUTO VRB03KT 4100 BR OVC009 08/08
                        Q1024 TEMPO 5000 BKN010=
201701160020 METAR COR EGLL 160020Z AUTO 36002KT 6000 BKN011 08/08 Q1024
                        TEMPO 3000 -DZ BKN006=
201701152350 METAR COR EGLL 152350Z AUTO VRB02KT 5000 -RA BKN011 OVC024
                        08/08 Q1024 RERA REDZ TEMPO SCT011
                        BKN020=
201701152320 METAR COR EGLL 152320Z AUTO VRB02KT 9000 BKN015 08/08 Q1024
                        TEMPO BKN012=
201701152250 METAR COR EGLL 152250Z AUTO 31003KT 6000 FEW012 SCT021 08/08
                        Q1024 TEMPO BKN012=
201701152220 METAR COR EGLL 152220Z AUTO VRB03KT 7000 SCT009 BKN023 08/08
                        Q1024 TEMPO BKN009=
201701152150 METAR COR EGLL 152150Z AUTO VRB03KT 6000 BKN011 OVC023 09/08
                        Q1023 TEMPO SCT011 BKN020=
201701152120 METAR COR EGLL 152120Z AUTO VRB02KT 7000 BKN010 BKN031 09/09
                        Q1023 TEMPO SCT012 BKN020=
201701152050 METAR COR EGLL 152050Z VRB02KT 9999 -RA FEW010 BKN031 09/09
                        Q1023 TEMPO BKN012=
201701152020 METAR COR EGLL 152020Z VRB03KT 9999 BKN018 09/09 Q1023 TEMPO
                        BKN012=
201701151950 METAR COR EGLL 151950Z VRB03KT 9999 -RADZ FEW005 BKN015 09/09
                        Q1023 RERA REDZ TEMPO BKN006=
201701151920 METAR COR EGLL 151920Z 36004KT 8000 -RADZ FEW004 BKN011 09/09
                        Q1022 RERA REDZ TEMPO 3000 RADZ BKN006=
201701151850 METAR COR EGLL 151850Z 34004KT 300V020 6000 -RADZ BKN013
                        09/09 Q1022 TEMPO 4000 RADZ BKN008=
201701151820 METAR COR EGLL 151820Z 32005KT 9999 SCT011 BKN016 09/09 Q1022
                        TEMPO 4000 RADZ BKN012=
201701151750 METAR COR EGLL 151750Z 31006KT 9999 BKN015 09/09 Q1022 TEMPO
                        BKN012=
201701151720 METAR COR EGLL 151720Z 30006KT 9000 -RA FEW008 BKN015 09/09
                        Q1021 RERA REDZ NOSIG=
201701151650 METAR COR EGLL 151650Z 31006KT 280V340 4500 -RADZ BKN009
                        09/09 Q1021 TEMPO 9999 NSW BKN012=
201701151620 METAR COR EGLL 151620Z 31005KT 9000 VCSH FEW009 BKN012 09/09
                        Q1021 TEMPO BKN008=
201701151550 METAR COR EGLL 151550Z 30007KT 9999 -RA FEW009 BKN015 09/09
                        Q1021 TEMPO BKN010=
201701151520 METAR COR EGLL 151520Z 30007KT 7000 -RA SCT007 BKN013 09/09
                        Q1020 TEMPO BKN008=
201701151450 METAR COR EGLL 151450Z 30006KT 5000 -RADZ SCT005 BKN010 09/09
                        Q1020 TEMPO BKN008=
201701151420 METAR COR EGLL 151420Z 29006KT 5000 -RADZ SCT005 BKN010 08/08
                        Q1020 TEMPO BKN008=
201701151350 METAR COR EGLL 151350Z 30007KT 5000 -RA FEW005 BKN011 08/08
                        Q1020 TEMPO 4500 -RADZ BKN008=
201701151320 METAR COR EGLL 151320Z 29008KT 8000 -RA FEW008 BKN010 08/07
                        Q1020 TEMPO 4500 -RADZ=
201701151250 METAR COR EGLL 151250Z 29008KT 9999 -RA FEW007 BKN010 08/07
                        Q1020 TEMPO BKN008=
201701151220 METAR COR EGLL 151220Z 29009KT 9999 -RA FEW007 BKN010 07/07
                        Q1021 NOSIG=
201701151150 METAR COR EGLL 151150Z 29007KT 9999 -RA BKN009 BKN012 07/07
                        Q1021 TEMPO 4000 RADZ=
201701151120 METAR COR EGLL 151120Z 27009KT 9000 -RA FEW008 BKN012 06/06
                        Q1021 TEMPO 4000 RADZ BKN008=
201701151050 METAR COR EGLL 151050Z 26008KT 6000 -RA FEW005 BKN009 06/06
                        Q1021 TEMPO 4500 -RADZ=
201701151020 METAR COR EGLL 151020Z 24007KT 210V270 9000 -RA FEW006 BKN008
                        BKN030 05/05 Q1022 NOSIG=
201701150950 METAR COR EGLL 150950Z 22008KT 8000 -RA FEW006 BKN008 BKN022
                        04/04 Q1022 TEMPO SCT008 BKN012=
201701150920 METAR COR EGLL 150920Z 21005KT 160V250 8000 -RA FEW007 BKN011
                        BKN023 04/04 Q1023 TEMPO BKN008=
201701150850 METAR COR EGLL 150850Z 22005KT 170V250 8000 -RA BKN012 BKN024
                        04/04 Q1023 NOSIG=
201701150820 METAR COR EGLL 150820Z 23006KT 8000 -RA FEW007 SCT018 BKN031
                        03/03 Q1023 TEMPO RA BKN008=
201701150750 METAR COR EGLL 150750Z 23006KT 9000 -RA FEW007 SCT010 BKN030
                        03/03 Q1023 TEMPO RA BKN008=
201701150720 METAR COR EGLL 150720Z 23006KT 9999 -RA FEW008 BKN010 03/03
                        Q1023 TEMPO RA BKN008=
201701150650 METAR COR EGLL 150650Z 23006KT 9999 -RA FEW009 BKN012 03/03
                        Q1023 TEMPO 3000 RADZ BKN006=
201701150620 METAR COR EGLL 150620Z AUTO 22005KT 170V250 6000 -RA OVC012
                        03/03 Q1023 TEMPO 3000 RADZ BKN006=
201701150550 METAR COR EGLL 150550Z AUTO 19004KT 160V270 6000 -RA OVC016
                        03/03 Q1023 TEMPO 3000 RADZ BKN006=
201701150520 METAR COR EGLL 150520Z AUTO VRB02KT 5000 -RA BKN018 03/03
                        Q1024 TEMPO 3000 RADZ BKN006=
201701150450 METAR COR EGLL 150450Z AUTO 27003KT 4000 -RA OVC020 02/02
                        Q1024 TEMPO RA BKN010=
201701150420 METAR COR EGLL 150420Z AUTO 27005KT 4700 -RA BKN022 02/02
                        Q1024 TEMPO RA=
201701150350 METAR COR EGLL 150350Z AUTO 27003KT 4600 -RA BKN013 OVC030
                        02/02 Q1024 TEMPO RA=
201701150320 METAR COR EGLL 150320Z AUTO 28004KT 4600 -RA BKN015 02/02
                        Q1024 RERA TEMPO RA=
201701150250 METAR COR EGLL 150250Z AUTO 28004KT 6000 -RA SCT019 BKN040
                        02/02 Q1024 TEMPO 4000 -RADZ BKN012=
201701150220 METAR COR EGLL 150220Z AUTO 30003KT 9999 NCD 01/01 Q1024
                        TEMPO -RA BKN014=
201701150150 METAR COR EGLL 150150Z AUTO 30003KT 9000 NCD 00/00 Q1024
                        NOSIG=
201701150120 METAR COR EGLL 150120Z AUTO 28004KT 9999 NCD 00/00 Q1024
                        NOSIG=
201701150050 METAR COR EGLL 150050Z AUTO 28004KT 9999 NCD M00/M00 Q1024
                        NOSIG=
201701150020 METAR COR EGLL 150020Z AUTO 28004KT 9999 NCD M00/M00 Q1024
                        NOSIG=
201701142350 METAR COR EGLL 142350Z AUTO 29005KT 9999 NCD 00/00 Q1024
                        NOSIG=
201701142320 METAR COR EGLL 142320Z AUTO 28006KT 9999 NCD 01/01 Q1024
                        NOSIG=
201701142250 METAR COR EGLL 142250Z AUTO 28006KT 9999 NCD 02/01 Q1023
                        NOSIG=
201701142220 METAR COR EGLL 142220Z AUTO 28005KT 9999 NCD 02/01 Q1023
                        NOSIG=
201701142150 METAR COR EGLL 142150Z AUTO 28005KT 9999 FEW023 03/01 Q1023
                        NOSIG=
201701142120 METAR COR EGLL 142120Z AUTO 28004KT 9999 BKN019 BKN033 03/01
                        Q1023 NOSIG=
201701142050 METAR COR EGLL 142050Z AUTO 30002KT 9999 BKN019 04/02 Q1023
                        NOSIG=
201701142020 METAR COR EGLL 142020Z AUTO 28003KT 9999 BKN018 03/02 Q1023
                        NOSIG=
201701141950 METAR COR EGLL 141950Z AUTO 29005KT 9999 BKN019 04/02 Q1022
                        NOSIG=
201701141920 METAR COR EGLL 141920Z AUTO 29005KT 9999 SCT023 03/01 Q1022
                        NOSIG=
201701141850 METAR COR EGLL 141850Z AUTO 29005KT 9999 FEW026 04/03 Q1022
                        NOSIG=
201701141820 METAR COR EGLL 141820Z AUTO 28006KT 9999 FEW026 03/02 Q1022
                        NOSIG=
201701141750 METAR COR EGLL 141750Z 28005KT 9999 SCT024 03/02 Q1022 NOSIG=
201701141720 METAR COR EGLL 141720Z AUTO 28003KT 9999 NCD 04/02 Q1021
                        NOSIG=
201701141650 METAR COR EGLL 141650Z AUTO 29004KT 9999 FEW019 04/02 Q1021
                        NOSIG=
201701141620 METAR COR EGLL 141620Z AUTO 29005KT 9999 BKN019 BKN038 04/02
                        Q1021 NOSIG=
201701141550 METAR COR EGLL 141550Z AUTO 29005KT 9999 FEW016 BKN043 04/02
                        Q1021 NOSIG=
201701141520 METAR COR EGLL 141520Z AUTO 32006KT 290V360 9999 FEW011 BKN038
                        04/02 Q1021 NOSIG=
201701141450 METAR COR EGLL 141450Z AUTO 29008KT 9999 BKN031 05/03 Q1021
                        NOSIG=
201701141420 METAR COR EGLL 141420Z AUTO 29007KT 9999 BKN044 04/02 Q1020
                        NOSIG=
201701141350 METAR COR EGLL 141350Z 30005KT 230V330 9999 FEW009 BKN031
                        04/02 Q1020 NOSIG=
201701141320 METAR COR EGLL 141320Z 32004KT 280V360 9999 -RA SCT011 BKN019
                        04/02 Q1020 NOSIG=
201701141250 METAR COR EGLL 141250Z 33005KT 290V010 9999 -RA SCT010 BKN017
                        04/02 Q1020 NOSIG=
201701141220 METAR COR EGLL 141220Z 32007KT 9999 -RA SCT014 SCT018 05/02
                        Q1020 NOSIG=
201701141150 METAR COR EGLL 141150Z 31007KT 290V360 9999 -RA FEW022 SCT045
                        06/01 Q1020 NOSIG=
201701141120 METAR COR EGLL 141120Z AUTO 30008KT 9999 NCD 05/01 Q1020
                        NOSIG=
201701141050 METAR COR EGLL 141050Z AUTO 29009KT 9999 NCD 05/01 Q1020
                        NOSIG=
201701141020 METAR COR EGLL 141020Z AUTO 29007KT 9999 NCD 04/01 Q1020
                        NOSIG=
201701140950 METAR COR EGLL 140950Z AUTO 29009KT 9999 NCD 03/00 Q1019
                        NOSIG=
201701140920 METAR COR EGLL 140920Z AUTO 29009KT 9999 NCD 03/00 Q1019
                        NOSIG=
201701140850 METAR COR EGLL 140850Z AUTO 27008KT 9999 NCD 02/M00 Q1019
                        NOSIG=
201701140820 METAR COR EGLL 140820Z AUTO 27009KT 9999 NCD 01/M01 Q1019
                        NOSIG=
201701140750 METAR COR EGLL 140750Z AUTO 27008KT 9999 NCD 01/M01 Q1018
                        NOSIG=
201701140720 METAR COR EGLL 140720Z AUTO 27009KT 9999 FEW025 01/M01 Q1018
                        NOSIG=
201701140650 METAR COR EGLL 140650Z AUTO 26010KT 9999 FEW028 01/M01 Q1018
                        NOSIG=
201701140620 METAR COR EGLL 140620Z AUTO 27009KT 9999 FEW029 00/M01 Q1018
                        NOSIG=
201701140550 METAR COR EGLL 140550Z AUTO 27010KT 9999 FEW035 00/M01 Q1018
                        NOSIG=
201701140520 METAR COR EGLL 140520Z AUTO 27006KT 9999 NCD 00/M02 Q1018
                        NOSIG=
201701140450 METAR COR EGLL 140450Z AUTO 26009KT 9999 NCD 01/M02 Q1018
                        NOSIG=
201701140420 METAR COR EGLL 140420Z AUTO 28008KT 9999 NCD 00/M02 Q1018
                        NOSIG=
201701140350 METAR COR EGLL 140350Z AUTO 29008KT 9999 NCD 00/M02 Q1018
                        NOSIG=
201701140320 METAR COR EGLL 140320Z AUTO 29007KT 9999 NCD 00/M02 Q1018
                        NOSIG=
201701140250 METAR COR EGLL 140250Z AUTO 29008KT 9999 NCD 01/M02 Q1019
                        NOSIG=
201701140220 METAR COR EGLL 140220Z AUTO 29008KT 9999 NCD 01/M02 Q1018
                        NOSIG=
201701140150 METAR COR EGLL 140150Z AUTO 29007KT 9999 NCD M00/M02 Q1018
                        NOSIG=
201701140120 METAR EGLL 140120Z AUTO 27006KT 9999 NCD M00/M02 Q1018=
201701140050 METAR COR EGLL 140050Z AUTO 30005KT 9999 NCD 01/M02 Q1018
                        NOSIG=
201701140020 METAR COR EGLL 140020Z AUTO 29007KT 9999 NCD 01/M02 Q1018
                        NOSIG=
201701132350 METAR COR EGLL 132350Z AUTO 29007KT 9999 NCD 02/M02 Q1018
                        NOSIG=
201701132320 METAR COR EGLL 132320Z AUTO 29007KT 9999 NCD 02/M02 Q1017
                        NOSIG=
201701132250 METAR COR EGLL 132250Z AUTO 29010KT 9999 NCD 02/M02 Q1017
                        NOSIG=
201701132220 METAR COR EGLL 132220Z AUTO 29008KT 9999 NCD 02/M01 Q1017
                        NOSIG=
201701132150 METAR COR EGLL 132150Z AUTO 30007KT 9999 NCD 02/M01 Q1016
                        NOSIG=
201701132120 METAR COR EGLL 132120Z AUTO 30009KT 9999 NCD 02/M01 Q1016
                        NOSIG=
201701132050 METAR COR EGLL 132050Z AUTO 29009KT 9999 NCD 03/M01 Q1016
                        NOSIG=
201701132020 METAR COR EGLL 132020Z AUTO 30009KT 9999 NCD 03/M01 Q1015
                        NOSIG=
201701131950 METAR COR EGLL 131950Z AUTO 29009KT 9999 NCD 03/M01 Q1015
                        NOSIG=
201701131920 METAR COR EGLL 131920Z AUTO 29010KT 9999 NCD 03/M00 Q1015
                        NOSIG=
201701131850 METAR COR EGLL 131850Z AUTO 30009KT 9999 NCD 04/M00 Q1014
                        NOSIG=
201701131820 METAR COR EGLL 131820Z AUTO 30010KT 9999 NCD 04/M00 Q1014
                        NOSIG=
201701131750 METAR COR EGLL 131750Z AUTO 30010KT 9999 SCT040 04/M00 Q1014
                        NOSIG=
201701131720 METAR COR EGLL 131720Z AUTO 30013KT 9999 SCT048 05/00 Q1013
                        NOSIG=
201701131650 METAR COR EGLL 131650Z AUTO 31012G22KT 9999 NCD 05/M01 Q1013
                        NOSIG=
201701131620 METAR COR EGLL 131620Z AUTO 31013KT 280V350 9999 BKN039///
                        //////TCU 06/M01 Q1012 NOSIG=
201701131550 METAR COR EGLL 131550Z AUTO 31010KT 280V350 9999 FEW034 BKN042
                        06/M00 Q1012 NOSIG=
201701131520 METAR COR EGLL 131520Z AUTO 31012KT 9999 BKN035 06/M01 Q1012
                        NOSIG=
201701131450 METAR COR EGLL 131450Z AUTO 32011KT 9999 BKN035 07/M01 Q1011
                        NOSIG=
201701131420 METAR COR EGLL 131420Z AUTO 31011G21KT 270V350 9999 BKN035
                        07/M01 Q1011 NOSIG=
201701131350 METAR COR EGLL 131350Z AUTO 31014G27KT 280V340 9999 BKN033
                        07/M00 Q1010 NOSIG=
201701131320 METAR COR EGLL 131320Z AUTO 31014KT 9999 BKN033 06/M00 Q1010
                        NOSIG=
201701131250 METAR COR EGLL 131250Z AUTO 31015G32KT 280V340 9999 SCT032
                        BKN046 06/M00 Q1009 NOSIG=
201701131220 METAR COR EGLL 131220Z AUTO 30014G29KT 9999 SCT031 06/M00
                        Q1009 NOSIG=
201701131150 METAR COR EGLL 131150Z 30015KT 9999 SCT037 04/M00 Q1008 NOSIG=
201701131120 METAR COR EGLL 131120Z 29015KT 9999 SCT032 03/00 Q1008 RESN
                        RERA NOSIG=
201701131050 METAR COR EGLL 131050Z 29017KT 6000 -RASN SCT017 BKN022 02/00
                        Q1008 NOSIG=
201701131020 METAR COR EGLL 131020Z 29019G30KT 3500 -SN BKN012 SCT020
                        03/M01 Q1008 TEMPO BKN008=
201701130950 METAR COR EGLL 130950Z AUTO 28017KT 9999 FEW030 BKN045 03/M02
                        Q1007 TEMPO 3000 -SN BKN006=
201701130920 METAR COR EGLL 130920Z AUTO 28016KT 9999 NCD 02/M02 Q1007
                        TEMPO 3000 -SN BKN006=
201701130850 METAR COR EGLL 130850Z AUTO 27015KT 9999 NCD 02/M02 Q1008
                        TEMPO 3000 -SN BKN006=
201701130820 METAR COR EGLL 130820Z AUTO 28013KT 9999 NCD 01/M02 Q1008
                        TEMPO 3000 -SN BKN006=
201701130750 METAR COR EGLL 130750Z 29014KT CAVOK 02/M02 Q1008 TEMPO 3000
                        -SN BKN006=
201701130720 METAR COR EGLL 130720Z AUTO 29014KT 9999 NCD 02/M02 Q1007
                        NOSIG=
201701130650 METAR COR EGLL 130650Z AUTO 28012KT 9999 NCD 01/M01 Q1006
                        NOSIG=
201701130620 METAR COR EGLL 130620Z AUTO 28010KT 9999 FEW025 01/M01 Q1006
                        NOSIG=
201701130550 METAR COR EGLL 130550Z AUTO 29008KT 9999 FEW017 01/M01 Q1006
                        NOSIG=
201701130520 METAR COR EGLL 130520Z AUTO 29008KT 9999 SCT015 01/M01 Q1005
                        NOSIG=
201701130450 METAR COR EGLL 130450Z 29009KT 9999 BKN015 02/M00 Q1005 R88/CLRD//
                        NOSIG=
201701130420 METAR COR EGLL 130420Z AUTO 28007KT 240V310 9999 BKN015 01/M01
                        Q1004 NOSIG=
201701130350 METAR COR EGLL 130350Z AUTO 28010KT 9999 FEW020 01/M01 Q1004
                        NOSIG=
201701130320 METAR COR EGLL 130320Z AUTO 27009KT 9999 NCD 01/M01 Q1003
                        NOSIG=
201701130250 METAR COR EGLL 130250Z AUTO 27009KT 9999 NCD 00/M01 Q1003
                        NOSIG=
201701130220 METAR COR EGLL 130220Z AUTO 27008KT 9999 NCD 00/M01 Q1003
                        NOSIG=
201701130150 METAR COR EGLL 130150Z AUTO 27011KT 9999 NCD 00/M01 Q1002
                        NOSIG=
201701130120 METAR COR EGLL 130120Z AUTO 27011KT 9999 NCD 00/M01 Q1002
                        NOSIG=
201701130050 METAR COR EGLL 130050Z AUTO 27011KT 9999 NCD 00/M01 Q1001
                        NOSIG=
201701130020 METAR COR EGLL 130020Z AUTO 28009KT 9999 NCD 01/M01 Q1001
                        NOSIG=
201701122350 METAR COR EGLL 122350Z 28010KT CAVOK 01/M01 Q1000 R27L/1900//
                        R27R/1900// NOSIG=
201701122320 METAR COR EGLL 122320Z 27011KT CAVOK 01/M01 Q1000 NOSIG=
201701122250 METAR COR EGLL 122250Z AUTO 28011KT 9999 FEW032 01/M00 Q0999
                        NOSIG=
201701122220 METAR COR EGLL 122220Z AUTO 29009KT 9999 NCD 02/M00 Q0999
                        NOSIG=
201701122150 METAR COR EGLL 122150Z AUTO 30012KT 9999 FEW018 03/M00 Q0998
                        NOSIG=
201701122120 METAR COR EGLL 122120Z AUTO 29012KT 9999 FEW018 03/01 Q0997
                        NOSIG=
201701122050 METAR COR EGLL 122050Z 30011KT 9999 SCT013 03/02 Q0997 R27L/1900//
                        R27R/2201// NOSIG=
201701122020 METAR COR EGLL 122020Z 31011KT 9999 FEW015 SCT025 02/02 Q0996
                        R27L/1900// R27R/2201// NOSIG=
201701121950 METAR COR EGLL 121950Z 31011KT 9999 -RA FEW010 SCT018 BKN042
                        02/02 Q0995 R27L/1900// R27R/2201//
                        TEMPO BKN014=
201701121920 METAR COR EGLL 121920Z 32010KT 9999 -RA SCT010 BKN014 BKN022
                        02/02 Q0995 R27L/1900// R27R/2201//
                        BECMG SCT014 BKN030=
201701121850 METAR COR EGLL 121850Z 33010KT 3000 -RASN SCT005 BKN007 BKN009
                        01/01 Q0994 BECMG 9999 NSW BKN020=
201701121820 METAR COR EGLL 121820Z 33011KT 300V360 3000 -SNRA SCT004
                        BKN006 BKN010 01/01 Q0994 RESN RERA
                        TEMPO 1200 SNRA BKN004=
201701121750 METAR COR EGLL 121750Z 33007KT 310V010 2300 SNRA FEW002 BKN004
                        01/01 Q0994 RESN RERA TEMPO 1000
                        SN=
201701121720 METAR COR EGLL 121720Z 35008KT 310V020 3000 RASN SCT004 BKN006
                        02/02 Q0994 RESN RERA TEMPO 1200
                        SNRA BKN004=
201701121650 METAR COR EGLL 121650Z 36007KT 320V030 6000 RA FEW006 BKN009
                        BKN010 03/03 Q0994 BECMG 3000 RASN
                        BKN006=
201701121620 METAR COR EGLL 121620Z 32005KT 6000 RA SCT010 BKN015 OVC020
                        04/03 Q0994 BECMG 3000 RASN BKN006=
201701121550 METAR COR EGLL 121550Z 11002KT 7000 -RA FEW008 BKN012 04/04
                        Q0995 TEMPO 3000 RASN BKN006=
201701121520 METAR COR EGLL 121520Z 14004KT 090V180 7000 -RA FEW005 SCT008
                        BKN014 05/05 Q0996 TEMPO 4000 RA
                        BKN008=
201701121450 METAR COR EGLL 121450Z 15005KT 110V240 7000 -RA FEW008 SCT014
                        BKN016 05/05 Q0997 TEMPO 4000 RA
                        BKN008=
201701121420 METAR COR EGLL 121420Z 17007KT 130V220 8000 -RA SCT013 BKN017
                        OVC021 05/05 Q0998 TEMPO RA BKN012=
201701121350 METAR COR EGLL 121350Z AUTO 21006KT 180V260 9999 -RA OVC016
                        06/04 Q1000 TEMPO RA BKN012=
201701121320 METAR COR EGLL 121320Z AUTO 22007KT 180V250 9999 -RA BKN014///
                        //////TCU 06/05 Q1001 TEMPO RA=
201701121250 METAR COR EGLL 121250Z AUTO 22008KT 9999 -RA BKN017 OVC034
                        06/05 Q1003 TEMPO RA=
201701121220 METAR COR EGLL 121220Z AUTO 21007KT 9999 -RA BKN022 OVC038
                        07/05 Q1004 TEMPO RA=
201701121150 METAR COR EGLL 121150Z AUTO 22007KT 9999 -RA BKN024 07/05
                        Q1005 TEMPO RA=
201701121120 METAR COR EGLL 121120Z AUTO 21007KT 9999 -RA BKN024 07/04
                        Q1006 TEMPO RA=
201701121050 METAR COR EGLL 121050Z AUTO 21008KT 190V250 9999 -RA BKN030
                        OVC046 07/04 Q1007 NOSIG=
201701121020 METAR COR EGLL 121020Z AUTO 22009KT 9999 -RA BKN031 BKN047
                        07/03 Q1008 NOSIG=
201701120950 METAR COR EGLL 120950Z AUTO 22009KT 9999 SCT044 06/03 Q1008
                        NOSIG=
201701120920 METAR COR EGLL 120920Z AUTO 22007KT 9999 NCD 06/03 Q1009
                        NOSIG=
201701120850 METAR COR EGLL 120850Z AUTO 21008KT 180V240 9999 NCD 06/03
                        Q1010 NOSIG=
201701120820 METAR COR EGLL 120820Z AUTO 20008KT 9999 NCD 05/02 Q1010
                        NOSIG=
201701120750 METAR COR EGLL 120750Z AUTO 22009KT 9999 FEW027 05/02 Q1011
                        NOSIG=
201701120720 METAR COR EGLL 120720Z AUTO 23010KT 9999 NCD 06/02 Q1011
                        NOSIG=
201701120650 METAR COR EGLL 120650Z AUTO 23009KT 9999 NCD 06/02 Q1011
                        NOSIG=
201701120620 METAR COR EGLL 120620Z AUTO 23010KT 9999 NCD 06/02 Q1012
                        NOSIG=
201701120550 METAR COR EGLL 120550Z AUTO 23009KT 9999 NCD 06/02 Q1012
                        NOSIG=
201701120520 METAR COR EGLL 120520Z AUTO 24010KT 210V270 9999 NCD 06/02
                        Q1012 NOSIG=
201701120450 METAR COR EGLL 120450Z AUTO 23008KT 9999 NCD 06/02 Q1013
                        NOSIG=
201701120420 METAR COR EGLL 120420Z AUTO 23007KT 9999 NCD 06/01 Q1013
                        NOSIG=
201701120350 METAR COR EGLL 120350Z AUTO 24008KT 9999 FEW044 06/01 Q1013
                        NOSIG=
201701120320 METAR COR EGLL 120320Z AUTO 25010KT 9999 FEW042 06/01 Q1014
                        NOSIG=
201701120250 METAR COR EGLL 120250Z AUTO 25012KT 9999 FEW043 06/01 Q1014
                        NOSIG=
201701120220 METAR COR EGLL 120220Z AUTO 26012KT 9999 NCD 06/01 Q1014
                        NOSIG=
201701120150 METAR COR EGLL 120150Z AUTO 24008KT 9999 FEW038 06/01 Q1015
                        NOSIG=
201701120120 METAR COR EGLL 120120Z AUTO 25012KT 9999 NCD 05/01 Q1015
                        NOSIG=
201701120050 METAR COR EGLL 120050Z AUTO 25010KT 9999 FEW043 06/01 Q1015
                        NOSIG=
201701120020 METAR COR EGLL 120020Z AUTO 25010KT 9999 NCD 06/01 Q1015
                        NOSIG=
201701112350 METAR COR EGLL 112350Z AUTO 24009KT 9999 NCD 06/01 Q1015
                        NOSIG=
201701112320 METAR COR EGLL 112320Z AUTO 24011KT 9999 NCD 06/01 Q1015
                        NOSIG=
201701112250 METAR COR EGLL 112250Z AUTO 25010KT 9999 NCD 06/00 Q1015
                        NOSIG=
201701112220 METAR COR EGLL 112220Z AUTO 25012KT 9999 NCD 06/M00 Q1015
                        NOSIG=
201701112150 METAR COR EGLL 112150Z AUTO 26012KT 9999 FEW045 06/M00 Q1015
                        NOSIG=
201701112120 METAR COR EGLL 112120Z AUTO 25012KT 9999 NCD 06/M00 Q1015
                        NOSIG=
201701112050 METAR COR EGLL 112050Z AUTO 25012KT 9999 NCD 06/M00 Q1015
                        NOSIG=
201701112020 METAR COR EGLL 112020Z AUTO 24011KT 9999 NCD 06/M01 Q1014
                        NOSIG=
201701111950 METAR COR EGLL 111950Z AUTO 25010KT 9999 NCD 06/M01 Q1014
                        NOSIG=
201701111920 METAR COR EGLL 111920Z AUTO 26013KT 9999 NCD 07/M01 Q1014
                        NOSIG=
201701111850 METAR COR EGLL 111850Z AUTO 26013KT 9999 NCD 07/M01 Q1014
                        NOSIG=
201701111820 METAR COR EGLL 111820Z AUTO 26013KT 9999 NCD 06/M01 Q1014
                        NOSIG=
201701111750 METAR COR EGLL 111750Z AUTO 28010KT 9999 FEW048 07/M00 Q1014
                        NOSIG=
201701111720 METAR COR EGLL 111720Z AUTO 28012KT 9999 BKN045 08/M01 Q1014
                        NOSIG=
201701111650 METAR COR EGLL 111650Z AUTO 29014KT 9999 BKN045 08/M01 Q1013
                        NOSIG=
201701111620 METAR COR EGLL 111620Z AUTO 29012KT 9999 NCD 08/M02 Q1013
                        NOSIG=
201701111550 METAR COR EGLL 111550Z AUTO 30013KT 9999 NCD 09/M01 Q1012
                        NOSIG=
201701111520 METAR COR EGLL 111520Z AUTO 29016G26KT 9999 BKN044 09/M00
                        Q1012 NOSIG=
201701111450 METAR COR EGLL 111450Z AUTO 31010KT 9999 OVC041 10/01 Q1012
                        NOSIG=
201701111420 METAR COR EGLL 111420Z AUTO 31009KT 9999 OVC043 10/01 Q1011
                        NOSIG=
201701111350 METAR COR EGLL 111350Z AUTO 31011KT 9999 BKN044 10/01 Q1011
                        NOSIG=
201701111320 METAR COR EGLL 111320Z AUTO 31016G26KT 290V350 9999 BKN043
                        11/01 Q1011 NOSIG=
201701111250 METAR COR EGLL 111250Z AUTO 29015KT 270V340 9999 OVC042 11/02
                        Q1010 NOSIG=
201701111220 METAR COR EGLL 111220Z AUTO 29013KT 260V330 9999 OVC039 11/03
                        Q1010 NOSIG=
201701111150 METAR COR EGLL 111150Z AUTO 29014G27KT 9999 OVC038 11/03
                        Q1010 NOSIG=
201701111120 METAR EGLL 111120Z AUTO 29012KT 9999 BKN036 11/04 Q1010=
201701111050 METAR COR EGLL 111050Z AUTO 29014KT 9999 BKN027 OVC043 11/05
                        Q1009 NOSIG=
201701111020 METAR COR EGLL 111020Z AUTO 28009KT 260V320 9999 SCT027 SCT036
                        11/07 Q1009 NOSIG=
201701110950 METAR COR EGLL 110950Z AUTO 27008KT 9999 BKN028 10/08 Q1009
                        NOSIG=
201701110920 METAR COR EGLL 110920Z AUTO 28011KT 9999 SCT027 11/08 Q1008
                        NOSIG=
201701110850 METAR COR EGLL 110850Z AUTO 25009KT 9999 BKN027 10/09 Q1008
                        NOSIG=
201701110820 METAR COR EGLL 110820Z AUTO 24010KT 9999 BKN034 10/09 Q1008
                        NOSIG=
201701110750 METAR COR EGLL 110750Z AUTO 25011KT 9999 FEW038 10/09 Q1007
                        NOSIG=
201701110720 METAR COR EGLL 110720Z AUTO 25011KT 9999 SCT039 10/09 Q1008
                        NOSIG=
201701110650 METAR COR EGLL 110650Z AUTO 25009KT 9999 FEW011 10/09 Q1007
                        NOSIG=
201701110620 METAR COR EGLL 110620Z AUTO 26011KT 9999 BKN009 10/10 Q1007
                        BECMG SCT011 BKN025=
201701110550 METAR COR EGLL 110550Z AUTO 28007KT 9000 BKN008 09/09 Q1007
                        BECMG SCT012=
201701110520 METAR COR EGLL 110520Z AUTO 27008KT 9000 BKN008 BKN035 09/09
                        Q1008 BECMG FEW010=
201701110450 METAR COR EGLL 110450Z AUTO 25008KT 8000 SCT008 08/08 Q1008
                        TEMPO BKN009=
201701110420 METAR COR EGLL 110420Z AUTO 24007KT 8000 SCT010 07/07 Q1008
                        TEMPO BKN010=
201701110350 METAR COR EGLL 110350Z AUTO 23010KT 8000 FEW014 07/07 Q1008
                        TEMPO BKN012=
201701110320 METAR COR EGLL 110320Z AUTO 24008KT 7000 NCD 07/07 Q1009
                        NOSIG=
201701110250 METAR COR EGLL 110250Z AUTO 23007KT 6000 NCD 07/07 Q1009
                        TEMPO BKN012=
201701110220 METAR COR EGLL 110220Z AUTO 21006KT 7000 NCD 07/07 Q1010
                        TEMPO BKN012=
201701110150 METAR COR EGLL 110150Z AUTO 23007KT 8000 NCD 08/07 Q1010
                        TEMPO BKN012=
201701110120 METAR COR EGLL 110120Z AUTO 24006KT 9000 NCD 08/08 Q1011
                        TEMPO BKN010=
201701110050 METAR COR EGLL 110050Z AUTO 24006KT 9000 NCD 08/08 Q1011
                        TEMPO BKN010=
201701110020 METAR COR EGLL 110020Z AUTO 23006KT 7000 NCD 07/07 Q1011
                        TEMPO BKN010=
201701102350 METAR COR EGLL 102350Z AUTO 23006KT 5000 BR NCD 07/07 Q1011
                        TEMPO BKN012=
201701102320 METAR COR EGLL 102320Z AUTO 21006KT 6000 FEW007 07/07 Q1011
                        NOSIG=
201701102250 METAR COR EGLL 102250Z AUTO 24008KT 8000 SCT007 OVC037 08/08
                        Q1012 TEMPO BKN010=
201701102220 METAR COR EGLL 102220Z AUTO 25007KT 8000 OVC037 08/08 Q1012
                        NOSIG=
201701102150 METAR COR EGLL 102150Z AUTO 24008KT 9999 FEW008 BKN039 07/07
                        Q1012 NOSIG=
201701102120 METAR COR EGLL 102120Z AUTO 24008KT 9999 OVC038 07/07 Q1012
                        NOSIG=
201701102050 METAR COR EGLL 102050Z AUTO 23007KT 9999 BKN032 07/06 Q1012
                        NOSIG=
201701102020 METAR COR EGLL 102020Z AUTO 22006KT 190V250 6000 -RA BKN019
                        BKN033 07/06 Q1012 NOSIG=
201701101950 METAR COR EGLL 101950Z AUTO 24008KT 8000 -RA FEW014 BKN019
                        OVC034 07/06 Q1012 NOSIG=
201701101920 METAR COR EGLL 101920Z AUTO 22007KT 190V250 9999 BKN028 07/06
                        Q1012 NOSIG=
201701101850 METAR COR EGLL 101850Z AUTO 25006KT 9999 FEW029 07/05 Q1013
                        NOSIG=
201701101820 METAR COR EGLL 101820Z AUTO 24008KT 9999 BKN026 08/05 Q1012
                        NOSIG=
201701101750 METAR COR EGLL 101750Z AUTO 24006KT 9999 OVC026 08/05 Q1012
                        NOSIG=
201701101720 METAR COR EGLL 101720Z AUTO 26010KT 9999 OVC034 08/05 Q1012
                        NOSIG=
201701101650 METAR COR EGLL 101650Z AUTO 26008KT 9999 BKN038 07/05 Q1012
                        NOSIG=
201701101620 METAR COR EGLL 101620Z 27010KT CAVOK 07/05 Q1012 NOSIG=
201701101550 METAR COR EGLL 101550Z AUTO 28008KT 9999 NCD 08/05 Q1012
                        NOSIG=
201701101520 METAR COR EGLL 101520Z AUTO 28009KT 9999 FEW024 08/05 Q1012
                        NOSIG=
201701101450 METAR COR EGLL 101450Z AUTO 28010KT 9999 FEW022 09/06 Q1012
                        NOSIG=
201701101420 METAR COR EGLL 101420Z 28010KT 9999 SCT034 09/06 Q1011 NOSIG=
201701101350 METAR COR EGLL 101350Z 29009KT 9999 BKN032 09/06 Q1011 NOSIG=
201701101320 METAR COR EGLL 101320Z AUTO 28011KT 9999 BKN021 09/06 Q1011
                        NOSIG=
201701101250 METAR COR EGLL 101250Z AUTO 28011KT 9999 BKN028 09/06 Q1011
                        NOSIG=
201701101220 METAR COR EGLL 101220Z AUTO 28010KT 9999 OVC028 08/06 Q1011
                        NOSIG=
201701101150 METAR COR EGLL 101150Z AUTO 27009KT 9999 BKN019 08/06 Q1011
                        NOSIG=
201701101120 METAR COR EGLL 101120Z AUTO 28009KT 9999 FEW020 BKN037 08/06
                        Q1011 NOSIG=
201701101050 METAR COR EGLL 101050Z AUTO 28008KT 9999 BKN033 08/06 Q1011
                        NOSIG=
201701101020 METAR COR EGLL 101020Z AUTO 29009KT 9999 FEW033 07/05 Q1011
                        NOSIG=
201701100950 METAR COR EGLL 100950Z AUTO 27009KT 9999 SCT030 06/05 Q1011
                        NOSIG=
201701100920 METAR COR EGLL 100920Z AUTO 27010KT 9999 SCT031 06/05 Q1011
                        NOSIG=
201701100850 METAR COR EGLL 100850Z AUTO 26009KT 9999 BKN034 06/05 Q1011
                        NOSIG=
201701100820 METAR COR EGLL 100820Z AUTO 26010KT 9999 OVC035 06/04 Q1010
                        NOSIG=
201701100750 METAR COR EGLL 100750Z AUTO 27008KT 9999 OVC036 05/04 Q1010
                        NOSIG=
201701100720 METAR COR EGLL 100720Z AUTO 26008KT 9999 BKN039 05/04 Q1010
                        NOSIG=
201701100650 METAR COR EGLL 100650Z AUTO 26007KT 9999 OVC037 05/04 Q1010
                        NOSIG=
201701100620 METAR COR EGLL 100620Z AUTO 25009KT 9999 BKN039 05/04 Q1009
                        NOSIG=
201701100550 METAR COR EGLL 100550Z AUTO 25008KT 9999 BKN042 05/04 Q1009
                        NOSIG=
201701100520 METAR COR EGLL 100520Z AUTO 26006KT 9999 FEW044 04/04 Q1009
                        NOSIG=
201701100450 METAR COR EGLL 100450Z AUTO 27008KT 9999 OVC043 04/04 Q1010
                        NOSIG=
201701100420 METAR COR EGLL 100420Z AUTO 27008KT 9999 SCT043 04/04 Q1010
                        NOSIG=
201701100350 METAR COR EGLL 100350Z AUTO 26008KT 9999 NCD 05/04 Q1010
                        NOSIG=
201701100320 METAR COR EGLL 100320Z AUTO 25008KT 9999 NCD 04/04 Q1010
                        NOSIG=
201701100250 METAR COR EGLL 100250Z AUTO 27006KT 9999 NCD 04/04 Q1010
                        NOSIG=
201701100220 METAR COR EGLL 100220Z AUTO 26008KT 9999 NCD 04/04 Q1010
                        NOSIG=
201701100150 METAR COR EGLL 100150Z AUTO 27008KT 9999 NCD 03/03 Q1010
                        NOSIG=
201701100120 METAR COR EGLL 100120Z AUTO 26008KT 9999 NCD 04/03 Q1010
                        NOSIG=
201701100050 METAR COR EGLL 100050Z AUTO 25008KT 9999 NCD 04/04 Q1010
                        NOSIG=
201701100020 METAR COR EGLL 100020Z AUTO 26007KT 9999 NCD 04/04 Q1011
                        NOSIG=
201701092350 METAR COR EGLL 092350Z AUTO 25010KT 9999 NCD 04/04 Q1011
                        NOSIG=
201701092320 METAR COR EGLL 092320Z AUTO 25009KT 9999 NCD 04/04 Q1011
                        NOSIG=
201701092250 METAR COR EGLL 092250Z AUTO 25011KT 9999 NCD 05/04 Q1011
                        NOSIG=
201701092220 METAR COR EGLL 092220Z AUTO 26011KT 9999 NCD 05/04 Q1011
                        NOSIG=
201701092150 METAR COR EGLL 092150Z AUTO 25009KT 9999 NCD 05/04 Q1011
                        NOSIG=
201701092120 METAR COR EGLL 092120Z AUTO 26009KT 9999 NCD 05/04 Q1012
                        NOSIG=
201701092050 METAR COR EGLL 092050Z AUTO 27012KT 9999 FEW030 05/04 Q1012
                        NOSIG=
201701092020 METAR COR EGLL 092020Z AUTO 27009KT 9999 NCD 05/04 Q1012
                        NOSIG=
201701091950 METAR COR EGLL 091950Z AUTO 28008KT 9999 NCD 05/04 Q1012
                        NOSIG=
201701091920 METAR COR EGLL 091920Z AUTO 28008KT 9999 NCD 05/05 Q1012
                        NOSIG=
201701091850 METAR COR EGLL 091850Z AUTO 29008KT 9999 NCD 07/05 Q1012
                        NOSIG=
201701091820 METAR COR EGLL 091820Z AUTO 30009KT 9999 FEW030/// SCT044///
                        //////TCU 07/06 Q1012 NOSIG=
201701091750 METAR COR EGLL 091750Z 29012KT 9999 -RA FEW006TCU SCT016
                        BKN029 08/07 Q1011 NOSIG=
201701091720 METAR COR EGLL 091720Z 23011KT 8000 -RA SCT008 SCT011 BKN017
                        10/10 Q1011 NOSIG=
201701091650 METAR COR EGLL 091650Z 22013KT 9000 -RA SCT010 BKN016 10/09
                        Q1011 TEMPO BKN012=
201701091620 METAR COR EGLL 091620Z 22014KT 9999 -RA FEW010 BKN014 10/09
                        Q1012 TEMPO BKN009=
201701091550 METAR COR EGLL 091550Z 22013KT 9999 FEW010 BKN014 10/09 Q1012
                        TEMPO RA BKN015=
201701091520 METAR COR EGLL 091520Z AUTO 22015KT 9000 -RA BKN012 OVC024
                        10/09 Q1013 TEMPO RA BKN015=
201701091450 METAR COR EGLL 091450Z AUTO 22012KT 9999 -RA BKN011 OVC026
                        09/09 Q1014 TEMPO RA BKN015=
201701091420 METAR COR EGLL 091420Z AUTO 21012KT 9999 -RA BKN010 OVC045
                        09/09 Q1015 TEMPO RA BKN008=
201701091350 METAR COR EGLL 091350Z AUTO 20013KT 9999 -RA SCT013 OVC044
                        09/09 Q1015 TEMPO RA BKN014=
201701091320 METAR COR EGLL 091320Z AUTO 21013KT 9999 -RA FEW014 BKN030
                        OVC046 09/08 Q1016 TEMPO RA BKN014=
201701091250 METAR COR EGLL 091250Z AUTO 21011KT 9999 -RA FEW033 OVC040
                        09/08 Q1017 TEMPO RA BKN014=
201701091220 METAR COR EGLL 091220Z AUTO 22010KT 9999 -RA FEW026 BKN034
                        09/08 Q1018 TEMPO RA BKN014=
201701091150 METAR COR EGLL 091150Z AUTO 23014KT 9999 -RA FEW017 OVC048
                        09/08 Q1019 TEMPO RA BKN014=
201701091120 METAR COR EGLL 091120Z 23013KT 9999 -RA SCT016 10/08 Q1020
                        TEMPO RA BKN014=
201701091050 METAR COR EGLL 091050Z AUTO 24014KT 9999 BKN017 10/08 Q1021
                        TEMPO RA BKN014=
201701091020 METAR COR EGLL 091020Z AUTO 23012KT 9999 BKN019 10/08 Q1021
                        TEMPO RA BKN014=
201701090950 METAR COR EGLL 090950Z AUTO 23011KT 9999 SCT019 09/08 Q1022
                        NOSIG=
201701090920 METAR COR EGLL 090920Z AUTO 22008KT 9999 SCT015 BKN027 09/09
                        Q1022 NOSIG=
201701090850 METAR COR EGLL 090850Z AUTO 22008KT 9999 BKN023 09/09 Q1022
                        NOSIG=
201701090820 METAR COR EGLL 090820Z AUTO 21009KT 9999 OVC022 08/08 Q1022
                        NOSIG=
201701090750 METAR COR EGLL 090750Z AUTO 22008KT 8000 SCT008 OVC020 08/08
                        Q1023 NOSIG=
201701090720 METAR COR EGLL 090720Z AUTO 22008KT 9000 BKN008 OVC023 08/08
                        Q1023 TEMPO BKN012=
201701090650 METAR COR EGLL 090650Z AUTO 21008KT 8000 SCT010 BKN018 08/08
                        Q1024 NOSIG=
201701090620 METAR COR EGLL 090620Z AUTO 20008KT 170V250 5000 BR FEW003
                        OVC031 08/08 Q1024 NOSIG=
201701090550 METAR EGLL 090550Z AUTO 19006KT 4000 BR BKN002 BKN024 08/08
                        Q1024 REDZ=
201701090520 METAR COR EGLL 090520Z AUTO 21005KT 2700 DZ SCT004 BKN012
                        08/08 Q1025 TEMPO BKN005=
201701090450 METAR COR EGLL 090450Z AUTO 21007KT 3500 -RA SCT005 BKN013
                        OVC023 08/08 Q1026 TEMPO BKN005=
201701090420 METAR COR EGLL 090420Z AUTO 21005KT 2900 BR FEW004 BKN012
                        08/08 Q1026 TEMPO BKN005=
201701090350 METAR COR EGLL 090350Z AUTO 22005KT 2500 BR SCT003 BKN016
                        08/08 Q1026 TEMPO BKN005=
201701090320 METAR COR EGLL 090320Z AUTO 23006KT 2300 BR BKN002 OVC023
                        08/08 Q1027 TEMPO SCT002 BKN005=
201701090250 METAR COR EGLL 090250Z AUTO 23004KT 200V270 3000 BR OVC003
                        08/08 Q1027 TEMPO SCT003 BKN005=
201701090220 METAR COR EGLL 090220Z AUTO 24005KT 3300 BR OVC001 08/08
                        Q1027 TEMPO FEW001=
201701090150 METAR COR EGLL 090150Z AUTO 20004KT 2400 BR BKN001 OVC041
                        08/08 Q1028 TEMPO SCT001=
201701090120 METAR COR EGLL 090120Z AUTO 23004KT 2500 BR BKN001 08/08
                        Q1028 TEMPO 0900 FG=
201701090050 METAR COR EGLL 090050Z 20005KT 180V240 0900 R27L/P1500 FG
                        BKN001 BKN002 08/08 Q1028 TEMPO 2000
                        BR=
201701090020 METAR COR EGLL 090020Z 19005KT 2000 0900S R27L/P1500 BCFG
                        BR BKN001 BKN005 08/08 Q1029 TEMPO
                        0900 FG=
201701082350 METAR COR EGLL 082350Z 19005KT 2000 0900SW R27L/P1500 BCFG
                        BR BKN001 08/08 Q1029 TEMPO 0900
                        FG=
201701082320 METAR COR EGLL 082320Z 20004KT 2500 1200SE R27R/P1500 R27L/P1500
                        BCFG BR SCT001 BKN002 BKN005 09/09
                        Q1029 TEMPO 0900 FG BKN001=
201701082250 METAR COR EGLL 082250Z 23005KT 2500 0900S R27R/P1500 R27L/P1500
                        BCFG SCT001 BKN002 BKN007 09/09 Q1030
                        TEMPO 1200=
201701082220 METAR COR EGLL 082220Z 23004KT 190V270 2500 0900SW R27R/P1500
                        R27L/P1500 BCFG SCT001 SCT003 OVC048
                        09/09 Q1030 TEMPO BKN002=
201701082150 METAR COR EGLL 082150Z VRB03KT 4500 1500S BR FEW005 SCT009
                        BKN044 09/09 Q1030 TEMPO 1400 BKN003=
201701082120 METAR COR EGLL 082120Z 26004KT 220V290 2400 BR FEW005 SCT008
                        09/09 Q1031 TEMPO BKN005=
201701082050 METAR COR EGLL 082050Z 23005KT 1200 0500N R27R/P1500 R27L/1100
                        BR BCFG SCT001 BKN002 09/09 Q1031
                        TEMPO 2000 BKN005=
201701082020 METAR COR EGLL 082020Z 19004KT 140V260 1300 R27R/P1500 R27L/P1500
                        BR FEW001 SCT002 BKN003 09/09 Q1031
                        TEMPO BKN001=
201701081950 METAR COR EGLL 081950Z 18004KT 150V230 2300 BR FEW002 SCT003
                        BKN004 09/09 Q1031 TEMPO 1400 BKN002=
201701081920 METAR COR EGLL 081920Z 12006KT 2800 BR FEW003 BKN004 09/09
                        Q1031 NOSIG=
201701081850 METAR COR EGLL 081850Z 13004KT 110V180 2800 BR FEW003 BKN004
                        09/09 Q1031 TEMPO SCT004 BKN005=
201701081820 METAR COR EGLL 081820Z 13004KT 110V170 2800 BR BKN005 09/09
                        Q1031 TEMPO BKN004=
201701081750 METAR COR EGLL 081750Z 06002KT 3600 BR BKN005 09/09 Q1031
                        TEMPO 5000 SCT005 BKN010=
201701081720 METAR COR EGLL 081720Z VRB02KT 3400 BR SCT004 BKN006 09/09
                        Q1031 TEMPO 5000=
201701081650 METAR COR EGLL 081650Z VRB02KT 3300 BR SCT005 BKN006 09/09
                        Q1031 TEMPO 6000 SCT006 BKN010=
201701081620 METAR COR EGLL 081620Z VRB03KT 2900 -DZ BR SCT004 BKN006
                        09/09 Q1031 TEMPO 5000 SCT006 BKN010=
201701081550 METAR COR EGLL 081550Z VRB02KT 2100 -DZ BR SCT003 BKN006
                        09/09 Q1031 REDZ TEMPO 5000 SCT006
                        BKN010=
201701081520 METAR COR EGLL 081520Z VRB02KT 2600 -RADZ SCT003 BKN006 09/09
                        Q1032 NOSIG=
201701081450 METAR COR EGLL 081450Z VRB02KT 2700 -RADZ FEW003 SCT006 BKN008
                        09/09 Q1032 BECMG 5000=
201701081420 METAR COR EGLL 081420Z VRB02KT 2700 -RADZ FEW004 SCT008 BKN015
                        09/09 Q1032 BECMG 5000=
201701081350 METAR COR EGLL 081350Z VRB02KT 5000 -RADZ FEW002 SCT005 BKN008
                        09/09 Q1032 TEMPO SCT008 BKN012=
201701081320 METAR COR EGLL 081320Z VRB02KT 3300 -RADZ FEW002 SCT007 BKN033
                        09/09 Q1032 TEMPO 6000 BKN009=
201701081250 METAR COR EGLL 081250Z VRB03KT 3200 -RADZ SCT004 BKN016 09/09
                        Q1032 TEMPO 6000 BKN009=
201701081220 METAR COR EGLL 081220Z 20005KT 170V270 9999 FEW008 BKN015
                        09/09 Q1032 NOSIG=
201701081150 METAR COR EGLL 081150Z 22005KT 180V260 8000 SCT008 BKN013
                        09/09 Q1033 TEMPO SCT010=
201701081120 METAR COR EGLL 081120Z 03002KT 5000 BR FEW002 SCT004 BKN007
                        09/09 Q1033 BECMG SCT007 BKN012=
201701081050 METAR COR EGLL 081050Z VRB03KT 3400 -DZ BR FEW002 BKN006
                        09/09 Q1033 BECMG SCT006 BKN010=
201701081020 METAR COR EGLL 081020Z VRB03KT 3000 -DZ BR FEW001 SCT004
                        BKN008 09/09 Q1033 TEMPO 5000 SCT008=
201701080950 METAR COR EGLL 080950Z 03003KT 4700 2200N BR FEW006 BKN016
                        09/09 Q1033 TEMPO 5000 HZ=
201701080920 METAR COR EGLL 080920Z 36002KT 4600 2200N BR FEW007 BKN019
                        09/09 Q1033 NOSIG=
201701080850 METAR COR EGLL 080850Z 35002KT 4300 -RA FEW007 BKN019 08/08
                        Q1033 NOSIG=
201701080820 METAR COR EGLL 080820Z VRB01KT 4300 -RA BKN019 08/08 Q1033
                        TEMPO 6000=
201701080750 METAR COR EGLL 080750Z VRB01KT 4500 BR BKN020 08/08 Q1032
                        TEMPO 6000=
201701080720 METAR COR EGLL 080720Z VRB01KT 5000 BR BKN022 08/08 Q1032
                        TEMPO 4500=
201701080650 METAR COR EGLL 080650Z 18004KT 150V230 6000 BKN023 08/08
                        Q1032 TEMPO 4000 BR=
201701080620 METAR COR EGLL 080620Z VRB02KT 6000 OVC023 08/08 Q1032 TEMPO
                        4000 BR=
201701080550 METAR COR EGLL 080550Z 12001KT 6000 OVC024 09/09 Q1032 TEMPO
                        4000 BR=
201701080520 METAR COR EGLL 080520Z 26001KT 7000 BKN025 08/08 Q1032 TEMPO
                        4000 -RA=
201701080450 METAR COR EGLL 080450Z 28001KT 7000 OVC026 08/08 Q1032 TEMPO
                        4000 BR=
201701080420 METAR COR EGLL 080420Z 26002KT 7000 OVC026 08/08 Q1032 TEMPO
                        4000 BR=
201701080350 METAR COR EGLL 080350Z 30001KT 9000 BKN027 08/08 Q1032 NOSIG=
201701080320 METAR COR EGLL 080320Z 27001KT 9000 BKN027 08/08 Q1032 NOSIG=
201701080250 METAR COR EGLL 080250Z AUTO VRB03KT 5000 BR OVC029 08/08
                        Q1032 TEMPO 4000=
201701080220 METAR EGLL 080220Z AUTO 28003KT 4900 BR OVC029 08/08 Q1032=
201701080150 METAR COR EGLL 080150Z AUTO 27003KT 5000 BR OVC030 08/08
                        Q1032 BECMG 4000 BR=
201701080120 METAR COR EGLL 080120Z AUTO 31003KT 5000 BR OVC030 09/09
                        Q1032 TEMPO 4000=
201701080050 METAR COR EGLL 080050Z AUTO 29004KT 4900 BR OVC030 09/09
                        Q1032 TEMPO 6000 NSW=
201701080020 METAR COR EGLL 080020Z AUTO 28004KT 6000 OVC030 09/09 Q1032
                        BECMG 4000 BR=
201701072350 METAR COR EGLL 072350Z 27005KT 7000 OVC031 09/09 Q1032 BECMG
                        4000 BR=
201701072320 METAR COR EGLL 072320Z 28003KT 7000 OVC031 10/10 Q1033 NOSIG=
201701072250 METAR COR EGLL 072250Z 27005KT 7000 OVC030 10/10 Q1033 TEMPO
                        4000 BR=
201701072220 METAR COR EGLL 072220Z 27003KT 7000 OVC032 10/10 Q1033 TEMPO
                        4000 BR=
201701072150 METAR COR EGLL 072150Z 29003KT 6000 OVC032 10/10 Q1033 TEMPO
                        4000 BR=
201701072120 METAR COR EGLL 072120Z AUTO 28005KT 5000 BR OVC031 10/10
                        Q1033 BECMG 4000=
201701072050 METAR COR EGLL 072050Z AUTO 27005KT 7000 OVC032 10/10 Q1033
                        NOSIG=
201701072020 METAR COR EGLL 072020Z AUTO 28005KT 9999 OVC030 10/10 Q1032
                        NOSIG=
201701071950 METAR COR EGLL 071950Z AUTO 27003KT 9999 OVC029 11/09 Q1032
                        NOSIG=
201701071920 METAR COR EGLL 071920Z AUTO VRB02KT 9999 OVC026 11/10 Q1032
                        NOSIG=
201701071850 METAR COR EGLL 071850Z AUTO VRB01KT 8000 OVC026 11/10 Q1032
                        NOSIG=
201701071820 METAR COR EGLL 071820Z AUTO VRB02KT 9999 OVC020 11/10 Q1032
                        NOSIG=
201701071750 METAR COR EGLL 071750Z 30003KT 9999 FEW021 BKN026 11/10 Q1032
                        NOSIG=
201701071720 METAR COR EGLL 071720Z 30004KT 9999 FEW009 BKN027 11/10 Q1032
                        TEMPO BKN012=
201701071650 METAR COR EGLL 071650Z VRB02KT 9999 FEW014 BKN025 11/10 Q1032
                        NOSIG=
201701071620 METAR COR EGLL 071620Z 31002KT 9999 BKN013 BKN024 11/10 Q1032
                        TEMPO SCT012=
201701071550 METAR COR EGLL 071550Z 31003KT 9999 FEW011 BKN024 11/10 Q1032
                        NOSIG=
201701071520 METAR COR EGLL 071520Z AUTO 29003KT 9999 FEW009 OVC020 11/10
                        Q1032 NOSIG=
201701071450 METAR COR EGLL 071450Z AUTO 30003KT 9999 OVC021 11/10 Q1031
                        NOSIG=
201701071420 METAR COR EGLL 071420Z 32004KT 290V360 9999 FEW009 BKN025
                        11/10 Q1031 NOSIG=
201701071350 METAR COR EGLL 071350Z 31004KT 9999 SCT008 BKN021 11/10 Q1031
                        TEMPO BKN008=
201701071320 METAR COR EGLL 071320Z 31005KT 280V340 6000 FEW005 SCT008
                        BKN012 11/11 Q1031 NOSIG=
201701071250 METAR COR EGLL 071250Z 29004KT 8000 SCT006 BKN012 11/11 Q1031
                        NOSIG=
201701071220 METAR COR EGLL 071220Z 29005KT 8000 SCT006 BKN014 11/11 Q1032
                        NOSIG=
201701071150 METAR COR EGLL 071150Z 29006KT 6000 BKN006 11/11 Q1032 TEMPO
                        BKN012=
201701071120 METAR COR EGLL 071120Z 28007KT 4200 BR BKN006 10/10 Q1032
                        TEMPO 5000 SCT006 BKN025=
201701071050 METAR COR EGLL 071050Z 27008KT 4500 BR FEW002 BKN023 10/10
                        Q1032 TEMPO BKN005=
201701071020 METAR COR EGLL 071020Z 28007KT 3800 BR SCT005 BKN025 10/10
                        Q1032 TEMPO BKN005=
201701070950 METAR COR EGLL 070950Z 30003KT 3600 BR SCT004 SCT005 09/09
                        Q1032 TEMPO BKN005=
201701070920 METAR COR EGLL 070920Z 29004KT 3300 BR FEW003 SCT004 BKN005
                        09/09 Q1032 NOSIG=
201701070850 METAR COR EGLL 070850Z 28004KT 2700 BR FEW002 SCT004 BKN005
                        08/08 Q1032 TEMPO BKN004=
201701070820 METAR COR EGLL 070820Z 28006KT 2700 BR FEW003 SCT004 BKN006
                        08/08 Q1031 TEMPO BKN003=
201701070750 METAR COR EGLL 070750Z 28006KT 2700 BR FEW002 SCT004 BKN006
                        08/08 Q1031 TEMPO BKN002=
201701070720 METAR COR EGLL 070720Z 27004KT 2900 BR BKN003 08/08 Q1031
                        TEMPO BKN002=
201701070650 METAR COR EGLL 070650Z 27005KT 3500 BR SCT003 BKN004 08/08
                        Q1031 TEMPO 2500 BKN002=
201701070620 METAR COR EGLL 070620Z 27005KT 3500 -DZ BR FEW003 BKN004
                        08/08 Q1031 TEMPO 2500 BKN002=
201701070550 METAR COR EGLL 070550Z 26003KT 3500 -RADZ BR FEW002 BKN005
                        08/08 Q1031 TEMPO 2500 BKN002=
201701070520 METAR COR EGLL 070520Z 27004KT 2500 -RADZ BR FEW003 SCT004
                        BKN006 08/08 Q1031 TEMPO BKN002=
201701070450 METAR COR EGLL 070450Z 25004KT 3000 -RADZ BR FEW002 SCT004
                        BKN006 07/07 Q1031 TEMPO BKN004=
201701070420 METAR COR EGLL 070420Z 23003KT 2000 -RADZ BR FEW002 SCT004
                        BKN006 07/07 Q1031 TEMPO 4000 BR
                        BKN004=
201701070350 METAR COR EGLL 070350Z 22003KT 3000 -RADZ BR FEW002 SCT004
                        BKN006 07/07 Q1031 TEMPO BKN004=
201701070320 METAR COR EGLL 070320Z 22004KT 2200 -RADZ BR SCT001 BKN006
                        07/07 Q1031 REDZ TEMPO 3000 BR=
201701070250 METAR COR EGLL 070250Z AUTO 22005KT 2200 DZ BKN001 07/07
                        Q1031 BECMG 3000 -DZ BKN003=
201701070220 METAR COR EGLL 070220Z AUTO 22004KT 2000 DZ OVC002 07/07
                        Q1032 RERA TEMPO 3500 -DZ=
201701070150 METAR COR EGLL 070150Z AUTO 22005KT 3900 RA BKN002/// //////TCU
                        07/07 Q1032 NOSIG=
201701070120 METAR COR EGLL 070120Z AUTO 23008KT 5000 -RADZ OVC002 06/06
                        Q1032 RERA REDZ TEMPO 3000=
201701070050 METAR COR EGLL 070050Z AUTO 23007KT 3500 -RA OVC002 06/06
                        Q1032 TEMPO 6000 NSW BKN005=
201701070020 METAR COR EGLL 070020Z AUTO 23007KT 3100 -RA OVC002 06/06
                        Q1032 RERA REDZ TEMPO 6000 NSW BKN005=
201701062350 METAR COR EGLL 062350Z 21007KT 3000 RADZ FEW002 BKN004 06/06
                        Q1032 RERA REDZ TEMPO BKN005=
201701062320 METAR COR EGLL 062320Z 21008KT 3500 RADZ FEW003 BKN005 06/06
                        Q1033 TEMPO BKN004=
201701062250 METAR COR EGLL 062250Z 21007KT 4500 -RADZ BKN004 06/06 Q1033
                        TEMPO 5000 -DZ SCT004 BKN006=
201701062220 METAR COR EGLL 062220Z 21007KT 5000 -RADZ FEW003 BKN004 05/05
                        Q1033 TEMPO 3500=
201701062150 METAR COR EGLL 062150Z 21008KT 4800 -RA BKN005 05/05 Q1033
                        TEMPO BKN004=
201701062120 METAR COR EGLL 062120Z 21009KT 4300 -RA BKN005 05/05 Q1033
                        TEMPO BKN004=
201701062050 METAR COR EGLL 062050Z 21007KT 180V250 4500 -RA BKN005 05/05
                        Q1034 TEMPO BKN004=
201701062020 METAR COR EGLL 062020Z AUTO 21007KT 180V240 7000 -RA BKN005
                        OVC022 05/05 Q1034 TEMPO 4000 -DZ=
201701061950 METAR COR EGLL 061950Z AUTO 21009KT 9000 -RA FEW005 OVC022
                        05/05 Q1034 BECMG BKN007=
201701061920 METAR COR EGLL 061920Z AUTO 21009KT 9999 -RA FEW005 BKN026
                        05/05 Q1034 TEMPO BKN007=
201701061850 METAR COR EGLL 061850Z AUTO 21008KT 8000 -RA FEW007 BKN028
                        OVC042 05/05 Q1034 TEMPO RA BKN007=
201701061820 METAR COR EGLL 061820Z AUTO 20008KT 170V230 8000 -RA FEW008
                        BKN034 05/05 Q1034 NOSIG=
201701061750 METAR COR EGLL 061750Z AUTO 19007KT 170V240 8000 -RA OVC034
                        05/05 Q1035 NOSIG=
201701061720 METAR COR EGLL 061720Z AUTO 19007KT 9000 -RA OVC037 05/04
                        Q1035 NOSIG=
201701061650 METAR COR EGLL 061650Z AUTO 21007KT 8000 -RA BKN030/// OVC045///
                        //////TCU 05/03 Q1035 NOSIG=
201701061620 METAR COR EGLL 061620Z AUTO 21006KT 9999 -RA BKN026 05/03
                        Q1035 NOSIG=
201701061550 METAR COR EGLL 061550Z AUTO 21007KT 9999 -RA BKN027 OVC042
                        05/03 Q1035 TEMPO RA=
201701061520 METAR COR EGLL 061520Z AUTO 21009KT 170V240 9999 -RA OVC027///
                        //////TCU 06/02 Q1035 TEMPO RA=
201701061450 METAR COR EGLL 061450Z AUTO 20008KT 170V240 9999 -RA OVC031
                        06/02 Q1035 TEMPO RA=
201701061420 METAR COR EGLL 061420Z AUTO 21008KT 160V250 9999 BKN032 06/01
                        Q1035 NOSIG=
201701061350 METAR COR EGLL 061350Z AUTO 21009KT 9999 SCT036 07/01 Q1035
                        NOSIG=
201701061320 METAR COR EGLL 061320Z AUTO 21009KT 180V250 9999 SCT037 06/02
                        Q1035 NOSIG=
201701061250 METAR COR EGLL 061250Z AUTO 20008KT 140V250 9999 BKN037 06/02
                        Q1036 NOSIG=
201701061220 METAR COR EGLL 061220Z AUTO 20008KT 160V240 9999 NCD 06/02
                        Q1036 NOSIG=
201701061150 METAR COR EGLL 061150Z AUTO 20006KT 150V250 9999 NCD 05/03
                        Q1036 NOSIG=
201701061120 METAR COR EGLL 061120Z AUTO 19005KT 150V240 9000 NCD 04/03
                        Q1037 NOSIG=
201701061050 METAR COR EGLL 061050Z AUTO 21006KT 150V250 9000 NCD 03/02
                        Q1037 NOSIG=
201701061020 METAR COR EGLL 061020Z AUTO 20005KT 140V260 8000 BKN041 02/02
                        Q1037 NOSIG=
201701060950 METAR COR EGLL 060950Z AUTO 22004KT 160V270 8000 OVC037 01/01
                        Q1037 NOSIG=
201701060920 METAR COR EGLL 060920Z AUTO 20004KT 140V250 9000 OVC040 01/01
                        Q1037 NOSIG=
201701060850 METAR COR EGLL 060850Z AUTO VRB03KT 8000 OVC039 01/01 Q1037
                        NOSIG=
201701060820 METAR COR EGLL 060820Z AUTO VRB03KT 7000 OVC039 00/00 Q1037
                        NOSIG=
201701060750 METAR COR EGLL 060750Z AUTO VRB02KT 7000 OVC041 M00/M00 Q1037
                        NOSIG=
201701060720 METAR COR EGLL 060720Z AUTO VRB03KT 6000 OVC042 M01/M01 Q1037
                        NOSIG=
201701060650 METAR COR EGLL 060650Z AUTO VRB02KT 5000 BR OVC042 M01/M01
                        Q1037 TEMPO 4000=
201701060620 METAR COR EGLL 060620Z VRB02KT 6000 BKN040 M01/M01 Q1037
                        NOSIG=
201701060550 METAR COR EGLL 060550Z 13001KT 5000 BR BKN042 M01/M01 Q1037
                        TEMPO 4000=
201701060520 METAR COR EGLL 060520Z 10001KT 5000 BR BKN039 M01/M01 Q1037
                        TEMPO 4000=
201701060450 METAR COR EGLL 060450Z VRB01KT 4400 BR BKN037 M02/M02 Q1037
                        TEMPO 5000=
201701060420 METAR COR EGLL 060420Z VRB01KT 4500 BR BKN038 M02/M02 Q1037
                        NOSIG=
201701060350 METAR COR EGLL 060350Z 00000KT 2500 BR NSC M02/M02 Q1037
                        NOSIG=
201701060320 METAR COR EGLL 060320Z AUTO VRB01KT 1200 BR NCD M02/M02 Q1037
                        TEMPO 2000=
201701060250 METAR COR EGLL 060250Z AUTO 13001KT 3600 BR NCD M02/M02 Q1037
                        NOSIG=
201701060220 METAR COR EGLL 060220Z AUTO 11001KT 3600 BR NCD M02/M02 Q1037
                        NOSIG=
201701060150 METAR COR EGLL 060150Z AUTO 00000KT 3400 BR NCD M02/M02 Q1037
                        NOSIG=
201701060120 METAR COR EGLL 060120Z AUTO VRB02KT 2500 BR NCD M02/M02 Q1037
                        NOSIG=
201701060050 METAR COR EGLL 060050Z AUTO 09003KT 2800 BR NCD M02/M02 Q1037
                        NOSIG=
201701060020 METAR COR EGLL 060020Z AUTO VRB01KT 3600 BR NCD M01/M01 Q1037
                        NOSIG=
201701052350 METAR COR EGLL 052350Z AUTO 11002KT 4400 BR NCD M01/M01 Q1037
                        NOSIG=
201701052320 METAR COR EGLL 052320Z AUTO 11001KT 4200 BR NCD M01/M01 Q1037
                        TEMPO 5000=
201701052250 METAR COR EGLL 052250Z AUTO VRB01KT 5000 BR NCD M01/M01 Q1037
                        TEMPO 4000=
201701052220 METAR COR EGLL 052220Z AUTO VRB01KT 3100 BR NCD 01/00 Q1037
                        TEMPO 5000=
201701052150 METAR COR EGLL 052150Z AUTO VRB02KT 5000 BR NCD 00/M00 Q1037
                        TEMPO 4000=
201701052120 METAR COR EGLL 052120Z AUTO 04001KT 7000 NCD 01/M00 Q1037
                        NOSIG=
201701052050 METAR COR EGLL 052050Z AUTO 01001KT 7000 NCD 01/00 Q1037
                        NOSIG=
201701052020 METAR COR EGLL 052020Z AUTO VRB01KT 6000 NCD 01/M00 Q1037
                        NOSIG=
201701051950 METAR COR EGLL 051950Z AUTO 19003KT 7000 NCD 01/M00 Q1036
                        NOSIG=
201701051920 METAR COR EGLL 051920Z AUTO 15004KT 6000 NCD 01/M01 Q1036
                        NOSIG=
201701051850 METAR COR EGLL 051850Z AUTO 06001KT 8000 NCD 02/M00 Q1036
                        NOSIG=
201701051820 METAR COR EGLL 051820Z AUTO 00000KT 9999 NCD 02/M00 Q1036
                        NOSIG=
201701051750 METAR COR EGLL 051750Z AUTO VRB01KT 9000 NCD 03/M00 Q1036
                        NOSIG=
201701051720 METAR COR EGLL 051720Z AUTO 31002KT 8000 NCD 03/M01 Q1036
                        NOSIG=
201701051650 METAR COR EGLL 051650Z AUTO 29003KT 9000 NCD 03/M01 Q1036
                        NOSIG=
201701051620 METAR COR EGLL 051620Z AUTO 29003KT 9999 NCD 04/M00 Q1035
                        NOSIG=
201701051550 METAR COR EGLL 051550Z AUTO 27003KT 9999 NCD 04/M00 Q1035
                        NOSIG=
201701051520 METAR COR EGLL 051520Z AUTO VRB03KT 9999 NCD 05/00 Q1035
                        NOSIG=
201701051450 METAR COR EGLL 051450Z AUTO 24005KT 210V280 9999 NCD 05/00
                        Q1034 NOSIG=
201701051420 METAR COR EGLL 051420Z AUTO VRB01KT 9999 NCD 07/M00 Q1034
                        NOSIG=
201701051350 METAR COR EGLL 051350Z AUTO VRB01KT 9999 NCD 06/00 Q1034
                        NOSIG=
201701051320 METAR COR EGLL 051320Z AUTO 35001KT 9999 NCD 05/M00 Q1034
                        NOSIG=
201701051250 METAR COR EGLL 051250Z AUTO VRB01KT 9999 NCD 06/M00 Q1035
                        NOSIG=
201701051220 METAR COR EGLL 051220Z AUTO VRB02KT 9999 NCD 05/M00 Q1035
                        NOSIG=
201701051150 METAR COR EGLL 051150Z AUTO VRB03KT 9999 NCD 03/M01 Q1035
                        NOSIG=
201701051120 METAR COR EGLL 051120Z AUTO VRB02KT 9999 NCD 03/M01 Q1035
                        NOSIG=
201701051050 METAR COR EGLL 051050Z AUTO 28004KT 9999 NCD 02/M01 Q1035
                        NOSIG=
201701051020 METAR COR EGLL 051020Z AUTO VRB03KT 9999 NCD 02/M02 Q1035
                        NOSIG=
201701050950 METAR COR EGLL 050950Z AUTO 28003KT 9999 NCD 01/M02 Q1034
                        NOSIG=
201701050920 METAR COR EGLL 050920Z AUTO 27003KT 9999 NCD 01/M02 Q1034
                        NOSIG=
201701050850 METAR COR EGLL 050850Z AUTO 30003KT 9999 NCD 01/M02 Q1034
                        NOSIG=
201701050820 METAR COR EGLL 050820Z AUTO 28003KT 9999 NCD 00/M02 Q1034
                        NOSIG=
201701050750 METAR COR EGLL 050750Z AUTO 31002KT 9999 NCD 00/M02 Q1033
                        NOSIG=
201701050720 METAR COR EGLL 050720Z AUTO 27003KT 9999 NCD M01/M03 Q1033
                        NOSIG=
201701050650 METAR COR EGLL 050650Z AUTO 28002KT 9999 NCD M01/M03 Q1033
                        NOSIG=
201701050620 METAR COR EGLL 050620Z AUTO VRB01KT 9999 NCD M01/M03 Q1033
                        NOSIG=
201701050550 METAR COR EGLL 050550Z AUTO VRB01KT 9999 NCD 00/M03 Q1032
                        NOSIG=
201701050520 METAR COR EGLL 050520Z AUTO VRB03KT 9999 NCD 00/M03 Q1032
                        NOSIG=
201701050450 METAR COR EGLL 050450Z AUTO 29001KT 9999 NCD 00/M03 Q1032
                        NOSIG=
201701050420 METAR COR EGLL 050420Z AUTO VRB01KT 9999 NCD M01/M03 Q1032
                        NOSIG=
201701050350 METAR COR EGLL 050350Z AUTO VRB01KT 9999 NCD M00/M03 Q1032
                        NOSIG=
201701050320 METAR COR EGLL 050320Z AUTO VRB02KT 9999 NCD M00/M03 Q1032
                        NOSIG=
201701050250 METAR COR EGLL 050250Z AUTO VRB03KT 9999 NCD M00/M03 Q1031
                        NOSIG=
201701050220 METAR COR EGLL 050220Z AUTO VRB02KT 9999 NCD 00/M03 Q1031
                        NOSIG=
201701050150 METAR COR EGLL 050150Z AUTO 29003KT 9999 NCD M00/M03 Q1031
                        NOSIG=
201701050120 METAR COR EGLL 050120Z AUTO VRB02KT 9999 NCD M00/M03 Q1031
                        NOSIG=
201701050050 METAR COR EGLL 050050Z AUTO VRB02KT 9999 NCD 00/M03 Q1031
                        NOSIG=
201701050020 METAR COR EGLL 050020Z AUTO VRB02KT 9999 NCD 01/M03 Q1031
                        NOSIG=
201701042350 METAR COR EGLL 042350Z AUTO VRB02KT 9999 NCD 01/M02 Q1030
                        NOSIG=
201701042320 METAR COR EGLL 042320Z AUTO VRB03KT 9999 SCT046 01/M02 Q1030
                        NOSIG=
201701042250 METAR COR EGLL 042250Z AUTO VRB02KT 9999 FEW045 02/M02 Q1030
                        NOSIG=
201701042220 METAR COR EGLL 042220Z AUTO 30004KT 9999 NCD 02/M02 Q1030
                        NOSIG=
201701042150 METAR COR EGLL 042150Z AUTO 31004KT 9999 NCD 02/M02 Q1029
                        NOSIG=
201701042120 METAR COR EGLL 042120Z AUTO 32004KT 9999 NCD 02/M02 Q1029
                        NOSIG=
201701042050 METAR COR EGLL 042050Z AUTO 31004KT 9999 NCD 02/M02 Q1029
                        NOSIG=
201701042020 METAR COR EGLL 042020Z AUTO 30003KT 9999 NCD 03/M02 Q1029
                        NOSIG=
201701041950 METAR COR EGLL 041950Z AUTO 30003KT 9999 NCD 03/M02 Q1029
                        NOSIG=
201701041920 METAR COR EGLL 041920Z AUTO 35003KT 9999 NCD 03/M02 Q1029
                        NOSIG=
201701041850 METAR COR EGLL 041850Z AUTO VRB03KT 9999 NCD 04/M02 Q1028
                        NOSIG=
201701041820 METAR COR EGLL 041820Z AUTO VRB02KT 9999 NCD 04/M02 Q1028
                        NOSIG=
201701041750 METAR COR EGLL 041750Z AUTO 35004KT 320V020 9999 NCD 05/M02
                        Q1028 NOSIG=
201701041720 METAR COR EGLL 041720Z AUTO VRB03KT 9999 NCD 05/M02 Q1027
                        NOSIG=
201701041650 METAR COR EGLL 041650Z AUTO 35003KT 9999 BKN049 05/M02 Q1027
                        NOSIG=
201701041620 METAR COR EGLL 041620Z AUTO 36004KT 9999 OVC042 06/M01 Q1026
                        NOSIG=
201701041550 METAR COR EGLL 041550Z AUTO 35005KT 330V030 9999 OVC049 07/M01
                        Q1026 NOSIG=
201701041520 METAR COR EGLL 041520Z AUTO 01006KT 330V040 9999 OVC039 07/M00
                        Q1026 NOSIG=
201701041450 METAR COR EGLL 041450Z AUTO 02007KT 340V050 9999 BKN035 07/M01
                        Q1025 NOSIG=
201701041420 METAR COR EGLL 041420Z AUTO 01006KT 320V040 9999 SCT033 OVC048
                        07/02 Q1025 NOSIG=
201701041350 METAR COR EGLL 041350Z AUTO 01007KT 340V050 9999 FEW032 OVC046
                        07/02 Q1025 NOSIG=
201701041320 METAR COR EGLL 041320Z AUTO 01005KT 330V050 9999 BKN023 07/02
                        Q1025 NOSIG=
201701041250 METAR COR EGLL 041250Z AUTO 03006KT 340V060 9999 SCT015 BKN023
                        OVC047 06/02 Q1025 NOSIG=
201701041220 METAR COR EGLL 041220Z AUTO 04010KT 9999 BKN015 08/05 Q1025
                        NOSIG=
201701041150 METAR COR EGLL 041150Z AUTO 32007KT 9999 BKN016 08/05 Q1025
                        NOSIG=
201701041120 METAR COR EGLL 041120Z AUTO 31007KT 9999 FEW016 08/04 Q1025
                        TEMPO BKN014=
201701041050 METAR COR EGLL 041050Z AUTO 29008KT 9999 BKN015 OVC048 07/04
                        Q1025 TEMPO BKN014=
201701041020 METAR COR EGLL 041020Z AUTO 28008KT 9999 BKN015 07/04 Q1024
                        TEMPO BKN014=
201701040950 METAR COR EGLL 040950Z AUTO 29008KT 9999 SCT017 OVC047 06/04
                        Q1024 TEMPO BKN014=
201701040920 METAR COR EGLL 040920Z AUTO 29010KT 9999 OVC045 06/03 Q1024
                        TEMPO BKN014=
201701040850 METAR COR EGLL 040850Z AUTO 29010KT 9999 OVC044 05/03 Q1024
                        TEMPO BKN014=
201701040820 METAR COR EGLL 040820Z AUTO 29011KT 9999 BKN036 05/03 Q1023
                        TEMPO BKN014=
201701040750 METAR COR EGLL 040750Z AUTO 29009KT 9999 SCT035 05/03 Q1023
                        TEMPO BKN014=
201701040720 METAR COR EGLL 040720Z AUTO 29008KT 9999 FEW016 05/02 Q1023
                        TEMPO BKN014=
201701040650 METAR COR EGLL 040650Z AUTO 29008KT 9999 SCT016 05/02 Q1023
                        TEMPO BKN014=
201701040620 METAR COR EGLL 040620Z AUTO 28007KT 9999 SCT018 04/02 Q1023
                        TEMPO BKN014=
201701040550 METAR COR EGLL 040550Z AUTO 28008KT 9999 BKN018 05/02 Q1023
                        TEMPO BKN014=
201701040520 METAR COR EGLL 040520Z AUTO 29007KT 9999 OVC019 05/02 Q1023
                        TEMPO BKN014=
201701040450 METAR COR EGLL 040450Z AUTO 28009KT 9999 OVC021 05/02 Q1023
                        NOSIG=
201701040420 METAR COR EGLL 040420Z AUTO 28010KT 9999 OVC023 05/02 Q1023
                        NOSIG=
201701040350 METAR COR EGLL 040350Z AUTO 28010KT 9999 BKN024 04/02 Q1023
                        NOSIG=
201701040320 METAR COR EGLL 040320Z AUTO 27011KT 9999 OVC024 04/02 Q1023
                        NOSIG=
201701040250 METAR COR EGLL 040250Z AUTO 27009KT 9999 OVC023 04/02 Q1024
                        NOSIG=
201701040220 METAR COR EGLL 040220Z AUTO 27008KT 9999 OVC024 04/02 Q1024
                        NOSIG=
201701040150 METAR COR EGLL 040150Z AUTO 28008KT 9999 OVC024 04/01 Q1024
                        NOSIG=
201701040120 METAR COR EGLL 040120Z AUTO 27009KT 9999 BKN024 03/01 Q1024
                        NOSIG=
201701040050 METAR COR EGLL 040050Z AUTO 26010KT 9999 BKN027 03/01 Q1024
                        NOSIG=
201701040020 METAR COR EGLL 040020Z AUTO 26009KT 9999 FEW028 03/01 Q1024
                        NOSIG=
201701032350 METAR COR EGLL 032350Z 26010KT CAVOK 03/01 Q1024 NOSIG=
201701032320 METAR COR EGLL 032320Z 26009KT 9999 FEW028 04/01 Q1024 NOSIG=
201701032250 METAR COR EGLL 032250Z AUTO 25008KT 9999 OVC023 04/01 Q1025
                        NOSIG=
201701032220 METAR COR EGLL 032220Z AUTO 27009KT 9999 OVC023 04/01 Q1025
                        NOSIG=
201701032150 METAR COR EGLL 032150Z AUTO 27008KT 9999 OVC023 04/01 Q1025
                        NOSIG=
201701032120 METAR COR EGLL 032120Z AUTO 25011KT 9999 OVC024 05/01 Q1025
                        NOSIG=
201701032050 METAR COR EGLL 032050Z AUTO 27009KT 9999 OVC025 04/01 Q1025
                        NOSIG=
201701032020 METAR COR EGLL 032020Z AUTO 26010KT 9999 OVC026 05/01 Q1025
                        NOSIG=
201701031950 METAR COR EGLL 031950Z AUTO 26008KT 9999 FEW026 04/01 Q1025
                        NOSIG=
201701031920 METAR COR EGLL 031920Z AUTO 25009KT 9999 NCD 04/01 Q1025
                        NOSIG=
201701031850 METAR COR EGLL 031850Z AUTO 25010KT 9999 NCD 04/01 Q1026
                        NOSIG=
201701031820 METAR COR EGLL 031820Z AUTO 24010KT 9999 FEW026 04/01 Q1026
                        NOSIG=
201701031750 METAR COR EGLL 031750Z AUTO 25009KT 9999 BKN025 05/02 Q1026
                        NOSIG=
201701031720 METAR COR EGLL 031720Z AUTO 25009KT 9999 OVC022 05/02 Q1026
                        NOSIG=
201701031650 METAR COR EGLL 031650Z AUTO 26008KT 9999 OVC025 04/01 Q1026
                        NOSIG=
201701031620 METAR COR EGLL 031620Z AUTO 26009KT 9999 OVC023 04/01 Q1026
                        NOSIG=
201701031550 METAR COR EGLL 031550Z AUTO 27009KT 9999 OVC023 05/01 Q1026
                        NOSIG=
201701031520 METAR COR EGLL 031520Z AUTO 27008KT 9999 BKN023 05/01 Q1027
                        NOSIG=
201701031450 METAR COR EGLL 031450Z AUTO 28010KT 9999 SCT023 05/01 Q1027
                        NOSIG=
201701031420 METAR COR EGLL 031420Z AUTO 28010KT 9999 FEW023 06/01 Q1027
                        NOSIG=
201701031350 METAR COR EGLL 031350Z AUTO 28010KT 9999 FEW024 05/02 Q1027
                        NOSIG=
201701031320 METAR COR EGLL 031320Z AUTO 27011KT 9999 FEW024 05/02 Q1027
                        NOSIG=
201701031250 METAR COR EGLL 031250Z AUTO 27011KT 9999 FEW028 05/01 Q1028
                        NOSIG=
201701031220 METAR COR EGLL 031220Z AUTO 26011KT 9999 NCD 04/01 Q1028
                        NOSIG=
201701031150 METAR COR EGLL 031150Z AUTO 26011KT 9999 NCD 04/01 Q1028
                        NOSIG=
201701031120 METAR COR EGLL 031120Z AUTO 26011KT 210V280 9999 NCD 03/01
                        Q1029 NOSIG=
201701031050 METAR COR EGLL 031050Z AUTO 27013KT 9999 NCD 02/00 Q1029
                        NOSIG=
201701031020 METAR COR EGLL 031020Z AUTO 27009KT 9999 NCD 02/01 Q1029
                        NOSIG=
201701030950 METAR COR EGLL 030950Z AUTO 27010KT 9999 NCD 01/00 Q1029
                        NOSIG=
201701030920 METAR COR EGLL 030920Z AUTO 27007KT 9999 NCD 00/00 Q1029
                        NOSIG=
201701030850 METAR COR EGLL 030850Z AUTO 28004KT 9999 NCD M01/M01 Q1030
                        NOSIG=
201701030820 METAR COR EGLL 030820Z AUTO 28007KT 9999 NCD M01/M01 Q1029
                        NOSIG=
201701030750 METAR COR EGLL 030750Z AUTO 27007KT 9999 NCD M01/M01 Q1029
                        NOSIG=
201701030720 METAR COR EGLL 030720Z AUTO 27008KT 9999 NCD M01/M01 Q1029
                        NOSIG=
201701030650 METAR COR EGLL 030650Z AUTO 26005KT 9999 NCD M01/M01 Q1029
                        NOSIG=
201701030620 METAR COR EGLL 030620Z AUTO 26005KT 9999 NCD M01/M01 Q1029
                        NOSIG=
201701030550 METAR COR EGLL 030550Z AUTO 27005KT 9999 NCD M01/M01 Q1029
                        NOSIG=
201701030520 METAR COR EGLL 030520Z AUTO 24004KT 9999 NCD M02/M02 Q1029
                        NOSIG=
201701030450 METAR COR EGLL 030450Z AUTO 25005KT 9999 NCD M02/M02 Q1029
                        NOSIG=
201701030420 METAR COR EGLL 030420Z AUTO 22002KT 9999 NCD M01/M01 Q1030
                        NOSIG=
201701030350 METAR COR EGLL 030350Z AUTO VRB02KT 9999 NCD M02/M02 Q1030
                        NOSIG=
201701030320 METAR COR EGLL 030320Z AUTO 26003KT 9000 NCD M02/M02 Q1030
                        NOSIG=
201701030250 METAR COR EGLL 030250Z AUTO 27004KT 9999 NCD M02/M02 Q1030
                        NOSIG=
201701030220 METAR COR EGLL 030220Z AUTO 27004KT 9999 NCD M02/M02 Q1030
                        NOSIG=
201701030150 METAR COR EGLL 030150Z AUTO 27004KT 9999 NCD M01/M01 Q1030
                        NOSIG=
201701030120 METAR COR EGLL 030120Z AUTO 26003KT 9999 NCD M01/M01 Q1030
                        NOSIG=
201701030050 METAR COR EGLL 030050Z AUTO 27004KT 9999 NCD M02/M02 Q1030
                        NOSIG=
201701030020 METAR COR EGLL 030020Z AUTO 30003KT 9999 NCD M01/M01 Q1030
                        NOSIG=
201701022350 METAR COR EGLL 022350Z AUTO 27004KT 9999 NCD M01/M01 Q1030
                        NOSIG=
201701022320 METAR COR EGLL 022320Z AUTO 28005KT 9999 NCD 00/M01 Q1030
                        NOSIG=
201701022250 METAR COR EGLL 022250Z AUTO 26004KT 9999 NCD 00/M01 Q1030
                        NOSIG=
201701022220 METAR COR EGLL 022220Z AUTO 29004KT 9999 NCD 00/M01 Q1030
                        NOSIG=
201701022150 METAR COR EGLL 022150Z AUTO 29002KT 9999 NCD 01/M01 Q1030
                        NOSIG=
201701022120 METAR COR EGLL 022120Z AUTO 28005KT 9999 NCD 02/M01 Q1030
                        NOSIG=
201701022050 METAR COR EGLL 022050Z AUTO 29004KT 9999 NCD 02/M01 Q1030
                        NOSIG=
201701022020 METAR COR EGLL 022020Z AUTO 29004KT 9999 NCD 02/M01 Q1030
                        NOSIG=
201701021950 METAR COR EGLL 021950Z AUTO 29005KT 9999 NCD 02/M00 Q1030
                        NOSIG=
201701021920 METAR COR EGLL 021920Z AUTO 29005KT 9999 NCD 02/M00 Q1030
                        NOSIG=
201701021850 METAR COR EGLL 021850Z AUTO 30004KT 9999 NCD 03/M00 Q1030
                        NOSIG=
201701021820 METAR COR EGLL 021820Z AUTO 31005KT 9999 NCD 03/M00 Q1030
                        NOSIG=
201701021750 METAR COR EGLL 021750Z AUTO 30003KT 9999 NCD 03/00 Q1030
                        NOSIG=
201701021720 METAR COR EGLL 021720Z AUTO 30004KT 9999 NCD 04/00 Q1030
                        NOSIG=
201701021650 METAR COR EGLL 021650Z AUTO 29003KT 9999 NCD 04/01 Q1030
                        NOSIG=
201701021620 METAR COR EGLL 021620Z AUTO 30002KT 9999 NCD 04/01 Q1030
                        NOSIG=
201701021550 METAR COR EGLL 021550Z AUTO VRB03KT 9999 FEW020 05/01 Q1030
                        NOSIG=
201701021520 METAR COR EGLL 021520Z AUTO 33004KT 290V010 9999 NCD 05/01
                        Q1030 NOSIG=
201701021450 METAR COR EGLL 021450Z AUTO 34005KT 290V030 9999 NCD 05/01
                        Q1030 NOSIG=
201701021420 METAR COR EGLL 021420Z AUTO 35006KT 300V020 9999 SCT020 05/01
                        Q1029 NOSIG=
201701021350 METAR COR EGLL 021350Z AUTO 02004KT 330V070 9999 SCT019 05/01
                        Q1029 NOSIG=
201701021320 METAR COR EGLL 021320Z AUTO 35005KT 320V030 9999 FEW019 05/02
                        Q1029 NOSIG=
201701021250 METAR COR EGLL 021250Z AUTO 01004KT 320V050 9999 NCD 05/02
                        Q1030 NOSIG=
201701021220 METAR COR EGLL 021220Z AUTO 01007KT 310V040 9999 NCD 05/03
                        Q1030 NOSIG=
201701021150 METAR COR EGLL 021150Z AUTO 36007KT 320V040 9999 NCD 04/03
                        Q1030 NOSIG=
201701021120 METAR COR EGLL 021120Z AUTO 36007KT 330V030 9999 NCD 04/02
                        Q1030 NOSIG=
201701021050 METAR COR EGLL 021050Z AUTO 36007KT 9999 NCD 04/02 Q1030
                        NOSIG=
201701021020 METAR COR EGLL 021020Z AUTO 36006KT 330V040 9999 NCD 03/02
                        Q1029 NOSIG=
201701020950 METAR COR EGLL 020950Z AUTO 36005KT 320V030 9999 NCD 02/02
                        Q1029 NOSIG=
201701020920 METAR COR EGLL 020920Z AUTO 36004KT 310V040 9999 NCD 02/01
                        Q1029 NOSIG=
201701020850 METAR COR EGLL 020850Z AUTO VRB03KT 9999 NCD 02/01 Q1028
                        NOSIG=
201701020820 METAR COR EGLL 020820Z AUTO VRB02KT 9999 NCD 02/02 Q1028
                        NOSIG=
201701020750 METAR COR EGLL 020750Z AUTO 36004KT 330V030 9999 NCD 02/01
                        Q1028 NOSIG=
201701020720 METAR COR EGLL 020720Z AUTO 36004KT 310V040 9999 NCD 02/02
                        Q1027 NOSIG=
201701020650 METAR COR EGLL 020650Z AUTO 36004KT 330V040 9999 NCD 02/02
                        Q1027 NOSIG=
201701020620 METAR COR EGLL 020620Z AUTO 36004KT 330V040 9999 NCD 01/01
                        Q1026 NOSIG=
201701020550 METAR COR EGLL 020550Z AUTO 36005KT 9999 NCD 02/02 Q1026
                        NOSIG=
201701020520 METAR COR EGLL 020520Z AUTO 02005KT 350V060 9999 NCD 02/02
                        Q1026 NOSIG=
201701020450 METAR COR EGLL 020450Z AUTO 02005KT 340V050 9999 FEW007 02/02
                        Q1026 NOSIG=
201701020420 METAR COR EGLL 020420Z AUTO 01006KT 340V050 9999 FEW007 02/02
                        Q1026 NOSIG=
201701020350 METAR COR EGLL 020350Z AUTO 01006KT 340V050 9999 NCD 02/02
                        Q1026 NOSIG=
201701020320 METAR COR EGLL 020320Z AUTO 02004KT 350V060 9999 NCD 02/02
                        Q1025 NOSIG=
201701020250 METAR COR EGLL 020250Z AUTO 01005KT 340V080 9999 FEW023 02/02
                        Q1025 NOSIG=
201701020220 METAR COR EGLL 020220Z AUTO 01005KT 330V050 9999 NCD 03/03
                        Q1024 NOSIG=
201701020150 METAR COR EGLL 020150Z AUTO 02006KT 340V050 9999 NCD 04/03
                        Q1024 NOSIG=
201701020120 METAR COR EGLL 020120Z AUTO 02007KT 340V050 9999 NCD 04/04
                        Q1024 NOSIG=
201701020050 METAR COR EGLL 020050Z AUTO 01007KT 340V050 9999 NCD 04/04
                        Q1024 NOSIG=
201701020020 METAR COR EGLL 020020Z AUTO 01006KT 340V040 9999 NCD 04/04
                        Q1023 NOSIG=
201701012350 METAR COR EGLL 012350Z AUTO 02005KT 340V060 9999 NCD 04/04
                        Q1023 NOSIG=
201701012320 METAR COR EGLL 012320Z AUTO 01005KT 330V040 9999 NCD 04/04
                        Q1023 NOSIG=
201701012250 METAR COR EGLL 012250Z AUTO 02006KT 330V050 9999 FEW011 04/04
                        Q1022 NOSIG=
201701012220 METAR COR EGLL 012220Z 02006KT 330V050 9999 -RA FEW009 SCT031
                        04/04 Q1022 NOSIG=
201701012150 METAR COR EGLL 012150Z 02008KT 9999 -RA FEW010 SCT034 04/04
                        Q1022 NOSIG=
201701012120 METAR COR EGLL 012120Z 01006KT 330V040 9999 -RA FEW010 SCT016
                        BKN031 05/05 Q1022 NOSIG=
201701012050 METAR COR EGLL 012050Z 02005KT 9999 -RA SCT019 BKN028 05/05
                        Q1021 NOSIG=
201701012020 METAR COR EGLL 012020Z 03007KT 360V060 9999 -RA FEW012 SCT015
                        BKN024 05/04 Q1021 NOSIG=
201701011950 METAR COR EGLL 011950Z 03007KT 350V070 9999 -RA FEW013 SCT017
                        BKN029 05/04 Q1020 TEMPO BKN012=
201701011920 METAR COR EGLL 011920Z 03006KT 350V070 9999 -RA FEW011 SCT015
                        BKN023 05/04 Q1020 TEMPO BKN014=
201701011850 METAR COR EGLL 011850Z 04007KT 350V080 9999 -RA FEW010 SCT014
                        BKN016 05/04 Q1019 TEMPO BKN014=
201701011820 METAR COR EGLL 011820Z 03007KT 350V070 9999 -RA FEW011 SCT013
                        BKN016 04/04 Q1019 TEMPO BKN014=
201701011750 METAR COR EGLL 011750Z 03007KT 350V070 9999 -RA BKN015 04/04
                        Q1018 TEMPO BKN013=
201701011720 METAR COR EGLL 011720Z 02006KT 330V060 9999 -RA SCT013 BKN018
                        04/04 Q1018 TEMPO BKN014=
201701011650 METAR COR EGLL 011650Z 02009KT 9999 -RA FEW010 SCT014 BKN020
                        04/04 Q1018 TEMPO BKN012=
201701011620 METAR COR EGLL 011620Z 02007KT 340V060 9999 -RA FEW010 BKN012
                        05/04 Q1017 TEMPO SCT012 BKN018=
201701011550 METAR COR EGLL 011550Z 02008KT 350V050 9999 -RA FEW010 SCT016
                        BKN030 05/05 Q1017 TEMPO BKN010=
201701011520 METAR COR EGLL 011520Z 03010G20KT 350V050 9999 -RA FEW010
                        SCT029 BKN035 05/04 Q1016 TEMPO RA
                        BKN014=
201701011450 METAR COR EGLL 011450Z 02009G20KT 350V060 9999 -RA FEW009
                        SCT012 BKN027 06/05 Q1015 RERA TEMPO
                        RA BKN012=
201701011420 METAR COR EGLL 011420Z 01011KT 9999 5000S RA FEW006 SCT010
                        BKN025 06/06 Q1015 RERA TEMPO -RA
                        BKN012=
201701011350 METAR COR EGLL 011350Z AUTO 26007KT 220V290 9999 -RA OVC014///
                        //////CB 09/08 Q1014 TEMPO 4800 RA
                        BKN009=
201701011320 METAR COR EGLL 011320Z AUTO 23008KT 9999 -RA OVC014/// //////TCU
                        10/08 Q1014 TEMPO RA BKN009=
201701011250 METAR COR EGLL 011250Z AUTO 23008KT 9999 BKN014 BKN037 10/08
                        Q1014 TEMPO RA BKN009=
201701011220 METAR COR EGLL 011220Z AUTO 22009KT 9999 SCT011 10/09 Q1015
                        TEMPO RA BKN012=
201701011150 METAR COR EGLL 011150Z AUTO 22007KT 190V260 9999 OVC041 10/09
                        Q1015 TEMPO RA BKN012=
201701011120 METAR COR EGLL 011120Z AUTO 21007KT 190V250 9999 BKN041 09/09
                        Q1015 TEMPO BKN014=
201701011050 METAR COR EGLL 011050Z AUTO 21005KT 170V230 9000 FEW007 BKN034
                        09/09 Q1015 TEMPO BKN014=
201701011020 METAR COR EGLL 011020Z AUTO 21006KT 7000 -RA BKN033 08/08
                        Q1015 TEMPO BKN014=
201701010950 METAR COR EGLL 010950Z AUTO 21007KT 6000 FEW005 BKN029 08/08
                        Q1016 TEMPO BKN010=
201701010920 METAR COR EGLL 010920Z AUTO 21008KT 170V260 6000 FEW005 08/08
                        Q1016 TEMPO 4500 BKN010=
201701010850 METAR COR EGLL 010850Z AUTO 19007KT 170V230 4900 BR NCD 07/07
                        Q1016 TEMPO 6000 BKN012=
201701010820 METAR COR EGLL 010820Z AUTO 19007KT 170V260 5000 BR FEW009
                        SCT031 BKN047 07/07 Q1016 TEMPO 4800
                        BKN012=
201701010750 METAR COR EGLL 010750Z AUTO 20006KT 160V240 5000 BR OVC039
                        07/07 Q1016 TEMPO 4800 BKN012=
201701010720 METAR COR EGLL 010720Z AUTO 17006KT 120V220 5000 -RADZ FEW007
                        OVC038 06/06 Q1016 TEMPO BKN009=
201701010650 METAR COR EGLL 010650Z AUTO 20007KT 180V260 6000 -RA OVC037
                        06/06 Q1017 NOSIG=
201701010620 METAR COR EGLL 010620Z AUTO 21007KT 170V230 6000 FEW009 OVC037
                        06/06 Q1017 NOSIG=
201701010550 METAR COR EGLL 010550Z AUTO 22005KT 6000 SCT008 BKN046 06/06
                        Q1018 NOSIG=
201701010520 METAR COR EGLL 010520Z AUTO 19005KT 6000 -RA BKN039 06/06
                        Q1018 NOSIG=
201701010450 METAR COR EGLL 010450Z AUTO 19005KT 5000 -RA OVC034 05/05
                        Q1018 RERA NOSIG=
201701010420 METAR COR EGLL 010420Z AUTO 18006KT 5000 -RA BKN030 05/05
                        Q1019 NOSIG=
201701010350 METAR COR EGLL 010350Z AUTO 21006KT 5000 -RA FEW022 OVC036
                        06/06 Q1019 NOSIG=
201701010320 METAR COR EGLL 010320Z 19005KT 6000 -RA FEW018 BKN035 06/06
                        Q1020 NOSIG=
201701010250 METAR COR EGLL 010250Z AUTO 21006KT 6000 -RA FEW030 OVC038
                        06/06 Q1020 NOSIG=
201701010220 METAR COR EGLL 010220Z AUTO 21006KT 6000 -RA BKN028 OVC044
                        06/06 Q1021 NOSIG=
201701010150 METAR COR EGLL 010150Z AUTO 21006KT 180V240 6000 -RA SCT008
                        BKN022 06/06 Q1022 NOSIG=
201701010120 METAR COR EGLL 010120Z AUTO 23007KT 5000 BR SCT007 OVC036
                        06/06 Q1022 TEMPO BKN012=
201701010050 METAR COR EGLL 010050Z AUTO 22006KT 180V240 5000 BR FEW009
                        BKN037 06/06 Q1023 TEMPO 4000=
201701010020 METAR COR EGLL 010020Z AUTO 21006KT 5000 BR FEW010 BKN042
                        06/06 Q1023 NOSIG=

</pre>

</body>
</html>
