##########################################################
# Query made at 12/24/2012 14:12:47 UTC
# Time interval: from 07/01/2011 00:00  to 07/31/2011 23:59  UTC
##########################################################

##########################################################
# EGLL, London / Heathrow Airport (United Kingdom)
# WMO index: 03772
# Latitude 51-29N. Longitude 000-27W. Altitude 24 m.
##########################################################

###################################
#  METAR/SPECI from EGLL
###################################
201107312350 METAR COR EGLL 312350Z 17005KT CAVOK 17/10 Q1014 NOSIG=
201107312320 METAR COR EGLL 312320Z 14005KT CAVOK 17/09 Q1014 NOSIG=
201107312250 METAR COR EGLL 312250Z 18004KT CAVOK 17/10 Q1014 NOSIG=
201107312220 METAR COR EGLL 312220Z 18005KT 140V220 CAVOK 18/10 Q1014
                        NOSIG=
201107312150 METAR COR EGLL 312150Z 15006KT CAVOK 18/09 Q1014 NOSIG=
201107312120 METAR COR EGLL 312120Z 19006KT CAVOK 19/09 Q1014 NOSIG=
201107312050 METAR COR EGLL 312050Z 18007KT CAVOK 19/09 Q1014 NOSIG=
201107312020 METAR COR EGLL 312020Z 18007KT 160V220 CAVOK 19/08 Q1014
                        NOSIG=
201107311950 METAR COR EGLL 311950Z 20008KT 180V250 CAVOK 20/09 Q1014
                        NOSIG=
201107311920 METAR COR EGLL 311920Z 18009KT 130V200 CAVOK 20/10 Q1014
                        NOSIG=
201107311850 METAR COR EGLL 311850Z 20009KT 160V230 CAVOK 21/11 Q1014
                        NOSIG=
201107311820 METAR COR EGLL 311820Z 19010KT 150V230 CAVOK 22/11 Q1014
                        NOSIG=
201107311750 METAR COR EGLL 311750Z 19009KT CAVOK 23/11 Q1014 NOSIG=
201107311720 METAR COR EGLL 311720Z 20009KT CAVOK 23/12 Q1014 NOSIG=
201107311650 METAR COR EGLL 311650Z 19010KT 160V240 CAVOK 24/12 Q1014
                        NOSIG=
201107311620 METAR COR EGLL 311620Z 20008KT 160V240 CAVOK 24/11 Q1014
                        NOSIG=
201107311550 METAR COR EGLL 311550Z 21009KT 170V240 CAVOK 24/11 Q1014
                        NOSIG=
201107311520 METAR COR EGLL 311520Z 20008KT 120V250 CAVOK 24/11 Q1015
                        NOSIG=
201107311450 METAR COR EGLL 311450Z 22009KT 170V260 9999 FEW048 23/11
                        Q1015 NOSIG=
201107311420 METAR COR EGLL 311420Z 20008KT 160V240 9999 FEW048 24/11
                        Q1015 NOSIG=
201107311350 METAR COR EGLL 311350Z 20009KT 130V250 9999 FEW048 24/12
                        Q1015 NOSIG=
201107311320 METAR COR EGLL 311320Z 22011KT 190V260 9999 FEW048 24/11
                        Q1015 NOSIG=
201107311250 METAR COR EGLL 311250Z VRB07KT 9999 FEW044 23/12 Q1016 NOSIG=
201107311220 METAR COR EGLL 311220Z 21010KT 180V250 9999 FEW039 24/12
                        Q1016 NOSIG=
201107311150 METAR COR EGLL 311150Z 21009KT 170V250 9999 FEW039 23/12
                        Q1016 NOSIG=
201107311120 METAR COR EGLL 311120Z 19007KT 130V260 9999 FEW039 22/12
                        Q1016 NOSIG=
201107311050 METAR COR EGLL 311050Z 20009KT 150V260 9999 FEW033 22/12
                        Q1016 NOSIG=
201107311020 METAR COR EGLL 311020Z 21008KT 150V250 9999 FEW035 21/12
                        Q1017 NOSIG=
201107310950 METAR COR EGLL 310950Z 22008KT 180V270 CAVOK 21/12 Q1017
                        NOSIG=
201107310920 METAR COR EGLL 310920Z 20007KT 140V260 CAVOK 20/12 Q1017
                        NOSIG=
201107310850 METAR COR EGLL 310850Z 19005KT 110V270 CAVOK 19/11 Q1017
                        NOSIG=
201107310820 METAR COR EGLL 310820Z 17005KT 100V250 CAVOK 18/12 Q1017
                        NOSIG=
201107310750 METAR COR EGLL 310750Z 17004KT 110V230 CAVOK 17/12 Q1017
                        NOSIG=
201107310720 METAR COR EGLL 310720Z 16004KT 110V280 CAVOK 16/12 Q1017
                        NOSIG=
201107310650 METAR COR EGLL 310650Z 16004KT 110V210 CAVOK 15/12 Q1017
                        NOSIG=
201107310620 METAR COR EGLL 310620Z VRB03KT CAVOK 15/12 Q1017 NOSIG=
201107310550 METAR COR EGLL 310550Z VRB03KT 8000 NSC 14/12 Q1017 NOSIG=
201107310520 METAR COR EGLL 310520Z VRB03KT 5000 HZ NSC 13/12 Q1017 NOSIG=
201107310450 METAR COR EGLL 310450Z 16003KT 6000 NSC 12/11 Q1017 NOSIG=
201107310420 METAR COR EGLL 310420Z 21003KT 6000 NSC 12/11 Q1018 NOSIG=
201107310350 METAR COR EGLL 310350Z 20003KT 8000 NSC 12/11 Q1018 NOSIG=
201107310320 METAR COR EGLL 310320Z 22004KT 8000 NSC 12/11 Q1018 NOSIG=
201107310250 METAR COR EGLL 310250Z 21005KT 6000 NSC 13/12 Q1018 NOSIG=
201107310220 METAR COR EGLL 310220Z VRB03KT 7000 NSC 13/12 Q1018 NOSIG=
201107310150 METAR COR EGLL 310150Z 17003KT 8000 NSC 13/12 Q1018 NOSIG=
201107310120 METAR EGLL 310120Z AUTO 18004KT 7000NDV ///////// 13/12 Q1018=
201107310050 METAR EGLL 310050Z AUTO 18005KT 8000NDV ///////// 14/12 Q1019=
201107310020 METAR EGLL 310020Z AUTO 17006KT 9999NDV NCD 14/12 Q1019=
201107302350 METAR COR EGLL 302350Z 15005KT CAVOK 14/12 Q1019 NOSIG=
201107302320 METAR COR EGLL 302320Z 15006KT CAVOK 15/11 Q1019 NOSIG=
201107302250 METAR COR EGLL 302250Z 15006KT CAVOK 15/11 Q1019 NOSIG=
201107302220 METAR COR EGLL 302220Z 13007KT CAVOK 17/09 Q1019 NOSIG=
201107302150 METAR COR EGLL 302150Z 11009KT CAVOK 17/09 Q1019 NOSIG=
201107302120 METAR COR EGLL 302120Z 08005KT CAVOK 18/08 Q1019 NOSIG=
201107302050 METAR COR EGLL 302050Z 08005KT CAVOK 18/08 Q1019 NOSIG=
201107302020 METAR COR EGLL 302020Z 05002KT CAVOK 19/07 Q1019 NOSIG=
201107301950 METAR COR EGLL 301950Z 05003KT CAVOK 19/08 Q1019 NOSIG=
201107301920 METAR COR EGLL 301920Z 05004KT CAVOK 20/07 Q1019 NOSIG=
201107301850 METAR COR EGLL 301850Z VRB03KT CAVOK 21/07 Q1019 NOSIG=
201107301820 METAR COR EGLL 301820Z VRB04KT CAVOK 22/07 Q1019 NOSIG=
201107301750 METAR COR EGLL 301750Z VRB03KT CAVOK 22/07 Q1019 NOSIG=
201107301720 METAR COR EGLL 301720Z 30005KT 210V350 CAVOK 22/07 Q1020
                        NOSIG=
201107301650 METAR COR EGLL 301650Z VRB03KT CAVOK 22/07 Q1020 NOSIG=
201107301620 METAR EGLL 301620Z VRB04KT CAVOK 22/08 Q1020=
201107301550 METAR EGLL 301550Z VRB03KT 9999 FEW049 21/08 Q1020=
201107301520 METAR COR EGLL 301520Z 35004KT 250V050 9999 FEW049 21/08
                        Q1021 NOSIG=
201107301450 METAR COR EGLL 301450Z VRB03KT 9999 FEW048 21/08 Q1021 NOSIG=
201107301420 METAR COR EGLL 301420Z VRB04KT 9999 FEW048 21/08 Q1021 NOSIG=
201107301350 METAR COR EGLL 301350Z VRB05KT 9999 SCT046 21/08 Q1021 NOSIG=
201107301320 METAR COR EGLL 301320Z VRB03KT 9999 SCT043 20/08 Q1022 NOSIG=
201107301250 METAR COR EGLL 301250Z VRB06KT 9999 SCT041 20/08 Q1022 NOSIG=
201107301220 METAR COR EGLL 301220Z 36006KT 300V060 9999 SCT039 19/08
                        Q1022 NOSIG=
201107301150 METAR COR EGLL 301150Z VRB05KT 9999 SCT038 19/09 Q1022 NOSIG=
201107301120 METAR COR EGLL 301120Z 01005KT 300V080 9999 SCT038 19/08
                        Q1022 NOSIG=
201107301050 METAR COR EGLL 301050Z VRB04KT 9999 SCT034 17/08 Q1022 NOSIG=
201107301020 METAR COR EGLL 301020Z 36005KT 280V080 9999 SCT032 18/08
                        Q1023 NOSIG=
201107300950 METAR COR EGLL 300950Z VRB05KT 9999 SCT032 17/08 Q1023 NOSIG=
201107300920 METAR COR EGLL 300920Z 03004KT 330V130 9999 SCT031 16/08
                        Q1023 NOSIG=
201107300850 METAR COR EGLL 300850Z 02005KT 330V060 9999 FEW031 16/08
                        Q1023 NOSIG=
201107300820 METAR COR EGLL 300820Z 03006KT 300V080 9999 FEW029 16/08
                        Q1023 NOSIG=
201107300750 METAR COR EGLL 300750Z 01005KT 330V070 9999 FEW027 15/08
                        Q1023 NOSIG=
201107300720 METAR COR EGLL 300720Z 36004KT 300V040 9999 FEW028 15/08
                        Q1023 NOSIG=
201107300650 METAR COR EGLL 300650Z 03005KT 330V080 CAVOK 14/09 Q1023
                        NOSIG=
201107300620 METAR COR EGLL 300620Z 02004KT 330V070 CAVOK 13/08 Q1023
                        NOSIG=
201107300550 METAR COR EGLL 300550Z VRB03KT CAVOK 13/08 Q1023 NOSIG=
201107300520 METAR COR EGLL 300520Z VRB03KT CAVOK 12/08 Q1023 NOSIG=
201107300450 METAR COR EGLL 300450Z VRB03KT 9999 FEW048 12/08 Q1023 NOSIG=
201107300420 METAR COR EGLL 300420Z 36003KT 9999 FEW046 12/08 Q1023 NOSIG=
201107300350 METAR COR EGLL 300350Z 04003KT 9999 FEW046 13/08 Q1023 NOSIG=
201107300320 METAR COR EGLL 300320Z 04004KT 9999 SCT044 14/08 Q1023 NOSIG=
201107300250 METAR COR EGLL 300250Z VRB03KT 9999 OVC042 14/08 Q1023 NOSIG=
201107300220 METAR COR EGLL 300220Z 05004KT 020V080 9999 BKN040 14/07
                        Q1023 NOSIG=
201107300150 METAR COR EGLL 300150Z 05004KT 020V080 9999 BKN041 14/07
                        Q1023 NOSIG=
201107300120 METAR EGLL 300120Z AUTO 05004KT 360V090 9999NDV OVC041///
                        14/07 Q1023=
201107300050 METAR EGLL 300050Z AUTO 05005KT 9999NDV OVC038/// 14/08 Q1023=
201107300020 METAR EGLL 300020Z AUTO 06006KT 9999NDV OVC036/// 15/08 Q1024=
201107292350 METAR COR EGLL 292350Z 05007KT 9999 OVC034 15/08 Q1024 NOSIG=
201107292320 METAR COR EGLL 292320Z 05006KT 020V080 9999 BKN032 OVC036
                        15/08 Q1023 NOSIG=
201107292250 METAR COR EGLL 292250Z 05007KT 9999 BKN035 16/08 Q1023 NOSIG=
201107292220 METAR COR EGLL 292220Z 05007KT 9999 BKN034 16/08 Q1023 NOSIG=
201107292150 METAR COR EGLL 292150Z 06006KT 9999 OVC033 16/10 Q1023 NOSIG=
201107292120 METAR COR EGLL 292120Z 05005KT 020V080 9999 SCT033 BKN037
                        16/10 Q1023 NOSIG=
201107292050 METAR COR EGLL 292050Z 05006KT 010V080 9999 BKN040 17/10
                        Q1023 NOSIG=
201107292020 METAR COR EGLL 292020Z 05006KT 9999 BKN040 17/11 Q1023 NOSIG=
201107291950 METAR COR EGLL 291950Z 05005KT 9999 SCT039 17/11 Q1023 NOSIG=
201107291920 METAR COR EGLL 291920Z 05006KT 9999 SCT039 18/11 Q1023 NOSIG=
201107291850 METAR COR EGLL 291850Z 05006KT 010V080 9999 FEW042 18/12
                        Q1022 NOSIG=
201107291820 METAR COR EGLL 291820Z 05006KT 020V090 9999 FEW046 19/12
                        Q1022 NOSIG=
201107291750 METAR COR EGLL 291750Z 05007KT 020V080 9999 FEW045 19/12
                        Q1022 NOSIG=
201107291720 METAR COR EGLL 291720Z 05006KT 010V090 9999 FEW042 20/12
                        Q1022 NOSIG=
201107291650 METAR COR EGLL 291650Z 04006KT 360V080 9999 FEW032 20/12
                        Q1022 NOSIG=
201107291620 METAR COR EGLL 291620Z 36006KT 340V060 9999 FEW040 BKN048
                        20/12 Q1023 NOSIG=
201107291550 METAR COR EGLL 291550Z 03005KT 340V090 9999 SCT040 BKN048
                        21/12 Q1023 NOSIG=
201107291520 METAR COR EGLL 291520Z 04007KT 360V080 9999 FEW030 SCT038
                        21/12 Q1023 NOSIG=
201107291450 METAR COR EGLL 291450Z 04006KT 350V090 9999 SCT028 20/13
                        Q1023 NOSIG=
201107291420 METAR COR EGLL 291420Z 05007KT 360V080 9999 SCT026 SCT033
                        21/13 Q1023 NOSIG=
201107291350 METAR COR EGLL 291350Z 03007KT 360V060 9999 SCT033 BKN045
                        20/13 Q1023 NOSIG=
201107291320 METAR COR EGLL 291320Z 03005KT 340V080 9999 BKN035 BKN047
                        20/12 Q1023 NOSIG=
201107291250 METAR COR EGLL 291250Z 03006KT 310V090 9999 FEW033 SCT040
                        21/12 Q1023 NOSIG=
201107291220 METAR COR EGLL 291220Z VRB03KT 9999 SCT029 21/12 Q1023 NOSIG=
201107291150 METAR COR EGLL 291150Z VRB02KT 9999 SCT030 21/13 Q1023 NOSIG=
201107291120 METAR COR EGLL 291120Z 11005KT 050V140 9999 FEW028 20/13
                        Q1023 NOSIG=
201107291050 METAR COR EGLL 291050Z 07004KT 010V140 9999 FEW026 19/12
                        Q1023 NOSIG=
201107291020 METAR COR EGLL 291020Z 11004KT 060V180 CAVOK 19/13 Q1024
                        NOSIG=
201107290950 METAR COR EGLL 290950Z 08004KT 050V110 9999 FEW016 17/13
                        Q1024 NOSIG=
201107290920 METAR COR EGLL 290920Z 07005KT 030V090 9999 FEW016 17/13
                        Q1024 NOSIG=
201107290850 METAR COR EGLL 290850Z 06006KT 9999 FEW012 15/12 Q1024 TEMPO
                        BKN013=
201107290820 METAR COR EGLL 290820Z 05005KT 010V090 9999 FEW012 15/12
                        Q1024 NOSIG=
201107290750 METAR COR EGLL 290750Z 06006KT 030V090 9999 FEW010 15/12
                        Q1024 NOSIG=
201107290720 METAR COR EGLL 290720Z 06006KT 9999 FEW010 14/12 Q1024 NOSIG=
201107290650 METAR COR EGLL 290650Z 06007KT 9999 FEW012 14/11 Q1024 NOSIG=
201107290620 METAR COR EGLL 290620Z 06006KT 9999 FEW010 14/11 Q1024 NOSIG=
201107290550 METAR COR EGLL 290550Z 06006KT 9999 FEW010 14/11 Q1024 NOSIG=
201107290520 METAR COR EGLL 290520Z 02005KT 350V050 9000 FEW007 14/11
                        Q1023 NOSIG=
201107290450 METAR COR EGLL 290450Z 36006KT 7000 NSC 14/12 Q1023 NOSIG=
201107290420 METAR COR EGLL 290420Z 01004KT 340V060 7000 NSC 14/12 Q1023
                        NOSIG=
201107290350 METAR COR EGLL 290350Z 04004KT 360V070 7000 NSC 15/12 Q1023
                        NOSIG=
201107290320 METAR COR EGLL 290320Z 05004KT 8000 NSC 15/12 Q1023 NOSIG=
201107290250 METAR COR EGLL 290250Z 04004KT 8000 NSC 15/12 Q1023 NOSIG=
201107290220 METAR COR EGLL 290220Z 01003KT CAVOK 15/13 Q1023 NOSIG=
201107290150 METAR COR EGLL 290150Z 01003KT CAVOK 16/13 Q1023 NOSIG=
201107290120 METAR EGLL 290120Z AUTO 01002KT 9000NDV ///////// 16/13 Q1023=
201107290050 METAR EGLL 290050Z AUTO 05002KT 9999NDV NCD 17/13 Q1023=
201107290020 METAR EGLL 290020Z AUTO 08003KT 9999NDV NCD 17/13 Q1023=
201107282350 METAR COR EGLL 282350Z 07004KT CAVOK 17/13 Q1023 NOSIG=
201107282320 METAR COR EGLL 282320Z 10004KT CAVOK 16/13 Q1023 NOSIG=
201107282250 METAR COR EGLL 282250Z 10005KT CAVOK 18/13 Q1023 NOSIG=
201107282220 METAR COR EGLL 282220Z 11006KT CAVOK 19/13 Q1023 NOSIG=
201107282150 METAR COR EGLL 282150Z 10006KT CAVOK 18/13 Q1022 NOSIG=
201107282120 METAR COR EGLL 282120Z 09006KT CAVOK 20/13 Q1022 NOSIG=
201107282050 METAR COR EGLL 282050Z 07003KT CAVOK 21/11 Q1022 NOSIG=
201107282020 METAR COR EGLL 282020Z 07003KT CAVOK 22/11 Q1022 NOSIG=
201107281950 METAR COR EGLL 281950Z 08004KT CAVOK 22/11 Q1022 NOSIG=
201107281920 METAR COR EGLL 281920Z 07004KT CAVOK 22/11 Q1021 NOSIG=
201107281850 METAR COR EGLL 281850Z 04004KT 010V090 CAVOK 23/11 Q1021
                        NOSIG=
201107281820 METAR COR EGLL 281820Z 07005KT CAVOK 23/11 Q1021 NOSIG=
201107281750 METAR COR EGLL 281750Z 03005KT 340V090 CAVOK 24/11 Q1021
                        NOSIG=
201107281720 METAR COR EGLL 281720Z 06005KT 350V140 CAVOK 24/10 Q1021
                        NOSIG=
201107281650 METAR COR EGLL 281650Z VRB04KT CAVOK 24/11 Q1021 NOSIG=
201107281620 METAR COR EGLL 281620Z 32005KT 280V030 CAVOK 23/10 Q1021
                        NOSIG=
201107281550 METAR COR EGLL 281550Z 35004KT 280V040 CAVOK 23/11 Q1021
                        NOSIG=
201107281520 METAR COR EGLL 281520Z 35005KT 270V060 CAVOK 23/11 Q1022
                        NOSIG=
201107281450 METAR COR EGLL 281450Z 34005KT 290V050 9999 FEW048 23/10
                        Q1022 NOSIG=
201107281420 METAR COR EGLL 281420Z 36005KT 300V040 9999 FEW048 23/11
                        Q1022 NOSIG=
201107281350 METAR COR EGLL 281350Z VRB04KT 9999 FEW048 23/11 Q1022 NOSIG=
201107281320 METAR COR EGLL 281320Z 36005KT 280V080 9999 FEW048 23/11
                        Q1022 NOSIG=
201107281250 METAR COR EGLL 281250Z 34006KT 300V030 9999 BKN045 23/11
                        Q1022 NOSIG=
201107281220 METAR COR EGLL 281220Z 36005KT 300V050 9999 SCT048 23/11
                        Q1022 NOSIG=
201107281150 METAR COR EGLL 281150Z 06006KT 360V110 9999 SCT043 22/11
                        Q1022 NOSIG=
201107281120 METAR COR EGLL 281120Z 36006KT 290V050 9999 SCT041 22/11
                        Q1022 NOSIG=
201107281050 METAR COR EGLL 281050Z 02004KT 340V140 9999 FEW037 22/12
                        Q1022 NOSIG=
201107281020 METAR COR EGLL 281020Z 34005KT 280V090 9999 FEW032 21/12
                        Q1022 NOSIG=
201107280950 METAR COR EGLL 280950Z 35005KT 290V050 9999 FEW032 20/12
                        Q1022 NOSIG=
201107280920 METAR COR EGLL 280920Z 35004KT 280V030 9999 FEW024 19/13
                        Q1022 NOSIG=
201107280850 METAR COR EGLL 280850Z 36004KT 270V090 9999 FEW018 18/13
                        Q1022 NOSIG=
201107280820 METAR COR EGLL 280820Z 33004KT 260V360 9999 FEW018 17/13
                        Q1022 NOSIG=
201107280750 METAR COR EGLL 280750Z 04005KT 350V070 9999 SCT015 17/13
                        Q1022 NOSIG=
201107280720 METAR COR EGLL 280720Z VRB03KT 9999 SCT013 16/12 Q1022 TEMPO
                        BKN014=
201107280650 METAR COR EGLL 280650Z 02004KT 320V070 9999 BKN012 16/13
                        Q1022 BECMG SCT012=
201107280620 METAR COR EGLL 280620Z 36004KT 330V040 9000 BKN011 15/13
                        Q1022 TEMPO BKN009=
201107280550 METAR COR EGLL 280550Z 35005KT 8000 OVC010 15/13 Q1022 TEMPO
                        BKN009=
201107280520 METAR COR EGLL 280520Z 36005KT 7000 OVC009 15/13 Q1022 NOSIG=
201107280450 METAR COR EGLL 280450Z 01004KT 340V050 7000 OVC010 15/13
                        Q1022 TEMPO BKN009=
201107280420 METAR COR EGLL 280420Z 03005KT 350V050 7000 OVC009 15/13
                        Q1022 NOSIG=
201107280350 METAR COR EGLL 280350Z 36004KT 320V020 8000 OVC010 15/13
                        Q1022 NOSIG=
201107280320 METAR COR EGLL 280320Z VRB03KT 8000 OVC010 15/13 Q1022 TEMPO
                        BKN009=
201107280250 METAR COR EGLL 280250Z 35004KT 7000 OVC012 15/13 Q1022 TEMPO
                        BKN009=
201107280220 METAR COR EGLL 280220Z 36004KT 7000 OVC012 15/13 Q1022 TEMPO
                        BKN009=
201107280150 METAR COR EGLL 280150Z VRB03KT 8000 OVC010 15/13 Q1022 BECMG
                        BKN009=
201107280120 METAR COR EGLL 280120Z AUTO VRB03KT 8000NDV OVC010/// 15/13
                        Q1022=
201107280050 METAR COR EGLL 280050Z AUTO 05004KT 360V080 9000NDV BKN010///
                        15/12 Q1022=
201107280020 METAR COR EGLL 280020Z AUTO VRB03KT 8000NDV ///////// 15/12
                        Q1022=
201107272350 METAR COR EGLL 272350Z 04004KT CAVOK 15/12 Q1022 NOSIG=
201107272320 METAR COR EGLL 272320Z 05004KT CAVOK 15/12 Q1022 NOSIG=
201107272250 METAR COR EGLL 272250Z 05004KT CAVOK 16/12 Q1022 NOSIG=
201107272220 METAR COR EGLL 272220Z VRB03KT CAVOK 16/12 Q1022 NOSIG=
201107272150 METAR COR EGLL 272150Z VRB03KT 9999 FEW037 17/12 Q1022 NOSIG=
201107272120 METAR COR EGLL 272120Z 01003KT CAVOK 17/13 Q1021 NOSIG=
201107272050 METAR COR EGLL 272050Z VRB03KT CAVOK 18/12 Q1021 NOSIG=
201107272020 METAR COR EGLL 272020Z VRB03KT CAVOK 18/12 Q1021 NOSIG=
201107271950 METAR COR EGLL 271950Z 03004KT 350V070 9999 FEW047 19/12
                        Q1021 NOSIG=
201107271920 METAR COR EGLL 271920Z 03005KT 9999 FEW034 SCT049 19/12 Q1020
                        NOSIG=
201107271850 METAR COR EGLL 271850Z 03005KT 360V060 9999 FEW035 BKN049
                        20/12 Q1020 NOSIG=
201107271820 METAR COR EGLL 271820Z 02005KT 350V050 CAVOK 20/11 Q1020
                        NOSIG=
201107271750 METAR COR EGLL 271750Z 03005KT 330V060 9999 SCT037 SCT045
                        20/12 Q1020 NOSIG=
201107271720 METAR COR EGLL 271720Z 33005KT 310V020 9999 SCT038 20/11
                        Q1020 NOSIG=
201107271650 METAR COR EGLL 271650Z 36007KT 9999 SCT038 20/12 Q1020 NOSIG=
201107271620 METAR EGLL 271620Z 34005KT 300V010 9999 BKN037 20/12 Q1020
                        NOSIG=
201107271550 METAR COR EGLL 271550Z 34005KT 300V020 9999 SCT037 BKN043
                        20/12 Q1020 NOSIG=
201107271520 METAR COR EGLL 271520Z 02006KT 330V050 9999 SCT036 BKN042
                        20/11 Q1020 NOSIG=
201107271450 METAR COR EGLL 271450Z 33007KT 300V030 9999 FEW035 BKN040
                        20/12 Q1020 NOSIG=
201107271420 METAR COR EGLL 271420Z 02005KT 330V070 9999 BKN040 21/12
                        Q1021 NOSIG=
201107271350 METAR COR EGLL 271350Z 34007KT 300V020 9999 BKN038 20/11
                        Q1021 NOSIG=
201107271320 METAR COR EGLL 271320Z 34006KT 300V040 9999 BKN037 20/12
                        Q1021 NOSIG=
201107271250 METAR COR EGLL 271250Z 33007KT 310V010 9999 SCT030 SCT040
                        20/11 Q1021 NOSIG=
201107271220 METAR COR EGLL 271220Z 35007KT 320V060 9999 SCT030 SCT040
                        21/11 Q1021 NOSIG=
201107271150 METAR COR EGLL 271150Z 35007KT 310V020 9999 SCT025 SCT040
                        20/11 Q1021 NOSIG=
201107271120 METAR COR EGLL 271120Z 03007KT 330V070 9999 SCT025 SCT036
                        19/12 Q1021 NOSIG=
201107271050 METAR COR EGLL 271050Z 01006KT 310V070 9999 SCT025 SCT037
                        18/12 Q1021 NOSIG=
201107271020 METAR COR EGLL 271020Z 33006KT 250V020 9999 FEW024 SCT031
                        17/12 Q1021 NOSIG=
201107270950 METAR COR EGLL 270950Z 36007KT 9999 BKN015 BKN025 16/12 Q1021
                        NOSIG=
201107270920 METAR COR EGLL 270920Z 36007KT 9999 SCT014 BKN020 16/12 Q1021
                        NOSIG=
201107270850 METAR COR EGLL 270850Z 01005KT 310V050 9999 FEW012 BKN016
                        16/12 Q1021 NOSIG=
201107270820 METAR COR EGLL 270820Z 01006KT 320V060 9999 BKN015 16/12
                        Q1021 NOSIG=
201107270750 METAR COR EGLL 270750Z 36005KT 9999 BKN014 16/12 Q1021 BECMG
                        BKN018=
201107270720 METAR COR EGLL 270720Z 35005KT 290V020 9999 BKN015 16/12
                        Q1021 NOSIG=
201107270650 METAR COR EGLL 270650Z 33004KT 300V030 9999 BKN015 15/12
                        Q1020 NOSIG=
201107270620 METAR COR EGLL 270620Z 35004KT 320V030 9999 BKN015 BKN047
                        15/12 Q1020 TEMPO BKN014=
201107270550 METAR COR EGLL 270550Z 35004KT 310V040 9999 BKN014 BKN048
                        15/12 Q1020 NOSIG=
201107270520 METAR COR EGLL 270520Z VRB03KT 9999 FEW045 15/12 Q1020 NOSIG=
201107270450 METAR COR EGLL 270450Z 34004KT 310V020 9999 FEW047 15/12
                        Q1020 NOSIG=
201107270420 METAR COR EGLL 270420Z 35004KT 320V020 9999 BKN046 15/12
                        Q1020 NOSIG=
201107270350 METAR COR EGLL 270350Z 36004KT 9999 BKN047 15/12 Q1020 NOSIG=
201107270320 METAR COR EGLL 270320Z 36004KT 320V030 9999 OVC044 15/12
                        Q1020 NOSIG=
201107270250 METAR COR EGLL 270250Z 36005KT 320V030 9999 OVC045 15/12
                        Q1020 NOSIG=
201107270220 METAR COR EGLL 270220Z 36004KT 9999 FEW021 SCT045 15/12 Q1020
                        NOSIG=
201107270150 METAR COR EGLL 270150Z 35004KT 320V020 CAVOK 15/12 Q1020
                        NOSIG=
201107270120 METAR EGLL 270120Z AUTO 36003KT 9999NDV NCD 15/12 Q1020=
201107270050 METAR EGLL 270050Z AUTO 36003KT 9999NDV NCD 15/12 Q1020=
201107270020 METAR COR EGLL 270020Z AUTO VRB03KT 9999NDV NCD 15/12 Q1019
                        NOSIG=
201107262350 METAR COR EGLL 262350Z VRB03KT CAVOK 16/12 Q1019 NOSIG=
201107262320 METAR COR EGLL 262320Z 34003KT CAVOK 16/12 Q1019 NOSIG=
201107262250 METAR COR EGLL 262250Z VRB03KT CAVOK 16/12 Q1019 NOSIG=
201107262220 METAR EGLL 262220Z 02004KT 340V070 CAVOK 16/12 Q1019=
201107262150 METAR COR EGLL 262150Z 04004KT 360V070 CAVOK 16/12 Q1019
                        NOSIG=
201107262120 METAR COR EGLL 262120Z 05004KT CAVOK 17/12 Q1019 NOSIG=
201107262050 METAR COR EGLL 262050Z 04005KT 010V080 CAVOK 17/12 Q1019
                        NOSIG=
201107262020 METAR COR EGLL 262020Z 05005KT CAVOK 17/11 Q1018 NOSIG=
201107261950 METAR COR EGLL 261950Z 04006KT 360V090 CAVOK 18/11 Q1018
                        NOSIG=
201107261920 METAR COR EGLL 261920Z 04006KT 340V070 9999 BKN040 18/11
                        Q1018 NOSIG=
201107261850 METAR COR EGLL 261850Z 04006KT 360V080 9999 SCT035 BKN041
                        19/11 Q1018 NOSIG=
201107261820 METAR COR EGLL 261820Z 04006KT 360V080 9999 FEW035 SCT042
                        19/11 Q1017 NOSIG=
201107261750 METAR COR EGLL 261750Z 03007KT 350V070 9999 OVC046 19/11
                        Q1017 NOSIG=
201107261720 METAR COR EGLL 261720Z 03007KT 360V080 9999 FEW038 BKN045
                        20/11 Q1017 NOSIG=
201107261650 METAR COR EGLL 261650Z 03006KT 360V060 9999 FEW038 SCT044
                        20/11 Q1017 NOSIG=
201107261620 METAR COR EGLL 261620Z 36006KT 320V030 9999 SCT045 20/10
                        Q1016 NOSIG=
201107261550 METAR COR EGLL 261550Z 01006KT 330V060 9999 BKN039 20/11
                        Q1016 NOSIG=
201107261520 METAR COR EGLL 261520Z 01005KT 320V050 9999 SCT038 BKN048
                        20/11 Q1016 NOSIG=
201107261450 METAR COR EGLL 261450Z 35006KT 320V030 9999 SCT040 19/11
                        Q1016 NOSIG=
201107261420 METAR COR EGLL 261420Z 35005KT 300V030 9999 SCT039 19/11
                        Q1016 NOSIG=
201107261350 METAR COR EGLL 261350Z 35006KT 300V020 9999 BKN041 19/11
                        Q1016 NOSIG=
201107261320 METAR COR EGLL 261320Z 34006KT 310V030 9999 SCT031 20/11
                        Q1016 NOSIG=
201107261250 METAR COR EGLL 261250Z 34005KT 270V070 9999 SCT033 20/11
                        Q1016 NOSIG=
201107261220 METAR EGLL 261220Z 34005KT 300V030 9999 FEW028 19/11 Q1016=
201107261150 METAR COR EGLL 261150Z 01005KT 320V050 9999 FEW030 18/11
                        Q1016 NOSIG=
201107261120 METAR COR EGLL 261120Z 36005KT 300V060 9999 FEW028 18/11
                        Q1015 NOSIG=
201107261050 METAR COR EGLL 261050Z 33004KT 290V070 CAVOK 18/11 Q1015
                        NOSIG=
201107261020 METAR COR EGLL 261020Z 36004KT 320V060 9999 FEW024 18/12
                        Q1015 NOSIG=
201107260950 METAR COR EGLL 260950Z 02005KT 330V060 9999 FEW024 17/11
                        Q1015 NOSIG=
201107260920 METAR COR EGLL 260920Z 03005KT 330V090 9999 FEW024 17/11
                        Q1015 NOSIG=
201107260850 METAR EGLL 260850Z 07005KT 350V090 9999 FEW020 16/11 Q1014=
201107260820 METAR COR EGLL 260820Z 06006KT 9999 FEW020 17/12 Q1014 NOSIG=
201107260750 METAR COR EGLL 260750Z 03005KT 350V080 CAVOK 17/13 Q1014
                        NOSIG=
201107260720 METAR COR EGLL 260720Z 06005KT 020V090 CAVOK 16/13 Q1014
                        NOSIG=
201107260650 METAR COR EGLL 260650Z 05005KT 020V080 CAVOK 16/12 Q1013
                        NOSIG=
201107260620 METAR COR EGLL 260620Z 06005KT CAVOK 15/13 Q1013 NOSIG=
201107260550 METAR COR EGLL 260550Z VRB03KT CAVOK 15/12 Q1013 NOSIG=
201107260520 METAR COR EGLL 260520Z 36003KT CAVOK 14/12 Q1013 NOSIG=
201107260450 METAR COR EGLL 260450Z 35003KT CAVOK 14/12 Q1012 NOSIG=
201107260420 METAR COR EGLL 260420Z 04003KT CAVOK 14/12 Q1012 NOSIG=
201107260350 METAR COR EGLL 260350Z VRB03KT CAVOK 14/12 Q1012 NOSIG=
201107260320 METAR COR EGLL 260320Z 04004KT CAVOK 14/12 Q1012 NOSIG=
201107260250 METAR COR EGLL 260250Z 02003KT CAVOK 14/12 Q1011 NOSIG=
201107260220 METAR EGLL 260220Z NIL=
201107260150 METAR COR EGLL 260150Z 04004KT 9999 FEW045 16/12 Q1011 NOSIG=
201107260120 METAR EGLL 260120Z AUTO 04004KT 9999NDV FEW047/// 16/12 Q1011=
201107260050 METAR EGLL 260050Z AUTO 04004KT 9999NDV NCD 16/12 Q1011=
201107260020 METAR EGLL 260020Z AUTO 06004KT 9999NDV NCD 16/11 Q1011=
201107252350 METAR COR EGLL 252350Z 06003KT CAVOK 16/12 Q1011 NOSIG=
201107252320 METAR COR EGLL 252320Z 10005KT CAVOK 16/12 Q1011 NOSIG=
201107252250 METAR COR EGLL 252250Z 08005KT CAVOK 18/10 Q1011 NOSIG=
201107252220 METAR COR EGLL 252220Z 06006KT CAVOK 18/09 Q1011 NOSIG=
201107252150 METAR COR EGLL 252150Z 06004KT CAVOK 19/08 Q1011 NOSIG=
201107252120 METAR COR EGLL 252120Z 06005KT CAVOK 19/09 Q1011 NOSIG=
201107252050 METAR COR EGLL 252050Z 06005KT CAVOK 19/10 Q1010 NOSIG=
201107252020 METAR COR EGLL 252020Z 07007KT CAVOK 19/10 Q1010 NOSIG=
201107251950 METAR COR EGLL 251950Z 07007KT CAVOK 20/10 Q1010 NOSIG=
201107251920 METAR COR EGLL 251920Z 07007KT CAVOK 21/10 Q1009 NOSIG=
201107251850 METAR COR EGLL 251850Z 08007KT CAVOK 21/10 Q1009 NOSIG=
201107251820 METAR COR EGLL 251820Z 06005KT 020V100 CAVOK 22/09 Q1009
                        NOSIG=
201107251750 METAR COR EGLL 251750Z 04004KT 320V090 CAVOK 23/07 Q1008
                        NOSIG=
201107251720 METAR COR EGLL 251720Z 31005KT 270V340 CAVOK 22/06 Q1008
                        NOSIG=
201107251650 METAR COR EGLL 251650Z 31006KT 270V350 CAVOK 23/06 Q1008
                        NOSIG=
201107251620 METAR COR EGLL 251620Z 30005KT 260V340 CAVOK 23/06 Q1009
                        NOSIG=
201107251550 METAR COR EGLL 251550Z VRB04KT CAVOK 23/07 Q1009 NOSIG=
201107251520 METAR COR EGLL 251520Z 31007KT 280V360 CAVOK 22/07 Q1009
                        NOSIG=
201107251450 METAR COR EGLL 251450Z 31006KT 250V350 CAVOK 22/07 Q1009
                        NOSIG=
201107251420 METAR COR EGLL 251420Z VRB06KT CAVOK 23/07 Q1009 NOSIG=
201107251350 METAR COR EGLL 251350Z 29006KT 240V340 CAVOK 23/07 Q1009
                        NOSIG=
201107251320 METAR COR EGLL 251320Z 34007KT 300V030 CAVOK 22/07 Q1009
                        NOSIG=
201107251250 METAR COR EGLL 251250Z 01005KT 310V090 CAVOK 22/08 Q1009
                        NOSIG=
201107251220 METAR COR EGLL 251220Z 31006KT 260V010 CAVOK 21/07 Q1009
                        NOSIG=
201107251150 METAR COR EGLL 251150Z 32007KT 270V020 CAVOK 21/06 Q1009
                        NOSIG=
201107251120 METAR COR EGLL 251120Z 29006KT 230V340 CAVOK 20/07 Q1009
                        NOSIG=
201107251050 METAR COR EGLL 251050Z 30007KT 270V340 CAVOK 19/08 Q1009
                        NOSIG=
201107251020 METAR COR EGLL 251020Z 30008KT 260V360 CAVOK 19/08 Q1009
                        NOSIG=
201107250950 METAR COR EGLL 250950Z 30008KT 250V350 CAVOK 18/08 Q1009
                        NOSIG=
201107250920 METAR EGLL 250920Z 32007KT CAVOK 17/08 Q1009=
201107250850 METAR COR EGLL 250850Z 30007KT 270V340 CAVOK 18/08 Q1009
                        NOSIG=
201107250820 METAR COR EGLL 250820Z 30007KT 270V340 CAVOK 16/08 Q1009
                        NOSIG=
201107250750 METAR COR EGLL 250750Z 30007KT 260V350 CAVOK 16/08 Q1009
                        NOSIG=
201107250720 METAR COR EGLL 250720Z 29006KT 260V330 CAVOK 15/08 Q1009
                        NOSIG=
201107250650 METAR COR EGLL 250650Z 27007KT CAVOK 14/08 Q1009 NOSIG=
201107250620 METAR COR EGLL 250620Z 27007KT CAVOK 13/08 Q1009 NOSIG=
201107250550 METAR COR EGLL 250550Z 28005KT CAVOK 12/08 Q1009 NOSIG=
201107250520 METAR COR EGLL 250520Z 27005KT CAVOK 12/07 Q1009 NOSIG=
201107250450 METAR COR EGLL 250450Z 26005KT CAVOK 11/07 Q1009 NOSIG=
201107250420 METAR COR EGLL 250420Z 27003KT CAVOK 11/06 Q1009 NOSIG=
201107250350 METAR COR EGLL 250350Z VRB02KT CAVOK 10/06 Q1009 NOSIG=
201107250320 METAR COR EGLL 250320Z 00000KT CAVOK 11/06 Q1009 NOSIG=
201107250250 METAR COR EGLL 250250Z 26002KT CAVOK 12/05 Q1009 NOSIG=
201107250220 METAR COR EGLL 250220Z VRB03KT CAVOK 12/05 Q1009 NOSIG=
201107250150 METAR COR EGLL 250150Z VRB03KT CAVOK 13/05 Q1009 NOSIG=
201107250120 METAR EGLL 250120Z AUTO 32003KT 9999NDV NCD 13/05 Q1009=
201107250050 METAR EGLL 250050Z AUTO 32004KT 9999NDV NCD 13/05 Q1009=
201107250020 METAR EGLL 250020Z AUTO VRB03KT 9999NDV NCD 14/06 Q1009=
201107242350 METAR COR EGLL 242350Z 32004KT CAVOK 15/07 Q1009 NOSIG=
201107242320 METAR COR EGLL 242320Z 29005KT CAVOK 15/13 Q1009 NOSIG=
201107242250 METAR COR EGLL 242250Z 30004KT CAVOK 16/13 Q1009 NOSIG=
201107242220 METAR COR EGLL 242220Z 29007KT CAVOK 16/13 Q1009 NOSIG=
201107242150 METAR COR EGLL 242150Z 29009KT CAVOK 16/13 Q1009 NOSIG=
201107242120 METAR COR EGLL 242120Z 28009KT CAVOK 17/13 Q1009 NOSIG=
201107242050 METAR COR EGLL 242050Z 28009KT CAVOK 18/13 Q1009 NOSIG=
201107242020 METAR COR EGLL 242020Z 29009KT CAVOK 19/12 Q1009 NOSIG=
201107241950 METAR COR EGLL 241950Z 30006KT 270V350 CAVOK 20/10 Q1008
                        NOSIG=
201107241920 METAR COR EGLL 241920Z 36004KT 330V030 CAVOK 22/06 Q1008
                        NOSIG=
201107241850 METAR COR EGLL 241850Z 36004KT 320V040 CAVOK 22/07 Q1008
                        NOSIG=
201107241820 METAR COR EGLL 241820Z 29005KT 250V320 9999 FEW049 22/08
                        Q1008 NOSIG=
201107241750 METAR COR EGLL 241750Z 29006KT 9999 FEW049 21/10 Q1008 NOSIG=
201107241720 METAR EGLL 241720Z 29010KT 9999 FEW049 22/10 Q1008=
201107241650 METAR COR EGLL 241650Z 24010KT 210V270 9999 FEW049 23/12
                        Q1008 NOSIG=
201107241620 METAR COR EGLL 241620Z 25010KT 9999 FEW049 23/11 Q1008 NOSIG=
201107241550 METAR COR EGLL 241550Z 29007KT 260V340 9999 FEW049 23/10
                        Q1009 NOSIG=
201107241520 METAR COR EGLL 241520Z 33008KT 290V010 9999 FEW049 23/08
                        Q1009 NOSIG=
201107241450 METAR COR EGLL 241450Z 31009KT 270V350 9999 FEW049 23/07
                        Q1009 NOSIG=
201107241420 METAR COR EGLL 241420Z 31008KT 260V030 CAVOK 23/06 Q1009
                        NOSIG=
201107241350 METAR COR EGLL 241350Z 29008KT 250V340 CAVOK 22/05 Q1010
                        NOSIG=
201107241320 METAR COR EGLL 241320Z 32008KT 270V360 CAVOK 22/07 Q1010
                        NOSIG=
201107241250 METAR COR EGLL 241250Z 31008KT 280V040 9999 FEW049 21/07
                        Q1010 NOSIG=
201107241220 METAR COR EGLL 241220Z 32007KT 280V020 9999 FEW046 21/07
                        Q1010 NOSIG=
201107241150 METAR COR EGLL 241150Z 28009KT 240V330 9999 FEW046 20/07
                        Q1010 NOSIG=
201107241120 METAR COR EGLL 241120Z 30007KT 260V350 9999 FEW045 20/08
                        Q1010 NOSIG=
201107241050 METAR COR EGLL 241050Z 31006KT 260V020 9999 FEW042 19/08
                        Q1011 NOSIG=
201107241020 METAR COR EGLL 241020Z 32007KT 260V360 9999 FEW031 18/09
                        Q1011 NOSIG=
201107240950 METAR COR EGLL 240950Z 32007KT 270V020 9999 SCT029 17/09
                        Q1011 NOSIG=
201107240920 METAR COR EGLL 240920Z 30009KT 270V350 9999 SCT023 17/10
                        Q1011 NOSIG=
201107240850 METAR COR EGLL 240850Z 30009KT 280V340 9999 FEW029 16/10
                        Q1011 NOSIG=
201107240820 METAR COR EGLL 240820Z 30007KT 270V340 9999 FEW020 16/11
                        Q1011 NOSIG=
201107240750 METAR COR EGLL 240750Z 29009KT 9999 FEW018 15/10 Q1012 NOSIG=
201107240720 METAR COR EGLL 240720Z 29008KT 9999 FEW016 14/10 Q1012 NOSIG=
201107240650 METAR COR EGLL 240650Z 29009KT 9999 FEW012 13/10 Q1012 NOSIG=
201107240620 METAR COR EGLL 240620Z 28009KT CAVOK 12/09 Q1012 NOSIG=
201107240550 METAR COR EGLL 240550Z 27008KT CAVOK 11/09 Q1011 NOSIG=
201107240520 METAR COR EGLL 240520Z 27007KT CAVOK 10/09 Q1011 NOSIG=
201107240450 METAR COR EGLL 240450Z 27007KT CAVOK 10/08 Q1011 NOSIG=
201107240420 METAR COR EGLL 240420Z 27007KT CAVOK 10/08 Q1011 NOSIG=
201107240350 METAR COR EGLL 240350Z 27008KT CAVOK 10/08 Q1011 NOSIG=
201107240320 METAR COR EGLL 240320Z 27007KT CAVOK 10/08 Q1011 NOSIG=
201107240250 METAR COR EGLL 240250Z 28007KT CAVOK 11/08 Q1011 NOSIG=
201107240220 METAR COR EGLL 240220Z 27007KT CAVOK 10/08 Q1012 NOSIG=
201107240150 METAR COR EGLL 240150Z 27007KT CAVOK 10/08 Q1012 NOSIG=
201107240120 METAR EGLL 240120Z AUTO 28008KT 9999NDV NCD 11/08 Q1012=
201107240050 METAR EGLL 240050Z AUTO 27007KT 9999NDV NCD 11/08 Q1012=
201107240020 METAR EGLL 240020Z AUTO 28007KT 9999NDV NCD 12/08 Q1012=
201107232350 METAR COR EGLL 232350Z 29006KT CAVOK 12/08 Q1012 NOSIG=
201107232320 METAR COR EGLL 232320Z 30006KT CAVOK 14/06 Q1012 NOSIG=
201107232250 METAR COR EGLL 232250Z 30007KT CAVOK 15/06 Q1012 NOSIG=
201107232220 METAR COR EGLL 232220Z 29006KT CAVOK 15/07 Q1012 NOSIG=
201107232150 METAR COR EGLL 232150Z 30005KT CAVOK 15/08 Q1012 NOSIG=
201107232120 METAR COR EGLL 232120Z 32005KT CAVOK 16/08 Q1012 NOSIG=
201107232050 METAR COR EGLL 232050Z 31003KT CAVOK 16/08 Q1012 NOSIG=
201107232020 METAR COR EGLL 232020Z 31003KT CAVOK 17/08 Q1011 NOSIG=
201107231950 METAR COR EGLL 231950Z 26004KT 220V320 CAVOK 18/08 Q1011
                        NOSIG=
201107231920 METAR COR EGLL 231920Z 23005KT 200V280 CAVOK 18/09 Q1011
                        NOSIG=
201107231850 METAR COR EGLL 231850Z 26006KT CAVOK 19/08 Q1012 NOSIG=
201107231820 METAR COR EGLL 231820Z 26004KT 210V320 CAVOK 18/09 Q1012
                        NOSIG=
201107231750 METAR COR EGLL 231750Z VRB03KT CAVOK 18/08 Q1012 NOSIG=
201107231720 METAR COR EGLL 231720Z 32005KT 290V360 CAVOK 18/07 Q1012
                        NOSIG=
201107231650 METAR COR EGLL 231650Z 31007KT CAVOK 18/07 Q1012 NOSIG=
201107231620 METAR COR EGLL 231620Z 31007KT 9999 FEW047 18/07 Q1012 NOSIG=
201107231550 METAR COR EGLL 231550Z 32006KT 280V010 9999 SCT047 18/08
                        Q1013 NOSIG=
201107231520 METAR COR EGLL 231520Z 31008KT 9999 SCT047 18/08 Q1013 NOSIG=
201107231450 METAR COR EGLL 231450Z 32008KT 9999 FEW049 18/07 Q1013 NOSIG=
201107231420 METAR COR EGLL 231420Z 30011KT 9999 FEW048 18/07 Q1013 NOSIG=
201107231350 METAR COR EGLL 231350Z 31010KT 9999 FEW048 18/07 Q1013 NOSIG=
201107231320 METAR COR EGLL 231320Z 33008KT 290V010 9999 FEW048 18/06
                        Q1013 NOSIG=
201107231250 METAR COR EGLL 231250Z 33009KT 280V020 9999 FEW046 17/06
                        Q1014 NOSIG=
201107231220 METAR COR EGLL 231220Z 33008KT 290V030 9999 SCT046 17/06
                        Q1014 NOSIG=
201107231150 METAR COR EGLL 231150Z 34008KT 300V010 9999 SCT048 18/06
                        Q1014 NOSIG=
201107231120 METAR COR EGLL 231120Z 35007KT 300V030 9999 FEW042 SCT048
                        17/06 Q1014 NOSIG=
201107231050 METAR COR EGLL 231050Z 32008KT 250V030 9999 FEW048 16/06
                        Q1014 NOSIG=
201107231020 METAR COR EGLL 231020Z 33007KT 270V020 9999 SCT039 16/07
                        Q1014 NOSIG=
201107230950 METAR COR EGLL 230950Z 32010KT 280V350 9999 SCT035 15/07
                        Q1014 NOSIG=
201107230920 METAR COR EGLL 230920Z 31008KT 260V350 9999 SCT030 15/08
                        Q1014 NOSIG=
201107230850 METAR COR EGLL 230850Z 34006KT 290V020 9999 SCT028 15/08
                        Q1015 NOSIG=
201107230820 METAR EGLL 230820Z 36006KT 320V040 9999 FEW035 14/09 Q1015=
201107230750 METAR COR EGLL 230750Z 34006KT 290V030 9999 FEW024 14/08
                        Q1015 NOSIG=
201107230720 METAR COR EGLL 230720Z 35005KT 280V040 9999 FEW021 14/09
                        Q1015 NOSIG=
201107230650 METAR COR EGLL 230650Z 33004KT 280V060 CAVOK 13/10 Q1015
                        NOSIG=
201107230620 METAR COR EGLL 230620Z VRB03KT CAVOK 12/10 Q1015 NOSIG=
201107230550 METAR COR EGLL 230550Z VRB02KT 9999 FEW045 12/09 Q1015 NOSIG=
201107230520 METAR COR EGLL 230520Z VRB02KT 9999 -SHRA FEW039 SCT046 11/09
                        Q1015 TEMPO SHRA=
201107230450 METAR COR EGLL 230450Z 33006KT 9999 FEW012 SCT036 BKN041
                        12/10 Q1015 TEMPO SHRA BKN012=
201107230420 METAR COR EGLL 230420Z VRB03KT 9999 FEW012 SCT027 12/10 Q1015
                        TEMPO SHRA BKN012=
201107230350 METAR COR EGLL 230350Z 05004KT 010V070 9999 FEW012 BKN038
                        12/10 Q1015 TEMPO SHRA BKN012=
201107230320 METAR COR EGLL 230320Z 05004KT 9999 FEW012 SCT036 12/10 Q1015
                        TEMPO SHRA BKN012=
201107230250 METAR COR EGLL 230250Z 04005KT 9999 FEW031 SCT042 12/10 Q1015
                        NOSIG=
201107230220 METAR COR EGLL 230220Z 05005KT 9999 SCT017 12/10 Q1015 TEMPO
                        BKN012=
201107230150 METAR COR EGLL 230150Z 04006KT 9999 FEW009 SCT013 13/10 Q1015
                        TEMPO SHRA BKN012=
201107230120 METAR EGLL 230120Z AUTO 05004KT 020V090 9999NDV FEW008///
                        BKN011/// 13/12 Q1015=
201107230050 METAR EGLL 230050Z AUTO VRB03KT 9000NDV BKN010/// 13/12 Q1015=
201107230020 METAR EGLL 230020Z AUTO VRB03KT 9999NDV FEW010/// 13/12 Q1015=
201107222350 METAR COR EGLL 222350Z 32003KT 9000 -SHRA SCT009 13/12 Q1015
                        TEMPO SHRA=
201107222320 METAR COR EGLL 222320Z 31003KT 8000 SCT011 13/12 Q1016 NOSIG=
201107222250 METAR COR EGLL 222250Z 10002KT 9999 FEW049 13/12 Q1016 NOSIG=
201107222220 METAR COR EGLL 222220Z VRB02KT 9999 VCSH FEW039CB SCT045
                        14/12 Q1016 TEMPO SHRA=
201107222150 METAR COR EGLL 222150Z 05003KT 8000 -SHRA FEW039CB BKN043
                        14/12 Q1016 RESHRA TEMPO 4000 +SHRA=
201107222120 METAR COR EGLL 222120Z 01004KT 340V050 8000 SHRA FEW039CB
                        BKN043 13/12 Q1016 TEMPO 4000 +SHRA=
201107222050 METAR COR EGLL 222050Z 36005KT 9000 -RA SCT040 14/12 Q1016
                        TEMPO 4000 +SHRA=
201107222020 METAR COR EGLL 222020Z 33010KT 290V360 8000 -DZ SCT041 BKN049
                        15/11 Q1016 TEMPO 4000 SHRA=
201107221950 METAR COR EGLL 221950Z 29008KT 270V030 CAVOK 17/09 Q1015
                        TEMPO SHRA=
201107221920 METAR COR EGLL 221920Z 28005KT CAVOK 17/08 Q1015 TEMPO SHRA=
201107221850 METAR COR EGLL 221850Z 29006KT CAVOK 18/07 Q1015 TEMPO SHRA=
201107221820 METAR COR EGLL 221820Z 29005KT 260V320 CAVOK 19/08 Q1015
                        NOSIG=
201107221750 METAR COR EGLL 221750Z 29004KT 250V010 CAVOK 19/07 Q1015
                        NOSIG=
201107221720 METAR COR EGLL 221720Z 28005KT 220V320 CAVOK 19/07 Q1016
                        NOSIG=
201107221650 METAR COR EGLL 221650Z 36005KT 310V050 CAVOK 19/07 Q1016
                        NOSIG=
201107221620 METAR COR EGLL 221620Z 32004KT 270V360 CAVOK 19/07 Q1016
                        NOSIG=
201107221550 METAR COR EGLL 221550Z 35004KT 280V080 CAVOK 19/07 Q1016
                        NOSIG=
201107221520 METAR COR EGLL 221520Z 31007KT 280V360 CAVOK 19/07 Q1016
                        NOSIG=
201107221450 METAR COR EGLL 221450Z 32006KT 290V360 CAVOK 19/07 Q1016
                        NOSIG=
201107221420 METAR COR EGLL 221420Z 02006KT 330V080 CAVOK 19/07 Q1016
                        NOSIG=
201107221350 METAR COR EGLL 221350Z 03007KT 340V070 CAVOK 20/07 Q1017
                        NOSIG=
201107221320 METAR COR EGLL 221320Z 03007KT 320V070 CAVOK 20/07 Q1017
                        NOSIG=
201107221250 METAR COR EGLL 221250Z 36006KT 320V040 CAVOK 21/07 Q1017
                        NOSIG=
201107221220 METAR EGLL 221220Z 34005KT 260V050 CAVOK 19/07 Q1017=
201107221150 METAR COR EGLL 221150Z 03006KT 350V070 9999 FEW047 19/07
                        Q1017 NOSIG=
201107221120 METAR COR EGLL 221120Z 02005KT 320V090 9999 FEW040 19/08
                        Q1017 NOSIG=
201107221050 METAR COR EGLL 221050Z 03005KT 340V110 9999 FEW040 18/09
                        Q1017 NOSIG=
201107221020 METAR COR EGLL 221020Z 01005KT 320V100 9999 SCT031 16/09
                        Q1017 NOSIG=
201107220950 METAR COR EGLL 220950Z 34005KT 290V020 9999 FEW030 17/09
                        Q1017 NOSIG=
201107220920 METAR COR EGLL 220920Z 34006KT 310V010 9999 FEW030 17/09
                        Q1017 NOSIG=
201107220850 METAR COR EGLL 220850Z 36007KT 320V040 9999 FEW026 16/09
                        Q1017 NOSIG=
201107220820 METAR COR EGLL 220820Z 02007KT 350V050 CAVOK 15/09 Q1017
                        NOSIG=
201107220750 METAR COR EGLL 220750Z 36007KT 330V040 CAVOK 15/10 Q1017
                        NOSIG=
201107220720 METAR COR EGLL 220720Z 02006KT 340V050 CAVOK 14/09 Q1017
                        NOSIG=
201107220650 METAR COR EGLL 220650Z 02005KT 320V070 CAVOK 13/09 Q1017
                        NOSIG=
201107220620 METAR COR EGLL 220620Z 01005KT 340V050 CAVOK 12/09 Q1017
                        NOSIG=
201107220550 METAR COR EGLL 220550Z 36005KT 330V030 CAVOK 12/09 Q1017
                        NOSIG=
201107220520 METAR COR EGLL 220520Z 35004KT 320V020 CAVOK 11/09 Q1017
                        NOSIG=
201107220450 METAR COR EGLL 220450Z 35004KT 310V030 CAVOK 11/09 Q1017
                        NOSIG=
201107220420 METAR COR EGLL 220420Z 35004KT 320V040 CAVOK 11/09 Q1017
                        NOSIG=
201107220350 METAR EGLL 220350Z 36003KT CAVOK 11/09 Q1017=
201107220320 METAR COR EGLL 220320Z VRB03KT CAVOK 11/10 Q1017 TEMPO BKN013=
201107220250 METAR COR EGLL 220250Z 36003KT CAVOK 11/10 Q1017 NOSIG=
201107220220 METAR COR EGLL 220220Z 36004KT CAVOK 12/10 Q1017 NOSIG=
201107220150 METAR EGLL 220150Z 36005KT CAVOK 12/10 Q1016=
201107220120 METAR EGLL 220120Z AUTO 36004KT 9999NDV NCD 12/10 Q1016=
201107220050 METAR EGLL 220050Z AUTO VRB03KT 9999NDV NCD 12/11 Q1016=
201107220020 METAR EGLL 220020Z AUTO 36004KT 9999NDV NCD 13/11 Q1016=
201107212350 METAR COR EGLL 212350Z 36004KT CAVOK 13/11 Q1016 NOSIG=
201107212320 METAR COR EGLL 212320Z 36004KT CAVOK 14/11 Q1016 NOSIG=
201107212250 METAR COR EGLL 212250Z VRB03KT CAVOK 14/11 Q1016 NOSIG=
201107212220 METAR COR EGLL 212220Z 01004KT 340V070 CAVOK 14/11 Q1016
                        NOSIG=
201107212150 METAR COR EGLL 212150Z 03004KT 350V080 CAVOK 15/11 Q1016
                        NOSIG=
201107212120 METAR EGLL 212120Z VRB03KT CAVOK 15/11 Q1016=
201107212050 METAR COR EGLL 212050Z VRB03KT CAVOK 16/12 Q1015 NOSIG=
201107212020 METAR COR EGLL 212020Z 05004KT 9999 BKN045 16/12 Q1015 NOSIG=
201107211950 METAR COR EGLL 211950Z 04005KT 9999 BKN037 16/12 Q1015 NOSIG=
201107211920 METAR COR EGLL 211920Z 04005KT 360V090 9999 BKN034 BKN040
                        16/12 Q1015 NOSIG=
201107211850 METAR COR EGLL 211850Z 05006KT 020V090 9999 FEW012 SCT033
                        16/13 Q1015 NOSIG=
201107211820 METAR COR EGLL 211820Z 06006KT 9999 FEW012 SCT045 16/13 Q1014
                        TEMPO SHRA=
201107211750 METAR COR EGLL 211750Z 05005KT 9999 FEW015 SCT048 16/14 Q1014
                        TEMPO SHRA=
201107211720 METAR COR EGLL 211720Z 04005KT 350V080 9999 FEW015 16/14
                        Q1014 TEMPO SHRA=
201107211650 METAR COR EGLL 211650Z 06004KT 9999 FEW015 16/14 Q1014 TEMPO
                        SHRA=
201107211620 METAR COR EGLL 211620Z 04005KT 010V090 9999 -SHRA SCT042
                        BKN048 16/14 Q1014 TEMPO 4500 +SHRA=
201107211550 METAR COR EGLL 211550Z 02006KT 340V060 9999 4500E RA FEW015
                        SCT020 BKN043 16/13 Q1014 TEMPO 4000
                        +SHRA=
201107211520 METAR COR EGLL 211520Z 36006KT 330V040 9999 -SHRA FEW015
                        SCT020 BKN040 17/13 Q1013 RERA TEMPO
                        SHRA=
201107211450 METAR COR EGLL 211450Z 35006KT 310V010 9999 FEW020 SCT045
                        17/14 Q1013 TEMPO SHRA=
201107211420 METAR COR EGLL 211420Z 31004KT 9999 -SHRA SCT034 18/13 Q1013
                        TEMPO SHRA=
201107211350 METAR COR EGLL 211350Z VRB03KT 9999 VCSH SCT030 17/13 Q1013
                        TEMPO SHRA=
201107211320 METAR EGLL 211320Z 31004KT 270V020 9999 VCSH SCT030 SCT034
                        18/12 Q1013=
201107211250 METAR COR EGLL 211250Z 10004KT 040V170 9999 SCT026 BKN047
                        18/12 Q1013 NOSIG=
201107211220 METAR COR EGLL 211220Z 07004KT 350V120 9999 SCT026 BKN047
                        18/12 Q1013 NOSIG=
201107211150 METAR COR EGLL 211150Z VRB03KT 9999 SCT023 BKN046 18/12 Q1013
                        NOSIG=
201107211120 METAR COR EGLL 211120Z 35005KT 300V030 9999 BKN020 BKN030
                        17/12 Q1013 NOSIG=
201107211050 METAR COR EGLL 211050Z 02005KT 320V070 9999 BKN022 17/13
                        Q1013 NOSIG=
201107211020 METAR COR EGLL 211020Z 35005KT 320V100 9999 FEW014 BKN017
                        17/13 Q1013 NOSIG=
201107210950 METAR COR EGLL 210950Z 01005KT 320V050 9999 SCT013 BKN040
                        16/13 Q1013 NOSIG=
201107210920 METAR COR EGLL 210920Z 01005KT 340V060 9999 SCT012 BKN040
                        16/13 Q1013 NOSIG=
201107210850 METAR COR EGLL 210850Z 03005KT 340V070 9999 SCT013 SCT027
                        15/13 Q1012 TEMPO BKN013=
201107210820 METAR COR EGLL 210820Z 03005KT 340V080 9999 FEW013 SCT030
                        BKN039 16/13 Q1012 TEMPO BKN012=
201107210750 METAR COR EGLL 210750Z 36005KT 330V050 9999 FEW021 SCT030
                        BKN043 15/13 Q1012 TEMPO BKN012=
201107210720 METAR COR EGLL 210720Z 03004KT 350V060 9999 SCT026 SCT043
                        15/13 Q1012 TEMPO BKN012=
201107210650 METAR COR EGLL 210650Z VRB03KT 9999 BKN030 14/12 Q1012 TEMPO
                        BKN014=
201107210620 METAR COR EGLL 210620Z VRB03KT 9999 FEW028 BKN035 14/12 Q1011
                        TEMPO BKN012=
201107210550 METAR COR EGLL 210550Z 36004KT 9999 BKN034 14/12 Q1011 NOSIG=
201107210520 METAR COR EGLL 210520Z 35003KT 9999 SCT038 BKN048 14/12 Q1011
                        NOSIG=
201107210450 METAR COR EGLL 210450Z VRB02KT 9999 BKN032 14/12 Q1011 NOSIG=
201107210420 METAR COR EGLL 210420Z 35003KT 9999 SCT036 BKN042 14/12 Q1010
                        NOSIG=
201107210350 METAR COR EGLL 210350Z VRB03KT 9999 SCT037 BKN044 14/12 Q1010
                        NOSIG=
201107210320 METAR COR EGLL 210320Z 36003KT 9999 FEW046 14/12 Q1010 NOSIG=
201107210250 METAR COR EGLL 210250Z 34002KT 9999 FEW046 14/12 Q1010 NOSIG=
201107210220 METAR COR EGLL 210220Z VRB03KT 9999 FEW035 SCT042 14/12 Q1010
                        NOSIG=
201107210150 METAR COR EGLL 210150Z 31002KT 9999 BKN032 14/13 Q1010 NOSIG=
201107210120 METAR EGLL 210120Z AUTO 31002KT 9999NDV BKN035/// BKN048///
                        14/13 Q1010=
201107210050 METAR EGLL 210050Z AUTO 32002KT 9999NDV BKN033/// BKN042///
                        14/13 Q1010=
201107210020 METAR EGLL 210020Z AUTO 35002KT 9999NDV SCT034/// 14/13 Q1010=
201107202350 METAR COR EGLL 202350Z 36003KT CAVOK 14/13 Q1010 TEMPO BKN012=
201107202320 METAR COR EGLL 202320Z 04003KT 9999 SCT048 14/13 Q1010 TEMPO
                        BKN012=
201107202250 METAR COR EGLL 202250Z 06002KT 9999 FEW045 14/13 Q1010 TEMPO
                        BKN010=
201107202220 METAR COR EGLL 202220Z 04002KT 9999 FEW012 BKN048 14/13 Q1010
                        TEMPO BKN010=
201107202150 METAR EGLL 202150Z 04003KT 9999 -RA FEW010 BKN040 14/13 Q1010=
201107202120 METAR COR EGLL 202120Z 04002KT 9999 -RA SCT042 14/13 Q1010
                        NOSIG=
201107202050 METAR COR EGLL 202050Z VRB02KT 9999 -RA BKN042 14/12 Q1010
                        NOSIG=
201107202020 METAR COR EGLL 202020Z VRB02KT 9999 -RA SCT041 14/12 Q1010
                        NOSIG=
201107201950 METAR COR EGLL 201950Z 33002KT 9999 -RA FEW022 14/12 Q1010
                        NOSIG=
201107201920 METAR COR EGLL 201920Z 32003KT 9999 -RA SCT022 14/12 Q1010
                        NOSIG=
201107201850 METAR COR EGLL 201850Z 31004KT 9999 -RA SCT016 SCT020 14/12
                        Q1010 NOSIG=
201107201820 METAR COR EGLL 201820Z 36004KT 9999 -SHRA SCT018 15/12 Q1010
                        TEMPO SHRA=
201107201750 METAR COR EGLL 201750Z 21007KT 180V250 9999 VCSH SCT022 16/12
                        Q1009 NOSIG=
201107201720 METAR COR EGLL 201720Z 19007KT 160V240 9999 VCSH FEW022 SCT041
                        16/13 Q1009 NOSIG=
201107201650 METAR COR EGLL 201650Z 18007KT 140V240 9999 FEW020 SCT030
                        16/12 Q1009 NOSIG=
201107201620 METAR COR EGLL 201620Z 20005KT 140V270 9999 FEW030 17/11
                        Q1009 NOSIG=
201107201550 METAR COR EGLL 201550Z 22006KT 140V290 9999 FEW020 SCT030
                        17/11 Q1009 NOSIG=
201107201520 METAR COR EGLL 201520Z 22005KT 140V270 9999 FEW020 SCT030
                        17/12 Q1009 NOSIG=
201107201450 METAR COR EGLL 201450Z 24009KT 9999 FEW020 SCT030 17/12 Q1009
                        TEMPO RA=
201107201420 METAR COR EGLL 201420Z 25009KT 210V280 9999 FEW021 SCT032
                        17/13 Q1009 TEMPO SHRA=
201107201350 METAR COR EGLL 201350Z 26007KT 220V280 9999 -SHRA FEW025
                        SCT034 17/12 Q1009 TEMPO SHRA=
201107201320 METAR COR EGLL 201320Z 22010KT 9999 SCT029 SCT034 17/12 Q1009
                        NOSIG=
201107201250 METAR COR EGLL 201250Z 20006KT 160V230 9999 FEW030 SCT040
                        17/11 Q1009 TEMPO RA=
201107201220 METAR COR EGLL 201220Z 19006KT 120V240 9999 SCT030 18/11
                        Q1009 TEMPO RA=
201107201150 METAR COR EGLL 201150Z 19006KT 150V240 9999 SCT030 18/11
                        Q1009 TEMPO RA=
201107201120 METAR COR EGLL 201120Z 22006KT 190V260 9999 SCT027 17/11
                        Q1009 NOSIG=
201107201050 METAR COR EGLL 201050Z VRB03KT 9999 FEW028 18/11 Q1009 NOSIG=
201107201020 METAR COR EGLL 201020Z 20005KT 130V250 9999 FEW020 17/12
                        Q1009 NOSIG=
201107200950 METAR COR EGLL 200950Z 22006KT 160V280 9999 FEW020 17/13
                        Q1009 NOSIG=
201107200920 METAR COR EGLL 200920Z 21007KT 170V250 9999 FEW020 16/12
                        Q1009 NOSIG=
201107200850 METAR COR EGLL 200850Z 23006KT 9999 FEW015 15/12 Q1009 NOSIG=
201107200820 METAR COR EGLL 200820Z 19005KT 150V240 9999 BKN049 15/12
                        Q1009 NOSIG=
201107200750 METAR COR EGLL 200750Z 22005KT 200V260 9999 OVC049 15/12
                        Q1009 NOSIG=
201107200720 METAR COR EGLL 200720Z 25004KT 220V300 9999 OVC049 14/11
                        Q1009 NOSIG=
201107200650 METAR COR EGLL 200650Z 23005KT 9999 OVC048 14/11 Q1009 NOSIG=
201107200620 METAR COR EGLL 200620Z 30004KT 230V330 9999 OVC048 14/11
                        Q1009 NOSIG=
201107200550 METAR COR EGLL 200550Z 27007KT 220V290 9999 OVC048 14/11
                        Q1009 NOSIG=
201107200520 METAR COR EGLL 200520Z 25007KT 9999 OVC047 14/11 Q1009 NOSIG=
201107200450 METAR COR EGLL 200450Z 24005KT 9999 BKN049 14/11 Q1009 NOSIG=
201107200420 METAR COR EGLL 200420Z 24002KT CAVOK 13/11 Q1008 NOSIG=
201107200350 METAR COR EGLL 200350Z 25004KT CAVOK 13/11 Q1008 NOSIG=
201107200320 METAR COR EGLL 200320Z 28004KT 9999 FEW046 13/11 Q1008 NOSIG=
201107200250 METAR COR EGLL 200250Z 28005KT CAVOK 13/11 Q1008 NOSIG=
201107200220 METAR COR EGLL 200220Z 28005KT CAVOK 13/11 Q1008 NOSIG=
201107200150 METAR EGLL 200150Z AUTO 28004KT 9999NDV SCT049/// 12/11 Q1008=
201107200120 METAR EGLL 200120Z AUTO 30003KT 9999NDV NCD 13/11 Q1008=
201107200050 METAR EGLL 200050Z AUTO 30004KT 9999NDV FEW036/// 13/11 Q1008=
201107200020 METAR COR EGLL 200020Z AUTO 30004KT 9999NDV SCT036/// 13/11
                        Q1008 NOSIG=
201107192350 METAR COR EGLL 192350Z 29004KT 9999 SCT040 13/11 Q1008 NOSIG=
201107192320 METAR COR EGLL 192320Z 29004KT 9999 FEW042 13/11 Q1008 NOSIG=
201107192250 METAR COR EGLL 192250Z 31003KT 9999 FEW040 14/11 Q1008 NOSIG=
201107192220 METAR COR EGLL 192220Z 32004KT 290V360 9999 SCT034 15/12
                        Q1008 NOSIG=
201107192150 METAR COR EGLL 192150Z 33004KT 290V030 9999 FEW015 BKN027
                        16/13 Q1008 RERA NOSIG=
201107192120 METAR COR EGLL 192120Z VRB02KT 9999 -RA FEW010 BKN036 16/14
                        Q1007 NOSIG=
201107192050 METAR COR EGLL 192050Z VRB02KT 9999 FEW015 BKN034 17/14 Q1007
                        RESHRA NOSIG=
201107192020 METAR COR EGLL 192020Z 28003KT 6000 SHRA FEW009 SCT022 BKN038
                        16/14 Q1007 RESHRA NOSIG=
201107191950 METAR COR EGLL 191950Z VRB03KT 9999 -SHRA FEW012 BKN033 17/14
                        Q1006 NOSIG=
201107191920 METAR COR EGLL 191920Z VRB05KT 9999 FEW012 SCT033 17/14 Q1006
                        NOSIG=
201107191850 METAR COR EGLL 191850Z 19005KT 150V250 9999 VCSH FEW018 SCT042CB
                        17/14 Q1006 NOSIG=
201107191820 METAR COR EGLL 191820Z 19007KT 150V260 9999 VCSH FEW010 SCT040TCU
                        17/14 Q1005 NOSIG=
201107191750 METAR COR EGLL 191750Z 19007KT 140V260 9999 VCSH FEW013 SCT042TCU
                        17/15 Q1005 RESHRA NOSIG=
201107191720 METAR COR EGLL 191720Z 19004KT 130V290 7000 SHRA FEW010 SCT029
                        BKN041CB 17/14 Q1005 BECMG NSW=
201107191650 METAR COR EGLL 191650Z 18006KT 140V230 9999 VCSH FEW010CB
                        SCT030 17/14 Q1005 NOSIG=
201107191620 METAR COR EGLL 191620Z 19010KT 150V240 9999 VCSH FEW010CB
                        SCT026 BKN030 17/14 Q1005 TEMPO SHRA=
201107191550 METAR COR EGLL 191550Z 08005KT 020V170 5000 SHRA FEW013 BKN020
                        BKN034CB 18/14 Q1005 TEMPO NSW=
201107191520 METAR COR EGLL 191520Z 18007KT 130V250 9999 -SHRA FEW020
                        SCT038 19/15 Q1004 RERA TEMPO SHRA=
201107191450 METAR COR EGLL 191450Z 18006KT 120V260 9999 VCSH FEW012 SCT040
                        18/14 Q1004 TEMPO SHRA=
201107191420 METAR COR EGLL 191420Z 19006KT 130V250 9999 SCT025 19/13
                        Q1004 TEMPO SHRA=
201107191350 METAR COR EGLL 191350Z 17004KT 090V230 9999 FEW010 SCT022
                        19/14 Q1004 TEMPO SHRA=
201107191320 METAR COR EGLL 191320Z VRB03KT 9999 VCSH FEW012 SCT025 18/13
                        Q1004 RESHRA TEMPO SHRA=
201107191250 METAR COR EGLL 191250Z VRB02KT 9999 4000E SHRA FEW012 SCT025
                        15/13 Q1004 BECMG -SHRA=
201107191220 METAR COR EGLL 191220Z 22005KT 150V260 9999 VCSH SCT024 SCT029
                        20/12 Q1003 TEMPO SHRA=
201107191150 METAR EGLL 191150Z 19004KT 120V270 9999 FEW023 SCT036 18/12
                        Q1003 TEMPO SHRA=
201107191120 METAR COR EGLL 191120Z 22004KT 150V280 9999 FEW023 SCT027
                        18/12 Q1003 TEMPO SHRA=
201107191050 METAR COR EGLL 191050Z VRB03KT 9999 FEW023 18/12 Q1003 NOSIG=
201107191020 METAR COR EGLL 191020Z 23005KT 160V290 9999 FEW016 17/12
                        Q1003 NOSIG=
201107190950 METAR COR EGLL 190950Z 29004KT 240V340 9999 SCT012 15/12
                        Q1003 NOSIG=
201107190920 METAR COR EGLL 190920Z 26004KT 200V320 9999 BKN012 15/12
                        Q1003 BECMG SCT018=
201107190850 METAR COR EGLL 190850Z 24006KT 9999 BKN008 14/11 Q1003 BECMG
                        SCT015=
201107190820 METAR COR EGLL 190820Z 26004KT 200V320 9999 BKN007 13/11
                        Q1003 BECMG BKN012=
201107190750 METAR COR EGLL 190750Z 23005KT 200V260 9999 BKN007 13/11
                        Q1003 BECMG BKN013=
201107190720 METAR COR EGLL 190720Z 25006KT 9999 BKN006 13/11 Q1003 BECMG
                        BKN012=
201107190650 METAR COR EGLL 190650Z 29005KT 9999 FEW005 BKN007 BKN009
                        12/11 Q1002 BECMG BKN014=
201107190620 METAR COR EGLL 190620Z 26005KT 220V290 9000 FEW004 BKN006
                        BKN008 12/11 Q1002 BECMG BKN012=
201107190550 METAR COR EGLL 190550Z 28004KT 220V320 7000 FEW003 BKN004
                        OVC006 12/11 Q1002 NOSIG=
201107190520 METAR COR EGLL 190520Z 25005KT 200V280 7000 FEW003 OVC004
                        12/11 Q1002 NOSIG=
201107190450 METAR COR EGLL 190450Z 28003KT 9999 FEW004 OVC005 12/11 Q1001
                        TEMPO SCT007=
201107190420 METAR COR EGLL 190420Z 26006KT 9999 FEW004 BKN005 11/10 Q1001
                        TEMPO SCT007=
201107190350 METAR COR EGLL 190350Z 21005KT 9999 FEW004 BKN006 12/11 Q1001
                        TEMPO SCT008=
201107190320 METAR COR EGLL 190320Z 20004KT 9000 FEW007 11/10 Q1001 NOSIG=
201107190250 METAR COR EGLL 190250Z 23004KT 9999 FEW007 11/11 Q1000 NOSIG=
201107190220 METAR COR EGLL 190220Z 23006KT 9999 SCT007 12/11 Q1000 NOSIG=
201107190150 METAR COR EGLL 190150Z 21004KT 9999 FEW007 12/11 Q1000 NOSIG=
201107190120 METAR EGLL 190120Z AUTO 22005KT 9999NDV NCD 12/11 Q1000=
201107190050 METAR EGLL 190050Z AUTO 22005KT 9999NDV FEW005/// 12/11 Q1000=
201107190020 METAR EGLL 190020Z AUTO 21005KT 9999NDV NCD 13/11 Q1000=
201107182350 METAR COR EGLL 182350Z 22006KT 9999 FEW014 13/12 Q1000 NOSIG=
201107182320 METAR COR EGLL 182320Z 22006KT 9999 FEW014 13/12 Q1000 NOSIG=
201107182250 METAR COR EGLL 182250Z 22007KT 9999 FEW014 13/12 Q1000 NOSIG=
201107182220 METAR EGLL 182220Z 23009KT 9999 -RA NSC 13/12 Q1000=
201107182150 METAR COR EGLL 182150Z 24010KT 200V270 9999 -RA FEW014 13/12
                        Q1000 NOSIG=
201107182120 METAR COR EGLL 182120Z 23009KT 190V260 9999 FEW014 13/12
                        Q1000 NOSIG=
201107182050 METAR COR EGLL 182050Z 23010KT 9999 -SHRA FEW014 14/12 Q1000
                        NOSIG=
201107182020 METAR COR EGLL 182020Z 25011KT 9999 -SHRA FEW014 14/12 Q0999
                        NOSIG=
201107181950 METAR COR EGLL 181950Z 23010KT 9999 FEW014 14/12 Q0999 NOSIG=
201107181920 METAR COR EGLL 181920Z 24009KT 200V260 9999 -SHRA FEW010
                        SCT040 14/13 Q0999 NOSIG=
201107181850 METAR COR EGLL 181850Z 23010KT 190V260 9000 SHRA FEW012 BKN040
                        14/13 Q0999 NOSIG=
201107181820 METAR COR EGLL 181820Z 22011KT 9999 -SHRA SCT021 BKN040 15/13
                        Q0998 RERA TEMPO SHRA=
201107181750 METAR COR EGLL 181750Z 23011KT 9999 -SHRA FEW014 SCT022 15/13
                        Q0998 TEMPO SHRA=
201107181720 METAR COR EGLL 181720Z 23013KT 9999 VCSH FEW010 BKN020 15/13
                        Q0998 TEMPO SHRA=
201107181650 METAR COR EGLL 181650Z 21013KT 9999 VCSH FEW016 SCT030 16/13
                        Q0998 TEMPO +SHRA=
201107181620 METAR COR EGLL 181620Z 22011KT 190V250 9999 VCSH FEW017 SCT042
                        17/13 Q0998 TEMPO SHRA=
201107181550 METAR COR EGLL 181550Z 23010KT 200V260 9999 VCSH FEW010 SCT022
                        16/13 Q0998 RESHRA TEMPO SHRA=
201107181520 METAR COR EGLL 181520Z 23015KT 9999 -SHRA SCT020 BKN042 17/13
                        Q0998 RESHRA TEMPO SHRA=
201107181450 METAR COR EGLL 181450Z 23012KT 190V260 9999 SCT020 17/13
                        Q0998 TEMPO SHRA=
201107181420 METAR COR EGLL 181420Z 23013KT 9999 -RA SCT025 SCT030 17/12
                        Q0998 TEMPO SHRA=
201107181350 METAR COR EGLL 181350Z 23014KT 200V260 9999 FEW026 SCT045
                        18/12 Q0997 TEMPO SHRA=
201107181320 METAR COR EGLL 181320Z 24015KT 9999 FEW025 SCT049 18/12 Q0997
                        TEMPO SHRA=
201107181250 METAR COR EGLL 181250Z 23014KT 200V260 9999 SCT023 SCT047
                        18/12 Q0997 NOSIG=
201107181220 METAR COR EGLL 181220Z 22013KT 9999 SCT021 SCT025 19/12 Q0997
                        NOSIG=
201107181150 METAR COR EGLL 181150Z 22013KT 9999 SCT023 SCT031 BKN043
                        18/12 Q0997 NOSIG=
201107181120 METAR COR EGLL 181120Z 25013KT 210V270 9999 SCT021 SCT031
                        18/12 Q0997 NOSIG=
201107181050 METAR COR EGLL 181050Z 25015KT 9999 SCT022 19/12 Q0997 NOSIG=
201107181020 METAR COR EGLL 181020Z 25015KT 9999 FEW025 BKN032 17/11 Q0997
                        NOSIG=
201107180950 METAR COR EGLL 180950Z 24017KT 9999 FEW028 BKN039 17/12 Q0997
                        NOSIG=
201107180920 METAR COR EGLL 180920Z 25015KT 9999 FEW018 BKN025 15/11 Q0997
                        NOSIG=
201107180850 METAR COR EGLL 180850Z 24014KT 9999 FEW017 SCT025 15/11 Q0997
                        NOSIG=
201107180820 METAR COR EGLL 180820Z 24016KT 9999 FEW016 SCT022 BKN027
                        15/11 Q0997 NOSIG=
201107180750 METAR COR EGLL 180750Z 24013KT 9999 SCT016 BKN022 15/11 Q0996
                        NOSIG=
201107180720 METAR COR EGLL 180720Z 24014KT 9999 SCT017 SCT022 14/11 Q0996
                        NOSIG=
201107180650 METAR COR EGLL 180650Z 25015KT 9999 FEW016 BKN029 14/11 Q0996
                        NOSIG=
201107180620 METAR COR EGLL 180620Z 25015KT 9999 FEW016 SCT038 14/11 Q0996
                        NOSIG=
201107180550 METAR COR EGLL 180550Z 25014KT 9999 FEW017 SCT035 14/11 Q0996
                        NOSIG=
201107180520 METAR COR EGLL 180520Z 25014KT 9999 FEW018 BKN040 14/11 Q0995
                        NOSIG=
201107180450 METAR COR EGLL 180450Z 25014KT 9999 FEW020 BKN040 14/11 Q0995
                        NOSIG=
201107180420 METAR COR EGLL 180420Z 25015KT 9999 SCT030 BKN040 14/11 Q0995
                        NOSIG=
201107180350 METAR COR EGLL 180350Z 25014KT 9999 BKN034 BKN048 14/11 Q0995
                        NOSIG=
201107180320 METAR COR EGLL 180320Z 25014KT 9999 BKN036 BKN046 14/11 Q0995
                        NOSIG=
201107180250 METAR COR EGLL 180250Z 25013KT 9999 BKN036 14/11 Q0995 NOSIG=
201107180220 METAR COR EGLL 180220Z 25014KT 9999 BKN035 14/11 Q0995 TEMPO
                        SHRA=
201107180150 METAR COR EGLL 180150Z 25014KT 9999 BKN037 14/12 Q0995 TEMPO
                        SHRA=
201107180120 METAR EGLL 180120Z AUTO 25015KT 9999NDV BKN036/// 14/11 Q0995=
201107180050 METAR EGLL 180050Z AUTO 25015KT 9999NDV FEW016/// OVC033///
                        14/12 Q0995=
201107180020 METAR EGLL 180020Z AUTO 25013KT 9999NDV FEW016/// BKN032///
                        14/12 Q0995=
201107172350 METAR COR EGLL 172350Z 25012KT 9999 SCT035 14/12 Q0995 NOSIG=
201107172320 METAR COR EGLL 172320Z 25012KT 9999 FEW020 14/12 Q0995 NOSIG=
201107172250 METAR COR EGLL 172250Z 25012KT 9999 -SHRA FEW015 14/12 Q0995
                        TEMPO SHRA=
201107172220 METAR COR EGLL 172220Z 25013KT 9999 -SHRA FEW018 14/12 Q0995
                        TEMPO SHRA=
201107172150 METAR COR EGLL 172150Z 25016KT 9999 FEW036 15/12 Q0995 TEMPO
                        SHRA=
201107172120 METAR COR EGLL 172120Z 25015KT 9999 FEW020 15/12 Q0995 TEMPO
                        SHRA=
201107172050 METAR COR EGLL 172050Z 25015KT 9999 FEW036 15/12 Q0995 TEMPO
                        SHRA=
201107172020 METAR COR EGLL 172020Z 24013KT CAVOK 15/13 Q0995 TEMPO SHRA=
201107171950 METAR COR EGLL 171950Z 25015KT 9999 FEW025 15/12 Q0994 TEMPO
                        SHRA=
201107171920 METAR COR EGLL 171920Z 26017KT 9999 -SHRA SCT030 16/12 Q0994
                        TEMPO SHRA=
201107171850 METAR COR EGLL 171850Z 26019KT 9999 FEW032 17/11 Q0994 TEMPO
                        SHRA=
201107171820 METAR COR EGLL 171820Z 25017KT 9999 FEW031 17/11 Q0994 NOSIG=
201107171750 METAR COR EGLL 171750Z 25015KT 9999 FEW030 18/11 Q0994 NOSIG=
201107171720 METAR COR EGLL 171720Z 25014KT 9999 FEW022 18/12 Q0994 NOSIG=
201107171650 METAR COR EGLL 171650Z 25017KT 9999 SCT038 18/12 Q0994 NOSIG=
201107171620 METAR COR EGLL 171620Z 26013KT 9999 SCT032 18/12 Q0994 NOSIG=
201107171550 METAR COR EGLL 171550Z 26015KT 9999 FEW038 18/12 Q0993 NOSIG=
201107171520 METAR COR EGLL 171520Z 26020KT 9999 FEW020CB SCT030 18/13
                        Q0993 NOSIG=
201107171450 METAR COR EGLL 171450Z 24013KT 9999 FEW018CB BKN024 19/15
                        Q0993 NOSIG=
201107171420 METAR COR EGLL 171420Z 26014KT 9999 FEW016CB BKN025 18/14
                        Q0993 NOSIG=
201107171350 METAR COR EGLL 171350Z 28010KT 9999 -SHRA FEW016CB SCT025
                        16/13 Q0993 TEMPO SHRA=
201107171320 METAR COR EGLL 171320Z 27012KT 230V300 9999 VCSH FEW015CB
                        BKN020 19/14 Q0993 TEMPO SHRA=
201107171250 METAR COR EGLL 171250Z 28008KT 9999 VCSH FEW015CB SCT018
                        15/14 Q0992 TEMPO SHRA=
201107171220 METAR COR EGLL 171220Z 27010KT 230V290 9999 4000W SHRA SCT015CB
                        BKN018 17/13 Q0992 TEMPO SHRA=
201107171150 METAR COR EGLL 171150Z 24015G25KT 9999 VCSH SCT014CB BKN022
                        17/14 Q0992 TEMPO SHRA=
201107171120 METAR COR EGLL 171120Z 23011KT 200V260 9999 VCSH SCT012 BKN036
                        17/14 Q0992 TEMPO SHRA BKN012=
201107171050 METAR EGLL 171050Z 24012KT 200V260 7000 SHRA SCT021 BKN035
                        15/13 Q0992=
201107171020 METAR COR EGLL 171020Z 24012KT 8000 VCSH SCT028 BKN031 16/13
                        Q0992 TEMPO SHRA=
201107170950 METAR COR EGLL 170950Z 23013KT 9999 VCSH SCT025 BKN029 17/12
                        Q0992 NOSIG=
201107170920 METAR COR EGLL 170920Z 23012KT 9999 SCT021 SCT026 17/12 Q0993
                        NOSIG=
201107170850 METAR COR EGLL 170850Z 22013KT 190V250 9999 SCT021 BKN026
                        16/11 Q0993 NOSIG=
201107170820 METAR COR EGLL 170820Z 23013KT 9999 VCSH BKN021 16/11 Q0993
                        TEMPO SHRA=
201107170750 METAR COR EGLL 170750Z 22011KT 9999 SCT021 SCT047 15/11 Q0993
                        NOSIG=
201107170720 METAR COR EGLL 170720Z 22012KT 9999 FEW018 SCT048 15/11 Q0993
                        NOSIG=
201107170650 METAR COR EGLL 170650Z 22011KT 9999 FEW020 14/11 Q0993 TEMPO
                        BKN014=
201107170620 METAR EGLL 170620Z 22011KT 9999 FEW018 14/11 Q0994=
201107170550 METAR COR EGLL 170550Z 22010KT 9999 FEW015 14/11 Q0994 TEMPO
                        -SHRA BKN014=
201107170520 METAR COR EGLL 170520Z 22009KT 9999 FEW015 14/11 Q0994 TEMPO
                        -SHRA BKN014=
201107170450 METAR COR EGLL 170450Z 22008KT 190V270 9999 FEW015 13/11
                        Q0994 TEMPO -SHRA BKN014=
201107170420 METAR COR EGLL 170420Z 22010KT CAVOK 13/11 Q0994 TEMPO -SHRA
                        BKN014=
201107170350 METAR COR EGLL 170350Z 22010KT CAVOK 13/11 Q0994 TEMPO -SHRA
                        BKN014=
201107170320 METAR COR EGLL 170320Z 23009KT CAVOK 13/10 Q0994 TEMPO -SHRA
                        BKN014=
201107170250 METAR COR EGLL 170250Z 23010KT CAVOK 13/10 Q0994 TEMPO -SHRA
                        BKN014=
201107170220 METAR COR EGLL 170220Z 23012KT 9999 FEW043 13/10 Q0994 TEMPO
                        -SHRA BKN014=
201107170150 METAR COR EGLL 170150Z 24012KT 9999 SCT044 13/10 Q0994 NOSIG=
201107170120 METAR EGLL 170120Z AUTO 24011KT 9999NDV -RA NCD 13/10 Q0995=
201107170050 METAR EGLL 170050Z AUTO 23011KT 9999NDV NCD 13/10 Q0995=
201107170020 METAR EGLL 170020Z AUTO 23010KT 9999NDV NCD 13/10 Q0995=
201107162350 METAR EGLL 162350Z 22007KT CAVOK 13/10 Q0995=
201107162320 METAR COR EGLL 162320Z 23009KT CAVOK 13/10 Q0995 NOSIG=
201107162250 METAR COR EGLL 162250Z 25010KT CAVOK 13/09 Q0995 NOSIG=
201107162220 METAR COR EGLL 162220Z 24010KT CAVOK 13/09 Q0995 NOSIG=
201107162150 METAR COR EGLL 162150Z 25011KT CAVOK 13/09 Q0995 NOSIG=
201107162120 METAR COR EGLL 162120Z 25011KT CAVOK 14/09 Q0995 NOSIG=
201107162050 METAR COR EGLL 162050Z 25012KT CAVOK 14/10 Q0995 NOSIG=
201107162020 METAR COR EGLL 162020Z 24010KT 9999 FEW017 14/10 Q0995 NOSIG=
201107161950 METAR COR EGLL 161950Z 24011KT 9999 FEW017 15/10 Q0995 NOSIG=
201107161920 METAR COR EGLL 161920Z 24013KT 9999 FEW017 16/10 Q0995 NOSIG=
201107161850 METAR COR EGLL 161850Z 24013KT 9999 FEW015 17/12 Q0995 NOSIG=
201107161820 METAR COR EGLL 161820Z 23012KT 9999 SCT020 17/13 Q0995 NOSIG=
201107161750 METAR COR EGLL 161750Z 25011KT 9999 FEW020 SCT048 17/13 Q0995
                        NOSIG=
201107161720 METAR EGLL 161720Z NIL=
201107161650 METAR COR EGLL 161650Z 24014KT 9999 VCSH FEW029 SCT045 16/14
                        Q0995 TEMPO SHRA=
201107161620 METAR COR EGLL 161620Z 27014KT 9999 -SHRA FEW024CB SCT043
                        16/14 Q0996 RESHRA TEMPO SHRA=
201107161550 METAR COR EGLL 161550Z 25013KT 9999 VCSH SCT020CB SCT040
                        18/13 Q0996 TEMPO SHRA=
201107161520 METAR COR EGLL 161520Z 25012KT 9999 VCSH SCT012 SCT040 19/13
                        Q0996 TEMPO SHRA=
201107161450 METAR COR EGLL 161450Z 25016KT 9999 VCSH SCT043 18/14 Q0996
                        TEMPO SHRA=
201107161420 METAR COR EGLL 161420Z 25013KT 9999 SHRA FEW024 SCT042 17/14
                        Q0997 TEMPO NSW=
201107161350 METAR COR EGLL 161350Z 23013KT 190V260 9999 VCSH SCT012CB
                        BKN017 19/14 Q0997 TEMPO SHRA=
201107161320 METAR COR EGLL 161320Z 22012G22KT 9999 BKN009 18/16 Q0997
                        BECMG SCT015=
201107161250 METAR COR EGLL 161250Z 21010KT 180V250 9999 -RA FEW009 SCT011
                        17/16 Q0998 TEMPO SHRA=
201107161220 METAR COR EGLL 161220Z 21010KT 9000 -RA SCT015 17/15 Q0998
                        RERA TEMPO RA BKN014=
201107161150 METAR COR EGLL 161150Z 22010KT 190V260 9000 RA SCT006 BKN015
                        16/15 Q0999 TEMPO 4500 BKN007=
201107161120 METAR COR EGLL 161120Z 22011KT 190V250 9000 RA FEW007 SCT008
                        BKN011 16/15 Q0999 TEMPO 4000 BKN007=
201107161050 METAR COR EGLL 161050Z 21010G20KT 170V250 5000 RA FEW007
                        SCT009 BKN011 16/15 Q0999 TEMPO 4000
                        BKN007=
201107161020 METAR COR EGLL 161020Z 21012KT 180V260 7000 RA SCT007 BKN010
                        BKN014 16/15 Q0999 RERA TEMPO 4000
                        BKN007=
201107160950 METAR COR EGLL 160950Z 20012KT 170V240 9000 -RA SCT008 BKN010
                        17/15 Q1000 TEMPO 4000 RA BKN007=
201107160920 METAR COR EGLL 160920Z 20012KT 9000 RA SCT008 BKN010 16/15
                        Q1000 TEMPO 4000 BKN007=
201107160850 METAR EGLL 160850Z 20012KT 170V240 9999 5000SW VCSH FEW006
                        BKN008 BKN010 17/15 Q1001=
201107160820 METAR COR EGLL 160820Z 20012KT 170V240 9999 BKN008 BKN011
                        16/15 Q1002 TEMPO RA=
201107160750 METAR COR EGLL 160750Z 19010KT 9999 FEW007 BKN010 16/15 Q1002
                        TEMPO RA=
201107160720 METAR COR EGLL 160720Z 20010KT 160V240 9999 FEW007 BKN010
                        16/14 Q1003 TEMPO RA=
201107160650 METAR COR EGLL 160650Z 19010KT 160V240 9999 DZ FEW004 SCT006
                        BKN010 16/14 Q1003 TEMPO NSW BKN006=
201107160620 METAR COR EGLL 160620Z 19009KT 7000 -RA FEW005 BKN007 BKN013
                        15/14 Q1004 NOSIG=
201107160550 METAR COR EGLL 160550Z 20009G19KT 180V240 8000 -RA FEW004
                        SCT006 BKN010 16/14 Q1005 TEMPO BKN008=
201107160520 METAR COR EGLL 160520Z 19009KT 160V230 8000 FEW004 SCT006
                        OVC010 15/14 Q1005 TEMPO BKN008=
201107160450 METAR COR EGLL 160450Z 19008KT 9999 SCT006 OVC010 15/14 Q1006
                        TEMPO BKN008=
201107160420 METAR EGLL 160420Z 19009KT 170V230 9999 SCT006 OVC008 15/14
                        Q1006=
201107160350 METAR COR EGLL 160350Z 19009KT 9999 SCT005 BKN009 15/14 Q1007
                        NOSIG=
201107160320 METAR COR EGLL 160320Z 19009KT 9999 SCT004 BKN008 15/14 Q1007
                        TEMPO BKN012=
201107160250 METAR COR EGLL 160250Z 19009KT 8000 SCT004 BKN008 15/14 Q1008
                        NOSIG=
201107160220 METAR COR EGLL 160220Z 19009KT 8000 FEW006 BKN010 15/14 Q1008
                        TEMPO BKN008=
201107160150 METAR COR EGLL 160150Z 19009KT 8000 -RA BKN007 15/14 Q1009
                        TEMPO SCT008 BKN012=
201107160120 METAR EGLL 160120Z AUTO 20009KT 9000NDV -RA SCT008/// SCT016///
                        15/14 Q1010 RERA=
201107160050 METAR EGLL 160050Z AUTO 21008KT 9999NDV RA SCT011/// SCT022///
                        BKN035/// 15/14 Q1010=
201107160020 METAR EGLL 160020Z AUTO 21011KT 9999NDV -DZ BKN010/// BKN025///
                        16/13 Q1011=
201107152350 METAR COR EGLL 152350Z 21011KT 9999 BKN011 16/13 Q1011 TEMPO
                        RA BKN008=
201107152320 METAR COR EGLL 152320Z 21010KT 190V250 9999 BKN012 16/13
                        Q1012 NOSIG=
201107152250 METAR COR EGLL 152250Z 22011KT 9999 BKN013 16/13 Q1012 NOSIG=
201107152220 METAR COR EGLL 152220Z 22009KT 190V250 9999 FEW013 SCT034
                        16/13 Q1013 TEMPO BKN012=
201107152150 METAR COR EGLL 152150Z 21009KT 9999 FEW016 BKN044 16/13 Q1013
                        TEMPO BKN012=
201107152120 METAR COR EGLL 152120Z 22010KT 9999 SCT041 SCT047 16/12 Q1013
                        TEMPO BKN012=
201107152050 METAR COR EGLL 152050Z 21011KT CAVOK 17/12 Q1014 NOSIG=
201107152020 METAR COR EGLL 152020Z 22012KT CAVOK 17/12 Q1014 NOSIG=
201107151950 METAR COR EGLL 151950Z 21012KT CAVOK 18/10 Q1014 NOSIG=
201107151920 METAR COR EGLL 151920Z 21012KT CAVOK 19/10 Q1014 NOSIG=
201107151850 METAR COR EGLL 151850Z 22011KT CAVOK 19/09 Q1014 NOSIG=
201107151820 METAR COR EGLL 151820Z 23012KT CAVOK 20/07 Q1014 NOSIG=
201107151750 METAR COR EGLL 151750Z 22013KT CAVOK 20/05 Q1014 NOSIG=
201107151720 METAR COR EGLL 151720Z 22013KT CAVOK 21/07 Q1014 NOSIG=
201107151650 METAR COR EGLL 151650Z 21014KT CAVOK 22/07 Q1014 NOSIG=
201107151620 METAR COR EGLL 151620Z 20014G24KT 180V240 CAVOK 23/07 Q1015
                        NOSIG=
201107151550 METAR COR EGLL 151550Z 21010G20KT 180V270 CAVOK 24/06 Q1015
                        NOSIG=
201107151520 METAR COR EGLL 151520Z 21012KT 180V240 CAVOK 24/05 Q1015
                        NOSIG=
201107151450 METAR COR EGLL 151450Z 22012KT 180V250 CAVOK 23/06 Q1015
                        NOSIG=
201107151420 METAR COR EGLL 151420Z 20012KT CAVOK 24/07 Q1016 NOSIG=
201107151350 METAR COR EGLL 151350Z 24014KT CAVOK 25/07 Q1016 NOSIG=
201107151320 METAR COR EGLL 151320Z 21013KT 170V250 CAVOK 23/06 Q1016
                        NOSIG=
201107151250 METAR COR EGLL 151250Z 22011G21KT 180V260 CAVOK 24/07 Q1016
                        NOSIG=
201107151220 METAR COR EGLL 151220Z 24012G22KT 200V260 CAVOK 24/07 Q1016
                        NOSIG=
201107151150 METAR COR EGLL 151150Z 22011KT 180V270 CAVOK 23/08 Q1017
                        NOSIG=
201107151120 METAR COR EGLL 151120Z 21009KT 150V260 9999 FEW046 22/09
                        Q1017 NOSIG=
201107151050 METAR COR EGLL 151050Z 23009KT 150V290 9999 FEW045 23/10
                        Q1017 NOSIG=
201107151020 METAR COR EGLL 151020Z 22008KT 170V270 9999 FEW048 22/09
                        Q1017 NOSIG=
201107150950 METAR COR EGLL 150950Z 20007KT 150V270 CAVOK 21/09 Q1018
                        NOSIG=
201107150920 METAR COR EGLL 150920Z 20006KT 130V250 CAVOK 21/10 Q1018
                        NOSIG=
201107150850 METAR COR EGLL 150850Z 16005KT 130V240 CAVOK 19/10 Q1018
                        NOSIG=
201107150820 METAR COR EGLL 150820Z 22004KT 150V330 CAVOK 18/10 Q1018
                        NOSIG=
201107150750 METAR COR EGLL 150750Z 21004KT 150V250 CAVOK 18/10 Q1019
                        NOSIG=
201107150720 METAR COR EGLL 150720Z 22004KT 170V310 CAVOK 18/10 Q1019
                        NOSIG=
201107150650 METAR COR EGLL 150650Z VRB02KT CAVOK 16/10 Q1019 NOSIG=
201107150620 METAR COR EGLL 150620Z 30003KT CAVOK 14/10 Q1019 NOSIG=
201107150550 METAR COR EGLL 150550Z 28004KT CAVOK 13/10 Q1019 NOSIG=
201107150520 METAR COR EGLL 150520Z VRB03KT CAVOK 12/10 Q1018 NOSIG=
201107150450 METAR COR EGLL 150450Z VRB03KT CAVOK 12/10 Q1018 NOSIG=
201107150420 METAR COR EGLL 150420Z 28004KT CAVOK 11/09 Q1018 NOSIG=
201107150350 METAR COR EGLL 150350Z 29002KT CAVOK 12/09 Q1018 NOSIG=
201107150320 METAR COR EGLL 150320Z 31002KT CAVOK 12/09 Q1018 NOSIG=
201107150250 METAR COR EGLL 150250Z 28003KT CAVOK 12/09 Q1018 NOSIG=
201107150220 METAR COR EGLL 150220Z 27005KT CAVOK 13/10 Q1018 NOSIG=
201107150150 METAR COR EGLL 150150Z VRB03KT CAVOK 13/09 Q1018 NOSIG=
201107150120 METAR EGLL 150120Z AUTO 27006KT 9999NDV NCD 13/09 Q1018=
201107150050 METAR EGLL 150050Z AUTO 24007KT 9999NDV NCD 14/10 Q1018=
201107150020 METAR COR EGLL 150020Z AUTO 28005KT 9999NDV NCD 14/09 Q1018
                        NOSIG=
201107142350 METAR COR EGLL 142350Z 28006KT CAVOK 15/09 Q1019 NOSIG=
201107142320 METAR COR EGLL 142320Z 29004KT CAVOK 16/09 Q1019 NOSIG=
201107142250 METAR COR EGLL 142250Z 29007KT CAVOK 16/09 Q1019 NOSIG=
201107142220 METAR COR EGLL 142220Z 29008KT CAVOK 17/09 Q1019 NOSIG=
201107142150 METAR COR EGLL 142150Z VRB02KT CAVOK 17/09 Q1018 NOSIG=
201107142120 METAR COR EGLL 142120Z 35003KT CAVOK 19/09 Q1018 NOSIG=
201107142050 METAR COR EGLL 142050Z 36004KT CAVOK 20/08 Q1018 NOSIG=
201107142020 METAR COR EGLL 142020Z 31004KT CAVOK 21/08 Q1018 NOSIG=
201107141950 METAR COR EGLL 141950Z 32004KT 290V350 CAVOK 21/07 Q1018
                        NOSIG=
201107141920 METAR COR EGLL 141920Z 31004KT CAVOK 21/08 Q1018 NOSIG=
201107141850 METAR COR EGLL 141850Z 32007KT CAVOK 22/07 Q1018 NOSIG=
201107141820 METAR COR EGLL 141820Z 30010KT CAVOK 22/07 Q1017 NOSIG=
201107141750 METAR COR EGLL 141750Z 31009KT 280V350 CAVOK 23/07 Q1017
                        NOSIG=
201107141720 METAR COR EGLL 141720Z 31010KT 290V350 CAVOK 22/06 Q1017
                        NOSIG=
201107141650 METAR COR EGLL 141650Z 31010KT CAVOK 22/05 Q1017 NOSIG=
201107141620 METAR COR EGLL 141620Z 31009KT 270V350 CAVOK 24/04 Q1017
                        NOSIG=
201107141550 METAR COR EGLL 141550Z 32010KT 280V020 CAVOK 23/05 Q1017
                        NOSIG=
201107141520 METAR COR EGLL 141520Z 32009KT 280V360 CAVOK 23/05 Q1017
                        NOSIG=
201107141450 METAR EGLL 141450Z 34009KT 300V010 CAVOK 22/05 Q1018=
201107141420 METAR EGLL 141420Z 33009KT 290V010 CAVOK 22/05 Q1018=
201107141350 METAR COR EGLL 141350Z 33008KT 290V020 CAVOK 22/05 Q1018
                        NOSIG=
201107141320 METAR COR EGLL 141320Z VRB08KT CAVOK 21/04 Q1018 NOSIG=
201107141250 METAR COR EGLL 141250Z 31009KT 260V360 CAVOK 21/06 Q1018
                        NOSIG=
201107141220 METAR COR EGLL 141220Z 31007KT 240V010 9999 SCT047 20/07
                        Q1018 NOSIG=
201107141150 METAR COR EGLL 141150Z 32007KT 270V030 9999 SCT045 19/07
                        Q1018 NOSIG=
201107141120 METAR COR EGLL 141120Z VRB06KT 9999 SCT045 20/07 Q1019 NOSIG=
201107141050 METAR COR EGLL 141050Z VRB06KT 9999 FEW044 19/08 Q1019 NOSIG=
201107141020 METAR COR EGLL 141020Z VRB07KT 9999 FEW043 18/07 Q1019 NOSIG=
201107140950 METAR COR EGLL 140950Z 32007KT 290V010 9999 FEW040 18/07
                        Q1019 NOSIG=
201107140920 METAR COR EGLL 140920Z 32007KT 270V020 CAVOK 17/07 Q1019
                        NOSIG=
201107140850 METAR COR EGLL 140850Z 32008KT 290V010 9999 FEW040 17/07
                        Q1019 NOSIG=
201107140820 METAR COR EGLL 140820Z 34008KT 300V030 9999 FEW040 17/07
                        Q1019 NOSIG=
201107140750 METAR COR EGLL 140750Z 33008KT 290V010 CAVOK 16/07 Q1019
                        NOSIG=
201107140720 METAR COR EGLL 140720Z 31008KT 280V340 CAVOK 15/07 Q1019
                        NOSIG=
201107140650 METAR COR EGLL 140650Z 32007KT 300V010 CAVOK 15/08 Q1019
                        NOSIG=
201107140620 METAR COR EGLL 140620Z 33007KT 280V350 CAVOK 13/08 Q1019
                        NOSIG=
201107140550 METAR COR EGLL 140550Z 31005KT CAVOK 12/08 Q1019 NOSIG=
201107140520 METAR COR EGLL 140520Z 30005KT CAVOK 12/08 Q1019 NOSIG=
201107140450 METAR COR EGLL 140450Z 29006KT CAVOK 11/08 Q1019 NOSIG=
201107140420 METAR COR EGLL 140420Z 30005KT CAVOK 11/08 Q1019 NOSIG=
201107140350 METAR COR EGLL 140350Z 29005KT CAVOK 12/08 Q1019 NOSIG=
201107140320 METAR COR EGLL 140320Z 29005KT CAVOK 12/08 Q1019 NOSIG=
201107140250 METAR COR EGLL 140250Z 29006KT CAVOK 12/08 Q1019 NOSIG=
201107140220 METAR COR EGLL 140220Z 30005KT CAVOK 12/08 Q1020 NOSIG=
201107140150 METAR COR EGLL 140150Z 30004KT 9999 FEW049 12/08 Q1020 NOSIG=
201107140120 METAR EGLL 140120Z AUTO 31005KT 9999NDV NCD 12/08 Q1020=
201107140050 METAR EGLL 140050Z AUTO 33004KT 300V360 9999NDV NCD 13/08
                        Q1020=
201107140020 METAR EGLL 140020Z AUTO 32004KT 290V350 9999NDV NCD 14/08
                        Q1020=
201107132350 METAR COR EGLL 132350Z 31004KT CAVOK 14/08 Q1020 NOSIG=
201107132320 METAR COR EGLL 132320Z 30004KT CAVOK 14/08 Q1020 NOSIG=
201107132250 METAR EGLL 132250Z 31004KT CAVOK 14/08 Q1020=
201107132220 METAR COR EGLL 132220Z 32004KT 290V010 CAVOK 14/08 Q1020
                        NOSIG=
201107132150 METAR COR EGLL 132150Z VRB03KT CAVOK 15/08 Q1020 NOSIG=
201107132120 METAR COR EGLL 132120Z 36004KT 340V040 CAVOK 15/08 Q1020
                        NOSIG=
201107132050 METAR COR EGLL 132050Z 01005KT 340V050 CAVOK 15/07 Q1020
                        NOSIG=
201107132020 METAR COR EGLL 132020Z 36005KT 310V030 CAVOK 16/07 Q1020
                        NOSIG=
201107131950 METAR COR EGLL 131950Z 36006KT 320V040 CAVOK 16/06 Q1020
                        NOSIG=
201107131920 METAR COR EGLL 131920Z 36007KT CAVOK 16/07 Q1020 NOSIG=
201107131850 METAR COR EGLL 131850Z 34005KT 300V020 CAVOK 16/06 Q1020
                        NOSIG=
201107131820 METAR COR EGLL 131820Z 35006KT 310V030 CAVOK 17/06 Q1020
                        NOSIG=
201107131750 METAR COR EGLL 131750Z 36008KT 330V050 CAVOK 17/06 Q1020
                        NOSIG=
201107131720 METAR COR EGLL 131720Z 35008KT 310V020 CAVOK 17/06 Q1020
                        NOSIG=
201107131650 METAR COR EGLL 131650Z 36007KT 330V030 CAVOK 17/05 Q1020
                        NOSIG=
201107131620 METAR COR EGLL 131620Z 36008KT 320V030 CAVOK 18/05 Q1020
                        NOSIG=
201107131550 METAR COR EGLL 131550Z 01007KT 320V050 CAVOK 18/05 Q1020
                        NOSIG=
201107131520 METAR COR EGLL 131520Z 03007KT 350V070 9999 FEW046 17/05
                        Q1020 NOSIG=
201107131450 METAR COR EGLL 131450Z 02007KT 340V070 CAVOK 18/05 Q1019
                        NOSIG=
201107131420 METAR COR EGLL 131420Z 01008KT 340V050 CAVOK 18/05 Q1019
                        NOSIG=
201107131350 METAR COR EGLL 131350Z 36008KT 330V050 9999 FEW046 17/06
                        Q1019 NOSIG=
201107131320 METAR COR EGLL 131320Z 33008KT 300V010 CAVOK 18/05 Q1019
                        NOSIG=
201107131250 METAR COR EGLL 131250Z 35008KT 300V020 9999 FEW048 17/05
                        Q1019 NOSIG=
201107131220 METAR COR EGLL 131220Z 34008KT 300V030 9999 SCT048 18/05
                        Q1019 NOSIG=
201107131150 METAR COR EGLL 131150Z 36007KT 320V060 9999 SCT049 18/05
                        Q1019 NOSIG=
201107131120 METAR COR EGLL 131120Z 04009KT 350V070 9999 FEW046 18/05
                        Q1019 NOSIG=
201107131050 METAR COR EGLL 131050Z 01009KT 340V040 9999 FEW033 16/07
                        Q1019 NOSIG=
201107131020 METAR COR EGLL 131020Z 01008KT 9999 SCT037 17/07 Q1019 NOSIG=
201107130950 METAR COR EGLL 130950Z 36008KT 320V040 9999 SCT036 16/07
                        Q1019 NOSIG=
201107130920 METAR COR EGLL 130920Z 36008KT 310V020 9999 FEW030 SCT035
                        16/08 Q1019 NOSIG=
201107130850 METAR COR EGLL 130850Z 01009KT 340V050 9999 FEW025 SCT038
                        15/08 Q1019 NOSIG=
201107130820 METAR COR EGLL 130820Z 01006KT 330V060 9999 FEW023 14/09
                        Q1019 NOSIG=
201107130750 METAR COR EGLL 130750Z 01008KT 330V050 9999 FEW020 SCT040
                        14/08 Q1019 NOSIG=
201107130720 METAR COR EGLL 130720Z 03006KT 360V080 9999 SCT022 SCT030
                        14/09 Q1019 NOSIG=
201107130650 METAR COR EGLL 130650Z 03009KT 350V060 9999 SCT021 14/09
                        Q1019 NOSIG=
201107130620 METAR COR EGLL 130620Z 36007KT CAVOK 14/10 Q1019 NOSIG=
201107130550 METAR COR EGLL 130550Z 36006KT CAVOK 14/09 Q1019 NOSIG=
201107130520 METAR COR EGLL 130520Z 35006KT 330V030 9999 SCT049 13/10
                        Q1019 NOSIG=
201107130450 METAR COR EGLL 130450Z 35005KT 330V030 9999 BKN044 13/10
                        Q1019 NOSIG=
201107130420 METAR COR EGLL 130420Z 35004KT 320V030 CAVOK 13/10 Q1019
                        NOSIG=
201107130350 METAR COR EGLL 130350Z 35005KT 310V030 CAVOK 13/10 Q1018
                        NOSIG=
201107130320 METAR COR EGLL 130320Z 36005KT CAVOK 13/10 Q1019 NOSIG=
201107130250 METAR COR EGLL 130250Z AUTO 01005KT 340V060 9999NDV NCD 13/10
                        Q1019=
201107130220 METAR COR EGLL 130220Z 36005KT CAVOK 13/10 Q1019 NOSIG=
201107130150 METAR COR EGLL 130150Z 36006KT 320V030 CAVOK 13/10 Q1019
                        NOSIG=
201107130120 METAR EGLL 130120Z AUTO 01005KT 340V050 9999NDV NCD 14/10
                        Q1019=
201107130050 METAR EGLL 130050Z AUTO 01005KT 330V040 9999NDV NCD 14/10
                        Q1019=
201107130020 METAR COR EGLL 130020Z AUTO 01005KT 330V040 9999NDV NCD 14/10
                        Q1018=
201107122350 METAR COR EGLL 122350Z 01005KT 340V050 CAVOK 14/10 Q1018
                        NOSIG=
201107122320 METAR COR EGLL 122320Z 02006KT 340V060 CAVOK 15/10 Q1018
                        NOSIG=
201107122250 METAR COR EGLL 122250Z 03007KT 350V070 CAVOK 15/10 Q1018
                        NOSIG=
201107122220 METAR COR EGLL 122220Z 04008KT 360V080 9999 SCT045 15/10
                        Q1018 NOSIG=
201107122150 METAR COR EGLL 122150Z 04009KT 330V060 9999 SCT040 BKN047
                        15/11 Q1018 NOSIG=
201107122120 METAR COR EGLL 122120Z 03007KT 350V080 9999 FEW040 16/11
                        Q1018 NOSIG=
201107122050 METAR COR EGLL 122050Z 03010KT 350V060 9999 FEW024 16/11
                        Q1018 NOSIG=
201107122020 METAR COR EGLL 122020Z 03009KT 350V060 9999 FEW024 17/11
                        Q1017 NOSIG=
201107121950 METAR COR EGLL 121950Z 02007KT 340V070 9999 FEW024 17/11
                        Q1017 NOSIG=
201107121920 METAR COR EGLL 121920Z 03009KT 340V060 9999 FEW030 17/11
                        Q1017 NOSIG=
201107121850 METAR COR EGLL 121850Z 03008KT 330V070 9999 FEW030 18/11
                        Q1017 NOSIG=
201107121820 METAR COR EGLL 121820Z 03009KT 360V070 9999 FEW030 18/10
                        Q1016 NOSIG=
201107121750 METAR COR EGLL 121750Z 03010KT 9999 FEW033 18/11 Q1017 NOSIG=
201107121720 METAR COR EGLL 121720Z 02010KT 340V050 9999 SCT032 19/11
                        Q1016 NOSIG=
201107121650 METAR COR EGLL 121650Z 03009KT 360V060 9999 FEW031 SCT035
                        19/11 Q1016 NOSIG=
201107121620 METAR EGLL 121620Z 01010KT 340V050 9999 SCT033 19/11 Q1016=
201107121550 METAR COR EGLL 121550Z 01010KT 350V060 9999 FEW032 SCT037
                        19/11 Q1016 NOSIG=
201107121520 METAR COR EGLL 121520Z 01009KT 350V050 9999 SCT032 19/11
                        Q1017 NOSIG=
201107121450 METAR COR EGLL 121450Z 02008KT 350V060 9999 SCT035 19/11
                        Q1017 NOSIG=
201107121420 METAR COR EGLL 121420Z 03010KT 9999 SCT035 19/11 Q1017 NOSIG=
201107121350 METAR COR EGLL 121350Z 05009KT 9999 FEW034 19/11 Q1017 NOSIG=
201107121320 METAR EGLL 121320Z 03009KT 350V070 9999 FEW033 19/11 Q1017=
201107121250 METAR EGLL 121250Z 04009KT 330V070 9999 FEW032 19/11 Q1017=
201107121220 METAR EGLL 121220Z 04008KT 360V080 9999 SCT032 19/11 Q1017=
201107121150 METAR COR EGLL 121150Z 03009KT 350V070 9999 FEW032 19/11
                        Q1017 NOSIG=
201107121120 METAR COR EGLL 121120Z 03009KT 360V070 CAVOK 18/11 Q1017
                        NOSIG=
201107121050 METAR COR EGLL 121050Z 03009KT 350V070 CAVOK 18/11 Q1018
                        NOSIG=
201107121020 METAR COR EGLL 121020Z 03009KT 360V080 CAVOK 18/11 Q1018
                        NOSIG=
201107120950 METAR COR EGLL 120950Z 04009KT 360V070 CAVOK 18/11 Q1018
                        NOSIG=
201107120920 METAR COR EGLL 120920Z 04010KT 010V070 CAVOK 17/11 Q1018
                        NOSIG=
201107120850 METAR COR EGLL 120850Z 05008KT CAVOK 17/11 Q1018 NOSIG=
201107120820 METAR COR EGLL 120820Z 05008KT 010V080 CAVOK 17/11 Q1018
                        NOSIG=
201107120750 METAR COR EGLL 120750Z 05008KT 010V080 CAVOK 17/11 Q1018
                        NOSIG=
201107120720 METAR COR EGLL 120720Z 05010KT CAVOK 17/11 Q1018 NOSIG=
201107120650 METAR COR EGLL 120650Z 04007KT 360V090 CAVOK 16/11 Q1019
                        NOSIG=
201107120620 METAR COR EGLL 120620Z 05007KT 010V070 CAVOK 15/11 Q1019
                        NOSIG=
201107120550 METAR COR EGLL 120550Z 05008KT 360V070 CAVOK 15/11 Q1018
                        NOSIG=
201107120520 METAR COR EGLL 120520Z 04009KT 010V070 CAVOK 15/11 Q1018
                        NOSIG=
201107120450 METAR EGLL 120450Z 05005KT 360V080 CAVOK 15/11 Q1019=
201107120420 METAR COR EGLL 120420Z 06007KT CAVOK 15/11 Q1019 NOSIG=
201107120350 METAR COR EGLL 120350Z 04006KT CAVOK 15/11 Q1019 NOSIG=
201107120320 METAR COR EGLL 120320Z 04006KT 010V080 CAVOK 16/12 Q1018
                        NOSIG=
201107120250 METAR COR EGLL 120250Z 05007KT CAVOK 16/13 Q1019 NOSIG=
201107120220 METAR COR EGLL 120220Z 06007KT CAVOK 17/13 Q1019 NOSIG=
201107120150 METAR COR EGLL 120150Z 06007KT CAVOK 17/12 Q1019 NOSIG=
201107120120 METAR EGLL 120120Z AUTO 06007KT 9999NDV NCD 17/13 Q1019=
201107120050 METAR EGLL 120050Z AUTO 05006KT 9999NDV NCD 17/13 Q1019=
201107120020 METAR EGLL 120020Z AUTO 06005KT 9999NDV NCD 18/13 Q1019=
201107112350 METAR COR EGLL 112350Z 06006KT CAVOK 18/13 Q1019 NOSIG=
201107112320 METAR COR EGLL 112320Z 07006KT 9999 FEW042 19/13 Q1020 NOSIG=
201107112250 METAR COR EGLL 112250Z 07006KT 040V110 9999 SCT028 19/13
                        Q1020 NOSIG=
201107112220 METAR COR EGLL 112220Z 11005KT 070V180 9999 FEW029 SCT040
                        20/13 Q1020 NOSIG=
201107112150 METAR COR EGLL 112150Z 16005KT CAVOK 20/13 Q1019 NOSIG=
201107112120 METAR COR EGLL 112120Z 07004KT 020V130 CAVOK 20/09 Q1019
                        NOSIG=
201107112050 METAR COR EGLL 112050Z 05005KT CAVOK 21/08 Q1019 NOSIG=
201107112020 METAR COR EGLL 112020Z 04005KT 020V080 CAVOK 21/08 Q1019
                        NOSIG=
201107111950 METAR COR EGLL 111950Z 05005KT CAVOK 22/08 Q1019 NOSIG=
201107111920 METAR COR EGLL 111920Z 02005KT 340V060 CAVOK 22/07 Q1019
                        NOSIG=
201107111850 METAR COR EGLL 111850Z 36005KT 330V050 CAVOK 23/07 Q1019
                        NOSIG=
201107111820 METAR EGLL 111820Z 04005KT 340V100 CAVOK 23/07 Q1019=
201107111750 METAR COR EGLL 111750Z 02004KT 330V090 CAVOK 23/08 Q1019
                        NOSIG=
201107111720 METAR COR EGLL 111720Z 03005KT 340V080 CAVOK 23/08 Q1019
                        NOSIG=
201107111650 METAR EGLL 111650Z 03006KT 340V070 CAVOK 23/08 Q1019=
201107111620 METAR COR EGLL 111620Z 36007KT 310V040 CAVOK 23/08 Q1019
                        NOSIG=
201107111550 METAR COR EGLL 111550Z 35007KT 300V030 CAVOK 23/08 Q1019
                        NOSIG=
201107111520 METAR COR EGLL 111520Z 35006KT 290V040 CAVOK 23/08 Q1019
                        NOSIG=
201107111450 METAR COR EGLL 111450Z 34007KT 290V010 CAVOK 23/08 Q1019
                        NOSIG=
201107111420 METAR COR EGLL 111420Z 01005KT 280V060 CAVOK 24/08 Q1019
                        NOSIG=
201107111350 METAR EGLL 111350Z 36005KT 320V040 CAVOK 24/08 Q1020=
201107111320 METAR COR EGLL 111320Z 35005KT 280V060 CAVOK 23/09 Q1020
                        NOSIG=
201107111250 METAR COR EGLL 111250Z VRB04KT CAVOK 24/09 Q1020 NOSIG=
201107111220 METAR EGLL 111220Z 36005KT 290V090 9999 SCT048 23/09 Q1020=
201107111150 METAR COR EGLL 111150Z 36004KT 300V110 9999 SCT048 23/09
                        Q1020 NOSIG=
201107111120 METAR EGLL 111120Z 35005KT 320V030 9999 SCT046 22/09 Q1020
                        NOSIG=
201107111050 METAR COR EGLL 111050Z VRB03KT 9999 SCT042 22/10 Q1020 NOSIG=
201107111020 METAR COR EGLL 111020Z 35005KT 290V030 9999 FEW037 22/10
                        Q1020 NOSIG=
201107110950 METAR COR EGLL 110950Z 35004KT 280V030 9999 FEW036 20/10
                        Q1020 NOSIG=
201107110920 METAR COR EGLL 110920Z 02005KT 300V080 9999 FEW036 20/11
                        Q1020 NOSIG=
201107110850 METAR COR EGLL 110850Z 02005KT 310V110 CAVOK 19/11 Q1020
                        NOSIG=
201107110820 METAR COR EGLL 110820Z 02004KT 300V080 CAVOK 19/11 Q1020
                        NOSIG=
201107110750 METAR COR EGLL 110750Z 35004KT 310V050 CAVOK 18/11 Q1020
                        NOSIG=
201107110720 METAR COR EGLL 110720Z 36005KT 330V030 CAVOK 17/11 Q1020
                        NOSIG=
201107110650 METAR COR EGLL 110650Z 02005KT 330V060 CAVOK 16/11 Q1020
                        NOSIG=
201107110620 METAR COR EGLL 110620Z 35004KT CAVOK 15/12 Q1020 NOSIG=
201107110550 METAR COR EGLL 110550Z 31004KT CAVOK 14/12 Q1020 NOSIG=
201107110520 METAR COR EGLL 110520Z 30003KT CAVOK 12/11 Q1020 NOSIG=
201107110450 METAR COR EGLL 110450Z 31002KT CAVOK 12/11 Q1020 NOSIG=
201107110420 METAR COR EGLL 110420Z 28004KT CAVOK 12/11 Q1020 NOSIG=
201107110350 METAR COR EGLL 110350Z 29004KT CAVOK 12/11 Q1020 NOSIG=
201107110320 METAR COR EGLL 110320Z 29004KT CAVOK 12/11 Q1019 NOSIG=
201107110250 METAR COR EGLL 110250Z 29004KT CAVOK 13/11 Q1019 NOSIG=
201107110220 METAR COR EGLL 110220Z 29004KT CAVOK 13/11 Q1019 NOSIG=
201107110150 METAR COR EGLL 110150Z 32004KT CAVOK 14/12 Q1019 NOSIG=
201107110120 METAR EGLL 110120Z AUTO 30004KT 9999NDV NCD 14/12 Q1019=
201107110050 METAR EGLL 110050Z AUTO 28006KT 9999NDV NCD 13/11 Q1019=
201107110020 METAR EGLL 110020Z AUTO 30003KT 9999NDV NCD 15/12 Q1019=
201107102350 METAR COR EGLL 102350Z 31004KT CAVOK 15/12 Q1019 NOSIG=
201107102320 METAR EGLL 102320Z NIL=
201107102250 METAR COR EGLL 102250Z VRB03KT CAVOK 16/12 Q1019 NOSIG=
201107102220 METAR COR EGLL 102220Z 35004KT 320V020 CAVOK 17/12 Q1019
                        NOSIG=
201107102150 METAR COR EGLL 102150Z 32005KT CAVOK 17/12 Q1019 NOSIG=
201107102120 METAR COR EGLL 102120Z 28008KT CAVOK 17/12 Q1019 NOSIG=
201107102050 METAR COR EGLL 102050Z 25011KT CAVOK 18/11 Q1018 NOSIG=
201107102020 METAR COR EGLL 102020Z 25012KT CAVOK 19/11 Q1018 NOSIG=
201107101950 METAR COR EGLL 101950Z 24010KT CAVOK 20/11 Q1018 NOSIG=
201107101920 METAR COR EGLL 101920Z 25010KT CAVOK 20/11 Q1018 NOSIG=
201107101850 METAR COR EGLL 101850Z 20009KT 180V240 CAVOK 20/11 Q1018
                        NOSIG=
201107101820 METAR COR EGLL 101820Z 23008KT 190V270 CAVOK 22/11 Q1017
                        NOSIG=
201107101750 METAR COR EGLL 101750Z 25008KT 200V280 CAVOK 22/11 Q1017
                        NOSIG=
201107101720 METAR COR EGLL 101720Z 25008KT 200V290 9999 FEW049 22/12
                        Q1017 NOSIG=
201107101650 METAR EGLL 101650Z 26007KT 230V290 9999 SCT040 21/11 Q1017=
201107101620 METAR COR EGLL 101620Z 28007KT 9999 SCT038 21/11 Q1017 NOSIG=
201107101550 METAR COR EGLL 101550Z 28007KT 220V310 9999 FEW038 21/11
                        Q1017 NOSIG=
201107101520 METAR EGLL 101520Z 25009KT 190V290 9999 SCT038 21/12 Q1017=
201107101450 METAR EGLL 101450Z 23009KT 190V260 9999 SCT038 21/12 Q1017=
201107101420 METAR EGLL 101420Z 24008KT 160V270 9999 FEW040 21/11 Q1017=
201107101350 METAR EGLL 101350Z 22007KT 180V260 9999 SCT040 21/11 Q1017=
201107101320 METAR EGLL 101320Z VRB06KT 9999 SCT036 SCT042 21/11 Q1017=
201107101250 METAR COR EGLL 101250Z VRB06KT 9999 SCT036 22/12 Q1017 NOSIG=
201107101220 METAR COR EGLL 101220Z 31004KT 270V350 9999 SCT030 21/12
                        Q1017 NOSIG=
201107101150 METAR COR EGLL 101150Z 27006KT 230V330 9999 SCT030 21/12
                        Q1017 NOSIG=
201107101120 METAR COR EGLL 101120Z 28007KT 240V320 9999 SCT028 20/12
                        Q1017 NOSIG=
201107101050 METAR COR EGLL 101050Z 25007KT 220V290 9999 SCT024 20/12
                        Q1018 NOSIG=
201107101020 METAR COR EGLL 101020Z 26007KT 210V290 9999 FEW019 19/13
                        Q1018 NOSIG=
201107100950 METAR COR EGLL 100950Z 26006KT 200V350 9999 FEW019 18/13
                        Q1018 NOSIG=
201107100920 METAR COR EGLL 100920Z 25006KT 200V290 9999 SCT015 17/13
                        Q1018 NOSIG=
201107100850 METAR EGLL 100850Z 20004KT 160V260 9999 SCT013 17/13 Q1018=
201107100820 METAR COR EGLL 100820Z 30004KT 250V340 9999 SCT011 16/13
                        Q1018 NOSIG=
201107100750 METAR COR EGLL 100750Z 22004KT 160V270 9999 FEW010 15/13
                        Q1018 NOSIG=
201107100720 METAR COR EGLL 100720Z 26005KT 220V300 9999 FEW010 15/13
                        Q1018 NOSIG=
201107100650 METAR COR EGLL 100650Z 24006KT CAVOK 14/12 Q1018 NOSIG=
201107100620 METAR COR EGLL 100620Z 24006KT 200V270 CAVOK 14/12 Q1017
                        NOSIG=
201107100550 METAR COR EGLL 100550Z 22006KT 180V270 CAVOK 14/12 Q1017
                        NOSIG=
201107100520 METAR COR EGLL 100520Z 24006KT 190V270 CAVOK 13/12 Q1017
                        NOSIG=
201107100450 METAR COR EGLL 100450Z 23006KT 200V270 CAVOK 13/12 Q1017
                        NOSIG=
201107100420 METAR COR EGLL 100420Z 22005KT 8000 NSC 13/11 Q1017 NOSIG=
201107100350 METAR COR EGLL 100350Z 22005KT 170V250 9000 NSC 13/11 Q1017
                        NOSIG=
201107100320 METAR COR EGLL 100320Z 22004KT 9000 NSC 12/11 Q1017 TEMPO
                        BKN012=
201107100250 METAR COR EGLL 100250Z 21004KT CAVOK 12/11 Q1017 TEMPO BKN012=
201107100220 METAR EGLL 100220Z 22005KT 9000 NSC 13/11 Q1017=
201107100150 METAR COR EGLL 100150Z 21004KT CAVOK 13/11 Q1017 NOSIG=
201107100120 METAR EGLL 100120Z AUTO 21003KT 9999NDV NCD 13/11 Q1017=
201107100050 METAR EGLL 100050Z AUTO 23005KT 9999NDV NCD 13/11 Q1017=
201107100020 METAR EGLL 100020Z AUTO 22004KT 9999NDV NCD 13/12 Q1017=
201107092350 METAR COR EGLL 092350Z 21005KT CAVOK 14/12 Q1017 NOSIG=
201107092320 METAR COR EGLL 092320Z 23007KT CAVOK 14/12 Q1017 NOSIG=
201107092250 METAR COR EGLL 092250Z 22007KT CAVOK 14/12 Q1017 NOSIG=
201107092220 METAR COR EGLL 092220Z 22008KT 200V260 CAVOK 15/12 Q1016
                        NOSIG=
201107092150 METAR COR EGLL 092150Z 22010KT 180V260 CAVOK 16/12 Q1016
                        NOSIG=
201107092120 METAR COR EGLL 092120Z 22009KT 200V260 9999 SCT045 16/12
                        Q1016 NOSIG=
201107092050 METAR COR EGLL 092050Z 22009KT 190V250 9999 FEW044 17/12
                        Q1016 NOSIG=
201107092020 METAR COR EGLL 092020Z 21009KT 190V250 9999 SCT038 17/13
                        Q1015 NOSIG=
201107091950 METAR COR EGLL 091950Z 21010G20KT 180V240 9999 FEW040 18/13
                        Q1015 NOSIG=
201107091920 METAR COR EGLL 091920Z 22009KT 9999 SCT039 19/12 Q1015 NOSIG=
201107091850 METAR COR EGLL 091850Z 23010KT 200V260 9999 VCSH FEW032CB
                        20/11 Q1014 NOSIG=
201107091820 METAR COR EGLL 091820Z 22012KT 9999 VCSH SCT029CB 19/13 Q1014
                        NOSIG=
201107091750 METAR COR EGLL 091750Z 21012G24KT 9999 SCT029 20/12 Q1014
                        NOSIG=
201107091720 METAR COR EGLL 091720Z 22013KT 190V250 9999 FEW033 SCT042
                        20/13 Q1014 NOSIG=
201107091650 METAR COR EGLL 091650Z 21012KT 190V250 9999 FEW040 19/13
                        Q1014 NOSIG=
201107091620 METAR COR EGLL 091620Z 21013KT 180V250 9999 FEW040 20/13
                        Q1014 NOSIG=
201107091550 METAR COR EGLL 091550Z 22013KT 190V250 9999 FEW035 20/11
                        Q1013 NOSIG=
201107091520 METAR COR EGLL 091520Z 23014KT 9999 SCT033 20/12 Q1013 NOSIG=
201107091450 METAR COR EGLL 091450Z 22013KT 9999 FEW035 21/13 Q1013 NOSIG=
201107091420 METAR COR EGLL 091420Z 24012G23KT 200V270 9999 SCT036 21/12
                        Q1013 NOSIG=
201107091350 METAR COR EGLL 091350Z 24014KT 200V260 9999 SCT033 20/11
                        Q1013 NOSIG=
201107091320 METAR COR EGLL 091320Z 25012KT 9999 VCSH BKN033 22/12 Q1012
                        NOSIG=
201107091250 METAR COR EGLL 091250Z 26012KT 9999 SCT032 SCT038 19/12 Q1012
                        NOSIG=
201107091220 METAR COR EGLL 091220Z 23008KT 190V270 9999 SCT030 20/13
                        Q1012 NOSIG=
201107091150 METAR COR EGLL 091150Z 25012KT 220V280 9999 FEW030 19/13
                        Q1012 NOSIG=
201107091120 METAR COR EGLL 091120Z 25012KT 9999 SCT030 SCT039 17/13 Q1012
                        NOSIG=
201107091050 METAR COR EGLL 091050Z 25013KT 9999 VCSH BKN030 18/11 Q1011
                        NOSIG=
201107091020 METAR COR EGLL 091020Z 25012KT 9999 FEW025 SCT030 19/11 Q1011
                        NOSIG=
201107090950 METAR COR EGLL 090950Z 24014KT 9999 FEW025 SCT032 18/11 Q1011
                        NOSIG=
201107090920 METAR COR EGLL 090920Z 24012KT 9999 FEW022 SCT030 18/11 Q1011
                        NOSIG=
201107090850 METAR COR EGLL 090850Z 24012KT 9999 FEW020 18/11 Q1010 NOSIG=
201107090820 METAR COR EGLL 090820Z 23012KT 200V260 9999 SCT020 17/11
                        Q1010 NOSIG=
201107090750 METAR COR EGLL 090750Z 23012KT 9999 SCT020 17/11 Q1010 NOSIG=
201107090720 METAR COR EGLL 090720Z 23012KT 9999 FEW015 16/11 Q1010 NOSIG=
201107090650 METAR COR EGLL 090650Z 23010KT 200V260 9999 FEW014 15/12
                        Q1009 NOSIG=
201107090620 METAR EGLL 090620Z 23010KT 200V260 9999 FEW015 15/11 Q1009=
201107090550 METAR COR EGLL 090550Z 22011KT CAVOK 14/12 Q1009 NOSIG=
201107090520 METAR EGLL 090520Z 22006KT 190V260 CAVOK 13/12 Q1008=
201107090450 METAR COR EGLL 090450Z 22006KT CAVOK 13/11 Q1008 NOSIG=
201107090420 METAR COR EGLL 090420Z 22005KT 9999 FEW012 13/11 Q1008 NOSIG=
201107090350 METAR EGLL 090350Z 23006KT CAVOK 13/11 Q1008=
201107090320 METAR COR EGLL 090320Z 22006KT 9999 SCT041 13/12 Q1007 NOSIG=
201107090250 METAR COR EGLL 090250Z 21006KT 9999 FEW035 SCT041 14/12 Q1007
                        NOSIG=
201107090220 METAR COR EGLL 090220Z 21006KT CAVOK 13/12 Q1007 NOSIG=
201107090150 METAR COR EGLL 090150Z 21007KT 9999 FEW017 BKN040 14/12 Q1007
                        NOSIG=
201107090120 METAR EGLL 090120Z AUTO 21007KT 9999NDV FEW022/// BKN030///
                        14/12 Q1007=
201107090050 METAR EGLL 090050Z AUTO 20007KT 9999NDV SCT026/// 14/12 Q1007=
201107090020 METAR EGLL 090020Z AUTO 20008KT 9999NDV FEW031/// 14/11 Q1007=
201107082350 METAR COR EGLL 082350Z 21007KT CAVOK 14/11 Q1007 NOSIG=
201107082320 METAR COR EGLL 082320Z 21008KT CAVOK 14/11 Q1007 NOSIG=
201107082250 METAR COR EGLL 082250Z 19009KT CAVOK 14/11 Q1007 NOSIG=
201107082220 METAR COR EGLL 082220Z 21008KT CAVOK 14/11 Q1007 NOSIG=
201107082150 METAR COR EGLL 082150Z 21010KT 170V260 CAVOK 15/11 Q1007
                        NOSIG=
201107082120 METAR COR EGLL 082120Z 22011KT CAVOK 15/11 Q1007 NOSIG=
201107082050 METAR COR EGLL 082050Z 21012G22KT 180V240 9999 FEW030 15/11
                        Q1007 NOSIG=
201107082020 METAR COR EGLL 082020Z 21012KT 180V250 CAVOK 16/11 Q1006
                        NOSIG=
201107081950 METAR COR EGLL 081950Z 22013G23KT 190V250 9999 FEW030 16/11
                        Q1006 NOSIG=
201107081920 METAR COR EGLL 081920Z 23014KT 9999 FEW030 17/10 Q1006 NOSIG=
201107081850 METAR COR EGLL 081850Z 21013G23KT CAVOK 17/10 Q1006 NOSIG=
201107081820 METAR COR EGLL 081820Z 21013KT 180V250 9999 SCT030 18/11
                        Q1006 NOSIG=
201107081750 METAR COR EGLL 081750Z 22016KT 180V250 9999 FEW031 18/11
                        Q1006 NOSIG=
201107081720 METAR COR EGLL 081720Z 22015KT 190V250 9999 BKN033 18/10
                        Q1005 NOSIG=
201107081650 METAR COR EGLL 081650Z 22018G28KT 9999 SCT034 19/10 Q1005
                        BECMG 21015KT=
201107081620 METAR COR EGLL 081620Z 22017G30KT 190V250 9999 SCT031 19/11
                        Q1005 TEMPO 21015KT=
201107081550 METAR COR EGLL 081550Z 22018G28KT 9999 FEW020 SCT028 19/11
                        Q1005 TEMPO 21015KT=
201107081520 METAR COR EGLL 081520Z 21017KT 190V250 9999 FEW022 SCT028
                        18/12 Q1005 NOSIG=
201107081450 METAR COR EGLL 081450Z 22015G28KT 180V250 9999 FEW023 SCT033
                        18/13 Q1005 NOSIG=
201107081420 METAR COR EGLL 081420Z 20015KT 9999 -SHRA SCT021 SCT034 18/12
                        Q1005 TEMPO SHRA=
201107081350 METAR EGLL 081350Z 20017G29KT 180V240 9999 SCT021 SCT027
                        19/12 Q1004=
201107081320 METAR COR EGLL 081320Z 22019G31KT 9999 SCT028 SCT033 18/11
                        Q1004 BECMG 21016KT=
201107081250 METAR COR EGLL 081250Z 21015G25KT 9999 FEW024 SCT028 19/11
                        Q1004 TEMPO SHRA=
201107081220 METAR COR EGLL 081220Z 22018KT 9999 SCT024 SCT031 19/12 Q1004
                        NOSIG=
201107081150 METAR COR EGLL 081150Z 22017KT 9999 BKN023 18/11 Q1004 TEMPO
                        23020G30KT SHRA=
201107081120 METAR COR EGLL 081120Z 22015KT 9999 SCT023 18/12 Q1004 TEMPO
                        23018G28KT SHRA=
201107081050 METAR COR EGLL 081050Z 21016KT 9999 BKN020 18/12 Q1003 NOSIG=
201107081020 METAR COR EGLL 081020Z 22013KT 9999 FEW014 SCT020 17/13 Q1003
                        RERA NOSIG=
201107080950 METAR COR EGLL 080950Z 20012KT 9999 SCT014 BKN019 16/13 Q1003
                        NOSIG=
201107080920 METAR COR EGLL 080920Z 20012KT 160V230 9999 FEW012 BKN018
                        15/13 Q1003 NOSIG=
201107080850 METAR COR EGLL 080850Z 19011KT 9999 FEW009 BKN015 14/13 Q1003
                        NOSIG=
201107080820 METAR COR EGLL 080820Z 19011KT 8000 -RADZ BKN010 BKN014 14/13
                        Q1003 RERA TEMPO SCT012=
201107080750 METAR COR EGLL 080750Z 18011KT 150V230 9999 SCT010 SCT023
                        14/12 Q1003 TEMPO RA BKN014=
201107080720 METAR COR EGLL 080720Z 18010KT 9999 -RA SCT015 BKN020 14/12
                        Q1003 RERA TEMPO RA BKN014=
201107080650 METAR COR EGLL 080650Z 19011KT 150V240 9999 -DZ BKN015 14/12
                        Q1003 TEMPO RA BKN014=
201107080620 METAR COR EGLL 080620Z 17009KT 130V200 9999 FEW010 14/11
                        Q1003 TEMPO SHRA BKN014=
201107080550 METAR COR EGLL 080550Z 18008KT 110V260 9999 -SHRA NSC 13/11
                        Q1003 TEMPO SHRA BKN014=
201107080520 METAR COR EGLL 080520Z 18007KT 130V210 9999 FEW014 14/12
                        Q1003 TEMPO SHRA BKN014=
201107080450 METAR COR EGLL 080450Z 18006KT 150V240 9999 SCT014 13/12
                        Q1003 TEMPO SHRA BKN014=
201107080420 METAR COR EGLL 080420Z 20005KT 140V260 9999 FEW020 13/12
                        Q1003 NOSIG=
201107080350 METAR COR EGLL 080350Z 19006KT 9999 FEW018 13/12 Q1003 NOSIG=
201107080320 METAR COR EGLL 080320Z 18007KT 9999 -SHRA FEW011 SCT020 13/12
                        Q1003 TEMPO SHRA=
201107080250 METAR COR EGLL 080250Z 17007KT 9999 -SHRA SCT017 14/12 Q1003
                        TEMPO SHRA=
201107080220 METAR COR EGLL 080220Z 17005KT 9999 FEW048 13/12 Q1003 TEMPO
                        SHRA=
201107080150 METAR COR EGLL 080150Z 15005KT CAVOK 13/12 Q1003 NOSIG=
201107080120 METAR EGLL 080120Z AUTO 17004KT 9999NDV FEW016/// 13/11 Q1003=
201107080050 METAR EGLL 080050Z AUTO 16006KT 9999NDV FEW016/// 13/11 Q1003=
201107080020 METAR EGLL 080020Z AUTO 16006KT 9999NDV NCD 13/12 Q1003=
201107072350 METAR COR EGLL 072350Z 18005KT CAVOK 13/12 Q1003 NOSIG=
201107072320 METAR COR EGLL 072320Z 18007KT CAVOK 14/12 Q1003 NOSIG=
201107072250 METAR COR EGLL 072250Z 18008KT 9999 FEW010 14/12 Q1003 NOSIG=
201107072220 METAR COR EGLL 072220Z 20007KT 180V250 9999 FEW010 SCT020
                        14/12 Q1003 NOSIG=
201107072150 METAR COR EGLL 072150Z 19007KT 140V240 9999 FEW020 14/12
                        Q1003 NOSIG=
201107072120 METAR COR EGLL 072120Z 18009KT 150V240 9999 FEW018 14/12
                        Q1003 NOSIG=
201107072050 METAR COR EGLL 072050Z 19010KT 160V270 9999 SCT028 15/12
                        Q1003 NOSIG=
201107072020 METAR COR EGLL 072020Z 20012KT 150V240 9999 -SHRA FEW019
                        SCT025 15/12 Q1003 RERA NOSIG=
201107071950 METAR COR EGLL 071950Z 20010KT 150V240 9999 FEW019 SCT023
                        16/11 Q1003 NOSIG=
201107071920 METAR COR EGLL 071920Z 20011KT 170V230 9999 FEW025 16/11
                        Q1003 NOSIG=
201107071850 METAR COR EGLL 071850Z 19012KT 170V230 9999 VCSH SCT030 17/11
                        Q1003 NOSIG=
201107071820 METAR COR EGLL 071820Z 19012KT 160V230 9999 FEW030 17/11
                        Q1003 NOSIG=
201107071750 METAR COR EGLL 071750Z 19013KT 160V240 9999 FEW029 18/11
                        Q1003 NOSIG=
201107071720 METAR COR EGLL 071720Z 19012KT 160V240 9999 FEW031 18/11
                        Q1003 NOSIG=
201107071650 METAR COR EGLL 071650Z 18012KT 150V240 9999 SCT031 19/11
                        Q1003 NOSIG=
201107071620 METAR COR EGLL 071620Z 19013KT 150V230 9999 BKN031 19/11
                        Q1003 NOSIG=
201107071550 METAR COR EGLL 071550Z 19014KT 160V230 9999 FEW029 BKN032
                        19/11 Q1003 NOSIG=
201107071520 METAR COR EGLL 071520Z 20013KT 170V230 9999 BKN027 19/11
                        Q1003 NOSIG=
201107071450 METAR COR EGLL 071450Z 20012KT 170V240 9999 BKN022 18/12
                        Q1003=
201107071420 METAR COR EGLL 071420Z 19013KT 160V230 9999 FEW016 BKN024CB
                        18/12 Q1003 NOSIG=
201107071350 METAR EGLL 071350Z 20012KT 9999 FEW016 SCT024 17/13 Q1003=
201107071320 METAR COR EGLL 071320Z 20012KT 9999 FEW015 SCT024 17/14 Q1003
                        NOSIG=
201107071250 METAR COR EGLL 071250Z 18012KT 9999 -SHRA FEW013 SCT024 16/14
                        Q1003 NOSIG=
201107071220 METAR COR EGLL 071220Z 20010KT 160V230 9999 -SHRA SCT013
                        BKN038 16/13 Q1003 TEMPO BKN014=
201107071150 METAR COR EGLL 071150Z 20010KT 170V240 9999 FEW010 16/13
                        Q1004 NOSIG=
201107071120 METAR COR EGLL 071120Z 18011KT CAVOK 16/13 Q1004 NOSIG=
201107071050 METAR COR EGLL 071050Z 20009KT 170V250 9999 -SHRA FEW008
                        SCT010 15/13 Q1004 RERA NOSIG=
201107071020 METAR COR EGLL 071020Z 21012KT 9999 -SHRA FEW012 BKN020 15/13
                        Q1003 RERA NOSIG=
201107070950 METAR COR EGLL 070950Z 22010KT 9999 -SHRA FEW013 BKN020CB
                        15/13 Q1003 NOSIG=
201107070920 METAR COR EGLL 070920Z 21014KT 9999 -RA SCT017 BKN040 15/13
                        Q1003 TEMPO SHRA=
201107070850 METAR COR EGLL 070850Z 21014KT 9999 -SHRA SCT020 BKN031 16/13
                        Q1003 TEMPO SHRA=
201107070820 METAR COR EGLL 070820Z 19015KT 9999 FEW022 SCT027 16/12 Q1003
                        TEMPO SHRA=
201107070750 METAR COR EGLL 070750Z 19016KT 9999 SCT016 SCT030 16/12 Q1003
                        TEMPO SHRA=
201107070720 METAR COR EGLL 070720Z 19014KT 9999 FEW015 SCT030 16/13 Q1003
                        NOSIG=
201107070650 METAR COR EGLL 070650Z 19011KT 9999 FEW013 SCT034 15/13 Q1003
                        NOSIG=
201107070620 METAR COR EGLL 070620Z 19012KT 9999 VCSH FEW015 SCT024 15/12
                        Q1003 TEMPO SHRA=
201107070550 METAR COR EGLL 070550Z 18011KT 130V210 9999 FEW020 SCT035
                        15/11 Q1003 TEMPO SHRA=
201107070520 METAR COR EGLL 070520Z 19011KT 130V240 9999 FEW022 BKN047
                        15/12 Q1003 TEMPO SHRA=
201107070450 METAR COR EGLL 070450Z 19011KT 9999 FEW021 SCT042 BKN048
                        15/12 Q1003 NOSIG=
201107070420 METAR COR EGLL 070420Z 18010KT 130V230 9999 FEW025 BKN043
                        15/12 Q1003 TEMPO SHRA=
201107070350 METAR COR EGLL 070350Z 19011KT 9999 SCT020 SCT039 14/12 Q1003
                        TEMPO SHRA=
201107070320 METAR COR EGLL 070320Z 19013KT 9999 -SHRA BKN023 15/12 Q1003
                        TEMPO SHRA=
201107070250 METAR COR EGLL 070250Z 19012KT 9999 SCT021 SCT037 15/11 Q1003
                        NOSIG=
201107070220 METAR COR EGLL 070220Z 19013KT 9999 SCT020 SCT040 15/12 Q1003
                        NOSIG=
201107070150 METAR COR EGLL 070150Z 19012KT 9999 FEW016 BKN019 15/12 Q1003
                        NOSIG=
201107070120 METAR EGLL 070120Z AUTO 20011KT 9999NDV BKN016/// BKN029///
                        15/12 Q1003=
201107070050 METAR EGLL 070050Z AUTO 19013KT 9999NDV BKN016/// 15/12 Q1004=
201107070020 METAR EGLL 070020Z AUTO 20013KT 9999NDV BKN018/// 15/12 Q1004=
201107062350 METAR COR EGLL 062350Z 19012KT 9999 FEW022 BKN029 15/11 Q1004
                        NOSIG=
201107062320 METAR COR EGLL 062320Z 18012KT 9999 BKN027 15/12 Q1004 NOSIG=
201107062250 METAR COR EGLL 062250Z 18011KT 9999 FEW029 BKN032 15/11 Q1005
                        NOSIG=
201107062220 METAR COR EGLL 062220Z 19013KT 9999 BKN037 16/10 Q1005 NOSIG=
201107062150 METAR COR EGLL 062150Z 19013KT 160V230 9999 FEW029 BKN038
                        16/10 Q1005 NOSIG=
201107062120 METAR COR EGLL 062120Z 19013KT 160V230 9999 FEW030 16/10
                        Q1005 NOSIG=
201107062050 METAR COR EGLL 062050Z 20014KT 170V250 9999 FEW032 16/09
                        Q1005 NOSIG=
201107062020 METAR COR EGLL 062020Z 21013KT 180V240 9999 FEW033 16/09
                        Q1005 NOSIG=
201107061950 METAR COR EGLL 061950Z 22013KT 180V250 9999 FEW039 16/09
                        Q1005 NOSIG=
201107061920 METAR COR EGLL 061920Z 22014KT 9999 FEW041 16/08 Q1005 NOSIG=
201107061850 METAR COR EGLL 061850Z 22014KT 9999 FEW040 17/08 Q1005 NOSIG=
201107061820 METAR COR EGLL 061820Z 22016G29KT 190V250 9999 FEW048 17/08
                        Q1005 TEMPO 22016KT=
201107061750 METAR COR EGLL 061750Z 22016G26KT 9999 FEW047 17/08 Q1005
                        NOSIG=
201107061720 METAR EGLL 061720Z 22015KT 9999 SCT048 18/08 Q1005=
201107061650 METAR COR EGLL 061650Z 21016KT 9999 SCT039 18/07 Q1005 NOSIG=
201107061620 METAR EGLL 061620Z 22016G27KT 180V240 9999 SCT039 19/08 Q1005=
201107061550 METAR COR EGLL 061550Z 22017G28KT 190V250 9999 FEW039 18/09
                        Q1005 TEMPO 23015KT=
201107061520 METAR COR EGLL 061520Z 23018G29KT 9999 SCT043 18/09 Q1006
                        NOSIG=
201107061450 METAR COR EGLL 061450Z 22017KT 9999 BKN044 19/08 Q1005 NOSIG=
201107061420 METAR COR EGLL 061420Z 22016KT 190V250 9999 BKN046 19/08
                        Q1005 TEMPO 22017G27KT=
201107061350 METAR COR EGLL 061350Z 22017G31KT 190V260 9999 FEW039 SCT043
                        20/08 Q1005 TEMPO 22016KT=
201107061320 METAR COR EGLL 061320Z 22016KT 9999 FEW040 SCT044 20/09 Q1005
                        NOSIG=
201107061250 METAR EGLL 061250Z 22016KT 9999 BKN041 20/07 Q1005=
201107061220 METAR COR EGLL 061220Z 22017G27KT 9999 BKN036 20/09 Q1004
                        NOSIG=
201107061150 METAR COR EGLL 061150Z 23014KT 190V260 9999 VCSH SCT038CB
                        20/09 Q1005 TEMPO SHRA=
201107061120 METAR EGLL 061120Z 23016KT 9999 VCSH SCT038CB 18/09 Q1005
                        TEMPO SHRA BKN014=
201107061050 METAR COR EGLL 061050Z 22013KT 190V260 9999 VCSH SCT038 19/09
                        Q1005 TEMPO SHRA BKN014=
201107061020 METAR EGLL 061020Z 24013KT 9999 SCT038 19/09 Q1005=
201107060950 METAR EGLL 060950Z 24016KT 9999 SCT033 SCT038 18/10 Q1005=
201107060920 METAR COR EGLL 060920Z 24016KT 9999 SCT027 17/10 Q1005 NOSIG=
201107060850 METAR COR EGLL 060850Z 24014KT 210V280 9999 SCT026 16/10
                        Q1005 TEMPO BKN014=
201107060820 METAR COR EGLL 060820Z 23015KT 9999 SCT020 17/11 Q1005 TEMPO
                        BKN014=
201107060750 METAR COR EGLL 060750Z 24014KT 9999 SCT016 16/11 Q1005 NOSIG=
201107060720 METAR COR EGLL 060720Z 25013KT 9999 SCT014 15/12 Q1005 TEMPO
                        BKN014CB=
201107060650 METAR COR EGLL 060650Z 22011KT 9999 BKN015 15/12 Q1005 TEMPO
                        BKN014=
201107060620 METAR COR EGLL 060620Z 21009KT 180V250 9999 FEW010 15/12
                        Q1005 TEMPO SHRA=
201107060550 METAR COR EGLL 060550Z 20008KT 180V250 9999 FEW020 14/13
                        Q1005 TEMPO SHRA=
201107060520 METAR COR EGLL 060520Z 19007KT 100V240 9999 FEW006 13/12
                        Q1005 TEMPO SHRA BKN014CB=
201107060450 METAR COR EGLL 060450Z 22006KT 9999 FEW021 13/12 Q1005 TEMPO
                        SHRA=
201107060420 METAR COR EGLL 060420Z 22006KT 180V250 9999 FEW008 SCT011
                        13/12 Q1005 TEMPO SHRA=
201107060350 METAR COR EGLL 060350Z 21005KT 9999 SCT013 13/12 Q1005 TEMPO
                        SHRA=
201107060320 METAR COR EGLL 060320Z 23007KT 9999 SCT015 13/12 Q1005 TEMPO
                        SHRA=
201107060250 METAR COR EGLL 060250Z 23009KT 9999 BKN014 14/12 Q1005 TEMPO
                        SHRA=
201107060220 METAR COR EGLL 060220Z 23009KT 9999 FEW014 13/12 Q1006 NOSIG=
201107060150 METAR COR EGLL 060150Z 24008KT 9999 FEW011 14/12 Q1006 NOSIG=
201107060120 METAR EGLL 060120Z AUTO 22009KT 9999NDV FEW015/// BKN032///
                        15/14 Q1006=
201107060050 METAR EGLL 060050Z AUTO 21005KT 9000NDV SCT004/// BKN027///
                        15/14 Q1006=
201107060020 METAR EGLL 060020Z AUTO 23007KT 8000NDV BKN003/// 15/14 Q1006=
201107052350 METAR COR EGLL 052350Z 22007KT 6000 -RA FEW003 SCT006 BKN009
                        15/14 Q1007 BECMG SCT010=
201107052320 METAR COR EGLL 052320Z 21007KT 7000 -RA SCT004 BKN008 15/14
                        Q1007 BECMG SCT010=
201107052250 METAR COR EGLL 052250Z 20007KT 9999 -RA FEW004 SCT006 BKN010
                        15/14 Q1007 TEMPO SHRA=
201107052220 METAR COR EGLL 052220Z 20007KT 160V250 7000 -RA FEW004 SCT006
                        BKN010 15/14 Q1007 RERA TEMPO SHRA
                        BKN008=
201107052150 METAR COR EGLL 052150Z 18009KT 140V240 9999 BKN006 BKN008
                        15/14 Q1008 TEMPO SHRA=
201107052120 METAR COR EGLL 052120Z 18007KT 150V250 9999 FEW006 BKN008
                        15/14 Q1008 TEMPO SHRA=
201107052050 METAR COR EGLL 052050Z 19008KT 130V250 9999 FEW007 BKN008
                        15/14 Q1008 TEMPO SHRA=
201107052020 METAR COR EGLL 052020Z 18006KT 160V240 9999 SCT007 BKN011
                        15/14 Q1008 TEMPO SHRA=
201107051950 METAR COR EGLL 051950Z 18008KT 150V240 6000 -RA FEW006 BKN020
                        15/14 Q1008 RERA TEMPO SHRA=
201107051920 METAR COR EGLL 051920Z 18009KT 150V240 8000 -RA FEW010 BKN016
                        16/14 Q1009 TEMPO BKN014=
201107051850 METAR COR EGLL 051850Z 17008KT 130V230 9999 FEW015 BKN020
                        16/13 Q1009 TEMPO BKN014=
201107051820 METAR COR EGLL 051820Z 20009KT 160V240 9999 FEW015 BKN031
                        17/13 Q1009 NOSIG=
201107051750 METAR COR EGLL 051750Z 23008KT 9999 -RA FEW035 SCT047 17/13
                        Q1009 NOSIG=
201107051720 METAR COR EGLL 051720Z 23007KT CAVOK 17/14 Q1009 NOSIG=
201107051650 METAR COR EGLL 051650Z 23009KT 180V260 CAVOK 17/14 Q1010
                        NOSIG=
201107051620 METAR COR EGLL 051620Z 24011KT 9999 SCT042 17/14 Q1010 RERA
                        NOSIG=
201107051550 METAR COR EGLL 051550Z 27015KT 8000 RA SCT039 16/14 Q1010
                        NOSIG=
201107051520 METAR COR EGLL 051520Z 25014KT 9999 -RA FEW047 19/14 Q1010
                        NOSIG=
201107051450 METAR COR EGLL 051450Z 20011KT CAVOK 23/10 Q1010 NOSIG=
201107051420 METAR COR EGLL 051420Z 19009KT 150V230 CAVOK 24/09 Q1010
                        NOSIG=
201107051350 METAR COR EGLL 051350Z 19010KT 160V230 CAVOK 25/11 Q1010
                        NOSIG=
201107051320 METAR COR EGLL 051320Z 22011KT 190V250 CAVOK 25/11 Q1010
                        NOSIG=
201107051250 METAR COR EGLL 051250Z 21009KT 160V250 CAVOK 25/12 Q1010
                        NOSIG=
201107051220 METAR COR EGLL 051220Z 18008KT 090V220 CAVOK 25/11 Q1011
                        NOSIG=
201107051150 METAR COR EGLL 051150Z 19009KT 140V260 CAVOK 25/11 Q1011
                        NOSIG=
201107051120 METAR COR EGLL 051120Z 19009KT 160V250 CAVOK 25/10 Q1011
                        NOSIG=
201107051050 METAR COR EGLL 051050Z 20006KT 160V240 CAVOK 24/11 Q1011
                        NOSIG=
201107051020 METAR COR EGLL 051020Z 20006KT 140V280 CAVOK 22/12 Q1012
                        NOSIG=
201107050950 METAR COR EGLL 050950Z 15007KT 100V200 CAVOK 22/12 Q1012
                        NOSIG=
201107050920 METAR COR EGLL 050920Z 15006KT 110V220 CAVOK 21/13 Q1012
                        NOSIG=
201107050850 METAR COR EGLL 050850Z 14007KT CAVOK 20/13 Q1013 NOSIG=
201107050820 METAR COR EGLL 050820Z 15005KT 120V200 CAVOK 19/13 Q1013
                        NOSIG=
201107050750 METAR COR EGLL 050750Z 16004KT 100V200 CAVOK 18/12 Q1013
                        NOSIG=
201107050720 METAR COR EGLL 050720Z 15005KT CAVOK 17/12 Q1013 NOSIG=
201107050650 METAR COR EGLL 050650Z 13005KT CAVOK 17/12 Q1013 NOSIG=
201107050620 METAR COR EGLL 050620Z 11004KT 080V140 CAVOK 16/11 Q1014
                        NOSIG=
201107050550 METAR COR EGLL 050550Z 11005KT CAVOK 15/11 Q1014 NOSIG=
201107050520 METAR COR EGLL 050520Z 10005KT CAVOK 15/09 Q1014 NOSIG=
201107050450 METAR COR EGLL 050450Z 10004KT CAVOK 14/09 Q1014 NOSIG=
201107050420 METAR COR EGLL 050420Z 10004KT CAVOK 13/08 Q1014 NOSIG=
201107050350 METAR COR EGLL 050350Z 09003KT CAVOK 13/08 Q1015 NOSIG=
201107050320 METAR COR EGLL 050320Z 14003KT CAVOK 14/09 Q1015 NOSIG=
201107050250 METAR EGLL 050250Z 14004KT CAVOK 14/09 Q1015=
201107050220 METAR COR EGLL 050220Z 15004KT CAVOK 14/09 Q1015 NOSIG=
201107050150 METAR COR EGLL 050150Z 15005KT CAVOK 15/09 Q1015 NOSIG=
201107050120 METAR EGLL 050120Z AUTO 15005KT 9999NDV NCD 15/09 Q1015=
201107050050 METAR EGLL 050050Z AUTO 15003KT 9999NDV NCD 16/09 Q1016=
201107050020 METAR EGLL 050020Z AUTO 15004KT 9999NDV NCD 16/10 Q1016=
201107042350 METAR COR EGLL 042350Z 15004KT 120V190 CAVOK 17/11 Q1016
                        NOSIG=
201107042320 METAR COR EGLL 042320Z 15004KT CAVOK 17/11 Q1016 NOSIG=
201107042250 METAR COR EGLL 042250Z 15003KT CAVOK 18/10 Q1016 NOSIG=
201107042220 METAR COR EGLL 042220Z 20004KT CAVOK 18/10 Q1016 NOSIG=
201107042150 METAR COR EGLL 042150Z 21004KT CAVOK 18/10 Q1016 NOSIG=
201107042120 METAR COR EGLL 042120Z 21006KT CAVOK 19/11 Q1016 NOSIG=
201107042050 METAR COR EGLL 042050Z 22006KT CAVOK 20/11 Q1016 NOSIG=
201107042020 METAR COR EGLL 042020Z 22006KT 190V250 CAVOK 20/11 Q1016
                        NOSIG=
201107041950 METAR COR EGLL 041950Z 22007KT CAVOK 21/11 Q1016 NOSIG=
201107041920 METAR COR EGLL 041920Z 22008KT CAVOK 21/12 Q1016 NOSIG=
201107041850 METAR COR EGLL 041850Z 21007KT CAVOK 22/12 Q1016 NOSIG=
201107041820 METAR COR EGLL 041820Z 20007KT CAVOK 22/12 Q1016 NOSIG=
201107041750 METAR COR EGLL 041750Z 20009KT CAVOK 23/12 Q1016 NOSIG=
201107041720 METAR COR EGLL 041720Z 18008KT 150V220 CAVOK 23/11 Q1016
                        NOSIG=
201107041650 METAR COR EGLL 041650Z 15007KT 100V180 CAVOK 24/09 Q1016
                        NOSIG=
201107041620 METAR COR EGLL 041620Z 13007KT 100V160 CAVOK 24/10 Q1016
                        NOSIG=
201107041550 METAR COR EGLL 041550Z 14007KT CAVOK 24/09 Q1016 NOSIG=
201107041520 METAR COR EGLL 041520Z 13006KT 090V170 CAVOK 23/10 Q1016
                        NOSIG=
201107041450 METAR COR EGLL 041450Z 10007KT CAVOK 23/10 Q1016 NOSIG=
201107041420 METAR COR EGLL 041420Z 15008KT 110V190 CAVOK 24/09 Q1016
                        NOSIG=
201107041350 METAR COR EGLL 041350Z 13007KT 090V210 CAVOK 25/10 Q1016
                        NOSIG=
201107041320 METAR COR EGLL 041320Z 13005KT 080V180 CAVOK 24/10 Q1016
                        NOSIG=
201107041250 METAR COR EGLL 041250Z 14005KT 100V210 CAVOK 23/10 Q1017
                        NOSIG=
201107041220 METAR COR EGLL 041220Z VRB03KT CAVOK 23/10 Q1017 NOSIG=
201107041150 METAR EGLL 041150Z 14005KT 070V240 CAVOK 23/10 Q1017=
201107041120 METAR COR EGLL 041120Z 16005KT 100V220 CAVOK 24/10 Q1017
                        NOSIG=
201107041050 METAR COR EGLL 041050Z VRB04KT CAVOK 23/10 Q1017 NOSIG=
201107041020 METAR COR EGLL 041020Z 10005KT 030V160 CAVOK 23/10 Q1017
                        NOSIG=
201107040950 METAR COR EGLL 040950Z 21004KT 160V260 CAVOK 22/11 Q1018
                        NOSIG=
201107040920 METAR COR EGLL 040920Z VRB03KT CAVOK 21/10 Q1018 NOSIG=
201107040850 METAR COR EGLL 040850Z VRB03KT CAVOK 21/10 Q1018 NOSIG=
201107040820 METAR COR EGLL 040820Z 22005KT 160V260 CAVOK 19/10 Q1018
                        NOSIG=
201107040750 METAR COR EGLL 040750Z VRB03KT CAVOK 19/09 Q1018 NOSIG=
201107040720 METAR COR EGLL 040720Z 13005KT 100V170 CAVOK 18/10 Q1018
                        NOSIG=
201107040650 METAR COR EGLL 040650Z 15004KT CAVOK 17/09 Q1018 NOSIG=
201107040620 METAR COR EGLL 040620Z 15004KT 090V190 CAVOK 16/09 Q1018
                        NOSIG=
201107040550 METAR COR EGLL 040550Z 15005KT 110V180 CAVOK 15/09 Q1017
                        NOSIG=
201107040520 METAR COR EGLL 040520Z 15005KT 090V200 CAVOK 14/09 Q1017
                        NOSIG=
201107040450 METAR COR EGLL 040450Z 13006KT 110V200 CAVOK 14/09 Q1017
                        NOSIG=
201107040420 METAR COR EGLL 040420Z 16005KT CAVOK 14/09 Q1017 NOSIG=
201107040350 METAR COR EGLL 040350Z 16004KT CAVOK 14/09 Q1017 NOSIG=
201107040320 METAR COR EGLL 040320Z 16004KT CAVOK 15/09 Q1017 NOSIG=
201107040250 METAR EGLL 040250Z NIL=
201107040220 METAR COR EGLL 040220Z 13005KT CAVOK 15/09 Q1017 NOSIG=
201107040150 METAR COR EGLL 040150Z 14005KT CAVOK 16/09 Q1017 NOSIG=
201107040120 METAR EGLL 040120Z AUTO 12004KT 9999NDV NCD 16/10 Q1017=
201107040050 METAR EGLL 040050Z AUTO 15004KT 9999NDV NCD 17/10 Q1017=
201107040020 METAR EGLL 040020Z AUTO 17004KT 9999NDV NCD 17/11 Q1017=
201107032350 METAR COR EGLL 032350Z 17005KT CAVOK 17/11 Q1017 NOSIG=
201107032320 METAR COR EGLL 032320Z 15004KT CAVOK 18/11 Q1017 NOSIG=
201107032250 METAR COR EGLL 032250Z 16005KT CAVOK 19/11 Q1017 NOSIG=
201107032220 METAR COR EGLL 032220Z 14007KT CAVOK 20/11 Q1017 NOSIG=
201107032150 METAR COR EGLL 032150Z 36003KT CAVOK 20/11 Q1017 NOSIG=
201107032120 METAR COR EGLL 032120Z 36004KT CAVOK 21/11 Q1017 NOSIG=
201107032050 METAR COR EGLL 032050Z 36004KT CAVOK 21/10 Q1017 NOSIG=
201107032020 METAR COR EGLL 032020Z 36004KT CAVOK 21/10 Q1017 NOSIG=
201107031950 METAR COR EGLL 031950Z VRB03KT CAVOK 22/09 Q1017 NOSIG=
201107031920 METAR COR EGLL 031920Z VRB03KT CAVOK 22/09 Q1017 NOSIG=
201107031850 METAR COR EGLL 031850Z 36004KT CAVOK 22/08 Q1017 NOSIG=
201107031820 METAR COR EGLL 031820Z 36005KT CAVOK 22/08 Q1017 NOSIG=
201107031750 METAR COR EGLL 031750Z 36004KT 270V030 CAVOK 23/08 Q1017
                        NOSIG=
201107031720 METAR COR EGLL 031720Z 36004KT 330V050 CAVOK 23/08 Q1017
                        NOSIG=
201107031650 METAR COR EGLL 031650Z 31005KT 270V050 CAVOK 23/09 Q1017
                        NOSIG=
201107031620 METAR COR EGLL 031620Z 31006KT 250V060 CAVOK 23/08 Q1017
                        NOSIG=
201107031550 METAR COR EGLL 031550Z VRB04KT CAVOK 23/08 Q1017 NOSIG=
201107031520 METAR COR EGLL 031520Z 28006KT CAVOK 23/08 Q1017 NOSIG=
201107031450 METAR COR EGLL 031450Z 30005KT 200V010 CAVOK 22/09 Q1017
                        NOSIG=
201107031420 METAR COR EGLL 031420Z 34004KT 280V040 CAVOK 22/09 Q1017
                        NOSIG=
201107031350 METAR COR EGLL 031350Z 32004KT 280V010 CAVOK 22/09 Q1018
                        NOSIG=
201107031320 METAR COR EGLL 031320Z 36004KT 330V040 9999 FEW044 22/09
                        Q1018 NOSIG=
201107031250 METAR COR EGLL 031250Z 33005KT 290V010 9999 FEW044 21/10
                        Q1018 NOSIG=
201107031220 METAR COR EGLL 031220Z 35005KT 300V040 CAVOK 21/09 Q1018
                        NOSIG=
201107031150 METAR COR EGLL 031150Z 34006KT 300V030 CAVOK 21/10 Q1018
                        NOSIG=
201107031120 METAR COR EGLL 031120Z VRB04KT 9999 FEW048 21/09 Q1018 NOSIG=
201107031050 METAR COR EGLL 031050Z 35004KT 260V050 9999 FEW048 23/10
                        Q1018 NOSIG=
201107031020 METAR COR EGLL 031020Z 33005KT 280V040 9999 FEW048 22/10
                        Q1018 NOSIG=
201107030950 METAR COR EGLL 030950Z 29005KT 220V020 9999 FEW044 21/10
                        Q1018 NOSIG=
201107030920 METAR COR EGLL 030920Z 30006KT 270V340 CAVOK 20/10 Q1018
                        NOSIG=
201107030850 METAR COR EGLL 030850Z 29005KT 250V330 CAVOK 20/11 Q1018
                        NOSIG=
201107030820 METAR COR EGLL 030820Z 27006KT 240V310 CAVOK 19/10 Q1018
                        NOSIG=
201107030750 METAR COR EGLL 030750Z 26007KT 240V300 CAVOK 18/10 Q1018
                        NOSIG=
201107030720 METAR COR EGLL 030720Z 27008KT CAVOK 17/10 Q1018 NOSIG=
201107030650 METAR COR EGLL 030650Z 28004KT CAVOK 15/09 Q1018 NOSIG=
201107030620 METAR COR EGLL 030620Z 27006KT CAVOK 14/09 Q1018 NOSIG=
201107030550 METAR COR EGLL 030550Z 29004KT CAVOK 13/09 Q1018 NOSIG=
201107030520 METAR COR EGLL 030520Z 26005KT 210V290 CAVOK 12/09 Q1018
                        NOSIG=
201107030450 METAR EGLL 030450Z 28004KT CAVOK 11/08 Q1018=
201107030420 METAR COR EGLL 030420Z 28005KT CAVOK 11/08 Q1018 NOSIG=
201107030350 METAR COR EGLL 030350Z 25005KT CAVOK 11/08 Q1018 NOSIG=
201107030320 METAR EGLL 030320Z 24006KT CAVOK 11/08 Q1018=
201107030250 METAR COR EGLL 030250Z 24005KT CAVOK 12/08 Q1018 NOSIG=
201107030220 METAR COR EGLL 030220Z 24005KT CAVOK 12/08 Q1018 NOSIG=
201107030150 METAR COR EGLL 030150Z 22005KT CAVOK 12/08 Q1018 NOSIG=
201107030120 METAR EGLL 030120Z AUTO 18003KT 9999NDV NCD 13/08 Q1018=
201107030050 METAR EGLL 030050Z AUTO 21005KT 9999NDV NCD 13/08 Q1018=
201107030020 METAR EGLL 030020Z AUTO 22004KT 9999NDV NCD 13/08 Q1018=
201107022350 METAR COR EGLL 022350Z 21004KT CAVOK 14/08 Q1018 NOSIG=
201107022320 METAR COR EGLL 022320Z 18003KT CAVOK 14/08 Q1018 NOSIG=
201107022250 METAR COR EGLL 022250Z 15005KT CAVOK 14/09 Q1018 NOSIG=
201107022220 METAR COR EGLL 022220Z 19006KT CAVOK 15/09 Q1018 NOSIG=
201107022150 METAR COR EGLL 022150Z 18007KT 140V200 CAVOK 16/09 Q1018
                        NOSIG=
201107022120 METAR COR EGLL 022120Z 20007KT 170V230 CAVOK 16/09 Q1018
                        NOSIG=
201107022050 METAR COR EGLL 022050Z 19008KT CAVOK 17/09 Q1018 NOSIG=
201107022020 METAR COR EGLL 022020Z 19008KT 170V240 CAVOK 18/09 Q1018
                        NOSIG=
201107021950 METAR COR EGLL 021950Z 18009KT CAVOK 19/09 Q1018 NOSIG=
201107021920 METAR COR EGLL 021920Z 17009KT 140V200 CAVOK 19/09 Q1017
                        NOSIG=
201107021850 METAR COR EGLL 021850Z 16010KT 120V210 CAVOK 19/09 Q1017
                        NOSIG=
201107021820 METAR COR EGLL 021820Z 16011KT CAVOK 20/09 Q1017 NOSIG=
201107021750 METAR COR EGLL 021750Z 14010KT CAVOK 21/09 Q1017 NOSIG=
201107021720 METAR COR EGLL 021720Z 14007KT 090V200 CAVOK 20/09 Q1017
                        NOSIG=
201107021650 METAR COR EGLL 021650Z 15008KT 100V190 9999 FEW049 21/07
                        Q1018 NOSIG=
201107021620 METAR COR EGLL 021620Z 23006KT 190V260 CAVOK 21/07 Q1018
                        NOSIG=
201107021550 METAR COR EGLL 021550Z 15006KT 080V260 CAVOK 22/09 Q1018
                        NOSIG=
201107021520 METAR COR EGLL 021520Z 10004KT 050V160 CAVOK 22/06 Q1018
                        NOSIG=
201107021450 METAR EGLL 021450Z 11005KT 080V160 CAVOK 23/07 Q1018=
201107021420 METAR COR EGLL 021420Z 00000KT CAVOK 21/06 Q1019 NOSIG=
201107021350 METAR COR EGLL 021350Z VRB03KT CAVOK 21/07 Q1019 NOSIG=
201107021320 METAR COR EGLL 021320Z 06004KT 360V090 CAVOK 23/06 Q1019
                        NOSIG=
201107021250 METAR COR EGLL 021250Z VRB04KT CAVOK 22/05 Q1019 NOSIG=
201107021220 METAR COR EGLL 021220Z VRB04KT CAVOK 21/07 Q1020 NOSIG=
201107021150 METAR COR EGLL 021150Z VRB03KT CAVOK 20/07 Q1020 NOSIG=
201107021120 METAR COR EGLL 021120Z VRB03KT CAVOK 20/07 Q1020 NOSIG=
201107021050 METAR COR EGLL 021050Z 31004KT 270V080 9999 FEW048 21/06
                        Q1020 NOSIG=
201107021020 METAR COR EGLL 021020Z 25004KT 190V290 9999 FEW047 20/08
                        Q1020 NOSIG=
201107020950 METAR COR EGLL 020950Z VRB03KT 9999 SCT042 18/07 Q1020 NOSIG=
201107020920 METAR COR EGLL 020920Z 08005KT 320V130 9999 SCT039 18/08
                        Q1020 NOSIG=
201107020850 METAR COR EGLL 020850Z VRB03KT 9999 SCT040 18/09 Q1020 NOSIG=
201107020820 METAR COR EGLL 020820Z VRB02KT 9999 FEW034 19/09 Q1021 NOSIG=
201107020750 METAR COR EGLL 020750Z VRB02KT CAVOK 18/09 Q1021 NOSIG=
201107020720 METAR COR EGLL 020720Z VRB03KT CAVOK 18/10 Q1021 NOSIG=
201107020650 METAR COR EGLL 020650Z VRB03KT CAVOK 17/10 Q1021 NOSIG=
201107020620 METAR COR EGLL 020620Z VRB02KT CAVOK 16/11 Q1021 NOSIG=
201107020550 METAR COR EGLL 020550Z 18004KT 140V240 CAVOK 15/11 Q1021
                        NOSIG=
201107020520 METAR COR EGLL 020520Z VRB02KT CAVOK 14/10 Q1021 NOSIG=
201107020450 METAR COR EGLL 020450Z VRB02KT CAVOK 14/10 Q1021 NOSIG=
201107020420 METAR COR EGLL 020420Z VRB02KT CAVOK 13/10 Q1022 NOSIG=
201107020350 METAR COR EGLL 020350Z 02002KT CAVOK 13/10 Q1022 NOSIG=
201107020320 METAR COR EGLL 020320Z 01002KT CAVOK 13/09 Q1022 NOSIG=
201107020250 METAR COR EGLL 020250Z 36002KT CAVOK 13/09 Q1022 NOSIG=
201107020220 METAR COR EGLL 020220Z 36004KT CAVOK 14/09 Q1022 NOSIG=
201107020150 METAR COR EGLL 020150Z 35003KT CAVOK 14/09 Q1022 NOSIG=
201107020120 METAR EGLL 020120Z AUTO 35003KT 9999NDV NCD 14/08 Q1023=
201107020050 METAR EGLL 020050Z AUTO VRB02KT 9999NDV NCD 15/08 Q1023=
201107020020 METAR EGLL 020020Z AUTO 04003KT 9999NDV NCD 15/07 Q1023=
201107012350 METAR COR EGLL 012350Z 03004KT 360V060 CAVOK 16/07 Q1023
                        NOSIG=
201107012320 METAR COR EGLL 012320Z VRB03KT CAVOK 16/07 Q1023 NOSIG=
201107012250 METAR COR EGLL 012250Z 36004KT CAVOK 16/08 Q1023 NOSIG=
201107012220 METAR COR EGLL 012220Z 36003KT CAVOK 16/07 Q1023 NOSIG=
201107012150 METAR COR EGLL 012150Z 35002KT CAVOK 17/07 Q1023 NOSIG=
201107012120 METAR COR EGLL 012120Z VRB03KT CAVOK 17/07 Q1024 NOSIG=
201107012050 METAR COR EGLL 012050Z 36003KT CAVOK 17/06 Q1024 NOSIG=
201107012020 METAR COR EGLL 012020Z 36003KT CAVOK 17/06 Q1024 NOSIG=
201107011950 METAR COR EGLL 011950Z VRB03KT CAVOK 18/06 Q1024 NOSIG=
201107011920 METAR COR EGLL 011920Z VRB03KT CAVOK 19/06 Q1024 NOSIG=
201107011850 METAR COR EGLL 011850Z 36004KT CAVOK 19/05 Q1024 NOSIG=
201107011820 METAR COR EGLL 011820Z VRB03KT CAVOK 19/05 Q1024 NOSIG=
201107011750 METAR COR EGLL 011750Z 35005KT 310V020 CAVOK 19/05 Q1024
                        NOSIG=
201107011720 METAR COR EGLL 011720Z 29007KT CAVOK 18/05 Q1024 NOSIG=
201107011650 METAR COR EGLL 011650Z 29004KT 240V320 CAVOK 19/05 Q1024
                        NOSIG=
201107011620 METAR COR EGLL 011620Z 32005KT 280V020 CAVOK 19/05 Q1025
                        NOSIG=
201107011550 METAR COR EGLL 011550Z 35006KT 300V020 CAVOK 19/06 Q1025
                        NOSIG=
201107011520 METAR COR EGLL 011520Z 35005KT 290V040 CAVOK 20/05 Q1025
                        NOSIG=
201107011450 METAR COR EGLL 011450Z 32007KT 300V360 CAVOK 19/06 Q1026
                        NOSIG=
201107011420 METAR COR EGLL 011420Z 32006KT 260V350 CAVOK 19/05 Q1026
                        NOSIG=
201107011350 METAR COR EGLL 011350Z 28006KT 250V330 CAVOK 19/06 Q1026
                        NOSIG=
201107011320 METAR COR EGLL 011320Z 32007KT 220V360 CAVOK 18/06 Q1026
                        NOSIG=
201107011250 METAR COR EGLL 011250Z 34006KT 280V030 CAVOK 18/05 Q1026
                        NOSIG=
201107011220 METAR EGLL 011220Z 35005KT 270V050 CAVOK 18/06 Q1026=
201107011150 METAR EGLL 011150Z 33008KT 300V020 CAVOK 18/05 Q1027 NOSIG=
201107011120 METAR COR EGLL 011120Z 32006KT 260V360 CAVOK 17/05 Q1027
                        NOSIG=
201107011050 METAR COR EGLL 011050Z 33007KT 260V020 9999 SCT047 18/06
                        Q1027 NOSIG=
201107011020 METAR COR EGLL 011020Z 02006KT 290V070 9999 SCT043 18/06
                        Q1027 NOSIG=
201107010950 METAR COR EGLL 010950Z 35007KT 290V030 9999 SCT043 17/06
                        Q1027 NOSIG=
201107010920 METAR COR EGLL 010920Z 34008KT 300V010 9999 FEW042 17/05
                        Q1027 NOSIG=
201107010850 METAR COR EGLL 010850Z 34007KT 300V030 9999 FEW036 16/06
                        Q1027 NOSIG=
201107010820 METAR COR EGLL 010820Z 33007KT 300V030 9999 FEW032 16/07
                        Q1027 NOSIG=
201107010750 METAR COR EGLL 010750Z 34007KT 300V030 9999 FEW024 15/07
                        Q1027 NOSIG=
201107010720 METAR COR EGLL 010720Z 34007KT 310V020 9999 FEW024 15/08
                        Q1027 NOSIG=
201107010650 METAR COR EGLL 010650Z 35006KT 310V020 CAVOK 14/08 Q1027
                        NOSIG=
201107010620 METAR COR EGLL 010620Z 33005KT 290V010 CAVOK 13/08 Q1027
                        NOSIG=
201107010550 METAR COR EGLL 010550Z VRB03KT CAVOK 12/08 Q1027 NOSIG=
201107010520 METAR COR EGLL 010520Z 30004KT CAVOK 11/07 Q1027 NOSIG=
201107010450 METAR COR EGLL 010450Z 28002KT CAVOK 10/07 Q1027 NOSIG=
201107010420 METAR COR EGLL 010420Z 29002KT CAVOK 10/07 Q1026 NOSIG=
201107010350 METAR COR EGLL 010350Z 30002KT CAVOK 10/07 Q1026 NOSIG=
201107010320 METAR COR EGLL 010320Z 32004KT 290V350 CAVOK 11/07 Q1026
                        NOSIG=
201107010250 METAR COR EGLL 010250Z 33004KT 300V020 CAVOK 11/07 Q1026
                        NOSIG=
201107010220 METAR COR EGLL 010220Z VRB03KT CAVOK 11/07 Q1026 NOSIG=
201107010150 METAR COR EGLL 010150Z 31004KT CAVOK 11/07 Q1026 NOSIG=
201107010120 METAR EGLL 010120Z AUTO VRB03KT 9999NDV NCD 12/06 Q1026=
201107010050 METAR EGLL 010050Z AUTO 33004KT 300V360 9999NDV NCD 13/06
                        Q1026=
201107010020 METAR EGLL 010020Z AUTO 33005KT 310V010 9999NDV NCD 13/06
                        Q1026=

# No short TAF reports from EGLL in databse.

###################################
#  large TAF from EGLL
###################################
201107312257 TAF EGLL 312257Z 0100/0206 15006KT 9999 FEW045
                      PROB30 0102/0107 8000=
201107311700 TAF EGLL 311700Z 3118/0124 17007KT 9999 FEW045
                      PROB30 0102/0106 8000=
201107311102 TAF EGLL 311102Z 3112/0118 17007KT 9999 FEW045
                      PROB30 0102/0106 8000=
201107310501 TAF EGLL 310501Z 3106/0112 17008KT 7000 SCT040
                      BECMG 3106/3108 9999=
201107302257 TAF EGLL 302257Z 3100/0106 VRB05KT 9999 SCT040
                      PROB30 3102/3107 9000
                      BECMG 3107/3110 17010KT=
201107301654 TAF EGLL 301654Z 3018/3124 VRB05KT 9999 SCT040
                      PROB30 3105/3107 9000
                      BECMG 3107/3110 16010KT=
201107301052 TAF EGLL 301052Z 3012/3118 VRB05KT 9999 SCT035
                      PROB30 3103/3107 9000
                      BECMG 3107/3110 17010KT=
201107300500 TAF EGLL 300500Z 3006/3112 VRB05KT 9999 SCT035
                      PROB30 3103/3107 7000=
201107292259 TAF EGLL 292259Z 3000/3106 05007KT 9999 SCT030
                      PROB30 3003/3007 7000
                      PROB40 3101/3106 6000=
201107291657 TAF EGLL 291657Z 2918/3024 VRB05KT 9999 FEW030 SCT045
                      PROB30 TEMPO 3001/3007 6000 -RADZ BKN014=
201107291056 TAF EGLL 291056Z 2912/3018 10005KT 9999 SCT040
                      PROB30 TEMPO 2914/3001 6000 SHRA
                      PROB30 TEMPO 3001/3006 6000 -RADZ BKN014=
201107290826 TAF AMD EGLL 290826Z 2908/3012 06005KT 9999 SCT030
                      PROB30 2908/2909 BKN012
                      PROB30 TEMPO 2914/3004 8000 SHRA=
201107290459 TAF EGLL 290459Z 2906/3012 06005KT 8000 SCT030
                      PROB30 2906/2908 4000 BR BKN003
                      BECMG 2906/2908 9999
                      PROB30 TEMPO 2914/3004 8000 SHRA=
201107282259 TAF EGLL 282259Z 2900/3006 03005KT 9999 SCT040
                      PROB40 2901/2907 6000
                      PROB30 TEMPO 2914/2924 7000 SHRA=
201107281711 TAF COR EGLL 281711Z 2818/2924 VRB04KT 9999 SCT030
                      PROB40 2902/2907 6000
                      BECMG 2918/2921 04010KT
                      TEMPO 2918/2924 7000 SHRA=
201107281701 TAF EGLL 281701Z 2818/2924 VRB04KT 9999 SCT030
                      PROB40 2902/2907 6000
                      BECMG 2918/2921 04010KT=
201107281107 TAF EGLL 281107Z 2812/2918 02005KT 9999 SCT030
                      PROB30 2900/2907 6000
                      BECMG 2905/2908 09010KT=
201107280458 TAF EGLL 280458Z 2806/2912 01005KT 7000 BKN010
                      BECMG 2806/2809 9999 SCT030
                      PROB40 2806/2808 BKN009
                      PROB40 2900/2908 7000=
201107280328 TAF AMD EGLL 280328Z 2803/2906 02005KT 8000 BKN010
                      PROB40 2803/2808 BKN009
                      BECMG 2805/2808 9999 SCT030
                      BECMG 2821/2824 7000=
201107272300 TAF AMD EGLL 280328Z 2803/2906 02005KT 8000 BKN010
                      PROB40 2803/2808 BKN009
                      BECMG 2805/2808 9999 SCT030
                      BECMG 2821/2824 7000=
201107271830 TAF AMD EGLL 271830Z 2718/2824 01007KT 9999 SCT035
                      BECMG 2800/2803 BKN008
                      PROB40 TEMPO 2802/2808 7000
                      BECMG 2806/2809 SCT025
                      PROB40 2821/2824 7000=
201107271701 TAF EGLL 271701Z 2718/2824 01007KT 9999 SCT035
                      BECMG 2800/2803 BKN008
                      PROB40 TEMPO 2802/2808 7000
                      BECMG 2806/2809 9999
                      PROB40 2821/2824 7000=
201107271100 TAF EGLL 271100Z 2712/2818 01008KT 9999 SCT025
                      TEMPO 2802/2808 7000 BKN008=
201107270500 TAF EGLL 270500Z 2706/2812 01006KT 9999 SCT035
                      PROB40 TEMPO 2706/2709 9000 BKN012
                      BECMG 2723/2802 7000
                      PROB30 TEMPO 2805/2807 BKN006
                      BECMG 2806/2809 9999=
201107262253 TAF EGLL 262253Z 2700/2806 01006KT 9999 SCT035
                      PROB40 TEMPO 2703/2710 9000 BKN012
                      PROB30 2721/2724 BKN012
                      PROB30 TEMPO 2804/2806 4000 BR BKN006=
201107261657 TAF EGLL 261657Z 2618/2724 01006KT 9999 SCT045
                      PROB40 TEMPO 2703/2710 9000 BKN012
                      PROB30 2721/2724 BKN013=
201107261057 TAF EGLL 261057Z 2612/2718 35004KT 9999 SCT040
                      PROB30 TEMPO 2703/2710 9000 BKN013=
201107260500 TAF EGLL 260500Z 2606/2712 01006KT 9999 SCT040
                      PROB30 TEMPO 2704/2709 9000 BKN014=
201107252323 TAF EGLL 252323Z 2600/2706 02005KT 9999 FEW040
                      PROB30 TEMPO 2704/2706 9000 BKN014=
201107252300 TAF EGLL 252300Z NIL=
201107251659 TAF EGLL 251659Z 2518/2624 01005KT 9999 FEW040=
201107251108 TAF EGLL 251108Z 2512/2618 33005KT 9999 FEW040=
201107250505 TAF EGLL 250505Z 2506/2612 29009KT 9999 FEW040=
201107242258 TAF EGLL 242258Z 2500/2606 29009KT 9999 FEW040=
201107241658 TAF EGLL 241658Z 2418/2524 29009KT 9999 FEW040=
201107241057 TAF EGLL 241057Z 2412/2518 30009KT 9999 FEW040=
201107240501 TAF EGLL 240501Z 2406/2512 30009KT 9999 FEW040=
201107232257 TAF EGLL 232257Z 2400/2506 29007KT 9999 FEW040=
201107232106 TAF AMD EGLL 232106Z 2321/2424 30006KT 9999 SCT040=
201107231653 TAF EGLL 231653Z 2318/2424 30010KT 9999 SCT040=
201107231053 TAF EGLL 231053Z 2312/2418 32010KT 9999 SCT035=
201107230456 TAF EGLL 230456Z 2306/2412 34011KT 9999 SCT040
                      PROB30 2306/2307 8000 BKN009
                      BECMG 2321/2324 24007KT
                      BECMG 2409/2412 31010KT=
201107222258 TAF EGLL 222258Z 2300/2406 VRB05KT 9999 SCT045
                      TEMPO 2300/2306 34014KT 7000 SHRA
                      PROB30 TEMPO 2300/2305 4000 +SHRA BKN014
                       BKN020CB
                      PROB30 2306/2309 7000 BKN009
                      BECMG 2308/2311 33012KT=
201107222027 TAF AMD EGLL 222027Z 2220/2324 VRB05KT 9999 SCT040
                      TEMPO 2220/2305 34014KT 7000 SHRA
                      PROB30 TEMPO 2220/2305 4000 +SHRA BKN010
                       BKN018CB
                      PROB30 2305/2307 7000 BKN007
                      BECMG 2307/2310 33010KT=
201107221702 TAF EGLL 221702Z 2218/2324 VRB05KT 9999 SCT040
                      TEMPO 2219/2305 7000 SHRA
                      PROB30 TEMPO 2222/2305 4000 +SHRA BKN010CB
                       PROB30 2305/2307 7000 BKN010
                      BECMG 2307/2310 33010KT=
201107221058 TAF EGLL 221058Z 2212/2318 35007KT 9999 SCT040
                      TEMPO 2217/2305 7000 SHRA
                      PROB30 TEMPO 2221/2303 4000 +SHRA BKN010CB
                       PROB30 2303/2307 BKN010=
201107220504 TAF EGLL 220504Z 2206/2312 35007KT 9999 FEW020 SCT040
                      PROB30 TEMPO 2206/2208 9000 BKN012
                      TEMPO 2215/2303 7000 SHRA
                      PROB30 TEMPO 2217/2301 4000 +TSRA=
201107212259 TAF EGLL 212259Z 2200/2306 01005KT 9999 FEW020 SCT042
                      PROB30 2203/2207 9000 BKN013
                      TEMPO 2214/2301 7000 SHRA
                      PROB30 TEMPO 2216/2222 3500 +TSRA
                      PROB30 TEMPO 2223/2306 BKN012=
201107211658 TAF EGLL 211658Z 2118/2224 02007KT 9999 SCT025
                      TEMPO 2118/2124 6000 SHRA
                      PROB30 TEMPO 2118/2121 +SHRA
                      PROB30 TEMPO 2123/2206 BKN012
                      PROB40 TEMPO 2212/2224 6000 SHRA=
201107211059 TAF EGLL 211059Z 2112/2218 01007KT 9999 SCT025
                      TEMPO 2112/2123 6000 SHRA
                      PROB30 TEMPO 2115/2120 3500 +SHRA
                      PROB30 TEMPO 2123/2207 BKN012
                      PROB40 TEMPO 2212/2218 6000 SHRA=
201107210501 TAF EGLL 210501Z 2106/2212 02007KT 9999 SCT025 SCT045
                      PROB30 TEMPO 2106/2110 9000 -SHRA BKN012
                       TEMPO 2110/2123 6000 SHRA
                      PROB30 TEMPO 2113/2121 3500 +TSRA
                      PROB30 TEMPO 2123/2207 BKN012=
201107202303 TAF EGLL 202303Z 2100/2206 02006KT 9999 FEW012 SCT030
                      TEMPO 2100/2124 7000 SHRA
                      PROB30 TEMPO 2100/2108 BKN010
                      PROB30 TEMPO 2113/2122 3500 +TSRA
                      PROB30 TEMPO 2122/2206 BKN013=
201107201659 TAF EGLL 201659Z 2018/2124 VRB04KT 9999 FEW022 SCT045
                      PROB30 TEMPO 2018/2020 9000 -RA
                      BECMG 2023/2102 01010KT
                      PROB40 TEMPO 2023/2109 9000 -RA SCT007 BKN012
                       PROB30
                      TEMPO 2109/2122 5000 SHRA
                      TEMPO 2122/2124 6000 BKN012=
201107201058 TAF EGLL 201058Z 2012/2118 24006KT 9999 FEW022 SCT045
                      PROB40 TEMPO 2012/2020 7000 RA SHRA
                      BECMG 2023/2102 01010KT
                      PROB40 TEMPO 2023/2109 9000 -RA BKN013
                      PROB30 TEMPO 2109/2118 5000 SHRA=
201107200453 TAF EGLL 200453Z 2006/2112 24005KT 9999 SCT030
                      PROB30 TEMPO 2015/2020 8000 -SHRA
                      PROB30 TEMPO 2110/2112 5000 SHRA=
201107192301 TAF EGLL 192301Z 2000/2106 27005KT 9999 SCT030
                      PROB30 TEMPO 2015/2020 8000 -SHRA=
201107191705 TAF EGLL 191705Z 1918/2024 27005KT 9999 SCT030
                      PROB30 TEMPO 1918/1919 5000 SHRA=
201107191101 TAF EGLL 191101Z 1912/2018 29007KT 9999 SCT025
                      TEMPO 1913/1919 6000 SHRA
                      PROB30 TEMPO 1914/1918 +SHRA
                      PROB40 TEMPO 2011/2018 7000 SHRA=
201107190943 TAF AMD EGLL 190943Z 1909/2012 27006KT 9999 BKN012
                      BECMG 1909/1910 SCT018
                      TEMPO 1912/1919 6000 SHRA
                      PROB30 TEMPO 1914/1918 +SHRA=
201107190457 TAF EGLL 190457Z 1906/2012 24005KT 9999 BKN006
                      TEMPO 1906/1908 6000 BKN003
                      BECMG 1906/1909 31010KT SCT015
                      TEMPO 1911/1918 7000 SHRA
                      PROB30 TEMPO 1913/1918 +SHRA=
201107190336 TAF AMD EGLL 190336Z 1903/2006 23010KT 9999 FEW015 SCT030
                      TEMPO 1903/1908 BKN006
                      BECMG 1906/1909 31010KT
                      TEMPO 1911/1918 7000 SHRA
                      PROB30 TEMPO 1913/1918 +SHRA=
201107182303 TAF EGLL 182303Z 1900/2006 23010KT 9999 FEW015 SCT030
                      PROB30 TEMPO 1900/1909 BKN012
                      BECMG 1906/1909 31010KT
                      TEMPO 1911/1918 7000 SHRA
                      PROB30 TEMPO 1913/1918 +SHRA=
201107182300 TAF AMD EGLL 190336Z 1903/2006 23010KT 9999 FEW015 SCT030
                      TEMPO 1903/1908 BKN006
                      BECMG 1906/1909 31010KT
                      TEMPO 1911/1918 7000 SHRA
                      PROB30 TEMPO 1913/1918 +SHRA=
201107181706 TAF EGLL 181706Z 1818/1924 23010KT 9999 FEW015 SCT030
                      TEMPO 1818/1821 7000 SHRA
                      PROB40 TEMPO 1818/1820 +SHRA
                      TEMPO 1902/1909 BKN009
                      BECMG 1906/1909 31010KT
                      TEMPO 1911/1918 7000 SHRA
                      PROB30 TEMPO 1913/1917 +SHRA=
201107181535 TAF COR EGLL 181535Z 1815/1918 24013KT 9999 SCT025
                      TEMPO 1815/1820 7000 SHRA
                      PROB30 TEMPO 1815/1818 24016G26KT +SHRA
                      TEMPO 1900/1909 BKN010
                      BECMG 1906/1909 31010KT
                      TEMPO 1909/1918 7000 SHRA
                      PROB30 TEMPO 1913/1917 +SHRA=
201107181101 TAF EGLL 181101Z 1812/1918 24013KT 9999 SCT025
                      TEMPO 1812/1918 7000 SHRA
                      PROB30 TEMPO 1813/1818 24016G26KT +SHRA
                      TEMPO 1900/1909 BKN010
                      BECMG 1906/1909 31010KT
                      TEMPO 1909/1918 7000 SHRA
                      PROB30 TEMPO 1913/1917 +SHRA=
201107180500 TAF EGLL 180500Z 1806/1912 25013KT 9999 SCT025
                      TEMPO 1806/1912 7000 SHRA
                      PROB30 TEMPO 1806/1811 BKN012
                      PROB30 TEMPO 1812/1819 25016G26KT +SHRA
                      PROB40 TEMPO 1822/1910 BKN012=
201107172258 TAF EGLL 172258Z 1800/1906 25013KT 9999 SCT025
                      TEMPO 1800/1906 7000 SHRA
                      PROB40 TEMPO 1800/1811 BKN012
                      PROB30 TEMPO 1812/1819 25016G26KT 4000 +SHRA
                       PROB40
                      TEMPO 1822/1906 BKN012=
201107171658 TAF EGLL 171658Z 1718/1824 25013KT 9999 SCT030
                      TEMPO 1718/1723 6000 SHRA
                      PROB40 TEMPO 1723/1810 8000 -SHRA BKN013
                       PROB30
                      TEMPO 1810/1821 7000 SHRA=
201107171053 TAF EGLL 171053Z 1712/1818 26014KT 9999 SCT022 SCT045
                      TEMPO 1712/1723 6000 SHRA
                      PROB40 TEMPO 1712/1719 26017G27KT 4000 +TSRA
                       TEMPO 1723/1810 8000 -SHRA BKN013
                      PROB30 TEMPO 1810/1817 7000 SHRA=
201107170503 TAF EGLL 170503Z 1706/1812 21012KT 9999 SCT022 SCT045
                      TEMPO 1706/1723 6000 SHRA
                      TEMPO 1706/1710 BKN014
                      BECMG 1712/1715 27014KT
                      PROB30 TEMPO 1712/1718 26017G27KT 4000 +TSRA
                       TEMPO 1723/1810 8000 -SHRA BKN013=
201107162302 TAF EGLL 162302Z 1700/1806 24012KT 9999 SCT025 SCT045
                      PROB30 TEMPO 1703/1709 8000 SHRA BKN014
                      TEMPO 1709/1723 26016G27KT 6000 SHRA
                      PROB30 TEMPO 1711/1718 4000 +TSRA
                      PROB30 TEMPO 1723/1806 7000 -RA BKN013=
201107161700 TAF EGLL 161700Z 1618/1724 23012KT 9999 SCT025
                      PROB30 TEMPO 1618/1620 25015G25KT 8000 SHRA
                       TEMPO 1707/1724 25015G25KT 7000 SHRA
                      PROB40 TEMPO 1707/1711 BKN014=
201107161103 TAF EGLL 161103Z 1612/1718 23012KT 8000 -RA SCT007 BKN014
                      TEMPO 1612/1614 4000 RA BKN007
                      PROB30 TEMPO 1612/1614 23015G25KT +RA
                      BECMG 1613/1615 9999 NSW SCT020
                      PROB30 TEMPO 1615/1619 25015G25KT 8000 SHRA
                       TEMPO 1708/1718 26017G27KT 8000 -RA BKN014=
201107160456 TAF EGLL 160456Z 1606/1712 19012KT 9999 SCT008 BKN014
                      TEMPO 1606/1613 8000 RA BKN008
                      PROB30 TEMPO 1609/1613 23015G25KT 4000 +RA
                       BECMG 1612/1615 25014KT SCT020
                      PROB30 TEMPO 1613/1619 25015G25KT 8000 SHRA
                       PROB30
                      TEMPO 1708/1712 8000 -RA BKN014=
201107160154 TAF AMD EGLL 160154Z 1601/1706 19012KT 9999 SCT008 BKN014
                      TEMPO 1601/1605 8000 -RA BKN006
                      TEMPO 1605/1612 8000 RA BKN008
                      PROB30 TEMPO 1609/1612 23015G25KT 4000 +RA
                       BECMG 1611/1614 25014KT SCT020
                      PROB30 TEMPO 1613/1619 25016G26KT 8000 SHRA=
201107152300 TAF AMD EGLL 160154Z 1601/1706 19012KT 9999 SCT008 BKN014
                      TEMPO 1601/1605 8000 -RA BKN006
                      TEMPO 1605/1612 8000 RA BKN008
                      PROB30 TEMPO 1609/1612 23015G25KT 4000 +RA
                       BECMG 1611/1614 25014KT SCT020
                      PROB30 TEMPO 1613/1619 25016G26KT 8000 SHRA=
201107152253 TAF EGLL 152253Z 1600/1706 19012KT 9999 SCT040
                      BECMG 1600/1603 BKN012
                      TEMPO 1600/1605 8000 -RA
                      TEMPO 1605/1612 8000 RA BKN008
                      PROB30 TEMPO 1609/1612 23015G25KT 4000 +RA
                       BECMG 1611/1614 25014KT SCT020
                      PROB30 TEMPO 1613/1619 25016G26KT 8000 SHRA=
201107151953 TAF COR EGLL 151953Z 1518/1624 19012KT 9999 SCT040
                      BECMG 1523/1602 BKN012
                      TEMPO 1600/1611 BKN008
                      PROB40 TEMPO 1600/1609 8000 -RA
                      TEMPO 1609/1612 4000 RA
                      PROB40 TEMPO 1609/1612 23015G25KT +RA
                      BECMG 1611/1613 25014KT SCT020
                      PROB30 TEMPO 1613/1618 25016G26KT 8000 SHRA=
201107151704 TAF EGLL 151704Z 1518/1624 19012KT 9999 SCT040
                      BECMG 1523/1501 BKN012
                      TEMPO 1600/1611 BKN008
                      PROB40 TEMPO 1600/1609 8000 -RA
                      TEMPO 1609/1612 4000 RA
                      PROB40 TEMPO 1609/1612 23015G25KT +RA
                      BECMG 1611/1613 25014KT SCT020
                      PROB30 TEMPO 1613/1618 25016G26KT 8000 SHRA=
201107151111 TAF EGLL 151111Z 1512/1618 20010KT 9999 FEW045
                      BECMG 1523/1501 BKN012
                      TEMPO 1600/1611 BKN008
                      PROB40 TEMPO 1600/1606 8000 -RA
                      TEMPO 1606/1613 4000 RA
                      PROB40 TEMPO 1611/1613 23015G25KT +RA
                      BECMG 1612/1614 26013KT SCT020=
201107151100 TAF EGLL 151100Z NIL=
201107150502 TAF EGLL 150502Z 1506/1612 27005KT 9999 SCT045
                      BECMG 1508/1511 21012KT
                      BECMG 1521/1524 8000 -RA BKN012
                      TEMPO 1523/1612 BKN008
                      PROB40 TEMPO 1603/1612 4000 RADZ=
201107142256 TAF EGLL 142256Z 1500/1606 28007KT 9999 SCT045
                      BECMG 1508/1511 21012KT
                      BECMG 1520/1523 -RA BKN012
                      PROB40 1522/1606 8000 BKN008
                      TEMPO 1602/1606 4000 RADZ=
201107141655 TAF EGLL 141655Z 1418/1524 33010KT 9999 SCT045
                      BECMG 1419/1422 27007KT
                      BECMG 1509/1512 21010KT
                      PROB40 TEMPO 1522/1524 8000 -RA BKN012=
201107141131 TAF EGLL 141131Z 1412/1518 33010KT 9999 SCT045
                      BECMG 1419/1422 27005KT
                      BECMG 1509/1512 22010KT=
201107141100 TAF EGLL 141100Z NIL=
201107140501 TAF EGLL 140501Z 1406/1512 32013KT 9999 SCT045
                      BECMG 1418/1421 VRB05KT
                      BECMG 1509/1512 24012KT=
201107132300 TAF EGLL 132300Z NIL=
201107132253 TAF EGLL 132253Z 1400/1506 31004KT 9999 FEW045
                      BECMG 1408/1411 32014KT
                      BECMG 1418/1421 VRB05KT=
201107131702 TAF EGLL 131702Z 1318/1424 35008KT 9999 SCT045=
201107131100 TAF EGLL 131100Z 1312/1418 35008KT 9999 SCT040=
201107130457 TAF EGLL 130457Z 1306/1412 34008KT 9999 SCT045=
201107122259 TAF EGLL 122259Z 1300/1406 02010KT 9999 SCT045
                      BECMG 1321/1324 31007KT=
201107121700 TAF EGLL 121700Z 1218/1324 01010KT 9999 FEW040
                      PROB30 1301/1308 BKN014
                      BECMG 1321/1324 31007KT=
201107121100 TAF EGLL 121100Z 1212/1318 03010KT 9999 FEW040
                      PROB30 1300/1308 BKN014=
201107120500 TAF EGLL 120500Z NIL=
201107120434 TAF EGLL 120434Z 1206/1312 06010KT 9999 FEW040
                      PROB30 1206/1208 8000
                      PROB30 TEMPO 1213/1221 8000 RA
                      PROB30 1300/1308 BKN014=
201107112301 TAF EGLL 112301Z 1200/1306 06010KT 9999 FEW040
                      PROB30 1203/1208 8000
                      PROB30 1213/1221 8000 RA=
201107111700 TAF EGLL 111700Z NIL=
201107111650 TAF EGLL 111650Z 1118/1224 34004KT 9999 FEW040
                      BECMG 1201/1205 04010KT
                      PROB30 1203/1208 8000
                      PROB40 TEMPO 1212/1221 8000 RA=
201107111102 TAF EGLL 111102Z 1112/1218 36004KT 9999 SCT042
                      PROB30 1203/1208 8000
                      PROB30 TEMPO 1212/1218 9000 RA=
201107110456 TAF EGLL 110456Z 1106/1212 VRB04KT CAVOK
                      PROB30 1106/1108 5000 HZ
                      TEMPO 1110/1121 BKN035
                      BECMG 1119/1122 06010KT
                      PROB30 1201/1207 8000=
201107102300 TAF EGLL 102300Z 1100/1206 VRB04KT CAVOK
                      PROB40 1102/1108 5000 HZ
                      TEMPO 1110/1121 BKN035
                      BECMG 1119/1122 06010KT
                      PROB30 1201/1206 8000=
201107101701 TAF EGLL 101701Z 1018/1124 26005KT 9999 SCT035
                      PROB30 1101/1108 8000
                      BECMG 1119/1122 05010KT=
201107101058 TAF EGLL 101058Z 1012/1118 25008KT 9999 SCT035
                      PROB30 TEMPO 1012/1019 6000 SHRA
                      PROB30 1101/1108 8000=
201107100458 TAF EGLL 100458Z 1006/1112 22011KT 9999 FEW035 SCT045
                      PROB30 1006/1007 8000
                      PROB40 TEMPO 1010/1019 6000 SHRA
                      PROB30 1101/1108 8000
                      BECMG 1103/1106 33006KT=
201107100325 TAF AMD EGLL 100325Z 1003/1106 22006KT 6000 FEW035
                      PROB30 1003/1007 BKN012
                      BECMG 1007/1010 9999
                      PROB40 TEMPO 1010/1019 6000 SHRA
                      PROB30 1101/1106 8000
                      BECMG 1103/1106 33010KT=
201107092305 TAF EGLL 092305Z 1000/1106 22010KT 9999 FEW030 SCT045
                      PROB30 1004/1008 BKN012
                      PROB40 TEMPO 1010/1019 6000 SHRA
                      PROB30 1101/1106 8000
                      BECMG 1103/1106 33007KT=
201107092300 TAF AMD EGLL 100325Z 1003/1106 22006KT 6000 FEW035
                      PROB30 1003/1007 BKN012
                      BECMG 1007/1010 9999
                      PROB40 TEMPO 1010/1019 6000 SHRA
                      PROB30 1101/1106 8000
                      BECMG 1103/1106 33010KT=
201107091700 TAF EGLL 091700Z 0918/1024 23008KT 9999 SCT030
                      PROB30 1004/1007 BKN012
                      PROB40 TEMPO 1012/1019 7000 SHRA=
201107091424 TAF AMD EGLL 091424Z 0914/1018 25008KT 9999 SCT030
                      TEMPO 0914/0918 24015G25KT
                      PROB30 TEMPO 0914/0918 7000 SHRA
                      PROB30 1004/1007 BKN012
                      PROB40 TEMPO 1012/1018 7000 SHRA=
201107091101 TAF EGLL 091101Z 0912/1018 25008KT 9999 SCT030
                      PROB30 TEMPO 0912/0918 7000 SHRA
                      PROB30 1004/1007 BKN012
                      PROB40 TEMPO 1012/1018 7000 SHRA=
201107090457 TAF EGLL 090457Z 0906/1012 24008KT 9999 SCT030
                      PROB30 TEMPO 0912/0918 7000 SHRA
                      PROB30 1005/1007 BKN012=
201107082300 TAF EGLL 082300Z 0900/1006 22012KT 9999 SCT030
                      PROB30 0901/0907 BKN012
                      PROB30 TEMPO 0912/0918 7000 SHRA
                      PROB30 1002/1006 BKN008=
201107081700 TAF EGLL 081700Z 0818/0924 21013KT 9999 SCT030
                      TEMPO 0818/0820 22018G28KT
                      PROB30 TEMPO 0901/0907 BKN012=
201107081100 TAF EGLL 081100Z 0812/0918 21012KT 9999 SCT030
                      TEMPO 0812/0821 7000 SHRA
                      PROB30 TEMPO 0812/0819 22018G28KT 4000 TSRA
                       PROB30
                      TEMPO 0823/0908 BKN012
                      PROB30 TEMPO 0912/0918 23015G25KT 8000 -SHRA=
201107080459 TAF EGLL 080459Z 0806/0912 20012KT 9999 SCT030
                      TEMPO 0806/0821 20015G25KT 7000 SHRA
                      PROB30 TEMPO 0806/0811 BKN014
                      PROB30 TEMPO 0811/0820 4000 +SHRA TSRA
                      PROB30 TEMPO 0910/0912 8000 -SHRA=
201107072300 TAF EGLL 072300Z 0800/0906 20010KT 9999 SCT030
                      TEMPO 0800/0820 7000 SHRA
                      PROB30 TEMPO 0800/0810 BKN014
                      PROB30 TEMPO 0810/0819 21015G25KT 4000 +SHRA
                       TSRA
                      PROB30 TEMPO 0900/0906 8000 SHRA=
201107071703 TAF EGLL 071703Z 0718/0824 19012KT 9999 SCT030
                      TEMPO 0718/0724 6000 SHRA
                      PROB30 TEMPO 0718/0721 4000 +SHRA TSRA
                      TEMPO 0806/0819 7000 SHRA
                      PROB30 TEMPO 0808/0817 22015G25KT 4000 +SHRA
                       TSRA=
201107071326 TAF AMD EGLL 071326Z 0713/0818 19012KT 9999 SCT035
                      TEMPO 0713/0722 6000 SHRA
                      PROB30 TEMPO 0713/0720 4000 +SHRA TSRA BKN014CB
                       TEMPO 0806/0818 21015G25KT 7000 SHRA
                      PROB30 TEMPO 0810/0818 4000 +SHRA TSRA BKN014CB=
201107071100 TAF EGLL 071100Z 0712/0818 19012KT 9999 SCT035
                      TEMPO 0712/0722 6000 SHRA
                      PROB30 TEMPO 0712/0720 5000 +SHRA TSRA BKN014CB
                       TEMPO 0806/0818 21015G25KT 7000 SHRA
                      PROB30 TEMPO 0810/0818 4000 +SHRA TSRA BKN014CB=
201107070459 TAF EGLL 070459Z 0706/0812 19012KT 9999 SCT035
                      TEMPO 0706/0722 6000 SHRA BKN014
                      PROB40 TEMPO 0706/0713 19017G28KT
                      PROB30 TEMPO 0711/0720 4000 +SHRA TSGR
                      TEMPO 0806/0812 20017G28KT 7000 SHRA BKN014=
201107062258 TAF EGLL 062258Z 0700/0806 20012KT 9999 SCT030
                      TEMPO 0700/0723 5000 SHRA BKN014
                      PROB40 TEMPO 0700/0712 21017G28KT
                      PROB30 TEMPO 0711/0720 3000 +SHRA +TSRA=
201107061653 TAF EGLL 061653Z 0618/0724 24012KT 9999 SCT020
                      BECMG 0621/0624 18009KT
                      TEMPO 0621/0722 5000 RA SHRA BKN014
                      PROB30 TEMPO 0621/0712 18015G25KT=
201107061057 TAF EGLL 061057Z 0612/0718 24012KT 9999 SCT020
                      PROB40 TEMPO 0612/0619 24015G26KT 5000 SHRA
                       BECMG 0621/0624 18009KT
                      PROB30 TEMPO 0621/0711 18015G25KT 7000 RA
                       BKN014=
201107060504 TAF EGLL 060504Z 0606/0712 24010KT 9999 SCT020
                      TEMPO 0606/0619 24015G25KT 5000 +SHRA
                      PROB30 TEMPO 0606/0609 +TSRA BKN014CB
                      BECMG 0621/0624 18009KT
                      PROB30 TEMPO 0621/0709 18015G25KT 7000 RA
                       BKN014=
201107052305 TAF EGLL 052305Z 0600/0706 24008KT 9999 BKN012
                      PROB30 TEMPO 0600/0602 7000 SHRA BKN008
                      BECMG 0601/0603 SCT018
                      TEMPO 0607/0619 24015G25KT 5000 +SHRA
                      PROB30 TEMPO 0621/0706 7000 RA BKN014=
201107051702 TAF EGLL 051702Z 0518/0624 16008KT 9999 SCT035
                      TEMPO 0518/0602 7000 RA
                      PROB40 TEMPO 0522/0607 BKN008
                      BECMG 0523/0602 24012KT
                      TEMPO 0607/0618 24015G25KT 6000 SHRA
                      PROB30 TEMPO 0621/0624 7000 -RA BKN014=
201107051100 TAF EGLL 051100Z 0512/0618 18012KT 9999 SCT030
                      TEMPO 0515/0601 7000 RA
                      PROB30 TEMPO 0515/0518 23015G25KT
                      PROB40 TEMPO 0520/0607 BKN008
                      BECMG 0600/0603 24012KT
                      TEMPO 0607/0618 24015G25KT 6000 SHRA=
201107050501 TAF EGLL 050501Z 0506/0612 VRB05KT CAVOK
                      BECMG 0507/0511 18012KT
                      BECMG 0512/0515 BKN040
                      TEMPO 0515/0606 8000 RA
                      PROB30 TEMPO 0515/0518 19015G25KT
                      PROB40 TEMPO 0518/0602 4000 +RA BKN010
                      BECMG 0523/0602 24010KT
                      PROB30 TEMPO 0607/0612 7000 SHRA=
201107042259 TAF EGLL 042259Z 0500/0606 VRB05KT CAVOK
                      BECMG 0507/0511 18012KT
                      BECMG 0512/0515 BKN040
                      TEMPO 0515/0606 9000 -RA
                      PROB30 TEMPO 0515/0518 19015G25KT
                      PROB40 TEMPO 0518/0603 4000 +RA BKN010
                      BECMG 0523/0602 24010KT=
201107041659 TAF EGLL 041659Z 0418/0524 13005KT CAVOK
                      BECMG 0509/0512 19012KT
                      BECMG 0512/0515 BKN040
                      TEMPO 0515/0518 8000 RA
                      TEMPO 0518/0524 6000 RA BKN010=
201107041058 TAF EGLL 041058Z 0412/0518 13005KT CAVOK
                      BECMG 0509/0512 19012KT
                      BECMG 0512/0515 BKN040
                      TEMPO 0514/0518 6000 RA=
201107040500 TAF EGLL 040500Z 0406/0512 16005KT CAVOK=
201107032300 TAF EGLL 032300Z 0400/0506 16005KT CAVOK=
201107031653 TAF EGLL 031653Z 0318/0424 VRB04KT 9999 FEW045=
201107031102 TAF EGLL 031102Z 0312/0418 VRB05KT 9999 SCT045=
201107030510 TAF EGLL 030510Z 0306/0412 VRB05KT CAVOK=
201107030500 TAF EGLL 030500Z NIL=
201107022301 TAF EGLL 022301Z 0300/0406 VRB05KT CAVOK=
201107021659 TAF EGLL 021659Z 0218/0324 VRB05KT 9999 FEW040
                      PROB30 0303/0307 8000=
201107021058 TAF EGLL 021058Z 0212/0318 VRB05KT 9999 SCT040
                      PROB30 0303/0306 8000=
201107020459 TAF EGLL 020459Z 0206/0312 VRB05KT 9999 SCT040
                      PROB30 0303/0306 8000=
201107012258 TAF EGLL 012258Z 0200/0306 VRB05KT 9999 SCT045=
201107011658 TAF EGLL 011658Z 0118/0224 30005KT 9999 SCT045=
201107011059 TAF EGLL 011059Z 0112/0218 36005KT 9999 SCT045=
201107010500 TAF EGLL 010500Z 0106/0212 35007KT 9999 SCT045=
