##########################################################
# Query made at 12/27/2012 10:48:12 UTC
# Time interval: from 07/01/2008 00:00  to 07/31/2008 23:59  UTC
##########################################################

##########################################################
# EGLL, London / Heathrow Airport (United Kingdom)
# WMO index: 03772
# Latitude 51-29N. Longitude 000-27W. Altitude 24 m.
##########################################################

###################################
#  METAR/SPECI from EGLL
###################################
200807312350 METAR COR EGLL 312350Z 18009KT 9999 FEW028 SCT040 19/17 Q1007
                        NOSIG=
200807312320 METAR EGLL 312320Z 16009KT 9999 FEW028 SCT039 20/16 Q1007
                        NOSIG=
200807312250 METAR EGLL 312250Z 14006KT CAVOK 20/16 Q1007=
200807312220 METAR COR EGLL 312220Z 15005KT 9999 FEW044 20/17 Q1007 NOSIG=
200807312150 METAR EGLL 312150Z 13004KT 9999 SCT044 21/18 Q1007 NOSIG=
200807312120 METAR EGLL 312120Z VRB03KT 9999 -RA FEW042 SCT048 21/17 Q1007
                        NOSIG=
200807312050 METAR EGLL 312050Z 16002KT 9999 -RA SCT043 BKN048 21/17 Q1008
                        NOSIG=
200807312020 METAR COR EGLL 312020Z 15002KT 9999 -RA BKN044 21/18 Q1008
                        NOSIG=
200807311950 METAR COR EGLL 311950Z 16003KT 9999 4000N -RA BKN048 21/18
                        Q1008 NOSIG=
200807311920 METAR COR EGLL 311920Z 11006KT 9999 -RA FEW048 21/18 Q1008
                        NOSIG=
200807311850 METAR COR EGLL 311850Z 10003KT 9999 -RA NSC 21/18 Q1008 NOSIG=
200807311820 METAR EGLL 311820Z 14004KT 9999 -SHRA FEW046 22/17 Q1009=
200807311750 METAR COR EGLL 311750Z 22006KT 9999 -RA FEW030 22/17 Q1009
                        NOSIG=
200807311720 METAR COR EGLL 311720Z 17005KT 9999 FEW031 23/17 Q1009 NOSIG=
200807311650 METAR EGLL 311650Z 18005KT 9999 -RA FEW042 24/17 Q1010 NOSIG=
200807311620 METAR EGLL 311620Z 18006KT 9999 -RA FEW036 23/18 Q1010=
200807311550 METAR COR EGLL 311550Z 19008KT 9999 -RA FEW036 24/17 Q1010
                        TEMPO RA=
200807311520 METAR EGLL 311520Z 19008KT 9999 FEW040 26/16 Q1010=
200807311450 METAR EGLL 311450Z 17007KT 9999 FEW036 25/16 Q1011=
200807311420 METAR EGLL 311420Z 19007KT 9999 -SHRA FEW028 25/17 Q1011=
200807311350 METAR COR EGLL 311350Z 16006KT 9999 -SHRA FEW032 25/18 Q1011
                        TEMPO RA=
200807311320 METAR COR EGLL 311320Z 18005KT 140V230 CAVOK 26/17 Q1011
                        NOSIG=
200807311250 METAR COR EGLL 311250Z 19004KT 150V220 CAVOK 25/17 Q1011
                        NOSIG=
200807311220 METAR COR EGLL 311220Z 18005KT 100V220 CAVOK 25/17 Q1011
                        NOSIG=
200807311150 METAR COR EGLL 311150Z 12006KT 090V160 CAVOK 25/17 Q1011
                        NOSIG=
200807311120 METAR EGLL 311120Z 15006KT 110V180 CAVOK 24/17 Q1012=
200807311050 METAR COR EGLL 311050Z 14005KT 100V190 CAVOK 24/17 Q1012
                        NOSIG=
200807311020 METAR COR EGLL 311020Z 17006KT CAVOK 23/16 Q1012 NOSIG=
200807310950 METAR EGLL 310950Z 20006KT 160V260 CAVOK 23/16 Q1013=
200807310920 METAR EGLL 310920Z 18005KT 140V210 CAVOK 23/16 Q1012=
200807310850 METAR COR EGLL 310850Z 13005KT 100V190 CAVOK 23/16 Q1012
                        NOSIG=
200807310820 METAR COR EGLL 310820Z 13005KT CAVOK 22/16 Q1012 NOSIG=
200807310750 METAR COR EGLL 310750Z 10006KT CAVOK 21/16 Q1012 NOSIG=
200807310720 METAR COR EGLL 310720Z 09007KT CAVOK 21/16 Q1013 NOSIG=
200807310650 METAR COR EGLL 310650Z 08005KT CAVOK 20/15 Q1013 NOSIG=
200807310620 METAR EGLL 310620Z 07005KT CAVOK 19/15 Q1013 NOSIG=
200807310550 METAR EGLL 310550Z 07004KT CAVOK 19/14 Q1013 NOSIG=
200807310520 METAR EGLL 310520Z 06003KT CAVOK 19/14 Q1013 NOSIG=
200807310450 METAR COR EGLL 310450Z 08003KT 9999 -SHRA NSC 18/14 Q1014
                        NOSIG=
200807310420 METAR COR EGLL 310420Z 04002KT CAVOK 18/13 Q1014 NOSIG=
200807310350 METAR COR EGLL 310350Z 35002KT CAVOK 18/12 Q1014 NOSIG=
200807310320 METAR COR EGLL 310320Z 06002KT CAVOK 18/12 Q1014 NOSIG=
200807310250 METAR EGLL 310250Z 08003KT CAVOK 17/12 Q1015 NOSIG=
200807310220 METAR EGLL 310220Z 06003KT CAVOK 17/12 Q1015 NOSIG=
200807310150 METAR EGLL 310150Z 05003KT CAVOK 17/12 Q1015 NOSIG=
200807310120 METAR COR EGLL 310120Z AUTO 08003KT 9999NDV NCD 17/12 Q1016
                        NOSIG=
200807310050 METAR EGLL 310050Z AUTO 08004KT 9999NDV NCD 18/12 Q1016=
200807310020 METAR EGLL 310020Z AUTO 10003KT 9999NDV NCD 17/12 Q1016=
200807302350 METAR COR EGLL 302350Z 09003KT CAVOK 17/12 Q1016 NOSIG=
200807302320 METAR EGLL 302320Z 14003KT CAVOK 18/12 Q1016 NOSIG=
200807302250 METAR COR EGLL 302250Z 12004KT CAVOK 18/12 Q1016 NOSIG=
200807302220 METAR EGLL 302220Z 17006KT 130V260 CAVOK 19/12 Q1016 NOSIG=
200807302150 METAR COR EGLL 302150Z 18007KT 130V240 CAVOK 20/12 Q1017
                        NOSIG=
200807302120 METAR COR EGLL 302120Z 17007KT 130V240 CAVOK 20/12 Q1017
                        NOSIG=
200807302050 METAR EGLL 302050Z 19006KT 100V250 CAVOK 20/11 Q1017 NOSIG=
200807302020 METAR COR EGLL 302020Z 17005KT 130V230 CAVOK 21/11 Q1016
                        NOSIG=
200807301950 METAR EGLL 301950Z 19006KT 160V260 CAVOK 21/10 Q1016 NOSIG=
200807301920 METAR EGLL 301920Z 20008KT 160V260 CAVOK 22/10 Q1017 NOSIG=
200807301850 METAR COR EGLL 301850Z 20008KT 160V240 CAVOK 23/10 Q1016
                        NOSIG=
200807301820 METAR EGLL 301820Z 19008KT 160V230 CAVOK 24/10 Q1016=
200807301750 METAR COR EGLL 301750Z 20009KT CAVOK 24/10 Q1016 NOSIG=
200807301720 METAR EGLL 301720Z 21009KT 160V240 CAVOK 25/10 Q1016 NOSIG=
200807301650 METAR COR EGLL 301650Z 20009KT 150V260 CAVOK 25/09 Q1016
                        NOSIG=
200807301620 METAR COR EGLL 301620Z 20008KT 150V240 CAVOK 25/09 Q1016
                        NOSIG=
200807301550 METAR EGLL 301550Z 20010KT 170V230 CAVOK 26/09 Q1017=
200807301520 METAR COR EGLL 301520Z 21011KT 180V250 CAVOK 26/09 Q1017
                        NOSIG=
200807301450 METAR EGLL 301450Z 20010KT 160V240 CAVOK 26/09 Q1017 NOSIG=
200807301420 METAR EGLL 301420Z 17010KT 120V230 CAVOK 26/09 Q1017=
200807301350 METAR EGLL 301350Z 16011KT 130V210 CAVOK 26/09 Q1017 NOSIG=
200807301320 METAR COR EGLL 301320Z 19010KT 150V250 CAVOK 26/09 Q1017
                        NOSIG=
200807301250 METAR COR EGLL 301250Z 21011KT 170V250 CAVOK 26/09 Q1017
                        NOSIG=
200807301220 METAR COR EGLL 301220Z 17009KT 130V240 9999 FEW049 25/11
                        Q1017 NOSIG=
200807301150 METAR COR EGLL 301150Z 19009KT 110V230 9999 FEW048 25/11
                        Q1017 NOSIG=
200807301120 METAR EGLL 301120Z 19010KT 140V230 9999 FEW046 24/11 Q1017
                        NOSIG=
200807301050 METAR COR EGLL 301050Z 18011KT 130V220 9999 FEW041 23/11
                        Q1017 NOSIG=
200807301020 METAR COR EGLL 301020Z 16011KT 130V210 9999 FEW039 24/12
                        Q1017 NOSIG=
200807300950 METAR COR EGLL 300950Z 16012KT 120V220 9999 SCT038 23/13
                        Q1017 NOSIG=
200807300920 METAR EGLL 300920Z 15011KT 9999 FEW030 23/14 Q1017=
200807300850 METAR COR EGLL 300850Z 16011KT 9999 FEW028 21/14 Q1018 NOSIG=
200807300820 METAR COR EGLL 300820Z 16008KT CAVOK 21/14 Q1018 NOSIG=
200807300750 METAR COR EGLL 300750Z 15009KT CAVOK 20/14 Q1018 NOSIG=
200807300720 METAR EGLL 300720Z 16010KT CAVOK 19/14 Q1018=
200807300650 METAR COR EGLL 300650Z 16008KT CAVOK 18/14 Q1017 NOSIG=
200807300620 METAR EGLL 300620Z 15006KT CAVOK 17/13 Q1017 NOSIG=
200807300550 METAR COR EGLL 300550Z 15006KT CAVOK 16/13 Q1017 NOSIG=
200807300520 METAR COR EGLL 300520Z 14004KT CAVOK 15/13 Q1017 NOSIG=
200807300450 METAR COR EGLL 300450Z 13003KT CAVOK 14/12 Q1017 NOSIG=
200807300420 METAR EGLL 300420Z 13007KT CAVOK 13/11 Q1017 NOSIG=
200807300350 METAR COR EGLL 300350Z 14006KT 100V200 CAVOK 14/12 Q1017
                        NOSIG=
200807300320 METAR EGLL 300320Z 15004KT CAVOK 14/12 Q1017 NOSIG=
200807300250 METAR EGLL 300250Z 16005KT CAVOK 14/12 Q1017=
200807300220 METAR EGLL 300220Z 15004KT CAVOK 14/12 Q1017=
200807300150 METAR COR EGLL 300150Z 15004KT CAVOK 14/12 Q1017 NOSIG=
200807300120 METAR EGLL 300120Z AUTO 17005KT 9999NDV NCD 14/11 Q1017=
200807300050 METAR EGLL 300050Z AUTO 17005KT 9999NDV NCD 14/11 Q1017=
200807300020 METAR EGLL 300020Z AUTO 16006KT 9999NDV NCD 15/11 Q1017=
200807292350 METAR EGLL 292350Z 16006KT CAVOK 15/11 Q1017 NOSIG=
200807292320 METAR COR EGLL 292320Z 18006KT CAVOK 15/11 Q1017 NOSIG=
200807292250 METAR COR EGLL 292250Z 19005KT CAVOK 16/11 Q1017 NOSIG=
200807292220 METAR COR EGLL 292220Z 18006KT 160V250 CAVOK 16/10 Q1017
                        NOSIG=
200807292150 METAR COR EGLL 292150Z 20008KT 140V240 CAVOK 17/10 Q1017
                        NOSIG=
200807292120 METAR COR EGLL 292120Z 19008KT 150V250 CAVOK 17/10 Q1017
                        NOSIG=
200807292050 METAR COR EGLL 292050Z 20010KT 180V250 CAVOK 18/10 Q1016
                        NOSIG=
200807292020 METAR EGLL 292020Z 22011KT CAVOK 18/10 Q1016 NOSIG=
200807291950 METAR COR EGLL 291950Z 22013KT CAVOK 19/11 Q1015 NOSIG=
200807291920 METAR EGLL 291920Z 21011KT 180V240 9999 FEW040 20/11 Q1015
                        NOSIG=
200807291850 METAR EGLL 291850Z 22011KT 9999 FEW040 20/11 Q1015 NOSIG=
200807291820 METAR EGLL 291820Z 22013KT 9999 FEW040 20/11 Q1015 NOSIG=
200807291750 METAR EGLL 291750Z 22015KT 9999 FEW041 21/10 Q1014 NOSIG=
200807291720 METAR COR EGLL 291720Z 21017KT 9999 FEW038 21/11 Q1014 NOSIG=
200807291650 METAR COR EGLL 291650Z 21016KT 9999 SCT039 22/11 Q1014 NOSIG=
200807291620 METAR COR EGLL 291620Z 22015G25KT 9999 FEW035 SCT037 22/12
                        Q1014 NOSIG=
200807291550 METAR EGLL 291550Z 20015KT 9999 FEW034 SCT038 22/12 Q1014
                        NOSIG=
200807291520 METAR COR EGLL 291520Z 20013KT 180V250 9999 FEW034 BKN039
                        22/12 Q1014 NOSIG=
200807291450 METAR EGLL 291450Z 22015KT 9999 FEW033 SCT039 22/13 Q1014
                        NOSIG=
200807291420 METAR EGLL 291420Z 22016KT 180V240 9999 FEW034 SCT040 23/13
                        Q1013 NOSIG=
200807291350 METAR EGLL 291350Z 20016KT 170V240 9999 SCT034 SCT036 23/13
                        Q1013 NOSIG=
200807291320 METAR COR EGLL 291320Z 20016KT 9999 SCT027 BKN031 22/14 Q1013
                        NOSIG=
200807291250 METAR EGLL 291250Z 21015KT 180V240 9999 FEW022 SCT027 22/14
                        Q1013 RERA NOSIG=
200807291220 METAR EGLL 291220Z 20013KT 170V240 9999 SCT022 SCT028 21/14
                        Q1013 NOSIG=
200807291150 METAR COR EGLL 291150Z 17014KT 140V210 9999 SCT021 SCT026
                        21/15 Q1013 NOSIG=
200807291120 METAR COR EGLL 291120Z 18011KT 130V240 9999 SCT018 BKN024
                        20/14 Q1013 NOSIG=
200807291050 METAR EGLL 291050Z 19011KT 160V230 9999 SCT017 SCT034 BKN041
                        19/14 Q1013 NOSIG=
200807291020 METAR EGLL 291020Z 18014KT 150V230 9999 SCT018 SCT025 BKN044
                        19/15 Q1013 NOSIG=
200807290950 METAR EGLL 290950Z 18012KT 150V220 9999 FEW020 SCT030 BKN043
                        19/14 Q1013 NOSIG=
200807290920 METAR COR EGLL 290920Z 18010KT 130V240 9999 FEW020 SCT025
                        BKN031 19/14 Q1013 NOSIG=
200807290850 METAR COR EGLL 290850Z 18010KT 150V230 9999 VCSH FEW016 SCT022
                        BKN039 19/14 Q1013 NOSIG=
200807290820 METAR COR EGLL 290820Z 18011KT 160V230 9999 FEW014 BKN022
                        19/15 Q1013 NOSIG=
200807290750 METAR COR EGLL 290750Z 19012KT 9999 SCT016 19/15 Q1013 NOSIG=
200807290720 METAR COR EGLL 290720Z 20008KT 160V240 9999 FEW011 18/14
                        Q1012 NOSIG=
200807290650 METAR EGLL 290650Z 22007KT 180V260 9999 SCT009 17/14 Q1012
                        NOSIG=
200807290620 METAR EGLL 290620Z 19008KT 160V240 9999 SCT009 17/14 Q1012
                        TEMPO BKN012=
200807290550 METAR COR EGLL 290550Z 21007KT 9999 FEW016 16/14 Q1012 TEMPO
                        BKN012=
200807290520 METAR COR EGLL 290520Z 21008KT 9999 FEW012 16/14 Q1012 TEMPO
                        BKN010=
200807290450 METAR COR EGLL 290450Z 22011KT 9999 SCT011 BKN019 16/14 Q1012
                        TEMPO BKN010=
200807290420 METAR COR EGLL 290420Z 21008KT 9999 SCT008 SCT015 16/15 Q1012
                        TEMPO BKN007=
200807290350 METAR EGLL 290350Z 20008KT 9999 BKN008 16/15 Q1011 NOSIG=
200807290320 METAR COR EGLL 290320Z 18006KT 9999 BKN009 16/15 Q1011 NOSIG=
200807290250 METAR COR EGLL 290250Z 18005KT 9999 FEW008 16/15 Q1011 TEMPO
                        BKN008=
200807290220 METAR EGLL 290220Z 20006KT CAVOK 16/15 Q1011 TEMPO BKN010=
200807290150 METAR COR EGLL 290150Z 20005KT CAVOK 17/15 Q1011 TEMPO BKN007=
200807290120 METAR EGLL 290120Z AUTO VRB02KT 9999NDV NCD 17/15 Q1011 RERA=
200807290050 METAR EGLL 290050Z AUTO 22009KT 200V260 4100NDV RA FEW005///
                        SCT009/// 17/16 Q1012 RERA=
200807290020 METAR EGLL 290020Z AUTO 22012KT 9999NDV -DZ FEW017/// SCT023///
                        18/17 Q1011=
200807282350 METAR COR EGLL 282350Z 22011KT 1300 +TSRA SCT010CB 19/18
                        Q1011 TEMPO 2500 SHRA=
200807282320 METAR COR EGLL 282320Z 18007KT 2500 SHRA SCT021 SCT029 20/19
                        Q1011 TEMPO VRB15G25KT TSRA=
200807282250 METAR COR EGLL 282250Z VRB02KT 4200 BR SCT029 SCT034 19/19
                        Q1011 TEMPO VRB15G25KT 1500 TSRA
                        BKN014CB=
200807282220 METAR COR EGLL 282220Z VRB02KT 5000 BR FEW020 19/18 Q1011
                        RESHRA TEMPO VRB15G25KT 1500 TSRA
                        +SHRA=
200807282150 METAR COR EGLL 282150Z VRB02KT 4400 SHRA SCT010CB SCT041
                        19/18 Q1011 RETS TEMPO 12015G25KT
                        1400 TSRA +SHRA=
200807282120 METAR COR EGLL 282120Z 15012G23KT 9999 1000E R09L/P1500 R09R/P1500
                        TSRA SCT020CB 21/18 Q1012 TEMPO 1200
                        TSRA=
200807282050 METAR COR EGLL 282050Z 10010KT 9999 SCT030CB 22/16 Q1011
                        TEMPO 2000 +RA TSRA BKN014CB=
200807282020 METAR EGLL 282020Z 08010KT 9999 SCT048CB 23/16 Q1011 TEMPO
                        2500 +SHRA TSRA=
200807281950 METAR EGLL 281950Z 09011KT 9999 FEW049TCU 23/16 Q1011 BECMG
                        RA=
200807281920 METAR EGLL 281920Z 09013KT CAVOK 24/17 Q1011 NOSIG=
200807281850 METAR EGLL 281850Z 09014KT CAVOK 25/17 Q1010 NOSIG=
200807281820 METAR EGLL 281820Z 09010KT CAVOK 26/17 Q1010 NOSIG=
200807281750 METAR EGLL 281750Z 10010KT CAVOK 27/17 Q1011 NOSIG=
200807281720 METAR COR EGLL 281720Z 09010KT CAVOK 27/16 Q1011 NOSIG=
200807281650 METAR EGLL 281650Z 11010KT CAVOK 27/15 Q1011 NOSIG=
200807281620 METAR COR EGLL 281620Z 11012KT CAVOK 29/14 Q1011 NOSIG=
200807281550 METAR COR EGLL 281550Z 09011KT CAVOK 29/14 Q1011 NOSIG=
200807281520 METAR EGLL 281520Z 11011KT 9999 FEW049TCU 28/15 Q1012 NOSIG=
200807281450 METAR EGLL 281450Z 09012KT 9999 FEW049 29/15 Q1012 NOSIG=
200807281420 METAR COR EGLL 281420Z 09010KT 9999 SCT045TCU 29/14 Q1012
                        NOSIG=
200807281350 METAR COR EGLL 281350Z 09008KT 060V120 9999 SCT045TCU 28/14
                        Q1012 NOSIG=
200807281320 METAR EGLL 281320Z 08008KT 030V120 9999 FEW045TCU SCT049
                        29/13 Q1013 NOSIG=
200807281250 METAR EGLL 281250Z 10007KT 060V140 9999 FEW048TCU SCT049
                        28/14 Q1013 NOSIG=
200807281220 METAR EGLL 281220Z 10007KT 040V150 9999 SCT048 30/15 Q1013
                        NOSIG=
200807281150 METAR COR EGLL 281150Z 08005KT 340V130 9999 FEW045 28/15
                        Q1014 NOSIG=
200807281120 METAR COR EGLL 281120Z 10008KT 060V150 9999 FEW048 28/15
                        Q1014 NOSIG=
200807281050 METAR COR EGLL 281050Z 10006KT 030V200 CAVOK 28/15 Q1014
                        NOSIG=
200807281020 METAR EGLL 281020Z 11008KT 050V150 CAVOK 28/15 Q1014 NOSIG=
200807280950 METAR EGLL 280950Z 12005KT 060V160 CAVOK 27/16 Q1015 NOSIG=
200807280920 METAR EGLL 280920Z 11005KT 060V170 CAVOK 25/15 Q1015 NOSIG=
200807280850 METAR COR EGLL 280850Z 10004KT 060V150 CAVOK 25/15 Q1015
                        NOSIG=
200807280820 METAR EGLL 280820Z 08005KT CAVOK 24/16 Q1015=
200807280750 METAR COR EGLL 280750Z 10006KT 070V140 CAVOK 22/15 Q1015
                        NOSIG=
200807280720 METAR COR EGLL 280720Z 06006KT 030V100 CAVOK 22/16 Q1015
                        NOSIG=
200807280650 METAR COR EGLL 280650Z 09005KT CAVOK 21/16 Q1015 NOSIG=
200807280620 METAR COR EGLL 280620Z VRB03KT CAVOK 21/15 Q1015 NOSIG=
200807280550 METAR COR EGLL 280550Z 00000KT CAVOK 19/14 Q1015 NOSIG=
200807280520 METAR COR EGLL 280520Z 10002KT CAVOK 18/14 Q1015 NOSIG=
200807280450 METAR EGLL 280450Z 00000KT CAVOK 18/13 Q1015 NOSIG=
200807280420 METAR COR EGLL 280420Z 00000KT CAVOK 17/13 Q1015 NOSIG=
200807280350 METAR COR EGLL 280350Z 17002KT CAVOK 17/14 Q1015 NOSIG=
200807280320 METAR COR EGLL 280320Z 17003KT CAVOK 18/14 Q1016 NOSIG=
200807280250 METAR COR EGLL 280250Z 17002KT CAVOK 18/14 Q1016 NOSIG=
200807280220 METAR COR EGLL 280220Z 00000KT CAVOK 18/14 Q1016 NOSIG=
200807280150 METAR EGLL 280150Z 10002KT CAVOK 18/13 Q1016 NOSIG=
200807280120 METAR EGLL 280120Z AUTO 00000KT 9999NDV NCD 19/13 Q1016=
200807280050 METAR EGLL 280050Z AUTO 18002KT 9999NDV FEW046/// 19/13 Q1016=
200807280020 METAR EGLL 280020Z AUTO 12002KT 9999NDV NCD 19/13 Q1016=
200807272350 METAR EGLL 272350Z NIL=
200807272320 METAR EGLL 272320Z 26002KT CAVOK 21/13 Q1016=
200807272250 METAR COR EGLL 272250Z 26005KT CAVOK 21/13 Q1016 NOSIG=
200807272220 METAR EGLL 272220Z 26006KT CAVOK 22/13 Q1017 NOSIG=
200807272150 METAR COR EGLL 272150Z 26009KT CAVOK 23/12 Q1017 NOSIG=
200807272120 METAR COR EGLL 272120Z 27006KT CAVOK 23/12 Q1017 NOSIG=
200807272050 METAR EGLL 272050Z 23008KT 210V270 CAVOK 24/12 Q1017 NOSIG=
200807272020 METAR EGLL 272020Z 22008KT 9999 FEW049CB 24/13 Q1017 NOSIG=
200807271950 METAR COR EGLL 271950Z 22010KT 190V250 9999 VCSH FEW049CB
                        25/14 Q1016 NOSIG=
200807271920 METAR EGLL 271920Z 21009KT 170V250 9999 VCSH FEW056CB 26/14
                        Q1016 TEMPO SHRA=
200807271850 METAR COR EGLL 271850Z 21009KT 180V260 CAVOK 27/15 Q1016
                        NOSIG=
200807271820 METAR EGLL 271820Z 22009KT 190V250 CAVOK 27/14 Q1016 NOSIG=
200807271750 METAR COR EGLL 271750Z 20009KT 160V240 CAVOK 27/14 Q1016
                        NOSIG=
200807271720 METAR COR EGLL 271720Z 23008KT 180V270 CAVOK 28/13 Q1016
                        NOSIG=
200807271650 METAR COR EGLL 271650Z VRB04G15KT 9999 FEW070TCU 28/12 Q1016
                        NOSIG=
200807271620 METAR COR EGLL 271620Z 36004KT 290V060 CAVOK 29/11 Q1016
                        NOSIG=
200807271550 METAR EGLL 271550Z 09005KT 010V160 CAVOK 30/11 Q1016 NOSIG=
200807271520 METAR EGLL 271520Z VRB04KT CAVOK 30/11 Q1016 NOSIG=
200807271450 METAR EGLL 271450Z 20005KT 140V290 CAVOK 28/12 Q1016 NOSIG=
200807271420 METAR COR EGLL 271420Z 17005KT 080V260 CAVOK 28/12 Q1016
                        NOSIG=
200807271350 METAR COR EGLL 271350Z VRB03KT CAVOK 29/12 Q1016 NOSIG=
200807271320 METAR COR EGLL 271320Z 09004KT 030V130 CAVOK 30/12 Q1017
                        NOSIG=
200807271250 METAR EGLL 271250Z VRB03KT CAVOK 29/12 Q1017=
200807271220 METAR EGLL 271220Z VRB03KT CAVOK 28/12 Q1017 NOSIG=
200807271150 METAR COR EGLL 271150Z VRB03KT CAVOK 27/12 Q1017 NOSIG=
200807271120 METAR COR EGLL 271120Z VRB03KT CAVOK 27/12 Q1017 NOSIG=
200807271050 METAR COR EGLL 271050Z VRB03KT CAVOK 27/12 Q1017 NOSIG=
200807271020 METAR COR EGLL 271020Z VRB02KT CAVOK 26/13 Q1017 NOSIG=
200807270950 METAR COR EGLL 270950Z VRB03KT CAVOK 25/14 Q1018 NOSIG=
200807270920 METAR COR EGLL 270920Z VRB03KT CAVOK 24/15 Q1018 NOSIG=
200807270850 METAR COR EGLL 270850Z VRB03KT CAVOK 23/14 Q1018 NOSIG=
200807270820 METAR COR EGLL 270820Z VRB03KT CAVOK 21/14 Q1017 NOSIG=
200807270750 METAR EGLL 270750Z VRB03KT CAVOK 20/14 Q1017 NOSIG=
200807270720 METAR EGLL 270720Z VRB02KT CAVOK 20/13 Q1017 NOSIG=
200807270650 METAR COR EGLL 270650Z VRB03KT CAVOK 19/14 Q1017 NOSIG=
200807270620 METAR COR EGLL 270620Z VRB03KT CAVOK 18/14 Q1017 NOSIG=
200807270550 METAR COR EGLL 270550Z 27005KT CAVOK 18/13 Q1017 NOSIG=
200807270520 METAR EGLL 270520Z VRB03KT CAVOK 17/13 Q1017 NOSIG=
200807270450 METAR COR EGLL 270450Z 29005KT CAVOK 17/13 Q1017 NOSIG=
200807270420 METAR COR EGLL 270420Z 27006KT CAVOK 17/13 Q1016 NOSIG=
200807270350 METAR EGLL 270350Z 26003KT CAVOK 17/13 Q1016 NOSIG=
200807270320 METAR COR EGLL 270320Z 27003KT CAVOK 17/13 Q1016 NOSIG=
200807270250 METAR EGLL 270250Z 29004KT CAVOK 17/13 Q1016 NOSIG=
200807270220 METAR COR EGLL 270220Z 28004KT CAVOK 17/13 Q1016 NOSIG=
200807270150 METAR COR EGLL 270150Z 29004KT CAVOK 18/13 Q1016 NOSIG=
200807270120 METAR EGLL 270120Z AUTO 29005KT 9999NDV NCD 18/13 Q1016=
200807270050 METAR EGLL 270050Z AUTO 28005KT 9999NDV NCD 19/13 Q1016=
200807270020 METAR EGLL 270020Z AUTO 29006KT 9999NDV NCD 20/13 Q1016=
200807262350 METAR COR EGLL 262350Z 27007KT CAVOK 21/13 Q1017 NOSIG=
200807262320 METAR COR EGLL 262320Z 27005KT CAVOK 21/13 Q1017 NOSIG=
200807262250 METAR EGLL 262250Z 26006KT CAVOK 22/13 Q1017 NOSIG=
200807262220 METAR COR EGLL 262220Z VRB03KT CAVOK 23/12 Q1016 NOSIG=
200807262150 METAR COR EGLL 262150Z 32005KT CAVOK 24/12 Q1017 NOSIG=
200807262120 METAR EGLL 262120Z 29007KT CAVOK 24/12 Q1016 NOSIG=
200807262050 METAR EGLL 262050Z 29007KT CAVOK 24/13 Q1016 NOSIG=
200807262020 METAR EGLL 262020Z 31002KT CAVOK 24/13 Q1016 NOSIG=
200807261950 METAR COR EGLL 261950Z VRB02KT CAVOK 24/13 Q1016 NOSIG=
200807261920 METAR COR EGLL 261920Z VRB02KT CAVOK 25/13 Q1016 NOSIG=
200807261850 METAR COR EGLL 261850Z VRB02KT CAVOK 25/13 Q1015 NOSIG=
200807261820 METAR COR EGLL 261820Z VRB02KT CAVOK 25/13 Q1015 NOSIG=
200807261750 METAR COR EGLL 261750Z 27004KT 220V310 CAVOK 26/13 Q1015
                        NOSIG=
200807261720 METAR COR EGLL 261720Z VRB03KT CAVOK 26/13 Q1015 NOSIG=
200807261650 METAR COR EGLL 261650Z 30006KT 250V350 CAVOK 26/13 Q1015
                        NOSIG=
200807261620 METAR EGLL 261620Z 32004KT 270V060 9999 FEW049 26/12 Q1015
                        NOSIG=
200807261550 METAR COR EGLL 261550Z 32005KT 280V010 9999 FEW049 26/12
                        Q1015 NOSIG=
200807261520 METAR COR EGLL 261520Z 31006KT 280V340 9999 FEW048 27/12
                        Q1015 NOSIG=
200807261450 METAR COR EGLL 261450Z 30005KT 270V340 9999 FEW048 25/13
                        Q1015 NOSIG=
200807261420 METAR EGLL 261420Z 30006KT 240V360 9999 FEW048 25/12 Q1015
                        NOSIG=
200807261350 METAR COR EGLL 261350Z 28006KT 250V320 9999 SCT047 25/12
                        Q1016 NOSIG=
200807261320 METAR COR EGLL 261320Z 30005KT 220V010 9999 FEW040 SCT047
                        25/12 Q1016 NOSIG=
200807261250 METAR EGLL 261250Z 30006KT 260V340 9999 SCT046 26/12 Q1016
                        NOSIG=
200807261220 METAR COR EGLL 261220Z 32004KT 270V020 9999 SCT045 26/12
                        Q1015 NOSIG=
200807261150 METAR COR EGLL 261150Z 31004KT 230V040 9999 SCT042 26/12
                        Q1015 NOSIG=
200807261120 METAR COR EGLL 261120Z 33005KT 280V070 9999 FEW038 SCT042
                        25/13 Q1015 NOSIG=
200807261050 METAR COR EGLL 261050Z VRB04KT 9999 FEW034 SCT041 25/13 Q1015
                        NOSIG=
200807261020 METAR COR EGLL 261020Z 24005KT 150V320 9999 SCT034 24/14
                        Q1015 NOSIG=
200807260950 METAR COR EGLL 260950Z 27006KT 210V310 9999 FEW031 23/14
                        Q1015 NOSIG=
200807260920 METAR COR EGLL 260920Z 25004KT 190V300 9999 FEW021 22/15
                        Q1015 NOSIG=
200807260850 METAR COR EGLL 260850Z VRB03KT CAVOK 22/15 Q1015 NOSIG=
200807260820 METAR EGLL 260820Z VRB03KT CAVOK 21/15 Q1015 NOSIG=
200807260750 METAR EGLL 260750Z VRB03KT 9999 FEW040 20/15 Q1015 NOSIG=
200807260720 METAR EGLL 260720Z 28004KT 230V310 9999 FEW036 19/15 Q1015
                        NOSIG=
200807260650 METAR COR EGLL 260650Z 28004KT 250V330 9999 FEW034 18/14
                        Q1015 NOSIG=
200807260620 METAR EGLL 260620Z 29004KT 240V320 9999 FEW034 SCT049 18/14
                        Q1015 NOSIG=
200807260550 METAR EGLL 260550Z 28005KT 9999 FEW047 17/14 Q1014 NOSIG=
200807260520 METAR EGLL 260520Z 27006KT 9999 SCT049 17/14 Q1014 NOSIG=
200807260450 METAR COR EGLL 260450Z 27005KT 9999 FEW045 17/14 Q1014 NOSIG=
200807260420 METAR COR EGLL 260420Z 27007KT CAVOK 17/14 Q1014 NOSIG=
200807260350 METAR COR EGLL 260350Z 27006KT CAVOK 17/14 Q1014 NOSIG=
200807260320 METAR EGLL 260320Z 27005KT CAVOK 17/15 Q1014 NOSIG=
200807260250 METAR EGLL 260250Z NIL=
200807260220 METAR EGLL 260220Z 27006KT CAVOK 17/15 Q1014 NOSIG=
200807260150 METAR COR EGLL 260150Z 27004KT 9999 FEW043 18/15 Q1014 NOSIG=
200807260120 METAR EGLL 260120Z AUTO 27005KT 9999NDV NCD 18/15 Q1014=
200807260050 METAR EGLL 260050Z AUTO 27006KT 9999NDV SCT043/// 18/15 Q1014=
200807260020 METAR EGLL 260020Z AUTO 27006KT 9999NDV BKN043/// 18/14 Q1013=
200807252350 METAR COR EGLL 252350Z 24005KT 9999 BKN044 18/14 Q1013 NOSIG=
200807252320 METAR COR EGLL 252320Z 24005KT 210V280 9999 BKN041 18/14
                        Q1013 NOSIG=
200807252250 METAR EGLL 252250Z 25005KT 220V280 9999 FEW043 18/14 Q1013
                        NOSIG=
200807252220 METAR EGLL 252220Z 24006KT 9999 SCT036 18/14 Q1013 NOSIG=
200807252150 METAR COR EGLL 252150Z 24008KT 9999 SCT035 18/14 Q1013 NOSIG=
200807252120 METAR COR EGLL 252120Z 25010KT 200V260 9999 FEW034 19/14
                        Q1013 NOSIG=
200807252050 METAR EGLL 252050Z 23008KT 9999 FEW035 19/14 Q1012=
200807252020 METAR COR EGLL 252020Z 22008KT 190V260 9999 FEW036 20/14
                        Q1012 NOSIG=
200807251950 METAR COR EGLL 251950Z 21009KT 170V240 CAVOK 20/13 Q1012
                        NOSIG=
200807251920 METAR EGLL 251920Z 21010KT 180V240 CAVOK 21/13 Q1012 NOSIG=
200807251850 METAR COR EGLL 251850Z 22009KT 9999 FEW042 21/14 Q1011 NOSIG=
200807251820 METAR COR EGLL 251820Z 20012KT 170V240 9999 FEW040 22/13
                        Q1011 NOSIG=
200807251750 METAR EGLL 251750Z 20010KT 160V240 9999 FEW040 23/13 Q1011
                        NOSIG=
200807251720 METAR COR EGLL 251720Z 21011KT 180V240 9999 FEW038 24/13
                        Q1011 NOSIG=
200807251650 METAR COR EGLL 251650Z 23012KT 9999 FEW039 25/13 Q1010 NOSIG=
200807251620 METAR EGLL 251620Z 20011KT 160V240 9999 FEW038 24/14 Q1010=
200807251550 METAR EGLL 251550Z 20011KT 170V250 9999 SCT036 25/14 Q1010
                        NOSIG=
200807251520 METAR EGLL 251520Z 23009KT 150V260 9999 SCT033 24/14 Q1010=
200807251450 METAR EGLL 251450Z 22008KT 160V260 9999 SCT035 24/14 Q1010
                        NOSIG=
200807251420 METAR COR EGLL 251420Z 21009KT 170V270 9999 SCT042 25/14
                        Q1010 NOSIG=
200807251350 METAR COR EGLL 251350Z 20010KT 160V250 9999 SCT037 25/14
                        Q1010 NOSIG=
200807251320 METAR COR EGLL 251320Z 21011KT 180V240 9999 SCT030 24/14
                        Q1010 NOSIG=
200807251250 METAR COR EGLL 251250Z 23012KT 190V260 9999 FEW028 24/15
                        Q1010 NOSIG=
200807251220 METAR COR EGLL 251220Z 21011KT 160V250 9999 FEW028 23/15
                        Q1010 NOSIG=
200807251150 METAR COR EGLL 251150Z 21011KT 170V250 9999 FEW025 SCT048
                        24/15 Q1010 NOSIG=
200807251120 METAR COR EGLL 251120Z 20009KT 160V240 9999 SCT025 23/15
                        Q1010 NOSIG=
200807251050 METAR EGLL 251050Z 22008KT 9999 FEW040 24/15 Q1010 NOSIG=
200807251020 METAR EGLL 251020Z 21010KT CAVOK 24/15 Q1009 NOSIG=
200807250950 METAR COR EGLL 250950Z 17008KT 140V230 CAVOK 25/14 Q1009
                        NOSIG=
200807250920 METAR COR EGLL 250920Z 17008KT CAVOK 24/13 Q1009 NOSIG=
200807250850 METAR EGLL 250850Z 17009KT CAVOK 23/13 Q1009 NOSIG=
200807250820 METAR COR EGLL 250820Z 15006KT 110V190 CAVOK 23/13 Q1009
                        NOSIG=
200807250750 METAR COR EGLL 250750Z 13008KT CAVOK 23/13 Q1009 NOSIG=
200807250720 METAR EGLL 250720Z 09008KT CAVOK 22/14 Q1009 NOSIG=
200807250650 METAR COR EGLL 250650Z 09006KT CAVOK 20/14 Q1009 NOSIG=
200807250620 METAR EGLL 250620Z 10007KT CAVOK 19/14 Q1010 NOSIG=
200807250550 METAR COR EGLL 250550Z 08007KT CAVOK 19/14 Q1009 NOSIG=
200807250520 METAR COR EGLL 250520Z 07006KT CAVOK 18/14 Q1009 NOSIG=
200807250450 METAR EGLL 250450Z 06006KT 9000 NSC 17/14 Q1010 NOSIG=
200807250420 METAR EGLL 250420Z 06005KT 8000 NSC 16/14 Q1010 NOSIG=
200807250350 METAR EGLL 250350Z 06006KT 8000 NSC 17/14 Q1010 NOSIG=
200807250320 METAR COR EGLL 250320Z 06006KT CAVOK 17/14 Q1010 NOSIG=
200807250250 METAR EGLL 250250Z 06006KT CAVOK 17/14 Q1010 NOSIG=
200807250220 METAR EGLL 250220Z 06007KT CAVOK 17/14 Q1011 NOSIG=
200807250150 METAR COR EGLL 250150Z 06007KT CAVOK 18/14 Q1011 NOSIG=
200807250120 METAR EGLL 250120Z AUTO 06006KT 9999NDV NCD 18/14 Q1011=
200807250050 METAR EGLL 250050Z AUTO 07006KT 9999NDV NCD 19/14 Q1012=
200807250020 METAR EGLL 250020Z AUTO 07007KT 9999NDV NCD 19/14 Q1012=
200807242350 METAR EGLL 242350Z 08008KT CAVOK 19/14 Q1012 NOSIG=
200807242320 METAR EGLL 242320Z 08008KT CAVOK 19/14 Q1012 NOSIG=
200807242250 METAR EGLL 242250Z 08010KT CAVOK 19/14 Q1013 NOSIG=
200807242220 METAR EGLL 242220Z 08010KT CAVOK 20/14 Q1013 NOSIG=
200807242150 METAR COR EGLL 242150Z 08010KT CAVOK 20/14 Q1013 NOSIG=
200807242120 METAR COR EGLL 242120Z 08010KT CAVOK 21/13 Q1013 NOSIG=
200807242050 METAR COR EGLL 242050Z 08010KT CAVOK 21/13 Q1013 NOSIG=
200807242020 METAR EGLL 242020Z 08011KT CAVOK 21/13 Q1013=
200807241950 METAR EGLL 241950Z 08010KT CAVOK 22/13 Q1014 NOSIG=
200807241920 METAR EGLL 241920Z 09014KT CAVOK 22/12 Q1014 NOSIG=
200807241850 METAR COR EGLL 241850Z 09017KT CAVOK 23/11 Q1014 NOSIG=
200807241820 METAR COR EGLL 241820Z 09017KT CAVOK 23/11 Q1014 NOSIG=
200807241750 METAR EGLL 241750Z 09016KT CAVOK 24/10 Q1014 NOSIG=
200807241720 METAR COR EGLL 241720Z 10014KT CAVOK 25/10 Q1014 NOSIG=
200807241650 METAR COR EGLL 241650Z 09015KT CAVOK 25/11 Q1014 NOSIG=
200807241620 METAR COR EGLL 241620Z 09015KT CAVOK 26/12 Q1014 NOSIG=
200807241550 METAR COR EGLL 241550Z 10013KT CAVOK 27/11 Q1014 NOSIG=
200807241520 METAR COR EGLL 241520Z 10015KT 050V120 CAVOK 28/11 Q1014
                        NOSIG=
200807241450 METAR EGLL 241450Z 08011KT CAVOK 28/09 Q1015 NOSIG=
200807241420 METAR COR EGLL 241420Z 09011KT 050V120 CAVOK 28/11 Q1015
                        NOSIG=
200807241350 METAR EGLL 241350Z 14013KT CAVOK 28/09 Q1015 NOSIG=
200807241320 METAR EGLL 241320Z 12012KT CAVOK 28/09 Q1016 NOSIG=
200807241250 METAR EGLL 241250Z 12011KT 080V160 CAVOK 27/10 Q1016 NOSIG=
200807241220 METAR COR EGLL 241220Z 13012KT CAVOK 27/10 Q1016 NOSIG=
200807241150 METAR COR EGLL 241150Z 10010KT CAVOK 27/11 Q1017 NOSIG=
200807241120 METAR EGLL 241120Z 11009KT 9999 FEW046 26/14 Q1017 NOSIG=
200807241050 METAR COR EGLL 241050Z 09008KT 9999 FEW042 25/14 Q1017 NOSIG=
200807241020 METAR COR EGLL 241020Z 09009KT 9999 FEW032 25/15 Q1017 NOSIG=
200807240950 METAR EGLL 240950Z 09011KT 060V130 CAVOK 24/15 Q1018 NOSIG=
200807240920 METAR EGLL 240920Z 08011KT CAVOK 23/15 Q1018 NOSIG=
200807240850 METAR COR EGLL 240850Z 09011KT CAVOK 22/15 Q1018 NOSIG=
200807240820 METAR COR EGLL 240820Z 09012KT CAVOK 22/15 Q1018 NOSIG=
200807240750 METAR COR EGLL 240750Z 08010KT CAVOK 20/15 Q1018 NOSIG=
200807240720 METAR COR EGLL 240720Z 09011KT CAVOK 20/15 Q1018 NOSIG=
200807240650 METAR COR EGLL 240650Z 09011KT 8000 NSC 19/15 Q1019 NOSIG=
200807240620 METAR COR EGLL 240620Z 07006KT 7000 NSC 18/15 Q1019 NOSIG=
200807240550 METAR COR EGLL 240550Z 07006KT 4500 BR NSC 17/15 Q1019 BECMG
                        6000 NSW=
200807240520 METAR COR EGLL 240520Z 07007KT 5000 BR NSC 16/15 Q1019 NOSIG=
200807240450 METAR COR EGLL 240450Z 06008KT 5000 BR NSC 16/14 Q1019 TEMPO
                        4000=
200807240420 METAR EGLL 240420Z 06007KT 5000 BR NSC 16/14 Q1020 TEMPO
                        4000=
200807240350 METAR COR EGLL 240350Z 06007KT 5000 BR NSC 16/14 Q1020 TEMPO
                        4000=
200807240320 METAR COR EGLL 240320Z 07007KT 6000 NSC 16/14 Q1020 TEMPO
                        4000 BR=
200807240250 METAR COR EGLL 240250Z 07007KT 8000 NSC 16/14 Q1020 NOSIG=
200807240220 METAR COR EGLL 240220Z 06007KT 8000 NSC 17/14 Q1020 NOSIG=
200807240150 METAR EGLL 240150Z 07007KT 9000 NSC 16/14 Q1021 NOSIG=
200807240120 METAR EGLL 240120Z AUTO 07006KT 9000NDV 17/14 Q1021=
200807240050 METAR EGLL 240050Z AUTO 07007KT 9999NDV NCD 17/14 Q1021=
200807240020 METAR EGLL 240020Z 08007KT CAVOK 17/14 Q1021 NOSIG=
200807232350 METAR EGLL 232350Z NIL=
200807232320 METAR EGLL 232320Z 08006KT CAVOK 18/14 Q1021 NOSIG=
200807232250 METAR COR EGLL 232250Z 09008KT CAVOK 18/14 Q1021 NOSIG=
200807232220 METAR EGLL 232220Z NIL=
200807232150 METAR COR EGLL 232150Z 09008KT CAVOK 19/13 Q1021 NOSIG=
200807232120 METAR COR EGLL 232120Z 09009KT CAVOK 20/13 Q1021 NOSIG=
200807232050 METAR COR EGLL 232050Z 09010KT 9999 FEW040 20/13 Q1021 NOSIG=
200807232020 METAR COR EGLL 232020Z 09008KT 9999 FEW040 21/13 Q1021 NOSIG=
200807231950 METAR EGLL 231950Z 08008KT CAVOK 22/12 Q1021 NOSIG=
200807231920 METAR COR EGLL 231920Z 09010KT 9999 FEW047 22/12 Q1021 NOSIG=
200807231850 METAR COR EGLL 231850Z 09013KT 9999 FEW040 23/13 Q1021 NOSIG=
200807231820 METAR EGLL 231820Z 11010KT 9999 FEW044 24/13 Q1021 NOSIG=
200807231750 METAR EGLL 231750Z 12011KT 9999 FEW048 25/13 Q1021 NOSIG=
200807231720 METAR EGLL 231720Z 11012KT 9999 SCT047 26/13 Q1022 NOSIG=
200807231650 METAR COR EGLL 231650Z 12011KT 9999 SCT049 25/13 Q1022 NOSIG=
200807231620 METAR COR EGLL 231620Z 12009KT 9999 BKN048 25/13 Q1022 NOSIG=
200807231550 METAR EGLL 231550Z 09007KT 9999 SCT048 25/13 Q1022 NOSIG=
200807231520 METAR COR EGLL 231520Z 08006KT 040V130 9999 SCT047 25/13
                        Q1022 NOSIG=
200807231450 METAR EGLL 231450Z 10007KT 070V150 9999 SCT047 26/13 Q1023
                        NOSIG=
200807231420 METAR COR EGLL 231420Z 13008KT 070V160 9999 FEW044 BKN047
                        26/13 Q1023 NOSIG=
200807231350 METAR COR EGLL 231350Z 13007KT 090V170 9999 FEW044 BKN049
                        27/13 Q1023 NOSIG=
200807231320 METAR COR EGLL 231320Z 13007KT 090V180 9999 FEW040 BKN044
                        25/14 Q1023 NOSIG=
200807231250 METAR COR EGLL 231250Z 10006KT 070V150 9999 BKN044 24/14
                        Q1024 NOSIG=
200807231220 METAR COR EGLL 231220Z 11007KT 060V140 9999 BKN044 25/14
                        Q1024 NOSIG=
200807231150 METAR COR EGLL 231150Z VRB03KT 9999 FEW040 BKN049 25/13 Q1024
                        NOSIG=
200807231120 METAR EGLL 231120Z 13006KT 100V200 9999 FEW036 BKN048 25/15
                        Q1024 NOSIG=
200807231050 METAR COR EGLL 231050Z VRB04KT 9999 FEW030 BKN048 24/15 Q1024
                        NOSIG=
200807231020 METAR COR EGLL 231020Z 10007KT 080V140 9999 FEW030 BKN049
                        23/15 Q1025 NOSIG=
200807230950 METAR EGLL 230950Z 14004KT 070V190 9999 FEW040 BKN048 23/15
                        Q1025 NOSIG=
200807230920 METAR EGLL 230920Z 16004KT 130V280 9999 FEW035 BKN047 22/15
                        Q1025 NOSIG=
200807230850 METAR COR EGLL 230850Z VRB04KT 9999 FEW035 BKN045 22/15 Q1025
                        NOSIG=
200807230820 METAR EGLL 230820Z 16005KT 110V230 9999 FEW034 BKN044 21/15
                        Q1025 NOSIG=
200807230750 METAR COR EGLL 230750Z VRB02KT 9999 FEW034 BKN043 20/15 Q1025
                        NOSIG=
200807230720 METAR COR EGLL 230720Z 00000KT 9999 BKN039 20/16 Q1025 NOSIG=
200807230650 METAR COR EGLL 230650Z VRB02KT 9999 BKN038 19/15 Q1025 NOSIG=
200807230620 METAR EGLL 230620Z 00000KT 9999 OVC038 19/15 Q1024 NOSIG=
200807230550 METAR COR EGLL 230550Z VRB03KT 9999 OVC036 18/15 Q1024 NOSIG=
200807230520 METAR EGLL 230520Z VRB03KT 9999 OVC036 18/15 Q1024 NOSIG=
200807230450 METAR EGLL 230450Z VRB02KT 9999 OVC036 18/15 Q1024 NOSIG=
200807230420 METAR COR EGLL 230420Z 27003KT 9999 OVC036 18/15 Q1024 NOSIG=
200807230350 METAR COR EGLL 230350Z 27004KT 9999 OVC037 18/15 Q1024 NOSIG=
200807230320 METAR COR EGLL 230320Z 27003KT 9999 OVC036 18/15 Q1024 NOSIG=
200807230250 METAR COR EGLL 230250Z 29003KT 9999 BKN037 18/15 Q1025 NOSIG=
200807230220 METAR COR EGLL 230220Z 27004KT 9999 OVC037 18/15 Q1025 NOSIG=
200807230150 METAR COR EGLL 230150Z 26004KT 9999 OVC037 18/15 Q1025 NOSIG=
200807230120 METAR EGLL 230120Z AUTO 26003KT 9999NDV OVC037/// 19/15 Q1025=
200807230050 METAR EGLL 230050Z AUTO 29003KT 9999NDV OVC037/// 19/15 Q1025=
200807230020 METAR EGLL 230020Z AUTO 31003KT 9999NDV OVC038/// 19/15 Q1025=
200807222350 METAR COR EGLL 222350Z 27004KT 9999 BKN039 19/15 Q1025 NOSIG=
200807222320 METAR COR EGLL 222320Z 00000KT 9999 SCT039 19/15 Q1025 NOSIG=
200807222250 METAR COR EGLL 222250Z 27004KT CAVOK 18/14 Q1025 NOSIG=
200807222220 METAR COR EGLL 222220Z VRB02KT CAVOK 20/14 Q1025 NOSIG=
200807222150 METAR COR EGLL 222150Z VRB03KT CAVOK 21/14 Q1025 NOSIG=
200807222120 METAR COR EGLL 222120Z 00000KT CAVOK 20/14 Q1025 NOSIG=
200807222050 METAR EGLL 222050Z 35002KT CAVOK 20/14 Q1025 NOSIG=
200807222020 METAR COR EGLL 222020Z 34002KT 9999 FEW039 21/14 Q1024 NOSIG=
200807221950 METAR COR EGLL 221950Z 32003KT 9999 SCT039 21/14 Q1024 NOSIG=
200807221920 METAR EGLL 221920Z VRB03KT 9999 SCT039 22/14 Q1024 NOSIG=
200807221850 METAR EGLL 221850Z VRB03KT 9999 BKN039 22/14 Q1024 NOSIG=
200807221820 METAR COR EGLL 221820Z 30005KT 270V340 9999 BKN040 22/14
                        Q1025 NOSIG=
200807221750 METAR EGLL 221750Z 32004KT 290V020 9999 BKN036 22/14 Q1025
                        NOSIG=
200807221720 METAR EGLL 221720Z 32004KT 260V010 9999 BKN038 23/14 Q1025
                        NOSIG=
200807221650 METAR COR EGLL 221650Z 34004KT 270V030 9999 BKN037 22/14
                        Q1025 NOSIG=
200807221620 METAR EGLL 221620Z 32005KT 270V350 9999 BKN037 23/14 Q1025
                        NOSIG=
200807221550 METAR EGLL 221550Z 31005KT 270V360 9999 BKN039 22/13 Q1025
                        NOSIG=
200807221520 METAR COR EGLL 221520Z 29007KT 240V350 9999 BKN037 23/14
                        Q1025 NOSIG=
200807221450 METAR COR EGLL 221450Z 30006KT 270V350 9999 BKN035 23/13
                        Q1025 NOSIG=
200807221420 METAR EGLL 221420Z 28007KT 240V340 9999 BKN034 23/13 Q1025
                        NOSIG=
200807221350 METAR COR EGLL 221350Z 28007KT 240V320 9999 BKN033 23/13
                        Q1025 NOSIG=
200807221320 METAR EGLL 221320Z 28006KT 230V310 9999 BKN032 23/13 Q1025=
200807221250 METAR COR EGLL 221250Z 31005KT 230V030 9999 BKN032 22/13
                        Q1026 NOSIG=
200807221220 METAR COR EGLL 221220Z 29005KT 240V320 9999 BKN030 22/13
                        Q1026 NOSIG=
200807221150 METAR EGLL 221150Z 30006KT 270V340 9999 BKN030 22/13 Q1026
                        NOSIG=
200807221120 METAR COR EGLL 221120Z 30007KT 260V350 9999 BKN030 22/13
                        Q1026 NOSIG=
200807221050 METAR EGLL 221050Z 29008KT 260V330 9999 BKN030 22/13 Q1026
                        NOSIG=
200807221020 METAR EGLL 221020Z VRB07KT 9999 BKN032 21/12 Q1026 NOSIG=
200807220950 METAR EGLL 220950Z 29005KT 220V360 9999 FEW031 21/12 Q1026
                        NOSIG=
200807220920 METAR COR EGLL 220920Z VRB05KT 9999 FEW028 20/12 Q1026 NOSIG=
200807220850 METAR COR EGLL 220850Z 28006KT 230V330 9999 FEW030 19/12
                        Q1026 NOSIG=
200807220820 METAR EGLL 220820Z 27005KT 190V320 9999 FEW030 18/11 Q1026
                        NOSIG=
200807220750 METAR COR EGLL 220750Z 29004KT 260V340 9999 FEW030 17/10
                        Q1026 NOSIG=
200807220720 METAR EGLL 220720Z 29004KT 270V330 CAVOK 16/09 Q1026 NOSIG=
200807220650 METAR EGLL 220650Z 29004KT 250V360 CAVOK 15/09 Q1026 NOSIG=
200807220620 METAR EGLL 220620Z 29004KT CAVOK 14/08 Q1026 NOSIG=
200807220550 METAR EGLL 220550Z 30003KT CAVOK 13/08 Q1026 NOSIG=
200807220520 METAR COR EGLL 220520Z 27005KT CAVOK 12/07 Q1026 NOSIG=
200807220450 METAR COR EGLL 220450Z 27004KT CAVOK 11/07 Q1026 NOSIG=
200807220420 METAR COR EGLL 220420Z 29003KT CAVOK 12/06 Q1026 NOSIG=
200807220350 METAR EGLL 220350Z 29003KT CAVOK 11/06 Q1026 NOSIG=
200807220320 METAR COR EGLL 220320Z VRB03KT CAVOK 12/06 Q1026 NOSIG=
200807220250 METAR COR EGLL 220250Z 27005KT CAVOK 11/06 Q1026 NOSIG=
200807220220 METAR COR EGLL 220220Z 28002KT CAVOK 11/06 Q1026 NOSIG=
200807220150 METAR COR EGLL 220150Z 29004KT CAVOK 12/06 Q1026 NOSIG=
200807220120 METAR EGLL 220120Z AUTO 28004KT 9999NDV NCD 11/06 Q1026=
200807220050 METAR EGLL 220050Z AUTO 28004KT 9999NDV NCD 12/06 Q1026=
200807220020 METAR EGLL 220020Z AUTO VRB03KT 9999NDV NCD 13/07 Q1026=
200807212350 METAR COR EGLL 212350Z 31004KT CAVOK 14/07 Q1026 NOSIG=
200807212320 METAR COR EGLL 212320Z 30005KT CAVOK 14/07 Q1026 NOSIG=
200807212250 METAR EGLL 212250Z 29005KT CAVOK 15/07 Q1026 NOSIG=
200807212220 METAR EGLL 212220Z 30004KT CAVOK 16/07 Q1026 NOSIG=
200807212150 METAR COR EGLL 212150Z 30004KT CAVOK 16/07 Q1025 NOSIG=
200807212120 METAR EGLL 212120Z 32003KT CAVOK 17/07 Q1025 NOSIG=
200807212050 METAR EGLL 212050Z 31005KT CAVOK 17/07 Q1025 NOSIG=
200807212020 METAR COR EGLL 212020Z 31005KT 280V340 CAVOK 18/07 Q1025
                        NOSIG=
200807211950 METAR EGLL 211950Z 31005KT CAVOK 19/07 Q1024 NOSIG=
200807211920 METAR COR EGLL 211920Z 31006KT CAVOK 19/07 Q1024 NOSIG=
200807211850 METAR COR EGLL 211850Z 31006KT CAVOK 20/07 Q1024 NOSIG=
200807211820 METAR COR EGLL 211820Z 31008KT CAVOK 20/07 Q1024 NOSIG=
200807211750 METAR COR EGLL 211750Z 31008KT 270V350 CAVOK 20/07 Q1024
                        NOSIG=
200807211720 METAR COR EGLL 211720Z 31008KT 280V340 CAVOK 21/07 Q1024
                        NOSIG=
200807211650 METAR EGLL 211650Z 31008KT 280V010 CAVOK 21/07 Q1024 NOSIG=
200807211620 METAR EGLL 211620Z 31009KT 280V360 CAVOK 21/07 Q1024 NOSIG=
200807211550 METAR EGLL 211550Z 32009KT 280V360 9999 FEW049 21/07 Q1024
                        NOSIG=
200807211520 METAR COR EGLL 211520Z 31009KT 290V360 9999 FEW049 20/07
                        Q1024 NOSIG=
200807211450 METAR EGLL 211450Z 31010KT 270V010 9999 FEW048 20/07 Q1024
                        NOSIG=
200807211420 METAR EGLL 211420Z 30009KT 270V340 9999 FEW047 20/07 Q1024
                        NOSIG=
200807211350 METAR COR EGLL 211350Z 31009KT 270V350 9999 FEW045 20/08
                        Q1024 NOSIG=
200807211320 METAR EGLL 211320Z 33010KT 300V360 9999 SCT045 20/07 Q1024=
200807211250 METAR EGLL 211250Z 31011KT 270V340 9999 SCT043 19/07 Q1024
                        NOSIG=
200807211220 METAR COR EGLL 211220Z 30008KT 270V340 9999 FEW044 19/07
                        Q1024 NOSIG=
200807211150 METAR EGLL 211150Z 31009KT 270V350 9999 SCT045 19/07 Q1023
                        NOSIG=
200807211120 METAR COR EGLL 211120Z 31009KT 290V360 9999 SCT040 18/07
                        Q1023 NOSIG=
200807211050 METAR COR EGLL 211050Z 31008KT 280V350 9999 SCT038 17/07
                        Q1023 NOSIG=
200807211020 METAR COR EGLL 211020Z 32007KT 280V360 9999 FEW032 SCT035
                        18/08 Q1023 NOSIG=
200807210950 METAR EGLL 210950Z 30010KT 260V350 9999 SCT029 17/08 Q1023
                        NOSIG=
200807210920 METAR COR EGLL 210920Z 31009KT 280V350 9999 FEW027 17/08
                        Q1023 NOSIG=
200807210850 METAR EGLL 210850Z 31009KT 280V340 9999 FEW027 16/08 Q1023
                        NOSIG=
200807210820 METAR COR EGLL 210820Z 32008KT 280V360 9999 FEW023 15/08
                        Q1023 NOSIG=
200807210750 METAR EGLL 210750Z 31009KT 9999 FEW022 14/08 Q1023 NOSIG=
200807210720 METAR EGLL 210720Z 30007KT 270V340 9999 FEW024 14/07 Q1022
                        NOSIG=
200807210650 METAR COR EGLL 210650Z 30008KT 270V350 CAVOK 13/07 Q1022
                        NOSIG=
200807210620 METAR EGLL 210620Z 30009KT CAVOK 12/07 Q1022 NOSIG=
200807210550 METAR COR EGLL 210550Z 29008KT CAVOK 11/07 Q1022 NOSIG=
200807210520 METAR EGLL 210520Z 29007KT CAVOK 10/06 Q1022 NOSIG=
200807210450 METAR COR EGLL 210450Z 29009KT CAVOK 11/06 Q1022 NOSIG=
200807210420 METAR COR EGLL 210420Z 29009KT 9999 FEW039 11/06 Q1022 NOSIG=
200807210350 METAR EGLL 210350Z 29009KT 9999 SCT049 11/06 Q1022 NOSIG=
200807210320 METAR EGLL 210320Z 28008KT 9999 SCT049 11/06 Q1022 NOSIG=
200807210250 METAR COR EGLL 210250Z 28008KT 9999 BKN049 11/06 Q1022 NOSIG=
200807210220 METAR COR EGLL 210220Z 29008KT CAVOK 11/06 Q1021 NOSIG=
200807210150 METAR COR EGLL 210150Z 29008KT 9999 NSC 11/06 Q1021 NOSIG=
200807210120 METAR EGLL 210120Z AUTO 29009KT 9999NDV NCD 12/06 Q1021=
200807210050 METAR EGLL 210050Z AUTO 29008KT 9999NDV NCD 12/06 Q1021=
200807210020 METAR EGLL 210020Z AUTO 29008KT 9999NDV NCD 13/05 Q1021=
200807202350 METAR COR EGLL 202350Z 30009KT CAVOK 13/05 Q1021 NOSIG=
200807202320 METAR COR EGLL 202320Z 30009KT CAVOK 13/05 Q1021 NOSIG=
200807202250 METAR EGLL 202250Z 29008KT CAVOK 13/06 Q1021 NOSIG=
200807202220 METAR EGLL 202220Z 29007KT CAVOK 14/06 Q1021 NOSIG=
200807202150 METAR COR EGLL 202150Z 29008KT CAVOK 15/06 Q1021 NOSIG=
200807202120 METAR EGLL 202120Z 29005KT CAVOK 15/07 Q1021 NOSIG=
200807202050 METAR COR EGLL 202050Z 30007KT 280V340 CAVOK 15/06 Q1021
                        NOSIG=
200807202020 METAR EGLL 202020Z 31007KT 270V340 CAVOK 16/06 Q1021 NOSIG=
200807201950 METAR COR EGLL 201950Z 31008KT CAVOK 16/07 Q1020 NOSIG=
200807201920 METAR COR EGLL 201920Z 31009KT 290V350 CAVOK 17/06 Q1020
                        NOSIG=
200807201850 METAR EGLL 201850Z 31010KT 290V350 CAVOK 17/06 Q1020=
200807201820 METAR EGLL 201820Z 32010KT 290V360 CAVOK 18/05 Q1019 NOSIG=
200807201750 METAR COR EGLL 201750Z 32009KT CAVOK 18/05 Q1019 NOSIG=
200807201720 METAR COR EGLL 201720Z 31010KT 280V340 CAVOK 18/05 Q1019
                        NOSIG=
200807201650 METAR COR EGLL 201650Z 31009KT 280V340 CAVOK 18/05 Q1019
                        NOSIG=
200807201620 METAR COR EGLL 201620Z 32011KT 280V360 CAVOK 18/05 Q1019
                        NOSIG=
200807201550 METAR EGLL 201550Z 30010KT 270V350 9999 FEW048 18/06 Q1019
                        NOSIG=
200807201520 METAR COR EGLL 201520Z 32009KT 300V360 9999 FEW048 18/06
                        Q1019 NOSIG=
200807201450 METAR EGLL 201450Z 30009KT 260V330 9999 FEW040 17/06 Q1019
                        NOSIG=
200807201420 METAR COR EGLL 201420Z 30008KT 270V330 9999 FEW048 17/07
                        Q1019 NOSIG=
200807201350 METAR EGLL 201350Z 31009KT 270V340 9999 FEW047 17/06 Q1018
                        NOSIG=
200807201320 METAR EGLL 201320Z 31012KT 9999 FEW047 18/05 Q1018 NOSIG=
200807201250 METAR COR EGLL 201250Z 31011G21KT 280V350 CAVOK 17/06 Q1018
                        NOSIG=
200807201220 METAR COR EGLL 201220Z 31010KT 280V010 9999 SCT046 18/06
                        Q1018 NOSIG=
200807201150 METAR COR EGLL 201150Z 30010KT 9999 SCT044 17/06 Q1018 NOSIG=
200807201120 METAR COR EGLL 201120Z 30010KT 280V340 9999 FEW045 17/06
                        Q1018 NOSIG=
200807201050 METAR COR EGLL 201050Z 30010KT 9999 SCT045 17/07 Q1018 NOSIG=
200807201020 METAR COR EGLL 201020Z 30011KT 280V350 9999 FEW040 SCT044
                        17/06 Q1017 NOSIG=
200807200950 METAR COR EGLL 200950Z 30011KT 260V350 9999 FEW035 SCT048
                        17/07 Q1017 NOSIG=
200807200920 METAR COR EGLL 200920Z 32010KT 290V350 9999 SCT036 15/06
                        Q1017 NOSIG=
200807200850 METAR COR EGLL 200850Z 32010KT 280V010 9999 SCT032 16/07
                        Q1017 NOSIG=
200807200820 METAR COR EGLL 200820Z 31010KT 290V360 9999 FEW030 16/08
                        Q1017 NOSIG=
200807200750 METAR EGLL 200750Z 31008KT 290V350 9999 FEW024 15/08 Q1017
                        NOSIG=
200807200720 METAR EGLL 200720Z 31009KT 280V350 9999 SCT024 14/08 Q1017
                        NOSIG=
200807200650 METAR COR EGLL 200650Z 29008KT CAVOK 13/08 Q1017 NOSIG=
200807200620 METAR COR EGLL 200620Z 30009KT CAVOK 13/08 Q1016 NOSIG=
200807200550 METAR EGLL 200550Z 29007KT CAVOK 13/08 Q1016 NOSIG=
200807200520 METAR EGLL 200520Z 30006KT CAVOK 12/08 Q1016 NOSIG=
200807200450 METAR EGLL 200450Z 28007KT CAVOK 12/08 Q1016 NOSIG=
200807200420 METAR COR EGLL 200420Z 30005KT CAVOK 12/07 Q1015 NOSIG=
200807200350 METAR COR EGLL 200350Z 29006KT CAVOK 12/07 Q1015 NOSIG=
200807200320 METAR EGLL 200320Z 29006KT CAVOK 12/07 Q1015 NOSIG=
200807200250 METAR COR EGLL 200250Z 29006KT CAVOK 12/07 Q1015 NOSIG=
200807200220 METAR EGLL 200220Z 29006KT CAVOK 12/07 Q1015 NOSIG=
200807200150 METAR COR EGLL 200150Z 29005KT CAVOK 12/07 Q1015 NOSIG=
200807200120 METAR EGLL 200120Z AUTO 29005KT 9999NDV NCD 12/06 Q1015=
200807200050 METAR EGLL 200050Z AUTO 28005KT 9999NDV NCD 13/06 Q1015=
200807200020 METAR EGLL 200020Z AUTO VRB03KT 9999NDV NCD 13/06 Q1014=
200807192350 METAR COR EGLL 192350Z 29007KT CAVOK 13/06 Q1014 NOSIG=
200807192320 METAR COR EGLL 192320Z 29006KT CAVOK 14/06 Q1014 NOSIG=
200807192250 METAR EGLL 192250Z 30007KT CAVOK 14/06 Q1014 NOSIG=
200807192220 METAR EGLL 192220Z 30009KT CAVOK 15/06 Q1014 NOSIG=
200807192150 METAR COR EGLL 192150Z 30007KT 270V340 CAVOK 16/07 Q1013
                        NOSIG=
200807192120 METAR EGLL 192120Z 32007KT 9999 SCT041 16/08 Q1013 NOSIG=
200807192050 METAR EGLL 192050Z 31009KT 9999 FEW034 SCT037 17/09 Q1013
                        NOSIG=
200807192020 METAR COR EGLL 192020Z 30008KT 9999 FEW036 SCT045 18/10 Q1012
                        NOSIG=
200807191950 METAR COR EGLL 191950Z 31007KT 290V350 9999 FEW040 SCT045
                        18/09 Q1012 NOSIG=
200807191920 METAR COR EGLL 191920Z 30011KT 9999 FEW040 19/09 Q1011 NOSIG=
200807191850 METAR COR EGLL 191850Z 29013KT CAVOK 19/09 Q1011 NOSIG=
200807191820 METAR EGLL 191820Z 29015KT CAVOK 19/09 Q1010 NOSIG=
200807191750 METAR COR EGLL 191750Z 28017KT 9999 FEW030 20/08 Q1010 NOSIG=
200807191720 METAR COR EGLL 191720Z 28015KT 9999 FEW047 21/09 Q1010 TEMPO
                        28016G26KT=
200807191650 METAR COR EGLL 191650Z 27017KT 9999 FEW043 21/09 Q1009 TEMPO
                        27018G28KT=
200807191620 METAR COR EGLL 191620Z 29014KT 9999 FEW015 20/10 Q1009 TEMPO
                        29017G27KT=
200807191550 METAR COR EGLL 191550Z 27012KT 9999 FEW015 20/10 Q1009 TEMPO
                        27017G28KT=
200807191520 METAR COR EGLL 191520Z 28016KT 9999 FEW044 20/09 Q1009 TEMPO
                        28017G28KT=
200807191450 METAR COR EGLL 191450Z 27018KT 9999 FEW040 21/10 Q1009 TEMPO
                        27020G30KT=
200807191420 METAR COR EGLL 191420Z 26020KT 9999 FEW040 20/09 Q1009 TEMPO
                        27020G30KT=
200807191350 METAR EGLL 191350Z 27021KT 9999 FEW041 21/10 Q1008 TEMPO
                        27020G30KT=
200807191320 METAR EGLL 191320Z 28016KT 9999 FEW041 21/10 Q1008=
200807191250 METAR EGLL 191250Z 27018KT 9999 FEW030 21/10 Q1008 TEMPO
                        27018G30KT=
200807191220 METAR COR EGLL 191220Z 27016KT 250V310 9999 FEW040 20/10
                        Q1008 TEMPO 27017G28KT=
200807191150 METAR COR EGLL 191150Z 28013KT 9999 FEW040 SCT045 20/10 Q1007
                        TEMPO 28017G28KT=
200807191120 METAR COR EGLL 191120Z 27018KT 250V310 9999 SCT037 21/10
                        Q1007 NOSIG=
200807191050 METAR COR EGLL 191050Z 28014KT 9999 SCT037 20/10 Q1007 NOSIG=
200807191020 METAR COR EGLL 191020Z 27013KT 9999 SCT032 19/11 Q1007 NOSIG=
200807190950 METAR COR EGLL 190950Z 26017KT 9999 SCT036 19/11 Q1006 NOSIG=
200807190920 METAR COR EGLL 190920Z 26017KT 9999 SCT028 20/12 Q1006 NOSIG=
200807190850 METAR COR EGLL 190850Z 26016KT 9999 SCT016 19/13 Q1006 NOSIG=
200807190820 METAR COR EGLL 190820Z 25015KT 9999 BKN016 18/13 Q1006 TEMPO
                        BKN014=
200807190750 METAR COR EGLL 190750Z 25015KT 9999 FEW016 SCT018 BKN030
                        17/13 Q1006 TEMPO BKN014=
200807190720 METAR COR EGLL 190720Z 25016KT 9999 SCT016 BKN026 18/13 Q1006
                        TEMPO RADZ BKN012=
200807190650 METAR EGLL 190650Z 25016KT 9999 SCT016 BKN022 17/13 Q1006
                        TEMPO RADZ BKN012=
200807190620 METAR COR EGLL 190620Z 24015KT 9999 SCT016 BKN021 17/13 Q1006
                        TEMPO RADZ BKN012=
200807190550 METAR COR EGLL 190550Z 24013KT 9999 FEW014 BKN017 17/13 Q1006
                        TEMPO BKN014=
200807190520 METAR COR EGLL 190520Z 25013KT 9999 BKN015 BKN020 16/13 Q1006
                        TEMPO BKN010=
200807190450 METAR COR EGLL 190450Z 25013KT 9999 BKN015 BKN018 16/13 Q1006
                        TEMPO BKN010=
200807190420 METAR EGLL 190420Z 25012KT 9999 BKN015 16/13 Q1006 TEMPO
                        BKN010=
200807190350 METAR EGLL 190350Z 24013KT 9999 BKN014 16/13 Q1006=
200807190320 METAR COR EGLL 190320Z 24014KT 9999 BKN014 16/13 Q1006 TEMPO
                        SCT014 BKN016=
200807190250 METAR EGLL 190250Z 25012KT 9999 BKN014 16/14 Q1007 TEMPO
                        SCT014 BKN018=
200807190220 METAR EGLL 190220Z 23014KT 9999 SCT048 17/14 Q1006 TEMPO
                        BKN010=
200807190150 METAR EGLL 190150Z 24013KT 9999 SCT011 BKN048 17/14 Q1007=
200807190120 METAR EGLL 190120Z AUTO 25010KT 9999NDV OVC010/// 17/14 Q1007=
200807190050 METAR EGLL 190050Z AUTO 24009KT 9999NDV BKN011/// 17/14 Q1007=
200807190020 METAR EGLL 190020Z AUTO 24010KT 9999NDV SCT011/// BKN018///
                        17/14 Q1008=
200807182350 METAR COR EGLL 182350Z 25010KT 9999 SCT013 BKN048 17/14 Q1008
                        TEMPO BKN012=
200807182320 METAR EGLL 182320Z 24011KT 9999 FEW010 BKN048 17/14 Q1008
                        TEMPO BKN010=
200807182250 METAR COR EGLL 182250Z 25010KT 9999 FEW030 SCT048 17/15 Q1008
                        NOSIG=
200807182220 METAR EGLL 182220Z 24012KT 9999 FEW009 SCT020 17/15 Q1008
                        TEMPO BKN010=
200807182150 METAR COR EGLL 182150Z 24010KT 9999 FEW009 SCT020 17/15 Q1009
                        TEMPO BKN010=
200807182120 METAR COR EGLL 182120Z 23010KT 9999 BKN009 BKN013 18/15 Q1009
                        TEMPO SCT009 BKN015=
200807182050 METAR COR EGLL 182050Z 22009KT 9999 SCT008 BKN020 17/15 Q1009
                        TEMPO RA BKN010=
200807182020 METAR COR EGLL 182020Z 22009KT 4000 DZ SCT008 BKN011 17/15
                        Q1009 BECMG 9999 NSW SCT010 BKN025=
200807181950 METAR COR EGLL 181950Z 21009KT 9999 FEW013 SCT025 BKN033
                        17/15 Q1009 TEMPO 4500 SHRA BKN013=
200807181920 METAR COR EGLL 181920Z 22009KT 9999 FEW011 SCT034 18/16 Q1009
                        TEMPO 4000 SHRA BKN010=
200807181850 METAR COR EGLL 181850Z 21010KT 4600 -DZ SCT013 BKN018 18/15
                        Q1009 TEMPO 9999 SHRA BKN013=
200807181820 METAR EGLL 181820Z 22009KT 190V250 9999 SCT015 SCT038 19/15
                        Q1009 TEMPO 4000 SHRA BKN014=
200807181750 METAR COR EGLL 181750Z 22010KT 9999 SCT014 SCT031 19/15 Q1009
                        TEMPO 4000 SHRA BKN014=
200807181720 METAR COR EGLL 181720Z 22009KT 190V260 9999 FEW018 SCT037
                        18/15 Q1009 NOSIG=
200807181650 METAR COR EGLL 181650Z 22012KT 9999 FEW014 OVC030 18/15 Q1010
                        NOSIG=
200807181620 METAR COR EGLL 181620Z 23010KT 9999 SCT016 BKN027 19/14 Q1010
                        NOSIG=
200807181550 METAR COR EGLL 181550Z 22009KT 9999 SCT028 SCT046 19/14 Q1010
                        NOSIG=
200807181520 METAR COR EGLL 181520Z 24012KT 9999 FEW018 SCT043 19/14 Q1010
                        NOSIG=
200807181450 METAR COR EGLL 181450Z 25013KT 9999 SCT041 19/14 Q1010 NOSIG=
200807181420 METAR COR EGLL 181420Z 25013KT 9000 VCSH FEW021 SCT028 19/14
                        Q1010 NOSIG=
200807181350 METAR COR EGLL 181350Z 24012KT 9999 FEW022 BKN045 20/14 Q1010
                        NOSIG=
200807181320 METAR COR EGLL 181320Z 25012KT 9999 FEW020 SCT045 19/14 Q1010
                        NOSIG=
200807181250 METAR COR EGLL 181250Z 25013KT 9999 SCT017 BKN021 18/14 Q1011
                        RERA NOSIG=
200807181220 METAR COR EGLL 181220Z 24011KT 9999 -RA BKN023 BKN028 18/13
                        Q1011 NOSIG=
200807181150 METAR COR EGLL 181150Z 25012KT 9999 FEW017 BKN026 18/13 Q1011
                        NOSIG=
200807181120 METAR COR EGLL 181120Z 24010KT 9999 SCT013 BKN026 17/13 Q1011
                        NOSIG=
200807181050 METAR COR EGLL 181050Z 24012KT 9999 BKN012 BKN025 17/13 Q1011
                        BECMG SCT020=
200807181020 METAR COR EGLL 181020Z 25013KT 9999 SCT020 BKN027 17/12 Q1011
                        NOSIG=
200807180950 METAR COR EGLL 180950Z 24012KT 9999 BKN033 17/13 Q1011 NOSIG=
200807180920 METAR COR EGLL 180920Z 24012KT 9999 FEW015 BKN035 17/13 Q1011
                        NOSIG=
200807180850 METAR COR EGLL 180850Z 24008KT 200V260 9999 FEW010 BKN036
                        17/13 Q1011 NOSIG=
200807180820 METAR COR EGLL 180820Z 25010KT 9999 FEW014 OVC039 17/13 Q1011
                        NOSIG=
200807180750 METAR EGLL 180750Z 25010KT 9999 FEW013 BKN037 17/13 Q1011
                        NOSIG=
200807180720 METAR EGLL 180720Z 24009KT 9999 FEW012 SCT033 BKN040 16/12
                        Q1011 NOSIG=
200807180650 METAR EGLL 180650Z 25008KT 9999 FEW014 BKN042 16/12 Q1011
                        NOSIG=
200807180620 METAR COR EGLL 180620Z 25008KT 9999 OVC042 15/12 Q1011 NOSIG=
200807180550 METAR EGLL 180550Z 24009KT 9999 FEW012 BKN045 15/12 Q1011
                        NOSIG=
200807180520 METAR COR EGLL 180520Z 24008KT 9999 SCT043 15/12 Q1011 NOSIG=
200807180450 METAR COR EGLL 180450Z 26009KT 9999 SCT048 15/12 Q1011 NOSIG=
200807180420 METAR EGLL 180420Z 26007KT CAVOK 15/12 Q1011 NOSIG=
200807180350 METAR COR EGLL 180350Z 25008KT CAVOK 15/11 Q1011 NOSIG=
200807180320 METAR COR EGLL 180320Z 25006KT CAVOK 15/12 Q1011 NOSIG=
200807180250 METAR COR EGLL 180250Z 25006KT CAVOK 15/11 Q1011 NOSIG=
200807180220 METAR EGLL 180220Z 26007KT CAVOK 15/11 Q1011 NOSIG=
200807180150 METAR COR EGLL 180150Z 26008KT CAVOK 15/11 Q1011 NOSIG=
200807180120 METAR EGLL 180120Z AUTO 27008KT 9999NDV NCD 15/11 Q1011=
200807180050 METAR EGLL 180050Z AUTO 27008KT 9999NDV NCD 15/11 Q1012=
200807180020 METAR EGLL 180020Z AUTO 26010KT 9999NDV NCD 15/11 Q1012=
200807172350 METAR COR EGLL 172350Z 26009KT CAVOK 16/10 Q1012 NOSIG=
200807172320 METAR COR EGLL 172320Z 25009KT CAVOK 16/11 Q1012 NOSIG=
200807172250 METAR EGLL 172250Z 26008KT CAVOK 16/11 Q1013 NOSIG=
200807172220 METAR EGLL 172220Z 27007KT CAVOK 16/11 Q1013 NOSIG=
200807172150 METAR EGLL 172150Z 27008KT 9999 BKN044 17/12 Q1013=
200807172120 METAR COR EGLL 172120Z 25008KT 220V280 9999 FEW029 17/12
                        Q1013 NOSIG=
200807172050 METAR EGLL 172050Z 27006KT 9999 FEW030 SCT043 BKN049 17/12
                        Q1013 NOSIG=
200807172020 METAR COR EGLL 172020Z 27006KT 9999 FEW041 SCT048 17/11 Q1012
                        NOSIG=
200807171950 METAR EGLL 171950Z 27007KT 9999 SCT041 17/11 Q1012 NOSIG=
200807171920 METAR EGLL 171920Z 28007KT 9999 FEW035 SCT041 17/11 Q1012
                        NOSIG=
200807171850 METAR COR EGLL 171850Z 29007KT 9999 FEW030 BKN041 18/11 Q1012
                        NOSIG=
200807171820 METAR COR EGLL 171820Z 29011KT 9999 FEW030 BKN039 18/11 Q1012
                        NOSIG=
200807171750 METAR EGLL 171750Z 29011KT 9999 VCSH FEW029 BKN037 18/11
                        Q1012 NOSIG=
200807171720 METAR COR EGLL 171720Z 27008KT 9999 VCSH SCT029 BKN039 18/12
                        Q1012 NOSIG=
200807171650 METAR COR EGLL 171650Z 27009KT 9999 FEW031 BKN040 18/12 Q1012
                        NOSIG=
200807171620 METAR EGLL 171620Z 26010KT 9999 FEW023 BKN049 18/12 Q1012=
200807171550 METAR COR EGLL 171550Z 25013KT 9999 FEW033 BKN046 18/12 Q1012
                        NOSIG=
200807171520 METAR COR EGLL 171520Z 26014KT 9999 SCT036 SCT043 17/12 Q1012
                        NOSIG=
200807171450 METAR EGLL 171450Z 26012KT 9999 SCT032 BKN042 18/11 Q1013
                        NOSIG=
200807171420 METAR COR EGLL 171420Z 25015KT 9999 SCT031 SCT042 18/11 Q1013
                        NOSIG=
200807171350 METAR COR EGLL 171350Z 26016KT 9999 FEW025 BKN031 19/12 Q1013
                        NOSIG=
200807171320 METAR COR EGLL 171320Z 26014KT 9999 FEW025 SCT033 19/12 Q1013
                        NOSIG=
200807171250 METAR EGLL 171250Z 25014KT 9999 SCT022 BKN030 18/12 Q1013
                        NOSIG=
200807171220 METAR EGLL 171220Z 23013KT 200V260 9999 FEW020 BKN031 17/12
                        Q1014 NOSIG=
200807171150 METAR EGLL 171150Z 23013KT 9999 FEW018 SCT022 BKN030 16/12
                        Q1014 NOSIG=
200807171120 METAR COR EGLL 171120Z 24012KT 9999 FEW021 SCT033 16/12 Q1014
                        NOSIG=
200807171050 METAR COR EGLL 171050Z 24012KT 9999 -RA FEW024 BKN037 16/12
                        Q1015 NOSIG=
200807171020 METAR COR EGLL 171020Z 24012KT 9999 -RA FEW024 BKN044 16/11
                        Q1015 NOSIG=
200807170950 METAR EGLL 170950Z 25012KT 9999 FEW024 16/10 Q1015 NOSIG=
200807170920 METAR COR EGLL 170920Z 25014KT 9999 FEW024 SCT049 16/10 Q1015
                        NOSIG=
200807170850 METAR COR EGLL 170850Z 25012KT 9999 FEW024 16/10 Q1015 NOSIG=
200807170820 METAR COR EGLL 170820Z 25013KT 9999 FEW020 SCT042 16/10 Q1016
                        NOSIG=
200807170750 METAR EGLL 170750Z 25011KT 9999 FEW020 16/10 Q1016 NOSIG=
200807170720 METAR COR EGLL 170720Z 25010KT 9999 FEW020 16/11 Q1016 NOSIG=
200807170650 METAR COR EGLL 170650Z 25010KT 9999 FEW025 16/11 Q1016 NOSIG=
200807170620 METAR EGLL 170620Z 27009KT CAVOK 16/12 Q1016 NOSIG=
200807170550 METAR EGLL 170550Z 26009KT 220V280 CAVOK 15/12 Q1016 NOSIG=
200807170520 METAR COR EGLL 170520Z 25008KT CAVOK 15/11 Q1016 NOSIG=
200807170450 METAR EGLL 170450Z 24007KT CAVOK 14/11 Q1016 NOSIG=
200807170420 METAR EGLL 170420Z 24007KT CAVOK 15/11 Q1017 NOSIG=
200807170350 METAR EGLL 170350Z 25007KT 220V290 CAVOK 15/10 Q1017 NOSIG=
200807170320 METAR COR EGLL 170320Z 27005KT 9999 FEW046 14/10 Q1017 NOSIG=
200807170250 METAR EGLL 170250Z 27006KT 9999 FEW047 14/10 Q1018 NOSIG=
200807170220 METAR EGLL 170220Z 27006KT CAVOK 14/10 Q1018 NOSIG=
200807170150 METAR COR EGLL 170150Z 27006KT CAVOK 15/10 Q1018 NOSIG=
200807170120 METAR EGLL 170120Z AUTO 27005KT 9999NDV NCD 15/10 Q1018=
200807170050 METAR EGLL 170050Z AUTO 29006KT 9999NDV NCD 15/10 Q1019=
200807170020 METAR EGLL 170020Z AUTO 28007KT 9999NDV NCD 16/09 Q1019=
200807162350 METAR COR EGLL 162350Z 29008KT CAVOK 16/09 Q1019 NOSIG=
200807162320 METAR EGLL 162320Z 29006KT CAVOK 16/09 Q1019 NOSIG=
200807162250 METAR EGLL 162250Z 29006KT CAVOK 16/09 Q1019 NOSIG=
200807162220 METAR EGLL 162220Z 30006KT 280V340 CAVOK 17/09 Q1019 NOSIG=
200807162150 METAR COR EGLL 162150Z 29006KT CAVOK 18/09 Q1020 NOSIG=
200807162120 METAR EGLL 162120Z 29006KT CAVOK 17/09 Q1020 NOSIG=
200807162050 METAR EGLL 162050Z 29006KT CAVOK 17/09 Q1020 NOSIG=
200807162020 METAR EGLL 162020Z 29006KT CAVOK 18/09 Q1020 NOSIG=
200807161950 METAR EGLL 161950Z 29005KT CAVOK 18/09 Q1020 NOSIG=
200807161920 METAR COR EGLL 161920Z 30005KT CAVOK 18/09 Q1020 NOSIG=
200807161850 METAR COR EGLL 161850Z 30008KT CAVOK 19/09 Q1020 NOSIG=
200807161820 METAR EGLL 161820Z 30008KT 9999 FEW040 19/09 Q1020 NOSIG=
200807161750 METAR EGLL 161750Z 30007KT 260V340 9999 BKN038 19/10 Q1020
                        NOSIG=
200807161720 METAR EGLL 161720Z 31008KT 9999 BKN038 18/10 Q1020 NOSIG=
200807161650 METAR EGLL 161650Z 30008KT 270V350 9999 SCT041 19/10 Q1020
                        NOSIG=
200807161620 METAR COR EGLL 161620Z 29009KT 9999 BKN043 19/09 Q1020 NOSIG=
200807161550 METAR COR EGLL 161550Z 29009KT 260V330 9999 BKN044 19/09
                        Q1021 NOSIG=
200807161520 METAR COR EGLL 161520Z 30009KT 9999 SCT045 20/09 Q1021 NOSIG=
200807161450 METAR EGLL 161450Z 30008KT 260V340 9999 SCT045 20/09 Q1021
                        NOSIG=
200807161420 METAR COR EGLL 161420Z 31008KT 9999 BKN044 19/09 Q1021 NOSIG=
200807161350 METAR EGLL 161350Z 30010KT 270V340 9999 BKN046 20/08 Q1021
                        NOSIG=
200807161320 METAR COR EGLL 161320Z 31008KT 280V350 9999 BKN046 20/08
                        Q1022 NOSIG=
200807161250 METAR COR EGLL 161250Z 31009KT 280V340 9999 FEW048 20/08
                        Q1022 NOSIG=
200807161220 METAR EGLL 161220Z 30009KT 270V340 9999 FEW046 20/08 Q1022
                        NOSIG=
200807161150 METAR EGLL 161150Z 31010KT 270V340 9999 SCT046 20/09 Q1022
                        NOSIG=
200807161120 METAR EGLL 161120Z 31009KT 280V350 9999 SCT043 20/09 Q1022
                        NOSIG=
200807161050 METAR COR EGLL 161050Z 30009KT 250V340 9999 FEW033 SCT042
                        19/09 Q1022 NOSIG=
200807161020 METAR COR EGLL 161020Z 30010KT 280V340 9999 BKN033 19/10
                        Q1022 NOSIG=
200807160950 METAR EGLL 160950Z 29008KT 260V330 9999 BKN033 18/10 Q1022
                        NOSIG=
200807160920 METAR EGLL 160920Z 28008KT 250V320 9999 FEW036 19/10 Q1023
                        NOSIG=
200807160850 METAR COR EGLL 160850Z 29008KT 260V320 9999 FEW028 17/10
                        Q1023 NOSIG=
200807160820 METAR COR EGLL 160820Z 29008KT 260V330 9999 FEW024 18/10
                        Q1023 NOSIG=
200807160750 METAR EGLL 160750Z 33006KT 280V010 9999 FEW024 17/11 Q1023
                        NOSIG=
200807160720 METAR EGLL 160720Z 32006KT 270V360 9999 FEW011 17/12 Q1023
                        NOSIG=
200807160650 METAR COR EGLL 160650Z 30008KT 9999 SCT010 17/13 Q1023 NOSIG=
200807160620 METAR COR EGLL 160620Z 29007KT 9999 4000E SCT010 16/13 Q1023
                        NOSIG=
200807160550 METAR COR EGLL 160550Z 27006KT 9999 FEW009 15/13 Q1022 NOSIG=
200807160520 METAR COR EGLL 160520Z 26007KT 9000 FEW010 15/13 Q1022 TEMPO
                        BKN010=
200807160450 METAR COR EGLL 160450Z 27007KT 7000 SCT005 SCT009 15/14 Q1023
                        TEMPO BKN009=
200807160420 METAR COR EGLL 160420Z 26007KT 8000 FEW005 15/14 Q1023 TEMPO
                        BKN007=
200807160350 METAR EGLL 160350Z 27007KT 9000 SCT007 16/14 Q1023 TEMPO
                        BKN007=
200807160320 METAR COR EGLL 160320Z 27007KT 9999 BKN007 16/14 Q1023 TEMPO
                        SCT007=
200807160250 METAR COR EGLL 160250Z 27007KT 9999 FEW010 15/14 Q1023 NOSIG=
200807160220 METAR COR EGLL 160220Z 27006KT 9999 SCT009 15/14 Q1023 NOSIG=
200807160150 METAR COR EGLL 160150Z 27007KT CAVOK 16/14 Q1023 NOSIG=
200807160120 METAR EGLL 160120Z AUTO 27008KT 9999NDV NCD 16/14 Q1023=
200807160050 METAR EGLL 160050Z AUTO 28009KT 9999NDV FEW040/// 17/14 Q1024=
200807160020 METAR EGLL 160020Z AUTO 27008KT 9999NDV BKN040/// 17/14 Q1024=
200807152350 METAR EGLL 152350Z 28010KT 9999 FEW044 17/14 Q1024 NOSIG=
200807152320 METAR COR EGLL 152320Z 27010KT CAVOK 17/14 Q1024 NOSIG=
200807152250 METAR COR EGLL 152250Z 27010KT 9999 FEW042 SCT047 18/15 Q1024
                        NOSIG=
200807152220 METAR COR EGLL 152220Z 27010KT 9999 SCT042 18/15 Q1024 NOSIG=
200807152150 METAR COR EGLL 152150Z 27009KT CAVOK 19/15 Q1024 NOSIG=
200807152120 METAR COR EGLL 152120Z 27008KT 9999 FEW041 19/15 Q1024 NOSIG=
200807152050 METAR EGLL 152050Z 28011KT CAVOK 20/15 Q1024 NOSIG=
200807152020 METAR COR EGLL 152020Z 28009KT CAVOK 21/15 Q1024 NOSIG=
200807151950 METAR EGLL 151950Z 28011KT CAVOK 22/15 Q1023 NOSIG=
200807151920 METAR COR EGLL 151920Z 28010KT CAVOK 22/14 Q1023 NOSIG=
200807151850 METAR COR EGLL 151850Z 27012KT CAVOK 23/14 Q1023 NOSIG=
200807151820 METAR COR EGLL 151820Z 27011KT CAVOK 24/12 Q1023 NOSIG=
200807151750 METAR COR EGLL 151750Z 28011KT CAVOK 24/12 Q1023 NOSIG=
200807151720 METAR COR EGLL 151720Z 29012KT 9999 FEW048 25/12 Q1023 NOSIG=
200807151650 METAR COR EGLL 151650Z 28014KT 9999 FEW048 25/12 Q1023 NOSIG=
200807151620 METAR COR EGLL 151620Z 26015KT 9999 FEW045 26/13 Q1023 NOSIG=
200807151550 METAR EGLL 151550Z 26014KT 9999 FEW035 26/13 Q1023=
200807151520 METAR COR EGLL 151520Z 26015KT 9999 FEW040 25/14 Q1024 NOSIG=
200807151450 METAR COR EGLL 151450Z 27014KT 9999 FEW036 25/14 Q1024 NOSIG=
200807151420 METAR EGLL 151420Z 26016KT 9999 SCT035 24/15 Q1024 NOSIG=
200807151350 METAR COR EGLL 151350Z 25016KT 9999 SCT034 25/15 Q1024 NOSIG=
200807151320 METAR COR EGLL 151320Z 26015KT 9999 FEW031 BKN038 24/16 Q1024
                        NOSIG=
200807151250 METAR COR EGLL 151250Z 27012KT 9999 SCT027 BKN038 23/16 Q1025
                        NOSIG=
200807151220 METAR COR EGLL 151220Z 27013KT 9999 FEW022 SCT027 BKN038
                        23/17 Q1025 NOSIG=
200807151150 METAR EGLL 151150Z 25012KT 9999 SCT027 BKN041 23/17 Q1025
                        NOSIG=
200807151120 METAR COR EGLL 151120Z 26012KT 9999 SCT022 BKN036 22/16 Q1025
                        NOSIG=
200807151050 METAR COR EGLL 151050Z 26011KT 9999 SCT019 BKN038 22/16 Q1026
                        NOSIG=
200807151020 METAR EGLL 151020Z 25010KT 210V290 9999 FEW016 BKN038 21/16
                        Q1026=
200807150950 METAR EGLL 150950Z 26010KT 230V290 9999 FEW016 BKN038 21/16
                        Q1026 NOSIG=
200807150920 METAR COR EGLL 150920Z 25010KT 9999 FEW018 BKN039 21/16 Q1025
                        NOSIG=
200807150850 METAR EGLL 150850Z 25011KT 9999 FEW016 BKN039 20/16 Q1025
                        NOSIG=
200807150820 METAR COR EGLL 150820Z 26010KT 9999 FEW014 BKN039 20/16 Q1025
                        NOSIG=
200807150750 METAR COR EGLL 150750Z 25008KT 9999 BKN013 BKN037 19/15 Q1025
                        BECMG BKN020=
200807150720 METAR COR EGLL 150720Z 24010KT 9999 BKN012 BKN038 19/15 Q1025
                        BECMG BKN020=
200807150650 METAR EGLL 150650Z 25010KT 9999 BKN013 18/15 Q1025 BECMG
                        BKN020=
200807150620 METAR EGLL 150620Z 25010KT 9999 BKN012 18/15 Q1025 BECMG
                        BKN015=
200807150550 METAR EGLL 150550Z 24009KT 9999 SCT009 BKN012 18/15 Q1025
                        NOSIG=
200807150520 METAR COR EGLL 150520Z 24007KT 9999 SCT009 BKN012 17/15 Q1025
                        TEMPO BKN009=
200807150450 METAR COR EGLL 150450Z 24007KT 9999 OVC009 17/15 Q1025 TEMPO
                        SCT009 BKN012=
200807150420 METAR EGLL 150420Z 24007KT 200V260 9999 BKN009 BKN011 17/15
                        Q1025 TEMPO SCT009 BKN012=
200807150350 METAR COR EGLL 150350Z 23008KT 9999 FEW011 OVC019 17/15 Q1025
                        TEMPO BKN010=
200807150320 METAR COR EGLL 150320Z 23009KT 9999 BKN011 BKN021 17/15 Q1025
                        TEMPO BKN009=
200807150250 METAR COR EGLL 150250Z 22007KT 9999 OVC022 17/15 Q1025 TEMPO
                        BKN014=
200807150220 METAR COR EGLL 150220Z 22008KT 9999 OVC022 17/15 Q1025 TEMPO
                        BKN014=
200807150150 METAR COR EGLL 150150Z 23009KT 9999 OVC022 17/14 Q1025 NOSIG=
200807150120 METAR EGLL 150120Z AUTO 23009KT 9999NDV BKN024/// 18/15 Q1025=
200807150050 METAR EGLL 150050Z AUTO 23008KT 9999NDV OVC025/// 18/15 Q1025=
200807150020 METAR EGLL 150020Z AUTO 23010KT 9999NDV BKN026/// 18/15 Q1026=
200807142350 METAR COR EGLL 142350Z 23009KT 9999 BKN026 18/15 Q1026 NOSIG=
200807142320 METAR EGLL 142320Z 23009KT 9999 BKN027 18/14 Q1026 NOSIG=
200807142250 METAR COR EGLL 142250Z 23008KT 9999 BKN027 18/14 Q1026 NOSIG=
200807142220 METAR COR EGLL 142220Z 24009KT 9999 FEW022 OVC024 19/14 Q1026
                        NOSIG=
200807142150 METAR COR EGLL 142150Z 24009KT 9999 SCT022 BKN026 19/14 Q1025
                        NOSIG=
200807142120 METAR EGLL 142120Z 25009KT 9999 BKN026 19/14 Q1025 NOSIG=
200807142050 METAR COR EGLL 142050Z 23009KT 9999 BKN028 19/14 Q1025 NOSIG=
200807142020 METAR EGLL 142020Z 25007KT 9999 BKN026 19/14 Q1025 NOSIG=
200807141950 METAR EGLL 141950Z 25010KT 9999 FEW023 BKN027 20/14 Q1024
                        NOSIG=
200807141920 METAR COR EGLL 141920Z 26012KT 9999 FEW024 BKN030 20/14 Q1024
                        NOSIG=
200807141850 METAR COR EGLL 141850Z 25011KT 9999 BKN030 20/14 Q1024 NOSIG=
200807141820 METAR EGLL 141820Z 26012KT 9999 BKN032 21/14 Q1024 NOSIG=
200807141750 METAR COR EGLL 141750Z 27011KT 9999 BKN035 21/14 Q1024 NOSIG=
200807141720 METAR EGLL 141720Z 27011KT 9999 SCT033 BKN037 21/14 Q1024
                        NOSIG=
200807141650 METAR EGLL 141650Z 27011KT 9999 SCT032 BKN039 21/13 Q1024
                        NOSIG=
200807141620 METAR EGLL 141620Z 25010KT 9999 BKN040 22/13 Q1023 NOSIG=
200807141550 METAR EGLL 141550Z 27012KT 9999 FEW040 BKN042 22/13 Q1024
                        NOSIG=
200807141520 METAR EGLL 141520Z 27014KT 9999 FEW041 BKN044 22/13 Q1023
                        NOSIG=
200807141450 METAR COR EGLL 141450Z 26012KT 220V300 9999 SCT035 BKN043
                        22/12 Q1023 NOSIG=
200807141420 METAR COR EGLL 141420Z 25012KT 9999 FEW048 23/11 Q1023 NOSIG=
200807141350 METAR COR EGLL 141350Z 24011KT 200V280 9999 SCT046 23/11
                        Q1023 NOSIG=
200807141320 METAR COR EGLL 141320Z 26011KT 230V290 9999 FEW047 23/10
                        Q1023 NOSIG=
200807141250 METAR COR EGLL 141250Z 27014KT 9999 SCT046 23/10 Q1023 NOSIG=
200807141220 METAR EGLL 141220Z 26012KT 9999 SCT046 22/10 Q1023 NOSIG=
200807141150 METAR COR EGLL 141150Z 25011KT 210V280 9999 FEW048 22/10
                        Q1023 NOSIG=
200807141120 METAR EGLL 141120Z 26013KT 9999 SCT043 21/10 Q1022 NOSIG=
200807141050 METAR COR EGLL 141050Z 26013KT 9999 SCT043 21/10 Q1022 NOSIG=
200807141020 METAR EGLL 141020Z 24011KT 190V270 9999 FEW040 21/10 Q1022=
200807140950 METAR COR EGLL 140950Z 23011KT 190V260 9999 FEW036 20/10
                        Q1022 NOSIG=
200807140920 METAR EGLL 140920Z 25011KT 9999 FEW036 20/11 Q1022 NOSIG=
200807140850 METAR COR EGLL 140850Z 25011KT 9999 FEW027 19/11 Q1022 NOSIG=
200807140820 METAR EGLL 140820Z 26011KT 9999 FEW025 18/11 Q1022 NOSIG=
200807140750 METAR COR EGLL 140750Z 25010KT 9999 FEW020 18/11 Q1022 NOSIG=
200807140720 METAR EGLL 140720Z 24009KT 210V270 CAVOK 17/12 Q1022 NOSIG=
200807140650 METAR COR EGLL 140650Z 26008KT CAVOK 16/11 Q1021 NOSIG=
200807140620 METAR COR EGLL 140620Z 26007KT CAVOK 15/11 Q1021 NOSIG=
200807140550 METAR COR EGLL 140550Z 25008KT CAVOK 14/11 Q1021 NOSIG=
200807140520 METAR COR EGLL 140520Z 25006KT CAVOK 14/10 Q1021 NOSIG=
200807140450 METAR COR EGLL 140450Z 26005KT CAVOK 13/10 Q1021 NOSIG=
200807140420 METAR COR EGLL 140420Z 24006KT CAVOK 13/10 Q1020 NOSIG=
200807140350 METAR COR EGLL 140350Z 25005KT CAVOK 13/10 Q1020 NOSIG=
200807140320 METAR COR EGLL 140320Z 27005KT CAVOK 13/10 Q1020 NOSIG=
200807140250 METAR COR EGLL 140250Z 27006KT CAVOK 13/10 Q1020 NOSIG=
200807140220 METAR EGLL 140220Z 27006KT CAVOK 13/10 Q1020 NOSIG=
200807140150 METAR COR EGLL 140150Z 26006KT CAVOK 13/10 Q1020 NOSIG=
200807140120 METAR EGLL 140120Z AUTO 27008KT 9999NDV NCD 14/11 Q1020=
200807140050 METAR EGLL 140050Z AUTO 27009KT 9999NDV NCD 15/11 Q1020=
200807140020 METAR EGLL 140020Z AUTO 27009KT 9999NDV NCD 15/12 Q1019=
200807132350 METAR COR EGLL 132350Z 27008KT CAVOK 15/12 Q1019 NOSIG=
200807132320 METAR COR EGLL 132320Z 25008KT CAVOK 16/12 Q1019 NOSIG=
200807132250 METAR COR EGLL 132250Z 24008KT CAVOK 16/12 Q1019 NOSIG=
200807132220 METAR COR EGLL 132220Z 24010KT CAVOK 16/12 Q1019 NOSIG=
200807132150 METAR EGLL 132150Z 22008KT 190V260 CAVOK 16/12 Q1019 NOSIG=
200807132120 METAR EGLL 132120Z 23010KT 9999 FEW047 17/12 Q1018 NOSIG=
200807132050 METAR EGLL 132050Z 24010KT CAVOK 17/12 Q1018 NOSIG=
200807132020 METAR COR EGLL 132020Z 24010KT 210V270 CAVOK 18/11 Q1018
                        NOSIG=
200807131950 METAR EGLL 131950Z 25011KT CAVOK 19/10 Q1018 NOSIG=
200807131920 METAR EGLL 131920Z 26009KT CAVOK 19/11 Q1017 NOSIG=
200807131850 METAR COR EGLL 131850Z 27008KT CAVOK 20/09 Q1017 NOSIG=
200807131820 METAR EGLL 131820Z 25009KT CAVOK 20/07 Q1017 NOSIG=
200807131750 METAR EGLL 131750Z 29006KT 260V330 CAVOK 20/07 Q1017 NOSIG=
200807131720 METAR COR EGLL 131720Z 30005KT 270V010 CAVOK 20/07 Q1016
                        NOSIG=
200807131650 METAR COR EGLL 131650Z 29006KT 250V320 CAVOK 20/07 Q1016
                        NOSIG=
200807131620 METAR EGLL 131620Z 25006KT 220V300 CAVOK 20/07 Q1016 NOSIG=
200807131550 METAR EGLL 131550Z 26008KT 230V300 CAVOK 20/07 Q1016 NOSIG=
200807131520 METAR COR EGLL 131520Z 27007KT 240V300 CAVOK 20/07 Q1016
                        NOSIG=
200807131450 METAR EGLL 131450Z 28007KT 250V320 CAVOK 20/07 Q1016 NOSIG=
200807131420 METAR EGLL 131420Z 27007KT 230V310 CAVOK 20/07 Q1015 NOSIG=
200807131350 METAR EGLL 131350Z 24006KT 210V280 CAVOK 20/06 Q1015 NOSIG=
200807131320 METAR EGLL 131320Z 32005KT 280V360 CAVOK 21/06 Q1015 NOSIG=
200807131250 METAR EGLL 131250Z VRB06KT 9999 SCT049 21/07 Q1015 NOSIG=
200807131220 METAR EGLL 131220Z 25005KT 200V290 9999 SCT045 19/07 Q1015
                        NOSIG=
200807131150 METAR COR EGLL 131150Z 31004KT 230V360 9999 SCT046 20/08
                        Q1015 NOSIG=
200807131120 METAR COR EGLL 131120Z 28005KT 220V340 9999 SCT036 19/08
                        Q1015 NOSIG=
200807131050 METAR EGLL 131050Z 29005KT 200V330 9999 FEW039 SCT043 18/08
                        Q1015 NOSIG=
200807131020 METAR COR EGLL 131020Z VRB04KT 9999 SCT038 18/08 Q1015 NOSIG=
200807130950 METAR COR EGLL 130950Z 34004KT 260V060 9999 FEW034 17/08
                        Q1015 NOSIG=
200807130920 METAR COR EGLL 130920Z 28007KT 250V320 9999 SCT033 16/08
                        Q1015 NOSIG=
200807130850 METAR EGLL 130850Z 27007KT 240V300 9999 SCT028 17/08 Q1015
                        NOSIG=
200807130820 METAR COR EGLL 130820Z 29005KT 250V330 9999 SCT030 16/09
                        Q1015 NOSIG=
200807130750 METAR EGLL 130750Z 29004KT 250V340 9999 FEW020 15/10 Q1014
                        NOSIG=
200807130720 METAR EGLL 130720Z 32004KT 280V010 9999 FEW020 15/10 Q1014
                        NOSIG=
200807130650 METAR EGLL 130650Z 30004KT 250V010 CAVOK 14/10 Q1014 NOSIG=
200807130620 METAR COR EGLL 130620Z 30004KT 260V330 CAVOK 13/10 Q1014
                        NOSIG=
200807130550 METAR EGLL 130550Z VRB03KT CAVOK 12/09 Q1013 NOSIG=
200807130520 METAR EGLL 130520Z VRB03KT CAVOK 11/09 Q1013 NOSIG=
200807130450 METAR COR EGLL 130450Z 27005KT CAVOK 10/09 Q1013 NOSIG=
200807130420 METAR EGLL 130420Z 29004KT CAVOK 10/08 Q1012 NOSIG=
200807130350 METAR COR EGLL 130350Z 29004KT CAVOK 10/09 Q1012 NOSIG=
200807130320 METAR COR EGLL 130320Z 28005KT CAVOK 11/09 Q1012 NOSIG=
200807130250 METAR EGLL 130250Z NIL=
200807130220 METAR COR EGLL 130220Z 27005KT 9999 BKN041 12/10 Q1012 NOSIG=
200807130150 METAR COR EGLL 130150Z 28006KT CAVOK 11/10 Q1012 NOSIG=
200807130120 METAR COR EGLL 130120Z AUTO 27005KT 9999NDV NCD 11/09 Q1012
                        NOSIG=
200807130050 METAR EGLL 130050Z AUTO 27006KT 9999NDV FEW046/// 12/10 Q1012=
200807130020 METAR EGLL 130020Z AUTO 27006KT 9999NDV FEW049/// 13/10 Q1012=
200807122350 METAR COR EGLL 122350Z 27006KT CAVOK 13/09 Q1012 NOSIG=
200807122320 METAR EGLL 122320Z 24006KT CAVOK 13/09 Q1012 NOSIG=
200807122250 METAR COR EGLL 122250Z 27006KT CAVOK 13/09 Q1012 NOSIG=
200807122220 METAR COR EGLL 122220Z 26007KT CAVOK 13/09 Q1012 NOSIG=
200807122150 METAR EGLL 122150Z 27008KT CAVOK 14/09 Q1012 NOSIG=
200807122120 METAR EGLL 122120Z 27008KT CAVOK 14/08 Q1011=
200807122050 METAR EGLL 122050Z 29005KT 9999 FEW034 15/08 Q1011 NOSIG=
200807122020 METAR COR EGLL 122020Z 29006KT 9999 FEW034 14/08 Q1011 NOSIG=
200807121950 METAR COR EGLL 121950Z 28005KT 9999 SCT034 15/09 Q1011 NOSIG=
200807121920 METAR EGLL 121920Z 28005KT 250V320 9999 FEW024 14/09 Q1010
                        NOSIG=
200807121850 METAR COR EGLL 121850Z 29004KT 260V320 9999 FEW020 15/10
                        Q1010 NOSIG=
200807121820 METAR EGLL 121820Z 31004KT 280V340 9999 FEW030CB 14/09 Q1010
                        NOSIG=
200807121750 METAR COR EGLL 121750Z VRB03KT 9999 FEW027 SCT039CB 13/10
                        Q1010 BECMG BKN045=
200807121720 METAR COR EGLL 121720Z 29009KT 270V340 9999 8000NW -SHRA
                        SCT034CB SCT041 16/08 Q1010 BECMG
                        NSW=
200807121650 METAR COR EGLL 121650Z 27010KT 9999 VCSH FEW039CB 16/08 Q1010
                        TEMPO SHRA=
200807121620 METAR COR EGLL 121620Z 27011KT 9999 -DZ FEW036CB 15/08 Q1010
                        TEMPO SHRA=
200807121550 METAR EGLL 121550Z 27012KT 9999 FEW036 17/08 Q1010 TEMPO
                        SHRA=
200807121520 METAR EGLL 121520Z 25014KT 9999 SCT036 17/08 Q1010 TEMPO
                        SHRA=
200807121450 METAR EGLL 121450Z 26016KT 9999 VCSH FEW020 SCT041 16/09
                        Q1010 TEMPO SHRA=
200807121420 METAR EGLL 121420Z 27012KT 9999 SCT042 17/07 Q1010 TEMPO
                        SHRA=
200807121350 METAR COR EGLL 121350Z 29005KT 260V320 9999 SCT040 16/07
                        Q1010 TEMPO SHRA=
200807121320 METAR EGLL 121320Z 29007KT 9999 SCT040 16/06 Q1010 TEMPO
                        SHRA=
200807121250 METAR COR EGLL 121250Z 29008KT 9999 SCT040 16/07 Q1010 NOSIG=
200807121220 METAR COR EGLL 121220Z 28010KT 9999 SCT042 16/06 Q1010 NOSIG=
200807121150 METAR EGLL 121150Z 27012KT 9999 SCT044 16/06 Q1010 NOSIG=
200807121120 METAR COR EGLL 121120Z 29010KT 9999 SCT040 16/06 Q1010 NOSIG=
200807121050 METAR EGLL 121050Z 28013KT 9999 FEW036 16/07 Q1010 NOSIG=
200807121020 METAR EGLL 121020Z 28012KT 9999 FEW039 SCT043 15/07 Q1010
                        NOSIG=
200807120950 METAR COR EGLL 120950Z 28011KT 9999 SCT032 BKN038 15/07 Q1010
                        NOSIG=
200807120920 METAR COR EGLL 120920Z 28011KT 9999 FEW027 BKN032 15/07 Q1009
                        NOSIG=
200807120850 METAR EGLL 120850Z 27013KT 9999 FEW024 SCT039 14/08 Q1009
                        NOSIG=
200807120820 METAR COR EGLL 120820Z 27011KT 230V310 9999 SCT025 15/09
                        Q1009 NOSIG=
200807120750 METAR EGLL 120750Z 27012KT 9999 BKN032 14/09 Q1009 NOSIG=
200807120720 METAR EGLL 120720Z 27010KT 9999 FEW020 14/09 Q1009 NOSIG=
200807120650 METAR COR EGLL 120650Z 26010KT 9999 FEW018 12/09 Q1009 NOSIG=
200807120620 METAR EGLL 120620Z 26010KT 9999 FEW018 12/09 Q1009 NOSIG=
200807120550 METAR EGLL 120550Z 26010KT 9999 FEW020 11/09 Q1008 NOSIG=
200807120520 METAR EGLL 120520Z 25010KT CAVOK 11/09 Q1008 NOSIG=
200807120450 METAR COR EGLL 120450Z 26008KT CAVOK 11/09 Q1008 NOSIG=
200807120420 METAR EGLL 120420Z 27008KT CAVOK 11/09 Q1008 NOSIG=
200807120350 METAR COR EGLL 120350Z 27008KT CAVOK 11/09 Q1008 NOSIG=
200807120320 METAR COR EGLL 120320Z 27008KT CAVOK 11/09 Q1008 NOSIG=
200807120250 METAR COR EGLL 120250Z 27008KT 9999 FEW047 12/10 Q1007 NOSIG=
200807120220 METAR EGLL 120220Z NIL=
200807120150 METAR COR EGLL 120150Z 27007KT CAVOK 12/09 Q1007 NOSIG=
200807120120 METAR EGLL 120120Z AUTO 28005KT 9999NDV NCD 12/09 Q1007=
200807120050 METAR EGLL 120050Z AUTO 28007KT 9999NDV NCD 12/10 Q1007=
200807120020 METAR EGLL 120020Z AUTO 28008KT 9999NDV NCD 12/10 Q1007=
200807112350 METAR COR EGLL 112350Z 28007KT 9999 SCT016 13/11 Q1007 NOSIG=
200807112320 METAR EGLL 112320Z 30007KT 9999 FEW020 13/11 Q1007 NOSIG=
200807112250 METAR COR EGLL 112250Z 30007KT 9999 FEW017 13/11 Q1007 TEMPO
                        BKN014=
200807112220 METAR EGLL 112220Z 30009KT 9999 FEW015 BKN035 13/11 Q1006
                        NOSIG=
200807112150 METAR EGLL 112150Z 30008KT 9999 FEW015 BKN036 14/11 Q1006
                        TEMPO BKN012=
200807112120 METAR EGLL 112120Z 28011KT 9999 FEW016 SCT022 14/13 Q1006
                        TEMPO BKN012=
200807112050 METAR COR EGLL 112050Z 28009KT 9999 -SHRA FEW021 SCT043 14/13
                        Q1005 NOSIG=
200807112020 METAR COR EGLL 112020Z 26011KT 9999 FEW015 SCT043 15/13 Q1005
                        NOSIG=
200807111950 METAR COR EGLL 111950Z 24010KT 9999 -SHRA SCT018CB SCT028
                        15/13 Q1004 TEMPO 24015G28KT 3000
                        TSRA +SHRA BKN014CB=
200807111920 METAR EGLL 111920Z 23008KT 200V260 7000 RA SCT025 BKN030
                        15/13 Q1004 TEMPO 24015G28KT 3000
                        TSRA +SHRA BKN014CB=
200807111850 METAR COR EGLL 111850Z 23010KT 6000 -RA BKN032 15/13 Q1004
                        TEMPO 24015G28KT 3000 TSRA +SHRA
                        BKN015CB=
200807111820 METAR COR EGLL 111820Z 24011KT 220V280 9999 -SHRA SCT021
                        15/13 Q1004 TEMPO 24015G28KT 3000
                        TSRA +SHRA BKN015CB=
200807111750 METAR COR EGLL 111750Z 24012KT 9999 -SHRA FEW020 SCT034CB
                        SCT046 16/14 Q1004 RESHRA TEMPO 24017G28KT
                        3500 TSRA SHRA BKN018CB=
200807111720 METAR COR EGLL 111720Z 25013KT 9999 -SHRA FEW020 SCT024 BKN031CB
                        16/14 Q1004 TEMPO 25015G28KT 4000
                        TSGS +SHRA BKN015CB=
200807111650 METAR COR EGLL 111650Z 25010KT 9999 -SHRA BKN024 BKN031CB
                        16/14 Q1004 TEMPO 25018G30KT 3000
                        TSGS +SHRA=
200807111620 METAR COR EGLL 111620Z 28011KT 7000 -SHRA SCT028 BKN032CB
                        16/12 Q1004 TEMPO 23018G30KT 2000
                        TSGS +SHRA=
200807111550 METAR COR EGLL 111550Z 28011KT 9999 4800N VCSH BKN032CB 16/11
                        Q1004 TEMPO 24018G30KT 2000 TSGS
                        +SHRA=
200807111520 METAR COR EGLL 111520Z 22018KT 9999 9000NW SCT034CB BKN044
                        20/11 Q1004 TEMPO 23020G30KT 2500
                        TSGS +SHRA BKN015CB=
200807111450 METAR COR EGLL 111450Z 23018G28KT 9999 VCSH FEW032 BKN038
                        20/11 Q1004 TEMPO 23018G30KT 2500
                        TSGS +SHRA BKN014CB=
200807111420 METAR COR EGLL 111420Z 22016KT 9999 VCSH SCT028 19/12 Q1004
                        TEMPO 23020G30KT 3000 TSGS +SHRA
                        BKN014CB=
200807111350 METAR COR EGLL 111350Z 22019KT 9999 -SHRA SCT028 19/11 Q1004
                        TEMPO 23020G30KT 4000 TSGS SHRA BKN018CB=
200807111320 METAR COR EGLL 111320Z 22017KT 9999 SCT028 SCT034 20/11 Q1004
                        TEMPO 24018G30KT 4000 SHRA TSGS BKN014CB=
200807111250 METAR COR EGLL 111250Z 22016KT 9999 FEW028 SCT038 19/12 Q1004
                        TEMPO SHRA BKN020CB=
200807111220 METAR COR EGLL 111220Z 22017KT 9999 FEW024 SCT039 19/11 Q1005
                        TEMPO 23015G25KT 4000 SHRA BKN015CB=
200807111150 METAR EGLL 111150Z 21012KT 9999 VCSH FEW030CB SCT034 SCT038
                        18/12 Q1005=
200807111120 METAR COR EGLL 111120Z 23014KT 200V260 9999 VCSH FEW026CB
                        SCT028 BKN034 20/11 Q1004 TEMPO 4000
                        SHRA BKN020CB=
200807111050 METAR EGLL 111050Z 24011KT 200V280 9999 FEW020CB SCT028 SCT034
                        20/11 Q1005 TEMPO SHRA BKN020CB=
200807111020 METAR COR EGLL 111020Z 29009KT 9999 FEW020CB SCT028 SCT035
                        19/11 Q1005 TEMPO SHRA SCT020CB=
200807110950 METAR EGLL 110950Z 25012KT 9999 VCSH SCT028CB 19/11 Q1005
                        TEMPO 7000 SHRA BKN020CB=
200807110920 METAR COR EGLL 110920Z 23013KT 9999 SCT028 SCT035 18/11 Q1005
                        TEMPO SHRA=
200807110850 METAR COR EGLL 110850Z 24014KT 9999 SCT025 SCT042 18/11 Q1005
                        TEMPO SHRA=
200807110820 METAR COR EGLL 110820Z 23014KT 9999 SCT023 17/11 Q1005 NOSIG=
200807110750 METAR COR EGLL 110750Z 22012KT 9999 SCT018 17/11 Q1005 NOSIG=
200807110720 METAR EGLL 110720Z 22009KT 9999 SCT014 SCT044 17/12 Q1005
                        NOSIG=
200807110650 METAR COR EGLL 110650Z 22010KT 9999 FEW016 SCT045 16/12 Q1005
                        NOSIG=
200807110620 METAR COR EGLL 110620Z 21009KT 180V260 9999 FEW012 15/12
                        Q1005 NOSIG=
200807110550 METAR EGLL 110550Z 21008KT 180V240 9999 FEW041 14/12 Q1005
                        NOSIG=
200807110520 METAR COR EGLL 110520Z 21007KT 9999 SCT045 14/12 Q1005 NOSIG=
200807110450 METAR EGLL 110450Z 21007KT 9999 SCT041 14/12 Q1005=
200807110420 METAR COR EGLL 110420Z 21007KT 190V260 CAVOK 14/12 Q1005
                        TEMPO BKN014=
200807110350 METAR EGLL 110350Z 22007KT CAVOK 14/12 Q1005 TEMPO BKN014=
200807110320 METAR COR EGLL 110320Z 21007KT CAVOK 14/12 Q1005 NOSIG=
200807110250 METAR EGLL 110250Z 22005KT CAVOK 14/12 Q1005 NOSIG=
200807110220 METAR EGLL 110220Z 21005KT CAVOK 14/12 Q1005 NOSIG=
200807110150 METAR EGLL 110150Z 21007KT 9999 SCT017 14/12 Q1006 TEMPO
                        BKN014=
200807110120 METAR EGLL 110120Z AUTO 21005KT 9999NDV NCD 14/12 Q1006=
200807110050 METAR EGLL 110050Z AUTO 22007KT 9999NDV NCD 14/12 Q1006=
200807110020 METAR EGLL 110020Z AUTO 21006KT 9999NDV NCD 15/12 Q1006=
200807102350 METAR COR EGLL 102350Z 21007KT CAVOK 15/12 Q1006 NOSIG=
200807102320 METAR COR EGLL 102320Z 21009KT CAVOK 15/12 Q1006 NOSIG=
200807102250 METAR EGLL 102250Z 20009KT CAVOK 15/12 Q1006 NOSIG=
200807102220 METAR EGLL 102220Z 21008KT CAVOK 15/12 Q1006 NOSIG=
200807102150 METAR EGLL 102150Z 22011G21KT CAVOK 16/12 Q1006 NOSIG=
200807102120 METAR EGLL 102120Z 22010KT CAVOK 16/12 Q1006 NOSIG=
200807102050 METAR COR EGLL 102050Z 22009KT 180V250 CAVOK 16/12 Q1006
                        NOSIG=
200807102020 METAR EGLL 102020Z 22010KT 9999 FEW030 17/12 Q1006 NOSIG=
200807101950 METAR COR EGLL 101950Z 22013KT 9999 FEW028 17/12 Q1006 NOSIG=
200807101920 METAR COR EGLL 101920Z 23014KT 9999 FEW030 18/11 Q1006 NOSIG=
200807101850 METAR COR EGLL 101850Z 23016KT 9999 FEW030 19/11 Q1006 NOSIG=
200807101820 METAR EGLL 101820Z 22016KT 9999 SCT030 19/11 Q1005 NOSIG=
200807101750 METAR EGLL 101750Z 23016KT 9999 SCT033 20/11 Q1005 NOSIG=
200807101720 METAR COR EGLL 101720Z 23018KT 9999 SCT034 20/11 Q1005 NOSIG=
200807101650 METAR COR EGLL 101650Z 23014KT 9999 SCT034 20/11 Q1005 NOSIG=
200807101620 METAR COR EGLL 101620Z 23018KT 9999 SCT029 20/12 Q1006 NOSIG=
200807101550 METAR COR EGLL 101550Z 23017KT 9999 FEW032 20/11 Q1006 TEMPO
                        23017G28KT=
200807101520 METAR COR EGLL 101520Z 24017KT 9999 FEW032 19/11 Q1006 TEMPO
                        24017G28KT=
200807101450 METAR COR EGLL 101450Z 22013KT 9999 SCT022 SCT031 20/12 Q1006
                        NOSIG=
200807101420 METAR EGLL 101420Z 22015KT 9999 FEW022CB SCT030 20/12 Q1006=
200807101350 METAR COR EGLL 101350Z 23013KT 9999 FEW022CB SCT035 20/12
                        Q1006 NOSIG=
200807101320 METAR COR EGLL 101320Z 21011KT 9999 FEW022CB SCT027 19/12
                        Q1007 BECMG SCT025=
200807101250 METAR COR EGLL 101250Z 22013KT 9999 FEW020 19/13 Q1007 TEMPO
                        SHRA=
200807101220 METAR COR EGLL 101220Z 25013KT 9999 SCT024 BKN030 17/13 Q1007
                        TEMPO SHRA=
200807101150 METAR COR EGLL 101150Z 24014KT 9999 SHRA FEW031 BKN041 19/11
                        Q1007 NOSIG=
200807101120 METAR COR EGLL 101120Z 22012KT 9999 FEW032 BKN045 19/10 Q1007
                        NOSIG=
200807101050 METAR EGLL 101050Z 22013KT 9999 SCT033 20/11 Q1007 NOSIG=
200807101020 METAR COR EGLL 101020Z 24016KT 9999 SCT033 20/10 Q1007 NOSIG=
200807100950 METAR EGLL 100950Z 23016KT 9999 SCT029 19/11 Q1007 NOSIG=
200807100920 METAR COR EGLL 100920Z 23012KT 160V250 9999 FEW022 SCT034
                        19/12 Q1007 NOSIG=
200807100850 METAR COR EGLL 100850Z 25012KT 9999 FEW021 BKN028 17/11 Q1007
                        NOSIG=
200807100820 METAR COR EGLL 100820Z 23014KT 9999 SCT020 BKN024 17/12 Q1007
                        NOSIG=
200807100750 METAR COR EGLL 100750Z 24013KT 9999 FEW017 BKN024 17/13 Q1007
                        NOSIG=
200807100720 METAR COR EGLL 100720Z 22012KT 9999 FEW016 SCT020 16/13 Q1007
                        NOSIG=
200807100650 METAR COR EGLL 100650Z 21010KT 9999 FEW013 SCT022 15/13 Q1007
                        NOSIG=
200807100620 METAR COR EGLL 100620Z 22011KT 9999 FEW012 SCT020 15/13 Q1007
                        TEMPO BKN014=
200807100550 METAR COR EGLL 100550Z 22012KT 9999 FEW012 15/13 Q1007 TEMPO
                        BKN014=
200807100520 METAR EGLL 100520Z 21010KT 9999 FEW010 14/12 Q1007 TEMPO
                        BKN012=
200807100450 METAR COR EGLL 100450Z 21009KT CAVOK 14/12 Q1007 TEMPO BKN012=
200807100420 METAR COR EGLL 100420Z 21008KT CAVOK 14/12 Q1007 TEMPO BKN012=
200807100350 METAR EGLL 100350Z 21009KT CAVOK 14/12 Q1007 TEMPO BKN012=
200807100320 METAR COR EGLL 100320Z 22010KT 9999 FEW010 14/12 Q1007 TEMPO
                        BKN010=
200807100250 METAR EGLL 100250Z 22010KT CAVOK 14/13 Q1007 NOSIG=
200807100220 METAR EGLL 100220Z 22009KT 9999 FEW036 15/13 Q1007 NOSIG=
200807100150 METAR COR EGLL 100150Z 23012KT 9999 FEW040 16/13 Q1007 NOSIG=
200807100120 METAR EGLL 100120Z AUTO 24011KT 9999NDV FEW016/// 16/14 Q1007=
200807100050 METAR EGLL 100050Z AUTO 23012KT 9999NDV SCT009/// SCT014///
                        17/15 Q1007=
200807100020 METAR EGLL 100020Z AUTO 22011KT 9999NDV DZ SCT009/// BKN013///
                        17/15 Q1007 RERA=
200807092350 METAR EGLL 092350Z 21010KT 9999 SCT007 BKN013 17/16 Q1007
                        RERA BECMG BKN018=
200807092320 METAR COR EGLL 092320Z 21011KT 9999 -RA FEW009 BKN012 17/16
                        Q1007 RERA BECMG NSW BKN015=
200807092250 METAR COR EGLL 092250Z 21010KT 9000 RA FEW007 SCT009 OVC014
                        17/16 Q1008 BECMG NSW SCT015=
200807092220 METAR COR EGLL 092220Z 20013KT 170V240 5000 RA BKN006 BKN013
                        17/16 Q1008 TEMPO 4000=
200807092150 METAR EGLL 092150Z 20013KT 170V240 8000 -RA SCT006 BKN010
                        17/16 Q1008 TEMPO 4000 RA BKN006=
200807092120 METAR EGLL 092120Z 20013KT 170V230 5000 RA FEW009 SCT012
                        BKN015 17/16 Q1008 TEMPO 4000 BKN012=
200807092050 METAR COR EGLL 092050Z 19010KT 160V240 9000 BKN019 17/16
                        Q1008 TEMPO 4000 RA BKN012=
200807092020 METAR COR EGLL 092020Z 21010KT 8000 FEW007 SCT011 BKN016
                        17/16 Q1008 TEMPO RA BKN011=
200807091950 METAR COR EGLL 091950Z 22009KT 190V250 6000 -RA SCT006 BKN008
                        BKN012 17/16 Q1008 TEMPO SCT008=
200807091920 METAR COR EGLL 091920Z 21010KT 7000 -RA FEW007 OVC010 17/16
                        Q1009 TEMPO 4000 RA BKN007=
200807091850 METAR COR EGLL 091850Z 21010KT 180V240 9000 -RA FEW006 SCT020
                        BKN035 17/16 Q1009 TEMPO 4000 RA
                        BKN006=
200807091820 METAR COR EGLL 091820Z 22011G21KT 7000 RA SCT006 BKN010 17/16
                        Q1009 TEMPO 4000 +RA BKN007=
200807091750 METAR COR EGLL 091750Z 22011KT 9000 -RA SCT009 BKN015 17/16
                        Q1009 TEMPO 4000 RA BKN007=
200807091720 METAR COR EGLL 091720Z 22010KT 9999 -RA BKN009 BKN017 17/16
                        Q1009 TEMPO 4000 RADZ=
200807091650 METAR COR EGLL 091650Z 22012KT 5000 -RA SCT006 BKN009 BKN016
                        17/16 Q1009 RERA TEMPO 4000 RA=
200807091620 METAR COR EGLL 091620Z 22012KT 5000 -RA SCT007 BKN011 18/16
                        Q1009 TEMPO 4000 RADZ BKN008=
200807091550 METAR COR EGLL 091550Z 22012KT 6000 -RA BKN007 BKN014 18/16
                        Q1009 TEMPO 4000 RADZ=
200807091520 METAR COR EGLL 091520Z 22011KT 9000 -RA BKN010 BKN019 18/16
                        Q1009 TEMPO 4000 RADZ BKN008=
200807091450 METAR EGLL 091450Z 22011KT 9000 -RA SCT008 BKN011 17/16 Q1009
                        RERA=
200807091420 METAR COR EGLL 091420Z 21010KT 180V240 7000 RA FEW005 SCT008
                        BKN011 17/16 Q1010 RERA TEMPO 4000
                        +RA BKN007=
200807091350 METAR COR EGLL 091350Z 19009KT 2700 +RA FEW005 SCT009 BKN021
                        17/16 Q1010 TEMPO 4000 RA BKN007=
200807091320 METAR COR EGLL 091320Z 20008KT 6000 RA SCT004 BKN024 17/16
                        Q1010 TEMPO 4000 RA BKN010=
200807091250 METAR EGLL 091250Z 19007KT 7000 RA BKN004 OVC010 17/16 Q1010
                        TEMPO 3000=
200807091220 METAR COR EGLL 091220Z 17007KT 8000 -RA FEW003 BKN007 OVC011
                        16/15 Q1010 TEMPO 3000 +RA BKN004=
200807091150 METAR COR EGLL 091150Z 15008KT 4500 -RA SCT004 BKN009 15/14
                        Q1010 RERA TEMPO 2500 +RA BKN004=
200807091120 METAR COR EGLL 091120Z 14008KT 6000 -RA BKN004 OVC010 15/14
                        Q1011 TEMPO 2500 +RA=
200807091050 METAR COR EGLL 091050Z 15009KT 120V190 6000 -RA SCT006 BKN014
                        14/13 Q1011 TEMPO 3000 RA BKN007=
200807091020 METAR COR EGLL 091020Z 13008KT 090V170 3000 -RA BKN005 BKN014
                        14/13 Q1011 TEMPO RA=
200807090950 METAR COR EGLL 090950Z 13008KT 7000 RA SCT007 SCT024 14/13
                        Q1012 TEMPO 4000 RA BKN007=
200807090920 METAR COR EGLL 090920Z 16009KT 140V210 9000 RA FEW008 BKN040
                        14/13 Q1012 TEMPO 4000 +RA BKN007=
200807090850 METAR COR EGLL 090850Z 18011G22KT 140V230 6000 RA FEW006
                        SCT013 BKN016 14/13 Q1012 TEMPO 4000
                        BKN008=
200807090820 METAR COR EGLL 090820Z 15007KT 9999 -RA SCT007 SCT018 15/13
                        Q1012 TEMPO 4000 RA BKN007=
200807090750 METAR EGLL 090750Z 15006KT 120V190 9999 -RA SCT008 BKN027
                        14/13 Q1013 TEMPO 4000 RA BKN008=
200807090720 METAR COR EGLL 090720Z 16006KT 130V210 9999 -RA FEW010 SCT049
                        14/13 Q1013 TEMPO 4000 RA BKN008=
200807090650 METAR COR EGLL 090650Z 18006KT 130V210 9999 -RA SCT048 14/12
                        Q1013 BECMG RA=
200807090620 METAR EGLL 090620Z 20007KT 9999 -RA FEW007 SCT045 13/12 Q1013
                        BECMG RA=
200807090550 METAR COR EGLL 090550Z 20006KT 130V250 9000 -RA SCT007 13/12
                        Q1013 TEMPO RA BKN007=
200807090520 METAR COR EGLL 090520Z 22006KT 9999 -RA FEW026 SCT038 13/12
                        Q1013 BECMG RA=
200807090450 METAR COR EGLL 090450Z 21006KT 9999 -RA BKN041 13/11 Q1013
                        BECMG RA=
200807090420 METAR EGLL 090420Z 21006KT 9999 -RA BKN046 13/11 Q1013 BECMG
                        RA=
200807090350 METAR COR EGLL 090350Z 20004KT 180V250 CAVOK 13/11 Q1013
                        BECMG RA=
200807090320 METAR EGLL 090320Z 21004KT CAVOK 13/11 Q1013 NOSIG=
200807090250 METAR COR EGLL 090250Z 22005KT CAVOK 13/11 Q1013 NOSIG=
200807090220 METAR COR EGLL 090220Z 22004KT 180V260 CAVOK 13/10 Q1013
                        NOSIG=
200807090150 METAR COR EGLL 090150Z 23005KT 190V250 CAVOK 13/10 Q1013
                        NOSIG=
200807090120 METAR EGLL 090120Z AUTO 24006KT 9999NDV NCD 12/10 Q1013=
200807090050 METAR EGLL 090050Z AUTO 24006KT 9999NDV NCD 12/10 Q1013=
200807090020 METAR EGLL 090020Z AUTO 24006KT 9999NDV NCD 13/10 Q1013=
200807082350 METAR COR EGLL 082350Z 24007KT CAVOK 13/10 Q1013 NOSIG=
200807082320 METAR COR EGLL 082320Z 24007KT CAVOK 14/10 Q1013 NOSIG=
200807082250 METAR COR EGLL 082250Z 24007KT CAVOK 14/10 Q1013 NOSIG=
200807082220 METAR EGLL 082220Z 25008KT CAVOK 14/10 Q1013=
200807082150 METAR EGLL 082150Z 25013KT 9999 FEW016 15/10 Q1013=
200807082120 METAR COR EGLL 082120Z 26012KT 9999 FEW016 16/10 Q1013 NOSIG=
200807082050 METAR EGLL 082050Z 25014KT CAVOK 16/10 Q1012 NOSIG=
200807082020 METAR COR EGLL 082020Z 24014KT 9999 FEW049 17/10 Q1012 NOSIG=
200807081950 METAR EGLL 081950Z 25014KT CAVOK 17/10 Q1012 NOSIG=
200807081920 METAR COR EGLL 081920Z 25016KT 9999 FEW040 18/09 Q1011 NOSIG=
200807081850 METAR COR EGLL 081850Z 26017KT 9999 FEW045 18/08 Q1011 NOSIG=
200807081820 METAR COR EGLL 081820Z 27017KT 9999 FEW048 18/06 Q1011 NOSIG=
200807081750 METAR EGLL 081750Z 26018KT 9999 FEW047 19/07 Q1010=
200807081720 METAR COR EGLL 081720Z 26014KT 9999 SCT043 18/08 Q1010 NOSIG=
200807081650 METAR EGLL 081650Z 25015KT 9999 FEW040 19/08 Q1010 NOSIG=
200807081620 METAR EGLL 081620Z 25018KT 9999 SCT043 19/09 Q1010 NOSIG=
200807081550 METAR COR EGLL 081550Z 26020KT 9999 FEW043 SCT049 19/08 Q1010
                        NOSIG=
200807081520 METAR COR EGLL 081520Z 26012G22KT 220V280 9999 FEW043 SCT046
                        18/08 Q1010 NOSIG=
200807081450 METAR COR EGLL 081450Z 26016KT 9999 FEW048 18/07 Q1010 NOSIG=
200807081420 METAR COR EGLL 081420Z 27016KT 9999 FEW036 18/06 Q1010 NOSIG=
200807081350 METAR COR EGLL 081350Z 28015KT 9999 FEW030 SCT045 17/10 Q1010
                        TEMPO SHRA=
200807081320 METAR COR EGLL 081320Z 28013KT 9999 SCT035 19/07 Q1009 TEMPO
                        SHRA=
200807081250 METAR COR EGLL 081250Z 27012KT 9999 FEW030 SCT033 19/08 Q1009
                        NOSIG=
200807081220 METAR COR EGLL 081220Z 26018KT 9999 FEW030CB SCT046 18/08
                        Q1009 TEMPO SHRA=
200807081150 METAR COR EGLL 081150Z 25016KT 9999 FEW030CB SCT046 19/08
                        Q1008 TEMPO SHRA BKN025CB=
200807081120 METAR EGLL 081120Z 25015KT 9999 SCT036 18/08 Q1008 TEMPO
                        SHRA=
200807081050 METAR EGLL 081050Z 24015KT 9999 FEW018CB SCT033 18/08 Q1008
                        NOSIG=
200807081020 METAR EGLL 081020Z 25015KT 9999 FEW018CB SCT032 17/08 Q1008
                        NOSIG=
200807080950 METAR EGLL 080950Z 26015KT 9999 SCT032 17/09 Q1007=
200807080920 METAR EGLL 080920Z 25015KT 9999 FEW024 SCT030 16/10 Q1007=
200807080850 METAR COR EGLL 080850Z 25015KT 9999 SCT024 16/10 Q1007 NOSIG=
200807080820 METAR COR EGLL 080820Z 25012KT 9999 -SHRA FEW019 BKN022 16/11
                        Q1007 NOSIG=
200807080750 METAR COR EGLL 080750Z 25012KT 9999 SCT020 15/11 Q1006 NOSIG=
200807080720 METAR EGLL 080720Z 26012KT 9999 -SHRA FEW015 14/11 Q1006
                        NOSIG=
200807080650 METAR COR EGLL 080650Z 25012KT 9999 FEW015 14/11 Q1006 NOSIG=
200807080620 METAR EGLL 080620Z 25011KT 9999 FEW012 14/11 Q1005 NOSIG=
200807080550 METAR EGLL 080550Z 26010KT 9999 FEW013 14/11 Q1005 NOSIG=
200807080520 METAR COR EGLL 080520Z 25008KT 9999 FEW018 13/11 Q1005 NOSIG=
200807080450 METAR COR EGLL 080450Z 24008KT 9999 FEW014 13/11 Q1004 NOSIG=
200807080420 METAR COR EGLL 080420Z 23009KT 9999 FEW018 13/11 Q1004 NOSIG=
200807080350 METAR COR EGLL 080350Z 24008KT 9999 FEW018 13/11 Q1004 NOSIG=
200807080320 METAR COR EGLL 080320Z 23007KT CAVOK 13/11 Q1004 NOSIG=
200807080250 METAR EGLL 080250Z 24009KT CAVOK 13/11 Q1003 NOSIG=
200807080220 METAR COR EGLL 080220Z 24009KT CAVOK 14/12 Q1003 NOSIG=
200807080150 METAR COR EGLL 080150Z 24009KT CAVOK 14/11 Q1003 NOSIG=
200807080120 METAR EGLL 080120Z AUTO 24011KT 9999NDV FEW025/// 14/12 Q1003=
200807080050 METAR EGLL 080050Z AUTO 24010KT 9999NDV FEW023/// 15/12 Q1003=
200807080020 METAR EGLL 080020Z AUTO 23010KT 9999NDV NCD 15/12 Q1003=
200807072350 METAR COR EGLL 072350Z 22007KT 190V250 CAVOK 14/12 Q1003
                        RESHRA NOSIG=
200807072320 METAR COR EGLL 072320Z 24009KT 9999 SHRA NSC 15/12 Q1003
                        BECMG NSW=
200807072250 METAR COR EGLL 072250Z 23008KT 190V260 CAVOK 14/12 Q1002
                        NOSIG=
200807072220 METAR COR EGLL 072220Z 24011KT CAVOK 15/11 Q1002 NOSIG=
200807072150 METAR COR EGLL 072150Z 24012KT CAVOK 15/11 Q1002 NOSIG=
200807072120 METAR COR EGLL 072120Z 24011KT 9999 FEW048 15/11 Q1002 NOSIG=
200807072050 METAR EGLL 072050Z 23011KT 9999 FEW038 15/12 Q1002 NOSIG=
200807072020 METAR COR EGLL 072020Z 24011KT 210V270 9999 FEW040 16/12
                        Q1001 NOSIG=
200807071950 METAR EGLL 071950Z 27010KT 9999 FEW038 16/12 Q1001 NOSIG=
200807071920 METAR COR EGLL 071920Z 24008KT 9999 FEW036 16/13 Q1000 NOSIG=
200807071850 METAR COR EGLL 071850Z 22006KT 160V260 9999 VCTS VCSH FEW032CB
                        SCT040 15/13 Q1000 NOSIG=
200807071820 METAR COR EGLL 071820Z 26006KT 9999 VCTS VCSH FEW030CB 16/13
                        Q1000 RERA TEMPO SHRA=
200807071750 METAR COR EGLL 071750Z 30005KT 270V340 9999 VCTS FEW026CB
                        17/12 Q0999 TEMPO SHRA=
200807071720 METAR COR EGLL 071720Z 27007KT 9000 VCTS FEW019CB SCT043
                        15/12 Q0999 RERA TEMPO SHRA=
200807071650 METAR COR EGLL 071650Z 33007KT 290V350 8000 RA VCTS FEW023CB
                        SCT035 15/12 Q0999 TEMPO 4000 TSRA
                        BKN012CB=
200807071620 METAR COR EGLL 071620Z 26011KT 9999 -TSRA FEW025 SCT040CB
                        15/11 Q0999 RERA TEMPO 4500 +TSRA
                        BKN012CB=
200807071550 METAR EGLL 071550Z 27014KT 5000 TSRA FEW011 SCT019 BKN040CB
                        14/13 Q0998 TEMPO 4000 +TSRA BKN012CB=
200807071520 METAR COR EGLL 071520Z 22015KT 9999 4000E SHRA FEW012CB SCT020
                        16/14 Q0998 TEMPO 24016G26KT BKN012CB=
200807071450 METAR COR EGLL 071450Z 24016KT 9999 SHRA FEW022CB SCT040
                        17/13 Q0998 TEMPO 24016G26KT BKN012CB=
200807071420 METAR COR EGLL 071420Z 24014KT 9999 SCT038TCU 17/13 Q0997
                        TEMPO 4000 TSRA BKN012CB=
200807071350 METAR EGLL 071350Z 24018KT 9999 FEW030 SCT038 20/12 Q0997=
200807071320 METAR COR EGLL 071320Z 26015KT 9999 SCT030 19/11 Q0997 TEMPO
                        26015G25KT SHRA BKN012CB=
200807071250 METAR COR EGLL 071250Z 25016KT 9999 FEW027 SCT048 19/12 Q0996
                        TEMPO SHRA BKN012CB=
200807071220 METAR COR EGLL 071220Z 25014KT 9999 FEW024 SCT048 17/13 Q0996
                        TEMPO SHRA=
200807071150 METAR COR EGLL 071150Z 25015KT 9999 SCT026 SCT045 15/13 Q0996
                        TEMPO 25015G25KT SHRA=
200807071120 METAR COR EGLL 071120Z 25016KT 9999 FEW024 SCT029 18/11 Q0996
                        TEMPO 25016G26KT SHRA=
200807071050 METAR EGLL 071050Z 25017KT 9999 FEW020 SCT024 17/12 Q0995=
200807071020 METAR COR EGLL 071020Z 24016KT 9999 SCT015 SCT020 BKN030
                        16/12 Q0995 TEMPO 24016G26KT SHRA
                        BKN012CB=
200807070950 METAR COR EGLL 070950Z 23015KT 9999 BKN011 15/13 Q0995 TEMPO
                        24015G25KT SHRA BKN012CB=
200807070920 METAR COR EGLL 070920Z 20011KT 9999 8000N -SHRA SCT013 BKN019
                        14/12 Q0995 TEMPO 24015G25KT 4000
                        SHRA BKN012CB=
200807070850 METAR COR EGLL 070850Z 21013KT 9999 -SHRA SCT014 BKN019 16/12
                        Q0995 TEMPO SHRA BKN012CB=
200807070820 METAR COR EGLL 070820Z 21012KT 9999 -SHRA FEW013 SCT016 BKN019
                        15/13 Q0995 TEMPO 23015G25KT 4000
                        SHRA BKN012CB=
200807070750 METAR COR EGLL 070750Z 21010KT 9999 -SHRA BKN019 15/13 Q0995
                        TEMPO SHRA BKN012CB=
200807070720 METAR COR EGLL 070720Z 19011KT 9999 -SHRA SCT010 BKN020 15/12
                        Q0996 TEMPO 4000 SHRA BKN012CB=
200807070650 METAR COR EGLL 070650Z 20010KT 9999 SCT010 BKN017 15/12 Q0996
                        TEMPO 4500 SHRA BKN012CB=
200807070620 METAR COR EGLL 070620Z 19010KT 160V240 9999 FEW009 SCT017
                        14/12 Q0996 TEMPO SHRA BKN012=
200807070550 METAR COR EGLL 070550Z 19009KT 160V230 9999 FEW008 SCT018
                        14/12 Q0996 TEMPO SHRA BKN012=
200807070520 METAR COR EGLL 070520Z 19011KT 9999 FEW010 SCT020 14/12 Q0996
                        TEMPO SHRA BKN012=
200807070450 METAR EGLL 070450Z 20009KT 9999 FEW012 13/12 Q0997 TEMPO
                        SHRA BKN012=
200807070420 METAR EGLL 070420Z 20010KT 9999 SCT010 13/12 Q0997 TEMPO
                        SHRA BKN012=
200807070350 METAR COR EGLL 070350Z 20009KT 9999 SCT010 SCT015 13/12 Q0997
                        TEMPO SHRA BKN012=
200807070320 METAR COR EGLL 070320Z 21009KT 9999 FEW012 BKN020 13/12 Q0997
                        TEMPO SHRA BKN012=
200807070250 METAR COR EGLL 070250Z 21009KT 9999 SCT015 SCT047 13/11 Q0998
                        TEMPO SHRA BKN014=
200807070220 METAR EGLL 070220Z NIL=
200807070150 METAR COR EGLL 070150Z 20012KT 9000 RA SCT021 SCT032 14/11
                        Q0998 TEMPO NSW=
200807070120 METAR EGLL 070120Z AUTO 21010KT 9999NDV FEW020/// SCT024///
                        14/11 Q0999=
200807070050 METAR EGLL 070050Z AUTO 20009KT 9999NDV FEW039/// 14/11 Q0999=
200807070020 METAR EGLL 070020Z AUTO 21010KT 9999NDV NCD 14/10 Q0999=
200807062350 METAR EGLL 062350Z 22010KT 9999 FEW020 14/11 Q0999 NOSIG=
200807062320 METAR COR EGLL 062320Z 21011KT 9999 FEW045 14/11 Q0999 NOSIG=
200807062250 METAR EGLL 062250Z 22012KT 9999 FEW020 14/11 Q1000 NOSIG=
200807062220 METAR EGLL 062220Z 22014G25KT 9999 SCT027 14/11 Q1000 NOSIG=
200807062150 METAR EGLL 062150Z 22015KT 9999 SCT020 SCT030 BKN040 15/11
                        Q1000 NOSIG=
200807062120 METAR EGLL 062120Z 22015KT 9999 BKN025 15/11 Q1000 NOSIG=
200807062050 METAR EGLL 062050Z 21013KT 9999 FEW022 BKN032 15/12 Q1000
                        NOSIG=
200807062020 METAR COR EGLL 062020Z 22013KT 9999 SCT023 BKN032 15/12 Q1000
                        NOSIG=
200807061950 METAR COR EGLL 061950Z 21012KT 9999 FEW024 SCT041 15/12 Q0999
                        NOSIG=
200807061920 METAR COR EGLL 061920Z 21012KT 9999 SCT026 SCT045 15/13 Q0999
                        RESHRA NOSIG=
200807061850 METAR COR EGLL 061850Z 21011KT 9999 FEW025 SCT040 16/12 Q0999
                        TEMPO SHRA=
200807061820 METAR COR EGLL 061820Z 22012KT 9999 FEW032 17/13 Q1000 TEMPO
                        SHRA=
200807061750 METAR COR EGLL 061750Z 20010KT 170V230 9999 SCT028 17/13
                        Q1000 TEMPO SHRA=
200807061720 METAR COR EGLL 061720Z 21008KT 160V250 9999 FEW020 SCT028
                        15/13 Q1000 NOSIG=
200807061650 METAR COR EGLL 061650Z 21010KT 190V260 9999 -SHRA FEW020CB
                        SCT029 14/12 Q1000 RERA NOSIG=
200807061620 METAR COR EGLL 061620Z 22010KT 180V260 9999 SHRA FEW020 BKN042TCU
                        14/12 Q1000 BECMG NSW=
200807061550 METAR COR EGLL 061550Z 24012KT 8000 SHRA FEW023CB BKN041
                        14/12 Q1000 BECMG NSW=
200807061520 METAR COR EGLL 061520Z 27014KT 9999 8000NW -RA FEW023CB SCT038
                        15/10 Q1000 TEMPO 23018G28KT 4000
                        +TSRA=
200807061450 METAR COR EGLL 061450Z 21015KT 9999 FEW023CB SCT028 20/12
                        Q0999 TEMPO 22018G28KT 4000 +TSRA=
200807061420 METAR COR EGLL 061420Z 22017KT 9999 FEW020CB SCT024 19/13
                        Q0999 TEMPO 22020G30KT 4000 +TSRA=
200807061350 METAR COR EGLL 061350Z 21015KT 9999 BKN017 18/14 Q1000 TEMPO
                        21018G28KT SHRA=
200807061320 METAR EGLL 061320Z 20015KT 9999 FEW008 BKN010 16/14 Q1000=
200807061250 METAR COR EGLL 061250Z 19013KT 160V230 9999 -RA FEW008 SCT010
                        BKN015 15/14 Q1000 RERA TEMPO 20016G28KT=
200807061220 METAR COR EGLL 061220Z 18013KT 150V230 9999 RA SCT008 OVC012
                        15/13 Q1000 BECMG NSW SCT012=
200807061150 METAR COR EGLL 061150Z 17014KT 140V230 8000 -RA BKN012 14/13
                        Q1001 RERA TEMPO 19017G28KT 4000
                        RA=
200807061120 METAR COR EGLL 061120Z 18016KT 160V230 7000 -RA BKN014 BKN018
                        15/13 Q1001 TEMPO 19018G28KT 4000
                        RA=
200807061050 METAR COR EGLL 061050Z 18015G25KT 160V230 9999 VCSH SCT007
                        BKN014 15/13 Q1001 TEMPO 4000 RA
                        BKN007=
200807061020 METAR COR EGLL 061020Z 19015KT 9000 -RA SCT018 BKN022 15/12
                        Q1002 TEMPO 19018G28KT 4000 RA=
200807060950 METAR COR EGLL 060950Z 19016KT 160V230 9000 -RA SCT018 SCT030
                        16/12 Q1002 TEMPO 19018G28KT 4000
                        RA=
200807060920 METAR COR EGLL 060920Z 18014KT 150V230 8000 -RA SCT018 BKN028
                        15/12 Q1002 TEMPO 19016G28KT 4000
                        RA=
200807060850 METAR COR EGLL 060850Z 19016KT 9999 -DZ SCT022 SCT027 16/11
                        Q1002 TEMPO 19018G28KT 4000 RA=
200807060820 METAR COR EGLL 060820Z 20015KT 170V230 9999 FEW022 SCT032
                        17/12 Q1003 TEMPO 19016G26KT 4000
                        RA=
200807060750 METAR COR EGLL 060750Z 18014KT 9999 FEW024 BKN044 15/12 Q1003
                        TEMPO 19016G26KT=
200807060720 METAR COR EGLL 060720Z 19013KT 9000 VCSH FEW021 SCT032 14/12
                        Q1003 RERA TEMPO 19016G26KT=
200807060650 METAR COR EGLL 060650Z 18012KT 9999 VCSH SCT043 15/11 Q1003
                        TEMPO 19016G28KT=
200807060620 METAR COR EGLL 060620Z 18013KT 9999 FEW023 15/11 Q1004 TEMPO
                        19018G28KT=
200807060550 METAR COR EGLL 060550Z 18013G23KT 9999 FEW025 15/11 Q1004
                        NOSIG=
200807060520 METAR EGLL 060520Z 19013KT 9999 FEW020 BKN037 15/11 Q1004
                        NOSIG=
200807060450 METAR COR EGLL 060450Z 19012KT 9999 FEW032 BKN042 15/11 Q1004
                        NOSIG=
200807060420 METAR COR EGLL 060420Z 18012KT 9999 FEW015 BKN040 15/11 Q1004
                        NOSIG=
200807060350 METAR EGLL 060350Z 18011KT 9999 BKN038 15/11 Q1005 NOSIG=
200807060320 METAR COR EGLL 060320Z 18010KT 9999 FEW026 SCT040 15/11 Q1005
                        NOSIG=
200807060250 METAR COR EGLL 060250Z 18012KT 9999 SCT020 15/11 Q1006 NOSIG=
200807060220 METAR COR EGLL 060220Z 20013KT 9999 BKN026 SCT032 16/10 Q1006
                        NOSIG=
200807060150 METAR COR EGLL 060150Z 19012KT 9999 BKN029 16/10 Q1006 NOSIG=
200807060120 METAR EGLL 060120Z AUTO 20015KT 9999NDV SCT029/// SCT034///
                        16/10 Q1006=
200807060050 METAR EGLL 060050Z AUTO 19013G23KT 9999NDV SCT032/// SCT036///
                        16/10 Q1007=
200807060020 METAR EGLL 060020Z AUTO 19012KT 9999NDV SCT032/// BKN036///
                        16/10 Q1007=
200807052350 METAR EGLL 052350Z 20013KT 9999 FEW033 16/10 Q1007 NOSIG=
200807052320 METAR COR EGLL 052320Z 19012KT 9999 SCT032 16/10 Q1007 NOSIG=
200807052250 METAR EGLL 052250Z 20012KT 9999 FEW035 16/09 Q1008 NOSIG=
200807052220 METAR EGLL 052220Z 20011G21KT 180V240 9999 FEW040 16/09 Q1008
                        NOSIG=
200807052150 METAR COR EGLL 052150Z 20012KT 150V240 CAVOK 16/09 Q1008
                        NOSIG=
200807052120 METAR EGLL 052120Z 19012KT 170V240 CAVOK 16/09 Q1008 NOSIG=
200807052050 METAR EGLL 052050Z 20014KT 170V240 CAVOK 17/09 Q1008 NOSIG=
200807052020 METAR COR EGLL 052020Z 20015KT 9999 FEW041 17/09 Q1008 NOSIG=
200807051950 METAR COR EGLL 051950Z 22012G24KT 9999 FEW042 18/08 Q1008
                        NOSIG=
200807051920 METAR COR EGLL 051920Z 21014KT 9999 FEW047 18/08 Q1008 NOSIG=
200807051850 METAR COR EGLL 051850Z 21015KT 170V240 9999 FEW049 18/08
                        Q1008 NOSIG=
200807051820 METAR EGLL 051820Z 21014KT 170V240 CAVOK 19/07 Q1009 NOSIG=
200807051750 METAR COR EGLL 051750Z 21014KT CAVOK 19/07 Q1009 NOSIG=
200807051720 METAR COR EGLL 051720Z 20018KT CAVOK 19/05 Q1009 NOSIG=
200807051650 METAR EGLL 051650Z 20017KT 180V240 CAVOK 19/07 Q1009 NOSIG=
200807051620 METAR EGLL 051620Z 21015G27KT 180V240 9999 FEW044 21/07 Q1009
                        NOSIG=
200807051550 METAR EGLL 051550Z 22018G28KT 9999 SCT044 20/08 Q1009 NOSIG=
200807051520 METAR COR EGLL 051520Z 20016G29KT 9999 SCT045 21/08 Q1009
                        NOSIG=
200807051450 METAR EGLL 051450Z 22015G25KT 180V250 9999 FEW048 21/07 Q1009
                        NOSIG=
200807051420 METAR COR EGLL 051420Z 21018G28KT 9999 SCT045 22/07 Q1009
                        NOSIG=
200807051350 METAR COR EGLL 051350Z 22017G27KT 180V240 9999 SCT043 21/08
                        Q1009 NOSIG=
200807051320 METAR COR EGLL 051320Z 21017KT 9999 FEW042 21/09 Q1009 NOSIG=
200807051250 METAR COR EGLL 051250Z 23018KT 9999 FEW041 BKN044 21/09 Q1009
                        NOSIG=
200807051220 METAR EGLL 051220Z 22016KT 180V250 9999 SCT041 SCT046 20/09
                        Q1009 NOSIG=
200807051150 METAR COR EGLL 051150Z 22016KT 190V250 9999 SCT042 21/09
                        Q1009 NOSIG=
200807051120 METAR COR EGLL 051120Z 23017G28KT 190V250 9999 FEW032 SCT040
                        22/09 Q1009 NOSIG=
200807051050 METAR EGLL 051050Z 21017KT 180V250 9999 FEW020 SCT045 21/09
                        Q1009 NOSIG=
200807051020 METAR COR EGLL 051020Z 21014KT 9999 SCT033 21/10 Q1009 NOSIG=
200807050950 METAR COR EGLL 050950Z 20014KT 160V230 9999 FEW025 SCT040
                        20/10 Q1009 NOSIG=
200807050920 METAR COR EGLL 050920Z 21011KT 9999 FEW020 SCT024 19/12 Q1009
                        NOSIG=
200807050850 METAR COR EGLL 050850Z 21012KT 180V240 9999 FEW016 SCT020
                        BKN048 18/12 Q1009 NOSIG=
200807050820 METAR COR EGLL 050820Z 19010KT 150V240 9999 FEW016 SCT020
                        18/13 Q1009 NOSIG=
200807050750 METAR EGLL 050750Z 20009KT 160V240 9999 FEW015 17/14 Q1009
                        NOSIG=
200807050720 METAR EGLL 050720Z 21011KT 9999 FEW010 SCT016 17/13 Q1008
                        REDZ TEMPO RA BKN012=
200807050650 METAR COR EGLL 050650Z 16010KT 9999 -DZ FEW008 BKN017 18/13
                        Q1008 TEMPO RA BKN012=
200807050620 METAR COR EGLL 050620Z 14011KT 9999 BKN019 18/13 Q1008 TEMPO
                        RA BKN012=
200807050550 METAR EGLL 050550Z 14011KT 9999 FEW042 17/12 Q1008 BECMG
                        RA BKN012=
200807050520 METAR COR EGLL 050520Z 15010KT 9999 VCSH FEW031 SCT040 17/12
                        Q1008 BECMG 6000 RA BKN012=
200807050450 METAR COR EGLL 050450Z 14011KT 9999 -SHRA FEW014 17/12 Q1008
                        BECMG 6000 RA BKN012=
200807050420 METAR COR EGLL 050420Z 14009KT 9999 FEW033 17/11 Q1008 BECMG
                        RA=
200807050350 METAR COR EGLL 050350Z 12009KT 9999 FEW041 17/11 Q1008 NOSIG=
200807050320 METAR EGLL 050320Z 12009KT 9999 FEW042 17/11 Q1009 NOSIG=
200807050250 METAR EGLL 050250Z 11010KT 9999 BKN047 17/10 Q1009 NOSIG=
200807050220 METAR COR EGLL 050220Z 11011KT 9999 BKN048 17/10 Q1009 NOSIG=
200807050150 METAR COR EGLL 050150Z 11012KT CAVOK 17/09 Q1010 NOSIG=
200807050120 METAR EGLL 050120Z AUTO 12014KT 9999NDV NCD 17/08 Q1010=
200807050050 METAR EGLL 050050Z AUTO 11013KT 9999NDV NCD 17/08 Q1011=
200807050020 METAR EGLL 050020Z AUTO 11013KT 9999NDV NCD 17/07 Q1011=
200807042350 METAR EGLL 042350Z 10013KT CAVOK 17/07 Q1011 NOSIG=
200807042320 METAR COR EGLL 042320Z 10011KT CAVOK 18/07 Q1012 NOSIG=
200807042250 METAR COR EGLL 042250Z 12012KT 9999 -SHRA NSC 18/07 Q1012
                        NOSIG=
200807042220 METAR COR EGLL 042220Z 11010KT CAVOK 18/07 Q1012 NOSIG=
200807042150 METAR EGLL 042150Z 11010KT CAVOK 18/07 Q1012 NOSIG=
200807042120 METAR COR EGLL 042120Z 10009KT CAVOK 18/07 Q1013 NOSIG=
200807042050 METAR COR EGLL 042050Z 11009KT CAVOK 18/07 Q1013 NOSIG=
200807042020 METAR EGLL 042020Z 11009KT CAVOK 18/07 Q1013 NOSIG=
200807041950 METAR COR EGLL 041950Z 12009KT CAVOK 18/07 Q1013 NOSIG=
200807041920 METAR EGLL 041920Z 13010KT CAVOK 19/06 Q1013 NOSIG=
200807041850 METAR EGLL 041850Z 14008KT CAVOK 19/05 Q1013 NOSIG=
200807041820 METAR EGLL 041820Z 14010KT CAVOK 19/06 Q1014 NOSIG=
200807041750 METAR EGLL 041750Z 17010KT CAVOK 19/07 Q1014 NOSIG=
200807041720 METAR COR EGLL 041720Z 16011KT CAVOK 19/07 Q1014 NOSIG=
200807041650 METAR COR EGLL 041650Z 17012KT CAVOK 19/06 Q1014 NOSIG=
200807041620 METAR COR EGLL 041620Z 17010KT 120V210 CAVOK 20/07 Q1014
                        NOSIG=
200807041550 METAR EGLL 041550Z 17009KT 130V230 9999 FEW048 21/06 Q1014=
200807041520 METAR COR EGLL 041520Z 14011KT 9999 FEW049 22/07 Q1015 NOSIG=
200807041450 METAR COR EGLL 041450Z 18010KT 130V210 9999 FEW049 21/07
                        Q1015 NOSIG=
200807041420 METAR EGLL 041420Z 16009KT 130V280 9999 SCT049 21/07 Q1015
                        NOSIG=
200807041350 METAR COR EGLL 041350Z 20009KT 160V250 9999 SCT048 21/07
                        Q1015 NOSIG=
200807041320 METAR EGLL 041320Z 18008KT 150V230 9999 SCT049 20/08 Q1015
                        NOSIG=
200807041250 METAR COR EGLL 041250Z 17007KT 120V240 9999 SCT045 21/08
                        Q1016 NOSIG=
200807041220 METAR EGLL 041220Z 23010KT 180V260 9999 SCT047 21/08 Q1016
                        NOSIG=
200807041150 METAR EGLL 041150Z VRB06KT 9999 SCT049 21/07 Q1016=
200807041120 METAR COR EGLL 041120Z 20005KT 150V270 9999 SCT044 19/08
                        Q1016 NOSIG=
200807041050 METAR COR EGLL 041050Z 21005KT 110V260 9999 FEW048 19/08
                        Q1016 NOSIG=
200807041020 METAR COR EGLL 041020Z VRB03KT 9999 SCT036 18/08 Q1016 NOSIG=
200807040950 METAR COR EGLL 040950Z 17005KT 090V230 9999 SCT032 18/09
                        Q1017 NOSIG=
200807040920 METAR EGLL 040920Z VRB05KT 9999 BKN028 18/10 Q1017 NOSIG=
200807040850 METAR EGLL 040850Z VRB04KT 9999 SCT029 16/10 Q1017 NOSIG=
200807040820 METAR COR EGLL 040820Z VRB03KT 9999 SCT028 17/10 Q1017 NOSIG=
200807040750 METAR COR EGLL 040750Z VRB03KT 9999 FEW033 16/10 Q1017 NOSIG=
200807040720 METAR EGLL 040720Z 18004KT 120V290 9999 FEW033 15/10 Q1017
                        NOSIG=
200807040650 METAR COR EGLL 040650Z 17004KT 070V230 CAVOK 14/10 Q1017
                        NOSIG=
200807040620 METAR EGLL 040620Z VRB04KT CAVOK 13/10 Q1016 NOSIG=
200807040550 METAR COR EGLL 040550Z VRB03KT CAVOK 12/10 Q1016 NOSIG=
200807040520 METAR EGLL 040520Z VRB03KT CAVOK 11/09 Q1016 NOSIG=
200807040450 METAR COR EGLL 040450Z 20004KT CAVOK 11/09 Q1016 NOSIG=
200807040420 METAR EGLL 040420Z VRB02KT CAVOK 11/09 Q1015=
200807040350 METAR EGLL 040350Z 26003KT CAVOK 10/09 Q1015 NOSIG=
200807040320 METAR COR EGLL 040320Z 27004KT CAVOK 11/09 Q1015 NOSIG=
200807040250 METAR COR EGLL 040250Z 00000KT CAVOK 11/09 Q1015 NOSIG=
200807040220 METAR EGLL 040220Z 00000KT CAVOK 10/08 Q1015 NOSIG=
200807040150 METAR COR EGLL 040150Z 27003KT CAVOK 11/09 Q1015 NOSIG=
200807040120 METAR EGLL 040120Z AUTO 00000KT 9999NDV NCD 11/09 Q1015=
200807040050 METAR EGLL 040050Z AUTO 28004KT 9999NDV NCD 12/09 Q1015=
200807040020 METAR EGLL 040020Z AUTO 27004KT 9999NDV NCD 12/10 Q1015=
200807032350 METAR COR EGLL 032350Z 21003KT CAVOK 13/10 Q1015 NOSIG=
200807032320 METAR EGLL 032320Z 23007KT CAVOK 13/09 Q1015 NOSIG=
200807032250 METAR COR EGLL 032250Z 24009KT CAVOK 14/09 Q1014 NOSIG=
200807032220 METAR COR EGLL 032220Z 24010KT CAVOK 14/11 Q1014 NOSIG=
200807032150 METAR COR EGLL 032150Z 23008KT CAVOK 14/11 Q1014 NOSIG=
200807032120 METAR EGLL 032120Z 22008KT 190V250 CAVOK 14/12 Q1014=
200807032050 METAR COR EGLL 032050Z 21007KT 9999 FEW045 14/12 Q1014 NOSIG=
200807032020 METAR COR EGLL 032020Z 23008KT 9999 FEW045CB 15/11 Q1013
                        NOSIG=
200807031950 METAR COR EGLL 031950Z 21009KT 9999 FEW046CB 16/11 Q1013
                        NOSIG=
200807031920 METAR COR EGLL 031920Z 25013KT 9999 FEW044CB 17/12 Q1012
                        TEMPO SHRA=
200807031850 METAR COR EGLL 031850Z 19010KT 170V230 9999 SCT037CB 18/13
                        Q1012 TEMPO SHRA=
200807031820 METAR COR EGLL 031820Z 20010KT 170V240 9999 FEW037 18/13
                        Q1011 NOSIG=
200807031750 METAR COR EGLL 031750Z 19008KT 140V220 9999 FEW037CB 17/13
                        Q1011 BECMG SCT040=
200807031720 METAR COR EGLL 031720Z 20009KT 160V240 9999 SCT037CB 17/14
                        Q1011 BECMG SCT040=
200807031650 METAR COR EGLL 031650Z 21008KT 9999 SCT023CB 17/13 Q1011
                        NOSIG=
200807031620 METAR COR EGLL 031620Z 21010KT 9999 -RA FEW012CB SCT040 16/12
                        Q1011 TEMPO 5000 SHRA SCT020CB=
200807031550 METAR COR EGLL 031550Z 21009KT 9999 -RA FEW012CB SCT040 17/12
                        Q1010 RETS TEMPO 5000 SHRA BKN025CB=
200807031520 METAR COR EGLL 031520Z 22014KT 190V260 9999 RA SCT012CB SCT040
                        17/12 Q1010 RETS TEMPO 5000 TSRA
                        SHRA BKN015CB=
200807031450 METAR COR EGLL 031450Z 21011KT 180V250 9999 FEW035 SCT042CB
                        SCT044 21/08 Q1010 TEMPO -SHRA SCT030CB=
200807031420 METAR COR EGLL 031420Z 21012KT 180V250 9999 FEW040CB SCT043
                        20/08 Q1010 TEMPO -SHRA SCT025CB=
200807031350 METAR COR EGLL 031350Z 23011KT 200V270 9999 FEW025CB SCT042
                        21/08 Q1010 TEMPO -SHRA SCT025CB=
200807031320 METAR COR EGLL 031320Z 23012G22KT 190V250 9999 SCT040 20/09
                        Q1010 TEMPO -SHRA SCT025CB=
200807031250 METAR COR EGLL 031250Z 23012KT 200V260 9999 FEW030 21/08
                        Q1009 TEMPO -SHRA SCT025CB=
200807031220 METAR COR EGLL 031220Z 23013KT 190V260 9999 FEW030 SCT040
                        20/08 Q1009 BECMG -SHRA SCT025CB=
200807031150 METAR COR EGLL 031150Z 21013KT 180V250 9999 FEW028 SCT040
                        19/08 Q1009 NOSIG=
200807031120 METAR COR EGLL 031120Z 25012KT 9999 SCT040CB 20/08 Q1009
                        NOSIG=
200807031050 METAR COR EGLL 031050Z 22013KT 170V250 9999 SCT036 20/10
                        Q1009 NOSIG=
200807031020 METAR COR EGLL 031020Z 23012KT 190V260 9999 SCT029 20/10
                        Q1008 NOSIG=
200807030950 METAR COR EGLL 030950Z 19012KT 160V230 9999 FEW018CB SCT026
                        20/11 Q1008 TEMPO SCT030=
200807030920 METAR COR EGLL 030920Z 22009KT 9999 VCSH FEW018CB SCT024
                        18/13 Q1008 TEMPO SCT025=
200807030850 METAR COR EGLL 030850Z 21010KT 170V240 9999 VCSH FEW018CB
                        SCT024 18/12 Q1008 NOSIG=
200807030820 METAR COR EGLL 030820Z 20009KT 170V240 9999 FEW013 SCT018
                        18/13 Q1008 TEMPO -SHRA SCT015CB=
200807030750 METAR COR EGLL 030750Z 21007KT 160V250 9999 SCT013 17/13
                        Q1008 TEMPO -SHRA SCT015CB=
200807030720 METAR COR EGLL 030720Z 19006KT 150V240 9999 FEW013 SCT018
                        17/13 Q1008 TEMPO SCT015CB=
200807030650 METAR COR EGLL 030650Z 16006KT 120V240 9999 FEW014 16/12
                        Q1008 TEMPO SCT015CB=
200807030620 METAR COR EGLL 030620Z 15006KT 110V180 9999 FEW014CB 15/12
                        Q1008 TEMPO SHRA=
200807030550 METAR COR EGLL 030550Z 15005KT 120V210 9999 FEW016 14/11
                        Q1008 TEMPO SHRA=
200807030520 METAR COR EGLL 030520Z VRB05KT 9999 SCT016 14/11 Q1008 TEMPO
                        SHRA=
200807030450 METAR COR EGLL 030450Z 15005KT 9999 SCT016 14/11 Q1008 TEMPO
                        SHRA=
200807030420 METAR COR EGLL 030420Z VRB03KT CAVOK 13/11 Q1007 TEMPO SHRA=
200807030350 METAR EGLL 030350Z 09003KT CAVOK 13/10 Q1007 TEMPO SHRA=
200807030320 METAR COR EGLL 030320Z 15003KT CAVOK 13/10 Q1008 TEMPO SHRA=
200807030250 METAR COR EGLL 030250Z 15003KT CAVOK 13/10 Q1008 TEMPO SHRA=
200807030220 METAR COR EGLL 030220Z 17003KT CAVOK 13/10 Q1008 NOSIG=
200807030150 METAR COR EGLL 030150Z 08003KT CAVOK 12/10 Q1008 NOSIG=
200807030120 METAR EGLL 030120Z AUTO VRB03KT 9999NDV NCD 12/10 Q1008=
200807030050 METAR EGLL 030050Z AUTO 19002KT 9999NDV NCD 12/09 Q1008=
200807030020 METAR EGLL 030020Z AUTO 15004KT 9999NDV NCD 12/09 Q1009=
200807022350 METAR COR EGLL 022350Z 19004KT CAVOK 13/09 Q1009 NOSIG=
200807022320 METAR COR EGLL 022320Z 18003KT CAVOK 13/09 Q1008 NOSIG=
200807022250 METAR COR EGLL 022250Z 17004KT CAVOK 14/09 Q1008 NOSIG=
200807022220 METAR COR EGLL 022220Z 17005KT CAVOK 14/09 Q1009 NOSIG=
200807022150 METAR COR EGLL 022150Z 20006KT 160V230 CAVOK 16/10 Q1009
                        NOSIG=
200807022120 METAR COR EGLL 022120Z 20007KT 9999 FEW040 17/10 Q1009 NOSIG=
200807022050 METAR EGLL 022050Z 21007KT 170V240 9999 FEW030 17/10 Q1010=
200807022020 METAR COR EGLL 022020Z 19008KT 160V240 9999 FEW032 17/10
                        Q1010 NOSIG=
200807021950 METAR EGLL 021950Z 22008KT 9999 FEW032 18/10 Q1009 NOSIG=
200807021920 METAR COR EGLL 021920Z 20008KT 170V230 9999 FEW036 19/10
                        Q1008 NOSIG=
200807021850 METAR COR EGLL 021850Z 21007KT 170V250 9999 SCT038 18/10
                        Q1008 NOSIG=
200807021820 METAR EGLL 021820Z 20006KT 160V240 9999 SCT034 20/10 Q1008
                        NOSIG=
200807021750 METAR EGLL 021750Z 22006KT 180V250 9999 SCT032 19/10 Q1008
                        NOSIG=
200807021720 METAR COR EGLL 021720Z 19005KT 140V240 9999 SCT026 19/11
                        Q1008 NOSIG=
200807021650 METAR EGLL 021650Z 16007KT 120V190 9999 FEW024 SCT030 19/11
                        Q1008 NOSIG=
200807021620 METAR COR EGLL 021620Z 15007KT 100V210 9999 SCT025 20/12
                        Q1009 NOSIG=
200807021550 METAR COR EGLL 021550Z 21006KT 170V290 9999 SCT026 18/11
                        Q1009 NOSIG=
200807021520 METAR COR EGLL 021520Z 21008KT 170V260 9999 FEW031 SCT039
                        18/11 Q1009 NOSIG=
200807021450 METAR COR EGLL 021450Z 23008KT 190V250 9999 FEW029 18/11
                        Q1010 NOSIG=
200807021420 METAR EGLL 021420Z 21008KT 180V260 9999 -SHRA FEW031 18/11
                        Q1010=
200807021350 METAR COR EGLL 021350Z 19008KT 130V270 9999 -RA FEW043 18/13
                        Q1010 TEMPO RA=
200807021320 METAR COR EGLL 021320Z 19008KT 130V250 9999 -RA FEW024 17/11
                        Q1010 TEMPO RA=
200807021250 METAR COR EGLL 021250Z 17007KT 120V240 9999 -RA FEW024 18/10
                        Q1010 TEMPO RA=
200807021220 METAR COR EGLL 021220Z 16005KT 090V220 9999 FEW030 18/11
                        Q1009 TEMPO 5000 RA=
200807021150 METAR COR EGLL 021150Z 20005KT 150V250 9999 -RA FEW028 18/10
                        Q1009 TEMPO 6000 RA=
200807021120 METAR COR EGLL 021120Z VRB05KT 9999 -RA FEW028 18/11 Q1009
                        TEMPO 5000 RA=
200807021050 METAR COR EGLL 021050Z 22005KT 130V300 9999 FEW028 18/11
                        Q1009 TEMPO 5000 RA=
200807021020 METAR COR EGLL 021020Z VRB04KT 9999 FEW028 18/11 Q1009 BECMG
                        7000 RA=
200807020950 METAR COR EGLL 020950Z 24004KT 130V310 9999 FEW032 18/10
                        Q1009 BECMG RA=
200807020920 METAR COR EGLL 020920Z 23006KT 200V270 9999 FEW028 17/10
                        Q1010 NOSIG=
200807020850 METAR COR EGLL 020850Z 22007KT 180V250 9999 FEW028 17/10
                        Q1010 NOSIG=
200807020820 METAR COR EGLL 020820Z 21007KT 160V260 CAVOK 17/11 Q1010
                        NOSIG=
200807020750 METAR COR EGLL 020750Z 19004KT 140V270 9999 FEW020 17/12
                        Q1009 NOSIG=
200807020720 METAR COR EGLL 020720Z VRB03KT 9999 FEW020 17/12 Q1009 NOSIG=
200807020650 METAR COR EGLL 020650Z VRB03KT 9999 FEW020 16/11 Q1009 NOSIG=
200807020620 METAR COR EGLL 020620Z 25006KT 230V290 9999 FEW015 16/11
                        Q1009 NOSIG=
200807020550 METAR COR EGLL 020550Z 27007KT 9999 FEW015 16/12 Q1009 NOSIG=
200807020520 METAR COR EGLL 020520Z 27007KT 9999 FEW015 16/13 Q1009 NOSIG=
200807020450 METAR COR EGLL 020450Z 26007KT CAVOK 16/13 Q1009 NOSIG=
200807020420 METAR EGLL 020420Z 25008KT 9999 FEW015 16/13 Q1009 TEMPO
                        BKN014=
200807020350 METAR COR EGLL 020350Z 25009KT 9999 SCT014 16/13 Q1009 TEMPO
                        BKN014=
200807020320 METAR COR EGLL 020320Z 27008KT 9999 SCT015 17/13 Q1008 TEMPO
                        BKN014=
200807020250 METAR EGLL 020250Z 25009KT 9999 SCT016 17/14 Q1008=
200807020220 METAR COR EGLL 020220Z 24007KT CAVOK 17/13 Q1008 NOSIG=
200807020150 METAR EGLL 020150Z 27007KT CAVOK 18/13 Q1009 NOSIG=
200807020120 METAR EGLL 020120Z AUTO 26010KT 9999NDV NCD 19/13 Q1009=
200807020050 METAR EGLL 020050Z AUTO 25008KT 9999NDV NCD 19/13 Q1009=
200807020020 METAR EGLL 020020Z AUTO 19003KT 9999NDV NCD 19/13 Q1008=
200807012350 METAR EGLL 012350Z 27004KT 9999 BKN047 20/13 Q1009 NOSIG=
200807012320 METAR COR EGLL 012320Z 26004KT 9999 SCT049 20/13 Q1009 NOSIG=
200807012250 METAR COR EGLL 012250Z 25007KT CAVOK 20/13 Q1009 NOSIG=
200807012220 METAR EGLL 012220Z 26008KT CAVOK 20/14 Q1008=
200807012150 METAR COR EGLL 012150Z 27011KT CAVOK 20/14 Q1009 NOSIG=
200807012120 METAR EGLL 012120Z 24010KT CAVOK 23/13 Q1008 NOSIG=
200807012050 METAR COR EGLL 012050Z 18007KT 110V260 CAVOK 23/12 Q1008
                        NOSIG=
200807012020 METAR COR EGLL 012020Z 14007KT 100V170 CAVOK 23/12 Q1008
                        TEMPO SHRA=
200807011950 METAR EGLL 011950Z 14009KT CAVOK 24/12 Q1008 NOSIG=
200807011920 METAR COR EGLL 011920Z 15009KT 100V180 CAVOK 25/12 Q1008
                        NOSIG=
200807011850 METAR COR EGLL 011850Z 16009KT 130V210 CAVOK 25/12 Q1008
                        NOSIG=
200807011820 METAR COR EGLL 011820Z 17010KT 120V190 CAVOK 26/12 Q1008
                        NOSIG=
200807011750 METAR COR EGLL 011750Z 18012KT CAVOK 26/11 Q1009 NOSIG=
200807011720 METAR COR EGLL 011720Z 17013KT 140V210 CAVOK 26/11 Q1009
                        NOSIG=
200807011650 METAR EGLL 011650Z 17013KT CAVOK 27/10 Q1009 NOSIG=
200807011620 METAR COR EGLL 011620Z 18012KT 160V230 CAVOK 27/11 Q1009
                        NOSIG=
200807011550 METAR COR EGLL 011550Z 18014KT 160V220 CAVOK 27/11 Q1010
                        NOSIG=
200807011520 METAR EGLL 011520Z 16014KT 140V200 CAVOK 27/10 Q1010=
200807011450 METAR COR EGLL 011450Z 16015KT 140V200 CAVOK 27/11 Q1010
                        NOSIG=
200807011420 METAR COR EGLL 011420Z 19014KT 160V220 CAVOK 27/11 Q1011
                        NOSIG=
200807011350 METAR COR EGLL 011350Z 18013KT 140V220 CAVOK 27/12 Q1011
                        NOSIG=
200807011320 METAR COR EGLL 011320Z 18013KT 140V240 CAVOK 27/11 Q1012
                        NOSIG=
200807011250 METAR EGLL 011250Z 17014G24KT 140V230 CAVOK 27/10 Q1012 NOSIG=
200807011220 METAR COR EGLL 011220Z 18013KT 150V240 CAVOK 26/10 Q1012
                        NOSIG=
200807011150 METAR COR EGLL 011150Z 18013G24KT 140V240 CAVOK 26/09 Q1013
                        NOSIG=
200807011120 METAR COR EGLL 011120Z 18013KT 140V220 CAVOK 25/10 Q1013
                        NOSIG=
200807011050 METAR EGLL 011050Z 18012KT 130V230 CAVOK 25/10 Q1013 NOSIG=
200807011020 METAR COR EGLL 011020Z 15011KT 120V210 CAVOK 24/10 Q1014
                        NOSIG=
200807010950 METAR EGLL 010950Z 16010KT 120V230 CAVOK 22/10 Q1014 NOSIG=
200807010920 METAR COR EGLL 010920Z 16010KT 130V220 CAVOK 21/10 Q1015
                        NOSIG=
200807010850 METAR COR EGLL 010850Z 16010KT 120V220 CAVOK 20/08 Q1015
                        NOSIG=
200807010820 METAR COR EGLL 010820Z 16006KT 110V230 CAVOK 19/05 Q1015
                        NOSIG=
200807010750 METAR COR EGLL 010750Z 18008KT 120V230 CAVOK 18/07 Q1015
                        NOSIG=
200807010720 METAR COR EGLL 010720Z 15006KT 120V220 CAVOK 17/09 Q1015
                        NOSIG=
200807010650 METAR EGLL 010650Z 14006KT 090V200 CAVOK 16/10 Q1015=
200807010620 METAR COR EGLL 010620Z 14005KT 090V200 CAVOK 14/11 Q1016
                        NOSIG=
200807010550 METAR COR EGLL 010550Z VRB05KT 8000 FEW003 13/11 Q1016 NOSIG=
200807010520 METAR COR EGLL 010520Z 16005KT 080V250 2000 BCFG FEW002 12/11
                        Q1016 BECMG CAVOK=
200807010450 METAR COR EGLL 010450Z 15006KT 6000 1500SE PRFG SCT003 12/11
                        Q1016 TEMPO 4000 BR BKN004=
200807010420 METAR COR EGLL 010420Z 14004KT 9999 7000SE PRFG NSC 10/09
                        Q1017 TEMPO 4500 BR BKN004=
200807010350 METAR EGLL 010350Z 14004KT CAVOK 11/09 Q1017 TEMPO BKN004=
200807010320 METAR COR EGLL 010320Z 12003KT CAVOK 11/10 Q1017 TEMPO BKN004=
200807010250 METAR EGLL 010250Z 18002KT CAVOK 12/10 Q1017 NOSIG=
200807010220 METAR EGLL 010220Z 17002KT CAVOK 12/10 Q1017 NOSIG=
200807010150 METAR COR EGLL 010150Z 19003KT 9999 NSC 13/10 Q1018 NOSIG=
200807010120 METAR EGLL 010120Z AUTO 20003KT 9999NDV NCD 13/11 Q1018=
200807010050 METAR EGLL 010050Z AUTO 18004KT 9999NDV NCD 14/11 Q1019=
200807010020 METAR EGLL 010020Z AUTO 18004KT 9999NDV NCD 14/11 Q1019=

###################################
#  short TAF from EGLL
###################################
200807312058 TAF EGLL 312058Z 312207 14003KT 9999 SCT040
                      TEMPO 2204 8000 -RA BKN012
                      PROB30 TEMPO 2202 4000 RA
                      BECMG 2302 23010KT=
200807311801 TAF EGLL 311801Z 311904 11003KT 9999 FEW040
                      TEMPO 1903 8000 -RA
                      PROB30 TEMPO 2023 RA
                      TEMPO 2203 BKN012
                      BECMG 0003 23010KT=
200807311503 TAF EGLL 311503Z 311601 15010KT 9999 FEW040
                      TEMPO 1619 8000 RA
                      PROB30 TEMPO 1617 4000 +RA BKN012CB=
200807311202 TAF EGLL 311202Z 311322 15010KT 9999 FEW040
                      TEMPO 1419 8000 RA
                      PROB30 TEMPO 1517 4000 +RA BKN012CB=
200807310851 TAF EGLL 310851Z 311019 15010KT 9999 FEW040
                      TEMPO 1418 8000 RA
                      PROB30 TEMPO 1517 4000 +RA BKN012=
200807310558 TAF EGLL 310558Z 310716 08005KT 9999 FEW040
                      BECMG 0811 15010KT
                      TEMPO 1416 8000 RA
                      PROB30 TEMPO 1516 4000 +RA BKN012=
200807310300 TAF EGLL 310300Z 310413 08005KT 9999 FEW040
                      BECMG 0811 15010KT=
200807302357 TAF EGLL 302357Z 310110 10006KT 9999 FEW040=
200807302055 TAF EGLL 302055Z 302207 14006KT 9999 FEW040=
200807301740 TAF EGLL 301740Z 301904 15005KT 9999 FEW040=
200807301455 TAF EGLL 301455Z 301601 16006KT 9999 FEW040=
200807301157 TAF EGLL 301157Z 301322 16010KT 9999 FEW040
                      PROB30 TEMPO 1318 22010KT=
200807300849 TAF EGLL 300849Z 301019 16010KT 9999 FEW040
                      PROB40 TEMPO 1218 22010KT=
200807300555 TAF EGLL 300555Z 300716 16010KT 9999 FEW040=
200807300255 TAF EGLL 300255Z 300413 16010KT 9999 FEW040=
200807292354 TAF EGLL 292354Z 300110 16010KT 9999 SCT035=
200807292124 TAF COR EGLL 292124Z 292207 21010KT 9999 FEW040
                      BECMG 0003 15007KT=
200807292052 TAF EGLL 292052Z 292207 21010KT 9999 FEW040
                      BECMG 0003 16007KT=
200807291758 TAF EGLL 291758Z 291904 19012KT 9999 SCT035
                      TEMPO 1920 18015G25KT
                      PROB40 0204 8000=
200807291455 TAF EGLL 291455Z 291601 19012KT 9999 SCT035
                      TEMPO 1618 18015G25KT=
200807291158 TAF EGLL 291158Z 291322 19012KT 9999 BKN035
                      TEMPO 1318 18015G25KT
                      PROB30 TEMPO 1316 8000 -SHRA=
200807290856 TAF EGLL 290856Z 291019 19012KT 9999 SCT030
                      PROB30 TEMPO 1014 8000 -SHRA
                      TEMPO 1118 18015G25KT=
200807290600 TAF EGLL 290600Z 290716 19012KT 9999 SCT030
                      PROB40 0709 9000 BKN012
                      TEMPO 0916 18015G25KT
                      PROB30 TEMPO 1316 8000 SHRA=
200807290310 TAF EGLL 290310Z 290413 19008KT 9999 SCT030
                      TEMPO 0407 7000 -DZ BKN007
                      BECMG 0710 18015G25KT
                      TEMPO 0709 BKN014=
200807290300 TAF EGLL 290300Z NIL=
200807290013 TAF EGLL 290013Z 290110 19010KT 5000 RA SCT025
                      TEMPO 0103 1200 +RA +TSRA BKN014CB
                      PROB30 TEMPO 0103 VRB15G25KT BKN008
                      BECMG 0205 9999 NSW
                      TEMPO 0308 6000 -DZ BKN007
                      BECMG 0810 18015G25KT
                      TEMPO 0810 BKN014=
200807290000 TAF EGLL 290000Z NIL=
200807282128 TAF EGLL 282128Z 282207 13010KT 8000 RA BKN025
                      BECMG 2201 26007KT
                      TEMPO 2203 1500 +RA TSRA BKN008 BKN014CB
                       PROB30
                      TEMPO 2203 VRB15G25KT
                      BECMG 0103 20010KT 9999 NSW
                      TEMPO 0307 6000 -DZ BKN007=
200807282100 TAF EGLL 282100Z NIL=
200807281950 TAF AMD EGLL 281950Z 282004 09010KT CAVOK
                      BECMG 2201 7000 RA BKN025
                      PROB30 TEMPO 2203 2000 +RA TSRA BKN005 BKN014CB
                       BECMG 0104 22010KT 9999 NSW
                      PROB30 0304 6000 -DZ BKN008=
200807281755 TAF EGLL 281755Z 281904 09010KT CAVOK
                      BECMG 2201 7000 RA BKN025
                      PROB30 TEMPO 0003 2000 +RA TSRA BKN005 BKN014CB
                       BECMG 0104 22010KT 9999 NSW
                      PROB30 0304 6000 -DZ BKN008=
200807281500 TAF EGLL 281500Z 281601 09010KT CAVOK
                      TEMPO 1620 7000 SHRA
                      PROB30 TEMPO 1619 VRB15G25KT 4000 +SHRA TSRA
                       BKN040CB
                      BECMG 2201 7000 RA BKN015
                      PROB30 TEMPO 0001 2000 +RA TSRA BKN005 BKN014CB=
200807281153 TAF EGLL 281153Z 281322 12009KT CAVOK
                      TEMPO 1320 7000 SHRA
                      PROB30 TEMPO 1419 VRB15G25KT 4000 +SHRA TSRA
                       BKN040CB
                      TEMPO 2122 7000 RA BKN015=
200807280903 TAF EGLL 280903Z 281019 12007KT CAVOK
                      TEMPO 1319 7000 SHRA
                      PROB30 TEMPO 1519 VRB15G25KT 4000 +SHRA TSRA
                       BKN040CB=
200807280616 TAF EGLL 280616Z 280716 12005KT CAVOK
                      PROB30 TEMPO 1316 VRB15G25KT 5000 +SHRA TSRA
                       BKN020CB=
200807280600 TAF EGLL 280600Z NIL=
200807280313 TAF EGLL 280313Z 280413 12004KT CAVOK=
200807280300 TAF EGLL 280300Z NIL=
200807280010 TAF EGLL 280010Z 280110 17003KT CAVOK=
200807280000 TAF EGLL 280000Z NIL=
200807272117 TAF EGLL 272117Z 272207 19004KT CAVOK=
200807272100 TAF EGLL 272100Z NIL=
200807271759 TAF EGLL 271759Z 271904 20010KT CAVOK
                      BECMG 1922 VRB06KT
                      PROB30 0304 8000=
200807271504 TAF EGLL 271504Z 271601 VRB05KT CAVOK
                      PROB30 TEMPO 1620 7000 SHRA BKN030CB=
200807271205 TAF EGLL 271205Z 271322 VRB05KT CAVOK
                      PROB30 TEMPO 1620 7000 SHRA BKN035CB=
200807270906 TAF EGLL 270906Z 271019 VRB05KT 9999 SCT045
                      PROB30 TEMPO 1619 7000 SHRA=
200807270603 TAF EGLL 270603Z 270716 VRB04KT 9999 FEW040=
200807270313 TAF EGLL 270313Z 270413 27004KT 9999 FEW040=
200807270300 TAF EGLL 270300Z NIL=
200807270005 TAF EGLL 270005Z 270110 27005KT 9999 FEW040=
200807262113 TAF EGLL 262113Z 262207 27005KT 9999 FEW045=
200807262100 TAF EGLL 262100Z NIL=
200807261751 TAF EGLL 261751Z 261904 27005KT 9999 FEW045
                      PROB40 0204 8000=
200807261747 TAF COR EGLL 261747Z 261701 28006KT 9999 FEW040=
200807261504 TAF EGLL 261504Z 261601 28006KT 9999 FEW040
                      PROB30 0204 8000=
200807261204 TAF EGLL 261204Z 261322 29006KT 9999 SCT040=
200807260900 TAF EGLL 260900Z 261019 27007KT 9999 FEW035=
200807260556 TAF EGLL 260556Z 260716 26006KT 9999 SCT040=
200807260307 TAF EGLL 260307Z 260413 26005KT 9999 SCT040
                      PROB30 0407 8000=
200807260001 TAF EGLL 260001Z 260110 23005KT 9999 SCT040
                      PROB30 0407 8000=
200807252055 TAF EGLL 252055Z 252207 23006KT 9999 SCT040
                      PROB30 0307 8000=
200807251811 TAF EGLL 251811Z 251904 23008KT 9999 SCT030
                      PROB30 0304 8000=
200807251800 TAF EGLL 251800Z NIL=
200807251527 TAF EGLL 251527Z 251601 22010KT 9999 SCT030=
200807251500 TAF EGLL 251500Z NIL=
200807251207 TAF EGLL 251207Z 251322 22010KT 9999 SCT025=
200807250926 TAF EGLL 250926Z 251019 21010KT 9999 SCT040
                      PROB30 TEMPO 1113 7000 SHRA=
200807250900 TAF EGLL 250900Z NIL=
200807250557 TAF EGLL 250557Z 250716 09005KT CAVOK
                      BECMG 0811 21010KT
                      PROB30 TEMPO 1014 7000 SHRA=
200807250256 TAF EGLL 250256Z 250413 09005KT CAVOK
                      TEMPO 0408 8000
                      BECMG 0811 21010KT
                      PROB30 TEMPO 0812 7000 SHRA=
200807250001 TAF EGLL 250001Z 250110 09009KT CAVOK
                      TEMPO 0308 8000=
200807242049 TAF EGLL 242049Z 242207 09010KT CAVOK
                      TEMPO 0307 8000=
200807241801 TAF EGLL 241801Z 241904 09013KT CAVOK=
200807241518 TAF EGLL 241518Z 241601 10013KT CAVOK=
200807241500 TAF EGLL 241500Z NIL=
200807241210 TAF EGLL 241210Z 241322 11013KT CAVOK=
200807241200 TAF EGLL 241200Z NIL=
200807240914 TAF EGLL 240914Z 241019 10013KT CAVOK=
200807240900 TAF EGLL 240900Z NIL=
200807240604 TAF EGLL 240604Z 240716 08008KT 7000 NSC
                      BECMG 0710 CAVOK=
200807240303 TAF EGLL 240303Z 240413 07007KT 8000 NSC
                      PROB30 TEMPO 0407 4000 BR BKN005
                      BECMG 0609 CAVOK=
200807240003 TAF EGLL 240003Z 240110 08007KT CAVOK
                      BECMG 0103 8000
                      BECMG 0609 CAVOK=
200807232100 TAF EGLL 232100Z 232207 09008KT CAVOK
                      BECMG 0003 8000=
200807231739 TAF EGLL 231739Z 231904 12009KT 9999 FEW040
                      TEMPO 0104 8000=
200807231445 TAF EGLL 231445Z 231601 12008KT 9999 SCT040=
200807231145 TAF EGLL 231145Z 231322 13004KT 9999 SCT040=
200807230856 TAF EGLL 230856Z 231019 15005KT 9999 SCT040=
200807230600 TAF EGLL 230600Z 230716 07005KT 9999 BKN035=
200807230302 TAF EGLL 230302Z 230413 VRB02KT 9999 BKN035
                      PROB30 0407 8000=
200807230003 TAF EGLL 230003Z 230110 VRB02KT 9999 SCT035
                      PROB40 0308 7000=
200807222101 TAF EGLL 222101Z 222207 VRB04KT CAVOK
                      PROB40 0307 7000=
200807221754 TAF EGLL 221754Z 221904 28006KT 9999 SCT035=
200807221444 TAF EGLL 221444Z 221601 28009KT 9999 BKN035=
200807221159 TAF EGLL 221159Z 221322 28009KT 9999 SCT040=
200807220901 TAF EGLL 220901Z 221019 28007KT 9999 SCT040=
200807220557 TAF EGLL 220557Z 220716 28007KT CAVOK
                      TEMPO 1116 BKN035=
200807220258 TAF EGLL 220258Z 220413 28007KT CAVOK
                      TEMPO 1113 BKN035=
200807212352 TAF EGLL 212352Z 220110 29007KT CAVOK=
200807212103 TAF EGLL 212103Z 212207 29006KT CAVOK=
200807211755 TAF EGLL 211755Z 211904 30008KT CAVOK=
200807211454 TAF EGLL 211454Z 211601 31010KT CAVOK=
200807211159 TAF EGLL 211159Z 211322 32010KT 9999 SCT045=
200807210906 TAF EGLL 210906Z 211019 32012KT 9999 SCT040=
200807210555 TAF EGLL 210555Z 210716 30012KT 9999 SCT040=
200807210300 TAF EGLL 210300Z 210413 30012KT 9999 SCT040=
200807202351 TAF EGLL 202351Z 210110 30010KT CAVOK
                      BECMG 0710 BKN035=
200807202055 TAF EGLL 202055Z 202207 29008KT CAVOK=
200807201759 TAF EGLL 201759Z 201904 30009KT CAVOK=
200807201501 TAF EGLL 201501Z 201601 30010KT 9999 FEW045=
200807201158 TAF EGLL 201158Z 201322 30012KT 9999 SCT040
                      TEMPO 1318 31015G25KT=
200807200859 TAF EGLL 200859Z 201019 30013KT 9999 SCT040
                      TEMPO 1018 31015G25KT=
200807200601 TAF EGLL 200601Z 200716 30010KT 9999 SCT030
                      TEMPO 1016 31015G27KT=
200807200302 TAF EGLL 200302Z 200413 29007KT CAVOK
                      TEMPO 1013 31015G27KT=
200807200004 TAF EGLL 200004Z 200110 29008KT CAVOK
                      TEMPO 0910 31015G25KT=
200807192059 TAF EGLL 192059Z 192207 30010KT CAVOK=
200807191754 TAF EGLL 191754Z 191904 28015G25KT 9999 SCT040
                      BECMG 1922 29010KT=
200807191505 TAF EGLL 191505Z 191601 27017G28KT 9999 SCT040
                      BECMG 1720 30012KT=
200807191204 TAF EGLL 191204Z 191322 27017G28KT 9999 SCT040
                      PROB30 TEMPO 1317 8000 SHRA
                      BECMG 1821 30010KT=
200807190911 TAF EGLL 190911Z 191019 26015KT 9999 SCT030
                      BECMG 1013 27017G28KT
                      PROB40 TEMPO 1017 7000 SHRA
                      BECMG 1719 29012KT=
200807190900 TAF EGLL 190900Z NIL=
200807190601 TAF EGLL 190601Z 190716 25012KT 9999 SCT010 BKN018
                      TEMPO 0708 BKN010
                      PROB30 TEMPO 0708 4500 -RADZ BKN007
                      PROB30 TEMPO 1016 28016G26KT 7000 SHRA=
200807190300 TAF EGLL 190300Z 190413 25012KT 9999 SCT010 BKN018
                      TEMPO 0408 BKN010
                      PROB30 TEMPO 0407 4500 -RADZ BKN007
                      PROB30 TEMPO 1013 28016G26KT 7000 SHRA=
200807190011 TAF EGLL 190011Z 190110 24010KT 9999 SCT010 BKN020
                      TEMPO 0108 BKN010
                      PROB30 TEMPO 0107 5000 -RADZ BKN007=
200807190000 TAF EGLL 190000Z NIL=
200807182123 TAF AMD EGLL 182123Z 181904 24010KT 9999 SCT010 BKN016
                      TEMPO 1922 8000 SHRA BKN008
                      TEMPO 2204 BKN010
                      PROB40 TEMPO 0004 5000 -RADZ BKN007=
200807182059 TAF EGLL 182059Z 182207 24010KT 9999 SCT010 BKN018
                      TEMPO 2207 BKN010
                      PROB40 TEMPO 0007 5000 -RADZ BKN008=
200807181802 TAF EGLL 181802Z 181904 23010KT 9999 SCT025
                      TEMPO 1921 8000 -SHRA
                      PROB40 TEMPO 1921 4000 SHRA BKN015CB
                      TEMPO 2104 BKN012=
200807181507 TAF EGLL 181507Z 181601 24012KT 9999 SCT025
                      TEMPO 1620 25015G25KT 6000 SHRA BKN018CB
                       TEMPO 2001 BKN012=
200807181207 TAF EGLL 181207Z 181322 24012KT 9999 -RA BKN025
                      PROB40 TEMPO 1320 25015G25KT 7000 SHRA BKN020CB
                       PROB30
                      TEMPO 1822 BKN014=
200807181106 TAF AMD EGLL 181106Z 181119 24012KT 9999 -SHRA BKN012
                      BECMG 1113 SCT025
                      PROB40 TEMPO 1319 25015G25KT 7000 SHRA BKN020CB
                       PROB30 1819 BKN014=
200807180915 TAF EGLL 180915Z 181019 24012KT 9999 -SHRA SCT030
                      PROB40 TEMPO 1319 25015G25KT 7000 SHRA BKN020CB
                       PROB30 1819 BKN014=
200807180900 TAF EGLL 180900Z NIL=
200807180555 TAF EGLL 180555Z 180716 25010KT 9999 SCT040
                      PROB30 TEMPO 1316 25015G25KT 7000 SHRA SCT030CB=
200807180254 TAF EGLL 180254Z 180413 25008KT 9999 SCT040
                      PROB30 TEMPO 0407 8000 BKN014=
200807180001 TAF EGLL 180001Z 180110 25007KT 9999 SCT035
                      PROB30 0307 8000 BKN014=
200807172054 TAF EGLL 172054Z 172207 27007KT 9999 SCT035
                      PROB30 0307 8000 BKN014=
200807171802 TAF EGLL 171802Z 171904 28010KT 9999 FEW025 BKN040
                      PROB30 TEMPO 0204 8000 BKN014=
200807171507 TAF EGLL 171507Z 171601 27012KT 9999 FEW025 BKN040=
200807171200 TAF EGLL 171200Z 171322 25012KT 9999 FEW020 BKN035
                      TEMPO 1318 8000 -RA=
200807170904 TAF EGLL 170904Z 171019 26012KT 9999 FEW020 BKN045
                      TEMPO 1018 8000 -RA
                      PROB30 TEMPO 1218 BKN014=
200807170556 TAF EGLL 170556Z 170716 27008KT 9999 SCT040
                      TEMPO 1016 7000 RA BKN014=
200807170255 TAF EGLL 170255Z 170413 27006KT 9999 SCT040
                      PROB30 TEMPO 0405 8000 -RA
                      TEMPO 1113 7000 RA BKN014=
200807170001 TAF EGLL 170001Z 170110 29006KT 9999 SCT040
                      PROB30 TEMPO 0105 8000 -RA=
200807162055 TAF EGLL 162055Z 162207 29006KT 9999 SCT040
                      PROB30 TEMPO 2204 8000 -RA=
200807161802 TAF EGLL 161802Z 161904 30010KT 9999 SCT045
                      PROB30 TEMPO 2002 8000 -RA=
200807161500 TAF EGLL 161500Z 161601 31010KT 9999 SCT045
                      PROB30 TEMPO 2001 8000 -RA=
200807161201 TAF EGLL 161201Z 161322 31011KT 9999 SCT040
                      TEMPO 1922 7000 -RA=
200807160843 TAF EGLL 160843Z 161019 31011KT 9999 SCT035=
200807160558 TAF EGLL 160558Z 160716 28008KT 9999 FEW015 SCT030=
200807160340 TAF AMD EGLL 160340Z 160413 28007KT 9999 FEW008
                      TEMPO 0406 9000 BKN007=
200807160307 TAF EGLL 160307Z 160413 28007KT 9999 FEW015
                      PROB40 0406 9000=
200807160007 TAF EGLL 160007Z 160110 28009KT 9999 FEW015=
200807152058 TAF EGLL 152058Z 152207 28009KT 9999 FEW030=
200807151754 TAF EGLL 151754Z 151904 25010KT 9999 SCT035
                      TEMPO 0004 8000 -RA BKN012
                      BECMG 0204 31008KT=
200807151455 TAF EGLL 151455Z 151601 24012KT 9999 SCT040
                      TEMPO 0001 8000 -RA BKN012=
200807151155 TAF EGLL 151155Z 151322 24012KT 9999 SCT040=
200807150855 TAF EGLL 150855Z 151019 24009KT 9999 SCT040=
200807150559 TAF EGLL 150559Z 150716 24009KT 9999 BKN010
                      BECMG 0710 SCT025=
200807150307 TAF EGLL 150307Z 150413 24009KT 9999 FEW012 BKN020
                      TEMPO 0409 7000 BKN012
                      PROB30 TEMPO 0408 4500 -DZ BR BKN006=
200807142357 TAF EGLL 142357Z 150110 24008KT 9999 SCT012 BKN020
                      BECMG 0104 BKN012
                      PROB40 TEMPO 0308 4000 -DZ BR BKN006
                      TEMPO 0810 SCT020=
200807142343 TAF COR EGLL 142343Z 142207 24008KT 9999 FEW012 BKN020
                      BECMG 0003 BKN012
                      PROB40 TEMPO 0107 4000 -DZ BR BKN006=
200807142101 TAF EGLL 142101Z 142207 24008KT 9999 FEW012 BKN020
                      BECMG 0003 BKN012
                      PROB40 TEMPO 0104 4000 -DZ BR BKN006=
200807141756 TAF EGLL 141756Z 141904 25010KT 9999 BKN035
                      BECMG 0104 BKN012
                      PROB40 TEMPO 0304 4000 BR BKN006=
200807141454 TAF EGLL 141454Z 141601 25012KT 9999 SCT040=
200807141155 TAF EGLL 141155Z 141322 25012KT 9999 SCT035=
200807140900 TAF EGLL 140900Z 141019 25010KT 9999 SCT035=
200807140601 TAF EGLL 140601Z 140716 24010KT CAVOK
                      PROB30 TEMPO 1113 BKN035
                      BECMG 1316 BKN035=
200807140304 TAF EGLL 140304Z 140413 24010KT CAVOK
                      PROB30 1113 BKN035=
200807132353 TAF EGLL 132353Z 140110 24010KT CAVOK=
200807132058 TAF EGLL 132058Z 132207 24007KT CAVOK
                      PROB30 0307 9000=
200807131755 TAF EGLL 131755Z 131904 25006KT CAVOK=
200807131455 TAF EGLL 131455Z 131601 27006KT CAVOK=
200807131155 TAF EGLL 131155Z 131322 27006KT 9999 FEW035 SCT045=
200807130858 TAF EGLL 130858Z 131019 28007KT 9999 FEW030 SCT045=
200807130552 TAF EGLL 130552Z 130716 29007KT CAVOK
                      TEMPO 0916 BKN035=
200807130301 TAF EGLL 130301Z 130413 29007KT CAVOK
                      BECMG 0811 BKN035=
200807122348 TAF EGLL 122348Z 130110 27007KT 9999 SCT035=
200807122052 TAF EGLL 122052Z 122207 28006KT 9999 FEW035=
200807121755 TAF EGLL 121755Z 121904 28010KT 9999 BKN045
                      BECMG 2124 VRB05KT CAVOK=
200807121455 TAF EGLL 121455Z 121601 28010KT 9999 SCT030 BKN040
                      TEMPO 1618 7000 SHRA
                      BECMG 2124 VRB05KT CAVOK=
200807121155 TAF EGLL 121155Z 121322 28013KT 9999 BKN035
                      TEMPO 1318 7000 SHRA=
200807120856 TAF EGLL 120856Z 121019 28013KT 9999 BKN035
                      TEMPO 1218 7000 SHRA=
200807120553 TAF EGLL 120553Z 120716 29010KT 9999 SCT025
                      PROB40 TEMPO 1016 6000 SHRA=
200807120258 TAF EGLL 120258Z 120413 29010KT 9999 SCT025
                      PROB40 TEMPO 1013 6000 SHRA=
200807112356 TAF EGLL 112356Z 120110 29010KT 9999 SCT025=
200807112054 TAF EGLL 112054Z 112207 29010KT 9999 SCT025
                      PROB40 TEMPO 2202 5000 SHRA BKN012=
200807111801 TAF EGLL 111801Z 111904 23012KT 9999 SCT025
                      BECMG 1922 29010KT
                      TEMPO 1922 3000 SHRA BKN014CB
                      PROB30 TEMPO 1922 24015G28KT +SHRA TSRA
                      PROB40 TEMPO 2202 5000 SHRA BKN012=
200807111510 TAF EGLL 111510Z 111601 23015G25KT 9999 SCT025
                      TEMPO 1620 2500 SHRA BKN014CB
                      PROB40 TEMPO 1620 23020G35KT +SHRA TSGS
                      BECMG 1822 29010KT
                      PROB40 TEMPO 2001 6000 SHRA BKN014=
200807111500 TAF EGLL 111500Z NIL=
200807111218 TAF EGLL 111218Z 111322 23015G25KT 9999 SCT025
                      TEMPO 1321 2500 SHRA BKN014CB
                      PROB40 TEMPO 1321 23020G35KT +SHRA TSGS
                      BECMG 1922 29012KT
                      PROB40 TEMPO 2122 6000 SHRA BKN014=
200807111200 TAF EGLL 111200Z NIL=
200807110913 TAF EGLL 110913Z 111019 23015G25KT 9999 SCT025
                      PROB40 TEMPO 1013 7000 SHRA BKN020CB
                      TEMPO 1319 3000 SHRA BKN014CB
                      PROB30 TEMPO 1319 23020G35KT +SHRA TSRA
                      PROB40 1819 28012KT=
200807110900 TAF EGLL 110900Z NIL=
200807110602 TAF EGLL 110602Z 110716 22010KT 9999 SCT030
                      TEMPO 0916 23015G25KT
                      PROB40 TEMPO 0911 8000 SHRA BKN020CB
                      TEMPO 1116 4000 SHRA BKN015CB
                      PROB30 TEMPO 1116 +SHRA TSRA=
200807110308 TAF EGLL 110308Z 110413 22008KT 9999 SCT030
                      PROB30 TEMPO 0407 BKN012
                      TEMPO 0713 23015G25KT
                      PROB40 TEMPO 0911 8000 SHRA BKN020CB
                      TEMPO 1113 4000 SHRA BKN015CB
                      PROB30 TEMPO 1113 +SHRA TSRA=
200807110005 TAF EGLL 110005Z 110110 21008KT 9999 SCT030
                      TEMPO 0107 BKN012
                      TEMPO 0710 23015G25KT
                      PROB40 TEMPO 0910 8000 SHRA BKN020CB=
200807102109 TAF EGLL 102109Z 102207 22009KT 9999 SCT030
                      TEMPO 2207 BKN012=
200807101753 TAF EGLL 101753Z 101904 23017G27KT 9999 SCT030
                      BECMG 1922 22010KT
                      TEMPO 2204 BKN012=
200807101505 TAF EGLL 101505Z 101601 22016G26KT 9999 SCT030
                      BECMG 1821 21010KT
                      PROB40 TEMPO 2201 BKN012=
200807101159 TAF EGLL 101159Z 101322 22014KT 9999 SCT035
                      TEMPO 1320 22016G26KT
                      TEMPO 1320 9000 -SHRA=
200807100905 TAF EGLL 100905Z 101019 22014KT 9999 SCT035
                      TEMPO 1119 22016G26KT=
200807100602 TAF EGLL 100602Z 100716 22010KT 9999 SCT020
                      PROB30 TEMPO 0708 BKN014
                      TEMPO 1416 22016G26KT=
200807100301 TAF EGLL 100301Z 100413 22010KT 9999 SCT020
                      PROB30 TEMPO 0407 BKN014=
200807100002 TAF EGLL 100002Z 100110 22010KT 9999 SCT020
                      TEMPO 0107 BKN014=
200807092139 TAF COR EGLL 092139Z 092207 22010KT 9999 -RA BKN012
                      TEMPO 2202 3000 +RA BKN007
                      TEMPO 2201 BKN018
                      BECMG 0003 NSW SCT025
                      TEMPO 0107 BKN014=
200807092105 TAF EGLL 092105Z 092207 22010KT 9999 -RA BKN012
                      TEMPO 2202 3000 +RA BKN007
                      TEMPO 2201 BKN018
                      BECMG 0003 NSW SCT025
                      TEMPO 0104 BKN014=
200807091801 TAF EGLL 091801Z 091904 21012KT 9999 -RA BKN012
                      TEMPO 1902 3000 +RA BKN007
                      PROB40 TEMPO 1902 BKN018
                      BECMG 0104 SCT025=
200807091527 TAF EGLL 091527Z 091601 21012KT 7000 RA BKN012
                      TEMPO 1601 2500 +RA BKN006
                      PROB40 TEMPO 1601 9999 -RA BKN018=
200807091500 TAF EGLL 091500Z NIL=
200807091418 TAF AMD EGLL 091418Z 091422 22012KT 6000 RA BKN015
                      TEMPO 1422 2500 +RA BKN004=
200807091210 TAF EGLL 091210Z 091322 16010KT 6000 RA BKN010
                      BECMG 1315 22012KT
                      TEMPO 1322 2500 +RA BKN004=
200807091125 TAF AMD EGLL 091125Z 091119 16010KT 7000 RA BKN010
                      TEMPO 1119 2500 +RA BKN004
                      BECMG 1114 22010KT
                      PROB30 TEMPO 1419 9999 -RA BKN015=
200807090924 TAF EGLL 090924Z 091019 16010KT 7000 RA BKN010
                      TEMPO 1019 3000 +RA BKN006
                      PROB30 1011 9999 BKN020
                      BECMG 1114 22010KT
                      PROB40 TEMPO 1419 9999 -RA BKN015=
200807090900 TAF EGLL 090900Z NIL=
200807090604 TAF EGLL 090604Z 090716 22006KT 7000 RA SCT030
                      BECMG 0811 16010KT BKN008
                      TEMPO 0816 4000 +RA BKN004
                      PROB40 TEMPO 1016 9999 -RA BKN016=
200807090304 TAF EGLL 090304Z 090413 22006KT 9999 SCT030
                      BECMG 0407 7000 RA
                      BECMG 0609 BKN012
                      BECMG 0710 16010KT
                      TEMPO 0713 4000 +RA BKN008=
200807090002 TAF EGLL 090002Z 090110 24010KT 9999 SCT030
                      BECMG 0407 16008KT 7000 RA
                      BECMG 0609 BKN012
                      TEMPO 0810 4000 +RA BKN008=
200807082102 TAF EGLL 082102Z 082207 24010KT 9999 SCT030
                      BECMG 0407 16008KT 7000 RA=
200807081803 TAF EGLL 081803Z 081904 26012KT 9999 SCT030
                      BECMG 0104 20011KT=
200807081500 TAF EGLL 081500Z 081601 25012KT 9999 SCT025=
200807081209 TAF EGLL 081209Z 081322 25012KT 9999 SCT025
                      PROB40 TEMPO 1316 7000 SHRA BKN020CB=
200807080901 TAF EGLL 080901Z 081019 25012KT 9999 SCT025=
200807080604 TAF EGLL 080604Z 080716 25012KT 9999 SCT020=
200807080258 TAF EGLL 080258Z 080413 25012KT 9999 SCT040=
200807072359 TAF EGLL 072359Z 080110 23008KT 9999 SCT040=
200807072329 TAF AMD EGLL 072329Z 072207 23010KT 9999 SCT040
                      TEMPO 2324 9000 SHRA=
200807072057 TAF EGLL 072057Z 072207 23010KT 9999 SCT040=
200807071805 TAF EGLL 071805Z 071904 26012KT 9999 SCT025=
200807071503 TAF EGLL 071503Z 071601 26012KT 9999 BKN020
                      TEMPO 1619 7000 SHRA
                      PROB40 TEMPO 1619 24015G25KT 3000 +SHRA +TSRA
                       BKN012CB=
200807071204 TAF EGLL 071204Z 071322 26012KT 9999 BKN020
                      TEMPO 1319 7000 SHRA
                      PROB40 TEMPO 1319 24015G25KT 3000 +SHRA +TSRA
                       BKN012CB=
200807070904 TAF EGLL 070904Z 071019 20012KT 9999 BKN020
                      BECMG 1012 26012KT
                      TEMPO 1019 7000 SHRA
                      PROB40 TEMPO 1019 3000 +SHRA +TSRA BKN012CB
                       TEMPO 1019 24015G25KT=
200807070601 TAF EGLL 070601Z 070716 21012KT 9999 BKN020
                      TEMPO 0716 7000 SHRA
                      PROB40 TEMPO 0716 3000 +SHRA +TSRA BKN012CB
                       TEMPO 0916 23015G25KT=
200807070301 TAF EGLL 070301Z 070413 21012KT 9999 BKN020
                      TEMPO 0413 7000 SHRA
                      PROB40 TEMPO 0413 3000 +SHRA +TSRA BKN012CB
                       TEMPO 0913 23015G25KT=
200807070002 TAF EGLL 070002Z 070110 21012KT 9999 SCT025
                      TEMPO 0210 8000 SHRA BKN012
                      PROB30 TEMPO 0310 3000 +SHRA +TSRA BKN012CB=
200807062101 TAF EGLL 062101Z 062207 21012KT 9999 BKN025
                      TEMPO 0207 8000 -RA SHRA BKN012
                      PROB30 TEMPO 0507 3000 +SHRA +TSRA BKN012CB=
200807061804 TAF EGLL 061804Z 061904 22010KT 9999 SCT025
                      PROB30 TEMPO 1920 7000 SHRA BKN025CB
                      TEMPO 0204 4000 RA BKN012=
200807061501 TAF EGLL 061501Z 061601 22014KT 9999 SCT025
                      TEMPO 1620 20018G28KT 7000 SHRA BKN025CB
                       PROB40
                      TEMPO 1619 4000 +TSRA=
200807061206 TAF EGLL 061206Z 061322 19015KT 9999 SCT025
                      TEMPO 1320 20020G32KT
                      TEMPO 1314 7000 RA BKN012
                      PROB30 TEMPO 1314 2500 +SHRA
                      TEMPO 1520 7000 SHRA BKN025CB
                      PROB30 TEMPO 1519 4000 TSRA=
200807060905 TAF EGLL 060905Z 061019 19015KT 9999 SCT025
                      TEMPO 1019 20020G32KT
                      TEMPO 1014 7000 RA BKN012
                      PROB30 TEMPO 1113 2500 +SHRA
                      TEMPO 1519 7000 SHRA BKN025CB
                      PROB30 TEMPO 1519 4000 TSRA=
200807060604 TAF EGLL 060604Z 060716 19015KT 9999 SCT025
                      TEMPO 0716 20020G34KT
                      TEMPO 1016 7000 SHRA RA BKN012CB
                      PROB30 TEMPO 1016 2500 +SHRA TSRA=
200807060304 TAF EGLL 060304Z 060413 19015KT 9999 SCT025
                      TEMPO 0713 19018G30KT
                      TEMPO 1013 7000 SHRA RA BKN014
                      PROB30 TEMPO 1013 2500 +SHRA TSRA BKN012CB=
200807060002 TAF EGLL 060002Z 060110 20014KT 9999 SCT025
                      TEMPO 0810 20018G30KT=
200807052101 TAF EGLL 052101Z 052207 20014KT 9999 SCT025=
200807051802 TAF EGLL 051802Z 051904 21014KT 9999 FEW045=
200807051502 TAF EGLL 051502Z 051601 21014KT 9999 SCT045
                      TEMPO 1620 22018G28KT=
200807051200 TAF EGLL 051200Z 051322 21014KT 9999 SCT040
                      TEMPO 1320 22018G28KT=
200807050904 TAF EGLL 050904Z 051019 20014KT 9999 SCT020
                      TEMPO 1119 20017G28KT=
200807050603 TAF EGLL 050603Z 050716 14014KT 9999 SCT030
                      TEMPO 0709 7000 RA BKN012
                      BECMG 0711 20015KT
                      TEMPO 1116 20017G28KT=
200807050304 TAF EGLL 050304Z 050413 13014KT 9999 -RA SCT030
                      TEMPO 0609 6000 RA BKN012
                      BECMG 0711 20015KT
                      TEMPO 1113 20018G30KT=
200807050005 TAF EGLL 050005Z 050110 12014KT CAVOK
                      TEMPO 0103 -RA BKN045
                      BECMG 0206 BKN025
                      TEMPO 0609 6000 RA BKN012
                      BECMG 0710 19015KT=
200807042111 TAF EGLL 042111Z 042207 13012KT CAVOK
                      PROB30 TEMPO 2203 8000 RA BKN040
                      BECMG 0206 -RA BKN025
                      PROB30 0607 6000 RA BKN014=
200807042100 TAF EGLL 042100Z NIL=
200807041746 TAF EGLL 041746Z 041904 17010KT 9999 SCT045
                      BECMG 2023 11012KT=
200807041502 TAF EGLL 041502Z 041601 17010KT 9999 SCT045
                      BECMG 2023 12012KT=
200807041146 TAF EGLL 041146Z 041322 19010KT 9999 SCT040=
200807040854 TAF EGLL 040854Z 041019 VRB04KT 9999 SCT030
                      BECMG 1417 18010KT=
200807040550 TAF EGLL 040550Z 040716 18004KT CAVOK=
200807040259 TAF EGLL 040259Z 040413 VRB04KT CAVOK
                      PROB30 0406 9000=
200807032359 TAF EGLL 032359Z 040110 VRB04KT CAVOK
                      PROB30 0207 9000=
200807032105 TAF EGLL 032105Z 032207 24005KT 9999 FEW040
                      PROB40 0107 7000=
200807031803 TAF EGLL 031803Z 031904 24008KT 9999 SCT040
                      PROB30 TEMPO 1920 -SHRA SCT025CB=
200807031525 TAF AMD EGLL 031525Z 031601 25012KT 9999 SCT040
                      TEMPO 1618 4000 TSRA SHRA BKN020CB
                      PROB30 TEMPO 1820 5000 SHRA BKN025CB=
200807031505 TAF EGLL 031505Z 031601 25012KT 9999 SCT040
                      PROB40 TEMPO 1620 5000 SHRA BKN025CB=
200807031159 TAF EGLL 031159Z 031322 24012KT 9999 SCT040
                      TEMPO 1320 -SHRA BKN020CB
                      PROB30 TEMPO 1319 5000 SHRA=
200807030906 TAF EGLL 030906Z 031019 23012KT 9999 SCT030
                      TEMPO 1019 -SHRA BKN020CB
                      PROB40 TEMPO 1318 5000 SHRA=
200807030604 TAF EGLL 030604Z 030716 16005KT 9999 SCT035
                      BECMG 0709 22010KT
                      TEMPO 0709 7000 SHRA BKN012 SCT030CB
                      PROB30 TEMPO 0916 5000 +SHRA BKN030CB=
200807030303 TAF EGLL 030303Z 030413 16005KT 9999 SCT035
                      TEMPO 0409 7000 SHRA BKN012 SCT030CB
                      BECMG 0709 22010KT
                      PROB30 TEMPO 0913 5000 +SHRA BKN030CB=
200807030003 TAF EGLL 030003Z 030110 17007KT 9999 SCT030
                      PROB30 TEMPO 0110 7000 SHRA=
200807022103 TAF EGLL 022103Z 022207 17007KT 9999 SCT030
                      PROB30 TEMPO 0107 7000 SHRA=
200807021802 TAF EGLL 021802Z 021904 21010KT 9999 SCT030
                      TEMPO 0104 15006KT=
200807021516 TAF EGLL 021516Z 021601 20007KT 9999 SCT020
                      PROB30 1617 7000 RA=
200807021500 TAF EGLL 021500Z NIL=
200807021209 TAF EGLL 021209Z 021322 19008KT 9999 SCT025
                      TEMPO 1316 5000 RA
                      PROB30 TEMPO 1316 3000 +RA BKN050CB=
200807020913 TAF EGLL 020913Z 021019 19008KT 9999 SCT030
                      TEMPO 1016 9000 -RA
                      TEMPO 1116 3500 RA
                      PROB30 TEMPO 1116 BKN050CB=
200807020900 TAF EGLL 020900Z NIL=
200807020602 TAF EGLL 020602Z 020716 18005KT 9999 FEW045
                      TEMPO 0913 7000 RA
                      PROB30 TEMPO 1013 4000 +RA BKN050CB=
200807020306 TAF EGLL 020306Z 020413 21005KT 9999 FEW045
                      PROB30 0407 7000 BKN009
                      TEMPO 1013 7000 RA
                      PROB40 TEMPO 1113 4000 +RA=
200807020001 TAF EGLL 020001Z 020110 21005KT 9999 SCT045
                      PROB30 0307 7000 BKN009=
200807012102 TAF EGLL 012102Z 012207 17011KT 9999 SCT045
                      BECMG 2201 23007KT
                      TEMPO 2201 7000 RA SHRA
                      PROB30 TEMPO 2201 4000 +SHRA BKN050CB
                      PROB30 0307 7000 BKN009=
200807011758 TAF EGLL 011758Z 011904 17011KT CAVOK
                      TEMPO 1922 SCT040CB
                      BECMG 2201 23007KT BKN045
                      TEMPO 2201 7000 RA SHRA
                      PROB30 TEMPO 2201 4000 +SHRA BKN040CB
                      PROB30 0304 7000=
200807011508 TAF EGLL 011508Z 011601 17011KT CAVOK
                      PROB30 TEMPO 1619 17015G25KT
                      TEMPO 1922 SCT040CB
                      BECMG 2201 22007KT BKN045
                      TEMPO 2201 7000 RA SHRA
                      PROB30 TEMPO 2201 4000 +SHRA BKN040CB=
200807011207 TAF EGLL 011207Z 011322 17011KT CAVOK
                      PROB30 TEMPO 1319 17015G25KT
                      PROB40 TEMPO 1922 SCT040CB=
200807010904 TAF EGLL 010904Z 011019 17010KT CAVOK
                      PROB40 1719 SCT070CB=
200807010601 TAF EGLL 010601Z 010716 16008KT CAVOK=
200807010525 TAF AMD EGLL 010525Z 010513 16004KT CAVOK
                      TEMPO 0507 3000 BR BKN004=
200807010301 TAF EGLL 010301Z 010413 16004KT CAVOK
                      PROB30 TEMPO 0407 8000 BKN004=
200807010001 TAF EGLL 010001Z 010110 18004KT CAVOK
                      PROB30 0307 8000=

###################################
#  large TAF from EGLL
###################################
200807312155 TAF EGLL 312155Z 010606 23010KT 9999 FEW040
                      BECMG 0609 23015G25KT
                      BECMG 1821 21010KT
                      PROB30 TEMPO 2303 BKN014
                      BECMG 0306 7000 BKN012
                      PROB30 TEMPO 0406 RA=
200807311635 TAF EGLL 311635Z 010024 17006KT 9999 FEW040
                      BECMG 0003 23010KT
                      PROB30 TEMPO 0003 6000 -RA BKN012=
200807311023 TAF EGLL 311023Z 311818 15006KT 9999 FEW040
                      PROB30 TEMPO 1819 8000 RA
                      BECMG 0003 23012KT
                      PROB30 TEMPO 0103 6000 RA BKN012=
200807310417 TAF EGLL 310417Z 311212 17008KT 9999 FEW040
                      TEMPO 1418 8000 RA
                      PROB30 TEMPO 1517 4000 +RA BKN012
                      TEMPO 2303 6000 RA BKN012
                      BECMG 0003 23012KT=
200807302231 TAF EGLL 302231Z 310606 12005KT 9999 FEW040
                      BECMG 1215 18012KT
                      TEMPO 1418 8000 RA
                      PROB30 TEMPO 1517 4000 +RA BKN014CB
                      TEMPO 2203 6000 RA BKN012
                      BECMG 0003 24010KT=
200807301636 TAF EGLL 301636Z 310024 12004KT 9999 SCT040
                      TEMPO 0511 9000 SHRA
                      PROB30 TEMPO 1222 5000 SHRA TSRA
                      BECMG 1316 18010KT=
200807301003 TAF EGLL 301003Z 301818 16010KT 9999 SCT040
                      TEMPO 2107 10007KT
                      TEMPO 0411 9000 -SHRA
                      PROB30 TEMPO 1118 5000 SHRA TSRA=
200807300356 TAF EGLL 300356Z 301212 16010KT 9999 SCT040
                      PROB40 1218 22010KT
                      TEMPO 2107 10007KT
                      TEMPO 0412 9000 SHRA
                      PROB30 TEMPO 1112 3000 +SHRA TSRA=
200807292205 TAF EGLL 292205Z 300606 16010KT 9999 SCT040
                      TEMPO 1220 22010KT
                      TEMPO 0006 10007KT=
200807291545 TAF EGLL 291545Z 300024 17008KT 9999 SCT035
                      PROB40 0208 8000=
200807290951 TAF EGLL 290951Z 291818 19010KT 9999 SCT035
                      PROB40 0208 8000
                      PROB30 TEMPO 0307 BKN012=
200807290412 TAF EGLL 290412Z 291212 20012KT 9999 SCT035
                      TEMPO 1217 20015G25KT
                      PROB30 TEMPO 1317 7000 SHRA
                      TEMPO 0008 14008KT
                      PROB30 TEMPO 0307 9000 BKN012=
200807282225 TAF EGLL 282225Z 290606 19012KT 9999 SCT035
                      TEMPO 0608 7000 -DZ BKN008
                      BECMG 0811 20015G25KT
                      TEMPO 0810 BKN014
                      PROB30 TEMPO 1116 7000 SHRA
                      BECMG 1922 14007KT
                      PROB30 TEMPO 0306 9000 BKN012=
200807281603 TAF EGLL 281603Z 290024 10007KT 7000 RA BKN015
                      PROB30 TEMPO 0003 2000 +RA TSRA BKN005 BKN014CB
                       BECMG 0104 22010KT 9999 NSW
                      PROB30 TEMPO 0407 6000 -DZ BKN008
                      BECMG 0912 19015G25KT=
200807280952 TAF EGLL 280952Z 281818 10007KT CAVOK
                      TEMPO 1820 7000 SHRA
                      PROB30 TEMPO 1819 VRB15G25KT 4000 +SHRA TSRA
                       BKN040CB
                      BECMG 2124 7000 RA BKN015
                      PROB30 TEMPO 2202 2000 +RA TSRA BKN005 BKN014CB
                       BECMG 0205 22010KT 9999 NSW
                      PROB30 TEMPO 0407 6000 -DZ BKN008
                      BECMG 0912 19015G25KT
                      TEMPO 1015 7000 SHRA=
200807280501 TAF EGLL 280501Z 281212 10007KT CAVOK
                      PROB30 TEMPO 1320 VRB15G25KT 5000 +SHRA TSRA
                       BKN020CB
                      BECMG 2224 7000 RADZ BKN015
                      PROB30 TEMPO 2202 2000 +RA TSRA BKN005 BKN014CB
                       BECMG 0205 22010KT 9999 NSW
                      PROB30 TEMPO 0407 6000 -DZ BKN007
                      BECMG 0912 19015G25KT
                      TEMPO 1012 7000 SHRA=
200807280400 TAF EGLL 280400Z NIL=
200807272257 TAF EGLL 272257Z 280606 10007KT CAVOK
                      PROB30 TEMPO 1420 VRB15G25KT 5000 +SHRA TSRA
                       BKN020CB
                      BECMG 2224 7000 RADZ BKN015
                      PROB30 TEMPO 2202 2000 +RA TSRA BKN005
                      BECMG 0204 22010KT 9999 NSW
                      TEMPO 0406 7000 -DZ BKN008=
200807272200 TAF EGLL 272200Z NIL=
200807271622 TAF EGLL 271622Z 280024 10007KT CAVOK
                      PROB30 0307 8000
                      TEMPO 1224 5000 SHRA BKN020CB
                      PROB40 TEMPO 1424 VRB15G25KT 2000 +SHRA TSGR
                       PROB30
                      TEMPO 2224 +RA BKN012=
200807271021 TAF EGLL 271021Z 271818 VRB05KT CAVOK
                      PROB30 TEMPO 1820 7000 SHRA BKN030CB
                      BECMG 0710 10010KT
                      PROB30 0306 8000
                      BECMG 0609 10010KT
                      TEMPO 1018 5000 SHRA BKN025CB
                      PROB40 TEMPO 1018 2000 +SHRA TSGR=
200807270436 TAF EGLL 270436Z 271212 VRB05KT 9999 FEW040
                      PROB30 TEMPO 1620 5000 SHRA TSRA
                      TEMPO 0407 8000
                      BECMG 0912 09010KT=
200807262235 TAF EGLL 262235Z 270606 27005KT 9999 FEW040
                      PROB30 TEMPO 1620 5000 SHRA TSRA
                      PROB30 0406 8000=
200807261548 TAF EGLL 261548Z 270024 30007KT 9999 FEW040
                      PROB40 0207 8000
                      PROB30 TEMPO 1421 7000 SHRA TSRA=
200807260953 TAF EGLL 260953Z 261818 27007KT 9999 FEW040
                      PROB40 0307 8000=
200807260355 TAF EGLL 260355Z 261212 27005KT 9999 SCT040
                      PROB30 0307 8000=
200807252147 TAF EGLL 252147Z 260606 27005KT 9999 SCT040
                      PROB30 TEMPO 0607 8000
                      PROB30 0306 8000=
200807251635 TAF EGLL 251635Z 260024 27005KT 9999 SCT040
                      PROB30 0307 8000=
200807251023 TAF EGLL 251023Z 251818 24005KT 9999 SCT040
                      PROB30 0307 8000
                      PROB30 TEMPO 1418 7000 SHRA=
200807250350 TAF EGLL 250350Z 251212 22008KT 9999 SCT040
                      PROB30 TEMPO 1214 7000 SHRA
                      PROB30 0307 8000
                      PROB30 TEMPO 1012 7000 SHRA=
200807242149 TAF EGLL 242149Z 250606 11010KT CAVOK
                      TEMPO 0608 8000
                      BECMG 0811 21008KT
                      PROB30 TEMPO 0812 7000 SHRA
                      PROB30 0306 8000=
200807241640 TAF EGLL 241640Z 250024 11013KT CAVOK
                      TEMPO 0308 8000
                      BECMG 1114 21008KT
                      PROB30 TEMPO 1114 7000 SHRA BKN020=
200807241049 TAF EGLL 241049Z 241818 12013KT CAVOK
                      TEMPO 0308 8000
                      BECMG 1013 21008KT
                      PROB30 TEMPO 1013 7000 SHRA BKN020=
200807240408 TAF EGLL 240408Z 241212 12013KT CAVOK
                      PROB30 0307 8000
                      BECMG 0912 21010KT
                      PROB30 TEMPO 0912 8000 SHRA=
200807232149 TAF EGLL 232149Z 240606 09008KT 8000 NSC
                      BECMG 0609 CAVOK
                      PROB30 0306 8000=
200807231547 TAF EGLL 231547Z 240024 10008KT 9999 SCT040
                      TEMPO 0108 8000=
200807230949 TAF COR EGLL 230949Z 231818 09004KT 9999 SCT040
                      TEMPO 0108 8000
                      BECMG 0912 12014KT=
200807230345 TAF EGLL 230345Z 231212 10006KT 9999 SCT040
                      BECMG 2302 8000
                      BECMG 0608 9999=
200807222207 TAF EGLL 222207Z 230606 VRB02KT CAVOK
                      PROB30 0708 7000
                      BECMG 0811 15010KT
                      BECMG 2124 09007KT 8000=
200807221601 TAF EGLL 221601Z 230024 VRB05KT 9999 SCT040
                      PROB40 0408 7000
                      BECMG 0811 15010KT
                      BECMG 2124 09005KT 8000=
200807220945 TAF EGLL 220945Z 221818 28010KT 9999 SCT040
                      BECMG 2124 VRB05KT
                      PROB40 0408 7000
                      BECMG 0811 15010KT=
200807220347 TAF EGLL 220347Z 221212 28010KT CAVOK
                      TEMPO 1212 BKN035
                      TEMPO 2108 VRB05KT
                      PROB40 0408 7000
                      BECMG 0811 15010KT=
200807212157 TAF EGLL 212157Z 220606 28006KT CAVOK
                      TEMPO 1206 BKN040
                      PROB30 0306 8000=
200807211531 TAF EGLL 211531Z 220024 29006KT CAVOK
                      TEMPO 1224 BKN040=
200807210932 TAF EGLL 210932Z 211818 30007KT 9999 FEW035=
200807210407 TAF EGLL 210407Z 211212 32012KT 9999 SCT040
                      BECMG 0003 26007KT=
200807202202 TAF EGLL 202202Z 210606 31010KT CAVOK
                      TEMPO 0714 BKN040=
200807201535 TAF EGLL 201535Z 210024 31010KT 9999 SCT040=
200807200929 TAF EGLL 200929Z 201818 31010KT 9999 FEW040
                      TEMPO 1819 31015G25KT=
200807200345 TAF EGLL 200345Z 201212 31013KT 9999 SCT040
                      TEMPO 1219 31015G27KT=
200807192146 TAF EGLL 192146Z 200606 30010KT 9999 FEW030
                      TEMPO 0919 30015G27KT=
200807191556 TAF EGLL 191556Z 200024 29012KT 9999 SCT040
                      TEMPO 0719 30015G27KT=
200807191004 TAF EGLL 191004Z 191818 28017G28KT 9999 SCT035
                      BECMG 1821 30010KT
                      BECMG 0710 30017G27KT=
200807190409 TAF EGLL 190409Z 191212 26015KT 9999 SCT030
                      PROB30 TEMPO 1216 28016G26KT 7000 SHRA
                      BECMG 1922 32011KT=
200807182217 TAF EGLL 182217Z 190606 26015KT 9999 SCT030
                      TEMPO 0608 BKN010
                      PROB30 TEMPO 0608 5000 -RADZ BKN008
                      PROB30 TEMPO 1016 28016G27KT 6000 SHRA
                      BECMG 1922 32010KT=
200807181627 TAF COR EGLL 181627Z 190024 24010KT 9999 SCT030
                      TEMPO 0008 BKN012
                      PROB40 TEMPO 0508 5000 -RA BKN008
                      BECMG 0711 28015G27KT
                      PROB30 TEMPO 1116 6000 SHRA BKN020CB
                      BECMG 1821 30010KT=
200807181034 TAF EGLL 181034Z 181818 25012KT 9999 SCT030
                      PROB40 TEMPO 1803 BKN014
                      PROB30 TEMPO 1821 25015G25KT 7000 SHRA BKN020CB
                       TEMPO 0308 4000 RA BKN008
                      TEMPO 0814 26015G25KT 5000 SHRA BKN015CB
                       PROB30
                      TEMPO 0914 3000 +SHRA TSRA
                      BECMG 1114 29017G27KT=
200807180359 TAF EGLL 180359Z 181212 24009KT 9999 SCT035
                      PROB30 TEMPO 1320 25015G25KT 7000 SHRA SCT030CB
                       BECMG 2201 8000 BKN014
                      TEMPO 0206 4000 RA BKN008
                      BECMG 0508 30012KT SCT030
                      PROB30 TEMPO 0912 31015G25KT 7000 SHRA=
200807172150 TAF EGLL 172150Z 180606 26009KT 9999 SCT035
                      PROB30 TEMPO 0607 8000 BKN014
                      PROB30 TEMPO 1320 25015G25KT 7000 SHRA SCT030CB
                       PROB30 0106 8000 BKN010=
200807171607 TAF EGLL 171607Z 180024 26007KT 9999 FEW040
                      PROB30 TEMPO 0207 8000 BKN014
                      PROB30 TEMPO 1320 7000 SHRA
                      PROB30 TEMPO 2124 8000 BKN012=
200807170956 TAF EGLL 170956Z 171818 28008KT 9999 SCT040
                      PROB30 0207 8000 BKN014
                      PROB30 TEMPO 1218 7000 SHRA=
200807170409 TAF COR EGLL 170409Z 171212 26008KT 9999 SCT040
                      TEMPO 1217 7000 RA BKN014
                      PROB30 0207 7000 BKN014=
200807162153 TAF EGLL 162153Z 170606 28007KT 9999 SCT040
                      TEMPO 1216 7000 RA BKN014
                      PROB30 0206 7000 BKN014=
200807161614 TAF EGLL 161614Z 170024 28007KT 9999 BKN040
                      PROB30 TEMPO 0002 8000 -RA
                      PROB30 TEMPO 0307 BKN014
                      TEMPO 1216 7000 RADZ BKN014=
200807160946 TAF EGLL 160946Z 161818 30010KT 9999 SCT040
                      TEMPO 1901 7000 -RA
                      PROB30 TEMPO 0307 BKN014
                      TEMPO 1316 7000 -RA=
200807160348 TAF EGLL 160348Z 161212 28009KT 9999 FEW020 SCT040
                      PROB40 TEMPO 1901 7000 -RADZ=
200807152243 TAF EGLL 152243Z 160606 29009KT 9999 SCT040
                      TEMPO 1924 7000 -RADZ=
200807151612 TAF EGLL 151612Z 160024 26010KT 9999 SCT035
                      TEMPO 0005 8000 -RA BKN012
                      BECMG 0205 32008KT
                      BECMG 1821 7000 -RADZ BKN014=
200807150945 TAF EGLL 150945Z 151818 26010KT 9999 SCT035
                      TEMPO 0006 7000 RA BKN012
                      BECMG 0407 32008KT
                      PROB30 TEMPO 1618 7000 -RADZ BKN014=
200807150425 TAF EGLL 150425Z 151212 26010KT 9999 SCT030
                      TEMPO 2302 7000 -RA BKN014
                      BECMG 0205 32008KT=
200807142234 TAF EGLL 142234Z 150606 25008KT 7000 BKN010
                      PROB40 TEMPO 0609 4000 -DZ BR BKN006
                      BECMG 0811 9999 SCT030
                      PROB40 TEMPO 2201 7000 -RA BKN014=
200807141601 TAF EGLL 141601Z 150024 24008KT 9999 SCT035
                      BECMG 0104 BKN012
                      PROB40 TEMPO 0308 4000 BR BKN006
                      BECMG 0811 SCT030
                      PROB40 TEMPO 2224 7000 -RA BKN014=
200807141002 TAF EGLL 141002Z 141818 24010KT 9999 SCT035
                      BECMG 0104 BKN010
                      TEMPO 0308 4000 -DZ BKN006
                      BECMG 1013 SCT030=
200807140619 TAF COR EGLL 140619Z 141212 24010KT CAVOK
                      BECMG 1215 BKN030
                      BECMG 0003 BKN010
                      TEMPO 0307 4000 -DZ BKN006
                      BECMG 0912 BKN020=
200807140427 TAF EGLL 140427Z 141212 24010KT CAVOK
                      BECMG 1115 BKN030
                      BECMG 0003 BKN010
                      TEMPO 0307 4000 -DZ BKN006
                      BECMG 0912 BKN020=
200807132217 TAF EGLL 132217Z 140606 23010KT CAVOK
                      PROB30 0608 9000
                      BECMG 1114 BKN030
                      BECMG 2302 BKN012
                      TEMPO 0206 5000 -DZ BKN007=
200807131555 TAF EGLL 131555Z 140024 VRB05KT CAVOK
                      PROB30 0307 8000
                      BECMG 1013 24010KT BKN035=
200807130955 TAF EGLL 130955Z 131818 VRB05KT CAVOK
                      PROB30 0307 8000
                      BECMG 1013 24010KT BKN035=
200807130402 TAF EGLL 130402Z 131212 28010KT CAVOK
                      TEMPO 1221 BKN040
                      TEMPO 2107 22007KT
                      PROB30 0307 7000
                      PROB40 TEMPO 1012 BKN030=
200807122154 TAF EGLL 122154Z 130606 29007KT CAVOK
                      TEMPO 0821 BKN035
                      TEMPO 2106 23007KT
                      PROB30 0306 7000=
200807121600 TAF EGLL 121600Z 130024 VRB05KT CAVOK
                      PROB30 0307 8000
                      BECMG 0912 BKN035
                      BECMG 2124 CAVOK=
200807120956 TAF EGLL 120956Z 121818 28012KT 9999 BKN030
                      BECMG 2124 VRB05KT CAVOK
                      PROB30 0307 8000
                      BECMG 0912 BKN035=
200807120419 TAF EGLL 120419Z 121212 29010KT 9999 SCT035
                      PROB40 TEMPO 1220 6000 SHRA=
200807112225 TAF EGLL 112225Z 120606 28012KT 9999 SCT035
                      PROB40 TEMPO 1020 6000 SHRA BKN020CB=
200807111604 TAF EGLL 111604Z 120024 28012KT 9999 SCT035
                      PROB30 TEMPO 0002 5000 RADZ BKN012
                      PROB40 TEMPO 1320 6000 SHRA BKN020CB=
200807111014 TAF EGLL 111014Z 111818 23015G25KT 9999 SCT030
                      TEMPO 1821 3000 SHRA BKN014CB
                      PROB30 TEMPO 1821 23020G35KT +SHRA TSRA
                      BECMG 1922 29012KT
                      PROB40 TEMPO 2103 6000 SHRA BKN014
                      TEMPO 1218 8000 SHRA BKN025CB=
200807110428 TAF EGLL 110428Z 111212 23012KT 9999 SCT030
                      TEMPO 1217 23015G25KT
                      TEMPO 1220 4000 SHRA BKN018CB
                      PROB30 TEMPO 1220 +SHRA TSRA
                      BECMG 1720 29008KT
                      TEMPO 2001 6000 SHRA BKN014
                      PROB40 TEMPO 1012 8000 SHRA=
200807102222 TAF EGLL 102222Z 110606 23012KT 9999 SCT030
                      TEMPO 0607 BKN012
                      TEMPO 0718 23016G26KT
                      PROB40 TEMPO 0911 8000 SHRA BKN020CB
                      TEMPO 1120 4000 SHRA BKN015CB
                      PROB30 TEMPO 1120 +SHRA TSRA
                      BECMG 1720 29010KT
                      TEMPO 2001 6000 SHRA BKN014=
200807101610 TAF EGLL 101610Z 110024 23012KT 9999 SCT030
                      TEMPO 0007 BKN012
                      TEMPO 0718 23016G26KT
                      PROB40 TEMPO 0912 9000 -SHRA BKN020CB
                      TEMPO 1220 4000 SHRA BKN015CB
                      PROB30 TEMPO 1220 +SHRA TSRA
                      BECMG 1720 29010KT
                      TEMPO 2024 6000 SHRA BKN014=
200807101019 TAF EGLL 101019Z 101818 22010KT 9999 SCT030
                      TEMPO 1820 22016G26KT
                      TEMPO 2207 BKN012
                      TEMPO 0918 24016G26KT
                      PROB40 TEMPO 0913 -SHRA BKN020CB
                      TEMPO 1318 4000 SHRA BKN015CB
                      PROB30 TEMPO 1318 +SHRA TSRA
                      BECMG 1518 28010KT=
200807100411 TAF EGLL 100411Z 101212 22010KT 9999 SCT025
                      TEMPO 1420 22016G26KT
                      PROB40 TEMPO 0207 BKN014
                      TEMPO 1012 24016G26KT 7000 SHRA=
200807092146 TAF EGLL 092146Z 100606 22010KT 9999 SCT025
                      TEMPO 0608 BKN014
                      PROB40 TEMPO 1420 22015G25KT
                      PROB40 TEMPO 0206 BKN014=
200807091627 TAF EGLL 091627Z 100024 22012KT 9999 RA BKN012
                      TEMPO 0002 3000 +RA BKN007
                      BECMG 0104 NSW SCT025
                      TEMPO 0408 BKN014
                      PROB40 TEMPO 1420 22015G25KT=
200807091019 TAF EGLL 091019Z 091818 22012KT 7000 RA BKN012
                      TEMPO 1802 3000 +RA BKN008
                      PROB40 TEMPO 1802 9999 -RA BKN015
                      BECMG 0003 9999 NSW SCT020
                      PROB40 TEMPO 0307 9000 BKN014=
200807090346 TAF EGLL 090346Z 091212 16008KT 7000 RA BKN012
                      TEMPO 1221 4000 +RA BKN008
                      BECMG 1214 22012KT
                      PROB40 TEMPO 1218 9999 -RA BKN015
                      BECMG 2124 9999 NSW BKN020
                      TEMPO 0008 BKN014
                      PROB30 TEMPO 0007 8000 BKN008=
200807082154 TAF EGLL 082154Z 090606 16008KT 7000 RA SCT018
                      BECMG 0609 BKN012
                      TEMPO 0822 4000 +RA BKN008
                      BECMG 1114 22012KT
                      PROB40 TEMPO 1218 9999 -RA BKN015
                      BECMG 2201 9999 NSW BKN018
                      TEMPO 0006 8000 BKN014=
200807081612 TAF EGLL 081612Z 090024 26012KT 9999 SCT030
                      BECMG 0205 19011KT 8000 RA
                      BECMG 0609 BKN011
                      TEMPO 0822 4000 +RA BKN008
                      TEMPO 2224 BKN015=
200807081035 TAF EGLL 081035Z 081818 26012KT 9999 SCT030
                      BECMG 0205 20011KT 8000 RA
                      BECMG 0609 BKN011
                      TEMPO 0818 4000 +RA BKN008=
200807080401 TAF EGLL 080401Z 081212 26012KT 9999 SCT030
                      BECMG 0003 20008KT
                      BECMG 0407 8000 RA
                      TEMPO 0812 4000 +RA BKN012=
200807072213 TAF EGLL 072213Z 080606 26010KT 9999 SCT030
                      BECMG 0003 20005KT
                      TEMPO 0306 8000 RA=
200807071630 TAF EGLL 071630Z 080024 25010KT 9999 SCT030=
200807071020 TAF EGLL 071020Z 071818 26012KT 9999 SCT030
                      TEMPO 1821 7000 SHRA BKN020CB
                      PROB40 TEMPO 1819 25015G25KT 3000 +SHRA +TSRA=
200807070346 TAF EGLL 070346Z 071212 24013KT 9999 SCT030
                      TEMPO 1221 7000 SHRA BKN020CB
                      TEMPO 1219 25015G25KT
                      PROB40 TEMPO 1219 3000 +SHRA +TSRA
                      TEMPO 0912 27015G25KT=
200807062157 TAF EGLL 062157Z 070606 21012KT 9999 BKN020
                      TEMPO 0621 7000 SHRA BKN020CB
                      TEMPO 0609 BKN012
                      PROB40 TEMPO 0619 3000 +SHRA +TSRA
                      TEMPO 0919 23015G25KT=
200807061602 TAF EGLL 061602Z 070024 22014KT 9999 SCT025
                      TEMPO 0208 4000 RA BKN012
                      TEMPO 0821 25015G25KT 7000 SHRA BKN020CB
                       PROB40
                      TEMPO 0919 2500 +SHRA TSRA=
200807060958 TAF EGLL 060958Z 061818 22014KT 9999 BKN025
                      TEMPO 1820 22020G32KT 7000 SHRA BKN025CB
                       PROB30
                      TEMPO 1820 2500 +SHRA TSRA
                      TEMPO 0208 4000 RA BKN012
                      TEMPO 0818 25015G25KT 7000 SHRA BKN020CB
                       PROB40
                      TEMPO 0918 2500 +SHRA TSRA=
200807060417 TAF EGLL 060417Z 061212 20014KT 9999 SCT025
                      TEMPO 1220 21020G34KT 7000 SHRA RA BKN012CB
                       PROB30
                      TEMPO 1220 2500 +SHRA TSRA
                      TEMPO 2008 4000 RA BKN012
                      TEMPO 0812 23015G25KT
                      PROB40 TEMPO 0812 2500 +SHRA TSRA BKN014CB=
200807052206 TAF EGLL 052206Z 060606 20015KT 9999 SCT030
                      TEMPO 0820 21018G30KT
                      TEMPO 1020 7000 SHRA RA BKN014
                      PROB30 TEMPO 1020 2500 +SHRA TSRA BKN012CB
                       TEMPO 2006 4000 SHRA RA BKN010=
200807051617 TAF EGLL 051617Z 060024 19012KT 9999 SCT040
                      BECMG 0609 18018G30KT
                      TEMPO 0824 7000 SHRA RA
                      PROB30 TEMPO 1120 4000 +RA TSRA BKN012CB
                       BECMG 1417 20012KT=
200807050947 TAF EGLL 050947Z 051818 20014KT 9999 SCT040
                      TEMPO 1820 20018G28KT
                      BECMG 0609 18018G30KT
                      TEMPO 0818 7000 SHRA RA
                      PROB30 TEMPO 1118 4000 +RA TSRA BKN012CB
                       BECMG 1417 20012KT=
200807050412 TAF EGLL 050412Z 051212 19015KT 9999 SCT040
                      TEMPO 1220 20017G28KT
                      TEMPO 0612 18018G30KT
                      TEMPO 0811 5000 SHRA BKN014
                      PROB40 TEMPO 0811 2500 +RA TSRA BKN012CB=
200807042223 TAF COR EGLL 042223Z 050606 13014KT 9999 SCT030
                      TEMPO 0609 6000 RA BKN012
                      BECMG 0710 19015KT
                      TEMPO 1020 19018G30KT=
200807041603 TAF EGLL 041603Z 050024 12012KT CAVOK
                      BECMG 0003 BKN030
                      TEMPO 0108 7000 RA
                      PROB30 TEMPO 0308 BKN014
                      BECMG 0710 19012KT
                      TEMPO 1221 20015G25KT
                      PROB30 TEMPO 1524 7000 SHRA=
200807041352 TAF COR EGLL 041352Z 041818 18008KT CAVOK
                      BECMG 2023 12012KT
                      BECMG 2303 BKN030
                      TEMPO 0108 7000 RA
                      PROB30 TEMPO 0308 BKN014
                      BECMG 0710 18012KT
                      TEMPO 1018 20015G25KT=
200807041023 TAF EGLL 041023Z 041818 18008KT CAVOK
                      BECMG 2023 12012KT
                      BECMG 2303 BKN030
                      TEMPO 0108 7000 RA
                      PROB30 TEMPO 0308 BKN014
                      BECMG 0710 17012KT
                      TEMPO 1018 20015G25KT=
200807040431 TAF EGLL 040431Z 041212 18008KT CAVOK
                      BECMG 2303 12010KT BKN049
                      TEMPO 0309 7000 SHRA RA
                      BECMG 0709 18012KT=
200807032226 TAF EGLL 032226Z 040606 VRB04KT 9999 FEW040
                      PROB30 0607 9000
                      BECMG 1216 17010KT=
200807031610 TAF EGLL 031610Z 040024 25010KT 9999 FEW045
                      BECMG 0205 19008KT
                      BECMG 1821 12010KT
                      PROB30 TEMPO 2124 9000 -RA=
200807031007 TAF EGLL 031007Z 031818 24010KT 9999 SCT040
                      PROB30 TEMPO 1820 5000 SHRA BKN020CB
                      BECMG 0306 18007KT=
200807030407 TAF EGLL 030407Z 031212 23012KT 9999 SCT040
                      PROB30 TEMPO 1218 5000 +SHRA BKN035CB
                      PROB30 0307 VRB03KT 7000=
200807022233 TAF EGLL 022233Z 030606 15006KT 9999 SCT035
                      TEMPO 0619 7000 SHRA SCT035CB
                      PROB30 TEMPO 0608 BKN014
                      BECMG 0710 22012KT
                      PROB30 TEMPO 1218 3000 +SHRA TSRA
                      TEMPO 1624 28012KT
                      PROB30 0306 7000=
200807021617 TAF EGLL 021617Z 030024 15006KT 9999 SCT030
                      PROB30 TEMPO 0507 9000 -RA BKN014
                      BECMG 0711 22012KT
                      TEMPO 0919 7000 SHRA BKN020CB
                      PROB40 TEMPO 1218 3000 +SHRA TSRA
                      TEMPO 1624 28012KT=
200807021033 TAF EGLL 021033Z 021818 21010KT 9999 SCT030
                      TEMPO 2307 15010KT
                      TEMPO 0407 7000 -RA BKN008
                      TEMPO 0709 BKN014
                      TEMPO 0917 5000 SHRA BKN025CB
                      PROB40 TEMPO 1216 3000 +SHRA TSRA
                      BECMG 1417 27012KT=
200807020345 TAF EGLL 020345Z 021212 18005KT 9999 SCT040
                      TEMPO 1213 8000 RA
                      TEMPO 0107 7000 -RA BKN008
                      TEMPO 0912 6000 SHRA BKN030CB
                      PROB30 TEMPO 1012 3000 +SHRA=
200807012152 TAF EGLL 012152Z 020606 20005KT 9999 SCT040
                      PROB30 TEMPO 0607 8000 BKN009
                      TEMPO 1015 8000 RA
                      PROB40 TEMPO 1214 4000 +RA
                      TEMPO 0206 7000 -RA BKN008=
200807011637 TAF EGLL 011637Z 020024 22007KT 9999 SCT040
                      PROB30 TEMPO 0001 4000 +SHRA BKN040CB
                      PROB30 TEMPO 0307 8000 BKN009
                      BECMG 1114 8000 RA
                      PROB40 TEMPO 1316 4000 +RA
                      BECMG 1618 9999 NSW
                      PROB30 TEMPO 1821 7000 SHRA
                      BECMG 2124 7000=
200807011219 TAF AMD EGLL 011219Z 011818 16010KT CAVOK
                      TEMPO 1822 SCT040CB
                      TEMPO 2201 7000 RA SHRA
                      PROB30 TEMPO 2201 4000 +SHRA BKN040CB
                      BECMG 2201 22007KT
                      PROB30 TEMPO 0307 8000 BKN009
                      BECMG 1114 8000 RA
                      PROB40 TEMPO 1316 4000 +RA
                      BECMG 1618 9999 NSW=
200807011035 TAF EGLL 011035Z 011818 16010KT CAVOK
                      TEMPO 1801 7000 RA SHRA
                      PROB30 TEMPO 1822 4000 +SHRA BKN070CB
                      BECMG 2201 22007KT
                      PROB30 TEMPO 0307 8000 BKN009
                      BECMG 1114 8000 RA
                      PROB40 TEMPO 1316 4000 +RA
                      BECMG 1618 9999 NSW=
200807010400 TAF EGLL 010400Z 011212 16010KT CAVOK
                      TEMPO 1901 7000 RA SHRA
                      PROB30 TEMPO 1922 4000 +SHRA BKN070CB
                      BECMG 2201 22007KT
                      PROB30 TEMPO 0307 8000 BKN009
                      TEMPO 1112 8000 RA=
