##########################################################
# Query made at 01/13/2020 12:31:58 UTC
# Time interval: from 07/01/2016 00:00  to 07/31/2016 23:59  UTC
##########################################################

##########################################################
# EGLL, London / Heathrow Airport (United Kingdom)
# WMO index: 03772
# Latitude 51-29N. Longitude 000-27W. Altitude 24 m.
##########################################################

###################################
#  METAR/SPECI from EGLL
###################################
201607312350 METAR COR EGLL 312350Z AUTO 30005KT 9999 SCT048 16/10 Q1019
                        NOSIG=
201607312320 METAR COR EGLL 312320Z AUTO 30004KT 9999 BKN048 17/11 Q1019
                        NOSIG=
201607312250 METAR COR EGLL 312250Z AUTO 29006KT 9999 SCT043 17/11 Q1019
                        NOSIG=
201607312220 METAR COR EGLL 312220Z AUTO 27010KT 9999 BKN046 17/11 Q1019
                        NOSIG=
201607312150 METAR COR EGLL 312150Z AUTO 27011KT 9999 NCD 18/11 Q1018
                        NOSIG=
201607312120 METAR COR EGLL 312120Z AUTO 27011KT 9999 NCD 18/10 Q1018
                        NOSIG=
201607312050 METAR COR EGLL 312050Z AUTO 27012KT 9999 NCD 19/10 Q1018
                        NOSIG=
201607312020 METAR COR EGLL 312020Z AUTO 28007KT 9999 NCD 19/10 Q1018
                        NOSIG=
201607311950 METAR COR EGLL 311950Z AUTO 29008KT 9999 NCD 20/10 Q1018
                        NOSIG=
201607311920 METAR COR EGLL 311920Z AUTO 29005KT 9999 NCD 20/10 Q1018
                        NOSIG=
201607311850 METAR COR EGLL 311850Z AUTO 30005KT 270V330 9999 NCD 20/09
                        Q1017 NOSIG=
201607311820 METAR COR EGLL 311820Z AUTO 30007KT 270V350 9999 NCD 21/09
                        Q1017 NOSIG=
201607311750 METAR COR EGLL 311750Z AUTO 31005KT 280V350 9999 NCD 21/09
                        Q1017 NOSIG=
201607311720 METAR COR EGLL 311720Z AUTO 31005KT 280V010 9999 NCD 21/09
                        Q1017 NOSIG=
201607311650 METAR COR EGLL 311650Z AUTO 32005KT 290V360 9999 NCD 21/09
                        Q1017 NOSIG=
201607311620 METAR COR EGLL 311620Z AUTO 28007KT 240V310 9999 NCD 22/09
                        Q1017 NOSIG=
201607311550 METAR COR EGLL 311550Z AUTO 28008KT 230V300 9999 NCD 21/08
                        Q1017 NOSIG=
201607311520 METAR COR EGLL 311520Z AUTO 28007KT 230V330 9999 BKN049 21/09
                        Q1017 NOSIG=
201607311450 METAR COR EGLL 311450Z AUTO 30007KT 9999 BKN049 22/09 Q1017
                        NOSIG=
201607311420 METAR COR EGLL 311420Z AUTO 27008KT 230V300 9999 NCD 21/08
                        Q1017 NOSIG=
201607311350 METAR COR EGLL 311350Z AUTO 27008KT 240V300 9999 FEW048 21/08
                        Q1017 NOSIG=
201607311320 METAR COR EGLL 311320Z AUTO 30007KT 260V340 9999 SCT043 21/09
                        Q1017 NOSIG=
201607311250 METAR COR EGLL 311250Z AUTO 30008KT 9999 BKN043 20/09 Q1017
                        NOSIG=
201607311220 METAR COR EGLL 311220Z AUTO 28007KT 230V330 9999 SCT046 21/08
                        Q1017 NOSIG=
201607311150 METAR COR EGLL 311150Z AUTO 29008KT 230V320 9999 SCT043 21/09
                        Q1017 NOSIG=
201607311120 METAR COR EGLL 311120Z AUTO 25008KT 210V290 9999 SCT041 21/09
                        Q1017 NOSIG=
201607311050 METAR COR EGLL 311050Z AUTO 31007KT 250V340 9999 SCT040 20/09
                        Q1017 NOSIG=
201607311020 METAR COR EGLL 311020Z AUTO 29007KT 250V340 9999 FEW038 20/09
                        Q1017 NOSIG=
201607310950 METAR COR EGLL 310950Z AUTO 30006KT 250V020 9999 SCT036 19/09
                        Q1017 NOSIG=
201607310920 METAR COR EGLL 310920Z AUTO 31004KT 270V040 9999 FEW031 19/09
                        Q1017 NOSIG=
201607310850 METAR COR EGLL 310850Z AUTO 29005KT 260V020 9999 FEW027 18/11
                        Q1017 NOSIG=
201607310820 METAR COR EGLL 310820Z AUTO VRB03KT 9999 NCD 17/10 Q1017
                        NOSIG=
201607310750 METAR COR EGLL 310750Z AUTO 35004KT 300V060 9999 NCD 17/10
                        Q1017 NOSIG=
201607310720 METAR COR EGLL 310720Z AUTO 31004KT 260V020 9999 NCD 15/10
                        Q1017 NOSIG=
201607310650 METAR COR EGLL 310650Z AUTO 35004KT 310V040 9999 BKN040 15/10
                        Q1017 NOSIG=
201607310620 METAR COR EGLL 310620Z AUTO VRB03KT 9999 FEW039 15/10 Q1017
                        NOSIG=
201607310550 METAR COR EGLL 310550Z AUTO 30003KT 9999 FEW039 14/09 Q1016
                        NOSIG=
201607310520 METAR COR EGLL 310520Z AUTO 30003KT 9999 SCT038 BKN048 14/09
                        Q1016 NOSIG=
201607310450 METAR COR EGLL 310450Z AUTO 30003KT 9999 FEW039 13/09 Q1016
                        NOSIG=
201607310420 METAR COR EGLL 310420Z AUTO VRB03KT 9999 NCD 14/09 Q1016
                        NOSIG=
201607310350 METAR COR EGLL 310350Z AUTO VRB03KT 9999 NCD 14/09 Q1016
                        NOSIG=
201607310320 METAR COR EGLL 310320Z AUTO VRB02KT 9999 BKN046 15/09 Q1016
                        NOSIG=
201607310250 METAR COR EGLL 310250Z AUTO VRB03KT 9999 BKN046 15/09 Q1015
                        NOSIG=
201607310220 METAR COR EGLL 310220Z AUTO VRB03KT 9999 BKN046 15/09 Q1015
                        NOSIG=
201607310150 METAR COR EGLL 310150Z AUTO 34004KT 300V020 9999 BKN046 16/10
                        Q1015 NOSIG=
201607310120 METAR COR EGLL 310120Z AUTO VRB03KT 9999 NCD 16/10 Q1015
                        NOSIG=
201607310050 METAR COR EGLL 310050Z AUTO 36004KT 9999 NCD 16/10 Q1015
                        NOSIG=
201607310020 METAR COR EGLL 310020Z AUTO 36004KT 9999 NCD 17/10 Q1015
                        NOSIG=
201607302350 METAR COR EGLL 302350Z AUTO 36004KT 9999 NCD 17/10 Q1015
                        NOSIG=
201607302320 METAR COR EGLL 302320Z AUTO VRB03KT 9999 NCD 17/10 Q1015
                        NOSIG=
201607302250 METAR COR EGLL 302250Z AUTO VRB02KT 9999 NCD 17/10 Q1015
                        NOSIG=
201607302220 METAR COR EGLL 302220Z AUTO 36003KT 9999 NCD 18/10 Q1015
                        NOSIG=
201607302150 METAR COR EGLL 302150Z AUTO 35003KT 9999 NCD 18/10 Q1015
                        NOSIG=
201607302120 METAR COR EGLL 302120Z AUTO 36003KT 9999 NCD 18/09 Q1015
                        NOSIG=
201607302050 METAR COR EGLL 302050Z AUTO VRB03KT 9999 NCD 19/09 Q1015
                        NOSIG=
201607302020 METAR COR EGLL 302020Z AUTO 33002KT 9999 NCD 19/09 Q1014
                        NOSIG=
201607301950 METAR COR EGLL 301950Z AUTO 33003KT 9999 NCD 19/09 Q1014
                        NOSIG=
201607301920 METAR COR EGLL 301920Z AUTO 34005KT 310V010 9999 NCD 20/09
                        Q1014 NOSIG=
201607301850 METAR COR EGLL 301850Z AUTO 31006KT 9999 NCD 21/09 Q1014
                        NOSIG=
201607301820 METAR COR EGLL 301820Z AUTO 31006KT 280V350 9999 NCD 21/09
                        Q1014 NOSIG=
201607301750 METAR COR EGLL 301750Z AUTO 32005KT 290V010 9999 NCD 21/09
                        Q1013 NOSIG=
201607301720 METAR COR EGLL 301720Z AUTO 31006KT 270V350 9999 NCD 21/09
                        Q1013 NOSIG=
201607301650 METAR COR EGLL 301650Z AUTO 30005KT 270V010 9999 SCT047 22/09
                        Q1013 NOSIG=
201607301620 METAR COR EGLL 301620Z AUTO 31007KT 9999 SCT048 22/10 Q1013
                        NOSIG=
201607301550 METAR COR EGLL 301550Z AUTO 31006KT 260V340 9999 FEW044 22/10
                        Q1013 NOSIG=
201607301520 METAR COR EGLL 301520Z AUTO 34005KT 310V030 9999 SCT045 21/10
                        Q1013 NOSIG=
201607301450 METAR COR EGLL 301450Z AUTO VRB04KT 9999 SCT046 22/10 Q1013
                        NOSIG=
201607301420 METAR COR EGLL 301420Z AUTO VRB03KT 9999 NCD 21/09 Q1014
                        NOSIG=
201607301350 METAR COR EGLL 301350Z AUTO 29004KT 250V350 9999 NCD 21/09
                        Q1014 NOSIG=
201607301320 METAR COR EGLL 301320Z AUTO 31005KT 260V010 9999 SCT038 21/10
                        Q1014 NOSIG=
201607301250 METAR COR EGLL 301250Z AUTO 30006KT 220V030 9999 FEW035 21/11
                        Q1014 NOSIG=
201607301220 METAR COR EGLL 301220Z AUTO 32005KT 250V050 9999 NCD 20/11
                        Q1014 NOSIG=
201607301150 METAR COR EGLL 301150Z AUTO 30005KT 250V360 9999 NCD 20/12
                        Q1014 NOSIG=
201607301120 METAR COR EGLL 301120Z AUTO 29006KT 250V320 9999 NCD 19/13
                        Q1014 NOSIG=
201607301050 METAR COR EGLL 301050Z AUTO 28005KT 220V320 9999 FEW022 BKN048
                        19/13 Q1014 NOSIG=
201607301020 METAR COR EGLL 301020Z AUTO 29004KT 230V350 9999 BKN048 18/13
                        Q1014 NOSIG=
201607300950 METAR COR EGLL 300950Z AUTO VRB03KT 9999 BKN049 18/13 Q1014
                        NOSIG=
201607300920 METAR COR EGLL 300920Z AUTO 32004KT 280V030 9999 BKN044 17/13
                        Q1014 NOSIG=
201607300850 METAR COR EGLL 300850Z AUTO 30004KT 260V330 9999 BKN043 17/13
                        Q1014 NOSIG=
201607300820 METAR COR EGLL 300820Z 31005KT 9999 -RA FEW026 BKN048 16/13
                        Q1014 NOSIG=
201607300750 METAR COR EGLL 300750Z AUTO 32004KT 280V010 9999 BKN039 16/13
                        Q1013 NOSIG=
201607300720 METAR COR EGLL 300720Z AUTO 33004KT 290V010 9999 BKN039 16/13
                        Q1013 NOSIG=
201607300650 METAR COR EGLL 300650Z AUTO 34005KT 300V020 9999 FEW011 BKN043
                        16/13 Q1013 NOSIG=
201607300620 METAR COR EGLL 300620Z AUTO 31006KT 9999 BKN042 17/14 Q1013
                        NOSIG=
201607300550 METAR COR EGLL 300550Z AUTO 31004KT 9999 FEW011 BKN041 17/14
                        Q1013 NOSIG=
201607300520 METAR COR EGLL 300520Z AUTO 29004KT 9999 FEW011 OVC039 17/14
                        Q1013 NOSIG=
201607300450 METAR COR EGLL 300450Z AUTO 28004KT 9999 FEW019 16/14 Q1013
                        NOSIG=
201607300420 METAR COR EGLL 300420Z AUTO VRB03KT 9999 SCT041 17/14 Q1013
                        NOSIG=
201607300350 METAR COR EGLL 300350Z AUTO 29004KT 9999 FEW039 16/14 Q1013
                        NOSIG=
201607300320 METAR COR EGLL 300320Z AUTO 29004KT 9999 SCT038 16/14 Q1012
                        NOSIG=
201607300250 METAR COR EGLL 300250Z AUTO 29004KT 9999 BKN049 17/14 Q1012
                        NOSIG=
201607300220 METAR COR EGLL 300220Z AUTO 29005KT 9999 FEW033 17/14 Q1012
                        NOSIG=
201607300150 METAR COR EGLL 300150Z AUTO 31004KT 9999 OVC039 17/14 Q1012
                        NOSIG=
201607300120 METAR COR EGLL 300120Z AUTO 31003KT 9999 OVC033 17/14 Q1012
                        NOSIG=
201607300050 METAR COR EGLL 300050Z AUTO 29005KT 9999 BKN018 BKN037 17/14
                        Q1012 TEMPO BKN014=
201607300020 METAR COR EGLL 300020Z AUTO 29006KT 9999 BKN018 18/14 Q1012
                        NOSIG=
201607292350 METAR COR EGLL 292350Z AUTO 28006KT 9999 BKN020 18/14 Q1012
                        NOSIG=
201607292320 METAR COR EGLL 292320Z AUTO 29005KT 9999 SCT022 18/14 Q1012
                        NOSIG=
201607292250 METAR COR EGLL 292250Z AUTO 30005KT 9999 OVC027 18/14 Q1012
                        NOSIG=
201607292220 METAR COR EGLL 292220Z AUTO 30005KT 270V340 9999 BKN030 19/14
                        Q1012 NOSIG=
201607292150 METAR COR EGLL 292150Z AUTO 29004KT 9999 NCD 18/14 Q1012
                        NOSIG=
201607292120 METAR COR EGLL 292120Z AUTO 31004KT 9999 SCT042 19/14 Q1012
                        NOSIG=
201607292050 METAR COR EGLL 292050Z AUTO 31004KT 9999 BKN035 19/14 Q1012
                        NOSIG=
201607292020 METAR COR EGLL 292020Z AUTO 28006KT 9999 BKN034/// //////CB
                        20/13 Q1011 NOSIG=
201607291950 METAR COR EGLL 291950Z AUTO 28007KT 9999 -RA BKN034 OVC049
                        20/14 Q1011 NOSIG=
201607291920 METAR COR EGLL 291920Z AUTO 24011KT 9999 SCT035 21/14 Q1011
                        NOSIG=
201607291850 METAR COR EGLL 291850Z AUTO 23010KT 9999 SCT039 21/14 Q1011
                        NOSIG=
201607291820 METAR COR EGLL 291820Z AUTO 23008KT 190V260 9999 SCT039 21/14
                        Q1011 NOSIG=
201607291750 METAR COR EGLL 291750Z AUTO 21010KT 9999 NCD 21/15 Q1010
                        NOSIG=
201607291720 METAR COR EGLL 291720Z AUTO 21010KT 9999 FEW038 21/15 Q1010
                        NOSIG=
201607291650 METAR COR EGLL 291650Z AUTO 24010KT 180V260 9999 SCT032 22/15
                        Q1010 NOSIG=
201607291620 METAR COR EGLL 291620Z 24009KT 210V280 9999 VCSH FEW034 22/14
                        Q1010 NOSIG=
201607291550 METAR COR EGLL 291550Z 24009KT 9999 FEW034 22/14 Q1010 NOSIG=
201607291520 METAR EGLL 291520Z 23009KT 200V260 9999 -RA BKN036 21/14
                        Q1011 NOSIG=
201607291450 METAR COR EGLL 291450Z AUTO 27011KT 9999 SCT039 21/14 Q1011
                        NOSIG=
201607291420 METAR COR EGLL 291420Z AUTO 27010KT 9999 -RA SCT031 20/15
                        Q1011 NOSIG=
201607291350 METAR COR EGLL 291350Z 26007KT 9999 BKN034 22/14 Q1011=
201607291320 METAR COR EGLL 291320Z AUTO 27007KT 9999 FEW032 BKN043 20/14
                        Q1011 NOSIG=
201607291250 METAR COR EGLL 291250Z AUTO 28012KT 9999 BKN018/// BKN036///
                        //////CB 20/14 Q1011 NOSIG=
201607291220 METAR EGLL 291220Z AUTO 25012KT 210V270 9999 BKN029/// //////CB
                        22/14 Q1011=
201607291150 METAR COR EGLL 291150Z AUTO 24011KT 200V270 9999 FEW024 BKN043
                        22/14 Q1011 TEMPO SHRA=
201607291120 METAR COR EGLL 291120Z AUTO 26010KT 9999 SCT021 BKN036 20/15
                        Q1011 TEMPO SHRA=
201607291050 METAR COR EGLL 291050Z AUTO 25009KT 9999 BKN016 21/15 Q1011
                        TEMPO SHRA=
201607291020 METAR COR EGLL 291020Z AUTO 26009KT 230V290 9999 SCT015 SCT026
                        OVC038 20/15 Q1011 TEMPO SHRA=
201607290950 METAR COR EGLL 290950Z AUTO 24010KT 9999 -RA SCT012 BKN024
                        19/15 Q1011 NOSIG=
201607290920 METAR COR EGLL 290920Z AUTO 24009KT 9999 BKN012 19/15 Q1011
                        TEMPO SCT012=
201607290850 METAR COR EGLL 290850Z AUTO 25010KT 9999 -RA BKN010 BKN025
                        18/15 Q1011 BECMG BKN015=
201607290820 METAR COR EGLL 290820Z AUTO 25010KT 9999 OVC010 18/15 Q1011
                        BECMG BKN015=
201607290750 METAR COR EGLL 290750Z AUTO 25010KT 220V280 9999 OVC010 17/15
                        Q1011 NOSIG=
201607290720 METAR COR EGLL 290720Z AUTO 24011KT 9999 OVC010 17/15 Q1011
                        NOSIG=
201607290650 METAR COR EGLL 290650Z AUTO 23009KT 9999 BKN009 17/15 Q1011
                        BECMG BKN010=
201607290620 METAR COR EGLL 290620Z AUTO 23009KT 9999 SCT009 BKN018 17/15
                        Q1011 TEMPO BKN009=
201607290550 METAR COR EGLL 290550Z AUTO 24007KT 210V270 9999 FEW010 17/16
                        Q1011 TEMPO BKN008=
201607290520 METAR COR EGLL 290520Z AUTO 25009KT 9999 BKN007 17/15 Q1011
                        TEMPO FEW007 BKN010=
201607290450 METAR COR EGLL 290450Z AUTO 24009KT 9999 SCT009 BKN037 16/16
                        Q1011 TEMPO BKN008=
201607290420 METAR COR EGLL 290420Z AUTO 25008KT 9999 BKN021 BKN037 16/16
                        Q1011 TEMPO BKN008=
201607290350 METAR COR EGLL 290350Z AUTO 23009KT 9999 -RA FEW008 BKN018
                        17/16 Q1011 TEMPO BKN008=
201607290320 METAR COR EGLL 290320Z AUTO 24007KT 9999 SCT008 SCT023 OVC039
                        17/15 Q1011 TEMPO BKN008=
201607290250 METAR COR EGLL 290250Z AUTO 25007KT 9999 FEW014 BKN034 17/15
                        Q1011 TEMPO BKN008=
201607290220 METAR COR EGLL 290220Z AUTO 24007KT 9999 BKN010 OVC033 17/16
                        Q1011 TEMPO FEW010=
201607290150 METAR COR EGLL 290150Z AUTO 25006KT 9999 BKN012 17/16 Q1011
                        TEMPO FEW012=
201607290120 METAR COR EGLL 290120Z AUTO 27005KT 9999 FEW031 OVC042 17/16
                        Q1011 NOSIG=
201607290050 METAR COR EGLL 290050Z AUTO 28007KT 9999 SCT008/// BKN021///
                        BKN035/// //////TCU 17/16 Q1011 NOSIG=
201607290020 METAR COR EGLL 290020Z AUTO 24008KT 9999 -RA OVC008 18/17
                        Q1011 TEMPO FEW008=
201607282350 METAR COR EGLL 282350Z AUTO 22007KT 9999 BKN010 OVC023 18/17
                        Q1011 TEMPO FEW010=
201607282320 METAR COR EGLL 282320Z AUTO 21007KT 9999 BKN009 18/17 Q1011
                        TEMPO BKN012=
201607282250 METAR COR EGLL 282250Z AUTO 21008KT 9999 FEW008 BKN033 18/17
                        Q1011 NOSIG=
201607282220 METAR COR EGLL 282220Z AUTO 21008KT 170V250 9999 SCT036 18/17
                        Q1012 NOSIG=
201607282150 METAR COR EGLL 282150Z AUTO 20007KT 180V250 9999 FEW012 18/17
                        Q1012 NOSIG=
201607282120 METAR COR EGLL 282120Z AUTO 22008KT 9999 FEW010 BKN038 18/16
                        Q1012 NOSIG=
201607282050 METAR COR EGLL 282050Z AUTO 21009KT 180V260 9999 FEW011 18/16
                        Q1012 NOSIG=
201607282020 METAR COR EGLL 282020Z AUTO 21009KT 9999 SCT024 19/16 Q1012
                        NOSIG=
201607281950 METAR COR EGLL 281950Z AUTO 21009KT 170V250 9999 BKN014 19/16
                        Q1012 BECMG FEW014=
201607281920 METAR COR EGLL 281920Z AUTO 21008KT 160V240 9999 FEW015 19/16
                        Q1012 NOSIG=
201607281850 METAR COR EGLL 281850Z AUTO 21009KT 150V250 9999 FEW015 20/17
                        Q1012 NOSIG=
201607281820 METAR COR EGLL 281820Z AUTO 21008KT 170V240 9999 BKN011 20/17
                        Q1012 BECMG FEW011=
201607281750 METAR COR EGLL 281750Z AUTO 22009KT 190V250 9999 BKN011 20/17
                        Q1012 BECMG FEW012=
201607281720 METAR COR EGLL 281720Z AUTO 22009KT 180V250 9999 -RA FEW005///
                        BKN013/// OVC025/// //////TCU 19/16
                        Q1012 RERA BECMG FEW012=
201607281650 METAR EGLL 281650Z AUTO 21008KT 150V250 9999 -RA BKN013///
                        //////TCU 19/16 Q1012 TEMPO SHRA=
201607281620 METAR COR EGLL 281620Z AUTO 22011KT 180V240 9999 BKN010 BKN023
                        19/15 Q1013 TEMPO SHRA=
201607281550 METAR COR EGLL 281550Z AUTO 21011KT 190V250 9999 OVC011 18/15
                        Q1013 TEMPO SHRA=
201607281520 METAR COR EGLL 281520Z AUTO 22011KT 180V250 9999 OVC012 19/15
                        Q1013 TEMPO SHRA=
201607281450 METAR COR EGLL 281450Z AUTO 22011KT 9999 OVC014 19/14 Q1013
                        TEMPO BKN016=
201607281420 METAR COR EGLL 281420Z AUTO 23012KT 9999 OVC021 18/14 Q1014
                        NOSIG=
201607281350 METAR COR EGLL 281350Z AUTO 22012KT 190V250 9999 -RA OVC033
                        20/12 Q1014 NOSIG=
201607281320 METAR COR EGLL 281320Z AUTO 23012KT 9999 OVC036 21/11 Q1014
                        NOSIG=
201607281250 METAR COR EGLL 281250Z AUTO 23010KT 9999 OVC038 21/11 Q1014
                        NOSIG=
201607281220 METAR COR EGLL 281220Z AUTO 25012KT 9999 OVC044 21/10 Q1014
                        NOSIG=
201607281150 METAR COR EGLL 281150Z AUTO 24012KT 9999 BKN046 21/10 Q1014
                        NOSIG=
201607281120 METAR COR EGLL 281120Z AUTO 25011KT 9999 NCD 21/11 Q1014
                        NOSIG=
201607281050 METAR COR EGLL 281050Z AUTO 22009KT 160V260 9999 FEW036 21/11
                        Q1015 NOSIG=
201607281020 METAR COR EGLL 281020Z AUTO 22007KT 150V290 9999 FEW033 21/10
                        Q1015 NOSIG=
201607280950 METAR COR EGLL 280950Z AUTO VRB06KT 9999 FEW035 20/11 Q1015
                        NOSIG=
201607280920 METAR COR EGLL 280920Z AUTO 25005KT 200V350 9999 FEW040 19/10
                        Q1015 NOSIG=
201607280850 METAR COR EGLL 280850Z AUTO 28005KT 220V010 9999 FEW037 19/11
                        Q1015 NOSIG=
201607280820 METAR COR EGLL 280820Z AUTO VRB03KT 9999 FEW037 19/11 Q1015
                        NOSIG=
201607280750 METAR COR EGLL 280750Z AUTO VRB02KT 9999 SCT037 18/10 Q1015
                        NOSIG=
201607280720 METAR COR EGLL 280720Z AUTO VRB03KT 9999 BKN037 18/10 Q1015
                        NOSIG=
201607280650 METAR COR EGLL 280650Z AUTO VRB03KT 9999 SCT037 17/11 Q1015
                        NOSIG=
201607280620 METAR COR EGLL 280620Z AUTO VRB03KT 9999 NCD 16/11 Q1015
                        NOSIG=
201607280550 METAR COR EGLL 280550Z AUTO 31004KT 9999 NCD 15/11 Q1015
                        NOSIG=
201607280520 METAR COR EGLL 280520Z AUTO 30004KT 9999 FEW039 15/10 Q1015
                        NOSIG=
201607280450 METAR COR EGLL 280450Z AUTO 33002KT 9999 FEW042 15/10 Q1015
                        NOSIG=
201607280420 METAR COR EGLL 280420Z AUTO VRB02KT 9999 FEW036 15/11 Q1015
                        NOSIG=
201607280350 METAR COR EGLL 280350Z AUTO VRB03KT 9999 BKN038 15/11 Q1015
                        NOSIG=
201607280320 METAR COR EGLL 280320Z AUTO VRB03KT 9999 BKN039 16/11 Q1015
                        NOSIG=
201607280250 METAR COR EGLL 280250Z AUTO 35004KT 310V030 9999 BKN041 16/11
                        Q1015 NOSIG=
201607280220 METAR COR EGLL 280220Z AUTO VRB03KT 9999 BKN042 16/11 Q1015
                        NOSIG=
201607280150 METAR COR EGLL 280150Z AUTO 35003KT 9999 SCT042 17/11 Q1015
                        NOSIG=
201607280120 METAR COR EGLL 280120Z AUTO VRB03KT 9999 BKN041 17/11 Q1015
                        NOSIG=
201607280050 METAR COR EGLL 280050Z AUTO 03005KT 350V060 9999 BKN041 18/11
                        Q1015 NOSIG=
201607280020 METAR COR EGLL 280020Z AUTO 35002KT 9999 BKN040 18/11 Q1015
                        NOSIG=
201607272350 METAR COR EGLL 272350Z AUTO 04003KT 9999 BKN039 18/11 Q1015
                        NOSIG=
201607272320 METAR COR EGLL 272320Z AUTO 04006KT 9999 FEW039 19/11 Q1015
                        NOSIG=
201607272250 METAR COR EGLL 272250Z AUTO 03005KT 350V060 9999 BKN039 19/12
                        Q1015 NOSIG=
201607272220 METAR COR EGLL 272220Z AUTO 36004KT 330V030 9999 BKN040 20/12
                        Q1015 NOSIG=
201607272150 METAR COR EGLL 272150Z AUTO VRB03KT 9999 BKN039 21/13 Q1015
                        NOSIG=
201607272120 METAR COR EGLL 272120Z AUTO 36003KT 9999 BKN039 21/13 Q1015
                        NOSIG=
201607272050 METAR COR EGLL 272050Z AUTO 35005KT 300V040 9999 BKN036 21/13
                        Q1015 NOSIG=
201607272020 METAR COR EGLL 272020Z AUTO 36004KT 330V040 9999 BKN036 22/14
                        Q1015 NOSIG=
201607271950 METAR COR EGLL 271950Z AUTO VRB03KT 9999 BKN037/// //////CB
                        22/14 Q1014 NOSIG=
201607271920 METAR COR EGLL 271920Z AUTO 32003KT 9999 BKN036 23/14 Q1014
                        NOSIG=
201607271850 METAR COR EGLL 271850Z AUTO VRB03KT 9999 BKN036 23/15 Q1014
                        NOSIG=
201607271820 METAR COR EGLL 271820Z AUTO 31004KT 280V340 9999 BKN034///
                        //////CB 23/15 Q1014 NOSIG=
201607271750 METAR COR EGLL 271750Z AUTO 28008KT 250V320 9999 BKN035 23/15
                        Q1014 NOSIG=
201607271720 METAR COR EGLL 271720Z AUTO 24011KT 9999 BKN039 23/15 Q1014
                        NOSIG=
201607271650 METAR COR EGLL 271650Z AUTO 23011KT 190V260 9999 BKN034 24/15
                        Q1014 NOSIG=
201607271620 METAR COR EGLL 271620Z AUTO 23012KT 9999 SCT031/// //////CB
                        25/15 Q1014 NOSIG=
201607271550 METAR COR EGLL 271550Z AUTO 23012G22KT 9999 SCT032 25/16
                        Q1014 NOSIG=
201607271520 METAR COR EGLL 271520Z AUTO 23011KT 9999 FEW030 24/16 Q1014
                        NOSIG=
201607271450 METAR COR EGLL 271450Z AUTO 24011KT 9999 SCT025 24/16 Q1014
                        NOSIG=
201607271420 METAR EGLL 271420Z AUTO 21010G20KT 170V250 9999 BKN021 24/17
                        Q1015=
201607271350 METAR COR EGLL 271350Z AUTO 22010KT 190V260 9999 SCT020 23/17
                        Q1015 NOSIG=
201607271320 METAR COR EGLL 271320Z AUTO 24011KT 9999 FEW016 21/17 Q1015
                        NOSIG=
201607271250 METAR COR EGLL 271250Z AUTO 24010KT 9999 BKN017 BKN036 22/17
                        Q1015 NOSIG=
201607271220 METAR COR EGLL 271220Z AUTO 23010KT 9999 SCT015 BKN032 21/16
                        Q1015 NOSIG=
201607271150 METAR COR EGLL 271150Z AUTO 23012KT 9999 SCT014 OVC026 20/16
                        Q1015 NOSIG=
201607271120 METAR COR EGLL 271120Z AUTO 24011KT 9999 SCT014 BKN028 OVC039
                        20/17 Q1015 NOSIG=
201607271050 METAR COR EGLL 271050Z AUTO 24010KT 9999 BKN013 OVC026 19/16
                        Q1015 BECMG BKN015=
201607271020 METAR COR EGLL 271020Z AUTO 24012KT 9999 OVC012 19/16 Q1015
                        BECMG BKN015=
201607270950 METAR COR EGLL 270950Z AUTO 23011KT 9999 BKN010 19/17 Q1015
                        TEMPO BKN015=
201607270920 METAR COR EGLL 270920Z AUTO 23010KT 9999 BKN011 OVC022 19/17
                        Q1015 TEMPO BKN015=
201607270850 METAR COR EGLL 270850Z 23012KT 9999 SCT012 BKN018 18/17 Q1015
                        TEMPO BKN014=
201607270820 METAR COR EGLL 270820Z 23012KT 9999 FEW009 BKN012 18/17 Q1015
                        TEMPO BKN015=
201607270750 METAR COR EGLL 270750Z 23011KT 9999 FEW008 BKN011 18/17 Q1015
                        RERA REDZ TEMPO 4000 RADZ BKN008=
201607270720 METAR COR EGLL 270720Z 23012KT 4700 RADZ SCT008 BKN012 17/17
                        Q1015 TEMPO 7000 -RA SCT012=
201607270650 METAR COR EGLL 270650Z 23010KT 9000 -RA FEW009 SCT013 BKN023
                        17/17 Q1015 TEMPO 4000 RADZ BKN008=
201607270620 METAR COR EGLL 270620Z 23009KT 9999 -RA FEW009 BKN012 17/17
                        Q1015 RERA REDZ TEMPO 4000 RADZ BKN008=
201607270550 METAR COR EGLL 270550Z AUTO 22009KT 200V260 9999 -RA OVC011
                        18/15 Q1015 TEMPO RADZ=
201607270520 METAR COR EGLL 270520Z AUTO 21008KT 180V250 9999 BKN013 BKN027
                        18/15 Q1016 TEMPO RADZ=
201607270450 METAR COR EGLL 270450Z AUTO 22007KT 9999 BKN014 OVC030 17/15
                        Q1016 TEMPO SCT014=
201607270420 METAR COR EGLL 270420Z AUTO 22009KT 9999 SCT014 SCT025 BKN033
                        17/15 Q1016 TEMPO BKN014=
201607270350 METAR COR EGLL 270350Z AUTO 22008KT 9999 -RA SCT014 SCT045
                        17/15 Q1016 TEMPO BKN014=
201607270320 METAR COR EGLL 270320Z AUTO 22009KT 9999 BKN012 17/15 Q1016
                        NOSIG=
201607270250 METAR COR EGLL 270250Z AUTO 22009KT 9999 BKN013 OVC049 17/14
                        Q1017 NOSIG=
201607270220 METAR COR EGLL 270220Z AUTO 23009KT 9999 BKN012 17/14 Q1017
                        TEMPO BKN015=
201607270150 METAR COR EGLL 270150Z AUTO 20007KT 9999 FEW013 17/14 Q1017
                        TEMPO BKN012=
201607270120 METAR COR EGLL 270120Z AUTO 21007KT 9999 SCT013 17/14 Q1018
                        TEMPO BKN014=
201607270050 METAR COR EGLL 270050Z AUTO 21008KT 9999 NCD 17/14 Q1018
                        NOSIG=
201607270020 METAR COR EGLL 270020Z AUTO 21008KT 9999 FEW044 17/14 Q1018
                        NOSIG=
201607262350 METAR COR EGLL 262350Z AUTO 21007KT 9999 FEW043 17/14 Q1018
                        NOSIG=
201607262320 METAR COR EGLL 262320Z AUTO 20007KT 9999 NCD 18/14 Q1018
                        NOSIG=
201607262250 METAR COR EGLL 262250Z AUTO 23008KT 9999 NCD 18/14 Q1019
                        NOSIG=
201607262220 METAR COR EGLL 262220Z AUTO 24011KT 9999 NCD 19/14 Q1019
                        NOSIG=
201607262150 METAR COR EGLL 262150Z AUTO 23010KT 9999 NCD 19/14 Q1019
                        NOSIG=
201607262120 METAR COR EGLL 262120Z AUTO 24008KT 9999 FEW049 19/13 Q1019
                        NOSIG=
201607262050 METAR COR EGLL 262050Z AUTO 25009KT 9999 BKN048 20/13 Q1019
                        NOSIG=
201607262020 METAR COR EGLL 262020Z AUTO 25010KT 9999 FEW049 20/13 Q1019
                        NOSIG=
201607261950 METAR COR EGLL 261950Z AUTO 24009KT 9999 BKN045 20/13 Q1019
                        NOSIG=
201607261920 METAR COR EGLL 261920Z AUTO 25011KT 9999 NCD 21/13 Q1019
                        NOSIG=
201607261850 METAR COR EGLL 261850Z AUTO 25011KT 9999 FEW038 BKN048 21/12
                        Q1019 NOSIG=
201607261820 METAR COR EGLL 261820Z AUTO 25010KT 9999 BKN040 21/12 Q1019
                        NOSIG=
201607261750 METAR COR EGLL 261750Z AUTO 24011KT 9999 BKN039 21/12 Q1020
                        NOSIG=
201607261720 METAR COR EGLL 261720Z AUTO 25010KT 9999 NCD 21/11 Q1020
                        NOSIG=
201607261650 METAR COR EGLL 261650Z AUTO 25010KT 9999 FEW039 21/12 Q1020
                        NOSIG=
201607261620 METAR COR EGLL 261620Z AUTO 26008KT 230V300 9999 SCT038 BKN049
                        22/12 Q1020 NOSIG=
201607261550 METAR COR EGLL 261550Z AUTO 24010KT 210V280 9999 SCT038 22/12
                        Q1020 NOSIG=
201607261520 METAR COR EGLL 261520Z AUTO 25007KT 200V290 9999 OVC038 21/12
                        Q1020 NOSIG=
201607261450 METAR EGLL 261450Z AUTO 24007KT 9999 BKN039 21/11 Q1021=
201607261420 METAR COR EGLL 261420Z AUTO 23007KT 170V270 9999 SCT041 21/11
                        Q1021 NOSIG=
201607261350 METAR COR EGLL 261350Z AUTO 22009KT 160V250 9999 SCT040 23/11
                        Q1021 NOSIG=
201607261320 METAR COR EGLL 261320Z AUTO 22008KT 170V250 9999 BKN039 23/11
                        Q1021 NOSIG=
201607261250 METAR COR EGLL 261250Z AUTO 25007KT 220V300 9999 BKN038 22/11
                        Q1021 NOSIG=
201607261220 METAR COR EGLL 261220Z AUTO 22008KT 180V250 9999 SCT036 22/11
                        Q1021 NOSIG=
201607261150 METAR COR EGLL 261150Z AUTO 23010KT 180V270 9999 FEW038 22/11
                        Q1021 NOSIG=
201607261120 METAR COR EGLL 261120Z AUTO 25007KT 200V320 9999 SCT036 22/11
                        Q1021 NOSIG=
201607261050 METAR COR EGLL 261050Z AUTO 26006KT 200V300 9999 FEW033 21/11
                        Q1021 NOSIG=
201607261020 METAR COR EGLL 261020Z AUTO 23007KT 160V290 9999 FEW033 21/11
                        Q1022 NOSIG=
201607260950 METAR COR EGLL 260950Z AUTO 25007KT 220V280 9999 NCD 20/12
                        Q1022 NOSIG=
201607260920 METAR COR EGLL 260920Z AUTO 26004KT 150V310 9999 FEW026 19/12
                        Q1022 NOSIG=
201607260850 METAR COR EGLL 260850Z AUTO 25006KT 210V310 9999 NCD 19/12
                        Q1022 NOSIG=
201607260820 METAR COR EGLL 260820Z AUTO 29005KT 250V320 9999 NCD 18/13
                        Q1022 NOSIG=
201607260750 METAR COR EGLL 260750Z AUTO 28005KT 9999 NCD 17/13 Q1022
                        NOSIG=
201607260720 METAR COR EGLL 260720Z AUTO 26006KT 230V290 9999 NCD 17/13
                        Q1022 NOSIG=
201607260650 METAR COR EGLL 260650Z AUTO 27006KT 9999 NCD 16/13 Q1022
                        NOSIG=
201607260620 METAR COR EGLL 260620Z AUTO 27005KT 9999 NCD 15/12 Q1022
                        NOSIG=
201607260550 METAR COR EGLL 260550Z AUTO 27005KT 230V300 9999 NCD 15/12
                        Q1022 NOSIG=
201607260520 METAR COR EGLL 260520Z AUTO 26004KT 230V290 9999 NCD 14/12
                        Q1021 NOSIG=
201607260450 METAR COR EGLL 260450Z AUTO 27005KT 9999 NCD 13/13 Q1021
                        NOSIG=
201607260420 METAR COR EGLL 260420Z AUTO 28006KT 9999 NCD 13/12 Q1021
                        NOSIG=
201607260350 METAR COR EGLL 260350Z AUTO 27006KT 9999 NCD 13/12 Q1021
                        NOSIG=
201607260320 METAR COR EGLL 260320Z AUTO 27006KT 9999 FEW040 13/12 Q1021
                        NOSIG=
201607260250 METAR COR EGLL 260250Z AUTO 26005KT 9999 FEW039 14/12 Q1021
                        NOSIG=
201607260220 METAR COR EGLL 260220Z AUTO 26005KT 9999 BKN036 14/12 Q1021
                        NOSIG=
201607260150 METAR COR EGLL 260150Z AUTO 27006KT 9999 BKN037 15/12 Q1021
                        NOSIG=
201607260120 METAR COR EGLL 260120Z AUTO 27006KT 9999 SCT036 15/12 Q1021
                        NOSIG=
201607260050 METAR COR EGLL 260050Z AUTO 26008KT 9999 NCD 15/12 Q1021
                        NOSIG=
201607260020 METAR COR EGLL 260020Z AUTO 26007KT 9999 NCD 16/12 Q1021
                        NOSIG=
201607252350 METAR COR EGLL 252350Z AUTO 26009KT 9999 NCD 16/12 Q1021
                        NOSIG=
201607252320 METAR COR EGLL 252320Z AUTO 26009KT 9999 SCT049 17/12 Q1021
                        NOSIG=
201607252250 METAR COR EGLL 252250Z AUTO 26010KT 9999 OVC046 17/12 Q1021
                        NOSIG=
201607252220 METAR COR EGLL 252220Z AUTO 27009KT 9999 OVC041 18/11 Q1021
                        NOSIG=
201607252150 METAR COR EGLL 252150Z AUTO 27011KT 9999 OVC037 18/12 Q1021
                        NOSIG=
201607252120 METAR COR EGLL 252120Z AUTO 28008KT 9999 BKN041 18/13 Q1021
                        NOSIG=
201607252050 METAR COR EGLL 252050Z AUTO 28012KT 9999 FEW035 BKN042 19/13
                        Q1021 NOSIG=
201607252020 METAR COR EGLL 252020Z AUTO 29006KT 9999 BKN042 20/11 Q1020
                        NOSIG=
201607251950 METAR COR EGLL 251950Z AUTO 29006KT 9999 BKN045 21/10 Q1020
                        NOSIG=
201607251920 METAR COR EGLL 251920Z AUTO 28007KT 9999 NCD 21/10 Q1020
                        NOSIG=
201607251850 METAR COR EGLL 251850Z AUTO 28009KT 260V320 9999 NCD 21/10
                        Q1020 NOSIG=
201607251820 METAR COR EGLL 251820Z AUTO 28010KT 9999 NCD 21/10 Q1019
                        NOSIG=
201607251750 METAR COR EGLL 251750Z AUTO 27011KT 9999 NCD 22/09 Q1019
                        NOSIG=
201607251720 METAR COR EGLL 251720Z AUTO 28010KT 9999 NCD 23/08 Q1019
                        NOSIG=
201607251650 METAR COR EGLL 251650Z AUTO 29010KT 9999 NCD 23/08 Q1019
                        NOSIG=
201607251620 METAR COR EGLL 251620Z AUTO 27011KT 230V310 9999 NCD 22/10
                        Q1019 NOSIG=
201607251550 METAR COR EGLL 251550Z AUTO 27013KT 9999 NCD 23/09 Q1019
                        NOSIG=
201607251520 METAR COR EGLL 251520Z AUTO 26012KT 9999 NCD 23/09 Q1019
                        NOSIG=
201607251450 METAR COR EGLL 251450Z AUTO 27013KT 240V310 9999 NCD 24/09
                        Q1019 NOSIG=
201607251420 METAR COR EGLL 251420Z AUTO 25011KT 9999 NCD 22/09 Q1019
                        NOSIG=
201607251350 METAR COR EGLL 251350Z AUTO 26011KT 220V310 9999 NCD 23/09
                        Q1019 NOSIG=
201607251320 METAR COR EGLL 251320Z AUTO 25010KT 220V300 9999 SCT048 22/09
                        Q1019 NOSIG=
201607251250 METAR COR EGLL 251250Z AUTO 25010KT 220V290 9999 NCD 23/09
                        Q1020 NOSIG=
201607251220 METAR COR EGLL 251220Z AUTO 24012KT 210V270 9999 SCT043 22/10
                        Q1020 NOSIG=
201607251150 METAR COR EGLL 251150Z AUTO 25010KT 220V280 9999 BKN040 23/09
                        Q1020 NOSIG=
201607251120 METAR COR EGLL 251120Z AUTO 27008KT 230V330 9999 BKN040 22/10
                        Q1020 NOSIG=
201607251050 METAR COR EGLL 251050Z AUTO 27010KT 9999 BKN034 22/11 Q1020
                        NOSIG=
201607251020 METAR COR EGLL 251020Z AUTO 27008KT 9999 SCT029 21/11 Q1020
                        NOSIG=
201607250950 METAR COR EGLL 250950Z AUTO 26008KT 230V320 9999 SCT025 20/12
                        Q1020 NOSIG=
201607250920 METAR COR EGLL 250920Z AUTO 26008KT 220V320 9999 SCT021 20/13
                        Q1020 NOSIG=
201607250850 METAR COR EGLL 250850Z AUTO 26008KT 230V300 9999 FEW016 19/13
                        Q1020 NOSIG=
201607250820 METAR COR EGLL 250820Z AUTO 27008KT 240V310 9999 FEW014 18/13
                        Q1019 NOSIG=
201607250750 METAR COR EGLL 250750Z AUTO 26010KT 9999 FEW012 18/14 Q1019
                        NOSIG=
201607250720 METAR COR EGLL 250720Z AUTO 27008KT 9999 NCD 17/13 Q1019
                        NOSIG=
201607250650 METAR COR EGLL 250650Z AUTO 27009KT 9999 SCT010 16/13 Q1019
                        NOSIG=
201607250620 METAR COR EGLL 250620Z AUTO 26009KT 9999 FEW012 16/13 Q1019
                        NOSIG=
201607250550 METAR COR EGLL 250550Z AUTO 26007KT 9999 SCT011 15/13 Q1019
                        NOSIG=
201607250520 METAR COR EGLL 250520Z AUTO 25007KT 9999 NCD 15/13 Q1019
                        NOSIG=
201607250450 METAR COR EGLL 250450Z AUTO 27006KT 9999 NCD 15/13 Q1019
                        NOSIG=
201607250420 METAR COR EGLL 250420Z AUTO 25008KT 9999 NCD 15/13 Q1018
                        NOSIG=
201607250350 METAR COR EGLL 250350Z AUTO 24006KT 9999 NCD 15/13 Q1018
                        NOSIG=
201607250320 METAR COR EGLL 250320Z AUTO 24006KT 9999 NCD 15/13 Q1018
                        NOSIG=
201607250250 METAR COR EGLL 250250Z AUTO 26007KT 9999 NCD 16/13 Q1018
                        NOSIG=
201607250220 METAR COR EGLL 250220Z AUTO 27007KT 9999 FEW032 15/13 Q1019
                        NOSIG=
201607250150 METAR COR EGLL 250150Z AUTO 27008KT 9999 BKN031 16/13 Q1019
                        NOSIG=
201607250120 METAR COR EGLL 250120Z AUTO 26009KT 9999 OVC027 16/13 Q1019
                        NOSIG=
201607250050 METAR COR EGLL 250050Z AUTO 27009KT 9999 BKN018 16/13 Q1018
                        NOSIG=
201607250020 METAR COR EGLL 250020Z AUTO 28011KT 9999 BKN009 17/15 Q1018
                        BECMG BKN020=
201607242350 METAR COR EGLL 242350Z 29010KT 9999 FEW008 BKN020 17/17 Q1018
                        NOSIG=
201607242320 METAR COR EGLL 242320Z 24008KT 6000 BKN005 19/19 Q1018 BECMG
                        BKN012=
201607242250 METAR COR EGLL 242250Z 23007KT 7000 -DZ FEW005 BKN009 18/18
                        Q1018 BECMG BKN012=
201607242220 METAR COR EGLL 242220Z 22007KT 4000 -DZ OVC006 19/18 Q1018
                        BECMG 9999 BKN014=
201607242150 METAR COR EGLL 242150Z AUTO 23008KT 9999 OVC007 19/17 Q1018
                        TEMPO SCT007 BKN012=
201607242120 METAR COR EGLL 242120Z AUTO 22008KT 9999 OVC008 19/17 Q1018
                        TEMPO SCT008 BKN012=
201607242050 METAR COR EGLL 242050Z AUTO 22010KT 9999 OVC010 19/16 Q1018
                        TEMPO BKN008=
201607242020 METAR COR EGLL 242020Z AUTO 22011KT 9999 OVC011 19/16 Q1018
                        TEMPO BKN008=
201607241950 METAR COR EGLL 241950Z AUTO 21012KT 9999 BKN012 19/16 Q1018
                        NOSIG=
201607241920 METAR COR EGLL 241920Z AUTO 21011KT 9999 OVC013 20/16 Q1018
                        NOSIG=
201607241850 METAR COR EGLL 241850Z AUTO 22013KT 9999 OVC014 20/16 Q1018
                        NOSIG=
201607241820 METAR COR EGLL 241820Z AUTO 22011KT 9999 BKN017 21/16 Q1018
                        TEMPO BKN014=
201607241750 METAR COR EGLL 241750Z AUTO 20014KT 9999 FEW020 21/16 Q1017
                        NOSIG=
201607241720 METAR COR EGLL 241720Z AUTO 22012KT 9999 BKN020 22/16 Q1017
                        NOSIG=
201607241650 METAR COR EGLL 241650Z AUTO 22011KT 190V260 9999 BKN023 22/16
                        Q1017 NOSIG=
201607241620 METAR COR EGLL 241620Z AUTO 21012KT 9999 BKN025 23/15 Q1018
                        NOSIG=
201607241550 METAR COR EGLL 241550Z AUTO 24011KT 9999 FEW010 BKN026 OVC044
                        23/15 Q1018 NOSIG=
201607241520 METAR COR EGLL 241520Z AUTO 23013KT 9999 FEW014 BKN027 23/15
                        Q1018 NOSIG=
201607241450 METAR EGLL 241450Z AUTO 23013KT 190V260 9999 BKN029 23/15
                        Q1018=
201607241420 METAR COR EGLL 241420Z AUTO 23012KT 190V260 9999 SCT033 24/14
                        Q1018 NOSIG=
201607241350 METAR COR EGLL 241350Z AUTO 23013KT 9999 SCT038 24/13 Q1018
                        NOSIG=
201607241320 METAR COR EGLL 241320Z AUTO 22014KT 180V250 9999 FEW035 BKN049
                        24/13 Q1018 NOSIG=
201607241250 METAR COR EGLL 241250Z AUTO 22013KT 180V250 9999 OVC031 24/14
                        Q1018 NOSIG=
201607241220 METAR COR EGLL 241220Z AUTO 22012KT 9999 BKN028 23/14 Q1018
                        NOSIG=
201607241150 METAR COR EGLL 241150Z AUTO 22010KT 180V260 9999 BKN028 24/14
                        Q1019 NOSIG=
201607241120 METAR COR EGLL 241120Z AUTO 24011KT 200V270 9999 SCT023 BKN039
                        23/15 Q1019 NOSIG=
201607241050 METAR COR EGLL 241050Z AUTO 23009KT 190V260 9999 SCT021 BKN037
                        22/15 Q1019 NOSIG=
201607241020 METAR COR EGLL 241020Z AUTO 24009KT 9999 BKN022 22/15 Q1019
                        NOSIG=
201607240950 METAR COR EGLL 240950Z AUTO 25012KT 9999 SCT018 BKN032 21/15
                        Q1019 NOSIG=
201607240920 METAR COR EGLL 240920Z AUTO 23008KT 180V270 9999 SCT017 BKN039
                        21/15 Q1019 NOSIG=
201607240850 METAR COR EGLL 240850Z AUTO 23008G18KT 180V260 9999 FEW018
                        OVC036 20/15 Q1020 NOSIG=
201607240820 METAR COR EGLL 240820Z AUTO 24009KT 9999 FEW014 OVC037 20/15
                        Q1020 NOSIG=
201607240750 METAR COR EGLL 240750Z AUTO 26010KT 9999 SCT014 BKN037 19/15
                        Q1020 NOSIG=
201607240720 METAR COR EGLL 240720Z AUTO 25007KT 220V290 9999 NCD 19/15
                        Q1020 NOSIG=
201607240650 METAR COR EGLL 240650Z AUTO 26007KT 9999 NCD 17/14 Q1020
                        NOSIG=
201607240620 METAR COR EGLL 240620Z AUTO 27007KT 9999 NCD 17/14 Q1019
                        NOSIG=
201607240550 METAR COR EGLL 240550Z AUTO 25005KT 9999 NCD 16/13 Q1019
                        NOSIG=
201607240520 METAR COR EGLL 240520Z AUTO 25006KT 9999 NCD 16/13 Q1019
                        NOSIG=
201607240450 METAR COR EGLL 240450Z AUTO 25005KT 9999 NCD 15/13 Q1019
                        NOSIG=
201607240420 METAR COR EGLL 240420Z AUTO 25004KT 9999 NCD 15/13 Q1019
                        NOSIG=
201607240350 METAR COR EGLL 240350Z AUTO 26005KT 9999 NCD 15/13 Q1019
                        NOSIG=
201607240320 METAR COR EGLL 240320Z AUTO 26006KT 9999 NCD 16/13 Q1019
                        NOSIG=
201607240250 METAR COR EGLL 240250Z AUTO 24004KT 9999 NCD 16/13 Q1019
                        NOSIG=
201607240220 METAR COR EGLL 240220Z AUTO 23004KT 9999 NCD 16/13 Q1019
                        NOSIG=
201607240150 METAR COR EGLL 240150Z AUTO 27006KT 9999 NCD 17/13 Q1020
                        NOSIG=
201607240120 METAR COR EGLL 240120Z AUTO 26005KT 9999 FEW037 17/13 Q1020
                        NOSIG=
201607240050 METAR COR EGLL 240050Z AUTO 25006KT 9999 FEW035 17/14 Q1020
                        NOSIG=
201607240020 METAR COR EGLL 240020Z AUTO 24004KT 9999 BKN034 17/14 Q1020
                        NOSIG=
201607232350 METAR COR EGLL 232350Z AUTO 23005KT 9999 NCD 18/13 Q1020
                        NOSIG=
201607232320 METAR COR EGLL 232320Z AUTO 23006KT 9999 NCD 18/14 Q1020
                        NOSIG=
201607232250 METAR COR EGLL 232250Z AUTO 21005KT 9999 NCD 18/14 Q1020
                        NOSIG=
201607232220 METAR COR EGLL 232220Z AUTO 21006KT 9999 NCD 19/14 Q1020
                        NOSIG=
201607232150 METAR COR EGLL 232150Z AUTO 22007KT 9999 FEW030 20/14 Q1020
                        NOSIG=
201607232120 METAR COR EGLL 232120Z AUTO 22008KT 9999 SCT030 21/14 Q1020
                        NOSIG=
201607232050 METAR COR EGLL 232050Z AUTO 21009KT 9999 NCD 21/14 Q1020
                        NOSIG=
201607232020 METAR COR EGLL 232020Z AUTO 21009KT 170V240 9999 NCD 21/14
                        Q1020 NOSIG=
201607231950 METAR COR EGLL 231950Z AUTO 22009KT 9999 NCD 22/13 Q1020
                        NOSIG=
201607231920 METAR COR EGLL 231920Z AUTO 22011KT 9999 NCD 23/14 Q1019
                        NOSIG=
201607231850 METAR COR EGLL 231850Z AUTO 23011KT 9999 NCD 24/14 Q1019
                        NOSIG=
201607231820 METAR COR EGLL 231820Z AUTO 23011KT 9999 NCD 25/14 Q1019
                        NOSIG=
201607231750 METAR COR EGLL 231750Z AUTO 22011KT 9999 NCD 26/13 Q1019
                        NOSIG=
201607231720 METAR COR EGLL 231720Z AUTO 23011KT 200V260 9999 NCD 27/13
                        Q1019 NOSIG=
201607231650 METAR COR EGLL 231650Z AUTO 21011G22KT 9999 NCD 27/13 Q1019
                        NOSIG=
201607231620 METAR COR EGLL 231620Z AUTO 21010KT 180V250 9999 NCD 27/13
                        Q1019 NOSIG=
201607231550 METAR COR EGLL 231550Z AUTO 22009KT 190V250 9999 NCD 28/12
                        Q1019 NOSIG=
201607231520 METAR COR EGLL 231520Z AUTO 21009KT 170V250 9999 FEW049 27/13
                        Q1019 NOSIG=
201607231450 METAR COR EGLL 231450Z AUTO 21009KT 170V270 9999 SCT046 28/14
                        Q1019 NOSIG=
201607231420 METAR COR EGLL 231420Z AUTO 23008KT 170V290 9999 FEW047 28/14
                        Q1019 NOSIG=
201607231350 METAR COR EGLL 231350Z AUTO 24010KT 200V280 9999 NCD 27/14
                        Q1020 NOSIG=
201607231320 METAR COR EGLL 231320Z AUTO 20007KT 150V250 9999 SCT047 28/14
                        Q1020 NOSIG=
201607231250 METAR COR EGLL 231250Z AUTO 22006KT 150V320 9999 FEW048 28/14
                        Q1020 NOSIG=
201607231220 METAR COR EGLL 231220Z AUTO 20006G16KT 140V240 9999 NCD 28/13
                        Q1020 NOSIG=
201607231150 METAR COR EGLL 231150Z AUTO VRB07KT 9999 FEW045 27/14 Q1020
                        NOSIG=
201607231120 METAR COR EGLL 231120Z AUTO VRB04KT 9999 FEW041 27/14 Q1020
                        NOSIG=
201607231050 METAR COR EGLL 231050Z AUTO VRB04KT 9999 FEW037 26/15 Q1020
                        NOSIG=
201607231020 METAR COR EGLL 231020Z AUTO 21006KT 150V270 9999 NCD 25/15
                        Q1020 NOSIG=
201607230950 METAR COR EGLL 230950Z AUTO VRB03KT 9999 NCD 24/16 Q1020
                        NOSIG=
201607230920 METAR COR EGLL 230920Z AUTO VRB04KT 9999 NCD 24/16 Q1020
                        NOSIG=
201607230850 METAR COR EGLL 230850Z AUTO VRB03KT 9999 NCD 23/17 Q1020
                        NOSIG=
201607230820 METAR COR EGLL 230820Z AUTO VRB02KT 9999 NCD 22/16 Q1020
                        NOSIG=
201607230750 METAR COR EGLL 230750Z AUTO VRB02KT 9999 NCD 21/16 Q1020
                        NOSIG=
201607230720 METAR COR EGLL 230720Z AUTO VRB02KT 9999 NCD 20/16 Q1020
                        NOSIG=
201607230650 METAR COR EGLL 230650Z AUTO VRB02KT 9999 NCD 18/16 Q1020
                        NOSIG=
201607230620 METAR COR EGLL 230620Z AUTO 28004KT 9999 NCD 18/16 Q1020
                        NOSIG=
201607230550 METAR COR EGLL 230550Z AUTO VRB02KT 9999 NCD 17/16 Q1020
                        NOSIG=
201607230520 METAR COR EGLL 230520Z AUTO VRB02KT 9999 NCD 16/16 Q1020
                        NOSIG=
201607230450 METAR COR EGLL 230450Z AUTO 27005KT 9000 NCD 16/16 Q1020
                        NOSIG=
201607230420 METAR COR EGLL 230420Z AUTO 27002KT 9999 NCD 15/15 Q1019
                        NOSIG=
201607230350 METAR COR EGLL 230350Z AUTO 29001KT 9999 NCD 15/15 Q1019
                        NOSIG=
201607230320 METAR COR EGLL 230320Z AUTO 00000KT 9999 NCD 16/15 Q1020
                        NOSIG=
201607230250 METAR COR EGLL 230250Z AUTO 09001KT 9999 NCD 16/15 Q1020
                        NOSIG=
201607230220 METAR EGLL 230220Z AUTO 09001KT 9999 NCD 16/15 Q1020=
201607230150 METAR EGLL 230150Z AUTO VRB01KT 9999 NCD 16/14 Q1020=
201607230120 METAR COR EGLL 230120Z AUTO 24003KT 9999 NCD 17/15 Q1020
                        NOSIG=
201607230050 METAR COR EGLL 230050Z AUTO 22003KT 9999 NCD 18/15 Q1020
                        NOSIG=
201607230020 METAR COR EGLL 230020Z AUTO VRB03KT 9999 NCD 17/15 Q1020
                        NOSIG=
201607222350 METAR COR EGLL 222350Z AUTO 22004KT 9999 NCD 19/15 Q1020
                        NOSIG=
201607222320 METAR COR EGLL 222320Z AUTO 21004KT 9999 NCD 19/15 Q1020
                        NOSIG=
201607222250 METAR COR EGLL 222250Z AUTO 19005KT 9999 NCD 19/16 Q1020
                        NOSIG=
201607222220 METAR COR EGLL 222220Z AUTO 21005KT 9999 NCD 20/16 Q1019
                        NOSIG=
201607222150 METAR COR EGLL 222150Z AUTO 21005KT 170V250 9999 FEW035 20/16
                        Q1020 NOSIG=
201607222120 METAR COR EGLL 222120Z AUTO VRB03KT 9999 NCD 21/16 Q1020
                        NOSIG=
201607222050 METAR COR EGLL 222050Z AUTO 15004KT 110V190 9999 NCD 21/16
                        Q1020 NOSIG=
201607222020 METAR COR EGLL 222020Z AUTO 14004KT 100V170 9999 NCD 21/16
                        Q1019 NOSIG=
201607221950 METAR COR EGLL 221950Z AUTO 17005KT 130V230 9999 NCD 21/16
                        Q1019 NOSIG=
201607221920 METAR COR EGLL 221920Z AUTO 22005KT 190V280 9999 NCD 22/15
                        Q1019 NOSIG=
201607221850 METAR COR EGLL 221850Z AUTO 22004KT 150V270 9999 NCD 22/15
                        Q1019 NOSIG=
201607221820 METAR COR EGLL 221820Z AUTO 22005KT 180V280 9999 NCD 23/15
                        Q1019 NOSIG=
201607221750 METAR COR EGLL 221750Z AUTO 20005KT 170V250 9999 FEW036 23/16
                        Q1018 NOSIG=
201607221720 METAR COR EGLL 221720Z AUTO 20005KT 120V270 9999 NCD 23/15
                        Q1018 NOSIG=
201607221650 METAR COR EGLL 221650Z AUTO 20005KT 150V230 9999 NCD 23/14
                        Q1018 NOSIG=
201607221620 METAR COR EGLL 221620Z AUTO 18005KT 130V240 9999 NCD 23/15
                        Q1019 NOSIG=
201607221550 METAR COR EGLL 221550Z AUTO 18004KT 120V240 9999 FEW041 23/15
                        Q1019 NOSIG=
201607221520 METAR COR EGLL 221520Z AUTO VRB02KT 9999 NCD 23/15 Q1019
                        NOSIG=
201607221450 METAR COR EGLL 221450Z AUTO VRB01KT 9999 FEW041/// //////CB
                        23/15 Q1019 TEMPO SHRA=
201607221420 METAR COR EGLL 221420Z AUTO VRB03KT 9999 SCT036 23/15 Q1019
                        TEMPO SHRA=
201607221350 METAR COR EGLL 221350Z AUTO VRB02KT 9999 -RA BKN037 22/15
                        Q1019 TEMPO SHRA=
201607221320 METAR COR EGLL 221320Z AUTO VRB02KT 9999 BKN038 23/14 Q1019
                        TEMPO SHRA=
201607221250 METAR COR EGLL 221250Z AUTO VRB02KT 9999 SCT035 SCT049 23/14
                        Q1018 TEMPO SHRA=
201607221220 METAR COR EGLL 221220Z AUTO VRB02KT 9999 SCT034 23/15 Q1018
                        TEMPO SHRA=
201607221150 METAR COR EGLL 221150Z AUTO 36004KT 310V050 9999 FEW031 SCT044
                        23/15 Q1018 TEMPO SHRA=
201607221120 METAR COR EGLL 221120Z AUTO VRB03KT 9999 BKN027 23/15 Q1018
                        TEMPO SHRA=
201607221050 METAR COR EGLL 221050Z AUTO VRB03KT 9999 SCT018 SCT047 23/16
                        Q1018 TEMPO SHRA=
201607221020 METAR COR EGLL 221020Z AUTO VRB02KT 9999 FEW019 22/17 Q1018
                        TEMPO SHRA=
201607220950 METAR COR EGLL 220950Z AUTO VRB02KT 9999 FEW015 21/17 Q1018
                        TEMPO SHRA=
201607220920 METAR COR EGLL 220920Z AUTO VRB02KT 9999 FEW014 20/17 Q1018
                        NOSIG=
201607220850 METAR COR EGLL 220850Z AUTO VRB03KT 9000 FEW011 20/17 Q1018
                        NOSIG=
201607220820 METAR COR EGLL 220820Z AUTO VRB02KT 9999 NCD 19/17 Q1018
                        NOSIG=
201607220750 METAR COR EGLL 220750Z AUTO VRB02KT 9999 NCD 19/16 Q1018
                        NOSIG=
201607220720 METAR COR EGLL 220720Z AUTO VRB02KT 9000 NCD 18/16 Q1018
                        NOSIG=
201607220650 METAR COR EGLL 220650Z VRB01KT CAVOK 18/16 Q1018 NOSIG=
201607220620 METAR COR EGLL 220620Z VRB03KT CAVOK 18/17 Q1018 NOSIG=
201607220550 METAR COR EGLL 220550Z AUTO VRB03KT 9999 //////CB 18/17 Q1018
                        NOSIG=
201607220520 METAR COR EGLL 220520Z AUTO VRB02KT 9999 //////CB 17/17 Q1018
                        NOSIG=
201607220450 METAR COR EGLL 220450Z AUTO 06004KT 9999 -RA //////TCU 17/16
                        Q1017 NOSIG=
201607220420 METAR COR EGLL 220420Z AUTO 35003KT 9999 -RA NCD 17/15 Q1017
                        NOSIG=
201607220350 METAR COR EGLL 220350Z AUTO 35003KT 9999 -RA NCD 17/15 Q1017
                        NOSIG=
201607220320 METAR COR EGLL 220320Z AUTO 35004KT 9999 -RA NCD 18/15 Q1017
                        NOSIG=
201607220250 METAR COR EGLL 220250Z 36005KT 9999 -RA FEW013 18/15 Q1017
                        NOSIG=
201607220220 METAR COR EGLL 220220Z 36004KT CAVOK 18/15 Q1017 NOSIG=
201607220150 METAR COR EGLL 220150Z AUTO VRB03KT 9999 NCD 18/15 Q1018
                        NOSIG=
201607220120 METAR COR EGLL 220120Z AUTO 34004KT 310V030 9999 NCD 18/15
                        Q1018 NOSIG=
201607220050 METAR COR EGLL 220050Z AUTO 33004KT 300V360 9999 NCD 18/14
                        Q1018 NOSIG=
201607220020 METAR COR EGLL 220020Z AUTO 31005KT 9999 -RA NCD 18/14 Q1018
                        NOSIG=
201607212350 METAR COR EGLL 212350Z AUTO 31005KT 290V350 9999 -RA NCD
                        18/14 Q1018 NOSIG=
201607212320 METAR COR EGLL 212320Z AUTO 32005KT 280V350 9999 NCD 19/14
                        Q1018 NOSIG=
201607212250 METAR COR EGLL 212250Z AUTO 32006KT 280V030 9999 NCD 19/13
                        Q1018 NOSIG=
201607212220 METAR COR EGLL 212220Z AUTO 31006KT 9999 NCD 20/13 Q1018
                        NOSIG=
201607212150 METAR COR EGLL 212150Z AUTO 31005KT 9999 NCD 20/14 Q1018
                        NOSIG=
201607212120 METAR COR EGLL 212120Z AUTO 30005KT 9999 NCD 21/14 Q1017
                        NOSIG=
201607212050 METAR COR EGLL 212050Z AUTO 31005KT 9999 NCD 21/13 Q1017
                        NOSIG=
201607212020 METAR COR EGLL 212020Z AUTO 31005KT 9999 NCD 22/13 Q1017
                        NOSIG=
201607211950 METAR COR EGLL 211950Z AUTO 30005KT 270V330 9999 NCD 22/13
                        Q1017 NOSIG=
201607211920 METAR COR EGLL 211920Z AUTO 32005KT 9999 NCD 23/12 Q1017
                        NOSIG=
201607211850 METAR COR EGLL 211850Z AUTO 30006KT 9999 NCD 23/11 Q1016
                        NOSIG=
201607211820 METAR COR EGLL 211820Z AUTO 31006KT 9999 NCD 23/11 Q1016
                        NOSIG=
201607211750 METAR COR EGLL 211750Z AUTO 31006KT 9999 NCD 23/11 Q1016
                        NOSIG=
201607211720 METAR COR EGLL 211720Z AUTO 31006KT 9999 NCD 24/11 Q1016
                        NOSIG=
201607211650 METAR COR EGLL 211650Z AUTO 31006KT 270V340 9999 NCD 24/11
                        Q1016 NOSIG=
201607211620 METAR COR EGLL 211620Z AUTO 30006KT 250V350 9999 NCD 25/11
                        Q1016 NOSIG=
201607211550 METAR COR EGLL 211550Z AUTO 31006KT 260V360 9999 FEW049 25/11
                        Q1016 NOSIG=
201607211520 METAR COR EGLL 211520Z AUTO 27007KT 240V330 9999 NCD 25/11
                        Q1016 NOSIG=
201607211450 METAR COR EGLL 211450Z AUTO 24008KT 9999 NCD 25/12 Q1016
                        NOSIG=
201607211420 METAR COR EGLL 211420Z AUTO 31004KT 250V020 9999 FEW046 24/12
                        Q1016 NOSIG=
201607211350 METAR COR EGLL 211350Z AUTO VRB06KT 9999 BKN044 25/12 Q1016
                        NOSIG=
201607211320 METAR COR EGLL 211320Z AUTO 30005KT 250V030 9999 BKN045 24/12
                        Q1016 NOSIG=
201607211250 METAR COR EGLL 211250Z AUTO 29005KT 240V330 9999 FEW040 24/12
                        Q1016 NOSIG=
201607211220 METAR COR EGLL 211220Z AUTO VRB03KT 9999 BKN035 22/12 Q1016
                        NOSIG=
201607211150 METAR COR EGLL 211150Z AUTO VRB03KT 9999 BKN032 21/13 Q1016
                        NOSIG=
201607211120 METAR COR EGLL 211120Z AUTO 26004KT 190V010 9999 BKN031 22/14
                        Q1016 NOSIG=
201607211050 METAR COR EGLL 211050Z AUTO VRB02KT 9999 BKN025 21/14 Q1016
                        NOSIG=
201607211020 METAR COR EGLL 211020Z AUTO VRB02KT 9999 SCT023 BKN042 21/14
                        Q1017 NOSIG=
201607210950 METAR COR EGLL 210950Z AUTO VRB03KT 9999 FEW021 SCT039 20/14
                        Q1017 NOSIG=
201607210920 METAR COR EGLL 210920Z AUTO VRB03KT 9999 FEW020 BKN031 19/14
                        Q1017 NOSIG=
201607210850 METAR COR EGLL 210850Z AUTO VRB02KT 9999 BKN029 18/14 Q1017
                        NOSIG=
201607210820 METAR COR EGLL 210820Z AUTO 29004KT 250V340 9999 BKN026 17/14
                        Q1017 NOSIG=
201607210750 METAR COR EGLL 210750Z AUTO VRB03KT 9999 BKN023 17/14 Q1016
                        NOSIG=
201607210720 METAR COR EGLL 210720Z AUTO 28005KT 9999 SCT023 16/13 Q1016
                        NOSIG=
201607210650 METAR COR EGLL 210650Z AUTO 29006KT 9999 NCD 16/13 Q1016
                        NOSIG=
201607210620 METAR EGLL 210620Z AUTO 27006KT 9999 FEW040 16/13 Q1016 NOSIG=
201607210550 METAR COR EGLL 210550Z AUTO 28005KT 9999 BKN037 15/13 Q1015
                        NOSIG=
201607210520 METAR COR EGLL 210520Z AUTO 27005KT 9999 BKN035 15/13 Q1015
                        NOSIG=
201607210450 METAR COR EGLL 210450Z AUTO 27005KT 9999 BKN033 15/13 Q1015
                        NOSIG=
201607210420 METAR COR EGLL 210420Z AUTO 26007KT 9999 FEW033 15/13 Q1015
                        NOSIG=
201607210350 METAR COR EGLL 210350Z AUTO 27007KT 9999 FEW032 14/13 Q1015
                        NOSIG=
201607210320 METAR COR EGLL 210320Z AUTO 27008KT 9999 BKN030 15/13 Q1014
                        NOSIG=
201607210250 METAR COR EGLL 210250Z AUTO 26008KT 9999 NCD 15/13 Q1014
                        NOSIG=
201607210220 METAR COR EGLL 210220Z AUTO 26008KT 9999 NCD 15/13 Q1014
                        NOSIG=
201607210150 METAR COR EGLL 210150Z AUTO 27008KT 9999 NCD 15/13 Q1014
                        NOSIG=
201607210120 METAR COR EGLL 210120Z AUTO 27007KT 9999 NCD 15/13 Q1014
                        NOSIG=
201607210050 METAR COR EGLL 210050Z AUTO 27008KT 9999 NCD 15/13 Q1014
                        NOSIG=
201607210020 METAR COR EGLL 210020Z AUTO 27010KT 9999 NCD 16/12 Q1014
                        NOSIG=
201607202350 METAR COR EGLL 202350Z AUTO 27010KT 9999 NCD 16/12 Q1014
                        NOSIG=
201607202320 METAR COR EGLL 202320Z AUTO 27010KT 9999 NCD 17/12 Q1014
                        NOSIG=
201607202250 METAR COR EGLL 202250Z AUTO 28010KT 9999 NCD 17/13 Q1014
                        NOSIG=
201607202220 METAR COR EGLL 202220Z AUTO 28011KT 9999 NCD 19/13 Q1014
                        NOSIG=
201607202150 METAR COR EGLL 202150Z AUTO 29010KT 9999 NCD 20/14 Q1013
                        NOSIG=
201607202120 METAR COR EGLL 202120Z AUTO 28010KT 9999 NCD 21/14 Q1013
                        NOSIG=
201607202050 METAR COR EGLL 202050Z AUTO 29008KT 9999 NCD 21/14 Q1013
                        NOSIG=
201607202020 METAR COR EGLL 202020Z AUTO 29009KT 9999 NCD 22/14 Q1012
                        NOSIG=
201607201950 METAR COR EGLL 201950Z AUTO 28012KT 9999 NCD 23/14 Q1012
                        NOSIG=
201607201920 METAR COR EGLL 201920Z AUTO 29012KT 9999 NCD 24/14 Q1011
                        NOSIG=
201607201850 METAR COR EGLL 201850Z AUTO 28012KT 9999 NCD 25/14 Q1011
                        NOSIG=
201607201820 METAR COR EGLL 201820Z AUTO 28014KT 9999 NCD 27/14 Q1010
                        NOSIG=
201607201750 METAR COR EGLL 201750Z AUTO 27014KT 9999 NCD 27/12 Q1010
                        NOSIG=
201607201720 METAR COR EGLL 201720Z AUTO 27012KT 9999 NCD 28/13 Q1010
                        NOSIG=
201607201650 METAR COR EGLL 201650Z AUTO 26013KT 9999 NCD 29/12 Q1010
                        NOSIG=
201607201620 METAR COR EGLL 201620Z AUTO 26017KT 9999 NCD 30/12 Q1010
                        NOSIG=
201607201550 METAR COR EGLL 201550Z AUTO 27012KT 230V290 9999 NCD 30/13
                        Q1010 NOSIG=
201607201520 METAR COR EGLL 201520Z AUTO 24013KT 9999 NCD 30/15 Q1009
                        NOSIG=
201607201450 METAR COR EGLL 201450Z AUTO 26013KT 9999 FEW048 30/15 Q1009
                        NOSIG=
201607201420 METAR COR EGLL 201420Z AUTO 24013KT 210V270 9999 FEW044 30/16
                        Q1009 NOSIG=
201607201350 METAR COR EGLL 201350Z AUTO 25013KT 9999 FEW039 30/17 Q1009
                        NOSIG=
201607201320 METAR COR EGLL 201320Z AUTO 25015KT 9999 FEW034 29/18 Q1009
                        NOSIG=
201607201250 METAR COR EGLL 201250Z AUTO 27011KT 240V300 9999 FEW029 28/18
                        Q1009 NOSIG=
201607201220 METAR EGLL 201220Z AUTO 26013KT 9999 FEW028/// 27/18 Q1009=
201607201150 METAR EGLL 201150Z AUTO 26010KT 230V300 9999 FEW020/// 25/18
                        Q1009=
201607201120 METAR EGLL 201120Z AUTO 24013KT 9999 SCT019 24/17 Q1009 NOSIG=
201607201050 METAR COR EGLL 201050Z AUTO 23014KT 9999 BKN017 23/17 Q1009
                        NOSIG=
201607201020 METAR COR EGLL 201020Z AUTO 22012KT 9999 BKN016 22/17 Q1008
                        NOSIG=
201607200950 METAR COR EGLL 200950Z AUTO 23012KT 9999 BKN016 22/17 Q1008
                        NOSIG=
201607200920 METAR COR EGLL 200920Z AUTO 20014KT 170V250 9999 BKN014 22/17
                        Q1008 BECMG BKN018=
201607200850 METAR COR EGLL 200850Z AUTO 19015G25KT 160V240 9000 BKN014
                        22/18 Q1008 BECMG BKN019=
201607200820 METAR COR EGLL 200820Z AUTO 20014KT 170V240 9999 BKN015 23/18
                        Q1007 TEMPO BKN013=
201607200750 METAR COR EGLL 200750Z AUTO 18013KT 150V240 9000 FEW018 24/18
                        Q1007 NOSIG=
201607200720 METAR COR EGLL 200720Z AUTO 19009KT 160V250 9999 NCD 23/17
                        Q1007 NOSIG=
201607200650 METAR COR EGLL 200650Z AUTO 19008KT 170V240 9999 NCD 23/17
                        Q1007 NOSIG=
201607200620 METAR COR EGLL 200620Z AUTO 20008KT 9999 NCD 23/16 Q1007
                        NOSIG=
201607200550 METAR COR EGLL 200550Z AUTO 17009KT 9999 NCD 24/16 Q1007
                        NOSIG=
201607200520 METAR COR EGLL 200520Z AUTO 16009KT 9999 NCD 24/16 Q1007
                        NOSIG=
201607200450 METAR COR EGLL 200450Z AUTO 13009KT 9999 NCD 24/16 Q1007
                        NOSIG=
201607200420 METAR COR EGLL 200420Z AUTO 13008KT 9999 NCD 23/16 Q1007
                        NOSIG=
201607200350 METAR COR EGLL 200350Z AUTO 08004KT 9999 NCD 22/16 Q1008
                        NOSIG=
201607200320 METAR COR EGLL 200320Z AUTO 09003KT 9999 NCD 21/16 Q1008
                        NOSIG=
201607200250 METAR COR EGLL 200250Z AUTO 09005KT 9999 NCD 22/16 Q1009
                        NOSIG=
201607200220 METAR COR EGLL 200220Z AUTO 09006KT 9999 NCD 22/16 Q1009
                        NOSIG=
201607200150 METAR COR EGLL 200150Z AUTO 08007KT 9999 NCD 23/17 Q1010
                        NOSIG=
201607200120 METAR COR EGLL 200120Z AUTO 08005KT 9999 NCD 23/17 Q1010
                        NOSIG=
201607200050 METAR EGLL 200050Z AUTO 07004KT 9999 NCD 23/17 Q1011=
201607200020 METAR COR EGLL 200020Z AUTO 09005KT 9999 NCD 23/17 Q1011
                        NOSIG=
201607192350 METAR COR EGLL 192350Z AUTO 09006KT 9999 NCD 23/16 Q1011
                        NOSIG=
201607192320 METAR COR EGLL 192320Z AUTO 08006KT 9999 NCD 23/16 Q1012
                        NOSIG=
201607192250 METAR COR EGLL 192250Z AUTO 09007KT 9999 NCD 23/17 Q1012
                        NOSIG=
201607192220 METAR COR EGLL 192220Z AUTO 09008KT 9999 NCD 24/17 Q1012
                        NOSIG=
201607192150 METAR COR EGLL 192150Z AUTO 09008KT 9999 NCD 24/17 Q1013
                        NOSIG=
201607192120 METAR COR EGLL 192120Z AUTO 09010KT 9999 NCD 25/17 Q1013
                        NOSIG=
201607192050 METAR EGLL 192050Z AUTO 09010KT 9999 NCD 26/18 Q1013 NOSIG=
201607192020 METAR COR EGLL 192020Z AUTO 09010KT 9999 NCD 26/16 Q1013
                        NOSIG=
201607191950 METAR COR EGLL 191950Z AUTO 11009KT 9999 NCD 27/16 Q1013
                        NOSIG=
201607191920 METAR COR EGLL 191920Z AUTO 11009KT 9999 NCD 29/14 Q1014
                        NOSIG=
201607191850 METAR COR EGLL 191850Z AUTO 12010KT 9999 NCD 30/13 Q1014
                        NOSIG=
201607191820 METAR COR EGLL 191820Z AUTO 13011KT 9999 NCD 31/13 Q1014
                        NOSIG=
201607191750 METAR COR EGLL 191750Z AUTO 12011KT 9999 NCD 31/14 Q1014
                        NOSIG=
201607191720 METAR COR EGLL 191720Z AUTO 13009KT 090V170 9999 NCD 32/13
                        Q1014 NOSIG=
201607191650 METAR COR EGLL 191650Z AUTO 15009KT 9999 NCD 32/13 Q1014
                        NOSIG=
201607191620 METAR COR EGLL 191620Z AUTO 15010KT 100V190 9999 NCD 32/14
                        Q1015 NOSIG=
201607191550 METAR COR EGLL 191550Z AUTO 14010KT 9999 NCD 32/14 Q1015
                        NOSIG=
201607191520 METAR COR EGLL 191520Z AUTO 16012KT 9999 NCD 32/14 Q1015
                        NOSIG=
201607191450 METAR COR EGLL 191450Z 17011KT CAVOK 32/14 Q1015 NOSIG=
201607191420 METAR COR EGLL 191420Z 17011KT CAVOK 32/14 Q1016 NOSIG=
201607191350 METAR COR EGLL 191350Z 17012KT CAVOK 32/14 Q1016 NOSIG=
201607191320 METAR COR EGLL 191320Z AUTO 16011KT 9999 NCD 32/14 Q1016
                        NOSIG=
201607191250 METAR COR EGLL 191250Z AUTO 15010KT 110V170 9999 NCD 32/16
                        Q1016 NOSIG=
201607191220 METAR COR EGLL 191220Z AUTO 14011KT 9999 NCD 31/16 Q1017
                        NOSIG=
201607191150 METAR COR EGLL 191150Z AUTO 15011KT 120V190 9999 NCD 31/17
                        Q1017 NOSIG=
201607191120 METAR COR EGLL 191120Z AUTO 16011KT 120V180 9999 NCD 31/17
                        Q1017 NOSIG=
201607191050 METAR COR EGLL 191050Z AUTO 16009KT 9999 NCD 30/17 Q1018
                        NOSIG=
201607191020 METAR COR EGLL 191020Z AUTO 14008KT 9999 NCD 29/17 Q1018
                        NOSIG=
201607190950 METAR COR EGLL 190950Z AUTO 16008KT 140V200 9999 NCD 29/17
                        Q1018 NOSIG=
201607190920 METAR COR EGLL 190920Z AUTO 12007KT 090V160 9999 NCD 28/17
                        Q1018 NOSIG=
201607190850 METAR COR EGLL 190850Z AUTO 11005KT 080V140 9999 NCD 27/17
                        Q1018 NOSIG=
201607190820 METAR COR EGLL 190820Z AUTO 12004KT 090V160 9999 NCD 26/17
                        Q1018 NOSIG=
201607190750 METAR COR EGLL 190750Z AUTO 10004KT 070V130 9999 NCD 24/17
                        Q1018 NOSIG=
201607190720 METAR COR EGLL 190720Z AUTO 10005KT 9999 NCD 23/17 Q1019
                        NOSIG=
201607190650 METAR COR EGLL 190650Z AUTO 09005KT 060V120 9999 NCD 22/17
                        Q1019 NOSIG=
201607190620 METAR COR EGLL 190620Z AUTO 08004KT 9999 NCD 21/16 Q1019
                        NOSIG=
201607190550 METAR COR EGLL 190550Z AUTO 06004KT 9999 NCD 20/16 Q1019
                        NOSIG=
201607190520 METAR COR EGLL 190520Z AUTO 07003KT 9999 NCD 19/16 Q1019
                        NOSIG=
201607190450 METAR COR EGLL 190450Z AUTO 06002KT 9999 NCD 18/15 Q1019
                        NOSIG=
201607190420 METAR COR EGLL 190420Z AUTO 06003KT 9999 NCD 16/14 Q1019
                        NOSIG=
201607190350 METAR COR EGLL 190350Z AUTO 08004KT 9999 NCD 17/14 Q1019
                        NOSIG=
201607190320 METAR COR EGLL 190320Z AUTO 08003KT 9999 NCD 17/15 Q1019
                        NOSIG=
201607190250 METAR COR EGLL 190250Z AUTO 08003KT 9999 NCD 17/16 Q1019
                        NOSIG=
201607190220 METAR COR EGLL 190220Z AUTO 07002KT 9999 NCD 17/16 Q1020
                        NOSIG=
201607190150 METAR COR EGLL 190150Z AUTO 08003KT 9999 NCD 17/16 Q1020
                        NOSIG=
201607190120 METAR COR EGLL 190120Z AUTO VRB02KT 9999 NCD 19/16 Q1020
                        NOSIG=
201607190050 METAR COR EGLL 190050Z AUTO 09003KT 9999 NCD 18/16 Q1020
                        NOSIG=
201607190020 METAR COR EGLL 190020Z AUTO 12001KT 9999 NCD 19/16 Q1020
                        NOSIG=
201607182350 METAR COR EGLL 182350Z AUTO 15003KT 9999 NCD 19/16 Q1020
                        NOSIG=
201607182320 METAR COR EGLL 182320Z AUTO 13002KT 9999 NCD 19/16 Q1021
                        NOSIG=
201607182250 METAR COR EGLL 182250Z AUTO 15002KT 9999 NCD 20/16 Q1021
                        NOSIG=
201607182220 METAR COR EGLL 182220Z AUTO 15003KT 9999 NCD 21/16 Q1021
                        NOSIG=
201607182150 METAR COR EGLL 182150Z AUTO 18005KT 130V200 9999 NCD 22/17
                        Q1021 NOSIG=
201607182120 METAR COR EGLL 182120Z AUTO 20007KT 9999 NCD 23/17 Q1020
                        NOSIG=
201607182050 METAR COR EGLL 182050Z AUTO 20009KT 160V220 9999 NCD 23/17
                        Q1020 NOSIG=
201607182020 METAR COR EGLL 182020Z AUTO 20009KT 120V250 9999 NCD 24/17
                        Q1020 NOSIG=
201607181950 METAR COR EGLL 181950Z AUTO 16006G17KT 120V200 9999 NCD 26/14
                        Q1020 NOSIG=
201607181920 METAR COR EGLL 181920Z AUTO 18005KT 120V250 9999 NCD 28/07
                        Q1020 NOSIG=
201607181850 METAR COR EGLL 181850Z AUTO VRB03KT 9999 NCD 28/06 Q1020
                        NOSIG=
201607181820 METAR COR EGLL 181820Z AUTO VRB03KT 9999 NCD 29/06 Q1020
                        NOSIG=
201607181750 METAR COR EGLL 181750Z AUTO VRB03KT 9999 NCD 29/07 Q1020
                        NOSIG=
201607181720 METAR COR EGLL 181720Z AUTO 19004KT 140V240 9999 NCD 29/07
                        Q1020 NOSIG=
201607181650 METAR COR EGLL 181650Z AUTO VRB03KT 9999 NCD 29/05 Q1020
                        NOSIG=
201607181620 METAR COR EGLL 181620Z AUTO VRB05KT 9999 NCD 29/06 Q1020
                        NOSIG=
201607181550 METAR COR EGLL 181550Z AUTO 13004KT 050V210 9999 NCD 29/06
                        Q1020 NOSIG=
201607181520 METAR COR EGLL 181520Z AUTO 17005KT 080V210 9999 NCD 29/03
                        Q1021 NOSIG=
201607181450 METAR COR EGLL 181450Z AUTO VRB03KT 9999 NCD 29/05 Q1021
                        NOSIG=
201607181420 METAR COR EGLL 181420Z AUTO VRB04KT 9999 NCD 28/05 Q1021
                        NOSIG=
201607181350 METAR COR EGLL 181350Z AUTO 19004KT 100V240 9999 NCD 28/07
                        Q1021 NOSIG=
201607181320 METAR COR EGLL 181320Z AUTO 20005KT 130V260 9999 NCD 27/07
                        Q1022 NOSIG=
201607181250 METAR COR EGLL 181250Z AUTO 24005KT 140V320 9999 NCD 26/08
                        Q1022 NOSIG=
201607181220 METAR COR EGLL 181220Z AUTO 19004KT 140V300 9999 NCD 26/11
                        Q1022 NOSIG=
201607181150 METAR COR EGLL 181150Z AUTO VRB04KT 9999 NCD 26/13 Q1022
                        NOSIG=
201607181120 METAR COR EGLL 181120Z AUTO 20005KT 140V270 9999 NCD 25/13
                        Q1022 NOSIG=
201607181050 METAR COR EGLL 181050Z 25006KT 210V340 CAVOK 24/14 Q1022
                        NOSIG=
201607181020 METAR COR EGLL 181020Z AUTO VRB02KT 9999 NCD 24/15 Q1022
                        NOSIG=
201607180950 METAR COR EGLL 180950Z AUTO VRB03KT 9999 NCD 23/15 Q1022
                        NOSIG=
201607180920 METAR COR EGLL 180920Z AUTO VRB03KT 9999 NCD 22/14 Q1022
                        NOSIG=
201607180850 METAR COR EGLL 180850Z AUTO 32004KT 280V050 9999 NCD 21/15
                        Q1022 NOSIG=
201607180820 METAR COR EGLL 180820Z AUTO VRB03KT 9999 NCD 21/15 Q1022
                        NOSIG=
201607180750 METAR COR EGLL 180750Z AUTO VRB02KT 9999 NCD 20/15 Q1022
                        NOSIG=
201607180720 METAR COR EGLL 180720Z AUTO 27004KT 9999 NCD 19/15 Q1022
                        NOSIG=
201607180650 METAR COR EGLL 180650Z VRB03KT 9999 3500W PRFG NSC 18/16
                        Q1022 NOSIG=
201607180620 METAR COR EGLL 180620Z VRB03KT 8000 3200W PRFG FEW001 18/17
                        Q1022 NOSIG=
201607180550 METAR COR EGLL 180550Z 28003KT 7000 2000NW PRFG FEW001 17/17
                        Q1022 NOSIG=
201607180520 METAR COR EGLL 180520Z AUTO VRB02KT 6000 NCD 16/16 Q1022
                        NOSIG=
201607180450 METAR COR EGLL 180450Z AUTO 29003KT 7000 NCD 16/16 Q1022
                        NOSIG=
201607180420 METAR COR EGLL 180420Z AUTO 30002KT 7000 NCD 16/16 Q1022
                        TEMPO 4500 BR=
201607180350 METAR COR EGLL 180350Z AUTO 28004KT 8000 NCD 16/16 Q1022
                        TEMPO 4500 BR=
201607180320 METAR COR EGLL 180320Z AUTO 28005KT 8000 NCD 16/16 Q1022
                        NOSIG=
201607180250 METAR COR EGLL 180250Z AUTO 29003KT 9999 NCD 16/16 Q1022
                        NOSIG=
201607180220 METAR COR EGLL 180220Z AUTO 27003KT 9999 NCD 17/17 Q1022
                        NOSIG=
201607180150 METAR COR EGLL 180150Z AUTO 28003KT 9999 NCD 17/17 Q1022
                        NOSIG=
201607180120 METAR COR EGLL 180120Z AUTO 28005KT 9999 NCD 17/17 Q1022
                        NOSIG=
201607180050 METAR COR EGLL 180050Z AUTO 28003KT 9999 NCD 17/17 Q1022
                        NOSIG=
201607180020 METAR COR EGLL 180020Z AUTO 27006KT 9999 NCD 18/16 Q1022
                        NOSIG=
201607172350 METAR COR EGLL 172350Z AUTO 27004KT 9999 NCD 18/16 Q1022
                        NOSIG=
201607172320 METAR COR EGLL 172320Z AUTO 27006KT 9999 NCD 19/16 Q1022
                        NOSIG=
201607172250 METAR COR EGLL 172250Z AUTO 28005KT 9999 NCD 19/16 Q1022
                        NOSIG=
201607172220 METAR COR EGLL 172220Z AUTO 29005KT 9999 NCD 19/16 Q1022
                        NOSIG=
201607172150 METAR COR EGLL 172150Z AUTO 28007KT 9999 NCD 20/16 Q1022
                        NOSIG=
201607172120 METAR COR EGLL 172120Z AUTO 28008KT 9999 NCD 20/16 Q1022
                        NOSIG=
201607172050 METAR COR EGLL 172050Z AUTO 28009KT 9999 NCD 21/16 Q1022
                        NOSIG=
201607172020 METAR COR EGLL 172020Z AUTO 28009KT 9999 NCD 22/16 Q1022
                        NOSIG=
201607171950 METAR COR EGLL 171950Z AUTO 27011KT 9999 NCD 23/16 Q1021
                        NOSIG=
201607171920 METAR COR EGLL 171920Z AUTO 27012KT 9999 NCD 24/16 Q1021
                        NOSIG=
201607171850 METAR COR EGLL 171850Z AUTO 27012KT 9999 NCD 24/15 Q1021
                        NOSIG=
201607171820 METAR COR EGLL 171820Z AUTO 27012KT 9999 NCD 25/15 Q1021
                        NOSIG=
201607171750 METAR COR EGLL 171750Z AUTO 28011KT 9999 FEW041 25/15 Q1021
                        NOSIG=
201607171720 METAR COR EGLL 171720Z AUTO 27014KT 9999 FEW039 26/16 Q1021
                        NOSIG=
201607171650 METAR COR EGLL 171650Z AUTO 28015KT 9999 FEW041 26/15 Q1021
                        NOSIG=
201607171620 METAR COR EGLL 171620Z AUTO 27013KT 9999 BKN038 26/16 Q1021
                        NOSIG=
201607171550 METAR COR EGLL 171550Z AUTO 27015KT 9999 FEW039 26/16 Q1021
                        NOSIG=
201607171520 METAR COR EGLL 171520Z AUTO 26013KT 9999 FEW035 26/16 Q1021
                        NOSIG=
201607171450 METAR COR EGLL 171450Z AUTO 27012KT 230V300 9999 FEW042 26/16
                        Q1021 NOSIG=
201607171420 METAR COR EGLL 171420Z AUTO 27015KT 9999 FEW040 26/16 Q1022
                        NOSIG=
201607171350 METAR COR EGLL 171350Z AUTO 27011KT 9999 NCD 26/16 Q1022
                        NOSIG=
201607171320 METAR COR EGLL 171320Z AUTO 28011KT 9999 BKN037 25/16 Q1022
                        NOSIG=
201607171250 METAR COR EGLL 171250Z AUTO 26012KT 9999 SCT032 BKN047 25/16
                        Q1022 NOSIG=
201607171220 METAR COR EGLL 171220Z AUTO 26012KT 9999 SCT028 BKN040 26/17
                        Q1022 NOSIG=
201607171150 METAR COR EGLL 171150Z AUTO 25010KT 9999 SCT024 25/17 Q1022
                        NOSIG=
201607171120 METAR COR EGLL 171120Z AUTO 26011KT 9999 SCT023 24/17 Q1022
                        NOSIG=
201607171050 METAR COR EGLL 171050Z AUTO 26012KT 220V290 9999 BKN021 23/17
                        Q1023 NOSIG=
201607171020 METAR COR EGLL 171020Z AUTO 25011KT 9999 FEW020 23/17 Q1023
                        NOSIG=
201607170950 METAR COR EGLL 170950Z AUTO 26010KT 9999 SCT019 23/17 Q1023
                        NOSIG=
201607170920 METAR COR EGLL 170920Z AUTO 27010KT 9999 NCD 22/17 Q1023
                        NOSIG=
201607170850 METAR COR EGLL 170850Z AUTO 25010KT 210V270 9999 FEW014 22/17
                        Q1023 NOSIG=
201607170820 METAR COR EGLL 170820Z AUTO 25009KT 9999 SCT012 21/17 Q1023
                        NOSIG=
201607170750 METAR COR EGLL 170750Z AUTO 26007KT 9999 FEW012 20/17 Q1023
                        NOSIG=
201607170720 METAR COR EGLL 170720Z AUTO 27008KT 230V300 9999 SCT011 20/17
                        Q1023 NOSIG=
201607170650 METAR COR EGLL 170650Z AUTO 27008KT 9999 BKN011 20/17 Q1023
                        TEMPO SCT012=
201607170620 METAR COR EGLL 170620Z AUTO 29006KT 9999 OVC010 19/17 Q1023
                        TEMPO SCT012=
201607170550 METAR COR EGLL 170550Z AUTO 28009KT 9999 OVC010 19/17 Q1023
                        TEMPO SCT012=
201607170520 METAR COR EGLL 170520Z AUTO 25006KT 9999 OVC011 19/17 Q1023
                        TEMPO SCT011=
201607170450 METAR COR EGLL 170450Z AUTO 24006KT 9999 BKN009 19/17 Q1023
                        BECMG BKN013=
201607170420 METAR COR EGLL 170420Z AUTO 25005KT 9999 SCT011 18/17 Q1023
                        TEMPO BKN012=
201607170350 METAR COR EGLL 170350Z AUTO 26005KT 9999 SCT010 18/17 Q1023
                        TEMPO BKN012=
201607170320 METAR COR EGLL 170320Z AUTO 27007KT 9999 OVC011 19/17 Q1023
                        TEMPO BKN009=
201607170250 METAR COR EGLL 170250Z AUTO 27007KT 9999 OVC010 19/17 Q1023
                        TEMPO BKN009=
201607170220 METAR COR EGLL 170220Z AUTO 27007KT 250V020 9999 OVC010 19/17
                        Q1023 TEMPO BKN009=
201607170150 METAR COR EGLL 170150Z AUTO 28006KT 9999 OVC011 18/17 Q1023
                        TEMPO BKN009=
201607170120 METAR COR EGLL 170120Z 27008KT 9999 BKN013 18/17 Q1023 TEMPO
                        SCT012=
201607170050 METAR COR EGLL 170050Z AUTO 27008KT 9999 BKN010 18/17 Q1023
                        TEMPO SCT012=
201607170020 METAR COR EGLL 170020Z AUTO 27008KT 9999 NCD 18/17 Q1023
                        TEMPO BKN012=
201607162350 METAR COR EGLL 162350Z AUTO 26009KT 9999 NCD 18/17 Q1023
                        TEMPO BKN012=
201607162320 METAR COR EGLL 162320Z AUTO 27009KT 9999 NCD 19/17 Q1023
                        TEMPO BKN012=
201607162250 METAR COR EGLL 162250Z AUTO 26009KT 9999 NCD 19/16 Q1023
                        NOSIG=
201607162220 METAR COR EGLL 162220Z AUTO 26012KT 9999 NCD 20/16 Q1024
                        NOSIG=
201607162150 METAR COR EGLL 162150Z AUTO 27010KT 9999 NCD 20/17 Q1024
                        NOSIG=
201607162120 METAR COR EGLL 162120Z AUTO 27012KT 9999 NCD 20/17 Q1024
                        NOSIG=
201607162050 METAR COR EGLL 162050Z AUTO 27010KT 9999 NCD 21/17 Q1024
                        NOSIG=
201607162020 METAR COR EGLL 162020Z AUTO 27013KT 9999 NCD 21/17 Q1024
                        NOSIG=
201607161950 METAR COR EGLL 161950Z AUTO 28010KT 9999 NCD 22/17 Q1023
                        NOSIG=
201607161920 METAR COR EGLL 161920Z AUTO 29012KT 9999 NCD 23/17 Q1023
                        NOSIG=
201607161850 METAR COR EGLL 161850Z AUTO 28010KT 9999 FEW031 23/17 Q1023
                        NOSIG=
201607161820 METAR COR EGLL 161820Z AUTO 27011KT 9999 NCD 24/17 Q1023
                        NOSIG=
201607161750 METAR COR EGLL 161750Z AUTO 28013KT 9999 NCD 23/17 Q1023
                        NOSIG=
201607161720 METAR COR EGLL 161720Z AUTO 28012KT 9999 FEW034 24/16 Q1023
                        NOSIG=
201607161650 METAR COR EGLL 161650Z AUTO 27012KT 9999 NCD 25/16 Q1023
                        NOSIG=
201607161620 METAR COR EGLL 161620Z AUTO 29011KT 9999 FEW035 25/16 Q1023
                        NOSIG=
201607161550 METAR COR EGLL 161550Z AUTO 27011KT 240V320 9999 SCT034 26/16
                        Q1023 NOSIG=
201607161520 METAR COR EGLL 161520Z AUTO 26010KT 220V280 9999 FEW035 25/17
                        Q1024 NOSIG=
201607161450 METAR COR EGLL 161450Z AUTO 26011KT 9999 FEW034 25/17 Q1024
                        NOSIG=
201607161420 METAR COR EGLL 161420Z AUTO 28009KT 250V320 9999 NCD 25/16
                        Q1024 NOSIG=
201607161350 METAR COR EGLL 161350Z AUTO 26011KT 230V290 9999 SCT030 26/17
                        Q1024 NOSIG=
201607161320 METAR COR EGLL 161320Z AUTO 26010KT 9999 SCT029 25/17 Q1024
                        NOSIG=
201607161250 METAR COR EGLL 161250Z AUTO 26009KT 220V300 9999 BKN028 25/16
                        Q1024 NOSIG=
201607161220 METAR COR EGLL 161220Z AUTO 25011KT 220V280 9999 FEW026 25/17
                        Q1025 NOSIG=
201607161150 METAR COR EGLL 161150Z AUTO 24010KT 200V290 9999 BKN023 25/17
                        Q1025 NOSIG=
201607161120 METAR COR EGLL 161120Z AUTO 25010KT 230V290 9999 SCT023 24/17
                        Q1025 NOSIG=
201607161050 METAR COR EGLL 161050Z AUTO 25011KT 9999 FEW022 23/17 Q1025
                        NOSIG=
201607161020 METAR EGLL 161020Z AUTO 24008KT 210V270 9999 FEW019 23/16
                        Q1025=
201607160950 METAR COR EGLL 160950Z AUTO 24009KT 200V280 9999 SCT018 22/16
                        Q1025 NOSIG=
201607160920 METAR COR EGLL 160920Z AUTO 23009KT 9999 SCT016 21/16 Q1025
                        NOSIG=
201607160850 METAR COR EGLL 160850Z AUTO 24009KT 9999 BKN013 20/16 Q1026
                        BECMG SCT016=
201607160820 METAR COR EGLL 160820Z AUTO 23008KT 200V270 9999 OVC011 19/16
                        Q1026 BECMG BKN015=
201607160750 METAR COR EGLL 160750Z AUTO 25010KT 9999 OVC011 18/15 Q1026
                        NOSIG=
201607160720 METAR COR EGLL 160720Z AUTO 26012KT 9999 OVC011 18/15 Q1026
                        NOSIG=
201607160650 METAR COR EGLL 160650Z AUTO 25010KT 9999 OVC010 18/15 Q1026
                        NOSIG=
201607160620 METAR COR EGLL 160620Z AUTO 24010KT 9999 OVC009 18/15 Q1025
                        BECMG BKN011=
201607160550 METAR COR EGLL 160550Z AUTO 24009KT 9999 OVC010 18/15 Q1025
                        NOSIG=
201607160520 METAR COR EGLL 160520Z AUTO 25010KT 9999 OVC009 17/15 Q1025
                        BECMG BKN012=
201607160450 METAR COR EGLL 160450Z AUTO 24008KT 9999 OVC011 17/15 Q1025
                        NOSIG=
201607160420 METAR COR EGLL 160420Z AUTO 24007KT 9999 OVC010 17/15 Q1025
                        NOSIG=
201607160350 METAR COR EGLL 160350Z AUTO 25009KT 9999 OVC011 17/15 Q1025
                        NOSIG=
201607160320 METAR COR EGLL 160320Z AUTO 26008KT 9999 OVC011 17/15 Q1025
                        NOSIG=
201607160250 METAR COR EGLL 160250Z AUTO 27010KT 9999 OVC010 17/15 Q1025
                        TEMPO BKN009=
201607160220 METAR COR EGLL 160220Z AUTO 26009KT 9999 OVC008 18/16 Q1025
                        TEMPO BKN010=
201607160150 METAR COR EGLL 160150Z AUTO 27012KT 9999 OVC009 17/16 Q1025
                        TENPO BKN010=
201607160120 METAR COR EGLL 160120Z AUTO 27010KT 9999 OVC010 18/16 Q1026
                        TEMPO BKN009=
201607160050 METAR COR EGLL 160050Z AUTO 26010KT 9999 OVC009 18/15 Q1026
                        TEMPO BKN012=
201607160020 METAR COR EGLL 160020Z AUTO 26010KT 9999 OVC010 18/16 Q1025
                        TEMPO BKN009=
201607152350 METAR COR EGLL 152350Z AUTO 26011KT 9999 OVC010 18/16 Q1025
                        TEMPO BKN009=
201607152320 METAR COR EGLL 152320Z AUTO 26010KT 9999 OVC010 18/15 Q1025
                        TEMPO BKN009=
201607152250 METAR COR EGLL 152250Z AUTO 26011KT 9999 OVC010 18/15 Q1025
                        TEMPO BKN009=
201607152220 METAR COR EGLL 152220Z AUTO 25011KT 9999 OVC011 18/15 Q1025
                        TEMPO BKN009=
201607152150 METAR COR EGLL 152150Z AUTO 25011KT 9999 OVC011 18/15 Q1025
                        NOSIG=
201607152120 METAR COR EGLL 152120Z AUTO 26012KT 9999 OVC012 18/15 Q1025
                        NOSIG=
201607152050 METAR COR EGLL 152050Z AUTO 25011KT 9999 OVC013 18/15 Q1025
                        NOSIG=
201607152020 METAR COR EGLL 152020Z AUTO 25012KT 9999 OVC015 19/15 Q1025
                        TEMPO BKN014=
201607151950 METAR COR EGLL 151950Z AUTO 26012KT 9999 BKN016 19/15 Q1025
                        TEMPO BKN014=
201607151920 METAR COR EGLL 151920Z AUTO 24010KT 9999 OVC017 19/15 Q1025
                        TEMPO BKN014=
201607151850 METAR COR EGLL 151850Z AUTO 24010KT 210V270 9999 OVC016 18/14
                        Q1025 TEMPO BKN014=
201607151820 METAR COR EGLL 151820Z AUTO 23011KT 9999 OVC016 18/14 Q1025
                        TEMPO BKN013=
201607151750 METAR COR EGLL 151750Z AUTO 23009KT 9999 OVC014 18/14 Q1025
                        TEMPO BKN016=
201607151720 METAR COR EGLL 151720Z AUTO 24010KT 9999 OVC012 17/14 Q1026
                        TEMPO BKN015=
201607151650 METAR COR EGLL 151650Z AUTO 24010KT 9999 OVC010 17/14 Q1026
                        TEMPO BKN015=
201607151620 METAR COR EGLL 151620Z AUTO 24010KT 9999 BKN008 BKN019 17/15
                        Q1026 BECMG FEW008 BKN019=
201607151550 METAR COR EGLL 151550Z AUTO 26012KT 3900 -RA SCT008 SCT014
                        17/15 Q1026 TEMPO 8000 NSW BKN014=
201607151520 METAR COR EGLL 151520Z AUTO 25011KT 9999 OVC019 18/13 Q1026
                        NOSIG=
201607151450 METAR COR EGLL 151450Z AUTO 26012KT 9999 OVC022 19/13 Q1026
                        TEMPO 5000 -RADZ BKN014=
201607151420 METAR COR EGLL 151420Z AUTO 25011KT 9999 BKN023 18/12 Q1026
                        NOSIG=
201607151350 METAR COR EGLL 151350Z AUTO 26011KT 9999 BKN024 19/13 Q1026
                        NOSIG=
201607151320 METAR COR EGLL 151320Z AUTO 25010KT 220V280 9999 OVC023 19/12
                        Q1026 NOSIG=
201607151250 METAR COR EGLL 151250Z AUTO 26011KT 9999 OVC024 18/12 Q1027
                        NOSIG=
201607151220 METAR COR EGLL 151220Z AUTO 25011KT 9999 BKN027 19/11 Q1027
                        NOSIG=
201607151150 METAR COR EGLL 151150Z AUTO 25010KT 220V280 9999 BKN030 19/11
                        Q1027 NOSIG=
201607151120 METAR COR EGLL 151120Z AUTO 27010KT 230V290 9999 BKN031 18/09
                        Q1027 NOSIG=
201607151050 METAR COR EGLL 151050Z AUTO 25009KT 9999 BKN036 19/09 Q1027
                        NOSIG=
201607151020 METAR COR EGLL 151020Z AUTO 26007KT 220V290 9999 NCD 19/08
                        Q1027 NOSIG=
201607150950 METAR COR EGLL 150950Z AUTO 26008KT 220V280 9999 NCD 19/09
                        Q1027 NOSIG=
201607150920 METAR COR EGLL 150920Z AUTO 26009KT 9999 NCD 18/10 Q1027
                        NOSIG=
201607150850 METAR COR EGLL 150850Z AUTO 24007KT 210V280 9999 NCD 17/10
                        Q1026 NOSIG=
201607150820 METAR COR EGLL 150820Z AUTO 26007KT 9999 NCD 16/10 Q1027
                        NOSIG=
201607150750 METAR COR EGLL 150750Z AUTO 25006KT 9999 NCD 16/10 Q1027
                        NOSIG=
201607150720 METAR COR EGLL 150720Z AUTO 27005KT 230V320 9999 NCD 15/10
                        Q1027 NOSIG=
201607150650 METAR COR EGLL 150650Z AUTO 27004KT 230V320 9999 NCD 14/10
                        Q1027 NOSIG=
201607150620 METAR COR EGLL 150620Z AUTO 27004KT 210V300 9999 NCD 14/10
                        Q1027 NOSIG=
201607150550 METAR COR EGLL 150550Z AUTO 27004KT 9999 NCD 13/10 Q1026
                        NOSIG=
201607150520 METAR COR EGLL 150520Z AUTO 25006KT 9999 NCD 12/11 Q1026
                        NOSIG=
201607150450 METAR COR EGLL 150450Z AUTO 27006KT 9999 NCD 12/11 Q1027
                        NOSIG=
201607150420 METAR COR EGLL 150420Z AUTO 28006KT 9999 NCD 11/11 Q1026
                        NOSIG=
201607150350 METAR COR EGLL 150350Z AUTO 27005KT 9999 NCD 11/10 Q1026
                        NOSIG=
201607150320 METAR COR EGLL 150320Z AUTO 27006KT 9999 FEW048 12/10 Q1026
                        NOSIG=
201607150250 METAR COR EGLL 150250Z AUTO 27006KT 9999 NCD 13/10 Q1026
                        NOSIG=
201607150220 METAR COR EGLL 150220Z AUTO 27004KT 9999 NCD 13/10 Q1026
                        NOSIG=
201607150150 METAR COR EGLL 150150Z AUTO 28004KT 9999 NCD 13/10 Q1026
                        NOSIG=
201607150120 METAR COR EGLL 150120Z AUTO 30005KT 9999 NCD 13/10 Q1026
                        NOSIG=
201607150050 METAR COR EGLL 150050Z AUTO 30005KT 9999 NCD 13/11 Q1026
                        NOSIG=
201607150020 METAR COR EGLL 150020Z AUTO 28006KT 9999 NCD 13/11 Q1026
                        NOSIG=
201607142350 METAR COR EGLL 142350Z AUTO 28006KT 9999 NCD 14/11 Q1026
                        NOSIG=
201607142320 METAR COR EGLL 142320Z AUTO 27007KT 9999 NCD 14/11 Q1026
                        NOSIG=
201607142250 METAR COR EGLL 142250Z AUTO 27008KT 9999 NCD 15/11 Q1026
                        NOSIG=
201607142220 METAR COR EGLL 142220Z AUTO 28008KT 9999 NCD 15/10 Q1026
                        NOSIG=
201607142150 METAR COR EGLL 142150Z AUTO 28009KT 9999 NCD 16/10 Q1026
                        NOSIG=
201607142120 METAR COR EGLL 142120Z AUTO 28006KT 9999 NCD 16/10 Q1026
                        NOSIG=
201607142050 METAR COR EGLL 142050Z AUTO 28005KT 9999 NCD 16/09 Q1026
                        NOSIG=
201607142020 METAR COR EGLL 142020Z AUTO 29004KT 9999 NCD 17/09 Q1025
                        NOSIG=
201607141950 METAR COR EGLL 141950Z AUTO 31004KT 9999 NCD 19/07 Q1025
                        NOSIG=
201607141920 METAR COR EGLL 141920Z AUTO 30004KT 9999 NCD 19/07 Q1025
                        NOSIG=
201607141850 METAR COR EGLL 141850Z AUTO 31006KT 9999 NCD 19/07 Q1025
                        NOSIG=
201607141820 METAR COR EGLL 141820Z AUTO 30006KT 9999 NCD 19/07 Q1025
                        NOSIG=
201607141750 METAR COR EGLL 141750Z AUTO 29006KT 9999 NCD 20/07 Q1025
                        NOSIG=
201607141720 METAR COR EGLL 141720Z AUTO 30009KT 9999 NCD 20/07 Q1025
                        NOSIG=
201607141650 METAR COR EGLL 141650Z AUTO 31008KT 9999 NCD 20/06 Q1025
                        NOSIG=
201607141620 METAR COR EGLL 141620Z AUTO 31007KT 9999 NCD 21/06 Q1025
                        NOSIG=
201607141550 METAR COR EGLL 141550Z AUTO 33005KT 260V040 9999 NCD 21/07
                        Q1025 NOSIG=
201607141520 METAR COR EGLL 141520Z AUTO 32006KT 280V350 9999 NCD 20/08
                        Q1025 NOSIG=
201607141450 METAR COR EGLL 141450Z AUTO 29007KT 250V330 9999 NCD 20/08
                        Q1025 NOSIG=
201607141420 METAR COR EGLL 141420Z AUTO 32008KT 9999 BKN048 19/08 Q1025
                        NOSIG=
201607141350 METAR COR EGLL 141350Z AUTO 31006KT 270V360 9999 BKN046 19/08
                        Q1025 NOSIG=
201607141320 METAR COR EGLL 141320Z AUTO 31008KT 280V340 9999 BKN045 20/08
                        Q1024 NOSIG=
201607141250 METAR COR EGLL 141250Z AUTO 30007KT 270V340 9999 FEW046 20/07
                        Q1024 NOSIG=
201607141220 METAR COR EGLL 141220Z AUTO 31008KT 260V340 9999 SCT043 19/08
                        Q1024 NOSIG=
201607141150 METAR COR EGLL 141150Z AUTO 30007KT 260V360 9999 SCT041 20/09
                        Q1024 NOSIG=
201607141120 METAR COR EGLL 141120Z AUTO 33007KT 290V020 9999 BKN039 19/09
                        Q1024 NOSIG=
201607141050 METAR COR EGLL 141050Z AUTO 33006KT 290V040 9999 SCT035 SCT049
                        19/09 Q1024 NOSIG=
201607141020 METAR COR EGLL 141020Z AUTO 30005KT 230V360 9999 BKN033 18/09
                        Q1024 NOSIG=
201607140950 METAR COR EGLL 140950Z AUTO 33006KT 280V020 9999 SCT030 17/09
                        Q1024 NOSIG=
201607140920 METAR COR EGLL 140920Z AUTO 33006KT 300V020 9999 BKN027 17/09
                        Q1024 NOSIG=
201607140850 METAR COR EGLL 140850Z AUTO 33007KT 280V040 9999 SCT025 16/10
                        Q1024 NOSIG=
201607140820 METAR COR EGLL 140820Z AUTO 35005KT 310V040 9999 SCT022 16/10
                        Q1023 NOSIG=
201607140750 METAR COR EGLL 140750Z AUTO 33006KT 290V020 9999 FEW021 15/10
                        Q1023 NOSIG=
201607140720 METAR COR EGLL 140720Z AUTO 32006KT 280V020 9999 NCD 14/10
                        Q1023 NOSIG=
201607140650 METAR COR EGLL 140650Z AUTO 31007KT 9999 FEW017 14/10 Q1023
                        NOSIG=
201607140620 METAR COR EGLL 140620Z AUTO 31007KT 280V350 9999 NCD 13/10
                        Q1023 NOSIG=
201607140550 METAR COR EGLL 140550Z AUTO 31006KT 9999 NCD 12/09 Q1023
                        NOSIG=
201607140520 METAR COR EGLL 140520Z AUTO 30004KT 9999 NCD 12/09 Q1022
                        NOSIG=
201607140450 METAR COR EGLL 140450Z AUTO 29004KT 9999 NCD 11/09 Q1022
                        NOSIG=
201607140420 METAR COR EGLL 140420Z AUTO 29005KT 9999 NCD 11/09 Q1022
                        NOSIG=
201607140350 METAR COR EGLL 140350Z AUTO 28005KT 9999 NCD 12/10 Q1022
                        NOSIG=
201607140320 METAR COR EGLL 140320Z AUTO 29004KT 9999 -RA NCD 12/10 Q1022
                        NOSIG=
201607140250 METAR COR EGLL 140250Z AUTO 30004KT 270V330 9999 -RA SCT046
                        12/10 Q1022 NOSIG=
201607140220 METAR COR EGLL 140220Z AUTO 29004KT 9999 NCD 12/09 Q1021
                        NOSIG=
201607140150 METAR COR EGLL 140150Z AUTO 28004KT 9999 NCD 12/10 Q1021
                        NOSIG=
201607140120 METAR COR EGLL 140120Z AUTO 29004KT 9999 NCD 12/10 Q1021
                        NOSIG=
201607140050 METAR COR EGLL 140050Z AUTO 29003KT 9999 NCD 12/09 Q1021
                        NOSIG=
201607140020 METAR COR EGLL 140020Z AUTO 31003KT 9999 NCD 13/09 Q1021
                        NOSIG=
201607132350 METAR COR EGLL 132350Z AUTO 30004KT 9999 NCD 14/09 Q1021
                        NOSIG=
201607132320 METAR COR EGLL 132320Z AUTO 29004KT 9999 NCD 14/09 Q1021
                        NOSIG=
201607132250 METAR COR EGLL 132250Z AUTO 29004KT 9999 NCD 14/09 Q1021
                        NOSIG=
201607132220 METAR COR EGLL 132220Z AUTO 29005KT 9999 NCD 14/09 Q1021
                        NOSIG=
201607132150 METAR COR EGLL 132150Z AUTO 29006KT 9999 NCD 15/09 Q1021
                        NOSIG=
201607132120 METAR COR EGLL 132120Z AUTO 28006KT 9999 NCD 14/10 Q1021
                        NOSIG=
201607132050 METAR COR EGLL 132050Z AUTO 28007KT 9999 NCD 15/10 Q1021
                        NOSIG=
201607132020 METAR COR EGLL 132020Z AUTO 28007KT 9999 NCD 15/10 Q1020
                        NOSIG=
201607131950 METAR COR EGLL 131950Z AUTO 28006KT 9999 NCD 16/10 Q1020
                        NOSIG=
201607131920 METAR COR EGLL 131920Z AUTO 28006KT 9999 FEW039 16/10 Q1020
                        NOSIG=
201607131850 METAR COR EGLL 131850Z AUTO 27007KT 9999 NCD 16/10 Q1020
                        NOSIG=
201607131820 METAR COR EGLL 131820Z AUTO 28007KT 9999 NCD 16/11 Q1020
                        NOSIG=
201607131750 METAR COR EGLL 131750Z AUTO 29006KT 9999 NCD 16/11 Q1020
                        NOSIG=
201607131720 METAR COR EGLL 131720Z AUTO 29007KT 9999 NCD 15/11 Q1019
                        NOSIG=
201607131650 METAR COR EGLL 131650Z AUTO 29006KT 9999 NCD 16/10 Q1019
                        NOSIG=
201607131620 METAR COR EGLL 131620Z AUTO 30006KT 9999 NCD 15/10 Q1019
                        NOSIG=
201607131550 METAR COR EGLL 131550Z AUTO 29007KT 9999 FEW020/// OVC040///
                        //////TCU 14/11 Q1019 NOSIG=
201607131520 METAR EGLL 131520Z AUTO 28011KT 7000 -RA FEW010/// BKN018///
                        BKN035/// //////CB 14/11 Q1019 RERA
                        NOSIG=
201607131450 METAR COR EGLL 131450Z AUTO 33005KT 290V040 9999 -RA FEW016///
                        BKN039/// //////CB 18/09 Q1019 TEMPO
                        SHRA=
201607131420 METAR EGLL 131420Z AUTO 30005KT 270V010 9999 FEW047/// //////CB
                        19/08 Q1018=
201607131350 METAR COR EGLL 131350Z AUTO 32004KT 290V360 9999 SCT048///
                        //////CB 17/07 Q1019 NOSIG=
201607131320 METAR COR EGLL 131320Z AUTO 32007KT 9999 -RA FEW030 BKN047
                        17/10 Q1019 NOSIG=
201607131250 METAR COR EGLL 131250Z AUTO 30006KT 260V350 9999 FEW029///
                        //////CB 17/10 Q1019 NOSIG=
201607131220 METAR COR EGLL 131220Z AUTO 33006KT 300V010 9999 FEW029///
                        //////CB 16/09 Q1019 NOSIG=
201607131150 METAR COR EGLL 131150Z AUTO 32009KT 9999 -RA SCT041/// //////CB
                        16/10 Q1019 NOSIG=
201607131120 METAR COR EGLL 131120Z AUTO 29013KT 9999 -RA BKN037/// //////CB
                        16/09 Q1018 TEMPO SHRA=
201607131050 METAR COR EGLL 131050Z AUTO 29008KT 250V350 9999 SCT038///
                        //////TCU 19/09 Q1018 TEMPO SHRA=
201607131020 METAR COR EGLL 131020Z AUTO 30009KT 270V350 9999 SCT037///
                        //////CB 18/08 Q1018 NOSIG=
201607130950 METAR COR EGLL 130950Z AUTO 30008KT 270V360 9999 SCT030 17/09
                        Q1018 NOSIG=
201607130920 METAR COR EGLL 130920Z AUTO 31005KT 250V010 9999 SCT027 17/10
                        Q1018 NOSIG=
201607130850 METAR COR EGLL 130850Z AUTO 31008KT 280V340 9999 NCD 15/10
                        Q1018 NOSIG=
201607130820 METAR COR EGLL 130820Z AUTO 30008KT 270V360 9999 NCD 15/10
                        Q1017 NOSIG=
201607130750 METAR COR EGLL 130750Z AUTO 30008KT 9999 NCD 14/09 Q1017
                        NOSIG=
201607130720 METAR COR EGLL 130720Z AUTO 32007KT 280V360 9999 NCD 15/10
                        Q1017 NOSIG=
201607130650 METAR COR EGLL 130650Z AUTO 32008KT 9999 NCD 14/10 Q1017
                        NOSIG=
201607130620 METAR COR EGLL 130620Z AUTO 31007KT 280V350 9999 NCD 13/09
                        Q1016 NOSIG=
201607130550 METAR COR EGLL 130550Z AUTO 31006KT 270V340 9999 NCD 13/09
                        Q1016 NOSIG=
201607130520 METAR COR EGLL 130520Z AUTO 30005KT 9999 NCD 12/09 Q1016
                        NOSIG=
201607130450 METAR COR EGLL 130450Z AUTO 31006KT 9999 NCD 12/10 Q1016
                        NOSIG=
201607130420 METAR COR EGLL 130420Z AUTO 31006KT 9999 NCD 13/10 Q1016
                        NOSIG=
201607130350 METAR COR EGLL 130350Z AUTO 31005KT 9999 BKN040 13/10 Q1016
                        NOSIG=
201607130320 METAR COR EGLL 130320Z AUTO 30004KT 9999 BKN029 OVC045 13/10
                        Q1016 NOSIG=
201607130250 METAR COR EGLL 130250Z AUTO VRB03KT 9999 FEW013 OVC023 13/10
                        Q1016 NOSIG=
201607130220 METAR COR EGLL 130220Z AUTO VRB03KT 9999 FEW014 BKN021 13/10
                        Q1015 NOSIG=
201607130150 METAR COR EGLL 130150Z AUTO 33004KT 290V010 9999 OVC019 13/10
                        Q1015 NOSIG=
201607130120 METAR COR EGLL 130120Z AUTO 33005KT 300V010 9999 OVC019 13/10
                        Q1015 NOSIG=
201607130050 METAR COR EGLL 130050Z AUTO 32005KT 9999 BKN022/// 13/11
                        Q1015 NOSIG=
201607130020 METAR COR EGLL 130020Z AUTO 32005KT 9999 FEW011 BKN027 13/11
                        Q1015 NOSIG=
201607122350 METAR COR EGLL 122350Z AUTO 32005KT 270V360 9999 BKN028 13/11
                        Q1015 NOSIG=
201607122320 METAR COR EGLL 122320Z AUTO 34004KT 300V030 9999 BKN023 13/11
                        Q1015 NOSIG=
201607122250 METAR COR EGLL 122250Z AUTO 32004KT 290V350 9999 BKN016 14/11
                        Q1015 NOSIG=
201607122220 METAR EGLL 122220Z AUTO 32005KT 290V350 9999 BKN012 14/11
                        Q1015=
201607122150 METAR COR EGLL 122150Z AUTO 33005KT 9999 FEW039 14/11 Q1015
                        NOSIG=
201607122120 METAR COR EGLL 122120Z 31006KT 9999 FEW040 14/11 Q1015 NOSIG=
201607122050 METAR COR EGLL 122050Z AUTO 32005KT 9999 FEW016/// //////CB
                        15/11 Q1014 NOSIG=
201607122020 METAR COR EGLL 122020Z AUTO 35004KT 310V020 9999 FEW036 15/11
                        Q1014 NOSIG=
201607121950 METAR COR EGLL 121950Z AUTO 33005KT 300V360 9999 BKN031 15/11
                        Q1014 NOSIG=
201607121920 METAR COR EGLL 121920Z AUTO 32006KT 290V020 9999 SCT019 16/11
                        Q1013 NOSIG=
201607121850 METAR COR EGLL 121850Z AUTO 33007KT 290V360 9999 FEW019 16/11
                        Q1013 NOSIG=
201607121820 METAR COR EGLL 121820Z AUTO 34007KT 300V010 9999 FEW025 16/11
                        Q1013 NOSIG=
201607121750 METAR COR EGLL 121750Z AUTO 32008KT 9999 NCD 17/11 Q1013
                        NOSIG=
201607121720 METAR COR EGLL 121720Z AUTO 31010KT 9999 FEW024 17/11 Q1013
                        NOSIG=
201607121650 METAR COR EGLL 121650Z AUTO 32010KT 9999 SCT020 17/12 Q1013
                        TEMPO SHRA=
201607121620 METAR COR EGLL 121620Z AUTO 32009KT 9999 FEW017 17/13 Q1012
                        NOSIG=
201607121550 METAR COR EGLL 121550Z AUTO 32007KT 290V350 9999 FEW017///
                        //////CB 17/13 Q1012 NOSIG=
201607121520 METAR COR EGLL 121520Z AUTO 30008KT 9999 FEW012/// SCT044///
                        //////CB 16/13 Q1012 NOSIG=
201607121450 METAR COR EGLL 121450Z AUTO 30005KT 260V320 9999 -RA SCT012///
                        BKN023/// //////CB 16/14 Q1012 NOSIG=
201607121420 METAR COR EGLL 121420Z AUTO 29007KT 270V330 9999 -RA SCT026///
                        BKN043/// //////CB 15/14 Q1012 NOSIG=
201607121350 METAR COR EGLL 121350Z AUTO 27013KT 9000 -RA FEW010/// BKN025///
                        OVC040/// //////CB 15/15 Q1012 TEMPO
                        4000 +TSRA=
201607121320 METAR COR EGLL 121320Z AUTO 26011KT 6000 -RA SCT010/// BKN021///
                        //////CB 15/15 Q1012 RERA TEMPO 3000
                        +TSRA=
201607121250 METAR COR EGLL 121250Z AUTO 26007KT 9999 -RA FEW031/// SCT044///
                        //////CB 16/15 Q1012 TEMPO 4000 +SHRA=
201607121220 METAR EGLL 121220Z AUTO 27005KT 9000 -RA FEW010/// BKN024///
                        BKN039/// //////CB 15/13 Q1012=
201607121150 METAR COR EGLL 121150Z AUTO 23008KT 9999 FEW013/// SCT020///
                        //////CB 17/14 Q1012 TEMPO 3500 +TSRA=
201607121120 METAR COR EGLL 121120Z AUTO 26009KT 9999 -RA FEW013/// BKN039///
                        //////CB 15/13 Q1012 TEMPO 4000 SHRA=
201607121050 METAR COR EGLL 121050Z AUTO 28010KT 9000 -RA SCT016/// BKN033///
                        //////CB 16/13 Q1012 TEMPO 4000 SHRA=
201607121020 METAR COR EGLL 121020Z AUTO 23010KT 190V250 9999 -RA BKN019///
                        //////CB 18/12 Q1011 TEMPO 4000 SHRA=
201607120950 METAR COR EGLL 120950Z AUTO 21009KT 150V260 9999 BKN020///
                        //////CB 18/12 Q1011 TEMPO 4000 SHRA=
201607120920 METAR COR EGLL 120920Z AUTO 23011KT 9999 SCT018 SCT034 17/12
                        Q1012 TEMPO SHRA=
201607120850 METAR COR EGLL 120850Z AUTO 23010KT 9999 FEW016/// BKN045///
                        //////CB 17/11 Q1012 TEMPO SHRA=
201607120820 METAR COR EGLL 120820Z AUTO 25009KT 210V270 9999 FEW017 BKN044
                        16/11 Q1012 NOSIG=
201607120750 METAR COR EGLL 120750Z AUTO 23008KT 190V260 9999 FEW016 16/12
                        Q1012 NOSIG=
201607120720 METAR COR EGLL 120720Z AUTO 23008KT 9999 NCD 16/11 Q1012
                        NOSIG=
201607120650 METAR COR EGLL 120650Z AUTO 22006KT 190V260 9999 NCD 15/11
                        Q1011 NOSIG=
201607120620 METAR COR EGLL 120620Z AUTO 23007KT 200V260 9999 NCD 14/11
                        Q1011 NOSIG=
201607120550 METAR COR EGLL 120550Z AUTO 22005KT 190V250 9999 NCD 13/11
                        Q1011 NOSIG=
201607120520 METAR COR EGLL 120520Z AUTO 23005KT 190V260 9999 NCD 13/11
                        Q1011 NOSIG=
201607120450 METAR COR EGLL 120450Z AUTO 23006KT 9999 NCD 13/11 Q1011
                        NOSIG=
201607120420 METAR COR EGLL 120420Z AUTO 22006KT 9999 NCD 13/11 Q1011
                        NOSIG=
201607120350 METAR COR EGLL 120350Z AUTO 22004KT 9999 NCD 13/11 Q1011
                        NOSIG=
201607120320 METAR COR EGLL 120320Z AUTO 24006KT 9999 BKN049 13/11 Q1011
                        NOSIG=
201607120250 METAR COR EGLL 120250Z AUTO 23006KT 9999 SCT047 13/11 Q1011
                        NOSIG=
201607120220 METAR COR EGLL 120220Z AUTO 24007KT 9999 FEW046 14/11 Q1011
                        NOSIG=
201607120150 METAR COR EGLL 120150Z AUTO 24006KT 9999 NCD 14/11 Q1011
                        NOSIG=
201607120120 METAR COR EGLL 120120Z AUTO 24004KT 9999 NCD 14/11 Q1011
                        NOSIG=
201607120050 METAR COR EGLL 120050Z AUTO 25006KT 9999 NCD 14/11 Q1011
                        NOSIG=
201607120020 METAR COR EGLL 120020Z AUTO 25005KT 9999 NCD 15/11 Q1011
                        NOSIG=
201607112350 METAR COR EGLL 112350Z AUTO 25007KT 9999 NCD 15/12 Q1011
                        NOSIG=
201607112320 METAR COR EGLL 112320Z AUTO 23008KT 9999 NCD 15/12 Q1011
                        NOSIG=
201607112250 METAR COR EGLL 112250Z AUTO 23006KT 9999 NCD 15/14 Q1011
                        NOSIG=
201607112220 METAR COR EGLL 112220Z AUTO 24008KT 9999 NCD 15/14 Q1011
                        NOSIG=
201607112150 METAR COR EGLL 112150Z AUTO 26007KT 210V280 9999 NCD 16/14
                        Q1011 NOSIG=
201607112120 METAR COR EGLL 112120Z AUTO 26009KT 9999 NCD 16/14 Q1011
                        NOSIG=
201607112050 METAR COR EGLL 112050Z AUTO 25010KT 9999 NCD 17/15 Q1011
                        NOSIG=
201607112020 METAR COR EGLL 112020Z AUTO 24010KT 9999 FEW021 17/15 Q1010
                        NOSIG=
201607111950 METAR COR EGLL 111950Z AUTO 22011KT 9999 FEW027 18/15 Q1010
                        NOSIG=
201607111920 METAR COR EGLL 111920Z AUTO 23009KT 9999 BKN029 18/15 Q1010
                        NOSIG=
201607111850 METAR COR EGLL 111850Z AUTO 23010KT 9999 FEW038 18/15 Q1010
                        NOSIG=
201607111820 METAR COR EGLL 111820Z AUTO 22012KT 9999 NCD 19/15 Q1009
                        NOSIG=
201607111750 METAR COR EGLL 111750Z AUTO 23012KT 9999 FEW023 18/15 Q1009
                        NOSIG=
201607111720 METAR COR EGLL 111720Z AUTO 23012KT 9999 //////TCU 19/15
                        Q1009 TEMPO SHRA=
201607111650 METAR COR EGLL 111650Z AUTO 22012KT 9999 NCD 19/16 Q1009
                        TEMPO SHRA=
201607111620 METAR COR EGLL 111620Z AUTO 22012KT 190V250 9999 -RA FEW014///
                        SCT038/// //////TCU 18/16 Q1009 TEMPO
                        SHRA=
201607111550 METAR COR EGLL 111550Z AUTO 23013KT 9999 FEW039/// //////CB
                        18/16 Q1009 TEMPO SHRA=
201607111520 METAR COR EGLL 111520Z AUTO 23015KT 9999 FEW009/// SCT046///
                        //////CB 18/16 Q1009 RESHRA TEMPO
                        SHRA=
201607111450 METAR COR EGLL 111450Z 22015KT 9999 4000W SHRA FEW017 SCT034CB
                        19/16 Q1008 TEMPO 4000 +SHRA=
201607111420 METAR COR EGLL 111420Z AUTO 22013KT 9999 -RA BKN032/// BKN045///
                        //////CB 18/15 Q1008 TEMPO SHRA=
201607111350 METAR COR EGLL 111350Z AUTO 22012KT 9999 BKN043/// //////CB
                        18/16 Q1008 TEMPO SHRA=
201607111320 METAR COR EGLL 111320Z 23014KT 9999 4500SE VCSH SCT032CB
                        SCT046 18/16 Q1008 TEMPO 4000 +SHRA=
201607111250 METAR COR EGLL 111250Z 23013KT 9999 7000SE -SHRA FEW008 BKN036CB
                        19/15 Q1008 TEMPO 4000 +SHRA=
201607111220 METAR COR EGLL 111220Z 24015KT 9999 6000NE -SHRA FEW015 BKN029
                        20/14 Q1008 RERA TEMPO 4000 +SHRA=
201607111150 METAR COR EGLL 111150Z AUTO 24015KT 9999 BKN027/// //////TCU
                        21/13 Q1008 TEMPO SHRA=
201607111120 METAR COR EGLL 111120Z AUTO 23015KT 9999 BKN026 OVC048 20/13
                        Q1008 TEMPO SHRA=
201607111050 METAR COR EGLL 111050Z AUTO 23015KT 9999 BKN026 OVC038 18/13
                        Q1008 TEMPO SHRA=
201607111020 METAR COR EGLL 111020Z AUTO 23014KT 9999 -RA BKN020 18/13
                        Q1008 TEMPO SHRA=
201607110950 METAR COR EGLL 110950Z AUTO 23017KT 9999 BKN023 18/13 Q1007
                        TEMPO SHRA=
201607110920 METAR COR EGLL 110920Z AUTO 23018KT 9999 BKN022 18/13 Q1007
                        TEMPO SHRA=
201607110850 METAR COR EGLL 110850Z AUTO 23016KT 9999 OVC024 18/12 Q1007
                        NOSIG=
201607110820 METAR COR EGLL 110820Z AUTO 23016KT 9999 OVC023 19/12 Q1007
                        NOSIG=
201607110750 METAR COR EGLL 110750Z AUTO 23016KT 9999 BKN023 18/12 Q1006
                        NOSIG=
201607110720 METAR COR EGLL 110720Z AUTO 24016KT 9999 BKN021 18/12 Q1006
                        NOSIG=
201607110650 METAR COR EGLL 110650Z AUTO 23016KT 9999 BKN020 17/12 Q1006
                        NOSIG=
201607110620 METAR COR EGLL 110620Z AUTO 23016G26KT 9999 BKN018 17/12
                        Q1006 NOSIG=
201607110550 METAR COR EGLL 110550Z 23016G26KT 9999 BKN019 16/13 Q1006
                        NOSIG=
201607110520 METAR COR EGLL 110520Z 23014KT 9999 FEW020 16/12 Q1006 NOSIG=
201607110450 METAR COR EGLL 110450Z AUTO 23014KT 9999 FEW020 BKN041 16/13
                        Q1005 NOSIG=
201607110420 METAR COR EGLL 110420Z AUTO 22011G22KT 9999 FEW016 BKN043
                        16/13 Q1005 NOSIG=
201607110350 METAR COR EGLL 110350Z AUTO 22013KT 7000 -RA FEW016 BKN030
                        OVC043 16/14 Q1005 NOSIG=
201607110320 METAR COR EGLL 110320Z AUTO 22011KT 9999 SCT018 OVC043 16/13
                        Q1005 NOSIG=
201607110250 METAR COR EGLL 110250Z AUTO 22012KT 9999 SCT020 OVC040 16/13
                        Q1006 NOSIG=
201607110220 METAR COR EGLL 110220Z AUTO 22011KT 9999 BKN019 OVC045 16/13
                        Q1006 NOSIG=
201607110150 METAR COR EGLL 110150Z AUTO 22010KT 9999 BKN020 BKN042 16/13
                        Q1006 NOSIG=
201607110120 METAR COR EGLL 110120Z AUTO 21011KT 9999 SCT020 BKN038 16/13
                        Q1006 NOSIG=
201607110050 METAR COR EGLL 110050Z AUTO 22011KT 9999 BKN019 16/13 Q1006
                        NOSIG=
201607110020 METAR COR EGLL 110020Z AUTO 22010KT 9999 SCT020 OVC038 16/13
                        Q1006 NOSIG=
201607102350 METAR COR EGLL 102350Z AUTO 21010KT 9999 BKN045 16/13 Q1006
                        NOSIG=
201607102320 METAR COR EGLL 102320Z AUTO 22011KT 9999 FEW026 BKN046 16/12
                        Q1007 NOSIG=
201607102250 METAR COR EGLL 102250Z AUTO 22013KT 9999 NCD 16/12 Q1007
                        NOSIG=
201607102220 METAR COR EGLL 102220Z AUTO 22011KT 9999 FEW022 16/12 Q1007
                        NOSIG=
201607102150 METAR COR EGLL 102150Z AUTO 23014KT 9999 FEW022 17/12 Q1007
                        NOSIG=
201607102120 METAR COR EGLL 102120Z AUTO 22014KT 9999 SCT024 17/12 Q1007
                        NOSIG=
201607102050 METAR COR EGLL 102050Z AUTO 22012KT 9999 BKN024 18/13 Q1007
                        NOSIG=
201607102020 METAR COR EGLL 102020Z AUTO 23016KT 9999 BKN025 18/13 Q1007
                        NOSIG=
201607101950 METAR COR EGLL 101950Z AUTO 23014KT 9999 FEW027 19/12 Q1007
                        NOSIG=
201607101920 METAR COR EGLL 101920Z AUTO 23017KT 9999 SCT031 20/13 Q1007
                        NOSIG=
201607101850 METAR COR EGLL 101850Z AUTO 22017KT 9999 BKN031 20/13 Q1007
                        NOSIG=
201607101820 METAR COR EGLL 101820Z AUTO 22013KT 9999 SCT031 BKN038 20/13
                        Q1007 NOSIG=
201607101750 METAR COR EGLL 101750Z AUTO 22015KT 9999 BKN034 21/13 Q1007
                        NOSIG=
201607101720 METAR COR EGLL 101720Z AUTO 22014KT 9999 FEW034 22/13 Q1006
                        NOSIG=
201607101650 METAR COR EGLL 101650Z AUTO 23016KT 9999 FEW036 22/12 Q1007
                        NOSIG=
201607101620 METAR COR EGLL 101620Z AUTO 23015KT 9999 FEW036 22/12 Q1007
                        NOSIG=
201607101550 METAR COR EGLL 101550Z AUTO 23018KT 9999 FEW035 22/13 Q1007
                        NOSIG=
201607101520 METAR COR EGLL 101520Z AUTO 23016G26KT 9999 SCT034 22/13
                        Q1007 NOSIG=
201607101450 METAR COR EGLL 101450Z AUTO 22017KT 9999 BKN031 23/13 Q1007
                        NOSIG=
201607101420 METAR COR EGLL 101420Z AUTO 22018KT 9999 BKN030 22/14 Q1007
                        NOSIG=
201607101350 METAR COR EGLL 101350Z AUTO 22017KT 180V250 9999 BKN025 21/14
                        Q1008 NOSIG=
201607101320 METAR COR EGLL 101320Z AUTO 23017KT 9999 BKN019 21/15 Q1008
                        NOSIG=
201607101250 METAR COR EGLL 101250Z AUTO 22015G25KT 9999 BKN013 BKN024
                        20/16 Q1008 BECMG FEW014=
201607101220 METAR COR EGLL 101220Z AUTO 22014KT 9999 BKN011 BKN023 20/16
                        Q1008 BECMG FEW012=
201607101150 METAR COR EGLL 101150Z AUTO 22014KT 9999 BKN010 19/16 Q1008
                        BECMG FEW010 BKN030=
201607101120 METAR COR EGLL 101120Z AUTO 22014KT 9999 OVC009 19/17 Q1008
                        BECMG BKN012=
201607101050 METAR COR EGLL 101050Z AUTO 21012KT 190V250 9999 -RA OVC010
                        19/18 Q1008 NOSIG=
201607101020 METAR COR EGLL 101020Z AUTO 21010KT 180V240 9999 -RA OVC009
                        18/18 Q1009 BECMG BKN012=
201607100950 METAR COR EGLL 100950Z 21011KT 170V240 9999 FEW005 BKN009
                        18/18 Q1009 BECMG BKN012=
201607100920 METAR COR EGLL 100920Z 20010KT 170V240 9999 -RA FEW004 BKN007
                        18/18 Q1009 NOSIG=
201607100850 METAR COR EGLL 100850Z AUTO 20013KT 180V250 9999 BKN006 18/17
                        Q1009 TEMPO RADZ=
201607100820 METAR COR EGLL 100820Z AUTO 19012KT 170V240 9999 SCT006 BKN032
                        18/17 Q1009 TEMPO BKN006=
201607100750 METAR COR EGLL 100750Z AUTO 21011KT 9999 BKN006 18/16 Q1009
                        BECMG BKN010=
201607100720 METAR COR EGLL 100720Z AUTO 20012KT 180V240 5000 HZ OVC007
                        18/16 Q1009 NOSIG=
201607100650 METAR COR EGLL 100650Z AUTO 21010KT 9999 OVC007 18/16 Q1009
                        NOSIG=
201607100620 METAR COR EGLL 100620Z AUTO 21011KT 9999 OVC005 18/16 Q1010
                        NOSIG=
201607100550 METAR COR EGLL 100550Z AUTO 22010KT 9000 OVC006 17/16 Q1010
                        NOSIG=
201607100520 METAR COR EGLL 100520Z AUTO 21010KT 9999 OVC008 18/16 Q1010
                        TEMPO BKN010=
201607100450 METAR COR EGLL 100450Z AUTO 21010KT 9999 OVC008 17/16 Q1010
                        TEMPO BKN010=
201607100420 METAR COR EGLL 100420Z AUTO 21007KT 190V250 9999 OVC008 17/16
                        Q1010 TEMPO BKN010=
201607100350 METAR COR EGLL 100350Z AUTO 21008KT 9999 BKN008 17/16 Q1010
                        TEMPO BKN010=
201607100320 METAR COR EGLL 100320Z AUTO 22008KT 9999 BKN007 17/16 Q1010
                        TEMPO BKN012=
201607100250 METAR COR EGLL 100250Z AUTO 21008KT 9999 BKN007 18/16 Q1011
                        TEMPO BKN010=
201607100220 METAR COR EGLL 100220Z AUTO 22010KT 9999 OVC011 18/16 Q1011
                        NOSIG=
201607100150 METAR COR EGLL 100150Z AUTO 23009KT 9999 BKN011 OVC024 18/15
                        Q1012 NOSIG=
201607100120 METAR COR EGLL 100120Z AUTO 21008KT 9999 FEW013 OVC024 17/15
                        Q1012 BECMG BKN012=
201607100050 METAR COR EGLL 100050Z AUTO 22007KT 9999 OVC025 17/14 Q1012
                        BECMG BKN012=
201607100020 METAR COR EGLL 100020Z AUTO 21007KT 9999 OVC026 17/14 Q1013
                        BECMG BKN012=
201607092350 METAR COR EGLL 092350Z AUTO 22008KT 9999 SCT014 BKN028 17/14
                        Q1013 BECMG BKN012=
201607092320 METAR COR EGLL 092320Z AUTO 22008KT 9999 FEW015 BKN033 17/14
                        Q1014 BECMG BKN012=
201607092250 METAR COR EGLL 092250Z AUTO 23009KT 9999 FEW016 BKN033 18/14
                        Q1014 TEMPO BKN014=
201607092220 METAR COR EGLL 092220Z AUTO 22009KT 9999 SCT034 18/14 Q1014
                        NOSIG=
201607092150 METAR COR EGLL 092150Z AUTO 22011KT 9999 FEW032 18/14 Q1014
                        NOSIG=
201607092120 METAR COR EGLL 092120Z AUTO 23011KT 9999 FEW030 19/14 Q1014
                        NOSIG=
201607092050 METAR COR EGLL 092050Z AUTO 23013KT 9999 BKN028 19/14 Q1014
                        NOSIG=
201607092020 METAR COR EGLL 092020Z AUTO 22010KT 9999 BKN021 19/14 Q1014
                        NOSIG=
201607091950 METAR COR EGLL 091950Z AUTO 22012KT 180V240 9999 BKN021 20/15
                        Q1014 NOSIG=
201607091920 METAR COR EGLL 091920Z AUTO 22014KT 9999 BKN020 20/15 Q1014
                        NOSIG=
201607091850 METAR COR EGLL 091850Z AUTO 22015KT 9999 FEW024 20/15 Q1014
                        NOSIG=
201607091820 METAR COR EGLL 091820Z AUTO 23015G25KT 9999 NCD 21/14 Q1015
                        NOSIG=
201607091750 METAR COR EGLL 091750Z AUTO 22012G22KT 9999 NCD 21/15 Q1015
                        NOSIG=
201607091720 METAR COR EGLL 091720Z AUTO 23015KT 9999 FEW029 21/14 Q1015
                        NOSIG=
201607091650 METAR COR EGLL 091650Z AUTO 22014KT 9999 NCD 21/14 Q1015
                        NOSIG=
201607091620 METAR COR EGLL 091620Z AUTO 22015KT 9999 NCD 22/14 Q1016
                        NOSIG=
201607091550 METAR COR EGLL 091550Z AUTO 22016KT 9999 NCD 21/15 Q1016
                        NOSIG=
201607091520 METAR COR EGLL 091520Z AUTO 22013KT 9999 NCD 22/15 Q1016
                        NOSIG=
201607091450 METAR COR EGLL 091450Z AUTO 22015KT 9999 NCD 22/14 Q1017
                        NOSIG=
201607091420 METAR EGLL 091420Z AUTO 23015KT 9999 FEW027 BKN048 22/15
                        Q1017=
201607091350 METAR COR EGLL 091350Z AUTO 22014G24KT 9999 BKN048 22/15
                        Q1017 NOSIG=
201607091320 METAR COR EGLL 091320Z AUTO 23015KT 9999 FEW028 22/14 Q1017
                        NOSIG=
201607091250 METAR COR EGLL 091250Z AUTO 23016KT 9999 FEW038/// //////CB
                        22/15 Q1017 NOSIG=
201607091220 METAR COR EGLL 091220Z AUTO 22014KT 9999 SCT026 22/15 Q1017
                        NOSIG=
201607091150 METAR COR EGLL 091150Z AUTO 23017KT 9999 SCT027 BKN037 22/14
                        Q1017 NOSIG=
201607091120 METAR COR EGLL 091120Z AUTO 22014KT 9999 FEW028 BKN047 22/14
                        Q1017 NOSIG=
201607091050 METAR COR EGLL 091050Z AUTO 21014G26KT 190V250 9999 BKN037
                        22/14 Q1017 NOSIG=
201607091020 METAR COR EGLL 091020Z AUTO 22016KT 9999 FEW030 BKN041 22/14
                        Q1017 NOSIG=
201607090950 METAR COR EGLL 090950Z AUTO 22015KT 9999 FEW037 22/14 Q1018
                        NOSIG=
201607090920 METAR COR EGLL 090920Z AUTO 22014KT 190V260 9999 FEW049 22/14
                        Q1018 NOSIG=
201607090850 METAR COR EGLL 090850Z AUTO 21012KT 180V250 9999 FEW045 20/14
                        Q1018 NOSIG=
201607090820 METAR COR EGLL 090820Z AUTO 21010KT 180V250 9999 BKN043 19/13
                        Q1018 NOSIG=
201607090750 METAR COR EGLL 090750Z AUTO 21011KT 9999 OVC035 18/13 Q1018
                        NOSIG=
201607090720 METAR COR EGLL 090720Z AUTO 20009KT 160V240 9999 FEW025 OVC036
                        18/14 Q1019 NOSIG=
201607090650 METAR COR EGLL 090650Z AUTO 22009KT 9999 OVC027 17/14 Q1019
                        NOSIG=
201607090620 METAR COR EGLL 090620Z AUTO 21010KT 9999 OVC027 17/14 Q1018
                        NOSIG=
201607090550 METAR COR EGLL 090550Z AUTO 20008KT 9999 BKN037 17/14 Q1018
                        NOSIG=
201607090520 METAR COR EGLL 090520Z AUTO 21006KT 170V250 9999 NCD 16/13
                        Q1018 NOSIG=
201607090450 METAR COR EGLL 090450Z AUTO 20006KT 9999 NCD 16/13 Q1019
                        NOSIG=
201607090420 METAR COR EGLL 090420Z AUTO 20005KT 160V250 9999 NCD 15/13
                        Q1019 NOSIG=
201607090350 METAR COR EGLL 090350Z AUTO 20004KT 9999 NCD 15/12 Q1019
                        NOSIG=
201607090320 METAR COR EGLL 090320Z AUTO 21006KT 9999 NCD 15/12 Q1019
                        NOSIG=
201607090250 METAR COR EGLL 090250Z AUTO 21005KT 9999 NCD 15/12 Q1019
                        NOSIG=
201607090220 METAR COR EGLL 090220Z AUTO 23007KT 9999 NCD 16/12 Q1019
                        NOSIG=
201607090150 METAR COR EGLL 090150Z AUTO 23007KT 9999 NCD 16/12 Q1019
                        NOSIG=
201607090120 METAR COR EGLL 090120Z AUTO 25007KT 9999 NCD 16/12 Q1020
                        NOSIG=
201607090050 METAR COR EGLL 090050Z AUTO 25007KT 9999 NCD 17/12 Q1020
                        NOSIG=
201607090020 METAR COR EGLL 090020Z AUTO 24006KT 9999 NCD 17/12 Q1020
                        NOSIG=
201607082350 METAR COR EGLL 082350Z AUTO 25006KT 9999 NCD 17/12 Q1020
                        NOSIG=
201607082320 METAR COR EGLL 082320Z AUTO 25007KT 9999 NCD 17/12 Q1020
                        NOSIG=
201607082250 METAR COR EGLL 082250Z AUTO 27006KT 9999 NCD 17/12 Q1020
                        NOSIG=
201607082220 METAR COR EGLL 082220Z AUTO 26009KT 9999 NCD 17/12 Q1020
                        NOSIG=
201607082150 METAR COR EGLL 082150Z AUTO 26008KT 9999 NCD 18/12 Q1019
                        NOSIG=
201607082120 METAR COR EGLL 082120Z AUTO 27008KT 9999 NCD 18/12 Q1019
                        NOSIG=
201607082050 METAR COR EGLL 082050Z AUTO 27006KT 9999 NCD 18/12 Q1019
                        NOSIG=
201607082020 METAR COR EGLL 082020Z AUTO 28007KT 9999 NCD 19/13 Q1018
                        NOSIG=
201607081950 METAR COR EGLL 081950Z AUTO 27009KT 9999 NCD 19/13 Q1018
                        NOSIG=
201607081920 METAR COR EGLL 081920Z AUTO 28012KT 9999 NCD 20/13 Q1018
                        NOSIG=
201607081850 METAR COR EGLL 081850Z AUTO 26013KT 9999 NCD 21/13 Q1018
                        NOSIG=
201607081820 METAR COR EGLL 081820Z AUTO 27013KT 9999 NCD 21/13 Q1017
                        NOSIG=
201607081750 METAR COR EGLL 081750Z AUTO 27014KT 9999 NCD 21/13 Q1017
                        NOSIG=
201607081720 METAR COR EGLL 081720Z AUTO 26016KT 9999 NCD 21/12 Q1017
                        NOSIG=
201607081650 METAR COR EGLL 081650Z AUTO 26016KT 9999 NCD 21/13 Q1017
                        NOSIG=
201607081620 METAR COR EGLL 081620Z AUTO 26015KT 9999 FEW039 21/12 Q1017
                        NOSIG=
201607081550 METAR COR EGLL 081550Z AUTO 26014KT 9999 FEW034 21/12 Q1017
                        NOSIG=
201607081520 METAR COR EGLL 081520Z AUTO 28015KT 9999 SCT034 21/13 Q1017
                        NOSIG=
201607081450 METAR COR EGLL 081450Z AUTO 27015KT 9999 FEW037 22/13 Q1016
                        NOSIG=
201607081420 METAR COR EGLL 081420Z AUTO 27015KT 9999 SCT039 22/13 Q1016
                        NOSIG=
201607081350 METAR COR EGLL 081350Z AUTO 28017KT 9999 SCT038 22/13 Q1016
                        NOSIG=
201607081320 METAR COR EGLL 081320Z AUTO 28015KT 9999 BKN036 22/14 Q1016
                        NOSIG=
201607081250 METAR COR EGLL 081250Z AUTO 27015KT 9999 SCT030 23/14 Q1016
                        NOSIG=
201607081220 METAR COR EGLL 081220Z AUTO 26016KT 9999 BKN028 BKN044 22/15
                        Q1015 NOSIG=
201607081150 METAR COR EGLL 081150Z AUTO 25010KT 210V280 9999 BKN025 22/15
                        Q1015 NOSIG=
201607081120 METAR COR EGLL 081120Z AUTO 25013G23KT 9999 BKN022 21/15
                        Q1015 NOSIG=
201607081050 METAR COR EGLL 081050Z AUTO 24012KT 9999 BKN020 20/14 Q1015
                        NOSIG=
201607081020 METAR COR EGLL 081020Z AUTO 25012KT 9999 BKN018 OVC034 19/14
                        Q1015 NOSIG=
201607080950 METAR COR EGLL 080950Z AUTO 25014KT 9999 OVC018 19/14 Q1015
                        TEMPO BKN012=
201607080920 METAR COR EGLL 080920Z AUTO 24012G23KT 9999 OVC018 19/14
                        Q1015 TEMPO BKN014=
201607080850 METAR COR EGLL 080850Z AUTO 24012KT 9999 OVC018 18/14 Q1015
                        TEMPO BKN012=
201607080820 METAR COR EGLL 080820Z AUTO 24013KT 9999 BKN018 18/14 Q1015
                        TEMPO BKN014=
201607080750 METAR COR EGLL 080750Z AUTO 25015KT 9999 BKN016 18/14 Q1015
                        TEMPO BKN014=
201607080720 METAR COR EGLL 080720Z AUTO 24012KT 9999 SCT015 18/14 Q1015
                        TEMPO BKN014=
201607080650 METAR COR EGLL 080650Z AUTO 24010KT 9999 FEW012 17/14 Q1014
                        TEMPO BKN014=
201607080620 METAR COR EGLL 080620Z AUTO 23010KT 9999 BKN033 16/14 Q1015
                        TEMPO BKN012=
201607080550 METAR COR EGLL 080550Z AUTO 24009KT 9999 FEW010 SCT025 16/14
                        Q1015 TEMPO BKN010=
201607080520 METAR COR EGLL 080520Z AUTO 23011KT 9999 SCT026 15/13 Q1014
                        TEMPO -RA BKN010=
201607080450 METAR COR EGLL 080450Z AUTO 22007KT 9999 FEW023 15/13 Q1014
                        NOSIG=
201607080420 METAR COR EGLL 080420Z AUTO 21007KT 9999 NCD 15/13 Q1014
                        NOSIG=
201607080350 METAR COR EGLL 080350Z AUTO 21007KT 9999 NCD 15/13 Q1015
                        NOSIG=
201607080320 METAR COR EGLL 080320Z AUTO 22007KT 9999 -RA BKN042 15/13
                        Q1015 NOSIG=
201607080250 METAR COR EGLL 080250Z AUTO 22008KT 9999 SCT047 15/13 Q1015
                        NOSIG=
201607080220 METAR COR EGLL 080220Z AUTO 20005KT 9999 NCD 15/13 Q1015
                        NOSIG=
201607080150 METAR COR EGLL 080150Z AUTO 21006KT 9999 NCD 15/13 Q1016
                        NOSIG=
201607080050 METAR COR EGLL 080050Z AUTO 21006KT 9999 NCD 16/13 Q1016
                        NOSIG=
201607080020 METAR COR EGLL 080020Z AUTO 22006KT 9999 NCD 16/13 Q1016
                        NOSIG=
201607072350 METAR COR EGLL 072350Z AUTO 24006KT 9999 NCD 17/13 Q1017
                        NOSIG=
201607072320 METAR COR EGLL 072320Z AUTO 22005KT 9999 NCD 17/13 Q1017
                        NOSIG=
201607072250 METAR COR EGLL 072250Z AUTO 24006KT 9999 NCD 17/13 Q1017
                        NOSIG=
201607072220 METAR COR EGLL 072220Z AUTO 23007KT 9999 NCD 18/13 Q1017
                        NOSIG=
201607072150 METAR COR EGLL 072150Z AUTO 23008KT 9999 NCD 18/13 Q1018
                        NOSIG=
201607072120 METAR COR EGLL 072120Z AUTO 25007KT 9999 NCD 18/13 Q1017
                        NOSIG=
201607072050 METAR COR EGLL 072050Z AUTO 23007KT 9999 FEW034 19/13 Q1017
                        NOSIG=
201607072020 METAR COR EGLL 072020Z AUTO 23008KT 9999 NCD 19/14 Q1017
                        NOSIG=
201607071950 METAR COR EGLL 071950Z AUTO 22010KT 9999 FEW033 19/14 Q1017
                        NOSIG=
201607071920 METAR COR EGLL 071920Z AUTO 22011KT 9999 FEW034 20/13 Q1017
                        NOSIG=
201607071850 METAR COR EGLL 071850Z AUTO 24010KT 9999 NCD 21/13 Q1017
                        NOSIG=
201607071820 METAR COR EGLL 071820Z AUTO 23011KT 9999 FEW036 21/13 Q1017
                        NOSIG=
201607071750 METAR COR EGLL 071750Z AUTO 23010KT 200V270 9999 NCD 21/13
                        Q1018 NOSIG=
201607071720 METAR COR EGLL 071720Z AUTO 24008KT 190V260 9999 NCD 22/13
                        Q1017 NOSIG=
201607071650 METAR COR EGLL 071650Z AUTO 24009KT 9999 SCT033 22/13 Q1018
                        NOSIG=
201607071620 METAR COR EGLL 071620Z AUTO 27009KT 9999 SCT035 22/13 Q1018
                        NOSIG=
201607071550 METAR COR EGLL 071550Z AUTO 26009KT 220V320 9999 SCT036 22/12
                        Q1018 NOSIG=
201607071520 METAR COR EGLL 071520Z AUTO 24011KT 9999 FEW037 23/12 Q1018
                        NOSIG=
201607071450 METAR COR EGLL 071450Z AUTO 24009KT 9999 SCT037 23/12 Q1018
                        NOSIG=
201607071420 METAR COR EGLL 071420Z AUTO 24009KT 200V270 9999 SCT038 23/12
                        Q1018 NOSIG=
201607071350 METAR COR EGLL 071350Z AUTO 22009KT 190V260 9999 BKN038 23/12
                        Q1019 NOSIG=
201607071320 METAR COR EGLL 071320Z AUTO 24009KT 190V270 9999 SCT034 22/12
                        Q1019 NOSIG=
201607071250 METAR COR EGLL 071250Z AUTO 23007KT 170V300 9999 BKN033 22/12
                        Q1019 NOSIG=
201607071220 METAR COR EGLL 071220Z AUTO 22009G19KT 160V280 9999 BKN032
                        22/12 Q1019 NOSIG=
201607071150 METAR COR EGLL 071150Z AUTO 25009KT 180V290 9999 BKN033 22/12
                        Q1019 NOSIG=
201607071120 METAR COR EGLL 071120Z AUTO 27010KT 230V300 9999 SCT030 21/12
                        Q1019 NOSIG=
201607071050 METAR COR EGLL 071050Z AUTO 24007KT 200V270 9999 BKN027 21/13
                        Q1020 NOSIG=
201607071020 METAR COR EGLL 071020Z AUTO 23009KT 180V280 9999 SCT027 20/12
                        Q1020 NOSIG=
201607070950 METAR COR EGLL 070950Z AUTO 23009KT 9999 SCT025 19/12 Q1020
                        NOSIG=
201607070920 METAR COR EGLL 070920Z AUTO 26007KT 230V290 9999 NCD 19/11
                        Q1020 NOSIG=
201607070850 METAR COR EGLL 070850Z AUTO 23007KT 150V270 9999 NCD 18/11
                        Q1020 NOSIG=
201607070820 METAR COR EGLL 070820Z AUTO 22007KT 170V250 9999 NCD 18/11
                        Q1020 NOSIG=
201607070750 METAR COR EGLL 070750Z AUTO 20006KT 150V240 9999 NCD 16/11
                        Q1021 NOSIG=
201607070720 METAR COR EGLL 070720Z AUTO 21006KT 170V250 9999 NCD 16/11
                        Q1021 NOSIG=
201607070650 METAR COR EGLL 070650Z AUTO 22007KT 9999 NCD 16/11 Q1021
                        NOSIG=
201607070620 METAR COR EGLL 070620Z AUTO 20007KT 160V240 9999 NCD 15/11
                        Q1021 NOSIG=
201607070550 METAR COR EGLL 070550Z 22007KT 190V260 9999 -RA FEW023 15/11
                        Q1021 NOSIG=
201607070520 METAR COR EGLL 070520Z 21007KT 180V260 9999 NSC 15/10 Q1021
                        NOSIG=
201607070450 METAR COR EGLL 070450Z AUTO 21005KT 9999 NCD 15/10 Q1021
                        NOSIG=
201607070420 METAR COR EGLL 070420Z AUTO 23006KT 190V270 9999 NCD 15/10
                        Q1021 NOSIG=
201607070350 METAR COR EGLL 070350Z AUTO 20006KT 9999 NCD 15/11 Q1020
                        NOSIG=
201607070320 METAR COR EGLL 070320Z AUTO 20004KT 9999 NCD 15/10 Q1020
                        NOSIG=
201607070250 METAR COR EGLL 070250Z AUTO 21005KT 9999 NCD 15/11 Q1021
                        NOSIG=
201607070220 METAR COR EGLL 070220Z AUTO 23005KT 9999 NCD 15/11 Q1021
                        NOSIG=
201607070150 METAR COR EGLL 070150Z AUTO 23004KT 9999 NCD 15/11 Q1021
                        NOSIG=
201607070120 METAR COR EGLL 070120Z AUTO 26005KT 9999 NCD 15/11 Q1021
                        NOSIG=
201607070050 METAR COR EGLL 070050Z AUTO 26005KT 9999 NCD 16/11 Q1021
                        NOSIG=
201607070020 METAR COR EGLL 070020Z AUTO 23005KT 9999 NCD 16/11 Q1021
                        NOSIG=
201607062350 METAR COR EGLL 062350Z AUTO 24005KT 9999 NCD 16/11 Q1021
                        NOSIG=
201607062320 METAR COR EGLL 062320Z AUTO 25005KT 9999 NCD 16/11 Q1022
                        NOSIG=
201607062250 METAR COR EGLL 062250Z AUTO 26005KT 9999 NCD 16/11 Q1022
                        NOSIG=
201607062220 METAR COR EGLL 062220Z AUTO 27007KT 9999 NCD 17/11 Q1022
                        NOSIG=
201607062150 METAR COR EGLL 062150Z AUTO 25008KT 9999 NCD 17/11 Q1022
                        NOSIG=
201607062120 METAR COR EGLL 062120Z AUTO 25008KT 9999 NCD 18/11 Q1022
                        NOSIG=
201607062050 METAR COR EGLL 062050Z AUTO 23009KT 9999 NCD 18/10 Q1022
                        NOSIG=
201607062020 METAR COR EGLL 062020Z AUTO 24008KT 9999 NCD 19/09 Q1022
                        NOSIG=
201607061950 METAR COR EGLL 061950Z AUTO 26006KT 9999 NCD 19/09 Q1022
                        NOSIG=
201607061920 METAR COR EGLL 061920Z AUTO 27006KT 9999 NCD 19/08 Q1022
                        NOSIG=
201607061850 METAR COR EGLL 061850Z AUTO 27006KT 9999 NCD 20/08 Q1022
                        NOSIG=
201607061820 METAR COR EGLL 061820Z AUTO 27005KT 210V290 9999 NCD 20/08
                        Q1022 NOSIG=
201607061750 METAR COR EGLL 061750Z AUTO 31004KT 250V360 9999 NCD 20/07
                        Q1021 NOSIG=
201607061720 METAR COR EGLL 061720Z AUTO 27005KT 190V330 9999 NCD 20/08
                        Q1022 NOSIG=
201607061650 METAR COR EGLL 061650Z AUTO 24004KT 170V300 9999 NCD 21/08
                        Q1022 NOSIG=
201607061620 METAR COR EGLL 061620Z AUTO 29005KT 230V360 9999 NCD 21/08
                        Q1022 NOSIG=
201607061550 METAR COR EGLL 061550Z AUTO VRB04KT 9999 NCD 21/07 Q1022
                        NOSIG=
201607061520 METAR COR EGLL 061520Z AUTO VRB03KT 9999 NCD 22/08 Q1022
                        NOSIG=
201607061450 METAR COR EGLL 061450Z AUTO 26007KT 220V300 9999 NCD 21/07
                        Q1023 NOSIG=
201607061420 METAR COR EGLL 061420Z AUTO 27007KT 220V320 9999 NCD 22/07
                        Q1023 NOSIG=
201607061350 METAR COR EGLL 061350Z AUTO VRB05KT 9999 NCD 22/07 Q1023
                        NOSIG=
201607061320 METAR COR EGLL 061320Z AUTO 34004KT 280V040 9999 NCD 21/07
                        Q1023 NOSIG=
201607061250 METAR COR EGLL 061250Z AUTO VRB04KT 9999 BKN049 21/07 Q1023
                        NOSIG=
201607061220 METAR COR EGLL 061220Z AUTO 27004KT 180V320 9999 BKN046 20/08
                        Q1023 NOSIG=
201607061150 METAR COR EGLL 061150Z AUTO 28005KT 240V310 9999 BKN044 19/08
                        Q1023 NOSIG=
201607061120 METAR COR EGLL 061120Z AUTO 26006KT 220V300 9999 SCT043 19/08
                        Q1024 NOSIG=
201607061050 METAR COR EGLL 061050Z AUTO VRB03KT 9999 BKN040 18/08 Q1024
                        NOSIG=
201607061020 METAR COR EGLL 061020Z AUTO VRB04KT 9999 BKN036 18/08 Q1024
                        NOSIG=
201607060950 METAR COR EGLL 060950Z AUTO VRB02KT 9999 SCT040 18/08 Q1024
                        NOSIG=
201607060920 METAR COR EGLL 060920Z AUTO VRB03KT 9999 BKN035 18/08 Q1024
                        NOSIG=
201607060850 METAR COR EGLL 060850Z AUTO VRB03KT 9999 FEW032 17/07 Q1024
                        NOSIG=
201607060820 METAR COR EGLL 060820Z AUTO 36004KT 320V070 9999 NCD 16/08
                        Q1023 NOSIG=
201607060750 METAR COR EGLL 060750Z AUTO VRB03KT 9999 NCD 16/09 Q1023
                        NOSIG=
201607060720 METAR COR EGLL 060720Z AUTO VRB04KT 9999 NCD 15/09 Q1023
                        NOSIG=
201607060650 METAR COR EGLL 060650Z AUTO VRB03KT 9999 NCD 14/09 Q1023
                        NOSIG=
201607060620 METAR COR EGLL 060620Z AUTO VRB02KT 9999 NCD 13/08 Q1023
                        NOSIG=
201607060550 METAR COR EGLL 060550Z AUTO VRB03KT 9999 NCD 12/08 Q1023
                        NOSIG=
201607060520 METAR COR EGLL 060520Z AUTO 29005KT 9999 NCD 11/08 Q1023
                        NOSIG=
201607060450 METAR COR EGLL 060450Z AUTO 27003KT 9999 NCD 11/07 Q1022
                        NOSIG=
201607060420 METAR COR EGLL 060420Z AUTO VRB02KT 9999 NCD 11/07 Q1022
                        NOSIG=
201607060350 METAR COR EGLL 060350Z AUTO 29003KT 9999 NCD 11/07 Q1022
                        NOSIG=
201607060320 METAR COR EGLL 060320Z AUTO 29003KT 9999 NCD 11/07 Q1022
                        NOSIG=
201607060250 METAR COR EGLL 060250Z AUTO 28002KT 9999 NCD 11/07 Q1022
                        NOSIG=
201607060220 METAR COR EGLL 060220Z AUTO 30003KT 9999 NCD 12/07 Q1022
                        NOSIG=
201607060150 METAR COR EGLL 060150Z AUTO VRB03KT 9999 NCD 12/07 Q1022
                        NOSIG=
201607060120 METAR COR EGLL 060120Z AUTO VRB02KT 9999 FEW043 13/07 Q1022
                        NOSIG=
201607060050 METAR COR EGLL 060050Z AUTO VRB02KT 9999 OVC041 14/08 Q1022
                        NOSIG=
201607060020 METAR COR EGLL 060020Z AUTO 32004KT 280V010 9999 OVC041 14/08
                        Q1022 NOSIG=
201607052350 METAR COR EGLL 052350Z AUTO 34004KT 290V020 9999 BKN040 15/08
                        Q1022 NOSIG=
201607052320 METAR COR EGLL 052320Z AUTO 35004KT 310V030 9999 BKN040 15/08
                        Q1022 NOSIG=
201607052250 METAR COR EGLL 052250Z AUTO 35004KT 320V030 9999 BKN040 15/09
                        Q1022 NOSIG=
201607052220 METAR COR EGLL 052220Z AUTO 36006KT 320V030 9999 BKN041 16/09
                        Q1021 NOSIG=
201607052150 METAR COR EGLL 052150Z AUTO 35005KT 310V030 9999 BKN044 17/09
                        Q1021 NOSIG=
201607052120 METAR COR EGLL 052120Z AUTO VRB03KT 9999 SCT044 18/09 Q1021
                        NOSIG=
201607052050 METAR COR EGLL 052050Z AUTO 36003KT 9999 NCD 18/09 Q1021
                        NOSIG=
201607052020 METAR COR EGLL 052020Z AUTO VRB02KT 9999 NCD 18/09 Q1020
                        NOSIG=
201607051950 METAR COR EGLL 051950Z AUTO VRB02KT 9999 NCD 19/08 Q1020
                        NOSIG=
201607051920 METAR COR EGLL 051920Z AUTO 32004KT 300V360 9999 NCD 19/08
                        Q1020 NOSIG=
201607051850 METAR COR EGLL 051850Z AUTO 33005KT 290V020 9999 NCD 19/08
                        Q1020 NOSIG=
201607051820 METAR COR EGLL 051820Z AUTO 30007KT 280V350 9999 NCD 20/08
                        Q1020 NOSIG=
201607051750 METAR COR EGLL 051750Z AUTO 32007KT 270V010 9999 NCD 20/08
                        Q1020 NOSIG=
201607051720 METAR COR EGLL 051720Z AUTO 31006KT 250V020 9999 BKN049 20/08
                        Q1020 NOSIG=
201607051650 METAR COR EGLL 051650Z AUTO 30008KT 270V340 9999 BKN049 20/08
                        Q1019 NOSIG=
201607051620 METAR COR EGLL 051620Z AUTO 31008KT 270V350 9999 BKN048 21/09
                        Q1019 NOSIG=
201607051550 METAR COR EGLL 051550Z AUTO 31010KT 270V340 9999 SCT047 20/09
                        Q1019 NOSIG=
201607051520 METAR COR EGLL 051520Z AUTO 32008KT 270V350 9999 BKN046 20/09
                        Q1019 NOSIG=
201607051450 METAR COR EGLL 051450Z AUTO 32007KT 280V340 9999 BKN044 20/09
                        Q1019 NOSIG=
201607051420 METAR COR EGLL 051420Z AUTO 30009KT 270V350 9999 BKN043 20/10
                        Q1019 NOSIG=
201607051350 METAR COR EGLL 051350Z AUTO 31009KT 280V340 9999 BKN041 20/09
                        Q1019 NOSIG=
201607051320 METAR COR EGLL 051320Z AUTO 30010KT 9999 BKN042 19/10 Q1019
                        NOSIG=
201607051250 METAR COR EGLL 051250Z AUTO 31008KT 250V340 9999 BKN036 19/09
                        Q1019 NOSIG=
201607051220 METAR COR EGLL 051220Z AUTO 30012KT 260V330 9999 BKN033 18/10
                        Q1019 NOSIG=
201607051150 METAR COR EGLL 051150Z AUTO 30010KT 270V330 9999 BKN036 18/10
                        Q1019 NOSIG=
201607051120 METAR COR EGLL 051120Z AUTO 31011KT 280V340 9999 BKN034 18/10
                        Q1018 NOSIG=
201607051050 METAR COR EGLL 051050Z AUTO 31009KT 290V360 9999 BKN029 18/10
                        Q1018 NOSIG=
201607051020 METAR COR EGLL 051020Z AUTO 31012KT 280V340 9999 BKN029 18/11
                        Q1018 NOSIG=
201607050950 METAR COR EGLL 050950Z AUTO 29011KT 9999 BKN027 18/11 Q1017
                        NOSIG=
201607050920 METAR COR EGLL 050920Z AUTO 30010KT 9999 BKN034 17/11 Q1017
                        NOSIG=
201607050850 METAR COR EGLL 050850Z AUTO 31011KT 9999 BKN017 OVC036 16/11
                        Q1017 NOSIG=
201607050820 METAR COR EGLL 050820Z AUTO 27011KT 9999 BKN017 OVC037 17/13
                        Q1016 NOSIG=
201607050750 METAR COR EGLL 050750Z AUTO 27011KT 9999 SCT015 OVC043 16/13
                        Q1016 NOSIG=
201607050720 METAR COR EGLL 050720Z AUTO 27011KT 9999 SCT013 OVC041 16/13
                        Q1016 NOSIG=
201607050650 METAR COR EGLL 050650Z AUTO 27010KT 9999 BKN012 16/13 Q1015
                        BECMG BKN016=
201607050620 METAR COR EGLL 050620Z AUTO 26011KT 9999 BKN013 15/13 Q1015
                        BECMG BKN016=
201607050550 METAR COR EGLL 050550Z AUTO 26011KT 9999 OVC014 15/13 Q1015
                        TEMPO SCT014=
201607050520 METAR COR EGLL 050520Z AUTO 26011KT 9999 SCT016 BKN023 15/12
                        Q1015 TEMPO BKN014=
201607050450 METAR COR EGLL 050450Z AUTO 26009KT 230V290 9999 BKN022 15/13
                        Q1014 NOSIG=
201607050420 METAR COR EGLL 050420Z AUTO 25009KT 9999 FEW011 BKN026 15/14
                        Q1014 NOSIG=
201607050350 METAR COR EGLL 050350Z AUTO 25010KT 9999 SCT013 BKN027 15/14
                        Q1014 NOSIG=
201607050320 METAR COR EGLL 050320Z AUTO 24009KT 9999 FEW016 BKN027 16/15
                        Q1014 NOSIG=
201607050250 METAR COR EGLL 050250Z AUTO 22009KT 9999 FEW007 BKN033 15/15
                        Q1014 NOSIG=
201607050220 METAR COR EGLL 050220Z AUTO 24010KT 5000 HZ BKN009 16/14
                        Q1014 NOSIG=
201607050150 METAR COR EGLL 050150Z AUTO 22010KT 9999 FEW011 OVC038 16/14
                        Q1015 TEMPO BKN012=
201607050120 METAR COR EGLL 050120Z AUTO 22008KT 9999 OVC028 16/14 Q1015
                        NOSIG=
201607050050 METAR COR EGLL 050050Z AUTO 22010KT 9999 BKN010 OVC028 16/14
                        Q1015 BECMG FEW010=
201607050020 METAR COR EGLL 050020Z AUTO 22009KT 9999 BKN010 15/13 Q1015
                        TEMPO BKN007=
201607042350 METAR COR EGLL 042350Z AUTO 22010KT 9999 BKN010 16/13 Q1015
                        TEMPO BKN008=
201607042320 METAR COR EGLL 042320Z AUTO 22010KT 9999 OVC009 16/13 Q1016
                        NOSIG=
201607042250 METAR COR EGLL 042250Z AUTO 21010KT 9999 BKN010 16/13 Q1016
                        NOSIG=
201607042220 METAR COR EGLL 042220Z 21009KT 9999 BKN016 16/14 Q1016 TEMPO
                        BKN014=
201607042150 METAR COR EGLL 042150Z 21010KT 9999 BKN015 17/13 Q1016 TEMPO
                        BKN014=
201607042120 METAR COR EGLL 042120Z 22010KT 9999 BKN016 17/13 Q1016 TEMPO
                        BKN014=
201607042050 METAR COR EGLL 042050Z 23013KT 9999 BKN019 17/13 Q1016 NOSIG=
201607042020 METAR COR EGLL 042020Z AUTO 22009KT 9999 OVC014 17/14 Q1016
                        NOSIG=
201607041950 METAR COR EGLL 041950Z AUTO 22010KT 9999 OVC014 18/14 Q1016
                        TEMPO SCT014=
201607041920 METAR COR EGLL 041920Z AUTO 21010KT 170V230 9999 OVC013 18/14
                        Q1016 TEMPO SCT014=
201607041850 METAR COR EGLL 041850Z AUTO 22009KT 9999 BKN014 18/14 Q1016
                        TEMPO SCT014=
201607041820 METAR COR EGLL 041820Z AUTO 22010KT 180V250 9999 OVC013 18/14
                        Q1017 NOSIG=
201607041750 METAR COR EGLL 041750Z AUTO 21011KT 9999 BKN014 18/14 Q1017
                        NOSIG=
201607041720 METAR COR EGLL 041720Z 22010KT 9999 BKN015 18/14 Q1017 TEMPO
                        BKN014=
201607041650 METAR COR EGLL 041650Z 23011KT 9999 FEW014 BKN016 18/14 Q1017
                        TEMPO BKN014=
201607041620 METAR COR EGLL 041620Z AUTO 22013KT 190V250 9999 OVC015 18/14
                        Q1017 TEMPO BKN014=
201607041550 METAR COR EGLL 041550Z AUTO 22013KT 9999 OVC020 19/14 Q1018
                        NOSIG=
201607041520 METAR COR EGLL 041520Z AUTO 22012KT 9999 OVC023 19/14 Q1018
                        NOSIG=
201607041450 METAR COR EGLL 041450Z AUTO 21011KT 180V240 9999 BKN023 OVC043
                        19/14 Q1018 NOSIG=
201607041420 METAR COR EGLL 041420Z AUTO 22011KT 170V260 9999 BKN025 19/13
                        Q1018 NOSIG=
201607041350 METAR COR EGLL 041350Z AUTO 23011KT 9999 BKN030 20/13 Q1018
                        NOSIG=
201607041320 METAR COR EGLL 041320Z AUTO 22010KT 170V260 9999 BKN030 OVC046
                        20/13 Q1018 NOSIG=
201607041250 METAR COR EGLL 041250Z AUTO 21010G20KT 180V250 9999 BKN031
                        BKN045 20/12 Q1019 NOSIG=
201607041220 METAR COR EGLL 041220Z AUTO 22010KT 180V260 9999 BKN031 OVC048
                        20/12 Q1019 NOSIG=
201607041150 METAR COR EGLL 041150Z AUTO 22011G21KT 9999 OVC032 19/12
                        Q1019 NOSIG=
201607041120 METAR COR EGLL 041120Z AUTO 22009KT 170V250 9999 BKN030 20/12
                        Q1019 NOSIG=
201607041050 METAR COR EGLL 041050Z AUTO 23010KT 190V260 9999 BKN029 20/12
                        Q1019 NOSIG=
201607041020 METAR COR EGLL 041020Z AUTO 22010KT 200V260 9999 BKN031 19/12
                        Q1019 NOSIG=
201607040950 METAR COR EGLL 040950Z AUTO 24010KT 180V260 9999 FEW035 20/11
                        Q1020 NOSIG=
201607040920 METAR COR EGLL 040920Z AUTO 22009KT 180V260 9999 FEW032 20/11
                        Q1020 NOSIG=
201607040850 METAR COR EGLL 040850Z AUTO 22008KT 150V260 9999 NCD 19/11
                        Q1020 NOSIG=
201607040820 METAR COR EGLL 040820Z AUTO 23007KT 200V270 9999 NCD 18/12
                        Q1020 NOSIG=
201607040750 METAR COR EGLL 040750Z AUTO 22005KT 180V300 9999 NCD 17/12
                        Q1020 NOSIG=
201607040720 METAR COR EGLL 040720Z AUTO 21004KT 160V260 9999 NCD 15/12
                        Q1020 NOSIG=
201607040650 METAR COR EGLL 040650Z AUTO 20004KT 160V240 9999 NCD 15/11
                        Q1019 NOSIG=
201607040620 METAR COR EGLL 040620Z AUTO 23004KT 200V270 9999 NCD 14/11
                        Q1019 NOSIG=
201607040550 METAR COR EGLL 040550Z AUTO 22004KT 170V260 9999 NCD 13/11
                        Q1019 NOSIG=
201607040520 METAR COR EGLL 040520Z AUTO VRB03KT 9999 NCD 12/12 Q1019
                        NOSIG=
201607040450 METAR COR EGLL 040450Z AUTO VRB03KT 9999 NCD 12/12 Q1019
                        NOSIG=
201607040420 METAR COR EGLL 040420Z AUTO VRB03KT 9999 NCD 11/11 Q1019
                        NOSIG=
201607040350 METAR COR EGLL 040350Z AUTO 26003KT 9999 NCD 12/12 Q1019
                        NOSIG=
201607040320 METAR COR EGLL 040320Z AUTO 24004KT 6000 NCD 12/12 Q1019
                        NOSIG=
201607040250 METAR COR EGLL 040250Z AUTO 21002KT 9999 NCD 12/12 Q1019
                        NOSIG=
201607040220 METAR COR EGLL 040220Z AUTO 22004KT 9999 NCD 12/12 Q1020
                        NOSIG=
201607040150 METAR COR EGLL 040150Z AUTO 21004KT 9999 NCD 12/12 Q1020
                        NOSIG=
201607040120 METAR COR EGLL 040120Z AUTO 23004KT 9999 NCD 13/13 Q1020
                        NOSIG=
201607040050 METAR COR EGLL 040050Z AUTO 23004KT 9999 NCD 13/13 Q1020
                        NOSIG=
201607040020 METAR COR EGLL 040020Z AUTO 21004KT 9999 NCD 13/13 Q1020
                        NOSIG=
201607032350 METAR COR EGLL 032350Z AUTO 21005KT 9999 NCD 13/13 Q1020
                        NOSIG=
201607032320 METAR COR EGLL 032320Z AUTO 20005KT 9999 NCD 14/13 Q1020
                        NOSIG=
201607032250 METAR COR EGLL 032250Z AUTO 22005KT 9999 NCD 14/12 Q1020
                        NOSIG=
201607032220 METAR COR EGLL 032220Z AUTO 22006KT 200V270 9999 NCD 14/12
                        Q1020 NOSIG=
201607032150 METAR COR EGLL 032150Z AUTO 22007KT 180V250 9999 NCD 15/12
                        Q1020 NOSIG=
201607032120 METAR COR EGLL 032120Z AUTO 21008KT 180V260 9999 FEW044 15/12
                        Q1020 NOSIG=
201607032050 METAR COR EGLL 032050Z AUTO 20010KT 160V250 9999 NCD 16/12
                        Q1020 NOSIG=
201607032020 METAR COR EGLL 032020Z AUTO 21010KT 170V240 9999 NCD 17/12
                        Q1019 NOSIG=
201607031950 METAR COR EGLL 031950Z AUTO 20010KT 160V240 9999 FEW042 17/12
                        Q1019 NOSIG=
201607031920 METAR COR EGLL 031920Z AUTO 20009KT 170V240 9999 SCT042 18/12
                        Q1019 NOSIG=
201607031850 METAR COR EGLL 031850Z AUTO 19011KT 170V240 9999 FEW042 19/12
                        Q1019 NOSIG=
201607031820 METAR COR EGLL 031820Z AUTO 20011KT 160V240 9999 NCD 19/12
                        Q1018 NOSIG=
201607031750 METAR COR EGLL 031750Z AUTO 20011KT 160V240 9999 NCD 20/12
                        Q1018 NOSIG=
201607031720 METAR COR EGLL 031720Z AUTO 20011KT 170V250 9999 NCD 20/12
                        Q1018 NOSIG=
201607031650 METAR COR EGLL 031650Z AUTO 20010KT 170V250 9999 NCD 20/12
                        Q1018 NOSIG=
201607031620 METAR COR EGLL 031620Z AUTO 20009KT 150V240 9999 NCD 20/12
                        Q1018 NOSIG=
201607031550 METAR COR EGLL 031550Z AUTO 19011KT 170V230 9999 FEW037 20/12
                        Q1018 NOSIG=
201607031520 METAR COR EGLL 031520Z AUTO 21010G23KT 160V240 9999 BKN038
                        20/11 Q1018 NOSIG=
201607031450 METAR COR EGLL 031450Z AUTO 23009KT 9999 NCD 20/11 Q1018
                        NOSIG=
201607031420 METAR COR EGLL 031420Z AUTO 22008G19KT 180V250 9999 SCT038
                        20/10 Q1018 NOSIG=
201607031350 METAR COR EGLL 031350Z AUTO 21007KT 170V250 9999 FEW036 20/10
                        Q1018 NOSIG=
201607031320 METAR COR EGLL 031320Z AUTO 20008KT 160V250 9999 BKN034 19/11
                        Q1018 NOSIG=
201607031250 METAR COR EGLL 031250Z AUTO 23008KT 190V270 9999 FEW030 19/10
                        Q1018 NOSIG=
201607031220 METAR COR EGLL 031220Z AUTO 21011KT 9999 FEW031 19/11 Q1019
                        NOSIG=
201607031150 METAR COR EGLL 031150Z AUTO 21010KT 180V250 9999 SCT031 19/10
                        Q1019 NOSIG=
201607031120 METAR COR EGLL 031120Z AUTO 24006KT 170V290 9999 SCT034 19/10
                        Q1019 NOSIG=
201607031050 METAR COR EGLL 031050Z AUTO 26007KT 220V300 9999 NCD 18/10
                        Q1019 NOSIG=
201607031020 METAR COR EGLL 031020Z AUTO 22007KT 200V270 9999 FEW034 17/09
                        Q1019 NOSIG=
201607030950 METAR COR EGLL 030950Z AUTO 23007KT 200V280 9999 FEW030 17/10
                        Q1018 NOSIG=
201607030920 METAR COR EGLL 030920Z AUTO 24006KT 190V280 9999 FEW027 17/10
                        Q1018 NOSIG=
201607030850 METAR COR EGLL 030850Z AUTO 25007KT 210V290 9999 SCT023 16/10
                        Q1018 NOSIG=
201607030820 METAR COR EGLL 030820Z AUTO 24006KT 200V300 9999 FEW019 16/10
                        Q1018 NOSIG=
201607030750 METAR COR EGLL 030750Z AUTO 23005KT 210V310 9999 FEW017 16/11
                        Q1018 NOSIG=
201607030720 METAR COR EGLL 030720Z AUTO 25006KT 220V300 9999 FEW015 15/11
                        Q1018 NOSIG=
201607030650 METAR COR EGLL 030650Z AUTO 24006KT 200V280 9999 NCD 14/10
                        Q1018 NOSIG=
201607030620 METAR COR EGLL 030620Z AUTO 24006KT 200V280 9999 NCD 13/10
                        Q1018 NOSIG=
201607030550 METAR COR EGLL 030550Z AUTO 23006KT 190V250 9999 NCD 13/10
                        Q1018 NOSIG=
201607030520 METAR COR EGLL 030520Z AUTO 23005KT 190V260 9999 NCD 12/11
                        Q1018 NOSIG=
201607030450 METAR COR EGLL 030450Z AUTO 21004KT 160V300 9999 NCD 11/11
                        Q1018 NOSIG=
201607030420 METAR COR EGLL 030420Z AUTO 19004KT 170V230 9999 NCD 11/10
                        Q1017 NOSIG=
201607030350 METAR COR EGLL 030350Z AUTO 19004KT 170V260 9999 NCD 11/09
                        Q1017 NOSIG=
201607030320 METAR COR EGLL 030320Z AUTO 19004KT 9999 NCD 11/09 Q1017
                        NOSIG=
201607030250 METAR COR EGLL 030250Z AUTO 23004KT 9999 NCD 11/09 Q1017
                        NOSIG=
201607030220 METAR COR EGLL 030220Z AUTO 24004KT 9999 NCD 11/09 Q1017
                        NOSIG=
201607030150 METAR COR EGLL 030150Z AUTO 22005KT 9999 NCD 11/09 Q1017
                        NOSIG=
201607030120 METAR COR EGLL 030120Z AUTO 22007KT 9999 NCD 12/09 Q1017
                        NOSIG=
201607030050 METAR COR EGLL 030050Z AUTO 24008KT 9999 NCD 12/09 Q1017
                        NOSIG=
201607030020 METAR COR EGLL 030020Z AUTO 24009KT 9999 NCD 13/09 Q1017
                        NOSIG=
201607022350 METAR COR EGLL 022350Z AUTO 24009KT 9999 NCD 13/08 Q1017
                        NOSIG=
201607022320 METAR COR EGLL 022320Z AUTO 25008KT 9999 NCD 13/08 Q1017
                        NOSIG=
201607022250 METAR COR EGLL 022250Z AUTO 24008KT 9999 NCD 14/08 Q1017
                        NOSIG=
201607022220 METAR COR EGLL 022220Z AUTO 26011KT 9999 NCD 14/08 Q1017
                        NOSIG=
201607022150 METAR COR EGLL 022150Z AUTO 25010KT 9999 NCD 15/07 Q1017
                        NOSIG=
201607022120 METAR COR EGLL 022120Z AUTO 24010KT 9999 NCD 15/07 Q1017
                        NOSIG=
201607022050 METAR COR EGLL 022050Z AUTO 25012KT 9999 NCD 16/07 Q1016
                        NOSIG=
201607022020 METAR COR EGLL 022020Z AUTO 27011KT 9999 NCD 16/06 Q1016
                        NOSIG=
201607021950 METAR COR EGLL 021950Z AUTO 27012KT 9999 NCD 16/06 Q1016
                        NOSIG=
201607021920 METAR COR EGLL 021920Z AUTO 27013KT 9999 NCD 17/06 Q1015
                        NOSIG=
201607021850 METAR COR EGLL 021850Z AUTO 27016KT 9999 NCD 18/06 Q1015
                        NOSIG=
201607021820 METAR COR EGLL 021820Z AUTO 27014KT 9999 NCD 19/06 Q1015
                        NOSIG=
201607021750 METAR COR EGLL 021750Z AUTO 26015KT 9999 NCD 19/06 Q1015
                        NOSIG=
201607021720 METAR COR EGLL 021720Z AUTO 26014KT 230V300 9999 //////CB
                        19/08 Q1014 NOSIG=
201607021650 METAR COR EGLL 021650Z AUTO 28008G18KT 250V320 9999 BKN038///
                        //////CB 19/10 Q1014 NOSIG=
201607021620 METAR COR EGLL 021620Z AUTO 25016KT 9999 BKN041/// //////TCU
                        19/09 Q1014 TEMPO SHRA=
201607021550 METAR COR EGLL 021550Z AUTO 25013KT 9999 SCT035/// //////TCU
                        18/10 Q1014 TEMPO SHRA=
201607021520 METAR COR EGLL 021520Z AUTO 23018KT 9999 SCT041/// //////CB
                        20/08 Q1014 NOSIG=
201607021450 METAR COR EGLL 021450Z AUTO 25016KT 9999 FEW046/// //////CB
                        19/08 Q1014 NOSIG=
201607021420 METAR COR EGLL 021420Z AUTO 27017KT 9999 FEW043/// //////CB
                        19/08 Q1014 NOSIG=
201607021350 METAR COR EGLL 021350Z AUTO 25016KT 9999 FEW036/// //////CB
                        19/09 Q1014 NOSIG=
201607021320 METAR COR EGLL 021320Z AUTO 25014KT 9999 //////CB 18/09 Q1014
                        TEMPO SHRA=
201607021250 METAR COR EGLL 021250Z AUTO 24015KT 9999 FEW012 17/09 Q1014
                        NOSIG=
201607021220 METAR COR EGLL 021220Z 24016KT 9999 FEW030CB 17/10 Q1014
                        TEMPO SHRA=
201607021150 METAR COR EGLL 021150Z AUTO 27015KT 9999 FEW023/// //////CB
                        17/09 Q1014 NOSIG=
201607021120 METAR COR EGLL 021120Z AUTO 25017KT 9999 -RA BKN034/// //////CB
                        16/09 Q1014 TEMPO SHRA=
201607021050 METAR COR EGLL 021050Z AUTO 26013KT 9999 FEW038 17/08 Q1014
                        TEMPO SHRA=
201607021020 METAR COR EGLL 021020Z AUTO 26013KT 9999 SCT037 16/08 Q1014
                        TEMPO SHRA=
201607020950 METAR COR EGLL 020950Z AUTO 25015KT 9999 BKN034 16/07 Q1013
                        NOSIG=
201607020920 METAR COR EGLL 020920Z AUTO 26015KT 9999 SCT032 16/07 Q1013
                        NOSIG=
201607020850 METAR COR EGLL 020850Z 25016KT 9999 FEW030 15/07 Q1013 NOSIG=
201607020820 METAR COR EGLL 020820Z 26015KT 9999 FEW025 15/08 Q1013 NOSIG=
201607020750 METAR COR EGLL 020750Z AUTO 26014KT 9999 SCT022 14/08 Q1013
                        NOSIG=
201607020720 METAR COR EGLL 020720Z AUTO 26013KT 9999 FEW020 14/09 Q1012
                        NOSIG=
201607020650 METAR COR EGLL 020650Z AUTO 26013KT 9999 FEW018 13/09 Q1012
                        NOSIG=
201607020620 METAR COR EGLL 020620Z AUTO 24013KT 9999 FEW017 13/09 Q1012
                        NOSIG=
201607020550 METAR COR EGLL 020550Z AUTO 25013KT 9999 NCD 12/09 Q1012
                        NOSIG=
201607020520 METAR COR EGLL 020520Z AUTO 24011KT 9999 FEW036 11/09 Q1011
                        NOSIG=
201607020450 METAR COR EGLL 020450Z AUTO 24010KT 9999 -RA SCT036 11/09
                        Q1011 NOSIG=
201607020420 METAR COR EGLL 020420Z AUTO 23011KT 9999 NCD 11/09 Q1011
                        NOSIG=
201607020350 METAR COR EGLL 020350Z AUTO 24008KT 9999 NCD 11/08 Q1011
                        NOSIG=
201607020320 METAR COR EGLL 020320Z AUTO 24009KT 9999 NCD 11/08 Q1011
                        NOSIG=
201607020250 METAR COR EGLL 020250Z AUTO 24010KT 9999 NCD 11/08 Q1011
                        NOSIG=
201607020220 METAR COR EGLL 020220Z AUTO 24010KT 9999 NCD 11/08 Q1011
                        NOSIG=
201607020150 METAR COR EGLL 020150Z AUTO 24008KT 9999 NCD 11/08 Q1011
                        NOSIG=
201607020120 METAR COR EGLL 020120Z AUTO 24008KT 9999 NCD 11/09 Q1011
                        NOSIG=
201607020050 METAR COR EGLL 020050Z AUTO 24011KT 9999 NCD 11/09 Q1010
                        NOSIG=
201607020020 METAR COR EGLL 020020Z AUTO 24011KT 9999 NCD 11/09 Q1010
                        NOSIG=
201607012350 METAR COR EGLL 012350Z AUTO 24010KT 9999 FEW033 12/09 Q1010
                        NOSIG=
201607012320 METAR COR EGLL 012320Z AUTO 23012KT 9999 NCD 12/09 Q1010
                        NOSIG=
201607012250 METAR COR EGLL 012250Z AUTO 23011KT 9999 NCD 12/09 Q1010
                        NOSIG=
201607012220 METAR COR EGLL 012220Z AUTO 25013KT 9999 NCD 13/09 Q1010
                        NOSIG=
201607012150 METAR COR EGLL 012150Z AUTO 24012KT 9999 NCD 13/09 Q1010
                        NOSIG=
201607012120 METAR COR EGLL 012120Z AUTO 24013KT 9999 NCD 13/10 Q1010
                        NOSIG=
201607012050 METAR COR EGLL 012050Z AUTO 24012KT 9999 NCD 13/11 Q1009
                        NOSIG=
201607012020 METAR COR EGLL 012020Z AUTO 24012KT 9999 NCD 14/11 Q1009
                        NOSIG=
201607011950 METAR COR EGLL 011950Z AUTO 25012KT 9999 NCD 14/11 Q1009
                        NOSIG=
201607011920 METAR COR EGLL 011920Z AUTO 24012KT 9999 FEW027/// BKN042///
                        //////CB 15/11 Q1009 NOSIG=
201607011850 METAR COR EGLL 011850Z AUTO 26017KT 9999 -RA BKN031/// //////CB
                        16/11 Q1009 NOSIG=
201607011820 METAR COR EGLL 011820Z AUTO 25012KT 9999 FEW038/// //////TCU
                        17/09 Q1008 TEMPO SHRA=
201607011750 METAR COR EGLL 011750Z AUTO 27016KT 9999 FEW035 17/09 Q1008
                        TEMPO SHRA=
201607011720 METAR COR EGLL 011720Z AUTO 26016KT 9999 NCD 17/10 Q1008
                        NOSIG=
201607011650 METAR COR EGLL 011650Z 27013KT 9999 BKN036 17/09 Q1008 NOSIG=
201607011620 METAR COR EGLL 011620Z 27015KT 9999 BKN032 17/10 Q1008 TEMPO
                        SHRA=
201607011550 METAR COR EGLL 011550Z AUTO 25013KT 9999 FEW032 BKN045 18/10
                        Q1008 TEMPO SHRA=
201607011520 METAR COR EGLL 011520Z AUTO 23014KT 9999 BKN029 18/11 Q1008
                        TEMPO SHRA=
201607011450 METAR COR EGLL 011450Z AUTO 23015KT 190V250 9999 BKN029 BKN045
                        19/12 Q1007 TEMPO SHRA=
201607011420 METAR COR EGLL 011420Z AUTO 23015KT 9999 FEW030 19/12 Q1008
                        NOSIG=
201607011350 METAR COR EGLL 011350Z AUTO 22013KT 9999 FEW026 SCT034 18/13
                        Q1008 NOSIG=
201607011320 METAR COR EGLL 011320Z 22013KT 9999 SCT028 17/13 Q1008 TEMPO
                        SHRA=
201607011250 METAR COR EGLL 011250Z 22011KT 9999 VCSH BKN025 BKN045 16/13
                        Q1008 TEMPO SHRA=
201607011220 METAR COR EGLL 011220Z AUTO 24010KT 9999 OVC022 15/12 Q1009
                        NOSIG=
201607011150 METAR COR EGLL 011150Z 26011KT 9999 FEW011 BKN023 16/13 Q1009
                        TEMPO SHRA=
201607011120 METAR COR EGLL 011120Z AUTO 22010KT 180V240 9999 SCT015 SCT032
                        OVC048 16/14 Q1009 TEMPO SHRA=
201607011050 METAR COR EGLL 011050Z 23011KT 200V260 9999 SCT016 BKN039
                        17/13 Q1009 TEMPO SHRA=
201607011020 METAR COR EGLL 011020Z 23009KT 9999 -RA FEW014 SCT019 BKN040
                        17/14 Q1009 NOSIG=
201607010950 METAR COR EGLL 010950Z 22012KT 9999 SCT013 SCT024 BKN038
                        17/13 Q1009 TEMPO SHRA=
201607010920 METAR COR EGLL 010920Z 24011KT 8000 -RADZ BKN014 BKN027 16/14
                        Q1009 BECMG SCT020=
201607010850 METAR COR EGLL 010850Z 25010KT 9999 FEW018 BKN022 17/12 Q1009
                        NOSIG=
201607010820 METAR COR EGLL 010820Z AUTO 23012KT 9999 BKN039 17/13 Q1009
                        NOSIG=
201607010750 METAR COR EGLL 010750Z AUTO 22011KT 9999 BKN038 16/14 Q1009
                        NOSIG=
201607010720 METAR COR EGLL 010720Z 23010KT 9999 FEW015 BKN040 15/15 Q1009
                        NOSIG=
201607010650 METAR COR EGLL 010650Z 23009KT 9999 -RA FEW015 SCT021 BKN033
                        15/14 Q1009 NOSIG=
201607010620 METAR COR EGLL 010620Z 25010KT 9999 -RA FEW012 BKN026 15/14
                        Q1009 NOSIG=
201607010550 METAR COR EGLL 010550Z 25011KT 7000 -RADZ SCT008 SCT011 BKN020
                        15/13 Q1009 TEMPO BKN012=
201607010520 METAR COR EGLL 010520Z 22010KT 7000 -RA FEW010 SCT013 BKN015
                        16/14 Q1009 TEMPO BKN012=
201607010450 METAR COR EGLL 010450Z 23010KT 9999 SCT011 BKN018 15/14 Q1009
                        TEMPO BKN012=
201607010420 METAR COR EGLL 010420Z 23011KT 200V260 9999 SCT019 BKN030
                        16/13 Q1008 TEMPO BKN014=
201607010350 METAR COR EGLL 010350Z AUTO 24011KT 9999 BKN012 16/13 Q1008
                        TEMPO BKN015=
201607010320 METAR COR EGLL 010320Z AUTO 23013KT 9999 BKN013 16/13 Q1008
                        TEMPO BKN016=
201607010250 METAR EGLL 010250Z AUTO 23014KT 9999 OVC014 16/13 Q1008=
201607010220 METAR COR EGLL 010220Z AUTO 23013KT 9999 OVC016 16/13 Q1008
                        TEMPO BKN014=
201607010150 METAR COR EGLL 010150Z AUTO 23013KT 9999 FEW015 OVC023 16/13
                        Q1008 TEMPO BKN014=
201607010120 METAR COR EGLL 010120Z AUTO 23013KT 9999 BKN016 16/13 Q1008
                        TEMPO BKN014=
201607010050 METAR COR EGLL 010050Z AUTO 24013KT 9999 BKN016 BKN029 16/13
                        Q1008 TEMPO BKN014=
201607010020 METAR COR EGLL 010020Z AUTO 24014KT 9999 BKN017 OVC037 17/13
                        Q1008 TEMPO BKN014=

</pre>

</body>
</html>
