##########################################################
# Query made at 12/31/2014 10:13:52 UTC
# Time interval: from 02/01/2013 00:00  to 03/03/2013 23:59  UTC
##########################################################

##########################################################
# EGLL, London / Heathrow Airport (United Kingdom)
# WMO index: 03772
# Latitude 51-29N. Longitude 000-27W. Altitude 24 m.
##########################################################

###################################
#  METAR/SPECI from EGLL
###################################
201303032350 METAR COR EGLL 032350Z 09005KT 9000 NSC 01/M00 Q1020 TEMPO
                        4500 HZ BKN012=
201303032320 METAR COR EGLL 032320Z 09006KT 9000 NSC 02/00 Q1020 TEMPO
                        4500 BR BKN010=
201303032250 METAR COR EGLL 032250Z 10008KT 9000 FEW012 03/01 Q1020 TEMPO
                        BKN012=
201303032220 METAR COR EGLL 032220Z 10009KT 9000 SCT013 03/01 Q1021 TEMPO
                        BKN009=
201303032150 METAR COR EGLL 032150Z 10007KT 9000 FEW014 BKN018 03/02 Q1021
                        TEMPO BKN012=
201303032120 METAR COR EGLL 032120Z 13007KT 9000 BKN014 03/01 Q1021 TEMPO
                        SCT012=
201303032050 METAR COR EGLL 032050Z 10005KT 9999 FEW015 03/01 Q1021 TEMPO
                        BKN010=
201303032020 METAR COR EGLL 032020Z 10009KT 9999 SCT012 04/01 Q1021 TEMPO
                        BKN012=
201303031950 METAR COR EGLL 031950Z 09013KT 9999 SCT013 04/02 Q1021 TEMPO
                        BKN012=
201303031920 METAR COR EGLL 031920Z 09008KT 9999 FEW012 05/02 Q1021 TEMPO
                        BKN012=
201303031850 METAR COR EGLL 031850Z 09008KT 9999 FEW030 04/01 Q1021 NOSIG=
201303031820 METAR COR EGLL 031820Z 08008KT 9999 FEW030 06/01 Q1021 NOSIG=
201303031750 METAR COR EGLL 031750Z 09010KT 9999 FEW029 06/01 Q1021 NOSIG=
201303031720 METAR COR EGLL 031720Z 10011KT 9999 SCT030 07/01 Q1021 NOSIG=
201303031650 METAR COR EGLL 031650Z 11010KT 9999 BKN034 07/01 Q1021 NOSIG=
201303031620 METAR COR EGLL 031620Z 10012KT 9999 BKN034 07/00 Q1021 NOSIG=
201303031550 METAR COR EGLL 031550Z 11012KT 9999 BKN033 08/01 Q1022 NOSIG=
201303031520 METAR COR EGLL 031520Z 12013KT 9999 SCT027 08/01 Q1022 NOSIG=
201303031450 METAR COR EGLL 031450Z 11010KT 9999 BKN027 07/01 Q1022 NOSIG=
201303031420 METAR COR EGLL 031420Z 10011KT 9999 BKN028 07/01 Q1022 NOSIG=
201303031350 METAR COR EGLL 031350Z 10012KT 9999 OVC028 07/01 Q1023 NOSIG=
201303031320 METAR COR EGLL 031320Z 10010KT 9999 BKN026 07/01 Q1023 NOSIG=
201303031250 METAR COR EGLL 031250Z 09007KT 9999 OVC025 07/01 Q1023 NOSIG=
201303031220 METAR COR EGLL 031220Z 11009KT 070V130 9999 BKN025 07/01
                        Q1024 NOSIG=
201303031150 METAR COR EGLL 031150Z 12011KT 9999 BKN021 07/01 Q1024 NOSIG=
201303031120 METAR COR EGLL 031120Z 11010KT 9999 BKN022 BKN026 06/01 Q1024
                        NOSIG=
201303031050 METAR COR EGLL 031050Z 10009KT 9999 FEW023 OVC028 06/01 Q1024
                        NOSIG=
201303031020 METAR COR EGLL 031020Z 09005KT 050V120 9999 BKN029 05/01
                        Q1024 NOSIG=
201303030950 METAR COR EGLL 030950Z 04004KT 350V080 9999 BKN028 04/00
                        Q1024 NOSIG=
201303030920 METAR COR EGLL 030920Z VRB03KT 9000 BKN027 03/01 Q1024 NOSIG=
201303030850 METAR COR EGLL 030850Z VRB03KT 8000 BKN028 03/00 Q1024 NOSIG=
201303030820 METAR EGLL 030820Z AUTO VRB02KT 8000 OVC026/// 02/M00 Q1025=
201303030750 METAR EGLL 030750Z AUTO 01003KT 7000 OVC023/// 01/M01 Q1025=
201303030720 METAR EGLL 030720Z AUTO VRB03KT 7000 OVC023/// 00/M01 Q1025=
201303030650 METAR EGLL 030650Z AUTO 36004KT 7000 OVC023/// M00/M02 Q1025=
201303030620 METAR COR EGLL 030620Z 05003KT 7000 BKN024 M01/M02 Q1025
                        NOSIG=
201303030550 METAR COR EGLL 030550Z 00000KT 6000 BKN027 M02/M03 Q1025
                        NOSIG=
201303030520 METAR COR EGLL 030520Z 00000KT 6000 SCT027 M02/M03 Q1025
                        NOSIG=
201303030450 METAR COR EGLL 030450Z 26002KT 6000 SCT025 M02/M03 Q1025
                        NOSIG=
201303030420 METAR COR EGLL 030420Z 00000KT 6000 SCT026 M02/M03 Q1025
                        NOSIG=
201303030350 METAR COR EGLL 030350Z 30002KT 7000 NSC M02/M04 Q1025 NOSIG=
201303030320 METAR COR EGLL 030320Z 00000KT 7000 NSC M02/M03 Q1025 NOSIG=
201303030250 METAR COR EGLL 030250Z 00000KT 7000 NSC M01/M03 Q1025 NOSIG=
201303030120 METAR COR EGLL 030120Z 36002KT 8000 NSC M01/M03 Q1026 NOSIG=
201303030050 METAR COR EGLL 030050Z 36002KT 9000 NSC M01/M03 Q1026 NOSIG=
201303030020 METAR COR EGLL 030020Z VRB02KT 9000 NSC M01/M03 Q1026 NOSIG=
201303022350 METAR COR EGLL 022350Z 00000KT CAVOK 00/M02 Q1026 NOSIG=
201303022320 METAR COR EGLL 022320Z 00000KT CAVOK 01/M02 Q1026 NOSIG=
201303022250 METAR COR EGLL 022250Z 00000KT CAVOK 02/M02 Q1026 NOSIG=
201303022220 METAR COR EGLL 022220Z 35003KT CAVOK 03/M01 Q1026 NOSIG=
201303022150 METAR COR EGLL 022150Z 05002KT CAVOK 03/M01 Q1026 NOSIG=
201303022120 METAR COR EGLL 022120Z 06002KT CAVOK 03/M01 Q1026 NOSIG=
201303022050 METAR COR EGLL 022050Z 06003KT CAVOK 02/M02 Q1026 NOSIG=
201303022020 METAR COR EGLL 022020Z 05002KT CAVOK 02/M02 Q1026 NOSIG=
201303021950 METAR COR EGLL 021950Z 05003KT CAVOK 02/M02 Q1026 NOSIG=
201303021920 METAR COR EGLL 021920Z VRB02KT CAVOK 03/M01 Q1026 NOSIG=
201303021850 METAR COR EGLL 021850Z VRB02KT CAVOK 02/M02 Q1026 NOSIG=
201303021820 METAR COR EGLL 021820Z VRB03KT 9999 FEW025 03/M02 Q1026 NOSIG=
201303021750 METAR COR EGLL 021750Z 36004KT 330V030 CAVOK 03/M02 Q1026
                        NOSIG=
201303021720 METAR COR EGLL 021720Z 04004KT 350V090 9999 SCT023 04/M01
                        Q1026 NOSIG=
201303021650 METAR COR EGLL 021650Z 02004KT 320V090 9999 SCT023 04/M01
                        Q1026 NOSIG=
201303021620 METAR COR EGLL 021620Z 02005KT 330V070 9999 SCT025 05/M01
                        Q1026 NOSIG=
201303021550 METAR COR EGLL 021550Z 35005KT 310V020 9999 BKN025 05/M01
                        Q1026 NOSIG=
201303021520 METAR COR EGLL 021520Z 05004KT 010V090 9999 BKN025 05/M01
                        Q1026 NOSIG=
201303021450 METAR COR EGLL 021450Z 02004KT 330V080 9999 BKN025 05/M01
                        Q1027 NOSIG=
201303021420 METAR COR EGLL 021420Z VRB03KT 9999 BKN023 04/M01 Q1027 NOSIG=
201303021350 METAR COR EGLL 021350Z 07004KT 030V100 9999 BKN020 04/M01
                        Q1027 NOSIG=
201303021320 METAR COR EGLL 021320Z 02004KT 290V090 9999 OVC021 04/M01
                        Q1027 NOSIG=
201303021250 METAR COR EGLL 021250Z VRB04KT 9999 OVC021 04/M01 Q1027 NOSIG=
201303021220 METAR COR EGLL 021220Z VRB03KT 9999 BKN021 04/M01 Q1028 NOSIG=
201303021150 METAR COR EGLL 021150Z VRB03KT 9999 BKN021 04/M01 Q1028 NOSIG=
201303021120 METAR COR EGLL 021120Z 06005KT 020V090 9999 BKN020 03/M01
                        Q1028 NOSIG=
201303021050 METAR COR EGLL 021050Z VRB03KT 9999 OVC020 03/M01 Q1028 NOSIG=
201303021020 METAR COR EGLL 021020Z 06005KT 350V110 9999 OVC019 03/M01
                        Q1028 NOSIG=
201303020950 METAR COR EGLL 020950Z 03005KT 9999 BKN019 03/M01 Q1028 NOSIG=
201303020920 METAR COR EGLL 020920Z 06004KT 020V090 9999 BKN018 03/M01
                        Q1028 NOSIG=
201303020850 METAR COR EGLL 020850Z 04004KT 360V090 9999 BKN018 03/M01
                        Q1028 NOSIG=
201303020820 METAR COR EGLL 020820Z 07006KT 030V090 9999 BKN020 03/M02
                        Q1028 NOSIG=
201303020750 METAR COR EGLL 020750Z 07005KT 030V090 9999 BKN021 03/M02
                        Q1028 NOSIG=
201303020720 METAR COR EGLL 020720Z 06004KT 9999 BKN022 03/M02 Q1028 NOSIG=
201303020650 METAR COR EGLL 020650Z 05004KT 010V090 9999 BKN022 03/M02
                        Q1028 NOSIG=
201303020620 METAR COR EGLL 020620Z 08008KT 9999 BKN023 03/M02 Q1028 NOSIG=
201303020550 METAR COR EGLL 020550Z 03007KT 360V070 9999 BKN023 03/M02
                        Q1028 NOSIG=
201303020520 METAR COR EGLL 020520Z 05007KT 010V080 9999 BKN023 03/M02
                        Q1028 NOSIG=
201303020450 METAR COR EGLL 020450Z 05006KT 9999 BKN024 03/M02 Q1028 NOSIG=
201303020420 METAR COR EGLL 020420Z 06007KT 9999 BKN024 03/M02 Q1029 NOSIG=
201303020350 METAR COR EGLL 020350Z 04005KT 360V080 9999 BKN024 03/M02
                        Q1029 NOSIG=
201303020320 METAR COR EGLL 020320Z 06007KT 020V090 9999 BKN024 03/M02
                        Q1029 NOSIG=
201303020250 METAR COR EGLL 020250Z 04007KT 010V080 9999 BKN024 03/M02
                        Q1029 NOSIG=
201303020220 METAR EGLL 020220Z AUTO 05007KT 020V080 9999 BKN024/// 03/M02
                        Q1029=
201303020150 METAR EGLL 020150Z AUTO 05006KT 9999 OVC024/// 03/M02 Q1029=
201303020120 METAR EGLL 020120Z AUTO 06006KT 9999 OVC024/// 03/M02 Q1030=
201303020050 METAR COR EGLL 020050Z 04005KT 360V070 9999 BKN025 03/M02
                        Q1030 NOSIG=
201303020020 METAR COR EGLL 020020Z 05006KT 360V070 9999 BKN025 04/M02
                        Q1030 NOSIG=
201303012350 METAR COR EGLL 012350Z 07008KT 9999 BKN025 04/M02 Q1030 NOSIG=
201303012320 METAR COR EGLL 012320Z 06009KT 9999 BKN025 04/M02 Q1030 NOSIG=
201303012250 METAR COR EGLL 012250Z 06010KT 9999 BKN025 04/M01 Q1030 NOSIG=
201303012220 METAR COR EGLL 012220Z 05008KT 9999 BKN026 04/M01 Q1030 NOSIG=
201303012150 METAR COR EGLL 012150Z 04007KT 010V070 9999 OVC026 04/M01
                        Q1030 NOSIG=
201303012120 METAR COR EGLL 012120Z 06007KT 020V090 9999 OVC028 04/M02
                        Q1030 NOSIG=
201303012050 METAR COR EGLL 012050Z 04007KT 360V070 9999 OVC029 05/M02
                        Q1029 NOSIG=
201303012020 METAR COR EGLL 012020Z 04008KT 360V060 9999 BKN030 05/M01
                        Q1029 NOSIG=
201303011950 METAR COR EGLL 011950Z 04009KT 010V070 9999 BKN028 05/M01
                        Q1029 NOSIG=
201303011920 METAR COR EGLL 011920Z 04007KT 360V070 9999 BKN030 05/00
                        Q1029 NOSIG=
201303011850 METAR EGLL 011850Z AUTO 02008KT 9999 OVC029/// 06/00 Q1029=
201303011820 METAR COR EGLL 011820Z 05007KT 010V090 9999 BKN033 06/M01
                        Q1029 NOSIG=
201303011750 METAR COR EGLL 011750Z 04008KT 010V070 9999 BKN033 06/M01
                        Q1029 NOSIG=
201303011720 METAR COR EGLL 011720Z 03009KT 360V070 9999 BKN033 06/M01
                        Q1029 NOSIG=
201303011650 METAR COR EGLL 011650Z 06007KT 9999 BKN035 06/M01 Q1029 NOSIG=
201303011620 METAR COR EGLL 011620Z 05009KT 020V080 9999 BKN035 06/M01
                        Q1029 NOSIG=
201303011550 METAR COR EGLL 011550Z 06008KT 020V080 9999 BKN035 06/M01
                        Q1029 NOSIG=
201303011520 METAR COR EGLL 011520Z 07009KT 9999 BKN038 06/M01 Q1029 NOSIG=
201303011450 METAR COR EGLL 011450Z 05009KT 9999 OVC032 06/M00 Q1029 NOSIG=
201303011420 METAR COR EGLL 011420Z 05009KT 9999 BKN032 06/00 Q1029 NOSIG=
201303011350 METAR COR EGLL 011350Z 06010KT 9999 SCT028 BKN034 07/00 Q1029
                        NOSIG=
201303011320 METAR COR EGLL 011320Z 05009KT 9999 SCT022 BKN030 07/01 Q1029
                        NOSIG=
201303011250 METAR COR EGLL 011250Z 06008KT 9999 FEW022 BKN035 07/02 Q1029
                        NOSIG=
201303011220 METAR COR EGLL 011220Z 06008KT 9999 FEW017 BKN030 06/03 Q1029
                        NOSIG=
201303011150 METAR COR EGLL 011150Z 05009KT 9999 SCT016 BKN024 06/03 Q1029
                        NOSIG=
201303011120 METAR COR EGLL 011120Z 05008KT 010V070 9999 FEW015 BKN034
                        06/03 Q1029 NOSIG=
201303011050 METAR COR EGLL 011050Z 04009KT 9999 FEW014 BKN035 06/04 Q1029
                        NOSIG=
201303011020 METAR COR EGLL 011020Z 05008KT 010V080 9000 -DZ SCT011 SCT037
                        06/04 Q1029 NOSIG=
201303010950 METAR COR EGLL 010950Z 05007KT 010V080 8000 SCT011 BKN014
                        06/04 Q1029 BECMG FEW018 BKN035=
201303010920 METAR COR EGLL 010920Z 04007KT 010V070 9000 SCT008 BKN010
                        05/04 Q1029 BECMG SCT012 BKN030=
201303010850 METAR COR EGLL 010850Z 03005KT 350V070 5000 -DZ FEW007 SCT008
                        BKN010 05/04 Q1029 NOSIG=
201303010820 METAR COR EGLL 010820Z 04005KT 8000 FEW008 BKN009 05/04 Q1029
                        BECMG SCT009 BKN014=
201303010750 METAR COR EGLL 010750Z 02004KT 350V060 7000 SCT008 BKN010
                        04/03 Q1029 NOSIG=
201303010720 METAR COR EGLL 010720Z VRB03KT 4500 -DZ HZ FEW005 BKN006
                        04/03 Q1028 BECMG 7000 SCT006 BKN012=
201303010650 METAR COR EGLL 010650Z VRB03KT 4000 -DZ HZ SCT004 BKN005
                        04/03 Q1028 TEMPO 2200 BKN004=
201303010620 METAR COR EGLL 010620Z 01004KT 340V040 4000 BR SCT004 BKN005
                        03/02 Q1028 TEMPO BKN004=
201303010550 METAR COR EGLL 010550Z 35003KT 2600 -DZ BR SCT005 BKN007
                        03/02 Q1028 TEMPO BKN004=
201303010520 METAR COR EGLL 010520Z 36004KT 3600 -DZ BR FEW003 SCT006
                        BKN009 03/02 Q1028 TEMPO BKN010=
201303010450 METAR COR EGLL 010450Z 36004KT 3000 -DZ BR FEW004 SCT007
                        BKN012 03/02 Q1028 TEMPO BKN006=
201303010420 METAR COR EGLL 010420Z 35004KT 4100 BR FEW006 SCT008 BKN012
                        03/02 Q1028 TEMPO BKN009=
201303010350 METAR COR EGLL 010350Z 36004KT 330V030 5000 BR BKN009 03/01
                        Q1028 NOSIG=
201303010320 METAR COR EGLL 010320Z 35004KT 330V030 4900 BR FEW006 SCT009
                        BKN011 03/01 Q1028 TEMPOP BKN009=
201303010250 METAR COR EGLL 010250Z 36005KT 4900 BR BKN013 03/01 Q1029
                        TEMPO BKN007=
201303010220 METAR EGLL 010220Z AUTO 04004KT 360V080 7000 BKN012/// BKN020///
                        03/01 Q1029=
201303010150 METAR EGLL 010150Z AUTO 07005KT 9999 SCT010/// BKN013///
                        03/01 Q1029=
201303010120 METAR EGLL 010120Z AUTO 06007KT 020V090 9999 BKN011/// 03/00
                        Q1029=
201303010050 METAR COR EGLL 010050Z 05007KT 360V070 9999 BKN011 02/M00
                        Q1030 BECMG BKN009=
201303010020 METAR COR EGLL 010020Z 05007KT 010V080 9999 BKN012 02/M00
                        Q1030 BECMG BKN009=
201302282350 METAR COR EGLL 282350Z 05007KT 020V090 9999 BKN014 02/M01
                        Q1030 TEMPO BKN009=
201302282320 METAR COR EGLL 282320Z 05008KT 010V080 9999 BKN015 03/M01
                        Q1030 BECMG BKN012=
201302282250 METAR COR EGLL 282250Z 06010KT 9999 BKN015 03/M01 Q1030 BECMG
                        BKN014=
201302282220 METAR COR EGLL 282220Z 06008KT 9999 BKN015 03/M00 Q1030 BECMG
                        BKN014=
201302282150 METAR COR EGLL 282150Z 07010KT 9999 BKN016 BKN020 03/M00
                        Q1030 BECMG BKN014=
201302282120 METAR COR EGLL 282120Z 06011KT 9999 SCT014 BKN020 04/00 Q1029
                        BECMG BKN014=
201302282050 METAR EGLL 282050Z 04006KT 360V070 9999 BKN016 04/02 Q1029=
201302282020 METAR COR EGLL 282020Z 03006KT 360V070 9999 SCT020 04/02
                        Q1029 BECMG BKN014=
201302281950 METAR COR EGLL 281950Z 03008KT 9999 SCT020 05/02 Q1029 BECMG
                        BKN012=
201302281920 METAR COR EGLL 281920Z 04007KT 9999 SCT023 06/02 Q1028 BECMG
                        BKN012=
201302281850 METAR COR EGLL 281850Z 05007KT CAVOK 06/01 Q1028 BECMG BKN012=
201302281820 METAR COR EGLL 281820Z 06008KT CAVOK 06/01 Q1028 BECMG BKN012=
201302281750 METAR COR EGLL 281750Z 06009KT CAVOK 07/01 Q1028 NOSIG=
201302281720 METAR COR EGLL 281720Z 06011KT CAVOK 08/01 Q1027 NOSIG=
201302281650 METAR COR EGLL 281650Z 06010KT CAVOK 08/01 Q1027 NOSIG=
201302281620 METAR COR EGLL 281620Z 06010KT CAVOK 09/01 Q1027 NOSIG=
201302281550 METAR COR EGLL 281550Z 06008KT CAVOK 08/02 Q1027 NOSIG=
201302281520 METAR COR EGLL 281520Z 06010KT CAVOK 08/02 Q1028 NOSIG=
201302281450 METAR COR EGLL 281450Z 06010KT CAVOK 08/02 Q1028 NOSIG=
201302281420 METAR COR EGLL 281420Z 07011KT 9999 FEW030 08/02 Q1028 NOSIG=
201302281350 METAR COR EGLL 281350Z 07010KT 9999 FEW026 08/02 Q1028 NOSIG=
201302281320 METAR COR EGLL 281320Z 07009KT 9999 FEW025 07/02 Q1029 NOSIG=
201302281250 METAR COR EGLL 281250Z 05008KT 9999 SCT022 07/02 Q1029 NOSIG=
201302281220 METAR COR EGLL 281220Z 06009KT 9999 FEW020 06/01 Q1029 NOSIG=
201302281150 METAR COR EGLL 281150Z 06010KT 9999 FEW021 06/01 Q1029 NOSIG=
201302281120 METAR COR EGLL 281120Z 06009KT 9999 FEW020 06/01 Q1029 NOSIG=
201302281050 METAR COR EGLL 281050Z 04007KT 350V070 9999 SCT018 05/01
                        Q1030 NOSIG=
201302281020 METAR COR EGLL 281020Z 05008KT 360V070 9999 BKN017 05/01
                        Q1030 NOSIG=
201302280950 METAR COR EGLL 280950Z 05007KT 020V080 9999 SCT015 04/01
                        Q1030 NOSIG=
201302280920 METAR COR EGLL 280920Z 05007KT 010V080 9999 FEW015 04/00
                        Q1030 NOSIG=
201302280850 METAR COR EGLL 280850Z 04007KT 340V070 9999 FEW014 03/00
                        Q1030 NOSIG=
201302280820 METAR COR EGLL 280820Z 03007KT 350V070 9999 FEW014 03/00
                        Q1030 NOSIG=
201302280750 METAR COR EGLL 280750Z 03007KT 340V060 9999 FEW020 03/00
                        Q1030 NOSIG=
201302280720 METAR EGLL 280720Z 02006KT 350V050 9999 FEW020 02/00 Q1030=
201302280650 METAR COR EGLL 280650Z 02006KT CAVOK 02/M00 Q1030 NOSIG=
201302280620 METAR COR EGLL 280620Z 01005KT 330V070 CAVOK 02/M00 Q1030
                        NOSIG=
201302280550 METAR COR EGLL 280550Z 01005KT 340V050 CAVOK 01/M00 Q1030
                        NOSIG=
201302280520 METAR EGLL 280520Z 01005KT 340V050 CAVOK 02/M00 Q1030=
201302280450 METAR EGLL 280450Z 04004KT 360V070 CAVOK 02/M00 Q1030=
201302280420 METAR EGLL 280420Z VRB03KT CAVOK 02/M01 Q1030=
201302280350 METAR COR EGLL 280350Z 06004KT 020V100 CAVOK 02/M00 Q1030
                        TEMPO BKN009=
201302280320 METAR COR EGLL 280320Z 04004KT 360V080 CAVOK 02/00 Q1030
                        TEMPO BKN009=
201302280250 METAR COR EGLL 280250Z 04006KT 010V080 9999 FEW009 02/00
                        Q1031=
201302280220 METAR EGLL 280220Z AUTO 04005KT 010V090 8000 BKN008/// 02/01
                        Q1031=
201302280150 METAR EGLL 280150Z AUTO 05006KT 020V080 9000 OVC009/// 02/00
                        Q1032=
201302280120 METAR EGLL 280120Z AUTO 05005KT 010V080 9999 BKN010/// 02/00
                        Q1032=
201302280050 METAR COR EGLL 280050Z 05006KT 020V080 9999 BKN010 02/00
                        Q1032 NOSIG=
201302280020 METAR COR EGLL 280020Z 06008KT 9999 BKN011 02/00 Q1032 NOSIG=
201302272350 METAR COR EGLL 272350Z 05006KT 9999 SCT011 02/00 Q1033 TEMPO
                        BKN012=
201302272320 METAR COR EGLL 272320Z 05006KT 9999 SCT012 02/M00 Q1033 BECMG
                        BKN012=
201302272250 METAR COR EGLL 272250Z 05006KT 9999 FEW014 03/M00 Q1033 BECMG
                        BKN014=
201302272220 METAR COR EGLL 272220Z 05006KT 9999 FEW015 03/M00 Q1033 BECMG
                        BKN014=
201302272150 METAR COR EGLL 272150Z 05006KT 9999 SCT018 03/M00 Q1033 BECMG
                        BKN014=
201302272120 METAR COR EGLL 272120Z 05006KT 9999 SCT020 04/M00 Q1033 BECMG
                        BKN014=
201302272050 METAR COR EGLL 272050Z 05006KT 020V080 CAVOK 04/M00 Q1033
                        BECMG BKN014=
201302272020 METAR COR EGLL 272020Z 05006KT CAVOK 04/M00 Q1032 NOSIG=
201302271950 METAR COR EGLL 271950Z 05005KT 020V080 CAVOK 04/M00 Q1032
                        NOSIG=
201302271920 METAR COR EGLL 271920Z 05005KT CAVOK 05/M00 Q1032 NOSIG=
201302271850 METAR EGLL 271850Z 04005KT 010V080 CAVOK 05/M00 Q1033=
201302271820 METAR COR EGLL 271820Z 05005KT CAVOK 05/M00 Q1033 NOSIG=
201302271750 METAR COR EGLL 271750Z 05006KT CAVOK 06/00 Q1033 NOSIG=
201302271720 METAR COR EGLL 271720Z 05006KT 9999 FEW027 06/00 Q1033 NOSIG=
201302271650 METAR COR EGLL 271650Z 05007KT 010V090 9999 FEW027 06/00
                        Q1033 NOSIG=
201302271620 METAR COR EGLL 271620Z 05006KT 360V080 9999 FEW026 06/00
                        Q1033 NOSIG=
201302271550 METAR COR EGLL 271550Z 05008KT 360V080 9999 FEW024 06/00
                        Q1033 NOSIG=
201302271520 METAR COR EGLL 271520Z 04008KT 350V080 9999 SCT024 06/M00
                        Q1033 NOSIG=
201302271450 METAR COR EGLL 271450Z 04009KT 360V070 9999 SCT024 05/00
                        Q1033 NOSIG=
201302271420 METAR COR EGLL 271420Z 06011KT 9999 SCT022 05/00 Q1033 NOSIG=
201302271350 METAR COR EGLL 271350Z 07012KT 9999 BKN020 04/00 Q1034 NOSIG=
201302271320 METAR COR EGLL 271320Z 06010KT 020V080 9999 BKN019 04/00
                        Q1034 NOSIG=
201302271250 METAR COR EGLL 271250Z 06012KT 9999 FEW015 BKN019 04/00 Q1034
                        NOSIG=
201302271220 METAR COR EGLL 271220Z 05007KT 360V070 9999 FEW012 BKN015
                        04/01 Q1034 NOSIG=
201302271150 METAR EGLL 271150Z 05008KT 360V080 9999 BKN010 04/01 Q1035=
201302271120 METAR COR EGLL 271120Z 04007KT 9999 BKN010 03/01 Q1035 NOSIG=
201302271050 METAR COR EGLL 271050Z 05009KT 9999 FEW008 BKN009 03/01 Q1035
                        BECMG BKN012=
201302271020 METAR COR EGLL 271020Z 04008KT 9999 SCT007 BKN009 03/01 Q1035
                        BECMG BKN012=
201302270950 METAR COR EGLL 270950Z 05009KT 010V070 7000 OVC007 02/01
                        Q1035 NOSIG=
201302270920 METAR COR EGLL 270920Z 05007KT 6000 OVC006 02/01 Q1035 NOSIG=
201302270850 METAR COR EGLL 270850Z 06009KT 4800 -DZ OVC006 02/01 Q1035
                        BECMG 7000 HZ=
201302270820 METAR COR EGLL 270820Z 03007KT 360V070 4000 -DZ OVC005 02/01
                        Q1035 BECMG 6000=
201302270750 METAR COR EGLL 270750Z 04007KT 360V070 5000 -DZ OVC005 02/01
                        Q1035 TEMPO 4500=
201302270720 METAR COR EGLL 270720Z 05007KT 010V080 4600 -DZ BKN005 02/01
                        Q1035 TEMPO 6000=
201302270650 METAR COR EGLL 270650Z 04007KT 360V080 4800 HZ BKN005 02/01
                        Q1035 BECMG 6000 SCT007 BKN010=
201302270620 METAR COR EGLL 270620Z 03007KT 360V070 4500 HZ FEW005 SCT006
                        BKN007 02/01 Q1035 BECMG 6000=
201302270550 METAR COR EGLL 270550Z 03007KT 010V070 5000 HZ FEW005 SCT006
                        BKN008 02/01 Q1035 NOSIG=
201302270520 METAR COR EGLL 270520Z 02006KT 330V050 4500 HZ FEW005 SCT006
                        BKN007 02/01 Q1035 TEMPO 6000=
201302270450 METAR COR EGLL 270450Z 04006KT 360V080 5000 HZ FEW005 SCT006
                        BKN007 02/01 Q1035 NOSIG=
201302270420 METAR COR EGLL 270420Z 03007KT 360V070 5000 HZ FEW005 SCT006
                        BKN007 02/01 Q1035 NOSIG=
201302270350 METAR COR EGLL 270350Z 05006KT 010V090 5000 HZ SCT006 BKN007
                        03/01 Q1035 NOSIG=
201302270320 METAR COR EGLL 270320Z 05007KT 360V090 5000 HZ FEW005 BKN007
                        03/01 Q1035 NOSIG=
201302270250 METAR COR EGLL 270250Z 06010KT 5000 HZ BKN008 03/01 Q1035
                        NOSIG=
201302270220 METAR EGLL 270220Z AUTO 06008KT 7000 BKN008/// 03/01 Q1035=
201302270150 METAR EGLL 270150Z AUTO 03007KT 360V070 7000 SCT007/// BKN014///
                        03/02 Q1035=
201302270120 METAR EGLL 270120Z AUTO 04006KT 360V070 6000 BKN006/// 03/02
                        Q1035=
201302270050 METAR COR EGLL 270050Z 04006KT 360V070 5000 HZ BKN006 03/02
                        Q1035 NOSIG=
201302270020 METAR COR EGLL 270020Z 05007KT 5000 HZ BKN007 04/02 Q1035
                        TEMPO 3500=
201302262350 METAR COR EGLL 262350Z 04006KT 010V070 4500 HZ SCT007 BKN010
                        04/02 Q1035 TEMPO BKN008=
201302262320 METAR COR EGLL 262320Z 05010KT 4100 HZ FEW005 SCT006 BKN008
                        04/03 Q1035 NOSIG=
201302262250 METAR COR EGLL 262250Z 05007KT 010V080 3300 HZ FEW006 BKN008
                        04/03 Q1035 NOSIG=
201302262220 METAR COR EGLL 262220Z 05007KT 020V080 3500 HZ FEW006 BKN008
                        04/03 Q1035 NOSIG=
201302262150 METAR COR EGLL 262150Z 04007KT 010V090 4000 HZ FEW006 BKN008
                        04/03 Q1035 NOSIG=
201302262120 METAR COR EGLL 262120Z 03006KT 350V070 4000 HZ BKN008 04/03
                        Q1035 TEMPO SCT008 BKN010=
201302262050 METAR COR EGLL 262050Z 03007KT 360V060 4000 HZ FEW008 BKN011
                        04/03 Q1035 TEMPO BKN009=
201302262020 METAR COR EGLL 262020Z 04006KT 010V070 4000 HZ FEW008 SCT009
                        BKN011 04/03 Q1035 TEMPO BKN009=
201302261950 METAR COR EGLL 261950Z 05006KT 4000 HZ FEW009 BKN011 05/03
                        Q1035 TEMPO BKN009=
201302261920 METAR COR EGLL 261920Z 05007KT 020V080 4400 HZ BKN010 05/02
                        Q1035 TEMPO BKN009=
201302261850 METAR COR EGLL 261850Z 05008KT 4000 HZ BKN010 05/03 Q1034
                        BECMG BKN009=
201302261820 METAR COR EGLL 261820Z 05007KT 4000 HZ BKN010 05/03 Q1034
                        BECMG BKN009=
201302261750 METAR COR EGLL 261750Z 05006KT 3700 HZ BKN010 05/03 Q1034
                        BECMG BKN009=
201302261720 METAR COR EGLL 261720Z 05007KT 3600 HZ SCT009 BKN010 05/03
                        Q1034 BECMG BKN009=
201302261650 METAR COR EGLL 261650Z 06007KT 010V080 3500 HZ SCT008 BKN009
                        05/03 Q1033 NOSIG=
201302261620 METAR COR EGLL 261620Z 06008KT 010V080 3200 HZ BKN008 05/03
                        Q1033 NOSIG=
201302261550 METAR COR EGLL 261550Z 05007KT 010V070 3100 HZ BKN008 05/03
                        Q1033 NOSIG=
201302261520 METAR COR EGLL 261520Z 05007KT 360V080 3100 HZ BKN008 05/03
                        Q1033 TEMPO BKN010=
201302261450 METAR COR EGLL 261450Z 05007KT 010V080 3200 HZ FEW006 BKN008
                        05/03 Q1033 TEMPO BKN010=
201302261420 METAR COR EGLL 261420Z 05008KT 3000 HZ BKN008 05/03 Q1033
                        TEMPO 5000 BKN010=
201302261350 METAR COR EGLL 261350Z 05006KT 010V080 3000 HZ BKN007 05/03
                        Q1033 TEMPO 5000 BKN010=
201302261320 METAR COR EGLL 261320Z 06006KT 3000 HZ BKN007 05/03 Q1033
                        BECMG 5000 BKN010=
201302261250 METAR COR EGLL 261250Z 06007KT 2700 HZ FEW005 BKN006 05/03
                        Q1033 BECMG 5000=
201302261220 METAR COR EGLL 261220Z 06007KT 2400 -DZ HZ FEW005 BKN006
                        04/03 Q1033 BECMG 5000=
201302261150 METAR COR EGLL 261150Z 06007KT 020V090 2200 -DZ HZ BKN006
                        04/03 Q1033 NOSIG=
201302261120 METAR COR EGLL 261120Z 06008KT 2000 -DZ BR FEW005 BKN006
                        04/03 Q1033 NOSIG=
201302261050 METAR COR EGLL 261050Z 06008KT 010V080 2000 -DZ BR FEW004
                        BKN005 04/03 Q1033 NOSIG=
201302261020 METAR COR EGLL 261020Z 06008KT 2000 -DZ BR FEW004 BKN005
                        04/03 Q1033 NOSIG=
201302260950 METAR COR EGLL 260950Z 06008KT 2000 -DZ HZ BKN005 04/03 Q1032
                        NOSIG=
201302260920 METAR COR EGLL 260920Z 06007KT 2200 HZ BKN005 04/03 Q1032
                        NOSIG=
201302260850 METAR COR EGLL 260850Z 05008KT 2800 HZ BKN005 04/03 Q1032
                        NOSIG=
201302260820 METAR COR EGLL 260820Z 06009KT 020V080 2800 HZ BKN006 04/03
                        Q1031 NOSIG=
201302260750 METAR COR EGLL 260750Z 05008KT 020V080 2700 HZ BKN005 03/02
                        Q1031 NOSIG=
201302260720 METAR COR EGLL 260720Z 05008KT 360V080 2500 HZ BKN005 03/02
                        Q1031 NOSIG=
201302260650 METAR COR EGLL 260650Z 05007KT 3000 BR SCT005 BKN006 03/02
                        Q1030 NOSIG=
201302260620 METAR COR EGLL 260620Z 05008KT 5000 BR SCT006 BKN008 03/02
                        Q1030 TEMPO 3500 DZ=
201302260550 METAR EGLL 260550Z 04008KT 010V070 5000 BR SCT006 BKN009
                        03/02 Q1030=
201302260520 METAR COR EGLL 260520Z 03007KT 350V050 3000 -RADZ SCT007
                        BKN009 03/02 Q1029 TEMPO 6000 SCT009
                        BKN010=
201302260450 METAR COR EGLL 260450Z 03008KT 3000 -DZ SCT006 BKN008 03/02
                        Q1029 TEMPO 6000 -RADZ SCT008 BKN010=
201302260420 METAR COR EGLL 260420Z 03009KT 360V060 3000 -RADZ SCT006
                        BKN008 03/02 Q1029 TEMPO 6000 SCT008
                        BKN010=
201302260350 METAR COR EGLL 260350Z 02007KT 350V060 2700 -DZ SCT006 BKN008
                        03/02 Q1029 TEMPO 6000 -RADZ SCT008
                        BKN010=
201302260320 METAR COR EGLL 260320Z 03008KT 4000 -DZ SCT007 BKN008 03/01
                        Q1029 TEMPO 6000 -RADZ SCT008 BKN012=
201302260250 METAR COR EGLL 260250Z 03007KT 340V080 7000 SCT009 BKN010
                        03/01 Q1029 TEMPO 4500 -DZ BKN009=
201302260220 METAR EGLL 260220Z AUTO 02007KT 6000 OVC008/// 03/01 Q1029=
201302260150 METAR EGLL 260150Z AUTO 03007KT 340V050 6000 OVC006/// 03/01
                        Q1029=
201302260120 METAR EGLL 260120Z AUTO 03006KT 350V070 3000 -RA OVC007///
                        03/01 Q1029=
201302260050 METAR COR EGLL 260050Z 04009KT 360V070 4500 DZ BKN009 BKN013
                        03/01 Q1029 TEMPO 6000 RADZ SCT009
                        BKN012=
201302260020 METAR COR EGLL 260020Z 05009G19KT 360V070 5000 DZ BKN010
                        BKN012 03/01 Q1029 TEMPO 4500 BKN009=
201302252350 METAR COR EGLL 252350Z 04010KT 010V080 9000 -DZ BKN011 BKN015
                        03/01 Q1029 NOSIG=
201302252320 METAR COR EGLL 252320Z 04009KT 360V080 9999 BKN012 03/01
                        Q1029 NOSIG=
201302252250 METAR COR EGLL 252250Z 03011KT 360V060 9000 BKN013 BKN016
                        03/01 Q1029 TEMPO BKN009=
201302252220 METAR COR EGLL 252220Z 04011KT 7000 SCT009 BKN013 03/01 Q1029
                        TEMPO BKN009=
201302252150 METAR COR EGLL 252150Z 03010KT 360V080 8000 BKN010 04/01
                        Q1029 TEMPO BKN009=
201302252120 METAR COR EGLL 252120Z 04010KT 010V070 8000 FEW009 BKN012
                        04/02 Q1029 TEMPO BKN009=
201302252050 METAR COR EGLL 252050Z 03008KT 350V060 8000 FEW009 BKN010
                        04/02 Q1029 TEMPO BKN009=
201302252020 METAR COR EGLL 252020Z 02009KT 340V050 9000 FEW008 BKN010
                        04/02 Q1028 TEMPO BKN009=
201302251950 METAR COR EGLL 251950Z 02009KT 350V060 9000 FEW009 BKN010
                        04/02 Q1028 BKN009=
201302251920 METAR COR EGLL 251920Z 03009KT 350V060 9000 BKN011 04/01
                        Q1028 NOSIG=
201302251850 METAR COR EGLL 251850Z 02008KT 350V060 9999 BKN012 04/01
                        Q1028 TEMPO BKN015=
201302251820 METAR COR EGLL 251820Z 01007KT 340V050 9999 BKN013 04/01
                        Q1028 TEMPO BKN015=
201302251750 METAR EGLL 251750Z 01008KT 330V040 9999 BKN013 04/01 Q1028=
201302251720 METAR COR EGLL 251720Z 02008KT 340V060 9999 BKN014 04/01
                        Q1028 TEMPO BKN015=
201302251650 METAR COR EGLL 251650Z 02007KT 350V050 9999 BKN015 04/01
                        Q1028 TEMPO BKN014=
201302251620 METAR COR EGLL 251620Z 02007KT 330V050 9999 BKN016 04/01
                        Q1028 TEMPO BKN014=
201302251550 METAR COR EGLL 251550Z 03008KT 360V080 9999 BKN016 04/01
                        Q1028 TEMPO BKN014=
201302251520 METAR COR EGLL 251520Z 02007KT 340V040 9999 BKN014 04/01
                        Q1028 TEMPO BKN015=
201302251450 METAR COR EGLL 251450Z 03007KT 360V060 9999 BKN015 04/01
                        Q1027 NOSIG=
201302251420 METAR COR EGLL 251420Z 01008KT 340V050 9999 FEW012 BKN017
                        04/01 Q1027 NOSIG=
201302251350 METAR COR EGLL 251350Z 01008KT 9000 SCT014 BKN019 04/01 Q1028
                        NOSIG=
201302251320 METAR COR EGLL 251320Z 03006KT 360V060 9000 SCT013 BKN016
                        04/01 Q1028 TEMPO BKN014=
201302251250 METAR COR EGLL 251250Z 02007KT 340V060 9999 BKN015 04/01
                        Q1028 TEMPO BKN014=
201302251220 METAR COR EGLL 251220Z 02006KT 340V050 9999 SCT018 BKN021
                        04/00 Q1028 NOSIG=
201302251150 METAR COR EGLL 251150Z 02008KT 340V050 9999 SCT016 BKN021
                        04/00 Q1028 TEMPO BKN014=
201302251120 METAR COR EGLL 251120Z 02007KT 330V050 9999 SCT013 BKN024
                        04/01 Q1028 TEMPO BKN014=
201302251050 METAR COR EGLL 251050Z 01006KT 320V050 9000 SCT012 BKN020
                        04/01 Q1028 TEMPO BKN012=
201302251020 METAR COR EGLL 251020Z 02006KT 350V060 9999 BKN012 03/01
                        Q1028 TEMPO SCT012 BKN020=
201302250950 METAR COR EGLL 250950Z 01007KT 350V060 9999 FEW013 SCT026
                        BKN030 04/01 Q1028 TEMPO BKN014=
201302250920 METAR COR EGLL 250920Z 03007KT 350V060 8000 FEW012 BKN030
                        03/01 Q1028 TEMPO BKN014=
201302250850 METAR COR EGLL 250850Z 03007KT 8000 FEW015 BKN024 03/01 Q1027
                        TEMPO BKN014=
201302250820 METAR COR EGLL 250820Z 01006KT 340V040 9999 FEW013 SCT026
                        BKN030 03/00 Q1027 TEMPO BKN014=
201302250750 METAR COR EGLL 250750Z 01006KT 340V050 9999 FEW012 BKN030
                        02/00 Q1027 TEMPO BKN014=
201302250720 METAR COR EGLL 250720Z 02006KT 340V070 9999 BKN030 02/00
                        Q1027 TEMPO BKN014=
201302250650 METAR COR EGLL 250650Z 01006KT 320V050 9999 FEW010 BKN030
                        02/00 Q1026 TEMPO BKN012=
201302250620 METAR COR EGLL 250620Z 02006KT 330V050 9999 BKN012 BKN036
                        02/00 Q1026 TEMPO BKN008=
201302250550 METAR COR EGLL 250550Z 01006KT 330V050 9999 FEW009 BKN032
                        02/00 Q1026 TEMPO BKN009=
201302250520 METAR COR EGLL 250520Z 01006KT 9999 BKN009 02/00 Q1025 TEMPO
                        FEW009 BKN012=
201302250450 METAR COR EGLL 250450Z 01007KT 9999 SCT009 BKN010 02/M00
                        Q1025 TEMPO BKN008=
201302250420 METAR EGLL 250420Z 01007KT 340V050 9999 BKN010 02/M00 Q1025=
201302250350 METAR COR EGLL 250350Z 36007KT 330V040 9999 BKN011 02/M00
                        Q1025 TEMPO BKN008=
201302250320 METAR COR EGLL 250320Z 36007KT 300V050 9999 BKN014 02/M01
                        Q1025 TEMPO BKN008=
201302250250 METAR COR EGLL 250250Z 35008KT 9000 -RASN BKN016 01/M01 Q1025
                        BECMG BKN012=
201302250220 METAR EGLL 250220Z AUTO 35006KT 300V010 9999 OVC018/// 02/M02
                        Q1025=
201302250150 METAR EGLL 250150Z AUTO 33006KT 300V360 9999 OVC019/// 01/M02
                        Q1025=
201302250120 METAR EGLL 250120Z AUTO 34007KT 290V020 9999 SCT021/// BKN028///
                        02/M02 Q1025=
201302250050 METAR COR EGLL 250050Z 36008KT 9999 SCT030 BKN039 02/M02
                        Q1025 TEMPO 7000 -SN BKN014=
201302250020 METAR COR EGLL 250020Z 36009KT 330V030 9999 BKN035 02/M02
                        Q1025 BECMG BKN012=
201302242350 METAR COR EGLL 242350Z 36007KT 320V030 CAVOK 02/M03 Q1025
                        BECMG BKN014=
201302242320 METAR COR EGLL 242320Z 36007KT 330V030 CAVOK 01/M03 Q1025
                        BECMG BKN014=
201302242250 METAR COR EGLL 242250Z 36006KT 320V040 9999 BKN049 01/M03
                        Q1025 NOSIG=
201302242220 METAR COR EGLL 242220Z 36007KT 9999 BKN047 02/M03 Q1026 NOSIG=
201302242150 METAR COR EGLL 242150Z 36008KT 9999 BKN041 02/M03 Q1026 NOSIG=
201302242120 METAR COR EGLL 242120Z 36009KT 9999 FEW035 BKN039 02/M03
                        Q1025 NOSIG=
201302242050 METAR COR EGLL 242050Z 01008KT 9999 BKN039 02/M04 Q1025 NOSIG=
201302242020 METAR COR EGLL 242020Z 36008KT 9999 BKN039 02/M04 Q1025 NOSIG=
201302241950 METAR COR EGLL 241950Z 36006KT 340V050 9999 BKN039 02/M04
                        Q1025 NOSIG=
201302241920 METAR COR EGLL 241920Z 36008KT 9999 FEW038 BKN041 02/M04
                        Q1025 NOSIG=
201302241850 METAR COR EGLL 241850Z 01009KT 350V060 9999 SCT037 BKN043
                        02/M04 Q1025 NOSIG=
201302241820 METAR COR EGLL 241820Z 01007KT 340V050 9999 FEW026 BKN035
                        02/M03 Q1025 NOSIG=
201302241750 METAR COR EGLL 241750Z 01007KT 340V040 9999 FEW026 BKN032
                        02/M03 Q1025 NOSIG=
201302241720 METAR COR EGLL 241720Z 01007KT 330V040 9999 FEW026 BKN035
                        02/M03 Q1024 NOSIG=
201302241650 METAR COR EGLL 241650Z 01008KT 340V040 9999 SCT026 BKN035
                        02/M03 Q1024 NOSIG=
201302241620 METAR COR EGLL 241620Z 01008KT 350V050 9999 SCT021 BKN036
                        02/M03 Q1024 NOSIG=
201302241550 METAR COR EGLL 241550Z 01007KT 330V060 9999 FEW025 BKN033
                        02/M03 Q1024 NOSIG=
201302241520 METAR COR EGLL 241520Z 01008KT 330V030 9999 FEW026 BKN034
                        02/M03 Q1024 NOSIG=
201302241450 METAR COR EGLL 241450Z 36007KT 340V060 9999 SCT024 BKN033
                        02/M03 Q1024 NOSIG=
201302241420 METAR EGLL 241420Z 36008KT 9999 SCT022 BKN038 02/M03 Q1024=
201302241350 METAR COR EGLL 241350Z 36007KT 330V040 9999 SCT022 BKN035
                        02/M03 Q1024 NOSIG=
201302241320 METAR COR EGLL 241320Z 35006KT 310V030 9999 FEW021 BKN035
                        02/M03 Q1024 NOSIG=
201302241250 METAR COR EGLL 241250Z 36008KT 320V040 9999 SCT022 BKN030
                        02/M03 Q1024 NOSIG=
201302241220 METAR COR EGLL 241220Z 36008KT 330V030 9999 FEW022 BKN035
                        02/M03 Q1024 NOSIG=
201302241150 METAR COR EGLL 241150Z 36008KT 330V040 9999 FEW026 BKN038
                        02/M03 Q1024 NOSIG=
201302241120 METAR COR EGLL 241120Z 36007KT 9999 BKN040 02/M03 Q1024 NOSIG=
201302241050 METAR COR EGLL 241050Z 36009KT 330V030 9999 BKN040 02/M03
                        Q1024 NOSIG=
201302241020 METAR COR EGLL 241020Z 36007KT 9999 BKN040 01/M03 Q1024 NOSIG=
201302240950 METAR COR EGLL 240950Z 36007KT 320V030 9999 BKN040 01/M03
                        Q1024 NOSIG=
201302240920 METAR COR EGLL 240920Z 36006KT 9999 BKN040 01/M03 Q1024 NOSIG=
201302240850 METAR COR EGLL 240850Z 36006KT 9999 BKN042 01/M03 Q1024 NOSIG=
201302240820 METAR COR EGLL 240820Z 36006KT 320V030 9999 BKN040 01/M03
                        Q1024 NOSIG=
201302240750 METAR COR EGLL 240750Z 36006KT 9999 BKN039 01/M03 Q1024 NOSIG=
201302240720 METAR COR EGLL 240720Z 36006KT 320V030 9999 BKN040 01/M03
                        Q1023 NOSIG=
201302240650 METAR COR EGLL 240650Z 36006KT 330V030 9999 BKN037 01/M03
                        Q1023 NOSIG=
201302240620 METAR COR EGLL 240620Z 01006KT 9999 BKN037 01/M03 Q1023 NOSIG=
201302240550 METAR COR EGLL 240550Z 36006KT 330V030 9999 OVC035 01/M03
                        Q1023 NOSIG=
201302240520 METAR COR EGLL 240520Z 01005KT 330V050 9999 BKN034 01/M03
                        Q1023 NOSIG=
201302240450 METAR COR EGLL 240450Z 36006KT 320V020 9999 OVC035 01/M03
                        Q1023 NOSIG=
201302240420 METAR COR EGLL 240420Z 36006KT 9999 BKN035 01/M03 Q1023 NOSIG=
201302240350 METAR COR EGLL 240350Z 36006KT 9999 OVC036 01/M03 Q1023 NOSIG=
201302240320 METAR COR EGLL 240320Z 36006KT 320V030 9999 OVC038 01/M03
                        Q1023 NOSIG=
201302240250 METAR EGLL 240250Z AUTO 36005KT 320V030 9999 FEW040/// BKN046///
                        01/M02 Q1023=
201302240220 METAR EGLL 240220Z AUTO 36006KT 9999 BKN042/// 01/M02 Q1023=
201302240150 METAR EGLL 240150Z AUTO 02006KT 340V050 9999 BKN046/// 01/M02
                        Q1023=
201302240120 METAR COR EGLL 240120Z 36005KT 7000 FEW012 01/M02 Q1023 NOSIG=
201302240050 METAR COR EGLL 240050Z 36005KT 320V020 7000 OVC046 01/M02
                        Q1023 NOSIG=
201302240020 METAR COR EGLL 240020Z 36004KT 6000 OVC045 00/M02 Q1023 NOSIG=
201302232350 METAR COR EGLL 232350Z 35005KT 310V020 5000 HZ OVC042 00/M02
                        Q1023 NOSIG=
201302232320 METAR COR EGLL 232320Z 35005KT 310V020 5000 HZ OVC043 00/M02
                        Q1023 NOSIG=
201302232250 METAR COR EGLL 232250Z 35005KT 6000 BKN048 00/M02 Q1023 NOSIG=
201302232220 METAR COR EGLL 232220Z 35005KT 7000 BKN047 00/M03 Q1023 NOSIG=
201302232150 METAR COR EGLL 232150Z 36005KT 9000 NSC 00/M04 Q1023 NOSIG=
201302232120 METAR COR EGLL 232120Z 36004KT 330V040 9999 BKN048 01/M06
                        Q1023 NOSIG=
201302232050 METAR COR EGLL 232050Z 04005KT 350V080 9999 BKN046 01/M07
                        Q1022 NOSIG=
201302232020 METAR COR EGLL 232020Z 02007KT 350V050 9999 BKN047 01/M06
                        Q1022 NOSIG=
201302231950 METAR COR EGLL 231950Z 05006KT 360V080 9999 BKN045 01/M05
                        Q1022 NOSIG=
201302231920 METAR COR EGLL 231920Z 04007KT 010V070 9000 BKN047 01/M05
                        Q1022 NOSIG=
201302231850 METAR COR EGLL 231850Z 06008KT 9000 BKN048 01/M05 Q1022 NOSIG=
201302231820 METAR COR EGLL 231820Z 04005KT 360V090 9000 BKN048 01/M05
                        Q1022 NOSIG=
201302231750 METAR COR EGLL 231750Z 04005KT 350V080 8000 NSC 01/M05 Q1022
                        NOSIG=
201302231720 METAR COR EGLL 231720Z 05006KT 010V070 9000 FEW035 BKN049
                        01/M05 Q1021 NOSIG=
201302231650 METAR COR EGLL 231650Z 04008KT 010V080 9000 FEW036 BKN049
                        02/M05 Q1021 NOSIG=
201302231620 METAR COR EGLL 231620Z 06007KT 9999 FEW041 BKN046 01/M05
                        Q1021 NOSIG=
201302231550 METAR COR EGLL 231550Z 04006KT 010V070 9999 FEW037 BKN049
                        02/M06 Q1021 NOSIG=
201302231520 METAR COR EGLL 231520Z 06008KT 020V080 9999 VCSH FEW040 BKN044
                        02/M06 Q1021 NOSIG=
201302231450 METAR COR EGLL 231450Z 07008KT 9999 BKN038 02/M06 Q1021 NOSIG=
201302231420 METAR EGLL 231420Z 05009KT 9999 FEW033 BKN045 02/M06 Q1021=
201302231350 METAR COR EGLL 231350Z 06010KT 020V080 9999 SCT032 BKN042
                        02/M05 Q1021 NOSIG=
201302231320 METAR COR EGLL 231320Z 04007KT 340V080 9999 VCSH SCT028 BKN040
                        02/M04 Q1021 NOSIG=
201302231250 METAR COR EGLL 231250Z 05010KT 020V080 9999 SCT022 BKN043
                        02/M03 Q1021 NOSIG=
201302231220 METAR COR EGLL 231220Z 06008KT 9000 -SHSN SCT018 BKN025 02/M03
                        Q1021 NOSIG=
201302231150 METAR COR EGLL 231150Z 04007KT 350V070 8000 -SHSN SCT019
                        BKN025 02/M02 Q1021 NOSIG=
201302231120 METAR COR EGLL 231120Z 04006KT 010V080 9000 -SHSN SCT017
                        SCT025 02/M03 Q1021 NOSIG=
201302231050 METAR COR EGLL 231050Z 03008KT 9000 -SHSN SCT016 SCT024 01/M02
                        Q1021 NOSIG=
201302231020 METAR COR EGLL 231020Z 04007KT 010V080 9000 -SHSN SCT019
                        SCT023 01/M03 Q1021 NOSIG=
201302230950 METAR COR EGLL 230950Z 04006KT 350V080 9999 FEW023 SCT044
                        01/M03 Q1021 NOSIG=
201302230920 METAR COR EGLL 230920Z 02006KT 340V050 9999 VCSH FEW020 01/M03
                        Q1021 NOSIG=
201302230850 METAR COR EGLL 230850Z 02007KT 340V070 9999 -SHSN FEW016
                        01/M03 Q1021 NOSIG=
201302230820 METAR COR EGLL 230820Z 02005KT 330V060 9999 FEW016 BKN049
                        00/M03 Q1020 NOSIG=
201302230750 METAR COR EGLL 230750Z 01005KT 350V060 9999 BKN046 00/M04
                        Q1020 NOSIG=
201302230720 METAR COR EGLL 230720Z 01005KT 340V060 9999 FEW041 BKN045
                        00/M04 Q1020 NOSIG=
201302230650 METAR COR EGLL 230650Z 02006KT 350V060 9999 SCT041 BKN046
                        00/M04 Q1020 TEMPO -SHSN=
201302230620 METAR COR EGLL 230620Z 03006KT 350V070 9999 BKN046 00/M04
                        Q1020 TEMPO -SHSN=
201302230550 METAR COR EGLL 230550Z 02005KT 340V050 9999 BKN044 00/M04
                        Q1020 NOSIG=
201302230520 METAR COR EGLL 230520Z 02007KT 350V050 9999 OVC043 00/M04
                        Q1020 NOSIG=
201302230450 METAR COR EGLL 230450Z 02007KT 360V070 9999 FEW030 OVC043
                        00/M04 Q1020 NOSIG=
201302230420 METAR COR EGLL 230420Z 03007KT 9999 OVC042 00/M04 Q1019 NOSIG=
201302230350 METAR COR EGLL 230350Z 03007KT 360V070 9999 OVC044 00/M04
                        Q1019 NOSIG=
201302230320 METAR EGLL 230320Z AUTO 04007KT 360V060 9999 BKN041/// 00/M04
                        Q1019=
201302230250 METAR EGLL 230250Z AUTO 04007KT 360V070 9999 -SN BKN038///
                        BKN044/// 00/M04 Q1019=
201302230220 METAR EGLL 230220Z AUTO 03007KT 9999 -SN BKN044/// 00/M04
                        Q1019=
201302230150 METAR COR EGLL 230150Z 03008KT 350V050 9999 -SN BKN043 00/M04
                        Q1019 TEMPO NSW=
201302230120 METAR COR EGLL 230120Z 03007KT 360V090 9999 -SN BKN037 00/M04
                        Q1019 TEMPO NSW=
201302230050 METAR COR EGLL 230050Z 03007KT 350V060 9999 -SN OVC035 01/M04
                        Q1019 NOSIG=
201302230020 METAR COR EGLL 230020Z 05006KT 010V090 9999 -SN BKN028 01/M04
                        Q1020 NOSIG=
201302222350 METAR COR EGLL 222350Z 04008KT 360V080 9999 -SN FEW028 OVC032
                        01/M04 Q1020 TEMPO NSW=
201302222320 METAR COR EGLL 222320Z 03008KT 350V060 9999 -SN BKN031 01/M05
                        Q1020 TEMPO NSW=
201302222250 METAR COR EGLL 222250Z 03006KT 360V060 9999 -SN BKN031 01/M05
                        Q1020 TEMPO NSW=
201302222220 METAR COR EGLL 222220Z 04008KT 350V080 9999 FEW021 BKN032
                        01/M05 Q1020 TEMPO -SHSN=
201302222150 METAR COR EGLL 222150Z 03010KT 010V080 9999 BKN039 01/M05
                        Q1020 TEMPO -SHSN=
201302222120 METAR COR EGLL 222120Z 03008KT 360V060 9999 -SHSN BKN037
                        01/M04 Q1020 TEMPO NSW=
201302222050 METAR COR EGLL 222050Z 03008KT 360V080 9999 BKN037 01/M04
                        Q1020 TEMPO -SHSN=
201302222020 METAR COR EGLL 222020Z 03007KT 360V060 9999 -SHSN BKN038
                        01/M04 Q1020 TEMPO NSW=
201302221950 METAR COR EGLL 221950Z 02007KT 350V060 9999 SCT024 BKN038
                        01/M04 Q1020 TEMPO -SHSN=
201302221920 METAR COR EGLL 221920Z 03007KT 350V080 9999 -SHSN FEW029
                        BKN040 01/M05 Q1020 TEMPO NSW=
201302221850 METAR COR EGLL 221850Z 05007KT 010V070 9999 -SHSN BKN035
                        01/M05 Q1020 TEMPO NSW=
201302221820 METAR COR EGLL 221820Z 04008KT 010V070 9999 BKN039 01/M05
                        Q1020 NOSIG=
201302221750 METAR EGLL 221750Z 03009KT 350V060 9999 BKN042 01/M06 Q1020=
201302221720 METAR COR EGLL 221720Z 05007KT 9999 FEW043 BKN046 01/M06
                        Q1020 NOSIG=
201302221650 METAR EGLL 221650Z 05010KT 9999 BKN046 01/M06 Q1019=
201302221620 METAR COR EGLL 221620Z 05010KT 020V080 9999 FEW031 BKN046
                        01/M06 Q1019 NOSIG=
201302221550 METAR COR EGLL 221550Z 05010KT 020V080 9999 FEW034 BKN041
                        02/M06 Q1020 NOSIG=
201302221520 METAR COR EGLL 221520Z 05008KT 020V090 9999 FEW033 BKN047
                        02/M06 Q1020 NOSIG=
201302221450 METAR EGLL 221450Z 06011KT 020V080 9999 FEW033 BKN046 02/M06
                        Q1020 NOSIG=
201302221420 METAR COR EGLL 221420Z 06011KT 9999 FEW034 BKN048 02/M06
                        Q1020 NOSIG=
201302221350 METAR COR EGLL 221350Z 05010KT 020V080 9999 FEW035 BKN047
                        02/M06 Q1020 NOSIG=
201302221320 METAR COR EGLL 221320Z 06011KT 9999 FEW033 BKN041 02/M06
                        Q1020 NOSIG=
201302221250 METAR COR EGLL 221250Z 06010KT 020V090 9999 FEW031 BKN047
                        02/M05 Q1020 TEMPO -SHSN=
201302221220 METAR COR EGLL 221220Z 06012KT 9999 -SHSN FEW032 BKN041 02/M05
                        Q1021 TEMPO NSW=
201302221150 METAR COR EGLL 221150Z 06010G20KT 020V090 9999 FEW032 BKN046
                        02/M05 Q1021 TEMPO -SHSN=
201302221120 METAR COR EGLL 221120Z 07011KT 9999 SCT034 BKN048 02/M06
                        Q1021 TEMPO -SHSN=
201302221050 METAR COR EGLL 221050Z 06012KT 9999 FEW034 BKN048 02/M06
                        Q1021 NOSIG=
201302221020 METAR COR EGLL 221020Z 06014KT 9999 -SHSN SCT033 BKN048 01/M06
                        Q1021 NOSIG=
201302220950 METAR COR EGLL 220950Z 06009KT 9999 SCT043 BKN049 01/M06
                        Q1021 TEMPO -SHSN=
201302220920 METAR COR EGLL 220920Z 06009KT 010V080 9999 OVC043 01/M06
                        Q1021 NOSIG=
201302220850 METAR COR EGLL 220850Z 06008KT 020V080 9999 BKN044 01/M06
                        Q1021 NOSIG=
201302220820 METAR COR EGLL 220820Z 05007KT 020V080 9999 BKN044 00/M06
                        Q1021 NOSIG=
201302220750 METAR COR EGLL 220750Z 06008KT 9999 BKN042 00/M06 Q1021 NOSIG=
201302220720 METAR COR EGLL 220720Z 06009KT 9999 OVC041 00/M05 Q1021 NOSIG=
201302220650 METAR COR EGLL 220650Z 05008KT 020V080 9999 BKN040 00/M05
                        Q1020 NOSIG=
201302220620 METAR COR EGLL 220620Z 05008KT 9999 BKN041 00/M06 Q1020 NOSIG=
201302220550 METAR COR EGLL 220550Z 06008KT 9999 BKN044 00/M06 Q1020 NOSIG=
201302220520 METAR COR EGLL 220520Z 05007KT 360V080 9999 BKN043 01/M07
                        Q1020 NOSIG=
201302220450 METAR COR EGLL 220450Z 06010KT 9999 BKN042 01/M07 Q1020 NOSIG=
201302220420 METAR COR EGLL 220420Z 06008KT 9999 BKN040 01/M07 Q1020 NOSIG=
201302220350 METAR COR EGLL 220350Z 06010KT 9999 BKN041 01/M07 Q1020 NOSIG=
201302220320 METAR COR EGLL 220320Z 06009KT 020V080 9999 BKN043 01/M07
                        Q1020 NOSIG=
201302220250 METAR COR EGLL 220250Z 05008KT 010V070 9999 BKN042 01/M07
                        Q1021 NOSIG=
201302220220 METAR EGLL 220220Z AUTO 06009KT 9999 BKN045/// 01/M07 Q1021=
201302220150 METAR EGLL 220150Z AUTO 06011KT 030V090 9999 BKN039/// 01/M07
                        Q1021=
201302220120 METAR EGLL 220120Z AUTO 06009KT 9999 SCT033/// BKN039///
                        01/M06 Q1021=
201302220050 METAR COR EGLL 220050Z 06009KT 9999 BKN035 01/M06 Q1021 NOSIG=
201302220020 METAR COR EGLL 220020Z 07011KT 9999 BKN040 01/M07 Q1022 NOSIG=
201302212350 METAR COR EGLL 212350Z 07012G22KT 9999 BKN041 01/M07 Q1022
                        NOSIG=
201302212320 METAR COR EGLL 212320Z 06011KT 9999 BKN040 01/M07 Q1022 NOSIG=
201302212250 METAR COR EGLL 212250Z 06011KT 9999 BKN037 01/M07 Q1022 NOSIG=
201302212220 METAR COR EGLL 212220Z 07010KT 9999 BKN037 01/M07 Q1022 NOSIG=
201302212150 METAR COR EGLL 212150Z 06011KT 9999 OVC037 01/M07 Q1022 NOSIG=
201302212120 METAR COR EGLL 212120Z 07010KT 9999 OVC036 01/M07 Q1022 NOSIG=
201302212050 METAR COR EGLL 212050Z 07010KT 9999 BKN037 01/M07 Q1022 NOSIG=
201302212020 METAR COR EGLL 212020Z 07013KT 050V110 9999 BKN038 01/M07
                        Q1022 NOSIG=
201302211950 METAR COR EGLL 211950Z 07011KT 9999 BKN037 01/M07 Q1023 NOSIG=
201302211920 METAR COR EGLL 211920Z 07011KT 9999 BKN037 01/M07 Q1023 NOSIG=
201302211850 METAR EGLL 211850Z 08012KT 9999 OVC036 01/M07 Q1023=
201302211820 METAR COR EGLL 211820Z 07010KT 9999 BKN036 01/M06 Q1023 NOSIG=
201302211750 METAR EGLL 211750Z 07010KT 9999 BKN037 01/M06 Q1023=
201302211720 METAR COR EGLL 211720Z 08012KT 9999 BKN037 01/M06 Q1023 NOSIG=
201302211650 METAR COR EGLL 211650Z 07011KT 9999 BKN039 01/M07 Q1023 NOSIG=
201302211620 METAR COR EGLL 211620Z 07011KT 9999 BKN040 01/M07 Q1023 NOSIG=
201302211550 METAR COR EGLL 211550Z 08011KT 9999 BKN040 02/M07 Q1023 NOSIG=
201302211520 METAR COR EGLL 211520Z 08011KT 9999 BKN039 02/M07 Q1023 NOSIG=
201302211450 METAR COR EGLL 211450Z 08011KT 9999 BKN038 02/M06 Q1023 NOSIG=
201302211420 METAR COR EGLL 211420Z 09011KT 9999 BKN036 02/M06 Q1023 NOSIG=
201302211350 METAR COR EGLL 211350Z 08012KT 9999 BKN037 02/M06 Q1023 NOSIG=
201302211320 METAR COR EGLL 211320Z 10013KT 9999 BKN037 02/M05 Q1023 NOSIG=
201302211250 METAR COR EGLL 211250Z 10012KT 9999 BKN037 02/M06 Q1024 NOSIG=
201302211220 METAR COR EGLL 211220Z 10013KT 9999 BKN036 02/M05 Q1024 NOSIG=
201302211150 METAR COR EGLL 211150Z 10014KT 9999 BKN035 02/M05 Q1025 NOSIG=
201302211120 METAR COR EGLL 211120Z 09014KT 9999 BKN034 02/M05 Q1025 NOSIG=
201302211050 METAR COR EGLL 211050Z 09013KT 9999 BKN036 02/M05 Q1025 NOSIG=
201302211020 METAR COR EGLL 211020Z 09011KT 040V110 9999 BKN037 02/M06
                        Q1025 NOSIG=
201302210950 METAR COR EGLL 210950Z 09014KT 9999 BKN039 02/M06 Q1025 NOSIG=
201302210920 METAR COR EGLL 210920Z 09013KT 9999 BKN033 02/M05 Q1025 NOSIG=
201302210850 METAR COR EGLL 210850Z 07010KT 9999 BKN036 02/M05 Q1025 NOSIG=
201302210820 METAR COR EGLL 210820Z 09012KT 9999 BKN033 02/M05 Q1025 NOSIG=
201302210750 METAR COR EGLL 210750Z 09013KT 9999 BKN033 01/M05 Q1025 NOSIG=
201302210720 METAR COR EGLL 210720Z 09013KT 9999 BKN033 01/M05 Q1024 NOSIG=
201302210650 METAR COR EGLL 210650Z 09012KT 9999 BKN033 01/M05 Q1024 NOSIG=
201302210620 METAR COR EGLL 210620Z 09010KT 9999 BKN030 01/M05 Q1024 NOSIG=
201302210550 METAR COR EGLL 210550Z 09011KT 060V130 9999 BKN031 01/M05
                        Q1024 NOSIG=
201302210520 METAR COR EGLL 210520Z 10012KT 9999 BKN029 01/M05 Q1024 NOSIG=
201302210450 METAR COR EGLL 210450Z 10011KT 9999 BKN029 01/M05 Q1024 NOSIG=
201302210420 METAR COR EGLL 210420Z 09008KT 050V110 9999 BKN030 01/M05
                        Q1024 NOSIG=
201302210350 METAR COR EGLL 210350Z 10008KT 9999 BKN030 01/M05 Q1024 NOSIG=
201302210320 METAR COR EGLL 210320Z 10009KT 9999 BKN030 01/M05 Q1024 NOSIG=
201302210250 METAR COR EGLL 210250Z 10012KT 9999 BKN029 01/M05 Q1025 NOSIG=
201302210220 METAR EGLL 210220Z AUTO 09011KT 9999 OVC027/// 01/M04 Q1025=
201302210150 METAR EGLL 210150Z AUTO 11011KT 9999 OVC027/// 01/M04 Q1025=
201302210120 METAR EGLL 210120Z AUTO 10011KT 9999 BKN027/// 02/M04 Q1025=
201302210050 METAR COR EGLL 210050Z 10011KT 9999 BKN026 02/M03 Q1024 NOSIG=
201302210020 METAR COR EGLL 210020Z 09011KT 9999 BKN028 02/M03 Q1024 NOSIG=
201302202350 METAR COR EGLL 202350Z 08011KT 9999 BKN029 02/M04 Q1024 NOSIG=
201302202320 METAR COR EGLL 202320Z 08011KT 9999 BKN027 02/M03 Q1024 NOSIG=
201302202250 METAR COR EGLL 202250Z 09012KT 9999 BKN028 02/M03 Q1024 NOSIG=
201302202220 METAR COR EGLL 202220Z 10012KT 9999 BKN027 02/M03 Q1025 NOSIG=
201302202150 METAR COR EGLL 202150Z 08010KT 9999 BKN027 02/M03 Q1025 NOSIG=
201302202120 METAR COR EGLL 202120Z 09011KT 9999 BKN026 02/M03 Q1025 NOSIG=
201302202050 METAR COR EGLL 202050Z 08014KT 9999 BKN025 02/M03 Q1025 NOSIG=
201302202020 METAR COR EGLL 202020Z 08013KT 9999 BKN026 02/M03 Q1025 NOSIG=
201302201950 METAR COR EGLL 201950Z 09015KT 9999 BKN026 02/M03 Q1025 NOSIG=
201302201920 METAR COR EGLL 201920Z 09015KT 9999 BKN026 02/M04 Q1024 NOSIG=
201302201850 METAR COR EGLL 201850Z 08015KT 9999 BKN026 02/M04 Q1024 NOSIG=
201302201820 METAR COR EGLL 201820Z 09013KT 9999 FEW025 02/M03 Q1024 NOSIG=
201302201750 METAR EGLL 201750Z 09012KT 9999 FEW028 02/M03 Q1024=
201302201720 METAR COR EGLL 201720Z 08011KT 9999 FEW028 02/M03 Q1023 NOSIG=
201302201650 METAR COR EGLL 201650Z 09013G23KT 9999 FEW028 03/M03 Q1023
                        NOSIG=
201302201620 METAR EGLL 201620Z 09013KT 9999 FEW028 04/M03 Q1023=
201302201550 METAR COR EGLL 201550Z 08012KT 9999 FEW028 04/M02 Q1023 NOSIG=
201302201520 METAR COR EGLL 201520Z 08012KT 9999 FEW027 04/M02 Q1023 NOSIG=
201302201450 METAR COR EGLL 201450Z 09014KT 9999 FEW028 05/M02 Q1023 NOSIG=
201302201420 METAR COR EGLL 201420Z 08014KT 050V110 9999 FEW028 05/M02
                        Q1023 NOSIG=
201302201350 METAR COR EGLL 201350Z 09014KT 9999 FEW028 05/M02 Q1024 NOSIG=
201302201320 METAR COR EGLL 201320Z 10015KT 9999 FEW025 05/M02 Q1024 NOSIG=
201302201250 METAR COR EGLL 201250Z 10016KT 9999 SCT024 05/M01 Q1024 NOSIG=
201302201220 METAR COR EGLL 201220Z 09013KT 9999 SCT024 04/M01 Q1024 NOSIG=
201302201150 METAR COR EGLL 201150Z 08013KT 9999 BKN025 05/M00 Q1024 NOSIG=
201302201120 METAR COR EGLL 201120Z 08014KT 9999 BKN024 04/M00 Q1024 NOSIG=
201302201050 METAR COR EGLL 201050Z 09015KT 9999 FEW020 BKN022 04/00 Q1023
                        NOSIG=
201302201020 METAR COR EGLL 201020Z 10015KT 9999 BKN020 05/02 Q1023 NOSIG=
201302200950 METAR COR EGLL 200950Z 09014KT 9000 BKN016 BKN033 04/02 Q1023
                        NOSIG=
201302200920 METAR COR EGLL 200920Z 09013KT 7000 BKN013 04/02 Q1023 BECMG
                        BKN016=
201302200850 METAR COR EGLL 200850Z 09014KT 4500 BR FEW008 BKN012 04/03
                        Q1023 BECMG 8000 NSW FEW010 BKN015=
201302200820 METAR COR EGLL 200820Z 09012KT 3100 BR SCT006 BKN009 04/03
                        Q1023 BECMG 6000 NSW SCT008 BKN010=
201302200750 METAR COR EGLL 200750Z 06005KT 1700 -DZ BR FEW002 BKN003
                        BKN007 03/03 Q1022 BECMG 5000 SCT005
                        BKN008=
201302200720 METAR COR EGLL 200720Z 02004KT 1300 R09L/P1500 R09R/P1500
                        -DZ BR FEW001 SCT002 BKN003 03/02
                        Q1022 BECMG 3000 SCT004 BKN008=
201302200650 METAR COR EGLL 200650Z 03004KT 340V060 1200 R09L/P1500 R09R/P1500
                        -DZ BR FEW001 SCT002 BKN003 03/02
                        Q1022 BECMG 2000 FEW003 BKN008=
201302200620 METAR COR EGLL 200620Z VRB03KT 1200 R09L/P1500 R09R/P1500
                        -DZ BR SCT002 BKN003 03/02 Q1022
                        BECMG 2000 FEW004 BKN008=
201302200550 METAR COR EGLL 200550Z 36004KT 1400 BR FEW003 SCT007 BKN012
                        03/02 Q1022 TEMPO BKN004=
201302200520 METAR COR EGLL 200520Z VRB02KT 2000 BR BKN015 03/02 Q1021
                        BECMG BKN012=
201302200450 METAR COR EGLL 200450Z 00000KT 3000 BR BKN018 03/02 Q1021
                        BECMG BKN008=
201302200420 METAR COR EGLL 200420Z 18005KT 2800 BR FEW006 SCT008 BKN022
                        03/02 Q1021 TEMPO BKN008=
201302200350 METAR COR EGLL 200350Z 11007KT 3100 BR BKN009 03/02 Q1021
                        TEMPO 6000=
201302200320 METAR COR EGLL 200320Z 09007KT 2800 BR SCT006 SCT008 03/02
                        Q1021 TEMPO BKN008=
201302200250 METAR COR EGLL 200250Z VRB03KT 0900 R27R/P1500 FG SCT001
                        BKN002 03/02 Q1021 BECMG 3000 BR
                        FEW002 BKN008=
201302200220 METAR COR EGLL 200220Z 04003KT 0900 R27R/P1500 FG SCT001
                        BKN002 02/02 Q1021 TEMPO 1500 BR
                        FEW002 BKN004=
201302200150 METAR COR EGLL 200150Z 06003KT 1100 R27R/P1500 BR FEW001
                        BKN002 02/02 Q1020 TEMPO 0700 FG
                        BKN001=
201302200120 METAR COR EGLL 200120Z 06003KT 1400 R27R/P1500 BR FEW001
                        SCT002 BKN003 02/01 Q1020 TEMPO 2000
                        FEW003 BKN005=
201302200050 METAR COR EGLL 200050Z 10007KT 1400 BR FEW002 SCT003 BKN004
                        02/01 Q1020 TEMPO FEW004 BKN006=
201302200020 METAR COR EGLL 200020Z 08004KT 4000 BR NSC 02/00 Q1019 TEMPO
                        BKN008=
201302192350 METAR COR EGLL 192350Z 05005KT 5000 BR NSC 02/00 Q1019 TEMPO
                        3000=
201302192320 METAR COR EGLL 192320Z 04005KT 7000 NSC 04/01 Q1019 TEMPO
                        4000 BR=
201302192250 METAR COR EGLL 192250Z VRB03KT 7000 NSC 05/01 Q1019 NOSIG=
201302192220 METAR COR EGLL 192220Z 05004KT 8000 NSC 05/01 Q1019 NOSIG=
201302192150 METAR COR EGLL 192150Z VRB03KT 9000 NSC 06/01 Q1019 NOSIG=
201302192120 METAR COR EGLL 192120Z 05003KT CAVOK 06/01 Q1019 NOSIG=
201302192050 METAR COR EGLL 192050Z VRB02KT CAVOK 07/01 Q1019 NOSIG=
201302192020 METAR COR EGLL 192020Z 05002KT CAVOK 07/01 Q1019 NOSIG=
201302191950 METAR COR EGLL 191950Z VRB02KT CAVOK 08/01 Q1019 NOSIG=
201302191920 METAR COR EGLL 191920Z 01003KT CAVOK 08/01 Q1019 NOSIG=
201302191850 METAR COR EGLL 191850Z 01003KT CAVOK 08/01 Q1019 NOSIG=
201302191820 METAR COR EGLL 191820Z 01003KT CAVOK 09/M01 Q1018 NOSIG=
201302191750 METAR COR EGLL 191750Z 29002KT CAVOK 09/M01 Q1018 NOSIG=
201302191720 METAR COR EGLL 191720Z VRB02KT CAVOK 09/M01 Q1018 NOSIG=
201302191650 METAR COR EGLL 191650Z 00000KT CAVOK 10/M01 Q1018 NOSIG=
201302191620 METAR COR EGLL 191620Z VRB03KT CAVOK 10/M01 Q1018 NOSIG=
201302191550 METAR COR EGLL 191550Z 28004KT 240V320 CAVOK 10/01 Q1018
                        NOSIG=
201302191520 METAR COR EGLL 191520Z VRB02KT CAVOK 10/01 Q1018 NOSIG=
201302191450 METAR COR EGLL 191450Z VRB03KT CAVOK 10/01 Q1018 NOSIG=
201302191420 METAR COR EGLL 191420Z VRB03KT CAVOK 09/01 Q1018 NOSIG=
201302191350 METAR COR EGLL 191350Z 19004KT 130V260 CAVOK 10/01 Q1018
                        NOSIG=
201302191320 METAR COR EGLL 191320Z VRB03KT CAVOK 09/01 Q1019 NOSIG=
201302191250 METAR COR EGLL 191250Z 30004KT 280V350 CAVOK 08/01 Q1019
                        NOSIG=
201302191220 METAR COR EGLL 191220Z 27004KT 230V310 CAVOK 08/02 Q1019
                        NOSIG=
201302191150 METAR COR EGLL 191150Z 25005KT 190V300 9000 NSC 08/03 Q1020
                        NOSIG=
201302191120 METAR COR EGLL 191120Z VRB04KT 8000 NSC 07/02 Q1020 NOSIG=
201302191050 METAR COR EGLL 191050Z 28004KT 220V360 6000 NSC 06/02 Q1020
                        NOSIG=
201302191020 METAR COR EGLL 191020Z VRB03KT 5000 HZ NSC 05/01 Q1020 NOSIG=
201302190950 METAR COR EGLL 190950Z VRB02KT 5000 R27R/1200 HZ NSC 04/01
                        Q1020 NOSIG=
201302190920 METAR COR EGLL 190920Z VRB02KT 5000 R27R/1200 HZ NSC 03/01
                        Q1020 NOSIG=
201302190850 METAR COR EGLL 190850Z 35002KT 4300 BR NSC 01/M00 Q1020 BECMG
                        5000=
201302190820 METAR COR EGLL 190820Z 36003KT 3900 BR NSC 01/M00 Q1020 BECMG
                        5000=
201302190750 METAR COR EGLL 190750Z 00000KT 3500 BR NSC M00/M01 Q1020
                        TEMPO 1400=
201302190720 METAR COR EGLL 190720Z 35002KT 3500 BR NSC M01/M02 Q1020
                        TEMPO 1400=
201302190650 METAR COR EGLL 190650Z VRB02KT 3800 BR NSC M01/M02 Q1020
                        TEMPO 1200=
201302190620 METAR COR EGLL 190620Z VRB02KT 4000 BR NSC 00/M01 Q1020 NOSIG=
201302190550 METAR COR EGLL 190550Z 35002KT 3000 BR NSC M01/M02 Q1020
                        TEMPO 1200=
201302190520 METAR COR EGLL 190520Z VRB02KT 2800 BR NSC M01/M02 Q1020
                        TEMPO 1200=
201302190450 METAR COR EGLL 190450Z 09003KT 2800 BR NSC M01/M02 Q1020
                        TEMPO 1200=
201302190420 METAR COR EGLL 190420Z 07002KT 3000 BR NSC M01/M02 Q1020
                        TEMPO 1200=
201302190350 METAR COR EGLL 190350Z VRB02KT 3000 BR NSC M01/M02 Q1020
                        TEMPO 1200=
201302190320 METAR COR EGLL 190320Z 00000KT 3900 BR NSC M00/M01 Q1020
                        TEMPO 1200=
201302190250 METAR COR EGLL 190250Z 00000KT 5000 BR NSC M00/M01 Q1020
                        BECMG 3000 BR=
201302190220 METAR EGLL 190220Z AUTO 35003KT 5000 NCD M00/M01 Q1020=
201302190150 METAR EGLL 190150Z AUTO 01003KT 5000 NCD 00/M01 Q1020=
201302190120 METAR EGLL 190120Z AUTO 06002KT 4200 HZ NCD 01/M00 Q1020=
201302190050 METAR COR EGLL 190050Z 06002KT 6000 NSC 01/M00 Q1020 BECMG
                        3000 BR=
201302190020 METAR COR EGLL 190020Z 08003KT 7000 NSC 01/M00 Q1021 BECMG
                        4000 BR=
201302182350 METAR COR EGLL 182350Z 09004KT 7000 NSC 01/M00 Q1021 BECMG
                        4000 BR=
201302182320 METAR COR EGLL 182320Z 08003KT 7000 NSC 01/M01 Q1021 BECMG
                        4000 BR=
201302182250 METAR COR EGLL 182250Z 08004KT 7000 NSC 02/M00 Q1021 BECMG
                        4000 BR=
201302182220 METAR COR EGLL 182220Z 07003KT 7000 NSC 02/00 Q1021 BECMG
                        4000 BR=
201302182150 METAR COR EGLL 182150Z 08003KT 8000 NSC 02/00 Q1021 BECMG
                        4000 BR=
201302182120 METAR COR EGLL 182120Z VRB03KT 7000 NSC 02/00 Q1021 BECMG
                        4000 BR=
201302182050 METAR COR EGLL 182050Z 08004KT 8000 NSC 02/00 Q1021 BECMG
                        4000 BR=
201302182020 METAR COR EGLL 182020Z 10006KT 8000 NSC 02/M00 Q1021 BECMG
                        4000 BR=
201302181950 METAR COR EGLL 181950Z 09008KT 8000 NSC 03/00 Q1020 NOSIG=
201302181920 METAR COR EGLL 181920Z 09007KT 9000 NSC 04/01 Q1020 NOSIG=
201302181850 METAR COR EGLL 181850Z 09007KT 9000 NSC 03/01 Q1020 NOSIG=
201302181820 METAR EGLL 181820Z AUTO 10007KT 9000 NCD 04/01 Q1020=
201302181750 METAR COR EGLL 181750Z 09007KT 8000 NSC 05/01 Q1020 NOSIG=
201302181720 METAR COR EGLL 181720Z 09007KT 9000 NSC 06/02 Q1020 NOSIG=
201302181650 METAR COR EGLL 181650Z 09007KT CAVOK 06/02 Q1019 NOSIG=
201302181620 METAR COR EGLL 181620Z 10007KT 070V140 CAVOK 07/00 Q1019
                        NOSIG=
201302181550 METAR COR EGLL 181550Z 11007KT CAVOK 08/00 Q1019 NOSIG=
201302181520 METAR COR EGLL 181520Z 11007KT CAVOK 08/01 Q1019 NOSIG=
201302181450 METAR COR EGLL 181450Z 12007KT 090V150 CAVOK 09/01 Q1019
                        NOSIG=
201302181420 METAR EGLL 181420Z 11008KT CAVOK 09/01 Q1019=
201302181350 METAR COR EGLL 181350Z 12008KT 080V150 9999 FEW032 09/01
                        Q1020 NOSIG=
201302181320 METAR COR EGLL 181320Z 12008KT 070V160 9999 FEW032 09/00
                        Q1020 NOSIG=
201302181250 METAR COR EGLL 181250Z 12009KT 9999 FEW028 08/01 Q1020 NOSIG=
201302181220 METAR COR EGLL 181220Z 12007KT 070V150 9999 FEW024 08/01
                        Q1020 NOSIG=
201302181150 METAR COR EGLL 181150Z 10009KT 9999 FEW023 07/02 Q1021 NOSIG=
201302181120 METAR EGLL 181120Z AUTO 10010KT 070V140 9999 FEW017/// 07/02
                        Q1021=
201302181050 METAR COR EGLL 181050Z 10011KT 7000 NSC 06/02 Q1021 NOSIG=
201302181020 METAR COR EGLL 181020Z 10010KT 6000 FEW011 05/03 Q1021 NOSIG=
201302180950 METAR COR EGLL 180950Z 10010KT 4200 HZ FEW008 05/03 Q1021
                        BECMG 5000=
201302180920 METAR COR EGLL 180920Z 09008KT 3200 HZ FEW006 04/02 Q1021
                        BECMG 5000=
201302180850 METAR COR EGLL 180850Z 09008KT 3100 HZ NSC 03/02 Q1020 BECMG
                        5000=
201302180820 METAR COR EGLL 180820Z 09007KT 2900 BR NSC 02/01 Q1020 NOSIG=
201302180750 METAR COR EGLL 180750Z 09007KT 2900 BR NSC 02/01 Q1020 NOSIG=
201302180720 METAR COR EGLL 180720Z 08006KT 2900 BR NSC 01/M00 Q1020 NOSIG=
201302180650 METAR COR EGLL 180650Z 08005KT 2900 BR NSC 01/00 Q1020 NOSIG=
201302180620 METAR COR EGLL 180620Z 08005KT 3200 BR NSC 01/01 Q1020 NOSIG=
201302180550 METAR COR EGLL 180550Z 09006KT 3800 BR NSC 02/01 Q1020 NOSIG=
201302180520 METAR COR EGLL 180520Z 08004KT 3800 BR NSC 01/00 Q1020 NOSIG=
201302180450 METAR COR EGLL 180450Z 08004KT 3800 BR NSC 01/00 Q1020 NOSIG=
201302180420 METAR COR EGLL 180420Z 08005KT 3800 BR NSC 01/00 Q1020 NOSIG=
201302180350 METAR COR EGLL 180350Z 07004KT 3800 BR NSC 01/00 Q1020 NOSIG=
201302180320 METAR COR EGLL 180320Z 08004KT 3500 BR FEW012 01/M00 Q1020
                        NOSIG=
201302180250 METAR COR EGLL 180250Z 09004KT 3500 BR SCT012 01/00 Q1020
                        TEMPO BKN012=
201302180220 METAR EGLL 180220Z AUTO 08004KT 2200 HZ FEW013/// 01/M00
                        Q1020=
201302180150 METAR EGLL 180150Z AUTO 08005KT 2300 BR FEW013/// 01/M00
                        Q1020=
201302180120 METAR EGLL 180120Z AUTO 09005KT 2000 HZ NCD 01/00 Q1020=
201302180050 METAR COR EGLL 180050Z 10006KT 4000 BR NSC 01/00 Q1020 TEMPO
                        BKN008=
201302180020 METAR COR EGLL 180020Z 10007KT 4000 BR NSC 02/01 Q1020 NOSIG=
201302172350 METAR COR EGLL 172350Z 09008KT 4000 BR NSC 03/02 Q1020 TEMPO
                        BKN010=
201302172320 METAR COR EGLL 172320Z 09009KT 4000 BR NSC 03/02 Q1020 TEMPO
                        BKN010=
201302172250 METAR COR EGLL 172250Z 09009KT 4000 BR NSC 03/02 Q1020 TEMPO
                        BKN010=
201302172220 METAR COR EGLL 172220Z 09008KT 4500 BR FEW016 03/02 Q1020
                        NOSIG=
201302172150 METAR COR EGLL 172150Z 09010KT 4500 BR SCT016 04/02 Q1020
                        TEMPO BKN014=
201302172120 METAR COR EGLL 172120Z 09009KT 4500 BR SCT013 03/02 Q1020
                        TEMPO BKN012=
201302172050 METAR COR EGLL 172050Z 09008KT 5000 BR FEW010 BKN013 04/02
                        Q1020 TEMPO 4000 BKN008=
201302172020 METAR COR EGLL 172020Z 08011KT 5000 BR FEW007 SCT008 BKN010
                        04/02 Q1020 TEMPO 4000 BKN006=
201302171950 METAR COR EGLL 171950Z 08007KT 4000 BR FEW006 SCT008 03/02
                        Q1020 TEMPO BKN005=
201302171920 METAR COR EGLL 171920Z 08009KT 4000 BR FEW006 04/02 Q1020
                        TEMPO BKN005=
201302171850 METAR COR EGLL 171850Z 09008KT 4800 BR NSC 04/02 Q1020 TEMPO
                        6000=
201302171820 METAR COR EGLL 171820Z 09009KT 6000 NSC 05/03 Q1020 NOSIG=
201302171750 METAR COR EGLL 171750Z 09010KT 7000 NSC 05/03 Q1020 NOSIG=
201302171720 METAR COR EGLL 171720Z 09010KT 9000 FEW044 07/03 Q1019 NOSIG=
201302171650 METAR COR EGLL 171650Z 09010KT 9999 FEW037 SCT045 08/02 Q1019
                        NOSIG=
201302171620 METAR EGLL 171620Z 13008KT 9999 SCT046 08/M01 Q1019=
201302171550 METAR COR EGLL 171550Z 12010KT 9999 SCT045 08/M01 Q1020 NOSIG=
201302171520 METAR COR EGLL 171520Z 11009KT 9999 SCT045 09/M01 Q1020 NOSIG=
201302171450 METAR COR EGLL 171450Z 14009KT 9999 SCT047 09/M01 Q1020 NOSIG=
201302171420 METAR COR EGLL 171420Z 13010KT 9999 SCT046 09/M01 Q1020 NOSIG=
201302171350 METAR COR EGLL 171350Z 15011KT 9999 FEW044 09/M01 Q1021 NOSIG=
201302171320 METAR COR EGLL 171320Z 14009KT 9999 FEW044 10/M01 Q1021 NOSIG=
201302171250 METAR COR EGLL 171250Z 14011KT 9999 FEW030 10/00 Q1021 NOSIG=
201302171220 METAR COR EGLL 171220Z 13010KT 090V160 9999 FEW028 09/02
                        Q1021 NOSIG=
201302171150 METAR COR EGLL 171150Z 13006KT 090V180 9999 FEW020 09/04
                        Q1022 NOSIG=
201302171120 METAR COR EGLL 171120Z 15004KT 110V180 9999 FEW019 08/04
                        Q1022 NOSIG=
201302171050 METAR COR EGLL 171050Z 11004KT 080V160 7000 FEW007 07/05
                        Q1022 NOSIG=
201302171020 METAR COR EGLL 171020Z 08004KT 040V130 5000 HZ FEW005 SCT006
                        05/04 Q1023 NOSIG=
201302170950 METAR COR EGLL 170950Z VRB02KT 3100 BR SCT002 BKN004 04/03
                        Q1023 BECMG 6000 SCT012=
201302170920 METAR COR EGLL 170920Z 11004KT 060V160 2100 BR FEW001 BKN002
                        BKN004 03/03 Q1023 BECMG 6000 SCT010=
201302170850 METAR COR EGLL 170850Z 12005KT 090V150 0450 R09L/0800 R09R/0900
                        FG BKN001 BKN002 03/02 Q1023 BECMG
                        6000 BR SCT012=
201302170820 METAR COR EGLL 170820Z 10004KT 070V170 0250 R09L/0400 R09R/0400
                        FG VV/// 03/02 Q1023 TEMPO 1200 BR
                        BKN003=
201302170750 METAR COR EGLL 170750Z 09004KT 060V130 0300 R09L/0325 R09R/0375
                        FG BKN001 BKN002 02/01 Q1022 TEMPO
                        1200 BKN003=
201302170720 METAR COR EGLL 170720Z 09003KT 5000 BR BKN003 01/01 Q1022
                        TEMPO 2500 BKN002=
201302170650 METAR COR EGLL 170650Z 08003KT 5000 BR FEW006 01/00 Q1022
                        BECMG 2500 BKN002=
201302170620 METAR COR EGLL 170620Z 08002KT 6000 SCT006 01/00 Q1022 BECMG
                        3000 BR BKN003=
201302170550 METAR COR EGLL 170550Z 08004KT 7000 NSC 01/M00 Q1022 BECMG
                        4000 BR BKN003=
201302170520 METAR COR EGLL 170520Z 08004KT 7000 NSC 01/M00 Q1022 TEMPO
                        4000 BR=
201302170450 METAR COR EGLL 170450Z 07003KT 6000 NSC 00/M00 Q1022 TEMPO
                        4000 BR=
201302170420 METAR COR EGLL 170420Z 07003KT 7000 NSC 01/00 Q1022 TEMPO
                        4000 BR=
201302170350 METAR COR EGLL 170350Z 07004KT 8000 NSC 01/01 Q1022 NOSIG=
201302170320 METAR COR EGLL 170320Z 07003KT 7000 NSC 01/01 Q1022 TEMPO
                        4000 BR=
201302170250 METAR COR EGLL 170250Z 06003KT 7000 NSC 02/01 Q1022 TEMPO
                        4000 BR=
201302170220 METAR EGLL 170220Z AUTO 07003KT 4300 HZ NCD 02/01 Q1023=
201302170150 METAR EGLL 170150Z AUTO 07003KT 4800 BR NCD 02/01 Q1023=
201302170120 METAR EGLL 170120Z AUTO 07003KT 5000 NCD 02/01 Q1023=
201302170050 METAR COR EGLL 170050Z VRB03KT 8000 NSC 02/01 Q1023 NOSIG=
201302170020 METAR COR EGLL 170020Z 08002KT 9000 NSC 03/02 Q1023 NOSIG=
201302162350 METAR COR EGLL 162350Z 14003KT 9000 NSC 04/02 Q1023 NOSIG=
201302162320 METAR COR EGLL 162320Z 15003KT CAVOK 04/03 Q1023 NOSIG=
201302162250 METAR COR EGLL 162250Z VRB03KT CAVOK 04/02 Q1024 NOSIG=
201302162220 METAR COR EGLL 162220Z VRB03KT CAVOK 05/02 Q1024 NOSIG=
201302162150 METAR COR EGLL 162150Z 18004KT 120V290 CAVOK 05/03 Q1024
                        NOSIG=
201302162120 METAR COR EGLL 162120Z 21005KT 130V250 CAVOK 06/03 Q1024
                        NOSIG=
201302162050 METAR COR EGLL 162050Z 16004KT 120V260 CAVOK 06/03 Q1023
                        NOSIG=
201302162020 METAR COR EGLL 162020Z 19004KT 160V240 CAVOK 06/03 Q1023
                        NOSIG=
201302161950 METAR COR EGLL 161950Z 18005KT 140V240 9999 OVC049 07/02
                        Q1023 NOSIG=
201302161920 METAR COR EGLL 161920Z 18006KT 120V260 CAVOK 07/02 Q1023
                        NOSIG=
201302161850 METAR COR EGLL 161850Z 18006KT 120V240 9999 FEW048 07/02
                        Q1023 NOSIG=
201302161820 METAR COR EGLL 161820Z 17007KT 140V260 CAVOK 07/01 Q1023
                        NOSIG=
201302161750 METAR COR EGLL 161750Z 19007KT 160V240 CAVOK 08/01 Q1023
                        NOSIG=
201302161720 METAR COR EGLL 161720Z 21005KT 160V280 CAVOK 08/01 Q1023
                        NOSIG=
201302161650 METAR COR EGLL 161650Z 22006KT 180V270 CAVOK 09/00 Q1023
                        NOSIG=
201302161620 METAR COR EGLL 161620Z 20007KT 110V260 9999 FEW044 09/M00
                        Q1023 NOSIG=
201302161550 METAR COR EGLL 161550Z VRB06KT 9999 FEW044 09/00 Q1023 NOSIG=
201302161520 METAR COR EGLL 161520Z 20006KT 140V270 9999 FEW047 10/00
                        Q1023 NOSIG=
201302161450 METAR COR EGLL 161450Z 17005KT 130V210 9999 FEW048 10/M00
                        Q1023 NOSIG=
201302161420 METAR COR EGLL 161420Z 19004KT 160V230 9999 FEW048 10/M01
                        Q1023 NOSIG=
201302161350 METAR COR EGLL 161350Z 16004KT 120V190 CAVOK 10/M02 Q1023
                        NOSIG=
201302161320 METAR COR EGLL 161320Z 20005KT 150V250 9999 FEW032 10/01
                        Q1023 NOSIG=
201302161250 METAR COR EGLL 161250Z 19005KT 150V240 9999 FEW032 10/02
                        Q1024 NOSIG=
201302161220 METAR COR EGLL 161220Z 20004KT 140V250 9999 FEW028 10/03
                        Q1024 NOSIG=
201302161150 METAR COR EGLL 161150Z VRB03KT 9999 FEW024 09/03 Q1024 NOSIG=
201302161120 METAR COR EGLL 161120Z VRB03KT CAVOK 09/03 Q1024 NOSIG=
201302161050 METAR COR EGLL 161050Z 18004KT 080V220 CAVOK 08/03 Q1024
                        NOSIG=
201302161020 METAR COR EGLL 161020Z 21004KT 150V240 CAVOK 07/03 Q1024
                        NOSIG=
201302160950 METAR COR EGLL 160950Z VRB03KT CAVOK 07/03 Q1024 NOSIG=
201302160920 METAR COR EGLL 160920Z VRB03KT CAVOK 06/03 Q1024 NOSIG=
201302160850 METAR COR EGLL 160850Z VRB03KT CAVOK 06/03 Q1024 NOSIG=
201302160820 METAR COR EGLL 160820Z 00000KT CAVOK 05/02 Q1024 NOSIG=
201302160750 METAR COR EGLL 160750Z 22004KT 180V240 CAVOK 05/02 Q1024
                        NOSIG=
201302160720 METAR COR EGLL 160720Z VRB03KT CAVOK 04/02 Q1023 NOSIG=
201302160650 METAR COR EGLL 160650Z 18004KT 140V210 CAVOK 04/02 Q1023
                        NOSIG=
201302160620 METAR COR EGLL 160620Z VRB03KT CAVOK 04/02 Q1023 NOSIG=
201302160550 METAR COR EGLL 160550Z 18003KT CAVOK 04/02 Q1023 NOSIG=
201302160520 METAR COR EGLL 160520Z VRB03KT CAVOK 04/02 Q1023 NOSIG=
201302160450 METAR COR EGLL 160450Z 17002KT CAVOK 05/02 Q1023 NOSIG=
201302160420 METAR COR EGLL 160420Z 00000KT CAVOK 05/02 Q1023 NOSIG=
201302160350 METAR COR EGLL 160350Z 00000KT 9999 SCT042 OVC048 05/02 Q1023
                        NOSIG=
201302160320 METAR COR EGLL 160320Z 00000KT CAVOK 05/02 Q1023 NOSIG=
201302160250 METAR EGLL 160250Z AUTO 28003KT 9999 FEW047/// 05/02 Q1023=
201302160220 METAR EGLL 160220Z AUTO VRB02KT 9999 NCD 05/02 Q1023=
201302160150 METAR EGLL 160150Z AUTO 18002KT 9999 NCD 05/02 Q1023=
201302160120 METAR COR EGLL 160120Z 18002KT 9999 FEW048 05/02 Q1023 NOSIG=
201302160050 METAR COR EGLL 160050Z 18004KT CAVOK 05/02 Q1023 NOSIG=
201302160020 METAR COR EGLL 160020Z 20003KT CAVOK 05/02 Q1023 NOSIG=
201302152350 METAR COR EGLL 152350Z 20002KT CAVOK 05/01 Q1023 NOSIG=
201302152320 METAR COR EGLL 152320Z 21004KT 190V260 CAVOK 05/01 Q1023
                        NOSIG=
201302152250 METAR COR EGLL 152250Z 23005KT 180V260 CAVOK 05/01 Q1023
                        NOSIG=
201302152220 METAR COR EGLL 152220Z 22006KT 170V260 CAVOK 05/01 Q1023
                        NOSIG=
201302152150 METAR COR EGLL 152150Z 26006KT 220V300 CAVOK 05/01 Q1023
                        NOSIG=
201302152120 METAR COR EGLL 152120Z 30003KT 9999 SCT041 06/02 Q1023 NOSIG=
201302152050 METAR COR EGLL 152050Z 30004KT 9999 SCT042 SCT047 06/02 Q1023
                        NOSIG=
201302152020 METAR COR EGLL 152020Z 30004KT CAVOK 06/02 Q1022 NOSIG=
201302151950 METAR COR EGLL 151950Z VRB02KT CAVOK 07/01 Q1022 NOSIG=
201302151920 METAR COR EGLL 151920Z 31002KT CAVOK 07/01 Q1022 NOSIG=
201302151850 METAR COR EGLL 151850Z 32002KT CAVOK 08/01 Q1022 NOSIG=
201302151820 METAR COR EGLL 151820Z 30003KT CAVOK 08/01 Q1022 NOSIG=
201302151750 METAR COR EGLL 151750Z 34002KT CAVOK 08/01 Q1021 NOSIG=
201302151720 METAR COR EGLL 151720Z 31003KT CAVOK 08/01 Q1021 NOSIG=
201302151650 METAR COR EGLL 151650Z 29005KT CAVOK 09/01 Q1021 NOSIG=
201302151620 METAR COR EGLL 151620Z 29007KT 9999 FEW046 09/01 Q1021 NOSIG=
201302151550 METAR COR EGLL 151550Z 30006KT 250V330 9999 FEW042 BKN046
                        09/01 Q1021 NOSIG=
201302151520 METAR COR EGLL 151520Z 28009KT 9999 FEW040 BKN046 09/00 Q1021
                        NOSIG=
201302151450 METAR COR EGLL 151450Z 29008KT 9999 SCT040 BKN046 09/01 Q1020
                        NOSIG=
201302151420 METAR COR EGLL 151420Z 30006KT 9999 SCT038 BKN046 09/01 Q1020
                        NOSIG=
201302151350 METAR COR EGLL 151350Z 32007KT 280V360 9999 SCT035 SCT039
                        10/02 Q1020 NOSIG=
201302151320 METAR COR EGLL 151320Z 27009KT 9999 FEW030 SCT039 10/02 Q1020
                        NOSIG=
201302151250 METAR COR EGLL 151250Z 29007KT 260V330 9999 FEW027 10/03
                        Q1020 NOSIG=
201302151220 METAR COR EGLL 151220Z 29009KT 9999 FEW026 09/03 Q1020 NOSIG=
201302151150 METAR COR EGLL 151150Z 28009KT 9999 FEW024 09/04 Q1020 NOSIG=
201302151120 METAR COR EGLL 151120Z 29009KT 9999 FEW020 09/04 Q1020 NOSIG=
201302151050 METAR COR EGLL 151050Z 28010KT CAVOK 08/03 Q1020 NOSIG=
201302151020 METAR COR EGLL 151020Z 29008KT 260V320 CAVOK 07/03 Q1020
                        NOSIG=
201302150950 METAR COR EGLL 150950Z 27008KT CAVOK 05/03 Q1020 NOSIG=
201302150920 METAR COR EGLL 150920Z 27007KT CAVOK 05/03 Q1020 NOSIG=
201302150850 METAR EGLL 150850Z 27007KT CAVOK 04/03 Q1019=
201302150820 METAR COR EGLL 150820Z 27007KT CAVOK 04/02 Q1019 NOSIG=
201302150750 METAR COR EGLL 150750Z 28007KT CAVOK 04/02 Q1019 NOSIG=
201302150720 METAR COR EGLL 150720Z 28006KT CAVOK 03/01 Q1019 NOSIG=
201302150650 METAR COR EGLL 150650Z 27006KT CAVOK 02/01 Q1018 NOSIG=
201302150620 METAR COR EGLL 150620Z 27006KT CAVOK 02/01 Q1018 NOSIG=
201302150550 METAR COR EGLL 150550Z 28005KT CAVOK 02/01 Q1018 NOSIG=
201302150520 METAR COR EGLL 150520Z 28007KT CAVOK 02/01 Q1018 NOSIG=
201302150450 METAR COR EGLL 150450Z 27006KT CAVOK 02/01 Q1017 NOSIG=
201302150420 METAR COR EGLL 150420Z 28007KT CAVOK 04/02 Q1017 NOSIG=
201302150350 METAR COR EGLL 150350Z 28008KT CAVOK 04/02 Q1017 NOSIG=
201302150320 METAR COR EGLL 150320Z 27008KT CAVOK 03/02 Q1017 NOSIG=
201302150250 METAR COR EGLL 150250Z 28009KT CAVOK 02/01 Q1017 NOSIG=
201302150220 METAR COR EGLL 150220Z 27002KT CAVOK 03/02 Q1016 NOSIG=
201302150150 METAR COR EGLL 150150Z 28005KT CAVOK 02/01 Q1016 NOSIG=
201302150120 METAR COR EGLL 150120Z 27007KT CAVOK 03/01 Q1016 NOSIG=
201302150050 METAR COR EGLL 150050Z 28005KT CAVOK 03/02 Q1016 NOSIG=
201302150020 METAR COR EGLL 150020Z 28007KT CAVOK 03/02 Q1016 NOSIG=
201302142350 METAR COR EGLL 142350Z 28006KT CAVOK 03/02 Q1015 NOSIG=
201302142250 METAR COR EGLL 142250Z 29007KT CAVOK 06/03 Q1015 NOSIG=
201302142220 METAR COR EGLL 142220Z 29007KT CAVOK 06/03 Q1015 NOSIG=
201302142150 METAR COR EGLL 142150Z 28007KT CAVOK 06/03 Q1014 NOSIG=
201302142120 METAR COR EGLL 142120Z 28007KT 9999 FEW030 06/03 Q1014 NOSIG=
201302142050 METAR COR EGLL 142050Z 29006KT CAVOK 07/03 Q1014 NOSIG=
201302142020 METAR COR EGLL 142020Z 29005KT 9999 SCT025 08/04 Q1014 NOSIG=
201302141950 METAR COR EGLL 141950Z 28007KT 9999 FEW038 07/03 Q1014 NOSIG=
201302141920 METAR COR EGLL 141920Z 29007KT CAVOK 08/03 Q1013 NOSIG=
201302141850 METAR COR EGLL 141850Z 28009KT CAVOK 08/04 Q1013 NOSIG=
201302141820 METAR COR EGLL 141820Z 28007KT CAVOK 08/03 Q1013 NOSIG=
201302141750 METAR COR EGLL 141750Z 28007KT CAVOK 07/03 Q1012 NOSIG=
201302141720 METAR COR EGLL 141720Z 29005KT 260V320 9999 FEW049 08/03
                        Q1012 NOSIG=
201302141650 METAR EGLL 141650Z 29008KT 9999 FEW049 10/03 Q1012=
201302141620 METAR COR EGLL 141620Z 29009KT 9999 FEW036 10/04 Q1011 NOSIG=
201302141550 METAR COR EGLL 141550Z 30009KT 9999 FEW036 SCT045 11/03 Q1011
                        NOSIG=
201302141520 METAR COR EGLL 141520Z 30009KT 9999 FEW033 BKN045 11/03 Q1011
                        NOSIG=
201302141450 METAR COR EGLL 141450Z 29012KT 9999 FEW030 SCT049 10/03 Q1011
                        NOSIG=
201302141420 METAR COR EGLL 141420Z 30009KT 280V350 9999 FEW031 SCT034
                        11/04 Q1011 NOSIG=
201302141350 METAR COR EGLL 141350Z 31010KT 270V340 9999 SCT036 11/05
                        Q1010 NOSIG=
201302141320 METAR EGLL 141320Z 30011KT 9999 SCT023 SCT027 11/05 Q1010=
201302141250 METAR COR EGLL 141250Z 29014KT 9999 FEW023 SCT026 11/05 Q1010
                        NOSIG=
201302141220 METAR COR EGLL 141220Z 30010KT 9999 FEW023 SCT026 11/05 Q1010
                        NOSIG=
201302141150 METAR COR EGLL 141150Z 29014KT 9999 FEW025 SCT030 11/05 Q1010
                        NOSIG=
201302141120 METAR COR EGLL 141120Z 30012KT 9999 SCT024 11/06 Q1010 NOSIG=
201302141050 METAR COR EGLL 141050Z 29011KT 9999 FEW016 SCT022 10/07 Q1010
                        NOSIG=
201302141020 METAR COR EGLL 141020Z 29011KT 9999 FEW014 SCT022 10/07 Q1009
                        NOSIG=
201302140950 METAR COR EGLL 140950Z 28011KT 9999 SCT025 SCT046 10/07 Q1009
                        NOSIG=
201302140920 METAR COR EGLL 140920Z 27010KT 9999 FEW024 SCT034 09/07 Q1009
                        NOSIG=
201302140850 METAR COR EGLL 140850Z 28009KT 9999 FEW025 09/07 Q1008 NOSIG=
201302140820 METAR COR EGLL 140820Z 27008KT 9999 FEW027 09/07 Q1008 NOSIG=
201302140750 METAR COR EGLL 140750Z 26010KT 9999 FEW018 SCT027 09/07 Q1007
                        NOSIG=
201302140720 METAR COR EGLL 140720Z 22011KT 9999 SCT015 SCT027 08/07 Q1007
                        NOSIG=
201302140650 METAR COR EGLL 140650Z 20012KT 180V240 9999 -RA SCT008 SCT014
                        08/07 Q1007 NOSIG=
201302140620 METAR COR EGLL 140620Z 20012KT 7000 -RA FEW006 BKN007 08/07
                        Q1007 NOSIG=
201302140550 METAR COR EGLL 140550Z 19014KT 6000 -RA FEW005 BKN007 08/07
                        Q1007 TEMPO 4000 RA=
201302140520 METAR COR EGLL 140520Z 19013G24KT 4200 -RA BR FEW003 SCT004
                        BKN006 07/07 Q1008 TEMPO RA=
201302140450 METAR COR EGLL 140450Z 18014KT 3200 -RADZ BR BKN002 BKN003
                        07/06 Q1008 TEMPO RA=
201302140420 METAR COR EGLL 140420Z 17012KT 2800 BR BKN002 BKN003 06/06
                        Q1009 NOSIG=
201302140350 METAR COR EGLL 140350Z 17011KT 4300 -RADZ BKN003 BKN004 06/05
                        Q1010 NOSIG=
201302140320 METAR COR EGLL 140320Z 17013KT 5000 BR SCT004 BKN006 06/04
                        Q1011 BECMG 4000 RADZ=
201302140250 METAR COR EGLL 140250Z 17013KT 6000 SCT005 BKN007 05/04 Q1011
                        BECMG 4000 -RADZ=
201302140220 METAR EGLL 140220Z AUTO 18012KT 9999 BKN008/// 05/04 Q1012=
201302140150 METAR EGLL 140150Z AUTO 18014KT 9999 OVC007/// 05/04 Q1013=
201302140120 METAR EGLL 140120Z AUTO 19014KT 9999 BKN008/// 05/04 Q1014=
201302140050 METAR COR EGLL 140050Z 18013KT 9000 -RA FEW007 BKN008 05/04
                        Q1014 BECMG 4000 -RADZ=
201302140020 METAR COR EGLL 140020Z 18012KT 7000 FEW006 BKN007 05/03 Q1015
                        BECMG 4000 -RADZ=
201302132350 METAR COR EGLL 132350Z 18011KT 6000 SCT006 BKN007 05/03 Q1015
                        BECMG 4000 RADZ=
201302132320 METAR COR EGLL 132320Z 18012KT 5000 HZ SCT006 BKN007 04/03
                        Q1016 BECMG 4000 -RADZ=
201302132250 METAR COR EGLL 132250Z 18009KT 3500 -DZ HZ SCT006 BKN007
                        04/02 Q1016 NOSIG=
201302132220 METAR COR EGLL 132220Z 17009KT 3500 -DZ HZ FEW006 BKN008
                        03/02 Q1017 NOSIG=
201302132150 METAR COR EGLL 132150Z 16009KT 2800 DZ FEW007 OVC009 03/02
                        Q1017 NOSIG=
201302132120 METAR COR EGLL 132120Z 16007KT 3400 -RA FEW008 OVC010 02/01
                        Q1018 BECMG BKN008=
201302132050 METAR COR EGLL 132050Z 16008KT 3900 -RA OVC011 02/00 Q1018
                        BECMG BKN008=
201302132020 METAR COR EGLL 132020Z 16010KT 4400 BR BKN012 02/00 Q1018
                        BECMG BKN008=
201302131950 METAR COR EGLL 131950Z 16010KT 2900 -DZ BKN011 01/M00 Q1019
                        NOSIG=
201302131920 METAR COR EGLL 131920Z 16010KT 4500 BR SCT014 BKN029 02/M01
                        Q1019 TEMPO BKN012=
201302131850 METAR COR EGLL 131850Z 16011KT 6000 SCT031 BKN036 01/M01
                        Q1020 TEMPO 4000 -RADZ BKN012=
201302131820 METAR COR EGLL 131820Z 16010KT 6000 FEW036 BKN041 01/M01
                        Q1020 TEMPO 3500 -DZ BKN010=
201302131750 METAR COR EGLL 131750Z 15008KT 5000 -RA FEW015 SCT049 01/M01
                        Q1020 TEMPO 3500 -DZ BKN008=
201302131720 METAR COR EGLL 131720Z 16010KT 3500 -RASN FEW007 01/M01 Q1020
                        TEMPO -SN BKN009=
201302131650 METAR COR EGLL 131650Z 17012KT 2000 -SN SCT018 BKN037 02/M02
                        Q1021 TEMPO 1400 SN=
201302131620 METAR COR EGLL 131620Z 16010KT 6000 SCT036 BKN044 02/M03
                        Q1021 BECMG 4000 -RASN BKN014=
201302131550 METAR COR EGLL 131550Z 17012KT 6000 FEW022 SCT040 02/M03
                        Q1021 BECMG 4000 -RASN BKN014=
201302131520 METAR COR EGLL 131520Z 17012KT 6000 BKN022 02/M03 Q1021 TEMPO
                        4000 -RASN BKN014=
201302131450 METAR COR EGLL 131450Z 16011KT 6000 BKN022 02/M02 Q1021 TEMPO
                        4500 -RASN BKN014=
201302131420 METAR COR EGLL 131420Z 17012KT 6000 BKN024 03/M03 Q1021 TEMPO
                        4500 -RASN BKN014=
201302131350 METAR COR EGLL 131350Z 16011KT 6000 FEW026 BKN031 03/M02
                        Q1021 NOSIG=
201302131320 METAR COR EGLL 131320Z 16010KT 8000 BKN032 03/M03 Q1022 NOSIG=
201302131250 METAR COR EGLL 131250Z 16011KT 8000 BKN033 03/M03 Q1022 NOSIG=
201302131220 METAR COR EGLL 131220Z 15010KT 7000 BKN033 03/M03 Q1022 NOSIG=
201302131150 METAR EGLL 131150Z 15011KT 7000 BKN033 02/M04 Q1023=
201302131120 METAR COR EGLL 131120Z 15012KT 6000 BKN035 02/M04 Q1023 NOSIG=
201302131050 METAR COR EGLL 131050Z 15011KT 8000 OVC034 02/M04 Q1023 NOSIG=
201302131020 METAR COR EGLL 131020Z 14013KT 9999 BKN034 02/M05 Q1023 NOSIG=
201302130950 METAR COR EGLL 130950Z 14009KT 9999 BKN035 02/M05 Q1022 NOSIG=
201302130920 METAR COR EGLL 130920Z 14009KT 8000 SCT032 BKN034 02/M04
                        Q1023 NOSIG=
201302130850 METAR COR EGLL 130850Z 14007KT 8000 BKN038 01/M03 Q1023 NOSIG=
201302130820 METAR COR EGLL 130820Z 14007KT 7000 BKN039 01/M03 Q1023 NOSIG=
201302130750 METAR COR EGLL 130750Z 13007KT 7000 BKN039 01/M02 Q1022 NOSIG=
201302130720 METAR COR EGLL 130720Z 13007KT 7000 BKN038 01/M02 Q1022 NOSIG=
201302130650 METAR COR EGLL 130650Z 14006KT 8000 BKN038 01/M03 Q1022 NOSIG=
201302130620 METAR COR EGLL 130620Z 14005KT 100V170 8000 BKN037 01/M03
                        Q1022 NOSIG=
201302130550 METAR COR EGLL 130550Z 10005KT 8000 BKN037 01/M03 Q1021 NOSIG=
201302130520 METAR COR EGLL 130520Z 10008KT 8000 BKN037 01/M03 Q1021 NOSIG=
201302130450 METAR COR EGLL 130450Z 09005KT 8000 BKN035 01/M02 Q1022 NOSIG=
201302130420 METAR COR EGLL 130420Z 08004KT 9000 BKN034 01/M03 Q1021 NOSIG=
201302130350 METAR COR EGLL 130350Z 10004KT 8000 BKN035 01/M03 Q1021 NOSIG=
201302130320 METAR COR EGLL 130320Z 08003KT 8000 BKN033 01/M03 Q1021 NOSIG=
201302130250 METAR COR EGLL 130250Z 06003KT 8000 BKN033 01/M03 Q1021 NOSIG=
201302130220 METAR EGLL 130220Z AUTO 07004KT 8000 OVC033/// 01/M03 Q1021=
201302130150 METAR EGLL 130150Z AUTO 35004KT 8000 OVC033/// 01/M03 Q1021=
201302130120 METAR EGLL 130120Z AUTO VRB03KT 9999 OVC033/// 01/M03 Q1021=
201302130050 METAR COR EGLL 130050Z VRB02KT 9000 BKN033 01/M03 Q1021 NOSIG=
201302130020 METAR COR EGLL 130020Z 06003KT 8000 BKN033 01/M03 Q1021 NOSIG=
201302122350 METAR COR EGLL 122350Z VRB03KT 8000 SCT031 BKN036 01/M03
                        Q1021 NOSIG=
201302122320 METAR COR EGLL 122320Z 04004KT 8000 FEW027 BKN031 01/M03
                        Q1020 NOSIG=
201302122250 METAR COR EGLL 122250Z 04004KT 8000 BKN032 01/M03 Q1020 NOSIG=
201302122220 METAR COR EGLL 122220Z 05003KT 9000 BKN028 01/M03 Q1020 NOSIG=
201302122150 METAR COR EGLL 122150Z 04004KT 9000 BKN030 01/M03 Q1020 NOSIG=
201302122120 METAR COR EGLL 122120Z 04004KT 9000 BKN030 01/M03 Q1020 NOSIG=
201302122050 METAR COR EGLL 122050Z VRB03KT 9000 BKN030 01/M03 Q1020 NOSIG=
201302122020 METAR COR EGLL 122020Z 06004KT 010V090 9999 BKN030 01/M03
                        Q1019 NOSIG=
201302121950 METAR COR EGLL 121950Z 06005KT 020V090 9999 BKN030 01/M04
                        Q1019 NOSIG=
201302121920 METAR COR EGLL 121920Z 06005KT 9999 BKN030 02/M04 Q1019 NOSIG=
201302121850 METAR COR EGLL 121850Z 05005KT 8000 BKN030 02/M03 Q1019 NOSIG=
201302121820 METAR COR EGLL 121820Z 04005KT 8000 OVC029 02/M02 Q1019 NOSIG=
201302121750 METAR COR EGLL 121750Z 04005KT 8000 OVC029 02/M02 Q1018 NOSIG=
201302121720 METAR COR EGLL 121720Z 06007KT 8000 OVC030 02/M02 Q1018 NOSIG=
201302121650 METAR COR EGLL 121650Z 05006KT 8000 OVC030 02/M02 Q1018 NOSIG=
201302121620 METAR COR EGLL 121620Z 04005KT 010V080 8000 FEW021 BKN029
                        02/M02 Q1018 NOSIG=
201302121550 METAR COR EGLL 121550Z 04005KT 360V080 8000 BKN025 02/M02
                        Q1017 NOSIG=
201302121520 METAR COR EGLL 121520Z 04005KT 360V080 8000 OVC025 02/M02
                        Q1017 NOSIG=
201302121450 METAR COR EGLL 121450Z 07006KT 8000 BKN026 02/M02 Q1017 NOSIG=
201302121420 METAR COR EGLL 121420Z 06006KT 020V080 7000 BKN024 02/M02
                        Q1016 NOSIG=
201302121350 METAR COR EGLL 121350Z 06006KT 020V090 7000 OVC021 02/M02
                        Q1016 NOSIG=
201302121320 METAR COR EGLL 121320Z 05006KT 010V080 7000 BKN021 02/M02
                        Q1017 NOSIG=
201302121250 METAR COR EGLL 121250Z 06007KT 7000 FEW020 BKN025 02/M02
                        Q1016 NOSIG=
201302121220 METAR COR EGLL 121220Z 06009KT 7000 BKN022 02/M02 Q1016 NOSIG=
201302121150 METAR COR EGLL 121150Z 04006KT 010V080 7000 FEW020 OVC026
                        02/M02 Q1016 NOSIG=
201302121120 METAR COR EGLL 121120Z 04006KT 010V080 7000 FEW020 BKN024
                        02/M02 Q1016 NOSIG=
201302121050 METAR EGLL 121050Z 05006KT 010V090 7000 OVC028 02/M02 Q1015=
201302121020 METAR COR EGLL 121020Z 05006KT 010V080 7000 OVC027 02/M02
                        Q1015 NOSIG=
201302120950 METAR COR EGLL 120950Z 02005KT 350V050 7000 OVC028 01/M02
                        Q1015 NOSIG=
201302120920 METAR EGLL 120920Z 01004KT 330V050 7000 OVC027 01/M02 Q1015=
201302120850 METAR COR EGLL 120850Z 01004KT 340V050 7000 OVC029 01/M02
                        Q1015 NOSIG=
201302120820 METAR COR EGLL 120820Z 03005KT 360V060 7000 BKN029 01/M02
                        Q1014 NOSIG=
201302120750 METAR COR EGLL 120750Z 04006KT 360V070 7000 BKN029 01/M02
                        Q1014 NOSIG=
201302120720 METAR COR EGLL 120720Z 04006KT 010V070 7000 BKN027 01/M02
                        Q1013 NOSIG=
201302120650 METAR COR EGLL 120650Z 05006KT 9999 SCT026 BKN037 01/M02
                        Q1013 NOSIG=
201302120620 METAR COR EGLL 120620Z 05006KT 8000 BKN040 01/M02 Q1012 NOSIG=
201302120550 METAR COR EGLL 120550Z 05005KT 7000 BKN033 01/M02 Q1012 NOSIG=
201302120520 METAR COR EGLL 120520Z 05007KT 7000 BKN036 01/M02 Q1011 NOSIG=
201302120450 METAR COR EGLL 120450Z 04006KT 7000 BKN027 OVC040 01/M01
                        Q1011 NOSIG=
201302120420 METAR COR EGLL 120420Z 04006KT 360V080 7000 BKN026 BKN030
                        01/M01 Q1011 NOSIG=
201302120350 METAR EGLL 120350Z AUTO 05005KT 010V080 6000 -SN SCT031///
                        SCT037/// OVC047/// 01/M01 Q1011=
201302120320 METAR EGLL 120320Z AUTO 04005KT 010V070 5000 -SN SCT026///
                        BKN047/// 01/M01 Q1010=
201302120250 METAR EGLL 120250Z AUTO 03005KT 340V060 5000 FEW010/// SCT013///
                        BKN021/// 01/M00 Q1010=
201302120220 METAR COR EGLL 120220Z 02005KT 350V050 6000 BKN012 BKN021
                        01/M00 Q1010 BECMG FEW012 BKN024=
201302120150 METAR COR EGLL 120150Z 04006KT 010V080 6000 BKN010 01/M00
                        Q1010 BECMG BKN015=
201302120120 METAR COR EGLL 120120Z 04006KT 350V070 5000 HZ BKN007 BKN016
                        01/00 Q1009 BECMG BKN016=
201302120050 METAR COR EGLL 120050Z 04006KT 010V080 4000 HZ BKN007 01/00
                        Q1009 TEMPO 6000=
201302120020 METAR COR EGLL 120020Z 05007KT 4500 HZ BKN007 01/00 Q1009
                        TEMPO 5000=
201302112350 METAR COR EGLL 112350Z 04006KT 350V070 4800 HZ BKN007 01/00
                        Q1008 TEMPO 6000=
201302112320 METAR COR EGLL 112320Z 02006KT 350V060 4800 HZ OVC007 01/00
                        Q1008 TEMPO 6000=
201302112250 METAR COR EGLL 112250Z 03006KT 350V070 4400 HZ OVC006 01/00
                        Q1008 TEMPO 6000=
201302112220 METAR COR EGLL 112220Z 03005KT 350V070 3600 BR BKN006 01/00
                        Q1007 TEMPO 6000=
201302112150 METAR COR EGLL 112150Z 02006KT 3800 BR SCT006 BKN008 01/00
                        Q1007 NOSIG=
201302112120 METAR COR EGLL 112120Z 01005KT 330V050 4200 HZ FEW006 BKN008
                        01/00 Q1006 NOSIG=
201302112050 METAR COR EGLL 112050Z 02005KT 340V050 4400 HZ BKN008 01/00
                        Q1006 TEMPO 5000=
201302112020 METAR COR EGLL 112020Z 02005KT 340V050 5000 HZ BKN008 01/M00
                        Q1006 TEMPO 4000=
201302111950 METAR COR EGLL 111950Z 03004KT 340V060 5000 HZ BKN009 01/00
                        Q1005 TEMPO 4000=
201302111920 METAR COR EGLL 111920Z 03006KT 360V070 5000 HZ FEW008 BKN010
                        01/M00 Q1005 TEMPO 4000 BKN008=
201302111850 METAR COR EGLL 111850Z 05006KT 5000 HZ FEW008 BKN009 01/M00
                        Q1005 TEMPO 4000 -DZ=
201302111820 METAR COR EGLL 111820Z 03006KT 350V080 5000 HZ FEW008 BKN009
                        01/00 Q1004 TEMPO 4000 -DZ=
201302111750 METAR COR EGLL 111750Z 03006KT 360V070 5000 BR FEW008 BKN009
                        01/M00 Q1004 TEMPO 4000 -DZ=
201302111720 METAR COR EGLL 111720Z 03007KT 350V070 6000 -RA SCT008 OVC010
                        01/00 Q1003 TEMPO 4000 -DZ BR BKN008=
201302111650 METAR COR EGLL 111650Z 02006KT 340V050 4100 -RASN SCT006
                        BKN012 01/00 Q1003 TEMPO BKN009=
201302111620 METAR COR EGLL 111620Z 03006KT 4100 -DZRA FEW005 SCT007 BKN012
                        01/00 Q1002 TEMPO 6000 NSW BKN009=
201302111550 METAR COR EGLL 111550Z 02005KT 340V050 5000 -RA SCT006 SCT008
                        OVC010 02/00 Q1002 TEMPO 4000 -RA
                        BKN009=
201302111520 METAR COR EGLL 111520Z 03007KT 5000 -RA FEW005 BKN007 02/00
                        Q1002 TEMPO 4000 -RA=
201302111450 METAR COR EGLL 111450Z 04007KT 010V080 6000 -RA SCT008 BKN011
                        02/00 Q1001 TEMPO BKN008=
201302111420 METAR COR EGLL 111420Z 03007KT 350V070 7000 SCT007 SCT009
                        BKN012 02/00 Q1001 NOSIG=
201302111350 METAR COR EGLL 111350Z 03007KT 350V070 8000 SCT007 BKN009
                        02/01 Q1001 NOSIG=
201302111320 METAR COR EGLL 111320Z 04007KT 8000 -RASN FEW004 BKN007 02/01
                        Q1000 TEMPO 4000 -RASN=
201302111250 METAR COR EGLL 111250Z 04007KT 360V070 3200 SN FEW003 BKN004
                        02/01 Q1000 TEMPO 6000 NSW BKN006=
201302111220 METAR COR EGLL 111220Z 04007KT 360V070 4300 -RASN BKN004
                        01/01 Q1000 TEMPO 5000 -RASN BKN006=
201302111150 METAR COR EGLL 111150Z 05007KT 4000 -SN SCT006 BKN008 02/00
                        Q0999 TEMPO 6000=
201302111120 METAR COR EGLL 111120Z 04006KT 360V070 6000 -SN SCT006 BKN008
                        01/00 Q0999 TEMPO 4000=
201302111050 METAR COR EGLL 111050Z 04005KT 360V080 3500 -SN OVC005 01/00
                        Q0998 RESN TEMPO 5000 -RASN BKN010=
201302111020 METAR COR EGLL 111020Z 05005KT 010V080 5000 -RASN SCT005
                        OVC007 01/00 Q0998 TEMPO 4000 -RASN=
201302110950 METAR COR EGLL 110950Z 05005KT 020V080 4500 -RASN SCT005
                        BKN008 01/00 Q0998 TEMPO 5000 -RASN
                        BKN010=
201302110920 METAR COR EGLL 110920Z 05004KT 020V080 3500 -SN FEW004 SCT006
                        BKN008 01/00 Q0997 BECMG 5000 -RASN
                        BKN010=
201302110850 METAR COR EGLL 110850Z 05005KT 010V080 3500 -SN SCT006 BKN008
                        01/00 Q0997 BECMG 5000 -RASN BKN010=
201302110820 METAR COR EGLL 110820Z 06006KT 5000 -RASN SCT006 BKN008 01/00
                        Q0997 TEMPO 4000 -SN=
201302110750 METAR COR EGLL 110750Z 06006KT 6000 -RASN SCT006 BKN008 01/00
                        Q0996 TEMPO 4000=
201302110720 METAR COR EGLL 110720Z 06006KT 5000 -RASN SCT008 BKN009 01/00
                        Q0996 TEMPO 4000=
201302110650 METAR COR EGLL 110650Z 06007KT 8000 BKN010 BKN037 01/00 Q0995
                        TEMPO BKN008=
201302110620 METAR COR EGLL 110620Z 06007KT 8000 BKN008 OVC032 01/00 Q0995
                        TEMPO 4000 -SN=
201302110550 METAR COR EGLL 110550Z 06008KT 5000 BR BKN006 BKN030 01/00
                        Q0994 TEMPO 4000 -RASN=
201302110520 METAR COR EGLL 110520Z 06007KT 2500 -SN BKN003 01/00 Q0994
                        TEMPO 5000 BKN007=
201302110450 METAR COR EGLL 110450Z 06006KT 2500 -SN OVC004 01/00 Q0994
                        TEMPO 5000=
201302110420 METAR COR EGLL 110420Z 07006KT 4000 -SN OVC005 01/00 Q0994
                        TEMPO 7000=
201302110350 METAR EGLL 110350Z AUTO 07007KT 4800 -SN BKN004/// 01/00
                        Q0993=
201302110320 METAR EGLL 110320Z AUTO 08008KT 3600 -SN OVC004/// 00/M00
                        Q0993=
201302110250 METAR EGLL 110250Z AUTO 08008KT 3800 -SN OVC004/// 01/00
                        Q0993=
201302110220 METAR COR EGLL 110220Z 08009KT 3000 -SN OVC004 01/00 Q0993
                        TEMPO 5000 FEW004 BKN008=
201302110150 METAR COR EGLL 110150Z 08008KT 2000 -SN OVC003 01/00 Q0992
                        TEMPO 5000 FEW003 BKN008=
201302110120 METAR COR EGLL 110120Z 08008KT 3000 -SN BKN004 OVC012 01/00
                        Q0992 TEMPO 5000 FEW004 BKN012=
201302110050 METAR COR EGLL 110050Z 08009KT 3000 -SN BKN003 OVC011 01/00
                        Q0992 TEMPO 5000 FEW003 BKN012=
201302110020 METAR COR EGLL 110020Z 08009KT 2200 -SN SCT003 SCT006 OVC010
                        01/M00 Q0992 TEMPO 5000 BKN004=
201302102350 METAR COR EGLL 102350Z 08008KT 1800 -SN BKN003 BKN010 01/M00
                        Q0992 TEMPO 5000 BKN007=
201302102320 METAR COR EGLL 102320Z 09009KT 1800 -SN BKN004 BKN009 01/00
                        Q0992 TEMPO 5000 BKN008=
201302102250 METAR COR EGLL 102250Z 09011KT 5000 -RASN SCT005 OVC009 01/00
                        Q0991 TEMPO 4000 RASN=
201302102220 METAR COR EGLL 102220Z 09011KT 6000 -RASN SCT005 BKN010 01/01
                        Q0991 TEMPO 4000 RASN BKN007=
201302102150 METAR COR EGLL 102150Z 09010KT 6000 -RASN SCT007 BKN010 01/01
                        Q0991 TEMPO 4000 SNRA BKN007=
201302102120 METAR COR EGLL 102120Z 09010KT 5000 -RASN SCT007 BKN011 01/01
                        Q0991 RESN TEMPO 4000 SNRA BKN007=
201302102050 METAR COR EGLL 102050Z 09010KT 4000 SN SCT004 BKN011 01/00
                        Q0991 TEMPO 5000 -SNRA BKN008=
201302102020 METAR COR EGLL 102020Z 09010KT 2500 -SNRA FEW004 SCT005 BKN008
                        01/00 Q0991 TEMPO 5000=
201302101950 METAR COR EGLL 101950Z 09011KT 6000 -RASN FEW004 SCT006 BKN008
                        01/01 Q0991 TEMPO 4000 RASN=
201302101920 METAR COR EGLL 101920Z 10011KT 7000 -RASN FEW006 BKN010 02/01
                        Q0991 TEMPO 4000 RASN BKN008=
201302101850 METAR COR EGLL 101850Z 10011KT 7000 -RASN FEW008 BKN011 02/01
                        Q0992 TEMPO 4000 RASN BKN008=
201302101820 METAR EGLL 101820Z 10012KT 7000 -RASN BKN008 02/01 Q0992
                        RERA RESN=
201302101750 METAR COR EGLL 101750Z 11012KT 7000 RASN BKN008 02/01 Q0992
                        TEMPO 4000=
201302101720 METAR COR EGLL 101720Z 11013KT 8000 -RA BKN008 02/01 Q0992
                        TEMPO 4000 RASN=
201302101650 METAR EGLL 101650Z 11013KT 7000 RA FEW009 BKN010 03/01 Q0992=
201302101620 METAR COR EGLL 101620Z 12014KT 8000 RA FEW009 BKN011 03/02
                        Q0993 TEMPO 4000 RASN BKN008=
201302101550 METAR COR EGLL 101550Z 12012KT 8000 RA FEW008 BKN009 03/02
                        Q0993 TEMPO 4000 RASN=
201302101520 METAR COR EGLL 101520Z 12014KT 9000 -RA BKN009 03/02 Q0993
                        TEMPO 4000 RA=
201302101450 METAR COR EGLL 101450Z 12013KT 9999 -RA FEW010 BKN011 04/02
                        Q0994 TEMPO BKN009=
201302101420 METAR COR EGLL 101420Z 12015KT 9999 -RA FEW009 BKN012 04/02
                        Q0994 TEMPO 4000 BKN008=
201302101350 METAR COR EGLL 101350Z 12014KT 9999 -RA FEW009 OVC010 04/03
                        Q0995 TEMPO 4000 RA BKN008=
201302101320 METAR COR EGLL 101320Z 12014KT 9999 -RA FEW008 BKN009 04/03
                        Q0996 RERA TEMPO 4000=
201302101250 METAR COR EGLL 101250Z 12011KT 9999 RA BKN009 BKN014 04/03
                        Q0996 TEMPO 4000=
201302101220 METAR COR EGLL 101220Z 13013KT 9999 RA BKN010 05/03 Q0997
                        TEMPO 4000 RA BKN008=
201302101150 METAR COR EGLL 101150Z 13012KT 9999 -RA SCT008 BKN011 05/03
                        Q0998 TEMPO 4000 RA BKN008=
201302101120 METAR COR EGLL 101120Z 13012KT 9999 -RA FEW008 BKN011 05/04
                        Q0998 TEMPO 4000 RA BKN008=
201302101050 METAR COR EGLL 101050Z 14012KT 9999 -RA SCT009 OVC010 05/04
                        Q0999 TEMPO 4000 RA BKN008=
201302101020 METAR COR EGLL 101020Z 14013KT 9999 -RA FEW008 OVC010 05/04
                        Q0999 TEMPO RA BKN008=
201302100950 METAR COR EGLL 100950Z 14012KT 9999 -RA FEW009 BKN012 05/04
                        Q1000 TEMPO 4000 RADZ BKN008=
201302100920 METAR COR EGLL 100920Z 13011KT 9999 -RA FEW008 BKN011 05/04
                        Q1000 TEMPO 4000 RADZ BKN008=
201302100850 METAR COR EGLL 100850Z 13010KT 8000 -RADZ FEW008 BKN010 05/04
                        Q1001 TEMPO 4000 RADZ BKN008=
201302100820 METAR COR EGLL 100820Z 14009KT 8000 -RADZ FEW006 BKN008 05/04
                        Q1002 TEMPO 4000 RADZ=
201302100750 METAR COR EGLL 100750Z 13008KT 8000 -RADZ SCT006 BKN009 05/04
                        Q1002 TEMPO 4000 RADZ=
201302100720 METAR COR EGLL 100720Z 13008KT 8000 -RA FEW005 SCT010 BKN024
                        05/04 Q1003 TEMPO 4000 -RA BKN008=
201302100650 METAR COR EGLL 100650Z 13007KT 9000 -RA SCT004 BKN009 05/04
                        Q1003 TEMPO 4000 RADZ=
201302100620 METAR COR EGLL 100620Z 14005KT 6000 -RADZ SCT004 BKN008 05/04
                        Q1004 NOSIG=
201302100550 METAR COR EGLL 100550Z 14006KT 5000 -RA FEW004 SCT014 BKN024
                        04/04 Q1004 TEMPO 4000 RADZ BKN008=
201302100520 METAR COR EGLL 100520Z 15007KT 6000 -RA FEW004 SCT022 BKN029
                        04/04 Q1005 TEMPO BKN008=
201302100450 METAR COR EGLL 100450Z 15006KT 5000 -RADZ FEW022 BKN027 04/03
                        Q1005 TEMPO BKN008=
201302100420 METAR COR EGLL 100420Z 14006KT 3600 -RADZ FEW002 BKN028 04/03
                        Q1006 TEMPO BKN008=
201302100350 METAR COR EGLL 100350Z 14005KT 3000 -RADZ FEW002 SCT003 BKN027
                        04/03 Q1007 REDZ TEMPO BKN008=
201302100320 METAR COR EGLL 100320Z 15004KT 2600 DZ FEW002 BKN003 04/03
                        Q1007 TEMPO -DZ=
201302100250 METAR COR EGLL 100250Z 15006KT 2400 DZ FEW002 BKN003 04/03
                        Q1008 TEMPO -DZ=
201302100220 METAR EGLL 100220Z AUTO 15005KT 2200 -DZ BKN003/// 04/03
                        Q1009=
201302100150 METAR EGLL 100150Z AUTO 13004KT 4000 HZ OVC003/// 03/03 Q1009=
201302100120 METAR EGLL 100120Z AUTO 14004KT 3800 HZ OVC004/// 03/02 Q1010=
201302100050 METAR COR EGLL 100050Z 13004KT 2700 DZ FEW002 SCT004 BKN006
                        03/02 Q1010 NOSIG=
201302100020 METAR COR EGLL 100020Z 13005KT 2000 DZ FEW003 SCT004 BKN005
                        03/02 Q1011 NOSIG=
201302092350 METAR COR EGLL 092350Z 12004KT 2600 DZ FEW004 BKN005 03/02
                        Q1011 TEMPO BKN004=
201302092320 METAR COR EGLL 092320Z 13005KT 6000 -DZ SCT006 BKN009 03/02
                        Q1012 NOSIG=
201302092250 METAR COR EGLL 092250Z 14005KT 6000 SCT006 BKN011 03/02 Q1012
                        NOSIG=
201302092220 METAR COR EGLL 092220Z 14005KT 7000 FEW005 SCT008 OVC015
                        03/02 Q1013 BECMG BKN008=
201302092150 METAR COR EGLL 092150Z 15006KT 120V180 8000 SCT006 BKN010
                        OVC017 03/02 Q1013 TEMPO BKN006=
201302092120 METAR COR EGLL 092120Z 14005KT 110V180 7000 BKN006 OVC017
                        03/02 Q1014 NOSIG=
201302092050 METAR COR EGLL 092050Z 15006KT 7000 DZ FEW006 BKN009 03/02
                        Q1014 NOSIG=
201302092020 METAR COR EGLL 092020Z 16005KT 110V180 9000 FEW005 BKN012
                        03/02 Q1015 TEMPO BKN008=
201302091950 METAR COR EGLL 091950Z 15006KT 110V210 8000 FEW005 OVC008
                        03/02 Q1015 NOSIG=
201302091920 METAR COR EGLL 091920Z 16005KT 120V190 7000 BKN009 BKN018
                        03/02 Q1015 NOSIG=
201302091850 METAR COR EGLL 091850Z 17006KT 120V260 5000 -DZ BKN008 03/02
                        Q1016 NOSIG=
201302091820 METAR COR EGLL 091820Z 14006KT 110V190 8000 FEW008 OVC010
                        03/02 Q1016 TEMPO BKN008=
201302091750 METAR COR EGLL 091750Z 15007KT 100V180 9000 SCT009 BKN013
                        03/02 Q1016 TEMPO BKN008=
201302091720 METAR COR EGLL 091720Z 14006KT 120V200 9000 SCT007 BKN012
                        03/02 Q1017 TEMPO BKN007=
201302091650 METAR COR EGLL 091650Z 14006KT 110V190 9999 -DZ SCT007 BKN014
                        03/02 Q1017 TEMPO BKN008=
201302091620 METAR COR EGLL 091620Z 14007KT 100V170 9999 -DZ BKN007 BKN013
                        03/02 Q1017 TEMPO FEW007 BKN013=
201302091550 METAR COR EGLL 091550Z 18005KT 120V210 9999 -RA FEW008 SCT009
                        BKN012 04/02 Q1017 TEMPO BKN008=
201302091520 METAR COR EGLL 091520Z 18004KT 160V270 9999 SCT008 BKN011
                        03/02 Q1017 TEMPO BKN008=
201302091450 METAR COR EGLL 091450Z 21006KT 170V250 9999 SCT007 SCT016
                        03/02 Q1018 TEMPO BKN012=
201302091420 METAR COR EGLL 091420Z 21006KT 160V250 9999 BKN007 04/02
                        Q1018 TEMPO BKN012=
201302091350 METAR COR EGLL 091350Z 21006KT 170V250 9999 SCT008 BKN009
                        03/02 Q1019 TEMPO BKN012=
201302091320 METAR COR EGLL 091320Z 21006KT 140V270 9999 FEW007 SCT009
                        BKN011 03/01 Q1019 TEMPO BKN008=
201302091250 METAR COR EGLL 091250Z 21006KT 150V270 9999 FEW007 SCT009
                        BKN010 03/02 Q1019 TEMPO BKN008=
201302091220 METAR COR EGLL 091220Z 24005KT 190V300 9999 -RA FEW007 BKN009
                        03/02 Q1020 TEMPO BKN012=
201302091150 METAR COR EGLL 091150Z 26008KT 9999 -RA FEW007 SCT008 BKN009
                        03/02 Q1020 TEMPO BKN012=
201302091120 METAR COR EGLL 091120Z 26007KT 220V290 9999 -RA FEW006 BKN009
                        03/01 Q1020 TEMPO FEW009 BKN012=
201302091050 METAR COR EGLL 091050Z 26007KT 9999 -RA FEW006 BKN008 03/01
                        Q1020 TEMPO FEW008 BKN012=
201302091020 METAR COR EGLL 091020Z 28005KT 9999 -RA FEW006 SCT009 BKN013
                        03/02 Q1021 TEMPO BKN008=
201302090950 METAR COR EGLL 090950Z 29004KT 260V330 9999 -RA FEW006 SCT008
                        BKN016 03/01 Q1021 BECMG BKN012=
201302090920 METAR COR EGLL 090920Z 29005KT 9000 -RA SCT007 SCT011 03/01
                        Q1021 BECMG BKN012=
201302090850 METAR COR EGLL 090850Z 29005KT 9000 -RA FEW008 SCT020 BKN032
                        03/01 Q1021 NOSIG=
201302090820 METAR COR EGLL 090820Z 29005KT 9000 -RA FEW010 SCT030 03/01
                        Q1021 NOSIG=
201302090750 METAR COR EGLL 090750Z 28004KT 9000 FEW010 SCT030 02/01 Q1020
                        NOSIG=
201302090720 METAR COR EGLL 090720Z 27006KT 9999 FEW014 SCT025 02/00 Q1020
                        NOSIG=
201302090650 METAR COR EGLL 090650Z 27005KT 9999 -RA FEW014 SCT025 03/00
                        Q1020 NOSIG=
201302090620 METAR COR EGLL 090620Z 27004KT 230V290 9999 FEW025 02/00
                        Q1020 NOSIG=
201302090550 METAR COR EGLL 090550Z 28005KT 9999 FEW023 02/M00 Q1021 NOSIG=
201302090520 METAR COR EGLL 090520Z 26002KT 9999 FEW022 02/M00 Q1021 NOSIG=
201302090450 METAR EGLL 090450Z 00000KT CAVOK 02/M01 Q1021=
201302090420 METAR COR EGLL 090420Z 00000KT CAVOK 02/M01 Q1021 NOSIG=
201302090350 METAR COR EGLL 090350Z 00000KT CAVOK 02/M01 Q1021 NOSIG=
201302090320 METAR COR EGLL 090320Z 00000KT 9999 FEW014 02/M01 Q1021 NOSIG=
201302090250 METAR COR EGLL 090250Z VRB02KT 9999 FEW015 02/M01 Q1021 NOSIG=
201302090220 METAR EGLL 090220Z AUTO 35002KT 9999 SCT013/// 02/M01 Q1021=
201302090150 METAR EGLL 090150Z AUTO 02004KT 9999 NCD 02/M01 Q1021=
201302090120 METAR EGLL 090120Z AUTO VRB03KT 9999 SCT014/// 02/M01 Q1021=
201302090050 METAR COR EGLL 090050Z 02004KT 340V060 9999 FEW016 03/M00
                        Q1021 NOSIG=
201302090020 METAR COR EGLL 090020Z 01007KT 340V040 9999 FEW016 03/M01
                        Q1021 NOSIG=
201302082350 METAR COR EGLL 082350Z 36008KT 330V030 9999 FEW017 03/M01
                        Q1021 NOSIG=
201302082320 METAR COR EGLL 082320Z 36009KT 330V030 CAVOK 03/M01 Q1021
                        NOSIG=
201302082250 METAR COR EGLL 082250Z 34007KT 310V020 9999 FEW037 04/M00
                        Q1021 NOSIG=
201302082220 METAR COR EGLL 082220Z 33009KT 300V360 9999 SCT037 04/M00
                        Q1021 NOSIG=
201302082150 METAR COR EGLL 082150Z 32006KT 9999 SCT040 05/M00 Q1021 NOSIG=
201302082120 METAR COR EGLL 082120Z 31008KT 9999 SCT042 04/00 Q1020 NOSIG=
201302082050 METAR COR EGLL 082050Z 31006KT 9999 FEW042 04/00 Q1020 NOSIG=
201302082020 METAR COR EGLL 082020Z 30007KT CAVOK 05/01 Q1020 NOSIG=
201302081950 METAR COR EGLL 081950Z 30007KT CAVOK 05/01 Q1020 NOSIG=
201302081920 METAR COR EGLL 081920Z 31007KT CAVOK 06/01 Q1020 NOSIG=
201302081850 METAR COR EGLL 081850Z 30006KT 9999 FEW032 06/02 Q1020 NOSIG=
201302081820 METAR COR EGLL 081820Z 29006KT 9999 FEW032 06/02 Q1020 NOSIG=
201302081750 METAR COR EGLL 081750Z 30005KT 9999 FEW044 05/01 Q1020 NOSIG=
201302081720 METAR COR EGLL 081720Z 30005KT 9999 FEW028 05/01 Q1020 NOSIG=
201302081650 METAR COR EGLL 081650Z 33005KT 9999 -SHRA FEW023 BKN030 05/01
                        Q1020 NOSIG=
201302081620 METAR COR EGLL 081620Z 31007KT 9999 SCT022 BKN029 05/01 Q1020
                        NOSIG=
201302081550 METAR COR EGLL 081550Z 32008KT 290V350 9999 FEW020 SCT023
                        05/01 Q1019 NOSIG=
201302081520 METAR COR EGLL 081520Z 31006KT 260V340 9999 FEW025 SCT034
                        05/00 Q1019 NOSIG=
201302081450 METAR COR EGLL 081450Z 32008KT 9999 SCT025 SCT030 05/M01
                        Q1020 NOSIG=
201302081420 METAR COR EGLL 081420Z 32008KT 290V360 9999 SCT027 SCT033
                        05/M01 Q1020 NOSIG=
201302081350 METAR COR EGLL 081350Z 32006KT 300V360 9999 SCT028 SCT034
                        05/M01 Q1020 NOSIG=
201302081320 METAR COR EGLL 081320Z 33007KT 290V010 9999 SCT034 SCT041
                        06/M01 Q1020 NOSIG=
201302081250 METAR COR EGLL 081250Z 34007KT 310V010 9999 SCT032 05/M02
                        Q1020 NOSIG=
201302081220 METAR COR EGLL 081220Z 34007KT 290V020 9999 FEW030 06/M01
                        Q1020 NOSIG=
201302081150 METAR EGLL 081150Z 33007KT 300V010 9999 FEW024 05/M01 Q1020=
201302081120 METAR COR EGLL 081120Z 32006KT 300V360 9999 FEW024 05/M01
                        Q1020 NOSIG=
201302081050 METAR COR EGLL 081050Z 33006KT 290V010 9999 FEW020 04/M01
                        Q1020 NOSIG=
201302081020 METAR COR EGLL 081020Z 33006KT 290V030 9999 FEW020 04/M01
                        Q1020 NOSIG=
201302080950 METAR COR EGLL 080950Z 32006KT CAVOK 03/M01 Q1020 NOSIG=
201302080920 METAR EGLL 080920Z 31005KT 8000 FEW048 02/M01 Q1020=
201302080850 METAR COR EGLL 080850Z 31005KT 8000 FEW048 01/M01 Q1020 NOSIG=
201302080820 METAR COR EGLL 080820Z 31004KT 6000 NSC 01/M01 Q1020 NOSIG=
201302080750 METAR COR EGLL 080750Z 31005KT 6000 NSC 01/M01 Q1019 TEMPO
                        4500=
201302080720 METAR COR EGLL 080720Z 31005KT 6000 NSC 01/M01 Q1019 TEMPO
                        4500=
201302080650 METAR COR EGLL 080650Z 31004KT 290V360 6000 NSC 01/M01 Q1019
                        TEMPO 4500=
201302080620 METAR COR EGLL 080620Z 31004KT 6000 NSC 01/M01 Q1019 NOSIG=
201302080550 METAR COR EGLL 080550Z 32004KT 5000 BR NSC 01/M01 Q1018 TEMPO
                        4500=
201302080520 METAR COR EGLL 080520Z 30005KT 5000 BR NSC 01/M01 Q1018 TEMPO
                        4500=
201302080450 METAR COR EGLL 080450Z 31004KT 6000 NSC 01/M01 Q1018 TEMPO
                        4500 BR=
201302080420 METAR COR EGLL 080420Z 30005KT 7000 NSC 01/M01 Q1018 NOSIG=
201302080350 METAR EGLL 080350Z AUTO 31005KT 7000 NCD 01/M01 Q1018=
201302080320 METAR EGLL 080320Z AUTO 30005KT 6000 NCD 01/M00 Q1018=
201302080250 METAR EGLL 080250Z AUTO 30005KT 6000 NCD 01/M00 Q1018=
201302080220 METAR COR EGLL 080220Z 31004KT 5000 HZ FEW027 SCT038 01/00
                        Q1018 NOSIG=
201302080150 METAR COR EGLL 080150Z 31002KT 6000 SCT039 01/M00 Q1018 NOSIG=
201302080120 METAR EGLL 080120Z VRB03KT 6000 FEW030 01/00 Q1018=
201302080050 METAR COR EGLL 080050Z 32003KT 7000 SCT010 SCT030 02/01 Q1017
                        NOSIG=
201302080020 METAR COR EGLL 080020Z 32003KT 7000 FEW010 02/00 Q1017 TEMPO
                        BKN010=
201302072350 METAR COR EGLL 072350Z 30004KT 8000 SCT041 02/01 Q1017 NOSIG=
201302072320 METAR COR EGLL 072320Z 32003KT CAVOK 02/01 Q1017 NOSIG=
201302072250 METAR COR EGLL 072250Z 35004KT 9999 FEW017 03/01 Q1016 NOSIG=
201302072220 METAR COR EGLL 072220Z VRB03KT 9999 SCT017 03/01 Q1016 NOSIG=
201302072150 METAR COR EGLL 072150Z VRB03KT 9999 SCT013 BKN022 03/01 Q1016
                        NOSIG=
201302072120 METAR COR EGLL 072120Z VRB03KT 9999 SCT008 BKN013 03/01 Q1016
                        BECMG SCT013 BKN018=
201302072050 METAR COR EGLL 072050Z 01004KT 320V060 9999 -SHRA BKN008
                        04/02 Q1016 BECMG SCT008 BKN013=
201302072020 METAR EGLL 072020Z AUTO 31005KT 9999 BKN009/// 04/02 Q1016=
201302071950 METAR COR EGLL 071950Z 31004KT 9999 BKN012 04/02 Q1016 BECMG
                        SCT015 BKN040=
201302071920 METAR COR EGLL 071920Z 29007KT 9999 -SHRA BKN014 04/02 Q1016
                        SCT016 BKN040=
201302071850 METAR COR EGLL 071850Z 28008KT 9999 BKN018 04/01 Q1016 NOSIG=
201302071820 METAR COR EGLL 071820Z 29007KT 9999 -SHRA FEW024 SCT032 04/01
                        Q1016 NOSIG=
201302071750 METAR COR EGLL 071750Z 30002KT 9999 -SHRA FEW019 BKN022 04/01
                        Q1016 NOSIG=
201302071720 METAR COR EGLL 071720Z 31004KT 9999 -SHRA FEW018 BKN047 04/01
                        Q1016 NOSIG=
201302071650 METAR COR EGLL 071650Z 29009KT 9999 FEW022 SCT035 BKN047
                        04/00 Q1016 NOSIG=
201302071620 METAR COR EGLL 071620Z 29006KT 9999 FEW026 04/M00 Q1016 NOSIG=
201302071550 METAR COR EGLL 071550Z 29008KT 9999 FEW021 SCT024 05/M00
                        Q1017 NOSIG=
201302071520 METAR EGLL 071520Z 29009KT 9999 FEW027 05/M00 Q1017=
201302071450 METAR COR EGLL 071450Z 29009KT 9999 SCT033 05/M01 Q1017 NOSIG=
201302071420 METAR EGLL 071420Z 30008KT 9999 FEW029 SCT036 05/M01 Q1017=
201302071350 METAR COR EGLL 071350Z 29010KT 9999 FEW030 SCT039 05/M01
                        Q1017 NOSIG=
201302071320 METAR COR EGLL 071320Z 30010KT 9999 FEW030 SCT034 05/M02
                        Q1018 NOSIG=
201302071250 METAR COR EGLL 071250Z 29008KT 9999 SCT032 05/M02 Q1018 NOSIG=
201302071220 METAR COR EGLL 071220Z 30009KT 260V340 9999 FEW032 06/M02
                        Q1018 NOSIG=
201302071150 METAR COR EGLL 071150Z 29009KT 270V340 9999 FEW024 05/M01
                        Q1019 NOSIG=
201302071120 METAR COR EGLL 071120Z 29009KT CAVOK 05/M01 Q1019 NOSIG=
201302071050 METAR COR EGLL 071050Z 28009KT 260V320 CAVOK 04/M01 Q1019
                        NOSIG=
201302071020 METAR COR EGLL 071020Z 28009KT CAVOK 03/M02 Q1020 NOSIG=
201302070950 METAR EGLL 070950Z AUTO 27011KT 9999 NCD 03/M02 Q1020=
201302070920 METAR COR EGLL 070920Z 29008KT CAVOK 02/M02 Q1020 NOSIG=
201302070850 METAR COR EGLL 070850Z 30008KT CAVOK 02/M02 Q1020 NOSIG=
201302070820 METAR COR EGLL 070820Z 29008KT CAVOK 01/M02 Q1020 NOSIG=
201302070750 METAR COR EGLL 070750Z 29006KT CAVOK 01/M02 Q1019 NOSIG=
201302070720 METAR COR EGLL 070720Z 29007KT CAVOK 01/M03 Q1019 NOSIG=
201302070650 METAR COR EGLL 070650Z 28006KT CAVOK 01/M03 Q1019 NOSIG=
201302070620 METAR COR EGLL 070620Z 28006KT CAVOK 01/M04 Q1019 NOSIG=
201302070550 METAR COR EGLL 070550Z 30006KT CAVOK 01/M04 Q1019 NOSIG=
201302070520 METAR COR EGLL 070520Z 31006KT 280V340 CAVOK 02/M04 Q1019
                        NOSIG=
201302070450 METAR COR EGLL 070450Z 30007KT CAVOK 01/M04 Q1019 NOSIG=
201302070420 METAR COR EGLL 070420Z 29006KT CAVOK 01/M04 Q1019 NOSIG=
201302070350 METAR COR EGLL 070350Z 31006KT CAVOK 01/M04 Q1019 NOSIG=
201302070320 METAR COR EGLL 070320Z 29007KT CAVOK 01/M04 Q1019 NOSIG=
201302070250 METAR COR EGLL 070250Z 29007KT CAVOK 02/M03 Q1019 NOSIG=
201302070220 METAR EGLL 070220Z AUTO 30007KT 9999 NCD 01/M03 Q1019=
201302070150 METAR EGLL 070150Z AUTO 30007KT 9999 NCD 01/M03 Q1019=
201302070120 METAR EGLL 070120Z AUTO 30006KT 9999 NCD 01/M03 Q1019=
201302070050 METAR COR EGLL 070050Z 30007KT CAVOK 02/M03 Q1018 NOSIG=
201302070020 METAR COR EGLL 070020Z 31008KT 280V340 CAVOK 02/M03 Q1018
                        NOSIG=
201302062350 METAR COR EGLL 062350Z 32007KT 290V350 CAVOK 02/M03 Q1018
                        NOSIG=
201302062320 METAR COR EGLL 062320Z 31007KT CAVOK 02/M03 Q1018 NOSIG=
201302062250 METAR COR EGLL 062250Z 30007KT 9999 FEW048 03/M03 Q1018 NOSIG=
201302062220 METAR COR EGLL 062220Z 30008KT 9999 FEW039 SCT044 03/M03
                        Q1018 NOSIG=
201302062150 METAR EGLL 062150Z 31007KT 9999 BKN040 03/M03 Q1017=
201302062120 METAR COR EGLL 062120Z 31007KT 280V340 9999 FEW041 04/M03
                        Q1017 NOSIG=
201302062050 METAR COR EGLL 062050Z 33008KT 300V030 9999 FEW043 04/M03
                        Q1016 NOSIG=
201302062020 METAR COR EGLL 062020Z 32007KT 270V360 9999 FEW041 04/M02
                        Q1016 NOSIG=
201302061950 METAR COR EGLL 061950Z 33009KT 9999 FEW038 04/M02 Q1016 NOSIG=
201302061920 METAR COR EGLL 061920Z 35011KT 310V020 9999 FEW038 05/M02
                        Q1016 NOSIG=
201302061850 METAR COR EGLL 061850Z 35011G23KT 9999 FEW037 05/M02 Q1015
                        NOSIG=
201302061820 METAR COR EGLL 061820Z 33012KT 9999 FEW034 SCT038 05/M02
                        Q1015 NOSIG=
201302061750 METAR COR EGLL 061750Z 33009KT 300V010 9999 FEW035 SCT043
                        05/M02 Q1014 NOSIG=
201302061720 METAR COR EGLL 061720Z 34010G20KT 310V010 9999 FEW035 SCT040
                        05/M02 Q1013 NOSIG=
201302061650 METAR COR EGLL 061650Z 33012KT 290V360 9999 FEW038 05/M01
                        Q1013 NOSIG=
201302061620 METAR COR EGLL 061620Z 33014KT 9999 SCT041 06/M01 Q1012 NOSIG=
201302061550 METAR COR EGLL 061550Z 33012KT 300V020 9999 FEW040 06/M01
                        Q1012 NOSIG=
201302061520 METAR EGLL 061520Z 33014KT 9999 FEW032 SCT045 06/M01 Q1011=
201302061450 METAR COR EGLL 061450Z 33012KT 300V010 9999 FEW018 SCT031
                        05/M00 Q1011 NOSIG=
201302061420 METAR COR EGLL 061420Z 35010KT 310V020 9999 -RA FEW019 BKN031
                        05/00 Q1011 NOSIG=
201302061350 METAR COR EGLL 061350Z 36012G22KT 330V040 9999 FEW029 BKN034
                        05/M00 Q1010 NOSIG=
201302061320 METAR COR EGLL 061320Z 33011KT 300V020 9999 SCT030 BKN037
                        06/M00 Q1010 NOSIG=
201302061250 METAR COR EGLL 061250Z 35011G23KT 310V030 9999 FEW030 BKN038
                        06/M00 Q1010 NOSIG=
201302061220 METAR COR EGLL 061220Z 33012KT 300V020 9999 SCT027 SCT040
                        06/00 Q1009 NOSIG=
201302061150 METAR COR EGLL 061150Z 35014KT 310V030 9999 BKN028 BKN033
                        06/00 Q1009 NOSIG=
201302061120 METAR COR EGLL 061120Z 34009G20KT 300V020 9999 BKN020 05/01
                        Q1009 NOSIG=
201302061050 METAR COR EGLL 061050Z 33010KT 290V020 9999 BKN022 05/01
                        Q1008 TEMPO 34015G25KT=
201302061020 METAR COR EGLL 061020Z 33010KT 300V010 9999 SCT021 SCT025
                        05/01 Q1008 NOSIG=
201302060950 METAR COR EGLL 060950Z 34009KT 310V020 9999 SCT035 04/M00
                        Q1007 NOSIG=
201302060920 METAR COR EGLL 060920Z 33007KT 300V030 9999 FEW040 04/00
                        Q1007 NOSIG=
201302060850 METAR COR EGLL 060850Z 34007KT 300V020 9999 FEW017 03/00
                        Q1006 NOSIG=
201302060820 METAR COR EGLL 060820Z 36007KT 320V030 9999 FEW017 03/00
                        Q1005 NOSIG=
201302060750 METAR COR EGLL 060750Z 01008KT 330V050 9999 FEW017 SCT040
                        03/00 Q1005 NOSIG=
201302060720 METAR COR EGLL 060720Z 02007KT 340V070 9999 SCT022 BKN026
                        04/M00 Q1003 NOSIG=
201302060650 METAR COR EGLL 060650Z 02010KT 350V050 9999 SCT018 BKN029
                        04/M00 Q1002 NOSIG=
201302060620 METAR COR EGLL 060620Z 36007KT 9999 SCT022 SCT030 05/02 Q1001
                        NOSIG=
201302060550 METAR COR EGLL 060550Z 35009KT 300V020 9999 SCT022 BKN035
                        05/02 Q1000 NOSIG=
201302060520 METAR COR EGLL 060520Z 34009KT 9999 FEW018 BKN034 05/02 Q0999
                        TEMPO BKN014=
201302060450 METAR COR EGLL 060450Z 34007KT 310V010 9999 SCT020 SCT026
                        05/03 Q0998 TEMPO BKN014=
201302060420 METAR COR EGLL 060420Z 34008KT 300V010 9999 FEW016 BKN035
                        05/03 Q0998 TEMPO BKN014=
201302060350 METAR COR EGLL 060350Z 33009KT 9999 FEW020 BKN030 05/03 Q0997
                        TEMPO -SHRA BKN014=
201302060320 METAR COR EGLL 060320Z 32010KT 290V350 9999 FEW018 SCT027
                        05/03 Q0997 NOSIG=
201302060250 METAR COR EGLL 060250Z 33008KT 300V010 9999 SCT020 SCT036
                        05/03 Q0996 TEMPO -SHRA BKN014=
201302060220 METAR EGLL 060220Z AUTO 29010KT 9999 -DZ FEW020/// SCT026///
                        06/03 Q0996=
201302060150 METAR EGLL 060150Z AUTO 30009KT 9999 FEW020/// 06/03 Q0995=
201302060120 METAR EGLL 060120Z AUTO 29011KT 9999 FEW018/// 05/03 Q0995=
201302060050 METAR COR EGLL 060050Z 30010KT 9999 FEW018 05/03 Q0995 NOSIG=
201302060020 METAR COR EGLL 060020Z 29010KT 9999 FEW019 06/03 Q0995 NOSIG=
201302052350 METAR COR EGLL 052350Z 30010KT 9999 FEW018 05/03 Q0995 NOSIG=
201302052320 METAR COR EGLL 052320Z 30013KT 9999 -RA FEW019 BKN025 06/03
                        Q0994 TEMPO -RA BKN014=
201302052250 METAR COR EGLL 052250Z 28016KT 9999 SCT022 BKN030 06/03 Q0994
                        NOSIG=
201302052220 METAR COR EGLL 052220Z 28015KT 9999 -RA SCT025 BKN033 06/03
                        Q0994 NOSIG=
201302052150 METAR COR EGLL 052150Z 27018KT 9999 FEW023 BKN031 06/03 Q0994
                        NOSIG=
201302052120 METAR COR EGLL 052120Z 27017KT 9999 -RA SCT023 SCT027 06/03
                        Q0994 NOSIG=
201302052050 METAR EGLL 052050Z 27015KT 9999 -RA FEW023 SCT030 06/02 Q0994=
201302052020 METAR EGLL 052020Z AUTO 26015KT 9999 -RA FEW023/// SCT027///
                        BKN031/// 06/02 Q0994=
201302051950 METAR COR EGLL 051950Z 26017KT 9999 FEW029 SCT035 06/02 Q0994
                        NOSIG=
201302051920 METAR COR EGLL 051920Z 26017KT 9999 SCT028 SCT034 06/02 Q0994
                        NOSIG=
201302051850 METAR COR EGLL 051850Z 26015KT 9999 -RA SCT023 SCT027 05/01
                        Q0995 NOSIG=
201302051820 METAR COR EGLL 051820Z 25018KT 8000 -RASN FEW016 SCT025 BKN032
                        05/00 Q0995 NOSIG=
201302051750 METAR COR EGLL 051750Z 25016KT 9999 BKN042 05/M02 Q0996 NOSIG=
201302051720 METAR COR EGLL 051720Z 25015KT 9999 FEW015 05/M03 Q0996 NOSIG=
201302051650 METAR EGLL 051650Z AUTO 26016KT 9999 FEW035/// SCT041///
                        05/M03 Q0997=
201302051620 METAR COR EGLL 051620Z 26017KT 9999 FEW047 05/M03 Q0997 NOSIG=
201302051550 METAR COR EGLL 051550Z 27018KT 9999 FEW047 05/M03 Q0998 NOSIG=
201302051520 METAR COR EGLL 051520Z 26018KT 9999 FEW047 05/M03 Q0998 NOSIG=
201302051450 METAR COR EGLL 051450Z 27019KT 9999 SCT048 05/M03 Q0999 NOSIG=
201302051420 METAR COR EGLL 051420Z 28016KT 9999 SCT043 06/M03 Q0999 NOSIG=
201302051350 METAR COR EGLL 051350Z 27019KT 9999 SCT046 06/M03 Q0999 NOSIG=
201302051320 METAR COR EGLL 051320Z 28020KT 9999 BKN045 05/M03 Q1000 NOSIG=
201302051250 METAR COR EGLL 051250Z 27020KT 9999 SCT041 05/M03 Q1000 NOSIG=
201302051220 METAR COR EGLL 051220Z 28018KT 9999 SCT038 05/M02 Q1000 NOSIG=
201302051150 METAR COR EGLL 051150Z 27021KT 9999 SCT034 05/M02 Q1000 NOSIG=
201302051120 METAR COR EGLL 051120Z 27020KT 9999 FEW034 05/M02 Q1001 NOSIG=
201302051050 METAR COR EGLL 051050Z 28018KT 9999 FEW035 04/M02 Q1001 NOSIG=
201302051020 METAR COR EGLL 051020Z 27020KT 9999 FEW020 04/M01 Q1001 NOSIG=
201302050950 METAR COR EGLL 050950Z 27019KT 9999 FEW020 04/M01 Q1001 NOSIG=
201302050920 METAR COR EGLL 050920Z 27018KT CAVOK 03/M01 Q1002 NOSIG=
201302050850 METAR COR EGLL 050850Z 26016KT CAVOK 03/M02 Q1002 NOSIG=
201302050820 METAR COR EGLL 050820Z 26016KT CAVOK 03/M02 Q1002 NOSIG=
201302050750 METAR COR EGLL 050750Z 27013KT CAVOK 02/M02 Q1003 NOSIG=
201302050720 METAR COR EGLL 050720Z 27013KT CAVOK 02/M02 Q1003 NOSIG=
201302050650 METAR COR EGLL 050650Z 26014KT CAVOK 02/M02 Q1003 NOSIG=
201302050620 METAR COR EGLL 050620Z 26014KT CAVOK 03/M02 Q1003 NOSIG=
201302050550 METAR COR EGLL 050550Z 26014KT 9999 FEW040 03/M01 Q1003 NOSIG=
201302050520 METAR COR EGLL 050520Z 26013KT 9999 FEW030 03/M00 Q1003 NOSIG=
201302050450 METAR COR EGLL 050450Z 28013KT 9999 FEW030 03/M00 Q1003 NOSIG=
201302050420 METAR COR EGLL 050420Z 27011KT 9999 FEW030 03/01 Q1003 NOSIG=
201302050350 METAR COR EGLL 050350Z 27012KT 9999 FEW022 03/01 Q1004 NOSIG=
201302050320 METAR EGLL 050320Z 25013KT 9999 FEW020 03/01 Q1004=
201302050250 METAR COR EGLL 050250Z 27015KT 9999 FEW020 03/01 Q1005 NOSIG=
201302050220 METAR EGLL 050220Z AUTO 26015KT 9999 -SN FEW021/// 04/02
                        Q1005=
201302050150 METAR EGLL 050150Z AUTO 27014KT 9999 -RA SCT011/// 03/02
                        Q1005 RERA=
201302050120 METAR EGLL 050120Z AUTO 29016G29KT 260V330 3800 +RA FEW020///
                        SCT021/// BKN026/// 05/03 Q1005=
201302050050 METAR COR EGLL 050050Z 25031G42KT 7000 SHRA FEW020 SCT037
                        06/03 Q1005 TEMPO 4000 +SHRAGS SQ
                        BKN014=
201302050020 METAR COR EGLL 050020Z 24015KT 9999 FEW038 07/02 Q1006 TEMPO
                        SHRA SHGR=
201302042350 METAR COR EGLL 042350Z 25016KT 9999 FEW037 07/02 Q1007 TEMPO
                        SHRA SHGR=
201302042320 METAR COR EGLL 042320Z 25016KT 9999 FEW030 SCT041 07/02 Q1008
                        TEMPO SHRA SHGR=
201302042250 METAR COR EGLL 042250Z 24016KT 9999 FEW030 07/02 Q1008 NOSIG=
201302042220 METAR COR EGLL 042220Z 24015KT 9999 FEW030 07/02 Q1009 NOSIG=
201302042150 METAR COR EGLL 042150Z 24015KT 9999 FEW030 06/02 Q1010 NOSIG=
201302042120 METAR COR EGLL 042120Z 25015KT 9999 FEW031 07/02 Q1010 NOSIG=
201302042050 METAR COR EGLL 042050Z 25015KT 9999 FEW032 07/02 Q1011 NOSIG=
201302042020 METAR COR EGLL 042020Z 25017KT CAVOK 07/02 Q1011 NOSIG=
201302041950 METAR COR EGLL 041950Z 25017KT CAVOK 07/02 Q1011 NOSIG=
201302041920 METAR COR EGLL 041920Z 26018KT CAVOK 07/02 Q1012 NOSIG=
201302041850 METAR COR EGLL 041850Z 25017KT CAVOK 07/02 Q1012 NOSIG=
201302041820 METAR COR EGLL 041820Z 26015KT CAVOK 07/02 Q1012 NOSIG=
201302041750 METAR COR EGLL 041750Z 27016KT CAVOK 08/02 Q1013 NOSIG=
201302041720 METAR COR EGLL 041720Z 27017KT 9999 FEW049 08/01 Q1013 NOSIG=
201302041650 METAR COR EGLL 041650Z 28016KT 9999 FEW045 08/01 Q1013 NOSIG=
201302041620 METAR COR EGLL 041620Z 28018KT 9999 SCT047 09/02 Q1013 NOSIG=
201302041550 METAR COR EGLL 041550Z 28017KT 9999 SCT049 09/01 Q1013 NOSIG=
201302041520 METAR COR EGLL 041520Z 28017KT 9999 SCT045 10/01 Q1013 NOSIG=
201302041450 METAR COR EGLL 041450Z 28016KT 9999 BKN047 09/01 Q1013 NOSIG=
201302041420 METAR COR EGLL 041420Z 28018KT 9999 SCT046 10/01 Q1013 NOSIG=
201302041350 METAR EGLL 041350Z 28019KT 9999 FEW044 10/01 Q1014=
201302041320 METAR COR EGLL 041320Z 28019G32KT 9999 FEW043 10/01 Q1014
                        NOSIG=
201302041250 METAR COR EGLL 041250Z 29016G26KT 9999 SCT044 10/01 Q1014
                        NOSIG=
201302041220 METAR COR EGLL 041220Z 29017G27KT 9999 SCT044 11/01 Q1014
                        NOSIG=
201302041150 METAR EGLL 041150Z 28017KT 9999 SCT041 10/02 Q1014=
201302041120 METAR COR EGLL 041120Z 29017KT 9999 SCT042 10/01 Q1014 NOSIG=
201302041050 METAR COR EGLL 041050Z 29011KT 9999 SCT046 10/01 Q1014 NOSIG=
201302041020 METAR COR EGLL 041020Z 30013KT CAVOK 09/01 Q1014 NOSIG=
201302040950 METAR COR EGLL 040950Z 30019KT 9999 FEW033 09/01 Q1014 NOSIG=
201302040920 METAR EGLL 040920Z 32011KT 9999 SCT035 BKN043 10/03 Q1013=
201302040850 METAR COR EGLL 040850Z 30013KT 280V340 9999 FEW026 SCT045
                        10/05 Q1013 NOSIG=
201302040820 METAR COR EGLL 040820Z 28013KT 9999 FEW026 BKN041 10/07 Q1012
                        NOSIG=
201302040750 METAR COR EGLL 040750Z 27017KT 9999 BKN043 10/07 Q1012 NOSIG=
201302040720 METAR COR EGLL 040720Z 26016KT 9999 BKN043 10/07 Q1012 NOSIG=
201302040650 METAR COR EGLL 040650Z 26015KT 9999 BKN042 10/07 Q1011 NOSIG=
201302040620 METAR COR EGLL 040620Z 26014KT 9999 FEW030 10/07 Q1011 NOSIG=
201302040550 METAR COR EGLL 040550Z 27014KT 9999 SCT015 10/07 Q1011 NOSIG=
201302040520 METAR COR EGLL 040520Z 27015KT 9999 BKN015 BKN030 10/07 Q1012
                        NOSIG=
201302040450 METAR COR EGLL 040450Z 28016KT 9999 BKN017 10/07 Q1011 NOSIG=
201302040420 METAR EGLL 040420Z AUTO 28018KT 9999 BKN017/// 10/07 Q1011=
201302040350 METAR EGLL 040350Z AUTO 25014G24KT 9999 BKN018/// BKN028///
                        10/07 Q1011=
201302040320 METAR EGLL 040320Z AUTO 26013KT 9999 SCT028/// 09/07 Q1011=
201302040250 METAR COR EGLL 040250Z 26014KT 9999 FEW012 09/06 Q1011 NOSIG=
201302040220 METAR COR EGLL 040220Z 26014KT 9999 FEW012 09/06 Q1012 NOSIG=
201302040150 METAR COR EGLL 040150Z 26015KT CAVOK 09/06 Q1012 NOSIG=
201302040120 METAR COR EGLL 040120Z 26012KT CAVOK 09/06 Q1012 NOSIG=
201302040050 METAR COR EGLL 040050Z 26010KT CAVOK 09/07 Q1012 NOSIG=
201302040020 METAR COR EGLL 040020Z 26010KT 9999 FEW012 09/07 Q1013 NOSIG=
201302032350 METAR COR EGLL 032350Z 26011KT 9999 BKN013 10/07 Q1013 TEMPO
                        SCT015=
201302032320 METAR COR EGLL 032320Z 26009KT 9999 BKN012 09/07 Q1013 NOSIG=
201302032250 METAR COR EGLL 032250Z 26010KT 9999 BKN012 09/07 Q1013 NOSIG=
201302032220 METAR COR EGLL 032220Z 27010KT 9999 BKN012 09/07 Q1014 NOSIG=
201302032150 METAR COR EGLL 032150Z 26012KT 9999 BKN013 09/07 Q1014 NOSIG=
201302032120 METAR COR EGLL 032120Z 26010KT 9999 BKN013 09/07 Q1014 NOSIG=
201302032050 METAR COR EGLL 032050Z 25010KT 9999 BKN013 10/07 Q1014 NOSIG=
201302032020 METAR COR EGLL 032020Z 25008KT 9999 BKN015 10/07 Q1014 NOSIG=
201302031950 METAR COR EGLL 031950Z 24008KT 9999 SCT015 SCT019 09/07 Q1015
                        NOSIG=
201302031920 METAR COR EGLL 031920Z 25009KT 9999 FEW020 SCT033 10/07 Q1015
                        NOSIG=
201302031850 METAR COR EGLL 031850Z 25010KT 9999 FEW019 SCT030 10/07 Q1015
                        NOSIG=
201302031820 METAR COR EGLL 031820Z 25009KT 9999 FEW014 SCT020 09/07 Q1015
                        TEMPO BKN014=
201302031750 METAR COR EGLL 031750Z 26006KT 210V300 9999 FEW014 BKN015
                        09/07 Q1015 TEMPO BKN014=
201302031720 METAR COR EGLL 031720Z 25006KT 190V300 9999 FEW014 BKN015
                        08/06 Q1015 TEMPO BKN014=
201302031650 METAR COR EGLL 031650Z 20005KT 140V270 9999 BKN015 08/06
                        Q1015 TEMPO BKN014=
201302031620 METAR COR EGLL 031620Z 21005KT 140V250 9999 BKN011 08/06
                        Q1015 TEMPO BKN009=
201302031550 METAR COR EGLL 031550Z 24007KT 9999 BKN012 08/06 Q1015 NOSIG=
201302031520 METAR EGLL 031520Z 25008KT 9999 BKN013 08/06 Q1015=
201302031450 METAR COR EGLL 031450Z 24009KT 9999 BKN013 08/06 Q1015 NOSIG=
201302031420 METAR COR EGLL 031420Z 25010KT 9999 BKN013 08/05 Q1015 NOSIG=
201302031350 METAR COR EGLL 031350Z 25010KT 9999 BKN013 08/05 Q1015 NOSIG=
201302031320 METAR COR EGLL 031320Z 26012KT 9999 BKN013 07/05 Q1016 NOSIG=
201302031250 METAR COR EGLL 031250Z 26012KT 9999 BKN013 07/04 Q1016 NOSIG=
201302031220 METAR COR EGLL 031220Z 25013KT 9999 BKN014 07/04 Q1017 TEMPO
                        BKN015=
201302031150 METAR COR EGLL 031150Z 25014KT 9999 BKN015 07/04 Q1017 TEMPO
                        BKN012=
201302031120 METAR EGLL 031120Z AUTO 25016KT 9999 OVC016/// 06/03 Q1017=
201302031050 METAR EGLL 031050Z AUTO 24014KT 9999 BKN019/// 06/02 Q1018=
201302031020 METAR COR EGLL 031020Z 23012KT 9999 FEW019 BKN027 05/01 Q1018
                        NOSIG=
201302030950 METAR COR EGLL 030950Z 23012KT 9999 BKN038 05/00 Q1019 NOSIG=
201302030920 METAR COR EGLL 030920Z 24012KT 9999 BKN038 04/M00 Q1020 NOSIG=
201302030850 METAR COR EGLL 030850Z 24013KT 9999 BKN037 04/M01 Q1020 NOSIG=
201302030820 METAR COR EGLL 030820Z 24012KT 9999 BKN046 04/M01 Q1021 NOSIG=
201302030750 METAR COR EGLL 030750Z 24010KT CAVOK 03/M01 Q1021 NOSIG=
201302030720 METAR COR EGLL 030720Z 24008KT CAVOK 02/M01 Q1021 NOSIG=
201302030650 METAR COR EGLL 030650Z 23011KT CAVOK 02/M02 Q1021 NOSIG=
201302030620 METAR COR EGLL 030620Z 22010KT CAVOK 01/M02 Q1022 NOSIG=
201302030550 METAR COR EGLL 030550Z 23007KT CAVOK 01/M02 Q1023 NOSIG=
201302030520 METAR COR EGLL 030520Z 21004KT CAVOK 01/M02 Q1023 NOSIG=
201302030450 METAR COR EGLL 030450Z 28005KT CAVOK 01/M03 Q1024 NOSIG=
201302030420 METAR EGLL 030420Z AUTO 26005KT 9999 NCD 01/M03 Q1024=
201302030350 METAR EGLL 030350Z AUTO 27005KT 9999 NCD 00/M03 Q1023=
201302030250 METAR EGLL 030250Z 27006KT CAVOK M01/M03 Q1024=
201302030220 METAR COR EGLL 030220Z 27007KT CAVOK M01/M03 Q1024 NOSIG=
201302030150 METAR COR EGLL 030150Z 28007KT CAVOK M01/M03 Q1025 NOSIG=
201302030120 METAR COR EGLL 030120Z 28006KT CAVOK M01/M03 Q1025 NOSIG=
201302030050 METAR COR EGLL 030050Z 28006KT CAVOK M01/M04 Q1025 NOSIG=
201302030020 METAR COR EGLL 030020Z VRB03KT CAVOK M01/M04 Q1025 NOSIG=
201302022350 METAR COR EGLL 022350Z 27003KT CAVOK M00/M04 Q1024 NOSIG=
201302022320 METAR COR EGLL 022320Z 29006KT CAVOK M00/M04 Q1024 NOSIG=
201302022250 METAR COR EGLL 022250Z 28005KT CAVOK 01/M04 Q1024 NOSIG=
201302022220 METAR COR EGLL 022220Z 29005KT CAVOK 02/M04 Q1024 NOSIG=
201302022150 METAR COR EGLL 022150Z 30005KT CAVOK 02/M04 Q1024 NOSIG=
201302022120 METAR COR EGLL 022120Z 31004KT CAVOK 02/M04 Q1024 NOSIG=
201302022050 METAR COR EGLL 022050Z 29006KT CAVOK 03/M04 Q1024 NOSIG=
201302022020 METAR COR EGLL 022020Z 31004KT CAVOK 03/M03 Q1023 NOSIG=
201302021950 METAR COR EGLL 021950Z 31004KT CAVOK 03/M03 Q1024 NOSIG=
201302021920 METAR COR EGLL 021920Z 31004KT 9999 FEW046 03/M03 Q1024 NOSIG=
201302021850 METAR COR EGLL 021850Z 31004KT 9999 FEW046 03/M03 Q1023 NOSIG=
201302021820 METAR COR EGLL 021820Z 32004KT 9999 BKN047 04/M03 Q1023 NOSIG=
201302021750 METAR COR EGLL 021750Z 32005KT 290V350 9999 BKN043 04/M03
                        Q1022 NOSIG=
201302021720 METAR COR EGLL 021720Z 32007KT 9999 FEW038 BKN046 05/M03
                        Q1022 NOSIG=
201302021650 METAR COR EGLL 021650Z 32008KT 300V360 9999 BKN046 05/M03
                        Q1022 NOSIG=
201302021620 METAR COR EGLL 021620Z 32010KT 280V350 9999 BKN042 05/M03
                        Q1021 NOSIG=
201302021550 METAR COR EGLL 021550Z 33010KT 300V360 9999 BKN041 05/M03
                        Q1021 NOSIG=
201302021520 METAR COR EGLL 021520Z 32011KT 9999 SCT042 06/M02 Q1020 NOSIG=
201302021450 METAR EGLL 021450Z 33009G19KT 300V360 9999 SCT042 05/M02
                        Q1020=
201302021420 METAR COR EGLL 021420Z 34009KT 290V010 9999 SCT033 SCT040
                        05/M02 Q1020 NOSIG=
201302021350 METAR COR EGLL 021350Z 33011KT 300V360 9999 SCT033 05/M02
                        Q1019 NOSIG=
201302021320 METAR COR EGLL 021320Z 35008KT 310V020 9999 BKN033 05/M02
                        Q1019 NOSIG=
201302021250 METAR COR EGLL 021250Z 33011KT 9999 SCT032 SCT037 06/M01
                        Q1019 NOSIG=
201302021220 METAR COR EGLL 021220Z 33009KT 300V360 9999 BKN027 05/M01
                        Q1018 NOSIG=
201302021150 METAR COR EGLL 021150Z 33009KT 300V020 9999 SCT026 05/M01
                        Q1018 NOSIG=
201302021120 METAR COR EGLL 021120Z 33011KT 9999 SCT025 05/M01 Q1018 NOSIG=
201302021050 METAR COR EGLL 021050Z 33009KT 310V020 9999 SCT023 04/M01
                        Q1017 NOSIG=
201302021020 METAR COR EGLL 021020Z 34010KT 310V010 9999 FEW023 04/M01
                        Q1016 NOSIG=
201302020950 METAR COR EGLL 020950Z 33010KT 300V010 CAVOK 04/M01 Q1016
                        NOSIG=
201302020920 METAR COR EGLL 020920Z 34009KT 300V360 CAVOK 03/M01 Q1015
                        NOSIG=
201302020850 METAR COR EGLL 020850Z 33010KT 290V360 CAVOK 03/M01 Q1015
                        NOSIG=
201302020820 METAR COR EGLL 020820Z 33010KT CAVOK 03/M01 Q1014 NOSIG=
201302020750 METAR COR EGLL 020750Z 33009KT 280V360 CAVOK 03/M01 Q1013
                        NOSIG=
201302020720 METAR COR EGLL 020720Z 34007KT 310V020 9999 FEW021 03/M01
                        Q1012 NOSIG=
201302020650 METAR COR EGLL 020650Z 34007KT 310V020 9999 FEW022 03/M00
                        Q1012 NOSIG=
201302020620 METAR COR EGLL 020620Z 34009KT 300V020 9999 FEW023 03/M00
                        Q1011 NOSIG=
201302020550 METAR COR EGLL 020550Z 34009KT 9999 SCT022 03/M00 Q1010 NOSIG=
201302020520 METAR EGLL 020520Z 33009KT 310V010 9999 FEW024 SCT036 04/M00
                        Q1010=
201302020450 METAR COR EGLL 020450Z 34009KT 310V020 9999 SCT024 SCT027
                        04/00 Q1009 NOSIG=
201302020420 METAR COR EGLL 020420Z 34009KT 310V010 9999 SCT024 SCT037
                        04/00 Q1008 NOSIG=
201302020350 METAR COR EGLL 020350Z 34011KT 310V010 9999 FEW024 SCT030
                        05/00 Q1007 NOSIG=
201302020320 METAR COR EGLL 020320Z 34010KT 300V020 9999 FEW022 SCT031
                        05/01 Q1007 NOSIG=
201302020250 METAR COR EGLL 020250Z 35008KT 310V030 9999 FEW022 SCT030
                        05/01 Q1006 NOSIG=
201302020220 METAR EGLL 020220Z AUTO 35008KT 310V020 9999 FEW022/// BKN024///
                        05/02 Q1005=
201302020150 METAR EGLL 020150Z AUTO 35009KT 320V030 9999 SCT024/// 05/02
                        Q1005=
201302020120 METAR EGLL 020120Z AUTO 34007KT 310V020 9999 FEW020/// SCT025///
                        BKN032/// 05/02 Q1004=
201302020050 METAR COR EGLL 020050Z 35008KT 310V020 9999 FEW023 SCT037
                        05/02 Q1004 NOSIG=
201302020020 METAR COR EGLL 020020Z 33006KT 300V360 9999 SCT037 05/03
                        Q1003 NOSIG=
201302012350 METAR COR EGLL 012350Z 33007KT CAVOK 04/02 Q1002 NOSIG=
201302012320 METAR COR EGLL 012320Z 31005KT CAVOK 04/02 Q1002 NOSIG=
201302012250 METAR COR EGLL 012250Z 31004KT 9999 FEW042 05/02 Q1001 NOSIG=
201302012220 METAR COR EGLL 012220Z VRB03KT 9999 FEW020 SCT040 05/02 Q1001=
201302012150 METAR COR EGLL 012150Z VRB03KT 9999 SCT041 05/03 Q1000 NOSIG=
201302012120 METAR COR EGLL 012120Z 30005KT 9999 FEW040 SCT045 05/03 Q1000
                        NOSIG=
201302012050 METAR COR EGLL 012050Z 28006KT 9999 SCT046 05/03 Q0999 NOSIG=
201302012020 METAR COR EGLL 012020Z 29004KT 9999 FEW049 05/03 Q0999 NOSIG=
201302011950 METAR COR EGLL 011950Z 28006KT 9999 FEW021 05/02 Q0999 NOSIG=
201302011920 METAR EGLL 011920Z AUTO 27006KT 9999 NCD 04/02 Q0998=
201302011850 METAR COR EGLL 011850Z 25006G16KT 210V290 CAVOK 05/02 Q0998
                        NOSIG=
201302011820 METAR COR EGLL 011820Z 24007KT 190V270 CAVOK 05/02 Q0998
                        NOSIG=
201302011750 METAR COR EGLL 011750Z 25008KT CAVOK 06/02 Q0998 NOSIG=
201302011720 METAR COR EGLL 011720Z 28007KT CAVOK 06/02 Q0998 NOSIG=
201302011650 METAR COR EGLL 011650Z 28005KT CAVOK 05/02 Q0998 NOSIG=
201302011620 METAR COR EGLL 011620Z 29007KT CAVOK 06/02 Q0999 NOSIG=
201302011550 METAR COR EGLL 011550Z 29009KT 9999 FEW024 07/02 Q0999 NOSIG=
201302011520 METAR COR EGLL 011520Z 30007KT 270V330 9999 SCT022 07/02
                        Q0999 NOSIG=
201302011450 METAR COR EGLL 011450Z 30007KT 9999 SCT022 08/03 Q0998 NOSIG=
201302011420 METAR COR EGLL 011420Z 30009KT 9999 BKN018 07/03 Q0999 NOSIG=
201302011350 METAR COR EGLL 011350Z 28011KT 9999 SCT016 SCT020 07/04 Q0999
                        NOSIG=
201302011320 METAR COR EGLL 011320Z 29010KT 9999 SCT014 07/04 Q0999 NOSIG=
201302011250 METAR COR EGLL 011250Z 29007KT 9999 SCT013 07/04 Q0999 NOSIG=
201302011220 METAR COR EGLL 011220Z 30007KT 9999 SCT010 06/04 Q0999 NOSIG=
201302011150 METAR COR EGLL 011150Z 31006KT 280V350 9999 SCT010 BKN033
                        06/04 Q1000 NOSIG=
201302011120 METAR COR EGLL 011120Z 30006KT 270V340 9999 FEW011 SCT029
                        BKN035 06/04 Q1000 NOSIG=
201302011050 METAR COR EGLL 011050Z 31005KT 9999 FEW008 BKN035 06/04 Q1000
                        NOSIG=
201302011020 METAR COR EGLL 011020Z 30005KT 9999 FEW007 BKN024 05/03 Q1001
                        NOSIG=
201302010950 METAR COR EGLL 010950Z 31005KT 9999 FEW012 BKN020 BKN025
                        05/03 Q1001 NOSIG=
201302010920 METAR COR EGLL 010920Z 30006KT 9999 -RA FEW012 SCT022 BKN026
                        05/03 Q1001 NOSIG=
201302010850 METAR COR EGLL 010850Z 29005KT 9999 -RA FEW012 SCT026 BKN031
                        05/03 Q1001 NOSIG=
201302010820 METAR COR EGLL 010820Z 30005KT 9000 -RA FEW012 SCT026 05/03
                        Q1002 NOSIG=
201302010750 METAR COR EGLL 010750Z 30004KT 9999 -RA FEW008 SCT010 BKN015
                        05/04 Q1002 NOSIG=
201302010720 METAR COR EGLL 010720Z 30006KT 9999 -RA SCT007 SCT014 05/04
                        Q1003 NOSIG=
201302010650 METAR COR EGLL 010650Z 25007KT 9999 -RA SCT010 SCT020 06/04
                        Q1003 NOSIG=
201302010620 METAR COR EGLL 010620Z 23008KT 9999 -RA SCT015 SCT030 06/04
                        Q1004 RERA NOSIG=
201302010550 METAR COR EGLL 010550Z 25006KT 9000 RA FEW008 SCT010 BKN018
                        06/05 Q1005 TEMPO -RA=
201302010520 METAR COR EGLL 010520Z 25007KT 9000 RA FEW013 SCT020 06/05
                        Q1005 NOSIG=
201302010450 METAR COR EGLL 010450Z 27004KT 9999 -RA BKN032 06/05 Q1006
                        RERA NOSIG=
201302010420 METAR COR EGLL 010420Z 26005KT 9999 RA BKN037 06/05 Q1007
                        TEMPO -RA=
201302010350 METAR COR EGLL 010350Z 27007KT 9999 -RA SCT022 BKN029 06/05
                        Q1007 TEMPO RA=
201302010320 METAR COR EGLL 010320Z 28011KT 9999 -RA SCT022 SCT033 07/05
                        Q1009 TEMPO RA=
201302010250 METAR COR EGLL 010250Z 25017G27KT 180V290 9999 -RA FEW029
                        BKN045 08/03 Q1009 NOSIG=
201302010220 METAR EGLL 010220Z AUTO 23010KT 9999 NCD 08/05 Q1009=
201302010150 METAR EGLL 010150Z AUTO 24011KT 9999 NCD 08/04 Q1009=
201302010120 METAR EGLL 010120Z AUTO 23010KT 9999 NCD 08/04 Q1010=
201302010050 METAR EGLL 010050Z 24012KT 9999 FEW023 SCT040 08/04 Q1011=
201302010020 METAR COR EGLL 010020Z 25012KT 9999 SCT023 SCT035 08/04 Q1011
                        NOSIG=
