##########################################################
# Query made at 12/31/2014 10:52:31 UTC
# Time interval: from 07/01/2014 00:00  to 07/31/2014 23:59  UTC
##########################################################

##########################################################
# EGLL, London / Heathrow Airport (United Kingdom)
# WMO index: 03772
# Latitude 51-29N. Longitude 000-27W. Altitude 24 m.
##########################################################

###################################
#  METAR/SPECI from EGLL
###################################
201407312350 METAR COR EGLL 312350Z 23005KT CAVOK 18/14 Q1012 NOSIG=
201407312320 METAR COR EGLL 312320Z 20005KT CAVOK 18/14 Q1012 NOSIG=
201407312250 METAR EGLL 312250Z 23006KT CAVOK 18/14 Q1012 NOSIG=
201407312220 METAR COR EGLL 312220Z 25008KT 9999 FEW040 19/15 Q1012 NOSIG=
201407312150 METAR EGLL 312150Z 25007KT 9999 FEW037 19/15 Q1012 NOSIG=
201407312120 METAR COR EGLL 312120Z 25010KT 9999 FEW035 20/15 Q1012 NOSIG=
201407312050 METAR COR EGLL 312050Z 25009KT 9999 FEW040 20/15 Q1012 NOSIG=
201407312020 METAR COR EGLL 312020Z 24009KT CAVOK 21/14 Q1012 NOSIG=
201407311950 METAR EGLL 311950Z 25009KT CAVOK 21/14 Q1012 NOSIG=
201407311920 METAR COR EGLL 311920Z 27010KT CAVOK 21/14 Q1012 NOSIG=
201407311850 METAR COR EGLL 311850Z 27008KT CAVOK 21/14 Q1012 NOSIG=
201407311820 METAR COR EGLL 311820Z 29010KT 9999 FEW044 22/14 Q1012 NOSIG=
201407311750 METAR EGLL 311750Z 25012KT 9999 FEW039 SCT045 23/14 Q1012
                        NOSIG=
201407311720 METAR COR EGLL 311720Z 25012KT 9999 FEW047 24/13 Q1012 NOSIG=
201407311650 METAR EGLL 311650Z 26011KT 9999 FEW044 24/13 Q1012 NOSIG=
201407311620 METAR COR EGLL 311620Z 24010KT 9999 FEW044 24/13 Q1012 NOSIG=
201407311550 METAR EGLL 311550Z 26011KT 230V300 9999 FEW047 25/13 Q1012
                        NOSIG=
201407311520 METAR COR EGLL 311520Z 25010G21KT 9999 FEW048 24/13 Q1013
                        NOSIG=
201407311450 METAR EGLL 311450Z 26009KT 210V300 9999 FEW048 24/13 Q1013
                        NOSIG=
201407311420 METAR COR EGLL 311420Z 27010KT 230V310 9999 SCT046 24/13
                        Q1013 NOSIG=
201407311350 METAR EGLL 311350Z 24008KT 200V280 9999 FEW047 25/12 Q1013
                        NOSIG=
201407311320 METAR COR EGLL 311320Z 24008KT 150V290 9999 FEW048 25/12
                        Q1013 NOSIG=
201407311250 METAR EGLL 311250Z 26007KT 190V300 9999 FEW045 24/13 Q1013
                        NOSIG=
201407311220 METAR COR EGLL 311220Z 23008KT 160V270 9999 FEW043 24/13
                        Q1014 NOSIG=
201407311150 METAR EGLL 311150Z 24006KT 180V310 9999 FEW040 23/13 Q1014
                        NOSIG=
201407311120 METAR COR EGLL 311120Z 25006KT 200V310 9999 SCT035 23/13
                        Q1014 NOSIG=
201407311050 METAR EGLL 311050Z 22007KT 180V260 9999 SCT036 22/13 Q1014
                        NOSIG=
201407311020 METAR COR EGLL 311020Z 26008KT 210V290 9999 SCT032 22/13
                        Q1014 NOSIG=
201407310950 METAR EGLL 310950Z 25010KT 220V280 9999 SCT027 21/13 Q1015
                        NOSIG=
201407310920 METAR COR EGLL 310920Z 27009KT 9999 SCT028 20/14 Q1015 NOSIG=
201407310850 METAR COR EGLL 310850Z 27009KT 9999 SCT027 20/13 Q1015 NOSIG=
201407310820 METAR COR EGLL 310820Z 26008KT 9999 FEW022 19/14 Q1015 NOSIG=
201407310750 METAR EGLL 310750Z 28009KT 9999 FEW020 18/13 Q1015 NOSIG=
201407310720 METAR COR EGLL 310720Z 25007KT 220V290 CAVOK 18/14 Q1015
                        NOSIG=
201407310650 METAR EGLL 310650Z 25006KT CAVOK 17/13 Q1015 NOSIG=
201407310620 METAR COR EGLL 310620Z 23005KT 200V260 CAVOK 16/13 Q1015
                        NOSIG=
201407310550 METAR EGLL 310550Z 26005KT 220V290 CAVOK 15/13 Q1015 NOSIG=
201407310520 METAR COR EGLL 310520Z 26004KT 230V290 CAVOK 14/13 Q1015
                        NOSIG=
201407310450 METAR EGLL 310450Z 27005KT CAVOK 14/12 Q1015 NOSIG=
201407310420 METAR COR EGLL 310420Z 27006KT CAVOK 13/12 Q1015 NOSIG=
201407310350 METAR EGLL 310350Z 27005KT CAVOK 14/13 Q1015 NOSIG=
201407310320 METAR EGLL 310320Z 26007KT CAVOK 14/13 Q1015=
201407310250 METAR EGLL 310250Z 27006KT CAVOK 15/13 Q1015 NOSIG=
201407310220 METAR COR EGLL 310220Z 27007KT CAVOK 15/13 Q1015 NOSIG=
201407310150 METAR COR EGLL 310150Z 27007KT CAVOK 15/13 Q1015 NOSIG=
201407310120 METAR EGLL 310120Z AUTO 27007KT 9999 NCD 16/13 Q1016=
201407310050 METAR EGLL 310050Z AUTO 27008KT 9999 NCD 16/13 Q1016=
201407310020 METAR EGLL 310020Z AUTO 27008KT 9999 NCD 17/14 Q1016=
201407302350 METAR COR EGLL 302350Z 27007KT CAVOK 17/14 Q1016 NOSIG=
201407302320 METAR COR EGLL 302320Z 27007KT CAVOK 17/14 Q1016 NOSIG=
201407302250 METAR COR EGLL 302250Z 27010KT CAVOK 18/14 Q1016 NOSIG=
201407302220 METAR COR EGLL 302220Z 28009KT CAVOK 19/14 Q1015 NOSIG=
201407302150 METAR EGLL 302150Z 28012KT CAVOK 20/14 Q1015=
201407302120 METAR COR EGLL 302120Z 28008KT CAVOK 20/13 Q1015 NOSIG=
201407302050 METAR EGLL 302050Z 28005KT CAVOK 21/12 Q1015 NOSIG=
201407302020 METAR COR EGLL 302020Z 29004KT CAVOK 21/13 Q1015 NOSIG=
201407301950 METAR EGLL 301950Z 31004KT 270V340 CAVOK 22/13 Q1015 NOSIG=
201407301920 METAR COR EGLL 301920Z 31004KT CAVOK 23/12 Q1015 NOSIG=
201407301850 METAR EGLL 301850Z 28006KT CAVOK 23/12 Q1015 NOSIG=
201407301820 METAR EGLL 301820Z 28007KT 250V320 CAVOK 24/12 Q1015=
201407301750 METAR EGLL 301750Z 31005KT 270V350 CAVOK 25/11 Q1015 NOSIG=
201407301720 METAR COR EGLL 301720Z 28008KT 250V330 CAVOK 25/12 Q1015
                        NOSIG=
201407301650 METAR EGLL 301650Z 28006KT 220V340 CAVOK 24/12 Q1015 NOSIG=
201407301620 METAR COR EGLL 301620Z 30007KT 260V360 CAVOK 25/12 Q1015
                        NOSIG=
201407301550 METAR EGLL 301550Z 27009KT 240V320 CAVOK 26/11 Q1015 NOSIG=
201407301520 METAR COR EGLL 301520Z 25008KT 200V300 CAVOK 25/11 Q1015
                        NOSIG=
201407301450 METAR EGLL 301450Z 27009KT 230V300 9999 FEW049 25/11 Q1015
                        NOSIG=
201407301420 METAR COR EGLL 301420Z 30007KT 250V010 9999 FEW049 25/11
                        Q1015 NOSIG=
201407301350 METAR COR EGLL 301350Z 28008KT 9999 FEW048 24/12 Q1015 NOSIG=
201407301320 METAR COR EGLL 301320Z 28007KT 240V330 9999 FEW048 24/11
                        Q1016 NOSIG=
201407301250 METAR EGLL 301250Z 25010KT 9999 FEW048 23/11 Q1016 NOSIG=
201407301220 METAR COR EGLL 301220Z 25010KT 210V290 9999 FEW048 23/11
                        Q1016 NOSIG=
201407301150 METAR EGLL 301150Z 26009KT 230V300 9999 FEW044 23/10 Q1016
                        NOSIG=
201407301120 METAR COR EGLL 301120Z 30008KT 260V350 9999 FEW041 22/10
                        Q1016 NOSIG=
201407301050 METAR EGLL 301050Z 32007KT 280V020 9999 FEW041 21/10 Q1016
                        NOSIG=
201407301020 METAR COR EGLL 301020Z 27007KT 210V310 9999 FEW039 21/10
                        Q1016 NOSIG=
201407300950 METAR COR EGLL 300950Z 30006KT 250V030 9999 FEW040 20/10
                        Q1017 NOSIG=
201407300920 METAR COR EGLL 300920Z 32007KT 280V350 9999 SCT035 19/10
                        Q1017 NOSIG=
201407300850 METAR EGLL 300850Z 32006KT 280V350 9999 SCT040 19/11 Q1017
                        NOSIG=
201407300820 METAR COR EGLL 300820Z 30008KT 9999 FEW024 SCT041 18/12 Q1017
                        NOSIG=
201407300750 METAR COR EGLL 300750Z 31007KT 280V360 9999 SCT041 18/12
                        Q1017 NOSIG=
201407300720 METAR COR EGLL 300720Z 30005KT 270V350 9999 FEW043 17/12
                        Q1017 NOSIG=
201407300650 METAR EGLL 300650Z 30005KT 260V340 9999 FEW042 17/12 Q1016
                        NOSIG=
201407300620 METAR COR EGLL 300620Z VRB03KT CAVOK 16/12 Q1016 NOSIG=
201407300550 METAR COR EGLL 300550Z 30005KT CAVOK 15/12 Q1016 NOSIG=
201407300520 METAR COR EGLL 300520Z 31004KT CAVOK 15/11 Q1016 NOSIG=
201407300450 METAR COR EGLL 300450Z 31004KT CAVOK 14/11 Q1016 NOSIG=
201407300420 METAR COR EGLL 300420Z VRB03KT CAVOK 14/11 Q1016 NOSIG=
201407300350 METAR EGLL 300350Z 30003KT CAVOK 15/11 Q1016=
201407300320 METAR COR EGLL 300320Z 30004KT CAVOK 15/11 Q1016 NOSIG=
201407300250 METAR EGLL 300250Z 31003KT CAVOK 14/11 Q1016 NOSIG=
201407300220 METAR COR EGLL 300220Z 35004KT 310V020 CAVOK 16/11 Q1016
                        NOSIG=
201407300150 METAR EGLL 300150Z 35004KT 310V040 CAVOK 16/11 Q1016 NOSIG=
201407300120 METAR EGLL 300120Z AUTO VRB02KT 9999 NCD 17/11 Q1016=
201407300050 METAR EGLL 300050Z AUTO 35005KT 320V020 9999 NCD 18/11 Q1016=
201407300020 METAR EGLL 300020Z AUTO 33005KT 310V010 9999 NCD 18/12 Q1016=
201407292350 METAR COR EGLL 292350Z 34006KT 300V010 CAVOK 19/12 Q1016
                        NOSIG=
201407292320 METAR COR EGLL 292320Z 33008KT 300V010 CAVOK 19/13 Q1016
                        NOSIG=
201407292250 METAR EGLL 292250Z 34008KT 300V010 CAVOK 20/14 Q1016 NOSIG=
201407292220 METAR COR EGLL 292220Z 34006KT 290V030 CAVOK 20/14 Q1016
                        NOSIG=
201407292150 METAR EGLL 292150Z 36005KT 320V030 CAVOK 21/14 Q1015 NOSIG=
201407292120 METAR COR EGLL 292120Z 35006KT CAVOK 20/14 Q1015 NOSIG=
201407292050 METAR EGLL 292050Z 34007KT 300V020 CAVOK 21/13 Q1015 NOSIG=
201407292020 METAR COR EGLL 292020Z 34006KT 310V030 CAVOK 22/13 Q1015
                        NOSIG=
201407291950 METAR EGLL 291950Z 33006KT 300V010 CAVOK 23/13 Q1014 NOSIG=
201407291920 METAR COR EGLL 291920Z 34006KT 300V010 CAVOK 23/12 Q1014
                        NOSIG=
201407291850 METAR EGLL 291850Z 33007KT 300V010 CAVOK 25/11 Q1014 NOSIG=
201407291820 METAR COR EGLL 291820Z 32006KT 290V010 CAVOK 25/10 Q1014
                        NOSIG=
201407291750 METAR COR EGLL 291750Z 31007KT 270V350 CAVOK 26/09 Q1014
                        NOSIG=
201407291720 METAR COR EGLL 291720Z 30008KT CAVOK 26/09 Q1014 NOSIG=
201407291650 METAR COR EGLL 291650Z 32006KT 290V010 CAVOK 26/09 Q1014
                        NOSIG=
201407291620 METAR COR EGLL 291620Z 31007KT 250V360 CAVOK 26/10 Q1014
                        NOSIG=
201407291550 METAR EGLL 291550Z 31006KT 270V360 CAVOK 26/11 Q1015 NOSIG=
201407291520 METAR COR EGLL 291520Z 32007KT 270V340 CAVOK 26/11 Q1015
                        NOSIG=
201407291450 METAR EGLL 291450Z VRB04KT CAVOK 25/11 Q1015 NOSIG=
201407291420 METAR COR EGLL 291420Z 31006KT 270V070 CAVOK 26/11 Q1015
                        NOSIG=
201407291350 METAR COR EGLL 291350Z 32006KT 270V360 9999 FEW048 25/12
                        Q1015 NOSIG=
201407291320 METAR COR EGLL 291320Z 30006KT 250V350 9999 FEW048 25/12
                        Q1015 NOSIG=
201407291250 METAR EGLL 291250Z 32005KT 270V080 9999 FEW045 25/12 Q1016
                        NOSIG=
201407291220 METAR COR EGLL 291220Z 33005KT 270V040 9999 FEW046 24/12
                        Q1016 NOSIG=
201407291150 METAR EGLL 291150Z 36007KT 320V050 CAVOK 24/12 Q1016 NOSIG=
201407291120 METAR COR EGLL 291120Z 32008KT 280V010 CAVOK 24/11 Q1016
                        NOSIG=
201407291050 METAR COR EGLL 291050Z 34007KT 300V020 CAVOK 23/11 Q1016
                        NOSIG=
201407291020 METAR COR EGLL 291020Z 34006KT 280V040 CAVOK 22/10 Q1016
                        NOSIG=
201407290950 METAR EGLL 290950Z 35006KT CAVOK 22/11 Q1016 NOSIG=
201407290920 METAR COR EGLL 290920Z 02006KT 350V050 CAVOK 21/11 Q1017
                        NOSIG=
201407290850 METAR EGLL 290850Z 01006KT 330V050 CAVOK 21/11 Q1017 NOSIG=
201407290820 METAR EGLL 290820Z 01006KT 330V050 CAVOK 21/12 Q1016=
201407290750 METAR EGLL 290750Z 36006KT 320V050 CAVOK 19/13 Q1017=
201407290720 METAR COR EGLL 290720Z 35004KT 310V020 CAVOK 18/14 Q1017
                        NOSIG=
201407290650 METAR COR EGLL 290650Z 34006KT CAVOK 17/14 Q1017 NOSIG=
201407290620 METAR COR EGLL 290620Z 34004KT 300V020 CAVOK 16/14 Q1017
                        NOSIG=
201407290550 METAR EGLL 290550Z 35004KT 310V040 CAVOK 16/14 Q1017 NOSIG=
201407290520 METAR COR EGLL 290520Z 01004KT 320V060 CAVOK 16/13 Q1016
                        NOSIG=
201407290450 METAR EGLL 290450Z 35004KT CAVOK 16/14 Q1016 NOSIG=
201407290420 METAR COR EGLL 290420Z 35005KT 310V020 CAVOK 16/14 Q1016
                        NOSIG=
201407290350 METAR COR EGLL 290350Z 35005KT 320V020 CAVOK 16/14 Q1016
                        NOSIG=
201407290320 METAR COR EGLL 290320Z 33006KT CAVOK 16/14 Q1017 NOSIG=
201407290250 METAR EGLL 290250Z 34004KT 300V010 CAVOK 16/14 Q1017 NOSIG=
201407290220 METAR EGLL 290220Z 34004KT 290V020 CAVOK 16/14 Q1017=
201407290150 METAR COR EGLL 290150Z 33004KT 300V020 CAVOK 16/13 Q1017
                        NOSIG=
201407290120 METAR COR EGLL 290120Z 34004KT 300V010 CAVOK 16/13 Q1017
                        NOSIG=
201407290050 METAR EGLL 290050Z 35004KT CAVOK 17/13 Q1017 NOSIG=
201407290020 METAR COR EGLL 290020Z 35004KT 330V030 CAVOK 17/13 Q1017
                        NOSIG=
201407282350 METAR COR EGLL 282350Z 35005KT CAVOK 17/12 Q1017 NOSIG=
201407282320 METAR COR EGLL 282320Z 36005KT 330V040 CAVOK 18/12 Q1017
                        NOSIG=
201407282250 METAR EGLL 282250Z 36004KT 320V050 CAVOK 18/13 Q1017 NOSIG=
201407282220 METAR COR EGLL 282220Z 36004KT 310V030 CAVOK 18/13 Q1017
                        NOSIG=
201407282150 METAR COR EGLL 282150Z 36004KT 320V040 CAVOK 18/14 Q1017
                        NOSIG=
201407282120 METAR COR EGLL 282120Z 34005KT 320V020 CAVOK 19/14 Q1017
                        NOSIG=
201407282050 METAR EGLL 282050Z 34004KT 310V010 CAVOK 19/14 Q1017 NOSIG=
201407282020 METAR COR EGLL 282020Z 35004KT CAVOK 19/15 Q1016 NOSIG=
201407281950 METAR COR EGLL 281950Z 35004KT 9999 FEW030 19/15 Q1016 NOSIG=
201407281920 METAR COR EGLL 281920Z 36005KT 330V030 9999 FEW030 19/15
                        Q1016 NOSIG=
201407281850 METAR EGLL 281850Z 35004KT 300V020 9999 FEW030 19/15 Q1016
                        NOSIG=
201407281820 METAR COR EGLL 281820Z 35004KT 9999 FEW030 19/15 Q1016 NOSIG=
201407281750 METAR EGLL 281750Z 33005KT 300V010 9999 -SHRA FEW030 19/16
                        Q1016=
201407281720 METAR COR EGLL 281720Z 34004KT 310V030 9999 FEW020 19/15
                        Q1016 NOSIG=
201407281650 METAR COR EGLL 281650Z VRB03KT 9999 FEW040 19/15 Q1016 NOSIG=
201407281620 METAR COR EGLL 281620Z 29005KT 260V320 9999 FEW043 18/15
                        Q1016 NOSIG=
201407281550 METAR EGLL 281550Z 36007KT 8000 -SHRA SCT043CB 17/15 Q1016
                        RESHRA TEMPO SHRA=
201407281520 METAR COR EGLL 281520Z 01009KT 9999 -SHRA SCT043 19/12 Q1016
                        TEMPO SHRA=
201407281450 METAR COR EGLL 281450Z 04007KT 9999 VCSH SCT040 21/12 Q1015
                        TEMPO SHRA=
201407281420 METAR COR EGLL 281420Z 04006KT 330V090 9999 VCSH SCT040 22/09
                        Q1015 NOSIG=
201407281350 METAR COR EGLL 281350Z 09005KT 360V160 9999 FEW040 22/10
                        Q1015 NOSIG=
201407281320 METAR COR EGLL 281320Z 07006KT 010V110 9999 FEW040 21/10
                        Q1016 NOSIG=
201407281250 METAR EGLL 281250Z 07007KT 030V090 9999 FEW040 20/12 Q1016=
201407281220 METAR COR EGLL 281220Z 08010KT 9999 FEW040 21/10 Q1015 NOSIG=
201407281150 METAR COR EGLL 281150Z 09009KT 9999 FEW035 22/10 Q1015 NOSIG=
201407281120 METAR COR EGLL 281120Z VRB03KT 9999 FEW032 SCT043 21/13 Q1015
                        NOSIG=
201407281050 METAR COR EGLL 281050Z 01004KT 320V060 9999 FEW023 SCT032
                        20/14 Q1015 NOSIG=
201407281020 METAR COR EGLL 281020Z VRB03KT 9999 FEW028 19/14 Q1015 NOSIG=
201407280950 METAR COR EGLL 280950Z VRB03KT 9999 FEW022 FEW052CB 19/13
                        Q1015 NOSIG=
201407280920 METAR COR EGLL 280920Z 04004KT 350V090 9999 FEW012 FEW045CB
                        18/14 Q1015 NOSIG=
201407280850 METAR COR EGLL 280850Z 06004KT 020V090 9999 FEW012 SCT053CB
                        17/13 Q1015 NOSIG=
201407280820 METAR COR EGLL 280820Z VRB03KT 9999 5000W -SHRA VCTS FEW015
                        SCT037CB 15/14 Q1015 RETS TEMPO SHRA=
201407280750 METAR EGLL 280750Z 02004KT 310V100 9999 5000N -TSRA FEW017
                        SCT048CB 15/13 Q1015 TEMPO SHRA=
201407280720 METAR COR EGLL 280720Z 35006KT 290V020 9999 4000W -TSRA FEW017
                        SCT048CB 15/13 Q1015 RETS RERA TEMPO
                        TSRA=
201407280650 METAR COR EGLL 280650Z 02007KT 340V040 9999 3500N TSRA FEW009
                        SCT020CB 14/13 Q1015 TEMPO 3500 +TSRA=
201407280620 METAR COR EGLL 280620Z 36008KT 330V030 9999 4000N TSRA BKN027CB
                        SCT032 16/12 Q1015 TEMPO 4000 +TSRA=
201407280550 METAR EGLL 280550Z 34006KT 300V010 9999 VCSH SCT025CB SCT029
                        16/11 Q1015 TEMPO 4000 +TSRA=
201407280520 METAR EGLL 280520Z AUTO 35006KT 320V020 9999 VCTS BKN022///
                        //////CB 16/11 Q1015=
201407280450 METAR COR EGLL 280450Z 35005KT 300V020 9999 SCT022CB BKN023
                        17/11 Q1014 TEMPO 4000 +TSRA=
201407280420 METAR COR EGLL 280420Z 02007KT 340V060 9999 SCT020CB BKN023
                        17/10 Q1014 TEMPO 4000 +TSRA=
201407280350 METAR EGLL 280350Z 01006KT 340V050 9999 FEW019CB 17/10 Q1014
                        TEMPO 4000 +TSRA=
201407280320 METAR COR EGLL 280320Z 36007KT 340V040 9999 FEW018 17/10
                        Q1014 NOSIG=
201407280250 METAR COR EGLL 280250Z 36007KT 330V050 9999 FEW018 17/10
                        Q1014 NOSIG=
201407280220 METAR EGLL 280220Z 36006KT 340V050 CAVOK 18/10 Q1014=
201407280150 METAR EGLL 280150Z 36006KT 320V040 CAVOK 18/10 Q1014 NOSIG=
201407280120 METAR COR EGLL 280120Z 35005KT 320V020 CAVOK 18/11 Q1015
                        NOSIG=
201407280050 METAR EGLL 280050Z 32005KT CAVOK 18/12 Q1015 NOSIG=
201407280020 METAR COR EGLL 280020Z 31004KT CAVOK 19/13 Q1015 NOSIG=
201407272350 METAR EGLL 272350Z 29004KT CAVOK 19/13 Q1015 NOSIG=
201407272320 METAR COR EGLL 272320Z 29005KT CAVOK 19/13 Q1015 NOSIG=
201407272250 METAR COR EGLL 272250Z 29006KT CAVOK 19/13 Q1016 NOSIG=
201407272220 METAR COR EGLL 272220Z 29006KT CAVOK 21/12 Q1016 NOSIG=
201407272150 METAR EGLL 272150Z 29005KT CAVOK 21/11 Q1016 NOSIG=
201407272120 METAR COR EGLL 272120Z 31004KT CAVOK 22/10 Q1016 NOSIG=
201407272050 METAR EGLL 272050Z 31004KT CAVOK 22/10 Q1016 NOSIG=
201407272020 METAR COR EGLL 272020Z 31004KT CAVOK 22/10 Q1016 NOSIG=
201407271950 METAR EGLL 271950Z 32005KT 290V010 9999 FEW035 23/10 Q1015
                        NOSIG=
201407271920 METAR COR EGLL 271920Z 31005KT 9999 FEW035 23/10 Q1015 NOSIG=
201407271850 METAR EGLL 271850Z 31005KT CAVOK 23/10 Q1015=
201407271820 METAR COR EGLL 271820Z 31006KT CAVOK 24/09 Q1015 NOSIG=
201407271750 METAR COR EGLL 271750Z 29006KT CAVOK 24/08 Q1015 NOSIG=
201407271720 METAR COR EGLL 271720Z 30004KT 250V340 CAVOK 24/08 Q1015
                        NOSIG=
201407271650 METAR EGLL 271650Z 28007KT 240V320 CAVOK 24/08 Q1015 NOSIG=
201407271620 METAR COR EGLL 271620Z 31007KT 270V350 CAVOK 25/08 Q1016
                        NOSIG=
201407271550 METAR EGLL 271550Z 27010KT CAVOK 24/09 Q1016 NOSIG=
201407271520 METAR COR EGLL 271520Z 26009KT 220V310 CAVOK 24/10 Q1016
                        NOSIG=
201407271450 METAR COR EGLL 271450Z 29007KT 230V010 CAVOK 25/11 Q1016
                        NOSIG=
201407271420 METAR COR EGLL 271420Z 30007KT 260V010 CAVOK 25/11 Q1016
                        NOSIG=
201407271350 METAR EGLL 271350Z 35005KT 280V050 CAVOK 25/11 Q1016 NOSIG=
201407271320 METAR COR EGLL 271320Z 33005KT 220V030 CAVOK 25/10 Q1017
                        NOSIG=
201407271250 METAR EGLL 271250Z VRB05KT CAVOK 24/10 Q1017 NOSIG=
201407271220 METAR COR EGLL 271220Z 30006KT 240V360 CAVOK 24/09 Q1017
                        NOSIG=
201407271150 METAR EGLL 271150Z VRB04KT CAVOK 23/11 Q1017=
201407271120 METAR COR EGLL 271120Z 34005KT 270V020 CAVOK 23/11 Q1017
                        NOSIG=
201407271050 METAR EGLL 271050Z 35006KT 310V030 CAVOK 23/12 Q1018 NOSIG=
201407271020 METAR COR EGLL 271020Z 35005KT 290V050 CAVOK 22/12 Q1018
                        NOSIG=
201407270950 METAR COR EGLL 270950Z 36005KT 320V050 9999 FEW042 21/12
                        Q1018 NOSIG=
201407270920 METAR EGLL 270920Z 34007KT 9999 SCT042 20/12 Q1018=
201407270850 METAR COR EGLL 270850Z 01005KT 330V040 9999 FEW042 20/12
                        Q1018 NOSIG=
201407270820 METAR COR EGLL 270820Z 36006KT 310V030 9999 FEW045 19/13
                        Q1018 NOSIG=
201407270750 METAR EGLL 270750Z 33007KT 290V020 9999 FEW045 20/14 Q1018
                        NOSIG=
201407270720 METAR COR EGLL 270720Z 35006KT 310V040 9999 FEW045 19/14
                        Q1018 NOSIG=
201407270650 METAR COR EGLL 270650Z 33007KT 9999 FEW046 19/14 Q1017 NOSIG=
201407270620 METAR COR EGLL 270620Z 34005KT 310V020 CAVOK 19/15 Q1017
                        NOSIG=
201407270550 METAR EGLL 270550Z VRB03KT 9999 FEW048 19/15 Q1017 NOSIG=
201407270520 METAR COR EGLL 270520Z 31003KT CAVOK 19/15 Q1017 NOSIG=
201407270450 METAR COR EGLL 270450Z 29003KT CAVOK 19/15 Q1017 NOSIG=
201407270420 METAR COR EGLL 270420Z VRB02KT CAVOK 19/15 Q1016 NOSIG=
201407270350 METAR EGLL 270350Z 30004KT CAVOK 19/15 Q1016 NOSIG=
201407270320 METAR COR EGLL 270320Z 28005KT CAVOK 19/14 Q1016 NOSIG=
201407270250 METAR COR EGLL 270250Z 28007KT CAVOK 19/14 Q1016 NOSIG=
201407270220 METAR COR EGLL 270220Z 29005KT CAVOK 19/14 Q1016 NOSIG=
201407270150 METAR COR EGLL 270150Z 29005KT CAVOK 20/14 Q1016 NOSIG=
201407270120 METAR EGLL 270120Z AUTO 26004KT 9999 NCD 20/14 Q1016=
201407270050 METAR EGLL 270050Z AUTO 26005KT 9999 NCD 20/14 Q1017=
201407270020 METAR EGLL 270020Z AUTO 27003KT 9999 NCD 20/14 Q1017=
201407262350 METAR COR EGLL 262350Z 30005KT CAVOK 21/14 Q1017 NOSIG=
201407262320 METAR EGLL 262320Z 30005KT CAVOK 22/13 Q1016=
201407262250 METAR COR EGLL 262250Z 29007KT CAVOK 23/14 Q1016 NOSIG=
201407262220 METAR COR EGLL 262220Z 29005KT CAVOK 24/13 Q1016 NOSIG=
201407262150 METAR COR EGLL 262150Z 30004KT CAVOK 25/12 Q1016 NOSIG=
201407262120 METAR COR EGLL 262120Z 32003KT CAVOK 26/11 Q1016 NOSIG=
201407262050 METAR EGLL 262050Z 30003KT CAVOK 26/11 Q1016 NOSIG=
201407262020 METAR COR EGLL 262020Z 31004KT CAVOK 26/11 Q1016 NOSIG=
201407261950 METAR COR EGLL 261950Z VRB03KT CAVOK 27/11 Q1016 NOSIG=
201407261920 METAR COR EGLL 261920Z 30005KT CAVOK 27/11 Q1016 NOSIG=
201407261850 METAR EGLL 261850Z 31004KT CAVOK 27/10 Q1016 NOSIG=
201407261820 METAR COR EGLL 261820Z 30005KT CAVOK 27/11 Q1015 NOSIG=
201407261750 METAR COR EGLL 261750Z 30006KT 9999 FEW070TCU 27/11 Q1015
                        NOSIG=
201407261720 METAR COR EGLL 261720Z 36004KT 310V120 9999 FEW070TCU 28/11
                        Q1015 NOSIG=
201407261650 METAR COR EGLL 261650Z 35006KT 310V020 9999 FEW065TCU 28/12
                        Q1015 NOSIG=
201407261620 METAR COR EGLL 261620Z 33004KT 270V050 9999 FEW066TCU 28/12
                        Q1015 NOSIG=
201407261550 METAR EGLL 261550Z 01004KT 290V060 9999 FEW070TCU 28/11 Q1015
                        NOSIG=
201407261520 METAR COR EGLL 261520Z 35005KT 300V060 9999 FEW060TCU 28/11
                        Q1016 NOSIG=
201407261450 METAR COR EGLL 261450Z 32005KT 260V360 9999 FEW060TCU 28/11
                        Q1016 NOSIG=
201407261420 METAR COR EGLL 261420Z 34005KT 290V040 CAVOK 28/11 Q1016
                        NOSIG=
201407261350 METAR EGLL 261350Z 32005KT 270V060 CAVOK 27/12 Q1016 NOSIG=
201407261320 METAR COR EGLL 261320Z 01005KT 300V060 CAVOK 27/11 Q1016
                        NOSIG=
201407261250 METAR EGLL 261250Z 05005KT 360V130 CAVOK 28/11 Q1016 NOSIG=
201407261220 METAR COR EGLL 261220Z 02006KT 290V080 CAVOK 28/12 Q1016
                        NOSIG=
201407261150 METAR EGLL 261150Z 02007KT 340V080 CAVOK 27/13 Q1016 NOSIG=
201407261120 METAR COR EGLL 261120Z 35007KT 300V050 CAVOK 26/13 Q1017
                        NOSIG=
201407261050 METAR EGLL 261050Z 33006KT 280V020 CAVOK 26/13 Q1017 NOSIG=
201407261020 METAR COR EGLL 261020Z 01007KT 320V060 CAVOK 25/14 Q1017
                        NOSIG=
201407260950 METAR EGLL 260950Z 02006KT 340V050 CAVOK 24/14 Q1017 NOSIG=
201407260920 METAR COR EGLL 260920Z 36005KT 310V040 CAVOK 23/15 Q1017
                        NOSIG=
201407260850 METAR EGLL 260850Z 36005KT 320V040 CAVOK 22/14 Q1017 NOSIG=
201407260820 METAR COR EGLL 260820Z 36004KT 320V050 CAVOK 21/15 Q1017
                        NOSIG=
201407260750 METAR COR EGLL 260750Z 36004KT 310V060 CAVOK 20/15 Q1017
                        NOSIG=
201407260720 METAR COR EGLL 260720Z 35005KT 310V020 CAVOK 20/15 Q1017
                        NOSIG=
201407260650 METAR COR EGLL 260650Z 36005KT 330V040 CAVOK 19/14 Q1017
                        NOSIG=
201407260620 METAR COR EGLL 260620Z 36005KT CAVOK 19/14 Q1017 NOSIG=
201407260550 METAR COR EGLL 260550Z 01004KT 320V040 CAVOK 18/14 Q1017
                        NOSIG=
201407260520 METAR COR EGLL 260520Z 35004KT 320V040 CAVOK 18/14 Q1017
                        NOSIG=
201407260450 METAR COR EGLL 260450Z VRB03KT CAVOK 18/14 Q1017 NOSIG=
201407260420 METAR COR EGLL 260420Z 36003KT CAVOK 18/14 Q1016 NOSIG=
201407260350 METAR EGLL 260350Z VRB03KT 9999 FEW040 18/14 Q1016 NOSIG=
201407260320 METAR COR EGLL 260320Z 35004KT 320V030 CAVOK 18/15 Q1016
                        NOSIG=
201407260250 METAR COR EGLL 260250Z 35004KT 310V030 CAVOK 18/15 Q1016
                        NOSIG=
201407260220 METAR COR EGLL 260220Z 34004KT 310V030 CAVOK 18/16 Q1016
                        NOSIG=
201407260150 METAR COR EGLL 260150Z 35004KT 330V030 CAVOK 19/16 Q1017
                        NOSIG=
201407260120 METAR EGLL 260120Z AUTO 03004KT 9999 NCD 19/16 Q1017=
201407260050 METAR EGLL 260050Z AUTO 35004KT 9999 NCD 19/16 Q1017=
201407260020 METAR EGLL 260020Z AUTO 35004KT 9999 NCD 19/16 Q1017=
201407252350 METAR COR EGLL 252350Z 35004KT 320V020 9999 FEW030 19/16
                        Q1017 NOSIG=
201407252320 METAR COR EGLL 252320Z VRB03KT CAVOK 20/16 Q1017 NOSIG=
201407252250 METAR EGLL 252250Z 03004KT CAVOK 20/16 Q1017 NOSIG=
201407252220 METAR COR EGLL 252220Z 04004KT 360V060 CAVOK 20/16 Q1017
                        NOSIG=
201407252150 METAR COR EGLL 252150Z 05006KT CAVOK 21/16 Q1017 NOSIG=
201407252120 METAR COR EGLL 252120Z 04005KT 010V070 CAVOK 21/16 Q1016
                        NOSIG=
201407252050 METAR EGLL 252050Z 02005KT 340V050 CAVOK 21/17 Q1016 NOSIG=
201407252020 METAR COR EGLL 252020Z VRB03KT CAVOK 22/16 Q1016 NOSIG=
201407251950 METAR COR EGLL 251950Z 34004KT 320V020 9999 FEW032 21/16
                        Q1016 NOSIG=
201407251920 METAR COR EGLL 251920Z VRB03KT 9999 FEW032 21/16 Q1016 NOSIG=
201407251850 METAR EGLL 251850Z 36004KT 330V040 9999 FEW032 21/16 Q1016
                        NOSIG=
201407251820 METAR COR EGLL 251820Z 04005KT 340V090 9999 VCSH FEW019CB
                        21/16 Q1016 NOSIG=
201407251750 METAR COR EGLL 251750Z VRB02KT 9999 FEW037CB 20/16 Q1016
                        NOSIG=
201407251720 METAR COR EGLL 251720Z 09009KT 9999 -SHRA FEW038CB 21/17
                        Q1016 TEMPO SHRA=
201407251650 METAR COR EGLL 251650Z VRB02KT 9999 FEW020CB 22/16 Q1016
                        TEMPO +SHRA=
201407251620 METAR EGLL 251620Z 27005KT 9999 FEW020CB 21/17 Q1016=
201407251550 METAR COR EGLL 251550Z 27006KT 9999 FEW016CB 21/16 Q1016
                        TEMPO SHRA=
201407251520 METAR EGLL 251520Z 24005KT 9999 FEW023CB 21/17 Q1017=
201407251450 METAR EGLL 251450Z 22005KT 170V240 9999 FEW032CB 22/17 Q1017
                        TEMPO SHRA=
201407251420 METAR COR EGLL 251420Z VRB03KT 9999 FEW023CB 22/17 Q1017
                        TEMPO SHRA=
201407251350 METAR COR EGLL 251350Z VRB04KT 9999 VCSH FEW023CB 21/17 Q1017
                        TEMPO TSRA=
201407251320 METAR COR EGLL 251320Z 14008KT 9999 5000W -SHRA VCTS SCT014CB
                        19/16 Q1017 RETS RERA TEMPO 4000
                        TSRA=
201407251250 METAR COR EGLL 251250Z 08014KT 9999 5000SE TSRA FEW005 SCT040CB
                        18/16 Q1017 RETS RERA TEMPO 4000=
201407251220 METAR EGLL 251220Z 36004KT 300V090 9999 SCT044CB 26/14 Q1016=
201407251150 METAR COR EGLL 251150Z 07007KT 010V120 9999 FEW045CB 26/14
                        Q1016 TEMPO 4000 +TSRA=
201407251120 METAR COR EGLL 251120Z 09008KT 040V110 9999 SCT041 27/14
                        Q1017 TEMPO TSRA=
201407251050 METAR EGLL 251050Z 06006KT 010V090 9999 SCT040 25/15 Q1017=
201407251020 METAR COR EGLL 251020Z 03005KT 330V080 9999 FEW032 25/15
                        Q1017 NOSIG=
201407250950 METAR COR EGLL 250950Z 04006KT 320V110 9999 FEW032 24/16
                        Q1017 NOSIG=
201407250920 METAR COR EGLL 250920Z 01006KT 310V050 9999 FEW028 23/16
                        Q1018 NOSIG=
201407250850 METAR EGLL 250850Z 01006KT 330V050 9999 FEW016 21/16 Q1018
                        NOSIG=
201407250820 METAR COR EGLL 250820Z 36006KT 320V040 9999 SCT012 20/16
                        Q1018 NOSIG=
201407250750 METAR COR EGLL 250750Z 36006KT 310V040 9999 BKN011 19/16
                        Q1018 BECMG SCT012=
201407250720 METAR COR EGLL 250720Z 02005KT 340V060 9999 BKN010 19/16
                        Q1018 BECMG SCT012=
201407250650 METAR EGLL 250650Z 02004KT 330V060 9000 SCT009 18/16 Q1017
                        NOSIG=
201407250620 METAR COR EGLL 250620Z 36004KT 330V070 9000 FEW007 17/15
                        Q1017 TEMPO SCT007 BKN010=
201407250550 METAR EGLL 250550Z 03004KT 340V080 9000 FEW007 17/15 Q1017
                        TEMPO SCT007 BKN010=
201407250520 METAR COR EGLL 250520Z 03005KT 350V060 9000 FEW008 17/15
                        Q1017 TEMPO SCT008 BKN010=
201407250450 METAR EGLL 250450Z 03005KT CAVOK 17/15 Q1017 TEMPO BKN010=
201407250420 METAR COR EGLL 250420Z 03005KT 360V060 CAVOK 16/15 Q1017
                        NOSIG=
201407250350 METAR EGLL 250350Z 02005KT 340V050 CAVOK 17/15 Q1017 NOSIG=
201407250320 METAR COR EGLL 250320Z 35004KT CAVOK 17/15 Q1017 NOSIG=
201407250250 METAR COR EGLL 250250Z VRB03KT CAVOK 17/14 Q1017 NOSIG=
201407250220 METAR COR EGLL 250220Z VRB03KT CAVOK 18/14 Q1017 NOSIG=
201407250150 METAR EGLL 250150Z 03005KT 350V060 CAVOK 18/14 Q1017 NOSIG=
201407250120 METAR EGLL 250120Z AUTO 03005KT 360V060 9999 NCD 18/13 Q1017=
201407250050 METAR EGLL 250050Z AUTO 04005KT 9999 NCD 19/13 Q1017=
201407250020 METAR EGLL 250020Z AUTO 04006KT 340V080 9999 NCD 19/13 Q1017=
201407242350 METAR COR EGLL 242350Z 04006KT 010V080 CAVOK 20/13 Q1017
                        NOSIG=
201407242320 METAR COR EGLL 242320Z 05006KT 010V080 CAVOK 20/13 Q1017
                        NOSIG=
201407242250 METAR COR EGLL 242250Z 05005KT CAVOK 21/13 Q1018 NOSIG=
201407242220 METAR COR EGLL 242220Z 05006KT 010V070 CAVOK 21/13 Q1018
                        NOSIG=
201407242150 METAR EGLL 242150Z 05006KT CAVOK 22/13 Q1018 NOSIG=
201407242120 METAR COR EGLL 242120Z 06008KT CAVOK 22/13 Q1018 NOSIG=
201407242050 METAR EGLL 242050Z 06010KT CAVOK 23/13 Q1017 NOSIG=
201407242020 METAR COR EGLL 242020Z 07008KT CAVOK 24/11 Q1017 NOSIG=
201407241950 METAR EGLL 241950Z 08006KT CAVOK 23/11 Q1017 NOSIG=
201407241920 METAR COR EGLL 241920Z 07008KT CAVOK 25/08 Q1016 NOSIG=
201407241850 METAR EGLL 241850Z 07009KT CAVOK 26/07 Q1016 NOSIG=
201407241820 METAR COR EGLL 241820Z 08011KT CAVOK 26/08 Q1016 NOSIG=
201407241750 METAR COR EGLL 241750Z 07010KT CAVOK 27/10 Q1016 NOSIG=
201407241720 METAR COR EGLL 241720Z 08009KT CAVOK 27/11 Q1016 NOSIG=
201407241650 METAR COR EGLL 241650Z 08009KT 040V120 CAVOK 28/10 Q1016
                        NOSIG=
201407241620 METAR COR EGLL 241620Z 07010KT CAVOK 28/10 Q1016 NOSIG=
201407241550 METAR COR EGLL 241550Z 10012KT CAVOK 28/10 Q1016 NOSIG=
201407241520 METAR COR EGLL 241520Z 10013KT CAVOK 28/11 Q1016 NOSIG=
201407241450 METAR EGLL 241450Z 10013G24KT 060V130 CAVOK 29/11 Q1016 NOSIG=
201407241420 METAR COR EGLL 241420Z 10013KT CAVOK 28/12 Q1016 NOSIG=
201407241350 METAR COR EGLL 241350Z 08009KT 050V130 CAVOK 28/12 Q1016
                        NOSIG=
201407241320 METAR COR EGLL 241320Z 07006KT 040V130 CAVOK 28/12 Q1016
                        NOSIG=
201407241250 METAR EGLL 241250Z 07010KT 040V130 9999 FEW048 28/12 Q1017
                        NOSIG=
201407241220 METAR EGLL 241220Z 06009KT 010V110 9999 SCT048 27/14 Q1017=
201407241150 METAR EGLL 241150Z 07010KT 9999 SCT046 28/15 Q1017 NOSIG=
201407241120 METAR COR EGLL 241120Z 08009KT 9999 FEW043 27/14 Q1017 NOSIG=
201407241050 METAR COR EGLL 241050Z 05008KT 010V080 9999 FEW038 26/15
                        Q1017 NOSIG=
201407241020 METAR COR EGLL 241020Z 05006KT 340V110 CAVOK 26/15 Q1018
                        NOSIG=
201407240950 METAR EGLL 240950Z 01006KT 320V050 CAVOK 24/15 Q1018 NOSIG=
201407240920 METAR COR EGLL 240920Z 02007KT 340V070 CAVOK 23/16 Q1018
                        NOSIG=
201407240850 METAR COR EGLL 240850Z 05007KT 010V080 CAVOK 22/16 Q1018
                        NOSIG=
201407240820 METAR COR EGLL 240820Z 03006KT 340V080 CAVOK 21/16 Q1018
                        NOSIG=
201407240750 METAR COR EGLL 240750Z 02007KT 340V050 9999 FEW012 20/16
                        Q1018 NOSIG=
201407240720 METAR COR EGLL 240720Z 03007KT 350V070 9999 SCT010 19/16
                        Q1018 NOSIG=
201407240650 METAR COR EGLL 240650Z 04007KT 010V070 9999 BKN008 18/16
                        Q1018 BECMG SCT012=
201407240620 METAR COR EGLL 240620Z 03006KT 340V060 9999 BKN008 18/15
                        Q1018 BECMG SCT010=
201407240550 METAR EGLL 240550Z 02006KT 350V050 9999 FEW012 17/15 Q1018
                        TEMPO FEW008 BKN010=
201407240520 METAR COR EGLL 240520Z 03006KT 360V070 9999 FEW008 17/14
                        Q1017 TEMPO BKN010=
201407240450 METAR EGLL 240450Z 03005KT 360V060 CAVOK 16/14 Q1017 NOSIG=
201407240420 METAR COR EGLL 240420Z 03005KT CAVOK 17/13 Q1017 NOSIG=
201407240350 METAR EGLL 240350Z 04005KT CAVOK 17/13 Q1017 NOSIG=
201407240320 METAR COR EGLL 240320Z 04005KT CAVOK 17/13 Q1017 NOSIG=
201407240250 METAR EGLL 240250Z 05006KT CAVOK 18/13 Q1017 NOSIG=
201407240220 METAR COR EGLL 240220Z 04006KT 020V080 CAVOK 18/13 Q1018
                        NOSIG=
201407240150 METAR EGLL 240150Z 04006KT 010V070 CAVOK 18/13 Q1018 NOSIG=
201407240120 METAR EGLL 240120Z AUTO 04006KT 9999 NCD 19/13 Q1018=
201407240050 METAR EGLL 240050Z AUTO 04006KT 9999 NCD 19/13 Q1018=
201407240020 METAR EGLL 240020Z AUTO 04006KT 9999 NCD 20/13 Q1018=
201407232350 METAR COR EGLL 232350Z 04005KT CAVOK 21/13 Q1018 NOSIG=
201407232320 METAR COR EGLL 232320Z 05006KT CAVOK 21/14 Q1018 NOSIG=
201407232250 METAR EGLL 232250Z 06007KT CAVOK 22/14 Q1018 NOSIG=
201407232220 METAR COR EGLL 232220Z 06008KT CAVOK 22/14 Q1018 NOSIG=
201407232150 METAR COR EGLL 232150Z 06008KT CAVOK 23/15 Q1018 NOSIG=
201407232120 METAR COR EGLL 232120Z 08007KT CAVOK 23/14 Q1018 NOSIG=
201407232050 METAR COR EGLL 232050Z 07008KT CAVOK 24/14 Q1018 NOSIG=
201407232020 METAR COR EGLL 232020Z 08007KT CAVOK 24/13 Q1018 NOSIG=
201407231950 METAR EGLL 231950Z 07010KT CAVOK 24/13 Q1018 NOSIG=
201407231920 METAR COR EGLL 231920Z 08009KT CAVOK 25/14 Q1018 NOSIG=
201407231850 METAR EGLL 231850Z 08011KT CAVOK 26/13 Q1017 NOSIG=
201407231820 METAR COR EGLL 231820Z 07012KT CAVOK 27/13 Q1017 NOSIG=
201407231750 METAR EGLL 231750Z 07011KT CAVOK 27/13 Q1017 NOSIG=
201407231720 METAR EGLL 231720Z AUTO 09009KT 9999 NCD 28/14 Q1017=
201407231650 METAR EGLL 231650Z 09011KT CAVOK 28/14 Q1017 NOSIG=
201407231620 METAR COR EGLL 231620Z 09011KT CAVOK 29/14 Q1017 NOSIG=
201407231550 METAR EGLL 231550Z 10012KT 060V130 CAVOK 28/13 Q1017 NOSIG=
201407231520 METAR COR EGLL 231520Z 07011KT 040V100 CAVOK 29/12 Q1017
                        NOSIG=
201407231450 METAR COR EGLL 231450Z 08013KT 9999 FEW049 29/14 Q1017 NOSIG=
201407231420 METAR COR EGLL 231420Z 08011KT 9999 FEW048 29/15 Q1018 NOSIG=
201407231350 METAR EGLL 231350Z 08008KT 040V110 9999 SCT042 27/16 Q1018
                        NOSIG=
201407231320 METAR COR EGLL 231320Z 06008KT 010V090 9999 SCT037 28/17
                        Q1018 NOSIG=
201407231250 METAR EGLL 231250Z 07008KT 030V110 9999 SCT036 27/17 Q1019
                        NOSIG=
201407231220 METAR COR EGLL 231220Z 04008KT 010V080 9999 BKN038 26/17
                        Q1019 NOSIG=
201407231150 METAR EGLL 231150Z 07010KT 040V110 9999 BKN030 25/16 Q1019
                        NOSIG=
201407231120 METAR COR EGLL 231120Z 06008KT 010V110 9999 SCT027 25/16
                        Q1020 NOSIG=
201407231050 METAR COR EGLL 231050Z 05008KT 360V090 9999 FEW025 24/16
                        Q1020 NOSIG=
201407231020 METAR COR EGLL 231020Z 05008KT 360V090 9999 FEW022 23/16
                        Q1020 NOSIG=
201407230950 METAR COR EGLL 230950Z 03009KT 360V060 9999 FEW020 22/15
                        Q1020 NOSIG=
201407230920 METAR COR EGLL 230920Z 04009KT 350V060 9999 FEW020 21/15
                        Q1021 NOSIG=
201407230850 METAR EGLL 230850Z 03007KT 340V070 9999 SCT016 20/15 Q1021
                        NOSIG=
201407230820 METAR COR EGLL 230820Z 04008KT 9999 SCT016 19/15 Q1021 NOSIG=
201407230750 METAR EGLL 230750Z 04008KT 360V070 9999 SCT015 19/15 Q1021
                        NOSIG=
201407230720 METAR COR EGLL 230720Z 05007KT 010V080 9999 FEW014 19/15
                        Q1021 NOSIG=
201407230650 METAR EGLL 230650Z 05007KT 010V080 9999 FEW012 18/15 Q1021
                        NOSIG=
201407230620 METAR COR EGLL 230620Z 04006KT 010V070 9999 FEW010 17/14
                        Q1021 NOSIG=
201407230550 METAR COR EGLL 230550Z VRB03KT 9999 FEW010 17/14 Q1022 NOSIG=
201407230520 METAR COR EGLL 230520Z VRB03KT 9999 FEW010 16/14 Q1022 NOSIG=
201407230450 METAR EGLL 230450Z 03004KT 350V060 CAVOK 16/14 Q1022 NOSIG=
201407230420 METAR COR EGLL 230420Z VRB03KT CAVOK 16/14 Q1022 NOSIG=
201407230350 METAR COR EGLL 230350Z 04004KT 010V080 CAVOK 16/14 Q1022
                        NOSIG=
201407230320 METAR COR EGLL 230320Z 02005KT 340V060 CAVOK 16/14 Q1022
                        NOSIG=
201407230250 METAR EGLL 230250Z 04005KT 360V070 CAVOK 16/14 Q1022 NOSIG=
201407230220 METAR COR EGLL 230220Z 02004KT 340V060 CAVOK 16/14 Q1022
                        NOSIG=
201407230150 METAR EGLL 230150Z 02005KT 340V050 CAVOK 16/14 Q1022 NOSIG=
201407230120 METAR EGLL 230120Z AUTO 03005KT 340V060 9999 NCD 17/15 Q1023=
201407230050 METAR EGLL 230050Z AUTO 02005KT 9999 NCD 17/15 Q1023=
201407230020 METAR EGLL 230020Z AUTO 04005KT 9999 NCD 18/15 Q1023=
201407222350 METAR COR EGLL 222350Z 02005KT CAVOK 18/15 Q1023 NOSIG=
201407222320 METAR COR EGLL 222320Z 03004KT 330V060 CAVOK 18/15 Q1023
                        NOSIG=
201407222250 METAR COR EGLL 222250Z 05005KT CAVOK 19/16 Q1023 NOSIG=
201407222220 METAR COR EGLL 222220Z 03005KT 360V070 CAVOK 19/16 Q1023
                        NOSIG=
201407222150 METAR EGLL 222150Z 04007KT 350V080 CAVOK 20/16 Q1023 NOSIG=
201407222120 METAR COR EGLL 222120Z 03006KT 350V070 CAVOK 21/16 Q1023
                        NOSIG=
201407222050 METAR EGLL 222050Z 05007KT CAVOK 21/16 Q1023 NOSIG=
201407222020 METAR COR EGLL 222020Z 04007KT CAVOK 22/16 Q1023 NOSIG=
201407221950 METAR COR EGLL 221950Z 03007KT 360V060 CAVOK 23/15 Q1022
                        NOSIG=
201407221920 METAR COR EGLL 221920Z 03006KT 350V060 CAVOK 24/15 Q1022
                        NOSIG=
201407221850 METAR COR EGLL 221850Z 03006KT 350V060 9999 FEW040 25/15
                        Q1022 NOSIG=
201407221820 METAR EGLL 221820Z 01007KT 330V050 9999 FEW040 25/15 Q1022=
201407221750 METAR COR EGLL 221750Z 01008KT 330V050 9999 FEW039 26/16
                        Q1022 NOSIG=
201407221720 METAR COR EGLL 221720Z 03006KT 330V070 9999 FEW041 26/15
                        Q1022 NOSIG=
201407221650 METAR EGLL 221650Z 04007KT 340V080 9999 FEW042 26/15 Q1022
                        NOSIG=
201407221620 METAR COR EGLL 221620Z 04006KT 360V080 9999 FEW042 27/15
                        Q1022 NOSIG=
201407221550 METAR EGLL 221550Z 04006KT 340V090 9999 FEW046 26/14 Q1022
                        NOSIG=
201407221520 METAR COR EGLL 221520Z 04007KT 360V080 9999 FEW047 27/14
                        Q1022 NOSIG=
201407221450 METAR EGLL 221450Z 04008KT 350V090 9999 FEW048 27/14 Q1022
                        NOSIG=
201407221420 METAR COR EGLL 221420Z 04007KT 340V070 9999 FEW048 27/14
                        Q1022 NOSIG=
201407221350 METAR EGLL 221350Z 04008KT 010V070 9999 FEW046 26/13 Q1022
                        NOSIG=
201407221320 METAR COR EGLL 221320Z 01008KT 320V050 9999 FEW044 27/14
                        Q1022 NOSIG=
201407221250 METAR EGLL 221250Z 02006KT 320V070 9999 FEW043 26/14 Q1022
                        NOSIG=
201407221220 METAR COR EGLL 221220Z 03007KT 350V090 9999 FEW044 25/14
                        Q1022 NOSIG=
201407221150 METAR EGLL 221150Z 03007KT 330V080 CAVOK 25/14 Q1023 NOSIG=
201407221120 METAR COR EGLL 221120Z 01006KT 310V070 CAVOK 24/14 Q1023
                        NOSIG=
201407221050 METAR EGLL 221050Z 03007KT 340V070 CAVOK 24/14 Q1023 NOSIG=
201407221020 METAR COR EGLL 221020Z 03006KT 320V070 CAVOK 23/14 Q1023
                        NOSIG=
201407220950 METAR EGLL 220950Z 03006KT 330V060 CAVOK 22/14 Q1023 NOSIG=
201407220920 METAR COR EGLL 220920Z 35007KT 310V030 CAVOK 21/14 Q1023
                        NOSIG=
201407220850 METAR EGLL 220850Z 04006KT 360V080 CAVOK 20/14 Q1023 NOSIG=
201407220820 METAR COR EGLL 220820Z 04006KT 350V070 9999 FEW020 20/15
                        Q1023 NOSIG=
201407220750 METAR COR EGLL 220750Z 02006KT 330V060 CAVOK 19/15 Q1023
                        NOSIG=
201407220720 METAR COR EGLL 220720Z 02004KT 330V060 CAVOK 18/14 Q1023
                        NOSIG=
201407220650 METAR COR EGLL 220650Z 01006KT 340V040 9999 FEW012 17/14
                        Q1023 NOSIG=
201407220620 METAR COR EGLL 220620Z 04006KT 360V070 8000 SCT010 16/14
                        Q1023 TEMPO BKN008=
201407220550 METAR EGLL 220550Z 36005KT CAVOK 16/14 Q1023 TEMPO BKN010=
201407220520 METAR COR EGLL 220520Z 01004KT 330V040 CAVOK 16/14 Q1023
                        TEMPO BKN010=
201407220450 METAR COR EGLL 220450Z 35004KT CAVOK 16/14 Q1022 TEMPO BKN009=
201407220420 METAR COR EGLL 220420Z 34004KT 310V010 CAVOK 16/14 Q1022
                        BECMG BKN009=
201407220350 METAR COR EGLL 220350Z 36003KT CAVOK 16/14 Q1022 BECMG BKN009=
201407220320 METAR COR EGLL 220320Z 36003KT CAVOK 17/14 Q1022 BECMG BKN008=
201407220250 METAR COR EGLL 220250Z VRB03KT CAVOK 17/15 Q1022 BECMG BKN008=
201407220220 METAR COR EGLL 220220Z VRB03KT CAVOK 17/14 Q1022 TEMPO BKN009=
201407220150 METAR COR EGLL 220150Z 04003KT CAVOK 18/15 Q1022 NOSIG=
201407220120 METAR EGLL 220120Z AUTO 01004KT 340V050 9999 NCD 18/15 Q1022=
201407220050 METAR EGLL 220050Z AUTO 35004KT 320V030 9999 NCD 19/14 Q1022=
201407220020 METAR EGLL 220020Z AUTO 02004KT 340V050 9999 NCD 19/14 Q1021=
201407212350 METAR EGLL 212350Z 36005KT CAVOK 20/13 Q1021 NOSIG=
201407212320 METAR COR EGLL 212320Z 35004KT CAVOK 20/13 Q1021 NOSIG=
201407212250 METAR EGLL 212250Z 35004KT 320V020 CAVOK 21/13 Q1021=
201407212220 METAR COR EGLL 212220Z 36004KT 320V020 CAVOK 21/13 Q1021
                        NOSIG=
201407212150 METAR EGLL 212150Z 34004KT 310V020 CAVOK 22/13 Q1021 NOSIG=
201407212120 METAR COR EGLL 212120Z 33005KT 290V010 CAVOK 23/13 Q1021
                        NOSIG=
201407212050 METAR COR EGLL 212050Z 32005KT 290V010 CAVOK 23/14 Q1021
                        NOSIG=
201407212020 METAR COR EGLL 212020Z 31005KT CAVOK 24/13 Q1020 NOSIG=
201407211950 METAR EGLL 211950Z 33006KT 280V360 9999 FEW048 25/13 Q1020
                        NOSIG=
201407211920 METAR COR EGLL 211920Z 33005KT CAVOK 25/14 Q1020 NOSIG=
201407211850 METAR COR EGLL 211850Z 35005KT 310V040 9999 FEW045 26/14
                        Q1020 NOSIG=
201407211820 METAR EGLL 211820Z 32007KT 9999 FEW045 25/14 Q1019=
201407211750 METAR EGLL 211750Z 35006KT 310V020 9999 FEW044 25/14 Q1019
                        NOSIG=
201407211720 METAR COR EGLL 211720Z 32007KT 290V010 9999 FEW043 26/14
                        Q1019 NOSIG=
201407211650 METAR COR EGLL 211650Z 32006KT 280V030 9999 FEW043 26/14
                        Q1019 NOSIG=
201407211620 METAR COR EGLL 211620Z 34005KT 270V040 CAVOK 26/14 Q1019
                        NOSIG=
201407211550 METAR EGLL 211550Z 32006KT 270V030 9999 FEW048 26/15 Q1019
                        NOSIG=
201407211520 METAR COR EGLL 211520Z 32008KT 280V350 9999 FEW046 26/14
                        Q1019 NOSIG=
201407211450 METAR EGLL 211450Z 35007KT 310V050 9999 FEW039 26/14 Q1019
                        NOSIG=
201407211420 METAR COR EGLL 211420Z 36007KT 310V040 9999 FEW035 26/14
                        Q1019 NOSIG=
201407211350 METAR EGLL 211350Z 33008KT 280V020 9999 FEW032 25/15 Q1019
                        NOSIG=
201407211320 METAR COR EGLL 211320Z 01007KT 300V040 9999 FEW033 24/16
                        Q1019 NOSIG=
201407211250 METAR EGLL 211250Z 30006KT 270V360 9999 FEW032 24/15 Q1019
                        NOSIG=
201407211220 METAR COR EGLL 211220Z 31006KT 280V350 9999 SCT030 23/16
                        Q1019 NOSIG=
201407211150 METAR EGLL 211150Z 34006KT 290V050 9999 FEW027 SCT031 23/16
                        Q1019 NOSIG=
201407211120 METAR COR EGLL 211120Z 35005KT 310V030 9999 SCT025 SCT028
                        22/16 Q1019 NOSIG=
201407211050 METAR EGLL 211050Z 01006KT 330V040 9999 BKN025 22/16 Q1019
                        NOSIG=
201407211020 METAR COR EGLL 211020Z 31007KT 270V350 9999 SCT024 22/16
                        Q1018 NOSIG=
201407210950 METAR EGLL 210950Z 32006KT 260V360 9999 FEW021 22/16 Q1018
                        NOSIG=
201407210920 METAR COR EGLL 210920Z 30007KT 260V350 9999 FEW016 21/16
                        Q1018 NOSIG=
201407210850 METAR COR EGLL 210850Z 31006KT 280V360 9999 SCT015 SCT027
                        20/16 Q1018 NOSIG=
201407210820 METAR COR EGLL 210820Z 30008KT 9999 SCT014 SCT028 19/15 Q1018
                        NOSIG=
201407210750 METAR COR EGLL 210750Z 30005KT 9999 BKN014 19/15 Q1018 BECMG
                        SCT025=
201407210720 METAR COR EGLL 210720Z 32004KT 290V010 9999 BKN014 18/15
                        Q1018 BECMG SCT022=
201407210650 METAR EGLL 210650Z 31004KT 9000 SCT013 SCT030 18/15 Q1017
                        TEMPO BKN013=
201407210620 METAR COR EGLL 210620Z 31005KT 280V350 7000 SCT009 17/15
                        Q1017 NOSIG=
201407210550 METAR COR EGLL 210550Z 29004KT 7000 FEW010 16/14 Q1017 NOSIG=
201407210520 METAR COR EGLL 210520Z 29003KT 7000 FEW010 16/14 Q1017 NOSIG=
201407210450 METAR EGLL 210450Z 30003KT 9000 FEW010 16/14 Q1016 TEMPO
                        BKN010=
201407210420 METAR COR EGLL 210420Z 31005KT 280V350 9000 NSC 16/14 Q1016
                        TEMPO BKN012=
201407210350 METAR COR EGLL 210350Z 34004KT 280V030 CAVOK 16/14 Q1016
                        TEMPO BKN012=
201407210320 METAR COR EGLL 210320Z 31005KT CAVOK 17/14 Q1015 NOSIG=
201407210250 METAR COR EGLL 210250Z 30007KT CAVOK 17/15 Q1015 NOSIG=
201407210220 METAR COR EGLL 210220Z 30005KT CAVOK 18/15 Q1015 NOSIG=
201407210150 METAR EGLL 210150Z AUTO 33005KT 290V360 9999 NCD 18/15 Q1015=
201407210120 METAR EGLL 210120Z AUTO 33005KT 300V010 9999 NCD 19/15 Q1015=
201407210050 METAR EGLL 210050Z AUTO VRB03KT 9999 NCD 19/16 Q1015=
201407210020 METAR COR EGLL 210020Z 31005KT CAVOK 19/16 Q1015 NOSIG=
201407202350 METAR COR EGLL 202350Z 31006KT CAVOK 20/17 Q1015 NOSIG=
201407202320 METAR COR EGLL 202320Z 31003KT 9999 SCT040 20/17 Q1014 NOSIG=
201407202250 METAR COR EGLL 202250Z 31003KT 9999 SCT040TCU SCT044 20/17
                        Q1014 NOSIG=
201407202220 METAR EGLL 202220Z 30003KT 9999 FEW070TCU 21/16 Q1014=
201407202150 METAR COR EGLL 202150Z VRB03KT 9999 FEW070TCU 22/16 Q1014
                        NOSIG=
201407202120 METAR COR EGLL 202120Z VRB03KT 9999 FEW040CB 22/16 Q1013
                        NOSIG=
201407202050 METAR EGLL 202050Z VRB03KT 9999 FEW040CB 22/16 Q1013 NOSIG=
201407202020 METAR COR EGLL 202020Z 05004KT 9999 FEW048CB 22/16 Q1013
                        NOSIG=
201407201950 METAR COR EGLL 201950Z VRB03KT 9999 FEW048 22/16 Q1012 NOSIG=
201407201920 METAR COR EGLL 201920Z 05006KT 010V080 9999 FEW048 23/16
                        Q1012 TEMPO SHRA=
201407201850 METAR COR EGLL 201850Z 34004KT 300V030 9999 FEW045CB 24/16
                        Q1012 TEMPO SHRA=
201407201820 METAR COR EGLL 201820Z 35006KT 320V020 9999 VCSH FEW045CB
                        24/15 Q1012 TEMPO SHRA=
201407201750 METAR COR EGLL 201750Z 36007KT 9999 VCSH FEW048CB 24/16 Q1011
                        NOSIG=
201407201720 METAR COR EGLL 201720Z 36005KT 320V030 9999 FEW044CB 25/15
                        Q1011 TEMPO SHRA=
201407201650 METAR COR EGLL 201650Z 31005KT 280V350 9999 FEW042CB 25/14
                        Q1011 TEMPO SHRA=
201407201620 METAR COR EGLL 201620Z 34004KT 290V020 9999 FEW041CB 25/14
                        Q1011 TEMPO SHRA=
201407201550 METAR EGLL 201550Z 30008KT 270V350 9999 FEW042 26/15 Q1011=
201407201520 METAR EGLL 201520Z 29008KT 9999 FEW044 26/15 Q1011=
201407201450 METAR COR EGLL 201450Z 29009KT 260V320 9999 FEW036 25/15
                        Q1010 TEMPO SHRA=
201407201420 METAR COR EGLL 201420Z 29008KT 270V330 9999 SCT036 24/15
                        Q1010 TEMPO SHRA=
201407201350 METAR COR EGLL 201350Z 31006KT 270V040 9999 SCT036 25/15
                        Q1010 TEMPO SHRA=
201407201320 METAR COR EGLL 201320Z 29006KT 250V330 9999 FEW028 25/16
                        Q1010 TEMPO SHRA=
201407201250 METAR EGLL 201250Z 29006KT 9999 FEW027 24/16 Q1011 TEMPO
                        SHRA=
201407201220 METAR COR EGLL 201220Z 31008KT 270V360 9999 FEW016 SCT022
                        22/17 Q1011 NOSIG=
201407201150 METAR COR EGLL 201150Z 30007KT 260V340 9999 FEW016 SCT020
                        22/17 Q1010 NOSIG=
201407201120 METAR COR EGLL 201120Z 32008KT 9999 SCT021 SCT023 22/17 Q1010
                        NOSIG=
201407201050 METAR COR EGLL 201050Z 31006KT 9999 SCT016 SCT022 21/17 Q1010
                        NOSIG=
201407201020 METAR COR EGLL 201020Z VRB03KT 9999 SCT014 SCT017 20/17 Q1010
                        NOSIG=
201407200950 METAR EGLL 200950Z AUTO 26005KT 210V320 //// R27R/P1500 R27L/P1500
                        OVC010 20/17 Q1010=
201407200920 METAR EGLL 200920Z AUTO 27006KT //// R27R/P1500 R27L/P1500
                        BKN009 19/17 Q1010=
201407200850 METAR COR EGLL 200850Z 27006KT 9000 SCT009 BKN010 19/17 Q1010
                        BECMG SCT013=
201407200820 METAR COR EGLL 200820Z 31005KT 270V350 9000 SCT008 BKN009
                        19/17 Q1010 BECMG SCT014=
201407200750 METAR EGLL 200750Z 28006KT 9000 SCT009 BKN011 19/17 Q1010
                        BECMG SCT014=
201407200720 METAR COR EGLL 200720Z 29005KT 250V340 9000 SCT007 BKN009
                        19/17 Q1010 BECMG SCT009 BKN014=
201407200650 METAR EGLL 200650Z 29006KT 9000 SCT007 SCT009 19/17 Q1009
                        TEMPO BKN010=
201407200620 METAR COR EGLL 200620Z 26005KT 210V290 9000 NSC 19/16 Q1009
                        TEMPO BKN006=
201407200550 METAR COR EGLL 200550Z 26004KT 9000 NSC 18/16 Q1009 NOSIG=
201407200520 METAR COR EGLL 200520Z 30004KT 280V340 9000 NSC 18/16 Q1008
                        NOSIG=
201407200450 METAR EGLL 200450Z 30004KT 9000 NSC 17/16 Q1008 NOSIG=
201407200420 METAR EGLL 200420Z 27004KT 9000 NSC 18/16 Q1008=
201407200350 METAR COR EGLL 200350Z 26007KT 8000 FEW033 18/17 Q1008 NOSIG=
201407200320 METAR EGLL 200320Z AUTO 27008KT 8000 FEW039 18/17 Q1008=
201407200250 METAR EGLL 200250Z 25005KT 8000 FEW025 19/17 Q1008 NOSIG=
201407200220 METAR EGLL 200220Z AUTO 22006KT //// FEW043 19/17 Q1008=
201407200150 METAR EGLL 200150Z AUTO 21006KT //// FEW034 BKN040 19/17
                        Q1008=
201407200120 METAR EGLL 200120Z AUTO 19006KT //// BKN022 BKN039 19/17
                        Q1008=
201407200050 METAR COR EGLL 200050Z 19005KT 9999 SCT021 19/17 Q1008 NOSIG=
201407200020 METAR COR EGLL 200020Z 20006KT 9999 SCT030 19/17 Q1008 NOSIG=
201407192350 METAR COR EGLL 192350Z 21005KT 9999 SCT026 19/17 Q1008 NOSIG=
201407192320 METAR COR EGLL 192320Z 20007KT 9999 SCT025 19/17 Q1008 NOSIG=
201407192250 METAR COR EGLL 192250Z 18006KT CAVOK 19/17 Q1008 NOSIG=
201407192220 METAR COR EGLL 192220Z 18006KT CAVOK 20/17 Q1008 NOSIG=
201407192150 METAR EGLL 192150Z 17006KT 130V260 CAVOK 20/17 Q1008 NOSIG=
201407192120 METAR COR EGLL 192120Z 21006KT 170V260 CAVOK 21/17 Q1008
                        NOSIG=
201407192050 METAR EGLL 192050Z 21008KT 170V260 CAVOK 21/17 Q1008 NOSIG=
201407192020 METAR COR EGLL 192020Z 21008KT 180V250 CAVOK 22/17 Q1007
                        NOSIG=
201407191950 METAR EGLL 191950Z 23011KT 9999 FEW035 22/17 Q1007=
201407191920 METAR COR EGLL 191920Z 21011KT 9999 FEW035CB 23/17 Q1007
                        NOSIG=
201407191850 METAR COR EGLL 191850Z 20011KT 160V240 9999 FEW035CB 24/16
                        Q1007 NOSIG=
201407191820 METAR COR EGLL 191820Z 18012KT 140V230 9999 FEW035CB 25/17
                        Q1007 TEMPO SHRA=
201407191750 METAR EGLL 191750Z 20011KT 170V240 9999 SCT039 27/17 Q1007
                        NOSIG=
201407191720 METAR COR EGLL 191720Z 17011KT 150V220 9999 FEW044 27/16
                        Q1007 NOSIG=
201407191650 METAR COR EGLL 191650Z 19011KT 150V240 CAVOK 27/16 Q1006
                        NOSIG=
201407191620 METAR COR EGLL 191620Z 20008KT 150V240 9999 FEW049 28/16
                        Q1006 NOSIG=
201407191550 METAR COR EGLL 191550Z 17008KT 140V230 9999 FEW048 28/16
                        Q1007 NOSIG=
201407191520 METAR COR EGLL 191520Z 18011KT 150V240 9999 FEW044 28/16
                        Q1007 NOSIG=
201407191450 METAR COR EGLL 191450Z 21008KT 160V250 9999 FEW040 28/17
                        Q1007 NOSIG=
201407191420 METAR COR EGLL 191420Z 19008KT 120V250 9999 FEW030 27/17
                        Q1007 TEMPO 4500 +SHRA=
201407191350 METAR EGLL 191350Z 20007KT 160V230 9999 FEW030 27/18 Q1007
                        TEMPO 4500 +SHRA=
201407191320 METAR COR EGLL 191320Z VRB04KT 9999 FEW028 25/18 Q1007 TEMPO
                        4500 +SHRA=
201407191250 METAR EGLL 191250Z 17006KT 130V210 9999 FEW026 25/19 Q1008
                        TEMPO 4500 +SHRA=
201407191220 METAR EGLL 191220Z 21005KT 170V270 9999 FEW022 24/19 Q1008=
201407191150 METAR COR EGLL 191150Z VRB03KT 9999 FEW026 25/19 Q1008 TEMPO
                        4000 +SHRA=
201407191120 METAR COR EGLL 191120Z 11005KT 9999 FEW042 24/19 Q1008 TEMPO
                        SHRA=
201407191050 METAR COR EGLL 191050Z 10004KT 070V160 9999 FEW042 23/19
                        Q1008 NOSIG=
201407191020 METAR COR EGLL 191020Z 10008KT 9999 FEW009 23/19 Q1008 TEMPO
                        SHRA=
201407190950 METAR COR EGLL 190950Z 08003KT 9999 FEW005 22/19 Q1008 TEMPO
                        SHRA=
201407190920 METAR COR EGLL 190920Z 09008KT 9999 -SHRA FEW019 21/19 Q1008
                        TEMPO SHRA=
201407190850 METAR COR EGLL 190850Z 11009KT 9999 FEW033 21/19 Q1009 NOSIG=
201407190820 METAR COR EGLL 190820Z 08004KT 030V130 9999 -SHRA FEW019
                        21/18 Q1009 NOSIG=
201407190750 METAR COR EGLL 190750Z 09008KT 9999 -SHRA FEW028CB 21/18
                        Q1009 TEMPO SHRA=
201407190720 METAR EGLL 190720Z 15005KT 120V180 9999 -SHRA FEW036 21/18
                        Q1009=
201407190650 METAR COR EGLL 190650Z 09005KT 9999 FEW032 21/18 Q1009 TEMPO
                        SHRA=
201407190620 METAR EGLL 190620Z 07004KT 030V110 CAVOK 21/18 Q1008=
201407190550 METAR EGLL 190550Z 35004KT 330V030 9999 FEW031 20/18 Q1007
                        TEMPO 4000 SHRA=
201407190520 METAR COR EGLL 190520Z 02004KT 340V050 9999 -RA FEW045 20/18
                        Q1008 TEMPO SHRA=
201407190450 METAR COR EGLL 190450Z VRB02KT 9999 -RA FEW048 20/18 Q1009
                        TEMPO SHRA=
201407190420 METAR COR EGLL 190420Z 18005KT 150V260 9999 VCTS -RA SCT030CB
                        21/17 Q1009 TEMPO 4000 TSRA=
201407190350 METAR EGLL 190350Z 15010KT 9999 SCT030 22/17 Q1010 RETS RERA
                        TEMPO 4000 TSRA=
201407190320 METAR COR EGLL 190320Z 15006KT 9999 VCSH FEW030CB 21/16 Q1009
                        TEMPO 4000 SHRA=
201407190250 METAR COR EGLL 190250Z 16009KT 110V220 9999 SHRA FEW070CB
                        20/17 Q1010 TEMPO 4000 TSRA=
201407190220 METAR COR EGLL 190220Z 26005KT CAVOK 20/17 Q1009 TEMPO 4000
                        TSRA=
201407190150 METAR COR EGLL 190150Z 29005KT 9999 VCTS NSC 20/17 Q1009
                        TEMPO 4000 TSRA=
201407190120 METAR EGLL 190120Z AUTO 30003KT 9999 NCD 20/16 Q1009=
201407190050 METAR EGLL 190050Z AUTO 00000KT 9999 NCD 21/16 Q1009=
201407190020 METAR EGLL 190020Z AUTO 08004KT 9999 NCD 21/15 Q1009=
201407182350 METAR COR EGLL 182350Z 05006KT 020V090 CAVOK 22/16 Q1010
                        TEMPO 4000 TSRA=
201407182320 METAR COR EGLL 182320Z VRB02KT CAVOK 23/15 Q1012 TEMPO 4000
                        TSRA=
201407182250 METAR COR EGLL 182250Z 08004KT 340V130 9999 VCTS FEW070CB
                        23/16 Q1012 TEMPO 4000 TSRA=
201407182220 METAR COR EGLL 182220Z VRB02KT 9999 VCTS FEW070CB 23/16 Q1012
                        TEMPO 4000 TSRA=
201407182150 METAR EGLL 182150Z 21005KT 160V240 9999 VCTS FEW070CB 24/17
                        Q1012 TEMPO 4000 TSRA=
201407182120 METAR COR EGLL 182120Z 15006KT 120V190 9999 NSC 24/16 Q1012
                        TEMPO 4000 TSRA=
201407182050 METAR COR EGLL 182050Z 14006KT 100V220 CAVOK 24/16 Q1012
                        TEMPO SHRA=
201407182020 METAR COR EGLL 182020Z 21005KT 150V270 CAVOK 25/16 Q1012
                        TEMPO TSRA=
201407181950 METAR EGLL 181950Z 24007KT CAVOK 25/15 Q1011 TEMPO 4000 TSRA=
201407181920 METAR COR EGLL 181920Z 24008KT CAVOK 26/15 Q1010 TEMPO 4000
                        TSRA=
201407181850 METAR COR EGLL 181850Z 22009KT CAVOK 26/15 Q1011 TEMPO 4000
                        TSRA=
201407181820 METAR COR EGLL 181820Z 20008KT 170V240 CAVOK 27/15 Q1011
                        TEMPO 4000 TSRA=
201407181750 METAR EGLL 181750Z 21008KT 170V240 CAVOK 28/15 Q1011 NOSIG=
201407181720 METAR COR EGLL 181720Z 21007KT 180V250 CAVOK 28/14 Q1011
                        NOSIG=
201407181650 METAR COR EGLL 181650Z 20007KT 150V250 CAVOK 29/13 Q1011
                        NOSIG=
201407181620 METAR COR EGLL 181620Z 22007KT 160V250 CAVOK 29/13 Q1011
                        NOSIG=
201407181550 METAR EGLL 181550Z 20007KT 110V250 CAVOK 29/13 Q1011=
201407181520 METAR EGLL 181520Z 21009KT CAVOK 29/14 Q1012=
201407181450 METAR COR EGLL 181450Z 21010KT CAVOK 29/15 Q1012 NOSIG=
201407181420 METAR COR EGLL 181420Z 21011KT CAVOK 29/16 Q1012 NOSIG=
201407181350 METAR COR EGLL 181350Z 21010KT 160V250 CAVOK 29/17 Q1012
                        NOSIG=
201407181320 METAR COR EGLL 181320Z 22011KT CAVOK 29/16 Q1012 NOSIG=
201407181250 METAR EGLL 181250Z 22011G22KT 180V250 CAVOK 30/17 Q1012 NOSIG=
201407181220 METAR COR EGLL 181220Z 16008KT 120V220 CAVOK 30/17 Q1012
                        NOSIG=
201407181150 METAR EGLL 181150Z 16011KT 9999 FEW044 29/18 Q1012 NOSIG=
201407181120 METAR COR EGLL 181120Z 15007KT 110V190 9999 FEW040 28/18
                        Q1012 NOSIG=
201407181050 METAR EGLL 181050Z 14009KT 9999 FEW032 27/19 Q1012=
201407181020 METAR COR EGLL 181020Z 13009KT 090V160 9999 FEW032 27/18
                        Q1013 NOSIG=
201407180950 METAR EGLL 180950Z 14010KT 9999 FEW025 26/18 Q1013=
201407180920 METAR COR EGLL 180920Z 11007KT 070V140 CAVOK 25/19 Q1013
                        NOSIG=
201407180850 METAR COR EGLL 180850Z 10009KT CAVOK 23/19 Q1013 NOSIG=
201407180820 METAR EGLL 180820Z 11008KT CAVOK 22/18 Q1013=
201407180750 METAR EGLL 180750Z 11011KT 9999 -SHRA NSC 21/18 Q1013 NOSIG=
201407180720 METAR COR EGLL 180720Z 10015KT CAVOK 22/18 Q1012 NOSIG=
201407180650 METAR COR EGLL 180650Z 09013KT 9000 NSC 21/18 Q1013 NOSIG=
201407180620 METAR COR EGLL 180620Z 08012KT 9000 NSC 21/18 Q1013 NOSIG=
201407180550 METAR COR EGLL 180550Z 08008KT 8000 NSC 20/18 Q1014 NOSIG=
201407180520 METAR COR EGLL 180520Z 06010KT 8000 NSC 19/17 Q1014 NOSIG=
201407180450 METAR COR EGLL 180450Z 06005KT 8000 -SHRA VCTS FEW014 SCT090CB
                        19/17 Q1014 TEMPO SHRA=
201407180420 METAR COR EGLL 180420Z VRB03KT 9000 -SHRA VCTS FEW016 SCT100CB
                        19/17 Q1016 TEMPO SHRA=
201407180350 METAR COR EGLL 180350Z 35006KT 9999 -SHRA VCTS FEW014 FEW120CB
                        18/17 Q1015 TEMPO SHRA=
201407180320 METAR COR EGLL 180320Z 06006KT 9999 VCTS FEW110CB 18/17 Q1014
                        NOSIG=
201407180250 METAR EGLL 180250Z 07008KT 9999 VCTS FEW100CB 18/17 Q1014
                        NOSIG=
201407180220 METAR EGLL 180220Z 06009KT 9999 VCTS FEW066CB 19/17 Q1015=
201407180150 METAR COR EGLL 180150Z 07010KT 9999 VCTS FEW066CB 19/16 Q1015
                        RETS NOSIG=
201407180120 METAR EGLL 180120Z AUTO 04008KT 350V080 //// -TSRA FEW008///
                        SCT013/// //////CB 18/16 Q1016 RETS
                        RERA=
201407180050 METAR EGLL 180050Z AUTO 09011KT 9999 TS //////CB 20/15 Q1017=
201407180020 METAR EGLL 180020Z AUTO 08010KT 9999 NCD 20/15 Q1017=
201407172350 METAR COR EGLL 172350Z 09011KT CAVOK 20/15 Q1017 TEMPO TSRA=
201407172320 METAR COR EGLL 172320Z 09011KT CAVOK 20/16 Q1017 TEMPO SHRA=
201407172250 METAR COR EGLL 172250Z 07010KT CAVOK 20/16 Q1017 TEMPO SHRA=
201407172220 METAR COR EGLL 172220Z 07008KT CAVOK 20/16 Q1018 NOSIG=
201407172150 METAR EGLL 172150Z 09012KT CAVOK 21/15 Q1018 NOSIG=
201407172120 METAR COR EGLL 172120Z 09010KT CAVOK 21/15 Q1018 NOSIG=
201407172050 METAR EGLL 172050Z 10012KT CAVOK 22/15 Q1018 NOSIG=
201407172020 METAR COR EGLL 172020Z 08007KT CAVOK 23/16 Q1018 NOSIG=
201407171950 METAR COR EGLL 171950Z 09009KT CAVOK 23/15 Q1018 NOSIG=
201407171920 METAR COR EGLL 171920Z 09011KT CAVOK 24/15 Q1018 NOSIG=
201407171850 METAR COR EGLL 171850Z 11011KT CAVOK 25/16 Q1018 NOSIG=
201407171820 METAR COR EGLL 171820Z 10011KT CAVOK 26/16 Q1018 NOSIG=
201407171750 METAR COR EGLL 171750Z 11011KT CAVOK 27/16 Q1018 NOSIG=
201407171720 METAR COR EGLL 171720Z 11012KT 9999 FEW045 27/16 Q1018 NOSIG=
201407171650 METAR EGLL 171650Z 11010KT 9999 FEW048 28/16 Q1018 NOSIG=
201407171620 METAR COR EGLL 171620Z 11009KT CAVOK 28/15 Q1018 NOSIG=
201407171550 METAR EGLL 171550Z 10007KT 070V130 CAVOK 27/15 Q1019 NOSIG=
201407171520 METAR COR EGLL 171520Z VRB04KT CAVOK 28/14 Q1019 NOSIG=
201407171450 METAR COR EGLL 171450Z VRB03KT CAVOK 29/14 Q1019 NOSIG=
201407171420 METAR COR EGLL 171420Z VRB03KT CAVOK 28/14 Q1019 NOSIG=
201407171350 METAR EGLL 171350Z VRB05KT CAVOK 27/14 Q1019=
201407171320 METAR COR EGLL 171320Z VRB03KT 9999 FEW048 27/13 Q1020 NOSIG=
201407171250 METAR COR EGLL 171250Z VRB04KT 9999 SCT045 27/14 Q1020 NOSIG=
201407171220 METAR COR EGLL 171220Z VRB02KT 9999 SCT044 28/14 Q1020 NOSIG=
201407171150 METAR COR EGLL 171150Z VRB03KT 9999 SCT044 27/14 Q1021 NOSIG=
201407171120 METAR COR EGLL 171120Z 28004KT 240V320 9999 SCT048 26/14
                        Q1021 NOSIG=
201407171050 METAR COR EGLL 171050Z 14005KT 110V180 9999 SCT036 24/15
                        Q1021 NOSIG=
201407171020 METAR COR EGLL 171020Z VRB03KT 9999 SCT036 24/15 Q1021 NOSIG=
201407170950 METAR COR EGLL 170950Z VRB03KT 9999 SCT031 24/15 Q1021 NOSIG=
201407170920 METAR EGLL 170920Z VRB02KT 9999 SCT029 22/15 Q1021=
201407170850 METAR EGLL 170850Z VRB04KT 9999 SCT026 24/15 Q1022=
201407170820 METAR COR EGLL 170820Z 14004KT 090V210 9999 FEW032 23/15
                        Q1022 NOSIG=
201407170750 METAR EGLL 170750Z VRB03KT 9999 FEW030 22/15 Q1022 NOSIG=
201407170720 METAR COR EGLL 170720Z VRB03KT 9999 SCT036 20/15 Q1022 NOSIG=
201407170650 METAR EGLL 170650Z VRB02KT 9999 BKN035 20/15 Q1022 NOSIG=
201407170620 METAR COR EGLL 170620Z VRB02KT 9999 SCT032 20/15 Q1022 NOSIG=
201407170550 METAR COR EGLL 170550Z 31004KT 9999 FEW033 19/15 Q1022 NOSIG=
201407170520 METAR COR EGLL 170520Z 29004KT 260V320 CAVOK 18/15 Q1022
                        NOSIG=
201407170450 METAR EGLL 170450Z 27004KT CAVOK 18/15 Q1021=
201407170420 METAR COR EGLL 170420Z VRB02KT CAVOK 18/15 Q1021 NOSIG=
201407170350 METAR EGLL 170350Z VRB02KT CAVOK 18/15 Q1021 NOSIG=
201407170320 METAR COR EGLL 170320Z 31002KT CAVOK 18/15 Q1021 NOSIG=
201407170250 METAR COR EGLL 170250Z VRB02KT CAVOK 19/15 Q1021 TEMPO BKN014=
201407170220 METAR COR EGLL 170220Z 30003KT CAVOK 19/15 Q1021 TEMPO BKN014=
201407170150 METAR COR EGLL 170150Z 31003KT CAVOK 19/15 Q1021 TEMPO BKN014=
201407170120 METAR EGLL 170120Z AUTO 31003KT 9999 NCD 19/15 Q1021=
201407170050 METAR EGLL 170050Z AUTO 29004KT 9999 NCD 19/15 Q1021=
201407170020 METAR EGLL 170020Z AUTO 29004KT 9999 NCD 19/16 Q1021=
201407162350 METAR COR EGLL 162350Z 27004KT CAVOK 19/16 Q1021 NOSIG=
201407162320 METAR COR EGLL 162320Z 28006KT CAVOK 19/16 Q1021 NOSIG=
201407162250 METAR COR EGLL 162250Z 25007KT CAVOK 20/16 Q1021 NOSIG=
201407162220 METAR COR EGLL 162220Z 24007KT CAVOK 21/16 Q1021 NOSIG=
201407162150 METAR EGLL 162150Z 23006KT CAVOK 21/16 Q1021 NOSIG=
201407162120 METAR COR EGLL 162120Z 24009KT CAVOK 21/16 Q1021 NOSIG=
201407162050 METAR EGLL 162050Z 24009KT CAVOK 22/16 Q1021 NOSIG=
201407162020 METAR COR EGLL 162020Z 25009KT CAVOK 22/16 Q1020 NOSIG=
201407161950 METAR EGLL 161950Z 25011KT 9999 FEW028 23/16 Q1020 NOSIG=
201407161920 METAR COR EGLL 161920Z 24010KT 9999 FEW032 23/15 Q1020 NOSIG=
201407161850 METAR COR EGLL 161850Z 25011KT 9999 FEW034 23/15 Q1020 NOSIG=
201407161820 METAR COR EGLL 161820Z 25009KT 9999 FEW047 24/15 Q1020 NOSIG=
201407161750 METAR EGLL 161750Z 25009KT 210V270 9999 FEW047 24/15 Q1020=
201407161720 METAR COR EGLL 161720Z 26012KT 9999 FEW047 24/15 Q1020 NOSIG=
201407161650 METAR COR EGLL 161650Z 25010KT 9999 FEW042 24/14 Q1020 NOSIG=
201407161620 METAR COR EGLL 161620Z 25010KT 220V280 9999 SCT042 25/14
                        Q1020 NOSIG=
201407161550 METAR COR EGLL 161550Z 26009KT 210V290 9999 FEW044 25/14
                        Q1020 NOSIG=
201407161520 METAR COR EGLL 161520Z 24009KT 200V260 9999 FEW048 25/13
                        Q1020 NOSIG=
201407161450 METAR COR EGLL 161450Z 27008KT 230V300 9999 BKN048 25/13
                        Q1020 NOSIG=
201407161420 METAR COR EGLL 161420Z 27010KT 9999 BKN048 25/13 Q1020 NOSIG=
201407161350 METAR COR EGLL 161350Z 25008KT 210V300 9999 SCT047 25/13
                        Q1020 NOSIG=
201407161320 METAR COR EGLL 161320Z 24006KT 180V330 9999 SCT049 25/12
                        Q1020 NOSIG=
201407161250 METAR COR EGLL 161250Z 22006KT 160V290 9999 FEW045 26/13
                        Q1020 NOSIG=
201407161220 METAR COR EGLL 161220Z VRB06KT 9999 SCT045 24/13 Q1020 NOSIG=
201407161150 METAR COR EGLL 161150Z VRB06KT 9999 SCT043 25/12 Q1021 NOSIG=
201407161120 METAR COR EGLL 161120Z 25006KT 190V320 9999 FEW041 24/13
                        Q1021 NOSIG=
201407161050 METAR EGLL 161050Z 24007KT 200V360 9999 FEW039 24/13 Q1021
                        NOSIG=
201407161020 METAR COR EGLL 161020Z VRB07KT 9999 FEW044 24/13 Q1021 NOSIG=
201407160950 METAR EGLL 160950Z 24007KT 200V280 CAVOK 23/12 Q1021 NOSIG=
201407160920 METAR COR EGLL 160920Z VRB06KT CAVOK 22/12 Q1021 NOSIG=
201407160850 METAR EGLL 160850Z 25006KT 220V290 CAVOK 22/12 Q1021 NOSIG=
201407160820 METAR COR EGLL 160820Z 23006KT 180V250 CAVOK 21/12 Q1021
                        NOSIG=
201407160750 METAR EGLL 160750Z VRB03KT CAVOK 20/12 Q1021 NOSIG=
201407160720 METAR COR EGLL 160720Z VRB02KT CAVOK 19/12 Q1021 NOSIG=
201407160650 METAR EGLL 160650Z VRB03KT CAVOK 18/12 Q1021 NOSIG=
201407160620 METAR COR EGLL 160620Z VRB02KT CAVOK 17/12 Q1021 NOSIG=
201407160550 METAR EGLL 160550Z VRB03KT CAVOK 16/13 Q1021 NOSIG=
201407160520 METAR COR EGLL 160520Z VRB03KT CAVOK 15/12 Q1021 NOSIG=
201407160450 METAR COR EGLL 160450Z 27003KT CAVOK 15/12 Q1021 NOSIG=
201407160420 METAR COR EGLL 160420Z 28003KT CAVOK 14/12 Q1021 NOSIG=
201407160350 METAR EGLL 160350Z 31003KT CAVOK 15/12 Q1021 NOSIG=
201407160320 METAR COR EGLL 160320Z 30002KT CAVOK 15/12 Q1021 NOSIG=
201407160250 METAR EGLL 160250Z 30003KT CAVOK 15/12 Q1021 NOSIG=
201407160220 METAR COR EGLL 160220Z 29005KT CAVOK 15/12 Q1020 NOSIG=
201407160150 METAR EGLL 160150Z 29004KT CAVOK 16/12 Q1020 NOSIG=
201407160120 METAR EGLL 160120Z AUTO 30004KT 9999 NCD 16/12 Q1020=
201407160050 METAR EGLL 160050Z AUTO 27005KT 9999 NCD 16/12 Q1020=
201407160020 METAR EGLL 160020Z AUTO 27005KT 9999 NCD 17/12 Q1020=
201407152350 METAR COR EGLL 152350Z 27004KT CAVOK 17/13 Q1020 NOSIG=
201407152320 METAR COR EGLL 152320Z 27006KT CAVOK 18/13 Q1021 NOSIG=
201407152250 METAR EGLL 152250Z 27006KT CAVOK 19/13 Q1021 NOSIG=
201407152220 METAR COR EGLL 152220Z 24007KT CAVOK 19/13 Q1021 NOSIG=
201407152150 METAR COR EGLL 152150Z 26007KT CAVOK 20/13 Q1021 NOSIG=
201407152120 METAR COR EGLL 152120Z 25009KT CAVOK 20/13 Q1020 NOSIG=
201407152050 METAR COR EGLL 152050Z 25009KT CAVOK 21/13 Q1020 NOSIG=
201407152020 METAR COR EGLL 152020Z 25010KT CAVOK 22/13 Q1020 NOSIG=
201407151950 METAR COR EGLL 151950Z 32004KT 280V350 CAVOK 23/11 Q1020
                        NOSIG=
201407151920 METAR COR EGLL 151920Z 31004KT CAVOK 23/11 Q1019 NOSIG=
201407151850 METAR COR EGLL 151850Z 27005KT 240V310 CAVOK 24/11 Q1019
                        NOSIG=
201407151820 METAR COR EGLL 151820Z 28008KT CAVOK 25/11 Q1019 NOSIG=
201407151750 METAR EGLL 151750Z 30005KT 230V360 CAVOK 24/11 Q1019 NOSIG=
201407151720 METAR COR EGLL 151720Z 27008KT 230V320 CAVOK 25/11 Q1019
                        NOSIG=
201407151650 METAR EGLL 151650Z 29006KT 270V330 CAVOK 25/11 Q1019 NOSIG=
201407151620 METAR COR EGLL 151620Z VRB02KT CAVOK 25/10 Q1019 NOSIG=
201407151550 METAR COR EGLL 151550Z 27008KT 240V310 CAVOK 25/10 Q1019
                        NOSIG=
201407151520 METAR COR EGLL 151520Z 26008KT 190V290 CAVOK 26/11 Q1019
                        NOSIG=
201407151450 METAR EGLL 151450Z 25007KT 190V360 CAVOK 24/11 Q1019 NOSIG=
201407151420 METAR COR EGLL 151420Z 27008KT 190V320 CAVOK 25/11 Q1019
                        NOSIG=
201407151350 METAR COR EGLL 151350Z 27007KT 230V310 9999 FEW048 24/11
                        Q1019 NOSIG=
201407151320 METAR COR EGLL 151320Z 30006KT 260V360 9999 FEW048 25/11
                        Q1019 NOSIG=
201407151250 METAR EGLL 151250Z VRB07KT 9999 FEW046 25/11 Q1019 NOSIG=
201407151220 METAR COR EGLL 151220Z 30006KT 270V030 9999 FEW047 23/11
                        Q1019 NOSIG=
201407151150 METAR COR EGLL 151150Z VRB06KT 9999 FEW047 24/11 Q1019 NOSIG=
201407151120 METAR COR EGLL 151120Z 26005KT 210V360 9999 FEW041 23/11
                        Q1019 NOSIG=
201407151050 METAR EGLL 151050Z 30005KT 240V350 9999 FEW044 23/12 Q1018
                        NOSIG=
201407151020 METAR COR EGLL 151020Z 30008KT 260V330 9999 SCT033 22/12
                        Q1018 NOSIG=
201407150950 METAR COR EGLL 150950Z 30006KT 260V340 9999 SCT030 21/13
                        Q1018 NOSIG=
201407150920 METAR COR EGLL 150920Z 30006KT 270V340 9999 SCT029 SCT047
                        21/13 Q1018 NOSIG=
201407150850 METAR COR EGLL 150850Z 30006KT 260V340 9999 SCT030 21/14
                        Q1018 NOSIG=
201407150820 METAR COR EGLL 150820Z 29007KT 250V320 9999 FEW022 SCT042
                        19/14 Q1018 NOSIG=
201407150750 METAR COR EGLL 150750Z 30007KT 9999 SCT020 SCT042 19/14 Q1018
                        NOSIG=
201407150720 METAR COR EGLL 150720Z 25006KT 9999 SCT020 SCT036 19/14 Q1017
                        NOSIG=
201407150650 METAR COR EGLL 150650Z 27008KT 240V310 9999 SCT022 SCT039
                        18/14 Q1017 NOSIG=
201407150620 METAR COR EGLL 150620Z 25008KT 9999 FEW017 BKN039 18/14 Q1017
                        NOSIG=
201407150550 METAR COR EGLL 150550Z 26007KT 230V290 9999 FEW016 BKN037
                        18/15 Q1017 NOSIG=
201407150520 METAR COR EGLL 150520Z 24008KT 9999 FEW012 BKN040 18/15 Q1016
                        NOSIG=
201407150450 METAR COR EGLL 150450Z 25008KT 9999 FEW012 BKN040 18/15 Q1016
                        NOSIG=
201407150420 METAR COR EGLL 150420Z 24009KT 9999 FEW013 BKN040 18/15 Q1016
                        NOSIG=
201407150350 METAR COR EGLL 150350Z 23010KT 9999 FEW013 BKN039 18/15 Q1016
                        NOSIG=
201407150320 METAR COR EGLL 150320Z 23009KT 9999 FEW025 BKN044 18/15 Q1016
                        TEMPO BKN012=
201407150250 METAR COR EGLL 150250Z 23010KT 9999 SCT025 18/15 Q1016 TEMPO
                        BKN012=
201407150220 METAR COR EGLL 150220Z 23011KT 9999 SCT012 18/15 Q1016 TEMPO
                        BKN010=
201407150150 METAR COR EGLL 150150Z 24010KT 9999 BKN012 18/15 Q1016 TEMPO
                        BKN009=
201407150120 METAR EGLL 150120Z AUTO 23009KT 9999 BKN013 18/16 Q1016 REDZ=
201407150050 METAR EGLL 150050Z AUTO 23010KT 9999 BKN012 18/16 Q1016 REDZ=
201407150020 METAR EGLL 150020Z AUTO 23010KT 9999 OVC011 18/15 Q1016=
201407142350 METAR COR EGLL 142350Z 23010KT 9999 BKN013 18/15 Q1016 TEMPO
                        RADZ BKN009=
201407142320 METAR COR EGLL 142320Z 22008KT 9999 BKN014 18/15 Q1016 TEMPO
                        SCT014=
201407142250 METAR COR EGLL 142250Z 21008KT 9999 BKN016 18/15 Q1016 TEMPO
                        BKN012=
201407142220 METAR COR EGLL 142220Z 22008KT 9999 BKN016 18/15 Q1015 TEMPO
                        BKN012=
201407142150 METAR COR EGLL 142150Z 21010KT 9999 FEW020 SCT035 18/15 Q1015
                        TEMPO BKN012=
201407142120 METAR COR EGLL 142120Z 22011KT 190V250 9999 FEW020 BKN036
                        19/14 Q1015 TEMPO BKN014=
201407142050 METAR COR EGLL 142050Z 22011KT 190V260 9999 FEW020 BKN035
                        19/15 Q1015 NOSIG=
201407142020 METAR COR EGLL 142020Z 22013KT 9999 FEW020 BKN032 19/14 Q1015
                        NOSIG=
201407141950 METAR COR EGLL 141950Z 23012KT 9999 FEW026 SCT037 20/14 Q1015
                        NOSIG=
201407141920 METAR COR EGLL 141920Z 22012KT 9999 FEW027 SCT034 20/14 Q1015
                        NOSIG=
201407141850 METAR COR EGLL 141850Z 22014KT 9999 FEW028 SCT030 20/14 Q1015
                        NOSIG=
201407141820 METAR COR EGLL 141820Z 22014KT 9999 SCT043 21/14 Q1015 NOSIG=
201407141750 METAR COR EGLL 141750Z 24014KT 9999 FEW037 22/13 Q1014 NOSIG=
201407141720 METAR COR EGLL 141720Z 22013KT 9999 FEW040 22/13 Q1014 NOSIG=
201407141650 METAR COR EGLL 141650Z 24014KT 9999 FEW048 24/11 Q1014 NOSIG=
201407141620 METAR COR EGLL 141620Z 23015KT 9999 FEW046 24/11 Q1014 NOSIG=
201407141550 METAR COR EGLL 141550Z 23013KT 9999 FEW047 24/10 Q1014 NOSIG=
201407141520 METAR COR EGLL 141520Z 24013KT 200V260 9999 FEW048 24/10
                        Q1014 NOSIG=
201407141450 METAR COR EGLL 141450Z 23015KT CAVOK 24/10 Q1014 NOSIG=
201407141420 METAR COR EGLL 141420Z 24012KT CAVOK 24/08 Q1014 NOSIG=
201407141350 METAR COR EGLL 141350Z 25011KT 200V290 CAVOK 24/09 Q1014
                        NOSIG=
201407141320 METAR COR EGLL 141320Z 26011KT CAVOK 24/08 Q1014 NOSIG=
201407141250 METAR COR EGLL 141250Z 26009KT 230V290 CAVOK 23/07 Q1015
                        NOSIG=
201407141220 METAR COR EGLL 141220Z 25009KT 190V290 9999 FEW049 22/08
                        Q1015 NOSIG=
201407141150 METAR COR EGLL 141150Z 23009KT 190V300 9999 FEW048 22/08
                        Q1015 NOSIG=
201407141120 METAR COR EGLL 141120Z 27009KT 230V310 9999 FEW048 21/08
                        Q1015 NOSIG=
201407141050 METAR COR EGLL 141050Z 29009KT 250V020 9999 FEW049 21/08
                        Q1015 NOSIG=
201407141020 METAR COR EGLL 141020Z 28009KT 240V340 9999 FEW048 20/08
                        Q1015 NOSIG=
201407140950 METAR COR EGLL 140950Z 26009KT 230V300 9999 FEW046 20/08
                        Q1015 NOSIG=
201407140920 METAR COR EGLL 140920Z 28007KT 230V330 9999 FEW041 19/09
                        Q1015 NOSIG=
201407140850 METAR EGLL 140850Z 30006KT 250V360 9999 FEW036 19/10 Q1015
                        NOSIG=
201407140820 METAR COR EGLL 140820Z 28007KT 230V330 9999 FEW036 18/09
                        Q1015 NOSIG=
201407140750 METAR COR EGLL 140750Z 29006KT 260V330 CAVOK 17/10 Q1014
                        NOSIG=
201407140720 METAR COR EGLL 140720Z 28007KT CAVOK 15/10 Q1014 NOSIG=
201407140650 METAR COR EGLL 140650Z 29007KT CAVOK 15/10 Q1014 NOSIG=
201407140620 METAR COR EGLL 140620Z 29006KT 260V330 CAVOK 15/10 Q1014
                        NOSIG=
201407140550 METAR COR EGLL 140550Z 29006KT CAVOK 13/09 Q1014 NOSIG=
201407140520 METAR COR EGLL 140520Z 28008KT CAVOK 13/09 Q1013 NOSIG=
201407140450 METAR COR EGLL 140450Z 28006KT CAVOK 12/09 Q1013 NOSIG=
201407140420 METAR COR EGLL 140420Z 27006KT CAVOK 13/09 Q1013 NOSIG=
201407140350 METAR EGLL 140350Z 30004KT CAVOK 13/09 Q1013 NOSIG=
201407140320 METAR COR EGLL 140320Z 30004KT CAVOK 13/08 Q1013 NOSIG=
201407140250 METAR COR EGLL 140250Z 30004KT CAVOK 13/09 Q1013 NOSIG=
201407140220 METAR COR EGLL 140220Z 30004KT CAVOK 13/09 Q1012 NOSIG=
201407140150 METAR EGLL 140150Z 31004KT 280V360 CAVOK 13/09 Q1012=
201407140120 METAR EGLL 140120Z AUTO 30005KT 9999 NCD 14/09 Q1012=
201407140050 METAR EGLL 140050Z AUTO 29005KT 9999 NCD 14/09 Q1012=
201407140020 METAR EGLL 140020Z AUTO 30004KT 9999 NCD 15/09 Q1012=
201407132350 METAR COR EGLL 132350Z 29006KT CAVOK 15/09 Q1012 NOSIG=
201407132320 METAR COR EGLL 132320Z 29005KT CAVOK 16/09 Q1012 NOSIG=
201407132250 METAR COR EGLL 132250Z 30004KT CAVOK 16/09 Q1012 NOSIG=
201407132220 METAR COR EGLL 132220Z 32004KT CAVOK 17/09 Q1011 NOSIG=
201407132150 METAR COR EGLL 132150Z 32006KT CAVOK 17/09 Q1011 NOSIG=
201407132120 METAR EGLL 132120Z 32006KT 290V360 CAVOK 18/09 Q1011=
201407132050 METAR COR EGLL 132050Z 32005KT 290V360 CAVOK 19/10 Q1010
                        NOSIG=
201407132020 METAR COR EGLL 132020Z 33006KT 300V010 CAVOK 19/10 Q1010
                        NOSIG=
201407131950 METAR COR EGLL 131950Z 33007KT 300V030 CAVOK 20/10 Q1009
                        NOSIG=
201407131920 METAR COR EGLL 131920Z 34007KT 300V010 CAVOK 21/10 Q1009
                        NOSIG=
201407131850 METAR COR EGLL 131850Z 33006KT 9999 FEW043 21/11 Q1009 NOSIG=
201407131820 METAR COR EGLL 131820Z 34006KT 300V020 9999 FEW045 23/12
                        Q1008 NOSIG=
201407131750 METAR EGLL 131750Z 35008KT 9999 FEW038 23/12 Q1008 NOSIG=
201407131720 METAR COR EGLL 131720Z 34008KT 310V020 9999 FEW036 22/13
                        Q1008 NOSIG=
201407131650 METAR COR EGLL 131650Z 34009KT 300V020 9999 FEW033 22/13
                        Q1008 NOSIG=
201407131620 METAR COR EGLL 131620Z 33010KT 9999 FEW031 22/13 Q1008 NOSIG=
201407131550 METAR COR EGLL 131550Z 33009KT 280V360 9999 FEW030 22/14
                        Q1008 NOSIG=
201407131520 METAR COR EGLL 131520Z 33009KT 300V020 9999 SCT034 22/14
                        Q1007 NOSIG=
201407131450 METAR COR EGLL 131450Z 32009KT 280V340 9999 SCT031 23/15
                        Q1007 NOSIG=
201407131420 METAR COR EGLL 131420Z 31010KT 280V350 9999 FEW028 SCT044
                        23/15 Q1007 NOSIG=
201407131350 METAR COR EGLL 131350Z 32010KT 290V360 9999 FEW023 SCT027
                        22/15 Q1007 NOSIG=
201407131320 METAR COR EGLL 131320Z 32008KT 280V360 9999 FEW025 SCT028
                        23/16 Q1007 NOSIG=
201407131250 METAR COR EGLL 131250Z 27009KT 240V300 9999 FEW030 SCT033
                        24/15 Q1007 TEMPO SHRA=
201407131220 METAR COR EGLL 131220Z 27010KT 9999 FEW025 SCT028 23/16 Q1007
                        TEMPO SHRA=
201407131150 METAR COR EGLL 131150Z 28009KT 230V310 9999 SCT025 24/16
                        Q1007 TEMPO SHRA=
201407131120 METAR COR EGLL 131120Z 28010KT 9999 FEW020 SCT024 23/16 Q1007
                        TEMPO SHRA=
201407131050 METAR EGLL 131050Z 28010KT 9999 FEW020 SCT024 22/16 Q1007=
201407131020 METAR COR EGLL 131020Z 25010KT 210V280 9999 SCT023 21/16
                        Q1007 NOSIG=
201407130950 METAR COR EGLL 130950Z VRB06KT 9999 VCSH SCT019 SCT038 21/16
                        Q1007 NOSIG=
201407130920 METAR COR EGLL 130920Z 27007KT 9999 VCSH SCT016 SCT039 19/16
                        Q1007 NOSIG=
201407130850 METAR COR EGLL 130850Z 28006KT 9999 FEW013 BKN040 19/16 Q1007
                        NOSIG=
201407130820 METAR COR EGLL 130820Z 27008KT 9999 FEW010 SCT017 BKN034
                        19/17 Q1007 TEMPO BKN014=
201407130750 METAR COR EGLL 130750Z 28008KT 9999 FEW010 SCT020 BKN027
                        19/17 Q1007 TEMPO BKN014=
201407130720 METAR COR EGLL 130720Z 26010KT 9999 SCT009 BKN016 19/17 Q1007
                        TEMPO BKN014=
201407130650 METAR COR EGLL 130650Z 25009KT 9999 SCT009 BKN015 18/17 Q1007
                        TEMPO BKN014=
201407130620 METAR COR EGLL 130620Z 24008KT 9999 SCT017 SCT030 18/17 Q1008
                        TEMPO BKN014=
201407130550 METAR COR EGLL 130550Z 24008KT 9999 SCT008 BKN017 17/17 Q1008
                        TEMPO BKN014=
201407130520 METAR COR EGLL 130520Z 23008KT 9000 -DZ SCT005 BKN009 17/17
                        Q1008 TEMPO SCT007 BKN011=
201407130450 METAR EGLL 130450Z 23007KT 9999 -DZ FEW004 SCT011 OVC015
                        17/17 Q1008 TEMPO BKN007=
201407130420 METAR COR EGLL 130420Z 23009KT 9999 FEW006 BKN010 17/17 Q1008
                        TEMPO BKN008=
201407130350 METAR COR EGLL 130350Z 24005KT 190V280 9999 FEW006 BKN009
                        17/17 Q1008 TEMPO 4500 DZ BKN004=
201407130320 METAR COR EGLL 130320Z 23007KT 9999 FEW005 BKN013 17/17 Q1008
                        RERA TEMPO 4500 DZ BKN007=
201407130250 METAR COR EGLL 130250Z 23007KT 7000 BKN009 18/17 Q1009 TEMPO
                        SCT007 BKN010=
201407130220 METAR COR EGLL 130220Z 23008KT 7000 -DZ BKN009 18/17 Q1009
                        TEMPO SCT009 BKN012=
201407130150 METAR COR EGLL 130150Z 26007KT 9999 FEW011 SCT015 19/16 Q1009
                        TEMPO BKN011=
201407130120 METAR EGLL 130120Z AUTO 25006KT 9999 BKN011 19/16 Q1009=
201407130050 METAR EGLL 130050Z AUTO 26005KT 9999 SCT013/// BKN020///
                        //////TCU 19/16 Q1010=
201407130020 METAR EGLL 130020Z AUTO 27007KT 9999 FEW020/// SCT025///
                        BKN120/// //////TCU 19/16 Q1010=
201407122350 METAR COR EGLL 122350Z 26007KT 9999 BKN020 20/16 Q1010 TEMPO
                        RA BKN012=
201407122320 METAR COR EGLL 122320Z 25008KT 9999 SCT022 SCT027 20/16 Q1010
                        TEMPO RA BKN014=
201407122250 METAR COR EGLL 122250Z 24008KT 9999 SCT027 20/16 Q1011 TEMPO
                        RA BKN012=
201407122220 METAR COR EGLL 122220Z 24008KT 9999 BKN025 20/16 Q1011 NOSIG=
201407122150 METAR COR EGLL 122150Z 25009KT 9999 FEW030 21/16 Q1011 NOSIG=
201407122120 METAR COR EGLL 122120Z 24007KT CAVOK 21/16 Q1011 NOSIG=
201407122050 METAR COR EGLL 122050Z 25008KT 9999 FEW037 22/16 Q1011 NOSIG=
201407122020 METAR EGLL 122020Z AUTO 24011KT 9999 NCD 22/16 Q1011=
201407121950 METAR COR EGLL 121950Z 24010KT 9999 FEW048 23/15 Q1011 NOSIG=
201407121920 METAR COR EGLL 121920Z 23012KT 9999 FEW045 23/15 Q1011 NOSIG=
201407121850 METAR COR EGLL 121850Z 24012KT CAVOK 24/15 Q1011 NOSIG=
201407121820 METAR EGLL 121820Z AUTO 24012KT 9999 //////CB 25/15 Q1011=
201407121750 METAR EGLL 121750Z AUTO 27008KT 9999 //////CB 25/14 Q1011=
201407121720 METAR COR EGLL 121720Z 25007KT 210V290 9999 FEW048 25/14
                        Q1011 NOSIG=
201407121650 METAR COR EGLL 121650Z 26008KT CAVOK 25/14 Q1011 NOSIG=
201407121620 METAR COR EGLL 121620Z 24008KT 210V280 CAVOK 26/13 Q1011
                        NOSIG=
201407121550 METAR COR EGLL 121550Z 25009KT 210V280 CAVOK 26/13 Q1012
                        NOSIG=
201407121520 METAR COR EGLL 121520Z 23007KT 190V290 CAVOK 26/12 Q1012
                        NOSIG=
201407121450 METAR COR EGLL 121450Z VRB04KT 9999 FEW049 27/12 Q1012 NOSIG=
201407121420 METAR COR EGLL 121420Z VRB04KT 9999 FEW049 26/12 Q1012 NOSIG=
201407121350 METAR COR EGLL 121350Z 28007KT 240V320 9999 FEW049 27/13
                        Q1013 NOSIG=
201407121320 METAR COR EGLL 121320Z 33004KT 290V020 9999 FEW048 25/13
                        Q1013 NOSIG=
201407121250 METAR COR EGLL 121250Z VRB02KT 9999 FEW046 26/13 Q1013 NOSIG=
201407121220 METAR COR EGLL 121220Z VRB03KT 9999 FEW044 26/13 Q1013 NOSIG=
201407121150 METAR COR EGLL 121150Z 30005KT 260V030 9999 FEW039 25/14
                        Q1013 NOSIG=
201407121120 METAR COR EGLL 121120Z VRB05KT 9999 FEW035 24/14 Q1014 NOSIG=
201407121050 METAR EGLL 121050Z VRB03KT 9999 FEW036 24/15 Q1014=
201407121020 METAR EGLL 121020Z VRB03KT 9999 FEW032 23/14 Q1014=
201407120950 METAR COR EGLL 120950Z VRB03KT 9999 FEW024 21/15 Q1014 NOSIG=
201407120920 METAR COR EGLL 120920Z VRB03KT 9999 FEW020 20/15 Q1015 NOSIG=
201407120850 METAR COR EGLL 120850Z VRB03KT 9999 FEW015 19/14 Q1015 NOSIG=
201407120820 METAR COR EGLL 120820Z 36004KT 310V060 9999 FEW012 18/14
                        Q1015 NOSIG=
201407120750 METAR COR EGLL 120750Z 35005KT 300V030 9999 SCT009 17/14
                        Q1015 NOSIG=
201407120720 METAR COR EGLL 120720Z 32005KT 270V020 9000 BKN008 16/14
                        Q1015 BECMG SCT008 BKN013=
201407120650 METAR COR EGLL 120650Z VRB02KT 9000 BKN008 16/14 Q1015 BECMG
                        BKN012=
201407120620 METAR COR EGLL 120620Z VRB03KT 9000 BKN008 16/14 Q1015 BECMG
                        BKN010=
201407120550 METAR COR EGLL 120550Z VRB03KT 7000 BKN007 15/14 Q1015 NOSIG=
201407120520 METAR COR EGLL 120520Z VRB03KT 7000 OVC007 15/14 Q1015 NOSIG=
201407120450 METAR COR EGLL 120450Z VRB03KT 8000 OVC008 15/14 Q1016 NOSIG=
201407120420 METAR COR EGLL 120420Z 31004KT 7000 OVC007 15/14 Q1016 NOSIG=
201407120350 METAR COR EGLL 120350Z VRB03KT 8000 BKN007 16/14 Q1016 NOSIG=
201407120320 METAR COR EGLL 120320Z 32002KT 7000 BKN006 16/14 Q1016 NOSIG=
201407120250 METAR COR EGLL 120250Z 01004KT 320V030 7000 BKN006 16/14
                        Q1016 NOSIG=
201407120220 METAR COR EGLL 120220Z VRB02KT 6000 OVC006 16/15 Q1016 NOSIG=
201407120150 METAR EGLL 120150Z VRB02KT 5000 BR FEW004 OVC006 16/15 Q1016=
201407120120 METAR EGLL 120120Z AUTO VRB02KT 5000 BKN006 16/15 Q1016=
201407120050 METAR EGLL 120050Z AUTO VRB03KT 6000 FEW006 16/15 Q1016=
201407120020 METAR COR EGLL 120020Z AUTO 35003KT 6000 SCT006 16/15 Q1016
                        TEMPO BKN006=
201407112350 METAR EGLL 112350Z 03005KT 5000 BR FEW004 OVC005 17/16 Q1016
                        NOSIG=
201407112320 METAR COR EGLL 112320Z 05004KT 5000 BR BKN006 17/16 Q1017
                        NOSIG=
201407112250 METAR COR EGLL 112250Z 06004KT 8000 SCT008 17/15 Q1017 TEMPO
                        BKN008=
201407112220 METAR COR EGLL 112220Z 06004KT 9000 SCT034 17/16 Q1017 NOSIG=
201407112150 METAR COR EGLL 112150Z 09007KT 060V130 9999 FEW023 OVC031
                        18/16 Q1017 NOSIG=
201407112120 METAR COR EGLL 112120Z 06004KT 020V090 9999 SCT023 SCT026
                        OVC035 21/16 Q1017 NOSIG=
201407112050 METAR COR EGLL 112050Z 07002KT 9999 FEW025 BKN036 21/15 Q1016
                        NOSIG=
201407112020 METAR COR EGLL 112020Z VRB02KT 9999 BKN036 21/15 Q1016 NOSIG=
201407111950 METAR COR EGLL 111950Z 00000KT 9999 FEW033 BKN037 21/15 Q1016
                        NOSIG=
201407111920 METAR EGLL 111920Z 35002KT 9999 FEW033 BKN038 21/15 Q1016=
201407111850 METAR EGLL 111850Z VRB03KT 9999 FEW029 BKN037 21/15 Q1016
                        NOSIG=
201407111820 METAR COR EGLL 111820Z VRB03KT 9999 FEW029 BKN032 21/14 Q1016
                        NOSIG=
201407111750 METAR COR EGLL 111750Z 31005KT 280V340 9999 FEW028 BKN032
                        21/14 Q1016 NOSIG=
201407111720 METAR COR EGLL 111720Z 32005KT 290V030 9999 FEW027 BKN034
                        21/14 Q1016 NOSIG=
201407111650 METAR COR EGLL 111650Z 32005KT 280V360 9999 BKN027 21/14
                        Q1016 NOSIG=
201407111620 METAR COR EGLL 111620Z 33006KT 290V010 9999 BKN026 20/14
                        Q1017 NOSIG=
201407111550 METAR EGLL 111550Z 34005KT 290V010 9999 BKN024 20/14 Q1017
                        NOSIG=
201407111520 METAR EGLL 111520Z 33006KT 290V030 9999 BKN023 20/14 Q1017=
201407111450 METAR COR EGLL 111450Z 35007KT 320V020 9999 BKN024 20/14
                        Q1017 NOSIG=
201407111420 METAR COR EGLL 111420Z 33005KT 300V020 9999 BKN023 19/13
                        Q1017 NOSIG=
201407111350 METAR COR EGLL 111350Z 35007KT 290V040 9999 BKN022 19/13
                        Q1017 NOSIG=
201407111320 METAR COR EGLL 111320Z 35007KT 9999 BKN021 18/13 Q1017 NOSIG=
201407111250 METAR COR EGLL 111250Z 36006KT 310V040 9999 BKN021 18/13
                        Q1017 NOSIG=
201407111220 METAR COR EGLL 111220Z 33007KT 300V020 9999 FEW021 BKN024
                        18/13 Q1017 NOSIG=
201407111150 METAR COR EGLL 111150Z 35005KT 320V020 9999 BKN019 18/13
                        Q1018 TEMPO SHRA=
201407111120 METAR COR EGLL 111120Z 35005KT 310V040 9999 BKN016 17/13
                        Q1018 TEMPO SHRA=
201407111050 METAR COR EGLL 111050Z 35006KT 310V010 9999 BKN016 17/13
                        Q1018 TEMPO SHRA=
201407111020 METAR COR EGLL 111020Z 32006KT 290V010 9999 FEW014 BKN028
                        16/13 Q1018 NOSIG=
201407110950 METAR COR EGLL 110950Z 31005KT 280V350 9999 BKN027 15/13
                        Q1018 NOSIG=
201407110920 METAR EGLL 110920Z 29006KT 9999 -RA BKN030 15/12 Q1018=
201407110850 METAR COR EGLL 110850Z 29005KT 9999 -RA FEW024 BKN031 14/12
                        Q1018 NOSIG=
201407110820 METAR COR EGLL 110820Z 29004KT 270V330 9999 BKN030 14/12
                        Q1019 NOSIG=
201407110750 METAR COR EGLL 110750Z 31004KT 280V360 9999 6000E -RADZ FEW024
                        BKN037 14/12 Q1019 TEMPO RA=
201407110720 METAR COR EGLL 110720Z 32005KT 280V360 9999 6000NE -RADZ
                        FEW029 BKN044 14/12 Q1018 NOSIG=
201407110650 METAR COR EGLL 110650Z 30005KT 260V340 9999 FEW029 BKN048
                        14/11 Q1018 NOSIG=
201407110620 METAR COR EGLL 110620Z 30003KT 9999 FEW032 SCT048 14/11 Q1018
                        NOSIG=
201407110550 METAR COR EGLL 110550Z 30003KT CAVOK 13/11 Q1018 TEMPO BKN012=
201407110520 METAR COR EGLL 110520Z 30004KT CAVOK 13/11 Q1018 TEMPO BKN012=
201407110450 METAR COR EGLL 110450Z 30005KT CAVOK 13/11 Q1018 NOSIG=
201407110420 METAR COR EGLL 110420Z 29004KT CAVOK 13/11 Q1018 NOSIG=
201407110350 METAR COR EGLL 110350Z 30005KT CAVOK 13/11 Q1018 NOSIG=
201407110320 METAR EGLL 110320Z AUTO 29007KT 9999 NCD 13/12 Q1018=
201407110250 METAR COR EGLL 110250Z 30004KT CAVOK 13/12 Q1018 TEMPO BKN010=
201407110220 METAR EGLL 110220Z AUTO 29005KT 9999 NCD 13/12 Q1018=
201407110150 METAR EGLL 110150Z AUTO 30004KT 9999 NCD 13/12 Q1018=
201407110120 METAR EGLL 110120Z AUTO 29004KT 270V350 9999 FEW010 14/12
                        Q1019=
201407110050 METAR EGLL 110050Z 32005KT 280V350 9999 FEW010 14/12 Q1019
                        TEMPO BKN010=
201407110020 METAR COR EGLL 110020Z 01005KT 330V040 9999 SCT010 14/12
                        Q1019 TEMPO BKN010=
201407102350 METAR COR EGLL 102350Z 03004KT 330V070 9999 FEW012 14/12
                        Q1019 NOSIG=
201407102320 METAR COR EGLL 102320Z VRB03KT 9999 FEW044 15/12 Q1019 NOSIG=
201407102250 METAR EGLL 102250Z VRB02KT 9999 FEW045 15/12 Q1019 NOSIG=
201407102220 METAR COR EGLL 102220Z VRB03KT CAVOK 15/12 Q1019 NOSIG=
201407102150 METAR EGLL 102150Z 02004KT 340V060 CAVOK 16/11 Q1019 NOSIG=
201407102120 METAR COR EGLL 102120Z 02004KT 340V070 CAVOK 17/11 Q1019
                        NOSIG=
201407102050 METAR COR EGLL 102050Z VRB03KT CAVOK 17/11 Q1018 NOSIG=
201407102020 METAR COR EGLL 102020Z 05004KT 020V090 CAVOK 18/12 Q1018
                        NOSIG=
201407101950 METAR EGLL 101950Z VRB03KT CAVOK 18/12 Q1018 NOSIG=
201407101920 METAR COR EGLL 101920Z 04006KT 360V070 CAVOK 19/12 Q1018
                        NOSIG=
201407101850 METAR EGLL 101850Z 04007KT 360V070 CAVOK 20/12 Q1018 NOSIG=
201407101820 METAR COR EGLL 101820Z 05007KT 010V070 CAVOK 20/12 Q1018
                        NOSIG=
201407101750 METAR EGLL 101750Z 04007KT 360V080 CAVOK 21/12 Q1017 NOSIG=
201407101720 METAR COR EGLL 101720Z 05007KT 360V080 CAVOK 21/12 Q1017
                        NOSIG=
201407101650 METAR COR EGLL 101650Z 06007KT CAVOK 21/12 Q1017 NOSIG=
201407101620 METAR COR EGLL 101620Z 05009KT CAVOK 21/13 Q1017 NOSIG=
201407101550 METAR COR EGLL 101550Z 05007KT 020V080 CAVOK 21/13 Q1017
                        NOSIG=
201407101520 METAR COR EGLL 101520Z 05006KT 020V090 CAVOK 21/13 Q1017
                        NOSIG=
201407101450 METAR COR EGLL 101450Z 05007KT CAVOK 21/12 Q1017 NOSIG=
201407101420 METAR COR EGLL 101420Z 06007KT 020V090 CAVOK 20/12 Q1017
                        NOSIG=
201407101350 METAR COR EGLL 101350Z 06008KT CAVOK 21/12 Q1017 NOSIG=
201407101320 METAR COR EGLL 101320Z 07006KT CAVOK 21/12 Q1018 NOSIG=
201407101250 METAR COR EGLL 101250Z 03005KT 340V070 CAVOK 20/12 Q1018
                        NOSIG=
201407101220 METAR COR EGLL 101220Z 02007KT 340V050 CAVOK 19/11 Q1018
                        NOSIG=
201407101150 METAR COR EGLL 101150Z 36006KT 330V040 CAVOK 19/12 Q1018
                        NOSIG=
201407101120 METAR EGLL 101120Z 01006KT 340V060 9999 FEW031 18/11 Q1018=
201407101050 METAR COR EGLL 101050Z 36007KT 310V040 9999 SCT031 18/11
                        Q1018 NOSIG=
201407101020 METAR COR EGLL 101020Z 01008KT 9999 SCT026 17/11 Q1018 NOSIG=
201407100950 METAR COR EGLL 100950Z 36007KT 320V040 9999 SCT029 17/11
                        Q1018 NOSIG=
201407100920 METAR COR EGLL 100920Z 34006KT 300V020 9999 FEW024 SCT034
                        17/11 Q1018 NOSIG=
201407100850 METAR COR EGLL 100850Z 34008KT 290V030 9999 FEW025 SCT033
                        17/11 Q1018 NOSIG=
201407100820 METAR COR EGLL 100820Z 34008KT 300V020 9999 FEW020 SCT035
                        16/11 Q1018 NOSIG=
201407100750 METAR COR EGLL 100750Z 33009KT 280V010 9999 FEW023 SCT033
                        16/11 Q1018 NOSIG=
201407100720 METAR COR EGLL 100720Z 33009KT 310V010 9999 FEW021 SCT032
                        16/11 Q1018 NOSIG=
201407100650 METAR COR EGLL 100650Z 34007KT 300V010 9999 SCT022 15/11
                        Q1018 NOSIG=
201407100620 METAR COR EGLL 100620Z 33009KT 290V010 9999 FEW024 15/11
                        Q1017 NOSIG=
201407100550 METAR COR EGLL 100550Z 33007KT 290V360 CAVOK 15/11 Q1017
                        NOSIG=
201407100520 METAR COR EGLL 100520Z 32007KT CAVOK 15/11 Q1017 NOSIG=
201407100450 METAR COR EGLL 100450Z 32007KT CAVOK 15/11 Q1017 NOSIG=
201407100420 METAR COR EGLL 100420Z 32006KT CAVOK 15/11 Q1017 NOSIG=
201407100350 METAR COR EGLL 100350Z 31006KT CAVOK 15/11 Q1017 NOSIG=
201407100320 METAR COR EGLL 100320Z 33007KT 290V360 CAVOK 15/10 Q1017
                        NOSIG=
201407100250 METAR COR EGLL 100250Z 33006KT 300V020 CAVOK 15/10 Q1017
                        NOSIG=
201407100220 METAR EGLL 100220Z AUTO 32009KT 280V010 9999 NCD 15/10 Q1017=
201407100150 METAR COR EGLL 100150Z 33008KT 300V360 CAVOK 16/10 Q1017
                        NOSIG=
201407100120 METAR EGLL 100120Z AUTO 31008KT 9999 NCD 16/12 Q1017=
201407100050 METAR EGLL 100050Z AUTO 31008KT 9999 NCD 16/12 Q1017=
201407100020 METAR EGLL 100020Z AUTO 31009KT 9999 NCD 16/12 Q1017=
201407092350 METAR COR EGLL 092350Z 31008KT CAVOK 16/12 Q1017 NOSIG=
201407092320 METAR COR EGLL 092320Z 31009KT CAVOK 16/12 Q1017 NOSIG=
201407092250 METAR COR EGLL 092250Z 30007KT CAVOK 17/12 Q1018 NOSIG=
201407092220 METAR COR EGLL 092220Z 32007KT 290V350 CAVOK 18/12 Q1018
                        NOSIG=
201407092150 METAR COR EGLL 092150Z 33008KT 300V360 CAVOK 18/12 Q1018
                        NOSIG=
201407092120 METAR COR EGLL 092120Z 33009KT 300V010 9999 FEW040 19/12
                        Q1018 NOSIG=
201407092050 METAR COR EGLL 092050Z 33007KT 9999 FEW035 20/12 Q1018 NOSIG=
201407092020 METAR EGLL 092020Z 34008KT 310V020 9999 SCT034 20/12 Q1018
                        NOSIG=
201407091950 METAR COR EGLL 091950Z 33008KT 300V010 9999 FEW040 20/12
                        Q1018 NOSIG=
201407091920 METAR EGLL 091920Z 32009KT 9999 FEW036 21/12 Q1018=
201407091850 METAR COR EGLL 091850Z 33011KT 9999 FEW048 22/12 Q1017 NOSIG=
201407091820 METAR COR EGLL 091820Z 33010KT CAVOK 22/12 Q1017 NOSIG=
201407091750 METAR COR EGLL 091750Z 32010G20KT CAVOK 22/11 Q1017 NOSIG=
201407091720 METAR COR EGLL 091720Z 32011KT CAVOK 22/10 Q1017 NOSIG=
201407091650 METAR EGLL 091650Z 32011KT 290V360 9999 FEW049 22/10 Q1017=
201407091620 METAR COR EGLL 091620Z 33010KT 290V010 CAVOK 22/09 Q1017
                        NOSIG=
201407091550 METAR COR EGLL 091550Z 33011KT 300V360 CAVOK 22/08 Q1017
                        NOSIG=
201407091520 METAR COR EGLL 091520Z 34010KT 310V030 CAVOK 22/08 Q1017
                        NOSIG=
201407091450 METAR EGLL 091450Z 33012KT 290V020 CAVOK 23/09 Q1017 NOSIG=
201407091420 METAR COR EGLL 091420Z 34009KT 290V040 CAVOK 23/08 Q1017
                        NOSIG=
201407091350 METAR COR EGLL 091350Z 32014KT CAVOK 23/09 Q1018 NOSIG=
201407091320 METAR COR EGLL 091320Z 33013KT 300V020 CAVOK 22/08 Q1018
                        NOSIG=
201407091250 METAR COR EGLL 091250Z 35009KT 300V040 9999 FEW049 22/09
                        Q1018 NOSIG=
201407091220 METAR COR EGLL 091220Z 34010KT 290V020 9999 FEW045 21/09
                        Q1018 NOSIG=
201407091150 METAR COR EGLL 091150Z 34010KT 300V020 9999 FEW046 21/09
                        Q1018 NOSIG=
201407091120 METAR COR EGLL 091120Z 34010KT 300V030 9999 FEW043 20/10
                        Q1018 NOSIG=
201407091050 METAR COR EGLL 091050Z 33011KT 290V020 9999 FEW041 20/10
                        Q1018 NOSIG=
201407091020 METAR COR EGLL 091020Z 32009KT 280V360 9999 FEW037 19/10
                        Q1018 NOSIG=
201407090950 METAR COR EGLL 090950Z 32009KT 260V020 9999 FEW028 18/11
                        Q1019 NOSIG=
201407090920 METAR COR EGLL 090920Z 31009KT 9999 FEW024 17/11 Q1019 NOSIG=
201407090850 METAR COR EGLL 090850Z 32006KT CAVOK 16/11 Q1019 NOSIG=
201407090820 METAR COR EGLL 090820Z 31006KT 9999 FEW016 15/11 Q1019 NOSIG=
201407090750 METAR COR EGLL 090750Z 32007KT 290V350 9999 FEW016 15/11
                        Q1019 NOSIG=
201407090720 METAR COR EGLL 090720Z 32007KT 280V350 9999 FEW016 14/12
                        Q1019 NOSIG=
201407090650 METAR COR EGLL 090650Z 32008KT 280V360 9999 FEW013 14/12
                        Q1018 NOSIG=
201407090620 METAR COR EGLL 090620Z 32007KT 290V350 9000 FEW012 13/12
                        Q1018 NOSIG=
201407090550 METAR COR EGLL 090550Z 31006KT 9000 FEW010 13/11 Q1018 NOSIG=
201407090520 METAR COR EGLL 090520Z 31006KT 9000 NSC 13/11 Q1018 NOSIG=
201407090450 METAR COR EGLL 090450Z 32006KT 9000 NSC 13/11 Q1018 NOSIG=
201407090420 METAR COR EGLL 090420Z 31005KT 8000 NSC 12/11 Q1018 NOSIG=
201407090350 METAR COR EGLL 090350Z 31005KT 7000 NSC 12/11 Q1018 NOSIG=
201407090320 METAR COR EGLL 090320Z 30005KT 7000 NSC 13/11 Q1018 NOSIG=
201407090220 METAR COR EGLL 090220Z 32004KT 300V020 6000 NSC 13/12 Q1018
                        NOSIG=
201407090150 METAR COR EGLL 090150Z VRB03KT 6000 NSC 13/12 Q1018 NOSIG=
201407090120 METAR EGLL 090120Z AUTO 33006KT 6000 NCD 13/12 Q1017=
201407090050 METAR EGLL 090050Z AUTO 33006KT 300V360 7000 NCD 13/12 Q1017=
201407090020 METAR COR EGLL 090020Z AUTO 32007KT 9000 FEW012 14/12 Q1017=
201407082350 METAR COR EGLL 082350Z 32005KT 270V360 9999 FEW013 14/12
                        Q1017 NOSIG=
201407082320 METAR COR EGLL 082320Z 32005KT 290V360 CAVOK 13/12 Q1017
                        NOSIG=
201407082250 METAR COR EGLL 082250Z 32005KT CAVOK 13/12 Q1017 NOSIG=
201407082220 METAR COR EGLL 082220Z 32005KT 280V350 CAVOK 14/12 Q1017
                        NOSIG=
201407082150 METAR COR EGLL 082150Z 34004KT 300V010 9999 -RA NSC 15/13
                        Q1017 NOSIG=
201407082120 METAR COR EGLL 082120Z 35004KT 320V040 9999 -RA NSC 15/13
                        Q1016 NOSIG=
201407082050 METAR EGLL 082050Z 35003KT 9000 -RA NSC 15/12 Q1016 TEMPO
                        SHRA=
201407082020 METAR COR EGLL 082020Z 32004KT 290V010 9999 -RA NSC 15/12
                        Q1016 TEMPO SHRA=
201407081950 METAR COR EGLL 081950Z 34005KT 310V040 9999 FEW040 16/13
                        Q1016 TEMPO SHRA=
201407081920 METAR COR EGLL 081920Z 30004KT 9999 -SHRA SCT046 16/12 Q1016
                        TEMPO SHRA=
201407081850 METAR COR EGLL 081850Z 29005KT 9000 -SHRA SCT042 BKN048 15/13
                        Q1016 RESHRA TEMPO SHRA=
201407081820 METAR COR EGLL 081820Z 30004KT 9000 SHRA FEW021CB SCT036
                        15/13 Q1015 RESHRA TEMPO TSRA=
201407081750 METAR COR EGLL 081750Z 31006KT 270V010 5000 SHRA FEW011CB
                        BKN040 15/13 Q1015 TEMPO NSW=
201407081720 METAR COR EGLL 081720Z 30011KT 9999 6000S -SHRA VCTS BKN033CB
                        16/12 Q1015 RETS TEMPO SHRA=
201407081650 METAR COR EGLL 081650Z 29010KT 9999 5000S VCSH TS SCT034CB
                        BKN045 17/11 Q1014 TEMPO 6000 TSRA=
201407081620 METAR COR EGLL 081620Z VRB03KT 9999 VCSH BKN045CB 20/10 Q1014
                        TEMPO 6000 SHRA=
201407081550 METAR COR EGLL 081550Z VRB02KT 9999 VCSH SCT040CB 20/09 Q1014
                        TEMPO 6000 SHRA=
201407081520 METAR COR EGLL 081520Z VRB03KT 9999 FEW020 SCT040TCU 20/08
                        Q1014 TEMPO 6000 SHRA=
201407081450 METAR COR EGLL 081450Z 31005KT 270V350 9999 FEW020 SCT040TCU
                        21/09 Q1014 TEMPO 6000 SHRA=
201407081420 METAR COR EGLL 081420Z 29006KT 230V330 9999 FEW020 SCT040CB
                        20/08 Q1014 TEMPO 6000 SHRA=
201407081350 METAR COR EGLL 081350Z 29006KT 9999 VCSH FEW020 SCT046CB
                        19/09 Q1015 TEMPO 6000 SHRA=
201407081320 METAR COR EGLL 081320Z 30007KT 270V330 9999 FEW046CB 19/10
                        Q1015 TEMPO 6000 SHRA=
201407081250 METAR COR EGLL 081250Z 29008KT 9999 FEW046CB 19/10 Q1015
                        TEMPO 6000 SHRA=
201407081220 METAR COR EGLL 081220Z 26011KT 9999 FEW020 SCT048CB 18/12
                        Q1015 TEMPO 6000 SHRA=
201407081150 METAR COR EGLL 081150Z 26014KT 9999 -SHRA SCT037CB 17/12
                        Q1015 TEMPO 6000 SHRA=
201407081120 METAR COR EGLL 081120Z 25014KT 9999 VCSH SCT040CB 17/12 Q1015
                        TEMPO 6000 SHRA=
201407081050 METAR COR EGLL 081050Z 30006KT 250V020 9999 VCSH SCT034 19/09
                        Q1015 TEMPO 6000 SHRA=
201407081020 METAR COR EGLL 081020Z 35005KT 270V030 9999 FEW036 20/09
                        Q1015 TEMPO 6000 SHRA=
201407080950 METAR EGLL 080950Z 31008KT 250V340 9999 FEW024 19/10 Q1015
                        TEMPO 6000 SHRA=
201407080920 METAR COR EGLL 080920Z 31005KT 260V350 9999 SCT025 18/12
                        Q1015 TEMPO 6000 SHRA=
201407080850 METAR COR EGLL 080850Z 31004KT 270V010 9999 FEW027 18/10
                        Q1015 TEMPO 6000 SHRA=
201407080820 METAR COR EGLL 080820Z 30004KT 250V340 9999 FEW032 18/10
                        Q1015 TEMPO 6000 SHRA=
201407080750 METAR COR EGLL 080750Z 28004KT 230V360 9999 FEW024 17/11
                        Q1016 TEMPO 6000 SHRA=
201407080720 METAR COR EGLL 080720Z 36004KT 330V040 9999 FEW020 16/12
                        Q1016 NOSIG=
201407080650 METAR COR EGLL 080650Z VRB03KT CAVOK 16/11 Q1016 NOSIG=
201407080620 METAR COR EGLL 080620Z 29005KT CAVOK 15/12 Q1015 NOSIG=
201407080550 METAR COR EGLL 080550Z 29004KT 270V330 CAVOK 15/12 Q1015
                        NOSIG=
201407080520 METAR COR EGLL 080520Z VRB03KT CAVOK 14/12 Q1015 NOSIG=
201407080450 METAR COR EGLL 080450Z 28002KT CAVOK 13/11 Q1015 NOSIG=
201407080420 METAR COR EGLL 080420Z 31002KT CAVOK 13/12 Q1015 NOSIG=
201407080350 METAR COR EGLL 080350Z 28002KT CAVOK 12/12 Q1015 NOSIG=
201407080320 METAR COR EGLL 080320Z 27003KT CAVOK 13/11 Q1015 NOSIG=
201407080250 METAR EGLL 080250Z AUTO 29002KT 9999 NCD 13/11 Q1015=
201407080220 METAR COR EGLL 080220Z 29002KT CAVOK 13/11 Q1015 NOSIG=
201407080150 METAR EGLL 080150Z AUTO 00000KT 9999 NCD 13/12 Q1016=
201407080120 METAR EGLL 080120Z AUTO 01004KT 9999 NCD 14/12 Q1016=
201407080050 METAR EGLL 080050Z AUTO 00000KT 9999 NCD 14/12 Q1016=
201407080020 METAR EGLL 080020Z 02002KT CAVOK 14/12 Q1016=
201407072350 METAR COR EGLL 072350Z 00000KT CAVOK 14/12 Q1016 NOSIG=
201407072320 METAR COR EGLL 072320Z 00000KT CAVOK 14/11 Q1016 NOSIG=
201407072250 METAR COR EGLL 072250Z 28002KT CAVOK 14/12 Q1016 NOSIG=
201407072220 METAR COR EGLL 072220Z 29003KT CAVOK 15/12 Q1016 NOSIG=
201407072150 METAR COR EGLL 072150Z VRB02KT 9999 FEW035 15/12 Q1016 NOSIG=
201407072120 METAR COR EGLL 072120Z 00000KT 9999 FEW030 15/12 Q1016 NOSIG=
201407072050 METAR COR EGLL 072050Z VRB02KT 9999 FEW030 16/12 Q1016 NOSIG=
201407072020 METAR COR EGLL 072020Z VRB02KT 9999 FEW030 16/12 Q1016 NOSIG=
201407071950 METAR COR EGLL 071950Z 31005KT 9999 FEW031 SCT044 17/11 Q1016
                        NOSIG=
201407071920 METAR COR EGLL 071920Z 27006KT 220V310 9999 FEW022 SCT041
                        18/11 Q1016 NOSIG=
201407071850 METAR COR EGLL 071850Z 27005KT 230V330 9999 SCT041CB 19/10
                        Q1015 NOSIG=
201407071820 METAR COR EGLL 071820Z 22005KT 160V260 9999 VCSH SCT042CB
                        19/11 Q1015 NOSIG=
201407071750 METAR COR EGLL 071750Z VRB03KT 9999 SCT044CB 19/11 Q1015
                        NOSIG=
201407071720 METAR COR EGLL 071720Z VRB02KT 9999 SCT041CB 19/10 Q1015
                        NOSIG=
201407071650 METAR COR EGLL 071650Z 31004KT 280V360 9999 FEW047CB 18/11
                        Q1015 NOSIG=
201407071620 METAR COR EGLL 071620Z 30009KT 9999 VCSH SCT045CB 18/12 Q1015
                        NOSIG=
201407071550 METAR COR EGLL 071550Z 27011KT 210V300 9999 VCSH SCT045CB
                        20/11 Q1015 NOSIG=
201407071520 METAR COR EGLL 071520Z 27013KT 9999 VCSH SCT040CB 20/11 Q1015
                        TEMPO SHRA=
201407071450 METAR EGLL 071450Z 22005KT 160V260 9999 VCSH SCT040CB 21/10
                        Q1015 TEMPO SHRA=
201407071420 METAR COR EGLL 071420Z 19009KT 100V230 9999 VCSH FEW040CB
                        20/10 Q1015 TEMPO SHRA=
201407071350 METAR COR EGLL 071350Z 20011KT 150V250 9999 -SHRA SCT040CB
                        20/11 Q1015 TEMPO SHRA=
201407071320 METAR COR EGLL 071320Z 22007KT 160V260 9999 SCT040 20/10
                        Q1015 TEMPO SHRA=
201407071250 METAR COR EGLL 071250Z 20009KT 160V250 9999 FEW039 20/11
                        Q1015 TEMPO SHRA=
201407071220 METAR COR EGLL 071220Z 19007KT 150V250 9999 FEW024 SCT039
                        19/12 Q1016 TEMPO SHRA=
201407071150 METAR COR EGLL 071150Z 19011KT 160V240 9999 -SHRA FEW022
                        SCT045 16/12 Q1016 RESHRA NOSIG=
201407071120 METAR COR EGLL 071120Z 27007KT 9999 VCSH SCT044 19/09 Q1015
                        TEMPO SHRA=
201407071050 METAR COR EGLL 071050Z VRB07KT 9999 SCT048 21/08 Q1015 NOSIG=
201407071020 METAR COR EGLL 071020Z 22009KT 170V250 9999 SCT044 20/09
                        Q1015 NOSIG=
201407070950 METAR COR EGLL 070950Z 22010G20KT 160V260 9999 FEW039 SCT049
                        19/08 Q1015 NOSIG=
201407070920 METAR COR EGLL 070920Z 20007KT 140V260 9999 FEW037 SCT049
                        18/09 Q1015 NOSIG=
201407070850 METAR COR EGLL 070850Z 24008KT 210V270 9999 FEW033 SCT036
                        19/10 Q1015 NOSIG=
201407070820 METAR COR EGLL 070820Z 25006KT 180V290 9999 FEW028 SCT042
                        18/10 Q1015 NOSIG=
201407070750 METAR COR EGLL 070750Z 21007KT 170V240 9999 FEW028 17/10
                        Q1015 NOSIG=
201407070720 METAR COR EGLL 070720Z 23006KT 9999 FEW024 16/10 Q1015 NOSIG=
201407070650 METAR COR EGLL 070650Z 23007KT 190V260 CAVOK 16/11 Q1015
                        NOSIG=
201407070620 METAR COR EGLL 070620Z 20007KT 180V250 CAVOK 15/10 Q1015
                        NOSIG=
201407070550 METAR EGLL 070550Z 22006KT 170V260 CAVOK 14/10 Q1014 NOSIG=
201407070520 METAR COR EGLL 070520Z 21006KT 180V260 CAVOK 13/10 Q1014
                        NOSIG=
201407070450 METAR COR EGLL 070450Z 18003KT CAVOK 12/10 Q1014 NOSIG=
201407070420 METAR COR EGLL 070420Z 20005KT CAVOK 11/10 Q1014 NOSIG=
201407070350 METAR COR EGLL 070350Z 20004KT CAVOK 11/10 Q1013 NOSIG=
201407070320 METAR COR EGLL 070320Z 21003KT CAVOK 11/09 Q1013 NOSIG=
201407070250 METAR COR EGLL 070250Z 21004KT CAVOK 12/09 Q1013 NOSIG=
201407070220 METAR COR EGLL 070220Z 22005KT CAVOK 12/10 Q1013 NOSIG=
201407070150 METAR COR EGLL 070150Z 21004KT CAVOK 12/10 Q1012 NOSIG=
201407070120 METAR EGLL 070120Z AUTO 23005KT 9999 NCD 12/09 Q1012=
201407070050 METAR EGLL 070050Z AUTO 23007KT 9999 NCD 13/09 Q1012=
201407070020 METAR COR EGLL 070020Z AUTO 24006KT 9999 NCD 13/09 Q1012=
201407062350 METAR COR EGLL 062350Z 25005KT CAVOK 14/09 Q1012 NOSIG=
201407062320 METAR COR EGLL 062320Z 26009KT CAVOK 14/09 Q1011 NOSIG=
201407062250 METAR COR EGLL 062250Z 25008KT CAVOK 15/10 Q1011 NOSIG=
201407062220 METAR EGLL 062220Z 23008KT CAVOK 15/10 Q1011=
201407062150 METAR COR EGLL 062150Z 24010KT CAVOK 15/10 Q1010 NOSIG=
201407062120 METAR COR EGLL 062120Z 24010KT CAVOK 16/10 Q1010 NOSIG=
201407062050 METAR COR EGLL 062050Z 24010KT CAVOK 17/10 Q1009 NOSIG=
201407062020 METAR COR EGLL 062020Z 25011KT 9999 FEW045 17/10 Q1009 NOSIG=
201407061950 METAR COR EGLL 061950Z 27010KT 9999 FEW043 18/11 Q1008 NOSIG=
201407061920 METAR COR EGLL 061920Z 27009KT 9999 FEW048 19/11 Q1008 NOSIG=
201407061850 METAR COR EGLL 061850Z 27012KT 9999 FEW028 18/11 Q1007 NOSIG=
201407061820 METAR COR EGLL 061820Z 26005KT 230V290 9999 6000NE -SHRA
                        FEW028CB 18/12 Q1007 RESHRA NOSIG=
201407061750 METAR EGLL 061750Z 24012G22KT 9999 -SHRA FEW030 SCT049 19/12
                        Q1006 RESHRA=
201407061720 METAR COR EGLL 061720Z 24010KT 190V270 9999 FEW048 20/08
                        Q1006 NOSIG=
201407061650 METAR EGLL 061650Z 25011KT CAVOK 21/07 Q1006=
201407061620 METAR COR EGLL 061620Z 27011KT CAVOK 22/07 Q1006 NOSIG=
201407061550 METAR COR EGLL 061550Z 26012KT 220V280 9999 FEW048 21/08
                        Q1006 NOSIG=
201407061520 METAR COR EGLL 061520Z 25010KT 220V290 9999 FEW044 20/08
                        Q1006 NOSIG=
201407061450 METAR COR EGLL 061450Z 28010KT 9999 FEW044 20/09 Q1006 NOSIG=
201407061420 METAR EGLL 061420Z 28010KT 250V310 9999 FEW046 20/08 Q1005=
201407061350 METAR EGLL 061350Z AUTO 27009KT 230V310 9999 FEW042 SCT046
                        21/09 Q1005=
201407061320 METAR COR EGLL 061320Z 27010KT 230V300 9999 SCT044 20/09
                        Q1005 NOSIG=
201407061250 METAR COR EGLL 061250Z 26008KT 220V290 9999 SCT044 20/08
                        Q1005 NOSIG=
201407061220 METAR COR EGLL 061220Z 26009KT 230V320 9999 SCT044 20/08
                        Q1005 NOSIG=
201407061150 METAR COR EGLL 061150Z 27008KT 230V310 9999 FEW048 20/07
                        Q1005 NOSIG=
201407061120 METAR COR EGLL 061120Z 26009KT 230V310 9999 FEW040 19/08
                        Q1005 NOSIG=
201407061050 METAR COR EGLL 061050Z 26009KT 230V300 9999 FEW040 18/08
                        Q1005 NOSIG=
201407061020 METAR COR EGLL 061020Z 26008KT 210V310 9999 FEW040 18/08
                        Q1005 NOSIG=
201407060950 METAR COR EGLL 060950Z 28005KT 250V330 CAVOK 17/08 Q1004
                        NOSIG=
201407060920 METAR COR EGLL 060920Z 29006KT 270V340 9999 FEW046 16/08
                        Q1004 NOSIG=
201407060850 METAR COR EGLL 060850Z 29008KT CAVOK 15/09 Q1004 NOSIG=
201407060820 METAR COR EGLL 060820Z 29007KT CAVOK 15/09 Q1004 NOSIG=
201407060750 METAR COR EGLL 060750Z 27008KT CAVOK 14/09 Q1004 NOSIG=
201407060720 METAR COR EGLL 060720Z 27008KT 9999 FEW030 14/10 Q1004 NOSIG=
201407060650 METAR COR EGLL 060650Z 28004KT 240V320 9999 FEW030 14/10
                        Q1004 NOSIG=
201407060620 METAR COR EGLL 060620Z 27006KT 220V290 9999 FEW030 14/10
                        Q1004 NOSIG=
201407060550 METAR COR EGLL 060550Z 27006KT 9999 FEW038 BKN049 14/11 Q1004
                        NOSIG=
201407060520 METAR COR EGLL 060520Z 25005KT 200V290 9999 SCT034 SCT042
                        14/11 Q1003 NOSIG=
201407060450 METAR COR EGLL 060450Z 28004KT 240V310 9999 SCT033 15/11
                        Q1003 NOSIG=
201407060420 METAR COR EGLL 060420Z 29006KT 9999 FEW031 15/11 Q1003 NOSIG=
201407060350 METAR COR EGLL 060350Z 29005KT 9999 FEW031 15/11 Q1003 NOSIG=
201407060320 METAR COR EGLL 060320Z 28005KT CAVOK 15/13 Q1003 NOSIG=
201407060250 METAR COR EGLL 060250Z 24005KT 9999 FEW033 15/14 Q1003 NOSIG=
201407060220 METAR COR EGLL 060220Z 21004KT 9999 FEW007 15/14 Q1003 NOSIG=
201407060150 METAR COR EGLL 060150Z 21004KT 9999 FEW009 15/14 Q1003 NOSIG=
201407060120 METAR EGLL 060120Z AUTO 21004KT 9999 FEW009 15/14 Q1003=
201407060050 METAR EGLL 060050Z AUTO 19005KT 9999 FEW010 15/14 Q1003=
201407060020 METAR EGLL 060020Z AUTO 22005KT 9999 SCT011 16/14 Q1004=
201407052350 METAR COR EGLL 052350Z 20006KT 9999 FEW010 BKN013 16/14 Q1004
                        TEMPO SCT012=
201407052320 METAR COR EGLL 052320Z 19006KT 9999 FEW011 16/14 Q1004 NOSIG=
201407052250 METAR COR EGLL 052250Z 20006KT 9999 FEW010 16/14 Q1004 NOSIG=
201407052220 METAR COR EGLL 052220Z 20008KT 170V230 CAVOK 16/14 Q1004
                        NOSIG=
201407052150 METAR COR EGLL 052150Z 19008KT 150V240 CAVOK 17/14 Q1004
                        NOSIG=
201407052120 METAR COR EGLL 052120Z 19008KT 150V240 CAVOK 17/14 Q1004
                        NOSIG=
201407052050 METAR COR EGLL 052050Z 21008KT 150V260 CAVOK 17/13 Q1004
                        NOSIG=
201407052020 METAR COR EGLL 052020Z 23010KT 9999 FEW021 18/14 Q1004 NOSIG=
201407051950 METAR COR EGLL 051950Z 24009KT 9999 FEW021 18/14 Q1004 NOSIG=
201407051920 METAR COR EGLL 051920Z 20008KT 180V250 9999 FEW025 19/14
                        Q1004 NOSIG=
201407051850 METAR COR EGLL 051850Z VRB06KT CAVOK 19/14 Q1004 NOSIG=
201407051820 METAR EGLL 051820Z 22008KT 180V260 CAVOK 19/13 Q1003 TEMPO
                        SHRA=
201407051750 METAR COR EGLL 051750Z 20009KT 170V240 CAVOK 19/13 Q1003
                        NOSIG=
201407051720 METAR COR EGLL 051720Z 21007KT 180V250 CAVOK 19/13 Q1003
                        NOSIG=
201407051650 METAR COR EGLL 051650Z 20006KT 150V260 CAVOK 18/13 Q1003
                        NOSIG=
201407051620 METAR COR EGLL 051620Z 22007KT 180V270 9999 FEW048 18/13
                        Q1004 NOSIG=
201407051550 METAR COR EGLL 051550Z 20007KT 150V260 9999 FEW048 18/13
                        Q1004 NOSIG=
201407051520 METAR COR EGLL 051520Z 23008KT 180V250 9999 VCSH FEW025 SCT049
                        18/13 Q1004 NOSIG=
201407051450 METAR COR EGLL 051450Z VRB05G15KT 9999 VCSH FEW025 SCT044
                        18/14 Q1003 TEMPO SHRA=
201407051420 METAR COR EGLL 051420Z 26010KT 230V310 9999 6000NE -SHRA
                        FEW025 SCT046 19/13 Q1003 TEMPO SHRA=
201407051350 METAR COR EGLL 051350Z 25013KT 9999 6000NW VCSH SCT030 SCT046
                        20/14 Q1003 TEMPO SHRA=
201407051320 METAR COR EGLL 051320Z 24011KT 200V270 9999 SCT033 20/14
                        Q1002 TEMPO SHRA=
201407051250 METAR COR EGLL 051250Z 25013KT 9999 SCT033 21/13 Q1002 NOSIG=
201407051220 METAR COR EGLL 051220Z 23011KT 9999 FEW034 20/14 Q1002 NOSIG=
201407051150 METAR COR EGLL 051150Z 23014KT 9999 SCT024 BKN039 20/14 Q1002
                        NOSIG=
201407051120 METAR COR EGLL 051120Z 26013KT 9999 FEW022 SCT031 21/14 Q1002
                        NOSIG=
201407051050 METAR COR EGLL 051050Z 25014KT 9999 FEW031 SCT037 20/14 Q1001
                        NOSIG=
201407051020 METAR COR EGLL 051020Z 24015KT 9999 FEW019 BKN036 20/15 Q1001
                        NOSIG=
201407050950 METAR COR EGLL 050950Z 24015KT 9999 FEW018 SCT028 20/15 Q1001
                        NOSIG=
201407050920 METAR COR EGLL 050920Z 24015KT 9999 SCT014 SCT020 19/16 Q1000
                        NOSIG=
201407050850 METAR EGLL 050850Z 24013KT 9999 BKN012 19/16 Q1000=
201407050820 METAR COR EGLL 050820Z 24010KT 9999 FEW008 BKN010 BKN036
                        18/16 Q1000 BECMG BKN015=
201407050750 METAR COR EGLL 050750Z 24010KT 9999 3500SE -RA FEW006 BKN009
                        17/16 Q1000 BECMG 9999 BKN015=
201407050720 METAR COR EGLL 050720Z 22010KT 9000 2500SW -RADZ FEW008 BKN010
                        17/16 Q0999 BECMG 9999 BKN015=
201407050650 METAR COR EGLL 050650Z 21009KT 9999 FEW008 BKN012 17/16 Q0999
                        BECMG BKN015=
201407050620 METAR COR EGLL 050620Z 21010KT 9999 -RA FEW006 BKN012 17/16
                        Q0999 BECMG BKN015=
201407050550 METAR COR EGLL 050550Z 21011KT 9000 -RA FEW006 BKN011 17/16
                        Q0999 NOSIG=
201407050520 METAR COR EGLL 050520Z 20009KT 170V230 9999 -RA FEW006 BKN011
                        16/16 Q0999 TEMPO SHRA BKN008=
201407050450 METAR COR EGLL 050450Z 19009KT 9999 -RA FEW006 BKN009 16/16
                        Q0999 TEMPO RADZ=
201407050420 METAR COR EGLL 050420Z 19009KT 9999 -RA FEW006 BKN010 16/16
                        Q0999 TEMPO RADZ BKN009=
201407050350 METAR COR EGLL 050350Z 19009KT 9999 -RA FEW007 BKN011 17/16
                        Q1000 REDZ TEMPO RA SCT006 BKN009=
201407050320 METAR COR EGLL 050320Z 20009KT 9999 DZ FEW008 OVC016 17/16
                        Q1000 TEMPO SCT006 BKN009=
201407050250 METAR COR EGLL 050250Z 21011KT 9999 -RA FEW008 BKN013 17/16
                        Q1000 TEMPO 4000 RADZ SCT006 BKN009=
201407050220 METAR COR EGLL 050220Z 19010KT 9999 FEW009 BKN013 17/15 Q1000
                        TEMPO 4500 RADZ BKN008=
201407050150 METAR COR EGLL 050150Z 19011KT 9999 FEW008 BKN017 17/16 Q1001
                        BECMG RADZ BKN010=
201407050120 METAR EGLL 050120Z AUTO 19012KT 9999 OVC008 17/15 Q1001=
201407050050 METAR EGLL 050050Z AUTO 19012KT 9999 OVC008 17/15 Q1002=
201407050020 METAR EGLL 050020Z AUTO 18011KT 9999 BKN008 17/15 Q1002=
201407042350 METAR COR EGLL 042350Z 19010KT 9999 FEW009 BKN011 17/16 Q1002
                        NOSIG=
201407042320 METAR COR EGLL 042320Z 19011KT 9999 FEW010 BKN012 17/15 Q1003
                        NOSIG=
201407042250 METAR COR EGLL 042250Z 20011KT 9999 FEW008 BKN012 17/16 Q1003
                        NOSIG=
201407042220 METAR COR EGLL 042220Z 20011KT 170V240 9999 FEW010 BKN015
                        17/16 Q1003 TEMPO RADZ BKN012=
201407042150 METAR COR EGLL 042150Z 20012KT 170V240 9999 -RA BKN013 17/16
                        Q1004 TEMPO RADZ=
201407042120 METAR COR EGLL 042120Z 21011KT 9999 -RA SCT016 17/15 Q1004
                        TEMPO RA BKN012=
201407042050 METAR COR EGLL 042050Z 21012KT 180V250 9999 -RA FEW020 SCT024
                        18/15 Q1004 TEMPO RA BKN014=
201407042020 METAR COR EGLL 042020Z 22013KT 190V250 9999 -RA FEW021 SCT025
                        18/15 Q1004 TEMPO RA BKN012=
201407041950 METAR COR EGLL 041950Z 22011KT 180V250 9999 SCT027 19/14
                        Q1004 TEMPO RA BKN012=
201407041920 METAR EGLL 041920Z 22014KT 9999 SCT029 20/13 Q1004=
201407041850 METAR COR EGLL 041850Z 23016KT 9999 SCT032 21/13 Q1004 TEMPO
                        RA=
201407041820 METAR COR EGLL 041820Z 21013KT 9999 SCT031 21/13 Q1004 TEMPO
                        RA=
201407041750 METAR COR EGLL 041750Z 20013KT 170V250 9999 FEW031 22/14
                        Q1004 NOSIG=
201407041720 METAR COR EGLL 041720Z 22014KT 9999 FEW035 22/13 Q1004 NOSIG=
201407041650 METAR COR EGLL 041650Z 22015KT 9999 FEW037 23/13 Q1004 NOSIG=
201407041620 METAR COR EGLL 041620Z 22014KT 9999 FEW038 24/13 Q1004 NOSIG=
201407041550 METAR COR EGLL 041550Z 23016KT 9999 FEW048 24/11 Q1004 NOSIG=
201407041520 METAR EGLL 041520Z 22014KT 180V250 CAVOK 25/10 Q1005 NOSIG=
201407041450 METAR EGLL 041450Z 24018G28KT CAVOK 25/08 Q1005 NOSIG=
201407041420 METAR COR EGLL 041420Z 22015KT 180V250 CAVOK 26/10 Q1005
                        NOSIG=
201407041350 METAR COR EGLL 041350Z 21014KT 180V250 9999 FEW046 26/11
                        Q1005 NOSIG=
201407041320 METAR COR EGLL 041320Z 23018KT 9999 FEW046 27/12 Q1006 NOSIG=
201407041250 METAR COR EGLL 041250Z 19017KT 140V240 9999 FEW045 26/12
                        Q1006 NOSIG=
201407041220 METAR COR EGLL 041220Z 20014KT 170V230 9999 FEW043 26/12
                        Q1006 NOSIG=
201407041150 METAR COR EGLL 041150Z 21014KT 170V240 9999 FEW042 25/13
                        Q1007 NOSIG=
201407041120 METAR COR EGLL 041120Z 20014KT 170V250 9999 FEW040 25/13
                        Q1007 NOSIG=
201407041050 METAR EGLL 041050Z 21014KT CAVOK 25/12 Q1008 NOSIG=
201407041020 METAR COR EGLL 041020Z 20012KT CAVOK 23/13 Q1008 NOSIG=
201407040950 METAR COR EGLL 040950Z 18013G23KT CAVOK 23/12 Q1008 NOSIG=
201407040920 METAR COR EGLL 040920Z 19011KT 150V220 CAVOK 21/13 Q1009
                        NOSIG=
201407040850 METAR COR EGLL 040850Z 19012G23KT CAVOK 22/13 Q1009 NOSIG=
201407040820 METAR COR EGLL 040820Z 20011KT CAVOK 21/12 Q1009 NOSIG=
201407040750 METAR COR EGLL 040750Z 20010KT CAVOK 20/12 Q1010 NOSIG=
201407040720 METAR COR EGLL 040720Z 20011KT CAVOK 19/12 Q1010 NOSIG=
201407040650 METAR COR EGLL 040650Z 19007KT 150V220 9999 FEW008 18/12
                        Q1011 NOSIG=
201407040620 METAR COR EGLL 040620Z 19007KT 150V230 9999 FEW008 16/13
                        Q1011 NOSIG=
201407040550 METAR COR EGLL 040550Z 19007KT 160V250 9999 FEW007 15/13
                        Q1011 NOSIG=
201407040520 METAR COR EGLL 040520Z 21006KT 9999 FEW008 15/13 Q1012 NOSIG=
201407040450 METAR COR EGLL 040450Z 21007KT CAVOK 14/12 Q1012 NOSIG=
201407040420 METAR COR EGLL 040420Z 23007KT CAVOK 14/12 Q1012 NOSIG=
201407040350 METAR COR EGLL 040350Z 24008KT CAVOK 14/12 Q1013 TEMPO BKN010=
201407040320 METAR COR EGLL 040320Z 21007KT CAVOK 14/11 Q1013 TEMPO BKN010=
201407040250 METAR COR EGLL 040250Z 20007KT CAVOK 14/11 Q1013 TEMPO BKN010=
201407040220 METAR COR EGLL 040220Z 22008KT CAVOK 14/11 Q1013 NOSIG=
201407040150 METAR COR EGLL 040150Z 24005KT CAVOK 15/11 Q1014 NOSIG=
201407040120 METAR EGLL 040120Z AUTO 21006KT 9999 NCD 15/11 Q1014=
201407040050 METAR EGLL 040050Z AUTO 22007KT 9999 NCD 15/10 Q1015=
201407040020 METAR EGLL 040020Z AUTO 22008KT 9999 NCD 16/09 Q1015=
201407032350 METAR COR EGLL 032350Z 23008KT CAVOK 17/09 Q1015 NOSIG=
201407032320 METAR COR EGLL 032320Z 22008KT CAVOK 17/08 Q1015 NOSIG=
201407032250 METAR COR EGLL 032250Z 21008KT CAVOK 18/09 Q1015 NOSIG=
201407032220 METAR COR EGLL 032220Z 21009KT CAVOK 18/11 Q1015 NOSIG=
201407032150 METAR EGLL 032150Z 21009KT CAVOK 19/11 Q1016 NOSIG=
201407032120 METAR COR EGLL 032120Z 22010KT CAVOK 19/11 Q1016 NOSIG=
201407032050 METAR EGLL 032050Z 22009KT 180V250 CAVOK 20/09 Q1016 NOSIG=
201407032020 METAR COR EGLL 032020Z 22011KT 180V260 CAVOK 21/09 Q1016
                        NOSIG=
201407031950 METAR COR EGLL 031950Z 22012KT CAVOK 22/08 Q1016 NOSIG=
201407031920 METAR COR EGLL 031920Z 23013KT CAVOK 23/07 Q1016 NOSIG=
201407031850 METAR COR EGLL 031850Z 22013KT CAVOK 23/08 Q1016 NOSIG=
201407031820 METAR COR EGLL 031820Z 22013KT CAVOK 24/08 Q1016 NOSIG=
201407031750 METAR COR EGLL 031750Z 22014KT CAVOK 25/07 Q1016 NOSIG=
201407031720 METAR COR EGLL 031720Z 22013KT CAVOK 25/05 Q1017 NOSIG=
201407031650 METAR COR EGLL 031650Z 21014KT CAVOK 26/07 Q1017 NOSIG=
201407031620 METAR COR EGLL 031620Z 22014KT CAVOK 26/07 Q1017 NOSIG=
201407031550 METAR COR EGLL 031550Z 22014KT 180V250 CAVOK 26/08 Q1017
                        NOSIG=
201407031520 METAR COR EGLL 031520Z 21015KT CAVOK 26/07 Q1017 NOSIG=
201407031450 METAR COR EGLL 031450Z 22013KT 190V250 CAVOK 27/08 Q1018
                        NOSIG=
201407031420 METAR COR EGLL 031420Z 24014KT CAVOK 26/09 Q1018 NOSIG=
201407031350 METAR COR EGLL 031350Z 22013G27KT 170V240 CAVOK 26/08 Q1018
                        NOSIG=
201407031320 METAR COR EGLL 031320Z 23016KT CAVOK 26/08 Q1019 NOSIG=
201407031250 METAR EGLL 031250Z 22014KT 180V250 CAVOK 26/09 Q1019 NOSIG=
201407031220 METAR COR EGLL 031220Z 22015KT CAVOK 25/08 Q1019 NOSIG=
201407031150 METAR COR EGLL 031150Z 23013KT 190V260 CAVOK 25/10 Q1020
                        NOSIG=
201407031120 METAR COR EGLL 031120Z 21012G25KT 180V250 CAVOK 25/09 Q1020
                        NOSIG=
201407031050 METAR EGLL 031050Z 24013KT CAVOK 25/09 Q1020=
201407031020 METAR COR EGLL 031020Z 23011KT 200V270 CAVOK 24/08 Q1020
                        NOSIG=
201407030950 METAR COR EGLL 030950Z 23010KT 200V270 CAVOK 23/08 Q1020
                        NOSIG=
201407030920 METAR EGLL 030920Z 23008KT 190V270 CAVOK 23/08 Q1021=
201407030850 METAR COR EGLL 030850Z 22008KT 190V260 CAVOK 22/10 Q1021
                        NOSIG=
201407030820 METAR COR EGLL 030820Z 19007KT 140V240 CAVOK 21/10 Q1021
                        NOSIG=
201407030750 METAR COR EGLL 030750Z 22008KT 190V260 CAVOK 19/10 Q1021
                        NOSIG=
201407030720 METAR COR EGLL 030720Z 23008KT CAVOK 18/10 Q1021 NOSIG=
201407030650 METAR COR EGLL 030650Z 22009KT CAVOK 17/10 Q1021 NOSIG=
201407030620 METAR COR EGLL 030620Z 22008KT 190V260 CAVOK 16/10 Q1021
                        NOSIG=
201407030550 METAR COR EGLL 030550Z 22006KT 190V250 CAVOK 15/10 Q1021
                        NOSIG=
201407030520 METAR COR EGLL 030520Z VRB04KT CAVOK 14/10 Q1021 NOSIG=
201407030450 METAR EGLL 030450Z 19003KT CAVOK 14/10 Q1021 NOSIG=
201407030420 METAR COR EGLL 030420Z 20004KT CAVOK 14/10 Q1021 NOSIG=
201407030350 METAR EGLL 030350Z 21005KT CAVOK 14/10 Q1021 NOSIG=
201407030320 METAR COR EGLL 030320Z 23005KT CAVOK 14/10 Q1021 NOSIG=
201407030250 METAR COR EGLL 030250Z 21004KT CAVOK 14/10 Q1022 NOSIG=
201407030220 METAR EGLL 030220Z 20006KT CAVOK 15/10 Q1022=
201407030150 METAR COR EGLL 030150Z 20005KT CAVOK 15/10 Q1022 NOSIG=
201407030120 METAR EGLL 030120Z AUTO 21005KT 9999 NCD 16/11 Q1022=
201407030050 METAR EGLL 030050Z AUTO 21005KT 9999 NCD 16/11 Q1023=
201407030020 METAR EGLL 030020Z AUTO 22005KT 180V240 9999 NCD 17/11 Q1023=
201407022350 METAR COR EGLL 022350Z 23006KT CAVOK 17/11 Q1023 NOSIG=
201407022320 METAR COR EGLL 022320Z 23006KT CAVOK 17/11 Q1023 NOSIG=
201407022250 METAR COR EGLL 022250Z 22006KT CAVOK 17/11 Q1023 NOSIG=
201407022220 METAR COR EGLL 022220Z 22006KT CAVOK 18/12 Q1023 NOSIG=
201407022150 METAR COR EGLL 022150Z 23007KT CAVOK 18/12 Q1023 NOSIG=
201407022120 METAR COR EGLL 022120Z 22009KT CAVOK 18/12 Q1023 NOSIG=
201407022050 METAR EGLL 022050Z 22009KT 190V250 CAVOK 19/13 Q1022 NOSIG=
201407022020 METAR COR EGLL 022020Z 22010KT 170V250 CAVOK 20/13 Q1022
                        NOSIG=
201407021950 METAR COR EGLL 021950Z 22010KT CAVOK 20/13 Q1022 NOSIG=
201407021920 METAR COR EGLL 021920Z 22010KT 190V250 CAVOK 21/12 Q1022
                        NOSIG=
201407021850 METAR EGLL 021850Z 22013KT CAVOK 21/12 Q1022 NOSIG=
201407021820 METAR COR EGLL 021820Z 21011KT 180V240 CAVOK 22/13 Q1022
                        NOSIG=
201407021750 METAR COR EGLL 021750Z 24009KT 200V270 CAVOK 23/08 Q1021
                        NOSIG=
201407021720 METAR COR EGLL 021720Z 23006KT 180V280 CAVOK 24/08 Q1021
                        NOSIG=
201407021650 METAR COR EGLL 021650Z VRB04KT CAVOK 23/07 Q1021 NOSIG=
201407021620 METAR COR EGLL 021620Z 25005KT 200V300 CAVOK 24/07 Q1022
                        NOSIG=
201407021550 METAR COR EGLL 021550Z 24007KT 200V280 CAVOK 24/07 Q1022
                        NOSIG=
201407021520 METAR COR EGLL 021520Z 24006KT 180V320 CAVOK 25/05 Q1022
                        NOSIG=
201407021450 METAR COR EGLL 021450Z VRB05KT CAVOK 24/06 Q1022 NOSIG=
201407021420 METAR COR EGLL 021420Z 23007KT 140V290 CAVOK 24/06 Q1022
                        NOSIG=
201407021350 METAR COR EGLL 021350Z 23006KT 180V300 CAVOK 24/07 Q1022
                        NOSIG=
201407021320 METAR COR EGLL 021320Z 16004KT 120V210 CAVOK 23/07 Q1023
                        NOSIG=
201407021250 METAR COR EGLL 021250Z VRB02KT CAVOK 22/07 Q1023 NOSIG=
201407021220 METAR COR EGLL 021220Z 24006KT 180V270 CAVOK 23/07 Q1023
                        NOSIG=
201407021150 METAR EGLL 021150Z VRB07G17KT CAVOK 23/07 Q1023 NOSIG=
201407021120 METAR COR EGLL 021120Z VRB04KT 9999 FEW048 22/07 Q1023 NOSIG=
201407021050 METAR COR EGLL 021050Z VRB03KT 9999 FEW045 21/08 Q1023 NOSIG=
201407021020 METAR COR EGLL 021020Z 23006KT 180V270 9999 FEW040 21/09
                        Q1023 NOSIG=
201407020950 METAR COR EGLL 020950Z VRB03KT 9999 FEW040 20/09 Q1023 NOSIG=
201407020920 METAR COR EGLL 020920Z VRB02KT 9999 FEW040 20/09 Q1023 NOSIG=
201407020850 METAR COR EGLL 020850Z VRB03KT CAVOK 19/09 Q1023 NOSIG=
201407020820 METAR COR EGLL 020820Z VRB04KT CAVOK 18/10 Q1023 NOSIG=
201407020750 METAR COR EGLL 020750Z 16004KT 110V220 CAVOK 18/10 Q1023
                        NOSIG=
201407020720 METAR COR EGLL 020720Z 14004KT 110V180 CAVOK 17/10 Q1023
                        NOSIG=
201407020650 METAR COR EGLL 020650Z VRB02KT CAVOK 16/11 Q1023 NOSIG=
201407020620 METAR COR EGLL 020620Z VRB04KT CAVOK 15/10 Q1023 NOSIG=
201407020550 METAR COR EGLL 020550Z 00000KT CAVOK 14/10 Q1023 NOSIG=
201407020520 METAR COR EGLL 020520Z 00000KT CAVOK 14/10 Q1023 NOSIG=
201407020450 METAR COR EGLL 020450Z 36002KT CAVOK 13/10 Q1022 NOSIG=
201407020420 METAR COR EGLL 020420Z 36002KT CAVOK 12/10 Q1022 NOSIG=
201407020350 METAR COR EGLL 020350Z 01002KT CAVOK 12/09 Q1022 NOSIG=
201407020320 METAR COR EGLL 020320Z 00000KT CAVOK 12/10 Q1022 NOSIG=
201407020250 METAR COR EGLL 020250Z VRB02KT CAVOK 13/09 Q1022 NOSIG=
201407020220 METAR COR EGLL 020220Z 35002KT CAVOK 12/09 Q1022 NOSIG=
201407020150 METAR COR EGLL 020150Z 02002KT CAVOK 12/09 Q1023 NOSIG=
201407020120 METAR EGLL 020120Z AUTO 07002KT 9999 NCD 13/10 Q1023=
201407020050 METAR EGLL 020050Z AUTO 00000KT 9999 NCD 13/10 Q1023=
201407020020 METAR EGLL 020020Z AUTO VRB02KT 9999 NCD 13/10 Q1022=
201407012350 METAR COR EGLL 012350Z 10005KT CAVOK 13/10 Q1022 NOSIG=
201407012320 METAR COR EGLL 012320Z 10006KT CAVOK 13/09 Q1022 NOSIG=
201407012250 METAR COR EGLL 012250Z 11007KT CAVOK 14/09 Q1022 NOSIG=
201407012220 METAR COR EGLL 012220Z 11007KT CAVOK 14/09 Q1022 NOSIG=
201407012150 METAR EGLL 012150Z 10006KT CAVOK 15/08 Q1022 NOSIG=
201407012120 METAR COR EGLL 012120Z 10006KT CAVOK 16/08 Q1022 NOSIG=
201407012050 METAR COR EGLL 012050Z 09008KT CAVOK 17/08 Q1022 NOSIG=
201407012020 METAR COR EGLL 012020Z 09008KT CAVOK 17/08 Q1021 NOSIG=
201407011950 METAR COR EGLL 011950Z 09011KT CAVOK 18/07 Q1021 NOSIG=
201407011920 METAR COR EGLL 011920Z 07008KT CAVOK 21/06 Q1020 NOSIG=
201407011850 METAR COR EGLL 011850Z 04005KT 010V080 CAVOK 21/06 Q1020
                        NOSIG=
201407011820 METAR COR EGLL 011820Z VRB03KT CAVOK 21/06 Q1020 NOSIG=
201407011750 METAR COR EGLL 011750Z 04004KT 010V100 CAVOK 21/06 Q1020
                        NOSIG=
201407011720 METAR COR EGLL 011720Z 07006KT CAVOK 21/06 Q1020 NOSIG=
201407011650 METAR COR EGLL 011650Z 07007KT CAVOK 21/06 Q1020 NOSIG=
201407011620 METAR COR EGLL 011620Z 08009KT 040V110 CAVOK 22/06 Q1020
                        NOSIG=
201407011550 METAR EGLL 011550Z 10006KT 060V130 CAVOK 22/05 Q1020 NOSIG=
201407011520 METAR COR EGLL 011520Z 08009KT CAVOK 23/05 Q1020 NOSIG=
201407011450 METAR COR EGLL 011450Z 07009KT CAVOK 22/06 Q1020 NOSIG=
201407011420 METAR COR EGLL 011420Z 06008KT 040V100 CAVOK 21/05 Q1020
                        NOSIG=
201407011350 METAR COR EGLL 011350Z 08005KT 360V120 CAVOK 21/04 Q1019
                        NOSIG=
201407011320 METAR COR EGLL 011320Z 09006KT 060V120 CAVOK 21/05 Q1019
                        NOSIG=
201407011250 METAR COR EGLL 011250Z 12007G17KT 050V170 CAVOK 23/06 Q1019
                        NOSIG=
201407011220 METAR COR EGLL 011220Z 10005KT 020V150 CAVOK 22/05 Q1020
                        NOSIG=
201407011150 METAR COR EGLL 011150Z 11010KT CAVOK 22/06 Q1020 NOSIG=
201407011120 METAR COR EGLL 011120Z 12008KT CAVOK 22/06 Q1020 NOSIG=
201407011050 METAR EGLL 011050Z 11010KT 080V140 CAVOK 21/06 Q1020=
201407011020 METAR COR EGLL 011020Z 11010KT 9999 SCT047 20/07 Q1020 NOSIG=
201407010950 METAR COR EGLL 010950Z 10008KT 9999 FEW045 21/09 Q1020 NOSIG=
201407010920 METAR COR EGLL 010920Z 09007KT 040V130 9999 FEW039 20/09
                        Q1020 NOSIG=
201407010850 METAR COR EGLL 010850Z 07008KT CAVOK 20/09 Q1020 NOSIG=
201407010820 METAR COR EGLL 010820Z 09008KT 060V120 CAVOK 19/09 Q1020
                        NOSIG=
201407010750 METAR COR EGLL 010750Z 10008KT CAVOK 18/10 Q1020 NOSIG=
201407010720 METAR COR EGLL 010720Z 10007KT CAVOK 17/09 Q1020 NOSIG=
201407010650 METAR COR EGLL 010650Z 09007KT CAVOK 16/10 Q1019 NOSIG=
201407010620 METAR COR EGLL 010620Z 09006KT CAVOK 15/10 Q1019 NOSIG=
201407010550 METAR COR EGLL 010550Z 09003KT CAVOK 15/10 Q1019 NOSIG=
201407010520 METAR COR EGLL 010520Z 06003KT CAVOK 14/10 Q1019 NOSIG=
201407010450 METAR COR EGLL 010450Z 05003KT 9999 FEW031 13/09 Q1019 NOSIG=
201407010420 METAR COR EGLL 010420Z 05003KT CAVOK 12/09 Q1019 NOSIG=
201407010350 METAR COR EGLL 010350Z 07004KT CAVOK 11/09 Q1018 NOSIG=
201407010320 METAR COR EGLL 010320Z 04004KT CAVOK 12/09 Q1018 NOSIG=
201407010250 METAR COR EGLL 010250Z 04003KT CAVOK 12/09 Q1018 NOSIG=
201407010220 METAR COR EGLL 010220Z 05003KT CAVOK 12/09 Q1018 NOSIG=
201407010150 METAR COR EGLL 010150Z 07003KT CAVOK 12/09 Q1018 NOSIG=
201407010120 METAR EGLL 010120Z AUTO 09005KT 9999 NCD 12/09 Q1018=
201407010050 METAR EGLL 010050Z AUTO 09005KT 9999 NCD 12/10 Q1019=
201407010020 METAR EGLL 010020Z AUTO 10005KT 9999 NCD 12/10 Q1019=

</pre>

</body>
</html>
