##########################################################
# Query made at 12/24/2012 13:49:28 UTC
# Time interval: from 07/01/2012 00:00  to 07/31/2012 23:59  UTC
##########################################################

##########################################################
# EGLL, London / Heathrow Airport (United Kingdom)
# WMO index: 03772
# Latitude 51-29N. Longitude 000-27W. Altitude 24 m.
##########################################################

###################################
#  METAR/SPECI from EGLL
###################################
201207312350 METAR COR EGLL 312350Z 19005KT 9999 FEW040 15/14 Q1013 NOSIG=
201207312320 METAR COR EGLL 312320Z 20006KT 9999 FEW040 15/14 Q1013 NOSIG=
201207312250 METAR COR EGLL 312250Z 19007KT 9999 FEW039 15/14 Q1013 NOSIG=
201207312220 METAR COR EGLL 312220Z 19008KT CAVOK 16/14 Q1014 NOSIG=
201207312150 METAR COR EGLL 312150Z 19009KT 140V240 CAVOK 16/14 Q1014
                        NOSIG=
201207312120 METAR COR EGLL 312120Z 19009KT 140V240 CAVOK 16/14 Q1014
                        NOSIG=
201207312050 METAR COR EGLL 312050Z 21009KT 170V250 CAVOK 17/14 Q1014
                        NOSIG=
201207312020 METAR COR EGLL 312020Z 19008KT 150V250 CAVOK 17/14 Q1014
                        NOSIG=
201207311950 METAR COR EGLL 311950Z 21009KT 170V240 CAVOK 18/14 Q1014
                        NOSIG=
201207311920 METAR COR EGLL 311920Z 21011KT 9999 FEW019 18/14 Q1014 NOSIG=
201207311850 METAR COR EGLL 311850Z 21010KT 170V240 9999 FEW016 19/15
                        Q1014 NOSIG=
201207311820 METAR COR EGLL 311820Z 21009KT 170V250 CAVOK 19/15 Q1014
                        NOSIG=
201207311750 METAR COR EGLL 311750Z 21010KT 180V250 9999 FEW021 SCT043
                        20/15 Q1014 NOSIG=
201207311720 METAR COR EGLL 311720Z 22011KT 9999 SCT034 20/15 Q1013 NOSIG=
201207311650 METAR COR EGLL 311650Z 23013KT 9999 FEW026 SCT037 20/15 Q1013
                        NOSIG=
201207311620 METAR COR EGLL 311620Z 23012KT 9999 FEW021 SCT028 21/15 Q1013
                        NOSIG=
201207311550 METAR COR EGLL 311550Z 21010KT 180V250 9999 FEW017 SCT029
                        20/16 Q1013 NOSIG=
201207311520 METAR COR EGLL 311520Z 23011KT 9999 FEW015 SCT026 20/16 Q1013
                        NOSIG=
201207311450 METAR COR EGLL 311450Z 21008KT 180V250 9999 SCT015 20/17
                        Q1013 NOSIG=
201207311420 METAR COR EGLL 311420Z 23006KT 180V270 9999 FEW011 SCT015
                        19/17 Q1014 NOSIG=
201207311350 METAR COR EGLL 311350Z 22008KT 170V250 9999 VCSH FEW009 SCT015
                        BKN021 18/16 Q1014 TEMPO 4000 SHRA
                        BKN010=
201207311320 METAR COR EGLL 311320Z 22007KT 180V250 9999 5000S -DZRA FEW010
                        BKN015 BKN024 18/16 Q1014 TEMPO 4000
                        SHRA=
201207311250 METAR COR EGLL 311250Z 23006KT 9999 VCSH FEW015 BKN023 18/15
                        Q1014 TEMPO 4000 SHRA=
201207311220 METAR COR EGLL 311220Z 23012KT 9999 4800E -DZRA SCT014 BKN024
                        18/15 Q1014 TEMPO 6000 SHRA=
201207311150 METAR COR EGLL 311150Z 24010KT 9999 SCT017 BKN048 19/14 Q1014
                        NOSIG=
201207311120 METAR COR EGLL 311120Z 24010KT 9999 BKN018 19/14 Q1014 NOSIG=
201207311050 METAR COR EGLL 311050Z 23009KT 9999 FEW012 SCT015 BKN017
                        19/15 Q1014 NOSIG=
201207311020 METAR COR EGLL 311020Z 22009KT 190V250 9999 FEW009 SCT010
                        BKN016 17/14 Q1014 TEMPO BKN012=
201207310950 METAR COR EGLL 310950Z 22008KT 190V260 9999 SCT009 BKN014
                        17/14 Q1014 BECMG SCT010 BKN018=
201207310920 METAR COR EGLL 310920Z 22007KT 190V270 9999 SCT009 BKN012
                        16/14 Q1014 NOSIG=
201207310850 METAR COR EGLL 310850Z 17005KT 130V240 9999 SCT007 BKN009
                        15/13 Q1014 TEMPO BKN012=
201207310820 METAR COR EGLL 310820Z 17007KT 140V220 9999 SCT007 SCT010
                        BKN012 14/13 Q1014 NOSIG=
201207310750 METAR COR EGLL 310750Z 17006KT 120V210 9999 SCT006 SCT008
                        BKN010 14/12 Q1014 TEMPO BKN008=
201207310720 METAR COR EGLL 310720Z 20007KT 170V250 5000 -DZ SCT006 BKN007
                        13/12 Q1014 TEMPO BKN010=
201207310650 METAR COR EGLL 310650Z 17007KT 120V220 6000 -RADZ FEW003
                        SCT006 BKN010 13/12 Q1014 REDZ TEMPO
                        BKN006=
201207310620 METAR COR EGLL 310620Z 14005KT 090V190 3800 DZ FEW003 BKN006
                        12/11 Q1014 REDZ TEMPO 9999 NSW BKN010=
201207310550 METAR COR EGLL 310550Z 13006KT 080V180 4500 -DZ FEW007 BKN009
                        12/10 Q1014 NOSIG=
201207310520 METAR COR EGLL 310520Z 10007KT 070V150 6000 -DZ FEW010 BKN016
                        11/10 Q1014 TEMPO 3500 BKN006=
201207310450 METAR COR EGLL 310450Z 13007KT 080V160 7000 -DZ SCT004 BKN012
                        11/10 Q1015 TEMPO 3500 BKN006=
201207310420 METAR COR EGLL 310420Z 13006KT 080V160 8000 -DZ BKN017 BKN024
                        11/10 Q1015 TEMPO BKN012=
201207310350 METAR COR EGLL 310350Z 14006KT 120V220 9000 -DZ BKN023 11/10
                        Q1015 TEMPO BKN012=
201207310320 METAR COR EGLL 310320Z 10003KT 9999 -RA BKN030 11/10 Q1015
                        RERA NOSIG=
201207310250 METAR COR EGLL 310250Z 20005KT 6000 RADZ BKN022 11/09 Q1016
                        BECMG NSW=
201207310220 METAR COR EGLL 310220Z 22010KT 9000 RA SCT033 12/09 Q1016
                        NOSIG=
201207310150 METAR COR EGLL 310150Z 22006KT 9999 -RA SCT014 13/12 Q1016
                        NOSIG=
201207310120 METAR EGLL 310120Z AUTO 25007KT 9999 -RA FEW033/// 13/12
                        Q1016 RERA=
201207310050 METAR EGLL 310050Z AUTO 25005KT 9999 -RA FEW038/// 14/11
                        Q1016 RERA=
201207310020 METAR EGLL 310020Z AUTO 25007KT 9999 -RA NCD 14/11 Q1017=
201207302350 METAR COR EGLL 302350Z 24007KT 9999 -RA OVC049 14/11 Q1017
                        RERA NOSIG=
201207302320 METAR COR EGLL 302320Z 23008KT 200V260 9999 -RA BKN042 15/10
                        Q1016 NOSIG=
201207302250 METAR COR EGLL 302250Z 25008KT 9999 BKN043 15/08 Q1016 NOSIG=
201207302220 METAR COR EGLL 302220Z 22006KT 180V240 CAVOK 15/09 Q1016
                        NOSIG=
201207302150 METAR COR EGLL 302150Z 24009KT CAVOK 15/07 Q1016 NOSIG=
201207302120 METAR COR EGLL 302120Z 24009KT CAVOK 16/06 Q1016 NOSIG=
201207302050 METAR COR EGLL 302050Z 25011KT CAVOK 16/05 Q1016 NOSIG=
201207302020 METAR COR EGLL 302020Z 27010KT CAVOK 16/04 Q1016 NOSIG=
201207301950 METAR COR EGLL 301950Z 27013KT CAVOK 16/04 Q1016 NOSIG=
201207301920 METAR COR EGLL 301920Z 26013KT CAVOK 17/04 Q1016 NOSIG=
201207301850 METAR COR EGLL 301850Z 26014KT CAVOK 18/04 Q1016 NOSIG=
201207301820 METAR COR EGLL 301820Z 26015KT CAVOK 18/03 Q1015 NOSIG=
201207301750 METAR COR EGLL 301750Z 26013KT CAVOK 19/05 Q1015 NOSIG=
201207301720 METAR COR EGLL 301720Z 26015KT CAVOK 19/03 Q1015 NOSIG=
201207301650 METAR COR EGLL 301650Z 26016KT CAVOK 20/03 Q1015 NOSIG=
201207301620 METAR COR EGLL 301620Z 28015KT CAVOK 20/04 Q1015 NOSIG=
201207301550 METAR COR EGLL 301550Z 27015KT CAVOK 20/04 Q1015 NOSIG=
201207301520 METAR COR EGLL 301520Z 26017KT CAVOK 20/05 Q1015 NOSIG=
201207301450 METAR COR EGLL 301450Z 26017KT CAVOK 20/04 Q1015 NOSIG=
201207301420 METAR COR EGLL 301420Z 27013KT CAVOK 20/04 Q1015 NOSIG=
201207301350 METAR EGLL 301350Z 25014KT 230V290 CAVOK 20/05 Q1015=
201207301320 METAR COR EGLL 301320Z 24016KT CAVOK 20/05 Q1015 NOSIG=
201207301250 METAR COR EGLL 301250Z 24015KT CAVOK 20/06 Q1015 NOSIG=
201207301220 METAR COR EGLL 301220Z 24014KT 200V270 9999 FEW045 20/05
                        Q1015 NOSIG=
201207301150 METAR COR EGLL 301150Z 24012KT 9999 SCT044 20/07 Q1015 NOSIG=
201207301120 METAR COR EGLL 301120Z 27012KT 9999 SCT040 19/07 Q1015 NOSIG=
201207301050 METAR COR EGLL 301050Z 26013KT 9999 SCT040 18/06 Q1015 NOSIG=
201207301020 METAR COR EGLL 301020Z 26013KT 9999 SCT038 18/07 Q1015 NOSIG=
201207300950 METAR COR EGLL 300950Z 24011KT 210V270 9999 SCT038 17/07
                        Q1015 NOSIG=
201207300920 METAR COR EGLL 300920Z 27014KT 230V300 9999 SCT034 16/08
                        Q1016 NOSIG=
201207300850 METAR COR EGLL 300850Z 27011KT 9999 SCT028 16/08 Q1016 NOSIG=
201207300820 METAR COR EGLL 300820Z 25013KT 9999 FEW024 16/09 Q1016 NOSIG=
201207300750 METAR COR EGLL 300750Z 25011KT 9999 FEW024 15/09 Q1015 NOSIG=
201207300720 METAR COR EGLL 300720Z 26010KT CAVOK 15/09 Q1015 NOSIG=
201207300650 METAR COR EGLL 300650Z 28009KT CAVOK 14/09 Q1015 NOSIG=
201207300620 METAR COR EGLL 300620Z 26008KT CAVOK 13/08 Q1015 NOSIG=
201207300550 METAR COR EGLL 300550Z 25007KT CAVOK 11/08 Q1015 NOSIG=
201207300520 METAR COR EGLL 300520Z 23007KT CAVOK 11/08 Q1015 NOSIG=
201207300450 METAR COR EGLL 300450Z 21005KT CAVOK 10/07 Q1014 NOSIG=
201207300420 METAR COR EGLL 300420Z 22005KT 9999 FEW040 10/07 Q1014 NOSIG=
201207300350 METAR COR EGLL 300350Z 23005KT CAVOK 10/07 Q1014 NOSIG=
201207300320 METAR COR EGLL 300320Z 25005KT CAVOK 10/08 Q1014 NOSIG=
201207300250 METAR COR EGLL 300250Z 20004KT CAVOK 10/08 Q1014 NOSIG=
201207300220 METAR COR EGLL 300220Z 20002KT CAVOK 10/08 Q1014 NOSIG=
201207300150 METAR COR EGLL 300150Z 18004KT CAVOK 10/08 Q1014 NOSIG=
201207300120 METAR EGLL 300120Z AUTO 18005KT 9999 NCD 10/08 Q1014=
201207300050 METAR EGLL 300050Z AUTO 21004KT 9999 NCD 10/08 Q1014=
201207300020 METAR EGLL 300020Z AUTO 26006KT 9999 NCD 11/08 Q1014=
201207292350 METAR COR EGLL 292350Z 25007KT CAVOK 11/08 Q1014 NOSIG=
201207292320 METAR COR EGLL 292320Z 25007KT CAVOK 11/08 Q1014 NOSIG=
201207292250 METAR COR EGLL 292250Z 27007KT CAVOK 12/08 Q1014 NOSIG=
201207292220 METAR COR EGLL 292220Z 27007KT CAVOK 13/08 Q1014 NOSIG=
201207292150 METAR COR EGLL 292150Z 27008KT CAVOK 13/07 Q1014 NOSIG=
201207292120 METAR COR EGLL 292120Z 28008KT CAVOK 14/06 Q1013 NOSIG=
201207292050 METAR COR EGLL 292050Z 27009KT 9999 FEW049 14/05 Q1013 NOSIG=
201207292020 METAR COR EGLL 292020Z 28009KT 9999 FEW025CB 15/06 Q1013
                        NOSIG=
201207291950 METAR EGLL 291950Z AUTO 26011KT 9999 NCD 15/07 Q1012=
201207291920 METAR EGLL 291920Z AUTO 24010KT 9999 NCD 16/10 Q1012=
201207291850 METAR COR EGLL 291850Z 21009KT 9999 FEW025CB 16/12 Q1012
                        NOSIG=
201207291820 METAR EGLL 291820Z AUTO 21009KT 9999 NCD 16/11 Q1012=
201207291750 METAR EGLL 291750Z AUTO 20009KT 160V240 9999 SCT048/// 16/11
                        Q1012=
201207291720 METAR COR EGLL 291720Z 19009KT 9999 SCT043 16/12 Q1012 NOSIG=
201207291650 METAR COR EGLL 291650Z 20005KT 160V250 9999 SCT042CB 15/12
                        Q1012 NOSIG=
201207291620 METAR COR EGLL 291620Z 21010KT 9999 VCSH FEW011 SCT021CB
                        BKN030 14/12 Q1012 TEMPO SHRA=
201207291550 METAR COR EGLL 291550Z 21009KT 9999 VCSH SCT020CB 14/11 Q1012
                        RESHRA TEMPO SHRA=
201207291520 METAR COR EGLL 291520Z 23010KT 9999 6000SW VCSH SCT020CB
                        16/10 Q1011 TEMPO TSRA=
201207291450 METAR COR EGLL 291450Z 23009KT 190V270 9999 VCSH SCT020CB
                        17/12 Q1011 TEMPO TSRA=
201207291420 METAR COR EGLL 291420Z 25007KT 9999 VCSH SCT022CB 14/11 Q1012
                        RERA TEMPO SHRA=
201207291350 METAR COR EGLL 291350Z 27012KT 9999 SHRA SCT024CB 14/10 Q1012
                        RERA BECMG NSW=
201207291320 METAR EGLL 291320Z 24015KT 9999 VCSH SCT025CB 18/10 Q1011=
201207291250 METAR EGLL 291250Z 22010KT 180V250 9999 VCSH SCT033CB 17/11
                        Q1011=
201207291220 METAR COR EGLL 291220Z 21010KT 170V250 9999 VCSH SCT030CB
                        15/11 Q1012 TEMPO TSRA=
201207291150 METAR COR EGLL 291150Z 21012KT 180V250 9999 VCSH SCT020CB
                        BKN041 15/10 Q1012 TEMPO TSRA=
201207291120 METAR COR EGLL 291120Z 23009KT 190V270 9999 VCSH SCT030CB
                        BKN040 16/11 Q1011 TEMPO TSRA=
201207291050 METAR COR EGLL 291050Z 26007KT 9999 -SHRA FEW021 SCT028CB
                        BKN038 16/11 Q1011 RESHRA TEMPO SHRA=
201207291020 METAR COR EGLL 291020Z 22008KT 9999 VCSH FEW028CB SCT040
                        16/12 Q1011 RETS RESHRA TEMPO SHRA=
201207290950 METAR COR EGLL 290950Z 27011KT 9999 -SHRA SCT033CB BKN040
                        17/09 Q1011 TEMPO TSRA=
201207290920 METAR COR EGLL 290920Z 28011KT 9999 SCT030 18/10 Q1011 TEMPO
                        SHRA=
201207290850 METAR COR EGLL 290850Z 26011KT 9999 SCT028 18/10 Q1012 TEMPO
                        SHRA=
201207290820 METAR COR EGLL 290820Z 26011KT 9999 FEW036 17/09 Q1012 NOSIG=
201207290750 METAR COR EGLL 290750Z 25011KT 9999 FEW024 16/10 Q1012 NOSIG=
201207290720 METAR COR EGLL 290720Z 25009KT 220V280 9999 NSC 15/10 Q1012
                        NOSIG=
201207290650 METAR COR EGLL 290650Z 25010KT 9999 FEW049 14/10 Q1011 NOSIG=
201207290620 METAR COR EGLL 290620Z 25009KT 9999 FEW049 13/09 Q1011 NOSIG=
201207290550 METAR COR EGLL 290550Z 23009KT 9999 FEW049 12/09 Q1011 NOSIG=
201207290520 METAR EGLL 290520Z 25008KT 9999 FEW049 12/08 Q1011=
201207290450 METAR COR EGLL 290450Z 22006KT CAVOK 11/08 Q1011 NOSIG=
201207290420 METAR COR EGLL 290420Z 21004KT CAVOK 11/08 Q1011 NOSIG=
201207290350 METAR COR EGLL 290350Z 23005KT CAVOK 11/08 Q1011 NOSIG=
201207290320 METAR COR EGLL 290320Z 24008KT CAVOK 11/08 Q1011 NOSIG=
201207290250 METAR COR EGLL 290250Z 24008KT CAVOK 12/08 Q1011 NOSIG=
201207290220 METAR COR EGLL 290220Z 25007KT CAVOK 12/08 Q1011 NOSIG=
201207290150 METAR COR EGLL 290150Z 25006KT CAVOK 12/08 Q1011 NOSIG=
201207290120 METAR EGLL 290120Z AUTO 24007KT 9999 NCD 12/08 Q1011=
201207290050 METAR EGLL 290050Z AUTO 24007KT 9999 NCD 12/08 Q1011=
201207290020 METAR EGLL 290020Z AUTO 25008KT 9999 NCD 13/08 Q1011=
201207282350 METAR COR EGLL 282350Z 26007KT CAVOK 13/08 Q1011 NOSIG=
201207282320 METAR COR EGLL 282320Z 26009KT CAVOK 13/07 Q1011 NOSIG=
201207282250 METAR COR EGLL 282250Z 27008KT CAVOK 14/07 Q1011 NOSIG=
201207282220 METAR COR EGLL 282220Z 25009KT CAVOK 14/06 Q1011 NOSIG=
201207282150 METAR COR EGLL 282150Z 25010KT CAVOK 15/06 Q1011 NOSIG=
201207282120 METAR COR EGLL 282120Z 27010KT CAVOK 15/04 Q1011 NOSIG=
201207282050 METAR COR EGLL 282050Z 27011KT CAVOK 16/04 Q1011 NOSIG=
201207282020 METAR COR EGLL 282020Z 28011KT CAVOK 17/05 Q1010 NOSIG=
201207281950 METAR COR EGLL 281950Z 27011KT CAVOK 17/06 Q1010 NOSIG=
201207281920 METAR COR EGLL 281920Z 26012KT CAVOK 18/05 Q1010 NOSIG=
201207281850 METAR COR EGLL 281850Z 25011KT CAVOK 19/02 Q1010 NOSIG=
201207281820 METAR COR EGLL 281820Z 26014KT CAVOK 19/02 Q1010 NOSIG=
201207281750 METAR COR EGLL 281750Z 27012KT CAVOK 19/04 Q1010 NOSIG=
201207281720 METAR COR EGLL 281720Z 26013KT CAVOK 20/05 Q1010 NOSIG=
201207281650 METAR COR EGLL 281650Z 26010KT 9999 FEW048 19/07 Q1010 NOSIG=
201207281620 METAR COR EGLL 281620Z 27011KT 9999 FEW048 19/07 Q1010 NOSIG=
201207281550 METAR COR EGLL 281550Z 27011KT 9999 FEW049 19/07 Q1010 NOSIG=
201207281520 METAR COR EGLL 281520Z 28011KT 250V310 CAVOK 19/07 Q1010
                        NOSIG=
201207281450 METAR COR EGLL 281450Z 27010KT 240V310 CAVOK 20/07 Q1010
                        NOSIG=
201207281420 METAR COR EGLL 281420Z 29009KT CAVOK 20/07 Q1010 NOSIG=
201207281350 METAR COR EGLL 281350Z 26010KT 210V290 9999 FEW049 20/06
                        Q1010 NOSIG=
201207281320 METAR COR EGLL 281320Z 28009KT 250V310 9999 FEW049 20/07
                        Q1010 NOSIG=
201207281250 METAR COR EGLL 281250Z 28009KT 240V310 9999 SCT049 20/06
                        Q1010 NOSIG=
201207281220 METAR COR EGLL 281220Z 29008KT 9999 SCT049 19/07 Q1010 NOSIG=
201207281150 METAR COR EGLL 281150Z 28007KT 250V330 9999 SCT049 20/07
                        Q1010 NOSIG=
201207281120 METAR COR EGLL 281120Z VRB07KT 9999 SCT048 20/07 Q1011 NOSIG=
201207281050 METAR COR EGLL 281050Z VRB03KT 9999 SCT042 20/08 Q1011 NOSIG=
201207281020 METAR COR EGLL 281020Z VRB05KT 9999 SCT039 18/09 Q1011 NOSIG=
201207280950 METAR COR EGLL 280950Z 31005KT 240V010 9999 FEW039 19/09
                        Q1011 NOSIG=
201207280920 METAR COR EGLL 280920Z 30004KT 220V020 9999 FEW032 18/09
                        Q1011 NOSIG=
201207280850 METAR COR EGLL 280850Z VRB03KT 9999 FEW028 17/10 Q1011 NOSIG=
201207280820 METAR COR EGLL 280820Z 04004KT 310V100 9999 FEW024 16/10
                        Q1011 NOSIG=
201207280750 METAR COR EGLL 280750Z 34004KT 300V020 CAVOK 16/10 Q1011
                        NOSIG=
201207280720 METAR COR EGLL 280720Z 34005KT 310V010 CAVOK 15/10 Q1011
                        NOSIG=
201207280650 METAR COR EGLL 280650Z 34005KT 300V020 CAVOK 15/09 Q1011
                        NOSIG=
201207280620 METAR COR EGLL 280620Z 32005KT 280V360 9999 BKN049 15/09
                        Q1011 NOSIG=
201207280550 METAR COR EGLL 280550Z 32005KT 290V010 9999 FEW037 BKN046
                        14/09 Q1011 NOSIG=
201207280520 METAR COR EGLL 280520Z 34005KT 280V010 9999 FEW034 BKN042
                        15/09 Q1010 NOSIG=
201207280450 METAR COR EGLL 280450Z VRB03KT 9999 BKN043 15/09 Q1011 NOSIG=
201207280420 METAR COR EGLL 280420Z 35005KT 310V020 9999 BKN039 15/09
                        Q1011 NOSIG=
201207280350 METAR COR EGLL 280350Z 34004KT 310V030 9999 BKN038 15/09
                        Q1011 NOSIG=
201207280320 METAR COR EGLL 280320Z 33004KT 280V020 9999 BKN039 15/09
                        Q1011 NOSIG=
201207280250 METAR COR EGLL 280250Z 36004KT 310V030 9999 BKN037 15/08
                        Q1011 NOSIG=
201207280220 METAR COR EGLL 280220Z 36005KT 9999 BKN037 15/08 Q1011 NOSIG=
201207280150 METAR COR EGLL 280150Z 02004KT 340V070 9999 BKN040 15/08
                        Q1011 NOSIG=
201207280120 METAR EGLL 280120Z AUTO 35004KT 310V020 9999 BKN041/// 15/08
                        Q1011=
201207280050 METAR EGLL 280050Z AUTO 35005KT 310V020 9999 NCD 15/08 Q1012=
201207280020 METAR EGLL 280020Z AUTO 35006KT 310V020 9999 SCT047/// 16/08
                        Q1012=
201207272350 METAR COR EGLL 272350Z 35007KT 320V020 9999 SCT047 16/10
                        Q1011 NOSIG=
201207272320 METAR COR EGLL 272320Z 35006KT 310V020 9999 BKN047 17/10
                        Q1011 NOSIG=
201207272250 METAR COR EGLL 272250Z 36007KT 320V040 9999 BKN045 17/11
                        Q1011 NOSIG=
201207272220 METAR COR EGLL 272220Z 35006KT 280V030 9999 SCT046 18/11
                        Q1011 NOSIG=
201207272150 METAR COR EGLL 272150Z 36008KT 330V030 9999 FEW049 19/11
                        Q1011 NOSIG=
201207272120 METAR COR EGLL 272120Z 36009KT 9999 SCT046 20/12 Q1011 NOSIG=
201207272050 METAR COR EGLL 272050Z 36006KT 290V030 9999 FEW047 22/12
                        Q1011 NOSIG=
201207272020 METAR COR EGLL 272020Z 01006KT 350V060 CAVOK 22/12 Q1010
                        NOSIG=
201207271950 METAR COR EGLL 271950Z 36003KT CAVOK 23/12 Q1010 NOSIG=
201207271920 METAR COR EGLL 271920Z 35003KT CAVOK 23/12 Q1010 NOSIG=
201207271850 METAR COR EGLL 271850Z VRB03KT 9999 FEW045 23/12 Q1010 NOSIG=
201207271820 METAR COR EGLL 271820Z 35004KT 320V030 9999 SCT045 23/12
                        Q1010 NOSIG=
201207271750 METAR COR EGLL 271750Z 35006KT 9999 SCT043 24/12 Q1010 NOSIG=
201207271720 METAR COR EGLL 271720Z 33005KT 310V020 9999 BKN040 24/13
                        Q1010 NOSIG=
201207271650 METAR COR EGLL 271650Z 35005KT 310V020 9999 BKN041 24/14
                        Q1010 NOSIG=
201207271620 METAR COR EGLL 271620Z VRB04KT 9999 FEW039 SCT043 24/15 Q1010
                        NOSIG=
201207271550 METAR COR EGLL 271550Z 35004KT 300V050 9999 FEW037 SCT045
                        24/15 Q1011 NOSIG=
201207271520 METAR COR EGLL 271520Z 36004KT 290V100 9999 FEW034 SCT048
                        24/15 Q1011 NOSIG=
201207271450 METAR COR EGLL 271450Z 02004KT 300V120 9999 SCT038 24/16
                        Q1011 NOSIG=
201207271420 METAR COR EGLL 271420Z 35004KT 300V030 9999 SCT030 23/16
                        Q1012 NOSIG=
201207271350 METAR COR EGLL 271350Z 01004KT 290V070 9000 FEW025 SCT031
                        23/16 Q1012 NOSIG=
201207271320 METAR COR EGLL 271320Z 04005KT 330V080 8000 SCT025 23/16
                        Q1012 NOSIG=
201207271250 METAR COR EGLL 271250Z 34006KT 310V010 6000 BKN024 22/17
                        Q1012 NOSIG=
201207271220 METAR COR EGLL 271220Z 32005KT 290V030 6000 FEW021 22/17
                        Q1012 NOSIG=
201207271150 METAR COR EGLL 271150Z 34005KT 300V040 6000 FEW019 21/16
                        Q1013 NOSIG=
201207271120 METAR COR EGLL 271120Z 34006KT 300V360 6000 FEW018 21/16
                        Q1013 NOSIG=
201207271050 METAR COR EGLL 271050Z 35004KT 300V040 8000 NSC 21/16 Q1013
                        NOSIG=
201207271020 METAR COR EGLL 271020Z 36004KT 330V050 8000 NSC 20/16 Q1013
                        NOSIG=
201207270950 METAR COR EGLL 270950Z 36004KT 310V050 8000 NSC 20/15 Q1013
                        NOSIG=
201207270920 METAR COR EGLL 270920Z 29006KT CAVOK 19/14 Q1013 NOSIG=
201207270850 METAR COR EGLL 270850Z VRB03KT 9999 FEW030 19/14 Q1013 RESHRA
                        TEMPO SHRA=
201207270820 METAR COR EGLL 270820Z 32005KT 280V020 CAVOK 20/13 Q1013
                        TEMPO SHRA=
201207270750 METAR COR EGLL 270750Z VRB02KT 9000 NSC 20/14 Q1013 NOSIG=
201207270720 METAR COR EGLL 270720Z VRB02KT 9000 NSC 19/14 Q1013 NOSIG=
201207270650 METAR COR EGLL 270650Z VRB02KT 9000 NSC 18/14 Q1014 NOSIG=
201207270620 METAR COR EGLL 270620Z 33004KT 290V360 9000 NSC 18/15 Q1014
                        NOSIG=
201207270550 METAR COR EGLL 270550Z VRB03KT 8000 NSC 18/14 Q1014 NOSIG=
201207270520 METAR COR EGLL 270520Z VRB02KT 8000 NSC 17/14 Q1013 NOSIG=
201207270450 METAR COR EGLL 270450Z 33002KT 8000 NSC 18/14 Q1013 NOSIG=
201207270420 METAR COR EGLL 270420Z VRB03KT 7000 NSC 17/15 Q1013 TEMPO
                        SHRA=
201207270350 METAR COR EGLL 270350Z 08002KT 8000 NSC 16/14 Q1014 TEMPO
                        SHRA=
201207270320 METAR COR EGLL 270320Z 06002KT 9000 NSC 16/14 Q1014 TEMPO
                        SHRA=
201207270250 METAR COR EGLL 270250Z 07002KT 9000 NSC 16/14 Q1014 NOSIG=
201207270220 METAR COR EGLL 270220Z 00000KT 9000 NSC 16/14 Q1015 NOSIG=
201207270150 METAR COR EGLL 270150Z 35003KT 9000 NSC 17/14 Q1015 NOSIG=
201207270120 METAR EGLL 270120Z AUTO 28002KT 9999 NCD 17/14 Q1015=
201207270050 METAR EGLL 270050Z AUTO 09003KT 9999 NCD 16/13 Q1015=
201207270020 METAR EGLL 270020Z AUTO 09003KT 9999 NCD 17/13 Q1015=
201207262350 METAR COR EGLL 262350Z 09005KT CAVOK 17/12 Q1015 NOSIG=
201207262320 METAR COR EGLL 262320Z 10005KT CAVOK 17/12 Q1016 NOSIG=
201207262250 METAR COR EGLL 262250Z 10006KT CAVOK 17/12 Q1016 NOSIG=
201207262220 METAR COR EGLL 262220Z 09007KT CAVOK 18/11 Q1016 NOSIG=
201207262150 METAR COR EGLL 262150Z 09008KT CAVOK 18/11 Q1016 NOSIG=
201207262120 METAR COR EGLL 262120Z 09008KT CAVOK 20/11 Q1016 NOSIG=
201207262050 METAR COR EGLL 262050Z 10008KT CAVOK 20/11 Q1016 NOSIG=
201207262020 METAR COR EGLL 262020Z 10008KT CAVOK 21/11 Q1016 NOSIG=
201207261950 METAR COR EGLL 261950Z 10009KT CAVOK 21/11 Q1016 NOSIG=
201207261920 METAR COR EGLL 261920Z 09010KT CAVOK 22/11 Q1016 NOSIG=
201207261850 METAR COR EGLL 261850Z 10010KT CAVOK 23/11 Q1016 NOSIG=
201207261820 METAR COR EGLL 261820Z 09009KT CAVOK 24/11 Q1016 NOSIG=
201207261750 METAR COR EGLL 261750Z 10009KT CAVOK 25/10 Q1016 NOSIG=
201207261720 METAR COR EGLL 261720Z 10009KT CAVOK 26/11 Q1016 NOSIG=
201207261650 METAR COR EGLL 261650Z 09009KT CAVOK 26/11 Q1016 NOSIG=
201207261620 METAR COR EGLL 261620Z 08007KT CAVOK 27/12 Q1016 NOSIG=
201207261550 METAR COR EGLL 261550Z 09007KT 030V130 CAVOK 27/12 Q1016
                        NOSIG=
201207261520 METAR COR EGLL 261520Z 09007KT 050V120 CAVOK 27/13 Q1017
                        NOSIG=
201207261450 METAR COR EGLL 261450Z 08007KT 050V120 CAVOK 27/12 Q1017
                        NOSIG=
201207261420 METAR COR EGLL 261420Z 08005KT 060V140 CAVOK 27/13 Q1017
                        NOSIG=
201207261350 METAR COR EGLL 261350Z 08006KT 030V140 CAVOK 27/13 Q1017
                        NOSIG=
201207261320 METAR COR EGLL 261320Z 06006KT 010V090 CAVOK 27/12 Q1018
                        NOSIG=
201207261250 METAR COR EGLL 261250Z 12007KT 090V150 CAVOK 26/13 Q1018
                        NOSIG=
201207261220 METAR COR EGLL 261220Z 09007KT 040V150 CAVOK 26/13 Q1018
                        NOSIG=
201207261150 METAR COR EGLL 261150Z 09007KT 040V130 CAVOK 25/13 Q1018
                        NOSIG=
201207261120 METAR COR EGLL 261120Z 11008KT CAVOK 25/13 Q1019 NOSIG=
201207261050 METAR COR EGLL 261050Z 10010KT CAVOK 24/13 Q1019 NOSIG=
201207261020 METAR COR EGLL 261020Z 08008KT 050V110 CAVOK 23/14 Q1019
                        NOSIG=
201207260950 METAR COR EGLL 260950Z 09005KT 060V120 CAVOK 22/14 Q1020
                        NOSIG=
201207260920 METAR COR EGLL 260920Z 10006KT 070V140 CAVOK 22/13 Q1020
                        NOSIG=
201207260850 METAR COR EGLL 260850Z 11006KT 070V140 CAVOK 21/12 Q1020
                        NOSIG=
201207260820 METAR COR EGLL 260820Z 09006KT 020V120 CAVOK 20/12 Q1019
                        NOSIG=
201207260750 METAR COR EGLL 260750Z 09005KT CAVOK 20/12 Q1019 NOSIG=
201207260720 METAR COR EGLL 260720Z 06005KT 040V100 CAVOK 19/13 Q1019
                        NOSIG=
201207260650 METAR COR EGLL 260650Z 07006KT CAVOK 18/13 Q1019 NOSIG=
201207260620 METAR COR EGLL 260620Z 06005KT 030V100 CAVOK 17/12 Q1019
                        NOSIG=
201207260550 METAR COR EGLL 260550Z 06005KT 010V090 CAVOK 16/12 Q1019
                        NOSIG=
201207260520 METAR COR EGLL 260520Z 04005KT 010V070 CAVOK 16/12 Q1019
                        NOSIG=
201207260450 METAR COR EGLL 260450Z 04005KT CAVOK 16/12 Q1019 NOSIG=
201207260420 METAR COR EGLL 260420Z 04005KT 020V080 CAVOK 16/12 Q1019
                        NOSIG=
201207260350 METAR COR EGLL 260350Z 04005KT CAVOK 17/12 Q1019 NOSIG=
201207260320 METAR COR EGLL 260320Z 04005KT CAVOK 17/12 Q1019 NOSIG=
201207260250 METAR COR EGLL 260250Z 04004KT CAVOK 18/12 Q1019 NOSIG=
201207260220 METAR COR EGLL 260220Z 05004KT CAVOK 18/11 Q1019 NOSIG=
201207260150 METAR COR EGLL 260150Z 05004KT CAVOK 18/11 Q1019 NOSIG=
201207260120 METAR EGLL 260120Z AUTO 05002KT 9999 NCD 18/12 Q1019=
201207260050 METAR EGLL 260050Z AUTO 08003KT 9999 NCD 18/12 Q1019=
201207260020 METAR EGLL 260020Z AUTO 07004KT 9999 NCD 18/12 Q1019=
201207252350 METAR COR EGLL 252350Z 09005KT CAVOK 18/12 Q1019 NOSIG=
201207252320 METAR COR EGLL 252320Z 09008KT CAVOK 18/12 Q1019 NOSIG=
201207252250 METAR COR EGLL 252250Z 10008KT CAVOK 20/12 Q1019 NOSIG=
201207252220 METAR COR EGLL 252220Z 09009KT CAVOK 20/11 Q1019 NOSIG=
201207252150 METAR COR EGLL 252150Z 08008KT CAVOK 21/10 Q1018 NOSIG=
201207252120 METAR COR EGLL 252120Z 08008KT CAVOK 22/10 Q1018 NOSIG=
201207252050 METAR COR EGLL 252050Z 09008KT CAVOK 22/09 Q1018 NOSIG=
201207252020 METAR COR EGLL 252020Z 08010KT CAVOK 23/08 Q1018 NOSIG=
201207251950 METAR COR EGLL 251950Z 08011KT CAVOK 24/09 Q1017 NOSIG=
201207251920 METAR COR EGLL 251920Z 05010KT 020V090 CAVOK 27/13 Q1017
                        NOSIG=
201207251850 METAR COR EGLL 251850Z 01007KT 340V060 CAVOK 28/13 Q1016
                        NOSIG=
201207251820 METAR COR EGLL 251820Z 01005KT 330V060 CAVOK 28/12 Q1016
                        NOSIG=
201207251750 METAR COR EGLL 251750Z 02006KT 340V060 CAVOK 28/11 Q1016
                        NOSIG=
201207251720 METAR COR EGLL 251720Z 01006KT 310V060 CAVOK 29/12 Q1016
                        NOSIG=
201207251650 METAR COR EGLL 251650Z 36005KT 320V050 CAVOK 29/12 Q1016
                        NOSIG=
201207251620 METAR COR EGLL 251620Z 34007KT 290V030 CAVOK 29/12 Q1016
                        NOSIG=
201207251550 METAR COR EGLL 251550Z VRB04KT CAVOK 29/11 Q1016 NOSIG=
201207251520 METAR COR EGLL 251520Z VRB02KT CAVOK 29/11 Q1016 NOSIG=
201207251450 METAR COR EGLL 251450Z VRB04KT CAVOK 30/10 Q1016 NOSIG=
201207251420 METAR COR EGLL 251420Z VRB04KT CAVOK 30/11 Q1016 NOSIG=
201207251350 METAR COR EGLL 251350Z 01005KT 300V070 CAVOK 29/12 Q1016
                        NOSIG=
201207251320 METAR COR EGLL 251320Z VRB05KT CAVOK 29/12 Q1016 NOSIG=
201207251250 METAR COR EGLL 251250Z VRB04KT CAVOK 29/11 Q1016 NOSIG=
201207251220 METAR COR EGLL 251220Z VRB04KT CAVOK 28/12 Q1016 NOSIG=
201207251150 METAR COR EGLL 251150Z VRB04KT CAVOK 28/12 Q1016 NOSIG=
201207251120 METAR COR EGLL 251120Z 01004KT 300V090 CAVOK 27/12 Q1017
                        NOSIG=
201207251050 METAR COR EGLL 251050Z 32005KT 270V030 CAVOK 27/11 Q1017
                        NOSIG=
201207251020 METAR COR EGLL 251020Z VRB03KT CAVOK 26/12 Q1017 NOSIG=
201207250950 METAR COR EGLL 250950Z VRB02KT CAVOK 26/12 Q1017 NOSIG=
201207250920 METAR COR EGLL 250920Z VRB02KT CAVOK 24/12 Q1017 NOSIG=
201207250850 METAR COR EGLL 250850Z VRB03KT CAVOK 23/12 Q1017 NOSIG=
201207250820 METAR COR EGLL 250820Z VRB02KT CAVOK 23/12 Q1017 NOSIG=
201207250750 METAR COR EGLL 250750Z VRB03KT CAVOK 22/11 Q1017 NOSIG=
201207250720 METAR COR EGLL 250720Z VRB03KT CAVOK 21/11 Q1017 NOSIG=
201207250650 METAR COR EGLL 250650Z 32004KT CAVOK 20/11 Q1016 NOSIG=
201207250620 METAR COR EGLL 250620Z 32003KT CAVOK 19/12 Q1016 NOSIG=
201207250550 METAR COR EGLL 250550Z 31004KT CAVOK 18/11 Q1016 NOSIG=
201207250520 METAR EGLL 250520Z 31004KT CAVOK 17/11 Q1016=
201207250450 METAR COR EGLL 250450Z 31003KT CAVOK 17/11 Q1016 NOSIG=
201207250420 METAR COR EGLL 250420Z VRB03KT CAVOK 17/11 Q1016 NOSIG=
201207250350 METAR COR EGLL 250350Z 30004KT CAVOK 17/11 Q1016 NOSIG=
201207250320 METAR COR EGLL 250320Z 30004KT CAVOK 16/12 Q1016 NOSIG=
201207250250 METAR COR EGLL 250250Z 30004KT CAVOK 17/12 Q1016 NOSIG=
201207250220 METAR COR EGLL 250220Z 29004KT CAVOK 17/12 Q1016 NOSIG=
201207250150 METAR COR EGLL 250150Z 29005KT CAVOK 18/12 Q1016 NOSIG=
201207250120 METAR EGLL 250120Z AUTO 28003KT 9999 NCD 19/12 Q1016=
201207250050 METAR EGLL 250050Z AUTO 26005KT 9999 NCD 20/12 Q1016=
201207250020 METAR EGLL 250020Z AUTO 24006KT 9999 NCD 20/12 Q1016=
201207242350 METAR COR EGLL 242350Z 25007KT CAVOK 20/12 Q1016 NOSIG=
201207242320 METAR COR EGLL 242320Z 24007KT CAVOK 21/12 Q1016 NOSIG=
201207242250 METAR COR EGLL 242250Z 22006KT CAVOK 21/12 Q1016 NOSIG=
201207242220 METAR COR EGLL 242220Z 22006KT CAVOK 21/12 Q1016 NOSIG=
201207242150 METAR COR EGLL 242150Z 20006KT 180V250 CAVOK 21/12 Q1016
                        NOSIG=
201207242120 METAR COR EGLL 242120Z 19008KT CAVOK 22/12 Q1016 NOSIG=
201207242050 METAR COR EGLL 242050Z 17006KT CAVOK 23/13 Q1016 NOSIG=
201207242020 METAR COR EGLL 242020Z 20006KT 160V230 CAVOK 24/13 Q1016
                        NOSIG=
201207241950 METAR COR EGLL 241950Z 21008KT CAVOK 25/13 Q1016 NOSIG=
201207241920 METAR COR EGLL 241920Z 22008KT 190V250 CAVOK 26/13 Q1016
                        NOSIG=
201207241850 METAR COR EGLL 241850Z 26005KT 200V290 CAVOK 27/11 Q1015
                        NOSIG=
201207241820 METAR COR EGLL 241820Z 19005KT 160V240 CAVOK 27/10 Q1015
                        NOSIG=
201207241750 METAR COR EGLL 241750Z 23004KT 150V300 CAVOK 28/10 Q1015
                        NOSIG=
201207241720 METAR COR EGLL 241720Z 18004KT 130V270 CAVOK 28/10 Q1015
                        NOSIG=
201207241650 METAR COR EGLL 241650Z 18004KT 110V260 CAVOK 28/10 Q1015
                        NOSIG=
201207241620 METAR COR EGLL 241620Z 21006KT 170V250 CAVOK 29/10 Q1016
                        NOSIG=
201207241550 METAR COR EGLL 241550Z 12004KT 080V170 CAVOK 28/09 Q1016
                        NOSIG=
201207241520 METAR COR EGLL 241520Z 21005KT 120V260 CAVOK 29/09 Q1016
                        NOSIG=
201207241450 METAR COR EGLL 241450Z VRB04KT CAVOK 29/10 Q1016 NOSIG=
201207241420 METAR COR EGLL 241420Z VRB06KT CAVOK 28/09 Q1016 NOSIG=
201207241350 METAR COR EGLL 241350Z VRB04KT CAVOK 29/10 Q1017 NOSIG=
201207241320 METAR COR EGLL 241320Z VRB04KT CAVOK 28/12 Q1017 NOSIG=
201207241250 METAR COR EGLL 241250Z 18006KT 120V240 CAVOK 27/12 Q1017
                        NOSIG=
201207241220 METAR COR EGLL 241220Z 16005KT 090V230 CAVOK 27/12 Q1018
                        NOSIG=
201207241150 METAR COR EGLL 241150Z 12005KT 050V220 CAVOK 27/11 Q1018
                        NOSIG=
201207241120 METAR COR EGLL 241120Z VRB05KT CAVOK 26/12 Q1018 NOSIG=
201207241050 METAR COR EGLL 241050Z 22006KT 140V280 CAVOK 26/11 Q1018
                        NOSIG=
201207241020 METAR COR EGLL 241020Z 21006KT 140V270 CAVOK 25/10 Q1018
                        NOSIG=
201207240950 METAR COR EGLL 240950Z VRB04KT CAVOK 24/11 Q1019 NOSIG=
201207240920 METAR COR EGLL 240920Z VRB04KT CAVOK 24/11 Q1019 NOSIG=
201207240850 METAR COR EGLL 240850Z VRB02KT CAVOK 23/12 Q1019 NOSIG=
201207240820 METAR COR EGLL 240820Z VRB03KT CAVOK 22/13 Q1019 NOSIG=
201207240750 METAR COR EGLL 240750Z VRB02KT CAVOK 21/13 Q1019 NOSIG=
201207240720 METAR COR EGLL 240720Z VRB03KT CAVOK 20/13 Q1020 NOSIG=
201207240650 METAR COR EGLL 240650Z VRB03KT CAVOK 18/12 Q1020 NOSIG=
201207240620 METAR COR EGLL 240620Z VRB03KT CAVOK 17/13 Q1020 NOSIG=
201207240550 METAR COR EGLL 240550Z VRB03KT CAVOK 16/13 Q1020 NOSIG=
201207240520 METAR COR EGLL 240520Z VRB03KT CAVOK 15/12 Q1020 NOSIG=
201207240450 METAR COR EGLL 240450Z 00000KT CAVOK 14/12 Q1020 NOSIG=
201207240420 METAR COR EGLL 240420Z 00000KT CAVOK 14/11 Q1020 NOSIG=
201207240350 METAR EGLL 240350Z 00000KT CAVOK 15/12 Q1020=
201207240320 METAR COR EGLL 240320Z 28003KT CAVOK 15/12 Q1020 NOSIG=
201207240250 METAR COR EGLL 240250Z 21004KT CAVOK 16/12 Q1020 NOSIG=
201207240220 METAR COR EGLL 240220Z VRB03KT CAVOK 16/12 Q1020 NOSIG=
201207240150 METAR COR EGLL 240150Z 22003KT CAVOK 17/12 Q1020 NOSIG=
201207240120 METAR EGLL 240120Z AUTO 21003KT 9999 NCD 16/13 Q1020=
201207240050 METAR EGLL 240050Z AUTO 21003KT 9999 NCD 17/13 Q1021=
201207240020 METAR EGLL 240020Z AUTO VRB03KT 9999 NCD 16/13 Q1021=
201207232350 METAR EGLL 232350Z 24004KT 210V270 CAVOK 18/13 Q1021=
201207232320 METAR EGLL 232320Z 22004KT CAVOK 18/13 Q1021=
201207232250 METAR COR EGLL 232250Z 23005KT CAVOK 18/13 Q1021 NOSIG=
201207232220 METAR COR EGLL 232220Z 20005KT CAVOK 19/13 Q1021 NOSIG=
201207232150 METAR COR EGLL 232150Z 20008KT 150V250 CAVOK 19/13 Q1021
                        NOSIG=
201207232120 METAR COR EGLL 232120Z 20008KT 150V250 CAVOK 20/13 Q1021
                        NOSIG=
201207232050 METAR COR EGLL 232050Z 21008KT 170V250 CAVOK 21/13 Q1021
                        NOSIG=
201207232020 METAR COR EGLL 232020Z 20008KT 180V260 CAVOK 22/12 Q1021
                        NOSIG=
201207231950 METAR COR EGLL 231950Z 21007KT 170V250 CAVOK 23/12 Q1020
                        NOSIG=
201207231920 METAR COR EGLL 231920Z 23010G20KT CAVOK 24/11 Q1020 NOSIG=
201207231850 METAR COR EGLL 231850Z 22010KT CAVOK 25/10 Q1020 NOSIG=
201207231820 METAR COR EGLL 231820Z 22010KT CAVOK 25/10 Q1020 NOSIG=
201207231750 METAR COR EGLL 231750Z 20009KT 160V250 CAVOK 26/10 Q1020
                        NOSIG=
201207231720 METAR COR EGLL 231720Z 23009KT CAVOK 26/09 Q1020 NOSIG=
201207231650 METAR COR EGLL 231650Z 22008KT 190V260 CAVOK 26/07 Q1020
                        NOSIG=
201207231620 METAR COR EGLL 231620Z 20008KT 160V230 CAVOK 27/06 Q1021
                        NOSIG=
201207231550 METAR COR EGLL 231550Z 20009KT 140V240 CAVOK 27/06 Q1021
                        NOSIG=
201207231520 METAR COR EGLL 231520Z 23008KT 200V280 CAVOK 27/05 Q1021
                        NOSIG=
201207231450 METAR COR EGLL 231450Z 22011KT 180V260 CAVOK 27/04 Q1021
                        NOSIG=
201207231420 METAR COR EGLL 231420Z 24010KT CAVOK 27/05 Q1022 NOSIG=
201207231350 METAR COR EGLL 231350Z 22010KT 160V260 CAVOK 27/05 Q1022
                        NOSIG=
201207231320 METAR COR EGLL 231320Z 21009KT 180V240 CAVOK 27/06 Q1022
                        NOSIG=
201207231250 METAR COR EGLL 231250Z 22009KT 180V250 CAVOK 26/05 Q1022
                        NOSIG=
201207231220 METAR COR EGLL 231220Z 23012KT CAVOK 26/07 Q1022 NOSIG=
201207231150 METAR COR EGLL 231150Z 24011KT 180V260 CAVOK 26/08 Q1023
                        NOSIG=
201207231120 METAR COR EGLL 231120Z 23013KT 210V270 CAVOK 25/10 Q1023
                        NOSIG=
201207231050 METAR COR EGLL 231050Z 22012KT CAVOK 24/10 Q1023 NOSIG=
201207231020 METAR COR EGLL 231020Z 21010KT 150V240 CAVOK 23/12 Q1023
                        NOSIG=
201207230950 METAR EGLL 230950Z 21010G20KT 180V250 CAVOK 23/12 Q1023=
201207230920 METAR COR EGLL 230920Z 22009KT 180V250 CAVOK 21/13 Q1024
                        NOSIG=
201207230850 METAR COR EGLL 230850Z 21006KT 180V250 CAVOK 20/12 Q1024
                        NOSIG=
201207230820 METAR COR EGLL 230820Z 20006KT 130V240 CAVOK 19/12 Q1024
                        NOSIG=
201207230750 METAR COR EGLL 230750Z 23006KT CAVOK 18/12 Q1024 NOSIG=
201207230720 METAR COR EGLL 230720Z 26005KT CAVOK 17/11 Q1024 NOSIG=
201207230650 METAR COR EGLL 230650Z 25005KT 220V290 CAVOK 16/11 Q1024
                        NOSIG=
201207230620 METAR COR EGLL 230620Z 19004KT 150V260 CAVOK 15/11 Q1024
                        NOSIG=
201207230550 METAR COR EGLL 230550Z VRB03KT CAVOK 14/11 Q1024 NOSIG=
201207230520 METAR COR EGLL 230520Z 16004KT 110V210 CAVOK 13/10 Q1024
                        NOSIG=
201207230450 METAR COR EGLL 230450Z 18004KT CAVOK 13/10 Q1024 NOSIG=
201207230420 METAR COR EGLL 230420Z 18004KT CAVOK 12/10 Q1025 NOSIG=
201207230350 METAR COR EGLL 230350Z 19005KT CAVOK 13/10 Q1025 NOSIG=
201207230320 METAR COR EGLL 230320Z 19005KT CAVOK 13/10 Q1025 NOSIG=
201207230250 METAR COR EGLL 230250Z 21004KT CAVOK 13/10 Q1025 NOSIG=
201207230220 METAR COR EGLL 230220Z 21004KT CAVOK 13/10 Q1025 NOSIG=
201207230150 METAR COR EGLL 230150Z 23004KT CAVOK 14/10 Q1025 NOSIG=
201207230120 METAR EGLL 230120Z AUTO 25005KT 9999 NCD 14/09 Q1025=
201207230050 METAR EGLL 230050Z AUTO 24006KT 9999 NCD 14/10 Q1025=
201207230020 METAR EGLL 230020Z AUTO 23006KT 9999 NCD 14/10 Q1026=
201207222350 METAR COR EGLL 222350Z 21006KT CAVOK 15/10 Q1026 NOSIG=
201207222320 METAR COR EGLL 222320Z 21007KT CAVOK 15/10 Q1026 NOSIG=
201207222250 METAR COR EGLL 222250Z 20007KT CAVOK 15/10 Q1026 NOSIG=
201207222220 METAR COR EGLL 222220Z 20007KT CAVOK 16/11 Q1026 NOSIG=
201207222150 METAR COR EGLL 222150Z 20008KT 140V250 CAVOK 16/11 Q1026
                        NOSIG=
201207222120 METAR COR EGLL 222120Z 20009KT 170V240 CAVOK 17/11 Q1026
                        NOSIG=
201207222050 METAR COR EGLL 222050Z 20009KT 160V250 CAVOK 17/11 Q1025
                        NOSIG=
201207222020 METAR COR EGLL 222020Z 20008KT 170V260 CAVOK 18/11 Q1025
                        NOSIG=
201207221950 METAR COR EGLL 221950Z 22009KT 180V250 CAVOK 19/11 Q1025
                        NOSIG=
201207221920 METAR COR EGLL 221920Z 21010KT 170V240 CAVOK 20/10 Q1025
                        NOSIG=
201207221850 METAR COR EGLL 221850Z 21009KT 180V250 CAVOK 21/09 Q1025
                        NOSIG=
201207221820 METAR COR EGLL 221820Z 20010KT 170V240 CAVOK 21/09 Q1025
                        NOSIG=
201207221750 METAR COR EGLL 221750Z 22010G20KT 150V260 CAVOK 22/08 Q1025
                        NOSIG=
201207221720 METAR COR EGLL 221720Z 21010KT 170V250 CAVOK 22/08 Q1025
                        NOSIG=
201207221650 METAR COR EGLL 221650Z 23011KT CAVOK 23/08 Q1025 NOSIG=
201207221620 METAR COR EGLL 221620Z 23011KT CAVOK 23/09 Q1025 NOSIG=
201207221550 METAR COR EGLL 221550Z 21009G24KT 160V250 CAVOK 23/10 Q1026
                        NOSIG=
201207221520 METAR COR EGLL 221520Z 21010KT 180V240 9999 FEW048 23/10
                        Q1026 NOSIG=
201207221450 METAR COR EGLL 221450Z 21010KT 140V250 9999 FEW046 23/11
                        Q1026 NOSIG=
201207221420 METAR COR EGLL 221420Z 22010KT 190V260 9999 FEW045 23/11
                        Q1026 NOSIG=
201207221350 METAR COR EGLL 221350Z 20010KT 170V260 9999 FEW046 23/11
                        Q1026 NOSIG=
201207221320 METAR COR EGLL 221320Z 20008KT 170V260 9999 SCT041 22/11
                        Q1027 NOSIG=
201207221250 METAR COR EGLL 221250Z 22010KT 160V260 9999 SCT041 22/11
                        Q1027 NOSIG=
201207221220 METAR COR EGLL 221220Z 20011KT 160V240 9999 SCT041 22/11
                        Q1027 NOSIG=
201207221150 METAR COR EGLL 221150Z 25010KT 9999 SCT040 22/11 Q1027 NOSIG=
201207221120 METAR COR EGLL 221120Z 19010KT 150V220 9999 SCT039 22/11
                        Q1027 NOSIG=
201207221050 METAR COR EGLL 221050Z 23009KT 180V250 9999 FEW037 21/11
                        Q1027 NOSIG=
201207221020 METAR COR EGLL 221020Z 20008KT 160V230 9999 FEW040 21/11
                        Q1027 NOSIG=
201207220950 METAR COR EGLL 220950Z 19009KT 160V220 9999 FEW032 20/10
                        Q1027 NOSIG=
201207220920 METAR COR EGLL 220920Z 22008KT 170V250 9999 FEW036 19/11
                        Q1027 NOSIG=
201207220850 METAR COR EGLL 220850Z 20009KT 170V250 CAVOK 19/10 Q1027
                        NOSIG=
201207220820 METAR COR EGLL 220820Z 21009KT 190V250 CAVOK 18/11 Q1028
                        NOSIG=
201207220750 METAR COR EGLL 220750Z 21007KT 180V270 CAVOK 17/11 Q1028
                        NOSIG=
201207220720 METAR COR EGLL 220720Z 20007KT CAVOK 17/11 Q1028 NOSIG=
201207220650 METAR COR EGLL 220650Z 22007KT 180V260 CAVOK 15/10 Q1027
                        NOSIG=
201207220620 METAR COR EGLL 220620Z 21004KT 140V280 CAVOK 15/11 Q1027
                        NOSIG=
201207220550 METAR COR EGLL 220550Z 20004KT 160V250 CAVOK 14/10 Q1027
                        NOSIG=
201207220520 METAR COR EGLL 220520Z 21005KT 170V260 CAVOK 12/10 Q1027
                        NOSIG=
201207220450 METAR COR EGLL 220450Z 22003KT CAVOK 13/10 Q1027 NOSIG=
201207220420 METAR COR EGLL 220420Z 19003KT CAVOK 13/10 Q1027 NOSIG=
201207220350 METAR COR EGLL 220350Z 22005KT CAVOK 13/10 Q1027 NOSIG=
201207220320 METAR COR EGLL 220320Z 19002KT CAVOK 12/10 Q1027 NOSIG=
201207220250 METAR COR EGLL 220250Z 17004KT CAVOK 12/10 Q1027 NOSIG=
201207220220 METAR COR EGLL 220220Z 17004KT CAVOK 13/10 Q1027 NOSIG=
201207220150 METAR COR EGLL 220150Z 19004KT CAVOK 13/10 Q1027 NOSIG=
201207220120 METAR EGLL 220120Z AUTO 20004KT 9999 NCD 13/10 Q1027=
201207220050 METAR EGLL 220050Z AUTO 19004KT 9999 NCD 13/10 Q1027=
201207220020 METAR EGLL 220020Z AUTO 20004KT 170V230 9999 NCD 13/10 Q1027=
201207212350 METAR COR EGLL 212350Z 22004KT CAVOK 14/11 Q1027 NOSIG=
201207212320 METAR COR EGLL 212320Z 20004KT CAVOK 14/11 Q1027 NOSIG=
201207212250 METAR COR EGLL 212250Z 19004KT CAVOK 14/11 Q1027 NOSIG=
201207212220 METAR COR EGLL 212220Z 21005KT CAVOK 15/11 Q1027 NOSIG=
201207212150 METAR COR EGLL 212150Z 21005KT CAVOK 15/11 Q1027 NOSIG=
201207212120 METAR EGLL 212120Z 22006KT CAVOK 16/11 Q1026 NOSIG=
201207212050 METAR COR EGLL 212050Z 21006KT CAVOK 17/11 Q1026 NOSIG=
201207212020 METAR COR EGLL 212020Z 24007KT CAVOK 18/11 Q1026 NOSIG=
201207211950 METAR COR EGLL 211950Z VRB03KT CAVOK 18/11 Q1026 NOSIG=
201207211920 METAR COR EGLL 211920Z VRB03KT CAVOK 18/11 Q1025 NOSIG=
201207211850 METAR COR EGLL 211850Z VRB02KT CAVOK 19/08 Q1025 NOSIG=
201207211820 METAR COR EGLL 211820Z VRB02KT CAVOK 19/07 Q1025 NOSIG=
201207211750 METAR COR EGLL 211750Z VRB02KT CAVOK 19/07 Q1025 NOSIG=
201207211720 METAR COR EGLL 211720Z VRB02KT CAVOK 20/07 Q1025 NOSIG=
201207211650 METAR COR EGLL 211650Z VRB02KT 9999 FEW045 19/07 Q1025 NOSIG=
201207211620 METAR COR EGLL 211620Z 29004KT 250V340 9999 FEW044 19/07
                        Q1025 NOSIG=
201207211550 METAR COR EGLL 211550Z VRB02KT 9999 FEW044 19/07 Q1025 NOSIG=
201207211520 METAR COR EGLL 211520Z 33004KT 280V020 9999 FEW048 19/08
                        Q1025 NOSIG=
201207211450 METAR COR EGLL 211450Z 36004KT 280V050 9999 FEW047 19/08
                        Q1025 NOSIG=
201207211420 METAR COR EGLL 211420Z 36006KT 300V020 9999 FEW047 20/08
                        Q1025 NOSIG=
201207211350 METAR COR EGLL 211350Z 01005KT 340V050 9999 FEW044 21/08
                        Q1025 NOSIG=
201207211320 METAR COR EGLL 211320Z 00000KT 9999 SCT044 19/07 Q1025 NOSIG=
201207211250 METAR COR EGLL 211250Z 34004KT 280V020 9999 SCT045 19/07
                        Q1024 NOSIG=
201207211220 METAR COR EGLL 211220Z VRB03KT 9999 SCT044 19/07 Q1024 NOSIG=
201207211150 METAR COR EGLL 211150Z 18004KT 110V240 9999 SCT045 20/09
                        Q1024 NOSIG=
201207211120 METAR COR EGLL 211120Z VRB02KT 9999 SCT038 SCT042 20/09 Q1024
                        NOSIG=
201207211050 METAR EGLL 211050Z 13006KT 070V170 9999 FEW036 SCT045 18/10
                        Q1024=
201207211020 METAR COR EGLL 211020Z 08005KT 010V130 9999 SCT035 SCT046
                        16/09 Q1024 NOSIG=
201207210950 METAR COR EGLL 210950Z 07004KT 360V160 9999 SCT030 SCT034
                        17/09 Q1024 NOSIG=
201207210920 METAR COR EGLL 210920Z 08004KT 020V150 9999 SCT029 SCT035
                        15/09 Q1024 NOSIG=
201207210850 METAR COR EGLL 210850Z 09006KT 060V130 9999 SCT025 SCT034
                        16/10 Q1024 NOSIG=
201207210820 METAR COR EGLL 210820Z 08005KT 040V140 9999 SCT024 SCT036
                        15/10 Q1024 NOSIG=
201207210750 METAR COR EGLL 210750Z 05005KT 360V100 9999 SCT024 SCT028
                        15/10 Q1024 NOSIG=
201207210720 METAR COR EGLL 210720Z 03005KT 350V080 9999 FEW024 14/10
                        Q1023 NOSIG=
201207210650 METAR COR EGLL 210650Z 05005KT 020V090 9999 FEW024 14/10
                        Q1023 NOSIG=
201207210620 METAR COR EGLL 210620Z 04006KT 010V080 CAVOK 13/10 Q1023
                        NOSIG=
201207210550 METAR COR EGLL 210550Z 04004KT 360V070 9999 FEW024 13/10
                        Q1022 NOSIG=
201207210520 METAR COR EGLL 210520Z 04004KT 9999 FEW025 12/10 Q1022 NOSIG=
201207210450 METAR COR EGLL 210450Z 04004KT 9999 FEW025 12/10 Q1022 NOSIG=
201207210420 METAR COR EGLL 210420Z 04004KT 010V070 9999 SCT025 12/10
                        Q1022 NOSIG=
201207210350 METAR COR EGLL 210350Z 03003KT 9999 SCT019 12/10 Q1022 NOSIG=
201207210320 METAR COR EGLL 210320Z 04004KT 9999 SCT020 12/10 Q1021 NOSIG=
201207210250 METAR COR EGLL 210250Z 05004KT 9999 SCT016 SCT024 12/10 Q1021
                        TEMPO BKN010=
201207210220 METAR COR EGLL 210220Z 03004KT 350V050 CAVOK 12/10 Q1021
                        NOSIG=
201207210150 METAR COR EGLL 210150Z 05004KT 010V080 CAVOK 13/11 Q1021
                        NOSIG=
201207210120 METAR EGLL 210120Z AUTO 04005KT 9999 NCD 13/11 Q1021=
201207210050 METAR EGLL 210050Z AUTO 05004KT 020V080 9999 FEW010/// 13/11
                        Q1021=
201207210020 METAR EGLL 210020Z AUTO 05005KT 9999 FEW016/// 13/11 Q1021=
201207202350 METAR COR EGLL 202350Z 04005KT 9999 FEW015 13/11 Q1021 TEMPO
                        BKN012=
201207202320 METAR COR EGLL 202320Z 02005KT 340V050 9999 SCT011 13/11
                        Q1020 TEMPO BKN008=
201207202250 METAR COR EGLL 202250Z 04004KT 360V070 CAVOK 14/11 Q1020
                        NOSIG=
201207202220 METAR COR EGLL 202220Z 05004KT CAVOK 14/11 Q1020 NOSIG=
201207202150 METAR COR EGLL 202150Z 04004KT CAVOK 14/11 Q1020 NOSIG=
201207202120 METAR COR EGLL 202120Z 06004KT 9999 FEW048 14/10 Q1020 NOSIG=
201207202050 METAR COR EGLL 202050Z 06004KT 9999 FEW048 15/11 Q1020 NOSIG=
201207202020 METAR COR EGLL 202020Z 04006KT 360V080 9999 VCSH FEW012 15/10
                        Q1019 NOSIG=
201207201950 METAR COR EGLL 201950Z 03007KT 350V060 9999 FEW012 SCT022
                        16/10 Q1019 NOSIG=
201207201920 METAR COR EGLL 201920Z 36004KT 9999 FEW030 16/09 Q1019 NOSIG=
201207201850 METAR COR EGLL 201850Z 36004KT 320V020 9999 FEW034 17/09
                        Q1018 NOSIG=
201207201820 METAR COR EGLL 201820Z 36005KT 330V030 9999 FEW034 17/09
                        Q1018 NOSIG=
201207201750 METAR COR EGLL 201750Z 36004KT 320V060 9999 FEW036 17/09
                        Q1018 NOSIG=
201207201720 METAR COR EGLL 201720Z 34006KT 310V010 9999 FEW035 18/09
                        Q1018 NOSIG=
201207201650 METAR COR EGLL 201650Z 01004KT 310V070 9999 FEW029 18/10
                        Q1017 NOSIG=
201207201620 METAR COR EGLL 201620Z 02005KT 350V060 9999 FEW029 18/11
                        Q1018 NOSIG=
201207201550 METAR COR EGLL 201550Z 35006KT 300V030 9999 FEW020 17/11
                        Q1018 NOSIG=
201207201520 METAR COR EGLL 201520Z 35005KT 310V040 9999 VCSH FEW022 SCT035CB
                        16/11 Q1018 NOSIG=
201207201450 METAR COR EGLL 201450Z 34006KT 300V010 8000 -RA FEW016 SCT035CB
                        14/12 Q1017 RERA TEMPO SHRA=
201207201420 METAR COR EGLL 201420Z 33005KT 280V040 8000 VCSH FEW010 SCT029
                        BKN035 18/09 Q1017 TEMPO 4000 +SHRA
                        BKN014 BKN020CB=
201207201350 METAR COR EGLL 201350Z 35007KT 310V020 9999 FEW009 SCT033
                        18/11 Q1017 TEMPO 4000 +SHRA=
201207201320 METAR COR EGLL 201320Z 33006KT 260V030 9999 BKN033 18/10
                        Q1017 TEMPO SHRA=
201207201250 METAR COR EGLL 201250Z 32006KT 270V010 9999 SCT030 19/11
                        Q1017 TEMPO SHRA=
201207201220 METAR COR EGLL 201220Z 32006KT 250V020 9999 SCT028 18/11
                        Q1017 TEMPO SHRA=
201207201150 METAR COR EGLL 201150Z 33006KT 300V360 9999 FEW025 SCT030
                        18/11 Q1016 TEMPO SHRA=
201207201120 METAR COR EGLL 201120Z 30007KT 9999 SCT023 SCT028 BKN040
                        16/11 Q1016 NOSIG=
201207201050 METAR COR EGLL 201050Z VRB03KT 9999 SCT027 SCT032 18/10 Q1016
                        TEMPO SHRA=
201207201020 METAR COR EGLL 201020Z 26005KT 200V320 9999 SCT024 SCT028
                        17/10 Q1016 TEMPO SHRA=
201207200950 METAR COR EGLL 200950Z 31005KT 270V350 9999 SCT023 SCT026
                        16/11 Q1016 NOSIG=
201207200920 METAR COR EGLL 200920Z 32004KT 280V350 9999 SCT023 SCT035
                        16/10 Q1016 NOSIG=
201207200850 METAR COR EGLL 200850Z 32004KT 290V010 9999 SCT020 SCT024
                        17/11 Q1016 NOSIG=
201207200820 METAR COR EGLL 200820Z 31006KT 270V350 9999 FEW017 SCT020
                        16/11 Q1016 NOSIG=
201207200750 METAR COR EGLL 200750Z 28004KT 200V310 9999 SCT015 15/11
                        Q1016 NOSIG=
201207200720 METAR COR EGLL 200720Z 29005KT 9999 FEW013 14/11 Q1015 NOSIG=
201207200650 METAR COR EGLL 200650Z 27005KT 9999 SCT013 14/11 Q1015 NOSIG=
201207200620 METAR COR EGLL 200620Z 27005KT 9999 FEW011 SCT017 14/11 Q1015
                        NOSIG=
201207200550 METAR COR EGLL 200550Z VRB03KT 9999 FEW011 SCT021 14/11 Q1015
                        NOSIG=
201207200520 METAR COR EGLL 200520Z VRB02KT 9999 FEW011 SCT020 13/11 Q1015
                        NOSIG=
201207200450 METAR COR EGLL 200450Z 31003KT 9999 FEW010 13/11 Q1014 NOSIG=
201207200420 METAR COR EGLL 200420Z 32003KT CAVOK 13/11 Q1014 NOSIG=
201207200350 METAR COR EGLL 200350Z 30003KT CAVOK 13/11 Q1014 NOSIG=
201207200320 METAR COR EGLL 200320Z 31003KT CAVOK 13/11 Q1014 NOSIG=
201207200250 METAR COR EGLL 200250Z 31004KT CAVOK 13/11 Q1014 NOSIG=
201207200220 METAR COR EGLL 200220Z 31005KT 9999 FEW040 13/11 Q1014 NOSIG=
201207200150 METAR COR EGLL 200150Z 31004KT 9999 FEW042 13/11 Q1014 NOSIG=
201207200120 METAR EGLL 200120Z AUTO 29004KT 9999 SCT037/// 13/11 Q1014=
201207200050 METAR EGLL 200050Z AUTO 31003KT 9999 BKN038/// 14/11 Q1014=
201207200020 METAR EGLL 200020Z AUTO 32003KT 9999 BKN040/// 14/11 Q1014=
201207192350 METAR COR EGLL 192350Z 35003KT 9999 SCT027 SCT034 14/11 Q1014
                        NOSIG=
201207192320 METAR COR EGLL 192320Z 36004KT 320V030 9999 BKN025 14/11
                        Q1014 NOSIG=
201207192250 METAR COR EGLL 192250Z 31004KT 280V360 9999 FEW020 14/11
                        Q1014 NOSIG=
201207192220 METAR COR EGLL 192220Z 28008KT CAVOK 15/11 Q1013 NOSIG=
201207192150 METAR COR EGLL 192150Z 27011KT CAVOK 15/11 Q1013 NOSIG=
201207192120 METAR COR EGLL 192120Z 28010KT CAVOK 16/11 Q1013 NOSIG=
201207192050 METAR COR EGLL 192050Z 28010KT CAVOK 17/11 Q1013 NOSIG=
201207192020 METAR COR EGLL 192020Z 27009KT CAVOK 17/11 Q1013 NOSIG=
201207191950 METAR COR EGLL 191950Z 27008KT CAVOK 17/10 Q1012 NOSIG=
201207191920 METAR COR EGLL 191920Z 28008KT CAVOK 18/10 Q1012 NOSIG=
201207191850 METAR COR EGLL 191850Z 28008KT 9999 FEW048 18/10 Q1012 NOSIG=
201207191820 METAR COR EGLL 191820Z 28009KT 9999 FEW047 18/09 Q1012 NOSIG=
201207191750 METAR COR EGLL 191750Z 29006KT 270V330 9999 FEW044 18/09
                        Q1012 NOSIG=
201207191720 METAR COR EGLL 191720Z 29009KT 250V320 9999 FEW045 18/10
                        Q1012 NOSIG=
201207191650 METAR COR EGLL 191650Z 27011KT 9999 FEW036 18/10 Q1012 NOSIG=
201207191620 METAR COR EGLL 191620Z 27013KT 9999 FEW036 19/10 Q1012 NOSIG=
201207191550 METAR COR EGLL 191550Z 27012KT 9999 FEW045 19/10 Q1012 NOSIG=
201207191520 METAR COR EGLL 191520Z 27012KT 250V310 9999 FEW045 19/10
                        Q1012 NOSIG=
201207191450 METAR COR EGLL 191450Z 27013KT 9999 FEW037 19/10 Q1012 NOSIG=
201207191420 METAR COR EGLL 191420Z 28014KT 9999 FEW038 19/10 Q1012 NOSIG=
201207191350 METAR COR EGLL 191350Z 29011KT 270V330 9999 SCT035 19/10
                        Q1012 NOSIG=
201207191320 METAR COR EGLL 191320Z 28011KT 250V330 9999 FEW034 20/11
                        Q1012 NOSIG=
201207191250 METAR COR EGLL 191250Z 28014KT 9999 FEW030 18/11 Q1012 NOSIG=
201207191220 METAR COR EGLL 191220Z 27012KT 9999 FEW029 17/11 Q1011 NOSIG=
201207191150 METAR COR EGLL 191150Z 27013KT 9999 VCSH SCT027 19/11 Q1011
                        NOSIG=
201207191120 METAR COR EGLL 191120Z 28011KT 250V310 9999 SCT027 BKN037
                        17/11 Q1011 NOSIG=
201207191050 METAR COR EGLL 191050Z 28010KT 9999 SCT027 17/11 Q1011 TEMPO
                        SHRA=
201207191020 METAR COR EGLL 191020Z 28010KT 9999 SCT027 BKN041 17/11 Q1011
                        NOSIG=
201207190950 METAR COR EGLL 190950Z 27012KT 9999 SCT027 17/11 Q1011 NOSIG=
201207190920 METAR COR EGLL 190920Z 27012KT 9999 SCT025 SCT031 16/11 Q1010
                        NOSIG=
201207190850 METAR COR EGLL 190850Z 27011KT 9999 SCT025 BKN040 17/11 Q1010
                        NOSIG=
201207190820 METAR COR EGLL 190820Z 28013KT 9999 SCT020 17/11 Q1010 NOSIG=
201207190750 METAR COR EGLL 190750Z 27013KT 9999 SCT016 17/12 Q1010 NOSIG=
201207190720 METAR COR EGLL 190720Z 27012KT 9999 FEW014 16/12 Q1010 NOSIG=
201207190650 METAR COR EGLL 190650Z 26013KT 9999 SCT013 15/12 Q1009 NOSIG=
201207190620 METAR COR EGLL 190620Z 27012KT 9999 FEW013 15/12 Q1009 NOSIG=
201207190550 METAR COR EGLL 190550Z 26012KT 9999 FEW012 15/12 Q1009 NOSIG=
201207190520 METAR COR EGLL 190520Z 26011KT 9999 FEW011 14/12 Q1009 NOSIG=
201207190450 METAR COR EGLL 190450Z 26011KT 9999 FEW011 14/12 Q1009 NOSIG=
201207190420 METAR COR EGLL 190420Z 27008KT 9999 FEW011 14/12 Q1008 NOSIG=
201207190350 METAR COR EGLL 190350Z 27009KT 9999 FEW011 14/12 Q1008 NOSIG=
201207190320 METAR COR EGLL 190320Z 26010KT 9999 FEW012 14/12 Q1008 NOSIG=
201207190250 METAR COR EGLL 190250Z 27010KT 9999 FEW011 14/12 Q1008 NOSIG=
201207190220 METAR COR EGLL 190220Z 26010KT 9999 SCT011 14/12 Q1008 NOSIG=
201207190150 METAR COR EGLL 190150Z 25011KT 9999 BKN011 15/12 Q1008 BECMG
                        SCT014=
201207190120 METAR EGLL 190120Z AUTO 26009KT 9999 BKN011/// 15/12 Q1008=
201207190050 METAR EGLL 190050Z AUTO 25011KT 9999 BKN013/// BKN018///
                        15/13 Q1008=
201207190020 METAR EGLL 190020Z AUTO 25010KT 9999 BKN018/// 15/13 Q1008=
201207182350 METAR COR EGLL 182350Z 27010KT 9999 BKN016 BKN019 15/13 Q1008
                        TEMPO BKN014=
201207182320 METAR COR EGLL 182320Z 27011KT 9999 BKN015 15/12 Q1008 TEMPO
                        BKN014=
201207182250 METAR COR EGLL 182250Z 27013KT 9999 BKN016 15/12 Q1008 TEMPO
                        BKN014=
201207182220 METAR COR EGLL 182220Z 27012KT 9999 BKN018 15/12 Q1008 TEMPO
                        BKN014=
201207182150 METAR COR EGLL 182150Z 26014KT 9999 BKN021 15/12 Q1008 NOSIG=
201207182120 METAR COR EGLL 182120Z 26012KT 9999 FEW016 16/12 Q1008 NOSIG=
201207182050 METAR COR EGLL 182050Z 27014KT 9999 FEW023 16/13 Q1008 NOSIG=
201207182020 METAR EGLL 182020Z 26017KT 9999 FEW012 17/13 Q1008=
201207181950 METAR COR EGLL 181950Z 24013KT 200V260 9999 FEW012 17/15
                        Q1008 NOSIG=
201207181920 METAR COR EGLL 181920Z 23013KT 9999 FEW010 17/15 Q1008 NOSIG=
201207181850 METAR COR EGLL 181850Z 23013KT 9999 SCT011 17/15 Q1008 NOSIG=
201207181820 METAR COR EGLL 181820Z 23013KT 9999 SCT012 17/15 Q1009 NOSIG=
201207181750 METAR COR EGLL 181750Z 23012KT 200V260 9999 -RA SCT008 BKN012
                        17/16 Q1009 BECMG SCT012=
201207181720 METAR COR EGLL 181720Z 22009KT 190V260 9999 -RA SCT008 BKN012
                        17/16 Q1009 BECMG SCT012=
201207181650 METAR COR EGLL 181650Z 22010KT 9999 -RA FEW008 BKN010 18/16
                        Q1009 BECMG SCT012=
201207181620 METAR COR EGLL 181620Z 22010KT 9999 -RA BKN008 BKN013 17/16
                        Q1010 RERA BECMG FEW010 SCT015=
201207181550 METAR COR EGLL 181550Z 22014KT 9999 RA FEW010 BKN015 17/15
                        Q1010 TEMPO 4000 BKN014=
201207181520 METAR COR EGLL 181520Z 23017KT 9999 SHRA SCT016 BKN022 18/15
                        Q1010 TEMPO 4000 BKN014=
201207181450 METAR COR EGLL 181450Z 22014KT 190V250 9999 SCT017 BKN022
                        19/14 Q1011 TEMPO SHRA BKN014=
201207181420 METAR COR EGLL 181420Z 22012KT 180V250 9999 -SHRA SCT019
                        SCT023 BKN026 19/15 Q1011 TEMPO SHRA
                        BKN014=
201207181350 METAR COR EGLL 181350Z 23013KT 9999 -SHRA SCT019 BKN027 19/15
                        Q1011 NOSIG=
201207181320 METAR COR EGLL 181320Z 22013KT 9999 SCT022 BKN028 19/14 Q1011
                        TEMPO SHRA=
201207181250 METAR COR EGLL 181250Z 22013KT 9999 SCT017 BKN023 19/14 Q1012
                        TEMPO SHRA=
201207181220 METAR COR EGLL 181220Z 22013KT 9999 SCT013 BKN025 18/14 Q1012
                        TEMPO SHRA=
201207181150 METAR COR EGLL 181150Z 21011KT 9999 FEW014 BKN028 18/14 Q1013
                        NOSIG=
201207181120 METAR COR EGLL 181120Z 23014KT 9999 SCT016 BKN029 17/14 Q1013
                        TEMPO SHRA=
201207181050 METAR COR EGLL 181050Z 24013KT 9999 BKN018 17/14 Q1013 TEMPO
                        SHRA BKN014=
201207181020 METAR COR EGLL 181020Z 23012KT 9999 BKN020 17/13 Q1014 NOSIG=
201207180950 METAR COR EGLL 180950Z 24015KT 9999 -SHRA FEW019 BKN021 17/13
                        Q1014 NOSIG=
201207180920 METAR COR EGLL 180920Z 24015KT 9999 FEW021 OVC024 18/12 Q1014
                        TEMPO SHRA BKN014=
201207180850 METAR COR EGLL 180850Z 23012KT 9999 BKN020 BKN024 18/12 Q1014
                        TEMPO SHRA BKN014=
201207180820 METAR COR EGLL 180820Z 23014KT 9999 BKN017 BKN022 17/13 Q1015
                        NOSIG=
201207180750 METAR COR EGLL 180750Z 24012KT 9999 BKN015 BKN018 16/13 Q1015
                        NOSIG=
201207180720 METAR COR EGLL 180720Z 24011KT 210V270 9999 BKN015 16/13
                        Q1015 NOSIG=
201207180650 METAR COR EGLL 180650Z 24012KT 9999 BKN014 16/13 Q1015 BECMG
                        BKN016=
201207180620 METAR COR EGLL 180620Z 23012KT 190V250 9999 FEW008 BKN010
                        15/13 Q1015 NOSIG=
201207180550 METAR COR EGLL 180550Z 22010KT 9999 SCT008 BKN010 15/13 Q1016
                        NOSIG=
201207180520 METAR COR EGLL 180520Z 22009KT 190V250 9999 FEW006 SCT008
                        BKN010 15/13 Q1016 TEMPO BKN009=
201207180450 METAR COR EGLL 180450Z 23010KT 9999 FEW006 SCT007 BKN008
                        15/13 Q1017 BECMG SCT008 BKN012=
201207180420 METAR COR EGLL 180420Z 22010KT 8000 FEW006 SCT008 BKN009
                        15/13 Q1017 BECMG SCT009 BKN012=
201207180350 METAR COR EGLL 180350Z 23010KT 9999 SCT008 BKN010 15/13 Q1017
                        TEMPO BKN009=
201207180320 METAR COR EGLL 180320Z 23011KT 9999 SCT006 BKN009 15/13 Q1017
                        BECMG SCT008 BKN010=
201207180250 METAR COR EGLL 180250Z 23010KT 9999 SCT005 BKN008 15/13 Q1018
                        TEMPO SCT007 BKN010=
201207180220 METAR COR EGLL 180220Z 23010KT 9999 SCT005 BKN007 15/14 Q1018
                        TEMPO SCT007 BKN010=
201207180150 METAR COR EGLL 180150Z 22008KT 9999 SCT005 BKN007 16/14 Q1018
                        TEMPO SCT007 BKN012=
201207180120 METAR EGLL 180120Z AUTO 22008KT 9999 OVC006/// 16/14 Q1019=
201207180050 METAR EGLL 180050Z AUTO 21008KT 9999 SCT007/// BKN019///
                        OVC037/// 17/15 Q1019=
201207180020 METAR EGLL 180020Z AUTO 23010KT 9999 BKN009/// 17/15 Q1020=
201207172350 METAR COR EGLL 172350Z 24009KT 9999 SCT009 BKN013 18/15 Q1020
                        TEMPO SCT014 BKN035=
201207172320 METAR COR EGLL 172320Z 24010KT 9999 SCT008 BKN015 18/16 Q1020
                        TEMPO BKN011=
201207172250 METAR COR EGLL 172250Z 23008KT 9999 SCT009 SCT013 18/16 Q1020
                        TEMPO BKN011=
201207172220 METAR COR EGLL 172220Z 24009KT 9999 FEW023 SCT033 18/15 Q1021
                        NOSIG=
201207172150 METAR COR EGLL 172150Z 24010KT 9999 SCT027 SCT034 19/15 Q1021
                        NOSIG=
201207172120 METAR COR EGLL 172120Z 25011KT 9999 FEW019 SCT024 19/15 Q1021
                        TEMPO BKN014=
201207172050 METAR COR EGLL 172050Z 25011KT 9999 FEW015 BKN025 20/16 Q1021
                        TEMPO BKN014=
201207172020 METAR COR EGLL 172020Z 25011KT 9999 BKN032 20/16 Q1021 NOSIG=
201207171950 METAR COR EGLL 171950Z 25009KT 9999 SCT027 SCT035 21/15 Q1021
                        NOSIG=
201207171920 METAR COR EGLL 171920Z 25011KT 9999 SCT042 21/15 Q1021 NOSIG=
201207171850 METAR COR EGLL 171850Z 27011KT 9999 FEW045 22/15 Q1021 NOSIG=
201207171820 METAR COR EGLL 171820Z 25014KT 9999 FEW046 22/15 Q1022 NOSIG=
201207171750 METAR COR EGLL 171750Z 26014KT 9999 FEW045 22/15 Q1022 NOSIG=
201207171720 METAR EGLL 171720Z AUTO 27015KT 9999 BKN045/// 22/15 Q1022=
201207171650 METAR COR EGLL 171650Z 26016KT 9999 FEW031 BKN045 22/16 Q1022
                        NOSIG=
201207171620 METAR COR EGLL 171620Z 26012KT 9999 BKN033 22/16 Q1022 NOSIG=
201207171550 METAR COR EGLL 171550Z 26013KT 9999 BKN028 22/16 Q1022 NOSIG=
201207171520 METAR COR EGLL 171520Z 25013KT 210V280 9999 BKN030 23/16
                        Q1022 NOSIG=
201207171450 METAR COR EGLL 171450Z 26012KT 9999 SCT030 SCT035 23/16 Q1022
                        NOSIG=
201207171420 METAR COR EGLL 171420Z 26015KT 9999 SCT033 SCT038 23/15 Q1023
                        NOSIG=
201207171350 METAR COR EGLL 171350Z 26013KT 9999 SCT031 SCT035 22/15 Q1023
                        NOSIG=
201207171320 METAR COR EGLL 171320Z 26013KT 9999 BKN030 22/15 Q1023 NOSIG=
201207171250 METAR COR EGLL 171250Z 26012KT 9999 BKN033 22/14 Q1023 NOSIG=
201207171220 METAR COR EGLL 171220Z 26013KT 220V290 9999 FEW029 BKN039
                        22/14 Q1023 NOSIG=
201207171150 METAR COR EGLL 171150Z 27010KT 9999 FEW029 SCT044 21/13 Q1024
                        NOSIG=
201207171120 METAR COR EGLL 171120Z 27012KT 9999 SCT027 SCT048 20/13 Q1024
                        NOSIG=
201207171050 METAR COR EGLL 171050Z 27012KT 9999 SCT027 20/13 Q1024 NOSIG=
201207171020 METAR COR EGLL 171020Z 27012KT 9999 FEW025 SCT027 20/13 Q1024
                        NOSIG=
201207170950 METAR EGLL 170950Z AUTO 28013KT 9999 BKN025/// 19/13 Q1024=
201207170920 METAR COR EGLL 170920Z 28011KT 9999 SCT027 SCT030 19/13 Q1023
                        NOSIG=
201207170850 METAR COR EGLL 170850Z 27012KT 9999 FEW020 BKN034 19/13 Q1023
                        NOSIG=
201207170820 METAR COR EGLL 170820Z 26012KT 9999 FEW020 BKN035 18/13 Q1023
                        NOSIG=
201207170750 METAR COR EGLL 170750Z 27013KT 9999 SCT020 BKN033 17/13 Q1023
                        NOSIG=
201207170720 METAR COR EGLL 170720Z 27012KT 9999 FEW017 BKN033 18/13 Q1023
                        NOSIG=
201207170650 METAR COR EGLL 170650Z 27013KT 9999 FEW020 17/13 Q1023 NOSIG=
201207170620 METAR COR EGLL 170620Z 28011KT 9999 FEW020 16/13 Q1023 NOSIG=
201207170550 METAR COR EGLL 170550Z 27011KT CAVOK 15/13 Q1023 NOSIG=
201207170520 METAR COR EGLL 170520Z 26011KT CAVOK 15/12 Q1022 NOSIG=
201207170450 METAR COR EGLL 170450Z 26010KT CAVOK 14/12 Q1022 NOSIG=
201207170420 METAR COR EGLL 170420Z 27010KT CAVOK 14/12 Q1022 TEMPO BKN012=
201207170350 METAR COR EGLL 170350Z 27009KT CAVOK 14/12 Q1022 TEMPO BKN013=
201207170320 METAR COR EGLL 170320Z 26009KT CAVOK 14/12 Q1021 TEMPO BKN011=
201207170250 METAR COR EGLL 170250Z 27009KT CAVOK 14/13 Q1021 TEMPO BKN012=
201207170220 METAR COR EGLL 170220Z 27009KT 9999 FEW012 14/12 Q1021 TEMPO
                        BKN012=
201207170150 METAR COR EGLL 170150Z 27011KT 9999 FEW010 14/12 Q1021 TEMPO
                        BKN011=
201207170120 METAR EGLL 170120Z AUTO 27009KT 9999 SCT013/// 14/12 Q1021=
201207170050 METAR EGLL 170050Z AUTO 27010KT 9999 BKN015/// 15/13 Q1021=
201207170020 METAR EGLL 170020Z AUTO 27010KT 9999 BKN014/// 15/13 Q1021=
201207162350 METAR COR EGLL 162350Z 26011KT 9999 FEW017 SCT018 16/13 Q1021
                        NOSIG=
201207162320 METAR COR EGLL 162320Z 27010KT 9999 FEW017 SCT018 16/13 Q1020
                        NOSIG=
201207162250 METAR COR EGLL 162250Z 27012KT 9999 FEW017 SCT018 15/13 Q1020
                        NOSIG=
201207162220 METAR COR EGLL 162220Z 27013KT 9999 SCT018 BKN037 16/12 Q1020
                        NOSIG=
201207162150 METAR COR EGLL 162150Z 27014KT 9999 BKN020 16/12 Q1020 NOSIG=
201207162120 METAR COR EGLL 162120Z 26016KT 9999 BKN020 16/12 Q1019 NOSIG=
201207162050 METAR COR EGLL 162050Z 27020KT 9999 BKN025 17/12 Q1019 NOSIG=
201207162020 METAR COR EGLL 162020Z 27014KT 9999 SCT023 SCT033 17/13 Q1019
                        NOSIG=
201207161950 METAR COR EGLL 161950Z 27015KT 9999 FEW019 BKN042 17/14 Q1018
                        NOSIG=
201207161920 METAR COR EGLL 161920Z 26015KT 9999 SCT013 SCT018 18/15 Q1018
                        NOSIG=
201207161850 METAR COR EGLL 161850Z 25015KT 9999 SCT011 BKN016 17/15 Q1018
                        NOSIG=
201207161820 METAR COR EGLL 161820Z 25015KT 9999 BKN011 17/15 Q1017 BECMG
                        SCT018=
201207161750 METAR COR EGLL 161750Z 24015KT 9999 SCT011 BKN018 17/15 Q1017
                        NOSIG=
201207161720 METAR EGLL 161720Z AUTO 24014KT 9999 OVC013/// BKN020///
                        17/15 Q1017=
201207161650 METAR EGLL 161650Z 24015KT 9000 -RADZ BKN013 17/15 Q1017=
201207161620 METAR COR EGLL 161620Z 23015KT 9999 FEW009 BKN013 17/14 Q1018
                        TEMPO 4500 RADZ=
201207161550 METAR COR EGLL 161550Z 23017KT 9000 FEW009 BKN013 17/14 Q1018
                        TEMPO 4500 RADZ=
201207161520 METAR COR EGLL 161520Z 23017G27KT 9999 BKN013 17/14 Q1018
                        TEMPO 4800 RADZ=
201207161450 METAR COR EGLL 161450Z 23014KT 9999 BKN013 16/14 Q1018 TEMPO
                        4500 DZ BKN009=
201207161420 METAR COR EGLL 161420Z 23015G27KT 9999 BKN013 16/13 Q1018
                        TEMPO 4500 RADZ=
201207161350 METAR COR EGLL 161350Z 23015KT 9999 BKN013 16/13 Q1019 TEMPO
                        4500 RADZ=
201207161320 METAR COR EGLL 161320Z 23019KT 9999 SCT013 BKN019 16/14 Q1019
                        TEMPO BKN012=
201207161250 METAR COR EGLL 161250Z 22013KT 9999 FEW013 BKN022 16/14 Q1019
                        TEMPO RADZ BKN013=
201207161220 METAR COR EGLL 161220Z 22012KT 9999 FEW012 SCT015 16/14 Q1019
                        TEMPO RADZ BKN012=
201207161150 METAR COR EGLL 161150Z 22012KT 9999 -RA FEW009 BKN016 16/14
                        Q1020 TEMPO RA BKN011=
201207161120 METAR COR EGLL 161120Z 24012KT 9999 -RA SCT011 BKN018 15/13
                        Q1020 TEMPO RA BKN012=
201207161050 METAR COR EGLL 161050Z 24014KT 9999 -RA BKN014 16/13 Q1020
                        TEMPO SCT012 BKN016=
201207161020 METAR COR EGLL 161020Z 23015KT 9999 RA SCT012 BKN020 16/13
                        Q1020 TEMPO BKN012=
201207160950 METAR EGLL 160950Z AUTO 23011KT 9999 -RA SCT012/// BKN015///
                        16/14 Q1020 RERA=
201207160920 METAR EGLL 160920Z AUTO 23012KT 9999 -RA SCT014/// SCT019///
                        16/14 Q1020 RERA=
201207160850 METAR COR EGLL 160850Z 24013KT 9999 -RA SCT014 BKN021 16/13
                        Q1021 TEMPO BKN012=
201207160820 METAR COR EGLL 160820Z 23014KT 9999 -RA BKN015 16/13 Q1021
                        TEMPO BKN011=
201207160750 METAR COR EGLL 160750Z 24013KT 9999 SCT014 BKN020 16/13 Q1021
                        TEMPO BKN011=
201207160720 METAR COR EGLL 160720Z 24011KT 9999 -RA BKN014 16/13 Q1021
                        TEMPO SCT014 BKN025=
201207160650 METAR COR EGLL 160650Z 24013KT 9999 -RA BKN015 15/13 Q1021
                        TEMPO BKN012=
201207160620 METAR COR EGLL 160620Z 24011KT 9999 SCT015 BKN022 15/12 Q1021
                        TEMPO BKN012=
201207160550 METAR COR EGLL 160550Z 24011KT 9999 -RA SCT014 BKN021 15/12
                        Q1020 TEMPO BKN014=
201207160520 METAR COR EGLL 160520Z 22007KT 9999 -RA SCT012 BKN014 14/12
                        Q1020 TEMPO NSW SCT014=
201207160450 METAR COR EGLL 160450Z 21006KT 190V290 9999 SCT012 BKN018
                        13/12 Q1020 TEMPO -RA BKN014=
201207160420 METAR COR EGLL 160420Z 22008KT 190V250 9999 BKN022 13/12
                        Q1020 TEMPO -RA BKN014=
201207160350 METAR COR EGLL 160350Z 22007KT 9999 SCT022 SCT036 13/11 Q1020
                        TEMPO -RA BKN014=
201207160320 METAR COR EGLL 160320Z 22006KT 9999 FEW013 SCT024 BKN030
                        13/11 Q1020 TEMPO -RA BKN014=
201207160250 METAR COR EGLL 160250Z 22008KT 9999 -RA BKN027 13/10 Q1021
                        TEMPO -RA BKN014=
201207160220 METAR COR EGLL 160220Z 22007KT 9999 SCT035 13/09 Q1021 TEMPO
                        -RA BKN012=
201207160150 METAR COR EGLL 160150Z 21004KT 9999 FEW039 13/09 Q1021 NOSIG=
201207160120 METAR EGLL 160120Z AUTO 21005KT 9999 NCD 13/09 Q1021=
201207160050 METAR EGLL 160050Z AUTO 20005KT 9999 NCD 13/08 Q1021=
201207160020 METAR EGLL 160020Z AUTO 20005KT 9999 NCD 13/08 Q1021=
201207152350 METAR EGLL 152350Z 25006KT CAVOK 14/08 Q1021=
201207152320 METAR EGLL 152320Z 26008KT CAVOK 14/08 Q1021=
201207152250 METAR COR EGLL 152250Z 26008KT CAVOK 14/08 Q1021 NOSIG=
201207152220 METAR COR EGLL 152220Z 26011KT CAVOK 14/08 Q1021 NOSIG=
201207152150 METAR COR EGLL 152150Z 26011KT CAVOK 14/08 Q1020 NOSIG=
201207152120 METAR COR EGLL 152120Z 25011KT CAVOK 14/08 Q1020 NOSIG=
201207152050 METAR COR EGLL 152050Z 25010KT CAVOK 15/07 Q1020 NOSIG=
201207152020 METAR COR EGLL 152020Z 25009KT CAVOK 15/07 Q1020 NOSIG=
201207151950 METAR COR EGLL 151950Z 26010KT 9999 FEW047 16/06 Q1019 NOSIG=
201207151920 METAR COR EGLL 151920Z 26013KT 9999 FEW047 16/06 Q1019 NOSIG=
201207151850 METAR COR EGLL 151850Z 27011KT 9999 FEW044 17/08 Q1019 NOSIG=
201207151820 METAR COR EGLL 151820Z 27012KT 9999 FEW044 17/08 Q1018 NOSIG=
201207151750 METAR COR EGLL 151750Z 27009KT 9999 FEW044 17/08 Q1018 NOSIG=
201207151720 METAR COR EGLL 151720Z 27011KT 9999 FEW044 17/08 Q1018 NOSIG=
201207151650 METAR COR EGLL 151650Z 28010KT 9999 FEW046 17/07 Q1018 NOSIG=
201207151620 METAR COR EGLL 151620Z 27012KT 9999 FEW048 18/07 Q1018 NOSIG=
201207151550 METAR COR EGLL 151550Z 29011KT CAVOK 18/07 Q1018 NOSIG=
201207151520 METAR COR EGLL 151520Z 30010KT 270V330 9999 FEW048 18/07
                        Q1017 NOSIG=
201207151450 METAR COR EGLL 151450Z 29010KT 250V330 9999 FEW049 18/06
                        Q1017 NOSIG=
201207151420 METAR COR EGLL 151420Z 28011KT CAVOK 18/07 Q1017 NOSIG=
201207151350 METAR COR EGLL 151350Z 27010KT 9999 FEW040 18/07 Q1017 NOSIG=
201207151320 METAR COR EGLL 151320Z 28009KT 260V320 9999 FEW040 17/07
                        Q1017 NOSIG=
201207151250 METAR COR EGLL 151250Z 31009KT 9999 FEW045 17/05 Q1016 NOSIG=
201207151220 METAR EGLL 151220Z 28010KT CAVOK 17/07 Q1016=
201207151150 METAR COR EGLL 151150Z 28011KT 9999 FEW043 17/06 Q1016 NOSIG=
201207151120 METAR COR EGLL 151120Z 31009KT 9999 FEW040 17/08 Q1016 NOSIG=
201207151050 METAR COR EGLL 151050Z 27011KT 9999 SCT046 16/07 Q1015 NOSIG=
201207151020 METAR COR EGLL 151020Z 31007KT 290V360 9999 FEW035 SCT045
                        17/08 Q1015 NOSIG=
201207150950 METAR COR EGLL 150950Z 29009KT 260V320 9999 FEW027 15/08
                        Q1015 NOSIG=
201207150920 METAR COR EGLL 150920Z 30008KT 260V330 9999 SCT029 15/08
                        Q1015 NOSIG=
201207150850 METAR COR EGLL 150850Z 28007KT 260V320 9999 FEW026 16/10
                        Q1015 NOSIG=
201207150820 METAR COR EGLL 150820Z 29006KT 9999 FEW024 15/09 Q1014 NOSIG=
201207150750 METAR COR EGLL 150750Z 31005KT 270V340 9999 FEW040 15/09
                        Q1014 NOSIG=
201207150720 METAR COR EGLL 150720Z 30005KT 260V340 9999 FEW014 14/09
                        Q1014 NOSIG=
201207150650 METAR COR EGLL 150650Z 29006KT 260V330 9999 FEW011 SCT020
                        13/10 Q1013 TEMPO BKN014=
201207150620 METAR COR EGLL 150620Z 29006KT 9000 FEW008 SCT029 13/11 Q1013
                        TEMPO BKN014=
201207150550 METAR COR EGLL 150550Z 29005KT 9999 FEW010 BKN034 13/11 Q1013
                        NOSIG=
201207150520 METAR COR EGLL 150520Z 29005KT 9999 FEW008 SCT028 13/11 Q1012
                        NOSIG=
201207150450 METAR COR EGLL 150450Z 29004KT 9999 FEW010 SCT028 12/11 Q1012
                        NOSIG=
201207150420 METAR COR EGLL 150420Z 29005KT 8000 FEW008 SCT027 12/11 Q1012
                        NOSIG=
201207150350 METAR COR EGLL 150350Z 29003KT 7000 FEW008 SCT030 12/11 Q1012
                        NOSIG=
201207150320 METAR COR EGLL 150320Z 29003KT 8000 SCT026 12/11 Q1012 NOSIG=
201207150250 METAR COR EGLL 150250Z 30003KT 9000 FEW026 13/12 Q1011 NOSIG=
201207150220 METAR COR EGLL 150220Z 29005KT 8000 FEW010 SCT038 13/12 Q1011
                        NOSIG=
201207150150 METAR COR EGLL 150150Z 29005KT 9000 FEW008 SCT046 13/12 Q1011
                        TEMPO BKN007=
201207150120 METAR EGLL 150120Z AUTO 29005KT 8000 FEW036/// 13/12 Q1011=
201207150050 METAR EGLL 150050Z AUTO 26005KT 6000 NCD 13/12 Q1011=
201207150020 METAR EGLL 150020Z AUTO 25003KT 6000 NCD 13/12 Q1011=
201207142350 METAR COR EGLL 142350Z 24005KT 9999 FEW014 13/12 Q1011 NOSIG=
201207142320 METAR COR EGLL 142320Z 25004KT 9999 SCT014 13/12 Q1011 NOSIG=
201207142250 METAR COR EGLL 142250Z 23003KT 9999 FEW038 13/12 Q1011 NOSIG=
201207142220 METAR COR EGLL 142220Z 28004KT 9999 FEW025 13/12 Q1011 NOSIG=
201207142150 METAR COR EGLL 142150Z 27004KT 9999 -SHRA FEW025 13/12 Q1011
                        NOSIG=
201207142120 METAR COR EGLL 142120Z 28005KT 9999 -SHRA FEW025 14/12 Q1010
                        NOSIG=
201207142050 METAR COR EGLL 142050Z 30004KT 9999 -SHRA FEW024 14/11 Q1010
                        NOSIG=
201207142020 METAR COR EGLL 142020Z 29007KT 9000 -SHRA FEW024 14/12 Q1010
                        NOSIG=
201207141950 METAR COR EGLL 141950Z 28009KT 7000 -SHRA FEW025 SCT030 14/12
                        Q1009 RESHRA NOSIG=
201207141920 METAR COR EGLL 141920Z 28007KT 7000 SHRA FEW022 SCT026TCU
                        15/12 Q1009 BECMG 9999 NSW=
201207141850 METAR COR EGLL 141850Z 24005KT 9999 FEW030TCU 16/11 Q1009
                        TEMPO SHRA BKN014TCU=
201207141820 METAR COR EGLL 141820Z 28005KT 9999 FEW023 16/11 Q1009 TEMPO
                        SHRA BKN014TCU=
201207141750 METAR COR EGLL 141750Z 26005KT 210V300 9999 FEW025 16/11
                        Q1008 NOSIG=
201207141720 METAR COR EGLL 141720Z VRB03KT 9999 FEW017 16/11 Q1008 NOSIG=
201207141650 METAR COR EGLL 141650Z VRB03KT 9999 FEW029 16/10 Q1008 NOSIG=
201207141620 METAR COR EGLL 141620Z 01004KT 320V060 9999 FEW029 SCT047
                        16/10 Q1008 NOSIG=
201207141550 METAR COR EGLL 141550Z 35005KT 310V030 9999 FEW029 BKN041
                        16/11 Q1008 NOSIG=
201207141520 METAR EGLL 141520Z 35006KT 9999 -SHRA FEW027 BKN039 15/10
                        Q1008=
201207141450 METAR COR EGLL 141450Z 35007KT 9999 -DZ FEW019 BKN032 15/11
                        Q1008 NOSIG=
201207141420 METAR COR EGLL 141420Z 36006KT 9999 BKN021 BKN029 15/11 Q1007
                        NOSIG=
201207141350 METAR COR EGLL 141350Z 36007KT 9999 VCSH FEW015 BKN019 15/11
                        Q1007 NOSIG=
201207141320 METAR COR EGLL 141320Z 36007KT 310V050 9999 VCSH FEW015 BKN022
                        16/11 Q1007 TEMPO BKN014=
201207141250 METAR COR EGLL 141250Z 01006KT 340V050 9999 FEW013 BKN020
                        16/11 Q1006 NOSIG=
201207141220 METAR COR EGLL 141220Z 03007KT 9999 SCT014 BKN033 15/12 Q1006
                        NOSIG=
201207141150 METAR COR EGLL 141150Z 03006KT 360V080 9999 SCT018 BKN032
                        16/12 Q1006 NOSIG=
201207141120 METAR COR EGLL 141120Z 03007KT 350V060 9999 FEW009 BKN025
                        16/12 Q1005 NOSIG=
201207141050 METAR COR EGLL 141050Z 03007KT 350V060 9999 FEW008 BKN023
                        16/14 Q1005 NOSIG=
201207141020 METAR COR EGLL 141020Z 01007KT 340V040 9999 FEW010 BKN013
                        15/13 Q1005 BECMG SCT013=
201207140950 METAR COR EGLL 140950Z 36007KT 330V050 9999 BKN014 15/13
                        Q1004 TEMPO SCT014=
201207140920 METAR COR EGLL 140920Z 36006KT 9999 -RA SCT008 BKN018 14/13
                        Q1004 RERA NOSIG=
201207140850 METAR COR EGLL 140850Z 28007KT 260V340 9000 RA SCT013 BKN020CB
                        14/13 Q1003 BECMG NSW BKN014=
201207140820 METAR COR EGLL 140820Z 27009KT 9000 4000NW -SHRA SCT010 BKN016
                        15/13 Q1003 TEMPO SHRA BKN008=
201207140750 METAR EGLL 140750Z 28008KT 9999 BKN011 BKN018 15/13 Q1002=
201207140720 METAR COR EGLL 140720Z 26009KT 9999 SCT008 BKN011 15/13 Q1002
                        TEMPO SHRA BKN008=
201207140650 METAR COR EGLL 140650Z 27009KT 9999 VCSH BKN008 BKN012 15/13
                        Q1002 TEMPO SCT014=
201207140620 METAR COR EGLL 140620Z 26008KT 9999 SCT007 BKN023 14/13 Q1001
                        TEMPO BKN014=
201207140550 METAR COR EGLL 140550Z 26009KT 9999 SCT007 BKN011 14/12 Q1001
                        TEMPO SCT012=
201207140520 METAR COR EGLL 140520Z 25009KT 9999 SCT008 BKN012 14/12 Q1001
                        TEMPO BKN008=
201207140450 METAR COR EGLL 140450Z 25008KT 9999 FEW008 SCT013 BKN017
                        14/12 Q1001 TEMPO BKN009=
201207140420 METAR COR EGLL 140420Z 25008KT 200V270 9999 FEW008 BKN014
                        14/12 Q1000 NOSIG=
201207140350 METAR COR EGLL 140350Z 25008KT 9999 SCT007 BKN012 BKN022
                        14/12 Q1000 NOSIG=
201207140320 METAR COR EGLL 140320Z 24008KT 9999 -RA SCT007 BKN021 14/13
                        Q1000 BECMG SCT007 BKN012=
201207140250 METAR COR EGLL 140250Z 24007KT 9999 -RA SCT007 SCT012 BKN033
                        14/13 Q1000 TEMPO SCT006 BKN010=
201207140220 METAR COR EGLL 140220Z 25008KT 9999 -RA BKN007 BKN013 14/13
                        Q1000 TEMPO SCT008 BKN012=
201207140150 METAR COR EGLL 140150Z 25008KT 9999 -SHRA SCT008 BKN012 14/13
                        Q1000 TEMPO BKN007=
201207140120 METAR EGLL 140120Z AUTO 25009KT 9999 -RA FEW010/// SCT012///
                        BKN027/// 14/13 Q1000=
201207140050 METAR EGLL 140050Z AUTO 23008KT 9999 -RA FEW019/// OVC025///
                        14/13 Q1000=
201207140020 METAR EGLL 140020Z AUTO 23008KT 9999 DZ SCT019/// SCT048///
                        14/13 Q1000=
201207132350 METAR COR EGLL 132350Z 24007KT 9999 -SHRA SCT008 SCT045 14/13
                        Q1000 BECMG SCT006 BKN012=
201207132320 METAR COR EGLL 132320Z 23008KT 9999 -SHRA FEW008 14/13 Q1000
                        BECMG BKN012=
201207132250 METAR COR EGLL 132250Z 24008KT 9999 -SHRA FEW008 14/13 Q1000
                        TEMPO SHRA SCT008 BKN014=
201207132220 METAR COR EGLL 132220Z 24008KT 9999 -SHRA FEW008 14/13 Q1000
                        TEMPO SHRA SCT008 BKN014=
201207132150 METAR COR EGLL 132150Z 24007KT 9999 FEW008 15/13 Q1000 TEMPO
                        SHRA=
201207132120 METAR COR EGLL 132120Z 23009KT 9999 FEW008 15/13 Q1000 TEMPO
                        SHRA SC008 BKN014CB=
201207132050 METAR COR EGLL 132050Z 22009KT 9999 -SHRA FEW035 SCT045 15/13
                        Q1000 RESHRA TEMPO SHRA=
201207132020 METAR COR EGLL 132020Z 22008KT 190V260 9000 SHRA FEW020CB
                        SCT045 15/13 Q1000 TEMPO BKN012 SCT018CB=
201207131950 METAR COR EGLL 131950Z 23010KT 9999 -RA SCT019 SCT041 16/13
                        Q1000 RESHRA TEMPO SHRA BKN012 SCT018CB=
201207131920 METAR COR EGLL 131920Z 22010KT 9999 -SHRA SCT020CB SCT028
                        16/12 Q1000 TEMPO 4000 TSRA BKN014CB=
201207131850 METAR COR EGLL 131850Z 22008KT 9999 SCT020CB SCT030 17/13
                        Q1000 TEMPO 4000 +SHRA BKN012 SCT020CB=
201207131820 METAR COR EGLL 131820Z 20009KT 9999 FEW020CB SCT028 17/13
                        Q1000 TEMPO 4000 +SHRA=
201207131750 METAR COR EGLL 131750Z 22009KT 9999 BKN045 17/13 Q1000 TEMPO
                        4000 SHRA BKN014CB=
201207131720 METAR EGLL 131720Z AUTO 21008KT 180V250 9999 FEW025/// SCT035///
                        17/13 Q1000=
201207131650 METAR COR EGLL 131650Z 23007KT 9999 FEW034 SCT045 17/14 Q1000
                        TEMPO 4000 SHRA BKN014CB=
201207131620 METAR COR EGLL 131620Z 27007KT 9999 FEW025 BKN045 16/14 Q1000
                        TEMPO 4000 SHRA BKN014CB=
201207131550 METAR COR EGLL 131550Z 28006KT 9999 VCSH SCT025 SCT040 16/13
                        Q1000 TEMPO 4000 SHRA BKN014CB=
201207131520 METAR COR EGLL 131520Z 25010KT 210V280 9000 -SHRA FEW015CB
                        SCT033 16/14 Q1001 RESHRA TEMPO SHRA
                        BKN014CB=
201207131450 METAR COR EGLL 131450Z 21007KT 160V250 9999 6000W VCSH FEW011
                        SCT020 BKN033 16/14 Q1001 TEMPO 4000
                        SHRA BKN014CB=
201207131420 METAR COR EGLL 131420Z 22009KT 190V250 9999 7000S VCSH FEW013
                        SCT018 BKN043 17/13 Q1001 TEMPO 4000
                        SHRA BKN014CB=
201207131350 METAR COR EGLL 131350Z 23011KT 9999 VCSH FEW013 SCT035 BKN040
                        17/13 Q1001 TEMPO SHRA BKN014CB=
201207131320 METAR COR EGLL 131320Z 22014KT 180V260 9999 VCSH SCT025 SCT043
                        17/12 Q1001 TEMPO SHRA=
201207131250 METAR EGLL 131250Z AUTO 23014KT 9999 FEW030/// BKN043///
                        18/11 Q1001=
201207131220 METAR COR EGLL 131220Z 24013KT 9999 SCT033 SCT045 18/11 Q1001
                        TEMPO SHRA=
201207131150 METAR COR EGLL 131150Z 23013KT 210V270 9999 BKN032 19/11
                        Q1001 NOSIG=
201207131120 METAR EGLL 131120Z 25010KT 200V280 9999 BKN031 19/11 Q1002=
201207131050 METAR EGLL 131050Z 25010KT 210V280 9999 BKN028 18/10 Q1002=
201207131020 METAR COR EGLL 131020Z 25011KT 9999 SCT028 17/11 Q1002 NOSIG=
201207130950 METAR COR EGLL 130950Z 26011KT 220V280 9999 FEW028 SCT038
                        18/10 Q1002 NOSIG=
201207130920 METAR COR EGLL 130920Z 24012KT 210V270 9999 FEW025 BKN042
                        17/10 Q1002 NOSIG=
201207130850 METAR COR EGLL 130850Z 25013KT 9999 FEW018 BKN022 18/11 Q1002
                        NOSIG=
201207130820 METAR COR EGLL 130820Z 25013KT 9999 FEW019 BKN026 17/12 Q1002
                        NOSIG=
201207130750 METAR COR EGLL 130750Z 25013KT 9999 FEW012 17/12 Q1002 NOSIG=
201207130720 METAR COR EGLL 130720Z 26011KT 9999 FEW013 16/12 Q1002 NOSIG=
201207130650 METAR COR EGLL 130650Z 25011KT 9999 FEW009 SCT037 15/12 Q1003
                        NOSIG=
201207130620 METAR COR EGLL 130620Z 25012KT 9999 FEW009 BKN033 15/13 Q1003
                        NOSIG=
201207130550 METAR COR EGLL 130550Z 25010KT 9999 FEW009 OVC034 15/13 Q1003
                        NOSIG=
201207130520 METAR COR EGLL 130520Z 25009KT 9999 FEW009 BKN029 15/13 Q1003
                        NOSIG=
201207130450 METAR COR EGLL 130450Z 22007KT 9999 FEW007 SCT010 BKN030
                        14/13 Q1003 TEMPO BKN010=
201207130420 METAR COR EGLL 130420Z 22006KT 190V250 9000 FEW005 SCT010
                        BKN020 14/13 Q1003 TEMPO BKN010=
201207130350 METAR COR EGLL 130350Z 22007KT 170V240 8000 -DZ FEW004 BKN008
                        14/13 Q1003 TEMPO 4500 DZ=
201207130320 METAR COR EGLL 130320Z 21007KT 9999 SCT005 BKN008 14/13 Q1003
                        TEMPO BKN010=
201207130250 METAR COR EGLL 130250Z 22009KT 9999 SCT005 BKN009 14/13 Q1003
                        NOSIG=
201207130220 METAR COR EGLL 130220Z 22008KT 9000 SCT005 BKN009 14/13 Q1003
                        NOSIG=
201207130150 METAR COR EGLL 130150Z 21009KT 9999 -RA FEW005 BKN010 14/13
                        Q1004 TEMPO BKN005=
201207130120 METAR EGLL 130120Z AUTO 21008KT 9000 OVC004/// 14/13 Q1004=
201207130050 METAR EGLL 130050Z AUTO 21009KT 5000 OVC006/// 14/13 Q1005=
201207130020 METAR COR EGLL 130020Z AUTO 21009KT 9999 OVC007/// 14/13
                        Q1005=
201207122350 METAR COR EGLL 122350Z 22010KT 8000 RA SCT006 BKN010 14/13
                        Q1005 TEMPO -RA BKN008=
201207122320 METAR COR EGLL 122320Z 21009KT 9999 RA FEW006 BKN012 14/13
                        Q1006 TEMPO -RA BKN008=
201207122250 METAR COR EGLL 122250Z 21008KT 9999 RA FEW008 BKN013 14/13
                        Q1006 TEMPO -RA BKN008=
201207122220 METAR COR EGLL 122220Z 22009KT 200V260 9000 RA FEW007 BKN011
                        14/13 Q1006 RERA TEMPO -RA BKN007=
201207122150 METAR COR EGLL 122150Z 21010KT 9999 -RA FEW008 BKN011 14/13
                        Q1007 RERA TEMPO RA BKN007=
201207122120 METAR COR EGLL 122120Z 21011KT 9999 RA FEW008 BKN017 14/13
                        Q1007 BECMG -RA BKN007=
201207122050 METAR COR EGLL 122050Z 19010KT 9999 RA SCT008 BKN011 14/13
                        Q1007 RERA BECMG -RA BKN007=
201207122020 METAR COR EGLL 122020Z 20010KT 9000 -RA SCT008 BKN011 14/13
                        Q1008 TEMPO 4000 RA BKN008=
201207121950 METAR COR EGLL 121950Z 19010KT 140V210 9999 -RA SCT009 BKN011
                        14/13 Q1008 TEMPO 4000 RA BKN008=
201207121920 METAR COR EGLL 121920Z 18007G17KT 130V230 9999 -RA FEW007
                        BKN013 14/12 Q1009 RERA TEMPO 4000
                        BKN008=
201207121850 METAR COR EGLL 121850Z 18008KT 160V220 9999 RA SCT007 BKN010
                        13/12 Q1009 TEMPO 4000 BKN008=
201207121820 METAR COR EGLL 121820Z 16008KT 130V210 9999 RA FEW007 SCT008
                        BKN010 13/12 Q1010 TEMPO 4000 BKN008=
201207121750 METAR COR EGLL 121750Z 17010KT 9999 -RA SCT008 BKN012 13/11
                        Q1010 RERA TEMPO 4000 RADZ BKN007=
201207121720 METAR EGLL 121720Z AUTO 16007KT 130V190 9999 RA SCT007///
                        SCT034/// 13/12 Q1011=
201207121650 METAR COR EGLL 121650Z 17008KT 110V210 9999 -RA SCT011 SCT028
                        13/11 Q1011 BECMG RA SCT006 BKN010=
201207121620 METAR COR EGLL 121620Z 19008KT 160V230 9999 -RA FEW015 BKN038
                        13/11 Q1012 BECMG RA BKN012=
201207121550 METAR COR EGLL 121550Z 18010KT 9999 -RA SCT030 SCT045 14/10
                        Q1012 RERA BECMG BKN012=
201207121520 METAR COR EGLL 121520Z 22012KT 9999 RA FEW020 SCT033 15/11
                        Q1012 TEMPO -RA=
201207121450 METAR COR EGLL 121450Z 23013KT 9999 SCT038 17/09 Q1012 NOSIG=
201207121420 METAR COR EGLL 121420Z 20010KT 170V240 9999 FEW041 18/08
                        Q1012 NOSIG=
201207121350 METAR COR EGLL 121350Z 21010KT 170V240 9999 SCT045 18/07
                        Q1012 NOSIG=
201207121320 METAR COR EGLL 121320Z 21010KT 160V260 9999 SCT042 18/08
                        Q1012 NOSIG=
201207121250 METAR EGLL 121250Z AUTO 23010KT 180V270 9999 SCT044/// 18/08
                        Q1013=
201207121220 METAR COR EGLL 121220Z 25009KT 200V280 9999 SCT043 18/07
                        Q1013 NOSIG=
201207121150 METAR COR EGLL 121150Z 26009KT 9999 SCT042 SCT048 19/08 Q1013
                        NOSIG=
201207121120 METAR COR EGLL 121120Z 25008KT 180V310 9999 SCT036 17/08
                        Q1014 NOSIG=
201207121050 METAR COR EGLL 121050Z 26010KT 9999 SCT032 17/08 Q1014 NOSIG=
201207121020 METAR COR EGLL 121020Z 25009KT 210V290 9999 FEW035 17/09
                        Q1014 NOSIG=
201207120950 METAR COR EGLL 120950Z 25009KT 220V280 9999 FEW031 17/09
                        Q1014 NOSIG=
201207120920 METAR COR EGLL 120920Z 28007KT 250V320 9999 FEW022 16/08
                        Q1014 NOSIG=
201207120850 METAR COR EGLL 120850Z 28008KT 9999 FEW021 15/10 Q1014 NOSIG=
201207120820 METAR COR EGLL 120820Z 28007KT 9999 FEW018 15/10 Q1014 NOSIG=
201207120750 METAR COR EGLL 120750Z 28007KT 9999 FEW013 14/10 Q1014 NOSIG=
201207120720 METAR COR EGLL 120720Z 29007KT 260V320 9999 FEW010 13/10
                        Q1014 NOSIG=
201207120650 METAR COR EGLL 120650Z 27008KT 9999 FEW010 12/10 Q1014 NOSIG=
201207120620 METAR COR EGLL 120620Z 29006KT 260V320 9999 FEW010 12/10
                        Q1014 NOSIG=
201207120550 METAR COR EGLL 120550Z 27006KT 9999 FEW020 11/10 Q1013 NOSIG=
201207120520 METAR COR EGLL 120520Z 28006KT CAVOK 11/09 Q1013 NOSIG=
201207120450 METAR COR EGLL 120450Z 26006KT CAVOK 11/09 Q1013 NOSIG=
201207120420 METAR COR EGLL 120420Z 27006KT CAVOK 10/09 Q1013 NOSIG=
201207120350 METAR COR EGLL 120350Z 27007KT CAVOK 10/09 Q1013 NOSIG=
201207120320 METAR COR EGLL 120320Z 27006KT CAVOK 10/09 Q1013 NOSIG=
201207120250 METAR COR EGLL 120250Z 27007KT CAVOK 10/09 Q1013 NOSIG=
201207120220 METAR COR EGLL 120220Z 27007KT 9999 FEW049 11/09 Q1012 NOSIG=
201207120150 METAR COR EGLL 120150Z 26008KT 9999 FEW014 11/10 Q1012 NOSIG=
201207120120 METAR EGLL 120120Z AUTO 28007KT 9999 FEW043/// 11/10 Q1012=
201207120050 METAR EGLL 120050Z AUTO 28006KT 9999 SCT020/// SCT044///
                        12/10 Q1012 RERA=
201207120020 METAR EGLL 120020Z AUTO 28010KT 9999 -RA FEW027/// SCT039///
                        12/10 Q1012=
201207112350 METAR COR EGLL 112350Z 28011KT 9999 -RA SCT020 SCT037 12/10
                        Q1012 RERA TEMPO SHRA=
201207112320 METAR COR EGLL 112320Z 28007KT 260V330 8000 SHRA SCT015 BKN028
                        13/11 Q1012 TEMPO NSW=
201207112250 METAR COR EGLL 112250Z 28008KT 9999 SCT018 13/11 Q1012 RERA
                        TEMPO SHRA=
201207112220 METAR COR EGLL 112220Z 26007KT 230V290 9999 BKN028 14/10
                        Q1012 TEMPO SHRA=
201207112150 METAR COR EGLL 112150Z 25009KT 9999 SCT035 SCT042 15/10 Q1012
                        TEMPO SHRA=
201207112120 METAR COR EGLL 112120Z 24010KT 9999 BKN039 15/09 Q1011 TEMPO
                        SHRA=
201207112050 METAR COR EGLL 112050Z 24005KT 200V270 CAVOK 15/11 Q1011
                        TEMPO SHRA=
201207112020 METAR COR EGLL 112020Z VRB03KT 9999 FEW020 15/11 Q1011 NOSIG=
201207111950 METAR EGLL 111950Z 30002KT 9999 FEW020 14/10 Q1011=
201207111920 METAR COR EGLL 111920Z 29005KT 9999 FEW025 15/11 Q1011 NOSIG=
201207111850 METAR COR EGLL 111850Z 30005KT 9999 FEW030CB SCT035 15/10
                        Q1011 NOSIG=
201207111820 METAR COR EGLL 111820Z 31004KT 270V330 9999 FEW020 SCT030CB
                        15/09 Q1011 NOSIG=
201207111750 METAR COR EGLL 111750Z 30008KT 9999 -SHRA FEW020 SCT030CB
                        14/11 Q1011 RESHRA TEMPO SHRA TSRA=
201207111720 METAR COR EGLL 111720Z 28010KT 9999 SCT035CB 16/08 Q1011
                        TEMPO 27020G30KT 4000 +SHRA TSRA=
201207111650 METAR COR EGLL 111650Z 28012KT 9999 VCSH FEW022 BKN040CB
                        17/11 Q1010 TEMPO 28020G30KT 4000
                        TSGR=
201207111620 METAR COR EGLL 111620Z 25007KT 9999 -SHRA FEW027 BKN040CB
                        16/10 Q1011 RERA TEMPO SHRA TSRA=
201207111550 METAR COR EGLL 111550Z 25012KT 9999 SCT035CB 17/11 Q1011
                        TEMPO 27018G28KT SHRA=
201207111520 METAR COR EGLL 111520Z 29009KT 9999 VCSH SCT035CB 17/10 Q1011
                        TEMPO 27020G30KT 4000 TSRA=
201207111450 METAR COR EGLL 111450Z 27009KT 230V300 9999 VCSH SCT035CB
                        17/11 Q1011 RERA TEMPO SHRA=
201207111420 METAR COR EGLL 111420Z 28021KT 7000 SHRA BKN040CB 15/09 Q1011
                        TEMPO 4000 TSRA=
201207111350 METAR COR EGLL 111350Z 29013KT 9999 SCT036CB 20/08 Q1010
                        TEMPO 27020G30KT 4000 TSRA=
201207111320 METAR COR EGLL 111320Z 28017KT 9999 SCT036CB 20/08 Q1010
                        TEMPO 28020G30KT SHRA=
201207111250 METAR COR EGLL 111250Z 30014KT 9999 VCSH FEW020 SCT039CB
                        18/07 Q1011 TEMPO 28020G30KT SHRA=
201207111220 METAR COR EGLL 111220Z 29016KT 9999 FEW025CB SCT043 16/09
                        Q1011 RERA TEMPO 27020G30KT SHRA=
201207111150 METAR COR EGLL 111150Z 26014KT 9999 VCSH BKN037CB 19/10 Q1010
                        TEMPO 27018G28KT 4000 +SHRA=
201207111120 METAR COR EGLL 111120Z 26016KT 9999 BKN036 18/10 Q1010 TEMPO
                        28020G30KT 4000 +SHRA=
201207111050 METAR COR EGLL 111050Z 26016KT 9999 FEW027 SCT033CB 18/10
                        Q1010 TEMPO 28020G30KT 4000 +SHRA=
201207111020 METAR COR EGLL 111020Z 26014KT 9999 SCT027CB SCT035 18/11
                        Q1011 RESHRA TEMPO 27017G27KT SHRA=
201207110950 METAR COR EGLL 110950Z 27012KT 9999 VCSH SCT022CB SCT027
                        16/11 Q1011 RERA TEMPO 27018G28KT
                        SHRA=
201207110920 METAR COR EGLL 110920Z 26017KT 9999 VCSH SCT020CB SCT032
                        18/10 Q1011 TEMPO 26020G30KT SHRA=
201207110850 METAR COR EGLL 110850Z 27013KT 9999 SCT026 SCT030 17/10 Q1011
                        TEMPO 27016G26KT SHRA=
201207110820 METAR COR EGLL 110820Z 27013KT 9999 SCT024 16/11 Q1011 TEMPO
                        27016G26KT=
201207110750 METAR COR EGLL 110750Z 25011KT 230V290 9999 FEW016 16/11
                        Q1011 NOSIG=
201207110720 METAR COR EGLL 110720Z 26009KT 9999 FEW014 15/11 Q1011 NOSIG=
201207110650 METAR COR EGLL 110650Z 27010KT 9999 FEW012 SCT014 14/11 Q1011
                        NOSIG=
201207110620 METAR COR EGLL 110620Z 26009KT 9999 FEW011 SCT013 14/11 Q1011
                        TEMPO BKN014=
201207110550 METAR COR EGLL 110550Z 25011KT 9999 SCT010 13/11 Q1011 NOSIG=
201207110520 METAR COR EGLL 110520Z 25011KT 9999 BKN010 13/11 Q1011 BECMG
                        SCT012=
201207110450 METAR COR EGLL 110450Z 25010KT 9999 BKN010 12/10 Q1011 BECMG
                        SCT012=
201207110420 METAR COR EGLL 110420Z 24008KT 9999 SCT010 12/10 Q1010 TEMPO
                        BKN010=
201207110350 METAR COR EGLL 110350Z 24009KT 9999 SCT031 12/10 Q1010 TEMPO
                        BKN014=
201207110320 METAR COR EGLL 110320Z 24008KT 9999 SCT015 SCT033 12/10 Q1010
                        TEMPO BKN014=
201207110250 METAR COR EGLL 110250Z 25009KT 9999 FEW020 SCT042 13/10 Q1010
                        TEMPO BKN014=
201207110220 METAR COR EGLL 110220Z 25009KT 9999 SCT030 SCT040 13/10 Q1011
                        NOSIG=
201207110150 METAR COR EGLL 110150Z 25009KT 9999 BKN032 13/10 Q1011 NOSIG=
201207110120 METAR EGLL 110120Z AUTO 25008KT 9999 BKN039/// 13/10 Q1011=
201207110050 METAR EGLL 110050Z AUTO 25008KT 9999 BKN040/// 13/10 Q1011=
201207110020 METAR EGLL 110020Z AUTO 25007KT 9999 BKN043/// 13/10 Q1011=
201207102350 METAR COR EGLL 102350Z 27007KT 9999 FEW020 SCT047 13/11 Q1011
                        NOSIG=
201207102320 METAR COR EGLL 102320Z 28007KT 9999 BKN049 12/10 Q1011 NOSIG=
201207102250 METAR COR EGLL 102250Z 28007KT 9999 BKN049 13/11 Q1011 NOSIG=
201207102220 METAR EGLL 102220Z 29007KT 9999 -SHRA SCT042 13/10 Q1011=
201207102150 METAR COR EGLL 102150Z 30006KT 9999 SCT036 SCT045 13/10 Q1011
                        NOSIG=
201207102120 METAR COR EGLL 102120Z 31008KT 9999 FEW020 BKN024 13/11 Q1011
                        NOSIG=
201207102050 METAR COR EGLL 102050Z 29007KT 270V350 9999 FEW015 SCT028
                        15/12 Q1011 NOSIG=
201207102020 METAR COR EGLL 102020Z 28008KT 9999 FEW018 15/12 Q1010 NOSIG=
201207101950 METAR COR EGLL 101950Z 28009KT 9999 -SHRA FEW018 15/12 Q1010
                        NOSIG=
201207101920 METAR COR EGLL 101920Z 29009KT 9999 FEW027 15/13 Q1010 TEMPO
                        SHRA=
201207101850 METAR COR EGLL 101850Z 29010KT 9999 FEW042 16/12 Q1010 TEMPO
                        SHRA=
201207101820 METAR COR EGLL 101820Z 30007KT 9999 FEW036 16/12 Q1010 NOSIG=
201207101750 METAR COR EGLL 101750Z 26014G26KT 9999 SCT039 17/13 Q1009
                        NOSIG=
201207101720 METAR COR EGLL 101720Z 27005KT 220V300 9999 SCT030 18/14
                        Q1009 NOSIG=
201207101650 METAR COR EGLL 101650Z 26006KT 180V310 9999 -SHRA SCT016
                        17/13 Q1009 NOSIG=
201207101620 METAR COR EGLL 101620Z 24007KT 200V270 9999 FEW012CB SCT031
                        17/15 Q1009 NOSIG=
201207101550 METAR COR EGLL 101550Z VRB03KT 9999 -SHRA FEW015CB SCT030
                        15/13 Q1010 RETS RESHRA NOSIG=
201207101520 METAR COR EGLL 101520Z 26010KT 9000 TSRA SCT016CB SCT035
                        15/12 Q1010 BECMG NSW=
201207101450 METAR COR EGLL 101450Z 21010KT 170V250 9999 6000E -SHRA SCT016CB
                        SCT020 16/14 Q1010 RERA TEMPO 4000
                        SHRA BKN014CB=
201207101420 METAR COR EGLL 101420Z 20007KT 160V250 9999 5000NE -SHRA
                        SCT016CB SCT033 17/14 Q1010 RERA
                        TEMPO 4000 SHRA BKN014CB=
201207101350 METAR COR EGLL 101350Z 19006KT 150V290 9999 SCT015CB SCT033
                        17/13 Q1010 TEMPO 4000 SHRA=
201207101320 METAR COR EGLL 101320Z 23008KT 170V260 9999 SCT019 SCT035
                        17/15 Q1010 TEMPO 4000 SHRA SCT014CB=
201207101250 METAR COR EGLL 101250Z 23010G20KT 9999 5000S SHRA SCT017CB
                        BKN037 17/12 Q1010 TEMPO BKN014=
201207101220 METAR COR EGLL 101220Z 21008KT 130V240 9999 SCT016 BKN044
                        16/12 Q1010 TEMPO SHRA BKN014=
201207101150 METAR COR EGLL 101150Z 21010KT 180V250 9999 -SHRA FEW020
                        BKN026 16/11 Q1011 TEMPO SHRA BKN014=
201207101120 METAR COR EGLL 101120Z 24009KT 9999 FEW022 BKN029 17/11 Q1011
                        NOSIG=
201207101050 METAR COR EGLL 101050Z 24009KT 9999 FEW022 SCT035 16/11 Q1011
                        TEMPO BKN014=
201207101020 METAR EGLL 101020Z 24010KT 9999 SCT020 SCT038 16/11 Q1011=
201207100950 METAR COR EGLL 100950Z 25009KT 9999 -RA BKN020 16/11 Q1011
                        TEMPO BKN014=
201207100920 METAR COR EGLL 100920Z 26008KT 220V290 9999 FEW021 SCT034
                        16/10 Q1011 TEMPO BKN014=
201207100850 METAR COR EGLL 100850Z 25009KT 220V280 9999 FEW020 SCT023
                        16/10 Q1011 NOSIG=
201207100820 METAR COR EGLL 100820Z 24009KT 9999 SCT020 15/10 Q1011 NOSIG=
201207100750 METAR COR EGLL 100750Z 25008KT 9999 FEW020 15/10 Q1011 NOSIG=
201207100720 METAR COR EGLL 100720Z 25009KT 9999 SCT016 15/11 Q1011 TEMPO
                        BKN014=
201207100650 METAR COR EGLL 100650Z 25008KT 9999 SCT017 14/11 Q1011 TEMPO
                        BKN014=
201207100620 METAR COR EGLL 100620Z 24008KT 210V270 9999 FEW014 SCT047
                        14/11 Q1011 TEMPO BKN014=
201207100550 METAR COR EGLL 100550Z 25007KT 9999 FEW012 SCT045 14/11 Q1011
                        NOSIG=
201207100520 METAR COR EGLL 100520Z 26005KT 9999 FEW014 14/12 Q1011 NOSIG=
201207100450 METAR COR EGLL 100450Z 27005KT 9999 FEW012 14/11 Q1011 NOSIG=
201207100420 METAR COR EGLL 100420Z 28006KT 9999 FEW008 SCT012 14/12 Q1011
                        NOSIG=
201207100350 METAR COR EGLL 100350Z 21006KT 9999 FEW009 BKN011 14/12 Q1011
                        BECMG SCT012=
201207100320 METAR COR EGLL 100320Z 20006KT 9999 BKN010 14/12 Q1011 BECMG
                        SCT012=
201207100250 METAR COR EGLL 100250Z 22005KT 9999 BKN011 14/12 Q1011 BECMG
                        SCT012=
201207100220 METAR COR EGLL 100220Z 21005KT 9999 BKN010 BKN022 14/12 Q1011
                        BECMG SCT010=
201207100150 METAR COR EGLL 100150Z 21005KT 9999 BKN009 14/12 Q1011 BECMG
                        FEW010=
201207100120 METAR EGLL 100120Z AUTO 23006KT 9999 OVC009/// 14/12 Q1011=
201207100050 METAR EGLL 100050Z AUTO 23007KT 9999 OVC009/// 14/12 Q1012=
201207100020 METAR EGLL 100020Z AUTO 22007KT 9999 SCT009/// BKN046///
                        14/12 Q1012=
201207092350 METAR COR EGLL 092350Z 22007KT 9999 FEW012 BKN047 14/12 Q1012
                        TEMPO BKN010=
201207092320 METAR COR EGLL 092320Z 21005KT 9999 FEW012 SCT042 15/13 Q1012
                        TEMPO BKN012=
201207092250 METAR COR EGLL 092250Z 22006KT 9999 SCT037 15/13 Q1012 NOSIG=
201207092220 METAR COR EGLL 092220Z 24008KT 9999 SCT027 15/13 Q1012 NOSIG=
201207092150 METAR COR EGLL 092150Z 27006KT 230V290 9999 FEW031 16/13
                        Q1012 NOSIG=
201207092120 METAR COR EGLL 092120Z 25009KT 9999 SCT015 16/12 Q1012 NOSIG=
201207092050 METAR COR EGLL 092050Z 23006KT 190V260 9999 SCT017 SCT044
                        16/13 Q1012 NOSIG=
201207092020 METAR COR EGLL 092020Z 24006KT 9999 SCT036 BKN049 16/13 Q1012
                        NOSIG=
201207091950 METAR COR EGLL 091950Z 22006KT 9999 FEW034 SCT039 16/13 Q1011
                        NOSIG=
201207091920 METAR COR EGLL 091920Z 22006KT 9999 FEW047 16/13 Q1011 NOSIG=
201207091850 METAR COR EGLL 091850Z 23007KT 9999 SCT045 16/13 Q1012 NOSIG=
201207091820 METAR COR EGLL 091820Z 23008KT 9999 SCT042 BKN046 16/13 Q1012
                        NOSIG=
201207091750 METAR COR EGLL 091750Z 25009KT 9999 VCSH SCT030 BKN036 16/13
                        Q1012 NOSIG=
201207091720 METAR COR EGLL 091720Z 22008KT 9999 VCSH SCT026 SCT035 17/13
                        Q1012 NOSIG=
201207091650 METAR COR EGLL 091650Z 25010KT 9999 SCT022 18/12 Q1012 NOSIG=
201207091620 METAR COR EGLL 091620Z 28010KT 9999 SCT025 SCT035 18/13 Q1012
                        TEMPO SHRA BKN014=
201207091550 METAR COR EGLL 091550Z 23007KT 9999 FEW023 BKN027 18/13 Q1012
                        NOSIG=
201207091520 METAR COR EGLL 091520Z 21009KT 180V240 9999 SCT026 SCT034
                        18/13 Q1012 NOSIG=
201207091450 METAR COR EGLL 091450Z 22009KT 200V260 9999 FEW030 BKN045
                        18/12 Q1012 NOSIG=
201207091420 METAR COR EGLL 091420Z 24010KT 9999 SCT032 BKN042 19/12 Q1012
                        NOSIG=
201207091350 METAR COR EGLL 091350Z 28007KT 240V320 9999 FEW028 BKN033
                        18/13 Q1012 NOSIG=
201207091320 METAR COR EGLL 091320Z 28009KT 9999 SCT023 BKN031 16/14 Q1012
                        TEMPO SHRA BKN014=
201207091250 METAR COR EGLL 091250Z 28013KT 9999 -SHRA BKN023 18/13 Q1012
                        TEMPO SHRA BKN014=
201207091220 METAR COR EGLL 091220Z 30005KT 260V340 9999 BKN021 17/13
                        Q1012 NOSIG=
201207091150 METAR COR EGLL 091150Z 24005KT 180V280 9999 -SHRA BKN018
                        17/14 Q1011 NOSIG=
201207091120 METAR COR EGLL 091120Z 24007KT 180V280 9999 FEW020 BKN043
                        17/13 Q1011 NOSIG=
201207091050 METAR COR EGLL 091050Z 23011KT 9999 FEW015 BKN045 17/13 Q1011
                        NOSIG=
201207091020 METAR COR EGLL 091020Z 27009KT 9999 VCSH SCT015 BKN043 17/13
                        Q1011 NOSIG=
201207090950 METAR COR EGLL 090950Z 27009KT 9999 BKN013 17/13 Q1011 BECMG
                        SCT014 BKN018=
201207090920 METAR COR EGLL 090920Z 25009KT 230V290 9999 SCT012 BKN028
                        17/13 Q1011 NOSIG=
201207090850 METAR COR EGLL 090850Z 25009KT 9999 FEW011 BKN025 16/13 Q1011
                        NOSIG=
201207090820 METAR COR EGLL 090820Z 25010KT 9999 FEW011 BKN022 16/13 Q1011
                        NOSIG=
201207090750 METAR COR EGLL 090750Z 24010KT 9999 FEW010 BKN024 BKN028
                        16/13 Q1011 NOSIG=
201207090720 METAR COR EGLL 090720Z 25010KT 9999 FEW010 SCT029 BKN037
                        16/13 Q1010 TEMPO BKN014=
201207090650 METAR COR EGLL 090650Z 25010KT 7000 -DZ SCT014 SCT032 BKN042
                        16/13 Q1010 TEMPO BKN014=
201207090620 METAR COR EGLL 090620Z 25009KT 9999 FEW014 SCT019 BKN024
                        15/13 Q1010 TEMPO BKN014=
201207090550 METAR COR EGLL 090550Z 25009KT 9999 SCT014 BKN020 15/13 Q1010
                        TEMPO BKN014=
201207090520 METAR COR EGLL 090520Z 24008KT 9999 SCT014 BKN019 15/13 Q1010
                        TEMPO BKN012=
201207090450 METAR COR EGLL 090450Z 25008KT 9999 SCT014 BKN018 15/13 Q1010
                        TEMPO BKN014=
201207090420 METAR COR EGLL 090420Z 24007KT 9999 FEW009 BKN013 15/13 Q1010
                        TEMPO BKN016=
201207090350 METAR COR EGLL 090350Z 23007KT 9999 FEW009 BKN013 15/13 Q1010
                        TEMPO BKN016=
201207090320 METAR COR EGLL 090320Z 25008KT 9000 FEW008 BKN013 15/13 Q1010
                        NOSIG=
201207090250 METAR COR EGLL 090250Z 24008KT 9000 FEW010 BKN019 15/13 Q1010
                        TEMPO BKN011=
201207090220 METAR COR EGLL 090220Z 25009KT 9000 BKN017 15/13 Q1010 TEMPO
                        BKN011=
201207090150 METAR COR EGLL 090150Z 25009KT 8000 BKN015 15/13 Q1010 TEMPO
                        BKN011=
201207090120 METAR EGLL 090120Z AUTO 24007KT 7000 BKN009/// 15/13 Q1010=
201207090050 METAR EGLL 090050Z AUTO 24006KT 7000 BKN018/// 15/13 Q1010=
201207090020 METAR EGLL 090020Z AUTO 24007KT 7000 NCD 15/13 Q1010=
201207082350 METAR COR EGLL 082350Z 24006KT 8000 NSC 15/13 Q1009 NOSIG=
201207082320 METAR COR EGLL 082320Z 27007KT 9999 FEW022 15/13 Q1009 NOSIG=
201207082250 METAR COR EGLL 082250Z 27006KT 9999 FEW024 16/14 Q1009 NOSIG=
201207082220 METAR COR EGLL 082220Z 23006KT 180V280 9999 FEW022 16/14
                        Q1009 NOSIG=
201207082150 METAR COR EGLL 082150Z 22004KT 180V280 9999 FEW029 16/14
                        Q1009 NOSIG=
201207082120 METAR COR EGLL 082120Z 19007KT 140V250 9999 FEW030 15/13
                        Q1009 NOSIG=
201207082050 METAR COR EGLL 082050Z 22007KT 160V260 9999 FEW030 15/13
                        Q1009 NOSIG=
201207082020 METAR COR EGLL 082020Z VRB03KT 9999 SCT030 16/13 Q1009 NOSIG=
201207081950 METAR COR EGLL 081950Z VRB03KT 9999 SCT019 SCT036CB 16/12
                        Q1009 RESHRA NOSIG=
201207081920 METAR COR EGLL 081920Z 36005KT 8000 2000SW SHRA FEW025 BKN030CB
                        18/13 Q1008 TEMP 5000 TSRA=
201207081850 METAR COR EGLL 081850Z 05003KT 9999 VCSH SCT043CB 18/12 Q1008
                        PROB30 TEMPO TSRA=
201207081820 METAR COR EGLL 081820Z VRB03KT 9999 SCT040 19/12 Q1008 TEMPO
                        SHRA=
201207081750 METAR COR EGLL 081750Z 03005KT 330V120 9999 SCT032TCU 20/12
                        Q1008 TEMPO SHRA=
201207081720 METAR COR EGLL 081720Z 03007KT 340V070 9999 SCT031CB 20/13
                        Q1007 TEMPO SHRA=
201207081650 METAR COR EGLL 081650Z 27010KT 230V320 9999 SCT033 20/13
                        Q1007 TEMPO SHRA=
201207081620 METAR COR EGLL 081620Z VRB03KT 9999 SCT032 20/13 Q1007 TEMPO
                        SHRA=
201207081550 METAR COR EGLL 081550Z 02006KT 340V050 9999 SCT040 SCT044
                        20/12 Q1007 TEMPO SHRA=
201207081520 METAR COR EGLL 081520Z 30010KT 9999 FEW036 SCT041 22/13 Q1007
                        TEMPO SHRA=
201207081450 METAR COR EGLL 081450Z 28010KT 9999 BKN033 21/13 Q1006 TEMPO
                        SHRA=
201207081420 METAR EGLL 081420Z 32007KT 280V030 9999 SCT033 21/12 Q1006
                        NOSIG=
201207081350 METAR COR EGLL 081350Z 30010KT 9999 SCT032 20/13 Q1006 NOSIG=
201207081320 METAR COR EGLL 081320Z 32007KT 9999 SCT028 20/13 Q1006 NOSIG=
201207081250 METAR COR EGLL 081250Z 30008KT 9999 SCT023 20/12 Q1006 TEMPO
                        SHRA=
201207081220 METAR COR EGLL 081220Z 33008KT 280V010 9999 SCT021 SCT044
                        19/13 Q1006 TEMPO SHRA=
201207081150 METAR COR EGLL 081150Z 35006KT 280V020 9999 SCT025 SCT035
                        18/13 Q1006 NOSIG=
201207081120 METAR COR EGLL 081120Z 36008KT 9999 SCT013 SCT035 18/13 Q1006
                        NOSIG=
201207081050 METAR COR EGLL 081050Z 34006KT 310V030 9999 BKN012 18/14
                        Q1005 BECMG FEW012 BKN016=
201207081020 METAR COR EGLL 081020Z 35008KT 320V020 9999 SCT009 BKN016
                        17/14 Q1005 TEMPO SHRA=
201207080950 METAR COR EGLL 080950Z 34006KT 310V020 9999 -SHRA SCT009
                        BKN017 16/14 Q1005 RESHRA TEMPO 8000
                        SHRA BKN014=
201207080920 METAR COR EGLL 080920Z 35007KT 310V020 8000 SHRA SCT008 BKN015
                        16/14 Q1004 TEMPO SCT010 BKN014=
201207080850 METAR COR EGLL 080850Z 36006KT 340V040 9999 SCT008 BKN014
                        16/14 Q1004 TEMPO SHRA SCT010 BKN015=
201207080820 METAR COR EGLL 080820Z 36008KT 330V040 9999 SCT007 BKN011
                        16/14 Q1004 TEMPO SHRA SCT010 BKN015=
201207080750 METAR COR EGLL 080750Z 36006KT 320V030 9999 FEW006 SCT009
                        BKN013 15/14 Q1004 TEMPO SCT010 BKN015=
201207080720 METAR COR EGLL 080720Z 36006KT 330V040 9999 SCT006 BKN009
                        15/14 Q1003 BECMG SCT008 BKN012=
201207080650 METAR COR EGLL 080650Z 36006KT 9999 SCT005 BKN009 15/13 Q1003
                        TEMPO 4000 RADZ=
201207080620 METAR COR EGLL 080620Z 36005KT 330V030 9999 SCT005 BKN010
                        15/14 Q1003 TEMPO 4000 RADZ SCT005
                        BKN008=
201207080550 METAR COR EGLL 080550Z 04004KT 350V100 9999 SCT007 BKN011
                        15/13 Q1003 TEMPO 4000 RADZ SCT006
                        BKN009=
201207080520 METAR COR EGLL 080520Z 04004KT 360V080 9999 FEW006 BKN010
                        15/13 Q1003 TEMPO 4000 DZ SCT006
                        BKN008=
201207080450 METAR COR EGLL 080450Z 04005KT 010V090 9999 FEW005 BKN010
                        14/13 Q1003 TEMPO 4000 -DZ SCT005
                        BKN008=
201207080420 METAR COR EGLL 080420Z 04005KT 360V070 9999 FEW005 SCT008
                        BKN011 14/13 Q1003 TEMPO 4000 RADZ
                        SCT004 BKN007=
201207080350 METAR COR EGLL 080350Z 05004KT 9999 FEW006 SCT021 14/13 Q1003
                        TEMPO 3000 RADZ SCT003 BKN006=
201207080320 METAR COR EGLL 080320Z 05005KT 9999 FEW004 SCT025 14/13 Q1003
                        TEMPO 3000 RADZ SCT003 BKN006=
201207080250 METAR COR EGLL 080250Z 04005KT 9999 -RA FEW005 15/14 Q1003
                        TEMPO 3000 RADZ BR SCT003 BKN006=
201207080220 METAR COR EGLL 080220Z 06004KT 9999 -RA FEW005 SCT010 14/13
                        Q1003 TEMPO 4000 RA SCT006 BKN010=
201207080150 METAR COR EGLL 080150Z 04004KT 9999 -RA FEW008 SCT027 15/14
                        Q1003 TEMPO 4000 RA SCT006 BKN010=
201207080120 METAR EGLL 080120Z AUTO 10005KT 9999 FEW005/// SCT014///
                        OVC018/// 15/14 Q1004=
201207080050 METAR EGLL 080050Z AUTO 08006KT 9999 SCT004/// SCT018///
                        BKN021/// 15/14 Q1004=
201207080020 METAR EGLL 080020Z AUTO 09005KT 5000 RA FEW004/// SCT015///
                        14/14 Q1005 RERA=
201207072350 METAR COR EGLL 072350Z 07007KT 040V110 6000 RA FEW006 SCT012CB
                        15/14 Q1004 TEMPO 4000 +RA BKN006=
201207072320 METAR COR EGLL 072320Z 07004KT 9999 -RA FEW006 SCT012 14/13
                        Q1005 TEMPO 4000 RA SCT006 BKN012=
201207072250 METAR COR EGLL 072250Z 09006KT 8000 -RA FEW005 SCT007 BKN018
                        14/13 Q1005 TEMPO 4000 RA SCT006
                        BKN010=
201207072220 METAR COR EGLL 072220Z 09004KT 9999 FEW007 SCT011 BKN018
                        15/14 Q1005 TEMPO 4000 RA SCT006
                        BKN011=
201207072150 METAR COR EGLL 072150Z 11006KT 9999 FEW006 SCT011 BKN017
                        15/14 Q1005 TEMPO 4000 RA SCT006
                        BKN011=
201207072120 METAR COR EGLL 072120Z 11007KT 9999 FEW009 BKN010 15/14 Q1006
                        TEMPO 4000 RA=
201207072050 METAR COR EGLL 072050Z 12005KT 9999 BKN010 BKN015 15/13 Q1006
                        TEMPO TEMPO 4000 RA=
201207072020 METAR COR EGLL 072020Z 14004KT 9999 -SHRA FEW009 SCT013 BKN017
                        14/13 Q1006 RESHRA TEMPO 4000 SHRA=
201207071950 METAR COR EGLL 071950Z 18007KT 3800 SHRA FEW009 BKN015 15/13
                        Q1006 BECMG 9999 NSW=
201207071920 METAR COR EGLL 071920Z 11006KT 070V150 4900 SHRA BKN015 15/13
                        Q1005 TEMPO SHRA BKN014=
201207071850 METAR COR EGLL 071850Z 12007KT 9999 -RA FEW017 BKN031 15/13
                        Q1006 RERA NOSIG=
201207071820 METAR COR EGLL 071820Z 15011KT 9000 RA FEW012 SCT027 BKN037
                        16/12 Q1005 BECMG NSW=
201207071750 METAR COR EGLL 071750Z 14008KT 110V170 9999 FEW043 SCT048
                        18/11 Q1006 NOSIG=
201207071720 METAR COR EGLL 071720Z 14008KT 9999 FEW033 18/11 Q1006 NOSIG=
201207071650 METAR COR EGLL 071650Z 16012KT 9999 FEW031 BKN036 18/11 Q1006
                        NOSIG=
201207071620 METAR COR EGLL 071620Z 17012KT 9999 SCT031 BKN047 18/10 Q1006
                        NOSIG=
201207071550 METAR COR EGLL 071550Z 17010KT 9999 SCT029 18/11 Q1006 NOSIG=
201207071520 METAR COR EGLL 071520Z 17011KT 9999 FEW030 SCT034 18/11 Q1007
                        NOSIG=
201207071450 METAR COR EGLL 071450Z 19009KT 140V210 9999 SCT036 18/11
                        Q1007 NOSIG=
201207071420 METAR COR EGLL 071420Z 19010KT 9999 SCT032 18/11 Q1007 NOSIG=
201207071350 METAR COR EGLL 071350Z 18011KT 9999 SCT030 17/11 Q1007 NOSIG=
201207071320 METAR COR EGLL 071320Z 17014KT 9999 SCT030CB 18/11 Q1007
                        TEMPO SHRA=
201207071250 METAR COR EGLL 071250Z 15013KT 9999 SCT020 SCT023CB 17/12
                        Q1007 RESHRA NOSIG=
201207071220 METAR COR EGLL 071220Z 17012KT 9999 VCSH FEW017 SCT025CB
                        17/12 Q1008 RESHRA NOSIG=
201207071150 METAR COR EGLL 071150Z 17012KT 9999 4000SW SHRA SCT024CB
                        SCT043 17/12 Q1008 TEMPO NSW=
201207071120 METAR COR EGLL 071120Z 16014KT 9999 FEW025 SCT033 18/12 Q1007
                        TEMPO SHRA=
201207071050 METAR COR EGLL 071050Z 16011KT 9999 SCT025 SCT033 17/13 Q1007
                        TEMPO SHRA=
201207071020 METAR COR EGLL 071020Z 16013KT 130V190 9999 SCT020 SCT024
                        18/12 Q1007 TEMPO SHRA=
201207070950 METAR COR EGLL 070950Z 14012KT 9999 FEW018 SCT023 18/14 Q1007
                        RESHRA TEMPO SHRA=
201207070920 METAR COR EGLL 070920Z 15010KT 9999 VCSH FEW029 SCT033 18/14
                        Q1007 TEMPO SHRA=
201207070850 METAR COR EGLL 070850Z 16012KT 9999 -RA FEW022 SCT032 17/13
                        Q1007 TEMPO SHRA BKN014=
201207070820 METAR COR EGLL 070820Z 15010KT 9999 -RA FEW018 SCT028 16/13
                        Q1007 TEMPO SHRA BKN014=
201207070750 METAR COR EGLL 070750Z 13008KT 9999 BKN017 BKN031 16/12 Q1007
                        TEMPO SHRA BKN014=
201207070720 METAR COR EGLL 070720Z 15008KT 9999 SCT015 BKN035 16/13 Q1007
                        TEMPO SHRA BKN014=
201207070650 METAR COR EGLL 070650Z 15009KT 9999 FEW010 BKN028 15/13 Q1007
                        TEMPO BKN010=
201207070620 METAR COR EGLL 070620Z 15009KT 9999 SCT011 SCT030 15/13 Q1007
                        TEMPO BKN010=
201207070550 METAR COR EGLL 070550Z 13007KT 9999 SCT027 SCT032 15/13 Q1007
                        NOSIG=
201207070520 METAR COR EGLL 070520Z 13008KT 9999 FEW009 SCT029 14/13 Q1007
                        NOSIG=
201207070450 METAR COR EGLL 070450Z 13007KT 8000 FEW007 SCT022 14/12 Q1007
                        TEMPO BKN012=
201207070420 METAR COR EGLL 070420Z 13007KT 6000 SCT009 13/12 Q1007 TEMPO
                        BKN010=
201207070350 METAR COR EGLL 070350Z 13006KT 7000 FEW007 SCT008 BKN009
                        13/12 Q1007 TEMPO SCT009 BKN011=
201207070320 METAR COR EGLL 070320Z 13006KT 7000 FEW007 BKN008 13/12 Q1007
                        TEMPO SCT008 BKN012=
201207070250 METAR COR EGLL 070250Z 09004KT 9000 FEW017 13/11 Q1007 TEMPO
                        BKN008=
201207070220 METAR COR EGLL 070220Z 10006KT 9999 FEW025 13/12 Q1007 TEMPO
                        BKN012=
201207070150 METAR COR EGLL 070150Z 12007KT 9999 FEW008 BKN025 14/12 Q1008
                        TEMPO BKN012=
201207070120 METAR EGLL 070120Z AUTO 12006KT 8000 FEW008/// SCT017///
                        BKN026/// 14/12 Q1008=
201207070050 METAR EGLL 070050Z AUTO 13006KT 8000 FEW012/// SCT023///
                        14/12 Q1008=
201207070020 METAR EGLL 070020Z AUTO 13004KT 9999 FEW036/// 14/12 Q1008=
201207062350 METAR COR EGLL 062350Z 13004KT 9999 FEW010 SCT030 14/12 Q1008
                        TEMPO BKN010=
201207062320 METAR COR EGLL 062320Z 16004KT 9999 FEW010 14/12 Q1008 TEMPO
                        RA BKN010=
201207062250 METAR COR EGLL 062250Z 17005KT 140V200 9999 SCT010 14/12
                        Q1008 BECMG BKN009=
201207062220 METAR EGLL 062220Z VRB04KT 9999 SCT010 14/12 Q1008=
201207062150 METAR COR EGLL 062150Z 17005KT 100V240 9999 FEW012 14/12
                        Q1008 BECMG BKN009=
201207062120 METAR COR EGLL 062120Z 17007KT 140V240 9999 FEW012 SCT027
                        14/12 Q1008 NOSIG=
201207062050 METAR COR EGLL 062050Z 17008KT 130V250 9999 SCT015 SCT021
                        15/13 Q1008 NOSIG=
201207062020 METAR COR EGLL 062020Z 18005KT 140V230 9999 FEW024 15/13
                        Q1007 NOSIG=
201207061950 METAR COR EGLL 061950Z 21007KT 180V250 9999 FEW014 16/13
                        Q1007 NOSIG=
201207061920 METAR COR EGLL 061920Z 21006KT 170V260 9999 FEW012 16/14
                        Q1007 NOSIG=
201207061850 METAR COR EGLL 061850Z 21007KT 170V260 9999 FEW012 16/14
                        Q1007 TEMPO 4500 SHRA=
201207061820 METAR COR EGLL 061820Z 20009KT 170V250 9999 VCSH FEW012 FEW021CB
                        16/13 Q1006 NOSIG=
201207061750 METAR COR EGLL 061750Z 22008KT 180V260 9999 VCTS FEW017 SCT021CB
                        17/15 Q1006 BECMG NSW=
201207061720 METAR COR EGLL 061720Z 15006KT 110V230 9999 VCSH FEW016 SCT021CB
                        17/14 Q1006 TEMPO SHRA BKN014=
201207061650 METAR COR EGLL 061650Z 19008KT 140V240 9999 -SHRA FEW018
                        SCT021CB 17/13 Q1006 TEMPO SHRA=
201207061620 METAR COR EGLL 061620Z 21006KT 160V270 9999 VCSH FEW017 SCT020CB
                        18/14 Q1006 TEMPO SHRA BKN014=
201207061550 METAR COR EGLL 061550Z 20008KT 160V240 9999 SCT017 18/14
                        Q1006 NOSIG=
201207061520 METAR COR EGLL 061520Z 21007KT 180V260 9999 SCT020 17/14
                        Q1006 NOSIG=
201207061450 METAR COR EGLL 061450Z 20009KT 160V250 9999 SCT009 SCT015
                        17/14 Q1007 NOSIG=
201207061420 METAR COR EGLL 061420Z 19011KT 150V240 9999 SCT010 SCT033
                        17/14 Q1007 NOSIG=
201207061350 METAR COR EGLL 061350Z 18009KT 9999 -RA FEW010 SCT033 16/14
                        Q1007 NOSIG=
201207061320 METAR COR EGLL 061320Z 19008G18KT 170V230 9999 -RA FEW020
                        SCT032 16/14 Q1007 NOSIG=
201207061250 METAR COR EGLL 061250Z 19008KT 170V240 9999 -RA FEW030 SCT039
                        15/14 Q1007 RERA NOSIG=
201207061220 METAR COR EGLL 061220Z 19007KT 150V260 8000 RA SCT022 SCT039
                        15/14 Q1007 PROB30 TEMPO TSRA=
201207061150 METAR COR EGLL 061150Z 19011KT 160V230 8000 RA BKN039 15/13
                        Q1007 PROB30 TEMPO TSRA=
201207061120 METAR COR EGLL 061120Z 18011KT 9999 -RA FEW020 BKN041 16/13
                        Q1007 TEMPO +SHRA=
201207061050 METAR COR EGLL 061050Z 19008KT 160V250 9999 -RA FEW027 SCT041
                        16/14 Q1007 TEMPO +SHRA=
201207061020 METAR COR EGLL 061020Z 20007KT 160V240 9999 -RA FEW027 SCT033
                        BKN039 16/14 Q1007 TEMPO +SHRA=
201207060950 METAR EGLL 060950Z 21006KT 9999 -RA SCT022 SCT032 16/13 Q1007=
201207060920 METAR COR EGLL 060920Z 22004KT 180V260 9999 -RA SCT023 SCT035
                        16/13 Q1007 TEMPO +SHRA=
201207060850 METAR COR EGLL 060850Z 22005KT 180V280 9999 -RA FEW040 SCT045
                        16/13 Q1007 TEMPO +SHRA=
201207060820 METAR COR EGLL 060820Z 20005KT 150V230 9999 -RA FEW037 SCT042
                        15/13 Q1007 NOSIG=
201207060750 METAR COR EGLL 060750Z 18005KT 140V280 9999 -RA SCT042 15/13
                        Q1007 TEMPO RA=
201207060720 METAR COR EGLL 060720Z 18005KT 100V270 9999 FEW037 SCT045
                        15/13 Q1007 NOSIG=
201207060650 METAR COR EGLL 060650Z 24004KT 200V270 9999 -RA FEW037 15/13
                        Q1007 NOSIG=
201207060620 METAR COR EGLL 060620Z 23004KT 190V270 9999 FEW038 15/13
                        Q1007 NOSIG=
201207060550 METAR EGLL 060550Z 21005KT 170V250 9999 FEW038 15/13 Q1007=
201207060520 METAR COR EGLL 060520Z 20004KT 170V260 9999 FEW040 15/13
                        Q1007 NOSIG=
201207060450 METAR COR EGLL 060450Z 24004KT 200V260 9999 -RA FEW043 15/13
                        Q1007 NOSIG=
201207060420 METAR COR EGLL 060420Z 24005KT 200V260 9999 -RA NSC 15/13
                        Q1008 TEMPO RA=
201207060350 METAR COR EGLL 060350Z 23006KT 9999 -RA NSC 15/13 Q1008 TEMPO
                        RA=
201207060320 METAR COR EGLL 060320Z 25004KT 9999 -RA NSC 16/13 Q1008 TEMPO
                        RA=
201207060250 METAR EGLL 060250Z AUTO 24005KT 9999 -RA NCD 16/14 Q1008
                        RERA=
201207060220 METAR COR EGLL 060220Z 21005KT 9999 -RA NSC 16/14 Q1008 TEMPO
                        RA=
201207060150 METAR COR EGLL 060150Z 19004KT CAVOK 16/13 Q1008 TEMPO RA=
201207060120 METAR EGLL 060120Z AUTO 21004KT 9999 FEW036/// 16/13 Q1008=
201207060050 METAR EGLL 060050Z AUTO 21006KT 9999 -DZ NCD 17/13 Q1008=
201207060020 METAR EGLL 060020Z AUTO 21004KT 9999 NCD 17/13 Q1009=
201207052350 METAR COR EGLL 052350Z 21004KT CAVOK 17/13 Q1009 TEMPO RA=
201207052320 METAR COR EGLL 052320Z 20004KT 9999 SCT037 17/13 Q1009 TEMPO
                        RA=
201207052250 METAR COR EGLL 052250Z 17004KT 150V240 9999 SCT040 17/13
                        Q1009 TEMPO RA=
201207052220 METAR COR EGLL 052220Z 20007KT 160V250 9999 FEW040 17/13
                        Q1009 TEMPO RA=
201207052150 METAR COR EGLL 052150Z 20007KT 170V250 9999 FEW045 18/13
                        Q1009 TEMPO RA=
201207052120 METAR COR EGLL 052120Z 20007KT 150V260 CAVOK 17/13 Q1009
                        NOSIG=
201207052050 METAR COR EGLL 052050Z 19007KT 160V250 CAVOK 18/13 Q1009
                        NOSIG=
201207052020 METAR COR EGLL 052020Z 18006KT 140V250 9999 SCT041 18/12
                        Q1009 NOSIG=
201207051950 METAR COR EGLL 051950Z 18007KT 120V240 9999 FEW043 19/12
                        Q1009 NOSIG=
201207051920 METAR COR EGLL 051920Z 18007KT 140V230 9999 SCT043 19/12
                        Q1009 NOSIG=
201207051850 METAR COR EGLL 051850Z 17008KT 140V230 9999 FEW048 19/13
                        Q1009 NOSIG=
201207051820 METAR COR EGLL 051820Z 19009KT 160V240 9999 FEW048 20/13
                        Q1009 NOSIG=
201207051750 METAR COR EGLL 051750Z 18009KT 150V230 9999 SCT042 20/12
                        Q1009 NOSIG=
201207051720 METAR COR EGLL 051720Z 16009KT 120V240 9999 SCT039 21/12
                        Q1009 NOSIG=
201207051650 METAR EGLL 051650Z 19007KT 160V250 9999 SCT039 21/12 Q1008=
201207051620 METAR COR EGLL 051620Z 22008KT 160V260 9999 SCT036 21/12
                        Q1008 NOSIG=
201207051550 METAR COR EGLL 051550Z 22008KT 180V260 9999 FEW034 SCT044
                        22/13 Q1008 NOSIG=
201207051520 METAR COR EGLL 051520Z 19006KT 120V250 9999 SCT034 22/13
                        Q1009 NOSIG=
201207051450 METAR COR EGLL 051450Z 22007KT 180V250 9999 SCT043 23/13
                        Q1009 NOSIG=
201207051420 METAR COR EGLL 051420Z 20007KT 150V250 9999 SCT032 22/13
                        Q1009 NOSIG=
201207051350 METAR COR EGLL 051350Z 27004KT 210V340 9999 SCT031 SCT038
                        22/13 Q1009 NOSIG=
201207051320 METAR COR EGLL 051320Z 26004KT 180V350 9999 SCT032 SCT046
                        21/13 Q1009 NOSIG=
201207051250 METAR COR EGLL 051250Z VRB03KT 9999 SCT034 21/13 Q1009 NOSIG=
201207051220 METAR COR EGLL 051220Z 19004KT 140V280 9999 SCT030 SCT033
                        20/13 Q1009 NOSIG=
201207051150 METAR COR EGLL 051150Z VRB04KT 9999 SCT028 SCT035 21/13 Q1010
                        NOSIG=
201207051120 METAR COR EGLL 051120Z 16005KT 110V250 9999 SCT026 BKN030
                        20/13 Q1010 NOSIG=
201207051050 METAR COR EGLL 051050Z 17004KT 120V210 9999 SCT025 SCT029
                        20/13 Q1010 NOSIG=
201207051020 METAR COR EGLL 051020Z 15004KT 100V190 9999 FEW025 SCT030
                        19/13 Q1010 NOSIG=
201207050950 METAR COR EGLL 050950Z 15004KT 100V270 9999 FEW024 SCT030
                        19/13 Q1010 NOSIG=
201207050920 METAR COR EGLL 050920Z 16005KT 110V200 9999 FEW029 18/12
                        Q1010 NOSIG=
201207050850 METAR COR EGLL 050850Z VRB03KT 9999 FEW021 17/12 Q1010 NOSIG=
201207050820 METAR COR EGLL 050820Z 34004KT 280V030 9999 FEW031 17/12
                        Q1010 NOSIG=
201207050750 METAR COR EGLL 050750Z VRB03KT 9999 SCT032 16/11 Q1010 NOSIG=
201207050720 METAR COR EGLL 050720Z VRB03KT 9999 FEW032 16/12 Q1010 NOSIG=
201207050650 METAR COR EGLL 050650Z 31004KT 260V340 9999 FEW032 15/12
                        Q1010 NOSIG=
201207050620 METAR COR EGLL 050620Z 31004KT 250V350 9999 FEW012 SCT030
                        15/12 Q1010 NOSIG=
201207050550 METAR COR EGLL 050550Z 28004KT 9999 FEW012 15/12 Q1010 NOSIG=
201207050520 METAR COR EGLL 050520Z 30004KT 270V330 9999 FEW040 14/11
                        Q1010 NOSIG=
201207050450 METAR COR EGLL 050450Z 27008KT 9999 SCT040 14/11 Q1010 NOSIG=
201207050420 METAR COR EGLL 050420Z 20006KT 9999 -RA FEW025 BKN040 15/13
                        Q1010 TEMPO BKN012=
201207050350 METAR COR EGLL 050350Z 22005KT 180V270 9999 SCT040 15/12
                        Q1009 TEMPO SHRA BKN014=
201207050320 METAR COR EGLL 050320Z 28003KT CAVOK 15/12 Q1009 NOSIG=
201207050250 METAR EGLL 050250Z NIL=
201207050220 METAR EGLL 050220Z NIL=
201207050150 METAR COR EGLL 050150Z 27005KT CAVOK 15/12 Q1009 NOSIG=
201207050120 METAR EGLL 050120Z AUTO 26006KT 9999 NCD 16/12 Q1009=
201207050050 METAR EGLL 050050Z AUTO 24007KT 9999 BKN006/// 16/14 Q1009=
201207050020 METAR EGLL 050020Z AUTO 24006KT 9999 FEW006/// 17/15 Q1009=
201207042350 METAR COR EGLL 042350Z 22006KT CAVOK 17/15 Q1009 NOSIG=
201207042320 METAR COR EGLL 042320Z 18004KT CAVOK 17/15 Q1009 NOSIG=
201207042250 METAR COR EGLL 042250Z 17005KT 130V230 CAVOK 17/15 Q1010
                        TEMPO BKN011=
201207042220 METAR COR EGLL 042220Z 19006KT 150V250 CAVOK 17/15 Q1009
                        NOSIG=
201207042150 METAR COR EGLL 042150Z 18008KT 130V240 9999 FEW010 17/15
                        Q1009 TEMPO BKN008=
201207042120 METAR COR EGLL 042120Z 18007KT 140V240 9999 FEW010 17/15
                        Q1009 TEMPO BKN008=
201207042050 METAR COR EGLL 042050Z 19008KT 150V230 CAVOK 18/15 Q1009
                        NOSIG=
201207042020 METAR COR EGLL 042020Z 19009KT 160V250 9999 FEW024 SCT038
                        18/15 Q1009 NOSIG=
201207041950 METAR COR EGLL 041950Z 18010KT 150V260 9999 FEW014 SCT034
                        19/15 Q1009 NOSIG=
201207041920 METAR COR EGLL 041920Z 17007KT 100V230 9999 FEW020 SCT030
                        19/16 Q1008 NOSIG=
201207041850 METAR COR EGLL 041850Z 17008KT 130V220 9999 FEW016 SCT030
                        19/16 Q1008 NOSIG=
201207041820 METAR COR EGLL 041820Z 16008KT 130V220 9999 FEW025 SCT038
                        19/16 Q1008 TEMPO SHRA BKN014=
201207041750 METAR COR EGLL 041750Z 16009KT 120V220 9999 -SHRA FEW020
                        BKN034 20/16 Q1008 TEMPO SHRA=
201207041720 METAR COR EGLL 041720Z 17009KT 140V210 9999 FEW023 SCT041
                        21/15 Q1008 TEMPO 4500 +SHRA BKN014=
201207041650 METAR COR EGLL 041650Z 17009KT 140V240 9999 FEW019 21/16
                        Q1008 TEMPO SHRA BKN014=
201207041620 METAR COR EGLL 041620Z 18009KT 140V220 9999 FEW027 SCT043
                        20/16 Q1008 NOSIG=
201207041550 METAR COR EGLL 041550Z 16011KT 140V210 9999 SCT027 BKN044
                        20/16 Q1008 TEMPO SHRA BKN014=
201207041520 METAR COR EGLL 041520Z 21009KT 180V240 9999 SCT019 SCT025
                        21/16 Q1008 NOSIG=
201207041450 METAR COR EGLL 041450Z 20010G20KT 170V240 9999 SCT019 SCT035
                        22/16 Q1008 TEMPO 4500 SHRA BKN014=
201207041420 METAR COR EGLL 041420Z 19010KT 160V240 9999 SCT018 SCT041
                        21/16 Q1009 TEMPO 4500 SHRA BKN014=
201207041350 METAR COR EGLL 041350Z 18011KT 150V220 9999 SCT017 SCT021
                        20/16 Q1009 TEMPO SHRA BKN014=
201207041320 METAR COR EGLL 041320Z 17011KT 9999 VCSH BKN018 20/16 Q1009
                        TEMPO 4500 SHRA BKN014=
201207041250 METAR COR EGLL 041250Z 18008KT 140V230 9999 VCSH FEW015 SCT021
                        19/17 Q1009 TEMPO SHRA BKN014=
201207041220 METAR COR EGLL 041220Z 19008KT 170V240 9999 -SHRA FEW014
                        SCT022 18/17 Q1009 RESHRA TEMPO SHRA
                        BKN014=
201207041150 METAR COR EGLL 041150Z 19009KT 9999 SCT013 BKN018 20/16 Q1009
                        TEMPO SHRA BKN014=
201207041120 METAR EGLL 041120Z 20010KT 140V230 9999 SCT013 SCT017 20/16
                        Q1009=
201207041050 METAR COR EGLL 041050Z 20012KT 9999 SCT008 BKN011 20/16 Q1009
                        TEMPO SCT011=
201207041020 METAR COR EGLL 041020Z 18010KT 150V230 9999 FEW006 SCT013
                        BKN030 18/16 Q1009 TEMPO SHRA BKN014=
201207040950 METAR COR EGLL 040950Z 20010KT 9999 -SHRA SCT010 SCT021 18/16
                        Q1009 NOSIG=
201207040920 METAR COR EGLL 040920Z 18009KT 150V210 9999 SCT009 BKN012
                        19/16 Q1009 TEMPO SCT012=
201207040850 METAR COR EGLL 040850Z 17008KT 100V210 9999 SCT007 BKN012
                        18/16 Q1009 NOSIG=
201207040820 METAR COR EGLL 040820Z 17009KT 140V210 9999 SCT007 BKN012
                        17/16 Q1009 NOSIG=
201207040750 METAR COR EGLL 040750Z 17008KT 140V220 9000 SCT007 BKN011
                        17/16 Q1009 NOSIG=
201207040720 METAR COR EGLL 040720Z 18008KT 140V210 9999 SCT005 BKN009
                        17/16 Q1009 BECMG SCT008 BKN012=
201207040650 METAR COR EGLL 040650Z 15007KT 100V180 9999 -DZ SCT005 BKN010
                        17/16 Q1009 TEMPO BKN008=
201207040620 METAR COR EGLL 040620Z 16007KT 110V190 9000 -DZ SCT004 SCT019
                        BKN022 16/15 Q1009 TEMPO BKN007=
201207040550 METAR COR EGLL 040550Z 15006KT 110V200 5000 -RA FEW004 SCT008
                        BKN037 16/15 Q1009 TEMPO BKN006=
201207040520 METAR COR EGLL 040520Z 16006KT 120V180 9999 FEW005 BKN038
                        16/15 Q1009 TEMPO SCT006 BKN012=
201207040450 METAR COR EGLL 040450Z 16006KT 6000 RA BKN004 16/15 Q1009
                        BECMG NSW SCT006 BKN012=
201207040420 METAR COR EGLL 040420Z VRB06KT 9999 RA FEW004 BKN008 16/15
                        Q1009 TEMPO -RA SCT007 BKN012=
201207040350 METAR COR EGLL 040350Z 15005KT 9999 RA SCT003 BKN009 16/15
                        Q1010 TEMPO -RA SCT006 BKN012=
201207040320 METAR COR EGLL 040320Z 16006KT 9999 -RA BKN003 16/15 Q1010
                        BECMG SCT005 BKN010=
201207040250 METAR EGLL 040250Z AUTO 16006KT 4800 -DZ FEW003/// BKN006///
                        BKN017/// 16/15 Q1010 RERA=
201207040220 METAR COR EGLL 040220Z 15007KT 5000 -RA BKN003 OVC011 16/15
                        Q1010 RERA TEMPO SCT005 BKN012=
201207040150 METAR COR EGLL 040150Z 15007KT 3500 RA OVC002 16/15 Q1010
                        BECMG SCT003 BKN008=
201207040120 METAR EGLL 040120Z AUTO 15006KT 2600 -RA SCT003/// SCT007///
                        OVC010/// 16/15 Q1011 RERA=
201207040050 METAR EGLL 040050Z AUTO 16007KT 5000 FEW006/// BKN013///
                        16/15 Q1011=
201207040020 METAR EGLL 040020Z AUTO 16008KT 9000 FEW008/// OVC012///
                        16/15 Q1011=
201207032350 METAR COR EGLL 032350Z 16008KT 9999 SCT013 BKN030 BKN034
                        16/15 Q1011 TEMPO RA BKN007=
201207032320 METAR COR EGLL 032320Z 15007KT 9999 BKN013 16/15 Q1012 TEMPO
                        RA BKN007=
201207032250 METAR COR EGLL 032250Z 16006KT 9999 FEW016 OVC028 16/15 Q1012
                        BECMG BKN010=
201207032220 METAR COR EGLL 032220Z 15006KT 120V180 9999 FEW020 BKN033
                        OVC046 16/15 Q1012 TEMPO 4000 RADZ
                        BKN010=
201207032150 METAR COR EGLL 032150Z 17007KT 130V200 9999 SCT020 BKN045
                        16/15 Q1012 TEMPO 4500 RA BKN008=
201207032120 METAR COR EGLL 032120Z 17007KT 150V210 9999 FEW016 SCT045
                        17/15 Q1012 TEMPO 4000 RADZ BKN008=
201207032050 METAR COR EGLL 032050Z 18008KT 150V220 9999 BKN012 17/15
                        Q1012 TEMPO 4500 RADZ BKN008=
201207032020 METAR COR EGLL 032020Z 15006KT 100V270 9999 VCSH FEW013 SCT022
                        BKN031 17/15 Q1012 TEMPO 4500 RADZ
                        BKN008=
201207031950 METAR COR EGLL 031950Z 17006KT 130V240 9999 FEW005 BKN025
                        17/15 Q1012 RERA TEMPO 4500 -DZ BKN007=
201207031920 METAR COR EGLL 031920Z 17007KT 130V240 6000 -DZ SCT005 BKN010
                        16/15 Q1012 RERA BECMG SCT008 BKN030=
201207031850 METAR COR EGLL 031850Z 16008KT 120V230 6000 DZ SCT006 BKN010
                        17/15 Q1012 TEMPO 4500 BKN006=
201207031820 METAR EGLL 031820Z NIL=
201207031750 METAR COR EGLL 031750Z 19009KT 150V250 9999 -RA FEW009 SCT011
                        BKN045 17/15 Q1013 BECMG BKN011=
201207031720 METAR COR EGLL 031720Z 19010KT 160V230 9999 -RA BKN013 17/15
                        Q1013 TEMPO SCT012 BKN016=
201207031650 METAR COR EGLL 031650Z 19009KT 160V230 9999 -RA SCT013 BKN015
                        18/15 Q1013 TEMPO BKN012=
201207031620 METAR COR EGLL 031620Z 20010KT 150V250 9999 SCT013 BKN016
                        18/15 Q1013 TEMPO BKN013=
201207031550 METAR COR EGLL 031550Z 19009KT 150V240 9999 -RA BKN010 18/15
                        Q1013 TEMPO SCT010 BKN015=
201207031520 METAR COR EGLL 031520Z 19009KT 160V230 9999 -RA FEW009 SCT011
                        BKN018 18/15 Q1013 TEMPO BKN014=
201207031450 METAR COR EGLL 031450Z 19009KT 160V240 9999 -RA FEW010 SCT012
                        BKN027 17/15 Q1014 TEMPO BKN014=
201207031420 METAR COR EGLL 031420Z 21009KT 180V240 9999 -RA SCT011 BKN018
                        17/15 Q1014 TEMPO BKN011=
201207031350 METAR COR EGLL 031350Z 20011KT 9999 -DZ SCT012 BKN021 18/14
                        Q1014 TEMPO BKN012=
201207031320 METAR COR EGLL 031320Z 23015KT 9999 -RA BKN017 18/14 Q1014
                        TEMPO BKN014=
201207031250 METAR COR EGLL 031250Z 21010KT 180V240 9999 SCT019 BKN028
                        19/14 Q1014 TEMPO BKN014=
201207031220 METAR COR EGLL 031220Z 20010KT 9999 -RA SCT014 BKN021 18/15
                        Q1014 TEMPO BKN014=
201207031150 METAR COR EGLL 031150Z 20011KT 180V250 9999 -RA SCT018 BKN021
                        18/15 Q1014 TEMPO BKN014=
201207031120 METAR COR EGLL 031120Z 20011KT 160V230 9999 SCT010 BKN015
                        19/15 Q1014 TEMPO BKN014=
201207031050 METAR COR EGLL 031050Z 19010KT 9999 SCT010 BKN019 18/16 Q1014
                        TEMPO BKN012=
201207031020 METAR COR EGLL 031020Z 20011KT 170V240 9999 -DZ BKN010 BKN019
                        18/15 Q1014 TEMPO SCT012 BKN018=
201207030950 METAR COR EGLL 030950Z 20009KT 170V240 9999 BKN010 BKN016
                        17/15 Q1014 NOSIG=
201207030920 METAR COR EGLL 030920Z 19009KT 170V230 9999 BKN009 BKN015
                        18/15 Q1014 BECMG SCT010 BKN017=
201207030850 METAR COR EGLL 030850Z 20011KT 160V240 9999 BKN009 BKN016
                        17/15 Q1014 BECMG SCT010 BKN017=
201207030820 METAR COR EGLL 030820Z 20010KT 9999 FEW009 BKN010 17/15 Q1014
                        TEMPO BKN009=
201207030750 METAR COR EGLL 030750Z 19008KT 160V220 9999 SCT007 BKN013
                        17/15 Q1014 TEMPO BKN009=
201207030720 METAR COR EGLL 030720Z 19009KT 170V230 9999 SCT008 BKN012
                        16/15 Q1014 TEMPO BKN009=
201207030650 METAR COR EGLL 030650Z 20007KT 9999 -RA SCT005 BKN012 16/15
                        Q1014 TEMPO BKN009=
201207030620 METAR COR EGLL 030620Z 18007KT 140V240 9000 -RA BKN006 BKN009
                        16/15 Q1014 BECMG SCT008 BKN011=
201207030550 METAR COR EGLL 030550Z 18007KT 150V240 7000 -RA BKN004 BKN008
                        16/15 Q1014 BECMG BKN006=
201207030520 METAR COR EGLL 030520Z 18006KT 150V250 8000 -RA BKN005 BKN013
                        16/15 Q1014 RERA NOSIG=
201207030450 METAR COR EGLL 030450Z 18005KT 120V200 8000 -RA BKN004 OVC010
                        15/14 Q1014 NOSIG=
201207030420 METAR COR EGLL 030420Z 18006KT 8000 -RA BKN004 OVC009 15/14
                        Q1014 BECMG BKN006=
201207030350 METAR COR EGLL 030350Z 19006KT 6000 -RA BKN004 BKN012 15/14
                        Q1014 BECMG BKN006=
201207030320 METAR COR EGLL 030320Z 19006KT 9999 BKN004 15/14 Q1014 NOSIG=
201207030250 METAR COR EGLL 030250Z 20006KT 9999 BKN005 BKN009 15/14 Q1014
                        TEMPO BKN004=
201207030220 METAR EGLL 030220Z NIL=
201207030150 METAR COR EGLL 030150Z 19006KT 9999 BKN006 15/14 Q1014 NOSIG=
201207030120 METAR EGLL 030120Z AUTO 19006KT 9999 SCT006/// OVC009///
                        15/14 Q1014=
201207030050 METAR EGLL 030050Z AUTO 20007KT 9999 BKN005/// BKN012///
                        15/14 Q1014=
201207030020 METAR EGLL 030020Z AUTO 20008KT 180V240 9999 BKN006/// BKN011///
                        16/14 Q1014=
201207022350 METAR COR EGLL 022350Z 20007KT 9999 FEW006 SCT010 16/14 Q1014
                        BECMG BKN008=
201207022320 METAR COR EGLL 022320Z 20007KT 9999 -DZ OVC008 16/14 Q1014
                        NOSIG=
201207022250 METAR COR EGLL 022250Z 19008KT 170V240 9999 FEW008 SCT012
                        16/14 Q1014 BECMG BKN010=
201207022220 METAR COR EGLL 022220Z 20007KT 170V250 9999 FEW006 SCT014
                        16/14 Q1014 BECMG BKN008=
201207022150 METAR COR EGLL 022150Z 20009KT 150V250 9999 FEW007 SCT015
                        16/14 Q1014 BECMG BKN007=
201207022120 METAR COR EGLL 022120Z 20009KT 160V250 9999 -RA SCT008 16/14
                        Q1014 BECMG BKN008=
201207022050 METAR COR EGLL 022050Z 19008KT 150V240 9999 -RA SCT006 OVC010
                        16/14 Q1014 BECMG BKN008=
201207022020 METAR COR EGLL 022020Z 20008KT 170V250 5000 -DZ FEW006 OVC007
                        16/14 Q1014 TEMPO 4000 DZ=
201207021950 METAR COR EGLL 021950Z 19010KT 160V250 9999 -DZ FEW006 BKN007
                        16/14 Q1014 NOSIG=
201207021920 METAR COR EGLL 021920Z 20009KT 150V240 9999 -RA OVC008 16/14
                        Q1014 NOSIG=
201207021850 METAR COR EGLL 021850Z 19008KT 160V240 9999 -RA FEW007 OVC008
                        16/14 Q1014 NOSIG=
201207021820 METAR COR EGLL 021820Z 20009KT 170V230 9999 FEW007 OVC008
                        16/14 Q1014 NOSIG=
201207021750 METAR COR EGLL 021750Z 19010KT 160V230 9999 FEW007 BKN008
                        BKN015 16/15 Q1014 NOSIG=
201207021720 METAR COR EGLL 021720Z 19011KT 150V240 9999 -RA FEW008 BKN010
                        16/14 Q1014 BECMG BKN007=
201207021650 METAR COR EGLL 021650Z 19010KT 160V240 9999 -RA BKN008 BKN010
                        16/14 Q1014 TEMPO RA SCT008 BKN012=
201207021620 METAR COR EGLL 021620Z 19010KT 160V230 9999 -RA BKN007 BKN011
                        16/14 Q1014 TEMPO RA SCT008 BKN014=
201207021550 METAR COR EGLL 021550Z 18011KT 150V240 8000 RADZ BKN007 BKN010
                        16/14 Q1014 TEMPO 4000=
201207021520 METAR COR EGLL 021520Z 18011KT 150V220 7000 -DZ FEW007 OVC008
                        16/14 Q1014 TEMPO 4000 RADZ=
201207021450 METAR COR EGLL 021450Z 19011KT 170V240 9999 -RA FEW007 BKN009
                        16/13 Q1014 TEMPO 4000 RADZ=
201207021420 METAR COR EGLL 021420Z 19012KT 170V230 9999 5000SW BKN009
                        16/13 Q1014 TEMPO 4500 -DZ=
201207021350 METAR COR EGLL 021350Z 19014KT 9999 8000W VCSH OVC012 16/13
                        Q1014 TEMPO 4500 -DZ BKN009=
201207021320 METAR COR EGLL 021320Z 19012KT 9999 VCSH SCT012 BKN018 16/13
                        Q1015 TEMPO 4500 -DZ BKN009=
201207021250 METAR COR EGLL 021250Z 19013KT 9999 SCT019 BKN023 17/12 Q1015
                        TEMPO 4500 -DZ BKN009=
201207021220 METAR COR EGLL 021220Z 19014KT 9999 SCT031 BKN037 18/11 Q1015
                        BECMG BKN014=
201207021150 METAR COR EGLL 021150Z 20014KT 9999 SCT027 SCT032 BKN045
                        18/11 Q1015 TEMPO RA BKN014=
201207021120 METAR COR EGLL 021120Z 18013KT 9999 FEW031 BKN044 17/11 Q1015
                        TEMPO RA BKN014=
201207021050 METAR COR EGLL 021050Z 18012KT 9999 FEW031 BKN045 17/11 Q1015
                        TEMPO RA BKN014=
201207021020 METAR COR EGLL 021020Z 18010KT 140V220 9999 FEW022 BKN044
                        16/12 Q1015 TEMPO RA BKN014=
201207020950 METAR COR EGLL 020950Z 18010KT 160V270 9999 -RA FEW020 BKN042
                        16/12 Q1015 TEMPO RA BKN014=
201207020920 METAR COR EGLL 020920Z 18009KT 170V260 9999 -RA FEW020 SCT035
                        BKN043 15/12 Q1015 NOSIG=
201207020850 METAR COR EGLL 020850Z 18008KT 150V210 9999 -RA SCT036 BKN040
                        15/12 Q1016 TEMPO BKN014=
201207020820 METAR COR EGLL 020820Z 19009KT 9999 -RA FEW018 BKN032 15/12
                        Q1015 TEMPO BKN014=
201207020750 METAR COR EGLL 020750Z 19009KT 160V230 9999 -RA FEW020 BKN032
                        15/12 Q1015 BECMG BKN014=
201207020720 METAR COR EGLL 020720Z 16009KT 9999 -SHRA BKN035 15/11 Q1015
                        BECMG BKN014=
201207020650 METAR COR EGLL 020650Z 18010KT 160V230 9999 BKN038 15/11
                        Q1015 NOSIG=
201207020620 METAR COR EGLL 020620Z 16013KT 9999 BKN034 15/11 Q1015 NOSIG=
201207020550 METAR COR EGLL 020550Z 18012G23KT 150V230 9999 BKN031 15/11
                        Q1015 NOSIG=
201207020520 METAR COR EGLL 020520Z 16009KT 9999 FEW046 13/10 Q1015 NOSIG=
201207020450 METAR COR EGLL 020450Z 16007KT CAVOK 13/10 Q1015 NOSIG=
201207020420 METAR COR EGLL 020420Z 16008KT CAVOK 13/10 Q1015 NOSIG=
201207020350 METAR COR EGLL 020350Z 17006KT CAVOK 12/10 Q1015 NOSIG=
201207020320 METAR COR EGLL 020320Z VRB03KT CAVOK 13/10 Q1015 NOSIG=
201207020250 METAR COR EGLL 020250Z 21005KT CAVOK 13/10 Q1016 NOSIG=
201207020220 METAR COR EGLL 020220Z 21006KT CAVOK 13/10 Q1016 NOSIG=
201207020150 METAR COR EGLL 020150Z 21006KT CAVOK 14/10 Q1016 NOSIG=
201207020120 METAR EGLL 020120Z AUTO 22007KT 9999 NCD 14/11 Q1016=
201207020050 METAR EGLL 020050Z AUTO 21008KT 9999 NCD 14/11 Q1017=
201207020020 METAR EGLL 020020Z AUTO 20008KT 9999 NCD 14/11 Q1017=
201207012350 METAR COR EGLL 012350Z 19008KT CAVOK 14/10 Q1017 NOSIG=
201207012320 METAR COR EGLL 012320Z 21009KT CAVOK 14/10 Q1017 NOSIG=
201207012250 METAR COR EGLL 012250Z 21008KT 9999 FEW017 14/10 Q1018 NOSIG=
201207012220 METAR COR EGLL 012220Z 21010KT CAVOK 14/10 Q1018 NOSIG=
201207012150 METAR COR EGLL 012150Z 21009KT CAVOK 14/10 Q1018 NOSIG=
201207012120 METAR COR EGLL 012120Z 21010KT CAVOK 15/10 Q1017 NOSIG=
201207012050 METAR COR EGLL 012050Z 22009KT 9999 FEW049 15/10 Q1017 NOSIG=
201207012020 METAR COR EGLL 012020Z 22011KT 9999 FEW032 16/10 Q1017 NOSIG=
201207011950 METAR COR EGLL 011950Z 22009KT 9999 FEW049 16/10 Q1016 NOSIG=
201207011920 METAR COR EGLL 011920Z 24011KT 9999 FEW049 17/09 Q1016 NOSIG=
201207011850 METAR COR EGLL 011850Z 24014KT 9999 FEW049 18/09 Q1016 NOSIG=
201207011820 METAR COR EGLL 011820Z 24012KT 9999 FEW046 17/09 Q1016 NOSIG=
201207011750 METAR COR EGLL 011750Z 23014KT 9999 SCT042 18/08 Q1016 NOSIG=
201207011720 METAR COR EGLL 011720Z 24014KT 9999 FEW046 18/08 Q1016 NOSIG=
201207011650 METAR COR EGLL 011650Z 24013KT 9999 FEW040 18/08 Q1016 NOSIG=
201207011620 METAR COR EGLL 011620Z 26016KT 9999 SCT039 18/08 Q1016 NOSIG=
201207011550 METAR COR EGLL 011550Z 24016KT 9999 FEW038 SCT042 19/08 Q1016
                        NOSIG=
201207011520 METAR COR EGLL 011520Z 25015KT 9999 FEW033 SCT043 19/08 Q1016=
201207011450 METAR COR EGLL 011450Z 26014KT 9999 SCT038 SCT043 17/07 Q1015
                        NOSIG=
201207011420 METAR COR EGLL 011420Z 24017KT 9999 VCSH FEW039 18/08 Q1015
                        NOSIG=
201207011350 METAR COR EGLL 011350Z 26014KT 9999 VCSH SCT028 SCT047 16/09
                        Q1015 NOSIG=
201207011320 METAR COR EGLL 011320Z 26014KT 9999 FEW031 17/09 Q1015 NOSIG=
201207011250 METAR COR EGLL 011250Z 24017KT 9999 VCSH SCT025 17/09 Q1015
                        NOSIG=
201207011220 METAR COR EGLL 011220Z 25017G28KT 9999 SCT029 16/10 Q1015
                        BECMG 24013KT=
201207011150 METAR COR EGLL 011150Z 25018KT 9999 SCT030 17/09 Q1014 NOSIG=
201207011120 METAR COR EGLL 011120Z 24017KT 9999 SCT030 17/09 Q1014 TEMPO
                        24020G30KT=
201207011050 METAR COR EGLL 011050Z 25014KT 9999 VCSH BKN040 16/09 Q1014
                        TEMPO 25017G27KT SHRA=
201207011020 METAR COR EGLL 011020Z 25018KT 9999 VCSH SCT030 SCT040 15/09
                        Q1014 TEMPO 26020G30KT SHRA=
201207010950 METAR COR EGLL 010950Z 25015KT 210V280 9999 BKN032 16/08
                        Q1014 NOSIG=
201207010920 METAR COR EGLL 010920Z 23013KT 9999 FEW035 BKN049 16/08 Q1013
                        NOSIG=
201207010850 METAR COR EGLL 010850Z 26015KT 9999 SCT032 SCT042 15/07 Q1013
                        NOSIG=
201207010820 METAR COR EGLL 010820Z 25013KT 9999 FEW031 15/08 Q1013 NOSIG=
201207010750 METAR COR EGLL 010750Z 25014KT 210V280 9999 SCT024 15/08
                        Q1013 NOSIG=
201207010720 METAR COR EGLL 010720Z 23012KT 9999 FEW020 14/08 Q1013 NOSIG=
201207010650 METAR COR EGLL 010650Z 24012KT 9999 FEW020 13/08 Q1013 NOSIG=
201207010620 METAR COR EGLL 010620Z 25013KT 9999 FEW019 13/08 Q1013 NOSIG=
201207010550 METAR COR EGLL 010550Z 23011KT 200V270 CAVOK 12/08 Q1013
                        NOSIG=
201207010520 METAR COR EGLL 010520Z 23010KT CAVOK 11/08 Q1012 NOSIG=
201207010450 METAR COR EGLL 010450Z 23012KT CAVOK 11/08 Q1012 NOSIG=
201207010420 METAR COR EGLL 010420Z 22010KT CAVOK 11/08 Q1012 NOSIG=
201207010350 METAR COR EGLL 010350Z 23007KT CAVOK 11/08 Q1012 NOSIG=
201207010320 METAR COR EGLL 010320Z 23008KT CAVOK 11/08 Q1012 NOSIG=
201207010250 METAR COR EGLL 010250Z 24009KT CAVOK 11/08 Q1012 NOSIG=
201207010220 METAR COR EGLL 010220Z 23009KT CAVOK 12/09 Q1012 NOSIG=
201207010150 METAR COR EGLL 010150Z 24011KT CAVOK 12/09 Q1012 NOSIG=
201207010120 METAR EGLL 010120Z AUTO 25011KT 9999 NCD 12/09 Q1012=
201207010050 METAR EGLL 010050Z AUTO 24012KT 9999 NCD 13/10 Q1011=
201207010020 METAR EGLL 010020Z AUTO 24009KT 9999 FEW016/// 13/10 Q1011=