##########################################################
# Query made at 01/13/2020 13:13:26 UTC
# Time interval: from 07/01/2017 00:00  to 07/31/2017 23:59  UTC
##########################################################

##########################################################
# EGLL, London / Heathrow Airport (United Kingdom)
# WMO index: 03772
# Latitude 51-29N. Longitude 000-27W. Altitude 24 m.
##########################################################

###################################
#  METAR/SPECI from EGLL
###################################
201707312350 METAR COR EGLL 312350Z AUTO 23007KT 9999 NCD 14/11 Q1014
                        NOSIG=
201707312320 METAR COR EGLL 312320Z AUTO 22006KT 9999 NCD 15/11 Q1014
                        NOSIG=
201707312250 METAR COR EGLL 312250Z AUTO 22005KT 9999 NCD 15/11 Q1014
                        NOSIG=
201707312220 METAR COR EGLL 312220Z AUTO 23009KT 9999 NCD 15/11 Q1013
                        NOSIG=
201707312150 METAR COR EGLL 312150Z AUTO 22008KT 9999 NCD 16/11 Q1013
                        NOSIG=
201707312120 METAR EGLL 312120Z AUTO 22007KT 9999 NCD 16/11 Q1013=
201707312050 METAR COR EGLL 312050Z AUTO 22008KT 9999 FEW037 17/11 Q1013
                        NOSIG=
201707312020 METAR COR EGLL 312020Z AUTO 23008KT 9999 SCT040 18/11 Q1013
                        NOSIG=
201707311950 METAR COR EGLL 311950Z AUTO 23009KT 9999 BKN038 18/10 Q1013
                        NOSIG=
201707311920 METAR COR EGLL 311920Z AUTO 22008KT 180V240 9999 BKN039 19/11
                        Q1012 NOSIG=
201707311850 METAR COR EGLL 311850Z AUTO 22009KT 9999 FEW044 19/10 Q1012
                        NOSIG=
201707311820 METAR COR EGLL 311820Z AUTO 22011KT 9999 NCD 20/10 Q1012
                        NOSIG=
201707311750 METAR COR EGLL 311750Z AUTO 22012G22KT 9999 FEW046 21/10
                        Q1012 NOSIG=
201707311720 METAR COR EGLL 311720Z AUTO 22013KT 9999 FEW045 21/10 Q1012
                        NOSIG=
201707311650 METAR COR EGLL 311650Z AUTO 22013KT 9999 NCD 21/09 Q1011
                        NOSIG=
201707311620 METAR COR EGLL 311620Z AUTO 22013KT 9999 FEW048 22/09 Q1011
                        NOSIG=
201707311550 METAR COR EGLL 311550Z AUTO 23014KT 9999 SCT046 22/09 Q1011
                        NOSIG=
201707311520 METAR COR EGLL 311520Z AUTO 22012KT 9999 BKN047 21/10 Q1011
                        NOSIG=
201707311450 METAR COR EGLL 311450Z AUTO 23012KT 190V270 9999 SCT048 22/09
                        Q1011 NOSIG=
201707311420 METAR COR EGLL 311420Z AUTO 23013KT 9999 FEW043 22/09 Q1011
                        NOSIG=
201707311350 METAR COR EGLL 311350Z AUTO 27009KT 230V300 9999 SCT046 22/09
                        Q1012 NOSIG=
201707311320 METAR COR EGLL 311320Z AUTO 25013KT 220V280 9999 BKN040 20/10
                        Q1012 NOSIG=
201707311250 METAR COR EGLL 311250Z AUTO 23010G21KT 9999 SCT041 20/10
                        Q1011 NOSIG=
201707311220 METAR COR EGLL 311220Z AUTO 24010KT 200V270 9999 -RA BKN040
                        20/10 Q1011 NOSIG=
201707311150 METAR COR EGLL 311150Z AUTO 23010KT 180V260 9999 BKN043 20/10
                        Q1012 NOSIG=
201707311120 METAR COR EGLL 311120Z AUTO 24011KT 9999 SCT044 21/10 Q1012
                        NOSIG=
201707311050 METAR COR EGLL 311050Z AUTO 22013KT 190V260 9999 SCT041 21/09
                        Q1011 NOSIG=
201707311020 METAR COR EGLL 311020Z AUTO 23012KT 180V260 9999 SCT036 20/10
                        Q1011 NOSIG=
201707310950 METAR COR EGLL 310950Z AUTO 24012KT 9999 SCT029 BKN046 19/10
                        Q1012 NOSIG=
201707310920 METAR COR EGLL 310920Z AUTO 22011KT 170V260 9999 FEW027 18/11
                        Q1012 NOSIG=
201707310850 METAR COR EGLL 310850Z AUTO 23011KT 9999 FEW025 18/11 Q1012
                        NOSIG=
201707310820 METAR COR EGLL 310820Z AUTO 23012KT 9999 FEW022 17/11 Q1011
                        NOSIG=
201707310750 METAR COR EGLL 310750Z AUTO 24012KT 9999 FEW017 17/12 Q1011
                        NOSIG=
201707310720 METAR COR EGLL 310720Z AUTO 24009KT 9999 NCD 16/12 Q1011
                        NOSIG=
201707310650 METAR COR EGLL 310650Z AUTO 23008KT 9999 NCD 15/12 Q1011
                        NOSIG=
201707310620 METAR COR EGLL 310620Z AUTO 22006KT 9999 NCD 15/13 Q1011
                        NOSIG=
201707310550 METAR COR EGLL 310550Z AUTO 21006KT 170V290 9999 NCD 14/12
                        Q1011 NOSIG=
201707310520 METAR COR EGLL 310520Z AUTO 21006KT 180V270 9999 NCD 13/12
                        Q1010 NOSIG=
201707310450 METAR COR EGLL 310450Z AUTO 23007KT 9999 NCD 13/12 Q1010
                        NOSIG=
201707310420 METAR COR EGLL 310420Z AUTO 23006KT 9999 NCD 13/12 Q1010
                        NOSIG=
201707310350 METAR COR EGLL 310350Z AUTO 21007KT 9999 NCD 13/12 Q1009
                        NOSIG=
201707310320 METAR COR EGLL 310320Z AUTO 22007KT 9999 NCD 14/12 Q1009
                        NOSIG=
201707310250 METAR COR EGLL 310250Z AUTO 21007KT 9999 NCD 14/12 Q1009
                        NOSIG=
201707310220 METAR COR EGLL 310220Z AUTO 21006KT 9999 NCD 14/12 Q1009
                        NOSIG=
201707310150 METAR COR EGLL 310150Z AUTO 21006KT 9999 NCD 14/12 Q1009
                        NOSIG=
201707310120 METAR COR EGLL 310120Z AUTO 21006KT 9999 NCD 14/12 Q1009
                        NOSIG=
201707310050 METAR COR EGLL 310050Z AUTO 21006KT 9999 NCD 14/12 Q1009
                        NOSIG=
201707310020 METAR COR EGLL 310020Z AUTO 21006KT 9999 NCD 14/12 Q1009
                        NOSIG=
201707302350 METAR COR EGLL 302350Z AUTO 21007KT 9999 NCD 14/12 Q1009
                        NOSIG=
201707302320 METAR COR EGLL 302320Z AUTO 21007KT 9999 NCD 15/12 Q1009
                        NOSIG=
201707302250 METAR COR EGLL 302250Z AUTO 21007KT 190V250 9999 FEW016 15/12
                        Q1009 NOSIG=
201707302220 METAR COR EGLL 302220Z AUTO 22007KT 200V260 9999 NCD 15/12
                        Q1009 NOSIG=
201707302150 METAR COR EGLL 302150Z AUTO 22010KT 9999 FEW018 16/12 Q1009
                        NOSIG=
201707302120 METAR COR EGLL 302120Z AUTO 22011KT 9999 BKN020 17/12 Q1009
                        NOSIG=
201707302050 METAR COR EGLL 302050Z AUTO 22009KT 190V260 9999 BKN025 17/12
                        Q1009 NOSIG=
201707302020 METAR COR EGLL 302020Z AUTO 22010KT 9999 NCD 17/11 Q1008
                        NOSIG=
201707301950 METAR COR EGLL 301950Z AUTO 22012KT 200V260 9999 NCD 17/11
                        Q1008 NOSIG=
201707301920 METAR COR EGLL 301920Z AUTO 23011KT 9999 NCD 17/11 Q1008
                        NOSIG=
201707301850 METAR COR EGLL 301850Z AUTO 23012KT 9999 FEW031 17/11 Q1008
                        NOSIG=
201707301820 METAR COR EGLL 301820Z AUTO 22015KT 9999 NCD 18/11 Q1008
                        NOSIG=
201707301750 METAR COR EGLL 301750Z AUTO 22015KT 9999 FEW033 19/11 Q1008
                        NOSIG=
201707301720 METAR COR EGLL 301720Z AUTO 22017KT 9999 FEW038 19/11 Q1008
                        NOSIG=
201707301650 METAR COR EGLL 301650Z AUTO 22016KT 9999 FEW039 19/10 Q1008
                        NOSIG=
201707301620 METAR COR EGLL 301620Z AUTO 23016KT 9999 SCT037 20/11 Q1008
                        NOSIG=
201707301550 METAR COR EGLL 301550Z AUTO 22016KT 180V240 9999 SCT038 20/11
                        Q1007 NOSIG=
201707301520 METAR COR EGLL 301520Z AUTO 22016KT 9999 BKN039 20/10 Q1007
                        NOSIG=
201707301450 METAR COR EGLL 301450Z AUTO 22013KT 180V250 9999 BKN039 20/11
                        Q1007 NOSIG=
201707301420 METAR COR EGLL 301420Z AUTO 23015KT 9999 -RA SCT035 19/11
                        Q1008 NOSIG=
201707301350 METAR COR EGLL 301350Z AUTO 24012KT 9999 FEW033 20/12 Q1007
                        NOSIG=
201707301320 METAR COR EGLL 301320Z AUTO 22009KT 180V260 9999 FEW044 19/12
                        Q1008 NOSIG=
201707301250 METAR COR EGLL 301250Z AUTO 26008KT 9999 FEW025 BKN045 18/12
                        Q1008 NOSIG=
201707301220 METAR COR EGLL 301220Z AUTO 23012KT 9999 SCT031/// //////CB
                        18/12 Q1007 TEMPO SHRA=
201707301150 METAR COR EGLL 301150Z AUTO 23015KT 9999 -RA FEW028/// BKN044///
                        //////CB 18/12 Q1007 TEMPO SHRA=
201707301120 METAR COR EGLL 301120Z AUTO 24014KT 9999 FEW030/// SCT044///
                        //////TCU 19/11 Q1007 TEMPO SHRA=
201707301050 METAR COR EGLL 301050Z AUTO 23014KT 9999 SCT030 BKN044 19/11
                        Q1007 TEMPO SHRA=
201707301020 METAR EGLL 301020Z AUTO 24013KT 9999 BKN027 19/11 Q1006=
201707300950 METAR COR EGLL 300950Z AUTO 25015KT 9999 SCT028 SCT038 18/11
                        Q1006 NOSIG=
201707300920 METAR COR EGLL 300920Z AUTO 24012KT 9999 FEW021 18/12 Q1006
                        NOSIG=
201707300850 METAR COR EGLL 300850Z AUTO 26011KT 9999 SCT017 17/13 Q1006
                        NOSIG=
201707300820 METAR COR EGLL 300820Z AUTO 26010KT 9999 SCT014 17/13 Q1005
                        NOSIG=
201707300750 METAR COR EGLL 300750Z AUTO 27009KT 9999 SCT012 SCT047 16/13
                        Q1005 NOSIG=
201707300720 METAR COR EGLL 300720Z AUTO 28008KT 9999 BKN009 16/13 Q1004
                        BECMG SCT015=
201707300650 METAR COR EGLL 300650Z AUTO 27009KT 9999 BKN008 15/13 Q1004
                        BECMG SCT015=
201707300620 METAR COR EGLL 300620Z AUTO 28009KT 9999 BKN006 15/13 Q1004
                        BECMG FEW006=
201707300550 METAR COR EGLL 300550Z AUTO 29006KT 9999 BKN006 15/13 Q1003
                        BECMG FEW006 BKN020=
201707300520 METAR COR EGLL 300520Z AUTO 29007KT 9999 BKN007 15/13 Q1003
                        BECMG FEW007 BKN020=
201707300450 METAR COR EGLL 300450Z AUTO 30009KT 9999 BKN006 15/14 Q1002
                        BECMG SCT006 BKN018=
201707300420 METAR COR EGLL 300420Z AUTO 27009KT 9999 SCT007 BKN018 15/14
                        Q1002 TEMPO BKN007=
201707300350 METAR COR EGLL 300350Z AUTO 26007KT 9999 FEW006 BKN017 15/15
                        Q1001 NOSIG=
201707300320 METAR COR EGLL 300320Z AUTO 22006KT 180V260 9999 SCT031 15/15
                        Q1001 NOSIG=
201707300250 METAR COR EGLL 300250Z AUTO 25006KT 9999 BKN007 16/15 Q1001
                        TEMPO FEW007 BKN014=
201707300220 METAR COR EGLL 300220Z AUTO 21007KT 9999 -RA SCT006/// BKN017///
                        //////CB 16/15 Q1001 TEMPO RA BKN014=
201707300150 METAR COR EGLL 300150Z AUTO 21008KT 7000 -RA SCT005/// BKN015///
                        BKN032/// //////CB 16/15 Q1002 RERA
                        TEMPO RA BKN008=
201707300120 METAR COR EGLL 300120Z AUTO 23008KT 8000 -RA FEW005/// BKN025///
                        //////CB 16/16 Q1002 RERA TEMPO 3500
                        +RA BKN010=
201707300050 METAR COR EGLL 300050Z AUTO 21006KT 180V250 6000 -RA SCT007///
                        BKN017/// OVC043/// //////CB 17/16
                        Q1002 RERA TEMPO 4000 +RA BKN014=
201707300020 METAR COR EGLL 300020Z AUTO 20007KT 9999 SCT013/// BKN020///
                        //////CB 17/16 Q1002 TEMPO RA BKN008=
201707292350 METAR COR EGLL 292350Z 18006KT 9999 FEW008 SCT014 17/16 Q1003
                        TEMPO RA BKN008=
201707292320 METAR COR EGLL 292320Z 17005KT 9999 FEW008 SCT014 17/16 Q1003
                        TEMPO RA BKN008=
201707292250 METAR COR EGLL 292250Z 18004KT 9999 FEW006 SCT015 17/16 Q1004
                        TEMPO RA BKN014=
201707292220 METAR COR EGLL 292220Z 19006KT 140V240 9000 SCT005 SCT009
                        17/16 Q1004 TEMPO RA BKN009=
201707292150 METAR COR EGLL 292150Z 17005KT 120V250 5000 -DZ SCT004 BKN006
                        16/16 Q1004 TEMPO 4000 RADZ=
201707292120 METAR COR EGLL 292120Z 17005KT 120V240 8000 FEW003 SCT005
                        BKN006 16/16 Q1005 NOSIG=
201707292050 METAR COR EGLL 292050Z 18004KT 140V270 8000 SCT005 BKN006
                        16/15 Q1005 NOSIG=
201707292020 METAR COR EGLL 292020Z 23004KT 170V260 5000 -RADZ SCT005
                        BKN007 16/15 Q1005 NOSIG=
201707291950 METAR COR EGLL 291950Z 22004KT 130V290 9999 -RA SCT005 BKN007
                        16/15 Q1006 NOSIG=
201707291920 METAR COR EGLL 291920Z VRB03KT 9999 SCT005 BKN008 16/15 Q1006
                        NOSIG=
201707291850 METAR COR EGLL 291850Z 21005KT 140V260 9999 -RA SCT007 BKN009
                        16/15 Q1006 NOSIG=
201707291820 METAR COR EGLL 291820Z 19005KT 160V250 9999 -RA FEW006 SCT008
                        BKN012 16/15 Q1006 TEMPO BKN008=
201707291750 METAR COR EGLL 291750Z 17005KT 130V230 9999 -RA FEW007 SCT011
                        BKN014 16/15 Q1007 TEMPO BKN007=
201707291720 METAR COR EGLL 291720Z VRB03KT 9999 -RA SCT007 BKN010 16/15
                        Q1007 TEMPO 4500 RADZ BKN007=
201707291650 METAR COR EGLL 291650Z 21004KT 140V240 9999 -RA SCT014 BKN036
                        16/14 Q1007 TEMPO 4800 RA BKN014=
201707291620 METAR COR EGLL 291620Z 21006KT 130V250 9999 -RA FEW027 BKN030
                        15/14 Q1007 TEMPO 4800 RA BKN012=
201707291550 METAR COR EGLL 291550Z 21008KT 180V260 8000 -RA FEW023 BKN029
                        16/14 Q1008 TEMPO 4800 RA BKN012=
201707291520 METAR COR EGLL 291520Z 19006KT 140V240 9000 -RA FEW023 BKN034
                        16/14 Q1008 TEMPO 4800 RA BKN014=
201707291450 METAR COR EGLL 291450Z 25006KT 210V280 9000 -RA FEW025 BKN034
                        17/13 Q1008 TEMPO RA=
201707291420 METAR EGLL 291420Z 25010KT 9999 -RA FEW022 BKN038 17/13 Q1009=
201707291350 METAR COR EGLL 291350Z 24009KT 200V270 9999 -RA FEW019 BKN038
                        18/12 Q1009 NOSIG=
201707291320 METAR COR EGLL 291320Z AUTO 22011KT 9999 -RA OVC035 19/10
                        Q1009 NOSIG=
201707291250 METAR COR EGLL 291250Z AUTO 22009KT 9999 SCT031 OVC044 19/12
                        Q1009 NOSIG=
201707291220 METAR COR EGLL 291220Z AUTO 23012KT 9999 -RA BKN024 19/13
                        Q1010 NOSIG=
201707291150 METAR COR EGLL 291150Z AUTO 23011KT 200V260 9999 -RA SCT026
                        BKN038 19/13 Q1009 NOSIG=
201707291120 METAR COR EGLL 291120Z AUTO 24011KT 9999 -RA FEW021 SCT045
                        19/12 Q1009 NOSIG=
201707291050 METAR COR EGLL 291050Z AUTO 23012KT 9999 SCT032 20/12 Q1010
                        NOSIG=
201707291020 METAR COR EGLL 291020Z AUTO 25008KT 200V290 9999 BKN030 20/12
                        Q1010 NOSIG=
201707290950 METAR COR EGLL 290950Z AUTO 26010KT 9999 SCT025 20/12 Q1010
                        NOSIG=
201707290920 METAR COR EGLL 290920Z AUTO 23011KT 200V270 9999 FEW025 19/12
                        Q1010 NOSIG=
201707290850 METAR COR EGLL 290850Z AUTO 25010KT 9999 FEW027 19/12 Q1010
                        NOSIG=
201707290820 METAR COR EGLL 290820Z AUTO 23010KT 9999 NCD 18/12 Q1009
                        NOSIG=
201707290750 METAR COR EGLL 290750Z AUTO 24010KT 9999 NCD 17/12 Q1009
                        NOSIG=
201707290720 METAR COR EGLL 290720Z AUTO 24011KT 9999 NCD 17/12 Q1009
                        NOSIG=
201707290650 METAR COR EGLL 290650Z AUTO 24009KT 210V270 9999 NCD 16/13
                        Q1009 NOSIG=
201707290620 METAR COR EGLL 290620Z AUTO 25009KT 220V280 9999 NCD 16/13
                        Q1009 NOSIG=
201707290550 METAR COR EGLL 290550Z AUTO 25008KT 9999 NCD 16/12 Q1008
                        NOSIG=
201707290520 METAR COR EGLL 290520Z AUTO 25009KT 9999 NCD 15/13 Q1008
                        NOSIG=
201707290450 METAR COR EGLL 290450Z AUTO 24008KT 9999 NCD 16/13 Q1008
                        NOSIG=
201707290420 METAR EGLL 290420Z AUTO 25008KT 9999 SCT011 16/14 Q1008=
201707290350 METAR COR EGLL 290350Z AUTO 26009KT 9999 SCT009 SCT022 16/14
                        Q1007 NOSIG=
201707290320 METAR COR EGLL 290320Z AUTO 25011KT 9999 FEW033 17/15 Q1007
                        NOSIG=
201707290250 METAR COR EGLL 290250Z AUTO 25012KT 9999 FEW015 BKN028 17/15
                        Q1007 NOSIG=
201707290220 METAR COR EGLL 290220Z AUTO 24008KT 9999 FEW013 BKN028 17/16
                        Q1007 NOSIG=
201707290150 METAR COR EGLL 290150Z AUTO 24008KT 9999 SCT006 17/16 Q1007
                        RERA REDZ TEMPO BKN014=
201707290120 METAR COR EGLL 290120Z AUTO 24010KT 5000 -RA BKN007 OVC017
                        17/16 Q1006 TEMPO 4000 RA=
201707290050 METAR COR EGLL 290050Z AUTO 23011KT 9999 -RA OVC007 17/16
                        Q1006 TEMPO RA=
201707290020 METAR COR EGLL 290020Z AUTO 23012KT 9999 OVC009 18/16 Q1006
                        TEMPO SCT009 BKN012=
201707282350 METAR COR EGLL 282350Z 22011KT 9999 FEW008 BKN014 17/16 Q1006
                        TEMPO -RA BKN007=
201707282320 METAR COR EGLL 282320Z 22012KT 9999 -RA FEW007 BKN012 17/16
                        Q1006 TEMPO BKN007=
201707282250 METAR COR EGLL 282250Z 22012KT 9999 -RA FEW006 BKN013 17/16
                        Q1006 TEMPO BKN006=
201707282220 METAR COR EGLL 282220Z 21013KT 9999 FEW008 BKN012 17/16 Q1006
                        TEMPO BKN008=
201707282150 METAR COR EGLL 282150Z 21014KT 8000 -RADZ SCT006 BKN010 16/15
                        Q1006 TEMPO BKN006=
201707282120 METAR COR EGLL 282120Z 21015KT 180V240 8000 -RADZ SCT007
                        BKN010 16/15 Q1007 TEMPO BKN007=
201707282050 METAR COR EGLL 282050Z 21016KT 9000 FEW010 BKN014 16/15 Q1007
                        TEMPO RA=
201707282020 METAR COR EGLL 282020Z 21018KT 8000 -RA FEW012 BKN015 17/14
                        Q1007 TEMPO RA BKN014=
201707281950 METAR COR EGLL 281950Z 22017KT 9999 SCT016 17/14 Q1007 TEMPO
                        BKN014=
201707281920 METAR COR EGLL 281920Z 21016KT 180V250 9999 SCT017 17/14
                        Q1007 TEMPO BKN014=
201707281850 METAR COR EGLL 281850Z 21016G27KT 9999 SCT024 SCT028 17/14
                        Q1007 TEMPO BKN012=
201707281820 METAR COR EGLL 281820Z 21016G27KT 190V250 9999 -RA FEW016
                        SCT019 BKN023 18/14 Q1008 TEMPO BKN012=
201707281750 METAR COR EGLL 281750Z AUTO 21014G25KT 9999 BKN019 18/14
                        Q1008 TEMPO RA=
201707281720 METAR COR EGLL 281720Z AUTO 21014KT 180V250 9999 BKN015 BKN028
                        18/14 Q1008 TEMPO BKN014=
201707281650 METAR COR EGLL 281650Z 22014KT 9999 FEW016 BKN020 18/14 Q1008
                        TEMPO BKN014=
201707281620 METAR COR EGLL 281620Z 22014KT 9999 FEW017 SCT020 18/14 Q1009
                        NOSIG=
201707281550 METAR COR EGLL 281550Z 22014KT 9999 -RA FEW014 BKN020 17/14
                        Q1009 NOSIG=
201707281520 METAR COR EGLL 281520Z AUTO 22015KT 9999 BKN013 OVC045 18/14
                        Q1009 TEMPO SCT016=
201707281450 METAR COR EGLL 281450Z AUTO 21014KT 170V250 9999 BKN013 18/14
                        Q1009 TEMPO BKN015=
201707281420 METAR COR EGLL 281420Z AUTO 22014KT 190V250 9999 -RA BKN017
                        BKN033 17/14 Q1009 NOSIG=
201707281350 METAR COR EGLL 281350Z AUTO 21015KT 170V240 9999 BKN019 18/13
                        Q1009 NOSIG=
201707281320 METAR COR EGLL 281320Z AUTO 22014KT 9999 -RA BKN026 19/13
                        Q1009 NOSIG=
201707281250 METAR COR EGLL 281250Z AUTO 23016KT 9999 -RA FEW029 SCT035
                        20/12 Q1009 NOSIG=
201707281220 METAR COR EGLL 281220Z AUTO 23017KT 9999 FEW035 20/11 Q1009
                        NOSIG=
201707281150 METAR COR EGLL 281150Z AUTO 23014KT 9999 FEW025 SCT032 21/12
                        Q1009 NOSIG=
201707281120 METAR COR EGLL 281120Z AUTO 24016KT 9999 SCT037 21/11 Q1009
                        NOSIG=
201707281050 METAR EGLL 281050Z AUTO 23016G26KT 9999 SCT029 21/11 Q1009=
201707281020 METAR COR EGLL 281020Z AUTO 23015KT 9999 SCT027 20/13 Q1009
                        NOSIG=
201707280950 METAR COR EGLL 280950Z AUTO 23013KT 9999 SCT025 19/13 Q1009
                        NOSIG=
201707280920 METAR COR EGLL 280920Z AUTO 23014KT 9999 SCT025 18/13 Q1009
                        NOSIG=
201707280850 METAR COR EGLL 280850Z AUTO 23013KT 9999 SCT032 18/13 Q1009
                        NOSIG=
201707280820 METAR COR EGLL 280820Z AUTO 23015KT 9999 FEW024 OVC034 17/12
                        Q1009 NOSIG=
201707280750 METAR EGLL 280750Z AUTO 23011KT 9999 BKN035 17/13 Q1009=
201707280720 METAR COR EGLL 280720Z AUTO 23012KT 9999 -RA FEW037 16/12
                        Q1009 NOSIG=
201707280650 METAR COR EGLL 280650Z AUTO 23011KT 9999 FEW049 16/12 Q1009
                        NOSIG=
201707280620 METAR COR EGLL 280620Z AUTO 23012KT 9999 NCD 15/12 Q1008
                        NOSIG=
201707280550 METAR COR EGLL 280550Z AUTO 23009KT 9999 NCD 15/12 Q1008
                        NOSIG=
201707280520 METAR COR EGLL 280520Z AUTO 23010KT 9999 NCD 14/11 Q1008
                        NOSIG=
201707280450 METAR COR EGLL 280450Z AUTO 23010KT 9999 NCD 14/11 Q1008
                        NOSIG=
201707280420 METAR COR EGLL 280420Z AUTO 23008KT 9999 NCD 14/11 Q1008
                        NOSIG=
201707280350 METAR COR EGLL 280350Z AUTO 22007KT 9999 NCD 14/12 Q1008
                        NOSIG=
201707280320 METAR COR EGLL 280320Z AUTO 23007KT 9999 NCD 14/11 Q1007
                        NOSIG=
201707280250 METAR COR EGLL 280250Z AUTO 23009KT 9999 NCD 14/12 Q1007
                        NOSIG=
201707280220 METAR COR EGLL 280220Z AUTO 22007KT 9999 NCD 14/11 Q1007
                        NOSIG=
201707280150 METAR COR EGLL 280150Z AUTO 23008KT 9999 NCD 14/12 Q1008
                        NOSIG=
201707280120 METAR COR EGLL 280120Z AUTO 24006KT 9999 NCD 14/12 Q1008
                        NOSIG=
201707280050 METAR COR EGLL 280050Z AUTO 22006KT 9999 NCD 14/13 Q1008
                        NOSIG=
201707280020 METAR COR EGLL 280020Z AUTO 22006KT 9999 NCD 14/13 Q1008
                        NOSIG=
201707272350 METAR COR EGLL 272350Z AUTO 22008KT 9999 NCD 15/13 Q1007
                        NOSIG=
201707272320 METAR COR EGLL 272320Z AUTO 22008KT 9999 NCD 14/13 Q1007
                        NOSIG=
201707272250 METAR COR EGLL 272250Z AUTO 23008KT 9999 FEW025 15/13 Q1007
                        NOSIG=
201707272220 METAR COR EGLL 272220Z AUTO 24012KT 9999 FEW024/// //////CB
                        15/13 Q1007 NOSIG=
201707272150 METAR COR EGLL 272150Z AUTO 22009G19KT 180V250 9999 FEW027///
                        //////CB 15/14 Q1007 NOSIG=
201707272120 METAR COR EGLL 272120Z AUTO 22010KT 190V260 9999 SCT028 15/14
                        Q1007 NOSIG=
201707272050 METAR COR EGLL 272050Z AUTO 23009KT 9999 FEW011/// //////CB
                        16/14 Q1007 NOSIG=
201707272020 METAR COR EGLL 272020Z 26010KT 210V300 9999 -RA FEW011 SCT020
                        16/15 Q1007 RERA NOSIG=
201707271950 METAR COR EGLL 271950Z AUTO 22009KT 180V240 9999 -RA BKN021///
                        //////CB 17/14 Q1006 TEMPO 3000 +SHRA=
201707271920 METAR COR EGLL 271920Z AUTO 21009KT 180V250 9999 FEW029///
                        //////CB 17/14 Q1006 TEMPO SHRA=
201707271850 METAR COR EGLL 271850Z AUTO 22010KT 190V250 9999 SCT038 17/14
                        Q1006 NOSIG=
201707271820 METAR COR EGLL 271820Z AUTO 22009KT 190V250 9999 BKN041 17/14
                        Q1006 NOSIG=
201707271750 METAR COR EGLL 271750Z AUTO 21008KT 170V240 9999 //////TCU
                        18/14 Q1006 NOSIG=
201707271720 METAR COR EGLL 271720Z AUTO 23011KT 200V260 9999 //////CB
                        17/13 Q1006 NOSIG=
201707271650 METAR COR EGLL 271650Z 28010KT 9999 VCSH FEW025CB 16/13 Q1006
                        RESHRA NOSIG=
201707271620 METAR COR EGLL 271620Z AUTO 27013KT 9999 FEW031/// //////CB
                        20/13 Q1006 TEMPO SHRA=
201707271550 METAR COR EGLL 271550Z AUTO 25011KT 9999 //////TCU 19/13
                        Q1006 TEMPO SHRA=
201707271520 METAR EGLL 271520Z AUTO 28013KT 9999 -RA FEW028/// BKN034///
                        //////CB 17/14 Q1006=
201707271450 METAR COR EGLL 271450Z AUTO 25015KT 9999 BKN042/// //////CB
                        20/11 Q1005 TEMPO SHRA=
201707271420 METAR COR EGLL 271420Z AUTO 25014KT 9999 SCT040/// //////TCU
                        21/11 Q1005 TEMPO SHRA=
201707271350 METAR COR EGLL 271350Z AUTO 25015KT 9999 FEW039/// //////CB
                        21/12 Q1005 NOSIG=
201707271320 METAR COR EGLL 271320Z AUTO 25011KT 9999 SCT040 21/11 Q1005
                        TEMPO SHRA=
201707271250 METAR COR EGLL 271250Z AUTO 25012KT 9999 FEW027 SCT043 20/13
                        Q1006 NOSIG=
201707271220 METAR COR EGLL 271220Z 25010KT 220V290 9999 FEW016TCU 20/15
                        Q1006 NOSIG=
201707271150 METAR COR EGLL 271150Z 25010KT 9999 -SHRA FEW014CB SCT031
                        17/14 Q1006 RESHRA NOSIG=
201707271120 METAR COR EGLL 271120Z 26009KT 9999 5000W -SHRA BKN035CB
                        18/13 Q1006 TEMPO 4000 SHRA=
201707271050 METAR COR EGLL 271050Z 23013KT 9999 -SHRA FEW023 BKN031 18/13
                        Q1006 TEMPO SHRA=
201707271020 METAR COR EGLL 271020Z AUTO 24014KT 9999 FEW033 BKN041 19/11
                        Q1007 TEMPO SHRA=
201707270950 METAR COR EGLL 270950Z AUTO 23011KT 200V260 9999 FEW022 17/11
                        Q1007 NOSIG=
201707270920 METAR COR EGLL 270920Z AUTO 23011KT 9999 SCT020 17/12 Q1007
                        NOSIG=
201707270850 METAR COR EGLL 270850Z AUTO 23010KT 9999 FEW021 SCT037 16/12
                        Q1007 NOSIG=
201707270820 METAR COR EGLL 270820Z AUTO 23009KT 9999 FEW019 BKN044 16/12
                        Q1008 NOSIG=
201707270750 METAR COR EGLL 270750Z AUTO 25011KT 9999 NCD 16/12 Q1008
                        NOSIG=
201707270720 METAR COR EGLL 270720Z AUTO 24009KT 9999 NCD 16/11 Q1008
                        NOSIG=
201707270650 METAR COR EGLL 270650Z AUTO 24010KT 9999 FEW039 OVC049 15/11
                        Q1008 NOSIG=
201707270620 METAR COR EGLL 270620Z AUTO 23010KT 9999 NCD 15/11 Q1007
                        NOSIG=
201707270550 METAR COR EGLL 270550Z AUTO 24009KT 9999 NCD 15/11 Q1007
                        NOSIG=
201707270520 METAR COR EGLL 270520Z AUTO 24008KT 9999 NCD 15/11 Q1007
                        NOSIG=
201707270450 METAR COR EGLL 270450Z AUTO 24008KT 9999 NCD 14/11 Q1007
                        NOSIG=
201707270420 METAR COR EGLL 270420Z AUTO 25008KT 9999 NCD 14/11 Q1007
                        NOSIG=
201707270350 METAR COR EGLL 270350Z AUTO 24009KT 9999 NCD 15/11 Q1007
                        NOSIG=
201707270320 METAR COR EGLL 270320Z AUTO 24011KT 9999 NCD 15/11 Q1007
                        NOSIG=
201707270250 METAR COR EGLL 270250Z AUTO 24008KT 9999 NCD 15/11 Q1007
                        NOSIG=
201707270220 METAR COR EGLL 270220Z AUTO 23008KT 9999 NCD 15/11 Q1007
                        NOSIG=
201707270150 METAR COR EGLL 270150Z AUTO 25008KT 9999 NCD 15/11 Q1007
                        NOSIG=
201707270120 METAR COR EGLL 270120Z AUTO 24008KT 9999 NCD 15/11 Q1007
                        NOSIG=
201707270050 METAR COR EGLL 270050Z AUTO 25008KT 9999 NCD 15/11 Q1007
                        NOSIG=
201707270020 METAR COR EGLL 270020Z AUTO 24009KT 9999 NCD 15/11 Q1007
                        NOSIG=
201707262350 METAR COR EGLL 262350Z AUTO 25009KT 9999 FEW028 16/11 Q1007
                        NOSIG=
201707262320 METAR COR EGLL 262320Z AUTO 24009KT 9999 SCT026 16/11 Q1007
                        NOSIG=
201707262250 METAR COR EGLL 262250Z AUTO 26012KT 9999 FEW026 SCT034 16/11
                        Q1007 NOSIG=
201707262220 METAR COR EGLL 262220Z AUTO 25012KT 9999 BKN034 16/11 Q1007
                        NOSIG=
201707262150 METAR COR EGLL 262150Z AUTO 26015KT 9999 FEW035 16/11 Q1007
                        NOSIG=
201707262120 METAR COR EGLL 262120Z AUTO 27014KT 9999 FEW033 16/12 Q1006
                        NOSIG=
201707262050 METAR COR EGLL 262050Z AUTO 27015KT 9999 NCD 17/12 Q1006
                        NOSIG=
201707262020 METAR COR EGLL 262020Z 27016KT 9999 SCT022 18/13 Q1006 NOSIG=
201707261950 METAR COR EGLL 261950Z 28014KT 9999 FEW015 SCT023 19/16 Q1005
                        NOSIG=
201707261920 METAR EGLL 261920Z 23012KT 9999 FEW012 BKN019 19/16 Q1005=
201707261850 METAR COR EGLL 261850Z 23012KT 9999 SCT012 SCT018 19/16 Q1004
                        NOSIG=
201707261820 METAR COR EGLL 261820Z 22012KT 9999 SCT011 SCT020 19/16 Q1004
                        NOSIG=
201707261750 METAR COR EGLL 261750Z 23012KT 180V250 9999 SCT011 SCT020
                        19/16 Q1004 TEMPO BKN011=
201707261720 METAR COR EGLL 261720Z 21013KT 9999 BKN011 20/17 Q1004 BECMG
                        FEW011=
201707261650 METAR COR EGLL 261650Z 22014KT 9999 SCT011 SCT014 19/17 Q1005
                        TEMPO BKN011=
201707261620 METAR COR EGLL 261620Z 22014KT 180V250 9999 BKN012 19/16
                        Q1005 TEMPO SCT012=
201707261550 METAR COR EGLL 261550Z 22016KT 9999 SCT014 SCT019 20/16 Q1005
                        TEMPO BKN014=
201707261520 METAR COR EGLL 261520Z 21016KT 9999 FEW011 BKN014 20/17 Q1005
                        TEMPO SCT014=
201707261450 METAR COR EGLL 261450Z 21013KT 180V240 9999 FEW008 BKN014
                        20/17 Q1005 TEMPO RA=
201707261420 METAR COR EGLL 261420Z 21016G26KT 9999 -RA SCT014 BKN025
                        20/16 Q1006 TEMPO BKN014=
201707261350 METAR COR EGLL 261350Z 21014KT 9999 SCT014 SCT020 21/17 Q1006
                        TEMPO BKN014=
201707261320 METAR COR EGLL 261320Z 21012KT 180V240 9999 SCT014 SCT018
                        21/18 Q1006 TEMPO BKN014=
201707261250 METAR COR EGLL 261250Z 21010KT 170V240 9999 SCT014 SCT017
                        21/18 Q1006 TEMPO BKN014=
201707261220 METAR COR EGLL 261220Z AUTO 18010KT 9999 FEW005 19/18 Q1006
                        TEMPO BKN014=
201707261150 METAR COR EGLL 261150Z 20011KT 9999 SCT008 SCT011 18/17 Q1007
                        TEMPO BKN011=
201707261120 METAR COR EGLL 261120Z 20010KT 8000 -RADZ FEW006 SCT008 BKN011
                        18/17 Q1007 TEMPO SCT010 BKN030=
201707261050 METAR COR EGLL 261050Z 19010KT 170V230 8000 -RADZ FEW006
                        BKN008 18/17 Q1007 TEMPO BKN012=
201707261020 METAR COR EGLL 261020Z 18011KT 8000 -RADZ FEW004 BKN008 18/17
                        Q1007 RERA REDZ TEMPO 4000 RADZ=
201707260950 METAR COR EGLL 260950Z 19011KT 4000 RADZ SCT008 SCT011 17/16
                        Q1008 TEMPO BKN008=
201707260920 METAR COR EGLL 260920Z 19011KT 9999 -RA FEW008 BKN011 17/16
                        Q1008 TEMPO RA BKN008=
201707260850 METAR COR EGLL 260850Z 17010KT 120V210 9999 -RA BKN010 17/16
                        Q1008 TEMPO RA BKN008=
201707260820 METAR COR EGLL 260820Z 18009KT 150V220 9999 -RA BKN011 17/15
                        Q1009 TEMPO BKN008=
201707260750 METAR COR EGLL 260750Z 17008KT 120V200 9999 BKN014 17/15
                        Q1009 TEMPO BKN008=
201707260720 METAR COR EGLL 260720Z 17008KT 130V220 9999 SCT014 BKN049
                        17/14 Q1009 TEMPO BKN008=
201707260650 METAR COR EGLL 260650Z 18008KT 160V230 9999 SCT011 BKN049
                        16/14 Q1009 TEMPO BKN008=
201707260620 METAR COR EGLL 260620Z 20008KT 170V260 9999 FEW007 16/14
                        Q1009 TEMPO BKN008=
201707260550 METAR COR EGLL 260550Z 20009KT 9999 SCT007 16/14 Q1009 TEMPO
                        BKN007=
201707260520 METAR COR EGLL 260520Z AUTO 20006KT 170V270 9999 NCD 15/14
                        Q1010 TEMPO BKN007=
201707260450 METAR COR EGLL 260450Z AUTO 16004KT 8000 NCD 14/13 Q1010
                        NOSIG=
201707260420 METAR EGLL 260420Z AUTO VRB05KT 8000 NCD 15/14 Q1010=
201707260350 METAR COR EGLL 260350Z AUTO 17004KT 8000 NCD 15/14 Q1010
                        NOSIG=
201707260320 METAR COR EGLL 260320Z AUTO 18004KT 9999 NCD 15/14 Q1010
                        NOSIG=
201707260250 METAR EGLL 260250Z AUTO 20007KT 9999 NCD 16/14 Q1010=
201707260220 METAR EGLL 260220Z AUTO 22005KT 9999 NCD 16/14 Q1011=
201707260150 METAR EGLL 260150Z AUTO 21003KT 9999 NCD 15/14 Q1011=
201707260120 METAR EGLL 260120Z AUTO 17003KT 9999 NCD 16/14 Q1011=
201707260050 METAR COR EGLL 260050Z AUTO 17003KT 9999 NCD 17/15 Q1012
                        NOSIG=
201707260020 METAR EGLL 260020Z AUTO 16003KT 9999 NCD 17/14 Q1012=
201707252350 METAR COR EGLL 252350Z AUTO 19005KT 9999 NCD 17/15 Q1012
                        NOSIG=
201707252320 METAR EGLL 252320Z AUTO 18006KT 9999 FEW028 18/14 Q1012=
201707252250 METAR EGLL 252250Z AUTO 19006KT 9999 BKN029/// //////CB 18/14
                        Q1013=
201707252220 METAR COR EGLL 252220Z AUTO 18005KT 140V240 9999 BKN032 18/14
                        Q1013 NOSIG=
201707252150 METAR EGLL 252150Z AUTO 18007KT 140V250 9999 FEW037 18/13
                        Q1013=
201707252120 METAR EGLL 252120Z AUTO 19008KT 160V250 9999 FEW039 19/13
                        Q1013=
201707252050 METAR COR EGLL 252050Z AUTO 21008KT 170V260 9999 FEW042 19/13
                        Q1013 NOSIG=
201707252020 METAR COR EGLL 252020Z AUTO 19006KT 130V250 9999 NCD 20/13
                        Q1013 NOSIG=
201707251950 METAR COR EGLL 251950Z AUTO 18005KT 130V230 9999 NCD 20/13
                        Q1013 NOSIG=
201707251920 METAR EGLL 251920Z AUTO VRB04KT 9999 NCD 20/13 Q1013=
201707251850 METAR COR EGLL 251850Z AUTO VRB03KT 9999 NCD 21/13 Q1013
                        NOSIG=
201707251820 METAR COR EGLL 251820Z AUTO VRB02KT 9999 NCD 22/13 Q1013
                        NOSIG=
201707251750 METAR COR EGLL 251750Z AUTO VRB03KT 9999 FEW038 22/13 Q1014
                        NOSIG=
201707251720 METAR COR EGLL 251720Z AUTO VRB02KT 9999 NCD 22/13 Q1014
                        NOSIG=
201707251650 METAR COR EGLL 251650Z AUTO VRB02KT 9999 FEW035 22/13 Q1014
                        NOSIG=
201707251620 METAR EGLL 251620Z AUTO VRB04KT 9999 SCT035 22/13 Q1014=
201707251550 METAR COR EGLL 251550Z AUTO 32005KT 280V020 9999 BKN033 21/13
                        Q1015 NOSIG=
201707251520 METAR COR EGLL 251520Z AUTO 32006KT 280V010 9999 BKN032 21/13
                        Q1015 NOSIG=
201707251450 METAR COR EGLL 251450Z AUTO 28008KT 250V320 9999 BKN030 21/13
                        Q1015 NOSIG=
201707251420 METAR COR EGLL 251420Z AUTO 31008KT 280V340 9999 BKN028 20/12
                        Q1015 NOSIG=
201707251350 METAR COR EGLL 251350Z AUTO 31008KT 270V350 9999 BKN026 21/13
                        Q1015 NOSIG=
201707251320 METAR COR EGLL 251320Z AUTO 31009KT 280V340 9999 OVC031 20/13
                        Q1016 NOSIG=
201707251250 METAR COR EGLL 251250Z AUTO 29008KT 9999 BKN029 20/13 Q1016
                        NOSIG=
201707251220 METAR COR EGLL 251220Z AUTO 30005KT 230V340 9999 OVC028 20/12
                        Q1016 NOSIG=
201707251150 METAR COR EGLL 251150Z AUTO 33005KT 270V360 9999 BKN027 20/13
                        Q1016 NOSIG=
201707251120 METAR COR EGLL 251120Z AUTO 34004KT 260V050 9999 OVC024 20/12
                        Q1016 NOSIG=
201707251050 METAR COR EGLL 251050Z AUTO 02004KT 340V080 9999 OVC024 19/13
                        Q1016 NOSIG=
201707251020 METAR COR EGLL 251020Z AUTO 32006KT 280V030 9999 OVC021 19/13
                        Q1016 NOSIG=
201707250950 METAR COR EGLL 250950Z AUTO 31007KT 280V350 9999 BKN022 19/13
                        Q1017 NOSIG=
201707250920 METAR COR EGLL 250920Z AUTO 33007KT 290V030 9999 SCT021 19/12
                        Q1017 NOSIG=
201707250850 METAR COR EGLL 250850Z AUTO 32005KT 270V360 9999 FEW017 18/12
                        Q1017 NOSIG=
201707250820 METAR COR EGLL 250820Z 32005KT 260V010 9999 FEW016 18/13
                        Q1017 NOSIG=
201707250750 METAR COR EGLL 250750Z 32005KT 290V050 9999 SCT011 17/13
                        Q1017 NOSIG=
201707250720 METAR COR EGLL 250720Z 35005KT 280V050 9999 FEW009 16/12
                        Q1017 NOSIG=
201707250650 METAR COR EGLL 250650Z 35005KT 310V040 9999 SCT011 15/12
                        Q1017 NOSIG=
201707250620 METAR COR EGLL 250620Z 33005KT 300V020 9999 FEW010 14/12
                        Q1017 NOSIG=
201707250550 METAR COR EGLL 250550Z 34004KT 290V030 9999 FEW006 14/12
                        Q1017 NOSIG=
201707250520 METAR COR EGLL 250520Z 32006KT 9999 FEW006 BKN008 13/11 Q1017
                        BECMG SCT009=
201707250450 METAR COR EGLL 250450Z 35005KT 310V020 9999 SCT007 13/11
                        Q1017 TEMPO BKN008=
201707250420 METAR COR EGLL 250420Z AUTO 35004KT 300V020 9999 NCD 13/11
                        Q1017 NOSIG=
201707250350 METAR COR EGLL 250350Z AUTO 33005KT 300V010 9999 NCD 14/11
                        Q1017 NOSIG=
201707250320 METAR COR EGLL 250320Z AUTO 32005KT 300V010 9999 NCD 14/11
                        Q1017 NOSIG=
201707250250 METAR COR EGLL 250250Z AUTO 32005KT 280V350 9999 OVC049 14/12
                        Q1017 NOSIG=
201707250220 METAR COR EGLL 250220Z AUTO 31005KT 9999 NCD 14/12 Q1017
                        NOSIG=
201707250150 METAR COR EGLL 250150Z AUTO 31005KT 9999 NCD 14/12 Q1017
                        NOSIG=
201707250120 METAR COR EGLL 250120Z AUTO 31005KT 9999 BKN044 15/12 Q1017
                        NOSIG=
201707250050 METAR COR EGLL 250050Z AUTO 30005KT 9999 FEW042 15/12 Q1017
                        NOSIG=
201707250020 METAR COR EGLL 250020Z AUTO 30004KT 9999 BKN039 15/12 Q1017
                        NOSIG=
201707242350 METAR COR EGLL 242350Z AUTO 30004KT 9999 SCT037 15/12 Q1017
                        NOSIG=
201707242320 METAR COR EGLL 242320Z AUTO 31003KT 9999 BKN035 15/12 Q1017
                        NOSIG=
201707242250 METAR COR EGLL 242250Z AUTO 32002KT 9999 FEW039 15/12 Q1017
                        NOSIG=
201707242220 METAR COR EGLL 242220Z AUTO VRB02KT 9999 FEW049 15/12 Q1017
                        NOSIG=
201707242150 METAR COR EGLL 242150Z AUTO VRB02KT 9999 SCT040 16/12 Q1017
                        NOSIG=
201707242120 METAR COR EGLL 242120Z AUTO VRB02KT 9999 BKN040 16/12 Q1017
                        NOSIG=
201707242050 METAR COR EGLL 242050Z AUTO VRB03KT 9999 SCT038 16/12 Q1017
                        NOSIG=
201707242020 METAR COR EGLL 242020Z AUTO 01007KT 340V050 9999 OVC039 17/12
                        Q1017 NOSIG=
201707241950 METAR COR EGLL 241950Z AUTO 04007KT 9999 BKN041 17/13 Q1017
                        NOSIG=
201707241920 METAR COR EGLL 241920Z AUTO 02005KT 330V060 9999 FEW030 18/13
                        Q1017 NOSIG=
201707241850 METAR COR EGLL 241850Z 36007KT 320V080 9999 FEW031 SCT042
                        18/12 Q1016 NOSIG=
201707241820 METAR COR EGLL 241820Z 35004KT 300V020 9999 FEW039 BKN046
                        19/13 Q1016 NOSIG=
201707241750 METAR COR EGLL 241750Z 36005KT 330V040 9999 FEW027 BKN031
                        19/12 Q1016 NOSIG=
201707241720 METAR COR EGLL 241720Z 03005KT 330V060 9999 FEW027 BKN047
                        19/12 Q1016 NOSIG=
201707241650 METAR COR EGLL 241650Z 33005KT 280V020 9999 FEW028 BKN048
                        19/13 Q1016 NOSIG=
201707241620 METAR COR EGLL 241620Z 33007KT 310V030 9999 FEW036 BKN043
                        19/13 Q1016 NOSIG=
201707241550 METAR COR EGLL 241550Z 34007KT 300V040 9999 FEW027 BKN047
                        19/13 Q1016 NOSIG=
201707241520 METAR COR EGLL 241520Z 36006KT 310V030 9999 FEW025 SCT030
                        BKN047 19/13 Q1016 NOSIG=
201707241450 METAR COR EGLL 241450Z 32006KT 290V060 9999 SCT023 BKN038
                        20/13 Q1016 NOSIG=
201707241420 METAR COR EGLL 241420Z 35007KT 9999 FEW019 SCT023 BKN031
                        18/13 Q1016 NOSIG=
201707241350 METAR COR EGLL 241350Z 32007KT 280V020 9999 FEW019 SCT023
                        OVC031 18/13 Q1016 NOSIG=
201707241320 METAR COR EGLL 241320Z 32008KT 290V360 9999 FEW019 SCT023
                        OVC028 17/13 Q1015 NOSIG=
201707241250 METAR EGLL 241250Z AUTO 32009KT 290V010 9999 BKN013 OVC028
                        17/13 Q1015 NOSIG=
201707241220 METAR COR EGLL 241220Z 32011KT 9999 VCSH SCT014 BKN020 17/13
                        Q1015 NOSIG=
201707241150 METAR COR EGLL 241150Z AUTO 32011KT 290V360 9999 OVC018 17/12
                        Q1015 NOSIG=
201707241120 METAR COR EGLL 241120Z 33010KT 300V010 9999 FEW018 BKN022
                        17/12 Q1014 NOSIG=
201707241050 METAR COR EGLL 241050Z 33011KT 300V010 9999 FEW017 BKN020
                        17/13 Q1014 NOSIG=
201707241020 METAR COR EGLL 241020Z 32011KT 290V360 9999 BKN017 17/13
                        Q1014 NOSIG=
201707240950 METAR COR EGLL 240950Z 33009KT 290V030 9999 BKN016 16/13
                        Q1014 NOSIG=
201707240920 METAR COR EGLL 240920Z 33010KT 300V010 9999 BKN015 17/13
                        Q1013 TEMPO BKN014=
201707240850 METAR COR EGLL 240850Z 36009KT 310V030 9999 SCT016 SCT025
                        17/13 Q1013 TEMPO BKN014=
201707240820 METAR COR EGLL 240820Z 35009KT 310V030 9999 SCT014 SCT020
                        16/13 Q1013 TEMPO BKN014=
201707240750 METAR COR EGLL 240750Z 34006KT 290V020 9999 -RA FEW012 BKN014
                        16/14 Q1012 TEMPO BKN015=
201707240720 METAR COR EGLL 240720Z 34008KT 280V020 9999 BKN016 16/13
                        Q1012 TEMPO BKN014=
201707240650 METAR COR EGLL 240650Z 32007KT 9999 BKN014 16/13 Q1012 TEMPO
                        BKN015=
201707240620 METAR COR EGLL 240620Z 31008KT 9999 SCT015 SCT017 16/14 Q1011
                        TEMPO BKN014=
201707240550 METAR COR EGLL 240550Z 32007KT 9999 SCT014 BKN018 16/14 Q1011
                        TEMPO BKN014=
201707240520 METAR COR EGLL 240520Z 31007KT 270V340 9999 SCT012 BKN016
                        16/14 Q1011 TEMPO BKN012=
201707240450 METAR COR EGLL 240450Z 30006KT 9999 SCT018 BKN024 15/14 Q1010
                        TEMPO BKN012=
201707240420 METAR COR EGLL 240420Z 29007KT 9999 FEW007 BKN016 15/14 Q1010
                        TEMPO BKN012=
201707240350 METAR COR EGLL 240350Z 28007KT 7000 -DZ FEW004 SCT006 BKN013
                        15/14 Q1010 TEMPO 4800 BKN009=
201707240320 METAR COR EGLL 240320Z 27009KT 5000 -DZ FEW004 SCT007 BKN010
                        14/14 Q1010 TEMPO 4000 BKN007=
201707240250 METAR COR EGLL 240250Z 26009KT 6000 -DZ SCT008 BKN013 14/13
                        Q1010 REDZ TEMPO 4500 BKN009=
201707240220 METAR COR EGLL 240220Z AUTO 26008KT 9999 -RA SCT012 OVC026
                        15/13 Q1011 TEMPO 7000 RADZ BKN010=
201707240150 METAR COR EGLL 240150Z AUTO 29004KT 9999 -RA OVC035 15/13
                        Q1011 BECMG BKN012=
201707240120 METAR COR EGLL 240120Z AUTO 28005KT 9999 -RA NCD 15/13 Q1011
                        TEMPO BKN013=
201707240050 METAR COR EGLL 240050Z AUTO 28007KT 9999 -RA NCD 15/13 Q1011
                        TEMPO BKN013=
201707240020 METAR EGLL 240020Z AUTO 29007KT 9999 -RA NCD 15/13 Q1011=
201707232350 METAR COR EGLL 232350Z AUTO 27007KT 9999 -RA NCD 15/13 Q1011
                        TEMPO BKN014=
201707232320 METAR COR EGLL 232320Z AUTO 27007KT 9999 -RA NCD 15/13 Q1012
                        TEMPO BKN014=
201707232250 METAR COR EGLL 232250Z AUTO 27008KT 9999 -RA NCD 16/13 Q1012
                        NOSIG=
201707232220 METAR COR EGLL 232220Z AUTO 27008KT 9999 NCD 16/12 Q1012
                        NOSIG=
201707232150 METAR COR EGLL 232150Z AUTO 27008KT 9999 FEW048 16/13 Q1012
                        NOSIG=
201707232120 METAR COR EGLL 232120Z AUTO 27007KT 9999 FEW049 16/13 Q1012
                        NOSIG=
201707232050 METAR COR EGLL 232050Z AUTO 24008KT 9999 NCD 16/12 Q1012
                        NOSIG=
201707232020 METAR COR EGLL 232020Z AUTO 27008KT 9999 NCD 17/12 Q1012
                        NOSIG=
201707231950 METAR COR EGLL 231950Z AUTO 26010KT 9999 NCD 17/12 Q1012
                        NOSIG=
201707231920 METAR COR EGLL 231920Z AUTO 26010KT 9999 NCD 18/12 Q1011
                        NOSIG=
201707231850 METAR COR EGLL 231850Z AUTO 25008KT 220V280 9999 NCD 18/14
                        Q1011 NOSIG=
201707231820 METAR COR EGLL 231820Z AUTO 26010KT 9999 FEW018 18/13 Q1011
                        NOSIG=
201707231750 METAR COR EGLL 231750Z AUTO 25011KT 9999 -RA SCT039/// //////CB
                        18/14 Q1011 TEMPO SHRA=
201707231720 METAR COR EGLL 231720Z AUTO 25011KT 9999 FEW019/// //////CB
                        18/13 Q1011 TEMPO SHRA=
201707231650 METAR COR EGLL 231650Z AUTO 25010KT 9999 FEW021/// //////CB
                        18/13 Q1011 TEMPO SHRA=
201707231620 METAR COR EGLL 231620Z AUTO 24011KT 9999 FEW044/// //////CB
                        19/13 Q1011 TEMPO SHRA=
201707231550 METAR COR EGLL 231550Z AUTO 23012KT 9999 SCT027 19/12 Q1011
                        TEMPO SHRA=
201707231520 METAR COR EGLL 231520Z AUTO 24010KT 200V270 9999 BKN026 19/12
                        Q1012 TEMPO SHRA=
201707231450 METAR COR EGLL 231450Z AUTO 23009KT 200V270 9999 SCT027 19/12
                        Q1012 TEMPO SHRA=
201707231420 METAR COR EGLL 231420Z AUTO 23009KT 200V260 9999 FEW024 19/12
                        Q1012 NOSIG=
201707231350 METAR COR EGLL 231350Z AUTO 23011KT 9999 NCD 18/12 Q1012
                        NOSIG=
201707231320 METAR COR EGLL 231320Z AUTO 25010KT 9999 NCD 17/10 Q1013
                        TEMPO SHRA=
201707231250 METAR COR EGLL 231250Z AUTO 24012KT 9999 NCD 17/10 Q1013
                        NOSIG=
201707231220 METAR COR EGLL 231220Z AUTO 26014G24KT 9999 -RA FEW030 17/10
                        Q1012 TEMPO SHRA=
201707231150 METAR COR EGLL 231150Z AUTO 26016KT 9999 SCT027/// //////CB
                        18/11 Q1012 TEMPO SHRA=
201707231120 METAR COR EGLL 231120Z AUTO 25013KT 9999 FEW036/// //////CB
                        19/10 Q1012 TEMPO SHRA=
201707231050 METAR COR EGLL 231050Z AUTO 24011G21KT 9999 FEW020 BKN046
                        18/11 Q1012 TEMPO SHRA=
201707231020 METAR COR EGLL 231020Z AUTO 23009KT 170V260 9999 FEW022 18/13
                        Q1012 TEMPO SHRA=
201707230950 METAR COR EGLL 230950Z AUTO 24010KT 9999 SCT014 16/12 Q1012
                        NOSIG=
201707230920 METAR COR EGLL 230920Z 25006KT 170V320 9999 SCT010 SCT013
                        16/13 Q1012 NOSIG=
201707230850 METAR COR EGLL 230850Z 25009KT 9999 SCT010 SCT014 15/12 Q1012
                        NOSIG=
201707230820 METAR COR EGLL 230820Z 26007KT 9999 SCT009 SCT010 14/12 Q1012
                        NOSIG=
201707230750 METAR COR EGLL 230750Z 26005KT 240V300 9999 SCT006 SCT008
                        13/12 Q1012 TEMPO BKN008=
201707230720 METAR COR EGLL 230720Z 28006KT 9999 BKN005 13/12 Q1012 TEMP0
                        SCT008=
201707230650 METAR COR EGLL 230650Z 27009KT 9000 SCT004 BKN005 12/11 Q1012
                        TEMPO SCT008=
201707230620 METAR COR EGLL 230620Z 27008KT 9999 FEW004 BKN005 13/12 Q1011
                        TEMPO SCT008=
201707230550 METAR COR EGLL 230550Z 26007KT 8000 FEW003 SCT004 12/11 Q1011
                        TEMPO BKN004=
201707230520 METAR COR EGLL 230520Z 27004KT 230V300 2200 R27R/0900 BR
                        SCT001 BKN003 12/11 Q1010 BECMG 4000
                        BR SCT003=
201707230450 METAR COR EGLL 230450Z AUTO 25005KT 0500 R27L/P1500 FG VV///
                        12/11 Q1010 BECMG 4000 BR BKN004=
201707230420 METAR COR EGLL 230420Z 27003KT 0500 R27L/1400 FG VV/// 12/11
                        Q1010 BECMG 4000 BR BKN004=
201707230350 METAR COR EGLL 230350Z 28003KT 2000 BCFG BKN001 11/11 Q1010
                        BECMG 6000=
201707230320 METAR COR EGLL 230320Z 28004KT 9999 4400W BCFG FEW001 11/11
                        Q1010 NOSIG=
201707230250 METAR COR EGLL 230250Z 27004KT CAVOK 11/11 Q1010 NOSIG=
201707230220 METAR COR EGLL 230220Z AUTO 28003KT 9999 NCD 12/11 Q1010
                        NOSIG=
201707230150 METAR COR EGLL 230150Z AUTO 28003KT 9999 NCD 12/11 Q1009
                        NOSIG=
201707230120 METAR COR EGLL 230120Z AUTO 27002KT 9999 NCD 12/11 Q1009
                        NOSIG=
201707230050 METAR COR EGLL 230050Z AUTO VRB03KT 9999 NCD 13/11 Q1009
                        NOSIG=
201707230020 METAR COR EGLL 230020Z AUTO 19002KT 9999 FEW021 13/12 Q1009
                        NOSIG=
201707222350 METAR COR EGLL 222350Z AUTO 16002KT 9999 NCD 13/12 Q1009
                        NOSIG=
201707222320 METAR COR EGLL 222320Z AUTO VRB03KT 9999 NCD 12/11 Q1009
                        NOSIG=
201707222250 METAR EGLL 222250Z AUTO 17004KT 9999 NCD 13/11 Q1009=
201707222220 METAR COR EGLL 222220Z AUTO 15005KT 9999 NCD 13/12 Q1009
                        NOSIG=
201707222150 METAR COR EGLL 222150Z AUTO 17006KT 140V210 9999 NCD 13/12
                        Q1009 NOSIG=
201707222120 METAR COR EGLL 222120Z AUTO 17006KT 130V230 9999 NCD 14/12
                        Q1009 NOSIG=
201707222050 METAR COR EGLL 222050Z AUTO 17007KT 130V200 9999 FEW033 14/12
                        Q1009 NOSIG=
201707222020 METAR COR EGLL 222020Z AUTO 15005KT 120V190 9999 FEW037///
                        //////TCU 14/12 Q1009 NOSIG=
201707221950 METAR COR EGLL 221950Z AUTO 15005KT 090V200 9999 SCT038///
                        //////TCU 14/12 Q1009 NOSIG=
201707221920 METAR COR EGLL 221920Z AUTO 16006KT 130V210 9999 FEW026 BKN034
                        BKN047 14/12 Q1009 NOSIG=
201707221850 METAR COR EGLL 221850Z AUTO 18007KT 150V220 9999 -RA FEW033///
                        BKN046/// //////TCU 14/12 Q1009 NOSIG=
201707221820 METAR COR EGLL 221820Z AUTO 17007KT 9999 -RA FEW013/// //////CB
                        14/12 Q1009 NOSIG=
201707221750 METAR COR EGLL 221750Z AUTO 18008KT 140V210 9000 -RA FEW012///
                        BKN023/// BKN045/// //////CB 14/12
                        Q1009 NOSIG=
201707221720 METAR EGLL 221720Z AUTO 17007KT 140V220 9999 -RA FEW033///
                        BKN045/// //////CB 14/12 Q1009=
201707221650 METAR COR EGLL 221650Z AUTO 16008KT 130V200 9999 -RA FEW011
                        BKN035 14/12 Q1009 NOSIG=
201707221620 METAR EGLL 221620Z AUTO 18008KT 140V220 9999 -RA FEW013 BKN036
                        14/12 Q1009=
201707221550 METAR COR EGLL 221550Z AUTO 18008KT 140V200 9999 -RA FEW031
                        BKN043 14/11 Q1009 NOSIG=
201707221520 METAR COR EGLL 221520Z AUTO 18006KT 110V240 9999 -RA FEW026
                        BKN039 14/12 Q1009 NOSIG=
201707221450 METAR COR EGLL 221450Z AUTO 21010G22KT 9999 -RA FEW024///
                        BKN041/// //////TCU 14/12 Q1009 NOSIG=
201707221420 METAR COR EGLL 221420Z AUTO 22010KT 9999 -RA FEW023/// BKN037///
                        //////CB 14/12 Q1009 TEMPO 4800 RA
                        BKN014=
201707221350 METAR COR EGLL 221350Z AUTO 19014KT 160V230 9000 -RA FEW013///
                        BKN024/// //////CB 14/12 Q1009 TEMPO
                        4800 RA BKN012=
201707221320 METAR COR EGLL 221320Z AUTO 19009KT 160V230 9999 -RA FEW024///
                        //////CB 15/11 Q1009 TEMPO 4800 +SHRA
                        BKN014=
201707221250 METAR COR EGLL 221250Z AUTO 21010KT 160V240 9999 -RA FEW023///
                        BKN049/// //////CB 17/11 Q1008 TEMPO
                        4500 +SHRA=
201707221220 METAR COR EGLL 221220Z AUTO 20010KT 160V240 9999 FEW027///
                        //////CB 17/11 Q1008 TEMPO 4500 +SHRA=
201707221150 METAR COR EGLL 221150Z AUTO 21008KT 170V260 9999 -RA FEW014///
                        SCT049/// //////CB 17/13 Q1008 TEMPO
                        SHRA=
201707221120 METAR COR EGLL 221120Z AUTO 24012KT 220V280 9999 -RA FEW016///
                        SCT025/// BKN045/// //////CB 18/13
                        Q1008 TEMPO SHRA=
201707221050 METAR COR EGLL 221050Z AUTO 22012KT 180V250 9999 FEW020///
                        //////CB 19/11 Q1008 TEMPO 4800 +SHRA=
201707221020 METAR COR EGLL 221020Z AUTO 19011KT 140V230 9999 SCT024///
                        SCT043/// //////CB 19/11 Q1008 NOSIG=
201707220950 METAR COR EGLL 220950Z AUTO 24008KT 170V270 9999 -RA FEW011///
                        BKN036/// //////CB 18/13 Q1008 TEMPO
                        SHRA=
201707220920 METAR COR EGLL 220920Z AUTO 25008KT 210V270 9999 -RA FEW009///
                        SCT022/// //////CB 18/12 Q1008 TEMPO
                        SHRA=
201707220850 METAR COR EGLL 220850Z AUTO 20008KT 160V270 9999 SCT017///
                        BKN035/// //////TCU 18/13 Q1008 TEMPO
                        SHRA=
201707220820 METAR COR EGLL 220820Z AUTO 19008KT 130V250 9999 SCT013 BKN028
                        17/13 Q1008 NOSIG=
201707220750 METAR COR EGLL 220750Z AUTO 19007KT 130V230 9999 SCT011 17/14
                        Q1007 NOSIG=
201707220720 METAR COR EGLL 220720Z 19006KT 160V240 9999 FEW006 16/14
                        Q1007 NOSIG=
201707220650 METAR COR EGLL 220650Z 20006KT 170V260 9999 FEW007 15/14
                        Q1007 NOSIG=
201707220620 METAR COR EGLL 220620Z 18005KT 160V220 9999 FEW006 14/13
                        Q1007 NOSIG=
201707220550 METAR COR EGLL 220550Z 20005KT 140V240 9999 FEW004 14/13
                        Q1007 NOSIG=
201707220520 METAR COR EGLL 220520Z 21004KT 160V250 9999 FEW005 14/13
                        Q1007 NOSIG=
201707220450 METAR COR EGLL 220450Z 18003KT 9999 FEW002 SCT003 14/13 Q1007
                        NOSIG=
201707220420 METAR COR EGLL 220420Z AUTO 20003KT 9999 SCT003/// 14/13
                        Q1006 NOSIG=
201707220350 METAR COR EGLL 220350Z AUTO 19005KT 9999 BKN003 14/13 Q1006
                        BECMG FEW003=
201707220320 METAR COR EGLL 220320Z AUTO 21005KT 9999 -RA SCT004 SCT019
                        14/13 Q1006 NOSIG=
201707220250 METAR COR EGLL 220250Z 20004KT 9999 -RA FEW005 14/13 Q1006
                        NOSIG=
201707220220 METAR COR EGLL 220220Z 22004KT 9999 -RA FEW006 SCT040 14/13
                        Q1006 RERA REDZ NOSIG=
201707220150 METAR COR EGLL 220150Z 23005KT 9999 -RA FEW004 BKN048 14/13
                        Q1006 RERA TEMPO RA=
201707220120 METAR EGLL 220120Z AUTO 21005KT 5000 -RA BKN004/// BKN021///
                        //////TCU 14/13 Q1006 RERA=
201707220050 METAR COR EGLL 220050Z AUTO 17005KT 5000 -RA FEW006/// BKN014///
                        OVC027/// //////TCU 14/13 Q1006 RERA
                        REDZ TEMPO RA=
201707220020 METAR COR EGLL 220020Z AUTO 14005KT 9999 -RA FEW012/// OVC024///
                        //////CB 14/13 Q1006 TEMPO RA BKN012=
201707212350 METAR COR EGLL 212350Z AUTO 15006KT 9999 -RA BKN032/// //////TCU
                        15/13 Q1006 TEMPO RA=
201707212320 METAR COR EGLL 212320Z AUTO 13007KT 9999 -RA BKN037 15/13
                        Q1006 TEMPO RA=
201707212250 METAR COR EGLL 212250Z AUTO 15007KT 130V190 9999 FEW029///
                        //////CB 15/13 Q1006 NOSIG=
201707212220 METAR COR EGLL 212220Z 14009KT 9999 -RA FEW009 15/14 Q1006
                        RERA TEMPO RA=
201707212150 METAR COR EGLL 212150Z AUTO 21006KT 160V240 6000 -RA SCT008///
                        BKN022/// BKN030/// //////CB 16/15
                        Q1007 RERA TEMPO 4000 +RA=
201707212120 METAR COR EGLL 212120Z AUTO 16007KT 9000 -RA BKN030/// BKN045///
                        17/14 Q1006 TEMPO 4000 +RA=
201707212050 METAR COR EGLL 212050Z AUTO 17008KT 9999 -RA //////TCU 17/14
                        Q1006 TEMPO RA=
201707212020 METAR COR EGLL 212020Z AUTO 18013KT 9999 -RA FEW033/// //////TCU
                        17/14 Q1006 TEMPO RA=
201707211950 METAR COR EGLL 211950Z AUTO 17013KT 9999 -RA FEW045/// //////TCU
                        19/12 Q1006 TEMPO RA=
201707211920 METAR COR EGLL 211920Z AUTO 16014KT 9999 //////TCU 20/12
                        Q1006 TEMPO RA=
201707211850 METAR COR EGLL 211850Z AUTO 16013KT 9999 //////TCU 20/12
                        Q1006 TEMPO 4000 RA=
201707211820 METAR COR EGLL 211820Z AUTO 16012KT 9999 NCD 20/12 Q1006
                        NOSIG=
201707211750 METAR COR EGLL 211750Z AUTO 17015KT 9999 FEW040 20/11 Q1006
                        NOSIG=
201707211720 METAR COR EGLL 211720Z AUTO 16017KT 9999 SCT040 21/11 Q1006
                        NOSIG=
201707211650 METAR COR EGLL 211650Z AUTO 17016KT 9999 BKN042 21/10 Q1006
                        NOSIG=
201707211620 METAR COR EGLL 211620Z AUTO 17014KT 9999 BKN038 21/10 Q1006
                        NOSIG=
201707211550 METAR COR EGLL 211550Z AUTO 17014KT 9999 BKN038 21/11 Q1007
                        NOSIG=
201707211520 METAR COR EGLL 211520Z AUTO 17015KT 9999 SCT039 21/11 Q1007
                        NOSIG=
201707211450 METAR COR EGLL 211450Z AUTO 16016KT 130V200 9999 SCT040 22/11
                        Q1007 NOSIG=
201707211420 METAR COR EGLL 211420Z AUTO 18016KT 9999 BKN038 22/11 Q1007
                        NOSIG=
201707211350 METAR COR EGLL 211350Z AUTO 16015KT 9999 BKN038 21/11 Q1008
                        NOSIG=
201707211320 METAR COR EGLL 211320Z AUTO 18014KT 9999 BKN039 21/10 Q1008
                        NOSIG=
201707211250 METAR COR EGLL 211250Z AUTO 17015KT 9999 BKN041 21/10 Q1008
                        NOSIG=
201707211220 METAR COR EGLL 211220Z AUTO 16014KT 9999 BKN040 21/10 Q1008
                        NOSIG=
201707211150 METAR COR EGLL 211150Z AUTO 17015KT 9999 BKN041 21/09 Q1008
                        NOSIG=
201707211120 METAR COR EGLL 211120Z 17014KT 9999 SCT038 21/10 Q1008 NOSIG=
201707211050 METAR COR EGLL 211050Z 17014KT 150V210 9999 SCT038 20/10
                        Q1008 NOSIG=
201707211020 METAR COR EGLL 211020Z 18015KT 9999 SCT041 20/09 Q1009 NOSIG=
201707210950 METAR COR EGLL 210950Z 19013KT 9999 SCT035 19/10 Q1009 NOSIG=
201707210920 METAR COR EGLL 210920Z 17016KT 9999 FEW035 19/10 Q1009 NOSIG=
201707210850 METAR COR EGLL 210850Z 18015KT 9999 SCT031 18/10 Q1009 NOSIG=
201707210820 METAR COR EGLL 210820Z AUTO 19013KT 9999 FEW029 BKN040 17/10
                        Q1010 NOSIG=
201707210750 METAR COR EGLL 210750Z AUTO 18012KT 9999 BKN024 17/11 Q1010
                        NOSIG=
201707210720 METAR COR EGLL 210720Z AUTO 18015KT 9999 SCT023 17/11 Q1009
                        NOSIG=
201707210650 METAR COR EGLL 210650Z AUTO 17012KT 9999 FEW023 17/11 Q1009
                        NOSIG=
201707210620 METAR EGLL 210620Z AUTO 17011KT 9999 NCD 16/11 Q1009=
201707210550 METAR COR EGLL 210550Z AUTO 16009KT 9999 NCD 15/11 Q1009
                        NOSIG=
201707210520 METAR COR EGLL 210520Z AUTO 15008KT 9999 NCD 14/11 Q1010
                        NOSIG=
201707210450 METAR COR EGLL 210450Z AUTO 15008KT 9999 NCD 13/10 Q1010
                        NOSIG=
201707210420 METAR COR EGLL 210420Z AUTO 15007KT 9999 NCD 13/10 Q1010
                        NOSIG=
201707210350 METAR COR EGLL 210350Z AUTO 16008KT 9999 NCD 13/10 Q1010
                        NOSIG=
201707210320 METAR COR EGLL 210320Z AUTO 15005KT 9999 NCD 12/10 Q1010
                        NOSIG=
201707210250 METAR COR EGLL 210250Z AUTO 14006KT 9999 NCD 13/10 Q1010
                        NOSIG=
201707210220 METAR COR EGLL 210220Z AUTO 17006KT 9999 NCD 13/10 Q1011
                        NOSIG=
201707210150 METAR COR EGLL 210150Z AUTO 18006KT 9999 NCD 13/10 Q1011
                        NOSIG=
201707210120 METAR COR EGLL 210120Z AUTO 18007KT 9999 NCD 13/10 Q1011
                        NOSIG=
201707210050 METAR COR EGLL 210050Z AUTO 19007KT 9999 NCD 14/10 Q1011
                        NOSIG=
201707210020 METAR COR EGLL 210020Z AUTO 20008KT 9999 NCD 14/10 Q1011
                        NOSIG=
201707202350 METAR COR EGLL 202350Z AUTO 19007KT 9999 NCD 14/10 Q1011
                        NOSIG=
201707202320 METAR COR EGLL 202320Z AUTO 18007KT 9999 NCD 14/10 Q1011
                        NOSIG=
201707202250 METAR COR EGLL 202250Z AUTO 20008KT 9999 NCD 15/09 Q1011
                        NOSIG=
201707202220 METAR COR EGLL 202220Z AUTO 21009KT 9999 NCD 15/09 Q1011
                        NOSIG=
201707202150 METAR COR EGLL 202150Z AUTO 21010KT 9999 NCD 16/09 Q1011
                        NOSIG=
201707202120 METAR COR EGLL 202120Z AUTO 21011KT 9999 NCD 16/10 Q1011
                        NOSIG=
201707202050 METAR COR EGLL 202050Z AUTO 20010KT 9999 NCD 16/10 Q1011
                        NOSIG=
201707202020 METAR COR EGLL 202020Z AUTO 21010KT 190V270 9999 NCD 17/10
                        Q1011 NOSIG=
201707201950 METAR COR EGLL 201950Z AUTO 22011KT 9999 NCD 18/10 Q1011
                        NOSIG=
201707201920 METAR COR EGLL 201920Z AUTO 24012KT 9999 FEW047 18/09 Q1011
                        NOSIG=
201707201850 METAR COR EGLL 201850Z AUTO 24013KT 9999 SCT048 19/08 Q1011
                        NOSIG=
201707201820 METAR COR EGLL 201820Z AUTO 25012KT 9999 NCD 19/07 Q1010
                        NOSIG=
201707201750 METAR COR EGLL 201750Z AUTO 25014KT 9999 NCD 19/06 Q1010
                        NOSIG=
201707201720 METAR COR EGLL 201720Z AUTO 25015KT 9999 NCD 19/06 Q1010
                        NOSIG=
201707201650 METAR COR EGLL 201650Z AUTO 26014KT 9999 NCD 19/06 Q1010
                        NOSIG=
201707201620 METAR COR EGLL 201620Z AUTO 26016KT 9999 NCD 20/05 Q1010
                        NOSIG=
201707201550 METAR COR EGLL 201550Z AUTO 26016KT 230V300 9999 NCD 21/05
                        Q1010 NOSIG=
201707201520 METAR COR EGLL 201520Z AUTO 27016KT 230V300 9999 NCD 21/05
                        Q1009 NOSIG=
201707201450 METAR COR EGLL 201450Z AUTO 25014KT 9999 NCD 19/06 Q1009
                        NOSIG=
201707201420 METAR COR EGLL 201420Z AUTO 26014KT 9999 BKN049 19/06 Q1009
                        NOSIG=
201707201350 METAR COR EGLL 201350Z AUTO 26013KT 230V290 9999 BKN046 20/07
                        Q1009 NOSIG=
201707201320 METAR COR EGLL 201320Z AUTO 27015KT 9999 SCT048 20/08 Q1009
                        NOSIG=
201707201250 METAR COR EGLL 201250Z AUTO 28014KT 9999 SCT033 19/09 Q1009
                        NOSIG=
201707201220 METAR COR EGLL 201220Z AUTO 30013KT 9999 SCT024 OVC044 18/10
                        Q1008 NOSIG=
201707201150 METAR COR EGLL 201150Z AUTO 29011KT 9999 FEW013 BKN024 OVC041
                        17/11 Q1008 NOSIG=
201707201120 METAR COR EGLL 201120Z 28014KT 9000 -SHRA FEW011 BKN015 15/12
                        Q1008 TEMPO BKN014=
201707201050 METAR COR EGLL 201050Z 27017KT 9000 VCSH FEW010 BKN015 15/13
                        Q1007 TEMPO BKN014=
201707201020 METAR COR EGLL 201020Z 28014KT 8000 -SHRA FEW007 BKN012 16/14
                        Q1007 BECMG SCT012=
201707200950 METAR COR EGLL 200950Z 28014KT 6000 -RADZ SCT011 BKN020 16/14
                        Q1006 TEMPO BKN011=
201707200920 METAR COR EGLL 200920Z 27014KT 9999 BKN013 16/14 Q1006 TEMPO
                        SCT013=
201707200850 METAR COR EGLL 200850Z 26016KT 9999 -SHRA BKN011 18/16 Q1005
                        TEMPO SHRA=
201707200820 METAR COR EGLL 200820Z 26013KT 9999 VCSH BKN014 19/16 Q1005
                        TEMPO SHRA=
201707200750 METAR COR EGLL 200750Z 24011KT 9999 -SHRA SCT012 SCT016 19/16
                        Q1004 TEMPO BKN012=
201707200720 METAR COR EGLL 200720Z 21009KT 180V240 9999 SCT012 SCT014
                        19/17 Q1004 TEMPO -SHRA BKN012=
201707200650 METAR COR EGLL 200650Z 20008KT 170V240 9999 FEW008 BKN011
                        19/17 Q1004 TEMPO SCT011=
201707200620 METAR COR EGLL 200620Z 19007KT 150V230 9999 FEW005 SCT008
                        BKN039 18/17 Q1004 TEMPO BKN012=
201707200550 METAR COR EGLL 200550Z 20006KT 150V290 9999 FEW006 BKN008
                        18/17 Q1004 TEMPO BKN012=
201707200520 METAR COR EGLL 200520Z AUTO 18006KT 150V220 9999 FEW006 18/17
                        Q1005 TEMPO BKN007=
201707200450 METAR COR EGLL 200450Z 18004KT 9999 FEW006 SCT021 17/16 Q1005
                        TEMPO BKN012=
201707200420 METAR COR EGLL 200420Z 18006KT 9999 FEW006 SCT012 BKN023
                        17/16 Q1005 TEMPO BKN012=
201707200350 METAR COR EGLL 200350Z 18005KT 9999 SCT019 17/16 Q1005 TEMPO
                        BKN007=
201707200320 METAR COR EGLL 200320Z 20005KT 9999 FEW006 SCT021 17/16 Q1005
                        TEMPO BKN007=
201707200250 METAR COR EGLL 200250Z AUTO 21005KT 9000 BKN005 OVC015 18/17
                        Q1005 TEMPO BKN012=
201707200220 METAR COR EGLL 200220Z AUTO 18007KT 9999 SCT005/// OVC013///
                        //////CB 17/17 Q1006 TEMPO BKN007=
201707200150 METAR COR EGLL 200150Z AUTO 18008KT 9999 -RA SCT005/// OVC012///
                        //////CB 17/16 Q1006 TEMPO BKN007=
201707200120 METAR COR EGLL 200120Z AUTO 19010KT 9999 -RA BKN013/// //////CB
                        18/16 Q1006 TEMPO SCT012=
201707200050 METAR COR EGLL 200050Z AUTO 21007KT 9999 FEW017/// BKN028///
                        //////TCU 18/15 Q1006 TEMPO SHRA
                        BKN012=
201707200020 METAR COR EGLL 200020Z AUTO 20006KT 9999 BKN042 18/15 Q1006
                        TEMPO SHRA=
201707192350 METAR COR EGLL 192350Z AUTO 21006KT 9999 NCD 19/14 Q1006
                        TEMPO SHRA=
201707192320 METAR COR EGLL 192320Z AUTO 21006KT 9999 NCD 19/14 Q1006
                        TEMPO SHRA=
201707192250 METAR COR EGLL 192250Z AUTO 22006KT 9999 NCD 19/14 Q1006
                        NOSIG=
201707192220 METAR COR EGLL 192220Z AUTO 22008KT 9999 NCD 19/14 Q1006
                        NOSIG=
201707192150 METAR COR EGLL 192150Z AUTO 22008KT 9999 NCD 19/14 Q1006
                        NOSIG=
201707192120 METAR COR EGLL 192120Z AUTO 22008KT 9999 BKN048 20/14 Q1006
                        NOSIG=
201707192050 METAR COR EGLL 192050Z AUTO 21008KT 9999 NCD 20/14 Q1006
                        NOSIG=
201707192020 METAR COR EGLL 192020Z AUTO 22007KT 9999 NCD 20/15 Q1006
                        NOSIG=
201707191950 METAR COR EGLL 191950Z AUTO 23012KT 9999 NCD 20/15 Q1006
                        NOSIG=
201707191920 METAR COR EGLL 191920Z AUTO 24013KT 9999 NCD 21/15 Q1006
                        NOSIG=
201707191850 METAR COR EGLL 191850Z AUTO 23015KT 9999 NCD 21/15 Q1006
                        NOSIG=
201707191820 METAR COR EGLL 191820Z AUTO 23012KT 9999 FEW019 21/15 Q1006
                        NOSIG=
201707191750 METAR COR EGLL 191750Z AUTO 22012KT 9999 BKN012 20/16 Q1006
                        TEMPO SCT016=
201707191720 METAR COR EGLL 191720Z AUTO 21013KT 9999 OVC011 20/17 Q1006
                        TEMPO SCT015=
201707191650 METAR COR EGLL 191650Z AUTO 21013KT 9999 OVC011 20/17 Q1006
                        NOSIG=
201707191620 METAR COR EGLL 191620Z AUTO 22011KT 9999 OVC012 20/17 Q1006
                        TEMPO BKN015=
201707191550 METAR COR EGLL 191550Z 21013KT 9999 BKN015 20/17 Q1005 TEMPO
                        BKN014=
201707191520 METAR COR EGLL 191520Z 21013KT 9999 SCT014 SCT016 20/17 Q1005
                        TEMPO BKN014=
201707191450 METAR COR EGLL 191450Z 21013KT 9999 SCT012 BKN014 21/17 Q1005
                        NOSIG=
201707191420 METAR COR EGLL 191420Z 20013KT 160V230 9999 BKN012 21/17
                        Q1005 NOSIG=
201707191350 METAR COR EGLL 191350Z 19014KT 9999 -RA SCT011 BKN015 21/17
                        Q1005 TEMPO BKN012=
201707191320 METAR COR EGLL 191320Z AUTO 19014KT 9999 BKN011 OVC032 21/17
                        Q1005 TEMPO BKN016=
201707191250 METAR COR EGLL 191250Z 19011KT 160V240 9999 FEW011 BKN014
                        21/18 Q1006 BECMG BKN016=
201707191220 METAR COR EGLL 191220Z 20012KT 170V240 9999 -RA FEW008 BKN014
                        20/18 Q1006 BECMG BKN016=
201707191150 METAR COR EGLL 191150Z 21015KT 9999 -SHRA FEW008 BKN014 21/18
                        Q1006 BECMG BKN016=
201707191120 METAR COR EGLL 191120Z 19011KT 160V240 9999 -SHRA FEW010
                        BKN013 21/19 Q1005 NOSIG=
201707191050 METAR COR EGLL 191050Z 19012KT 150V230 9999 VCSH FEW011 BKN014
                        21/18 Q1005 TEMPO BKN016=
201707191020 METAR COR EGLL 191020Z 20009KT 170V230 9999 FEW012 BKN016
                        22/18 Q1005 NOSIG=
201707190950 METAR COR EGLL 190950Z 22009KT 170V260 9999 BKN014 22/18
                        Q1004 NOSIG=
201707190920 METAR COR EGLL 190920Z AUTO 21008KT 150V250 9999 BKN012 OVC025
                        22/18 Q1004 NOSIG=
201707190850 METAR COR EGLL 190850Z 17006KT 110V240 9999 FEW012 BKN014
                        21/18 Q1005 BECMG BKN016=
201707190820 METAR COR EGLL 190820Z 14004KT 070V220 9999 FEW010 BKN013
                        21/18 Q1005 NOSIG=
201707190750 METAR COR EGLL 190750Z 11006KT 9999 FEW009 BKN011 21/18 Q1005
                        NOSIG=
201707190720 METAR COR EGLL 190720Z 09008KT 9999 FEW008 BKN011 20/18 Q1005
                        NOSIG=
201707190650 METAR COR EGLL 190650Z 09006KT 9999 FEW008 BKN010 20/18 Q1005
                        NOSIG=
201707190620 METAR COR EGLL 190620Z 09010KT 9999 FEW009 BKN011 19/18 Q1005
                        NOSIG=
201707190550 METAR COR EGLL 190550Z AUTO 09010KT 9999 SCT010 19/17 Q1005
                        NOSIG=
201707190520 METAR COR EGLL 190520Z 07005KT 7000 FEW006 19/18 Q1005 NOSIG=
201707190450 METAR COR EGLL 190450Z AUTO 04003KT 7000 FEW007 18/17 Q1005
                        NOSIG=
201707190420 METAR COR EGLL 190420Z AUTO 05004KT 360V080 7000 NCD 18/17
                        Q1005 NOSIG=
201707190350 METAR COR EGLL 190350Z AUTO 02004KT 350V060 7000 NCD 18/17
                        Q1006 NOSIG=
201707190320 METAR COR EGLL 190320Z AUTO 01004KT 310V050 8000 FEW009 19/18
                        Q1006 NOSIG=
201707190250 METAR COR EGLL 190250Z AUTO VRB03KT 9999 NCD 19/17 Q1007
                        TEMPO RA=
201707190220 METAR COR EGLL 190220Z AUTO 07011KT 9999 -RA FEW025/// //////CB
                        19/17 Q1006 TEMPO 4000 RA=
201707190150 METAR COR EGLL 190150Z AUTO 06007KT 020V090 6000 -RA FEW021///
                        BKN033/// BKN048/// //////CB 18/17
                        Q1009 RERA TEMPO 3000 +TSRA=
201707190120 METAR COR EGLL 190120Z AUTO 11008KT 9999 -RA FEW034/// //////CB
                        18/17 Q1010 TEMPO 3000 +TSRA=
201707190050 METAR COR EGLL 190050Z AUTO 08007KT 060V120 9999 -RA FEW020///
                        //////CB 19/16 Q1009 TEMPO 3000 +TSRA=
201707190020 METAR COR EGLL 190020Z AUTO 06007KT 9999 -RA //////CB 19/16
                        Q1009 TEMPO 3000 +TSRA=
201707182350 METAR COR EGLL 182350Z AUTO 06007KT 9999 //////CB 19/15 Q1009
                        TEMPO 3000 +TSRA=
201707182320 METAR COR EGLL 182320Z AUTO 06007KT 9999 //////CB 19/15 Q1010
                        TEMPO TSRA=
201707182250 METAR COR EGLL 182250Z AUTO 05007KT 9999 //////TCU 20/15
                        Q1010 TEMPO TSRA=
201707182220 METAR COR EGLL 182220Z AUTO 05007KT 9999 -RA //////CB 20/15
                        Q1011 RETS NOSIG=
201707182150 METAR COR EGLL 182150Z AUTO 05006KT 9999 TS //////CB 20/15
                        Q1011 TEMPO NSW=
201707182120 METAR COR EGLL 182120Z AUTO 01005KT 330V070 9999 VCTS FEW029///
                        //////CB 20/16 Q1012 NOSIG=
201707182050 METAR COR EGLL 182050Z AUTO 28012G22KT 220V030 9999 -RA VCTS
                        SCT029/// //////CB 20/16 Q1013 BECMG
                        04008KT=
201707182020 METAR COR EGLL 182020Z AUTO 06009KT 9999 -RA VCTS FEW014///
                        //////CB 20/15 Q1012 RERA TEMPO 4000
                        TSRA=
201707181950 METAR COR EGLL 181950Z AUTO 08011KT 9999 -RA //////CB 22/14
                        Q1011 TEMPO 4000 TSRA=
201707181920 METAR COR EGLL 181920Z AUTO 08010KT 9999 //////CB 22/14 Q1012
                        TEMPO 4000 TSRA=
201707181850 METAR COR EGLL 181850Z AUTO 07014KT 9999 FEW047 23/14 Q1010
                        TEMPO TSRA=
201707181820 METAR COR EGLL 181820Z AUTO 08014KT 9999 NCD 23/13 Q1011
                        TEMPO TSRA=
201707181750 METAR COR EGLL 181750Z AUTO 09013KT 9999 NCD 23/13 Q1012
                        NOSIG=
201707181720 METAR EGLL 181720Z AUTO 10013KT 9999 NCD 24/13 Q1013=
201707181650 METAR COR EGLL 181650Z AUTO 09015KT 9999 NCD 24/12 Q1013
                        NOSIG=
201707181620 METAR COR EGLL 181620Z AUTO 10016KT 9999 NCD 25/12 Q1014
                        NOSIG=
201707181550 METAR COR EGLL 181550Z AUTO 11014KT 9999 NCD 25/12 Q1014
                        NOSIG=
201707181520 METAR COR EGLL 181520Z AUTO 10015KT 9999 NCD 25/12 Q1014
                        NOSIG=
201707181450 METAR COR EGLL 181450Z AUTO 11017KT 9999 NCD 26/13 Q1015
                        NOSIG=
201707181420 METAR EGLL 181420Z AUTO 09013KT 9999 NCD 26/12 Q1015 NOSIG=
201707181350 METAR COR EGLL 181350Z AUTO 08013KT 9999 NCD 27/12 Q1015
                        NOSIG=
201707181320 METAR COR EGLL 181320Z AUTO 09014KT 9999 NCD 26/11 Q1015
                        NOSIG=
201707181250 METAR COR EGLL 181250Z AUTO 10015KT 9999 NCD 26/11 Q1016
                        NOSIG=
201707181220 METAR COR EGLL 181220Z AUTO 10016KT 9999 NCD 26/11 Q1016
                        NOSIG=
201707181150 METAR COR EGLL 181150Z AUTO 08014KT 9999 NCD 26/11 Q1016
                        NOSIG=
201707181120 METAR COR EGLL 181120Z AUTO 10014KT 9999 NCD 26/12 Q1016
                        NOSIG=
201707181050 METAR COR EGLL 181050Z AUTO 09016KT 9999 NCD 25/12 Q1017
                        NOSIG=
201707181020 METAR COR EGLL 181020Z AUTO 08014KT 9999 NCD 24/13 Q1017
                        NOSIG=
201707180950 METAR COR EGLL 180950Z AUTO 09013KT 9999 NCD 22/13 Q1017
                        NOSIG=
201707180920 METAR COR EGLL 180920Z AUTO 07009KT 9999 NCD 21/14 Q1018
                        NOSIG=
201707180850 METAR COR EGLL 180850Z AUTO 08009KT 9999 NCD 21/14 Q1018
                        NOSIG=
201707180820 METAR COR EGLL 180820Z AUTO 09010KT 9999 NCD 21/14 Q1018
                        NOSIG=
201707180750 METAR EGLL 180750Z AUTO 09010KT 9999 NCD 20/14 Q1019=
201707180720 METAR COR EGLL 180720Z AUTO 09009KT 9999 NCD 19/14 Q1019
                        NOSIG=
201707180650 METAR COR EGLL 180650Z AUTO 10009KT 9999 NCD 19/14 Q1019
                        NOSIG=
201707180620 METAR COR EGLL 180620Z AUTO 09008KT 9999 NCD 18/14 Q1019
                        NOSIG=
201707180550 METAR COR EGLL 180550Z AUTO 09007KT 9999 NCD 18/13 Q1019
                        NOSIG=
201707180520 METAR COR EGLL 180520Z AUTO 09006KT 9999 NCD 17/13 Q1019
                        NOSIG=
201707180450 METAR COR EGLL 180450Z AUTO 09008KT 9999 NCD 17/13 Q1019
                        NOSIG=
201707180420 METAR COR EGLL 180420Z AUTO 09005KT 9999 NCD 17/13 Q1020
                        NOSIG=
201707180350 METAR COR EGLL 180350Z AUTO VRB03KT 9999 NCD 17/13 Q1020
                        NOSIG=
201707180320 METAR COR EGLL 180320Z AUTO 06003KT 9999 NCD 18/14 Q1020
                        NOSIG=
201707180250 METAR COR EGLL 180250Z AUTO 08005KT 050V120 9999 NCD 18/13
                        Q1020 NOSIG=
201707180220 METAR COR EGLL 180220Z AUTO 06005KT 9999 NCD 18/14 Q1020
                        NOSIG=
201707180150 METAR COR EGLL 180150Z AUTO 07004KT 9999 NCD 18/13 Q1020
                        NOSIG=
201707180120 METAR COR EGLL 180120Z AUTO 07005KT 040V110 9999 NCD 18/13
                        Q1021 NOSIG=
201707180050 METAR COR EGLL 180050Z AUTO 07005KT 9999 NCD 18/12 Q1021
                        NOSIG=
201707180020 METAR COR EGLL 180020Z AUTO 08005KT 9999 NCD 18/12 Q1021
                        NOSIG=
201707172350 METAR COR EGLL 172350Z AUTO 10007KT 9999 NCD 18/11 Q1021
                        NOSIG=
201707172320 METAR COR EGLL 172320Z AUTO 09006KT 9999 NCD 19/10 Q1021
                        NOSIG=
201707172250 METAR COR EGLL 172250Z AUTO 10009KT 9999 NCD 19/11 Q1021
                        NOSIG=
201707172220 METAR COR EGLL 172220Z AUTO 09006KT 9999 NCD 20/11 Q1021
                        NOSIG=
201707172150 METAR COR EGLL 172150Z AUTO 10007KT 9999 NCD 20/10 Q1021
                        NOSIG=
201707172120 METAR COR EGLL 172120Z AUTO 09006KT 9999 NCD 20/10 Q1021
                        NOSIG=
201707172050 METAR COR EGLL 172050Z AUTO 11007KT 9999 NCD 21/10 Q1021
                        NOSIG=
201707172020 METAR COR EGLL 172020Z AUTO 12009KT 9999 NCD 22/11 Q1021
                        NOSIG=
201707171950 METAR COR EGLL 171950Z AUTO 11009KT 9999 NCD 23/12 Q1021
                        NOSIG=
201707171920 METAR COR EGLL 171920Z AUTO 05005KT 020V080 9999 NCD 24/10
                        Q1021 NOSIG=
201707171850 METAR COR EGLL 171850Z AUTO 04006KT 9999 NCD 24/07 Q1021
                        NOSIG=
201707171820 METAR COR EGLL 171820Z AUTO 05006KT 010V080 9999 NCD 25/08
                        Q1021 NOSIG=
201707171750 METAR COR EGLL 171750Z AUTO 05005KT 360V090 9999 NCD 25/07
                        Q1021 NOSIG=
201707171720 METAR COR EGLL 171720Z AUTO 04006KT 020V080 9999 NCD 25/08
                        Q1021 NOSIG=
201707171650 METAR COR EGLL 171650Z AUTO 05005KT 340V100 9999 NCD 25/07
                        Q1021 NOSIG=
201707171620 METAR COR EGLL 171620Z AUTO 02005KT 330V060 9999 NCD 25/07
                        Q1021 NOSIG=
201707171550 METAR COR EGLL 171550Z AUTO 36005KT 330V070 9999 NCD 25/06
                        Q1021 NOSIG=
201707171520 METAR COR EGLL 171520Z AUTO 06008KT 030V110 9999 NCD 25/06
                        Q1022 NOSIG=
201707171450 METAR COR EGLL 171450Z AUTO 07004KT 340V140 9999 NCD 26/07
                        Q1022 NOSIG=
201707171420 METAR COR EGLL 171420Z AUTO 07005KT 020V140 9999 NCD 26/06
                        Q1022 NOSIG=
201707171350 METAR COR EGLL 171350Z AUTO 02004KT 300V080 9999 NCD 25/07
                        Q1022 NOSIG=
201707171320 METAR COR EGLL 171320Z AUTO 10006KT 040V150 9999 NCD 25/07
                        Q1023 NOSIG=
201707171250 METAR COR EGLL 171250Z AUTO 03006KT 330V080 9999 NCD 25/07
                        Q1023 NOSIG=
201707171220 METAR COR EGLL 171220Z AUTO 02005KT 310V080 9999 NCD 24/07
                        Q1023 NOSIG=
201707171150 METAR COR EGLL 171150Z AUTO 03007KT 360V090 9999 NCD 24/07
                        Q1023 NOSIG=
201707171120 METAR COR EGLL 171120Z AUTO 06005KT 350V120 9999 NCD 23/08
                        Q1024 NOSIG=
201707171050 METAR COR EGLL 171050Z AUTO 01005KT 300V050 9999 NCD 22/09
                        Q1024 NOSIG=
201707171020 METAR COR EGLL 171020Z AUTO 03006KT 330V060 9999 NCD 22/10
                        Q1024 NOSIG=
201707170950 METAR COR EGLL 170950Z AUTO 01005KT 310V090 9999 NCD 21/09
                        Q1024 NOSIG=
201707170920 METAR COR EGLL 170920Z AUTO 04006KT 330V100 9999 NCD 20/10
                        Q1024 NOSIG=
201707170850 METAR COR EGLL 170850Z AUTO 02006KT 330V070 9999 NCD 19/10
                        Q1025 NOSIG=
201707170820 METAR COR EGLL 170820Z AUTO 03005KT 320V080 9999 NCD 19/10
                        Q1025 NOSIG=
201707170750 METAR COR EGLL 170750Z AUTO 36005KT 330V050 9999 NCD 18/10
                        Q1025 NOSIG=
201707170720 METAR COR EGLL 170720Z AUTO 35004KT 290V040 9999 NCD 17/10
                        Q1025 NOSIG=
201707170650 METAR COR EGLL 170650Z AUTO 02005KT 330V060 9999 NCD 16/10
                        Q1025 NOSIG=
201707170620 METAR COR EGLL 170620Z AUTO 36004KT 320V040 9999 NCD 16/09
                        Q1025 NOSIG=
201707170550 METAR EGLL 170550Z AUTO VRB03KT 9999 FEW044 15/09 Q1025=
201707170520 METAR COR EGLL 170520Z AUTO 36005KT 9999 FEW047 15/09 Q1024
                        NOSIG=
201707170450 METAR COR EGLL 170450Z AUTO 36003KT 9999 FEW049 15/09 Q1024
                        NOSIG=
201707170420 METAR COR EGLL 170420Z AUTO 01004KT 340V070 9999 NCD 16/09
                        Q1024 NOSIG=
201707170350 METAR COR EGLL 170350Z AUTO 02005KT 340V060 9999 NCD 16/09
                        Q1024 NOSIG=
201707170320 METAR COR EGLL 170320Z AUTO 36005KT 330V030 9999 FEW042 16/09
                        Q1024 NOSIG=
201707170250 METAR COR EGLL 170250Z AUTO 03005KT 350V060 9999 OVC041 17/09
                        Q1024 NOSIG=
201707170220 METAR COR EGLL 170220Z AUTO 03006KT 350V060 9999 OVC049 17/09
                        Q1024 NOSIG=
201707170150 METAR COR EGLL 170150Z AUTO 03009KT 010V070 9999 FEW039 OVC048
                        17/09 Q1024 NOSIG=
201707170120 METAR COR EGLL 170120Z AUTO 01009KT 330V050 9999 OVC046 18/09
                        Q1024 NOSIG=
201707170050 METAR COR EGLL 170050Z AUTO 36008KT 330V040 9999 OVC039 18/10
                        Q1024 NOSIG=
201707170020 METAR COR EGLL 170020Z AUTO 02006KT 340V050 9999 SCT032 OVC039
                        19/11 Q1023 NOSIG=
201707162350 METAR COR EGLL 162350Z AUTO VRB03KT 9999 BKN031 19/16 Q1023
                        NOSIG=
201707162320 METAR COR EGLL 162320Z AUTO 30004KT 9999 BKN031 19/17 Q1023
                        NOSIG=
201707162250 METAR COR EGLL 162250Z AUTO VRB03KT 9999 BKN042 20/16 Q1023
                        NOSIG=
201707162220 METAR COR EGLL 162220Z AUTO VRB03KT 9999 OVC035 20/16 Q1023
                        NOSIG=
201707162150 METAR COR EGLL 162150Z AUTO 36004KT 330V040 9999 OVC031 20/16
                        Q1023 NOSIG=
201707162120 METAR COR EGLL 162120Z AUTO 34004KT 290V020 9999 BKN029 20/16
                        Q1023 NOSIG=
201707162050 METAR COR EGLL 162050Z AUTO 32006KT 9999 BKN018 21/17 Q1023
                        NOSIG=
201707162020 METAR COR EGLL 162020Z AUTO 32006KT 9999 -RA OVC020/// //////CB
                        22/17 Q1023 NOSIG=
201707161950 METAR COR EGLL 161950Z AUTO 34004KT 300V010 9999 BKN021///
                        //////TCU 22/17 Q1022 NOSIG=
201707161920 METAR COR EGLL 161920Z AUTO 34004KT 290V030 9999 BKN032 23/18
                        Q1022 NOSIG=
201707161850 METAR COR EGLL 161850Z AUTO 35004KT 310V020 9999 BKN034 23/17
                        Q1022 NOSIG=
201707161820 METAR COR EGLL 161820Z AUTO 36006KT 330V030 9999 -RA BKN029
                        BKN047 23/17 Q1022 NOSIG=
201707161750 METAR COR EGLL 161750Z AUTO 24009KT 9999 FEW036 BKN048 24/17
                        Q1022 NOSIG=
201707161720 METAR COR EGLL 161720Z AUTO 24009KT 9999 //////CB 24/17 Q1022
                        NOSIG=
201707161650 METAR EGLL 161650Z AUTO 27010KT 9999 FEW042/// //////CB 25/17
                        Q1022=
201707161620 METAR COR EGLL 161620Z AUTO 24008KT 200V260 9999 BKN031 25/17
                        Q1022 NOSIG=
201707161550 METAR COR EGLL 161550Z AUTO 27009KT 240V300 9999 -RA BKN030///
                        //////TCU 24/17 Q1022 NOSIG=
201707161520 METAR COR EGLL 161520Z AUTO 27010KT 9999 BKN030/// //////TCU
                        24/17 Q1022 NOSIG=
201707161450 METAR COR EGLL 161450Z AUTO 27010KT 240V300 9999 SCT034///
                        SCT041/// //////CB 25/17 Q1023 NOSIG=
201707161420 METAR COR EGLL 161420Z AUTO 26012KT 220V290 9999 BKN027 OVC042
                        25/17 Q1023 NOSIG=
201707161350 METAR COR EGLL 161350Z AUTO 27011KT 9999 BKN027 25/17 Q1023
                        NOSIG=
201707161320 METAR COR EGLL 161320Z AUTO 24010KT 9999 BKN026 25/17 Q1023
                        NOSIG=
201707161250 METAR COR EGLL 161250Z AUTO 25009KT 210V290 9999 OVC024 24/17
                        Q1023 NOSIG=
201707161220 METAR COR EGLL 161220Z AUTO 25009KT 9999 OVC023 23/17 Q1023
                        NOSIG=
201707161150 METAR COR EGLL 161150Z AUTO 26010KT 9999 OVC022 23/17 Q1023
                        NOSIG=
201707161120 METAR EGLL 161120Z AUTO 27010KT 9999 OVC022 22/17 Q1023 NOSIG=
201707161050 METAR COR EGLL 161050Z AUTO 25010KT 9999 OVC022 22/16 Q1023
                        NOSIG=
201707161020 METAR COR EGLL 161020Z AUTO 26011KT 9999 OVC021 22/16 Q1023
                        NOSIG=
201707160950 METAR COR EGLL 160950Z AUTO 25012KT 9999 OVC020 22/16 Q1023
                        NOSIG=
201707160920 METAR EGLL 160920Z AUTO 27011KT 9999 OVC019 22/16 Q1023 NOSIG=
201707160850 METAR COR EGLL 160850Z AUTO 25012KT 210V270 9999 OVC018 22/16
                        Q1023 NOSIG=
201707160820 METAR COR EGLL 160820Z AUTO 26010KT 9999 BKN016 22/17 Q1023
                        NOSIG=
201707160750 METAR COR EGLL 160750Z 26011KT 9999 SCT017 21/16 Q1023 NOSIG=
201707160720 METAR COR EGLL 160720Z 27009KT 9999 FEW014 BKN021 20/16 Q1023
                        NOSIG=
201707160650 METAR COR EGLL 160650Z 26009KT 230V290 9999 FEW013 OVC020
                        19/16 Q1023 NOSIG=
201707160620 METAR COR EGLL 160620Z 26009KT 9999 FEW012 OVC018 19/16 Q1023
                        TEMPO BKN014=
201707160550 METAR COR EGLL 160550Z AUTO 27009KT 9999 SCT010 OVC022 18/16
                        Q1023 TEMPO BKN012=
201707160520 METAR COR EGLL 160520Z AUTO 26011KT 9999 OVC010 18/16 Q1022
                        NOSIG=
201707160450 METAR EGLL 160450Z AUTO 26013KT 9999 BKN011 18/16 Q1022 NOSIG=
201707160420 METAR COR EGLL 160420Z AUTO 24006KT 9999 NCD 18/15 Q1022
                        NOSIG=
201707160350 METAR COR EGLL 160350Z AUTO 26007KT 9999 FEW020 18/15 Q1022
                        NOSIG=
201707160320 METAR COR EGLL 160320Z AUTO 27008KT 9999 BKN015 19/15 Q1022
                        NOSIG=
201707160250 METAR COR EGLL 160250Z AUTO 28010KT 240V300 9999 OVC012 19/16
                        Q1022 NOSIG=
201707160220 METAR COR EGLL 160220Z AUTO 25010KT 9999 OVC014 19/16 Q1022
                        NOSIG=
201707160150 METAR COR EGLL 160150Z AUTO 25008KT 9999 OVC012 19/16 Q1022
                        NOSIG=
201707160120 METAR COR EGLL 160120Z AUTO 24009KT 9999 BKN013 19/16 Q1022
                        NOSIG=
201707160050 METAR EGLL 160050Z AUTO 25008KT 9999 BKN010 19/16 Q1022 NOSIG=
201707160020 METAR COR EGLL 160020Z AUTO 25009KT 9999 OVC011 19/16 Q1022
                        NOSIG=
201707152350 METAR COR EGLL 152350Z AUTO 25008KT 9999 OVC013 19/16 Q1022
                        NOSIG=
201707152320 METAR COR EGLL 152320Z AUTO 26008KT 9999 BKN013 19/16 Q1022
                        NOSIG=
201707152250 METAR COR EGLL 152250Z AUTO 26008KT 9999 BKN011 19/16 Q1022
                        NOSIG=
201707152220 METAR COR EGLL 152220Z AUTO 24007KT 9999 BKN013 20/16 Q1022
                        NOSIG=
201707152150 METAR COR EGLL 152150Z AUTO 25011KT 9999 BKN016 20/16 Q1022
                        TEMPO BKN014=
201707152120 METAR COR EGLL 152120Z AUTO 24009KT 9999 FEW017 20/16 Q1022
                        NOSIG=
201707152050 METAR COR EGLL 152050Z AUTO 25012KT 9999 SCT017 20/16 Q1021
                        NOSIG=
201707152020 METAR EGLL 152020Z AUTO 26010KT 9999 SCT019 21/16 Q1021 NOSIG=
201707151950 METAR COR EGLL 151950Z AUTO 24009KT 9999 BKN021 21/16 Q1021
                        NOSIG=
201707151920 METAR EGLL 151920Z AUTO 26010KT 9999 BKN023 21/16 Q1021 NOSIG=
201707151850 METAR EGLL 151850Z AUTO 25011KT 9999 BKN021 22/16 Q1021 NOSIG=
201707151820 METAR COR EGLL 151820Z AUTO 27013KT 9999 OVC022 22/16 Q1021
                        NOSIG=
201707151750 METAR COR EGLL 151750Z AUTO 26012KT 9999 OVC023 22/16 Q1021
                        NOSIG=
201707151720 METAR EGLL 151720Z AUTO 24012KT 9999 BKN023 22/16 Q1021 NOSIG=
201707151650 METAR COR EGLL 151650Z AUTO 25012KT 9999 BKN024 22/16 Q1021
                        NOSIG=
201707151620 METAR EGLL 151620Z AUTO 24012KT 9999 OVC022 22/16 Q1021 NOSIG=
201707151550 METAR COR EGLL 151550Z AUTO 25011KT 220V280 9999 OVC022 21/15
                        Q1021 NOSIG=
201707151520 METAR EGLL 151520Z AUTO 23011KT 9999 OVC023 21/15 Q1021=
201707151450 METAR COR EGLL 151450Z 24010KT 200V260 9999 BKN025 20/15
                        Q1021 NOSIG=
201707151420 METAR EGLL 151420Z 21009KT 170V250 9999 FEW015 BKN023 20/15
                        Q1021 NOSIG=
201707151350 METAR COR EGLL 151350Z 23009KT 9999 FEW015 BKN022 19/15 Q1022
                        NOSIG=
201707151320 METAR EGLL 151320Z 22007KT 190V260 9999 FEW017 BKN022 18/16
                        Q1022 NOSIG=
201707151250 METAR COR EGLL 151250Z 23009KT 190V260 9999 FEW006 SCT010
                        BKN020 17/15 Q1022 NOSIG=
201707151220 METAR EGLL 151220Z 22009KT 8000 FEW006 SCT009 BKN016 16/15
                        Q1022=
201707151150 METAR COR EGLL 151150Z 23009KT 6000 -RADZ SCT011 BKN015 17/15
                        Q1023 TEMPO 4000 BKN012=
201707151120 METAR COR EGLL 151120Z 24010KT 8000 -RA FEW022 BKN031 17/14
                        Q1023 TEMPO 4000 -DZ BKN012=
201707151050 METAR COR EGLL 151050Z 24009KT 9999 SCT020 BKN029 17/14 Q1023
                        TEMPO BKN014=
201707151020 METAR COR EGLL 151020Z 23010KT 9999 SCT018 BKN039 18/13 Q1023
                        TEMPO BKN014=
201707150950 METAR COR EGLL 150950Z 24011KT 9999 FEW014 SCT016 BKN031
                        17/13 Q1022 TEMPO BKN014=
201707150920 METAR COR EGLL 150920Z AUTO 24011KT 9999 OVC018 18/12 Q1022
                        NOSIG=
201707150850 METAR COR EGLL 150850Z AUTO 25011KT 9999 OVC018 17/12 Q1022
                        NOSIG=
201707150820 METAR EGLL 150820Z AUTO 26011KT 9999 SCT019 18/12 Q1022 NOSIG=
201707150750 METAR COR EGLL 150750Z AUTO 25010KT 9999 FEW022 18/12 Q1022
                        NOSIG=
201707150720 METAR EGLL 150720Z AUTO 24008KT 210V270 9999 NCD 17/12 Q1022
                        NOSIG=
201707150650 METAR EGLL 150650Z AUTO 24009KT 9999 NCD 16/12 Q1022 NOSIG=
201707150620 METAR COR EGLL 150620Z AUTO 24007KT 180V270 9999 NCD 16/12
                        Q1022 NOSIG=
201707150550 METAR EGLL 150550Z AUTO 23006KT 9999 NCD 16/12 Q1022 NOSIG=
201707150520 METAR EGLL 150520Z AUTO 25006KT 9999 NCD 16/12 Q1022 NOSIG=
201707150450 METAR COR EGLL 150450Z AUTO 25006KT 9999 NCD 15/12 Q1022
                        NOSIG=
201707150420 METAR COR EGLL 150420Z AUTO 26007KT 9999 NCD 15/12 Q1022
                        NOSIG=
201707150350 METAR COR EGLL 150350Z AUTO 27007KT 9999 NCD 15/12 Q1022
                        NOSIG=
201707150320 METAR EGLL 150320Z AUTO 25006KT 9999 NCD 16/12 Q1022 NOSIG=
201707150250 METAR COR EGLL 150250Z AUTO 26008KT 9999 NCD 16/12 Q1022
                        NOSIG=
201707150220 METAR EGLL 150220Z AUTO 26008KT 9999 NCD 16/12 Q1022 NOSIG=
201707150150 METAR COR EGLL 150150Z AUTO 26007KT 9999 NCD 16/12 Q1022
                        NOSIG=
201707150120 METAR COR EGLL 150120Z AUTO 26006KT 9999 NCD 16/11 Q1022
                        NOSIG=
201707150050 METAR COR EGLL 150050Z AUTO 27005KT 9999 NCD 16/11 Q1022
                        NOSIG=
201707150020 METAR EGLL 150020Z AUTO 26006KT 9999 NCD 16/10 Q1022 NOSIG=
201707142350 METAR COR EGLL 142350Z AUTO 27008KT 9999 NCD 16/10 Q1022
                        NOSIG=
201707142320 METAR COR EGLL 142320Z AUTO 28005KT 9999 NCD 16/10 Q1022
                        NOSIG=
201707142250 METAR COR EGLL 142250Z AUTO 29005KT 9999 NCD 16/10 Q1022
                        NOSIG=
201707142220 METAR EGLL 142220Z AUTO 30004KT 9999 NCD 17/09 Q1022 NOSIG=
201707142150 METAR EGLL 142150Z AUTO 29005KT 9999 NCD 17/09 Q1022 NOSIG=
201707142120 METAR EGLL 142120Z AUTO 30004KT 9999 NCD 18/09 Q1022 NOSIG=
201707142050 METAR EGLL 142050Z AUTO 30005KT 260V320 9999 NCD 18/09 Q1022
                        NOSIG=
201707142020 METAR EGLL 142020Z AUTO 29005KT 9999 NCD 18/09 Q1021 NOSIG=
201707141950 METAR COR EGLL 141950Z AUTO 29006KT 9999 FEW047 19/08 Q1021
                        NOSIG=
201707141920 METAR EGLL 141920Z AUTO 31006KT 9999 FEW048 19/08 Q1021 NOSIG=
201707141850 METAR COR EGLL 141850Z AUTO 30009KT 9999 NCD 20/08 Q1021
                        NOSIG=
201707141820 METAR EGLL 141820Z AUTO 29007KT 9999 NCD 20/08 Q1021=
201707141750 METAR COR EGLL 141750Z AUTO 31006KT 280V010 9999 NCD 21/08
                        Q1021 NOSIG=
201707141720 METAR COR EGLL 141720Z AUTO 30007KT 9999 NCD 20/08 Q1021
                        NOSIG=
201707141650 METAR COR EGLL 141650Z AUTO 30009KT 270V330 9999 NCD 20/07
                        Q1021 NOSIG=
201707141620 METAR COR EGLL 141620Z AUTO 30008KT 270V360 9999 NCD 21/07
                        Q1021 NOSIG=
201707141550 METAR COR EGLL 141550Z AUTO 31009KT 9999 BKN048 21/08 Q1021
                        NOSIG=
201707141520 METAR COR EGLL 141520Z AUTO 32007KT 280V010 9999 BKN046 21/08
                        Q1021 NOSIG=
201707141450 METAR COR EGLL 141450Z AUTO 31007KT 260V350 9999 BKN047 21/08
                        Q1021 NOSIG=
201707141420 METAR COR EGLL 141420Z AUTO 33006KT 290V040 9999 BKN044 20/08
                        Q1021 NOSIG=
201707141350 METAR COR EGLL 141350Z AUTO 33006KT 280V020 9999 BKN043 20/08
                        Q1021 NOSIG=
201707141320 METAR COR EGLL 141320Z AUTO 31008KT 280V360 9999 BKN044 20/08
                        Q1020 NOSIG=
201707141250 METAR COR EGLL 141250Z AUTO 29011KT 260V340 9999 OVC042 20/08
                        Q1020 NOSIG=
201707141220 METAR COR EGLL 141220Z AUTO 32008KT 280V010 9999 OVC040 19/09
                        Q1020 NOSIG=
201707141150 METAR COR EGLL 141150Z AUTO 31008KT 270V350 9999 OVC039 19/08
                        Q1020 NOSIG=
201707141120 METAR COR EGLL 141120Z AUTO 30010KT 9999 BKN044 19/07 Q1020
                        NOSIG=
201707141050 METAR COR EGLL 141050Z AUTO 31009KT 9999 OVC037 19/07 Q1020
                        NOSIG=
201707141020 METAR COR EGLL 141020Z AUTO 30009KT 270V350 9999 FEW034 OVC048
                        19/09 Q1020 NOSIG=
201707140950 METAR COR EGLL 140950Z AUTO 31008KT 270V030 9999 FEW034 BKN048
                        19/09 Q1019 NOSIG=
201707140920 METAR COR EGLL 140920Z AUTO 31008KT 270V350 9999 BKN030 18/09
                        Q1019 NOSIG=
201707140850 METAR COR EGLL 140850Z AUTO 32009KT 290V010 9999 -RA SCT027
                        BKN049 18/10 Q1019 NOSIG=
201707140820 METAR COR EGLL 140820Z 30008KT 270V340 9999 FEW019 18/12
                        Q1019 NOSIG=
201707140750 METAR COR EGLL 140750Z 31008KT 280V340 9999 SCT019 SCT023
                        17/13 Q1019 NOSIG=
201707140720 METAR COR EGLL 140720Z 28007KT 9999 SCT013 SCT018 BKN021
                        17/13 Q1018 NOSIG=
201707140650 METAR COR EGLL 140650Z 27009KT 9999 SCT012 SCT022 BKN047
                        16/13 Q1018 NOSIG=
201707140620 METAR COR EGLL 140620Z 27008KT 9999 FEW013 BKN021 BKN047
                        16/13 Q1018 NOSIG=
201707140550 METAR COR EGLL 140550Z AUTO 27007KT 9999 SCT014 BKN043 16/13
                        Q1018 NOSIG=
201707140520 METAR COR EGLL 140520Z AUTO 24006KT 9999 SCT044 15/13 Q1018
                        NOSIG=
201707140450 METAR COR EGLL 140450Z AUTO 24006KT 9999 BKN035 15/13 Q1018
                        NOSIG=
201707140420 METAR COR EGLL 140420Z AUTO 26007KT 9999 FEW015 BKN026 15/13
                        Q1018 NOSIG=
201707140350 METAR COR EGLL 140350Z AUTO 25006KT 9999 NCD 14/13 Q1018
                        NOSIG=
201707140320 METAR COR EGLL 140320Z AUTO 24006KT 9999 NCD 15/12 Q1018
                        NOSIG=
201707140250 METAR COR EGLL 140250Z AUTO 23006KT 9999 FEW018 15/12 Q1018
                        NOSIG=
201707140220 METAR COR EGLL 140220Z AUTO 23006KT 9999 BKN017 15/12 Q1018
                        NOSIG=
201707140150 METAR COR EGLL 140150Z AUTO 23007KT 9999 FEW037 15/12 Q1018
                        NOSIG=
201707140120 METAR COR EGLL 140120Z AUTO 24007KT 9999 BKN035 16/12 Q1018
                        NOSIG=
201707140050 METAR COR EGLL 140050Z AUTO 24008KT 9999 NCD 16/11 Q1019
                        NOSIG=
201707140020 METAR COR EGLL 140020Z AUTO 24007KT 9999 NCD 17/11 Q1019
                        NOSIG=
201707132350 METAR COR EGLL 132350Z AUTO 24007KT 9999 NCD 17/10 Q1019
                        NOSIG=
201707132320 METAR COR EGLL 132320Z AUTO 24008KT 9999 NCD 17/10 Q1019
                        NOSIG=
201707132250 METAR COR EGLL 132250Z AUTO 23008KT 9999 NCD 18/10 Q1019
                        NOSIG=
201707132220 METAR COR EGLL 132220Z AUTO 24009KT 9999 NCD 18/10 Q1019
                        NOSIG=
201707132150 METAR COR EGLL 132150Z AUTO 24012KT 9999 NCD 19/10 Q1019
                        NOSIG=
201707132120 METAR COR EGLL 132120Z AUTO 24011KT 9999 NCD 19/09 Q1019
                        NOSIG=
201707132050 METAR COR EGLL 132050Z AUTO 24011KT 9999 NCD 20/10 Q1019
                        NOSIG=
201707132020 METAR COR EGLL 132020Z AUTO 24011KT 9999 NCD 20/10 Q1019
                        NOSIG=
201707131950 METAR COR EGLL 131950Z AUTO 24010KT 9999 NCD 20/10 Q1019
                        NOSIG=
201707131920 METAR COR EGLL 131920Z AUTO 25009KT 9999 NCD 20/09 Q1019
                        NOSIG=
201707131850 METAR COR EGLL 131850Z AUTO 24009KT 9999 NCD 21/09 Q1019
                        NOSIG=
201707131820 METAR COR EGLL 131820Z AUTO 25010KT 9999 NCD 21/09 Q1019
                        NOSIG=
201707131750 METAR COR EGLL 131750Z AUTO 24009KT 200V270 9999 NCD 21/09
                        Q1019 NOSIG=
201707131720 METAR COR EGLL 131720Z AUTO 26009KT 230V300 9999 NCD 22/08
                        Q1020 NOSIG=
201707131650 METAR COR EGLL 131650Z AUTO 27010KT 9999 NCD 22/08 Q1020
                        NOSIG=
201707131620 METAR COR EGLL 131620Z AUTO 29006KT 260V340 9999 NCD 22/08
                        Q1020 NOSIG=
201707131550 METAR COR EGLL 131550Z AUTO 28005KT 190V310 9999 NCD 22/07
                        Q1020 NOSIG=
201707131520 METAR COR EGLL 131520Z AUTO 23008KT 180V280 9999 NCD 22/07
                        Q1020 NOSIG=
201707131450 METAR COR EGLL 131450Z AUTO 25008KT 200V280 9999 NCD 22/06
                        Q1020 NOSIG=
201707131420 METAR COR EGLL 131420Z AUTO 22007KT 140V280 9999 NCD 22/06
                        Q1021 NOSIG=
201707131350 METAR COR EGLL 131350Z AUTO 27005KT 220V040 9999 NCD 22/06
                        Q1021 NOSIG=
201707131320 METAR COR EGLL 131320Z AUTO 26005KT 180V330 9999 FEW048 22/07
                        Q1021 NOSIG=
201707131250 METAR COR EGLL 131250Z AUTO 23007KT 200V280 9999 FEW047 21/08
                        Q1021 NOSIG=
201707131220 METAR COR EGLL 131220Z AUTO 26004KT 210V340 9999 NCD 20/09
                        Q1022 NOSIG=
201707131150 METAR COR EGLL 131150Z AUTO 23005KT 170V270 9999 NCD 20/09
                        Q1022 NOSIG=
201707131120 METAR COR EGLL 131120Z AUTO 24007KT 220V290 9999 NCD 19/09
                        Q1022 NOSIG=
201707131050 METAR COR EGLL 131050Z AUTO 26007KT 220V290 9999 NCD 18/10
                        Q1022 NOSIG=
201707131020 METAR COR EGLL 131020Z AUTO 26007KT 9999 FEW040 18/10 Q1022
                        NOSIG=
201707130950 METAR COR EGLL 130950Z AUTO VRB05KT 9999 SCT035 19/10 Q1022
                        NOSIG=
201707130920 METAR COR EGLL 130920Z AUTO 15005KT 090V200 9999 FEW036 20/09
                        Q1023 NOSIG=
201707130850 METAR COR EGLL 130850Z AUTO VRB03KT 9999 NCD 19/09 Q1023
                        NOSIG=
201707130820 METAR COR EGLL 130820Z AUTO VRB05KT 9999 NCD 19/10 Q1023
                        NOSIG=
201707130750 METAR COR EGLL 130750Z AUTO 22005KT 200V260 9999 NCD 18/10
                        Q1023 NOSIG=
201707130720 METAR COR EGLL 130720Z AUTO 21004KT 170V240 9999 NCD 17/11
                        Q1023 NOSIG=
201707130650 METAR COR EGLL 130650Z AUTO 17005KT 130V220 9999 NCD 17/11
                        Q1023 NOSIG=
201707130620 METAR COR EGLL 130620Z AUTO 15004KT 120V190 9999 NCD 15/11
                        Q1023 NOSIG=
201707130550 METAR COR EGLL 130550Z AUTO 17002KT 9999 NCD 15/11 Q1023
                        NOSIG=
201707130520 METAR COR EGLL 130520Z AUTO 15004KT 9999 NCD 15/10 Q1023
                        NOSIG=
201707130450 METAR COR EGLL 130450Z AUTO 16003KT 9999 NCD 14/10 Q1023
                        NOSIG=
201707130420 METAR COR EGLL 130420Z AUTO 20002KT 9999 NCD 13/10 Q1023
                        NOSIG=
201707130350 METAR COR EGLL 130350Z AUTO 15004KT 9999 NCD 14/10 Q1023
                        NOSIG=
201707130320 METAR COR EGLL 130320Z AUTO 17005KT 9999 NCD 14/10 Q1023
                        NOSIG=
201707130250 METAR COR EGLL 130250Z AUTO 19005KT 9999 NCD 15/10 Q1023
                        NOSIG=
201707130220 METAR COR EGLL 130220Z AUTO 15005KT 9999 NCD 15/10 Q1023
                        NOSIG=
201707130150 METAR COR EGLL 130150Z AUTO 15005KT 9999 NCD 15/11 Q1023
                        NOSIG=
201707130120 METAR COR EGLL 130120Z AUTO 17004KT 9999 FEW021 16/12 Q1023
                        NOSIG=
201707130050 METAR COR EGLL 130050Z AUTO 15004KT 9999 FEW018 16/12 Q1023
                        NOSIG=
201707130020 METAR COR EGLL 130020Z AUTO 13006KT 9999 FEW036 16/11 Q1023
                        NOSIG=
201707122350 METAR COR EGLL 122350Z AUTO 13005KT 9999 FEW027 16/11 Q1023
                        NOSIG=
201707122320 METAR COR EGLL 122320Z AUTO 12006KT 100V160 9999 SCT022 16/10
                        Q1023 NOSIG=
201707122250 METAR COR EGLL 122250Z AUTO 12007KT 9999 NCD 15/11 Q1023
                        NOSIG=
201707122220 METAR COR EGLL 122220Z AUTO 11009KT 9999 FEW045 16/11 Q1023
                        NOSIG=
201707122150 METAR COR EGLL 122150Z AUTO 11006KT 9999 BKN041 16/10 Q1023
                        NOSIG=
201707122120 METAR COR EGLL 122120Z AUTO 06007KT 9999 FEW043 17/07 Q1023
                        NOSIG=
201707122050 METAR COR EGLL 122050Z AUTO 06007KT 9999 NCD 18/06 Q1023
                        NOSIG=
201707122020 METAR COR EGLL 122020Z AUTO 05006KT 9999 NCD 18/07 Q1022
                        NOSIG=
201707121950 METAR COR EGLL 121950Z AUTO 05006KT 9999 NCD 19/07 Q1022
                        NOSIG=
201707121920 METAR COR EGLL 121920Z AUTO 05006KT 020V090 9999 NCD 20/07
                        Q1022 NOSIG=
201707121850 METAR COR EGLL 121850Z AUTO 05006KT 360V080 9999 NCD 20/07
                        Q1021 NOSIG=
201707121820 METAR COR EGLL 121820Z AUTO 04007KT 360V070 9999 NCD 21/06
                        Q1021 NOSIG=
201707121750 METAR COR EGLL 121750Z AUTO 03006KT 330V090 9999 NCD 21/06
                        Q1021 NOSIG=
201707121720 METAR COR EGLL 121720Z AUTO 07006KT 030V090 9999 NCD 20/07
                        Q1020 NOSIG=
201707121650 METAR COR EGLL 121650Z AUTO 06007KT 340V100 9999 NCD 21/07
                        Q1020 NOSIG=
201707121620 METAR COR EGLL 121620Z AUTO 36006KT 330V040 9999 NCD 21/07
                        Q1020 NOSIG=
201707121550 METAR COR EGLL 121550Z AUTO 36006KT 320V050 9999 NCD 22/07
                        Q1020 NOSIG=
201707121520 METAR COR EGLL 121520Z AUTO 01006KT 330V050 9999 NCD 21/08
                        Q1020 NOSIG=
201707121450 METAR COR EGLL 121450Z AUTO 02006KT 330V080 9999 BKN049 21/08
                        Q1019 NOSIG=
201707121420 METAR COR EGLL 121420Z AUTO 04005KT 340V110 9999 BKN047 20/08
                        Q1019 NOSIG=
201707121350 METAR COR EGLL 121350Z AUTO 02006KT 320V110 9999 BKN044 21/08
                        Q1019 NOSIG=
201707121320 METAR COR EGLL 121320Z AUTO 02008KT 340V050 9999 BKN039 20/09
                        Q1018 NOSIG=
201707121250 METAR COR EGLL 121250Z AUTO 02007KT 330V060 9999 BKN038 20/09
                        Q1018 NOSIG=
201707121220 METAR COR EGLL 121220Z AUTO 35007KT 310V020 9999 BKN034 19/09
                        Q1017 NOSIG=
201707121150 METAR COR EGLL 121150Z AUTO 01007KT 310V050 9999 BKN027 18/11
                        Q1017 NOSIG=
201707121120 METAR COR EGLL 121120Z 03008KT 330V060 9999 FEW021 BKN036
                        18/11 Q1016 NOSIG=
201707121050 METAR COR EGLL 121050Z 36009KT 330V050 9999 FEW018 BKN033
                        17/12 Q1016 NOSIG=
201707121020 METAR COR EGLL 121020Z 01008KT 330V060 9999 FEW018 BKN031
                        17/12 Q1015 NOSIG=
201707120950 METAR COR EGLL 120950Z 36010KT 9999 FEW012 BKN023 16/13 Q1015
                        NOSIG=
201707120920 METAR COR EGLL 120920Z 01010KT 340V040 9999 FEW012 BKN024
                        16/13 Q1014 NOSIG=
201707120850 METAR COR EGLL 120850Z 02009KT 340V050 9999 FEW016 BKN021
                        16/13 Q1013 NOSIG=
201707120820 METAR COR EGLL 120820Z 03009KT 350V060 9999 FEW014 BKN016
                        16/13 Q1012 NOSIG=
201707120750 METAR COR EGLL 120750Z AUTO 36007KT 320V030 9999 BKN007 15/13
                        Q1012 BECMG BKN010=
201707120720 METAR COR EGLL 120720Z AUTO 36009KT 310V040 9999 BKN009 OVC023
                        15/13 Q1011 BECMG BKN010=
201707120650 METAR COR EGLL 120650Z AUTO 36008KT 9999 BKN008 OVC023 15/13
                        Q1010 BECMG BKN010=
201707120620 METAR COR EGLL 120620Z AUTO 36007KT 320V040 9999 BKN006 OVC016
                        15/13 Q1010 NOSIG=
201707120550 METAR COR EGLL 120550Z AUTO 36008KT 310V020 8000 BKN006 14/13
                        Q1009 NOSIG=
201707120520 METAR COR EGLL 120520Z AUTO 34004KT 280V030 5000 -RADZ BKN005
                        15/14 Q1009 NOSIG=
201707120450 METAR COR EGLL 120450Z 34004KT 300V020 8000 BKN008 15/14
                        Q1008 NOSIG=
201707120420 METAR COR EGLL 120420Z 01007KT 320V040 9999 -RA BKN007 OVC032
                        15/14 Q1007 RERA NOSIG=
201707120350 METAR COR EGLL 120350Z 36007KT 340V040 7000 RA BKN006 BKN016
                        14/14 Q1007 BECMG -RA=
201707120320 METAR COR EGLL 120320Z 01007KT 340V050 5000 RA BKN007 15/14
                        Q1006 BECMG -RA=
201707120250 METAR COR EGLL 120250Z AUTO 36007KT 330V040 9999 -RA BKN005///
                        //////CB 15/14 Q1005 TEMPO 6000 RA=
201707120220 METAR COR EGLL 120220Z AUTO 36005KT 320V030 9000 -RA BKN005///
                        OVC048/// //////CB 15/14 Q1005 TEMPO
                        RA=
201707120150 METAR COR EGLL 120150Z AUTO 36005KT 320V040 9999 -RA BKN004///
                        //////CB 15/14 Q1005 BECMG 6000 RA=
201707120120 METAR COR EGLL 120120Z AUTO 36005KT 330V080 7000 -RA BKN003///
                        //////CB 15/14 Q1005 RERA TEMPO 3000
                        +RA=
201707120050 METAR COR EGLL 120050Z 36005KT 330V050 6000 RA BKN001CB OVC008
                        15/15 Q1005 TEMPO 3000 +RA=
201707120020 METAR COR EGLL 120020Z 36004KT 2500 -RA SCT002 BKN008 15/15
                        Q1005 RERA TEMPO RA=
201707112350 METAR COR EGLL 112350Z 36003KT 3800 RA BKN005 16/15 Q1005
                        TEMPO 6000 -RA=
201707112320 METAR COR EGLL 112320Z VRB03KT 8000 -RA BKN004 15/15 Q1005
                        TEMPO RA=
201707112250 METAR COR EGLL 112250Z 14006KT 9000 -RA BKN006 15/15 Q1005
                        TEMPO 4000 RA=
201707112220 METAR COR EGLL 112220Z 13007KT 090V160 4000 RA FEW003 BKN005
                        15/14 Q1006 TEMPO 2500 +RA=
201707112150 METAR COR EGLL 112150Z 12008KT 4000 RA FEW003 SCT006 BKN010
                        15/14 Q1006 TEMPO BKN006=
201707112120 METAR COR EGLL 112120Z 12008KT 3800 RA FEW004 SCT007 BKN010
                        14/14 Q1007 TEMPO BKN007=
201707112050 METAR COR EGLL 112050Z 10007KT 4100 RA FEW003 SCT005 BKN010
                        14/14 Q1007 TEMPO 6000 -RA=
201707112020 METAR COR EGLL 112020Z 12008KT 4100 RA FEW003 SCT005CB BKN010
                        14/14 Q1007 TEMPO BKN006=
201707111950 METAR COR EGLL 111950Z 12008KT 5000 -RA FEW004 SCT006TCU
                        BKN016 14/14 Q1007 TEMPO 4000 RA
                        BKN006=
201707111920 METAR COR EGLL 111920Z 11006KT 6000 -RA FEW004 BKN010 OVC036
                        14/14 Q1008 RERA TEMPO 4000 RA BKN006=
201707111850 METAR COR EGLL 111850Z AUTO 17006KT 130V240 4900 RA SCT004///
                        BKN013/// BKN024/// //////CB 14/14
                        Q1008 TEMPO BKN006=
201707111820 METAR COR EGLL 111820Z AUTO 18007KT 130V240 5000 -RA SCT006///
                        BKN015/// BKN026/// //////TCU 14/14
                        Q1009 TEMPO 3500 RA BKN006=
201707111750 METAR COR EGLL 111750Z AUTO 18008KT 140V250 8000 -RA BKN005///
                        //////TCU 15/14 Q1009 TEMPO 4000
                        RA=
201707111720 METAR COR EGLL 111720Z AUTO 20010KT 150V240 9000 -RA BKN007///
                        BKN016/// //////TCU 15/14 Q1009 TEMPO
                        4000 RA SCT007 BKN011=
201707111650 METAR COR EGLL 111650Z AUTO 20011KT 160V240 8000 -RA SCT010///
                        BKN034/// //////CB 16/14 Q1009 BECMG
                        RA BKN012=
201707111620 METAR COR EGLL 111620Z AUTO 22012KT 9999 -RA FEW015/// BKN025///
                        //////CB 16/13 Q1009 BECMG RA BKN012=
201707111550 METAR COR EGLL 111550Z AUTO 22014KT 9999 -RA BKN032/// //////CB
                        16/13 Q1009 BECMG RA BKN012=
201707111520 METAR COR EGLL 111520Z AUTO 22017KT 9999 -RA BKN022 17/13
                        Q1009 BECMG RA BKN012=
201707111450 METAR COR EGLL 111450Z AUTO 22012KT 9999 FEW029 SCT036 19/13
                        Q1009 TEMPO RA BKN012=
201707111420 METAR COR EGLL 111420Z AUTO 22009KT 180V260 9999 SCT037 18/14
                        Q1009 TEMPO -RA BKN014=
201707111350 METAR COR EGLL 111350Z AUTO 22011KT 9999 FEW017 BKN025 OVC040
                        17/14 Q1009 TEMPO -RA BKN014=
201707111320 METAR COR EGLL 111320Z AUTO 23012KT 9999 SCT013/// BKN027///
                        OVC043/// //////TCU 18/15 Q1009 TEMPO
                        -RA BKN013=
201707111250 METAR COR EGLL 111250Z AUTO 24012KT 9999 -RA SCT010/// SCT023///
                        BKN035/// //////TCU 17/15 Q1009 NOSIG=
201707111220 METAR EGLL 111220Z AUTO 22012KT 9999 -RA BKN010/// BKN022///
                        //////CB 18/16 Q1009 RERA=
201707111150 METAR COR EGLL 111150Z AUTO 20012KT 9999 -RA FEW007/// SCT011///
                        BKN023/// //////CB 18/16 Q1009 RERA
                        TEMPO 2000 +SHRA BKN012=
201707111120 METAR COR EGLL 111120Z AUTO 18011KT 9999 BKN014/// BKN027///
                        //////CB 19/15 Q1009 TEMPO 7000 RA=
201707111050 METAR COR EGLL 111050Z AUTO 19010KT 160V230 9999 BKN012///
                        BKN022/// BKN038/// //////CB 18/15
                        Q1009 NOSIG=
201707111020 METAR COR EGLL 111020Z AUTO 18012G23KT 130V230 9999 -RA BKN021
                        OVC038 19/13 Q1009 NOSIG=
201707110950 METAR COR EGLL 110950Z AUTO 21008KT 150V240 9999 BKN020///
                        //////TCU 19/13 Q1010 NOSIG=
201707110920 METAR COR EGLL 110920Z AUTO 20008KT 150V240 9999 BKN019 BKN042
                        19/13 Q1010 NOSIG=
201707110850 METAR COR EGLL 110850Z AUTO 21009KT 180V240 9999 FEW033 19/13
                        Q1010 NOSIG=
201707110820 METAR COR EGLL 110820Z AUTO 23010KT 9999 FEW037 18/12 Q1010
                        NOSIG=
201707110750 METAR COR EGLL 110750Z AUTO 23009KT 9999 FEW043 17/12 Q1010
                        NOSIG=
201707110720 METAR COR EGLL 110720Z AUTO 20006KT 170V240 9999 SCT046 17/11
                        Q1010 NOSIG=
201707110650 METAR COR EGLL 110650Z AUTO 20006KT 150V240 9999 NCD 16/12
                        Q1010 NOSIG=
201707110620 METAR COR EGLL 110620Z AUTO VRB04KT 9999 NCD 16/11 Q1010
                        NOSIG=
201707110550 METAR COR EGLL 110550Z AUTO 22005KT 180V270 9999 NCD 15/12
                        Q1010 NOSIG=
201707110520 METAR COR EGLL 110520Z AUTO 24008KT 210V270 9999 NCD 15/12
                        Q1011 NOSIG=
201707110450 METAR COR EGLL 110450Z AUTO 27006KT 9999 NCD 16/12 Q1010
                        NOSIG=
201707110420 METAR COR EGLL 110420Z AUTO 27008KT 9999 FEW031 15/12 Q1010
                        NOSIG=
201707110350 METAR COR EGLL 110350Z AUTO 27008KT 9999 BKN029 15/11 Q1010
                        NOSIG=
201707110320 METAR COR EGLL 110320Z AUTO 25007KT 9999 FEW030 15/11 Q1010
                        NOSIG=
201707110250 METAR COR EGLL 110250Z AUTO 24007KT 9999 FEW030 15/11 Q1010
                        NOSIG=
201707110220 METAR COR EGLL 110220Z AUTO 25006KT 9999 FEW033 15/11 Q1010
                        NOSIG=
201707110150 METAR COR EGLL 110150Z AUTO 24007KT 9999 FEW032 BKN040 15/11
                        Q1010 NOSIG=
201707110120 METAR COR EGLL 110120Z AUTO 25006KT 9999 BKN034 16/11 Q1010
                        NOSIG=
201707110050 METAR COR EGLL 110050Z AUTO 27007KT 9999 BKN042 16/11 Q1010
                        NOSIG=
201707110020 METAR COR EGLL 110020Z AUTO 26007KT 9999 FEW036 16/11 Q1010
                        NOSIG=
201707102350 METAR COR EGLL 102350Z AUTO 26010KT 9999 SCT037 16/11 Q1010
                        NOSIG=
201707102320 METAR COR EGLL 102320Z AUTO 27010KT 9999 FEW038 16/10 Q1010
                        NOSIG=
201707102250 METAR COR EGLL 102250Z AUTO 27009KT 9999 NCD 17/11 Q1010
                        NOSIG=
201707102220 METAR COR EGLL 102220Z AUTO 27009KT 9999 NCD 17/11 Q1010
                        NOSIG=
201707102150 METAR COR EGLL 102150Z AUTO 27012KT 9999 NCD 18/11 Q1010
                        NOSIG=
201707102120 METAR COR EGLL 102120Z AUTO 27011KT 9999 NCD 18/12 Q1010
                        NOSIG=
201707102050 METAR COR EGLL 102050Z AUTO 27013KT 9999 NCD 19/11 Q1010
                        NOSIG=
201707102020 METAR COR EGLL 102020Z AUTO 27010KT 9999 NCD 20/11 Q1009
                        NOSIG=
201707101950 METAR COR EGLL 101950Z AUTO 28013KT 9999 NCD 20/11 Q1009
                        NOSIG=
201707101920 METAR COR EGLL 101920Z AUTO 27015KT 9999 NCD 21/11 Q1009
                        NOSIG=
201707101850 METAR COR EGLL 101850Z AUTO 28014KT 9999 FEW048 22/10 Q1008
                        NOSIG=
201707101820 METAR COR EGLL 101820Z AUTO 28015KT 9999 NCD 23/10 Q1008
                        NOSIG=
201707101750 METAR COR EGLL 101750Z AUTO 27015KT 9999 NCD 24/09 Q1008
                        NOSIG=
201707101720 METAR COR EGLL 101720Z AUTO 27011KT 9999 NCD 24/10 Q1007
                        NOSIG=
201707101650 METAR COR EGLL 101650Z AUTO 25015KT 9999 FEW048 24/10 Q1007
                        NOSIG=
201707101620 METAR COR EGLL 101620Z AUTO 28013KT 9999 NCD 24/11 Q1007
                        NOSIG=
201707101550 METAR COR EGLL 101550Z AUTO 28012KT 240V320 9999 NCD 25/11
                        Q1007 NOSIG=
201707101520 METAR COR EGLL 101520Z AUTO 27013KT 9999 NCD 25/09 Q1007
                        NOSIG=
201707101450 METAR COR EGLL 101450Z AUTO 27011KT 9999 NCD 25/08 Q1007
                        NOSIG=
201707101420 METAR COR EGLL 101420Z AUTO 25012KT 9999 NCD 24/10 Q1008
                        NOSIG=
201707101350 METAR COR EGLL 101350Z AUTO 28012KT 9999 FEW043 25/11 Q1008
                        NOSIG=
201707101320 METAR COR EGLL 101320Z AUTO 28011KT 9999 FEW043 25/12 Q1008
                        NOSIG=
201707101250 METAR COR EGLL 101250Z AUTO 26012KT 220V300 9999 SCT043 25/12
                        Q1008 TEMPO SHRA=
201707101220 METAR COR EGLL 101220Z AUTO 24010KT 210V270 9999 FEW040 24/12
                        Q1008 TEMPO SHRA=
201707101150 METAR COR EGLL 101150Z AUTO 24009KT 210V290 9999 SCT039 25/12
                        Q1008 TEMPO SHRA=
201707101120 METAR COR EGLL 101120Z AUTO 26010KT 220V320 9999 NCD 25/12
                        Q1008 TEMPO SHRA=
201707101050 METAR COR EGLL 101050Z AUTO 27011KT 240V300 9999 FEW035 24/12
                        Q1008 TEMPO SHRA=
201707101020 METAR COR EGLL 101020Z AUTO 25009KT 210V290 9999 FEW027 24/13
                        Q1008 NOSIG=
201707100950 METAR COR EGLL 100950Z AUTO 24009KT 210V280 9999 SCT025 SCT041
                        23/14 Q1008 NOSIG=
201707100920 METAR COR EGLL 100920Z AUTO 25008KT 160V300 9999 SCT022 SCT049
                        22/15 Q1008 NOSIG=
201707100850 METAR COR EGLL 100850Z AUTO 25007KT 200V290 9999 FEW020 22/15
                        Q1008 NOSIG=
201707100820 METAR COR EGLL 100820Z AUTO 28004KT 230V340 9999 NCD 21/15
                        Q1008 NOSIG=
201707100750 METAR COR EGLL 100750Z AUTO 29005KT 240V360 9999 NCD 20/15
                        Q1008 NOSIG=
201707100720 METAR COR EGLL 100720Z AUTO 28005KT 250V320 9999 NCD 20/15
                        Q1009 NOSIG=
201707100650 METAR COR EGLL 100650Z AUTO 25004KT 210V290 9999 NCD 19/15
                        Q1009 NOSIG=
201707100620 METAR COR EGLL 100620Z AUTO 28005KT 250V320 9999 NCD 18/14
                        Q1008 NOSIG=
201707100550 METAR COR EGLL 100550Z AUTO 28005KT 250V320 9999 NCD 17/14
                        Q1008 NOSIG=
201707100520 METAR COR EGLL 100520Z AUTO 29006KT 9999 NCD 17/14 Q1008
                        NOSIG=
201707100450 METAR COR EGLL 100450Z AUTO 27006KT 9999 NCD 16/14 Q1008
                        NOSIG=
201707100420 METAR COR EGLL 100420Z AUTO 27006KT 9999 FEW044 16/14 Q1008
                        NOSIG=
201707100350 METAR COR EGLL 100350Z AUTO 27005KT 9999 FEW042 17/14 Q1008
                        NOSIG=
201707100320 METAR COR EGLL 100320Z AUTO 28006KT 9999 FEW040 17/14 Q1008
                        NOSIG=
201707100250 METAR COR EGLL 100250Z AUTO 27006KT 9999 FEW040 17/14 Q1008
                        NOSIG=
201707100220 METAR EGLL 100220Z AUTO 27007KT 9999 SCT040 17/14 Q1009=
201707100150 METAR COR EGLL 100150Z AUTO 25005KT 9999 FEW045 17/14 Q1009
                        NOSIG=
201707100120 METAR COR EGLL 100120Z AUTO 23004KT 9999 SCT040 18/14 Q1009
                        NOSIG=
201707100050 METAR COR EGLL 100050Z AUTO 22004KT 9999 FEW040 18/14 Q1009
                        NOSIG=
201707100020 METAR COR EGLL 100020Z AUTO 23005KT 9999 NCD 19/14 Q1009
                        NOSIG=
201707092350 METAR COR EGLL 092350Z AUTO 23005KT 9999 NCD 19/14 Q1010
                        NOSIG=
201707092320 METAR COR EGLL 092320Z AUTO 22006KT 9999 NCD 20/14 Q1010
                        NOSIG=
201707092250 METAR COR EGLL 092250Z AUTO 21006KT 9999 NCD 20/14 Q1010
                        NOSIG=
201707092220 METAR COR EGLL 092220Z AUTO 22006KT 9999 NCD 20/13 Q1010
                        NOSIG=
201707092150 METAR COR EGLL 092150Z AUTO 22007KT 9999 NCD 21/13 Q1010
                        NOSIG=
201707092120 METAR COR EGLL 092120Z AUTO 21008KT 9999 NCD 22/12 Q1010
                        NOSIG=
201707092050 METAR COR EGLL 092050Z AUTO 22008KT 170V250 9999 NCD 23/11
                        Q1010 NOSIG=
201707092020 METAR COR EGLL 092020Z AUTO 20008KT 170V250 9999 NCD 23/11
                        Q1010 NOSIG=
201707091950 METAR COR EGLL 091950Z AUTO 21009KT 9999 NCD 24/11 Q1010
                        NOSIG=
201707091920 METAR COR EGLL 091920Z AUTO 20010KT 9999 NCD 24/11 Q1010
                        NOSIG=
201707091850 METAR COR EGLL 091850Z AUTO 20009KT 170V230 9999 NCD 25/12
                        Q1010 NOSIG=
201707091820 METAR COR EGLL 091820Z AUTO 20011KT 9999 NCD 25/11 Q1010
                        NOSIG=
201707091750 METAR COR EGLL 091750Z AUTO 18010KT 9999 NCD 26/12 Q1010
                        NOSIG=
201707091720 METAR COR EGLL 091720Z AUTO 23010KT 9999 NCD 27/12 Q1010
                        NOSIG=
201707091650 METAR COR EGLL 091650Z AUTO 19008KT 170V250 9999 NCD 27/12
                        Q1010 NOSIG=
201707091620 METAR COR EGLL 091620Z AUTO 20009KT 150V240 9999 NCD 26/12
                        Q1010 NOSIG=
201707091550 METAR COR EGLL 091550Z AUTO 20007KT 140V250 9999 NCD 27/12
                        Q1011 NOSIG=
201707091520 METAR COR EGLL 091520Z AUTO 21007KT 170V250 9999 NCD 27/12
                        Q1011 NOSIG=
201707091450 METAR COR EGLL 091450Z AUTO 20009KT 150V240 9999 FEW048 27/13
                        Q1011 NOSIG=
201707091420 METAR COR EGLL 091420Z AUTO 18007KT 120V250 9999 NCD 27/13
                        Q1012 NOSIG=
201707091350 METAR COR EGLL 091350Z AUTO 21010G20KT 150V250 9999 NCD 26/13
                        Q1012 NOSIG=
201707091320 METAR COR EGLL 091320Z AUTO 20010KT 170V250 9999 NCD 25/13
                        Q1012 NOSIG=
201707091250 METAR COR EGLL 091250Z AUTO 20011KT 170V240 9999 NCD 25/14
                        Q1012 NOSIG=
201707091220 METAR COR EGLL 091220Z AUTO 20012KT 150V230 9999 BKN038 26/14
                        Q1012 NOSIG=
201707091150 METAR COR EGLL 091150Z AUTO 19010KT 150V240 9999 SCT045 27/14
                        Q1012 NOSIG=
201707091120 METAR COR EGLL 091120Z AUTO 19008KT 140V250 9999 FEW047 25/13
                        Q1013 NOSIG=
201707091050 METAR COR EGLL 091050Z AUTO 25006KT 200V310 9999 SCT039 26/12
                        Q1013 NOSIG=
201707091020 METAR COR EGLL 091020Z AUTO 24006KT 170V330 9999 FEW037 25/13
                        Q1013 NOSIG=
201707090950 METAR COR EGLL 090950Z AUTO 23008KT 150V270 9999 NCD 25/13
                        Q1014 NOSIG=
201707090920 METAR COR EGLL 090920Z AUTO 22007KT 160V270 9999 NCD 24/14
                        Q1014 NOSIG=
201707090850 METAR COR EGLL 090850Z AUTO 21007KT 170V280 9999 NCD 23/14
                        Q1014 NOSIG=
201707090820 METAR COR EGLL 090820Z AUTO 21007KT 170V250 9999 NCD 22/15
                        Q1015 NOSIG=
201707090750 METAR COR EGLL 090750Z AUTO 19005KT 130V280 9999 NCD 21/14
                        Q1015 NOSIG=
201707090720 METAR COR EGLL 090720Z AUTO 18005KT 120V240 9999 NCD 20/15
                        Q1015 NOSIG=
201707090650 METAR COR EGLL 090650Z AUTO VRB03KT 9999 NCD 19/15 Q1014
                        NOSIG=
201707090620 METAR COR EGLL 090620Z AUTO 16005KT 130V230 9999 NCD 19/15
                        Q1014 NOSIG=
201707090550 METAR COR EGLL 090550Z AUTO 16004KT 090V210 9999 NCD 18/15
                        Q1014 NOSIG=
201707090520 METAR COR EGLL 090520Z AUTO 19004KT 150V230 9999 NCD 18/14
                        Q1014 NOSIG=
201707090450 METAR COR EGLL 090450Z AUTO 15004KT 130V190 9999 NCD 18/14
                        Q1014 NOSIG=
201707090420 METAR COR EGLL 090420Z AUTO 14004KT 9999 NCD 18/14 Q1014
                        NOSIG=
201707090350 METAR COR EGLL 090350Z AUTO 13004KT 9999 NCD 18/15 Q1015
                        NOSIG=
201707090320 METAR COR EGLL 090320Z AUTO VRB03KT 9999 NCD 18/15 Q1015
                        NOSIG=
201707090250 METAR COR EGLL 090250Z AUTO 09003KT 9999 NCD 18/15 Q1015
                        NOSIG=
201707090220 METAR COR EGLL 090220Z AUTO 10004KT 9999 NCD 18/15 Q1015
                        NOSIG=
201707090150 METAR COR EGLL 090150Z AUTO 11005KT 9999 NCD 18/15 Q1016
                        NOSIG=
201707090120 METAR COR EGLL 090120Z AUTO 07005KT 9999 NCD 18/16 Q1016
                        NOSIG=
201707090050 METAR COR EGLL 090050Z AUTO 07004KT 9999 NCD 18/16 Q1016
                        NOSIG=
201707090020 METAR EGLL 090020Z AUTO 08004KT 050V110 9999 NCD 18/15 Q1016=
201707082350 METAR COR EGLL 082350Z AUTO 08004KT 9999 NCD 18/16 Q1017
                        NOSIG=
201707082320 METAR COR EGLL 082320Z AUTO 07005KT 9999 NCD 18/15 Q1017
                        NOSIG=
201707082250 METAR COR EGLL 082250Z AUTO 10007KT 9999 NCD 19/16 Q1017
                        NOSIG=
201707082220 METAR COR EGLL 082220Z AUTO 10008KT 9999 NCD 19/15 Q1017
                        NOSIG=
201707082150 METAR COR EGLL 082150Z AUTO 09007KT 050V130 9999 NCD 21/13
                        Q1017 NOSIG=
201707082120 METAR COR EGLL 082120Z AUTO 05003KT 9999 NCD 23/10 Q1017
                        NOSIG=
201707082050 METAR COR EGLL 082050Z AUTO VRB03KT 9999 NCD 23/10 Q1017
                        BECMG 08010KT=
201707082020 METAR COR EGLL 082020Z AUTO 36004KT 330V030 9999 NCD 23/10
                        Q1017 NOSIG=
201707081950 METAR COR EGLL 081950Z AUTO 36004KT 330V030 9999 NCD 24/10
                        Q1017 NOSIG=
201707081920 METAR COR EGLL 081920Z AUTO 34004KT 300V020 9999 NCD 24/10
                        Q1017 NOSIG=
201707081850 METAR COR EGLL 081850Z AUTO 36006KT 330V030 9999 NCD 25/09
                        Q1017 NOSIG=
201707081820 METAR COR EGLL 081820Z AUTO 34005KT 300V020 9999 NCD 25/09
                        Q1017 NOSIG=
201707081750 METAR COR EGLL 081750Z AUTO 29005KT 260V350 9999 NCD 25/09
                        Q1017 NOSIG=
201707081720 METAR COR EGLL 081720Z AUTO 31006KT 280V350 9999 NCD 26/09
                        Q1017 NOSIG=
201707081650 METAR COR EGLL 081650Z AUTO VRB04KT 9999 NCD 27/08 Q1017
                        NOSIG=
201707081620 METAR COR EGLL 081620Z AUTO VRB03KT 9999 NCD 26/08 Q1017
                        NOSIG=
201707081550 METAR COR EGLL 081550Z AUTO 32006KT 270V030 9999 NCD 26/08
                        Q1017 NOSIG=
201707081520 METAR COR EGLL 081520Z AUTO 32005KT 280V010 9999 NCD 26/08
                        Q1017 NOSIG=
201707081450 METAR COR EGLL 081450Z AUTO VRB03KT 9999 NCD 26/08 Q1018
                        NOSIG=
201707081420 METAR COR EGLL 081420Z AUTO 30006KT 220V350 9999 NCD 26/07
                        Q1018 NOSIG=
201707081350 METAR COR EGLL 081350Z AUTO VRB03KT 9999 NCD 25/08 Q1018
                        NOSIG=
201707081320 METAR COR EGLL 081320Z AUTO 26008KT 220V320 9999 NCD 26/07
                        Q1019 NOSIG=
201707081250 METAR COR EGLL 081250Z AUTO VRB06KT 9999 NCD 25/08 Q1019
                        NOSIG=
201707081220 METAR COR EGLL 081220Z AUTO 25008G19KT 200V300 9999 NCD 24/08
                        Q1019 NOSIG=
201707081150 METAR EGLL 081150Z AUTO 25005KT 210V320 9999 FEW049 24/09
                        Q1019=
201707081120 METAR COR EGLL 081120Z VRB04KT 9999 FEW044 23/10 Q1019 NOSIG=
201707081050 METAR COR EGLL 081050Z 28005KT 200V340 9999 FEW038 23/11
                        Q1020 NOSIG=
201707081020 METAR COR EGLL 081020Z AUTO VRB04KT 9999 BKN034 22/11 Q1020
                        NOSIG=
201707080950 METAR COR EGLL 080950Z AUTO 02004KT 280V100 9999 SCT029 21/12
                        Q1020 NOSIG=
201707080920 METAR COR EGLL 080920Z VRB05KT 9999 SCT028 SCT044 20/13 Q1019
                        NOSIG=
201707080850 METAR COR EGLL 080850Z 32007KT 300V010 9999 SCT028 SCT043
                        20/13 Q1019 NOSIG=
201707080820 METAR COR EGLL 080820Z AUTO 35006KT 310V050 9999 FEW019 20/14
                        Q1019 NOSIG=
201707080750 METAR COR EGLL 080750Z 34005KT 290V010 9999 SCT020 SCT028
                        19/14 Q1019 NOSIG=
201707080720 METAR COR EGLL 080720Z 36006KT 9999 SCT020 19/14 Q1019 NOSIG=
201707080650 METAR COR EGLL 080650Z 32005KT 290V350 9999 FEW017 SCT021
                        18/14 Q1019 NOSIG=
201707080620 METAR COR EGLL 080620Z 32004KT 270V010 9999 FEW016 SCT021
                        BKN042 18/14 Q1019 NOSIG=
201707080550 METAR COR EGLL 080550Z 30005KT 280V340 9999 SCT016 BKN042
                        18/14 Q1018 NOSIG=
201707080520 METAR COR EGLL 080520Z AUTO VRB03KT 9999 FEW017 BKN042 18/14
                        Q1018 NOSIG=
201707080450 METAR COR EGLL 080450Z AUTO VRB03KT 9999 FEW017 OVC040 18/15
                        Q1018 NOSIG=
201707080420 METAR COR EGLL 080420Z AUTO 31004KT 270V350 9999 FEW021 BKN037
                        18/15 Q1018 NOSIG=
201707080350 METAR COR EGLL 080350Z AUTO 31004KT 270V350 9999 BKN019 18/15
                        Q1018 NOSIG=
201707080320 METAR COR EGLL 080320Z AUTO 30004KT 270V340 9999 BKN020 18/15
                        Q1018 NOSIG=
201707080250 METAR COR EGLL 080250Z AUTO 29006KT 9999 FEW023 18/15 Q1018
                        NOSIG=
201707080220 METAR COR EGLL 080220Z AUTO 29005KT 9999 NCD 18/15 Q1018
                        NOSIG=
201707080150 METAR COR EGLL 080150Z AUTO 29006KT 9999 NCD 18/15 Q1018
                        NOSIG=
201707080120 METAR COR EGLL 080120Z AUTO 29007KT 9999 SCT040 19/15 Q1018
                        NOSIG=
201707080050 METAR COR EGLL 080050Z AUTO 29008KT 9999 OVC035 19/15 Q1018
                        NOSIG=
201707080020 METAR COR EGLL 080020Z AUTO 28005KT 9999 BKN035 19/15 Q1018
                        NOSIG=
201707072350 METAR COR EGLL 072350Z AUTO 28008KT 9999 SCT036 19/15 Q1018
                        NOSIG=
201707072320 METAR COR EGLL 072320Z AUTO 28010KT 9999 FEW035 19/14 Q1018
                        NOSIG=
201707072250 METAR COR EGLL 072250Z AUTO 29011KT 9999 NCD 20/14 Q1018
                        NOSIG=
201707072220 METAR COR EGLL 072220Z AUTO 29011KT 9999 NCD 20/14 Q1018
                        NOSIG=
201707072150 METAR COR EGLL 072150Z AUTO 27010KT 9999 NCD 21/14 Q1017
                        NOSIG=
201707072120 METAR COR EGLL 072120Z AUTO 27010KT 9999 NCD 21/14 Q1017
                        NOSIG=
201707072050 METAR COR EGLL 072050Z AUTO 28010KT 9999 NCD 22/13 Q1017
                        NOSIG=
201707072020 METAR COR EGLL 072020Z AUTO 28011KT 9999 NCD 23/13 Q1017
                        NOSIG=
201707071950 METAR COR EGLL 071950Z AUTO 29010KT 9999 NCD 23/13 Q1016
                        NOSIG=
201707071920 METAR COR EGLL 071920Z AUTO 28012KT 9999 NCD 24/14 Q1016
                        NOSIG=
201707071850 METAR COR EGLL 071850Z AUTO 28012KT 9999 NCD 25/13 Q1016
                        NOSIG=
201707071820 METAR EGLL 071820Z AUTO 27012KT 9999 NCD 26/13 Q1016=
201707071750 METAR COR EGLL 071750Z AUTO 27012KT 9999 NCD 26/13 Q1015
                        NOSIG=
201707071720 METAR COR EGLL 071720Z AUTO 27013KT 9999 NCD 27/13 Q1015
                        NOSIG=
201707071650 METAR COR EGLL 071650Z AUTO 26011KT 9999 NCD 27/12 Q1015
                        NOSIG=
201707071620 METAR COR EGLL 071620Z AUTO 26010KT 220V280 9999 NCD 28/12
                        Q1015 NOSIG=
201707071550 METAR COR EGLL 071550Z AUTO 25009KT 230V300 9999 NCD 28/11
                        Q1015 NOSIG=
201707071520 METAR COR EGLL 071520Z AUTO 24009KT 200V300 9999 NCD 29/10
                        Q1015 NOSIG=
201707071450 METAR COR EGLL 071450Z AUTO 28008KT 210V320 9999 NCD 29/10
                        Q1015 NOSIG=
201707071420 METAR COR EGLL 071420Z AUTO VRB08KT 9999 NCD 28/10 Q1016
                        NOSIG=
201707071350 METAR COR EGLL 071350Z AUTO 25006KT 170V340 9999 NCD 28/10
                        Q1016 NOSIG=
201707071320 METAR COR EGLL 071320Z AUTO 28010KT 9999 NCD 28/10 Q1016
                        NOSIG=
201707071250 METAR COR EGLL 071250Z AUTO 25008KT 210V300 9999 NCD 27/11
                        Q1016 NOSIG=
201707071220 METAR COR EGLL 071220Z AUTO 24008KT 160V310 9999 NCD 27/11
                        Q1016 NOSIG=
201707071150 METAR COR EGLL 071150Z AUTO 27009KT 230V320 9999 NCD 27/10
                        Q1016 NOSIG=
201707071120 METAR COR EGLL 071120Z AUTO 28008KT 240V340 9999 NCD 26/11
                        Q1016 NOSIG=
201707071050 METAR COR EGLL 071050Z AUTO 27007G18KT 190V330 9999 NCD 26/11
                        Q1016 NOSIG=
201707071020 METAR COR EGLL 071020Z AUTO 30006KT 250V350 9999 NCD 25/11
                        Q1017 NOSIG=
201707070950 METAR COR EGLL 070950Z AUTO 33006KT 280V360 9999 NCD 25/13
                        Q1017 NOSIG=
201707070920 METAR COR EGLL 070920Z AUTO 32007KT 250V360 9999 NCD 24/13
                        Q1017 NOSIG=
201707070850 METAR COR EGLL 070850Z AUTO 31006KT 260V010 9999 NCD 23/14
                        Q1017 NOSIG=
201707070820 METAR COR EGLL 070820Z AUTO 28006KT 230V320 9999 NCD 22/14
                        Q1017 NOSIG=
201707070750 METAR COR EGLL 070750Z AUTO 28006KT 250V320 9999 NCD 21/14
                        Q1016 NOSIG=
201707070720 METAR COR EGLL 070720Z AUTO 29005KT 260V330 9999 NCD 20/14
                        Q1016 NOSIG=
201707070650 METAR COR EGLL 070650Z AUTO 30004KT 260V360 9999 NCD 20/14
                        Q1016 NOSIG=
201707070620 METAR COR EGLL 070620Z AUTO 28004KT 250V330 9999 NCD 19/14
                        Q1016=
201707070550 METAR COR EGLL 070550Z AUTO 31004KT 280V360 9999 NCD 19/14
                        Q1016 NOSIG=
201707070520 METAR COR EGLL 070520Z AUTO 30005KT 9999 NCD 18/14 Q1016
                        NOSIG=
201707070450 METAR COR EGLL 070450Z AUTO 29004KT 260V320 9999 NCD 17/15
                        Q1016 NOSIG=
201707070420 METAR COR EGLL 070420Z AUTO 26006KT 9999 NCD 18/15 Q1015
                        NOSIG=
201707070350 METAR COR EGLL 070350Z AUTO 28007KT 9999 NCD 18/15 Q1015
                        NOSIG=
201707070320 METAR COR EGLL 070320Z AUTO 29006KT 9999 NCD 18/15 Q1014
                        NOSIG=
201707070250 METAR COR EGLL 070250Z AUTO 29006KT 9999 NCD 18/15 Q1014
                        NOSIG=
201707070220 METAR COR EGLL 070220Z AUTO 28007KT 9999 NCD 18/15 Q1014
                        NOSIG=
201707070150 METAR COR EGLL 070150Z AUTO 29006KT 9999 NCD 19/15 Q1014
                        NOSIG=
201707070120 METAR COR EGLL 070120Z AUTO 27009KT 9999 NCD 20/16 Q1014
                        NOSIG=
201707070050 METAR COR EGLL 070050Z AUTO 29008KT 9999 NCD 21/16 Q1014
                        NOSIG=
201707070020 METAR COR EGLL 070020Z AUTO 29009KT 9999 NCD 21/16 Q1014
                        NOSIG=
201707062350 METAR COR EGLL 062350Z AUTO 29008KT 9999 NCD 22/16 Q1014
                        NOSIG=
201707062320 METAR COR EGLL 062320Z AUTO 27009KT 9999 NCD 22/15 Q1014
                        NOSIG=
201707062250 METAR COR EGLL 062250Z AUTO 27012KT 9999 NCD 23/16 Q1014
                        NOSIG=
201707062220 METAR COR EGLL 062220Z AUTO 27011KT 9999 NCD 24/16 Q1014
                        NOSIG=
201707062150 METAR COR EGLL 062150Z AUTO 28009KT 9999 NCD 25/16 Q1013
                        NOSIG=
201707062120 METAR COR EGLL 062120Z AUTO 28008KT 9999 NCD 25/15 Q1013
                        NOSIG=
201707062050 METAR COR EGLL 062050Z AUTO 30005KT 9999 NCD 26/14 Q1013
                        NOSIG=
201707062020 METAR COR EGLL 062020Z AUTO 29007KT 9999 NCD 27/15 Q1012
                        NOSIG=
201707061950 METAR COR EGLL 061950Z AUTO VRB02KT 9999 NCD 27/17 Q1012
                        NOSIG=
201707061920 METAR COR EGLL 061920Z AUTO 08005KT 9999 NCD 28/17 Q1012
                        NOSIG=
201707061850 METAR COR EGLL 061850Z AUTO 06006KT 030V090 9999 NCD 28/17
                        Q1012 NOSIG=
201707061820 METAR EGLL 061820Z AUTO 30008KT 9999 NCD 30/15 Q1011=
201707061750 METAR COR EGLL 061750Z AUTO 28009KT 9999 NCD 31/15 Q1011
                        NOSIG=
201707061720 METAR COR EGLL 061720Z AUTO 26009KT 9999 NCD 31/16 Q1011
                        NOSIG=
201707061650 METAR COR EGLL 061650Z AUTO 23007KT 180V260 9999 NCD 31/16
                        Q1011 NOSIG=
201707061620 METAR COR EGLL 061620Z AUTO 24004KT 180V290 9999 NCD 31/16
                        Q1011 NOSIG=
201707061550 METAR COR EGLL 061550Z AUTO VRB04KT 9999 NCD 31/16 Q1011
                        NOSIG=
201707061520 METAR COR EGLL 061520Z AUTO 20005KT 130V280 9999 NCD 31/16
                        Q1011 NOSIG=
201707061450 METAR COR EGLL 061450Z AUTO 20006KT 130V270 9999 NCD 31/15
                        Q1012 NOSIG=
201707061420 METAR COR EGLL 061420Z AUTO 17006KT 110V210 9999 NCD 31/15
                        Q1012 NOSIG=
201707061350 METAR COR EGLL 061350Z AUTO 16007KT 110V180 9999 NCD 31/16
                        Q1012 NOSIG=
201707061320 METAR COR EGLL 061320Z AUTO 14006KT 060V180 9999 NCD 30/16
                        Q1012 NOSIG=
201707061250 METAR COR EGLL 061250Z AUTO 18011KT 9999 NCD 30/16 Q1013
                        NOSIG=
201707061220 METAR COR EGLL 061220Z AUTO 14008KT 9999 NCD 30/15 Q1013
                        NOSIG=
201707061150 METAR COR EGLL 061150Z AUTO 14009KT 090V200 9999 NCD 29/15
                        Q1013 NOSIG=
201707061120 METAR COR EGLL 061120Z AUTO 12010KT 9999 NCD 28/15 Q1014
                        NOSIG=
201707061050 METAR COR EGLL 061050Z AUTO 12009KT 090V160 9999 NCD 28/14
                        Q1014 NOSIG=
201707061020 METAR COR EGLL 061020Z AUTO 11008KT 070V150 9999 NCD 29/14
                        Q1014 NOSIG=
201707060950 METAR COR EGLL 060950Z AUTO 11010KT 9999 NCD 27/14 Q1014
                        NOSIG=
201707060920 METAR COR EGLL 060920Z AUTO 09008KT 050V150 9999 NCD 26/14
                        Q1015 NOSIG=
201707060850 METAR COR EGLL 060850Z AUTO 10011KT 9999 NCD 25/14 Q1015
                        NOSIG=
201707060820 METAR COR EGLL 060820Z AUTO 10012KT 9999 NCD 24/13 Q1015
                        NOSIG=
201707060750 METAR COR EGLL 060750Z AUTO 09009KT 9999 NCD 24/13 Q1015
                        NOSIG=
201707060720 METAR COR EGLL 060720Z AUTO 09008KT 9999 NCD 22/12 Q1015
                        NOSIG=
201707060650 METAR COR EGLL 060650Z AUTO 10011KT 9999 NCD 22/12 Q1015
                        NOSIG=
201707060620 METAR COR EGLL 060620Z AUTO 09009KT 050V110 9999 NCD 20/12
                        Q1016 NOSIG=
201707060550 METAR COR EGLL 060550Z AUTO 09008KT 050V120 9999 NCD 19/12
                        Q1016 NOSIG=
201707060520 METAR COR EGLL 060520Z AUTO 08007KT 9999 NCD 19/12 Q1016
                        NOSIG=
201707060450 METAR COR EGLL 060450Z AUTO 09007KT 9999 NCD 19/12 Q1016
                        NOSIG=
201707060420 METAR COR EGLL 060420Z AUTO 08005KT 9999 NCD 18/12 Q1016
                        NOSIG=
201707060350 METAR COR EGLL 060350Z AUTO 07005KT 9999 NCD 18/12 Q1017
                        NOSIG=
201707060320 METAR COR EGLL 060320Z AUTO 06003KT 9999 NCD 18/12 Q1017
                        NOSIG=
201707060250 METAR COR EGLL 060250Z AUTO 07004KT 9999 NCD 18/12 Q1017
                        NOSIG=
201707060220 METAR COR EGLL 060220Z AUTO 08005KT 050V110 9999 NCD 18/12
                        Q1017 NOSIG=
201707060150 METAR COR EGLL 060150Z AUTO 09006KT 9999 NCD 18/12 Q1017
                        NOSIG=
201707060120 METAR COR EGLL 060120Z AUTO 10008KT 9999 NCD 19/12 Q1017
                        NOSIG=
201707060050 METAR COR EGLL 060050Z AUTO 09008KT 9999 NCD 19/12 Q1017
                        NOSIG=
201707060020 METAR COR EGLL 060020Z AUTO 11009KT 9999 NCD 20/12 Q1017
                        NOSIG=
201707052350 METAR COR EGLL 052350Z AUTO 10011KT 9999 NCD 21/13 Q1017
                        NOSIG=
201707052320 METAR COR EGLL 052320Z AUTO 07008KT 9999 NCD 21/13 Q1017
                        NOSIG=
201707052250 METAR COR EGLL 052250Z AUTO 09008KT 070V140 9999 NCD 21/13
                        Q1017 NOSIG=
201707052220 METAR COR EGLL 052220Z AUTO 10006KT 050V140 9999 NCD 22/14
                        Q1018 NOSIG=
201707052150 METAR COR EGLL 052150Z AUTO 10006KT 9999 NCD 21/14 Q1018
                        NOSIG=
201707052120 METAR COR EGLL 052120Z AUTO 13006KT 9999 NCD 23/14 Q1018
                        NOSIG=
201707052050 METAR COR EGLL 052050Z AUTO 13008KT 9999 NCD 23/14 Q1018
                        NOSIG=
201707052020 METAR COR EGLL 052020Z AUTO 12011KT 9999 FEW038 24/15 Q1017
                        NOSIG=
201707051950 METAR COR EGLL 051950Z AUTO 11010KT 9999 NCD 25/15 Q1017
                        NOSIG=
201707051920 METAR COR EGLL 051920Z AUTO 11010KT 9999 NCD 25/16 Q1017
                        NOSIG=
201707051850 METAR COR EGLL 051850Z AUTO 12010KT 9999 NCD 27/15 Q1017
                        NOSIG=
201707051820 METAR COR EGLL 051820Z AUTO 12009KT 9999 NCD 28/14 Q1016
                        NOSIG=
201707051750 METAR COR EGLL 051750Z AUTO VRB03KT 9999 NCD 29/11 Q1016
                        NOSIG=
201707051720 METAR COR EGLL 051720Z AUTO VRB03KT 9999 NCD 29/11 Q1016
                        NOSIG=
201707051650 METAR COR EGLL 051650Z AUTO VRB03KT 9999 NCD 29/11 Q1016
                        NOSIG=
201707051620 METAR COR EGLL 051620Z AUTO 05004KT 340V130 9999 NCD 29/11
                        Q1017 NOSIG=
201707051550 METAR COR EGLL 051550Z AUTO VRB03KT 9999 NCD 29/11 Q1017
                        NOSIG=
201707051520 METAR COR EGLL 051520Z AUTO VRB03KT 9999 NCD 29/11 Q1017
                        NOSIG=
201707051450 METAR COR EGLL 051450Z AUTO VRB04KT 9999 NCD 28/11 Q1017
                        NOSIG=
201707051420 METAR COR EGLL 051420Z AUTO VRB03KT 9999 NCD 28/11 Q1017
                        NOSIG=
201707051350 METAR COR EGLL 051350Z AUTO VRB03KT 9999 NCD 28/12 Q1018
                        NOSIG=
201707051320 METAR COR EGLL 051320Z AUTO VRB03KT 9999 NCD 27/12 Q1018
                        NOSIG=
201707051250 METAR COR EGLL 051250Z AUTO 19004KT 140V240 9999 NCD 26/12
                        Q1018 NOSIG=
201707051220 METAR COR EGLL 051220Z AUTO VRB04KT 9999 NCD 27/12 Q1018
                        NOSIG=
201707051150 METAR COR EGLL 051150Z AUTO VRB04KT 9999 FEW045 25/12 Q1018
                        NOSIG=
201707051120 METAR COR EGLL 051120Z AUTO VRB05KT 9999 NCD 25/13 Q1019
                        NOSIG=
201707051050 METAR COR EGLL 051050Z AUTO VRB04KT 9999 NCD 25/13 Q1019
                        NOSIG=
201707051020 METAR COR EGLL 051020Z AUTO VRB04KT 9999 NCD 24/12 Q1019
                        NOSIG=
201707050950 METAR COR EGLL 050950Z AUTO 12005KT 040V180 9999 NCD 23/12
                        Q1019 NOSIG=
201707050920 METAR COR EGLL 050920Z AUTO 19004KT 120V280 9999 NCD 23/12
                        Q1019 NOSIG=
201707050850 METAR COR EGLL 050850Z AUTO VRB03KT 9999 NCD 22/12 Q1019
                        NOSIG=
201707050820 METAR COR EGLL 050820Z AUTO 09004KT 040V170 9999 NCD 21/12
                        Q1020 NOSIG=
201707050750 METAR COR EGLL 050750Z AUTO 06005KT 030V090 9999 NCD 20/12
                        Q1020 NOSIG=
201707050720 METAR COR EGLL 050720Z AUTO VRB03KT 9999 NCD 20/12 Q1020
                        NOSIG=
201707050650 METAR COR EGLL 050650Z AUTO VRB02KT 9999 NCD 18/12 Q1019
                        NOSIG=
201707050620 METAR COR EGLL 050620Z AUTO VRB03KT 9999 NCD 18/12 Q1019
                        NOSIG=
201707050550 METAR EGLL 050550Z AUTO VRB03KT 9999 NCD 17/12 Q1019=
201707050520 METAR COR EGLL 050520Z AUTO VRB02KT 9999 NCD 16/12 Q1019
                        NOSIG=
201707050450 METAR COR EGLL 050450Z AUTO VRB01KT 9999 NCD 15/12 Q1019
                        NOSIG=
201707050420 METAR COR EGLL 050420Z AUTO 31003KT 9999 NCD 15/12 Q1019
                        NOSIG=
201707050350 METAR COR EGLL 050350Z AUTO VRB02KT 9999 NCD 15/12 Q1019
                        NOSIG=
201707050320 METAR COR EGLL 050320Z AUTO 31002KT 9999 NCD 15/12 Q1019
                        NOSIG=
201707050250 METAR COR EGLL 050250Z AUTO 31003KT 9999 NCD 15/12 Q1019
                        NOSIG=
201707050220 METAR COR EGLL 050220Z AUTO 30004KT 9999 NCD 16/12 Q1019
                        NOSIG=
201707050150 METAR COR EGLL 050150Z AUTO 31004KT 9999 NCD 16/12 Q1019
                        NOSIG=
201707050120 METAR COR EGLL 050120Z AUTO VRB03KT 9999 NCD 17/12 Q1019
                        NOSIG=
201707050050 METAR COR EGLL 050050Z AUTO 29004KT 9999 NCD 17/12 Q1019
                        NOSIG=
201707050020 METAR COR EGLL 050020Z AUTO 29005KT 9999 NCD 18/12 Q1019
                        NOSIG=
201707042350 METAR COR EGLL 042350Z AUTO 30004KT 9999 NCD 18/12 Q1019
                        NOSIG=
201707042320 METAR COR EGLL 042320Z 30005KT 9999 SCT037 19/12 Q1019 NOSIG=
201707042250 METAR COR EGLL 042250Z AUTO 29005KT 9999 OVC037 20/12 Q1019
                        NOSIG=
201707042220 METAR COR EGLL 042220Z AUTO 27005KT 230V320 9999 BKN036 19/14
                        Q1019 NOSIG=
201707042150 METAR COR EGLL 042150Z AUTO 24007KT 9999 BKN038 20/14 Q1019
                        NOSIG=
201707042120 METAR COR EGLL 042120Z AUTO 22009KT 180V240 9999 OVC037 20/14
                        Q1019 NOSIG=
201707042050 METAR COR EGLL 042050Z AUTO 22010KT 9999 BKN037 21/14 Q1019
                        NOSIG=
201707042020 METAR COR EGLL 042020Z AUTO 22008KT 200V270 9999 BKN039 21/14
                        Q1019 NOSIG=
201707041950 METAR COR EGLL 041950Z AUTO 22008KT 190V250 9999 BKN040 22/13
                        Q1018 NOSIG=
201707041920 METAR COR EGLL 041920Z AUTO 23006KT 200V260 9999 OVC040 22/13
                        Q1018 NOSIG=
201707041850 METAR COR EGLL 041850Z AUTO 23006KT 150V280 9999 BKN040 22/13
                        Q1018 NOSIG=
201707041820 METAR COR EGLL 041820Z AUTO 23007KT 210V270 9999 SCT041 23/12
                        Q1018 NOSIG=
201707041750 METAR COR EGLL 041750Z AUTO 24006KT 210V270 9999 SCT044 23/12
                        Q1018 NOSIG=
201707041720 METAR COR EGLL 041720Z AUTO 24008KT 200V270 9999 NCD 23/12
                        Q1018 NOSIG=
201707041650 METAR COR EGLL 041650Z AUTO 21006G17KT 140V280 9999 NCD 24/12
                        Q1018 NOSIG=
201707041620 METAR COR EGLL 041620Z AUTO 24008KT 210V280 9999 FEW048 24/12
                        Q1019 NOSIG=
201707041550 METAR COR EGLL 041550Z AUTO 25005KT 190V300 9999 SCT042 23/12
                        Q1019 NOSIG=
201707041520 METAR COR EGLL 041520Z AUTO 19006KT 9999 FEW043 23/11 Q1019
                        NOSIG=
201707041450 METAR COR EGLL 041450Z AUTO 25008KT 220V290 9999 FEW044 23/11
                        Q1019 NOSIG=
201707041420 METAR COR EGLL 041420Z AUTO 24009KT 200V280 9999 BKN038 23/11
                        Q1019 NOSIG=
201707041350 METAR COR EGLL 041350Z AUTO 26009KT 220V300 9999 BKN039 23/12
                        Q1020 NOSIG=
201707041320 METAR COR EGLL 041320Z AUTO 26010KT 9999 OVC038 23/12 Q1020
                        NOSIG=
201707041250 METAR COR EGLL 041250Z AUTO 23008KT 180V280 9999 OVC044 23/12
                        Q1020 NOSIG=
201707041220 METAR COR EGLL 041220Z AUTO 26008KT 210V350 9999 FEW035 OVC048
                        22/12 Q1020 NOSIG=
201707041150 METAR COR EGLL 041150Z AUTO 25009KT 210V280 9999 BKN034 22/12
                        Q1020 NOSIG=
201707041120 METAR COR EGLL 041120Z AUTO 25010KT 9999 OVC036 21/12 Q1020
                        NOSIG=
201707041050 METAR COR EGLL 041050Z AUTO 25011KT 9999 OVC036 21/13 Q1020
                        NOSIG=
201707041020 METAR COR EGLL 041020Z AUTO 23009KT 180V260 9999 BKN033 22/12
                        Q1020 NOSIG=
201707040950 METAR COR EGLL 040950Z AUTO 24008KT 220V280 9999 BKN031 22/12
                        Q1020 NOSIG=
201707040920 METAR COR EGLL 040920Z AUTO 28007KT 240V320 9999 FEW027 22/13
                        Q1020 NOSIG=
201707040850 METAR COR EGLL 040850Z AUTO 23005KT 160V320 9999 FEW020 20/14
                        Q1021 NOSIG=
201707040820 METAR COR EGLL 040820Z AUTO 25008KT 220V290 9999 NCD 20/14
                        Q1021 NOSIG=
201707040750 METAR COR EGLL 040750Z AUTO 21004KT 160V260 9999 NCD 19/14
                        Q1021 NOSIG=
201707040720 METAR COR EGLL 040720Z AUTO VRB03KT 9999 NCD 18/14 Q1020
                        NOSIG=
201707040650 METAR COR EGLL 040650Z AUTO VRB02KT 9999 NCD 17/13 Q1020
                        NOSIG=
201707040620 METAR COR EGLL 040620Z AUTO VRB03KT 9999 NCD 17/13 Q1020
                        NOSIG=
201707040550 METAR COR EGLL 040550Z AUTO VRB03KT 9999 NCD 16/13 Q1020
                        NOSIG=
201707040520 METAR COR EGLL 040520Z AUTO 27004KT 9999 NCD 15/13 Q1020
                        NOSIG=
201707040450 METAR COR EGLL 040450Z AUTO 27004KT 220V290 9999 NCD 14/13
                        Q1020 NOSIG=
201707040420 METAR COR EGLL 040420Z AUTO 27005KT 9999 NCD 13/12 Q1020
                        NOSIG=
201707040350 METAR COR EGLL 040350Z AUTO 29004KT 9999 NCD 13/12 Q1020
                        NOSIG=
201707040320 METAR COR EGLL 040320Z AUTO 27004KT 9999 NCD 14/12 Q1020
                        NOSIG=
201707040250 METAR COR EGLL 040250Z AUTO 27005KT 9999 NCD 14/12 Q1020
                        NOSIG=
201707040220 METAR COR EGLL 040220Z AUTO 27006KT 9999 NCD 14/12 Q1021
                        NOSIG=
201707040150 METAR COR EGLL 040150Z AUTO 28004KT 9999 NCD 15/12 Q1021
                        NOSIG=
201707040120 METAR COR EGLL 040120Z AUTO 29004KT 9999 NCD 15/12 Q1021
                        NOSIG=
201707040050 METAR COR EGLL 040050Z AUTO 28004KT 9999 NCD 15/12 Q1021
                        NOSIG=
201707040020 METAR COR EGLL 040020Z AUTO 28004KT 9999 NCD 16/12 Q1021
                        NOSIG=
201707032350 METAR COR EGLL 032350Z AUTO 27006KT 9999 NCD 16/12 Q1021
                        NOSIG=
201707032320 METAR COR EGLL 032320Z AUTO 27008KT 9999 NCD 17/12 Q1021
                        NOSIG=
201707032250 METAR COR EGLL 032250Z AUTO 27008KT 9999 NCD 17/12 Q1021
                        NOSIG=
201707032220 METAR COR EGLL 032220Z AUTO 29007KT 9999 NCD 19/12 Q1021
                        NOSIG=
201707032150 METAR COR EGLL 032150Z AUTO 29007KT 9999 NCD 19/12 Q1021
                        NOSIG=
201707032120 METAR COR EGLL 032120Z AUTO 29007KT 9999 NCD 20/12 Q1021
                        NOSIG=
201707032050 METAR COR EGLL 032050Z AUTO 28007KT 9999 NCD 20/12 Q1020
                        NOSIG=
201707032020 METAR COR EGLL 032020Z AUTO 28007KT 9999 NCD 21/12 Q1020
                        NOSIG=
201707031950 METAR COR EGLL 031950Z AUTO 27010KT 9999 SCT046 22/12 Q1020
                        NOSIG=
201707031920 METAR COR EGLL 031920Z AUTO 26010KT 9999 BKN046 22/11 Q1020
                        NOSIG=
201707031850 METAR COR EGLL 031850Z AUTO 26010KT 9999 FEW049 23/11 Q1020
                        NOSIG=
201707031820 METAR COR EGLL 031820Z AUTO 28012KT 9999 NCD 23/11 Q1019
                        NOSIG=
201707031750 METAR COR EGLL 031750Z AUTO 24012KT 9999 FEW049 23/11 Q1019
                        NOSIG=
201707031720 METAR COR EGLL 031720Z AUTO 26012KT 230V310 9999 SCT048 24/11
                        Q1019 NOSIG=
201707031650 METAR COR EGLL 031650Z AUTO 24011KT 9999 NCD 24/10 Q1019
                        NOSIG=
201707031620 METAR COR EGLL 031620Z AUTO 24013KT 9999 FEW046 25/10 Q1019
                        NOSIG=
201707031550 METAR COR EGLL 031550Z AUTO 24012KT 9999 SCT039 24/12 Q1019
                        NOSIG=
201707031520 METAR COR EGLL 031520Z AUTO 23014KT 9999 FEW038 24/13 Q1020
                        NOSIG=
201707031450 METAR COR EGLL 031450Z AUTO 26014KT 9999 FEW031 23/13 Q1020
                        NOSIG=
201707031420 METAR COR EGLL 031420Z AUTO 26012KT 9999 SCT026 BKN040 22/13
                        Q1020 NOSIG=
201707031350 METAR COR EGLL 031350Z AUTO 26013KT 220V300 9999 SCT030 BKN043
                        22/14 Q1020 NOSIG=
201707031320 METAR COR EGLL 031320Z AUTO 28011KT 9999 SCT028 BKN033 21/14
                        Q1020 NOSIG=
201707031250 METAR EGLL 031250Z AUTO 25012KT 9999 OVC027 22/13 Q1020=
201707031220 METAR COR EGLL 031220Z AUTO 28014KT 9999 BKN027 21/13 Q1020
                        NOSIG=
201707031150 METAR COR EGLL 031150Z AUTO 25012KT 9999 BKN023 BKN036 21/13
                        Q1020 NOSIG=
201707031120 METAR COR EGLL 031120Z AUTO 27011KT 9999 BKN023 20/14 Q1020
                        NOSIG=
201707031050 METAR COR EGLL 031050Z AUTO 25010KT 9999 BKN022 OVC037 21/13
                        Q1020 NOSIG=
201707031020 METAR COR EGLL 031020Z AUTO 25010KT 230V290 9999 BKN020 BKN033
                        20/13 Q1020 NOSIG=
201707030950 METAR COR EGLL 030950Z 27012KT 9999 FEW019 BKN022 19/13 Q1021
                        NOSIG=
201707030920 METAR COR EGLL 030920Z AUTO 25011KT 9999 FEW018 OVC034 19/13
                        Q1021 NOSIG=
201707030850 METAR COR EGLL 030850Z AUTO 27009KT 9999 FEW016 BKN031 18/13
                        Q1021 NOSIG=
201707030820 METAR COR EGLL 030820Z AUTO 25011KT 9999 FEW016 OVC032 17/13
                        Q1021 NOSIG=
201707030750 METAR COR EGLL 030750Z AUTO 27010KT 9999 BKN032 OVC044 17/13
                        Q1021 NOSIG=
201707030720 METAR COR EGLL 030720Z AUTO 26011KT 9999 FEW015 SCT033 BKN043
                        17/13 Q1021 NOSIG=
201707030650 METAR COR EGLL 030650Z AUTO 24010KT 9999 SCT040 16/12 Q1020
                        NOSIG=
201707030620 METAR COR EGLL 030620Z AUTO 27010KT 9999 OVC038 16/12 Q1021
                        NOSIG=
201707030550 METAR COR EGLL 030550Z 27009KT 9999 -RA BKN038 15/12 Q1021
                        NOSIG=
201707030520 METAR COR EGLL 030520Z 26009KT CAVOK 15/12 Q1021 NOSIG=
201707030450 METAR COR EGLL 030450Z AUTO 25009KT 9999 NCD 15/12 Q1020
                        NOSIG=
201707030420 METAR COR EGLL 030420Z AUTO 24009KT 9999 NCD 15/11 Q1020
                        NOSIG=
201707030350 METAR COR EGLL 030350Z AUTO 25009KT 9999 -RA NCD 15/11 Q1021
                        NOSIG=
201707030320 METAR COR EGLL 030320Z AUTO 27010KT 9999 NCD 15/11 Q1021
                        NOSIG=
201707030250 METAR COR EGLL 030250Z AUTO 26011KT 9999 NCD 15/10 Q1021
                        NOSIG=
201707030220 METAR COR EGLL 030220Z AUTO 25008KT 9999 NCD 16/10 Q1021
                        NOSIG=
201707030150 METAR COR EGLL 030150Z AUTO 23007KT 9999 NCD 16/10 Q1021
                        NOSIG=
201707030120 METAR COR EGLL 030120Z AUTO 26008KT 9999 NCD 16/10 Q1021
                        NOSIG=
201707030050 METAR COR EGLL 030050Z AUTO 27008KT 9999 NCD 16/10 Q1022
                        NOSIG=
201707030020 METAR COR EGLL 030020Z AUTO 27006KT 9999 NCD 17/10 Q1022
                        NOSIG=
201707022350 METAR COR EGLL 022350Z AUTO 25008KT 9999 NCD 17/11 Q1022
                        NOSIG=
201707022320 METAR EGLL 022320Z AUTO 24007KT 9999 NCD 17/11 Q1022=
201707022250 METAR COR EGLL 022250Z AUTO 27006KT 9999 NCD 18/10 Q1022
                        NOSIG=
201707022220 METAR COR EGLL 022220Z AUTO 24007KT 9999 NCD 19/10 Q1022
                        NOSIG=
201707022150 METAR COR EGLL 022150Z AUTO 26008KT 9999 NCD 20/10 Q1022
                        NOSIG=
201707022120 METAR COR EGLL 022120Z AUTO 27007KT 9999 NCD 21/09 Q1022
                        NOSIG=
201707022050 METAR COR EGLL 022050Z AUTO 26007KT 9999 NCD 20/09 Q1022
                        NOSIG=
201707022020 METAR COR EGLL 022020Z AUTO 27006KT 9999 NCD 20/08 Q1022
                        NOSIG=
201707021950 METAR COR EGLL 021950Z AUTO 27008KT 9999 NCD 21/08 Q1021
                        NOSIG=
201707021920 METAR COR EGLL 021920Z AUTO 27008KT 9999 NCD 22/08 Q1021
                        NOSIG=
201707021850 METAR COR EGLL 021850Z AUTO 29006KT 250V330 9999 NCD 22/07
                        Q1021 NOSIG=
201707021820 METAR COR EGLL 021820Z AUTO 27007KT 9999 NCD 23/07 Q1021
                        NOSIG=
201707021750 METAR COR EGLL 021750Z AUTO 29006KT 260V320 9999 NCD 23/07
                        Q1021 NOSIG=
201707021720 METAR COR EGLL 021720Z AUTO 29007KT 240V340 9999 NCD 23/07
                        Q1021 NOSIG=
201707021650 METAR COR EGLL 021650Z AUTO 31006KT 280V360 9999 NCD 23/07
                        Q1021 NOSIG=
201707021620 METAR COR EGLL 021620Z AUTO 33007KT 300V040 9999 NCD 23/07
                        Q1021 NOSIG=
201707021550 METAR COR EGLL 021550Z AUTO 30006KT 250V350 9999 NCD 23/08
                        Q1021 NOSIG=
201707021520 METAR COR EGLL 021520Z AUTO 31007KT 280V340 9999 NCD 23/08
                        Q1022 NOSIG=
201707021450 METAR COR EGLL 021450Z AUTO 32006KT 250V040 9999 NCD 23/08
                        Q1022 NOSIG=
201707021420 METAR COR EGLL 021420Z AUTO 32006KT 260V040 9999 NCD 21/08
                        Q1022 NOSIG=
201707021350 METAR COR EGLL 021350Z AUTO 29006KT 220V020 9999 NCD 22/08
                        Q1022 NOSIG=
201707021320 METAR COR EGLL 021320Z AUTO 30008G18KT 240V350 9999 NCD 22/08
                        Q1022 NOSIG=
201707021250 METAR COR EGLL 021250Z AUTO 31008KT 280V020 9999 FEW048 22/08
                        Q1022 NOSIG=
201707021220 METAR COR EGLL 021220Z AUTO 29010KT 260V320 9999 FEW047 22/07
                        Q1022 NOSIG=
201707021150 METAR COR EGLL 021150Z AUTO 31007KT 260V020 9999 NCD 21/08
                        Q1022 NOSIG=
201707021120 METAR COR EGLL 021120Z AUTO 33006KT 260V040 9999 NCD 21/08
                        Q1022 NOSIG=
201707021050 METAR COR EGLL 021050Z AUTO 30009KT 270V340 9999 FEW040 20/08
                        Q1022 NOSIG=
201707021020 METAR COR EGLL 021020Z AUTO 33007KT 280V020 9999 NCD 19/08
                        Q1022 NOSIG=
201707020950 METAR COR EGLL 020950Z AUTO 34007KT 270V020 9999 NCD 19/08
                        Q1022 NOSIG=
201707020920 METAR COR EGLL 020920Z AUTO 33007KT 280V040 9999 FEW034 18/08
                        Q1022 NOSIG=
201707020850 METAR COR EGLL 020850Z AUTO 35007KT 300V030 9999 FEW030 18/08
                        Q1021 NOSIG=
201707020820 METAR COR EGLL 020820Z AUTO 34007KT 300V040 9999 FEW030 17/09
                        Q1021 NOSIG=
201707020750 METAR COR EGLL 020750Z AUTO 32010KT 290V360 9999 FEW028 17/09
                        Q1021 NOSIG=
201707020720 METAR COR EGLL 020720Z AUTO 33008KT 300V020 9999 SCT032 16/09
                        Q1021 NOSIG=
201707020650 METAR COR EGLL 020650Z AUTO 33008KT 290V010 9999 BKN033 16/10
                        Q1021 NOSIG=
201707020620 METAR COR EGLL 020620Z AUTO 34006KT 290V020 9999 SCT033 SCT038
                        16/10 Q1020 NOSIG=
201707020550 METAR COR EGLL 020550Z AUTO 34006KT 280V030 9999 SCT026 OVC042
                        15/11 Q1020 NOSIG=
201707020520 METAR COR EGLL 020520Z AUTO 34006KT 300V030 9999 FEW009 BKN016
                        14/12 Q1019 NOSIG=
201707020450 METAR COR EGLL 020450Z AUTO 32007KT 280V020 9999 -RA BKN007
                        OVC035 16/15 Q1019 BECMG FEW007 BKN035=
201707020420 METAR COR EGLL 020420Z AUTO 31004KT 6000 -RA BKN008 BKN020
                        16/15 Q1018 BECMG SCT008=
201707020350 METAR COR EGLL 020350Z AUTO 29007KT 3700 -RADZ BKN009 OVC021
                        16/15 Q1018 TEMPO 9999 NSW BKN012=
201707020320 METAR COR EGLL 020320Z AUTO 27008KT 9999 OVC013 17/14 Q1018
                        BECMG SCT013 BKN020=
201707020250 METAR COR EGLL 020250Z AUTO 27008KT 9999 BKN022 17/14 Q1018
                        NOSIG=
201707020220 METAR COR EGLL 020220Z AUTO 26009KT 9999 BKN022 OVC033 16/14
                        Q1018 NOSIG=
201707020150 METAR COR EGLL 020150Z AUTO 27008KT 9999 FEW012 BKN025 16/14
                        Q1018 NOSIG=
201707020120 METAR COR EGLL 020120Z AUTO 26009KT 9999 SCT013 BKN037 16/13
                        Q1018 TEMPO BKN013=
201707020050 METAR COR EGLL 020050Z AUTO 26008KT 9999 SCT035 16/13 Q1018
                        TEMPO BKN014=
201707020020 METAR COR EGLL 020020Z AUTO 27010KT 9999 BKN033 16/13 Q1018
                        NOSIG=
201707012350 METAR COR EGLL 012350Z AUTO 27011KT 9999 FEW017 SCT031 16/13
                        Q1018 NOSIG=
201707012320 METAR COR EGLL 012320Z AUTO 27010KT 9999 OVC034 17/12 Q1018
                        NOSIG=
201707012250 METAR COR EGLL 012250Z AUTO 26010KT 9999 BKN036 17/12 Q1018
                        NOSIG=
201707012220 METAR COR EGLL 012220Z AUTO 26012KT 9999 OVC044 17/11 Q1018
                        NOSIG=
201707012150 METAR COR EGLL 012150Z AUTO 26011KT 9999 BKN049 17/11 Q1017
                        NOSIG=
201707012120 METAR COR EGLL 012120Z AUTO 27013KT 9999 NCD 18/09 Q1017
                        NOSIG=
201707012050 METAR COR EGLL 012050Z AUTO 27011KT 9999 NCD 18/08 Q1017
                        NOSIG=
201707012020 METAR COR EGLL 012020Z AUTO 27014KT 9999 NCD 19/08 Q1017
                        NOSIG=
201707011950 METAR COR EGLL 011950Z AUTO 26012KT 9999 NCD 20/09 Q1017
                        NOSIG=
201707011920 METAR COR EGLL 011920Z AUTO 27013KT 9999 NCD 21/09 Q1017
                        NOSIG=
201707011850 METAR COR EGLL 011850Z AUTO 27014KT 9999 FEW043 21/09 Q1017
                        NOSIG=
201707011820 METAR COR EGLL 011820Z AUTO 26011KT 9999 SCT044 23/11 Q1016
                        NOSIG=
201707011750 METAR COR EGLL 011750Z AUTO 27011KT 9999 SCT043 22/11 Q1016
                        NOSIG=
201707011720 METAR COR EGLL 011720Z AUTO 24010KT 9999 SCT041 22/11 Q1017
                        NOSIG=
201707011650 METAR COR EGLL 011650Z AUTO 27011KT 9999 SCT039 23/11 Q1017
                        NOSIG=
201707011620 METAR COR EGLL 011620Z AUTO 27009KT 240V310 9999 BKN036 22/11
                        Q1017 NOSIG=
201707011550 METAR COR EGLL 011550Z AUTO 28010KT 250V310 9999 BKN035 21/12
                        Q1017 NOSIG=
201707011520 METAR COR EGLL 011520Z AUTO 26011KT 9999 OVC035 21/12 Q1017
                        NOSIG=
201707011450 METAR COR EGLL 011450Z AUTO 29008KT 9999 OVC035 21/12 Q1017
                        NOSIG=
201707011420 METAR COR EGLL 011420Z AUTO 30006KT 230V340 9999 OVC033 21/12
                        Q1017 NOSIG=
201707011350 METAR COR EGLL 011350Z AUTO 27009KT 9999 OVC035 21/12 Q1017
                        NOSIG=
201707011320 METAR COR EGLL 011320Z AUTO 30008KT 270V330 9999 BKN031 21/12
                        Q1017 NOSIG=
201707011250 METAR COR EGLL 011250Z AUTO 29008KT 240V350 9999 BKN030 21/12
                        Q1017 NOSIG=
201707011220 METAR COR EGLL 011220Z AUTO 29009KT 250V320 9999 BKN029 OVC044
                        20/12 Q1017 NOSIG=
201707011150 METAR COR EGLL 011150Z AUTO 29009KT 260V330 9999 BKN029 21/11
                        Q1017 NOSIG=
201707011120 METAR COR EGLL 011120Z AUTO 31008KT 280V350 9999 SCT028 OVC048
                        20/12 Q1017 NOSIG=
201707011050 METAR COR EGLL 011050Z AUTO 30008KT 270V350 9999 FEW029 20/11
                        Q1017 NOSIG=
201707011020 METAR COR EGLL 011020Z AUTO 30008KT 250V330 9999 FEW028 20/11
                        Q1017 NOSIG=
201707010950 METAR COR EGLL 010950Z AUTO 29005KT 250V330 9999 FEW023 BKN049
                        19/11 Q1016 NOSIG=
201707010920 METAR COR EGLL 010920Z AUTO 32006KT 280V360 9999 NCD 18/12
                        Q1016 NOSIG=
201707010850 METAR COR EGLL 010850Z AUTO 30007KT 270V340 9999 FEW020 18/12
                        Q1016 NOSIG=
201707010820 METAR COR EGLL 010820Z AUTO 33005KT 270V030 9999 NCD 17/11
                        Q1016 NOSIG=
201707010750 METAR COR EGLL 010750Z AUTO 33006KT 290V010 9999 FEW019 16/11
                        Q1016 NOSIG=
201707010720 METAR COR EGLL 010720Z AUTO 33005KT 300V010 9999 NCD 16/11
                        Q1015 NOSIG=
201707010650 METAR COR EGLL 010650Z AUTO 34005KT 260V040 9999 NCD 16/11
                        Q1015 NOSIG=
201707010620 METAR COR EGLL 010620Z AUTO 34006KT 300V020 9999 OVC046 15/11
                        Q1015 NOSIG=
201707010550 METAR COR EGLL 010550Z AUTO 33005KT 290V020 9999 OVC041 15/11
                        Q1014 NOSIG=
201707010520 METAR COR EGLL 010520Z AUTO 32006KT 290V360 9999 OVC039 15/12
                        Q1014 NOSIG=
201707010450 METAR COR EGLL 010450Z AUTO 32005KT 300V360 9999 OVC037 15/12
                        Q1014 NOSIG=
201707010420 METAR COR EGLL 010420Z AUTO 34004KT 290V040 9999 OVC034 15/12
                        Q1013 NOSIG=
201707010350 METAR COR EGLL 010350Z AUTO 32005KT 290V020 9999 OVC036 15/12
                        Q1013 NOSIG=
201707010320 METAR COR EGLL 010320Z AUTO 34005KT 290V020 9999 FEW009 OVC032
                        15/12 Q1013 NOSIG=
201707010250 METAR COR EGLL 010250Z AUTO 34005KT 320V020 9999 BKN009 OVC042
                        15/12 Q1012 BECMG SCT010=
201707010220 METAR COR EGLL 010220Z AUTO 35007KT 320V030 9999 BKN009 OVC041
                        15/13 Q1012 BECMG BKN012=
201707010150 METAR COR EGLL 010150Z AUTO 33005KT 290V010 9999 BKN010 BKN028
                        OVC045 16/14 Q1012 TEMPO SCT010=
201707010120 METAR COR EGLL 010120Z AUTO 33006KT 280V360 9000 FEW010 BKN023
                        OVC038 16/14 Q1012 TEMPO BKN012=
201707010050 METAR COR EGLL 010050Z AUTO 31007KT 290V350 9999 FEW023 BKN034
                        16/14 Q1011 TEMPO BKN012=
201707010020 METAR COR EGLL 010020Z AUTO 30005KT 9999 FEW018 SCT040 16/14
                        Q1011 TEMPO BKN012=

</pre>

</body>
</html>
