##########################################################
# Query made at 12/31/2014 10:49:22 UTC
# Time interval: from 06/01/2014 00:00  to 07/01/2014 23:59  UTC
##########################################################

##########################################################
# EGLL, London / Heathrow Airport (United Kingdom)
# WMO index: 03772
# Latitude 51-29N. Longitude 000-27W. Altitude 24 m.
##########################################################

###################################
#  METAR/SPECI from EGLL
###################################
201407012350 METAR COR EGLL 012350Z 10005KT CAVOK 13/10 Q1022 NOSIG=
201407012320 METAR COR EGLL 012320Z 10006KT CAVOK 13/09 Q1022 NOSIG=
201407012250 METAR COR EGLL 012250Z 11007KT CAVOK 14/09 Q1022 NOSIG=
201407012220 METAR COR EGLL 012220Z 11007KT CAVOK 14/09 Q1022 NOSIG=
201407012150 METAR EGLL 012150Z 10006KT CAVOK 15/08 Q1022 NOSIG=
201407012120 METAR COR EGLL 012120Z 10006KT CAVOK 16/08 Q1022 NOSIG=
201407012050 METAR COR EGLL 012050Z 09008KT CAVOK 17/08 Q1022 NOSIG=
201407012020 METAR COR EGLL 012020Z 09008KT CAVOK 17/08 Q1021 NOSIG=
201407011950 METAR COR EGLL 011950Z 09011KT CAVOK 18/07 Q1021 NOSIG=
201407011920 METAR COR EGLL 011920Z 07008KT CAVOK 21/06 Q1020 NOSIG=
201407011850 METAR COR EGLL 011850Z 04005KT 010V080 CAVOK 21/06 Q1020
                        NOSIG=
201407011820 METAR COR EGLL 011820Z VRB03KT CAVOK 21/06 Q1020 NOSIG=
201407011750 METAR COR EGLL 011750Z 04004KT 010V100 CAVOK 21/06 Q1020
                        NOSIG=
201407011720 METAR COR EGLL 011720Z 07006KT CAVOK 21/06 Q1020 NOSIG=
201407011650 METAR COR EGLL 011650Z 07007KT CAVOK 21/06 Q1020 NOSIG=
201407011620 METAR COR EGLL 011620Z 08009KT 040V110 CAVOK 22/06 Q1020
                        NOSIG=
201407011550 METAR EGLL 011550Z 10006KT 060V130 CAVOK 22/05 Q1020 NOSIG=
201407011520 METAR COR EGLL 011520Z 08009KT CAVOK 23/05 Q1020 NOSIG=
201407011450 METAR COR EGLL 011450Z 07009KT CAVOK 22/06 Q1020 NOSIG=
201407011420 METAR COR EGLL 011420Z 06008KT 040V100 CAVOK 21/05 Q1020
                        NOSIG=
201407011350 METAR COR EGLL 011350Z 08005KT 360V120 CAVOK 21/04 Q1019
                        NOSIG=
201407011320 METAR COR EGLL 011320Z 09006KT 060V120 CAVOK 21/05 Q1019
                        NOSIG=
201407011250 METAR COR EGLL 011250Z 12007G17KT 050V170 CAVOK 23/06 Q1019
                        NOSIG=
201407011220 METAR COR EGLL 011220Z 10005KT 020V150 CAVOK 22/05 Q1020
                        NOSIG=
201407011150 METAR COR EGLL 011150Z 11010KT CAVOK 22/06 Q1020 NOSIG=
201407011120 METAR COR EGLL 011120Z 12008KT CAVOK 22/06 Q1020 NOSIG=
201407011050 METAR EGLL 011050Z 11010KT 080V140 CAVOK 21/06 Q1020=
201407011020 METAR COR EGLL 011020Z 11010KT 9999 SCT047 20/07 Q1020 NOSIG=
201407010950 METAR COR EGLL 010950Z 10008KT 9999 FEW045 21/09 Q1020 NOSIG=
201407010920 METAR COR EGLL 010920Z 09007KT 040V130 9999 FEW039 20/09
                        Q1020 NOSIG=
201407010850 METAR COR EGLL 010850Z 07008KT CAVOK 20/09 Q1020 NOSIG=
201407010820 METAR COR EGLL 010820Z 09008KT 060V120 CAVOK 19/09 Q1020
                        NOSIG=
201407010750 METAR COR EGLL 010750Z 10008KT CAVOK 18/10 Q1020 NOSIG=
201407010720 METAR COR EGLL 010720Z 10007KT CAVOK 17/09 Q1020 NOSIG=
201407010650 METAR COR EGLL 010650Z 09007KT CAVOK 16/10 Q1019 NOSIG=
201407010620 METAR COR EGLL 010620Z 09006KT CAVOK 15/10 Q1019 NOSIG=
201407010550 METAR COR EGLL 010550Z 09003KT CAVOK 15/10 Q1019 NOSIG=
201407010520 METAR COR EGLL 010520Z 06003KT CAVOK 14/10 Q1019 NOSIG=
201407010450 METAR COR EGLL 010450Z 05003KT 9999 FEW031 13/09 Q1019 NOSIG=
201407010420 METAR COR EGLL 010420Z 05003KT CAVOK 12/09 Q1019 NOSIG=
201407010350 METAR COR EGLL 010350Z 07004KT CAVOK 11/09 Q1018 NOSIG=
201407010320 METAR COR EGLL 010320Z 04004KT CAVOK 12/09 Q1018 NOSIG=
201407010250 METAR COR EGLL 010250Z 04003KT CAVOK 12/09 Q1018 NOSIG=
201407010220 METAR COR EGLL 010220Z 05003KT CAVOK 12/09 Q1018 NOSIG=
201407010150 METAR COR EGLL 010150Z 07003KT CAVOK 12/09 Q1018 NOSIG=
201407010120 METAR EGLL 010120Z AUTO 09005KT 9999 NCD 12/09 Q1018=
201407010050 METAR EGLL 010050Z AUTO 09005KT 9999 NCD 12/10 Q1019=
201407010020 METAR EGLL 010020Z AUTO 10005KT 9999 NCD 12/10 Q1019=
201406302350 METAR COR EGLL 302350Z 12006KT CAVOK 13/10 Q1019 NOSIG=
201406302320 METAR COR EGLL 302320Z 11005KT CAVOK 13/11 Q1019 NOSIG=
201406302250 METAR COR EGLL 302250Z 12008KT CAVOK 14/11 Q1019 NOSIG=
201406302220 METAR COR EGLL 302220Z 11007KT CAVOK 14/12 Q1018 NOSIG=
201406302150 METAR COR EGLL 302150Z 11007KT CAVOK 14/12 Q1018 NOSIG=
201406302120 METAR COR EGLL 302120Z 11006KT CAVOK 14/12 Q1018 NOSIG=
201406302050 METAR COR EGLL 302050Z 11007KT CAVOK 15/12 Q1018 NOSIG=
201406302020 METAR COR EGLL 302020Z 10006KT 9999 FEW070TCU 15/12 Q1018
                        NOSIG=
201406301950 METAR COR EGLL 301950Z 09006KT 9999 FEW035 15/12 Q1017 NOSIG=
201406301920 METAR COR EGLL 301920Z 11008KT 9999 FEW032 16/12 Q1017 NOSIG=
201406301850 METAR COR EGLL 301850Z 11007KT 9999 FEW032 16/12 Q1017 NOSIG=
201406301820 METAR COR EGLL 301820Z 11006KT 9999 FEW032 FEW080TCU 16/13
                        Q1017 NOSIG=
201406301750 METAR COR EGLL 301750Z 11005KT 9999 VCSH FEW016 SCT032CB
                        16/13 Q1017 NOSIG=
201406301720 METAR COR EGLL 301720Z VRB02KT 9999 VCSH FEW016 SCT032CB
                        17/12 Q1017 NOSIG=
201406301650 METAR COR EGLL 301650Z VRB03KT 9999 FEW016CB SCT032 16/12
                        Q1017 NOSIG=
201406301620 METAR COR EGLL 301620Z 20009KT 9999 -SHRA FEW032 FEW039CB
                        16/12 Q1017 RESHRA NOSIG=
201406301550 METAR COR EGLL 301550Z 20011KT 9999 5000S SHRA SCT039CB 16/13
                        Q1017 RESHRA TEMPO -SHRA=
201406301520 METAR COR EGLL 301520Z 21012KT 9999 4500S -SHRA SCT031CB
                        BKN039 17/12 Q1017 TEMPO SHRA=
201406301450 METAR COR EGLL 301450Z 15007KT 120V200 9999 VCSH SCT040 20/08
                        Q1017 TEMPO SHRA=
201406301420 METAR COR EGLL 301420Z 16006KT 090V200 9999 FEW043 21/09
                        Q1017 NOSIG=
201406301350 METAR COR EGLL 301350Z 17006KT 130V210 9999 FEW039 21/09
                        Q1017 TEMPO SHRA=
201406301320 METAR COR EGLL 301320Z 18010KT 9999 SCT039 19/10 Q1017 TEMPO
                        SHRA=
201406301250 METAR COR EGLL 301250Z 16009KT 9999 VCSH SCT045 19/09 Q1017
                        NOSIG=
201406301220 METAR COR EGLL 301220Z 13005KT 020V170 9999 VCSH SCT045 19/08
                        Q1017 TEMPO SHRA=
201406301150 METAR COR EGLL 301150Z VRB04KT 9999 SCT044 20/08 Q1017 NOSIG=
201406301120 METAR EGLL 301120Z 11006KT 060V170 9999 SCT042 20/09 Q1017=
201406301050 METAR COR EGLL 301050Z 11005KT 060V150 9999 SCT040 20/08
                        Q1017 NOSIG=
201406301020 METAR EGLL 301020Z 12006KT 080V170 9999 SCT037 19/09 Q1017=
201406300950 METAR EGLL 300950Z 13006KT 090V180 9999 SCT035 19/09 Q1017=
201406300920 METAR COR EGLL 300920Z 15004KT 050V230 9999 SCT035 19/09
                        Q1018 NOSIG=
201406300850 METAR COR EGLL 300850Z 14005KT 070V190 9999 FEW036 18/09
                        Q1018 NOSIG=
201406300820 METAR COR EGLL 300820Z 12005KT 080V150 9999 FEW032 18/09
                        Q1018 NOSIG=
201406300750 METAR COR EGLL 300750Z 10006KT CAVOK 17/10 Q1018 NOSIG=
201406300720 METAR COR EGLL 300720Z 11004KT CAVOK 15/11 Q1017 NOSIG=
201406300650 METAR COR EGLL 300650Z 10004KT CAVOK 14/11 Q1017 NOSIG=
201406300620 METAR COR EGLL 300620Z VRB02KT CAVOK 13/10 Q1017 NOSIG=
201406300550 METAR COR EGLL 300550Z 06003KT CAVOK 12/10 Q1017 NOSIG=
201406300520 METAR COR EGLL 300520Z VRB03KT CAVOK 12/09 Q1017 NOSIG=
201406300450 METAR COR EGLL 300450Z 00000KT CAVOK 11/09 Q1017 NOSIG=
201406300420 METAR COR EGLL 300420Z 02002KT CAVOK 10/09 Q1017 NOSIG=
201406300350 METAR COR EGLL 300350Z 00000KT CAVOK 10/08 Q1017 NOSIG=
201406300320 METAR COR EGLL 300320Z VRB02KT CAVOK 10/09 Q1017 NOSIG=
201406300250 METAR COR EGLL 300250Z VRB02KT CAVOK 11/09 Q1017 NOSIG=
201406300220 METAR COR EGLL 300220Z 01002KT CAVOK 11/09 Q1017 NOSIG=
201406300150 METAR COR EGLL 300150Z 36002KT CAVOK 12/09 Q1017 NOSIG=
201406300120 METAR EGLL 300120Z AUTO 01002KT 9999 NCD 12/09 Q1017=
201406300050 METAR EGLL 300050Z AUTO 02002KT 9999 NCD 13/09 Q1017=
201406300020 METAR EGLL 300020Z AUTO 02002KT 9999 NCD 13/10 Q1017=
201406292350 METAR EGLL 292350Z 04002KT CAVOK 13/10 Q1017=
201406292320 METAR COR EGLL 292320Z 07002KT CAVOK 13/10 Q1017 NOSIG=
201406292250 METAR COR EGLL 292250Z 05002KT CAVOK 13/10 Q1017 NOSIG=
201406292220 METAR COR EGLL 292220Z VRB02KT CAVOK 14/10 Q1017 NOSIG=
201406292150 METAR COR EGLL 292150Z 00000KT CAVOK 14/10 Q1016 NOSIG=
201406292120 METAR COR EGLL 292120Z VRB02KT CAVOK 14/10 Q1016 NOSIG=
201406292050 METAR COR EGLL 292050Z VRB03KT CAVOK 15/09 Q1016 NOSIG=
201406292020 METAR COR EGLL 292020Z 04004KT 010V080 9999 FEW030 15/09
                        Q1016 NOSIG=
201406291950 METAR COR EGLL 291950Z VRB03KT 9999 FEW030 15/07 Q1015 NOSIG=
201406291920 METAR EGLL 291920Z 04004KT 340V070 CAVOK 16/08 Q1015=
201406291850 METAR COR EGLL 291850Z 04005KT 9999 FEW030 16/08 Q1015 NOSIG=
201406291820 METAR COR EGLL 291820Z 03006KT 340V060 9999 FEW030 17/09
                        Q1015 NOSIG=
201406291750 METAR COR EGLL 291750Z 06006KT 030V090 9999 FEW035 17/09
                        Q1015 NOSIG=
201406291720 METAR COR EGLL 291720Z 08007KT 9999 SCT032 17/09 Q1014 TEMPO
                        SHRA=
201406291650 METAR COR EGLL 291650Z 08007KT 9999 SCT048TCU 16/10 Q1014
                        TEMPO SHRA=
201406291620 METAR COR EGLL 291620Z 05006KT 010V080 9999 SCT048TCU 16/10
                        Q1014 TEMPO SHRA=
201406291550 METAR COR EGLL 291550Z 35005KT 310V030 9999 -SHRA FEW030
                        SCT044TCU 16/11 Q1014 TEMPO SHRA=
201406291520 METAR COR EGLL 291520Z 36007KT 320V060 9999 SCT030 17/10
                        Q1014 TEMPO SHRA=
201406291450 METAR COR EGLL 291450Z 34008KT 310V030 9999 FEW048 17/08
                        Q1014 NOSIG=
201406291420 METAR COR EGLL 291420Z 36009KT 9999 -DZ BKN030 17/09 Q1014
                        NOSIG=
201406291350 METAR COR EGLL 291350Z 35007KT 310V020 9999 FEW040 17/09
                        Q1013 NOSIG=
201406291320 METAR COR EGLL 291320Z 35009KT 310V020 9999 FEW044 19/08
                        Q1013 NOSIG=
201406291250 METAR COR EGLL 291250Z 36010KT 310V040 9999 SCT044 18/08
                        Q1013 NOSIG=
201406291220 METAR COR EGLL 291220Z 34008KT 300V020 9999 FEW049 19/07
                        Q1013 NOSIG=
201406291150 METAR COR EGLL 291150Z 33008KT 260V010 9999 SCT049 19/06
                        Q1013 NOSIG=
201406291120 METAR COR EGLL 291120Z 32008KT 280V020 9999 SCT048 18/05
                        Q1012 NOSIG=
201406291050 METAR COR EGLL 291050Z 32008KT 270V360 9999 SCT048 19/06
                        Q1012 NOSIG=
201406291020 METAR COR EGLL 291020Z 32008KT 260V020 9999 FEW047 18/06
                        Q1012 NOSIG=
201406290950 METAR COR EGLL 290950Z 36006KT 320V050 9999 FEW030 18/07
                        Q1012 NOSIG=
201406290920 METAR COR EGLL 290920Z 33007KT 300V030 9999 FEW030 17/08
                        Q1012 NOSIG=
201406290850 METAR COR EGLL 290850Z 36009KT 320V030 9999 FEW030 16/08
                        Q1012 NOSIG=
201406290820 METAR COR EGLL 290820Z 36005KT 310V060 9999 FEW024 16/09
                        Q1012 NOSIG=
201406290750 METAR COR EGLL 290750Z 34005KT 280V030 9999 FEW024 15/09
                        Q1012 NOSIG=
201406290720 METAR COR EGLL 290720Z 35005KT 310V030 9999 FEW024 14/09
                        Q1012 NOSIG=
201406290650 METAR COR EGLL 290650Z 35005KT 310V020 9999 FEW024 14/09
                        Q1011 NOSIG=
201406290620 METAR COR EGLL 290620Z 36005KT 300V020 9999 FEW024 14/09
                        Q1011 NOSIG=
201406290550 METAR COR EGLL 290550Z 01005KT 330V040 CAVOK 13/09 Q1011
                        NOSIG=
201406290520 METAR COR EGLL 290520Z 36004KT 320V050 CAVOK 13/10 Q1011
                        NOSIG=
201406290450 METAR COR EGLL 290450Z 36004KT 330V040 9999 FEW045 13/10
                        Q1011 NOSIG=
201406290420 METAR COR EGLL 290420Z 36004KT 320V030 9999 FEW037 13/10
                        Q1011 NOSIG=
201406290350 METAR COR EGLL 290350Z 35004KT 9999 SCT029 BKN037 13/10 Q1011
                        NOSIG=
201406290320 METAR COR EGLL 290320Z VRB03KT 9999 SCT023 BKN029 13/10 Q1010
                        NOSIG=
201406290250 METAR COR EGLL 290250Z VRB03KT 9999 SCT019 SCT025 13/10 Q1010
                        NOSIG=
201406290220 METAR COR EGLL 290220Z 03004KT 340V050 9999 SCT015 13/10
                        Q1010 NOSIG=
201406290150 METAR COR EGLL 290150Z 03005KT 9999 FEW013 BKN034 13/11 Q1010
                        NOSIG=
201406290120 METAR EGLL 290120Z AUTO 05005KT 010V070 9999 BKN010 14/11
                        Q1010=
201406290050 METAR EGLL 290050Z AUTO 02005KT 340V060 9999 SCT010 OVC013
                        14/11 Q1010=
201406290020 METAR EGLL 290020Z AUTO VRB03KT 9999 BKN011 14/11 Q1010=
201406282350 METAR COR EGLL 282350Z 03004KT 340V050 9999 FEW013 14/11
                        Q1010 TEMPO BKN012=
201406282320 METAR COR EGLL 282320Z 04005KT 010V090 9999 FEW012 14/11
                        Q1010 NOSIG=
201406282250 METAR COR EGLL 282250Z 02004KT 340V050 CAVOK 14/11 Q1010
                        NOSIG=
201406282220 METAR COR EGLL 282220Z 02004KT 350V060 9999 FEW020 14/11
                        Q1010 NOSIG=
201406282150 METAR COR EGLL 282150Z 03005KT 9999 SCT020 15/11 Q1010 NOSIG=
201406282120 METAR COR EGLL 282120Z 03006KT 330V060 9999 BKN017 15/12
                        Q1010 NOSIG=
201406282050 METAR COR EGLL 282050Z 04003KT 9999 SCT020 BKN044 15/11 Q1009
                        NOSIG=
201406282020 METAR COR EGLL 282020Z 05003KT 9999 FEW029 BKN044 15/11 Q1009
                        NOSIG=
201406281950 METAR COR EGLL 281950Z 05004KT 9999 -SHRA FEW018 SCT029CB
                        BKN040 15/11 Q1009 NOSIG=
201406281920 METAR COR EGLL 281920Z 05004KT 9999 -RA SCT026CB 15/10 Q1008
                        TEMPO SHRA=
201406281850 METAR COR EGLL 281850Z 05006KT 010V090 9999 SCT016 SCT019TCU
                        16/12 Q1008 TEMPO SHRA=
201406281820 METAR COR EGLL 281820Z 05004KT 350V130 9999 FEW018 SCT033TCU
                        17/12 Q1008 NOSIG=
201406281750 METAR COR EGLL 281750Z VRB03KT 9999 FEW018 SCT028 16/12 Q1009
                        NOSIG=
201406281720 METAR COR EGLL 281720Z VRB02KT 9999 FEW018 16/12 Q1009 NOSIG=
201406281650 METAR COR EGLL 281650Z VRB03KT 9999 FEW018 16/12 Q1009 NOSIG=
201406281620 METAR EGLL 281620Z VRB02KT 9999 FEW045CB 16/11 Q1009=
201406281550 METAR COR EGLL 281550Z 14004KT 110V180 9999 FEW045TCU 15/12
                        Q1009 RESHRA NOSIG=
201406281520 METAR COR EGLL 281520Z 14005KT 060V190 9999 SHRA FEW028CB
                        SCT035 BKN044 15/12 Q1009 TEMPO -SHRA=
201406281450 METAR COR EGLL 281450Z VRB02KT 9999 SHRA FEW020CB SCT035
                        BKN044 15/12 Q1009 TEMPO -SHRA=
201406281420 METAR COR EGLL 281420Z 00000KT 9000 SHRA FEW023CB SCT037
                        15/12 Q1009 RESHRA TEMPO -SHRA=
201406281350 METAR COR EGLL 281350Z VRB03KT 9999 -SHRA FEW032CB 16/11
                        Q1009 TEMPO 4000 SHRA=
201406281320 METAR COR EGLL 281320Z VRB03KT 9999 VCSH FEW026CB 16/11 Q1009
                        TEMPO SHRA=
201406281250 METAR COR EGLL 281250Z 36003KT 9999 7000S VCSH FEW024CB SCT033
                        15/11 Q1009 TEMPO SHRA=
201406281220 METAR EGLL 281220Z VRB02KT 9999 6000E -SHRA FEW022CB SCT036
                        15/11 Q1010=
201406281150 METAR COR EGLL 281150Z 04005KT 020V080 9999 -SHRA FEW025CB
                        BKN049 15/11 Q1010 RESHRA TEMPO SHRA=
201406281120 METAR COR EGLL 281120Z 32006KT 290V020 9999 7000NE SHRA FEW014CB
                        SCT034 14/11 Q1010 RETS TEMPO +SHRA=
201406281050 METAR EGLL 281050Z 34005KT 290V060 9999 8000W VCSH FEW031CB
                        20/10 Q1010=
201406281020 METAR COR EGLL 281020Z VRB03KT 9999 8000W VCSH FEW025CB 18/12
                        Q1010 TEMPO SHRA=
201406280950 METAR COR EGLL 280950Z 20006KT 150V320 9999 7000E -SHRA FEW024CB
                        SCT041 17/12 Q1010 TEMPO SHRA=
201406280920 METAR COR EGLL 280920Z 26006KT 200V300 9999 VCSH FEW024CB
                        17/10 Q1010 TEMPO SHRA=
201406280850 METAR COR EGLL 280850Z 29005KT 9999 SCT022 SCT040 17/11 Q1010
                        TEMPO SHRA=
201406280820 METAR COR EGLL 280820Z 27005KT 210V350 9999 SCT030 18/11
                        Q1010 NOSIG=
201406280750 METAR COR EGLL 280750Z 29005KT 250V350 9999 FEW016 17/11
                        Q1011 NOSIG=
201406280720 METAR COR EGLL 280720Z 30004KT 260V020 9999 FEW012 16/12
                        Q1011 NOSIG=
201406280650 METAR COR EGLL 280650Z 28004KT 240V320 9999 FEW011 15/12
                        Q1011 NOSIG=
201406280620 METAR COR EGLL 280620Z 25005KT 9999 FEW008 14/12 Q1011 NOSIG=
201406280550 METAR COR EGLL 280550Z 24005KT 200V280 9999 SCT006 14/11
                        Q1011 TEMPO BKN010=
201406280520 METAR COR EGLL 280520Z 26005KT 230V290 9999 SCT008 13/11
                        Q1011 TEMPO BKN010=
201406280450 METAR COR EGLL 280450Z 28005KT 9999 FEW008 13/11 Q1011 TEMPO
                        BKN010=
201406280420 METAR COR EGLL 280420Z 19004KT 9999 FEW008 13/11 Q1011 TEMPO
                        BKN010=
201406280350 METAR COR EGLL 280350Z 20004KT CAVOK 13/11 Q1011 NOSIG=
201406280320 METAR COR EGLL 280320Z 21005KT CAVOK 13/11 Q1011 NOSIG=
201406280250 METAR COR EGLL 280250Z 21006KT CAVOK 13/11 Q1011 NOSIG=
201406280220 METAR COR EGLL 280220Z 21006KT CAVOK 13/11 Q1011 NOSIG=
201406280150 METAR COR EGLL 280150Z 23006KT CAVOK 13/11 Q1012 NOSIG=
201406280120 METAR EGLL 280120Z AUTO 22006KT 9999 NCD 13/11 Q1012=
201406280050 METAR EGLL 280050Z AUTO 22006KT 9999 NCD 14/11 Q1012=
201406280020 METAR EGLL 280020Z AUTO 23007KT 9999 NCD 14/11 Q1012=
201406272350 METAR COR EGLL 272350Z 23007KT CAVOK 14/11 Q1012 NOSIG=
201406272320 METAR COR EGLL 272320Z 24008KT CAVOK 15/11 Q1012 NOSIG=
201406272250 METAR COR EGLL 272250Z 22009KT CAVOK 15/12 Q1012 NOSIG=
201406272220 METAR COR EGLL 272220Z 22008KT CAVOK 15/12 Q1012 NOSIG=
201406272150 METAR COR EGLL 272150Z 22010KT CAVOK 16/12 Q1012 NOSIG=
201406272120 METAR COR EGLL 272120Z 22010KT CAVOK 16/11 Q1012 NOSIG=
201406272050 METAR COR EGLL 272050Z 22010KT 9999 FEW035 17/11 Q1012 NOSIG=
201406272020 METAR COR EGLL 272020Z 21010KT 9999 FEW035 18/11 Q1011 NOSIG=
201406271950 METAR COR EGLL 271950Z 23010KT 9999 FEW045 19/10 Q1011 NOSIG=
201406271920 METAR EGLL 271920Z 23012KT 9999 FEW045 19/10 Q1011=
201406271850 METAR COR EGLL 271850Z 23013KT 9999 FEW044 19/09 Q1011 NOSIG=
201406271820 METAR COR EGLL 271820Z 23015KT 9999 FEW040 20/09 Q1011 NOSIG=
201406271750 METAR EGLL 271750Z 22015G28KT 9999 FEW045 21/09 Q1011=
201406271720 METAR COR EGLL 271720Z 23014KT 9999 FEW045 21/09 Q1011 NOSIG=
201406271650 METAR EGLL 271650Z 23016KT 190V260 9999 FEW045 21/09 Q1011=
201406271620 METAR COR EGLL 271620Z 22015KT 9999 FEW046 21/08 Q1011 NOSIG=
201406271550 METAR COR EGLL 271550Z 23014KT 9999 FEW047 22/09 Q1011 NOSIG=
201406271520 METAR COR EGLL 271520Z 22015KT 9999 FEW049 22/07 Q1011 NOSIG=
201406271450 METAR COR EGLL 271450Z 23013KT 9999 FEW049 23/08 Q1011 NOSIG=
201406271420 METAR COR EGLL 271420Z 22013KT 170V240 9999 FEW049 22/08
                        Q1011 NOSIG=
201406271350 METAR COR EGLL 271350Z 21013KT 180V240 9999 FEW045 21/08
                        Q1011 NOSIG=
201406271320 METAR COR EGLL 271320Z 21013KT 170V260 9999 FEW039 22/08
                        Q1011 NOSIG=
201406271250 METAR COR EGLL 271250Z 22007KT 190V270 9999 FEW039 22/10
                        Q1012 TEMPO SHRA=
201406271220 METAR COR EGLL 271220Z 23011KT 9999 FEW040 20/10 Q1012 TEMPO
                        SHRA=
201406271150 METAR COR EGLL 271150Z 24012KT 9999 FEW032 20/11 Q1013 TEMPO
                        SHRA=
201406271120 METAR COR EGLL 271120Z 24013KT 210V270 9999 FEW028 20/09
                        Q1013 TEMPO SHRA=
201406271050 METAR COR EGLL 271050Z 23013KT 9999 SCT026 19/11 Q1013 TEMPO
                        SHRA=
201406271020 METAR COR EGLL 271020Z 24012KT 9999 -RA SCT030 18/11 Q1013
                        TEMPO SHRA=
201406270950 METAR COR EGLL 270950Z 24012KT 9999 SCT024 19/11 Q1013 TEMPO
                        SHRA=
201406270920 METAR COR EGLL 270920Z 24012KT 9999 SCT018 SCT030 18/12 Q1013
                        TEMPO SHRA=
201406270850 METAR EGLL 270850Z 22012KT 9999 SCT017 18/13 Q1013=
201406270820 METAR COR EGLL 270820Z 21011KT 170V240 9999 FEW016 SCT021
                        18/13 Q1012 TEMPO SHRA=
201406270750 METAR COR EGLL 270750Z 20009KT 170V240 9999 SCT012 17/14
                        Q1012 NOSIG=
201406270720 METAR COR EGLL 270720Z 21010KT 9999 FEW012 17/14 Q1012 NOSIG=
201406270650 METAR COR EGLL 270650Z 20009KT 180V240 9999 FEW010 17/14
                        Q1012 NOSIG=
201406270620 METAR COR EGLL 270620Z 19007KT 150V230 9000 SCT008 SCT010
                        16/14 Q1012 TEMPO BKN010=
201406270550 METAR COR EGLL 270550Z 17006KT 130V220 8000 SCT007 SCT010
                        15/13 Q1012 TEMPO BKN010=
201406270520 METAR COR EGLL 270520Z 18004KT 140V250 7000 FEW007 SCT010
                        15/13 Q1012 TEMPO BKN014=
201406270450 METAR COR EGLL 270450Z 17004KT 8000 SCT012 14/13 Q1012 TEMPO
                        BKN012=
201406270420 METAR COR EGLL 270420Z 17004KT 7000 FEW011 14/13 Q1012 TEMPO
                        BKN014=
201406270350 METAR COR EGLL 270350Z 17004KT 8000 FEW007 BKN012 14/13 Q1013
                        NOSIG=
201406270320 METAR COR EGLL 270320Z 18004KT 8000 SCT012 14/13 Q1013 TEMPO
                        BKN012=
201406270250 METAR COR EGLL 270250Z 16006KT 9000 FEW010 14/12 Q1013 TEMPO
                        BKN012=
201406270220 METAR COR EGLL 270220Z 16006KT 9999 FEW010 15/13 Q1013 TEMPO
                        BKN013=
201406270150 METAR COR EGLL 270150Z 15005KT 9999 BKN012 15/12 Q1013 TEMPO
                        SCT012 BKN015=
201406270120 METAR EGLL 270120Z AUTO 14007KT 9999 BKN016 BKN019 15/12
                        Q1013=
201406270050 METAR EGLL 270050Z AUTO 13008KT 9999 OVC017 15/13 Q1013=
201406270020 METAR EGLL 270020Z AUTO 13007KT 9999 FEW020 BKN024 15/13
                        Q1014=
201406262350 METAR COR EGLL 262350Z 14005KT 9999 FEW010 BKN027 15/13 Q1014
                        NOSIG=
201406262320 METAR COR EGLL 262320Z 13005KT 9999 FEW010 BKN033 15/13 Q1014
                        NOSIG=
201406262250 METAR COR EGLL 262250Z 10004KT 9999 FEW010 BKN034 15/13 Q1014
                        NOSIG=
201406262220 METAR COR EGLL 262220Z 10003KT 9999 FEW012 BKN034 15/13 Q1014
                        NOSIG=
201406262150 METAR COR EGLL 262150Z 09004KT 9999 FEW012 BKN033 15/13 Q1014
                        NOSIG=
201406262120 METAR COR EGLL 262120Z 13004KT 090V160 9999 -SHRA FEW011
                        BKN034 15/13 Q1014 NOSIG=
201406262050 METAR COR EGLL 262050Z VRB03KT 9999 -SHRA FEW011 BKN040 15/13
                        Q1014 NOSIG=
201406262020 METAR COR EGLL 262020Z 11006KT 9999 -SHRA FEW014 SCT029 BKN041
                        15/13 Q1014 NOSIG=
201406261950 METAR COR EGLL 261950Z 12006KT 9999 -SHRA FEW027 BKN047 16/13
                        Q1014 NOSIG=
201406261920 METAR EGLL 261920Z 10006KT 9999 -SHRA SCT030 BKN048 16/12
                        Q1014=
201406261850 METAR COR EGLL 261850Z 14006KT 100V160 9999 -SHRA SCT032
                        BKN040 17/13 Q1014 NOSIG=
201406261820 METAR COR EGLL 261820Z 15006KT 9999 -SHRA FEW035 BKN042 17/13
                        Q1014 NOSIG=
201406261750 METAR COR EGLL 261750Z 11010KT 9999 -SHRA FEW042 BKN046 19/09
                        Q1013 TEMPO SHRA=
201406261720 METAR COR EGLL 261720Z 10010KT 9999 SCT046 19/09 Q1013 TEMPO
                        SHRA=
201406261650 METAR COR EGLL 261650Z 11010KT 070V130 9999 FEW044 20/09
                        Q1013 TEMPO SHRA=
201406261620 METAR COR EGLL 261620Z 11010KT CAVOK 20/09 Q1013 NOSIG=
201406261550 METAR COR EGLL 261550Z 10005KT 360V170 CAVOK 21/08 Q1013
                        NOSIG=
201406261520 METAR COR EGLL 261520Z 11008KT CAVOK 22/06 Q1014 NOSIG=
201406261450 METAR COR EGLL 261450Z 12007KT 060V160 9999 FEW031 21/06
                        Q1014 NOSIG=
201406261420 METAR COR EGLL 261420Z 11008KT 070V150 CAVOK 22/07 Q1014
                        NOSIG=
201406261350 METAR COR EGLL 261350Z 10009KT 060V140 CAVOK 21/06 Q1014
                        NOSIG=
201406261320 METAR COR EGLL 261320Z 09008KT 060V140 CAVOK 21/05 Q1014
                        NOSIG=
201406261250 METAR COR EGLL 261250Z 12010KT 080V160 CAVOK 21/06 Q1015
                        NOSIG=
201406261220 METAR COR EGLL 261220Z 07008KT 040V110 CAVOK 20/05 Q1015
                        NOSIG=
201406261150 METAR COR EGLL 261150Z 09009KT 030V120 CAVOK 20/06 Q1015
                        NOSIG=
201406261120 METAR COR EGLL 261120Z 09007KT 030V140 CAVOK 20/06 Q1015
                        NOSIG=
201406261050 METAR COR EGLL 261050Z 11008KT 070V150 9999 FEW048 19/07
                        Q1016 NOSIG=
201406261020 METAR COR EGLL 261020Z 11008KT 9999 FEW044 19/07 Q1016 NOSIG=
201406260950 METAR COR EGLL 260950Z 08007KT 020V160 9999 FEW044 18/07
                        Q1016 NOSIG=
201406260920 METAR COR EGLL 260920Z 06007KT 020V090 9999 FEW040 17/07
                        Q1016 NOSIG=
201406260850 METAR COR EGLL 260850Z 09006KT 060V130 9999 FEW040 17/07
                        Q1016 NOSIG=
201406260820 METAR COR EGLL 260820Z 08006KT 030V120 9999 FEW040 17/07
                        Q1016 NOSIG=
201406260750 METAR COR EGLL 260750Z 07008KT 040V110 9999 FEW036 17/07
                        Q1016 NOSIG=
201406260720 METAR COR EGLL 260720Z 08006KT 9999 FEW036 16/07 Q1016 NOSIG=
201406260650 METAR COR EGLL 260650Z VRB03KT CAVOK 16/07 Q1016 NOSIG=
201406260620 METAR COR EGLL 260620Z 06004KT 020V090 CAVOK 15/08 Q1016
                        NOSIG=
201406260550 METAR COR EGLL 260550Z VRB03KT CAVOK 14/08 Q1016 NOSIG=
201406260520 METAR COR EGLL 260520Z 04004KT CAVOK 13/08 Q1016 NOSIG=
201406260450 METAR COR EGLL 260450Z 06004KT CAVOK 12/08 Q1016 NOSIG=
201406260420 METAR COR EGLL 260420Z VRB03KT CAVOK 12/08 Q1016 NOSIG=
201406260350 METAR COR EGLL 260350Z 06003KT CAVOK 12/08 Q1016 NOSIG=
201406260320 METAR COR EGLL 260320Z 10003KT CAVOK 12/08 Q1017 NOSIG=
201406260250 METAR COR EGLL 260250Z 12003KT CAVOK 11/07 Q1017 NOSIG=
201406260220 METAR COR EGLL 260220Z 13005KT CAVOK 12/07 Q1017 NOSIG=
201406260150 METAR COR EGLL 260150Z 15004KT CAVOK 13/08 Q1017 NOSIG=
201406260120 METAR EGLL 260120Z AUTO 12005KT 9999 NCD 13/08 Q1017=
201406260050 METAR EGLL 260050Z AUTO 12006KT 9999 NCD 13/08 Q1017=
201406260020 METAR EGLL 260020Z AUTO 12005KT 9999 NCD 14/08 Q1017=
201406252350 METAR COR EGLL 252350Z 12007KT 9999 FEW040 14/08 Q1017 NOSIG=
201406252320 METAR COR EGLL 252320Z 11008KT 9999 SCT037 15/08 Q1017 NOSIG=
201406252250 METAR COR EGLL 252250Z 10009KT 9999 SCT032 SCT043 15/08 Q1017
                        NOSIG=
201406252220 METAR COR EGLL 252220Z 10010KT 9999 SCT035 SCT046 16/08 Q1017
                        NOSIG=
201406252150 METAR COR EGLL 252150Z 10007KT 9999 FEW034 BKN045 16/08 Q1017
                        NOSIG=
201406252120 METAR COR EGLL 252120Z 10010KT 9999 SCT045 17/08 Q1017 NOSIG=
201406252050 METAR COR EGLL 252050Z 11009KT 9999 FEW048 17/08 Q1017 NOSIG=
201406252020 METAR COR EGLL 252020Z 09006KT 050V120 CAVOK 17/07 Q1017
                        NOSIG=
201406251950 METAR COR EGLL 251950Z 05005KT CAVOK 19/05 Q1016 NOSIG=
201406251920 METAR COR EGLL 251920Z 04006KT 350V070 CAVOK 19/05 Q1016
                        NOSIG=
201406251850 METAR COR EGLL 251850Z 04006KT 340V070 CAVOK 20/05 Q1016
                        NOSIG=
201406251820 METAR COR EGLL 251820Z VRB04KT CAVOK 21/04 Q1016 NOSIG=
201406251750 METAR COR EGLL 251750Z 36004KT 300V070 CAVOK 20/04 Q1016
                        NOSIG=
201406251720 METAR COR EGLL 251720Z VRB03KT CAVOK 21/04 Q1017 NOSIG=
201406251650 METAR COR EGLL 251650Z 36005KT 300V070 CAVOK 21/04 Q1017
                        NOSIG=
201406251620 METAR COR EGLL 251620Z 35005KT 250V060 CAVOK 20/05 Q1017
                        NOSIG=
201406251550 METAR COR EGLL 251550Z VRB02KT CAVOK 21/04 Q1017 NOSIG=
201406251520 METAR COR EGLL 251520Z VRB03KT CAVOK 20/05 Q1017 NOSIG=
201406251450 METAR COR EGLL 251450Z VRB03KT CAVOK 20/04 Q1017 NOSIG=
201406251420 METAR COR EGLL 251420Z VRB04KT CAVOK 20/05 Q1018 NOSIG=
201406251350 METAR COR EGLL 251350Z 09004KT 020V150 CAVOK 20/05 Q1018
                        NOSIG=
201406251320 METAR COR EGLL 251320Z 02005KT 270V070 CAVOK 20/04 Q1018
                        NOSIG=
201406251250 METAR COR EGLL 251250Z 06007KT 010V110 CAVOK 20/05 Q1018
                        NOSIG=
201406251220 METAR COR EGLL 251220Z 10006KT 360V130 9999 FEW048 20/06
                        Q1018 NOSIG=
201406251150 METAR COR EGLL 251150Z 06005KT 020V120 9999 FEW048 20/06
                        Q1018 NOSIG=
201406251120 METAR COR EGLL 251120Z 05008KT 010V090 9999 SCT047 19/06
                        Q1018 NOSIG=
201406251050 METAR COR EGLL 251050Z 04008KT 010V100 9999 FEW044 18/06
                        Q1019 NOSIG=
201406251020 METAR COR EGLL 251020Z 04006KT 330V120 9999 FEW044 19/06
                        Q1019 NOSIG=
201406250950 METAR COR EGLL 250950Z 05007KT 340V100 9999 SCT045 17/06
                        Q1019 NOSIG=
201406250920 METAR COR EGLL 250920Z 05006KT 320V110 9999 SCT041 17/06
                        Q1019 NOSIG=
201406250850 METAR COR EGLL 250850Z 07008KT 040V110 9999 FEW040 17/06
                        Q1019 NOSIG=
201406250820 METAR COR EGLL 250820Z 06008KT 020V090 9999 FEW040 17/06
                        Q1019 NOSIG=
201406250750 METAR COR EGLL 250750Z 06007KT 010V100 9999 FEW040 16/06
                        Q1019 NOSIG=
201406250720 METAR COR EGLL 250720Z 04008KT 9999 FEW036 16/06 Q1019 NOSIG=
201406250650 METAR COR EGLL 250650Z 06008KT 9999 FEW024 15/07 Q1019 NOSIG=
201406250620 METAR COR EGLL 250620Z 06007KT 020V080 CAVOK 14/08 Q1019
                        NOSIG=
201406250550 METAR COR EGLL 250550Z 06005KT 020V080 CAVOK 13/09 Q1019
                        NOSIG=
201406250520 METAR COR EGLL 250520Z 05004KT 010V080 9999 FEW020 13/09
                        Q1019 NOSIG=
201406250450 METAR COR EGLL 250450Z 05005KT CAVOK 12/09 Q1019 NOSIG=
201406250420 METAR COR EGLL 250420Z 04005KT CAVOK 12/09 Q1019 NOSIG=
201406250350 METAR COR EGLL 250350Z 05005KT CAVOK 12/09 Q1019 NOSIG=
201406250320 METAR COR EGLL 250320Z 05005KT 020V080 CAVOK 12/09 Q1019
                        NOSIG=
201406250250 METAR COR EGLL 250250Z 05005KT 360V080 CAVOK 12/09 Q1019
                        NOSIG=
201406250220 METAR COR EGLL 250220Z 04007KT CAVOK 12/09 Q1019 NOSIG=
201406250150 METAR COR EGLL 250150Z 04005KT CAVOK 13/09 Q1019 NOSIG=
201406250120 METAR EGLL 250120Z AUTO 05005KT 9999 NCD 13/09 Q1019=
201406250050 METAR EGLL 250050Z AUTO 05007KT 020V090 9999 FEW018 13/09
                        Q1019=
201406250020 METAR EGLL 250020Z AUTO 05007KT 020V080 9999 SCT015 14/10
                        Q1019=
201406242350 METAR COR EGLL 242350Z 04007KT 010V070 9999 FEW015 BKN024
                        15/12 Q1019 TEMPO BKN014=
201406242320 METAR COR EGLL 242320Z 05009KT 9999 FEW015 BKN023 16/12 Q1019
                        TEMPO BKN012=
201406242250 METAR COR EGLL 242250Z 05009KT 9999 BKN016 16/12 Q1019 TEMPO
                        BKN012=
201406242220 METAR COR EGLL 242220Z 04007KT 020V090 9999 FEW014 OVC029
                        16/13 Q1018 TEMPO BKN012=
201406242150 METAR COR EGLL 242150Z 05008KT 9999 SCT013 BKN018 17/13 Q1018
                        TEMPO BKN012=
201406242120 METAR COR EGLL 242120Z 05007KT 9999 SCT014 BKN019 17/13 Q1018
                        TEMPO BKN014=
201406242050 METAR COR EGLL 242050Z 04008KT 9999 FEW015 BKN020 17/13 Q1018
                        TEMPO BKN014=
201406242020 METAR COR EGLL 242020Z 04009KT 9999 SCT018 17/13 Q1018 NOSIG=
201406241950 METAR COR EGLL 241950Z 04011KT 9999 FEW019 18/13 Q1018 TEMPO
                        BKN014=
201406241920 METAR COR EGLL 241920Z 02009KT 340V040 9999 FEW047 19/13
                        Q1018 TEMPO BKN014=
201406241850 METAR COR EGLL 241850Z 03010G20KT 340V060 9999 FEW047 21/12
                        Q1017 NOSIG=
201406241820 METAR COR EGLL 241820Z 35008KT 9999 FEW047 23/10 Q1017 NOSIG=
201406241750 METAR COR EGLL 241750Z 35008KT 9999 FEW049 24/10 Q1017 NOSIG=
201406241720 METAR COR EGLL 241720Z 35008KT 310V040 CAVOK 24/09 Q1017
                        NOSIG=
201406241650 METAR COR EGLL 241650Z 31009KT 270V350 CAVOK 24/09 Q1017
                        NOSIG=
201406241620 METAR COR EGLL 241620Z 32009KT 280V010 CAVOK 24/10 Q1017
                        NOSIG=
201406241550 METAR COR EGLL 241550Z 31007KT 9999 FEW049 24/10 Q1017 NOSIG=
201406241520 METAR COR EGLL 241520Z 31008KT 280V350 9999 FEW049 24/09
                        Q1018 NOSIG=
201406241450 METAR COR EGLL 241450Z 29009KT 9999 FEW047 25/09 Q1018 NOSIG=
201406241420 METAR EGLL 241420Z 32007KT 270V010 9999 FEW046 24/10 Q1018=
201406241350 METAR COR EGLL 241350Z 32006KT 280V030 9999 FEW046 24/12
                        Q1018 NOSIG=
201406241320 METAR COR EGLL 241320Z 32006KT 280V010 CAVOK 23/13 Q1019
                        NOSIG=
201406241250 METAR COR EGLL 241250Z 30007KT 280V350 9999 FEW040 23/13
                        Q1019 NOSIG=
201406241220 METAR COR EGLL 241220Z 28006KT 240V310 9999 FEW035 23/12
                        Q1019 NOSIG=
201406241150 METAR COR EGLL 241150Z 26005KT 210V330 9999 SCT040 24/12
                        Q1019 NOSIG=
201406241120 METAR COR EGLL 241120Z VRB03KT 9999 FEW037 22/11 Q1020 NOSIG=
201406241050 METAR COR EGLL 241050Z VRB03KT 9999 FEW041 21/11 Q1020 NOSIG=
201406241020 METAR COR EGLL 241020Z VRB04KT 9999 FEW043 22/11 Q1020 NOSIG=
201406240950 METAR COR EGLL 240950Z VRB03KT 9999 FEW025 22/12 Q1020 NOSIG=
201406240920 METAR COR EGLL 240920Z VRB02KT 9999 FEW025 21/12 Q1020 NOSIG=
201406240850 METAR COR EGLL 240850Z VRB02KT 9999 FEW015 20/13 Q1020 NOSIG=
201406240820 METAR COR EGLL 240820Z VRB02KT 9999 FEW011 19/13 Q1020 NOSIG=
201406240750 METAR COR EGLL 240750Z VRB02KT 9000 FEW010 17/14 Q1020 NOSIG=
201406240720 METAR COR EGLL 240720Z VRB03KT 6000 SCT006 16/14 Q1020 NOSIG=
201406240650 METAR COR EGLL 240650Z 03004KT 330V060 3800 HZ SCT002 BKN003
                        15/14 Q1020 BECMG 6000 NSW SCT006=
201406240620 METAR COR EGLL 240620Z 36004KT 320V040 1600 BR SCT001 BKN003
                        14/13 Q1021 BECMG 4000 SCT006=
201406240550 METAR COR EGLL 240550Z VRB03KT 1100 R27L/P1500 R27R/P1500
                        BCFG BR BKN001 14/13 Q1020 BECMG
                        4500 SCT006=
201406240520 METAR COR EGLL 240520Z VRB03KT 1000 R27L/1200 R27R/1200 BR
                        BKN001 14/13 Q1020 BECMG 4000 SCT004=
201406240450 METAR COR EGLL 240450Z VRB02KT 0800 R27L/P1500 R27R/1400
                        FG BKN001 14/13 Q1020 BECMG 3000
                        BR SCT005=
201406240420 METAR COR EGLL 240420Z 32004KT 1500 BR FEW001 BKN002 14/13
                        Q1020 TEMPO 0700 BCFG BKN001=
201406240350 METAR COR EGLL 240350Z 36004KT 7000 NSC 14/13 Q1020 NOSIG=
201406240320 METAR COR EGLL 240320Z VRB03KT 8000 NSC 14/13 Q1020 NOSIG=
201406240250 METAR COR EGLL 240250Z VRB03KT 9000 NSC 15/13 Q1021 NOSIG=
201406240220 METAR COR EGLL 240220Z 35004KT CAVOK 15/13 Q1021 NOSIG=
201406240150 METAR COR EGLL 240150Z 35002KT CAVOK 16/13 Q1021 NOSIG=
201406240120 METAR EGLL 240120Z AUTO 02002KT 9999 NCD 16/13 Q1021=
201406240050 METAR EGLL 240050Z AUTO VRB03KT 9999 NCD 16/14 Q1021=
201406240020 METAR EGLL 240020Z AUTO 00000KT 9999 NCD 17/14 Q1021=
201406232350 METAR COR EGLL 232350Z 33002KT CAVOK 17/15 Q1021 NOSIG=
201406232320 METAR COR EGLL 232320Z 00000KT CAVOK 18/14 Q1021 NOSIG=
201406232250 METAR COR EGLL 232250Z 02002KT CAVOK 18/15 Q1021 NOSIG=
201406232220 METAR COR EGLL 232220Z 05004KT CAVOK 19/15 Q1021 NOSIG=
201406232150 METAR COR EGLL 232150Z 00000KT 9999 SCT049 18/15 Q1021 NOSIG=
201406232120 METAR COR EGLL 232120Z VRB05KT CAVOK 19/15 Q1021 NOSIG=
201406232050 METAR COR EGLL 232050Z 11006KT CAVOK 19/15 Q1021 NOSIG=
201406232020 METAR COR EGLL 232020Z 12006KT CAVOK 19/15 Q1021 NOSIG=
201406231950 METAR COR EGLL 231950Z 08004KT 9999 FEW048 19/15 Q1021 NOSIG=
201406231920 METAR COR EGLL 231920Z 04005KT 010V080 9999 VCSH FEW049 21/14
                        Q1021 NOSIG=
201406231850 METAR COR EGLL 231850Z VRB02KT CAVOK 23/10 Q1020 TEMPO SHRA=
201406231820 METAR COR EGLL 231820Z VRB02KT CAVOK 23/10 Q1020 TEMPO SHRA=
201406231750 METAR COR EGLL 231750Z 32004KT CAVOK 23/11 Q1020 TEMPO SHRA=
201406231720 METAR COR EGLL 231720Z 31006KT CAVOK 23/10 Q1020 TEMPO SHRA=
201406231650 METAR COR EGLL 231650Z 28005KT 240V330 CAVOK 23/09 Q1021
                        TEMPO SHRA=
201406231620 METAR COR EGLL 231620Z 28004KT 210V020 CAVOK 24/10 Q1021
                        TEMPO SHRA=
201406231550 METAR COR EGLL 231550Z 31004KT CAVOK 23/10 Q1021 TEMPO SHRA=
201406231520 METAR COR EGLL 231520Z 29006KT 260V320 CAVOK 24/09 Q1021
                        TEMPO SHRA=
201406231450 METAR COR EGLL 231450Z VRB02KT CAVOK 24/08 Q1021 NOSIG=
201406231420 METAR COR EGLL 231420Z 25004KT 200V360 CAVOK 25/08 Q1021
                        NOSIG=
201406231350 METAR COR EGLL 231350Z 25006KT 200V300 CAVOK 24/07 Q1022
                        NOSIG=
201406231320 METAR COR EGLL 231320Z VRB05KT CAVOK 25/07 Q1022 NOSIG=
201406231250 METAR COR EGLL 231250Z VRB04KT CAVOK 25/08 Q1022 NOSIG=
201406231220 METAR COR EGLL 231220Z 35005KT 300V040 CAVOK 25/08 Q1022
                        NOSIG=
201406231150 METAR COR EGLL 231150Z VRB04KT CAVOK 24/07 Q1022 NOSIG=
201406231120 METAR COR EGLL 231120Z 32004KT 190V360 CAVOK 23/07 Q1022
                        NOSIG=
201406231050 METAR COR EGLL 231050Z 28006KT 250V340 CAVOK 24/06 Q1022
                        NOSIG=
201406231020 METAR COR EGLL 231020Z VRB03KT CAVOK 22/06 Q1022 NOSIG=
201406230950 METAR COR EGLL 230950Z 06004KT 360V110 CAVOK 23/08 Q1023
                        NOSIG=
201406230920 METAR COR EGLL 230920Z VRB02KT CAVOK 21/08 Q1023 NOSIG=
201406230850 METAR COR EGLL 230850Z VRB02KT CAVOK 21/08 Q1023 NOSIG=
201406230820 METAR COR EGLL 230820Z VRB02KT CAVOK 19/09 Q1023 NOSIG=
201406230750 METAR COR EGLL 230750Z VRB03KT CAVOK 19/09 Q1023 NOSIG=
201406230720 METAR COR EGLL 230720Z VRB03KT CAVOK 18/09 Q1023 NOSIG=
201406230650 METAR COR EGLL 230650Z VRB03KT CAVOK 17/10 Q1023 NOSIG=
201406230620 METAR COR EGLL 230620Z VRB02KT CAVOK 16/10 Q1023 NOSIG=
201406230550 METAR COR EGLL 230550Z VRB04KT CAVOK 16/10 Q1023 NOSIG=
201406230520 METAR COR EGLL 230520Z 14005KT 090V170 CAVOK 15/11 Q1023
                        NOSIG=
201406230450 METAR COR EGLL 230450Z 14003KT CAVOK 15/10 Q1023 NOSIG=
201406230420 METAR COR EGLL 230420Z 09002KT CAVOK 15/09 Q1022 NOSIG=
201406230350 METAR COR EGLL 230350Z 00000KT CAVOK 14/09 Q1022 NOSIG=
201406230320 METAR COR EGLL 230320Z 15002KT CAVOK 14/09 Q1022 NOSIG=
201406230250 METAR COR EGLL 230250Z VRB02KT CAVOK 14/09 Q1023 NOSIG=
201406230220 METAR COR EGLL 230220Z 16002KT CAVOK 15/09 Q1023 NOSIG=
201406230150 METAR COR EGLL 230150Z 18004KT CAVOK 15/10 Q1023 NOSIG=
201406230120 METAR COR EGLL 230120Z 16003KT CAVOK 15/10 Q1023 NOSIG=
201406230050 METAR COR EGLL 230050Z 15003KT CAVOK 15/10 Q1023 NOSIG=
201406230020 METAR COR EGLL 230020Z 16005KT CAVOK 16/10 Q1023 NOSIG=
201406222350 METAR COR EGLL 222350Z 15005KT CAVOK 16/09 Q1023 NOSIG=
201406222320 METAR COR EGLL 222320Z 12007KT CAVOK 16/09 Q1023 NOSIG=
201406222250 METAR COR EGLL 222250Z 10006KT CAVOK 16/09 Q1023 NOSIG=
201406222220 METAR COR EGLL 222220Z 11006KT CAVOK 17/10 Q1023 NOSIG=
201406222150 METAR COR EGLL 222150Z 13006KT CAVOK 18/09 Q1023 NOSIG=
201406222120 METAR COR EGLL 222120Z 16006KT CAVOK 20/09 Q1022 NOSIG=
201406222050 METAR COR EGLL 222050Z 16006KT CAVOK 21/10 Q1022 NOSIG=
201406222020 METAR COR EGLL 222020Z 15007KT CAVOK 21/09 Q1022 NOSIG=
201406221950 METAR COR EGLL 221950Z 15008KT CAVOK 21/09 Q1022 NOSIG=
201406221920 METAR COR EGLL 221920Z 15007KT CAVOK 21/10 Q1022 NOSIG=
201406221850 METAR COR EGLL 221850Z 14007KT CAVOK 22/10 Q1021 NOSIG=
201406221820 METAR COR EGLL 221820Z 14009KT 9999 BKN049 22/10 Q1021 NOSIG=
201406221750 METAR COR EGLL 221750Z 12008KT 9999 FEW049 22/11 Q1021 NOSIG=
201406221720 METAR COR EGLL 221720Z 12009KT CAVOK 22/11 Q1021 NOSIG=
201406221650 METAR COR EGLL 221650Z 10008KT 070V130 CAVOK 23/11 Q1021
                        NOSIG=
201406221620 METAR COR EGLL 221620Z 07007KT 050V110 CAVOK 23/10 Q1021
                        NOSIG=
201406221550 METAR COR EGLL 221550Z 12006KT 080V140 CAVOK 23/10 Q1021
                        NOSIG=
201406221520 METAR COR EGLL 221520Z 08008KT 040V110 CAVOK 23/10 Q1021
                        NOSIG=
201406221450 METAR COR EGLL 221450Z VRB03KT CAVOK 24/08 Q1021 NOSIG=
201406221420 METAR COR EGLL 221420Z VRB05KT CAVOK 24/09 Q1021 NOSIG=
201406221350 METAR COR EGLL 221350Z VRB03KT CAVOK 24/08 Q1021 NOSIG=
201406221320 METAR COR EGLL 221320Z 13005KT 090V170 CAVOK 23/08 Q1021
                        NOSIG=
201406221250 METAR COR EGLL 221250Z VRB04KT CAVOK 24/07 Q1021 NOSIG=
201406221220 METAR COR EGLL 221220Z VRB05KT CAVOK 23/08 Q1021 NOSIG=
201406221150 METAR COR EGLL 221150Z VRB04KT CAVOK 24/08 Q1021 NOSIG=
201406221120 METAR COR EGLL 221120Z 22004KT 160V270 CAVOK 23/07 Q1021
                        NOSIG=
201406221050 METAR COR EGLL 221050Z 09005KT 360V150 9999 FEW049 23/09
                        Q1021 NOSIG=
201406221020 METAR COR EGLL 221020Z 14004KT 060V200 9999 FEW048 22/09
                        Q1021 NOSIG=
201406220950 METAR COR EGLL 220950Z 13007KT 090V180 9999 FEW033 22/10
                        Q1021 NOSIG=
201406220920 METAR COR EGLL 220920Z VRB04KT 9999 FEW033 22/12 Q1021 NOSIG=
201406220850 METAR COR EGLL 220850Z 09005KT 360V130 CAVOK 21/13 Q1021
                        NOSIG=
201406220820 METAR COR EGLL 220820Z 08004KT 020V120 CAVOK 20/13 Q1021
                        NOSIG=
201406220750 METAR COR EGLL 220750Z VRB03KT CAVOK 19/13 Q1021 NOSIG=
201406220720 METAR COR EGLL 220720Z VRB03KT CAVOK 18/13 Q1021 NOSIG=
201406220650 METAR COR EGLL 220650Z VRB03KT CAVOK 17/13 Q1021 NOSIG=
201406220620 METAR COR EGLL 220620Z 11004KT 070V130 CAVOK 16/13 Q1021
                        NOSIG=
201406220550 METAR COR EGLL 220550Z VRB03KT CAVOK 16/13 Q1021 NOSIG=
201406220520 METAR COR EGLL 220520Z VRB03KT CAVOK 15/12 Q1021 NOSIG=
201406220450 METAR COR EGLL 220450Z 04004KT CAVOK 14/11 Q1021 NOSIG=
201406220420 METAR COR EGLL 220420Z 04005KT CAVOK 14/11 Q1021 NOSIG=
201406220350 METAR COR EGLL 220350Z VRB03KT 9999 FEW012 14/11 Q1020 NOSIG=
201406220320 METAR COR EGLL 220320Z VRB02KT CAVOK 14/11 Q1020 NOSIG=
201406220250 METAR COR EGLL 220250Z VRB02KT CAVOK 14/11 Q1020 NOSIG=
201406220220 METAR COR EGLL 220220Z 00000KT CAVOK 14/11 Q1020 NOSIG=
201406220150 METAR COR EGLL 220150Z 07002KT CAVOK 15/11 Q1020 NOSIG=
201406220120 METAR COR EGLL 220120Z 07003KT CAVOK 14/11 Q1020 NOSIG=
201406220050 METAR COR EGLL 220050Z 07003KT CAVOK 14/11 Q1020 NOSIG=
201406220020 METAR COR EGLL 220020Z 10004KT CAVOK 15/11 Q1020 NOSIG=
201406212350 METAR COR EGLL 212350Z 09006KT CAVOK 15/11 Q1020 NOSIG=
201406212320 METAR COR EGLL 212320Z 10007KT CAVOK 16/11 Q1020 NOSIG=
201406212250 METAR COR EGLL 212250Z 09007KT CAVOK 16/12 Q1020 NOSIG=
201406212220 METAR COR EGLL 212220Z 04006KT 010V080 CAVOK 18/11 Q1020
                        NOSIG=
201406212150 METAR COR EGLL 212150Z 35004KT CAVOK 19/10 Q1019 NOSIG=
201406212120 METAR COR EGLL 212120Z 35003KT CAVOK 20/09 Q1019 NOSIG=
201406212050 METAR COR EGLL 212050Z 35004KT CAVOK 20/09 Q1019 NOSIG=
201406212020 METAR COR EGLL 212020Z VRB03KT CAVOK 21/09 Q1019 NOSIG=
201406211950 METAR COR EGLL 211950Z VRB03KT CAVOK 21/08 Q1019 NOSIG=
201406211920 METAR COR EGLL 211920Z VRB03KT CAVOK 22/08 Q1019 NOSIG=
201406211850 METAR COR EGLL 211850Z 36004KT 320V040 CAVOK 22/08 Q1019
                        NOSIG=
201406211820 METAR COR EGLL 211820Z 01005KT 330V060 CAVOK 22/08 Q1019
                        NOSIG=
201406211750 METAR COR EGLL 211750Z 33006KT 270V020 CAVOK 23/08 Q1018
                        NOSIG=
201406211720 METAR COR EGLL 211720Z 34006KT 280V030 CAVOK 23/08 Q1018
                        NOSIG=
201406211650 METAR COR EGLL 211650Z 33007KT 300V360 CAVOK 23/09 Q1018
                        NOSIG=
201406211620 METAR COR EGLL 211620Z 31006KT 250V340 9999 FEW049 23/09
                        Q1018 NOSIG=
201406211550 METAR COR EGLL 211550Z 30006KT 240V030 9999 FEW049 23/09
                        Q1019 NOSIG=
201406211520 METAR COR EGLL 211520Z 30007KT 260V340 9999 SCT049 23/09
                        Q1019 NOSIG=
201406211450 METAR COR EGLL 211450Z 33007KT 260V030 9999 FEW045 24/09
                        Q1019 NOSIG=
201406211420 METAR COR EGLL 211420Z 30009KT 270V340 9999 SCT043 23/10
                        Q1019 NOSIG=
201406211350 METAR COR EGLL 211350Z 31009KT 270V340 9999 SCT040 24/11
                        Q1019 NOSIG=
201406211320 METAR COR EGLL 211320Z 31008KT 260V340 9999 FEW038 23/11
                        Q1019 NOSIG=
201406211250 METAR COR EGLL 211250Z 31007KT 270V350 9999 SCT040 23/12
                        Q1019 NOSIG=
201406211220 METAR COR EGLL 211220Z 27010KT 240V320 9999 FEW037 22/11
                        Q1019 NOSIG=
201406211150 METAR COR EGLL 211150Z 27009KT 9999 FEW036 22/12 Q1019 NOSIG=
201406211120 METAR COR EGLL 211120Z 27008KT 230V320 9999 FEW032 21/11
                        Q1020 NOSIG=
201406211050 METAR COR EGLL 211050Z 29006KT 210V360 9999 FEW033 21/11
                        Q1020 NOSIG=
201406211020 METAR COR EGLL 211020Z 27007KT 210V310 9999 FEW036 20/10
                        Q1020 NOSIG=
201406210950 METAR COR EGLL 210950Z 26006KT 220V320 9999 FEW036 20/11
                        Q1020 NOSIG=
201406210920 METAR COR EGLL 210920Z 26005KT 210V320 9999 FEW032 19/11
                        Q1020 NOSIG=
201406210850 METAR COR EGLL 210850Z 28004KT 210V360 CAVOK 19/10 Q1020
                        NOSIG=
201406210820 METAR COR EGLL 210820Z 28004KT 230V340 CAVOK 18/10 Q1020
                        NOSIG=
201406210750 METAR COR EGLL 210750Z VRB02KT CAVOK 17/10 Q1020 NOSIG=
201406210720 METAR COR EGLL 210720Z 31004KT 240V020 CAVOK 17/10 Q1020
                        NOSIG=
201406210650 METAR COR EGLL 210650Z VRB03KT CAVOK 16/10 Q1020 NOSIG=
201406210620 METAR COR EGLL 210620Z 31004KT 250V040 CAVOK 15/10 Q1020
                        NOSIG=
201406210550 METAR COR EGLL 210550Z 30005KT CAVOK 15/10 Q1020 NOSIG=
201406210520 METAR COR EGLL 210520Z 30006KT 250V320 CAVOK 14/09 Q1020
                        NOSIG=
201406210450 METAR COR EGLL 210450Z 27007KT CAVOK 14/09 Q1020 NOSIG=
201406210420 METAR COR EGLL 210420Z 25006KT CAVOK 14/09 Q1020 NOSIG=
201406210350 METAR COR EGLL 210350Z 24006KT CAVOK 14/09 Q1020 NOSIG=
201406210320 METAR COR EGLL 210320Z 23007KT CAVOK 15/08 Q1020 NOSIG=
201406210250 METAR COR EGLL 210250Z 23007KT CAVOK 15/08 Q1020 NOSIG=
201406210220 METAR COR EGLL 210220Z 22007KT CAVOK 15/08 Q1020 NOSIG=
201406210150 METAR EGLL 210150Z AUTO 22007KT 9999 FEW048 15/08 Q1021=
201406210120 METAR EGLL 210120Z AUTO 22007KT 9999 BKN044 15/09 Q1021=
201406210050 METAR EGLL 210050Z AUTO 22006KT 9999 FEW044 15/09 Q1021=
201406210020 METAR COR EGLL 210020Z 21007KT 9999 SCT046 15/09 Q1021 NOSIG=
201406202350 METAR COR EGLL 202350Z 21008KT 9999 SCT046 15/10 Q1021 NOSIG=
201406202320 METAR COR EGLL 202320Z 21008KT 9999 FEW046 15/10 Q1021 NOSIG=
201406202250 METAR COR EGLL 202250Z 20008KT CAVOK 15/10 Q1021 NOSIG=
201406202220 METAR COR EGLL 202220Z 20009KT 9999 FEW048 15/10 Q1021 NOSIG=
201406202150 METAR COR EGLL 202150Z 19009KT 160V240 9999 FEW049 15/10
                        Q1021 NOSIG=
201406202120 METAR COR EGLL 202120Z 19010KT 150V240 CAVOK 16/11 Q1021
                        NOSIG=
201406202050 METAR COR EGLL 202050Z 18010KT 150V230 CAVOK 17/11 Q1020
                        NOSIG=
201406202020 METAR COR EGLL 202020Z 19009KT 150V230 9999 FEW049 18/11
                        Q1020 NOSIG=
201406201950 METAR COR EGLL 201950Z 19011KT 160V230 CAVOK 19/12 Q1020
                        NOSIG=
201406201920 METAR COR EGLL 201920Z VRB03KT CAVOK 21/10 Q1020 NOSIG=
201406201850 METAR COR EGLL 201850Z 27005KT 230V320 CAVOK 22/10 Q1020
                        NOSIG=
201406201820 METAR COR EGLL 201820Z VRB03KT CAVOK 22/09 Q1020 NOSIG=
201406201750 METAR COR EGLL 201750Z VRB03KT CAVOK 22/09 Q1020 NOSIG=
201406201720 METAR COR EGLL 201720Z VRB03KT CAVOK 22/09 Q1020 NOSIG=
201406201650 METAR COR EGLL 201650Z 32005KT 280V010 CAVOK 22/09 Q1021
                        NOSIG=
201406201620 METAR COR EGLL 201620Z 30005KT 270V360 CAVOK 22/09 Q1021
                        NOSIG=
201406201550 METAR COR EGLL 201550Z VRB04KT CAVOK 22/08 Q1021 NOSIG=
201406201520 METAR COR EGLL 201520Z 29004KT 220V360 CAVOK 22/08 Q1021
                        NOSIG=
201406201450 METAR COR EGLL 201450Z VRB03KT 9999 FEW049 22/08 Q1021 NOSIG=
201406201420 METAR COR EGLL 201420Z VRB03KT 9999 SCT048 22/08 Q1022 NOSIG=
201406201350 METAR COR EGLL 201350Z 29004KT 230V020 9999 BKN048 21/09
                        Q1022 NOSIG=
201406201320 METAR COR EGLL 201320Z VRB04KT 9999 BKN045 22/09 Q1022 NOSIG=
201406201250 METAR COR EGLL 201250Z VRB03KT 9999 BKN044 21/09 Q1022 NOSIG=
201406201220 METAR COR EGLL 201220Z VRB03KT 9999 FEW042 21/08 Q1023 NOSIG=
201406201150 METAR COR EGLL 201150Z VRB03KT 9999 FEW042 21/08 Q1023 NOSIG=
201406201120 METAR COR EGLL 201120Z VRB03KT 9999 FEW043 19/08 Q1023 NOSIG=
201406201050 METAR COR EGLL 201050Z VRB02KT 9999 SCT038 19/08 Q1023 NOSIG=
201406201020 METAR EGLL 201020Z 12005KT 360V160 9999 FEW045 19/07 Q1023=
201406200950 METAR COR EGLL 200950Z 06004KT 010V120 9999 FEW049 18/07
                        Q1023 NOSIG=
201406200920 METAR COR EGLL 200920Z VRB04KT 9999 FEW042 18/08 Q1023 NOSIG=
201406200850 METAR COR EGLL 200850Z VRB02KT 9999 SCT042 16/08 Q1023 NOSIG=
201406200820 METAR COR EGLL 200820Z VRB02KT 9999 SCT043 16/07 Q1023 NOSIG=
201406200750 METAR COR EGLL 200750Z VRB02KT 9999 SCT041 15/09 Q1024 NOSIG=
201406200720 METAR COR EGLL 200720Z VRB03KT 9999 BKN041 15/08 Q1024 NOSIG=
201406200650 METAR COR EGLL 200650Z 00000KT 9999 SCT041 15/08 Q1023 NOSIG=
201406200620 METAR COR EGLL 200620Z VRB02KT 9999 FEW042 14/09 Q1023 NOSIG=
201406200550 METAR COR EGLL 200550Z VRB02KT CAVOK 14/09 Q1023 NOSIG=
201406200520 METAR COR EGLL 200520Z VRB02KT 9999 FEW035 13/09 Q1023 NOSIG=
201406200450 METAR COR EGLL 200450Z 35002KT 9999 FEW035 13/09 Q1023 NOSIG=
201406200420 METAR COR EGLL 200420Z 36003KT 9999 FEW032 12/09 Q1023 NOSIG=
201406200350 METAR COR EGLL 200350Z 33003KT CAVOK 12/09 Q1023 NOSIG=
201406200320 METAR COR EGLL 200320Z VRB03KT CAVOK 12/09 Q1023 NOSIG=
201406200250 METAR COR EGLL 200250Z 01003KT CAVOK 12/09 Q1023 NOSIG=
201406200220 METAR COR EGLL 200220Z 36004KT CAVOK 12/09 Q1023 NOSIG=
201406200150 METAR COR EGLL 200150Z 36003KT CAVOK 12/09 Q1023 NOSIG=
201406200120 METAR EGLL 200120Z AUTO 34004KT 9999 NCD 13/09 Q1023=
201406200050 METAR EGLL 200050Z AUTO VRB02KT 9999 NCD 13/09 Q1023=
201406200020 METAR EGLL 200020Z AUTO VRB03KT 9999 NCD 13/09 Q1024=
201406192350 METAR COR EGLL 192350Z 01003KT CAVOK 14/10 Q1024 NOSIG=
201406192320 METAR COR EGLL 192320Z 01003KT CAVOK 14/09 Q1024 NOSIG=
201406192250 METAR COR EGLL 192250Z 09004KT CAVOK 14/09 Q1023 NOSIG=
201406192220 METAR COR EGLL 192220Z 04004KT CAVOK 15/10 Q1023 NOSIG=
201406192150 METAR COR EGLL 192150Z 05003KT CAVOK 15/10 Q1023 NOSIG=
201406192120 METAR COR EGLL 192120Z 04005KT 010V070 CAVOK 16/10 Q1023
                        NOSIG=
201406192050 METAR COR EGLL 192050Z 05004KT 9999 FEW029 16/10 Q1023 NOSIG=
201406192020 METAR COR EGLL 192020Z 04005KT 9999 FEW029 16/11 Q1023 NOSIG=
201406191950 METAR COR EGLL 191950Z 06007KT 020V090 9999 FEW034 17/11
                        Q1023 NOSIG=
201406191920 METAR COR EGLL 191920Z 06008KT 030V090 9999 FEW030 17/11
                        Q1023 NOSIG=
201406191850 METAR COR EGLL 191850Z 07007KT 9999 SCT024 SCT037 17/12 Q1023
                        NOSIG=
201406191820 METAR COR EGLL 191820Z 06008KT 020V080 9999 FEW025 SCT049
                        18/12 Q1023 NOSIG=
201406191750 METAR COR EGLL 191750Z 06008KT 020V080 9999 FEW025 BKN035
                        18/12 Q1023 NOSIG=
201406191720 METAR COR EGLL 191720Z 06008KT 9999 FEW023 SCT035 18/12 Q1023
                        NOSIG=
201406191650 METAR COR EGLL 191650Z 05006KT 020V090 9999 SCT019 BKN027
                        18/12 Q1023 NOSIG=
201406191620 METAR COR EGLL 191620Z 05009KT 020V080 9999 BKN018 17/13
                        Q1023 NOSIG=
201406191550 METAR COR EGLL 191550Z 03008KT 350V080 9999 BKN020 18/13
                        Q1023 NOSIG=
201406191520 METAR COR EGLL 191520Z 04010KT 9999 BKN020 19/13 Q1023 NOSIG=
201406191450 METAR COR EGLL 191450Z 02008KT 340V070 9999 BKN014 18/14
                        Q1023 BECMG SCT014 BKN018=
201406191420 METAR COR EGLL 191420Z 01009KT 340V040 9999 FEW014 BKN040
                        18/14 Q1023 NOSIG=
201406191350 METAR COR EGLL 191350Z 01009KT 340V050 8000 SCT012 SCT026
                        19/14 Q1022 NOSIG=
201406191320 METAR COR EGLL 191320Z 01008KT 330V040 9999 FEW042 BKN047
                        22/14 Q1022 NOSIG=
201406191250 METAR COR EGLL 191250Z 36006KT 320V040 9999 SCT023 SCT029
                        21/14 Q1022 NOSIG=
201406191220 METAR COR EGLL 191220Z 33005KT 270V010 9999 SCT018 BKN029
                        21/14 Q1022 NOSIG=
201406191150 METAR COR EGLL 191150Z 36004KT 320V050 9999 BKN018 19/14
                        Q1022 NOSIG=
201406191120 METAR COR EGLL 191120Z 33005KT 290V030 9999 BKN017 19/14
                        Q1022 TEMPO BKN014=
201406191050 METAR COR EGLL 191050Z 35006KT 290V030 9999 BKN015 19/14
                        Q1022 NOSIG=
201406191020 METAR COR EGLL 191020Z 34006KT 300V020 9999 BKN017 19/14
                        Q1022 NOSIG=
201406190950 METAR COR EGLL 190950Z 34007KT 310V020 9999 BKN019 20/14
                        Q1022 NOSIG=
201406190920 METAR COR EGLL 190920Z 35007KT 9999 BKN020 19/14 Q1022 NOSIG=
201406190850 METAR COR EGLL 190850Z 34005KT 260V050 9999 SCT020 20/14
                        Q1022 NOSIG=
201406190820 METAR COR EGLL 190820Z 33004KT 260V040 CAVOK 19/13 Q1022
                        NOSIG=
201406190750 METAR COR EGLL 190750Z VRB03KT CAVOK 19/13 Q1022 NOSIG=
201406190720 METAR EGLL 190720Z VRB04KT CAVOK 17/12 Q1022=
201406190650 METAR COR EGLL 190650Z 26004KT 220V300 CAVOK 17/12 Q1023
                        NOSIG=
201406190620 METAR COR EGLL 190620Z 25004KT 210V300 CAVOK 15/12 Q1023
                        NOSIG=
201406190550 METAR COR EGLL 190550Z VRB03KT CAVOK 14/12 Q1022 NOSIG=
201406190520 METAR COR EGLL 190520Z VRB03KT CAVOK 14/12 Q1023 NOSIG=
201406190450 METAR COR EGLL 190450Z 20004KT CAVOK 13/12 Q1023 NOSIG=
201406190420 METAR COR EGLL 190420Z VRB03KT CAVOK 13/11 Q1023 NOSIG=
201406190350 METAR COR EGLL 190350Z VRB02KT CAVOK 12/10 Q1023 NOSIG=
201406190320 METAR COR EGLL 190320Z 18003KT CAVOK 13/11 Q1023 NOSIG=
201406190250 METAR COR EGLL 190250Z 18004KT CAVOK 13/10 Q1023 NOSIG=
201406190220 METAR COR EGLL 190220Z 17002KT 9999 FEW047 13/11 Q1023 NOSIG=
201406190150 METAR COR EGLL 190150Z VRB02KT CAVOK 13/10 Q1024 NOSIG=
201406190120 METAR EGLL 190120Z AUTO 16003KT 9999 NCD 13/10 Q1024=
201406190050 METAR EGLL 190050Z AUTO 00000KT 9999 NCD 14/11 Q1024=
201406190020 METAR EGLL 190020Z AUTO VRB02KT 9999 NCD 15/11 Q1024=
201406182350 METAR COR EGLL 182350Z 07002KT CAVOK 15/11 Q1024 NOSIG=
201406182320 METAR COR EGLL 182320Z 11002KT CAVOK 15/11 Q1024 NOSIG=
201406182250 METAR COR EGLL 182250Z VRB03KT CAVOK 15/11 Q1024 NOSIG=
201406182220 METAR COR EGLL 182220Z 06003KT CAVOK 17/11 Q1024 NOSIG=
201406182150 METAR COR EGLL 182150Z 05003KT CAVOK 18/11 Q1024 NOSIG=
201406182120 METAR COR EGLL 182120Z 06004KT CAVOK 17/11 Q1024 NOSIG=
201406182050 METAR COR EGLL 182050Z 05003KT CAVOK 18/11 Q1024 NOSIG=
201406182020 METAR COR EGLL 182020Z 05003KT CAVOK 19/11 Q1024 NOSIG=
201406181950 METAR COR EGLL 181950Z VRB03KT CAVOK 20/11 Q1024 NOSIG=
201406181920 METAR COR EGLL 181920Z 06004KT 020V090 CAVOK 20/10 Q1024
                        NOSIG=
201406181850 METAR COR EGLL 181850Z 35004KT 310V060 9999 FEW044 21/10
                        Q1024 NOSIG=
201406181820 METAR COR EGLL 181820Z 05005KT 020V080 9999 FEW045 21/10
                        Q1024 NOSIG=
201406181750 METAR COR EGLL 181750Z 05005KT 340V100 9999 FEW045 21/09
                        Q1024 NOSIG=
201406181720 METAR EGLL 181720Z 03006KT 340V080 9999 FEW047 21/10 Q1025=
201406181650 METAR COR EGLL 181650Z 04006KT 360V090 9999 FEW047 21/09
                        Q1025 NOSIG=
201406181620 METAR COR EGLL 181620Z 04008KT 340V080 9999 FEW041 22/10
                        Q1025 NOSIG=
201406181550 METAR COR EGLL 181550Z 04008KT 360V080 9999 SCT044 21/10
                        Q1025 NOSIG=
201406181520 METAR COR EGLL 181520Z 02008KT 340V070 9999 SCT048 22/10
                        Q1025 NOSIG=
201406181450 METAR COR EGLL 181450Z 01009KT 330V050 9999 SCT044 23/10
                        Q1026 NOSIG=
201406181420 METAR COR EGLL 181420Z 03008KT 340V070 9999 SCT044 22/10
                        Q1026 NOSIG=
201406181350 METAR COR EGLL 181350Z 01007KT 320V060 9999 FEW045 22/10
                        Q1026 NOSIG=
201406181320 METAR COR EGLL 181320Z 02008KT 340V060 9999 FEW040 22/09
                        Q1026 NOSIG=
201406181250 METAR COR EGLL 181250Z 02006KT 320V080 9999 FEW035 22/10
                        Q1026 NOSIG=
201406181220 METAR COR EGLL 181220Z 01008KT 340V050 9999 FEW030 20/12
                        Q1026 NOSIG=
201406181150 METAR COR EGLL 181150Z 04007KT 350V070 9999 FEW040 SCT044
                        21/12 Q1026 NOSIG=
201406181120 METAR COR EGLL 181120Z 04008KT 360V080 9999 FEW030 BKN046
                        20/12 Q1027 NOSIG=
201406181050 METAR COR EGLL 181050Z 03008KT 350V080 9999 FEW028 SCT040
                        BKN043 19/12 Q1027 NOSIG=
201406181020 METAR COR EGLL 181020Z 03009KT 340V070 9999 SCT034 BKN038
                        19/12 Q1027 NOSIG=
201406180950 METAR COR EGLL 180950Z 02007KT 330V060 9999 SCT025 BKN029
                        18/12 Q1027 NOSIG=
201406180920 METAR COR EGLL 180920Z 02006KT 330V050 9999 SCT020 BKN028
                        18/13 Q1027 NOSIG=
201406180850 METAR COR EGLL 180850Z 02007KT 340V060 9999 SCT020 BKN027
                        17/13 Q1027 NOSIG=
201406180820 METAR COR EGLL 180820Z 04007KT 360V070 9999 SCT020 BKN023
                        16/13 Q1027 NOSIG=
201406180750 METAR COR EGLL 180750Z 02007KT 340V050 9999 FEW010 BKN023
                        15/14 Q1027 NOSIG=
201406180720 METAR COR EGLL 180720Z 01006KT 9999 FEW010 SCT015 BKN022
                        15/13 Q1027 TEMPO BKN014=
201406180650 METAR COR EGLL 180650Z 01006KT 340V050 9999 SCT008 BKN013
                        15/14 Q1027 NOSIG=
201406180620 METAR COR EGLL 180620Z VRB03KT 9999 FEW005 SCT008 BKN014
                        14/13 Q1027 NOSIG=
201406180550 METAR COR EGLL 180550Z VRB02KT 7000 2700E -RADZ FEW005 SCT006
                        BKN022 14/13 Q1027 TEMPO BKN007=
201406180520 METAR COR EGLL 180520Z VRB02KT 4800 -RADZ FEW002 SCT005 BKN009
                        14/13 Q1027 BECMG 7000 SCT006 BKN010=
201406180450 METAR COR EGLL 180450Z VRB03KT 4800 -RADZ SCT005 BKN009 14/13
                        Q1027 BECMG 9999 SCT009 BKN012=
201406180420 METAR COR EGLL 180420Z VRB03KT 5000 -DZ SCT006 BKN009 14/12
                        Q1027 TEMPO 9999 SCT009 BKN011=
201406180350 METAR COR EGLL 180350Z 06005KT 9999 BKN009 14/12 Q1027 TEMPO
                        SCT009 BKN011=
201406180320 METAR COR EGLL 180320Z 04006KT 360V080 9999 BKN012 14/12
                        Q1027 TEMPO BKN009=
201406180250 METAR COR EGLL 180250Z 05007KT 9999 BKN013 14/11 Q1027 TEMPO
                        BKN009=
201406180220 METAR COR EGLL 180220Z 04007KT 020V080 9999 BKN014 14/11
                        Q1027 NOSIG=
201406180150 METAR COR EGLL 180150Z 01008KT 330V040 9999 BKN014 15/11
                        Q1027 TEMPO SCT014 BKN016=
201406180120 METAR EGLL 180120Z AUTO 02007KT 350V050 9999 BKN015 15/11
                        Q1027=
201406180050 METAR EGLL 180050Z AUTO 02006KT 9999 OVC016 15/11 Q1027=
201406180020 METAR EGLL 180020Z AUTO 03006KT 340V070 9999 BKN016 15/11
                        Q1027=
201406172350 METAR COR EGLL 172350Z 02007KT 350V050 9999 BKN017 15/11
                        Q1027 NOSIG=
201406172320 METAR COR EGLL 172320Z 03006KT 350V050 9999 BKN018 15/11
                        Q1027 NOSIG=
201406172250 METAR COR EGLL 172250Z 03007KT 340V060 9999 SCT020 15/10
                        Q1027 NOSIG=
201406172220 METAR COR EGLL 172220Z 04008KT 350V070 9999 SCT020 15/11
                        Q1027 NOSIG=
201406172150 METAR COR EGLL 172150Z 04007KT 360V070 9999 FEW022 15/11
                        Q1027 NOSIG=
201406172120 METAR COR EGLL 172120Z 04008KT 020V090 9999 FEW022 16/11
                        Q1027 NOSIG=
201406172050 METAR COR EGLL 172050Z 04006KT 020V080 9999 FEW025 16/11
                        Q1027 NOSIG=
201406172020 METAR COR EGLL 172020Z 03008KT 360V060 9999 FEW030 17/11
                        Q1027 NOSIG=
201406171950 METAR COR EGLL 171950Z 04008KT 350V070 9999 FEW040 18/10
                        Q1027 NOSIG=
201406171920 METAR EGLL 171920Z 03008KT 330V060 9999 FEW040 18/10 Q1027=
201406171850 METAR COR EGLL 171850Z 03009KT 340V060 9999 FEW044 19/09
                        Q1026 NOSIG=
201406171820 METAR COR EGLL 171820Z 03009KT 340V060 CAVOK 19/06 Q1026
                        NOSIG=
201406171750 METAR COR EGLL 171750Z 03009KT 340V050 CAVOK 19/05 Q1026
                        NOSIG=
201406171720 METAR COR EGLL 171720Z 02009KT 340V050 CAVOK 20/04 Q1026
                        NOSIG=
201406171650 METAR COR EGLL 171650Z 02010KT 330V050 CAVOK 20/05 Q1026
                        NOSIG=
201406171620 METAR COR EGLL 171620Z 02010KT 350V050 CAVOK 21/06 Q1026
                        NOSIG=
201406171550 METAR COR EGLL 171550Z 02010KT 340V070 CAVOK 21/05 Q1026
                        NOSIG=
201406171520 METAR COR EGLL 171520Z 05010KT 010V080 CAVOK 21/05 Q1026
                        NOSIG=
201406171450 METAR COR EGLL 171450Z 01010KT 320V050 CAVOK 22/05 Q1027
                        NOSIG=
201406171420 METAR COR EGLL 171420Z 03010KT 350V060 CAVOK 21/05 Q1027
                        NOSIG=
201406171350 METAR COR EGLL 171350Z 02010KT 320V070 CAVOK 21/07 Q1027
                        NOSIG=
201406171320 METAR COR EGLL 171320Z 04010KT 350V070 CAVOK 21/07 Q1027
                        NOSIG=
201406171250 METAR COR EGLL 171250Z 02010KT 350V060 9999 FEW030 21/07
                        Q1027 NOSIG=
201406171220 METAR COR EGLL 171220Z 01008KT 330V070 9999 FEW039 21/07
                        Q1027 NOSIG=
201406171150 METAR COR EGLL 171150Z 02009KT 340V060 9999 FEW039 20/08
                        Q1027 NOSIG=
201406171120 METAR COR EGLL 171120Z 03010KT 340V080 9999 FEW039 20/08
                        Q1027 NOSIG=
201406171050 METAR COR EGLL 171050Z 02009KT 340V080 9999 FEW037 18/08
                        Q1028 NOSIG=
201406171020 METAR COR EGLL 171020Z 02009KT 340V060 9999 FEW033 17/08
                        Q1028 NOSIG=
201406170950 METAR COR EGLL 170950Z 01009KT 340V050 9999 FEW030 17/09
                        Q1028 NOSIG=
201406170920 METAR COR EGLL 170920Z 03008KT 340V070 9999 FEW033 17/08
                        Q1028 NOSIG=
201406170850 METAR COR EGLL 170850Z 05007KT 020V090 9999 SCT028 15/08
                        Q1028 NOSIG=
201406170820 METAR COR EGLL 170820Z 05008KT 020V080 9999 SCT027 BKN030
                        15/08 Q1028 NOSIG=
201406170750 METAR COR EGLL 170750Z 04008KT 360V090 9999 SCT026 BKN030
                        15/08 Q1028 NOSIG=
201406170720 METAR COR EGLL 170720Z 03010KT 340V060 9999 SCT023 BKN027
                        14/08 Q1028 NOSIG=
201406170650 METAR COR EGLL 170650Z 01008KT 340V050 9999 FEW020 SCT023
                        BKN027 14/09 Q1028 NOSIG=
201406170620 METAR COR EGLL 170620Z 02007KT 340V050 9999 SCT022 BKN031
                        14/09 Q1028 NOSIG=
201406170550 METAR COR EGLL 170550Z 02006KT 340V050 9999 FEW020 BKN028
                        14/09 Q1028 NOSIG=
201406170520 METAR COR EGLL 170520Z 03005KT 320V080 9999 FEW019 BKN028
                        14/09 Q1028 NOSIG=
201406170450 METAR COR EGLL 170450Z 02005KT 320V050 9999 BKN027 13/09
                        Q1028 NOSIG=
201406170420 METAR COR EGLL 170420Z 01007KT 340V040 9999 FEW022 BKN027
                        13/09 Q1027 NOSIG=
201406170350 METAR COR EGLL 170350Z 01006KT 340V050 9999 BKN023 13/09
                        Q1027 NOSIG=
201406170320 METAR COR EGLL 170320Z 02006KT 350V060 9999 BKN020 14/09
                        Q1027 NOSIG=
201406170250 METAR COR EGLL 170250Z 01006KT 9999 BKN021 13/09 Q1027 NOSIG=
201406170220 METAR COR EGLL 170220Z 01005KT 320V050 9999 FEW018 BKN024
                        13/09 Q1028 NOSIG=
201406170150 METAR COR EGLL 170150Z 03006KT 350V070 9999 FEW019 BKN023
                        13/09 Q1028 NOSIG=
201406170120 METAR EGLL 170120Z AUTO 03006KT 350V060 9999 BKN027 13/09
                        Q1028=
201406170050 METAR EGLL 170050Z AUTO 02005KT 350V060 9999 OVC026 14/09
                        Q1028=
201406170020 METAR EGLL 170020Z AUTO 03005KT 340V060 9999 OVC028 14/09
                        Q1028=
201406162350 METAR COR EGLL 162350Z 02006KT 330V050 9999 BKN031 14/09
                        Q1028 NOSIG=
201406162320 METAR COR EGLL 162320Z 02007KT 340V050 9999 FEW023 BKN032
                        14/08 Q1028 NOSIG=
201406162250 METAR COR EGLL 162250Z 03006KT 350V060 9999 FEW027 BKN035
                        14/08 Q1028 NOSIG=
201406162220 METAR COR EGLL 162220Z 03006KT 350V060 9999 SCT029 BKN034
                        14/08 Q1028 NOSIG=
201406162150 METAR COR EGLL 162150Z 03010KT 360V060 9999 BKN034 14/07
                        Q1028 NOSIG=
201406162120 METAR COR EGLL 162120Z 03007KT 340V060 9999 BKN042 14/08
                        Q1028 NOSIG=
201406162050 METAR COR EGLL 162050Z 03007KT 350V070 9999 FEW027 SCT040
                        14/08 Q1028 NOSIG=
201406162020 METAR COR EGLL 162020Z 04007KT 9999 FEW027 BKN043 15/08 Q1028
                        NOSIG=
201406161950 METAR COR EGLL 161950Z 03005KT 350V060 9999 FEW027 BKN040
                        15/09 Q1028 NOSIG=
201406161920 METAR COR EGLL 161920Z 04008KT 360V080 9999 FEW030 BKN042
                        15/09 Q1028 NOSIG=
201406161850 METAR COR EGLL 161850Z 04008KT 360V090 9999 FEW030 BKN045
                        15/09 Q1028 NOSIG=
201406161820 METAR EGLL 161820Z 01007KT 350V050 9999 FEW030 BKN040 15/09
                        Q1028=
201406161750 METAR COR EGLL 161750Z 02008KT 340V050 9999 FEW030 SCT035
                        BKN040 16/09 Q1028 NOSIG=
201406161720 METAR COR EGLL 161720Z 03010KT 350V060 9999 FEW030 BKN041
                        17/09 Q1027 NOSIG=
201406161650 METAR COR EGLL 161650Z 01008KT 340V040 9999 FEW030 BKN048
                        17/10 Q1027 NOSIG=
201406161620 METAR COR EGLL 161620Z 03009KT 360V060 9999 FEW032 BKN048
                        16/09 Q1027 NOSIG=
201406161550 METAR COR EGLL 161550Z 02009KT 340V050 9999 FEW023 SCT040
                        17/11 Q1027 NOSIG=
201406161520 METAR COR EGLL 161520Z 03008KT 360V060 9999 FEW029 BKN046
                        17/11 Q1027 NOSIG=
201406161450 METAR COR EGLL 161450Z 03010KT 350V060 9999 FEW027 BKN042
                        16/11 Q1027 NOSIG=
201406161420 METAR COR EGLL 161420Z 36009KT 330V030 9999 SCT024 BKN038
                        18/11 Q1027 NOSIG=
201406161350 METAR COR EGLL 161350Z 02008KT 340V050 9999 SCT035 BKN040
                        17/11 Q1027 NOSIG=
201406161320 METAR COR EGLL 161320Z 03009KT 340V050 9999 SCT031 BKN036
                        17/10 Q1027 NOSIG=
201406161250 METAR COR EGLL 161250Z 02008KT 340V070 9999 FEW033 SCT038
                        BKN044 18/10 Q1027 NOSIG=
201406161220 METAR COR EGLL 161220Z 03009KT 350V060 9999 SCT036 SCT044
                        17/09 Q1028 NOSIG=
201406161150 METAR COR EGLL 161150Z 01009KT 340V060 9999 SCT032 SCT041
                        18/09 Q1028 NOSIG=
201406161120 METAR COR EGLL 161120Z 01008KT 330V050 9999 FEW032 BKN044
                        17/09 Q1028 NOSIG=
201406161050 METAR COR EGLL 161050Z 03008KT 350V070 9999 FEW030 BKN044
                        17/09 Q1028 NOSIG=
201406161020 METAR COR EGLL 161020Z 03008KT 9999 FEW033 BKN039 16/09 Q1028
                        NOSIG=
201406160950 METAR COR EGLL 160950Z 02006KT 340V070 9999 SCT030 BKN035
                        16/09 Q1028 NOSIG=
201406160920 METAR COR EGLL 160920Z 04007KT 350V070 9999 FEW028 BKN033
                        16/09 Q1028 NOSIG=
201406160850 METAR COR EGLL 160850Z 03006KT 320V100 9999 FEW030 BKN038
                        16/09 Q1028 NOSIG=
201406160820 METAR COR EGLL 160820Z 03008KT 360V060 9999 FEW024 BKN038
                        16/10 Q1028 NOSIG=
201406160750 METAR COR EGLL 160750Z 03006KT 340V070 9999 FEW019 SCT023
                        15/10 Q1028 NOSIG=
201406160720 METAR COR EGLL 160720Z 04008KT 360V070 9999 FEW016 SCT038
                        15/10 Q1028 NOSIG=
201406160650 METAR COR EGLL 160650Z 36006KT 9999 FEW013 SCT035 14/10 Q1028
                        NOSIG=
201406160620 METAR COR EGLL 160620Z 01008KT 9999 FEW013 SCT039 14/10 Q1028
                        NOSIG=
201406160550 METAR COR EGLL 160550Z 01007KT 330V040 9999 SCT038 14/10
                        Q1028 NOSIG=
201406160520 METAR COR EGLL 160520Z 01006KT 340V040 9999 SCT038 13/10
                        Q1028 NOSIG=
201406160450 METAR COR EGLL 160450Z 36006KT 330V040 9999 SCT037 13/10
                        Q1028 NOSIG=
201406160420 METAR COR EGLL 160420Z 01005KT 340V050 9999 FEW038 13/10
                        Q1028 NOSIG=
201406160350 METAR COR EGLL 160350Z 36004KT 9999 FEW035 13/10 Q1028 NOSIG=
201406160320 METAR COR EGLL 160320Z VRB02KT 9999 SCT037 13/10 Q1028 NOSIG=
201406160250 METAR COR EGLL 160250Z 04004KT 360V070 9999 SCT035 14/10
                        Q1028 NOSIG=
201406160220 METAR COR EGLL 160220Z 04006KT 350V060 9999 FEW019 BKN037
                        14/10 Q1028 NOSIG=
201406160150 METAR COR EGLL 160150Z 03007KT 340V060 9999 FEW023 BKN027
                        14/10 Q1028 NOSIG=
201406160120 METAR EGLL 160120Z AUTO 04006KT 010V070 9999 OVC033 14/10
                        Q1029=
201406160050 METAR EGLL 160050Z AUTO 03006KT 360V060 9999 FEW031 BKN036
                        14/10 Q1029=
201406160020 METAR EGLL 160020Z AUTO 04005KT 340V080 9999 SCT024 BKN031
                        14/10 Q1029=
201406152350 METAR COR EGLL 152350Z 04005KT 360V070 9999 FEW027 BKN046
                        14/10 Q1029 NOSIG=
201406152320 METAR COR EGLL 152320Z 03005KT 360V070 9999 BKN045 14/10
                        Q1029 NOSIG=
201406152250 METAR COR EGLL 152250Z 02005KT 340V070 9999 BKN043 15/10
                        Q1029 NOSIG=
201406152220 METAR COR EGLL 152220Z 03005KT 330V060 9999 BKN040 15/10
                        Q1029 NOSIG=
201406152150 METAR COR EGLL 152150Z 03005KT 340V060 9999 SCT040 15/10
                        Q1029 NOSIG=
201406152120 METAR COR EGLL 152120Z 03007KT 360V080 9999 FEW040 15/10
                        Q1028 NOSIG=
201406152050 METAR COR EGLL 152050Z 02007KT 350V050 9999 FEW037 15/10
                        Q1028 NOSIG=
201406152020 METAR COR EGLL 152020Z 02006KT 330V070 9999 FEW037 16/11
                        Q1028 NOSIG=
201406151950 METAR COR EGLL 151950Z 01007KT 350V050 9999 FEW030 SCT038
                        16/11 Q1028 NOSIG=
201406151920 METAR COR EGLL 151920Z 01008KT 9999 SCT034 BKN048 17/11 Q1028
                        NOSIG=
201406151850 METAR COR EGLL 151850Z 03008KT 350V070 9999 SCT031 BKN048
                        17/11 Q1028 NOSIG=
201406151820 METAR COR EGLL 151820Z 03007KT 350V060 9999 FEW029 SCT035
                        BKN047 18/11 Q1028 NOSIG=
201406151750 METAR COR EGLL 151750Z 02006KT 330V060 9999 BKN033 18/11
                        Q1027 NOSIG=
201406151720 METAR COR EGLL 151720Z 05008KT 010V080 CAVOK 18/11 Q1027
                        NOSIG=
201406151650 METAR COR EGLL 151650Z 03006KT 350V070 9999 SCT034 19/11
                        Q1027 NOSIG=
201406151620 METAR COR EGLL 151620Z 04008KT 350V070 9999 BKN033 18/10
                        Q1027 NOSIG=
201406151550 METAR COR EGLL 151550Z 04009KT 9999 BKN033 18/10 Q1027 NOSIG=
201406151520 METAR COR EGLL 151520Z 04007KT 360V070 9999 BKN028 18/10
                        Q1027 NOSIG=
201406151450 METAR COR EGLL 151450Z 02008KT 340V050 9999 SCT028 BKN034
                        18/11 Q1027 NOSIG=
201406151420 METAR COR EGLL 151420Z 03006KT 350V070 9999 SCT025 BKN030
                        18/11 Q1027 NOSIG=
201406151350 METAR COR EGLL 151350Z 36008KT 340V040 9999 BKN023 18/12
                        Q1028 NOSIG=
201406151320 METAR COR EGLL 151320Z 03008KT 340V060 9999 BKN024 17/11
                        Q1028 NOSIG=
201406151250 METAR COR EGLL 151250Z 03008KT 340V080 9999 BKN024 17/11
                        Q1028 NOSIG=
201406151220 METAR COR EGLL 151220Z 03008KT 340V070 9999 BKN021 17/11
                        Q1028 NOSIG=
201406151150 METAR COR EGLL 151150Z 05007KT 360V100 9999 SCT019 BKN024
                        17/12 Q1028 NOSIG=
201406151120 METAR COR EGLL 151120Z 04008KT 9999 SCT019 BKN027 16/12 Q1028
                        NOSIG=
201406151050 METAR COR EGLL 151050Z 04007KT 360V070 9999 SCT023 BKN034
                        16/12 Q1028 NOSIG=
201406151020 METAR COR EGLL 151020Z 01008KT 320V070 9999 6000SW -DZ SCT014
                        SCT022 17/12 Q1028 NOSIG=
201406150950 METAR COR EGLL 150950Z 04006KT 340V080 9999 SCT012 BKN021
                        15/12 Q1028 NOSIG=
201406150920 METAR COR EGLL 150920Z 07004KT 010V110 9999 SCT011 BKN021
                        14/12 Q1028 NOSIG=
201406150850 METAR COR EGLL 150850Z 05005KT 020V090 9999 FEW010 SCT015
                        BKN032 15/13 Q1028 TEMPO -DZ BKN014=
201406150820 METAR COR EGLL 150820Z 02005KT 320V080 8000 -DZ FEW011 SCT015
                        BKN018 15/12 Q1028 TEMPO BKN014=
201406150750 METAR COR EGLL 150750Z 04006KT 350V060 9000 -RA BKN022 14/11
                        Q1028 NOSIG=
201406150720 METAR COR EGLL 150720Z 03005KT 360V070 9999 SCT019 SCT027
                        15/10 Q1028 NOSIG=
201406150650 METAR COR EGLL 150650Z 01005KT 330V050 9999 SCT018 BKN023
                        15/10 Q1028 NOSIG=
201406150620 METAR COR EGLL 150620Z 02006KT 350V050 9999 FEW019 BKN029
                        15/10 Q1028 NOSIG=
201406150550 METAR COR EGLL 150550Z 02004KT 340V060 9999 FEW030 BKN033
                        14/10 Q1028 NOSIG=
201406150520 METAR COR EGLL 150520Z 02005KT 340V070 9999 OVC031 14/10
                        Q1028 NOSIG=
201406150450 METAR COR EGLL 150450Z 03005KT 350V070 9999 OVC031 14/09
                        Q1028 NOSIG=
201406150420 METAR COR EGLL 150420Z 03004KT 350V070 9999 OVC031 14/09
                        Q1028 NOSIG=
201406150350 METAR COR EGLL 150350Z 02006KT 360V060 9999 BKN027 14/09
                        Q1027 NOSIG=
201406150320 METAR COR EGLL 150320Z 01005KT 340V050 9999 OVC026 14/09
                        Q1027 NOSIG=
201406150250 METAR COR EGLL 150250Z 03005KT 350V080 9999 BKN027 14/09
                        Q1027 NOSIG=
201406150220 METAR COR EGLL 150220Z 05005KT 9999 BKN027 14/09 Q1027 NOSIG=
201406150150 METAR COR EGLL 150150Z 05006KT 010V080 9999 OVC027 14/09
                        Q1027 NOSIG=
201406150120 METAR EGLL 150120Z AUTO 04006KT 010V080 9999 OVC027 14/09
                        Q1027=
201406150050 METAR EGLL 150050Z AUTO 05007KT 9999 OVC025 14/09 Q1028=
201406150020 METAR EGLL 150020Z AUTO 05007KT 020V080 9999 OVC025 14/09
                        Q1028=
201406142350 METAR COR EGLL 142350Z 05007KT 360V080 9999 OVC024 15/09
                        Q1028 NOSIG=
201406142320 METAR COR EGLL 142320Z 04008KT 360V080 9999 BKN022 15/09
                        Q1027 NOSIG=
201406142250 METAR COR EGLL 142250Z 05007KT 010V080 9999 BKN023 15/10
                        Q1027 NOSIG=
201406142220 METAR COR EGLL 142220Z 04006KT 360V080 9999 OVC025 15/10
                        Q1027 NOSIG=
201406142150 METAR COR EGLL 142150Z 05005KT 020V080 9999 BKN025 16/10
                        Q1027 NOSIG=
201406142120 METAR COR EGLL 142120Z 04006KT 360V080 9999 BKN024 16/10
                        Q1027 NOSIG=
201406142050 METAR COR EGLL 142050Z 05007KT 9999 FEW030 16/11 Q1027 NOSIG=
201406142020 METAR COR EGLL 142020Z 05008KT CAVOK 17/11 Q1026 NOSIG=
201406141950 METAR COR EGLL 141950Z 02006KT 350V050 9999 FEW030 18/12
                        Q1026 NOSIG=
201406141920 METAR COR EGLL 141920Z 02007KT 340V060 9999 FEW031 19/12
                        Q1026 NOSIG=
201406141850 METAR COR EGLL 141850Z 04006KT 9999 FEW032 19/12 Q1026 NOSIG=
201406141820 METAR COR EGLL 141820Z 04008KT 360V070 9999 FEW049 20/12
                        Q1025 NOSIG=
201406141750 METAR COR EGLL 141750Z 04010KT 9999 FEW031 SCT042 20/12 Q1025
                        NOSIG=
201406141720 METAR COR EGLL 141720Z 04010KT 360V070 9999 FEW031 SCT042
                        20/13 Q1025 NOSIG=
201406141650 METAR COR EGLL 141650Z 04009KT 360V070 9999 FEW032 21/12
                        Q1025 NOSIG=
201406141620 METAR COR EGLL 141620Z 04010KT 360V070 9999 FEW032 21/13
                        Q1025 NOSIG=
201406141550 METAR COR EGLL 141550Z 05009KT 020V090 9999 FEW032 SCT036
                        22/13 Q1025 NOSIG=
201406141520 METAR COR EGLL 141520Z 03008KT 360V080 9999 SCT033 22/13
                        Q1025 NOSIG=
201406141450 METAR COR EGLL 141450Z 05010KT 010V080 9999 FEW035 22/13
                        Q1025 NOSIG=
201406141420 METAR COR EGLL 141420Z 05011KT 9999 FEW031 22/14 Q1025 NOSIG=
201406141350 METAR COR EGLL 141350Z 03009KT 340V070 9999 SCT027 21/14
                        Q1025 NOSIG=
201406141320 METAR COR EGLL 141320Z 06008KT 020V090 9999 FEW023 20/15
                        Q1025 NOSIG=
201406141250 METAR COR EGLL 141250Z 05008KT 9999 FEW020 19/15 Q1025 NOSIG=
201406141220 METAR COR EGLL 141220Z 04008KT 010V080 9999 -SHRA FEW018
                        SCT035 19/16 Q1025 NOSIG=
201406141150 METAR COR EGLL 141150Z 03005KT 350V070 7000 -SHRA FEW018
                        SCT030 18/16 Q1025 RESHRA NOSIG=
201406141120 METAR COR EGLL 141120Z 03005KT 340V070 9999 VCSH FEW031 SCT043CB
                        19/16 Q1025 TEMPO SHRA=
201406141050 METAR COR EGLL 141050Z 01006KT 330V050 9999 -SHRA FEW023
                        SCT043 20/15 Q1025 TEMPO SHRA=
201406141020 METAR COR EGLL 141020Z 02007KT 350V060 9999 SCT021 BKN038
                        20/15 Q1025 NOSIG=
201406140950 METAR COR EGLL 140950Z 01006KT 310V060 9999 FEW019 SCT022
                        20/15 Q1025 NOSIG=
201406140920 METAR COR EGLL 140920Z 01007KT 340V050 9999 FEW017 SCT022
                        19/14 Q1025 NOSIG=
201406140850 METAR COR EGLL 140850Z 36006KT 320V050 9999 FEW016 SCT043
                        19/15 Q1025 NOSIG=
201406140820 METAR COR EGLL 140820Z 36005KT 330V050 9999 FEW016 SCT042
                        18/14 Q1025 NOSIG=
201406140750 METAR COR EGLL 140750Z 35004KT 320V030 9999 FEW012 SCT043
                        18/15 Q1025 NOSIG=
201406140720 METAR COR EGLL 140720Z 03005KT 350V050 9999 FEW008 SCT047
                        17/15 Q1024 TEMPO BKN014=
201406140650 METAR COR EGLL 140650Z 35005KT 310V020 7000 FEW008 SCT047
                        17/15 Q1024 TEMPO BKN012=
201406140620 METAR COR EGLL 140620Z 01004KT 330V060 8000 FEW048 17/15
                        Q1024 NOSIG=
201406140550 METAR EGLL 140550Z VRB03KT 9000 BKN049 16/14 Q1024=
201406140520 METAR COR EGLL 140520Z VRB02KT 8000 BKN049 16/14 Q1024 NOSIG=
201406140450 METAR COR EGLL 140450Z 36003KT 8000 FEW020 16/14 Q1024 NOSIG=
201406140420 METAR COR EGLL 140420Z 05004KT 9000 FEW020 15/14 Q1024 NOSIG=
201406140350 METAR COR EGLL 140350Z 05003KT 8000 FEW036CB BKN049 15/14
                        Q1024 RESHRA NOSIG=
201406140320 METAR EGLL 140320Z 06004KT 020V090 4900 SHRA SCT020CB BKN039
                        15/14 Q1024=
201406140250 METAR COR EGLL 140250Z 02007KT 8000 -RA FEW008 FEW025CB BKN037
                        16/14 Q1024 TEMPO 4000 RA=
201406140220 METAR COR EGLL 140220Z 31007KT 9999 FEW007CB BKN036 17/16
                        Q1024 TEMPO 4000 SHRA=
201406140150 METAR COR EGLL 140150Z 29007KT 9999 -RA BKN036 17/15 Q1024
                        TEMPO 3000 +TSRA=
201406140120 METAR EGLL 140120Z AUTO 29007KT 8000 -RA BKN037/// //////CB
                        17/16 Q1023=
201406140050 METAR COR EGLL 140050Z AUTO VRB03KT 9999 VCTS SCT036/// BKN053///
                        //////CB 19/11 Q1023 TEMPO 3000 +TSRA=
201406140020 METAR EGLL 140020Z AUTO 05004KT 9999 //////CB 19/12 Q1023=
201406132350 METAR COR EGLL 132350Z 07006KT 9999 FEW050CB 19/12 Q1023
                        TEMPO TS=
201406132320 METAR COR EGLL 132320Z 09006KT 9999 FEW050CB 19/12 Q1023
                        TEMPO SHRA=
201406132250 METAR COR EGLL 132250Z 10006KT CAVOK 19/12 Q1023 TEMPO SHRA=
201406132220 METAR COR EGLL 132220Z 08007KT CAVOK 20/12 Q1023 TEMPO SHRA=
201406132150 METAR COR EGLL 132150Z 05005KT CAVOK 21/13 Q1023 NOSIG=
201406132120 METAR COR EGLL 132120Z 05005KT CAVOK 22/12 Q1023 NOSIG=
201406132050 METAR COR EGLL 132050Z 05006KT CAVOK 23/12 Q1023 NOSIG=
201406132020 METAR COR EGLL 132020Z 01005KT 340V050 CAVOK 23/11 Q1023
                        NOSIG=
201406131950 METAR COR EGLL 131950Z 01005KT 330V040 CAVOK 23/11 Q1023
                        NOSIG=
201406131920 METAR COR EGLL 131920Z 34006KT 310V010 CAVOK 24/11 Q1023
                        NOSIG=
201406131850 METAR COR EGLL 131850Z 35005KT 320V040 CAVOK 24/11 Q1022
                        NOSIG=
201406131820 METAR COR EGLL 131820Z 03006KT 330V090 CAVOK 24/10 Q1022
                        NOSIG=
201406131750 METAR COR EGLL 131750Z 05005KT 360V090 CAVOK 25/09 Q1022
                        NOSIG=
201406131720 METAR COR EGLL 131720Z 01004KT 300V060 CAVOK 25/09 Q1023
                        NOSIG=
201406131650 METAR COR EGLL 131650Z 36006KT 310V040 CAVOK 25/09 Q1023
                        NOSIG=
201406131620 METAR COR EGLL 131620Z 35007KT 290V050 CAVOK 25/10 Q1023
                        NOSIG=
201406131550 METAR COR EGLL 131550Z 33005KT 260V050 CAVOK 25/10 Q1023
                        NOSIG=
201406131520 METAR COR EGLL 131520Z 01006KT 310V070 CAVOK 25/10 Q1023
                        NOSIG=
201406131450 METAR COR EGLL 131450Z 32006KT 260V020 CAVOK 25/10 Q1024
                        NOSIG=
201406131420 METAR COR EGLL 131420Z VRB06KT CAVOK 25/10 Q1024 NOSIG=
201406131350 METAR COR EGLL 131350Z 32007KT 230V010 CAVOK 25/10 Q1024
                        NOSIG=
201406131320 METAR COR EGLL 131320Z 32005KT 270V020 CAVOK 25/10 Q1024
                        NOSIG=
201406131250 METAR COR EGLL 131250Z 32005KT 270V040 9999 FEW048 25/10
                        Q1024 NOSIG=
201406131220 METAR COR EGLL 131220Z 33006KT 270V040 9999 SCT049 24/11
                        Q1024 NOSIG=
201406131150 METAR COR EGLL 131150Z 32005KT 250V020 9999 SCT048 23/11
                        Q1025 NOSIG=
201406131120 METAR COR EGLL 131120Z 33005KT 260V020 9999 SCT048 24/11
                        Q1025 NOSIG=
201406131050 METAR COR EGLL 131050Z 30005KT 280V020 9999 SCT047 23/11
                        Q1025 NOSIG=
201406131020 METAR COR EGLL 131020Z 33005KT 260V060 9999 FEW045 23/11
                        Q1025 NOSIG=
201406130950 METAR COR EGLL 130950Z 01005KT 300V070 9999 FEW043 22/11
                        Q1025 NOSIG=
201406130920 METAR COR EGLL 130920Z 01004KT 310V090 9999 FEW044 22/11
                        Q1025 NOSIG=
201406130850 METAR COR EGLL 130850Z 34004KT 290V030 9999 FEW040 22/12
                        Q1026 NOSIG=
201406130820 METAR COR EGLL 130820Z 36005KT 320V060 CAVOK 21/13 Q1026
                        NOSIG=
201406130750 METAR COR EGLL 130750Z 36005KT 340V040 CAVOK 21/12 Q1026
                        NOSIG=
201406130720 METAR EGLL 130720Z VRB03KT CAVOK 19/12 Q1026=
201406130650 METAR COR EGLL 130650Z VRB03KT CAVOK 19/12 Q1026 NOSIG=
201406130620 METAR COR EGLL 130620Z VRB03KT CAVOK 17/11 Q1026 NOSIG=
201406130550 METAR COR EGLL 130550Z VRB02KT CAVOK 16/11 Q1025 NOSIG=
201406130520 METAR COR EGLL 130520Z 30003KT CAVOK 16/11 Q1025 NOSIG=
201406130450 METAR COR EGLL 130450Z 28004KT CAVOK 15/11 Q1025 NOSIG=
201406130420 METAR COR EGLL 130420Z 30003KT CAVOK 15/11 Q1025 NOSIG=
201406130350 METAR COR EGLL 130350Z 28003KT CAVOK 15/11 Q1025 NOSIG=
201406130320 METAR COR EGLL 130320Z 32004KT CAVOK 14/11 Q1025 NOSIG=
201406130250 METAR COR EGLL 130250Z 31004KT CAVOK 15/11 Q1025 NOSIG=
201406130220 METAR COR EGLL 130220Z 31003KT CAVOK 15/11 Q1025 NOSIG=
201406130150 METAR COR EGLL 130150Z 29003KT CAVOK 16/11 Q1026 NOSIG=
201406130120 METAR EGLL 130120Z AUTO 32003KT 9999 NCD 16/11 Q1026=
201406130050 METAR EGLL 130050Z AUTO 27003KT 9999 NCD 16/11 Q1026=
201406130020 METAR EGLL 130020Z AUTO VRB02KT 9999 NCD 17/11 Q1026=
201406122350 METAR COR EGLL 122350Z VRB02KT CAVOK 17/11 Q1026 NOSIG=
201406122320 METAR COR EGLL 122320Z 34003KT CAVOK 18/11 Q1026 NOSIG=
201406122250 METAR COR EGLL 122250Z 35003KT CAVOK 19/11 Q1026 NOSIG=
201406122220 METAR COR EGLL 122220Z VRB02KT CAVOK 20/10 Q1026 NOSIG=
201406122150 METAR COR EGLL 122150Z VRB02KT CAVOK 21/10 Q1026 NOSIG=
201406122120 METAR COR EGLL 122120Z VRB03KT CAVOK 21/10 Q1026 NOSIG=
201406122050 METAR COR EGLL 122050Z VRB03KT CAVOK 22/10 Q1026 NOSIG=
201406122020 METAR COR EGLL 122020Z VRB03KT CAVOK 22/10 Q1026 NOSIG=
201406121950 METAR COR EGLL 121950Z 35004KT 320V020 CAVOK 23/10 Q1026
                        NOSIG=
201406121920 METAR COR EGLL 121920Z 34005KT 300V020 CAVOK 23/10 Q1026
                        NOSIG=
201406121850 METAR COR EGLL 121850Z 32005KT 290V020 CAVOK 23/09 Q1026
                        NOSIG=
201406121820 METAR COR EGLL 121820Z 29006KT CAVOK 24/09 Q1026 NOSIG=
201406121750 METAR COR EGLL 121750Z 30006KT 270V330 CAVOK 24/09 Q1026
                        NOSIG=
201406121720 METAR COR EGLL 121720Z 30006KT 260V340 CAVOK 24/09 Q1026
                        NOSIG=
201406121650 METAR COR EGLL 121650Z VRB04KT CAVOK 24/09 Q1026 NOSIG=
201406121620 METAR COR EGLL 121620Z 28005KT 230V340 CAVOK 24/09 Q1027
                        NOSIG=
201406121550 METAR COR EGLL 121550Z 29005KT 250V060 CAVOK 25/08 Q1027
                        NOSIG=
201406121520 METAR COR EGLL 121520Z VRB03KT CAVOK 25/08 Q1027 NOSIG=
201406121450 METAR COR EGLL 121450Z VRB04KT CAVOK 25/08 Q1027 NOSIG=
201406121420 METAR COR EGLL 121420Z 34004KT 270V060 CAVOK 25/08 Q1027
                        NOSIG=
201406121350 METAR COR EGLL 121350Z VRB04KT CAVOK 24/08 Q1028 NOSIG=
201406121320 METAR COR EGLL 121320Z 33004KT 280V040 CAVOK 24/08 Q1028
                        NOSIG=
201406121250 METAR COR EGLL 121250Z VRB04KT CAVOK 24/08 Q1028 NOSIG=
201406121220 METAR COR EGLL 121220Z 28005KT 210V360 CAVOK 23/08 Q1028
                        NOSIG=
201406121150 METAR COR EGLL 121150Z 29006KT 210V020 CAVOK 23/08 Q1028
                        NOSIG=
201406121120 METAR COR EGLL 121120Z VRB05KT CAVOK 23/09 Q1029 NOSIG=
201406121050 METAR COR EGLL 121050Z VRB03KT CAVOK 22/09 Q1029 NOSIG=
201406121020 METAR COR EGLL 121020Z VRB03KT 9999 FEW045 22/08 Q1029 NOSIG=
201406120950 METAR COR EGLL 120950Z VRB03KT 9999 SCT042 20/09 Q1029 NOSIG=
201406120920 METAR COR EGLL 120920Z VRB03KT 9999 SCT047 22/10 Q1029 NOSIG=
201406120850 METAR COR EGLL 120850Z VRB03KT CAVOK 21/10 Q1029 NOSIG=
201406120820 METAR COR EGLL 120820Z VRB02KT CAVOK 20/11 Q1029 NOSIG=
201406120750 METAR COR EGLL 120750Z VRB02KT CAVOK 19/11 Q1029 NOSIG=
201406120720 METAR COR EGLL 120720Z VRB02KT CAVOK 18/11 Q1029 NOSIG=
201406120650 METAR COR EGLL 120650Z VRB03KT CAVOK 17/11 Q1029 NOSIG=
201406120620 METAR COR EGLL 120620Z 00000KT CAVOK 16/11 Q1028 NOSIG=
201406120550 METAR COR EGLL 120550Z 00000KT CAVOK 15/10 Q1028 NOSIG=
201406120520 METAR COR EGLL 120520Z VRB02KT CAVOK 14/10 Q1028 NOSIG=
201406120450 METAR COR EGLL 120450Z 26002KT CAVOK 13/09 Q1028 NOSIG=
201406120420 METAR COR EGLL 120420Z VRB02KT CAVOK 13/09 Q1028 NOSIG=
201406120350 METAR COR EGLL 120350Z 31003KT CAVOK 13/10 Q1028 NOSIG=
201406120320 METAR COR EGLL 120320Z 30003KT CAVOK 13/10 Q1029 NOSIG=
201406120250 METAR COR EGLL 120250Z 31002KT CAVOK 13/10 Q1029 NOSIG=
201406120220 METAR COR EGLL 120220Z VRB02KT CAVOK 14/10 Q1028 NOSIG=
201406120150 METAR COR EGLL 120150Z 31004KT CAVOK 13/10 Q1028 NOSIG=
201406120120 METAR EGLL 120120Z AUTO 31003KT 9999 NCD 13/10 Q1028=
201406120050 METAR EGLL 120050Z AUTO 30003KT 9999 NCD 14/10 Q1028=
201406120020 METAR EGLL 120020Z AUTO 31002KT 9999 NCD 15/11 Q1029=
201406112350 METAR COR EGLL 112350Z 00000KT CAVOK 15/11 Q1029 NOSIG=
201406112320 METAR COR EGLL 112320Z 00000KT CAVOK 16/11 Q1029 NOSIG=
201406112250 METAR COR EGLL 112250Z 31002KT CAVOK 17/09 Q1029 NOSIG=
201406112220 METAR COR EGLL 112220Z 00000KT CAVOK 19/09 Q1029 NOSIG=
201406112150 METAR COR EGLL 112150Z 31003KT CAVOK 19/09 Q1028 NOSIG=
201406112120 METAR COR EGLL 112120Z 31004KT CAVOK 19/09 Q1028 NOSIG=
201406112050 METAR COR EGLL 112050Z 31003KT CAVOK 19/09 Q1028 NOSIG=
201406112020 METAR COR EGLL 112020Z 32003KT CAVOK 19/09 Q1028 NOSIG=
201406111950 METAR COR EGLL 111950Z 31004KT CAVOK 20/09 Q1028 NOSIG=
201406111920 METAR COR EGLL 111920Z 31005KT 270V330 CAVOK 20/08 Q1027
                        NOSIG=
201406111850 METAR COR EGLL 111850Z 30005KT CAVOK 20/09 Q1027 NOSIG=
201406111820 METAR COR EGLL 111820Z 31006KT 280V340 CAVOK 20/09 Q1027
                        NOSIG=
201406111750 METAR COR EGLL 111750Z 30007KT CAVOK 21/08 Q1027 NOSIG=
201406111720 METAR COR EGLL 111720Z 30005KT 270V330 CAVOK 21/09 Q1027
                        NOSIG=
201406111650 METAR COR EGLL 111650Z 32006KT 270V360 9999 FEW049 22/09
                        Q1027 NOSIG=
201406111620 METAR COR EGLL 111620Z 32005KT 280V350 CAVOK 22/08 Q1027
                        NOSIG=
201406111550 METAR COR EGLL 111550Z 27009KT 240V330 CAVOK 22/09 Q1027
                        NOSIG=
201406111520 METAR COR EGLL 111520Z 28009KT 210V330 CAVOK 22/09 Q1027
                        NOSIG=
201406111450 METAR COR EGLL 111450Z 27008KT 220V310 9999 FEW047 22/09
                        Q1027 NOSIG=
201406111420 METAR COR EGLL 111420Z 27009KT 230V320 9999 SCT046 21/09
                        Q1027 NOSIG=
201406111350 METAR COR EGLL 111350Z 28008KT 240V340 9999 FEW048 20/09
                        Q1027 NOSIG=
201406111320 METAR COR EGLL 111320Z 27008KT 230V340 9999 FEW044 21/09
                        Q1027 NOSIG=
201406111250 METAR COR EGLL 111250Z 27009KT 240V320 9999 BKN049 20/08
                        Q1026 NOSIG=
201406111220 METAR COR EGLL 111220Z 27008KT 240V320 9999 SCT047 21/08
                        Q1026 NOSIG=
201406111150 METAR COR EGLL 111150Z 26009KT 190V300 9999 BKN048 20/08
                        Q1026 NOSIG=
201406111120 METAR COR EGLL 111120Z 26009KT 210V290 9999 FEW038 SCT049
                        20/09 Q1026 NOSIG=
201406111050 METAR COR EGLL 111050Z 26008KT 220V300 9999 SCT043 20/09
                        Q1026 NOSIG=
201406111020 METAR COR EGLL 111020Z 25009KT 190V280 9999 FEW036 SCT047
                        18/09 Q1026 NOSIG=
201406110950 METAR COR EGLL 110950Z 25008KT 220V290 9999 SCT034 18/09
                        Q1026 NOSIG=
201406110920 METAR COR EGLL 110920Z 24009KT 170V280 9999 SCT029 18/10
                        Q1026 NOSIG=
201406110850 METAR COR EGLL 110850Z 25007KT 200V290 9999 SCT027 18/10
                        Q1026 NOSIG=
201406110820 METAR COR EGLL 110820Z 23008KT 210V300 9999 FEW027 17/10
                        Q1026 NOSIG=
201406110750 METAR COR EGLL 110750Z 26008KT 230V290 9999 FEW023 17/11
                        Q1026 NOSIG=
201406110720 METAR EGLL 110720Z 25009KT 9999 FEW020 16/11 Q1026=
201406110650 METAR COR EGLL 110650Z 22007KT 9999 FEW016 15/11 Q1025 NOSIG=
201406110620 METAR COR EGLL 110620Z 22007KT 160V250 9999 FEW007 14/11
                        Q1025 NOSIG=
201406110550 METAR COR EGLL 110550Z 20007KT 180V240 9999 FEW007 13/11
                        Q1025 NOSIG=
201406110520 METAR COR EGLL 110520Z 19005KT 160V250 9000 FEW011 12/11
                        Q1025 NOSIG=
201406110450 METAR COR EGLL 110450Z 20005KT 160V230 9000 FEW011 12/10
                        Q1024 TEMPO BKN014=
201406110420 METAR COR EGLL 110420Z 18006KT 9000 FEW015 11/10 Q1024 TEMPO
                        BKN014=
201406110350 METAR COR EGLL 110350Z 26004KT CAVOK 11/10 Q1024 NOSIG=
201406110320 METAR COR EGLL 110320Z 27005KT CAVOK 12/10 Q1024 NOSIG=
201406110250 METAR COR EGLL 110250Z 25006KT CAVOK 12/10 Q1023 NOSIG=
201406110220 METAR COR EGLL 110220Z 25006KT CAVOK 12/10 Q1023 NOSIG=
201406110150 METAR COR EGLL 110150Z 26006KT CAVOK 12/10 Q1023 NOSIG=
201406110120 METAR EGLL 110120Z AUTO 23007KT 9999 NCD 12/10 Q1023=
201406110050 METAR EGLL 110050Z AUTO 21007KT 9999 NCD 13/10 Q1023=
201406110020 METAR EGLL 110020Z AUTO 22006KT 9999 NCD 13/11 Q1023=
201406102350 METAR COR EGLL 102350Z 22006KT CAVOK 13/11 Q1023 NOSIG=
201406102320 METAR COR EGLL 102320Z 21006KT CAVOK 13/10 Q1022 NOSIG=
201406102250 METAR COR EGLL 102250Z 22009KT CAVOK 14/10 Q1022 NOSIG=
201406102220 METAR COR EGLL 102220Z 21008KT CAVOK 14/10 Q1022 NOSIG=
201406102150 METAR COR EGLL 102150Z 22009KT CAVOK 15/10 Q1022 NOSIG=
201406102120 METAR COR EGLL 102120Z 21009KT CAVOK 15/09 Q1022 NOSIG=
201406102050 METAR COR EGLL 102050Z 22010KT CAVOK 16/09 Q1021 NOSIG=
201406102020 METAR COR EGLL 102020Z 21012KT CAVOK 17/09 Q1021 NOSIG=
201406101950 METAR COR EGLL 101950Z 22011KT CAVOK 17/09 Q1021 NOSIG=
201406101920 METAR COR EGLL 101920Z 23014KT 9999 FEW041 18/08 Q1020 NOSIG=
201406101850 METAR COR EGLL 101850Z 22014KT 9999 FEW043 18/08 Q1020 NOSIG=
201406101820 METAR COR EGLL 101820Z 22014G25KT 9999 FEW046 19/07 Q1020
                        NOSIG=
201406101750 METAR COR EGLL 101750Z 25016KT 9999 FEW047 19/08 Q1019 NOSIG=
201406101720 METAR EGLL 101720Z AUTO 23015KT 9999 NCD 20/07 Q1019=
201406101650 METAR COR EGLL 101650Z 23015KT 9999 FEW046 20/08 Q1019 NOSIG=
201406101620 METAR COR EGLL 101620Z 24017KT 9999 FEW045 21/08 Q1019 NOSIG=
201406101550 METAR COR EGLL 101550Z 23017KT 9999 FEW047 21/08 Q1018 NOSIG=
201406101520 METAR COR EGLL 101520Z 23015KT 9999 FEW044 21/09 Q1018 NOSIG=
201406101450 METAR COR EGLL 101450Z 21016KT 9999 FEW045 21/08 Q1018 NOSIG=
201406101420 METAR COR EGLL 101420Z 22016KT 9999 FEW048 22/08 Q1018 NOSIG=
201406101350 METAR COR EGLL 101350Z 22016KT 9999 FEW049 21/08 Q1018 NOSIG=
201406101320 METAR COR EGLL 101320Z 23017KT CAVOK 22/08 Q1018 NOSIG=
201406101250 METAR EGLL 101250Z AUTO 23015KT 9999 NCD 22/08 Q1018=
201406101220 METAR COR EGLL 101220Z 21013KT 190V250 9999 FEW046 22/08
                        Q1018 NOSIG=
201406101150 METAR COR EGLL 101150Z 21013KT 180V250 9999 FEW045 22/09
                        Q1018 NOSIG=
201406101120 METAR COR EGLL 101120Z 20014KT 9999 SCT039 21/11 Q1018 NOSIG=
201406101050 METAR COR EGLL 101050Z 19013KT 150V230 9999 SCT041 20/10
                        Q1018 NOSIG=
201406101020 METAR COR EGLL 101020Z 20012KT 160V240 9999 FEW042 21/09
                        Q1018 NOSIG=
201406100950 METAR EGLL 100950Z AUTO 22011KT 160V260 9999 FEW042 21/10
                        Q1017=
201406100920 METAR COR EGLL 100920Z 19012KT 170V240 9999 FEW040 20/10
                        Q1017 NOSIG=
201406100850 METAR COR EGLL 100850Z 22010KT 170V250 9999 FEW036 20/11
                        Q1017 NOSIG=
201406100820 METAR COR EGLL 100820Z 22010KT 170V270 9999 FEW028 19/10
                        Q1017 NOSIG=
201406100750 METAR EGLL 100750Z 21009KT 170V250 9999 FEW020 18/11 Q1017=
201406100720 METAR COR EGLL 100720Z 22007KT 160V250 CAVOK 17/12 Q1017
                        NOSIG=
201406100650 METAR COR EGLL 100650Z 24007KT 200V260 CAVOK 17/11 Q1016
                        NOSIG=
201406100620 METAR COR EGLL 100620Z 28005KT CAVOK 16/11 Q1016 NOSIG=
201406100550 METAR COR EGLL 100550Z VRB04KT CAVOK 16/12 Q1016 NOSIG=
201406100520 METAR COR EGLL 100520Z 20004KT 170V260 CAVOK 15/12 Q1016
                        NOSIG=
201406100450 METAR COR EGLL 100450Z 21004KT CAVOK 14/12 Q1016 NOSIG=
201406100420 METAR COR EGLL 100420Z 22005KT CAVOK 14/12 Q1016 NOSIG=
201406100350 METAR COR EGLL 100350Z 20004KT CAVOK 14/12 Q1015 NOSIG=
201406100320 METAR COR EGLL 100320Z 19004KT CAVOK 14/12 Q1015 NOSIG=
201406100250 METAR COR EGLL 100250Z 21003KT CAVOK 15/12 Q1015 NOSIG=
201406100220 METAR COR EGLL 100220Z 21003KT CAVOK 15/12 Q1014 NOSIG=
201406100150 METAR COR EGLL 100150Z 27004KT CAVOK 15/12 Q1014 NOSIG=
201406100120 METAR EGLL 100120Z AUTO 27005KT 9999 NCD 16/12 Q1015=
201406100050 METAR EGLL 100050Z AUTO 25005KT 9999 NCD 16/13 Q1015=
201406100020 METAR EGLL 100020Z AUTO 27007KT 9999 NCD 17/13 Q1015=
201406092350 METAR COR EGLL 092350Z 24007KT CAVOK 17/14 Q1015 NOSIG=
201406092320 METAR COR EGLL 092320Z 24006KT CAVOK 17/15 Q1015 NOSIG=
201406092250 METAR COR EGLL 092250Z 26005KT CAVOK 17/14 Q1015 NOSIG=
201406092220 METAR COR EGLL 092220Z VRB02KT 9999 FEW049 17/14 Q1015 NOSIG=
201406092150 METAR COR EGLL 092150Z 00000KT 9999 BKN054CB 18/14 Q1015
                        NOSIG=
201406092120 METAR COR EGLL 092120Z VRB02KT 9999 NSC 17/14 Q1015 NOSIG=
201406092050 METAR COR EGLL 092050Z VRB03KT 9999 -SHRA BKN054CB 18/14
                        Q1014 NOSIG=
201406092020 METAR COR EGLL 092020Z 22007KT 180V300 9999 -SHRA FEW031
                        SCT059CB 18/15 Q1014 RESHRA NOSIG=
201406091950 METAR COR EGLL 091950Z 16010KT 120V200 9999 -SHRA SCT060CB
                        19/15 Q1015 TEMPO 3000 +SHRA TS=
201406091920 METAR COR EGLL 091920Z 21008KT 180V240 9999 VCSH SCT060CB
                        21/12 Q1014 TEMPO 3500 +SHRA TSRA=
201406091850 METAR COR EGLL 091850Z 22009KT 9999 VCSH SCT060CB 21/12 Q1014
                        TEMPO 4500 +SHRA=
201406091820 METAR COR EGLL 091820Z 21007KT 170V240 CAVOK 22/12 Q1014
                        TEMPO SHRA=
201406091750 METAR COR EGLL 091750Z 20009KT 140V240 9999 FEW040 22/12
                        Q1015 TEMPO SHRA=
201406091720 METAR COR EGLL 091720Z 20009KT CAVOK 22/12 Q1015 TEMPO SHRA=
201406091650 METAR COR EGLL 091650Z 22008KT 190V250 9999 FEW032 22/12
                        Q1014 TEMPO SHRA=
201406091620 METAR COR EGLL 091620Z 24009KT 9999 FEW032 24/11 Q1014 TEMPO
                        SHRA=
201406091550 METAR COR EGLL 091550Z 22009KT 180V250 CAVOK 24/11 Q1014
                        TEMPO SHRA=
201406091520 METAR COR EGLL 091520Z 23011KT 210V270 CAVOK 24/12 Q1014
                        TEMPO SHRA=
201406091450 METAR COR EGLL 091450Z 22008G19KT 180V260 9999 FEW048 25/12
                        Q1014 NOSIG=
201406091420 METAR COR EGLL 091420Z 23007G17KT 180V280 9999 FEW048 26/12
                        Q1014 NOSIG=
201406091350 METAR COR EGLL 091350Z 23010G20KT 180V280 9999 FEW048 25/13
                        Q1014 NOSIG=
201406091320 METAR COR EGLL 091320Z 22010KT 170V270 9999 FEW039 24/14
                        Q1015 NOSIG=
201406091250 METAR COR EGLL 091250Z 21010KT 170V240 9999 FEW036 25/14
                        Q1015 NOSIG=
201406091220 METAR COR EGLL 091220Z 20009KT 160V240 9999 FEW030 25/16
                        Q1015 NOSIG=
201406091150 METAR COR EGLL 091150Z 20010KT 170V240 9999 FEW024 24/17
                        Q1015 NOSIG=
201406091120 METAR COR EGLL 091120Z 20011KT 160V240 9999 FEW028 23/17
                        Q1016 NOSIG=
201406091050 METAR COR EGLL 091050Z 20009KT 160V250 9999 FEW044 23/16
                        Q1016 NOSIG=
201406091020 METAR COR EGLL 091020Z 19008KT 9999 FEW045 21/16 Q1016 NOSIG=
201406090950 METAR COR EGLL 090950Z 16011KT CAVOK 21/16 Q1016 NOSIG=
201406090920 METAR COR EGLL 090920Z 16008KT 120V190 CAVOK 21/16 Q1016
                        BECMG 22010KT=
201406090850 METAR COR EGLL 090850Z 13005KT 100V170 CAVOK 21/15 Q1016
                        BECMG 20010KT=
201406090820 METAR COR EGLL 090820Z 10005KT CAVOK 20/15 Q1016 NOSIG=
201406090750 METAR COR EGLL 090750Z 09006KT CAVOK 19/15 Q1016 NOSIG=
201406090720 METAR COR EGLL 090720Z 10006KT CAVOK 18/14 Q1016 NOSIG=
201406090650 METAR COR EGLL 090650Z 09007KT CAVOK 18/14 Q1016 NOSIG=
201406090620 METAR COR EGLL 090620Z 10009KT 9999 FEW041 18/13 Q1017 NOSIG=
201406090550 METAR COR EGLL 090550Z 09005KT CAVOK 16/13 Q1017 NOSIG=
201406090520 METAR COR EGLL 090520Z 07004KT 040V100 CAVOK 16/12 Q1016
                        NOSIG=
201406090450 METAR COR EGLL 090450Z 06005KT CAVOK 16/11 Q1016 NOSIG=
201406090420 METAR COR EGLL 090420Z 07005KT CAVOK 15/11 Q1017 NOSIG=
201406090350 METAR EGLL 090350Z 04003KT 9999 FEW047 15/11 Q1017=
201406090320 METAR COR EGLL 090320Z 04005KT 9999 FEW047 16/10 Q1017 NOSIG=
201406090250 METAR COR EGLL 090250Z 06004KT 9999 SCT047 16/10 Q1017 NOSIG=
201406090220 METAR COR EGLL 090220Z 06005KT 9999 FEW048 16/11 Q1018 NOSIG=
201406090150 METAR COR EGLL 090150Z 06005KT CAVOK 17/11 Q1018 NOSIG=
201406090120 METAR EGLL 090120Z AUTO 05005KT 9999 NCD 17/10 Q1018=
201406090050 METAR EGLL 090050Z AUTO 04005KT 9999 NCD 17/10 Q1018=
201406090020 METAR EGLL 090020Z AUTO 05005KT 020V080 9999 NCD 17/10 Q1018=
201406082350 METAR COR EGLL 082350Z 03004KT 360V060 CAVOK 17/11 Q1018
                        NOSIG=
201406082320 METAR COR EGLL 082320Z 03004KT 350V060 CAVOK 17/11 Q1019
                        NOSIG=
201406082250 METAR COR EGLL 082250Z 01005KT 340V060 CAVOK 17/11 Q1019
                        NOSIG=
201406082220 METAR COR EGLL 082220Z 36004KT 320V040 CAVOK 18/11 Q1019
                        NOSIG=
201406082150 METAR COR EGLL 082150Z 36004KT 320V030 CAVOK 19/11 Q1019
                        NOSIG=
201406082120 METAR COR EGLL 082120Z 36006KT 330V030 CAVOK 18/11 Q1019
                        NOSIG=
201406082050 METAR COR EGLL 082050Z 35004KT 310V030 CAVOK 19/11 Q1019
                        NOSIG=
201406082020 METAR COR EGLL 082020Z 35004KT CAVOK 20/10 Q1019 NOSIG=
201406081950 METAR COR EGLL 081950Z 32004KT 290V360 CAVOK 21/10 Q1018
                        NOSIG=
201406081920 METAR COR EGLL 081920Z 30006KT CAVOK 21/10 Q1018 NOSIG=
201406081850 METAR COR EGLL 081850Z 28007KT CAVOK 22/09 Q1018 NOSIG=
201406081820 METAR COR EGLL 081820Z 27009KT CAVOK 23/09 Q1018 NOSIG=
201406081750 METAR COR EGLL 081750Z 26006KT 170V290 CAVOK 23/10 Q1018
                        NOSIG=
201406081720 METAR COR EGLL 081720Z VRB06KT CAVOK 23/10 Q1019 NOSIG=
201406081650 METAR COR EGLL 081650Z 18007KT 140V230 CAVOK 23/10 Q1019
                        NOSIG=
201406081620 METAR COR EGLL 081620Z 25007KT 200V300 CAVOK 24/09 Q1019
                        NOSIG=
201406081550 METAR COR EGLL 081550Z 24010KT 200V270 CAVOK 24/09 Q1019
                        NOSIG=
201406081520 METAR COR EGLL 081520Z 24007G17KT 200V280 CAVOK 24/10 Q1019
                        NOSIG=
201406081450 METAR COR EGLL 081450Z 25010G20KT 210V290 CAVOK 24/10 Q1019
                        NOSIG=
201406081420 METAR COR EGLL 081420Z 21007G17KT 150V260 CAVOK 23/10 Q1019
                        NOSIG=
201406081350 METAR COR EGLL 081350Z 21010G22KT 150V310 CAVOK 23/09 Q1019
                        NOSIG=
201406081320 METAR COR EGLL 081320Z 21009KT 170V240 CAVOK 24/09 Q1019
                        NOSIG=
201406081250 METAR COR EGLL 081250Z 18010KT CAVOK 23/10 Q1019 NOSIG=
201406081220 METAR COR EGLL 081220Z 21010KT 160V250 CAVOK 24/10 Q1019
                        NOSIG=
201406081150 METAR COR EGLL 081150Z 20011G23KT 160V230 9999 FEW048 23/10
                        Q1019 NOSIG=
201406081120 METAR COR EGLL 081120Z 20011KT 160V240 9999 FEW046 22/10
                        Q1019 NOSIG=
201406081050 METAR EGLL 081050Z 20010KT 160V240 9999 FEW044 22/11 Q1019=
201406081020 METAR COR EGLL 081020Z 20008KT 130V240 9999 FEW043 22/11
                        Q1019 NOSIG=
201406080950 METAR COR EGLL 080950Z 20010G20KT 150V270 9999 FEW036 21/11
                        Q1019 NOSIG=
201406080920 METAR COR EGLL 080920Z 19009G20KT 150V230 9999 FEW032 21/12
                        Q1019 NOSIG=
201406080850 METAR COR EGLL 080850Z 19008KT 150V240 9999 FEW030 20/12
                        Q1019 NOSIG=
201406080820 METAR COR EGLL 080820Z 21008KT 180V260 CAVOK 19/12 Q1019
                        NOSIG=
201406080750 METAR COR EGLL 080750Z 22008KT 180V250 CAVOK 19/12 Q1019
                        NOSIG=
201406080720 METAR COR EGLL 080720Z 18007KT 120V220 CAVOK 18/12 Q1019
                        NOSIG=
201406080650 METAR COR EGLL 080650Z 16007KT 120V210 CAVOK 17/12 Q1018
                        NOSIG=
201406080620 METAR COR EGLL 080620Z 14006KT 100V190 CAVOK 16/12 Q1018
                        NOSIG=
201406080550 METAR COR EGLL 080550Z VRB03KT CAVOK 15/12 Q1018 NOSIG=
201406080520 METAR COR EGLL 080520Z VRB03KT CAVOK 14/12 Q1018 NOSIG=
201406080450 METAR COR EGLL 080450Z VRB04KT CAVOK 13/12 Q1018 NOSIG=
201406080420 METAR EGLL 080420Z 18003KT CAVOK 13/12 Q1017=
201406080350 METAR EGLL 080350Z AUTO 00000KT 9999 NCD 13/12 Q1017=
201406080320 METAR COR EGLL 080320Z 00000KT CAVOK 14/12 Q1017 NOSIG=
201406080250 METAR COR EGLL 080250Z 28002KT CAVOK 14/12 Q1017 NOSIG=
201406080220 METAR COR EGLL 080220Z 25002KT CAVOK 14/12 Q1017 NOSIG=
201406080150 METAR COR EGLL 080150Z VRB02KT CAVOK 13/11 Q1017 NOSIG=
201406080120 METAR EGLL 080120Z AUTO 18002KT 9999 NCD 14/12 Q1017=
201406080050 METAR EGLL 080050Z AUTO 18004KT 9999 NCD 14/12 Q1017=
201406080020 METAR EGLL 080020Z AUTO 21002KT 9999 NCD 13/12 Q1017=
201406072350 METAR COR EGLL 072350Z VRB02KT CAVOK 13/11 Q1017 NOSIG=
201406072320 METAR COR EGLL 072320Z VRB02KT CAVOK 14/11 Q1016 NOSIG=
201406072250 METAR COR EGLL 072250Z 15004KT CAVOK 15/11 Q1016 NOSIG=
201406072220 METAR COR EGLL 072220Z 19006KT 160V240 CAVOK 16/11 Q1016
                        NOSIG=
201406072150 METAR COR EGLL 072150Z 21008KT 170V250 CAVOK 16/11 Q1016
                        NOSIG=
201406072120 METAR COR EGLL 072120Z 22008KT 180V250 CAVOK 17/11 Q1016
                        NOSIG=
201406072050 METAR COR EGLL 072050Z 22010G20KT CAVOK 17/10 Q1016 NOSIG=
201406072020 METAR COR EGLL 072020Z 22008KT 170V260 CAVOK 18/09 Q1015
                        NOSIG=
201406071950 METAR COR EGLL 071950Z 23009KT CAVOK 19/09 Q1015 NOSIG=
201406071920 METAR COR EGLL 071920Z 22010KT 9999 FEW043 20/10 Q1014 NOSIG=
201406071850 METAR COR EGLL 071850Z 21010KT 180V250 9999 FEW043 21/11
                        Q1014 NOSIG=
201406071820 METAR COR EGLL 071820Z 24010KT 9999 FEW043 21/11 Q1014 NOSIG=
201406071750 METAR COR EGLL 071750Z 24011KT 9999 SCT048 22/10 Q1014 NOSIG=
201406071720 METAR COR EGLL 071720Z 25009KT 220V280 9999 SCT046 22/10
                        Q1014 NOSIG=
201406071650 METAR COR EGLL 071650Z 26010KT 230V300 9999 SCT046 21/11
                        Q1013 NOSIG=
201406071620 METAR COR EGLL 071620Z 24009KT 200V280 9999 SCT043 22/11
                        Q1013 NOSIG=
201406071550 METAR COR EGLL 071550Z 27010KT 230V300 9999 SCT044 21/11
                        Q1013 NOSIG=
201406071520 METAR COR EGLL 071520Z 25010KT 210V270 9999 SCT045 22/11
                        Q1013 NOSIG=
201406071450 METAR COR EGLL 071450Z 26010KT 230V290 9999 SCT041 21/11
                        Q1013 NOSIG=
201406071420 METAR COR EGLL 071420Z 27011KT 9999 SCT042 21/12 Q1013 NOSIG=
201406071350 METAR COR EGLL 071350Z 25009KT 200V280 9999 FEW036 SCT043
                        22/13 Q1012 NOSIG=
201406071320 METAR COR EGLL 071320Z 26012KT 9999 SCT031 21/12 Q1012 NOSIG=
201406071250 METAR COR EGLL 071250Z 24008KT 200V290 9999 FEW030 21/14
                        Q1012 NOSIG=
201406071220 METAR COR EGLL 071220Z 27009KT 9999 FEW023 20/14 Q1012 NOSIG=
201406071150 METAR COR EGLL 071150Z 27014KT 9999 SCT018 BKN040 20/14 Q1012
                        NOSIG=
201406071120 METAR COR EGLL 071120Z 27012KT 9999 SCT012 SCT035 19/15 Q1011
                        NOSIG=
201406071050 METAR EGLL 071050Z 23010KT 9999 FEW029 SCT033 19/16 Q1011=
201406071020 METAR COR EGLL 071020Z 23007KT 9999 FEW025 FEW042CB 18/16
                        Q1011 NOSIG=
201406070950 METAR COR EGLL 070950Z 19007KT 170V230 9999 FEW042 17/16
                        Q1012 RESHRA NOSIG=
201406070920 METAR COR EGLL 070920Z 17010KT 6000 SHRA FEW033 SCT039 17/15
                        Q1012 TEMPO 4000 TSRA=
201406070850 METAR COR EGLL 070850Z 18007KT 9999 8000SE -SHRA FEW048 18/15
                        Q1011 TEMPO TSRA=
201406070820 METAR EGLL 070820Z 15007KT 9999 FEW048 17/15 Q1009 TEMPO
                        TSRA=
201406070750 METAR COR EGLL 070750Z 18008KT 9999 VCSH FEW018 FEW042CB
                        17/15 Q1009 TEMPO TSRA=
201406070720 METAR COR EGLL 070720Z 04007KT 350V080 9999 -SHRA FEW038CB
                        17/15 Q1007 TEMPO TSRA=
201406070650 METAR COR EGLL 070650Z 09007KT 9999 8000NE -SHRA FEW040CB
                        16/14 Q1009 TEMPO TSRA=
201406070620 METAR COR EGLL 070620Z VRB02KT 9999 -SHRA FEW046 16/14 Q1009
                        TEMPO TSRA=
201406070550 METAR COR EGLL 070550Z 07006KT 9999 VCSH FEW035 16/13 Q1009
                        TEMPO 4500 TSRA=
201406070520 METAR COR EGLL 070520Z 09005KT 9999 FEW035 15/13 Q1009 TEMPO
                        TSRA=
201406070450 METAR COR EGLL 070450Z 12007KT 9999 FEW035 16/13 Q1010 TEMPO
                        TSRA=
201406070420 METAR COR EGLL 070420Z 07005KT 040V140 CAVOK 16/13 Q1009
                        TEMPO TS=
201406070350 METAR COR EGLL 070350Z 06005KT CAVOK 15/13 Q1009 TEMPO TSRA=
201406070320 METAR COR EGLL 070320Z 07004KT CAVOK 15/12 Q1009 NOSIG=
201406070250 METAR COR EGLL 070250Z 07005KT CAVOK 15/12 Q1009 NOSIG=
201406070220 METAR COR EGLL 070220Z 07005KT CAVOK 15/12 Q1010 NOSIG=
201406070150 METAR COR EGLL 070150Z 07005KT CAVOK 15/12 Q1010 NOSIG=
201406070120 METAR EGLL 070120Z AUTO 08007KT 9999 NCD 16/12 Q1010=
201406070050 METAR EGLL 070050Z AUTO 07005KT 9999 NCD 16/12 Q1010=
201406070020 METAR EGLL 070020Z AUTO 07007KT 9999 NCD 16/11 Q1011=
201406062350 METAR COR EGLL 062350Z 08006KT CAVOK 16/11 Q1011 NOSIG=
201406062320 METAR COR EGLL 062320Z 09009KT CAVOK 16/11 Q1011 NOSIG=
201406062250 METAR COR EGLL 062250Z 09009KT CAVOK 16/11 Q1011 NOSIG=
201406062220 METAR COR EGLL 062220Z 09009KT CAVOK 17/11 Q1011 NOSIG=
201406062150 METAR COR EGLL 062150Z 09010KT CAVOK 17/10 Q1012 NOSIG=
201406062120 METAR COR EGLL 062120Z 09008KT CAVOK 17/10 Q1012 NOSIG=
201406062050 METAR COR EGLL 062050Z 08009KT CAVOK 17/10 Q1012 NOSIG=
201406062020 METAR COR EGLL 062020Z 08008KT CAVOK 17/10 Q1012 NOSIG=
201406061950 METAR EGLL 061950Z 09008KT CAVOK 18/10 Q1011=
201406061920 METAR COR EGLL 061920Z 09012KT CAVOK 19/10 Q1011 NOSIG=
201406061850 METAR COR EGLL 061850Z 09013KT CAVOK 19/11 Q1011 NOSIG=
201406061820 METAR COR EGLL 061820Z 10014KT CAVOK 20/11 Q1011 NOSIG=
201406061750 METAR COR EGLL 061750Z 09013KT CAVOK 21/12 Q1011 NOSIG=
201406061720 METAR COR EGLL 061720Z 09013KT CAVOK 22/12 Q1011 NOSIG=
201406061650 METAR EGLL 061650Z 09012KT CAVOK 23/11 Q1011=
201406061620 METAR COR EGLL 061620Z 12012KT CAVOK 23/07 Q1011 NOSIG=
201406061550 METAR COR EGLL 061550Z 13011KT CAVOK 24/08 Q1011 NOSIG=
201406061520 METAR COR EGLL 061520Z 10011KT CAVOK 23/09 Q1011 NOSIG=
201406061450 METAR COR EGLL 061450Z 10012KT 070V130 CAVOK 24/09 Q1012
                        NOSIG=
201406061420 METAR COR EGLL 061420Z 11009KT 070V140 CAVOK 23/09 Q1012
                        NOSIG=
201406061350 METAR COR EGLL 061350Z 11011KT 070V130 CAVOK 23/10 Q1012
                        NOSIG=
201406061320 METAR COR EGLL 061320Z 12011KT CAVOK 23/09 Q1012 NOSIG=
201406061250 METAR COR EGLL 061250Z 14010KT CAVOK 23/09 Q1013 NOSIG=
201406061220 METAR COR EGLL 061220Z 14011KT CAVOK 22/09 Q1013 NOSIG=
201406061150 METAR COR EGLL 061150Z 13010KT 090V170 CAVOK 22/10 Q1013
                        NOSIG=
201406061120 METAR COR EGLL 061120Z 15011KT CAVOK 21/09 Q1013 NOSIG=
201406061050 METAR COR EGLL 061050Z 15009KT CAVOK 20/08 Q1013 NOSIG=
201406061020 METAR COR EGLL 061020Z 14010KT CAVOK 20/08 Q1014 NOSIG=
201406060950 METAR COR EGLL 060950Z 12010KT CAVOK 20/08 Q1014 NOSIG=
201406060920 METAR COR EGLL 060920Z 13009KT 090V150 CAVOK 19/08 Q1014
                        NOSIG=
201406060850 METAR COR EGLL 060850Z 13008KT CAVOK 18/09 Q1014 NOSIG=
201406060820 METAR COR EGLL 060820Z 10008KT CAVOK 17/08 Q1014 NOSIG=
201406060750 METAR COR EGLL 060750Z 09006KT CAVOK 16/08 Q1014 NOSIG=
201406060720 METAR COR EGLL 060720Z 09006KT CAVOK 15/08 Q1014 NOSIG=
201406060650 METAR COR EGLL 060650Z 09005KT CAVOK 13/09 Q1014 NOSIG=
201406060620 METAR COR EGLL 060620Z 08004KT CAVOK 12/09 Q1014 NOSIG=
201406060550 METAR COR EGLL 060550Z VRB03KT CAVOK 12/08 Q1014 NOSIG=
201406060520 METAR COR EGLL 060520Z 07002KT CAVOK 10/08 Q1014 NOSIG=
201406060450 METAR COR EGLL 060450Z 08002KT CAVOK 09/07 Q1014 NOSIG=
201406060420 METAR COR EGLL 060420Z 08002KT CAVOK 08/06 Q1014 NOSIG=
201406060350 METAR COR EGLL 060350Z 10002KT CAVOK 08/06 Q1014 NOSIG=
201406060320 METAR EGLL 060320Z 09002KT CAVOK 07/05 Q1014=
201406060250 METAR EGLL 060250Z 09002KT CAVOK 08/05 Q1014=
201406060220 METAR COR EGLL 060220Z VRB02KT CAVOK 08/05 Q1014 NOSIG=
201406060150 METAR COR EGLL 060150Z VRB02KT CAVOK 09/06 Q1014 NOSIG=
201406060120 METAR EGLL 060120Z AUTO 00000KT 9999 NCD 09/05 Q1014=
201406060050 METAR EGLL 060050Z AUTO 18003KT 9999 NCD 09/06 Q1014=
201406060020 METAR EGLL 060020Z AUTO 00000KT 9999 NCD 08/05 Q1014=
201406052350 METAR COR EGLL 052350Z 00000KT CAVOK 09/06 Q1014 NOSIG=
201406052320 METAR COR EGLL 052320Z 17003KT CAVOK 10/06 Q1014 NOSIG=
201406052250 METAR COR EGLL 052250Z 21005KT CAVOK 11/06 Q1014 NOSIG=
201406052220 METAR COR EGLL 052220Z 22005KT CAVOK 12/06 Q1014 NOSIG=
201406052150 METAR COR EGLL 052150Z 21006KT CAVOK 12/06 Q1014 NOSIG=
201406052120 METAR COR EGLL 052120Z 22008KT 170V260 CAVOK 13/06 Q1014
                        NOSIG=
201406052050 METAR COR EGLL 052050Z 22009KT CAVOK 14/06 Q1014 NOSIG=
201406052020 METAR COR EGLL 052020Z 21008KT 170V250 CAVOK 14/05 Q1013
                        NOSIG=
201406051950 METAR COR EGLL 051950Z 22009KT 180V250 CAVOK 15/05 Q1013
                        NOSIG=
201406051920 METAR COR EGLL 051920Z 23012KT CAVOK 16/06 Q1013 NOSIG=
201406051850 METAR COR EGLL 051850Z 23012G22KT CAVOK 16/07 Q1012 NOSIG=
201406051820 METAR COR EGLL 051820Z 22011KT 9999 FEW044 17/07 Q1012 NOSIG=
201406051750 METAR COR EGLL 051750Z 23012KT 190V270 9999 FEW044 17/07
                        Q1012 NOSIG=
201406051720 METAR EGLL 051720Z 23014KT 9999 FEW044 18/07 Q1012=
201406051650 METAR COR EGLL 051650Z 24013KT CAVOK 17/07 Q1011 NOSIG=
201406051620 METAR COR EGLL 051620Z 23013KT CAVOK 17/07 Q1011 NOSIG=
201406051550 METAR COR EGLL 051550Z 25011KT 200V270 CAVOK 18/04 Q1011
                        NOSIG=
201406051520 METAR COR EGLL 051520Z 27012KT CAVOK 19/04 Q1011 NOSIG=
201406051450 METAR COR EGLL 051450Z 27014KT CAVOK 19/04 Q1011 NOSIG=
201406051420 METAR COR EGLL 051420Z 27014KT CAVOK 19/04 Q1011 NOSIG=
201406051350 METAR COR EGLL 051350Z 25013KT 9999 FEW048 18/05 Q1011 NOSIG=
201406051320 METAR COR EGLL 051320Z 27013KT 9999 FEW048 18/07 Q1011 NOSIG=
201406051250 METAR COR EGLL 051250Z 26015KT 9999 FEW047 18/07 Q1011 NOSIG=
201406051220 METAR COR EGLL 051220Z 26013KT 9999 FEW045 18/07 Q1011 NOSIG=
201406051150 METAR COR EGLL 051150Z 26014KT 9999 FEW042 17/08 Q1011 NOSIG=
201406051120 METAR COR EGLL 051120Z 27014KT 9999 FEW043 16/07 Q1011 NOSIG=
201406051050 METAR COR EGLL 051050Z 27012KT 9999 SCT040 16/07 Q1010 NOSIG=
201406051020 METAR EGLL 051020Z 27014KT 230V300 9999 SCT036 17/07 Q1010=
201406050950 METAR COR EGLL 050950Z 26014KT 9999 SCT033 17/08 Q1010 NOSIG=
201406050920 METAR COR EGLL 050920Z 26014KT 9999 SCT033 16/08 Q1010 NOSIG=
201406050850 METAR EGLL 050850Z 28014KT 9999 SCT030 16/08 Q1010=
201406050820 METAR COR EGLL 050820Z 27013KT 9999 FEW027 15/09 Q1010 NOSIG=
201406050750 METAR COR EGLL 050750Z 27012KT 9999 FEW020 14/09 Q1009 NOSIG=
201406050720 METAR COR EGLL 050720Z 27012KT 9999 FEW018 13/09 Q1009 NOSIG=
201406050650 METAR COR EGLL 050650Z 27012KT CAVOK 13/09 Q1009 NOSIG=
201406050620 METAR COR EGLL 050620Z 26011KT CAVOK 12/09 Q1009 NOSIG=
201406050550 METAR COR EGLL 050550Z 26011KT CAVOK 11/09 Q1008 NOSIG=
201406050520 METAR COR EGLL 050520Z 26010KT CAVOK 11/09 Q1008 NOSIG=
201406050450 METAR COR EGLL 050450Z 26011KT CAVOK 11/09 Q1008 NOSIG=
201406050420 METAR COR EGLL 050420Z 27012KT CAVOK 11/09 Q1008 NOSIG=
201406050350 METAR COR EGLL 050350Z 27012KT CAVOK 11/09 Q1007 NOSIG=
201406050320 METAR COR EGLL 050320Z 27011KT 9999 SCT042 BKN049 11/09 Q1007
                        NOSIG=
201406050250 METAR COR EGLL 050250Z 27011KT 9999 SCT037 11/09 Q1007 NOSIG=
201406050220 METAR COR EGLL 050220Z 27012KT 7000 -DZ BKN023 11/09 Q1007
                        NOSIG=
201406050150 METAR COR EGLL 050150Z 27013KT 9000 -DZ FEW015 BKN020 11/09
                        Q1006 REDZ TEMPO BKN014=
201406050120 METAR EGLL 050120Z AUTO 27012KT 9999 BKN018 BKN030 11/09
                        Q1006=
201406050050 METAR EGLL 050050Z AUTO 27011KT 9999 -RA FEW008 SCT014 BKN019
                        10/09 Q1006=
201406050020 METAR EGLL 050020Z AUTO 26012KT 9999 -RA SCT008/// BKN028///
                        //////TCU 10/09 Q1006 RERA REDZ=
201406042350 METAR COR EGLL 042350Z 24009KT 9999 -RA SCT007 SCT010 09/08
                        Q1006 TEMPO 4000 RADZ BKN008=
201406042320 METAR COR EGLL 042320Z 22008KT 7000 -RA FEW008 BKN015 08/07
                        Q1006 TEMPO 4000 RADZ BKN008=
201406042250 METAR COR EGLL 042250Z 23007KT 9999 -DZ FEW010 SCT016 08/07
                        Q1006 TEMPO 4000 RADZ BKN008=
201406042220 METAR COR EGLL 042220Z 23009KT CAVOK 08/07 Q1006 TEMPO RA
                        BKN012=
201406042150 METAR COR EGLL 042150Z 24011KT CAVOK 09/07 Q1006 TEMPO RA
                        BKN012=
201406042120 METAR COR EGLL 042120Z 24010KT CAVOK 09/07 Q1006 NOSIG=
201406042050 METAR COR EGLL 042050Z 24009KT 9999 FEW024 09/07 Q1005 NOSIG=
201406042020 METAR COR EGLL 042020Z 24010KT 9999 FEW024 09/06 Q1005 NOSIG=
201406041950 METAR COR EGLL 041950Z 22008KT 9999 SCT037CB 09/06 Q1005
                        NOSIG=
201406041920 METAR COR EGLL 041920Z 22016KT 9999 6000S -SHRA FEW033CB
                        BKN037 09/06 Q1006 RETS RESHRA RERA
                        TEMPO TSRA=
201406041850 METAR COR EGLL 041850Z 23025G35KT 9999 8000S VCSH VCTS SCT030CB
                        BKN038 12/04 Q1005 TEMPO 4000 TSGS=
201406041820 METAR COR EGLL 041820Z 27011KT 9999 VCSH VCTS FEW030 SCT037CB
                        13/06 Q1004 TEMPO 4000 TSRA=
201406041750 METAR COR EGLL 041750Z 26015KT 9999 FEW030 BKN037 13/06 Q1004
                        NOSIG=
201406041720 METAR COR EGLL 041720Z 26014KT 9999 SCT028 14/07 Q1004 NOSIG=
201406041650 METAR COR EGLL 041650Z 26016KT 9999 FEW031 14/07 Q1004 NOSIG=
201406041620 METAR COR EGLL 041620Z 27015KT 9999 FEW027 BKN045 13/07 Q1004
                        NOSIG=
201406041550 METAR COR EGLL 041550Z 27016KT 9999 BKN029 14/08 Q1004 NOSIG=
201406041520 METAR COR EGLL 041520Z 26017KT 9999 SCT026 SCT046 14/08 Q1004
                        NOSIG=
201406041450 METAR COR EGLL 041450Z 26016KT 9999 FEW021 SCT042 13/09 Q1004
                        NOSIG=
201406041420 METAR COR EGLL 041420Z 27015KT 9999 SCT012 SCT021 13/10 Q1004
                        TEMPO SHRA BKN014=
201406041350 METAR COR EGLL 041350Z 25017KT 9999 -SHRA FEW020CB SCT034
                        BKN040 13/10 Q1003 NOSIG=
201406041320 METAR COR EGLL 041320Z 27013KT 9999 6000NE -SHRA BKN021 12/10
                        Q1003 RESHRA NOSIG=
201406041250 METAR COR EGLL 041250Z 23009KT 9999 SCT019 SCT035 14/10 Q1003
                        TEMPO SHRA BKN014=
201406041220 METAR COR EGLL 041220Z 24008KT 210V280 9999 FEW025 BKN040
                        14/09 Q1003 NOSIG=
201406041150 METAR COR EGLL 041150Z 25010KT 9999 FEW018 BKN036 14/09 Q1003
                        NOSIG=
201406041120 METAR COR EGLL 041120Z 24007KT 9999 BKN040 13/09 Q1003 NOSIG=
201406041050 METAR COR EGLL 041050Z 24008KT 210V280 9999 FEW013 SCT044
                        12/09 Q1003 NOSIG=
201406041020 METAR COR EGLL 041020Z 24006KT 200V290 9999 FEW018 SCT028
                        BKN032 14/10 Q1003 NOSIG=
201406040950 METAR COR EGLL 040950Z 24007KT 210V280 9999 FEW017 SCT022
                        BKN040 13/10 Q1003 NOSIG=
201406040920 METAR COR EGLL 040920Z 20005KT 140V220 9999 -DZRA SCT025
                        BKN033 13/10 Q1003 NOSIG=
201406040850 METAR COR EGLL 040850Z 21005KT 140V270 9999 FEW017 SCT036
                        14/09 Q1003 TEMPO BKN014=
201406040820 METAR COR EGLL 040820Z VRB04KT 9999 SCT015 SCT033 14/10 Q1004
                        TEMPO BKN014=
201406040750 METAR COR EGLL 040750Z VRB03KT 9999 FEW011 13/10 Q1004 TEMPO
                        BKN011=
201406040720 METAR COR EGLL 040720Z 28004KT 9999 -RA FEW011 SCT033 12/10
                        Q1004 TEMPO BKN011=
201406040650 METAR COR EGLL 040650Z 28004KT 210V320 9999 -RA FEW011 SCT037
                        12/10 Q1004 TEMPO BKN011=
201406040620 METAR COR EGLL 040620Z 26005KT 210V300 9999 -RA FEW008 12/10
                        Q1004 TEMPO BKN008=
201406040550 METAR COR EGLL 040550Z 24005KT 200V280 9999 -RA FEW008 12/10
                        Q1004 TEMPO RA BKN008=
201406040520 METAR COR EGLL 040520Z 22007KT 9999 -RA SCT008CB 12/11 Q1005
                        TEMPO RA BKN008=
201406040450 METAR COR EGLL 040450Z 18006KT 9000 -RA FEW005 BKN009 12/11
                        Q1005 TEMPO RA SCT010=
201406040420 METAR COR EGLL 040420Z 16005KT 8000 -RA BKN010 12/11 Q1005
                        RERA TEMPO RA SCT010=
201406040350 METAR COR EGLL 040350Z 16006KT 7000 RA BKN008 12/11 Q1005
                        TEMPO -RA SCT010=
201406040320 METAR COR EGLL 040320Z 17006KT 7000 -RA BKN008 12/11 Q1006
                        REDZ TEMPO RADZ SCT010=
201406040250 METAR COR EGLL 040250Z 18004KT 9999 FEW020 12/11 Q1006 TEMPO
                        RA BKN013=
201406040220 METAR COR EGLL 040220Z 18005KT 9999 FEW020 12/10 Q1006 TEMPO
                        RA BKN013=
201406040150 METAR COR EGLL 040150Z 17005KT 9999 FEW040 12/10 Q1007 TEMPO
                        RA=
201406040120 METAR EGLL 040120Z AUTO 18006KT 9999 NCD 12/10 Q1007=
201406040050 METAR EGLL 040050Z AUTO 21004KT 9999 NCD 12/10 Q1007=
201406040020 METAR EGLL 040020Z AUTO 20005KT 9999 NCD 13/10 Q1008=
201406032350 METAR COR EGLL 032350Z 19005KT CAVOK 13/10 Q1008 NOSIG=
201406032320 METAR COR EGLL 032320Z 20005KT CAVOK 13/10 Q1008 NOSIG=
201406032250 METAR COR EGLL 032250Z 24003KT CAVOK 13/10 Q1009 NOSIG=
201406032220 METAR COR EGLL 032220Z 25004KT CAVOK 13/10 Q1009 NOSIG=
201406032150 METAR COR EGLL 032150Z 23006KT CAVOK 14/10 Q1010 NOSIG=
201406032120 METAR COR EGLL 032120Z 22008KT CAVOK 14/10 Q1010 NOSIG=
201406032050 METAR COR EGLL 032050Z 24008KT CAVOK 14/10 Q1010 NOSIG=
201406032020 METAR COR EGLL 032020Z 25008KT CAVOK 14/10 Q1010 NOSIG=
201406031950 METAR COR EGLL 031950Z 25009KT 9999 FEW049 15/10 Q1010 NOSIG=
201406031920 METAR COR EGLL 031920Z 24010KT 9999 SCT031 15/10 Q1010 NOSIG=
201406031850 METAR COR EGLL 031850Z 25012KT 9999 SCT031 16/10 Q1010 NOSIG=
201406031820 METAR COR EGLL 031820Z 22009KT 9999 SCT030 SCT038 16/12 Q1010
                        NOSIG=
201406031750 METAR COR EGLL 031750Z 18007KT 140V250 9999 FEW038 15/12
                        Q1010 NOSIG=
201406031720 METAR COR EGLL 031720Z 21012KT 9999 -SHRA FEW032 BKN039CB
                        17/11 Q1010 NOSIG=
201406031650 METAR COR EGLL 031650Z 25011KT 9999 SCT039 19/09 Q1010 NOSIG=
201406031620 METAR COR EGLL 031620Z 23009KT 9999 BKN036 18/10 Q1010 NOSIG=
201406031550 METAR COR EGLL 031550Z 19009G20KT 150V240 9999 SCT029 BKN036
                        18/11 Q1011 NOSIG=
201406031520 METAR COR EGLL 031520Z 18011KT 160V230 9999 SCT033 18/12
                        Q1011 NOSIG=
201406031450 METAR COR EGLL 031450Z 20012KT 180V240 9999 8000N -SHRA SCT030
                        SCT042 16/13 Q1011 NOSIG=
201406031420 METAR COR EGLL 031420Z 23009G22KT 180V280 9999 SCT036 SCT041
                        19/08 Q1011 NOSIG=
201406031350 METAR COR EGLL 031350Z VRB03G15KT 9999 SCT029 19/11 Q1011
                        NOSIG=
201406031320 METAR COR EGLL 031320Z VRB03KT 9999 FEW025 19/11 Q1012 NOSIG=
201406031250 METAR COR EGLL 031250Z VRB03KT 9999 SCT019 SCT032 18/12 Q1012
                        NOSIG=
201406031220 METAR COR EGLL 031220Z VRB04KT 9999 FEW025 SCT033 18/13 Q1012
                        NOSIG=
201406031150 METAR COR EGLL 031150Z 26005KT 200V310 9999 FEW017 SCT034
                        17/12 Q1013 NOSIG=
201406031120 METAR COR EGLL 031120Z 24006KT 180V270 9999 FEW013 SCT035
                        17/13 Q1013 NOSIG=
201406031050 METAR COR EGLL 031050Z 22005KT 150V260 9999 FEW007 SCT010
                        BKN014 15/13 Q1013 BECMG SCT014=
201406031020 METAR COR EGLL 031020Z 22007KT 190V270 9999 FEW006 SCT008
                        BKN039 15/13 Q1013 NOSIG=
201406030950 METAR COR EGLL 030950Z 25005KT 210V300 8000 -RA FEW006 SCT014
                        BKN022 14/13 Q1013 REDZ NOSIG=
201406030920 METAR COR EGLL 030920Z 24004KT 210V280 7000 DZ FEW008 SCT016
                        BKN021 14/12 Q1013 TEMPO BKN014=
201406030850 METAR COR EGLL 030850Z 29004KT 250V330 8000 -DZ FEW007 SCT010
                        BKN023 14/12 Q1013 TEMPO BKN010=
201406030820 METAR COR EGLL 030820Z 24007KT 9999 5000E -DZ SCT010 BKN023
                        14/12 Q1013 NOSIG=
201406030750 METAR COR EGLL 030750Z 21007KT 7000 -DZ SCT016 BKN024 14/12
                        Q1013 TEMPO BKN010=
201406030720 METAR COR EGLL 030720Z 22008KT 9999 -RA BKN012 15/12 Q1013
                        TEMPO SCT012=
201406030650 METAR COR EGLL 030650Z 20007KT 160V240 9999 VCSH FEW010 BKN014
                        14/12 Q1013 TEMPO SCT014=
201406030620 METAR COR EGLL 030620Z VRB07KT 9999 FEW010 SCT043 14/12 Q1013
                        TEMPO BKN012=
201406030550 METAR COR EGLL 030550Z VRB07KT 9999 FEW048 13/12 Q1013 NOSIG=
201406030520 METAR COR EGLL 030520Z 18006KT 140V270 9999 FEW020 SCT040
                        13/11 Q1014 TEMPO BKN014=
201406030450 METAR COR EGLL 030450Z 17005KT 9999 SCT011 BKN026 13/11 Q1014
                        TEMPO BKN012=
201406030420 METAR COR EGLL 030420Z 17005KT 9999 BKN011 13/11 Q1014 NOSIG=
201406030350 METAR COR EGLL 030350Z 17005KT 9999 BKN012 13/11 Q1014 NOSIG=
201406030320 METAR COR EGLL 030320Z 18005KT 9999 SCT011 SCT014 13/11 Q1014
                        TEMPO BKN012=
201406030250 METAR COR EGLL 030250Z 18005KT 9999 SCT012 12/10 Q1015 TEMPO
                        BKN012=
201406030220 METAR EGLL 030220Z 20005KT 9999 FEW020 13/11 Q1015=
201406030150 METAR COR EGLL 030150Z 21007KT 9999 SCT012 13/11 Q1015 TEMPO
                        BKN012=
201406030120 METAR EGLL 030120Z AUTO 20006KT 9999 FEW009 BKN011 13/11
                        Q1015=
201406030050 METAR EGLL 030050Z AUTO 21006KT 9999 NCD 13/11 Q1016=
201406030020 METAR EGLL 030020Z AUTO 22006KT 9999 BKN013 14/11 Q1016=
201406022350 METAR COR EGLL 022350Z 22005KT 9999 FEW013 14/12 Q1016 TEMPO
                        BKN012=
201406022320 METAR COR EGLL 022320Z 21007KT 9999 FEW013 14/12 Q1016 TEMPO
                        BKN012=
201406022250 METAR COR EGLL 022250Z 20006KT 9999 FEW048 14/12 Q1016 NOSIG=
201406022220 METAR COR EGLL 022220Z 22008KT CAVOK 15/12 Q1016 NOSIG=
201406022150 METAR COR EGLL 022150Z 22009G19KT CAVOK 15/12 Q1016 NOSIG=
201406022120 METAR COR EGLL 022120Z 22009KT 180V260 CAVOK 16/12 Q1016
                        NOSIG=
201406022050 METAR COR EGLL 022050Z 22008KT 180V260 CAVOK 16/12 Q1016
                        NOSIG=
201406022020 METAR COR EGLL 022020Z 21008KT 160V250 CAVOK 16/12 Q1016
                        NOSIG=
201406021950 METAR COR EGLL 021950Z 22008KT 190V250 CAVOK 17/12 Q1016
                        NOSIG=
201406021920 METAR COR EGLL 021920Z 23009KT CAVOK 17/12 Q1016 NOSIG=
201406021850 METAR COR EGLL 021850Z 24011KT 9999 FEW024 17/12 Q1017 NOSIG=
201406021820 METAR COR EGLL 021820Z 25010KT 9999 SCT025 SCT046 18/12 Q1017
                        NOSIG=
201406021750 METAR COR EGLL 021750Z 25009KT 9999 FEW027 BKN041 18/12 Q1017
                        NOSIG=
201406021720 METAR COR EGLL 021720Z 25009G19KT 9999 FEW032 BKN040 18/12
                        Q1017 NOSIG=
201406021650 METAR COR EGLL 021650Z 28009KT 9999 BKN032 18/12 Q1017 NOSIG=
201406021620 METAR COR EGLL 021620Z 24008KT 170V280 9999 SCT033 19/11
                        Q1017 NOSIG=
201406021550 METAR COR EGLL 021550Z 22009KT 170V270 9999 FEW044 19/11
                        Q1017 NOSIG=
201406021520 METAR COR EGLL 021520Z 23008KT 190V270 9999 FEW040 19/11
                        Q1017 NOSIG=
201406021450 METAR COR EGLL 021450Z 21008KT 160V270 9999 FEW046 19/11
                        Q1017 NOSIG=
201406021420 METAR COR EGLL 021420Z 24010KT 200V280 9999 FEW034 19/11
                        Q1018 NOSIG=
201406021350 METAR COR EGLL 021350Z 28008KT 9999 FEW035 19/11 Q1018 NOSIG=
201406021320 METAR COR EGLL 021320Z 28009KT 9999 FEW037 19/12 Q1018 NOSIG=
201406021250 METAR COR EGLL 021250Z 24009KT 210V290 9999 FEW039 21/10
                        Q1018 NOSIG=
201406021220 METAR COR EGLL 021220Z 25006KT 180V310 9999 FEW039 SCT045
                        21/10 Q1018 NOSIG=
201406021150 METAR COR EGLL 021150Z 28005KT 220V360 9999 SCT043 19/10
                        Q1018 NOSIG=
201406021120 METAR COR EGLL 021120Z 23005KT 180V270 9999 SCT031 SCT046
                        19/11 Q1018 NOSIG=
201406021050 METAR COR EGLL 021050Z 25007KT 200V280 9999 FEW029 SCT038
                        18/11 Q1019 NOSIG=
201406021020 METAR COR EGLL 021020Z 24006KT 210V300 9999 FEW025 SCT035
                        18/11 Q1019 NOSIG=
201406020950 METAR COR EGLL 020950Z 25006KT 220V300 9999 FEW023 SCT030
                        18/11 Q1019 NOSIG=
201406020920 METAR COR EGLL 020920Z 26005KT 210V300 9999 FEW022 SCT031
                        17/11 Q1019 NOSIG=
201406020850 METAR COR EGLL 020850Z 22004KT 170V270 9999 SCT035 17/11
                        Q1019 NOSIG=
201406020820 METAR COR EGLL 020820Z 26005KT 200V360 9999 FEW034 16/11
                        Q1019 NOSIG=
201406020750 METAR COR EGLL 020750Z 27004KT 220V300 9999 FEW031 15/11
                        Q1019 NOSIG=
201406020720 METAR COR EGLL 020720Z 26005KT 230V300 9999 SCT031 14/10
                        Q1019 NOSIG=
201406020650 METAR COR EGLL 020650Z 26005KT 230V300 9999 SCT028 14/11
                        Q1019 NOSIG=
201406020620 METAR COR EGLL 020620Z 24004KT 200V290 9999 SCT027 14/11
                        Q1019 NOSIG=
201406020550 METAR COR EGLL 020550Z 24004KT 190V270 9999 FEW028 14/11
                        Q1019 NOSIG=
201406020520 METAR COR EGLL 020520Z 23004KT 200V270 9999 FEW030 14/11
                        Q1019 NOSIG=
201406020450 METAR COR EGLL 020450Z 27004KT 9999 -RA NSC 13/11 Q1019 NOSIG=
201406020420 METAR COR EGLL 020420Z 28005KT 9999 -RA NSC 13/11 Q1019 NOSIG=
201406020350 METAR COR EGLL 020350Z 27007KT 9999 -RA NSC 14/11 Q1019 NOSIG=
201406020320 METAR COR EGLL 020320Z 27006KT 9999 FEW036 14/10 Q1019 NOSIG=
201406020250 METAR COR EGLL 020250Z 27006KT 9999 FEW040 14/10 Q1019 NOSIG=
201406020220 METAR COR EGLL 020220Z 26005KT CAVOK 14/10 Q1020 NOSIG=
201406020150 METAR COR EGLL 020150Z 27006KT CAVOK 14/10 Q1020 NOSIG=
201406020120 METAR EGLL 020120Z AUTO 27007KT 9999 NCD 15/11 Q1020=
201406020050 METAR EGLL 020050Z AUTO 26008KT 9999 NCD 15/11 Q1020=
201406020020 METAR EGLL 020020Z AUTO 27007KT 9999 NCD 16/11 Q1020=
201406012350 METAR COR EGLL 012350Z 26006KT CAVOK 15/11 Q1020 NOSIG=
201406012320 METAR COR EGLL 012320Z 20007KT CAVOK 16/11 Q1020 NOSIG=
201406012250 METAR COR EGLL 012250Z 19007KT CAVOK 16/11 Q1020 NOSIG=
201406012220 METAR COR EGLL 012220Z 19006KT CAVOK 16/11 Q1020 NOSIG=
201406012150 METAR COR EGLL 012150Z 20005KT CAVOK 17/12 Q1020 NOSIG=
201406012120 METAR COR EGLL 012120Z 20007KT 170V240 CAVOK 18/12 Q1020
                        NOSIG=
201406012050 METAR COR EGLL 012050Z 15007KT 110V190 CAVOK 18/12 Q1020
                        NOSIG=
201406012020 METAR COR EGLL 012020Z 12008KT 090V150 CAVOK 18/12 Q1020
                        NOSIG=
201406011950 METAR COR EGLL 011950Z 09008KT 060V130 CAVOK 19/09 Q1020
                        NOSIG=
201406011920 METAR COR EGLL 011920Z 11006KT 070V150 CAVOK 20/07 Q1020
                        NOSIG=
201406011850 METAR COR EGLL 011850Z 10004KT 060V150 CAVOK 20/07 Q1020
                        NOSIG=
201406011820 METAR COR EGLL 011820Z VRB02KT CAVOK 20/06 Q1020 NOSIG=
201406011750 METAR COR EGLL 011750Z VRB03KT CAVOK 21/07 Q1020 NOSIG=
201406011720 METAR COR EGLL 011720Z 13004KT 100V180 CAVOK 22/06 Q1020
                        NOSIG=
201406011650 METAR COR EGLL 011650Z 17004KT 100V240 CAVOK 21/07 Q1020
                        NOSIG=
201406011620 METAR COR EGLL 011620Z VRB03KT CAVOK 21/07 Q1020 NOSIG=
201406011550 METAR COR EGLL 011550Z VRB03KT CAVOK 21/07 Q1021 NOSIG=
201406011520 METAR COR EGLL 011520Z VRB03KT CAVOK 20/07 Q1021 NOSIG=
201406011450 METAR EGLL 011450Z 21004KT 170V280 CAVOK 20/06 Q1021=
201406011420 METAR COR EGLL 011420Z VRB02KT CAVOK 20/05 Q1021 NOSIG=
201406011350 METAR COR EGLL 011350Z 05004KT 300V100 CAVOK 21/07 Q1021
                        NOSIG=
201406011320 METAR COR EGLL 011320Z VRB03KT CAVOK 20/07 Q1022 NOSIG=
201406011250 METAR COR EGLL 011250Z VRB03KT 9999 FEW049 20/07 Q1022 NOSIG=
201406011220 METAR COR EGLL 011220Z VRB02KT 9999 FEW048 21/09 Q1022 NOSIG=
201406011150 METAR COR EGLL 011150Z 35004KT 280V030 9999 SCT048 21/08
                        Q1022 NOSIG=
201406011120 METAR EGLL 011120Z VRB03KT 9999 SCT044 20/09 Q1023=
201406011050 METAR COR EGLL 011050Z VRB03KT 9999 SCT045 20/09 Q1023 NOSIG=
201406011020 METAR COR EGLL 011020Z VRB03KT 9999 SCT045 20/09 Q1023 NOSIG=
201406010950 METAR COR EGLL 010950Z VRB04KT 9999 SCT038 19/09 Q1023 NOSIG=
201406010920 METAR EGLL 010920Z 05005KT 010V090 9999 SCT036 18/09 Q1023=
201406010850 METAR COR EGLL 010850Z 05004KT 350V100 9999 FEW032 17/09
                        Q1023 NOSIG=
201406010820 METAR COR EGLL 010820Z 02005KT 310V080 9999 FEW031 17/10
                        Q1023 NOSIG=
201406010750 METAR COR EGLL 010750Z 35004KT 290V070 9999 FEW024 16/09
                        Q1023 NOSIG=
201406010720 METAR EGLL 010720Z VRB03KT CAVOK 16/10 Q1023=
201406010650 METAR COR EGLL 010650Z VRB03KT CAVOK 14/09 Q1023 NOSIG=
201406010620 METAR COR EGLL 010620Z VRB03KT CAVOK 14/09 Q1023 NOSIG=
201406010550 METAR COR EGLL 010550Z VRB03KT CAVOK 13/09 Q1023 NOSIG=
201406010520 METAR COR EGLL 010520Z 31003KT CAVOK 12/09 Q1023 NOSIG=
201406010450 METAR COR EGLL 010450Z 30004KT CAVOK 11/09 Q1023 NOSIG=
201406010420 METAR COR EGLL 010420Z 30003KT CAVOK 12/09 Q1023 NOSIG=
201406010350 METAR COR EGLL 010350Z VRB02KT CAVOK 12/09 Q1023 NOSIG=
201406010320 METAR COR EGLL 010320Z 30003KT CAVOK 11/09 Q1023 NOSIG=
201406010250 METAR COR EGLL 010250Z 31003KT CAVOK 12/10 Q1023 NOSIG=
201406010220 METAR COR EGLL 010220Z 30004KT CAVOK 12/10 Q1023 NOSIG=
201406010150 METAR COR EGLL 010150Z 31003KT CAVOK 13/10 Q1023 NOSIG=
201406010120 METAR EGLL 010120Z AUTO 30003KT 9999 NCD 14/11 Q1023=
201406010050 METAR EGLL 010050Z AUTO 29004KT 9999 NCD 14/11 Q1023=
201406010020 METAR EGLL 010020Z AUTO 30003KT 9999 NCD 14/11 Q1024=

</pre>

</body>
</html>
