##########################################################
# Query made at 01/13/2020 14:23:38 UTC
# Time interval: from 06/01/2019 00:00  to 07/01/2019 23:59  UTC
##########################################################

##########################################################
# EGLL, London / Heathrow Airport (United Kingdom)
# WMO index: 03772
# Latitude 51-29N. Longitude 000-27W. Altitude 24 m.
##########################################################

###################################
#  METAR/SPECI from EGLL
###################################
201907012350 METAR COR EGLL 012350Z AUTO 34004KT 290V020 9999 NCD 15/09
                        Q1024 NOSIG=
201907012320 METAR COR EGLL 012320Z AUTO 35006KT 310V040 9999 NCD 16/09
                        Q1024 NOSIG=
201907012250 METAR COR EGLL 012250Z AUTO 35006KT 320V020 9999 NCD 16/10
                        Q1024 NOSIG=
201907012220 METAR COR EGLL 012220Z AUTO 35006KT 290V030 9999 NCD 17/10
                        Q1023 NOSIG=
201907012150 METAR COR EGLL 012150Z AUTO VRB03KT 9999 FEW045 18/10 Q1023
                        NOSIG=
201907012120 METAR COR EGLL 012120Z AUTO 34004KT 300V030 9999 NCD 18/11
                        Q1023 NOSIG=
201907012050 METAR COR EGLL 012050Z AUTO 34004KT 310V030 9999 NCD 19/11
                        Q1023 NOSIG=
201907012020 METAR COR EGLL 012020Z AUTO 34006KT 300V030 9999 NCD 19/11
                        Q1022 NOSIG=
201907011950 METAR COR EGLL 011950Z AUTO 32006KT 9999 NCD 20/10 Q1022
                        NOSIG=
201907011920 METAR COR EGLL 011920Z AUTO 31005KT 9999 NCD 20/10 Q1022
                        NOSIG=
201907011850 METAR COR EGLL 011850Z AUTO 30006KT 280V340 9999 NCD 20/11
                        Q1022 NOSIG=
201907011820 METAR COR EGLL 011820Z AUTO 29007KT 260V330 9999 BKN048 21/11
                        Q1021 NOSIG=
201907011750 METAR COR EGLL 011750Z AUTO 30008KT 9999 NCD 21/10 Q1021
                        NOSIG=
201907011720 METAR COR EGLL 011720Z AUTO 32007KT 280V340 9999 NCD 21/10
                        Q1021 NOSIG=
201907011650 METAR COR EGLL 011650Z AUTO 31007KT 280V360 9999 NCD 21/10
                        Q1021 NOSIG=
201907011620 METAR COR EGLL 011620Z AUTO 29010KT 9999 OVC044 21/10 Q1021
                        NOSIG=
201907011550 METAR COR EGLL 011550Z AUTO 31008KT 280V360 9999 OVC045 21/10
                        Q1021 NOSIG=
201907011520 METAR COR EGLL 011520Z AUTO 31008KT 270V010 9999 BKN045 21/10
                        Q1021 NOSIG=
201907011450 METAR COR EGLL 011450Z AUTO 31008KT 270V010 9999 BKN045 21/10
                        Q1021 NOSIG=
201907011420 METAR COR EGLL 011420Z AUTO 31008KT 270V010 9999 BKN045 22/10
                        Q1021 NOSIG=
201907011350 METAR COR EGLL 011350Z AUTO 29008KT 260V340 9999 BKN044 21/09
                        Q1021 NOSIG=
201907011320 METAR COR EGLL 011320Z AUTO 29009KT 270V330 9999 BKN043 21/10
                        Q1021 NOSIG=
201907011250 METAR COR EGLL 011250Z AUTO 30011KT 260V340 9999 BKN042 20/09
                        Q1021 NOSIG=
201907011220 METAR COR EGLL 011220Z AUTO 29009KT 250V320 9999 BKN042 21/09
                        Q1021 NOSIG=
201907011150 METAR COR EGLL 011150Z AUTO 32009KT 9999 SCT042 21/09 Q1020
                        NOSIG=
201907011120 METAR COR EGLL 011120Z AUTO 28011KT 9999 SCT041 20/09 Q1020
                        NOSIG=
201907011050 METAR COR EGLL 011050Z AUTO 30010KT 260V350 9999 SCT040 20/09
                        Q1020 NOSIG=
201907011020 METAR COR EGLL 011020Z AUTO 29010KT 260V330 9999 SCT040 19/09
                        Q1020 NOSIG=
201907010950 METAR COR EGLL 010950Z AUTO 30011KT 9999 SCT039 19/09 Q1020
                        NOSIG=
201907010920 METAR COR EGLL 010920Z AUTO 29010KT 250V320 9999 SCT037 18/09
                        Q1020 NOSIG=
201907010850 METAR COR EGLL 010850Z AUTO 29010KT 260V330 9999 SCT036 19/09
                        Q1020 NOSIG=
201907010820 METAR COR EGLL 010820Z AUTO 29010KT 260V330 9999 BKN032 18/09
                        Q1020 NOSIG=
201907010750 METAR COR EGLL 010750Z AUTO 29009KT 250V320 9999 SCT029 BKN035
                        17/10 Q1020 NOSIG=
201907010720 METAR COR EGLL 010720Z AUTO 28013KT 9999 SCT022 SCT029 BKN034
                        17/11 Q1019 NOSIG=
201907010650 METAR COR EGLL 010650Z AUTO 27013KT 9999 NCD 16/12 Q1019
                        NOSIG=
201907010620 METAR COR EGLL 010620Z AUTO 27012KT 9999 FEW020 16/12 Q1019
                        NOSIG=
201907010550 METAR COR EGLL 010550Z AUTO 25011KT 9999 FEW047 16/12 Q1019
                        NOSIG=
201907010520 METAR COR EGLL 010520Z AUTO 24011KT 9999 NCD 15/12 Q1019
                        NOSIG=
201907010450 METAR COR EGLL 010450Z AUTO 24008KT 9999 NCD 14/12 Q1019
                        NOSIG=
201907010420 METAR COR EGLL 010420Z AUTO 25009KT 9999 NCD 14/12 Q1018
                        NOSIG=
201907010350 METAR COR EGLL 010350Z AUTO 25008KT 9999 NCD 14/12 Q1018
                        NOSIG=
201907010320 METAR COR EGLL 010320Z AUTO 24009KT 9999 NCD 14/12 Q1018
                        NOSIG=
201907010250 METAR COR EGLL 010250Z AUTO 23009KT 9999 NCD 14/11 Q1018
                        NOSIG=
201907010220 METAR COR EGLL 010220Z AUTO 24008KT 9999 NCD 14/11 Q1018
                        NOSIG=
201907010150 METAR EGLL 010150Z AUTO 24009KT 9999 NCD 15/12 Q1018=
201907010120 METAR COR EGLL 010120Z AUTO 25008KT 9999 NCD 15/11 Q1018
                        NOSIG=
201907010050 METAR COR EGLL 010050Z AUTO 25009KT 9999 NCD 15/11 Q1018
                        NOSIG=
201907010020 METAR EGLL 010020Z AUTO 26007KT 9999 NCD 16/11 Q1018=
201906302350 METAR COR EGLL 302350Z AUTO 26010KT 9999 NCD 16/11 Q1018
                        NOSIG=
201906302320 METAR EGLL 302320Z AUTO 27011KT 9999 NCD 16/11 Q1018=
201906302250 METAR EGLL 302250Z AUTO 27010KT 9999 NCD 16/10 Q1018=
201906302220 METAR COR EGLL 302220Z AUTO 27012KT 9999 NCD 17/10 Q1018
                        NOSIG=
201906302150 METAR COR EGLL 302150Z AUTO 27014KT 9999 NCD 17/11 Q1018
                        NOSIG=
201906302120 METAR COR EGLL 302120Z AUTO 27011KT 9999 NCD 17/10 Q1018
                        NOSIG=
201906302050 METAR COR EGLL 302050Z AUTO 28012KT 9999 NCD 18/10 Q1017
                        NOSIG=
201906302020 METAR COR EGLL 302020Z AUTO 28012KT 9999 NCD 19/11 Q1017
                        NOSIG=
201906301950 METAR COR EGLL 301950Z AUTO 29011KT 9999 NCD 20/11 Q1017
                        NOSIG=
201906301920 METAR COR EGLL 301920Z AUTO 28012KT 9999 NCD 21/11 Q1017
                        NOSIG=
201906301850 METAR COR EGLL 301850Z AUTO 28011KT 9999 FEW047 22/12 Q1017
                        NOSIG=
201906301820 METAR COR EGLL 301820Z AUTO 27015KT 9999 NCD 22/12 Q1016
                        NOSIG=
201906301750 METAR COR EGLL 301750Z AUTO 28013KT 9999 NCD 23/12 Q1016
                        NOSIG=
201906301720 METAR COR EGLL 301720Z AUTO 27012KT 9999 NCD 23/12 Q1016
                        NOSIG=
201906301650 METAR COR EGLL 301650Z AUTO 27014KT 9999 SCT046 23/12 Q1016
                        NOSIG=
201906301620 METAR COR EGLL 301620Z AUTO 28010KT 9999 FEW047 24/12 Q1016
                        NOSIG=
201906301550 METAR COR EGLL 301550Z AUTO 26013KT 9999 FEW047 24/12 Q1017
                        NOSIG=
201906301520 METAR COR EGLL 301520Z AUTO 26013KT 9999 FEW045 23/12 Q1017
                        NOSIG=
201906301450 METAR COR EGLL 301450Z AUTO 25014KT 220V280 9999 SCT044 24/12
                        Q1017 NOSIG=
201906301420 METAR COR EGLL 301420Z AUTO 26011KT 220V300 9999 SCT046 23/12
                        Q1017 NOSIG=
201906301350 METAR COR EGLL 301350Z AUTO 24009KT 200V280 9999 SCT041 BKN048
                        23/12 Q1017 NOSIG=
201906301320 METAR COR EGLL 301320Z AUTO 27013KT 9999 BKN038 BKN045 22/12
                        Q1018 NOSIG=
201906301250 METAR COR EGLL 301250Z AUTO 26012KT 9999 BKN037 23/12 Q1018
                        NOSIG=
201906301220 METAR COR EGLL 301220Z AUTO 27011KT 9999 BKN034 21/12 Q1018
                        NOSIG=
201906301150 METAR COR EGLL 301150Z AUTO 25013KT 9999 BKN034 21/12 Q1017
                        NOSIG=
201906301120 METAR COR EGLL 301120Z AUTO 26014KT 9999 BKN029 22/13 Q1017
                        NOSIG=
201906301050 METAR COR EGLL 301050Z AUTO 27013KT 240V300 9999 BKN030 21/12
                        Q1017 NOSIG=
201906301020 METAR COR EGLL 301020Z AUTO 26013KT 9999 BKN029 21/13 Q1017
                        NOSIG=
201906300950 METAR COR EGLL 300950Z AUTO 27012KT 240V300 9999 BKN028 20/13
                        Q1017 NOSIG=
201906300920 METAR COR EGLL 300920Z AUTO 26011KT 230V290 9999 BKN029 BKN033
                        20/13 Q1017 NOSIG=
201906300850 METAR COR EGLL 300850Z AUTO 24011KT 9999 BKN027 19/12 Q1018
                        NOSIG=
201906300820 METAR COR EGLL 300820Z AUTO 26012KT 9999 BKN024 OVC028 19/12
                        Q1018 NOSIG=
201906300750 METAR COR EGLL 300750Z AUTO 25011KT 220V280 9999 BKN021 18/13
                        Q1017 NOSIG=
201906300720 METAR COR EGLL 300720Z AUTO 27011KT 230V290 9999 BKN021 18/13
                        Q1016 NOSIG=
201906300650 METAR COR EGLL 300650Z AUTO 27010KT 9999 NCD 17/13 Q1016
                        NOSIG=
201906300620 METAR COR EGLL 300620Z AUTO 29009KT 9999 NCD 17/13 Q1016
                        NOSIG=
201906300550 METAR COR EGLL 300550Z AUTO 28008KT 260V320 9999 NCD 16/13
                        Q1015 NOSIG=
201906300520 METAR COR EGLL 300520Z AUTO 28010KT 9999 NCD 15/13 Q1015
                        NOSIG=
201906300450 METAR COR EGLL 300450Z AUTO 27010KT 9999 NCD 15/13 Q1015
                        NOSIG=
201906300420 METAR COR EGLL 300420Z AUTO 27010KT 9999 NCD 15/13 Q1015
                        NOSIG=
201906300350 METAR COR EGLL 300350Z AUTO 28011KT 9999 NCD 15/13 Q1014
                        NOSIG=
201906300320 METAR COR EGLL 300320Z AUTO 28010KT 9999 NCD 15/13 Q1014
                        NOSIG=
201906300250 METAR COR EGLL 300250Z AUTO 28010KT 9999 NCD 16/14 Q1014
                        NOSIG=
201906300220 METAR COR EGLL 300220Z AUTO 28011KT 9999 NCD 17/15 Q1013
                        NOSIG=
201906300150 METAR COR EGLL 300150Z AUTO 28009KT 9999 NCD 17/15 Q1013
                        NOSIG=
201906300120 METAR COR EGLL 300120Z AUTO 28010KT 9999 NCD 18/16 Q1013
                        NOSIG=
201906300050 METAR COR EGLL 300050Z AUTO 28009KT 9999 NCD 19/16 Q1012
                        NOSIG=
201906300020 METAR COR EGLL 300020Z AUTO 27011KT 9999 NCD 20/17 Q1012
                        NOSIG=
201906292350 METAR COR EGLL 292350Z AUTO 27012KT 9999 NCD 21/17 Q1012
                        NOSIG=
201906292320 METAR COR EGLL 292320Z AUTO 27009KT 9999 NCD 22/17 Q1011
                        NOSIG=
201906292250 METAR COR EGLL 292250Z AUTO 27010KT 9999 NCD 22/17 Q1011
                        NOSIG=
201906292220 METAR COR EGLL 292220Z AUTO 27016KT 9999 SCT044 23/17 Q1011
                        NOSIG=
201906292150 METAR COR EGLL 292150Z AUTO 26013KT 9999 NCD 26/17 Q1011
                        NOSIG=
201906292120 METAR COR EGLL 292120Z AUTO 24009KT 9999 NCD 26/16 Q1010
                        NOSIG=
201906292050 METAR COR EGLL 292050Z AUTO 21007KT 160V240 9999 NCD 27/16
                        Q1010 NOSIG=
201906292020 METAR COR EGLL 292020Z AUTO 22008KT 190V250 9999 NCD 28/16
                        Q1010 NOSIG=
201906291950 METAR COR EGLL 291950Z AUTO 20007KT 160V250 9999 NCD 29/17
                        Q1010 NOSIG=
201906291920 METAR COR EGLL 291920Z AUTO 16008KT 9999 NCD 29/16 Q1010
                        NOSIG=
201906291850 METAR COR EGLL 291850Z AUTO 16009KT 9999 NCD 30/16 Q1010
                        NOSIG=
201906291820 METAR COR EGLL 291820Z AUTO 16010KT 9999 NCD 31/16 Q1011
                        NOSIG=
201906291750 METAR COR EGLL 291750Z AUTO 16010KT 9999 NCD 31/15 Q1011
                        NOSIG=
201906291720 METAR COR EGLL 291720Z AUTO 17010KT 9999 NCD 32/14 Q1011
                        NOSIG=
201906291650 METAR COR EGLL 291650Z AUTO 16012KT 9999 NCD 33/13 Q1011
                        NOSIG=
201906291620 METAR COR EGLL 291620Z AUTO 15011KT 9999 NCD 32/12 Q1012
                        NOSIG=
201906291550 METAR COR EGLL 291550Z AUTO 15013KT 9999 NCD 33/12 Q1012
                        NOSIG=
201906291520 METAR COR EGLL 291520Z AUTO 16011KT 9999 NCD 33/12 Q1012
                        NOSIG=
201906291450 METAR COR EGLL 291450Z AUTO 15012KT 9999 NCD 33/12 Q1012
                        NOSIG=
201906291420 METAR COR EGLL 291420Z AUTO 16011KT 140V210 9999 NCD 33/12
                        Q1013 NOSIG=
201906291350 METAR COR EGLL 291350Z AUTO 16012KT 9999 NCD 33/12 Q1013
                        NOSIG=
201906291320 METAR COR EGLL 291320Z AUTO 17010KT 130V200 9999 NCD 33/14
                        Q1014 NOSIG=
201906291250 METAR COR EGLL 291250Z AUTO 16010KT 130V190 9999 NCD 32/14
                        Q1014 NOSIG=
201906291220 METAR COR EGLL 291220Z AUTO 15011KT 9999 NCD 32/16 Q1014
                        NOSIG=
201906291150 METAR COR EGLL 291150Z AUTO 16011KT 9999 NCD 31/16 Q1015
                        NOSIG=
201906291120 METAR COR EGLL 291120Z AUTO 15010KT 9999 NCD 31/15 Q1015
                        NOSIG=
201906291050 METAR COR EGLL 291050Z AUTO 12008KT 9999 NCD 30/16 Q1015
                        NOSIG=
201906291020 METAR COR EGLL 291020Z AUTO 14007KT 090V170 9999 NCD 28/18
                        Q1016 NOSIG=
201906290950 METAR COR EGLL 290950Z AUTO 13005KT 080V150 9999 NCD 27/17
                        Q1016 NOSIG=
201906290920 METAR COR EGLL 290920Z AUTO 09005KT 060V130 9999 NCD 25/17
                        Q1016 NOSIG=
201906290850 METAR COR EGLL 290850Z AUTO 09006KT 040V130 9999 NCD 24/17
                        Q1016 NOSIG=
201906290820 METAR COR EGLL 290820Z AUTO 10005KT 050V130 9999 NCD 23/16
                        Q1017 NOSIG=
201906290750 METAR COR EGLL 290750Z AUTO 08005KT 9999 NCD 21/16 Q1017
                        NOSIG=
201906290720 METAR COR EGLL 290720Z AUTO 09005KT 050V120 9999 NCD 20/16
                        Q1017 NOSIG=
201906290650 METAR COR EGLL 290650Z AUTO 10005KT 9999 NCD 19/16 Q1018
                        NOSIG=
201906290620 METAR COR EGLL 290620Z AUTO 08005KT 8000 NCD 18/16 Q1018
                        NOSIG=
201906290550 METAR COR EGLL 290550Z AUTO 08005KT 7000 NCD 16/15 Q1018
                        NOSIG=
201906290520 METAR COR EGLL 290520Z AUTO 08005KT 6000 NCD 15/15 Q1018
                        NOSIG=
201906290450 METAR COR EGLL 290450Z AUTO 05004KT 6000 NCD 15/14 Q1019
                        NOSIG=
201906290420 METAR COR EGLL 290420Z AUTO 04003KT 7000 NCD 15/14 Q1019
                        NOSIG=
201906290350 METAR COR EGLL 290350Z AUTO 04003KT 7000 NCD 14/13 Q1019
                        NOSIG=
201906290320 METAR COR EGLL 290320Z AUTO 04002KT 7000 NCD 14/13 Q1019
                        NOSIG=
201906290250 METAR COR EGLL 290250Z AUTO VRB02KT 6000 NCD 14/14 Q1019
                        NOSIG=
201906290220 METAR COR EGLL 290220Z AUTO VRB02KT 6000 NCD 14/14 Q1020
                        NOSIG=
201906290150 METAR COR EGLL 290150Z AUTO 06004KT 7000 NCD 15/14 Q1020
                        NOSIG=
201906290120 METAR COR EGLL 290120Z AUTO 06004KT 8000 NCD 15/14 Q1020
                        NOSIG=
201906290050 METAR COR EGLL 290050Z AUTO 08004KT 8000 NCD 15/14 Q1020
                        NOSIG=
201906290020 METAR COR EGLL 290020Z AUTO 08003KT 9000 NCD 15/14 Q1021
                        NOSIG=
201906282350 METAR COR EGLL 282350Z AUTO 08004KT 9000 NCD 15/14 Q1021
                        NOSIG=
201906282320 METAR COR EGLL 282320Z AUTO 10006KT 9000 NCD 15/14 Q1021
                        NOSIG=
201906282250 METAR COR EGLL 282250Z AUTO 10006KT 9999 NCD 15/14 Q1021
                        NOSIG=
201906282220 METAR COR EGLL 282220Z AUTO 10006KT 9999 NCD 15/14 Q1021
                        NOSIG=
201906282150 METAR COR EGLL 282150Z AUTO 10007KT 9999 NCD 16/14 Q1021
                        NOSIG=
201906282120 METAR COR EGLL 282120Z AUTO 10007KT 9999 NCD 16/14 Q1021
                        NOSIG=
201906282050 METAR COR EGLL 282050Z AUTO 10009KT 9999 NCD 17/13 Q1021
                        NOSIG=
201906282020 METAR COR EGLL 282020Z AUTO 10009KT 9999 NCD 17/13 Q1021
                        NOSIG=
201906281950 METAR COR EGLL 281950Z AUTO 09011KT 9999 NCD 18/13 Q1021
                        NOSIG=
201906281920 METAR EGLL 281920Z AUTO 10012KT 9999 NCD 19/13 Q1021=
201906281850 METAR COR EGLL 281850Z AUTO 10012KT 9999 NCD 20/13 Q1021
                        NOSIG=
201906281820 METAR COR EGLL 281820Z AUTO 10012KT 9999 NCD 21/12 Q1021
                        NOSIG=
201906281750 METAR COR EGLL 281750Z AUTO 09014KT 9999 NCD 21/13 Q1022
                        NOSIG=
201906281720 METAR COR EGLL 281720Z AUTO 09014KT 9999 NCD 22/13 Q1022
                        NOSIG=
201906281650 METAR COR EGLL 281650Z AUTO 09012KT 9999 NCD 22/13 Q1022
                        NOSIG=
201906281620 METAR COR EGLL 281620Z AUTO 10014KT 9999 NCD 23/13 Q1022
                        NOSIG=
201906281550 METAR COR EGLL 281550Z AUTO 08011KT 9999 NCD 23/13 Q1023
                        NOSIG=
201906281520 METAR EGLL 281520Z AUTO 08011KT 050V120 9999 NCD 23/12 Q1023=
201906281450 METAR COR EGLL 281450Z AUTO 10012KT 9999 NCD 23/12 Q1023
                        NOSIG=
201906281420 METAR COR EGLL 281420Z AUTO 09012KT 060V130 9999 NCD 23/12
                        Q1023 NOSIG=
201906281350 METAR COR EGLL 281350Z AUTO 09011KT 060V120 9999 NCD 23/13
                        Q1023 NOSIG=
201906281320 METAR COR EGLL 281320Z AUTO 09010KT 9999 NCD 23/13 Q1024
                        NOSIG=
201906281250 METAR COR EGLL 281250Z AUTO 09011KT 050V120 9999 NCD 22/13
                        Q1024 NOSIG=
201906281220 METAR COR EGLL 281220Z AUTO 09011KT 060V120 9999 NCD 22/13
                        Q1024 NOSIG=
201906281150 METAR COR EGLL 281150Z AUTO 10014KT 9999 NCD 22/13 Q1024
                        NOSIG=
201906281120 METAR COR EGLL 281120Z AUTO 10015KT 9999 NCD 21/12 Q1024
                        NOSIG=
201906281050 METAR COR EGLL 281050Z AUTO 08013KT 9999 NCD 20/13 Q1025
                        NOSIG=
201906281020 METAR COR EGLL 281020Z AUTO 10012KT 9999 NCD 20/13 Q1025
                        NOSIG=
201906280950 METAR COR EGLL 280950Z AUTO 09013KT 9999 NCD 19/13 Q1025
                        NOSIG=
201906280920 METAR COR EGLL 280920Z AUTO 09012KT 9999 NCD 19/13 Q1026
                        NOSIG=
201906280850 METAR COR EGLL 280850Z AUTO 08010KT 050V120 9999 NCD 18/12
                        Q1026 NOSIG=
201906280820 METAR COR EGLL 280820Z AUTO 10012KT 050V120 9999 NCD 18/12
                        Q1026 NOSIG=
201906280750 METAR COR EGLL 280750Z AUTO 07009KT 9999 FEW018 17/12 Q1026
                        NOSIG=
201906280720 METAR COR EGLL 280720Z AUTO 06011KT 9999 FEW017 16/12 Q1026
                        NOSIG=
201906280650 METAR COR EGLL 280650Z AUTO 08009KT 040V110 9999 SCT017 16/12
                        Q1026 NOSIG=
201906280620 METAR COR EGLL 280620Z AUTO 08009KT 9999 BKN016 15/12 Q1026
                        NOSIG=
201906280550 METAR COR EGLL 280550Z AUTO 07009KT 9999 BKN015 15/12 Q1026
                        NOSIG=
201906280520 METAR COR EGLL 280520Z AUTO 07009KT 9999 BKN015 14/11 Q1026
                        NOSIG=
201906280450 METAR COR EGLL 280450Z AUTO 07009KT 9999 OVC014 14/12 Q1026
                        BECMG BKN016=
201906280420 METAR COR EGLL 280420Z AUTO 07010KT 9999 OVC014 14/11 Q1026
                        NOSIG=
201906280350 METAR COR EGLL 280350Z AUTO 07011KT 040V100 9999 OVC014 14/11
                        Q1026 NOSIG=
201906280320 METAR COR EGLL 280320Z AUTO 06009KT 9999 OVC014 14/11 Q1026
                        NOSIG=
201906280250 METAR COR EGLL 280250Z AUTO 06010KT 9999 OVC014 14/11 Q1027
                        NOSIG=
201906280220 METAR COR EGLL 280220Z AUTO 06008KT 9999 BKN014 14/11 Q1027
                        TEMPO BKN015=
201906280150 METAR COR EGLL 280150Z AUTO 06008KT 9999 BKN014 14/11 Q1027
                        NOSIG=
201906280120 METAR COR EGLL 280120Z AUTO 07009KT 9999 FEW015 14/11 Q1027
                        TEMPO BKN014=
201906280050 METAR COR EGLL 280050Z AUTO 07008KT 9999 NCD 14/11 Q1027
                        TEMPO BKN014=
201906280020 METAR COR EGLL 280020Z AUTO 07010KT 9999 NCD 14/11 Q1027
                        TEMPO BKN014=
201906272350 METAR COR EGLL 272350Z AUTO 07010KT 9999 NCD 14/11 Q1027
                        TEMPO BKN014=
201906272320 METAR COR EGLL 272320Z AUTO 06012KT 9999 NCD 14/11 Q1027
                        TEMPO BKN014=
201906272250 METAR COR EGLL 272250Z AUTO 07012KT 9999 NCD 14/11 Q1027
                        TEMPO BKN014=
201906272220 METAR COR EGLL 272220Z AUTO 07013KT 9999 NCD 15/11 Q1027
                        NOSIG=
201906272150 METAR COR EGLL 272150Z AUTO 07012KT 9999 NCD 15/12 Q1027
                        TEMPO BKN014=
201906272120 METAR COR EGLL 272120Z AUTO 07010KT 9999 NCD 16/12 Q1027
                        NOSIG=
201906272050 METAR COR EGLL 272050Z AUTO 07010KT 040V100 9999 NCD 16/12
                        Q1027 NOSIG=
201906272020 METAR COR EGLL 272020Z AUTO 08009KT 9999 NCD 17/12 Q1027
                        NOSIG=
201906271950 METAR COR EGLL 271950Z AUTO 08010KT 9999 NCD 17/12 Q1027
                        NOSIG=
201906271920 METAR COR EGLL 271920Z AUTO 09011KT 9999 NCD 18/12 Q1027
                        NOSIG=
201906271850 METAR COR EGLL 271850Z AUTO 10012KT 9999 NCD 19/13 Q1027
                        NOSIG=
201906271820 METAR COR EGLL 271820Z AUTO 10011KT 9999 NCD 20/13 Q1027
                        NOSIG=
201906271750 METAR COR EGLL 271750Z AUTO 08011KT 9999 NCD 20/13 Q1027
                        NOSIG=
201906271720 METAR COR EGLL 271720Z AUTO 10014KT 9999 NCD 21/13 Q1027
                        NOSIG=
201906271650 METAR COR EGLL 271650Z AUTO 10013KT 9999 NCD 22/14 Q1027
                        NOSIG=
201906271620 METAR COR EGLL 271620Z AUTO 09011KT 9999 NCD 22/13 Q1027
                        NOSIG=
201906271550 METAR COR EGLL 271550Z AUTO 07012KT 9999 NCD 23/13 Q1027
                        NOSIG=
201906271520 METAR COR EGLL 271520Z AUTO 06012KT 9999 NCD 23/13 Q1028
                        NOSIG=
201906271450 METAR COR EGLL 271450Z AUTO 09012KT 050V120 9999 NCD 23/12
                        Q1028 NOSIG=
201906271420 METAR COR EGLL 271420Z AUTO 08012KT 9999 NCD 23/12 Q1028
                        NOSIG=
201906271350 METAR COR EGLL 271350Z AUTO 07011KT 9999 NCD 23/12 Q1028
                        NOSIG=
201906271320 METAR COR EGLL 271320Z AUTO 07012KT 9999 NCD 23/11 Q1029
                        NOSIG=
201906271250 METAR COR EGLL 271250Z AUTO 09012KT 050V110 9999 NCD 23/11
                        Q1029 NOSIG=
201906271220 METAR COR EGLL 271220Z AUTO 08011KT 040V110 9999 NCD 23/12
                        Q1029 NOSIG=
201906271150 METAR COR EGLL 271150Z AUTO 07010KT 040V100 9999 NCD 22/12
                        Q1029 NOSIG=
201906271120 METAR COR EGLL 271120Z AUTO 07011KT 040V110 9999 NCD 21/12
                        Q1029 NOSIG=
201906271050 METAR COR EGLL 271050Z AUTO 07012KT 9999 NCD 20/11 Q1030
                        NOSIG=
201906271020 METAR COR EGLL 271020Z AUTO 07009KT 020V110 9999 NCD 20/11
                        Q1030 NOSIG=
201906270950 METAR COR EGLL 270950Z AUTO 07010KT 9999 NCD 19/11 Q1030
                        NOSIG=
201906270920 METAR COR EGLL 270920Z AUTO 07010KT 9999 NCD 18/11 Q1030
                        NOSIG=
201906270850 METAR COR EGLL 270850Z AUTO 07010KT 020V110 9999 NCD 18/11
                        Q1030 NOSIG=
201906270820 METAR COR EGLL 270820Z AUTO 07010KT 9999 NCD 17/11 Q1030
                        NOSIG=
201906270750 METAR COR EGLL 270750Z AUTO 06010KT 030V090 9999 NCD 16/11
                        Q1030 NOSIG=
201906270720 METAR COR EGLL 270720Z AUTO 06011KT 9999 NCD 15/10 Q1030
                        NOSIG=
201906270650 METAR COR EGLL 270650Z AUTO 06011KT 9999 FEW016 15/10 Q1030
                        NOSIG=
201906270620 METAR COR EGLL 270620Z AUTO 06009KT 9999 SCT016 14/10 Q1030
                        NOSIG=
201906270550 METAR COR EGLL 270550Z AUTO 06010KT 9999 BKN015 13/10 Q1030
                        NOSIG=
201906270520 METAR COR EGLL 270520Z AUTO 06009KT 9999 BKN014 13/10 Q1030
                        TEMPO BKN016=
201906270450 METAR COR EGLL 270450Z AUTO 07010KT 030V090 9999 OVC013 13/10
                        Q1029 NOSIG=
201906270420 METAR COR EGLL 270420Z AUTO 06009KT 9999 BKN013 13/10 Q1029
                        NOSIG=
201906270350 METAR COR EGLL 270350Z AUTO 06011KT 9999 BKN013 13/11 Q1029
                        NOSIG=
201906270320 METAR COR EGLL 270320Z AUTO 06009KT 9999 OVC012 14/11 Q1029
                        NOSIG=
201906270250 METAR COR EGLL 270250Z AUTO 05011KT 9999 OVC012 14/11 Q1029
                        NOSIG=
201906270220 METAR COR EGLL 270220Z AUTO 06010KT 9999 OVC013 14/11 Q1029
                        NOSIG=
201906270150 METAR COR EGLL 270150Z AUTO 06010KT 9999 OVC013 14/11 Q1029
                        NOSIG=
201906270120 METAR COR EGLL 270120Z AUTO 06011KT 9999 OVC013 14/11 Q1029
                        NOSIG=
201906270050 METAR COR EGLL 270050Z AUTO 06011KT 9999 BKN013 OVC018 14/12
                        Q1030 NOSIG=
201906270020 METAR COR EGLL 270020Z AUTO 06010KT 9999 BKN013 OVC018 14/12
                        Q1030 NOSIG=
201906262350 METAR COR EGLL 262350Z AUTO 07011KT 9999 BKN013 OVC017 14/12
                        Q1030 NOSIG=
201906262320 METAR COR EGLL 262320Z AUTO 06012KT 9999 OVC014 15/12 Q1030
                        TEMPO BKN015=
201906262250 METAR COR EGLL 262250Z AUTO 06011KT 9999 BKN015 15/12 Q1030
                        TEMPO BKN014=
201906262220 METAR COR EGLL 262220Z AUTO 05011KT 9999 BKN015 15/12 Q1029
                        TEMPO BKN014=
201906262150 METAR COR EGLL 262150Z AUTO 06011KT 9999 BKN016 15/12 Q1029
                        TEMPO BKN014=
201906262120 METAR COR EGLL 262120Z AUTO 06011KT 9999 OVC016 16/12 Q1029
                        TEMPO BKN014=
201906262050 METAR COR EGLL 262050Z AUTO 06011KT 9999 BKN016 16/12 Q1029
                        TEMPO BKN014=
201906262020 METAR COR EGLL 262020Z AUTO 06011KT 9999 OVC016 16/13 Q1029
                        TEMPO BKN014=
201906261950 METAR COR EGLL 261950Z AUTO 04010KT 9999 OVC016 17/13 Q1028
                        NOSIG=
201906261920 METAR COR EGLL 261920Z AUTO 04009KT 010V080 9999 OVC016 17/14
                        Q1028 TEMPO BKN014=
201906261850 METAR COR EGLL 261850Z AUTO 05011KT 9999 BKN016 OVC020 18/14
                        Q1028 TEMPO BKN014=
201906261820 METAR COR EGLL 261820Z AUTO 04010KT 010V070 9999 OVC019 18/14
                        Q1028 NOSIG=
201906261750 METAR COR EGLL 261750Z AUTO 04011KT 360V070 9999 BKN021 19/14
                        Q1028 NOSIG=
201906261720 METAR COR EGLL 261720Z AUTO 04009KT 360V070 9999 OVC021 20/15
                        Q1027 NOSIG=
201906261650 METAR COR EGLL 261650Z AUTO 04010KT 010V080 9999 BKN021 20/15
                        Q1027 NOSIG=
201906261620 METAR COR EGLL 261620Z AUTO 05010KT 010V080 9999 SCT022 21/15
                        Q1027 NOSIG=
201906261550 METAR EGLL 261550Z AUTO 05011KT 010V080 9999 SCT021 21/15
                        Q1027=
201906261520 METAR COR EGLL 261520Z AUTO 04011KT 360V060 9999 FEW022 21/15
                        Q1027 NOSIG=
201906261450 METAR COR EGLL 261450Z AUTO 04010KT 360V070 9999 SCT023 22/15
                        Q1027 NOSIG=
201906261420 METAR COR EGLL 261420Z AUTO 06011KT 020V090 9999 SCT022 22/15
                        Q1027 NOSIG=
201906261350 METAR COR EGLL 261350Z AUTO 05010KT 9999 BKN021 21/15 Q1027
                        NOSIG=
201906261320 METAR COR EGLL 261320Z AUTO 05010KT 340V080 9999 BKN019 21/15
                        Q1028 NOSIG=
201906261250 METAR COR EGLL 261250Z AUTO 05009KT 010V090 9999 BKN017 19/15
                        Q1028 NOSIG=
201906261220 METAR COR EGLL 261220Z AUTO 04009KT 360V070 9999 BKN016 OVC022
                        19/15 Q1028 NOSIG=
201906261150 METAR COR EGLL 261150Z AUTO 03009KT 340V070 9999 BKN015 19/15
                        Q1028 NOSIG=
201906261120 METAR COR EGLL 261120Z AUTO 05009KT 9999 OVC014 19/15 Q1028
                        BECMG BKN015=
201906261050 METAR COR EGLL 261050Z AUTO 04008KT 340V080 9999 OVC013 18/15
                        Q1029 BECMG BKN015=
201906261020 METAR COR EGLL 261020Z AUTO 07009KT 030V090 9999 BKN011 OVC016
                        17/15 Q1029 NOSIG=
201906260950 METAR COR EGLL 260950Z AUTO 04007KT 020V080 9999 OVC010 17/15
                        Q1028 NOSIG=
201906260920 METAR COR EGLL 260920Z AUTO 05007KT 010V080 9999 OVC009 16/15
                        Q1028 BECMG BKN010=
201906260850 METAR COR EGLL 260850Z AUTO 04008KT 360V080 9999 OVC008 16/14
                        Q1027 BECMG BKN010=
201906260820 METAR COR EGLL 260820Z AUTO 04006KT 350V080 9999 OVC007 16/14
                        Q1027 BECMG BKN010=
201906260750 METAR COR EGLL 260750Z AUTO 05008KT 9999 OVC007 16/15 Q1027
                        BECMG BKN010=
201906260720 METAR COR EGLL 260720Z AUTO 04008KT 350V060 9999 BKN006 OVC009
                        16/15 Q1027 NOSIG=
201906260650 METAR COR EGLL 260650Z AUTO 03006KT 350V070 9999 OVC006 16/15
                        Q1027 NOSIG=
201906260620 METAR COR EGLL 260620Z AUTO 03006KT 340V070 9999 BKN006 OVC010
                        16/15 Q1027 NOSIG=
201906260550 METAR COR EGLL 260550Z AUTO 05006KT 010V090 9999 OVC005 16/15
                        Q1027 NOSIG=
201906260520 METAR COR EGLL 260520Z AUTO 03007KT 350V060 9000 OVC005 16/15
                        Q1026 NOSIG=
201906260450 METAR COR EGLL 260450Z AUTO 05008KT 9000 OVC005 16/15 Q1026
                        NOSIG=
201906260420 METAR COR EGLL 260420Z AUTO 05006KT 010V090 9999 OVC006 16/15
                        Q1025 NOSIG=
201906260350 METAR COR EGLL 260350Z AUTO 05007KT 9999 OVC005 16/15 Q1025
                        NOSIG=
201906260320 METAR COR EGLL 260320Z AUTO 05006KT 010V070 9999 OVC005 16/15
                        Q1025 NOSIG=
201906260250 METAR COR EGLL 260250Z AUTO 04007KT 360V080 9999 BKN005 OVC008
                        16/15 Q1025 NOSIG=
201906260220 METAR COR EGLL 260220Z AUTO 04006KT 350V070 9000 OVC005 16/15
                        Q1025 NOSIG=
201906260150 METAR COR EGLL 260150Z AUTO 04004KT 010V080 9999 BKN005 OVC012
                        16/15 Q1025 NOSIG=
201906260120 METAR COR EGLL 260120Z AUTO 04006KT 010V090 9000 OVC004 16/15
                        Q1025 TEMPO BKN006=
201906260050 METAR COR EGLL 260050Z AUTO 05005KT 020V080 6000 OVC003 16/16
                        Q1024 TEMPO BKN006=
201906260020 METAR COR EGLL 260020Z AUTO 02006KT 340V050 7000 BKN004 OVC008
                        17/16 Q1024 TEMPO BKN006=
201906252350 METAR COR EGLL 252350Z AUTO 04006KT 7000 OVC005 17/16 Q1024
                        NOSIG=
201906252320 METAR COR EGLL 252320Z AUTO 04004KT 010V080 7000 OVC005 17/16
                        Q1024 NOSIG=
201906252250 METAR COR EGLL 252250Z AUTO 03005KT 340V080 8000 OVC007 18/16
                        Q1024 NOSIG=
201906252220 METAR COR EGLL 252220Z AUTO 05005KT 010V080 8000 OVC007 18/16
                        Q1023 NOSIG=
201906252150 METAR COR EGLL 252150Z AUTO 01005KT 340V060 8000 OVC007 18/17
                        Q1023 NOSIG=
201906252120 METAR COR EGLL 252120Z AUTO 04006KT 010V080 9000 OVC008 18/17
                        Q1023 TEMPO BKN010=
201906252050 METAR COR EGLL 252050Z AUTO 05006KT 9000 OVC009 19/17 Q1023
                        TEMPO BKN010=
201906252020 METAR COR EGLL 252020Z AUTO 05005KT 9999 OVC010 19/17 Q1022
                        NOSIG=
201906251950 METAR COR EGLL 251950Z AUTO 36005KT 340V040 9000 OVC010 19/17
                        Q1022 NOSIG=
201906251920 METAR COR EGLL 251920Z AUTO 36005KT 320V040 9999 BKN011 19/17
                        Q1022 NOSIG=
201906251850 METAR COR EGLL 251850Z AUTO 03005KT 330V060 9999 SCT012 BKN047
                        20/17 Q1021 TEMPO BKN012=
201906251820 METAR COR EGLL 251820Z AUTO 03007KT 330V050 9999 NCD 20/17
                        Q1021 NOSIG=
201906251750 METAR COR EGLL 251750Z AUTO 03006KT 340V060 9999 BKN047 21/17
                        Q1021 NOSIG=
201906251720 METAR COR EGLL 251720Z AUTO 01007KT 340V060 9999 NCD 21/17
                        Q1020 NOSIG=
201906251650 METAR COR EGLL 251650Z AUTO 01006KT 330V050 9999 NCD 21/18
                        Q1020 NOSIG=
201906251620 METAR COR EGLL 251620Z AUTO 03006KT 350V060 9999 NCD 21/18
                        Q1020 NOSIG=
201906251550 METAR COR EGLL 251550Z AUTO 36007KT 330V040 9999 NCD 22/18
                        Q1019 NOSIG=
201906251520 METAR COR EGLL 251520Z AUTO 36005KT 310V050 9999 BKN035 BKN042
                        22/18 Q1019 NOSIG=
201906251450 METAR COR EGLL 251450Z AUTO 35006KT 310V030 9999 BKN034 22/18
                        Q1019 NOSIG=
201906251420 METAR COR EGLL 251420Z AUTO 35005KT 320V020 9999 BKN020 BKN034
                        OVC044 23/18 Q1019 NOSIG=
201906251350 METAR COR EGLL 251350Z AUTO 03004KT 300V100 9999 SCT019 BKN034
                        23/18 Q1019 NOSIG=
201906251320 METAR COR EGLL 251320Z AUTO 04004KT 330V100 9999 FEW025 BKN030
                        23/18 Q1019 NOSIG=
201906251250 METAR COR EGLL 251250Z AUTO 05005KT 360V100 9999 BKN020 BKN049
                        23/18 Q1018 NOSIG=
201906251220 METAR COR EGLL 251220Z AUTO 05006KT 010V080 9999 BKN019 BKN026
                        23/18 Q1018 NOSIG=
201906251150 METAR COR EGLL 251150Z AUTO 02004KT 330V080 9999 SCT018 BKN049
                        22/18 Q1018 NOSIG=
201906251120 METAR COR EGLL 251120Z AUTO VRB02KT 9999 FEW017 SCT022 OVC048
                        22/19 Q1018 NOSIG=
201906251050 METAR COR EGLL 251050Z AUTO 34004KT 280V070 9999 SCT016 SCT020
                        BKN049 22/18 Q1018 NOSIG=
201906251020 METAR COR EGLL 251020Z AUTO VRB03KT 9999 SCT013 OVC049 21/18
                        Q1018 NOSIG=
201906250950 METAR COR EGLL 250950Z AUTO VRB03KT 9999 SCT012 21/19 Q1017
                        NOSIG=
201906250920 METAR COR EGLL 250920Z AUTO 04004KT 350V070 9999 SCT011 SCT048
                        21/19 Q1017 TEMPO BKN011=
201906250850 METAR COR EGLL 250850Z AUTO 02004KT 350V060 9999 SCT009 BKN014
                        20/19 Q1017 NOSIG=
201906250820 METAR COR EGLL 250820Z AUTO VRB03KT 9999 BKN009 20/19 Q1017
                        TEMPO BKN012=
201906250750 METAR COR EGLL 250750Z AUTO VRB02KT 9999 BKN009/// OVC018///
                        //////CB 19/18 Q1017 TEMPO BKN012=
201906250720 METAR COR EGLL 250720Z AUTO VRB03KT 6000 OVC008 19/18 Q1017
                        TEMPO BKN010=
201906250650 METAR COR EGLL 250650Z AUTO 04004KT 360V070 7000 -RA BKN009
                        19/18 Q1017 TEMPO SHRA=
201906250620 METAR COR EGLL 250620Z AUTO VRB02KT 7000 -RA SCT012 BKN033
                        19/18 Q1017 TEMPO SHRA=
201906250550 METAR COR EGLL 250550Z AUTO VRB02KT 6000 FEW013 SCT033 19/18
                        Q1016 TEMPO SHRA=
201906250520 METAR COR EGLL 250520Z AUTO VRB02KT 6000 FEW030 18/18 Q1016
                        NOSIG=
201906250450 METAR COR EGLL 250450Z AUTO 05004KT 020V090 4300 -RA BKN032///
                        //////CB 18/18 Q1016 RERA TEMPO 6000=
201906250420 METAR COR EGLL 250420Z AUTO 08004KT 050V120 2800 RA SCT036///
                        BKN049/// //////CB 18/18 Q1017 RERA
                        TEMPO 6000 -SHRA=
201906250350 METAR COR EGLL 250350Z AUTO VRB02KT 4900 -RA //////TCU 18/18
                        Q1017 RESHRA TEMPO SHRA=
201906250320 METAR COR EGLL 250320Z AUTO 22002KT 5000 -RA NCD 18/17 Q1017
                        TEMPO 4000 SHRA=
201906250250 METAR COR EGLL 250250Z AUTO 11003KT 6000 NCD 18/18 Q1017
                        TEMPO SHRA=
201906250220 METAR COR EGLL 250220Z AUTO 18003KT 8000 SCT046 18/18 Q1017
                        TEMPO SHRA=
201906250150 METAR COR EGLL 250150Z AUTO VRB01KT 8000 -RA NCD 19/18 Q1017
                        TEMPO SHRA=
201906250120 METAR COR EGLL 250120Z AUTO VRB02KT 9000 -RA NCD 19/18 Q1017
                        TEMPO SHRA=
201906250050 METAR COR EGLL 250050Z AUTO VRB02KT 9999 -RA NCD 19/17 Q1017
                        TEMPO SHRA=
201906250020 METAR COR EGLL 250020Z AUTO 32003KT 9999 -RA NCD 18/17 Q1017
                        NOSIG=
201906242350 METAR COR EGLL 242350Z AUTO 17004KT 9999 -RA NCD 18/17 Q1019
                        TEMPO SHRA=
201906242320 METAR COR EGLL 242320Z AUTO 20003KT 9999 -RA NCD 19/17 Q1018
                        TEMPO SHRA=
201906242250 METAR COR EGLL 242250Z AUTO 20003KT 9999 -RA NCD 19/17 Q1018
                        TEMPO SHRA=
201906242220 METAR COR EGLL 242220Z AUTO 18005KT 140V270 9999 NCD 19/17
                        Q1018 TEMPO SHRA=
201906242150 METAR COR EGLL 242150Z AUTO 20005KT 160V260 9999 -RA NCD
                        19/17 Q1018 TEMPO SHRA=
201906242120 METAR COR EGLL 242120Z AUTO 24004KT 210V270 9999 -RA NCD
                        20/17 Q1018 TEMPO SHRA=
201906242050 METAR COR EGLL 242050Z AUTO 21007KT 170V250 9999 -RA NCD
                        20/16 Q1018 NOSIG=
201906242020 METAR COR EGLL 242020Z AUTO 21007KT 150V250 9999 -RA NCD
                        21/16 Q1018 NOSIG=
201906241950 METAR COR EGLL 241950Z AUTO 19009KT 150V240 9999 NCD 21/16
                        Q1018 NOSIG=
201906241920 METAR COR EGLL 241920Z AUTO 21008KT 170V250 9999 NCD 22/17
                        Q1018 NOSIG=
201906241850 METAR COR EGLL 241850Z AUTO 20008KT 170V240 9999 -RA NCD
                        23/17 Q1017 NOSIG=
201906241820 METAR COR EGLL 241820Z AUTO 18007KT 140V250 9999 -RA FEW030
                        23/15 Q1017 NOSIG=
201906241750 METAR COR EGLL 241750Z AUTO 18006KT 120V240 9999 NCD 23/14
                        Q1017 NOSIG=
201906241720 METAR COR EGLL 241720Z AUTO 18005KT 150V230 9999 NCD 23/16
                        Q1016 NOSIG=
201906241650 METAR COR EGLL 241650Z AUTO 15005KT 100V230 9999 NCD 24/17
                        Q1016 NOSIG=
201906241620 METAR COR EGLL 241620Z AUTO VRB04KT 9999 NCD 24/17 Q1016
                        NOSIG=
201906241550 METAR COR EGLL 241550Z AUTO 20006KT 150V260 9999 NCD 24/17
                        Q1016 NOSIG=
201906241520 METAR COR EGLL 241520Z AUTO 25006KT 210V320 9999 NCD 24/17
                        Q1016 NOSIG=
201906241450 METAR COR EGLL 241450Z AUTO 28005KT 250V320 9999 NCD 24/18
                        Q1016 NOSIG=
201906241420 METAR COR EGLL 241420Z AUTO 24009KT 210V270 9999 NCD 23/18
                        Q1016 NOSIG=
201906241350 METAR COR EGLL 241350Z AUTO 20010KT 180V250 9999 NCD 23/18
                        Q1017 NOSIG=
201906241320 METAR COR EGLL 241320Z AUTO 21007KT 170V240 9999 NCD 23/18
                        Q1016 NOSIG=
201906241250 METAR COR EGLL 241250Z AUTO 20007KT 160V250 9999 -RA FEW046
                        24/18 Q1017 NOSIG=
201906241220 METAR COR EGLL 241220Z AUTO 19007KT 160V230 9999 -RA FEW041
                        23/18 Q1016 NOSIG=
201906241150 METAR COR EGLL 241150Z AUTO 20008KT 160V240 9999 NCD 23/18
                        Q1016 NOSIG=
201906241120 METAR COR EGLL 241120Z AUTO 23005KT 160V270 9999 NCD 23/18
                        Q1016 TEMPO SHRA=
201906241050 METAR COR EGLL 241050Z AUTO 24006KT 9999 NCD 23/18 Q1016
                        TEMPO SHRA=
201906241020 METAR COR EGLL 241020Z AUTO 25004KT 220V290 9999 NCD 23/18
                        Q1015 NOSIG=
201906240950 METAR COR EGLL 240950Z AUTO 25006KT 220V280 9999 NCD 23/18
                        Q1015 NOSIG=
201906240920 METAR COR EGLL 240920Z AUTO 21006KT 160V250 9999 -RA NCD
                        23/18 Q1015 NOSIG=
201906240850 METAR COR EGLL 240850Z AUTO 18005KT 140V230 9999 NCD 22/18
                        Q1015 NOSIG=
201906240820 METAR COR EGLL 240820Z AUTO 15004KT 130V190 9999 NCD 23/18
                        Q1014 NOSIG=
201906240750 METAR COR EGLL 240750Z AUTO 17006KT 9999 NCD 22/18 Q1014
                        NOSIG=
201906240720 METAR COR EGLL 240720Z AUTO 19005KT 9999 NCD 22/18 Q1014
                        NOSIG=
201906240650 METAR COR EGLL 240650Z AUTO VRB02KT 9999 NCD 22/18 Q1014
                        NOSIG=
201906240620 METAR COR EGLL 240620Z AUTO VRB03KT 8000 NCD 21/17 Q1014
                        NOSIG=
201906240550 METAR COR EGLL 240550Z AUTO 06004KT 6000 NCD 20/17 Q1013
                        NOSIG=
201906240520 METAR COR EGLL 240520Z AUTO VRB03KT 5000 HZ NCD 18/17 Q1013
                        NOSIG=
201906240450 METAR COR EGLL 240450Z AUTO 05004KT 5000 HZ NCD 18/16 Q1013
                        NOSIG=
201906240420 METAR COR EGLL 240420Z AUTO VRB02KT 5000 HZ NCD 17/16 Q1013
                        NOSIG=
201906240350 METAR EGLL 240350Z AUTO 07004KT 5000 HZ NCD 17/16 Q1013=
201906240320 METAR COR EGLL 240320Z AUTO 06004KT 6000 NCD 17/16 Q1013
                        NOSIG=
201906240250 METAR COR EGLL 240250Z AUTO VRB02KT 7000 NCD 17/16 Q1013
                        NOSIG=
201906240220 METAR COR EGLL 240220Z AUTO 07004KT 7000 NCD 17/15 Q1013
                        NOSIG=
201906240150 METAR COR EGLL 240150Z AUTO 00000KT 8000 NCD 18/16 Q1014
                        NOSIG=
201906240120 METAR COR EGLL 240120Z AUTO VRB02KT 7000 NCD 18/16 Q1014
                        NOSIG=
201906240050 METAR COR EGLL 240050Z AUTO 07002KT 7000 NCD 18/16 Q1014
                        NOSIG=
201906240020 METAR COR EGLL 240020Z AUTO 07003KT 8000 NCD 18/15 Q1014
                        NOSIG=
201906232350 METAR COR EGLL 232350Z AUTO 07003KT 9000 NCD 19/15 Q1014
                        NOSIG=
201906232320 METAR COR EGLL 232320Z AUTO 09003KT 9999 NCD 19/15 Q1015
                        NOSIG=
201906232250 METAR COR EGLL 232250Z AUTO 08003KT 9999 NCD 19/15 Q1014
                        NOSIG=
201906232220 METAR COR EGLL 232220Z AUTO 08005KT 9999 NCD 20/15 Q1014
                        NOSIG=
201906232150 METAR COR EGLL 232150Z AUTO 08005KT 9999 NCD 19/15 Q1015
                        NOSIG=
201906232120 METAR COR EGLL 232120Z AUTO 08006KT 9999 NCD 20/15 Q1015
                        NOSIG=
201906232050 METAR COR EGLL 232050Z AUTO 08009KT 9999 NCD 20/15 Q1015
                        NOSIG=
201906232020 METAR COR EGLL 232020Z AUTO 09010KT 9999 NCD 20/15 Q1015
                        NOSIG=
201906231950 METAR COR EGLL 231950Z AUTO 08009KT 9999 NCD 21/15 Q1014
                        NOSIG=
201906231920 METAR COR EGLL 231920Z AUTO 08007KT 9999 NCD 21/15 Q1014
                        NOSIG=
201906231850 METAR COR EGLL 231850Z AUTO 08004KT 9999 NCD 21/14 Q1015
                        NOSIG=
201906231820 METAR COR EGLL 231820Z AUTO 09008KT 9999 NCD 21/14 Q1015
                        NOSIG=
201906231750 METAR COR EGLL 231750Z AUTO 09011KT 9999 NCD 21/14 Q1015
                        NOSIG=
201906231720 METAR COR EGLL 231720Z AUTO 09011KT 9999 FEW049 21/14 Q1015
                        NOSIG=
201906231650 METAR COR EGLL 231650Z AUTO 10012KT 9999 NCD 21/14 Q1015
                        NOSIG=
201906231620 METAR COR EGLL 231620Z AUTO 09011KT 9999 NCD 22/14 Q1015
                        NOSIG=
201906231550 METAR COR EGLL 231550Z AUTO 09013KT 9999 NCD 22/14 Q1015
                        NOSIG=
201906231520 METAR COR EGLL 231520Z AUTO 09013KT 9999 NCD 22/14 Q1015
                        NOSIG=
201906231450 METAR COR EGLL 231450Z AUTO 09011KT 9999 NCD 23/14 Q1016
                        NOSIG=
201906231420 METAR COR EGLL 231420Z AUTO 10013KT 9999 NCD 23/14 Q1016
                        NOSIG=
201906231350 METAR COR EGLL 231350Z AUTO 09012KT 9999 NCD 24/14 Q1015
                        NOSIG=
201906231320 METAR COR EGLL 231320Z AUTO 09012KT 9999 NCD 23/14 Q1016
                        NOSIG=
201906231250 METAR COR EGLL 231250Z AUTO 09012KT 9999 NCD 24/14 Q1016
                        NOSIG=
201906231220 METAR COR EGLL 231220Z AUTO 08010KT 9999 NCD 23/15 Q1016
                        NOSIG=
201906231150 METAR COR EGLL 231150Z AUTO 07007KT 9999 NCD 23/14 Q1017
                        NOSIG=
201906231120 METAR COR EGLL 231120Z AUTO 08009KT 050V110 9999 NCD 23/15
                        Q1017 NOSIG=
201906231050 METAR COR EGLL 231050Z AUTO 08006KT 040V120 9999 NCD 22/15
                        Q1017 NOSIG=
201906231020 METAR COR EGLL 231020Z AUTO 06007KT 030V110 9999 NCD 22/15
                        Q1017 NOSIG=
201906230950 METAR COR EGLL 230950Z AUTO 08007KT 040V120 9999 NCD 21/14
                        Q1018 NOSIG=
201906230920 METAR COR EGLL 230920Z AUTO 08006KT 020V120 9999 NCD 21/15
                        Q1018 NOSIG=
201906230850 METAR COR EGLL 230850Z AUTO 09007KT 9999 NCD 20/15 Q1018
                        NOSIG=
201906230820 METAR COR EGLL 230820Z AUTO 07005KT 030V110 9999 NCD 19/15
                        Q1018 NOSIG=
201906230750 METAR COR EGLL 230750Z AUTO 09007KT 9999 NCD 18/15 Q1018
                        NOSIG=
201906230720 METAR COR EGLL 230720Z AUTO 08008KT 9999 NCD 17/14 Q1018
                        NOSIG=
201906230650 METAR COR EGLL 230650Z AUTO 07004KT 030V110 9999 NCD 17/14
                        Q1018 NOSIG=
201906230620 METAR COR EGLL 230620Z AUTO 06006KT 9999 NCD 15/14 Q1018
                        NOSIG=
201906230550 METAR COR EGLL 230550Z AUTO 06005KT 9999 NCD 15/13 Q1018
                        NOSIG=
201906230520 METAR COR EGLL 230520Z AUTO 06004KT 9999 NCD 14/12 Q1018
                        NOSIG=
201906230450 METAR COR EGLL 230450Z AUTO VRB03KT 9999 NCD 13/12 Q1018
                        NOSIG=
201906230420 METAR COR EGLL 230420Z AUTO 04003KT 9999 NCD 13/12 Q1018
                        NOSIG=
201906230350 METAR COR EGLL 230350Z AUTO 04004KT 9999 NCD 13/12 Q1018
                        NOSIG=
201906230320 METAR COR EGLL 230320Z AUTO 04003KT 9999 NCD 13/11 Q1019
                        NOSIG=
201906230250 METAR COR EGLL 230250Z AUTO 04003KT 9999 NCD 13/11 Q1019
                        NOSIG=
201906230220 METAR COR EGLL 230220Z AUTO 05003KT 9999 NCD 13/11 Q1019
                        NOSIG=
201906230150 METAR COR EGLL 230150Z AUTO 06004KT 9999 NCD 13/10 Q1019
                        NOSIG=
201906230120 METAR COR EGLL 230120Z AUTO 04004KT 9999 NCD 13/10 Q1019
                        NOSIG=
201906230050 METAR COR EGLL 230050Z AUTO 04003KT 9999 NCD 13/10 Q1019
                        NOSIG=
201906230020 METAR COR EGLL 230020Z AUTO 06003KT 9999 NCD 13/10 Q1020
                        NOSIG=
201906222350 METAR COR EGLL 222350Z AUTO 07003KT 9999 NCD 13/09 Q1020
                        NOSIG=
201906222320 METAR COR EGLL 222320Z AUTO 08004KT 9999 NCD 14/09 Q1020
                        NOSIG=
201906222250 METAR COR EGLL 222250Z AUTO 08005KT 9999 NCD 14/09 Q1020
                        NOSIG=
201906222220 METAR COR EGLL 222220Z AUTO 09009KT 9999 NCD 15/08 Q1020
                        NOSIG=
201906222150 METAR COR EGLL 222150Z AUTO 09007KT 9999 NCD 15/07 Q1020
                        NOSIG=
201906222120 METAR COR EGLL 222120Z AUTO 10009KT 9999 NCD 14/07 Q1020
                        NOSIG=
201906222050 METAR COR EGLL 222050Z AUTO 09008KT 9999 NCD 15/06 Q1020
                        NOSIG=
201906222020 METAR COR EGLL 222020Z AUTO 10009KT 9999 NCD 16/06 Q1020
                        NOSIG=
201906221950 METAR COR EGLL 221950Z AUTO 10009KT 9999 NCD 17/05 Q1020
                        NOSIG=
201906221920 METAR COR EGLL 221920Z AUTO 09011KT 9999 NCD 18/05 Q1020
                        NOSIG=
201906221850 METAR COR EGLL 221850Z AUTO 09011KT 9999 NCD 19/06 Q1019
                        NOSIG=
201906221820 METAR COR EGLL 221820Z AUTO 10013KT 9999 NCD 20/06 Q1019
                        NOSIG=
201906221750 METAR COR EGLL 221750Z AUTO 08011KT 9999 NCD 21/07 Q1019
                        NOSIG=
201906221720 METAR COR EGLL 221720Z AUTO 09012KT 060V120 9999 NCD 21/08
                        Q1019 NOSIG=
201906221650 METAR COR EGLL 221650Z AUTO 10010KT 060V130 9999 NCD 21/09
                        Q1019 NOSIG=
201906221620 METAR COR EGLL 221620Z AUTO 11012KT 9999 NCD 21/09 Q1019
                        NOSIG=
201906221550 METAR COR EGLL 221550Z AUTO 11010KT 9999 NCD 21/09 Q1020
                        NOSIG=
201906221520 METAR COR EGLL 221520Z AUTO 15008KT 9999 NCD 21/08 Q1020
                        NOSIG=
201906221450 METAR COR EGLL 221450Z AUTO 12006KT 9999 NCD 22/09 Q1020
                        NOSIG=
201906221420 METAR COR EGLL 221420Z AUTO 15008KT 090V200 9999 NCD 21/09
                        Q1020 NOSIG=
201906221350 METAR COR EGLL 221350Z AUTO 16008KT 130V200 9999 NCD 23/09
                        Q1020 NOSIG=
201906221320 METAR COR EGLL 221320Z AUTO 15005KT 070V250 9999 NCD 23/09
                        Q1020 NOSIG=
201906221250 METAR COR EGLL 221250Z AUTO VRB07KT 9999 NCD 23/09 Q1021
                        NOSIG=
201906221220 METAR COR EGLL 221220Z AUTO 15006KT 040V210 9999 NCD 22/09
                        Q1021 NOSIG=
201906221150 METAR COR EGLL 221150Z AUTO 17006KT 120V250 9999 NCD 22/09
                        Q1021 NOSIG=
201906221120 METAR COR EGLL 221120Z AUTO 14007KT 110V170 9999 NCD 21/08
                        Q1021 NOSIG=
201906221050 METAR COR EGLL 221050Z AUTO 16008KT 130V200 9999 NCD 21/08
                        Q1021 NOSIG=
201906221020 METAR COR EGLL 221020Z AUTO 17007KT 120V200 9999 NCD 20/08
                        Q1022 NOSIG=
201906220950 METAR COR EGLL 220950Z AUTO 14007KT 9999 NCD 20/09 Q1022
                        NOSIG=
201906220920 METAR COR EGLL 220920Z AUTO 18006KT 130V230 9999 NCD 19/10
                        Q1022 NOSIG=
201906220850 METAR COR EGLL 220850Z AUTO 18006KT 140V220 9999 NCD 18/10
                        Q1022 NOSIG=
201906220820 METAR COR EGLL 220820Z AUTO 19007KT 140V230 9999 NCD 18/09
                        Q1022 NOSIG=
201906220750 METAR COR EGLL 220750Z AUTO 19006KT 150V230 9999 NCD 17/10
                        Q1022 NOSIG=
201906220720 METAR COR EGLL 220720Z AUTO 18006KT 9999 NCD 16/11 Q1022
                        NOSIG=
201906220650 METAR COR EGLL 220650Z AUTO VRB03KT 9999 NCD 15/11 Q1022
                        NOSIG=
201906220620 METAR COR EGLL 220620Z AUTO 15003KT 9999 NCD 14/11 Q1022
                        NOSIG=
201906220550 METAR COR EGLL 220550Z AUTO 15002KT 9999 NCD 14/11 Q1022
                        NOSIG=
201906220520 METAR COR EGLL 220520Z AUTO VRB02KT 9999 NCD 13/11 Q1022
                        NOSIG=
201906220450 METAR COR EGLL 220450Z AUTO 18003KT 9999 NCD 11/10 Q1022
                        NOSIG=
201906220420 METAR COR EGLL 220420Z AUTO 18002KT 9999 NCD 10/09 Q1021
                        NOSIG=
201906220350 METAR COR EGLL 220350Z AUTO 15003KT 9999 NCD 11/09 Q1022
                        NOSIG=
201906220320 METAR COR EGLL 220320Z AUTO 17005KT 9999 NCD 11/10 Q1021
                        NOSIG=
201906220250 METAR COR EGLL 220250Z AUTO VRB02KT 9999 NCD 12/10 Q1021
                        NOSIG=
201906220220 METAR COR EGLL 220220Z AUTO 17005KT 9999 NCD 12/10 Q1021
                        NOSIG=
201906220150 METAR COR EGLL 220150Z AUTO 20004KT 9999 NCD 12/10 Q1021
                        NOSIG=
201906220120 METAR COR EGLL 220120Z AUTO 15002KT 9999 NCD 12/10 Q1021
                        NOSIG=
201906220050 METAR COR EGLL 220050Z AUTO 20003KT 9999 NCD 13/10 Q1022
                        NOSIG=
201906220020 METAR COR EGLL 220020Z AUTO 22003KT 9999 NCD 14/11 Q1022
                        NOSIG=
201906212350 METAR COR EGLL 212350Z AUTO 21004KT 9999 NCD 14/10 Q1022
                        NOSIG=
201906212320 METAR COR EGLL 212320Z AUTO 20004KT 9999 NCD 14/10 Q1022
                        NOSIG=
201906212250 METAR COR EGLL 212250Z AUTO 21005KT 9999 NCD 15/10 Q1022
                        NOSIG=
201906212220 METAR COR EGLL 212220Z AUTO 20004KT 9999 NCD 15/10 Q1022
                        NOSIG=
201906212150 METAR COR EGLL 212150Z AUTO 22005KT 9999 NCD 17/10 Q1021
                        NOSIG=
201906212120 METAR COR EGLL 212120Z AUTO 24006KT 210V270 9999 NCD 17/11
                        Q1021 NOSIG=
201906212050 METAR COR EGLL 212050Z AUTO 23007KT 9999 NCD 18/11 Q1021
                        NOSIG=
201906212020 METAR COR EGLL 212020Z AUTO 24008KT 9999 NCD 18/10 Q1021
                        NOSIG=
201906211950 METAR COR EGLL 211950Z AUTO 26007KT 9999 NCD 18/10 Q1021
                        NOSIG=
201906211920 METAR COR EGLL 211920Z AUTO VRB03KT 9999 NCD 19/07 Q1021
                        NOSIG=
201906211850 METAR EGLL 211850Z AUTO 30004KT 9999 NCD 20/06 Q1020=
201906211820 METAR COR EGLL 211820Z AUTO 31005KT 9999 NCD 20/07 Q1020
                        NOSIG=
201906211750 METAR COR EGLL 211750Z AUTO 32004KT 290V360 9999 NCD 20/06
                        Q1020 NOSIG=
201906211720 METAR COR EGLL 211720Z AUTO 30004KT 9999 NCD 20/07 Q1020
                        NOSIG=
201906211650 METAR COR EGLL 211650Z AUTO 29006KT 240V350 9999 NCD 20/07
                        Q1020 NOSIG=
201906211620 METAR COR EGLL 211620Z AUTO 27006KT 230V300 9999 NCD 20/07
                        Q1020 NOSIG=
201906211550 METAR COR EGLL 211550Z AUTO 29006KT 220V320 9999 NCD 20/07
                        Q1020 NOSIG=
201906211520 METAR COR EGLL 211520Z AUTO 29006KT 250V320 9999 NCD 20/06
                        Q1020 NOSIG=
201906211450 METAR COR EGLL 211450Z AUTO 25008KT 190V310 9999 NCD 21/06
                        Q1020 NOSIG=
201906211420 METAR COR EGLL 211420Z AUTO 25006KT 200V310 9999 NCD 21/05
                        Q1020 NOSIG=
201906211350 METAR COR EGLL 211350Z AUTO 27008KT 240V320 9999 NCD 20/06
                        Q1020 NOSIG=
201906211320 METAR COR EGLL 211320Z AUTO 27007KT 230V320 9999 NCD 20/06
                        Q1020 NOSIG=
201906211250 METAR COR EGLL 211250Z AUTO 27008KT 200V320 9999 NCD 20/08
                        Q1020 NOSIG=
201906211220 METAR COR EGLL 211220Z AUTO 27008KT 230V310 9999 NCD 19/07
                        Q1020 NOSIG=
201906211150 METAR COR EGLL 211150Z AUTO 30007KT 240V350 9999 BKN049 19/07
                        Q1020 NOSIG=
201906211120 METAR COR EGLL 211120Z AUTO 27007KT 230V350 9999 FEW048 20/08
                        Q1020 NOSIG=
201906211050 METAR COR EGLL 211050Z AUTO 28008KT 250V330 9999 NCD 19/08
                        Q1019 NOSIG=
201906211020 METAR COR EGLL 211020Z AUTO 28007KT 240V310 9999 FEW041 18/08
                        Q1019 NOSIG=
201906210950 METAR COR EGLL 210950Z AUTO 25010KT 9999 FEW036 SCT043 17/08
                        Q1019 NOSIG=
201906210920 METAR COR EGLL 210920Z AUTO 27009KT 9999 FEW033 17/09 Q1019
                        NOSIG=
201906210850 METAR COR EGLL 210850Z AUTO 27009KT 240V310 9999 FEW029 16/10
                        Q1019 NOSIG=
201906210820 METAR COR EGLL 210820Z AUTO 27010KT 9999 NCD 16/10 Q1019
                        NOSIG=
201906210750 METAR COR EGLL 210750Z AUTO 28011KT 9999 FEW023 15/10 Q1019
                        NOSIG=
201906210720 METAR COR EGLL 210720Z AUTO 26011KT 9999 FEW020 15/10 Q1019
                        NOSIG=
201906210650 METAR COR EGLL 210650Z AUTO 27009KT 9999 NCD 14/10 Q1019
                        NOSIG=
201906210620 METAR COR EGLL 210620Z AUTO 26007KT 9999 NCD 13/10 Q1019
                        NOSIG=
201906210550 METAR COR EGLL 210550Z AUTO 27005KT 230V300 9999 NCD 12/10
                        Q1018 NOSIG=
201906210520 METAR COR EGLL 210520Z AUTO 26005KT 9999 NCD 11/09 Q1018
                        NOSIG=
201906210450 METAR COR EGLL 210450Z AUTO 26004KT 9999 NCD 10/09 Q1018
                        NOSIG=
201906210420 METAR COR EGLL 210420Z AUTO 27005KT 9999 NCD 10/09 Q1018
                        NOSIG=
201906210350 METAR COR EGLL 210350Z AUTO 25006KT 9999 NCD 10/09 Q1018
                        NOSIG=
201906210320 METAR COR EGLL 210320Z AUTO 25005KT 9999 NCD 10/08 Q1017
                        NOSIG=
201906210250 METAR COR EGLL 210250Z AUTO 24006KT 9999 NCD 10/09 Q1017
                        NOSIG=
201906210220 METAR COR EGLL 210220Z AUTO 25005KT 9999 NCD 11/08 Q1017
                        NOSIG=
201906210150 METAR COR EGLL 210150Z AUTO 26007KT 9999 NCD 11/09 Q1017
                        NOSIG=
201906210120 METAR COR EGLL 210120Z AUTO 26008KT 9999 NCD 12/09 Q1017
                        NOSIG=
201906210050 METAR COR EGLL 210050Z AUTO 25008KT 9999 NCD 12/09 Q1017
                        NOSIG=
201906210020 METAR COR EGLL 210020Z AUTO 26008KT 9999 NCD 13/09 Q1017
                        NOSIG=
201906202350 METAR COR EGLL 202350Z AUTO 25008KT 9999 NCD 13/10 Q1016
                        NOSIG=
201906202320 METAR COR EGLL 202320Z AUTO 25008KT 9999 NCD 14/10 Q1016
                        NOSIG=
201906202250 METAR COR EGLL 202250Z AUTO 25010KT 9999 NCD 14/10 Q1016
                        NOSIG=
201906202220 METAR COR EGLL 202220Z AUTO 24009KT 9999 NCD 15/10 Q1016
                        NOSIG=
201906202150 METAR COR EGLL 202150Z AUTO 25009KT 9999 NCD 15/10 Q1016
                        NOSIG=
201906202120 METAR COR EGLL 202120Z AUTO 24009KT 9999 NCD 15/10 Q1015
                        NOSIG=
201906202050 METAR COR EGLL 202050Z 23009KT CAVOK 16/10 Q1015 NOSIG=
201906202020 METAR COR EGLL 202020Z AUTO 23009KT 9999 NCD 16/10 Q1015
                        NOSIG=
201906201950 METAR COR EGLL 201950Z AUTO 23009KT 9999 NCD 16/09 Q1015
                        NOSIG=
201906201920 METAR COR EGLL 201920Z AUTO 25010KT 9999 NCD 16/10 Q1015
                        NOSIG=
201906201850 METAR COR EGLL 201850Z AUTO 25014KT 9999 -RA NCD 17/09 Q1014
                        NOSIG=
201906201820 METAR COR EGLL 201820Z AUTO 24013KT 9999 NCD 17/10 Q1014
                        NOSIG=
201906201750 METAR COR EGLL 201750Z AUTO 23013KT 9999 NCD 17/09 Q1014
                        NOSIG=
201906201720 METAR COR EGLL 201720Z AUTO 24015KT 9999 SCT042 18/09 Q1014
                        NOSIG=
201906201650 METAR COR EGLL 201650Z AUTO 23012KT 9999 BKN044 18/09 Q1014
                        NOSIG=
201906201620 METAR COR EGLL 201620Z AUTO 23011KT 200V270 9999 NCD 19/09
                        Q1013 NOSIG=
201906201550 METAR COR EGLL 201550Z AUTO 24012KT 200V270 9999 NCD 20/08
                        Q1013 NOSIG=
201906201520 METAR COR EGLL 201520Z AUTO 26011KT 220V280 9999 FEW049 19/08
                        Q1013 NOSIG=
201906201450 METAR COR EGLL 201450Z AUTO 25010KT 9999 SCT041 BKN048 19/09
                        Q1013 NOSIG=
201906201420 METAR COR EGLL 201420Z AUTO 27008KT 9999 SCT043 18/09 Q1013
                        NOSIG=
201906201350 METAR COR EGLL 201350Z AUTO 26011KT 210V290 9999 NCD 18/08
                        Q1013 NOSIG=
201906201320 METAR COR EGLL 201320Z AUTO 26013KT 9999 NCD 17/07 Q1013
                        NOSIG=
201906201250 METAR COR EGLL 201250Z AUTO 25015KT 9999 FEW045 18/09 Q1013
                        NOSIG=
201906201220 METAR COR EGLL 201220Z AUTO 27013KT 9999 NCD 18/09 Q1013
                        NOSIG=
201906201150 METAR COR EGLL 201150Z AUTO 26013KT 9999 FEW039 19/09 Q1013
                        NOSIG=
201906201120 METAR COR EGLL 201120Z AUTO 26013KT 230V300 9999 FEW038 18/10
                        Q1013 NOSIG=
201906201050 METAR COR EGLL 201050Z AUTO 25015KT 9999 FEW036 18/10 Q1013
                        NOSIG=
201906201020 METAR COR EGLL 201020Z AUTO 26014KT 9999 NCD 17/10 Q1013
                        NOSIG=
201906200950 METAR COR EGLL 200950Z AUTO 26011KT 9999 NCD 18/11 Q1012
                        NOSIG=
201906200920 METAR COR EGLL 200920Z AUTO 26013KT 9999 FEW028 17/11 Q1012
                        NOSIG=
201906200850 METAR COR EGLL 200850Z AUTO 26011KT 230V300 9999 FEW022 SCT030
                        17/11 Q1012 NOSIG=
201906200820 METAR COR EGLL 200820Z AUTO 27010KT 9999 SCT020 16/12 Q1012
                        NOSIG=
201906200750 METAR COR EGLL 200750Z AUTO 27009KT 9999 NCD 15/11 Q1012
                        NOSIG=
201906200720 METAR COR EGLL 200720Z AUTO 27010KT 9999 FEW017 15/11 Q1012
                        NOSIG=
201906200650 METAR COR EGLL 200650Z AUTO 27011KT 9999 FEW014 14/11 Q1012
                        NOSIG=
201906200620 METAR COR EGLL 200620Z AUTO 27012KT 9999 NCD 14/11 Q1011
                        NOSIG=
201906200550 METAR COR EGLL 200550Z AUTO 27011KT 9999 NCD 13/11 Q1011
                        NOSIG=
201906200520 METAR COR EGLL 200520Z AUTO 27009KT 9999 NCD 13/11 Q1011
                        NOSIG=
201906200450 METAR COR EGLL 200450Z AUTO 27007KT 9999 FEW049 13/10 Q1011
                        NOSIG=
201906200420 METAR COR EGLL 200420Z AUTO 27006KT 9999 BKN043 13/11 Q1011
                        NOSIG=
201906200350 METAR COR EGLL 200350Z AUTO 27008KT 9999 BKN043 13/12 Q1010
                        NOSIG=
201906200320 METAR COR EGLL 200320Z AUTO 28007KT 9999 BKN040 13/12 Q1010
                        NOSIG=
201906200250 METAR COR EGLL 200250Z AUTO 27007KT 9999 NCD 14/12 Q1010
                        NOSIG=
201906200220 METAR COR EGLL 200220Z AUTO 27008KT 9999 NCD 14/13 Q1010
                        NOSIG=
201906200150 METAR COR EGLL 200150Z AUTO 27007KT 9999 NCD 15/13 Q1010
                        NOSIG=
201906200120 METAR COR EGLL 200120Z AUTO 26006KT 9999 NCD 15/14 Q1010
                        NOSIG=
201906200050 METAR COR EGLL 200050Z AUTO 26007KT 9999 FEW049 15/14 Q1010
                        NOSIG=
201906200020 METAR COR EGLL 200020Z AUTO 25006KT 9999 BKN041 15/15 Q1010
                        NOSIG=
201906192350 METAR COR EGLL 192350Z AUTO 25005KT 9999 -RA BKN038 16/15
                        Q1010 NOSIG=
201906192320 METAR COR EGLL 192320Z AUTO 25005KT 9999 -RA BKN037 16/15
                        Q1010 NOSIG=
201906192250 METAR COR EGLL 192250Z AUTO 25005KT 9999 -RA FEW044 16/15
                        Q1009 NOSIG=
201906192220 METAR COR EGLL 192220Z AUTO 24007KT 9999 -RA FEW030 BKN044
                        16/15 Q1009 NOSIG=
201906192150 METAR COR EGLL 192150Z AUTO 25008KT 9999 BKN048 17/15 Q1009
                        NOSIG=
201906192120 METAR COR EGLL 192120Z AUTO 25007KT 9999 OVC047 17/14 Q1009
                        NOSIG=
201906192050 METAR COR EGLL 192050Z AUTO 27006KT 9999 BKN038 BKN048 17/14
                        Q1009 NOSIG=
201906192020 METAR COR EGLL 192020Z AUTO 27007KT 9999 BKN039 17/15 Q1009
                        NOSIG=
201906191950 METAR COR EGLL 191950Z AUTO 26008KT 9999 FEW030/// BKN043///
                        //////TCU 17/15 Q1008 NOSIG=
201906191920 METAR COR EGLL 191920Z AUTO 28006KT 9999 //////CB 18/15 Q1008
                        TEMPO SHRA=
201906191850 METAR COR EGLL 191850Z AUTO 27006KT 9999 BKN042/// //////CB
                        18/15 Q1008 NOSIG=
201906191820 METAR COR EGLL 191820Z AUTO 27008KT 9999 SCT032 BKN041 18/15
                        Q1008 NOSIG=
201906191750 METAR COR EGLL 191750Z AUTO 26007KT 220V290 9999 NCD 19/15
                        Q1008 TEMPO SHRA=
201906191720 METAR COR EGLL 191720Z AUTO 26006KT 230V290 9999 NCD 18/16
                        Q1008 TEMPO SHRA=
201906191650 METAR COR EGLL 191650Z AUTO 27006KT 9999 //////CB 18/16 Q1008
                        TEMPO SHRA=
201906191620 METAR COR EGLL 191620Z AUTO 26007KT 8000 -RA FEW014/// BKN048///
                        //////CB 17/16 Q1008 TEMPO SHRA=
201906191550 METAR COR EGLL 191550Z AUTO 23007KT 9999 FEW031/// SCT044///
                        //////CB 17/16 Q1008 RESHRA NOSIG=
201906191520 METAR COR EGLL 191520Z 23008KT 5000 SHRA SCT023CB BKN034
                        BKN046 17/16 Q1008 RESHRA TEMPO 3000
                        +SHRA=
201906191450 METAR COR EGLL 191450Z AUTO 22006KT 9999 -RA SCT026/// BKN040///
                        //////CB 17/16 Q1008 RESHRA TEMPO
                        4000 +SHRA BKN014=
201906191420 METAR COR EGLL 191420Z 25007KT 5000 SHRA SCT016CB SCT022
                        BKN030 17/16 Q1008 RESHRA RERA TEMPO
                        4000 +SHRA BKN014=
201906191350 METAR COR EGLL 191350Z AUTO 24007KT 9999 -RA SCT022/// BKN030///
                        OVC043/// //////CB 18/15 Q1008 TEMPO
                        4000 +SHRA=
201906191320 METAR COR EGLL 191320Z AUTO 25007KT 9999 -RA SCT024/// BKN034///
                        //////CB 19/15 Q1008 TEMPO SHRA=
201906191250 METAR COR EGLL 191250Z AUTO VRB02KT 9999 -RA FEW039 19/15
                        Q1008 NOSIG=
201906191220 METAR COR EGLL 191220Z AUTO 28004KT 250V030 9999 FEW032 19/14
                        Q1008 NOSIG=
201906191150 METAR COR EGLL 191150Z AUTO 31004KT 280V350 9999 SCT021 18/14
                        Q1008 NOSIG=
201906191120 METAR COR EGLL 191120Z AUTO 31004KT 260V360 9999 BKN019 BKN027
                        18/14 Q1008 TEMPO -SHRA BKN014=
201906191050 METAR COR EGLL 191050Z AUTO 30005KT 260V340 9999 BKN016 19/14
                        Q1008 TEMPO -SHRA BKN014=
201906191020 METAR COR EGLL 191020Z AUTO 33005KT 270V030 9999 BKN015 18/14
                        Q1008 TEMPO BKN012=
201906190950 METAR COR EGLL 190950Z AUTO 34004KT 270V040 9999 BKN014 17/14
                        Q1008 TEMPO SCT014=
201906190920 METAR EGLL 190920Z AUTO 01004KT 320V040 9999 SCT014 17/14
                        Q1008=
201906190850 METAR COR EGLL 190850Z AUTO 31004KT 270V030 9999 BKN012 16/13
                        Q1007 TEMPO SCT012=
201906190820 METAR COR EGLL 190820Z AUTO VRB03KT 9999 SCT012 16/14 Q1007
                        TEMPO BKN012=
201906190750 METAR COR EGLL 190750Z AUTO VRB03KT 9999 SCT011 16/14 Q1007
                        TEMPO -RA BKN011=
201906190720 METAR COR EGLL 190720Z AUTO VRB03KT 9000 FEW009 16/14 Q1007
                        TEMPO -RA BKN009=
201906190650 METAR COR EGLL 190650Z AUTO VRB02KT 9000 SCT009 15/14 Q1007
                        TEMPO -RA BKN009=
201906190620 METAR COR EGLL 190620Z AUTO VRB02KT 9999 NCD 15/14 Q1007
                        NOSIG=
201906190550 METAR COR EGLL 190550Z AUTO VRB03KT 8000 NCD 15/13 Q1007
                        NOSIG=
201906190520 METAR COR EGLL 190520Z AUTO VRB03KT 7000 NCD 15/14 Q1007
                        NOSIG=
201906190450 METAR COR EGLL 190450Z AUTO VRB03KT 6000 NCD 15/14 Q1007
                        NOSIG=
201906190420 METAR COR EGLL 190420Z AUTO VRB03KT 7000 NCD 14/13 Q1007
                        NOSIG=
201906190350 METAR COR EGLL 190350Z AUTO VRB03KT 9000 NCD 14/13 Q1007
                        NOSIG=
201906190320 METAR COR EGLL 190320Z AUTO VRB03KT 8000 NCD 14/13 Q1007
                        NOSIG=
201906190250 METAR COR EGLL 190250Z AUTO VRB03KT 6000 NCD 15/13 Q1008
                        NOSIG=
201906190220 METAR COR EGLL 190220Z AUTO 01003KT 6000 NCD 14/14 Q1008
                        NOSIG=
201906190150 METAR COR EGLL 190150Z AUTO 05004KT 6000 NCD 15/14 Q1008
                        NOSIG=
201906190120 METAR COR EGLL 190120Z AUTO VRB02KT 5000 BR NCD 15/15 Q1008
                        NOSIG=
201906190050 METAR COR EGLL 190050Z AUTO 05004KT 6000 NCD 15/15 Q1008
                        NOSIG=
201906190020 METAR COR EGLL 190020Z AUTO 35003KT 6000 NCD 16/15 Q1009
                        NOSIG=
201906182350 METAR COR EGLL 182350Z AUTO 04003KT 7000 SCT009 16/15 Q1010
                        NOSIG=
201906182320 METAR COR EGLL 182320Z AUTO VRB02KT 7000 NCD 16/15 Q1010
                        NOSIG=
201906182250 METAR COR EGLL 182250Z AUTO 01004KT 300V070 7000 -RA NCD
                        16/15 Q1009 TEMPO SHRA=
201906182220 METAR COR EGLL 182220Z AUTO 06005KT 9000 //////CB 16/15 Q1010
                        TEMPO SHRA=
201906182150 METAR COR EGLL 182150Z AUTO 05003KT 9000 //////TCU 16/15
                        Q1010 TEMPO SHRA=
201906182120 METAR COR EGLL 182120Z AUTO 06004KT 9000 //////TCU 16/15
                        Q1011 TEMPO SHRA=
201906182050 METAR COR EGLL 182050Z AUTO 06004KT 020V080 9000 //////TCU
                        16/15 Q1011 TEMPO SHRA=
201906182020 METAR COR EGLL 182020Z AUTO VRB03KT 9000 FEW016 16/15 Q1011
                        TEMPO SHRA=
201906181950 METAR COR EGLL 181950Z AUTO VRB03KT 9000 NCD 16/16 Q1011
                        TEMPO SHRA=
201906181920 METAR COR EGLL 181920Z AUTO 04004KT 360V080 9000 FEW020 17/16
                        Q1011 TEMPO SHRA=
201906181850 METAR COR EGLL 181850Z 01004KT 330V040 8000 BKN010CB 17/16
                        Q1011 TEMPO SHRA=
201906181820 METAR COR EGLL 181820Z AUTO VRB03KT 9000 -RA SCT012/// SCT039///
                        //////CB 17/16 Q1011 TEMPO BKN012=
201906181750 METAR COR EGLL 181750Z AUTO 07004KT 9999 NCD 17/16 Q1011
                        NOSIG=
201906181720 METAR COR EGLL 181720Z AUTO 04005KT 9999 NCD 17/16 Q1012
                        NOSIG=
201906181650 METAR COR EGLL 181650Z AUTO 36004KT 320V020 9999 //////TCU
                        17/15 Q1012 NOSIG=
201906181620 METAR COR EGLL 181620Z AUTO VRB03KT 7000 -RA SCT012/// SCT031///
                        BKN046/// //////CB 17/15 Q1013 NOSIG=
201906181550 METAR COR EGLL 181550Z AUTO VRB02KT 7000 -RA SCT015/// SCT028///
                        BKN038/// //////CB 17/15 Q1013 TEMPO
                        SHRA=
201906181520 METAR COR EGLL 181520Z AUTO 11002KT 9999 -RA //////CB 17/15
                        Q1013 TEMPO SHRA=
201906181450 METAR COR EGLL 181450Z AUTO VRB02KT 9999 -RA FEW037 SCT045
                        17/14 Q1013 TEMPO SHRA=
201906181420 METAR COR EGLL 181420Z AUTO VRB03KT 9999 -RA SCT033 BKN046
                        17/14 Q1013 TEMPO +SHRA=
201906181350 METAR COR EGLL 181350Z AUTO 07004KT 350V100 9999 NCD 18/14
                        Q1013 TEMPO SHRA=
201906181320 METAR COR EGLL 181320Z AUTO 11005KT 070V130 9999 -RA FEW025///
                        SCT034/// //////TCU 17/14 Q1014 NOSIG=
201906181250 METAR COR EGLL 181250Z AUTO VRB03KT 9999 -RA FEW049/// //////TCU
                        18/13 Q1014 TEMPO SHRA=
201906181220 METAR COR EGLL 181220Z AUTO 13004KT 060V210 9999 -RA FEW036
                        17/13 Q1014 TEMPO RA=
201906181150 METAR COR EGLL 181150Z AUTO 17006KT 140V220 9999 -RA FEW035///
                        //////TCU 17/12 Q1014 TEMPO RA=
201906181120 METAR COR EGLL 181120Z AUTO VRB03KT 9999 -RA FEW028 18/12
                        Q1014 TEMPO RA=
201906181050 METAR COR EGLL 181050Z AUTO 23006KT 150V270 9999 -RA NCD
                        18/11 Q1015 TEMPO RA=
201906181020 METAR COR EGLL 181020Z AUTO 22006G16KT 130V280 9999 NCD 19/11
                        Q1015 TEMPO RA=
201906180950 METAR COR EGLL 180950Z AUTO 22007KT 160V270 9999 NCD 18/10
                        Q1015 TEMPO SHRA=
201906180920 METAR COR EGLL 180920Z AUTO 22005KT 140V290 9999 NCD 18/10
                        Q1015 TEMPO SHRA=
201906180850 METAR COR EGLL 180850Z AUTO VRB03KT 9999 NCD 18/10 Q1015
                        TEMPO SHRA=
201906180820 METAR COR EGLL 180820Z AUTO VRB04KT 9999 NCD 17/10 Q1015
                        NOSIG=
201906180750 METAR COR EGLL 180750Z AUTO VRB03KT 9999 NCD 16/11 Q1015
                        NOSIG=
201906180720 METAR COR EGLL 180720Z AUTO VRB02KT 9999 NCD 16/11 Q1016
                        NOSIG=
201906180650 METAR COR EGLL 180650Z AUTO VRB03KT 9999 NCD 15/11 Q1016
                        NOSIG=
201906180620 METAR COR EGLL 180620Z AUTO VRB03KT 9999 NCD 14/11 Q1016
                        NOSIG=
201906180550 METAR COR EGLL 180550Z AUTO VRB03KT 9999 NCD 13/11 Q1016
                        NOSIG=
201906180520 METAR COR EGLL 180520Z AUTO 22004KT 180V260 9999 NCD 13/10
                        Q1016 NOSIG=
201906180450 METAR COR EGLL 180450Z AUTO 18002KT 9999 NCD 12/10 Q1016
                        NOSIG=
201906180420 METAR COR EGLL 180420Z AUTO VRB03KT 9999 NCD 12/10 Q1015
                        NOSIG=
201906180350 METAR COR EGLL 180350Z AUTO 18005KT 9999 NCD 12/10 Q1015
                        NOSIG=
201906180320 METAR COR EGLL 180320Z AUTO 26003KT 9999 NCD 12/10 Q1015
                        NOSIG=
201906180250 METAR COR EGLL 180250Z AUTO 27004KT 9999 NCD 12/10 Q1015
                        NOSIG=
201906180220 METAR COR EGLL 180220Z AUTO 26003KT 9999 NCD 13/10 Q1016
                        NOSIG=
201906180150 METAR COR EGLL 180150Z AUTO 22003KT 9999 NCD 13/10 Q1016
                        NOSIG=
201906180120 METAR COR EGLL 180120Z AUTO 20004KT 9999 NCD 12/10 Q1016
                        NOSIG=
201906180050 METAR COR EGLL 180050Z AUTO 20004KT 9999 NCD 13/10 Q1016
                        NOSIG=
201906180020 METAR COR EGLL 180020Z AUTO VRB03KT 9999 NCD 13/10 Q1016
                        NOSIG=
201906172350 METAR COR EGLL 172350Z AUTO 21005KT 9999 NCD 13/10 Q1017
                        NOSIG=
201906172320 METAR COR EGLL 172320Z AUTO 23007KT 9999 NCD 14/10 Q1017
                        NOSIG=
201906172250 METAR COR EGLL 172250Z AUTO 23006KT 9999 NCD 14/10 Q1017
                        NOSIG=
201906172220 METAR COR EGLL 172220Z AUTO 22007KT 9999 NCD 15/10 Q1017
                        NOSIG=
201906172150 METAR COR EGLL 172150Z AUTO 24008KT 9999 NCD 16/10 Q1017
                        NOSIG=
201906172120 METAR COR EGLL 172120Z AUTO 23008KT 9999 NCD 16/10 Q1017
                        NOSIG=
201906172050 METAR COR EGLL 172050Z AUTO 23009KT 9999 NCD 17/09 Q1017
                        NOSIG=
201906172020 METAR COR EGLL 172020Z AUTO 23009KT 9999 NCD 17/09 Q1016
                        NOSIG=
201906171950 METAR COR EGLL 171950Z AUTO 23009KT 9999 NCD 17/09 Q1016
                        NOSIG=
201906171920 METAR COR EGLL 171920Z AUTO 24012KT 9999 NCD 18/09 Q1016
                        NOSIG=
201906171850 METAR COR EGLL 171850Z AUTO 23012KT 9999 FEW044 19/09 Q1016
                        NOSIG=
201906171820 METAR EGLL 171820Z AUTO 23010KT 9999 SCT041 19/09 Q1016=
201906171750 METAR COR EGLL 171750Z AUTO 20011KT 170V240 9999 SCT041 19/09
                        Q1016 NOSIG=
201906171720 METAR COR EGLL 171720Z AUTO 22010KT 180V250 9999 FEW043 20/09
                        Q1016 NOSIG=
201906171650 METAR COR EGLL 171650Z AUTO 23012KT 9999 FEW042 20/10 Q1016
                        NOSIG=
201906171620 METAR COR EGLL 171620Z AUTO 23012KT 9999 NCD 20/09 Q1016
                        NOSIG=
201906171550 METAR COR EGLL 171550Z AUTO 24013KT 9999 NCD 20/09 Q1016
                        NOSIG=
201906171520 METAR COR EGLL 171520Z AUTO 24014KT 9999 NCD 20/08 Q1017
                        NOSIG=
201906171450 METAR COR EGLL 171450Z AUTO 22012G23KT 190V250 9999 FEW047
                        21/09 Q1017 NOSIG=
201906171420 METAR COR EGLL 171420Z AUTO 23011KT 190V260 9999 SCT046 21/09
                        Q1017 NOSIG=
201906171350 METAR EGLL 171350Z AUTO 22012KT 190V260 9999 FEW046 21/09
                        Q1017=
201906171320 METAR COR EGLL 171320Z AUTO 23011KT 9999 SCT044 21/09 Q1017
                        NOSIG=
201906171250 METAR COR EGLL 171250Z AUTO 23013KT 9999 SCT043 21/09 Q1017
                        NOSIG=
201906171220 METAR COR EGLL 171220Z AUTO 22013KT 180V260 9999 SCT043 21/09
                        Q1017 NOSIG=
201906171150 METAR COR EGLL 171150Z AUTO 22013KT 180V250 9999 BKN040 20/09
                        Q1018 NOSIG=
201906171120 METAR COR EGLL 171120Z AUTO 22013KT 180V260 9999 SCT041 20/09
                        Q1018 NOSIG=
201906171050 METAR COR EGLL 171050Z AUTO 22013KT 190V250 9999 SCT039 19/09
                        Q1018 NOSIG=
201906171020 METAR COR EGLL 171020Z AUTO 23012KT 9999 BKN038 19/09 Q1018
                        NOSIG=
201906170950 METAR EGLL 170950Z AUTO 21012KT 170V240 9999 BKN036 18/09
                        Q1018=
201906170920 METAR COR EGLL 170920Z AUTO 21014KT 170V250 9999 BKN036 18/09
                        Q1018 NOSIG=
201906170850 METAR COR EGLL 170850Z AUTO 23015KT 9999 BKN034 17/09 Q1018
                        NOSIG=
201906170820 METAR COR EGLL 170820Z AUTO 21013KT 9999 BKN031 17/10 Q1018
                        NOSIG=
201906170750 METAR COR EGLL 170750Z AUTO 20011KT 160V240 9999 BKN029 16/11
                        Q1018 NOSIG=
201906170720 METAR COR EGLL 170720Z AUTO 20010KT 9999 OVC038 15/11 Q1019
                        NOSIG=
201906170650 METAR COR EGLL 170650Z AUTO 20010KT 180V240 9999 OVC038 15/12
                        Q1019 NOSIG=
201906170620 METAR COR EGLL 170620Z AUTO 21010KT 9999 BKN039 15/12 Q1018
                        NOSIG=
201906170550 METAR COR EGLL 170550Z AUTO 19008KT 170V230 9999 FEW039 14/12
                        Q1018 NOSIG=
201906170520 METAR COR EGLL 170520Z AUTO 18007KT 160V230 9999 NCD 13/12
                        Q1018 NOSIG=
201906170450 METAR COR EGLL 170450Z AUTO 18006KT 9999 FEW037 12/11 Q1018
                        NOSIG=
201906170420 METAR COR EGLL 170420Z AUTO 17006KT 9999 NCD 11/11 Q1018
                        NOSIG=
201906170350 METAR COR EGLL 170350Z AUTO 17005KT 9999 NCD 11/10 Q1018
                        NOSIG=
201906170320 METAR COR EGLL 170320Z AUTO 17005KT 9999 NCD 11/10 Q1018
                        NOSIG=
201906170250 METAR COR EGLL 170250Z AUTO 17004KT 9999 NCD 12/10 Q1018
                        NOSIG=
201906170220 METAR COR EGLL 170220Z AUTO 17005KT 9999 NCD 12/11 Q1018
                        NOSIG=
201906170150 METAR COR EGLL 170150Z AUTO 18006KT 9999 NCD 13/11 Q1018
                        NOSIG=
201906170120 METAR COR EGLL 170120Z AUTO 20007KT 9999 NCD 14/11 Q1018
                        NOSIG=
201906170050 METAR COR EGLL 170050Z AUTO 20008KT 9999 NCD 14/11 Q1018
                        NOSIG=
201906170020 METAR COR EGLL 170020Z AUTO 21007KT 9999 NCD 14/11 Q1018
                        NOSIG=
201906162350 METAR COR EGLL 162350Z AUTO 20009KT 9999 BKN047 14/11 Q1018
                        NOSIG=
201906162320 METAR COR EGLL 162320Z AUTO 21008KT 9999 BKN048 14/11 Q1018
                        NOSIG=
201906162250 METAR COR EGLL 162250Z AUTO 20008KT 9999 BKN049 15/11 Q1019
                        NOSIG=
201906162220 METAR COR EGLL 162220Z AUTO 21009KT 9999 SCT049 15/10 Q1019
                        NOSIG=
201906162150 METAR COR EGLL 162150Z AUTO 21010KT 170V250 9999 NCD 15/10
                        Q1019 NOSIG=
201906162120 METAR COR EGLL 162120Z AUTO 21011KT 9999 NCD 15/10 Q1018
                        NOSIG=
201906162050 METAR COR EGLL 162050Z AUTO 22012KT 9999 NCD 16/10 Q1018
                        NOSIG=
201906162020 METAR COR EGLL 162020Z AUTO 22012KT 9999 BKN049 16/10 Q1018
                        NOSIG=
201906161950 METAR COR EGLL 161950Z AUTO 22013KT 9999 OVC049 17/10 Q1018
                        NOSIG=
201906161920 METAR EGLL 161920Z AUTO 22013KT 9999 OVC049 17/10 Q1018=
201906161850 METAR COR EGLL 161850Z AUTO 23014KT 9999 NCD 17/11 Q1018
                        NOSIG=
201906161820 METAR COR EGLL 161820Z AUTO 22014KT 9999 FEW034 18/11 Q1018
                        NOSIG=
201906161750 METAR COR EGLL 161750Z AUTO 22015KT 9999 FEW035 19/10 Q1017
                        NOSIG=
201906161720 METAR COR EGLL 161720Z AUTO 22015KT 9999 SCT033 SCT042 19/12
                        Q1017 NOSIG=
201906161650 METAR COR EGLL 161650Z AUTO 22013KT 180V250 9999 BKN044 19/12
                        Q1017 NOSIG=
201906161620 METAR COR EGLL 161620Z AUTO 23017G27KT 9999 FEW030 BKN041
                        18/12 Q1017 NOSIG=
201906161550 METAR COR EGLL 161550Z AUTO 23016G27KT 9999 BKN030 BKN046
                        19/12 Q1017 NOSIG=
201906161520 METAR COR EGLL 161520Z AUTO 22016KT 9999 BKN031 BKN044 19/12
                        Q1017 NOSIG=
201906161450 METAR COR EGLL 161450Z AUTO 22016KT 180V250 9999 SCT031 BKN042
                        19/12 Q1017 NOSIG=
201906161420 METAR COR EGLL 161420Z AUTO 22016KT 9999 BKN031 19/12 Q1017
                        NOSIG=
201906161350 METAR COR EGLL 161350Z AUTO 22017KT 9999 SCT033 BKN040 BKN049
                        20/12 Q1017 NOSIG=
201906161320 METAR COR EGLL 161320Z AUTO 23018KT 9999 SCT034 20/11 Q1016
                        NOSIG=
201906161250 METAR COR EGLL 161250Z AUTO 22019KT 9999 SCT033 BKN040 20/11
                        Q1016 NOSIG=
201906161220 METAR COR EGLL 161220Z AUTO 22015KT 9999 SCT031 BKN038 20/12
                        Q1016 NOSIG=
201906161150 METAR COR EGLL 161150Z AUTO 22016KT 9999 FEW026 SCT032 19/12
                        Q1016 NOSIG=
201906161120 METAR COR EGLL 161120Z AUTO 23018KT 9999 SCT021/// SCT026///
                        BKN030/// //////CB 18/13 Q1016 NOSIG=
201906161050 METAR COR EGLL 161050Z AUTO 21015KT 9999 FEW018 BKN024 BKN031
                        17/13 Q1016 NOSIG=
201906161020 METAR COR EGLL 161020Z AUTO 20013G24KT 170V240 9999 SCT014
                        SCT019 BKN024 17/14 Q1016 TEMPO BKN014=
201906160950 METAR COR EGLL 160950Z AUTO 20012KT 9999 SCT013/// BKN019///
                        //////TCU 16/14 Q1016 TEMPO BKN013=
201906160920 METAR COR EGLL 160920Z 20013KT 7000 3000W -RA SCT013TCU BKN021
                        OVC035 15/14 Q1016 TEMPO BKN013=
201906160850 METAR COR EGLL 160850Z AUTO 19011KT 170V230 9999 SCT013 BKN018
                        15/13 Q1016 TEMPO SHRA BKN012=
201906160820 METAR COR EGLL 160820Z AUTO 18012KT 9999 -RA BKN014 BKN021
                        BKN032 15/13 Q1016 TEMPO SHRA=
201906160750 METAR COR EGLL 160750Z AUTO 19012KT 9999 SCT015/// BKN032///
                        BKN045/// //////TCU 15/13 Q1016 TEMPO
                        SHRA BKN014=
201906160720 METAR COR EGLL 160720Z AUTO 20009KT 9999 -RA BKN013 14/12
                        Q1016 TEMPO SHRA=
201906160650 METAR COR EGLL 160650Z AUTO 19009KT 160V220 9999 SCT011 14/12
                        Q1016 TEMPO SHRA=
201906160620 METAR COR EGLL 160620Z AUTO VRB05KT 9999 FEW018 13/12 Q1016
                        TEMPO SHRA=
201906160550 METAR COR EGLL 160550Z AUTO 18008KT 100V250 9999 SCT022 12/12
                        Q1016 TEMPO SHRA=
201906160520 METAR COR EGLL 160520Z AUTO 16005KT 120V220 9000 FEW015 SCT031
                        11/11 Q1016 NOSIG=
201906160450 METAR COR EGLL 160450Z AUTO 14005KT 5000 BR FEW035 10/09
                        Q1016 NOSIG=
201906160420 METAR COR EGLL 160420Z AUTO 15005KT 5000 BR FEW011 09/09
                        Q1016 TEMPO BKN009=
201906160350 METAR COR EGLL 160350Z AUTO 15004KT 7000 NCD 09/09 Q1016
                        NOSIG=
201906160320 METAR COR EGLL 160320Z AUTO 15004KT 8000 NCD 09/09 Q1015
                        NOSIG=
201906160250 METAR COR EGLL 160250Z AUTO 17003KT 9999 NCD 09/09 Q1015
                        NOSIG=
201906160220 METAR COR EGLL 160220Z AUTO 19002KT 9000 NCD 10/09 Q1015
                        NOSIG=
201906160150 METAR COR EGLL 160150Z AUTO 18004KT 9999 NCD 10/10 Q1015
                        NOSIG=
201906160120 METAR EGLL 160120Z AUTO 19005KT 9999 NCD 11/10 Q1015=
201906160050 METAR COR EGLL 160050Z AUTO 22005KT 9999 NCD 11/10 Q1015
                        NOSIG=
201906160020 METAR COR EGLL 160020Z AUTO 21005KT 9999 NCD 11/10 Q1015
                        NOSIG=
201906152350 METAR COR EGLL 152350Z AUTO 22006KT 9999 NCD 12/11 Q1015
                        NOSIG=
201906152320 METAR COR EGLL 152320Z AUTO 21007KT 9999 NCD 12/11 Q1015
                        NOSIG=
201906152250 METAR COR EGLL 152250Z AUTO 21007KT 9999 NCD 13/11 Q1015
                        NOSIG=
201906152220 METAR COR EGLL 152220Z AUTO 22008KT 9999 NCD 13/12 Q1014
                        NOSIG=
201906152150 METAR COR EGLL 152150Z AUTO 20008KT 170V260 9999 NCD 13/12
                        Q1014 NOSIG=
201906152120 METAR COR EGLL 152120Z AUTO 21009KT 170V250 9999 NCD 13/12
                        Q1014 NOSIG=
201906152050 METAR COR EGLL 152050Z AUTO 21009KT 170V250 9999 NCD 13/12
                        Q1014 NOSIG=
201906152020 METAR COR EGLL 152020Z AUTO 21009KT 180V250 9999 NCD 14/13
                        Q1014 NOSIG=
201906151950 METAR COR EGLL 151950Z AUTO 20009KT 160V240 9999 SCT040 14/13
                        Q1013 NOSIG=
201906151920 METAR COR EGLL 151920Z AUTO 20010KT 170V240 9999 -RA SCT018
                        15/13 Q1013 RESHRA NOSIG=
201906151850 METAR COR EGLL 151850Z AUTO 19010KT 160V230 9999 -RA FEW019
                        SCT036 15/13 Q1013 NOSIG=
201906151820 METAR COR EGLL 151820Z AUTO 20012KT 9999 -RA NCD 15/13 Q1013
                        NOSIG=
201906151750 METAR COR EGLL 151750Z AUTO 18012KT 150V230 9999 -RA FEW026
                        SCT043 15/13 Q1013 TEMPO SHRA=
201906151720 METAR COR EGLL 151720Z AUTO 19013KT 160V240 9999 -RA SCT024///
                        SCT032/// BKN043/// //////CB 15/13
                        Q1013 TEMPO SHRA=
201906151650 METAR COR EGLL 151650Z AUTO 19013KT 150V230 9999 -RA FEW026
                        SCT033 17/12 Q1012 TEMPO SHRA=
201906151620 METAR COR EGLL 151620Z AUTO 19015KT 160V240 9999 FEW025 SCT031
                        BKN041 17/12 Q1013 NOSIG=
201906151550 METAR COR EGLL 151550Z AUTO 20013KT 170V240 9999 FEW024 BKN033
                        BKN049 18/12 Q1013 NOSIG=
201906151520 METAR COR EGLL 151520Z AUTO 20013KT 9999 SCT026 BKN048 17/12
                        Q1013 NOSIG=
201906151450 METAR COR EGLL 151450Z AUTO 19013KT 170V240 9999 SCT020 BKN035
                        16/12 Q1013 TEMPO SHRA=
201906151420 METAR COR EGLL 151420Z AUTO 20015KT 180V240 9999 SCT021///
                        SCT026/// BKN032/// //////TCU 16/13
                        Q1013 TEMPO SHRA=
201906151350 METAR COR EGLL 151350Z AUTO 19015G25KT 9999 BKN021 BKN031
                        17/11 Q1013 TEMPO SHRA=
201906151320 METAR COR EGLL 151320Z AUTO 20014KT 9999 -RA SCT025 BKN029
                        BKN033 16/11 Q1013 NOSIG=
201906151250 METAR COR EGLL 151250Z AUTO 21012KT 180V240 9999 -RA BKN032
                        OVC040 17/10 Q1013 NOSIG=
201906151220 METAR COR EGLL 151220Z AUTO 20015KT 9999 BKN035 BKN044 17/09
                        Q1013 NOSIG=
201906151150 METAR COR EGLL 151150Z AUTO 21015KT 9999 BKN036 17/09 Q1013
                        NOSIG=
201906151120 METAR COR EGLL 151120Z AUTO 21012G22KT 9999 BKN039 18/09
                        Q1013 NOSIG=
201906151050 METAR COR EGLL 151050Z AUTO 22012KT 9999 FEW044 18/09 Q1012
                        NOSIG=
201906151020 METAR COR EGLL 151020Z AUTO 21015KT 9999 FEW042 18/08 Q1012
                        NOSIG=
201906150950 METAR COR EGLL 150950Z AUTO 20014KT 9999 FEW036 SCT043 19/09
                        Q1012 NOSIG=
201906150920 METAR COR EGLL 150920Z AUTO 18015KT 9999 SCT030 18/10 Q1012
                        NOSIG=
201906150850 METAR COR EGLL 150850Z AUTO 20011KT 170V240 9999 FEW027 SCT034
                        17/11 Q1012 NOSIG=
201906150820 METAR COR EGLL 150820Z AUTO 18014KT 9999 SCT025 16/11 Q1012
                        NOSIG=
201906150750 METAR COR EGLL 150750Z AUTO 19010KT 170V240 9999 BKN023 BKN032
                        16/11 Q1012 NOSIG=
201906150720 METAR COR EGLL 150720Z AUTO 20007KT 170V230 9999 FEW034 SCT041
                        16/11 Q1012 NOSIG=
201906150650 METAR COR EGLL 150650Z AUTO 20008KT 170V260 9999 FEW037 15/11
                        Q1012 NOSIG=
201906150620 METAR COR EGLL 150620Z AUTO 19007KT 150V230 9999 FEW037 15/12
                        Q1012 NOSIG=
201906150550 METAR COR EGLL 150550Z AUTO 18006KT 130V220 9999 FEW045 13/11
                        Q1012 NOSIG=
201906150520 METAR COR EGLL 150520Z AUTO 17005KT 130V240 9999 NCD 12/11
                        Q1012 NOSIG=
201906150450 METAR COR EGLL 150450Z AUTO VRB03KT 9999 NCD 11/10 Q1012
                        NOSIG=
201906150420 METAR COR EGLL 150420Z AUTO 18004KT 9999 NCD 12/11 Q1012
                        NOSIG=
201906150350 METAR COR EGLL 150350Z AUTO 18006KT 9999 NCD 12/11 Q1012
                        NOSIG=
201906150320 METAR COR EGLL 150320Z AUTO 20005KT 9999 NCD 12/11 Q1012
                        NOSIG=
201906150250 METAR COR EGLL 150250Z AUTO 21004KT 9999 NCD 12/11 Q1012
                        NOSIG=
201906150220 METAR COR EGLL 150220Z AUTO 22004KT 9999 NCD 12/11 Q1012
                        NOSIG=
201906150150 METAR COR EGLL 150150Z AUTO 17003KT 9999 NCD 12/10 Q1012
                        NOSIG=
201906150120 METAR COR EGLL 150120Z AUTO 17004KT 9999 NCD 12/10 Q1012
                        NOSIG=
201906150050 METAR COR EGLL 150050Z AUTO 18005KT 9999 NCD 12/10 Q1012
                        NOSIG=
201906150020 METAR COR EGLL 150020Z AUTO 21006KT 9999 NCD 13/10 Q1012
                        NOSIG=
201906142350 METAR COR EGLL 142350Z AUTO 19006KT 9999 NCD 13/10 Q1012
                        NOSIG=
201906142320 METAR COR EGLL 142320Z AUTO 19006KT 9999 NCD 12/10 Q1012
                        NOSIG=
201906142250 METAR COR EGLL 142250Z AUTO 17006KT 9999 NCD 13/10 Q1012
                        NOSIG=
201906142220 METAR COR EGLL 142220Z AUTO 18008KT 170V240 9999 NCD 13/10
                        Q1012 NOSIG=
201906142150 METAR COR EGLL 142150Z AUTO 17008KT 140V240 9999 NCD 13/10
                        Q1012 NOSIG=
201906142120 METAR COR EGLL 142120Z AUTO 18009KT 150V230 9999 NCD 14/10
                        Q1012 NOSIG=
201906142050 METAR COR EGLL 142050Z AUTO 19009KT 140V250 9999 NCD 15/10
                        Q1012 NOSIG=
201906142020 METAR COR EGLL 142020Z AUTO 18008KT 130V220 9999 NCD 15/10
                        Q1012 NOSIG=
201906141950 METAR COR EGLL 141950Z AUTO 18010KT 130V230 9999 NCD 16/10
                        Q1011 NOSIG=
201906141920 METAR COR EGLL 141920Z AUTO 21011KT 9999 NCD 17/09 Q1011
                        NOSIG=
201906141850 METAR COR EGLL 141850Z AUTO 21011KT 170V240 9999 NCD 17/09
                        Q1011 NOSIG=
201906141820 METAR COR EGLL 141820Z AUTO 21013KT 9999 FEW043 17/09 Q1011
                        NOSIG=
201906141750 METAR COR EGLL 141750Z AUTO 19013KT 160V240 9999 SCT038 18/10
                        Q1011 NOSIG=
201906141720 METAR COR EGLL 141720Z AUTO 21011KT 170V240 9999 FEW035 BKN042
                        18/10 Q1011 NOSIG=
201906141650 METAR COR EGLL 141650Z AUTO 20012KT 160V240 9999 FEW036 SCT044
                        18/09 Q1011 NOSIG=
201906141620 METAR COR EGLL 141620Z AUTO 19015KT 170V250 9999 SCT035 SCT045
                        18/10 Q1011 NOSIG=
201906141550 METAR COR EGLL 141550Z AUTO 20013G23KT 160V240 9999 FEW037
                        SCT043 18/10 Q1011 NOSIG=
201906141520 METAR COR EGLL 141520Z AUTO 20014KT 9999 SCT033 BKN044 18/10
                        Q1011 NOSIG=
201906141450 METAR COR EGLL 141450Z AUTO 19014KT 160V230 9999 SCT032 BKN044
                        18/11 Q1011 NOSIG=
201906141420 METAR COR EGLL 141420Z AUTO 19016KT 160V230 9999 FEW033 BKN041
                        17/11 Q1011 NOSIG=
201906141350 METAR COR EGLL 141350Z AUTO 21014KT 160V230 9999 SCT031 BKN043
                        18/11 Q1011 NOSIG=
201906141320 METAR COR EGLL 141320Z AUTO 22014KT 180V250 9999 FEW032 BKN039
                        BKN048 19/11 Q1011 NOSIG=
201906141250 METAR COR EGLL 141250Z AUTO 21015KT 9999 BKN030 19/11 Q1010
                        NOSIG=
201906141220 METAR COR EGLL 141220Z AUTO 20015KT 170V240 9999 SCT029 BKN040
                        18/12 Q1010 NOSIG=
201906141150 METAR COR EGLL 141150Z AUTO 20014KT 9999 SCT023 SCT034 BKN044
                        17/13 Q1010 NOSIG=
201906141120 METAR COR EGLL 141120Z AUTO 19016KT 9999 -RA FEW028/// BKN039///
                        BKN045/// //////TCU 16/12 Q1010 NOSIG=
201906141050 METAR COR EGLL 141050Z AUTO 22014KT 9999 FEW029/// SCT044///
                        17/11 Q1010 NOSIG=
201906141020 METAR COR EGLL 141020Z 21013KT 9999 FEW029 SCT044 17/11 Q1010
                        NOSIG=
201906140950 METAR COR EGLL 140950Z AUTO 20014KT 9999 -RA SCT024 17/12
                        Q1010 NOSIG=
201906140920 METAR COR EGLL 140920Z AUTO 21011KT 9999 FEW024 SCT038 15/12
                        Q1010 NOSIG=
201906140850 METAR COR EGLL 140850Z AUTO 21013KT 9999 FEW022 SCT036 BKN045
                        16/12 Q1010 NOSIG=
201906140820 METAR COR EGLL 140820Z AUTO 21013KT 9999 FEW022 15/12 Q1010
                        NOSIG=
201906140750 METAR COR EGLL 140750Z AUTO 21011KT 170V230 9999 FEW019 SCT028
                        15/12 Q1010 NOSIG=
201906140720 METAR COR EGLL 140720Z AUTO 22011KT 9999 SCT015 BKN034 BKN041
                        14/12 Q1009 NOSIG=
201906140650 METAR COR EGLL 140650Z AUTO 20012KT 9000 -RA SCT014 BKN022
                        BKN030 14/12 Q1009 NOSIG=
201906140620 METAR COR EGLL 140620Z AUTO 20010KT 180V240 9999 BKN014 13/12
                        Q1009 TEMPO BKN016=
201906140550 METAR COR EGLL 140550Z AUTO 19009KT 160V220 9999 BKN020 BKN034
                        13/12 Q1009 NOSIG=
201906140520 METAR COR EGLL 140520Z AUTO 20009G19KT 9999 NCD 13/12 Q1009
                        NOSIG=
201906140450 METAR COR EGLL 140450Z AUTO 18008KT 9999 -RA NCD 13/12 Q1009
                        TEMPO BKN012=
201906140420 METAR COR EGLL 140420Z AUTO 19009KT 9999 -RA NCD 13/12 Q1009
                        TEMPO BN012=
201906140350 METAR COR EGLL 140350Z AUTO 19008KT 9999 SCT032 OVC049 13/12
                        Q1008 NOSIG=
201906140320 METAR COR EGLL 140320Z AUTO 20009KT 9000 -RA SCT022 SCT036
                        BKN043 13/12 Q1008 TEMPO RADZ=
201906140250 METAR COR EGLL 140250Z AUTO 19008KT 9999 FEW007 BKN015 BKN029
                        12/12 Q1008 TEMPO 4000 RADZ BKN007=
201906140220 METAR COR EGLL 140220Z AUTO 20009KT 9000 -RA SCT009 BKN019
                        BKN024 13/12 Q1008 TEMPO 4000 RADZ
                        BKN009=
201906140150 METAR COR EGLL 140150Z AUTO 19008KT 9999 -RA FEW009 SCT025
                        BKN033 13/12 Q1008 TEMPO 4000 RADZ
                        BKN009=
201906140120 METAR COR EGLL 140120Z AUTO 19007KT 9999 -RA BKN029 BKN038
                        13/12 Q1008 NOSIG=
201906140050 METAR COR EGLL 140050Z AUTO 18006KT 9999 -RA SCT022 BKN031
                        BKN039 13/12 Q1008 NOSIG=
201906140020 METAR COR EGLL 140020Z AUTO 19006KT 9999 SCT024 SCT029 BKN034
                        13/12 Q1008 NOSIG=
201906132350 METAR COR EGLL 132350Z AUTO 21005KT 9999 BKN026 OVC033 13/12
                        Q1008 NOSIG=
201906132320 METAR COR EGLL 132320Z AUTO 21007KT 9999 BKN030 BKN037 13/12
                        Q1008 NOSIG=
201906132250 METAR COR EGLL 132250Z AUTO 21008KT 9999 SCT039 BKN046 13/11
                        Q1008 NOSIG=
201906132220 METAR COR EGLL 132220Z AUTO 22010KT 9999 BKN038 13/11 Q1008
                        NOSIG=
201906132150 METAR COR EGLL 132150Z AUTO 22011KT 180V250 9999 SCT043 13/11
                        Q1008 TEMPO BKN012=
201906132120 METAR COR EGLL 132120Z AUTO 22011KT 9999 BKN047 13/11 Q1008
                        NOSIG=
201906132050 METAR COR EGLL 132050Z AUTO 22010KT 9999 NCD 13/12 Q1008
                        NOSIG=
201906132020 METAR COR EGLL 132020Z AUTO 22011KT 9999 NCD 13/12 Q1007
                        NOSIG=
201906131950 METAR COR EGLL 131950Z AUTO 22012G22KT 9999 FEW014 SCT045
                        13/12 Q1007 NOSIG=
201906131920 METAR COR EGLL 131920Z AUTO 22011KT 9999 -RA BKN012 BKN018
                        13/12 Q1006 TEMPO BKN012=
201906131850 METAR COR EGLL 131850Z AUTO 22011KT 9999 BKN011 OVC022 13/12
                        Q1006 NOSIG=
201906131820 METAR COR EGLL 131820Z AUTO 21012KT 9999 -RA BKN014 OVC022
                        14/12 Q1006 NOSIG=
201906131750 METAR COR EGLL 131750Z AUTO 21013KT 9999 -RA BKN016 OVC028
                        14/11 Q1005 NOSIG=
201906131720 METAR COR EGLL 131720Z AUTO 22012KT 9999 SCT018 BKN022 OVC049
                        14/11 Q1005 NOSIG=
201906131650 METAR COR EGLL 131650Z AUTO 22013KT 180V250 9999 -RA BKN017
                        BKN026 14/11 Q1005 NOSIG=
201906131620 METAR COR EGLL 131620Z AUTO 22015KT 9999 SCT019 BKN025 BKN029
                        14/11 Q1005 NOSIG=
201906131550 METAR COR EGLL 131550Z AUTO 23015KT 9999 -RA BKN017 BKN027
                        OVC032 14/11 Q1005 TEMPO BKN012=
201906131520 METAR COR EGLL 131520Z AUTO 21013KT 9999 SCT023 SCT027 BKN032
                        14/11 Q1005 TEMPO BKN012=
201906131450 METAR COR EGLL 131450Z AUTO 22014G24KT 9999 BKN019 OVC031
                        14/11 Q1005 TEMPO BKN012=
201906131420 METAR COR EGLL 131420Z AUTO 21016KT 170V240 9999 FEW017 SCT021
                        BKN030 14/11 Q1005 TEMPO BKN010=
201906131350 METAR COR EGLL 131350Z AUTO 21015KT 9999 -RA SCT017 BKN032
                        13/12 Q1005 TEMPO BKN010=
201906131320 METAR COR EGLL 131320Z AUTO 21014KT 9999 -RA FEW018 SCT026
                        BKN032 13/11 Q1005 TEMPO BKN010=
201906131250 METAR COR EGLL 131250Z AUTO 21013KT 9999 -RA FEW025/// BKN037///
                        //////TCU 13/12 Q1005 TEMPO SHRA
                        BKN010=
201906131220 METAR COR EGLL 131220Z AUTO 22012KT 9999 -RA FEW021/// SCT034///
                        BKN046/// //////TCU 13/12 Q1005 TEMPO
                        SHRA BKN010=
201906131150 METAR COR EGLL 131150Z AUTO 22012KT 9999 -RA SCT023/// //////CB
                        13/12 Q1005 TEMPO SHRA BKN010=
201906131120 METAR COR EGLL 131120Z AUTO 23011KT 9999 -RA FEW035/// SCT042///
                        OVC049/// //////CB 13/12 Q1005 RESHRA
                        TEMPO SHRA BKN012=
201906131050 METAR COR EGLL 131050Z 24014G24KT 5000 SHRA FEW019CB SCT029
                        BKN042 12/11 Q1005 TEMPO -RA=
201906131020 METAR COR EGLL 131020Z 23010KT 8000 3000SE SHRA SCT017CB
                        SCT023 BKN033 12/11 Q1005 TEMPO BKN014=
201906130950 METAR COR EGLL 130950Z AUTO 22010KT 9999 -RA SCT028/// BKN038///
                        BKN046/// //////CB 12/12 Q1005 TEMPO
                        SHRA BKN010=
201906130920 METAR COR EGLL 130920Z AUTO 22010KT 9000 -RA SCT031/// //////CB
                        12/12 Q1005 TEMPO SHRA=
201906130850 METAR COR EGLL 130850Z 22013KT 8000 -SHRA FEW024CB SCT039
                        BKN046 12/11 Q1005 TEMPO SHRA BKN010=
201906130820 METAR COR EGLL 130820Z AUTO 23013KT 9999 -RA FEW017/// SCT024///
                        BKN039/// //////CB 12/11 Q1005 RESHRA
                        TEMPO SHRA BKN010=
201906130750 METAR COR EGLL 130750Z AUTO 21012KT 180V240 9000 -RA FEW024///
                        SCT041/// //////TCU 12/12 Q1005 TEMPO
                        SHRA=
201906130720 METAR COR EGLL 130720Z AUTO 20009KT 170V240 9999 -RA SCT015///
                        BKN030/// BKN038/// //////TCU 12/12
                        Q1005 RERA REDZ TEMPO RA=
201906130650 METAR COR EGLL 130650Z 21011KT 180V240 8000 RADZ FEW012 SCT037
                        BKN045 12/12 Q1005 TEMPO -SHRA=
201906130620 METAR EGLL 130620Z AUTO 20009KT 160V260 9999 FEW041 12/12
                        Q1005=
201906130550 METAR COR EGLL 130550Z AUTO 20009KT 180V260 8000 SCT006///
                        //////TCU 12/12 Q1005 TEMPO SHRA=
201906130520 METAR COR EGLL 130520Z AUTO 20007KT 180V240 8000 FEW028 SCT040
                        12/12 Q1005 TEMPO SHRA=
201906130450 METAR COR EGLL 130450Z AUTO 21007KT 8000 FEW016/// BKN023///
                        BKN029/// //////CB 12/11 Q1005 RERA
                        TEMPO SHRA=
201906130420 METAR COR EGLL 130420Z AUTO 22008KT 6000 -RA FEW017/// BKN023///
                        BKN032/// //////TCU 12/11 Q1005 TEMPO
                        4000 SHRA=
201906130350 METAR COR EGLL 130350Z AUTO 21008KT 9999 -RA BKN035/// //////TCU
                        12/11 Q1005 TEMPO SHRA BKN006=
201906130320 METAR COR EGLL 130320Z AUTO 21008KT 9000 SCT006 BKN041 OVC047
                        12/11 Q1005 TEMPO 4000 SHRA BKN006=
201906130250 METAR COR EGLL 130250Z AUTO 20007KT 6000 BKN005 12/11 Q1005
                        TEMPO 4000 RADZ BKN004=
201906130220 METAR COR EGLL 130220Z AUTO 21005KT 4100 -RADZ FEW004 OVC024
                        12/12 Q1005 TEMPO RADZ BKN004=
201906130150 METAR COR EGLL 130150Z AUTO 21005KT 4700 -DZ BKN004 BKN026
                        OVC033 12/12 Q1006 TEMPO 5000 SCT004=
201906130120 METAR COR EGLL 130120Z AUTO 21005KT 4700 -DZ FEW004 BKN011
                        BKN044 12/12 Q1006 TEMPO 7000 -RADZ
                        BKN006=
201906130050 METAR COR EGLL 130050Z AUTO 21005KT 7000 -RA BKN012 OVC035
                        12/11 Q1006 TEMPO SCT012=
201906130020 METAR COR EGLL 130020Z AUTO 25005KT 7000 -RA BKN039 12/11
                        Q1007 TEMPO 4000 RADZ BKN006=
201906122350 METAR COR EGLL 122350Z AUTO 24005KT 7000 -RA FEW022 12/11
                        Q1007 TEMPO 4000 RADZ BKN006=
201906122320 METAR COR EGLL 122320Z AUTO 24005KT 5000 -DZ SCT006 SCT021
                        12/12 Q1007 TEMPO 4000 RADZ BKN006=
201906122250 METAR COR EGLL 122250Z AUTO 26004KT 5000 -RADZ BKN006 BKN017
                        12/12 Q1007 TEMPO 4000 RADZ BKN004=
201906122220 METAR COR EGLL 122220Z AUTO VRB02KT 7000 -RA SCT007 BKN013
                        12/11 Q1007 TEMPO 4000 RADZ=
201906122150 METAR COR EGLL 122150Z AUTO 33003KT 7000 -RA BKN010 BKN016
                        OVC029 12/11 Q1008 TEMPO 4000 RA=
201906122120 METAR COR EGLL 122120Z AUTO 32003KT 9000 -RA FEW005/// SCT011///
                        BKN021/// //////CB 12/11 Q1008 RERA
                        TEMPO 4000 RA BKN005=
201906122050 METAR COR EGLL 122050Z AUTO VRB03KT 4000 RA SCT004/// SCT008///
                        BKN025/// //////TCU 12/12 Q1008 REDZ
                        TEMPO -RA BKN004=
201906122020 METAR COR EGLL 122020Z AUTO VRB01KT 5000 -RADZ SCT005///
                        BKN021/// BKN033/// //////CB 12/12
                        Q1008 NOSIG=
201906121950 METAR COR EGLL 121950Z AUTO VRB03KT 7000 -RA FEW012/// SCT017///
                        OVC025/// //////CB 12/12 Q1008 RERA
                        REDZ TEMPO RA=
201906121920 METAR COR EGLL 121920Z AUTO VRB02KT 9999 -RA FEW008 BKN019
                        BKN026 13/12 Q1008 TEMPO RA=
201906121850 METAR COR EGLL 121850Z AUTO 10001KT 9999 -RA BKN020 BKN024
                        13/11 Q1008 TEMPO RA=
201906121820 METAR COR EGLL 121820Z AUTO 10002KT 9999 -RA FEW011 SCT020
                        BKN025 13/11 Q1008 TEMPO RA=
201906121750 METAR COR EGLL 121750Z AUTO VRB03KT 9999 -RA SCT024 SCT035
                        BKN041 13/11 Q1008 TEMPO RA=
201906121720 METAR COR EGLL 121720Z AUTO 04003KT 9999 -RA FEW026 BKN035
                        BKN043 13/12 Q1008 TEMPO RA=
201906121650 METAR COR EGLL 121650Z AUTO VRB03KT 9999 -RA BKN032 13/11
                        Q1009 TEMPO SHRA=
201906121620 METAR COR EGLL 121620Z AUTO VRB03KT 9999 -RA SCT013/// SCT031///
                        BKN040/// //////TCU 13/11 Q1009 TEMPO
                        SHRA=
201906121550 METAR COR EGLL 121550Z AUTO 07004KT 9999 -RA FEW010/// BKN035///
                        OVC043/// //////CB 13/12 Q1009 TEMPO
                        SHRA=
201906121520 METAR COR EGLL 121520Z AUTO 06006KT 9999 -RA FEW014/// SCT034///
                        BKN042/// //////CB 13/12 Q1009 TEMPO
                        SHRA=
201906121450 METAR COR EGLL 121450Z AUTO 06004KT 9999 -RA FEW012/// BKN043///
                        //////CB 13/12 Q1009 TEMPO SHRA=
201906121420 METAR COR EGLL 121420Z AUTO 05006KT 9999 -RA FEW035/// BKN044///
                        //////CB 14/12 Q1009 TEMPO SHRA=
201906121350 METAR COR EGLL 121350Z AUTO 05006KT 020V090 9999 -RA FEW024///
                        BKN036/// OVC042/// //////TCU 14/11
                        Q1009 TEMPO SHRA=
201906121320 METAR COR EGLL 121320Z AUTO 04005KT 360V080 9999 -RA BKN036
                        BKN043 15/11 Q1009 TEMPO SHRA=
201906121250 METAR COR EGLL 121250Z AUTO 02006KT 340V070 9999 -RA FEW024
                        SCT029 BKN034 15/10 Q1009 TEMPO SHRA=
201906121220 METAR COR EGLL 121220Z AUTO 03006KT 350V060 9999 -RA SCT024
                        BKN029 16/10 Q1009 TEMPO SHRA=
201906121150 METAR COR EGLL 121150Z AUTO 36005KT 300V050 9999 -RA SCT024
                        BKN031 16/10 Q1009 NOSIG=
201906121120 METAR EGLL 121120Z AUTO 03004KT 320V110 9999 SCT024 15/10
                        Q1010=
201906121050 METAR COR EGLL 121050Z AUTO 02006KT 330V070 9999 FEW021 15/10
                        Q1010 NOSIG=
201906121020 METAR COR EGLL 121020Z AUTO 35004KT 300V070 9999 FEW021 15/10
                        Q1010 NOSIG=
201906120950 METAR COR EGLL 120950Z AUTO 34005KT 290V060 9999 FEW019 15/10
                        Q1010 NOSIG=
201906120920 METAR COR EGLL 120920Z AUTO VRB04KT 9999 BKN016 15/10 Q1010
                        NOSIG=
201906120850 METAR COR EGLL 120850Z AUTO VRB03KT 9999 BKN015 BKN020 15/10
                        Q1010 NOSIG=
201906120820 METAR COR EGLL 120820Z AUTO 32004KT 250V040 9999 SCT013 BKN018
                        15/11 Q1010 NOSIG=
201906120750 METAR COR EGLL 120750Z AUTO 34004KT 310V030 9999 OVC015 13/10
                        Q1010 NOSIG=
201906120720 METAR COR EGLL 120720Z AUTO 36004KT 320V040 9999 OVC010 13/10
                        Q1010 NOSIG=
201906120650 METAR COR EGLL 120650Z AUTO VRB03KT 9999 BKN009 13/10 Q1010
                        TEMPO BKN010=
201906120620 METAR COR EGLL 120620Z AUTO 05004KT 360V100 9999 OVC008 11/10
                        Q1011 TEMPO BKN010=
201906120550 METAR COR EGLL 120550Z AUTO VRB03KT 9999 OVC007 11/10 Q1011
                        NOSIG=
201906120520 METAR COR EGLL 120520Z AUTO 04006KT 010V070 9999 BKN006 OVC010
                        11/10 Q1011 NOSIG=
201906120450 METAR COR EGLL 120450Z AUTO 04006KT 020V080 9999 OVC007 11/10
                        Q1011 NOSIG=
201906120420 METAR COR EGLL 120420Z AUTO 03005KT 360V060 9999 OVC008 11/10
                        Q1011 TEMPO BKN004=
201906120350 METAR COR EGLL 120350Z AUTO 02004KT 330V060 9999 OVC008 11/10
                        Q1011 TEMPO BKN004=
201906120320 METAR COR EGLL 120320Z AUTO 04005KT 360V070 9999 OVC008 11/10
                        Q1011 TEMPO BKN004=
201906120250 METAR COR EGLL 120250Z AUTO 01005KT 330V060 9999 BKN008 OVC037
                        11/10 Q1011 TEMPO BKN004=
201906120220 METAR COR EGLL 120220Z AUTO 01005KT 340V050 9999 BKN007 OVC035
                        11/10 Q1011 TEMPO BKN004=
201906120150 METAR COR EGLL 120150Z AUTO 01006KT 330V050 9999 OVC007 11/10
                        Q1011 TEMPO BKN004=
201906120120 METAR COR EGLL 120120Z AUTO 02006KT 350V050 9999 OVC006 11/11
                        Q1012 TEMPO BKN004=
201906120050 METAR COR EGLL 120050Z AUTO 03005KT 330V060 9999 OVC006 11/11
                        Q1012 TEMPO BKN004=
201906120020 METAR COR EGLL 120020Z AUTO 36005KT 9999 OVC006 11/10 Q1012
                        TEMPO BKN004=
201906112350 METAR COR EGLL 112350Z AUTO 36006KT 9999 OVC006 11/11 Q1012
                        NOSIG=
201906112320 METAR COR EGLL 112320Z AUTO 03004KT 340V080 9999 OVC006 11/11
                        Q1012 NOSIG=
201906112250 METAR COR EGLL 112250Z AUTO 02005KT 340V070 9999 OVC006 11/10
                        Q1013 NOSIG=
201906112220 METAR COR EGLL 112220Z AUTO 02005KT 350V070 9999 OVC006 11/10
                        Q1013 NOSIG=
201906112150 METAR COR EGLL 112150Z AUTO 02006KT 340V070 9999 OVC007 11/10
                        Q1013 NOSIG=
201906112120 METAR COR EGLL 112120Z AUTO 01007KT 330V050 9999 OVC007 12/10
                        Q1013 NOSIG=
201906112050 METAR COR EGLL 112050Z AUTO 01007KT 320V040 9999 OVC008 12/10
                        Q1013 NOSIG=
201906112020 METAR COR EGLL 112020Z AUTO 01005KT 330V060 9999 BKN009 OVC012
                        12/10 Q1013 NOSIG=
201906111950 METAR COR EGLL 111950Z AUTO 01007KT 340V040 9999 OVC010 12/10
                        Q1013 NOSIG=
201906111920 METAR COR EGLL 111920Z AUTO 03009KT 350V060 9999 BKN012 13/10
                        Q1013 NOSIG=
201906111850 METAR COR EGLL 111850Z AUTO 02009KT 340V060 9999 BKN012///
                        OVC017/// //////TCU 13/10 Q1013 NOSIG=
201906111820 METAR COR EGLL 111820Z AUTO 03009KT 340V060 9999 BKN012///
                        OVC016/// //////TCU 13/11 Q1013 NOSIG=
201906111750 METAR COR EGLL 111750Z AUTO 02010KT 340V060 9999 BKN011///
                        OVC017/// //////TCU 13/11 Q1012 NOSIG=
201906111720 METAR EGLL 111720Z AUTO 01010KT 340V050 9999 BKN011/// OVC017///
                        //////TCU 14/11 Q1012=
201906111650 METAR COR EGLL 111650Z AUTO 01009KT 330V050 9999 OVC011///
                        //////TCU 14/11 Q1012 NOSIG=
201906111620 METAR COR EGLL 111620Z AUTO 01007KT 340V070 9999 BKN011///
                        OVC020/// //////CB 14/11 Q1012 NOSIG=
201906111550 METAR COR EGLL 111550Z AUTO 01008KT 340V050 9999 BKN011 15/12
                        Q1012 NOSIG=
201906111520 METAR COR EGLL 111520Z 36010KT 9999 BKN012 14/12 Q1012 NOSIG=
201906111450 METAR COR EGLL 111450Z AUTO 01007KT 330V050 9999 BKN013 16/12
                        Q1012 NOSIG=
201906111420 METAR COR EGLL 111420Z 01008KT 330V040 9999 SCT012 BKN024
                        16/12 Q1012 BECMG BKN012=
201906111350 METAR COR EGLL 111350Z AUTO 01009KT 340V050 9999 BKN013 BKN026
                        15/12 Q1012 TEMPO SCT013=
201906111320 METAR COR EGLL 111320Z AUTO 01008KT 330V040 9999 SCT017 16/12
                        Q1012 NOSIG=
201906111250 METAR COR EGLL 111250Z AUTO 36007KT 320V050 9999 FEW024 BKN032
                        BKN046 16/12 Q1012 NOSIG=
201906111220 METAR COR EGLL 111220Z AUTO 33006KT 260V040 9999 FEW020 BKN028
                        BKN034 17/10 Q1012 NOSIG=
201906111150 METAR COR EGLL 111150Z AUTO VRB02KT 9999 SCT028 BKN033 BKN039
                        17/10 Q1012 NOSIG=
201906111120 METAR COR EGLL 111120Z AUTO VRB02KT 9999 SCT029 BKN041 BKN047
                        17/10 Q1012 NOSIG=
201906111050 METAR COR EGLL 111050Z AUTO VRB02KT 9999 SCT032 BKN047 16/10
                        Q1012 NOSIG=
201906111020 METAR COR EGLL 111020Z AUTO VRB02KT 9999 FEW020 SCT026 BKN033
                        15/11 Q1012 NOSIG=
201906110950 METAR COR EGLL 110950Z AUTO VRB03KT 9999 SCT019 BKN025 BKN030
                        15/11 Q1012 NOSIG=
201906110920 METAR COR EGLL 110920Z AUTO 12004KT 080V170 9999 SCT017 BKN023
                        OVC031 14/11 Q1011 NOSIG=
201906110850 METAR COR EGLL 110850Z AUTO 13004KT 100V160 9999 FEW015 BKN019
                        BKN027 14/12 Q1011 NOSIG=
201906110820 METAR COR EGLL 110820Z AUTO VRB02KT 9999 BKN011 BKN017 14/11
                        Q1011 TEMPO SCT012=
201906110750 METAR COR EGLL 110750Z AUTO VRB03KT 9999 BKN010 BKN040 13/11
                        Q1011 NOSIG=
201906110720 METAR COR EGLL 110720Z AUTO 16004KT 9999 SCT007 SCT012 BKN018
                        13/12 Q1011 NOSIG=
201906110650 METAR COR EGLL 110650Z AUTO 15004KT 9999 FEW006 BKN015 OVC036
                        12/12 Q1011 NOSIG=
201906110620 METAR COR EGLL 110620Z AUTO 09002KT 9999 SCT012/// BKN016///
                        OVC038/// //////TCU 12/11 Q1011 TEMPO
                        BKN012=
201906110550 METAR COR EGLL 110550Z AUTO 13006KT 9999 BKN006 OVC013 11/11
                        Q1010 BECMG BKN013=
201906110520 METAR COR EGLL 110520Z AUTO 15006KT 8000 BKN005 11/11 Q1010
                        BECMG BKN010=
201906110450 METAR COR EGLL 110450Z AUTO 13006KT 080V150 7000 -RA BKN005
                        BKN011 OVC044 12/12 Q1010 NOSIG=
201906110420 METAR COR EGLL 110420Z AUTO 05004KT 020V080 8000 -RA BKN004///
                        BKN007/// OVC041/// //////TCU 12/12
                        Q1010 TEMPO BKN005=
201906110350 METAR COR EGLL 110350Z AUTO 03004KT 350V060 9000 -RA OVC003
                        12/11 Q1009 TEMPO BKN005=
201906110320 METAR COR EGLL 110320Z AUTO 02004KT 340V060 9999 -RA OVC005
                        12/11 Q1009 NOSIG=
201906110250 METAR COR EGLL 110250Z AUTO 01005KT 320V080 9999 -RA BKN006
                        OVC010 12/12 Q1009 TEMPO SCT006 BKN010=
201906110220 METAR COR EGLL 110220Z AUTO 01006KT 9999 BKN007 OVC018 12/12
                        Q1009 TEMPO SCT007 BKN012=
201906110150 METAR COR EGLL 110150Z AUTO 02004KT 340V060 9999 BKN007 OVC012
                        12/12 Q1009 TEMPO SCT007 BKN012=
201906110120 METAR COR EGLL 110120Z AUTO 02004KT 330V050 9999 OVC007///
                        //////TCU 12/11 Q1009 TEMPO BKN004=
201906110050 METAR COR EGLL 110050Z AUTO VRB03KT 9999 -RA OVC006/// //////CB
                        12/11 Q1010 TEMPO RA=
201906110020 METAR COR EGLL 110020Z AUTO VRB01KT 4900 RA BKN006/// OVC017///
                        //////CB 11/11 Q1010 TEMPO 8000 NSW=
201906102350 METAR COR EGLL 102350Z AUTO VRB04KT 6000 -RA BKN005/// OVC015///
                        //////CB 11/11 Q1010 RERA REDZ TEMPO
                        RA=
201906102320 METAR EGLL 102320Z AUTO 01007KT 330V040 9999 -RA BKN010///
                        OVC026/// //////CB 11/11 Q1010=
201906102250 METAR COR EGLL 102250Z AUTO 01007KT 340V050 9999 -RA SCT009///
                        BKN012/// BKN020/// //////CB 11/11
                        Q1010 TEMPO SHRA BKN009=
201906102220 METAR COR EGLL 102220Z AUTO 01007KT 340V050 9999 -RA SCT009///
                        BKN013/// BKN018/// //////CB 12/11
                        Q1010 TEMPO RA BKN009=
201906102150 METAR COR EGLL 102150Z AUTO 01008KT 340V050 9000 -RA BKN008///
                        BKN013/// OVC020/// //////CB 11/11
                        Q1010 RERA TEMPO 4000 RA=
201906102120 METAR COR EGLL 102120Z AUTO 01007KT 340V050 4100 RA SCT009///
                        BKN014/// //////CB 11/11 Q1011 TEMPO
                        BKN009=
201906102050 METAR COR EGLL 102050Z AUTO 01006KT 340V050 9999 -RA BKN010///
                        //////CB 12/11 Q1011 TEMPO 4000 RA=
201906102020 METAR COR EGLL 102020Z AUTO 02007KT 340V080 6000 -RA BKN008///
                        //////CB 11/11 Q1011 RERA TEMPO 4000
                        SHRA=
201906101950 METAR COR EGLL 101950Z 03007KT 350V070 6000 RA BKN006CB OVC026
                        11/11 Q1011 TEMPO 4000 SHRA=
201906101920 METAR COR EGLL 101920Z AUTO 03007KT 350V060 9999 -RA OVC006///
                        //////CB 11/11 Q1011 TEMPO 4000 SHRA=
201906101850 METAR COR EGLL 101850Z AUTO 02009KT 340V060 9999 -RA OVC006///
                        //////CB 11/10 Q1011 TEMPO 4000 SHRA=
201906101820 METAR COR EGLL 101820Z AUTO 01011KT 340V050 8000 -RA OVC007///
                        //////CB 11/10 Q1011 TEMPO 4000 RA=
201906101750 METAR COR EGLL 101750Z AUTO 01009KT 350V050 7000 -RA OVC007///
                        //////CB 10/10 Q1011 TEMPO 4000 RA=
201906101720 METAR COR EGLL 101720Z AUTO 02007KT 330V050 9999 -RA OVC008///
                        //////CB 10/09 Q1012 TEMPO 4000 SHRA=
201906101650 METAR COR EGLL 101650Z AUTO 35007KT 310V030 6000 -RA BKN008///
                        OVC012/// //////CB 10/09 Q1012 RERA
                        TEMPO 4000 RA=
201906101620 METAR COR EGLL 101620Z AUTO 34006KT 300V040 6000 -RA BKN007///
                        OVC016/// //////CB 10/09 Q1013 RERA
                        TEMPO 4000 SHRA=
201906101550 METAR COR EGLL 101550Z AUTO 31008KT 280V340 3800 RA SCT012///
                        BKN018/// BKN022/// //////CB 10/09
                        Q1013 TEMPO +SHRA BKN012=
201906101520 METAR COR EGLL 101520Z AUTO 31007KT 4400 RA FEW016/// SCT020///
                        OVC026/// //////CB 10/09 Q1014 RERA
                        TEMPO +SHRA BKN014=
201906101450 METAR COR EGLL 101450Z AUTO 01008KT 340V050 3900 RA FEW015///
                        BKN032/// OVC039/// //////CB 09/09
                        Q1014 RERA TEMPO 6000 -SHRA BKN010=
201906101420 METAR EGLL 101420Z AUTO 02007KT 340V070 8000 -RA FEW013///
                        OVC044/// //////CB 11/10 Q1014=
201906101350 METAR COR EGLL 101350Z AUTO 01006KT 330V050 9000 -RA FEW013///
                        OVC044/// //////TCU 11/10 Q1014 TEMPO
                        SHRA BKN010=
201906101320 METAR COR EGLL 101320Z AUTO 01008KT 330V050 9000 -RA BKN010///
                        BKN023/// OVC048/// //////TCU 11/10
                        Q1014 TEMPO SHRA SCT010=
201906101250 METAR COR EGLL 101250Z AUTO 01006KT 340V060 8000 -RA SCT010///
                        SCT015/// BKN022/// //////TCU 12/11
                        Q1014 TEMPO SHRA=
201906101220 METAR COR EGLL 101220Z AUTO 36006KT 330V040 8000 -RA FEW015///
                        SCT031/// BKN042/// //////TCU 12/10
                        Q1015 TEMPO SHRA=
201906101150 METAR COR EGLL 101150Z AUTO 02005KT 340V050 9999 -RA SCT013///
                        BKN024/// BKN035/// //////TCU 12/11
                        Q1015 NOSIG=
201906101120 METAR EGLL 101120Z AUTO 02007KT 330V060 9999 -RA FEW016///
                        SCT023/// BKN043/// //////TCU 12/11
                        Q1015=
201906101050 METAR COR EGLL 101050Z AUTO 01006KT 340V050 9999 -RA SCT014
                        BKN020 BKN029 13/11 Q1015 NOSIG=
201906101020 METAR COR EGLL 101020Z AUTO 01007KT 9999 -RA SCT015/// SCT024///
                        BKN035/// //////TCU 13/11 Q1016 NOSIG=
201906100950 METAR COR EGLL 100950Z AUTO 01006KT 320V060 9999 -RA FEW033///
                        OVC047/// //////TCU 12/11 Q1016 NOSIG=
201906100920 METAR COR EGLL 100920Z AUTO 36006KT 310V030 9999 -RA SCT010///
                        BKN046/// //////TCU 12/11 Q1016 TEMPO
                        RA=
201906100850 METAR COR EGLL 100850Z AUTO 03006KT 340V060 9999 -RA FEW012
                        SCT030 BKN041 12/11 Q1016 TEMPO RA=
201906100820 METAR COR EGLL 100820Z AUTO 01004KT 9999 -RA FEW014 BKN032
                        BKN040 12/11 Q1016 TEMPO RA=
201906100750 METAR COR EGLL 100750Z AUTO 05004KT 020V080 9999 -RA FEW011
                        SCT027 BKN039 12/11 Q1016 TEMPO RA=
201906100720 METAR COR EGLL 100720Z AUTO 05004KT 010V090 9999 -RA FEW012
                        OVC042 12/10 Q1016 TEMPO RA=
201906100650 METAR COR EGLL 100650Z AUTO VRB02KT 9999 -RA FEW020 SCT039
                        12/11 Q1016 TEMPO RA=
201906100620 METAR COR EGLL 100620Z AUTO VRB02KT 9999 -RA FEW011 BKN038
                        12/11 Q1017 TEMPO RA=
201906100550 METAR COR EGLL 100550Z AUTO 08002KT 9999 -RA SCT035 BKN043
                        12/11 Q1017 TEMPO RA=
201906100520 METAR COR EGLL 100520Z AUTO 08003KT 9999 -RA //////TCU 12/11
                        Q1017 TEMPO RA=
201906100450 METAR COR EGLL 100450Z AUTO VRB01KT 9999 -RA //////TCU 12/11
                        Q1017 TEMPO RA=
201906100420 METAR EGLL 100420Z AUTO VRB02KT 9999 -RA //////TCU 11/10
                        Q1017=
201906100350 METAR COR EGLL 100350Z AUTO VRB01KT 9999 -RA SCT047/// //////TCU
                        11/10 Q1017 TEMPO RA=
201906100320 METAR COR EGLL 100320Z AUTO 29002KT 9999 -RA SCT049/// //////TCU
                        12/10 Q1017 TEMPO RA=
201906100250 METAR COR EGLL 100250Z AUTO VRB02KT 9999 -RA NCD 12/10 Q1017
                        TEMPO RA=
201906100220 METAR COR EGLL 100220Z AUTO VRB02KT 9999 -RA NCD 12/09 Q1018
                        TEMPO RA=
201906100150 METAR COR EGLL 100150Z AUTO 30003KT 9999 NCD 12/09 Q1018
                        TEMPO RA=
201906100120 METAR COR EGLL 100120Z AUTO 30004KT 9999 NCD 12/09 Q1018
                        NOSIG=
201906100050 METAR COR EGLL 100050Z AUTO 32004KT 9999 NCD 12/09 Q1018
                        NOSIG=
201906100020 METAR COR EGLL 100020Z AUTO 30004KT 9999 NCD 13/09 Q1018
                        NOSIG=
201906092350 METAR EGLL 092350Z AUTO VRB02KT 9999 NCD 13/08 Q1018=
201906092320 METAR COR EGLL 092320Z AUTO VRB02KT 9999 NCD 13/09 Q1019
                        NOSIG=
201906092250 METAR EGLL 092250Z AUTO 35003KT 9999 NCD 14/09 Q1019=
201906092220 METAR COR EGLL 092220Z AUTO VRB02KT 9999 NCD 14/09 Q1019
                        NOSIG=
201906092150 METAR COR EGLL 092150Z AUTO VRB02KT 9999 NCD 14/09 Q1019
                        NOSIG=
201906092120 METAR EGLL 092120Z AUTO VRB03KT 9999 NCD 14/08 Q1019=
201906092050 METAR EGLL 092050Z AUTO VRB02KT 9999 FEW049 14/08 Q1019=
201906092020 METAR COR EGLL 092020Z AUTO 28005KT 9999 NCD 14/08 Q1019
                        TEMPO SHRA=
201906091950 METAR COR EGLL 091950Z AUTO 20007KT 160V240 9999 -RA NCD
                        15/07 Q1019 TEMPO SHRA=
201906091920 METAR COR EGLL 091920Z AUTO 24006KT 9999 //////CB 15/06 Q1019
                        TEMPO SHRA=
201906091850 METAR COR EGLL 091850Z AUTO 21009KT 9999 //////CB 16/09 Q1019
                        TEMPO SHRA=
201906091820 METAR COR EGLL 091820Z AUTO 20009KT 170V240 9999 //////CB
                        17/08 Q1019 TEMPO SHRA=
201906091750 METAR COR EGLL 091750Z AUTO 23005KT 190V260 9999 //////TCU
                        17/08 Q1019 TEMPO SHRA=
201906091720 METAR COR EGLL 091720Z AUTO 21005KT 150V240 9999 //////CB
                        17/07 Q1019 TEMPO SHRA=
201906091650 METAR COR EGLL 091650Z AUTO 11004KT 060V160 9999 //////CB
                        17/08 Q1019 TEMPO SHRA=
201906091620 METAR COR EGLL 091620Z AUTO 10005KT 060V130 9999 NCD 16/08
                        Q1019 TEMPO SHRA=
201906091550 METAR COR EGLL 091550Z AUTO VRB03KT 9999 FEW049/// //////TCU
                        16/08 Q1019 TEMPO SHRA=
201906091520 METAR COR EGLL 091520Z AUTO 13006KT 9999 -RA FEW038/// BKN046///
                        //////CB 14/09 Q1020 TEMPO SHRA=
201906091450 METAR EGLL 091450Z AUTO 22010KT 170V250 9999 OVC049/// //////CB
                        17/06 Q1019=
201906091420 METAR COR EGLL 091420Z AUTO 19007KT 150V240 9999 //////TCU
                        18/05 Q1019 TEMPO SHRA=
201906091350 METAR COR EGLL 091350Z AUTO 21007KT 140V240 9999 NCD 19/05
                        Q1020 NOSIG=
201906091320 METAR COR EGLL 091320Z AUTO 23005KT 160V310 9999 NCD 20/05
                        Q1020 NOSIG=
201906091250 METAR COR EGLL 091250Z AUTO 22005KT 140V320 9999 NCD 19/05
                        Q1020 NOSIG=
201906091220 METAR EGLL 091220Z AUTO 18005KT 140V260 9999 FEW047 18/06
                        Q1020=
201906091150 METAR COR EGLL 091150Z AUTO 24007KT 210V290 9999 NCD 17/07
                        Q1020 NOSIG=
201906091120 METAR COR EGLL 091120Z AUTO 22005KT 160V280 9999 FEW044 17/07
                        Q1021 NOSIG=
201906091050 METAR COR EGLL 091050Z AUTO 26005KT 200V330 9999 SCT045 17/06
                        Q1021 NOSIG=
201906091020 METAR COR EGLL 091020Z AUTO 26006KT 220V310 9999 BKN037 BKN047
                        18/06 Q1021 NOSIG=
201906090950 METAR COR EGLL 090950Z AUTO 26005KT 230V300 9999 SCT034 BKN040
                        17/07 Q1021 NOSIG=
201906090920 METAR COR EGLL 090920Z AUTO 23007KT 180V280 9999 FEW035 SCT042
                        17/08 Q1022 NOSIG=
201906090850 METAR COR EGLL 090850Z AUTO 20006KT 160V280 9999 FEW033 16/08
                        Q1022 NOSIG=
201906090820 METAR COR EGLL 090820Z AUTO 18007KT 120V230 9999 NCD 15/08
                        Q1022 NOSIG=
201906090750 METAR COR EGLL 090750Z AUTO 24006KT 180V280 9999 NCD 14/09
                        Q1022 NOSIG=
201906090720 METAR COR EGLL 090720Z AUTO 24005KT 200V280 9999 NCD 13/09
                        Q1022 NOSIG=
201906090650 METAR COR EGLL 090650Z AUTO 26004KT 230V300 9999 NCD 13/09
                        Q1022 NOSIG=
201906090620 METAR COR EGLL 090620Z AUTO 25004KT 190V280 9999 NCD 12/09
                        Q1022 NOSIG=
201906090550 METAR COR EGLL 090550Z AUTO 25005KT 9999 NCD 11/09 Q1021
                        NOSIG=
201906090520 METAR COR EGLL 090520Z AUTO 21005KT 170V250 9999 NCD 10/09
                        Q1021 NOSIG=
201906090450 METAR COR EGLL 090450Z AUTO 19005KT 170V260 9999 NCD 09/08
                        Q1021 NOSIG=
201906090420 METAR COR EGLL 090420Z AUTO 24005KT 9999 NCD 09/08 Q1021
                        NOSIG=
201906090350 METAR COR EGLL 090350Z AUTO 22004KT 9999 NCD 10/08 Q1021
                        NOSIG=
201906090320 METAR COR EGLL 090320Z AUTO 23004KT 9999 NCD 10/08 Q1021
                        NOSIG=
201906090250 METAR COR EGLL 090250Z AUTO 21004KT 9999 NCD 10/09 Q1021
                        NOSIG=
201906090220 METAR COR EGLL 090220Z AUTO 22005KT 9999 NCD 10/09 Q1021
                        NOSIG=
201906090150 METAR COR EGLL 090150Z AUTO 22005KT 9999 NCD 10/09 Q1021
                        NOSIG=
201906090120 METAR COR EGLL 090120Z AUTO 21005KT 9999 NCD 10/09 Q1021
                        NOSIG=
201906090050 METAR COR EGLL 090050Z AUTO 22006KT 9999 NCD 11/09 Q1021
                        NOSIG=
201906090020 METAR COR EGLL 090020Z AUTO 23006KT 9999 NCD 11/09 Q1021
                        NOSIG=
201906082350 METAR COR EGLL 082350Z AUTO 23005KT 9999 NCD 11/09 Q1021
                        NOSIG=
201906082320 METAR COR EGLL 082320Z AUTO 24006KT 9999 NCD 11/09 Q1021
                        NOSIG=
201906082250 METAR COR EGLL 082250Z AUTO 23007KT 200V260 9999 NCD 12/09
                        Q1021 NOSIG=
201906082220 METAR COR EGLL 082220Z AUTO 22009KT 9999 NCD 12/09 Q1020
                        NOSIG=
201906082150 METAR COR EGLL 082150Z AUTO 22008KT 9999 NCD 13/09 Q1020
                        NOSIG=
201906082120 METAR COR EGLL 082120Z AUTO 23008KT 9999 NCD 14/08 Q1020
                        NOSIG=
201906082050 METAR COR EGLL 082050Z AUTO 24008KT 9999 NCD 14/08 Q1020
                        NOSIG=
201906082020 METAR COR EGLL 082020Z AUTO 26010KT 9999 NCD 15/07 Q1019
                        NOSIG=
201906081950 METAR COR EGLL 081950Z AUTO 26013KT 9999 NCD 15/07 Q1018
                        NOSIG=
201906081920 METAR COR EGLL 081920Z AUTO 24013KT 9999 NCD 16/06 Q1018
                        NOSIG=
201906081850 METAR COR EGLL 081850Z AUTO 25016KT 9999 NCD 16/06 Q1018
                        NOSIG=
201906081820 METAR COR EGLL 081820Z AUTO 25016KT 9999 BKN049 17/06 Q1017
                        NOSIG=
201906081750 METAR COR EGLL 081750Z AUTO 26018KT 9999 NCD 17/05 Q1017
                        NOSIG=
201906081720 METAR COR EGLL 081720Z AUTO 26020KT 9999 NCD 18/04 Q1017
                        NOSIG=
201906081650 METAR COR EGLL 081650Z AUTO 26018KT 9999 NCD 18/05 Q1016
                        NOSIG=
201906081620 METAR COR EGLL 081620Z AUTO 25022KT 9999 NCD 18/05 Q1016
                        NOSIG=
201906081550 METAR COR EGLL 081550Z AUTO 26020KT 9999 NCD 18/06 Q1016
                        NOSIG=
201906081520 METAR COR EGLL 081520Z AUTO 24021G31KT 9999 NCD 18/05 Q1015
                        NOSIG=
201906081450 METAR COR EGLL 081450Z AUTO 25020KT 9999 SCT049 18/05 Q1015
                        NOSIG=
201906081420 METAR COR EGLL 081420Z AUTO 26023KT 9999 NCD 18/06 Q1014
                        NOSIG=
201906081350 METAR COR EGLL 081350Z AUTO 26020G30KT 9999 NCD 19/05 Q1014
                        NOSIG=
201906081320 METAR COR EGLL 081320Z AUTO 25021KT 9999 SCT044 19/07 Q1014
                        NOSIG=
201906081250 METAR COR EGLL 081250Z AUTO 25021G32KT 9999 FEW040 18/07
                        Q1013 NOSIG=
201906081220 METAR COR EGLL 081220Z AUTO 26021KT 9999 FEW040/// SCT047///
                        //////CB 17/08 Q1013 NOSIG=
201906081150 METAR COR EGLL 081150Z AUTO 27022KT 9999 FEW043 18/07 Q1012
                        NOSIG=
201906081120 METAR COR EGLL 081120Z AUTO 25024KT 9999 SCT034 SCT043 BKN049
                        17/08 Q1012 NOSIG=
201906081050 METAR COR EGLL 081050Z AUTO 25021KT 9999 SCT030 17/09 Q1012
                        NOSIG=
201906081020 METAR COR EGLL 081020Z AUTO 24022KT 9999 FEW029 16/10 Q1011
                        NOSIG=
201906080950 METAR COR EGLL 080950Z AUTO 24021KT 9999 FEW027 SCT044 16/10
                        Q1011 NOSIG=
201906080920 METAR COR EGLL 080920Z AUTO 24022KT 9999 SCT025 BKN045 15/10
                        Q1010 NOSIG=
201906080850 METAR COR EGLL 080850Z AUTO 25019KT 9999 SCT025 15/11 Q1010
                        NOSIG=
201906080820 METAR COR EGLL 080820Z AUTO 24018KT 9999 NCD 13/10 Q1009
                        NOSIG=
201906080750 METAR COR EGLL 080750Z AUTO 24018KT 9999 -RA OVC048 13/10
                        Q1009 NOSIG=
201906080720 METAR COR EGLL 080720Z AUTO 25016KT 9999 -RA FEW020 SCT027
                        BKN049 12/10 Q1008 NOSIG=
201906080650 METAR COR EGLL 080650Z AUTO 25017KT 9999 -RA SCT016 BKN022
                        OVC048 12/10 Q1007 NOSIG=
201906080620 METAR COR EGLL 080620Z AUTO 25017KT 9999 -RA SCT016 BKN029
                        BKN038 12/10 Q1007 NOSIG=
201906080550 METAR COR EGLL 080550Z AUTO 25018KT 9999 -RA FEW020 SCT038
                        OVC044 12/10 Q1006 NOSIG=
201906080520 METAR COR EGLL 080520Z AUTO 25017KT 9999 SCT020 BKN029 BKN034
                        12/10 Q1005 TEMPO RA=
201906080450 METAR EGLL 080450Z AUTO 26014KT 9999 -RA BKN011 OVC019 12/11
                        Q1004=
201906080420 METAR COR EGLL 080420Z AUTO 24011KT 9999 -RA BKN010 BKN016
                        BKN021 11/10 Q1004 TEMPO SCT010=
201906080350 METAR COR EGLL 080350Z AUTO 23010KT 8000 BKN009 OVC015 11/10
                        Q1003 TEMPO SCT009=
201906080320 METAR COR EGLL 080320Z AUTO 23010KT 9999 -RA BKN014 OVC019
                        12/10 Q1003 TEMPO SCT014=
201906080250 METAR COR EGLL 080250Z AUTO 23011KT 9999 BKN013 BKN028 12/11
                        Q1003 TEMPO BKN012=
201906080220 METAR COR EGLL 080220Z AUTO 24011KT 9999 SCT012 SCT037 12/11
                        Q1003 NOSIG=
201906080150 METAR COR EGLL 080150Z AUTO 25010KT 9999 SCT013 SCT022 BKN032
                        12/11 Q1002 NOSIG=
201906080120 METAR COR EGLL 080120Z AUTO 24011KT 9999 FEW021 BKN027 12/12
                        Q1002 NOSIG=
201906080050 METAR COR EGLL 080050Z AUTO 23009KT 9999 SCT045 12/12 Q1001
                        NOSIG=
201906080020 METAR COR EGLL 080020Z AUTO 27009KT 9999 -RA SCT035/// BKN045///
                        //////CB 12/12 Q1001 NOSIG=
201906072350 METAR COR EGLL 072350Z 28008KT 8000 -SHRA FEW008CB SCT025
                        BKN035 12/12 Q1000 RESHRA NOSIG=
201906072320 METAR COR EGLL 072320Z 29008KT 7000 SHRA SCT018CB BKN030
                        BKN040 13/12 Q1000 NOSIG=
201906072250 METAR COR EGLL 072250Z AUTO 28009KT 9999 BKN021/// //////CB
                        14/12 Q1000 TEMPO SHRA=
201906072220 METAR COR EGLL 072220Z AUTO 28005KT 9999 SCT020/// BKN026///
                        //////CB 14/11 Q0999 TEMPO SHRA=
201906072150 METAR COR EGLL 072150Z AUTO 29003KT 9999 SCT022 BKN028 15/11
                        Q0999 TEMPO SHRA=
201906072120 METAR COR EGLL 072120Z AUTO 32003KT 9999 SCT023 15/11 Q0999
                        TEMPO SHRA=
201906072050 METAR COR EGLL 072050Z AUTO 02002KT 9999 NCD 14/11 Q0998
                        TEMPO SHRA=
201906072020 METAR COR EGLL 072020Z AUTO 08004KT 9999 FEW029 14/11 Q0998
                        TEMPO SHRA=
201906071950 METAR COR EGLL 071950Z AUTO 08005KT 9999 BKN028 15/11 Q0998
                        TEMPO SHRA=
201906071920 METAR COR EGLL 071920Z AUTO 09007KT 9999 NCD 15/11 Q0998
                        TEMPO SHRA=
201906071850 METAR COR EGLL 071850Z AUTO 08006KT 9999 FEW023 SCT046 15/12
                        Q0998 TEMPO SHRA=
201906071820 METAR COR EGLL 071820Z AUTO 07007KT 040V100 9999 FEW043 14/11
                        Q0998 TEMPO SHRA=
201906071750 METAR COR EGLL 071750Z AUTO 11007KT 9999 -RA SCT041 BKN048
                        14/11 Q0999 TEMPO SHRA=
201906071720 METAR COR EGLL 071720Z AUTO 13011KT 9999 -RA FEW035/// //////CB
                        15/11 Q0999 TEMPO SHRA=
201906071650 METAR COR EGLL 071650Z AUTO 13012KT 9999 -RA SCT037 17/10
                        Q0999 TEMPO SHRA=
201906071620 METAR COR EGLL 071620Z AUTO 13012KT 9999 FEW037/// //////CB
                        18/10 Q0999 TEMPO 4000 SHRA=
201906071550 METAR COR EGLL 071550Z AUTO 12012KT 9999 FEW033/// //////TCU
                        18/11 Q0999 TEMPO SHRA=
201906071520 METAR COR EGLL 071520Z AUTO 13009KT 080V170 9999 FEW024 19/12
                        Q0999 TEMPO SHRA=
201906071450 METAR COR EGLL 071450Z AUTO 14009KT 110V190 9999 SCT021 SCT030
                        17/12 Q1000 NOSIG=
201906071420 METAR COR EGLL 071420Z AUTO 15010KT 9999 SCT014 BKN018 BKN025
                        16/13 Q1000 TEMPO BKN014=
201906071350 METAR COR EGLL 071350Z AUTO 12007KT 9999 -RA SCT012 SCT028
                        15/13 Q1000 TEMPO SHRA BKN012=
201906071320 METAR COR EGLL 071320Z AUTO 11009KT 9999 -RA FEW015/// //////CB
                        14/13 Q1000 TEMPO SHRA BKN010=
201906071250 METAR COR EGLL 071250Z AUTO 13009KT 9999 SCT012/// BKN029///
                        BKN044/// //////TCU 14/13 Q1001 TEMPO
                        SHRA BKN012=
201906071220 METAR COR EGLL 071220Z AUTO 10011KT 9000 -RA FEW016 BKN036
                        BKN046 14/13 Q1000 TEMPO SHRA=
201906071150 METAR COR EGLL 071150Z AUTO 12012KT 9999 -RA SCT017/// BKN024///
                        BKN031/// //////TCU 13/12 Q1001 TEMPO
                        SHRA=
201906071120 METAR COR EGLL 071120Z AUTO 12014KT 9999 -RA BKN020/// BKN028///
                        OVC043/// //////TCU 13/12 Q1001 TEMPO
                        SHRA=
201906071050 METAR COR EGLL 071050Z AUTO 11012KT 9999 -RA SCT026/// BKN031///
                        BKN039/// //////TCU 14/12 Q1001 TEMPO
                        RA=
201906071020 METAR COR EGLL 071020Z AUTO 10012KT 9999 -RA BKN031 14/12
                        Q1001 TEMPO RA=
201906070950 METAR COR EGLL 070950Z AUTO 10009KT 9999 -RA BKN037 14/11
                        Q1002 TEMPO RA=
201906070920 METAR COR EGLL 070920Z AUTO 09010KT 9999 NCD 14/12 Q1002
                        TEMPO RA=
201906070850 METAR COR EGLL 070850Z AUTO 06008KT 020V080 9999 -RA NCD
                        14/12 Q1002 TEMPO RA=
201906070820 METAR COR EGLL 070820Z AUTO 07009KT 9999 -RA //////TCU 13/12
                        Q1003 TEMPO RA=
201906070750 METAR COR EGLL 070750Z AUTO 08011KT 9999 -RA NCD 14/11 Q1003
                        TEMPO RA=
201906070720 METAR COR EGLL 070720Z AUTO 09010KT 9999 -RA NCD 14/11 Q1004
                        TEMPO RA=
201906070650 METAR COR EGLL 070650Z AUTO 09011KT 9999 -RA NCD 14/10 Q1004
                        TEMPO RA=
201906070620 METAR COR EGLL 070620Z AUTO 09012KT 9999 NCD 15/10 Q1004
                        TEMPO 6000 RA=
201906070550 METAR COR EGLL 070550Z AUTO 08009KT 9999 NCD 14/10 Q1005
                        NOSIG=
201906070520 METAR COR EGLL 070520Z AUTO 08008KT 9999 NCD 14/10 Q1006
                        TEMPO RA=
201906070450 METAR COR EGLL 070450Z AUTO 08007KT 9999 NCD 13/10 Q1006
                        TEMPO RA=
201906070420 METAR COR EGLL 070420Z AUTO 08007KT 9999 NCD 13/09 Q1006
                        NOSIG=
201906070350 METAR COR EGLL 070350Z AUTO 08008KT 9999 NCD 13/09 Q1007
                        NOSIG=
201906070320 METAR COR EGLL 070320Z AUTO 07007KT 9999 NCD 13/09 Q1007
                        NOSIG=
201906070250 METAR COR EGLL 070250Z AUTO 07007KT 9999 NCD 13/08 Q1008
                        NOSIG=
201906070220 METAR COR EGLL 070220Z AUTO 07007KT 9999 NCD 13/08 Q1008
                        NOSIG=
201906070150 METAR COR EGLL 070150Z AUTO 08008KT 9999 NCD 13/07 Q1009
                        NOSIG=
201906070120 METAR EGLL 070120Z AUTO 09008KT 9999 NCD 13/07 Q1009=
201906070050 METAR COR EGLL 070050Z AUTO 08007KT 9999 NCD 13/07 Q1010
                        NOSIG=
201906070020 METAR COR EGLL 070020Z AUTO 10008KT 9999 NCD 12/06 Q1010
                        NOSIG=
201906062350 METAR COR EGLL 062350Z AUTO 08006KT 9999 NCD 11/06 Q1010
                        NOSIG=
201906062320 METAR COR EGLL 062320Z AUTO 08005KT 9999 NCD 10/06 Q1011
                        NOSIG=
201906062250 METAR COR EGLL 062250Z AUTO 10006KT 9999 NCD 11/05 Q1011
                        NOSIG=
201906062220 METAR COR EGLL 062220Z AUTO 12006KT 9999 NCD 11/05 Q1011
                        NOSIG=
201906062150 METAR COR EGLL 062150Z AUTO 14006KT 9999 NCD 13/05 Q1011
                        NOSIG=
201906062120 METAR COR EGLL 062120Z AUTO 14006KT 9999 NCD 14/05 Q1011
                        NOSIG=
201906062050 METAR COR EGLL 062050Z AUTO 14005KT 110V180 9999 NCD 14/05
                        Q1011 NOSIG=
201906062020 METAR COR EGLL 062020Z AUTO 17007KT 130V200 9999 NCD 16/04
                        Q1011 NOSIG=
201906061950 METAR COR EGLL 061950Z AUTO 18011KT 9999 NCD 16/05 Q1011
                        NOSIG=
201906061920 METAR COR EGLL 061920Z AUTO 20009KT 150V250 9999 NCD 17/03
                        Q1011 NOSIG=
201906061850 METAR COR EGLL 061850Z AUTO 19008KT 140V230 9999 NCD 17/04
                        Q1011 NOSIG=
201906061820 METAR COR EGLL 061820Z AUTO 19009KT 140V220 9999 NCD 17/03
                        Q1010 NOSIG=
201906061750 METAR COR EGLL 061750Z AUTO 20010G20KT 9999 NCD 18/02 Q1010
                        NOSIG=
201906061720 METAR COR EGLL 061720Z AUTO 20010KT 160V230 9999 NCD 18/01
                        Q1011 NOSIG=
201906061650 METAR COR EGLL 061650Z AUTO 22011KT 9999 NCD 18/01 Q1011
                        NOSIG=
201906061620 METAR COR EGLL 061620Z AUTO 20012KT 180V240 9999 NCD 19/01
                        Q1011 NOSIG=
201906061550 METAR COR EGLL 061550Z AUTO 21012KT 9999 NCD 19/01 Q1011
                        NOSIG=
201906061520 METAR COR EGLL 061520Z AUTO 20012KT 170V240 9999 NCD 19/02
                        Q1011 NOSIG=
201906061450 METAR COR EGLL 061450Z AUTO 19012G22KT 140V210 9999 NCD 19/02
                        Q1011 NOSIG=
201906061420 METAR COR EGLL 061420Z AUTO 19014G24KT 160V230 9999 NCD 18/03
                        Q1011 NOSIG=
201906061350 METAR EGLL 061350Z AUTO 20014KT 170V250 9999 NCD 18/05 Q1011=
201906061320 METAR COR EGLL 061320Z AUTO 21014KT 9999 NCD 18/04 Q1011
                        NOSIG=
201906061250 METAR COR EGLL 061250Z AUTO 21010KT 180V240 9999 NCD 19/04
                        Q1011 NOSIG=
201906061220 METAR COR EGLL 061220Z AUTO 19015KT 170V230 9999 NCD 18/05
                        Q1011 NOSIG=
201906061150 METAR COR EGLL 061150Z AUTO 18013G23KT 150V240 9999 NCD 19/03
                        Q1011 NOSIG=
201906061120 METAR COR EGLL 061120Z AUTO 23010KT 170V260 9999 SCT049///
                        //////CB 18/05 Q1010 NOSIG=
201906061050 METAR COR EGLL 061050Z AUTO 21011KT 170V250 9999 FEW046 17/06
                        Q1010 TEMPO SHRA=
201906061020 METAR COR EGLL 061020Z AUTO 21007KT 120V270 9999 SCT042 BKN049
                        17/06 Q1010 TEMPO SHRA=
201906060950 METAR COR EGLL 060950Z AUTO 20010KT 160V260 9999 FEW044 17/07
                        Q1010 TEMPO SHRA=
201906060920 METAR COR EGLL 060920Z AUTO 24012KT 9999 FEW041/// SCT049///
                        //////CB 15/05 Q1010 NOSIG=
201906060850 METAR COR EGLL 060850Z AUTO 24010KT 220V280 9999 FEW037 SCT043
                        15/05 Q1010 NOSIG=
201906060820 METAR COR EGLL 060820Z AUTO 26009KT 220V290 9999 FEW028 SCT032
                        BKN048 15/07 Q1010 NOSIG=
201906060750 METAR COR EGLL 060750Z AUTO 26007KT 210V300 9999 BKN024 BKN031
                        BKN046 13/08 Q1010 NOSIG=
201906060720 METAR COR EGLL 060720Z AUTO 26006KT 210V300 9999 BKN021 BKN028
                        13/08 Q1010 NOSIG=
201906060650 METAR COR EGLL 060650Z AUTO 28006KT 9999 NCD 13/08 Q1010
                        NOSIG=
201906060620 METAR COR EGLL 060620Z AUTO 24008KT 9999 NCD 12/08 Q1009
                        NOSIG=
201906060550 METAR COR EGLL 060550Z AUTO 23007KT 190V260 9999 NCD 11/08
                        Q1009 NOSIG=
201906060520 METAR COR EGLL 060520Z AUTO 23007KT 9999 NCD 11/08 Q1009
                        NOSIG=
201906060450 METAR COR EGLL 060450Z AUTO 23007KT 9999 SCT030 10/08 Q1009
                        NOSIG=
201906060420 METAR COR EGLL 060420Z AUTO 22004KT 190V270 9999 SCT033 BKN045
                        10/08 Q1009 NOSIG=
201906060350 METAR COR EGLL 060350Z AUTO VRB03KT 9999 NCD 10/08 Q1009
                        NOSIG=
201906060320 METAR COR EGLL 060320Z AUTO 26004KT 9999 NCD 10/08 Q1009
                        NOSIG=
201906060250 METAR COR EGLL 060250Z AUTO 27003KT 9999 NCD 10/08 Q1009
                        NOSIG=
201906060220 METAR COR EGLL 060220Z AUTO 25006KT 9999 NCD 10/08 Q1008
                        NOSIG=
201906060150 METAR COR EGLL 060150Z AUTO 22007KT 9999 BKN045 11/08 Q1008
                        NOSIG=
201906060120 METAR COR EGLL 060120Z AUTO 24007KT 9999 NCD 11/08 Q1008
                        NOSIG=
201906060050 METAR COR EGLL 060050Z AUTO 24007KT 9999 NCD 11/08 Q1008
                        NOSIG=
201906060020 METAR COR EGLL 060020Z AUTO 24004KT 9999 NCD 12/08 Q1008
                        NOSIG=
201906052350 METAR COR EGLL 052350Z AUTO 24006KT 9999 NCD 12/08 Q1008
                        NOSIG=
201906052320 METAR COR EGLL 052320Z AUTO 23007KT 9999 NCD 12/08 Q1007
                        NOSIG=
201906052250 METAR COR EGLL 052250Z AUTO 22008KT 9999 NCD 13/08 Q1007
                        NOSIG=
201906052220 METAR COR EGLL 052220Z AUTO 23009KT 9999 NCD 13/07 Q1008
                        NOSIG=
201906052150 METAR COR EGLL 052150Z AUTO 22008KT 9999 NCD 14/07 Q1008
                        NOSIG=
201906052120 METAR COR EGLL 052120Z AUTO 22007KT 9999 NCD 14/07 Q1008
                        NOSIG=
201906052050 METAR COR EGLL 052050Z AUTO 23007KT 9999 NCD 15/07 Q1008
                        NOSIG=
201906052020 METAR COR EGLL 052020Z AUTO 24008KT 9999 NCD 16/07 Q1007
                        NOSIG=
201906051950 METAR COR EGLL 051950Z 23008KT CAVOK 16/07 Q1007 NOSIG=
201906051920 METAR COR EGLL 051920Z 22009KT 180V250 CAVOK 16/08 Q1007
                        NOSIG=
201906051850 METAR COR EGLL 051850Z 21010KT 170V230 CAVOK 16/08 Q1007
                        NOSIG=
201906051820 METAR COR EGLL 051820Z AUTO 21009KT 180V240 9999 NCD 17/08
                        Q1007 NOSIG=
201906051750 METAR COR EGLL 051750Z AUTO 21009KT 9999 NCD 17/07 Q1006
                        NOSIG=
201906051720 METAR COR EGLL 051720Z AUTO 22009KT 9999 NCD 17/07 Q1007
                        NOSIG=
201906051650 METAR COR EGLL 051650Z AUTO 21008KT 180V250 9999 FEW049 17/07
                        Q1007 NOSIG=
201906051620 METAR COR EGLL 051620Z AUTO 21009KT 190V250 9999 SCT044 17/08
                        Q1007 NOSIG=
201906051550 METAR COR EGLL 051550Z AUTO 21008KT 180V240 9999 FEW043 17/08
                        Q1007 NOSIG=
201906051520 METAR COR EGLL 051520Z AUTO 23009KT 200V260 9999 FEW043 18/07
                        Q1006 NOSIG=
201906051450 METAR COR EGLL 051450Z AUTO 24009KT 9999 FEW046 18/06 Q1006
                        NOSIG=
201906051420 METAR COR EGLL 051420Z AUTO 26007KT 220V290 9999 NCD 18/06
                        Q1006 NOSIG=
201906051350 METAR COR EGLL 051350Z AUTO 24009KT 9999 SCT047 18/06 Q1006
                        NOSIG=
201906051320 METAR COR EGLL 051320Z AUTO 26009KT 220V300 9999 SCT049 18/07
                        Q1006 NOSIG=
201906051250 METAR COR EGLL 051250Z AUTO 28009KT 9999 BKN047 18/05 Q1006
                        NOSIG=
201906051220 METAR COR EGLL 051220Z AUTO 27011KT 9999 SCT047 18/06 Q1007
                        NOSIG=
201906051150 METAR COR EGLL 051150Z AUTO 25011KT 220V280 9999 NCD 18/06
                        Q1007 NOSIG=
201906051120 METAR COR EGLL 051120Z AUTO 24012KT 210V270 9999 FEW046 18/06
                        Q1007 NOSIG=
201906051050 METAR COR EGLL 051050Z AUTO 27010KT 9999 FEW045 18/07 Q1006
                        NOSIG=
201906051020 METAR COR EGLL 051020Z AUTO 22010KT 190V260 9999 SCT041 18/07
                        Q1006 NOSIG=
201906050950 METAR COR EGLL 050950Z AUTO 23011KT 190V250 9999 SCT039 16/07
                        Q1006 NOSIG=
201906050920 METAR COR EGLL 050920Z AUTO 23011KT 200V260 9999 SCT036 BKN044
                        17/07 Q1006 NOSIG=
201906050850 METAR COR EGLL 050850Z AUTO 24011KT 210V280 9999 BKN034 BKN044
                        16/07 Q1006 NOSIG=
201906050820 METAR COR EGLL 050820Z AUTO 24010KT 9999 SCT031 16/08 Q1006
                        NOSIG=
201906050750 METAR COR EGLL 050750Z AUTO 24010KT 210V270 9999 FEW033 15/08
                        Q1006 NOSIG=
201906050720 METAR COR EGLL 050720Z AUTO 25011KT 9999 FEW026 15/08 Q1006
                        NOSIG=
201906050650 METAR COR EGLL 050650Z AUTO 24010KT 9999 NCD 14/09 Q1005
                        NOSIG=
201906050620 METAR COR EGLL 050620Z AUTO 24009KT 9999 FEW017 13/10 Q1005
                        NOSIG=
201906050550 METAR COR EGLL 050550Z AUTO 22009KT 9999 NCD 13/10 Q1005
                        NOSIG=
201906050520 METAR COR EGLL 050520Z AUTO 23010KT 9999 NCD 12/11 Q1005
                        NOSIG=
201906050450 METAR COR EGLL 050450Z AUTO 22010KT 9999 FEW014 12/11 Q1005
                        NOSIG=
201906050420 METAR COR EGLL 050420Z AUTO 21007KT 9999 FEW034 BKN041 12/11
                        Q1004 NOSIG=
201906050350 METAR COR EGLL 050350Z AUTO 20006KT 9999 FEW042 12/11 Q1004
                        NOSIG=
201906050320 METAR COR EGLL 050320Z AUTO 22006KT 9999 FEW022 12/11 Q1003
                        NOSIG=
201906050250 METAR COR EGLL 050250Z AUTO 23007KT 9999 BKN019 BKN047 13/11
                        Q1003 TEMPO BKN014=
201906050220 METAR COR EGLL 050220Z AUTO 23008KT 9999 NCD 13/11 Q1003
                        TEMPO BKN012=
201906050150 METAR COR EGLL 050150Z AUTO 22007KT 9999 OVC049 13/11 Q1003
                        TEMPO BKN012=
201906050120 METAR COR EGLL 050120Z AUTO 23009KT 9999 BKN049 13/12 Q1003
                        NOSIG=
201906050050 METAR COR EGLL 050050Z AUTO 22008KT 9999 OVC047 13/12 Q1003
                        NOSIG=
201906050020 METAR COR EGLL 050020Z AUTO 21008KT 9999 OVC045/// 13/12
                        Q1003 NOSIG=
201906042350 METAR COR EGLL 042350Z AUTO 19008KT 9999 OVC046 13/12 Q1003
                        NOSIG=
201906042320 METAR COR EGLL 042320Z AUTO 18004KT 9999 BKN045 13/12 Q1003
                        NOSIG=
201906042250 METAR COR EGLL 042250Z AUTO 21006KT 9999 NCD 13/11 Q1003
                        NOSIG=
201906042220 METAR COR EGLL 042220Z AUTO 23008KT 9999 NCD 14/11 Q1002
                        NOSIG=
201906042150 METAR COR EGLL 042150Z AUTO 21007KT 9999 NCD 15/12 Q1002
                        NOSIG=
201906042120 METAR COR EGLL 042120Z AUTO 22007KT 9999 NCD 15/12 Q1002
                        NOSIG=
201906042050 METAR COR EGLL 042050Z AUTO 22008KT 9999 -RA NCD 16/12 Q1002
                        NOSIG=
201906042020 METAR COR EGLL 042020Z AUTO 23010KT 9999 NCD 16/11 Q1002
                        NOSIG=
201906041950 METAR COR EGLL 041950Z AUTO 22010KT 9999 NCD 16/12 Q1002
                        NOSIG=
201906041920 METAR COR EGLL 041920Z AUTO 21011KT 9999 BKN022 16/12 Q1002
                        NOSIG=
201906041850 METAR COR EGLL 041850Z AUTO 22009KT 9999 FEW023 SCT027 17/12
                        Q1002 NOSIG=
201906041820 METAR COR EGLL 041820Z AUTO 22011KT 9999 FEW019 SCT027 BKN031
                        17/13 Q1001 NOSIG=
201906041750 METAR COR EGLL 041750Z AUTO 21009KT 9999 FEW017 BKN022 17/14
                        Q1001 NOSIG=
201906041720 METAR COR EGLL 041720Z AUTO 20010KT 9999 SCT017 BKN022 BKN027
                        17/14 Q1001 NOSIG=
201906041650 METAR COR EGLL 041650Z AUTO 19008KT 9999 BKN012 BKN022 17/15
                        Q1001 BECMG SCT012 BKN022=
201906041620 METAR COR EGLL 041620Z AUTO 16009KT 9999 BKN009 BKN014 17/16
                        Q1001 TEMPO BKN016=
201906041550 METAR COR EGLL 041550Z AUTO 15007KT 9000 -RA SCT007 BKN011
                        16/15 Q1002 BECMG BKN016=
201906041520 METAR COR EGLL 041520Z AUTO 11006KT 080V140 6000 -RA SCT007
                        BKN012 15/15 Q1002 TEMPO BKN016=
201906041450 METAR COR EGLL 041450Z 12007KT 7000 -SHRA BKN010TCU OVC017
                        15/14 Q1003 TEMPO SCT010=
201906041420 METAR COR EGLL 041420Z AUTO 10006KT 9999 -RA BKN010 OVC017
                        16/14 Q1003 TEMPO RA=
201906041350 METAR COR EGLL 041350Z AUTO 11006KT 7000 SHRA OVC014TCU 15/14
                        Q1003 RERA TEMPO -SHRA BKN016=
201906041320 METAR COR EGLL 041320Z AUTO 11011KT 9999 OVC016/// //////TCU
                        16/12 Q1003 TEMPO RA=
201906041250 METAR COR EGLL 041250Z AUTO 10011KT 9999 OVC017 16/12 Q1004
                        TEMPO RA=
201906041220 METAR COR EGLL 041220Z AUTO 10014KT 9999 BKN018 OVC037 17/12
                        Q1004 TEMPO RA=
201906041150 METAR COR EGLL 041150Z AUTO 11012KT 9999 -RA BKN022/// BKN038///
                        //////TCU 16/12 Q1004 NOSIG=
201906041120 METAR COR EGLL 041120Z AUTO 12010KT 9999 -RA BKN025 BKN031
                        OVC040 16/12 Q1005 NOSIG=
201906041050 METAR COR EGLL 041050Z AUTO 11009KT 9999 -RA BKN021 BKN032
                        OVC046 16/11 Q1006 NOSIG=
201906041020 METAR COR EGLL 041020Z AUTO 11011KT 9999 BKN021 16/11 Q1006
                        NOSIG=
201906040950 METAR COR EGLL 040950Z AUTO 10010KT 9999 BKN024 16/10 Q1006
                        NOSIG=
201906040920 METAR COR EGLL 040920Z AUTO 10009KT 9999 BKN026 15/09 Q1007
                        NOSIG=
201906040850 METAR COR EGLL 040850Z 09008KT 9999 -RA BKN026 15/09 Q1007
                        NOSIG=
201906040820 METAR COR EGLL 040820Z AUTO 09006KT 9999 -RA BKN035 BKN045
                        15/09 Q1008 NOSIG=
201906040750 METAR EGLL 040750Z AUTO 08006KT 9999 SCT041 15/09 Q1008=
201906040720 METAR COR EGLL 040720Z AUTO 09006KT 9999 BKN047 14/09 Q1009
                        NOSIG=
201906040650 METAR COR EGLL 040650Z AUTO 10007KT 9999 NCD 14/10 Q1009
                        NOSIG=
201906040620 METAR COR EGLL 040620Z AUTO 10004KT 9999 NCD 13/10 Q1010
                        NOSIG=
201906040550 METAR COR EGLL 040550Z AUTO 09004KT 9999 NCD 12/11 Q1010
                        NOSIG=
201906040520 METAR COR EGLL 040520Z AUTO 13005KT 080V150 9999 NCD 12/11
                        Q1010 NOSIG=
201906040450 METAR COR EGLL 040450Z AUTO 11004KT 090V150 9999 NCD 11/10
                        Q1010 NOSIG=
201906040420 METAR COR EGLL 040420Z AUTO 11004KT 090V190 9999 NCD 10/10
                        Q1010 NOSIG=
201906040350 METAR COR EGLL 040350Z AUTO VRB02KT 9999 NCD 10/09 Q1010
                        NOSIG=
201906040320 METAR COR EGLL 040320Z AUTO VRB03KT 9999 NCD 10/09 Q1011
                        NOSIG=
201906040250 METAR COR EGLL 040250Z AUTO 15004KT 9999 NCD 11/10 Q1011
                        NOSIG=
201906040220 METAR COR EGLL 040220Z AUTO 16003KT 9999 NCD 11/10 Q1011
                        NOSIG=
201906040150 METAR COR EGLL 040150Z AUTO 18003KT 9999 NCD 11/10 Q1011
                        NOSIG=
201906040120 METAR COR EGLL 040120Z AUTO 16003KT 9999 NCD 10/09 Q1012
                        NOSIG=
201906040050 METAR COR EGLL 040050Z AUTO 18005KT 9999 NCD 11/09 Q1012
                        NOSIG=
201906040020 METAR COR EGLL 040020Z AUTO 20005KT 9999 NCD 11/09 Q1012
                        NOSIG=
201906032350 METAR COR EGLL 032350Z AUTO 18007KT 9999 NCD 11/09 Q1012
                        NOSIG=
201906032320 METAR COR EGLL 032320Z AUTO 17005KT 9999 NCD 12/09 Q1013
                        NOSIG=
201906032250 METAR COR EGLL 032250Z AUTO 21006KT 9999 NCD 12/09 Q1013
                        NOSIG=
201906032220 METAR COR EGLL 032220Z AUTO 21008KT 9999 NCD 13/09 Q1013
                        NOSIG=
201906032150 METAR COR EGLL 032150Z AUTO 21009KT 9999 NCD 14/09 Q1013
                        NOSIG=
201906032120 METAR COR EGLL 032120Z AUTO 21008KT 9999 NCD 14/08 Q1013
                        NOSIG=
201906032050 METAR COR EGLL 032050Z AUTO 21010KT 9999 NCD 15/08 Q1013
                        NOSIG=
201906032020 METAR COR EGLL 032020Z AUTO 21009KT 9999 NCD 16/08 Q1013
                        NOSIG=
201906031950 METAR COR EGLL 031950Z AUTO 22011KT 9999 NCD 16/07 Q1013
                        NOSIG=
201906031920 METAR COR EGLL 031920Z AUTO 23011KT 9999 FEW048 17/07 Q1013
                        NOSIG=
201906031850 METAR COR EGLL 031850Z AUTO 24012KT 9999 FEW043 18/07 Q1012
                        NOSIG=
201906031820 METAR COR EGLL 031820Z AUTO 24012KT 9999 SCT043 18/08 Q1012
                        NOSIG=
201906031750 METAR COR EGLL 031750Z AUTO 25011KT 9999 BKN047 19/07 Q1012
                        NOSIG=
201906031720 METAR COR EGLL 031720Z AUTO 24013G23KT 9999 BKN047 18/07
                        Q1012 NOSIG=
201906031650 METAR COR EGLL 031650Z AUTO 24013KT 9999 BKN049 19/07 Q1012
                        NOSIG=
201906031620 METAR COR EGLL 031620Z AUTO 21011KT 9999 NCD 19/07 Q1012
                        NOSIG=
201906031550 METAR COR EGLL 031550Z AUTO 22012KT 9999 NCD 19/08 Q1012
                        NOSIG=
201906031520 METAR COR EGLL 031520Z AUTO 23014KT 9999 NCD 19/08 Q1012
                        NOSIG=
201906031450 METAR COR EGLL 031450Z AUTO 21011KT 180V250 9999 SCT046 20/07
                        Q1012 NOSIG=
201906031420 METAR COR EGLL 031420Z AUTO 23012KT 9999 NCD 19/08 Q1012
                        NOSIG=
201906031350 METAR COR EGLL 031350Z AUTO 22013G24KT 9999 FEW042 18/08
                        Q1013 NOSIG=
201906031320 METAR COR EGLL 031320Z AUTO 19011KT 150V230 9999 NCD 20/08
                        Q1013 NOSIG=
201906031250 METAR COR EGLL 031250Z AUTO 23012KT 190V260 9999 NCD 20/07
                        Q1013 NOSIG=
201906031220 METAR COR EGLL 031220Z AUTO 25011KT 200V280 9999 NCD 20/06
                        Q1013 NOSIG=
201906031150 METAR COR EGLL 031150Z AUTO 26016KT 9999 NCD 20/06 Q1013
                        NOSIG=
201906031120 METAR COR EGLL 031120Z AUTO 25012KT 9999 FEW049 19/06 Q1013
                        NOSIG=
201906031050 METAR COR EGLL 031050Z AUTO 25013KT 9999 SCT043 20/07 Q1013
                        NOSIG=
201906031020 METAR COR EGLL 031020Z AUTO 26012KT 9999 FEW035 18/09 Q1013
                        NOSIG=
201906030950 METAR COR EGLL 030950Z AUTO 25011KT 220V280 9999 FEW034 16/09
                        Q1013 NOSIG=
201906030920 METAR COR EGLL 030920Z AUTO 24011KT 210V270 9999 SCT031 SCT039
                        BKN048 16/09 Q1013 NOSIG=
201906030850 METAR COR EGLL 030850Z AUTO 26013KT 9999 SCT025 BKN031 BKN047
                        15/09 Q1013 NOSIG=
201906030820 METAR COR EGLL 030820Z AUTO 27012KT 9999 SCT025 SCT031 BKN049
                        16/09 Q1013 NOSIG=
201906030750 METAR COR EGLL 030750Z AUTO 25013KT 9999 SCT022 16/09 Q1013
                        NOSIG=
201906030720 METAR COR EGLL 030720Z AUTO 26010KT 220V300 9999 FEW022 15/10
                        Q1013 NOSIG=
201906030650 METAR COR EGLL 030650Z AUTO 25009KT 9999 NCD 14/10 Q1013
                        NOSIG=
201906030620 METAR COR EGLL 030620Z AUTO 25009KT 9999 NCD 13/09 Q1012
                        NOSIG=
201906030550 METAR COR EGLL 030550Z AUTO 24009KT 9999 NCD 12/09 Q1012
                        NOSIG=
201906030520 METAR COR EGLL 030520Z AUTO 24009KT 9999 NCD 12/09 Q1012
                        NOSIG=
201906030450 METAR COR EGLL 030450Z AUTO 23010KT 9999 NCD 11/08 Q1012
                        NOSIG=
201906030420 METAR COR EGLL 030420Z AUTO 24007KT 9999 NCD 11/08 Q1012
                        NOSIG=
201906030350 METAR COR EGLL 030350Z AUTO 24007KT 9999 NCD 11/08 Q1012
                        NOSIG=
201906030320 METAR COR EGLL 030320Z AUTO 22007KT 9999 NCD 12/08 Q1011
                        NOSIG=
201906030250 METAR COR EGLL 030250Z AUTO 24008KT 9999 NCD 12/08 Q1011
                        NOSIG=
201906030220 METAR COR EGLL 030220Z AUTO 24008KT 9999 NCD 12/09 Q1011
                        NOSIG=
201906030150 METAR COR EGLL 030150Z AUTO 25008KT 9999 NCD 12/09 Q1011
                        NOSIG=
201906030120 METAR COR EGLL 030120Z AUTO 25009KT 9999 NCD 13/08 Q1011
                        NOSIG=
201906030050 METAR COR EGLL 030050Z AUTO 23007KT 9999 NCD 13/09 Q1011
                        NOSIG=
201906030020 METAR COR EGLL 030020Z AUTO 24008KT 9999 FEW036 13/09 Q1011
                        NOSIG=
201906022350 METAR COR EGLL 022350Z AUTO 27008KT 9999 SCT035 13/08 Q1011
                        NOSIG=
201906022320 METAR COR EGLL 022320Z AUTO 28008KT 9999 SCT033 13/09 Q1011
                        NOSIG=
201906022250 METAR COR EGLL 022250Z AUTO 27010KT 9999 BKN028 14/09 Q1011
                        NOSIG=
201906022220 METAR COR EGLL 022220Z AUTO 28007KT 9999 SCT026 15/10 Q1011
                        NOSIG=
201906022150 METAR COR EGLL 022150Z AUTO 28010KT 9999 SCT031 15/11 Q1010
                        NOSIG=
201906022120 METAR COR EGLL 022120Z AUTO 28012KT 9999 SCT017 BKN026 BKN037
                        16/13 Q1010 NOSIG=
201906022050 METAR COR EGLL 022050Z AUTO 24012KT 9999 SCT021 SCT030 BKN048
                        17/14 Q1010 NOSIG=
201906022020 METAR COR EGLL 022020Z AUTO 23012KT 9999 SCT018 BKN041 17/14
                        Q1010 NOSIG=
201906021950 METAR COR EGLL 021950Z AUTO 23012KT 9999 BKN018 BKN025 BKN043
                        18/14 Q1010 TEMPO BKN014=
201906021920 METAR COR EGLL 021920Z AUTO 23014KT 9999 SCT017 BKN023 18/14
                        Q1009 TEMPO BKN014=
201906021850 METAR COR EGLL 021850Z AUTO 23013KT 9999 SCT017 18/14 Q1009
                        TEMPO BKN014=
201906021820 METAR COR EGLL 021820Z AUTO 23016G27KT 9999 BKN020 BKN035
                        19/14 Q1009 TEMPO BKN014=
201906021750 METAR COR EGLL 021750Z AUTO 22014KT 9999 -RA SCT020 BKN025
                        19/15 Q1009 TEMPO BKN014=
201906021720 METAR COR EGLL 021720Z AUTO 24019KT 200V260 9999 BKN024 20/14
                        Q1009 TEMPO BKN014=
201906021650 METAR COR EGLL 021650Z AUTO 22014KT 190V260 9999 SCT028 BKN032
                        21/14 Q1009 NOSIG=
201906021620 METAR COR EGLL 021620Z AUTO 23016KT 9999 FEW035 22/14 Q1009
                        NOSIG=
201906021550 METAR COR EGLL 021550Z AUTO 23016KT 9999 FEW035 22/13 Q1009
                        NOSIG=
201906021520 METAR COR EGLL 021520Z AUTO 24014KT 9999 FEW036 22/11 Q1009
                        NOSIG=
201906021450 METAR COR EGLL 021450Z AUTO 23016G27KT 9999 SCT044 22/09
                        Q1009 NOSIG=
201906021420 METAR COR EGLL 021420Z AUTO 24015KT 9999 BKN041 24/07 Q1009
                        NOSIG=
201906021350 METAR COR EGLL 021350Z AUTO 23018KT 9999 NCD 24/08 Q1008
                        TEMPO RA=
201906021320 METAR COR EGLL 021320Z AUTO 23017KT 9999 NCD 26/07 Q1009
                        NOSIG=
201906021250 METAR COR EGLL 021250Z AUTO 21014KT 9999 NCD 25/10 Q1009
                        NOSIG=
201906021220 METAR COR EGLL 021220Z AUTO 21012KT 190V250 9999 NCD 25/09
                        Q1009 NOSIG=
201906021150 METAR COR EGLL 021150Z AUTO 23018KT 9999 NCD 25/09 Q1009
                        NOSIG=
201906021120 METAR COR EGLL 021120Z AUTO 24018KT 9999 NCD 25/09 Q1009
                        NOSIG=
201906021050 METAR COR EGLL 021050Z AUTO 22014KT 9999 NCD 26/12 Q1009
                        NOSIG=
201906021020 METAR COR EGLL 021020Z AUTO 22014G24KT 9999 NCD 26/12 Q1009
                        NOSIG=
201906020950 METAR COR EGLL 020950Z AUTO 20013G25KT 9999 NCD 24/13 Q1009
                        NOSIG=
201906020920 METAR COR EGLL 020920Z AUTO 21013KT 190V250 9999 NCD 24/14
                        Q1009 NOSIG=
201906020850 METAR COR EGLL 020850Z AUTO 21011KT 9999 NCD 23/13 Q1009
                        NOSIG=
201906020820 METAR COR EGLL 020820Z AUTO 18009G19KT 150V240 9999 NCD 22/13
                        Q1009 NOSIG=
201906020750 METAR COR EGLL 020750Z AUTO 20007KT 160V250 9999 NCD 22/14
                        Q1010 NOSIG=
201906020720 METAR COR EGLL 020720Z AUTO 21008KT 9999 NCD 21/14 Q1010
                        NOSIG=
201906020650 METAR COR EGLL 020650Z AUTO 20008KT 160V230 9999 NCD 20/14
                        Q1010 NOSIG=
201906020620 METAR COR EGLL 020620Z AUTO 20006KT 090V240 9999 NCD 20/15
                        Q1010 NOSIG=
201906020550 METAR COR EGLL 020550Z AUTO 20006KT 160V270 9999 NCD 19/15
                        Q1010 NOSIG=
201906020520 METAR COR EGLL 020520Z AUTO 17006KT 110V230 9999 NCD 18/14
                        Q1010 NOSIG=
201906020450 METAR COR EGLL 020450Z AUTO 18003KT 9999 NCD 16/14 Q1011
                        NOSIG=
201906020420 METAR COR EGLL 020420Z AUTO 18002KT 9999 NCD 16/14 Q1011
                        NOSIG=
201906020350 METAR COR EGLL 020350Z AUTO 16003KT 9999 NCD 16/13 Q1011
                        NOSIG=
201906020320 METAR COR EGLL 020320Z AUTO 15004KT 9999 NCD 16/14 Q1011
                        NOSIG=
201906020250 METAR COR EGLL 020250Z AUTO 15005KT 9999 NCD 16/13 Q1012
                        NOSIG=
201906020220 METAR COR EGLL 020220Z AUTO 15004KT 9999 NCD 16/13 Q1012
                        NOSIG=
201906020150 METAR COR EGLL 020150Z AUTO 14002KT 9999 NCD 16/13 Q1013
                        NOSIG=
201906020120 METAR COR EGLL 020120Z AUTO 16003KT 9999 NCD 17/14 Q1013
                        NOSIG=
201906020050 METAR COR EGLL 020050Z AUTO 14004KT 100V170 9999 NCD 17/13
                        Q1013 NOSIG=
201906020020 METAR COR EGLL 020020Z AUTO 14003KT 9999 NCD 17/14 Q1014
                        NOSIG=
201906012350 METAR COR EGLL 012350Z AUTO 14005KT 9999 NCD 17/13 Q1014
                        NOSIG=
201906012320 METAR COR EGLL 012320Z AUTO 14005KT 9999 NCD 18/14 Q1014
                        NOSIG=
201906012250 METAR COR EGLL 012250Z AUTO 14005KT 9999 NCD 18/14 Q1015
                        NOSIG=
201906012220 METAR COR EGLL 012220Z AUTO 20004KT 150V260 9999 NCD 19/14
                        Q1015 NOSIG=
201906012150 METAR COR EGLL 012150Z AUTO 18005KT 120V270 9999 NCD 20/14
                        Q1015 NOSIG=
201906012120 METAR COR EGLL 012120Z AUTO 18005KT 130V260 9999 NCD 20/14
                        Q1015 NOSIG=
201906012050 METAR COR EGLL 012050Z AUTO 18005KT 140V240 9999 NCD 20/14
                        Q1015 NOSIG=
201906012020 METAR COR EGLL 012020Z AUTO 18006KT 150V230 9999 NCD 21/14
                        Q1016 NOSIG=
201906011950 METAR COR EGLL 011950Z AUTO 18007KT 150V230 9999 NCD 22/13
                        Q1016 NOSIG=
201906011920 METAR COR EGLL 011920Z AUTO 20008KT 170V240 9999 NCD 23/13
                        Q1016 NOSIG=
201906011850 METAR COR EGLL 011850Z AUTO 19010KT 160V230 9999 NCD 23/12
                        Q1016 NOSIG=
201906011820 METAR COR EGLL 011820Z AUTO 21009KT 180V240 9999 NCD 24/12
                        Q1016 NOSIG=
201906011750 METAR COR EGLL 011750Z AUTO 20009G19KT 160V240 9999 NCD 24/11
                        Q1016 NOSIG=
201906011720 METAR COR EGLL 011720Z AUTO 19011KT 160V230 9999 NCD 25/11
                        Q1016 NOSIG=
201906011650 METAR COR EGLL 011650Z AUTO 20008KT 170V240 9999 NCD 26/11
                        Q1017 NOSIG=
201906011620 METAR COR EGLL 011620Z AUTO 19011KT 150V240 9999 NCD 26/10
                        Q1017 NOSIG=
201906011550 METAR COR EGLL 011550Z AUTO 19011KT 160V240 9999 NCD 26/10
                        Q1017 NOSIG=
201906011520 METAR COR EGLL 011520Z AUTO 18012KT 150V230 9999 NCD 26/10
                        Q1018 NOSIG=
201906011450 METAR COR EGLL 011450Z AUTO 18011KT 120V240 9999 NCD 26/10
                        Q1018 NOSIG=
201906011420 METAR COR EGLL 011420Z AUTO 21009KT 170V240 9999 NCD 27/11
                        Q1018 NOSIG=
201906011350 METAR COR EGLL 011350Z AUTO 18007G18KT 130V220 9999 NCD 27/11
                        Q1019 NOSIG=
201906011320 METAR COR EGLL 011320Z AUTO 23008KT 170V260 9999 NCD 26/11
                        Q1019 NOSIG=
201906011250 METAR COR EGLL 011250Z AUTO 20009KT 160V240 9999 NCD 25/11
                        Q1019 NOSIG=
201906011220 METAR COR EGLL 011220Z AUTO 20008KT 160V250 9999 NCD 25/10
                        Q1019 NOSIG=
201906011150 METAR COR EGLL 011150Z AUTO 20006KT 140V250 9999 NCD 26/07
                        Q1020 NOSIG=
201906011120 METAR COR EGLL 011120Z AUTO 18007KT 140V230 9999 NCD 24/07
                        Q1020 NOSIG=
201906011050 METAR COR EGLL 011050Z AUTO 21007KT 170V270 9999 NCD 24/08
                        Q1020 NOSIG=
201906011020 METAR COR EGLL 011020Z AUTO 22007KT 180V280 9999 NCD 23/09
                        Q1021 NOSIG=
201906010950 METAR COR EGLL 010950Z AUTO 19007KT 150V250 9999 NCD 22/10
                        Q1021 NOSIG=
201906010920 METAR COR EGLL 010920Z AUTO 19006KT 130V240 9999 NCD 21/11
                        Q1021 NOSIG=
201906010850 METAR COR EGLL 010850Z AUTO 20004KT 140V300 9999 NCD 19/11
                        Q1021 NOSIG=
201906010820 METAR COR EGLL 010820Z AUTO VRB02KT 9999 NCD 18/12 Q1021
                        NOSIG=
201906010750 METAR COR EGLL 010750Z AUTO VRB04KT 9999 NCD 17/12 Q1021
                        NOSIG=
201906010720 METAR COR EGLL 010720Z AUTO 18004KT 140V230 9999 NCD 16/12
                        Q1022 NOSIG=
201906010650 METAR COR EGLL 010650Z AUTO 20005KT 160V240 9999 NCD 14/11
                        Q1022 NOSIG=
201906010620 METAR COR EGLL 010620Z AUTO 19006KT 170V250 9999 NCD 13/11
                        Q1022 NOSIG=
201906010550 METAR EGLL 010550Z AUTO 19006KT 160V240 9999 NCD 12/11 Q1022=
201906010520 METAR COR EGLL 010520Z AUTO 18004KT 140V220 9999 NCD 12/11
                        Q1022 NOSIG=
201906010450 METAR COR EGLL 010450Z AUTO VRB03KT 9999 NCD 11/10 Q1022
                        NOSIG=
201906010420 METAR COR EGLL 010420Z AUTO 21003KT 9999 NCD 11/10 Q1022
                        NOSIG=
201906010350 METAR COR EGLL 010350Z AUTO 22005KT 170V260 9999 NCD 11/10
                        Q1022 NOSIG=
201906010320 METAR COR EGLL 010320Z AUTO 19004KT 9999 NCD 11/10 Q1022
                        NOSIG=
201906010250 METAR COR EGLL 010250Z AUTO 19004KT 9999 NCD 11/10 Q1022
                        NOSIG=
201906010220 METAR COR EGLL 010220Z AUTO 19005KT 9999 NCD 12/10 Q1022
                        NOSIG=
201906010150 METAR COR EGLL 010150Z AUTO 20005KT 9999 NCD 12/10 Q1022
                        NOSIG=
201906010120 METAR COR EGLL 010120Z AUTO 22005KT 9999 NCD 12/11 Q1022
                        NOSIG=
201906010050 METAR COR EGLL 010050Z AUTO 24005KT 9999 NCD 13/11 Q1022
                        NOSIG=
201906010020 METAR COR EGLL 010020Z AUTO 22003KT 9999 NCD 13/11 Q1022
                        NOSIG=

</pre>

</body>
</html>
