##########################################################
# Query made at 01/13/2020 12:28:45 UTC
# Time interval: from 06/01/2016 00:00  to 07/01/2016 23:59  UTC
##########################################################

##########################################################
# EGLL, London / Heathrow Airport (United Kingdom)
# WMO index: 03772
# Latitude 51-29N. Longitude 000-27W. Altitude 24 m.
##########################################################

###################################
#  METAR/SPECI from EGLL
###################################
201607012350 METAR COR EGLL 012350Z AUTO 24010KT 9999 FEW033 12/09 Q1010
                        NOSIG=
201607012320 METAR COR EGLL 012320Z AUTO 23012KT 9999 NCD 12/09 Q1010
                        NOSIG=
201607012250 METAR COR EGLL 012250Z AUTO 23011KT 9999 NCD 12/09 Q1010
                        NOSIG=
201607012220 METAR COR EGLL 012220Z AUTO 25013KT 9999 NCD 13/09 Q1010
                        NOSIG=
201607012150 METAR COR EGLL 012150Z AUTO 24012KT 9999 NCD 13/09 Q1010
                        NOSIG=
201607012120 METAR COR EGLL 012120Z AUTO 24013KT 9999 NCD 13/10 Q1010
                        NOSIG=
201607012050 METAR COR EGLL 012050Z AUTO 24012KT 9999 NCD 13/11 Q1009
                        NOSIG=
201607012020 METAR COR EGLL 012020Z AUTO 24012KT 9999 NCD 14/11 Q1009
                        NOSIG=
201607011950 METAR COR EGLL 011950Z AUTO 25012KT 9999 NCD 14/11 Q1009
                        NOSIG=
201607011920 METAR COR EGLL 011920Z AUTO 24012KT 9999 FEW027/// BKN042///
                        //////CB 15/11 Q1009 NOSIG=
201607011850 METAR COR EGLL 011850Z AUTO 26017KT 9999 -RA BKN031/// //////CB
                        16/11 Q1009 NOSIG=
201607011820 METAR COR EGLL 011820Z AUTO 25012KT 9999 FEW038/// //////TCU
                        17/09 Q1008 TEMPO SHRA=
201607011750 METAR COR EGLL 011750Z AUTO 27016KT 9999 FEW035 17/09 Q1008
                        TEMPO SHRA=
201607011720 METAR COR EGLL 011720Z AUTO 26016KT 9999 NCD 17/10 Q1008
                        NOSIG=
201607011650 METAR COR EGLL 011650Z 27013KT 9999 BKN036 17/09 Q1008 NOSIG=
201607011620 METAR COR EGLL 011620Z 27015KT 9999 BKN032 17/10 Q1008 TEMPO
                        SHRA=
201607011550 METAR COR EGLL 011550Z AUTO 25013KT 9999 FEW032 BKN045 18/10
                        Q1008 TEMPO SHRA=
201607011520 METAR COR EGLL 011520Z AUTO 23014KT 9999 BKN029 18/11 Q1008
                        TEMPO SHRA=
201607011450 METAR COR EGLL 011450Z AUTO 23015KT 190V250 9999 BKN029 BKN045
                        19/12 Q1007 TEMPO SHRA=
201607011420 METAR COR EGLL 011420Z AUTO 23015KT 9999 FEW030 19/12 Q1008
                        NOSIG=
201607011350 METAR COR EGLL 011350Z AUTO 22013KT 9999 FEW026 SCT034 18/13
                        Q1008 NOSIG=
201607011320 METAR COR EGLL 011320Z 22013KT 9999 SCT028 17/13 Q1008 TEMPO
                        SHRA=
201607011250 METAR COR EGLL 011250Z 22011KT 9999 VCSH BKN025 BKN045 16/13
                        Q1008 TEMPO SHRA=
201607011220 METAR COR EGLL 011220Z AUTO 24010KT 9999 OVC022 15/12 Q1009
                        NOSIG=
201607011150 METAR COR EGLL 011150Z 26011KT 9999 FEW011 BKN023 16/13 Q1009
                        TEMPO SHRA=
201607011120 METAR COR EGLL 011120Z AUTO 22010KT 180V240 9999 SCT015 SCT032
                        OVC048 16/14 Q1009 TEMPO SHRA=
201607011050 METAR COR EGLL 011050Z 23011KT 200V260 9999 SCT016 BKN039
                        17/13 Q1009 TEMPO SHRA=
201607011020 METAR COR EGLL 011020Z 23009KT 9999 -RA FEW014 SCT019 BKN040
                        17/14 Q1009 NOSIG=
201607010950 METAR COR EGLL 010950Z 22012KT 9999 SCT013 SCT024 BKN038
                        17/13 Q1009 TEMPO SHRA=
201607010920 METAR COR EGLL 010920Z 24011KT 8000 -RADZ BKN014 BKN027 16/14
                        Q1009 BECMG SCT020=
201607010850 METAR COR EGLL 010850Z 25010KT 9999 FEW018 BKN022 17/12 Q1009
                        NOSIG=
201607010820 METAR COR EGLL 010820Z AUTO 23012KT 9999 BKN039 17/13 Q1009
                        NOSIG=
201607010750 METAR COR EGLL 010750Z AUTO 22011KT 9999 BKN038 16/14 Q1009
                        NOSIG=
201607010720 METAR COR EGLL 010720Z 23010KT 9999 FEW015 BKN040 15/15 Q1009
                        NOSIG=
201607010650 METAR COR EGLL 010650Z 23009KT 9999 -RA FEW015 SCT021 BKN033
                        15/14 Q1009 NOSIG=
201607010620 METAR COR EGLL 010620Z 25010KT 9999 -RA FEW012 BKN026 15/14
                        Q1009 NOSIG=
201607010550 METAR COR EGLL 010550Z 25011KT 7000 -RADZ SCT008 SCT011 BKN020
                        15/13 Q1009 TEMPO BKN012=
201607010520 METAR COR EGLL 010520Z 22010KT 7000 -RA FEW010 SCT013 BKN015
                        16/14 Q1009 TEMPO BKN012=
201607010450 METAR COR EGLL 010450Z 23010KT 9999 SCT011 BKN018 15/14 Q1009
                        TEMPO BKN012=
201607010420 METAR COR EGLL 010420Z 23011KT 200V260 9999 SCT019 BKN030
                        16/13 Q1008 TEMPO BKN014=
201607010350 METAR COR EGLL 010350Z AUTO 24011KT 9999 BKN012 16/13 Q1008
                        TEMPO BKN015=
201607010320 METAR COR EGLL 010320Z AUTO 23013KT 9999 BKN013 16/13 Q1008
                        TEMPO BKN016=
201607010250 METAR EGLL 010250Z AUTO 23014KT 9999 OVC014 16/13 Q1008=
201607010220 METAR COR EGLL 010220Z AUTO 23013KT 9999 OVC016 16/13 Q1008
                        TEMPO BKN014=
201607010150 METAR COR EGLL 010150Z AUTO 23013KT 9999 FEW015 OVC023 16/13
                        Q1008 TEMPO BKN014=
201607010120 METAR COR EGLL 010120Z AUTO 23013KT 9999 BKN016 16/13 Q1008
                        TEMPO BKN014=
201607010050 METAR COR EGLL 010050Z AUTO 24013KT 9999 BKN016 BKN029 16/13
                        Q1008 TEMPO BKN014=
201607010020 METAR COR EGLL 010020Z AUTO 24014KT 9999 BKN017 OVC037 17/13
                        Q1008 TEMPO BKN014=
201606302350 METAR COR EGLL 302350Z AUTO 23012KT 9999 BKN016 17/13 Q1008
                        TEMPO BKN014=
201606302320 METAR COR EGLL 302320Z AUTO 23014KT 9999 OVC016 17/13 Q1008
                        TEMPO BKN014=
201606302250 METAR COR EGLL 302250Z AUTO 22012KT 9999 OVC016 17/13 Q1008
                        TEMPO BKN014=
201606302220 METAR COR EGLL 302220Z AUTO 23014KT 9999 OVC017 16/13 Q1009
                        TEMPO BKN014=
201606302150 METAR COR EGLL 302150Z AUTO 22013KT 9999 OVC016 17/13 Q1009
                        TEMPO BKN014=
201606302120 METAR COR EGLL 302120Z AUTO 23013KT 9999 -RA OVC016/// //////TCU
                        16/14 Q1009 TEMPO BKN014=
201606302050 METAR COR EGLL 302050Z AUTO 22010KT 9999 BKN016 17/13 Q1009
                        TEMPO BKN014=
201606302020 METAR COR EGLL 302020Z AUTO 22012KT 9999 BKN018 17/13 Q1009
                        NOSIG=
201606301950 METAR COR EGLL 301950Z AUTO 21012KT 9999 FEW022 17/13 Q1009
                        NOSIG=
201606301920 METAR COR EGLL 301920Z AUTO 21013KT 170V240 9999 NCD 17/12
                        Q1009 NOSIG=
201606301850 METAR COR EGLL 301850Z AUTO 22012KT 190V250 9999 NCD 18/12
                        Q1009 NOSIG=
201606301820 METAR COR EGLL 301820Z AUTO 22012KT 180V250 9999 BKN038 18/12
                        Q1009 NOSIG=
201606301750 METAR COR EGLL 301750Z AUTO 22014KT 9999 FEW025 BKN038 18/12
                        Q1009 NOSIG=
201606301720 METAR COR EGLL 301720Z AUTO 22015KT 9999 FEW029 SCT041 19/12
                        Q1009 NOSIG=
201606301650 METAR COR EGLL 301650Z AUTO 22013KT 190V260 9999 -RA FEW029
                        19/12 Q1009 NOSIG=
201606301620 METAR COR EGLL 301620Z AUTO 21013KT 9999 FEW029 19/12 Q1009
                        NOSIG=
201606301550 METAR COR EGLL 301550Z AUTO 23014KT 190V260 9999 SCT028 20/13
                        Q1009 TEMPO SHRA=
201606301520 METAR COR EGLL 301520Z AUTO 21013KT 9999 FEW028 19/13 Q1009
                        TEMPO SHRA=
201606301450 METAR COR EGLL 301450Z AUTO 22014KT 190V250 9999 SCT025 20/13
                        Q1010 TEMPO SHRA=
201606301420 METAR COR EGLL 301420Z AUTO 22013KT 9999 SCT024 BKN038 19/13
                        Q1010 NOSIG=
201606301350 METAR COR EGLL 301350Z AUTO 22010KT 170V270 9999 SCT025 19/13
                        Q1010 NOSIG=
201606301320 METAR COR EGLL 301320Z AUTO 23013KT 9999 SCT028 19/12 Q1010
                        NOSIG=
201606301250 METAR COR EGLL 301250Z AUTO 23012KT 200V260 9999 FEW031 19/12
                        Q1010 NOSIG=
201606301220 METAR COR EGLL 301220Z AUTO 23012KT 9999 FEW030/// //////TCU
                        19/12 Q1010 NOSIG=
201606301150 METAR COR EGLL 301150Z AUTO 21011KT 190V250 9999 SCT028 20/13
                        Q1010 NOSIG=
201606301120 METAR COR EGLL 301120Z AUTO 23012KT 9999 FEW027 20/12 Q1010
                        NOSIG=
201606301050 METAR COR EGLL 301050Z AUTO 24011KT 9999 SCT023 19/12 Q1010
                        NOSIG=
201606301020 METAR COR EGLL 301020Z AUTO 23008KT 190V260 9999 SCT017 BKN032
                        18/13 Q1010 NOSIG=
201606300950 METAR COR EGLL 300950Z AUTO 23007KT 190V260 9999 BKN018 OVC045
                        18/13 Q1010 NOSIG=
201606300920 METAR COR EGLL 300920Z AUTO 23006KT 190V260 9999 BKN015 18/13
                        Q1009 NOSIG=
201606300850 METAR COR EGLL 300850Z AUTO 23006KT 190V260 9999 BKN012 17/14
                        Q1009 BECMG SCT015=
201606300820 METAR COR EGLL 300820Z 26006KT 220V320 9999 FEW010 BKN016
                        16/13 Q1009 NOSIG=
201606300750 METAR COR EGLL 300750Z 27004KT 220V340 9999 SCT010 SCT016
                        16/14 Q1009 NOSIG=
201606300720 METAR COR EGLL 300720Z 26007KT 9999 FEW007 BKN011 15/14 Q1009
                        NOSIG=
201606300650 METAR COR EGLL 300650Z AUTO 24005KT 200V280 9999 SCT006 15/14
                        Q1009 NOSIG=
201606300620 METAR COR EGLL 300620Z AUTO 21005KT 170V310 9999 FEW005 BKN043
                        14/14 Q1008 NOSIG=
201606300550 METAR COR EGLL 300550Z AUTO 22005KT 180V280 9999 FEW015 BKN038
                        14/14 Q1008 NOSIG=
201606300520 METAR COR EGLL 300520Z AUTO 21007KT 7000 -RA FEW004 BKN033
                        13/13 Q1008 NOSIG=
201606300450 METAR COR EGLL 300450Z AUTO 21007KT 9000 -RA FEW003 BKN036
                        13/13 Q1008 NOSIG=
201606300420 METAR COR EGLL 300420Z AUTO 21006KT 7000 -RA FEW024 BKN032
                        13/13 Q1008 NOSIG=
201606300350 METAR COR EGLL 300350Z AUTO 22005KT 6000 -RA FEW007 SCT023
                        BKN040 13/13 Q1008 NOSIG=
201606300320 METAR COR EGLL 300320Z AUTO 22006KT 6000 -RA FEW007 BKN019
                        BKN035 13/13 Q1008 TEMPO BKN012=
201606300250 METAR COR EGLL 300250Z AUTO 23007KT 7000 -RA SCT008 BKN028
                        OVC047 14/14 Q1008 TEMPO BKN010=
201606300220 METAR EGLL 300220Z AUTO 22006KT 9999 -RA OVC009 14/14 Q1008=
201606300150 METAR COR EGLL 300150Z AUTO 22007KT 9000 -RA BKN010 14/14
                        Q1008 TEMPO SCT012=
201606300120 METAR COR EGLL 300120Z AUTO 23008KT 9999 -RA SCT012 14/13
                        Q1008 TEMPO BKN012=
201606300050 METAR COR EGLL 300050Z AUTO 23008KT 9999 -RA FEW023 14/13
                        Q1008 NOSIG=
201606300020 METAR COR EGLL 300020Z AUTO 24009KT 9999 SCT010 OVC045 14/13
                        Q1008 TEMPO BKN012=
201606292350 METAR COR EGLL 292350Z AUTO 24008KT 9999 BKN011 14/13 Q1008
                        NOSIG=
201606292320 METAR COR EGLL 292320Z AUTO 23011KT 9999 -RA BKN011 OVC045
                        14/14 Q1008 NOSIG=
201606292250 METAR COR EGLL 292250Z AUTO 23009KT 9999 -RA SCT019 14/14
                        Q1008 NOSIG=
201606292220 METAR COR EGLL 292220Z AUTO 23012KT 9999 -RA FEW027 BKN047
                        14/14 Q1007 NOSIG=
201606292150 METAR COR EGLL 292150Z AUTO 22012KT 9999 -RA SCT028 BKN039
                        14/14 Q1007 NOSIG=
201606292120 METAR COR EGLL 292120Z AUTO 22012KT 180V250 9999 -RA BKN032
                        14/14 Q1007 TEMPO BKN012=
201606292050 METAR COR EGLL 292050Z AUTO 23012KT 9999 -RA FEW013 BKN034
                        15/13 Q1007 TEMPO BKN012=
201606292020 METAR COR EGLL 292020Z AUTO 22011KT 9999 FEW013 BKN035 15/13
                        Q1007 TEMPO 4500 -RADZ BKN012=
201606291950 METAR COR EGLL 291950Z AUTO 22011KT 9999 FEW014 SCT035 15/13
                        Q1007 TEMPO 4500 -RADZ BKN014=
201606291920 METAR COR EGLL 291920Z AUTO 22014KT 9999 BKN012 15/13 Q1007
                        TEMPO SCT012=
201606291850 METAR COR EGLL 291850Z AUTO 22014KT 9999 BKN012 15/13 Q1007
                        TEMPO SCT012=
201606291820 METAR COR EGLL 291820Z AUTO 22014KT 180V240 9999 BKN011 BKN024
                        15/13 Q1007 TEMPO SCT011=
201606291750 METAR COR EGLL 291750Z AUTO 22014KT 180V250 9999 BKN011 15/13
                        Q1007 TEMPO SCT011 BKN015=
201606291720 METAR COR EGLL 291720Z 22014KT 9999 FEW009 BKN012 15/13 Q1007
                        NOSIG=
201606291650 METAR COR EGLL 291650Z 22013KT 180V240 9999 BKN013 15/13
                        Q1007 TEMPO SCT013 BKN018=
201606291620 METAR COR EGLL 291620Z 22013KT 9999 SCT010 BKN015 15/14 Q1007
                        TEMPO BKN014=
201606291550 METAR COR EGLL 291550Z 21012KT 170V240 9999 -RA FEW007 BKN013
                        15/14 Q1007 TEMPO SCT013 BKN018=
201606291520 METAR COR EGLL 291520Z 21014KT 9999 8000W VCSH FEW008 BKN010
                        15/14 Q1008 NOSIG=
201606291450 METAR COR EGLL 291450Z 22014KT 9999 FEW008 BKN012 15/14 Q1008
                        TEMPO BKN009=
201606291420 METAR COR EGLL 291420Z AUTO 22013KT 9999 -RA OVC008 15/14
                        Q1008 TEMPO BKN012=
201606291350 METAR COR EGLL 291350Z AUTO 21015KT 9999 -RA BKN009 OVC023
                        15/14 Q1008 TEMPO SCT009 BKN012=
201606291320 METAR COR EGLL 291320Z AUTO 21015KT 9999 -RA BKN011 OVC032
                        15/13 Q1008 TEMPO SCT012=
201606291250 METAR COR EGLL 291250Z AUTO 21016KT 9999 -RA BKN014 15/13
                        Q1008 NOSIG=
201606291220 METAR COR EGLL 291220Z AUTO 21016KT 9999 -RA BKN016 15/13
                        Q1008 TEMPO BKN012=
201606291150 METAR COR EGLL 291150Z AUTO 21016KT 9999 -RA BKN017 OVC035
                        15/12 Q1009 TEMPO BKN012=
201606291120 METAR COR EGLL 291120Z AUTO 22014KT 9999 -RA BKN019 OVC037
                        15/12 Q1009 TEMPO BKN012=
201606291050 METAR COR EGLL 291050Z AUTO 20014KT 9999 -RA BKN022 15/11
                        Q1009 TEMPO BKN012=
201606291020 METAR COR EGLL 291020Z AUTO 21013KT 190V250 9999 -RA FEW012
                        BKN021 BKN036 16/12 Q1009 TEMPO BKN012=
201606290950 METAR COR EGLL 290950Z AUTO 21013KT 9999 -RA BKN023/// BKN039///
                        //////TCU 16/13 Q1009 TEMPO BKN014=
201606290920 METAR COR EGLL 290920Z AUTO 22012KT 9999 FEW023/// SCT039///
                        //////TCU 16/11 Q1010 TEMPO BKN012=
201606290850 METAR COR EGLL 290850Z AUTO 22014KT 9999 BKN020 BKN036 16/11
                        Q1010 TEMPO BKN012=
201606290820 METAR COR EGLL 290820Z AUTO 22013KT 9999 BKN015 16/12 Q1010
                        TEMPO BKN012=
201606290750 METAR COR EGLL 290750Z AUTO 21012KT 9999 SCT014 15/12 Q1010
                        TEMPO BKN014=
201606290720 METAR COR EGLL 290720Z AUTO 22008KT 9999 FEW016 15/11 Q1010
                        NOSIG=
201606290650 METAR COR EGLL 290650Z AUTO 22008KT 180V250 9999 NCD 14/12
                        Q1010 NOSIG=
201606290620 METAR COR EGLL 290620Z AUTO 23007KT 9999 NCD 13/11 Q1011
                        NOSIG=
201606290550 METAR COR EGLL 290550Z AUTO 23006KT 180V260 9999 NCD 13/11
                        Q1011 NOSIG=
201606290520 METAR COR EGLL 290520Z AUTO 23006KT 9999 NCD 12/12 Q1011
                        NOSIG=
201606290450 METAR COR EGLL 290450Z AUTO 23006KT 9999 NCD 12/11 Q1011
                        NOSIG=
201606290420 METAR COR EGLL 290420Z AUTO 22005KT 9999 FEW009 11/11 Q1010
                        NOSIG=
201606290350 METAR COR EGLL 290350Z AUTO 25006KT 9999 FEW017 12/10 Q1010
                        NOSIG=
201606290320 METAR COR EGLL 290320Z AUTO 24008KT 9999 NCD 12/10 Q1010
                        NOSIG=
201606290250 METAR COR EGLL 290250Z AUTO 25009KT 9999 NCD 12/10 Q1010
                        NOSIG=
201606290220 METAR COR EGLL 290220Z AUTO 26010KT 9999 NCD 12/10 Q1010
                        NOSIG=
201606290150 METAR COR EGLL 290150Z AUTO 27013KT 9999 FEW016 12/09 Q1010
                        NOSIG=
201606290120 METAR COR EGLL 290120Z AUTO 28012KT 9999 FEW018 12/10 Q1010
                        NOSIG=
201606290050 METAR COR EGLL 290050Z AUTO 28017KT 9999 BKN010 OVC021 14/11
                        Q1009 BECMG FEW010=
201606290020 METAR COR EGLL 290020Z AUTO 27010KT 9999 BKN009 OVC039 14/14
                        Q1009 BECMG FEW012=
201606282350 METAR COR EGLL 282350Z AUTO 27010KT 9999 SCT011 BKN036 14/14
                        Q1008 NOSIG=
201606282320 METAR COR EGLL 282320Z AUTO 27011KT 9999 BKN009 14/13 Q1008
                        BECMG BKN012=
201606282250 METAR COR EGLL 282250Z AUTO 26010KT 9999 OVC010 14/13 Q1008
                        BECMG SCT010=
201606282220 METAR COR EGLL 282220Z AUTO 24012KT 9999 OVC014 13/12 Q1007
                        BECMG SCT014=
201606282150 METAR COR EGLL 282150Z AUTO 24013KT 7000 -RA BKN014 OVC026
                        14/12 Q1007 BECMG SCT014=
201606282120 METAR COR EGLL 282120Z AUTO 24014KT 9999 -RA SCT011 BKN022
                        OVC037 14/13 Q1007 NOSIG=
201606282050 METAR COR EGLL 282050Z AUTO 21011KT 180V250 7000 -RA FEW008
                        BKN020 14/14 Q1006 TEMPO 4000 -RADZ
                        BKN008=
201606282020 METAR COR EGLL 282020Z AUTO 18011KT 160V230 9999 -RA BKN007
                        14/14 Q1006 TEMPO 4500 -RADZ=
201606281950 METAR COR EGLL 281950Z AUTO 17011KT 130V230 9999 BKN008 OVC021
                        14/13 Q1007 TEMPO 4000 -RADZ=
201606281920 METAR COR EGLL 281920Z AUTO 16010KT 140V200 9999 BKN009 13/13
                        Q1008 TEMPO BKN010=
201606281850 METAR COR EGLL 281850Z AUTO 19011KT 160V220 9999 -RA OVC008
                        13/13 Q1008 TEMPO BKN012=
201606281820 METAR COR EGLL 281820Z AUTO 18012KT 130V220 9999 SCT009 BKN024
                        OVC041 13/12 Q1009 TEMPO -RA BKN010=
201606281750 METAR COR EGLL 281750Z AUTO 18013KT 150V230 9999 FEW009 BKN025
                        OVC041 14/12 Q1009 TEMPO 4800 RADZ
                        BKN009=
201606281720 METAR COR EGLL 281720Z AUTO 19012KT 160V240 9000 -RA FEW015
                        BKN022 OVC037 14/12 Q1010 TEMPO 4800
                        RADZ BKN012=
201606281650 METAR COR EGLL 281650Z AUTO 21009KT 170V260 9999 -RA FEW013///
                        BKN047/// //////TCU 14/12 Q1010 NOSIG=
201606281620 METAR COR EGLL 281620Z AUTO 22010KT 9999 -RA FEW031/// BKN042///
                        //////TCU 15/12 Q1011 NOSIG=
201606281550 METAR COR EGLL 281550Z AUTO 20012KT 180V250 9999 -RA BKN032///
                        //////TCU 16/10 Q1011 TEMPO RA=
201606281520 METAR COR EGLL 281520Z AUTO 23014KT 9999 -RA SCT043/// //////TCU
                        18/08 Q1012 TEMPO RA=
201606281450 METAR COR EGLL 281450Z AUTO 20012KT 170V240 9999 NCD 19/07
                        Q1012 TEMPO RA=
201606281420 METAR COR EGLL 281420Z AUTO 20014KT 170V230 9999 SCT045 20/08
                        Q1012 TEMPO RA=
201606281350 METAR COR EGLL 281350Z AUTO 18012KT 140V230 9999 SCT044 20/09
                        Q1012 NOSIG=
201606281320 METAR COR EGLL 281320Z AUTO 20011KT 160V240 9999 SCT047 20/07
                        Q1013 NOSIG=
201606281250 METAR COR EGLL 281250Z AUTO 19011KT 160V220 9999 BKN040 20/09
                        Q1013 NOSIG=
201606281220 METAR COR EGLL 281220Z AUTO 20010KT 140V240 9999 SCT040 21/10
                        Q1014 NOSIG=
201606281150 METAR COR EGLL 281150Z 19009KT 140V240 CAVOK 19/08 Q1014
                        NOSIG=
201606281120 METAR COR EGLL 281120Z 20007KT 150V270 9999 FEW047 20/07
                        Q1014 NOSIG=
201606281050 METAR COR EGLL 281050Z AUTO 19008KT 130V250 9999 FEW038 19/08
                        Q1015 NOSIG=
201606281020 METAR COR EGLL 281020Z AUTO 18007KT 130V230 9999 FEW038 18/09
                        Q1015 NOSIG=
201606280950 METAR COR EGLL 280950Z AUTO 18006KT 130V220 9999 FEW038 18/09
                        Q1016 NOSIG=
201606280920 METAR COR EGLL 280920Z AUTO 20004KT 110V250 9999 NCD 18/09
                        Q1016 NOSIG=
201606280850 METAR COR EGLL 280850Z AUTO 20004KT 130V270 9999 NCD 18/09
                        Q1017 NOSIG=
201606280820 METAR COR EGLL 280820Z AUTO 16005KT 080V210 9999 NCD 17/09
                        Q1017 NOSIG=
201606280750 METAR COR EGLL 280750Z AUTO VRB03KT 9999 NCD 17/09 Q1017
                        NOSIG=
201606280720 METAR COR EGLL 280720Z AUTO VRB03KT 9999 NCD 17/09 Q1017
                        NOSIG=
201606280650 METAR COR EGLL 280650Z AUTO VRB02KT 9999 NCD 15/10 Q1018
                        NOSIG=
201606280620 METAR COR EGLL 280620Z AUTO VRB01KT 9999 NCD 14/10 Q1018
                        NOSIG=
201606280550 METAR COR EGLL 280550Z AUTO VRB01KT 9999 NCD 14/10 Q1018
                        NOSIG=
201606280520 METAR COR EGLL 280520Z AUTO VRB03KT 9000 NCD 13/10 Q1018
                        NOSIG=
201606280450 METAR COR EGLL 280450Z AUTO VRB01KT 9999 NCD 12/10 Q1018
                        NOSIG=
201606280420 METAR COR EGLL 280420Z AUTO VRB01KT 9999 NCD 12/09 Q1018
                        NOSIG=
201606280350 METAR COR EGLL 280350Z AUTO VRB02KT 9999 NCD 12/09 Q1018
                        NOSIG=
201606280320 METAR COR EGLL 280320Z AUTO 30003KT 9999 NCD 11/09 Q1019
                        NOSIG=
201606280250 METAR COR EGLL 280250Z AUTO 27003KT 9999 NCD 12/09 Q1019
                        NOSIG=
201606280220 METAR COR EGLL 280220Z AUTO 31004KT 9999 NCD 13/08 Q1019
                        NOSIG=
201606280150 METAR COR EGLL 280150Z AUTO 30003KT 9999 NCD 13/08 Q1019
                        NOSIG=
201606280120 METAR COR EGLL 280120Z AUTO 30003KT 9999 NCD 14/08 Q1019
                        NOSIG=
201606280050 METAR COR EGLL 280050Z AUTO VRB02KT 9999 NCD 14/08 Q1019
                        NOSIG=
201606280020 METAR COR EGLL 280020Z AUTO 31003KT 9999 NCD 14/09 Q1019
                        NOSIG=
201606272350 METAR COR EGLL 272350Z AUTO 31003KT 9999 NCD 15/09 Q1020
                        NOSIG=
201606272320 METAR COR EGLL 272320Z AUTO 31004KT 9999 NCD 15/08 Q1020
                        NOSIG=
201606272250 METAR COR EGLL 272250Z AUTO 30003KT 9999 NCD 16/08 Q1019
                        NOSIG=
201606272220 METAR COR EGLL 272220Z AUTO 30004KT 9999 NCD 16/09 Q1019
                        NOSIG=
201606272150 METAR COR EGLL 272150Z AUTO 32003KT 9999 NCD 16/08 Q1019
                        NOSIG=
201606272120 METAR COR EGLL 272120Z AUTO 32004KT 290V360 9999 NCD 16/08
                        Q1019 NOSIG=
201606272050 METAR COR EGLL 272050Z AUTO 31006KT 9999 NCD 17/08 Q1020
                        NOSIG=
201606272020 METAR COR EGLL 272020Z AUTO 31005KT 9999 BKN048 17/08 Q1019
                        NOSIG=
201606271950 METAR COR EGLL 271950Z AUTO 31005KT 290V350 9999 BKN049 18/08
                        Q1019 NOSIG=
201606271920 METAR COR EGLL 271920Z AUTO 32006KT 9999 NCD 18/08 Q1019
                        NOSIG=
201606271850 METAR COR EGLL 271850Z AUTO 33005KT 300V020 9999 SCT049 18/08
                        Q1019 NOSIG=
201606271820 METAR COR EGLL 271820Z AUTO 33006KT 290V360 9999 NCD 19/08
                        Q1018 NOSIG=
201606271750 METAR COR EGLL 271750Z AUTO 32006KT 9999 NCD 19/08 Q1018
                        NOSIG=
201606271720 METAR COR EGLL 271720Z AUTO 29008KT 270V330 9999 NCD 19/08
                        Q1018 NOSIG=
201606271650 METAR COR EGLL 271650Z AUTO 31007KT 280V350 9999 BKN048 20/08
                        Q1018 NOSIG=
201606271620 METAR COR EGLL 271620Z AUTO 31009KT 270V350 9999 FEW049 20/09
                        Q1018 NOSIG=
201606271550 METAR COR EGLL 271550Z AUTO 31008KT 270V350 9999 SCT047 21/09
                        Q1018 NOSIG=
201606271520 METAR COR EGLL 271520Z AUTO 29010KT 250V330 9999 FEW044 21/09
                        Q1018 NOSIG=
201606271450 METAR COR EGLL 271450Z AUTO 30009KT 9999 BKN044 21/10 Q1018
                        NOSIG=
201606271420 METAR COR EGLL 271420Z AUTO 31008KT 280V340 9999 BKN041 20/10
                        Q1018 NOSIG=
201606271350 METAR COR EGLL 271350Z AUTO 29011KT 260V330 9999 BKN041 20/10
                        Q1018 NOSIG=
201606271320 METAR COR EGLL 271320Z AUTO 31008KT 270V350 9999 SCT043 21/10
                        Q1018 NOSIG=
201606271250 METAR COR EGLL 271250Z AUTO 28010KT 240V310 9999 FEW041 20/10
                        Q1018 NOSIG=
201606271220 METAR COR EGLL 271220Z AUTO 28007G17KT 250V010 9999 BKN035
                        21/10 Q1018 NOSIG=
201606271150 METAR COR EGLL 271150Z AUTO 28010KT 250V320 9999 SCT034 BKN048
                        21/11 Q1018 NOSIG=
201606271120 METAR COR EGLL 271120Z AUTO 31008KT 280V340 9999 SCT032 BKN047
                        20/12 Q1018 NOSIG=
201606271050 METAR COR EGLL 271050Z AUTO 28008KT 240V350 9999 SCT020 BKN041
                        20/13 Q1018 NOSIG=
201606271020 METAR COR EGLL 271020Z AUTO 30006KT 250V360 9999 SCT019 BKN048
                        19/14 Q1018 NOSIG=
201606270950 METAR COR EGLL 270950Z AUTO 31007KT 280V350 9999 FEW019 BKN043
                        19/14 Q1018 NOSIG=
201606270920 METAR COR EGLL 270920Z AUTO 33007KT 300V010 9999 BKN017 18/13
                        Q1017 NOSIG=
201606270850 METAR COR EGLL 270850Z AUTO 30006KT 260V330 9999 BKN013 18/15
                        Q1017 BECMG BKN016=
201606270820 METAR COR EGLL 270820Z AUTO 29006KT 9999 BKN013 17/16 Q1017
                        NOSIG=
201606270750 METAR COR EGLL 270750Z AUTO 28008KT 9999 BKN009 BKN023 OVC049
                        17/16 Q1017 BECMG FEW009 BKN020=
201606270720 METAR COR EGLL 270720Z AUTO 27009KT 9999 SCT009 BKN026 OVC041
                        17/16 Q1017 NOSIG=
201606270650 METAR COR EGLL 270650Z AUTO 27009KT 9999 SCT010 BKN017 OVC033
                        16/16 Q1016 TEMPO BKN010=
201606270620 METAR COR EGLL 270620Z AUTO 27009KT 9999 SCT009 BKN024 16/16
                        Q1016 NOSIG=
201606270550 METAR COR EGLL 270550Z AUTO 27009KT 9999 SCT008 OVC020 16/16
                        Q1016 NOSIG=
201606270520 METAR COR EGLL 270520Z AUTO 26008KT 9999 FEW008 BKN018 16/16
                        Q1016 TEMPO BKN012=
201606270450 METAR COR EGLL 270450Z AUTO 27010KT 9999 BKN006 OVC014 16/16
                        Q1015 TEMPO SCT008 BKN014=
201606270420 METAR COR EGLL 270420Z 27009KT 9999 FEW006 BKN020 16/16 Q1015=
201606270350 METAR COR EGLL 270350Z AUTO 25007KT 6000 OVC005 16/16 Q1015
                        BECMG BKN010=
201606270320 METAR COR EGLL 270320Z AUTO 24007KT 9999 OVC005 16/16 Q1015
                        NOSIG=
201606270250 METAR COR EGLL 270250Z AUTO 24007KT 5000 -DZ OVC005 16/16
                        Q1015 TEMPO 4000 -RADZ BKN004=
201606270220 METAR COR EGLL 270220Z AUTO 24006KT 5000 -DZ OVC006 16/16
                        Q1015 TEMPO 4000 -RADZ=
201606270150 METAR COR EGLL 270150Z AUTO 23007KT 9999 OVC006 15/15 Q1015
                        NOSIG=
201606270120 METAR EGLL 270120Z AUTO 23007KT 9999 -RA OVC004 15/15 Q1015=
201606270050 METAR COR EGLL 270050Z AUTO 23007KT 9999 OVC004 15/15 Q1016
                        TEMPO BKN006=
201606270020 METAR COR EGLL 270020Z AUTO 22007KT 7000 BKN004 15/15 Q1016
                        TEMPO 4000 -RADZ=
201606262350 METAR COR EGLL 262350Z 21008KT 9999 BKN006 15/15 Q1016 TEMPO
                        4000 -RADZ BKN004=
201606262320 METAR COR EGLL 262320Z 21008KT 9999 SCT004 BKN006 14/14 Q1016
                        TEMPO 4000 -RADZ BKN004=
201606262250 METAR COR EGLL 262250Z 21007KT 4000 -RADZ SCT004 BKN006 14/14
                        Q1016 TEMPO 5000 BKN004=
201606262220 METAR COR EGLL 262220Z 22008KT 5000 -DZ SCT005 BKN008 15/15
                        Q1017 NOSIG=
201606262150 METAR COR EGLL 262150Z 22009KT 9999 FEW011 BKN025 15/14 Q1017
                        TEMPO BKN008=
201606262120 METAR COR EGLL 262120Z AUTO 22008KT 9999 -RA BKN011 BKN023
                        15/14 Q1017 TEMPO BKN008=
201606262050 METAR COR EGLL 262050Z AUTO 21007KT 170V260 9999 FEW015 15/14
                        Q1017 TEMPO BKN014=
201606262020 METAR COR EGLL 262020Z AUTO 22007KT 190V250 9999 -RA SCT023
                        15/13 Q1017 TEMPO BKN014=
201606261950 METAR COR EGLL 261950Z AUTO 23008KT 9999 -RA BKN026 15/13
                        Q1017 TEMPO BKN014=
201606261920 METAR COR EGLL 261920Z AUTO 24009KT 9999 -RA OVC031 15/13
                        Q1018 NOSIG=
201606261850 METAR COR EGLL 261850Z AUTO 27009KT 9999 -RA BKN033 15/12
                        Q1018 NOSIG=
201606261820 METAR COR EGLL 261820Z AUTO 27011KT 9999 -RA BKN037 16/11
                        Q1018 NOSIG=
201606261750 METAR COR EGLL 261750Z AUTO 25012KT 9999 -RA OVC044 16/11
                        Q1018 NOSIG=
201606261720 METAR COR EGLL 261720Z AUTO 27014KT 9999 NCD 17/10 Q1018
                        NOSIG=
201606261650 METAR COR EGLL 261650Z AUTO 28014KT 9999 FEW031 18/11 Q1017
                        NOSIG=
201606261620 METAR COR EGLL 261620Z AUTO 26015KT 9999 FEW031 18/11 Q1017
                        NOSIG=
201606261550 METAR COR EGLL 261550Z AUTO 27014KT 9999 FEW031 19/11 Q1017
                        NOSIG=
201606261520 METAR COR EGLL 261520Z AUTO 25015KT 9999 SCT031 19/11 Q1017
                        NOSIG=
201606261450 METAR COR EGLL 261450Z AUTO 27012KT 9999 BKN032 20/11 Q1017
                        NOSIG=
201606261420 METAR COR EGLL 261420Z AUTO 26011KT 9999 FEW036 20/11 Q1017
                        NOSIG=
201606261350 METAR COR EGLL 261350Z AUTO 27014KT 9999 SCT038 20/11 Q1017
                        NOSIG=
201606261320 METAR COR EGLL 261320Z AUTO 27012KT 9999 SCT038 20/11 Q1018
                        NOSIG=
201606261250 METAR COR EGLL 261250Z AUTO 27012KT 9999 SCT036 19/11 Q1018
                        NOSIG=
201606261220 METAR COR EGLL 261220Z AUTO 28011KT 240V320 9999 FEW032 19/11
                        Q1018 NOSIG=
201606261150 METAR COR EGLL 261150Z AUTO 30010KT 9999 SCT031 BKN046 18/11
                        Q1018 NOSIG=
201606261120 METAR COR EGLL 261120Z AUTO 30010KT 9999 SCT029 18/11 Q1018
                        NOSIG=
201606261050 METAR COR EGLL 261050Z AUTO 31009KT 270V350 9999 BKN029 BKN042
                        17/11 Q1018 NOSIG=
201606261020 METAR COR EGLL 261020Z AUTO 29007KT 250V340 9999 BKN027 BKN045
                        17/11 Q1018 NOSIG=
201606260950 METAR COR EGLL 260950Z AUTO 29009KT 260V340 9999 BKN027 17/11
                        Q1018 NOSIG=
201606260920 METAR COR EGLL 260920Z AUTO 31009KT 280V340 9999 BKN022 16/11
                        Q1018 NOSIG=
201606260850 METAR COR EGLL 260850Z AUTO 30008KT 270V340 9999 BKN020 16/11
                        Q1018 NOSIG=
201606260820 METAR COR EGLL 260820Z AUTO 29009KT 9999 FEW017 15/11 Q1018
                        NOSIG=
201606260750 METAR COR EGLL 260750Z AUTO 29008KT 9999 FEW018 15/11 Q1018
                        NOSIG=
201606260720 METAR COR EGLL 260720Z AUTO 29007KT 250V330 9999 FEW016 BKN046
                        14/11 Q1018 NOSIG=
201606260650 METAR COR EGLL 260650Z AUTO 29007KT 9999 SCT036 OVC045 14/11
                        Q1018 NOSIG=
201606260620 METAR COR EGLL 260620Z AUTO 29007KT 9999 FEW011 BKN034 14/11
                        Q1018 TEMPO BKN012=
201606260550 METAR COR EGLL 260550Z AUTO 28010KT 9999 FEW012 SCT031 BKN045
                        14/12 Q1018 TEMPO BKN014=
201606260520 METAR COR EGLL 260520Z AUTO 27008KT 9999 FEW013 BKN028 BKN039
                        13/12 Q1018 NOSIG=
201606260450 METAR COR EGLL 260450Z AUTO 28009KT 9999 BKN025 13/12 Q1018
                        NOSIG=
201606260420 METAR COR EGLL 260420Z AUTO 27009KT 9999 BKN024 13/13 Q1018
                        NOSIG=
201606260350 METAR COR EGLL 260350Z AUTO 27008KT 9999 BKN026 13/13 Q1017
                        NOSIG=
201606260320 METAR COR EGLL 260320Z AUTO 27006KT 9999 FEW015 BKN030 13/13
                        Q1017 NOSIG=
201606260250 METAR COR EGLL 260250Z AUTO 28006KT 9999 SCT031 OVC048 13/13
                        Q1017 NOSIG=
201606260220 METAR COR EGLL 260220Z AUTO 27007KT 9999 FEW020 SCT038 13/13
                        Q1017 NOSIG=
201606260150 METAR COR EGLL 260150Z AUTO 29007KT 9999 BKN026 13/13 Q1018
                        NOSIG=
201606260120 METAR COR EGLL 260120Z AUTO 27008KT 9999 FEW025 12/12 Q1018
                        NOSIG=
201606260050 METAR COR EGLL 260050Z AUTO 29006KT 9999 NCD 12/12 Q1018
                        NOSIG=
201606260020 METAR COR EGLL 260020Z AUTO 28007KT 9999 NCD 12/12 Q1018
                        NOSIG=
201606252350 METAR COR EGLL 252350Z AUTO 27007KT 9999 NCD 13/12 Q1018
                        NOSIG=
201606252320 METAR COR EGLL 252320Z AUTO 29005KT 9999 NCD 13/11 Q1018
                        NOSIG=
201606252250 METAR COR EGLL 252250Z AUTO 30005KT 9999 NCD 13/11 Q1017
                        NOSIG=
201606252220 METAR COR EGLL 252220Z AUTO 32007KT 9999 -RA FEW020/// BKN036///
                        //////TCU 14/12 Q1017 NOSIG=
201606252150 METAR COR EGLL 252150Z AUTO 30007KT 9999 BKN037/// //////CB
                        16/11 Q1017 TEMPO SHRA=
201606252120 METAR EGLL 252120Z AUTO 28008KT 9999 //////CB 16/11 Q1017=
201606252050 METAR COR EGLL 252050Z AUTO 29009KT 9999 NCD 16/11 Q1017
                        TEMPO SHRA=
201606252020 METAR COR EGLL 252020Z AUTO 28007KT 9999 NCD 16/11 Q1017
                        NOSIG=
201606251950 METAR COR EGLL 251950Z AUTO 27008KT 9999 NCD 16/11 Q1017
                        NOSIG=
201606251920 METAR COR EGLL 251920Z AUTO 28007KT 9999 NCD 16/11 Q1016
                        NOSIG=
201606251850 METAR COR EGLL 251850Z AUTO 28008KT 9999 FEW036 16/11 Q1016
                        NOSIG=
201606251820 METAR COR EGLL 251820Z AUTO 27009KT 9999 NCD 16/10 Q1016
                        TEMPO SHRA=
201606251750 METAR COR EGLL 251750Z AUTO 28009KT 9999 //////CB 17/11 Q1016
                        TEMPO SHRA=
201606251720 METAR COR EGLL 251720Z AUTO 27013KT 9999 //////CB 18/12 Q1016
                        NOSIG=
201606251650 METAR COR EGLL 251650Z AUTO 27012KT 9999 FEW033/// //////CB
                        19/11 Q1016 TEMPO SHRA=
201606251620 METAR COR EGLL 251620Z AUTO 27013KT 9999 FEW036/// //////CB
                        19/10 Q1016 TEMPO SHRA=
201606251550 METAR COR EGLL 251550Z AUTO 27008KT 240V320 9999 FEW035///
                        //////CB 19/12 Q1016 TEMPO SHRA=
201606251520 METAR COR EGLL 251520Z AUTO 27010KT 230V310 9999 SCT028///
                        //////CB 19/10 Q1016 TEMPO SHRA=
201606251450 METAR COR EGLL 251450Z AUTO 28008KT 240V310 9999 SCT026///
                        //////CB 19/12 Q1016 TEMPO SHRA=
201606251420 METAR COR EGLL 251420Z AUTO 27010KT 230V310 9999 FEW028///
                        //////CB 19/11 Q1016 TEMPO SHRA=
201606251350 METAR COR EGLL 251350Z AUTO 26009KT 9999 FEW035/// //////TCU
                        17/10 Q1017 TEMPO SHRA=
201606251320 METAR COR EGLL 251320Z AUTO 27010KT 9999 FEW017/// //////CB
                        16/11 Q1016 TEMPO SHRA=
201606251250 METAR COR EGLL 251250Z AUTO 29009KT 9999 -RA BKN036/// //////CB
                        15/11 Q1016 RETS RESHRA TEMPO 4500
                        +TSRA=
201606251220 METAR COR EGLL 251220Z AUTO 30011KT 270V340 9999 -RA SCT028///
                        BKN044/// //////CB 17/10 Q1016 TEMPO
                        4500 TSRA=
201606251150 METAR COR EGLL 251150Z AUTO 31011KT 9999 -RA FEW028/// SCT042///
                        //////CB 19/12 Q1016 TEMPO +SHRA=
201606251120 METAR COR EGLL 251120Z AUTO 27007KT 230V320 9999 FEW029///
                        //////CB 19/11 Q1016 TEMPO 4500 +SHRA=
201606251050 METAR COR EGLL 251050Z AUTO 27007KT 9999 FEW027/// //////CB
                        17/11 Q1017 TEMPO 4500 +SHRA=
201606251020 METAR COR EGLL 251020Z AUTO 26008KT 230V290 9999 SCT024///
                        //////CB 18/11 Q1017 TEMPO 4500 +TSRA=
201606250950 METAR COR EGLL 250950Z AUTO 25009KT 9999 SCT023/// //////CB
                        17/11 Q1017 TEMPO 4500 +SHRA=
201606250920 METAR COR EGLL 250920Z AUTO 26007KT 9999 SCT020 BKN048 17/11
                        Q1017 TEMPO SHRA=
201606250850 METAR COR EGLL 250850Z AUTO 28005KT 230V340 9999 SCT016 16/11
                        Q1017 TEMPO SHRA=
201606250820 METAR COR EGLL 250820Z 28005KT 230V340 9999 SCT016 15/12
                        Q1017 TEMPO SHRA=
201606250750 METAR COR EGLL 250750Z 30005KT 270V340 9999 SCT015 15/11
                        Q1017 NOSIG=
201606250720 METAR COR EGLL 250720Z AUTO 29005KT 260V320 9999 SCT010 OVC024
                        14/11 Q1017 TEMPO BKN014=
201606250650 METAR COR EGLL 250650Z AUTO 28006KT 250V330 9999 BKN010 14/11
                        Q1017 BECMG BKN015=
201606250620 METAR COR EGLL 250620Z AUTO 27008KT 9999 SCT010 14/11 Q1017
                        TEMPO BKN012=
201606250550 METAR COR EGLL 250550Z AUTO 26007KT 9999 SCT010 13/11 Q1017
                        NOSIG=
201606250520 METAR COR EGLL 250520Z AUTO 26006KT 220V300 9999 NCD 13/11
                        Q1017 NOSIG=
201606250450 METAR COR EGLL 250450Z AUTO 28006KT 9999 NCD 12/11 Q1017
                        NOSIG=
201606250420 METAR COR EGLL 250420Z AUTO 28007KT 9999 NCD 12/11 Q1017
                        NOSIG=
201606250350 METAR COR EGLL 250350Z AUTO 27006KT 9999 NCD 12/11 Q1017
                        NOSIG=
201606250320 METAR COR EGLL 250320Z AUTO 27004KT 9999 NCD 13/11 Q1017
                        NOSIG=
201606250250 METAR COR EGLL 250250Z AUTO 27006KT 9999 NCD 13/11 Q1017
                        NOSIG=
201606250220 METAR COR EGLL 250220Z AUTO 25006KT 9999 NCD 13/11 Q1017
                        NOSIG=
201606250150 METAR COR EGLL 250150Z AUTO 24006KT 9999 NCD 14/11 Q1017
                        NOSIG=
201606250120 METAR COR EGLL 250120Z AUTO 27007KT 9999 NCD 14/11 Q1017
                        NOSIG=
201606250050 METAR EGLL 250050Z AUTO 25008KT 9999 NCD 14/11 Q1017=
201606250020 METAR COR EGLL 250020Z AUTO 24007KT 9999 NCD 15/11 Q1018
                        NOSIG=
201606242350 METAR COR EGLL 242350Z AUTO 24006KT 9999 NCD 15/11 Q1018
                        NOSIG=
201606242320 METAR COR EGLL 242320Z AUTO 24007KT 9999 NCD 15/12 Q1018
                        NOSIG=
201606242250 METAR COR EGLL 242250Z AUTO 21006KT 9999 NCD 15/13 Q1018
                        NOSIG=
201606242220 METAR COR EGLL 242220Z AUTO 21007KT 9999 NCD 15/12 Q1018
                        NOSIG=
201606242150 METAR COR EGLL 242150Z AUTO 22007KT 9999 NCD 15/11 Q1018
                        NOSIG=
201606242120 METAR COR EGLL 242120Z AUTO 21007KT 9999 NCD 16/11 Q1018
                        NOSIG=
201606242050 METAR COR EGLL 242050Z AUTO 23009KT 9999 NCD 17/10 Q1018
                        NOSIG=
201606242020 METAR COR EGLL 242020Z AUTO 23008KT 9999 NCD 17/10 Q1018
                        NOSIG=
201606241950 METAR COR EGLL 241950Z AUTO 24008KT 9999 //////TCU 17/10
                        Q1017 NOSIG=
201606241920 METAR COR EGLL 241920Z AUTO 24008KT 9999 NCD 17/10 Q1017
                        NOSIG=
201606241850 METAR COR EGLL 241850Z AUTO 24012KT 9999 FEW033 18/11 Q1017
                        NOSIG=
201606241820 METAR COR EGLL 241820Z AUTO 26010KT 9999 SCT030 18/11 Q1017
                        NOSIG=
201606241750 METAR COR EGLL 241750Z AUTO 25013KT 210V280 9999 SCT031 19/11
                        Q1017 NOSIG=
201606241720 METAR COR EGLL 241720Z AUTO 22014KT 9999 FEW030/// //////TCU
                        19/11 Q1017 NOSIG=
201606241650 METAR EGLL 241650Z AUTO 22015KT 9999 FEW033/// SCT046///
                        //////CB 20/12 Q1017=
201606241620 METAR COR EGLL 241620Z AUTO 22015KT 9999 SCT035 20/12 Q1017
                        NOSIG=
201606241550 METAR COR EGLL 241550Z AUTO 21015KT 9999 SCT036 21/12 Q1017
                        NOSIG=
201606241520 METAR COR EGLL 241520Z AUTO 22014KT 9999 SCT038 21/12 Q1017
                        NOSIG=
201606241450 METAR COR EGLL 241450Z AUTO 23017KT 9999 BKN038 21/11 Q1017
                        NOSIG=
201606241420 METAR EGLL 241420Z AUTO 22014KT 9999 BKN038/// //////CB 22/12
                        Q1017=
201606241350 METAR EGLL 241350Z AUTO 21015KT 180V240 9999 BKN036/// //////CB
                        21/12 Q1017=
201606241320 METAR COR EGLL 241320Z AUTO 22015KT 9999 BKN033 21/13 Q1017
                        NOSIG=
201606241250 METAR EGLL 241250Z AUTO 21013KT 180V240 9999 SCT030/// BKN046///
                        //////CB 21/13 Q1017=
201606241220 METAR EGLL 241220Z AUTO 21013KT 160V250 9999 FEW032/// BKN042///
                        //////CB 21/13 Q1018=
201606241150 METAR COR EGLL 241150Z AUTO 21011KT 170V250 9999 SCT029 BKN047
                        20/13 Q1018 NOSIG=
201606241120 METAR COR EGLL 241120Z AUTO 21009KT 160V250 9999 FEW027 SCT045
                        20/14 Q1018 NOSIG=
201606241050 METAR COR EGLL 241050Z AUTO 24009KT 210V280 9999 SCT026 BKN038
                        19/13 Q1019 NOSIG=
201606241020 METAR COR EGLL 241020Z AUTO 24009KT 9999 BKN025 19/13 Q1019
                        NOSIG=
201606240950 METAR COR EGLL 240950Z AUTO 25008KT 210V300 9999 BKN024 19/13
                        Q1019 NOSIG=
201606240920 METAR COR EGLL 240920Z AUTO 27008KT 210V290 9999 SCT019 19/13
                        Q1019 NOSIG=
201606240850 METAR COR EGLL 240850Z 25007KT 220V290 9999 SCT017 18/13
                        Q1019 NOSIG=
201606240820 METAR COR EGLL 240820Z 26008KT 9999 FEW014 SCT035 17/13 Q1019
                        NOSIG=
201606240750 METAR COR EGLL 240750Z AUTO 26009KT 9999 SCT013 17/13 Q1019
                        NOSIG=
201606240720 METAR COR EGLL 240720Z AUTO 22006KT 170V250 9999 NCD 16/14
                        Q1018 NOSIG=
201606240650 METAR COR EGLL 240650Z AUTO 24007KT 9999 FEW010 15/14 Q1018
                        NOSIG=
201606240620 METAR COR EGLL 240620Z AUTO 24007KT 9999 NCD 14/13 Q1018
                        NOSIG=
201606240550 METAR COR EGLL 240550Z AUTO 23006KT 190V280 9999 FEW009 14/13
                        Q1018 NOSIG=
201606240520 METAR COR EGLL 240520Z AUTO 26005KT 230V290 9999 FEW030 13/13
                        Q1018 NOSIG=
201606240450 METAR COR EGLL 240450Z AUTO 27005KT 9999 FEW029 13/12 Q1018
                        NOSIG=
201606240420 METAR COR EGLL 240420Z AUTO 27006KT 9999 NCD 12/12 Q1017
                        NOSIG=
201606240350 METAR COR EGLL 240350Z AUTO 26004KT 9999 NCD 12/12 Q1017
                        NOSIG=
201606240320 METAR COR EGLL 240320Z AUTO 27008KT 9999 NCD 12/12 Q1018
                        NOSIG=
201606240250 METAR COR EGLL 240250Z AUTO 26007KT 9999 NCD 13/13 Q1017
                        NOSIG=
201606240220 METAR COR EGLL 240220Z AUTO 27006KT 9999 FEW040 13/13 Q1017
                        NOSIG=
201606240150 METAR COR EGLL 240150Z AUTO 27006KT 9999 SCT037 13/13 Q1017
                        NOSIG=
201606240120 METAR COR EGLL 240120Z AUTO 26007KT 9999 NCD 13/13 Q1017
                        NOSIG=
201606240050 METAR EGLL 240050Z AUTO 27008KT 9999 BKN033 14/13 Q1017=
201606240020 METAR EGLL 240020Z AUTO 25008KT 9999 FEW033 14/13 Q1017=
201606232350 METAR COR EGLL 232350Z AUTO 24007KT 9999 NCD 15/14 Q1017
                        NOSIG=
201606232320 METAR COR EGLL 232320Z AUTO 26007KT 9999 NCD 15/14 Q1017
                        NOSIG=
201606232250 METAR COR EGLL 232250Z AUTO 27011KT 9999 FEW023 16/14 Q1017
                        NOSIG=
201606232220 METAR COR EGLL 232220Z AUTO 27010KT 9999 FEW012 BKN023 17/16
                        Q1016 NOSIG=
201606232150 METAR COR EGLL 232150Z AUTO 27010KT 9999 BKN019 18/17 Q1016
                        NOSIG=
201606232120 METAR COR EGLL 232120Z AUTO 27007KT 9000 FEW007 BKN023 OVC045
                        19/19 Q1016 NOSIG=
201606232050 METAR COR EGLL 232050Z AUTO 25007KT 7000 SCT010 SCT022 OVC040
                        19/19 Q1016 NOSIG=
201606232020 METAR COR EGLL 232020Z AUTO 28004KT 8000 FEW010 BKN025 19/19
                        Q1016 NOSIG=
201606231950 METAR COR EGLL 231950Z AUTO 26005KT 8000 -RA FEW008 BKN025
                        19/19 Q1016 NOSIG=
201606231920 METAR COR EGLL 231920Z AUTO 28004KT 230V310 8000 SCT005 BKN026
                        19/19 Q1015 NOSIG=
201606231850 METAR COR EGLL 231850Z AUTO 28005KT 250V320 9999 FEW006///
                        BKN024/// //////CB 20/19 Q1015 NOSIG=
201606231820 METAR COR EGLL 231820Z 28006KT 9000 -SHRA FEW007CB SCT012
                        19/19 Q1015 TEMPO BKN012=
201606231750 METAR COR EGLL 231750Z 28005KT 9000 -SHRA FEW004CB BKN012
                        19/19 Q1015 RESHRA TEMPO SCT012 BKN022=
201606231720 METAR COR EGLL 231720Z 34006KT 310V020 6000 SHRA SCT004CB
                        BKN014 BKN035 19/19 Q1014 TEMPO NSW
                        SCT014 BKN020=
201606231650 METAR COR EGLL 231650Z 21008KT 170V250 9000 -SHRA FEW004CB
                        SCT006 OVC013 20/20 Q1015 TEMPO SHRA=
201606231620 METAR COR EGLL 231620Z AUTO 19009KT 170V230 9999 -RA SCT004///
                        OVC009/// //////CB 20/20 Q1015 TEMPO
                        SHRA=
201606231550 METAR COR EGLL 231550Z AUTO 19007KT 160V230 9999 -RA FEW005///
                        BKN018/// OVC039/// //////CB 20/20
                        Q1015 RESHRA TEMPO SHRA BKN012=
201606231520 METAR COR EGLL 231520Z 22005KT 170V240 7000 SHRA SCT005CB
                        OVC013 20/20 Q1015 TEMPO 4500 +SHRA=
201606231450 METAR COR EGLL 231450Z 22006KT 180V250 8000 -SHRA SCT006CB
                        BKN015 20/20 Q1016 TEMPO 3000 +TSRA
                        BKN006CB=
201606231420 METAR COR EGLL 231420Z 20009KT 160V230 9000 -SHRA FEW006
                        SCT008 BKN011 21/20 Q1016 TEMPO 4500
                        +SHRA=
201606231350 METAR COR EGLL 231350Z 21007KT 170V250 9000 -SHRA SCT004
                        BKN010 21/20 Q1016 TEMPO 4500 +SHRA=
201606231320 METAR COR EGLL 231320Z AUTO 21007KT 180V250 9999 BKN005 21/20
                        Q1016 BECMG FEW004 BKN011=
201606231250 METAR COR EGLL 231250Z AUTO 22008KT 190V250 9999 BKN005 21/20
                        Q1016 BECMG FEW007 BKN027=
201606231220 METAR COR EGLL 231220Z 22006KT 190V250 9999 -RA FEW004 SCT006
                        BKN012 21/20 Q1016 NOSIG=
201606231150 METAR COR EGLL 231150Z 22006KT 9000 -RA FEW004 SCT012 BKN016
                        20/20 Q1016 TEMPO BKN012=
201606231120 METAR COR EGLL 231120Z 20006KT 5000 -RA FEW004 BKN012 BKN024
                        20/20 Q1016 TEMPO SCT012=
201606231050 METAR COR EGLL 231050Z 21005KT 160V240 9999 -RA FEW005 SCT013
                        BKN017 20/20 Q1016 TEMPO SHRA BKN014=
201606231020 METAR COR EGLL 231020Z 31002KT 9999 -RA SCT009 BKN013 21/20
                        Q1015 TEMPO SCT013 BKN020=
201606230950 METAR COR EGLL 230950Z 32003KT 9999 FEW006 SCT016 BKN024
                        21/20 Q1015 NOSIG=
201606230920 METAR COR EGLL 230920Z VRB03KT 9999 SCT006 BKN016 20/20 Q1015
                        NOSIG=
201606230850 METAR COR EGLL 230850Z AUTO VRB01KT 9999 BKN006 OVC014 20/20
                        Q1015 TEMPO SCT007 BKN014=
201606230820 METAR COR EGLL 230820Z VRB02KT 9999 BKN006 20/20 Q1015 TEMPO
                        SCT006 BKN014=
201606230750 METAR COR EGLL 230750Z 14004KT 9999 FEW003 BKN006 20/20 Q1015
                        BECMG SCT006 BKN010=
201606230720 METAR COR EGLL 230720Z VRB03KT 9999 FEW002 BKN006 19/19 Q1015
                        BECMG SCT006 BKN015=
201606230650 METAR COR EGLL 230650Z VRB02KT 6000 -RA FEW002 BKN005 19/19
                        Q1015 BECMG SCT007 BKN015=
201606230620 METAR EGLL 230620Z VRB02KT 9999 -RA FEW003 BKN005 19/19 Q1015=
201606230550 METAR COR EGLL 230550Z VRB03KT 6000 -RA FEW003 BKN006 18/18
                        Q1015 TEMPO 4000 SHRA=
201606230520 METAR COR EGLL 230520Z VRB03KT 6000 -RA FEW004 BKN006 18/18
                        Q1016 RESHRA TEMPO 4000 SHRA=
201606230450 METAR COR EGLL 230450Z VRB02KT 5000 SHRA FEW003 BKN005 18/18
                        Q1016 RESHRA RERA TEMPO 4000 +SHRA=
201606230420 METAR COR EGLL 230420Z AUTO VRB02KT 9999 -RA SCT002/// //////CB
                        18/18 Q1016 RERA TEMPO SHRA BKN003=
201606230350 METAR COR EGLL 230350Z AUTO 06003KT 7000 -RA FEW005/// BKN023///
                        //////CB 18/18 Q1016 TEMPO SHRA BKN005=
201606230320 METAR COR EGLL 230320Z AUTO VRB02KT 9000 -RA FEW003/// OVC031///
                        //////CB 18/18 Q1016 TEMPO SHRA BKN005=
201606230250 METAR COR EGLL 230250Z 07004KT 030V090 8000 -SHRA FEW001
                        BKN041CB 18/18 Q1016 RESHRA TEMPO
                        4000 SHRA=
201606230220 METAR COR EGLL 230220Z VRB02KT 5000 SHRA FEW003 BKN025CB
                        18/18 Q1016 RESHRA TEMPO 2000 +TSRA=
201606230150 METAR COR EGLL 230150Z AUTO 12004KT 070V140 5000 -RA FEW003///
                        BKN015/// //////CB 18/18 Q1016 RETS
                        RERA TEMPO 2000 +TSRA BKN004=
201606230120 METAR COR EGLL 230120Z 16005KT 7000 TSRA FEW003 BKN004 SCT020CB
                        18/18 Q1017 RETS RERA TEMPO 2500
                        +TSRA=
201606230050 METAR COR EGLL 230050Z AUTO 14005KT 2500 +TSRA BKN002///
                        //////CB 18/18 Q1017 TEMPO 9999 -SHRA
                        SCT002=
201606230020 METAR COR EGLL 230020Z AUTO VRB02KT 9000 -RA VCTS FEW005///
                        SCT019/// //////CB 18/18 Q1017 TEMPO
                        4000 +TSRA=
201606222350 METAR COR EGLL 222350Z AUTO VRB02KT 8000 -RA FEW014/// BKN019///
                        //////CB 18/18 Q1017 RERA TEMPO 4000
                        TSRA=
201606222320 METAR COR EGLL 222320Z AUTO 13004KT 9999 FEW009/// //////CB
                        18/18 Q1018 TEMPO 4000 TSRA=
201606222250 METAR EGLL 222250Z AUTO VRB02KT 9999 -RA //////CB 18/18 Q1017=
201606222220 METAR COR EGLL 222220Z AUTO 16005KT 120V200 9999 -RA SCT043///
                        //////CB 19/17 Q1018 TEMPO SHRA=
201606222150 METAR COR EGLL 222150Z 16008KT 100V210 9999 7000SE -SHRA
                        VCTS SCT040CB 20/17 Q1018 TEMPO 4000
                        TSRA=
201606222120 METAR COR EGLL 222120Z AUTO 14004KT 110V180 9999 //////CB
                        20/17 Q1018 TEMPO 4000 TSRA=
201606222050 METAR COR EGLL 222050Z AUTO 15004KT 100V210 9999 NCD 20/16
                        Q1018 NOSIG=
201606222020 METAR COR EGLL 222020Z AUTO 19005KT 160V240 9999 NCD 20/16
                        Q1018 NOSIG=
201606221950 METAR COR EGLL 221950Z AUTO 18006KT 130V220 9999 NCD 20/17
                        Q1018 NOSIG=
201606221920 METAR COR EGLL 221920Z AUTO 18007KT 140V210 9999 FEW027///
                        //////CB 21/17 Q1018 NOSIG=
201606221850 METAR COR EGLL 221850Z AUTO 19007KT 150V240 9999 BKN025 21/17
                        Q1018 NOSIG=
201606221820 METAR COR EGLL 221820Z AUTO 20008KT 9999 BKN027 21/17 Q1018
                        TEMPO SHRA=
201606221750 METAR COR EGLL 221750Z AUTO 19008KT 160V240 9999 BKN023 21/17
                        Q1018 NOSIG=
201606221720 METAR COR EGLL 221720Z AUTO 19007KT 170V240 9999 BKN018 21/17
                        Q1018 NOSIG=
201606221650 METAR COR EGLL 221650Z AUTO 18009KT 130V220 9999 BKN017 21/17
                        Q1018 NOSIG=
201606221620 METAR COR EGLL 221620Z AUTO 20008KT 160V230 9999 BKN017 21/17
                        Q1018 NOSIG=
201606221550 METAR COR EGLL 221550Z AUTO 20010KT 9999 FEW017 BKN024 22/17
                        Q1018 NOSIG=
201606221520 METAR COR EGLL 221520Z AUTO 19011KT 140V230 9999 OVC017 21/17
                        Q1018 NOSIG=
201606221450 METAR COR EGLL 221450Z AUTO 20010KT 170V240 9999 OVC016 21/17
                        Q1019 NOSIG=
201606221420 METAR COR EGLL 221420Z AUTO 20009KT 9999 BKN016 22/17 Q1019
                        NOSIG=
201606221350 METAR COR EGLL 221350Z AUTO 20011KT 160V240 9999 BKN014 21/17
                        Q1019 BECMG SCT018=
201606221320 METAR COR EGLL 221320Z AUTO 20011KT 170V240 9999 BKN012 20/17
                        Q1019 BECMG SCT014 BKN025=
201606221250 METAR COR EGLL 221250Z AUTO 20010KT 170V240 9999 BKN013 20/17
                        Q1019 TEMPO SCT014 BKN025=
201606221220 METAR COR EGLL 221220Z 22007KT 180V260 9999 FEW009 BKN014
                        20/17 Q1019 TEMPO SCT012 BKN016=
201606221150 METAR COR EGLL 221150Z 19006KT 150V240 9999 FEW008 BKN012
                        19/17 Q1019 TEMPO SCT012 BKN016=
201606221120 METAR COR EGLL 221120Z AUTO 20009KT 160V250 9999 OVC008 19/17
                        Q1019 BECMG FEW009 BKN012=
201606221050 METAR COR EGLL 221050Z 18010KT 140V250 9999 BKN009 20/18
                        Q1019 BECMG SCT009 BKN013=
201606221020 METAR EGLL 221020Z 18005KT 140V240 9999 FEW005 BKN009 18/18
                        Q1019=
201606220950 METAR COR EGLL 220950Z 17005KT 120V250 7000 FEW004 BKN008
                        17/17 Q1019 BECMG SCT008 BKN012=
201606220920 METAR COR EGLL 220920Z VRB03KT 5000 -DZ FEW003 BKN009 17/17
                        Q1019 TEMPO 4500 SCT009 BKN011=
201606220850 METAR COR EGLL 220850Z VRB03KT 4400 -DZ FEW004 BKN009 16/16
                        Q1019 TEMPO 7000 BKN011=
201606220820 METAR COR EGLL 220820Z 13004KT 080V190 4800 -DZ FEW006 BKN010
                        16/16 Q1019 REDZ TEMPO 7000 BKN008=
201606220750 METAR COR EGLL 220750Z VRB03KT 4800 -DZ BKN013 16/14 Q1019
                        TEMPO 7000 BKN009=
201606220720 METAR COR EGLL 220720Z VRB01KT 9000 -DZ BKN013 16/14 Q1019
                        TEMPO 4800 DZ BKN008=
201606220650 METAR COR EGLL 220650Z VRB01KT 9999 FEW010 BKN028 16/14 Q1019
                        TEMPO DZ BKN009=
201606220620 METAR COR EGLL 220620Z VRB03KT 9999 VCSH FEW011 BKN033 16/14
                        Q1019 TEMPO -RADZ BKN009=
201606220550 METAR COR EGLL 220550Z VRB02KT 9999 SCT033 16/14 Q1019 NOSIG=
201606220520 METAR COR EGLL 220520Z VRB03KT 9999 SCT033 15/14 Q1019 NOSIG=
201606220450 METAR COR EGLL 220450Z VRB03KT 9999 FEW040 15/14 Q1019 NOSIG=
201606220420 METAR COR EGLL 220420Z AUTO 17005KT 9999 OVC044 15/14 Q1019
                        NOSIG=
201606220350 METAR COR EGLL 220350Z AUTO 17004KT 9999 OVC047 15/14 Q1019
                        NOSIG=
201606220320 METAR COR EGLL 220320Z AUTO VRB03KT 9999 FEW008 14/14 Q1019
                        NOSIG=
201606220250 METAR COR EGLL 220250Z AUTO 17004KT 150V210 9999 FEW009 15/14
                        Q1019 TEMPO BKN009=
201606220220 METAR COR EGLL 220220Z AUTO 20005KT 9999 NCD 15/13 Q1019
                        NOSIG=
201606220150 METAR COR EGLL 220150Z AUTO 20006KT 9000 FEW009 15/13 Q1019
                        TEMPO BKN009=
201606220120 METAR COR EGLL 220120Z AUTO 20007KT 9999 SCT009 15/13 Q1019
                        TEMPO BKN009=
201606220050 METAR COR EGLL 220050Z AUTO 20005KT 9999 NCD 15/13 Q1019
                        NOSIG=
201606220020 METAR COR EGLL 220020Z AUTO 21007KT 9999 NCD 15/13 Q1019
                        NOSIG=
201606212350 METAR COR EGLL 212350Z AUTO 20008KT 9999 NCD 15/13 Q1019
                        NOSIG=
201606212320 METAR COR EGLL 212320Z AUTO 22008KT 9999 NCD 15/13 Q1019
                        NOSIG=
201606212250 METAR COR EGLL 212250Z AUTO 22009KT 9999 NCD 16/13 Q1019
                        NOSIG=
201606212220 METAR COR EGLL 212220Z AUTO 22008KT 9999 NCD 16/13 Q1019
                        NOSIG=
201606212150 METAR COR EGLL 212150Z AUTO 22008KT 9999 NCD 17/13 Q1019
                        NOSIG=
201606212120 METAR COR EGLL 212120Z AUTO 22008KT 9999 NCD 17/13 Q1019
                        NOSIG=
201606212050 METAR COR EGLL 212050Z AUTO 21008KT 180V240 9999 FEW034 17/13
                        Q1018 NOSIG=
201606212020 METAR COR EGLL 212020Z AUTO 21009KT 9999 FEW033 SCT049 17/13
                        Q1018 NOSIG=
201606211950 METAR COR EGLL 211950Z AUTO 23011KT 9999 FEW038 SCT049 18/12
                        Q1018 NOSIG=
201606211920 METAR COR EGLL 211920Z AUTO 24009KT 200V260 9999 FEW028 BKN047
                        19/13 Q1018 NOSIG=
201606211850 METAR COR EGLL 211850Z AUTO 25008KT 9999 BKN029 BKN049 19/13
                        Q1018 NOSIG=
201606211820 METAR COR EGLL 211820Z AUTO 25009KT 9999 BKN033 OVC046 19/12
                        Q1017 NOSIG=
201606211750 METAR COR EGLL 211750Z AUTO 27007KT 240V310 9999 SCT034 19/12
                        Q1017 NOSIG=
201606211720 METAR COR EGLL 211720Z AUTO 27008KT 250V320 9999 BKN034 20/12
                        Q1017 NOSIG=
201606211650 METAR COR EGLL 211650Z AUTO 27007KT 230V300 9999 FEW033 OVC039
                        20/12 Q1017 NOSIG=
201606211620 METAR COR EGLL 211620Z AUTO 28008KT 9999 FEW030 BKN039 19/12
                        Q1018 NOSIG=
201606211550 METAR COR EGLL 211550Z AUTO 26008KT 220V300 9999 BKN034 19/12
                        Q1018 NOSIG=
201606211520 METAR COR EGLL 211520Z AUTO 28009KT 9999 BKN034 19/12 Q1018
                        NOSIG=
201606211450 METAR COR EGLL 211450Z AUTO 26009KT 230V290 9999 OVC031 20/12
                        Q1018 NOSIG=
201606211420 METAR COR EGLL 211420Z AUTO 25012KT 9999 OVC032 19/12 Q1018
                        NOSIG=
201606211350 METAR COR EGLL 211350Z AUTO 26010KT 210V290 9999 OVC033 20/12
                        Q1018 NOSIG=
201606211320 METAR COR EGLL 211320Z AUTO 26010KT 9999 BKN032 19/12 Q1017
                        NOSIG=
201606211250 METAR COR EGLL 211250Z AUTO 26013KT 9999 BKN032 19/12 Q1017
                        NOSIG=
201606211220 METAR COR EGLL 211220Z AUTO 24010KT 9999 BKN031 20/12 Q1017
                        NOSIG=
201606211150 METAR COR EGLL 211150Z AUTO 26012KT 230V300 9999 BKN031 20/12
                        Q1017 NOSIG=
201606211120 METAR COR EGLL 211120Z AUTO 26010KT 220V290 9999 BKN031 20/12
                        Q1017 NOSIG=
201606211050 METAR COR EGLL 211050Z AUTO 26009KT 230V300 9999 OVC029 19/12
                        Q1017 NOSIG=
201606211020 METAR COR EGLL 211020Z AUTO 27009KT 9999 BKN028 19/12 Q1017
                        NOSIG=
201606210950 METAR COR EGLL 210950Z AUTO 28010KT 9999 BKN026 19/12 Q1017
                        NOSIG=
201606210920 METAR COR EGLL 210920Z AUTO 26010KT 9999 BKN024 19/12 Q1017
                        NOSIG=
201606210850 METAR COR EGLL 210850Z AUTO 25009KT 220V290 9999 BKN020 18/12
                        Q1017 NOSIG=
201606210820 METAR COR EGLL 210820Z AUTO 27008KT 230V320 9999 BKN019 17/12
                        Q1016 NOSIG=
201606210750 METAR COR EGLL 210750Z AUTO 28008KT 9999 SCT017 SCT029 17/12
                        Q1016 NOSIG=
201606210720 METAR COR EGLL 210720Z AUTO 24007KT 210V270 9999 BKN029 17/12
                        Q1016 NOSIG=
201606210650 METAR COR EGLL 210650Z AUTO 27006KT 230V310 9999 NCD 16/12
                        Q1016 NOSIG=
201606210620 METAR COR EGLL 210620Z AUTO 26006KT 9999 FEW030 15/12 Q1016
                        NOSIG=
201606210550 METAR COR EGLL 210550Z AUTO 24007KT 9999 NCD 15/12 Q1016
                        NOSIG=
201606210520 METAR COR EGLL 210520Z 24007KT 9999 FEW032 15/12 Q1016 NOSIG=
201606210450 METAR COR EGLL 210450Z 25007KT 9999 SCT030 15/11 Q1016 NOSIG=
201606210420 METAR COR EGLL 210420Z AUTO 28006KT 9999 OVC030 14/11 Q1016
                        NOSIG=
201606210350 METAR COR EGLL 210350Z AUTO 27007KT 9999 BKN031 14/11 Q1015
                        NOSIG=
201606210320 METAR COR EGLL 210320Z AUTO 27007KT 9999 SCT029 14/11 Q1015
                        NOSIG=
201606210250 METAR COR EGLL 210250Z AUTO 27006KT 9999 OVC030 15/12 Q1015
                        NOSIG=
201606210220 METAR COR EGLL 210220Z AUTO 26007KT 9999 FEW031 15/12 Q1015
                        NOSIG=
201606210150 METAR COR EGLL 210150Z AUTO 25007KT 9999 FEW031 15/12 Q1015
                        NOSIG=
201606210120 METAR COR EGLL 210120Z AUTO 24006KT 9999 NCD 15/13 Q1015
                        NOSIG=
201606210050 METAR COR EGLL 210050Z AUTO 23006KT 9999 NCD 15/13 Q1015
                        NOSIG=
201606210020 METAR COR EGLL 210020Z AUTO 24005KT 9999 NCD 16/13 Q1015
                        NOSIG=
201606202350 METAR COR EGLL 202350Z AUTO 24006KT 9999 NCD 16/13 Q1015
                        NOSIG=
201606202320 METAR COR EGLL 202320Z AUTO 24005KT 9999 NCD 16/14 Q1015
                        NOSIG=
201606202250 METAR COR EGLL 202250Z AUTO 25006KT 9999 NCD 16/13 Q1015
                        NOSIG=
201606202220 METAR COR EGLL 202220Z AUTO 28006KT 9999 NCD 17/13 Q1015
                        NOSIG=
201606202150 METAR COR EGLL 202150Z AUTO 27007KT 9999 NCD 17/13 Q1015
                        NOSIG=
201606202120 METAR COR EGLL 202120Z AUTO 28006KT 9999 NCD 18/13 Q1015
                        NOSIG=
201606202050 METAR EGLL 202050Z AUTO 27006KT 9999 NCD 18/14 Q1014=
201606202020 METAR COR EGLL 202020Z AUTO 28006KT 9999 FEW030 19/14 Q1014
                        NOSIG=
201606201950 METAR COR EGLL 201950Z AUTO 28007KT 9999 NCD 19/14 Q1014
                        NOSIG=
201606201920 METAR COR EGLL 201920Z AUTO 27010KT 9999 NCD 20/14 Q1013
                        NOSIG=
201606201850 METAR COR EGLL 201850Z AUTO 25014KT 9999 NCD 21/14 Q1013
                        NOSIG=
201606201820 METAR EGLL 201820Z AUTO 25014KT 9999 FEW031 21/13 Q1013=
201606201750 METAR COR EGLL 201750Z AUTO 26013KT 230V290 9999 NCD 22/14
                        Q1013 NOSIG=
201606201720 METAR COR EGLL 201720Z AUTO 26015KT 240V300 9999 NCD 22/15
                        Q1012 NOSIG=
201606201650 METAR COR EGLL 201650Z AUTO 26013KT 9999 FEW042 21/15 Q1012
                        NOSIG=
201606201620 METAR COR EGLL 201620Z AUTO 27016KT 9999 FEW025 BKN041 21/15
                        Q1012 NOSIG=
201606201550 METAR COR EGLL 201550Z AUTO 27015KT 9999 FEW024 BKN044 21/16
                        Q1012 NOSIG=
201606201520 METAR COR EGLL 201520Z AUTO 27014KT 9999 FEW024/// OVC039///
                        //////CB 21/15 Q1012 NOSIG=
201606201450 METAR COR EGLL 201450Z AUTO 26013KT 9999 SCT022/// BKN048///
                        //////CB 21/16 Q1012 NOSIG=
201606201420 METAR COR EGLL 201420Z AUTO 26015KT 9999 FEW016/// SCT041///
                        //////CB 22/17 Q1012 NOSIG=
201606201350 METAR COR EGLL 201350Z AUTO 27011KT 9999 SCT014 SCT025 20/18
                        Q1012 NOSIG=
201606201320 METAR COR EGLL 201320Z AUTO 25011KT 9999 BKN011 19/17 Q1011
                        BECMG BKN015=
201606201250 METAR COR EGLL 201250Z AUTO 25010KT 9999 BKN009 19/17 Q1011
                        BECMG BKN012=
201606201220 METAR COR EGLL 201220Z AUTO 26012KT 9999 -RA BKN009 18/17
                        Q1011 BECMG BKN012=
201606201150 METAR COR EGLL 201150Z AUTO 25010KT 9999 BKN007 17/17 Q1011
                        TEMPO 4000 RADZ=
201606201120 METAR COR EGLL 201120Z 24009KT 9999 -RA FEW007 BKN011 17/17
                        Q1011 TEMPO -RADZ BKN008=
201606201050 METAR COR EGLL 201050Z 24009KT 200V270 7000 -RADZ FEW004
                        SCT007 BKN010 16/16 Q1012 RERA REDZ
                        NOSIG=
201606201020 METAR COR EGLL 201020Z 23010KT 190V250 4000 RADZ SCT005 BKN008
                        16/16 Q1012 NOSIG=
201606200950 METAR COR EGLL 200950Z 21010KT 180V250 5000 RADZ FEW005 BKN008
                        16/16 Q1012 TEMPO 4000=
201606200920 METAR COR EGLL 200920Z 20010KT 160V240 7000 -RADZ FEW004
                        SCT006 BKN009 15/15 Q1012 RERA REDZ
                        TEMPO 4000 RADZ=
201606200850 METAR COR EGLL 200850Z 21009KT 180V240 5000 RADZ FEW004 BKN008
                        15/15 Q1012 RERA REDZ TEMPO 3000=
201606200820 METAR COR EGLL 200820Z 22009KT 4500 RADZ SCT006 BKN009 15/15
                        Q1013 NOSIG=
201606200750 METAR COR EGLL 200750Z 21010KT 180V250 9999 -RA FEW005 BKN008
                        15/15 Q1013 RERA REDZ TEMPO 4000
                        RADZ=
201606200720 METAR COR EGLL 200720Z 21010KT 5000 RADZ SCT006 BKN009 15/15
                        Q1013 TEMPO 4000=
201606200650 METAR COR EGLL 200650Z 21010KT 9999 -RA FEW005 SCT009 BKN012
                        15/15 Q1013 TEMPO 4000 -RADZ BKN009=
201606200620 METAR COR EGLL 200620Z AUTO 22011KT 9999 -RA BKN007 15/15
                        Q1014 TEMPO SCT007 BKN012=
201606200550 METAR COR EGLL 200550Z AUTO 21011KT 9999 -RA OVC007 15/15
                        Q1014 TEMPO FEW007 BKN014=
201606200520 METAR COR EGLL 200520Z AUTO 21011KT 9999 -RA BKN006 OVC016
                        15/15 Q1014 NOSIG=
201606200450 METAR COR EGLL 200450Z AUTO 21010KT 9999 -RA OVC007 15/15
                        Q1014 TEMPO FEW007 BKN011=
201606200420 METAR COR EGLL 200420Z 22011KT 9999 -RA BKN008 15/15 Q1015
                        TEMPO SCT008 BKN010=
201606200350 METAR COR EGLL 200350Z 21012KT 6000 SCT010 15/15 Q1015 TEMPO
                        BKN009=
201606200320 METAR EGLL 200320Z AUTO 21012KT 9999 OVC008/// 15/15 Q1015=
201606200250 METAR COR EGLL 200250Z AUTO 21010KT 9999 BKN005 15/15 Q1016
                        TEMPO FEW005 BKN012=
201606200220 METAR COR EGLL 200220Z AUTO 21011KT 6000 BKN004 OVC014 15/15
                        Q1016 TEMPO FEW004 BKN009=
201606200150 METAR COR EGLL 200150Z 22011KT 9999 SCT008 15/15 Q1016 TEMPO
                        BKN008=
201606200120 METAR COR EGLL 200120Z 22011KT 9999 -RA FEW009 BKN015 15/15
                        Q1017 TEMPO BKN010=
201606200050 METAR COR EGLL 200050Z 21010KT 9999 -RA FEW010 15/15 Q1017
                        TEMPO BKN010=
201606200020 METAR COR EGLL 200020Z 21011KT 9999 FEW008 SCT015 15/15 Q1017
                        TEMPO BKN007=
201606192350 METAR COR EGLL 192350Z AUTO 20012KT 9999 -RA BKN005 15/15
                        Q1018 TEMPO FEW005 BKN012=
201606192320 METAR COR EGLL 192320Z 21010KT 9000 -RA FEW005 BKN007 15/15
                        Q1018 NOSIG=
201606192250 METAR EGLL 192250Z 21010KT 8000 -RA SCT006 BKN010 16/16 Q1018=
201606192220 METAR COR EGLL 192220Z 21010KT 9000 -RA FEW006 BKN008 15/15
                        Q1019 NOSIG=
201606192150 METAR COR EGLL 192150Z 21011KT 6000 -RA FEW006 BKN008 15/15
                        Q1019 NOSIG=
201606192120 METAR COR EGLL 192120Z 21009KT 170V250 9999 -RA FEW006 BKN008
                        15/15 Q1020 NOSIG=
201606192050 METAR COR EGLL 192050Z 21011KT 180V250 9999 -RA FEW006 SCT007
                        BKN009 15/15 Q1020 NOSIG=
201606192020 METAR COR EGLL 192020Z 21010KT 180V250 9999 -RA FEW006 SCT008
                        BKN010 15/15 Q1020 TEMPO BKN008=
201606191950 METAR COR EGLL 191950Z AUTO 21010KT 180V240 9999 -RA OVC008
                        15/15 Q1020 TEMPO SCT008 OVC010=
201606191920 METAR COR EGLL 191920Z AUTO 22011KT 9999 -RA OVC008 16/15
                        Q1020 TEMPO SCT008 OVC010=
201606191850 METAR COR EGLL 191850Z AUTO 22011KT 190V250 9999 -RA OVC009
                        16/15 Q1020 TEMPO SCT009 OVC011=
201606191820 METAR COR EGLL 191820Z AUTO 22010KT 190V250 9999 -RA OVC010
                        16/14 Q1021 TEMPO BKN009=
201606191750 METAR COR EGLL 191750Z AUTO 22012KT 9999 -RA OVC011 17/14
                        Q1021 TEMPO BKN009=
201606191720 METAR COR EGLL 191720Z AUTO 22012KT 9999 OVC012 17/14 Q1021
                        NOSIG=
201606191650 METAR COR EGLL 191650Z AUTO 22012KT 190V260 9999 BKN017 18/13
                        Q1021 TEMPO BKN014=
201606191620 METAR COR EGLL 191620Z AUTO 22012KT 180V250 9999 OVC019 18/13
                        Q1022 TEMPO BKN014=
201606191550 METAR COR EGLL 191550Z AUTO 21013G23KT 180V240 9999 OVC021
                        18/13 Q1022 NOSIG=
201606191520 METAR COR EGLL 191520Z AUTO 23013KT 9999 OVC024 19/13 Q1022
                        NOSIG=
201606191450 METAR COR EGLL 191450Z AUTO 23013KT 9999 OVC025 19/12 Q1022
                        NOSIG=
201606191420 METAR COR EGLL 191420Z AUTO 24012KT 9999 OVC029 19/12 Q1023
                        NOSIG=
201606191350 METAR COR EGLL 191350Z AUTO 22009KT 180V260 9999 BKN028 19/12
                        Q1023 NOSIG=
201606191320 METAR COR EGLL 191320Z AUTO 23010KT 9999 OVC028 19/12 Q1023
                        NOSIG=
201606191250 METAR COR EGLL 191250Z AUTO 24011KT 9999 OVC027 18/12 Q1023
                        NOSIG=
201606191220 METAR COR EGLL 191220Z AUTO 25010KT 9999 BKN029 19/11 Q1023
                        NOSIG=
201606191150 METAR COR EGLL 191150Z AUTO 25009KT 200V290 9999 SCT031 19/11
                        Q1023 NOSIG=
201606191120 METAR COR EGLL 191120Z AUTO 26009KT 9999 BKN029 19/11 Q1024
                        NOSIG=
201606191050 METAR COR EGLL 191050Z AUTO 24010KT 9999 BKN029 20/11 Q1024
                        NOSIG=
201606191020 METAR COR EGLL 191020Z AUTO 24010KT 210V280 9999 SCT027 19/11
                        Q1024 NOSIG=
201606190950 METAR COR EGLL 190950Z AUTO 23011KT 200V260 9999 BKN025 18/11
                        Q1024 NOSIG=
201606190920 METAR COR EGLL 190920Z AUTO 24009KT 200V270 9999 FEW026 18/11
                        Q1024 NOSIG=
201606190850 METAR COR EGLL 190850Z AUTO 24008KT 190V270 9999 FEW025 17/11
                        Q1024 NOSIG=
201606190820 METAR COR EGLL 190820Z AUTO 25005KT 210V300 9999 SCT019 17/12
                        Q1024 NOSIG=
201606190750 METAR COR EGLL 190750Z AUTO 22005KT 170V250 9999 FEW016 17/12
                        Q1024 NOSIG=
201606190720 METAR COR EGLL 190720Z AUTO 26005KT 220V340 9999 NCD 16/12
                        Q1024 NOSIG=
201606190650 METAR COR EGLL 190650Z AUTO 28004KT 250V310 9999 NCD 15/12
                        Q1024 NOSIG=
201606190620 METAR COR EGLL 190620Z AUTO 24005KT 9999 NCD 14/12 Q1024
                        NOSIG=
201606190550 METAR COR EGLL 190550Z 25005KT CAVOK 13/12 Q1024 NOSIG=
201606190520 METAR COR EGLL 190520Z AUTO 24006KT 9999 NCD 13/12 Q1024
                        NOSIG=
201606190450 METAR COR EGLL 190450Z 24007KT CAVOK 12/11 Q1024 NOSIG=
201606190420 METAR COR EGLL 190420Z AUTO 23004KT 8000 NCD 11/10 Q1024
                        NOSIG=
201606190350 METAR COR EGLL 190350Z AUTO 23005KT 9999 NCD 11/10 Q1024
                        NOSIG=
201606190320 METAR COR EGLL 190320Z AUTO 23005KT 9999 NCD 12/11 Q1024
                        NOSIG=
201606190250 METAR COR EGLL 190250Z AUTO 24005KT 9000 NCD 12/10 Q1024
                        NOSIG=
201606190220 METAR COR EGLL 190220Z AUTO 22005KT 9999 NCD 12/11 Q1024
                        NOSIG=
201606190150 METAR COR EGLL 190150Z AUTO 21004KT 9999 FEW039 13/11 Q1024
                        NOSIG=
201606190120 METAR COR EGLL 190120Z AUTO 18004KT 9999 FEW040 13/11 Q1024
                        NOSIG=
201606190050 METAR COR EGLL 190050Z AUTO 21004KT 9999 FEW025 13/11 Q1024
                        NOSIG=
201606190020 METAR COR EGLL 190020Z AUTO 21004KT 170V240 9999 FEW023 BKN029
                        OVC045 14/11 Q1024 NOSIG=
201606182350 METAR COR EGLL 182350Z AUTO 18005KT 9999 BKN030 14/11 Q1024
                        NOSIG=
201606182320 METAR COR EGLL 182320Z AUTO 17003KT 9999 BKN030 14/12 Q1024
                        NOSIG=
201606182250 METAR COR EGLL 182250Z AUTO 18004KT 9999 NCD 14/12 Q1024
                        NOSIG=
201606182220 METAR COR EGLL 182220Z 17004KT CAVOK 14/11 Q1024 NOSIG=
201606182150 METAR COR EGLL 182150Z AUTO 21005KT 140V260 9999 BKN047 15/11
                        Q1024 NOSIG=
201606182120 METAR COR EGLL 182120Z AUTO VRB03KT 9999 NCD 15/11 Q1024
                        NOSIG=
201606182050 METAR COR EGLL 182050Z AUTO VRB02KT 9999 NCD 15/11 Q1023
                        NOSIG=
201606182020 METAR COR EGLL 182020Z AUTO 33002KT 9999 SCT024 15/11 Q1023
                        NOSIG=
201606181950 METAR COR EGLL 181950Z AUTO VRB02KT 9999 FEW024 15/11 Q1023
                        NOSIG=
201606181920 METAR COR EGLL 181920Z AUTO VRB01KT 9999 FEW039 16/11 Q1023
                        NOSIG=
201606181850 METAR COR EGLL 181850Z AUTO VRB02KT 9999 BKN038 16/11 Q1023
                        NOSIG=
201606181820 METAR COR EGLL 181820Z AUTO VRB03KT 9999 FEW036 OVC048 16/11
                        Q1022 NOSIG=
201606181750 METAR COR EGLL 181750Z AUTO VRB02KT 9999 BKN032 16/11 Q1022
                        NOSIG=
201606181720 METAR COR EGLL 181720Z AUTO 29005KT 9999 BKN032 15/11 Q1022
                        NOSIG=
201606181650 METAR COR EGLL 181650Z AUTO 29006KT 250V320 9999 BKN026 16/11
                        Q1022 NOSIG=
201606181620 METAR COR EGLL 181620Z AUTO VRB03KT 9999 FEW027 OVC036 16/10
                        Q1022 NOSIG=
201606181550 METAR COR EGLL 181550Z AUTO 35005KT 320V030 9999 BKN023 OVC041
                        16/10 Q1021 NOSIG=
201606181520 METAR COR EGLL 181520Z AUTO 34006KT 300V020 9999 OVC037 16/11
                        Q1021 NOSIG=
201606181450 METAR COR EGLL 181450Z AUTO 32006KT 290V360 9999 BKN030 16/11
                        Q1021 NOSIG=
201606181420 METAR COR EGLL 181420Z AUTO 33007KT 310V020 9999 OVC034 16/11
                        Q1021 NOSIG=
201606181350 METAR COR EGLL 181350Z AUTO 32008KT 280V350 9999 SCT025 OVC040
                        17/11 Q1021 NOSIG=
201606181320 METAR COR EGLL 181320Z AUTO 33006KT 290V010 9999 FEW023 OVC035
                        16/11 Q1021 NOSIG=
201606181250 METAR COR EGLL 181250Z AUTO 32006KT 290V020 9999 BKN019 BKN033
                        16/11 Q1020 NOSIG=
201606181220 METAR COR EGLL 181220Z AUTO 27007KT 9999 BKN017 OVC032 15/11
                        Q1020 NOSIG=
201606181150 METAR COR EGLL 181150Z AUTO 26006KT 220V290 9999 FEW014 SCT024
                        OVC043 16/12 Q1020 NOSIG=
201606181120 METAR COR EGLL 181120Z AUTO 29005KT 250V310 9999 BKN019 15/12
                        Q1020 NOSIG=
201606181050 METAR COR EGLL 181050Z AUTO 29005KT 9999 FEW010 OVC019 13/12
                        Q1020 NOSIG=
201606181020 METAR COR EGLL 181020Z AUTO 34005KT 290V030 6000 -RA BKN014
                        14/11 Q1019 BECMG BKN018=
201606180950 METAR COR EGLL 180950Z AUTO 34005KT 300V030 9999 BKN014 15/11
                        Q1019 BECMG BKN018=
201606180920 METAR COR EGLL 180920Z AUTO 31006KT 9999 BKN014 14/11 Q1019
                        BECMG BKN018=
201606180850 METAR COR EGLL 180850Z AUTO 33005KT 300V010 9999 BKN014 14/11
                        Q1019 BECMG SCT014 BKN030=
201606180820 METAR COR EGLL 180820Z AUTO 33006KT 310V020 9999 OVC016 14/11
                        Q1018 NOSIG=
201606180750 METAR COR EGLL 180750Z AUTO 33005KT 300V020 9999 SCT021 BKN043
                        14/11 Q1018 NOSIG=
201606180720 METAR COR EGLL 180720Z AUTO 32005KT 290V010 9999 FEW013 OVC041
                        14/11 Q1017 NOSIG=
201606180650 METAR COR EGLL 180650Z AUTO 33006KT 290V360 9999 SCT013 SCT029
                        OVC041 13/11 Q1017 TEMPO BKN013=
201606180620 METAR COR EGLL 180620Z AUTO 33005KT 9999 BKN015 BKN028 13/11
                        Q1017 TEMPO BKN012=
201606180550 METAR COR EGLL 180550Z AUTO 31004KT 280V340 9999 FEW015 13/11
                        Q1016 TEMPO BKN014=
201606180520 METAR COR EGLL 180520Z AUTO 29005KT 9999 SCT016 13/11 Q1016
                        TEMPO BKN014=
201606180450 METAR EGLL 180450Z AUTO 29006KT 9999 BKN016 12/11 Q1016=
201606180420 METAR COR EGLL 180420Z AUTO 28005KT 9999 FEW020 12/10 Q1016
                        NOSIG=
201606180350 METAR COR EGLL 180350Z AUTO 29005KT 9999 NCD 12/10 Q1015
                        NOSIG=
201606180320 METAR EGLL 180320Z AUTO 30005KT 9999 NCD 12/11 Q1015=
201606180250 METAR COR EGLL 180250Z AUTO 32004KT 9999 NCD 12/11 Q1015
                        NOSIG=
201606180220 METAR COR EGLL 180220Z AUTO 30005KT 9999 NCD 12/11 Q1015
                        NOSIG=
201606180150 METAR COR EGLL 180150Z AUTO 28004KT 9999 NCD 13/12 Q1015
                        NOSIG=
201606180120 METAR COR EGLL 180120Z AUTO 29004KT 9999 FEW034 13/12 Q1015
                        NOSIG=
201606180050 METAR COR EGLL 180050Z AUTO 30005KT 9999 BKN039 13/12 Q1014
                        NOSIG=
201606180020 METAR COR EGLL 180020Z AUTO 26004KT 9999 -RA BKN038 13/12
                        Q1014 NOSIG=
201606172350 METAR COR EGLL 172350Z AUTO 27004KT 9999 BKN047 13/12 Q1014
                        NOSIG=
201606172320 METAR COR EGLL 172320Z AUTO 28005KT 9000 FEW041/// //////TCU
                        13/12 Q1014 NOSIG=
201606172250 METAR COR EGLL 172250Z AUTO VRB02KT 6000 -SHRA FEW013CB BKN027///
                        OVC043/// 13/12 Q1014 NOSIG=
201606172220 METAR COR EGLL 172220Z VRB03KT 6000 -SHRA FEW013CB BKN027
                        OVC043 13/12 Q1014 RESHRA TEMPO SHRA=
201606172150 METAR COR EGLL 172150Z AUTO 03007KT 340V070 9999 SCT016///
                        SCT030/// //////CB 15/11 Q1014 TEMPO
                        4000 +SHRA=
201606172120 METAR COR EGLL 172120Z AUTO VRB03KT 9999 FEW037/// //////CB
                        15/12 Q1013 TEMPO 4000 +SHRA=
201606172050 METAR COR EGLL 172050Z AUTO 26006KT 9999 FEW028 15/12 Q1013
                        TEMPO SHRA=
201606172020 METAR COR EGLL 172020Z AUTO 23007KT 9999 SCT033 15/12 Q1012
                        TEMPO 400 +SHRA=
201606171950 METAR COR EGLL 171950Z AUTO 19005KT 9999 SCT025 16/12 Q1012
                        TEMPO 4000 +SHRA=
201606171920 METAR COR EGLL 171920Z AUTO 18005KT 9999 SCT025 16/12 Q1012
                        TEMPO SHRA=
201606171850 METAR COR EGLL 171850Z AUTO 17005KT 9999 SCT029 16/13 Q1011
                        TEMPO SHRA=
201606171820 METAR COR EGLL 171820Z AUTO 15005KT 110V170 9999 SCT024///
                        //////TCU 17/12 Q1011 TEMPO SHRA=
201606171750 METAR COR EGLL 171750Z AUTO 08006KT 040V110 9999 BKN029///
                        BKN044/// //////CB 18/11 Q1011 TEMPO
                        SHRA=
201606171720 METAR COR EGLL 171720Z AUTO 03007KT 350V080 9999 BKN025///
                        //////CB 18/11 Q1010 TEMPO 4800 +SHRA=
201606171650 METAR COR EGLL 171650Z AUTO 04007KT 340V080 9999 BKN033///
                        //////CB 19/11 Q1010 TEMPO 4800 +SHRA=
201606171620 METAR COR EGLL 171620Z AUTO 01006KT 310V080 9999 FEW031///
                        SCT046/// //////CB 20/11 Q1009 TEMPO
                        4800 SHRA=
201606171550 METAR COR EGLL 171550Z AUTO 01007KT 340V050 9999 FEW029///
                        //////CB 19/11 Q1009 TEMPO 4800 SHRA=
201606171520 METAR COR EGLL 171520Z AUTO 34007KT 290V030 9999 FEW029///
                        //////CB 19/12 Q1009 TEMPO SHRA=
201606171450 METAR COR EGLL 171450Z AUTO 35006KT 300V020 9999 SCT027///
                        BKN044/// //////CB 19/11 Q1009 TEMPO
                        SHRA=
201606171420 METAR COR EGLL 171420Z AUTO 35006KT 300V040 9999 SCT030///
                        SCT048/// //////CB 19/12 Q1008 TEMPO
                        SHRA=
201606171350 METAR COR EGLL 171350Z AUTO 31007KT 290V360 9999 FEW028 18/11
                        Q1008 TEMPO SHRA=
201606171320 METAR COR EGLL 171320Z AUTO 36006KT 310V040 9999 FEW026///
                        BKN040/// //////CB 18/11 Q1008 TEMPO
                        SHRA=
201606171250 METAR COR EGLL 171250Z AUTO 01006KT 340V050 9999 BKN025///
                        //////TCU 18/11 Q1008 TEMPO SHRA=
201606171220 METAR COR EGLL 171220Z AUTO 35005KT 280V030 9999 BKN021 17/12
                        Q1008 TEMPO SHRA=
201606171150 METAR COR EGLL 171150Z AUTO 36004KT 280V090 9999 BKN024///
                        //////TCU 17/12 Q1007 TEMPO SHRA=
201606171120 METAR COR EGLL 171120Z AUTO 34005KT 9999 BKN015 16/12 Q1007
                        NOSIG=
201606171050 METAR COR EGLL 171050Z AUTO 36005KT 330V040 9999 BKN015 16/12
                        Q1007 NOSIG=
201606171020 METAR COR EGLL 171020Z AUTO 35005KT 300V040 9999 OVC012 15/12
                        Q1007 BECMG FEW012 BKN022=
201606170950 METAR COR EGLL 170950Z 36006KT 320V040 9999 FEW009 SCT012
                        BKN022 15/12 Q1006 NOSIG=
201606170920 METAR COR EGLL 170920Z AUTO 36005KT 320V020 9999 BKN008 OVC020
                        15/12 Q1006 BECMG SCT012=
201606170850 METAR COR EGLL 170850Z AUTO 36007KT 9000 BKN008 OVC020 15/12
                        Q1006 BECMG SCT014=
201606170820 METAR COR EGLL 170820Z AUTO 36007KT 330V040 9999 OVC011 15/12
                        Q1006 BECMG SCT013=
201606170750 METAR COR EGLL 170750Z AUTO 36006KT 320V040 9999 OVC009 15/12
                        Q1005 BECMG SCT012=
201606170720 METAR COR EGLL 170720Z AUTO 02004KT 320V050 9999 OVC009 14/12
                        Q1005 BECMG SCT010 BKN014=
201606170650 METAR COR EGLL 170650Z AUTO 01005KT 320V050 9999 OVC009 14/12
                        Q1005 BECMG SCT009 BKN012=
201606170620 METAR COR EGLL 170620Z AUTO 01005KT 330V040 9999 OVC008 13/12
                        Q1004 NOSIG=
201606170550 METAR COR EGLL 170550Z AUTO 01004KT 340V050 9000 OVC008 13/12
                        Q1004 BECMG BKN012=
201606170520 METAR COR EGLL 170520Z AUTO 02004KT 350V050 7000 OVC006 13/12
                        Q1004 NOSIG=
201606170450 METAR COR EGLL 170450Z AUTO 02005KT 7000 OVC005 13/12 Q1003
                        NOSIG=
201606170420 METAR COR EGLL 170420Z AUTO 03005KT 6000 OVC005 13/12 Q1003
                        NOSIG=
201606170350 METAR COR EGLL 170350Z AUTO VRB03KT 7000 BKN006 13/12 Q1003
                        TEMPO FEW006=
201606170320 METAR COR EGLL 170320Z AUTO 04003KT 8000 FEW014 13/12 Q1003
                        NOSIG=
201606170250 METAR COR EGLL 170250Z AUTO 02004KT 340V050 8000 FEW018///
                        //////CB 13/12 Q1003 NOSIG=
201606170220 METAR COR EGLL 170220Z AUTO VRB03KT 9000 SCT010/// 13/12
                        Q1003 NOSIG=
201606170150 METAR EGLL 170150Z AUTO 02004KT 350V050 9999 FEW010/// 13/12
                        Q1003=
201606170120 METAR EGLL 170120Z AUTO 03004KT 360V070 9999 //////CB 13/12
                        Q1002=
201606170050 METAR COR EGLL 170050Z AUTO VRB03KT 9999 FEW014 SCT028 13/12
                        Q1002 NOSIG=
201606170020 METAR COR EGLL 170020Z AUTO VRB02KT 9999 BKN014 13/12 Q1002
                        TEMPO SCT014=
201606162350 METAR COR EGLL 162350Z AUTO VRB02KT 9999 BKN019/// //////CB
                        13/12 Q1002 NOSIG=
201606162320 METAR COR EGLL 162320Z AUTO 35001KT 9999 FEW014/// BKN019///
                        //////CB 13/12 Q1002 NOSIG=
201606162250 METAR COR EGLL 162250Z AUTO 04002KT 9999 FEW014/// SCT033///
                        //////TCU 13/12 Q1002 NOSIG=
201606162220 METAR COR EGLL 162220Z AUTO 28002KT 9999 FEW027/// //////TCU
                        13/12 Q1002 NOSIG=
201606162150 METAR COR EGLL 162150Z AUTO VRB02KT 9999 //////CB 13/12 Q1002
                        NOSIG=
201606162120 METAR COR EGLL 162120Z VRB02KT 9999 -SHRA SCT040CB 13/12
                        Q1002 NOSIG=
201606162050 METAR COR EGLL 162050Z VRB03KT 9999 9000W -SHRA SCT036CB
                        13/12 Q1002 TEMPO SHRA=
201606162020 METAR COR EGLL 162020Z AUTO 33004KT 9999 -RA FEW027/// BKN049///
                        //////CB 14/12 Q1002 RETS TEMPO 4000
                        SHRA=
201606161950 METAR COR EGLL 161950Z 14001KT 9999 -SHRA TS SCT029CB BKN040
                        15/11 Q1001 TEMPO 4000 SHRA=
201606161920 METAR COR EGLL 161920Z 14006KT 9999 9000SE -SHRA FEW008 SCT015
                        SCT021CB 15/11 Q1001 RETS TEMPO 4000
                        SHRA TS=
201606161850 METAR COR EGLL 161850Z VRB03KT 9999 5000SE -TSRA FEW008 BKN021CB
                        15/11 Q1001 RERA TEMPO 4000 +SHRA=
201606161820 METAR COR EGLL 161820Z VRB02KT 9999 6000E -TSRA FEW020 BKN033CB
                        18/13 Q1001 TEMPO 4000 +SHRA=
201606161750 METAR COR EGLL 161750Z AUTO 21004KT 9999 VCTS FEW037/// //////CB
                        17/13 Q1000 TEMPO SHRA BKN014=
201606161720 METAR COR EGLL 161720Z AUTO 22004KT 170V260 9999 VCTS BKN018///
                        //////CB 17/13 Q1000 TEMPO SHRA BKN014=
201606161650 METAR COR EGLL 161650Z AUTO VRB03KT 9999 FEW018 17/13 Q1000
                        NOSIG=
201606161620 METAR COR EGLL 161620Z AUTO 15005KT 110V200 9999 NCD 18/13
                        Q1000 TEMPO SHRA=
201606161550 METAR COR EGLL 161550Z AUTO 16005KT 140V200 9999 NCD 17/13
                        Q1000 TEMPO SHRA=
201606161520 METAR COR EGLL 161520Z AUTO VRB03KT 9999 -RA NCD 17/12 Q1000
                        TEMPO SHRA BKN014=
201606161450 METAR COR EGLL 161450Z AUTO 16006KT 9999 -RA FEW017/// //////TCU
                        16/13 Q1000 TEMPO SHRA=
201606161420 METAR COR EGLL 161420Z AUTO 12006KT 9999 -RA SCT018/// BKN034///
                        //////TCU 16/12 Q1000 TEMPO SHRA=
201606161350 METAR COR EGLL 161350Z AUTO 09006KT 040V110 9999 BKN018///
                        //////CB 17/13 Q1000 TEMPO SHRA BKN014=
201606161320 METAR COR EGLL 161320Z AUTO 09007KT 9999 FEW022/// BKN048///
                        //////CB 18/13 Q1000 TEMPO SHRA BKN014=
201606161250 METAR COR EGLL 161250Z AUTO 11006KT 080V150 9999 FEW021///
                        BKN036/// //////CB 18/12 Q1000 TEMPO
                        SHRA BKN014=
201606161220 METAR COR EGLL 161220Z AUTO 15007KT 110V190 9999 -RA SCT020///
                        BKN036/// //////CB 17/12 Q1000 TEMPO
                        SHRA BKN014=
201606161150 METAR COR EGLL 161150Z AUTO VRB02KT 9999 -RA FEW019/// BKN030///
                        //////CB 16/12 Q1001 TEMPO SHRA BKN014=
201606161120 METAR COR EGLL 161120Z AUTO 13006KT 9999 -RA BKN015/// //////TCU
                        16/12 Q1001 TEMPO SHRA BKN014=
201606161050 METAR COR EGLL 161050Z 11004KT 050V180 9999 VCSH SCT018 SCT028
                        15/13 Q1001 TEMPO SHRA BKN014=
201606161020 METAR COR EGLL 161020Z 08005KT 9999 FEW008 BKN018 16/13 Q1001
                        NOSIG=
201606160950 METAR COR EGLL 160950Z 08005KT 050V130 9999 FEW006 BKN013
                        15/13 Q1001 TEMPO SCT014=
201606160920 METAR COR EGLL 160920Z 10006KT 9999 FEW006 BKN010 15/13 Q1001
                        BECMG SCT014=
201606160850 METAR COR EGLL 160850Z 11007KT 9000 -SHRA FEW007 SCT015 BKN034
                        14/13 Q1001 TEMPO SHRA BKN012=
201606160820 METAR COR EGLL 160820Z AUTO 11007KT 090V150 9999 BKN013///
                        //////CB 15/12 Q1000 BECMG FEW014=
201606160750 METAR COR EGLL 160750Z AUTO 11006KT 9999 BKN013/// //////CB
                        15/12 Q1000 BECMG FEW014=
201606160720 METAR COR EGLL 160720Z AUTO 13006KT 9999 OVC012 15/12 Q1000
                        TEMPO SCT014=
201606160650 METAR COR EGLL 160650Z AUTO 15005KT 9999 BKN012 OVC041 14/12
                        Q1000 BECMG SCT014=
201606160620 METAR COR EGLL 160620Z AUTO VRB03KT 9999 FEW010 OVC034 14/12
                        Q1000 TEMPO BKN014=
201606160550 METAR COR EGLL 160550Z AUTO 14006KT 040V190 9999 BKN011 14/11
                        Q1000 TEMPO BKN015=
201606160520 METAR COR EGLL 160520Z AUTO 15006KT 090V170 9999 FEW009 BKN023
                        BKN040 14/12 Q0999 NOSIG=
201606160450 METAR COR EGLL 160450Z AUTO 13005KT 9999 FEW010 BKN026 BKN037
                        14/12 Q0999 NOSIG=
201606160420 METAR COR EGLL 160420Z AUTO 16004KT 9999 FEW010 BKN023 13/12
                        Q0999 TEMPO BKN010=
201606160350 METAR COR EGLL 160350Z AUTO 15003KT 9999 FEW011 BKN035 13/11
                        Q0999 TEMPO BKN011=
201606160320 METAR COR EGLL 160320Z AUTO 18004KT 9999 FEW010 BKN022 OVC035
                        13/12 Q0999 TEMPO BKN010=
201606160250 METAR COR EGLL 160250Z AUTO 17004KT 9999 BKN009 13/12 Q0999
                        TEMPO BKN010=
201606160220 METAR COR EGLL 160220Z AUTO 17004KT 9999 -RA BKN016 13/12
                        Q1000 TEMPO BKN014=
201606160150 METAR COR EGLL 160150Z AUTO 16005KT 9999 BKN021 OVC036 13/12
                        Q1000 NOSIG=
201606160120 METAR COR EGLL 160120Z AUTO 16004KT 9999 BKN015 13/12 Q1000
                        TEMPO BKN014=
201606160050 METAR COR EGLL 160050Z AUTO 17004KT 9999 BKN015 OVC049 13/11
                        Q1000 TEMPO BKN014=
201606160020 METAR COR EGLL 160020Z AUTO 17005KT 9999 SCT014 BKN022 13/11
                        Q1000 TEMPO BKN014=
201606152350 METAR COR EGLL 152350Z AUTO 15004KT 9999 SCT026 SCT045 13/11
                        Q0999 NOSIG=
201606152320 METAR COR EGLL 152320Z AUTO 17004KT 9999 FEW040 13/11 Q0999
                        NOSIG=
201606152250 METAR COR EGLL 152250Z AUTO 19006KT 9999 SCT036 13/11 Q0999
                        NOSIG=
201606152220 METAR COR EGLL 152220Z AUTO 20007KT 140V260 9999 FEW032 14/11
                        Q0999 NOSIG=
201606152150 METAR COR EGLL 152150Z AUTO 21008KT 160V250 9999 SCT027 14/11
                        Q0999 NOSIG=
201606152120 METAR COR EGLL 152120Z AUTO 21009KT 170V250 9999 //////CB
                        15/11 Q0999 NOSIG=
201606152050 METAR COR EGLL 152050Z AUTO 21009KT 160V250 9999 FEW025 15/11
                        Q0999 NOSIG=
201606152020 METAR COR EGLL 152020Z AUTO 21010KT 180V250 9999 FEW025///
                        BKN038/// //////TCU 16/11 Q0998 NOSIG=
201606151950 METAR COR EGLL 151950Z AUTO 21010KT 160V250 9999 -RA BKN028
                        16/11 Q0998 NOSIG=
201606151920 METAR COR EGLL 151920Z AUTO 21009KT 180V250 9999 -RA BKN028///
                        //////CB 16/11 Q0998 NOSIG=
201606151850 METAR COR EGLL 151850Z AUTO 22008KT 170V250 9999 SCT028 BKN043
                        16/11 Q0998 NOSIG=
201606151820 METAR COR EGLL 151820Z AUTO 25008KT 9999 BKN030 16/12 Q0997
                        NOSIG=
201606151750 METAR COR EGLL 151750Z AUTO 25010KT 9999 SCT028 BKN041 16/11
                        Q0997 NOSIG=
201606151720 METAR COR EGLL 151720Z AUTO 23012KT 9999 SCT030 BKN041 17/11
                        Q0997 NOSIG=
201606151650 METAR COR EGLL 151650Z AUTO 22013KT 9999 FEW037/// //////CB
                        18/11 Q0997 NOSIG=
201606151620 METAR COR EGLL 151620Z AUTO 22013KT 190V250 9999 FEW035///
                        //////CB 19/11 Q0997 NOSIG=
201606151550 METAR COR EGLL 151550Z 22009KT 180V250 9999 SCT030 19/12
                        Q0997 NOSIG=
201606151520 METAR COR EGLL 151520Z AUTO 22008KT 140V260 9999 -RA FEW016///
                        BKN049/// //////CB 17/12 Q0997 NOSIG=
201606151450 METAR COR EGLL 151450Z AUTO 20009KT 150V240 9999 FEW020 16/13
                        Q0997 NOSIG=
201606151420 METAR COR EGLL 151420Z AUTO 20008KT 160V240 9999 -RA FEW021///
                        SCT036/// //////CB 16/13 Q0997 TEMPO
                        SHRA=
201606151350 METAR COR EGLL 151350Z AUTO 20008KT 9999 -RA FEW018/// BKN035///
                        //////CB 15/12 Q0997 TEMPO SHRA=
201606151320 METAR COR EGLL 151320Z AUTO 21013KT 9999 -RA FEW019/// SCT036///
                        //////CB 15/11 Q0997 TEMPO SHRA=
201606151250 METAR COR EGLL 151250Z AUTO 18008KT 140V210 9999 -RA FEW009///
                        SCT020/// //////CB 17/14 Q0997 TEMPO
                        4000 +TSRA BKN012CB=
201606151220 METAR COR EGLL 151220Z 19009KT 160V230 8000 -RADZ FEW010TCU
                        SCT023 BKN038 15/12 Q0997 TEMPO SHRA=
201606151150 METAR COR EGLL 151150Z 22013KT 9999 7000S -SHRA BKN020TCU
                        BKN035 15/11 Q0997 TEMPO 4000 +SHRA=
201606151120 METAR COR EGLL 151120Z 19010KT 160V230 9999 FEW032 19/11
                        Q0996 TEMPO SHRA=
201606151050 METAR COR EGLL 151050Z AUTO 18008KT 130V250 9999 FEW033///
                        //////CB 19/11 Q0996 TEMPO SHRA=
201606151020 METAR COR EGLL 151020Z AUTO 23009KT 180V270 9999 FEW027///
                        //////TCU 19/11 Q0996 NOSIG=
201606150950 METAR COR EGLL 150950Z AUTO 21007KT 180V250 9999 SCT026 17/11
                        Q0996 NOSIG=
201606150920 METAR COR EGLL 150920Z AUTO 23009KT 9999 SCT024 BKN046 16/10
                        Q0996 NOSIG=
201606150850 METAR COR EGLL 150850Z AUTO 22009KT 180V270 9999 BKN021 17/11
                        Q0996 NOSIG=
201606150820 METAR COR EGLL 150820Z AUTO 20008KT 180V250 9999 FEW019 16/11
                        Q0996 NOSIG=
201606150750 METAR COR EGLL 150750Z AUTO 23008KT 190V260 9999 BKN015 15/11
                        Q0996 NOSIG=
201606150720 METAR COR EGLL 150720Z AUTO 21006KT 170V250 9999 FEW012///
                        16/11 Q0996 NOSIG=
201606150650 METAR COR EGLL 150650Z 21008KT 180V250 9999 FEW012 15/12
                        Q0996 NOSIG=
201606150620 METAR COR EGLL 150620Z AUTO 22007KT 9999 NCD 15/12 Q0996
                        NOSIG=
201606150550 METAR COR EGLL 150550Z AUTO 23009KT 9999 NCD 14/11 Q0996
                        NOSIG=
201606150520 METAR COR EGLL 150520Z AUTO 22006KT 9999 NCD 13/11 Q0996
                        NOSIG=
201606150450 METAR COR EGLL 150450Z AUTO 21006KT 9999 NCD 12/11 Q0995
                        NOSIG=
201606150420 METAR COR EGLL 150420Z AUTO 21006KT 9999 NCD 12/11 Q0995
                        NOSIG=
201606150350 METAR COR EGLL 150350Z AUTO 21005KT 9999 NCD 12/10 Q0995
                        NOSIG=
201606150320 METAR COR EGLL 150320Z AUTO 21005KT 9999 NCD 12/10 Q0995
                        NOSIG=
201606150250 METAR COR EGLL 150250Z AUTO 20005KT 9999 NCD 12/10 Q0995
                        NOSIG=
201606150220 METAR COR EGLL 150220Z AUTO 24005KT 9999 NCD 12/10 Q0995
                        NOSIG=
201606150150 METAR COR EGLL 150150Z AUTO 24007KT 9999 NCD 13/11 Q0995
                        NOSIG=
201606150120 METAR COR EGLL 150120Z AUTO 24008KT 9999 NCD 13/11 Q0995
                        NOSIG=
201606150050 METAR COR EGLL 150050Z AUTO 24007KT 9999 NCD 13/11 Q0995
                        NOSIG=
201606150020 METAR COR EGLL 150020Z AUTO 24008KT 9999 FEW031 13/10 Q0995
                        NOSIG=
201606142350 METAR COR EGLL 142350Z AUTO 23007KT 9999 OVC031 14/11 Q0995
                        NOSIG=
201606142320 METAR COR EGLL 142320Z AUTO 24008KT 9999 BKN028 14/11 Q0995
                        NOSIG=
201606142250 METAR COR EGLL 142250Z AUTO 25008KT 9999 FEW035 14/10 Q0995
                        NOSIG=
201606142220 METAR COR EGLL 142220Z AUTO 25010KT 9999 NCD 14/11 Q0995
                        NOSIG=
201606142150 METAR COR EGLL 142150Z AUTO 25012KT 9999 NCD 15/11 Q0995
                        NOSIG=
201606142120 METAR COR EGLL 142120Z AUTO 24009KT 9999 NCD 15/12 Q0995
                        NOSIG=
201606142050 METAR COR EGLL 142050Z AUTO 24010KT 9999 NCD 15/12 Q0995
                        NOSIG=
201606142020 METAR COR EGLL 142020Z AUTO 24010KT 9999 FEW028 15/12 Q0995
                        NOSIG=
201606141950 METAR COR EGLL 141950Z AUTO 23009KT 200V260 9999 BKN032 16/12
                        Q0995 NOSIG=
201606141920 METAR COR EGLL 141920Z AUTO 24010KT 9999 FEW035 16/11 Q0995
                        NOSIG=
201606141850 METAR COR EGLL 141850Z AUTO 25011KT 9999 FEW027 BKN040 16/12
                        Q0995 NOSIG=
201606141820 METAR COR EGLL 141820Z AUTO 24012KT 9999 SCT030 17/12 Q0995
                        TEMPO SHRA=
201606141750 METAR COR EGLL 141750Z AUTO 23011KT 9999 FEW047 17/12 Q0995
                        TEMPO SHRA=
201606141720 METAR COR EGLL 141720Z AUTO 23012KT 9999 FEW013 18/13 Q0995
                        NOSIG=
201606141650 METAR EGLL 141650Z AUTO 23011KT 190V260 9999 -RA FEW045///
                        //////CB 17/12 Q0995=
201606141620 METAR COR EGLL 141620Z AUTO 23013KT 9999 SCT028 18/12 Q0995
                        TEMPO SHRA=
201606141550 METAR COR EGLL 141550Z AUTO 24011KT 200V260 9999 SCT025///
                        //////CB 18/13 Q0995 TEMPO SHRA=
201606141520 METAR COR EGLL 141520Z AUTO 24011KT 9999 FEW023/// //////CB
                        18/14 Q0995 NOSIG=
201606141450 METAR COR EGLL 141450Z AUTO 24010KT 9999 FEW026/// BKN041///
                        //////CB 17/14 Q0995 NOSIG=
201606141420 METAR COR EGLL 141420Z AUTO 23011KT 9999 FEW039/// //////CB
                        17/13 Q0995 TEMPO SHRA=
201606141350 METAR COR EGLL 141350Z AUTO 24011KT 9999 -RA //////CB 17/14
                        Q0995 TEMPO SHRA=
201606141320 METAR COR EGLL 141320Z AUTO 25011KT 9999 -RA FEW021/// BKN034///
                        BKN049/// //////CB 16/14 Q0995 TEMPO
                        SHRA=
201606141250 METAR COR EGLL 141250Z AUTO 26012KT 9000 -RA SCT017/// BKN033///
                        //////CB 16/13 Q0996 RERA TEMPO 4500
                        +SHRA BKN014CB=
201606141220 METAR COR EGLL 141220Z AUTO 23013KT 9999 BKN018/// //////CB
                        19/13 Q0996 TEMPO SHRA BKN012=
201606141150 METAR COR EGLL 141150Z AUTO 24011KT 9999 SCT017/// BKN033///
                        //////CB 18/14 Q0996 TEMPO SHRA=
201606141120 METAR COR EGLL 141120Z AUTO 24013KT 9999 FEW012/// //////CB
                        18/14 Q0996 NOSIG=
201606141050 METAR COR EGLL 141050Z AUTO 24008KT 210V270 9999 -RA FEW007///
                        BKN016/// //////CB 16/14 Q0996 TEMPO
                        SHRA BKN014=
201606141020 METAR COR EGLL 141020Z AUTO 23010KT 9000 -RA BKN006/// BKN016///
                        //////CB 15/14 Q0996 RERA REDZ TEMPO
                        SHRA=
201606140950 METAR COR EGLL 140950Z AUTO 23013KT 9000 -RA BKN010/// BKN022///
                        //////CB 16/14 Q0996 TEMPO 4000 +SHRA=
201606140920 METAR COR EGLL 140920Z AUTO 24012KT 9999 BKN013/// BKN025///
                        //////CB 16/13 Q0996 TEMPO SHRA=
201606140850 METAR COR EGLL 140850Z AUTO 23012KT 9999 BKN010/// BKN031///
                        //////CB 16/14 Q0997 TEMPO SHRA=
201606140820 METAR COR EGLL 140820Z AUTO 23011KT 9999 SCT010/// BKN032///
                        //////TCU 16/14 Q0997 TEMPO SHRA
                        BKN010=
201606140750 METAR COR EGLL 140750Z AUTO 23009KT 200V260 7000 -RA BKN011
                        BKN023 15/13 Q0997 NOSIG=
201606140720 METAR COR EGLL 140720Z AUTO 24009KT 9999 BKN010/// //////TCU
                        15/13 Q0997 NOSIG=
201606140650 METAR COR EGLL 140650Z AUTO 22008KT 9999 BKN010 15/13 Q0997
                        NOSIG=
201606140620 METAR COR EGLL 140620Z AUTO 22007KT 9999 BKN016 BKN038 14/13
                        Q0997 NOSIG=
201606140550 METAR COR EGLL 140550Z AUTO 24006KT 9999 FEW006 BKN019 OVC038
                        14/13 Q0997 RESHRA NOSIG=
201606140520 METAR COR EGLL 140520Z 24008KT 200V260 9999 FEW006 SCT030
                        14/13 Q0997 TEMPO BKN010=
201606140450 METAR COR EGLL 140450Z 20005KT 9000 -RA FEW006 BKN015 14/13
                        Q0997 TEMPO BKN008=
201606140420 METAR COR EGLL 140420Z AUTO 22004KT 9999 BKN009 14/12 Q0998
                        BECMG BKN010=
201606140350 METAR COR EGLL 140350Z 23007KT 9999 FEW010 SCT025 13/12 Q0998
                        TEMPO BKN010=
201606140320 METAR COR EGLL 140320Z AUTO 23008KT 9999 BKN005 14/13 Q0998
                        TEMPO SCT005 BKN010=
201606140250 METAR COR EGLL 140250Z AUTO 23007KT 9999 SCT007 SCT026 14/13
                        Q0998 TEMPO BKN007=
201606140220 METAR COR EGLL 140220Z AUTO 21003KT 9999 FEW007 14/13 Q0999
                        NOSIG=
201606140150 METAR COR EGLL 140150Z AUTO 22005KT 9999 FEW007 SCT034 14/13
                        Q0999 NOSIG=
201606140120 METAR COR EGLL 140120Z AUTO 22005KT 9999 SCT007 14/13 Q0999
                        TEMPO BKN007=
201606140050 METAR COR EGLL 140050Z AUTO 20004KT 9999 FEW010 OVC046 14/13
                        Q1000 TEMPO SCT008 BKN010=
201606140020 METAR COR EGLL 140020Z AUTO 24006KT 9999 BKN041/// //////TCU
                        14/13 Q1000 NOSIG=
201606132350 METAR COR EGLL 132350Z AUTO 27009KT 9999 SCT025/// BKN038///
                        //////TCU 13/12 Q1000 NOSIG=
201606132320 METAR COR EGLL 132320Z AUTO 27007KT 7000 -RA FEW005/// BKN016///
                        OVC042/// //////TCU 14/13 Q1000 NOSIG=
201606132250 METAR COR EGLL 132250Z AUTO 25010KT 9999 -SHRA FEW010TCU
                        BKN032/// 15/14 Q1000 NOSIG=
201606132220 METAR COR EGLL 132220Z 24010KT 9999 -SHRA FEW010TCU BKN032
                        15/14 Q1000 TEMPO SHRA=
201606132150 METAR COR EGLL 132150Z AUTO 24009KT 9999 BKN030/// //////TCU
                        16/13 Q1000 TEMPO SHRA=
201606132120 METAR COR EGLL 132120Z AUTO 24008KT 9999 BKN028/// //////TCU
                        16/13 Q1001 NOSIG=
201606132050 METAR COR EGLL 132050Z AUTO 25007KT 220V280 9999 SCT020 BKN037
                        17/13 Q1001 NOSIG=
201606132020 METAR COR EGLL 132020Z AUTO 25009KT 9999 BKN024 17/13 Q1001
                        NOSIG=
201606131950 METAR COR EGLL 131950Z AUTO 25008KT 9999 BKN026 BKN049 17/13
                        Q1001 NOSIG=
201606131920 METAR COR EGLL 131920Z AUTO 25009KT 9999 BKN025 17/12 Q1001
                        NOSIG=
201606131850 METAR COR EGLL 131850Z AUTO 27008KT 9999 SCT031 17/12 Q1001
                        NOSIG=
201606131820 METAR COR EGLL 131820Z AUTO 29006KT 9999 FEW024 17/12 Q1001
                        NOSIG=
201606131750 METAR COR EGLL 131750Z AUTO 29006KT 9999 BKN037 18/13 Q1001
                        NOSIG=
201606131720 METAR COR EGLL 131720Z AUTO 31007KT 9999 BKN043/// //////CB
                        18/12 Q1001 TEMPO SHRA=
201606131650 METAR COR EGLL 131650Z AUTO 29008KT 9999 BKN044 17/12 Q1001
                        TEMPO SHRA=
201606131620 METAR COR EGLL 131620Z AUTO 28011KT 9999 OVC039/// //////CB
                        17/12 Q1001 TEMPO SHRA=
201606131550 METAR COR EGLL 131550Z AUTO 29010KT 9999 OVC040/// //////TCU
                        17/13 Q1001 TEMPO SHRA=
201606131520 METAR COR EGLL 131520Z AUTO 27011KT 9999 FEW023/// BKN038///
                        //////CB 17/13 Q1001 TEMPO SHRA=
201606131450 METAR COR EGLL 131450Z AUTO 29008KT 9999 FEW025/// BKN045///
                        //////CB 18/13 Q1001 TEMPO SHRA=
201606131420 METAR COR EGLL 131420Z AUTO 27012KT 9999 FEW027/// OVC037///
                        //////CB 16/13 Q1001 NOSIG=
201606131350 METAR COR EGLL 131350Z AUTO 27012KT 9000 -RA SCT020/// OVC036///
                        //////CB 16/13 Q1001 NOSIG=
201606131320 METAR COR EGLL 131320Z AUTO 27011KT 9999 SCT022/// BKN039///
                        //////CB 17/13 Q1001 TEMPO SHRA=
201606131250 METAR COR EGLL 131250Z AUTO 27007KT 9999 FEW018/// BKN043///
                        //////CB 18/14 Q1001 TEMPO SHRA=
201606131220 METAR COR EGLL 131220Z 28011KT 9999 VCSH FEW012 SCT022 16/14
                        Q1001 RERA TEMPO SHRA=
201606131150 METAR COR EGLL 131150Z AUTO 25009KT 9999 FEW020/// //////CB
                        18/13 Q1002 TEMPO SHRA=
201606131120 METAR COR EGLL 131120Z AUTO 27007KT 9999 SCT014 18/14 Q1002
                        TEMPO SHRA=
201606131050 METAR COR EGLL 131050Z AUTO 28009KT 9999 SCT013 BKN021 17/14
                        Q1002 NOSIG=
201606131020 METAR COR EGLL 131020Z AUTO 26010KT 9999 -RA BKN011/// BKN024///
                        //////TCU 17/14 Q1002 NOSIG=
201606130950 METAR COR EGLL 130950Z AUTO 25009KT 9999 -RA SCT009/// BKN037///
                        //////CB 16/15 Q1002 NOSIG=
201606130920 METAR COR EGLL 130920Z AUTO 24009KT 9000 -RA FEW008/// OVC045///
                        //////CB 15/14 Q1002 TEMPO SHRA BKN008=
201606130850 METAR COR EGLL 130850Z AUTO 25009KT 9000 -RA BKN008/// BKN039///
                        //////CB 15/14 Q1002 TEMPO RA=
201606130820 METAR COR EGLL 130820Z AUTO 24009KT 9999 -RA OVC012/// //////CB
                        16/14 Q1002 TEMPO RA=
201606130750 METAR COR EGLL 130750Z 25009KT 9999 VCSH FEW012 BKN014 16/13
                        Q1002 TEMPO RA=
201606130720 METAR COR EGLL 130720Z 26009KT 9999 FEW012 BKN015 16/14 Q1003
                        TEMPO RA BKN012=
201606130650 METAR COR EGLL 130650Z AUTO 26007KT 9999 OVC012 16/13 Q1003
                        TEMPO SCT012 BKN016=
201606130620 METAR COR EGLL 130620Z AUTO 27008KT 9999 BKN011 15/13 Q1003
                        BECMG SCT014 BKN016=
201606130550 METAR COR EGLL 130550Z AUTO 27010KT 9999 OVC010 15/13 Q1003
                        BECMG SCT014 BKN016=
201606130520 METAR COR EGLL 130520Z 26009KT 9999 BKN012 15/13 Q1003 BECMG
                        SCT012 BKN016=
201606130450 METAR COR EGLL 130450Z 27008KT 9000 BKN012 15/13 Q1003 TEMPO
                        SCT012 BKN016=
201606130420 METAR COR EGLL 130420Z 27010KT 9000 SCT007 SCT010 14/13 Q1003
                        TEMPO BKN009=
201606130350 METAR COR EGLL 130350Z 28009KT 8000 SCT006 SCT009 14/13 Q1004
                        NOSIG=
201606130320 METAR COR EGLL 130320Z AUTO 27009KT 8000 BKN005 14/13 Q1004
                        NOSIG=
201606130250 METAR COR EGLL 130250Z AUTO 27007KT 9999 SCT007 14/13 Q1004
                        TEMPO BKN008=
201606130220 METAR COR EGLL 130220Z AUTO 27007KT 9999 FEW012 14/13 Q1004
                        TEMPO BKN012=
201606130150 METAR COR EGLL 130150Z AUTO 28006KT 9999 FEW011 15/13 Q1004
                        TEMPO BKN012=
201606130120 METAR COR EGLL 130120Z AUTO 27009KT 9999 OVC044 15/14 Q1004
                        NOSIG=
201606130050 METAR EGLL 130050Z AUTO 27009KT 9999 OVC045 15/14 Q1004=
201606130020 METAR COR EGLL 130020Z 27008KT 9999 FEW025 15/13 Q1004 NOSIG=
201606122350 METAR COR EGLL 122350Z AUTO 27010KT 9999 BKN026 15/14 Q1004
                        NOSIG=
201606122320 METAR COR EGLL 122320Z AUTO 27009KT 9999 SCT027 16/14 Q1004
                        NOSIG=
201606122250 METAR COR EGLL 122250Z AUTO 26007KT 9999 NCD 16/14 Q1005
                        NOSIG=
201606122220 METAR COR EGLL 122220Z AUTO 27006KT 9999 NCD 16/14 Q1005
                        NOSIG=
201606122150 METAR COR EGLL 122150Z AUTO 28007KT 9999 NCD 16/13 Q1004
                        NOSIG=
201606122120 METAR COR EGLL 122120Z AUTO 26008KT 9999 FEW032/// //////CB
                        17/14 Q1004 NOSIG=
201606122050 METAR COR EGLL 122050Z AUTO 28008KT 9999 FEW032/// //////CB
                        17/14 Q1004 NOSIG=
201606122020 METAR COR EGLL 122020Z AUTO 27008KT 9999 BKN029/// //////CB
                        18/14 Q1004 NOSIG=
201606121950 METAR COR EGLL 121950Z AUTO 26008KT 9999 FEW024/// BKN030///
                        //////CB 18/15 Q1004 NOSIG=
201606121920 METAR COR EGLL 121920Z AUTO 25007KT 9999 BKN025 BKN041 19/16
                        Q1004 NOSIG=
201606121850 METAR COR EGLL 121850Z AUTO 24007KT 9999 FEW030 19/15 Q1004
                        NOSIG=
201606121820 METAR COR EGLL 121820Z AUTO 24008KT 9999 NCD 19/16 Q1004
                        NOSIG=
201606121750 METAR COR EGLL 121750Z AUTO 24009KT 220V290 9999 NCD 19/16
                        Q1004 NOSIG=
201606121720 METAR COR EGLL 121720Z AUTO 22008KT 9999 FEW017/// SCT040///
                        //////CB 19/16 Q1004 NOSIG=
201606121650 METAR COR EGLL 121650Z AUTO 23010KT 9999 -RA FEW008/// BKN016///
                        //////CB 19/16 Q1004 TEMPO SHRA=
201606121620 METAR COR EGLL 121620Z AUTO 26008KT 190V290 9999 -RA BKN017///
                        //////CB 20/16 Q1005 TEMPO 4000 +SHRA=
201606121550 METAR COR EGLL 121550Z AUTO 23008KT 9999 -RA BKN018/// BKN033///
                        //////CB 19/16 Q1005 TEMPO SHRA=
201606121520 METAR COR EGLL 121520Z AUTO 22008KT 9999 SCT017/// BKN042///
                        //////TCU 20/16 Q1005 TEMPO SHRA=
201606121450 METAR COR EGLL 121450Z AUTO 25007KT 210V280 9999 SCT017 BKN033
                        OVC048 20/16 Q1005 TEMPO SHRA=
201606121420 METAR COR EGLL 121420Z AUTO 22007KT 170V260 9999 BKN015 OVC025
                        19/15 Q1005 TEMPO SHRA=
201606121350 METAR COR EGLL 121350Z AUTO 24008KT 200V270 9999 SCT012 BKN042
                        19/15 Q1006 TEMPO BKN014=
201606121320 METAR COR EGLL 121320Z AUTO 24009KT 210V280 9999 BKN009 BKN026
                        18/15 Q1006 BECMG SCT020=
201606121250 METAR COR EGLL 121250Z AUTO 25006G16KT 170V280 9999 BKN007
                        OVC016 17/15 Q1006 BECMG SCT020=
201606121220 METAR COR EGLL 121220Z 21005KT 160V260 8000 -SHRA FEW004
                        BKN009 16/15 Q1007 TEMPO BKN012=
201606121150 METAR COR EGLL 121150Z 19005KT 130V240 6000 -SHRA FEW005
                        BKN012 16/15 Q1007 TEMPO BKN007=
201606121120 METAR COR EGLL 121120Z 18006KT 120V240 7000 -SHRA FEW005
                        BKN009 15/14 Q1007 TEMPO BKN012=
201606121050 METAR COR EGLL 121050Z 19006KT 120V250 6000 -SHRA FEW005
                        BKN008 15/14 Q1007 RESHRA TEMPO 4000
                        RADZ BKN012=
201606121020 METAR COR EGLL 121020Z 17007KT 130V230 4800 SHRA FEW003 SCT005
                        BKN008 15/14 Q1007 RESHRA TEMPO 6000
                        -SHRA BKN012=
201606120950 METAR COR EGLL 120950Z 16007KT 130V220 4500 SHRA FEW003 SCT005
                        BKN009 15/14 Q1008 RESHRA TEMPO 6000
                        -SHRA BKN012=
201606120920 METAR COR EGLL 120920Z 16007KT 130V230 4200 +SHRA FEW004
                        BKN008 15/14 Q1008 RESHRA TEMPO 6000
                        SHRA BKN012=
201606120850 METAR COR EGLL 120850Z AUTO 17008KT 130V240 8000 -RA BKN007
                        OVC020 15/13 Q1008 TEMPO SHRA BKN012=
201606120820 METAR COR EGLL 120820Z AUTO 19007KT 160V240 9999 BKN008 OVC031
                        15/13 Q1008 TEMPO SHRA BKN012=
201606120750 METAR COR EGLL 120750Z AUTO 18006KT 150V230 9999 BKN009 15/13
                        Q1008 TEMPO SHRA BKN012=
201606120720 METAR COR EGLL 120720Z AUTO 22005KT 180V260 9999 -RA FEW010///
                        BKN047/// //////TCU 15/13 Q1008 TEMPO
                        SHRA BKN008=
201606120650 METAR COR EGLL 120650Z AUTO 22005KT 190V250 9999 SCT010///
                        //////TCU 14/12 Q1009 TEMPO SHRA
                        BKN008=
201606120620 METAR COR EGLL 120620Z AUTO 23005KT 180V260 9999 FEW014///
                        BKN047/// //////TCU 14/12 Q1009 TEMPO
                        RA BKN014=
201606120550 METAR COR EGLL 120550Z AUTO 23008KT 9999 //////TCU 14/12
                        Q1009 TEMPO -RA BKN014=
201606120520 METAR COR EGLL 120520Z AUTO 22007KT 9999 //////TCU 14/12
                        Q1009 TEMPO -RA BKN014=
201606120450 METAR COR EGLL 120450Z AUTO 20006KT 180V240 9999 NCD 14/12
                        Q1009 TEMPO -RA BKN014=
201606120420 METAR COR EGLL 120420Z AUTO 22006KT 9999 NCD 14/13 Q1009
                        TEMPO RA BKN009=
201606120350 METAR COR EGLL 120350Z AUTO 22005KT 8000 FEW009 14/13 Q1009
                        TEMPO BKN011=
201606120320 METAR COR EGLL 120320Z AUTO 23007KT 8000 BKN006 15/13 Q1009
                        TEMPO BKN011=
201606120250 METAR COR EGLL 120250Z AUTO 22008KT 8000 SCT007 14/13 Q1009
                        TEMPO BKN008=
201606120220 METAR COR EGLL 120220Z AUTO 21007KT 9999 NCD 15/13 Q1009
                        TEMPO BKN014=
201606120150 METAR COR EGLL 120150Z AUTO 21005KT 9999 NCD 15/13 Q1010
                        TEMPO BKN014=
201606120120 METAR COR EGLL 120120Z AUTO 22006KT 9999 NCD 15/13 Q1010
                        TEMPO BKN014=
201606120050 METAR COR EGLL 120050Z AUTO 22005KT 9999 NCD 16/13 Q1010
                        TEMPO BKN014=
201606120020 METAR COR EGLL 120020Z AUTO 23007KT 9999 NCD 17/13 Q1010
                        NOSIG=
201606112350 METAR COR EGLL 112350Z AUTO 22006KT 9999 NCD 17/14 Q1010
                        NOSIG=
201606112320 METAR COR EGLL 112320Z AUTO 20006KT 9999 NCD 17/14 Q1010
                        NOSIG=
201606112250 METAR COR EGLL 112250Z AUTO 20005KT 9999 NCD 17/14 Q1010
                        NOSIG=
201606112220 METAR COR EGLL 112220Z AUTO 20006KT 9999 NCD 18/14 Q1010
                        NOSIG=
201606112150 METAR COR EGLL 112150Z AUTO 19006KT 160V240 9999 NCD 18/14
                        Q1010 NOSIG=
201606112120 METAR COR EGLL 112120Z AUTO 18007KT 160V230 9999 NCD 18/14
                        Q1010 NOSIG=
201606112050 METAR COR EGLL 112050Z AUTO 16006KT 120V200 9999 NCD 18/14
                        Q1010 NOSIG=
201606112020 METAR COR EGLL 112020Z AUTO 16006KT 110V200 9999 NCD 18/14
                        Q1010 NOSIG=
201606111950 METAR COR EGLL 111950Z AUTO 16006KT 130V210 9999 //////TCU
                        19/14 Q1010 NOSIG=
201606111920 METAR COR EGLL 111920Z AUTO 17006KT 110V230 9999 FEW031///
                        //////CB 19/14 Q1010 NOSIG=
201606111850 METAR EGLL 111850Z AUTO 23005KT 190V280 9999 NCD 20/14 Q1010=
201606111820 METAR COR EGLL 111820Z AUTO VRB03KT 9999 -RA //////TCU 20/14
                        Q1010 NOSIG=
201606111750 METAR COR EGLL 111750Z AUTO 27005KT 210V320 9999 -RA FEW025
                        20/14 Q1010 NOSIG=
201606111720 METAR COR EGLL 111720Z AUTO 27005KT 240V300 9999 -RA FEW026
                        20/13 Q1010 NOSIG=
201606111650 METAR COR EGLL 111650Z AUTO 28004KT 190V360 9999 -RA NCD
                        20/13 Q1010 NOSIG=
201606111620 METAR COR EGLL 111620Z AUTO 31005KT 270V360 9999 FEW038 21/12
                        Q1010 NOSIG=
201606111550 METAR COR EGLL 111550Z AUTO 32005KT 290V020 9999 FEW035 21/12
                        Q1010 NOSIG=
201606111520 METAR COR EGLL 111520Z AUTO 32006KT 280V360 9999 FEW031///
                        //////TCU 21/12 Q1010 NOSIG=
201606111450 METAR EGLL 111450Z AUTO 31006KT 260V360 9999 NCD 20/14 Q1011=
201606111420 METAR COR EGLL 111420Z AUTO 27006KT 230V300 9999 FEW037///
                        //////TCU 20/13 Q1011 NOSIG=
201606111350 METAR COR EGLL 111350Z AUTO 24008KT 200V270 9999 -RA FEW021///
                        SCT036/// //////CB 21/12 Q1011 TEMPO
                        SHRA=
201606111320 METAR COR EGLL 111320Z AUTO 24011KT 9999 FEW034/// //////CB
                        20/14 Q1011 TEMPO SHRA=
201606111250 METAR COR EGLL 111250Z AUTO 29005KT 250V330 9999 FEW037///
                        //////CB 21/13 Q1011 TEMPO SHRA=
201606111220 METAR COR EGLL 111220Z AUTO 30006KT 270V350 9999 -RA FEW018///
                        //////CB 21/13 Q1011 TEMPO SHRA=
201606111150 METAR COR EGLL 111150Z AUTO 30006KT 270V330 9999 FEW023///
                        //////CB 20/12 Q1011 TEMPO SHRA=
201606111120 METAR COR EGLL 111120Z AUTO 31007KT 9999 FEW031/// BKN036///
                        //////CB 20/13 Q1011 TEMPO SHRA=
201606111050 METAR COR EGLL 111050Z AUTO 29005KT 260V360 9999 SCT028///
                        SCT043/// //////CB 20/13 Q1011 TEMPO
                        SHRA=
201606111020 METAR COR EGLL 111020Z AUTO VRB03KT 9999 FEW026/// //////CB
                        20/14 Q1011 TEMPO SHRA=
201606110950 METAR COR EGLL 110950Z AUTO VRB03KT 9999 FEW024 20/14 Q1011
                        NOSIG=
201606110920 METAR COR EGLL 110920Z AUTO 02004KT 280V070 9999 SCT018 20/14
                        Q1011 NOSIG=
201606110850 METAR COR EGLL 110850Z AUTO VRB03KT 9999 FEW015 20/15 Q1011
                        NOSIG=
201606110820 METAR COR EGLL 110820Z AUTO 34005KT 290V030 9999 NCD 19/15
                        Q1011 NOSIG=
201606110750 METAR COR EGLL 110750Z AUTO 35005KT 320V020 9999 NCD 18/15
                        Q1011 NOSIG=
201606110720 METAR COR EGLL 110720Z AUTO VRB01KT 7000 FEW006 SCT049 18/15
                        Q1011 NOSIG=
201606110650 METAR COR EGLL 110650Z AUTO VRB01KT 6000 -RA NCD 17/15 Q1011
                        NOSIG=
201606110620 METAR COR EGLL 110620Z AUTO VRB03KT 6000 -RA FEW035 16/15
                        Q1011 NOSIG=
201606110550 METAR COR EGLL 110550Z AUTO 30005KT 7000 NCD 16/15 Q1010
                        NOSIG=
201606110520 METAR COR EGLL 110520Z AUTO 25004KT 210V280 8000 FEW007 16/14
                        Q1010 NOSIG=
201606110450 METAR COR EGLL 110450Z AUTO 26004KT 8000 NCD 16/14 Q1010
                        NOSIG=
201606110420 METAR COR EGLL 110420Z AUTO VRB03KT 9000 NCD 15/14 Q1010
                        NOSIG=
201606110350 METAR COR EGLL 110350Z AUTO 18003KT 9999 NCD 16/14 Q1010
                        NOSIG=
201606110320 METAR COR EGLL 110320Z AUTO VRB02KT 9999 NCD 15/14 Q1010
                        NOSIG=
201606110250 METAR COR EGLL 110250Z AUTO 23003KT 9999 NCD 16/13 Q1010
                        NOSIG=
201606110220 METAR COR EGLL 110220Z AUTO 18004KT 9999 NCD 16/13 Q1010
                        NOSIG=
201606110150 METAR COR EGLL 110150Z AUTO 20004KT 160V230 9999 NCD 16/13
                        Q1010 NOSIG=
201606110120 METAR COR EGLL 110120Z AUTO 20004KT 9999 FEW044 16/14 Q1010
                        NOSIG=
201606110050 METAR COR EGLL 110050Z AUTO 22003KT 9999 FEW039 16/14 Q1010
                        NOSIG=
201606110020 METAR COR EGLL 110020Z AUTO 24003KT 9999 BKN035 17/14 Q1011
                        NOSIG=
201606102350 METAR COR EGLL 102350Z AUTO 19003KT 9999 SCT035 17/14 Q1011
                        NOSIG=
201606102320 METAR COR EGLL 102320Z AUTO VRB01KT 9999 //////CB 17/14 Q1011
                        NOSIG=
201606102250 METAR COR EGLL 102250Z AUTO VRB01KT 9999 FEW039/// //////TCU
                        18/14 Q1011 NOSIG=
201606102220 METAR COR EGLL 102220Z AUTO 10002KT 9999 BKN027 18/14 Q1011
                        NOSIG=
201606102150 METAR COR EGLL 102150Z AUTO VRB03KT 9999 -RA BKN031 17/15
                        Q1011 NOSIG=
201606102120 METAR COR EGLL 102120Z AUTO VRB03KT 9999 -RA FEW033 18/13
                        Q1011 NOSIG=
201606102050 METAR COR EGLL 102050Z AUTO VRB03KT 9999 -RA NCD 18/14 Q1011
                        NOSIG=
201606102020 METAR COR EGLL 102020Z AUTO 33004KT 9999 //////CB 18/13 Q1011
                        NOSIG=
201606101950 METAR COR EGLL 101950Z AUTO 31005KT 9999 -RA FEW039 17/14
                        Q1011 NOSIG=
201606101920 METAR COR EGLL 101920Z AUTO 29006KT 9999 -RA SCT034/// //////CB
                        17/14 Q1011 TEMPO 3000 TSRA=
201606101850 METAR COR EGLL 101850Z 28010KT 9999 5000W -SHRA SCT032CB
                        18/14 Q1011 RESHRA TEMPO 3000 TSRA=
201606101820 METAR COR EGLL 101820Z 24011KT 200V270 9999 5000W VCSH VCTS
                        BKN038CB 20/14 Q1011 TEMPO 3000 TSRA=
201606101750 METAR COR EGLL 101750Z AUTO 20006KT 170V230 9999 //////CB
                        22/12 Q1011 TEMPO SHRA=
201606101720 METAR COR EGLL 101720Z AUTO 21006KT 9999 //////CB 22/11 Q1011
                        NOSIG=
201606101650 METAR COR EGLL 101650Z AUTO 22004KT 170V250 9999 //////CB
                        22/11 Q1011 NOSIG=
201606101620 METAR COR EGLL 101620Z AUTO 18005KT 150V210 9999 NCD 22/11
                        Q1011 NOSIG=
201606101550 METAR COR EGLL 101550Z AUTO 17006KT 140V210 9999 NCD 22/11
                        Q1011 NOSIG=
201606101520 METAR COR EGLL 101520Z AUTO 16006KT 120V210 9999 NCD 22/11
                        Q1012 NOSIG=
201606101450 METAR COR EGLL 101450Z AUTO 20007KT 150V250 9999 NCD 23/10
                        Q1012 NOSIG=
201606101420 METAR COR EGLL 101420Z AUTO 16005KT 090V200 9999 NCD 23/09
                        Q1012 NOSIG=
201606101350 METAR COR EGLL 101350Z AUTO 11004KT 010V160 9999 NCD 22/09
                        Q1012 NOSIG=
201606101320 METAR COR EGLL 101320Z AUTO 18005KT 150V220 9999 NCD 22/09
                        Q1013 NOSIG=
201606101250 METAR COR EGLL 101250Z AUTO 20005KT 140V250 9999 NCD 22/09
                        Q1013 NOSIG=
201606101220 METAR COR EGLL 101220Z AUTO 18005KT 150V220 9999 NCD 21/08
                        Q1013 NOSIG=
201606101150 METAR COR EGLL 101150Z AUTO VRB03KT 9999 NCD 20/07 Q1013
                        NOSIG=
201606101120 METAR COR EGLL 101120Z AUTO VRB03KT 9999 NCD 20/07 Q1014
                        NOSIG=
201606101050 METAR COR EGLL 101050Z AUTO VRB03KT 9999 NCD 19/06 Q1014
                        NOSIG=
201606101020 METAR COR EGLL 101020Z AUTO 18004KT 130V240 9999 NCD 19/07
                        Q1014 NOSIG=
201606100950 METAR COR EGLL 100950Z AUTO 15004KT 9999 NCD 18/07 Q1014
                        NOSIG=
201606100920 METAR COR EGLL 100920Z AUTO VRB02KT 9999 NCD 17/07 Q1015
                        NOSIG=
201606100850 METAR COR EGLL 100850Z AUTO VRB02KT 9999 NCD 17/09 Q1015
                        NOSIG=
201606100820 METAR COR EGLL 100820Z AUTO VRB03KT 9999 NCD 17/09 Q1015
                        NOSIG=
201606100750 METAR COR EGLL 100750Z AUTO VRB03KT 9999 NCD 16/08 Q1015
                        NOSIG=
201606100720 METAR COR EGLL 100720Z AUTO VRB02KT 9999 NCD 16/09 Q1015
                        NOSIG=
201606100650 METAR COR EGLL 100650Z AUTO 15003KT 9999 NCD 16/11 Q1015
                        NOSIG=
201606100620 METAR COR EGLL 100620Z AUTO 10003KT 9999 NCD 16/12 Q1015
                        NOSIG=
201606100550 METAR COR EGLL 100550Z AUTO 08003KT 9999 NCD 15/12 Q1015
                        NOSIG=
201606100520 METAR COR EGLL 100520Z AUTO 10003KT 9999 NCD 15/12 Q1015
                        NOSIG=
201606100450 METAR COR EGLL 100450Z AUTO 17002KT 9999 NCD 15/12 Q1015
                        NOSIG=
201606100420 METAR COR EGLL 100420Z AUTO VRB02KT 9999 NCD 14/12 Q1015
                        NOSIG=
201606100350 METAR COR EGLL 100350Z AUTO 10003KT 9000 NCD 14/12 Q1015
                        NOSIG=
201606100320 METAR COR EGLL 100320Z AUTO 14003KT 9000 NCD 14/13 Q1015
                        NOSIG=
201606100250 METAR EGLL 100250Z AUTO 15003KT 9000 NCD 14/13 Q1016=
201606100220 METAR EGLL 100220Z AUTO 11004KT 9000 FEW011 15/13 Q1016=
201606100150 METAR EGLL 100150Z AUTO 14004KT 9999 FEW012 15/13 Q1016=
201606100120 METAR EGLL 100120Z AUTO 13003KT 9999 NCD 15/13 Q1017=
201606100050 METAR EGLL 100050Z AUTO 13004KT 9999 NCD 16/13 Q1017=
201606100020 METAR COR EGLL 100020Z AUTO 13004KT 9999 NCD 16/13 Q1017
                        NOSIG=
201606092350 METAR COR EGLL 092350Z AUTO 14004KT 9999 NCD 16/13 Q1018
                        NOSIG=
201606092320 METAR COR EGLL 092320Z AUTO 12003KT 9999 NCD 16/13 Q1018
                        NOSIG=
201606092250 METAR COR EGLL 092250Z AUTO 10004KT 9999 NCD 16/13 Q1018
                        NOSIG=
201606092220 METAR COR EGLL 092220Z AUTO 10005KT 9999 NCD 17/13 Q1018
                        NOSIG=
201606092150 METAR COR EGLL 092150Z AUTO 10006KT 9999 NCD 17/13 Q1018
                        NOSIG=
201606092120 METAR COR EGLL 092120Z AUTO 11005KT 9999 NCD 18/13 Q1018
                        NOSIG=
201606092050 METAR COR EGLL 092050Z AUTO 11007KT 9999 NCD 18/13 Q1018
                        NOSIG=
201606092020 METAR COR EGLL 092020Z AUTO 10007KT 9999 NCD 19/13 Q1018
                        NOSIG=
201606091950 METAR COR EGLL 091950Z AUTO 10007KT 9999 NCD 19/11 Q1018
                        NOSIG=
201606091920 METAR COR EGLL 091920Z AUTO 10008KT 9999 NCD 19/11 Q1018
                        NOSIG=
201606091850 METAR COR EGLL 091850Z AUTO 11007KT 9999 NCD 19/11 Q1018
                        NOSIG=
201606091820 METAR COR EGLL 091820Z AUTO 09006KT 9999 NCD 21/11 Q1018
                        NOSIG=
201606091750 METAR COR EGLL 091750Z AUTO 10006KT 9999 NCD 21/12 Q1019
                        NOSIG=
201606091720 METAR COR EGLL 091720Z AUTO 09006KT 9999 NCD 21/11 Q1019
                        NOSIG=
201606091650 METAR COR EGLL 091650Z AUTO 07006KT 9999 NCD 22/12 Q1019
                        NOSIG=
201606091620 METAR COR EGLL 091620Z AUTO 10005KT 020V150 9999 NCD 22/12
                        Q1019 NOSIG=
201606091550 METAR COR EGLL 091550Z AUTO 10005KT 060V160 9999 NCD 23/12
                        Q1019 NOSIG=
201606091520 METAR COR EGLL 091520Z AUTO 10004KT 010V160 9999 NCD 22/12
                        Q1020 NOSIG=
201606091450 METAR COR EGLL 091450Z AUTO 08004KT 340V140 9999 NCD 22/12
                        Q1020 NOSIG=
201606091420 METAR COR EGLL 091420Z AUTO VRB04KT 9999 NCD 22/12 Q1020
                        NOSIG=
201606091350 METAR COR EGLL 091350Z AUTO VRB02KT 9999 NCD 22/12 Q1020
                        NOSIG=
201606091320 METAR COR EGLL 091320Z AUTO VRB05KT 9999 NCD 21/12 Q1021
                        NOSIG=
201606091250 METAR COR EGLL 091250Z AUTO 09005KT 040V130 9999 NCD 21/12
                        Q1021 NOSIG=
201606091220 METAR COR EGLL 091220Z AUTO 06004KT 330V140 9999 NCD 20/12
                        Q1021 NOSIG=
201606091150 METAR COR EGLL 091150Z AUTO 06005KT 030V090 9999 NCD 19/12
                        Q1022 NOSIG=
201606091120 METAR COR EGLL 091120Z AUTO 06005KT 360V140 9999 NCD 19/12
                        Q1022 NOSIG=
201606091050 METAR COR EGLL 091050Z AUTO 09005KT 040V130 9999 NCD 18/12
                        Q1022 NOSIG=
201606091020 METAR COR EGLL 091020Z AUTO VRB03KT 9999 NCD 17/12 Q1023
                        NOSIG=
201606090950 METAR COR EGLL 090950Z AUTO 05004KT 350V130 9999 NCD 16/12
                        Q1023 NOSIG=
201606090920 METAR COR EGLL 090920Z 06006KT 030V120 9999 FEW011 15/12
                        Q1023 NOSIG=
201606090850 METAR COR EGLL 090850Z AUTO 08005KT 040V120 9999 OVC010 15/11
                        Q1023 BECMG BKN015=
201606090820 METAR COR EGLL 090820Z AUTO VRB03KT 9999 OVC010 14/11 Q1023
                        BECMG BKN015=
201606090750 METAR COR EGLL 090750Z 09004KT 030V140 9999 BKN011 14/11
                        Q1023 NOSIG=
201606090720 METAR COR EGLL 090720Z 08005KT 030V120 9999 BKN012 14/11
                        Q1023 NOSIG=
201606090650 METAR COR EGLL 090650Z AUTO 05005KT 010V090 9999 BKN010 14/11
                        Q1023 NOSIG=
201606090620 METAR COR EGLL 090620Z AUTO 09005KT 050V120 9999 OVC010 13/11
                        Q1023 NOSIG=
201606090550 METAR COR EGLL 090550Z AUTO 04004KT 010V090 9999 OVC011 13/11
                        Q1023 NOSIG=
201606090520 METAR COR EGLL 090520Z AUTO 03004KT 350V060 9999 BKN011 13/11
                        Q1023 NOSIG=
201606090450 METAR COR EGLL 090450Z AUTO 04003KT 9000 OVC010 13/11 Q1023
                        NOSIG=
201606090420 METAR COR EGLL 090420Z AUTO VRB03KT 8000 OVC009 13/11 Q1023
                        BECMG BKN010=
201606090350 METAR COR EGLL 090350Z AUTO VRB03KT 6000 OVC009 13/11 Q1023
                        BECMG BKN010=
201606090320 METAR COR EGLL 090320Z AUTO VRB02KT 7000 OVC009 13/11 Q1023
                        TEMPO BKN010=
201606090250 METAR COR EGLL 090250Z AUTO 04005KT 6000 OVC007 13/12 Q1023
                        TEMPO 4500 HZ=
201606090220 METAR COR EGLL 090220Z AUTO 06004KT 020V080 4700 HZ OVC006
                        13/12 Q1024 NOSIG=
201606090150 METAR COR EGLL 090150Z AUTO 07004KT 030V130 4300 HZ OVC005
                        13/12 Q1024 NOSIG=
201606090120 METAR COR EGLL 090120Z AUTO 09007KT 040V120 4000 HZ OVC005
                        13/12 Q1024 NOSIG=
201606090050 METAR COR EGLL 090050Z AUTO 06006KT 3800 HZ OVC006 14/13
                        Q1024 NOSIG=
201606090020 METAR COR EGLL 090020Z AUTO 11006KT 3700 HZ OVC005 14/13
                        Q1024 NOSIG=
201606082350 METAR COR EGLL 082350Z AUTO 10005KT 4000 HZ BKN006 14/12
                        Q1024 NOSIG=
201606082320 METAR COR EGLL 082320Z AUTO 09006KT 6000 NCD 14/12 Q1024
                        TEMPO BKN008=
201606082250 METAR COR EGLL 082250Z AUTO 10007KT 9000 NCD 14/12 Q1024
                        TEMPO BKN008=
201606082220 METAR COR EGLL 082220Z AUTO 10005KT 9999 NCD 15/13 Q1024
                        TEMPO BKN010=
201606082150 METAR COR EGLL 082150Z AUTO 07005KT 9999 NCD 17/14 Q1024
                        NOSIG=
201606082120 METAR COR EGLL 082120Z AUTO 07005KT 9999 NCD 17/15 Q1024
                        NOSIG=
201606082050 METAR COR EGLL 082050Z AUTO 05005KT 9999 FEW021 18/15 Q1024
                        NOSIG=
201606082020 METAR COR EGLL 082020Z AUTO 04007KT 9999 FEW028 19/16 Q1023
                        NOSIG=
201606081950 METAR COR EGLL 081950Z AUTO 36004KT 320V040 9999 BKN028 20/16
                        Q1023 NOSIG=
201606081920 METAR EGLL 081920Z AUTO VRB02KT 9999 NCD 21/16 Q1023=
201606081850 METAR COR EGLL 081850Z AUTO 36002KT 9999 NCD 21/16 Q1023
                        NOSIG=
201606081820 METAR COR EGLL 081820Z AUTO VRB02KT 9999 NCD 21/15 Q1023
                        NOSIG=
201606081750 METAR COR EGLL 081750Z AUTO VRB02KT 9999 NCD 20/16 Q1023
                        NOSIG=
201606081720 METAR COR EGLL 081720Z AUTO VRB02KT 9999 -RA FEW041 19/16
                        Q1023 NOSIG=
201606081650 METAR COR EGLL 081650Z AUTO 04003KT 9999 -RA FEW044/// //////CB
                        19/15 Q1023 TEMPO 4800 SHRA=
201606081620 METAR COR EGLL 081620Z AUTO 04004KT 340V070 9999 -RA FEW013///
                        SCT026/// //////CB 19/15 Q1023 RETS
                        TEMPO 4800 SHRA=
201606081550 METAR COR EGLL 081550Z AUTO 05006KT 020V080 9999 -TSRA FEW030///
                        //////CB 20/15 Q1024 TEMPO 3000 +TSRA=
201606081520 METAR COR EGLL 081520Z AUTO 12007KT 080V170 9999 VCTS FEW035///
                        //////CB 20/16 Q1024 TEMPO 4000 TSRA=
201606081450 METAR COR EGLL 081450Z AUTO 30005KT 260V340 9999 -RA FEW006///
                        BKN026/// //////CB 19/15 Q1023 RERA
                        TEMPO 3000 TSRA=
201606081420 METAR COR EGLL 081420Z AUTO 29006KT 260V340 9999 VCTS SCT038///
                        //////CB 25/15 Q1023 TEMPO 4000 +TSRA=
201606081350 METAR COR EGLL 081350Z AUTO 31007KT 280V350 9999 SCT035///
                        //////CB 24/15 Q1023 TEMPO 4800 +SHRA=
201606081320 METAR COR EGLL 081320Z AUTO 27007KT 240V320 9999 SCT036///
                        //////CB 24/16 Q1023 TEMPO 4800 +SHRA=
201606081250 METAR COR EGLL 081250Z AUTO 29005KT 240V340 9999 FEW035///
                        SCT044/// //////TCU 24/15 Q1024 TEMPO
                        4800 +SHRA=
201606081220 METAR COR EGLL 081220Z AUTO 28005KT 230V310 9999 FEW033 23/15
                        Q1024 TEMPO SHRA=
201606081150 METAR COR EGLL 081150Z AUTO 31004KT 190V360 9999 FEW020 22/16
                        Q1024 NOSIG=
201606081120 METAR COR EGLL 081120Z AUTO 30005KT 260V340 9000 SCT019 22/16
                        Q1024 NOSIG=
201606081050 METAR COR EGLL 081050Z AUTO VRB02KT 8000 SCT017 22/17 Q1024
                        NOSIG=
201606081020 METAR COR EGLL 081020Z AUTO VRB02KT 7000 FEW015 21/17 Q1024
                        NOSIG=
201606080950 METAR COR EGLL 080950Z AUTO VRB02KT 7000 FEW017 20/16 Q1024
                        NOSIG=
201606080920 METAR COR EGLL 080920Z AUTO VRB02KT 7000 FEW011 20/16 Q1024
                        NOSIG=
201606080850 METAR COR EGLL 080850Z AUTO VRB02KT 7000 SCT010 20/17 Q1024
                        NOSIG=
201606080820 METAR COR EGLL 080820Z AUTO VRB01KT 5000 HZ FEW011 19/16
                        Q1024 NOSIG=
201606080750 METAR COR EGLL 080750Z AUTO VRB01KT 5000 HZ FEW008 18/16
                        Q1024 TEMPO 4800=
201606080720 METAR COR EGLL 080720Z AUTO 08004KT 4500 HZ BKN049 18/16
                        Q1024 BECMG 7000 NSW=
201606080650 METAR COR EGLL 080650Z AUTO VRB03KT 4100 HZ FEW048 17/16
                        Q1024 BECMG 6000 NSW=
201606080620 METAR COR EGLL 080620Z AUTO VRB02KT 4500 -RA NCD 17/16 Q1024
                        BECMG 6000 NSW=
201606080550 METAR COR EGLL 080550Z AUTO VRB03KT 5000 HZ NCD 16/15 Q1024
                        TEMPO 4500=
201606080520 METAR COR EGLL 080520Z AUTO 29002KT 5000 HZ NCD 15/14 Q1023
                        TEMPO 4500=
201606080450 METAR COR EGLL 080450Z AUTO VRB01KT 5000 HZ NCD 15/14 Q1023
                        NOSIG=
201606080420 METAR COR EGLL 080420Z AUTO VRB03KT 8000 NCD 15/14 Q1023
                        NOSIG=
201606080350 METAR COR EGLL 080350Z AUTO VRB03KT 9999 NCD 15/14 Q1023
                        NOSIG=
201606080320 METAR COR EGLL 080320Z AUTO VRB03KT 9000 NCD 15/14 Q1023
                        NOSIG=
201606080250 METAR COR EGLL 080250Z AUTO 35003KT 9999 //////TCU 16/14
                        Q1023 NOSIG=
201606080220 METAR COR EGLL 080220Z AUTO VRB03KT 9999 -RA NCD 16/15 Q1023
                        NOSIG=
201606080150 METAR COR EGLL 080150Z AUTO 04003KT 6000 -RA FEW032 BKN049
                        16/15 Q1023 NOSIG=
201606080120 METAR COR EGLL 080120Z AUTO 05004KT 7000 -RA FEW038 16/15
                        Q1024 NOSIG=
201606080050 METAR COR EGLL 080050Z 08004KT 9000 -RA NSC 16/15 Q1024 NOSIG=
201606080020 METAR COR EGLL 080020Z 08003KT 3500 -RA FEW002 17/16 Q1024
                        TEMPO 6000 SHRA=
201606072350 METAR COR EGLL 072350Z 05003KT 4000 -SHRA FEW002 SCT030 17/16
                        Q1024 RERA TEMPO 6000 SHRA=
201606072320 METAR COR EGLL 072320Z VRB01KT 4500 RA BKN030CB 17/16 Q1024
                        RETS RERA TEMPO 6000 SHRA=
201606072250 METAR COR EGLL 072250Z VRB02KT 4000 TSRA BKN026CB 18/17 Q1024
                        RETS TEMPO 6000 SHRA=
201606072220 METAR COR EGLL 072220Z 18001KT 4500 TSRA BKN015CB BKN028
                        18/16 Q1024 RETS BECMG 6000 SHRA=
201606072150 METAR COR EGLL 072150Z VRB02KT 7000 TSRA BKN023CB 18/16 Q1024
                        RERA TEMPO 3000 +RA=
201606072120 METAR COR EGLL 072120Z 12005KT 8000 TSRA BKN017CB 20/17 Q1023
                        RETS TEMPO 3000 +TSRA=
201606072050 METAR COR EGLL 072050Z 12007KT 8000 -SHRA SCT020CB SCT032
                        20/17 Q1023 RESHRA TEMPO 3000 +SHRA=
201606072020 METAR COR EGLL 072020Z AUTO 12005KT 9999 BKN019/// //////CB
                        21/17 Q1023 TEMPO SHRA=
201606071950 METAR COR EGLL 071950Z AUTO 35003KT 9999 BKN032 21/17 Q1023
                        TEMPO SHRA=
201606071920 METAR COR EGLL 071920Z AUTO 35004KT 9999 NCD 21/17 Q1023
                        TEMPO SHRA=
201606071850 METAR COR EGLL 071850Z AUTO VRB03KT 9999 FEW042 22/17 Q1022
                        TEMPO SHRA=
201606071820 METAR COR EGLL 071820Z AUTO VRB02KT 9999 FEW042 22/16 Q1022
                        TEMPO SHRA=
201606071750 METAR COR EGLL 071750Z AUTO VRB02KT 9999 NCD 22/16 Q1022
                        NOSIG=
201606071720 METAR COR EGLL 071720Z AUTO VRB03KT 9999 FEW028 22/17 Q1022
                        NOSIG=
201606071650 METAR COR EGLL 071650Z AUTO 14004KT 100V240 9999 FEW027 23/17
                        Q1022 NOSIG=
201606071620 METAR COR EGLL 071620Z AUTO 13004KT 070V180 9999 FEW020///
                        //////CB 22/17 Q1022 NOSIG=
201606071550 METAR COR EGLL 071550Z AUTO 13004KT 100V180 9999 -RA FEW022///
                        SCT037/// //////CB 22/17 Q1022 NOSIG=
201606071520 METAR COR EGLL 071520Z AUTO VRB02KT 9999 FEW026/// SCT049///
                        //////CB 22/16 Q1022 NOSIG=
201606071450 METAR COR EGLL 071450Z AUTO 13006KT 8000 -RA FEW028/// //////CB
                        22/17 Q1023 TEMPO SHRA=
201606071420 METAR COR EGLL 071420Z AUTO 14008KT 070V170 9999 BKN038///
                        //////CB 22/17 Q1023 TEMPO SHRA=
201606071350 METAR COR EGLL 071350Z 26005KT 230V330 9999 SCT020CB 21/16
                        Q1023 RETS RERA TEMPO SHRA=
201606071320 METAR COR EGLL 071320Z 27004KT 230V290 8000 3500E TSRA SCT020CB
                        SCT043 21/16 Q1023 BECMG -SHRA=
201606071250 METAR COR EGLL 071250Z AUTO 27005KT 230V320 9999 -RA VCTS
                        FEW026/// BKN035/// //////CB 23/15
                        Q1023 TEMPO 4500 TSGR=
201606071220 METAR COR EGLL 071220Z AUTO 26005KT 190V310 9999 SCT044///
                        //////CB 23/14 Q1023 NOSIG=
201606071150 METAR COR EGLL 071150Z AUTO VRB03KT 9999 SCT044 23/14 Q1023
                        NOSIG=
201606071120 METAR COR EGLL 071120Z AUTO VRB02KT 9999 NCD 23/14 Q1023
                        NOSIG=
201606071050 METAR COR EGLL 071050Z AUTO 11004KT 040V210 9999 BKN046 23/14
                        Q1023 NOSIG=
201606071020 METAR COR EGLL 071020Z AUTO VRB03KT 9999 FEW046 22/13 Q1023
                        NOSIG=
201606070950 METAR COR EGLL 070950Z AUTO VRB03KT 9999 SCT046 21/13 Q1023
                        NOSIG=
201606070920 METAR COR EGLL 070920Z AUTO VRB03KT 9999 SCT045 21/12 Q1023
                        NOSIG=
201606070850 METAR COR EGLL 070850Z AUTO VRB03KT 9999 FEW048 19/11 Q1023
                        NOSIG=
201606070820 METAR COR EGLL 070820Z AUTO VRB01KT 9999 NCD 18/11 Q1023
                        NOSIG=
201606070750 METAR COR EGLL 070750Z AUTO VRB02KT 9999 NCD 18/11 Q1023
                        NOSIG=
201606070720 METAR COR EGLL 070720Z AUTO VRB01KT 9999 NCD 17/11 Q1023
                        NOSIG=
201606070650 METAR COR EGLL 070650Z AUTO VRB02KT 9999 NCD 15/10 Q1023
                        NOSIG=
201606070620 METAR COR EGLL 070620Z AUTO VRB03KT 9999 FEW046 14/09 Q1023
                        NOSIG=
201606070550 METAR COR EGLL 070550Z AUTO 04002KT 9999 NCD 14/09 Q1022
                        NOSIG=
201606070520 METAR COR EGLL 070520Z AUTO VRB03KT 9999 NCD 13/09 Q1022
                        NOSIG=
201606070450 METAR COR EGLL 070450Z AUTO VRB02KT 9999 NCD 13/08 Q1022
                        NOSIG=
201606070420 METAR COR EGLL 070420Z AUTO 05003KT 9999 NCD 13/08 Q1022
                        NOSIG=
201606070350 METAR COR EGLL 070350Z AUTO 04002KT 9999 NCD 13/07 Q1022
                        NOSIG=
201606070320 METAR COR EGLL 070320Z AUTO VRB03KT 9999 NCD 13/07 Q1022
                        NOSIG=
201606070250 METAR COR EGLL 070250Z AUTO 03002KT 9999 NCD 13/07 Q1022
                        NOSIG=
201606070220 METAR COR EGLL 070220Z AUTO 01002KT 9999 NCD 13/07 Q1022
                        NOSIG=
201606070150 METAR COR EGLL 070150Z AUTO VRB01KT 9999 NCD 14/06 Q1022
                        NOSIG=
201606070120 METAR COR EGLL 070120Z AUTO 07002KT 9999 NCD 14/06 Q1022
                        NOSIG=
201606070050 METAR COR EGLL 070050Z AUTO 10003KT 9999 NCD 14/07 Q1022
                        NOSIG=
201606070020 METAR COR EGLL 070020Z AUTO 08004KT 9999 NCD 14/06 Q1022
                        NOSIG=
201606062350 METAR COR EGLL 062350Z AUTO 07003KT 9999 NCD 13/06 Q1022
                        NOSIG=
201606062320 METAR COR EGLL 062320Z AUTO 08004KT 9999 NCD 14/05 Q1022
                        NOSIG=
201606062250 METAR COR EGLL 062250Z AUTO 06004KT 9999 NCD 15/06 Q1022
                        NOSIG=
201606062220 METAR COR EGLL 062220Z AUTO 09004KT 9999 NCD 15/05 Q1022
                        NOSIG=
201606062150 METAR COR EGLL 062150Z AUTO 10006KT 9999 NCD 15/05 Q1022
                        NOSIG=
201606062120 METAR COR EGLL 062120Z AUTO 10008KT 9999 NCD 16/02 Q1022
                        NOSIG=
201606062050 METAR COR EGLL 062050Z AUTO 11007KT 9999 NCD 18/M02 Q1022
                        NOSIG=
201606062020 METAR COR EGLL 062020Z AUTO 11009KT 9999 NCD 19/02 Q1021
                        NOSIG=
201606061950 METAR COR EGLL 061950Z AUTO 11006KT 9999 NCD 20/03 Q1021
                        NOSIG=
201606061920 METAR COR EGLL 061920Z AUTO 09008KT 9999 NCD 20/05 Q1021
                        NOSIG=
201606061850 METAR COR EGLL 061850Z AUTO 10009KT 9999 NCD 21/04 Q1021
                        NOSIG=
201606061820 METAR COR EGLL 061820Z AUTO 10010KT 9999 NCD 22/05 Q1020
                        NOSIG=
201606061750 METAR COR EGLL 061750Z AUTO 10009KT 9999 NCD 23/05 Q1020
                        NOSIG=
201606061720 METAR COR EGLL 061720Z AUTO 11010KT 9999 NCD 23/06 Q1020
                        NOSIG=
201606061650 METAR COR EGLL 061650Z AUTO 10009KT 070V130 9999 NCD 23/06
                        Q1020 NOSIG=
201606061620 METAR COR EGLL 061620Z AUTO 10011KT 9999 NCD 24/07 Q1020
                        NOSIG=
201606061550 METAR COR EGLL 061550Z AUTO 08010KT 040V110 9999 NCD 24/06
                        Q1020 NOSIG=
201606061520 METAR COR EGLL 061520Z AUTO 09008KT 050V120 9999 NCD 24/06
                        Q1021 NOSIG=
201606061450 METAR COR EGLL 061450Z AUTO 10011KT 9999 NCD 23/06 Q1021
                        NOSIG=
201606061420 METAR COR EGLL 061420Z AUTO 09010KT 050V120 9999 NCD 24/07
                        Q1021 NOSIG=
201606061350 METAR COR EGLL 061350Z AUTO 09009KT 040V120 9999 NCD 24/08
                        Q1021 NOSIG=
201606061320 METAR COR EGLL 061320Z AUTO 09007KT 050V140 9999 NCD 24/10
                        Q1021 NOSIG=
201606061250 METAR COR EGLL 061250Z AUTO 08009KT 9999 NCD 24/09 Q1021
                        NOSIG=
201606061220 METAR COR EGLL 061220Z AUTO 10010KT 9999 NCD 23/09 Q1021
                        NOSIG=
201606061150 METAR COR EGLL 061150Z AUTO 12010KT 9999 NCD 23/08 Q1021
                        NOSIG=
201606061120 METAR COR EGLL 061120Z AUTO 09007KT 060V130 9999 NCD 23/08
                        Q1022 NOSIG=
201606061050 METAR COR EGLL 061050Z AUTO 07007KT 050V120 9999 NCD 22/07
                        Q1022 NOSIG=
201606061020 METAR COR EGLL 061020Z AUTO 08009KT 050V110 9999 NCD 21/06
                        Q1022 NOSIG=
201606060950 METAR COR EGLL 060950Z AUTO 08008KT 9999 NCD 21/06 Q1022
                        NOSIG=
201606060920 METAR COR EGLL 060920Z AUTO 08006KT 040V120 9999 NCD 19/09
                        Q1022 NOSIG=
201606060850 METAR COR EGLL 060850Z AUTO 07005KT 030V100 9999 NCD 18/09
                        Q1022 NOSIG=
201606060820 METAR COR EGLL 060820Z AUTO 07004KT 010V160 9999 NCD 17/09
                        Q1022 NOSIG=
201606060750 METAR COR EGLL 060750Z AUTO 07006KT 030V100 9999 NCD 16/09
                        Q1022 NOSIG=
201606060720 METAR COR EGLL 060720Z AUTO 08006KT 9999 NCD 15/09 Q1022
                        NOSIG=
201606060650 METAR COR EGLL 060650Z AUTO 07006KT 9999 NCD 14/10 Q1022
                        NOSIG=
201606060620 METAR COR EGLL 060620Z AUTO 06005KT 9999 NCD 13/10 Q1022
                        NOSIG=
201606060550 METAR COR EGLL 060550Z AUTO 06006KT 9000 NCD 13/10 Q1022
                        NOSIG=
201606060520 METAR COR EGLL 060520Z AUTO 06006KT 7000 FEW006 12/10 Q1022
                        NOSIG=
201606060450 METAR COR EGLL 060450Z AUTO 06005KT 6000 FEW005 12/10 Q1021
                        TEMPO BKN006=
201606060420 METAR COR EGLL 060420Z AUTO 06006KT 7000 FEW005 12/10 Q1021
                        TEMPO BKN006=
201606060350 METAR COR EGLL 060350Z AUTO 05004KT 6000 NCD 12/11 Q1021
                        TEMPO BKN006=
201606060320 METAR COR EGLL 060320Z AUTO 06004KT 8000 NCD 12/11 Q1021
                        TEMPO BKN007=
201606060250 METAR COR EGLL 060250Z AUTO 04003KT 8000 NCD 12/11 Q1021
                        TEMPO BKN007=
201606060220 METAR COR EGLL 060220Z AUTO 08004KT 7000 NCD 12/11 Q1022
                        TEMPO BKN007=
201606060150 METAR COR EGLL 060150Z AUTO 06004KT 7000 NCD 11/10 Q1022
                        NOSIG=
201606060120 METAR COR EGLL 060120Z AUTO 08005KT 6000 NCD 12/10 Q1022
                        TEMPO BKN008=
201606060050 METAR COR EGLL 060050Z AUTO 07003KT 8000 NCD 13/11 Q1022
                        NOSIG=
201606060020 METAR COR EGLL 060020Z AUTO 06004KT 8000 NCD 13/11 Q1022
                        NOSIG=
201606052350 METAR COR EGLL 052350Z AUTO 06004KT 9000 NCD 13/11 Q1022
                        NOSIG=
201606052320 METAR COR EGLL 052320Z AUTO 07004KT 9000 NCD 14/12 Q1022
                        NOSIG=
201606052250 METAR COR EGLL 052250Z AUTO 10006KT 9000 NCD 15/12 Q1022
                        NOSIG=
201606052220 METAR COR EGLL 052220Z AUTO 10006KT 9999 NCD 16/13 Q1022
                        NOSIG=
201606052150 METAR COR EGLL 052150Z AUTO 09006KT 9999 NCD 16/13 Q1022
                        NOSIG=
201606052120 METAR COR EGLL 052120Z AUTO 07005KT 040V100 9999 NCD 18/14
                        Q1022 NOSIG=
201606052050 METAR COR EGLL 052050Z AUTO 09006KT 9999 NCD 18/14 Q1021
                        NOSIG=
201606052020 METAR COR EGLL 052020Z AUTO 10007KT 9000 NCD 19/15 Q1021
                        NOSIG=
201606051950 METAR COR EGLL 051950Z AUTO 10006KT 9999 NCD 20/15 Q1020
                        NOSIG=
201606051920 METAR COR EGLL 051920Z AUTO 09007KT 9999 NCD 21/15 Q1020
                        NOSIG=
201606051850 METAR COR EGLL 051850Z AUTO 08006KT 9999 FEW035 23/14 Q1020
                        NOSIG=
201606051820 METAR COR EGLL 051820Z AUTO 06006KT 9999 FEW037 23/15 Q1020
                        NOSIG=
201606051750 METAR COR EGLL 051750Z AUTO 08007KT 9999 FEW036 24/14 Q1020
                        NOSIG=
201606051720 METAR COR EGLL 051720Z AUTO 07007KT 9999 FEW037 23/15 Q1020
                        NOSIG=
201606051650 METAR COR EGLL 051650Z AUTO 07006KT 9999 FEW037 24/14 Q1020
                        NOSIG=
201606051620 METAR COR EGLL 051620Z AUTO 07006KT 020V140 9999 FEW039 24/14
                        Q1020 NOSIG=
201606051550 METAR COR EGLL 051550Z AUTO 06006KT 020V100 9999 NCD 24/13
                        Q1020 NOSIG=
201606051520 METAR COR EGLL 051520Z AUTO 07005KT 030V160 9999 NCD 23/13
                        Q1020 NOSIG=
201606051450 METAR COR EGLL 051450Z AUTO 07007KT 030V110 9999 NCD 23/13
                        Q1020 NOSIG=
201606051420 METAR COR EGLL 051420Z AUTO 05007KT 020V090 9999 NCD 22/13
                        Q1021 NOSIG=
201606051350 METAR COR EGLL 051350Z AUTO 06008KT 9999 NCD 21/12 Q1021
                        NOSIG=
201606051320 METAR COR EGLL 051320Z AUTO 07008KT 020V110 9999 NCD 22/13
                        Q1021 NOSIG=
201606051250 METAR COR EGLL 051250Z AUTO 08008KT 9999 NCD 21/13 Q1021
                        NOSIG=
201606051220 METAR COR EGLL 051220Z AUTO 04006KT 340V100 9999 NCD 21/12
                        Q1021 NOSIG=
201606051150 METAR COR EGLL 051150Z AUTO 05005KT 350V080 9999 NCD 20/12
                        Q1021 NOSIG=
201606051120 METAR COR EGLL 051120Z AUTO 05005KT 010V090 9999 NCD 19/12
                        Q1021 NOSIG=
201606051050 METAR COR EGLL 051050Z AUTO 04006KT 340V100 9999 NCD 18/12
                        Q1021 NOSIG=
201606051020 METAR COR EGLL 051020Z AUTO 02005KT 310V070 9999 FEW014 17/12
                        Q1021 NOSIG=
201606050950 METAR COR EGLL 050950Z AUTO 36007KT 330V050 9999 SCT013 16/12
                        Q1021 NOSIG=
201606050920 METAR COR EGLL 050920Z AUTO 02006KT 330V070 9999 SCT011 16/12
                        Q1021 NOSIG=
201606050850 METAR COR EGLL 050850Z AUTO 05006KT 020V080 9999 BKN010 15/11
                        Q1021 BECMG SCT012=
201606050820 METAR COR EGLL 050820Z AUTO 06005KT 360V090 9999 BKN008 14/11
                        Q1021 BECMG SCT012=
201606050750 METAR COR EGLL 050750Z AUTO 02007KT 340V050 9999 BKN008 14/11
                        Q1021 BECMG BKN010=
201606050720 METAR COR EGLL 050720Z AUTO 01005KT 330V060 9999 BKN007 14/11
                        Q1021 BECMG BKN010=
201606050650 METAR COR EGLL 050650Z AUTO 02005KT 330V070 9999 OVC006 13/11
                        Q1020 BECMG BKN010=
201606050620 METAR COR EGLL 050620Z AUTO 02005KT 340V050 9000 OVC005 12/11
                        Q1020 NOSIG=
201606050550 METAR COR EGLL 050550Z AUTO 01005KT 340V040 8000 OVC005 12/11
                        Q1020 BECMG BKN010=
201606050520 METAR COR EGLL 050520Z AUTO 03004KT 330V070 8000 OVC006 12/11
                        Q1020 BECMG BKN010=
201606050450 METAR COR EGLL 050450Z AUTO 02004KT 330V060 7000 OVC005 12/10
                        Q1020 TEMPO BKN004=
201606050420 METAR COR EGLL 050420Z AUTO 03004KT 360V060 7000 OVC005 12/10
                        Q1020 TEMPO BKN004=
201606050350 METAR COR EGLL 050350Z AUTO 04004KT 340V070 6000 OVC003 12/11
                        Q1020 TEMPO OVC005=
201606050320 METAR COR EGLL 050320Z AUTO 01004KT 330V070 5000 HZ OVC003
                        12/11 Q1020 TEMPO 4000=
201606050250 METAR COR EGLL 050250Z AUTO 03005KT 350V080 3500 HZ OVC003
                        12/11 Q1019 NOSIG=
201606050220 METAR COR EGLL 050220Z AUTO 01005KT 340V060 5000 HZ OVC003
                        12/11 Q1019 TEMPO 4000 BR=
201606050150 METAR COR EGLL 050150Z AUTO 03006KT 340V060 6000 BKN004 12/11
                        Q1019 TEMPO 4000 BR BKN006=
201606050120 METAR COR EGLL 050120Z AUTO 36005KT 6000 FEW006 13/11 Q1019
                        TEMPO BKN007=
201606050050 METAR COR EGLL 050050Z AUTO 35003KT 7000 NCD 13/12 Q1019
                        TEMPO BKN012=
201606050020 METAR COR EGLL 050020Z AUTO 36004KT 7000 NCD 14/12 Q1019
                        BECMG 4000 BR=
201606042350 METAR COR EGLL 042350Z AUTO 01004KT 340V040 7000 NCD 14/13
                        Q1019 BECMG 4000 BR=
201606042320 METAR COR EGLL 042320Z AUTO 01005KT 8000 NCD 15/13 Q1019
                        NOSIG=
201606042250 METAR COR EGLL 042250Z AUTO 36004KT 8000 SCT020 16/14 Q1019
                        NOSIG=
201606042220 METAR COR EGLL 042220Z AUTO VRB03KT 8000 BKN020 16/14 Q1019
                        NOSIG=
201606042150 METAR COR EGLL 042150Z AUTO VRB03KT 9000 SCT020 17/15 Q1019
                        NOSIG=
201606042120 METAR COR EGLL 042120Z AUTO VRB03KT 9999 FEW013 17/15 Q1019
                        NOSIG=
201606042050 METAR COR EGLL 042050Z 35004KT 310V010 9999 BKN012 18/15
                        Q1018 BECMG FEW012=
201606042020 METAR COR EGLL 042020Z AUTO 36003KT 9999 OVC013 18/15 Q1018
                        BECMG SCT014=
201606041950 METAR COR EGLL 041950Z AUTO 35003KT 9999 OVC015 18/15 Q1018
                        NOSIG=
201606041920 METAR COR EGLL 041920Z AUTO VRB03KT 9999 OVC014 18/15 Q1018
                        BECMG SCT016=
201606041850 METAR COR EGLL 041850Z AUTO 35004KT 320V030 9999 OVC014 18/15
                        Q1018 BECMG SCT020=
201606041820 METAR COR EGLL 041820Z AUTO 04005KT 010V070 9999 OVC014 18/15
                        Q1017 BECMG SCT015=
201606041750 METAR COR EGLL 041750Z AUTO 05005KT 020V090 9999 OVC014 18/15
                        Q1017 BECMG BKN015=
201606041720 METAR COR EGLL 041720Z AUTO 02005KT 310V070 9999 OVC014 18/15
                        Q1017 BECMG BKN015=
201606041650 METAR COR EGLL 041650Z AUTO 03005KT 350V070 9999 OVC013 19/15
                        Q1017 BECMG BKN015=
201606041620 METAR COR EGLL 041620Z AUTO 04005KT 310V070 7000 OVC013 18/15
                        Q1017 BECMG BKN015=
201606041550 METAR COR EGLL 041550Z AUTO 36005KT 310V030 8000 OVC013 18/15
                        Q1017 BECMG BKN015=
201606041520 METAR COR EGLL 041520Z AUTO 36005KT 320V040 9000 OVC012 19/15
                        Q1017 BECMG BKN015=
201606041450 METAR COR EGLL 041450Z AUTO 02005KT 330V070 7000 OVC013 18/14
                        Q1017 BECMG BKN017=
201606041420 METAR COR EGLL 041420Z AUTO 03006KT 320V070 8000 OVC015 19/14
                        Q1017 NOSIG=
201606041350 METAR COR EGLL 041350Z AUTO 01006KT 300V060 9999 OVC014 19/14
                        Q1017 BECMG BKN020=
201606041320 METAR COR EGLL 041320Z AUTO 35005KT 290V050 9999 OVC013 19/14
                        Q1017 BECMG BKN015=
201606041250 METAR COR EGLL 041250Z AUTO 03005KT 350V070 9999 OVC013 18/14
                        Q1017 BECMG BKN015=
201606041220 METAR COR EGLL 041220Z AUTO 36005KT 310V060 9999 OVC012 18/14
                        Q1017 BECMG BKN015=
201606041150 METAR COR EGLL 041150Z AUTO 35005KT 310V030 9999 OVC011 18/14
                        Q1017 NOSIG=
201606041120 METAR COR EGLL 041120Z AUTO 36005KT 310V040 9999 OVC010 17/14
                        Q1017 NOSIG=
201606041050 METAR COR EGLL 041050Z AUTO 01004KT 310V050 9999 OVC009 16/13
                        Q1017 BECMG BKN010=
201606041020 METAR COR EGLL 041020Z AUTO 36004KT 280V050 9999 OVC008 16/13
                        Q1017 BECMG BKN010=
201606040950 METAR COR EGLL 040950Z AUTO 02004KT 350V060 9000 OVC008 15/13
                        Q1017 BECMG BKN010=
201606040920 METAR COR EGLL 040920Z AUTO 36004KT 9000 OVC007 15/12 Q1017
                        BECMG BKN010=
201606040850 METAR COR EGLL 040850Z AUTO 02004KT 330V060 9000 OVC006 14/12
                        Q1017 BECMG BKN010=
201606040820 METAR COR EGLL 040820Z AUTO 36004KT 9000 OVC006 14/12 Q1017
                        NOSIG=
201606040750 METAR COR EGLL 040750Z AUTO 36004KT 330V040 9000 OVC006 14/12
                        Q1017 NOSIG=
201606040720 METAR COR EGLL 040720Z AUTO 36004KT 320V050 7000 OVC005 14/12
                        Q1017 NOSIG=
201606040650 METAR COR EGLL 040650Z AUTO 36005KT 330V040 7000 OVC005 13/12
                        Q1017 NOSIG=
201606040620 METAR COR EGLL 040620Z AUTO 36004KT 330V050 8000 OVC006 13/11
                        Q1017 NOSIG=
201606040550 METAR COR EGLL 040550Z AUTO 36004KT 320V040 7000 OVC005 13/11
                        Q1016 TEMPO 4500 BR BKN004=
201606040520 METAR EGLL 040520Z AUTO 35004KT 310V030 6000 OVC005 13/11
                        Q1016=
201606040450 METAR COR EGLL 040450Z AUTO 36003KT 6000 OVC004 12/11 Q1016
                        TEMPO 4000 BR=
201606040420 METAR COR EGLL 040420Z AUTO VRB03KT 4400 HZ OVC004 12/11
                        Q1016 TEMPO 6000 NSW OVC006=
201606040350 METAR COR EGLL 040350Z AUTO VRB03KT 4000 HZ OVC003 12/11
                        Q1016 TEMPO 5000 OVC005=
201606040320 METAR COR EGLL 040320Z AUTO VRB02KT 5000 HZ OVC004 12/11
                        Q1017 TEMPO 4000=
201606040250 METAR COR EGLL 040250Z AUTO 03004KT 330V080 6000 OVC004 12/11
                        Q1017 TEMPO BKN006=
201606040220 METAR COR EGLL 040220Z VRB03KT 8000 SCT006 OVC007 12/11 Q1017
                        NOSIG=
201606040150 METAR COR EGLL 040150Z VRB03KT 7000 SCT005 OVC007 12/11 Q1017
                        TEMPO 4000=
201606040120 METAR COR EGLL 040120Z VRB02KT 5000 HZ SCT004 OVC006 12/11
                        Q1017 TEMPO 4000=
201606040050 METAR COR EGLL 040050Z VRB03KT 4000 HZ SCT005 OVC006 12/11
                        Q1017 NOSIG=
201606040020 METAR COR EGLL 040020Z VRB03KT 3100 HZ FEW003 SCT006 BKN007
                        12/11 Q1017 TEMPO BKN003=
201606032350 METAR COR EGLL 032350Z AUTO VRB03KT 3900 HZ BKN004 12/11
                        Q1017 NOSIG=
201606032320 METAR COR EGLL 032320Z AUTO 35003KT 6000 OVC006 12/11 Q1017
                        TEMPO 4500 BR BKN004=
201606032250 METAR COR EGLL 032250Z AUTO VRB03KT 7000 OVC006 12/11 Q1017
                        NOSIG=
201606032220 METAR COR EGLL 032220Z AUTO 36004KT 330V040 7000 OVC007 12/10
                        Q1017 NOSIG=
201606032150 METAR COR EGLL 032150Z AUTO VRB03KT 9999 OVC009 12/10 Q1017
                        NOSIG=
201606032120 METAR COR EGLL 032120Z AUTO 03004KT 350V060 9999 OVC011 13/10
                        Q1017 TEMPO BKN009=
201606032050 METAR COR EGLL 032050Z AUTO 04005KT 010V070 9999 OVC012 13/10
                        Q1017 TEMPO BKN009=
201606032020 METAR COR EGLL 032020Z AUTO 03004KT 340V060 9999 OVC014 13/10
                        Q1017 NOSIG=
201606031950 METAR COR EGLL 031950Z AUTO 03005KT 340V070 9999 OVC014 13/09
                        Q1017 TEMPO BKN015=
201606031920 METAR COR EGLL 031920Z AUTO 04005KT 9999 OVC016 13/09 Q1017
                        TEMPO BKN014=
201606031850 METAR COR EGLL 031850Z AUTO 04005KT 350V080 9999 OVC016 13/09
                        Q1017 TEMPO BKN014=
201606031820 METAR COR EGLL 031820Z AUTO 01005KT 320V050 9999 OVC016 13/09
                        Q1016 TEMPO BKN014=
201606031750 METAR COR EGLL 031750Z AUTO 04005KT 340V070 9999 OVC018 14/09
                        Q1016 NOSIG=
201606031720 METAR COR EGLL 031720Z AUTO 03006KT 340V060 9999 OVC019 14/09
                        Q1016 NOSIG=
201606031650 METAR COR EGLL 031650Z AUTO 03005KT 340V080 9999 OVC019 14/09
                        Q1017 NOSIG=
201606031620 METAR COR EGLL 031620Z AUTO 03006KT 330V070 9999 BKN020 14/09
                        Q1017 NOSIG=
201606031550 METAR COR EGLL 031550Z AUTO 02005KT 340V060 9999 OVC019 14/09
                        Q1017 NOSIG=
201606031520 METAR COR EGLL 031520Z AUTO 34006KT 310V010 9999 OVC019 14/09
                        Q1017 NOSIG=
201606031450 METAR COR EGLL 031450Z AUTO 35006KT 240V060 9999 BKN018 13/08
                        Q1017 NOSIG=
201606031420 METAR COR EGLL 031420Z AUTO 36006KT 330V030 9999 OVC017 13/08
                        Q1017 NOSIG=
201606031350 METAR COR EGLL 031350Z AUTO 35007KT 320V030 9999 OVC016 13/08
                        Q1017 TEMPO BKN014=
201606031320 METAR COR EGLL 031320Z AUTO 01005KT 320V040 9999 OVC015 12/08
                        Q1017 TEMPO BKN014=
201606031250 METAR COR EGLL 031250Z AUTO 01006KT 330V060 9999 OVC015 12/08
                        Q1017 TEMPO BKN014=
201606031220 METAR COR EGLL 031220Z AUTO 01006KT 330V060 9999 OVC013 12/08
                        Q1018 TEMPO OVC015=
201606031150 METAR COR EGLL 031150Z AUTO 36006KT 330V040 9999 OVC013 12/08
                        Q1018 TEMPO OVC015=
201606031120 METAR COR EGLL 031120Z AUTO 36005KT 310V050 9999 OVC012 12/08
                        Q1018 TEMPO OVC015=
201606031050 METAR COR EGLL 031050Z AUTO 35006KT 310V020 9999 OVC013 11/07
                        Q1018 TEMPO OVC015=
201606031020 METAR COR EGLL 031020Z AUTO 01006KT 330V050 9999 OVC013 11/07
                        Q1018 TEMPO OVC015=
201606030950 METAR COR EGLL 030950Z AUTO 36006KT 330V040 9999 OVC012 11/07
                        Q1018 NOSIG=
201606030920 METAR COR EGLL 030920Z AUTO 36007KT 320V050 9999 OVC011 10/07
                        Q1018 NOSIG=
201606030850 METAR COR EGLL 030850Z AUTO 36007KT 320V040 9999 OVC011 10/07
                        Q1018 NOSIG=
201606030820 METAR COR EGLL 030820Z AUTO 01006KT 340V040 9999 OVC011 10/07
                        Q1018 NOSIG=
201606030750 METAR COR EGLL 030750Z AUTO 02006KT 350V060 9999 OVC010 10/07
                        Q1018 NOSIG=
201606030720 METAR COR EGLL 030720Z AUTO 02006KT 340V060 9999 OVC010 09/07
                        Q1018 NOSIG=
201606030650 METAR COR EGLL 030650Z AUTO 01007KT 340V050 9999 OVC010 09/07
                        Q1018 NOSIG=
201606030620 METAR COR EGLL 030620Z AUTO 03008KT 350V070 9999 OVC010 09/07
                        Q1018 NOSIG=
201606030550 METAR COR EGLL 030550Z AUTO 03007KT 340V070 9999 OVC010 09/07
                        Q1018 NOSIG=
201606030520 METAR COR EGLL 030520Z AUTO 01006KT 330V060 9999 OVC009 09/07
                        Q1018 TEMPO OVC010=
201606030450 METAR COR EGLL 030450Z AUTO 02007KT 340V050 9999 OVC010 09/07
                        Q1018 TEMPO OVC009=
201606030420 METAR COR EGLL 030420Z AUTO 02006KT 340V050 9999 OVC009 09/07
                        Q1018 TEMPO OVC010=
201606030350 METAR COR EGLL 030350Z AUTO 03008KT 340V060 9999 OVC010 09/07
                        Q1018 NOSIG=
201606030320 METAR COR EGLL 030320Z AUTO 02006KT 350V070 9999 OVC010 09/07
                        Q1018 NOSIG=
201606030250 METAR COR EGLL 030250Z AUTO 01007KT 340V060 9999 OVC010 09/07
                        Q1018 NOSIG=
201606030220 METAR COR EGLL 030220Z AUTO 02007KT 340V060 9999 OVC011 09/07
                        Q1018 NOSIG=
201606030150 METAR COR EGLL 030150Z AUTO 03006KT 350V060 9999 BKN011 09/07
                        Q1019 NOSIG=
201606030120 METAR COR EGLL 030120Z AUTO 02007KT 330V070 9999 OVC012 09/07
                        Q1019 NOSIG=
201606030050 METAR COR EGLL 030050Z AUTO 01005KT 340V060 9999 OVC012 10/07
                        Q1019 NOSIG=
201606030020 METAR COR EGLL 030020Z AUTO 02006KT 340V060 9999 OVC012 10/07
                        Q1019 NOSIG=
201606022350 METAR COR EGLL 022350Z 02006KT 330V050 9999 OVC014 10/07
                        Q1019 NOSIG=
201606022320 METAR COR EGLL 022320Z AUTO 02008KT 9999 OVC010 10/07 Q1020
                        NOSIG=
201606022250 METAR COR EGLL 022250Z AUTO 01007KT 340V050 9999 OVC012 10/07
                        Q1020 NOSIG=
201606022220 METAR COR EGLL 022220Z AUTO 02009KT 340V080 9999 OVC013 10/07
                        Q1020 NOSIG=
201606022150 METAR COR EGLL 022150Z AUTO 02009KT 350V050 9999 OVC013 10/07
                        Q1020 NOSIG=
201606022120 METAR COR EGLL 022120Z AUTO 02007KT 330V050 9999 OVC013 10/07
                        Q1020 NOSIG=
201606022050 METAR COR EGLL 022050Z AUTO 03009KT 350V060 9999 OVC013 10/07
                        Q1020 NOSIG=
201606022020 METAR COR EGLL 022020Z AUTO 03009KT 350V060 9999 OVC013 11/07
                        Q1020 NOSIG=
201606021950 METAR COR EGLL 021950Z AUTO 03008KT 350V070 9999 OVC014 11/07
                        Q1020 NOSIG=
201606021920 METAR COR EGLL 021920Z AUTO 03007KT 350V060 9999 OVC013 11/08
                        Q1020 TEMPO BKN015=
201606021850 METAR COR EGLL 021850Z AUTO 03009KT 9999 OVC014 11/08 Q1020
                        TEMPO OVC015=
201606021820 METAR COR EGLL 021820Z AUTO 04011KT 350V070 9999 OVC016 12/08
                        Q1020 NOSIG=
201606021750 METAR COR EGLL 021750Z AUTO 03008KT 350V060 9999 OVC016 12/08
                        Q1020 NOSIG=
201606021720 METAR COR EGLL 021720Z AUTO 03009KT 340V060 9999 OVC015 12/08
                        Q1020 NOSIG=
201606021650 METAR COR EGLL 021650Z AUTO 03009KT 350V080 9999 OVC015 12/08
                        Q1020 NOSIG=
201606021620 METAR COR EGLL 021620Z AUTO 01010KT 340V050 9999 OVC015 13/08
                        Q1020 NOSIG=
201606021550 METAR COR EGLL 021550Z AUTO 03010KT 330V060 9999 OVC016 12/08
                        Q1020 NOSIG=
201606021520 METAR COR EGLL 021520Z 02010KT 350V060 9999 BKN017 13/09
                        Q1020 NOSIG=
201606021450 METAR COR EGLL 021450Z AUTO 02010KT 330V060 9999 OVC015 13/09
                        Q1020 NOSIG=
201606021420 METAR COR EGLL 021420Z AUTO 03009KT 340V050 9999 OVC016 13/09
                        Q1020 NOSIG=
201606021350 METAR COR EGLL 021350Z AUTO 03010KT 350V060 9999 OVC017 14/08
                        Q1020 NOSIG=
201606021320 METAR COR EGLL 021320Z AUTO 01009KT 340V050 9999 OVC017 13/08
                        Q1020 NOSIG=
201606021250 METAR COR EGLL 021250Z AUTO 03011KT 350V060 9999 OVC015 13/08
                        Q1020 NOSIG=
201606021220 METAR COR EGLL 021220Z AUTO 02013KT 350V060 9999 BKN017 14/08
                        Q1021 NOSIG=
201606021150 METAR COR EGLL 021150Z AUTO 03011KT 350V060 9999 OVC016 13/08
                        Q1021 NOSIG=
201606021120 METAR COR EGLL 021120Z AUTO 01009KT 340V050 9999 OVC015 13/08
                        Q1021 NOSIG=
201606021050 METAR COR EGLL 021050Z AUTO 03011G21KT 350V060 9999 OVC015
                        12/08 Q1021 TEMPO BKN014=
201606021020 METAR COR EGLL 021020Z AUTO 01011KT 330V040 9999 OVC014 12/08
                        Q1021 BECMG BKN017=
201606020950 METAR COR EGLL 020950Z AUTO 01011G21KT 340V050 9999 OVC012
                        11/08 Q1021 BECMG BKN016=
201606020920 METAR COR EGLL 020920Z AUTO 01009KT 340V040 9999 OVC012 11/08
                        Q1021 NOSIG=
201606020850 METAR COR EGLL 020850Z AUTO 02011KT 340V070 9999 OVC012 11/08
                        Q1021 NOSIG=
201606020820 METAR COR EGLL 020820Z AUTO 02011KT 9999 OVC012 11/08 Q1021
                        NOSIG=
201606020750 METAR COR EGLL 020750Z AUTO 01011KT 330V070 9999 OVC011 11/08
                        Q1021 NOSIG=
201606020720 METAR COR EGLL 020720Z AUTO 01009KT 340V060 9999 OVC011 11/08
                        Q1021 TEMPO BKN009=
201606020650 METAR COR EGLL 020650Z AUTO 02010KT 340V070 9999 OVC010 10/08
                        Q1021 TEMPO BKN009=
201606020620 METAR COR EGLL 020620Z AUTO 03008G18KT 350V060 9999 OVC011
                        10/08 Q1021 TEMPO BKN009=
201606020550 METAR COR EGLL 020550Z AUTO 02009KT 330V050 9999 OVC010 10/08
                        Q1021 TEMPO OVC009=
201606020520 METAR COR EGLL 020520Z AUTO 01010KT 340V070 9999 OVC010 10/08
                        Q1021 TEMPO OVC009=
201606020450 METAR COR EGLL 020450Z AUTO 01009KT 340V050 9999 OVC009 10/08
                        Q1021 TEMPO SHRA BKN010=
201606020420 METAR COR EGLL 020420Z AUTO 01009KT 340V040 9999 OVC009 10/08
                        Q1021 NOSIG=
201606020350 METAR COR EGLL 020350Z AUTO 02008KT 340V050 9999 OVC007 10/08
                        Q1021 NOSIG=
201606020320 METAR COR EGLL 020320Z AUTO 01009KT 330V040 9999 OVC008 10/09
                        Q1021 NOSIG=
201606020250 METAR COR EGLL 020250Z AUTO 01008KT 9999 OVC008 10/09 Q1021
                        NOSIG=
201606020220 METAR COR EGLL 020220Z AUTO 01008KT 340V050 9999 OVC008 10/09
                        Q1021 NOSIG=
201606020150 METAR EGLL 020150Z AUTO 01008KT 330V040 9999 OVC007 11/09
                        Q1022 RETS=
201606020120 METAR EGLL 020120Z AUTO 02007KT 340V050 9999 TS OVC008///
                        //////CB 11/09 Q1022=
201606020050 METAR COR EGLL 020050Z AUTO 01011KT 320V060 9999 OVC007 11/09
                        Q1022 NOSIG=
201606020020 METAR COR EGLL 020020Z AUTO 36009KT 330V050 9999 OVC007 11/09
                        Q1022 NOSIG=
201606012350 METAR COR EGLL 012350Z AUTO 01008KT 330V050 9999 OVC007 11/10
                        Q1022 NOSIG=
201606012320 METAR COR EGLL 012320Z AUTO 02009KT 350V060 9999 OVC006 11/10
                        Q1022 NOSIG=
201606012250 METAR COR EGLL 012250Z AUTO 02007KT 340V070 9999 OVC006 11/10
                        Q1022 NOSIG=
201606012220 METAR COR EGLL 012220Z AUTO 02010KT 340V050 9999 OVC006 12/10
                        Q1022 NOSIG=
201606012150 METAR COR EGLL 012150Z AUTO 01011KT 330V050 9999 OVC007 12/10
                        Q1022 NOSIG=
201606012120 METAR COR EGLL 012120Z AUTO 01008KT 340V050 9999 OVC007 12/10
                        Q1022 NOSIG=
201606012050 METAR COR EGLL 012050Z AUTO 01008KT 330V050 9999 OVC007 12/10
                        Q1022 NOSIG=
201606012020 METAR COR EGLL 012020Z AUTO 02011KT 340V070 9999 OVC006 12/11
                        Q1022 NOSIG=
201606011950 METAR COR EGLL 011950Z AUTO 01008KT 280V040 9999 OVC007 13/11
                        Q1022 NOSIG=
201606011920 METAR COR EGLL 011920Z AUTO 01008KT 340V040 9999 OVC007 13/11
                        Q1022 NOSIG=
201606011850 METAR COR EGLL 011850Z AUTO 01009G19KT 330V050 9999 OVC007
                        13/11 Q1022 NOSIG=
201606011820 METAR COR EGLL 011820Z AUTO 01010KT 320V050 9999 OVC006 13/11
                        Q1021 NOSIG=
201606011750 METAR COR EGLL 011750Z AUTO 36008KT 320V020 9000 BKN006 13/11
                        Q1022 NOSIG=
201606011720 METAR COR EGLL 011720Z AUTO 01008KT 320V050 9999 OVC007 13/11
                        Q1022 TEMPO BKN010=
201606011650 METAR COR EGLL 011650Z AUTO 36009KT 320V040 9999 OVC007 13/11
                        Q1022 TEMPO BKN010=
201606011620 METAR COR EGLL 011620Z AUTO 36009KT 330V040 9999 OVC010 13/11
                        Q1022 TEMPO BKN009=
201606011550 METAR COR EGLL 011550Z AUTO 02010KT 330V050 9999 OVC011 14/11
                        Q1022 TEMPO BKN009=
201606011520 METAR COR EGLL 011520Z AUTO 01010KT 340V060 9999 OVC010 14/11
                        Q1022 TEMPO BKN009=
201606011450 METAR COR EGLL 011450Z AUTO 01007KT 340V040 9999 OVC009 13/11
                        Q1022 NOSIG=
201606011420 METAR COR EGLL 011420Z AUTO 01008KT 320V050 9999 OVC008 13/11
                        Q1022 TEMPO BKN011=
201606011350 METAR COR EGLL 011350Z AUTO 01008KT 330V060 9999 OVC008///
                        //////CB 13/11 Q1022 TEMPO BKN011=
201606011320 METAR COR EGLL 011320Z AUTO 01010KT 330V040 9999 OVC008///
                        //////CB 13/11 Q1022 TEMPO BKN011=
201606011250 METAR EGLL 011250Z AUTO 01009KT 340V040 9999 OVC008/// //////TCU
                        13/11 Q1022=
201606011220 METAR EGLL 011220Z AUTO 01008KT 330V050 9999 OVC010/// //////CB
                        14/11 Q1022=
201606011150 METAR EGLL 011150Z AUTO 01008KT 310V060 9999 OVC008/// //////TCU
                        13/11 Q1022=
201606011120 METAR EGLL 011120Z AUTO 01008KT 340V060 9999 OVC008/// //////CB
                        13/11 Q1021=
201606011050 METAR COR EGLL 011050Z AUTO 01011KT 340V040 9999 OVC009///
                        //////TCU 13/11 Q1021 TEMPO BKN011=
201606011020 METAR COR EGLL 011020Z AUTO 36010KT 320V030 9999 OVC009 13/11
                        Q1021 TEMPO BKN011=
201606010950 METAR COR EGLL 010950Z AUTO 36010KT 9999 OVC009 13/11 Q1022
                        TEMPO BKN011=
201606010920 METAR COR EGLL 010920Z AUTO 01009KT 330V050 9999 OVC009 13/11
                        Q1022 TEMPO BKN011=
201606010850 METAR COR EGLL 010850Z AUTO 36010KT 330V030 9999 OVC008 13/11
                        Q1022 TEMPO BKN012=
201606010820 METAR COR EGLL 010820Z AUTO 36009KT 9999 OVC008 13/11 Q1022
                        TEMPO BKN012=
201606010750 METAR COR EGLL 010750Z AUTO 01008KT 340V050 9999 OVC008 12/11
                        Q1022 TEMPO BKN011=
201606010720 METAR COR EGLL 010720Z AUTO 01007KT 330V060 9999 OVC008 13/11
                        Q1021 TEMPO BKN011=
201606010650 METAR COR EGLL 010650Z AUTO 01006KT 330V060 9999 OVC008 13/11
                        Q1021 TEMPO BKN011=
201606010620 METAR COR EGLL 010620Z AUTO 36007KT 320V040 9999 OVC008 13/11
                        Q1021 TEMPO BKN011=
201606010550 METAR COR EGLL 010550Z AUTO 01007KT 320V040 9999 OVC007 13/11
                        Q1021 NOSIG=
201606010520 METAR COR EGLL 010520Z AUTO 01007KT 350V050 9999 OVC008 13/11
                        Q1020 NOSIG=
201606010450 METAR COR EGLL 010450Z AUTO 01007KT 330V050 9999 OVC006 13/11
                        Q1020 NOSIG=
201606010420 METAR COR EGLL 010420Z AUTO 01008KT 340V050 9999 OVC007 13/11
                        Q1020 NOSIG=
201606010350 METAR COR EGLL 010350Z AUTO 01006KT 320V070 9999 OVC007 13/11
                        Q1020 NOSIG=
201606010320 METAR COR EGLL 010320Z AUTO 02007G17KT 330V060 9999 OVC008
                        13/11 Q1020 NOSIG=
201606010250 METAR COR EGLL 010250Z AUTO 01007KT 340V050 9999 OVC008 12/11
                        Q1019 NOSIG=
201606010220 METAR COR EGLL 010220Z AUTO 02007KT 340V060 9999 OVC008 12/11
                        Q1019 NOSIG=
201606010150 METAR COR EGLL 010150Z AUTO 01010KT 330V040 9999 OVC008 13/11
                        Q1019 NOSIG=
201606010120 METAR COR EGLL 010120Z AUTO 01008KT 340V040 9999 OVC008 12/11
                        Q1019 NOSIG=
201606010050 METAR COR EGLL 010050Z AUTO 01008KT 330V040 9999 OVC008 12/11
                        Q1020 NOSIG=
201606010020 METAR COR EGLL 010020Z AUTO 01007KT 330V040 9999 OVC007 12/11
                        Q1020 NOSIG=

</pre>

</body>
</html>
