##########################################################
# Query made at 01/13/2020 11:53:49 UTC
# Time interval: from 06/01/2015 00:00  to 07/01/2015 23:59  UTC
##########################################################

##########################################################
# EGLL, London / Heathrow Airport (United Kingdom)
# WMO index: 03772
# Latitude 51-29N. Longitude 000-27W. Altitude 24 m.
##########################################################

###################################
#  METAR/SPECI from EGLL
###################################
201507012350 METAR EGLL 012350Z 22008KT CAVOK 21/15 Q1014 NOSIG=
201507012320 METAR COR EGLL 012320Z 22008KT CAVOK 22/15 Q1014 NOSIG=
201507012250 METAR COR EGLL 012250Z 22008KT CAVOK 23/16 Q1014 NOSIG=
201507012220 METAR COR EGLL 012220Z 23011KT CAVOK 24/16 Q1013 NOSIG=
201507012150 METAR EGLL 012150Z 21011KT CAVOK 25/17 Q1013 NOSIG=
201507012120 METAR COR EGLL 012120Z 23013KT CAVOK 26/17 Q1013 NOSIG=
201507012050 METAR EGLL 012050Z 23013KT CAVOK 27/17 Q1012 NOSIG=
201507012020 METAR COR EGLL 012020Z 22010KT CAVOK 28/16 Q1012 NOSIG=
201507011950 METAR EGLL 011950Z 23010KT CAVOK 29/16 Q1011 NOSIG=
201507011920 METAR COR EGLL 011920Z 23013KT CAVOK 30/14 Q1011 NOSIG=
201507011850 METAR EGLL 011850Z 21011KT 170V240 CAVOK 31/13 Q1010 NOSIG=
201507011820 METAR COR EGLL 011820Z 20011KT CAVOK 31/13 Q1010 NOSIG=
201507011750 METAR EGLL 011750Z 17011KT CAVOK 33/12 Q1010 NOSIG=
201507011720 METAR COR EGLL 011720Z 16014KT CAVOK 34/11 Q1010 NOSIG=
201507011650 METAR EGLL 011650Z 16014KT CAVOK 34/13 Q1010 NOSIG=
201507011620 METAR COR EGLL 011620Z 17013KT CAVOK 34/13 Q1010 NOSIG=
201507011550 METAR EGLL 011550Z 16011KT CAVOK 35/13 Q1010 NOSIG=
201507011520 METAR COR EGLL 011520Z 18014KT CAVOK 34/13 Q1010 NOSIG=
201507011450 METAR EGLL 011450Z 15014KT CAVOK 34/13 Q1010 NOSIG=
201507011420 METAR COR EGLL 011420Z 17014KT CAVOK 35/11 Q1010 NOSIG=
201507011350 METAR EGLL 011350Z 15013KT CAVOK 35/11 Q1010 NOSIG=
201507011320 METAR COR EGLL 011320Z 16011KT 130V200 CAVOK 35/12 Q1010
                        NOSIG=
201507011250 METAR EGLL 011250Z 12012KT CAVOK 33/14 Q1011 NOSIG=
201507011220 METAR COR EGLL 011220Z 15013KT CAVOK 31/14 Q1011 NOSIG=
201507011150 METAR COR EGLL 011150Z 15010KT CAVOK 30/14 Q1011 NOSIG=
201507011120 METAR COR EGLL 011120Z 16010KT CAVOK 30/14 Q1011 NOSIG=
201507011050 METAR EGLL 011050Z 17015KT CAVOK 32/12 Q1011 NOSIG=
201507011020 METAR COR EGLL 011020Z 15016KT CAVOK 34/13 Q1011 NOSIG=
201507010950 METAR EGLL 010950Z 15013KT 120V180 CAVOK 33/13 Q1011 NOSIG=
201507010920 METAR COR EGLL 010920Z 15011KT 120V180 CAVOK 32/12 Q1011
                        NOSIG=
201507010850 METAR EGLL 010850Z 12011KT CAVOK 32/12 Q1011 NOSIG=
201507010820 METAR COR EGLL 010820Z 12010KT CAVOK 31/12 Q1011 NOSIG=
201507010750 METAR EGLL 010750Z 11005KT CAVOK 29/12 Q1012 NOSIG=
201507010720 METAR COR EGLL 010720Z 11008KT CAVOK 27/13 Q1012 NOSIG=
201507010650 METAR EGLL 010650Z 09008KT CAVOK 26/13 Q1012 NOSIG=
201507010620 METAR EGLL 010620Z 08006KT CAVOK 24/13 Q1012=
201507010550 METAR EGLL 010550Z 07005KT CAVOK 23/13 Q1012 NOSIG=
201507010520 METAR COR EGLL 010520Z 08006KT CAVOK 22/13 Q1013 NOSIG=
201507010450 METAR EGLL 010450Z 07005KT 9999 FEW032 21/13 Q1013 NOSIG=
201507010420 METAR COR EGLL 010420Z VRB03KT CAVOK 21/13 Q1013 NOSIG=
201507010350 METAR COR EGLL 010350Z 06005KT CAVOK 21/13 Q1013 NOSIG=
201507010320 METAR COR EGLL 010320Z 06004KT 020V080 CAVOK 20/13 Q1013
                        NOSIG=
201507010250 METAR EGLL 010250Z 03003KT CAVOK 21/13 Q1013 NOSIG=
201507010220 METAR COR EGLL 010220Z VRB02KT CAVOK 21/13 Q1013 NOSIG=
201507010150 METAR COR EGLL 010150Z 08010KT CAVOK 21/13 Q1013 NOSIG=
201507010120 METAR EGLL 010120Z AUTO VRB03KT 9999 NCD 21/13 Q1014=
201507010050 METAR EGLL 010050Z AUTO 09006KT 9999 NCD 21/12 Q1014=
201507010020 METAR EGLL 010020Z AUTO VRB06KT 9999 NCD 21/13 Q1013=
201506302350 METAR COR EGLL 302350Z 08006KT 050V130 CAVOK 21/12 Q1014
                        NOSIG=
201506302320 METAR COR EGLL 302320Z 09008KT CAVOK 21/12 Q1014 NOSIG=
201506302250 METAR EGLL 302250Z 08012KT CAVOK 21/12 Q1014 TEMPO TS=
201506302220 METAR COR EGLL 302220Z 10011KT CAVOK 22/12 Q1015 TEMPO TS=
201506302150 METAR COR EGLL 302150Z 10009KT 9999 -RA NSC 22/12 Q1016 TEMPO
                        TSRA=
201506302120 METAR COR EGLL 302120Z 09010KT CAVOK 23/12 Q1016 TEMPO TS=
201506302050 METAR EGLL 302050Z 09010KT CAVOK 23/13 Q1016 TEMPO TS=
201506302020 METAR COR EGLL 302020Z 09008KT CAVOK 24/13 Q1016 TEMPO TS=
201506301950 METAR COR EGLL 301950Z 09009KT CAVOK 25/14 Q1016 TEMPO TS=
201506301920 METAR COR EGLL 301920Z 11009KT CAVOK 27/09 Q1015 NOSIG=
201506301850 METAR EGLL 301850Z 13009KT CAVOK 28/08 Q1015 NOSIG=
201506301820 METAR COR EGLL 301820Z 13009KT 100V170 CAVOK 28/08 Q1015
                        NOSIG=
201506301750 METAR EGLL 301750Z 12010KT CAVOK 29/10 Q1016 NOSIG=
201506301720 METAR COR EGLL 301720Z 15010KT CAVOK 29/09 Q1016 NOSIG=
201506301650 METAR EGLL 301650Z 14011KT CAVOK 29/09 Q1016 NOSIG=
201506301620 METAR COR EGLL 301620Z 14011KT CAVOK 29/10 Q1016 NOSIG=
201506301550 METAR EGLL 301550Z 15008KT 110V180 CAVOK 30/10 Q1016 NOSIG=
201506301520 METAR COR EGLL 301520Z 16011KT 120V200 CAVOK 29/09 Q1017
                        NOSIG=
201506301450 METAR COR EGLL 301450Z 14008KT 080V180 CAVOK 30/08 Q1017
                        NOSIG=
201506301420 METAR COR EGLL 301420Z 17010KT 130V200 CAVOK 30/08 Q1017
                        NOSIG=
201506301350 METAR EGLL 301350Z 15009KT 120V190 CAVOK 29/08 Q1017 NOSIG=
201506301320 METAR COR EGLL 301320Z 16010KT CAVOK 29/06 Q1018 NOSIG=
201506301250 METAR COR EGLL 301250Z 17008KT 110V210 CAVOK 29/03 Q1018
                        NOSIG=
201506301220 METAR COR EGLL 301220Z 16007KT 100V200 CAVOK 28/03 Q1018
                        NOSIG=
201506301150 METAR EGLL 301150Z 15007KT 080V210 CAVOK 28/05 Q1019 NOSIG=
201506301120 METAR COR EGLL 301120Z VRB06KT CAVOK 27/07 Q1019 NOSIG=
201506301050 METAR EGLL 301050Z 18008KT 140V200 CAVOK 26/06 Q1019 NOSIG=
201506301020 METAR COR EGLL 301020Z 17007KT 110V200 CAVOK 25/05 Q1019
                        NOSIG=
201506300950 METAR EGLL 300950Z 15006KT 110V220 CAVOK 25/06 Q1019 NOSIG=
201506300920 METAR COR EGLL 300920Z 15006KT 070V210 CAVOK 24/07 Q1020
                        NOSIG=
201506300850 METAR COR EGLL 300850Z 15004KT 110V220 CAVOK 23/07 Q1020
                        NOSIG=
201506300820 METAR COR EGLL 300820Z 14007KT CAVOK 22/09 Q1020 NOSIG=
201506300750 METAR EGLL 300750Z 15005KT 110V190 CAVOK 20/08 Q1020 NOSIG=
201506300720 METAR COR EGLL 300720Z VRB03KT CAVOK 20/09 Q1020 NOSIG=
201506300650 METAR EGLL 300650Z VRB02KT CAVOK 19/11 Q1021 NOSIG=
201506300620 METAR COR EGLL 300620Z VRB02KT CAVOK 17/11 Q1021 NOSIG=
201506300550 METAR EGLL 300550Z VRB02KT CAVOK 16/12 Q1021 NOSIG=
201506300520 METAR COR EGLL 300520Z VRB03KT CAVOK 15/12 Q1021 NOSIG=
201506300450 METAR EGLL 300450Z 18003KT CAVOK 14/11 Q1021 NOSIG=
201506300420 METAR COR EGLL 300420Z 18004KT 130V250 CAVOK 14/11 Q1021
                        NOSIG=
201506300350 METAR COR EGLL 300350Z VRB03KT CAVOK 14/11 Q1021 NOSIG=
201506300320 METAR COR EGLL 300320Z 18004KT CAVOK 14/11 Q1021 NOSIG=
201506300250 METAR COR EGLL 300250Z 21003KT CAVOK 14/11 Q1021 NOSIG=
201506300220 METAR COR EGLL 300220Z 24003KT CAVOK 15/11 Q1021 NOSIG=
201506300150 METAR EGLL 300150Z 23003KT CAVOK 15/11 Q1021 NOSIG=
201506300120 METAR EGLL 300120Z AUTO 22004KT 9999 NCD 16/11 Q1021=
201506300050 METAR EGLL 300050Z AUTO 22004KT 9999 NCD 16/10 Q1021=
201506300020 METAR EGLL 300020Z AUTO 21003KT 9999 NCD 17/10 Q1022=
201506292350 METAR COR EGLL 292350Z 22003KT CAVOK 17/10 Q1022 NOSIG=
201506292320 METAR COR EGLL 292320Z 23004KT CAVOK 18/10 Q1022 NOSIG=
201506292250 METAR EGLL 292250Z 22005KT CAVOK 18/10 Q1022 NOSIG=
201506292220 METAR COR EGLL 292220Z 21006KT CAVOK 18/11 Q1022 NOSIG=
201506292150 METAR EGLL 292150Z 22007KT 190V260 CAVOK 19/11 Q1022 NOSIG=
201506292120 METAR COR EGLL 292120Z 21008KT 180V250 CAVOK 19/11 Q1022
                        NOSIG=
201506292050 METAR COR EGLL 292050Z 20008KT 160V260 CAVOK 20/11 Q1022
                        NOSIG=
201506292020 METAR COR EGLL 292020Z 22009G20KT 180V250 CAVOK 21/11 Q1021
                        NOSIG=
201506291950 METAR EGLL 291950Z 20010KT 170V240 CAVOK 22/10 Q1021 NOSIG=
201506291920 METAR COR EGLL 291920Z 24009KT CAVOK 24/11 Q1021 NOSIG=
201506291850 METAR EGLL 291850Z 23008KT 210V270 CAVOK 24/11 Q1021 NOSIG=
201506291820 METAR COR EGLL 291820Z 24008KT CAVOK 24/10 Q1021 NOSIG=
201506291750 METAR EGLL 291750Z 27006KT 220V340 CAVOK 25/10 Q1021 NOSIG=
201506291720 METAR COR EGLL 291720Z 27007KT 240V310 CAVOK 25/10 Q1021
                        NOSIG=
201506291650 METAR EGLL 291650Z 27008KT 210V290 CAVOK 25/09 Q1021 NOSIG=
201506291620 METAR COR EGLL 291620Z 24007KT 180V270 CAVOK 25/09 Q1021
                        NOSIG=
201506291550 METAR COR EGLL 291550Z 29005KT 250V040 CAVOK 24/09 Q1021
                        NOSIG=
201506291520 METAR COR EGLL 291520Z 29006KT 240V050 CAVOK 25/09 Q1022
                        NOSIG=
201506291450 METAR EGLL 291450Z 27009KT 230V310 CAVOK 25/08 Q1022 NOSIG=
201506291420 METAR COR EGLL 291420Z 25010KT 200V280 CAVOK 24/08 Q1022
                        NOSIG=
201506291350 METAR COR EGLL 291350Z 23008KT 180V290 CAVOK 24/09 Q1022
                        NOSIG=
201506291320 METAR COR EGLL 291320Z 26006KT 210V340 CAVOK 23/09 Q1022
                        NOSIG=
201506291250 METAR EGLL 291250Z 23010KT 200V260 CAVOK 23/08 Q1022 NOSIG=
201506291220 METAR COR EGLL 291220Z 24009KT 200V290 CAVOK 23/09 Q1022
                        NOSIG=
201506291150 METAR EGLL 291150Z 23009KT 190V280 9999 FEW040 22/09 Q1022
                        NOSIG=
201506291120 METAR COR EGLL 291120Z 25008KT 210V290 CAVOK 22/09 Q1022
                        NOSIG=
201506291050 METAR EGLL 291050Z 25006KT 200V300 9999 FEW044 21/09 Q1022
                        NOSIG=
201506291020 METAR COR EGLL 291020Z VRB07KT 9999 FEW044 21/09 Q1022 NOSIG=
201506290950 METAR EGLL 290950Z 23007KT 150V270 9999 FEW036 21/09 Q1022
                        NOSIG=
201506290920 METAR COR EGLL 290920Z VRB06KT 9999 FEW040 20/10 Q1023 NOSIG=
201506290850 METAR EGLL 290850Z 26006KT 220V310 9999 FEW036 19/10 Q1023
                        NOSIG=
201506290820 METAR COR EGLL 290820Z 25006KT 220V300 CAVOK 18/11 Q1022
                        NOSIG=
201506290750 METAR EGLL 290750Z VRB04KT CAVOK 18/11 Q1022 NOSIG=
201506290720 METAR COR EGLL 290720Z VRB03KT CAVOK 17/11 Q1022 NOSIG=
201506290650 METAR EGLL 290650Z VRB03KT CAVOK 17/11 Q1022 NOSIG=
201506290620 METAR COR EGLL 290620Z VRB02KT CAVOK 16/11 Q1022 NOSIG=
201506290550 METAR EGLL 290550Z VRB03KT CAVOK 15/11 Q1022 NOSIG=
201506290520 METAR COR EGLL 290520Z VRB03KT CAVOK 15/11 Q1022 NOSIG=
201506290450 METAR EGLL 290450Z 27003KT CAVOK 14/11 Q1022 NOSIG=
201506290420 METAR COR EGLL 290420Z 27004KT CAVOK 14/11 Q1021 NOSIG=
201506290350 METAR EGLL 290350Z 27006KT CAVOK 14/11 Q1021 NOSIG=
201506290320 METAR COR EGLL 290320Z 27004KT CAVOK 14/11 Q1021 NOSIG=
201506290250 METAR EGLL 290250Z 27004KT CAVOK 14/11 Q1021 NOSIG=
201506290220 METAR COR EGLL 290220Z 26005KT CAVOK 14/11 Q1021 NOSIG=
201506290150 METAR EGLL 290150Z 27008KT CAVOK 14/11 Q1021 NOSIG=
201506290120 METAR EGLL 290120Z AUTO 27006KT 9999 NCD 14/11 Q1021=
201506290050 METAR EGLL 290050Z AUTO 28008KT 9999 NCD 14/10 Q1021=
201506290020 METAR EGLL 290020Z AUTO 28007KT 9999 NCD 14/10 Q1021=
201506282350 METAR COR EGLL 282350Z 28007KT CAVOK 14/10 Q1021 NOSIG=
201506282320 METAR COR EGLL 282320Z 28007KT CAVOK 14/10 Q1021 NOSIG=
201506282250 METAR EGLL 282250Z 28006KT CAVOK 15/11 Q1021 NOSIG=
201506282220 METAR COR EGLL 282220Z 27006KT CAVOK 16/13 Q1020 NOSIG=
201506282150 METAR COR EGLL 282150Z 25010KT CAVOK 17/14 Q1020 NOSIG=
201506282120 METAR COR EGLL 282120Z 24009KT 9999 FEW020 17/14 Q1020 NOSIG=
201506282050 METAR COR EGLL 282050Z 23010KT 9999 FEW020 18/14 Q1019 NOSIG=
201506282020 METAR COR EGLL 282020Z 23009KT 9999 FEW020 19/14 Q1019 NOSIG=
201506281950 METAR COR EGLL 281950Z 23011KT 9999 FEW024 19/14 Q1019 NOSIG=
201506281920 METAR COR EGLL 281920Z 24009KT 200V270 9999 FEW024 20/14
                        Q1019 NOSIG=
201506281850 METAR COR EGLL 281850Z 22010KT 9999 FEW024 20/13 Q1018 NOSIG=
201506281820 METAR COR EGLL 281820Z 24010KT 200V260 9999 SCT025 20/14
                        Q1019 NOSIG=
201506281750 METAR EGLL 281750Z 23011KT 200V260 9999 FEW021 SCT025 20/14
                        Q1018 NOSIG=
201506281720 METAR COR EGLL 281720Z 23011KT 9999 SCT027 20/14 Q1019 NOSIG=
201506281650 METAR COR EGLL 281650Z 25010KT 9999 SCT027 SCT031 20/13 Q1019
                        NOSIG=
201506281620 METAR COR EGLL 281620Z 24010KT 9999 SCT026 SCT030 20/13 Q1018
                        NOSIG=
201506281550 METAR COR EGLL 281550Z 23011KT 9999 SCT027 SCT031 20/13 Q1018
                        NOSIG=
201506281520 METAR COR EGLL 281520Z 25010KT 9999 SCT028 20/12 Q1019 NOSIG=
201506281450 METAR COR EGLL 281450Z 24011KT 9999 SCT029 20/12 Q1019 NOSIG=
201506281420 METAR COR EGLL 281420Z 22012KT 9999 FEW035 SCT041 20/12 Q1019
                        NOSIG=
201506281350 METAR COR EGLL 281350Z 23011KT 180V260 9999 FEW024 SCT034
                        19/12 Q1019 NOSIG=
201506281320 METAR COR EGLL 281320Z 22008KT 180V260 9999 SCT044 18/12
                        Q1019 NOSIG=
201506281250 METAR EGLL 281250Z 24008KT 9999 SCT043 17/13 Q1019 NOSIG=
201506281220 METAR COR EGLL 281220Z 22010KT 180V240 9999 -SHRA FEW028
                        16/13 Q1020 NOSIG=
201506281150 METAR EGLL 281150Z 25010KT 9999 -SHRA FEW030 18/13 Q1019
                        TEMPO 9000 SHRA=
201506281120 METAR COR EGLL 281120Z 24010KT 9999 -SHRA FEW023 18/13 Q1019
                        TEMPO 7000 SHRA=
201506281050 METAR COR EGLL 281050Z 24013KT 9999 -SHRA FEW023 19/12 Q1019
                        TEMPO 9000 SHRA=
201506281020 METAR COR EGLL 281020Z 22010KT 190V250 9999 FEW048 19/11
                        Q1019 NOSIG=
201506280950 METAR COR EGLL 280950Z 23012KT 200V270 9999 FEW045 19/10
                        Q1019 NOSIG=
201506280920 METAR COR EGLL 280920Z 21012KT 190V250 9999 FEW041 20/11
                        Q1019 NOSIG=
201506280850 METAR COR EGLL 280850Z 21011KT 180V250 9999 FEW042 19/11
                        Q1019 NOSIG=
201506280820 METAR COR EGLL 280820Z 21011KT 170V240 CAVOK 19/10 Q1019
                        NOSIG=
201506280750 METAR COR EGLL 280750Z 23011KT 9999 FEW028 18/11 Q1019 NOSIG=
201506280720 METAR COR EGLL 280720Z 21009KT 170V250 9999 FEW028 18/11
                        Q1019 NOSIG=
201506280650 METAR EGLL 280650Z 20008KT CAVOK 17/12 Q1019 NOSIG=
201506280620 METAR COR EGLL 280620Z 20008KT 170V230 CAVOK 16/12 Q1019
                        NOSIG=
201506280550 METAR EGLL 280550Z 20008KT 170V260 CAVOK 16/12 Q1020 NOSIG=
201506280520 METAR COR EGLL 280520Z 20006KT 170V340 CAVOK 16/11 Q1020
                        NOSIG=
201506280450 METAR COR EGLL 280450Z 20006KT CAVOK 16/11 Q1020 NOSIG=
201506280420 METAR COR EGLL 280420Z 20006KT CAVOK 15/11 Q1020 NOSIG=
201506280350 METAR COR EGLL 280350Z 21006KT CAVOK 16/11 Q1020 NOSIG=
201506280320 METAR COR EGLL 280320Z 19006KT 9999 -RA NSC 16/11 Q1020 NOSIG=
201506280250 METAR EGLL 280250Z 19006KT CAVOK 16/11 Q1020 NOSIG=
201506280220 METAR COR EGLL 280220Z 21005KT CAVOK 16/11 Q1020 NOSIG=
201506280150 METAR EGLL 280150Z 22005KT CAVOK 17/11 Q1020 NOSIG=
201506280120 METAR COR EGLL 280120Z 21005KT CAVOK 17/12 Q1020 NOSIG=
201506280050 METAR COR EGLL 280050Z 21006KT CAVOK 16/13 Q1020 NOSIG=
201506280020 METAR COR EGLL 280020Z 19005KT CAVOK 17/13 Q1020 NOSIG=
201506272350 METAR EGLL 272350Z 20005KT CAVOK 17/13 Q1021 NOSIG=
201506272320 METAR COR EGLL 272320Z 23005KT 190V250 CAVOK 17/12 Q1021
                        NOSIG=
201506272250 METAR EGLL 272250Z 23006KT CAVOK 18/12 Q1021 NOSIG=
201506272220 METAR COR EGLL 272220Z 24007KT CAVOK 18/12 Q1021 NOSIG=
201506272150 METAR EGLL 272150Z 24008KT CAVOK 19/12 Q1021 NOSIG=
201506272120 METAR COR EGLL 272120Z 24008KT CAVOK 20/12 Q1021 NOSIG=
201506272050 METAR EGLL 272050Z 24010KT CAVOK 20/12 Q1021 NOSIG=
201506272020 METAR COR EGLL 272020Z 26009KT CAVOK 21/10 Q1021 NOSIG=
201506271950 METAR EGLL 271950Z 27008KT CAVOK 21/09 Q1020 NOSIG=
201506271920 METAR COR EGLL 271920Z 26008KT CAVOK 22/09 Q1020 NOSIG=
201506271850 METAR EGLL 271850Z 28008KT CAVOK 22/08 Q1020 NOSIG=
201506271820 METAR COR EGLL 271820Z 28009KT CAVOK 23/08 Q1020 NOSIG=
201506271750 METAR EGLL 271750Z 25007KT 210V280 CAVOK 23/08 Q1020 NOSIG=
201506271720 METAR COR EGLL 271720Z 28008KT 240V320 CAVOK 23/09 Q1020
                        NOSIG=
201506271650 METAR EGLL 271650Z 29009KT CAVOK 23/08 Q1020 NOSIG=
201506271620 METAR COR EGLL 271620Z 26009KT 220V320 CAVOK 23/08 Q1020
                        NOSIG=
201506271550 METAR EGLL 271550Z 29008KT 240V330 CAVOK 23/07 Q1020 NOSIG=
201506271520 METAR COR EGLL 271520Z 28009KT 240V320 CAVOK 24/06 Q1020
                        NOSIG=
201506271450 METAR EGLL 271450Z 28009KT 260V320 CAVOK 23/06 Q1020 NOSIG=
201506271420 METAR COR EGLL 271420Z 28010KT 250V320 CAVOK 24/06 Q1020
                        NOSIG=
201506271350 METAR COR EGLL 271350Z 26011KT 230V290 CAVOK 24/06 Q1020
                        NOSIG=
201506271320 METAR COR EGLL 271320Z 30007KT 270V020 CAVOK 24/06 Q1020
                        NOSIG=
201506271250 METAR EGLL 271250Z 28010KT 250V320 CAVOK 23/08 Q1020 NOSIG=
201506271220 METAR COR EGLL 271220Z 27011KT 9999 FEW046 23/08 Q1020 NOSIG=
201506271150 METAR EGLL 271150Z 26010KT 230V330 9999 FEW040 21/09 Q1020
                        NOSIG=
201506271120 METAR COR EGLL 271120Z 30007KT 250V020 9999 SCT040 22/10
                        Q1020 NOSIG=
201506271050 METAR COR EGLL 271050Z 29009KT 9999 SCT036 21/10 Q1020 NOSIG=
201506271020 METAR COR EGLL 271020Z 27007KT 230V330 9999 SCT033 21/10
                        Q1020 NOSIG=
201506270950 METAR COR EGLL 270950Z 30009KT 270V330 9999 SCT029 20/11
                        Q1020 NOSIG=
201506270920 METAR COR EGLL 270920Z 30008KT 270V330 9999 SCT027 19/11
                        Q1019 NOSIG=
201506270850 METAR EGLL 270850Z AUTO 28009KT 260V320 9999 BKN026 18/11
                        Q1019=
201506270820 METAR COR EGLL 270820Z 30009KT 9999 SCT027 18/11 Q1019 NOSIG=
201506270750 METAR EGLL 270750Z 28010KT 260V340 9999 FEW025 17/10 Q1019
                        NOSIG=
201506270720 METAR COR EGLL 270720Z 28009KT 9999 FEW018 16/11 Q1019 NOSIG=
201506270650 METAR EGLL 270650Z 28009KT 9999 FEW018 16/11 Q1019 NOSIG=
201506270620 METAR COR EGLL 270620Z 27009KT 9999 FEW016 15/11 Q1019 NOSIG=
201506270550 METAR EGLL 270550Z 26008KT CAVOK 14/11 Q1019 NOSIG=
201506270520 METAR COR EGLL 270520Z 26007KT CAVOK 13/10 Q1018 NOSIG=
201506270450 METAR EGLL 270450Z 27008KT CAVOK 12/10 Q1018 NOSIG=
201506270420 METAR COR EGLL 270420Z 27009KT CAVOK 12/10 Q1018 NOSIG=
201506270350 METAR EGLL 270350Z 26006KT CAVOK 12/10 Q1018 NOSIG=
201506270320 METAR COR EGLL 270320Z 27008KT CAVOK 13/10 Q1018 NOSIG=
201506270250 METAR EGLL 270250Z 26008KT CAVOK 13/11 Q1017 NOSIG=
201506270220 METAR COR EGLL 270220Z 26008KT CAVOK 12/10 Q1017 NOSIG=
201506270150 METAR EGLL 270150Z 27009KT CAVOK 13/10 Q1017 NOSIG=
201506270120 METAR EGLL 270120Z 27008KT CAVOK 13/11 Q1017=
201506270050 METAR COR EGLL 270050Z 27011KT CAVOK 14/11 Q1017 NOSIG=
201506270020 METAR COR EGLL 270020Z 27009KT CAVOK 14/11 Q1017 NOSIG=
201506262350 METAR EGLL 262350Z 27012KT CAVOK 15/11 Q1017 NOSIG=
201506262320 METAR COR EGLL 262320Z 27011KT CAVOK 16/11 Q1016 NOSIG=
201506262250 METAR EGLL 262250Z 27012KT CAVOK 17/11 Q1016 NOSIG=
201506262220 METAR COR EGLL 262220Z 26011KT CAVOK 18/13 Q1016 NOSIG=
201506262150 METAR EGLL 262150Z 26011KT CAVOK 18/14 Q1016 NOSIG=
201506262120 METAR COR EGLL 262120Z 24011KT 9999 FEW049 19/14 Q1016 NOSIG=
201506262050 METAR EGLL 262050Z 25012KT 9999 SCT048 19/14 Q1016 NOSIG=
201506262020 METAR COR EGLL 262020Z 25012KT 9999 FEW026 SCT029 20/14 Q1016
                        NOSIG=
201506261950 METAR COR EGLL 261950Z 26011KT 9999 BKN026 20/14 Q1015 NOSIG=
201506261920 METAR COR EGLL 261920Z 27010KT 9999 BKN028 20/13 Q1015 NOSIG=
201506261850 METAR EGLL 261850Z 25013KT 9999 SCT031 BKN039 21/13 Q1015
                        NOSIG=
201506261820 METAR COR EGLL 261820Z 26011KT 9999 BKN032 21/13 Q1015 NOSIG=
201506261750 METAR EGLL 261750Z 24012KT 9999 SCT034 BKN040 22/12 Q1015
                        NOSIG=
201506261720 METAR COR EGLL 261720Z 27011KT 9999 SCT034 22/12 Q1015 NOSIG=
201506261650 METAR EGLL 261650Z 26012KT 9999 SCT029 22/13 Q1015 NOSIG=
201506261620 METAR COR EGLL 261620Z 25013KT 9999 SCT032 22/14 Q1015 NOSIG=
201506261550 METAR EGLL 261550Z 23016KT 9999 SCT034 23/13 Q1015 TEMPO
                        SHRA=
201506261520 METAR COR EGLL 261520Z 22014KT 9999 FEW032 SCT037 24/14 Q1015
                        TEMPO SHRA=
201506261450 METAR COR EGLL 261450Z 22016KT 9999 FEW037 25/14 Q1015 NOSIG=
201506261420 METAR COR EGLL 261420Z 23013KT 9999 FEW042 26/13 Q1015 NOSIG=
201506261350 METAR COR EGLL 261350Z 24013KT CAVOK 26/11 Q1015 NOSIG=
201506261320 METAR COR EGLL 261320Z 23012KT CAVOK 26/10 Q1015 NOSIG=
201506261250 METAR EGLL 261250Z 24014KT CAVOK 26/10 Q1015 NOSIG=
201506261220 METAR COR EGLL 261220Z 22010KT 180V250 CAVOK 26/10 Q1015
                        NOSIG=
201506261150 METAR COR EGLL 261150Z 22010KT 160V280 CAVOK 24/11 Q1016
                        NOSIG=
201506261120 METAR COR EGLL 261120Z 22011KT 180V240 CAVOK 25/10 Q1016
                        NOSIG=
201506261050 METAR COR EGLL 261050Z 20008KT 140V250 CAVOK 23/11 Q1016
                        NOSIG=
201506261020 METAR COR EGLL 261020Z 21007KT 160V250 CAVOK 22/11 Q1017
                        NOSIG=
201506260950 METAR COR EGLL 260950Z 23006KT 150V270 CAVOK 21/10 Q1017
                        NOSIG=
201506260920 METAR COR EGLL 260920Z VRB04KT CAVOK 21/11 Q1017 NOSIG=
201506260850 METAR COR EGLL 260850Z 20005KT 150V260 CAVOK 19/11 Q1017
                        NOSIG=
201506260820 METAR EGLL 260820Z 21006KT 170V250 CAVOK 19/10 Q1018=
201506260750 METAR EGLL 260750Z 24005KT 210V270 CAVOK 18/10 Q1018 NOSIG=
201506260720 METAR COR EGLL 260720Z 19005KT 150V240 CAVOK 17/10 Q1018
                        NOSIG=
201506260650 METAR COR EGLL 260650Z 20006KT 170V240 CAVOK 16/10 Q1018
                        NOSIG=
201506260620 METAR COR EGLL 260620Z 21006KT 170V240 CAVOK 16/10 Q1018
                        NOSIG=
201506260550 METAR COR EGLL 260550Z VRB04KT CAVOK 15/10 Q1018 NOSIG=
201506260520 METAR COR EGLL 260520Z 23006KT 180V270 CAVOK 15/09 Q1018
                        NOSIG=
201506260450 METAR COR EGLL 260450Z 22005KT CAVOK 15/09 Q1018 NOSIG=
201506260420 METAR COR EGLL 260420Z 22005KT CAVOK 14/09 Q1018 NOSIG=
201506260350 METAR EGLL 260350Z 22006KT CAVOK 14/09 Q1019 NOSIG=
201506260320 METAR COR EGLL 260320Z 22006KT CAVOK 14/09 Q1019 NOSIG=
201506260250 METAR COR EGLL 260250Z 22005KT CAVOK 14/09 Q1019 NOSIG=
201506260220 METAR COR EGLL 260220Z 21004KT CAVOK 14/10 Q1019 NOSIG=
201506260150 METAR EGLL 260150Z 23004KT CAVOK 14/10 Q1019 NOSIG=
201506260120 METAR EGLL 260120Z AUTO 23005KT 9999 NCD 15/10 Q1019=
201506260050 METAR EGLL 260050Z AUTO 22005KT 9999 NCD 15/11 Q1020=
201506260020 METAR EGLL 260020Z AUTO 23005KT 9999 NCD 15/11 Q1020=
201506252350 METAR COR EGLL 252350Z 22007KT CAVOK 16/11 Q1020 NOSIG=
201506252320 METAR COR EGLL 252320Z 21005KT CAVOK 16/11 Q1020 NOSIG=
201506252250 METAR COR EGLL 252250Z 22006KT CAVOK 16/12 Q1020 NOSIG=
201506252220 METAR COR EGLL 252220Z 21007KT CAVOK 17/12 Q1020 NOSIG=
201506252150 METAR COR EGLL 252150Z 22008KT CAVOK 18/11 Q1020 NOSIG=
201506252120 METAR COR EGLL 252120Z 21008KT CAVOK 19/09 Q1020 NOSIG=
201506252050 METAR EGLL 252050Z 21007KT CAVOK 20/08 Q1020 NOSIG=
201506252020 METAR COR EGLL 252020Z 22009KT CAVOK 20/07 Q1020 NOSIG=
201506251950 METAR COR EGLL 251950Z 22010KT CAVOK 21/06 Q1020 NOSIG=
201506251920 METAR COR EGLL 251920Z 21011KT 180V240 CAVOK 22/08 Q1020
                        NOSIG=
201506251850 METAR EGLL 251850Z 22011KT 200V260 CAVOK 23/10 Q1020=
201506251820 METAR COR EGLL 251820Z 23011KT CAVOK 24/10 Q1020 NOSIG=
201506251750 METAR EGLL 251750Z 17011KT 130V210 CAVOK 24/11 Q1020 NOSIG=
201506251720 METAR COR EGLL 251720Z 18011G21KT CAVOK 24/10 Q1020 NOSIG=
201506251650 METAR COR EGLL 251650Z 23008KT 190V270 CAVOK 25/10 Q1020
                        NOSIG=
201506251620 METAR COR EGLL 251620Z 24008KT 190V270 9999 FEW049 25/10
                        Q1020 NOSIG=
201506251550 METAR EGLL 251550Z 21006KT 160V290 9999 SCT047 24/10 Q1020
                        NOSIG=
201506251520 METAR COR EGLL 251520Z 21008KT 160V270 9999 SCT046 24/11
                        Q1021 NOSIG=
201506251450 METAR COR EGLL 251450Z 22009KT 170V270 9999 BKN045 24/11
                        Q1021 NOSIG=
201506251420 METAR COR EGLL 251420Z 22008KT 190V260 9999 BKN044 24/11
                        Q1021 NOSIG=
201506251350 METAR COR EGLL 251350Z 23009KT 200V270 9999 BKN044 23/11
                        Q1021 NOSIG=
201506251320 METAR COR EGLL 251320Z VRB09KT 9999 BKN044 24/11 Q1021 NOSIG=
201506251250 METAR COR EGLL 251250Z 23009KT 190V280 9999 SCT046 25/10
                        Q1021 NOSIG=
201506251220 METAR COR EGLL 251220Z 25008KT 210V280 9999 SCT045 23/10
                        Q1021 NOSIG=
201506251150 METAR COR EGLL 251150Z 22007KT 180V260 9999 SCT048 22/10
                        Q1021 NOSIG=
201506251120 METAR COR EGLL 251120Z VRB05KT 9999 FEW043 SCT047 23/10 Q1022
                        NOSIG=
201506251050 METAR COR EGLL 251050Z VRB05KT 9999 SCT041 22/10 Q1022 NOSIG=
201506251020 METAR COR EGLL 251020Z VRB07KT 9999 SCT035 21/11 Q1022 NOSIG=
201506250950 METAR EGLL 250950Z 23008KT 190V260 9999 FEW037 20/11 Q1022
                        NOSIG=
201506250920 METAR COR EGLL 250920Z 27008KT 220V290 9999 FEW037 20/11
                        Q1022 NOSIG=
201506250850 METAR COR EGLL 250850Z 28005KT 230V360 CAVOK 20/11 Q1022
                        NOSIG=
201506250820 METAR COR EGLL 250820Z VRB03KT CAVOK 19/11 Q1022 NOSIG=
201506250750 METAR EGLL 250750Z 30006KT 260V330 CAVOK 18/11 Q1022=
201506250720 METAR COR EGLL 250720Z 30004KT 260V340 CAVOK 17/11 Q1022
                        NOSIG=
201506250650 METAR EGLL 250650Z 30005KT CAVOK 16/11 Q1022 NOSIG=
201506250620 METAR COR EGLL 250620Z 28004KT 230V330 CAVOK 15/11 Q1022
                        NOSIG=
201506250550 METAR EGLL 250550Z 28004KT CAVOK 14/11 Q1022 NOSIG=
201506250520 METAR EGLL 250520Z 24004KT 210V270 CAVOK 13/10 Q1022=
201506250450 METAR EGLL 250450Z 21004KT CAVOK 12/10 Q1022 NOSIG=
201506250420 METAR COR EGLL 250420Z 21004KT CAVOK 12/10 Q1021 NOSIG=
201506250350 METAR EGLL 250350Z 21004KT CAVOK 12/10 Q1021 NOSIG=
201506250320 METAR COR EGLL 250320Z 20003KT CAVOK 12/10 Q1021 NOSIG=
201506250250 METAR EGLL 250250Z 22004KT 9999 FEW048 13/10 Q1021 NOSIG=
201506250220 METAR COR EGLL 250220Z 22004KT 9999 SCT048 13/10 Q1021 NOSIG=
201506250150 METAR EGLL 250150Z 22003KT 9999 FEW049 13/10 Q1021 NOSIG=
201506250120 METAR EGLL 250120Z AUTO 23004KT 9999 SCT049 13/10 Q1021=
201506250050 METAR EGLL 250050Z AUTO 23005KT 9999 NCD 14/10 Q1021=
201506250020 METAR EGLL 250020Z AUTO 23004KT 200V280 9999 NCD 14/10 Q1021=
201506242350 METAR COR EGLL 242350Z 23006KT CAVOK 15/10 Q1021 NOSIG=
201506242320 METAR COR EGLL 242320Z 25006KT CAVOK 15/10 Q1021 NOSIG=
201506242250 METAR EGLL 242250Z 22007KT CAVOK 15/10 Q1021 NOSIG=
201506242220 METAR COR EGLL 242220Z 22008KT CAVOK 16/09 Q1021 NOSIG=
201506242150 METAR EGLL 242150Z 22007KT CAVOK 16/09 Q1021 NOSIG=
201506242120 METAR COR EGLL 242120Z 21007KT CAVOK 17/10 Q1021 NOSIG=
201506242050 METAR COR EGLL 242050Z 22007KT 190V250 CAVOK 17/09 Q1021
                        NOSIG=
201506242020 METAR EGLL 242020Z 23009KT CAVOK 18/09 Q1021=
201506241950 METAR COR EGLL 241950Z 22008KT CAVOK 19/09 Q1021 NOSIG=
201506241920 METAR COR EGLL 241920Z 23009KT CAVOK 20/09 Q1020 NOSIG=
201506241850 METAR EGLL 241850Z 23011G21KT CAVOK 20/09 Q1020=
201506241820 METAR COR EGLL 241820Z 24011KT CAVOK 20/09 Q1020 NOSIG=
201506241750 METAR EGLL 241750Z 23013KT CAVOK 21/09 Q1020 NOSIG=
201506241720 METAR COR EGLL 241720Z 23011KT CAVOK 21/09 Q1020 NOSIG=
201506241650 METAR EGLL 241650Z 23012KT CAVOK 21/09 Q1020 NOSIG=
201506241620 METAR COR EGLL 241620Z 23011KT CAVOK 22/09 Q1019 NOSIG=
201506241550 METAR COR EGLL 241550Z 22011KT CAVOK 22/08 Q1019 NOSIG=
201506241520 METAR COR EGLL 241520Z 22011G23KT 190V250 CAVOK 23/07 Q1020
                        NOSIG=
201506241450 METAR COR EGLL 241450Z 22011KT 190V260 CAVOK 24/07 Q1020
                        NOSIG=
201506241420 METAR COR EGLL 241420Z 24010KT 210V270 CAVOK 23/07 Q1020
                        NOSIG=
201506241350 METAR EGLL 241350Z 24011KT 180V270 9999 FEW049 23/08 Q1020
                        NOSIG=
201506241320 METAR COR EGLL 241320Z 24011KT 180V270 9999 FEW047 23/09
                        Q1020 NOSIG=
201506241250 METAR EGLL 241250Z 23010KT 180V260 9999 FEW049 22/08 Q1020
                        NOSIG=
201506241220 METAR COR EGLL 241220Z 24011KT 220V290 9999 SCT048 24/08
                        Q1020 NOSIG=
201506241150 METAR EGLL 241150Z 26011KT 9999 BKN047 22/08 Q1020 NOSIG=
201506241120 METAR COR EGLL 241120Z 25009KT 200V290 9999 FEW048 22/08
                        Q1020 NOSIG=
201506241050 METAR EGLL 241050Z 24009KT 170V300 9999 SCT046 21/08 Q1020
                        NOSIG=
201506241020 METAR COR EGLL 241020Z 26007KT 200V330 9999 FEW041 21/09
                        Q1020 NOSIG=
201506240950 METAR EGLL 240950Z 25008KT 190V300 9999 FEW044 20/09 Q1020
                        NOSIG=
201506240920 METAR COR EGLL 240920Z 24008KT 220V290 9999 FEW040 20/09
                        Q1021 NOSIG=
201506240850 METAR COR EGLL 240850Z 24007KT 200V280 CAVOK 19/09 Q1021
                        NOSIG=
201506240820 METAR COR EGLL 240820Z 26006KT 200V300 CAVOK 17/10 Q1021
                        NOSIG=
201506240750 METAR EGLL 240750Z 24007KT CAVOK 17/10 Q1021 NOSIG=
201506240720 METAR COR EGLL 240720Z 24007KT CAVOK 15/10 Q1021 NOSIG=
201506240650 METAR EGLL 240650Z 23007KT CAVOK 15/10 Q1021 NOSIG=
201506240620 METAR COR EGLL 240620Z 25007KT 9999 FEW048 14/10 Q1021 NOSIG=
201506240550 METAR EGLL 240550Z 24006KT CAVOK 14/10 Q1021 NOSIG=
201506240520 METAR COR EGLL 240520Z 23006KT 200V270 9999 FEW048 13/10
                        Q1021 NOSIG=
201506240450 METAR EGLL 240450Z 22005KT CAVOK 13/10 Q1020 NOSIG=
201506240420 METAR COR EGLL 240420Z 22005KT CAVOK 13/10 Q1020 NOSIG=
201506240350 METAR EGLL 240350Z 22005KT CAVOK 13/10 Q1020 NOSIG=
201506240320 METAR COR EGLL 240320Z 23005KT CAVOK 13/10 Q1020 NOSIG=
201506240250 METAR COR EGLL 240250Z 22004KT CAVOK 13/10 Q1020 NOSIG=
201506240220 METAR COR EGLL 240220Z 21004KT CAVOK 13/10 Q1020 NOSIG=
201506240150 METAR EGLL 240150Z 21004KT 9999 BKN048 13/10 Q1020 NOSIG=
201506240120 METAR EGLL 240120Z AUTO 21005KT 9999 FEW049 13/10 Q1020=
201506240050 METAR EGLL 240050Z AUTO 21005KT 9999 NCD 13/10 Q1020=
201506240020 METAR EGLL 240020Z AUTO 21005KT 9999 NCD 13/10 Q1020=
201506232350 METAR COR EGLL 232350Z 23005KT CAVOK 14/11 Q1020 NOSIG=
201506232320 METAR COR EGLL 232320Z 21004KT CAVOK 14/11 Q1020 NOSIG=
201506232250 METAR EGLL 232250Z 22005KT CAVOK 15/11 Q1020 NOSIG=
201506232220 METAR COR EGLL 232220Z 22007KT CAVOK 15/11 Q1020 NOSIG=
201506232150 METAR EGLL 232150Z 22007KT CAVOK 16/11 Q1020 NOSIG=
201506232120 METAR COR EGLL 232120Z 21008KT CAVOK 16/11 Q1020 NOSIG=
201506232050 METAR EGLL 232050Z 20009KT CAVOK 17/10 Q1019 NOSIG=
201506232020 METAR COR EGLL 232020Z 21006KT 170V240 CAVOK 18/08 Q1019
                        NOSIG=
201506231950 METAR EGLL 231950Z VRB02KT CAVOK 19/08 Q1019 NOSIG=
201506231920 METAR COR EGLL 231920Z VRB03KT CAVOK 20/07 Q1019 NOSIG=
201506231850 METAR EGLL 231850Z VRB03KT CAVOK 20/07 Q1019 NOSIG=
201506231820 METAR COR EGLL 231820Z 31004KT 260V360 CAVOK 20/07 Q1019
                        NOSIG=
201506231750 METAR COR EGLL 231750Z 28004KT 230V360 CAVOK 20/07 Q1019
                        NOSIG=
201506231720 METAR COR EGLL 231720Z VRB03KT CAVOK 20/07 Q1019 NOSIG=
201506231650 METAR COR EGLL 231650Z 34004KT 260V040 9999 FEW049 20/07
                        Q1019 NOSIG=
201506231620 METAR COR EGLL 231620Z VRB03KT 9999 FEW049 20/07 Q1019 NOSIG=
201506231550 METAR EGLL 231550Z VRB02KT 9999 SCT049 19/07 Q1019 NOSIG=
201506231520 METAR COR EGLL 231520Z VRB02KT 9999 FEW048 20/07 Q1019 NOSIG=
201506231450 METAR COR EGLL 231450Z 29006KT 230V020 9999 FEW044 19/07
                        Q1019 NOSIG=
201506231420 METAR COR EGLL 231420Z 34005KT 280V070 9999 SCT045 20/07
                        Q1019 NOSIG=
201506231350 METAR EGLL 231350Z 01005KT 300V050 9999 SCT046 19/07 Q1019
                        NOSIG=
201506231320 METAR COR EGLL 231320Z 33005KT 280V020 9999 BKN047 18/07
                        Q1019 NOSIG=
201506231250 METAR EGLL 231250Z 36007KT 310V040 9999 SCT040 SCT048 17/07
                        Q1019 NOSIG=
201506231220 METAR COR EGLL 231220Z 36006KT 310V040 9999 FEW035 BKN044
                        17/07 Q1019 NOSIG=
201506231150 METAR COR EGLL 231150Z 34007KT 300V030 9999 SCT035 SCT046
                        17/08 Q1019 NOSIG=
201506231120 METAR COR EGLL 231120Z 31007KT 280V010 9999 BKN043 16/08
                        Q1019 NOSIG=
201506231050 METAR EGLL 231050Z 35007KT 290V040 9999 BKN036 17/07 Q1018
                        NOSIG=
201506231020 METAR COR EGLL 231020Z 35007KT 310V020 9999 SCT033 SCT041
                        16/07 Q1018 NOSIG=
201506230950 METAR COR EGLL 230950Z 32007KT 270V020 9999 FEW034 BKN046
                        15/07 Q1018 NOSIG=
201506230920 METAR COR EGLL 230920Z 35006KT 310V030 9999 FEW026 SCT047
                        15/07 Q1018 NOSIG=
201506230850 METAR EGLL 230850Z 34005KT 310V040 9999 SCT027 SCT045 15/08
                        Q1018 NOSIG=
201506230820 METAR COR EGLL 230820Z 35006KT 310V030 9999 SCT024 SCT042
                        15/08 Q1018 NOSIG=
201506230750 METAR EGLL 230750Z 32006KT 280V020 9999 SCT024 14/08 Q1018
                        NOSIG=
201506230720 METAR COR EGLL 230720Z 32005KT 300V010 9999 SCT020 14/09
                        Q1017 NOSIG=
201506230650 METAR COR EGLL 230650Z 34005KT 300V030 9999 SCT020 SCT048
                        13/09 Q1017 NOSIG=
201506230620 METAR COR EGLL 230620Z 31005KT 270V360 9999 FEW023 BKN048
                        13/09 Q1017 NOSIG=
201506230550 METAR EGLL 230550Z 29005KT 9999 FEW023 BKN048 13/09 Q1017
                        NOSIG=
201506230520 METAR COR EGLL 230520Z 31004KT 280V350 9999 FEW020 BKN044
                        12/09 Q1017 NOSIG=
201506230450 METAR EGLL 230450Z 31004KT 9999 BKN020 12/08 Q1016=
201506230420 METAR EGLL 230420Z AUTO VRB03KT 9999 SCT021 BKN040 12/09
                        Q1016=
201506230350 METAR COR EGLL 230350Z VRB03KT 9999 SCT040 12/08 Q1016 NOSIG=
201506230320 METAR COR EGLL 230320Z 33003KT 9999 SCT038 12/09 Q1015 NOSIG=
201506230250 METAR COR EGLL 230250Z 30005KT 9999 SCT024 12/08 Q1015 NOSIG=
201506230220 METAR COR EGLL 230220Z 30005KT 9999 FEW023 SCT032 12/08 Q1015
                        NOSIG=
201506230150 METAR EGLL 230150Z 32006KT 9999 BKN027 13/08 Q1014 NOSIG=
201506230120 METAR EGLL 230120Z AUTO 30006KT 9999 OVC030 13/09 Q1014=
201506230050 METAR EGLL 230050Z AUTO 30005KT 9999 BKN028 13/08 Q1014=
201506230020 METAR EGLL 230020Z AUTO 33007KT 290V020 9999 SCT026 SCT031
                        13/08 Q1014=
201506222350 METAR COR EGLL 222350Z 29006KT 9999 SCT040 14/08 Q1014 NOSIG=
201506222320 METAR COR EGLL 222320Z 32004KT 280V360 9999 SCT026 SCT040
                        14/08 Q1013 NOSIG=
201506222250 METAR COR EGLL 222250Z 33007KT 300V010 9999 SCT028 14/08
                        Q1013 NOSIG=
201506222220 METAR COR EGLL 222220Z 32008KT 290V360 9999 FEW035 14/08
                        Q1013 NOSIG=
201506222150 METAR COR EGLL 222150Z 32008KT 9999 FEW035 SCT046 15/07 Q1013
                        NOSIG=
201506222120 METAR COR EGLL 222120Z 33010KT 310V010 9999 FEW034 15/07
                        Q1012 NOSIG=
201506222050 METAR EGLL 222050Z 32009KT 9999 FEW048 16/06 Q1012 NOSIG=
201506222020 METAR COR EGLL 222020Z 31009KT CAVOK 16/06 Q1012 NOSIG=
201506221950 METAR COR EGLL 221950Z 31008KT 9999 FEW046 16/06 Q1011 NOSIG=
201506221920 METAR COR EGLL 221920Z 31009KT 270V350 9999 FEW048 17/06
                        Q1011 NOSIG=
201506221850 METAR EGLL 221850Z 31010KT 9999 FEW044 17/06 Q1010 NOSIG=
201506221820 METAR COR EGLL 221820Z 31009KT CAVOK 17/06 Q1010 NOSIG=
201506221750 METAR COR EGLL 221750Z 31011KT 280V350 9999 FEW049 17/05
                        Q1010 NOSIG=
201506221720 METAR COR EGLL 221720Z 31012KT 270V340 9999 FEW049 18/05
                        Q1010 NOSIG=
201506221650 METAR EGLL 221650Z 32010KT 290V020 CAVOK 18/05 Q1009 NOSIG=
201506221620 METAR COR EGLL 221620Z 32009KT 280V360 CAVOK 18/04 Q1009
                        NOSIG=
201506221550 METAR EGLL 221550Z 33010KT 290V030 9999 SCT046 18/05 Q1009
                        NOSIG=
201506221520 METAR COR EGLL 221520Z 31010G21KT 280V340 9999 FEW049 18/05
                        Q1009 NOSIG=
201506221450 METAR EGLL 221450Z 31011KT 280V350 9999 FEW049 18/05 Q1009
                        NOSIG=
201506221420 METAR COR EGLL 221420Z 31011KT 280V350 9999 FEW045 18/06
                        Q1009 NOSIG=
201506221350 METAR EGLL 221350Z 31010KT 9999 FEW048 16/07 Q1009 NOSIG=
201506221320 METAR COR EGLL 221320Z 31010KT 270V340 9999 FEW036 SCT040
                        16/08 Q1008 NOSIG=
201506221250 METAR COR EGLL 221250Z 29009KT 240V330 9999 FEW020 SCT027
                        15/10 Q1009 NOSIG=
201506221220 METAR COR EGLL 221220Z 26009KT 230V300 9999 FEW020 15/11
                        Q1009 NOSIG=
201506221150 METAR COR EGLL 221150Z 27009KT 240V320 9999 -RA FEW020 14/10
                        Q1009 NOSIG=
201506221120 METAR COR EGLL 221120Z 26008KT 220V300 9999 SCT046 13/10
                        Q1009 NOSIG=
201506221050 METAR COR EGLL 221050Z 26009KT 9999 -RA BKN046 13/10 Q1010
                        NOSIG=
201506221020 METAR COR EGLL 221020Z 28008KT 9999 -RA FEW017 SCT045 13/10
                        Q1010 NOSIG=
201506220950 METAR EGLL 220950Z 28010KT 9999 -RA FEW015 SCT046 13/10 Q1010
                        NOSIG=
201506220920 METAR COR EGLL 220920Z 26011KT 9999 -RA SCT014 SCT038 13/11
                        Q1010 TEMPO RA=
201506220850 METAR COR EGLL 220850Z 27009KT 9999 SCT015 SCT045 14/10 Q1010
                        TEMPO RA=
201506220820 METAR COR EGLL 220820Z 25010KT 9999 FEW015 SCT045 14/11 Q1010
                        TEMPO RA=
201506220750 METAR EGLL 220750Z 25010KT 9999 FEW010 13/11 Q1011 TEMPO
                        RA=
201506220720 METAR COR EGLL 220720Z 25009KT 9999 FEW010 13/11 Q1011 NOSIG=
201506220650 METAR COR EGLL 220650Z 26012KT 9999 FEW010 SCT047 12/11 Q1011
                        NOSIG=
201506220620 METAR COR EGLL 220620Z 27009KT 9999 -RA FEW010 12/11 Q1011
                        TEMPO RA BKN014=
201506220550 METAR COR EGLL 220550Z 25008KT 9999 FEW010 12/11 Q1011 NOSIG=
201506220520 METAR COR EGLL 220520Z 24008KT 9999 -RA FEW023 12/11 Q1011
                        NOSIG=
201506220450 METAR EGLL 220450Z 24007KT 9999 -RA FEW023 12/10 Q1012 TEMPO
                        RA BKN014=
201506220420 METAR COR EGLL 220420Z 25007KT 9999 -RA SCT016 SCT028 11/09
                        Q1012 RERA TEMPO RA BKN014=
201506220350 METAR EGLL 220350Z 28007KT 6000 RA FEW008 SCT013 11/10 Q1012
                        TEMPO -RA BKN013=
201506220320 METAR COR EGLL 220320Z 24008KT 9999 -RA FEW009 12/11 Q1012
                        TEMPO RA BKN014=
201506220250 METAR EGLL 220250Z 24009KT 9999 -RA FEW008 12/11 Q1012 TEMPO
                        RA BKN014=
201506220220 METAR COR EGLL 220220Z 25009KT 9999 -RA SCT043 12/11 Q1013
                        TEMPO RA=
201506220150 METAR EGLL 220150Z 25009KT 9999 -RA SCT044 12/11 Q1013 RERA
                        TEMPO RA=
201506220120 METAR EGLL 220120Z AUTO 24010KT 9999 RA NCD 12/11 Q1013=
201506220050 METAR EGLL 220050Z AUTO 24009KT 9999 -DZ NCD 13/10 Q1013=
201506220020 METAR EGLL 220020Z AUTO 25011KT 9999 -RA NCD 13/10 Q1014
                        RERA=
201506212350 METAR COR EGLL 212350Z 25010KT 9999 -RA NSC 13/10 Q1014 NOSIG=
201506212320 METAR COR EGLL 212320Z 25009KT 9999 -RA NSC 14/10 Q1014 NOSIG=
201506212250 METAR COR EGLL 212250Z 26009KT 9999 -RA NSC 14/09 Q1014 TEMPO
                        8000 RA BKN014=
201506212220 METAR COR EGLL 212220Z 27011KT 9999 -RA NSC 15/08 Q1015 TEMPO
                        8000 RA BKN014=
201506212150 METAR EGLL 212150Z 27011KT CAVOK 16/07 Q1015 NOSIG=
201506212120 METAR COR EGLL 212120Z 28012KT 9999 FEW047 16/07 Q1015 NOSIG=
201506212050 METAR EGLL 212050Z 28012KT 9999 FEW044 16/08 Q1015 NOSIG=
201506212020 METAR COR EGLL 212020Z 28013KT 9999 FEW044 17/08 Q1015 NOSIG=
201506211950 METAR EGLL 211950Z 27013KT 9999 FEW044 17/08 Q1015 NOSIG=
201506211920 METAR COR EGLL 211920Z 27014KT 9999 FEW043 18/08 Q1014 NOSIG=
201506211850 METAR EGLL 211850Z 28013KT 9999 FEW043 18/07 Q1014 NOSIG=
201506211820 METAR COR EGLL 211820Z 27015KT 9999 FEW045 19/07 Q1015 NOSIG=
201506211750 METAR EGLL 211750Z 27014KT 9999 FEW044 19/08 Q1015 NOSIG=
201506211720 METAR COR EGLL 211720Z 27015KT 9999 FEW045 20/07 Q1015 NOSIG=
201506211650 METAR EGLL 211650Z 28014KT 9999 FEW044 19/08 Q1015 NOSIG=
201506211620 METAR COR EGLL 211620Z 25017KT CAVOK 20/07 Q1015 NOSIG=
201506211550 METAR COR EGLL 211550Z 27012KT 9999 FEW044 20/08 Q1015 NOSIG=
201506211520 METAR COR EGLL 211520Z 27014KT 9999 FEW046 19/08 Q1015 NOSIG=
201506211450 METAR EGLL 211450Z 28013KT 9999 FEW048 21/07 Q1016 NOSIG=
201506211420 METAR EGLL 211420Z 28011KT 240V300 9999 FEW048 19/06 Q1016=
201506211350 METAR COR EGLL 211350Z 27012KT 230V290 9999 SCT047 20/07
                        Q1016 NOSIG=
201506211320 METAR COR EGLL 211320Z 27013KT 9999 FEW047 20/07 Q1016 NOSIG=
201506211250 METAR EGLL 211250Z 28014KT 9999 FEW046 19/07 Q1016 NOSIG=
201506211220 METAR COR EGLL 211220Z 27015KT 9999 FEW046 19/07 Q1016 NOSIG=
201506211150 METAR EGLL 211150Z 27014KT 9999 SCT046 18/07 Q1016 NOSIG=
201506211120 METAR COR EGLL 211120Z 27012KT 9999 SCT045 18/07 Q1016 NOSIG=
201506211050 METAR EGLL 211050Z 28012KT 240V310 9999 FEW038 18/08 Q1016
                        NOSIG=
201506211020 METAR COR EGLL 211020Z 30009KT 9999 FEW036 18/07 Q1016 NOSIG=
201506210950 METAR EGLL 210950Z 28013KT 9999 SCT038 18/08 Q1016 NOSIG=
201506210920 METAR COR EGLL 210920Z 28012KT 260V330 9999 SCT043 17/08
                        Q1016 NOSIG=
201506210850 METAR EGLL 210850Z 29012KT 9999 SCT018 16/10 Q1017 NOSIG=
201506210820 METAR COR EGLL 210820Z 26012KT 9999 BKN018 15/11 Q1017 NOSIG=
201506210750 METAR EGLL 210750Z 27012KT 9999 SCT018 16/11 Q1017 NOSIG=
201506210720 METAR COR EGLL 210720Z 27012KT 9999 SCT018 15/11 Q1017 NOSIG=
201506210650 METAR COR EGLL 210650Z 25011KT 9999 SCT020 15/11 Q1016 NOSIG=
201506210620 METAR COR EGLL 210620Z 24009KT 9999 FEW020 15/11 Q1016 NOSIG=
201506210550 METAR EGLL 210550Z 26011KT 9999 FEW012 BKN020 15/11 Q1016
                        TEMPO BKN014=
201506210520 METAR COR EGLL 210520Z 27009KT 9999 FEW012 BKN019 15/12 Q1016
                        TEMPO BKN014=
201506210450 METAR COR EGLL 210450Z 26009KT 9999 FEW013 BKN017 15/12 Q1016
                        TEMPO BKN014=
201506210420 METAR COR EGLL 210420Z 25008KT 9999 FEW014 BKN018 15/12 Q1016
                        TEMPO BKN014=
201506210350 METAR EGLL 210350Z 25007KT 9999 BKN015 15/12 Q1016 TEMPO
                        BKN014=
201506210320 METAR COR EGLL 210320Z 26010KT 9999 BKN014 14/12 Q1017 NOSIG=
201506210250 METAR EGLL 210250Z 26010KT 9999 BKN014 14/12 Q1017 NOSIG=
201506210220 METAR COR EGLL 210220Z 26009KT 9999 SCT016 SCT018 14/12 Q1017
                        TEMPO BKN012=
201506210150 METAR EGLL 210150Z 26009KT 9999 SCT015 14/12 Q1017 TEMPO
                        BKN012=
201506210120 METAR EGLL 210120Z AUTO 26007KT 9999 NCD 15/13 Q1018=
201506210050 METAR EGLL 210050Z AUTO 26010KT 9999 NCD 15/13 Q1018=
201506210020 METAR EGLL 210020Z AUTO 26010KT 9999 BKN017 16/13 Q1018=
201506202350 METAR COR EGLL 202350Z 26010KT 9999 SCT017 16/14 Q1018 TEMPO
                        BKN012=
201506202320 METAR COR EGLL 202320Z 27012KT 9999 SCT015 16/14 Q1018 NOSIG=
201506202250 METAR COR EGLL 202250Z 27013KT 9999 FEW016 17/14 Q1018 NOSIG=
201506202220 METAR COR EGLL 202220Z 26012KT CAVOK 17/15 Q1018 NOSIG=
201506202150 METAR EGLL 202150Z 24008KT 9999 FEW024 17/16 Q1018 NOSIG=
201506202120 METAR COR EGLL 202120Z 23008KT 190V270 9999 FEW024 17/16
                        Q1018 NOSIG=
201506202050 METAR EGLL 202050Z 24007KT 9999 FEW032 17/16 Q1018 NOSIG=
201506202020 METAR COR EGLL 202020Z 26008KT 9999 FEW041 18/16 Q1018 NOSIG=
201506201950 METAR EGLL 201950Z 27009KT 9999 FEW022CB 18/16 Q1018 TEMPO
                        SHRA=
201506201920 METAR COR EGLL 201920Z 27008KT 9999 -SHRA FEW022CB 18/16
                        Q1019 TEMPO SHRA=
201506201850 METAR EGLL 201850Z 27009KT 9999 FEW022CB SCT036 19/16 Q1019
                        TEMPO SHRA=
201506201820 METAR COR EGLL 201820Z 27005KT 230V290 9999 -SHRA FEW019
                        SCT024 19/16 Q1019 TEMPO SHRA=
201506201750 METAR COR EGLL 201750Z VRB02KT 9999 FEW036 SCT037 19/16 Q1019
                        TEMPO SHRA=
201506201720 METAR COR EGLL 201720Z 27004KT 9999 FEW019 SCT022CB 19/16
                        Q1019 RESHRA TEMPO SHRA=
201506201650 METAR COR EGLL 201650Z 25006KT 180V290 9999 5000NE SHRA SCT022CB
                        SCT030 19/16 Q1019 TEMPO NSW=
201506201620 METAR COR EGLL 201620Z 22006KT 190V260 9999 VCSH SCT031 20/15
                        Q1019 TEMPO SHRA=
201506201550 METAR EGLL 201550Z 23008KT 9999 FEW016 BKN040 19/15 Q1019
                        TEMPO SHRA=
201506201520 METAR COR EGLL 201520Z 23009G19KT 200V260 9999 FEW013 BKN040
                        19/15 Q1020 TEMPO SHRA=
201506201450 METAR EGLL 201450Z 22009KT 180V250 9999 FEW015 BKN045 20/15
                        Q1020 TEMPO SHRA=
201506201420 METAR COR EGLL 201420Z 23010KT 200V260 9999 SCT021 BKN030
                        20/14 Q1020 TEMPO SHRA=
201506201350 METAR EGLL 201350Z 22007KT 180V250 9999 FEW011 SCT037 BKN048
                        20/14 Q1020 TEMPO SHRA=
201506201320 METAR COR EGLL 201320Z 21006KT 180V250 9999 FEW009 SCT011
                        BKN037 19/14 Q1020 NOSIG=
201506201250 METAR COR EGLL 201250Z 23006KT 180V280 9999 FEW009 BKN011
                        18/14 Q1021 BECMG FEW011=
201506201220 METAR COR EGLL 201220Z 23007KT 200V270 5000 -DZ SCT009 BKN014
                        17/14 Q1021 BECMG 9999 NSW FEW014
                        BKN020=
201506201150 METAR EGLL 201150Z 24008KT 5000 -DZ SCT009 BKN014 16/14 Q1021
                        BECMG 9999 NSW FEW014 BKN020=
201506201120 METAR COR EGLL 201120Z 24008KT 9999 BKN019 17/12 Q1021 NOSIG=
201506201050 METAR EGLL 201050Z 24008KT 9999 BKN018 17/12 Q1022 NOSIG=
201506201020 METAR COR EGLL 201020Z 23006KT 170V280 9999 BKN018 17/12
                        Q1022 NOSIG=
201506200950 METAR EGLL 200950Z VRB05KT 9999 BKN020 17/11 Q1022 NOSIG=
201506200920 METAR COR EGLL 200920Z 21005KT 180V260 9999 SCT022 SCT033
                        17/11 Q1022 NOSIG=
201506200850 METAR COR EGLL 200850Z 24006KT 200V260 9999 SCT020 17/11
                        Q1023 NOSIG=
201506200820 METAR COR EGLL 200820Z 25006KT 220V290 9000 FEW021 SCT028
                        15/10 Q1023 NOSIG=
201506200750 METAR COR EGLL 200750Z 28005KT 9999 FEW024 SCT030 15/10 Q1023
                        NOSIG=
201506200720 METAR COR EGLL 200720Z 27007KT 9999 FEW016 SCT032 15/11 Q1023
                        NOSIG=
201506200650 METAR COR EGLL 200650Z 28006KT 9999 SCT030 14/10 Q1022 NOSIG=
201506200620 METAR EGLL 200620Z 27006KT 9999 BKN030 14/10 Q1022=
201506200550 METAR EGLL 200550Z 28006KT 9999 BKN031 15/09 Q1022 NOSIG=
201506200520 METAR COR EGLL 200520Z VRB02KT 9999 BKN032 14/09 Q1022 NOSIG=
201506200450 METAR EGLL 200450Z VRB02KT 9999 BKN034 14/08 Q1022 NOSIG=
201506200420 METAR COR EGLL 200420Z 30003KT 9999 BKN034 14/08 Q1022 NOSIG=
201506200350 METAR EGLL 200350Z VRB02KT 9999 FEW038 13/08 Q1022 NOSIG=
201506200320 METAR COR EGLL 200320Z VRB02KT CAVOK 13/08 Q1022 NOSIG=
201506200250 METAR COR EGLL 200250Z VRB02KT CAVOK 14/08 Q1022 NOSIG=
201506200220 METAR COR EGLL 200220Z VRB03KT CAVOK 14/08 Q1022 NOSIG=
201506200150 METAR EGLL 200150Z VRB02KT CAVOK 13/08 Q1022 NOSIG=
201506200120 METAR EGLL 200120Z AUTO 35004KT 320V030 9999 NCD 13/08 Q1022=
201506200050 METAR EGLL 200050Z AUTO 33004KT 300V030 9999 NCD 13/08 Q1023=
201506200020 METAR EGLL 200020Z AUTO VRB03KT 9999 NCD 14/08 Q1023=
201506192350 METAR COR EGLL 192350Z 36005KT 320V030 9999 FEW032 14/08
                        Q1023 NOSIG=
201506192320 METAR COR EGLL 192320Z 35005KT 310V020 CAVOK 15/08 Q1023
                        NOSIG=
201506192250 METAR EGLL 192250Z 34006KT 310V030 9999 FEW039 15/09 Q1022
                        NOSIG=
201506192220 METAR COR EGLL 192220Z 35006KT 320V030 9999 FEW039 16/09
                        Q1022 NOSIG=
201506192150 METAR EGLL 192150Z 35006KT 310V030 9999 SCT038 17/10 Q1022
                        NOSIG=
201506192120 METAR COR EGLL 192120Z 35006KT 9999 FEW039 18/10 Q1022 NOSIG=
201506192050 METAR EGLL 192050Z 32006KT 280V360 9999 FEW038 19/09 Q1021
                        NOSIG=
201506192020 METAR COR EGLL 192020Z 32006KT 9999 FEW045 19/09 Q1021 NOSIG=
201506191950 METAR EGLL 191950Z 34005KT 310V010 9999 FEW047 20/09 Q1021
                        NOSIG=
201506191920 METAR COR EGLL 191920Z 32007KT 280V010 CAVOK 20/09 Q1020
                        NOSIG=
201506191850 METAR EGLL 191850Z 32007KT 300V360 CAVOK 20/09 Q1020 NOSIG=
201506191820 METAR COR EGLL 191820Z 31006KT 290V350 CAVOK 21/09 Q1020
                        NOSIG=
201506191750 METAR COR EGLL 191750Z 32006KT 290V360 CAVOK 20/08 Q1020
                        NOSIG=
201506191720 METAR COR EGLL 191720Z 32008KT 270V010 9999 FEW048 21/08
                        Q1020 NOSIG=
201506191650 METAR COR EGLL 191650Z 33007KT 280V020 9999 FEW049 21/08
                        Q1020 NOSIG=
201506191620 METAR COR EGLL 191620Z 32005KT 270V040 9999 FEW049 21/08
                        Q1021 NOSIG=
201506191550 METAR EGLL 191550Z 32008KT 280V360 9999 FEW046 21/08 Q1021
                        NOSIG=
201506191520 METAR COR EGLL 191520Z 31008KT 270V350 9999 FEW047 21/08
                        Q1021 NOSIG=
201506191450 METAR COR EGLL 191450Z 32008KT 270V030 9999 FEW044 20/08
                        Q1021 NOSIG=
201506191420 METAR EGLL 191420Z 32007KT 270V360 9999 FEW043 20/07 Q1021=
201506191350 METAR COR EGLL 191350Z 31007KT 270V360 9999 FEW043 20/08
                        Q1022 NOSIG=
201506191320 METAR COR EGLL 191320Z 34007KT 300V020 9999 SCT040 20/08
                        Q1022 NOSIG=
201506191250 METAR EGLL 191250Z 32007KT 280V010 9999 BKN041 19/07 Q1022
                        NOSIG=
201506191220 METAR COR EGLL 191220Z 33007KT 290V020 9999 BKN042 18/07
                        Q1022 NOSIG=
201506191150 METAR COR EGLL 191150Z 32006KT 280V360 9999 BKN040 18/07
                        Q1022 NOSIG=
201506191120 METAR COR EGLL 191120Z 34009KT 280V030 9999 BKN038 18/07
                        Q1023 NOSIG=
201506191050 METAR EGLL 191050Z 35007KT 300V040 9999 FEW039 BKN044 18/07
                        Q1023 NOSIG=
201506191020 METAR COR EGLL 191020Z 33011KT 9999 BKN039 18/07 Q1022 NOSIG=
201506190950 METAR EGLL 190950Z 30008KT 9999 BKN038 17/07 Q1022 NOSIG=
201506190920 METAR COR EGLL 190920Z 34007KT 290V010 9999 BKN038 16/06
                        Q1022 NOSIG=
201506190850 METAR COR EGLL 190850Z 31008KT 270V010 9999 SCT036 16/07
                        Q1022 NOSIG=
201506190820 METAR COR EGLL 190820Z 32009KT 290V020 9999 SCT037 16/07
                        Q1022 NOSIG=
201506190750 METAR EGLL 190750Z 32006KT 280V030 9999 FEW034 BKN041 15/07
                        Q1022 NOSIG=
201506190720 METAR COR EGLL 190720Z 32008KT 290V020 9999 BKN041 15/08
                        Q1022 NOSIG=
201506190650 METAR COR EGLL 190650Z 31006KT 9999 BKN039 14/08 Q1022 NOSIG=
201506190620 METAR COR EGLL 190620Z 32006KT 290V010 9999 FEW024 14/08
                        Q1022 NOSIG=
201506190550 METAR EGLL 190550Z 31005KT 270V330 CAVOK 13/08 Q1022 NOSIG=
201506190520 METAR COR EGLL 190520Z 30004KT CAVOK 12/07 Q1022 NOSIG=
201506190450 METAR EGLL 190450Z 29005KT CAVOK 12/07 Q1022 NOSIG=
201506190420 METAR COR EGLL 190420Z 28006KT CAVOK 12/07 Q1022 NOSIG=
201506190350 METAR EGLL 190350Z 30004KT CAVOK 11/07 Q1021 NOSIG=
201506190320 METAR COR EGLL 190320Z 28005KT CAVOK 11/07 Q1021 NOSIG=
201506190250 METAR COR EGLL 190250Z 27006KT CAVOK 11/07 Q1021 NOSIG=
201506190220 METAR COR EGLL 190220Z VRB02KT CAVOK 12/06 Q1022 NOSIG=
201506190150 METAR EGLL 190150Z 30003KT CAVOK 12/06 Q1022 NOSIG=
201506190120 METAR EGLL 190120Z AUTO 30003KT 9999 NCD 13/06 Q1022=
201506190050 METAR EGLL 190050Z AUTO 30004KT 9999 NCD 13/06 Q1022=
201506190020 METAR EGLL 190020Z AUTO 30004KT 270V330 9999 NCD 13/06 Q1022=
201506182350 METAR EGLL 182350Z 31004KT 280V010 CAVOK 13/06 Q1022 NOSIG=
201506182320 METAR COR EGLL 182320Z 31005KT CAVOK 14/06 Q1022 NOSIG=
201506182250 METAR EGLL 182250Z 33005KT 290V010 CAVOK 15/06 Q1022 NOSIG=
201506182220 METAR COR EGLL 182220Z 34006KT 300V020 CAVOK 16/06 Q1021
                        NOSIG=
201506182150 METAR COR EGLL 182150Z 35006KT 310V020 CAVOK 16/08 Q1021
                        NOSIG=
201506182120 METAR COR EGLL 182120Z 35006KT CAVOK 17/09 Q1021 NOSIG=
201506182050 METAR EGLL 182050Z 34006KT 300V010 CAVOK 18/08 Q1021 NOSIG=
201506182020 METAR COR EGLL 182020Z 34004KT 300V020 CAVOK 18/08 Q1020
                        NOSIG=
201506181950 METAR EGLL 181950Z 34007KT 310V010 CAVOK 19/08 Q1020 NOSIG=
201506181920 METAR COR EGLL 181920Z 34007KT 310V030 CAVOK 19/08 Q1020
                        NOSIG=
201506181850 METAR COR EGLL 181850Z 34008KT 300V020 CAVOK 19/08 Q1020
                        NOSIG=
201506181820 METAR COR EGLL 181820Z 34008KT 310V020 9999 FEW048 20/08
                        Q1020 NOSIG=
201506181750 METAR EGLL 181750Z 35007KT 310V030 CAVOK 20/08 Q1020 NOSIG=
201506181720 METAR COR EGLL 181720Z 32008KT 280V010 CAVOK 20/08 Q1020
                        NOSIG=
201506181650 METAR COR EGLL 181650Z 32007KT 290V010 CAVOK 21/07 Q1020
                        NOSIG=
201506181620 METAR COR EGLL 181620Z 35007KT 290V040 CAVOK 21/07 Q1020
                        NOSIG=
201506181550 METAR EGLL 181550Z 33007KT 260V040 CAVOK 21/08 Q1020 NOSIG=
201506181520 METAR COR EGLL 181520Z 30008KT 270V360 9999 FEW049 21/07
                        Q1020 NOSIG=
201506181450 METAR COR EGLL 181450Z 33008KT 280V020 9999 FEW049 21/07
                        Q1020 NOSIG=
201506181420 METAR COR EGLL 181420Z 35007KT 300V050 CAVOK 21/07 Q1020
                        NOSIG=
201506181350 METAR EGLL 181350Z 31006KT 230V010 CAVOK 21/06 Q1020 NOSIG=
201506181320 METAR COR EGLL 181320Z 29007KT 250V020 CAVOK 21/06 Q1021
                        NOSIG=
201506181250 METAR EGLL 181250Z 33007KT 270V070 CAVOK 20/06 Q1021 NOSIG=
201506181220 METAR COR EGLL 181220Z 29009KT 260V330 CAVOK 19/07 Q1021
                        NOSIG=
201506181150 METAR EGLL 181150Z 34007KT 300V030 CAVOK 19/07 Q1021 NOSIG=
201506181120 METAR COR EGLL 181120Z 32008KT 270V020 CAVOK 19/06 Q1021
                        NOSIG=
201506181050 METAR COR EGLL 181050Z 32006KT 230V030 9999 FEW033 18/07
                        Q1021 NOSIG=
201506181020 METAR COR EGLL 181020Z 31008KT 270V030 9999 FEW033 17/07
                        Q1022 NOSIG=
201506180950 METAR COR EGLL 180950Z 32008KT 280V360 9999 SCT033 17/07
                        Q1022 NOSIG=
201506180920 METAR COR EGLL 180920Z 28008KT 180V330 9999 FEW032 16/07
                        Q1022 NOSIG=
201506180850 METAR EGLL 180850Z 35007KT 310V080 9999 SCT032 16/07 Q1022
                        NOSIG=
201506180820 METAR COR EGLL 180820Z 33009KT 300V360 9999 BKN030 15/07
                        Q1022 NOSIG=
201506180750 METAR COR EGLL 180750Z 34007KT 300V060 9999 FEW028 SCT033
                        15/07 Q1022 NOSIG=
201506180720 METAR COR EGLL 180720Z 34009KT 300V020 9999 FEW026 BKN035
                        15/07 Q1022 NOSIG=
201506180650 METAR COR EGLL 180650Z 34008KT 310V020 9999 BKN036 14/08
                        Q1021 NOSIG=
201506180620 METAR COR EGLL 180620Z 34008KT 300V010 9999 FEW024 BKN037
                        15/08 Q1021 NOSIG=
201506180550 METAR EGLL 180550Z 01006KT 9999 BKN038 14/09 Q1021 NOSIG=
201506180520 METAR COR EGLL 180520Z 35008KT 320V030 9999 SCT035 15/09
                        Q1021 NOSIG=
201506180450 METAR COR EGLL 180450Z 35009KT 320V020 9999 SCT035 15/08
                        Q1021 NOSIG=
201506180420 METAR COR EGLL 180420Z 35006KT 310V030 9999 SCT035 15/09
                        Q1020 NOSIG=
201506180350 METAR EGLL 180350Z 33006KT 300V010 9999 SCT030 15/10 Q1020
                        NOSIG=
201506180320 METAR EGLL 180320Z AUTO 34009KT 300V010 9999 SCT017 SCT027
                        16/11 Q1020=
201506180250 METAR COR EGLL 180250Z 31005KT 9999 FEW012 SCT032 17/14 Q1020
                        NOSIG=
201506180220 METAR COR EGLL 180220Z 29006KT 9999 SCT010 SCT020 17/14 Q1020
                        NOSIG=
201506180150 METAR EGLL 180150Z 29006KT 270V330 9999 SCT030 17/14 Q1020
                        NOSIG=
201506180120 METAR EGLL 180120Z AUTO 28010KT 9999 FEW010 BKN018 17/14
                        Q1020=
201506180050 METAR EGLL 180050Z AUTO 28009KT 9999 OVC012 17/15 Q1020=
201506180020 METAR EGLL 180020Z AUTO 28008KT 9999 BKN013 18/15 Q1020=
201506172350 METAR COR EGLL 172350Z 28011KT 250V320 9999 FEW016 SCT018
                        18/15 Q1020 TEMPO BKN014=
201506172320 METAR COR EGLL 172320Z 28010KT 9999 FEW024 SCT037 BKN044
                        18/15 Q1020 TEMPO -SHRA BKN014=
201506172250 METAR COR EGLL 172250Z 27013KT 9999 SCT030 18/15 Q1020 TEMPO
                        -SHRA BKN014=
201506172220 METAR COR EGLL 172220Z 27010KT CAVOK 18/15 Q1020 TEMPO -SHRA
                        BKN014=
201506172150 METAR EGLL 172150Z 27011KT CAVOK 19/15 Q1020 TEMPO -SHRA
                        BKN014=
201506172120 METAR COR EGLL 172120Z 26011KT CAVOK 19/15 Q1020 NOSIG=
201506172050 METAR COR EGLL 172050Z 27012KT CAVOK 20/15 Q1020 TEMPO SHRA=
201506172020 METAR COR EGLL 172020Z 27011KT CAVOK 20/15 Q1020 NOSIG=
201506171950 METAR EGLL 171950Z 28011KT 9999 FEW030 21/15 Q1020 NOSIG=
201506171920 METAR COR EGLL 171920Z 27013KT 9999 FEW030 21/15 Q1020 NOSIG=
201506171850 METAR EGLL 171850Z 26013KT 9999 FEW030 21/15 Q1020 NOSIG=
201506171820 METAR COR EGLL 171820Z 26014KT 9999 FEW027 22/15 Q1020 NOSIG=
201506171750 METAR EGLL 171750Z 26017KT 9999 SCT029 22/15 Q1020 NOSIG=
201506171720 METAR COR EGLL 171720Z 27015KT 9999 SCT028 SCT032 23/15 Q1020
                        NOSIG=
201506171650 METAR EGLL 171650Z 27016KT 9999 BKN028 22/15 Q1021 NOSIG=
201506171620 METAR COR EGLL 171620Z 28016KT 9999 SCT029 SCT033 23/15 Q1021
                        NOSIG=
201506171550 METAR EGLL 171550Z 27018KT 9999 SCT029 SCT034 24/15 Q1021
                        NOSIG=
201506171520 METAR COR EGLL 171520Z 27019G29KT 9999 BKN031 24/15 Q1021
                        NOSIG=
201506171450 METAR COR EGLL 171450Z 26018KT 9999 SCT030 SCT036 25/15 Q1021
                        NOSIG=
201506171420 METAR COR EGLL 171420Z 27015KT 9999 SCT029 SCT035 24/15 Q1022
                        NOSIG=
201506171350 METAR EGLL 171350Z 27016KT 9999 BKN029 24/15 Q1022 NOSIG=
201506171320 METAR COR EGLL 171320Z 26015KT 9999 FEW025 SCT030 24/15 Q1022
                        NOSIG=
201506171250 METAR COR EGLL 171250Z 25013KT 9999 FEW028 22/15 Q1023 NOSIG=
201506171220 METAR COR EGLL 171220Z 27013KT 9999 FEW021 21/14 Q1023 NOSIG=
201506171150 METAR EGLL 171150Z 26015KT 9999 BKN019 21/14 Q1023 NOSIG=
201506171120 METAR COR EGLL 171120Z 26013KT 220V290 9999 BKN018 21/14
                        Q1023 NOSIG=
201506171050 METAR EGLL 171050Z 24011KT 220V280 9999 BKN019 20/14 Q1023
                        NOSIG=
201506171020 METAR COR EGLL 171020Z 25012KT 9999 BKN019 19/13 Q1024 NOSIG=
201506170950 METAR COR EGLL 170950Z 25011KT 220V280 9999 BKN019 19/13
                        Q1024 NOSIG=
201506170920 METAR COR EGLL 170920Z 25011KT 210V280 9999 BKN017 19/13
                        Q1024 NOSIG=
201506170850 METAR EGLL 170850Z 25012KT 9999 BKN016 18/13 Q1024 NOSIG=
201506170820 METAR COR EGLL 170820Z 26009KT 9999 BKN013 16/12 Q1024 BECMG
                        SCT013 BKN018=
201506170750 METAR COR EGLL 170750Z 26011KT 9999 BKN011 16/12 Q1024 BECMG
                        SCT012 BKN015=
201506170720 METAR COR EGLL 170720Z 27009KT 9999 BKN010 15/12 Q1024 BECMG
                        SCT010 BKN015=
201506170650 METAR COR EGLL 170650Z 26008KT 9999 BKN009 14/11 Q1024 BECMG
                        SCT010 BKN015=
201506170620 METAR COR EGLL 170620Z 24007KT 9999 SCT009 SCT042 14/11 Q1024
                        TEMPO BKN012=
201506170550 METAR COR EGLL 170550Z 25008KT 9999 FEW009 SCT010 13/10 Q1025
                        BECMG BKN012=
201506170520 METAR COR EGLL 170520Z 24007KT CAVOK 13/10 Q1024 NOSIG=
201506170450 METAR EGLL 170450Z 23007KT CAVOK 12/09 Q1024 NOSIG=
201506170420 METAR COR EGLL 170420Z 25007KT CAVOK 12/09 Q1024 NOSIG=
201506170350 METAR EGLL 170350Z 24006KT CAVOK 12/09 Q1025 NOSIG=
201506170320 METAR COR EGLL 170320Z 25007KT CAVOK 13/09 Q1025 NOSIG=
201506170250 METAR COR EGLL 170250Z 24006KT CAVOK 12/09 Q1025 NOSIG=
201506170220 METAR COR EGLL 170220Z 23006KT CAVOK 13/09 Q1025 NOSIG=
201506170150 METAR EGLL 170150Z 25007KT CAVOK 14/08 Q1025 NOSIG=
201506170120 METAR EGLL 170120Z AUTO 25006KT 9999 NCD 14/08 Q1026=
201506170050 METAR EGLL 170050Z AUTO 24007KT 9999 NCD 15/08 Q1026=
201506170020 METAR EGLL 170020Z AUTO 25006KT 9999 NCD 16/09 Q1026=
201506162350 METAR COR EGLL 162350Z 25007KT CAVOK 16/09 Q1026 NOSIG=
201506162320 METAR COR EGLL 162320Z 24007KT CAVOK 17/09 Q1025 NOSIG=
201506162250 METAR EGLL 162250Z 27009KT CAVOK 17/08 Q1025 NOSIG=
201506162220 METAR COR EGLL 162220Z 28009KT CAVOK 18/07 Q1025 NOSIG=
201506162150 METAR EGLL 162150Z 27010KT CAVOK 18/09 Q1025 NOSIG=
201506162120 METAR COR EGLL 162120Z 27012KT CAVOK 19/10 Q1025 NOSIG=
201506162050 METAR EGLL 162050Z 27008KT CAVOK 20/09 Q1025 NOSIG=
201506162020 METAR COR EGLL 162020Z 28007KT CAVOK 19/09 Q1024 NOSIG=
201506161950 METAR EGLL 161950Z 28007KT CAVOK 20/09 Q1024 NOSIG=
201506161920 METAR COR EGLL 161920Z 30005KT CAVOK 21/09 Q1024 NOSIG=
201506161850 METAR EGLL 161850Z 30007KT 270V330 CAVOK 22/09 Q1024 NOSIG=
201506161820 METAR COR EGLL 161820Z 28008KT 250V320 CAVOK 22/08 Q1024
                        NOSIG=
201506161750 METAR EGLL 161750Z 26009KT CAVOK 23/08 Q1024 NOSIG=
201506161720 METAR COR EGLL 161720Z 25008KT 220V300 CAVOK 22/09 Q1024
                        NOSIG=
201506161650 METAR EGLL 161650Z 27008KT CAVOK 23/09 Q1024 NOSIG=
201506161620 METAR COR EGLL 161620Z 26009KT 230V300 CAVOK 23/08 Q1024
                        NOSIG=
201506161550 METAR EGLL 161550Z 29009KT 250V330 CAVOK 23/08 Q1024 NOSIG=
201506161520 METAR COR EGLL 161520Z 28007KT 250V310 CAVOK 22/08 Q1024
                        NOSIG=
201506161450 METAR COR EGLL 161450Z 26009KT 240V300 9999 FEW049 23/08
                        Q1025 NOSIG=
201506161420 METAR COR EGLL 161420Z 28008KT 230V310 9999 FEW047 22/09
                        Q1025 NOSIG=
201506161350 METAR EGLL 161350Z 22006KT 160V290 9999 FEW048 22/09 Q1025
                        NOSIG=
201506161320 METAR COR EGLL 161320Z 24006KT 190V290 9999 FEW045 21/10
                        Q1025 NOSIG=
201506161250 METAR EGLL 161250Z 21006KT 140V300 9999 FEW045 22/09 Q1025
                        NOSIG=
201506161220 METAR COR EGLL 161220Z 21007KT 170V250 9999 FEW043 22/09
                        Q1025 NOSIG=
201506161150 METAR EGLL 161150Z VRB05KT 9999 FEW035 22/10 Q1025 NOSIG=
201506161120 METAR COR EGLL 161120Z VRB04G14KT CAVOK 21/10 Q1026 NOSIG=
201506161050 METAR EGLL 161050Z 23005KT 180V270 9999 FEW049 19/10 Q1026
                        NOSIG=
201506161020 METAR COR EGLL 161020Z 26005KT 180V290 9999 FEW049 17/09
                        Q1026 NOSIG=
201506160950 METAR COR EGLL 160950Z 26006KT 220V290 9999 FEW049 17/09
                        Q1026 NOSIG=
201506160920 METAR COR EGLL 160920Z 23005KT 200V270 9999 FEW049 17/09
                        Q1026 NOSIG=
201506160850 METAR EGLL 160850Z 24004KT 190V360 CAVOK 16/08 Q1026 NOSIG=
201506160820 METAR COR EGLL 160820Z 21006KT 150V270 CAVOK 16/08 Q1026
                        NOSIG=
201506160750 METAR EGLL 160750Z 20005KT 160V260 CAVOK 14/07 Q1026 NOSIG=
201506160720 METAR COR EGLL 160720Z 16004KT 130V220 CAVOK 13/07 Q1026
                        NOSIG=
201506160650 METAR EGLL 160650Z VRB05KT CAVOK 12/07 Q1026 NOSIG=
201506160620 METAR COR EGLL 160620Z VRB04KT CAVOK 11/07 Q1026 NOSIG=
201506160550 METAR COR EGLL 160550Z VRB04KT CAVOK 11/07 Q1026 NOSIG=
201506160520 METAR COR EGLL 160520Z VRB04KT CAVOK 11/07 Q1026 NOSIG=
201506160450 METAR EGLL 160450Z 18003KT CAVOK 09/07 Q1025 NOSIG=
201506160420 METAR COR EGLL 160420Z 18003KT CAVOK 09/06 Q1026 NOSIG=
201506160350 METAR COR EGLL 160350Z 15003KT CAVOK 10/06 Q1026 NOSIG=
201506160320 METAR COR EGLL 160320Z 16003KT CAVOK 10/06 Q1025 NOSIG=
201506160250 METAR EGLL 160250Z 16003KT CAVOK 10/06 Q1025 NOSIG=
201506160220 METAR COR EGLL 160220Z 15004KT CAVOK 10/06 Q1026 NOSIG=
201506160150 METAR COR EGLL 160150Z 15003KT CAVOK 10/06 Q1026 NOSIG=
201506160120 METAR EGLL 160120Z AUTO 15004KT 9999 NCD 10/06 Q1026=
201506160050 METAR EGLL 160050Z AUTO 17003KT 9999 NCD 10/06 Q1026=
201506160020 METAR EGLL 160020Z AUTO 15003KT 9999 NCD 10/06 Q1026=
201506152350 METAR COR EGLL 152350Z 14004KT CAVOK 11/06 Q1026 NOSIG=
201506152320 METAR COR EGLL 152320Z 14004KT CAVOK 11/06 Q1026 NOSIG=
201506152250 METAR EGLL 152250Z 13005KT CAVOK 11/06 Q1025 NOSIG=
201506152220 METAR COR EGLL 152220Z 11007KT CAVOK 11/06 Q1025 NOSIG=
201506152150 METAR EGLL 152150Z 11009KT CAVOK 12/06 Q1025 NOSIG=
201506152120 METAR COR EGLL 152120Z 12010KT CAVOK 12/07 Q1025 NOSIG=
201506152050 METAR COR EGLL 152050Z 10009KT CAVOK 13/07 Q1024 NOSIG=
201506152020 METAR COR EGLL 152020Z 10007KT CAVOK 14/07 Q1024 NOSIG=
201506151950 METAR EGLL 151950Z 09009KT 9999 FEW043 15/07 Q1024 NOSIG=
201506151920 METAR COR EGLL 151920Z 09007KT CAVOK 16/07 Q1023 NOSIG=
201506151850 METAR EGLL 151850Z 10006KT 9999 FEW048 16/07 Q1023 NOSIG=
201506151820 METAR COR EGLL 151820Z 10006KT 9999 FEW048 17/07 Q1023 NOSIG=
201506151750 METAR COR EGLL 151750Z 09007KT 040V110 CAVOK 17/07 Q1023
                        NOSIG=
201506151720 METAR COR EGLL 151720Z 11009KT CAVOK 17/06 Q1023 NOSIG=
201506151650 METAR COR EGLL 151650Z 10009KT CAVOK 19/06 Q1022 NOSIG=
201506151620 METAR COR EGLL 151620Z 03006KT 320V060 CAVOK 19/04 Q1022
                        NOSIG=
201506151550 METAR EGLL 151550Z VRB05KT CAVOK 20/04 Q1022 NOSIG=
201506151520 METAR COR EGLL 151520Z 05006KT 360V080 CAVOK 20/05 Q1022
                        NOSIG=
201506151450 METAR COR EGLL 151450Z 04005KT 360V080 CAVOK 19/04 Q1022
                        NOSIG=
201506151420 METAR COR EGLL 151420Z 09007KT 050V120 CAVOK 18/04 Q1022
                        NOSIG=
201506151350 METAR EGLL 151350Z VRB04KT CAVOK 18/04 Q1022 NOSIG=
201506151320 METAR COR EGLL 151320Z VRB05KT CAVOK 18/04 Q1022 NOSIG=
201506151250 METAR EGLL 151250Z 08008KT 040V110 CAVOK 18/04 Q1022 NOSIG=
201506151220 METAR COR EGLL 151220Z 05006KT 010V120 9999 FEW049 18/04
                        Q1022 NOSIG=
201506151150 METAR EGLL 151150Z 08006KT 030V170 9999 FEW049 19/04 Q1022
                        NOSIG=
201506151120 METAR COR EGLL 151120Z 07008KT 360V120 CAVOK 18/05 Q1023
                        NOSIG=
201506151050 METAR COR EGLL 151050Z 09007KT 020V150 9999 FEW048 18/05
                        Q1023 NOSIG=
201506151020 METAR COR EGLL 151020Z 07007KT 350V130 9999 FEW040 17/05
                        Q1023 NOSIG=
201506150950 METAR EGLL 150950Z 10009KT 9999 FEW040 16/06 Q1022 NOSIG=
201506150920 METAR COR EGLL 150920Z 08007KT 040V110 9999 FEW036 15/06
                        Q1022 NOSIG=
201506150850 METAR EGLL 150850Z 07010KT 9999 FEW028 14/07 Q1022 NOSIG=
201506150820 METAR COR EGLL 150820Z 08009KT 030V100 9999 FEW030 14/06
                        Q1022 NOSIG=
201506150750 METAR EGLL 150750Z 06007KT 020V090 9999 FEW034 13/07 Q1022
                        NOSIG=
201506150720 METAR COR EGLL 150720Z 06008KT 9999 FEW030 13/07 Q1022 NOSIG=
201506150650 METAR EGLL 150650Z 06009KT 9999 SCT030 12/07 Q1021 NOSIG=
201506150620 METAR COR EGLL 150620Z 06008KT 9999 SCT025 12/07 Q1021 NOSIG=
201506150550 METAR COR EGLL 150550Z 06006KT 9999 FEW017 BKN024 11/08 Q1021
                        NOSIG=
201506150520 METAR COR EGLL 150520Z 05009KT 9999 FEW016 BKN023 11/08 Q1020
                        NOSIG=
201506150450 METAR EGLL 150450Z 05009KT 010V070 9999 FEW014 BKN021 11/08
                        Q1020 NOSIG=
201506150420 METAR COR EGLL 150420Z 05008KT 360V080 9999 BKN016 11/08
                        Q1020 NOSIG=
201506150350 METAR EGLL 150350Z 05007KT 360V070 9999 BKN014 11/09 Q1019
                        BECMG FEW014 BKN030=
201506150320 METAR COR EGLL 150320Z 05007KT 020V080 9999 BKN012 11/09
                        Q1019 BECMG FEW012 BKN030=
201506150250 METAR EGLL 150250Z 04007KT 9999 FEW010 BKN012 11/09 Q1019
                        BECMG FEW012 BKN030=
201506150220 METAR COR EGLL 150220Z 04007KT 360V080 9999 FEW008 BKN010
                        11/09 Q1019 BECMG FEW010 BKN030=
201506150150 METAR COR EGLL 150150Z 04007KT 350V080 9999 FEW010 BKN012
                        12/09 Q1019 NOSIG=
201506150120 METAR EGLL 150120Z AUTO 04008KT 350V060 9999 OVC011 12/09
                        Q1019=
201506150050 METAR EGLL 150050Z AUTO 04007KT 360V080 9999 OVC011 12/09
                        Q1019=
201506150020 METAR EGLL 150020Z AUTO 05007KT 010V080 9999 BKN012 12/09
                        Q1018=
201506142350 METAR COR EGLL 142350Z 03009KT 360V070 9999 BKN013 12/09
                        Q1018 TEMPO BKN015=
201506142320 METAR COR EGLL 142320Z 05007KT 360V080 9999 BKN014 12/09
                        Q1018 TEMPO BKN015=
201506142250 METAR EGLL 142250Z 03009KT 340V060 9999 BKN016 12/09 Q1018
                        TEMPO BKN014=
201506142220 METAR COR EGLL 142220Z 04006KT 350V070 9999 BKN017 13/09
                        Q1018 TEMPO BKN014=
201506142150 METAR EGLL 142150Z 03007KT 350V060 9999 BKN018 13/09 Q1018
                        TEMPO BKN014=
201506142120 METAR COR EGLL 142120Z 04007KT 9999 BKN018 13/09 Q1017 TEMPO
                        BKN014=
201506142050 METAR EGLL 142050Z 02008KT 340V060 9999 BKN018 13/09 Q1017
                        TEMPO BKN014=
201506142020 METAR COR EGLL 142020Z 03011KT 340V060 9999 BKN017 13/09
                        Q1017 TEMPO BKN014=
201506141950 METAR COR EGLL 141950Z 03009KT 360V070 9999 SCT018 14/09
                        Q1016 TEMPO BKN014=
201506141920 METAR COR EGLL 141920Z 03008KT 350V060 9999 SCT016 14/10
                        Q1016 TEMPO BKN014=
201506141850 METAR EGLL 141850Z 03008KT 340V060 9999 FEW018 BKN047 15/10
                        Q1015 TEMPO BKN014=
201506141820 METAR COR EGLL 141820Z 03006KT 350V050 9999 SCT044 16/10
                        Q1015 TEMPO BKN014=
201506141750 METAR EGLL 141750Z 02009KT 340V050 9999 BKN039 17/10 Q1015
                        TEMPO BKN014=
201506141720 METAR COR EGLL 141720Z 36005KT 310V050 9999 BKN042 17/07
                        Q1014 NOSIG=
201506141650 METAR EGLL 141650Z 36007KT 320V040 9999 BKN046 17/08 Q1014
                        NOSIG=
201506141620 METAR COR EGLL 141620Z 34006KT 310V020 9999 FEW040 BKN046
                        18/08 Q1014 NOSIG=
201506141550 METAR EGLL 141550Z 33007KT 300V010 9999 FEW033 BKN039 18/08
                        Q1014 NOSIG=
201506141520 METAR COR EGLL 141520Z 36008KT 310V020 9999 FEW037 BKN045
                        18/09 Q1014 NOSIG=
201506141450 METAR EGLL 141450Z 32006KT 270V360 9999 BKN044 18/09 Q1014
                        NOSIG=
201506141420 METAR COR EGLL 141420Z 35006KT 310V020 9999 SCT033 SCT038
                        17/09 Q1014 NOSIG=
201506141350 METAR COR EGLL 141350Z 33007KT 270V020 9999 BKN033 17/09
                        Q1014 NOSIG=
201506141320 METAR COR EGLL 141320Z 35006KT 310V050 9999 BKN033 17/09
                        Q1014 NOSIG=
201506141250 METAR COR EGLL 141250Z 35005KT 300V050 9999 SCT026 SCT033
                        17/09 Q1014 NOSIG=
201506141220 METAR COR EGLL 141220Z 01005KT 330V060 9999 FEW018 BKN022
                        16/10 Q1014 NOSIG=
201506141150 METAR COR EGLL 141150Z 02004KT 320V050 9999 FEW013 BKN038
                        15/10 Q1014 NOSIG=
201506141120 METAR COR EGLL 141120Z 36005KT 320V030 9999 SCT013 BKN020
                        14/10 Q1014 NOSIG=
201506141050 METAR EGLL 141050Z 35007KT 310V030 9999 BKN009 13/12 Q1014
                        BECMG BKN016=
201506141020 METAR COR EGLL 141020Z 34006KT 290V020 5000 -DZ SCT005 BKN012
                        12/11 Q1014 BECMG BKN016=
201506140950 METAR COR EGLL 140950Z 32006KT 4800 -DZ FEW006 BKN010 12/11
                        Q1013 BECMG BKN016=
201506140920 METAR COR EGLL 140920Z 34006KT 310V030 5000 -DZ FEW009 BKN013
                        13/11 Q1013 BECMG BKN016=
201506140850 METAR COR EGLL 140850Z 33008KT 300V010 9999 BKN011 13/10
                        Q1013 BECMG BKN016=
201506140820 METAR COR EGLL 140820Z 33006KT 290V010 9000 BKN010 13/10
                        Q1012 NOSIG=
201506140750 METAR COR EGLL 140750Z 33007KT 290V010 8000 BKN009 14/11
                        Q1012 BECMG SCT009 BKN014=
201506140720 METAR COR EGLL 140720Z 30005KT 9000 BKN008 BKN010 14/13 Q1012
                        BECMG SCT008 BKN014=
201506140650 METAR COR EGLL 140650Z 27004KT 7000 FEW005 SCT008 BKN012
                        14/13 Q1012 NOSIG=
201506140620 METAR COR EGLL 140620Z 26005KT 220V290 6000 SCT005 BKN008
                        BKN014 14/12 Q1012 BECMG SCT008 BKN014=
201506140550 METAR COR EGLL 140550Z 23005KT 6000 SCT004 BKN008 BKN014
                        13/12 Q1012 TEMPO 4000 -RADZ BKN004=
201506140520 METAR COR EGLL 140520Z 23005KT 200V260 6000 FEW003 BKN004
                        BKN010 13/12 Q1011 TEMPO SCT004 BKN008=
201506140450 METAR EGLL 140450Z 22006KT 6000 SCT004 BKN010 13/12 Q1011
                        TEMPO BKN004=
201506140420 METAR COR EGLL 140420Z 18006KT 160V260 6000 FEW003 SCT005
                        BKN010 12/11 Q1011 TEMPO 4000 BR
                        SCT003 BKN005=
201506140350 METAR COR EGLL 140350Z VRB06KT 7000 BKN011 12/11 Q1011 TEMPO
                        BKN009=
201506140320 METAR COR EGLL 140320Z 22004KT 9000 SCT011 13/11 Q1011 TEMPO
                        BKN012=
201506140250 METAR COR EGLL 140250Z 20004KT 9000 NSC 13/11 Q1011 TEMPO
                        BKN014=
201506140220 METAR COR EGLL 140220Z 20005KT 9000 FEW021 13/12 Q1011 TEMPO
                        BKN014=
201506140150 METAR COR EGLL 140150Z 21005KT CAVOK 13/12 Q1011 NOSIG=
201506140120 METAR EGLL 140120Z AUTO 22004KT 9999 NCD 13/12 Q1011=
201506140050 METAR EGLL 140050Z AUTO 21005KT 9999 NCD 13/12 Q1012=
201506140020 METAR EGLL 140020Z AUTO 23005KT 9999 BKN032 14/12 Q1012=
201506132350 METAR EGLL 132350Z 22005KT 9999 FEW029 BKN032 15/12 Q1012=
201506132320 METAR COR EGLL 132320Z 20007KT 9999 SCT023 SCT028 15/12 Q1012
                        NOSIG=
201506132250 METAR COR EGLL 132250Z 22006KT 9999 FEW029 SCT048 15/12 Q1012
                        NOSIG=
201506132220 METAR COR EGLL 132220Z 22007KT 9999 SCT025 SCT043 16/12 Q1012
                        NOSIG=
201506132150 METAR EGLL 132150Z 22007KT 9999 SCT025 SCT048 16/12 Q1011
                        NOSIG=
201506132120 METAR COR EGLL 132120Z VRB03KT 9999 FEW021 BKN026 17/13 Q1011
                        NOSIG=
201506132050 METAR EGLL 132050Z 30003KT 9999 SCT023 BKN029 17/13 Q1011
                        NOSIG=
201506132020 METAR COR EGLL 132020Z VRB03KT 9999 SCT021 SCT028 17/13 Q1011
                        NOSIG=
201506131950 METAR EGLL 131950Z VRB03KT 9999 FEW023 SCT028 18/12 Q1011
                        NOSIG=
201506131920 METAR COR EGLL 131920Z 31005KT 9999 SCT028 SCT049 18/12 Q1011
                        NOSIG=
201506131850 METAR COR EGLL 131850Z 31006KT 9999 SCT023 SCT048 18/13 Q1011
                        NOSIG=
201506131820 METAR COR EGLL 131820Z 30007KT 9999 FEW024 SCT048 19/13 Q1010
                        NOSIG=
201506131750 METAR COR EGLL 131750Z 29008KT 9999 FEW025 BKN045 19/13 Q1010
                        NOSIG=
201506131720 METAR COR EGLL 131720Z 28009KT 9999 SCT042 SCT047 19/13 Q1010
                        NOSIG=
201506131650 METAR COR EGLL 131650Z 28007KT 250V320 9999 BKN043 19/12
                        Q1010 NOSIG=
201506131620 METAR COR EGLL 131620Z 27009KT 9999 BKN043 19/13 Q1010 NOSIG=
201506131550 METAR EGLL 131550Z 29009KT 9999 FEW033 BKN042 19/12 Q1010
                        NOSIG=
201506131520 METAR COR EGLL 131520Z 28011KT 9999 SCT029 BKN040 20/12 Q1010
                        NOSIG=
201506131450 METAR COR EGLL 131450Z 27012KT 9999 FEW023 SCT028 BKN043
                        20/12 Q1010 NOSIG=
201506131420 METAR COR EGLL 131420Z 26011KT 9999 SCT019 BKN025 19/12 Q1010
                        NOSIG=
201506131350 METAR EGLL 131350Z 24012KT 9999 SCT018 BKN022 18/13 Q1010
                        NOSIG=
201506131320 METAR COR EGLL 131320Z 25013KT 9999 SCT014 BKN017 17/13 Q1010
                        NOSIG=
201506131250 METAR EGLL 131250Z 25011KT 9999 FEW010 SCT014 BKN016 17/13
                        Q1010 NOSIG=
201506131220 METAR COR EGLL 131220Z 25013KT 9999 FEW009 SCT013 BKN015
                        16/13 Q1010 TEMPO BKN014=
201506131150 METAR EGLL 131150Z 25013KT 9999 FEW008 BKN009 15/13 Q1010
                        BECMG BKN010=
201506131120 METAR COR EGLL 131120Z 24012KT 9999 FEW008 BKN009 15/13 Q1010
                        BECMG BKN010=
201506131050 METAR COR EGLL 131050Z 25014KT 9999 BKN009 16/13 Q1009 BECMG
                        BKN010=
201506131020 METAR COR EGLL 131020Z 25014KT 9999 BKN008 15/13 Q1009 BECMG
                        BKN010=
201506130950 METAR COR EGLL 130950Z 24011KT 9999 BKN008 16/13 Q1009 BECMG
                        BKN010=
201506130920 METAR COR EGLL 130920Z 24013KT 9999 BKN009 16/13 Q1009 BECMG
                        BKN010=
201506130850 METAR COR EGLL 130850Z 24012KT 9999 BKN009 15/13 Q1008 BECMG
                        BKN010=
201506130820 METAR COR EGLL 130820Z 24013KT 9999 BKN007 15/13 Q1008 BECMG
                        BKN010=
201506130750 METAR COR EGLL 130750Z 24014KT 9999 BKN007 15/13 Q1008 BECMG
                        BKN010=
201506130720 METAR COR EGLL 130720Z 24012KT 9999 BKN008 15/13 Q1008 BECMG
                        BKN010=
201506130650 METAR COR EGLL 130650Z 23011KT 9999 BKN007 15/13 Q1007 NOSIG=
201506130620 METAR COR EGLL 130620Z 24012KT 9999 BKN008 15/13 Q1007 NOSIG=
201506130550 METAR COR EGLL 130550Z 24012KT 9999 BKN008 15/13 Q1007 NOSIG=
201506130520 METAR COR EGLL 130520Z 23012KT 8000 FEW005 BKN007 15/14 Q1007
                        NOSIG=
201506130450 METAR EGLL 130450Z 24010KT 9000 FEW005 BKN007 15/14 Q1007
                        NOSIG=
201506130420 METAR COR EGLL 130420Z 23010KT 5000 BR FEW004 SCT005 BKN007
                        15/14 Q1007 TEMPO 3000 -RADZ BKN004=
201506130350 METAR EGLL 130350Z 24011KT 4800 HZ SCT004 BKN006 15/14 Q1006
                        TEMPO 5000 SCT008 BKN010=
201506130320 METAR COR EGLL 130320Z 27007KT 4100 HZ FEW004 BKN006 16/15
                        Q1006 TEMPO 5000 SCT006 BKN010=
201506130250 METAR COR EGLL 130250Z 26006KT 4100 -RA FEW005 BKN008 16/15
                        Q1006 TEMPO 5000 NSW SCT008 BKN012=
201506130220 METAR COR EGLL 130220Z 24008KT 4100 -RA FEW007 SCT009 BKN015
                        16/15 Q1006 BECMG BKN012=
201506130150 METAR COR EGLL 130150Z 26009KT 6000 SCT007 BKN029 16/15 Q1006
                        TEMPO BKN012=
201506130120 METAR EGLL 130120Z AUTO 26010KT 6000 SCT007/// BKN024///
                        //////CB 17/15 Q1006=
201506130050 METAR EGLL 130050Z AUTO 26009KT 8000 SCT013/// BKN016///
                        //////CB 17/15 Q1006=
201506130020 METAR EGLL 130020Z AUTO 24009KT 8000 BKN007/// //////CB 18/16
                        Q1006=
201506122350 METAR COR EGLL 122350Z 18007KT 6000 SCT006 SCT008 18/17 Q1006
                        TEMPO 4000 SHRA=
201506122320 METAR COR EGLL 122320Z VRB02KT 4400 HZ SCT006 SCT008 18/17
                        Q1006 TEMPO TSRA=
201506122250 METAR COR EGLL 122250Z 13004KT 100V170 4400 HZ SCT006 SCT028
                        18/17 Q1006 TEMPO TSRA=
201506122220 METAR COR EGLL 122220Z 10004KT 3000 HZ FEW012 SCT029 18/17
                        Q1006 TEMPO TSRA=
201506122150 METAR EGLL 122150Z 13006KT 5000 HZ FEW009 SCT015 18/17 Q1006
                        TEMPO 4000 TSRA=
201506122120 METAR COR EGLL 122120Z 10004KT 6000 NSC 18/16 Q1006 TEMPO
                        4000 TSRA=
201506122050 METAR EGLL 122050Z 06004KT 020V120 7000 FEW045 19/16 Q1006
                        TEMPO 3000 TSRA=
201506122020 METAR COR EGLL 122020Z 10005KT 9000 VCSH FEW039CB 20/16 Q1006
                        TEMPO 4000 TSRA=
201506121950 METAR COR EGLL 121950Z 11009KT 9999 VCSH SCT039CB 22/15 Q1006
                        TEMPO 4000 TSRA=
201506121920 METAR COR EGLL 121920Z 10007KT 9999 VCSH FEW039 FEW055TCU
                        23/15 Q1006 TEMPO 4000 TSRA=
201506121850 METAR COR EGLL 121850Z 07005KT 020V110 9999 VCSH FEW049 SCT056TCU
                        24/15 Q1006 TEMPO 4000 TSRA=
201506121820 METAR COR EGLL 121820Z VRB03KT 9999 FEW049 24/15 Q1006 TEMPO
                        4000 TSRA=
201506121750 METAR COR EGLL 121750Z 08004KT 9999 FEW049 23/14 Q1006 TEMPO
                        SHRA=
201506121720 METAR COR EGLL 121720Z 09007KT 9999 FEW049 24/14 Q1006 TEMPO
                        SHRA=
201506121650 METAR COR EGLL 121650Z 14004KT 9999 FEW049 23/15 Q1006 TEMPO
                        SHRA=
201506121620 METAR COR EGLL 121620Z 15004KT 9999 -SHRA FEW049 23/16 Q1006
                        NOSIG=
201506121550 METAR EGLL 121550Z 10005KT 9999 -SHRA FEW032 22/17 Q1007
                        NOSIG=
201506121520 METAR COR EGLL 121520Z 10006KT 9999 FEW032 23/15 Q1007 NOSIG=
201506121450 METAR COR EGLL 121450Z 10005KT 070V140 9999 FEW046 24/15
                        Q1007 TEMPO SHRA=
201506121420 METAR COR EGLL 121420Z 10008KT 040V140 9999 VCSH FEW046 25/14
                        Q1008 TEMPO SHRA=
201506121350 METAR COR EGLL 121350Z 05007KT 9999 FEW044 25/14 Q1008 NOSIG=
201506121320 METAR COR EGLL 121320Z 05006KT 010V100 9999 FEW043 25/14
                        Q1008 NOSIG=
201506121250 METAR COR EGLL 121250Z 06006KT 9999 FEW043 23/14 Q1008 NOSIG=
201506121220 METAR COR EGLL 121220Z 06007KT 020V090 9999 SCT043 23/13
                        Q1009 NOSIG=
201506121150 METAR EGLL 121150Z 09007KT 9999 SCT043 22/13 Q1009 NOSIG=
201506121120 METAR COR EGLL 121120Z 09008KT 050V110 9999 FEW047 22/13
                        Q1009 NOSIG=
201506121050 METAR COR EGLL 121050Z 07007KT 030V100 CAVOK 22/12 Q1009
                        NOSIG=
201506121020 METAR COR EGLL 121020Z 05006KT 020V090 9999 SCT044 22/12
                        Q1010 NOSIG=
201506120950 METAR COR EGLL 120950Z VRB03KT 9999 SCT044 21/12 Q1010 NOSIG=
201506120920 METAR COR EGLL 120920Z 08005KT 040V120 9999 SCT046 20/11
                        Q1010 NOSIG=
201506120850 METAR COR EGLL 120850Z VRB03KT CAVOK 19/11 Q1010 NOSIG=
201506120820 METAR COR EGLL 120820Z 10005KT 060V120 CAVOK 18/11 Q1011
                        NOSIG=
201506120750 METAR COR EGLL 120750Z 07006KT 030V090 CAVOK 17/11 Q1011
                        TEMPO SHRA=
201506120720 METAR COR EGLL 120720Z 07006KT 030V090 CAVOK 17/12 Q1011
                        TEMPO SHRA=
201506120650 METAR COR EGLL 120650Z 07005KT 040V100 9999 -RA NSC 16/11
                        Q1011 TEMPO SHRA=
201506120620 METAR COR EGLL 120620Z 05006KT 010V090 CAVOK 15/11 Q1010
                        TEMPO SHRA=
201506120550 METAR EGLL 120550Z 04006KT 360V070 CAVOK 14/10 Q1010 TEMPO
                        SHRA=
201506120520 METAR COR EGLL 120520Z 05005KT 340V080 CAVOK 14/10 Q1011
                        TEMPO SHRA=
201506120450 METAR EGLL 120450Z 04005KT 9999 FEW048 13/10 Q1011 TEMPO
                        SHRA=
201506120420 METAR COR EGLL 120420Z 05006KT 9999 BKN048 13/10 Q1011 TEMPO
                        SHRA=
201506120350 METAR EGLL 120350Z 05004KT 020V080 9999 SCT048 13/10 Q1011
                        TEMPO SHRA=
201506120320 METAR COR EGLL 120320Z 04005KT 9999 FEW048 13/10 Q1011 TEMPO
                        SHRA=
201506120250 METAR COR EGLL 120250Z 04005KT 9999 FEW047 13/10 Q1011 TEMPO
                        SHRA=
201506120220 METAR COR EGLL 120220Z 05005KT CAVOK 14/10 Q1012 TEMPO TSRA=
201506120150 METAR EGLL 120150Z 05006KT CAVOK 14/10 Q1012 TEMPO TSRA=
201506120120 METAR EGLL 120120Z AUTO 06006KT 9999 NCD 14/10 Q1012=
201506120050 METAR EGLL 120050Z AUTO 06007KT 9999 NCD 15/10 Q1013=
201506120020 METAR EGLL 120020Z AUTO 05006KT 9999 NCD 15/10 Q1013=
201506112350 METAR EGLL 112350Z 06006KT CAVOK 15/10 Q1013 NOSIG=
201506112320 METAR COR EGLL 112320Z 05007KT 010V080 CAVOK 16/09 Q1014
                        NOSIG=
201506112250 METAR EGLL 112250Z 06007KT CAVOK 16/09 Q1014 NOSIG=
201506112220 METAR COR EGLL 112220Z 07008KT CAVOK 17/09 Q1014 NOSIG=
201506112150 METAR COR EGLL 112150Z 06009KT CAVOK 17/09 Q1014 NOSIG=
201506112120 METAR COR EGLL 112120Z 07011KT CAVOK 18/09 Q1014 NOSIG=
201506112050 METAR COR EGLL 112050Z 07011KT CAVOK 18/09 Q1014 NOSIG=
201506112020 METAR COR EGLL 112020Z 07008KT CAVOK 18/08 Q1014 NOSIG=
201506111950 METAR COR EGLL 111950Z 07008KT CAVOK 19/08 Q1014 NOSIG=
201506111920 METAR COR EGLL 111920Z 07009KT CAVOK 20/07 Q1014 NOSIG=
201506111850 METAR COR EGLL 111850Z 06010KT CAVOK 21/08 Q1014 NOSIG=
201506111820 METAR COR EGLL 111820Z 06011KT CAVOK 21/07 Q1015 NOSIG=
201506111750 METAR COR EGLL 111750Z 07012KT CAVOK 22/08 Q1015 NOSIG=
201506111720 METAR EGLL 111720Z 10014KT CAVOK 22/08 Q1015=
201506111650 METAR EGLL 111650Z 11015KT CAVOK 22/08 Q1015 NOSIG=
201506111620 METAR EGLL 111620Z 10016KT CAVOK 23/08 Q1015=
201506111550 METAR COR EGLL 111550Z 10016KT CAVOK 23/08 Q1016 NOSIG=
201506111520 METAR EGLL 111520Z 10016KT CAVOK 23/08 Q1016=
201506111450 METAR EGLL 111450Z 09015KT CAVOK 23/08 Q1016 NOSIG=
201506111420 METAR COR EGLL 111420Z 09014KT CAVOK 23/08 Q1017 NOSIG=
201506111350 METAR COR EGLL 111350Z 08014KT 040V110 CAVOK 23/09 Q1017
                        NOSIG=
201506111320 METAR COR EGLL 111320Z 09014KT CAVOK 23/08 Q1017 NOSIG=
201506111250 METAR COR EGLL 111250Z 10014KT CAVOK 23/08 Q1018 NOSIG=
201506111220 METAR COR EGLL 111220Z 10014KT CAVOK 23/08 Q1018 NOSIG=
201506111150 METAR EGLL 111150Z 09015KT 060V130 CAVOK 22/09 Q1018 NOSIG=
201506111120 METAR COR EGLL 111120Z 10017KT CAVOK 22/09 Q1019 NOSIG=
201506111050 METAR EGLL 111050Z 09015KT CAVOK 22/09 Q1019 NOSIG=
201506111020 METAR COR EGLL 111020Z 08015KT 060V120 CAVOK 22/09 Q1019
                        NOSIG=
201506110950 METAR EGLL 110950Z 07012KT 040V110 CAVOK 21/10 Q1020 NOSIG=
201506110920 METAR COR EGLL 110920Z 08010KT 040V110 CAVOK 20/10 Q1020
                        NOSIG=
201506110850 METAR EGLL 110850Z 07010KT CAVOK 19/10 Q1020 NOSIG=
201506110820 METAR COR EGLL 110820Z 07010KT 040V100 CAVOK 18/10 Q1021
                        NOSIG=
201506110750 METAR EGLL 110750Z 08009KT CAVOK 17/10 Q1021 NOSIG=
201506110720 METAR COR EGLL 110720Z 07009KT CAVOK 15/10 Q1021 NOSIG=
201506110650 METAR EGLL 110650Z 07009KT 040V100 9999 FEW015 14/10 Q1021
                        NOSIG=
201506110620 METAR COR EGLL 110620Z 07009KT 9999 FEW012 13/09 Q1021 NOSIG=
201506110550 METAR EGLL 110550Z 06007KT 030V100 9999 FEW012 12/09 Q1021
                        NOSIG=
201506110520 METAR COR EGLL 110520Z 06006KT 030V090 9999 FEW011 11/08
                        Q1021 NOSIG=
201506110450 METAR COR EGLL 110450Z 05008KT 020V080 CAVOK 10/08 Q1021
                        NOSIG=
201506110420 METAR COR EGLL 110420Z 06007KT CAVOK 10/08 Q1022 NOSIG=
201506110350 METAR COR EGLL 110350Z 05006KT CAVOK 10/07 Q1022 NOSIG=
201506110320 METAR COR EGLL 110320Z 05005KT CAVOK 10/07 Q1023 NOSIG=
201506110250 METAR COR EGLL 110250Z 05004KT CAVOK 10/07 Q1023 NOSIG=
201506110220 METAR COR EGLL 110220Z 04005KT CAVOK 10/07 Q1023 NOSIG=
201506110150 METAR EGLL 110150Z 05004KT CAVOK 10/07 Q1024 NOSIG=
201506110120 METAR EGLL 110120Z AUTO 05006KT 010V080 9999 NCD 10/07 Q1024=
201506110050 METAR EGLL 110050Z AUTO 06008KT 9999 NCD 11/07 Q1024=
201506110020 METAR EGLL 110020Z AUTO 06008KT 9999 NCD 11/06 Q1025=
201506102350 METAR COR EGLL 102350Z 06008KT CAVOK 11/06 Q1025 NOSIG=
201506102320 METAR COR EGLL 102320Z 06009KT CAVOK 11/06 Q1025 NOSIG=
201506102250 METAR EGLL 102250Z 06008KT CAVOK 12/06 Q1025 NOSIG=
201506102220 METAR COR EGLL 102220Z 06009KT CAVOK 13/06 Q1025 NOSIG=
201506102150 METAR EGLL 102150Z 06011KT CAVOK 13/06 Q1025 NOSIG=
201506102120 METAR COR EGLL 102120Z 06010KT CAVOK 14/07 Q1025 NOSIG=
201506102050 METAR COR EGLL 102050Z 06010KT CAVOK 14/06 Q1025 NOSIG=
201506102020 METAR COR EGLL 102020Z 06013KT CAVOK 15/05 Q1025 NOSIG=
201506101950 METAR EGLL 101950Z 06012KT CAVOK 15/05 Q1025 NOSIG=
201506101920 METAR COR EGLL 101920Z 06011KT CAVOK 16/05 Q1025 NOSIG=
201506101850 METAR COR EGLL 101850Z 06012KT 9999 FEW048 17/05 Q1025 NOSIG=
201506101820 METAR COR EGLL 101820Z 06012KT 030V090 9999 FEW048 17/05
                        Q1025 NOSIG=
201506101750 METAR COR EGLL 101750Z 06012KT CAVOK 18/05 Q1025 NOSIG=
201506101720 METAR COR EGLL 101720Z 06012G24KT 9999 FEW047 18/05 Q1025
                        NOSIG=
201506101650 METAR EGLL 101650Z 08011KT CAVOK 18/05 Q1025 NOSIG=
201506101620 METAR COR EGLL 101620Z 07013KT 040V100 CAVOK 19/04 Q1026
                        NOSIG=
201506101550 METAR EGLL 101550Z 07012KT 9999 FEW049 18/05 Q1026 NOSIG=
201506101520 METAR COR EGLL 101520Z 07012KT 9999 FEW048 18/04 Q1026 NOSIG=
201506101450 METAR COR EGLL 101450Z 06011KT 020V110 9999 FEW049 18/04
                        Q1026 NOSIG=
201506101420 METAR EGLL 101420Z 06013KT 9999 FEW045 SCT047 18/05 Q1027=
201506101350 METAR EGLL 101350Z 07011KT 9999 FEW042 SCT048 18/05 Q1027=
201506101320 METAR COR EGLL 101320Z 06010KT 010V080 9999 SCT040 SCT048
                        17/06 Q1028 NOSIG=
201506101250 METAR COR EGLL 101250Z 06009KT 020V100 9999 SCT041 SCT048
                        17/05 Q1028 NOSIG=
201506101220 METAR COR EGLL 101220Z 05009KT 360V080 9999 SCT045 SCT047
                        16/06 Q1028 NOSIG=
201506101150 METAR COR EGLL 101150Z 07011KT 9999 SCT038 BKN045 16/05 Q1029
                        NOSIG=
201506101120 METAR COR EGLL 101120Z 05008KT 020V080 9999 FEW035 BKN046
                        15/06 Q1029 NOSIG=
201506101050 METAR EGLL 101050Z 06010KT 9999 FEW037 BKN046 15/05 Q1029
                        NOSIG=
201506101020 METAR COR EGLL 101020Z 05010KT 350V080 9999 FEW041 BKN046
                        16/05 Q1029 NOSIG=
201506100950 METAR EGLL 100950Z 06008KT 020V100 9999 SCT037 SCT044 15/05
                        Q1029 NOSIG=
201506100920 METAR COR EGLL 100920Z 05010KT 020V090 9999 SCT034 SCT039
                        14/05 Q1029 NOSIG=
201506100850 METAR EGLL 100850Z 03008KT 340V070 9999 FEW034 14/05 Q1029
                        NOSIG=
201506100820 METAR COR EGLL 100820Z 04010KT 360V090 9999 SCT039 14/05
                        Q1030 NOSIG=
201506100750 METAR EGLL 100750Z 04011KT 9999 BKN036 13/05 Q1030 NOSIG=
201506100720 METAR COR EGLL 100720Z 05010KT 9999 BKN036 12/05 Q1030 NOSIG=
201506100650 METAR EGLL 100650Z 04010KT 360V060 9999 BKN037 11/05 Q1030
                        NOSIG=
201506100620 METAR COR EGLL 100620Z 04010KT 360V070 9999 BKN037 11/04
                        Q1030 NOSIG=
201506100550 METAR EGLL 100550Z 03011KT 9999 BKN038 11/04 Q1030 NOSIG=
201506100520 METAR COR EGLL 100520Z 04009KT 350V060 9999 BKN036 10/04
                        Q1030 NOSIG=
201506100450 METAR EGLL 100450Z 03008KT 9999 BKN036 10/04 Q1030 NOSIG=
201506100420 METAR COR EGLL 100420Z 03007KT 350V060 9999 BKN038 10/04
                        Q1030 NOSIG=
201506100350 METAR EGLL 100350Z 03007KT 9999 BKN038 10/04 Q1030 NOSIG=
201506100320 METAR COR EGLL 100320Z 04006KT 360V070 9999 BKN034 10/04
                        Q1030 NOSIG=
201506100250 METAR COR EGLL 100250Z 04007KT 010V070 9999 BKN034 10/04
                        Q1030 NOSIG=
201506100220 METAR COR EGLL 100220Z 04007KT 9999 BKN035 10/04 Q1030 NOSIG=
201506100150 METAR EGLL 100150Z 03007KT 9999 BKN036 10/04 Q1031=
201506100120 METAR EGLL 100120Z AUTO 04008KT 010V070 9999 BKN036 10/04
                        Q1031=
201506100050 METAR EGLL 100050Z AUTO 03007KT 360V070 9999 BKN037 10/03
                        Q1031=
201506100020 METAR EGLL 100020Z AUTO 03007KT 9999 BKN037 10/03 Q1031=
201506092350 METAR EGLL 092350Z 04008KT 9999 SCT032 11/03 Q1032 NOSIG=
201506092320 METAR COR EGLL 092320Z 05008KT 9999 BKN038 11/03 Q1032 NOSIG=
201506092250 METAR EGLL 092250Z 05008KT 360V080 9999 BKN040 11/03 Q1032
                        NOSIG=
201506092220 METAR COR EGLL 092220Z 06010KT 9999 BKN036 11/03 Q1032 NOSIG=
201506092150 METAR EGLL 092150Z 05010KT 9999 BKN032 12/04 Q1032 NOSIG=
201506092120 METAR COR EGLL 092120Z 05010KT 010V080 9999 BKN034 12/04
                        Q1032 NOSIG=
201506092050 METAR EGLL 092050Z 04010KT 9999 FEW035 BKN043 12/04 Q1032
                        NOSIG=
201506092020 METAR COR EGLL 092020Z 04009KT 360V070 9999 BKN041 12/04
                        Q1031 NOSIG=
201506091950 METAR COR EGLL 091950Z 05010KT 9999 FEW039 BKN045 13/03 Q1031
                        NOSIG=
201506091920 METAR COR EGLL 091920Z 06010KT 020V080 9999 BKN043 13/03
                        Q1031 NOSIG=
201506091850 METAR EGLL 091850Z 04011KT 360V080 9999 OVC040 13/03 Q1031
                        NOSIG=
201506091820 METAR COR EGLL 091820Z 04010KT 010V080 9999 SCT040 BKN046
                        13/04 Q1031 NOSIG=
201506091750 METAR COR EGLL 091750Z 06011KT 9999 BKN040 14/04 Q1031 NOSIG=
201506091720 METAR COR EGLL 091720Z 05011KT 010V080 9999 FEW039 BKN046
                        14/04 Q1031 NOSIG=
201506091650 METAR EGLL 091650Z 04011KT 360V070 9999 FEW039 15/04 Q1031
                        NOSIG=
201506091620 METAR COR EGLL 091620Z 05010KT 020V100 9999 FEW040 14/04
                        Q1031 NOSIG=
201506091550 METAR EGLL 091550Z 04013KT 010V070 9999 FEW041 14/03 Q1032
                        NOSIG=
201506091520 METAR COR EGLL 091520Z 01010KT 9999 SCT047 15/03 Q1032 NOSIG=
201506091450 METAR COR EGLL 091450Z 03011G23KT 360V070 9999 FEW044 14/03
                        Q1032 NOSIG=
201506091420 METAR COR EGLL 091420Z 04010KT 9999 FEW043 14/03 Q1032 NOSIG=
201506091350 METAR COR EGLL 091350Z 05010KT 010V090 9999 FEW040 15/04
                        Q1032 NOSIG=
201506091320 METAR COR EGLL 091320Z 05009KT 010V080 9999 SCT039 BKN049
                        14/04 Q1033 NOSIG=
201506091250 METAR EGLL 091250Z 04012KT 010V090 9999 FEW038 15/04 Q1033
                        NOSIG=
201506091220 METAR COR EGLL 091220Z 04011KT 010V070 9999 FEW043 SCT047
                        13/04 Q1033 NOSIG=
201506091150 METAR EGLL 091150Z 04010KT 010V080 9999 FEW044 14/04 Q1033
                        NOSIG=
201506091120 METAR COR EGLL 091120Z 04010KT 360V070 9999 FEW032 SCT044
                        13/05 Q1033 NOSIG=
201506091050 METAR COR EGLL 091050Z 04009KT 360V080 9999 SCT044 14/04
                        Q1033 NOSIG=
201506091020 METAR COR EGLL 091020Z 05009KT 010V080 9999 SCT042 14/03
                        Q1033 NOSIG=
201506090950 METAR EGLL 090950Z 04009KT 340V070 9999 FEW037 13/03 Q1033
                        NOSIG=
201506090920 METAR COR EGLL 090920Z 04011KT 010V070 9999 SCT039 13/04
                        Q1033 NOSIG=
201506090850 METAR EGLL 090850Z 04010KT 010V070 9999 SCT031 13/04 Q1033
                        NOSIG=
201506090820 METAR COR EGLL 090820Z 04009KT 010V090 9999 FEW028 12/05
                        Q1033 NOSIG=
201506090750 METAR COR EGLL 090750Z 04010KT 9999 FEW025 12/05 Q1034 NOSIG=
201506090720 METAR COR EGLL 090720Z 04009KT 360V070 9999 FEW042 10/05
                        Q1034 NOSIG=
201506090650 METAR EGLL 090650Z 03011KT 350V060 9999 FEW042 10/04 Q1034
                        NOSIG=
201506090620 METAR COR EGLL 090620Z 03009KT 350V060 9999 FEW041 09/05
                        Q1034 NOSIG=
201506090550 METAR COR EGLL 090550Z 03007KT 340V060 9999 FEW030 09/05
                        Q1033 NOSIG=
201506090520 METAR COR EGLL 090520Z 04007KT 350V060 9999 FEW030 08/05
                        Q1033 NOSIG=
201506090450 METAR COR EGLL 090450Z 02006KT 340V060 9999 FEW048 08/04
                        Q1033 NOSIG=
201506090420 METAR COR EGLL 090420Z 02007KT 330V050 9999 FEW048 07/04
                        Q1033 NOSIG=
201506090350 METAR COR EGLL 090350Z 01006KT 340V050 9999 FEW048 07/04
                        Q1033 NOSIG=
201506090320 METAR EGLL 090320Z 02005KT 340V050 CAVOK 07/04 Q1033=
201506090250 METAR COR EGLL 090250Z 36006KT 330V030 CAVOK 07/04 Q1034
                        NOSIG=
201506090220 METAR COR EGLL 090220Z 01005KT 340V040 CAVOK 08/04 Q1034
                        NOSIG=
201506090150 METAR EGLL 090150Z AUTO 03006KT 9999 NCD 08/04 Q1034=
201506090120 METAR EGLL 090120Z AUTO 02006KT 340V050 9999 NCD 08/05 Q1034=
201506090050 METAR EGLL 090050Z AUTO 02005KT 350V050 9999 NCD 08/05 Q1034=
201506090020 METAR EGLL 090020Z 03005KT CAVOK 09/04 Q1034=
201506082350 METAR COR EGLL 082350Z 04007KT 360V060 CAVOK 09/04 Q1034
                        NOSIG=
201506082320 METAR COR EGLL 082320Z 04007KT 010V070 CAVOK 10/04 Q1034
                        NOSIG=
201506082250 METAR EGLL 082250Z 05007KT 020V080 CAVOK 11/04 Q1034 NOSIG=
201506082220 METAR COR EGLL 082220Z 05007KT 010V070 CAVOK 11/04 Q1034
                        NOSIG=
201506082150 METAR COR EGLL 082150Z 05008KT CAVOK 12/05 Q1034 NOSIG=
201506082120 METAR COR EGLL 082120Z 06010KT 9999 FEW036 12/05 Q1033 NOSIG=
201506082050 METAR EGLL 082050Z 07009KT 9999 FEW039 SCT049 13/05 Q1033
                        NOSIG=
201506082020 METAR COR EGLL 082020Z 06008KT 9999 SCT033 SCT044 13/06 Q1033
                        NOSIG=
201506081950 METAR EGLL 081950Z 07010KT 9999 FEW031 SCT039 13/07 Q1032
                        NOSIG=
201506081920 METAR COR EGLL 081920Z 07008KT 9999 FEW031 SCT039 14/07 Q1032
                        NOSIG=
201506081850 METAR EGLL 081850Z 08010KT 9999 BKN031 BKN045 14/07 Q1032
                        NOSIG=
201506081820 METAR COR EGLL 081820Z 07011KT 9999 SCT031 BKN036 15/07 Q1032
                        NOSIG=
201506081750 METAR COR EGLL 081750Z 08008KT 050V110 9999 FEW037 15/07
                        Q1032 NOSIG=
201506081720 METAR COR EGLL 081720Z 07009KT 050V110 9999 FEW036 15/06
                        Q1032 NOSIG=
201506081650 METAR EGLL 081650Z 07010KT 030V100 9999 FEW038 15/07 Q1032
                        NOSIG=
201506081620 METAR COR EGLL 081620Z 05012KT 9999 FEW044 16/05 Q1031 NOSIG=
201506081550 METAR COR EGLL 081550Z 06008KT 020V090 CAVOK 17/04 Q1031
                        NOSIG=
201506081520 METAR COR EGLL 081520Z 07009KT CAVOK 17/04 Q1032 NOSIG=
201506081450 METAR COR EGLL 081450Z 06008KT 020V080 CAVOK 16/04 Q1032
                        NOSIG=
201506081420 METAR COR EGLL 081420Z 05010KT CAVOK 18/04 Q1032 NOSIG=
201506081350 METAR EGLL 081350Z 04009KT 360V080 CAVOK 18/02 Q1032 NOSIG=
201506081320 METAR COR EGLL 081320Z 05008KT 010V080 CAVOK 18/03 Q1032
                        NOSIG=
201506081250 METAR EGLL 081250Z 04007KT 360V100 CAVOK 18/03 Q1033 NOSIG=
201506081220 METAR COR EGLL 081220Z 06008KT 010V090 CAVOK 17/03 Q1033
                        NOSIG=
201506081150 METAR EGLL 081150Z 36006KT 330V040 CAVOK 17/02 Q1033 NOSIG=
201506081120 METAR COR EGLL 081120Z 03006KT 340V080 CAVOK 17/02 Q1033
                        NOSIG=
201506081050 METAR EGLL 081050Z 07008KT 360V100 CAVOK 18/02 Q1033 NOSIG=
201506081020 METAR COR EGLL 081020Z 05007KT 020V090 9999 FEW044 17/03
                        Q1033 NOSIG=
201506080950 METAR EGLL 080950Z 06007KT 350V100 9999 FEW042 17/06 Q1033
                        NOSIG=
201506080920 METAR COR EGLL 080920Z 05005KT 340V090 9999 FEW036 16/07
                        Q1034 NOSIG=
201506080850 METAR EGLL 080850Z 03005KT 340V090 9999 FEW032 15/07 Q1034
                        NOSIG=
201506080820 METAR COR EGLL 080820Z 03005KT 330V070 CAVOK 15/06 Q1034
                        NOSIG=
201506080750 METAR COR EGLL 080750Z 36005KT 320V040 CAVOK 13/06 Q1034
                        NOSIG=
201506080720 METAR COR EGLL 080720Z 02005KT 310V080 CAVOK 13/06 Q1034
                        NOSIG=
201506080650 METAR COR EGLL 080650Z 02005KT 330V060 CAVOK 12/06 Q1034
                        NOSIG=
201506080620 METAR COR EGLL 080620Z 01004KT 340V050 CAVOK 12/06 Q1034
                        NOSIG=
201506080550 METAR EGLL 080550Z 02005KT 340V050 CAVOK 11/05 Q1034 NOSIG=
201506080520 METAR COR EGLL 080520Z 02004KT 340V060 CAVOK 10/05 Q1034
                        NOSIG=
201506080450 METAR COR EGLL 080450Z 36005KT 330V030 CAVOK 10/05 Q1033
                        NOSIG=
201506080420 METAR COR EGLL 080420Z 36005KT CAVOK 09/05 Q1033 NOSIG=
201506080350 METAR COR EGLL 080350Z VRB03KT CAVOK 09/05 Q1033 NOSIG=
201506080320 METAR COR EGLL 080320Z 36004KT CAVOK 10/05 Q1033 NOSIG=
201506080250 METAR EGLL 080250Z 36004KT CAVOK 10/05 Q1033 NOSIG=
201506080220 METAR COR EGLL 080220Z 35004KT CAVOK 10/06 Q1034 NOSIG=
201506080150 METAR EGLL 080150Z 36003KT CAVOK 10/07 Q1034 NOSIG=
201506080120 METAR EGLL 080120Z AUTO 36004KT 9999 NCD 11/07 Q1034=
201506080050 METAR EGLL 080050Z AUTO 36003KT 9999 NCD 11/07 Q1034=
201506080020 METAR EGLL 080020Z AUTO 35004KT 9999 NCD 12/07 Q1034=
201506072350 METAR COR EGLL 072350Z 36004KT CAVOK 12/07 Q1034 NOSIG=
201506072320 METAR COR EGLL 072320Z 35003KT CAVOK 12/07 Q1033 NOSIG=
201506072250 METAR EGLL 072250Z VRB02KT CAVOK 11/08 Q1033 NOSIG=
201506072220 METAR COR EGLL 072220Z 04003KT CAVOK 13/07 Q1033 NOSIG=
201506072150 METAR EGLL 072150Z 04005KT CAVOK 15/04 Q1033 NOSIG=
201506072120 METAR COR EGLL 072120Z 36005KT CAVOK 15/03 Q1032 NOSIG=
201506072050 METAR COR EGLL 072050Z 35003KT CAVOK 16/03 Q1032 NOSIG=
201506072020 METAR COR EGLL 072020Z 01005KT 330V040 CAVOK 17/03 Q1032
                        NOSIG=
201506071950 METAR EGLL 071950Z 36006KT 320V040 CAVOK 17/03 Q1032 NOSIG=
201506071920 METAR COR EGLL 071920Z 36006KT 330V030 CAVOK 18/02 Q1031
                        NOSIG=
201506071850 METAR EGLL 071850Z 01007KT CAVOK 18/01 Q1031 NOSIG=
201506071820 METAR COR EGLL 071820Z 34008KT 300V020 CAVOK 19/02 Q1031
                        NOSIG=
201506071750 METAR EGLL 071750Z 35008KT CAVOK 19/02 Q1031 NOSIG=
201506071720 METAR COR EGLL 071720Z 35007KT 300V040 CAVOK 19/02 Q1031
                        NOSIG=
201506071650 METAR EGLL 071650Z 01006KT 330V060 CAVOK 19/01 Q1031 NOSIG=
201506071620 METAR COR EGLL 071620Z 32006KT 280V010 CAVOK 20/02 Q1031
                        NOSIG=
201506071550 METAR COR EGLL 071550Z 35007KT 300V030 CAVOK 20/01 Q1031
                        NOSIG=
201506071520 METAR COR EGLL 071520Z 32008KT 280V010 CAVOK 20/02 Q1031
                        NOSIG=
201506071450 METAR COR EGLL 071450Z VRB06KT CAVOK 20/02 Q1031 NOSIG=
201506071420 METAR COR EGLL 071420Z 02006KT 320V090 CAVOK 20/03 Q1031
                        NOSIG=
201506071350 METAR EGLL 071350Z 31006KT 250V010 CAVOK 19/03 Q1032 NOSIG=
201506071320 METAR COR EGLL 071320Z 30007KT 250V010 CAVOK 19/03 Q1032
                        NOSIG=
201506071250 METAR EGLL 071250Z 35004KT 250V070 CAVOK 19/03 Q1032 NOSIG=
201506071220 METAR COR EGLL 071220Z VRB05KT CAVOK 19/03 Q1032 NOSIG=
201506071150 METAR COR EGLL 071150Z VRB03KT 9999 FEW048 18/04 Q1032 NOSIG=
201506071120 METAR COR EGLL 071120Z VRB05KT 9999 FEW048 18/04 Q1032 NOSIG=
201506071050 METAR EGLL 071050Z 32005G15KT 270V020 9999 SCT044 17/04 Q1032
                        NOSIG=
201506071020 METAR COR EGLL 071020Z 34005KT 300V100 9999 SCT042 17/05
                        Q1032 NOSIG=
201506070950 METAR EGLL 070950Z 34005KT 290V070 9999 SCT044 17/05 Q1032
                        NOSIG=
201506070920 METAR COR EGLL 070920Z 36005KT 280V070 9999 FEW040 16/05
                        Q1032 NOSIG=
201506070850 METAR COR EGLL 070850Z 32007KT 290V010 9999 FEW044 16/05
                        Q1032 NOSIG=
201506070820 METAR COR EGLL 070820Z 35005KT 310V050 9999 FEW036 15/06
                        Q1032 NOSIG=
201506070750 METAR COR EGLL 070750Z 02004KT 310V070 9999 FEW028 15/07
                        Q1032 NOSIG=
201506070720 METAR COR EGLL 070720Z 34005KT 290V040 CAVOK 13/07 Q1031
                        NOSIG=
201506070650 METAR COR EGLL 070650Z 34005KT 290V020 CAVOK 12/07 Q1031
                        NOSIG=
201506070620 METAR COR EGLL 070620Z 30005KT CAVOK 11/07 Q1031 NOSIG=
201506070550 METAR EGLL 070550Z VRB03KT CAVOK 10/07 Q1031 NOSIG=
201506070520 METAR COR EGLL 070520Z VRB02KT CAVOK 09/06 Q1031 NOSIG=
201506070450 METAR COR EGLL 070450Z VRB03KT CAVOK 08/06 Q1031 NOSIG=
201506070420 METAR COR EGLL 070420Z 29003KT CAVOK 07/06 Q1030 NOSIG=
201506070350 METAR COR EGLL 070350Z 30003KT CAVOK 07/05 Q1030 NOSIG=
201506070320 METAR COR EGLL 070320Z 27005KT CAVOK 08/06 Q1030 NOSIG=
201506070250 METAR EGLL 070250Z AUTO 28003KT 9999 NCD 09/06 Q1030=
201506070220 METAR COR EGLL 070220Z 28004KT CAVOK 08/06 Q1030 NOSIG=
201506070150 METAR COR EGLL 070150Z 28005KT CAVOK 09/06 Q1030 NOSIG=
201506070120 METAR EGLL 070120Z AUTO 27004KT 9999 NCD 09/06 Q1030=
201506070050 METAR EGLL 070050Z AUTO 29006KT 9999 NCD 09/05 Q1030=
201506070020 METAR EGLL 070020Z AUTO 28006KT 9999 NCD 09/05 Q1030=
201506062350 METAR COR EGLL 062350Z 27008KT CAVOK 10/05 Q1029 NOSIG=
201506062320 METAR COR EGLL 062320Z 27008KT CAVOK 11/05 Q1029 NOSIG=
201506062250 METAR COR EGLL 062250Z 27009KT CAVOK 11/05 Q1029 NOSIG=
201506062220 METAR COR EGLL 062220Z 27010KT CAVOK 11/04 Q1029 NOSIG=
201506062150 METAR EGLL 062150Z 28009KT CAVOK 12/04 Q1029 NOSIG=
201506062120 METAR COR EGLL 062120Z 27011KT CAVOK 13/03 Q1028 NOSIG=
201506062050 METAR COR EGLL 062050Z 27012KT CAVOK 13/02 Q1028 NOSIG=
201506062020 METAR COR EGLL 062020Z 28011KT CAVOK 14/02 Q1027 NOSIG=
201506061950 METAR COR EGLL 061950Z 29010KT CAVOK 15/03 Q1027 NOSIG=
201506061920 METAR COR EGLL 061920Z 28014KT CAVOK 16/03 Q1026 NOSIG=
201506061850 METAR COR EGLL 061850Z 29013KT CAVOK 16/03 Q1026 NOSIG=
201506061820 METAR COR EGLL 061820Z 28014KT CAVOK 17/03 Q1026 NOSIG=
201506061750 METAR COR EGLL 061750Z 27015KT CAVOK 18/04 Q1026 NOSIG=
201506061720 METAR COR EGLL 061720Z 27015KT CAVOK 18/04 Q1026 NOSIG=
201506061650 METAR EGLL 061650Z 27015KT CAVOK 18/03 Q1025 NOSIG=
201506061620 METAR COR EGLL 061620Z 26014KT 240V300 CAVOK 19/03 Q1025
                        NOSIG=
201506061550 METAR EGLL 061550Z 27015KT CAVOK 18/03 Q1025 NOSIG=
201506061520 METAR COR EGLL 061520Z 26017KT CAVOK 19/03 Q1025 NOSIG=
201506061450 METAR COR EGLL 061450Z 27014KT 230V290 CAVOK 19/02 Q1025
                        NOSIG=
201506061420 METAR COR EGLL 061420Z 27016KT CAVOK 19/03 Q1025 NOSIG=
201506061350 METAR EGLL 061350Z 27015KT CAVOK 19/03 Q1025 NOSIG=
201506061320 METAR COR EGLL 061320Z 26015KT CAVOK 20/02 Q1025 NOSIG=
201506061250 METAR EGLL 061250Z 26016KT CAVOK 19/01 Q1025 NOSIG=
201506061220 METAR COR EGLL 061220Z 27014KT CAVOK 19/03 Q1025 NOSIG=
201506061150 METAR COR EGLL 061150Z 25016KT CAVOK 18/03 Q1025 NOSIG=
201506061120 METAR COR EGLL 061120Z 24016KT 9999 FEW048 17/03 Q1025 NOSIG=
201506061050 METAR EGLL 061050Z 24016KT 9999 SCT048 17/03 Q1025 NOSIG=
201506061020 METAR COR EGLL 061020Z 25016KT 9999 SCT045 17/04 Q1025 NOSIG=
201506060950 METAR EGLL 060950Z 25015KT 9999 SCT045 15/04 Q1025 NOSIG=
201506060920 METAR COR EGLL 060920Z 25015KT 9999 SCT042 16/04 Q1025 NOSIG=
201506060850 METAR EGLL 060850Z 26015KT 9999 FEW040 16/04 Q1024 NOSIG=
201506060820 METAR COR EGLL 060820Z 25015KT 9999 FEW036 15/05 Q1024 NOSIG=
201506060750 METAR EGLL 060750Z 26014KT 9999 FEW030 14/06 Q1024 NOSIG=
201506060720 METAR COR EGLL 060720Z 26015KT 9999 FEW032 14/06 Q1024 NOSIG=
201506060650 METAR EGLL 060650Z 25013KT 9999 FEW028 13/06 Q1024 NOSIG=
201506060620 METAR COR EGLL 060620Z 26013KT CAVOK 12/06 Q1024 NOSIG=
201506060550 METAR EGLL 060550Z 24009KT CAVOK 10/06 Q1023 NOSIG=
201506060520 METAR COR EGLL 060520Z 23006KT CAVOK 09/06 Q1023 NOSIG=
201506060450 METAR COR EGLL 060450Z 22006KT 190V250 CAVOK 09/06 Q1023
                        NOSIG=
201506060420 METAR COR EGLL 060420Z 22005KT 190V250 CAVOK 09/06 Q1022
                        NOSIG=
201506060350 METAR EGLL 060350Z 21005KT 180V250 CAVOK 08/06 Q1022 NOSIG=
201506060320 METAR COR EGLL 060320Z 22006KT CAVOK 09/06 Q1022 NOSIG=
201506060250 METAR EGLL 060250Z 24007KT CAVOK 09/06 Q1022 NOSIG=
201506060220 METAR COR EGLL 060220Z 26006KT CAVOK 09/06 Q1022 NOSIG=
201506060150 METAR COR EGLL 060150Z 27008KT CAVOK 10/06 Q1022 NOSIG=
201506060120 METAR EGLL 060120Z AUTO 27008KT 9999 NCD 10/06 Q1021=
201506060050 METAR EGLL 060050Z AUTO 27008KT 9999 NCD 10/06 Q1021=
201506060020 METAR EGLL 060020Z AUTO 27010KT 9999 NCD 10/06 Q1021=
201506052350 METAR COR EGLL 052350Z 27009KT CAVOK 10/06 Q1020 NOSIG=
201506052320 METAR COR EGLL 052320Z 27010KT CAVOK 11/06 Q1020 NOSIG=
201506052250 METAR EGLL 052250Z 27010KT CAVOK 11/06 Q1020 NOSIG=
201506052220 METAR COR EGLL 052220Z 27014KT CAVOK 12/06 Q1019 NOSIG=
201506052150 METAR EGLL 052150Z 27012KT CAVOK 12/05 Q1019 NOSIG=
201506052120 METAR COR EGLL 052120Z 27012KT CAVOK 13/05 Q1019 NOSIG=
201506052050 METAR EGLL 052050Z 27012KT CAVOK 14/05 Q1019 NOSIG=
201506052020 METAR COR EGLL 052020Z 27013KT CAVOK 15/04 Q1018 NOSIG=
201506051950 METAR COR EGLL 051950Z 28011KT 9999 FEW028 15/05 Q1017 NOSIG=
201506051920 METAR COR EGLL 051920Z 27012KT 9999 FEW028 16/09 Q1017 NOSIG=
201506051850 METAR EGLL 051850Z 27015KT 9999 FEW028 17/10 Q1016 NOSIG=
201506051820 METAR COR EGLL 051820Z 28015KT 9999 FEW028 18/11 Q1016 NOSIG=
201506051750 METAR EGLL 051750Z 28018KT 9999 FEW034 20/12 Q1015 NOSIG=
201506051720 METAR COR EGLL 051720Z 26017KT 9999 FEW043 23/11 Q1014 NOSIG=
201506051650 METAR EGLL 051650Z 25016KT 9999 FEW044 23/11 Q1014 NOSIG=
201506051620 METAR COR EGLL 051620Z 24016KT 9999 FEW036 23/11 Q1014 NOSIG=
201506051550 METAR EGLL 051550Z 25014KT 9999 SCT033 23/14 Q1014 NOSIG=
201506051520 METAR COR EGLL 051520Z 24012KT 200V280 9999 SCT035 23/14
                        Q1014 NOSIG=
201506051450 METAR COR EGLL 051450Z 24013KT 200V260 9999 SCT035 23/13
                        Q1014 NOSIG=
201506051420 METAR COR EGLL 051420Z 25011KT 220V280 9999 FEW032 24/14
                        Q1015 NOSIG=
201506051350 METAR COR EGLL 051350Z 23009KT 190V260 9999 FEW036 23/14
                        Q1015 NOSIG=
201506051320 METAR COR EGLL 051320Z 24008KT 190V280 9999 FEW070TCU 22/13
                        Q1015 NOSIG=
201506051250 METAR COR EGLL 051250Z 22008KT 180V260 CAVOK 23/14 Q1015
                        NOSIG=
201506051220 METAR COR EGLL 051220Z 23008KT 9999 FEW021 21/14 Q1015 NOSIG=
201506051150 METAR EGLL 051150Z 24010KT 9999 FEW021 21/14 Q1015 NOSIG=
201506051120 METAR COR EGLL 051120Z 25010KT 9999 FEW025 20/15 Q1015 NOSIG=
201506051050 METAR COR EGLL 051050Z 23011KT 9999 FEW023 20/15 Q1015 TEMPO
                        SHRA=
201506051020 METAR COR EGLL 051020Z 24010KT 200V260 9999 FEW016 20/16
                        Q1015 TEMPO SHRA=
201506050950 METAR EGLL 050950Z 25012KT 9999 FEW048 20/16 Q1015 TEMPO
                        SHRA=
201506050920 METAR COR EGLL 050920Z 23013KT 9999 FEW020 21/16 Q1014 TEMPO
                        SHRA=
201506050850 METAR EGLL 050850Z 20008KT 180V270 CAVOK 20/16 Q1014 TEMPO
                        SHRA=
201506050820 METAR COR EGLL 050820Z 13005KT 100V170 9999 FEW048 19/16
                        Q1013 TEMPO SHRA=
201506050750 METAR COR EGLL 050750Z VRB04KT 9999 -SHRA FEW048 18/15 Q1014
                        TEMPO SHRA=
201506050720 METAR COR EGLL 050720Z 11008KT 9999 FEW045 17/15 Q1013 TEMPO
                        SHRA=
201506050650 METAR COR EGLL 050650Z VRB03KT 9999 FEW045 17/14 Q1014 NOSIG=
201506050620 METAR COR EGLL 050620Z 21004KT 180V250 9999 VCSH FEW020 16/14
                        Q1015 TEMPO SHRA=
201506050550 METAR EGLL 050550Z VRB03KT 9999 FEW045 16/14 Q1014 TEMPO
                        SHRA=
201506050520 METAR COR EGLL 050520Z 10005KT 9999 -SHRA FEW016CB SCT033
                        15/13 Q1014 RESHRA TEMPO TSRA=
201506050450 METAR EGLL 050450Z 13004KT 100V160 9999 SHRA SCT042CB 16/12
                        Q1015 TEMPO +TSRA=
201506050420 METAR COR EGLL 050420Z 09007KT 9999 VCSH SCT048CB 16/11 Q1014
                        TEMPO TS=
201506050350 METAR COR EGLL 050350Z 09006KT 9999 SCT048CB 15/11 Q1015
                        TEMPO TS=
201506050320 METAR COR EGLL 050320Z 08005KT 9999 FEW048CB 15/11 Q1015
                        TEMPO TS=
201506050250 METAR EGLL 050250Z 06005KT 9999 BKN048CB 15/11 Q1016 TEMPO
                        SHRA=
201506050220 METAR EGLL 050220Z AUTO 07005KT 9999 BKN049 15/10 Q1016=
201506050150 METAR EGLL 050150Z AUTO 07004KT 9999 BKN049 15/11 Q1016=
201506050120 METAR EGLL 050120Z AUTO 06004KT 9999 NCD 15/10 Q1017=
201506050050 METAR EGLL 050050Z AUTO 07004KT 9999 NCD 14/10 Q1017=
201506050020 METAR EGLL 050020Z AUTO 08005KT 9999 NCD 14/10 Q1018=
201506042350 METAR EGLL 042350Z AUTO 09005KT 9999 NCD 14/10 Q1018=
201506042320 METAR EGLL 042320Z AUTO 09007KT 9999 NCD 15/10 Q1018=
201506042250 METAR COR EGLL 042250Z 09005KT CAVOK 15/10 Q1019 NOSIG=
201506042220 METAR COR EGLL 042220Z 10007KT CAVOK 16/10 Q1019 NOSIG=
201506042150 METAR EGLL 042150Z 09007KT CAVOK 16/10 Q1019 NOSIG=
201506042120 METAR COR EGLL 042120Z 10007KT CAVOK 16/10 Q1019 NOSIG=
201506042050 METAR EGLL 042050Z 11005KT CAVOK 17/10 Q1020 NOSIG=
201506042020 METAR COR EGLL 042020Z 13007KT CAVOK 18/10 Q1020 NOSIG=
201506041950 METAR EGLL 041950Z 15006KT CAVOK 19/09 Q1020 NOSIG=
201506041920 METAR COR EGLL 041920Z 16007KT CAVOK 20/09 Q1020 NOSIG=
201506041850 METAR EGLL 041850Z 16008KT 130V190 CAVOK 20/08 Q1020 NOSIG=
201506041820 METAR COR EGLL 041820Z 15010KT CAVOK 21/06 Q1020 NOSIG=
201506041750 METAR EGLL 041750Z AUTO 14010KT 110V180 9999 NCD 22/02 Q1021=
201506041720 METAR COR EGLL 041720Z 12012KT 090V160 CAVOK 22/04 Q1021
                        NOSIG=
201506041650 METAR EGLL 041650Z 14010KT CAVOK 22/05 Q1021 NOSIG=
201506041620 METAR COR EGLL 041620Z 15010KT 100V180 CAVOK 23/04 Q1021
                        NOSIG=
201506041550 METAR COR EGLL 041550Z 15010KT 100V170 CAVOK 23/04 Q1021
                        NOSIG=
201506041520 METAR EGLL 041520Z 12009KT CAVOK 23/05 Q1022=
201506041450 METAR COR EGLL 041450Z 14007KT 060V200 CAVOK 23/07 Q1022
                        NOSIG=
201506041420 METAR COR EGLL 041420Z 12010KT CAVOK 23/07 Q1023 NOSIG=
201506041350 METAR COR EGLL 041350Z 15009KT 110V180 CAVOK 23/06 Q1023
                        NOSIG=
201506041320 METAR COR EGLL 041320Z 14008KT 110V190 CAVOK 22/07 Q1023
                        NOSIG=
201506041250 METAR COR EGLL 041250Z 17008KT 070V240 CAVOK 22/07 Q1024
                        NOSIG=
201506041220 METAR COR EGLL 041220Z 13007KT 080V170 CAVOK 22/07 Q1024
                        NOSIG=
201506041150 METAR EGLL 041150Z 16009KT 130V200 CAVOK 22/06 Q1024 NOSIG=
201506041120 METAR COR EGLL 041120Z 16010KT CAVOK 21/06 Q1025 NOSIG=
201506041050 METAR EGLL 041050Z 15008KT 130V200 CAVOK 21/06 Q1025 NOSIG=
201506041020 METAR COR EGLL 041020Z 15008KT 120V180 CAVOK 20/06 Q1025
                        NOSIG=
201506040950 METAR COR EGLL 040950Z 17007KT 130V200 CAVOK 20/06 Q1026
                        NOSIG=
201506040920 METAR COR EGLL 040920Z 09006KT 030V130 CAVOK 19/06 Q1026
                        NOSIG=
201506040850 METAR EGLL 040850Z 13006KT 080V190 CAVOK 18/07 Q1026 NOSIG=
201506040820 METAR COR EGLL 040820Z 11005KT 360V140 CAVOK 17/06 Q1026
                        NOSIG=
201506040750 METAR EGLL 040750Z 11004KT 360V140 CAVOK 16/07 Q1027 NOSIG=
201506040720 METAR COR EGLL 040720Z VRB03KT CAVOK 16/07 Q1027 NOSIG=
201506040650 METAR EGLL 040650Z VRB02KT CAVOK 15/07 Q1027 NOSIG=
201506040620 METAR COR EGLL 040620Z VRB02KT CAVOK 14/07 Q1027 NOSIG=
201506040550 METAR EGLL 040550Z VRB02KT CAVOK 12/08 Q1027 NOSIG=
201506040520 METAR COR EGLL 040520Z VRB02KT CAVOK 11/07 Q1027 NOSIG=
201506040450 METAR EGLL 040450Z 00000KT CAVOK 09/07 Q1026 NOSIG=
201506040420 METAR COR EGLL 040420Z 35002KT CAVOK 09/07 Q1026 NOSIG=
201506040350 METAR EGLL 040350Z VRB02KT CAVOK 09/07 Q1026 NOSIG=
201506040320 METAR COR EGLL 040320Z VRB03KT CAVOK 09/07 Q1027 NOSIG=
201506040250 METAR EGLL 040250Z 18002KT CAVOK 09/07 Q1027 NOSIG=
201506040220 METAR COR EGLL 040220Z 00000KT CAVOK 09/06 Q1027 NOSIG=
201506040150 METAR EGLL 040150Z 00000KT CAVOK 09/06 Q1027 NOSIG=
201506040120 METAR EGLL 040120Z AUTO 28003KT 9999 NCD 10/06 Q1027=
201506040050 METAR EGLL 040050Z AUTO 28004KT 9999 NCD 11/05 Q1027=
201506040020 METAR EGLL 040020Z AUTO 27004KT 9999 NCD 11/05 Q1027=
201506032350 METAR COR EGLL 032350Z 29004KT CAVOK 11/05 Q1027 NOSIG=
201506032320 METAR COR EGLL 032320Z 28002KT CAVOK 12/05 Q1027 NOSIG=
201506032250 METAR COR EGLL 032250Z 32002KT CAVOK 12/05 Q1027 NOSIG=
201506032220 METAR COR EGLL 032220Z 33003KT CAVOK 12/05 Q1027 NOSIG=
201506032150 METAR EGLL 032150Z 32004KT CAVOK 14/04 Q1026 NOSIG=
201506032120 METAR COR EGLL 032120Z 29005KT CAVOK 14/05 Q1026 NOSIG=
201506032050 METAR EGLL 032050Z 28007KT CAVOK 14/05 Q1026 NOSIG=
201506032020 METAR COR EGLL 032020Z 29005KT CAVOK 15/05 Q1026 NOSIG=
201506031950 METAR COR EGLL 031950Z 30004KT CAVOK 16/04 Q1025 NOSIG=
201506031920 METAR COR EGLL 031920Z 29005KT CAVOK 17/04 Q1025 NOSIG=
201506031850 METAR EGLL 031850Z 27009KT CAVOK 17/04 Q1025 NOSIG=
201506031820 METAR COR EGLL 031820Z 28007KT 240V320 CAVOK 18/04 Q1025
                        NOSIG=
201506031750 METAR COR EGLL 031750Z 28008KT 250V310 CAVOK 18/04 Q1025
                        NOSIG=
201506031720 METAR COR EGLL 031720Z 28005KT 240V310 CAVOK 18/04 Q1024
                        NOSIG=
201506031650 METAR EGLL 031650Z 28010KT 250V310 CAVOK 18/04 Q1024 NOSIG=
201506031620 METAR COR EGLL 031620Z 28007KT 240V310 CAVOK 19/04 Q1024
                        NOSIG=
201506031550 METAR EGLL 031550Z 30005G15KT 250V360 CAVOK 19/05 Q1024 NOSIG=
201506031520 METAR COR EGLL 031520Z 27011KT CAVOK 18/04 Q1024 NOSIG=
201506031450 METAR EGLL 031450Z 27012KT CAVOK 18/04 Q1024 NOSIG=
201506031420 METAR COR EGLL 031420Z 28009KT 250V310 CAVOK 19/04 Q1024
                        NOSIG=
201506031350 METAR EGLL 031350Z 28009KT 230V340 CAVOK 19/04 Q1024=
201506031320 METAR COR EGLL 031320Z 28009KT 240V330 CAVOK 19/04 Q1023
                        NOSIG=
201506031250 METAR EGLL 031250Z 26010KT CAVOK 18/04 Q1023 NOSIG=
201506031220 METAR COR EGLL 031220Z 27011KT 240V300 CAVOK 18/04 Q1023
                        NOSIG=
201506031150 METAR COR EGLL 031150Z 25012KT 220V290 CAVOK 18/04 Q1023
                        NOSIG=
201506031120 METAR COR EGLL 031120Z 27011KT 230V320 9999 SCT048 18/04
                        Q1022 NOSIG=
201506031050 METAR COR EGLL 031050Z 26011KT 9999 SCT044 17/05 Q1022 NOSIG=
201506031020 METAR COR EGLL 031020Z 26011KT 9999 SCT042 16/05 Q1022 NOSIG=
201506030950 METAR EGLL 030950Z 29009KT 9999 SCT037 15/07 Q1021 NOSIG=
201506030920 METAR COR EGLL 030920Z 27013KT 9999 SCT046 16/06 Q1021 NOSIG=
201506030850 METAR COR EGLL 030850Z 26013KT 9999 SCT032 SCT045 14/06 Q1021
                        NOSIG=
201506030820 METAR COR EGLL 030820Z 27011KT 9999 SCT030 15/07 Q1020 NOSIG=
201506030750 METAR COR EGLL 030750Z 26012KT 240V300 9999 FEW024 14/07
                        Q1020 NOSIG=
201506030720 METAR COR EGLL 030720Z 27013KT 9999 FEW022 14/07 Q1019 NOSIG=
201506030650 METAR COR EGLL 030650Z 26014KT 9999 FEW023 13/08 Q1018 NOSIG=
201506030620 METAR COR EGLL 030620Z 25013KT 9999 FEW016 13/08 Q1018 NOSIG=
201506030550 METAR EGLL 030550Z 26010KT 9999 FEW016 12/08 Q1017 NOSIG=
201506030520 METAR COR EGLL 030520Z 25012KT 9999 FEW041 12/08 Q1017 NOSIG=
201506030450 METAR EGLL 030450Z 23011KT 9999 FEW033 12/08 Q1016 NOSIG=
201506030420 METAR COR EGLL 030420Z 23011KT 9999 FEW036 12/08 Q1016 NOSIG=
201506030350 METAR EGLL 030350Z 23010KT CAVOK 12/08 Q1015 NOSIG=
201506030320 METAR EGLL 030320Z 23009KT CAVOK 11/08 Q1015=
201506030250 METAR COR EGLL 030250Z 23011KT CAVOK 12/08 Q1015 NOSIG=
201506030220 METAR COR EGLL 030220Z 23011KT CAVOK 12/08 Q1014 NOSIG=
201506030150 METAR EGLL 030150Z 23011KT CAVOK 12/08 Q1014 NOSIG=
201506030120 METAR EGLL 030120Z AUTO 23011KT 9999 NCD 12/08 Q1014=
201506030050 METAR EGLL 030050Z AUTO 22011KT 9999 NCD 12/08 Q1014=
201506030020 METAR EGLL 030020Z AUTO 23011KT 9999 NCD 13/08 Q1013=
201506022350 METAR COR EGLL 022350Z 23012KT 220V280 CAVOK 13/08 Q1013
                        NOSIG=
201506022320 METAR COR EGLL 022320Z 24011KT 9999 FEW042 14/07 Q1013 NOSIG=
201506022250 METAR EGLL 022250Z 24011KT 9999 FEW047 14/07 Q1012 NOSIG=
201506022220 METAR COR EGLL 022220Z 24014KT 9999 FEW039 14/09 Q1012 NOSIG=
201506022150 METAR EGLL 022150Z 24017KT CAVOK 14/10 Q1011 NOSIG=
201506022120 METAR COR EGLL 022120Z 23013KT CAVOK 14/10 Q1011 NOSIG=
201506022050 METAR EGLL 022050Z 23014KT 9999 FEW023 14/10 Q1010 NOSIG=
201506022020 METAR COR EGLL 022020Z 22012KT 9999 SCT033 SCT048 15/10 Q1010
                        NOSIG=
201506021950 METAR EGLL 021950Z 23013KT 9999 -SHRA SCT027 SCT042 15/10
                        Q1010 NOSIG=
201506021920 METAR COR EGLL 021920Z 23013G23KT 9999 SCT034 SCT048 16/10
                        Q1009 NOSIG=
201506021850 METAR COR EGLL 021850Z 26021KT 9999 SCT038 17/09 Q1009 NOSIG=
201506021820 METAR COR EGLL 021820Z 25019G31KT 9999 SCT033 18/10 Q1008
                        NOSIG=
201506021750 METAR COR EGLL 021750Z 24018KT 9999 SCT030 17/10 Q1008 NOSIG=
201506021720 METAR COR EGLL 021720Z 23018KT 9999 SCT030 SCT038 17/11 Q1007
                        NOSIG=
201506021650 METAR COR EGLL 021650Z 23020KT 9999 SCT033 SCT040 18/11 Q1007
                        NOSIG=
201506021620 METAR COR EGLL 021620Z 23019KT 9999 SCT030 SCT039 19/12 Q1006
                        NOSIG=
201506021550 METAR EGLL 021550Z 23021KT 9999 SCT026 SCT035 19/12 Q1006
                        NOSIG=
201506021520 METAR COR EGLL 021520Z 23018KT 9999 SCT028 SCT040 18/12 Q1006
                        NOSIG=
201506021450 METAR COR EGLL 021450Z 23023KT 9999 FEW023 BKN036 18/12 Q1005
                        NOSIG=
201506021420 METAR COR EGLL 021420Z 22021G32KT 9999 SCT024 SCT030 18/13
                        Q1005 TEMPO -RA BKN014=
201506021350 METAR COR EGLL 021350Z 23020KT 9999 SCT017 BKN026 17/13 Q1005
                        TEMPO -RA BKN012=
201506021320 METAR COR EGLL 021320Z 22018KT 9999 SCT012 BKN016 16/13 Q1005
                        TEMPO -RA BKN012=
201506021250 METAR EGLL 021250Z 22018G29KT 9000 -RA SCT012 BKN014 15/14
                        Q1004 TEMPO BKN016=
201506021220 METAR COR EGLL 021220Z 22016KT 9999 FEW009 SCT010 BKN013
                        15/14 Q1004 NOSIG=
201506021150 METAR EGLL 021150Z 22017KT 8000 -RADZ FEW010 SCT012 BKN014
                        15/13 Q1004 TEMPO BKN016=
201506021120 METAR COR EGLL 021120Z 22020KT 9999 FEW010 BKN013 15/13 Q1004
                        TEMPO NOSIG=
201506021050 METAR COR EGLL 021050Z 23017KT 9999 SCT012 BKN014 16/13 Q1003
                        NOSIG=
201506021020 METAR COR EGLL 021020Z 23019KT 9999 SCT016 BKN018 17/13 Q1003
                        NOSIG=
201506020950 METAR COR EGLL 020950Z 23019KT 9999 SCT012 BKN016 16/13 Q1003
                        TEMPO BKN012=
201506020920 METAR COR EGLL 020920Z 22017KT 9999 FEW010 BKN012 16/13 Q1003
                        NOSIG=
201506020850 METAR COR EGLL 020850Z 22017KT 9999 FEW008 BKN010 BKN012
                        15/13 Q1003 NOSIG=
201506020820 METAR COR EGLL 020820Z 22018KT 7000 SCT008 BKN010 14/13 Q1002
                        NOSIG=
201506020750 METAR COR EGLL 020750Z 22016G26KT 8000 -RA FEW008 BKN010
                        BKN012 14/13 Q1002 NOSIG=
201506020720 METAR COR EGLL 020720Z 22017KT 8000 -RA FEW008 BKN010 BKN012
                        14/13 Q1002 NOSIG=
201506020650 METAR COR EGLL 020650Z 22016KT 9999 -RA FEW008 BKN009 BKN012
                        14/13 Q1002 TEMPO SCT009 BKN012=
201506020620 METAR COR EGLL 020620Z 22015KT 6000 -RADZ FEW008 SCT009 BKN012
                        14/13 Q1001 TEMPO BKN009=
201506020550 METAR COR EGLL 020550Z 22017KT 9999 FEW008 SCT010 BKN012
                        14/12 Q1001 TEMPO -DZ BKN009=
201506020520 METAR COR EGLL 020520Z 22016KT 9999 FEW009 BKN011 14/12 Q1001
                        TEMPO -RADZ BKN009=
201506020450 METAR EGLL 020450Z 22016KT 9999 FEW009 BKN011 13/12 Q1001
                        TEMPO -RADZ BKN009=
201506020420 METAR COR EGLL 020420Z 22015KT 9999 -RA FEW009 BKN012 13/12
                        Q1001 TEMPO 4000 -RADZ BKN009=
201506020350 METAR COR EGLL 020350Z 22017KT 8000 -RADZ FEW008 BKN010 13/12
                        Q1001 TEMPO 4000 RADZ BKN009=
201506020320 METAR COR EGLL 020320Z 22016KT 9999 -RA BKN010 13/12 Q1001
                        TEMPO BKN009=
201506020250 METAR COR EGLL 020250Z 22016G28KT 9999 -RA SCT009 BKN012
                        13/11 Q1001 TEMPO -RA BKN009=
201506020220 METAR COR EGLL 020220Z 21018KT 9999 -RA SCT010 BKN012 12/11
                        Q1001 TEMPO -RADZ BKN009=
201506020150 METAR EGLL 020150Z 21017KT 9999 FEW010 BKN012 12/11 Q1002
                        TEMPO RADZ BKN009=
201506020120 METAR EGLL 020120Z AUTO 21019KT 9999 -DZ BKN010 BKN017 12/10
                        Q1002=
201506020050 METAR EGLL 020050Z AUTO 21020KT 9999 -RA FEW011 BKN013 BKN019
                        12/10 Q1003 REDZ=
201506020020 METAR EGLL 020020Z AUTO 21018KT 9999 -DZ OVC013 12/10 Q1003=
201506012350 METAR COR EGLL 012350Z 21019KT 9999 -RA BKN013 11/09 Q1003
                        TEMPO BKN015=
201506012320 METAR COR EGLL 012320Z 21019KT 9999 -RA SCT015 BKN021 11/09
                        Q1004 TEMPO RA BKN012=
201506012250 METAR EGLL 012250Z 21019G30KT 9999 FEW016 SCT018 BKN021 11/08
                        Q1005 TEMPO RA BKN012=
201506012220 METAR COR EGLL 012220Z 21022G33KT 9999 -RA FEW019 SCT025
                        BKN044 11/08 Q1005 TEMPO RA BKN014=
201506012150 METAR COR EGLL 012150Z 21020KT 9999 -RA FEW019 BKN046 11/08
                        Q1006 TEMPO RA BKN014=
201506012120 METAR COR EGLL 012120Z 21019KT 9999 -RA FEW039 11/08 Q1006
                        TEMPO RA BKN014=
201506012050 METAR COR EGLL 012050Z 21019G29KT 9999 -RA FEW047 11/07 Q1007
                        TEMPO RA BKN014=
201506012020 METAR COR EGLL 012020Z 21017KT 9999 -RA FEW049 12/06 Q1007
                        TEMPO RA BKN014=
201506011950 METAR COR EGLL 011950Z 21017KT 9999 FEW034 12/06 Q1008 TEMPO
                        RA BKN014=
201506011920 METAR COR EGLL 011920Z 21017G29KT 9999 FEW034 12/06 Q1008
                        TEMPO RA BKN014=
201506011850 METAR COR EGLL 011850Z 21018KT 9999 -RA FEW038 SCT043 13/06
                        Q1009 TEMPO RA BKN014=
201506011820 METAR COR EGLL 011820Z 21020KT 9999 FEW041 13/04 Q1009 NOSIG=
201506011750 METAR EGLL 011750Z 21019G33KT 180V240 9999 -RA FEW031 13/05
                        Q1009 NOSIG=
201506011720 METAR COR EGLL 011720Z 20015KT 9999 FEW033 13/06 Q1010 NOSIG=
201506011650 METAR EGLL 011650Z 21016KT 9999 FEW035 SCT045 13/05 Q1011
                        NOSIG=
201506011620 METAR COR EGLL 011620Z 21017KT 9999 SCT035 SCT045 13/05 Q1011
                        NOSIG=
201506011550 METAR EGLL 011550Z 22020G33KT 9999 SCT040 14/04 Q1012 NOSIG=
201506011520 METAR COR EGLL 011520Z 22017KT 9999 SCT044 14/04 Q1012 NOSIG=
201506011450 METAR EGLL 011450Z 22018KT 9999 SCT043 14/04 Q1012 NOSIG=
201506011420 METAR EGLL 011420Z 22017G27KT 9999 FEW043 SCT047 14/03 Q1013=
201506011350 METAR COR EGLL 011350Z 21017KT 9999 FEW043 14/02 Q1013 NOSIG=
201506011320 METAR COR EGLL 011320Z 22016KT 9999 SCT043 15/04 Q1013 NOSIG=
201506011250 METAR COR EGLL 011250Z 21018KT 9999 SCT044 16/03 Q1013 NOSIG=
201506011220 METAR COR EGLL 011220Z 21015G27KT 180V240 9999 SCT036 16/04
                        Q1013 NOSIG=
201506011150 METAR COR EGLL 011150Z 22013KT 190V250 9999 SCT038 15/05
                        Q1014 NOSIG=
201506011120 METAR COR EGLL 011120Z 23018KT 9999 FEW045 14/04 Q1014 NOSIG=
201506011050 METAR COR EGLL 011050Z 22016KT 180V250 9999 FEW044 15/04
                        Q1014 NOSIG=
201506011020 METAR COR EGLL 011020Z 23015KT 9999 SCT045 14/03 Q1014 NOSIG=
201506010950 METAR COR EGLL 010950Z 25015KT 9999 FEW038 SCT040 15/04 Q1014
                        NOSIG=
201506010920 METAR COR EGLL 010920Z 22014KT 9999 FEW034 SCT040 14/05 Q1015
                        NOSIG=
201506010850 METAR EGLL 010850Z 23012KT 9999 FEW031 SCT040 13/05 Q1015
                        NOSIG=
201506010820 METAR COR EGLL 010820Z 23012KT 9999 FEW028 13/05 Q1015 NOSIG=
201506010750 METAR COR EGLL 010750Z 22012KT 9999 FEW024 12/06 Q1015 NOSIG=
201506010720 METAR COR EGLL 010720Z 21008KT 180V240 CAVOK 11/06 Q1015
                        NOSIG=
201506010650 METAR COR EGLL 010650Z 22006KT 190V250 CAVOK 10/05 Q1015
                        NOSIG=
201506010620 METAR COR EGLL 010620Z 21006KT 160V250 CAVOK 09/05 Q1015
                        NOSIG=
201506010550 METAR EGLL 010550Z 20006KT 170V260 CAVOK 08/05 Q1015 NOSIG=
201506010520 METAR COR EGLL 010520Z 22007KT 150V250 CAVOK 08/05 Q1015
                        NOSIG=
201506010450 METAR EGLL 010450Z 22007KT CAVOK 08/04 Q1015 NOSIG=
201506010420 METAR COR EGLL 010420Z 22007KT CAVOK 08/04 Q1015 NOSIG=
201506010350 METAR COR EGLL 010350Z 23008KT CAVOK 08/04 Q1015 NOSIG=
201506010320 METAR COR EGLL 010320Z 23009KT CAVOK 08/04 Q1015 NOSIG=
201506010250 METAR EGLL 010250Z 23008KT CAVOK 08/04 Q1015=
201506010220 METAR COR EGLL 010220Z 23007KT CAVOK 08/04 Q1014 NOSIG=
201506010150 METAR EGLL 010150Z 24006KT CAVOK 08/04 Q1014 NOSIG=
201506010120 METAR EGLL 010120Z AUTO 25007KT 9999 NCD 08/04 Q1014=
201506010050 METAR EGLL 010050Z AUTO 25009KT 9999 NCD 08/04 Q1014=
201506010020 METAR EGLL 010020Z AUTO 25007KT 9999 NCD 09/04 Q1014=

</pre>

</body>
</html>
